{"station_id": ["AGGA", "AGGC", "AGGH", "AGGK", "AGGL", "AGGM", "AGGN", "AGGR", "ANYN", "AYPY", "BGBW", "BGGH", "BGJN", "BGMQ", "BGPT", "BGSF", "BGTL", "BIAR", "BIEG", "BIKF", "BIRK", "BKPR", "CBBC", "CWWU", "CYAM", "CYAW", "CYAY", "CYAZ", "CYBB", "CYBC", "CYBG", "CYBK", "CYBL", "CYBR", "CYBW", "CYBX", "CYCA", "CYCB", "CYCD", "CYCG", "CYCO", "CYCX", "CYCY", "CYDA", "CYDB", "CYDF", "CYDL", "CYDN", "CYDP", "CYDQ", "CYED", "CYEG", "CYEK", "CYEN", "CYEU", "CYEV", "CYFB", "CYFC", "CYFS", "CYGH", "CYGK", "CYGL", "CYGP", "CYGQ", "CYGR", "CYGV", "CYGW", "CYGX", "CYHD", "CYHK", "CYHM", "CYHU", "CYHY", "CYHZ", "CYIO", "CYIV", "CYJT", "CYKA", "CYKF", "CYKJ", "CYKL", "CYLD", "CYLK", "CYLL", "CYLT", "CYLW", "CYMA", "CYMH", "CYMJ", "CYMM", "CYMO", "CYMT", "CYMX", "CYNA", "CYND", "CYNE", "CYOC", "CYOD", "CYOJ", "CYOO", "CYOW", "CYOY", "CYPA", "CYPC", "CYPE", "CYPG", "CYPH", "CYPL", "CYPQ", "CYPR", "CYPX", "CYPY", "CYQA", "CYQB", "CYQD", "CYQF", "CYQG", "CYQH", "CYQI", "CYQK", "CYQL", "CYQM", "CYQQ", "CYQR", "CYQT", "CYQU", "CYQV", "CYQW", "CYQX", "CYQY", "CYQZ", "CYRA", "CYRB", "CYRJ", "CYRL", "CYRQ", "CYRT", "CYSB", "CYSC", "CYSF", "CYSJ", "CYSM", "CYSN", "CYTE", "CYTH", "CYTL", "CYTR", "CYTS", "CYTZ", "CYUB", "CYUL", "CYUT", "CYUX", "CYUY", "CYVC", "CYVM", "CYVO", "CYVP", "CYVQ", "CYVR", "CYVT", "CYVV", "CYWA", "CYWE", "CYWG", "CYWH", "CYWJ", "CYWK", "CYWL", "CYXC", "CYXE", "CYXH", "CYXJ", "CYXL", "CYXP", "CYXR", "CYXS", "CYXT", "CYXU", "CYXX", "CYXY", "CYXZ", "CYYB", "CYYC", "CYYD", "CYYE", "CYYF", "CYYG", "CYYH", "CYYJ", "CYYL", "CYYN", "CYYQ", "CYYR", "CYYT", "CYYU", "CYYY", "CYYZ", "CYZE", "CYZF", "CYZH", "CYZP", "CYZR", "CYZS", "CYZT", "CYZU", "CYZV", "CYZW", "CYZX", "CYZY", "CZBF", "CZFA", "CZFM", "CZMD", "CZMT", "CZSJ", "CZUM", "CZVL", "DAAD", "DAAE", "DAAG", "DAAJ", "DAAP", "DAAS", "DAAT", "DAAV", "DAAY", "DABB", "DABC", "DABS", "DABT", "DAFH", "DAOB", "DAOF", "DAOI", "DAON", "DAOO", "DAOR", "DAOV", "DATM", "DAUA", "DAUB", "DAUG", "DAUH", "DAUI", "DAUK", "DAUL", "DAUO", "DAUT", "DAUU", "DAUZ", "DBBB", "DFFD", "DFOO", "DGAA", "DGLE", "DGSI", "DIAP", "DIBK", "DIYO", "DNAA", "DNAK", "DNBE", "DNGO", "DNIB", "DNIL", "DNJO", "DNKA", "DNKN", "DNKT", "DNMA", "DNMM", "DNSO", "DNSU", "DNYO", "DRRN", "DRZA", "DRZR", "DTKA", "DTMB", "DTNH", "DTTA", "DTTB", "DTTF", "DTTG", "DTTJ", "DTTR", "DTTX", "DTTZ", "DXNG", "DXXX", "EBAW", "EBBE", "EBBL", "EBBR", "EBCI", "EBCV", "EBFN", "EBFS", "EBLG", "EBOS", "EDAC", "EDAH", "EDDB", "EDDC", "EDDE", "EDDF", "EDDG", "EDDH", "EDDK", "EDDL", "EDDM", "EDDN", "EDDP", "EDDR", "EDDS", "EDDV", "EDDW", "EDFH", "EDGS", "EDJA", "EDLN", "EDLP", "EDLV", "EDLW", "EDMA", "EDMO", "EDNY", "EDQM", "EDSB", "EDTL", "EDTY", "EDVK", "EEEI", "EETN", "EFHK", "EFJY", "EFKE", "EFKK", "EFKU", "EFMA", "EFOU", "EFRO", "EFSI", "EFTP", "EFTU", "EFVA", "EGAA", "EGBB", "EGCC", "EGCK", "EGDR", "EGDY", "EGFF", "EGGD", "EGGP", "EGGW", "EGHI", "EGHQ", "EGJA", "EGJB", "EGJJ", "EGKB", "EGKK", "EGLL", "EGMD", "EGNJ", "EGNM", "EGNT", "EGNX", "EGPA", "EGPB", "EGPC", "EGPD", "EGPE", "EGPF", "EGPH", "EGPK", "EGPO", "EGQL", "EGQS", "EGSH", "EGSS", "EGSY", "EGTE", "EGTK", "EGUL", "EGUN", "EGUW", "EGVA", "EGVN", "EGVO", "EGVP", "EGWU", "EGXC", "EGXW", "EGYP", "EHAM", "EHBK", "EHEH", "EHGG", "EHKD", "EHLE", "EHLW", "EHRD", "EHVK", "EICK", "EIDL", "EIDW", "EIKN", "EIKY", "EIME", "EINN", "EISG", "EIWF", "EKAH", "EKBI", "EKCH", "EKEB", "EKKA", "EKRK", "EKRN", "EKSB", "EKSP", "EKYT", "ELLX", "ENAL", "ENAN", "ENAT", "ENBN", "ENBO", "ENBR", "ENBS", "ENCN", "ENDU", "ENEV", "ENFL", "ENGC", "ENGM", "ENHE", "ENHF", "ENHV", "ENKB", "ENKR", "ENLE", "ENMH", "ENML", "ENNA", "ENOA", "ENOL", "ENOV", "ENRA", "ENRY", "ENSB", "ENSD", "ENTC", "ENTO", "ENVA", "ENVD", "ENZV", "EPBY", "EPCE", "EPDA", "EPDE", "EPGD", "EPIR", "EPKK", "EPKS", "EPKT", "EPLB", "EPLK", "EPLL", "EPLY", "EPMB", "EPMI", "EPMM", "EPMO", "EPOK", "EPPO", "EPPR", "EPPW", "EPRA", "EPRZ", "EPSC", "EPSN", "EPSY", "EPTM", "EPWA", "EPWR", "EPZG", "ESGG", "ESGJ", "ESIA", "ESKN", "ESMQ", "ESMS", "ESMX", "ESNN", "ESNS", "ESNU", "ESNZ", "ESOE", "ESPA", "ESSA", "ESSL", "ESTA", "ETAD", "ETAR", "ETEB", "ETHA", "ETHB", "ETHC", "ETHF", "ETHL", "ETHN", "ETHS", "ETIC", "ETIK", "ETMN", "ETNG", "ETNH", "ETNL", "ETNN", "ETNS", "ETNW", "ETOU", "ETSB", "ETSH", "ETSI", "ETSL", "EVGA", "EVLA", "EVRA", "EVVA", "EYKA", "EYPA", "EYSA", "EYVI", "FABL", "FACT", "FAGG", "FALA", "FALE", "FAOR", "FAPE", "FAUP", "FBKE", "FBMN", "FBPM", "FBSK", "FCBB", "FCPP", "FEFF", "FGBT", "FGSL", "FHAW", "FIMP", "FIMR", "FJDG", "FKKD", "FKYS", "FMCH", "FMCZ", "FMEE", "FMMI", "FMMS", "FMMT", "FMNA", "FMNM", "FMNN", "FMSD", "FMST", "FNBG", "FNCA", "FNCT", "FNDU", "FNGI", "FNHU", "FNKU", "FNLU", "FNMA", "FNME", "FNMO", "FNSA", "FNSO", "FNUB", "FNUE", "FOOG", "FOOL", "FQBR", "FQCH", "FQIN", "FQLC", "FQMA", "FQNC", "FQNP", "FQPB", "FQQL", "FQTT", "FQVL", "FQXA", "FSIA", "FTTJ", "FVJN", "FVRG", "FWCL", "FWKI", "FYGF", "FYKM", "FYKT", "FYLZ", "FYRU", "FYWB", "FYWE", "FYWH", "FZAA", "FZIC", "FZQA", "GABS", "GAGO", "GBYD", "GCFV", "GCGM", "GCHI", "GCLA", "GCLP", "GCRR", "GCTS", "GCXO", "GECE", "GEML", "GFLL", "GGOV", "GLRB", "GMAD", "GMAG", "GMFF", "GMFK", "GMFM", "GMFO", "GMME", "GMMH", "GMMI", "GMML", "GMMN", "GMMW", "GMMX", "GMMZ", "GMTA", "GMTT", "GOBD", "GOGS", "GOOY", "GOSS", "GQNO", "GQPP", "GUCY", "GVAC", "GVBA", "GVNP", "GVSV", "HAAB", "HADR", "HBBA", "HCMM", "HEAL", "HEAR", "HEAT", "HEAX", "HEBA", "HEBL", "HECA", "HEGN", "HELX", "HEMA", "HEMM", "HEOW", "HEPS", "HESC", "HESG", "HESH", "HESN", "HETB", "HETR", "HKEL", "HKJK", "HKKI", "HKML", "HKMO", "HKNW", "HLGD", "HLGT", "HLKF", "HLLB", "HLLM", "HLLQ", "HLLS", "HLMS", "HLON", "HLTD", "HLTQ", "HLUB", "HRYR", "HRZA", "HTAR", "HTBU", "HTDA", "HTDO", "HTKA", "HTKJ", "HTMW", "HTTB", "HTZA", "HUEN", "HUSO", "KABE", "KABI", "KABQ", "KABR", "KABY", "KACK", "KACT", "KACV", "KACY", "KADF", "KADW", "KAEG", "KAEX", "KAFF", "KAFW", "KAGC", "KAGS", "KAHN", "KAIA", "KALB", "KALI", "KALO", "KALS", "KALW", "KAMA", "KANB", "KAND", "KAOO", "KAPA", "KAPC", "KAPF", "KAPN", "KARA", "KART", "KASD", "KASE", "KASN", "KAST", "KATL", "KATW", "KATY", "KAUG", "KAUS", "KAUW", "KAVL", "KAVP", "KAXN", "KAZO", "KBAB", "KBAD", "KBAF", "KBAM", "KBBD", "KBBG", "KBCB", "KBCE", "KBDL", "KBDN", "KBDR", "KBED", "KBFD", "KBFF", "KBFI", "KBFL", "KBFM", "KBGM", "KBGR", "KBHB", "KBHM", "KBIF", "KBIH", "KBIL", "KBIS", "KBIX", "KBJC", "KBJI", "KBKE", "KBKF", "KBKW", "KBLF", "KBLH", "KBLI", "KBLV", "KBMG", "KBMI", "KBNA", "KBNO", "KBOI", "KBOS", "KBPI", "KBPK", "KBPT", "KBRD", "KBRL", "KBRO", "KBTL", "KBTM", "KBTR", "KBTV", "KBUF", "KBUR", "KBVI", "KBVO", "KBWG", "KBWI", "KBYI", "KBZN", "KCAE", "KCAK", "KCAR", "KCBM", "KCDC", "KCDR", "KCDS", "KCEC", "KCEF", "KCGI", "KCHA", "KCHO", "KCHS", "KCID", "KCIU", "KCKB", "KCKV", "KCLE", "KCLL", "KCLM", "KCLT", "KCMA", "KCMH", "KCMI", "KCMX", "KCNM", "KCNU", "KCNY", "KCOD", "KCOE", "KCOF", "KCON", "KCOS", "KCOT", "KCOU", "KCPR", "KCPS", "KCRE", "KCRG", "KCRP", "KCRQ", "KCRW", "KCSG", "KCSM", "KCSV", "KCTB", "KCUB", "KCVG", "KCVS", "KCWA", "KCXO", "KCXP", "KCYS", "KDAA", "KDAB", "KDAG", "KDAL", "KDAN", "KDAY", "KDBQ", "KDCA", "KDDC", "KDEC", "KDEN", "KDET", "KDFW", "KDHN", "KDHT", "KDIJ", "KDIK", "KDLF", "KDLH", "KDLS", "KDMA", "KDMN", "KDNL", "KDOV", "KDPA", "KDRO", "KDRT", "KDSM", "KDTW", "KDUG", "KDUJ", "KDVL", "KDVT", "KDYS", "KEAR", "KEAT", "KEAU", "KECG", "KECP", "KEDW", "KEED", "KEET", "KEFD", "KEFK", "KEGE", "KEGI", "KEKN", "KEKO", "KEKS", "KELD", "KELM", "KELP", "KELY", "KEND", "KENV", "KENW", "KERI", "KEUG", "KEUL", "KEVV", "KEVW", "KEWN", "KEWR", "KEYW", "KFAF", "KFAR", "KFAT", "KFAY", "KFBG", "KFCS", "KFDY", "KFFO", "KFHU", "KFKL", "KFLG", "KFLL", "KFLO", "KFMH", "KFMN", "KFMY", "KFNT", "KFOD", "KFOE", "KFPR", "KFRI", "KFSD", "KFSM", "KFST", "KFTK", "KFTW", "KFTY", "KFVE", "KFWA", "KFXE", "KFYV", "KGBD", "KGCC", "KGCK", "KGCN", "KGDV", "KGEG", "KGFA", "KGFK", "KGFL", "KGGG", "KGGW", "KGJT", "KGKY", "KGLD", "KGLH", "KGLS", "KGMU", "KGNV", "KGON", "KGPI", "KGPT", "KGRB", "KGRF", "KGRI", "KGRK", "KGRR", "KGSB", "KGSO", "KGSP", "KGTB", "KGTF", "KGTR", "KGUC", "KGUP", "KGUR", "KGUS", "KGUY", "KGWO", "KGYY", "KHBG", "KHCR", "KHDC", "KHDN", "KHIB", "KHIE", "KHIF", "KHIO", "KHKS", "KHKY", "KHLG", "KHLN", "KHMN", "KHNB", "KHND", "KHOB", "KHON", "KHOP", "KHOT", "KHOU", "KHPN", "KHQM", "KHRF", "KHRL", "KHRO", "KHRT", "KHST", "KHSV", "KHTS", "KHUA", "KHUF", "KHUL", "KHUM", "KHUT", "KHVR", "KHYA", "KHYR", "KHYS", "KIAB", "KIAD", "KIAG", "KIAH", "KICT", "KIDA", "KIFP", "KILG", "KILM", "KILN", "KIND", "KINK", "KINL", "KINS", "KINT", "KINW", "KIPL", "KIPT", "KISM", "KISO", "KISP", "KITH", "KIWA", "KIWD", "KIXD", "KJAC", "KJAN", "KJAX", "KJBR", "KJCT", "KJEF", "KJER", "KJFK", "KJHW", "KJKA", "KJKL", "KJLN", "KJMS", "KJST", "KJVL", "KJXN", "KJZI", "KLAF", "KLAL", "KLAN", "KLAR", "KLAS", "KLAW", "KLAX", "KLBB", "KLBE", "KLBF", "KLBL", "KLBT", "KLBX", "KLCH", "KLCK", "KLEB", "KLEE", "KLEX", "KLFI", "KLFK", "KLFT", "KLGA", "KLGB", "KLGU", "KLIT", "KLLQ", "KLMT", "KLND", "KLNK", "KLNS", "KLOZ", "KLRD", "KLRF", "KLRU", "KLSE", "KLSF", "KLSV", "KLTS", "KLUF", "KLUK", "KLVK", "KLVM", "KLVS", "KLWB", "KLWS", "KLWT", "KLYH", "KMAF", "KMBG", "KMBL", "KMBS", "KMCB", "KMCC", "KMCE", "KMCF", "KMCI", "KMCK", "KMCN", "KMCO", "KMCW", "KMDT", "KMDW", "KMEI", "KMEM", "KMER", "KMEV", "KMFD", "KMFE", "KMFR", "KMGE", "KMGM", "KMGW", "KMHK", "KMHR", "KMHT", "KMIA", "KMIB", "KMIV", "KMKC", "KMKE", "KMKG", "KMKL", "KMKT", "KMLB", "KMLC", "KMLI", "KMLS", "KMLU", "KMMH", "KMMT", "KMOB", "KMOD", "KMOT", "KMPV", "KMQY", "KMRB", "KMRY", "KMSL", "KMSN", "KMSO", "KMSP", "KMSS", "KMSY", "KMTC", "KMTH", "KMTJ", "KMTN", "KMTW", "KMUI", "KMUO", "KMVN", "KMWH", "KMXF", "KMYL", "KMYR", "KNBC", "KNBG", "KNCA", "KNEW", "KNFG", "KNFL", "KNFW", "KNGP", "KNGU", "KNHK", "KNID", "KNIP", "KNJK", "KNKT", "KNKX", "KNLC", "KNMM", "KNPA", "KNQI", "KNQX", "KNRB", "KNSE", "KNTD", "KNTU", "KNUC", "KNUW", "KNXP", "KNYG", "KNYL", "KNZY", "KOAJ", "KOAK", "KOFF", "KOFK", "KOGB", "KOGD", "KOKC", "KOLF", "KOLM", "KOLS", "KOMA", "KONP", "KONT", "KOPF", "KORD", "KORF", "KORH", "KOTH", "KOTM", "KOUN", "KOWB", "KOXR", "KOZR", "KPAE", "KPAH", "KPAM", "KPBF", "KPBG", "KPBI", "KPDK", "KPDT", "KPDX", "KPEQ", "KPGA", "KPGD", "KPGV", "KPHF", "KPHL", "KPHX", "KPIA", "KPIB", "KPIE", "KPIH", "KPIR", "KPIT", "KPKB", "KPLN", "KPMD", "KPNA", "KPNC", "KPNE", "KPNS", "KPOB", "KPOE", "KPOU", "KPQI", "KPRB", "KPRC", "KPSC", "KPSF", "KPSM", "KPSP", "KPTK", "KPUB", "KPUW", "KPVD", "KPVU", "KPVW", "KPWM", "KPWT", "KRAP", "KRBG", "KRBL", "KRCA", "KRDD", "KRDG", "KRDM", "KRDR", "KRDU", "KRFD", "KRHI", "KRIC", "KRIL", "KRIV", "KRIW", "KRKD", "KRKS", "KRME", "KRND", "KRNH", "KRNO", "KROA", "KROC", "KROG", "KROW", "KRSL", "KRST", "KRSW", "KRUT", "KRVS", "KRWF", "KRWI", "KRWL", "KRYY", "KSAC", "KSAF", "KSAN", "KSAT", "KSAV", "KSAW", "KSBA", "KSBD", "KSBM", "KSBN", "KSBP", "KSBY", "KSCK", "KSDF", "KSDL", "KSDY", "KSEA", "KSEZ", "KSFB", "KSFF", "KSFO", "KSGF", "KSGJ", "KSGR", "KSGU", "KSHR", "KSHV", "KSJC", "KSJS", "KSJT", "KSKA", "KSKF", "KSLC", "KSLE", "KSLI", "KSLK", "KSLN", "KSME", "KSMF", "KSMN", "KSMO", "KSMX", "KSNA", "KSNS", "KSNY", "KSOA", "KSPI", "KSPS", "KSRB", "KSRQ", "KSSC", "KSSF", "KSSI", "KSTC", "KSTJ", "KSTL", "KSTS", "KSUA", "KSUN", "KSUS", "KSUU", "KSUX", "KSVN", "KSWF", "KSWO", "KSYM", "KSYR", "KSZL", "KTBN", "KTCC", "KTCL", "KTCM", "KTCS", "KTEB", "KTEX", "KTIK", "KTIX", "KTLH", "KTMB", "KTOI", "KTOL", "KTOP", "KTPA", "KTPH", "KTRI", "KTRK", "KTRM", "KTTD", "KTTN", "KTUL", "KTUP", "KTUS", "KTVC", "KTVF", "KTVL", "KTWF", "KTXK", "KTYR", "KTYS", "KUAO", "KUES", "KUIN", "KUKI", "KUNV", "KUTS", "KVAD", "KVBG", "KVCT", "KVEL", "KVGT", "KVIS", "KVLD", "KVNY", "KVOK", "KVPS", "KVQQ", "KVRB", "KVTN", "KWJF", "KWMC", "KWRB", "KWRI", "KWRL", "KWWR", "KXNA", "KXWA", "KYIP", "KYKM", "KYNG", "KZZV", "LAKU", "LATI", "LBBG", "LBGO", "LBPD", "LBSF", "LBWN", "LCEN", "LCLK", "LCPH", "LCRA", "LDDU", "LDOS", "LDPL", "LDRI", "LDSP", "LDZA", "LDZD", "LEAB", "LEAG", "LEAL", "LEAM", "LEAO", "LEAS", "LEBA", "LEBB", "LEBG", "LEBL", "LEBR", "LEBZ", "LECO", "LECV", "LEEC", "LEGA", "LEGE", "LEGR", "LEGT", "LEHC", "LEIB", "LEJR", "LELC", "LELL", "LELN", "LELO", "LEMD", "LEMG", "LEMH", "LEMO", "LEPA", "LEPP", "LERI", "LERL", "LERS", "LERT", "LESA", "LESO", "LEST", "LESU", "LETO", "LEVC", "LEVD", "LEVS", "LEVT", "LEVX", "LEXJ", "LEZG", "LEZL", "LFAQ", "LFAT", "LFBA", "LFBC", "LFBD", "LFBE", "LFBG", "LFBH", "LFBI", "LFBL", "LFBM", "LFBO", "LFBP", "LFBT", "LFBU", "LFBZ", "LFCK", "LFCR", "LFGJ", "LFJL", "LFKB", "LFKC", "LFKF", "LFKJ", "LFKS", "LFLB", "LFLC", "LFLL", "LFLN", "LFLP", "LFLS", "LFLW", "LFLX", "LFLY", "LFMD", "LFMI", "LFMK", "LFML", "LFMN", "LFMO", "LFMP", "LFMT", "LFMU", "LFMV", "LFMY", "LFOA", "LFOB", "LFOE", "LFOH", "LFOJ", "LFOK", "LFOP", "LFOT", "LFPB", "LFPG", "LFPN", "LFPO", "LFPV", "LFQQ", "LFRB", "LFRC", "LFRD", "LFRG", "LFRH", "LFRI", "LFRJ", "LFRK", "LFRL", "LFRM", "LFRN", "LFRQ", "LFRS", "LFRZ", "LFSB", "LFSI", "LFSL", "LFSO", "LFST", "LFSX", "LFTH", "LFTW", "LFVP", "LFYR", "LGAD", "LGAL", "LGAV", "LGBL", "LGEL", "LGHI", "LGIO", "LGIR", "LGKC", "LGKF", "LGKL", "LGKO", "LGKP", "LGKR", "LGKV", "LGLM", "LGLR", "LGMK", "LGMT", "LGPZ", "LGRP", "LGRX", "LGSA", "LGSK", "LGSM", "LGSR", "LGST", "LGSY", "LGTG", "LGTL", "LGTS", "LGZA", "LHBP", "LHDC", "LHKE", "LHPA", "LHPP", "LHPR", "LHSN", "LIBA", "LIBC", "LIBD", "LIBF", "LIBG", "LIBP", "LIBR", "LIBV", "LICA", "LICB", "LICC", "LICD", "LICG", "LICJ", "LICR", "LICT", "LICZ", "LIEA", "LIED", "LIEE", "LIEO", "LIMC", "LIME", "LIMF", "LIMG", "LIMJ", "LIML", "LIMP", "LIMW", "LIMZ", "LIPB", "LIPC", "LIPE", "LIPH", "LIPK", "LIPL", "LIPO", "LIPQ", "LIPR", "LIPS", "LIPX", "LIPY", "LIPZ", "LIRA", "LIRE", "LIRF", "LIRM", "LIRN", "LIRP", "LIRQ", "LIRS", "LIRU", "LIRV", "LIRZ", "LJCE", "LJLJ", "LJMB", "LJPZ", "LKCV", "LKKB", "LKKV", "LKMT", "LKNA", "LKPR", "LKTB", "LLBG", "LLER", "LLHA", "LLHZ", "LLIB", "LMML", "LOWG", "LOWI", "LOWK", "LOWL", "LOWS", "LOWW", "LOXA", "LOXT", "LOXZ", "LPAZ", "LPBJ", "LPCS", "LPFR", "LPHR", "LPLA", "LPMA", "LPMR", "LPMT", "LPOV", "LPPD", "LPPR", "LPPS", "LPPT", "LQBK", "LQMO", "LQSA", "LQTZ", "LRAR", "LRBC", "LRBM", "LRBS", "LRCK", "LRCL", "LRCV", "LRIA", "LROD", "LROP", "LRSB", "LRSM", "LRSV", "LRTM", "LRTR", "LSGC", "LSGG", "LSGS", "LSZA", "LSZB", "LSZC", "LSZG", "LSZH", "LSZL", "LSZR", "LSZS", "LTAB", "LTAC", "LTAD", "LTAE", "LTAF", "LTAG", "LTAH", "LTAI", "LTAJ", "LTAL", "LTAN", "LTAO", "LTAP", "LTAR", "LTAS", "LTAT", "LTAU", "LTAV", "LTAW", "LTAY", "LTAZ", "LTBA", "LTBD", "LTBF", "LTBG", "LTBH", "LTBI", "LTBJ", "LTBK", "LTBL", "LTBN", "LTBO", "LTBP", "LTBQ", "LTBR", "LTBS", "LTBT", "LTBU", "LTBV", "LTBX", "LTBY", "LTBZ", "LTCA", "LTCB", "LTCC", "LTCD", "LTCE", "LTCF", "LTCG", "LTCI", "LTCJ", "LTCK", "LTCL", "LTCM", "LTCN", "LTCO", "LTCP", "LTCR", "LTCS", "LTCT", "LTCU", "LTCV", "LTCW", "LTDA", "LTFA", "LTFB", "LTFC", "LTFD", "LTFE", "LTFG", "LTFH", "LTFJ", "LTFK", "LTFM", "LTFO", "LUKK", "LWOH", "LWSK", "LXGB", "LYBE", "LYBT", "LYKV", "LYNI", "LYPG", "LYTV", "LYVR", "LZIB", "LZKZ", "LZMC", "LZPP", "LZPW", "LZSL", "LZTT", "LZZI", "MBGT", "MBPV", "MDBH", "MDCY", "MDJB", "MDLR", "MDPC", "MDPP", "MDSD", "MDST", "MGGT", "MGMM", "MGPB", "MHLC", "MHLM", "MHPR", "MHRO", "MHTG", "MKJP", "MKJS", "MMAA", "MMAN", "MMAS", "MMBT", "MMCB", "MMCE", "MMCL", "MMCM", "MMCN", "MMCP", "MMCS", "MMCU", "MMCV", "MMCZ", "MMDO", "MMEP", "MMGL", "MMGM", "MMHO", "MMIA", "MMIO", "MMLM", "MMLO", "MMLP", "MMLT", "MMMA", "MMMD", "MMML", "MMMM", "MMMT", "MMMV", "MMMX", "MMMY", "MMMZ", "MMNL", "MMOX", "MMPA", "MMPB", "MMPG", "MMPN", "MMPQ", "MMPR", "MMPS", "MMQT", "MMRX", "MMSD", "MMSL", "MMSM", "MMSP", "MMTC", "MMTG", "MMTJ", "MMTM", "MMTO", "MMTP", "MMUN", "MMVA", "MMVR", "MMZC", "MMZH", "MMZO", "MNBL", "MNMG", "MNPC", "MPDA", "MPMG", "MPPA", "MPSM", "MPTO", "MRLB", "MRLM", "MROC", "MRPV", "MSLP", "MSSS", "MTCH", "MTPP", "MUCC", "MUCF", "MUCL", "MUCM", "MUCU", "MUGM", "MUHA", "MUHG", "MUSC", "MUVR", "MWCB", "MWCR", "MYGF", "MYNN", "NCRG", "NFFN", "NFNA", "NFTF", "NFTV", "NGFU", "NGTA", "NIUE", "NLWF", "NLWW", "NSFA", "NSTU", "NTAA", "NVSC", "NVSG", "NVSL", "NVSP", "NVSS", "NVVA", "NVVV", "NVVW", "NWWD", "NWWE", "NWWK", "NWWL", "NWWM", "NWWR", "NWWU", "NWWW", "NZAA", "NZCH", "NZQN", "NZWN", "OBBI", "OEAB", "OEAH", "OEAO", "OEBA", "OEBH", "OEDF", "OEDM", "OEDR", "OEGN", "OEGS", "OEGT", "OEHL", "OEJN", "OEKJ", "OEKM", "OEMA", "OENG", "OEPA", "OEPS", "OERF", "OERK", "OERR", "OESH", "OESK", "OETB", "OETF", "OETR", "OEWD", "OEWJ", "OEYN", "OIAA", "OIAW", "OIBB", "OIBK", "OIBP", "OICC", "OICI", "OIFM", "OIGG", "OIIE", "OIII", "OIIP", "OIKB", "OIKK", "OIMM", "OING", "OINZ", "OISL", "OISS", "OITL", "OITR", "OITT", "OIYY", "OIZH", "OJAI", "OJAM", "OJAQ", "OKAS", "OLBA", "OMAA", "OMAD", "OMAL", "OMDB", "OMDW", "OMFJ", "OMRK", "OMSJ", "OODQ", "OOMS", "OOSA", "OOSH", "OPBW", "OPDG", "OPFA", "OPGD", "OPIS", "OPKC", "OPLA", "OPMT", "OPNH", "OPPS", "OPRK", "OPSK", "OPST", "ORBI", "ORER", "ORMM", "ORSU", "OSAP", "OSDI", "OSLK", "OTBD", "OTBH", "OTHH", "OYAA", "PAAQ", "PABE", "PABI", "PABR", "PABT", "PACD", "PACV", "PADL", "PADQ", "PADU", "PAED", "PAEI", "PAEN", "PAFA", "PAFB", "PAGA", "PAGK", "PAGS", "PAGY", "PAHN", "PAHO", "PAIL", "PAJN", "PAKN", "PAKT", "PAKW", "PAMC", "PANC", "PAOM", "PAOR", "PAOT", "PAPG", "PAQT", "PASC", "PASD", "PASI", "PASN", "PASY", "PATA", "PATK", "PAUN", "PAVD", "PAWG", "PAYA", "PGRO", "PGSN", "PGUA", "PGUM", "PGWT", "PHHI", "PHJH", "PHJR", "PHKO", "PHLI", "PHMK", "PHNG", "PHNL", "PHNY", "PHOG", "PHTO", "PKMJ", "PKWA", "PLCH", "PMDY", "PTKK", "PTPN", "PTRO", "PTSA", "PTYA", "PWAK", "RCFN", "RCKH", "RCMQ", "RCNN", "RCSS", "RCTP", "RJAA", "RJAH", "RJBB", "RJCB", "RJCC", "RJCH", "RJCK", "RJCM", "RJEC", "RJFF", "RJFK", "RJFM", "RJFO", "RJFR", "RJFS", "RJFT", "RJFU", "RJGG", "RJNK", "RJNS", "RJNT", "RJOA", "RJOB", "RJOC", "RJOH", "RJOI", "RJOK", "RJOM", "RJOO", "RJOT", "RJSA", "RJSF", "RJSI", "RJSK", "RJSN", "RJSS", "RJTT", "RJTY", "RKJB", "RKJK", "RKNN", "RKNW", "RKNY", "RKPC", "RKPK", "RKSG", "RKSI", "RKSM", "RKSO", "RKSS", "RKSW", "RKTE", "RKTI", "RKTN", "RKTP", "RKTU", "RKTY", "ROAH", "RODN", "ROIG", "ROTM", "RPLB", "RPLC", "RPLI", "RPLL", "RPMD", "RPMR", "RPMZ", "RPVD", "RPVM", "RPVP", "SAAR", "SABE", "SACO", "SADF", "SAEZ", "SAME", "SANR", "SANT", "SARE", "SARF", "SARI", "SARP", "SASA", "SASJ", "SAVC", "SAVE", "SAVT", "SAVV", "SAWC", "SAWE", "SAWG", "SAWH", "SAZM", "SAZN", "SAZS", "SBAC", "SBAF", "SBAN", "SBAT", "SBBE", "SBBI", "SBBU", "SBBV", "SBBW", "SBCJ", "SBCO", "SBCY", "SBCZ", "SBDN", "SBEG", "SBGW", "SBIH", "SBIL", "SBIZ", "SBJV", "SBKG", "SBMA", "SBME", "SBMQ", "SBNT", "SBOI", "SBPK", "SBPV", "SBRB", "SBSC", "SBSM", "SBSN", "SBTF", "SBTT", "SBUG", "SBUL", "SBUR", "SBVH", "SBYS", "SCAR", "SCAT", "SCBA", "SCCF", "SCCH", "SCCI", "SCCY", "SCDA", "SCEL", "SCFA", "SCFM", "SCGE", "SCGZ", "SCHR", "SCIC", "SCIE", "SCIP", "SCIR", "SCJO", "SCMK", "SCNT", "SCQP", "SCRD", "SCRG", "SCSE", "SCSN", "SCTB", "SCTE", "SCTN", "SCVD", "SCVM", "SEGU", "SELT", "SEMT", "SEQM", "SGAS", "SGCO", "SGEN", "SGES", "SKAR", "SKBG", "SKBO", "SKBQ", "SKCC", "SKCG", "SKCL", "SKLT", "SKPE", "SKRG", "SKSM", "SKSP", "SLAL", "SLCB", "SLCO", "SLET", "SLLP", "SLTJ", "SLTR", "SLVR", "SMJP", "SMZO", "SOCA", "SPCL", "SPEO", "SPGM", "SPHI", "SPHO", "SPJC", "SPJI", "SPJJ", "SPJL", "SPJR", "SPLO", "SPME", "SPMS", "SPNC", "SPPY", "SPQT", "SPQU", "SPRU", "SPSO", "SPST", "SPTN", "SPTU", "SPUR", "SPYL", "SPZO", "SUAA", "SUCA", "SUDU", "SULS", "SUMU", "SURV", "SUSO", "SVBC", "SVJC", "SVMC", "SVMG", "SVMI", "SVSA", "SVVA", "SYCJ", "SYEB", "SYEC", "SYKA", "SYKM", "SYLT", "SYMB", "TAPA", "TBPB", "TDPD", "TFFF", "TFFR", "TGPY", "TIST", "TISX", "TJBQ", "TJPS", "TJSJ", "TKPK", "TKPN", "TLPC", "TLPL", "TNCA", "TNCB", "TNCC", "TNCM", "TQPF", "TRPG", "TTCP", "TTPP", "TUPJ", "TVSA", "TXKF", "UAAA", "UACC", "UADD", "UAII", "UAIT", "UAKK", "UAOO", "UARR", "UASK", "UASP", "UATE", "UATG", "UATT", "UAUU", "UBBB", "UBBF", "UBBG", "UBBL", "UBBN", "UBBQ", "UBBY", "UBBZ", "UBEE", "UCFL", "UCFM", "UCFO", "UDSG", "UDYZ", "UEEE", "UERP", "UERR", "UGKO", "UGSB", "UGTB", "UHBB", "UHHH", "UHMA", "UHMD", "UHMM", "UHPP", "UHSS", "UHWW", "UIAA", "UIBB", "UIII", "UIUU", "ULAA", "ULLI", "ULMM", "ULOO", "ULPB", "ULWC", "UMGG", "UMII", "UMKK", "UMMS", "UNAA", "UNBB", "UNEE", "UNKL", "UNNT", "UNOO", "UNTT", "UNWW", "UOOO", "URKA", "URKK", "URMG", "URML", "URMM", "URMN", "URMO", "URMT", "URRP", "URSS", "URWA", "URWW", "USCC", "USCM", "USDA", "USHH", "USNN", "USPP", "USRR", "USSS", "USTR", "UTAA", "UTAK", "UTAM", "UTAT", "UTAV", "UTFN", "UTNN", "UTNU", "UTSA", "UTSB", "UTSS", "UTST", "UTTT", "UUBC", "UUBP", "UUBW", "UUDD", "UUDL", "UUEE", "UUMO", "UUOB", "UUOK", "UUOL", "UUOO", "UUWW", "UUYY", "UWGG", "UWKD", "UWKE", "UWKS", "UWLL", "UWLW", "UWOO", "UWOR", "UWPS", "UWSG", "UWUU", "UWWW", "VAAH", "VABB", "VABJ", "VABO", "VABP", "VABV", "VADU", "VAID", "VAJB", "VAJM", "VANP", "VAOZ", "VAPO", "VAPR", "VARK", "VASU", "VAUD", "VCBI", "VCRI", "VDPP", "VDSR", "VDSV", "VEAT", "VEBD", "VEBN", "VEBS", "VECC", "VEDG", "VEGT", "VEGY", "VEIM", "VEKO", "VEKU", "VEMN", "VEMR", "VEPT", "VERC", "VERP", "VERU", "VETZ", "VGEG", "VGHS", "VHHH", "VIAG", "VIAR", "VICG", "VIDP", "VIGR", "VIJP", "VIJU", "VILH", "VILK", "VISR", "VIUT", "VLLB", "VLLN", "VLPS", "VLSK", "VLVT", "VMMC", "VNKT", "VOBG", "VOBL", "VOBM", "VOBZ", "VOCB", "VOCI", "VOCL", "VOGO", "VOHB", "VOHS", "VOKN", "VOMD", "VOML", "VOMM", "VORY", "VOTP", "VOTR", "VOTV", "VOVZ", "VRMG", "VRMH", "VRMM", "VTBD", "VTBO", "VTBS", "VTBU", "VTCC", "VTCH", "VTCL", "VTCN", "VTCP", "VTCT", "VTPB", "VTPH", "VTPM", "VTPO", "VTPP", "VTPT", "VTSB", "VTSC", "VTSE", "VTSF", "VTSG", "VTSM", "VTSP", "VTSR", "VTSS", "VTST", "VTSY", "VTUD", "VTUI", "VTUK", "VTUL", "VTUO", "VTUQ", "VTUU", "VTUV", "VTUW", "VVCI", "VVCR", "VVCT", "VVDN", "VVNB", "VVPB", "VVPQ", "VVTS", "VVVD", "VYMD", "VYNT", "VYYY", "WAAA", "WABB", "WADD", "WADL", "WALL", "WALS", "WAMM", "WAOO", "WAPP", "WAQA", "WAQD", "WAQJ", "WAQQ", "WAQT", "WARR", "WATT", "WBGB", "WBGG", "WBGR", "WBGS", "WBKK", "WBKL", "WBKS", "WBKW", "WBSB", "WIDD", "WIEE", "WIHH", "WIII", "WIMM", "WIPP", "WITT", "WMAP", "WMBT", "WMKA", "WMKB", "WMKC", "WMKE", "WMKI", "WMKJ", "WMKK", "WMKL", "WMKM", "WMKN", "WMKP", "WMPA", "WMSA", "WPDL", "WSAP", "WSSL", "WSSS", "YAMB", "YBAS", "YBBN", "YBCG", "YBCS", "YBHM", "YBLN", "YBMA", "YBRK", "YBRM", "YBSU", "YBTL", "YBWW", "YCFS", "YCIN", "YFRT", "YGEL", "YGLA", "YHID", "YLHI", "YMAV", "YMHB", "YMLT", "YMML", "YPAD", "YPCC", "YPDN", "YPEA", "YPGV", "YPJT", "YPKG", "YPKU", "YPLM", "YPPD", "YPPH", "YPTN", "YPWR", "YPXM", "YSCB", "YSDU", "YSNF", "YSRI", "YSSY", "YSTW", "ZBAA", "ZBAD", "ZBHH", "ZBSJ", "ZBTJ", "ZBYN", "ZGGG", "ZGHA", "ZGKL", "ZGNN", "ZGOW", "ZGSZ", "ZHCC", "ZHHH", "ZJHK", "ZJSY", "ZLLL", "ZLXY", "ZMCK", "ZMUB", "ZPPP", "ZSAM", "ZSFZ", "ZSHC", "ZSNB", "ZSNJ", "ZSOF", "ZSPD", "ZSQD", "ZSSS", "ZUCK", "ZUGY", "ZUUU", "ZWSH", "ZWWW", "ZYCC", "ZYHB", "ZYTL", "ZYTX"], "raw_text": ["TAF AGGA 251710Z 2518/2618 09010KT 9999 SCT018", "TAF AGGC 251710Z 2518/2618 09010KT 9999 SCT018", "TAF AGGH 251710Z 2518/2618 02008KT 9999 SCT018 T 24 26 31 33 Q 1007 1009 1009 1007", "TAF AGGK 251710Z 2518/2618 11010KT 9999 SCT018", "TAF AGGL 251710Z 2518/2618 05015KT 9999 SCT018 ", "TAF AGGM 251710Z 2518/2618 07010KT 9999 SCT018", "TAF AGGN 251710Z 2518/2618 07010KT 9999 SCT018", "TAF AGGR 251710Z 2518/2618 05015KT 9999 SCT018 PROB30 INTER 2518/2521 TSRA 5000 SCT016 SCT017CB", "TAF ANYN 251003Z 2512/2612 06005KT 9999 SCT020 FM251800 07006KT 9999 -SHRA SCT018 BKN040", "TAF AYPY 251515Z 2518/2618 VRB03KT 9999 SCT018 SCT140 FM260100 13010KT 9999 SCT018 SCT140 INTER 2605/2609 5000 SHRA BKN010 PROB30 2519/2521 VRB03KT 0600 FG", "TAF BGBW 252011Z 2521/2602 22008KT 9999 FEW045 BKN120 TEMPO 2521/2602 BKN080", "TAF AMD BGGH 251950Z 2519/2524 20024KT 9999 SCT004 BKN100 TEMPO 2519/2524 BKN004", "TAF BGJN 251701Z 2518/2522 28002KT 9999 BKN055 BECMG 2518/2519 18010KT BECMG 2519/2521 2500 -SNRA BR BKN004 TEMPO 2521/2522 5000 BKN007", "TAF BGMQ 251508Z 2515/2524 13012KT 9999 -RA BKN004 TEMPO 2515/2524 2500 -RASN BR SCT004 BKN015", "TAF BGPT 252039Z 2521/2601 VRB02KT 9999 -RA SCT014 BKN040 TEMPO 2521/2601 7000 BKN012", "TAF AMD BGSF 252005Z 2520/2601 30005KT 9999 FEW004 BKN060 TEMPO 2520/2601 3000 -SNRA BKN008", "TAF BGTL 2519/2701 VRB06KT 5000 -SN SCT003 OVC020 620206 QNH3020INS TEMPO 2519/2523 3200 -SN BKN003 620038 BECMG 2602/2603 VRB06KT 6000 BR BKN006 OVC010 610064 QNH3024INS TEMPO 2602/2606 4800 -SN BECMG 2606/2607 19012KT 9999 NSW FEW004 SCT010 BKN050 610505 QNH3028INS BECMG 2608/2609 20015G25KT 1600 BLSN BKN008 OVC012 610086 QNH3030INS BECMG 2613/2614 17012KT 9999 NSW SCT008 BKN015 OVC030 620303 QNH3032INS TXM06/2515Z TNM12/2603Z", "TAF BIAR 251932Z 2521/2621 03005KT 9999 SCT030 BKN043 TX01/2615Z TNM04/2604Z PROB40 TEMPO 2521/2601 4000 -SHSN BKN012", "TAF BIEG 251933Z 2521/2621 36008KT 9999 SCT025 BKN040 TX00/2615Z TNM05/2606Z TEMPO 2521/2608 4500 -SHSN OVC010", "TAF BIKF 251930Z 2521/2621 06008KT 9999 FEW025 TX04/2615Z TNM00/2604Z TEMPO 2521/2603 SHSNRA BKN013 PROB40 TEMPO 2603/2621 SHSNRA BKN013", "TAF BIRK 251931Z 2521/2621 03008KT 9999 SCT024 TX05/2615Z TNM01/2606Z TEMPO 2521/2602 SHSNRA BKN018", "TAF COR BKPR 251730Z 2518/2618 36010KT 9999 SCT030 BKN070 TEMPO 2518/2521 5000 SHRA FEW030CB TEMPO 2612/2618 4000 SHRA SCT025CB", "TAF CBBC 251843Z 2519/2605 15008G18KT P6SM SCT020 BKN050 TEMPO 2519/2522 P6SM -SHRA BKN020 BKN050 FM252200 18010G20KT P6SM SCT015 OVC030 TEMPO 2522/2601 5SM -SHRA BR BKN015 OVC030 FM260100 18012G22KT 6SM -RA BR SCT008 OVC020 TEMPO 2601/2605 2SM -SHRA BR OVC008 BECMG 2602/2604 17015G25KT RMK FCST BASED ON AUTO OBS. NXT FCST BY 260100Z", "TAF CWWU 251800Z 2518/2618 01012G22KT 3SM BR OVC005 TEMPO 2518/2520 2SM -DZ BR OVC005 FM260000 01012G22KT 1SM BR OVC004 FM261000 01015G25KT P6SM OVC008 FM261500 02015G25KT 3SSM -RASN OVC008 RMK NXT FCST BY 260000Z ", "TAF CYAM 251940Z 2520/2608 29015G25KT P6SM SCT020 BKN040 TEMPO 2520/2524 BKN020 FM260000 32012KT P6SM BKN040 RMK NXT FCST BY 260200Z", "TAF AMD CYAW 252005Z 2520/2606 14010KT P6SM FEW030 BKN240 FM260000 20005KT P6SM SCT030 SCT250 FM260400 VRB03KT P6SM SCT004 SCT030 RMK NXT FCST BY 260000Z", "TAF CYAY 251940Z 2520/2608 02012KT P6SM OVC015 TEMPO 2520/2524 5SM -RA -DZ BR OVC006 FM260000 03012KT 6SM BR OVC008 TEMPO 2600/2606 2SM -RA -DZ BR SCT003 OVC004 FM260600 03010KT 4SM BR OVC004 PROB30 2606/2608 2SM -FZDZ BR RMK FCST BASED ON AUTO OBS. NXT FCST BY 260200Z", "TAF CYAZ 251840Z 2519/2601 25005KT P6SM FEW020 OVC040 TEMPO 2519/2522 5SM -RA BR BKN020 OVC030 FM252200 27008KT P6SM FEW020 BKN050 RMK NXT FCST BY 261500Z", "TAF CYBB 251840Z 2519/2524 VRB03KT P6SM FEW005 FEW200 RMK NXT FCST BY 261400Z", "TAF CYBC 251940Z 2520/2608 10010KT P6SM FEW020 BKN180 FM260000 09008KT P6SM SCT030 BECMG 2604/2606 06008G18KT FEW010 BKN030 FM260600 07010G20KT P6SM FEW010 BKN030 RMK FCST BASED ON AUTO OBS. NXT FCST BY 260200Z", "TAF CYBG 252040Z 2521/2618 10015G25KT P6SM BKN050 FM260000 10010KT P6SM FEW015 OVC025 FM260600 10010KT P6SM FEW008 OVC020 FM261400 10008KT P6SM SCT020 BKN040 RMK NXT FCST BY 260000Z", "TAF CYBK 251740Z 2518/2606 10005KT P6SM FEW008 FM260300 10008KT P6SM SCT015 TEMPO 2603/2606 BKN015 RMK NXT FCST BY 260000Z", "TAF CYBL 251840Z 2519/2604 VRB03KT P6SM SCT030 BKN050 BKN120 TEMPO 2519/2521 5SM -RA BR BKN020 BKN050 FM252100 08005KT P6SM BKN040 BKN080 RMK NXT FCST BY 260100Z", "TAF CYBR 251742Z 2518/2606 16012G22KT P6SM FEW030 SCT250 FM260100 14010KT P6SM SCT140 BKN250 RMK NXT FCST BY 260000Z", "TAF CYBW 251743Z 2518/2604 29015G25KT P6SM FEW080 SCT220 RMK FCST BASED ON AUTO OBS. NXT FCST BY 260000Z", "TAF CYBX 251940Z 2520/2608 09012G22KT P6SM SCT020 TEMPO 2520/2524 BKN020 FM260000 07010KT P6SM OVC015 TEMPO 2600/2608 OVC008 RMK NXT FCST BY 260200Z", "TAF CYCA 251940Z 2520/2608 VRB03KT P6SM SCT006 TEMPO 2520/2524 4SM -DZ BR OVC006 PROB30 2520/2524 1SM -DZ BR OVC005 FM260000 VRB03KT P6SM OVC006 TEMPO 2600/2608 2SM -FZDZ BR OVC003 RMK FCST BASED ON AUTO OBS. NXT FCST BY 260200Z", "TAF AMD CYCB 252023Z 2520/2607 08010KT 1 1/2SM -SN BR OVC005 TEMPO 2520/2603 6SM -SN SCT005 OVC030 FM260300 05015G25KT 2SM -SN BLSN OVC008 TEMPO 2603/2607 6SM -SN OVC012 RMK NXT FCST BY 260100Z", "TAF CYCD 251740Z 2518/2604 04008KT P6SM SCT015 BKN030 BKN100 TEMPO 2518/2520 BKN015 OVC100 FM252200 08008KT P6SM SCT030 BKN100 FM260200 VRB03KT P6SM BKN060 BKN180 RMK NXT FCST BY 260000Z", "TAF CYCG 251840Z 2519/2604 VRB03KT P6SM FEW050 BKN220 RMK NXT FCST BY 260100Z", "TAF AMD CYCO 251850Z 2519/2607 03012KT P6SM SCT012 OVC030 TEMPO 2519/2606 1SM -SN BR OVC012 FM260600 05008KT P6SM SCT020 OVC040 TEMPO 2606/2607 5SM -SN BR BKN020 OVC040 RMK NXT FCST BY 260100Z", "TAF CYCX 252040Z 2521/2609 04005KT P6SM OVC020 TEMPO 2521/2603 OVC030 FM260300 VRB03KT P6SM OVC030 TEMPO 2603/2609 4SM -DZ BR OVC020 RMK NXT FCST BY 260300Z", "TAF CYCY 251840Z 2519/2607 32022KT P6SM SCT015 OVC025 TEMPO 2519/2523 3SM -SN -SG SCT008 BKN015 OVC025 FM252300 32015KT P6SM SCT006 BKN015 TEMPO 2523/2607 2SM -SN -SG BR BKN006 OVC015 RMK FCST BASED ON AUTO OBS. NXT FCST BY 260100Z", "TAF CYDA 251540Z 2516/2523 VRB03KT P6SM SCT015 BKN040 TEMPO 2516/2519 2SM -SN BKN015 OVC040 FM251900 08006KT P6SM SCT020 BKN050 TEMPO 2519/2523 BKN020 OVC050 RMK NXT FCST BY 261600Z", "TAF CYDB 251740Z 2518/2606 13006KT P6SM FEW040 SCT090 BECMG 2518/2520 11012KT FM260500 13008KT P6SM SCT140 RMK NXT FCST BY 260000Z", "TAF CYDF 251940Z 2520/2608 04010G20KT P6SM FEW020 BKN220 FM260000 04010KT P6SM SCT010 TEMPO 2600/2602 BKN010 FM260200 04008KT P6SM OVC010 PROB30 2602/2608 2SM -FZDZ BR OVC006 RMK NXT FCST BY 260200Z", "TAF CYDL 251740Z 2518/2523 21010KT P6SM FEW110 FM252000 22008KT P6SM SCT070 TEMPO 2520/2523 BKN070 BECMG 2521/2523 19006KT RMK FCST BASED ON AUTO OBS. NXT FCST BY 261200Z", "TAF CYDN 251742Z 2518/2606 VRB03KT P6SM SCT240 FM252000 18008KT P6SM FEW140 BKN240 FM260000 19012KT P6SM BKN140 RMK FCST BASED ON AUTO OBS. NXT FCST BY 260000Z", "TAF CYDP 251940Z 2520/2523 VRB03KT P6SM FEW240 RMK NXT FCST BY 261000Z", "TAF CYDQ 251848Z 2519/2605 26022G32KT P6SM SCT060 TEMPO 2519/2524 BKN060 BECMG 2521/2523 27015KT FM260000 27015KT P6SM FEW060 BECMG 2603/2605 25008KT RMK FCST BASED ON AUTO OBS. NXT FCST BY 260100Z", "TAF AMD CYED 252026Z 2520/2606 31015G25KT P6SM SCT030 BKN080 TEMPO 2520/2601 P6SM -SHRA BKN030 BKN060 FM260100 30012KT P6SM SCT080 RMK NXT FCST BY 260000Z", "TAF CYEG 252040Z 2521/2618 34020G30KT P6SM SCT050 BKN160 TEMPO 2521/2522 P6SM -SHRA BKN050 OVC160 PROB30 2521/2522 VRB20G30KT 5SM TSRA OVC050CB FM252200 33020G30KT P6SM SCT050 BKN160 TEMPO 2522/2602 P6SM -SHRA BKN050 OVC160 FM260200 32015G25KT P6SM BKN100 FM260500 30012KT P6SM SCT080 BECMG 2610/2612 27008KT FM261400 27008KT P6SM FEW100 RMK NXT FCST BY 260000Z", "TAF AMD CYEK 251812Z 2518/2606 05008KT P6SM BKN004 OVC010 TEMPO 2518/2520 1/2SM FZFG VV002 FM252000 05008KT 1SM BR BKN004 OVC010 TEMPO 2520/2606 P6SM NSW SCT004 BKN010 BECMG 2522/2524 12008KT RMK NXT FCST BY 260000Z", "TAF CYEN 251749Z 2518/2524 15015G25KT P6SM FEW100 SCT240 RMK FCST BASED ON AUTO OBS. NXT FCST BY 261200Z", "TAF CYEU 251747Z 2518/2602 12020KT P6SM FEW050 SCT250 FM252200 18020KT P6SM SCT020 BKN050 TEMPO 2522/2602 BKN020 OVC050 RMK ADVISORY OFFSITE. NXT FCST BY 260000Z", "TAF CYEV 251840Z 2519/2607 10005KT P6SM SCT006 SCT260 FM260000 09006KT P6SM BKN080 BECMG 2604/2606 12006KT RMK NXT FCST BY 260100Z", "TAF AMD CYFB 251921Z 2519/2618 VRB03KT 1/2SM FZFG BKN002 TEMPO 2519/2520 3SM BR BKN006 FM260000 30005KT 3SM BR SCT005 BKN010 TEMPO 2600/2603 1 1/2SM BR BKN005 OVC010 FM260300 35005KT 3SM BR SCT002 BKN006 TEMPO 2603/2615 1/2SM FZFG BKN002 OVC006 FM261500 18005KT 1SM BR BKN002 TEMPO 2615/2618 3SM BR BKN006 BECMG 2616/2618 14010KT RMK NXT FCST BY 260000Z", "TAF CYFC 251742Z 2518/2606 08008KT P6SM OVC020 TEMPO 2518/2521 SCT020 OVC030 FM252100 06008KT P6SM OVC030 BECMG 2522/2524 VRB03KT RMK FCST BASED ON AUTO OBS. NXT FCST BY 260000Z", "TAF AMD CYFS 252101Z 2521/2606 34015G25KT P6SM -SN SCT012 OVC030 TEMPO 2521/2524 1 1/2SM -SN BLSN OVC012 FM260000 34015G25KT P6SM SCT020 OVC040 TEMPO 2600/2606 3SM -SN BR OVC020 BECMG 2601/2603 34008KT RMK NXT FCST BY 260000Z", "TAF AMD CYGH 252031Z 2520/2523 VRB03KT P6SM FEW020 SCT070 TEMPO 2520/2523 P6SM -SN SCT020 BKN070 RMK NXT FCST BY 261400Z", "TAF CYGK 251940Z 2520/2603 18012KT P6SM FEW040 SCT100 BECMG 2600/2602 VRB03KT RMK NXT FCST BY 261200Z", "TAF CYGL 251740Z 2518/2618 05008KT P6SM SCT030 TEMPO 2518/2524 BKN020 FM260000 10006KT P6SM SCT010 BKN030 TEMPO 2600/2602 BKN010 OVC020 PROB30 2600/2602 BKN008 OVC020 FM260200 11005KT 6SM BR SCT006 OVC020 PROB30 2602/2608 2SM BR BKN006 OVC015 FM260800 12006KT 1SM -DZ BR BKN003 BKN020 PROB30 2608/2614 3/4SM -DZ BR OVC002 FM261400 15008KT P6SM SCT008 BKN012 RMK NXT FCST BY 260000Z", "TAF CYGP 251940Z 2520/2608 09012KT P6SM FEW015 FM252300 09005KT 6SM BR FEW006 PROB30 2601/2603 1 1/2SM BR SCT003 OVC006 FM260300 VRB03KT 1 1/2SM BR OVC004 RMK NXT FCST BY 260200Z", "TAF CYGQ 251945Z 2520/2608 36010KT P6SM BKN030 BKN060 TEMPO 2520/2608 OVC020 BECMG 2600/2602 VRB03KT RMK FCST BASED ON AUTO OBS. NXT FCST BY 260200Z", "TAF CYGR 251940Z 2520/2602 07007KT P6SM FEW008 BECMG 2520/2521 03008KT FM260000 02006KT P6SM FEW005 TEMPO 2600/2602 6SM BR SCT005 RMK NXT FCST BY 261100Z", "TAF CYGV 251940Z 2520/2608 17006KT P6SM SCT220 BECMG 2522/2524 08007KT BECMG 2601/2603 VRB03KT RMK FCST BASED ON AUTO OBS. NXT FCST BY 260200Z", "TAF CYGW 251740Z 2518/2606 01012KT P6SM OVC006 TEMPO 2518/2602 OVC010 FM260200 02006KT 1SM -DZ BR OVC002 TEMPO 2602/2605 4SM BR OVC004 FM260500 11005KT 6SM BR SCT002 SCT020 RMK FCST BASED ON AUTO OBS. NXT FCST BY 260000Z", "TAF CYGX 251840Z 2519/2607 VRB03KT P6SM SKC RMK NXT FCST BY 260100Z", "TAF CYHD 251941Z 2520/2608 VRB03KT P6SM SCT050 TEMPO 2520/2524 BKN050 FM260000 VRB03KT P6SM FEW040 RMK FCST BASED ON AUTO OBS. NXT FCST BY 260200Z", "TAF CYHK 251740Z 2518/2606 18010KT P6SM FEW120 SCT240 PROB30 2604/2606 2SM BR BKN005 RMK NXT FCST BY 260000Z", "TAF CYHM 251740Z 2518/2618 24010G20KT P6SM BKN060 TEMPO 2518/2520 P6SM -SHRA OVC060 FM252000 24010G20KT P6SM SCT020 BKN040 TEMPO 2520/2602 5SM -SHRA BR BKN020 OVC040 BECMG 2521/2523 22008KT FM260200 26005KT P6SM SCT006 SCT060 TEMPO 2602/2608 5SM BR BKN006 BKN060 FM260800 34005KT 5SM BR BKN006 PROB30 2608/2613 2SM BR OVC004 FM261300 VRB03KT P6SM FEW006 FM261500 32005KT P6SM SCT040 FM261700 29010KT P6SM BKN060 RMK NXT FCST BY 260000Z", "TAF CYHU 251740Z 2518/2618 22006KT P6SM SCT040 BKN070 TEMPO 2518/2601 P6SM -SHRA BKN040 FM260200 22008KT P6SM FEW040 BECMG 2611/2613 VRB03KT FM261500 12005KT P6SM BKN060 RMK FCST BASED ON AUTO OBS. NXT FCST BY 260000Z", "TAF AMD CYHY 251910Z 2519/2606 03005KT P6SM SCT012 OVC030 TEMPO 2519/2520 2SM -SNRA BR SCT006 OVC012 FM252000 01008KT P6SM SCT006 OVC012 TEMPO 2520/2604 1 1/2SM -SN BR OVC006 BECMG 2522/2524 33012G22KT FM260400 30012KT 3/4SM -SN BR OVC006 TEMPO 2604/2606 3SM BR OVC012 BECMG 2604/2606 30015G25KT RMK NXT FCST BY 260000Z", "TAF CYHZ 252040Z 2521/2618 18007KT P6SM FEW030 SCT200 TEMPO 2521/2603 BKN030 FM260300 22006KT P6SM FEW030 PROB30 2606/2610 1SM BR SCT004 BECMG 2610/2612 35007KT RMK NXT FCST BY 260000Z", "TAF CYIO 251840Z 2519/2607 22008KT P6SM SCT003 OVC010 TEMPO 2519/2607 1SM BR OVC003 RMK NXT FCST BY 260100Z", "TAF CYIV 251840Z 2519/2607 10005KT P6SM FEW050 RMK FCST BASED ON AUTO OBS. NXT FCST BY 260100Z", "TAF CYJT 251740Z 2518/2618 VRB03KT P6SM BKN240 FM260500 07008KT P6SM SCT015 TEMPO 2605/2612 BKN015 FM261200 07008KT P6SM FEW020 RMK NXT FCST BY 260000Z", "TAF CYKA 251840Z 2519/2607 VRB03KT P6SM FEW080 OVC200 BECMG 2519/2521 09008KT FM260600 VRB03KT P6SM BKN100 OVC200 RMK NXT FCST BY 260100Z", "TAF CYKF 251940Z 2520/2608 22010G20KT P6SM BKN060 TEMPO 2520/2524 P6SM -SHRA BECMG 2600/2602 VRB03KT FM260200 VRB03KT P6SM SCT040 FM260700 VRB03KT P6SM FEW006 RMK FCST BASED ON AUTO OBS. NXT FCST BY 260200Z", "TAF CYKJ 251848Z 2519/2524 16012G22KT P6SM OVC060 FM252200 16015G25KT P6SM OVC040 TEMPO 2522/2524 P6SM -SHRA RMK FCST BASED ON AUTO OBS. NXT FCST BY 261000Z", "TAF CYKL 251940Z 2520/2608 13008KT P6SM FEW170 FM260200 15005KT P6SM SKC PROB30 2602/2608 2SM BR RMK FCST BASED ON AUTO OBS. NXT FCST BY 260200Z", "TAF CYLD 251940Z 2520/2601 34006KT 2 1/2SM -SN OVC012 TEMPO 2520/2601 P6SM -SN OVC030 PROB30 2520/2601 1SM -SN VV008 RMK NXT FCST BY 261200Z", "TAF CYLK 251840Z 2519/2524 07008KT P6SM SCT040 BKN080 TEMPO 2519/2520 BKN040 OVC080 FM252000 10010G20KT P6SM SCT015 BKN040 TEMPO 2520/2524 5SM -RA BR BKN015 OVC040 RMK NXT FCST BY 261600Z", "TAF CYLL 251743Z 2518/2606 13008KT P6SM SCT080 BKN270 FM252100 18015KT P6SM SCT060 BKN180 TEMPO 2521/2522 P6SM -SHRA BKN060 OVC180 FM252200 30020G30KT P6SM -SHRA OVC060 PROB30 2522/2602 VRB15G25KT 5SM TSRA OVC040CB FM260200 30012G22KT P6SM BKN140 FM260500 27015KT P6SM SKC RMK NXT FCST BY 260000Z", "TAF CYLT 251740Z 2518/2606 VRB03KT P6SM FEW030 BKN090 FM260100 VRB03KT P6SM SCT020 BKN030 TEMPO 2601/2606 P6SM -SN BKN020 OVC030 RMK NXT FCST BY 260000Z", "TAF CYLW 251840Z 2519/2607 18006KT P6SM FEW080 BKN220 RMK FCST BASED ON AUTO OBS. NXT FCST BY 260100Z", "TAF CYMA 251740Z 2518/2606 36008KT P6SM SCT015 OVC040 TEMPO 2518/2522 3SM -SN BR BKN015 OVC030 BECMG 2518/2520 VRB03KT FM252200 VRB03KT P6SM BKN040 RMK NXT FCST BY 260000Z", "TAF CYMH 251940Z 2520/2603 02008KT P6SM OVC010 TEMPO 2520/2524 2SM -DZ BR OVC006 FM260000 02006KT P6SM OVC006 TEMPO 2600/2603 1SM -FZDZ BR OVC003 RMK FCST BASED ON AUTO OBS. NXT FCST BY 260900Z", "TAF AMD CYMJ 252034Z 2520/2606 14015G25KT P6SM BKN100 BKN270 TEMPO 2520/2603 FEW100 SCT270 FM260300 20018KT P6SM SCT060 BKN160 TEMPO 2603/2606 P6SM -SHRA BKN060 OVC160 RMK NXT FCST BY 260000Z", "TAF AMD CYMM 252122Z 2521/2607 26015G25KT P6SM SCT050 BKN100 TEMPO 2521/2605 P6SM -SHRA FEW020 BKN050 OVC100 BECMG 2603/2605 30015G25KT FM260500 30015G25KT P6SM SCT020 BKN040 TEMPO 2605/2607 P6SM -SHRA BKN020 OVC040 RMK FCST BASED ON AUTO OBS. NXT FCST BY 260100Z", "TAF CYMO 251741Z 2518/2606 35010G20KT 3/4SM -SN BR BKN007 OVC015 TEMPO 2518/2521 3SM -SN SCT007 OVC015 FM252100 33010G20KT 1 1/2SM -SN BR BKN007 OVC015 TEMPO 2521/2603 6SM -SN SCT007 OVC015 PROB30 2521/2603 3/4SM -SN FM260300 30008KT 1 1/2SM -SN BR BKN008 OVC015 TEMPO 2603/2606 6SM -SN BR SCT008 OVC015 PROB30 2603/2606 3/4SM -SN -FZDZ BR RMK FCST BASED ON AUTO OBS. NXT FCST BY 260000Z", "TAF AMD CYMT 252109Z 2521/2524 10010KT P6SM BKN050 TEMPO 2521/2524 P6SM -SHRA BKN020 PROB30 2521/2524 BKN008 RMK FCST BASED ON AUTO OBS. NXT FCST BY 261200Z", "TAF CYMX 251740Z 2518/2618 25005KT P6SM BKN040 TEMPO 2518/2521 5SM -SHRA BR BKN020 BKN040 FM252100 23005KT P6SM BKN040 TEMPO 2521/2602 P6SM -SHRA FM260200 22005KT P6SM FEW040 SCT100 FM260900 VRB03KT P6SM SCT003 FM261200 VRB03KT P6SM FEW010 SCT140 FM261500 VRB03KT P6SM SCT010 BKN050 BKN130 RMK NXT FCST BY 260000Z", "TAF CYNA 251940Z 2520/2608 20007KT P6SM SKC FM260000 VRB03KT P6SM FEW200 PROB30 2607/2608 BKN005 RMK FCST BASED ON AUTO OBS. NXT FCST BY 260200Z", "TAF CYND 251740Z 2518/2601 22012KT P6SM SCT050 BKN080 TEMPO 2518/2524 P6SM -SHRA BKN050 RMK NXT FCST BY 261300Z", "TAF CYNE 251840Z 2519/2607 22010KT P6SM SCT240 FM252200 20008KT P6SM BKN180 FM260300 16005KT P6SM BKN140 RMK FCST BASED ON AUTO OBS. NXT FCST BY 260100Z", "TAF CYOC 251840Z 2519/2601 05010KT P6SM FEW020 SCT040 FM252000 05010KT P6SM SCT020 BKN050 TEMPO 2520/2601 BKN020 OVC050 RMK NXT FCST BY 261500Z", "TAF CYOD 252040Z 2521/2618 20008KT P6SM SCT090 BKN200 TEMPO 2521/2522 P6SM -SHRA BKN050 BKN090 FM252200 30015G25KT 6SM -SHRA BR SCT020 OVC030 PROB30 2522/2602 3SM TSRA BR BKN010 OVC030CB FM260200 28008KT P6SM FEW030 BECMG 2613/2615 29012G22KT RMK NXT FCST BY 260000Z", "TAF CYOJ 251840Z 2519/2607 18005KT P6SM SCT007 BKN020 OVC040 TEMPO 2519/2523 P6SM -SHRA FEW007 SCT020 OVC040 BECMG 2520/2522 32015G25KT FM252300 31015G25KT P6SM BKN025 TEMPO 2523/2603 6SM -RA BR BKN020 FM260300 32012G22KT P6SM SCT020 BKN040 TEMPO 2603/2607 4SM -SN BKN020 OVC040 RMK NXT FCST BY 260100Z", "TAF CYOO 251940Z 2520/2608 24010G20KT P6SM BKN060 TEMPO 2520/2524 P6SM -SHRA FM260000 VRB03KT P6SM SCT015 BKN060 TEMPO 2600/2602 5SM -SHRA BR SCT008 BKN015 OVC060 FM260200 VRB03KT P6SM SCT006 OVC040 TEMPO 2602/2606 4SM -SHRA BR BKN006 OVC040 PROB30 2604/2606 2SM BR OVC004 FM260600 VRB03KT 2SM BR OVC006 PROB30 2606/2608 3/4SM -DZ BR OVC004 RMK FCST BASED ON AUTO OBS. NXT FCST BY 260200Z", "TAF CYOW 252040Z 2521/2618 20008KT P6SM BKN070 TEMPO 2521/2524 P6SM -SHRA BKN040 FM260200 22005KT P6SM BKN050 TEMPO 2602/2608 SCT050 FM260800 VRB03KT P6SM FEW003 SCT050 FM261000 VRB03KT P6SM SCT008 BKN015 PROB30 2610/2615 BKN008 FM261500 14005KT P6SM -SHRA BKN012 BKN060 RMK NXT FCST BY 260000Z", "TAF AMD CYOY 251904Z 2519/2606 10008KT P6SM SCT012 OVC020 TEMPO 2519/2524 5SM -RA -DZ BR BKN012 FM260000 10008KT P6SM SCT006 OVC012 RMK NXT FCST BY 260000Z", "TAF AMD CYPA 252046Z 2520/2607 15015G25KT P6SM BKN060 BKN100 TEMPO 2520/2602 P6SM -SHRA FM260200 16012G22KT P6SM -SHRA BKN020 OVC050 RMK NXT FCST BY 260100Z", "TAF CYPC 251840Z 2519/2523 28005KT P6SM SCT004 BKN010 TEMPO 2519/2521 BKN004 FM252100 01008KT P6SM SCT010 TEMPO 2521/2523 BKN010 RMK NXT FCST BY 261500Z", "TAF CYPE 251848Z 2519/2607 25025G35KT P6SM BKN060 TEMPO 2519/2601 P6SM -SHRA BECMG 2522/2524 29015G25KT FM260100 29015G25KT P6SM SCT060 BECMG 2603/2605 29010KT RMK NXT FCST BY 260100Z", "TAF CYPG 251740Z 2518/2606 09006KT P6SM SCT050 TEMPO 2518/2601 BKN050 BECMG 2518/2520 19007KT RMK NXT FCST BY 260000Z", "TAF CYPH 251740Z 2518/2606 01008KT P6SM SCT010 BKN070 TEMPO 2518/2524 BKN008 BKN050 FM260000 02012KT P6SM BKN008 BKN030 FM260200 02012KT 4SM BR BKN006 OVC015 RMK FCST BASED ON AUTO OBS. NXT FCST BY 260000Z", "TAF CYPL 251941Z 2520/2608 VRB03KT P6SM BKN050 TEMPO 2520/2608 SCT050 RMK FCST BASED ON AUTO OBS. NXT FCST BY 260200Z", "TAF CYPQ 251940Z 2520/2602 VRB03KT P6SM SCT020 OVC060 TEMPO 2520/2602 P6SM -SHRA BKN020 OVC040 RMK FCST BASED ON AUTO OBS. NXT FCST BY 261000Z", "TAF CYPR 251843Z 2519/2607 13008KT P6SM SCT020 BKN060 TEMPO 2519/2601 P6SM -SHRA BKN020 OVC060 BECMG 2520/2522 16015G25KT FM260100 16018G28KT 6SM -RA BR SCT015 OVC030 TEMPO 2601/2607 2SM -SHRA BR OVC015 BECMG 2602/2604 14025G35KT RMK FCST BASED ON AUTO OBS. NXT FCST BY 260100Z", "TAF AMD CYPX 251753Z 2518/2606 30005KT P6SM SCT007 BKN015 TEMPO 2518/2603 3SM -SN BKN007 OVC015 BECMG 2601/2603 33010KT FM260300 33012KT P6SM SCT005 BKN010 TEMPO 2603/2606 2SM BR BKN003 OVC010 PROB30 2603/2606 1SM -FZDZ BR BKN003 RMK FCST BASED ON AUTO OBS. NXT FCST BY 260000Z", "TAF CYPY 251742Z 2518/2606 15008KT P6SM FEW025 BKN050 OVC070 TEMPO 2518/2522 P6SM -SHRA FM252200 25012G22KT P6SM -SHRA SCT020 OVC040 TEMPO 2522/2606 6SM -SHRA BR BKN020 OVC040 PROB30 2522/2602 VRB15G25KT 3SM TSRA OVC020CB RMK FCST BASED ON AUTO OBS. NXT FCST BY 260000Z", "TAF CYQA 251940Z 2520/2602 27008KT P6SM -SHRA BKN020 OVC040 TEMPO 2520/2522 P6SM NSW SCT020 OVC040 FM252200 27007KT P6SM SCT020 BKN100 BECMG 2600/2602 VRB03KT RMK FCST BASED ON AUTO OBS. NXT FCST BY 261200Z", "TAF CYQB 251748Z 2518/2618 08012KT P6SM OVC025 TEMPO 2518/2524 6SM -SHRA BR SCT008 BKN012 OVC025 PROB30 2521/2524 5SM -RA BR OVC006 FM260000 04008KT 6SM -RA -DZ BR BKN006 OVC015 PROB30 2600/2606 2SM -RA -DZ BR BKN004 OVC015 FM260600 03005KT 2SM -RA -DZ BR OVC004 BECMG 2610/2612 24007KT FM261200 24007KT P6SM BKN007 OVC015 FM261400 23003KT P6SM BKN025 FM261700 22003KT P6SM BKN050 RMK NXT FCST BY 260000Z", "TAF CYQD 251840Z 2519/2607 14015G25KT P6SM BKN140 FM252100 14015G25KT P6SM BKN080 RMK FCST BASED ON AUTO OBS. NXT FCST BY 260100Z", "TAF CYQF 251743Z 2518/2606 24005KT P6SM SCT190 BKN250 BECMG 2518/2520 29015KT FM252200 29015KT P6SM SCT070 BKN150 TEMPO 2522/2604 P6SM -SHRA BKN070 OVC150 BECMG 2523/2601 33012G22KT FM260400 33008KT P6SM BKN060 RMK FCST BASED ON AUTO OBS. NXT FCST BY 260000Z", "TAF CYQG 251740Z 2518/2618 20005KT P6SM SCT020 OVC040 TEMPO 2518/2522 5SM -SHRA BR SCT008 BKN020 OVC040 FM252200 20005KT P6SM SCT015 BKN090 TEMPO 2522/2601 BKN015 OVC090 FM260100 VRB03KT P6SM SCT006 TEMPO 2601/2608 5SM BR BKN006 PROB30 2605/2608 2SM BR OVC004 FM260800 VRB03KT 2SM BR OVC006 PROB30 2608/2613 1SM -DZ BR OVC004 FM261300 VRB03KT 5SM BR BKN006 OVC015 FM261500 VRB03KT P6SM OVC025 FM261700 VRB03KT P6SM -SHRA BKN040 RMK FCST BASED ON AUTO OBS. NXT FCST BY 260000Z", "TAF AMD CYQH 252109Z 2521/2606 29008KT P6SM BKN050 TEMPO 2521/2524 VRB15G25KT P6SM -SHRA BKN040 FM260000 26006KT P6SM BKN070 BECMG 2602/2604 VRB03KT SCT070 RMK NXT FCST BY 260000Z", "TAF CYQI 251742Z 2518/2606 15010KT P6SM SCT020 BKN070 TEMPO 2518/2521 BKN020 BECMG 2602/2604 03007KT FM260400 03007KT P6SM FEW007 PROB30 2604/2606 BKN007 RMK NXT FCST BY 260000Z", "TAF CYQK 251941Z 2520/2608 25006KT P6SM BKN050 TEMPO 2520/2524 SCT050 FM260000 VRB03KT P6SM FEW040 RMK NXT FCST BY 260200Z", "TAF CYQL 251743Z 2518/2606 26020G30KT P6SM FEW060 BKN270 BECMG 2604/2606 28015G25KT RMK NXT FCST BY 260000Z", "TAF CYQM 251740Z 2518/2618 04008KT P6SM BKN015 TEMPO 2518/2524 SCT015 FM260000 03005KT P6SM FEW030 PROB40 2602/2606 3/4SM BR BKN003 FM260600 VRB03KT 3/4SM BR OVC002 BECMG 2612/2614 P6SM NSW FEW002 FM261400 03010KT P6SM FEW002 BKN015 FM261700 03010KT P6SM BKN030 RMK NXT FCST BY 260000Z", "TAF CYQQ 251740Z 2518/2618 VRB03KT P6SM SCT020 OVC030 TEMPO 2518/2521 BKN020 OVC030 FM252100 VRB03KT P6SM SCT020 BKN080 FM260000 VRB03KT P6SM BKN060 FM260900 VRB03KT P6SM OVC050 TEMPO 2609/2618 P6SM -RA OVC040 BECMG 2612/2614 13010KT RMK NXT FCST BY 260000Z", "TAF CYQR 251748Z 2518/2618 15020G30KT P6SM BKN080 TEMPO 2518/2609 SCT080 FM260900 20012KT P6SM -SHRA BKN040 OVC100 BECMG 2609/2611 30020G30KT FM261200 30015KT P6SM FEW020 SCT240 RMK NXT FCST BY 260000Z", "TAF CYQT 251944Z 2520/2608 04008KT P6SM BKN050 TEMPO 2520/2602 SCT050 FM260200 VRB03KT P6SM SCT040 RMK NXT FCST BY 260200Z", "TAF CYQU 251848Z 2519/2607 25025G35KT P6SM SCT070 SCT250 TEMPO 2519/2601 P6SM -SHRA BKN070 OVC250 BECMG 2522/2524 28020G30KT FM260100 28020G30KT P6SM FEW060 BECMG 2602/2604 28015KT RMK NXT FCST BY 260100Z", "TAF CYQV 251750Z 2518/2606 15012G22KT P6SM FEW120 SCT240 FM252000 15015G25KT P6SM BKN100 BKN240 RMK FCST BASED ON AUTO OBS. NXT FCST BY 260000Z", "TAF CYQW 251742Z 2518/2606 12012G22KT P6SM SCT060 SCT100 BKN240 FM252100 14012G22KT P6SM SCT060 BKN100 TEMPO 2521/2603 P6SM -SHRA OVC060 BECMG 2601/2603 31025G35KT FM260300 31025G35KT P6SM -SHRA BKN020 OVC050 FM260500 30012KT P6SM FEW050 SCT180 RMK FCST BASED ON AUTO OBS. NXT FCST BY 260000Z", "TAF AMD CYQX 252119Z 2521/2618 36012G22KT 2SM -SN BR BKN003 OVC008 TEMPO 2521/2524 6SM -DZ BR SCT003 OVC008 FM260000 02012G22KT 1/4SM -DZ FG VV001 TEMPO 2600/2612 1SM BR OVC002 PROB40 2606/2612 2SM -FZDZ BR FM261200 02012G22KT P6SM OVC008 FM261500 02012G22KT P6SM BKN012 RMK NXT FCST BY 260000Z", "TAF CYQY 251742Z 2518/2606 03010KT P6SM SCT015 OVC030 BECMG 2518/2520 FEW025 FM252000 01008KT P6SM FEW025 BECMG 2522/2524 33007KT RMK NXT FCST BY 260000Z", "TAF CYQZ 251840Z 2519/2606 02008KT P6SM SCT090 BKN200 FM260000 29005KT P6SM FEW080 FM260300 VRB03KT P6SM BKN080 RMK FCST BASED ON AUTO OBS. NXT FCST BY 260100Z", "TAF CYRA 251840Z 2519/2524 35008KT P6SM FEW006 SCT040 BKN120 TEMPO 2519/2524 SCT006 BKN040 OVC120 PROB30 2519/2524 BKN006 RMK NXT FCST BY 261600Z", "TAF AMD CYRB 252121Z 2521/2618 17015KT P6SM SCT020 BKN040 OVC200 TEMPO 2521/2524 3SM -SN BKN020 OVC040 BECMG 2521/2523 25010KT FM260000 26010KT P6SM SCT020 BKN040 TEMPO 2600/2607 5SM -SN BKN020 OVC040 BECMG 2605/2607 32007KT FM260700 32007KT P6SM FEW020 BECMG 2610/2612 09008KT RMK NXT FCST BY 260000Z", "TAF CYRJ 251940Z 2520/2602 VRB03KT 3SM -SHRA BR SCT005 OVC020 TEMPO 2520/2602 P6SM NSW SCT020 OVC030 RMK NXT FCST BY 261200Z", "TAF CYRL 251941Z 2520/2602 VRB03KT P6SM FEW050 RMK NXT FCST BY 261100Z", "TAF CYRQ 251940Z 2520/2608 13004KT P6SM BKN060 TEMPO 2520/2604 P6SM -SHRA BKN030 BECMG 2523/2601 14003KT FM260400 VRB03KT P6SM -SHRA SCT005 BKN050 RMK FCST BASED ON AUTO OBS. NXT FCST BY 260200Z", "TAF AMD CYRT 251813Z 2518/2606 VRB03KT P6SM BKN008 OVC260 TEMPO 2518/2602 SCT008 BKN240 BECMG 2522/2524 12008KT FM260200 VRB03KT P6SM BKN008 OVC015 TEMPO 2602/2606 SCT008 BKN015 RMK NXT FCST BY 260000Z", "TAF CYSB 251940Z 2520/2608 05008KT 3SM -SHRASN BKN008 OVC015 TEMPO 2520/2521 P6SM NSW SCT008 OVC025 FM252100 35008KT P6SM BKN030 OVC060 TEMPO 2521/2602 5SM -SHRASN BKN020 OVC040 FM260200 01006KT P6SM BKN030 OVC080 TEMPO 2602/2606 4SM -SN BKN020 OVC080 FM260600 36005KT 4SM -SN BKN015 OVC030 RMK NXT FCST BY 260200Z", "TAF CYSC 251742Z 2518/2603 VRB03KT 6SM -SHRA BR SCT012 OVC030 TEMPO 2518/2524 3SM -SHRA BR OVC012 PROB30 2518/2524 2SM -SHRA BR FM260000 VRB03KT 2SM -SHRA BR BKN009 OVC030 TEMPO 2600/2603 P6SM -SHRA SCT009 OVC030 PROB30 2600/2603 OVC006 RMK FCST BASED ON AUTO OBS. NXT FCST BY 260000Z", "TAF CYSF 251742Z 2518/2606 13010G20KT P6SM FEW150 SCT220 FM252000 14015G25KT P6SM SCT050 BKN150 TEMPO 2520/2602 BKN050 OVC150 FM260200 12012G22KT P6SM BKN040 OVC100 TEMPO 2602/2606 P6SM -SHRA RMK FCST BASED ON AUTO OBS. NXT FCST BY 260000Z", "TAF AMD CYSJ 252112Z 2521/2606 12008KT P6SM FEW020 BKN060 TEMPO 2521/2524 BKN020 FM260000 VRB03KT P6SM FEW007 SCT030 TEMPO 2600/2606 BKN020 PROB30 2605/2606 BKN007 RMK NXT FCST BY 260000Z", "TAF AMD CYSM 251757Z 2518/2606 12006KT P6SM SCT008 OVC030 TEMPO 2518/2521 6SM -RA BKN008 OVC030 BECMG 2519/2521 14012KT FM252100 14012KT P6SM SCT012 OVC030 TEMPO 2521/2603 5SM -SHRA BR OVC012 BECMG 2522/2524 VRB03KT FM260300 VRB03KT P6SM SCT020 OVC040 TEMPO 2603/2606 P6SM -SHRA BKN020 OVC030 RMK NXT FCST BY 260000Z", "TAF CYSN 251940Z 2520/2601 25010G20KT P6SM BKN030 OVC100 TEMPO 2520/2601 P6SM -SHRA BKN020 OVC100 BECMG 2523/2601 26005KT RMK NXT FCST BY 261300Z", "TAF AMD CYTE 252025Z 2520/2607 22008KT P6SM SCT008 BKN025 TEMPO 2520/2607 2SM -FZDZ BR BKN008 OVC025 PROB30 2605/2607 1/2SM -FZDZ FZFG BKN002 RMK NXT FCST BY 260100Z", "TAF CYTH 251840Z 2519/2607 18008KT P6SM FEW240 FM260300 14005KT P6SM BKN120 RMK NXT FCST BY 260100Z", "TAF CYTL 251943Z 2520/2608 VRB03KT P6SM BKN040 FM260200 VRB03KT P6SM SCT030 TEMPO 2602/2608 BKN020 RMK FCST BASED ON AUTO OBS. NXT FCST BY 260200Z", "TAF CYTR 251740Z 2518/2618 22010G20KT P6SM FEW040 SCT100 BKN250 BECMG 2601/2603 VRB03KT FM260400 VRB03KT P6SM -RA OVC025 BECMG 2606/2608 3SM -RA BR OVC010 FM261400 22006KT P6SM -RA BKN030 RMK NXT FCST BY 260000Z", "TAF CYTS 251940Z 2520/2608 35008KT 1 1/2SM -SN BKN006 OVC015 TEMPO 2520/2524 P6SM -SN SCT006 OVC025 FM260000 34005KT 3SM -SN OVC015 TEMPO 2600/2608 P6SM -SN OVC025 PROB30 2600/2608 1 1/2SM -SN OVC008 RMK NXT FCST BY 260200Z", "TAF CYTZ 251940Z 2520/2620 20012KT P6SM BKN060 TEMPO 2520/2523 P6SM -SHRA FM252300 24012KT P6SM SCT060 BECMG 2603/2605 33008KT FM260500 33008KT 6SM BR SCT006 PROB30 2605/2613 2SM BR OVC004 FM261300 33008KT P6SM FEW015 FM261600 18008KT P6SM BKN040 TEMPO 2618/2620 P6SM -SHRA RMK FCST BASED ON AUTO OBS. NXT FCST BY 260200Z", "TAF CYUB 251840Z 2519/2605 12007KT P6SM OVC010 TEMPO 2519/2605 OVC008 PROB30 2519/2605 BKN005 RMK NXT FCST BY 260100Z", "TAF CYUL 252040Z 2521/2618 25006KT P6SM SCT040 BKN080 TEMPO 2521/2601 P6SM -SHRA BKN040 BECMG 2522/2524 20006KT FM260200 20008KT P6SM FEW040 SCT100 FM260900 22005KT P6SM FEW030 BECMG 2611/2613 VRB03KT BKN060 FM261500 12005KT P6SM BKN060 RMK NXT FCST BY 260000Z", "TAF CYUT 251840Z 2519/2522 35012G22KT P6SM FEW005 SCT250 RMK NXT FCST BY 261400Z", "TAF CYUX 251840Z 2519/2607 33015KT P6SM FEW005 RMK NXT FCST BY 260100Z", "TAF AMD CYUY 251751Z 2518/2606 20005KT 4SM -SHSN OVC020 TEMPO 2518/2522 P6SM NSW BKN030 PROB30 2521/2522 2SM -SHSN FM252200 25005KT P6SM -SHRA OVC030 FM260000 25005KT P6SM SCT008 BKN050 TEMPO 2600/2603 P6SM -SHRA FM260300 25005KT 6SM BR SCT002 BKN050 RMK NXT FCST BY 260000Z", "TAF AMD CYVC 252007Z 2520/2607 14012G22KT P6SM OVC040 TEMPO 2520/2522 4SM -SHRA BR OVC020 FM252200 14012G22KT P6SM BKN040 BKN080 FM260300 14010KT P6SM BKN040 TEMPO 2603/2606 P6SM -SHRA FM260600 12006KT 5SM -SHRA BR OVC010 RMK NXT FCST BY 260100Z", "TAF CYVM 251840Z 2519/2607 VRB03KT P6SM SCT020 BKN040 TEMPO 2519/2523 3SM -SN BR BKN020 OVC040 FM252300 VRB03KT P6SM -SN SCT006 BKN020 TEMPO 2523/2607 2SM -SN BR BKN006 OVC020 RMK NXT FCST BY 260100Z", "TAF CYVO 251743Z 2518/2606 17012KT P6SM -SHRA OVC020 TEMPO 2518/2521 P6SM NSW BKN030 FM252100 25005KT P6SM -SHRA OVC030 TEMPO 2521/2524 6SM -SHRA BR BKN020 OVC030 FM260000 25005KT P6SM SCT008 BKN050 TEMPO 2600/2603 P6SM -SHRA FM260300 24005KT 6SM BR SCT002 BKN050 RMK NXT FCST BY 260000Z", "TAF CYVP 251740Z 2518/2606 08006KT P6SM SCT250 BECMG 2518/2520 03008KT FM260200 01007KT 6SM BR SCT004 SCT120 PROB30 2602/2606 2SM BR BKN002 BKN120 RMK NXT FCST BY 260000Z", "TAF CYVQ 251740Z 2518/2606 28012KT P6SM SCT020 BKN030 TEMPO 2518/2602 4SM -SN BR OVC020 BECMG 2518/2520 30008KT FM260200 VRB03KT P6SM SCT020 OVC040 TEMPO 2602/2606 5SM -SN BR OVC020 RMK NXT FCST BY 260000Z", "TAF CYVR 252040Z 2521/2624 22008KT P6SM FEW040 BKN210 BECMG 2523/2601 VRB03KT FM260300 VRB03KT P6SM BKN040 FM261200 10008KT P6SM OVC040 TEMPO 2612/2620 P6SM -SHRA FM262000 10008KT P6SM BKN030 RMK NXT FCST BY 260000Z", "TAF CYVT 252040Z 2521/2604 14012G22KT P6SM SCT040 BKN070 TEMPO 2521/2601 P6SM -SHRA BKN040 OVC070 FM260100 15010G20KT P6SM -SHRA BKN030 OVC100 BECMG 2601/2603 27015G25KT RMK FCST BASED ON AUTO OBS. NXT FCST BY 261400Z", "TAF CYVV 251940Z 2520/2523 26008KT P6SM BKN030 TEMPO 2520/2523 BKN020 RMK NXT FCST BY 261100Z", "TAF AMD CYWA 251812Z 2518/2618 22007KT P6SM FEW020 OVC040 TEMPO 2518/2604 3SM -SHRA BR BKN020 OVC030 BECMG 2521/2523 VRB03KT FM260500 VRB03KT 2SM BR OVC007 FM261400 VRB03KT P6SM BKN030 RMK NXT FCST BY 260000Z", "TAF CYWE 251840Z 2519/2601 05012KT P6SM BKN150 BECMG 2519/2521 09008KT FM252200 08008KT P6SM SCT012 OVC120 TEMPO 2522/2524 4SM -SN BR OVC012 FM260000 04008KT P6SM SCT012 OVC030 TEMPO 2600/2601 3SM -SN BR SCT008 OVC012 RMK FCST BASED ON AUTO OBS. NXT FCST BY 261300Z", "TAF CYWG 251742Z 2518/2618 18008KT P6SM SCT040 FM260300 18008KT P6SM BKN200 FM261200 17012G22KT P6SM BKN130 FM261700 18020G30KT P6SM -SHRA BKN050 OVC100 RMK NXT FCST BY 260000Z", "TAF CYWH 252040Z 2521/2604 20005KT P6SM FEW025 BKN220 FM260000 20010KT P6SM BKN200 RMK NXT FCST BY 261400Z", "TAF CYWJ 251740Z 2518/2523 30010KT P6SM -SN SCT020 BKN060 TEMPO 2518/2520 5SM -SN BKN020 OVC050 FM252000 30010KT P6SM SCT020 BKN060 TEMPO 2520/2523 P6SM -SN RMK NXT FCST BY 261400Z", "TAF CYWK 251940Z 2520/2608 08006KT P6SM SCT140 TEMPO 2520/2524 BKN140 FM260200 09005KT P6SM FEW140 PROB30 2602/2608 2SM BR RMK NXT FCST BY 260200Z", "TAF CYWL 251840Z 2519/2607 VRB03KT P6SM FEW120 BKN230 BECMG 2519/2521 28008KT FM260300 VRB03KT P6SM BKN100 OVC200 RMK NXT FCST BY 260100Z", "TAF CYXC 251840Z 2519/2607 15010KT P6SM SCT070 BKN230 BECMG 2520/2522 22010KT BECMG 2602/2604 22005KT RMK NXT FCST BY 260100Z", "TAF CYXE 251742Z 2518/2618 16015G25KT P6SM SCT060 BKN120 TEMPO 2518/2520 BKN060 BKN120 FM252000 16018G28KT P6SM FEW060 SCT120 BKN240 FM260000 16015G25KT P6SM SCT070 BKN240 TEMPO 2600/2603 P6SM -SHRA BKN070 FM260300 18012KT P6SM -SHRA FEW020 BKN050 BECMG 2604/2606 30025G35KT FM260700 29015G25KT P6SM FEW050 SCT180 FM260900 28015KT P6SM SKC FM261600 29020G30KT P6SM FEW050 RMK NXT FCST BY 260000Z", "TAF CYXH 251742Z 2518/2606 23015KT P6SM FEW050 SCT090 OVC270 FM260300 24015KT P6SM BKN090 BECMG 2604/2606 35018G28KT RMK NXT FCST BY 260000Z", "TAF CYXJ 251848Z 2519/2607 26022G32KT P6SM SCT060 TEMPO 2519/2601 BKN060 BECMG 2522/2524 26015KT FM260100 26015KT P6SM FEW080 BECMG 2603/2605 23008KT RMK NXT FCST BY 260100Z", "TAF CYXL 251941Z 2520/2608 VRB03KT P6SM SCT050 TEMPO 2520/2524 BKN050 FM260000 VRB03KT P6SM FEW040 RMK NXT FCST BY 260200Z", "TAF CYXP 251840Z 2519/2522 25010KT P6SM SCT006 OVC020 TEMPO 2519/2522 2SM -SN BR BKN006 OVC020 RMK NXT FCST BY 261300Z", "TAF CYXR 251740Z 2518/2524 26005KT 4SM -SN BKN020 OVC030 TEMPO 2518/2524 P6SM NSW OVC030 RMK FCST BASED ON AUTO OBS. NXT FCST BY 261200Z", "TAF CYXS 251840Z 2519/2607 27012G22KT P6SM SCT040 SCT080 TEMPO 2519/2524 P6SM -SHRA BKN040 OVC080 FM260000 27012KT P6SM SCT080 BKN120 FM260300 30006KT P6SM SCT140 FM260600 VRB03KT P6SM OVC080 RMK FCST BASED ON AUTO OBS. NXT FCST BY 260100Z", "TAF CYXT 251840Z 2519/2607 VRB03KT P6SM SCT008 BKN040 TEMPO 2519/2521 5SM -SHRA BR BKN008 FM252100 18010KT P6SM BKN030 TEMPO 2521/2603 P6SM -SHRA BKN020 FM260300 16010KT P6SM -RA OVC025 TEMPO 2603/2607 2SM -RA BR OVC008 RMK NXT FCST BY 260100Z", "TAF CYXU 251740Z 2518/2618 28008KT P6SM BKN060 FM252000 23008KT P6SM SCT020 BKN040 TEMPO 2520/2524 6SM -SHRA BR BKN020 OVC040 FM260000 21005KT P6SM SCT015 BKN060 TEMPO 2600/2603 BKN015 OVC060 FM260300 VRB03KT P6SM SCT006 FM260500 VRB03KT 5SM BR BKN006 PROB30 2605/2613 2SM BR OVC004 FM261300 35005KT P6SM FEW006 FM261500 33008KT P6SM SCT040 FM261700 31010KT P6SM BKN060 RMK NXT FCST BY 260000Z", "TAF CYXX 251740Z 2518/2618 VRB03KT P6SM SCT040 BKN200 TEMPO 2518/2522 FEW020 BKN040 FM252200 22008KT P6SM FEW050 BKN200 FM260500 VRB03KT P6SM BKN050 FM261400 06006KT P6SM OVC040 TEMPO 2614/2618 P6SM -SHRA RMK NXT FCST BY 260000Z", "TAF AMD CYXY 251916Z 2519/2606 14006KT P6SM FEW040 TEMPO 2519/2602 VRB15G25KT P6SM VCSH BKN040 FM260200 15006KT P6SM SCT040 BKN180 RMK NXT FCST BY 260000Z", "TAF CYXZ 251940Z 2520/2524 36007KT P6SM OVC030 TEMPO 2520/2524 5SM -SN BKN020 OVC030 RMK NXT FCST BY 261300Z", "TAF CYYB 251940Z 2520/2608 28005KT P6SM SCT007 OVC025 TEMPO 2520/2522 5SM -SHSNRA BKN007 OVC015 FM252200 30008KT P6SM SCT020 BKN060 TEMPO 2522/2604 6SM -SHRASN BKN020 OVC060 FM260400 03005KT 4SM -SN SCT020 OVC040 RMK NXT FCST BY 260200Z", "TAF CYYC 252040Z 2521/2618 30010G20KT P6SM FEW090 SCT220 BECMG 2521/2523 32015G25KT FM260100 30012G22KT P6SM SCT150 FM260400 30012KT P6SM SCT060 SCT140 BECMG 2604/2606 36010KT BECMG 2610/2612 18008KT FM261500 18010KT P6SM BKN150 RMK NXT FCST BY 260000Z", "TAF CYYD 251840Z 2519/2606 35010KT P6SM FEW030 BKN050 BECMG 2519/2521 VRB03KT FM260300 15008KT P6SM OVC040 TEMPO 2603/2606 P6SM -RA RMK NXT FCST BY 260100Z", "TAF CYYE 251848Z 2519/2607 29010G20KT P6SM SCT025 BKN080 OVC110 FM252000 32010G20KT P6SM FEW040 FM260200 33008KT P6SM SCT050 TEMPO 2602/2607 BKN050 BECMG 2602/2604 VRB03KT RMK NXT FCST BY 260100Z", "TAF CYYF 251840Z 2519/2607 VRB03KT P6SM FEW120 BKN240 BECMG 2522/2524 33008KT RMK NXT FCST BY 260100Z", "TAF CYYG 251742Z 2518/2606 04007KT P6SM -SHRA BKN015 OVC030 TEMPO 2518/2523 SCT015 BKN030 FM252300 05007KT P6SM FEW005 BKN030 PROB40 2600/2602 BKN005 FM260200 06007KT 6SM BR OVC005 RMK NXT FCST BY 260000Z", "TAF AMD CYYH 251813Z 2518/2606 15008KT P6SM SCT010 BKN070 TEMPO 2518/2521 5SM -SN -SG BKN010 OVC070 FM252100 16010KT P6SM SCT070 PROB30 2604/2606 2SM BR BKN005 RMK NXT FCST BY 260000Z", "TAF CYYJ 251740Z 2518/2618 VRB03KT P6SM FEW020 BKN250 FM260000 VRB03KT P6SM SCT040 BKN200 TEMPO 2600/2610 BKN040 FM261000 VRB03KT P6SM OVC040 TEMPO 2610/2618 P6SM -SHRA RMK NXT FCST BY 260000Z", "TAF CYYL 251840Z 2519/2607 16012G22KT P6SM SCT240 FM252300 16012G22KT P6SM BKN100 FM260200 14010KT P6SM BKN060 RMK FCST BASED ON AUTO OBS. NXT FCST BY 260100Z", "TAF CYYN 251742Z 2518/2606 19015G25KT P6SM BKN080 TEMPO 2518/2521 SCT080 FM252100 22015G25KT P6SM VCSH BKN080 FM260100 23012KT P6SM SCT080 BKN240 BECMG 2605/2606 30020G30KT RMK FCST BASED ON AUTO OBS. NXT FCST BY 260000Z", "TAF CYYQ 251742Z 2518/2618 VRB03KT P6SM FEW010 FM260500 10008KT P6SM FEW004 PROB30 2605/2609 1SM BR BKN004 FM260900 12010KT P6SM FEW004 BKN020 TEMPO 2609/2618 2SM BR OVC004 PROB30 2609/2618 1/2SM FZFG VV002 RMK NXT FCST BY 260000Z", "TAF CYYR 251740Z 2518/2618 06005KT P6SM SCT270 FM260600 VRB03KT P6SM SCT080 BKN120 RMK NXT FCST BY 260000Z", "TAF AMD CYYT 251844Z 2518/2618 02015G25KT 2SM -SN -DZ BR OVC002 TEMPO 2518/2522 P6SM NSW OVC004 FM252200 02015G25KT 1/2SM -DZ FG VV002 TEMPO 2522/2524 3SM BR FM260000 02015G25KT 1/4SM -DZ FG VV001 PROB30 2606/2611 2SM -FZDZ BR FM261100 02015G25KT 2SM BR OVC003 PROB30 2611/2615 2SM -FZDZ BR FM261500 01015G25KT 6SM -SN BR OVC006 RMK NXT FCST BY 260000Z", "TAF CYYU 251940Z 2520/2608 35012KT 3/4SM -SN BR BKN006 OVC012 TEMPO 2520/2524 1 1/2SM -SN SCT006 OVC012 FM260000 35008KT 3/4SM -SN BR BKN006 OVC012 TEMPO 2600/2608 2SM -SN SCT006 OVC012 RMK NXT FCST BY 260200Z", "TAF CYYY 251940Z 2520/2608 06012KT P6SM SCT040 TEMPO 2520/2608 FEW012 BKN040 BECMG 2603/2605 07007KT RMK NXT FCST BY 260200Z", "TAF CYYZ 252041Z 2521/2624 26010G20KT P6SM BKN060 OVC100 TEMPO 2521/2524 P6SM -SHRA OVC060 FM260400 28005KT P6SM FEW012 FEW040 BECMG 2604/2606 35008KT FM260600 35008KT P6SM FEW006 SCT015 FM260800 35008KT P6SM FEW004 SCT010 PROB30 2608/2613 3SM BR BKN004 FM261500 35008KT P6SM SCT040 BECMG 2615/2617 20008KT FM261700 20008KT P6SM BKN060 TEMPO 2617/2624 P6SM -SHRA BECMG 2622/2624 VRB03KT RMK NXT FCST BY 260000Z", "TAF CYZE 251940Z 2520/2522 27012KT P6SM BKN030 OVC060 TEMPO 2520/2522 BKN020 OVC040 RMK FCST BASED ON AUTO OBS. NXT FCST BY 261000Z", "TAF CYZF 251740Z 2518/2618 05010KT P6SM FEW080 BKN240 BECMG 2518/2520 07012KT FM252000 07012KT P6SM SCT025 OVC100 TEMPO 2520/2524 3SM -SNRA BR OVC025 FM260000 05012KT 2 1/2SM -SN BR OVC012 TEMPO 2600/2603 6SM -SNRA SCT012 OVC025 FM260300 03012KT 3/4SM -SN BR VV008 TEMPO 2603/2609 3SM -SNRA OVC012 FM260900 36008KT 3/4SM -SN BR VV005 TEMPO 2609/2618 5SM BR OVC010 BECMG 2616/2618 07006KT RMK NXT FCST BY 260000Z", "TAF CYZH 251848Z 2519/2607 25010G20KT P6SM SKC BECMG 2519/2521 28025G35KT FM252100 28025G35KT P6SM SCT060 TEMPO 2521/2602 BKN060 BECMG 2600/2602 28018G28KT FM260200 28018G28KT P6SM FEW100 RMK FCST BASED ON AUTO OBS. NXT FCST BY 260100Z", "TAF CYZP 251843Z 2519/2607 10010KT P6SM SCT020 BKN040 TEMPO 2519/2523 P6SM -RA BKN020 OVC040 FM252300 13015G25KT 6SM -RA SCT008 OVC020 TEMPO 2523/2607 2SM -SHRA BR OVC008 BECMG 2600/2602 14020G30KT RMK FCST BASED ON AUTO OBS. NXT FCST BY 260100Z", "TAF CYZR 251940Z 2520/2602 VRB03KT P6SM OVC030 TEMPO 2520/2602 P6SM -SHRA OVC020 RMK FCST BASED ON AUTO OBS. NXT FCST BY 260800Z", "TAF AMD CYZS 252027Z 2520/2607 10007KT P6SM SCT006 BKN015 TEMPO 2520/2607 2SM -SN BR BKN006 OVC015 RMK NXT FCST BY 260100Z", "TAF CYZT 251843Z 2519/2607 08008KT P6SM FEW020 BKN040 TEMPO 2519/2522 5SM -RA BR BKN020 BKN040 FM252200 09005KT P6SM -RA SCT015 OVC030 TEMPO 2522/2602 3SM -SHRA BR OVC015 FM260200 13008KT 6SM -RA BR SCT008 OVC020 TEMPO 2602/2607 2SM -SHRA BR OVC008 RMK NXT FCST BY 260100Z", "TAF CYZU 251848Z 2519/2523 31008KT P6SM FEW040 SCT050 BKN090 TEMPO 2519/2523 P6SM -SHRA BKN040 OVC050 BECMG 2519/2521 29018G28KT RMK NXT FCST BY 261400Z", "TAF CYZV 251740Z 2518/2618 16010KT P6SM FEW030 BKN200 TEMPO 2518/2521 BKN030 BECMG 2601/2603 04008KT FM260900 07010KT P6SM BKN010 FM261200 08012KT P6SM SCT010 RMK NXT FCST BY 260000Z", "TAF CYZW 251740Z 2518/2524 24008KT P6SM FEW040 FM252000 20008KT P6SM SCT040 TEMPO 2520/2524 BKN040 RMK NXT FCST BY 261800Z", "TAF AMD CYZX 252006Z 2520/2618 04005KT P6SM FEW030 SCT250 BECMG 2522/2524 VRB03KT FM260400 VRB03KT P6SM SCT012 SCT030 FM260800 VRB03KT P6SM SCT008 BKN012 FM261200 30005KT P6SM SCT015 FM261500 36010KT P6SM SCT030 BKN180 RMK NXT FCST BY 260000Z", "TAF CYZY 251840Z 2519/2607 22012KT P6SM SCT060 TEMPO 2519/2605 P6SM VCSH SCT030 BKN060 BECMG 2523/2601 24007KT FM260500 VRB03KT P6SM SCT040 BKN100 TEMPO 2605/2607 BKN040 OVC100 RMK FCST BASED ON AUTO OBS. NXT FCST BY 260100Z", "TAF CZBF 251940Z 2520/2603 05006KT P6SM FEW015 FM260000 VRB03KT P6SM FEW006 BKN012 PROB30 2600/2603 2SM BR BKN006 OVC012 RMK FCST BASED ON AUTO OBS. NXT FCST BY 260900Z", "TAF CZFA 251740Z 2518/2522 32005KT P6SM SCT040 TEMPO 2518/2522 SCT020 BKN040 RMK NXT FCST BY 261600Z", "TAF CZFM 251840Z 2519/2523 33005KT P6SM -SN BKN015 OVC080 TEMPO 2519/2523 P6SM NSW SCT015 BKN080 RMK NXT FCST BY 261500Z", "TAF CZMD 251540Z 2516/2522 VRB03KT P6SM BKN040 TEMPO 2516/2522 P6SM -SHRA RMK FCST BASED ON AUTO OBS. NXT FCST BY 261000Z", "TAF CZMT 251845Z 2519/2601 15008KT P6SM SCT030 OVC220 TEMPO 2519/2522 BKN030 OVC120 FM252200 14015G25KT P6SM -RA SCT008 OVC025 TEMPO 2522/2601 3SM -RA BR OVC008 BECMG 2523/2601 14022G32KT RMK NXT FCST BY 261500Z", "TAF CZSJ 251540Z 2516/2522 VRB03KT P6SM BKN040 TEMPO 2516/2522 P6SM -SHRA RMK FCST BASED ON AUTO OBS. NXT FCST BY 261000Z", "TAF CZUM 251940Z 2520/2608 VRB03KT P6SM SKC FM260200 08005KT P6SM SKC PROB30 2602/2608 2SM BR RMK FCST BASED ON AUTO OBS. NXT FCST BY 260200Z", "TAF AMD CZVL 251829Z 2518/2606 26010KT P6SM SCT060 BKN100 TEMPO 2518/2520 5SM TSRA BKN060CB OVC100 BECMG 2519/2520 30020G30KT FM252000 30020G30KT P6SM SCT060 BKN100 TEMPO 2520/2524 P6SM -SHRA BKN060 OVC100 FM260000 30015G25KT P6SM BKN100 FM260400 30010KT P6SM SCT100 RMK FCST BASED ON AUTO OBS. NXT FCST BY 260000Z", "TAF DAAD 251700Z 2518/2603 35008KT CAVOK", "TAF DAAE 251700Z 2518/2618 09008KT 9999 FEW026 SCT200 PROB30 TEMPO 2602/2607 3000 BR BKN010", "TAF DAAG 251700Z 2518/2618 35010KT CAVOK BECMG 2518/2520 VRB02KT PROB40 TEMPO 2600/2606 3000 BR BECMG 2610/2612 35010KT", "TAF DAAJ 251700Z 2518/2618 10014KT 6000 SCT046 TEMPO 2518/2523 FEW040CB SCT100 PROB40 TEMPO 2519/2524 10015G25KT 3000 DRSA", "TAF DAAP 252000Z 2521/2606 08008KT 9999 FEW040", "TAF DAAS 251700Z 2518/2618 30008KT CAVOK TEMPO 2518/2521 01014KT FEW026TCU", "TAF DAAT 251700Z 2518/2618 VRB02KT CAVOK BECMG 2606/2608 08012KT PROB30 TEMPO 2607/2612 08015G25KT TEMPO 2612/2618 18010KT", "TAF DAAV 251700Z 2518/2618 34008KT 9999 FEW030 SCT200 PROB30 TEMPO 2603/2607 3000 BR BKN013", "TAF DAAY 252000Z 2521/2606 36010KT CAVOK BECMG 2601/2604 VRB02KT", "TAF DABB 251700Z 2518/2618 06008KT CAVOK PROB40 TEMPO 2601/2608 2000 BR BKN010 PROB30 TEMPO 2603/2607 0800 FG BKN003", "TAF DABC 251700Z 2518/2618 07008KT CAVOK TEMPO 2518/2521 01012KT FEW026TCU", "TAF DABS 251700Z 2518/2618 35008KT 9999 SCT023 BKN200 PROB40 TEMPO 2518/2521 05014KT FEW030CB", "TAF DABT 251700Z 2518/2618 01008KT 9999 FEW026 BKN200 PROB40 TEMPO 2518/2521 30013KT FEW030CB", "TAF DAFH 251700Z 2518/2603 28006KT 9999 FEW040", "TAF DAOB 251700Z 2518/2618 31005KT CAVOK BECMG 2518/2521 VRB02KT BECMG 2611/2614 33008KT", "TAF DAOF 252000Z 2521/2606 20010KT 7000 FEW040 BECMG 2521/2523 30008KT", "TAF DAOI 251700Z 2518/2618 VRB02KT CAVOK", "TAF DAON 251700Z 2518/2618 35005KT CAVOK BECMG 2519/2521 VRB02KT BECMG 2610/2613 34008KT", "TAF DAOO 251700Z 2518/2618 32008KT CAVOK BECMG 2518/2521 VRB02KT BECMG 2610/2613 35010KT BECMG 2615/2618 06008KT", "TAF DAOR 252000Z 2521/2606 VRB02KT 9999 FEW033", "TAF DAOV 252000Z 2521/2606 VRB02KT CAVOK BECMG 2604/2606 16005KT", "TAF DATM 251700Z 2518/2603 35008KT CAVOK", "TAF DAUA 251700Z 2518/2618 06012KT CAVOK", "TAF DAUB 251700Z 2518/2618 32008KT 9999 FEW026 BKN200", "TAF DAUG 251700Z 2518/2618 26006KT 9999 SCT046", "TAF DAUH 251700Z 2518/2618 18008KT CAVOK", "TAF DAUI 251700Z 2518/2618 06012KT CAVOK BECMG 2608/2611 06022KT PROB30 2609/2615 4000 DRSA", "TAF DAUK 252000Z 2521/2606 18008KT 9999 FEW040", "TAF DAUL 252000Z 2521/2606 36008KT CAVOK", "TAF DAUO 252000Z 2521/2606 24008KT CAVOK", "TAF DAUT 252000Z 2521/2606 04008KT CAVOK", "TAF DAUU 252000Z 2521/2606 20006KT CAVOK", "TAF DAUZ 251700Z 2518/2618 08008KT CAVOK", "TAF DBBB 251700Z 2518/2624 22010KT 9999 SCT012 TEMPO 2520/2602 TS BKN010 FEW023CB", "TAF DFFD 251700Z 2518/2624 VRB08KT 9999 FEW026 PROB30 TEMPO 2518/2602 TS FEW026 FEW040CB TEMPO 2606/2610 3500 HZ", "TAF DFOO 251700Z 2518/2618 22008KT 9999 SCT023 PROB30 TEMPO 2518/2524 4000 TSRA SCT023 FEW036CB", "TAF DGAA 251700Z 2518/2624 19012KT 9999 FEW014 BECMG 2600/2602 27008KT TEMPO 2606/2609 8000 SCT012", "TAF DGLE 251100Z 2512/2612 23010KT 9999 SCT016 TEMPO 2515/2519 FEW030CB BECMG 2521/2523 CAVOK", "TAF DGSI 251100Z 2512/2612 23008KT 9999 SCT017 PROB30 TEMPO 2518/2522 7000 TSRA BKN010 FEW030CB BECMG 2523/2601 FEW012", "TAF DIAP 251747Z 2518/2624 23006KT 9999 SCT012 PROB30 TEMPO 2518/2520 BKN012 FEW020CB TEMPO 2520/2602 TS BKN012 FEW020CB PROB30 TEMPO 2602/2605 BKN012 FEW020CB TEMPO 2615/2621 BKN012 FEW020CB", "TAF DIBK 251750Z 2518/2618 20005KT 9999 SCT013 TEMPO 2518/2523 BKN013 FEW030CB PROB30 TEMPO 2523/2602 TS BKN013 FEW030CB PROB30 TEMPO 2615/2618 BKN013 FEW030CB", "TAF DIYO 251752Z 2518/2618 25005KT 9999 SCT013 TEMPO 2518/2523 BKN013 FEW025CB PROB30 TEMPO 2523/2602 TS BKN013 FEW025CB PROB30 TEMPO 2615/2618 BKN013 FEW025CB", "TAF DNAA 251700Z 2518/2624 27010KT 9999 FEW014 FEW020CB TEMPO 2518/2523 TS 06016G32KT 5000 -TSRA BKN009 BECMG 2523/2601 VRB02KT BECMG 2608/2610 25010KT BKN012 PROB30 TEMPO 2615/2620 TS FEW013 FEW020CB BECMG 2620/2622 VRB02KT CAVOK", "TAF DNAK 251700Z 2518/2624 24010KT 9999 BKN012 FEW020CB TEMPO 2518/2524 TS TEMPO 2519/2522 5000 -TSRA BKN008 FEW018CB BECMG 2600/2602 VRB02KT TEMPO 2605/2608 3000 BR BECMG 2609/2611 24010KT BKN013 TEMPO 2614/2620 TS SCT013 FEW020CB BECMG 2620/2622 VRB02KT SCT011", "TAF DNBE 251700Z 2518/2624 24010KT 7000 TS BKN011 FEW020CB TEMPO 2518/2522 4000 -TSRA BKN008 FEW018CB BECMG 2522/2524 VRB02KT NSW SCT009 TEMPO 2605/2608 3000 BR BECMG 2609/2611 25010KT BKN012 TEMPO 2614/2620 TS SCT012 FEW020CB BECMG 2622/2624 VRB02KT SCT010", "TAF DNGO 251700Z 2518/2624 28005KT 9999 SCT013 FEW020CB BECMG 2521/2523 FEW012", "TAF DNIB 251700Z 2518/2624 23010KT 7000 -TSRA BKN009 FEW019CB TEMPO 2518/2521 5000 BECMG 2521/2523 VRB02KT BECMG 2601/2603 NSW FEW008 TEMPO 2605/2607 4000 BR BECMG 2608/2610 23010KT BKN014 TEMPO 2615/2621 TS SCT014 FEW020CB BECMG 2621/2623 VRB02KT SCT012", "TAF DNIL 251700Z 2518/2624 09008KT 9999 FEW012 PROB30 TEMPO 2518/2524 08015G30KT 5000 -TSRA BKN009 FEW020CB BECMG 2600/2602 VRB02KT BECMG 2608/2610 24010KT BKN012 PROB30 TEMPO 2615/2620 TS SCT013 FEW020CB BECMG 2620/2622 VRB02KT CAVOK", "TAF DNJO 251700Z 2518/2624 10008KT 9999 TS BKN012 FEW018CB TEMPO 2518/2522 05015G32KT 5000 -TSRA BKN006 FEW016CB BECMG 2522/2524 CAVOK BECMG 2609/2612 23010KT BKN008", "TAF DNKA 251700Z 2518/2624 28010KT 9999 TS SCT014 FEW020CB BECMG 2520/2522 14005KT NSW BECMG 2609/2611 26010KT BKN012 PROB30 TEMPO 2516/2520 TS FEW013 FEW020CB BECMG 2520/2522 17005KT", "TAF DNKN 251700Z 2518/2624 34005KT 9999 SCT013", "TAF DNKT 251700Z 2518/2624 30006KT 9999 SCT013", "TAF DNMA 251700Z 2518/2624 33010KT CAVOK", "TAF DNMM 251700Z 2518/2624 20010KT 9999 SCT013 FEW020CB TEMPO 2518/2522 TS TEMPO 2519/2522 4000 -TSRA BKN008 FEW019CB BECMG 2522/2524 VRB02KT SCT010 TEMPO 2606/2608 3000 BR BECMG 2609/2611 24010KT BKN013 TEMPO 2614/2620 TS SCT014 FEW020CB BECMG 2620/2622 VRB02KT SCT011", "TAF DNSO 251700Z 2518/2624 28010KT CAVOK", "TAF DNSU 251700Z 2518/2624 20010KT 6000 TS BKN010 FEW020CB TEMPO 2518/2521 4000 -TSRA BKN008 FEW019CB BECMG 2521/2523 VRB02KT NSW TEMPO 2606/2608 4000 TS BR FEW008 FEW019CB BECMG 2608/2610 24010KT BKN012 TEMPO 2615/2621 TS SCT012 FEW020CB BECMG 2621/2623 VRB02KT SCT011", "TAF DNYO 251100Z 2512/2618 30008KT 9999 FEW012 TEMP0 2512/2518 TS SCT013 FEW021CB", "TAF DRRN 251700Z 2518/2624 34005KT CAVOK", "TAF DRZA 251700Z 2518/2618 32008KT CAVOK", "TAF DRZR 251700Z 2518/2618 VRB03KT CAVOK", "TAF DTKA 251800Z 2519/2604 30005KT 9999 FEW020", "TAF DTMB 251700Z 2518/2618 11012KT 8000 FEW026 BECMG 2521/2523 VRB02KT PROB30 TEMPO 2605/2607 4000 BR FEW015 BECMG 2607/2609 08010KT", "TAF DTNH 251700Z 2518/2618 10010KT CAVOK PROB30 TEMPO 2605/2608 4000 BR", "TAF DTTA 251700Z 2518/2618 18005KT 9999 FEW026 BECMG 2609/2611 02010KT", "TAF DTTB 251800Z 2519/2604 30005KT 9999 FEW020 BECMG 2523/2601 33015KT", "TAF DTTF 251800Z 2519/2604 25010KT 9999 FEW033", "TAF DTTG 251800Z 2519/2604 10010KT CAVOK", "TAF DTTJ 251700Z 2518/2618 09010KT CAVOK BECMG 2520/2522 VRB03KT BECMG 2607/2609 02010KT", "TAF DTTR 251800Z 2519/2604 03002KT CAVOK", "TAF DTTX 251700Z 2518/2618 07010KT CAVOK", "TAF DTTZ 251700Z 2518/2618 25015KT 9999 FEW040 BECMG 2600/2602 09010KT", "TAF DXNG 251700Z 2518/2618 VRB05KT 9999 BKN007 FEW018CB PROB30 2518/2521 4000 TSRA BECMG 2522/2524 SCT007 PROB30 TEMPO 2614/2618 TS BKN008 FEW018CB", "TAF DXXX 251700Z 2518/2624 20010KT 9999 FEW012 BECMG 2522/2524 VRB05KT PROB40 TEMPO 2601/2606 4000 TSRA BKN010 FEW020CB BECMG 2613/2615 20010KT BECMG 2621/2623 VRB05KT", "TAF EBAW 252000Z 2521/2606 35005KT CAVOK", "TAF EBBE 251541Z 2519/2607 33005KT 9999 FEW040 BECMG 2523/2601 VRB03KT SCT220", "TAF EBBL 251541Z 2519/2607 33008KT 9999 FEW035 SCT040 BECMG 2520/2522 VRB03KT", "TAF EBBR 251700Z 2518/2624 34005KT CAVOK", "TAF EBCI 251700Z 2518/2624 35005KT CAVOK", "TAF EBCV 251541Z 2519/2607 36006KT 9999 FEW040 BECMG 2600/2602 VRB03KT SCT160 TEMPO 2600/2604 09004KT SCT250 BY EBWM", "TAF EBFN 251541Z 2519/2607 03006KT 9999 FEW030 BECMG 2520/2522 VRB02KT BECMG 2602/2604 13004KT 6000 BKN170 BKN230 PROB30 TEMPO 2603/2605 4000 BR", "TAF EBFS 251541Z 2519/2607 01008KT 9999 FEW040", "TAF EBLG 251700Z 2518/2624 35005KT CAVOK", "TAF EBOS 251700Z 2518/2624 01010KT CAVOK BECMG 2522/2524 17003KT", "TAF EDAC 251700Z 2518/2603 34010KT CAVOK BECMG 2518/2520 27005KT", "TAF EDAH 251700Z 2518/2603 26012G22KT 9999 FEW035", "TAF EDDB 251700Z 2518/2618 29012G22KT CAVOK BECMG 2518/2521 27009KT BECMG 2606/2608 28014KT", "TAF EDDC 251700Z 2518/2618 28012KT 9999 FEW035 BECMG 2518/2521 26007KT BECMG 2606/2608 29012KT", "TAF EDDE 251700Z 2518/2618 31011KT CAVOK BECMG 2518/2520 27005KT", "TAF EDDF 251700Z 2518/2624 32010KT CAVOK BECMG 2518/2520 32005KT TEMPO 2522/2607 VRB03KT", "TAF EDDG 251700Z 2518/2618 30010KT 9999 FEW040 BECMG 2518/2521 27004KT BECMG 2607/2610 28009KT", "TAF EDDH 251700Z 2518/2624 29014G24KT 9999 SCT040 BECMG 2519/2521 27008KT BECMG 2605/2607 29013KT PROB40 TEMPO 2609/2615 30015G25KT SHRA BKN030TCU BECMG 2618/2620 28006KT", "TAF EDDK 251700Z 2518/2624 32010KT 9999 SCT035 BECMG 2519/2522 VRB03KT TEMPO 2613/2619 33005KT", "TAF EDDL 251700Z 2518/2624 32009KT CAVOK BECMG 2519/2522 VRB03KT BECMG 2609/2611 30005KT BECMG 2618/2621 05002KT", "TAF EDDM 251700Z 2518/2624 26004KT 9999 FEW020 SCT040 PROB40 TEMPO 2518/2521 28010KT SHRA SCT012 BKN025CB BECMG 2608/2610 29009KT BECMG 2616/2618 VRB02KT", "TAF EDDN 251700Z 2518/2618 30004KT 9999 SCT035", "TAF EDDP 251700Z 2518/2618 31012KT CAVOK BECMG 2518/2520 27007KT", "TAF EDDR 251700Z 2518/2618 34006KT 9999 FEW035 BECMG 2519/2522 06004KT", "TAF EDDS 251700Z 2518/2618 32007KT 9999 SCT020 BECMG 2518/2520 VRB02KT TEMPO 2610/2618 33005KT", "TAF EDDV 251700Z 2518/2618 29012KT 9999 SCT030 BECMG 2518/2520 27007KT BECMG 2607/2609 28012KT PROB30 TEMPO 2611/2615 29015G25KT BKN040TCU", "TAF EDDW 251700Z 2518/2618 30013G23KT 9999 SCT040 BECMG 2518/2520 27008KT BECMG 2606/2608 29013KT PROB30 TEMPO 2610/2615 30015G25KT SHRA BKN030TCU", "TAF EDFH 251700Z 2518/2618 32006KT 9999 FEW030 BECMG 2519/2521 02003KT", "TAF EDGS 251700Z 2518/2603 31011KT 9999 SCT030 BECMG 2518/2521 31006KT", "TAF EDJA 251700Z 2518/2603 28007KT 9999 FEW012 BKN030 PROB30 TEMPO 2518/2521 4000 SHRA BKN012TCU BECMG 2520/2522 22005KT", "TAF EDLN 251700Z 2518/2603 32010KT CAVOK BECMG 2519/2521 VRB03KT", "TAF EDLP 251700Z 2518/2618 25005KT 9999 BKN030 TEMPO 2613/2617 29010KT", "TAF EDLV 251700Z 2518/2618 VRB03KT CAVOK TEMPO 2609/2614 30005KT", "TAF EDLW 251700Z 2518/2618 32008KT 9999 SCT040 BECMG 2518/2521 25003KT TEMPO 2610/2615 29008KT", "TAF EDMA 251700Z 2518/2603 24005KT 9999 BKN040 PROB30 TEMPO 2518/2521 RA", "TAF EDMO 251700Z 2518/2603 26006KT 9999 BKN035 PROB30 TEMPO 2518/2521 SHRA BKN013TCU", "TAF EDNY 251700Z 2518/2618 VRB03KT 9999 SCT015 BKN030 PROB40 TEMPO 2518/2522 28009KT SHRA BKN012TCU PROB30 TEMPO 2602/2606 3000 BCFG BECMG 2608/2610 25005KT BECMG 2616/2618 VRB02KT", "TAF EDQM 251700Z 2518/2603 30005KT 9999 BKN040", "TAF EDSB 251700Z 2518/2618 VRB03KT 9999 FEW035 PROB30 TEMPO 2603/2606 4000 BR TEMPO 2608/2618 36005KT", "TAF EDTL 251700Z 2518/2524 02007KT 9999 SCT020 BKN030 BECMG 2518/2520 VRB02KT", "TAF EDTY 251700Z 2518/2603 27004KT 9999 BKN040", "TAF EDVK 251700Z 2518/2603 30011KT 9999 FEW040 BECMG 2518/2520 29006KT", "TAF EEEI 251730Z 2518/2618 10006KT 9999 FEW040TCU BECMG 2520/2522 24006KT NSC TEMPO 2522/2605 VRB02KT 2000 BR BKN003 PROB40 TEMPO 2600/2604 1000 FG VV002 TEMPO 2612/2616 VRB02KT DZRA BECMG 2616/2618 4000 RA BKN008 BKN015", "TAF EETN 251730Z 2518/2618 VRB02KT 9999 SCT030 TEMPO 2518/2521 SCT025CB PROB40 TEMPO 2600/2606 0700 FG BKN002 TEMPO 2606/2612 BKN010 TEMPO 2612/2618 3000 SHRA BKN005 BKN020CB BECMG 2617/2618 27010KT", "TAF EFHK 252036Z 2521/2621 10004KT CAVOK PROB40 TEMPO 2603/2608 2000 BR BKN003 TEMPO 2604/2611 BKN006 TEMPO 2614/2618 SCT040CB PROB40 TEMPO 2618/2621 7000 RA BKN010 SCT040CB", "TAF EFJY 252036Z 2521/2621 VRB01KT 6000 BCFG NSC BECMG 2521/2523 0400 FG VV001 TEMPO 2523/2604 1200 BCFG SCT001 FEW040CB BECMG 2604/2606 9999 MIFG SCT001 BECMG 2608/2610 15010KT TEMPO 2612/2621 SCT050CB", "TAF EFKE 252027Z 2521/2606 07010KT 9999 BKN008 TEMPO 2521/2606 6000 SHRA BKN015 FEW020CB", "TAF AMD EFKK 252122Z 2521/2606 11006KT 8000 SCT003 TEMPO 2521/2522 1400 BR BKN003 FEW030CB BECMG 2522/2524 1400 BR BKN003 TEMPO 2600/2606 8000 NSW BKN005", "TAF EFKU 252031Z 2521/2621 11007KT CAVOK PROB30 2522/2605 1800 BCFG PROB30 TEMPO 2611/2618 TS FEW050CB", "TAF EFMA 252036Z 2521/2606 10003KT 4000 BR BKN003 TEMPO 2521/2606 0400 FG VV001", "TAF AMD EFOU 252107Z 2521/2621 11012KT 9999 -SHRA BKN008 TEMPO 2521/2603 4500 SHRA SCT008 SCT040CB PROB30 2521/2523 TS TEMPO 2603/2607 7000 SHRA BKN004 FEW020CB BECMG 2607/2609 CAVOK", "TAF AMD EFRO 252048Z 2521/2621 08013KT 2500 -SN BKN015 TEMPO 2521/2523 8000 BKN004 BECMG 2523/2524 9999 BKN007 TEMPO 2600/2609 6000 -FZRA BKN010 TEMPO 2609/2611 FEW030CB BECMG 2611/2613 CAVOK", "TAF EFSI 252036Z 2521/2606 13004KT 7000 OVC015 BECMG 2521/2523 0500 FG VV001 TEMPO 2523/2606 3000 BR SCT001", "TAF EFTP 252036Z 2521/2621 VRB01KT CAVOK TEMPO 2603/2609 BKN006 PROB30 2603/2606 3000 BR BKN004 TEMPO 2609/2612 BKN012 PROB30 TEMPO 2612/2615 FEW020CB", "TAF EFTU 252036Z 2521/2621 VRB02KT 9999 BKN028 FEW030CB BECMG 2521/2523 3000 BR BKN003 PROB40 TEMPO 2600/2604 0500 FG VV001 BECMG 2604/2606 9999 NSW SCT010 BECMG 2610/2612 BKN010 TEMPO 2612/2618 5000 -RA BKN004 BKN020", "TAF EFVA 252031Z 2521/2621 14005KT 9999 BKN004 FEW030CB BECMG 2521/2523 0400 FG VV002 TEMPO 2523/2603 3000 -DZRA BR BKN001 FEW030CB TEMPO 2603/2608 6000 SHRA BKN005 SCT040CB BECMG 2608/2610 9999 NSW BKN015 BECMG 2615/2617 3000 -RA BR BKN005", "TAF AMD EGAA 252110Z 2521/2618 11007KT CAVOK BECMG 2521/2524 SCT030 BKN040 PROB30 TEMPO 2600/2606 6000 -RADZ RA BKN014 PROB30 TEMPO 2611/2615 8000 -SHRA", "TAF EGBB 251655Z 2518/2618 VRB04KT 9999 SCT045 PROB30 TEMPO 2615/2618 BKN014", "TAF EGCC 251653Z 2518/2624 16006KT 9999 FEW040", "TAF EGCK 251954Z 2521/2606 05010KT 9999 FEW045 BECMG 2522/2601 13005KT", "TAF EGDR 251655Z 2518/2603 09018G29KT 9999 SCT037 TEMPO 2518/2601 7000 -RA SCT014 BECMG 2521/2601 4000 -RADZ SCT008 PROB40 TEMPO 2522/2603 3000 RADZ SCT005 PROB30 TEMPO 2523/2603 2000 DZ BR BKN002 BECMG 2522/2602 11013KT", "TAF EGDY 251644Z 2518/2603 11005KT 9999 FEW040", "TAF EGFF 251654Z 2518/2618 11007KT 9999 FEW040 TEMPO 2603/2606 8000 -RA TEMPO 2606/2618 8000 -RA BKN012 PROB30 TEMPO 2608/2618 BKN009", "TAF EGGD 251654Z 2518/2618 11008KT 9999 FEW040 TEMPO 2604/2608 8000 -RA TEMPO 2608/2618 8000 -RA BKN009", "TAF EGGP 251653Z 2518/2618 VRB03KT 9999 FEW045 BECMG 2611/2613 15010KT", "TAF EGGW 251655Z 2518/2618 12007KT 9999 FEW030", "TAF EGHI 251656Z 2518/2522 12005KT 9999 FEW045", "TAF EGHQ 251956Z 2521/2606 11009KT 9999 FEW040 PROB30 TEMPO 2602/2606 BKN014", "TAF EGJA 251359Z 2515/2600 08013KT 9999 FEW021 SCT040", "TAF EGJB 251957Z 2521/2606 10011KT 9999 FEW035 PROB30 TEMPO 2522/2601 9000 -RA BECMG 2600/2602 BKN012 PROB40 TEMPO 2601/2606 4000 RA BKN007", "TAF EGJJ 251957Z 2521/2606 10013KT 9999 FEW035 PROB30 TEMPO 2523/2602 9000 -RA BECMG 2601/2603 BKN012 PROB40 TEMPO 2602/2606 4000 RA BKN007", "TAF EGKB 251659Z 2518/2522 05007KT 9999 FEW045", "TAF EGKK 251700Z 2518/2624 09005KT 9999 FEW040 PROB30 TEMPO 2606/2613 9000 -RA", "TAF EGLL 251653Z 2518/2624 10006KT 9999 SCT040 PROB30 TEMPO 2608/2614 9000 -RA", "TAF EGMD 251950Z 2521/2606 10009KT CAVOK", "TAF EGNJ 251655Z 2518/2603 09006KT 9999 FEW040", "TAF EGNM 251653Z 2518/2618 13005KT 9999 FEW040 PROB30 TEMPO 2611/2616 7000 SHRA", "TAF EGNT 251653Z 2518/2618 12004KT 9999 FEW040 PROB40 TEMPO 2610/2618 7000 SHRA", "TAF AMD EGNX 252105Z 2521/2618 12006KT 9999 SCT045", "TAF EGPA 251954Z 2521/2606 32011KT 9999 SCT025 TEMPO 2521/2606 5000 SHRASN BKN012", "TAF EGPB 251954Z 2521/2606 34009KT 9999 SCT030 TEMPO 2521/2606 6000 -SHSNRA BKN012 PROB30 TEMPO 2521/2603 35018G28KT", "TAF EGPC 251954Z 2521/2606 30009KT 9999 SCT025 TEMPO 2521/2606 5000 SHRASN BKN012", "TAF EGPD 251653Z 2518/2618 34010KT 9999 SCT030 TEMPO 2518/2520 6000 -SHRASN -SHGS BKN012 PROB30 TEMPO 2518/2520 36015G25KT 4000 SHRASN BECMG 2600/2603 25005KT", "TAF EGPE 251954Z 2521/2606 VRB03KT 9999 FEW020 SCT040", "TAF EGPF 251653Z 2518/2618 26004KT 9999 FEW040 BECMG 2522/2524 07010KT", "TAF EGPH 251653Z 2518/2618 27005KT 9999 FEW035 BECMG 2519/2522 07010KT", "TAF EGPK 251653Z 2518/2618 27007KT 9999 SCT030", "TAF EGPO 251954Z 2521/2606 02009KT 9999 SCT035 PROB30 TEMPO 2521/2606 6000 -SHRASN", "TAF EGQL 251937Z 2521/2606 06005KT 9999 FEW030 TEMPO 2523/2606 6000 -SHRA SCT020", "TAF EGQS 251929Z 2521/2615 31008KT 9999 FEW030 PROB30 TEMPO 2521/2603 7000 -SHRASN -SHGS SCT020", "TAF EGSH 251953Z 2521/2606 01005KT 9999 FEW045", "TAF EGSS 251655Z 2518/2624 14006KT 9999 FEW030", "TAF EGSY 251955Z 2521/2606 13005KT 9999 FEW040 TEMPO 2603/2606 8000 -RA", "TAF EGTE 251956Z 2521/2606 08005KT 9999 FEW040 PROB30 TEMPO 2604/2606 BKN014", "TAF EGTK 251700Z 2518/2522 04005KT 9999 FEW040", "TAF AMD EGUL 251740Z 2517/2619 VRB06KT 9999 SCT040 BKN060 QNH3003INS TX10/2613Z TN04/2605Z LAST NO AMDS AFT 2517 NEXT 2605", "TAF EGUN 252000Z 2520/2702 12005KT 9999 FEW070 BKN250 QNH3007INS BECMG 2601/2603 16005KT 9000 BR FEW030 SCT060 BKN150 QNH3004INS TEMPO 2604/2607 6000 BR BECMG 2609/2610 15007KT 9999 NSW FEW025 BKN050 BKN150 600503 QNH3001INS TEMPO 2611/2618 15015KT SCT025 OVC040 620404 600802 BECMG 2623/2624 15005KT 9000 BR FEW040 BKN080 BKN200 600802 QNH3004INS TX12/2615Z TN01/2605Z", "TAF EGUW 251629Z 2518/2522 08005KT 9999 SCT035", "TAF AMD EGVA 251700Z 2517/2618 06012KT 9999 SCT040 BKN070 QNH2990INS BECMG 2521/2522 VRB06KT 9999 FEW020 BKN050 QNH2995INS BECMG 2608/2609 12012KT 9999 BKN020 OVC035 QNH3000INS TX10/2518Z TN03/2605Z LAST NO AMDS AFT 2517 NEXT 2604", "TAF EGVN 251932Z 2521/2621 VRB04KT CAVOK TEMPO 2609/2615 BKN018 PROB30 TEMPO 2610/2613 4000 -RADZ BKN014", "TAF EGVO 251935Z 2521/2609 13006KT CAVOK PROB30 TEMPO 2605/2609 SCT020", "TAF EGVP 251942Z 2521/2602 11005KT CAVOK", "TAF EGWU 251932Z 2521/2615 12006KT 9999 SCT048", "TAF EGXC 251928Z 2521/2615 10006KT 9999 FEW045", "TAF EGXW 251927Z 2521/2615 10008KT 9999 FEW045", "TAF EGYP 251939Z 2521/2615 25020G30KT 9999 FEW012 BKN018 PROB40 TEMPO 2521/2522 -SHRA SCT012 PROB30 TEMPO 2521/2522 5000 SHRA BECMG 2522/2524 23016KT SCT040 PROB30 TEMPO 2522/2601 SCT020 BECMG 2600/2603 28014KT BECMG 2612/2615 31015G25KT", "TAF EHAM 251655Z 2518/2624 30008KT 9999 FEW035 BECMG 2618/2621 13005KT", "TAF EHBK 251633Z 2518/2624 33005KT CAVOK", "TAF EHEH 251737Z 2518/2624 33008KT 9999 FEW040 SCT060 BECMG 2521/2523 VRB02KT BECMG 2609/2611 31005KT", "TAF EHGG 251633Z 2518/2624 29010KT 9999 BKN030 PROB30 TEMPO 2518/2616 7000 -SHRA FEW030TCU BECMG 2618/2621 VRB02KT", "TAF EHKD 251643Z 2517/2605 32012KT 9999 SCT030 SCT040", "TAF EHLE 251655Z 2518/2624 31007KT 9999 FEW035 PROB30 TEMPO 2518/2524 7000 -SHRA FEW030TCU SCT035 BECMG 2617/2620 VRB02KT", "TAF EHLW 252032Z 2521/2609 31008KT 9999 FEW025 SCT035", "TAF EHRD 251655Z 2518/2624 32005KT 9999 FEW035 TEMPO 2521/2608 VRB02KT BECMG 2616/2619 11005KT", "TAF EHVK 252030Z 2521/2609 32004KT CAVOK BECMG 2521/2523 VRB02KT BECMG 2607/2609 30004KT", "TAF EICK 251700Z 2518/2618 13013KT 9999 SCT015 BKN030 TEMPO 2518/2604 BKN012 PROB40 TEMPO 2521/2604 4000 -RA BKN007 BECMG 2604/2606 BKN012 TEMPO 2604/2612 3000 -RADZ BKN006 BECMG 2612/2614 SCT012 BKN015 PROB40 TEMPO 2614/2618 BKN012", "TAF EIDL 251700Z 2518/2603 06018KT 9999 FEW050 BECMG 2520/2522 10012KT", "TAF EIDW 251700Z 2518/2618 13010KT 9999 FEW020 BKN050 BECMG 2520/2522 13005KT BECMG 2609/2611 14010KT", "TAF EIKN 251700Z 2518/2618 14008KT 9999 FEW020 BKN050 PROB30 TEMPO 2522/2603 3000 BR PROB30 TEMPO 2615/2618 4000 -RA BKN014", "TAF EIKY 251700Z 2518/2603 13010KT 9999 BKN030 PROB40 TEMPO 2521/2603 BKN014", "TAF EIME 252000Z 2521/2606 12005KT 9999 BKN050", "TAF EINN 251700Z 2518/2618 14010KT 9999 SCT025 BKN050 BECMG 2610/2612 17010KT", "TAF EISG 252000Z 2521/2606 13007KT 9999 SCT050", "TAF EIWF 252000Z 2521/2606 14008KT 9999 FEW020 SCT045", "TAF EKAH 251713Z 2518/2618 28017KT 9999 BKN025 TEMPO 2521/2618 28017G28KT", "TAF EKBI 251713Z 2518/2618 29018KT 9999 BKN025 TEMPO 2518/2605 29020G30KT TEMPO 2609/2616 -SHRA SCT020TCU", "TAF EKCH 251713Z 2518/2618 25015KT 9999 BKN025 TEMPO 2518/2521 -SHRA SCT025TCU TEMPO 2521/2618 28017G28KT", "TAF AMD EKEB 251913Z 2519/2522 30018KT 9999 BKN030 TEMPO 2519/2522 30018G28KT", "TAF EKKA 252003Z 2521/2621 28015KT 9999 BKN030 TEMPO 2521/2524 28018G32KT TEMPO 2600/2607 29015G28KT TEMPO 2607/2615 29018G30KT TEMPO 2615/2618 29012G25KT", "TAF EKRK 252005Z 2521/2606 28015KT 9999 BKN035 TEMPO 2521/2606 28017G28KT", "TAF EKRN 252003Z 2521/2606 27015KT 9999 BKN060 TEMPO 2521/2603 26018G28KT TEMPO 2603/2606 26022G32KT", "TAF EKSB 251711Z 2518/2522 30017KT 9999 BKN035 TEMPO 2518/2522 30018G28KT", "TAF EKSP 252003Z 2521/2621 30015KT 9999 FEW040 TEMPO 2521/2522 30018G32KT -SHRA SCT020TCU PROB40 2522/2608 29018G28KT TEMPO 2608/2615 29018G30KT 6000 -SHRA SCT020TCU TEMPO 2615/2618 29010G20KT -SHRA SCT020TCU", "TAF EKYT 252003Z 2521/2621 29012KT 9999 FEW030 BKN060 TEMPO 2521/2611 30015G25KT TEMPO 2611/2618 29018G33KT TEMPO 2618/2621 28015G25KT", "TAF ELLX 251700Z 2518/2624 36008KT CAVOK TEMPO 2606/2619 VRB03KT", "TAF ENAL 251400Z 2515/2523 02012KT 9999 -SHRA SCT020 TEMPO 2515/2523 SHSNRA VV012 TEMPO 2515/2521 BKN015CB PROB30 TEMPO 2515/2523 03018G28KT", "TAF ENAN 251700Z 2518/2618 06015KT CAVOK PROB40 TEMPO 2606/2614 06015G25KT", "TAF ENAT 251400Z 2515/2522 33005KT CAVOK", "TAF ENBN 252000Z 2521/2606 03008KT 9999 FEW010 BKN030", "TAF ENBO 251700Z 2518/2618 09012KT 9999 BKN050 PROB30 2521/2601 4000 -SN TEMPO 2521/2606 03006KT", "TAF ENBR 251700Z 2518/2618 33018KT 9999 FEW030 SCT040 TEMPO 2518/2524 34020G30KT TEMPO 2518/2521 FEW030TCU BECMG 2522/2524 35008KT TEMPO 2603/2618 32015G25KT SHRA BKN014CB", "TAF ENBS 251400Z 2515/2522 27025KT 9999 -SHSN FEW015 BKN030 TEMPO 2515/2518 2000 SHSN VV008 TEMPO 2515/2522 FEW025CB BECMG 2517/2519 28012KT", "TAF ENCN 251400Z 2515/2522 30008KT 9999 SCT040 TEMPO 2515/2522 32015G25KT FEW030TCU BKN040", "TAF ENDU 251700Z 2518/2618 10008KT 9999 FEW060 PROB30 TEMPO 2603/2606 4000 -SN TEMPO 2605/2617 09015G25KT", "TAF ENEV 251700Z 2518/2618 11008KT 9999 FEW050 BKN070 TEMPO 2520/2605 09015G25KT TEMPO 2605/2614 09020G30KT", "TAF ENFL 252000Z 2521/2606 36012KT 9999 -SHSNRA FEW020TCU SCT030 PROB40 TEMPO 2600/2606 2000 SHRASN BKN012 FEW020CB", "TAF ENGC 252000Z 2521/2621 35022KT 9999 -SHRASN FEW015TCU SCT025 TEMPO 2521/2614 3000 SHRASN BKN012CB TEMPO 2614/2621 35025G35KT 2000 SHRASNGS BKN012CB", "TAF ENGM 251700Z 2518/2618 34008KT 9999 FEW020 BKN060 PROB40 TEMPO 2611/2618 3000 SHRAGS FEW030CB BKN040", "TAF ENHE 252000Z 2521/2606 04028KT 9999 FEW020TCU SCT040 TEMPO 2521/2606 1200 SHSNRA BKN012CB", "TAF ENHF 252000Z 2521/2606 10005KT 9999 FEW015 BKN030", "TAF ENHV 251400Z 2515/2522 29018KT 9999 FEW015 BKN030 PROB30 TEMPO 2515/2522 2000 SHSN VV008 BECMG 2517/2520 27008KT", "TAF AMD ENKB 251820Z 2518/2523 03007KT 9999 FEW005 BKN040 TEMPO 2518/2521 2000 SHSNRA BKN008TCU TEMPO 2521/2523 1000 SHSN BKN005 BKN012CB", "TAF ENKR 252000Z 2521/2606 27004KT 9999 SCT040", "TAF ENLE 252000Z 2521/2606 31026KT 9999 -SHRA FEW010 SCT020TCU TEMPO 2521/2606 SHRA SCT020CB", "TAF ENMH 251400Z 2515/2522 29018KT 9999 -SHSN FEW018 BKN025 TEMPO 2515/2518 29015G25KT TEMPO 2515/2522 SCT020TCU TEMPO 2515/2522 1800 SHSN VV008 BECMG 2517/2520 27008KT", "TAF ENML 251400Z 2515/2522 30008KT 9999 FEW020 BKN040 TEMPO 2515/2522 2000 SHSNRA BKN012 BKN018TCU", "TAF ENNA 251700Z 2518/2618 27010KT 9999 FEW030 BECMG 2518/2521 VRB05KT BECMG 2612/2615 19010KT PROB30 TEMPO 2614/2618 4000 -SNRA VV014", "TAF ENOA 252000Z 2521/2621 35028KT 9999 FEW020TCU SCT030 PROB40 TEMPO 2521/2614 4000 SHRASN BKN014CB BECMG 2600/2603 33018KT BECMG 2612/2614 34028KT TEMPO 2614/2621 35028G38KT 3000 SHRASNGS BKN012CB", "TAF ENOL 251700Z 2518/2618 02008KT 9000 -RASN FEW008 BKN018 TEMPO 2518/2606 1500 SNRA VV008 TEMPO 2606/2618 3000 RASN VV012", "TAF ENOV 251400Z 2515/2523 VRB05KT 9999 -SHRA FEW025TCU BKN040 PROB40 TEMPO 2515/2523 03015G25KT 2000 SHSNRA VV012", "TAF AMD ENRA 251945Z 2519/2522 08008KT 9999 FEW030 BKN070 TEMPO 2519/2522 3000 -SN VV012", "TAF ENRY 251700Z 2518/2618 34008KT 9999 FEW030 SCT070 PROB30 TEMPO 2611/2617 SHRAGS FEW030CB BKN040", "TAF ENSB 251700Z 2518/2618 12008KT CAVOK", "TAF ENSD 251400Z 2515/2522 VRB07KT 9999 FEW020TCU BKN035 PROB40 TEMPO 2515/2522 32015G25KT 3000 SHSNRA VV014", "TAF ENTC 251700Z 2518/2618 03008KT CAVOK", "TAF ENTO 251700Z 2518/2618 34008KT 9999 FEW030 SCT070 PROB30 TEMPO 2611/2617 SHRAGS FEW030CB BKN040", "TAF AMD ENVA 251843Z 2518/2618 09005KT 9999 -SN BKN015 TEMPO 2518/2522 2000 SN VV006 PROB40 TEMPO 2522/2608 0500 SN VV006 BECMG 2600/2603 27010KT TEMPO 2608/2612 1200 SNRA VV008", "TAF ENVD 251400Z 2515/2523 30020KT 9999 FEW030 BECMG 2517/2519 30010KT", "TAF ENZV 251700Z 2518/2618 33022KT 9999 FEW020 BKN040 TEMPO 2518/2524 33025G35KT BECMG 2603/2606 33012KT TEMPO 2608/2618 33015G25KT SHRA BKN014CB", "TAF EPBY 251730Z 2518/2618 28008KT CAVOK TEMPO 2605/2618 28015G28KT PROB30 TEMPO 2605/2609 BKN012 PROB40 TEMPO 2611/2618 -SHRA BKN030TCU", "TAF EPCE 251700Z 2518/2606 25008KT 9999 SCT035 BKN200 BECMG 2521/2424 BKN025 TEMPO 2523/2606 5000 RA SHRA BKN013TCU", "TAF EPDA 251700Z 2518/2606 25010KT CAVOK BECMG 2519/2521 BKN034 TEMPO 2521/2605 25015G25KT 5000 RA SHRA BKN015TCU PROB30 TEMPO 2522/2603 3000 SHRA BKN005 OVC010CB", "TAF EPDE 251700Z 2518/2606 31010KT 8000 -RADZ SCT007 BKN017 OVC030 BECMG 2519/2521 5000 RA BKN006 OVC013 BECMG 2604/2606 8000 SCT009 SCT030 BKN100", "TAF EPGD 251730Z 2518/2618 28012KT 9999 SCT030 PROB40 TEMPO 2605/2613 -SHRA BKN030TCU TEMPO 2606/2609 28015G25KT TEMPO 2609/2618 28020G33KT", "TAF EPIR 251100Z 2512/2524 27014KT 9999 BKN040 PROB30 TEMPO 2514/2518 SHRA SCT025TCU BECMG 2518/2520 30010KT CAVOK", "TAF EPKK 252030Z 2521/2621 28007KT 9999 SCT050 TEMPO 2609/2615 30015G25KT", "TAF EPKS 251700Z 2518/2606 28008KT CAVOK BECMG 2604/2606 BKN020", "TAF EPKT 251730Z 2518/2618 30009KT 9999 SCT040 TEMPO 2606/2613 30015G25KT", "TAF EPLB 251730Z 2518/2618 30010KT 9999 -RA FEW007 BKN025 TEMPO 2518/2603 4000 RADZ BR BKN007 BKN014 TEMPO 2607/2617 31018G28KT", "TAF EPLK 251700Z 2518/2606 29008KT CAVOK", "TAF EPLL 251730Z 2518/2618 28008KT CAVOK TEMPO 2607/2617 28018G28KT", "TAF EPLY 251700Z 2518/2606 28006KT CAVOK PROB30 TEMPO 2518/2521 -SHRA BKN030TCU", "TAF EPMB 251700Z 2518/2606 01010KT 9999 BKN020 OVC050 TEMPO 2518/2520 8000 SHRA SCT008 BKN015TCU BECMG 2520/2522 27006KT SCT020", "TAF EPMI 251700Z 2518/2606 27010KT 9999 BKN040", "TAF AMD EPMM 251723Z 2518/2606 30010KT 9999 BKN033 TEMPO 2518/2521 6000 -RA SCT012 OVC020 PROB30 2518/2606 4000 RA DZ BR BKN006 OVC012", "TAF EPMO 251730Z 2518/2618 28008KT 9999 SCT037 TEMPO 2607/2617 31018G28KT", "TAF EPOK 251700Z 2518/2606 27010KT 9999 SCT040 BECMG 2522/2600 9999 BKN025 PROB30 TEMPO 2602/2606 6000 SHRA BKN015CB TEMPO 2604/2606 27013G23KT", "TAF EPPO 251730Z 2518/2618 28008KT CAVOK BECMG 2606/2608 27016G26KT TEMPO 2611/2616 BKN030TCU BECMG 2616/2618 27008KT", "TAF EPPR 251100Z 2512/2524 27010KT 9999 BKN030 TEMPO 2512/2518 6000 SHRA BKN015CB", "TAF COR EPPW 2518/2606 28008KT CAVOK", "TAF AMD EPRA 252003Z 2520/2606 30008KT 6000 -RA BKN020 BKN030 BECMG 2521/2523 9999 BKN035", "TAF EPRZ 251730Z 2518/2618 30010KT 9999 BKN030 TEMPO 2518/2521 3000 -RA BR BKN008 BKN014 TEMPO 2606/2617 30015G25KT", "TAF EPSC 251730Z 2518/2618 26012KT 9999 SCT045 PROB40 TEMPO 2518/2522 -SHRA SCT035TCU TEMPO 2603/2609 28015G25KT TEMPO 2609/2617 28018G32KT PROB40 TEMPO 2610/2615 -SHRA BKN035TCU", "TAF EPSN 251700Z 2518/2606 27012KT 9999 BKN033", "TAF EPSY 252030Z 2521/2606 34006KT 8000 SCT020 BKN040 PROB40 TEMPO 2521/2603 5000 -RA BR BKN012 OVC022 PROB30 TEMPO 2521/2603 3000 SHRA BKN006CB BKN010CB BECMG 2603/2606 28010KT CAVOK", "TAF EPTM 251700Z 2518/2606 28008KT 9999 BKN040", "TAF EPWA 252030Z 2521/2621 29010KT 9999 BKN030 PROB40 2521/2524 -RA BKN014 TEMPO 2608/2618 29016G27KT", "TAF EPWR 252030Z 2521/2621 29010KT CAVOK PROB40 TEMPO 2610/2617 29016G30KT SCT020TCU", "TAF EPZG 252030Z 2521/2606 28008KT CAVOK", "TAF ESGG 252030Z 2521/2621 25004KT 9999 SCT025 TEMPO 2522/2608 4000 SHRA BKN012 SCT025TCU", "TAF ESGJ 252030Z 2521/2601 25009KT 9999 BKN015 PROB40 2521/2601 BKN013", "TAF COR ESIA 251730Z 2518/2522 17008KT 9999 BKN033 TEMPO 2518/2522 7000 SHRA BKN015 RMK MIL", "TAF ESKN 252030Z 2521/2621 10005KT 9999 BKN004 TEMPO 2521/2605 1200 BR SCT003 TEMPO 2605/2608 BKN012 BECMG 2608/2610 SCT030", "TAF ESMQ 251730Z 2518/2522 23010KT 9999 BKN025", "TAF ESMS 252007Z 2521/2621 26014KT 9999 SCT030 TEMPO 2606/2616 28015G25KT", "TAF ESMX 252030Z 2521/2601 22007KT 9999 BKN030 PROB40 2523/2601 2000 BR BKN004", "TAF ESNN 252030Z 2521/2601 35005KT 9999 OVC012 PROB40 2521/2601 BKN015", "TAF ESNS 251730Z 2518/2522 04010KT 5000 -SN BKN009 TEMPO 2518/2521 1000 SN VV003 BECMG 2521/2522 1400 BR OVC003", "TAF ESNU 252030Z 2521/2606 02009KT 3000 BR OVC003 PROB40 2521/2603 0500 FG VV002 PROB40 2603/2606 1000 RADZ BKN005", "TAF ESNZ 251730Z 2518/2522 01005KT 8000 -SN SCT006 BKN015 TEMPO 2518/2522 2000 SN BKN008", "TAF ESOE 252030Z 2521/2601 VRB03KT 9999 OVC006 TEMPO 2521/2601 2500 RADZ BR OVC004", "TAF ESPA 252030Z 2521/2523 06010KT 5000 -SN BKN010 TEMPO 2521/2523 0800 SN VV005", "TAF ESSA 252030Z 2521/2621 05004KT 4000 BR BKN003 TEMPO 2521/2522 9999 NSW BKN008 TEMPO 2522/2608 0300 FG BECMG 2608/2610 9999 NSW BKN012 PROB40 2610/2612 BKN008 BECMG 2612/2614 BKN030", "TAF ESSL 251930Z 2520/2522 26008KT 9999 BKN020", "TAF ESTA 251708Z 2518/2522 26014KT 9999 BKN025 TEMPO 2518/2522 4000 DZRA BKN012", "TAF ETAD 252100Z 2521/2703 35012KT 9999 SCT070 QNH3002INS BECMG 2605/2606 VRB05KT 9999 SCT050 BKN070 QNH3004INS BECMG 2612/2613 35009KT 9999 SCT035 BKN050 BKN100 QNH3006INS BECMG 2615/2616 32010G15KT 9999 SCT035 BKN050 BKN100 QNH3007INS TX10/2612Z TN00/2603Z", "TAF ETAR 251800Z 2518/2624 36004KT 9999 BKN050 QNH2998INS BECMG 2603/2604 05004KT 9999 SCT040 QNH3001INS BECMG 2608/2609 10009KT 9999 BKN050 QNH3005INS BECMG 2615/2616 VRB06KT 9999 SCT050 BKN100 QNH3001INS TX12/2613Z TN00/2603Z", "TAF ETEB 251500Z 2515/2621 30009KT 9999 SCT025 BKN060 QNH2989INS TX10/2613Z TN01/2604Z", "TAF ETHA 251320Z 2514/2523 27010KT 9999 NSW SCT020 BKN040 TEMPO 2514/2523 29012G25KT 4000 SHRA BKN012 BKN025TCU PROB30 2514/2517 30015G30KT 2000 TSRA BKN010 BKN020CB", "TAF ETHB 251901Z 2520/2605 27006KT 9999 NSW FEW030 SCT060 PROB30 2600/2605 26004KT 4000 BR SCT030", "TAF ETHC 251626Z 2517/2602 27008KT 9999 NSW FEW040 SCT060 TEMPO 2517/2520 28015G25KT 4000 SHRA SCT012 BKN015TCU", "TAF ETHF 251918Z 2520/2605 VRB03KT 9999 NSW FEW050 SCT070", "TAF ETHL 251919Z 2520/2605 24005KT 9999 NSW FEW020 BKN030 TEMPO 2520/2524 30012KT 4000 SHRA BKN010 BKN020TCU TEMPO 2600/2605 23003KT 8000 NSW BKN010", "TAF ETHN 251300Z 2514/2523 30010KT 9999 NSW SCT040 SCT150 TEMPO 2514/2516 32015KT 8000 -SHRA BKN035 BKN140", "TAF ETHS 251315Z 2514/2523 31010KT 9999 NSW SCT040 SCT070 TEMPO 2514/2518 32015G28KT 8000 -SHRA BKN030TCU", "TAF ETIC 251800Z 2518/2624 30006KT 9999 FEW015 SCT030 BKN040 620407 QNH2987INS TEMPO 2518/2520 31010G15KT 6000 -SHRA BECMG 2607/2608 29006KT 9999 BKN035 OVC050 620357 QNH2997INS BECMG 2614/2615 29006KT 9999 SCT030 BKN050 QNH2996INS TX08/2614Z TN01/2605Z", "TAF ETIK 251400Z 2514/2620 30009KT 9999 SCT040 BKN050 610505 QNH2985INS TEMPO 2514/2517 31010G20KT BECMG 2600/2601 30006KT 9999 FEW050 QNH2989INS BECMG 2607/2608 28009KT 9999 SCT050 QNH2995INS TX11/2514Z TN02/2602Z", "TAF ETMN 251622Z 2517/2602 30015G25KT 9999 NSW SCT020 SCT040 TEMPO 2517/2602 31018G28KT 5000 SHRA BKN020TCU PROB30 2517/2521 31020G30KT 4000 SHGS BKN015CB BECMG 2519/2521 30012G22KT 9999 NSW SCT020 SCT040", "TAF ETNG 252000Z 2521/2612 VRB03KT CAVOK BECMG 2608/2510 SCT025 BKN240", "TAF ETNH 251320Z 2514/2523 28015G30KT 9999 NSW BKN040 TEMPO 2514/2517 30020G35KT 5000 SHRA BKN020TCU BECMG 2518/2520 28015G25KT 9999 NSW SCT040 BY ETGL", "TAF ETNL 251604Z 2517/2605 27015G25KT 9999 NSW BKN040 TEMPO 2517/2523 28015G30KT 5000 SHRA BKN020TCU PROB30 2517/2519 28020G30KT 4000 SHRA BKN010CB BY ETGL", "TAF ETNN 251321Z 2514/2523 31008KT 9999 NSW FEW040 BKN070 TEMPO 2514/2517 33010G22KT 5000 SHRA BKN020TCU BKN060 BY ETGL", "TAF ETNS 251320Z 2514/2523 28015G30KT 9999 NSW BKN040 TEMPO 2514/2517 30020G35KT 5000 SHRA BKN020TCU BECMG 2518/2520 28015G25KT 9999 NSW SCT040 BY ETGL", "TAF ETNW 251617Z 2517/2617 28010KT 9999 NSW SCT025 BKN050 PROB30 2601/2605 26005KT 5000 BR SCT010 BY ETGL", "TAF ETOU 252000Z 2520/2702 32004KT 9999 SCT050 QNH3003INS BECMG 2607/2608 VRB06KT 9999 BKN040 OVC140 620404 QNH3007INS BECMG 2618/2619 02004KT 9999 SCT050 QNH3008INS TX11/2614Z TN01/2604Z", "TAF ETSB 251300Z 2514/2523 34010KT 9999 NSW SCT020 BKN025 BKN050 BECMG 2522/2523 34005KT 4000 BR FEW001 SCT020 BY ETGL", "TAF ETSH 251333Z 2514/2523 29012G25KT 9999 NSW SCT045 BKN060", "TAF COR ETSI 251312Z 2514/2523 27008KT 9999 NSW SCT180 TEMPO 2514/2519 30012G22KT 5000 SHRA SCT012 BKN020CB PROB30 2514/2517 32015G25KT 3000 TSRA BKN015CB", "TAF COR ETSL 251934Z 2520/2605 23005KT 9999 NSW SCT010 BKN040 TEMPO 2520/2603 26012KT 4000 SHRA BKN010 BKN020TCU PROB30 2603/2605 VRB03KT 0500 FG FEW040 BY ETGL", "TAF EVGA 252003Z 2521/2621 VRB02KT 9999 SCT045 BECMG 2521/2523 OVC010 TEMPO 2523/2605 0600 DZ FG BKN001 BECMG 2605/2607 OVC015 TEMPO 2607/2612 BKN012CB TEMPO 2612/2621 4000 -RA BKN010", "TAF EVLA 252005Z 2521/2621 22008KT 9999 BKN030 TEMPO 2521/2523 BKN012 TEMPO 2523/2607 BKN005 TEMPO 2607/2615 BKN008 BKN012CB", "TAF EVRA 252001Z 2521/2621 VRB02KT 9999 SCT045 TEMPO 2521/2603 4000 -RA BR BKN004 OVC010 TEMPO 2608/2617 4000 -RA BKN012 TEMPO 2617/2620 BKN010 SCT020CB", "TAF EVVA 251421Z 2515/2524 25009KT 9999 BKN020 TEMPO 2515/2520 VRB28KT 4000 -SHRA BKN004 BKN012CB", "TAF AMD EYKA 251856Z 2519/2618 VRB05KT 9000 BKN005 OVC010 TEMPO 2519/2521 VRB15KT 5000 TSRA BKN015CB TEMPO 2521/2524 5000 SHRA BKN015CB BECMG 2600/2601 33010KT 5000 RA BR TEMPO 2603/2612 1500 SHRA BKN015CB BECMG 2615/2616 27010KT 9000 NSW BKN020", "TAF EYPA 251706Z 2518/2618 VRB05KT 9000 OVC030 TEMPO 2518/2524 5000 RA BR BKN010 TEMPO 2600/2606 5000 BR BKN005 TEMPO 2606/2618 24015G25KT 5000 SHRA BKN005 BKN015CB ", "TAF EYSA 252001Z 2521/2606 28010KT 9000 OVC005 TEMPO 2521/2606 5000 BR", "TAF EYVI 251707Z 2518/2618 VRB05KT 9000 BKN030 TEMPO 2518/2522 VRB15KT 5000 TSRA BR SCT005 BKN015CB BECMG 2522/2523 3000 BR OVC005 TEMPO 2523/2603 0350 FG VV001 BECMG 2603/2604 34015KT 5000 RA TEMPO 2609/2618 1500 SHRA BKN015CB", "TAF FABL 251600Z 2518/2618 VRB03KT CAVOK TX27/2613Z TN08/2603Z BECMG 2609/2611 35010KT BECMG 2616/2618 VRB03KT", "TAF FACT 251600Z 2518/2624 16005KT CAVOK TX20/2612Z TN10/2605Z FM252100 20008KT 9999 FEW045 FM260300 02005KT 9999 FEW045 PROB40 TEMPO 2603/2606 0500 FG BKN002 FM260800 35005KT CAVOK", "TAF FAGG 251600Z 2518/2618 11005KT 9999 SCT010 BKN020 TX23/2612Z TN14/2605Z PROB30 TEMPO 2521/2606 2000 BR BKN010 FM260300 VRB03KT 9999 BKN020 FM260900 20005KT CAVOK FM261500 VRB03KT CAVOK", "TAF FALA 251600Z 2518/2618 VRB03KT CAVOK TX26/2612Z TN14/2604Z BECMG 2608/2610 35010KT FM261100 35009KT 9999 SCT040 PROB30 TEMPO 2615/2618 FEW040TCU BECMG 2616/2618 VRB03KT", "TAF FALE 251600Z 2518/2624 VRB03KT 9999 BKN045 TX28/2612Z TN18/2604Z PROB30 TEMPO 2518/2521 7000 RA BKN015 PROB30 TEMPO 2522/2603 3000 BR NSC BECMG 2609/2611 07010KT BECMG 2620/2622 02005KT", "TAF FAOR 251600Z 2518/2624 VRB03KT CAVOK TX24/2612Z TN16/2604Z BECMG 2607/2609 33010KT FM261100 33010KT 9999 SCT040 PROB30 TEMPO 2614/2619 FEW035TCU FM262100 34010KT CAVOK", "TAF FAPE 251600Z 2518/2618 13008KT 9999 FEW015 BKN048 TX27/2612Z TN16/2601Z BECMG 2601/2603 07005KT 9999 BKN010 BECMG 2606/2608 CAVOK", "TAF FAUP 251600Z 2518/2618 VRB03KT CAVOK TX32/2614Z TN12/2604Z BECMG 2609/2611 35010KT BECMG 2616/2618 VRB03KT", "FBKE 251200Z 2515/2524 19004KT CAVOK", "FBMN 251000Z 2512/2612 11005KT CAVOK", "FBPM 251000Z 2512/2612 14006KT CAVOK", "FBSK 251600Z 2518/2624 22005KT CAVOK BECMG 2609/2611 04004KT", "TAF FCBB 251700Z 2518/2624 09005KT 8000 TS SCT016 FEW030CB BECMG 2521/2523 24006KT NSW PROB30 TEMPO 2601/2604 -TSRA BECMG 2604/2606 SCT015 BECMG 2614/2616 SCT018 FEW030CB", "TAF FCPP 251700Z 2518/2618 22006KT 8000 TS FEW015 FEW030CB BECMG 2603/2605 NSW BECMG 2608/2610 SCT015 BECMG 2613/2615 SCT018 FEW030CB", "TAF FEFF 251100Z 2512/2618 22005KT 9999 SCT023 FEW040CB TEMPO 2515/2519 4000 TSRA BECMG 2608/2610 BKN010 BECMG 2611/2613 BKN023 FEW040CB PROB30 TEMPO 2614/2618 TS", "TAF FGBT 251700Z 2518/2618 VRB02KT 9999 SCT010 PROB30 TEMPO 2616/2618 TS BKN008 FEW018CB", "TAF FGSL 251700Z 2518/2624 VRB02KT 9999 SCT010 PROB30 TEMPO 2602/2606 TS BKN010 FEW020CB PROB30 TEMPO 2613/2617 4000 TSRA BKN008 FEW018CB", "TAF FHAW 251930Z 2521/2615 14015KT 9999 FEW020 PROB30 TEMPO 2521/2610 SCT018", "TAF COR FIMP 251730Z 2518/2700 33003KT 6000 -SHRA FEW010 BKN015 PROB30 TEMPO 2520/2604 3000 SHRA/TSRA FEW006 FEW012CB BKN013 BECMG 2605/2607 03007KT 9999 SCT017 PROB30 TEMPO 2610/2618 1000 SHRA/TSRA FEW005 FEW012CB BKN013", "TAF FIMR 251730Z 2518/2612 07013G25KT 9999 SCT017 PROB30 TEMPO 2518/2604 7000 -SHRA FEW010 BKN016", "TAF AMD FJDG 251725Z 2517/2623 14012KT 9000 -SHRA SCT020 SCT050 BKN100 QNH2971INS TEMPO 2517/2523 15015G23KT TX31/2610Z TN26/2523Z FOR MIL USE ONLY", "TAF FKKD 251700Z 2518/2624 VRB03KT 9999 BKN013 FEW016CB TEMPO 2605/2608 2500 BR BECMG 2608/2610 BKN016 FEW020CB TEMPO 2616/2620 TS BECMG 2620/2622 BKN013 FEW016CB", "TAF FKYS 251700Z 2518/2618 VRB04KT 9999 SCT013 BECMG 2520/2522 BKN006 TEMPO 2604/2608 2500 BR BECMG 2608/2610 BKN016 TEMPO 2615/2618 4000 TSRA BKN013 FEW023CB", "TAF FMCH 251700Z 2518/2624 1106KT 9999 FEW020 SCT030 BECMG 2605/2607 17015KT BECMG 2615/2617 10007KT", "TAF FMCZ 251700Z 2518/2618 20014KT 9999 FEW023", "TAF FMEE 251700Z 2518/2624 12009KT 9999 BKN050 TEMPO 2518/2521 4500 SHRA FEW010TCU BECMG 2523/2601 22004KT BECMG 2601/2603 9999 NSC TEMPO 2609/2615 4500 SHRA SCT008TCU", "TAF FMMI 251700Z 2518/2624 VRB05KT 9999 FEW017 SCT020", "TAF FMMS 251700Z 2518/2618 18010KT 9999 FEW007 SCT017CB BKN033 PROB40 TEMPO 2518/2610 4000 SHRA PROB40 TEMPO 2615/2618 4000 SHRA", "TAF FMMT 251700Z 2518/2618 18010KT 9999 FEW007 SCT017TCU BKN033 PROB40 TEMPO 2518/2618 4000 SHRA", "TAF FMNA 251700Z 2518/2618 VRB05KT 9999 FEW020CB BECMG 2518/2521 SCT020 SCT040 PROB30 TEMPO 2602/2607 4500 SHRA BECMG 2609/2612 FEW020CB", "TAF FMNM 251700Z 2518/2618 26006KT 9999 FEW020TCU BECMG 2603/2606 12010KT BECMG 2609/2612 30006KT", "TAF FMNN 251700Z 2518/2618 VRB04KT 9999 FEW007 SCT020CB BKN040 PROB40 TEMPO 2518/2605 4000 TSRA BECMG 2605/2608 SCT020 BECMG 2610/2613 FEW020CB PROB40 TEMPO 2616/2618 4000 TSRA", "TAF FMSD 251700Z 2518/2618 24012KT 9999 FEW017", "TAF FMST 251700Z 2518/2618 24010G20KT 9999 FEW020 BECMG 2521/2523 34005KT BECMG 2606/2609 24010G20KT", "TAF FNBG 251100Z 2512/2524 33007KT 9999 SCT016 TEMPO 2518/2524 6000 TSRA BKN020", "TAF FNCA 251100Z 2512/2524 28005KT 9000 SCT014 TEMPO 2513/2518 6000 -TS DZ BKN020 FEW030CB", "TAF FNCT 251100Z 2512/2524 32007KT 9999 BKN020 TEMPO 2518/2524 6000 TSRA", "TAF FNDU 251100Z 2500/2524 VRB02KT 9000 BKN020 BECMG 2513/2516 6000 TSRA FEW025CB", "TAF FNGI 251100Z 2512/2524 03004KT 9999 FEW026 TEMPO 2519/2524 VRB02KT", "TAF FNHU 251100Z 2512/2524 07009KT 9999 FEW020 TEMPO 2519/2524 VRB02KT", "TAF FNKU 251100Z 2512/2524 08009KT 9999 FEW018 TEMPO 2519/2524 VRB02KT", "TAF FNLU 251700Z 2518/2624 16006KT 9000 SCT020 FEW024CB TEMPO 2601/2606 BKN014", "TAF FNMA 251100Z 2512/2524 06006KT 9000 SCT020 TEMPO 2513/2517 DZ", "TAF FNME 251100Z 2512/2524 08006KT 9999 FEW025", "TAF FNMO 251100Z 2512/2524 27006KT 9999 FEW022", "TAF FNSA 251100Z 2512/2524 08005KT 9999 FEW022", "TAF FNSO 251100Z 2512/2524 29005KT 9000 SCT016 FEW030CB TEMPO 2518/2524 5000 TSRA BKN010", "TAF FNUB 251100Z 2512/2524 VRB02KT 9999 FEW020", "TAF FNUE 251100Z 2512/2524 08006KT 9999 SCT015", "TAF FOOG 251700Z 2518/2618 20006KT 9999 SCT012 TEMPO 2520/2523 4000 TSRA BKN010 FEW020CB", "TAF COR FOOL 251700Z 2518/2624 12006KT 8000 SCT010 PROB30 TEMPO 2522/2603 40000 TSRA BKN008 FEW020CB", "TAF FQBR 251600Z 2518/2624 10007KT 9999 FEW020 TX30/2613Z TN23/2603Z PROB30 TEMPO 2600/2606 0800 FG SCT018 BECMG 2600/2602 VRB02KT BECMG 2609/2611 16010KT BKN020", "TAF FQCH 251600Z 2518/2618 VRB02KT 9999 FEW016 TX27/2613Z TN16/2603Z PROB30 TEMPO 2600/2606 0500 FG FEW015 BECMG 2609/2611 16010KT", "TAF FQIN 251600Z 2518/2618 11007KT 9999 FEW020 TX30/2613Z TN23/2603Z BECMG 2600/2602 VRB02KT BECMG 2610/2612 07010KT", "TAF FQLC 251600Z 2518/2618 10006KT 9999 FEW016 TX25/2613Z TN12/2603Z BECMG 2602/2604 SCT016 BECMG 2610/2612 17008KT", "TAF FQMA 251600Z 2518/2624 13007KT 9999 FEW020 TX30/2613Z TN20/2603Z PROB30 TEMPO 2600/2606 2000 BR SCT025 BECMG 2600/2602 VRB02KT BECMG 2610/2612 06010KT", "TAF FQNC 251600Z 2518/2624 24010KT 9999 BKN020 TX28/2613Z TN21/2603Z BECMG 2521/2523 FEW020 BECMG 2610/2612 17012KT BECMG 2616/2618 25007KT", "TAF FQNP 251600Z 2518/2618 18007KT 9999 BKN020 TX28/2613Z TN20/2603Z BECMG 2521/2523 24007KT BECMG 2610/2612 17012KT", "TAF FQPB 251600Z 2518/2618 17012KT 9999 FEW020 TX30/2613Z TN22/2603Z BECMG 2600/2602 25007KT SCT020 BECMG 2610/2612 18012KT", "TAF FQQL 251600Z 2518/2618 16007KT 9999 SCT020 TX29/2613Z TN21/2603Z BECMG 2600/2602 VRB02KT PROB30 TEMPO 2600/2606 3000 BR SCT020 BECMG 2609/2611 17010KT BKN020", "TAF FQTT 251600Z 2518/2618 10005KT 9999 BKN020 TX34/2613Z TN23/2603Z BECMG 2600/2602 VRB02KT BECMG 2606/2608 15010KT FEW020 BECMG 2610/2612 BKN020", "TAF FQVL 251600Z 2518/2618 09007KT 9999 FEW020 TX30/2613Z TN22/2603Z BECMG 2521/2523 16007KT BECMG 2609/2611 10010KT SCT020", "TAF FQXA 251600Z 2518/2618 09006KT 9999 FEW020 TX31/2613Z TN20/2603Z BECMG 2600/2602 VRB02KT PROB30 TEMPO 2600/2606 0900 FG FEW018 BECMG 2610/2612 12008KT", "TAF FSIA 251709Z 2518/2618 15005KT 9999 FEW022", "TAF FTTJ 251700Z 2518/2624 34008KT 8000 NSC TEMPO 2605/2608 4000 DU TEMPO 2616/2619 4000 DU", "TAF FVJN 251600Z 2518/2624 09006KT CAVOK", "TAF FVRG 251600Z 2518/2624 09006KT CAVOK", "TAF FWCL 250900Z 2512/2618 14006KT 9999 FEW025 BECMG 2514/2518 16006KT CAVOK BECMG 2606/2608 20006KT 9999 FEW020", "TAF FWKI 250930Z 2512/2618 16008KT CAVOK BECMG 2523/2601 15006KT 9999 FEW006", "TAF FYGF 251700Z 2518/2603 36005KT 9999 FEW035CB BECMG 2520/2522 00000KT NSC", "TAF FYKM 251700Z 2518/2603 14005KT CAVOK", "TAF FYKT 251600Z 2518/2618 04005KT CAVOK", "TAF FYLZ 251700Z 2518/2603 18012KT CAVOK BECMG 2520/2522 15006KT 9999 BKN012", "TAF FYRU 251700Z 2518/2603 09006KT CAVOK", "TAF FYWB 251600Z 2518/2618 25010KT CAVOK BECMG 2520/2522 06005KT 9999 BKN012 TEMPO 2600/2604 00000KT 1000 BR OVC008 BECMG 2607/2609 36005KT 9999 BKN015", "TAF FYWE 251700Z 2518/2603 31007KT CAVOK BECMG 2520/2522 18005KT NSC", "TAF FYWH 251600Z 2518/2618 36006KT CAVOK BECMG 2520/2522 25005KT", "TAF COR FZAA 250500Z 2506/2612 18004KT 7000 BKN016 BECMG 2510/2512 30012KT SCT020 FEW030CB TEMPO 2514/2519 4000 TSRA BECMG 2520/2522 20004KT FEW018", "TAF FZIC 250500Z 2506/2612 12006KT 7000 SCT014 BECMG 2509/2512 BKN032 FEW034CB TEMPO 2515/2518 09006G22KT 3000 TSRA BECMG 2517/2519 NSC FM260200 VRB04KT 3000 BKN002 FM260700 09006KT 8000 SCT016", "TAF FZQA 251700Z 2518/2624 17006KT CAVOK BECMG 2608/2610 09012KT SCT022 BECMG 2614/2616 18005KT CAVOK", "TAF GABS 251700Z 2518/2624 VRB06KT 9999 FEW030", "TAF GAGO 251700Z 2518/2618 36008G18KT 8000 NSC", "TAF GBYD 251700Z 2518/2624 32010KT CAVOK", "TAF GCFV 252000Z 2521/2621 31010KT 9999 SCT020 TX27/2614Z TN20/2606Z PROB40 TEMPO 2521/2523 VRB04KT BECMG 2606/2608 08005KT PROB30 TEMPO 2605/2609 BKN012 BECMG 2617/2619 32012KT", "TAF GCGM 252000Z 2521/2621 VRB03KT 9999 FEW025 TX25/2614Z TN16/2606Z BECMG 2607/2609 18010KT TEMPO 2615/2618 24008KT", "TAF GCHI 252000Z 2521/2621 35013KT 9999 SCT020 TX24/2614Z TN19/2606Z", "TAF GCLA 252000Z 2521/2621 32006KT 9999 SCT025 TX24/2614Z TN18/2606Z BECMG 2608/2610 02010KT", "TAF GCLP 252000Z 2521/2621 01013KT 9999 SCT025 TX26/2614Z TN18/2606Z PROB40 TEMPO 2611/2614 07008KT", "TAF GCRR 252000Z 2521/2621 32011KT 9999 SCT020 TX29/2614Z TN18/2606Z TEMPO 2521/2523 VRB03KT BECMG 2606/2608 19004KT PROB30 TEMPO 2604/2609 BKN012 TEMPO 2613/2618 10010KT", "TAF GCTS 252000Z 2521/2621 10005KT 9999 FEW025 TX26/2614Z TN16/2606Z BECMG 2609/2611 16010KT", "TAF GCXO 252000Z 2521/2621 29010KT 9999 SCT008 TX24/2614Z TN13/2606Z TEMPO 2521/2610 BKN008 PROB40 TEMPO 2521/2608 2000 BCFG BKN003 TEMPO 2610/2616 15007KT", "TAF GECE 251400Z 2515/2615 17010KT CAVOK TX26/2613Z TN18/2606Z BECMG 2518/2520 VRB03KT PROB40 TEMPO 2613/2615 14010KT", "TAF GEML 251700Z 2518/2618 09005KT CAVOK TX28/2614Z TN16/2606Z", "TAF GFLL 251654Z 2518/2624 27012KT 9999 FEW014 BECMG 2521/2523 24010KT SCT012 TEMPO 2602/2606 06013KT 8000 -TSRA BKN010 FEW025CB TEMPO 2608/2612 26010KT 9999 SCT012 PROB30 TEMPO 2614/2620 21012KT SCT014 FEW027CB", "TAF GGOV 251700Z 2518/2618 VRB05KT 7000 NSC", "TAF GLRB 251700Z 2518/2618 24010KT 9999 BKN016 FEW025CB BECMG 2520/2522 00000KT SCT014 FEW024CB TEMPO 2601/2605 02004KT FEW012 BECMG 2606/2608 5000 TSRA BKN010 FEW020CB", "TAF GMAD 251700Z 2518/2624 25013KT CAVOK BECMG 2519/2521 10004KT", "TAF GMAG 251700Z 2518/2700 26014KT 8000 NSC", "TAF GMFF 251700Z 2518/2624 32010KT CAVOK BECMG 2521/2523 18004KT", "TAF GMFK 251700Z 2518/2624 21005KT 9999 FEW036 PROB30 TEMPO 2518/2520 26020G30KT SCT036 FEW040CB", "TAF GMFM 251700Z 2518/2624 34004KT CAVOK TEMPO 2612/2618 32010KT", "TAF GMFO 251700Z 2518/2624 36014KT CAVOK TEMPO 2520/2609 20004KT", "TAF GMME 251700Z 2518/2624 01010KT 6000 NSC TEMPO 2518/2524 22006KT", "TAF GMMH 251700Z 2518/2700 36017KT 8000 NSC BECMG 2522/2600 BKN010", "TAF GMMI 251700Z 2518/2700 28005KT 8000 NSC BECMG 2518/2520 BKN010 PROB30 2603/2608 4000 BR", "TAF GMML 251700Z 2518/2700 32010KT 8000 NSC BECMG 2521/2523 BKN010 PROB30 2600/2608 4000 BR BECMG 2608/2610 NSC", "TAF GMMN 251700Z 2518/2624 02012KT CAVOK BECMG 2519/2521 04004KT BECMG 2611/2613 02012KT", "TAF GMMW 251700Z 2518/2700 04008KT CAVOK PROB30 2600/2606 4000 BR", "TAF GMMX 251700Z 2518/2624 26006KT 8000 SCT033 TEMPO 2518/2523 34016KT FEW040CB", "TAF GMMZ 251700Z 2518/2624 23015G26KT 9999 SCT040 FEW050TCU BECMG 2523/2601 27007KT FEW040 TEMPO 2613/2624 26020G31KT SCT040 FEW050TCU", "TAF GMTA 251700Z 2518/2700 36006KT CAVOK", "TAF GMTT 251700Z 2518/2624 35009KT CAVOK", "TAF GOBD 251700Z 2518/2624 34012KT CAVOK", "TAF GOGS 251700Z 2518/2618 32008KT CAVOK", "TAF GOOY 251700Z 2518/2624 34010KT CAVOK", "TAF GOSS 251700Z 2518/2618 34008KT CAVOK", "TAF GQNO 251700Z 2518/2624 34006G16KT 7000 NSC PROB30 TEMPO 2603/2609 BKN010", "TAF GQPP 251700Z 2518/2618 36015G25KT 3500 DRSA NSC FM251830 35010G20KT 7000 NSW NSC PROB40 TEMPO 2603/2609 BKN005", "TAF GUCY 251700Z 2518/2624 25008KT 9999 FEW015 SCT110 TEMPO 2522/2604 17012KT 8000 -TSRA SCT015 FEW023CB BKN110", "TAF GVAC 251700Z 2518/2624 02012KT 9999 SCT013 TEMPO 2522/2608 BKN013", "TAF GVBA 251100Z 2512/2618 02015KT 9999 SCT014", "TAF GVNP 251700Z 2518/2624 02017KT 9999 FEW016 TEMPO 2600/2609 01007KT", "TAF GVSV 251700Z 2518/2624 05016KT 9999 FEW023 PROB40 TEMPO 2600/2608 04006KT", "TAF HAAB 251530Z 2518/2624 06006KT 9999 BKN025 BKN090 BECMG 2519/2523 34005KT 8000 RA/BR BKN025 BKN080", "TAF HADR 251530Z 2518/2624 16008KT 9999 BKN030 BKN080 BECMG 2518/2523 16008KT -RA BKN070", "TAF HBBA 251700Z 2518/2624 36003KT 9999 BKN090 BECMG 2602/2604 00000KT FEW026 SCT100 BECMG 2608/2610 18010G20KT FEW020 SCT090 TEMPO 2612/2620 09006KT 7000 TSRA OR SHRA FEW020 FEW030CB", "TAF HCMM 251100Z 2512/2618 20008KT 9999 FEW025 BECMG 2512/2516 14008KT BECMG 2604/2606 26005KT BKN020", "TAF HEAL 251700Z 2518/2624 05010KT CAVOK", "TAF HEAR 251700Z 2518/2624 27008KT 9999 SCT025", "TAF HEAT 251700Z 2518/2624 01015KT CAVOK", "TAF HEAX 251700Z 2518/2624 03010KT CAVOK", "TAF HEBA 251700Z 2518/2624 03010KT CAVOK", "TAF HEBL 251700Z 2518/2624 02012KT CAVOK", "TAF HECA 251700Z 2518/2624 05011KT CAVOK TEMPO 2600/2607 VRB03KT 4000 HZ NSC", "TAF HEGN 251700Z 2518/2624 32015KT CAVOK", "TAF HELX 251700Z 2518/2624 33008KT CAVOK", "TAF HEMA 251700Z 2518/2624 35015KT CAVOK", "TAF HEMM 251700Z 2518/2624 05010KT CAVOK", "TAF HEOW 251700Z 2518/2624 04005G15KT 6000 NSC", "TAF HEPS 251700Z 2518/2624 07009KT CAVOK", "TAF HESC 251700Z 2518/2624 30008KT CAVOK", "TAF HESG 251700Z 2518/2624 34012KT CAVOK", "TAF HESH 251700Z 2518/2624 34012KT CAVOK", "TAF HESN 251700Z 2518/2624 36012KT CAVOK", "TAF HETB 251700Z 2518/2624 36012KT CAVOK", "TAF HETR 251700Z 2518/2624 31015G25KT 6000 NSC", "TAF HKEL 251700Z 2512/2624 13010KT 9999 FEW021CB SCT022 BKN080 BECMG 2520/2523 12005KT -RA SCT018 BECMG 2608/2611 13010KT NSW FEW024CB SCT 025 TEMPO 2614/2618 -TSRA FEW022CB SCT023 BKN080 BECMG 2620/2623 SCT0 18", "TAF HKJK 251700Z 2518/2624 08010KT 9999 BKN020 BECMG 2520/2523 VRB02K T TEMPO 2602/2605 -RA FEW008 BKN016 BKN080 BECMG 2608/2612 08010KT NS W FEW024CB SCT025 TEMPO 2618/2622 -SHRA BKN020", "TAF HKKI 251700Z 2518/2624 24010KT 9999 FEW022CB SCT023 BECMG 2520/25 23 VRB05KT -RA FEW020 SCT080 BECMG 2608/2611 24010KT NSW FEW024CB SCT 025 TEMPO 2614/2618 -TSRA FEW023CB SCT024 BKN080 BECMG 2620/2623 FEW0 18CB SCT019 ", "TAF HKML 251700Z 2518/2618 18010KT 9999 FEW021 TEMPO 2602/2606 21005KT 00000KT -SHRA FEW018CB SCT020 BKN080 BECMG 2609/2612 18010KT NSW FEW020CB", "TAF HKMO 251700Z 2518/2624 15010KT 9999 FEW023CB TEMPO 2602/2606 21005KT SHRA FEW019CB SCT020 BKN080 BECMG 2609/2612 15010KT NSW FEW025CB SCT026", "TAF HKNW 251700Z 2518/2618 08010KT 9999 FEW021CB SCT020 BKN080 BECMG 2520/2523 VRB02KT BKN018 BECMG 2606/2610 08010KT FEW023 SCT024 TEMPO 2613/2617 -TSRA FEW023CB SCT024 BKN080", "TAF HLGD 250500Z 2506/2606 VRB02KT 8000 SCT025 BECMG 2512/2514 06010KT ", "TAF HLGT 250500Z 2506/2606 VRB02KT 8000 NSC", "TAF HLKF 250500Z 2506/2606 06012KT 8000 NSC ", "TAF HLLB 250500Z 2506/2606 36014KT 8000 FEW030 ", "TAF HLLM 250500Z 2506/2606 VRB02KT 8000 NSC ", "TAF HLLQ 250500Z 2506/2606 VRB02KT 8000 SCT025 ", "TAF HLLS 250500Z 2506/2606 06012KT 8000 NSC ", "TAF HLMS 250500Z 2506/2606 22010KT 9999 FEW030 BECMG 2512/2514 VRB02KT 8000 NSC ", "TAF HLON 250500Z 2506/2606 VRB02KT CAVOK ", "TAF HLTD 250500Z 2506/2606 VRB02KT CAVOK ", "TAF HLTQ 250500Z 2506/2606 03010KT 8000 SCT025 BECMG 2518/2520 VRB02KT ", "TAF HLUB 250500Z 2506/2606 06010KT CAVOK BECMG 2512/2514 VRB02KT ", "HRYR 251700Z 2518/2624 32004KT 9999 SCT025 BKN100 BECMG 2520/2523 24005KT -RA BKN024 SCT100 BECMG 2601/2604 00000KT 3000 BR FEW008 SCT023 FM 260800 19006KT 9999 BKN024 TEMPO 2611/2615 13010G20KT -TSRA FEW023CB BKN025 BECMG 2619/2622 27004KT NSW SCT025 SCT100", "HRZA 251100Z 2512/2618 15008KT 9999 SCT025 TEMPO 2513/2517 22010KT -TSRA FEW023CB BKN025 BECMG 2520/2522 12006KT SCT025 BECMG 2601/2603 04005KT 9000 -RA BKN025 BECMG 2606/2608 13004KT 9999 SCT025 TEMPO 2611/2615 25010KT -TSRA FEW023CB BKN025", "TAF HTAR 251700Z 2518/2618 09005KT 9999 BKN025 TEMPO 2519/2523 TSRA BKN022 FEW023CB", "TAF HTBU 251100Z 2512/2612 00000KT 9999 SCT020 FEW022CB BKN080 TEMPO 2521/2605 14010KT 5000 TSRA BKN015 FEW017CB", "TAF HTDA 251700Z 2518/2624 17005KT 9999 SCT013 FEW015CB BECMG 2605/2608 BKN020 FEW022CB", "TAF HTDO 251700Z 2518/2618 08005KT 9999 FEW028 FEW030CB", "TAF HTKA 251700Z 2518/2618 00000KT 9999 FEW021 FEW022CB BECMG 2523/2605 09008KT -TSRA SCT018 FEW019CB BKN080", "TAF HTKJ 251700Z 2518/2618 09010KT 9999 FEW020CB BKN022 TEMPO 2520/2601 TS/RA BECMG 2602/2606 00000KT BKN020", "TAF HTMW 251700Z 2518/2618 13010KT 9999 TSRA BKN019 FEW020CB BECMG 2608/2610 34010KT NSW SCT023 FEW024CB", "TAF HTTB 251700Z 2518/2618 12010KT 9999 TS FEW020 FEW021CB TEMPO 2603/2610 TSRA BKN022 FEW023CB", "TAF HTZA 251700Z 2518/2618 15010KT 9999 FEW016 FEW018CB BECMG 2600/2602 21010KT BKN014 FEW016CB TEMPO 2602/2610 5000 TSRA BECMG 2611/2613 15015KT", "TAF HUEN 251700Z 2518/2624 18010KT 9999 FEW021 FEW023CB BECMG 2601/2605 VRB08G20KT 8000 TSRA SCT018 FEW020CB FM260600 17005KT 9000 -RA BKN018 FEW020CB", "TAF HUSO 250500Z 2506/2606 18005KT 9999 SCT018 FEW020CB BKN090 FM250900 VRB07KT 8000 TSRA BKN020 FEW022CB OVC090 BECMG 2602/2606 16004KT FEW018 BKN090", "KABE 251726Z 2518/2618 28008KT P6SM BKN050 FM252300 VRB03KT P6SM FEW070 FM260700 VRB03KT P6SM BKN100 FM261400 13005KT P6SM BKN060 FM261700 20005KT P6SM VCSH BKN050", "KABI 251720Z 2518/2618 16014G21KT P6SM BKN025 FM251900 16014G21KT P6SM BKN035 FM252000 16014G21KT P6SM BKN040 FM260300 15014G21KT P6SM BKN020 FM261500 17012KT P6SM BKN030", "KABQ 251742Z 2518/2618 21015G23KT P6SM SCT080 BKN200 FM252000 26022G32KT P6SM VCSH BKN090 TEMPO 2522/2601 VRB28G40KT 6SM -TSRA BLDU BKN080CB FM260100 34024G34KT P6SM SCT100 FM260300 31010KT P6SM FEW100 FM260900 34008KT P6SM SKC", "KABR 251724Z 2518/2618 10013G21KT P6SM SCT250 FM260200 VRB05KT P6SM OVC100 FM261400 18015G21KT P6SM OVC100", "KABY 251732Z 2518/2618 08005KT P6SM BKN060 BKN250 FM260900 06005KT P6SM BKN025 FM261500 09006KT P6SM BKN040", "KACK 251735Z 2518/2618 02006KT P6SM FEW015 FM260000 01004KT P6SM BKN015 FM260500 36005KT P6SM BKN008 FM260700 01006KT 3SM BR BKN003 FM261400 04009KT P6SM BKN008", "KACT 252110Z 2521/2618 13009KT P6SM BKN025 FM260200 14010KT 5SM BR VCTS BKN012 BKN040CB FM260500 15012KT P6SM BKN015 FM260800 15010KT P6SM BKN007", "KACV 251740Z 2518/2618 30007KT P6SM BKN004 TEMPO 2518/2519 SCT004 FM251900 31009KT P6SM FEW005 FM260300 16004KT P6SM SCT003 FM260700 14003KT 6SM BR BKN003 TEMPO 2613/2617 2SM BR OVC002", "KACY 251726Z 2518/2618 30009KT P6SM BKN070 FM252300 VRB03KT P6SM SKC FM260800 00000KT P6SM BKN120 FM261400 15005KT P6SM BKN080 FM261700 18010KT P6SM BKN060", "KADF 251933Z 2520/2618 VRB06KT P6SM SCT010 OVC050 FM252100 05006KT 6SM -SHRA BR OVC040 FM260800 04008KT 6SM BR VCSH OVC025 FM261200 06010KT 5SM -SHRA BR OVC025", "TAF KADW 251700Z 2517/2623 30004KT 9999 SCT060 SCT250 QNH3017INS BECMG 2521/2522 32006KT 9999 FEW250 QNH3018INS BECMG 2601/2602 VRB03KT 9999 SCT060 QNH3019INS BECMG 2614/2615 19012KT 9999 SCT030 BKN070 QNH3018INS BECMG 2619/2620 18012KT 8000 -SHRA BKN030 QNH3010INS TX16/2518Z TN05/2609Z", "KAEG 251742Z 2518/2618 23016G24KT P6SM SCT080 BKN200 FM252000 26025G35KT P6SM VCSH BKN090 TEMPO 2522/2601 VRB30G42KT 6SM -TSRA BLDU BKN080CB FM260100 30027G39KT P6SM SCT100 FM260300 30011KT P6SM SKC", "KAEX 251726Z 2518/2618 08008KT P6SM VCSH BKN080 FM260000 06005KT P6SM SCT100 BKN200 FM261500 09007KT P6SM SCT050 OVC100", "TAF COR KAFF 251931Z 2519/2701 18012KT 9999 -SHRA SCT020 BKN040 OVC090 610409 QNH2977INS BECMG 2519/2520 12012KT 8000 -SHRA VCTS SCT020 BKN040CB OVC090 QNH2978INS TEMPO 2520/2522 VRB15G25KT 4800 -TSRA SCT010 OVC020CB BECMG 2521/2522 03015G20KT 4800 -SHRASN VCTS SCT005 OVC015CB QNH2982INS BECMG 2523/2524 03012KT 1600 -SHRASN BR VCTS SCT005 OVC010CB QNH2984INS BECMG 2601/2602 36015G25KT 0800 SN OVC002 680029 520009 QNH2995INS BECMG 2614/2615 36012G18KT 4800 -SN BR OVC010 650109 510009 QNH3012INS BECMG 2618/2619 36010KT 9999 VCSH SCT015 BKN030 600303 QNH3011INS TX12/2519Z TNM01/2611Z LAST NO AMDS AFT 2519 NEXT 2711", "KAFW 252110Z 2521/2618 14010KT P6SM SCT025 BKN040 FM260200 13011KT P6SM VCTS BKN035CB FM260500 12012KT P6SM BKN035 FM261100 13013KT P6SM BKN009", "KAGC 251720Z 2518/2618 24005KT P6SM FEW150 FM261100 25003KT P6SM BKN030 FM261300 28005KT P6SM BKN025 FM261700 30007KT P6SM BKN035", "KAGS 252025Z 2520/2618 10006KT P6SM SCT050 BKN100 FM252200 07007KT P6SM VCSH BKN050 OVC100 FM260200 04007KT P6SM BKN050 FM261100 06006KT P6SM BKN025 TEMPO 2612/2616 BKN015", "KAHN 251720Z 2518/2618 08007KT P6SM SCT070 BKN110 FM252300 07007KT P6SM BKN070 FM260600 07008KT P6SM SCT030 FM260800 06007KT P6SM BKN012 FM261700 06008KT P6SM BKN025 PROB30 2617/2618 4SM -SHRA BR OVC015", "KAIA 252010Z 2520/2618 13015G25KT P6SM BKN050 FM260100 12011KT 5SM BR OVC015 FM261200 18004KT 4SM BR OVC015 FM261400 19006KT P6SM OVC015", "KALB 251720Z 2518/2618 27006KT P6SM BKN080 TEMPO 2518/2522 6SM -SHRA BKN040 FM260300 VRB03KT P6SM FEW070 FM260800 00000KT 6SM BR BCFG FEW002 FM261300 16006KT P6SM SCT120 PROB30 2616/2618 5SM SHRA BR BKN030", "KALI 251728Z 2518/2618 13010KT P6SM -RA FEW015 BKN040 FM252000 13012G18KT P6SM VCTS FEW015 BKN045CB TEMPO 2520/2523 -TSRA FEW015CB FM260200 12009KT P6SM BKN015 FM260900 12005KT 3SM BR BKN010 TEMPO 2610/2612 1SM BR OVC006 FM261400 15010KT P6SM BKN025", "KALO 251736Z 2518/2618 05009KT P6SM SKC FM260300 10003KT P6SM SKC FM261500 14006KT P6SM SCT200", "KALS 252104Z 2521/2618 20024G36KT P6SM VCSH SCT060 BKN120 FM260200 30012KT P6SM VCSH SCT030 BKN060 FM260400 04015G25KT 5SM -SHRASN BKN025 OVC050 FM260600 34009KT 1SM -SN BR BKN018 OVC025", "KALW 251731Z 2518/2618 22007KT P6SM FEW250 FM260200 12007KT P6SM FEW250 FM261100 VRB05KT P6SM SCT250", "KAMA 252014Z 2520/2618 17016G26KT P6SM BKN050 BKN070 TEMPO 2521/2523 6SM TSRA BKN040CB FM252300 17016KT P6SM BKN250 FM260200 13014KT 6SM BR VCSH BKN019 FM261000 10011KT P6SM OVC005 FM261600 06011KT 6SM BR VCSH OVC013", "KANB 251720Z 2518/2618 02005KT P6SM SCT250 FM260000 00000KT P6SM SCT250 FM261400 10005KT P6SM OVC015 FM261600 09005KT P6SM OVC022 PROB30 2616/2618 4SM -SHRA BR OVC015", "KAND 251729Z 2518/2618 06006KT P6SM VCSH SCT050 OVC090 FM252100 08006KT P6SM BKN070 FM261000 04005KT P6SM BKN040 FM261400 06006KT P6SM VCSH BKN020", "KAOO 251720Z 2518/2618 26004KT P6SM OVC060 FM261000 VRB03KT P6SM OVC040 FM261500 24005KT P6SM OVC050", "KAPA 252109Z 2521/2618 34010KT P6SM VCTS BKN050CB OVC080 TEMPO 2521/2523 VRB15G25KT 4SM -TSRA FM252300 04012G20KT P6SM VCTS SCT030CB OVC060 TEMPO 2523/2601 4SM -SHRA BR OVC025 FM260100 05012G20KT 4SM -RA BR OVC012 TEMPO 2601/2603 2SM RA BR OVC007 FM260300 04014KT 2SM -RA BR OVC004 FM260500 03010KT 3/4SM -RASN BR OVC003 FM260900 03010KT 1 1/2SM -RASN BR OVC003 FM261500 05007KT 3SM -SHRA BR OVC005", "KAPC 251724Z 2518/2618 VRB04KT P6SM SKC FM251900 26010KT P6SM FEW250 FM260500 VRB03KT P6SM SKC AMD NOT SKED", "KAPF 252054Z 2521/2618 22010KT P6SM VCTS SCT035CB BKN060 FM260100 VRB04KT P6SM VCSH SCT030 BKN050 FM260600 VRB04KT P6SM SCT030 BKN050 FM261600 22008KT P6SM VCSH SCT030 BKN050", "KAPN 252057Z 2521/2618 33005KT 6SM -SHRA OVC017 TEMPO 2521/2523 3SM -RA BR FM260000 34005KT P6SM BKN025 FM260200 33005KT P6SM BKN035", "KARA 251726Z 2518/2618 05007KT P6SM SCT050 BKN100 FM260100 08007KT P6SM SCT100 BKN200 FM261400 13008KT P6SM SCT050 OVC100", "KART 252122Z 2521/2618 24008KT P6SM BKN080 FM260000 VRB03KT P6SM BKN080 FM260600 VRB03KT P6SM VCSH BKN050 FM260800 VRB03KT 4SM -SHRASN OVC025 FM261100 VRB03KT 6SM -SHRA OVC020", "KASD 251733Z 2518/2618 11004KT P6SM SKC FM261500 11007KT P6SM FEW020 FEW100", "KASE 252011Z 2520/2618 34007KT 4SM -SHSNRA BR VCTS BKN015CB TEMPO 2520/2522 1/2SM SN FG OVC015 FM260000 34007KT 4SM -SHSN BR VCTS OVC010CB FM260300 32006KT 1 1/2SM -SHSN BR OVC003 FM261200 VRB04KT P6SM SCT015", "KASN 251720Z 2518/2618 02005KT P6SM SCT250 FM260000 00000KT P6SM SCT250 FM261400 10005KT P6SM OVC015 FM261600 09005KT P6SM OVC022 PROB30 2616/2618 4SM -SHRA BR OVC015", "KAST 251732Z 2518/2618 35006KT P6SM OVC025 FM252000 34009KT P6SM SCT025 BKN250 FM252300 34012KT P6SM SCT250 FM260600 VRB03KT P6SM BKN250", "KATL 251947Z 2520/2624 VRB03KT P6SM SCT100 BKN200 FM252200 07005KT P6SM SCT100 BKN200 FM260300 08009KT P6SM SCT070 FM261100 08007KT P6SM BKN025 FM261300 09008KT P6SM VCSH BKN012 PROB30 2613/2617 5SM -SHRA BKN007 FM261700 08007KT P6SM VCSH BKN030 FM262000 07007KT P6SM BKN035", "KATW 251848Z 2519/2618 36007KT P6SM BKN040 FM252300 05004KT P6SM SCT050 FM260500 01003KT P6SM SKC FM261600 31005KT P6SM SCT060", "KATY 251724Z 2518/2618 10009G19KT P6SM SCT040 FM260200 VRB05KT P6SM BKN250 FM261500 19013G19KT P6SM OVC100", "KAUG 252108Z 2521/2618 14007KT P6SM VCSH OVC008 FM260200 00000KT 1SM BR OVC001 FM261400 05001KT P6SM OVC007 FM261500 01002KT P6SM OVC015", "KAUS 252110Z 2521/2624 04007KT P6SM BKN030 OVC050 FM252300 11007KT P6SM VCTS SCT010CB SCT015 BKN025 FM260300 14006KT P6SM BKN007 FM261200 12005KT 4SM BR OVC005 FM261800 17010KT P6SM BKN015 FM261900 17010KT P6SM BKN035", "KAUW 251727Z 2518/2618 36006KT P6SM SCT035 BKN045 FM252300 02006KT P6SM BKN050 FM260100 03003KT P6SM SCT050 FM260500 VRB03KT P6SM SKC FM261600 20004KT P6SM SCT060", "KAVL 252035Z 2521/2618 15007KT P6SM VCSH SCT050 BKN080 FM260200 VRB03KT P6SM SCT090 FM261400 VRB03KT P6SM BKN070 PROB30 2614/2618 5SM -RA BR OVC030", "KAVP 251729Z 2518/2618 29007KT P6SM SCT060 FM252300 28005KT P6SM FEW240 FM261300 19007G12KT P6SM BKN060", "KAXN 251936Z 2520/2618 10009KT P6SM SCT060 FM260100 12004KT P6SM SKC FM261500 17007KT P6SM SCT250", "KAZO 251858Z 2519/2618 06005KT P6SM OVC009 FM252000 06004KT P6SM OVC012 FM252100 01005KT P6SM OVC025 FM252200 35005KT P6SM BKN035 FM260000 34004KT P6SM SKC FM261600 32008KT P6SM SCT040", "TAF KBAB 251900Z 2519/2701 33012G18KT 9999 SKC QNH2986INS BECMG 2601/2602 33012KT 9999 SKC QNH2986INS WND VRB06KT AFT 2604 TX28/2523Z TN09/2614Z", "TAF KBAD 251949Z 2520/2702 13008KT 9999 BKN060 QNH2991INS BECMG 2610/2611 11009KT 9999 -SHRA VCTS OVC035CB QNH2991INS BECMG 2615/2616 12012G18KT 9999 NSW BKN040 QNH2977INS BECMG 2701/2702 13010G15KT 9999 VCTS OVC035CB QNH2975INS TX21/2521Z TN11/2612Z", "KBAF 251735Z 2518/2618 23005KT P6SM VCSH BKN090 FM252100 28008KT P6SM VCSH BKN080 FM252300 31004KT P6SM SCT110 FM260400 00000KT P6SM SKC FM261300 05003KT P6SM FEW200 FM261700 15004KT P6SM FEW140", "KBAM 251801Z 2518/2618 35008KT P6SM SKC FM260300 VRB05KT P6SM SKC", "KBBD 251720Z 2518/2618 15010KT P6SM OVC015 FM251900 15010KT P6SM BKN020 FM252200 15010KT P6SM BKN035 FM260200 15011G16KT P6SM BKN018 FM261600 16011KT P6SM BKN030", "KBBG 251846Z 2519/2618 11007G16KT P6SM SCT050 FM260400 15005KT P6SM -SHRA OVC070 FM260800 10007KT P6SM OVC045 FM261500 11012G20KT P6SM OVC045", "KBCB 251733Z 2518/2618 23005KT P6SM BKN200 FM260700 VRB04KT P6SM FEW250 FM261600 25006KT P6SM BKN200", "KBCE 251720Z 2518/2618 32017G28KT P6SM FEW250 FM260300 34014KT P6SM SKC FM260800 34009KT P6SM SKC", "KBDL 252005Z 2520/2624 26010KT P6SM BKN100 FM260000 31004KT P6SM SCT100 FM260600 00000KT P6SM SKC FM261500 10003KT P6SM FEW150 FM262000 17006KT P6SM SCT120", "KBDN 251731Z 2518/2618 19004KT P6SM FEW250 FM252200 36007KT P6SM FEW250 FM260400 VRB04KT P6SM FEW250 FM260900 20004KT P6SM FEW250", "KBDR 251942Z 2520/2618 22010KT P6SM BKN090 FM252300 29006KT P6SM FEW090 FM260200 VRB04KT P6SM BKN100 FM261400 15009KT P6SM BKN050", "KBED 251735Z 2518/2618 12004KT P6SM SCT050 FM260300 00000KT P6SM BKN025 FM260500 00000KT 2SM BR BKN008 FM260700 00000KT 3/4SM BR BKN003 FM261300 03003KT 4SM BR OVC008 FM261700 08005KT P6SM SCT040", "KBFD 251720Z 2518/2618 24007KT P6SM VCSH SCT060 OVC070 FM260500 21005KT 6SM -SHRASN OVC025 FM260700 25006KT 4SM -SHRASN OVC007 FM261100 27005KT 1/2SM FG OVC003 FM261400 30004KT 6SM BR OVC015", "KBFF 252007Z 2520/2618 12015KT P6SM VCSH OVC015 FM252200 10014G22KT 6SM -RA BKN015 OVC025 FM260100 11013G20KT 4SM -RA BKN012 OVC020 FM260500 09006KT 6SM BR VCSH OVC015 FM260900 VRB03KT 3SM BR VCSH BKN009 OVC015 FM261400 24006KT P6SM OVC020", "KBFI 251731Z 2518/2618 VRB03KT P6SM BKN025 OVC050 TEMPO 2518/2520 SCT028 BKN050 FM252000 27005KT P6SM SCT025 BKN050 FM252200 31004KT P6SM SCT050 SCT250 FM260300 VRB03KT P6SM BKN250 FM261500 VRB03KT P6SM BKN100 OVC200", "KBFL 251720Z 2518/2618 VRB04KT P6SM FEW250", "KBFM 251736Z 2518/2618 03004KT P6SM FEW050 FEW200 FM251900 08007KT P6SM SCT050 SCT200 FM260000 05005KT P6SM SCT050 SCT120 FM261200 08006KT P6SM BKN120", "KBGM 251729Z 2518/2618 29007KT P6SM BKN060 FM260000 11004KT P6SM SCT110 FM261100 19009KT 6SM -SHRA BR BKN035 FM261500 20009G14KT 5SM -SHRA BR BKN015", "KBGR 251731Z 2518/2618 12006KT P6SM VCSH OVC015 FM260300 VRB03KT P6SM -SHRA OVC008 FM260900 VRB03KT 3SM BR VCSH OVC005 FM261200 VRB03KT P6SM OVC008 FM261500 VRB03KT P6SM OVC015", "KBHB 251731Z 2518/2618 12008KT P6SM VCSH OVC015 FM260300 VRB03KT P6SM -SHRA OVC008 FM260900 VRB03KT 3SM BR VCSH OVC005 FM261200 VRB03KT P6SM OVC008 FM261500 VRB03KT P6SM OVC015", "KBHM 251720Z 2518/2618 03005KT P6SM FEW250 FM260100 00000KT P6SM SCT250 FM261500 10006KT P6SM OVC022 PROB30 2615/2618 4SM -SHRA BR OVC015", "TAF KBIF 251400Z 2514/2620 26012KT 9999 SKC 510009 QNH2976INS BECMG 2519/2520 25020G30KT 9000 BLDU SKC 520009 QNH2973INS BECMG 2603/2604 25009KT 9999 NSW SKC 510009 QNH2973INS TX28/2522Z TN11/2613Z", "KBIH 251726Z 2518/2618 36022G28KT P6SM SKC FM252100 34012G20KT P6SM SKC FM260400 34009KT P6SM SKC FM261500 VRB05KT P6SM SKC", "KBIL 251721Z 2518/2618 01008KT P6SM FEW060 FEW200 FM260800 26007KT P6SM SCT250", "KBIS 251738Z 2518/2618 14012G20KT P6SM SCT200 FM260100 14009KT P6SM SCT150 FM261200 17011KT P6SM BKN100 FM261500 21012KT P6SM VCSH BKN070", "TAF KBIX 251800Z 2518/2624 VRB06KT 9999 FEW040 FEW100 BKN200 QNH2993INS BECMG 2615/2616 11012KT 8000 BR VCSH BKN020 QNH3000INS BECMG 2618/2619 11012KT 9000 -SHRA BKN020 OVC050 QNH2993INS TX25/2520Z TN16/2612Z", "KBJC 252109Z 2521/2618 03012G20KT P6SM VCTS SCT040CB OVC060 TEMPO 2521/2523 4SM -TSRA BKN040CB FM252300 05014G22KT P6SM VCTS SCT030CB OVC050 TEMPO 2523/2601 4SM -SHRA BR OVC020 FM260100 05012G20KT 4SM -RA BR OVC012 TEMPO 2601/2604 2SM RA BR OVC007 FM260400 04014KT 2SM -RA BR OVC004 FM260600 03010KT 1SM -RASN BR OVC003 FM260900 03010KT 1 1/2SM -RASN BR OVC003 FM261500 05007KT 3SM -SHRA BR OVC005", "KBJI 251720Z 2518/2618 10007KT P6SM BKN060 FM260000 VRB05KT P6SM FEW060 FM261300 19007KT P6SM SCT150", "KBKE 251821Z 2518/2618 36010KT P6SM SKC FM260200 VRB03KT P6SM SKC", "TAF AMD KBKF 251747Z 2517/2623 VRB15G35KT 8000 TSRA FEW140 BKN220 QNH2982INS BECMG 2603/2604 07006KT 9000 -SHRA OVC007 QNH2996INS BECMG 2606/2607 VRB06KT 8000 -SHRA OVC000 QNH3001INS BECMG 2611/2612 03009KT 8000 -SHRA OVC000 QNH3006INS BECMG 2617/2618 36009KT 0800 DZ OVC009 QNH3014INS BECMG 2618/2619 VRB06KT 9999 NSW BKN017 OVC026 QNH3014INS BECMG 2620/2621 VRB06KT 9999 SCT026 OVC035 QNH3008INS TX13/2520Z TN04/2613Z", "KBKW 252053Z 2521/2618 27005KT P6SM BKN180 FM260100 24004KT P6SM BKN240 FM260600 17004KT P6SM SCT220 FM261400 27005KT P6SM SCT140", "KBLF 251733Z 2518/2618 VRB04KT P6SM BKN200 FM260000 VRB04KT P6SM SKC FM261500 28007KT P6SM SCT250", "KBLH 251720Z 2518/2618 19006KT P6SM FEW250 FM251900 35009KT P6SM SKC TEMPO 2520/2524 36012G20KT", "KBLI 251731Z 2518/2618 19008KT P6SM SCT060 SCT200 FM260300 VRB03KT P6SM BKN250 FM261400 16006KT P6SM VCSH BKN060 OVC120", "TAF KBLV 251600Z 2516/2622 24009KT 9999 SCT060 BKN250 QNH3008INS BECMG 2521/2522 VRB06KT 9999 BKN050 OVC250 QNH3005INS BECMG 2606/2607 06009KT 9999 SCT030 BKN200 QNH3011INS TX20/2521Z TN07/2612Z", "KBMG 251720Z 2518/2618 23009KT P6SM OVC050 FM252200 35010KT P6SM BKN060", "KBMI 252048Z 2521/2618 02010KT P6SM SCT030 BKN040 FM252200 03004KT P6SM BKN080 FM260900 VRB06KT P6SM SCT250 FM261500 07010KT P6SM SCT250", "KBNA 251720Z 2518/2618 08007KT P6SM SCT250 FM260100 05003KT P6SM OVC250 FM261400 09006KT P6SM OVC100", "KBNO 251720Z 2518/2618 VRB04KT P6SM SKC", "KBOI 251720Z 2518/2618 30015KT P6SM SKC FM260100 31008KT P6SM SKC FM260500 VRB04KT P6SM SKC", "KBOS 252005Z 2520/2624 10012KT P6SM SCT035 BKN100 FM260100 08005KT 5SM BR BKN015 FM260500 04004KT 2SM BR BKN005 FM261400 06006KT P6SM BKN008 FM261600 07007KT P6SM BKN030 FM262000 09009KT P6SM SCT050", "KBPI 251721Z 2518/2618 03010KT P6SM VCSH BKN040 OVC060 FM260300 18007KT P6SM SCT050 FM260600 01006KT P6SM VCFG FEW010 FM261700 33008KT P6SM FEW050", "KBPK 251720Z 2518/2618 14006KT P6SM VCSH BKN060 OVC090 FM260600 VRB05KT 5SM BR VCSH OVC025 FM261500 09005KT P6SM BKN030 OVC050", "KBPT 251726Z 2518/2618 05010KT P6SM SCT025 BKN080 TEMPO 2518/2521 BKN025 FM252100 08010KT P6SM VCSH BKN050 OVC090 FM260300 09008KT P6SM BKN050 FM260800 10009KT P6SM BKN025 TEMPO 2610/2614 BKN015 FM261500 13010KT P6SM BKN025", "KBRD 251722Z 2517/2618 05005KT P6SM SCT050 FM260200 VRB02KT P6SM SKC FM261300 17005KT P6SM SKC", "KBRL 251912Z 2519/2618 04008KT P6SM BKN035 FM260000 VRB04KT P6SM SKC FM261400 08006KT P6SM SKC", "KBRO 251846Z 2519/2618 13011KT P6SM VCSH SCT020 BKN035 TEMPO 2519/2521 -RA BKN020 FM252100 09009KT P6SM SCT040 BKN080 FM260600 14005KT P6SM BKN012 BKN030 TEMPO 2608/2612 4SM BR FM261500 15011KT P6SM SCT020 SCT035", "KBTL 251857Z 2519/2618 VRB03KT P6SM OVC008 FM252000 08004KT P6SM OVC012 FM252100 01005KT P6SM OVC025 FM252200 35005KT P6SM BKN035 FM260000 34004KT P6SM SKC FM261600 32008KT P6SM SCT040", "KBTM 251724Z 2518/2618 33008KT P6SM FEW007 OVC030 FM251900 31008G18KT P6SM BKN060 FM260400 20006KT P6SM SKC", "KBTR 251733Z 2518/2618 11004KT P6SM SKC FM261400 09007KT P6SM FEW045 FEW100", "KBTV 251741Z 2518/2618 27005KT P6SM VCSH SCT070 FM252300 32005KT P6SM VCSH BKN020 FM260200 00000KT P6SM BKN015 FM261700 19005KT P6SM SCT035", "KBUF 252117Z 2521/2618 26012G24KT P6SM VCSH SCT035 BKN080 FM252330 24008KT P6SM VCSH BKN035 FM260200 21006KT 6SM -RA OVC025 FM260600 21005KT 6SM -RA OVC007 FM260700 21004KT 4SM -SHRASN OVC007 FM261000 VRB03KT P6SM VCSH OVC007", "KBUR 251810Z 2518/2618 17008KT P6SM FEW024 FM251900 19008KT P6SM SKC FM260400 VRB03KT P6SM SKC FM261100 VRB03KT 5SM BR BKN010", "KBVI 251720Z 2518/2618 25005KT P6SM FEW110 FM261200 32004KT P6SM BKN015 FM261500 32005KT P6SM BKN025 FM261700 32006KT P6SM BKN035", "KBVO 251720Z 2518/2618 12011KT 6SM -SHRA BR OVC035 TEMPO 2519/2523 OVC025 FM252300 12011KT 4SM -SHRA BR OVC012 TEMPO 2523/2603 2SM -SHRA BR OVC006 FM260500 09005KT 4SM BR OVC006 FM261400 09011KT 3SM -SHRA BR OVC012", "KBWG 251728Z 2518/2618 10007KT P6SM SCT200 FM260100 00000KT P6SM SKC FM261400 07007KT P6SM BKN200", "KBWI 252105Z 2521/2624 23004KT P6SM FEW070 BKN200 FM252300 VRB03KT P6SM FEW070 BKN250 FM261200 19004KT P6SM SCT050 SCT250 FM261700 25007KT P6SM BKN060", "KBYI 251732Z 2518/2618 26013G23KT P6SM FEW060 FM252300 27010KT P6SM FEW060 FM260500 21007KT P6SM FEW070", "KBZN 251736Z 2518/2624 VRB06KT P6SM BKN020 TEMPO 2518/2520 P6SM OVC010 FM252000 32007KT P6SM SCT025 BKN050 FM260800 VRB06KT P6SM SCT050 SCT250 FM262000 26011KT P6SM SCT100 BKN250", "KCAE 252025Z 2520/2618 09008KT P6SM BKN060 FM260000 05005KT P6SM BKN050 FM261100 06006KT P6SM SCT015 BKN040 TEMPO 2613/2616 BKN015", "KCAK 251740Z 2518/2618 25008KT P6SM BKN060 FM260000 35005KT P6SM VCSH BKN035 FM260500 35004KT P6SM BKN035 FM261200 35005KT P6SM BKN008 FM261500 35005KT P6SM SCT030", "KCAR 251907Z 2519/2618 12006KT P6SM VCSH OVC020 FM260900 15006KT P6SM VCSH OVC008 FM261200 15006KT P6SM OVC008 FM261500 VRB03KT P6SM OVC015", "TAF KCBM 251700Z 2517/2623 04006KT 9999 SCT100 QNH3009INS BECMG 2520/2521 02006KT 9999 SCT080 QNH3001INS BECMG 2604/2605 04006KT 9999 BKN070 QNH3001INS BECMG 2613/2614 04006KT 9999 BKN050 QNH3000INS TX22/2520Z TN12/2607Z", "KCDC 251720Z 2518/2618 02014G25KT P6SM SKC FM260200 03008KT P6SM SKC FM260600 VRB04KT P6SM SKC", "KCDR 252009Z 2520/2618 08015G25KT P6SM VCSH OVC035 FM260300 12010KT 6SM -SHRA OVC010 FM260500 15004KT P6SM SCT020 BKN060 FM261000 19006KT P6SM BKN050", "KCDS 251743Z 2518/2618 17011KT P6SM VCTS BKN060CB FM260300 10015KT P6SM OVC015 PROB30 2603/2607 4SM +TSRA BR OVC009CB FM260800 10015KT P6SM VCTS OVC015CB FM261300 08011KT P6SM VCTS OVC010CB", "KCEC 251740Z 2518/2618 33006KT 5SM HZ FEW300 FM251900 32012G20KT 6SM HZ FEW300 FM260200 33009KT 5SM HZ FEW005 FM260500 15007KT 5SM BR SCT005 BKN300 FM261100 13004KT 4SM BR BKN003 OVC300 TEMPO 2613/2616 2SM BR OVC002 FM261600 31008KT 5SM HZ SCT005 BKN300", "TAF KCEF 251700Z 2517/2623 30009KT 9999 VCSH SCT050 BKN090 QNH3009INS TEMPO 2518/2523 33010G15KT -SHRA BKN040 BKN100 610408 BECMG 2523/2524 30009KT 9999 NSW FEW060 FEW110 QNH3013INS WND VRB06KT AFT 2601 BECMG 2617/2618 20009KT 9999 SCT050 SCT090 QNH3011INS BECMG 2621/2622 20012KT 9999 -SHRA BKN035 610358 QNH3011INS TX15/2521Z TN00/2610Z", "KCGI 251722Z 2518/2618 VRB04KT P6SM SKC FM261400 06007KT P6SM BKN150", "KCHA 251738Z 2518/2618 03010KT P6SM SCT070 BKN150 BKN200 FM260000 VRB03KT P6SM SCT070 FM261200 04005KT P6SM OVC050 PROB30 2612/2618 6SM -SHRA BR OVC050", "KCHO 251723Z 2518/2618 16004KT P6SM SCT070 BKN250 FM260000 VRB03KT P6SM FEW060 SCT250 FM261400 20005KT P6SM FEW050 SCT250", "KCHS 251828Z 2518/2618 09012G18KT P6SM VCSH BKN050 BKN200 FM260000 06005KT P6SM BKN070 FM260800 03004KT P6SM SCT012 OVC070 FM261400 05012KT P6SM BKN025", "KCID 251720Z 2518/2618 05009KT P6SM SCT030 FM260000 VRB04KT P6SM SKC FM261400 11007KT P6SM SKC", "KCIU 252015Z 2520/2618 33012KT P6SM SCT028 FM252100 33010KT P6SM BKN035 FM260700 34005KT P6SM BKN028 FM261600 32009KT P6SM BKN035", "KCKB 252053Z 2521/2618 25005KT P6SM SCT090 FM252300 26004KT P6SM BKN080 FM260200 20004KT P6SM BKN060 FM260500 16004KT P6SM SCT060", "KCKV 251720Z 2518/2618 08005KT P6SM SCT250 FM260300 05003KT P6SM OVC250 FM261400 07008KT P6SM OVC250", "KCLE 252055Z 2521/2624 03006KT P6SM VCSH SCT040 OVC060 FM252300 02005KT 5SM -SHRA OVC035 FM260300 04005KT P6SM BKN015 FM260700 35005KT P6SM BKN008 FM261200 35005KT P6SM BKN015 FM261500 36006KT P6SM SCT030", "KCLL 251737Z 2518/2618 11008KT P6SM BKN040 FM252200 12008KT P6SM VCTS OVC045CB FM260700 13007KT P6SM FEW007 BKN025", "KCLM 251731Z 2518/2618 33005KT P6SM SCT100 FM260300 30005KT P6SM BKN250 FM260900 29003KT P6SM BKN100", "KCLT 251959Z 2520/2624 07005KT P6SM VCSH SCT060 BKN120 FM260100 09004KT P6SM BKN080 FM260700 04003KT P6SM SCT100 FM261600 09003KT P6SM VCSH BKN070", "KCMA 251730Z 2518/2618 VRB03KT P6SM OVC012 FM252100 23010KT P6SM SCT015 FM260300 VRB03KT P6SM SKC FM260900 VRB03KT 3SM BR BKN006", "KCMH 251729Z 2518/2618 22006KT P6SM BKN060 FM260000 28003KT P6SM VCSH BKN045 FM260700 33003KT P6SM BKN035 FM260900 33004KT P6SM BKN025 FM261300 35005KT P6SM BKN035", "KCMI 251724Z 2518/2618 25011KT P6SM VCSH BKN060 FM251900 32008KT P6SM VCSH BKN060 FM260000 03007KT P6SM BKN050 FM261200 05006KT P6SM SCT250", "KCMX 252023Z 2520/2618 34013G21KT P6SM FEW080", "KCNM 251740Z 2518/2618 15007KT P6SM SCT250 FM252000 25015G23KT P6SM SCT250 FM260200 26011KT P6SM SCT250", "KCNU 251722Z 2518/2618 14009KT P6SM SCT035 OVC100 TEMPO 2601/2605 BKN030 FM260500 09007KT P6SM VCSH BKN030 OVC090 FM261500 09011KT P6SM VCSH OVC035", "KCNY 251740Z 2518/2618 31015G23KT P6SM SCT100 SCT200 FM252300 34012G21KT P6SM SCT100 FM260300 31007KT P6SM SCT200 FM261200 VRB03KT P6SM FEW250 FM261500 04009KT P6SM SKC", "KCOD 251721Z 2518/2618 36015G25KT P6SM SCT090 FM260300 22007KT P6SM SCT100 FM261600 35008KT P6SM FEW080 SCT120", "KCOE 251720Z 2518/2618 17010KT P6SM SCT050 BKN200 FM252000 21007KT P6SM BKN050 BKN120 BKN200 FM260300 15004KT P6SM SCT050 BKN140 FM261100 07007KT P6SM BKN250", "TAF KCOF 251811Z 2518/2624 12010G15KT 9000 -SHRA VCTS SCT025CB BKN120 QNH2987INS TEMPO 2518/2521 14015G25KT 6000 TSRA BKN020CB BECMG 2521/2522 08008KT 9999 NSW SCT030 BKN150 QNH2988INS BECMG 2614/2615 11010KT 9000 -SHRA VCTS SCT030CB QNH2991INS BECMG 2619/2620 11010KT 9999 NSW SCT035 QNH2989INS TX27/2519Z TN21/2610Z", "KCON 251720Z 2518/2618 31008KT P6SM VCSH FEW050 FEW060 FM260100 00000KT 6SM BR BKN025 FM260700 33001KT 1 1/2SM BR OVC019 FM261200 VRB03KT P6SM BKN015 FM261500 13003KT P6SM BKN050", "KCOS 252123Z 2521/2618 08014KT P6SM VCTS SCT030 BKN040CB TEMPO 2521/2523 4SM -RA BR SCT012 BKN020 FM252300 13014G24KT 5SM SHRA BKN020 OVC040 FM260300 05015G25KT 2SM RASN BR BKN008 OVC020 FM260700 36015G30KT 1SM -SN BKN004 OVC010 FM261300 01012G24KT 3SM -SHSN OVC020 FM261600 36011KT P6SM BKN025 OVC040", "KCOT 251728Z 2518/2618 14008KT P6SM BKN025 FM252100 12008KT P6SM SCT040 FM260700 13006KT 5SM BR BKN012 FM261500 15008KT P6SM BKN025", "KCOU 251727Z 2518/2618 VRB04KT P6SM SCT060 FM260200 06009KT P6SM BKN130 FM261200 09012KT P6SM SCT250", "KCPR 251721Z 2518/2618 05015KT 6SM -SHRA SCT010 OVC025 FM260300 24008KT P6SM FEW040", "KCPS 251728Z 2518/2618 VRB05KT P6SM FEW060 FM260300 06008KT P6SM BKN120", "KCRE 251723Z 2518/2618 09011G17KT P6SM BKN100 FM252300 06007KT P6SM OVC050", "KCRG 251726Z 2518/2618 08011KT P6SM VCSH SCT030 BKN090 TEMPO 2520/2523 VRB10G20KT 3SM TSRA OVC030CB FM260200 05003KT P6SM SCT050 BKN120 FM261500 06009KT P6SM SCT030", "KCRP 251728Z 2518/2618 14013G20KT P6SM VCTS SCT020 BKN035CB TEMPO 2518/2522 -TSRA SCT015CB FM260300 14011KT P6SM BKN015 FM260900 14007KT 5SM BR BKN012 TEMPO 2609/2612 OVC008 FM261500 15013G18KT P6SM BKN025", "KCRQ 252058Z 2521/2618 23009KT P6SM BKN015 TEMPO 2521/2601 SCT015 FM260100 VRB04KT P6SM OVC010 FM260800 VRB04KT 4SM BR OVC007 FM261500 VRB04KT P6SM OVC007 FM261700 VRB04KT P6SM SCT007", "KCRW 252053Z 2521/2618 24005KT P6SM BKN230 FM260000 15003KT P6SM SCT080 FM260800 00000KT P6SM SCT100 FM261200 31004KT P6SM SCT140", "KCSG 251720Z 2518/2618 08004KT P6SM FEW150 FM260300 07007KT P6SM FEW150 FM261300 09007KT P6SM BKN015 FM261500 10007KT P6SM BKN025 FM261700 11006KT P6SM SCT035", "KCSM 251738Z 2518/2618 10012KT P6SM VCSH OVC007 TEMPO 2520/2524 3SM -SHRA BR OVC003 FM260400 09012KT 3SM -RA BR OVC005 TEMPO 2608/2612 3SM -TSRA BR OVC008CB", "KCSV 251720Z 2518/2618 09005KT P6SM BKN250 FM260000 05002KT P6SM OVC250 FM261500 10004KT P6SM OVC100", "KCTB 251736Z 2518/2618 25020G28KT P6SM FEW090 SCT250 FM260300 26025G35KT P6SM BKN200 FM260800 29018G26KT P6SM SCT060 BKN200 FM261500 25014KT P6SM BKN120", "KCUB 252025Z 2520/2618 07006KT P6SM BKN060 FM260000 VRB03KT P6SM BKN050 FM261100 06004KT P6SM SCT015 BKN040 TEMPO 2613/2616 BKN015", "KCVG 252057Z 2521/2624 25009KT P6SM BKN080 FM260000 29004KT P6SM BKN060 FM261600 35006KT P6SM FEW250", "TAF AMD KCVS 251955Z 2519/2624 24010G15KT 9999 SCT140 QNH2973INS BECMG 2520/2521 24012G20KT 9999 -SHRA VCTS BKN100CB QNH2975INS TEMPO 2521/2523 VRB15G25KT 8000 -TSRA OVC090CB BECMG 2600/2601 22008KT 8000 -SHRA OVC090 QNH2982INS TEMPO 2605/2606 VRB10G20KT -TSRA BECMG 2606/2607 VRB06KT 9999 NSW BKN070 QNH2982INS BECMG 2613/2614 27010KT 9999 SCT070 QNH2982INS BECMG 2617/2618 27012G18KT 9999 FEW140 QNH2981INS TX24/2522Z TN06/2612Z", "KCWA 251727Z 2518/2618 36006KT P6SM SCT035 BKN045 FM252300 02006KT P6SM BKN050 FM260100 03003KT P6SM SCT050 FM260500 VRB03KT P6SM SKC FM261600 20004KT P6SM SCT060", "KCXO 251737Z 2518/2618 11008KT P6SM SCT025 BKN090 FM260100 11006KT P6SM VCSH BKN030 FM260700 11006KT P6SM BKN025 FM261200 13007KT P6SM FEW007 BKN015 FM261600 15007KT P6SM BKN025", "KCXP 251720Z 2518/2618 06010KT P6SM FEW250 FM260400 VRB03KT P6SM SKC", "KCYS 252102Z 2521/2618 09010KT P6SM SCT014 OVC100 FM260000 10013G19KT 2SM -RA BR OVC007 FM260200 12010KT 1SM RA BR OVC003 FM260600 08008KT 1/4SM -RASN FG OVC002 FM260800 03005KT 1SM -SHSN VCFG OVC003 FM261400 27004KT 2SM BR BKN004 OVC010", "TAF KDAA 252000Z 2520/2702 VRB06KT 9999 FEW040 BKN070 QNH3017INS BECMG 2615/2616 20010G15KT 9999 FEW040 SCT055 BKN080 QNH3013INS BECMG 2621/2622 VRB06KT 9000 -SHRA SCT045 OVC070 QNH3012INS BECMG 2622/2623 VRB06KT 9000 -SHRA BKN045 OVC070 QNH3012INS TX17/2520Z TN05/2610Z LAST NO AMDS AFT 2602 NEXT 2612", "KDAB 251740Z 2518/2618 07013G18KT P6SM SCT025 BKN035 BKN050 FM260100 05005KT P6SM SCT025 BKN060 FM261400 06006KT P6SM BKN080", "KDAG 251726Z 2518/2618 02010KT P6SM SKC FM260200 03007KT P6SM SKC FM260500 VRB05KT P6SM SKC", "KDAL 252110Z 2521/2618 14010KT P6SM SCT025 BKN040 FM260200 13011KT P6SM VCTS BKN035CB FM260500 12012KT P6SM BKN035 FM261100 13013KT P6SM BKN009", "KDAN 251733Z 2518/2618 06005KT P6SM SCT200 FM252300 VRB03KT P6SM OVC200 FM261600 20005KT P6SM SCT250", "KDAY 251729Z 2518/2618 21009KT P6SM VCSH OVC060 FM252300 26005KT P6SM VCSH BKN045 FM260300 33004KT P6SM BKN045 FM261000 34005KT P6SM BKN025 FM261300 01007KT P6SM SCT035", "KDBQ 251907Z 2519/2618 05008KT P6SM BKN045 FM260200 VRB04KT P6SM SKC FM261400 14006KT P6SM SKC", "KDCA 252105Z 2521/2624 17006KT P6SM SCT070 BKN200 FM252300 14004KT P6SM FEW070 BKN250 FM260400 16004KT P6SM SCT250 FM261300 19007KT P6SM SCT050 SCT250 FM262000 10009KT P6SM BKN060", "KDDC 252046Z 2521/2618 12014KT P6SM -SHRA OVC005 FM260000 10012KT P6SM OVC004 FM260600 10014KT 4SM SHRA BR OVC003 FM261200 09012KT 1SM SHRA BR OVC003", "KDEC 251724Z 2518/2618 30006KT P6SM VCSH BKN060 FM260000 03007KT P6SM BKN050 FM261200 05006KT P6SM SCT250", "KDEN 252059Z 2521/2624 02015G23KT P6SM VCTS SCT060CB BKN100 TEMPO 2521/2522 VRB20G35KT -TSRA BKN060CB FM252200 05015G23KT P6SM VCTS SCT040CB OVC100 TEMPO 2522/2601 4SM -SHRA BR OVC025 FM260100 05012G20KT 4SM -RA BR OVC012 TEMPO 2601/2604 2SM RA BR OVC007 FM260400 04014KT 2SM -RA OVC004 FM260700 03010KT 1 1/2SM -RASN OVC003 FM261500 05007KT 4SM -SHRA OVC006 FM261800 05006KT P6SM VCSH BKN006 OVC012", "KDET 251743Z 2518/2618 VRB03KT P6SM OVC015 TEMPO 2518/2520 4SM -RA OVC007 FM252200 30005KT P6SM BKN025 OVC040 FM260200 33005KT P6SM SCT040 FM260700 VRB03KT 2SM BR SCT007 FM261100 36005KT 4SM BR BKN007 OVC015 FM261400 33007KT P6SM SCT025 BKN040", "KDFW 252110Z 2521/2624 14010KT P6SM SCT025 BKN040 FM260200 13011KT P6SM VCTS BKN035CB FM260500 12012KT P6SM BKN035 FM261100 13013KT P6SM BKN009 FM261800 15014KT P6SM VCTS BKN015CB", "KDHN 251732Z 2518/2618 07005KT P6SM SCT250 FM260900 09008KT P6SM BKN100", "KDHT 251959Z 2520/2618 17009KT P6SM FEW026 FM252200 16017KT 6SM BR VCTS BKN035CB FM260000 10016KT P6SM VCSH BKN030 FM260800 11012KT P6SM OVC008 FM261200 04015KT 5SM HZ OVC007", "KDIJ 251732Z 2518/2618 VRB05KT P6SM BKN008 BKN130 FM252000 33007KT P6SM VCSH BKN035 BKN130 FM260200 13004KT P6SM FEW040 AMD LTD TO CLD VIS AND WIND", "KDIK 252035Z 2521/2618 17015G23KT P6SM SCT060 FM260200 18012KT P6SM SCT100 FM261100 21011KT P6SM BKN100 FM261500 26013KT P6SM BKN100", "TAF KDLF 251900Z 2519/2701 15012KT 9999 BKN035 BKN050 QNH2968INS BECMG 2607/2608 13009KT 9999 FEW009 BKN014 QNH2974INS TEMPO 2609/2614 8000 -DZ BR OVC007 BECMG 2615/2616 17009KT 9999 SCT014 BKN018 QNH2977INS BECMG 2617/2618 15012KT 9999 FEW025 SCT040 QNH2970INS TX27/2521Z TN17/2611Z", "KDLH 251722Z 2517/2618 06005KT P6SM BKN050 FM260000 09003KT P6SM SKC FM261400 19006KT P6SM FEW250", "KDLS 251731Z 2518/2618 31010KT P6SM FEW250 FM260600 VRB05KT P6SM SCT250", "TAF KDMA 251400Z 2514/2620 12009KT 9999 SKC QNH2983INS BECMG 2520/2521 27012G20KT 9999 SKC QNH2980INS BECMG 2521/2522 27015G25KT 9999 SKC 510009 QNH2975INS BECMG 2604/2605 27012KT 9999 SKC QNH2987INS BECMG 2606/2607 VRB06KT 9999 SKC QNH2988INS TX31/2522Z TN12/2612Z", "KDMN 251720Z 2518/2618 28012G22KT P6SM SKC FM252100 27020G30KT P6SM SCT250 FM260300 29010KT P6SM SCT250", "KDNL 252025Z 2520/2618 08008KT P6SM SCT050 BKN120 FM252200 07007KT P6SM VCSH BKN050 OVC100 FM260200 04010KT P6SM BKN050 FM261100 06006KT P6SM BKN025 TEMPO 2612/2616 BKN015", "TAF KDOV 251600Z 2516/2622 30010G15KT 9999 SCT050 QNH3018INS BECMG 2519/2520 31006KT 9999 SKC QNH3018INS WND 05006KT AFT 2603 BECMG 2606/2607 13006KT 9999 BKN060 QNH3021INS BECMG 2617/2618 14010G18KT 9999 BKN050 620703 QNH3016INS BECMG 2621/2622 14010G20KT 8000 -RA BKN050 620703 QNH3016INS TX16/2616Z TN06/2610Z", "KDPA 251757Z 2518/2618 05008KT P6SM SCT018 BKN040 TEMPO 2518/2521 BKN018", "KDRO 252012Z 2520/2618 25019G31KT P6SM SCT090 TEMPO 2521/2524 25025G35KT FM260000 29022G34KT P6SM FEW200 FM260400 29015G24KT P6SM FEW100 FM260700 26008KT P6SM SCT100", "KDRT 251720Z 2518/2618 15010KT P6SM SCT030 SCT060 FM252100 13010KT P6SM SKC FM260600 12008KT P6SM BKN015 FM261200 12008KT P6SM OVC008 FM261500 13010KT P6SM BKN020", "KDSM 251736Z 2518/2618 06008KT P6SM SCT080 FM261400 12007KT P6SM SCT120", "KDTW 252112Z 2521/2624 VRB03KT P6SM OVC012 FM252300 30005KT P6SM BKN025 OVC040 FM260200 33005KT P6SM SCT040 FM260700 VRB03KT 2SM BR SCT007 FM261100 36005KT 4SM BR BKN007 OVC015 FM261400 33007KT P6SM SCT025 BKN040 FM261900 30007KT P6SM SCT045", "KDUG 251720Z 2518/2618 21010KT P6SM SKC FM252000 25017G25KT P6SM SKC FM260000 26020G30KT P6SM SKC FM260300 27013KT P6SM SKC FM260900 17009KT P6SM SKC", "KDUJ 251720Z 2518/2618 25007KT P6SM FEW060 FM260900 16005KT P6SM VCSH BKN025 FM261200 27005KT P6SM BKN015 FM261600 28007KT P6SM VCSH BKN025", "KDVL 251720Z 2518/2618 13008KT P6SM SCT250 FM260600 17014KT P6SM BKN250 FM261300 18017G26KT P6SM BKN060", "KDVT 251720Z 2518/2618 19007KT P6SM FEW250 FM251830 23008KT P6SM FEW250 FM252000 25014G22KT P6SM SKC FM260400 29008KT P6SM FEW250 FM260700 03006KT P6SM FEW250", "TAF KDYS 251600Z 2516/2622 16012G18KT 9999 OVC040 QNH2984INS BECMG 2520/2521 17012G18KT 9999 OVC030 QNH2976INS BECMG 2523/2600 14015G25KT 9000 DZ VCTS OVC020CB QNH2975INS BECMG 2602/2603 14015G25KT 9999 NSW OVC020 QNH2978INS BECMG 2606/2607 15015G25KT 9999 OVC015 QNH2982INS BECMG 2611/2612 15012G18KT 9999 OVC020 QNH2980INS BECMG 2616/2617 17012G18KT 8000 -RA OVC030 QNH2972INS BECMG 2620/2621 19015G25KT 6000 TSRAGR OVC030CB QNH2970INS TX25/2523Z TN16/2613Z", "KEAR 251720Z 2518/2618 11013G17KT P6SM BKN040 FM252100 11015G20KT P6SM OVC045 FM260200 10008KT P6SM OVC045 FM260700 07009KT P6SM SCT035 BKN200 FM261400 11009KT P6SM SCT040 SCT200", "KEAT 251720Z 2518/2618 24007KT P6SM SKC FM251900 VRB05KT P6SM FEW060 SCT200 FM260300 31012KT P6SM SCT200 FM260600 31009KT P6SM BKN250 FM261300 32007KT P6SM BKN100", "KEAU 251720Z 2518/2618 06009KT P6SM BKN050 FM260200 00000KT P6SM SKC FM261500 17003KT P6SM SKC", "KECG 251732Z 2518/2618 08009KT P6SM FEW050 FM261400 09007KT P6SM SCT250", "KECP 251959Z 2520/2618 17008KT P6SM VCTS SCT050CB BKN100 FM260000 VRB04KT P6SM SCT100 FM261400 08008KT P6SM BKN080", "TAF COR KEDW 252052Z 2521/2703 04012G20KT 9999 FEW250 QNH2985INS BECMG 2523/2524 01009KT 9999 FEW250 QNH2983INS BECMG 2617/2618 05010G15KT 9999 FEW250 QNH3002INS TX28/2523Z TN10/2612Z", "KEED 251726Z 2518/2618 36020G30KT P6SM SKC FM260200 33011KT P6SM SKC FM261500 35014G22KT P6SM SKC", "KEET 251720Z 2518/2618 02005KT P6SM SCT250 FM260000 00000KT P6SM SCT250 FM261500 10006KT P6SM BKN030", "TAF AMD KEFD 252024Z 2520/2702 10010G15KT 9999 BKN025 QNH2989INS BECMG 2521/2522 11012KT 9999 BKN025 QNH2986INS BECMG 2616/2617 11010G15KT 8000 -SHRA OVC018 QNH2990INS TX24/2620Z TN19/2605Z", "KEFK 251741Z 2518/2618 26006KT P6SM -SHRA BKN015 FM252300 05005KT P6SM VCSH BKN060 FM260100 VRB04KT 4SM BR VCSH BKN015 FM260900 00000KT P6SM SCT015", "KEGE 251740Z 2518/2618 28006KT P6SM -SHRA VCTS BKN070CB FM252100 28009KT 6SM -SHRA BR OVC040 FM252300 31009KT 6SM -SHRA BR OVC030 FM260000 33009KT 4SM SHRASN BR VCTS OVC020CB FM260500 26005KT P6SM VCSH BKN030", "TAF AMD KEGI 251941Z 2519/2623 VRB06KT 9999 FEW040 BKN150 QNH2993INS TEMPO 2520/2523 15009KT 9000 -SHRA BKN030 BECMG 2605/2606 08009KT 9999 BKN040 BKN100 QNH2994INS TEMPO 2611/2615 BKN010 BECMG 2618/2619 13009KT 9000 -SHRA VCTS SCT020CB BKN050 QNH2993INS TX26/2520Z TN16/2611Z", "KEKN 252053Z 2521/2618 VRB05KT P6SM SCT230 FM260000 28004KT P6SM BKN090 FM260600 18004KT P6SM SCT070 FM261300 27005KT P6SM SCT080", "KEKO 251801Z 2518/2618 27007KT P6SM SKC FM260200 VRB05KT P6SM SKC", "KEKS 252115Z 2521/2618 31008KT P6SM BKN025 FM260500 VRB06KT P6SM SCT050 SCT250", "KELD 251740Z 2518/2618 08007KT P6SM BKN060 FM260000 06005KT P6SM SCT060 BKN100 FM261200 05006KT P6SM VCSH BKN050 FM261500 05009KT P6SM VCSH BKN050", "KELM 251729Z 2518/2618 26006KT P6SM BKN060 FM260000 00000KT P6SM SCT100 FM261100 16004KT 6SM BR BKN050 FM261300 17005KT 5SM -SHRA BR BKN025", "KELP 251720Z 2518/2618 24013G20KT P6SM FEW100 FEW250 FM252100 26018G30KT P6SM SCT250 FM260600 28013KT P6SM FEW250 WS010/27035KT", "KELY 251801Z 2518/2618 36010G18KT P6SM SKC FM260300 34010KT P6SM SKC FM260700 17009KT P6SM SKC", "TAF KEND 251800Z 2518/2624 11012G22KT 6000 -SHRA BR VCTS OVC007CB QNH2995INS TEMPO 2518/2524 3200 -TSRA BR OVC005CB BECMG 2523/2524 07012KT 4800 SHRA BR BKN007 QNH2998INS BECMG 2601/2602 07012KT 8000 BR BKN007 QNH2996INS BECMG 2603/2604 07012KT 6000 -DZ BR BKN005 QNH2995INS BECMG 2611/2612 07010KT 3200 SHRA BR BKN003 QNH2998INS TX11/2521Z TN08/2618Z", "KENV 251720Z 2518/2618 34015G25KT P6SM FEW090 FM252100 01010G18KT P6SM SKC FM260100 34006KT P6SM SKC", "KENW 251941Z 2520/2618 06009KT P6SM SCT035 FM252200 03007KT P6SM FEW050 FM260100 01005KT P6SM FEW250 FM261500 06006KT P6SM FEW040", "KERI 251740Z 2518/2618 30010KT P6SM BKN060 FM260100 VRB02KT 5SM -SHRA BKN015 FM260700 VRB02KT 5SM BR VCSH BKN008", "KEUG 251732Z 2518/2618 35006KT P6SM BKN010 FM251900 01010KT P6SM SCT250 FM260400 35004KT P6SM SCT250", "KEUL 251720Z 2518/2618 30015KT P6SM SKC FM260200 VRB05KT P6SM SKC", "KEVV 251722Z 2518/2618 18005KT P6SM SKC FM261500 05007KT P6SM SCT250", "KEVW 251720Z 2518/2618 25010KT 6SM -SHSN BR SCT030 OVC040 TEMPO 2518/2520 1SM -SN BR OVC015 FM252000 33013KT 3SM -SHSN BR BKN020 OVC030 TEMPO 2520/2524 1/2SM SN FZFG OVC015 FM260100 VRB05KT P6SM SCT060", "KEWN 251720Z 2518/2618 07007KT P6SM FEW240 FM252000 10007KT P6SM SCT250 FM261300 07007KT P6SM SCT120", "KEWR 252017Z 2520/2624 25010KT P6SM BKN080 FM252300 28008KT P6SM FEW050 FM260600 35004KT P6SM SCT100 FM261000 03004KT P6SM BKN100 FM261400 15008KT P6SM BKN050", "KEYW 251724Z 2518/2618 12008KT P6SM SCT025 BKN100 FM252100 VRB03KT P6SM SCT020", "TAF KFAF 251800Z 2518/2624 16009KT 9999 SCT060 BKN180 QNH3016INS BECMG 2606/2607 VRB06KT 9999 FEW100 QNH3018INS TX16/2519Z TN10/2605Z", "KFAR 251720Z 2518/2618 VRB04KT P6SM BKN060 FM260000 VRB05KT P6SM FEW060 SCT250 FM260700 16007KT P6SM SCT250 FM261300 17015G24KT P6SM BKN100", "KFAT 251720Z 2518/2618 VRB04KT P6SM FEW250", "KFAY 251729Z 2518/2618 07008KT P6SM FEW050 FEW250 FM260000 04003KT P6SM BKN050 OVC150 FM261200 05006KT P6SM OVC050", "TAF KFBG 251700Z 2517/2623 09006KT 9999 SCT050 QNH3008INS BECMG 2600/2601 VRB02KT 9999 BKN040 OVC100 QNH3007INS BECMG 2608/2609 36004KT 9999 BKN030 OVC070 QNH3012INS BECMG 2620/2621 03006KT 9999 OVC020 QNH3005INS TX22/2521Z TN09/2610Z", "TAF AMD KFCS 252100Z 2521/2703 16015G25KT 4800 -RA BR OVC010CB 620109 QNH2987INS TEMPO 2521/2523 VRB15G25KT 1600 -TSRA OVC020CB BECMG 2601/2602 10010G15KT 3200 RASN BR OVC008 650089 QNH2993INS BECMG 2605/2606 03015KT 0800 SN BR OVC003 650039 QNH2998INS BECMG 2617/2618 35010KT 4800 -RASN BR OVC015 650019 QNH3016INS BECMG 2623/2624 34010KT 9999 NSW BKN025 620209 QNH3016INS TX05/2621Z TN00/2603Z", "KFDY 251740Z 2518/2618 24010KT P6SM -SHRA BKN050 FM260000 35005KT P6SM BKN015 FM260600 VRB03KT 4SM BR SCT004 FM261400 35005KT P6SM SCT030", "TAF KFFO 251900Z 2519/2701 22012KT 9999 BKN050 OVC080 620509 621402 QNH3008INS TEMPO 2519/2521 22012G18KT BECMG 2523/2524 VRB06KT 9999 VCSH OVC040 610604 QNH3007INS TEMPO 2600/2607 02009KT 8000 -SHRA BR BECMG 2606/2607 02006KT 9999 NSW BKN020 OVC030 620502 QNH3010INS BECMG 2609/2611 02006KT 9999 OVC015 620502 QNH3013INS BECMG 2614/2615 01009KT 9999 SCT020 BKN040 QNH3016INS BECMG 2617/2618 01009KT 9999 FEW040 QNH3013INS TX13/2520Z TN03/2611Z", "TAF KFHU 251400Z 2514/2620 VRB06KT 9999 SKC QNH2997INS BECMG 2517/2518 23012G18KT 9999 SKC 510004 QNH2986INS TEMPO 2521/2602 26018G32KT 520005 BECMG 2602/2603 27009KT 9999 SKC QNH2990INS WND VRB06KT AFT 2508 BECMG 2617/2618 28009KT 9999 SKC QNH2996INS TX27/2522Z TN11/2610Z", "KFKL 251720Z 2518/2618 25007KT P6SM BKN070 FM260700 13005KT P6SM VCSH BKN025 FM260900 35004KT P6SM BKN015 FM261200 33005KT P6SM BKN007", "KFLG 251722Z 2518/2618 26019G30KT P6SM SCT070 FM260100 30013G21KT P6SM SKC FM260500 01008G14KT P6SM SKC", "KFLL 252053Z 2521/2624 16008KT P6SM VCTS SCT025CB BKN050 TEMPO 2523/2601 VRB12G20KT 3SM TSRA SCT020CB SCT030 BKN050 FM260200 VRB04KT P6SM VCSH SCT030 BKN050 FM260600 VRB04KT P6SM SCT030 BKN050 FM261600 13010KT P6SM SCT030 BKN050 FM261800 14012KT P6SM VCTS SCT025CB BKN050", "KFLO 251723Z 2518/2618 09008KT P6SM BKN060 FM252300 06007KT P6SM OVC050", "KFMH 251735Z 2518/2618 06005KT P6SM BKN045 FM260300 00000KT P6SM BKN015 FM260500 00000KT P6SM BKN008 FM260700 00000KT 1 1/2SM BR BKN008 FM261300 03006KT 4SM BR BKN008 FM261600 04007KT P6SM SCT015", "KFMN 251742Z 2518/2618 28012G20KT P6SM FEW100 FM251900 30025G35KT P6SM SCT080 BKN100 FM260200 29012G22KT P6SM FEW100 FM260500 30008KT P6SM SKC", "KFMY 251730Z 2518/2618 24008KT P6SM SCT035 SCT250 FM260200 06004KT P6SM BKN250 FM261400 16007KT P6SM SCT030 BKN250", "KFNT 251958Z 2520/2618 20005KT P6SM SCT030 OVC060 TEMPO 2520/2524 6SM -RA OVC030 FM260000 30005KT P6SM BKN060 FM260400 36005KT 4SM BR SCT007 OVC015 FM261400 33007KT P6SM SCT025 BKN040", "KFOD 251736Z 2518/2618 08009KT P6SM SKC FM260900 12005KT P6SM BKN120", "KFOE 251720Z 2518/2618 13007KT P6SM FEW025 BKN045 FM260100 08006KT P6SM BKN100", "KFPR 252013Z 2520/2618 12010KT P6SM TS SCT040CB BKN070 TEMPO 2520/2522 3SM TSRA BKN025CB OVC040 FM260000 VRB05KT P6SM SCT035 BKN070 FM260300 12006KT P6SM SCT025 BKN060", "TAF KFRI 252008Z 2520/2702 11009KT 9999 OVC040 QNH3000INS BECMG 2605/2606 08006KT 9999 FEW240 QNH3004INS TX17/2520Z TN04/2611Z", "KFSD 251726Z 2518/2618 10014G20KT P6SM SCT250 FM252100 08010KT P6SM FEW250 FM260300 09008G16KT P6SM BKN090 FM261400 14007G14KT P6SM SCT150", "KFSM 251720Z 2518/2618 10008KT P6SM -SHRA OVC040 FM252100 09008KT 6SM -SHRA OVC020 TEMPO 2522/2602 4SM -SHRA BR OVC015 FM260800 09011KT P6SM VCSH OVC022 FM261500 09011KT 6SM -SHRA BR OVC015", "KFST 251740Z 2518/2618 30010KT P6SM FEW250 FM260300 15015KT P6SM FEW250", "TAF KFTK 251900Z 2519/2701 VRB06KT 9999 SCT100 BKN250 QNH3006INS BECMG 2606/2607 04006KT 9999 SCT050 BKN250 QNH3002INS TX18/2519Z TN05/2611Z LAST NO AMDS AFT 2603 NEXT 2611", "KFTW 252110Z 2521/2618 14010KT P6SM SCT025 BKN040 FM260200 13011KT P6SM VCTS BKN035CB FM260500 12012KT P6SM BKN035 FM261100 13013KT P6SM BKN009", "KFTY 251720Z 2518/2618 08006KT P6SM SCT100 BKN200 FM260300 08007KT P6SM SCT070 FM261100 08006KT P6SM BKN025 FM261300 08006KT P6SM VCSH BKN015 PROB30 2613/2617 5SM -SHRA BKN007", "KFVE 252041Z 2521/2618 11006KT P6SM VCSH OVC015 FM260900 15006KT P6SM VCSH OVC005 FM261200 15006KT P6SM OVC008 FM261500 15006KT P6SM OVC015", "KFWA 251723Z 2518/2618 21012KT P6SM VCSH BKN050 FM252000 29008KT P6SM VCSH OVC030 TEMPO 2520/2523 5SM -SHRA OVC015 FM252300 36006KT P6SM BKN025", "KFXE 252052Z 2521/2618 16010KT P6SM VCTS SCT025CB BKN050 TEMPO 2523/2601 VRB12G20KT 3SM TSRA SCT020CB SCT030 BKN050 FM260200 VRB04KT P6SM VCSH SCT030 BKN050 FM260600 VRB04KT P6SM SCT030 BKN050 FM261600 13010KT P6SM SCT030 BKN050", "KFYV 251944Z 2520/2618 18011KT P6SM VCSH OVC050 FM252100 16011KT 6SM -SHRA BR OVC035 FM260500 11006KT P6SM VCSH OVC015 FM261100 10011KT P6SM OVC020 FM261500 10011KT 6SM -SHRA OVC015", "KGBD 251722Z 2518/2618 13014G20KT P6SM OVC015 TEMPO 2519/2523 5SM SHRA BR OVC009 FM260100 09011KT P6SM VCSH OVC010 FM261400 07012KT 6SM -RA BR OVC010", "KGCC 252024Z 2520/2618 12005KT P6SM BKN110 FM260200 17007KT P6SM BKN070 FM261400 27009KT P6SM FEW250 FM261700 32011KT P6SM SCT250", "KGCK 252010Z 2520/2618 11014KT 1 1/2SM BR BKN003 OVC007 FM252200 10012KT 4SM BR OVC006 FM260600 10014KT 4SM SHRA BR OVC003 FM261300 07015G23KT 1SM SHRA BR OVC002", "KGCN 251722Z 2518/2618 28013G23KT P6SM FEW070 FM260100 32012KT P6SM SKC FM260700 04007KT P6SM SKC", "KGDV 251720Z 2518/2618 14011KT P6SM FEW110 FM261000 21008KT P6SM BKN090 FM261500 29012G20KT P6SM BKN100", "KGEG 251720Z 2518/2618 22009KT P6SM SCT050 SCT200 FM252200 22009KT P6SM BKN050 BKN120 BKN200 FM260300 21005KT P6SM SCT050 SCT200 FM260900 14004KT P6SM BKN250", "TAF KGFA 251957Z 2520/2702 24012G18KT 9999 SCT060 510062 QNH2998INS BECMG 2603/2604 25009KT 9999 FEW100 510072 QNH3006INS TEMPO 2620/2702 27020G30KT 9000 -SHRA BKN060 OVC090 530003 BECMG 2701/2702 24012KT 9999 FEW050 OVC080 530053 QNH2992INS TX18/2520Z TN03/2613Z", "KGFK 251720Z 2518/2618 VRB04KT P6SM SCT040 BKN060 FM260000 VRB05KT P6SM FEW060 SCT250 FM260900 16008KT P6SM BKN250 FM261300 18016G25KT P6SM BKN100", "KGFL 251720Z 2518/2618 22005KT P6SM BKN080 TEMPO 2518/2522 6SM -SHRA BKN040 FM260300 VRB03KT 5SM BR SCT002 FM260900 00000KT 1/2SM FG VV002 FM261300 VRB03KT P6SM BKN050 PROB30 2616/2618 4SM SHRA BR BKN030", "KGGG 251740Z 2518/2618 13008KT P6SM BKN050 FM260700 09006KT P6SM VCSH BKN035 FM260900 10008KT P6SM VCSH BKN023 FM261200 10008KT P6SM BKN020 FM261500 12009KT P6SM BKN020", "KGGW 251720Z 2518/2618 14012KT P6SM SCT090 FM260000 18010KT P6SM SCT110 FM261100 28012KT P6SM BKN090", "KGJT 251740Z 2518/2618 29009KT P6SM VCTS SCT030CB BKN040 OVC070 TEMPO 2518/2522 4SM -SHRA BR BKN025 OVC040 FM252200 33011KT P6SM VCSH BKN060 FM260700 33006KT P6SM SCT070 FM261500 03009KT P6SM SKC", "KGKY 252110Z 2521/2618 14010KT P6SM SCT025 BKN040 FM260200 13011KT P6SM VCTS BKN035CB FM260500 12012KT P6SM BKN035 FM261100 13013KT P6SM BKN009", "KGLD 252005Z 2520/2618 13011KT P6SM VCSH OVC012 TEMPO 2520/2523 4SM -RA BKN008 FM252300 10015KT 6SM -SHRA BR OVC007 FM260300 09011KT 3SM -SHRA BR OVC007 FM261500 06012KT P6SM VCSH OVC012", "KGLH 251720Z 2518/2618 07008KT P6SM SCT190", "KGLS 251737Z 2518/2618 12013KT P6SM SCT090 FM252300 10014KT P6SM BKN050 FM260200 12014KT P6SM VCSH OVC050 FM260800 12013KT P6SM BKN030 FM261500 12011KT P6SM BKN035", "KGMU 251756Z 2518/2618 07006KT P6SM VCSH SCT060 OVC110 FM252100 08005KT P6SM BKN070 FM260300 05005KT P6SM SCT090 FM261600 07004KT P6SM VCSH BKN050", "KGNV 251726Z 2518/2618 08009KT P6SM VCSH SCT035 BKN090 TEMPO 2519/2523 VRB10G20KT 3SM TSRA OVC035CB FM260200 05003KT P6SM SCT050 BKN120 FM261500 06009KT P6SM SCT030", "KGON 251942Z 2520/2618 21008KT P6SM FEW090 FM260200 VRB03KT P6SM BKN100 FM261400 07007KT P6SM BKN050 FM261600 15008KT P6SM BKN040", "KGPI 251724Z 2518/2618 16010KT P6SM SKC FM252300 23010G18KT P6SM BKN150 FM260400 04005KT P6SM BKN150", "KGPT 251733Z 2518/2618 11006KT P6SM SKC FM252000 16008KT P6SM FEW045 FEW110 FM261200 07005KT P6SM FEW025 SCT100 FM261400 10007KT P6SM FEW020 FEW100", "KGRB 251727Z 2518/2618 04008KT P6SM BKN035 FM252300 05004KT P6SM SCT050 FM260500 01003KT P6SM SKC FM261600 31005KT P6SM SCT060", "TAF KGRF 252100Z 2521/2703 34005KT 9999 SCT035 QNH3021INS BECMG 2522/2523 02005KT 9999 SKC QNH3018INS BECMG 2603/2604 03003KT 9999 FEW090 FEW220 QNH3017INS BECMG 2614/2615 05002KT 9999 FEW050 BKN100 BKN220 QNH3019INS BECMG 2617/2618 02005KT 9999 FEW040 BKN060 BKN100 QNH3016INS BECMG 2621/2622 28006KT 9999 BKN045 BKN080 QNH3013INS TX16/2523Z TN06/2613Z", "KGRI 251720Z 2518/2618 11011KT P6SM BKN040 FM252200 11012G17KT P6SM OVC050 FM260200 12008KT P6SM BKN040 FM260700 08009KT P6SM SCT035 BKN200 FM261400 11009KT P6SM SCT040 SCT200", "TAF AMD KGRK 251837Z 2518/2622 12009KT 9999 OVC013 QNH2988INS BECMG 2520/2521 13009KT 9999 BKN015 OVC030 QNH2986INS BECMG 2600/2601 13009KT 9000 -SHRA VCTS BKN012 OVC030CB QNH2987INS TEMPO 2602/2604 13012G18KT 4800 -TSRA BKN008 OVC030CB BECMG 2603/2604 12006KT 8000 BR VCSH OVC006 QNH2986INS BECMG 2619/2620 14012G18KT 9999 VCTS BKN015 OVC030CB QNH2978INS TX20/2521Z TN17/2612Z", "KGRR 251726Z 2518/2618 VRB03KT P6SM OVC025 FM251900 36005KT P6SM BKN035 FM260100 34004KT P6SM SKC FM261600 32008KT P6SM SCT040", "TAF KGSB 252005Z 2520/2702 06009KT 9999 BKN065 BKN250 QNH3005INS BECMG 2600/2601 09009KT 9999 BKN050 BKN200 QNH3004INS BECMG 2700/2701 12009KT 9999 BKN030 BKN100 BKN250 QNH3008INS TX22/2620Z TN08/2606Z", "KGSO 251729Z 2518/2618 VRB04KT P6SM FEW050 FEW250 FM260300 11003KT P6SM SCT050 BKN180 FM261600 10004KT P6SM BKN100", "KGSP 251756Z 2518/2618 07006KT P6SM VCSH SCT060 BKN120 FM252100 08005KT P6SM BKN070 FM260300 04004KT P6SM SCT090 FM261600 07004KT P6SM VCSH BKN050", "TAF KGTB 251700Z 2517/2623 22012G18KT 9999 SCT040 BKN060 QNH3014INS BECMG 2521/2522 25006KT 9999 FEW100 QNH3018INS BECMG 2609/2610 20006KT 8000 -SHRA SCT008 BKN015 QNH3019INS BECMG 2616/2617 18006KT 9999 NSW SCT015 BKN040 QNH3016INS TX10/2520Z TN03/2609Z", "KGTF 251736Z 2518/2618 22009KT P6SM FEW050 SCT200 FM252000 24015G23KT P6SM SCT090 SCT200 FM260500 24018G26KT P6SM BKN090", "KGTR 251720Z 2518/2618 VRB04KT P6SM FEW250", "KGUC 251740Z 2518/2618 36006KT 5SM -SHRASN BR VCTS BKN015CB TEMPO 2518/2521 2SM -SHSNRA BR BKN008 FM252100 26012KT 6SM -SHRASN BR BKN040 FM252300 28013KT 6SM -SHSN BR OVC035 FM260400 23008KT P6SM VCSH OVC025 FM260600 30009KT P6SM VCSH OVC035", "KGUP 251742Z 2518/2618 24020G32KT P6SM VCSH SCT080 BKN100 FM252100 29027G39KT P6SM SCT100 FM260100 32011KT P6SM FEW100 FM260500 24006KT P6SM SKC", "TAF KGUR 252100Z 2521/2703 10012KT 9000 VCTS FEW007 SCT028 OVC045 QNH2992INS BECMG 2522/2523 13010G15KT 9000 -SHRA BKN028 OVC045 QNH2993INS BECMG 2600/2601 VRB06KT 9000 -SHRA BKN020 OVC029 QNH2998INS BECMG 2601/2602 VRB06KT 9000 BR BKN020 OVC029 QNH2999INS BECMG 2613/2614 VRB06KT 8000 BR FEW013 QNH2997INS BECMG 2623/2624 27012KT 9999 NSW BKN095 QNH2996INS BECMG 2700/2701 27015KT 9999 BKN095 QNH2996INS TX18/2622Z TN01/2612Z", "TAF KGUS 252100Z 2521/2703 29010KT 9999 BKN050 BKN085 610505 QNH3005INS BECMG 2522/2523 36006KT 9999 BKN025 BKN050 620503 QNH3010INS BECMG 2609/2610 04006KT 9999 FEW015 SCT050 QNH3023INS TX14/2521Z TN00/2611Z LAST NO AMDS AFT 2603 NEXT 2613", "KGUY 251913Z 2519/2618 17010KT P6SM FEW021 OVC040 FM252000 13013KT P6SM BKN030 FM252300 15018KT 4SM BR VCTS OVC005CB FM260300 09016KT 5SM SHRA BR OVC005 FM261300 07013KT 5SM BR OVC005", "KGWO 251720Z 2518/2618 06005KT P6SM FEW120", "KGYY 251759Z 2518/2618 02010KT P6SM SCT008 SCT015 BKN035 TEMPO 2518/2522 BKN008 BKN015", "KHBG 251720Z 2518/2618 VRB04KT P6SM FEW240", "KHCR 251720Z 2518/2618 03009KT P6SM VCSH BKN035 BKN050 FM260300 VRB05KT P6SM FEW045 SCT080", "KHDC 251733Z 2518/2618 00000KT P6SM SKC", "KHDN 251740Z 2518/2618 32007KT 4SM BR VCSH BKN008 OVC015 FM252100 31009KT P6SM -SHSN VCSH BKN060 FM252200 31009KT P6SM VCSH BKN060 FM260000 36009KT P6SM BKN050 FM260900 00000KT P6SM SCT025 FM261500 VRB04KT P6SM BKN015 AMD NOT SKED", "KHIB 251741Z 2517/2618 03005KT P6SM VCSH BKN050 FM260000 VRB01KT P6SM SKC FM261400 18005KT P6SM SCT200", "KHIE 252104Z 2521/2618 06007KT P6SM FEW070 OVC100 TEMPO 2521/2524 P6SM OVC015 FM260300 15002KT P6SM VCSH OVC015", "TAF KHIF 252100Z 2521/2703 VRB06KT 9999 BKN030 OVC040 610307 QNH3007INS BECMG 2602/2603 09010KT 9999 SCT050 QNH3010INS BECMG 2617/2618 28012KT 9999 FEW100 QNH3014INS TX11/2621Z TN02/2612Z", "KHIO 251732Z 2518/2618 VRB02KT P6SM SCT020 BKN200 FM252200 36007KT P6SM SCT250 FM260700 VRB02KT P6SM BKN250", "KHKS 251720Z 2518/2618 07005KT P6SM FEW220", "KHKY 251727Z 2518/2618 06005KT P6SM BKN120 FM260000 11003KT P6SM SCT110 FM260400 VRB02KT P6SM SCT110 FM261700 16003KT P6SM BKN100", "KHLG 251720Z 2518/2618 23005KT P6SM FEW200 FM260300 04003KT P6SM VCSH BKN070 FM261500 32005KT P6SM BKN025 FM261600 31005KT P6SM BKN035", "KHLN 251736Z 2518/2618 26014G22KT P6SM SCT050 BKN100 TEMPO 2518/2522 BKN050 FM260200 26012KT P6SM SCT100 BKN250 FM261600 26017G25KT P6SM BKN100", "TAF AMD KHMN 252025Z 2520/2623 24015G25KT 9999 FEW130 FEW200 QNH2971INS BECMG 2601/2602 22009KT 9999 FEW130 FEW200 QNH2979INS BECMG 2614/2615 34012G20KT 9999 FEW130 QNH2993INS TX28/2522Z TN05/2612Z", "KHNB 251728Z 2518/2618 20007KT P6SM FEW250 FM260100 VRB03KT P6SM SCT080 BKN250 FM261300 04007KT P6SM SCT250", "KHND 251726Z 2518/2618 04017G27KT P6SM SKC FM252200 05010G18KT P6SM SKC FM260300 36006KT P6SM SKC FM260800 VRB05KT P6SM SKC FM261700 04007KT P6SM SKC", "KHOB 251740Z 2518/2618 15010KT P6SM SCT250 FM252000 25011KT P6SM SCT250 FM260100 16007KT P6SM SCT250", "KHON 251759Z 2518/2618 11012G20KT P6SM SCT250 FM260300 11008G16KT P6SM SCT140 FM261300 15010G20KT P6SM BKN070 FM261500 18012G20KT P6SM SCT100", "TAF KHOP 251600Z 2516/2622 VRB06KT 9999 FEW090 BKN130 QNH3011INS TX17/2521Z TN07/2611Z", "KHOT 252100Z 2521/2618 09006KT 2SM RA BR OVC050 FM260900 06008KT 6SM BR VCSH OVC025 FM261200 08010G15KT 5SM -SHRA BR OVC025", "KHOU 252049Z 2521/2618 11014KT P6SM SCT030 BKN050 FM260200 12008KT P6SM VCTS OVC030CB FM260600 13007KT P6SM FEW010 BKN020 FM261600 14009KT P6SM BKN030", "KHPN 251942Z 2520/2618 32008KT P6SM FEW060 FM260600 35004KT P6SM SCT100 FM261000 04004KT P6SM BKN100 FM261400 15008KT P6SM BKN050 AMD NOT SKED", "KHQM 251731Z 2518/2618 27006KT P6SM SCT045 FM252100 29011KT P6SM SCT250 FM260300 29007KT P6SM BKN250 FM261200 VRB04KT P6SM BKN100", "KHRF 251724Z 2518/2618 00000KT P6SM OVC050 FM252000 22008G18KT P6SM BKN080 FM260400 35004KT P6SM BKN150", "KHRL 251848Z 2519/2618 14010KT P6SM VCSH SCT022 BKN035 TEMPO 2519/2521 -RA BKN015 FM252100 11011KT P6SM SCT040 SCT080 BKN150 FM260700 14005KT P6SM BKN012 BKN030 TEMPO 2609/2613 3SM BR FM261500 15011KT P6SM SCT020 SCT035", "KHRO 251720Z 2518/2618 13008KT P6SM VCSH BKN060 OVC100 FM260600 09006KT 5SM BR VCSH OVC025 FM261500 11012G18KT P6SM BKN030 OVC050", "TAF KHRT 251800Z 2518/2624 14011KT 9999 SCT030 BKN130 QNH3000INS BECMG 2520/2521 19009KT 9999 FEW060 SCT130 QNH2997INS BECMG 2621/2622 11008KT 8000 SHRA BKN030 QNH2996INS TX25/2518Z TN16/2610Z", "TAF AMD KHST 252045Z 2520/2701 18010G15KT 9999 VCTS SCT030CB SCT060 BKN190 QNH2987INS BECMG 2523/2524 VRB06KT 9999 VCSH SCT025 BKN050 QNH2990INS BECMG 2614/2615 19009KT 9999 NSW SCT025 SCT040 QNH2988INS TEMPO 2619/2622 VRB12G18KT 8000 -SHRA VCTS BKN025CB BECMG 2623/2624 VRB06KT 9999 NSW SCT025 QNH2989INS TX29/2619Z TN21/2611Z", "KHSV 251720Z 2518/2618 04005KT P6SM BKN200 FM260600 VRB03KT P6SM SCT040 BKN060 FM261400 07005KT 6SM -RA BR BKN010 OVC020", "KHTS 252053Z 2521/2618 15004KT P6SM BKN180 FM252300 22004KT P6SM BKN120 FM260500 27003KT P6SM SCT100 FM261100 33003KT P6SM SCT130", "TAF KHUA 252000Z 2520/2702 07006KT 9999 BKN100 QNH3004INS BECMG 2609/2610 07006KT 9000 -SHRA BKN030 OVC090 QNH3009INS BECMG 2613/2614 07006KT 9999 NSW OVC007 QNH3012INS BECMG 2701/2702 09006KT 9999 FEW010 BKN015 BKN050 QNH3006INS TX20/2521Z TN10/2612Z LAST NO AMDS AFT 2600 NEXT 2612", "KHUF 251720Z 2518/2618 24009KT P6SM VCSH OVC050 FM252100 35009KT P6SM BKN060", "KHUL 251731Z 2518/2618 12006KT P6SM VCSH OVC015 FM260700 VRB03KT P6SM VCSH OVC007 FM261200 VRB03KT P6SM OVC007 FM261500 VRB03KT P6SM OVC015", "KHUM 251733Z 2518/2618 08007KT P6SM SKC FM261600 12007KT P6SM FEW025 SCT030", "KHUT 252045Z 2521/2618 13012KT P6SM VCSH OVC022 TEMPO 2521/2601 -RA OVC014 FM260100 10011KT P6SM VCSH OVC012 FM260500 09010KT P6SM VCSH OVC007 FM261400 08012KT 5SM SHRA BR OVC008", "KHVR 252116Z 2521/2618 26009G18KT P6SM SCT090 FM252200 23012G20KT P6SM SCT090 BKN120 FM260800 26012KT P6SM BKN250", "KHYA 251735Z 2518/2618 02006KT P6SM SCT040 FM260100 07003KT P6SM BKN030 FM260300 07003KT P6SM BKN010 FM260800 02005KT 3/4SM BR BKN003 FM261200 03007KT 3SM BR BKN003 FM261600 03007KT P6SM BKN015", "KHYR 251722Z 2517/2618 03007KT P6SM BKN050 FM260000 VRB03KT P6SM SCT250 FM261600 17008KT P6SM FEW250", "KHYS 252047Z 2521/2618 15012KT P6SM -SHRA OVC018 FM260300 10009KT P6SM VCSH OVC006", "TAF KIAB 251800Z 2518/2624 16012G20KT 9999 BKN015 OVC050 620805 QNH3000INS TEMPO 2518/2522 SCT015 BECMG 2521/2522 12015G20KT 8000 -RA BKN008 OVC020 620809 QNH3000INS BECMG 2604/2605 09007KT 9999 VCSH BKN007 OVC015 620803 QNH3006INS BECMG 2612/2613 08012G18KT 8000 -RA BR BKN007 OVC020 620809 QNH3005INS BECMG 2621/2622 07009KT 9000 -SHRA BKN018 OVC070 620806 QNH3003INS TX12/2521Z TN08/2612Z", "KIAD 252105Z 2521/2624 31005KT P6SM BKN070 BKN200 FM252300 VRB03KT P6SM FEW070 BKN250 FM260400 15004KT P6SM SCT250 FM261300 19006KT P6SM SCT050 SCT250 FM261800 26008KT P6SM BKN060", "KIAG 252118Z 2521/2618 28008KT P6SM VCSH BKN050 FM260000 24005KT P6SM VCSH BKN035 FM260200 25005KT 6SM -RA OVC035 FM260400 VRB03KT 6SM -RA OVC025 FM260600 VRB03KT 6SM -SHRASN OVC007 FM261000 VRB03KT P6SM VCSH OVC007", "KIAH 252049Z 2521/2624 14010KT P6SM SCT035 BKN070 FM260200 10007KT P6SM VCSH BKN028 FM260800 11008KT P6SM BKN020 FM261700 15009KT P6SM BKN040", "KICT 252043Z 2521/2618 13012KT P6SM VCSH FEW012 OVC022 TEMPO 2521/2601 -RA BKN012 FM260100 10011KT P6SM VCSH OVC012 FM260500 09010KT P6SM VCSH OVC007 FM261400 08012KT 5SM SHRA BR OVC008", "KIDA 251732Z 2518/2618 34010KT P6SM SCT050 FM260200 31007KT P6SM FEW050 FM260700 VRB06KT P6SM FEW060", "KIFP 251726Z 2518/2618 35022G32KT P6SM SKC FM260300 01011KT P6SM SKC FM261100 36012G20KT P6SM SKC FM261500 36018G25KT P6SM SKC", "KILG 251726Z 2518/2618 30009KT P6SM SCT060 FM252300 VRB03KT P6SM SKC FM260700 VRB03KT P6SM BKN100 FM261400 16005KT P6SM BKN060 FM261700 19007KT P6SM BKN050", "KILM 251723Z 2518/2618 08011G17KT P6SM BKN100 FM252300 08007KT P6SM BKN100 FM260600 04007KT P6SM OVC050", "KILN 251729Z 2518/2618 20007KT P6SM BKN060 FM252100 25007KT P6SM VCSH BKN060 FM260200 36004KT P6SM BKN045 FM261200 36005KT P6SM BKN035", "KIND 252004Z 2520/2624 29010KT P6SM VCSH FEW035 BKN050 FM252200 32009KT P6SM FEW040 BKN050 FM260100 35008KT P6SM SCT060", "KINK 251740Z 2518/2618 24008KT P6SM SCT250 FM260200 15009KT P6SM SCT250", "KINL 251722Z 2517/2618 05004KT P6SM BKN050 FM260100 00000KT P6SM SKC FM261500 19005KT P6SM SCT250", "TAF KINS 252100Z 2521/2703 36012KT 9999 SKC QNH2991INS TEMPO 2521/2602 36013G22KT 510009 BECMG 2601/2602 02014KT 9999 FEW250 QNH2993INS BECMG 2603/2604 06009KT 9999 SCT250 QNH2998INS BECMG 2606/2607 VRB06KT 9999 SKC QNH3005INS TX24/2523Z TN14/2613Z", "KINT 251729Z 2518/2618 VRB05KT P6SM FEW050 FEW250 FM260300 11003KT P6SM SCT050 BKN180 FM261600 10004KT P6SM BKN100", "KINW 251722Z 2518/2618 27020G35KT P6SM FEW200 TEMPO 2519/2521 4SM BLDU FEW200 FM252300 29023G37KT P6SM FEW200 FM260100 31012G22KT P6SM SCT250 FM260300 28010KT P6SM SCT250", "KIPL 251720Z 2518/2618 VRB04KT P6SM FEW250 FM260200 25007KT P6SM FEW250 FM260700 VRB04KT P6SM FEW250", "KIPT 251720Z 2518/2618 24007KT P6SM BKN080 FM252200 VRB03KT P6SM BKN070 FM261100 13006KT P6SM VCSH BKN015 FM261600 24004KT P6SM OVC025", "KISM 252114Z 2521/2618 13008KT P6SM TSRA SCT030CB BKN060 TEMPO 2521/2523 32014G22KT 2SM +TSRA BR BKN020CB OVC040 FM260000 VRB05KT P6SM VCSH SCT035 BKN080 FM260200 07006KT P6SM SCT030 BKN060 FM261400 11006KT P6SM SCT035 BKN100", "KISO 251832Z 2519/2618 08005KT P6SM FEW035 SCT190 FM260000 07004KT P6SM BKN100 FM261300 09007KT P6SM SCT150 AMD LTD TO CLD VIS AND WIND", "KISP 252023Z 2520/2618 19007KT P6SM BKN050 FM260000 VRB05KT P6SM FEW050 FM261400 15009KT P6SM BKN050", "KITH 251729Z 2518/2618 28006KT P6SM BKN050 FM260000 00000KT P6SM SCT070 FM260800 13004KT P6SM BKN080 FM261400 20007KT 5SM -SHRA BR BKN025", "KIWA 251720Z 2518/2618 15007KT P6SM FEW250 FM251830 23008KT P6SM FEW250 FM252000 26012G20KT P6SM SKC FM260200 27008KT P6SM FEW250 FM260800 11007KT P6SM FEW250", "KIWD 251720Z 2518/2618 36008KT P6SM BKN060 FM260000 VRB02KT P6SM SCT250", "KIXD 251720Z 2518/2618 18005KT P6SM SCT050 FM260100 09010KT P6SM BKN200", "KJAC 251721Z 2518/2618 01012G20KT P6SM VCSH FEW050 FM260100 01009KT P6SM SCT100 FM260700 01006KT P6SM SCT080 FM261700 23007KT P6SM FEW060", "KJAN 251720Z 2518/2618 07005KT P6SM FEW220", "KJAX 251726Z 2518/2618 08011KT P6SM VCSH SCT030 BKN090 TEMPO 2520/2523 VRB10G20KT 3SM TSRA OVC030CB FM260200 05003KT P6SM SCT050 BKN120 FM261500 06009KT P6SM SCT030", "KJBR 251738Z 2518/2618 08006KT P6SM SCT100 FM260300 VRB03KT P6SM VCSH BKN080 PROB30 2605/2611 6SM -SHRA BR OVC050 FM261300 07007KT P6SM OVC090", "KJCT 251720Z 2518/2618 14007KT P6SM BKN020 FM251900 15009KT P6SM OVC030 FM252100 15010KT P6SM BKN040 FM260300 15011KT P6SM OVC018 FM261700 17011KT P6SM BKN035", "KJEF 251727Z 2518/2618 VRB04KT P6SM SCT060 FM260200 06009KT P6SM BKN130 FM261200 09012KT P6SM SCT250", "KJER 251821Z 2518/2618 27014G22KT P6SM SKC FM260200 23010KT P6SM SKC FM261200 18005KT P6SM SKC", "KJFK 252018Z 2520/2624 21010KT P6SM BKN090 FM260000 24008KT P6SM FEW050 FM260300 31005KT P6SM FEW100 FM260500 36005KT P6SM SCT100 FM260900 03005KT P6SM BKN100 FM261400 15010KT P6SM BKN050", "KJHW 252120Z 2521/2618 31010KT P6SM VCSH BKN040 FM260100 33005KT 6SM -RA BR OVC025 FM260300 VRB03KT 4SM -RASN OVC015 FM260600 VRB03KT 4SM -RASN OVC007 FM261000 VRB03KT P6SM VCSH OVC003", "KJKA 251736Z 2518/2618 14007KT P6SM FEW050 SCT250 FM252100 19008KT P6SM SCT050 BKN120 FM260100 VRB04KT P6SM SCT120 FM261500 11005KT P6SM BKN120", "KJKL 251720Z 2518/2618 VRB03KT P6SM SCT200", "KJLN 251731Z 2518/2618 13007KT P6SM SCT050 FM260000 VRB05KT P6SM VCSH OVC035 FM260600 VRB04KT P6SM BKN045 FM261500 10013G22KT P6SM OVC050", "KJMS 251738Z 2518/2618 11010KT P6SM FEW200 FM260600 16009KT P6SM SCT150 FM261300 17015KT P6SM BKN050 FM261600 18018G27KT P6SM VCSH BKN070", "KJST 251720Z 2518/2618 20005KT P6SM BKN045 FM260500 20006KT P6SM OVC025 FM261100 28005KT P6SM OVC015", "KJVL 251941Z 2520/2618 07008KT P6SM BKN035 FM252200 04006KT P6SM BKN045 FM260200 VRB03KT P6SM FEW040 FM261600 VRB04KT P6SM BKN030", "KJXN 251726Z 2518/2618 VRB03KT P6SM OVC008 FM252000 VRB03KT P6SM OVC015 FM252100 VRB03KT P6SM OVC025 FM252200 36005KT P6SM BKN035 FM260100 34004KT P6SM SKC FM260900 VRB03KT 4SM BR OVC015 FM261400 33006KT P6SM FEW015 SCT035", "KJZI 251828Z 2518/2618 09012G21KT P6SM VCSH BKN050 BKN200 FM260000 06005KT P6SM BKN070 FM260800 03004KT P6SM SCT012 OVC070 FM261400 05012KT P6SM BKN025", "KLAF 251720Z 2518/2618 23010KT P6SM VCSH OVC045 FM252000 35009KT P6SM BKN050", "KLAL 252019Z 2520/2618 33005KT P6SM VCTS SCT040CB BKN120 TEMPO 2520/2521 07006KT 5SM TSRA BR BKN025CB FM260200 VRB03KT P6SM SCT250 FM261400 16006KT P6SM SCT030 BKN250", "KLAN 251958Z 2520/2618 VRB03KT P6SM SCT035 BKN070 FM260000 34004KT P6SM SKC FM260900 VRB03KT 4SM BR OVC015 FM261400 33006KT P6SM FEW015 SCT035", "KLAR 252005Z 2520/2618 02015G25KT P6SM VCSH BKN035 FM260100 07012KT 3SM -SHSN BR OVC015 FM260800 10005KT 1/2SM FG OVC005 FM261400 VRB03KT 4SM BR SCT005 OVC015", "KLAS 252055Z 2521/2624 34014G22KT P6SM SKC FM252200 02013G20KT P6SM SKC FM260200 05009KT P6SM SKC FM260500 23006KT P6SM SKC FM261500 01008KT P6SM SKC FM261800 05009KT P6SM SKC", "KLAW 251738Z 2518/2618 12013KT P6SM VCSH OVC015 TEMPO 2521/2601 1SM TSRA BKN008CB FM260100 10012KT 5SM -SHRA BR BKN015 FM261000 09013KT 2SM -TSRA OVC007CB AMD NOT SKED", "KLAX 252101Z 2521/2624 24012KT P6SM FEW014 FEW030 FM260500 VRB03KT P6SM BKN015 FM261000 VRB03KT P6SM OVC018 FM261700 VRB03KT P6SM FEW022 FM262000 26012KT P6SM SKC", "KLBB 251743Z 2518/2618 18011KT P6SM BKN035 FM260000 15011KT P6SM VCTS SCT100CB FM260400 10015KT P6SM BKN050 PROB30 2604/2610 4SM TSRA BR OVC035CB FM261100 05011KT P6SM BKN035 FM261500 30011KT P6SM SCT100", "KLBE 251720Z 2518/2618 27005KT P6SM FEW150 FM261200 22004KT P6SM BKN025 FM261500 28007KT P6SM BKN025 FM261600 28007KT P6SM BKN035", "KLBF 251839Z 2519/2618 12012G22KT P6SM SCT025 BKN050 FM252100 13012G22KT P6SM VCSH OVC025 FM260100 11010KT P6SM -SHRA OVC020 FM260600 08006KT 5SM BR VCSH BKN011 TEMPO 2608/2612 BKN008 FM261200 07005KT 5SM BR BKN012 FM261600 11006KT P6SM BKN035", "KLBL 252048Z 2521/2618 12015KT 4SM BR OVC002 FM260300 10015G24KT P6SM SHRA VCTS OVC004CB FM260600 10014KT 4SM SHRA BR OVC003 FM261200 08013KT 1SM SHRA BR OVC002", "KLBT 251723Z 2518/2618 07007KT P6SM BKN100 FM252300 04005KT P6SM OVC050", "KLBX 251737Z 2518/2618 14012KT P6SM SCT025 BKN080 FM260100 11008KT P6SM VCSH BKN035 FM260600 11009KT P6SM VCTS BKN030CB FM261000 14009KT P6SM FEW007 BKN015 FM261500 15009KT P6SM BKN030", "KLCH 251726Z 2518/2618 08008KT P6SM SCT050 BKN100 FM260900 10009KT P6SM BKN025 TEMPO 2610/2614 BKN015 FM261500 13009KT P6SM BKN030", "KLCK 251729Z 2518/2618 22006KT P6SM BKN060 FM260000 28003KT P6SM VCSH BKN045 FM260700 33003KT P6SM BKN035 FM260900 33004KT P6SM BKN025 FM261300 35005KT P6SM BKN035", "KLEB 251720Z 2518/2618 24010KT P6SM BKN045 BKN060 TEMPO 2518/2522 P6SM -SHRA OVC035 FM260700 02001KT 2SM BR SCT025 BKN040 FM260900 34001KT 3/4SM BR SCT025 BKN040 FM261100 36001KT P6SM SCT025 BKN040 FM261200 00000KT P6SM OVC050 FM261300 19001KT P6SM BKN100", "KLEE 252055Z 2521/2618 VRB05KT P6SM SCT035 BKN050 FM252300 32006KT P6SM SCT040 BKN100 FM260200 06006KT P6SM SCT025 BKN060 FM261400 12005KT P6SM SCT040 SCT080", "KLEX 251728Z 2518/2618 21006KT P6SM SCT250 FM260000 VRB03KT P6SM SKC FM261400 34006KT P6SM SCT200", "TAF KLFI 251700Z 2517/2623 06012KT 9999 SCT190 QNH3016INS BECMG 2607/2608 19015KT 9999 FEW230 QNH3015INS TX19/2519Z TN11/2610Z", "KLFK 251740Z 2518/2618 08006KT P6SM VCSH BKN060 TEMPO 2518/2520 5SM -RA BR BKN050 FM252100 08006KT P6SM BKN050 FM260000 09005KT P6SM SCT050 BKN090 FM260700 09006KT P6SM VCSH BKN023 FM261200 09006KT P6SM BKN023", "KLFT 251726Z 2518/2618 07007KT P6SM SCT070 BKN120 FM260000 VRB05KT P6SM SCT100 BKN200 FM261400 12007KT P6SM SCT050 OVC100", "KLGA 251942Z 2520/2624 31007KT P6SM OVC080 FM260300 34005KT P6SM FEW100 FM260600 01005KT P6SM SCT100 FM261000 06005KT P6SM BKN080 FM261500 08007KT P6SM BKN060 FM261700 15007KT P6SM BKN050", "KLGB 252101Z 2521/2618 22008KT P6SM OVC026 FM260200 28008KT P6SM SKC FM260600 VRB03KT P6SM BKN015 FM261000 VRB03KT P6SM OVC018", "KLGU 251720Z 2518/2618 34007KT P6SM VCSH SCT040 OVC050 FM260000 VRB04KT P6SM SCT090", "KLIT 251720Z 2518/2618 13008KT P6SM VCSH SCT025 BKN040 OVC080 FM252200 05008KT 6SM -SHRA OVC040 FM260600 06010KT 6SM BR VCSH OVC030 FM261400 07010KT 6SM -SHRA BR OVC025", "KLLQ 251720Z 2518/2618 06008KT P6SM VCSH OVC080 FM260300 05006KT P6SM VCSH BKN050 OVC100 FM261600 08006KT P6SM VCSH OVC025", "KLMT 251730Z 2518/2618 VRB05KT P6SM SKC FM252200 33008G15KT P6SM SKC FM260200 32006KT P6SM SKC", "KLND 251721Z 2518/2618 01008KT 5SM -RA SCT010 OVC020 FM252200 32008KT 5SM -SHRA BKN010 OVC020 FM260400 26007KT P6SM SCT060 FM260700 VRB05KT P6SM FEW070", "KLNK 251728Z 2518/2618 10008KT P6SM BKN050 FM260500 09008KT P6SM SCT120", "KLNS 251720Z 2518/2618 29007KT P6SM BKN080 FM260400 00000KT P6SM BKN250 FM261400 21004KT P6SM OVC050", "KLOZ 251720Z 2518/2618 VRB04KT P6SM SCT200", "KLRD 251728Z 2518/2618 15008KT P6SM BKN020 FM260100 13010KT P6SM SCT020 FM260900 14007KT 6SM BR OVC012 FM261300 15010KT P6SM BKN035", "TAF KLRF 251500Z 2515/2621 VRB06KT 8000 -SHRA BKN050 OVC080 QNH3005INS BECMG 2516/2517 VRB06KT 9999 NSW BKN060 OVC080 QNH3005INS BECMG 2522/2523 VRB06KT 6000 -SHRA BR BKN040 OVC060 QNH3003INS BECMG 2604/2605 VRB06KT 9999 NSW OVC060 QNH3005INS BECMG 2610/2611 10006KT 8000 -SHRA BKN050 OVC070 QNH3007INS BECMG 2615/2616 09012KT 9999 NSW BKN040 OVC055 QNH2998INS TX17/2521Z TN10/2610Z", "KLRU 251720Z 2518/2618 25015G25KT P6SM FEW250 FM252100 26019G29KT P6SM SCT250 FM260600 27012KT P6SM SCT250", "KLSE 251730Z 2518/2618 03006KT P6SM SCT040 FM260100 VRB03KT P6SM SCT100", "TAF KLSF 251300Z 2513/2619 03004KT 9999 FEW065 SCT100 QNH3003INS BECMG 2514/2515 05007KT 9999 FEW040 SCT060 QNH2995INS BECMG 2522/2523 36003KT 9999 FEW035 QNH2996INS BECMG 2606/2607 05004KT 4800 BR FEW007 SCT020 SCT030 QNH2999INS TEMPO 2610/2613 BKN007 BECMG 2614/2615 09006KT 9999 NSW FEW012 SCT020 BKN030 QNH3001INS BECMG 2618/2619 10007KT 9999 VCSH SCT040 SCT085 QNH2995INS TX27/2521Z TN11/2611Z", "TAF KLSV 251500Z 2515/2621 02015G28KT 9999 SKC 520009 QNH2986INS BECMG 2603/2604 03012G18KT 9999 FEW250 QNH2984INS BECMG 2612/2613 35010G15KT 9999 SKC QNH2996INS BECMG 2616/2617 04010G20KT 9999 SKC 510009 QNH3001INS TX28/2522Z TN15/2613Z", "TAF KLTS 251700Z 2517/2623 13015G25KT 9999 VCSH SCT012 510023 QNH2985INS TEMPO 2517/2519 12012G20KT 9000 -SHRA BKN012 TEMPO 2523/2602 09025G35KT 8000 -TSRA OVC007CB BECMG 2601/2602 08010KT 9999 VCSH OVC005 QNH2980INS TEMPO 2606/2611 08025G35KT 3200 TSRA BR OVC004CB BECMG 2614/2615 01012G18KT 9000 -SHRA BKN006 510251 QNH2985INS TX20/2521Z TN10/2612Z", "TAF KLUF 252000Z 2520/2702 22010G20KT 9999 SKC QNH2964INS TEMPO 2521/2601 24015G25KT 520007 BECMG 2602/2603 29010G15KT 9999 FEW100 FEW250 QNH2965INS WND VRB06KT AFT 2605 BECMG 2608/2609 04012KT 9999 FEW250 QNH2982INS TEMPO 2614/2617 04012G20KT BECMG 2617/2618 10009KT 9999 SKC QNH2975INS BECMG 2623/2624 22012KT 9999 SKC QNH2974INS TX33/2523Z TN15/2613Z", "KLUK 251729Z 2518/2618 19008KT P6SM BKN060 FM252100 25009KT P6SM SCT060 FM260000 29004KT P6SM BKN060 FM261600 35006KT P6SM FEW250", "KLVK 251724Z 2518/2618 VRB03KT P6SM FEW250 FM251900 34007KT P6SM SKC FM252300 28010KT P6SM SKC FM260500 VRB03KT P6SM SKC", "KLVM 251721Z 2518/2618 27005KT P6SM FEW027 FM261200 26014KT P6SM FEW100 BKN250", "KLVS 251742Z 2518/2618 24021G33KT P6SM VCSH SCT060 BKN200 TEMPO 2522/2601 VRB25G40KT 6SM -TSRA BKN060CB FM260100 27011G19KT P6SM VCSH BKN090 FM260400 28008KT P6SM SCT100 FM261200 01012G20KT P6SM BKN090", "KLWB 251733Z 2518/2618 23005KT P6SM BKN200 FM260900 VRB04KT P6SM FEW250 FM261500 24007KT P6SM FEW250", "KLWS 251720Z 2518/2618 14005KT P6SM SCT090 FM252300 24004KT P6SM SCT070 SCT120 SCT200 FM260300 17005KT P6SM FEW200 FM260600 11003KT P6SM BKN250", "KLWT 252112Z 2521/2618 30007KT P6SM VCTS FEW050CB FM252200 28011KT P6SM SCT090 SCT250 TEMPO 2522/2602 4SM -TSRA OVC025CB FM260700 29014G22KT P6SM BKN090", "KLYH 251733Z 2518/2618 11005KT P6SM SCT250 FM261500 21006KT P6SM BKN250 FM261700 22007KT P6SM BKN200", "KMAF 251740Z 2518/2618 24010KT P6SM SCT250 FM260200 16015KT P6SM SCT250", "KMBG 251724Z 2518/2618 13016KT P6SM BKN250 FM260000 13009KT P6SM OVC100 FM261600 20013G20KT P6SM SCT100", "KMBL 251724Z 2518/2618 34012KT P6SM FEW017 FEW200 TEMPO 2518/2521 BKN017 FM252100 34012KT P6SM FEW050 FEW200 FM260500 01007KT P6SM FEW240 FM261500 34008KT P6SM SCT250", "KMBS 251743Z 2518/2618 22005KT P6SM BKN050 FM252100 30005KT P6SM BKN050 TEMPO 2521/2601 5SM RA OVC025 FM260100 33005KT P6SM BKN025 OVC040 FM260400 36005KT 4SM BR SCT007 OVC015 FM261400 33007KT P6SM SCT025 BKN040", "KMCB 251733Z 2518/2618 VRB04KT P6SM BKN035 FM261400 09007KT P6SM FEW045 FEW100", "KMCC 251727Z 2518/2618 33011KT P6SM FEW250 FM260200 VRB04KT P6SM SKC", "KMCE 251720Z 2518/2618 32009KT P6SM FEW250", "TAF AMD KMCF 252049Z 2520/2623 VRB06KT 9999 SCT040 QNH2986INS TEMPO 2520/2522 VRB10G15KT 9000 -TSRA FEW030CB SCT060 BECMG 2604/2605 VRB06KT 4800 BR SCT005 BKN010 BKN020 QNH2990INS BECMG 2615/2616 VRB06KT 9999 NSW SCT010 SCT040 QNH2990INS TX29/2520Z TN20/2611Z", "KMCI 251720Z 2518/2618 14005KT P6SM SCT050 FM260100 09010KT P6SM BKN200", "KMCK 251729Z 2518/2618 13011KT P6SM SCT030 OVC060 TEMPO 2518/2521 BKN025 FM252100 11015KT P6SM VCSH OVC025 FM261500 07010KT P6SM SCT025", "KMCN 251720Z 2518/2618 06005KT P6SM SCT060 FM260900 05005KT P6SM BKN025 FM261300 07006KT P6SM BKN015 FM261500 08006KT P6SM BKN025 FM261700 09005KT P6SM BKN035", "KMCO 252058Z 2521/2624 09007KT P6SM VCTS SCT025CB BKN040 TEMPO 2521/2523 -TSRA BKN035CB BKN060 FM260100 06006KT P6SM SCT025 BKN060 FM261400 04007KT P6SM SCT035 SCT070", "KMCW 251736Z 2518/2618 05010KT P6SM SKC FM260200 08003KT P6SM SCT250 FM261300 14007KT P6SM SCT120", "KMDT 251720Z 2518/2618 29005KT P6SM BKN050 FM260900 VRB02KT P6SM OVC050", "KMDW 252101Z 2521/2624 03012KT P6SM SCT020 BKN040 TEMPO 2521/2522 BKN020 FM261300 05008KT P6SM SCT050", "KMEI 251720Z 2518/2618 VRB04KT P6SM SKC", "KMEM 252051Z 2521/2624 09006KT P6SM BKN080 FM260300 06005KT P6SM VCSH BKN070 OVC100 FM261400 07007KT P6SM BKN070 FM261900 08009KT P6SM -SHRA OVC050", "KMER 251720Z 2518/2618 33009KT P6SM FEW250", "KMEV 251720Z 2518/2618 VRB05KT P6SM SKC FM252100 02008KT P6SM FEW250 FM260400 VRB04KT P6SM SKC", "KMFD 251740Z 2518/2618 22008KT P6SM VCSH BKN050 FM260000 32004KT P6SM BKN035 FM260900 36005KT P6SM BKN008 FM261500 36005KT P6SM SCT030", "KMFE 251720Z 2518/2618 VRB05KT P6SM BKN015 FM251900 09006KT P6SM SCT045 SCT080 FM260700 13005KT P6SM BKN015 TEMPO 2608/2612 4SM BR OVC008 FM261400 15009KT P6SM SCT020 SCT035", "KMFR 251730Z 2518/2618 31004KT P6SM SKC", "TAF KMGE 252100Z 2521/2703 VRB05KT 9999 SCT070 BKN120 BKN250 QNH3001INS BECMG 2605/2606 06007KT 9999 VCSH BKN015 OVC050 QNH3004INS BECMG 2613/2614 07009KT 9000 -SHRA BR OVC015 QNH3007INS BECMG 2616/2617 08007KT 9999 VCSH BKN020 BKN050 BKN120 QNH3003INS BECMG 2620/2621 09007KT 9999 NSW SCT050 SCT120 QNH3004INS TX21/2521Z TN11/2612Z LAST NO AMDS AFT 2603 NEXT 2611", "KMGM 251720Z 2518/2618 02006KT P6SM FEW250 FM260000 VRB03KT P6SM SCT250 FM261300 09006KT P6SM SCT110", "KMGW 251720Z 2518/2618 29004KT P6SM FEW250 FM260400 12003KT P6SM VCSH BKN080 FM261300 26005KT P6SM BKN040 FM261700 28007KT P6SM BKN050", "KMHK 251720Z 2518/2618 14008KT P6SM FEW025 BKN045 FM260100 09005KT P6SM BKN090", "KMHR 251727Z 2518/2618 33009KT P6SM FEW250 FM260200 VRB04KT P6SM SKC", "KMHT 252118Z 2521/2618 35007KT P6SM -RA VCSH SCT035 BKN050 BKN090 TEMPO 2521/2522 3SM TSRAGR OVC025CB FM260000 VRB03KT 5SM BR OVC019 FM260800 00000KT 1 1/2SM BR OVC004 FM261200 36004KT P6SM BKN003 FM261400 07002KT P6SM BKN015", "KMIA 252054Z 2521/2624 15010KT P6SM VCTS SCT025CB BKN050 TEMPO 2523/2601 VRB12G20KT 3SM TSRA SCT020CB SCT030 BKN050 FM260200 VRB04KT P6SM VCSH SCT030 BKN050 FM260600 VRB04KT P6SM SCT030 BKN050 FM261600 13010KT P6SM SCT030 BKN050 FM261800 14012KT P6SM VCTS SCT025CB BKN050", "TAF KMIB 251700Z 2517/2623 18010G15KT 9999 SCT100 QNH2990INS BECMG 2611/2612 21010G20KT 8000 -SHRA BKN030 BKN060 620309 QNH2986INS BECMG 2614/2615 24015G25KT 9000 -SHRA BKN015 BKN050 620159 QNH2984INS BECMG 2616/2617 25015G25KT 9999 NSW SCT020 BKN060 620604 QNH2980INS BECMG 2618/2619 25010G15KT 9999 FEW030 SCT100 QNH2981INS TX11/2522Z TNM01/2607Z", "KMIV 251726Z 2518/2618 31009KT P6SM SCT060 FM252300 VRB02KT P6SM SKC FM260800 00000KT P6SM BKN120 FM261400 16005KT P6SM BKN080 FM261700 19007KT P6SM BKN060", "KMKC 251720Z 2518/2618 VRB05KT P6SM SCT050 FM260100 09010KT P6SM BKN200", "KMKE 251941Z 2520/2624 04010KT P6SM FEW050 FM260200 01005KT P6SM FEW050 FM261500 06006KT P6SM FEW030 FM261800 10008KT P6SM SCT040", "KMKG 251726Z 2518/2618 30010KT P6SM BKN035 FM260000 35004KT P6SM SKC FM261500 32008KT P6SM FEW035", "KMKL 251738Z 2518/2618 08006KT P6SM SCT120 FM260500 00000KT P6SM VCSH BKN070 OVC100 PROB30 2606/2612 6SM -SHRA BR OVC050 FM261500 06004KT P6SM BKN060", "KMKT 251937Z 2520/2618 06009KT P6SM SKC FM260100 09004KT P6SM SKC FM261400 16005KT P6SM SKC", "KMLB 251740Z 2518/2618 12012G20KT P6SM VCTS SCT025CB BKN050 FM252100 10011KT P6SM VCSH SCT035 BKN050 FM260100 10005KT P6SM SCT025 BKN060", "KMLC 251932Z 2520/2618 08006KT 6SM -SHRA OVC045 FM260000 09008KT 6SM -SHRA VCTS OVC040CB FM260600 08009KT P6SM VCSH OVC025 FM261400 06007KT 3SM -SHRA VCTS OVC015CB", "KMLI 251909Z 2519/2618 04008KT P6SM BKN035 FM260000 VRB03KT P6SM SKC FM261400 09006KT P6SM SKC", "KMLS 251721Z 2518/2618 14007KT P6SM SKC FM260300 16007KT P6SM SCT250 FM261000 20007KT P6SM SCT100", "KMLU 251740Z 2518/2618 08006KT P6SM BKN110 BKN250 FM260000 05005KT P6SM BKN110 BKN250", "KMMH 251720Z 2518/2618 33008KT P6SM FEW250 FM260300 29005KT P6SM SKC", "TAF KMMT 251500Z 2515/2621 06012KT 9999 BKN045 BKN080 BKN180 QNH3010INS BECMG 2523/2524 04006KT 9999 BKN040 OVC055 QNH3012INS BECMG 2613/2614 04010KT 9999 BKN025 OVC040 QNH3005INS TX21/2520Z TN12/2611Z", "KMOB 251736Z 2518/2618 VRB04KT P6SM FEW050 FEW200 FM251900 06007KT P6SM SCT050 SCT100 FM260000 03004KT P6SM SCT050 BKN120 FM261200 07005KT P6SM BKN120", "KMOD 251727Z 2518/2618 32011KT P6SM FEW250 FM252200 32008KT P6SM SKC", "KMOT 251738Z 2518/2618 13010KT P6SM FEW250 FM252200 15013KT P6SM SCT200 FM260800 19014KT P6SM VCSH BKN090 FM261300 22016G24KT P6SM BKN060", "KMPV 251741Z 2518/2618 00000KT P6SM VCSH SCT035 OVC050 TEMPO 2518/2521 5SM -SHRA OVC035 FM252100 VRB03KT 5SM -SHRA BKN090 FM252300 VRB04KT P6SM VCSH BKN035 FM260500 00000KT 5SM BR SCT008 BKN025", "KMQY 251720Z 2518/2618 12006KT P6SM SCT250 FM260100 05003KT P6SM OVC250 FM261400 09006KT P6SM OVC100", "KMRB 251723Z 2518/2618 28009KT P6SM SCT070 SCT250 FM252200 VRB04KT P6SM FEW070 SCT250 FM260200 00000KT P6SM FEW080 SCT250 FM261400 29005KT P6SM FEW050 SCT250", "KMRY 251724Z 2518/2618 29007KT P6SM FEW015 FM260500 24005KT P6SM SCT010 FM260800 VRB03KT P6SM BKN010 FM261700 VRB03KT P6SM SCT010", "KMSL 251720Z 2518/2618 VRB04KT P6SM SCT120 BKN200 FM260500 VRB03KT P6SM VCSH SCT040 OVC060 FM261300 07005KT 6SM -RA BR BKN010 OVC020", "KMSN 251941Z 2520/2618 06008KT P6SM BKN035 FM252200 03005KT P6SM BKN045 FM260200 VRB03KT P6SM SCT040 FM261600 VRB03KT P6SM BKN030", "KMSO 251724Z 2518/2618 25008KT P6SM SCT060 FM252200 30010G18KT P6SM BKN150 FM260400 10005KT P6SM BKN150", "KMSP 252100Z 2521/2624 02007G15KT P6SM SCT060 FM260100 06004KT P6SM SKC FM261500 15007KT P6SM SKC", "KMSS 251741Z 2518/2618 24008G15KT P6SM VCSH SCT035 OVC070 FM252100 24006KT P6SM SCT070 FM260400 00000KT P6SM FEW060 FM261600 VRB04KT P6SM VCSH OVC015", "KMSY 251733Z 2518/2624 04005KT P6SM FEW030 FEW250 FM252300 07006KT P6SM FEW045 FEW110 FM260000 10007KT P6SM FEW040 SCT250", "TAF AMD KMTC 251937Z 2519/2701 17009KT 3200 -RA OVC008 QNH3012INS BECMG 2602/2603 20006KT 9999 NSW BKN010 QNH3011INS BECMG 2607/2608 VRB06KT 9000 BR OVC004 QNH3015INS BECMG 2612/2613 VRB06KT 9999 NSW OVC012 QNH3019INS BECMG 2618/2619 VRB06KT 9999 SCT040 OVC050 QNH3020INS TX09/2520Z TNM01/2611Z LAST NO AMDS AFT 2603 NEXT 2611", "KMTH 251724Z 2518/2618 18007KT P6SM FEW025 BKN100 FM252200 VRB04KT P6SM SCT020", "KMTJ 251740Z 2518/2618 30015KT 6SM -SHRA BR VCTS SCT015CB BKN030 OVC050 TEMPO 2518/2520 4SM -TSRA BR BKN015CB FM252000 28011KT P6SM VCTS BKN020CB FM252200 29012KT P6SM VCSH BKN040 FM260200 30010KT P6SM VCTS BKN030CB FM260500 31010KT P6SM VCSH BKN010 FM260700 22008KT P6SM BKN008", "KMTN 251723Z 2518/2618 29007KT P6SM BKN070 FM252300 VRB03KT P6SM FEW080 SCT250 FM261200 17004KT P6SM SCT050 SCT250 FM261700 21006KT P6SM BKN060", "KMTW 251954Z 2520/2618 14009KT P6SM BKN026 OVC030 FM252200 05009KT P6SM SCT035 FM260100 01004KT P6SM SKC FM261500 09006KT P6SM SCT035", "TAF KMUI 251900Z 2519/2701 34006KT 9999 FEW060 QNH3014INS BECMG 2608/2609 12006KT 9999 OVC030 630408 QNH3012INS BECMG 2617/2618 18010G15KT 9999 OVC040 630408 QNH3014INS TEMPO 2618/2619 -TSRA OVC040CB BECMG 2620/2621 VRB05KT 9999 OVC040 630408 QNH3015INS TX14/2521Z TN03/2611Z LAST NO AMDS AFT 2621 NEXT 2603", "TAF KMUO 251800Z 2518/2624 32012G20KT 9999 FEW060 SCT200 QNH3004INS TEMPO 2518/2523 33015G25KT 510009 BECMG 2602/2603 32009KT 9999 FEW100 QNH3010INS BECMG 2613/2614 VRB06KT 9999 FEW080 SCT200 QNH3015INS TX18/2523Z TN02/2612Z", "KMVN 251722Z 2518/2618 21007KT P6SM SKC FM260100 00000KT P6SM SCT250 FM261500 06007KT P6SM SCT250", "KMWH 251720Z 2518/2618 22004KT P6SM SCT200 FM252000 21007KT P6SM FEW060 SCT200 FM260600 VRB03KT P6SM FEW200 FM261100 34004KT P6SM FEW200", "TAF KMXF 251900Z 2519/2701 04006KT 9999 SCT100 QNH2998INS BECMG 2610/2611 08006KT 8000 BR OVC007 QNH3002INS BECMG 2614/2615 08006KT 9999 NSW OVC015 QNH3007INS BECMG 2615/2616 05006KT 9999 SCT030 BKN080 QNH2997INS TX25/2619Z TN13/2609Z LAST NO AMDS AFT 2603 NEXT 2611", "KMYL 251720Z 2518/2618 35008KT P6SM BKN040 FM260200 VRB03KT P6SM SKC", "KMYR 251723Z 2518/2618 09011G17KT P6SM BKN060 FM260200 05009KT P6SM OVC060 FM261400 05012KT P6SM OVC035", "TAF KNBC 2521/2621 08010G20KT 9999 BKN030 BKN050 QNH2999INS TEMPO 2521/2602 6000 -SHRA BKN020 OVC050 FM260200 06010G20KT 9999 BKN040 BKN080 QNH3001INS BECMG 2615/2617 07012G22KT 4800 TSRA BKN020 OVC050CB QNH2999INS T14/2611Z T24/2618Z", "TAF KNBG 2515/2615 05010KT 9999 BKN140 BKN250 QNH2995INS BECMG 2517/2519 09010G15KT 9999 SCT035 BKN090 BKN250 QNH2991INS BECMG 2523/2601 09010KT 9999 FEW035 BKN080 BKN250 QNH2992INS BECMG 2505/2507 10008KT 9999 SCT013 BKN080 BKN250 QNH2989INS TX25/2519Z TN14/2610Z FN20040", "TAF KNCA 2521/2621 07008KT 9999 BKN100 QNH3010INS BECMG 2606/2608 02006KT 9999 BKN030 BKN100 QNH3012INS FM261400 04010G20KT 9999 SCT030 BKN100 QNH3008INS T12/2610Z T21/2620Z", "KNEW 251733Z 2518/2618 04010KT P6SM SKC FM252100 07009KT P6SM FEW040 SCT110 FM260600 10006KT P6SM FEW040 SCT250", "TAF KNFG 2521/2621 28006KT 9999 OVC015 QNH2989INS BECMG 2522/2600 VRB06KT SCT020 QNH2988INS BECMG 2603/2605 OVC020 QNH2988INS FM261630 VRB05KT 9999 FEW020 QNH2997INS BECMG 2618/2620 25008KT QNH2995INS T12/2613Z T22/2620Z", "TAF KNFL 2515/2615 01009KT 9999 FEW240 QNH3005INS FM260400 VRB06KT 9999 SKC QNH3010INS TX20/2523Z TN04/2614Z FS30003", "TAF KNFW 2515/2615 12012KT VCSH 9999 SCT025 OVC045 QNH2994INS FM251800 12012G18KT 9999 SCT030 OVC050 QNH2982INS BECMG 2601/2603 12015KT 9999 -SHRA VCTS BKN020CB OVC035 QNH2984INS TEMPO 2604/2608 VRB15G22KT 8000 -TSRA BR BKN012CB OVC018 BECMG 2609/2611 10012G18KT 9000 BR BKN015 OVC025 QNH2988INS TX18/2521Z TN13/2611Z FN20046", "TAF KNGP 2515/2615 12012KT 9999 VCTS FEW015CB SCT030 BKN080 QNH2986INS TEMPO 2515/2518 8000 -SHRA SCT015CB BKN030 BKN080 FM251800 12014G20KT 9999 VCTS SCT020CB SCT035 BKN080 BKN250 QNH2978INS TEMPO 2518/2521 VRB15G25KT 3200 +TSRA BR BKN018CB OVC030 FM252200 12016G24KT 9999 SCT018 BKN045 BKN080 BKN250 QNH2977INS FM260100 13013G19KT 9999 SCT012 BKN030 BKN250 QNH2979INS TEMPO 2603/2609 8000 BR BKN012 OVC030 FM260900 14010KT 4800 BR BKN008 OVC022 QNH2978INS FM261200 15008KT 6000 BR VCSH SCT008 BKN015 BKN250 QNH2979INS TX28/2519Z TN23/2612Z FN20044", "TAF KNGU 2515/2615 05010KT 9999 SCT035 SCT250 QNH3010INS TEMPO 2517/2523 05010G18KT BKN035 BKN250 FM252300 VRB06KT 9999 BKN040 BKN250 QNH3015INS FM261200 10010KT 9999 BKN070 BKN250 QNH3020INS TX18/2519Z TN09/2609Z FN20067", "TAF KNHK 2515/2615 05009KT 9999 SCT070 QNH3018INS BECMG 2520/2521 12006KT 9999 SCT060 SCT200 QNH3016INS TX16/2520Z TN07/2610Z FN20065", "TAF AMD KNID 2520/2615 VRB05KT 9999 SKC QNH2985INS BECMG 2521/2523 09008G16KT 9999 FEW250 QNH2981INS WND 060V120 BECMG 2602/2604 20009KT 9999 FEW250 QNH2987INS BECMG 2606/2608 VRB05KT 9999 SKC QNH2990INS T32/2523Z T12/2613Z AMD 2010", "TAF KNIP 2515/2615 09010KT 9999 VCSH SCT040 BKN080 BKN250 QNH2997INS FM251900 09012KT 9999 VCSH SCT045CB BKN110 BKN250 QNH2994INS TEMPO 2519/2522 VRB15G20KT 6000 -TSRA BR BKN025CB FM252200 09009KT 9999 BKN025 BKN070 OVC100 QNH2995INS FM260400 08006KT 9999 SCT015 BKN025 BKN060 QNH3000INS TX25/2519Z TN18/2611Z FN20083", "TAF KNJK 2515/2615 VRB06KT 9999 FEW250 QNH2976INS FM252000 02006KT 9999 FEW250 QNH2966INS FM260200 32006KT 9999 BKN250 QNH2967INS FM260700 VRB06KT 9999 FEW250 QNH2981INS TX34/2523Z TN16/2613Z FS30130", "TAF KNKT 2515/2615 06010KT 9999 FEW070 SCT220 QNH3010INS TEMPO 2515/2521 05010G20KT BECMG 2603/2605 VRB06KT 9999 BKN100 QNH3016INS T20/2519Z T12/2609Z", "TAF KNKX 2521/2621 29010KT 9999 BKN030 QNH2991INS BECMG 2523/2601 24008KT BKN020 QNH2990INS BECMG 2505/2507 VRB05KT OVC015 QNH2997INS FM260930 VRB05KT 9999 OVC010 QNH2997INS BECMG 2614/2616 SCT020 QNH2998INS BECMG 2618/2620 FEW030 QNH2996INS T18/2522Z T09/2613Z", "TAF KNLC 2515/2615 33005KT 9999 SKC QNH2989INS BECMG 2516/2517 35008KT 9999 SCT260 QNH2982INS TX29/2523Z TN12/2612Z FS30067", "TAF KNMM 2515/2615 11006KT 9999 FEW120 FEW200 522609 523506 QNH3004INS FM251800 06008KT 9999 FEW150 SCT200 522609 523506 QNH2994INS FM260100 VRB04KT 9999 SCT150 SCT200 500000 QNH2996INS TX23/2521Z TN10/2611Z FN20088", "TAF COR KNPA 2515/2615 07010KT 9999 BKN170 BKN250 QNH2996INS FM251800 14010KT 9999 FEW040 SCT170 BKN250 QNH2992INS WND 19008KT AFT 2521 FM260100 05005KT 9999 BKN250 QNH2993INS FM261400 10010KT 9999 SCT015 SCT250 QNH3000INS TX25/2520Z TN16/2612Z COR 1513Z FN20033", "TAF AMD KNQI 2521/2615 13012KT 9999 VCSH SCT025 BKN045 QNH2976INS FM260100 13009KT 9999 BKN015 OVC030 QNH2977INS FM260300 14008KT 9999 BKN009 OVC015 QNH2977INS FM261000 16005KT 8000 BR VCSH SCT008 OVC012 QNH2977INS TX28/2521Z TN21/2612Z AMD 2112 FN20081", "TAF KNQX 2515/2615 13007KT 9000 -SHRA FEW025 BKN060 OVC090 QNH2993INS FM251600 15005KT 9999 FEW025 BKN100 QNH2992INS BECMG 2518/2520 21005KT 9999 SCT024 QNH2986INS FM252300 VRB05KT 9999 SCT024 QNH2986INS TX28/2519Z TN25/2611Z FN20027", "TAF KNRB 2515/2615 09012G18KT 9999 VCSH SCT025 BKN040 BKN120 QNH2995INS FM260100 06009KT 9999 VCSH SCT020 BKN120 BKN250 QNH2995INS TX25/2519Z TN20/2611Z FN20021", "TAF KNSE 2515/2615 VRB06KT 9999 SCT050 BKN150 BKN250 QNH2998INS TEMPO 2515/2519 07009KT SCT035 BKN050 FM251900 05005KT 9999 FEW040 SCT120 BKN250 QNH2991INS FM260400 06006KT 9999 SCT040 BKN100 BKN250 QNH2992INS FM261000 09006KT 9999 SCT015 BKN040 BKN070 QNH2995INS TEMPO 2611/2613 4800 BR SCT003 BKN010 TX27/2519Z TN14/2612Z FN20071", "TAF KNTD 2515/2615 VRB05KT 6000 BR FEW009 OVC011 QNH2988INS FM251700 19007KT 9000 HZ FEW008 OVC015 QNH2986INS FM251830 22008KT 9999 BKN018 QNH2984INS TEMPO 2519/2522 SCT018 FM252200 24010KT 9999 FEW020 QNH2982INS FM260500 VRB05KT 9999 BKN012 QNH2984INS FM261200 15007KT 8000 BR OVC009 QNH2987INS TX17/2522Z TN11/2613Z FS30029", "TAF KNTU 2515/2615 05012G18KT 9999 SCT040 SCT250 QNH3013INS TEMPO 2518/2523 BKN040 BKN250 FM252300 VRB06KT 9999 BKN040 BKN250 QNH3016INS FM261200 10010KT 9999 SCT040 BKN090 BKN250 QNH3019INS TX18/2519Z TN09/2609Z FN20008", "TAF KNUC 2515/2615 VRB06KT 8000 BR OVC008 QNH2988INS TEMPO 2515/2519 4800 BR OVC008 FM251900 26008KT 9999 BKN009 QNH2984INS TEMPO 2519/2601 BKN010 BKN015 FM260600 VRB06KT 8000 BR OVC008 QNH2988INS TEMPO 2609/2615 3200 BR OVC002 TX17/2523Z TN11/2610Z FS30171", "TAF KNUW 2515/2615 25008KT 9999 BKN030 BKN120 BKN220 QNH3028INS FM252100 VRB06KT 9999 SCT030 BKN050 BKN220 QNH3022INS FM261200 27007KT 9999 BKN030 OVC060 TX12/2523Z TN08/2611Z FS30028", "TAF KNXP 2521/2621 01011G22KT 9999 SKC QNH2990INS BECMG 2600/2602 02008KT QNH2985INS BECMG 2607/2609 VRB05KT QNH2998INS FM261730 34008KT 9999 SKC QNH3005INS T30/2522Z T13/2613Z", "TAF KNYG 2521/2621 VRB06KT 9999 SCT050 30009KT 9999 SCT050 QNH3018INS BECMG 2613/2615 26009KT 9999 BKN080 QNH3023INS LAST NO AMDS AFT 2521 NEXT 2609 AUTOMATED SENSOR METWATCH 2523 TIL2612 T05/2611Z T18/2619Z", "TAF KNYL 2521/2621 24007KT 9999 SKC QNH2967INS FM260300 21007KT 9999 SKC 520009 520906 QNH2971INS FM260600 17005KT 9999 SKC 500000 QNH2981INS FM261100 VRB05KT 9999 SKC QNH2983INS T33/2600Z T17/2609Z", "TAF AMD KNZY 2518/2615 17006KT 9999 BKN027 QNH2991INS BECMG 2519/2520 21010KT 9999 SCT030 SCT250 QNH2986INS TEMPO 2600/2601 BKN027 FM260100 21006KT 9999 BKN025 BKN250 QNH2985INS FM260700 15004KT 9999 OVC020 QNH2990INS TX18/2521Z TN13/2614Z AMD 1800 FS30139", "KOAJ 251720Z 2518/2618 06007KT P6SM FEW250 FM260000 09004KT P6SM BKN100 FM261300 06007KT P6SM SCT100 AMD LTD TO CLD VIS AND WIND", "KOAK 251724Z 2518/2624 24005KT P6SM SCT250 FM252000 28012G19KT P6SM FEW010 FM260500 VRB05KT P6SM SCT010 FM262000 29012KT P6SM FEW010", "TAF KOFF 251800Z 2518/2624 08009KT 9999 FEW200 QNH3012INS BECMG 2521/2522 08009KT 9999 BKN050 QNH3010INS BECMG 2607/2608 08009KT 9999 BKN100 QNH3020INS BECMG 2615/2616 12009KT 9999 SCT100 QNH3010INS TX18/2520Z TN06/2612Z", "KOFK 251728Z 2518/2618 10009KT P6SM SCT100", "KOGB 252025Z 2520/2618 07008KT P6SM VCSH BKN050 OVC100 FM260200 04006KT P6SM BKN050 TEMPO 2612/2616 BKN015", "KOGD 251720Z 2518/2618 33007KT P6SM VCSH BKN045 BKN080 FM260000 33004KT P6SM SCT060 BKN080 FM260300 17006KT P6SM SCT080", "KOKC 251738Z 2518/2618 13012KT P6SM VCSH SCT008 OVC012 TEMPO 2518/2522 4SM -SHRA BKN008 FM260000 10012KT P6SM -SHRA OVC008 TEMPO 2608/2612 4SM -TSRA BKN004CB FM261200 09012G19KT 3SM TSRA OVC005CB", "KOLF 251720Z 2518/2618 14011KT P6SM SCT110 FM260600 18011KT P6SM SCT090 FM261000 23009KT P6SM BKN070", "KOLM 251731Z 2518/2618 00000KT P6SM SCT020 BKN040 FM252100 02004KT P6SM FEW050 SCT250 FM260400 00000KT P6SM BKN250 FM261500 VRB02KT P6SM BKN100", "KOLS 251720Z 2518/2618 19007KT P6SM SKC FM251900 23015G26KT P6SM SKC FM260400 25008KT P6SM SKC FM260600 15006KT P6SM SKC", "KOMA 251728Z 2518/2618 08009KT P6SM SCT100 FM260600 10007KT P6SM SCT150", "KONP 251732Z 2518/2618 36010KT P6SM SCT250 FM252100 35015G22KT P6SM SCT250 FM260300 36007KT P6SM SCT250 FM260700 06004KT P6SM SCT250 TEMPO 2610/2613 2SM BR SCT002", "KONT 251733Z 2518/2624 23005KT 6SM HZ BKN012 OVC020 FM251900 26011KT P6SM SKC FM260500 VRB05KT P6SM SKC FM260900 VRB03KT 5SM BR BKN008 FM261600 VRB04KT P6SM SCT012 FM261900 25010KT P6SM SKC", "KOPF 252053Z 2521/2618 17008KT P6SM VCTS SCT025CB BKN050 TEMPO 2523/2601 VRB12G20KT 3SM TSRA SCT020CB SCT030 BKN050 FM260200 VRB04KT P6SM VCSH SCT030 BKN050 FM260600 VRB04KT P6SM SCT030 BKN050 FM261600 13010KT P6SM SCT030 BKN050", "KORD 252101Z 2521/2624 04012KT P6SM SCT020 BKN040 FM261300 06008KT P6SM SCT050", "KORF 251732Z 2518/2618 05005KT P6SM FEW045 FM252300 10006KT P6SM BKN250", "KORH 251735Z 2518/2618 26005KT P6SM VCSH BKN070 FM260000 32005KT P6SM OVC050 FM260800 35003KT 3SM BR SCT015 FM261000 36004KT 2SM BR BKN015 FM261200 02004KT 1 1/2SM BR BKN003 FM261300 04004KT 3SM BR BKN008 FM261500 09005KT P6SM SCT070", "KOTH 251730Z 2518/2618 05003KT P6SM SKC FM252100 36015G26KT P6SM SKC FM260400 36008KT P6SM SKC", "KOTM 251736Z 2518/2618 04008KT P6SM FEW025 SCT080 FM260000 07006KT P6SM SCT070 FM261300 10007KT P6SM SCT070", "KOUN 251738Z 2518/2618 13012KT P6SM VCSH SCT008 OVC012 TEMPO 2518/2522 4SM -SHRA BKN008 FM260000 10012KT P6SM -SHRA OVC008 TEMPO 2608/2612 4SM -TSRA BKN004CB FM261200 09012G19KT 3SM TSRA OVC005CB", "KOWB 251722Z 2518/2618 18005KT P6SM SKC FM261500 06007KT P6SM SCT250", "KOXR 251730Z 2518/2618 09005KT P6SM OVC012 FM252200 23008KT P6SM SCT015 FM260300 VRB03KT P6SM SKC FM260800 VRB03KT 4SM BR BKN007", "TAF KOZR 251830Z 2518/2624 05008KT 9999 FEW040 FEW100 BKN220 QNH2996INS BECMG 2522/2523 VRB06KT 9999 SCT050 QNH2996INS BECMG 2608/2609 09005KT 9999 SCT008 SCT080 BKN120 QNH2999INS TEMPO 2610/2614 FEW004 BKN008 OVC012 BECMG 2615/2616 VRB05KT 9999 FEW012 BKN080 QNH2996INS TX27/2521Z TN17/2611Z", "KPAE 251731Z 2518/2618 29005KT P6SM BKN030 BKN050 TEMPO 2518/2520 SCT035 BKN050 FM252000 28006KT P6SM FEW050 SCT250 FM260500 01004KT P6SM BKN250 FM261200 VRB03KT P6SM BKN100", "KPAH 251722Z 2518/2618 VRB04KT P6SM SKC FM261500 06007KT P6SM BKN150", "TAF KPAM 251900Z 2519/2701 24009KT 9999 SCT025 QNH2996INS TEMPO 2519/2522 22010KT 8000 -RA VCTS BKN030CB BECMG 2604/2605 08009KT 9999 FEW009 SCT013 QNH2995INS TEMPO 2610/2614 6000 BR BECMG 2616/2617 VRB06KT 9999 SCT025 QNH2999INS TEMPO 2618/2620 16009KT TX25/2519Z TN18/2610Z", "KPBF 251720Z 2518/2618 07006KT P6SM VCSH OVC080 FM252100 06006KT 6SM -SHRA BR OVC050 FM260300 04008KT 6SM BR VCSH BKN050 OVC100 FM261500 06009KT 6SM -SHRA BR OVC025", "KPBG 252113Z 2521/2618 27007KT P6SM VCSH OVC035 TEMPO 2521/2522 VRB10G20KT 3SM SHRA OVC022 FM252200 VRB04KT P6SM VCSH BKN015 FM261200 00000KT P6SM SCT080 FM261700 13005KT P6SM BKN030", "KPBI 252052Z 2521/2618 16010KT P6SM VCTS SCT025CB BKN050 TEMPO 2523/2601 VRB12G20KT 3SM TSRA SCT020CB SCT030 BKN050 FM260300 VRB04KT P6SM VCSH SCT030 BKN050 FM260600 VRB04KT P6SM SCT030 BKN050 FM261600 13010KT P6SM SCT030 BKN050", "KPDK 251720Z 2518/2618 07007KT P6SM SCT100 BKN250 FM260100 07007KT P6SM SCT070 FM261100 08006KT P6SM BKN025 FM261300 08007KT P6SM VCSH BKN015 PROB30 2613/2617 4SM -SHRA BR OVC008", "KPDT 251731Z 2518/2618 28007KT P6SM FEW250 FM260500 12006KT P6SM SCT250", "KPDX 252059Z 2521/2618 30007KT P6SM SCT250 FM260800 VRB03KT P6SM BKN250", "KPEQ 251740Z 2518/2618 33005KT P6SM FEW250 FM252100 25010KT P6SM FEW250", "KPGA 251952Z 2520/2618 33015G25KT P6SM SKC FM260100 33010G20KT P6SM FEW250 FM260300 31007KT P6SM FEW250", "KPGD 251730Z 2518/2618 26010KT P6SM SCT035 SCT250 FM260200 05005KT P6SM BKN250 FM261400 16007KT P6SM SCT030 BKN250", "KPGV 251832Z 2519/2618 03005KT P6SM FEW035 FEW180 FM260000 10006KT P6SM BKN150 AMD LTD TO CLD VIS AND WIND", "KPHF 251732Z 2518/2618 06006KT P6SM SCT050 FM252200 08007KT P6SM FEW250", "KPHL 252053Z 2521/2624 29010KT P6SM BKN070 FM252300 28007KT P6SM SCT070 FM260200 VRB03KT P6SM SKC FM260800 VRB03KT P6SM BKN100 FM261400 16005KT P6SM BKN060 FM261900 20007KT P6SM VCSH BKN050", "KPHX 252035Z 2521/2624 27014G22KT P6SM FEW120 FM260300 27008KT P6SM FEW250 FM261100 10005KT P6SM SKC FM262000 27007KT P6SM SKC", "KPIA 251925Z 2519/2618 03007KT P6SM SCT030 BKN040 FM260600 VRB04KT P6SM SCT250 FM261500 08007KT P6SM SCT250", "KPIB 251720Z 2518/2618 VRB04KT P6SM SKC", "KPIE 251730Z 2518/2618 24007KT P6SM VCTS BKN035CB BKN120 FM252000 33008KT P6SM SCT040 BKN250 FM260200 05005KT P6SM SCT250 FM261400 10007KT P6SM SCT030 BKN250", "KPIH 251732Z 2518/2618 26015KT P6SM SCT060 FM252100 30011KT P6SM SCT060 FM260300 21006KT P6SM FEW060", "KPIR 251724Z 2518/2618 12011KT P6SM VCSH OVC080 FM252300 11007KT P6SM OVC050 FM260900 14008KT P6SM BKN100 FM261600 20012KT P6SM SCT100", "KPIT 252055Z 2521/2624 30005KT P6SM FEW120 FM261000 31003KT P6SM BKN025 FM261600 31006KT P6SM BKN035", "KPKB 252053Z 2521/2618 23006KT P6SM BKN070 FM260200 35003KT P6SM VCSH BKN050 FM260600 35003KT P6SM SCT050", "KPLN 252015Z 2520/2618 31011KT P6SM BKN035 FM260300 35006KT P6SM SCT060 FM260600 32005KT P6SM BKN017 FM261500 31007KT P6SM SCT028", "KPMD 251912Z 2519/2618 05012G17KT P6SM SKC FM252300 28012KT P6SM SKC FM261000 VRB05KT P6SM SKC", "KPNA 251721Z 2518/2618 04010KT P6SM VCSH SCT040 BKN080 FM260300 30007KT P6SM BKN090 FM260600 31005KT P6SM VCFG FEW010 FM261700 31010KT P6SM FEW060", "KPNC 251738Z 2518/2618 11012KT 4SM -RA BR OVC015 TEMPO 2520/2524 2SM -TSRA BR OVC007CB FM260200 09013KT 5SM BR OVC005", "KPNE 251726Z 2518/2618 30009KT P6SM BKN060 FM252300 28007KT P6SM SCT070 FM260100 VRB03KT P6SM SKC FM260800 VRB03KT P6SM BKN100 FM261400 16005KT P6SM BKN060 FM261700 20007KT P6SM BKN050", "KPNS 251736Z 2518/2618 14007KT P6SM FEW050 SCT250 FM252100 19008KT P6SM SCT050 BKN120 FM260100 VRB04KT P6SM SCT120 FM261500 12008KT P6SM BKN120", "TAF KPOB 251700Z 2517/2623 06006KT 9999 FEW040 BKN060 BKN100 BKN200 620807 QNH3007INS TX21/2620Z TN08/2611Z", "TAF KPOE 251504Z 2515/2621 07006KT 9999 BKN065 BKN090 QNH2991INS TEMPO 2516/2518 8000 -SHRA SCT030 OVC065 TEMPO 2610/2614 8000 -SHRA BKN030 OVC045 BECMG 2617/2618 09006KT 9999 SCT045 BKN060 QNH2994INS TX25/2521Z TN13/2612Z", "KPOU 251720Z 2518/2618 26007KT P6SM BKN090 TEMPO 2518/2522 6SM -SHRA BKN040 FM260200 VRB03KT P6SM FEW080 FM260800 00000KT 6SM BR BCFG SCT002 FM261300 VRB03KT P6SM FEW050 FM261700 19007KT P6SM BKN060", "KPQI 251908Z 2519/2618 12006KT P6SM VCSH OVC020 FM260900 15006KT P6SM VCSH OVC008 FM261200 15006KT P6SM OVC008 FM261500 VRB03KT P6SM OVC015", "KPRB 251730Z 2518/2618 00000KT P6SM SCT003 FM251900 28008KT P6SM BKN250 FM260600 VRB03KT P6SM SKC FM261000 00000KT P6SM SKC", "KPRC 251954Z 2520/2618 25018G28KT P6SM FEW080 FM260100 32010G20KT P6SM SKC FM260300 27010KT P6SM SKC", "KPSC 251731Z 2518/2618 21007KT P6SM FEW250 FM260200 13005KT P6SM FEW250 FM260900 VRB03KT P6SM SCT250", "KPSF 251720Z 2518/2618 28006KT P6SM BKN070 TEMPO 2519/2523 6SM -SHRA BKN040 FM260200 VRB03KT P6SM FEW045 FM260500 00000KT 6SM BR BCFG SCT002 FM261300 16004KT P6SM FEW030 FM261600 19008KT P6SM BKN070", "KPSM 251952Z 2520/2618 06011KT P6SM VCSH BKN015 BKN090 TEMPO 2522/2601 4SM BR FM260100 VRB03KT 3/4SM BR OVC004 FM261100 03004KT 3SM BR OVC007 FM261300 05005KT P6SM OVC007 FM261500 09004KT P6SM OVC015", "KPSP 251733Z 2518/2618 VRB05KT P6SM SKC FM251900 02009KT P6SM SKC FM260000 35011KT P6SM SKC FM260200 32013KT P6SM SKC FM260700 31005KT P6SM SKC", "KPTK 252000Z 2520/2618 22005KT P6SM OVC015 TEMPO 2520/2522 6SM -RA OVC007 FM252200 26005KT P6SM BKN025 OVC040 FM260100 33005KT P6SM BKN040 FM260500 VRB03KT 2SM BR SCT007 FM261100 36005KT 4SM BR BKN007 OVC015 FM261400 33007KT P6SM SCT025 BKN040", "KPUB 252122Z 2521/2618 12012G22KT P6SM VCTS SCT040 BKN090CB TEMPO 2521/2524 VRB15G25KT 1SM TSRA OVC020CB FM260000 09015G25KT 5SM SHRA SCT025 BKN050 FM260200 07018G28KT 5SM RA BR BKN020 OVC040 FM260500 09020G32KT 3SM RASN BR OVC012 FM261100 03015G25KT 1SM -SN BR OVC005 FM261600 01012KT 3SM -RA BR OVC012", "KPUW 251720Z 2518/2618 28006KT P6SM SCT050 FM252100 25005KT P6SM BKN060 BKN120 BKN200 FM260300 19003KT P6SM SCT050 SCT200 FM261100 11008KT P6SM BKN250", "KPVD 252006Z 2520/2618 16010KT P6SM BKN080 FM260000 19005KT P6SM BKN080 FM260900 01004KT 4SM BR BKN025 FM261000 01004KT 3SM BR BKN008 FM261500 07005KT P6SM SCT020 FM261700 06006KT P6SM SCT035", "KPVU 251720Z 2518/2618 32015KT P6SM BKN060 BKN080 FM260000 32006KT P6SM FEW060 SCT080 FM260300 VRB05KT P6SM FEW080", "KPVW 251743Z 2518/2618 19011KT P6SM BKN035 FM260000 16011KT P6SM VCTS FEW100CB FM260300 10011KT P6SM BKN100 PROB30 2603/2606 4SM +TSRA BR BKN050CB FM260600 09011KT P6SM VCTS BKN035CB PROB30 2606/2609 4SM +TSRA OVC010CB FM260900 08011KT P6SM VCTS BKN010CB PROB30 2611/2613 4SM TSRA BR OVC010CB FM261400 27011KT P6SM SCT010", "KPWM 251720Z 2518/2618 09010KT 2SM BR OVC003 FM252100 11006KT 1SM BR OVC004 FM260000 VRB03KT 3/4SM BR VCSH OVC004 FM261200 36003KT P6SM OVC003 FM261500 08005KT P6SM OVC015", "KPWT 251731Z 2518/2618 05003KT P6SM BKN010 TEMPO 2518/2520 SCT012 BKN030 FM252000 05003KT P6SM SCT020 BKN040 FM252200 03005KT P6SM FEW050 SCT250 FM260500 05005KT P6SM BKN250 FM261200 VRB03KT P6SM BCFG SCT005 BKN100", "KRAP 252025Z 2520/2618 12011KT P6SM BKN110 FM261700 28008KT P6SM SCT250", "KRBG 251730Z 2518/2618 VRB02KT P6SM OVC010 FM251830 VRB03KT P6SM SCT010 FM251900 VRB03KT P6SM SKC FM260000 01008G14KT P6SM SKC", "KRBL 251727Z 2518/2618 35015G23KT P6SM FEW250 FM260000 34008KT P6SM SKC", "TAF KRCA 251900Z 2519/2701 VRB06KT 9999 BKN020 QNH3005INS BECMG 2520/2521 11009KT 9999 BKN030 QNH3000INS BECMG 2619/2620 30010G15KT 9999 FEW065 QNH2993INS TX18/2619Z TN02/2608Z", "KRDD 251727Z 2518/2618 35014G23KT P6SM FEW250 FM260000 35007KT P6SM SKC", "KRDG 251726Z 2518/2618 29008KT P6SM BKN060 FM252300 VRB03KT P6SM FEW070 FM260600 00000KT P6SM BKN100 FM261400 16003KT P6SM BKN060 FM261700 22005KT P6SM VCSH BKN050", "KRDM 251731Z 2518/2618 14005KT P6SM FEW250 FM252200 35007KT P6SM FEW250 FM260400 VRB04KT P6SM FEW250 FM260800 15005KT P6SM FEW250", "TAF KRDR 251800Z 2518/2624 VRB06KT 9999 SCT050 QNH3011INS BECMG 2614/2615 17015G25KT 9999 BKN060 QNH3000INS TEMPO 2618/2622 9000 -SHRA BKN020 BECMG 2622/2623 19012G18KT 9999 BKN030 QNH2984INS TX09/2618Z TN01/2612Z", "KRDU 251729Z 2518/2618 VRB04KT P6SM BKN040 BKN250 FM252000 08005KT P6SM SCT060 OVC100 FM261200 VRB02KT P6SM BKN100", "TAF COR KRFD 251800Z 2518/2618 05008KT P6SM SCT024 BKN035 TEMPO 2518/2520 BKN024", "KRHI 251727Z 2518/2618 05007KT P6SM BKN040 FM252300 01005KT P6SM SCT050 FM260200 VRB03KT P6SM SKC FM261600 28004KT P6SM SCT060", "KRIC 251732Z 2518/2618 06003KT P6SM SCT080 BKN200", "KRIL 251740Z 2518/2618 28008KT 5SM -SHRA BR VCTS BKN025CB FM252000 26009KT P6SM VCTS BKN035CB FM260000 28011KT P6SM VCTS BKN050CB FM260300 31010KT P6SM VCSH BKN060 FM261200 01005KT P6SM FEW070", "TAF KRIV 252010Z 2520/2702 31007KT 9999 FEW250 QNH2984INS TEMPO 2521/2601 31010G15KT BECMG 2605/2606 VRB04KT 9999 SCT250 QNH2991INS BECMG 2609/2610 VRB04KT 8000 BR FEW250 QNH2992INS BECMG 2613/2614 VRB04KT 9999 NSW FEW250 QNH2992INS BECMG 2620/2621 30009KT 9999 SKC 510005 QNH2986INS TEMPO 2622/2702 30012G18KT TX25/2522Z TN10/2613Z", "KRIW 251721Z 2518/2618 01010G18KT 6SM -RA FEW025 BKN035 OVC050 FM252200 02010KT 5SM -SHRA SCT020 OVC025 FM260300 30008KT P6SM SCT050 FM260800 VRB05KT P6SM FEW060", "KRKD 252103Z 2521/2618 09008KT P6SM OVC008 FM260000 08003KT 2SM BR OVC004 FM260900 00000KT 3/4SM BR OVC004 FM261200 VRB04KT P6SM OVC015", "KRKS 252125Z 2521/2618 29006KT 3SM -SN BR VCSH FEW006 BKN012 OVC035 FM260000 25008KT P6SM BKN060 FM261700 31008KT P6SM FEW080", "KRME 251729Z 2518/2618 27006KT P6SM BKN050 FM260000 00000KT P6SM FEW150 FM261500 15005KT 6SM -SHRA BR BKN028", "TAF AMD KRND 251840Z 2518/2622 13010KT 9999 VCTS SCT015 BKN030CB OVC060 QNH2980INS TEMPO 2518/2523 SCT010 OVC015 BECMG 2601/2602 12007KT 9999 VCSH BKN010 OVC017 QNH2982INS BECMG 2605/2606 11006KT 4800 -DZ BR OVC007 QNH2982INS TEMPO 2612/2614 3200 BR OVC003 BECMG 2616/2617 15005KT 8000 BR VCSH SCT007 BKN012 OVC025 QNH2985INS BECMG 2618/2619 18006KT 9999 VCSH BKN015 OVC025 QNH2985INS BECMG 2619/2620 17009KT 9999 NSW FEW025 SCT040 BKN055 QNH2975INS TX22/2522Z TN17/2612Z LAST NO AMDS AFT 2600 NEXT 2610", "KRNH 251937Z 2520/2618 04008KT P6SM SCT060 FM260100 00000KT P6SM SKC FM261400 16005KT P6SM SKC", "KRNO 251720Z 2518/2618 VRB04KT P6SM SKC FM252000 06007KT P6SM FEW250 FM260500 VRB04KT P6SM SKC", "KROA 251733Z 2518/2618 VRB04KT P6SM BKN130 FM261000 VRB04KT P6SM FEW250 FM261400 23005KT P6SM SCT250", "KROC 252119Z 2521/2618 06005KT P6SM SCT050 BKN080 FM260200 VRB03KT P6SM VCSH BKN050 FM260500 VRB03KT 6SM -RA OVC025 FM260600 VRB03KT 6SM -RA OVC007 FM260800 VRB03KT 4SM -SHRASN OVC007 FM261200 VRB03KT P6SM VCSH OVC007", "KROG 251946Z 2520/2618 VRB03KT P6SM VCSH OVC050 FM252100 13005KT 6SM -SHRA BR OVC035 FM260500 11006KT P6SM VCSH OVC015 FM261100 10011KT P6SM OVC022 FM261500 10011KT 6SM -SHRA OVC015", "KROW 251742Z 2518/2618 15010KT P6SM FEW110 FM251900 19015G23KT P6SM SCT110 SCT200 FM252300 24015G23KT P6SM SCT120 BKN200 FM260300 36018G25KT P6SM BKN110 FM260600 33010KT P6SM SKC", "KRSL 251722Z 2518/2618 13012KT P6SM VCSH SCT020 OVC040 TEMPO 2519/2523 6SM -RA BR OVC020 FM260100 09010KT P6SM VCSH OVC018 FM261500 08013KT P6SM OVC020", "KRST 251730Z 2518/2618 03009KT P6SM SCT040 FM260100 04005KT P6SM SKC", "KRSW 251730Z 2518/2618 24008KT P6SM SCT035 SCT250 FM260200 08004KT P6SM BKN250 FM261400 16007KT P6SM SCT030 BKN250", "KRUT 251741Z 2518/2618 VRB04KT P6SM VCSH SCT035 OVC060 FM252300 VRB03KT P6SM SCT060 FM261500 17007KT P6SM SCT045", "KRVS 251931Z 2520/2618 12011KT 4SM -SHRA BR OVC012 FM260000 08008KT 4SM -SHRA BR OVC008 FM260900 08009KT 4SM BR OVC007 FM261400 09010KT 3SM -SHRA BR OVC012", "KRWF 251720Z 2518/2618 08010KT P6SM FEW050 FM260100 09003KT P6SM SKC FM261500 16007KT P6SM SCT250", "KRWI 251729Z 2518/2618 VRB03KT P6SM FEW040 SCT080 BKN250 FM260300 05002KT P6SM SCT060 BKN150 FM261200 10004KT P6SM BKN250", "KRWL 251720Z 2518/2618 27008KT P6SM VCSH SCT010 OVC045 TEMPO 2518/2522 2SM -SN BR FM252200 35014KT P6SM VCSH SCT020 BKN040 FM260200 29004KT 5SM BR VCSH BKN012 FM261200 26010KT P6SM BKN030 OVC050", "KRYY 251720Z 2518/2618 11006KT P6SM BKN150 FM260300 09007KT P6SM SCT070 FM261100 09007KT P6SM BKN030 FM261300 09007KT P6SM VCSH BKN015 PROB30 2613/2617 4SM -SHRA BR OVC009", "KSAC 251727Z 2518/2618 33012KT P6SM FEW250 FM260200 VRB04KT P6SM SKC", "KSAF 251742Z 2518/2618 24012G20KT P6SM SCT080 SCT200 FM252000 26015G25KT P6SM VCSH BKN090 TEMPO 2520/2524 VRB25G40KT 6SM -TSRA BLDU BKN080CB FM260200 30015G23KT P6SM VCSH BKN100 FM260400 33011KT P6SM SKC FM261400 36018G25KT P6SM FEW050", "KSAN 252044Z 2521/2624 21009KT P6SM SCT025 TEMPO 2521/2524 BKN025 FM260200 VRB04KT P6SM OVC018 FM260700 VRB04KT P6SM OVC010 FM261800 VRB04KT P6SM SCT012 FM261900 26007KT P6SM SCT015", "KSAT 252112Z 2521/2624 15006KT P6SM SCT030 OVC050 FM260100 12008KT P6SM BKN015 FM260300 12008KT P6SM BKN008 FM260600 12008KT 4SM BR OVC007 FM260900 12006KT 3SM BR OVC004 FM261800 17010KT P6SM BKN015 FM261900 17010KT P6SM BKN035", "KSAV 251954Z 2520/2618 09012KT P6SM VCSH BKN040 TEMPO 2520/2523 5SM SHRA BKN035 OVC070 FM260000 05004KT P6SM BKN060 FM260800 02004KT P6SM BKN015 OVC080 FM261400 05007KT P6SM BKN045", "KSAW 252023Z 2520/2618 02014KT P6SM BKN024 OVC035 FM260000 VRB03KT P6SM SCT050", "KSBA 251914Z 2519/2618 18007KT P6SM FEW018 FM252000 22008KT P6SM SCT015 FM260300 VRB03KT P6SM SKC FM260800 10005KT 2SM BR BKN004", "KSBD 252114Z 2521/2618 26010KT P6SM SKC FM260300 VRB04KT P6SM SKC FM261000 VRB04KT 5SM BR BKN008 FM261500 VRB04KT P6SM SCT010", "KSBM 251941Z 2520/2618 09009KT P6SM SCT035 FM252200 06007KT P6SM SCT050 FM260200 VRB03KT P6SM SCT040 FM261600 06006KT P6SM SCT030", "KSBN 251723Z 2518/2618 01006KT P6SM BKN015 OVC035 FM252100 35009KT P6SM BKN025 FM260100 34006KT P6SM BKN040 FM260900 02006KT P6SM FEW050", "KSBP 251730Z 2518/2618 29004KT P6SM SKC FM252000 31010KT P6SM SKC FM260400 VRB03KT P6SM SKC FM261000 VRB03KT 6SM BR SCT006", "KSBY 251732Z 2518/2618 34005KT P6SM SCT070 FM252200 28005KT P6SM SCT250", "KSCK 251727Z 2518/2618 32011KT P6SM FEW250 FM260200 29007KT P6SM SKC", "KSDF 251728Z 2518/2624 22006KT P6SM SCT250 FM260200 VRB03KT P6SM SCT250 FM260900 01006KT P6SM BKN200", "KSDL 251720Z 2518/2618 15004KT P6SM FEW250 FM251830 22006KT P6SM FEW250 FM252000 26012G20KT P6SM SKC FM260300 29006KT P6SM FEW250 FM260600 VRB04KT P6SM FEW250", "KSDY 251720Z 2518/2618 14012KT P6SM SCT160 FM261200 21009KT P6SM BKN080 FM261500 30014G23KT P6SM BKN090", "KSEA 251731Z 2518/2624 20004KT P6SM BKN020 OVC045 TEMPO 2518/2520 SCT025 BKN045 FM252000 25004KT P6SM SCT022 BKN045 FM252200 30005KT P6SM SCT050 SCT250 FM260300 01005KT P6SM BKN250 FM261500 VRB03KT P6SM BKN100 OVC200 FM262000 25005KT P6SM BKN050 OVC100", "KSEZ 251722Z 2518/2618 21010G20KT P6SM SKC FM252100 24015G25KT P6SM SKC FM260100 34010G20KT P6SM SKC FM260300 02010G20KT P6SM SKC", "KSFB 251740Z 2518/2618 08014G20KT P6SM VCSH BKN030 OVC040 TEMPO 2519/2523 3SM TSRA BKN025CB FM260200 07006KT P6SM SCT025 BKN060", "KSFF 251720Z 2518/2618 21009KT P6SM SCT050 SCT200 FM252200 23006KT P6SM BKN050 BKN120 BKN200 FM260300 VRB03KT P6SM SCT050 SCT200 FM260800 11002KT P6SM BKN250", "KSFO 252116Z 2521/2624 29015G25KT P6SM SCT250 FM260400 29010KT P6SM FEW010 FM261200 VRB03KT P6SM SCT010 FM262000 29015G25KT P6SM FEW010", "KSGF 251731Z 2518/2618 13012G17KT P6SM FEW170 FM252100 14009KT P6SM BKN100 FM260300 14006KT P6SM OVC100 PROB30 2603/2607 4SM -SHRA BR OVC025 FM261100 11012G22KT P6SM BKN060 OVC100", "KSGJ 251726Z 2518/2618 09012KT P6SM VCSH SCT035 BKN090 TEMPO 2519/2523 VRB10G20KT 3SM TSRA OVC035CB FM260200 10006KT P6SM SCT050 BKN120 FM261400 06010KT P6SM SCT030", "KSGR 251737Z 2518/2618 14009KT P6SM BKN035 FM260000 12010KT P6SM VCTS BKN040CB FM260300 12008KT P6SM VCTS OVC030CB FM260700 11008KT P6SM FEW010 BKN020 FM261600 14009KT P6SM BKN030", "KSGU 251720Z 2518/2618 02015KT P6SM SKC FM260300 05010KT P6SM SKC FM260900 VRB04KT P6SM SKC", "KSHR 251721Z 2518/2618 VRB04KT P6SM SCT090", "KSHV 251740Z 2518/2618 10007KT P6SM SCT060 BKN080 FM260000 08007KT P6SM SCT060 BKN080 FM260900 06007KT P6SM VCSH BKN050 FM261500 10009KT P6SM BKN040", "KSJC 251724Z 2518/2618 VRB04KT P6SM FEW250 FM252000 33010KT P6SM FEW250 FM260500 VRB03KT P6SM SKC", "KSJS 251720Z 2518/2618 VRB03KT P6SM SCT200", "KSJT 251720Z 2518/2618 18011G18KT P6SM BKN035 FM251900 18013G20KT P6SM SCT050 FM260600 16012KT P6SM BKN020 FM261500 20012KT P6SM BKN035", "TAF KSKA 251900Z 2519/2701 23010G15KT 9999 FEW025 SCT060 SCT200 QNH3012INS WND 20009KT AFT 2603 BECMG 2618/2619 23012G20KT 9999 SCT060 BKN120 QNH3003INS TX14/2523Z TN03/2611Z", "TAF KSKF 251800Z 2518/2700 14009KT 9999 VCSH SCT018 BKN025 QNH2981INS TEMPO 2518/2519 BKN018 BECMG 2520/2521 15009KT 9999 VCTS SCT030CB SCT050 QNH2975INS BECMG 2601/2602 12011KT 9999 NSW BKN018 QNH2978INS BECMG 2606/2607 13006KT 9000 BR OVC007 QNH2980INS BECMG 2609/2610 14006KT 8000 -SHRADZ OVC005 QNH2981INS BECMG 2614/2615 14009KT 9000 BR BKN008 QNH2983INS BECMG 2615/2616 15009KT 9999 NSW BKN015 QNH2980INS BECMG 2617/2618 17010G15KT 9999 BKN025 BKN250 QNH2972INS BECMG 2621/2622 15010G15KT 9999 VCTS SCT045CB BKN250 QNH2970INS TX26/2522Z TN20/2610Z", "KSLC 252032Z 2521/2624 33009KT P6SM VCSH BKN045 BKN070 FM260000 34006KT P6SM FEW060 SCT080 FM260300 15006KT P6SM FEW080 FM261700 33006KT P6SM SKC", "KSLE 251732Z 2518/2618 02006KT P6SM SCT020 BKN200 FM251900 01008KT P6SM SCT200 FM260400 34005KT P6SM BKN250 FM260900 VRB02KT P6SM BKN250", "TAF KSLI 252100Z 2521/2703 VRB06KT 9999 BKN029 QNH2985INS BECMG 2612/2613 VRB06KT 8000 BR BKN003 OVC010 QNH2993INS BECMG 2615/2616 VRB06KT 8000 BR SKC QNH2983INS TX25/2700Z TN13/2615Z", "KSLK 251741Z 2518/2618 26005KT P6SM VCSH OVC080 TEMPO 2518/2520 4SM -SHRA BKN035 OVC070 FM252000 VRB04KT P6SM VCSH BKN020 FM260800 00000KT 4SM BR SCT008 BKN035 FM261000 00000KT 6SM BR BKN050 FM261700 VRB04KT P6SM -SHRA OVC020", "KSLN 251722Z 2518/2618 14013KT P6SM OVC030 TEMPO 2522/2602 -RA FM260200 08008KT P6SM BKN030 OVC090", "KSME 251720Z 2518/2618 VRB04KT P6SM SCT200", "KSMF 251727Z 2518/2618 33012G18KT P6SM FEW250 FM260200 VRB05KT P6SM SKC", "KSMN 251724Z 2518/2618 00000KT P6SM OVC070 FM252000 33012G20KT P6SM BKN150 FM260300 35006KT P6SM SCT150", "KSMO 251730Z 2518/2618 19005KT P6SM BKN020 OVC025 FM251900 23008KT P6SM SKC FM260400 VRB03KT P6SM BKN015 FM260700 VRB03KT P6SM BKN008", "KSMX 251730Z 2518/2618 29003KT P6SM SCT008 FM252000 31012KT P6SM SKC FM260300 VRB03KT P6SM SKC FM260500 VRB03KT 4SM BR OVC006 FM261000 VRB03KT 1SM BR OVC003", "KSNA 252059Z 2521/2618 22010KT P6SM BKN020 TEMPO 2521/2601 SCT020 FM260300 VRB04KT P6SM OVC015 FM261100 VRB03KT 4SM BR OVC007 FM261500 VRB03KT P6SM OVC007 FM261700 VRB04KT P6SM SCT007", "KSNS 251724Z 2518/2618 30007KT P6SM SKC FM252000 30010G20KT P6SM SKC FM260600 31005KT P6SM SCT010 FM260900 VRB03KT P6SM BKN010 FM261700 VRB03KT P6SM SCT010", "KSNY 252009Z 2520/2618 14015G25KT P6SM VCSH OVC015 FM260300 10012KT 5SM BR VCSH OVC007 FM261000 05005KT 2SM BR VCFG OVC003 FM261200 03006KT 1/2SM FG BKN003 OVC007 FM261500 11008KT 2SM BR OVC010", "KSOA 251720Z 2518/2618 16011KT P6SM BKN025 FM251900 15009KT P6SM OVC030 FM252100 15010KT P6SM BKN040 FM260300 15011KT P6SM OVC018 FM261700 19011KT P6SM BKN030 AMD NOT SKED", "KSPI 251724Z 2518/2618 32006KT P6SM VCSH BKN060 FM252300 05007KT P6SM BKN050 FM261200 04006KT P6SM SCT250", "KSPS 251738Z 2518/2618 15014KT P6SM VCTS BKN025CB TEMPO 2521/2601 2SM TSRA BKN010CB FM260100 12012KT 5SM -SHRA BR BKN015 FM260800 10013KT 2SM -TSRA OVC007CB", "KSRB 251817Z 2518/2618 05005KT P6SM BKN150", "KSRQ 251730Z 2518/2618 25010KT P6SM FEW035 SCT250 FM260200 06005KT P6SM SCT250 FM261400 16007KT P6SM SCT030 BKN250", "TAF KSSC 251500Z 2515/2621 06009KT 9999 FEW100 BKN200 QNH3010INS BECMG 2517/2518 08009KT 9999 BKN100 OVC200 QNH3002INS BECMG 2520/2521 05009KT 9999 VCSH BKN050 OVC100 QNH3002INS BECMG 2601/2602 03006KT 9999 BKN050 QNH3005INS BECMG 2614/2615 06009KT 9999 VCSH BKN060 OVC100 QNH3009INS TX20/2520Z TN12/2611Z", "KSSF 251720Z 2518/2618 13006KT P6SM BKN015 OVC025 FM251900 13008KT P6SM BKN025 FM260100 12008KT P6SM BKN015 FM260400 12008KT P6SM BKN008 FM260600 12008KT 4SM BR OVC005", "KSSI 251726Z 2518/2618 07011KT P6SM VCSH SCT035 BKN090 TEMPO 2519/2523 VRB10G20KT 3SM TSRA OVC035CB FM260200 06006KT P6SM SCT050 BKN120 FM261400 05010KT P6SM SCT030", "KSTC 251925Z 2519/2618 04009G15KT P6SM BKN060 FM260100 09003KT P6SM SKC FM261400 16008KT P6SM SKC", "KSTJ 252035Z 2521/2618 VRB05KT P6SM SCT050 FM260100 09010KT P6SM BKN200", "KSTL 252101Z 2521/2624 31010KT P6SM BKN070 FM260200 04007KT P6SM BKN120", "KSTS 251724Z 2518/2618 VRB03KT P6SM SKC FM252100 25010KT P6SM FEW250 FM260300 VRB03KT P6SM SKC", "KSUA 251740Z 2518/2618 12012KT P6SM VCTS SCT020CB BKN040 TEMPO 2518/2520 3SM TSRA BKN025CB FM252300 12009KT P6SM SCT035 BKN050 FM260100 12006KT P6SM SCT025 BKN060 AMD NOT SKED", "KSUN 251732Z 2518/2624 31006KT P6SM FEW060 FM251900 13007KT P6SM FEW060 FM252300 VRB06KT P6SM FEW070 FM260300 31008KT P6SM FEW080 FM261800 13007KT P6SM FEW060 FEW160", "KSUS 251727Z 2518/2618 VRB05KT P6SM FEW060 FM260200 06008KT P6SM BKN120", "TAF AMD KSUU 251900Z 2519/2701 34012G18KT 9999 SKC QNH2981INS BECMG 2601/2602 34012KT 9999 SKC QNH2982INS BECMG 2602/2603 23009KT 9999 SKC QNH2987INS BECMG 2613/2614 VRB06KT 9999 SKC QNH2995INS TX30/2523Z TN12/2611Z", "KSUX 251726Z 2518/2618 10011KT P6SM BKN100 FM260500 09009G16KT P6SM BKN090 FM261100 10008KT P6SM SCT090 FM261400 14008KT P6SM SCT120", "TAF KSVN 251700Z 2517/2623 09010KT 9999 BKN030 OVC100 QNH3002INS TEMPO 2517/2521 07010G18KT 8000 -TSRA SCT025 OVC035CB BECMG 2520/2521 08010G15KT 9999 BKN025 QNH3002INS TEMPO 2521/2523 8000 -SHRA BECMG 2522/2523 07009KT 9999 SCT025 BKN040 QNH3003INS BECMG 2614/2615 06010G15KT 8000 -SHRA BKN020 QNH3007INS TEMPO 2617/2621 -TSRA BKN018CB TX23/2517Z TN17/2609Z", "KSWF 251942Z 2520/2624 28008KT P6SM BKN060 FM260200 VRB04KT P6SM BKN100 FM261500 16007KT P6SM BKN040 FM261800 21008KT P6SM BKN035 AMD NOT SKED", "KSWO 251738Z 2518/2618 10012KT 5SM -RA BR OVC010 TEMPO 2520/2524 2SM -TSRA BR OVC005CB FM260200 09013KT 5SM BR OVC005", "KSYM 251720Z 2518/2618 VRB05KT P6SM SCT250", "KSYR 251729Z 2518/2618 28006KT P6SM BKN050 FM260000 00000KT P6SM SCT100 FM261100 09004KT 6SM BR BKN050 FM261400 22005KT 5SM -SHRA BR BKN035", "TAF KSZL 251900Z 2519/2701 VRB06KT 9999 FEW060 QNH3009INS WND 09012KT AFT 2613 TX19/2522Z TN07/2611Z", "TAF KTBN 251300Z 2513/2619 VRB06KT 9999 SKC QNH3006INS BECMG 2614/2615 10010G15KT 9999 SCT050 SCT085 QNH3011INS TX20/2520Z TN06/2613Z LAST NO AMDS AFT 2520 NEXT 2613", "KTCC 251742Z 2518/2618 25014G22KT P6SM SCT200 FM252100 26020G28KT P6SM VCSH BKN100 FM260300 01010G18KT P6SM VCTS BKN090CB FM260700 33010KT P6SM BKN100 FM261400 01020G28KT P6SM BKN050", "KTCL 251720Z 2518/2618 01005KT P6SM SCT250 FM260000 VRB03KT P6SM FEW250 FM261500 09005KT P6SM OVC050", "TAF KTCM 252100Z 2521/2703 34006KT 9999 SCT030 SCT200 QNH3020INS BECMG 2604/2605 02006KT 9999 FEW080 SCT200 QNH3018INS BECMG 2613/2614 02005KT 9999 BKN080 BKN200 QNH3020INS BECMG 2618/2619 02006KT 9999 BKN040 BKN080 QNH3013INS TX16/2621Z TN06/2613Z", "KTCS 251720Z 2518/2618 17005G16KT P6SM FEW250 FM252200 25017G27KT P6SM SCT150 FM260100 26020G30KT P6SM SCT090 SCT250 FM260600 30010KT P6SM SCT250", "KTEB 251942Z 2520/2624 27008KT P6SM BKN060 FM252300 31006KT P6SM FEW050 FM260600 35004KT P6SM SCT100 FM261000 03004KT P6SM BKN100 FM261400 15008KT P6SM BKN050", "KTEX 252109Z 2521/2618 28010G18KT 3SM -SHSN BR BKN015 TEMPO 2521/2524 1/4SM +SN FG OVC003 FM260100 33009KT P6SM VCTS BKN025CB FM260300 31009KT P6SM VCSH OVC020 FM261400 03008KT P6SM SCT020", "TAF AMD KTIK 252003Z 2520/2623 12012KT 9999 BKN010 OVC025 QNH2995INS BECMG 2522/2523 11009KT 9999 SCT013 OVC025 QNH2993INS BECMG 2602/2603 09009KT 4800 TSRA OVC004CB QNH2993INS BECMG 2605/2606 08009KT 8000 -RA OVC005 QNH2996INS BECMG 2612/2613 23012G20KT 3200 -TSRA OVC005CB QNH2989INS BECMG 2618/2619 13012KT 8000 -RA OVC012 QNH2981INS TX10/2521Z TN07/2608Z", "KTIX 251959Z 2520/2618 06010KT P6SM BKN030 FM260100 09005KT P6SM SCT025 BKN060", "KTLH 251732Z 2518/2618 08008KT P6SM BKN040 FM252100 10004KT P6SM VCTS BKN040CB FM260100 08005KT P6SM SCT100 FM261500 09006KT P6SM BKN025", "KTMB 252054Z 2521/2618 22010KT P6SM VCTS SCT025CB BKN050 FM260200 VRB04KT P6SM VCSH SCT030 BKN050 FM260600 VRB04KT P6SM SCT030 BKN050 FM261600 15010KT P6SM SCT030 BKN050", "KTOI 251720Z 2518/2618 36005KT P6SM SCT250 FM260000 VRB03KT P6SM SCT250 FM261000 08007KT P6SM FEW250", "KTOL 251740Z 2518/2618 27005KT 5SM -SHRA BKN025 FM252100 30006KT 6SM -SHRA BKN010 FM260000 VRB04KT P6SM BKN015 FM260600 VRB02KT 3SM BR SCT004 FM260900 VRB02KT 1SM BR SCT004 FM261400 35005KT P6SM SCT030", "KTOP 251720Z 2518/2618 13007KT P6SM FEW025 BKN045 FM260100 08005KT P6SM BKN100", "KTPA 252103Z 2521/2624 29007KT P6SM SCT035 SCT100 FM260200 03004KT P6SM SCT250 FM261400 16006KT P6SM SCT030 BKN250", "KTPH 251801Z 2518/2618 35012G22KT P6SM SKC FM260400 36011KT P6SM SKC", "KTRI 251738Z 2518/2618 VRB04KT P6SM BKN250 FM260000 00000KT P6SM SCT250", "KTRK 251720Z 2518/2618 VRB03KT P6SM SKC FM251900 04006KT P6SM FEW250 FM260300 VRB03KT P6SM SKC", "KTRM 251733Z 2518/2618 VRB03KT P6SM SKC FM252100 14007KT P6SM SKC FM260200 33010KT P6SM SKC FM261000 VRB04KT P6SM SKC", "KTTD 251732Z 2518/2618 VRB03KT P6SM SCT015 BKN200 FM251900 VRB03KT P6SM SCT250 FM260500 VRB02KT P6SM BKN250", "KTTN 251726Z 2518/2618 28006KT P6SM BKN060 FM252300 VRB03KT P6SM FEW070 FM260800 VRB03KT P6SM BKN100 FM261400 16006KT P6SM BKN060 FM261700 19008KT P6SM BKN050", "KTUL 251931Z 2520/2618 13011KT 3SM -SHRA BR OVC012 FM260000 08008KT 4SM -SHRA BR OVC008 FM260900 08009KT 4SM BR OVC007 FM261400 09010KT 3SM -SHRA BR OVC012", "KTUP 251738Z 2518/2618 07006KT P6SM VCSH OVC090 FM260000 05003KT P6SM SCT100 FM260600 04003KT P6SM VCSH BKN080 FM261500 06006KT P6SM BKN070", "KTUS 251720Z 2518/2618 23008KT P6SM SKC FM252100 27017G26KT P6SM SKC FM260400 25010KT P6SM SKC FM260900 15005KT P6SM FEW250", "KTVC 251724Z 2518/2618 36009G17KT P6SM BKN035 TEMPO 2518/2520 BKN019 FM252000 35008KT P6SM BKN045 FM260900 32005KT P6SM BKN027 FM261500 33008KT P6SM BKN045", "KTVF 251720Z 2518/2618 15007KT P6SM BKN060 FM260000 VRB04KT P6SM FEW060 SCT250 FM261000 16008KT P6SM SCT250 FM261300 19016G25KT P6SM BKN100", "KTVL 251720Z 2518/2618 02007KT P6SM FEW250 FM260300 18003KT P6SM SKC", "KTWF 251720Z 2518/2618 27020G27KT P6SM SKC FM260400 23010KT P6SM SKC FM261500 27007KT P6SM SKC", "KTXK 251740Z 2518/2618 09008KT P6SM OVC050 FM260800 07008KT P6SM VCSH BKN040 FM261500 08008KT P6SM SCT025 BKN035", "KTYR 251740Z 2518/2618 12008KT P6SM BKN050 FM260600 10008KT P6SM VCSH BKN035 FM260800 10008KT P6SM VCSH BKN023 FM261200 10008KT P6SM BKN018 FM261500 13009KT P6SM BKN018", "KTYS 251738Z 2518/2618 05010KT P6SM FEW050 BKN170 OVC250 FM260000 VRB03KT P6SM OVC100 PROB30 2612/2618 6SM -SHRA BR OVC050", "KUAO 251732Z 2518/2618 01006KT P6SM SCT020 BKN200 FM252200 03005KT P6SM SCT250 FM260600 VRB02KT P6SM BKN250", "KUES 251941Z 2520/2618 04007KT P6SM BKN035 FM252300 05005KT P6SM SCT040 FM260200 VRB03KT P6SM FEW040 FM261600 VRB04KT P6SM BKN030", "KUIN 251727Z 2518/2618 34010KT P6SM BKN080 FM252200 02009KT P6SM BKN080 FM260200 05009KT P6SM FEW120 FM261000 08010KT P6SM SCT250", "KUKI 251740Z 2518/2618 VRB03KT P6SM FEW250 FM252100 27007KT P6SM SKC FM260200 VRB03KT P6SM SKC", "KUNV 251720Z 2518/2618 VRB04KT P6SM BKN070 FM260900 VRB03KT P6SM OVC040 FM261500 29003KT P6SM OVC025", "KUTS 251737Z 2518/2618 10006KT P6SM VCSH BKN050 FM260100 11005KT P6SM VCSH SCT040 BKN070 FM260700 13005KT P6SM BKN030 FM261100 12007KT P6SM FEW007 BKN015", "TAF KVAD 251600Z 2516/2622 08010G15KT 9999 BKN050 QNH2996INS BECMG 2521/2522 06006KT 9999 BKN020 QNH2999INS BECMG 2605/2606 06006KT 9999 BKN010 QNH3001INS BECMG 2613/2614 08010G25KT 9999 SCT030 QNH2996INS TX26/2518Z TN15/2610Z", "TAF KVBG 242200Z 2422/2604 33015G25KT 9999 FEW008 SCT250 520006 QNH2990INS BECMG 2504/2505 33012KT 3200 BR BKN008 BKN250 QNH2989INS BECMG 2509/2510 33009KT 0800 FG VV001 QNH2990INS BECMG 2515/2516 34010G15KT 9999 NSW FEW008 FEW250 QNH2991INS TEMPO 2521/2602 33015G20KT 510006 TX15/2520Z TN08/2513Z LAST NO AMDS AFT 2500 NEXT 2514", "KVCT 251728Z 2518/2618 12013KT P6SM BKN020 FM252100 12012G18KT P6SM VCTS BKN020 OVC035CB TEMPO 2521/2601 VRB30G40KT 5SM TSRA OVC012CB FM260700 11010KT 4SM BR OVC012 TEMPO 2607/2609 OVC007 FM260900 11010KT 3SM BR OVC007 FM261400 14013KT P6SM BKN015", "KVEL 251740Z 2518/2618 10010KT P6SM BKN070 FM252000 03011KT P6SM SCT090 FM252200 01014KT P6SM FEW070 FM260800 02009KT P6SM SKC FM261200 VRB04KT P6SM SKC", "KVGT 251726Z 2518/2618 32022G32KT P6SM SKC FM252200 35015G25KT P6SM SKC FM260400 35008KT P6SM SKC FM260700 VRB05KT P6SM SKC FM261300 33009KT P6SM SKC", "KVIS 251720Z 2518/2618 VRB04KT P6SM FEW250", "KVLD 251732Z 2518/2618 10005KT P6SM SCT050 FM252200 06008KT P6SM VCTS BKN040CB FM260400 07007KT P6SM SCT100 FM260900 05003KT P6SM BKN015 FM261400 05006KT P6SM SCT015 BKN030", "KVNY 251730Z 2518/2618 VRB03KT P6SM SCT020 FM251900 12010KT P6SM SKC FM260500 VRB03KT P6SM SKC FM261100 VRB03KT 5SM BR OVC010", "TAF KVOK 251700Z 2517/2623 VRB06KT 9999 OVC040 620401 QNH3019INS BECMG 2606/2607 VRB06KT 9000 BR SCT004 BKN011 BKN018 620204 QNH3028INS BECMG 2613/2614 22010KT 9999 NSW SCT030 QNH3014INS TX09/2521Z TN00/2611Z", "TAF COR KVPS 251717Z 2517/2623 13008KT 9999 FEW030 BKN120 QNH2996INS BECMG 2600/2601 07006KT 9999 FEW020 BKN100 QNH2994INS BECMG 2610/2611 09009KT 9999 BKN015 QNH2997INS BECMG 2617/2618 12012KT 9999 VCTS BKN015CB QNH3001INS BECMG 2620/2621 13007KT 9999 NSW FEW020 SCT080 QNH2998INS TX26/2519Z TN17/2609Z", "KVQQ 251726Z 2518/2618 07011KT P6SM VCSH SCT035 BKN090 TEMPO 2519/2523 VRB10G20KT 3SM TSRA OVC035CB FM260200 05003KT P6SM SCT050 BKN120 FM261500 06009KT P6SM SCT030", "KVRB 251959Z 2520/2618 17012KT P6SM VCTS FEW050CB SCT100 TEMPO 2520/2521 3SM TSRA BKN025CB FM252200 12009KT P6SM SCT035 BKN050 FM260100 12006KT P6SM SCT025 BKN060", "KVTN 251720Z 2518/2618 11012G20KT P6SM SCT025 BKN040 FM260100 12008KT P6SM BKN040 FM261400 15007KT P6SM BKN035", "KWJF 251912Z 2519/2618 05011G17KT P6SM SKC FM252300 28012G20KT P6SM SKC FM261000 VRB05KT P6SM SKC", "KWMC 251801Z 2518/2618 36007KT P6SM SKC FM260400 VRB05KT P6SM SKC", "TAF AMD KWRB 251900Z 2519/2622 09012KT 8000 -SHRA BKN040 OVC050 QNH3008INS TEMPO 2519/2522 09010G15KT 6000 -SHRA VCTS BKN030CB BECMG 2521/2522 VRB06KT 9999 NSW BKN030 OVC050 QNH3001INS BECMG 2604/2605 VRB06KT 9000 BR SCT015 BKN030 QNH3004INS BECMG 2612/2613 04008KT 9999 NSW SCT010 BKN030 QNH3008INS BECMG 2619/2620 03012KT 8000 -SHRA BKN020 QNH3004INS TX23/2522Z TN13/2611Z", "TAF KWRI 251800Z 2518/2624 29010G15KT 9999 SCT060 QNH3014INS BECMG 2600/2601 VRB06KT 9999 FEW120 QNH3019INS BECMG 2617/2618 17009KT 9999 -SHRA BKN050 QNH3017INS TX16/2519Z TN03/2610Z", "KWRL 251721Z 2518/2618 34012KT P6SM VCSH SCT060 OVC080 FM252100 11014KT 6SM -SHRA SCT030 BKN050 FM260200 16009KT P6SM BKN090 FM261600 31007KT P6SM FEW100", "KWWR 251738Z 2518/2618 10012KT 5SM BR OVC007 TEMPO 2518/2520 4SM -RA BR OVC003 FM260400 09012KT 3SM -RA BR OVC005 TEMPO 2608/2612 3SM -TSRA BR OVC008CB", "KXNA 251945Z 2520/2618 VRB05KT P6SM VCSH OVC050 FM252100 16007KT 6SM -SHRA BR OVC035 FM260500 11006KT P6SM VCSH OVC015 FM261100 10011KT P6SM OVC022 FM261500 10011KT 6SM -SHRA OVC015", "KXWA 251738Z 2518/2618 15014KT P6SM FEW200 FM260500 18016KT P6SM SCT150 FM261200 23012KT P6SM VCSH BKN090 FM261500 31016G24KT P6SM BKN090", "KYIP 251743Z 2518/2618 VRB03KT P6SM OVC015 TEMPO 2518/2520 4SM -RA OVC007 FM252200 30005KT P6SM BKN025 OVC040 FM260200 33005KT P6SM SCT040 FM260700 VRB03KT 2SM BR SCT007 FM261100 36005KT 4SM BR BKN007 OVC015 FM261400 33007KT P6SM SCT025 BKN040", "KYKM 251731Z 2518/2618 VRB04KT P6SM FEW250 FM252000 15005KT P6SM FEW250 FM260300 31004KT P6SM FEW250 FM261000 29005KT P6SM BKN250", "KYNG 251740Z 2518/2618 25008KT P6SM BKN060 FM260100 35005KT P6SM VCSH BKN035 FM261100 35005KT P6SM BKN008 FM261500 35005KT P6SM SCT030", "KZZV 251720Z 2518/2618 20005KT P6SM SCT150 FM252100 24006KT P6SM BKN090 FM252300 26005KT P6SM OVC080 FM260000 30003KT P6SM BKN070", "TAF LAKU 251100Z 2512/2612 22016KT 9999 FEW030CB SCT050 BKN070 TX16/2512Z TN06/2604Z TEMPO 2513/2520 -TSRA TEMPO 2521/2605 VRB10G30KT 3000 +SHRA SCT010CB OVC020 BECMG 2608/2610 36016KT NSC", "TAF LATI 251700Z 2518/2618 VRB04KT 9999 SCT050 TX18/2612Z TN10/2604Z TEMPO 2521/2608 21015KT RA FEW030CB OVC050 TEMPO 2523/2606 3000 TSRA SCT020CB BECMG 2608/2610 33015KT CAVOK", "TAF LBBG 251700Z 2518/2618 VRB04KT 9999 SCT045 TEMPO 2518/2520 5000 TSRA FEW030CB BKN040 TEMPO 2522/2602 2000 BR BKN010 TEMPO 2602/2606 3000 RA BKN015 OVC025 BECMG 2607/2608 12012KT TEMPO 2608/2615 4000 SHRA FEW030CB BKN040", "TAF LBGO 251700Z 2518/2618 VRB04KT 9999 SCT065 PROB40 TEMPO 2601/2605 3000 BR BECMG 2606/2608 28012KT TEMPO 2614/2618 5000 TSRA SCT030CB BKN050", "TAF LBPD 251700Z 2518/2618 25010KT 9999 SCT065 PROB40 TEMPO 2518/2520 4000 TSRA FEW030CB OVC050 PROB40 TEMPO 2520/2523 5000 SHRA FEW030CB BKN040 TEMPO 2611/2616 5000 TSRA SCT025CB BKN040", "TAF LBSF 251700Z 2518/2618 29010KT 9999 SCT040 BKN070 TEMPO 2518/2520 5000 SHRA FEW030CB BKN050 BECMG 2523/2601 VRB04KT 3000 BR SCT010 PROB30 TEMPO 2601/2606 0800 BCFG SCT003 BECMG 2606/2608 30012KT 9999 SCT060 PROB40 TEMPO 2612/2617 3000 SHRA SCT030CB BKN040", "TAF LBWN 251700Z 2518/2618 VRB04KT 9999 SCT045 TEMPO 2518/2520 5000 TSRA SCT025CB BKN040 TEMPO 2600/2603 2000 BR BKN015 TEMPO 2603/2607 3000 RA BKN010 OVC020 BECMG 2607/2608 27010KT TEMPO 2608/2614 5000 SHRA SCT025CB BKN040", "TAF LCEN 251640Z 2518/2618 29012KT 9999 FEW020 SCT200", "TAF LCLK 251730Z 2518/2618 32006KT 9999 FEW025 BECMG 2605/2608 16011KT BECMG 2612/2614 22016KT BECMG 2616/2618 31006KT", "TAF LCPH 251730Z 2518/2618 36007KT 9999 FEW025 BECMG 2606/2609 25010KT BECMG 2615/2618 36006KT", "TAF LCRA 251930Z 2521/2615 26010KT CAVOK BECMG 2600/2603 06004KT BECMG 2606/2609 22006KT", "TAF LDDU 251725Z 2518/2618 13008KT 9999 FEW020 TX19/2612Z TN10/2603Z PROB40 TEMPO 2520/2600 30012KT 4000 TSRA BKN014 SCT025CB BKN035 BECMG 2523/2601 01012KT TEMPO 2602/2607 02018G30KT BECMG 2608/2610 30008KT BECMG 2616/2618 02015KT", "TAF LDOS 251725Z 2518/2618 34005KT 9999 FEW030 TX16/2612Z TN08/2521Z BECMG 2522/2600 33009KT TEMPO 2607/2613 33015KT BECMG 2616/2618 35005KT", "TAF LDPL 251725Z 2518/2618 35006KT 9999 FEW040 TX18/2613Z TN06/2604Z BECMG 2606/2608 06008KT PROB30 TEMPO 2612/2616 27008KT", "TAF LDRI 251725Z 2518/2618 VRB02KT 9999 FEW040 TX17/2613Z TN08/2604Z PROB30 TEMPO 2518/2604 02010KT", "TAF LDSP 251725Z 2518/2618 29004KT 9999 FEW040 TX20/2612Z TN11/2604Z PROB30 TEMPO 2518/2520 29014KT TSRA FEW020CB BKN040 BECMG 2522/2600 03012KT BECMG 2605/2607 02005KT BECMG 2609/2611 21009KT BECMG 2616/2618 35005KT", "TAF LDZA 251725Z 2518/2618 VRB02KT 9999 FEW040 TX17/2612Z TN06/2604Z PROB30 TEMPO 2518/2521 34012KT SHRA FEW040TCU PROB30 TEMPO 2523/2604 1500 BCFG TEMPO 2605/2610 04007KT PROB30 TEMPO 2612/2616 SHRA FEW045TCU SCT049", "TAF LDZD 251725Z 2518/2618 03005KT 9999 SCT040 TX19/2613Z TN06/2604Z PROB30 TEMPO 2518/2522 03015KT TSRA FEW030CB BKN040 BECMG 2611/2613 31010KT BECMG 2616/2618 33005KT", "TAF LEAB 251700Z 2518/2618 29012KT CAVOK TX31/2615Z TN12/2606Z PROB40 TEMPO 2518/2519 29014G25KT BECMG 2518/2520 VRB03KT BECMG 2611/2613 29010KT", "TAF LEAG 251400Z 2515/2615 16010KT CAVOK TX22/2612Z TN17/2606Z BECMG 2517/2519 VRB03KT PROB40 TEMPO 2612/2615 13010KT", "TAF LEAL 251700Z 2518/2618 07010KT 9999 FEW020 TX27/2612Z TN15/2606Z BECMG 2518/2521 VRB03KT PROB40 TEMPO 2606/2610 24010KT BECMG 2610/2612 09010KT", "TAF LEAM 251700Z 2518/2618 VRB03KT CAVOK TX27/2613Z TN15/2606Z BECMG 2612/2614 15010KT", "TAF LEAO 252000Z 2521/2621 VRB03KT CAVOK TX31/2615Z TN13/2606Z BECMG 2611/2613 27010KT BECMG 2618/2620 VRB03KT", "TAF LEAS 252000Z 2521/2621 VRB07KT 9999 FEW030 BKN050 TX20/2615Z TN15/2606Z PROB30 TEMPO 2521/2608 3000 RADZ BKN010", "TAF LEBA 251400Z 2515/2615 25006KT CAVOK TX36/2615Z TN12/2606Z", "TAF LEBB 251700Z 2518/2618 33008KT 9999 FEW020 SCT030 TX21/2612Z TN10/2606Z BECMG 2518/2520 VRB02KT PROB30 TEMPO 2520/2618 3000 RADZ BR BKN010 TEMPO 2612/2618 32008KT", "TAF LEBG 252000Z 2521/2621 06008KT 9999 FEW030 TX25/2615Z TN08/2606Z PROB30 TEMPO 2600/2607 3000 BR NSC TEMPO 2610/2619 27006KT", "TAF LEBL 251700Z 2518/2618 08007KT 9999 SCT010 TX20/2612Z TN14/2606Z BECMG 2520/2523 VRB03KT BECMG 2523/2601 34007KT PROB40 TEMPO 2518/2601 BKN006 BECMG 2607/2609 22012KT", "TAF LEBR 252000Z 2521/2621 33009KT 9999 FEW040 TX28/2615Z TN14/2606Z PROB30 TEMPO 2616/2621 35019KT", "TAF LEBZ 252000Z 2521/2621 27006KT CAVOK TX33/2615Z TN13/2606Z", "TAF LECO 252000Z 2521/2621 20009KT 9999 FEW020 BKN025 TX23/2613Z TN14/2606Z PROB30 TEMPO 2521/2604 3000 RADZ BKN010", "TAF LECV 251700Z 2518/2618 VRB03KT CAVOK TX25/2616Z TN11/2606Z TEMPO 2518/2519 29010KT", "TAF LEEC 250800Z 2509/2609 35004KT CAVOK TX34/2515Z TN15/2606Z BECMG 2515/2517 24010KT BECMG 2520/2522 VRB02KT", "TAF LEGA 251100Z 2512/2612 VRB02KT CAVOK TX31/2515Z TN10/2606Z BECMG 2513/2515 30010KT BECMG 2518/2520 VRB02KT", "TAF AMD LEGE 251802Z 2518/2618 VRB03KT 9999 FEW010 SCT025 TX24/2612Z TN12/2606Z TEMPO 2522/2607 2000 BR BKN004 PROB30 TEMPO 2522/2606 0400 FG VV002 TEMPO 2611/2616 15010KT", "TAF LEGR 251700Z 2518/2618 26010KT CAVOK TX35/2615Z TN09/2606Z BECMG 2518/2520 VRB02KT BECMG 2614/2616 24010KT", "TAF LEGT 251700Z 2518/2618 VRB05KT CAVOK TX28/2616Z TN12/2606Z PROB30 TEMPO 2518/2520 25010KT BECMG 2610/2612 25012KT TEMPO 2611/2618 25014G25KT", "TAF LEHC 251400Z 2515/2615 29012KT 9999 SCT042 TX27/2615Z TN12/2605Z TEMPO 2515/2517 29015G25KT BECMG 2518/2520 VRB03KT", "TAF LEIB 252000Z 2521/2621 VRB03KT 9999 FEW010 SCT020 TX22/2612Z TN13/2605Z PROB40 TEMPO 2522/2607 2000 BR BKN004 PROB30 TEMPO 2600/2604 0400 FG VV002 BECMG 2602/2604 10010KT", "TAF LEJR 252000Z 2521/2621 02005KT CAVOK TX36/2614Z TN13/2606Z BECMG 2612/2614 25010KT BECMG 2618/2620 VRB02KT", "TAF LELC 251700Z 2518/2618 21006KT CAVOK TX26/2518Z TN14/2606Z TEMPO 2603/2606 03010KT BECMG 2608/2610 09010KT", "TAF LELL 251400Z 2515/2615 11010KT 9999 FEW010 SCT030 TX25/2613Z TN12/2605Z BECMG 2519/2522 VRB03KT BECMG 2608/2611 21010KT", "TAF LELN 252000Z 2521/2621 VRB04KT 9999 FEW030 TX24/2615Z TN09/2606Z", "TAF LELO 252000Z 2521/2621 VRB05KT 9999 FEW045 TX27/2615Z TN09/2606Z PROB30 TEMPO 2616/2621 04010KT", "TAF LEMD 251700Z 2518/2624 VRB03KT CAVOK TX29/2616Z TN10/2606Z TEMPO 2518/2521 28010KT BECMG 2610/2612 25010KT PROB40 TEMPO 2611/2616 25012G25KT BECMG 2621/2623 VRB03KT", "TAF LEMG 251700Z 2518/2618 11007KT CAVOK TX27/2613Z TN15/2606Z BECMG 2520/2522 29007KT BECMG 2608/2610 14008KT", "TAF LEMH 252000Z 2521/2621 VRB05KT 9999 SCT012 TX21/2612Z TN14/2605Z PROB30 TEMPO 2521/2603 3000 BR TEMPO 2603/2606 04010KT TEMPO 2608/2616 14010KT", "TAF LEMO 252000Z 2521/2621 21005KT CAVOK TX36/2615Z TN14/2606Z PROB40 TEMPO 2608/2611 06010KT", "TAF LEPA 251700Z 2518/2618 18005KT 9999 FEW015 TX25/2612Z TN13/2606Z BECMG 2520/2522 06007KT PROB30 TEMPO 2521/2603 BKN009 BECMG 2608/2610 21010KT", "TAF LEPP 252000Z 2521/2621 34010KT 9999 FEW015 BKN025 TX24/2614Z TN11/2605Z PROB30 TEMPO 2600/2607 3000 BR BKN010 PROB30 TEMPO 2600/2607 VRB05KT", "TAF LERI 251700Z 2518/2618 20010KT CAVOK TX31/2614Z TN15/2606Z BECMG 2520/2522 VRB02KT BECMG 2612/2614 12010KT", "TAF LERL 251400Z 2515/2615 27010KT CAVOK TX32/2615Z TN12/2606Z PROB30 TEMPO 2515/2519 27012G25KT BECMG 2518/2520 VRB03KT BECMG 2611/2613 27010KT", "TAF LERS 252000Z 2521/2621 VRB03KT 9999 FEW030 TX22/2612Z TN13/2605Z TEMPO 2522/2612 BKN006 BECMG 2607/2610 19010KT", "TAF LERT 252000Z 2521/2621 31010KT CAVOK TX31/2613Z TN15/2606Z BECMG 2521/2523 VRB02KT BECMG 2605/2607 03010KT BECMG 2611/2613 25010KT BECMG 2618/2620 VRB02KT", "TAF LESA 252000Z 2521/2621 VRB05KT CAVOK TX25/2615Z TN06/2606Z PROB30 TEMPO 2602/2606 3000 BR NSC TEMPO 2612/2620 27010KT", "TAF LESO 251700Z 2518/2618 VRB05KT 9999 SCT020 BKN040 TX19/2615Z TN14/2606Z PROB40 TEMPO 2518/2618 3000 RADZ BR BKN010", "TAF AMD LEST 251859Z 2518/2618 22009KT 9999 SCT010 BKN020 TX20/2615Z TN12/2606Z TEMPO 2518/2612 BKN010 PROB40 TEMPO 2519/2612 3000 BR BKN005 PROB40 TEMPO 2519/2608 0800 FG BKN002", "TAF AMD LESU 251725Z 2517/2615 VRB02KT 9999 FEW030 TX23/2615Z TN09/2605Z TEMPO 2517/2519 31018G28KT", "TAF LETO 251700Z 2518/2618 VRB04KT CAVOK TX28/2616Z TN08/2606Z TEMPO 2518/2521 28010KT BECMG 2610/2612 25010KT PROB40 TEMPO 2611/2616 25012G25KT", "TAF LEVC 251700Z 2518/2618 06010KT 9999 FEW035 TX25/2612Z TN13/2606Z BECMG 2519/2521 VRB03KT TEMPO 2601/2611 BKN004 BECMG 2611/2613 08010KT", "TAF LEVD 252000Z 2521/2621 VRB05KT CAVOK TX26/2615Z TN10/2606Z PROB30 TEMPO 2602/2606 3000 BR NSC", "TAF LEVS 251700Z 2518/2618 VRB05KT CAVOK TX27/2616Z TN12/2606Z PROB30 TEMPO 2518/2520 25010KT BECMG 2610/2612 25012KT TEMPO 2611/2618 25014G25KT", "TAF LEVT 251700Z 2518/2618 VRB03KT 9999 FEW020 SCT050 TX22/2615Z TN09/2606Z TEMPO 2518/2520 03010KT TEMPO 2600/2608 BKN010 PROB40 TEMPO 2600/2610 3000 BR BKN005 PROB30 TEMPO 2600/2608 0350 FG VV001 BECMG 2612/2614 03010KT", "TAF LEVX 251700Z 2518/2618 27006KT 9999 SCT015 BKN020 TX18/2612Z TN12/2601Z PROB40 TEMPO 2521/2610 3000 BR BKN010 PROB40 TEMPO 2600/2608 0350 FG VV001", "TAF LEXJ 252000Z 2521/2621 20008KT 9999 BKN030 TX19/2615Z TN16/2606Z PROB30 TEMPO 2521/2609 4000 -RADZ BKN010 BECMG 2610/2613 04010KT", "TAF LEZG 251700Z 2518/2618 31008KT 9999 FEW040 TX30/2615Z TN14/2606Z", "TAF LEZL 252000Z 2521/2621 23010KT CAVOK TX36/2615Z TN15/2606Z BECMG 2521/2523 03005KT TEMPO 2618/2620 24010KT", "TAF LFAQ 251400Z 2515/2524 01007KT CAVOK", "TAF LFAT 251400Z 2515/2524 01010KT CAVOK BECMG 2517/2520 07007KT", "TAF AMD LFBA 251921Z 2519/2524 VRB03KT 9999 BKN020 OVC030 PROB40 TEMPO 2519/2522 4000 -RADZ BKN013", "TAF LFBC 252000Z 2521/2621 26005KT 6000 BKN006 BKN011 TEMPO 2521/2524 2000 RADZ BKN004 BECMG 2600/2602 BKN004 BKN008 PROB40 TEMPO 2600/2604 2000 RADZ TEMPO 2604/2609 2000 RADZ BKN003 BECMG 2610/2612 BKN015", "TAF AMD LFBD 252005Z 2520/2624 15005KT 9999 OVC013 TX20/2615Z TN13/2600Z BECMG 2520/2522 26005KT TEMPO 2520/2609 1500 DZ OVC002 BECMG 2610/2612 BKN007 BECMG 2614/2616 SCT020 BECMG 2618/2620 VRB02KT PROB30 TEMPO 2622/2624 4000 BR BKN005", "TAF AMD LFBE 251623Z 2516/2612 VRB02KT 9999 BKN030 PROB30 TEMPO 2517/2521 -RA BKN014 BECMG 2521/2523 OVC009 TEMPO 2600/2609 3000 DZ OVC003 BECMG 2610/2612 27010KT BKN020", "TAF LFBG 252000Z 2521/2621 20005KT 9999 BKN040 TEMPO 2521/2524 4000 -RA TEMPO 2600/2609 BKN009 PROB40 TEMPO 2600/2607 2500 -DZRA BKN004 BECMG 2608/2610 BKN015 BECMG 2612/2614 SCT040", "TAF AMD LFBH 252111Z 2521/2618 VRB03KT CAVOK BECMG 2600/2602 BKN006 TEMPO 2522/2603 2500 -DZRA BKN003 BECMG 2523/2601 26008KT BECMG 2604/2606 BKN016", "TAF LFBI 251700Z 2518/2618 VRB04KT 9999 SCT045 BKN110 TEMPO 2523/2604 -RA BECMG 2600/2602 BKN013 TEMPO 2604/2608 2000 -DZRA BKN003 PROB40 TEMPO 2605/2607 0800 FG VV/// BECMG 2608/2610 9999 NSW SCT020 BKN030 BECMG 2611/2613 24010KT", "TAF LFBL 251700Z 2518/2618 28005KT CAVOK PROB30 TEMPO 2518/2524 -RA BKN014 BECMG 2600/2602 4000 BR OVC006 TEMPO 2602/2609 1500 DZ OVC002 BECMG 2610/2612 9999 NSW BKN012 BECMG 2614/2616 SCT020", "TAF LFBM 252000Z 2521/2621 VRB02KT 9999 BKN015 TEMPO 2521/2606 4500 -RA BKN004 BECMG 2606/2608 OVC009 BECMG 2612/2615 SCT025", "TAF LFBO 251700Z 2518/2624 33006KT 9999 SCT012 BKN025 PROB40 TEMPO 2518/2520 3000 -DZ BKN004 BECMG 2520/2522 BKN008 PROB40 TEMPO 2520/2606 4000 -RADZ BKN005 BECMG 2607/2609 SCT012 BKN020 BECMG 2610/2612 SCT018 BKN030 BECMG 2615/2617 SCT025 BECMG 2618/2620 CAVOK PROB30 TEMPO 2621/2624 3000 BR", "TAF LFBP 251700Z 2518/2618 27010KT 9999 SCT025 BKN045 BECMG 2522/2524 VRB03KT BKN030 PROB30 TEMPO 2600/2606 4000 -RADZ BKN008 BECMG 2606/2608 BKN012 BECMG 2609/2611 SCT016 BKN025 BECMG 2613/2615 SCT020 ", "TAF LFBT 251700Z 2518/2618 27006KT 9999 SCT020 BKN030 PROB40 TEMPO 2522/2608 4000 -RADZ BKN007 BECMG 2608/2610 BKN012 BECMG 2611/2613 BKN025", "TAF LFBU 251700Z 2518/2618 20005KT CAVOK PROB30 TEMPO 2518/2521 -RA BKN014 BECMG 2522/2524 OVC009 TEMPO 2602/2608 1500 DZ OVC003 BECMG 2609/2611 27010KT BKN014 BECMG 2614/2616 SCT020", "TAF LFBZ 251700Z 2518/2618 25005KT CAVOK BECMG 2519/2521 VRB02KT BKN020 PROB30 TEMPO 2523/2609 4000 -RA OVC012 BECMG 2612/2614 35006KT CAVOK", "TAF LFCK 251700Z 2518/2603 31008KT 9999 SCT020 BKN030 OVC040 PROB40 TEMPO 2518/2521 4000 -RADZ BKN012 BECMG 2521/2523 BKN010 PROB30 TEMPO 2521/2603 4000 -RADZ BKN007", "TAF LFCR 251700Z 2518/2618 29008KT 9999 BKN040 BECMG 2522/2524 BKN020 PROB30 TEMPO 2600/2612 4000 -RADZ BKN008 BECMG 2613/2615 SCT030", "TAF LFGJ 251400Z 2515/2524 30008KT 9999 FEW043 SCT053 BKN065 PROB30 TEMPO 2515/2518 -SHRA", "TAF LFJL 251700Z 2518/2618 36008KT 9999 FEW023 BKN045", "TAF LFKB 252000Z 2521/2621 18006KT 9999 FEW040 TX22/2611Z TN10/2603Z BECMG 2608/2610 14010KT BECMG 2616/2618 VRB04KT", "TAF LFKC 251400Z 2515/2615 21020G30KT 9999 FEW040 BKN200 TX21/2611Z TN11/2603Z BECMG 2520/2522 19010KT BECMG 2608/2609 35010KT", "TAF LFKF 251400Z 2515/2615 29020G35KT 9999 SCT035 BKN230 BECMG 2517/2519 29015G25KT BECMG 2519/2521 28010KT BECMG 2521/2523 22008KT BECMG 2608/2610 24012KT", "TAF LFKJ 252000Z 2521/2621 04006KT 9999 BKN030 BECMG 2608/2610 23010KT CAVOK BECMG 2618/2621 VRB03KT", "TAF LFKS 251400Z 2515/2615 27010KT CAVOK TEMPO 2515/2520 27020G35KT PROB40 TEMPO 2521/2608 BKN010", "TAF LFLB 251400Z 2515/2615 VRB05KT 9999 SCT050 BECMG 2516/2518 CAVOK", "TAF LFLC 251700Z 2518/2618 05008KT 9999 SCT060 BECMG 2519/2521 VRB02KT BECMG 2604/2606 18010KT BKN030 PROB30 TEMPO 2606/2609 -RA BECMG 2611/2614 29010KT SCT060 BECMG 2614/2616 VRB03KT", "TAF LFLL 251700Z 2518/2624 36007KT CAVOK TEMPO 2522/2609 VRB01KT", "TAF LFLN 251700Z 2518/2603 34005KT CAVOK", "TAF LFLP 251400Z 2515/2615 32008KT 9999 SCT055 BECMG 2517/2519 VRB02KT CAVOK", "TAF LFLS 251400Z 2515/2615 35008KT 9999 SCT060 BECMG 2516/2519 VRB02KT CAVOK", "TAF LFLW 251400Z 2515/2524 30005KT CAVOK PROB40 TEMPO 2521/2524 VRB02KT 0800 FG BKN002", "TAF LFLX 251700Z 2518/2624 02005KT 9999 BKN040 BECMG 2605/2608 BKN012 TEMPO 2608/2611 3000 -RADZ OVC007 BECMG 2611/2613 BKN020 PROB30 TEMPO 2612/2618 4000 -SHRA SCT020TCU", "TAF LFLY 251700Z 2518/2618 36007KT CAVOK", "TAF LFMD 251400Z 2515/2615 28010KT CAVOK BECMG 2515/2517 06005KT BECMG 2607/2609 16010KT TEMPO 2611/2615 10010KT", "TAF LFMI 252000Z 2521/2621 34012KT CAVOK TX25/2615Z TN11/2605Z PROB30 TEMPO 2521/2612 34015G25KT BECMG 2614/2616 26012KT", "TAF LFMK 251400Z 2515/2615 27010KT 9999 SCT020 BKN045 BECMG 2518/2520 BKN012 PROB30 TEMPO 2522/2607 4000 -RADZ BKN009 BECMG 2608/2610 SCT020 BKN040 BECMG 2611/2613 SCT035", "TAF LFML 252000Z 2521/2703 33012KT CAVOK TX24/2615Z TN11/2605Z TEMPO 2613/2615 27012KT BECMG 2615/2617 26012KT BECMG 2619/2621 VRB03KT", "TAF AMD LFMN 252030Z 2521/2703 33010KT CAVOK TEMPO 2521/2524 VRB05KT BECMG 2606/2608 12010KT BECMG 2618/2620 VRB04KT TEMPO 2700/2703 34010KT", "TAF LFMO 252000Z 2521/2621 35012KT CAVOK TX23/2614Z TN10/2604Z TEMPO 2606/2613 35015G25KT", "TAF LFMP 251400Z 2515/2615 31010KT 9999 BKN065 TEMPO 2515/2520 32015G30KT TEMPO 2604/2607 VRB05KT RA BKN010 FEW035TCU BKN040 BECMG 2608/2610 14010KT NSC", "TAF LFMT 252000Z 2521/2621 VRB05KT CAVOK BECMG 2611/2613 20012KT BECMG 2615/2617 30015KT", "TAF AMD LFMU 251828Z 2518/2615 34010KT 9999 SCT045 BKN060 BECMG 2519/2521 VRB03KT BECMG 2612/2614 32010KT SCT025", "TAF LFMV 251400Z 2515/2615 35012KT CAVOK", "TAF LFMY 251400Z 2515/2615 33012KT CAVOK TX24/2613Z TN10/2604Z TEMPO 2515/2518 33015G25KT TEMPO 2609/2612 33015G25KT", "TAF LFOA 252000Z 2521/2621 05005KT 9999 FEW040 BKN150 TX16/2615Z TN07/2605Z PROB40 TEMPO 2603/2610 4000 RA SCT030 BKN060 TEMPO 2610/2615 4000 SHRA BKN013", "TAF LFOB 251700Z 2518/2618 06007KT CAVOK", "TAF LFOE 252000Z 2521/2621 09005KT CAVOK", "TAF LFOH 251100Z 2512/2612 07007KT 9999 SCT035", "TAF LFOJ 252000Z 2521/2621 07006KT CAVOK TX16/2615Z TN07/2605Z PROB30 TEMPO 2605/2609 4000 -RADZ BKN009 OVC018 PROB30 TEMPO 2613/2618 4000 SHRA SCT020TCU", "TAF LFOK 251700Z 2518/2618 01006KT CAVOK", "TAF LFOP 251400Z 2515/2524 04007KT CAVOK", "TAF LFOT 251700Z 2518/2618 07005KT 9999 BKN040 BECMG 2605/2608 BKN012 TEMPO 2608/2612 3000 -RADZ OVC007 BECMG 2612/2614 BKN020 PROB30 TEMPO 2613/2618 4000 -SHRA SCT020TCU", "TAF LFPB 251700Z 2518/2618 04005KT CAVOK BECMG 2608/2610 10005KT", "TAF LFPG 251700Z 2518/2624 04005KT CAVOK TX15/2615Z TN05/2605Z BECMG 2608/2610 10005KT", "TAF LFPN 251700Z 2518/2603 01005KT 9999 BKN040", "TAF LFPO 251700Z 2518/2624 07005KT 9999 SCT040 PROB30 TEMPO 2611/2615 -RA", "TAF LFPV 252000Z 2521/2621 08006KT CAVOK TX15/2615Z TN06/2605Z", "TAF LFQQ 251700Z 2518/2624 35010KT 9999 SCT040 BECMG 2518/2520 VRB03KT", "TAF LFRB 251700Z 2518/2624 15010KT 9999 SCT015 BKN030 TEMPO 2518/2524 4000 -RADZ BECMG 2519/2522 OVC012 BECMG 2522/2524 OVC005 TEMPO 2600/2608 2000 -RADZ BR OVC002 PROB40 TEMPO 2600/2606 0800 FG VV/// BECMG 2603/2606 VRB05KT BECMG 2608/2611 BKN020 PROB40 TEMPO 2611/2614 BKN012 PROB40 2620/2624 4000 -RADZ BKN009", "TAF LFRC 251400Z 2515/2524 08010KT 9999 SCT030", "TAF LFRD 251700Z 2518/2618 12006KT 9999 SCT025 BKN040 TEMPO 2520/2603 4000 -RA BECMG 2600/2603 OVC012 TEMPO 2603/2609 2000 -RADZ BR OVC003 PROB40 TEMPO 2606/2609 0800 FG VV/// BECMG 2609/2612 BKN020", "TAF LFRG 251400Z 2515/2524 01010KT 9999 SCT030 BECMG 2518/2521 09010KT", "TAF LFRH 251700Z 2518/2618 12010KT 9999 BKN048 TEMPO 2518/2522 RA BECMG 2520/2522 BKN008 OVC013 TEMPO 2522/2524 3000 RADZ BECMG 2600/2602 VRB03KT 3000 RADZ BKN004 TEMPO 2600/2602 1400 RADZ OVC001 PROB40 2602/2607 0800 RADZ FG VV/// BECMG 2607/2610 25010KT BKN008 BECMG 2610/2612 CAVOK", "TAF LFRI 251700Z 2518/2618 VRB04KT 9999 BKN045 TEMPO 2518/2524 -RA BECMG 2521/2523 BKN007 TEMPO 2600/2608 2500 -DZRA BKN003 PROB40 TEMPO 2601/2604 0800 FG VV/// BECMG 2607/2609 BKN018 BECMG 2609/2611 25010KT", "TAF LFRJ 252000Z 2521/2606 14007KT 9999 BKN040 BECMG 2521/2523 4000 RADZ OVC012 TEMPO 2523/2603 BKN007 TEMPO 2603/2606 0800 FG VV///", "TAF LFRK 251400Z 2515/2524 03010KT 9999 SCT030 BECMG 2519/2522 09008KT", "TAF AMD LFRL 251130Z 2512/2612 12010KT 9999 FEW025 BKN110 TEMPO 2514/2520 4000 RA BKN008 BECMG 2520/2522 BKN004 TEMPO 2523/2608 2000 RADZ BKN002 PROB30 2601/2605 0800 FG VV///", "TAF LFRM 251700Z 2518/2618 03010KT 9999 BKN045 BECMG 2518/2520 10006KT BECMG 2606/2608 BKN014 TEMPO 2610/2616 BKN008 BECMG 2615/2617 BKN040", "TAF LFRN 251700Z 2518/2618 12006KT 9999 SCT025 BKN040 TEMPO 2520/2603 4000 -RA BECMG 2600/2603 OVC012 TEMPO 2603/2609 2000 -RADZ BR OVC003 PROB40 TEMPO 2605/2609 0800 FG VV/// BECMG 2609/2612 BKN020", "TAF LFRQ 251700Z 2518/2618 13012KT 9999 SCT015 BKN030 TEMPO 2518/2523 4000 -RADZ BECMG 2518/2521 OVC012 BECMG 2521/2523 OVC004 BECMG 2523/2602 VRB05KT TEMPO 2523/2609 2000 -RADZ BR OVC002 PROB40 TEMPO 2523/2607 0800 FG VV/// BECMG 2608/2610 BKN020 PROB40 TEMPO 2610/2612 BKN012", "TAF LFRS 251700Z 2518/2624 VRB04KT 9999 SCT040 OVC085 TEMPO 2521/2602 -RA BECMG 2522/2524 BKN009 TEMPO 2602/2607 2500 -DZRA BKN003 BECMG 2605/2607 BKN011 BECMG 2608/2610 BKN025 BECMG 2611/2613 25010KT BECMG 2619/2621 VRB03KT TEMPO 2621/2624 3000 BR", "TAF LFRZ 251700Z 2518/2618 21006KT CAVOK TEMPO 2518/2602 -RA BECMG 2521/2523 11010KT BKN013 TEMPO 2602/2608 2500 -DZRA BKN003 PROB40 TEMPO 2603/2607 0800 FG VV/// BECMG 2608/2610 22010KT BKN030", "TAF AMD LFSB 251811Z 2518/2618 36005KT 9999 FEW040 BKN053 TEMPO 2518/2519 30010KT 1500 SHRA FEW030CB TEMPO 2519/2521 4000 -SHRA FEW030TCU TEMPO 2521/2607 3000 BR PROB40 TEMPO 2603/2606 0300 FG VV///", "TAF LFSI 252000Z 2521/2621 VRB03KT CAVOK PROB40 TEMPO 2600/2604 4000 MIFG", "TAF LFSL 251400Z 2515/2524 VRB03KT CAVOK BECMG 2522/2524 BKN020", "TAF LFSO 252000Z 2521/2621 VRB02KT CAVOK TEMPO 2601/2606 3000 BR NSC", "TAF LFST 251700Z 2518/2618 33006KT 9999 FEW030 BKN045 PROB40 TEMPO 2518/2521 -SHRA FEW030TCU", "TAF LFSX 252000Z 2521/2621 27005KT CAVOK BECMG 2521/2524 0800 FG VV/// BECMG 2605/2607 CAVOK", "TAF LFTH 252000Z 2521/2621 27010KT CAVOK BECMG 2521/2524 35007KT BECMG 2608/2610 26012KT BECMG 2612/2614 11012KT BECMG 2619/2621 VRB03KT", "TAF LFTW 251400Z 2515/2615 34008KT CAVOK TEMPO 2515/2522 04012KT BECMG 2613/2615 21012KT", "TAF LFVP 251700Z 2518/2603 36010KT CAVOK BECMG 2601/2603 BKN015", "TAF LFYR 251400Z 2515/2615 33005KT 9999 NSC BECMG 2600/2602 09005KT -RA TEMPO 2606/2611 3000 RADZ BKN008 BECMG 2611/2613 27005KT NSW SCT014 BKN025", "TAF LGAD 252000Z 2521/2606 22012KT 9999 FEW010 BECMG 2601/2603 SCT020 BKN080 PROB30 TEMPO 2603/2606 5000 RA", "TAF LGAL 252000Z 2521/2606 VRB05KT 9999 FEW015 SCT025 PROB30 TEMPO 2521/2606 5000 RA FEW012 FEW018TCU BKN020 BKN060 PROB30 TEMPO 2521/2606 5000 TSRA FEW010 FEW016CB BKN020 BKN060", "TAF LGAV 251700Z 2518/2618 24010KT 9999 FEW025 BECMG 2612/2614 27018G28KT PROB30 TEMPO 2610/2615 5000 TSRA FEW018CB BKN020 BKN070", "TAF LGBL 252000Z 2521/2606 27010KT 9999 FEW025", "TAF LGEL 251700Z 2518/2618 28010KT 9999 FEW025 BECMG 2612/2614 28018G28KT PROB30 TEMPO 2610/2615 5000 TSRA FEW018CB BKN020 BKN070", "TAF LGHI 252000Z 2521/2606 20012KT 9999 FEW015 SCT020 PROB30 TEMPO 2601/2606 5000 RA FEW010 FEW018TCU BKN020 BKN060", "TAF LGIO 252000Z 2521/2606 VRB03KT 9999 SCT025 BKN080 PROB40 TEMPO 2521/2606 5000 SHRA FEW020TCU BKN025 BKN080 PROB30 TEMPO 2521/2606 3000 TSRA FEW018CB BKN020 OVC070", "TAF LGIR 251700Z 2518/2618 VRB05KT 9999 FEW020 BECMG 2519/2521 17010KT BECMG 2606/2608 VRB05KT BECMG 2602/2604 FEW020 BKN080 PROB30 TEMPO 2612/2615 5000 RA FEW018TCU BKN020 BKN070", "TAF LGKC 252000Z 2521/2606 26017KT 8000 SCT006 SCT012 TEMPO 2521/2603 26016G26KT PROB30 TEMPO 2521/2606 5000 RA FEW018TCU BKN020", "TAF LGKF 252000Z 2521/2606 27012KT 9999 FEW012 SCT070 PROB30 TEMPO 2521/2606 5000 RA FEW018TCU BKN020", "TAF LGKL 252000Z 2521/2606 27006KT 9999 FEW025 BECMG 2601/2603 SCT025 BKN080 PROB30 TEMPO 2603/2606 5000 RA", "TAF LGKO 251700Z 2518/2618 22014KT 9999 FEW018 SCT020 PROB30 TEMPO 2606/2615 5000 RA FEW018TCU BKN020", "TAF LGKP 252000Z 2521/2606 25015KT 9999 FEW020", "TAF LGKR 251700Z 2518/2618 VRB05KT 9999 FEW020 SCT080 BECMG 2604/2606 31012KT BECMG 2609/2611 31015G25KT PROB40 TEMPO 2600/2612 5000 RA FEW016TCU BKN020 BKN080 PROB30 TEMPO 2600/2606 4000 TSRA FEW016CB BKN020 BKN070", "TAF LGKV 251700Z 2518/2618 VRB03KT 9999 FEW025 BECMG 2605/2607 SCT025 BKN080 TEMPO 2607/2618 5000 SHRA FEW020TCU BKN025 BKN080 PROB40 TEMPO 2609/2618 3000 TSRA FEW018CB BKN020 OVC070", "TAF LGLM 252000Z 2521/2606 27006KT 9999 FEW020 PROB30 TEMPO 2522/2602 5000 RA BKN020", "TAF LGLR 252000Z 2521/2606 24008KT 9999 FEW025", "TAF LGMK 252000Z 2521/2606 22014KT 9999 FEW015", "TAF LGMT 252000Z 2521/2606 18012KT 9999 FEW015 SCT020 PROB30 TEMPO 2521/2606 5000 RA FEW018TCU BKN020 PROB30 TEMPO 2601/2606 5000 TSRA FEW010 FEW016CB BKN020", "TAF LGPZ 251700Z 2518/2618 25012KT 9999 FEW025 SCT080 BECMG 2518/2520 VRB05KT BECMG 2522/2524 06010KT BECMG 2604/2606 31010KT BECMG 2610/2612 29015G25KT PROB30 TEMPO 2521/2610 5000 RA FEW016TCU BKN020 BKN070", "TAF LGRP 251700Z 2518/2618 VRB05KT 9999 FEW018 BECMG 2607/2609 15010KT PROB30 TEMPO 2612/2618 5000 RA FEW018TCU BKN020", "TAF LGRX 252000Z 2521/2606 20012KT 9999 FEW025 BECMG 2601/2603 SCT025 BKN080 PROB30 TEMPO 2603/2606 5000 RA", "TAF LGSA 251700Z 2518/2618 26014KT 9999 FEW020 TEMPO 2609/2615 28015G25KT BECMG 2602/2604 FEW020 BKN080 PROB30 TEMPO 2612/2615 5000 RA FEW018TCU BKN020 BKN070", "TAF LGSK 252000Z 2521/2606 26015KT 9999 SCT020", "TAF LGSM 252000Z 2521/2606 19012KT 9999 FEW015 SCT020 PROB30 TEMPO 2521/2606 5000 RA FEW010 FEW018TCU BKN020", "TAF LGSR 251700Z 2518/2618 25018KT 9999 FEW018 SCT025 TEMPO 2518/2606 24018G28KT SCT016 BKN025", "TAF LGST 252000Z 2521/2606 VRB05KT 9999 FEW025", "TAF LGSY 252000Z 2521/2606 27010KT 9999 FEW020", "TAF LGTG 252000Z 2521/2606 25010KT 9999 FEW025", "TAF LGTL 252000Z 2521/2606 18012KT 9999 FEW020 BECMG 2601/2603 FEW020 BKN080", "TAF LGTS 251700Z 2518/2618 VRB03KT 9999 FEW025 PROB30 TEMPO 2518/2519 4000 TSRA FEW018CB BKN025 BECMG 2603/2605 34015KT SCT025 TEMPO 2605/2615 5000 SHRA FEW020TCU BKN025 PROB40 TEMPO 2607/2615 3000 TSRA FEW018CB BKN020 BECMG 2615/2617 FEW025 TEMPO 2615/2618 34015G25KT", "TAF LGZA 252000Z 2521/2606 27010KT 9999 FEW015 SCT080 PROB30 TEMPO 2521/2606 5000 RA FEW018TCU BKN020", "TAF LHBP 251715Z 2518/2618 32012KT CAVOK PROB30 TEMPO 2518/2522 8000 SHRA SCT040TCU BKN050 TEMPO 2520/2605 30007KT BECMG 2605/2608 33016G26KT BECMG 2614/2617 32011KT", "TAF LHDC 252015Z 2521/2606 32006KT CAVOK BECMG 2600/2603 8000 FEW030 BKN200 PROB30 TEMPO 2603/2605 2500 MIFG BR", "TAF LHKE 252015Z 2521/2606 31007KT CAVOK TEMPO 2521/2524 VRB03KT 9999 SCT045 BECMG 2603/2606 32011KT", "TAF LHPA 251715Z 2518/2618 33009KT CAVOK PROB30 TEMPO 2518/2522 34013G24KT 8000 SHRA SCT045TCU SCT083 BKN200 TEMPO 2522/2604 34012G22KT 9999 SCT030 BECMG 2606/2609 33014G24KT 9999 SCT040 PROB30 TEMPO 2610/2614 8000 SHRA SCT035TCU BKN060 BECMG 2614/2617 33008KT", "TAF LHPP 251415Z 2515/2524 33009KT CAVOK PROB30 TEMPO 2515/2521 VRB18G28KT 6000 SHRA SCT045CB TEMPO 2521/2524 33014G24KT", "TAF LHPR 251715Z 2518/2603 33015KT CAVOK", "TAF LHSN 252015Z 2521/2606 25004KT CAVOK TEMPO 2521/2524 VRB02KT BECMG 2522/2524 8000 NSC TEMPO 2523/2603 5000 MIFG BR BECMG 2601/2603 29006KT BECMG 2604/2606 33008KT CAVOK", "TAF LIBA 252000Z 2521/2606 29018KT 9999 SCT030 SCT060 TEMPO 2521/2602 29017G30KT 7000 SHRA FEW030CB BKN040", "TAF LIBC 251100Z 2512/2612 24015KT 9999 SCT040 TEMPO 2512/2518 24015G28KT BECMG 2604/2606 35012KT", "TAF LIBD 251700Z 2518/2618 23010KT 9999 SCT030 TEMPO 2518/2522 4000 SHRA BECMG 2520/2522 29016KT BECMG 2604/2606 35018G30KT BECMG 2612/2614 35013KT", "TAF LIBF 251700Z 2518/2618 24018KT 9999 SCT040 TEMPO 2518/2603 4000 SHRA BECMG 2519/2521 33015KT BECMG 2603/2605 35018G28KT BECMG 2612/2614 35012KT", "TAF LIBG 251400Z 2515/2524 23010KT 9999 SCT030 BECMG 2519/2521 30012KT", "TAF LIBP 251700Z 2518/2618 01010KT 9999 SCT040 TEMPO 2518/2521 4000 SHRA BECMG 2521/2523 35018G28KT BECMG 2604/2606 35012KT BECMG 2608/2610 05010KT", "TAF LIBR 251700Z 2518/2618 24010KT 9999 SCT030 BECMG 2520/2522 31015KT TEMPO 2520/2602 4000 SHRA BECMG 2604/2606 33018G30KT BECMG 2610/2612 35018KT", "TAF LIBV 252000Z 2521/2606 33010KT 9999 SCT020", "TAF COR LICA 252001Z 2518/2618 27015KT 9999 BKN015 TEMPO 2520/2606 SHRA BECMG 2616/2618 VRB05KT", "TAF LICB 251700Z 2518/2618 VRB06KT CAVOK BECMG 2608/2610 24012KT BECMG 2614/2616 VRB05KT", "TAF LICC 251700Z 2518/2618 26010KT CAVOK BECMG 2610/2612 09011KT BECMG 2616/2618 VRB05KT", "TAF LICD 251700Z 2518/2618 VRB06KT CAVOK BECMG 2606/2608 32012KT", "TAF LICG 251400Z 2515/2524 27005KT CAVOK BECMG 2521/2523 27015KT", "TAF LICJ 251700Z 2518/2618 21012KT 9999 FEW030 BECMG 2606/2608 33012KT BECMG 2616/2618 VRB05KT", "TAF LICR 251700Z 2518/2618 35015KT 9999 SCT050 PROB40 TEMPO 2602/2606 RA", "TAF LICT 252000Z 2521/2606 25005KT CAVOK BECMG 2601/2603 33003KT 9999 SCT025", "TAF LICZ 250500Z 2506/2606 27010KT CAVOK BECMG 2509/2511 33015G25KT BECMG 2516/2518 27006KT", "TAF LIEA 251700Z 2518/2618 28010KT 9999 FEW030 BECMG 2616/2618 VRB05KT", "TAF LIED 252000Z 2521/2606 32003KT CAVOK PROB30 TEMPO 2604/2606 0200 BCFG BKN001", "TAF LIEE 251700Z 2518/2618 33010KT 9999 FEW040 BECMG 2610/2612 33015G25KT", "TAF LIEO 251700Z 2518/2618 26018G28KT 9999 FEW040 BECMG 2520/2522 26015KT BECMG 2608/2610 06010KT BECMG 2616/2618 26007KT", "TAF LIMC 251700Z 2518/2624 03014KT CAVOK BECMG 2522/2524 VRB05KT", "TAF LIME 251700Z 2518/2618 01007KT 9999 SCT030", "TAF LIMF 251700Z 2518/2618 VRB05KT CAVOK", "TAF LIMG 251100Z 2512/2612 10010KT CAVOK BECMG 2517/2519 VRB05KT BECMG 2609/2611 08010KT", "TAF LIMJ 251700Z 2518/2618 23008KT CAVOK BECMG 2518/2520 03010KT BECMG 2609/2611 16008KT", "TAF LIML 251700Z 2518/2618 06007KT 9999 SCT030", "TAF LIMP 251700Z 2518/2618 11010KT 9999 SCT030 BECMG 2518/2520 VRB04KT TEMPO 2601/2606 3000 BR", "TAF LIMW 251700Z 2518/2603 26016KT 9999 FEW080 BECMG 2519/2521 26006KT", "TAF LIMZ 251700Z 2518/2618 04010KT CAVOK BECMG 2518/2520 VRB05KT", "TAF LIPB 251700Z 2518/2618 VRB05KT 9999 FEW030", "TAF LIPC 252000Z 2521/2606 23004KT CAVOK", "TAF LIPE 251700Z 2518/2618 VRB05KT 9999 SCT030 TEMPO 2523/2605 3000 BR", "TAF LIPH 251700Z 2518/2618 VRB05KT 9999 SCT040 BECMG 2609/2611 07010KT", "TAF LIPK 251700Z 2518/2618 VRB05KT 9999 SCT030 BECMG 2608/2610 08010KT", "TAF LIPL 252000Z 2521/2606 05003KT CAVOK", "TAF LIPO 251700Z 2518/2618 12011KT 9999 FEW050 BECMG 2518/2520 VRB05KT", "TAF LIPQ 251700Z 2518/2618 VRB06KT 9999 SCT050", "TAF LIPR 251700Z 2518/2618 35012KT 9999 SCT050 BECMG 2519/2521 VRB05KT BECMG 2609/2611 07010KT", "TAF LIPS 252000Z 2521/2606 20005KT 9999 SCT030 BECMG 2523/2601 VRB03KT CAVOK", "TAF LIPX 251700Z 2518/2618 10012KT 9999 SCT040 BECMG 2518/2520 VRB05KT TEMPO 2600/2605 3000 BR", "TAF LIPY 251700Z 2518/2618 31012KT 9999 SCT050 BECMG 2520/2522 VRB05KT BECMG 2609/2611 06010KT", "TAF LIPZ 251700Z 2518/2624 VRB05KT 9999 SCT020 BECMG 2609/2611 16010KT BECMG 2616/2618 VRB05KT", "TAF LIRA 251700Z 2518/2618 28010KT 9999 FEW040 BECMG 2518/2521 02006KT BECMG 2611/2613 27011KT BECMG 2616/2618 VRB05KT", "TAF LIRE 252000Z 2521/2606 35005KT CAVOK", "TAF LIRF 251700Z 2518/2624 30010KT CAVOK BECMG 2521/2523 02007KT BECMG 2609/2611 28013KT BECMG 2620/2622 VRB05KT", "TAF LIRM 252000Z 2521/2606 20003KT 9999 SCT030 BECMG 2521/2522 03003KT 4000 BR NSC BECMG 2522/2524 0400 FG BKN001 BECMG 2601/2603 3000 BR SCT003 BECMG 2603/2605 8000 NSW NSC", "TAF LIRN 251700Z 2518/2618 26010KT 9999 BKN030 BECMG 2521/2523 05008KT BECMG 2611/2613 26012KT BECMG 2616/2618 VRB05KT", "TAF LIRP 251700Z 2518/2618 25007KT 9999 SCT030 BECMG 2523/2601 VRB03KT CAVOK BECMG 2611/2613 27005KT 9999 FEW030", "TAF LIRQ 251700Z 2518/2618 VRB06KT 9999 SCT050 TEMPO 2518/2520 RA", "TAF LIRS 252000Z 2521/2606 33008KT 9999 FEW030 BECMG 2523/2601 05005KT CAVOK", "TAF LIRU 251400Z 2515/2524 26012KT 9999 SCT030 BECMG 2518/2520 36006KT", "TAF LIRV 251400Z 2515/2524 26010KT 9999 FEW030 BECMG 2518/2520 36005KT CAVOK", "TAF LIRZ 251700Z 2518/2618 02007KT 9999 SCT040 TEMPO 2518/2520 RA", "TAF LJCE 252000Z 2521/2606 30004KT CAVOK", "TAF LJLJ 251700Z 2518/2618 24003KT 9999 FEW040 PROB30 TEMPO 2604/2606 BCFG PROB30 TEMPO 2610/2618 SHRA BKN050TCU", "TAF LJMB 251700Z 2518/2618 20005KT CAVOK PROB40 TEMPO 2518/2521 SHRA BKN050TCU TEMPO 2519/2605 35010KT PROB30 TEMPO 2610/2618 SHRA BKN050TCU", "TAF LJPZ 252000Z 2521/2606 12005KT CAVOK", "TAF LKCV 251700Z 2518/2618 31010KT CAVOK PROB30 TEMPO 2602/2607 31004KT BKN024 TEMPO 2610/2616 30015KT 8000 SHRA BKN035", "TAF LKKB 251700Z 2518/2618 30008KT CAVOK BECMG 2607/2609 BKN030 TEMPO 2607/2610 SCT020 TEMPO 2609/2617 29015KT BECMG 2615/2617 CAVOK", "TAF LKKV 251700Z 2518/2618 30010KT 9999 BKN040 BECMG 2518/2520 26004KT BECMG 2609/2611 29010KT PROB40 TEMPO 2611/2616 -SHRA BKN025", "TAF LKMT 251700Z 2518/2618 01005KT CAVOK TEMPO 2518/2520 8000 SHRA BKN025TCU TEMPO 2610/2616 36015KT 9999 -SHRA BKN035 BECMG 2617/2618 22004KT", "TAF LKNA 251700Z 2518/2618 31006KT CAVOK BECMG 2606/2608 BKN025", "TAF LKPR 252000Z 2521/2703 30008KT CAVOK PROB40 TEMPO 2609/2616 31014KT 9999 -SHRA BKN035 BECMG 2619/2621 26005KT", "TAF LKTB 251700Z 2518/2618 31007KT CAVOK TEMPO 2609/2616 32016KT", "TAF LLBG 251702Z 2518/2618 35006KT CAVOK BECMG 2520/2522 VRB03KT 9999 FEW017 PROB40 TEMPO 2523/2604 14005KT 8000 BKN015 BECMG 2607/2609 32008KT CAVOK BECMG 2615/2617 VRB03KT TX26/2611Z TN12/2604Z", "TAF LLER 251701Z 2518/2618 36010KT CAVOK BECMG 2607/2609 02015KT PROB40 TEMPO 2614/2618 01020KT TX32/2613Z TN18/2604Z", "TAF LLHA 251703Z 2518/2618 33006KT CAVOK BECMG 2520/2522 VRB04KT 9999 FEW018 PROB40 TEMPO 2602/2605 7000 BKN015 BECMG 2607/2609 32010KT CAVOK TX22/2611Z TN14/2604Z", "TAF LLHZ 251703Z 2518/2618 VRB03KT CAVOK BECMG 2520/2522 9999 SCT017 PROB40 TEMPO 2522/2605 7000 BKN014 BECMG 2607/2609 32008KT CAVOK TX23/2611Z TN13/2603Z", "TAF LLIB 251109Z 2512/2612 33010KT CAVOK BECMG 2516/2518 VRB04KT PROB40 TEMPO 2600/2606 6000 SCT012 BECMG 2606/2608 16007KT TX25/2512Z TN09/2604Z", "TAF LMML 251700Z 2518/2618 29012KT 9999 FEW015", "TAF LOWG 251715Z 2518/2618 VRB05KT 9999 FEW060 TX14/2614Z TN04/2604Z TEMPO 2518/2524 34012KT TEMPO 2609/2614 33010KT -SHRA", "TAF LOWI 251715Z 2518/2618 29015G25KT 9999 SCT040 BKN070 TX15/2615Z TN05/2604Z TEMPO 2518/2609 SHRA PROB30 TEMPO 2518/2520 TSRA FEW040CB BKN050 BECMG 2518/2520 27005KT BECMG 2609/2611 09006KT", "TAF LOWK 251715Z 2518/2618 VRB03KT 9999 SCT060 TX16/2614Z TN04/2604Z PROB30 TEMPO 2602/2608 1200 BCFG BKN005 TEMPO 2611/2618 09008KT", "TAF AMD LOWL 251810Z 2518/2618 28011KT 9999 SCT035 TX11/2616Z TN05/2605Z TEMPO 2518/2520 SHRA SCT035TCU TEMPO 2520/2524 -SHRA PROB30 TEMPO 2608/2612 29015G25KT -SHRA BECMG 2616/2618 27004KT", "TAF LOWS 251715Z 2518/2618 30006KT 9999 SCT030 BKN050 TX11/2615Z TN04/2602Z TEMPO 2518/2520 31015G25KT SHRA TEMPO 2520/2610 21006KT -RA PROB30 TEMPO 2600/2608 RA", "TAF LOWW 252015Z 2521/2703 32012KT 9999 FEW050 TX12/2614Z TN03/2703Z TEMPO 2608/2612 32015G25KT -SHRA BECMG 2618/2620 VRB04KT TEMPO 2618/2622 02006KT", "TAF LOXA 251415Z 2515/2524 VRB03KT 9999 FEW035 SCT050 TEMPO 2515/2524 23007KT -SHRA FEW020 SCT030 BKN045 PROB30 TEMPO 2515/2518 25012G25KT 5000 TSRA FEW005 SCT025CB BKN030", "TAF LOXT 251715Z 2518/2603 26010KT 9999 FEW040 SCT050 TEMPO 2518/2521 SHRA FEW040TCU BKN045", "TAF COR LOXZ 251415Z 2515/2524 VRB03KT 9999 FEW050 SCT060 BKN200 TEMPO 2515/2518 VRB12KT -SHRA FEW040 BKN050", "TAF LPAZ 251700Z 2518/2624 18010KT 8000 SCT004 SCT008 TEMPO 2518/2604 1200 -RADZ BR BKN002 PROB40 TEMPO 2518/2604 0200 DZ FG BKN001 BECMG 2604/2606 24015KT 9999 SCT012 PROB30 TEMPO 2606/2612 8000 SHRA SCT006 BKN012 FEW018TCU BECMG 2612/2614 21015KT", "TAF LPBJ 251719Z 2518/2618 34008KT CAVOK BECMG 2522/2601 VRB02KT BECMG 2513/2515 32005KT", "TAF LPCS 251400Z 2515/2524 36008KT CAVOK BECMG 2515/2517 33012KT BECMG 2522/2524 9999 SCT012", "TAF LPFR 251700Z 2518/2618 26010KT CAVOK BECMG 2518/2520 VRB02KT TEMPO 2521/2603 01008KT BECMG 2610/2612 19008KT BECMG 2613/2615 25008KT", "TAF LPHR 251400Z 2515/2524 21012KT 9999 SCT008 PROB30 TEMPO 2515/2524 8000 SHRA SCT006 BKN012 FEW018TCU", "TAF LPLA 251719Z 2518/2618 20010KT 9999 FEW015 SCT020 PROB40 TEMPO 2521/2603 5000 -DZ BR SCT004 BKN006 TEMPO 2603/2618 7000 -SHRA SCT010 BKN018 BECMG 2608/2610 19015KT TEMPO 2608/2618 20018G28KT", "TAF AMD LPMA 252105Z 2521/2618 VRB05KT 9999 FEW016", "TAF LPMR 251718Z 2518/2618 33010KT 9999 FEW020 BECMG 2518/2520 VRB02KT PROB40 2602/2609 0500 FG BKN002 BECMG 2612/2614 34008KT", "TAF LPMT 251719Z 2518/2618 35008KT CAVOK BECMG 2523/2601 VRB02KT PROB30 2604/2608 3000 BR BKN005", "TAF LPOV 251718Z 2518/2618 31010KT 9999 FEW015 BECMG 2518/2520 VRB02KT PROB40 2602/2609 0500 FG BKN002 BECMG 2609/2611 34008KT", "TAF AMD LPPD 252022Z 2520/2618 18008KT 8000 SCT004 SCT008 TEMPO 2520/2604 VRB05KT 2000 -RADZ BR SCT002 BKN004 PROB30 TEMPO 2520/2604 0200 DZ FG BKN001 BECMG 2604/2606 21015KT SCT012 PROB40 TEMPO 2604/2618 8000 SHRA SCT006 BKN012 FEW018TCU", "TAF LPPR 251700Z 2518/2618 31008KT CAVOK BECMG 2518/2521 VRB02KT 9999 SCT008 TEMPO 2521/2608 2000 BCFG BR SCT004 BKN008 PROB30 2602/2608 0200 FG VV001 BECMG 2609/2611 30008KT FEW020", "TAF LPPS 251700Z 2518/2624 06008KT 9999 SCT015 TEMPO 2518/2521 11008KT BECMG 2617/2619 01005KT", "TAF LPPT 251700Z 2518/2624 32010KT CAVOK BECMG 2523/2601 35007KT 9999 SCT012 BECMG 2605/2607 VRB02KT PROB30 TEMPO 2605/2608 5000 BR SCT003 BECMG 2608/2610 08007KT CAVOK BECMG 2612/2614 VRB05KT BECMG 2616/2618 31007KT BECMG 2621/2623 35005KT", "TAF LQBK 251700Z 2518/2618 VRB02KT 9999 SCT040 TX16/2613Z TN08/2604Z PROB40 TEMPO 2518/2604 RA BECMG 2520/2522 34010KT", "TAF LQMO 251700Z 2518/2618 32006KT 9999 SCT045 TX18/2613Z TN11/2604Z PROB40 TEMPO 2518/2603 4000 TSRA FEW030CB BKN040 TEMPO 2600/2604 RA BECMG 2601/2603 02015G25KT", "TAF LQSA 251700Z 2518/2618 27006KT 9999 BKN040 TX12/2613Z TN04/2604Z TEMPO 2518/2615 RA PROB40 TEMPO 2518/2521 VRB12KT TSRA FEW035CB BKN040 PROB30 TEMPO 2521/2608 3000 TSRA BKN010 FEW030CB BKN040 TEMPO 2612/2618 33012KT", "TAF LQTZ 251700Z 2518/2618 27006KT 9999 SCT040 TX15/2614Z TN07/2604Z TEMPO 2523/2608 RA PROB30 TEMPO 2600/2603 33012KT 5000 SHRA FEW030TCU BKN033", "TAF LRAR 252000Z 2521/2606 35005KT 9999 BKN020 TEMPO 2521/2600 BKN010 BECMG 2522/2600 5000 BR TEMPO 2600/2605 3000 BR BKN005", "TAF LRBC 252000Z 2521/2606 16006KT CAVOK PROB30 TEMPO 2602/2606 5000 BR BECMG 2604/2606 34010KT", "TAF LRBM 251400Z 2515/2600 30008KT 9999 -RA BKN020 BKN045 TEMPO 2515/2519 5000 SHRA BKN010 SCT030CB OVC040 PROB30 TEMPO 2515/2516 VRB20KT TSRA", "TAF LRBS 251700Z 2518/2618 23010KT 9999 SCT025 TEMPO 2523/2604 3000 BR BECMG 2608/2610 01010KT TEMPO 2611/2615 5000 -TSRA BKN030CB BKN040 BECMG 2616/2618 07010KT", "TAF LRCK 251700Z 2518/2618 23006KT CAVOK PROB30 TEMPO 2523/2604 3000 BR BKN010 BECMG 2616/2618 35010KT", "TAF LRCL 252000Z 2521/2606 29010KT 9999 BKN050 PROB30 TEMPO 2521/2600 5000 -RA -SHRA BKN015 SCT040CB BKN050 TEMPO 2600/2606 5000 -RA BR BKN010 BKN040", "TAF LRCV 252000Z 2521/2606 28010KT CAVOK", "TAF LRIA 252000Z 2521/2606 12008KT 9999 BKN040 PROB30 TEMPO 2521/2600 5000 -RA BKN015 OVC030", "TAF LROD 251700Z 2518/2603 34012KT 9999 BKN010 SCT020CB BKN025 BECMG 2518/2520 BKN035", "TAF LROP 251700Z 2518/2618 23010KT 9999 SCT025 TEMPO 2523/2604 3000 BR BECMG 2608/2610 01010KT TEMPO 2611/2615 5000 -TSRA BKN030CB BKN040 BECMG 2616/2618 07010KT", "TAF LRSB 251700Z 2518/2618 30012KT 9999 SCT045CB BKN070 BECMG 2518/2520 SCT040 BKN060 TEMPO 2604/2608 5000 -RA BR TEMPO 2611/2614 SCT040CB BECMG 2616/2618 VRB04KT", "TAF LRSM 251400Z 2515/2600 29010KT 9999 -RA BKN020 BKN045 TEMPO 2515/2519 5000 SHRA BKN010 SCT030CB OVC040 PROB30 TEMPO 2515/2516 VRB20KT TSRA", "TAF LRSV 252000Z 2521/2606 14006KT 9999 BKN030 PROB30 TEMPO 2521/2600 5000 -RA BKN010 OVC030 BECMG 2600/2602 31012KT", "TAF LRTM 252000Z 2521/2606 23010KT 9999 SCT015 BKN050 PROB30 TEMPO 2521/2600 5000 -RA -SHRA BKN010 SCT025CB BKN030 TEMPO 2600/2606 5000 -RA BR BKN010 BKN040", "TAF LRTR 251700Z 2518/2618 34007KT CAVOK BECMG 2520/2522 5000 BR TEMPO 2522/2604 1500 BR BKN010 BECMG 2605/2607 CAVOK PROB40 TEMPO 2611/2615 5000 -SHRA SCT040CB", "TAF LSGC 251425Z 2515/2524 25004KT 9999 BKN018", "TAF LSGG 252025Z 2521/2703 VRB02KT 9999 FEW050 BKN075 TX17/2615Z TN03/2605Z", "TAF LSGS 251425Z 2515/2524 26011KT 9999 SCT050 SCT080 BECMG 2518/2520 26003KT", "TAF LSZA 251425Z 2515/2524 VRB02KT 9999 FEW090 TEMPO 2515/2521 01015G28KT", "TAF LSZB 251425Z 2515/2524 12008KT 9999 SCT030 BKN060 TEMPO 2515/2519 SHRA PROB40 TEMPO 2515/2519 32015G25KT SCT030TCU", "TAF LSZC 251425Z 2515/2524 08007KT 9999 FEW020 BKN060 TEMPO 2515/2522 SHRA PROB30 TEMPO 2515/2518 28010KT 3000 SHGS SCT030TCU", "TAF LSZG 251425Z 2515/2524 24007KT 9999 FEW014 BKN045 TEMPO 2515/2519 SHRA PROB30 TEMPO 2515/2517 29015G25KT SHGS FEW030TCU", "TAF LSZH 252025Z 2521/2703 VRB02KT 9999 SCT030 BKN050 TX14/2614Z TN02/2605Z PROB40 TEMPO 2521/2523 29008KT SHRA PROB30 2601/2606 4000 BR PROB40 2610/2616 30008KT PROB30 TEMPO 2617/2622 RA", "TAF LSZL 251725Z 2518/2603 VRB02KT 9999 FEW100 TEMPO 2518/2520 08010G22KT BECMG 2519/2521 CAVOK", "TAF LSZR 251425Z 2515/2524 27003KT 9999 FEW025 BKN050 TEMPO 2515/2522 28015G25KT SHRA SCT030TCU PROB40 TEMPO 2515/2518 28015G27KT TSRA SCT035CB", "TAF LSZS 251425Z 2515/2524 02008KT 9999 FEW014 BKN045 TX06/2515Z TEMPO 2515/2524 4000 -SN PROB40 TEMPO 2515/2518 33015G25KT 2000 SHSN VV009", "TAF LTAB 251940Z 2521/2606 12008KT 9999 SCT040 BKN100 TEMPO 2521/2601 -SHRA BKN035 BKN090", "TAF LTAC 251640Z 2518/2618 VRB02KT 9999 SCT040 SCT100 TEMPO 2518/2522 22012KT -SHRA FEW025CB BKN030 BKN080 BECMG 2606/2609 23012KT TEMPO 2608/2612 -SHRA FEW025CB BKN030", "TAF LTAD 251940Z 2521/2606 11007KT 9999 SCT040 BKN100 TEMPO 2521/2601 -SHRA BKN035 BKN090", "TAF LTAE 251940Z 2521/2606 VRB02KT 9999 SCT040 SCT100 TEMPO 2521/2524 -SHRA BKN033 BKN090 TEMPO 2600/2604 -SHRA BKN033 BKN090", "TAF LTAF 251640Z 2518/2618 VRB02KT CAVOK BECMG 2520/2522 SCT030 TEMPO 2600/2604 BKN030 PROB30 TEMPO 2609/2612 -TSRA FEW020CB BKN030 BECMG 2612/2614 CAVOK", "TAF LTAG 251640Z 2518/2618 VRB02KT 9999 SCT035 SCT200 TEMPO 2600/2604 BKN020 BKN200 TEMPO 2608/2612 -SHRA BKN030 BECMG 2610/2612 20012KT BECMG 2616/2618 VRB02KT", "TAF LTAH 251340Z 2515/2524 24015KT 9999 SCT035 BKN100 BECMG 2517/2519 VRB02KT", "TAF LTAI 251640Z 2518/2618 34006KT 9999 BKN025 TEMPO 2519/2523 -SHRA FEW018CB BKN022 BECMG 2606/2609 16015KT -SHRA FEW017CB BKN025 PROB40 TEMPO 2608/2612 -TSRA", "TAF LTAJ 251640Z 2518/2618 VRB02KT CAVOK BECMG 2522/2602 FEW040 SCT100 BECMG 2606/2609 24012KT", "TAF LTAL 251940Z 2521/2606 VRB02KT 9999 SCT034 TEMPO 2523/2602 -SHRA FEW020CB BKN028 BKN080", "TAF LTAN 251940Z 2521/2606 VRB02KT 9999 FEW040 SCT080 BECMG 2522/2601 CAVOK", "TAF LTAO 251940Z 2521/2606 22008KT CAVOK", "TAF LTAP 251640Z 2518/2618 VRB02KT 9999 SCT040 SCT100 TEMPO 2610/2614 24015G25KT -TSRA FEW030CB BKN035", "TAF LTAR 251940Z 2521/2606 15008KT 9999 SCT035 SCT100", "TAF LTAS 251340Z 2515/2524 VRB02KT 9999 FEW040 SCT100 TEMPO 2520/2524 -SHRA BKN030 BKN090", "TAF LTAT 251640Z 2518/2618 20008KT CAVOK BECMG 2606/2608 FEW035 SCT100", "TAF LTAU 251640Z 2518/2618 VRB02KT 9999 SCT040 SCT100 TEMPO 2518/2521 -SHRA FEW027CB BKN035 BECMG 2608/2611 21012KT", "TAF LTAV 251340Z 2515/2524 VRB02KT 9999 SCT040 TEMPO 2515/2518 22015G25KT -TSRA FEW025CB BKN030", "TAF LTAW 251340Z 2515/2524 VRB02KT 9999 FEW030 BKN200", "TAF LTAY 251640Z 2518/2618 VRB02KT 9999 FEW035 SCT100 BECMG 2520/2522 CAVOK BECMG 2605/2607 22018G28KT SCT035 BKN100", "TAF LTAZ 251640Z 2518/2618 VRB02KT 9999 SCT040 SCT100 TEMPO 2519/2523 -SHRA FEW027CB BKN035 BECMG 2607/2609 22013KT", "TAF AMD LTBA 252040Z 2520/2618 18008KT 9999 FEW040 BKN100 TEMPO 2520/2523 -TSRA FEW017CB BKN028 BKN080 BECMG 2600/2603 -SHRA BKN030 BKN080 TEMPO 2604/2607 -TSRA FEW020CB BKN027 TEMPO 2610/2614 34012KT 4000 TSRA FEW018CB BKN027", "TAF LTBD 251940Z 2521/2606 VRB02KT 9999 SCT035 BKN100", "TAF LTBF 251940Z 2521/2606 22008KT 9999 FEW035 SCT100", "TAF LTBG 251940Z 2521/2606 VRB02KT 9999 SCT035 SCT100", "TAF LTBH 251940Z 2521/2606 18008KT 9999 SCT035 SCT100", "TAF LTBI 251940Z 2521/2606 VRB02KT 9999 SCT040 PROB30 2603/2606 3500 BR", "TAF LTBJ 251640Z 2518/2618 18009KT 9999 SCT030 BKN100 BECMG 2600/2603 -SHRA BECMG 2606/2608 18015G25KT PROB40 TEMPO 2610/2614 -TSRA FEW015CB BKN025 TEMPO 2614/2618 4000 TSRA SCT015CB BKN025", "TAF LTBK 251340Z 2515/2524 19012KT 9999 SCT035 BKN100", "TAF LTBL 251940Z 2521/2606 11012KT CAVOK BECMG 2523/2601 FEW040 SCT100 BKN200 PROB30 TEMPO 2604/2606 -SHRA BKN030", "TAF LTBN 251340Z 2515/2524 VRB02KT 9999 SCT040", "TAF LTBO 251340Z 2515/2524 25015KT 9999 SCT035 BKN100 BECMG 2517/2519 VRB02KT", "TAF AMD LTBP 251520Z 2515/2524 26012KT 9999 SCT035 BKN090 TEMPO 2515/2519 29020G30KT -TSRA FEW020CB BKN030 BKN080", "TAF LTBQ 251940Z 2521/2606 VRB02KT 9999 SCT035 BKN100 TEMPO 2521/2523 26012KT -SHRA FEW025CB SCT030 BKN080", "TAF LTBR 251640Z 2518/2618 VRB02KT 9999 SCT035 BKN100 TEMPO 2518/2519 -SHRA BECMG 2608/2611 -SHRA FEW030TCU BKN033 BKN090 TEMPO 2611/2613 30012KT -TSRA FEW027CB BKN030 BKN090 TEMPO 2613/2616 31012KT 4000 TSRA SCT025CB BKN027 BKN080", "TAF LTBS 251640Z 2518/2618 VRB02KT 9999 FEW030 SCT180 BECMG 2519/2521 CAVOK BECMG 2602/2604 SCT025 BKN090 BECMG 2606/2608 18014KT", "TAF LTBT 251940Z 2521/2606 17009KT CAVOK BECMG 2523/2601 FEW035 SCT100 BKN200", "TAF LTBU 251640Z 2518/2618 VRB02KT 9999 SCT035 BKN100 BECMG 2521/2524 -SHRA TEMPO 2601/2605 -TSRA FEW018CB BKN025 TEMPO 2606/2610 34012KT 4000 TSRA FEW015 SCT017CB BKN025 TEMPO 2610/2614 20012KT", "TAF LTBV 251340Z 2515/2524 22014KT 9999 FEW035 SCT100 BKN200 BECMG 2516/2518 VRB02KT", "TAF AMD LTBX 251517Z 2515/2524 24012KT 9999 SCT035 BKN100 TEMPO 2515/2519 27020G30KT -TSRA FEW020CB BKN030", "TAF LTBY 251940Z 2521/2606 VRB02KT 9999 SCT040 PROB30 2603/2606 3500 BR", "TAF LTBZ 251940Z 2521/2606 VRB02KT 9999 SCT040 PROB30 2603/2606 3500 BR", "TAF LTCA 251940Z 2521/2606 22008KT CAVOK", "TAF LTCB 251940Z 2521/2606 VRB02KT CAVOK", "TAF LTCC 251640Z 2518/2618 VRB02KT CAVOK BECMG 2605/2608 SCT040 SCT100 BECMG 2608/2610 17012KT PROB40 TEMPO 2609/2613 VRB15G25KT -TSRA FEW025CB BKN035 PROB30 TEMPO 2613/2616 14015G25KT -TSRA FEW025CB BKN035 BECMG 2616/2618 VRB02KT CAVOK", "TAF LTCD 251940Z 2521/2606 VRB02KT CAVOK BECMG 2603/2606 FEW080", "TAF LTCE 251640Z 2518/2618 24006KT 9999 FEW035 BECMG 2518/2520 CAVOK BECMG 2607/2609 SCT035 BKN070 BECMG 2609/2611 24016KT TEMPO 2609/2612 20020G30KT -SHRA FEW025CB BKN035 TEMPO 2612/2616 -SHRA FEW025CB BKN035 BECMG 2616/2618 10005KT", "TAF LTCF 251640Z 2518/2618 VRB02KT 9999 FEW035 TEMPO 2518/2521 16014KT BECMG 2520/2522 CAVOK", "TAF LTCG 251640Z 2518/2618 12010KT CAVOK BECMG 2518/2520 21008KT", "TAF LTCI 251940Z 2521/2606 09007KT 9999 SCT030", "TAF LTCJ 251640Z 2518/2618 30006KT 9999 SCT040 BECMG 2518/2520 CAVOK BECMG 2606/2609 FEW040 SCT100 BECMG 2610/2612 03012KT", "TAF LTCK 251340Z 2515/2524 06009KT 9999 SCT030 BKN070", "TAF LTCL 251340Z 2515/2524 VRB02KT 9999 FEW040 SCT100", "TAF LTCM 251340Z 2515/2524 13009KT 9999 FEW010 SCT080", "TAF LTCN 251940Z 2521/2606 29007KT CAVOK", "TAF LTCO 251340Z 2515/2524 VRB02KT 9999 SCT035 BKN070 TEMPO 2515/2517 -SHRA TEMPO 2515/2518 17015KT BECMG 2518/2520 CAVOK", "TAF LTCP 251940Z 2521/2606 22008KT CAVOK", "TAF LTCR 251340Z 2515/2524 VRB02KT 9999 SCT040 BECMG 2518/2521 CAVOK", "TAF LTCS 251640Z 2518/2618 VRB02KT CAVOK BECMG 2606/2609 SCT040 SCT100 TEMPO 2607/2611 16012G22KT TEMPO 2611/2615 23012G22KT BECMG 2613/2615 CAVOK", "TAF LTCT 251940Z 2521/2606 VRB02KT 9999 FEW040 SCT080 BECMG 2523/2601 CAVOK", "TAF LTCU 251340Z 2515/2524 20008KT 9999 FEW035 SCT100 BECMG 2515/2518 CAVOK", "TAF LTCV 251640Z 2518/2618 VRB02KT 9999 FEW040 BECMG 2518/2520 CAVOK BECMG 2606/2609 SCT040 BKN100 BECMG 2610/2613 15015KT", "TAF LTCW 251940Z 2521/2606 08009KT 9999 SCT030", "TAF LTDA 251940Z 2521/2606 23008KT 9999 FEW035 SCT200", "TAF LTFA 251340Z 2515/2524 22008KT 9999 FEW040 SCT100 BKN200 BECMG 2516/2518 CAVOK BECMG 2522/2524 SCT035 BKN100", "TAF LTFB 251340Z 2515/2524 25012KT 9999 SCT035 BKN100 BECMG 2515/2518 18013KT", "TAF LTFC 251640Z 2518/2618 21012KT 9999 BKN035 BECMG 2518/2521 VRB02KT BECMG 2606/2609 18018G28KT -SHRA FEW020CB BKN030 TEMPO 2609/2612 -TSRA PROB40 TEMPO 2612/2616 4000 TSRA", "TAF LTFD 251940Z 2521/2606 25008KT 9999 SCT035 BKN100 TEMPO 2601/2605 -SHRA", "TAF LTFE 251640Z 2518/2618 VRB02KT 9999 FEW035 BKN100 PROB40 TEMPO 2604/2608 -SHRA BECMG 2606/2608 18016KT FEW020CB BKN030 TEMPO 2608/2612 -TSRA", "TAF LTFG 251940Z 2521/2606 11006KT 9999 SCT025", "TAF LTFH 251940Z 2521/2606 VRB02KT 3800 BR SCT012 TEMPO 2600/2603 1200 BCFG BECMG 2603/2605 6000", "TAF LTFJ 251640Z 2518/2618 21009KT 9999 SCT035 BKN090 TEMPO 2518/2520 24015G27KT -TSRA FEW020CB BKN030 PROB40 TEMPO 2602/2606 -SHRA FEW020CB BKN030 BKN090 PROB40 TEMPO 2611/2615 02015G28KT -TSRA FEW018CB BKN028", "TAF LTFK 251340Z 2515/2524 21008KT 9999 FEW035 BKN200", "TAF LTFM 251640Z 2518/2624 19012KT 9999 FEW040 BKN100 BECMG 2600/2603 -SHRA BKN020 BKN070 TEMPO 2603/2607 4000 TSRA FEW015 SCT018CB BKN025 TEMPO 2610/2614 04012KT 4000 TSRA SCT018CB BKN025 BECMG 2621/2624 35010KT BKN004 BKN020", "TAF LTFO 251940Z 2521/2606 VRB02KT CAVOK", "TAF LUKK 251718Z 2518/2618 13009KT CAVOK BECMG 2520/2522 BKN010 TEMPO 2522/2607 2000 SHRA BR BKN005 SCT015CB BECMG 2609/2611 32012KT BKN015 TEMPO 2609/2615 32015G25KT 4000 SHRA BKN012 SCT020CB", "TAF LWOH 252040Z 2521/2621 22008KT 9999 BKN033 BECMG 2521/2524 RA SCT010 OVC033 PROB30 TEMPO 2521/2601 VRB20KT -TSRA FEW033CB BKN050 BECMG 2613/2615 NSW SCT040 SCT070", "TAF LWSK 252040Z 2521/2621 03008KT 9999 FEW050 BKN080 TEMPO 2602/2614 RA SCT030 BKN070 BECMG 2607/2609 34015G25KT BECMG 2619/2621 01008KT", "TAF LXGB 251645Z 2518/2522 09005KT CAVOK BECMG 2518/2521 24008KT", "TAF LYBE 251700Z 2518/2618 28006KT CAVOK TX14/2613Z TN08/2604Z BECMG 2608/2610 34014KT BECMG 2616/2618 28005KT", "TAF LYBT 251700Z 2518/2618 27005KT CAVOK TX14/2613Z TN06/2604Z BECMG 2608/2610 33012KT BECMG 2616/2618 27005KT", "TAF LYKV 251700Z 2518/2618 VRB02KT CAVOK TX13/2613Z TN05/2604Z BECMG 2607/2609 33014KT TEMPO 2608/2613 5000 SHRA SCT027TCU BKN035 BECMG 2616/2618 30004KT", "TAF LYNI 251700Z 2518/2618 23005KT 9999 SCT040 TX14/2613Z TN07/2604Z TEMPO 2601/2604 1500 BR BECMG 2606/2608 32012KT TEMPO 2609/2616 32020G32KT", "TAF LYPG 251700Z 2518/2618 14010KT 9999 SCT030 TX19/2611Z TN10/2604Z BECMG 2518/2521 36005KT TEMPO 2518/2607 RA BECMG 2604/2607 02015G30KT", "TAF LYTV 251700Z 2518/2618 VRB02KT 9999 SCT020 TX18/2613Z TN08/2604Z PROB30 TEMPO 2518/2602 VRB15G30KT 5000 TSRA FEW010 SCT020CB SCT030 BECMG 2603/2606 02015G30KT", "TAF LYVR 251700Z 2518/2618 28006KT CAVOK TX14/2613Z TN07/2604Z TEMPO 2610/2614 30016KT 5000 SHRA SCT030TCU SCT035", "TAF LZIB 251715Z 2518/2618 32009KT 9999 FEW040 TEMPO 2518/2520 31015G30KT -SHRA SCT025TCU SCT035 BECMG 2519/2521 CAVOK", "TAF LZKZ 251715Z 2518/2618 01009KT 9999 SCT020 PROB30 TEMPO 2518/2521 01019KT -SHRA FEW020TCU SCT030 BECMG 2522/2600 CAVOK", "TAF LZMC 251930Z 2521/2606 33006KT CAVOK TEMPO 2521/2524 9999 SCT035 TEMPO 2523/2606 33012KT", "TAF LZPP 251715Z 2518/2603 28009KT CAVOK PROB40 TEMPO 2518/2520 34015G25KT 3000 -SHRA FEW025TCU BKN040", "TAF LZPW 251930Z 2521/2606 01008KT 9999 SCT0310 BKN080 BECMG 2522/2524 CAVOK", "TAF LZSL 251930Z 2521/2606 35010KT 9999 FEW060 BECMG 2603/2605 35012G24KT FEW050 SCT060", "TAF LZTT 251715Z 2518/2618 25009KT 9999 FEW014 BKN030 PROB30 TEMPO 2518/2521 -SHRA FEW020TCU SCT030 TEMPO 2600/2606 VRB02KT 2500 BR BKN004 PROB30 TEMPO 2603/2606 0100 FG BKN001", "TAF LZZI 252015Z 2521/2606 VRB02KT CAVOK", "MBGT 251515Z 2518/2618 16004KT 9999 SCT020", "MBPV 251515Z 2518/2618 16004KT 9999 SCT020", "TAF COR MDBH 251600Z 2518/2618 13012KT 9999 FEW018CB SCT020 SCT100 PROB30 2519/2601 8000 -TSRA FEW015CB BKN016 BKN070", "TAF MDCY 251600Z 2518/2618 09010KT 9999 SCT022 PROB30 2519/2601 8000 -SHRA SCT018 SCT070 BECMG 2523/2601 00000KT", "TAF MDJB 251600Z 2518/2618 18010KT 9999 SCT020 SCT300 PROB30 2520/2602 7000-RA BKN016", "TAF COR MDLR 251600Z 2518/2618 13008KT 9999 SCT020 PROB30 2518/2600 8000 SHRA BKN016 BECMG 2600/2602 00000KT", "TAF COR MDPC 251600Z 2518/2618 14015KT 9999 SCT022 BECMG 2602/2604 00000KT", "TAF COR MDPP 251600Z 2518/2618 08012KT 9999 SCT023 PROB30 2518/2600 8000 -RA BKN018 SCT070 BECMG 2520/2522 03012KT", "TAF COR MDSD 251600Z 2518/2618 16010KT 9999 SCT022 PROB30 2601/2606 8000 -RA BKN018 BKN070 BECMG 2603/2605 04008KT", "TAF COR MDST 251600Z 2518/2618 15010KT 9999 SCT022 PROB30 2520/2602 6000 -TSRA FEW014CB BKN016 BKN070 OVC300 BECMG 2604/2606 00000KT", "MGGT 251700Z 2518/2618 06010KT 7000 SCT018 TX28/2520Z TN16/2612Z PROB40 TEMPO 2521/2602 7000 TSRA SCT020TCU FEW025CB BECMG 2601/2603 VRB03KT SCT016 BECMG 2614/2616 18008KT FEW018", "MGMM 251700Z 2518/2618 08008KT 9999 FEW020 TX38/2520Z TN22/2612Z BECMG 2520/2522 SCT024 BECMG 2602/2604 00000KT CAVOK BECMG 2508/2510 SCT012 BECMG 2514/2516 08008KT FEW018", "MGPB 251700Z 2518/2618 36008KT 7000 FEW018 TX33/2520Z TN22/2612Z BECMG 2520/2522 05008KT SCT022 BECMG 2601/2603 00000KT SCT016 BECMG 2614/2616 05008KT FEW018", "TAF MHLC 251625Z 2518/2618 35010KT 4000 FU FEW034 TX32/2519Z TN23/2612Z BECMG 2603/0605 VRB03KT 6000 BECMG 2610/2612 3000 FU", "TAF MHLM 251625Z 2518/2618 05014KT 3000 FU FEW032 TX36/2521Z TN24/2612Z BECMG 2602/2604 VRB04KT 7000 BECMG 2610/2612 3000 FU", "TAF MHPR 251700Z 2518/2618 34016KT 5000 FU SCT050 TX34/2519Z TN22/2610Z BECMG 2520/2522 SCT50TCU FEW052CB BECMG 2604/2606 VRB04KT SCT048", "TAF MHRO 251625Z 2518/2618 VRB05KT 7000 FEW025 TX31/2519Z TN26/2612Z BECMG 2520/2522 08014KT", "TAF MHTG 251625Z 2518/2618 VRB04KT 6000 SCT034 TX31/2521Z TN19/2612Z TEMPO 2523/2605 4000 TSSHRA SCT032CB BECMG 2609/2611 3000 BR FU", "TAF MKJP 251715Z 2518/2618 17010KT 9999 FEW022 BECMG 2523/2601 34003KT BECMG 2614/2616 16010KT", "TAF MKJS 251715Z 2518/2618 01008KT 9999 FEW022 PROB30 TEMPO 2518/2524 SHRA BKN020 BECMG 2523/2601 VRB02KT BECMG 2614/2616 05010KT", "TAF MMAA 251622Z 2518/2618 24010KT 6SM HZ SCT015 SCT300 TX31/2519Z TN24/2612Z BECMG 2521/2522 SCT015 FM260300 33005KT P6SM SKC BECMG 2617/2618 24008KT SCT300", "TAF MMAN 251728Z 2518/2618 15005KT 6SM HZ SCT025 BECMG 2522/2523 12015KT BKN020 FM260300 12006KT 5SM BR HZ BKN020 BECMG 2606/2607 3SM BR HZ OVC010 TEMPO 2609/2613 1/2SM FG VV005 FM261500 13005KT 3SM BR HZ BKN015", "TAF MMAS 251613Z 2518/2618 24015KT P6SM BKN250 FM260600 23005KT P6SM SCT250 FM261700 24012KT P6SM BKN250", "TAF MMBT 251621Z 2518/2618 20010KT P6SM SCT020 BKN250 TEMPO 2521/2601 BKN020 FM260600 00000KT P6SM SCT020 FM261700 18010KT P6SM SCT020 BKN250", "TAF MMCB 251621Z 2518/2618 22010KT P6SM SCT020 BKN250 TEMPO 2521/2601 BKN020 FM260600 00000KT P6SM SCT250 FM261700 19008KT P6SM SCT020 BKN250", "TAF MMCE 251606Z 2518/2618 15008KT P6SM SCT018 BKN080 BKN250 FM260600 12005KT P6SM SCT015 SCT250 FM261700 12008KT P6SM SCT020 BKN080", "TAF MMCL 251655Z 2518/2618 22015KT P6SM SCT250 BECMG 2602/2603 06005KT FM261700 24010KT P6SM SKC", "TAF MMCM 251606Z 2518/2618 12012KT P6SM BKN020 BKN100 BKN250 FM260600 12008KT P6SM SCT020 SCT100 TEMPO 2612/2616 BKN020 FM261700 12012KT P6SM SCT020 SCT100 BKN250", "TAF MMCN 251632Z 2518/2618 22012KT P6SM SCT250 FM260600 22005KT P6SM SKC FM261700 22012KT P6SM SCT250", "TAF MMCP 251606Z 2518/2618 35010KT 5SM HZ SCT030 BKN120 BKN250 FM260600 12005KT P6SM SKC TEMPO 2611/2615 3SM BR HZ SCT010 FM261700 33010KT P6SM SCT025 BKN250", "TAF MMCS 251728Z 2518/2618 25015KT P6SM SKC BECMG 2521/2522 25015G30KT FM260300 30010KT P6SM SKC BECMG 2617/2618 34010KT", "TAF MMCU 251728Z 2518/2618 25015KT P6SM SKC BECMG 2521/2522 25015G25KT FM260300 25008KT P6SM SKC BECMG 2617/2618 25015KT", "TAF MMCV 251655Z 2518/2618 12010KT 6SM HZ SCT005 BKN015 BKN080 FM260500 12005KT 4SM HZ BKN012 TEMPO 2611/2615 2SM BR HZ BKN005 FM261700 14012KT 6SM HZ BKN018 OVC050", "TAF MMCZ 251705Z 2518/2618 16010KT P6SM SCT015 BECMG 2521/2522 12015KT FM260300 12010KT P6SM SCT015 BECMG 2617/2618 13015KT", "TAF MMDO 251632Z 2518/2618 24014KT P6SM SCT030 BKN250 FM260600 23006KT P6SM SCT250 FM261700 23014KT P6SM SCT030 BKN250", "TAF MMEP 251613Z 2518/2618 34010KT P6SM BKN250 FM260600 00000KT P6SM SCT250 FM261700 32010KT P6SM BKN250", "TAF MMGL 251638Z 2518/2618 24010KT P6SM SCT250 TX31/2521Z TN14/2613Z BECMG 2602/2603 00000KT FM261700 23010KT P6SM SCT250", "TAF MMGM 251632Z 2518/2618 22012KT P6SM SCT250 FM260500 00000KT P6SM SKC FM261700 21012KT P6SM SCT250", "TAF MMHO 251655Z 2518/2618 20015KT P6SM SKC BECMG 2602/2603 17005KT FM261700 20010KT P6SM SKC", "TAF MMIA 251613Z 2518/2618 24012KT 5SM HZ SCT020 BKN100 BKN250 FM260600 23007KT P6SM SCT250 FM261700 24010KT 5SM HZ SCT020 BKN250", "TAF MMIO 251728Z 2518/2618 36012KT P6SM SKC BECMG 2602/2603 15006KT FM261700 20006KT P6SM SCT250", "TAF MMLM 251632Z 2518/2618 18015KT P6SM SCT250 FM260600 18005KT P6SM SKC TEMPO 2611/2615 2SM BR HZ BKN005 FM261700 18012KT P6SM SCT250", "TAF MMLO 251613Z 2518/2618 24014KT P6SM BKN250 FM260600 24006KT P6SM SCT250 FM261700 24012KT P6SM BKN250", "TAF MMLP 251655Z 2518/2618 21012KT P6SM SCT220 BECMG 2602/2603 16008KT FM261700 22010KT P6SM SKC", "TAF MMLT 251632Z 2518/2618 04012KT P6SM SCT250 FM260600 00000KT P6SM SKC FM261700 04012KT P6SM SCT250", "TAF MMMA 251655Z 2518/2618 15012KT P6SM SCT010 BKN020 TEMPO 2518/2522 5SM -RA BKN012 FM260500 12006KT 4SM HZ BKN012 TEMPO 2611/2615 1/2SM FG VV003 FM261700 12018KT P6SM BKN012 OVC030", "TAF MMMD 251705Z 2518/2618 13008KT P6SM SCT020 TX37/2521Z TN23/2612Z BECMG 2520/2521 35015KT FM260300 09010KT P6SM SCT020 TEMPO 2611/2615 5SM HZ BKN010 FM261600 12010KT P6SM SCT020", "TAF MMML 251655Z 2518/2618 32015KT P6SM SKC BECMG 2602/2603 35005KT FM261700 35015KT P6SM SKC", "TAF MMMM 251638Z 2518/2618 23010KT P6SM SKC BECMG 2602/2603 00000KT FM261700 23010KT P6SM SCT250", "TAF MMMT 251606Z 2518/2618 36012KT 6SM HZ SCT020 BKN080 FM260600 36005KT P6SM BKN020 TEMPO 2611/2615 3SM BR HZ BKN015 FM261700 36010KT P6SM SCT020 BKN080", "TAF MMMV 251728Z 2518/2618 04008KT P6SM SKC BECMG 2602/2603 06005KT SCT250 FM261700 08006KT P6SM SCT250", "TAF MMMX 251622Z 2518/2618 24008KT P6SM SCT250 TX29/2521Z TN16/2612Z BECMG 2520/2521 SCT025 FM252300 24015KT P6SM SCT025CB TEMPO 2523/2602 BKN025CB BECMG 2602/2603 28005KT SCT025 FM261700 04005KT P6SM SCT250", "TAF MMMY 251728Z 2518/2618 10005KT 5SM BR HZ BKN012 TX25/2521Z TN16/2612Z BECMG 2520/2521 10008KT SCT015 FM260300 10006KT 5SM BR HZ BKN012 BECMG 2608/2609 3SM BR HZ OVC010 TEMPO 2610/2614 1/2SM FG VV005 FM261500 12006KT 3SM BR HZ BKN015", "TAF MMMZ 251655Z 2518/2618 24010KT P6SM SKC TX30/2520Z TN16/2612Z BECMG 2602/2603 15005KT SCT015 FM260600 15005KT 5SM BR HZ BKN015 TEMPO 2610/2614 1/2SM FG VV005 FM261500 20005KT 6SM HZ SCT015", "TAF MMNL 251655Z 2518/2618 22014KT P6SM SCT010 BKN020 OVC070 FM260600 18005KT P6SM BKN030 TEMPO 2612/2616 3SM BR HZ BKN008 FM261700 12012KT P6SM SCT010 BKN020", "TAF MMOX 251621Z 2518/2618 16012KT P6SM SCT030 SCT080 BKN250 TEMPO 2521/2601 BKN020 FM260600 15005KT 6SM HZ SCT030 BKN080 FM261700 18012KT P6SM SCT030 SCT080 BKN250", "TAF MMPA 251655Z 2518/2618 04008KT 4SM HZ BKN018 BKN250 FM260600 04005KT 6SM HZ SCT020 BKN080 TEMPO 2611/2615 3SM BR HZ BKN010 FM261700 04008KT 5SM HZ BKN020 OVC050", "TAF MMPB 251621Z 2518/2618 18014KT P6SM SCT025 SCT080 BKN250 FM260600 21005KT P6SM SCT025 SCT250 FM261700 04010KT P6SM SCT020 BKN250", "TAF MMPG 251655Z 2518/2618 18012KT P6SM SCT020 BKN250 TEMPO 2520/2524 BKN020 FM260600 18006KT P6SM BKN020 TEMPO 2611/2615 4SM HZ BKN012 FM261700 18012KT P6SM BKN025", "TAF MMPN 251613Z 2518/2618 20012KT P6SM SCT040 BKN250 FM260600 00000KT P6SM SCT250 FM261700 24010KT P6SM BKN250", "TAF MMPQ 251606Z 2518/2618 09012KT 6SM HZ SCT030 SCT080 FM260600 09005KT 6SM HZ SCT030 FM261700 09007KT 6SM HZ SCT030 SCT080", "TAF MMPR 251638Z 2518/2618 22010KT P6SM SCT250 TX28/2520Z TN17/2613Z BECMG 2602/2603 02005KT FM261700 21008KT P6SM SCT250", "TAF MMPS 251621Z 2518/2618 20010KT P6SM SCT020 SCT080 BKN250 FM260600 22005KT P6SM SCT100 FM261700 20010KT P6SM SCT020 SCT080 BKN250", "TAF MMQT 251613Z 2518/2618 28016KT P6SM SCT020 BKN250 TEMPO 2518/2522 24022KT FM260600 25006KT P6SM SCT020 SCT250 FM261700 23016KT P6SM SCT020 BKN250", "TAF MMRX 251655Z 2518/2618 15012KT 6SM HZ SCT010 BKN020 TEMPO 2518/2522 BKN010 FM260500 12006KT 4SM HZ BKN012 TEMPO 2611/2615 1/2SM FG VV003 FM261700 12018KT P6SM BKN012 OVC030", "TAF MMSD 251632Z 2518/2618 16015KT P6SM BKN250 FM260500 32005KT P6SM SKC FM261700 16012KT P6SM BKN250", "TAF MMSL 251632Z 2518/2618 20014KT P6SM BKN250 FM260600 30006KT P6SM SCT250 FM261700 24012KT P6SM SCT120 SCT250", "TAF MMSM 251622Z 2518/2618 30010KT P6SM SCT250 BECMG 2521/2522 30015KT SCT025 TEMPO 2523/2602 SCT025CB FM260300 24005KT P6SM SCT250 BECMG 2617/2618 20010KT", "TAF MMSP 251638Z 2518/2618 25012KT P6SM SCT250 TX30/2521Z TN08/2612Z BECMG 2602/2603 20005KT TEMPO 2610/2614 5SM HZ FM261700 24010KT P6SM SCT250", "TAF MMTC 251728Z 2518/2618 30008KT P6SM SCT250 BECMG 2602/2603 00000KT FM261700 30008KT P6SM SKC", "TAF MMTG 251705Z 2518/2618 06008KT P6SM SCT030 BECMG 2521/2522 BKN030CB TEMPO 2522/2602 5SM -TSRA FM260300 04006KT 6SM HZ SCT030 BECMG 2617/2618 06008KT", "TAF MMTJ 251655Z 2518/2618 20005KT 5SM HZ OVC012 TX18/2521Z TN12/2612Z BECMG 2521/2522 BKN015 FM260300 25005KT 5SM HZ BKN012 BECMG 2606/2607 3SM BR HZ OVC010 FM261500 30005KT 5SM HZ BKN012", "TAF MMTM 251622Z 2518/2618 12006KT P6SM SCT040 BECMG 2520/2521 10015KT FM260200 10006KT 5SM HZ BKN015 BECMG 2609/2610 3SM BR HZ OVC010 FM261500 16005KT 5SM BR HZ SCT012 BECMG 2617/2618 13010KT", "TAF MMTO 251622Z 2518/2618 20012KT 6SM HZ SCT200 TX25/2521Z TN10/2612Z BECMG 2521/2522 25015KT SCT025 FM260300 25005KT P6SM SCT250 BECMG 2610/2611 5SM HZ FM261700 20012KT P6SM SKC", "TAF MMTP 251705Z 2518/2618 24010KT P6SM SCT030 BECMG 2520/2521 SCT030CB TEMPO 2522/2602 4SM TSRA BKN030CB FM260300 00000KT P6SM SCT030 BKN120 BECMG 2617/2618 24010KT SCT030", "TAF MMUN 251705Z 2518/2618 12015KT P6SM SCT015 TX31/2519Z TN26/2610Z BECMG 2602/2603 12008KT FM261600 13015KT P6SM SCT015", "TAF MMVA 251606Z 2518/2618 16008KT P6SM SCT020 SCT080 BKN250 FM260600 00000KT 6SM HZ SCT015 SCT070 TEMPO 2611/2615 3SM BR HZ BKN010 FM261700 14008KT P6SM SCT015 BKN080", "TAF MMVR 251622Z 2518/2618 10010KT 5SM HZ BKN015 TX29/2521Z TN24/2612Z TEMPO 2522/2602 5SM -RA FM260300 09006KT 5SM BR HZ BKN012 TEMPO 2610/2614 2SM -RA BR OVC010 FM261600 10005KT 5SM HZ BKN015", "TAF MMZC 251638Z 2518/2618 25015KT P6SM SCT250 TX27/2522Z TN08/2613Z BECMG 2521/2522 25015G30KT FM260300 25012KT P6SM SCT250 BECMG 2617/2618 25015KT", "TAF MMZH 251621Z 2518/2618 22010KT P6SM SCT020 BKN250 TEMPO 2522/2602 BKN020 FM260600 00000KT P6SM SCT020 FM261700 22010KT P6SM SCT020 SCT080 BKN250", "TAF MMZO 251638Z 2518/2618 22010KT P6SM SCT120 BECMG 2602/2603 30005KT FM261700 22010KT P6SM SCT250", "MNBL 251535Z 2518/2618 12004KT 9999 FEW020 BECMG 2522/2603 11006KT 7000 VCRA SCT018 BECMG 2612/2617 06008KT 8000 SCT020 SCT060", "MNMG 251535Z 2518/2618 11008KT 8000 FU FEW023 SCT300 BECMG 2600/2606 VRB04KT FEW018 SCT070 BECMG 2612/2613 12004KT 9999", "MNPC 251535Z 2518/2618 30004KT 7000 HZ SCT016 BKN300 BECMG 2522/2603 BKN018 BECMG 2613/2617 17006KT 8000 VCRA/HZ SCT017", "TAF COR MPDA 251713Z 2518/2606 19008KT 9999 SCT018 PROB30 2521/2524 7000 SHRA SCT016TCU", "TAF MPMG 251710Z 2518/2606 18008KT 9999 SCT018 TEMPO 2600/2604 32005KT TEMPO 2604/2606 VRB02KT", "TAF MPPA 251710Z 2518/2624 18006KT 9999 SCT018 TEMPO 2521/2524 22008KT TEMPO 2602/2606 VRB02KT TEMPO 2606/2610 CAVOK", "TAF MPSM 251710Z 2518/2624 15004KT 9999 FEW020 SCT080 TEMPO 2518/2522 14008KT TEMPO 2602/2606 VRB02KT", "TAF COR MPTO 251700Z 2518/2624 28006KT 9999 SCT018 TEMPO 2518/2521 14008KT TEMPO 2521/2524 18006KT FEW016TCU TEMPO 2604/2608 VRB02KT CAVOK", "MRLB 251705Z 2518/2618 28007KT 9999 FEW040 TX35/2519Z TN21/2611Z BECMG 2603/2606 06005KT TEMPO 2609/2615 VRB02KT ", "MRLM 251705Z 2518/2618 09007KT 9999 FEW030 TX30/2521Z TN22/2611Z BECMG 2601/2603 23005KT BECMG 2615/2617 08006KT ", "TAF MROC 251945Z 2520/2618 25007KT 9999 SCT040 TX30/2619Z TN18/2611Z TEMPO 2520/2522 -TSRA SCT015CB BKN040 TEMPO 2600/2603 VRB02KT BCFG BKN020 BECMG 2604/2606 07005KT BECMG 2614/2616 24006KT ", "TAF MRPV 251700Z 2518/2618 28007KT 9999 FEW040 TX29/2519Z TN17/2610Z TEMPO 2521/2601 RA BKN015TCU BECMG 2600/2602 11005KT", "TAF MSLP 251525Z 2518/2618 22010KT 9999 FEW023 TX33/2518Z TN23/2610Z FM260000 VRB04KT 9999 SCT027 FEW037CB PROB30 TEMPO 2603/2607 04010G20KT 5000 TSRA SCT023 SCT037CB BKN060 FM260700 VRB03KT 9999 FEW023 SCT070 FM261200 12005KT CAVOK", "TAF MSSS 251525Z 2518/2618 13008KT 9999 SCT030 FEW040CB TX30/2518Z TN21/2612Z PROB30 TEMPO 2600/2604 36010G20KT 3000 +TSRA SCT027 SCT033CB BKN047 FM260400 02005KT 9999 FEW023 TEMPO 2611/2615 35004KT 2000 BR SCT010 FM261500 12005KT 9999 FEW027", "TAF MTCH 251700Z 2518/2618 02013KT 9000 SCT030CB PROB30 TEMPO 2603/2606 05012KT 4800 SHRA SCT024CB BKN050 BECMG 2607/2611 VRB02KT 9000 SCT022 ", "TAF MTPP 251700Z 2518/2618 11016KT 9000 SCT024 FM251800 31010KT SCT028TCU PROB30 TEMPO 2603/2606 08010KT 4800 SHRA SCT024CB BKN05 BECMG 2607/2611 VRB02KT 9000 FEW020", "MUCC 251700Z 2518/2618 06010KT 9000 SCT020 BECMG 2600/2601 09008KT BECMG 2603/2606 VRB05KT", "MUCF 251700Z 2518/2606 22011KT 9000 SCT020 BECMG 2522/2524 VRB04KT", "MUCL 251700Z 2518/2606 VRB03KT 9000 SCT020 TEMPO 2518/2522 17008KT", "MUCM 251700Z 2518/2618 VRB04KT 9000 SCT020 TEMPO 2520/2524 VRB10KT 4000 TSRA RA SCT018CB BKN020", "MUCU 251700Z 2518/2618 VRB03KT 9000 SCT020 TEMPO 2518/2522 20008KT", "TAF MUGM 2515/2615 12006KT 9999 FEW035 FEW250 QNH2991INS BECMG 2515/2517 15011KT 9999 FEW035 SCT250 QNH2986INS BECMG 2523/2601 33006KT 9999 FEW030 FEW060 QNH2990INS TX30/2517Z TN22/2611Z FN20097", "MUHA 251700Z 2518/2618 19009KT 9000 BKN030 TEMPO 2519/2600 4000 TSRA FEW018CB BKN020 BECMG 2601/2603 VRB03KT SCT030", "MUHG 251700Z 2518/2618 VRB05KT 9000 SCT030 TEMPO 2521/2524 BKN020", "MUSC 251700Z 2518/2618 VRB04KT 9000 BKN020 TEMPO 2519/2524 VRB10KT 4000 TSRA RA SCT018CB BECMG 2600/2603 FEW020", "MUVR 251700Z 2518/2618 VRB03KT 9000 SCT020 TEMPO 2518/2524 VRB10KT 4000 TSRA RA SCT018CB BKN020 TEMPO 2600/2602 BKN025", "TAF MWCB 251700Z 2518/2618 12007KT 9999 FEW018", "TAF MWCR 251700Z 2518/2618 14007KT 9999 FEW018 PROB30 TEMPO 2520/2600 SHRA SCT016", "MYGF 251515Z 2518/2618 15012KT 9999 SCT015CB SCT020 BKN150 TEMPO 9000 SHRA", "MYNN 251515Z 2518/2618 15008KT 9999 SCT025 SCT150 PROB30 2521/2600 SHRA", "TAF NCRG 251713Z 2518/2618 10010KT 9999 SCT029", "TAF NFFN 251713Z 2518/2618 12005KT 9999 SCT030 SCT048 BECMG 2521/2523 30012KT PROB30 TEMPO 2602/2606 5000 SHRA BKN018 BECMG 2604/2606 12005KT", "TAF NFNA 251714Z 2518/2618 09005KT 9999 SCT024 BKN047", "TAF NFTF 251713Z 2518/2618 15005KT 9999 FEW017 BKN100", "TAF NFTV 251715Z 2518/2618 10005KT 9999 FEW016 BKN100", "TAF NGFU 251715Z 2518/2618 VRB03KT 9999 FEW018", "TAF NGTA 251714Z 2518/2618 06005KT 9999 -SHRA SCT019 BKN100 PROB40 TEMPO 2518/2618 5000 TSRA BKN015 FEW018CB", "TAF NIUE 251715Z 2518/2618 VRB03KT 9999 SCT018", "TAF NLWF 251700Z 2518/2618 14008KT 9999 SCT020 BKN040 TEMPO 2518/2618 4000 SHRA BKN014 FEW018CB BECMG 2521/2524 08010KT", "TAF NLWW 251700Z 2518/2618 VRB02KT 9999 SCT025 TEMPO 2518/2604 4000 SHRA BKN018 FEW020CB PROB30 TEMPO 2518/2520 2500 TSRA BKN014 SCT018CB ", "TAF NSFA 251714Z 2518/2618 17005KT 9999 FEW024 SCT100 PROB30 TEMPO 2518/2524 5000 TSRA BKN016 FEW018CB", "NSTU 251722Z 2518/2618 VRB05KT P6SM -SHRA VCTS SCT018CB BKN040 BKN100 FM252000 10008KT P6SM VCSH SCT015 SCT040 SCT150", "TAF NTAA 251700Z 2518/2624 05010KT 9999 FEW010 SCT020TCU SCT045 BKN100 PROB30 TEMPO 2518/2524 05015G25KT 2000 TSRA FEW010 SCT013CB BKN080 BECMG 2604/2606 VRB03KT", "TAF NVSC 251700Z 2518/2618 15005KT 9999 BKN020 FEW120 INTER 2518/2524 9000 -SHRA BKN018", "TAF NVSG 251700Z 2518/2618 15005KT 9999 BKN020 INTER 2512/2518 9000 -SHRA BKN018", "TAF NVSL 251700Z 2518/2618 15010KT 9999 SCT020 INTER 2512/2518 9000 -SHRA BKN018", "TAF NVSP 251700Z 2518/2618 15006KT 9999 SCT020", "TAF NVSS 251700Z 2518/2618 15005KT 9999 BKN020 INTER 2512/2518 9000 -SHRA BKN018", "TAF NVVA 251700Z 2518/2618 13005KT 9999 SCT020 BKN045 INTER 2512/2518 9000 -SHRA BKN018", "TAF NVVV 251700Z 2518/2618 15006KT 9999 SCT020 INTER 2512/2518 9000 -SHRA BKN018", "TAF NVVW 251700Z 2518/2618 13005KT 9999 SCT020 BKN045 INTER 2512/2518 9000 -SHRA BKN018", "TAF NWWD 251700Z 2518/2618 08005KT 9999 SCT050 BKN080 BECMG 2522/2601 17010KT TEMPO 2601/2606 4000 SHRA FEW020TCU BKN035 BECMG 2606/2608 VRB02KT", "TAF NWWE 251700Z 2518/2618 10012KT 9999 SCT010 BKN020 TEMPO 2518/2618 2500 SHRA BKN008 SCT012CB PROB30 TEMPO 2521/2608 10015G25KT 1500 TSRA BKN006 SCT010CB", "TAF NWWK 251700Z 2518/2618 05005KT 9999 FEW045 BKN080 BECMG 2522/2524 20010KT PROB40 TEMPO 2600/2609 4000 SHRA FEW020CB BKN035 BECMG 2605/2607 VRB02KT", "TAF AMD NWWL 251901Z 2519/2618 10008KT 9999 SCT025 BKN080 TEMPO 2519/2612 4000 SHRA BKN014 SCT020CB PROB40 TEMPO 2522/2608 2000 TSRA BKN009 SCT015CB", "TAF NWWM 251700Z 2518/2618 07008KT 9999 SCT050 BKN090 PROB40 TEMPO 2518/2521 4000 SHRA FEW030TCU BKN040 TEMPO 2521/2608 3500 SHRA BKN014 FEW018CB BECMG 2522/2524 14014KT PROB30 TEMPO 2600/2606 14015G25KT 2000 TSRA BKN011 SCT015CB BECMG 2607/2609 07008KT", "TAF NWWR 251700Z 2518/2618 09006KT 9999 SCT030 BKN090 PROB40 TEMPO 2518/2524 SHRA FEW020TCU BKN030 TEMPO 2600/2612 4000 SHRA BKN014 SCT020TCU PROB40 TEMPO 2602/2608 2000 TSRA BKN009 SCT015CB", "TAF NWWU 251700Z 2518/2618 18005KT 9999 SCT018 BKN025 TEMPO 2518/2606 4000 SHRA BKN014 SCT020CB BECMG 2522/2524 11010KT BECMG 2606/2608 19005KT", "TAF NWWW 251700Z 2518/2618 VRB02KT 9999 FEW050 BKN110 PROB30 TEMPO 2518/2522 SHRA TEMPO 2522/2609 4500 SHRA FEW020CB BKN025 PROB30 TEMPO 2600/2606 2500 TSRA BKN014 SCT018CB TEMPO 2612/2618 2000 BR", "TAF NZAA 252005Z 2521/2700 24018KT 9999 -SHRA FEW030 BKN040 BECMG 2522/2600 25020G30KT TEMPO 2601/2604 6000 SHRA FM260600 22012KT 9999 SCT030 BECMG 2613/2615 14005KT", "TAF NZCH 252011Z 2521/2700 24005KT 9999 FEW020 BKN040 FM252200 20015KT 9999 FEW040 BECMG 2606/2608 26005KT", "TAF NZQN 251705Z 2518/2612 18015G25KT 9999 FEW035 BECMG 2520/2522 19010KT", "TAF NZWN 252005Z 2521/2700 18020G30KT 9999 -SHRA BKN025 TEMPO 2521/2522 6000 RA FM260000 18015KT 9999 SCT030 BECMG 2612/2614 18005KT", "TAF OBBI 251700Z 2518/2700 VRB05KT CAVOK BECMG 2604/2606 35012KT", "TAF OEAB 251100Z 2512/2618 20014KT 7000 SCT020 TEMPO 2512/2522 VRB20KT 6000 TSRA FEW025CB BKN020 BECMG 2518/2520 02007KT FEW020 PROB30 TEMPO 2520/2606 4000 BR BECMG 2606/2608 22012KT", "TAF OEAH 251030Z 2512/2618 07012KT 8000 SCT040 BKN100 BECMG 2518/2520 30007KT PROB30 TEMPO 2600/2606 VRB20KT 5000 TSRA BLDU FEW030CB", "TAF OEAO 251100Z 2512/2618 27012KT 7000 SCT040 TEMPO 2512/2600 3000 BLDU TSRA FEW030CB BKN040 BECMG 2520/2522 36014KT PROB30 TEMPO 2600/2610 3000 BLDU", "TAF OEBA 251100Z 2512/2618 26012KT 7000 SCT030 TEMPO 2512/2522 VRB25KT 4000 TSRA FEW025CB BKN030 BECMG 2520/2522 14006KT PROB30 TEMPO 2520/2606 3000 BR BECMG 2606/2608 34006KT", "TAF OEBH 251100Z 2512/2618 27016KT 7000 SCT030 TEMPO 2512/2600 VRB25KT 3000 BLDU TSRA FEW025CB BKN030 BECMG 2600/2602 22010KT TEMPO 2520/2606 3000 BR BECMG 2608/2610 33006KT", "TAF OEDF 251600Z 2518/2624 32005KT 8000 NSC TEMPO 2518/2603 3000 HZ BECMG 2605/2607 35012KT 9999 FEW040 SCT080", "TAF OEDM 251100Z 2512/2618 09016KT 7000 SCT040 TEMPO 2512/2600 VRB26KT 3000 BLDU TSRA FEW035CB BKN040 PROB30 TEMPO 2512/2516 0500 DS BECMG 2600/2602 17014KT BECMG 2610/2612 24016KT", "TAF OEDR 251030Z 2512/2618 05015KT 9999 SCT040 BKN100 PROB30 TEMPO 2512/2515 TSRA FEW030CB BECMG 2518/2520 33007KT TEMPO 2600/2605 5000 HZ", "TAF OEGN 251100Z 2512/2618 26012KT 7000 FEW030 PROB30 TEMPO 2512/2518 VRB20KT 4000 BLDU TS FEW030CB BECMG 2518/2520 VRB03KT BECMG 2606/2608 26010KT", "TAF OEGS 251100Z 2512/2618 10012KT 7000 SCT040 TEMPO 2515/2600 VRB22KT 3000 BLDU TSRA FEW030CB BKN040 BECMG 2518/2520 36014KT BECMG 2612/2614 04016KT", "TAF OEGT 251100Z 2512/2618 34014KT CAVOK BECMG 2518/2520 30010KT BECMG 2610/2612 36010KT", "TAF OEHL 251100Z 2512/2618 16010KT 7000 SCT040 TEMPO 2512/2600 3000 BLDU TSRA FEW030CB BKN040 BECMG 2518/2520 02010KT BECMG 2606/2608 08012KT", "TAF OEJN 251700Z 2518/2624 01006KT 7000 FEW040 BECMG 2606/2608 31012KT BECMG 2618/2620 VRB03KT", "TAF OEKJ 251100Z 2512/2618 36012KT 7000 SCT040 TEMPO 2512/2600 VRB25KT 3000 BLDU TSRA FEW035CB BKN040 PROB30 TEMPO 2514/2518 0800 DS BECMG 2600/2602 19016KT BKN040", "TAF OEKM 251100Z 2512/2618 20014KT 7000 SCT020 TEMPO 2512/2522 VRB20KT 6000 TSRA FEW025CB BKN020 BECMG 2518/2520 02007KT FEW020 PROB30 TEMPO 2520/2606 4000 BR BECMG 2606/2608 22012KT", "TAF OEMA 251700Z 2518/2624 VRB03KT 9999 FEW045 BECMG 2606/2608 33012KT CAVOK", "TAF OENG 251100Z 2512/2618 02010KT 7000 SCT030 TEMPO 2512/2600 VRB25KT 3000 BLDU TS FEW025CB BKN040 BECMG 2518/2520 33014KT", "TAF OEPA 251030Z 2512/2618 03010KT CAVOK BECMG 2520/2522 15007KT PROB30 TEMPO 2600/2606 VRB20KT 5000 TSRA BLDU FEW030CB SCT040", "TAF AMD OEPS 251758Z 2517/2623 07010G15KT 6000 HZ SCT100 QNH2991INS TEMPO 2517/2523 08010G20KT 3200 BLDU BKN100 BECMG 2600/2601 VRB06KT 9000 HZ FEW080 QNH2996INS BECMG 2604/2605 06012KT 9999 NSW FEW080 QNH2992INS TX33/2612Z TN21/2601Z", "TAF OERF 251100Z 2512/2618 09010KT 7000 SCT040 TEMPO 2514/2600 VRB25KT 3000 BLDU TSRA FEW030CB BKN040 BECMG 2518/2520 17010KT", "TAF OERK 251700Z 2518/2624 25010KT 7000 BKN040 TEMPO 2518/2603 VRB25KT 2000 BLDU TSRA FEW035CB PROB30 TEMPO 2518/2522 0500 DS BECMG 2603/2605 15006KT TEMPO 2610/2620 4000 BLDU TSRA FEW035CB", "TAF OERR 251100Z 2512/2618 27010KT 7000 SCT040 TEMPO 2512/2600 VRB25KT 3000 BLDU TSRA FEW030CB BKN040 BECMG 2520/2522 13010KT BECMG 2602/2604 24010KT", "TAF OESH 251100Z 2512/2618 36012KT 7000 FEW040 TEMPO 2512/2604 3000 BLDU TS FEW035CB SCT040 BECMG 2522/2600 19014KT BECMG 2606/2608 04012KT", "TAF OESK 251100Z 2512/2618 26010KT 7000 SCT040 TEMPO 2512/2600 VRB25KT 3000 BLDU TSRA FEW030CB BKN040 BECMG 2520/2522 34010KT BECMG 2606/2608 22006KT", "TAF OETB 251100Z 2512/2618 33012KT 7000 FEW030 BECMG 2602/2604 VRB03KT BECMG 2612/2614 36006KT", "TAF OETF 251100Z 2512/2618 27012KT 7000 SCT030 TEMPO 2512/2600 4000 TSRA FEW025CB BKN030 BECMG 2520/2522 20006KT PROB30 TEMPO 2520/2606 2000 BR BECMG 2606/2608 31014KT", "TAF OETR 251100Z 2512/2618 26012KT 7000 NSC BECMG 2518/2520 02010KT CAVOK BECMG 2606/2608 26010KT", "TAF OEWD 251100Z 2512/2618 16010KT 5000 DU SCT040 TEMPO 2512/2517 2000 TEMPO 2517/2602 VRB25KT 2000 BLDU TSRA FEW030CB BKN040 BECMG 2600/2602 04016KT 7000 BECMG 2608/2610 28006KT", "TAF OEWJ 251100Z 2512/2618 33012KT 7000 FEW040 TEMPO 2512/2520 VRB20KT 4000 TS FEW035CB SCT040 BECMG 2606/2608 19010KT", "TAF OEYN 251100Z 2512/2618 29012KT 7000 FEW040 TEMPO 2512/2522 VRB22KT 4000 TS FEW035CB SCT040 BECMG 2606/2608 24016KT", "TAF OIAA 251740Z 2518/2624 31010KT 7000 FEW040 SCT100 BECMG 2606/2607 7000 NSC TEMPO 2609/2615 24018KT FEW030CB SCT040 BKN100", "TAF OIAW 251740Z 2518/2624 28008KT 7000 FEW040 SCT100 TEMPO 2609/2615 31015G26KT FEW035CB SCT040 BKN090", "TAF OIBB 252045Z 2521/2606 32010KT 7000 NSC BECMG 2523/2601 4000 BR HZ BECMG 2604/2606 7000", "TAF OIBK 251740Z 2518/2624 26008KT 4000 HZ/BR NSC TEMPO 2521/2604 3000 BR BECMG 2605/2607 6000 TEMPO 2610/2618 30020KT FEW030TCU SCT100 BECMG 2618/2619 4000 HZ", "TAF OIBP 252045Z 2521/2606 32010KT 7000 NSC BECMG 2602/2604 4000 BR HZ", "TAF OICC 252045Z 2521/2606 32008KT 7000 FEW040 SCT100 TEMPO 2521/2603 3000 BR", "TAF AMD OICI 251830Z 2518/2624 12006KT 7000 FEW035 BKN080 BECMG 2605/2606 NSC", "TAF OIFM 251740Z 2518/2624 31008KT 7000 NSC TEMPO 2600/2605 4000 HZ TEMPO 2612/2618 20022KT 4000 SA TS SCT035CB SCT040 BKN100 TEMPO 2618/2624 20018KT 5000 TSRA SCT035CB SCT040 BKN100", "TAF OIGG 252045Z 2521/2606 06006KT 7000 SCT020 BKN090 BECMG 2522/2524 3000 BR TEMPO 2600/2603 1500 DZ/BR BKN008 BKN080 BECMG 2604/2606 7000 SCT020", "TAF OIIE 251740Z 2518/2624 31012KT 8000 FEW035CB SCT040 BKN100 TEMPO 2518/2604 32018KT 2000 TSRA SA SCT035CB SCT040 OVC090 BECMG 2607/2608 FEW040", "TAF OIII 251740Z 2518/2624 27010KT 8000 FEW035CB SCT040 BKN100 TEMPO 2518/2604 28018KT 3000 TSRA SA SCT035CB SCT040 OVC090 BECMG 2607/2608 FEW040", "TAF OIIP 252045Z 2521/2606 30006KT 7000 FEW035CB SCT040 BKN090 TEMPO 2521/2603 32012KT 5000 -SHRA BR", "TAF OIKB 251740Z 2518/2624 20008KT 5000 HZ FEW025 TEMPO 2522/2604 2000 BR SCT020 TEMPO 2608/2609 6000 TEMPO 2609/2616 24018KT FEW025CB SCT030 SCT090 BECMG 2617/2618 5000 HZ", "TAF OIKK 251740Z 2518/2624 20008KT 7000 FEW040 BECMG 2609/2610 FEW035CB SCT040 BKN100 TEMPO 2610/2617 18016G26KT 4000 TSRA SA SCT030CB SCT035 BKN090 BECMG 2617/2618 FEW035 SCT100", "TAF OIMM 251740Z 2518/2624 11006KT 8000 NSC TEMPO 2608/2615 11018KT FEW035CB SCT040 BKN100", "TAF OING 251755Z 2518/2603 24008KT 7000 FEW035CB SCT040 BKN100 TEMPO 2600/2603 3000 BR", "TAF OINZ 252045Z 2521/2606 24006KT 7000 FEW035CB SCT040 BKN100 BECMG 2523/2601 07010KT 3000 RA BR FEW030CB SCT035 OVC090 TEMPO 2601/2604 1500 TSRA BR SCT025CB SCT030 OVC080", "TAF OISL 251740Z 2518/2624 22008KT 8000 NSC TEMPO 2518/2524 22016KT FEW030CB SCT035 SCT100 TEMPO 2609/2618 22016KT FEW030CB SCT035 SCT100", "TAF OISS 251740Z 2518/2624 28006KT 8000 FEW040 SCT100", "TAF AMD OITL 252055Z 2521/2606 22010KT 2000 BR BKN005 SCT020 BKN100 TEMPO 2521/2603 0200 DZ FG BR BKN002 SCT015 BKN080 BECMG 2604/2606 7000 SCT015 BKN035", "TAF OITR 251740Z 2518/2624 28008KT 6000 FEW040 SCT100 TEMPO 2518/2521 11016G26KT SCT030CB SCT040 BKN080 BECMG 2607/2609 7000 NSC TEMPO 2609/2615 24018KT FEW030CB SCT040 BKN100", "TAF OITT 251740Z 2518/2624 28008KT 6000 SCT035 SCT100 TEMPO 2601/2605 4000 BR BECMG 2607/2609 NSC TEMPO 2609/2615 24018KT FEW030CB SCT040 BKN100", "TAF OIYY 252045Z 2521/2606 12008KT 7000 FEW040 SCT100", "TAF OIZH 251740Z 2518/2624 18008KT 7000 FEW100 TEMPO 2607/2615 14014G20KT 4000 SA FEW035CB SCT040 BKN100", "TAF OJAI 251649Z 2518/2624 28012KT 5000 HZ NSC TEMPO 2600/2606 VRB02KT", "TAF OJAM 251649Z 2518/2624 27010KT 5000 HZ NSC TEMPO 2600/2606 VRB02KT", "TAF OJAQ 251649Z 2518/2624 36012KT 7000 NSC", "TAF OKAS 251600Z 2516/2622 35009KT 9999 SKC QNH2977INS BECMG 2602/2603 36006KT 9999 SCT150 QNH2986INS BECMG 2607/2608 35012G20KT 9999 SKC QNH2978INS BECMG 2615/2616 34006KT 9999 SKC QNH2980INS TX35/2612Z TN20/2601Z", "TAF OLBA 251600Z 2518/2624 VRB03KT 9999 SCT026 BECMG 2606/2608 26008KT 8000 FEW026 BECMG 2614/2616 32006KT CAVOK", "TAF OMAA 251700Z 2518/2700 05006KT 8000 NSC BECMG 2607/2609 32013KT BECMG 2617/2619 03005KT", "TAF OMAD 251700Z 2518/2700 04005KT 8000 NSC BECMG 2606/2608 33011KT BECMG 2616/2618 03005KT", "TAF OMAL 251700Z 2518/2700 06008KT 8000 NSC BECMG 2603/2605 17010KT BECMG 2609/2611 32012KT", "TAF OMDB 251700Z 2518/2700 09005KT CAVOK BECMG 2604/2606 18010KT BECMG 2607/2609 33014KT BECMG 2617/2619 20005KT", "TAF OMDW 251700Z 2518/2700 09005KT 8000 NSC BECMG 2603/2605 19010KT BECMG 2608/2610 32015KT PROB30 TEMPO 2609/2614 32017G27KT 3000 BLDU BECMG 2617/2619 20005KT", "TAF OMFJ 251700Z 2518/2700 16005KT 8000 NSC BECMG 2606/2608 09010KT PROB30 TEMPO 2607/2614 VRB14G24KT 4000 SHRA FEW035TCU BECMG 2614/2616 25005KT", "TAF OMRK 251700Z 2518/2700 09005KT 8000 NSC BECMG 2607/2609 33012KT PROB30 TEMPO 2608/2614 VRB20G30KT 1500 TSRA BLDU FEW040CB BECMG 2615/2617 VRB02KT", "TAF OMSJ 251700Z 2518/2700 12005KT CAVOK BECMG 2607/2609 33014KT BECMG 2616/2618 20005KT", "TAF OODQ 251700Z 2518/2618 21018KT 7000 SCT020 PROB30 TEMPO 2613/2618 VRB20G30KT 4000 -TSRA FEW025CB BKN035", "TAF OOMS 251700Z 2518/2624 08010KT 8000 FEW030 BECMG 2520/2522 VRB02KT PROB30 TEMPO 2522/2606 -RA BKN020 BECMG 2606/2608 04012KT BECMG 2615/2617 VRB02KT BECMG 2620/2622 22015KT", "TAF OOSA 251740Z 2518/2700 VRB03KT 9999 SCT025 BECMG 2604/2606 20014KT BECMG 2616/2618 VRB03KT", "TAF OOSH 251700Z 2518/2624 VRB02KT 8000 SCT030 PROB30 TEMPO 2521/2606 BKN020 BECMG 2606/2608 07012KT BECMG 2615/2617 VRB02KT", "TAF OPBW 251545Z 2518/2612 15014KT 3500 HZ SCT100 TN24/2601Z TX39/2610Z", "TAF OPDG 251545Z 2518/2612 18014KT 4000 HZ SCT100 TN22/2601Z TX38/1610Z", "TAF OPFA 251700Z 2518/2624 VRB02KT 4000 FU NSC TX38/2610Z TN20/2600Z TEMPO 2600/2604 VRB02KT 2500 FU FM260600 23004KT 6000 NSC FM261600 00000KT 4000 FU FEW100", "TAF OPGD 251700Z 2518/2618 25007KT 4000 HZ FEW030 SCT100 TEMPO 2600/2604 VRB03KT 4000 HZ FEW030 SCT100 FM260400 23010G20KT 7000 NSC", "TAF OPIS 251655Z 2518/2624 1005G15KT 6000 FEW040 SCT100 PROB30 TEMPO 2523/2604 24009KT 4000 FU FEW040 BKN100 BECMG 2604/2608 09008G18KT 7000 FEW040 TEMPO 2618/2624 12008G18KT 4000 FU FEW040 SCT100", "TAF OPKC 251700Z 2518/2624 28007KT 5000 HZ FEW030 SCT100 FM260700 25010G20KT 6000 FEW040 SCT100", "TAF OPLA 251725Z 2518/2624 13005KT 4000 FU SCT100 TX36/2610Z TN20/2600Z FM260400 12008KT 6000 BKN100 PROB30 TEMPO 2610/2615 05015G30KT 3000 DRDU SCT040 SCT100 FM261800 03010KT 4000 FU FEW040 SCT100", "TAF OPMT 251545Z 2518/2612 23014KT 4000 HZ SCT100 TN21/2601Z TX37/2610Z", "TAF OPNH 251700Z 2518/2624 18007KT 4000 HZ SCT100 FM260500 16010KT 6000 FEW040 SCT100", "TAF OPPS 251700Z 2518/2624 31008KT 4000 FU FEW040 SCT100 TEMPO 2519/2524 33008G18KT 3000 -TSRA FEW030CB BECMG 2603/2605 05008KT 5000 HZ FEW040 SCT080", "TAF OPRK 251545Z 2518/2612 18012KT 4000 HZ SCT100 TN24/2601Z TX38/2610Z ", "TAF OPSK 251700Z 2518/2618 05007KT 4000 HZ SCT100 FM260500 16010KT 5000 HZ SCT100", "TAF OPST 251700Z 2518/2624 31005KT 4000 FU FEW040 SCT100 TX34/2610Z TN19/2600Z TEMPO 2606/2610 23015G25KT 2000 -TSRA FEW030CB SCT040 BKN100", "TAF ORBI 251700Z 2518/2618 06006KT CAVOK", "TAF ORER 251100Z 2512/2612 26007KT 8000 FEW040 BECMG 2515/2518 03004KT CAVOK", "TAF ORMM 251615Z 2518/2618 28010KT CAVOK TEMPO 2610/2618 30015G25KT TEMPO 2612/2617 6000 NSC ", "TAF ORSU 251700Z 2518/2618 32004KT CAVOK BECMG 2607/2609 9999 SCT045", "OSAP 251600Z 2518/2618 27010KT 9999 FEW030 BECMG 2520/2523 VRB03KT CAVOK BECMG 2606/2609 27012KT 9999 SCT030", "OSDI 251600Z 2518/2624 22010KT 9999 FEW030", "OSLK 251600Z 2518/2618 10006KT 9999 SCT030 TEMPO 2606/2608 20015KT", "TAF OTBD 251704Z 2518/2624 03010KT CAVOK TEMPO 2518/2521 09008KT TEMPO 2519/2606 33008KT", "TAF OTBH 251600Z 2516/2622 03008KT 9999 FEW150 QNH2971INS BECMG 2523/2524 VRB06KT 9000 BR SCT150 QNH2974INS BECMG 2603/2604 34009KT 9999 NSW FEW150 QNH2976INS BECMG 2607/2608 31010G20KT 9999 SCT150 QNH2977INS BECMG 2612/2613 31010G20KT 9999 VCTS BKN100CB QNH2974INS BECMG 2615/2616 33008KT 9999 NSW SCT120 QNH2976INS TX33/2612Z TN23/2600Z", "TAF OTHH 251703Z 2518/2624 03010KT CAVOK TEMPO 2518/2521 09008KT TEMPO 2519/2606 33008KT", "TAF OYAA 251625Z 2518/2624 06010KT 8000 SCT020 SCT200 TEMPO 2610/2616 FEW040CB SCT100", "PAAQ 251720Z 2518/2618 35009KT P6SM BKN080 FM252100 14012G20KT P6SM FEW050 BKN100 FM260600 VRB06KT P6SM SCT050 OVC080", "PABE 251720Z 2518/2618 06008KT P6SM OVC070", "TAF PABI 251400Z 2514/2620 10009KT 9999 FEW060 SCT080 QNH2969INS BECMG 2603/2604 VRB06KT 9999 SKC QNH2951INS TX00/2603Z TNM13/2514Z", "PABR 251739Z 2518/2618 36006KT P6SM VCFG SCT025 TEMPO 2518/2520 2SM -SN BR BKN025 FM252100 03006KT P6SM SCT025", "PABT 251739Z 2518/2618 23005KT P6SM SCT050 SCT100", "PACD 251720Z 2518/2618 22010KT P6SM -SHRA FEW020 BKN035 OVC050 FM252100 25015G25KT P6SM SCT007 BKN025 FM260300 25009KT P6SM BKN020", "PACV 251720Z 2518/2618 12005KT P6SM VCSH OVC030 FM252000 10010G18KT 6SM -SHRA BKN025 OVC035 FM260200 09008KT P6SM -RA SCT025 OVC030 FM261200 VRB03KT P6SM VCSH SCT030 BKN040", "PADL 251720Z 2518/2618 01012KT 1SM -SN BR OVC015 TEMPO 2518/2521 01012G20KT FM260400 06006KT 6SM -SHSN OVC007", "PADQ 251720Z 2518/2618 10013KT 4SM -SN BR OVC006 FM252100 10011KT 5SM -RASN SCT008 OVC010 FM252300 10010KT P6SM -RA SCT007 OVC015 FM260600 VRB06KT P6SM VCSH BKN030 FM261200 VRB05KT P6SM SCT030 BKN050", "PADU 251720Z 2518/2618 25010G25KT P6SM -RASN FEW015 BKN020 OVC030 FM260000 30007KT P6SM OVC020", "TAF PAED 252100Z 2521/2703 VRB06KT 9999 VCSH FEW040 BKN060 BKN100 OVC120 620604 520109 QNH2969INS BECMG 2601/2602 01009KT 9999 VCSH FEW035 BKN050 BKN100 620505 530109 QNH2960INS BECMG 2611/2612 03005KT 9999 NSW FEW035 BKN050 BKN080 620505 QNH2952INS TX06/2601Z TNM01/2614Z", "TAF PAEI 251400Z 2514/2620 32009KT 9999 FEW050 SCT100 BKN200 QNH2975INS BECMG 2521/2522 36009KT 9999 SCT025 BKN100 BKN200 QNH2955INS TX05/2601Z TNM13/2514Z", "PAEN 251720Z 2518/2618 08009KT P6SM OVC080 FM252100 09013KT P6SM VCSH SCT050 OVC080 FM261200 05010KT P6SM VCSH SCT040 OVC070", "PAFA 251739Z 2518/2624 05006KT P6SM SCT050 BKN100 FM260000 VRB06KT P6SM FEW050 SCT100 BKN200", "TAF PAFB 2514/2620 04005KT 9999 FEW060 SCT080 BKN200 QNH2973INS BECMG 2603/2604 VRB05KT 9999 SCT080 BKN200 QNH2964INS TX03/2602Z TNM12/2515Z", "PAGA 251739Z 2518/2618 06012G18KT P6SM FEW050 SCT100 AMD NOT SKED", "PAGK 252059Z 2521/2618 16015G25KT P6SM SCT100 BKN200 FM252200 16012G18KT P6SM SCT050 BKN100 FM260400 16008KT P6SM SCT060 BKN100", "PAGS 251720Z 2518/2618 13008KT P6SM -SHRA SCT025 OVC040 FM260400 32008KT 6SM -RA BR OVC050 WS020/05030KT FM261200 02008KT 4SM -RA BR BKN015 OVC025 AMD LTD TO CLD VIS AND WIND", "PAGY 251720Z 2518/2618 21012KT P6SM OVC060 FM260400 03009KT P6SM -SHRA OVC050 AMD LTD TO CLD VIS AND WIND", "PAHN 251720Z 2518/2618 09009KT P6SM VCSH OVC015 FM252100 11009KT P6SM BKN100 FM260500 32010KT P6SM -SHRA SCT040 BKN060 FM261500 31014KT 6SM -RA BKN015 OVC025 AMD NOT SKED", "PAHO 252012Z 2520/2618 11005KT P6SM VCSH SCT030 OVC050 TEMPO 2520/2523 6SM -RASN BKN030 FM260000 08008KT P6SM -RA SCT025 OVC040 FM260900 VRB06KT 6SM -RA BR OVC020", "PAIL 252053Z 2521/2618 09012G20KT P6SM BKN040 OVC070 FM260600 09008KT P6SM BKN050 OVC100", "PAJN 251720Z 2518/2618 11012KT P6SM VCSH FEW010 BKN035 OVC050 FM260600 12004KT 6SM -RA BR SCT025 OVC050 WS020/07030KT FM261200 12010KT 4SM -RA BR SCT015 OVC025 WS020/15030KT", "PAKN 251720Z 2518/2618 08008KT P6SM OVC035 FM260000 11008KT P6SM -SHRA OVC020 FM260600 12006KT P6SM BKN015 OVC050", "PAKT 251720Z 2518/2618 15009KT P6SM SCT020 BKN060 FM252300 14015G23KT 6SM -SHRA BR SCT025 OVC050 FM260400 14018G26KT 4SM -RA BR OVC020 WS020/15045KT FM261500 15014G24KT 6SM -RA BR OVC025 WS020/24035KT AMD LTD TO CLD VIS AND WIND 2606/2615", "PAKW 251720Z 2518/2618 VRB04KT P6SM VCSH SCT025 BKN050 FM260000 VRB06KT 6SM -SHRA BR SCT020 OVC040 WS020/13050KT FM260600 12010G15KT 4SM -RA BR SCT015 OVC025 WS020/15050KT FM261500 20012G22KT 6SM -RA BR OVC025 WS020/23035KT AMD LTD TO CLD VIS AND WIND", "PAMC 251739Z 2518/2618 VRB06KT P6SM SCT050 BKN100 FM252100 03004KT P6SM SCT003 BKN050 AMD NOT SKED", "PANC 251720Z 2518/2624 VRB05KT P6SM BKN080 BKN200 FM261500 VRB05KT P6SM VCSH SCT040 OVC060", "PAOM 251739Z 2518/2618 06012KT P6SM SCT050", "PAOR 251739Z 2518/2618 VRB04KT P6SM SCT045", "PAOT 251739Z 2518/2618 09011KT P6SM SKC", "PAPG 251720Z 2518/2618 VRB04KT P6SM VCSH SCT015 BKN025 OVC040 TEMPO 2518/2521 -SHRA BKN005 OVC015 FM252100 08006KT P6SM VCSH BKN050 FM260600 12010KT 6SM -RA BR SCT020 OVC040 WS020/12040KT FM260900 15010KT 4SM -RA BR BKN015 OVC025 WS020/15035KT FM261600 15009KT 5SM -RA SCT015 OVC025 WS020/25035KT AMD LTD TO CLD VIS AND WIND 2606/2615", "PAQT 252122Z 2521/2618 03004KT P6SM SCT003 BKN015 TEMPO 2521/2523 BKN006 FM260300 06006KT P6SM SCT015", "PASC 251739Z 2518/2618 24006KT 6SM BR SCT012 FM252100 06008KT P6SM VCFG BKN015 FM260300 06012KT P6SM SCT015", "PASD 251720Z 2518/2618 22010KT P6SM BKN025 TEMPO 2518/2520 SCT025 BKN040 FM252100 22012KT 6SM -SHRA BKN015 FM260300 22010KT P6SM VCSH BKN025 FM260600 21008KT P6SM SCT025 BKN035", "PASI 251720Z 2518/2618 13007KT P6SM VCSH SCT025 BKN050 FM260200 11015G25KT 6SM -RA BR SCT020 OVC040 WS020/11045KT FM261200 12018G28KT 4SM -RA BR SCT015 OVC025 WS020/15035KT", "PASN 251720Z 2518/2618 36013KT P6SM OVC015 FM252100 33010KT P6SM OVC025", "TAF PASY 251400Z 2514/2620 30010KT 9999 SCT020 BKN040 620409 QNH2967INS BECMG 2521/2522 30015KT 9999 FEW020 SCT040 QNH2967INS BECMG 2611/2612 33020KT 9000 -SN BKN015 620159 QNH2975INS BECMG 2614/2615 35020KT 9999 NSW SCT015 BKN030 620309 QNH2975INS TX02/2603Z TN00/2614Z", "PATA 251739Z 2518/2618 09011G17KT P6SM FEW050 SCT100", "PATK 251720Z 2518/2618 02007KT P6SM SCT070 BKN200 FM260300 34005KT P6SM OVC070", "PAUN 251739Z 2518/2618 07019G30KT P6SM SKC FM252300 06011G21KT P6SM SCT003", "PAVD 251720Z 2518/2618 09003KT P6SM VCSH FEW025 BKN060 OVC080 FM252200 VRB04KT P6SM -SHRA SCT025 OVC050 FM260700 VRB03KT P6SM SCT030 BKN070", "PAWG 251720Z 2518/2618 VRB05KT P6SM VCSH FEW005 BKN035 OVC050 FM260300 12017KT 6SM -RA BR SCT020 OVC040 WS020/13035KT FM260900 12018G28KT 4SM -RA BR BKN015 OVC025 WS020/15035KT FM261600 15016G26KT 5SM -RA BR SCT015 OVC025 WS020/24035KT AMD NOT SKED 2606/2615", "PAYA 251720Z 2518/2618 10008KT P6SM BKN050 FM261600 20005KT P6SM -RA OVC040 AMD LTD TO CLD VIS AND WIND", "PGRO 252045Z 2521/2618 08010G18KT P6SM VCSH SCT015 SCT035", "PGSN 251732Z 2518/2618 08015KT P6SM VCSH FEW015 SCT025 SCT050", "TAF PGUA 251800Z 2518/2624 07012G18KT 9999 SCT009 BKN018 QNH2980INS TEMPO 2520/2523 07015G22KT 9000 -SHRA BKN009 BECMG 2522/2523 07015G22KT 9999 BKN012 QNH2979INS TEMPO 2608/2624 07015G25KT 8000 -SHRA BKN010 TX29/2602Z TN25/2518Z", "PGUM 251732Z 2518/2624 07011KT P6SM SHRA FEW012 SCT020 SCT050 TEMPO 2518/2521 5SM SHRA SCT012 BKN024 FM252300 08012G20KT P6SM VCSH FEW020 SCT035 FM260600 08010KT P6SM VCSH FEW018 SCT035", "PGWT 250534Z 2506/2606 08015KT P6SM VCSH SCT015 BKN045", "TAF PHHI 251500Z 2515/2621 35006KT 9999 SCT020 BKN025 BKN035 QNH2999INS BECMG 2519/2520 01009KT 9999 SCT025 BKN035 QNH3001INS TEMPO 2521/2602 8000 -SHRA SCT007 BKN014 TEMPO 2602/2605 1600 RA BKN004 BECMG 2606/2607 03006KT 9999 SCT030 BKN040 QNH3005INS TX26/2523Z TN20/2515Z", "PHJH 251722Z 2518/2618 08006KT P6SM FEW030 BKN045 FM252100 VRB05KT P6SM VCSH SCT020 BKN035 FM260600 08005KT P6SM SCT025 BKN050", "PHJR 251722Z 2518/2618 35007KT P6SM FEW025 SCT035 BKN050 FM252000 03010KT P6SM SCT025 BKN035 FM260500 03006KT P6SM FEW030 SCT045", "PHKO 251722Z 2518/2618 25009KT P6SM FEW030 SCT050 FM260600 06005KT P6SM FEW030 SCT060", "PHLI 251722Z 2518/2618 35007KT P6SM FEW025 BKN040 FM252000 02011KT P6SM FEW030 SCT045 FM260700 02008KT P6SM FEW025 BKN045", "PHMK 252057Z 2521/2618 02007KT 5SM SHRA BKN015 BKN025 FM252200 03011KT P6SM VCSH SCT018 BKN025 FM260600 04006KT P6SM VCSH SCT018 BKN040", "TAF AMD PHNG 2516/2615 02010KT 9999 SCT020 BKN035 QNH2998INS TEMPO 2515/2521 8000 -SHRA SCT015 BKN025 FM252100 03010KT 9999 SCT025 BKN040 QNH3005INS TEMPO 2521/2603 03012G18KT 6000 SHRA T29/2600Z T23/2614Z AMD 1651", "PHNL 252108Z 2521/2624 03011KT P6SM SCT025 SCT050 FM260500 36005KT P6SM FEW025 SCT045 FM262000 04009KT P6SM SCT025 SCT050", "PHNY 252125Z 2521/2618 VRB05KT 5SM -SHRA BKN015 TEMPO 2521/2523 2SM SHRA BKN008 FM260100 03007KT P6SM VCSH SCT018 BKN030 FM260600 03006KT P6SM SCT020 BKN035", "PHOG 251722Z 2518/2618 VRB04KT P6SM FEW050 FM252000 02011KT P6SM SCT025 BKN045 FM260600 VRB05KT P6SM FEW025 BKN045", "PHTO 251722Z 2518/2618 VRB05KT P6SM SCT050 FM252100 11010KT P6SM FEW025 SCT050 FM260700 23005KT P6SM SCT025 BKN050", "PKMJ 251732Z 2518/2618 06010KT P6SM SHRA VCTS SCT015CB BKN050 OVC130 TEMPO 2518/2522 4SM SHRA SCT015 BKN025 FM252300 05011KT P6SM VCSH SCT015 BKN120", "PKWA 251732Z 2518/2618 07015KT P6SM VCSH SCT018 SCT050 BKN150 TEMPO 2600/2604 5SM SHRA SCT010 SCT022 BKN035", "TAF PLCH 251714Z 2518/2618 09005KT 9999 FEW020", "PMDY 251722Z 2518/2618 07008KT P6SM FEW025 BKN040 AMD NOT SKED", "PTKK 251732Z 2518/2618 VRB06KT P6SM VCSH FEW012 SCT035 BKN120", "PTPN 242320Z 2500/2524 10010KT P6SM VCSH SCT015 BKN120", "PTRO 251732Z 2518/2618 05005KT P6SM VCSH SCT016", "PTSA 242320Z 2500/2524 05010KT P6SM VCSH SCT015 BKN120 TEMPO 2500/2503 VRB10G18KT 5SM SHRA BKN015", "PTYA 251732Z 2518/2618 06006KT P6SM VCSH FEW016 SCT050", "TAF PWAK 251400Z 2514/2620 08012KT 9999 SCT018 QNH2993INS TEMPO 2514/2520 08015G20KT 9000 -SHRA BKN018 TX29/2523Z TN24/2517Z FOR MIL USE ONLY", "TAF RCFN 251700Z 2518/2618 02005KT 8000 FEW015 BKN032 TEMPO 2600/2604 FEW010 BKN020 TEMPO 2604/2610 08008KT 5000 RA FEW010 BKN018", "TAF RCKH 251700Z 2518/2624 34005KT 8000 FEW015 BKN032 TEMPO 2518/2524 05005KT 5000 BR FEW010 BKN020 TEMPO 2604/2610 27010KT TEMPO 2618/2624 05005KT 5000 BR FEW010 BKN020", "TAF RCMQ 251700Z 2518/2618 36008KT 2400 BR FEW003 BKN016 BKN050 TX26/2605Z TN18/2520Z TEMPO 2519/2523 4000 -RA BR BECMG 2600/2603 02014KT 6000 -RA BECMG 2604/2607 9999 FEW012 SCT020 BKN050 BECMG 2608/2610 FEW012 SCT060 BECMG 2611/2614 34008KT", "TAF RCNN 251700Z 2518/2618 02004KT 8000 FEW010 BKN060 TX31/2606Z TN23/2521Z TEMPO 2519/2523 5000 BR FEW010 BKN040 BECMG 2602/2605 34008KT 9999 BECMG 2608/2611 FEW010 BKN050 BECMG 2613/2616 02004KT FEW010 BKN060", "TAF RCSS 251700Z 2518/2618 09010KT 8000 FEW010 BKN032 TEMPO 2518/2524 12005KT 4000 RA SCT008 BKN015 TEMPO 2600/2604 5000 RA FEW010 BKN020 TEMPO 2604/2610 07015KT", "TAF RCTP 251700Z 2518/2624 04015KT 8000 SCT006 BKN011 TEMPO 2518/2524 01010KT 4000 RA BR SCT004 BKN007 TEMPO 2606/2612 SCT008 BKN032 BECMG 2612/2614 08012KT FEW010 BKN032 TEMPO 2618/2624 10005KT", "TAF RJAA 251705Z 2518/2700 16004KT 8000 -RA FEW008 BKN015 TEMPO 2518/2600 4000 -RA BR FEW005 BKN008 BECMG 2522/2600 16018G28KT TEMPO 2600/2606 3000 SHRA BR FEW003 BKN005 BECMG 2609/2612 30010KT", "TAF RJAH 251706Z 2518/2700 34004KT 8000 -SHRA FEW005 BKN015 TEMPO 2518/2600 3000 RA BR FEW003 BKN005 BECMG 2522/2600 17012KT TEMPO 2600/2609 4000 -SHRA BR FEW003 BKN005 BECMG 2606/2609 34010KT", "TAF AMD RJBB 251938Z 2519/2700 08010KT 9000 -SHRA FEW008 SCT020 BKN035 TEMPO 2519/2521 3000 SHRA BR BECMG 2520/2522 19022G33KT TEMPO 2521/2600 2000 +SHRA BR FEW003 BKN008 BKN015 FEW020CB BECMG 2522/2600 30016KT", "TAF RJCB 251705Z 2518/2700 15014KT 9999 FEW005 BKN015 TEMPO 2520/2600 4000 -SHRA BR FEW003 BKN005 TEMPO 2600/2609 15022G32KT 3000 SHRA BR FEW001 BKN003 BECMG 2609/2612 33014KT TEMPO 2609/2615 1500 -SHRA BR FEW001 BKN003 BECMG 2615/2618 32022G32KT", "TAF RJCC 251705Z 2518/2700 15025KT 9999 -SHRA FEW004 BKN015 TEMPO 2519/2606 15030G40KT 3000 SHRA BR FEW002 BKN004 TEMPO 2606/2612 3000 -SHRA BR FEW002 BKN004 BECMG 2609/2612 34020KT TEMPO 2612/2618 34023G33KT", "TAF RJCH 251705Z 2518/2700 12015KT 9999 -SHRA FEW008 BKN015 TEMPO 2518/2600 4000 SHRA BR FEW005 BKN008 TEMPO 2600/2609 3000 SHRA BR FEW003 BKN005 BECMG 2606/2609 30012KT", "TAF RJCK 251705Z 2518/2700 15007KT 9999 FEW008 BKN025 BECMG 2521/2523 16022KT 2000 -SHRA BR FEW003 BKN005 TEMPO 2603/2615 0700 SHRA FG VV001 BECMG 2612/2615 32007KT BECMG 2615/2618 9999 NSW FEW008 BKN030", "TAF RJCM 251705Z 2518/2700 18010KT 9999 FEW015 BKN030 BECMG 2520/2522 17022KT TEMPO 2522/2606 17025G35KT BECMG 2609/2612 18012KT BECMG 2615/2618 30010KT", "TAF RJEC 251705Z 2518/2700 18018KT 9999 FEW008 BKN015 TEMPO 2521/2603 17023G33KT TEMPO 2603/2609 4000 SHRA BR FEW005 BKN008 TEMPO 2609/2618 2000 -SHRA BR FEW003 BKN005 BECMG 2612/2615 31010KT TEMPO 2621/2700 30020G30KT", "TAF RJFF 251706Z 2518/2700 30013KT 9999 FEW030 TEMPO 2518/2520 3000 -SHRA BR FEW003 BKN005 BKN010 TEMPO 2603/2609 28015G25KT BECMG 2612/2615 15005KT", "TAF RJFK 251708Z 2518/2700 32016KT 9999 FEW015 SCT030 TEMPO 2518/2521 4000 SHRA BR FEW003 BKN008 BKN010 BECMG 2612/2615 34006KT BECMG 2621/2700 11006KT", "TAF RJFM 251708Z 2518/2700 28017KT 9999 FEW030 TEMPO 2518/2521 4000 SHRA BR BECMG 2621/2700 30005KT", "TAF RJFO 251708Z 2518/2700 31010KT 9999 -SHRA FEW010 SCT020 BKN030 TEMPO 2601/2604 31015G25KT BECMG 2621/2700 02007KT", "TAF RJFR 251706Z 2518/2700 31013KT 9999 FEW015 SCT025 BKN035 TEMPO 2603/2609 28018G28KT BECMG 2621/2700 06004KT", "TAF RJFS 251710Z 2518/2700 30012KT 9999 FEW020 SCT045 BECMG 2618/2621 02004KT", "TAF AMD RJFT 252044Z 2520/2700 28013KT 9999 FEW030 TEMPO 2520/2523 0700 -SHRA FG VV001 TEMPO 2523/2601 2000 BR FEW001 BKN003 BKN005 BECMG 2612/2615 06004KT", "TAF RJFU 251710Z 2518/2700 32014KT 9999 FEW020 BKN045 BECMG 2618/2621 14005KT", "TAF RJGG 251705Z 2518/2700 12025KT 6000 -SHRA FEW005 BKN012 TEMPO 2518/2600 14030G40KT 3000 SHRA BR FEW003 BKN005 BECMG 2600/2602 32024KT TEMPO 2600/2603 3000 SHRA BR FEW003 BKN005 BECMG 2618/2621 32012KT", "TAF RJNK 251705Z 2518/2700 29008KT 6000 -SHRA FEW005 BKN012 TEMPO 2521/2603 3000 SHRA BR FEW003 BKN005 BECMG 2606/2609 35010KT TEMPO 2612/2615 4000 -SHRA BR BECMG 2612/2615 21006KT", "TAF RJNS 251705Z 2518/2700 15006KT 6000 -SHRA FEW008 BKN012 TEMPO 2518/2522 3000 SHRA BR FEW003 BKN005 TEMPO 2522/2601 1500 +SHRA BR FEW003 BKN005 TEMPO 2601/2605 3000 SHRA BR FEW003 BKN005 BECMG 2604/2606 26020G30KT", "TAF RJNT 251714Z 2518/2700 18016KT 9999 FEW015 BKN030 TEMPO 2518/2521 18018G28KT BECMG 2521/2523 27006KT TEMPO 2523/2606 4000 SHRA BR FEW004 BKN008", "TAF RJOA 251706Z 2518/2700 33010KT 6000 -SHRA FEW001 SCT008 BKN015 TEMPO 2518/2521 3000 SHRA BR BCFG FEW000 SCT005 BKN008 BECMG 2621/2700 02005KT", "TAF RJOB 251705Z 2518/2700 11009KT 4000 -SHRA BR BCFG FEW000 SCT005 BKN008 TEMPO 2518/2520 1500 SHRA BR BCFG FEW000 SCT001 BKN003 BECMG 2520/2522 30008KT 9999 NSW FEW015 SCT020 BKN035", "TAF AMD RJOC 252118Z 2521/2700 31006KT 9999 FEW015 BKN030 TEMPO 2521/2523 4000 -SHRA BR FEW002 SCT005 BKN008 BECMG 2602/2604 27020KT TEMPO 2604/2609 27022G32KT BECMG 2609/2612 27009KT", "TAF RJOH 251705Z 2518/2700 28007KT 9999 FEW005 SCT008 BKN020 TEMPO 2518/2521 3000 -SHRA BR FEW002 BKN005 BKN008 BECMG 2602/2604 27018KT TEMPO 2604/2609 27020G30KT BECMG 2609/2612 27008KT", "TAF RJOI 2521/2621 VRB05KT 9999 FEW010 BKN025 BKN070 611206 510105 512505 QNH2972INS BECMG 2522/2600 31009KT 9999 FEW030 SCT080 600000 500000 QNH2978INS FM260600 32008KT 9999 FEW030 QNH2980INS FM260900 34006KT 9999 FEW025 QNH2982INS FM261200 VRB05KT 9999 FEW020 QNH2991INS FM261600 VRB05KT 9999 FEW020 QNH2998INS T16/2603Z T08/2619Z", "TAF RJOK 251705Z 2518/2700 18017KT 7000 -SHRA FEW005 SCT010 BKN020 TEMPO 2518/2522 2000 +SHRA BR FEW002 BKN005 BKN015 FEW020CB BECMG 2520/2522 34015KT TEMPO 2600/2606 34016G26KT", "TAF RJOM 251706Z 2518/2700 28006KT 9999 FEW015 SCT025 BKN035 TEMPO 2518/2521 4000 SHRA BR FEW003 BKN008 BKN015 BECMG 2604/2606 26016KT BECMG 2618/2621 10007KT", "TAF RJOO 251705Z 2518/2700 07009KT 7000 -SHRA FEW005 SCT010 BKN020 TEMPO 2518/2521 4000 SHRA BR BECMG 2520/2522 34012KT TEMPO 2521/2600 2000 +SHRA BR FEW003 BKN008 BKN015 FEW020CB", "TAF RJOT 251706Z 2518/2700 26010KT 6000 -SHRA FEW002 SCT003 BKN012 TEMPO 2518/2523 2000 SHRA BR FEW001 SCT002 BKN005", "TAF RJSA 251705Z 2518/2700 04004KT 8000 -RA FEW020 SCT030 BKN040 BECMG 2600/2602 21015KT BECMG 2606/2609 27013KT TEMPO 2606/2612 4000 -SHRA BR FEW005 BKN008 BKN012", "TAF RJSF 251705Z 2518/2700 18013KT 8000 -SHRA FEW010 BKN020 BKN040 TEMPO 2521/2606 4000 -SHRA BR FEW005 BKN008 BKN015 BECMG 2606/2609 32018KT TEMPO 2606/2609 3000 SHRA BR FEW003 BKN005 BKN008 TEMPO 2609/2615 32020G30KT", "TAF RJSI 251705Z 2518/2700 19010KT 6000 -SHRA FEW008 BKN015 BKN030 TEMPO 2521/2606 3000 SHRA BR FEW003 BKN005 BKN015 BECMG 2606/2609 30013KT TEMPO 2621/2700 30015G25KT", "TAF RJSK 251705Z 2518/2700 13010KT 8000 -RA FEW010 SCT030 BKN050 TEMPO 2521/2604 4000 RA BR BECMG 2604/2606 28018KT TEMPO 2604/2609 4000 -SHRA BR FEW003 BKN005 BKN008", "TAF RJSN 251714Z 2518/2700 16012KT 8000 -RA FEW030 BKN050 TEMPO 2601/2606 4000 SHRA BR FEW004 BKN008 BECMG 2602/2604 26018KT", "TAF RJSS 251705Z 2518/2700 16018KT 8000 -SHRA FEW010 BKN030 BKN050 TEMPO 2521/2606 4000 SHRA BR FEW003 BKN005 BKN015 BECMG 2606/2609 30015KT TEMPO 2609/2618 30020G30KT TEMPO 2621/2700 30015G25KT", "TAF RJTT 251706Z 2518/2700 16012KT 8000 -RA FEW008 BKN012 TEMPO 2601/2603 4000 SHRA BR FEW005 BKN008 BECMG 2602/2604 20028KT TEMPO 2603/2606 20030G42KT 4000 SHRA BR FEW005 BKN008 BECMG 2606/2609 34024KT BECMG 2618/2621 34014KT", "TAF RJTY 252100Z 2521/2703 18009KT 6000 -RA SCT008 OVC017 550056 QNH2986INS BECMG 2523/2524 16009KT 4800 -RA BKN008 OVC015 550056 QNH2974INS BECMG 2601/2602 17010G15KT 6000 -RA SCT008 OVC015 540056 QNH2956INS BECMG 2603/2604 17012G20KT 6000 -RA SCT010 OVC020 540056 QNH2953INS TEMPO 2605/2607 18015G25KT OVC020 540006 BECMG 2606/2607 33012G18KT 9999 NSW SCT015 BKN025 540205 QNH2955INS BECMG 2609/2610 36012G20KT 9999 BKN035 540056 QNH2961INS TEMPO 2610/2614 36015G25KT 540006 BECMG 2615/2616 35012G18KT 9999 FEW035 520303 QNH2979INS BECMG 2619/2620 32009KT 9999 SKC 520402 QNH3001INS TX18/2608Z TN13/2621Z", "TAF COR RKJB 251825Z 2518/2624 33005KT 4000 BR SCT030 TN08/2518Z TX14/2604Z TN04/2621Z TEMPO 2518/2522 0800 FG BKN002 BECMG 2522/2523 27007KT 9999 NSW FEW030 BKN060 BECMG 2600/2601 33015G25KT CAVOK BECMG 2610/2611 36006KT BECMG 2614/2615 11005KT", "TAF RKJK 250755Z 2508/2614 31009KT 8000 -SHRA BR SCT030 BKN040 QNH2989INS BECMG 2509/2510 VRB06KT 6000 BR BKN030 BKN050 QNH2990INS BECMG 2514/2515 VRB06KT 6000 BR SCT030 QNH2991INS TEMPO 2518/2522 4800 BKN030 BECMG 2600/2601 32012G20KT 9999 NSW SCT030 QNH2996INS BECMG 2608/2609 32012KT 9999 SCT060 QNH3005INS BECMG 2612/2613 35006KT 9000 HZ SKC QNH3010INS TX11/2602Z TN07/2520Z LAST NO AMDS AFT 2508 NEXT 2600", "TAF RKNN 251700Z 2518/2624 27006KT 9999 SCT040 BKN150 BECMG 2600/2601 27006KT 9000 -RA BR BKN040 BECMG 2604/2605 27012KT 9999 NSW SCT040 WND 33006KT 2609/2612 TX17/2606Z TN06/2621Z ", "TAF AMD RKNW 252045Z 2520/2624 24006KT 4800 BR BKN020 BKN060 BECMG 2600/2601 24006KT 3200 -RA BR BKN020 BECMG 2602/2603 24006G16KT 4800 BR BKN030 VIS 9999 NSW AFT 2604 BECMG 2608/2609 24010KT 9999 SCT030 TX15/2606Z TN04/2621Z ", "TAF RKNY 251700Z 2518/2624 27012G23KT CAVOK TN09/2518Z TX16/2605Z TN07/2621Z TEMPO 2520/2601 27015G33KT 9999 FEW010 BKN035 BECMG 2602/2604 27017G35KT 9999 SCT040 BECMG 2605/2607 36008KT BECMG 2612/2613 18005KT 7000 NSC", "TAF RKPC 251700Z 2518/2624 30008KT 9999 FEW030 TN10/2518Z TX16/2604Z TN08/2618Z BECMG 2612/2613 19005KT CAVOK", "TAF RKPK 251700Z 2518/2624 33006KT 8000 SCT030 SCT200 TN07/2521Z TX22/2606Z BECMG 2602/2603 27010KT", "TAF RKSG 251900Z 2519/2701 VRB06KT 8000 BR BKN015 QNH2984INS TEMPO 2521/2523 4800 BR BKN005 BECMG 2522/2523 23006KT 8000 BR BKN015 QNH2985INS BECMG 2523/2524 26009KT 8000 BR OVC015 QNH2986INS BECMG 2600/2601 28015G20KT 9000 HZ FEW016 QNH2986INS BECMG 2601/2602 29015G20KT 9000 HZ BKN030 QNH2988INS BECMG 2610/2611 27009KT 9000 HZ FEW024 QNH3000INS TX14/2605Z TN08/2521Z", "TAF RKSI 251700Z 2518/2624 25009KT 9999 SCT010 BKN018 BKN070 TN08/2518Z TX14/2605Z TN07/2621Z BECMG 2520/2522 30015G25KT FEW012 BKN028 BECMG 2601/2603 SCT030 TEMPO 2603/2607 29017G35KT BECMG 2609/2611 28007KT CAVOK BECMG 2616/2618 20007KT", "TAF AMD RKSM 252035Z 2521/2703 27006KT 9999 BKN020 BECMG 2523/2524 27006KT 9999 BKN030 TN08/2522Z TX17/2606Z ", "TAF RKSO 252100Z 2521/2703 22006KT 9000 BR FEW008 BKN025 QNH2984INS TEMPO 2521/2523 BKN010 BECMG 2600/2602 27012G20KT 9999 NSW SCT030 QNH2987INS BECMG 2609/2610 VRB06KT 9999 FEW200 QNH2997INS TX14/2605Z TN08/2521Z", "TAF AMD RKSS 252050Z 2521/2624 24006KT 9999 BKN020 TN09/2521Z TX17/2605Z TN05/2621Z BECMG 2523/2601 28015G25KT SCT035 BECMG 2611/2613 20005KT CAVOK", "TAF AMD RKSW 252109Z 2521/2624 21006KT 9999 BKN015 OVC030 BECMG 2603/2604 27008KT 9999 BKN030 TX15/2606Z TN06/2621Z ", "TAF AMD RKTE 252020Z 2520/2624 18006KT 3200 BR SCT010 BKN060 BECMG 2601/2602 30010KT 9999 NSW BKN030 BECMG 2607/2608 30008KT 9999 SCT030 TX16/2606Z TN01/2621Z ", "TAF RKTI 251700Z 2518/2624 24006KT 3200 BR SCT010 BKN030 BECMG 2520/2521 24006KT 3200 BR BKN010 OVC030 BECMG 2523/2524 27006KT 4800 -RA BR BKN010 OVC030 BECMG 2603/2604 27006KT 9999 NSW BKN030 BECMG 2609/2610 27006KT 9999 SCT030 TN07/2521Z TX16/2606Z ", "TAF RKTN 251700Z 2518/2624 30006KT 9999 SCT030 SCT200 TX21/2606Z TN05/2621Z BECMG 2523/2524 BKN030 BECMG 2603/2604 30006G16KT SCT030", "TAF AMD RKTP 252055Z 2520/2624 27008KT 9999 BKN010 BKN030 BECMG 2523/2524 30010KT 9999 SCT020 SCT030 WND 30012KT AFT 2603 WND 27008KT AFT 2609 TX14/2606Z TN03/2621Z ", "TAF COR RKTU 251700Z 2518/2624 24006KT 4800 BR SCT015 OVC030 TX16/2606Z TN02/2621Z BECMG 2521/2522 27006KT -RA BR BKN020 OVC030 BECMG 2600/2601 27010KT 9999 NSW SCT020 BKN030 BECMG 2602/2603 30006G16KT SCT030 BECMG 2608/2609 30006KT FEW030", "TAF RKTY 251700Z 2518/2624 28006KT 4800 BR SCT015 BKN030 BECMG 2520/2521 28006KT 4800 BR BKN015 BECMG 2603/2604 28006G16KT 9999 NSW SCT030 WND 28010KT AFT 2603 TN05/2521Z TX19/2603Z ", "TAF AMD ROAH 252108Z 2521/2700 36020KT 9999 FEW010 BKN020 TEMPO 2521/2600 FEW006 BKN008 BECMG 2612/2615 04010KT", "TAF RODN 251600Z 2516/2622 34010KT 9999 BKN015 QNH2988INS TEMPO 2520/2524 4800 -SHRA BR BKN009 BECMG 2600/2601 36012KT 9999 BKN020 QNH2995INS BECMG 2611/2612 04012KT 9999 BKN030 QNH3002INS TX26/2603Z TN20/2521Z", "TAF ROIG 251705Z 2518/2700 02012KT 9999 FEW010 BKN020 TEMPO 2523/2606 02018G28KT", "TAF ROTM 2521/2621 36012KT 9999 VCSH BKN008 OVC015 621404 510302 QNH2989INS TEMPO 2521/2601 35010G18KT 4800 -SHRA BR BKN004 OVC010 FM260300 36010KT 9999 VCSH SCT010 BKN035 OVC080 621404 510302 QNH2993INS BECMG 2612/2614 03010KT 9999 FEW015 SCT070 600000 510303 QNH3002INS T19/2521Z T24/2605Z", "TAF RPLB 251700Z 2518/2618 07005KT 9999 FEW020 TX35/2606Z TN26/2521Z TEMPO 2518/2524 09008KT SCT020", "TAF RPLC 251700Z 2518/2624 27003KT 9999 FEW020 TX36/2606Z TN26/2521Z TEMPO 2518/2524 34009KT SCT020 BKN100", "TAF RPLI 251700Z 2518/2618 07004KT 9999 FEW018 TEMPO 2518/2524 VRB02KT FEW018 BKN100 BECMG 2600/2603 33009KT TEMPO 2605/2610 36015KT BECMG 2612/2615 06005KT", "TAF RPLL 251700Z 2518/2624 12004KT 9999 FEW025 TX35/2605Z TN26/2521Z TEMPO 2518/2524 VRB02KT BECMG 2606/2609 12011KT BECMG 2615/2618 12006KT", "TAF RPMD 251700Z 2518/2618 36004KT 9999 FEW016 SCT290 TEMPO 2518/2524 VRB02KT SCT016 BKN090 BECMG 2603/2606 17007KT TEMPO 2606/2612 FEW015CB SCT090", "TAF RPMR 251700Z 2518/2618 32004KT 9999 FEW018 BECMG 2603/2605 16009KT TEMPO 2605/2610 16015KT FEW017CB SCT080", "TAF RPMZ 251700Z 2518/2618 VRB02KT 9999 FEW017 SCT300 BECMG 2600/2602 11006KT FEW016CB BECMG 2610/2612 VRB02KT", "TAF RPVD 251700Z 2518/2618 32004KT 9999 FEW015 TEMPO 2518/2524 VRB02KT SCT015 BKN070 BECMG 2600/2602 02008KT TEMPO 2606/2612 SCT014CB SCT070", "TAF RPVM 251700Z 2518/2624 05006KT 9999 FEW020 SCT300 TEMPO 2518/2524 03005KT FEW018CB SCT100 TEMPO 2600/2606 06008KT FEW018CB SCT300", "TAF RPVP 251700Z 2518/2618 29005KT 9999 FEW019 BECMG 2600/2602 09011KT TEMPO 2602/2608 09016KT SCT017CB SCT080", "TAF SAAR 251700Z 2518/2618 20010KT 7000 SCT015 BKN025 OVC100 TX25/2618Z TN13/2610Z BECMG 2519/2521 VRB03KT 9999 SCT020 BECMG 2522/2601 CAVOK BECMG 2604/2606 5000 BR NSC TEMPO 2608/2612 1000 MIFG SCT005 BKN015 BECMG 2614/2616 CAVOK", "TAF SABE 251700Z 2518/2618 VRB03KT 7000 -RA FEW010 SCT030 OVC050 TX21/2618Z TN16/2610Z BECMG 2520/2523 9000 NSW SCT030 TEMPO 2604/2610 5000 BR NSC BECMG 2610/2612 12005KT CAVOK", "TAF SACO 251700Z 2518/2618 14005KT 9999 FEW040 TX27/2618Z TN14/2610Z BECMG 2607/2610 09003KT 4000 BR NSC BECMG 2612/2615 VRB03KT CAVOK BECMG 2617/2620 05005KT 9999 SCT045", "TAF SADF 251700Z 2518/2618 02005KT 9000 FEW020 SCT060 TX24/2618Z TN15/2609Z TEMPO 2519/2521 8000 SHRA SCT020 FEW030TCU BKN060 BECMG 2600/2602 VRB02KT 5000 BR BKN010 PROB30 TEMPO 2603/2609 0800 FG OVC005 BECMG 2613/2615 20005KT 9999 NSW SCT020", "TAF SAEZ 251700Z 2518/2618 VRB03KT 7000 BKN015 BKN050 TX25/2618Z TN13/2610Z TEMPO 2518/2521 3000 SHRA BKN010 BKN020 FEW025TCU BECMG 2521/2524 VRB03KT 3000 BR BKN008 BECMG 2600/2603 0200 FG OVC002 BECMG 2612/2614 22005KT 5000 BR SCT010 BECMG 2614/2616 9999 NSW SCT030", "TAF SAME 251700Z 2518/2618 05010KT 9999 FEW040 SCT100 TX26/2520Z TN09/2610Z BECMG 2523/2601 36005KT CAVOK", "TAF SANR 251100Z 2512/2612 36010KT 9999 BKN030 TX24/2518Z TN13/2610Z FM252200 02005KT 9999 SCT035", "TAF SANT 251700Z 2518/2618 05005KT SCT025 TX27/2618Z TN16/2610Z BECMG 2612/2615 14003KT 9999 SCT030 FEW040", "TAF SARE 251700Z 2518/2618 27005KT 9999 SCT020 TX22/2519Z TN17/2609Z BECMG 2522/2524 CAVOK", "TAF SARF 251700Z 2518/2618 24005KT 9999 SCT006 BKN020 TX21/2519Z TN17/2609Z BECMG 2520/2522 9999 BKN020 BECMG 2602/2604 4000 BR BKN010", "TAF SARI 251700Z 2518/2618 09005KT CAVOK TX26/2519Z TN19/2609Z PROB30 2519/2522 6000 TSRA BKN010 FEW050CB BECMG 2602/2604 4000 BR BKN010", "TAF SARP 251700Z 2518/2618 05005KT 9999 SCT020 TX21/2519Z TN19/2609Z TEMPO 2519/2522 9999 BKN020 BKN060 BECMG 2523/2524 9999 SCT006 BKN020 BECMG 2602/2604 4000 BR BKN005", "TAF SASA 251700Z 2518/2618 34005KT 9999 BKN030 BKN050 TX25/2618Z TN10/2610Z BECMG 2611/2614 32003KT 8000 FEW030 BECMG 2615/2618 14005KT 9999 FEW035", "TAF SASJ 251700Z 2518/2618 VRB03KT 9999 SCT030 TX26/2618Z TN11/2610Z BECMG 2612/2615 VRB03KT 9999 FEW040", "TAF SAVC 251100Z 2512/2612 26010G25KT CAVOK TX18/2515Z TN09/2610Z BECMG 2516/2518 09010KT 9999 SCT030 BKN060 BECMG 2521/2523 8000 -RA SCT020 SCT030 OVC050 ", "TAF SAVE 251100Z 2512/2612 35005KT 9999 SCT035 BKN100 TX14/2518Z TN08/2612Z BECMG 2516/2518 8000 RA SCT015 BKN025 OVC050 BECMG 2601/2603 29007KT 9999 NSW SCT040 ", "TAF SAVT 251700Z 2518/2618 14010G20KT 9999 FEW035 BKN100 TX22/2518Z TN10/2610Z TEMPO 2602/2604 8000 -RA BKN030 OVC050 TEMPO 2610/2612 5000 BR BECMG 2615/2617 27007KT CAVOK", "TAF SAVV 251100Z 2512/2612 34010KT CAVOK TX26/2518Z TN12/2610Z BECMG 2522/2524 VRB05KT TEMPO 2608/2610 18005KT 1000 BCFG ", "TAF SAWC 251100Z 2512/2612 25010KT 9999 FEW035 TX12/2518Z TN02/2610Z BECMG 2515/2518 CAVOK ", "TAF SAWE 251100Z 2512/2612 27015G25KT CAVOK TX08/2518Z TN03/2610Z BECMG 2518/2520 29020KT ", "TAF SAWG 251100Z 2512/2612 27015G30KT CAVOK TX11/2518Z TN01/2610Z BECMG 2518/2520 25015KT 9999 SCT040 BECMG 2523/2601 34010KT CAVOK ", "TAF SAWH 251100Z 2512/2612 25015G25KT 9999 RA SCT040 SCT060 TX07/2518Z TN04/2612Z BECMG 2518/2520 30010G25KT ", "TAF AMD SAZM 2521/2618 07005KT 0500 FG OVC002 TX24/2618Z TN14/2610Z BECMG 2614/2416 9999 BKN020 BECMG 2616/2628 18010KT 4000 -SHRA SCT030 FEW040TCU", "TAF SAZN 251700Z 2518/2618 30005KT CAVOK TX24/2519Z TN12/2612Z BECMG 2523/2602 25015KT", "TAF SAZS 251700Z 2518/2618 VRB03KT 9999 FEW020 SCT050 BKN100 TX15/2618Z TN03/2610Z TEMPO 2520/2524 7000 -RA FEW010 SCT020 OVC040 BECMG 2603/2606 27005KT 5000 BR FEW010 BKN020 BECMG 2609/2612 VRB03KT CAVOK BECMG 2614/2616 29010KT", "TAF SBAC 250859Z 2512/2524 14012KT 9999 FEW025 TX33/2516Z TN26/2523Z PROB30 TEMPO 2520/2523 5000 SHRA BKN020 FEW030TCU RMK PGX", "TAF SBAF 251500Z 2518/2606 21007KT 9999 FEW030 TX28/2518Z TN20/2606Z BECMG 2600/2602 07005KT CAVOK RMK PDJ", "TAF SBAN 251500Z 2518/2606 09010KT 9999 FEW035 TX28/2518Z TN18/2606Z BECMG 2521/2523 08005KT CAVOK RMK PDJ", "TAF SBAT 251530Z 2518/2606 12006KT 9999 SCT030 FEW035TCU TX33/2518Z TN26/2606Z BECMG 2521/2523 09003KT FEW030 RMK PHN", "TAF SBBE 251530Z 2518/2618 34010KT 8000 SCT025 FEW040TCU TN24/2609Z TX31/2615Z TEMPO 2518/2522 4000 TSRA BKN015 FEW030CB BECMG 2600/2602 06003KT CAVOK BECMG 2608/2610 SCT015 BECMG 2610/2612 11007KT BKN017 BECMG 2615/2618 6000 SHRA BKN020 FEW040TCU RMK PHN", "TAF SBBI 251500Z 2518/2606 03007KT 9999 SCT020 TX22/2518Z TN16/2606Z BECMG 2521/2523 8000 BKN007 BECMG 2600/2602 3000 BR RMK PDJ", "TAF SBBU 251500Z 2518/2606 06005KT 9999 FEW045 TX28/2518Z TN18/2606Z PROB30 TEMPO 2518/2521 VCSH FEW040 FEW045TCU BECMG 2522/2601 14005KT CAVOK RMK PGH", "TAF SBBV 251530Z 2518/2618 02007KT 7000 BKN020 FEW040TCU TN25/2609Z TX32/2617Z PROB40 TEMPO 2518/2522 5000 TSRA BKN017 FEW040CB BECMG 2522/2524 30007KT PROB30 TEMPO 2605/2609 4000 TSRA BKN007 FEW035CB BECMG 2609/2611 16007KT BKN015 FEW030TCU TEMPO 2612/2618 34010KT 3500 SHRA BKN010 FEW035TCU RMK PHN", "TAF SBBW 251630Z 2518/2606 05005KT 9999 SCT020 TX32/2518Z TN22/2606Z TEMPO 2518/2520 VCSH SCT020 FEW030TCU BECMG 2521/2523 00000KT CAVOK RMK PHH", "TAF SBCJ 251530Z 2518/2606 11007KT 9999 SCT020 FEW030TCU TX30/2518Z TN24/2606Z BECMG 2521/2523 00000KT CAVOK RMK PHN", "TAF SBCO 251500Z 2518/2606 09007KT 9999 SCT035 TX28/2518Z TN19/2606Z PROB40 2519/2521 8000 SHRA BKN030 FEW035TCU BECMG 2521/2523 33008KT BKN030 TEMPO 2602/2606 4000 TSRA BKN020 FEW035CB RMK PDJ", "TAF SBCY 251530Z 2518/2618 09006KT 8000 BKN020 FEW030TCU TX32/2518Z TN23/2609Z TEMPO 2518/2522 12010KT 4000 TSRA BKN017 FEW030CB BECMG 2522/2524 22005KT FEW020 PROB40 TEMPO 2607/2612 4000 RA BR BKN010 BECMG 2616/2618 09010KT BKN020 FEW030TCU RMK PHN", "TAF SBCZ 250040Z 2506/2606 15005KT 7000 SCT020 TX27/2518Z TN22/2606Z TEMPO 2511/2514 4000 BR SCT006 BKN012 BECMG 2515/2517 13005KT TEMPO 2518/2523 6000 TS SCT020 FEW030CB BECMG 2600/2602 07005KT RMK PGW", "TAF SBDN 251500Z 2518/2606 07007KT 8000 BKN030 TX23/2518Z TN20/2606Z TEMPO 2518/2522 VRB05KT 4000 RA BR SCT009 BKN012 BECMG 2523/2602 12007KT SCT015 RMK PGH", "TAF SBEG 251530Z 2518/2618 09010KT 8000 SCT017 FEW025TCU TN25/2609Z TX31/2615Z TEMPO 2518/2603 14010KT 5000 TSRA BKN015 FEW030CB BECMG 2603/2605 30005KT SCT015 PROB40 2606/2610 4000 BR BKN005 BECMG 2610/2612 09007KT SCT017 TEMPO 2612/2618 06010KT 4000 TSRA BKN015 FEW030CB RMK PHN", "TAF SBGW 251500Z 2518/2606 03005KT 9999 FEW035 TX28/2518Z TN18/2606Z RMK PDJ", "TAF SBIH 251530Z 2518/2606 06007KT 7000 SCT015 FEW025TCU TX32/2518Z TN25/2606Z PROB40 TEMPO 2518/2521 5000 TSRA BKN015 FEW025CB BECMG 2523/2601 01003KT SCT020 RMK PHN", "TAF SBIL 251630Z 2518/2606 13008KT 9999 SCT025 TX28/2518Z TN22/2606Z BECMG 2519/2521 16010KT FEW025 BECMG 2600/2602 22007KT PROB30 2603/2605 VCSH BKN020 RMK PHH", "TAF SBIZ 251530Z 2518/2606 15008KT 7000 BKN020 FEW030TCU TX32/2518Z TN24/2606Z BECMG 2521/2523 12003KT CAVOK BECMG 2604/2606 FEW013 RMK PHN", "TAF SBJV 251500Z 2518/2606 07007KT 9999 SCT020 TX27/2518Z TN19/2606Z BECMG 2522/2524 01005KT BKN008 BECMG 2604/2606 2000 BR BKN004 RMK PDJ", "TAF SBKG 251633Z 2518/2606 13010KT 9999 SCT020 TX27/2518Z TN22/2606Z TEMPO 2518/2523 4000 SHRA BKN017 FEW030TCU BECMG 2523/2601 09005KT SCT005 TEMPO 2601/2606 BKN007 RMK PHP", "TAF SBMA 251530Z 2518/2606 06005KT 9999 SCT020 FEW025TCU TX33/2518Z TN23/2606Z PROB30 2522/2524 TS SCT020 FEW025CB BECMG 2600/2602 00000KT CAVOK RMK PHN", "TAF SBME 251633Z 2518/2606 13010KT 9999 FEW025 TX26/2518Z TN21/2606Z BECMG 2523/2601 03005KT RMK PHP", "TAF SBMQ 251530Z 2518/2618 08010KT 8000 BKN020 FEW030TCU TX31/2518Z TN24/2609Z TEMPO 2518/2522 4000 TSRA BKN015 FEW030CB BECMG 2523/2601 SCT015 PROB40 TEMPO 2601/2606 16005KT 7000 TSRA SCT015 FEW020CB BECMG 2606/2608 34005KT SCT013 TEMPO 2612/2615 4000 TSRA BKN010 FEW020CB BECMG 2616/2618 7000 RA BKN017 FEW027TCU RMK PHN", "TAF SBNT 251633Z 2518/2606 13013KT 9999 SCT020 FEW030TCU TX30/2518Z TN24/2606Z TEMPO 2518/2522 4000 SHRA BKN015 FEW030TCU BECMG 2523/2601 18005KT FEW025 RMK PHP", "TAF SBOI 251530Z 2518/2606 02010KT 7000 BKN015 FEW020TCU TX27/2518Z TN24/2606Z TEMPO 2518/2522 2000 RA BKN008 OVC025 BECMG 2522/2524 10005KT SCT013 RMK PHN", "TAF SBPK 251500Z 2518/2618 05008KT 9999 BKN020 TX27/2518Z TN18/2608Z PROB30 2518/2521 4000 RA BKN015 BECMG 2600/2602 33007KT 4000 RA BKN012 BECMG 2606/2608 4000 BR BKN008 BECMG 2610/2612 26005KT 9999 NSW SCT010 RMK PDJ", "TAF SBPV 251530Z 2518/2618 10003KT 7000 BKN015 FEW030TCU TX30/2518Z TN23/2609Z TEMPO 2518/2524 03010KT 3500 TSRA BKN007 FEW030CB BECMG 2600/2602 08003KT SCT025 PROB40 2608/2612 2000 BR BKN005 TEMPO 2612/2615 07007KT 5000 RA BKN007 FEW035TCU BECMG 2615/2618 BKN020 FEW030TCU RMK PHN", "TAF SBRB 251530Z 2518/2606 13007KT 7000 SCT015 FEW030TCU TX28/2518Z TN23/2606Z TEMPO 2518/2522 08010KT 4000 TSRA BKN010 FEW030CB BECMG 2602/2605 02005KT FEW030 RMK PHN", "TAF SBSC 251500Z 2518/2606 14007KT 9999 FEW030 TX29/2518Z TN21/2606Z BECMG 2600/2602 03005KT CAVOK RMK PDJ", "TAF SBSM 251500Z 2518/2606 34010KT 8000 RA BKN030 TX18/2518Z TN17/2606Z TEMPO 2518/2522 4000 TSRA BKN010 BKN020 FEW035CB BECMG 2604/2606 4000 RA BR BKN008 RMK PDJ", "TAF SBSN 251530Z 2518/2618 09010KT 8000 SCT015 FEW025TCU TX30/2518Z TN24/2609Z TEMPO 2518/2522 4000 TSRA BKN015 FEW025CB BECMG 2522/2524 12005KT FEW017 TEMPO 2606/2612 09010KT 3000 TSRA SCT010 FEW020CB BECMG 2615/2618 10010KT SCT015 FEW025TCU RMK PHN", "TAF SBTF 251530Z 2518/2606 03007KT 7000 SCT017 FEW025TCU TX30/2518Z TN25/2606Z TEMPO 2518/2522 33013KT 4000 TSRA BKN015 FEW030CB BECMG 2522/2524 06005KT SCT010 RMK PHN", "TAF SBTT 251530Z 2518/2618 06003KT 7000 BKN012 FEW020TCU TX27/2518Z TN23/2611Z PROB40 2518/2520 5000 TSRA BKN008 FEW025CB BECMG 2522/2524 10005KT SCT015 BECMG 2609/2612 33003KT 4000 RA BR BKN005 BECMG 2612/2615 7000 NSW BKN013 PROB40 2615/2618 4000 RA BR BKN010 FEW025TCU RMK PHN", "TAF SBUG 251500Z 2518/2606 27012KT 9999 FEW030 TX23/2518Z TN16/2606Z RMK PDJ", "TAF SBUL 251630Z 2518/2606 05007KT 9999 FEW030 TX27/2518Z TN18/2605Z BECMG 2518/2520 FEW035 FEW040TCU BECMG 2521/2523 11002KT CAVOK BECMG 2600/2602 09007KT RMK PHH", "TAF SBUR 251630Z 2518/2606 05005KT 9999 FEW040 TX28/2518Z TN18/2605Z BECMG 2518/2519 15005KT CAVOK BECMG 2521/2523 08003KT RMK PHH", "TAF SBVH 251530Z 2518/2606 07010KT 8000 SCT020 FEW035TCU TX29/2518Z TN23/2606Z TEMPO 2518/2523 4000 TSRA BKN015 FEW027CB BECMG 2523/2601 09005KT FEW025 RMK PHN", "TAF SBYS 251500Z 2518/2606 04005KT 9999 SCT040 TX28/2518Z TN17/2606Z BECMG 2600/2602 18005KT RMK PDJ", "TAF SCAR 251630Z 2518/2618 22012KT CAVOK TX23/2518Z TN17/2606Z BECMG 2600/2602 33004KT BECMG 2615/2617 22010KT", "TAF SCAT 251630Z 2518/2618 24010KT 9999 FEW015 TX18/2518Z TN14/2610Z BECMG 2521/2523 BKN015 BECMG 2600/2602 18006KT OVC008 BECMG 2615/2617 23010KT BKN015", "TAF SCBA 251617Z 2518/2618 29010KT 9999 FEW040 SCT100 TX14/2519Z TN03/2610Z BECMG 2601/2603 VRB02KT PROB40 TEMPO 2609/2614 2000 BR OVC003", "TAF SCCF 251630Z 2518/2618 27020KT CAVOK TX22/2519Z TN03/2606Z BECMG 2600/2602 27010KT BECMG 2602/2604 11018KT BECMG 2614/2615 11008KT BECMG 2616/2618 27018KT", "TAF AMD SCCH 251318Z 2514/2600 17003KT 0300 FG OVC002 TX19/2519Z TN08/2514Z TEMPO 2514/2516 3000 BR OVC005 BECMG 2516/2518 23010KT 9999 SCT010 BECMG 2518/2520 CAVOK", "TAF SCCI 251604Z 2518/2618 29023KT 9999 FEW030 SCT040 TN05/2612Z TX10/2518Z TEMPO 2519/2600 31025KT 8000 -SHRA FEW020 BKN030 BECMG 2600/2602 30015KT FEW040 BECMG 2616/2618 SCT030 BKN045", "TAF SCCY 251047Z 2512/2524 VRB02KT 9999 SCT016 BKN050 TN07/2512Z TX14/2519Z", "TAF SCDA 251630Z 2518/2618 20016KT CAVOK TX24/2518Z TN17/2606Z BECMG 2603/2605 20004KT BECMG 2615/2617 22015KT", "TAF COR SCEL 251756Z 2518/2618 19008KT CAVOK TX26/2518Z TN09/2610Z BECMG 2603/2605 VRB02KT BECMG 2607/2609 6000 NSC BECMG 2616/2618 18007KT CAVOK", "TAF SCFA 251630Z 2518/2618 20014KT 9999 FEW015 TX19/2518Z TN16/2608Z BECMG 2522/2600 BKN012 BECMG 2602/2604 18004KT BECMG 2614/2616 20014KT BKN020", "TAF SCFM 251058Z 2512/2600 24017KT 9000 FEW025 TN06/2512Z TX09/2518Z BECMG 2512/2514 29015KT TEMPO 2515/2519 29018G28KT", "TAF SCGE 251100Z 2512/2600 02005KT 2000 BR OVC004 TX15/2519Z TN10/2512Z BECMG 2516/2518 18011KT 9999 FEW010 BECMG 2518/2520 CAVOK", "TAF SCGZ 251102Z 2512/2600 24008KT 9000 FEW015 SCT045 TN02/2600Z TX07/2518Z BECMG 2512/2514 28008KT PROB40 TEMPO 2512/2515 6000 SHRA SCT008 BKN015 BECMG 2516/2518 FEW035 BECMG 2521/2523 4000 BR BKN008", "TAF SCHR 251103Z 2512/2600 24005KT CAVOK TN04/2600Z TX14/2518Z PROB30 TEMPO 2512/2514 5000 BR SCT010 BECMG 2516/2518 28005KT", "TAF AMD SCIC 251327Z 2514/2600 17004KT 0200 FG OVC002 TX21/2519Z TN10/2514Z TEMPO 2514/2516 3000 BR BKN005 BECMG 2516/2518 20008KT 9999 SCT015 BECMG 2519/2521 CAVOK", "TAF SCIE 251642Z 2518/2618 28005KT 9999 BKN015 TX16/2518Z TN10/2610Z BECMG 2521/2523 SCT020 OVC045 BECMG 2603/2605 01005KT SCT010 BKN020 TEMPO 2606/2612 10004KT 3000 BR OVC005 BECMG 2615/2617 30010KT BKN015", "TAF SCIP 251601Z 2518/2618 13014KT 9999 SCT040 TX25/2518Z TN17/2612Z TEMPO 2519/2606 13004KT 8000 -SHRA SCT020 BKN030 BECMG 2607/2609 13004KT BECMG 2614/2616 13014KT", "TAF COR SCIR 251144Z 2512/2600 30010KT 9999 BKN010 OVC020 TX18/2518Z TN14/2512Z BECMG 2516/2518 32015KT 8000 OVC010 BECMG 2520/2522 BKN010 3000 -RA OVC030", "TAF SCJO 251044Z 2512/2524 01006KT 9999 SCT025 OVC050 TN11/2512Z TX13/2519Z BECMG 2516/2518 7000 RA BKN025 OVC050 TEMPO 2521/2524 4000 +SHRA SCT007 OVC010", "TAF SCMK 251045Z 2512/2524 18004KT 4000 DZ SCT002 BKN010 OVC020 TN10/2512Z TX12/2519Z TEMPO 2519/2524 9999 NSW", "TAF SCNT 251106Z 2512/2600 29012KT 9999 SCT040 TN04/2600Z TX11/2518Z TEMPO 2512/2514 BKN040 BECMG 2514/2516 SCT045 BECMG 2520/2522 CAVOK", "TAF SCQP 251614Z 2518/2618 26005KT 9999 BKN010 TX15/2519Z TN12/2610Z TEMPO 2520/2524 8000 -SHRA BKN020 BKN080 BECMG 2601/2603 01004KT BKN035", "TAF AMD SCRD 251338Z 2514/2600 VRB02KT 0200 FG OVC002 TX17/2518Z TN10/2514Z TEMPO 2514/2517 3000 BR OVC005 BECMG 2518/2520 34008KT 8000 SCT010", "TAF COR SCRG 251100Z 2512/2600 VRB02KT CAVOK TX22/2519Z TN11/2512Z", "TAF SCSE 251639Z 2518/2618 29010KT 9999 OVC010 TX16/2518Z TN12/2610Z BECMG 2600/2602 28004KT SCT008 OVC012 BECMG 2602/2604 3000 BR BKN007 OVC010 TEMPO 2607/2613 VRB02KT 0500 FG OVC005 BECMG 2616/2618 28010KT 9999 BKN012", "TAF AMD SCSN 251951Z 2520/2600 26004KT 2000 BR OVC006 TX13/2520Z TN11/2600Z TEMPO 2521/2600 27009KT 8000 SCT010", "TAF SCTB 251100Z 2512/2600 VRB02KT CAVOK TX25/2519Z TN10/2512Z BECMG 2516/2518 23008KT", "TAF SCTE 251616Z 2518/2618 01010KT 7000 RA SCT005 BKN060 TX13/2518Z TN10/2610Z BECMG 2522/2524 9999 NSW BKN020 BKN040 BECMG 2602/2604 30004KT SCT005 OVC018 BECMG 2609/2611 18007KT", "TAF SCTN 251047Z 2512/2524 36006KT 3000 +RA BKN020 OVC040 TN11/2512Z TX13/2519Z BECMG 2522/2524 7000 -RA SCT004 BKN010 OVC020", "TAF SCVD 251043Z 2512/2524 00000KT 0700 FG VV002 TN07/2512Z TX14/2519Z BECMG 2513/2515 VRB02KT 9999 NSW FEW020 TEMPO 2517/2522 7000 -RA SCT010 BKN025 OVC080 BECMG 2522/2524 BKN010 OVC025", "TAF SCVM 251640Z 2518/2618 32007KT 8000 BKN012 TX14/2518Z TN10/2610Z TEMPO 2518/2520 VRB02KT 2000 BR OVC005 BECMG 2520/2522 9999 SCT015 TEMPO 2606/2613 VRB02KT 2000 BR OVC007 BECMG 2616/2618 30010KT SCT012", "SEGU 251610Z 2518/2618 07005KT 9999 SCT030 SCT200 TEMPO 2521/2524 TSRA FEW023CB BKN026 BKN100 BECMG 2600/2602 22005KT FEW010 BKN023 BKN090 TEMPO 2603/2605 RA SCT010 BKN023 BECMG 2612/2614 33005KT SCT023 SCT100 TX30/2520Z TN24/2610Z", "SELT 251610Z 2518/2618 16014KT 9999 BKN030 TEMPO 2520/2522 TSRA FEW026CB BKN030 BECMG 2522/2524 20005KT BECMG 2603/2605 VRB03KT FEW010 BKN023 BECMG 2611/2613 18005KT SCT026 TX19/2519Z TN07/2611Z", "SEMT 251610Z 2518/2618 33006KT 9999 FEW023 BECMG 2605/2607 VRB03KT BKN020 BECMG 2612/2614 06005KT FEW023 TX31/2518Z TN24/2610Z", "SEQM 251610Z 2518/2618 36014KT 9999 SCT030 TEMPO 2520/2522 TSRA FEW026CB BKN030 BKN100 BECMG 2522/2524 03004KT SCT023 BKN100 BECMG 2603/2605 VRB03KT SCT005 BKN020 BECMG 2611/2613 SCT026 SCT100 TX23/2519Z TN11/2611Z", "TAF SGAS 251615Z 2518/2618 20004KT 5000 RA BR BKN008 TX25/2519Z TN18/2610Z PROB30 2519/2522 18008KT 7000 TSRA BKN010 FEW040CB BECMG 2601/2604 5000 BR BKN018 BECMG 2508/2611 21006KT 9999 BKN027", "TAF SGCO 251615Z 2518/2618 18006KT 8000 BKN020 TX24/2519Z TN20/2610Z PROB40 2519/2522 6000 TSRA BKN015 FEW040CB BECMG 2601/2604 17005KT 9999 BKN027", "TAF SGEN 251615Z 2518/2618 34008KT 5000 TSRA BKN018 TX24/2519Z TN17/2610Z PROB40 2519/2522 7000 TSRA BKN020 FEW040CB BECMG 2603/2606 17006KT 5000 BR BKN020 BECMG 2609/2612 15008KT BKN027", "TAF SGES 251615Z 2518/2618 03010KT 9999 BKN020 TX24/2519Z TN19/2610Z PROB40 2519/2522 7000 TSRA BKN018 FEW040CB BECMG 2603/2606 17008KT 6000 BR BKN020 BECMG 2608/2612 18007KT 9999 BKN027", "TAF SKAR 251630Z 2518/2618 27004KT 9999 SCT023 TEMPO 2520/2524 SCT020TCU TX29/2520Z TN17/2610Z", "TAF SKBG 251630Z 2518/2618 32008KT 9999 SCT015 SCT070 BECMG 2600/2602 VRB02KT FEW010 SCT070 PROB40 TEMPO 2610/2613 4000 DZ BCFG SCT010 TX26/2519Z TN19/2611Z", "TAF SKBO 251630Z 2518/2618 27010KT SCT020 SCT080 TEMPO 2518/2521 SCT017TCU TEMPO 2521/2524 TSRA SCT017CB BECMG 2600/2602 VRB02KT FEW015 SCT070 PROB40 TEMPO 2610/2613 5000 BR SCT010 TX20/2518Z TN10/2611Z", "TAF SKBQ 251630Z 2518/2618 04010KT 9999 FEW015 PROB30 2518/2522 DZRA FEW012TCU BECMG 2605/2607 VRB03KT TX33/2519Z TN25/2609Z", "TAF SKCC 251630Z 2518/2618 35010KT 9999 SCT023 TEMPO 2520/2524 TSRA SCT010CB BKN070 TX31/2519Z TN22/2611Z", "TAF SKCG 251630Z 2518/2618 34012KT 9999 FEW017 BECMG 2607/2609 VRB02KT TX32/2520Z TN25/2608Z", "TAF SKCL 251630Z 2518/2618 VRB03KT 9999 SCT030 TEMPO 2518/2521 SCT030TCU TEMPO 2521/2601Z 32010KT TX31/2520Z TN18/2611Z", "TAF SKLT 251630Z 2518/2618 VRB02KT 9999 SCT015 BKN070 TEMPO 2600/2602 TS SCT015CB PROB40 TEMPO 2610/2612 5000 DZ BR BKN010 TX27/2519Z TN22/2611Z", "TAF SKPE 251630Z 2518/2618 32006KT 9999 SCT023 TEMPO 2519/2522 SCT023TCU PROB40 TEMPO 2522/2601 TS SCT020CB TX29/2520Z TN18/2610Z", "TAF SKRG 251630Z 2518/2618 10010KT 9999 SCT020TCU TEMPO 2522/2524 DZ SCT018CB BECMG 2600/2602 VRB02KT BKN010 TEMPO 2609/2612 4000 BCFG BKN005 BECMG 2614/2616 12010KT SCT020 TX23/2519Z TN13/2611Z", "TAF SKSM 251630Z 2518/2618 32007KT 9999 FEW020 BECMG 2519/2521 01014KT BFCMG 2605/2607 01003KT TX32/2520Z TN23/2610Z", "TAF SKSP 251630Z 2518/2618 13008KT 9999 SCT018 TX31/2519Z TN26/2610Z", "TAF SLAL 251000Z 2512/2612 00000KT 9999 SCT010 TX19/2519Z TN08/2610Z BECMG 2514/2516 01010KT FEW017 BECMG 2601/2603 00000KT", "TAF SLCB 251600Z 2518/2618 28010KT 9999 FEW036 TX30/2519Z TN08/2610Z TEMPO 2520/2523 06010KT BECMG 2602/2604 00000KT", "TAF SLCO 251000Z 2512/2612 12006KT 9999 BKN017 BKN080 TX33/2519Z TN22/2610Z PROB30 TEMPO 2516/2520 7000 SHRA FEW023CB BECMG 2522/2601 00000KT PROB40 TEMPO 2508/2512 3000 BR BKN004 ", "TAF SLET 251000Z 2512/2612 VRB02KT 9999 SCT010 SCT070 TX29/2519Z TN18/2610Z BECMG 2516/2518 33012KT BKN023 TEMPO 2519/2523 8000 SHRA BKN020 FEW025TCU BECMG 2601/2603 16008KT BKN015 PROB40 TEMPO 2604/2608 VRB02KT 5000 RA BKN010", "TAF SLLP 251000Z 2512/2612 13010KT 9999 SCT017 TX17/2519Z TNM01/2610Z TEMPO 2519/2523 24013KT TEMPO 2607/2610 08006KT 3000E BCFG", "TAF SLTJ 251600Z 2518/2618 15010KT 9999 SCT030 TX24/2519Z TN11/2610Z BECMG 2522/2600 00000KT BKN027", "TAF SLTR 251600Z 2518/2618 07007KT 9999 SCT020 TX33/2519Z TN23/2610Z TEMPO 2519/2521 FEW023CB BECMG 2522/2602 00000KT FEW015 BECMG 2610/2615 36006KT SCT017", "TAF SLVR 251600Z 2518/2618 16008KT 9999 SCT015 SCT070 TX27/2519Z TN18/2610Z TEMPO 2519/2522 VRB02KT BKN020 FEW025TCU BECMG 2601/2603 20004KT BKN015 PROB40 TEMPO 2604/2608 18014KT 5000 RA BKN010 BKN070 BECMG 2611/2614 15006KT FEW010 BKN015", "TAF SMJP 251600Z 2518/2618 09005KT 9999 SCT020 TX30/2616Z TN22/2609Z TEMPO 2518/2523 4000 SHRA FEW015CB SCT020 TEMPO 2518/2520 2000 +TSRA SCT010 SCT012CB BKN020", "TAF SMZO 251600Z 2518/2618 10005KT 9999 SCT020 TX30/2616Z TN23/2608Z TEMPO 2518/2521 5000 SHRA FEW015CB SCT025 TEMPO 2518/2519 TSRA", "TAF AMD SOCA 251855Z 2518/2618 09010KT 9999 SCT025 BKN045 TEMPO 2518/2524 3000 SHRA SCT012 BKN015TCU PROB30 TEMPO 2518/2521 1200 TSRA SCT008 BKN012CB BECMG 2521/2523 VRB02KT TEMPO 2600/2612 1000 SHRA SCT005CB BKN010TCU PROB40 TEMPO 2612/2618 3000 SHRA SCT012 BKN018TCU BECMG 2613/2615 07010KT", "TAF SPCL 251700Z 2518/2618 12006KT 9999 BKN025 SCT070 TX33/2520Z TN23/2611Z TEMPO 2600/2604 5000 SHRA BKN015 FEW020TCU BKN070 TEMPO 2610/2613 3000 BCFG BKN004 SCT100", "TAF SPEO 251700Z 2518/2618 19016KT 9999 FEW050 TX31/2519Z TN22/2611Z BECMG 2602/2604 18004KT BECMG 2612/2614 19015KT", "TAF COR SPGM 251700Z 2518/2618 04003KT 9999 SCT030 SCT100 TX32/2519Z TN21/2611Z TEMPO 2520/2522 SCT010 8000 RA SCT020 OVC080 BECMG 2522/2524 00000KT TEMPO 2611/2613 5000 BR FEW015 BKN070", "TAF SPHI 251700Z 2518/2618 20007KT 9999 CAVOK TX31/2519Z TN24/2611Z TEMPO 2520/2600 18015KT BECMG 2600/2601 16004KT", "TAF SPHO 251700Z 2518/2618 15005KT 9999 FEW030 SCT050 TX26/2520Z TN11/2611Z TEMPO 2518/2520 FEW030 FEW050TCU", "TAF SPJC 251710Z 2518/2618 17010KT 9999 FEW020 BKN030 TX28/2519Z TN23/2611Z", "TAF SPJI 251700Z 2518/2618 11003KT 9999 FEW020 BKN090 TX32/2520Z TN23/2611Z TEMPO 2610/2613 3000 BCFG BKN010 BKN100", "TAF SPJJ 251700Z 2518/2618 23004KT 9999 FEW040 TX21/2519Z TN05/2611Z TEMPO 2518/2523 04010KT FEW040TCU SCT080", "TAF SPJL 251700Z 2518/2618 10008KT CAVOK TX20/2519Z TNM03/2610Z FM252400 18004KT CAVOK", "TAF SPJR 251700Z 2518/2618 25004KT 9999 FEW025 BKN050 TX22/2519Z TN08/2611Z TEMPO 2518/2521 34007KT 8000 RA FEW023 BKN047 FM252330 VRB02KT 9999 SCT025", "TAF SPLO 251120Z 2512/2612 16009KT CAVOK TX27/2519Z TN18/2610Z FM252400 14006KT 9999 SCT030", "TAF SPME 251700Z 2518/2618 32008KT 9999 BKN012 TX30/2519Z TN24/2611Z BECMG 2520/2522 SCT030 BECMG 2601/2602 BKN011 BECMG 2608/2610 SCT040", "TAF SPMS 251700Z 2518/2618 VRB02KT 9999 SCT015 SCT070 TX30/2520Z TN22/2611Z TEMPO 2519/2523 4000 SHRA BKN010 FEW020TCU BKN070 TEMPO 2612/2615 3000 BR BKN008 BKN100", "TAF SPNC 251700Z 2518/2618 07014KT 9999 FEW030 BKN110 TX28/2519Z TN16/2611Z TEMPO 2519/2522 RA SCT020 OVC100 BECMG 2523/2601 00000KT SCT040 BECMG 2612/2614 06006KT", "TAF SPPY 251700Z 2518/2618 09005KT 9000 BKN015 BKN040 TX17/2519Z TN09/2611Z TEMPO 2601/2605 5000 RADZ BKN010 SCT020TCU BKN040 TEMPO 2610/2613 2000 BR BKN010 BKN080", "TAF SPQT 251700Z 2518/2618 19004KT 9999 BKN015 BKN100 TX30/2520Z TN24/2611Z TEMPO 2604/2608 06010KT 4000 RADZ BKN010 FEW020CB BKN080 TEMPO 2609/2613 0800 FG BKN002 OVC080", "TAF SPQU 251700Z 2518/2618 26011KT CAVOK TX22/2518Z TN07/2610Z BECMG 2600/2602 05004KT FM261430 25007KT CAVOK", "TAF SPRU 251700Z 2518/2618 17013KT 9000 NSC TX30/2519Z TN22/2611Z TEMPO 2523/2603 22004KT BECMG 2603/2604 12003KT TEMPO 2608/2610 5000 BR BECMG 2610/2612 18010KT", "TAF SPSO 251700Z 2518/2618 27010KT CAVOK TX28/2519Z TN21/2611Z BECMG 2519/2521 22018KT BECMG 2603/2605 22005KT BECMG 2608/2610 VRB03KT 4500 BR FU", "TAF SPST 251700Z 2518/2618 19007KT 9999 SCT020 BKN080 TX35/2519Z TN21/2611Z TEMPO 2518/2520 RA BECMG 2600/2602 VRB02KT TEMPO 2612/2614 5000 BR SCT007 BKN060", "TAF SPTN 251700Z 2518/2618 23009KT CAVOK TX26/2519Z TN16/2610Z FM260100 33003KT CAVOK FM260800 VRB01KT 9999 BKN030 FM261500 20008KT CAVOK", "TAF SPTU 251700Z 2518/2618 18005KT 9999 BKN020 TX33/2519Z TN21/2611Z TEMPO 2603/2605 RA BKN014 BKN100", "TAF SPUR 251700Z 2518/2618 02002KT 9999 BKN040 SCT060 TX32/2519Z TN24/2611Z BECMG 2520/2521 20010KT TEMPO 2603/2607 23005KT BECMG 2607/2609 14002KT", "TAF SPYL 251700Z 2518/2618 27010KT 9999 SCT025 TX32/2519Z TN21/2611Z BECMG 2601/2602 20004KT BECMG 2612/1614 26010KT", "TAF SPZO 251700Z 2518/2618 09005KT 9999 SCT050 BKN100 TX21/2519Z TN05/2611Z TEMPO 2518/2522 36012KT FEW040TCU SCT100", "TAF AMD SUAA 252110Z 2521/2618 04008KT 9999 SCT017 BKN070 TX21/2618Z TN15/2610Z TEMPO 2521/2523 TSRA SCT015 FEW040CB BKN070 TEMPO 2600/2610 3000 BR BKN010 BECMG 2614/2618 21010KT", "TAF SUCA 251730Z 2518/2618 23010KT 9999 SCT017 BKN070 TX21/2618Z TN15/2610Z TEMPO 2518/2522 5000 RA BR BKN010 OVC060 TEMPO 2600/2611 3000 BR BKN010 TEMPO 2604/2610 0800 FG BKN008", "TAF SUDU 251730Z 2518/2618 05010KT 9999 SCT015 BKN070 TX22/2618Z TN12/2610Z TEMPO 2518/2522 5000 RA BKN015 OVC060 TEMPO 2600/2611 3000 BR BKN010 TEMPO 2604/2610 0800 FG BKN008", "TAF SULS 251730Z 2518/2618 03005KT 9999 SCT023 BKN070 TX20/2618Z TN14/2610Z TEMPO 2518/2602 5000 RA BKN010 BKN070 TEMPO 2602/2611 3000 BR BKN010 PROB40 TEMPO 2604/2610 0800 FG BKN008 BECMG 2614/2618 23010KT", "TAF AMD SUMU 252110Z 2521/2618 05008KT 9999 SCT017 BKN070 TX21/2618Z TN15/2610Z TEMPO 2521/2523 TSRA SCT015 FEW040CB BKN070 TEMPO 2600/2610 3000 BR BKN010 BECMG 2614/2618 21010KT", "TAF SURV 251730Z 2518/2618 34008KT 9999 BKN012 BKN070 TX25/2618Z TN14/2610Z TEMPO 2518/2522 5000 RA BKN010 OVC060 TEMPO 2600/2611 3000 BR BKN010 TEMPO 2604/2610 0800 FG BKN008 BECMG 2614/2618 24010KT", "TAF SUSO 251730Z 2518/2618 25005KT 9999 SCT015 BKN070 TX24/2618Z TN14/2610Z TEMPO 2518/2522 5000 RA BKN010 OVC060 TEMPO 2600/2611 3000 BR BKN010 TEMPO 2604/2610 0800 FG BKN008", "TAF SVBC 242200Z 2500/2600 12003KT 9999 BKN013 TX32/2518Z TN23/2507Z TEMPO 2501/2505 02005KT 9000 DZ BKN016", "TAF SVJC 242200Z 2500/2600 09006KT 9999 BKN013 TX33/2519Z TN24/2507Z TEMPO 2504/2508 02003KT 9999 BKN080 TAF SVPR 242200Z 2500/2600 11001KT 9999 BKN013 TX33/2519Z TN24/2507Z BECMG 2505/2509 05006KT 9000 DZ BKN016", "TAF SVMC 251600Z 2518/2618 09016KT 9999 SCT016 TX33/2619Z TN22/2608Z TEMPO 2618/2622 05007KT 9000 -DZ BKN013", "TAF SVMG 242200Z 2500/2600 08011KT 9999 BKN013 TX32/2518Z TN23/2508Z BECMG 2506/2510 06005KT 9000 DZ BKN016", "TAF SVMI 251600Z 2518/2618 16007KT 9999 SCT016 TX33/2618Z TN22/2607Z TEMPO 2619/2623 02003KT 9999 BKN013", "TAF SVSA 251600Z 2518/2618 05002KT 9999 SCT016 TX30/2618Z TN16/2608Z TEMPO 2618/2622 02005KT 9000 -DZ BKN080", "TAF SVVA 251220Z 2512/2612 21005KT 9999 SCT020 BKN070 TX33/2519 TN23/2609 BECMG 2521/2600 VRB05KT BKN020 FM 260030 09005KT 9999 SCT020 BKN100", "TAF SYCJ 251700Z 2518/2618 14008KT 5000 SHRA SCT013 BKN034 OVC070 TEMPO 2522/2602 VRB02KT 9999 FEW014 SCT034 BKN080 BECMG 2603/2606 16008KT 3000 TSRA FEW011CB SCT012 BKN032 OVC060", "TAF SYEB 251100Z 2512/2523 14008KT 9999 SCT018 SCT090 BECMG 2516/2519 6000 TSRA FEW014CB SCT015 BKN034 OVC080", "TAF SYEC 251700Z 2518/2618 16008KT 5000 SHRA SCT013 BKN034 OVC070 TEMPO 2600/2604 VRB02KT 9999 FEW014 SCT034 BKN080 BECMG 2604/2607 15008KT 3000 TSRA FEW011CB SCT012 BKN032 OVC060", "TAF SYKA 251100Z 2512/2523 15008KT 8000 TSRA FEW015CB SCT016 BKN036 BKN080", "TAF SYKM 251100Z 2512/2523 14008KT 6000 TSRA FEW014CB SCT015 BKN034 OVC080", "TAF SYLT 251100Z 2512/2523 14008KT 8000 TSRA FEW015CB SCT016 BKN036 BKN080", "TAF SYMB 251100Z 2512/2523 16008KT 6000 TSRA FEW014CB SCT015 BKN034 OVC080", "TAF TAPA 251700Z 2518/2618 07005KT 9999 SCT018 PROB40 TEMPO 2518/2522 TSRA FEW014CB SCT016", "TAF TBPB 251700Z 2518/2618 12014KT 9999 SCT016 PROB40 TEMPO 2612/2618 SHRA BKN014 SCT034", "TAF TDPD 251700Z 2518/2618 16005KT 9999 SCT016 PROB40 TEMPO 2615/2618 SHRA", "TAF TFFF 251700Z 2518/2618 13003KT 9999 SCT040 TEMPO 2518/2523 VRB15KT 2500 SHRA FEW010CB BKN018TCU PROB30 TEMPO 2604/2610 2500 SHRA FEW010CB BKN018TCU PROB40 TEMPO 2616/2618 VRB15KT 2500 SHRA FEW010CB BKN018TCU", "TAF TFFR 251700Z 2518/2618 VRB03KT 9999 FEW040 PROB40 TEMPO 2518/2523 VRB15KT 3000 SHRA FEW015CB BKN020TCU PROB30 TEMPO 2615/2618 VRB15KT 3000 SHRA FEW015CB BKN020TCU", "TGPY 251527Z 2518/2618 12015G25KT 9999 FEW014CB SCT018 BKN040 BECMG 2523/2601 12014 FEW014CB SCT018 BKN040 TEMPO 2609/2613 5000 SHRA FEW014CB BKN016 BKN035 BECMG 2610/2612 13015G25KT FEW014CB BKN016 BKN035", "TIST 251720Z 2518/2618 17010KT P6SM FEW030 FEW050 FM252300 VRB05KT P6SM SCT040 FM261400 14010KT P6SM FEW030 SCT050", "TISX 251720Z 2518/2618 13010KT P6SM FEW030 SCT050 FM252300 VRB05KT P6SM SCT040 FM261400 12010KT P6SM FEW030 SCT050", "TJBQ 251720Z 2518/2618 01010KT P6SM VCTS SCT030CB BKN050 FM252300 08008KT P6SM SCT060 FM261400 05012KT P6SM FEW030 SCT050", "TJPS 251720Z 2518/2618 17010KT P6SM VCTS SCT030CB BKN050 FM252300 VRB03KT P6SM SKC FM261400 15010KT P6SM FEW030 SCT050", "TJSJ 251720Z 2518/2618 04010KT P6SM VCTS SCT030CB BKN050 FM252300 VRB05KT P6SM SCT040 FM261300 05012KT P6SM FEW030 SCT050", "TAF TKPK 251700Z 2518/2618 05004KT 9999 SCT018 PROB40 TEMPO 2518/2522 TSRA FEW014CB SCT016", "TAF TKPN 251700Z 2518/2618 05004KT 9999 SCT018 PROB40 TEMPO 2518/2522 TSRA FEW014CB SCT016", "TAF TLPC 251815Z 2518/2618 16006KT 9999 SCT022 SCT038 TEMPO 2518/2606 5000 SHRA FEW007 FEW012CB BKN015 BKN038", "TAF TLPL 251815Z 2518/2618 13008KT 9999 SCT022 SCT038 TEMPO 2518/2606 5000 SHRA FEW007 FEW012CB BKN015 BKN038", "TAF TNCA 251717Z 2518/2618 10012KT 9999 SCT025 TEMPO 2614/2618 BKN015", "TAF TNCB 251655Z 2518/2624 09010KT 9999 SCT020", "TAF TNCC 251715Z 2518/2618 08010KT 9999 SCT025 TEMPO 2614/2618 BKN015", "TAF COR TNCM 251745Z 2518/2618 09005KT SCT018", "TAF TQPF 251700Z 2518/2618 09006KT 9999 SCT018 PROB30 TEMPO 2518/2522 SHRA", "TAF TRPG 251700Z 2518/2618 08007KT 9999 SCT018 PROB40 TEMPO 2518/2522 TSRA FEW014CB SCT016", "TAF TTCP 251600Z 2518/2618 11008KT 9999 SCT016 BKN035 TEMPO 2518/2521 5000 SHRA FEW012CB BKN014 PROB30 TEMPO 2518/2521 3000 TSRA FEW010CB BECMG 2600/2602 08005KT 9999 SCT016 BECMG 2612/2614 11010KT 9999 SCT018", "TAF TTPP 251600Z 2518/2618 11008KT 9999 SCT016 BKN035 TEMPO 2518/2521 5000 SHRA FEW012CB BKN014 PROB30 TEMPO 2518/2521 3000 TSRA FEW010CB BECMG 2600/2602 00000KT 9999 SCT016 BECMG 2612/2614 11010KT 9999 SCT018", "TAF TUPJ 251700Z 2518/2618 09006KT 9999 SCT018 ", "TAF TVSA 251700Z 2518/2618 17007KT 9999 SCT016 SCT034 TEMPO 2518/2521 RA SHRA BKN014 SCT034 PROB40 TEMPO 2615/2618 SHRA", "TAF TXKF 251731Z 2518/2618 24009KT 9999 VCSH SCT015 BKN080 OVC120 PROB40 TEMPO 2518/2603 8000 -RA SCT009 BKN014 PROB30 TEMPO 2518/2524 4000 SHRA BKN009 ", "TAF UAAA 251712Z 2518/2618 23003MPS 9999 SCT050CB BKN100 TX22/2609Z TN06/2602Z TEMPO 2518/2602 18003MPS BECMG 2602/2603 30003G08MPS TEMPO 2602/2612 25004G10MPS BECMG 2612/2614 21003MPS TEMPO 2612/2618 16003MPS", "TAF UACC 251701Z 2518/2618 29005MPS 9999 SCT030 BKN100 TX22/2610Z TN03/2601Z TEMPO 2518/2602 25004MPS 3100 BR FEW005 BECMG 2605/2607 31006MPS TEMPO 2616/2618 VRB02MPS", "TAF UADD 252000Z 2521/2606 22003G08MPS 9999 NSC TEMPO 2603/2606 33005G10MPS", "TAF UAII 251700Z 2518/2618 08007G12MPS 7000 NSC TX27/2610Z TN14/2601Z TEMPO 2518/2524 05009G15MPS TEMPO 2600/2612 05013G18MPS 3100 BLDU", "TAF UAIT 252000Z 2521/2606 07013G18MPS CAVOK TEMPO 2521/2603 08015G20MPS", "TAF UAKK 251700Z 2518/2618 30005MPS 9999 SCT020 BKN100 TX20/2610Z TNM02/2601Z BECMG 2518/2520 VRB02MPS TEMPO 2520/2603 3100 BR SCT011", "TAF UAOO 252000Z 2521/2606 08010MPS CAVOK TEMPO 2603/2606 09012G17MPS", "TAF UARR 252002Z 2521/2606 12005G10MPS 3100 -SHRA BKN011 BKN033CB TEMPO 2521/2524 10005MPS BECMG 2600/2601 16006G12MPS", "TAF UASK 252000Z 2521/2606 VRB01MPS 9999 SCT050 BKN100", "TAF UASP 252000Z 2521/2606 27008MPS CAVOK TEMPO 2521/2601 22003MPS 3100 BR FU SCT011 TEMPO 2601/2606 27008G15MPS", "TAF UATE 251702Z 2518/2618 30005MPS 9999 BKN033CB TX21/2610Z TN13/2603Z TEMPO 2518/2604 1000 BR SCT002 BECMG 2604/2606 04006G12MPS", "TAF UATG 251702Z 2518/2618 12007G12MPS 1500 BLDU SCT011 BKN030CB TX17/2611Z TN13/2602Z TEMPO 2518/2520 3100 SCT007 BECMG 2520/2522 15007MPS 4000 HZ TEMPO 2521/2602 VRB02MPS -SHRA FM260200 35006MPS 9999 -SHRA BKN030CB BECMG 2606/2608 02006MPS", "TAF UATT 251700Z 2518/2618 13007MPS 9999 SCT033 TX24/2612Z TN09/2601Z TEMPO 2600/2612 16015MPS", "TAF UAUU 252003Z 2521/2606 20003G08MPS CAVOK TEMPO 2521/2604 18003MPS SCT040 TEMPO 2604/2606 19005G12MPS SCT040", "TAF UBBB 251658Z 2518/2618 32012KT 9999 SCT040 TX22/2610Z TN13/2602Z TEMPO 2518/2522 34008KT FEW040CB TEMPO 2522/2606 33005KT -SHRA SCT010 SCT030CB BKN030 BECMG 2606/2608 35010KT", "TAF UBBF 251400Z 2515/2524 02010KT 9999 FEW050CB BKN080 TEMPO 2515/2519 35008KT -TSRA SCT012 SCT040CB BECMG 2519/2521 29006KT", "TAF UBBG 251700Z 2518/2618 VRB04KT 9999 FEW040 BKN100 TX23/2612Z TN15/2602Z TEMPO 2518/2524 24008KT SCT030CB BECMG 2608/2610 08008KT TEMPO 2610/2616 VRB12KT -SHRA SCT030CB BKN060", "TAF UBBL 251659Z 2518/2618 16006KT 9999 BKN040 TX21/2610Z TN13/2602Z TEMPO 2520/2604 VRB04KT 3000 BR BCFG SCT008 BECMG 2604/2606 15012KT", "TAF UBBN 251654Z 2518/2618 VRB04KT 9999 FEW045CB BKN080 TX24/2612Z TN09/2603Z TEMPO 2518/2522 29012KT TS SCT036CB BKN073 TEMPO 2523/2603 03010KT", "TAF UBBQ 251659Z 2518/2618 VRB04KT 9999 SCT100 TX22/2610Z TN10/2602Z TEMPO 2518/2524 14006KT -SHRA SCT040CB BKN040 TEMPO 2600/2605 3000 BR BCFG SCT006 BECMG 2605/2607 17012KT", "TAF UBBY 252000Z 2521/2606 09010KT 9999 FEW040 SCT100 TEMPO 2602/2606 VRB04KT", "TAF UBBZ 251400Z 2515/2524 03014KT 9999 FEW040CB BKN070 TEMPO 2515/2519 35012KT -TSRA SCT030CB BECMG 2519/2521 30006KT", "TAF UBEE 251700Z 2518/2603 14008KT 9999 FEW040CB SCT080 TEMPO 2518/2522 VRB08KT -SHRA SCT030CB BKN060", "TAF UCFL 251652Z 2518/2618 34003G08MPS 9999 BKN025CB OVC100 TEMPO 2518/2602 26007G12MPS 3100 -SHRA BKN015CB TEMPO 2602/2606 05003G08MPS BECMG 2606/2607 13003G08MPS TEMPO 2606/2612 20003G08MPS", "TAF UCFM 251652Z 2518/2618 05003G08MPS 9999 SCT060CB TEMPO 2518/2524 04007G12MPS TEMPO 2600/2606 12003G08MPS TEMPO 2606/2615 05012G17MPS", "TAF UCFO 251643Z 2518/2618 18003G08MPS 9999 FEW050CB TEMPO 2518/2524 27003G08MPS 3000 FU SCT030CB PROB40 TEMPO 2518/2524 -TSRA BECMG 2602/2604 32003G08MPS", "TAF UDSG 251658Z 2518/2618 06006KT 9999 FEW040 TEMPO 2518/2603 VRB16KT -SHRA SCT030CB", "TAF UDYZ 251700Z 2518/2618 04006KT 9999 FEW040 TEMPO 2518/2524 VRB16KT FEW040CB", "TAF UEEE 252000Z 2521/2703 12003MPS 9999 SCT023CB OVC070 TEMPO 2521/2603 3200 -SHSN SCT011 BKN020CB OVC070", "TAF COR UERP 252000Z 2521/2621 33003MPS 4000 -SHSN BKN020CB TEMPO 2521/2524 1500 SHSN SCT005 OVC015CB", "TAF UERR 252000Z 2521/2621 VRB01MPS 9999 -SHSN SCT020CB TEMPO 2521/2524 1500 -SHSN BR SCT006 BKN015CB", "TAF UGKO 251700Z 2518/2618 09007KT CAVOK TX25/2611Z TN10/2602Z TEMPO 2615/2618 BKN050", "TAF UGSB 251700Z 2518/2618 VRB02KT CAVOK TX25/2610Z TN12/2600Z BECMG 2519/2522 12014KT BECMG 2606/2608 VRB02KT BECMG 2612/2614 FEW023 SCT100 TEMPO 2615/2618 23015KT RA FEW015 BKN100", "TAF UGTB 251700Z 2518/2618 32012KT CAVOK TX22/2611Z TN09/2603Z TEMPO 2600/2609 01007KT BECMG 2610/2612 16010KT SCT055CB TEMPO 2614/2618 VRB19KT TSRA BKN040CB", "TAF UHBB 251950Z 2521/2621 27003MPS 9999 FEW033 BECMG 2523/2601 34003G08MPS SCT033CB", "TAF UHHH 251956Z 2521/2703 25007MPS 9999 SCT020CB TEMPO 2521/2612 29009G14MPS 5000 -SHRA SCT011 SCT020CB", "TAF UHMA 251953Z 2521/2621 34003G08MPS 9999 NSC TEMPO 2521/2621 04008G13MPS", "TAF UHMD 251942Z 2521/2603 02007G12MPS 9999 DRSN SCT030 TEMPO 2521/2603 04012G17MPS 4000 BLSN BKN015", "TAF UHMM 251954Z 2521/2703 23003G08MPS 9999 SCT040", "TAF UHPP 251933Z 2521/2703 28003G12MPS 9999 SCT040CB TEMPO 2608/2622 35005MPS", "TAF UHSS 252000Z 2521/2703 16003MPS 9999 BKN025CB BECMG 2600/2602 6000 -SHRA BKN016CB FM261200 36003MPS 9999 BKN030CB", "TAF UHWW 252000Z 2521/2621 36003G08MPS 6000 -SHRA SCT010 BKN016CB BECMG 2523/2524 9999 NSW BKN025CB TEMPO 2600/2611 35014MPS -SHRA BECMG 2612/2615 12003MPS", "TAF UIAA 252000Z 2521/2621 02003G08MPS 9999 SCT030CB TEMPO 2521/2621 08005G10MPS", "TAF UIBB 252000Z 2521/2621 29008G16MPS 6000 -SHSNRA FEW003 BKN016CB TEMPO 2521/2607 0900 +SHSN VV002 BECMG 2607/2609 27003G08MPS", "TAF UIII 252000Z 2521/2621 30010G15MPS 1200 SHSNRA BKN004 OVC009CB TEMPO 2521/2618 32015G25MPS 0500 +SHSN BLSN VV001", "TAF UIUU 252000Z 2521/2621 25005G10MPS 9999 SCT040CB TEMPO 2521/2601 34003G08MPS BECMG 2601/2602 34005G10MPS 2500 -SHSN TEMPO 2602/2618 30010G18MPS 0700 +SHSN BLSN VV002", "TAF ULAA 252000Z 2521/2621 07003MPS 6000 BKN016 TEMPO 2521/2524 -SHSN FEW011 BKN016CB FM260600 08003MPS 9999 BKN020 TEMPO 2609/2615 06003G09MPS", "TAF ULLI 252000Z 2521/2621 13003MPS 8000 SCT040 TEMPO 2601/2604 1500 MIFG BR", "TAF ULMM 251951Z 2521/2621 05005G10MPS 9999 SCT030 BECMG 2606/2607 09003MPS", "TAF ULOO 252000Z 2521/2606 13003MPS 9999 SCT020", "TAF ULPB 251958Z 2521/2606 12003MPS 6000 SCT020", "TAF ULWC 251700Z 2518/2603 15003MPS 9999 BKN020 TEMPO 2518/2524 SCT016CB TEMPO 2600/2603 04003G08MPS BKN010", "TAF UMGG 251703Z 2518/2618 10006MPS 9999 BKN025 BECMG 2520/2522 16005MPS TEMPO 2522/2606 18006MPS 2000 BR BKN005 TEMPO 2606/2615 18009G14MPS SCT030CB TEMPO 2615/2618 18007G12MPS 2100 -SHRA BKN030CB", "TAF UMII 251409Z 2515/2524 14004G09MPS 9999 BKN025 TEMPO 2515/2521 16007G12MPS 3000 -TSRA SCT010 BKN020CB TEMPO 2521/2524 12003MPS 3000 BR SCT007", "TAF UMKK 251955Z 2521/2621 26003G10MPS 7000 SCT017CB BKN033 BECMG 2605/2607 26008G13MPS TEMPO 2609/2617 28010G16MPS TEMPO 2618/2621 24003G10MPS", "TAF UMMS 251702Z 2518/2618 16005MPS 9999 BKN030 TEMPO 2518/2606 1200 -SHRA BCFG BR FEW003 BKN012CB BECMG 2606/2607 28005G10MPS 8000 BKN020 TEMPO 2607/2618 29008G13MPS 1200 TSRA BKN010 BKN015CB", "TAF UNAA 251952Z 2521/2621 21003G08MPS 9999 SCT020CB TEMPO 2521/2524 4900 -SHSN BECMG 2604/2607 34006G13MPS BECMG 2612/2615 21003MPS", "TAF UNBB 252000Z 2521/2621 23003G08MPS 8000 -SHRA BKN020CB TEMPO 2521/2604 28008MPS 1000 SHSNRA BKN005 BKN010CB BECMG 2604/2606 29005MPS BECMG 2615/2617 24003G08MPS", "TAF UNEE 252000Z 2521/2621 21003G08MPS 8000 BKN040CB TEMPO 2521/2602 -SHSNRA BKN011CB BECMG 2602/2604 30005G10MPS BECMG 2612/2615 18003G08MPS", "TAF AMD UNKL 252116Z 2521/2621 26003G08MPS 6000 -SHSN BKN016CB TEMPO 2521/2524 27008G14MPS 0400 +SHSN BKN005 BKN016CB TEMPO 2609/2615 31005G12MPS BECMG 2618/2620 21005MPS", "TAF UNNT 252000Z 2521/2621 28003G08MPS 8000 -SHSNRA BKN016CB TEMPO 2521/2602 1500 BR BKN005 BKN016CB BECMG 2603/2605 NSW SCT040CB", "TAF UNOO 251955Z 2521/2621 23003G09MPS 8000 SCT030", "TAF UNTT 252000Z 2521/2606 24003G08MPS 8000 -SHSNRA BKN016CB BECMG 2602/2605 30005G10MPS", "TAF UNWW 252000Z 2521/2621 17003G08MPS 8000 BKN040CB TEMPO 2521/2603 1500 SHSNRA BKN005 BKN011CB TEMPO 2603/2615 32005G10MPS", "TAF UOOO 251953Z 2521/2621 32003G08MPS 0300 -SHSN FZFG BKN003 BKN016CB TEMPO 2521/2604 0800 -SHSN FZFG BKN006 BKN016CB FM260400 32005G12MPS 2500 -SHSN BR BKN011 BKN016CB TEMPO 2604/2621 1400 SHSN BR BKN006 BKN016CB", "TAF URKA 251948Z 2521/2621 17003G08MPS 6000 SCT016CB TEMPO 2606/2621 08005G12MPS", "TAF URKK 251949Z 2521/2621 20003G08MPS 9999 SCT020 PROB40 TEMPO 2523/2603 0500 FG SCT003 BECMG 2603/2605 10006G12MPS", "TAF URMG 252000Z 2521/2606 34003G08MPS 6000 BKN016 TEMPO 2521/2606 0300 FG BKN002 BECMG 2603/2605 07003G08MPS", "TAF URML 252000Z 2521/2606 22003G08MPS 6000 BKN025 TEMPO 2521/2603 VRB01MPS", "TAF URMM 252000Z 2521/2621 09003G08MPS 6000 BKN016 TX22/2612Z TN07/2602Z TEMPO 2521/2606 0300 FG BKN002 TEMPO 2606/2621 12007G14MPS", "TAF URMN 252000Z 2521/2606 22003G08MPS 9999 BKN020CB", "TAF URMO 251400Z 2515/2524 08003G08MPS 9999 BKN016 TEMPO 2515/2524 6000 -SHRA BKN016 BKN020CB", "TAF URMT 252000Z 2521/2606 12003G08MPS CAVOK TEMPO 2521/2524 VRB01MPS TEMPO 2600/2606 6000 SCT016 BKN030", "TAF URRP 251955Z 2521/2621 23003G12MPS 6000 FEW005 SCT016 BKN030CB TEMPO 2521/2606 0300 FG SCT002 SCT030CB TEMPO 2609/2615 15003G12MPS BECMG 2615/2618 09003G12MPS", "TAF URSS 251956Z 2521/2621 05003G08MPS 9999 NSC BECMG 2521/2524 04007MPS SCT100 BECMG 2606/2607 23003G08MPS BKN100 TEMPO 2607/2609 18003G08MPS BECMG 2610/2612 27003G08MPS BECMG 2617/2618 05003G08MPS", "TAF URWA 251958Z 2521/2606 34003G09MPS 6000 FEW008 SCT016 TEMPO 2521/2603 29003G08MPS 0800 FG FEW004 BKN016", "TAF AMD URWW 252113Z 2521/2606 21007G13MPS 6000 BKN016 TEMPO 2521/2606 24010G16MPS -SHRA BKN011 BKN020CB", "TAF USCC 252000Z 2521/2621 20003G13MPS 9999 BKN030 TEMPO 2521/2603 28003MPS", "TAF USCM 252000Z 2521/2606 18003G10MPS 9999 SCT040 TEMPO 2600/2606 BKN030", "TAF USDA 251351Z 2515/2524 22007G13MPS 6000 FEW016 TEMPO 2515/2524 FEW003 SCT011 BECMG 2518/2520 19006G12MPS", "TAF USHH 251931Z 2521/2621 35003MPS 9999 SCT020 TEMPO 2521/2605 VRB01MPS 5000 BR SCT003 OVC016 TEMPO 2605/2612 5000 -SHRA BKN016CB BECMG 2607/2609 13003G12MPS", "TAF USNN 251958Z 2521/2621 13003MPS 2100 BR FEW004 BKN016 OVC040 TEMPO 2521/2604 VRB01MPS 0300 -FZDZ FZFG VV002 BECMG 2604/2606 33003G08MPS 9999 NSW", "TAF USPP 251955Z 2521/2621 14003G09MPS CAVOK BECMG 2602/2604 8000 -RA BKN020 BECMG 2609/2611 19003G14MPS BECMG 2613/2615 9999 NSW", "TAF AMD USRR 252035Z 2520/2621 33003MPS 0200 FZFG VV002 TEMPO 2520/2603 VRB01MPS 0800 FZFG VV003 FM260600 31005G11MPS 9999 FEW005 BKN020", "TAF USSS 251953Z 2521/2621 22003G08MPS 6000 SCT016 FM260300 18005G15MPS 9999 BKN020CB", "TAF USTR 251950Z 2521/2621 26005G10MPS 9999 SCT030 TEMPO 2521/2603 23003MPS BECMG 2603/2605 22006G11MPS BECMG 2613/2615 18004G09MPS SCT020 TEMPO 2615/2621 -SHRA SCT020CB", "TAF UTAA 251645Z 2518/2618 12014G24KT 4000 BLDU BKN050 SCT050CB BECMG 2520/2522 34018KT 5000 DRDU TEMPO 2522/2601 32018G28KT 3000 DRDU", "TAF COR UTAK 251630Z 2518/2618 34018G28KT 6000 BKN014 SCT040CB BKN100 TEMPO 2518/2605 29022G32KT 3000 BR -SHRA BKN006 SCT030CB OVC100 PROB40 TEMPO 2518/2524 VRB36KT 1000 TSSHRA BR BKN003 SCT023CB BECMG 2606/2608 26016KT 9999 NSW", "TAF UTAM 251630Z 2518/2618 03016KT 5000 SCT050 SCT100 TEMPO 2518/2604 34012KT 3000 HZ TEMPO 2604/2615 01012G22KT 3000 DRDU", "TAF UTAT 251630Z 2518/2618 09012KT CAVOK TEMPO 2606/2612 11018G28KT 3000 BLDU", "TAF UTAV 251630Z 2518/2618 05010KT 5000 NSC TEMPO 2518/2601 VRB04KT 2000 HZ FU SKC BECMG 2603/2605 09014KT CAVOK TEMPO 2603/2615 03016G26KT 3000 BLDU VV013 SCT040 BECMG 2615/2617 27016KT 5000 BKN050", "TAF UTFN 251700Z 2518/2618 34010KT 7000 NSC", "TAF UTNN 251700Z 2518/2618 06008G18KT CAVOK TEMPO 2603/2613 10016G26KT", "TAF UTNU 251700Z 2518/2618 06008G18KT CAVOK TEMPO 2604/2614 10016G26KT", "TAF UTSA 251701Z 2518/2618 04012KT 7000 NSC TEMPO 2518/2524 01010KT TEMPO 2600/2606 03016KT SCT033", "TAF UTSB 251700Z 2518/2618 04012KT 7000 NSC TEMPO 2518/2524 36010KT TEMPO 2600/2606 02014G24KT 4000 -DS SCT033", "TAF UTSS 251657Z 2518/2618 13010KT 9999 NSC TEMPO 2518/2605 10010G20KT", "TAF UTST 251700Z 2518/2618 VRB06KT 6000 NSC TX36/2611Z TN18/2601Z TEMPO 2518/2524 SCT060CB BKN100", "TAF UTTT 251700Z 2518/2618 08012KT 7000 NSC TEMPO 2606/2616 28015KT", "TAF UUBC 251949Z 2521/2606 03003MPS 9999 BKN040 TEMPO 2521/2606 3000 -SHRA BKN020CB", "TAF UUBP 251357Z 2515/2524 15003G08MPS 9999 SCT020 TEMPO 2515/2521 6000 -SHRA BKN016 BKN025CB", "TAF UUBW 251950Z 2521/2621 36003MPS 6000 BKN016 TX15/2613Z TN08/2601Z TEMPO 2600/2608 30005MPS 2900 -SHRA FEW007 BKN012CB BECMG 2608/2609 28005MPS BECMG 2615/2617 22003MPS", "TAF UUDD 251957Z 2521/2703 36003MPS 6000 BKN016 TX15/2613Z TN06/2703Z TEMPO 2521/2609 34008MPS 2900 -SHRA FEW006 BKN012CB TEMPO 2609/2615 29008G13MPS BECMG 2615/2617 24005MPS PROB40 TEMPO 2620/2703 0300 FG BKN003", "TAF UUDL 252000Z 2521/2621 04003G08MPS 8000 -RA BKN020 TX13/2612Z TN09/2602Z TEMPO 2600/2612 2800 -RA BR OVC010", "TAF UUEE 251957Z 2521/2621 34003G08MPS 9000 BKN025 TX14/2614Z TN09/2603Z TEMPO 2521/2524 13006MPS TEMPO 2600/2609 34008G13MPS 2900 -SHRA SCT004 BKN016CB BECMG 2616/2619 22003MPS", "TAF UUMO 251957Z 2521/2606 35003G08MPS 9999 BKN020 TEMPO 2521/2606 35008G13MPS 4000 -SHRA FEW010 BKN020CB", "TAF UUOB 251955Z 2521/2606 27003MPS 6000 BKN020", "TAF UUOK 251651Z 2518/2603 03003MPS 9999 SCT020 TEMPO 2521/2603 3000 -SHRA BKN016CB", "TAF UUOL 252000Z 2521/2606 30003MPS 6000 -RA OVC016 TEMPO 2521/2604 BKN005", "TAF UUOO 252000Z 2521/2606 27003MPS 6000 -RA OVC005", "TAF UUWW 251950Z 2521/2621 34003G08MPS 9999 BKN020 TX16/2613Z TN09/2603Z TEMPO 2521/2609 34008G13MPS 2900 -SHRA FEW007 BKN012CB BECMG 2615/2617 24003MPS", "TAF UUYY 252000Z 2521/2621 VRB01MPS 9999 SCT030 TEMPO 2521/2602 06003MPS 4000 BR FU FEW004 FM260800 15003G08MPS 6000 -SHRA BKN016CB BECMG 2612/2614 08003G09MPS", "TAF UWGG 251952Z 2521/2621 17003G09MPS 6000 -RA BKN011 TX12/2612Z TN06/2603Z TEMPO 2521/2612 10005G12MPS 4000 -SHRA OVC008CB", "TAF UWKD 251954Z 2521/2621 13005G12MPS 9999 -RA BKN016 TX18/2612Z TN07/2601Z TEMPO 2521/2608 1000 SHRA BR BKN004 BKN020CB BECMG 2609/2611 19006G14MPS", "TAF UWKE 251956Z 2521/2621 19003G10MPS 9999 SCT040 TEMPO 2521/2524 10005G14MPS 6000 -SHRA BKN016CB TEMPO 2600/2606 2100 -SHRA BKN011CB", "TAF UWKS 251938Z 2521/2606 12006G12MPS 6000 -SHRA BKN013 BKN020CB TX11/2606Z TN08/2602Z TEMPO 2521/2605 3000 -SHRA BR OVC004CB", "TAF UWLL 251953Z 2521/2621 11005G10MPS 6000 BKN016 TX19/2611Z TN08/2603Z TEMPO 2521/2605 16008G14MPS 1000 RA BR OVC003 BECMG 2605/2607 22006G12MPS TEMPO 2607/2615 17010G17MPS", "TAF UWLW 251950Z 2521/2621 11005G10MPS 6000 BKN016 TX18/2611Z TN09/2602Z TEMPO 2521/2605 16007G14MPS 2100 -SHRA BR BKN007 BKN013CB BECMG 2605/2606 18006G13MPS TEMPO 2606/2618 20010G16MPS -SHRA BKN016CB", "TAF UWOO 251948Z 2521/2621 14007G14MPS 9999 SCT030 TX23/2610Z TN12/2601Z TEMPO 2521/2607 17009G16MPS BECMG 2607/2609 20007G14MPS TEMPO 2609/2621 23005G12MPS -SHRA BKN020CB", "TAF UWOR 251948Z 2521/2606 17005G12MPS 9999 SCT020 TX18/2606Z TN07/2523Z TEMPO 2521/2606 19007G14MPS", "TAF UWPS 251955Z 2521/2606 14007G14MPS 8000 -SHRA BKN013CB TX11/2521Z TN09/2603Z TEMPO 2521/2605 BKN007CB", "TAF UWSG 252000Z 2521/2606 17003G09MPS 6000 BKN011 TX12/2606Z TN09/2602Z TEMPO 2521/2524 0400 -SHRA FG BKN003 BKN016CB", "TAF UWUU 252000Z 2521/2621 13003G08MPS 9999 BKN040 TX22/2612Z TN09/2601Z TEMPO 2521/2606 15007G12MPS BKN020 FM260600 20006G12MPS 9999 BKN025 TEMPO 2606/2621 17010G17MPS 6000 -SHRA BKN016CB", "TAF UWWW 251951Z 2521/2621 13003G10MPS 9999 BKN016 TX20/2611Z TN09/2601Z TEMPO 2521/2605 16008G15MPS 1000 SHRA BKN004 BKN020CB BECMG 2605/2606 21007G13MPS TEMPO 2606/2615 23011G18MPS", "TAF VAAH 252000Z 2521/2606 22003KT 4000 FU NSC BECMG 2522/2524 08003KT FEW080 BECMG 2601/2603 11005KT 3000 BECMG 2604/2606 15006KT 4000 ", "TAF VABB 252000Z 2521/2606 18005KT 3500 BR FEW020 BECMG 2602/2604 12008KT 3500 BR HZ ", "TAF VABJ 252000Z 2521/2606 28006KT 6000 SCT080 BECMG 2522/2524 31005KT FEW020 SCT080 BECMG 2601/2603 4000 HZ BECMG 2604/2606 30009KT 6000", "TAF VABO 252000Z 2521/2606 18003KT 5000 FU FEW080 BECMG 2601/2603 18006KT 4000 BECMG 2604/2606 6000", "TAF VABP 252000Z 2521/2606 32008KT 5000 HZ SCT025 BECMG 2601/2603 12005KT 4000 HZ SCT025 BECMG 2604/2606 07008KT 5000 HZ FEW020 SCT025", "TAF VABV 252000Z 2521/2606 26008KT 5000 FU SCT080 BECMG 2601/2603 VRB02KT 3000 HZ BECMG 2604/2606 17006KT 6000 FEW025 SCT080", "TAF VADU 252000Z 2521/2606 31008KT 4000 HZ NSC BECMG 2522/2524 35004KT BECMG 2601/2603 27004KT 3000 HZ BECMG 2604/2606 24008KT 6000 FEW080", "TAF VAID 252000Z 2521/2606 32008KT 5000 HZ SCT025 BECMG 2601/2603 12005KT 4000 HZ SCT025 BECMG 2604/2606 07008KT 5000 HZ FEW020 SCT025", "TAF VAJB 252000Z 2521/2606 13008KT 4000 HZ SCT025 BECMG 2601/2603 20005KT 4000 HZ FEW025 BECMG 2604/2606 23008KT 5000 HZ FEW020 SCT025", "TAF VAJM 252000Z 2521/2606 27006KT 4000 HZ FEW015 SCT080 BECMG 2601/2603 1000 BR HZ BECMG 2604/2606 27010KT 6000 FEW025 SCT080", "TAF VANP 252000Z 2521/2606 20005KT 4000 HZ FEW020 SCT100 BECMG 2600/2602 16005KT 3000 HZ BECMG 2604/2606 19005KT 5000 HZ", "TAF VAOZ 251400Z 2515/2603 18015G25KT 5000 TSRA SCT030 FEW030CB BKN300 BECMG 2516/2518 6000 SCT030 SCT300 BECMG 2600/2601 5000 HZ TEMPO 2601/2603 3000 HZ", "TAF VAPO 251700Z 2518/2700 28010KT 6000 FEW025 SCT100 TEMPO 2610/2613 29010G20KT 6000 TSRA SCT025 FEW030CB SCT090", "TAF VAPR 252000Z 2521/2606 30008KT 6000 FEW020 SCT080 BECMG 2601/2603 4000 HZ BECMG 2604/2606 28012KT 6000", "TAF VARK 252000Z 2521/2606 25006KT 6000 NSC BECMG 2522/2524 32005KT FEW020 SCT080 BECMG 2601/2603 4000 FU BECMG 2604/2606 30010KT 6000", "TAF VASU 252000Z 2521/2606 18006KT 5000 FU FEW080 BECMG 2601/2603 2000 BR HZ FEW020 SCT080 BECMG 2604/2606 22012KT 6000 SCT020 SCT080", "TAF VAUD 251700Z 2518/2624 VRB03KT 4000 HZ SCT100 BECMG 2603/2605 16008KT 5000 HZ FEW035 SCT100", "TAF VCBI 251700Z 2518/2624 VRB05KT 9999 SCT016 TX33/2607Z TN24/2500Z TEMPO 2600/2603 7000 PROB40 TEMPO 2609/2615 7000 -TSRA/SHRA SCT017 FEW020CB", "TAF VCRI 251700Z 2518/2624 VRB05KT 9999 FEW018 TX34/2608Z TN24/2600Z PROB30 TEMPO 2608/2615 7000 -TSRA/SHRA FEW018 FEW020CB BKN080", "TAF VDPP 251700Z 2518/2612 23010KT 9999 SCT017", "TAF VDSR 251700Z 2518/2612 26010KT 9999 SCT017", "TAF VDSV 251700Z 2518/2612 09010KT 9999 SCT017", "TAF VEAT 252000Z 2521/2606 00000KT 2500 -RA BR SCT018 BKN100 TEMPO 2522/2601 21015G25KT 1500 TSRA SCT015 FEW025CB OVC090 BECMG 2604/2606 21005KT 3500 HZ FEW020 SCT100", "TAF VEBD 251100Z 2512/2618 29005KT 6000 SCT025 TEMPO 2610/2614 5000 TSHZ SCT025 FEW030CB BKN090", "TAF VEBN 251700Z 2518/2603 VRB02KT 3000 BR FEW100 BECMG 2600/2602 2500 BR ", "TAF VEBS 252000Z 2521/2606 23005KT 2000 BR SCT018 BECMG 2603/2605 18005KT 4000 HZ SCT018 BKN100", "TAF VECC 252000Z 2521/2606 30005KT 3200 HZ FEW020 SCT100 BECMG 2600/2602 23005KT 1800 BR FEW100 BECMG 2604/2606 27005KT 4000 HZ FEW020 SCT100", "TAF VEDG 252000Z 2521/2606 15005KT 3500 HZ FEW020 SCT100 BECMG 2600/2602 21005KT 2000 BR BECMG 2603/2605 25007KT 3200 HZ SCT018 SCT100", "TAF VEGT 252000Z 2521/2606 00000KT 3000 -RA BR SCT018 FEW025CB BKN100 BECMG 2604/2606 03005KT 5000 HZ FEW020 SCT100", "TAF VEGY 251400Z 2515/2524 04003KT 5000 HZ SCT100 BECMG 2520/2522 00000KT 4000 HZ", "TAF VEIM 252000Z 2521/2606 00000KT 2500 -RA BR SCT018 BKN090 TEMPO 2522/2602 1500 TSRA SCT015 FEW025CB OVC090 BECMG 2604/2606 16005KT 4000 HZ FEW020 SCT100", "TAF VEKO 252000Z 2521/2606 13008KT 4000 HZ FEW100 BECMG 2601/2603 20005KT 4000 HZ FEW025 BECMG 2604/2606 23008KT 5000 HZ FEW020 SCT025", "TAF VEKU 252000Z 2521/2606 00000KT 2500 -RA BR SCT018 BKN100 TEMPO 2522/2602 1500 TSRA SCT016 FEW025CB OVC090 BECMG 2604/2606 21005KT 4000 BR", "TAF VEMN 252000Z 2521/2606 00000KT 2500 -RA BR SCT018 FEW025CB BKN090 BECMG 2603/2605 21005KT 3500 -RA BR SCT018 BKN100", "TAF VEMR 252000Z 2521/2606 00000KT 2500 -RA BR SCT018 FEW025CB BKN090 TEMPO 2522/2602 25015G25KT 1500 TSRA FEW010 SCT016 FEW025CB OVC090 BECMG 2604/2606 17005KT 3500 BR SCT018 BKN100", "TAF VEPT 252000Z 2521/2606 00000KT 2500 HZ FEW100 BECMG 2603/2605 27005KT 3500 HZ SCT100", "TAF VERC 252000Z 2521/2606 14005KT 2500 BR SCT018 BKN100 BECMG 2603/2605 14005KT 4000 HZ", "TAF VERP 252000Z 2521/2606 20005KT 4000 HZ FEW020 SCT100 BECMG 2600/2602 19005KT 3000 HZ BECMG 2604/2606 22005KT 5000 HZ", "TAF VERU 252000Z 2521/2606 00000KT 2500 -RA BR SCT018 FEW025CB BKN090 BECMG 2604/2606 08005KT 4000 HZ SCT018 BKN100", "TAF VETZ 251530Z 2518/2606 VRB02KT 6000 FEW025 SCT090 TEMPO 2600/2604 09010KT 5000 BR SCT025 FEW025TCU SCT090", "TAF VGEG 251700Z 2518/2624 32008KT 4000 HZ NSC BECMG 2603/2605 03010KT 5000 HZ NSC BECMG 2618/2620 30010KT 4000 HZ SCT018", "TAF VGHS 251700Z 2518/2624 27009KT 3500 HZ SCT100 TEMPO 2600/2603 32005KT 2500 BR FEW012 SCT100 BECMG 2604/2606 26006KT 3500 HZ SCT100", "TAF VHHH 252000Z 2521/2703 36010KT 9999 FEW010 SCT020 TX25/2606Z TN19/2523Z TN22/2623Z BECMG 2609/2611 09010KT", "TAF VIAG 251700Z 2518/2700 04003KT 6000 NSC BECMG 2518/2520 VRB02KT TEMPO 2602/2604 5000 HZ BECMG 2604/2606 04007KT BECMG 2614/2616 VRB02KT", "TAF VIAR 252000Z 2521/2606 00000KT 4000 HZ FEW100 BECMG 2600/2602 3000 HZ BECMG 2604/2606 15006KT 5000 HZ FEW040 SCT100", "TAF VICG 251700Z 2518/2700 VRB02KT 6000 SCT250 BECMG 2605/2607 30010KT FEW030 SCT100 TEMPO 2611/2614 FEW030 FEW030TCU SCT100 BECMG 2616/2618 VRB02KT FEW100 SCT250", "TAF VIDP 252000Z 2521/2606 11003KT 2500 HZ FEW100 BECMG 2601/2603 18004KT 1500 HZ BECMG 2604/2606 23006KT 3500 HZ FEW040 SCT100", "TAF VIGR 250930Z 2512/2524 05008KT 6000 FEW030 SCT250 BECMG 2522/2524 VRB02KT 5000 HZ SCT250", "TAF VIJP 252000Z 2521/2606 08005KT 3000 HZ FEW100 BECMG 2603/2605 12005KT 5000 HZ", "TAF VIJU 250930Z 2518/2612 04005KT 6000 FEW100 TEMPO 2609/2612 14005KT 6000 FEW030TCU SCT200", "TAF VILH 250930Z 2518/2612 29005KT 6000 FEW070 BECMG 2520/2522 VRB02KT BECMG 2603/2605 29005KT TEMPO 2607/2611 29015G25KT 5000 BLDU SCT070 SCT150", "TAF VILK 251700Z 2518/2603 VRB02KT 4000 HZ BR FEW100 BECMG 2600/2602 3000 BR", "TAF VISR 251530Z 2518/2606 29005KT 6000 SCT020 SCT100 BKN200", "TAF VIUT 250930Z 2512/2524 08008KT 6000 SCT100 SCT250", "TAF VLLB 251100Z 2512/2612 34004KT 4000 BR SCT020 BKN060", "TAF VLLN 251100Z 2512/2612 32004KT 3000 BR SCT020 SCT100", "TAF VLPS 251100Z 2512/2612 14004KT 4000 BR SCT020 FEW200", "TAF VLSK 251100Z 2512/2612 27004KT 3000 BR SCT020 SCT100", "TAF VLVT 251100Z 2512/2612 18004KT 4000 BR SCT020 SCT200", "TAF VMMC 251700Z 2518/2624 36015KT 9999 FEW015 SCT030 BECMG 2608/2610 09010KT", "TAF VNKT 251700Z 2518/2618 VRB02KT 7000 FEW015 BECMG 2600/2602 VRB02KT 5000 BR FEW015 PROB30 2601/2603 2500 BR SCT100 BECMG 2604/2605 11004KT 6000 FEW015 SCT030 BECMG 2607/2609 24010KT 8000 FEW020 SCT030 BKN100 PROB30 2608/2612 VRB12KT 4000 -TSRA FEW025CB BECMG 2614/2615 28004KT 7000 FEW015 SCT100", "TAF VOBG 252000Z 2521/2606 12010KT 6000 SCT015 TEMPO 2600/2603 3000 BR SCT008", "TAF VOBL 252000Z 2521/2606 12010KT 6000 SCT015 TEMPO 2600/2603 3000 BR SCT008", "TAF VOBM 251700Z 2518/2603 VRB03KT 6000 SCT015 TEMPO 2600/2603 4000 BR SCT010", "TAF VOBZ 252000Z 2521/2606 09006KT 3000 -TSRA BR SCT015 FEW030CB BKN080 TEMPO 2521/2604 VRB03KT 1500 BR TSRA SCT010 FEW030CB OVC080 BECMG 2604/2606 10008KT 5000 BR HZ SCT015 SCT025", "TAF VOCB 252000Z 2521/2606 VRB02KT 5000 HZ SCT012 SCT080 BECMG 2603/2604 6000", "TAF VOCI 252000Z 2521/2606 10004KT 4000 HZ FEW015 SCT080 TEMPO 2522/2602 30005KT 2500 BR FEW012 SCT080 BECMG 2603/2604 21005KT 5000 HZ SCT015 FEW022TCU", "TAF VOCL 252000Z 2521/2606 20003KT 5000 BR FEW015 SCT080 TEMPO 2522/2602 27010KT 2500 TSRA RA SCT012 FEW025CB BKN080 BECMG 2603/2604 20005KT 6000 FEW015", "TAF VOGO 251700Z 2518/2624 25004KT 6000 FEW030 SCT090 TEMPO 2600/2603 VRB02KT 4500 BR FEW030 FEW090", "TAF VOHB 252000Z 2521/2606 25010KT 6000 SCT015 TEMPO 2600/2603 3000 BR SCT008", "TAF VOHS 252000Z 2521/2606 11008KT 3000 -TSRA BR SCT015 FEW030CB BKN100 TEMPO 2521/2604 VRB03KT 1500 BR TSRA SCT010 FEW030CB OVC080 BECMG 2604/2606 10010KT 5000 BR HZ SCT015 SCT025", "TAF VOKN 252000Z 2521/2606 20004KT 4000 BR SCT012 TEMPO 2522/2602 34005KT 3000 BR SCT012 SCT080 BECMG 2603/2605 23005KT 5000 HZ SCT015", "TAF VOMD 252000Z 2521/2606 VRB02KT 6000 SCT018 BKN100 TEMPO 2521/2603 3000 -DZ/BR SCT018 FEW025TCU/CB BKN100", "TAF VOML 252000Z 2521/2606 09008KT 6000 SCT015 TEMPO 2600/2603 3000 BR SCT008", "TAF VOMM 252000Z 2521/2606 21005KT 5000 BR SCT020 SCT100 TEMPO 2600/2606 3000 -DZ/BR SCT018 FEW025TCU/CB BKN100 BECMG 2603/2604 15010KT", "TAF VORY 252000Z 2521/2606 05003KT 3000 BR SCT020 FEW030CB BKN080 TEMPO 2521/2604 VRB04KT 1500 BR TSRA SCT010 FEW030CB OVC080 BECMG 2604/2606 12008KT 5000 HZ BR SCT020 SCT025", "TAF VOTP 252000Z 2521/2606 21006KT 4000 BR SCT020 BKN100 TEMPO 2600/2604 VRB04KT 3000 BR -TSRA SCT010 FEW030CB BKN080 BECMG 2604/2606 21006KT 5000 HZ SCT020 SCT025", "TAF VOTR 252000Z 2521/2606 12005KT 4000 BR SCT016 SCT100 BECMG 2600/2601 VRB02KT 3000 BR TEMPO 2600/2606 1500 BR SCT016 FEW025TCU/CB BKN100 BECMG 2603/2604 21005KT", "TAF VOTV 252000Z 2521/2606 10004KT 4000 HZ FEW015 SCT080 TEMPO 2522/2602 30010KT 3000 BR SCT015 FEW025TCU SCT080 BECMG 2602/2604 29005KT 4000 TS -RA SCT015 FEW025CB BKN080", "TAF VOVZ 251700Z 2518/2603 21009KT 4000 BR HZ SCT018 SCT080 BECMG 2518/2520 VRB02KT 4000 TEMPO 2523/2602 3000 BR", "TAF VRMG 251700Z 2518/2624 27013KT 9999 SCT017TCU BKN110 TEMPO 2518/2524 2000 TSRA SCT016CB", "TAF VRMH 251700Z 2518/2624 35006KT 9999 FEW018 TEMPO 2518/2524 FEW018CB", "TAF VRMM 251700Z 2518/2624 29007KT 9999 FEW018TCU TEMPO 2518/2524 4000 TSRA SCT017CB", "TAF VTBD 251700Z 2518/2624 12005KT 9999 FEW020 BECMG 2603/2605 19008KT TEMPO 2607/2611 VRB15KT 3000 TSRA FEW018CB SCT030 BKN080 BECMG 2620/2622 12005KT", "TAF VTBO 251700Z 2518/2618 06005KT 7000 -RA FEW020 SCT100 BECMG 2522/2524 00000KT NSW BECMG 2603/2605 22005KT TEMPO 2607/2611 VRB15KT 3000 TSRA FEW018CB SCT022 BKN080", "TAF VTBS 251700Z 2518/2624 14005KT 9999 FEW020 BECMG 2602/2604 20008KT TEMPO 2608/2612 VRB15KT 3000 TSRA FEW018CB SCT030 BKN080 BECMG 2620/2622 14005KT", "TAF VTBU 251700Z 2518/2618 17006KT 6000 FEW020 BECMG 2519/2521 35004KT BECMG 2600/2602 18008KT TEMPO 2606/2611 VRB15KT 3000 TSRA FEW018CB SCT035 BKN100", "TAF VTCC 251700Z 2518/2624 36005KT 9000 FEW035 BECMG 2521/2523 27005KT BECMG 2601/2603 05005KT BECMG 2604/2606 18005KT BECMG 2607/2609 25005KT TEMPO 2609/2615 -TSRA FEW025CB SCT030", "TAF VTCH 251700Z 2518/2618 29005KT 8000 FEW025 TEMPO 2609/2615 -TSRA FEW020CB SCT025", "TAF VTCL 251700Z 2518/2618 13005KT 9999 FEW025 BECMG 2602/2604 27005KT TEMPO 2609/2615 -TSRA FEW020CB SCT025", "TAF VTCN 251700Z 2518/2618 06005KT 8000 FEW025 TEMPO 2609/2615 -TSRA FEW020CB SCT025", "TAF VTCP 251700Z 2518/2618 29005KT 9000 FEW020 TEMPO 2609/2615 -TSRA FEW020CB SCT025", "TAF VTCT 251700Z 2518/2624 28005KT 9000 FEW025 BECMG 2601/2603 10005KT TEMPO 2609/2615 -TSRA FEW018CB BKN025 BECMG 2610/2612 27005KT BECMG 2616/2618 01005KT", "TAF VTPB 251700Z 2518/2618 32005KT 9999 FEW030 TEMPO 2610/2616 -TSRA FEW018CB BKN030", "TAF VTPH 251700Z 2518/2618 24003KT 9999 FEW020 BKN100 TEMPO 2520/2606 VRB15G25KT 3000 TSRA FEW016CB SCT018 BKN100 BECMG 2606/2608 15012KT BECMG 2614/2616 24003KT", "TAF VTPM 251700Z 2518/2618 36005KT 8000 FEW045 BECMG 2520/2522 15005KT BECMG 2604/2606 26005KT BECMG 2607/2609 36005KT TEMPO 2610/2616 -TSRA FEW020CB BKN025", "TAF VTPO 251700Z 2518/2618 13005KT 8000 FEW025 TEMPO 2611/2615 -TSRA FEW018CB SCT025", "TAF VTPP 251700Z 2518/2618 13005KT 7000 FEW030 BECMG 2605/2607 28005KT TEMPO 2610/2616 32010G25KT 4000 TSRA FEW025CB SCT030 BECMG 2611/2613 14005KT", "TAF VTPT 251700Z 2518/2618 15005KT 6000 FEW026 TEMPO 2610/2616 -TSRA FEW020CB BKN024", "TAF VTSB 251700Z 2518/2618 22003KT 8000 FEW020 BKN100 BECMG 2603/2605 05008KT TEMPO 2605/2612 VRB15G25KT 4000 TSRA FEW016CB SCT018 BKN100 BECMG 2613/2615 34003KT", "TAF VTSC 251700Z 2518/2618 18004KT 9999 FEW020 BECMG 2603/2605 08010KT BECMG 2614/2616 18004KT", "TAF VTSE 251700Z 2518/2618 32003KT 8000 FEW020 SCT100 TEMPO 2522/2603 VRB15G25KT 3000 TSRA FEW016CB SCT018 BKN100 BECMG 2603/2605 15008KT PROB40 TEMPO 2605/2610 VRB15G25KT 4000 TSRA FEW016CB SCT018 BKN100 BECMG 2613/2615 32003KT", "TAF VTSF 251700Z 2518/2618 30003KT 8000 FEW020 BECMG 2603/2605 06010KT BECMG 2613/2615 25003KT", "TAF VTSG 251700Z 2518/2618 06005KT 9999 FEW030 BECMG 2520/2522 2000 BR BECMG 2600/2602 9999 NSW TEMPO 2608/2612 -TSRA FEW018CB SCT020 BKN100", "TAF VTSM 251700Z 2518/2618 00000KT 9999 FEW020 TEMPO 2520/2604 VRB15G25KT 4000 TSRA FEW016CB SCT018 BKN100 BECMG 2604/2606 14008KT BECMG 2614/2616 00000KT", "TAF VTSP 251700Z 2518/2624 08005KT 9999 FEW020 BECMG 2604/2606 29006KT TEMPO 2608/2612 -TSRA FEW018CB SCT020 BKN100 BECMG 2612/2614 08005KT", "TAF VTSR 251700Z 2518/2618 24005KT 9999 FEW025", "TAF VTSS 251700Z 2518/2618 25003KT 9999 FEW020 BKN100 BECMG 2604/2606 07012KT BECMG 2614/2616 25003KT", "TAF VTST 251700Z 2518/2618 22005KT 9999 FEW030 BECMG 2520/2522 2000 BR BECMG 2600/2602 9999 NSW", "TAF VTSY 251700Z 2518/2618 00000KT 8000 FEW020 BKN100 BECMG 2521/2523 1500 BR BKN005 BECMG 2604/2606 05006KT 9999 NSW FEW020 TEMPO 2606/2613 VRB15G25KT 3000 TSRA FEW016CB SCT018 BKN100 BECMG 2613/2615 00000KT", "TAF VTUD 251700Z 2518/2618 12005KT 8000 FEW030 ", "TAF VTUI 251700Z 2518/2618 11005KT 8000 FEW030", "TAF VTUK 251700Z 2518/2618 10005KT 8000 FEW030 ", "TAF VTUL 251700Z 2518/2618 19005KT 7000 FEW030 ", "TAF VTUO 251700Z 2518/2618 07005KT 8000 FEW035", "TAF VTUQ 251700Z 2518/2618 07005KT 9000 FEW035 TEMPO 2609/2611 VRB15KT 4000 TSRA FEW020CB SCT035", "TAF VTUU 251700Z 2518/2618 05005KT 9000 FEW040 TEMPO 2523/2601 VRB15KT 4000 TSRA FEW020CB SCT035", "TAF VTUV 251700Z 2518/2618 07005KT 9000 FEW035", "TAF VTUW 251700Z 2518/2618 11005KT 8000 FEW030", "TAF VVCI 251700Z 2518/2618 04005KT 9999 BKN040", "TAF VVCR 251700Z 2518/2618 34007KT 9999 FEW015 SCT060 BECMG 2602/2603 05014KT BECMG 2614/2615 35008KT", "TAF VVCT 251700Z 2518/2618 VRB03KT 9999 SCT017 BECMG 2500/2501 10010KT", "TAF VVDN 251700Z 2518/2618 02007KT 8000 SCT015 BKN050 TEMPO 2520/2604 4000 RA BR SCT008 BKN050", "TAF VVNB 251700Z 2518/2618 30004KT 8000 BKN040", "TAF VVPB 251700Z 2518/2618 35008KT 8000 SCT013 BKN040 TEMPO 2518/2521 4000 SHRA SCT010 FEW015CB BKN040 TEMPO 2521/2601 2800 RA BR SCT006 SCT010 BKN040 TEMPO 2601/2608 4000 RA BR TEMPO 2616/2618 4000 RA BR", "TAF VVPQ 251700Z 2518/2618 VRB03KT 9999 SCT017 BECMG 2500/2501 11010KT", "TAF VVTS 251700Z 2518/2624 14008KT 9999 SCT020", "TAF VVVD 251700Z 2518/2618 06005KT 9999 BKN040", "TAF VYMD 251700Z 2518/2618 27007KT 7000 SCT025 TEMPO 2518/2524 18010KT 6000 SCT020 SCT120 ", "TAF VYNT 251100Z 2512/2612 24007KT 7000 FEW020 SCT120 TEMPO 2512/2518 24007KT 6000 FEW020 SCT120", "TAF VYYY 251700Z 2518/2618 27005KT 8000 FEW020 TEMPO 2518/2523 6000 HZ", "TAF WAAA 251700Z 2518/2624 09004KT 8000 FEW019 BECMG 2601/2603 31010KT", "TAF WABB 251700Z 2518/2700 05006KT 9999 SCT018 TEMPO 2518/2522 5000 RA", "TAF AMD WADD 251800Z 2518/2618 11010KT 9999 SCT016 TEMPO 2919/2923 5000 TSRA FEW014CB BKN015", "TAF WADL 251700Z 2518/2618 10005KT 7000 SCT016 PROB40 TEMPO 2521/2523 3000 BR", "TAF WALL 251700Z 2518/2624 33001KT 9999 FEW020", "TAF WALS 251700Z 2518/2606 36001KT 5000 BR FEW018 BECMG 2600/2602 9999 NSW", "TAF WAMM 251700Z 2518/2624 VRB03KT 9999 SCT020 BECMG 2601/2602 34008KT", "TAF WAOO 251700Z 2518/2618 09006KT 9000 SCT017 PROB40 TEMPO 2520/2524 4000 RA", "TAF WAPP 251700Z 2518/2618 36008KT 9999 SCT017 BECMG 2523/2601 21006KT", "TAF WAQA 251700Z 2518/2606 32002KT 7000 FEW012 TEMPO 2518/2522 6000 RA SCT013", "TAF WAQD 251700Z 2518/2606 00000KT 8000 SCT015 BECMG 2600/2602 9999", "TAF WAQJ 251700Z 2518/2606 00000KT 6000 SCT015 BECMG 2600/2602 9999", "TAF WAQQ 251700Z 2518/2606 00000KT 8000 FEW015 TEMPO 2518/2522 6000 RA SCT013", "TAF WAQT 251700Z 2518/2606 VRB01KT 9999 FEW015", "TAF WARR 251700Z 2518/2618 12005KT 8000 FEW020", "TAF WATT 251700Z 2518/2618 12004KT 8000 FEW019 BECMG 2600/2602 10015KT BKN016 PROB40 2605/2608 4000 RA BECMG 2612/2614 13004KT", "TAF WBGB 251700Z 2518/2618 13005KT 9999 FEW016 TEMPO 2603/2607 32010KT 3000 TSRA FEW015CB SCT016 TEMPO 2608/2612 5000 RA SCT016", "TAF WBGG 251700Z 2518/2618 13005KT 9999 FEW020 TEMPO 2603/2607 26010KT 3000 TSRA FEW015CB SCT020 TEMPO 2608/2612 5000 RA SCT016", "TAF WBGR 251700Z 2518/2618 VRB03KT 9999 SCT016 TEMPO 2518/2522 5000 RA FEW005 SCT014 TEMPO 2604/2608 32010KT 3000 TSRA FEW015CB SCT016", "TAF WBGS 251700Z 2518/2618 13005KT 9999 SCT018 TEMPO 2603/2607 34010KT 3000 TSRA FEW015CB SCT016 TEMPO 2608/2612 5000 RA SCT016", "TAF WBKK 251700Z 2518/2618 12005KT 9999 FEW014 BECMG 2601/2603 33007KT TEMPO 2606/2610 5000 TSRA FEW010 FEW016CB SCT035", "TAF WBKL 251700Z 2518/2618 VRB03KT 9999 FEW014", "TAF WBKS 251700Z 2518/2618 VRB03KT 9999 FEW015 TEMPO 2602/2604 05007KT", "TAF WBKW 251700Z 2518/2618 VRB03KT 9999 FEW016 PROB30 TEMPO 2604/2608 13007KT 5000 TSRA FEW015CB SCT016", "TAF WBSB 251650Z 2518/2700 05002KT 9999 FEW004 FEW015CB TEMPO 2519/2523 5000 SHRA BECMG 2600/2602 13002KT SCT014 FEW015CB TEMPO 2604/2608 5000 TSRA", "TAF WIDD 251700Z 2518/2618 VRB03KT 9000 FEW014", "TAF WIEE 251700Z 2518/2618 05003KT 9999 SCT020", "TAF WIHH 251700Z 2518/2618 12003KT 5000 HZ FEW022 BECMG 2600/2602 04008KT 6000", "TAF WIII 251700Z 2518/2624 VRB02KT 7000 FEW020 BECMG 2518/2520 5000 HZ BECMG 2600/2602 04010KT 9000 NSW", "TAF WIMM 251700Z 2518/2618 VRB05KT 3000 HZ SCT018 BECMG 2602/2604 36010KT 9999 NSW BECMG 2609/2611 VRB03KT 5000 HZ", "TAF WIPP 251700Z 2518/2618 13007KT 9999 SCT010 TEMPO 2521/2524 3000 BR", "TAF WITT 251700Z 2518/2618 15005KT 9999 SCT018 BECMG 2604/2606 31006KT", "TAF WMAP 251700Z 2518/2618 VRB02KT 9000 FEW025 TEMPO 2604/2608 4000 TSRA FEW017CB SCT018", "TAF WMBT 251700Z 2518/2618 05005KT 9999 FEW025", "TAF WMKA 251700Z 2518/2618 VRB02KT 9999 FEW030 PROB30 TEMPO 2606/2610 6000 TSRA FEW010 FEW017CB", "TAF WMKB 251700Z 2518/2618 09003KT 8000 FEW024 BECMG 2603/2605 28010KT TEMPO 2608/2612 5000 TSRA FEW017CB", "TAF WMKC 251700Z 2518/2618 VRB02KT 9999 FEW020", "TAF WMKE 251700Z 2518/2618 VRB02KT 9999 FEW020", "TAF WMKI 251700Z 2518/2618 05005KT 8000 FEW025 TEMPO 2608/2612 22008KT 5000 TSRA FEW017CB", "TAF WMKJ 251700Z 2518/2618 VRB02KT 9000 FEW010 TEMPO 2604/2608 5000 TSRA FEW017CB SCT018", "TAF WMKK 251700Z 2518/2700 VRB02KT 9999 FEW010 TEMPO 2607/2612 23010KT 5000 TSRA FEW017CB SCT028", "TAF WMKL 251700Z 2518/2618 VRB02KT 9999 FEW026 BECMG 2604/2606 25006KT FEW020 PROB30 TEMPO 2608/2612 6000 TSRA FEW010 FEW017CB", "TAF WMKM 251700Z 2518/2618 VRB03KT 9999 FEW010 TEMPO 2606/2610 4000 TSRA FEW017CB SCT018", "TAF WMKN 251700Z 2518/2618 VRB02KT 9999 FEW022 TEMPO 2518/2522 5000 TSRA FEW017CB", "TAF WMKP 251700Z 2518/2618 00000KT 8000 FEW012 FEW017CB BECMG 2604/2606 24007KT 9999 FEW020 TEMPO 2609/2612 5000 TSRA FEW010 FEW017CB", "TAF WMPA 250500Z 2506/2606 VRB02KT 9999 FEW021 TEMPO 2508/2511 28007KT 6000 TSRA FEW017CB", "TAF WMSA 251700Z 2518/2618 VRB02KT 9999 FEW026 TEMPO 2607/2611 28010KT 5000 TSRA FEW017CB SCT026", "TAF WPDL 251706Z 2518/2606 16005KT 9999 SCT025 FM260100 01007KT 9999 SCT025 PROB30 TEMPO 2603/2606 VRB20G35KT 1000 TSRA BKN010 SCT025CB", "TAF WSAP 251700Z 2518/2700 04006KT 9999 FEW015 SCT020 TEMPO 2605/2608 3000 TSRA FEW012CB BKN015", "TAF WSSL 251700Z 2518/2700 04006KT 9999 FEW015 SCT020 TEMPO 2605/2608 3000 TSRA FEW012CB BKN015", "TAF WSSS 251700Z 2518/2700 04006KT 9999 FEW015 SCT020 TEMPO 2605/2608 3000 TSRA FEW012CB BKN015", "TAF AMD YAMB 251854Z 2518/2618 17007KT 9999 -SHRA SCT025 BKN035 FM252200 14012KT 9999 -SHRA SCT030 BKN045 FM260900 17007KT 9999 -SHRA SCT020 BKN030 INTER 2518/2609 VRB15G25KT 4000 SHRA BKN015", "TAF YBAS 251716Z 2518/2618 04005KT CAVOK FM252300 36012KT CAVOK FM260600 02008KT CAVOK", "TAF YBBN 252009Z 2521/2700 19008KT 9999 -SHRA FEW025 BKN035 FM260000 12013KT 9999 -SHRA FEW025 BKN035 FM260900 19007KT 9999 -SHRA SCT020 BKN030 INTER 2521/2700 5000 SHRA BKN015", "TAF YBCG 252001Z 2521/2618 17008KT 9999 -SHRA SCT025 FM252300 14014KT 9999 -SHRA SCT035 FM260700 19008KT 9999 -SHRA SCT025 INTER 2521/2618 3000 SHRA BKN010", "TAF YBCS 252009Z 2521/2618 17010KT 9999 -SHRA SCT025 BKN030 FM260000 14016KT 9999 NSW FEW030 FM260900 17005KT 9999 SCT020 INTER 2521/2600 15015G25KT 7000 -SHRA FEW008 SCT015 BKN020", "TAF AMD YBHM 252042Z 2520/2606 14025KT 9999 -SHRA BKN015 FM260300 14025KT 9999 -SHRA SCT015 BKN020 INTER 2520/2606 13030G40KT 4000 SHRA BKN012 TEMPO 2520/2603 9999 BKN013", "TAF YBLN 251708Z 2518/2618 23010KT 9999 SCT030 FM260300 26014KT 9999 BKN040 FM261200 25010KT 9999 -SHRA FEW020 BKN035", "TAF YBMA 251640Z 2518/2606 VRB03KT CAVOK FM252300 08012KT 9999 SCT050", "TAF YBRK 251701Z 2518/2618 13006KT CAVOK FM252300 10012KT 9999 FEW040 FM260900 13008KT CAVOK", "TAF AMD YBRM 252022Z 2520/2618 VRB03KT 0600 FG SCT001 FM252300 18005KT CAVOK FM260400 25010KT CAVOK FM261500 20007KT CAVOK", "TAF YBSU 251701Z 2518/2618 19010KT 9999 -SHRA SCT025 FM252300 14016G26KT 9999 -SHRA SCT035 FM260900 15016KT 9999 -SHRA SCT025 FM261400 19010KT 9999 -SHRA SCT025 INTER 2518/2618 4000 SHRA BKN010", "TAF YBTL 251701Z 2518/2618 20008KT 9999 FEW025 FM252300 15012KT 9999 SCT025 FM260100 09016KT 9999 -SHRA SCT030 FM260900 13010KT 9999 NSW SCT025 FM261500 20005KT 9999 SCT020 BKN025", "TAF YBWW 251703Z 2518/2618 15004KT 9999 SCT018 FM252200 11012KT 9999 -SHRA SCT020 FM260200 11014KT 9999 NSW SCT040 FM260800 09009KT 9999 FEW025 FM261200 15004KT 9999 SCT025", "TAF YCFS 251705Z 2518/2618 26005KT 9999 -SHRA BKN030 BKN045 FM260200 14010KT 9999 NSW SCT035 FM260900 VRB03KT 9999 -SHRA SCT030 INTER 2518/2522 3000 SHRA BKN025 INTER 2606/2612 3000 SHRA BKN025", "TAF YCIN 251903Z 2520/2608 22005KT CAVOK FM260000 14007KT CAVOK", "TAF YFRT 251927Z 2520/2608 26014KT 9999 -SHRA FEW030 SCT050 FM260000 28016G28KT CAVOK PROB30 INTER 2520/2600 VRB20G30KT 5000 TSRA SCT010 SCT040CB", "TAF YGEL 251708Z 2518/2612 22010KT 9999 FEW040 FM252100 18014KT 9999 SCT045 FM260600 18010KT CAVOK", "TAF YGLA 251703Z 2518/2606 15009KT CAVOK FM252300 13015KT 9999 FEW035 FM260400 10016G26KT 9999 FEW045", "TAF AMD YHID 251702Z 2518/2618 14014KT 9999 -SHRA SCT018 FM252300 12025KT 9999 -SHRA SCT020 FM261100 15020KT 9999 -SHRA SCT015 INTER 2518/2602 14025G35KT 2000 SHRA BKN008 SCT020 INTER 2611/2618 14020G30KT 4000 SHRA SCT008 BKN015 PROB30 INTER 2518/2600 VRB25G35KT 1000 TSRA BKN005 SCT020CB", "TAF AMD YLHI 251921Z 2519/2618 11016KT 9999 SCT035 BKN050 FM252000 12016G26KT 9999 -SHRA SCT035 BKN050", "TAF YMAV 251713Z 2518/2618 VRB05KT CAVOK FM260100 02010KT CAVOK", "TAF YMHB 252019Z 2521/2618 33008KT CAVOK FM260500 14008KT CAVOK BECMG 2607/2608 35008KT CAVOK", "TAF YMLT 251709Z 2518/2618 20004KT 0200 FG BKN001 FM252200 VRB04KT 9999 NSW FEW004 FM260000 34008KT CAVOK FM261600 34008KT 9999 FEW012", "TAF YMML 252005Z 2521/2700 01014KT CAVOK FM252330 01015G27KT CAVOK FM260400 02014KT CAVOK FM261500 02015G25KT CAVOK FM262100 01020G35KT CAVOK", "TAF YPAD 252021Z 2521/2700 03014KT CAVOK FM261200 01014KT 9999 -SHRA SCT045 FM261800 34010KT 9999 -SHRA SCT015 BKN030 INTER 2615/2621 5000 SHRA BKN015", "TAF YPCC 251713Z 2518/2618 13018KT 9999 SCT015 BKN040 INTER 2600/2618 3000 SHRA BKN015", "TAF YPDN 252020Z 2521/2700 10008KT 9999 SCT020 FM260000 10016KT 9999 FEW030 FM260700 03010KT 9999 FEW040 FM261200 07006KT 9999 SCT015", "TAF AMD YPEA 251701Z 2518/2612 25012KT 9999 -SHRA FEW015 BKN030 FM260000 24012KT 9999 NSW SCT035 INTER 2518/2600 25015G28KT 4000 SHRA SCT012 BKN020", "TAF AMD YPGV 251921Z 2519/2608 11008KT 9999 SCT020 FM260000 11014KT 9999 SCT025 INTER 2519/2604 11015G25KT 2000 SHRA BKN010 PROB30 TEMPO 2519/2604 VRB20G35KT 1000 TSRA BKN010 SCT025CB", "TAF AMD YPJT 251700Z 2518/2612 23012KT 9999 -SHRA FEW025 SCT035 FM260000 24012KT 9999 NSW SCT035 INTER 2518/2521 26015G25KT 4000 SHRA SCT012 BKN020", "TAF YPKG 251709Z 2518/2618 28010KT CAVOK FM252100 28010KT 9999 SCT020 FM260000 26018G28KT 9999 FEW040 FM260800 24012KT CAVOK", "TAF YPKU 251846Z 2520/2608 VRB03KT CAVOK FM260000 08008KT CAVOK", "TAF YPLM 251714Z 2518/2618 19013KT CAVOK FM260000 16014KT CAVOK FM261200 19014KT CAVOK", "TAF YPPD 251716Z 2518/2618 36005KT CAVOK FM252100 19005KT CAVOK FM260000 15007KT CAVOK FM260400 36008KT CAVOK FM261200 30005KT 9999 SCT010", "TAF YPPH 252026Z 2521/2700 22008KT 9999 -SHRA FEW025 SCT035 FM260000 24012KT 9999 NSW SCT035 FM261200 25008KT 9999 -SHRA FEW025 SCT035", "TAF AMD YPTN 252018Z 2520/2618 10012KT 9999 SCT015 FM260100 10012KT CAVOK FM261000 09005KT CAVOK", "TAF YPWR 251708Z 2518/2612 06011KT CAVOK FM260000 01018G28KT CAVOK FM260900 01016KT CAVOK", "TAF YPXM 251718Z 2518/2618 12008KT 9999 -SHRA BKN005 FM260100 09008KT 9999 -SHRA BKN008 FM261200 12008KT 9999 -SHRA BKN005 TEMPO 2518/2601 2000 SHRA BKN003 TEMPO 2601/2612 3000 SHRA BKN005 TEMPO 2612/2618 2000 SHRA BKN003", "TAF AMD YSCB 252030Z 2521/2618 VRB03KT 9999 SCT020 FM252200 06005KT 9999 SCT020 FM260200 02008KT CAVOK FM260800 09005KT CAVOK FM261400 VRB03KT 9999 FEW020 PROB30 2521/2522 0500 FG SCT001 PROB30 2615/2618 0500 FG NSC", "TAF YSDU 251712Z 2518/2612 10008KT CAVOK FM252300 07012KT CAVOK FM260500 08008KT CAVOK", "TAF YSNF 251705Z 2518/2618 11014KT 9999 -SHRA SCT030 BKN050 BECMG 2520/2522 12017G27KT 9999 -SHRA SCT030 BKN050", "TAF AMD YSRI 251944Z 2519/2618 32004KT 0100 FG BKN010 FM252200 32004KT 9999 NSW FEW030 FM260300 05008KT 9999 SCT030", "TAF YSSY 252009Z 2521/2700 32006KT 9999 SCT045 FM260300 04017KT 9999 SCT050 FM261500 02012KT 9999 SCT020", "TAF YSTW 251712Z 2518/2612 14008KT CAVOK FM260200 07008KT CAVOK", "TAF ZBAA 251500Z 2518/2618 18004MPS CAVOK TX21/2607Z TN04/2521Z", "TAF ZBAD 251500Z 2518/2618 35004MPS 5000 BR NSC TX20/2607Z TN04/2521Z BECMG 2602/2603 18005MPS", "TAF ZBHH 251500Z 2518/2618 08004MPS CAVOK TX20/2607Z TN01/2522Z BECMG 2602/2604 26007G13MPS TEMPO 2606/2610 FEW040CB FEW040", "TAF ZBSJ 251502Z 2518/2618 15003MPS 5000 HZ NSC TX20/2606Z TN06/2522Z", "TAF ZBTJ 251501Z 2518/2618 20004MPS 5000 HZ NSC TX20/2606Z TN06/2521Z BECMG 2605/2606 14006MPS BECMG 2616/2617 20004MPS", "TAF ZBYN 251501Z 2518/2618 23004MPS 5000 HZ NSC TX21/2607Z TN03/2521Z", "TAF ZGGG 251508Z 2518/2618 34004MPS 8000 FEW040 TX23/2607Z TN15/2522Z", "TAF ZGHA 251503Z 2518/2618 17003MPS 2000 BR SCT040 TX24/2607Z TN08/2522Z BECMG 2519/2520 0400 FG BKN002 BECMG 2600/2601 1400 BR BECMG 2601/2602 3500 SCT040", "TAF ZGKL 251502Z 2518/2618 05003MPS 5000 BR SCT050 TX25/2607Z TN11/2522Z TEMPO 2519/2601 0700 FG", "TAF ZGNN 251507Z 2518/2618 03003MPS 5000 BR SCT033 TX27/2607Z TN16/2522Z", "TAF ZGOW 251503Z 2518/2618 09003MPS 5000 BR SCT020 BKN033 TX26/2606Z TN19/2522Z", "TAF ZGSZ 251510Z 2518/2618 36004MPS 8000 BKN030 TX25/2606Z TN19/2522Z BECMG 2610/2612 10004MPS", "TAF ZHCC 251509Z 2518/2618 18004MPS 5000 HZ NSC TX23/2607Z TN09/2522Z", "TAF ZHHH 251504Z 2518/2618 22003MPS 3000 BR NSC TX23/2607Z TN09/2522Z", "TAF ZJHK 251513Z 2518/2618 05004MPS 5000 BR BKN010 BKN020 TX26/2606Z TN22/2521Z BECMG 2603/2604 BKN020 BECMG 2613/2614 BKN010 BKN020", "TAF ZJSY 251508Z 2518/2618 09004MPS 9999 FEW020 BKN050 TX31/2606Z TN25/2521Z TEMPO 2518/2524 SCT016 FEW025CB BKN040 TEMPO 2607/2613 -TSRA SCT015 FEW026CB BKN030", "TAF ZLLL 251513Z 2518/2618 35003MPS 6000 NSC TX17/2607Z TN01/2523Z BECMG 2604/2605 06007MPS TEMPO 2612/2618 -SHRA FEW033CB", "TAF ZLXY 251502Z 2518/2618 06004MPS 5000 HZ NSC TX25/2608Z TN09/2522Z", "TAF ZMCK 251640Z 2518/2624 VRB02MPS 9999 BKN033 TNM00/2523Z TX07/2607Z BECMG 2601/2603 28013G18MPS 6000 RA FEW027CB BKN030 BECMG 2608/2611 31009MPS BECMG 2614/2616 VRB02MPS SNRA", "TAF ZMUB 251640Z 2518/2624 VRB02MPS 9999 BKN033 TNM02/2523Z TX07/2607Z BECMG 2601/2603 28008MPS 6000 RA FEW027CB BKN030 BECMG 2605/2607 32011G16MPS BECMG 2611/2613 VRB02MPS SNRA", "TAF ZPPP 251515Z 2518/2618 22004MPS 9999 SCT023 BKN036 TX22/2608Z TN10/2523Z BECMG 2606/2607 22010G17MPS BECMG 2612/2613 22005MPS", "TAF AMD ZSAM 251804Z 2518/2618 06004G10MPS 3500 BR BKN008 OVC020 TX22/2606Z TN19/2521Z BECMG 2600/2601 5000 SCT010 OVC023", "TAF ZSFZ 251510Z 2518/2618 04004MPS 6000 BKN010 TX20/2606Z TN15/2521Z BECMG 2601/2602 BKN015", "TAF ZSHC 251503Z 2518/2618 36003MPS 3000 BR SCT030 TX23/2606Z TN10/2521Z", "TAF ZSNB 251506Z 2518/2618 33004MPS 3500 BR SCT030 TX23/2606Z TN11/2521Z BECMG 2610/2611 16005MPS", "TAF ZSNJ 251503Z 2518/2618 27003MPS 3000 BR NSC TX22/2606Z TN10/2521Z", "TAF ZSOF 251500Z 2518/2618 17003MPS 5000 BR NSC TX23/2606Z TN08/2521Z", "TAF ZSPD 251505Z 2518/2618 32004MPS 6000 BKN015 TX22/2606Z TN12/2521Z BECMG 2610/2611 10004MPS", "TAF ZSQD 251503Z 2518/2618 33003MPS 6000 NSC TX20/2606Z TN06/2521Z BECMG 2606/2607 18005MPS", "TAF ZSSS 251504Z 2518/2618 32004MPS 6000 BKN015 TX23/2606Z TN12/2521Z BECMG 2609/2610 10004MPS", "TAF ZUCK 251503Z 2518/2618 03003MPS 5000 BR SCT040 TX26/2608Z TN14/2522Z", "TAF ZUGY 251503Z 2518/2618 18003MPS 6000 BKN033 TX20/2607Z TN07/2522Z", "TAF ZUUU 251501Z 2518/2618 20003MPS 6000 FEW050 TX26/2607Z TN14/2523Z", "TAF ZWSH 251509Z 2518/2618 33006MPS 8000 FEW033CB BKN040 TX25/2609Z TN15/2600Z BECMG 2602/2603 04004MPS", "TAF ZWWW 251508Z 2518/2618 16004MPS CAVOK TX19/2609Z TN08/2523Z BECMG 2602/2603 33004G09MPS BECMG 2614/2615 16004MPS", "TAF ZYCC 251516Z 2518/2618 32004MPS 6000 SCT030 TX12/2606Z TNM03/2521Z TEMPO 2520/2524 2000 BR BECMG 2605/2607 22005MPS", "TAF ZYHB 251511Z 2518/2618 27003MPS 3000 BR SCT030 TX14/2606Z TNM04/2520Z TEMPO 2519/2523 1400 BECMG 2600/2602 21006MPS", "TAF ZYTL 251508Z 2518/2618 31004MPS 6000 NSC TX16/2606Z TN07/2522Z BECMG 2613/2614 18005MPS", "TAF AMD ZYTX 251843Z 2518/2618 34005MPS 6000 NSC TX16/2606Z TN02/2518Z TEMPO 2518/2521 -SN BECMG 2605/2606 22004MPS"]}