{"station_id": ["AGGA", "AGGC", "AGGH", "AGGK", "AGGL", "AGGM", "AGGN", "AGGR", "ANYN", "AYPY", "BGAA", "BGBW", "BGCO", "BGGH", "BGJN", "BGKK", "BGMQ", "BGPT", "BGQQ", "BGSF", "BGSS", "BGTL", "BGUK", "BGUQ", "BIAR", "BIBD", "BIEG", "BIGJ", "BIHN", "BIHU", "BIIS", "BIKF", "BIRK", "BITN", "BIVM", "BIVO", "BKPR", "CWSA", "CWWU", "CYAH", "CYAM", "CYAT", "CYAW", "CYAY", "CYBC", "CYBG", "CYBK", "CYBR", "CYBW", "CYBX", "CYCA", "CYCB", "CYCO", "CYCX", "CYCY", "CYDB", "CYDF", "CYDL", "CYDN", "CYDP", "CYEG", "CYEK", "CYEN", "CYER", "CYEU", "CYEV", "CYFB", "CYFC", "CYFS", "CYGK", "CYGL", "CYGP", "CYGQ", "CYGR", "CYGV", "CYGW", "CYGX", "CYHD", "CYHK", "CYHM", "CYHU", "CYHY", "CYHZ", "CYIO", "CYIV", "CYJT", "CYKA", "CYKF", "CYKJ", "CYKL", "CYLD", "CYLL", "CYLW", "CYMA", "CYMH", "CYMJ", "CYMM", "CYMO", "CYMT", "CYMX", "CYNA", "CYNE", "CYOD", "CYOJ", "CYOO", "CYOW", "CYPA", "CYPE", "CYPH", "CYPL", "CYPQ", "CYPR", "CYPX", "CYPY", "CYQA", "CYQB", "CYQD", "CYQF", "CYQG", "CYQH", "CYQI", "CYQK", "CYQL", "CYQM", "CYQQ", "CYQR", "CYQT", "CYQU", "CYQV", "CYQW", "CYQX", "CYQY", "CYQZ", "CYRB", "CYRJ", "CYRL", "CYRQ", "CYRT", "CYSB", "CYSC", "CYSF", "CYSJ", "CYSM", "CYTE", "CYTH", "CYTL", "CYTR", "CYTS", "CYTZ", "CYUL", "CYUX", "CYUY", "CYVC", "CYVM", "CYVO", "CYVP", "CYVQ", "CYVR", "CYVV", "CYWG", "CYWK", "CYWL", "CYXC", "CYXE", "CYXH", "CYXJ", "CYXL", "CYXR", "CYXS", "CYXT", "CYXU", "CYXX", "CYXY", "CYYB", "CYYC", "CYYE", "CYYF", "CYYG", "CYYH", "CYYJ", "CYYL", "CYYN", "CYYQ", "CYYR", "CYYT", "CYYU", "CYYY", "CYYZ", "CYZE", "CYZF", "CYZH", "CYZP", "CYZR", "CYZS", "CYZT", "CYZV", "CYZX", "CZBF", "CZMD", "CZSJ", "CZUM", "CZVL", "DAAD", "DAAE", "DAAG", "DAAJ", "DAAP", "DAAS", "DAAT", "DAAV", "DAAY", "DABB", "DABC", "DABS", "DABT", "DAFH", "DAOB", "DAOF", "DAOI", "DAON", "DAOO", "DAOR", "DAOV", "DATM", "DAUA", "DAUB", "DAUG", "DAUH", "DAUI", "DAUK", "DAUL", "DAUO", "DAUT", "DAUU", "DAUZ", "DBBB", "DFFD", "DFOO", "DGAA", "DGLE", "DGSI", "DIAP", "DIBK", "DIYO", "DNAA", "DNAK", "DNBE", "DNGO", "DNIB", "DNIL", "DNJO", "DNKA", "DNKN", "DNKT", "DNMA", "DNMM", "DNSO", "DNSU", "DNYO", "DRRN", "DRZA", "DRZR", "DTKA", "DTMB", "DTNH", "DTTA", "DTTB", "DTTF", "DTTG", "DTTJ", "DTTR", "DTTX", "DTTZ", "DXNG", "DXXX", "EBAW", "EBBL", "EBBR", "EBCI", "EBLG", "EBOS", "EDAC", "EDAH", "EDBC", "EDDB", "EDDC", "EDDE", "EDDF", "EDDG", "EDDH", "EDDK", "EDDL", "EDDM", "EDDN", "EDDP", "EDDR", "EDDS", "EDDV", "EDDW", "EDFH", "EDFM", "EDGS", "EDHI", "EDHK", "EDHL", "EDJA", "EDLN", "EDLP", "EDLV", "EDLW", "EDMA", "EDMO", "EDNY", "EDQM", "EDSB", "EDTL", "EDTY", "EDVE", "EDVK", "EDWE", "EDXW", "EEEI", "EETN", "EFHA", "EFHK", "EFIV", "EFJO", "EFJY", "EFKE", "EFKI", "EFKK", "EFKS", "EFKT", "EFKU", "EFMA", "EFOU", "EFPO", "EFRO", "EFSI", "EFTP", "EFTU", "EFUT", "EFVA", "EGAA", "EGAC", "EGAE", "EGBB", "EGBJ", "EGCC", "EGCK", "EGDM", "EGDR", "EGDY", "EGEC", "EGEO", "EGFF", "EGGD", "EGGP", "EGGW", "EGHC", "EGHE", "EGHH", "EGHI", "EGHQ", "EGJA", "EGJB", "EGJJ", "EGKA", "EGKB", "EGKK", "EGLC", "EGLF", "EGLL", "EGMC", "EGMD", "EGNH", "EGNJ", "EGNM", "EGNO", "EGNR", "EGNS", "EGNT", "EGNV", "EGNX", "EGOS", "EGOV", "EGOW", "EGPA", "EGPB", "EGPC", "EGPD", "EGPE", "EGPF", "EGPH", "EGPI", "EGPK", "EGPL", "EGPN", "EGPO", "EGPU", "EGQL", "EGQS", "EGSC", "EGSH", "EGSS", "EGSY", "EGTC", "EGTE", "EGTK", "EGUB", "EGUL", "EGUN", "EGUW", "EGVA", "EGVN", "EGVO", "EGVP", "EGWC", "EGWU", "EGXC", "EGXE", "EGXT", "EGXW", "EGYD", "EGYE", "EGYM", "EGYP", "EHAM", "EHBK", "EHEH", "EHGG", "EHGR", "EHKD", "EHLE", "EHLW", "EHRD", "EHVK", "EHWO", "EICK", "EIDL", "EIDW", "EIKN", "EIKY", "EIME", "EINN", "EISG", "EIWF", "EKAH", "EKBI", "EKCH", "EKEB", "EKGC", "EKHD", "EKKA", "EKOD", "EKRK", "EKRN", "EKSB", "EKSP", "EKVD", "EKVG", "EKVJ", "EKYT", "ELLX", "ENAL", "ENAN", "ENAT", "ENBN", "ENBO", "ENBR", "ENBS", "ENCN", "ENDU", "ENEV", "ENFL", "ENGC", "ENGM", "ENHD", "ENHE", "ENHF", "ENHK", "ENHV", "ENKB", "ENKR", "ENLE", "ENMH", "ENML", "ENMS", "ENNA", "ENNE", "ENNM", "ENNO", "ENOA", "ENOL", "ENOV", "ENRA", "ENRO", "ENRS", "ENRY", "ENSB", "ENSD", "ENSK", "ENSO", "ENSR", "ENSS", "ENTC", "ENTO", "ENVA", "ENVD", "ENZV", "EPBY", "EPCE", "EPDA", "EPDE", "EPGD", "EPIR", "EPKK", "EPKS", "EPKT", "EPLB", "EPLK", "EPLL", "EPLY", "EPMB", "EPMI", "EPMM", "EPMO", "EPOK", "EPPO", "EPPR", "EPPW", "EPRA", "EPRZ", "EPSC", "EPSN", "EPSY", "EPTM", "EPWA", "EPWR", "EPZG", "ESCF", "ESCM", "ESDF", "ESGG", "ESGJ", "ESGP", "ESGT", "ESIA", "ESIB", "ESKN", "ESMK", "ESMQ", "ESMS", "ESMT", "ESMX", "ESNG", "ESNO", "ESNQ", "ESNS", "ESNU", "ESNX", "ESOE", "ESOK", "ESOW", "ESPA", "ESPE", "ESSA", "ESSB", "ESSD", "ESSL", "ESSP", "ESSV", "ESTA", "ESTL", "ETAD", "ETAR", "ETEB", "ETHA", "ETHB", "ETHC", "ETHF", "ETHL", "ETHN", "ETHS", "ETIC", "ETIK", "ETMN", "ETNG", "ETNH", "ETNL", "ETNW", "ETOU", "ETSH", "ETSI", "ETSL", "ETSN", "EVGA", "EVLA", "EVRA", "EVVA", "EYKA", "EYPA", "EYSA", "EYVI", "FABL", "FACT", "FAEL", "FAGG", "FAHS", "FAKM", "FAKN", "FALA", "FALE", "FAMM", "FAOR", "FAPE", "FAPM", "FAPP", "FARB", "FAUP", "FAUT", "FAWB", "FBKE", "FBSK", "FCBB", "FCPP", "FEFF", "FGBT", "FGSL", "FHAW", "FIMP", "FIMR", "FJDG", "FKKD", "FKKL", "FKKR", "FKYS", "FLCP", "FLHN", "FLKK", "FLKS", "FLMA", "FLMF", "FLSK", "FLSW", "FMCH", "FMCZ", "FMEE", "FMEP", "FMMI", "FMMS", "FMMT", "FMNA", "FMNM", "FMNN", "FMSD", "FMST", "FNBG", "FNCA", "FNCT", "FNDU", "FNGI", "FNHU", "FNKU", "FNLU", "FNMA", "FNME", "FNMO", "FNSA", "FNSO", "FNUB", "FNUE", "FOOG", "FOOL", "FQBR", "FQCH", "FQIN", "FQLC", "FQMA", "FQNC", "FQNP", "FQPB", "FQQL", "FQTT", "FQVL", "FQXA", "FSIA", "FTTJ", "FVJN", "FVRG", "FWCL", "FWKI", "FYGF", "FYKM", "FYLZ", "FYRU", "FYWB", "FYWE", "FYWH", "FZAA", "FZIC", "FZNA", "FZQA", "GABS", "GAGO", "GBYD", "GCFV", "GCGM", "GCHI", "GCLA", "GCLP", "GCRR", "GCTS", "GCXO", "GECE", "GEML", "GFLL", "GGOV", "GLRB", "GMAD", "GMAG", "GMFF", "GMFK", "GMFM", "GMFO", "GMME", "GMMH", "GMMI", "GMML", "GMMN", "GMMW", "GMMX", "GMMZ", "GMTA", "GMTT", "GOBD", "GOGS", "GOOY", "GOSS", "GQNO", "GQPP", "GUCY", "GVAC", "GVBA", "GVNP", "GVSV", "HAAB", "HADR", "HBBA", "HCMM", "HDAM", "HEAL", "HEAR", "HEAT", "HEAX", "HEBA", "HEBL", "HECA", "HEGN", "HELX", "HEMA", "HEMM", "HEOW", "HEPS", "HESC", "HESG", "HESH", "HESN", "HETB", "HETR", "HKEL", "HKJK", "HKKI", "HKML", "HKMO", "HKNW", "HLGD", "HLGT", "HLKF", "HLLB", "HLLM", "HLLQ", "HLLS", "HLMS", "HLON", "HLTD", "HLTQ", "HLUB", "HRYR", "HSKA", "HSOB", "HSPN", "HSSJ", "HSSK", "HTAR", "HTBU", "HTDA", "HTDO", "HTKA", "HTKJ", "HTMW", "HTTB", "HTZA", "HUEN", "KABE", "KABI", "KABQ", "KABR", "KABY", "KACK", "KACT", "KACV", "KACY", "KADF", "KADW", "KAEG", "KAEX", "KAFF", "KAFW", "KAGC", "KAGS", "KAHN", "KAIA", "KALB", "KALI", "KALO", "KALS", "KALW", "KAMA", "KANB", "KAND", "KAOO", "KAPA", "KAPC", "KAPF", "KAPN", "KARA", "KART", "KASD", "KASE", "KASN", "KAST", "KATL", "KATW", "KATY", "KAUG", "KAUS", "KAUW", "KAVL", "KAVP", "KAXN", "KAZO", "KBAB", "KBAD", "KBAF", "KBAM", "KBBD", "KBBG", "KBCB", "KBCE", "KBDL", "KBDN", "KBDR", "KBED", "KBFD", "KBFF", "KBFI", "KBFL", "KBFM", "KBGM", "KBGR", "KBHB", "KBHM", "KBIF", "KBIH", "KBIL", "KBIS", "KBIX", "KBJC", "KBJI", "KBKE", "KBKF", "KBKW", "KBLF", "KBLH", "KBLI", "KBLV", "KBMG", "KBMI", "KBNA", "KBNO", "KBOI", "KBOS", "KBPI", "KBPK", "KBPT", "KBRD", "KBRL", "KBRO", "KBTL", "KBTM", "KBTR", "KBTV", "KBUF", "KBUR", "KBVI", "KBVO", "KBWG", "KBWI", "KBYI", "KBZN", "KCAE", "KCAK", "KCAR", "KCBM", "KCDC", "KCDR", "KCDS", "KCEC", "KCEF", "KCGI", "KCHA", "KCHO", "KCHS", "KCID", "KCIU", "KCKB", "KCKV", "KCLE", "KCLL", "KCLM", "KCLT", "KCMA", "KCMH", "KCMI", "KCMX", "KCNM", "KCNU", "KCNY", "KCOD", "KCOE", "KCOF", "KCON", "KCOS", "KCOT", "KCOU", "KCPR", "KCPS", "KCRE", "KCRG", "KCRP", "KCRQ", "KCRW", "KCSG", "KCSM", "KCSV", "KCTB", "KCUB", "KCVG", "KCVS", "KCWA", "KCXO", "KCXP", "KCYS", "KDAA", "KDAB", "KDAG", "KDAL", "KDAN", "KDAY", "KDBQ", "KDCA", "KDDC", "KDEC", "KDEN", "KDET", "KDFW", "KDHN", "KDHT", "KDIJ", "KDIK", "KDLF", "KDLH", "KDLS", "KDMA", "KDMN", "KDNL", "KDOV", "KDPA", "KDRO", "KDRT", "KDSM", "KDTW", "KDUG", "KDUJ", "KDVL", "KDVT", "KDYS", "KEAR", "KEAT", "KEAU", "KECG", "KECP", "KEED", "KEET", "KEFD", "KEFK", "KEGE", "KEGI", "KEKN", "KEKO", "KEKS", "KELD", "KELM", "KELP", "KELY", "KEND", "KENV", "KENW", "KERI", "KEUG", "KEUL", "KEVV", "KEVW", "KEWN", "KEWR", "KEYW", "KFAF", "KFAR", "KFAT", "KFAY", "KFBG", "KFCS", "KFDY", "KFFO", "KFHU", "KFKL", "KFLG", "KFLL", "KFLO", "KFMH", "KFMN", "KFMY", "KFNT", "KFOD", "KFOE", "KFPR", "KFSD", "KFSM", "KFST", "KFTK", "KFTW", "KFTY", "KFVE", "KFWA", "KFXE", "KFYV", "KGBD", "KGCC", "KGCK", "KGCN", "KGDV", "KGEG", "KGFK", "KGFL", "KGGG", "KGGW", "KGJT", "KGKY", "KGLD", "KGLH", "KGLS", "KGMU", "KGNV", "KGON", "KGPI", "KGPT", "KGRB", "KGRF", "KGRI", "KGRK", "KGRR", "KGSB", "KGSO", "KGSP", "KGTB", "KGTF", "KGTR", "KGUC", "KGUP", "KGUR", "KGUS", "KGUY", "KGWO", "KGYY", "KHBG", "KHCR", "KHDC", "KHDN", "KHIB", "KHIE", "KHIF", "KHIO", "KHKS", "KHKY", "KHLG", "KHLN", "KHMN", "KHNB", "KHND", "KHOB", "KHON", "KHOP", "KHOT", "KHOU", "KHPN", "KHQM", "KHRF", "KHRL", "KHRO", "KHRT", "KHST", "KHSV", "KHTS", "KHUF", "KHUL", "KHUM", "KHUT", "KHVR", "KHYA", "KHYR", "KHYS", "KIAB", "KIAD", "KIAG", "KIAH", "KICT", "KIDA", "KIFP", "KILG", "KILM", "KILN", "KIND", "KINK", "KINL", "KINS", "KINT", "KINW", "KIPL", "KIPT", "KISM", "KISO", "KISP", "KITH", "KIWA", "KIWD", "KIXD", "KJAC", "KJAN", "KJAX", "KJBR", "KJCT", "KJEF", "KJER", "KJFK", "KJHW", "KJKA", "KJKL", "KJLN", "KJMS", "KJST", "KJVL", "KJXN", "KJZI", "KLAF", "KLAL", "KLAN", "KLAR", "KLAS", "KLAW", "KLAX", "KLBB", "KLBE", "KLBF", "KLBL", "KLBT", "KLBX", "KLCH", "KLCK", "KLEB", "KLEE", "KLEX", "KLFI", "KLFK", "KLFT", "KLGA", "KLGB", "KLGU", "KLIT", "KLLQ", "KLMT", "KLND", "KLNK", "KLNS", "KLOZ", "KLRD", "KLRF", "KLRU", "KLSE", "KLSV", "KLTS", "KLUK", "KLVK", "KLVM", "KLVS", "KLWB", "KLWS", "KLWT", "KLYH", "KMAF", "KMBG", "KMBL", "KMBS", "KMCB", "KMCC", "KMCE", "KMCF", "KMCI", "KMCK", "KMCN", "KMCO", "KMCW", "KMDT", "KMDW", "KMEI", "KMEM", "KMER", "KMEV", "KMFD", "KMFE", "KMFR", "KMGE", "KMGM", "KMGW", "KMHK", "KMHR", "KMHT", "KMIA", "KMIB", "KMIV", "KMKC", "KMKE", "KMKG", "KMKL", "KMKT", "KMLB", "KMLC", "KMLI", "KMLS", "KMLU", "KMMH", "KMMT", "KMOB", "KMOD", "KMOT", "KMPV", "KMQY", "KMRB", "KMRY", "KMSL", "KMSN", "KMSO", "KMSP", "KMSS", "KMSY", "KMTC", "KMTH", "KMTJ", "KMTN", "KMTW", "KMUI", "KMUO", "KMVN", "KMWH", "KMXF", "KMYL", "KMYR", "KNBC", "KNBG", "KNCA", "KNEW", "KNFG", "KNFL", "KNFW", "KNGP", "KNGU", "KNHK", "KNIP", "KNJK", "KNKT", "KNKX", "KNLC", "KNMM", "KNPA", "KNQI", "KNQX", "KNRB", "KNSE", "KNTD", "KNTU", "KNUW", "KNXP", "KNYG", "KNYL", "KNZY", "KOAJ", "KOAK", "KOFF", "KOFK", "KOGB", "KOGD", "KOKC", "KOLF", "KOLM", "KOLS", "KOMA", "KONP", "KONT", "KOPF", "KORD", "KORF", "KORH", "KOTH", "KOTM", "KOUN", "KOWB", "KOXR", "KOZR", "KPAE", "KPAH", "KPAM", "KPBF", "KPBG", "KPBI", "KPDK", "KPDT", "KPDX", "KPEQ", "KPGA", "KPGD", "KPGV", "KPHF", "KPHL", "KPHX", "KPIA", "KPIB", "KPIE", "KPIH", "KPIR", "KPIT", "KPKB", "KPLN", "KPMD", "KPNA", "KPNC", "KPNE", "KPNS", "KPOE", "KPOU", "KPQI", "KPRB", "KPRC", "KPSC", "KPSF", "KPSM", "KPSP", "KPTK", "KPUB", "KPUW", "KPVD", "KPVU", "KPVW", "KPWM", "KPWT", "KRAP", "KRBG", "KRBL", "KRCA", "KRDD", "KRDG", "KRDM", "KRDR", "KRDU", "KRFD", "KRHI", "KRIC", "KRIL", "KRIV", "KRIW", "KRKD", "KRKS", "KRME", "KRND", "KRNH", "KRNO", "KROA", "KROC", "KROG", "KROW", "KRSL", "KRST", "KRSW", "KRUT", "KRVS", "KRWF", "KRWI", "KRWL", "KRYY", "KSAC", "KSAF", "KSAN", "KSAT", "KSAV", "KSAW", "KSBA", "KSBD", "KSBM", "KSBN", "KSBP", "KSBY", "KSCK", "KSDF", "KSDL", "KSDY", "KSEA", "KSEZ", "KSFB", "KSFF", "KSFO", "KSGF", "KSGJ", "KSGR", "KSGU", "KSHR", "KSHV", "KSJC", "KSJS", "KSJT", "KSKA", "KSKF", "KSLC", "KSLE", "KSLI", "KSLK", "KSLN", "KSME", "KSMF", "KSMN", "KSMO", "KSMX", "KSNA", "KSNS", "KSNY", "KSOA", "KSPI", "KSPS", "KSRQ", "KSSC", "KSSF", "KSSI", "KSTC", "KSTJ", "KSTL", "KSTS", "KSUA", "KSUN", "KSUS", "KSUU", "KSUX", "KSVN", "KSWF", "KSWO", "KSYM", "KSYR", "KSZL", "KTCC", "KTCL", "KTCM", "KTCS", "KTEB", "KTEX", "KTIK", "KTIX", "KTLH", "KTMB", "KTOI", "KTOL", "KTOP", "KTPA", "KTPH", "KTRI", "KTRK", "KTRM", "KTTD", "KTTN", "KTUL", "KTUP", "KTUS", "KTVC", "KTVF", "KTVL", "KTWF", "KTXK", "KTYR", "KTYS", "KUAO", "KUES", "KUIN", "KUKI", "KUNV", "KUTS", "KVAD", "KVCT", "KVEL", "KVGT", "KVIS", "KVLD", "KVNY", "KVOK", "KVPS", "KVQQ", "KVRB", "KVTN", "KWJF", "KWMC", "KWRB", "KWRI", "KWRL", "KWWR", "KXNA", "KXWA", "KYIP", "KYKM", "KYNG", "KZZV", "LAKU", "LATI", "LBBG", "LBGO", "LBPD", "LBSF", "LBWN", "LCEN", "LCLK", "LCPH", "LCRA", "LDDU", "LDLO", "LDOS", "LDPL", "LDRI", "LDSP", "LDZA", "LDZD", "LEAB", "LEAG", "LEAL", "LEAM", "LEAO", "LEAS", "LEBA", "LEBB", "LEBG", "LEBL", "LEBR", "LEBZ", "LECO", "LECV", "LEEC", "LEGA", "LEGE", "LEGR", "LEGT", "LEHC", "LEIB", "LEJR", "LELC", "LELL", "LELN", "LELO", "LEMD", "LEMG", "LEMH", "LEMO", "LEPA", "LEPP", "LERI", "LERL", "LERS", "LERT", "LESA", "LESO", "LEST", "LESU", "LETO", "LEVC", "LEVD", "LEVS", "LEVT", "LEVX", "LEXJ", "LEZG", "LEZL", "LFAQ", "LFAT", "LFBA", "LFBC", "LFBD", "LFBE", "LFBG", "LFBH", "LFBI", "LFBL", "LFBM", "LFBO", "LFBP", "LFBT", "LFBU", "LFBZ", "LFCK", "LFCR", "LFGJ", "LFJL", "LFKB", "LFKC", "LFKF", "LFKJ", "LFKS", "LFLB", "LFLC", "LFLL", "LFLN", "LFLP", "LFLS", "LFLW", "LFLX", "LFLY", "LFMD", "LFMI", "LFMK", "LFML", "LFMN", "LFMO", "LFMP", "LFMT", "LFMU", "LFMV", "LFMY", "LFOA", "LFOB", "LFOE", "LFOH", "LFOJ", "LFOK", "LFOP", "LFOT", "LFPB", "LFPG", "LFPN", "LFPO", "LFPV", "LFQQ", "LFRB", "LFRC", "LFRD", "LFRG", "LFRH", "LFRI", "LFRJ", "LFRK", "LFRL", "LFRM", "LFRN", "LFRQ", "LFRS", "LFRZ", "LFSB", "LFSI", "LFSL", "LFSO", "LFST", "LFSX", "LFTH", "LFTW", "LFVP", "LFYR", "LGAD", "LGAL", "LGAV", "LGBL", "LGEL", "LGHI", "LGIO", "LGIR", "LGKC", "LGKF", "LGKL", "LGKO", "LGKP", "LGKR", "LGKV", "LGLM", "LGLR", "LGMK", "LGMT", "LGPZ", "LGRP", "LGRX", "LGSA", "LGSK", "LGSM", "LGSR", "LGST", "LGSY", "LGTG", "LGTL", "LGTS", "LGZA", "LHBP", "LHDC", "LHKE", "LHPA", "LHPP", "LHPR", "LHSM", "LHSN", "LIBA", "LIBC", "LIBD", "LIBF", "LIBG", "LIBN", "LIBP", "LIBR", "LIBV", "LICA", "LICB", "LICC", "LICD", "LICG", "LICJ", "LICR", "LICT", "LICZ", "LIEA", "LIED", "LIEE", "LIEO", "LIMC", "LIME", "LIMF", "LIMG", "LIMJ", "LIML", "LIMN", "LIMP", "LIMW", "LIMZ", "LIPA", "LIPB", "LIPC", "LIPE", "LIPH", "LIPI", "LIPK", "LIPL", "LIPO", "LIPQ", "LIPR", "LIPS", "LIPX", "LIPY", "LIPZ", "LIQW", "LIRA", "LIRE", "LIRF", "LIRG", "LIRH", "LIRL", "LIRM", "LIRN", "LIRP", "LIRQ", "LIRS", "LIRU", "LIRV", "LIRZ", "LJCE", "LJLJ", "LJMB", "LJPZ", "LKCV", "LKKB", "LKKV", "LKMT", "LKNA", "LKPR", "LKTB", "LLBG", "LLER", "LLHA", "LLHZ", "LLIB", "LMML", "LOAN", "LOAV", "LOWG", "LOWI", "LOWK", "LOWL", "LOWS", "LOWW", "LOXA", "LOXN", "LOXT", "LOXZ", "LPAR", "LPAZ", "LPBJ", "LPCS", "LPFR", "LPHR", "LPLA", "LPMA", "LPMR", "LPMT", "LPOV", "LPPD", "LPPR", "LPPS", "LPPT", "LPST", "LQBK", "LQMO", "LQSA", "LQTZ", "LRAR", "LRBC", "LRBM", "LRBS", "LRCK", "LRCL", "LRCV", "LRIA", "LROD", "LROP", "LRSB", "LRSM", "LRSV", "LRTC", "LRTM", "LRTR", "LSGC", "LSGG", "LSGS", "LSZA", "LSZB", "LSZC", "LSZG", "LSZH", "LSZL", "LSZR", "LSZS", "LTAB", "LTAC", "LTAD", "LTAE", "LTAF", "LTAG", "LTAH", "LTAI", "LTAJ", "LTAL", "LTAN", "LTAO", "LTAP", "LTAR", "LTAS", "LTAT", "LTAU", "LTAV", "LTAW", "LTAY", "LTAZ", "LTBA", "LTBD", "LTBF", "LTBG", "LTBH", "LTBI", "LTBJ", "LTBK", "LTBL", "LTBN", "LTBO", "LTBP", "LTBQ", "LTBR", "LTBS", "LTBT", "LTBU", "LTBV", "LTBX", "LTBY", "LTBZ", "LTCA", "LTCB", "LTCC", "LTCD", "LTCE", "LTCF", "LTCG", "LTCI", "LTCJ", "LTCK", "LTCL", "LTCM", "LTCN", "LTCO", "LTCP", "LTCR", "LTCS", "LTCT", "LTCU", "LTCV", "LTCW", "LTDA", "LTFA", "LTFB", "LTFC", "LTFD", "LTFE", "LTFG", "LTFH", "LTFJ", "LTFK", "LTFM", "LTFO", "LUKK", "LWOH", "LWSK", "LXGB", "LYBE", "LYBT", "LYKV", "LYNI", "LYPG", "LYTV", "LYVR", "LZIB", "LZKZ", "LZMC", "LZPP", "LZPW", "LZSL", "LZTT", "LZZI", "MBGT", "MBPV", "MDBH", "MDCY", "MDJB", "MDLR", "MDPC", "MDPP", "MDSD", "MDST", "MGGT", "MGMM", "MGPB", "MHLC", "MHLM", "MHPR", "MHRO", "MHTG", "MKJP", "MKJS", "MMAA", "MMAN", "MMAS", "MMBT", "MMCB", "MMCE", "MMCL", "MMCM", "MMCN", "MMCP", "MMCS", "MMCU", "MMCV", "MMCZ", "MMDO", "MMEP", "MMGL", "MMGM", "MMHO", "MMIA", "MMIO", "MMLM", "MMLO", "MMLP", "MMLT", "MMMA", "MMMD", "MMML", "MMMM", "MMMT", "MMMV", "MMMX", "MMMY", "MMMZ", "MMNL", "MMOX", "MMPA", "MMPB", "MMPG", "MMPN", "MMPQ", "MMPR", "MMPS", "MMQT", "MMRX", "MMSD", "MMSL", "MMSM", "MMSP", "MMTC", "MMTG", "MMTJ", "MMTM", "MMTO", "MMTP", "MMUN", "MMVA", "MMVR", "MMZC", "MMZH", "MMZO", "MNBL", "MNMG", "MNPC", "MPDA", "MPMG", "MPPA", "MPSM", "MPTO", "MRLB", "MRLM", "MROC", "MRPV", "MSLP", "MSSS", "MTCH", "MTPP", "MUCC", "MUCF", "MUCL", "MUCM", "MUCU", "MUGM", "MUHA", "MUHG", "MUSC", "MUVR", "MWCB", "MWCR", "MYGF", "MYNN", "MZBZ", "NCRG", "NFFN", "NFNA", "NFTF", "NFTV", "NGFU", "NGTA", "NIUE", "NLWF", "NLWW", "NSFA", "NSTU", "NTAA", "NVSC", "NVSG", "NVSL", "NVSP", "NVSS", "NVVA", "NVVV", "NVVW", "NWWD", "NWWE", "NWWK", "NWWL", "NWWM", "NWWR", "NWWU", "NWWW", "NZAA", "NZCH", "NZQN", "NZWN", "OBBI", "OEAB", "OEAH", "OEAO", "OEBA", "OEBH", "OEDF", "OEDM", "OEDR", "OEGN", "OEGS", "OEGT", "OEHL", "OEJN", "OEKJ", "OEKM", "OEMA", "OENG", "OEPA", "OEPS", "OERF", "OERK", "OERR", "OESH", "OESK", "OETB", "OETF", "OETR", "OEWD", "OEWJ", "OEYN", "OIAA", "OIAW", "OIBB", "OIBK", "OIBP", "OICC", "OICI", "OIFM", "OIGG", "OIIE", "OIII", "OIIP", "OIKB", "OIKK", "OIMM", "OING", "OINZ", "OISL", "OISS", "OITL", "OITR", "OITT", "OIYY", "OIZH", "OJAI", "OJAM", "OJAQ", "OKAS", "OLBA", "OMAA", "OMAD", "OMAL", "OMDB", "OMDW", "OMFJ", "OMRK", "OMSJ", "OODQ", "OOMS", "OOSA", "OOSH", "OPBW", "OPDG", "OPFA", "OPGD", "OPIS", "OPKC", "OPLA", "OPMT", "OPNH", "OPPS", "OPRK", "OPSK", "OPST", "ORBI", "ORER", "ORMM", "ORSU", "OSAP", "OSDI", "OSLK", "OTBD", "OTBH", "OTHH", "OYAA", "PAAQ", "PABE", "PABR", "PABT", "PACD", "PACV", "PADL", "PADQ", "PADU", "PAED", "PAEI", "PAEN", "PAFA", "PAFB", "PAGA", "PAGK", "PAGS", "PAGY", "PAHN", "PAHO", "PAIL", "PAJN", "PAKN", "PAKT", "PAKW", "PAMC", "PANC", "PAOM", "PAOR", "PAOT", "PAPG", "PAQT", "PASC", "PASD", "PASI", "PASN", "PASY", "PATA", "PATK", "PAUN", "PAVD", "PAWG", "PAYA", "PGRO", "PGSN", "PGUA", "PGUM", "PGWT", "PHJH", "PHJR", "PHKO", "PHLI", "PHMK", "PHNL", "PHNY", "PHOG", "PHTO", "PKMJ", "PKWA", "PLCH", "PMDY", "PTKK", "PTPN", "PTRO", "PTSA", "PTYA", "PWAK", "RCFN", "RCKH", "RCMQ", "RCNN", "RCSS", "RCTP", "RJAA", "RJAH", "RJBB", "RJCB", "RJCC", "RJCH", "RJCK", "RJCM", "RJEC", "RJFF", "RJFK", "RJFM", "RJFO", "RJFR", "RJFS", "RJFT", "RJFU", "RJGG", "RJNK", "RJNS", "RJNT", "RJOA", "RJOB", "RJOC", "RJOH", "RJOI", "RJOK", "RJOM", "RJOO", "RJOT", "RJSA", "RJSF", "RJSI", "RJSK", "RJSN", "RJSS", "RJTT", "RJTY", "RKJB", "RKJK", "RKNN", "RKNW", "RKNY", "RKPC", "RKPK", "RKSG", "RKSI", "RKSM", "RKSO", "RKSS", "RKSW", "RKTE", "RKTI", "RKTN", "RKTP", "RKTU", "RKTY", "ROAH", "RODN", "ROIG", "ROTM", "RPLB", "RPLC", "RPLI", "RPLL", "RPMD", "RPMR", "RPMZ", "RPVD", "RPVM", "RPVP", "SAAR", "SABE", "SACO", "SADF", "SAEZ", "SAME", "SANR", "SANT", "SARE", "SARF", "SARI", "SARP", "SASA", "SASJ", "SAVC", "SAVT", "SAWE", "SAWG", "SAWH", "SAZM", "SAZN", "SAZS", "SBAC", "SBAF", "SBAN", "SBAR", "SBAT", "SBBE", "SBBG", "SBBI", "SBBR", "SBBU", "SBBV", "SBBW", "SBCB", "SBCF", "SBCG", "SBCJ", "SBCO", "SBCP", "SBCR", "SBCT", "SBCY", "SBCZ", "SBDN", "SBEG", "SBFI", "SBFL", "SBFN", "SBFZ", "SBGL", "SBGO", "SBGR", "SBGW", "SBIH", "SBIL", "SBIZ", "SBJE", "SBJP", "SBJV", "SBKG", "SBKP", "SBLO", "SBMA", "SBME", "SBMN", "SBMO", "SBMQ", "SBNF", "SBNT", "SBOI", "SBPA", "SBPB", "SBPJ", "SBPK", "SBPL", "SBPP", "SBPS", "SBPV", "SBRB", "SBRF", "SBRJ", "SBRP", "SBSC", "SBSG", "SBSJ", "SBSL", "SBSM", "SBSN", "SBSP", "SBSV", "SBTD", "SBTE", "SBTF", "SBTT", "SBUG", "SBUL", "SBUR", "SBVH", "SBVT", "SBYS", "SCAR", "SCAT", "SCBA", "SCCF", "SCCH", "SCCI", "SCCY", "SCDA", "SCEL", "SCFA", "SCFM", "SCGE", "SCGZ", "SCHR", "SCIC", "SCIE", "SCIP", "SCIR", "SCJO", "SCMK", "SCNT", "SCPQ", "SCQP", "SCRD", "SCRG", "SCSE", "SCSN", "SCTB", "SCTE", "SCTN", "SCVD", "SCVM", "SEGU", "SELT", "SEMT", "SEQM", "SGAS", "SGCO", "SGEN", "SGES", "SKAR", "SKBG", "SKBO", "SKBQ", "SKCC", "SKCG", "SKCL", "SKLT", "SKPE", "SKRG", "SKSM", "SKSP", "SLAL", "SLCB", "SLCO", "SLET", "SLLP", "SLOR", "SLRQ", "SLTJ", "SLTR", "SLVR", "SLYA", "SMJP", "SMZO", "SOCA", "SPCL", "SPEO", "SPGM", "SPHI", "SPHO", "SPJC", "SPJI", "SPJR", "SPLO", "SPME", "SPMS", "SPNC", "SPPY", "SPQT", "SPQU", "SPRU", "SPSO", "SPST", "SPTN", "SPTU", "SPUR", "SPYL", "SPZO", "SUAA", "SUCA", "SUDU", "SULS", "SUMU", "SURV", "SUSO", "SVBC", "SVJC", "SVMC", "SVMG", "SVMI", "SVPR", "SVSA", "SVVA", "SYCJ", "SYEB", "SYEC", "SYKA", "SYKM", "SYLT", "TAPA", "TBPB", "TDPD", "TFFF", "TFFR", "TGPY", "TIST", "TISX", "TJBQ", "TJPS", "TJSJ", "TKPK", "TKPN", "TLPC", "TLPL", "TNCA", "TNCB", "TNCC", "TNCM", "TQPF", "TRPG", "TTCP", "TTPP", "TUPJ", "TVSA", "TXKF", "UAAA", "UAAH", "UAAT", "UACC", "UACK", "UACP", "UADD", "UAII", "UAIT", "UAKD", "UAKK", "UAOO", "UARR", "UASK", "UASP", "UASS", "UATE", "UATG", "UATT", "UAUU", "UBBB", "UBBF", "UBBG", "UBBL", "UBBN", "UBBQ", "UBBY", "UBBZ", "UBEE", "UCFL", "UCFM", "UCFO", "UDSG", "UDYZ", "UEEE", "UERP", "UERR", "UGAM", "UGKO", "UGMS", "UGSB", "UGTB", "UHBB", "UHHH", "UHMA", "UHMM", "UHPP", "UHSS", "UHWW", "UIAA", "UIBB", "UIII", "UIUU", "ULAA", "ULLI", "ULMM", "ULOO", "ULPB", "ULWC", "UMBB", "UMGG", "UMII", "UMIO", "UMKK", "UMMG", "UMMS", "UMOO", "UNAA", "UNBB", "UNEE", "UNKL", "UNNT", "UNOO", "UNTT", "UNWW", "UOOO", "URKA", "URKK", "URMG", "URML", "URMM", "URMN", "URMO", "URMT", "URRP", "URSS", "URWA", "URWI", "URWW", "USCC", "USCM", "USDA", "USHH", "USNN", "USPP", "USRR", "USSS", "USTR", "UTAA", "UTAK", "UTAM", "UTAT", "UTAV", "UTDD", "UTDK", "UTDL", "UTDT", "UTFF", "UTFN", "UTNN", "UTNU", "UTSA", "UTSB", "UTSK", "UTSS", "UTST", "UTTT", "UUBC", "UUBP", "UUBW", "UUDD", "UUDL", "UUEE", "UUMO", "UUOB", "UUOK", "UUOL", "UUOO", "UUWW", "UUYY", "UWGG", "UWKD", "UWKE", "UWKS", "UWLL", "UWLW", "UWOO", "UWOR", "UWPS", "UWSG", "UWUU", "UWWW", "VAAH", "VAAU", "VABB", "VABJ", "VABO", "VABP", "VABV", "VADU", "VAID", "VAJB", "VAJL", "VAJM", "VAKE", "VAKP", "VANP", "VAOZ", "VAPO", "VAPR", "VARK", "VASD", "VASL", "VASU", "VAUD", "VCBI", "VCRI", "VDPP", "VDSR", "VDSV", "VEAB", "VEAN", "VEAT", "VEBD", "VEBI", "VEBN", "VEBS", "VEBU", "VECC", "VECO", "VECX", "VEDG", "VEDO", "VEDZ", "VEGK", "VEGT", "VEGY", "VEIM", "VEJH", "VEJR", "VEJS", "VEJT", "VEKI", "VEKO", "VEKU", "VELP", "VELR", "VEMN", "VEMR", "VEPT", "VEPY", "VERC", "VERK", "VERP", "VERU", "VETJ", "VETZ", "VEZO", "VGEG", "VGHS", "VHHH", "VIAG", "VIAR", "VIBR", "VIBT", "VIBY", "VICG", "VIDN", "VIDP", "VIGG", "VIGR", "VIJO", "VIJP", "VIJR", "VIJU", "VILH", "VILK", "VIPT", "VISM", "VISP", "VISR", "VIUT", "VLLB", "VLLN", "VLPS", "VLSK", "VLVT", "VMMC", "VNKT", "VOAT", "VOBG", "VOBL", "VOBM", "VOBZ", "VOCB", "VOCI", "VOCL", "VOCP", "VOGB", "VOGO", "VOHB", "VOHS", "VOHY", "VOJV", "VOKN", "VOKU", "VOLT", "VOMD", "VOML", "VOMM", "VOMY", "VOND", "VOPB", "VORY", "VOSR", "VOTP", "VOTR", "VOTV", "VOVZ", "VRMG", "VRMH", "VRMM", "VTBD", "VTBO", "VTBS", "VTBU", "VTCC", "VTCH", "VTCL", "VTCN", "VTCP", "VTCT", "VTPB", "VTPH", "VTPM", "VTPO", "VTPP", "VTPT", "VTSB", "VTSC", "VTSE", "VTSF", "VTSG", "VTSM", "VTSP", "VTSR", "VTSS", "VTST", "VTSY", "VTUD", "VTUI", "VTUK", "VTUL", "VTUO", "VTUQ", "VTUU", "VTUV", "VTUW", "VVCI", "VVCR", "VVCT", "VVDN", "VVNB", "VVPB", "VVPQ", "VVTS", "VVVD", "VYMD", "VYNT", "VYYY", "WAAA", "WABB", "WADD", "WADL", "WALL", "WALS", "WAMM", "WAOO", "WAPP", "WAQA", "WAQD", "WAQJ", "WAQQ", "WAQT", "WARR", "WATT", "WBGB", "WBGG", "WBGR", "WBGS", "WBKK", "WBKL", "WBKS", "WBKW", "WBSB", "WIDD", "WIEE", "WIHH", "WIII", "WIMM", "WIPB", "WIPP", "WIPY", "WITT", "WMAP", "WMBT", "WMKA", "WMKB", "WMKC", "WMKE", "WMKI", "WMKJ", "WMKK", "WMKL", "WMKM", "WMKN", "WMKP", "WMPA", "WMSA", "WPDL", "WSAP", "WSSL", "WSSS", "YAMB", "YBAS", "YBBN", "YBCG", "YBCS", "YBHM", "YBLN", "YBMA", "YBRK", "YBRM", "YBSU", "YBTL", "YBWW", "YCFS", "YCIN", "YFRT", "YGEL", "YGLA", "YHID", "YLHI", "YMAV", "YMHB", "YMLT", "YMML", "YPAD", "YPCC", "YPDN", "YPEA", "YPGV", "YPJT", "YPKG", "YPKU", "YPLM", "YPPD", "YPPH", "YPTN", "YPWR", "YPXM", "YSCB", "YSDU", "YSNF", "YSRI", "YSSY", "YSTW", "YWLM", "ZBAA", "ZBAD", "ZBHH", "ZBSJ", "ZBTJ", "ZBYN", "ZGGG", "ZGHA", "ZGKL", "ZGNN", "ZGOW", "ZGSZ", "ZHCC", "ZHHH", "ZJHK", "ZJSY", "ZKPY", "ZKWS", "ZLLL", "ZLXY", "ZMCK", "ZMUB", "ZPPP", "ZSAM", "ZSFZ", "ZSHC", "ZSJN", "ZSNB", "ZSNJ", "ZSOF", "ZSPD", "ZSQD", "ZSSS", "ZUCK", "ZUGY", "ZUUU", "ZWSH", "ZWWW", "ZYCC", "ZYHB", "ZYTL", "ZYTX"], "raw_text": ["TAF AGGA 022310Z 0300/0324 11010KT 9999 FEW020 SCT030 PROB40 INTER 0300/0305 5000 TSRA BKN015 FEW016CB Q 1007 1005 1004 1006", "TAF AGGC 022310Z 0300/0324 07008KT 9999 FEW020 SCT030 PROB40 INTER 0300/0305 5000 TSRA BKN015 FEW016CB Q 1006 1004 1003 1005", "TAF AGGH 031114Z 0312/0412 09010KT 9999 FEW017 SCT028 PROB40 INTER 0312/0318 8000 TSRA BKN015 FEW016CB T 25 24 24 25 Q 1009 1007 1006 1008", "TAF AGGK 022310Z 0300/0324 07012KT 9999 SCT020", "TAF AGGL 022310Z 0300/0324 09015KT 9999 FEW020 SCT030 PROB40 INTER 0300/0305 5000 TSRA BKN015 FEW016CB Q 1010 1008 1007 1009", "TAF AGGM 031114Z 0312/0412 09010KT 9999 FEW017 BKN100 PROB40 INTER 0312/0318 5000 TSRA BKN015 FEW016CB Q 1008 1006 1005 1007", "TAF AGGN 031114Z 0312/0412 09010KT 07008KT 9999 FEW017 BKN100 PROB40 INTER 0312/0318 5000 TSRA BKN015 FEW016CB Q 1008 1006 1005 1007", "TAF AGGR 021710Z 0218/0318 11015KT 9999 SCT018", "TAF ANYN 030307Z 0306/0406 09010KT 9999 -SHRA SCT020 SCT100 T 27 26 26 27 Q 1007 1009 1008 1006", "TAF AYPY 030230Z 0306/0406 34006KT 9999 -SHRA SCT018 SCT030 BKN130 INTER 0306/0309 5000 TSRA BKN010 FEW018CB", "TAF BGAA 030956Z 0309/0317 01008KT 9999 FEW020", "TAF BGBW 031104Z 0312/0321 06032G42KT 9999 BKN100 BECMG 0313/0315 08020G35KT BECMG 0315/0318 08015G25KT TEMPO 0315/0318 BKN060 BECMG 0318/0319 08012KT BKN060", "TAF COR BGCO 030932Z 0309/0316 01010KT 9999 OVC030 TEMPO 0312/0315 SCT030", "TAF BGGH 031104Z 0312/0321 05015KT 9999 FEW200", "TAF BGJN 031104Z 0312/0321 16004KT 9999 FEW020 BECMG 0312/0314 35015KT", "TAF BGKK 031104Z 0312/0319 08018KT 9999 FEW012 SCT080 TEMPO 0312/0317 VRB10KT BKN080 BECMG 0317/0319 08020G30KT 3000 -SN DRSN BLSN BKN012", "TAF BGMQ 030910Z 0309/0318 01005KT 9999 FEW200", "TAF BGPT 031011Z 0310/0318 34006KT 9999 SCT050 BKN120 BECMG 0310/0313 BKN050", "TAF BGQQ 030956Z 0309/0318 09005KT 9999 FEW200", "TAF BGSF 031102Z 0312/0324 04008KT 9999 SCT200", "TAF BGSS 030956Z 0309/0318 VRB03KT 9999 FEW010 BECMG 0313/0315 01010KT", "TAF BGTL 031100Z 0311/0417 10008KT 9999 SKC QNH2991INS TXM19/0319Z TNM30/0408Z", "TAF BGUK 030957Z 0309/0318 34003KT 9999 BKN010 TEMPO 0309/0318 BKN008", "TAF BGUQ 030910Z 0309/0318 28005KT 9999 FEW200", "TAF BIAR 031059Z 0312/0412 14008KT 9999 -RA BKN050 TX09/0412Z TN04/0312Z PROB40 TEMPO 0400/0406 17018KT", "TAF BIBD 031023Z 0311/0318 05011KT 9999 -RA FEW020 BKN030 BECMG 0312/0314 RA BKN014 OVC018 TEMPO 0314/0318 09015G25KT 3000 RADZ BKN008 OVC013", "TAF BIEG 031055Z 0312/0412 22008KT 9999 SCT050 TX08/0324Z TN04/0403Z TEMPO 0312/0400 -RA BKN014 OVC022 BECMG 0312/0314 16018G28KT PROB40 TEMPO 0317/0402 16028G38KT BECMG 0402/0404 18012KT", "TAF BIGJ 031019Z 0311/0316 32008KT 9999 OVC022 BECMG 0313/0315 4500 RA BKN013", "TAF BIHN 031026Z 0311/0320 11012KT 9999 RA BKN011 OVC018 TEMPO 0311/0314 3500 RADZ OVC008 TEMPO 0314/0317 2500 +RADZ OVC003", "TAF BIHU 031024Z 0311/0318 18006KT 9999 FEW050 BECMG 0313/0315 15017KT", "TAF BIIS 031021Z 0311/0318 VRB05KT 9999 OVC050 BECMG 0315/0317 4500 RA BKN014", "TAF BIKF 031056Z 0312/0412 11022G35KT 9999 RA SCT010 BKN017 TX09/0315Z TN06/0406Z TEMPO 0312/0412 2500 RADZ BR OVC008 BECMG 0313/0315 11030G43KT BECMG 0319/0321 15020G32KT", "TAF BIRK 031057Z 0312/0412 10018G28KT 9999 -RADZ SCT010 OVC018 TX09/0315Z TN06/0406Z TEMPO 0312/0412 4000 RADZ BR BKN012 BECMG 0313/0315 12025G38KT BECMG 0320/0322 16018G28KT", "TAF BITN 031029Z 0311/0313 13012KT 9999 SCT030", "TAF BIVM 031027Z 0311/0318 10028G38KT 9999 RA BKN008 TEMPO 0311/0318 0300 RADZ OVC001 TEMPO 0311/0314 10037G50KT", "TAF BIVO 031030Z 0311/0315 17005KT 9999 BKN050 TEMPO 0311/0315 15018G28KT -RA BKN014", "TAF BKPR 031130Z 0312/0412 35013KT 9999 SCT015 BKN025 TEMPO 0312/0402 01020G30KT 3000 SHRA TEMPO 0402/0410 1500 SN BKN008", "TAF CWSA 030740Z 0308/0320 31010G20KT P6SM SKC BECMG 0312/0314 29012G22KT BECMG 0318/0320 25012KT RMK FCST BASED ON AUTO OBS. NXT FCST BY 031400Z", "TAF CWWU 031200Z 0312/0412 25018G28KT P6SM BKN030 TEMPO 0313/0315 26020G35KT FM032100 27015G25KT P6SM BKN020 TEMPO 0400/0403 P6SM SCT020 FM040300 26010KT P6SM SCT015 BKN120 FM040900 25012G20KT P6SM -SHSN SCT015 OVC040 TEMPO 0410/0412 3SM -SHSN OVC015 RMK NXT FCST BY 031800Z", "TAF CYAH 031041Z 0311/0321 VRB03KT P6SM FEW020 TEMPO 0311/0316 BKN020 FM031600 VRB03KT P6SM BKN030 TEMPO 0316/0321 FEW030 RMK FCST BASED ON AUTO OBS. NXT FCST BY 031800Z", "TAF CYAM 030740Z 0308/0320 13008KT P6SM SCT020 BKN040 TEMPO 0308/0309 4SM -RA BR FEW008 OVC020 FM030900 24012KT P6SM SCT025 TEMPO 0309/0316 BKN015 BECMG 0313/0315 28010G20KT FM031600 30012G22KT P6SM BKN025 TEMPO 0316/0320 BKN020 RMK NXT FCST BY 031400Z", "TAF CYAT 030840Z 0309/0319 04005KT P6SM SKC FM031500 04010KT P6SM FEW030 RMK FCST BASED ON AUTO OBS. NXT FCST BY 031500Z", "TAF CYAW 031140Z 0312/0324 29010G20KT P6SM FEW240 BECMG 0316/0318 23012KT FM031800 23012KT P6SM BKN160 FM032000 21012G22KT P6SM BKN100 RMK NXT FCST BY 031800Z", "TAF CYAY 030740Z 0308/0320 22015G25KT P6SM SCT012 BKN025 TEMPO 0308/0317 5SM -SN BKN012 BECMG 0310/0312 31015G25KT FM031700 29020G30KT P6SM BKN030 RMK FCST BASED ON AUTO OBS. NXT FCST BY 031400Z", "TAF CYBC 030740Z 0308/0320 33008G18KT P6SM SKC FM030900 28010G20KT P6SM BKN060 FM031200 27008KT P6SM BKN050 BKN120 FM031500 24008KT P6SM OVC030 TEMPO 0315/0318 P6SM -SN BKN020 OVC030 FM031800 19005KT P6SM SCT015 OVC030 TEMPO 0318/0320 2SM -SHSN BKN015 OVC030 RMK FCST BASED ON AUTO OBS. AUTO OBS REP NON-REPRESENTATIVE PCPN. NXT FCST BY 031400Z", "TAF CYBG 031140Z 0312/0412 09005KT P6SM SCT040 BKN240 FM031400 09005KT P6SM -SHSN BKN040 FM031600 09008KT P6SM -SN SCT020 BKN040 TEMPO 0316/0319 3SM -SN BKN020 OVC040 FM031900 09008KT 6SM -SN SCT015 BKN025 TEMPO 0319/0403 2SM -SN BKN015 OVC025 FM040300 VRB03KT P6SM -SN SCT015 BKN030 FM040600 28010G20KT P6SM SCT020 BKN040 RMK NXT FCST BY 031500Z", "TAF CYBK 031142Z 0312/0324 32008KT P6SM OVC015 TEMPO 0312/0318 SCT015 FM031800 32008KT P6SM FEW015 RMK NXT FCST BY 031800Z", "TAF CYBR 031140Z 0312/0324 03010KT P6SM -SN OVC050 TEMPO 0312/0318 3SM -SN FM031800 05012KT P6SM BKN050 BKN120 TEMPO 0318/0324 5SM -SN RMK NXT FCST BY 031800Z", "TAF CYBW 031140Z 0312/0324 32007KT P6SM FEW025 SCT070 BKN240 TEMPO 0312/0315 5SM BR SCT025 BKN070 OVC240 FM031500 33010KT P6SM SCT012 BKN025 TEMPO 0315/0321 3SM -SHSN BKN012 OVC025 FM032100 09010KT P6SM SCT030 BKN150 RMK FCST BASED ON AUTO OBS. NXT FCST BY 031800Z", "TAF AMD CYBX 030913Z 0309/0320 25010KT P6SM BKN040 TEMPO 0309/0320 SCT040 BECMG 0312/0314 33015G25KT RMK NXT FCST BY 031400Z", "TAF CYCA 030740Z 0308/0320 02020G30KT 3/4SM -SN BLSN VV007 TEMPO 0308/0320 3SM -SN OVC010 BECMG 0309/0311 32025G35KT RMK FCST BASED ON AUTO OBS. NXT FCST BY 031400Z", "TAF CYCB 030640Z 0307/0319 06010KT P6SM FEW040 SCT100 TEMPO 0307/0319 2SM IC RMK NXT FCST BY 031300Z", "TAF CYCO 030640Z 0307/0319 16010KT P6SM SCT020 BKN050 TEMPO 0307/0319 4SM -SN BKN020 RMK NXT FCST BY 031300Z", "TAF AMD CYCX 031006Z 0310/0322 24005KT P6SM FEW200 BECMG 0312/0314 24005G15KT FM031400 24005G15KT P6SM SCT090 TEMPO 0314/0318 BKN090 BECMG 0316/0318 21010G20KT FM031800 21010G20KT P6SM FEW040 BKN070 TEMPO 0321/0322 BKN040 OVC070 RMK NXT FCST BY 031500Z", "TAF CYCY 030640Z 0307/0319 26005KT P6SM SKC PROB30 0307/0319 2SM IC BKN002 RMK FCST BASED ON AUTO OBS. NXT FCST BY 031300Z", "TAF CYDB 031140Z 0312/0324 29005KT P6SM FEW030 SCT070 TEMPO 0312/0316 SCT030 BKN070 RMK FCST BASED ON AUTO OBS. NXT FCST BY 031800Z", "TAF CYDF 030740Z 0308/0320 24012G22KT 6SM -SHSN BKN025 TEMPO 0308/0314 2 1/2SM -SHSN BKN020 PROB40 0308/0314 1SM -SHSN VV010 FM031400 26018G28KT 6SM -SHSN BKN025 TEMPO 0314/0320 2 1/2SM -SHSN BKN020 PROB40 0314/0320 1SM -SHSN VV010 RMK NXT FCST BY 031400Z", "TAF CYDL 031140Z 0312/0323 19005KT P6SM SCT020 OVC060 TEMPO 0312/0316 5SM -SN BKN020 OVC040 FM031600 35007KT P6SM SCT025 BKN060 TEMPO 0316/0323 P6SM -SN BKN025 RMK FCST BASED ON AUTO OBS. NXT FCST BY 031800Z", "TAF CYDN 031140Z 0312/0324 01012KT P6SM FEW040 SCT120 BKN240 RMK FCST BASED ON AUTO OBS. NXT FCST BY 031800Z", "TAF CYDP 030955Z 0310/0322 33020G30KT P6SM BKN030 TEMPO 0310/0318 BKN020 BECMG 0312/0314 33015G25KT FM031800 33012G22KT P6SM BKN040 RMK NXT FCST BY 031400Z", "TAF CYEG 031140Z 0312/0412 31005KT P6SM FEW008 SCT012 BKN050 TEMPO 0312/0316 2SM BR SCT008 BKN012 OVC050 PROB30 0312/0316 1/2SM FZFG VV002 FM031600 VRB03KT P6SM BKN020 TEMPO 0316/0319 SCT020 FM031900 11008KT P6SM SCT040 FM040300 13010KT P6SM FEW030 SCT060 RMK NXT FCST BY 031500Z", "TAF CYEK 031141Z 0312/0324 30010KT P6SM FEW020 TEMPO 0312/0318 3SM IC BR FM031800 32010KT P6SM BKN025 TEMPO 0318/0324 3SM IC BR BKN015 RMK FCST BASED ON AUTO OBS. NXT FCST BY 031800Z", "TAF CYEN 031140Z 0312/0324 06012KT P6SM BKN040 OVC070 TEMPO 0312/0324 4SM -SN OVC030 RMK FCST BASED ON AUTO OBS. NXT FCST BY 031800Z", "TAF AMD CYER 031115Z 0311/0319 32006KT P6SM -SN SCT012 BKN060 TEMPO 0311/0313 OVC012 FM031300 30005KT P6SM -SN OVC010 TEMPO 0313/0317 OVC008 FM031700 32010KT P6SM BKN015 TEMPO 0317/0319 FEW015 BKN030 RMK FCST BASED ON AUTO OBS. NXT FCST BY 031500Z", "TAF CYEU 031040Z 0311/0323 VRB03KT P6SM SKC BECMG 0316/0318 09018KT RMK ADVISORY OFFSITE. NXT FCST BY 031800Z", "TAF CYEV 030640Z 0307/0319 VRB03KT P6SM FEW030 BKN060 FM031000 30007KT P6SM SCT020 BKN040 TEMPO 0310/0315 4SM -SN BKN020 OVC040 FM031500 30007KT P6SM FEW020 BKN040 RMK NXT FCST BY 031300Z", "TAF CYFB 031141Z 0312/0412 VRB03KT P6SM FEW040 FEW150 BECMG 0314/0316 34012KT RMK NXT FCST BY 031800Z", "TAF CYFC 031140Z 0312/0324 21005KT P6SM FEW200 BECMG 0313/0315 23010KT FM031500 23012KT P6SM SCT100 BKN200 BECMG 0316/0318 21012G22KT BKN100 FM032300 20012G22KT 5SM -SN BKN020 OVC040 RMK FCST BASED ON AUTO OBS. NXT FCST BY 031800Z", "TAF CYFS 031150Z 0312/0324 12005KT P6SM SCT020 BKN050 TEMPO 0312/0324 3SM -SN BKN020 OVC040 RMK NXT FCST BY 031800Z", "TAF CYGK 031140Z 0312/0324 16012KT P6SM BKN060 OVC120 BECMG 0313/0315 18020G30KT FM031800 23015G25KT P6SM BKN120 FM032100 26012G22KT P6SM -SHRA OVC050 RMK NXT FCST BY 031400Z", "TAF CYGL 031142Z 0312/0412 08008KT P6SM FEW220 FM031500 07010KT P6SM FEW015 FM031800 06010KT P6SM SCT015 FM032100 02010KT P6SM -SHSN BKN015 BECMG 0322/0324 34008KT FM040400 35005KT P6SM BKN012 PROB30 0404/0412 BKN008 RMK NXT FCST BY 031800Z", "TAF CYGP 030740Z 0308/0320 29012G22KT P6SM SKC BECMG 0313/0315 28015G25KT FM031800 28015G25KT P6SM BKN160 BECMG 0318/0320 25010G20KT BKN050 OVC080 RMK NXT FCST BY 031400Z", "TAF AMD CYGQ 031113Z 0311/0320 04012G22KT 2SM -SN OVC012 TEMPO 0311/0312 6SM -SN SCT012 OVC025 FM031200 01012KT 6SM -SN OVC012 TEMPO 0312/0314 2 1/2SM -SHSN FM031400 02010KT P6SM OVC030 TEMPO 0314/0320 4SM -SN OVC020 RMK FCST BASED ON AUTO OBS. NXT FCST BY 031400Z", "TAF CYGR 031041Z 0311/0323 29022G32KT P6SM -SN BKN030 TEMPO 0311/0315 P6SM NSW SCT030 FM031500 29028G38KT P6SM SCT030 BECMG 0319/0321 25015G25KT FM032100 25015G25KT P6SM SCT230 RMK NXT FCST BY 031400Z", "TAF CYGV 030740Z 0308/0320 28020G30KT P6SM SKC FM030900 29015G25KT P6SM BKN100 BECMG 0310/0312 29012G22KT BKN080 RMK FCST BASED ON AUTO OBS. NXT FCST BY 031400Z", "TAF CYGW 031142Z 0312/0324 VRB03KT P6SM FEW020 TEMPO 0312/0314 P6SM -SN BKN020 FM031400 36005KT P6SM -SN OVC020 TEMPO 0314/0324 P6SM NSW OVC030 BECMG 0316/0318 36010KT RMK FCST BASED ON AUTO OBS. NXT FCST BY 031800Z", "TAF CYGX 030648Z 0307/0319 05008KT 6SM -SN OVC020 TEMPO 0307/0319 P6SM NSW OVC025 BECMG 0310/0312 35004KT RMK NXT FCST BY 031300Z", "TAF AMD CYHD 030925Z 0309/0320 05012KT 4SM -SN OVC020 TEMPO 0309/0316 P6SM NSW OVC030 PROB30 0309/0311 2 1/2SM -SN FM031600 04010KT P6SM BKN040 RMK FCST BASED ON AUTO OBS. NXT FCST BY 031400Z", "TAF CYHK 031142Z 0312/0324 03012KT 6SM IC FEW100 TEMPO 0312/0324 3SM IC HZ RMK FCST BASED ON AUTO OBS. NXT FCST BY 031800Z", "TAF CYHM 031140Z 0312/0412 20012KT P6SM SCT120 BKN200 BECMG 0314/0316 23015G25KT FM031800 25010G20KT P6SM BKN100 FM032200 26010G20KT P6SM -RA OVC060 BECMG 0400/0402 20007KT FM040500 21007KT 4SM -RA BR SCT003 OVC050 PROB30 0405/0408 1/2SM FG BKN003 FM040800 VRB03KT 3/4SM -RA BR OVC003 RMK NXT FCST BY 031800Z", "TAF CYHU 031140Z 0312/0412 17008KT P6SM SCT050 BKN100 TEMPO 0312/0315 5SM -SHSN BKN050 BKN120 BECMG 0313/0315 17015G25KT FM031700 18015G25KT P6SM -SHRA SCT020 OVC050 TEMPO 0317/0319 3SM -SHRASN FM032000 20015G25KT P6SM BKN015 BKN150 BECMG 0322/0324 24012G22KT FM040000 24012G22KT P6SM SCT050 BECMG 0403/0405 26007KT SKC RMK FCST BASED ON AUTO OBS. NXT FCST BY 031800Z", "TAF CYHY 031154Z 0312/0324 VRB03KT P6SM FEW040 SCT080 TEMPO 0312/0316 BKN020 OVC040 FM031600 07007KT P6SM SCT020 BKN040 TEMPO 0316/0324 5SM -SN BKN020 OVC040 RMK NXT FCST BY 031800Z", "TAF CYHZ 031140Z 0312/0412 31015G25KT P6SM FEW200 BECMG 0312/0314 28012KT FM031800 26010G20KT P6SM BKN160 BECMG 0319/0321 21015KT FM040000 20012G22KT P6SM BKN100 FM040300 22012G22KT P6SM SCT040 BKN080 OVC100 TEMPO 0403/0406 3SM -SN BKN020 OVC040 PROB30 0403/0406 2SM -SN BKN012 OVC025 FM040600 22012KT 2SM -SN SCT008 BKN012 OVC025 FM040900 20009KT 4SM -RASN BR BKN006 OVC012 FM041100 22008KT 6SM -DZ BR SCT006 OVC012 RMK NXT FCST BY 031500Z", "TAF CYIO 030640Z 0307/0319 20005KT P6SM FEW020 TEMPO 0307/0319 5SM IC RMK FCST BASED ON AUTO OBS. NXT FCST BY 031300Z", "TAF CYIV 030648Z 0307/0319 03006KT P6SM SKC RMK FCST BASED ON AUTO OBS. NXT FCST BY 031300Z", "TAF CYJT 031140Z 0312/0412 28018G30KT P6SM OVC025 TEMPO 0312/0316 3SM -SHSN BLSN OVC015 PROB30 0312/0316 2SM -SHSN VV008 FM031600 26015G25KT P6SM OVC025 TEMPO 0316/0322 3SM -SHSN OVC020 PROB30 0316/0322 2SM -SHSN VV006 FM032200 26012G22KT P6SM BKN025 FM040400 21012G22KT 3SM -SN OVC012 FM040600 20012G22KT 1 1/2SM -SN VV008 PROB30 0406/0409 3/4SM -SN FM041100 20012G22KT 3SM -SN OVC006 RMK NXT FCST BY 031800Z", "TAF CYKA 030640Z 0307/0319 VRB03KT P6SM SCT080 TEMPO 0307/0319 BKN080 BECMG 0316/0318 27008KT RMK NXT FCST BY 031300Z", "TAF CYKF 030740Z 0308/0320 VRB03KT P6SM FEW100 FM031200 20010G20KT P6SM BKN140 BECMG 0315/0317 23015G25KT FM031900 26010G20KT P6SM BKN100 RMK FCST BASED ON AUTO OBS. NXT FCST BY 031400Z", "TAF CYKJ 030940Z 0310/0322 VRB03KT P6SM FEW050 BKN080 FM031300 15008KT P6SM BKN040 OVC080 TEMPO 0313/0322 2 1/2SM -SN BKN020 OVC040 RMK FCST BASED ON AUTO OBS. NXT FCST BY 031300Z", "TAF AMD CYKL 031015Z 0310/0320 34005KT 3/4SM -SN BKN006 OVC012 TEMPO 0310/0312 3SM -SN SCT006 OVC012 FM031200 02005KT 2SM -SN OVC012 TEMPO 0312/0314 6SM -SN SCT012 OVC025 FM031400 02008KT P6SM BKN030 TEMPO 0314/0316 5SM -SN BKN020 RMK FCST BASED ON AUTO OBS. NXT FCST BY 031400Z", "TAF CYLD 031142Z 0312/0324 23007KT 3SM -SN OVC004 TEMPO 0312/0315 P6SM NSW SCT004 OVC012 FM031500 25010G20KT 1 1/2SM -SHSN OVC008 TEMPO 0315/0319 6SM -SN SCT007 OVC015 FM031900 01012KT P6SM OVC025 TEMPO 0319/0324 5SM -SN OVC020 RMK NXT FCST BY 031400Z", "TAF CYLL 031140Z 0312/0324 17005KT P6SM FEW007 SCT080 BKN200 TEMPO 0312/0318 2SM BR SCT007 BKN080 OVC200 FM031800 16010KT P6SM BKN040 TEMPO 0318/0324 5SM -SN BR BKN020 RMK FCST BASED ON AUTO OBS. NXT FCST BY 031800Z", "TAF CYLW 030640Z 0307/0319 VRB03KT P6SM FEW080 SCT160 RMK FCST BASED ON AUTO OBS. NXT FCST BY 031300Z", "TAF CYMA 031140Z 0312/0324 VRB03KT P6SM FEW050 SCT100 TEMPO 0312/0318 BKN050 RMK NXT FCST BY 031800Z", "TAF AMD CYMH 031111Z 0311/0321 33012KT P6SM SCT008 BKN025 TEMPO 0311/0312 4SM -SN BR BKN008 OVC025 FM031200 32015G25KT P6SM BKN050 TEMPO 0312/0314 5SM -SHSN BKN020 FM031400 32020G30KT P6SM BKN030 TEMPO 0314/0321 5SM -SHSN BKN020 RMK FCST BASED ON AUTO OBS. NXT FCST BY 031400Z", "TAF CYMJ 031140Z 0312/0324 05010KT 5SM -SN SCT012 OVC030 TEMPO 0312/0321 2SM -SN BR BKN012 OVC025 FM032100 06008KT 6SM -SN SCT010 BKN025 OVC040 TEMPO 0321/0324 5SM -SN BKN010 OVC025 RMK NXT FCST BY 031800Z", "TAF AMD CYMM 031016Z 0310/0319 32008KT 3SM -SN OVC020 TEMPO 0310/0312 1SM -SN BR OVC010 BECMG 0310/0312 10007KT FM031200 10007KT P6SM SCT015 OVC030 TEMPO 0312/0319 2SM -SN BR BKN015 OVC030 RMK FCST BASED ON AUTO OBS. NXT FCST BY 031300Z", "TAF CYMO 031144Z 0312/0324 01010KT 6SM -SN OVC030 TEMPO 0312/0316 2 1/2SM -SN OVC020 FM031600 02010G20KT P6SM BKN050 OVC090 FM032200 36010G20KT P6SM FEW012 SCT090 RMK FCST BASED ON AUTO OBS. NXT FCST BY 031800Z", "TAF CYMT 031144Z 0312/0324 09006KT 6SM -SN OVC025 TEMPO 0312/0314 2SM -SN OVC015 FM031400 15010KT 1 1/2SM -SN VV008 TEMPO 0314/0322 3SM -SN OVC015 FM032200 VRB03KT 5SM -SN OVC012 RMK FCST BASED ON AUTO OBS. NXT FCST BY 031800Z", "TAF CYMX 031140Z 0312/0412 VRB03KT P6SM SCT040 BKN080 TEMPO 0312/0315 4SM -SN OVC040 FM031600 15006KT 6SM -SHSNRA OVC025 TEMPO 0316/0319 1 1/2SM -SHSN VV010 FM031900 20008KT 5SM -SHRA -DZ SCT008 OVC012 FM032100 22010KT P6SM SCT015 FM040200 24010KT P6SM FEW030 BECMG 0406/0408 VRB03KT RMK NXT FCST BY 031800Z", "TAF CYNA 030740Z 0308/0320 28022G32KT P6SM FEW030 TEMPO 0308/0312 BKN030 FM031200 28022G32KT P6SM BKN030 BKN100 TEMPO 0312/0315 P6SM -SN BECMG 0312/0314 27015G25KT FM031800 27015G25KT P6SM SKC RMK FCST BASED ON AUTO OBS. NXT FCST BY 031400Z", "TAF CYNE 030648Z 0307/0319 04008KT P6SM SKC RMK FCST BASED ON AUTO OBS. NXT FCST BY 031300Z", "TAF CYOD 031140Z 0312/0412 15005KT P6SM SCT010 OVC025 TEMPO 0312/0316 3SM -SHSN BR BKN010 OVC015 PROB30 0312/0316 2SM -FZDZ BR BKN005 OVC010 FM031600 17008KT P6SM SCT020 BKN030 TEMPO 0316/0324 5SM -SN SCT010 BKN020 FM040000 17008KT P6SM -SN SCT008 BKN030 BECMG 0404/0406 17005KT RMK NXT FCST BY 031500Z", "TAF CYOJ 030640Z 0307/0319 VRB03KT P6SM FEW030 FM031000 VRB03KT P6SM FEW008 TEMPO 0310/0316 2 1/2SM BR SCT008 PROB30 0310/0316 1/2SM FZFG VV002 FM031600 VRB03KT P6SM FEW020 RMK FCST BASED ON AUTO OBS. NXT FCST BY 031300Z", "TAF CYOO 030740Z 0308/0320 VRB03KT P6SM -RA BKN060 FM031100 13010KT P6SM BKN100 BECMG 0313/0315 22012G22KT RMK FCST BASED ON AUTO OBS. NXT FCST BY 031400Z", "TAF CYOW 031140Z 0312/0412 10005KT 6SM -SN SCT020 OVC080 TEMPO 0312/0313 2 1/2SM -SHSN BKN012 OVC025 FM031300 14007KT P6SM SCT040 BKN080 TEMPO 0313/0315 5SM -SN OVC040 FM031500 20010G20KT 6SM -SHSNRA SCT015 OVC040 TEMPO 0315/0317 1 1/2SM -SHSN VV010 PROB30 0315/0317 3/4SM -SHSN FM031700 21015G25KT P6SM BKN030 BKN120 FM032100 24015G25KT P6SM FEW030 BKN190 BECMG 0321/0323 25008KT FM040800 30005KT P6SM SKC RMK NXT FCST BY 031500Z", "TAF CYPA 030648Z 0307/0319 07006KT P6SM SCT080 BKN260 RMK NXT FCST BY 031300Z", "TAF AMD CYPE 031020Z 0310/0319 VRB03KT P6SM FEW008 BKN040 TEMPO 0310/0316 5SM BR SCT008 OVC040 PROB30 0310/0316 1/2SM FZFG VV002 FM031600 36005KT P6SM FEW020 RMK NXT FCST BY 031300Z", "TAF CYPH 031142Z 0312/0324 VRB03KT P6SM OVC012 TEMPO 0312/0314 P6SM -SN OVC007 FM031400 01005KT P6SM BKN012 TEMPO 0314/0324 SCT012 RMK FCST BASED ON AUTO OBS. NXT FCST BY 031800Z", "TAF AMD CYPL 030914Z 0309/0320 03010G20KT 2SM IC OVC020 TEMPO 0309/0313 P6SM NSW SCT020 FM031300 03008KT P6SM BKN030 TEMPO 0313/0316 SCT030 FM031600 03005KT P6SM FEW030 RMK FCST BASED ON AUTO OBS. AUTO OBS REP NON-REPRESENTATIVE PCPN. NXT FCST BY 031400Z", "TAF CYPQ 030940Z 0310/0322 14010KT P6SM BKN100 FM031200 20010G20KT P6SM BKN070 FM031400 23015G25KT P6SM SCT050 BKN150 FM031800 23010G20KT P6SM BKN100 FM032100 29010G20KT P6SM -SHRA OVC050 RMK FCST BASED ON AUTO OBS. NXT FCST BY 031400Z", "TAF CYPR 030642Z 0307/0319 VRB03KT P6SM FEW020 SCT060 TEMPO 0307/0314 BKN020 FM031400 27008KT P6SM FEW020 SCT080 TEMPO 0314/0319 6SM -SHRA BR BKN020 OVC080 RMK FCST BASED ON AUTO OBS. NXT FCST BY 031300Z", "TAF CYPX 031142Z 0312/0324 VRB03KT 5SM -SN OVC020 TEMPO 0312/0324 P6SM NSW BKN025 BECMG 0316/0318 32010KT RMK FCST BASED ON AUTO OBS. NXT FCST BY 031800Z", "TAF CYPY 031140Z 0312/0324 33005KT P6SM OVC040 TEMPO 0312/0324 3SM -SN OVC020 BECMG 0319/0321 10007KT RMK FCST BASED ON AUTO OBS. NXT FCST BY 031800Z", "TAF CYQA 031140Z 0312/0324 16012KT P6SM -SN SCT015 OVC040 TEMPO 0312/0314 2 1/2SM -SN -FZRA BR BKN015 OVC040 BECMG 0312/0314 23010G20KT FM031400 23010G20KT P6SM BKN040 FM031800 27012G22KT P6SM BKN150 BECMG 0321/0323 30007KT RMK FCST BASED ON AUTO OBS. NXT FCST BY 031400Z", "TAF CYQB 031140Z 0312/0412 VRB03KT P6SM FEW100 SCT230 FM031500 07007KT P6SM BKN070 OVC130 FM031800 08007KT 6SM -SNRA OVC030 TEMPO 0318/0321 2SM -SN FM032100 23010KT 6SM -RASN SCT008 OVC020 TEMPO 0321/0401 2SM -SNRA FM040100 VRB03KT 6SM BR OVC015 PROB30 0401/0407 2SM -SHRASN BR OVC005 FM040700 25007KT 6SM BR FEW003 PROB30 0407/0412 2SM BR BKN003 RMK NXT FCST BY 031800Z", "TAF CYQD 030648Z 0307/0319 06006KT P6SM SKC RMK FCST BASED ON AUTO OBS. NXT FCST BY 031300Z", "TAF CYQF 031140Z 0312/0324 33005KT 6SM BR FEW002 SCT030 TEMPO 0312/0316 3SM BR SCT002 BKN030 PROB30 0312/0315 1/2SM FZFG VV002 FM031600 VRB03KT P6SM BKN025 TEMPO 0316/0320 3SM BR BKN012 FM032000 VRB03KT P6SM BKN030 RMK FCST BASED ON AUTO OBS. NXT FCST BY 031800Z", "TAF CYQG 031140Z 0312/0412 22008KT P6SM SCT160 BECMG 0313/0315 22012G22KT FM031800 20010KT P6SM BKN090 FM032100 27007KT P6SM -RA OVC050 FM032300 36005KT 4SM -RA BR SCT005 OVC015 PROB30 0323/0402 1SM BR OVC005 FM040300 02010KT 1 1/2SM -RA BR OVC005 PROB30 0403/0412 3/4SM -DZ BR OVC002 RMK FCST BASED ON AUTO OBS. NXT FCST BY 031800Z", "TAF CYQH 031140Z 0312/0324 30007KT P6SM SCT040 BKN070 TEMPO 0312/0324 4SM -SN BKN040 OVC070 BECMG 0315/0317 30010KT RMK NXT FCST BY 031800Z", "TAF CYQI 031140Z 0312/0324 VRB03KT P6SM SKC BECMG 0313/0315 28010KT BECMG 0315/0317 22012KT FM032100 19012G22KT P6SM BKN180 BKN230 RMK NXT FCST BY 031800Z", "TAF CYQK 030740Z 0308/0320 03012KT 2 1/2SM -SN OVC007 TEMPO 0308/0311 6SM -SN OVC020 PROB30 0308/0311 BKN004 FM031100 03012KT 3SM -SN OVC020 TEMPO 0311/0316 P6SM NSW OVC030 FM031600 03012KT P6SM BKN040 RMK NXT FCST BY 031400Z", "TAF CYQL 031140Z 0312/0324 29005KT P6SM SCT020 BKN050 OVC080 TEMPO 0312/0316 2SM -SN BR SCT006 BKN020 OVC050 BECMG 0313/0315 08008KT FM031600 06008KT P6SM BKN030 TEMPO 0316/0324 5SM -SN BR BKN015 RMK FCST BASED ON AUTO OBS. NXT FCST BY 031800Z", "TAF CYQM 031140Z 0312/0412 26012G22KT P6SM FEW220 FM031800 23010G20KT P6SM SCT080 BKN160 FM032100 22012G22KT P6SM BKN080 OVC120 FM040000 21012G22KT P6SM SCT040 OVC080 TEMPO 0400/0403 4SM -SHSN BKN020 OVC040 FM040300 22010KT 2SM -SN SCT008 OVC020 TEMPO 0403/0407 6SM -SN OVC030 FM040700 22012KT P6SM BKN030 FM041100 24005KT P6SM FEW030 RMK NXT FCST BY 031800Z", "TAF CYQQ 031140Z 0312/0412 30005KT P6SM FEW020 FEW040 BECMG 0318/0320 36005KT FM032200 22005KT P6SM SCT060 BKN120 TEMPO 0322/0401 P6SM -SHRA BKN060 FM040300 32005KT P6SM FEW060 SCT120 FM041100 30005KT P6SM FEW015 SCT030 RMK NXT FCST BY 031800Z", "TAF CYQR 031140Z 0312/0412 07010KT 6SM -SN SCT030 BKN060 TEMPO 0312/0404 3SM -SN BKN030 OVC060 FM040400 09008KT P6SM BKN050 TEMPO 0404/0412 5SM -SN RMK NXT FCST BY 031800Z", "TAF CYQT 030740Z 0308/0320 34005KT 2SM -SN OVC003 TEMPO 0308/0311 6SM -SN OVC012 FM031100 34005KT 4SM -SN OVC008 TEMPO 0311/0313 P6SM NSW OVC012 FM031300 34008KT 5SM -SN OVC020 TEMPO 0313/0315 P6SM NSW OVC040 FM031500 01007KT P6SM OVC040 RMK NXT FCST BY 031400Z", "TAF CYQU 030640Z 0307/0319 VRB03KT P6SM SCT020 BKN150 TEMPO 0307/0309 BKN020 BKN150 FM030900 VRB03KT P6SM FEW015 SCT030 BKN150 TEMPO 0309/0316 2SM BR FEW008 PROB30 0309/0316 1/2SM FZFG VV002 FM031600 VRB03KT P6SM FEW020 SCT150 RMK NXT FCST BY 031300Z", "TAF CYQV 031140Z 0312/0324 02010KT P6SM BKN100 BKN220 RMK FCST BASED ON AUTO OBS. NXT FCST BY 031800Z", "TAF CYQW 031140Z 0312/0324 11008KT P6SM SCT040 BKN120 TEMPO 0312/0315 6SM -SN BKN040 BKN120 FM031500 12008KT P6SM SCT060 BKN100 RMK FCST BASED ON AUTO OBS. NXT FCST BY 031800Z", "TAF CYQX 031140Z 0312/0412 25018G28KT P6SM BKN030 TEMPO 0312/0323 SCT030 FM032300 26015G25KT P6SM SCT030 BECMG 0400/0402 25012G22KT FM040900 24012G22KT P6SM BKN080 FM041100 22012G22KT 5SM -SN OVC020 RMK NXT FCST BY 031800Z", "TAF CYQY 031140Z 0312/0324 27015G25KT P6SM BKN030 FM031500 28015G30KT P6SM SCT030 BECMG 0319/0321 18012G22KT FM032300 19008KT P6SM BKN100 RMK NXT FCST BY 031800Z", "TAF CYQZ 031140Z 0312/0324 VRB03KT P6SM SKC FM032100 34006KT P6SM SCT060 RMK FCST BASED ON AUTO OBS. NXT FCST BY 031900Z", "TAF CYRB 031141Z 0312/0412 34008KT P6SM FEW015 FEW220 TEMPO 0312/0412 3SM -SN IC BKN015 BECMG 0314/0315 01012KT RMK NXT FCST BY 031800Z", "TAF CYRJ 031140Z 0312/0324 VRB03KT P6SM OVC070 TEMPO 0312/0315 4SM -SN OVC040 FM031500 12005KT 6SM -SN OVC030 TEMPO 0315/0320 2 1/2SM -SN BKN015 OVC030 PROB40 0318/0320 2SM -SN FM032000 18012G22KT 1 1/2SM -SN SCT020 OVC030 RMK NXT FCST BY 031400Z", "TAF CYRL 031041Z 0311/0323 05008KT 4SM -SN BKN020 TEMPO 0311/0315 P6SM NSW SCT020 FM031500 05008KT P6SM BKN030 BECMG 0321/0323 FEW030 RMK NXT FCST BY 031400Z", "TAF CYRQ 030740Z 0308/0320 22007KT P6SM BKN200 FM031200 20008KT P6SM SCT060 BKN090 FM031700 18010G20KT 6SM -SNRA OVC040 TEMPO 0317/0320 2SM -SN OVC020 BECMG 0318/0320 21010G20KT RMK FCST BASED ON AUTO OBS. NXT FCST BY 031400Z", "TAF CYRT 031141Z 0312/0324 01008KT 5SM -SN BR OVC020 TEMPO 0312/0324 P6SM NSW BKN025 RMK NXT FCST BY 031800Z", "TAF AMD CYSB 031003Z 0310/0320 15010G20KT 6SM -SN OVC008 TEMPO 0310/0315 4SM -SN OVC005 FM031500 23012G22KT P6SM BKN030 RMK NXT FCST BY 031400Z", "TAF CYSC 031041Z 0311/0323 11005KT P6SM SKC FM031500 19015G25KT P6SM BKN060 BKN100 FM031800 20015G25KT P6SM BKN080 BKN140 BECMG 0320/0322 20010G20KT RMK FCST BASED ON AUTO OBS. NXT FCST BY 031800Z", "TAF CYSF 031140Z 0312/0324 09007KT 6SM -SN BKN025 OVC040 TEMPO 0312/0324 3SM -SN BKN012 OVC025 RMK FCST BASED ON AUTO OBS. NXT FCST BY 031800Z", "TAF CYSJ 031140Z 0312/0324 29007KT P6SM SKC FM031500 23012KT P6SM BKN200 BECMG 0315/0317 21012G22KT FM031700 21012G22KT P6SM BKN120 BKN180 FM032100 21018G28KT P6SM BKN120 FM032300 20018G28KT P6SM -SN BKN030 OVC080 RMK NXT FCST BY 031800Z", "TAF CYSM 030540Z 0306/0318 VRB03KT P6SM -SN SCT020 OVC050 TEMPO 0306/0318 5SM -SN BKN020 OVC050 RMK NXT FCST BY 031200Z", "TAF CYTE 030640Z 0307/0319 VRB03KT P6SM FEW020 SCT230 TEMPO 0307/0319 5SM -SN BKN015 RMK FCST BASED ON AUTO OBS. NXT FCST BY 031300Z", "TAF CYTH 030648Z 0307/0319 05006KT P6SM SKC RMK NXT FCST BY 031300Z", "TAF CYTL 030740Z 0308/0320 03005KT P6SM SKC BECMG 0314/0316 SCT020 BKN030 RMK FCST BASED ON AUTO OBS. NXT FCST BY 031400Z", "TAF CYTR 031140Z 0312/0412 14005KT P6SM FEW050 BKN120 FM031300 18010G20KT P6SM SCT050 BKN100 BECMG 0313/0315 21015G25KT FM031500 21015G25KT P6SM BKN050 BKN080 TEMPO 0315/0318 P6SM -SHRA BECMG 0316/0318 24018G30KT FM032100 27010G20KT P6SM SCT080 BKN100 BECMG 0400/0402 VRB03KT FM040500 VRB03KT P6SM FEW006 SCT020 OVC200 RMK NXT FCST BY 031800Z", "TAF AMD CYTS 031147Z 0311/0320 10005KT 1/2SM SN VV004 TEMPO 0311/0313 1 1/2SM -SN OVC010 FM031300 VRB03KT 1 1/2SM -SN VV008 TEMPO 0313/0318 4SM -SN OVC020 FM031800 35012KT 2SM -SN OVC015 BECMG 0318/0320 6SM -SN OVC025 RMK NXT FCST BY 031400Z", "TAF CYTZ 030740Z 0308/0408 07007KT P6SM BKN070 BECMG 0311/0313 22010G20KT FM031500 22015G25KT P6SM SCT050 BKN150 FM031800 24010G20KT P6SM BKN100 BECMG 0320/0322 27010G20KT FM040000 27010G20KT P6SM -RA OVC050 BECMG 0400/0402 18010KT FM040500 24007KT 6SM BR FEW003 BKN050 PROB30 0405/0408 2SM BR BKN003 RMK FCST BASED ON AUTO OBS. NXT FCST BY 031400Z", "TAF CYUL 031140Z 0312/0412 12006KT P6SM SCT050 BKN100 TEMPO 0313/0315 5SM -SHSN OVC050 BECMG 0314/0315 16012G22KT FM031700 17012KT 6SM -RASN SCT020 OVC050 TEMPO 0317/0320 2SM -SHSN OVC020 FM032000 22015G25KT P6SM SCT015 BKN140 BECMG 0321/0323 25010G20KT FM040000 25010G20KT P6SM SCT050 BECMG 0402/0404 26008KT SKC RMK NXT FCST BY 031500Z", "TAF CYUX 030640Z 0307/0319 36012KT P6SM SCT200 TEMPO 0307/0319 5SM IC FEW005 RMK FCST BASED ON AUTO OBS. NXT FCST BY 031300Z", "TAF CYUY 031143Z 0312/0324 17010KT 1 1/2SM -SHSN BKN008 OVC020 TEMPO 0312/0317 6SM -SN SCT010 OVC030 FM031700 17012KT P6SM SCT015 OVC025 TEMPO 0317/0319 3SM -SN OVC015 FM031900 VRB03KT 5SM -SHSNRA OVC015 FM032100 33010KT P6SM BKN020 FM032300 34010G20KT 4SM -SN OVC012 RMK NXT FCST BY 031800Z", "TAF CYVC 030648Z 0307/0319 08006KT P6SM SKC BECMG 0310/0312 BKN060 RMK NXT FCST BY 031300Z", "TAF AMD CYVM 031041Z 0310/0319 VRB03KT P6SM FEW006 SCT200 TEMPO 0310/0312 2SM BR BKN006 RMK FCST BASED ON AUTO OBS. NXT FCST BY 031300Z", "TAF CYVO 031143Z 0312/0324 16014KT 6SM -SN SCT008 OVC025 TEMPO 0312/0315 1 1/2SM -SN VV008 FM031500 17008KT P6SM SCT015 OVC025 TEMPO 0315/0320 3SM -SN OVC015 FM032000 VRB03KT 5SM -SHSNRA OVC015 FM032200 34008KT P6SM BKN020 RMK NXT FCST BY 031800Z", "TAF CYVP 031142Z 0312/0324 36010KT P6SM -SN OVC012 TEMPO 0312/0315 5SM -SN FM031500 36010G20KT P6SM BKN020 BECMG 0315/0317 BKN030 RMK NXT FCST BY 031800Z", "TAF CYVQ 031142Z 0312/0324 12005KT P6SM SCT020 BKN050 TEMPO 0312/0324 2SM -SN BKN020 OVC050 BECMG 0320/0322 28008KT RMK NXT FCST BY 031800Z", "TAF CYVR 031140Z 0312/0418 VRB03KT P6SM FEW009 SCT020 TEMPO 0312/0319 4SM -DZ BR SCT009 BKN020 PROB30 0312/0314 1/2SM FG VV003 FM031900 28008KT P6SM FEW030 SCT080 TEMPO 0319/0409 P6SM -RA BKN030 OVC080 BECMG 0404/0406 09006KT FM040900 09005KT P6SM FEW020 SCT050 TEMPO 0409/0418 5SM -SN BR BKN020 OVC050 BECMG 0416/0418 27006KT RMK NXT FCST BY 031500Z", "TAF CYVV 031040Z 0311/0323 18015G25KT P6SM -RA OVC030 TEMPO 0311/0313 4SM -RA BR OVC020 FM031400 24015G25KT P6SM BKN140 BECMG 0317/0319 24010G20KT RMK NXT FCST BY 031400Z", "TAF CYWG 031140Z 0312/0412 02020G30KT P6SM SCT008 OVC015 TEMPO 0312/0316 5SM -SN BKN008 OVC015 FM031600 01015G25KT P6SM BKN025 TEMPO 0316/0404 6SM -SN OVC020 FM040400 02010KT P6SM SCT030 BKN100 FM040700 04008KT P6SM FEW030 SCT100 RMK NXT FCST BY 031800Z", "TAF CYWK 030740Z 0308/0320 29012G22KT P6SM BKN030 TEMPO 0308/0311 5SM -SN BKN020 FM031100 29012G22KT P6SM BKN030 TEMPO 0311/0320 BKN020 BECMG 0312/0314 30010KT RMK FCST BASED ON AUTO OBS. NXT FCST BY 031400Z", "TAF CYWL 030640Z 0307/0319 VRB03KT P6SM FEW050 SCT120 PROB30 0310/0316 1SM BR RMK NXT FCST BY 031300Z", "TAF AMD CYXC 031105Z 0311/0319 28008KT P6SM FEW020 SCT040 TEMPO 0311/0319 P6SM -SN BKN020 OVC040 RMK NXT FCST BY 031300Z", "TAF CYXE 031140Z 0312/0412 04008KT P6SM SCT030 BKN080 TEMPO 0312/0315 5SM -SN BKN030 BKN080 FM031500 06008KT P6SM SCT030 BKN100 FM040000 07008KT P6SM SCT100 BKN220 BECMG 0406/0408 VRB03KT RMK NXT FCST BY 031800Z", "TAF CYXH 031140Z 0312/0324 21005KT 6SM -SN OVC012 TEMPO 0312/0324 1 1/2SM -SN BR OVC006 BECMG 0314/0316 02010KT RMK FCST BASED ON AUTO OBS. NXT FCST BY 031800Z", "TAF CYXJ 030640Z 0307/0319 13005KT P6SM FEW100 FM031100 09007KT P6SM FEW008 SCT040 TEMPO 0311/0319 2SM -SN BR SCT008 BKN040 RMK NXT FCST BY 031300Z", "TAF CYXL 030740Z 0308/0320 05012KT 2SM -SN BKN008 OVC012 TEMPO 0308/0310 6SM -SN SCT008 OVC025 FM031000 05012G22KT 6SM -SN OVC025 TEMPO 0310/0312 2SM -SN OVC010 FM031200 05012KT 4SM -SN OVC020 TEMPO 0312/0316 P6SM NSW OVC030 FM031600 03007KT P6SM OVC040 RMK NXT FCST BY 031400Z", "TAF CYXR 031144Z 0312/0324 14012KT 1SM -SN BKN004 OVC012 BECMG 0312/0313 6SM -SN SCT015 OVC025 FM031300 18010KT 5SM -SHRASN OVC015 TEMPO 0313/0321 P6SM NSW SCT015 OVC025 BECMG 0317/0319 26012G22KT FM032100 33010G20KT 3SM -SHRASN OVC015 RMK FCST BASED ON AUTO OBS. NXT FCST BY 031800Z", "TAF CYXS 030642Z 0307/0319 VRB03KT P6SM FEW070 BECMG 0308/0310 17006KT RMK FCST BASED ON AUTO OBS. NXT FCST BY 031300Z", "TAF CYXT 030647Z 0307/0319 VRB03KT P6SM SCT060 TEMPO 0307/0309 BKN060 FM030900 VRB03KT P6SM SCT003 BKN040 TEMPO 0309/0316 1SM -SN BR BKN003 PROB30 0309/0316 3/4SM BR VV002 FM031600 VRB03KT P6SM SCT005 BKN060 TEMPO 0316/0319 BKN005 OVC060 BECMG 0316/0318 18006KT RMK NXT FCST BY 031300Z", "TAF CYXU 031140Z 0312/0412 18010KT P6SM FEW160 SCT240 BECMG 0312/0314 22015G25KT FM031700 26012KT P6SM BKN100 FM032100 28012KT P6SM -RA OVC050 FM040000 24010KT 4SM -RA SCT007 OVC040 FM040200 20007KT 4SM -RA BR SCT003 OVC050 PROB30 0402/0408 1/2SM FG BKN002 FM040800 04007KT 3SM -RA BR SCT003 OVC020 PROB30 0408/0412 3/4SM BR BKN003 RMK NXT FCST BY 031800Z", "TAF CYXX 031140Z 0312/0412 VRB03KT P6SM FEW020 SCT060 TEMPO 0312/0316 3SM -DZ BR SCT002 BKN020 PROB30 0312/0316 1/2SM FG VV002 FM031600 20008KT P6SM SCT030 TEMPO 0316/0406 BKN030 BECMG 0404/0406 VRB03KT FM040600 VRB03KT P6SM SCT020 BKN040 TEMPO 0406/0412 6SM -DZ BR BKN020 OVC040 RMK NXT FCST BY 031800Z", "TAF CYXY 031140Z 0312/0324 36005KT P6SM FEW030 SCT060 BKN150 TEMPO 0312/0316 2SM -SN BKN030 OVC060 FM032000 36005KT P6SM SCT060 RMK NXT FCST BY 031800Z", "TAF AMD CYYB 031126Z 0311/0320 16010KT 3/8SM SN OVC006 TEMPO 0311/0313 2SM -SN BR SCT006 OVC012 FM031300 18012KT 1 1/2SM -SN OVC010 TEMPO 0313/0315 6SM -SN OVC025 BECMG 0313/0315 22012G22KT FM031500 22012G22KT P6SM OVC015 FM031700 24010G20KT P6SM BKN040 RMK FCST BASED ON AUTO OBS. NXT FCST BY 031400Z", "TAF CYYC 031140Z 0312/0412 35008KT P6SM FEW030 SCT080 BKN240 TEMPO 0312/0315 5SM BR SCT030 BKN080 OVC240 FM031500 35010KT P6SM SCT012 BKN025 TEMPO 0315/0321 3SM -SHSN BKN012 OVC025 FM032100 09010KT P6SM SCT030 BKN150 FM040300 11005KT P6SM SCT008 BKN020 TEMPO 0403/0412 2SM BR BKN008 OVC020 RMK NXT FCST BY 031500Z", "TAF CYYE 030640Z 0307/0319 VRB03KT P6SM SCT080 BKN180 FM030900 VRB03KT P6SM SCT050 TEMPO 0309/0315 BKN050 FM031500 33007KT P6SM SCT020 BKN050 TEMPO 0315/0319 3SM -SN BKN020 RMK NXT FCST BY 031300Z", "TAF CYYF 030640Z 0307/0319 VRB03KT P6SM FEW080 RMK NXT FCST BY 031300Z", "TAF CYYG 031140Z 0312/0324 28012G22KT P6SM FEW200 FM031700 25015G25KT P6SM BKN160 FM032100 23012KT P6SM BKN080 OVC160 BECMG 0322/0324 BKN060 OVC080 RMK NXT FCST BY 031800Z", "TAF CYYH 022340Z 0300/0312 02008KT P6SM FEW060 SCT140 BECMG 0301/0303 06008KT BECMG 0307/0309 03008KT RMK NXT FCST BY 030600Z", "TAF CYYJ 031140Z 0312/0412 25005KT P6SM FEW009 SCT040 TEMPO 0312/0319 BKN009 OVC040 FM031900 09008KT P6SM SCT030 TEMPO 0319/0408 P6SM -SHRA BKN030 BECMG 0404/0406 VRB03KT FM040800 VRB03KT P6SM SCT015 BKN030 TEMPO 0408/0412 6SM -SHRA BR BKN015 OVC030 RMK NXT FCST BY 031800Z", "TAF CYYL 030648Z 0307/0319 09004KT P6SM SKC FM031500 11006KT P6SM BKN100 RMK FCST BASED ON AUTO OBS. NXT FCST BY 031300Z", "TAF CYYN 031140Z 0312/0324 02008KT 6SM -SN SCT012 OVC030 TEMPO 0312/0316 2SM -SN OVC012 FM031600 04008KT P6SM SCT012 OVC030 TEMPO 0316/0321 3SM -SN BKN012 OVC030 FM032100 06008KT P6SM BKN030 TEMPO 0321/0324 5SM -SN RMK FCST BASED ON AUTO OBS. NXT FCST BY 031800Z", "TAF CYYQ 031140Z 0312/0412 30006KT 6SM -SN OVC005 TEMPO 0312/0317 P6SM NSW OVC010 FM031700 32010KT P6SM OVC012 TEMPO 0317/0321 6SM -SN OVC008 FM032100 31008KT P6SM BKN012 BECMG 0321/0323 SCT012 FM040200 30006KT P6SM SKC BECMG 0404/0406 25006KT RMK NXT FCST BY 031800Z", "TAF CYYR 031140Z 0312/0412 34015G25KT P6SM SCT020 BKN060 TEMPO 0312/0315 5SM BLSN FM031500 33015KT P6SM SCT020 BKN040 FM032200 30010KT P6SM SCT040 FM040200 25010KT P6SM FEW040 RMK NXT FCST BY 031800Z", "TAF CYYT 031140Z 0312/0412 27018G28KT P6SM BKN030 TEMPO 0312/0323 SCT030 FM032300 27015G25KT P6SM SCT030 BECMG 0400/0402 26012G22KT FM040900 25012G22KT P6SM BKN080 FM041100 22012G22KT 4SM -SN OVC015 RMK NXT FCST BY 031800Z", "TAF CYYU 030740Z 0308/0320 VRB03KT 1 1/2SM -SN VV006 TEMPO 0308/0317 3SM -SN OVC012 BECMG 0310/0312 03010G20KT FM031700 36010G20KT P6SM BKN020 TEMPO 0317/0320 4SM -SN RMK NXT FCST BY 031400Z", "TAF CYYY 030740Z 0308/0320 31012G22KT P6SM SKC FM031200 29008KT P6SM BKN040 BKN080 FM031500 34006KT P6SM BKN030 OVC040 BECMG 0316/0318 03010KT FM031800 03010KT P6SM SCT015 OVC030 TEMPO 0318/0320 2SM -SHSN BKN015 OVC030 RMK NXT FCST BY 031400Z", "TAF CYYZ 031140Z 0312/0418 14008KT P6SM FEW120 SCT220 BECMG 0313/0315 22015G25KT FM031500 22015G25KT P6SM BKN120 FM032200 27010G20KT P6SM OVC060 FM040000 24010KT P6SM -RA OVC080 FM040300 21007KT P6SM BKN100 BECMG 0404/0406 28007KT BECMG 0408/0410 35007KT FM041500 04010KT P6SM BKN050 BECMG 0416/0418 09010KT RMK NXT FCST BY 031500Z", "TAF CYZE 030940Z 0310/0322 18020G30KT P6SM BKN050 TEMPO 0310/0313 BKN020 FM031400 27012G22KT P6SM SCT240 BECMG 0316/0318 27015KT RMK FCST BASED ON AUTO OBS. NXT FCST BY 031400Z", "TAF CYZF 030540Z 0306/0406 VRB03KT P6SM FEW040 TEMPO 0306/0312 P6SM -SN BKN040 FM031200 02005KT P6SM SCT040 BKN120 FM032000 35005KT P6SM SCT020 BKN080 TEMPO 0320/0403 5SM -SN BKN020 OVC080 RMK NXT FCST BY 031200Z", "TAF CYZH 030640Z 0307/0319 28006KT P6SM OVC040 TEMPO 0307/0319 3SM -SN BR OVC020 RMK FCST BASED ON AUTO OBS. NXT FCST BY 031300Z", "TAF CYZP 030643Z 0307/0319 27008KT P6SM FEW030 SCT100 TEMPO 0307/0319 BKN030 OVC100 RMK FCST BASED ON AUTO OBS. NXT FCST BY 031300Z", "TAF CYZR 030740Z 0308/0320 18010KT P6SM SKC FM031200 20012G22KT P6SM BKN150 FM031700 27010KT P6SM BKN080 RMK FCST BASED ON AUTO OBS. NXT FCST BY 031400Z", "TAF CYZS 030640Z 0307/0319 05018KT P6SM BKN040 TEMPO 0307/0319 4SM -SN BKN020 BECMG 0307/0309 01010KT RMK NXT FCST BY 031300Z", "TAF CYZT 030640Z 0307/0319 25008KT P6SM FEW006 SCT025 TEMPO 0307/0315 SCT006 BKN020 PROB30 0307/0315 BKN006 FM031500 29010G20KT P6SM SCT030 TEMPO 0315/0319 P6SM -SHRA BKN030 RMK NXT FCST BY 031300Z", "TAF CYZV 031140Z 0312/0412 30010KT P6SM FEW050 BECMG 0316/0318 23012KT FM031800 23012KT P6SM FEW030 FM032100 22010KT P6SM OVC080 FM040000 23005KT P6SM OVC050 TEMPO 0400/0404 5SM -SN BKN020 OVC050 BECMG 0400/0402 VRB03KT FM040400 VRB03KT 2 1/2SM -SN BKN015 OVC030 FM040800 VRB03KT P6SM BKN020 OVC030 RMK NXT FCST BY 031800Z", "TAF CYZX 031140Z 0312/0412 30010KT P6SM FEW250 FM031400 28010KT P6SM SCT240 FM031700 26010KT P6SM BKN130 BECMG 0322/0324 22010G20KT FEW020 OVC080 FM040200 21010G20KT 2SM -SN BKN020 OVC040 FM040500 20010KT 6SM -RA BR OVC020 FM040700 22008KT P6SM BKN020 RMK NXT FCST BY 031800Z", "TAF CZBF 030840Z 0309/0321 27008G18KT P6SM SKC FM031200 29012G22KT P6SM BKN040 BECMG 0312/0314 29015G25KT SCT040 FM031800 24008G18KT P6SM BKN040 RMK FCST BASED ON AUTO OBS. NXT FCST BY 031400Z", "TAF CZMD 030940Z 0310/0322 03006KT P6SM SKC RMK FCST BASED ON AUTO OBS. NXT FCST BY 031600Z", "TAF CZSJ 030940Z 0310/0322 05006KT P6SM SKC RMK FCST BASED ON AUTO OBS. NXT FCST BY 031600Z", "TAF CZUM 030740Z 0308/0320 36010KT P6SM BKN030 TEMPO 0308/0311 5SM -SN BKN020 FM031500 34010KT P6SM BKN030 TEMPO 0315/0320 BKN020 RMK FCST BASED ON AUTO OBS. NXT FCST BY 031400Z", "TAF CZVL 031140Z 0312/0324 30006KT P6SM SCT020 BKN050 TEMPO 0312/0316 3SM BR SCT008 BKN020 OVC050 PROB30 0312/0316 1/2SM FZFG VV002 FM031600 VRB03KT P6SM BKN015 TEMPO 0316/0319 SCT015 FM031900 11008KT P6SM SCT040 RMK FCST BASED ON AUTO OBS. NXT FCST BY 031800Z", "TAF DAAD 031100Z 0312/0321 32012KT 9999 SCT033", "TAF DAAE 031100Z 0312/0412 30008KT 9999 FEW020 BKN026 TEMPO 0312/0320 34018KT FEW020CB PROB40 TEMPO 0312/0322 4000 -TSRA FEW015CB", "TAF DAAG 031100Z 0312/0412 VRB02KT 9999 SCT026 SCT040 TEMPO 0312/0318 FEW030CB BECMG 0312/0314 04010KT BECMG 0318/0320 VRB02KT BECMG 0409/0412 06012KT", "TAF DAAJ 031100Z 0312/0412 VRB02KT CAVOK BECMG 0312/0315 28010KT BECMG 0319/0322 06010KT", "TAF DAAP 031100Z 0312/0321 VRB02KT 2000 HZ NSC BECMG 0313/0315 4000", "TAF DAAS 031100Z 0312/0412 32015KT 9999 FEW013 BKN023 TEMPO 0312/0322 34015G30KT FEW015CB BECMG 0320/0322 22008KT", "TAF DAAT 031100Z 0312/0412 VRB02KT CAVOK BECMG 0313/0316 32010KT BECMG 0323/0401 06010KT BECMG 0410/0412 24010KT", "TAF DAAV 031100Z 0312/0412 30012KT 9999 FEW020 BKN026 TEMPO 0312/0322 34022KT FEW020CB PROB40 TEMPO 0312/0322 4000 -TSRA FEW015CB", "TAF DAAY 031100Z 0312/0321 19006KT CAVOK BECMG 0313/0316 32010KT", "TAF DABB 031100Z 0312/0412 32018KT 9999 FEW020TCU BKN026 TEMPO 0312/0320 34020G35KT SCT015CB PROB40 TEMPO 0312/0318 4000 -TSRA FEW015CB BECMG 0400/0402 26008KT", "TAF DABC 031100Z 0312/0412 32015KT 9999 FEW020 BKN026 TEMPO 0312/0322 30015G25KT SCT015TCU PROB30 TEMPO 0312/0318 4000 RA FEW015CB BECMG 0320/0322 26008KT", "TAF DABS 031100Z 0312/0412 32020KT 9999 FEW026 BKN030 TEMPO 0312/0322 34020G40KT PROB40 TEMPO 0312/0318 FEW023CB BECMG 0402/0404 22008KT", "TAF DABT 031100Z 0312/0412 32018KT 9999 FEW020 BKN026 TEMPO 0312/0322 34020G35KT FEW020CB BECMG 0321/0323 22008KT", "TAF DAFH 031100Z 0312/0321 32012KT CAVOK", "TAF DAOB 031100Z 0312/0412 29010KT CAVOK BECMG 0320/0323 VRB02KT BECMG 0409/0412 02010KT", "TAF DAOF 031100Z 0312/0321 28008KT CAVOK BECMG 0313/0316 28018KT", "TAF DAOI 031100Z 0312/0412 VRB02KT 9999 FEW026 TEMPO 0314/0320 36014KT", "TAF DAON 031100Z 0312/0412 02010KT CAVOK BECMG 0320/0323 VRB02KT BECMG 0410/0412 36010KT", "TAF DAOO 031100Z 0312/0412 35012KT CAVOK BECMG 0320/0323 VRB02KT BECMG 0409/0412 04010KT", "TAF DAOR 031100Z 0312/0321 14008KT CAVOK BECMG 0314/0316 22012KT", "TAF DAOV 031100Z 0312/0321 29005KT CAVOK BECMG 0312/0315 36012KT", "TAF DATM 031100Z 0312/0321 10008KT CAVOK", "TAF DAUA 031100Z 0312/0412 08018KT 6000 DRSA NSC TEMPO 0312/0314 4000 BECMG 0314/0316 08008KT NSW", "TAF DAUB 031100Z 0312/0412 33015KT 9999 FEW033 SCT100 TEMPO 0312/0321 33015G35KT PROB40 TEMPO 0312/0318 FEW030TCU", "TAF DAUG 031100Z 0312/0412 34012KT CAVOK BECMG 0313/0316 26008KT", "TAF DAUH 031100Z 0312/0412 30010KT CAVOK BECMG 0320/0322 20008KT", "TAF DAUI 031100Z 0312/0412 06022KT 3000 DRSA NSC BECMG 0313/0316 06012KT 6000 NSW BECMG 0402/0406 06022KT PROB30 0404/0410 4000 DRSA", "TAF DAUK 031100Z 0312/0321 32010KT 6000 NSC", "TAF DAUL 031100Z 0312/0321 34014KT CAVOK", "TAF DAUO 031100Z 0312/0321 32008KT CAVOK", "TAF DAUT 031100Z 0312/0321 06014KT 7000 DRSA NSC BECMG 0312/0314 NSW", "TAF DAUU 031100Z 0312/0321 35008KT CAVOK", "TAF DAUZ 031100Z 0312/0412 32012KT 4000 HZ NSC PROB30 0312/0316 32022KT 2000 DRSA BECMG 0316/0318 6000 NSW BECMG 0320/0323 VRB02KT", "TAF DBBB 031100Z 0312/0418 22010KT 9999 SCT012 PROB30 TEMPO 0313/0319 TS BKN012 FEW023CB", "TAF DFFD 031100Z 0312/0418 VRB08KT 4000 DU NSC BECMG 0319/0321 6000 NSW BECMG 0405/0407 4000 DU", "TAF DFOO 031100Z 0312/0412 20008KT CAVOK", "TAF DGAA 031100Z 0312/0418 20012KT 9999 SCT020 PROB30 0315/0318 FEW030CB PROB30 TEMPO 0321/0401 7000 RA BKN012 BECMG 0404/0406 26005KT CAVOK", "TAF DGLE 031100Z 0312/0412 20010KT 9999 FEW020 BECMG 0321/0323 CAVOK", "TAF DGSI 031100Z 0312/0412 23012KT 9999 SCT015 PROB30 TEMPO 0318/0322 7000 TSRA BKN012 FEW030CB PROB30 0406/0410 BKN010", "TAF DIAP 031107Z 0312/0418 23010KT 8000 SCT012 PROB30 TEMPO 0312/0314 4000 TSRA BKN010 FEW020CB BKN030 PROB40 TEMPO 0323/0404 4000 TSRA BKN010 FEW020CB BKN030 PROB40 TEMPO 0415/0418 BKN012 FEW020CB", "TAF DIBK 031109Z 0312/0412 22010KT 9999 SCT013 PROB30 TEMPO 0312/0315 BKN013 PROB30 TEMPO 0317/0320 TS BKN012 FEW023CB PROB30 TEMPO 0320/0324 4000 TSRA BKN010 FEW020CB BKN030 PROB30 0405/0409 4000 BR BKN010 BECMG 0408/0409 BKN013", "TAF DIYO 031111Z 0312/0412 23009KT 9999 BKN013 BECMG 0314/0315 SCT012 PROB30 TEMPO 0317/0320 TS BKN012 FEW020CB PROB30 TEMPO 0320/0324 4000 TSRA BKN010 FEW020CB BKN030 PROB30 0405/0409 4000 BR BKN010 BECMG 0408/0409 BKN012", "TAF DNAA 031100Z 0312/0418 10005KT 7000 NSC BECMG 0313/0315 24010KT SCT014 PROB30 TEMPO 0317/0320 TS FEW020CB BECMG 0320/0322 VRB02KT NSC BECMG 0409/0411 23010KT 9999 SCT013", "TAF DNAK 031100Z 0312/0418 23010KT 9999 BKN014 TEMPO 0314/0320 TS SCT014 FEW020CB PROB30 0315/0320 5000 -TSRA BKN009 FEW019CB BECMG 0320/0322 VRB02KT SCT011 BECMG 0409/0411 22010KT BKN013 TEMPO 0412/0416 SCT014 FEW020CB BECMG 0416/0418 VRB02KT SCT011", "TAF DNBE 031100Z 0312/0418 22010KT 9999 BKN013 TEMPO 0313/0319 BKN013 FEW020CB PROB30 0314/0319 5000 -TSRA BECMG 0319/0321 VRB02KT SCT010 TEMPO 0405/0408 3000 BR BECMG 0408/0410 22010KT BKN013 TEMPO 0412/0416 SCT012 FEW020CB BECMG 0416/0418 VRB02KT SCT010", "TAF DNGO 031100Z 0312/0418 06010KT CAVOK", "TAF DNIB 031100Z 0312/0418 24010KT 9999 BKN014 PROB30 TEMPO 0314/0320 TS SCT014 FEW020CB BECMG 0321/0323 VRB02KT SCT011 BECMG 0408/0410 23010KT BKN014 TEMPO 0412/0416 SCT014 FEW020CB BECMG 0416/0418 VRB02KT SCT011", "TAF DNIL 031100Z 0312/0418 21010KT 9999 FEW012 TEMPO 0313/0316 BKN014 PROB30 TEMPO 0316/0320 TS FEW020CB BECMG VRB02KT BECMG 0408/0410 20010KT BKN012", "TAF DNJO 031100Z 0312/0418 11010KT CAVOK", "TAF DNKA 031100Z 0312/0418 08008KT 8000 NSC", "TAF DNKN 031100Z 0312/0418 05010KT CAVOK", "TAF DNKT 031100Z 0312/0418 04008KT CAVOK", "TAF DNMA 031100Z 0312/0418 12009KT CAVOK", "TAF DNMM 031100Z 0312/0418 23010KT 9999 BKN014 TEMPO 0313/0319 TS SCT014 FEW020CB PROB30 0315/0319 5000 -TSRA BKN010 FEW019CB TEMPO 0319/0321 TS BECMG 0322/0324 VRB02KT SCT010 BECMG 0408/0410 22010KT BKN013 TEMPO 0412/0416 SCT014 FEW020CB BECMG 0416/0418 FEW011", "TAF DNSO 031100Z 0312/0418 07010KT CAVOK", "TAF DNSU 031100Z 0312/0418 22010KT 9999 BKN013 TEMPO 0313/0319 TS SCT013 FEW020CB PROB30 0315/0319 5000 -TSRA BKN008 FEW018CB BECMG 0321/0323 VRB02KT SCT010 TEMPO 0405/0408 3000 BR BECMG 0408/0410 21010KT BKN012 TEMPO 0412/0416 SCT012 FEW020CB BECMG 0416/0418 VRB02KT SCT010", "TAF DNYO 031100Z 0312/0418 27008KT CAVOK TEMPO 0313/0318 TS FEW013 FEW019CB", "TAF DRRN 031100Z 0312/0418 06008KT 8000 NSC PROB30 TEMPO 0317/0319 4000 DU PROB40 TEMPO 0406/0408 3500 DU", "TAF DRZA 031100Z 0312/0412 04008KT CAVOK", "TAF DRZR 031100Z 0312/0412 01005KT CAVOK", "TAF DTKA 030900Z 0310/0319 30020KT 9999 SCT020 TEMPO 0310/0313 RA FEW020TCU", "TAF DTMB 031100Z 0312/0412 32022KT 8000 FEW020 BECMG 0404/0406 31012KT BECMG 0409/0411 36012KT", "TAF DTNH 031100Z 0312/0412 32021G31KT 9999 SCT020 BECMG 0316/0318 31017KT BECMG 0409/0411 32007KT", "TAF DTTA 031100Z 0312/0412 30020G30KT 9999 SCT020 BECMG 0319/0321 28012KT BECMG 0409/0411 34010KT", "TAF DTTB 030900Z 0310/0319 30018KT 9999 SCT020 TEMPO 0310/0313 RA FEW026CB", "TAF DTTF 030900Z 0310/0319 32015KT 9999 FEW030", "TAF DTTG 030900Z 0310/0319 28018KT 8000 SCT030", "TAF DTTJ 031100Z 0312/0412 28025KT 9999 SCT026 BECMG 0316/0318 33015KT BECMG 0409/0411 32005KT", "TAF DTTR 030900Z 0310/0319 30012KT 9999 FEW040", "TAF DTTX 031100Z 0312/0412 30018G28KT 8000 FEW020 BECMG 0316/0318 34017KT BECMG 0321/0323 30006KT", "TAF DTTZ 031100Z 0312/0412 29015KT 9999 FEW040 BECMG 0319/0321 02010KT BECMG 0401/0403 07006KT", "TAF DXNG 031100Z 0312/0412 VRB05KT 8000 NSC PROB30 TEMPO 0315/0319 TS", "TAF DXXX 031100Z 0312/0418 20010KT 9999 FEW015 PROB30 TEMPO 0316/0320 TS BECMG 0322/0324 26005KT BECMG 0408/0410 20010KT", "TAF EBAW 031105Z 0312/0321 07010KT CAVOK", "TAF EBBL 030841Z 0310/0319 07008KT 9999 SKC TEMPO 0310/0316 07010G22KT", "TAF EBBR 031105Z 0312/0418 07011KT CAVOK", "TAF EBCI 031105Z 0312/0418 05013KT CAVOK", "TAF EBLG 031105Z 0312/0418 05012KT CAVOK", "TAF EBOS 031105Z 0312/0418 06013KT CAVOK", "TAF EDAC 031100Z 0312/0321 03010KT 9999 SCT030 BECMG 0316/0318 03005KT", "TAF EDAH 031100Z 0312/0321 03011G21KT 9999 BKN030 BECMG 0317/0319 03005KT", "TAF EDBC 031100Z 0312/0321 05012KT 9999 SCT035 BECMG 0316/0318 05004KT", "TAF EDDB 031100Z 0312/0412 03013G23KT 9999 BKN035 BECMG 0316/0318 01007KT", "TAF EDDC 031100Z 0312/0412 01007KT 9999 BKN030 BECMG 0403/0406 BKN008 BECMG 0406/0409 BKN015", "TAF EDDE 031100Z 0312/0412 04012KT 9999 SCT035 BECMG 0316/0318 03005KT PROB30 TEMPO 0320/0406 BKN013", "TAF EDDF 031100Z 0312/0418 04014KT 9999 SCT040 BECMG 0318/0320 04008KT", "TAF EDDG 031100Z 0312/0412 07010KT CAVOK BECMG 0317/0320 05004KT", "TAF EDDH 031100Z 0312/0418 05008KT CAVOK BECMG 0317/0319 07002KT BECMG 0407/0409 01005KT", "TAF EDDK 031100Z 0312/0418 08010KT CAVOK BECMG 0319/0322 09003KT TEMPO 0410/0413 02007KT", "TAF EDDL 031100Z 0312/0418 07013KT CAVOK PROB30 TEMPO 0314/0316 05015G25KT BECMG 0318/0320 06008KT BECMG 0320/0322 06003KT BECMG 0408/0411 03008KT", "TAF EDDM 031100Z 0312/0418 05007KT 9999 SCT035", "TAF EDDN 031100Z 0312/0412 03009KT 9999 SCT045 BECMG 0317/0319 03004KT", "TAF EDDP 031100Z 0312/0412 03012KT 9999 SCT035 BECMG 0316/0318 03004KT", "TAF EDDR 031100Z 0312/0412 05012KT 9999 SCT040 TEMPO 0312/0316 06015G25KT", "TAF EDDS 031100Z 0312/0412 05012KT 9999 SCT040 BECMG 0319/0322 05005KT BECMG 0408/0411 05010KT", "TAF EDDV 031100Z 0312/0412 06010KT CAVOK BECMG 0317/0319 07005KT", "TAF EDDW 031100Z 0312/0412 06010KT CAVOK BECMG 0317/0319 07005KT", "TAF EDFH 031100Z 0312/0412 07008KT 9999 SCT030", "TAF EDFM 031100Z 0312/0321 05012KT 9999 SCT045 BECMG 0319/0321 05007KT", "TAF EDGS 031100Z 0312/0321 08012KT 9999 SCT015 PROB30 TEMPO 0312/0314 08015G25KT BECMG 0318/0320 08007KT", "TAF EDHI 031100Z 0312/0321 05008KT CAVOK", "TAF EDHK 031100Z 0312/0319 07008KT CAVOK BECMG 0317/0319 08003KT", "TAF EDHL 031100Z 0312/0321 05008KT CAVOK BECMG 0319/0321 07003KT", "TAF EDJA 031100Z 0312/0321 06010KT 9999 BKN035", "TAF EDLN 031100Z 0312/0321 06011KT CAVOK BECMG 0319/0321 07006KT", "TAF EDLP 031100Z 0312/0412 08014KT CAVOK BECMG 0314/0317 06009KT BECMG 0317/0320 11004KT BECMG 0408/0411 05005KT", "TAF EDLV 031100Z 0312/0412 05008KT CAVOK BECMG 0318/0321 05003KT", "TAF EDLW 031100Z 0312/0412 05014KT CAVOK BECMG 0316/0318 06009KT BECMG 0318/0321 09004KT", "TAF EDMA 031100Z 0312/0321 05009KT 9999 BKN040", "TAF EDMO 031100Z 0312/0321 04008KT 9999 BKN030", "TAF EDNY 031100Z 0312/0412 04010KT 9999 SCT030", "TAF EDQM 031100Z 0312/0321 02012KT 9999 BKN035 PROB30 TEMPO 0312/0315 02015G25KT BECMG 0317/0319 03006KT", "TAF EDSB 031100Z 0312/0412 05012KT 9999 SCT040 TEMPO 0312/0316 06015G25KT", "TAF EDTL 031100Z 0312/0321 05010KT 9999 BKN045", "TAF EDTY 031100Z 0312/0321 05010KT 9999 SCT040", "TAF EDVE 031100Z 0312/0321 06009KT CAVOK BECMG 0319/0321 07004KT", "TAF EDVK 031100Z 0312/0321 06012KT 9999 SCT040", "TAF EDWE 031100Z 0312/0321 09009KT CAVOK BECMG 0314/0316 03009KT BECMG 0319/0321 04004KT", "TAF EDXW 031100Z 0312/0321 06009KT CAVOK BECMG 0319/0321 08004KT", "TAF EEEI 031130Z 0312/0412 02013KT 9999 FEW040 TEMPO 0312/0315 02016G26KT", "TAF EETN 031130Z 0312/0412 02012KT CAVOK PROB40 TEMPO 0312/0316 01015G25KT", "TAF EFHA 031123Z 0312/0315 03009KT CAVOK", "TAF EFHK 031123Z 0312/0412 36012KT CAVOK", "TAF EFIV 030831Z 0309/0312 22014KT CAVOK PROB30 TEMPO 0309/0312 21015G25KT", "TAF EFJO 031120Z 0312/0318 04008KT CAVOK", "TAF EFJY 031123Z 0312/0412 03009KT CAVOK", "TAF EFKE 031130Z 0312/0321 20008KT CAVOK", "TAF EFKI 031131Z 0312/0318 34007KT 9999 FEW045", "TAF EFKK 031131Z 0312/0321 VRB02KT CAVOK", "TAF EFKS 031130Z 0312/0318 14004KT CAVOK", "TAF EFKT 031130Z 0312/0318 21014KT CAVOK TEMPO 0312/0314 21015G25KT", "TAF EFKU 031120Z 0312/0412 05009KT CAVOK", "TAF EFMA 031131Z 0312/0321 02009KT CAVOK", "TAF EFOU 031130Z 0312/0412 14004KT CAVOK PROB30 0410/0412 BKN010", "TAF EFPO 031131Z 0312/0318 02006KT CAVOK", "TAF EFRO 031130Z 0312/0412 21012KT CAVOK PROB40 0403/0408 4000 BR BKN002", "TAF EFSI 031131Z 0312/0321 34004KT CAVOK", "TAF EFTP 031123Z 0312/0412 02009KT CAVOK", "TAF EFTU 031123Z 0312/0412 04009KT CAVOK", "TAF EFUT 031120Z 0312/0315 02013KT CAVOK", "TAF EFVA 031131Z 0312/0412 VRB02KT CAVOK PROB30 0322/0405 4000 BR PROB30 0408/0412 BKN012", "TAF EGAA 031056Z 0312/0412 16012KT 9999 FEW020 SCT030 PROB30 TEMPO 0312/0314 16015G25KT", "TAF EGAC 031056Z 0312/0321 17012KT 9999 FEW020 SCT030", "TAF EGAE 031056Z 0312/0321 17012KT 9999 FEW020 SCT030 PROB30 TEMPO 0312/0314 17015G25KT", "TAF EGBB 031057Z 0312/0412 11008KT 9999 SCT025 PROB30 0401/0408 9000", "TAF EGBJ 031059Z 0312/0319 11007KT 9999 SCT035", "TAF EGCC 031054Z 0312/0418 15008KT CAVOK PROB30 0403/0407 8000", "TAF EGCK 031055Z 0312/0321 18008KT CAVOK", "TAF EGDM 031033Z 0312/0318 10012KT 9999 FEW030", "TAF EGDR 031029Z 0312/0321 11012G22KT 9999 FEW020 SCT030 TEMPO 0312/0321 SCT022 PROB30 TEMPO 0319/0321 SCT012", "TAF EGDY 030930Z 0312/0321 09008KT 9999 FEW035", "TAF EGEC 031102Z 0312/0318 13015KT 9999 SCT035 PROB40 TEMPO 0312/0318 14018G28KT", "TAF EGEO 031102Z 0312/0317 15013KT 9999 FEW020", "TAF EGFF 031136Z 0312/0412 10007KT 9999 SCT025 PROB30 0403/0408 9000", "TAF EGGD 031136Z 0312/0412 10009KT 9999 SCT020 PROB30 0402/0408 8000", "TAF EGGP 031054Z 0312/0412 15009KT CAVOK", "TAF EGGW 031136Z 0312/0412 09006KT 9999 SCT020", "TAF EGHC 031058Z 0312/0318 13016KT 9999 SCT030", "TAF EGHE 031058Z 0312/0318 13018KT 9999 SCT035", "TAF EGHH 031059Z 0312/0321 11008KT 9999 FEW035", "TAF EGHI 031059Z 0312/0321 10008KT 9999 FEW035", "TAF EGHQ 031058Z 0312/0321 13014KT 9999 SCT030", "TAF EGJA 031100Z 0312/0321 08015KT 9999 FEW026", "TAF EGJB 031100Z 0312/0321 07011KT 9999 FEW024", "TAF EGJJ 031100Z 0312/0321 07012KT 9999 FEW024", "TAF EGKA 031101Z 0312/0319 10010KT 9999 SCT035", "TAF EGKB 031101Z 0312/0321 08010KT 9999 SCT025", "TAF EGKK 031055Z 0312/0418 08008KT 9999 FEW030 PROB30 TEMPO 0404/0409 9000 BECMG 0409/0412 14010KT BECMG 0415/0418 20005KT", "TAF EGLC 031101Z 0312/0321 10010KT 9999 SCT025", "TAF EGLF 031101Z 0312/0321 10010KT 9999 SCT035", "TAF EGLL 031054Z 0312/0418 08008KT 9999 SCT035", "TAF EGMC 031101Z 0312/0321 10010KT 9999 SCT035", "TAF EGMD 031101Z 0312/0321 09015KT 9999 SCT025", "TAF EGNH 031055Z 0312/0321 16009KT CAVOK", "TAF EGNJ 031055Z 0312/0321 11008KT 9999 SCT030", "TAF EGNM 031054Z 0312/0412 15006KT 9999 SCT020 PROB30 0400/0409 6000", "TAF EGNO 031055Z 0312/0319 16008KT CAVOK", "TAF EGNR 031055Z 0312/0320 15009KT CAVOK", "TAF EGNS 031100Z 0312/0321 13015KT 9999 FEW020", "TAF EGNT 031054Z 0312/0412 17008KT CAVOK PROB30 0402/0408 8000", "TAF EGNV 031055Z 0312/0321 18008KT CAVOK", "TAF EGNX 031057Z 0312/0412 11008KT 9999 SCT030 PROB30 0401/0408 9000", "TAF EGOS 031043Z 0312/0321 13010KT 9999 FEW030", "TAF EGOV 031032Z 0312/0318 19011KT CAVOK", "TAF EGOW 031027Z 0312/0318 15012KT 9999 FEW035", "TAF EGPA 031059Z 0312/0321 16013KT CAVOK PROB40 TEMPO 0312/0321 17016G26KT", "TAF EGPB 031059Z 0312/0321 18014KT 9999 SCT020 PROB40 TEMPO 0312/0321 19017G27KT", "TAF EGPC 031059Z 0312/0321 16014KT CAVOK", "TAF EGPD 031058Z 0312/0412 17013KT 9999 FEW025 PROB30 TEMPO 0312/0316 18016G26KT", "TAF EGPE 031059Z 0312/0321 VRB03KT CAVOK BECMG 0316/0319 18010KT", "TAF EGPF 031058Z 0312/0412 16009KT CAVOK TEMPO 0400/0408 7000 PROB30 0400/0408 4000 BR", "TAF EGPH 031058Z 0312/0412 05003KT CAVOK TEMPO 0400/0408 8000 PROB30 0400/0408 4000 BR BECMG 0408/0411 22010KT", "TAF EGPI 031102Z 0312/0319 16020G30KT 9999 FEW015 SCT025", "TAF EGPK 031058Z 0312/0412 15009KT CAVOK", "TAF EGPL 031059Z 0312/0318 17015G25KT 9999 FEW015 SCT030 TEMPO 0312/0318 18025G35KT", "TAF EGPN 031102Z 0312/0321 13005KT CAVOK", "TAF EGPO 031059Z 0312/0321 17014KT 9999 FEW030 PROB30 TEMPO 0312/0321 18017G27KT", "TAF EGPU 031102Z 0312/0319 15015G25KT 9999 FEW015 SCT025 TEMPO 0312/0319 16025G35KT", "TAF EGQL 031030Z 0312/0321 16006KT CAVOK", "TAF EGQS 031032Z 0312/0406 17006KT CAVOK", "TAF EGSC 031055Z 0312/0317 10010KT 9999 SCT030", "TAF EGSH 031054Z 0312/0321 10009KT 9999 FEW030", "TAF EGSS 031136Z 0312/0418 09006KT 9999 SCT020", "TAF EGSY 031059Z 0312/0321 11006KT 9999 FEW020", "TAF EGTC 031055Z 0312/0318 10010KT 9999 SCT030", "TAF EGTE 031058Z 0312/0321 13010KT 9999 SCT025 BECMG 0317/0320 07005KT", "TAF EGTK 031055Z 0312/0321 10009KT 9999 SCT030", "TAF EGUB 031037Z 0312/0321 10010KT 9999 FEW035", "TAF EGUL 030500Z 0305/0411 06009KT 9999 FEW030 QNH3043INS BECMG 0309/0310 10010G15KT 9999 FEW030 QNH3040INS BECMG 0321/0322 09006KT 9999 FEW020 QNH3037INS TX09/0314Z TNM05/0404Z", "TAF EGUN 030400Z 0304/0410 05005KT 8000 BR SCT030 QNH3043INS BECMG 0308/0309 10010G15KT 9999 NSW SCT035 QNH3041INS BECMG 0317/0318 10007KT 9999 FEW030 QNH3043INS BECMG 0400/0401 11004KT 6000 BR FEW030 QNH3042INS BECMG 0408/0409 14012KT 9999 NSW FEW025 QNH3041INS TX10/0314Z TNM04/0404Z", "TAF EGUW 031033Z 0312/0321 07010KT 9999 FEW020 SCT025", "TAF EGVA 030400Z 0304/0410 VRB06KT 9999 BKN020 QNH3043INS BECMG 0306/0307 VRB06KT 9999 FEW009 BKN015 QNH3043INS BECMG 0310/0311 11010G15KT 9999 SCT015 BKN025 QNH3042INS BECMG 0315/0316 11010G15KT 9999 FEW025 QNH3036INS BECMG 0400/0401 VRB06KT 9999 FEW030 QNH3038INS TX12/0315Z TN00/0404Z", "TAF EGVN 031039Z 0312/0412 10010KT 9999 FEW030", "TAF EGVO 031022Z 0312/0324 09009KT 9999 SCT035", "TAF EGVP 031038Z 0312/0321 10010KT 9999 FEW030", "TAF EGWC 031043Z 0312/0317 13010KT 9999 FEW030", "TAF EGWU 031034Z 0312/0406 11012KT 9999 SCT032", "TAF EGXC 031032Z 0312/0406 12010KT 9999 SCT030", "TAF EGXE 031022Z 0312/0318 16008KT 9999 FEW025", "TAF AMD EGXT 031048Z 0312/0318 12010KT 9999 SCT030", "TAF EGXW 031017Z 0312/0406 12008KT 9999 SCT025", "TAF EGYD 031018Z 0312/0318 12012KT 9999 SCT030", "TAF EGYE 031018Z 0312/0318 12012KT 9999 SCT028", "TAF EGYM 031044Z 0312/0318 11010KT 9999 SCT030", "TAF EGYP 031001Z 0312/0406 01005KT 9999 FEW012 PROB40 TEMPO 0312/0314 SCT010 BECMG 0317/0319 35015G25KT 520003 PROB40 TEMPO 0319/0322 VRB05KT 560003 PROB40 TEMPO 0322/0406 VRB05KT SCT008 560003 PROB30 TEMPO 0400/0403 36025G35KT 530003 PROB30 TEMPO 0401/0406 6000 -DZ SCT005 BKN007", "TAF EHAM 031041Z 0312/0418 09014KT CAVOK BECMG 0317/0320 06007KT", "TAF EHBK 031039Z 0312/0418 06010KT CAVOK BECMG 0318/0321 09007KT", "TAF EHEH 031132Z 0312/0418 07010KT CAVOK TEMPO 0312/0318 07012G22KT BECMG 0318/0320 06006KT", "TAF EHGG 031039Z 0312/0418 08008KT 9999 FEW040", "TAF EHGR 030810Z 0309/0321 07009KT CAVOK TEMPO 0309/0318 07010G20KT", "TAF EHKD 030803Z 0309/0321 09009KT CAVOK TEMPO 0310/0321 10010G20KT", "TAF EHLE 031043Z 0312/0418 09015KT CAVOK BECMG 0317/0320 06006KT", "TAF EHLW 030806Z 0309/0321 08007KT CAVOK TEMPO 0311/0318 07010G20KT", "TAF EHRD 031043Z 0312/0418 09013KT CAVOK BECMG 0317/0320 06006KT", "TAF EHVK 030821Z 0309/0321 06010KT CAVOK TEMPO 0309/0318 07012G22KT", "TAF EHWO 030807Z 0309/0321 07008KT CAVOK TEMPO 0309/0318 07010G20KT", "TAF EICK 031100Z 0312/0412 16012KT 9999 FEW010 BKN025 TEMPO 0312/0315 17016G26KT PROB30 TEMPO 0312/0412 BKN014 BECMG 0406/0408 19012KT", "TAF EIDL 031100Z 0312/0321 18017KT 9999 FEW025 TEMPO 0312/0317 17020G30KT", "TAF EIDW 031100Z 0312/0412 15012KT 9999 SCT015 BKN020 BECMG 0318/0320 16007KT BECMG 0322/0324 VRB03KT BECMG 0405/0407 15006KT BECMG 0408/0410 20008KT", "TAF EIKN 031100Z 0312/0412 16014KT 9999 FEW014 BKN018 PROB40 TEMPO 0312/0317 15015G25KT BECMG 0402/0404 BKN010 PROB40 TEMPO 0405/0410 4000 -RADZ BKN005 BECMG 0406/0408 19014KT PROB40 TEMPO 0409/0412 20015G25KT", "TAF EIKY 031100Z 0312/0321 15012KT 9999 BKN030 PROB40 TEMPO 0312/0315 16015G25KT", "TAF EIME 031100Z 0312/0321 17010KT 9999 SCT020 BKN030 BECMG 0319/0321 VRB03KT", "TAF EINN 031100Z 0312/0412 16014KT 9999 BKN025", "TAF EISG 031100Z 0312/0321 16014KT 9999 BKN030 PROB40 TEMPO 0312/0316 15017G27KT", "TAF EIWF 031100Z 0312/0321 16012KT 9999 FEW020 BKN030", "TAF EKAH 031100Z 0312/0412 08005KT 9999 SCT030", "TAF EKBI 031100Z 0312/0412 08008KT 9999 SCT030 BECMG 0410/0412 30010KT", "TAF EKCH 031018Z 0312/0412 01008KT CAVOK BECMG 0318/0320 27005KT", "TAF EKEB 031101Z 0312/0321 08008KT 9999 FEW020", "TAF EKGC 031101Z 0312/0320 15013KT 9999 FEW020", "TAF EKHD 031101Z 0312/0321 15010KT CAVOK", "TAF EKKA 031106Z 0312/0412 08006KT 9999 FEW050 BECMG 0409/0411 29010KT", "TAF EKOD 030852Z 0309/0316 06008KT 9999 FEW030", "TAF EKRK 031018Z 0312/0321 03007KT CAVOK", "TAF EKRN 031116Z 0312/0321 03010KT 9999 SCT020 TEMPO 0312/0315 3000 SHSN BKN015TCU", "TAF EKSB 030852Z 0309/0318 07005KT 9999 SCT020", "TAF EKSP 031116Z 0312/0412 06008KT 9999 FEW200 BECMG 0317/0319 VRB03KT BECMG 0407/0409 28010KT", "TAF EKVD 030852Z 0309/0316 06008KT 9999 SCT020", "TAF EKVG 031102Z 0312/0321 15013KT 9999 BKN036", "TAF EKVJ 030652Z 0307/0312 09005KT 9999 FEW020", "TAF EKYT 031106Z 0312/0412 VRB03KT 9999 FEW040 BECMG 0400/0403 25008KT PROB40 0408/0412 6000 BKN014", "TAF ELLX 031100Z 0312/0418 06012KT 9999 FEW040 PROB30 TEMPO 0312/0318 06015G25KT", "TAF ENAL 031100Z 0312/0321 22012KT 9999 FEW050", "TAF ENAN 031100Z 0312/0412 20015KT 9999 -SHRA BKN025 TEMPO 0312/0318 23020G30KT TEMPO 0315/0318 2500 SHRASN BKN008 SCT015CB BECMG 0315/0317 27012KT TEMPO 0318/0412 BKN012", "TAF ENAT 031100Z 0312/0321 16008KT 9999 SCT050", "TAF ENBN 031100Z 0312/0321 18010KT 9999 FEW008 BKN015 PROB40 0312/0321 BKN008", "TAF ENBO 031100Z 0312/0412 09018KT 9999 SCT025 BKN035 BECMG 0312/0314 23018KT TEMPO 0312/0315 BKN014 TEMPO 0315/0320 SHRA BKN008 SCT012TCU TEMPO 0315/0319 24018G28KT BECMG 0319/0321 24008KT TEMPO 0320/0412 BKN012", "TAF COR ENBR 031100Z 0312/0412 17008KT 9999 FEW018 BKN030 TEMPO 0312/0318 FEW015TCU", "TAF ENBS 031100Z 0312/0321 23030KT 9999 DRSN NSC TEMPO 0312/0318 23035G45KT BLSN TEMPO 0318/0321 22020G30KT BECMG 0318/0320 32020KT", "TAF ENCN 031100Z 0312/0321 20008KT 9999 FEW025", "TAF ENDU 031100Z 0312/0412 22009KT 9999 FEW030 BKN045 TEMPO 0312/0321 22015G25KT 4000 -SHSNRA VV014 TEMPO 0312/0321 FEW025CB TEMPO 0321/0412 FEW025TCU", "TAF ENEV 031100Z 0312/0412 22009KT 9999 FEW010 BKN020 TEMPO 0312/0320 24015G25KT 4000 SHRASN BKN004 SCT015CB TEMPO 0320/0412 FEW025TCU", "TAF ENFL 031100Z 0312/0321 18012KT 9999 FEW015 SCT030 BECMG 0319/0321 12008KT", "TAF ENGC 031100Z 0312/0412 21018KT 9999 FEW020 SCT050", "TAF ENGM 031100Z 0312/0412 17005KT CAVOK BECMG 0322/0324 36010KT", "TAF ENHD 031100Z 0312/0321 20005KT 9999 FEW020", "TAF ENHE 031100Z 0312/0321 26015KT 9999 FEW015 BKN050 PROB30 TEMPO 0312/0321 BKN014TCU", "TAF ENHF 031100Z 0312/0321 21009KT 9999 FEW020 SCT030 PROB40 0313/0315 18015G25KT 4000 -SN VV012 TEMPO 0319/0321 1000 SHSN VV006 TEMPO 0319/0321 BKN006CB", "TAF ENHK 031100Z 0312/0319 12009KT 9999 FEW020 BKN030 BECMG 0312/0314 25018KT TEMPO 0312/0319 22018G28KT PROB40 TEMPO 0312/0315 4000 SNRA VV012 TEMPO 0318/0319 2000 SHSNRA BKN006CB", "TAF ENHV 031100Z 0312/0321 21018KT 9999 SCT070 TEMPO 0312/0321 22020G30KT DRSN PROB40 0315/0317 4000 -SN VV014", "TAF ENKB 031100Z 0312/0321 24008KT 9999 FEW050", "TAF ENKR 031100Z 0312/0321 21018KT CAVOK TEMPO 0312/0321 22020G30KT", "TAF ENLE 031100Z 0312/0321 15012KT CAVOK", "TAF ENMH 031100Z 0312/0321 21018KT 9999 FEW060 TEMPO 0313/0318 23020G30KT", "TAF ENML 031100Z 0312/0321 27005KT 9999 FEW040", "TAF ENMS 031100Z 0312/0321 18003KT 9999 FEW015 SCT025", "TAF ENNA 031100Z 0312/0412 18015KT 9999 FEW050 TEMPO 0312/0321 22020G30KT TEMPO 0321/0412 27015G25KT BECMG 0324/0403 27009KT", "TAF ENNE 030800Z 0309/0317 26018KT 9999 FEW015 SCT050 TEMPO 0309/0317 BKN014TCU", "TAF ENNM 031100Z 0312/0321 05008KT 9999 -RASN SCT010 BKN015 PROB40 TEMPO 0312/0321 20012KT 4000 RASN BKN008", "TAF ENNO 030800Z 0309/0317 VRB02KT CAVOK", "TAF ENOA 031100Z 0312/0412 20018KT 9999 SCT025", "TAF ENOL 031100Z 0312/0412 23012KT 9999 FEW015 BKN050 TEMPO 0312/0324 24015G25KT BECMG 0317/0320 BKN014 TEMPO 0319/0403 4000 RADZ BR BKN009 BECMG 0405/0408 13008KT SCT020", "TAF ENOV 031100Z 0312/0321 24005KT 9999 SCT050", "TAF ENRA 031100Z 0312/0321 30003KT 9999 FEW010 BKN020 PROB40 0312/0317 BKN012 TEMPO 0317/0321 2500 -SN BKN008", "TAF ENRO 031100Z 0312/0319 VRB03KT CAVOK", "TAF ENRS 031100Z 0312/0320 26015KT 9999 -SHRA FEW012TCU BKN025 PROB40 TEMPO 0312/0316 4000 SHRA BKN014 BECMG 0315/0317 SCT020", "TAF ENRY 031100Z 0312/0412 19012KT 9999 SCT020 BECMG 0400/0402 02005KT PROB30 0400/0406 0500 FZFG VV001", "TAF ENSB 031100Z 0312/0412 12009KT 9999 -SN DRSN SCT010 BKN020 TEMPO 0312/0315 4000 -SN VV012 TEMPO 0312/0318 12020KT", "TAF ENSD 031100Z 0312/0321 VRB03KT 9999 SCT050", "TAF ENSK 031100Z 0312/0320 23012KT 9999 -SHRA FEW015 BKN030 TEMPO 0312/0315 BKN012 FEW015TCU", "TAF AMD ENSO 031125Z 0311/0316 18008KT 9999 SCT025TCU BECMG 0311/0313 FEW030", "TAF ENSR 031100Z 0312/0319 17008KT 9999 SCT050 TEMPO 0317/0319 2000 SHSNRA VV012 TEMPO 0317/0319 SCT020CB BKN040", "TAF ENSS 031100Z 0312/0321 23030KT CAVOK TEMPO 0312/0321 23030G40KT 9999 DRSN NSC", "TAF ENTC 031100Z 0312/0412 23015KT 9999 FEW015 SCT025 BKN040 TEMPO 0315/0317 4000 -SNRA BKN014 TEMPO 0317/0320 1200 SHSNRA BKN008 SCT012CB TEMPO 0320/0412 2500 -SHSNRA BKN012", "TAF ENTO 031100Z 0312/0412 18010KT CAVOK BECMG 0320/0322 36005KT PROB40 0400/0406 0500 FZFG VV001", "TAF ENVA 031100Z 0312/0412 26005KT 9999 FEW050 PROB40 TEMPO 0321/0406 4000 RADZ BKN012", "TAF ENVD 031100Z 0312/0321 22018KT 9999 SCT070 TEMPO 0312/0321 23018G28KT DRSN", "TAF ENZV 031100Z 0312/0412 24005KT 9999 FEW020 PROB30 0400/0406 2000 BR VV004", "TAF EPBY 031130Z 0312/0412 04014KT 9999 SCT040 PROB30 TEMPO 0312/0318 02017G28KT -SHSN BKN026CB BECMG 0402/0405 34010KT", "TAF EPCE 031100Z 0312/0324 02008KT 9999 BKN035 PROB30 TEMPO 0312/0318 02012G22KT SHSN BKN020TCU BECMG 0317/0319 01006KT SCT030", "TAF EPDA 031100Z 0312/0324 02010KT 9999 BKN040 TEMPO 0312/0324 SCT040 PROB30 TEMPO 0312/0318 02015G25KT 5000 SHGS BKN020TCU", "TAF EPDE 031100Z 0312/0324 36016KT CAVOK TEMPO 0312/0316 36014G24KT", "TAF EPGD 031130Z 0312/0412 02013KT 9999 BKN030 TEMPO 0312/0320 02018G31KT -SHSN BKN025TCU TEMPO 0406/0412 -SHSN BKN025TCU", "TAF EPIR 031100Z 0312/0324 03016KT CAVOK TEMPO 0312/0317 02028G38KT BECMG 0317/0319 34010KT BECMG 0322/0324 BKN033", "TAF EPKK 031130Z 0312/0412 36012KT 9999 BKN040 PROB40 TEMPO 0312/0315 -SHSN BKN035TCU TEMPO 0322/0407 -SN BKN012", "TAF EPKS 031100Z 0312/0324 02012KT CAVOK TEMPO 0312/0314 02014G24KT", "TAF EPKT 031130Z 0312/0412 02012KT 9999 SCT040 PROB40 TEMPO 0312/0315 SCT035TCU TEMPO 0321/0406 -SN BKN011", "TAF EPLB 031130Z 0312/0412 01015KT 9999 SCT045 TEMPO 0312/0316 35015G25KT", "TAF EPLK 031100Z 0312/0324 01015KT CAVOK TEMPO 0312/0316 01015G25KT", "TAF EPLL 031130Z 0312/0412 01015KT 9999 SCT040 TEMPO 0312/0316 35018G28KT PROB40 TEMPO 0403/0408 -SHSN SCT012 BKN018TCU", "TAF EPLY 031100Z 0312/0324 01012KT 9999 SCT040 TEMPO 0312/0316 03016G26KT", "TAF EPMB 031100Z 0312/0324 02014KT 9999 SCT035 TEMPO 0312/0315 02016G26KT BKN035 BECMG 0315/0318 36008KT", "TAF EPMI 031100Z 0312/0324 01012KT 9999 BKN040 TEMPO 0312/0316 36015G28KT BECMG 0315/0317 CAVOK", "TAF EPMM 031100Z 0312/0324 36016KT CAVOK TEMPO 0312/0317 BKN040", "TAF EPMO 031130Z 0312/0412 01015KT 9999 SCT045 TEMPO 0312/0317 35018G28KT PROB40 TEMPO 0318/0322 -SHSN BKN012 BKN020TCU TEMPO 0409/0412 -SHSN SCT030CB", "TAF EPOK 031100Z 0312/0324 03012KT 9999 BKN040 TEMPO 0312/0316 03015G25KT 5000 SHGS BKN025TCU", "TAF EPPO 031130Z 0312/0412 01013KT 9999 SCT046 PROB30 TEMPO 0312/0316 02015G25KT BECMG 0317/0320 35003KT BECMG 0404/0407 34013KT", "TAF EPPR 031100Z 0312/0324 03012KT 9999 BKN030 TEMPO 0312/0316 03015G25KT", "TAF EPPW 031100Z 0312/0324 02012KT CAVOK TEMPO 0312/0318 02015G25KT", "TAF EPRA 031130Z 0312/0321 03012KT CAVOK TEMPO 0312/0314 03016G25KT", "TAF EPRZ 031130Z 0312/0412 36010KT 4000 -SN BR BKN014 BECMG 0312/0315 9999 BKN025 TEMPO 0320/0406 -SN BKN012", "TAF EPSC 031130Z 0312/0412 02010KT 9999 BKN025 TEMPO 0312/0317 -SHSN BKN025TCU PROB40 TEMPO 0312/0317 02015G25KT 4500 SHSN BKN025TCU PROB40 TEMPO 0401/0405 4500 BR TEMPO 0407/0412 -SHSN BKN025TCU", "TAF EPSN 031100Z 0312/0324 03012KT 9999 BKN040 TEMPO 0312/0316 04014G28KT PROB30 0312/0315 5000 SHSN BKN015TCU BECMG 0315/0317 CAVOK", "TAF EPSY 031130Z 0312/0321 01016KT CAVOK TEMPO 0312/0315 01016G28KT", "TAF EPTM 031100Z 0312/0324 02014KT 9999 SCT040 TEMPO 0312/0316 01015G25KT", "TAF EPWA 031130Z 0312/0412 01015KT 9999 SCT045 TEMPO 0312/0317 35018G28KT PROB40 TEMPO 0319/0323 -SHSN BKN012 BKN020TCU TEMPO 0409/0412 -SHSN SCT030CB", "TAF EPWR 031130Z 0312/0412 01014KT 9999 BKN046 PROB30 TEMPO 0312/0315 02015G25KT BECMG 0316/0319 34004KT BECMG 0404/0407 36014KT", "TAF EPZG 031130Z 0312/0321 36010KT 9999 BKN047", "TAF ESCF 031130Z 0312/0315 34005KT CAVOK RMK MIL", "TAF ESCM 031130Z 0312/0314 34007KT CAVOK RMK MIL", "TAF ESDF 031130Z 0312/0319 06007KT CAVOK BECMG 0312/0314 19008KT RMK MIL", "TAF ESGG 031130Z 0312/0412 03008KT CAVOK", "TAF ESGJ 031130Z 0312/0321 02010KT CAVOK BECMG 0317/0319 VRB02KT", "TAF ESGP 031130Z 0312/0321 28010KT CAVOK BECMG 0318/0320 VRB03KT", "TAF ESGT 031130Z 0312/0317 VRB03KT CAVOK", "TAF ESIA 030830Z 0309/0314 09005KT CAVOK RMK MIL", "TAF ESIB 031130Z 0312/0315 VRB04KT CAVOK RMK MIL", "TAF ESKN 031130Z 0312/0412 34005KT CAVOK", "TAF ESMK 030805Z 0309/0318 04006KT CAVOK", "TAF ESMQ 031130Z 0312/0319 04010KT 9999 FEW025 BECMG 0318/0319 34003KT", "TAF ESMS 030805Z 0309/0409 03005KT CAVOK", "TAF ESMT 030805Z 0309/0318 04006KT CAVOK", "TAF ESMX 031130Z 0312/0321 02007KT CAVOK", "TAF ESNG 031130Z 0312/0321 20010KT CAVOK", "TAF ESNO 031130Z 0312/0319 20007KT CAVOK", "TAF ESNQ 031130Z 0312/0318 21018KT CAVOK", "TAF ESNS 031130Z 0312/0318 19006KT CAVOK", "TAF ESNU 031130Z 0312/0321 16007KT CAVOK", "TAF ESNX 031130Z 0312/0321 21008KT CAVOK PROB40 0315/0317 4000 -SN", "TAF ESOE 031130Z 0312/0321 VRB02KT CAVOK", "TAF ESOK 031130Z 0312/0315 20004KT CAVOK", "TAF ESOW 031130Z 0312/0321 36006KT CAVOK", "TAF ESPA 031130Z 0312/0321 18010KT CAVOK RMK MIL", "TAF ESPE 031120Z 0312/0314 21008KT CAVOK RMK MIL", "TAF ESSA 031130Z 0312/0412 35007KT CAVOK", "TAF ESSB 031130Z 0312/0321 35007KT CAVOK", "TAF ESSD 031130Z 0312/0315 VRB03KT CAVOK", "TAF ESSL 031130Z 0312/0316 35004KT CAVOK", "TAF ESSP 031130Z 0312/0315 VRB02KT CAVOK", "TAF ESSV 031130Z 0312/0320 36014KT 9999 SCT030", "TAF ESTA 030805Z 0309/0318 03006KT CAVOK TEMPO 0313/0317 32010KT", "TAF ESTL 030805Z 0309/0315 03005KT CAVOK", "TAF ETAD 030507Z 0305/0411 06010G15KT 9999 SCT035 QNH3027INS BECMG 0308/0309 07012G20KT 9999 FEW030 510006 QNH3027INS BECMG 0317/0318 06009KT 9999 SCT035 QNH3028INS BECMG 0407/0408 07012G18KT 9999 SCT030 QNH3032INS TX08/0314Z TNM01/0401Z", "TAF ETAR 031000Z 0310/0416 06010G20KT 9999 SCT030 510005 QNH3031INS BECMG 0315/0316 05009KT 9999 SCT050 QNH3030INS BECMG 0407/0408 05010G18KT 9999 FEW150 QNH3028INS TX07/0313Z TNM03/0408Z", "TAF ETEB 030700Z 0307/0413 04006KT 9999 SCT020 BKN045 620453 QNH3026INS BECMG 0308/0309 06010G15KT 9999 SCT025 QNH3024INS BECMG 0317/0318 05006KT 9999 FEW040 QNH3020INS TX06/0411Z TNM02/0402Z", "TAF ETHA 031020Z 0311/0320 07010KT 9999 NSW SCT010 BKN020 BECMG 0311/0313 07010G20KT 9999 NSW SCT010 BKN025", "TAF COR ETHB 031017Z 0311/0320 08010KT 9999 NSW FEW035 BKN045", "TAF ETHC 031011Z 0311/0320 05012KT 9999 NSW BKN040", "TAF ETHF 031020Z 0311/0320 05008KT 9999 NSW SCT040", "TAF ETHL 031025Z 0311/0320 06010G20KT 9999 NSW BKN035", "TAF ETHN 031000Z 0311/0320 05010G20KT 9999 NSW FEW012 BKN045", "TAF ETHS 031015Z 0311/0320 04008KT 9999 NSW SCT045 TEMPO 0311/0317 03008G18KT 9999 NSW BKN040", "TAF ETIC 031000Z 0310/0416 06012KT 9999 SCT050 QNH3023INS BECMG 0318/0319 04009KT 9999 OVC040 650505 QNH3028INS BECMG 0320/0321 06009KT 9999 BKN035 650505 QNH3025INS BECMG 0406/0407 05009KT 9999 OVC050 650505 QNH3021INS TX04/0314Z TNM03/0405Z", "TAF ETIK 030600Z 0306/0412 06006KT 9999 BKN050 QNH3029INS BECMG 0309/0310 06010KT 9999 BKN055 QNH3028INS BECMG 0318/0319 06006KT 9999 BKN050 QNH3030INS BECMG 0408/0409 06010KT 9999 BKN055 QNH3030INS TX06/0314Z TNM02/0403Z", "TAF ETMN 031010Z 0311/0320 06007KT 9999 NSW FEW040", "TAF ETNG 031100Z 0312/0403 07013G20KT CAVOK BECMG 0318/0320 07008KT", "TAF ETNH 031014Z 0311/0320 03005KT 9999 NSW FEW020 BY ETGL", "TAF ETNL 031052Z 0311/0323 05012KT 9999 NSW SCT030 BY ETGL", "TAF ETNW 031000Z 0311/0411 08008KT 9999 NSW SCT030 TEMPO 0311/0319 10010G20KT 9999 NSW BKN030 BY ETGL", "TAF ETOU 030400Z 0304/0410 04010G15KT 9999 SCT030 BKN045 QNH3034INS BECMG 0408/0409 06009KT 9999 BKN030 QNH3038INS TX08/0313Z TN03/0306Z", "TAF ETSH 031021Z 0311/0320 02009KT 9999 NSW SCT040", "TAF ETSI 031010Z 0311/0320 05010G20KT 9999 NSW SCT050", "TAF ETSL 031012Z 0311/0320 04012KT 9999 NSW SCT020 BKN050 BY ETGL", "TAF ETSN 031012Z 0311/0320 03007KT 9999 NSW SCT020 BKN050 BECMG 0311/0313 05008KT 9999 NSW FEW020 SCT050 BY ETGL", "TAF EVGA 031103Z 0312/0412 36012KT 9999 BKN020 TEMPO 0312/0315 35014G25KT TEMPO 0317/0323 4000 -SN BKN014 TEMPO 0408/0412 2000 SN BKN010", "TAF EVLA 031106Z 0312/0412 01012KT 9999 BKN030 TEMPO 0312/0315 36014G27KT", "TAF EVRA 031101Z 0312/0412 34015KT 9999 SCT020 TEMPO 0312/0317 35018G30KT TEMPO 0319/0322 4000 -SN BKN014 TEMPO 0411/0412 2000 SN", "TAF EVVA 031107Z 0312/0321 01014KT 9999 FEW020 TEMPO 0312/0317 36015G30KT", "TAF EYKA 031100Z 0312/0412 36010G20KT 9000 BKN030 TEMPO 0315/0318 SCT020CB BECMG 0318/0319 36010KT OVC015 TEMPO 0319/0412 SHSN BKN012CB", "TAF EYPA 031100Z 0312/0412 34014G28KT 9000 BKN030 TEMPO 0312/0315 SCT010 BECMG 0315/0316 CAVOK BECMG 0318/0319 01007KT BECMG 0407/0409 OVC020", "TAF EYSA 031100Z 0312/0321 36014KT 9000 SCT030 TEMPO 0312/0317 01015G25KT BKN030 BECMG 0317/0319 5000 SN BR BKN005 OVC010", "TAF EYVI 031100Z 0312/0412 36012KT 9000 BKN030 TEMPO 0312/0316 36015G25KT PROB40 TEMPO 0317/0323 3000 SN BR BKN010 BECMG 0323/0324 BKN005 OVC010 TEMPO 0400/0403 5000 SN BR TEMPO 0403/0410 1500 SN BR OVC005", "TAF FABL 030400Z 0306/0406 35008KT 9999 SCT020 TX24/0312Z TN09/0404Z FM031000 35008KT CAVOK BECMG 0312/0314 27008KT", "TAF FACT 031000Z 0312/0418 20009KT 9999 SCT030 TX22/0312Z TN15/0404Z FM031800 VRB03KT 9999 FEW030 PROB40 TEMPO 0400/0403 2000 BR BKN008 FM041000 19012KT CAVOK", "TAF FAEL 030900Z 0310/0319 25015KT 9999 BKN025 TX25/0310Z TN22/0318Z TEMPO 0311/0317 25020G30KT BECMG 0315/0317 CAVOK", "TAF AMD FAGG 030800Z 0306/0406 22015KT 9999 SCT010 BKN020 TX20/0312Z TN16/0404Z PROB40 TEMPO 0306/0310 4000 -RA BKN008 FM031200 20013KT 9999 SCT020 FM031900 32005KT 9999 BKN020", "TAF FAHS 030600Z 0307/0318 VRB03KT 9999 BKN020 TX28/0313Z TN24/0318Z FM030830 34007KT 9999 SCT030 BECMG 0311/0313 CAVOK PROB30 TEMPO 0314/0318 TS FEW030CB", "TAF FAKM 030901Z 0310/0318 28008KT CAVOK TX26/0313Z TN18/0318Z", "TAF FAKN 030900Z 0310/0318 VRB03KT 9999 SCT025 TX29/0312Z TN23/0318Z PROB40 TEMPO 0311/0318 -TSRA FEW030CB", "TAF FALA 031000Z 0312/0412 30011KT 9999 SCT035 TX26/0313Z TN14/0403Z PROB40 TEMPO 0316/0321 18017G28KT -TSRA BKN018 FEW040CB BECMG 0319/0321 16009KT BECMG 0321/0323 VRB03KT CAVOK PROB30 TEMPO 0323/0405 5000 BR NSC BECMG 0406/0408 SCT025", "TAF FALE 031000Z 0310/0412 14005KT CAVOK TX30/0312Z TN18/0404Z FM031300 20015KT 9999 BKN020 TEMPO 0314/0317 20015G25KT PROB40 TEMPO 0315/0321 4000 TSRA BKN010 FEW035CB PROB30 TEMPO 0322/0403 5000 -RA BKN015 FM040100 20010KT 9999 SCT040", "TAF FAMM 030913Z 0310/0318 30010KT 9999 SCT035 TX28/0313Z TN20/0318Z PROB30 TEMPO 0313/0318 -TSRA FEW035CB", "TAF FAOR 031000Z 0312/0418 29014KT 9999 BKN030 TX24/0413Z TN13/0403Z PROB40 TEMPO 0315/0320 17015G26KT 5000 TSRA BKN012 FEW035CB BECMG 0318/0320 20009KT FM032000 VRB03KT CAVOK PROB30 TEMPO 0323/0405 4000 BR NSC BECMG 0404/0406 11012KT BECMG 0406/0408 SCT025 BECMG 0409/0411 26007KT", "TAF FAPE 030400Z 0306/0406 25020G30KT 9999 SCT005 TX23/0312Z TN18/0402Z PROB30 TEMPO 0306/0310 BKN005 PROB40 TEMPO 0308/0316 25028G40KT PROB30 TEMPO 0322/0403 4500 -SHRA BKN010 FEW010TCU", "TAF FAPM 030900Z 0310/0321 24003KT 9999 SCT025 TX30/0312Z TN17/0321Z PROB30 TEMPO 0313/0318 4000 TSRA BKN015 FEW035CB BECMG 0315/0317 16007KT", "TAF FAPP 030900Z 0310/0318 33007KT 9999 SCT025 TX27/0313Z TN21/0318Z PROB30 TEMPO 0312/0318 -TSRA FEW030CB", "TAF FARB 030900Z 0310/0318 03010KT CAVOK TX33/0312Z TN23/0318Z FM031600 19015KT 9999 BKN020 PROB30 TEMPO 0316/0318 3000 TSRA BKN015 FEW035CB", "TAF FAUP 030400Z 0306/0406 23008KT CAVOK TX28/0313Z TN13/0404Z", "TAF FAUT 030900Z 0310/0318 VRB03KT CAVOK TX26/0310Z TN20/0318Z PROB40 TEMPO 0311/0318 4500 TSRA FEW025CB", "TAF FAWB 030900Z 0310/0318 30010KT 9999 SCT030 TX26/0313Z TN21/0318Z PROB30 TEMPO 0313/0318 -TSRA FEW035CB", "TAF FBKE 030600Z 0309/0318 12007KT CAVOK BECMG 0312/0314 FEW035CB", "TAF FBSK 031000Z 0312/0418 23004KT 9999 FEW035CB BECMG 0316/0318 CAVOK", "TAF FCBB 030500Z 0306/0412 22006KT 9000 FEW013 BECMG 0310/0312 SCT018 FEW030CB BECMG 0312/0314 TS PROB30 TEMPO 0314/0317 4000 TSRA BECMG 0318/0320 NSW SCT015", "TAF FCPP 030500Z 0306/0406 28008KT 7000 -TSRA SCT010 BKN020 FEW030CB TEMPO 0307/0310 4000 TSRA BECMG 0311/0313 NSW FEW010 BKN020", "TAF FEFF 030500Z 0306/0412 00000KT 7000 NSC BECMG 0307/0309 16010KT BKN010 PROB30 TEMPO 0314/0320 4000 TSRA BKN014 FEW033CB BECMG 0322/0324 00000KT SCT010", "TAF FGBT 030500Z 0306/0406 21006KT 9999 SCT010 TEMPO 0309/0312 TS SCT010 FEW020CBB", "TAF FGSL 030500Z 0306/0412 24006KT 9999 FEW010 PROB30 TEMPO 0310/0314 4000 TSRA BKN009 SCT018CB TEMPO 0315/0318 SCT012 NSW", "TAF FHAW 030730Z 0309/0403 12008KT 9999 FEW012 SCT045 TEMPO 0309/0403 7000 -SHRA SCT012 PROB30 TEMPO 0309/0403 12015G25KT 4000 SHRA SCT007", "TAF COR FIMP 031115Z 0312/0418 07008KT 9999 SCT018 PROB30 TEMPO 0318/0404 33003KT PROB30 TEMPO 0400/0404 7000 -SHRA FEW010 BKN015", "TAF FIMR 031120Z 0312/0406 VRB05KT 9999 SCT017 TEMPO 0316/0322 7000 -SHRA BKN016 BECMG 0316/0318 07010KT", "TAF FJDG 030900Z 0309/0415 VRB06KT 9999 SCT050 QNH2976INS TEMPO 0322/0408 9000 -SHRA BKN040 TX31/0318Z TN26/0400Z FOR MIL USE ONLY", "TAF FKKD 030500Z 0306/0412 VRB03KT 9999 TS BKN013 FEW016CB BECMG 0308/0310 BKN016 FEW020CB PROB30 TEMPO 0310/0314 4000 TSRA BKN013 FEW016CB BECMG 0314/0316 NSW BECMG 0320/0322 BKN013 FEW016CB", "TAF FKKL 030500Z 0306/0318 02005KT CAVOK", "TAF FKKR 030500Z 0306/0318 13005KT CAVOK", "TAF COR FKYS 030500Z 0306/0406 VRB05KT 9999 BKN006 FEW016CB TEMPO 0306/0308 4000 TSRA BECMG 0309/0311 BKN016 TEMPO 0314/0319 4000 TSRA BKN014 FEW020CB BECMG 0320/0322 BKN006", "TAF FLCP 031000Z 0312/0418 15005KT 9999 FEW035CB BKN040 PROB30 TEMPO 0312/0315 9000 -TSRA BECMG 0318/0320 16005KT 9999 FEW///CB BKN090 BECMG 0404/0406 BKN010", "TAF FLHN 031000Z 0312/0418 09010KT 9999 FEW035CB SCT040 FM031600 VRB03KT CAVOK BECMG 0408/0410 09005KT 9999 SCT020 FM041400 CAVOK", "TAF FLKK 031000Z 0312/0418 09010KT 9999 BKN035TCU PROB30 TEMPO 0312/0314 9000 -SHRA FM031600 12005KT CAVOK BECMG 0406/0408 09010KT BKN015", "TAF FLKS 031000Z 0312/0418 09010KT 9999 FEW030CB BKN035 PROB30 TEMPO 0312/0315 8000 -TSRA BECMG 0316/0318 09005KT FEW///CB BKN090 PROB30 TEMPO 0318/0321 9000 -TSRA", "TAF FLMA 031000Z 0312/0418 15005KT 999 FEW030CB BKN035 PROB30 TEMPO 0312/0316 8000 -TSRA BECMG 0318/0320 VRB03KT 9999 FEW///CB BKN090 PROB30 TEMPO 0320/0322 9000 -TSRA", "TAF FLMF 031000Z 0312/0418 15005KT 9999 FEW035CB BKN040 PROB30 TEMPO 0312/0315 9000 -TSRA BECMG 0318/0320 16005KT 9999 FEW///CB BKN090 BECMG 0404/0406 BKN010", "TAF FLSK 031000Z 0312/0418 09010KT 9999 FEW035CB BKN040 PROB30 TEMPO 0312/0316 9000 -TSRA BECMG 0318/0320 09005KT FEW///CB BKN090 BECMG 0404/0406 09010KT BKN010", "TAF FLSW 031000Z 0312/0418 15010KT 9999 FEW035CB BKN040 PROB30 TEMPO 0312/0418 15010KT 9999 FEW035CB BKN040 PROB30 TEMPO 0312/0315 9000 -TSRA BECMG 0316/0318 VRB03KT FEW///CB BKN090 PROB30 TEMPO 0318/0321 9000 -TSRA", "FMCH 031100Z 0312/0418 14010KT 9999 FEW020CB BKN025 TEMPO 0312/0318 3000 TSRA SHRA PROB40 TEMPO 0322/0411 4000 TSRA SHRA", "TAF FMCZ 031100Z 0312/0412 05008KT 9999 FEW020TCU TEMPO 0312/0317 TSRA FEW018CB TEMPO 0321/0403 4000 SHRA FEW020TCU TEMPO 0409/0412 2500 SHRA FEW020TCU", "TAF FMEE 031100Z 0312/0418 08012KT 9999 FEW020 SCT050 BECMG 0317/0319 16008KT BECMG 0404/0406 08012KT", "TAF FMEP 031100Z 0312/0321 24010KT 9999 FEW030 SCT050 PROB40 TEMPO 0312/0315 2000 SHRA SCT020TCU BECMG 0315/0317 04006KT", "TAF FMMI 031100Z 0312/0418 VRB05KT 9999 BKN020CB PROB40 TEMPO 0314/0321 VRB15KT 4000 TSRA BECMG 0321/0323 FEW017 SCT020 PROB30 0402/0405 3000 BR BKN006 BECMG 0408/0410 BKN020CB PROB40 TEMPO 0412/0418 VRB15KT 4500 TSRA", "TAF FMMS 031100Z 0312/0412 16010KT 9999 BKN017TCU BECMG 0313/0316 SCT017CB BKN033 BECMG 0317/0320 24005KT PROB40 TEMPO 0322/0409 4000 SHRA BECMG 0404/0406 BKN017TCU", "TAF FMMT 031100Z 0312/0412 12010KT 9999 SCT017TCU SCT033 BECMG 0313/0315 SCT017CB BKN033 BECMG 0317/0320 00000KT PROB40 TEMPO 0318/0403 4000 TSRA BECMG 0403/0406 FEW007 SCT017TCU BKN033", "TAF FMNA 031100Z 0312/0412 14008KT 9999 SCT020CB PROB30 TEMPO 0312/0319 4500 TSRA BECMG 0320/0322 BKN020", "TAF FMNM 031100Z 0312/0412 32010KT 9999 SCT020CB PROB40 TEMPO 0313/0403 4000 TSRA BECMG 0320/0322 12004KT BECMG 0403/0406 SCT020 BECMG 0408/0410 32010KT SCT020CB", "TAF FMNN 031100Z 0312/0412 30010KT 9999 SCT020 BECMG 0313/0315 SCT020CB PROB40 TEMPO 0315/0321 4500 TSRA BECMG 0400/0402 12005KT SCT020 SCT040", "TAF FMSD 031100Z 0312/0412 10016KT 9999 SCT016 SCT033 BECMG 0322/0401 10006KT BECMG 0406/0408 10016KT", "TAF FMST 031100Z 0312/0412 22012KT 9999 FEW020 BECMG 0318/0320 08005KT BECMG 0406/0408 30014KT", "TAF FNBG 031100Z 0312/0324 29011KT 9999 SCT025 PROB30 TEMPO 0319/0323 3000 TSRA FEW015CB BKN023", "TAF FNCA 031100Z 0312/0324 21010KT 9999 FEW019TCU SCT027 PROB30 TEMPO 0317/0321 5000 TSRA FEW015CB BKN022", "TAF FNCT 031100Z 0312/0324 29010KT 9999 SCT025 PROB30 TEMPO 0319/0323 3000 TSRA FEW015CB BKN020", "TAF FNDU 031100Z 0312/0324 27005KT 9000 FEW015TCU BKN023 PROB30 TEMPO 0313/0317 4000 TSRA FEW015CB OVC020 BECMG 0320/0323 VRB02KT", "TAF FNGI 031100Z 0312/0324 07005KT 9999 SCT030 BECMG 0319/0323 BKN023", "TAF FNHU 031100Z 0312/0324 VRB03KT 9999 FEW014TCU BKN024 PROB30 TEMPO 0319/0323 3000 TSRA FEW015CB BKN023", "TAF FNKU 031100Z 0312/0324 VRB03KT 9999 FEW018TCU BKN022 PROB30 TEMPO 0317/0321 3000 TSRA FEW015CB", "TAF FNLU 031100Z 0312/0418 23011KT 9999 SCT025 PROB30 TEMPO 0313/0317 4000 RA BKN020 BECMG 0409/0412 OVC022", "TAF FNMA 031100Z 0312/0324 VRB02KT 4000 TSRA FEW010CB BKN020", "TAF FNME 031100Z 0312/0324 VRB03KT 9999 BKN028", "TAF FNMO 031100Z 0312/0324 28011KT 9999 SCT025 PROB30 TEMPO 0319/0323 3000 TSRA FEW015CB BKN023", "TAF FNSA 031100Z 0312/0324 03005KT 4000 TSRA FEW018CB BKN024 BECMG 0320/0323 OVC015", "TAF FNSO 031100Z 0312/0324 03007KT 9999 FEW018TCU BKN025 PROB30 TEMPO 0318/0322 5000 TSRA FEW014CB", "TAF FNUB 031100Z 0312/0324 VRB03KT 9999 SCT025 PROB30 TEMPO 0320/0320 3000 TSRA FEW013CB BKN003", "TAF FNUE 031100Z 0312/0324 07005KT 4000 TSRA FEW015CB BKN020 PROB30 TEMPO 0320/0324 VRB02KT OVC018", "TAF FOOG 031100Z 0312/0412 19010KT 9999 SCT010 BECMG 0312/0314 TS BKN010 FEW020CB TEMPO 0314/0317 4000 TSRA BECMG 0318/0320 NSW SCT010 PROB40 TEMPO 0402/0406 4000 TSRA BKN008 FEW020CB OVC024", "TAF FOOL 031100Z 0312/0418 19008KT 9999 SCT012 TEMPO 0313/0318 TS BKN012 FEW020CB TEMPO 0400/0403 4000 TSRA BKN010 FEW020CB", "TAF FQBR 031000Z 0312/0418 16010KT 9999 SCT020 TX30/0313Z TN23/0403Z BECMG 0319/0321 09008KT FEW020 BECMG 0403/0405 34007KT BECMG 0410/0412 14010KT", "TAF FQCH 031000Z 0312/0412 15010KT 9999 BKN018 TX27/0313Z TN18/0403Z BECMG 0321/0323 VRB02KT PROB30 TEMPO 0400/0406 0800 FG BKN015", "TAF FQIN 031000Z 0312/0412 07010KT 9999 FEW020 TX31/0313Z TN22/0403Z BECMG 0321/0323 01007KT BECMG 0403/0405 31005KT", "TAF FQLC 031000Z 0312/0412 16007KT 9999 BKN020 TX22/0313Z TN12/0403Z PROB30 TEMPO 0312/0318 4000 TSRA SCT015 BKN018 FEW020CB BECMG 0318/0320 10005KT BECMG 0400/0402 VRB02KT", "TAF FQMA 031000Z 0312/0418 34015KT 9999 FEW020 TX32/0313Z TN20/0403Z BECMG 0318/0320 04010KT BKN020 BECMG 0400/0402 20010KT BECMG 0410/0412 17015G25KT", "TAF FQNC 031000Z 0312/0418 20012KT 9999 SCT020 TX29/0313Z TN22/0403Z PROB30 TEMPO 0312/0318 5000 -TSRA SCT015 FEW025CB BECMG 0400/0402 26010KT BECMG 0409/0411 17010KT", "TAF FQNP 031000Z 0312/0412 17010KT 9999 BKN020 TX29/0313Z TN21/0403Z PROB30 TEMPO 0312/0318 5000 -RADZ SCT015 BKN018 FEW020CB BECMG 0318/0320 24008KT BECMG 0410/0412 18010KT", "TAF FQPB 031000Z 0312/0412 17012KT 9999 BKN020 TX31/0313Z TN24/0403Z PROB30 TEMPO 0312/0318 5000 -TSRA BKN018 FEW025CB BECMG 0400/0402 23012KT BECMG 0409/0411 16012KT", "TAF FQQL 031000Z 0312/0412 17012KT 9999 BKN020 TX30/0313Z TN24/0403Z BECMG 0400/0402 26006KT BECMG 0409/0411 16010KT", "TAF FQTT 031000Z 0312/0412 14010KT 9999 BKN018 TX31/0313Z TN22/0403Z PROB30 TEMPO 0312/0318 5000 -TSRA FEW020CB BECMG 0321/0323 VRB02KT BECMG 0406/0408 16008KT", "TAF FQVL 031000Z 0312/0412 09010KT 9999 SCT020 TX30/0313Z TN21/0403Z BECMG 0318/0320 FEW020 BECMG 0400/0402 36006KT BECMG 0409/0411 07010KT", "TAF FQXA 031000Z 0312/0412 35010KT 9999 FEW020 TX30/0313Z TN20/0403Z BECMG 0318/0320 07007KT BECMG 0406/0408 22010KT", "TAF FSIA 031105Z 0312/0412 VRB03KT 9999 SCT023", "TAF FTTJ 031100Z 0312/0418 04008KT 7000 NSC TEMPO 0317/0319 4000 DU TEMPO 0405/0409 4000 DU", "TAF FVJN 031000Z 0312/0418 10006KT CAVOK", "TAF FVRG 030400Z 0306/0412 07008KT CAVOK BECMG 0306/0308 SCT020TCU PROB30 TEMPO 0310/0316 06010KT 8000 -TSRA FEW030CB BKN040 BECMG 0318/0320 04006KT CAVOK", "TAF FWCL 030900Z 0312/0418 19008KT 9999 FEW020TCU SCT025 BKN070 PROB30 TEMPO 0312/0414 TS FEW020CB BKN025 FM031600 13004KT CAVOK BECMG 0322/0400 13006KT 9999 FEW006 SCT015 SCT070 PROB30 TEMPO 0402/0404 5000 VCFG FEW005 SCT012", "TAF FWKI 030900Z 0312/0418 10011KT 9999 BKN020 TEMPO 0312/0315 13008KT 8000 -RA FEW030CB BKN033 BKN090 BECMG 0316/0318 10008KT 9999 SCT030 BKN090", "TAF FYGF 031100Z 0312/0321 10004KT 9999 SCT035TCU PROB30 TEMPO 0314/0321 -TSRA FEW030CB SCT035TCU", "TAF FYKM 031100Z 0312/0321 09009KT 9999 FEW030 BECMG 0313/0315 SCT030", "TAF FYLZ 031100Z 0312/0321 20020KT CAVOK", "TAF FYRU 031100Z 0312/0321 09004KT 9999 SCT040 BECMG 0312/0314 SCT040TCU BECMG 0314/0316 FEW035CB SCT040TCU", "TAF FYWB 031000Z 0312/0412 21006KT CAVOK BECMG 0313/0315 20019KT", "TAF FYWE 031100Z 0312/0321 10004KT 9999 SCT050 BECMG 0313/0315 SCT050TCU BECMG 0315/0317 FEW040CB", "TAF FYWH 031000Z 0312/0412 20004KT 9999 FEW050 BECMG 0312/0314 10008KT SCT045TCU BECMG 0314/0316 FEW040CB SCT045TCU", "TAF COR FZAA 030500Z 0306/0412 20004KT 7000 SCT016 BECMG 0310/0312 34012KT SCT020 FEW030CB TEMPO 0314/0318 -TSRA BECMG 0319/0321 18004KT FEW018", "TAF COR FZIC 030500Z 0306/0412 16006KT 8000 SCT010 BECMG 0308/0310 26010KT BKN022 FEW034CB TEMPO 0312/0316 TS BECMG 0316/0318 00000KT NSC BECMG 0400/0402 2000 BR FM040600 14006KT 8000 SCT010", "TAF COR FZNA 030500Z 0306/0412 09004KT 7000 SCT014 BECMG 0308/0310 22010KT SCT018 FEW022CB TEMPO 0311/0316 TS BECMG 0317/0319 05004KT SCT014 BECMG 0407/0409 18010KT SCT016 FEW020CB", "TAF COR FZQA 030500Z 0306/0412 09006KT 8000 SCT015 BECMG 0309/0311 18008KT 9999 BKN018 FEW026CB TEMPO 0312/0317 24010KT 7000 -TSRA BECMG 0318/0320 09006KT SCT015", "TAF GABS 031100Z 0312/0418 08008G18KT 8000 NSC", "TAF GAGO 031100Z 0312/0412 VRB08G18KT 8000 NSC", "TAF GBYD 031100Z 0312/0418 26007KT CAVOK", "TAF GCFV 030800Z 0309/0409 03015KT 9999 SCT018 TX23/0314Z TN17/0406Z", "TAF GCGM 030800Z 0309/0409 21005KT 9999 FEW015 TX26/0314Z TN17/0406Z PROB30 TEMPO 0406/0409 36018G30KT", "TAF GCHI 030800Z 0309/0409 36017KT 9999 SCT020 TX23/0314Z TN18/0406Z PROB30 TEMPO 0318/0409 36018G28KT", "TAF GCLA 030800Z 0309/0409 02014KT 9999 SCT025 TX24/0314Z TN17/0406Z PROB30 TEMPO 0406/0409 RA", "TAF GCLP 030800Z 0309/0409 02023KT 9999 SCT020 TX24/0314Z TN17/0406Z PROB30 TEMPO 0309/0409 01023G33KT", "TAF AMD GCRR 031019Z 0310/0409 36018KT 9999 FEW015 TX26/0314Z TN18/0406Z PROB40 TEMPO 0310/0323 36018G28KT", "TAF GCTS 030800Z 0309/0409 07016KT 9999 FEW020 TX28/0314Z TN17/0406Z PROB30 TEMPO 0309/0311 06006KT BECMG 0318/0320 VRB05KT", "TAF COR GCXO 030926Z 0309/0409 30017KT 9999 SCT010 TX23/0314Z TN12/0406Z TEMPO 0309/0312 3000 BCFG BKN002 PROB30 TEMPO 0312/0409 30020G30KT PROB30 TEMPO 0318/0409 3000 DZRA BCFG BKN002 PROB30 TEMPO 0322/0407 0800 FG BKN001", "TAF GECE 030800Z 0309/0409 08008KT 9999 FEW008 SCT015 TX22/0314Z TN15/0407Z PROB40 TEMPO 0322/0409 BKN008", "TAF GEML 031100Z 0312/0412 07010KT CAVOK TX21/0313Z TN13/0406Z BECMG 0319/0321 VRB02KT BECMG 0405/0407 09010KT", "TAF GFLL 031100Z 0312/0418 25008KT 9999 SCT012 FEW027CB TEMPO 0314/0318 27008KT 8000 TS/TSRA BKN012 FEW026CB PROB30 TEMPO 0321/0401 27007KT 9999 BKN011 TEMPO 0405/0409 28006KT BKN010", "TAF GGOV 031100Z 0312/0412 VRB05KT 7000 NSC", "TAF GLRB 021100Z 0212/0312 26010KT 9999 BKN017 TEMPO 0214/0218 18008KT BKN015 FEW 024CB BECMG 0220/0222 02004KT 9999 TS BKN012 FEW 023CB", "TAF GMAD 031100Z 0312/0418 27010KT 8000 BKN016 BECMG 0312/0314 27010KT CAVOK", "TAF GMAG 031100Z 0312/0418 26011KT 6000 NSC", "TAF GMFF 031100Z 0312/0418 30012KT CAVOK BECMG 0320/0322 20006KT BECMG 0404/0406 9999 SCT020", "TAF GMFK 031100Z 0312/0418 21009KT CAVOK", "TAF GMFM 031100Z 0312/0418 32008KT 9999 SCT020 SCT100 PROB30 TEMPO 0404/0410 VRB02KT 4000 BR BKN010", "TAF GMFO 031100Z 0312/0418 VRB02KT CAVOK BECMG 0314/0318 34012KT", "TAF GMME 031100Z 0312/0418 28010KT 6000 SCT016 TEMPO 0400/0412 BKN015 BKN080 PROB40 TEMPO 0406/0418 RA", "TAF GMMH 031100Z 0312/0418 01023KT 6000 NSC", "TAF GMMI 031100Z 0312/0418 01013KT 6000 NSC", "TAF GMML 031100Z 0312/0418 35018KT CAVOK PROB40 0408/0410 2000 BR BKN010", "TAF GMMN 031100Z 0312/0418 35010KT CAVOK BECMG 0320/0324 12005KT BKN010 BECMG 0410/0414 34012KT CAVOK", "TAF GMMW 031100Z 0312/0418 06009KT CAVOK PROB40 0402/0408 2000 BR", "TAF GMMX 031100Z 0312/0418 32006KT 8000 NSC TEMPO 0315/0318 SCT023", "TAF GMMZ 031100Z 0312/0418 09005KT CAVOK TEMPO 0415/0418 22015G25KT", "TAF GMTA 031100Z 0312/0418 35012KT CAVOK BECMG 0318/0320 VRB02KT", "TAF GMTT 031100Z 0312/0418 09013KT CAVOK TEMPO 0312/0322 09014G24KT", "TAF GOBD 031100Z 0312/0418 24007KT CAVOK", "TAF GOGS 031100Z 0312/0412 25006KT CAVOK", "TAF GOOY 031100Z 0312/0418 30007KT 8000 NSC", "TAF GOSS 031100Z 0312/0412 26006KT CAVOK", "TAF GQNO 031100Z 0312/0418 09013KT 6000 NSC PROB30 TEMPO 0312/0316 3000 BLDU BECMG 0320/0322 35010KT BECMG 0409/0412 05013KT", "TAF GQPP 031100Z 0312/0412 02015KT 6000 NSC", "TAF GUCY 031100Z 0312/0418 29006KT 9999 FEW015 SCT110 TEMPO 0313/0317 CAVOK TEMPO 0403/0409 35008KT BKN110", "TAF GVAC 031100Z 0312/0418 04014KT 9999 FEW014 BECMG 0317/0319 BKN014", "TAF GVBA 031100Z 0312/0418 02015KT 9999 BKN014 TEMPO 0312/0317 FEW014", "TAF GVNP 031100Z 0312/0418 02012KT 9999 FEW016", "TAF GVSV 031100Z 0312/0418 04018KT 8000 FEW022", "TAF HAAB 030930Z 0312/0418 09005KT 9999 BKN025 SCT090 BECMG 0312/0315 7000M TSRA FEW023 CB BECMG 0317/0322 6000M RA", "TAF HADR 030930Z 0312/0418 17005KT 8000M -RA/-BR SCT026 BKN090 TEMPO 0312/0316 6000M TSRA FEW025 CB BECMG 0318/0322 5000M TSRA FEW025 CB", "TAF HBBA 031100Z 0312/0418 18008KT 9999 FEW020 FEW030CB BKN080 TEMPO 0312/0318 08010G1527KT 5000 TSRA SCT025CB BKN090 BECMG 0403/0405 06003KT 9999 FEW015 SCT030 BECMG 0408/0410 18006KT PROB30 TEMPO 0413/0417 08012G25KT SCT025CB BKN090", "TAF HCMM 031100Z 0312/0418 13008KT 9999 SCT020 FEW024TCU BECMG 0318/0321 SCT020 BECMG 0400/0403 BKN018", "TAF HDAM 031100Z 0312/0412 08010KT 9999 FEW023 FEW030CB BECMG 0315/0321 14010KT SCT023 BECMG 0400/0406 VRB05KT SCT023 BECMG 0406/0412 10010KT SHRA SCT023 FEW030CB FEW266", "TAF HEAL 031100Z 0312/0418 15010G20KT 6000 NSC TEMPO 0312/0317 3000 SA NSC TEMPO 0312/0315 0800 SS BECMG 0322/0324 32014KT 9999 SCT020", "TAF HEAR 031100Z 0312/0418 02008KT 9999 SCT025 BECMG 0400/0402 16007KT 6000 NSC TEMPO 0403/0407 2000 BR", "TAF HEAT 031100Z 0312/0418 32012KT CAVOK", "TAF HEAX 031100Z 0312/0418 13011KT CAVOK BECMG 0410/0412 33012KT 9999 SCT020", "TAF HEBA 031100Z 0312/0418 14013KT CAVOK TEMPO 0312/0316 3000 SA NSC BECMG 0410/0412 33013KT 9999 SCT020", "TAF HEBL 031100Z 0312/0418 01010KT CAVOK", "TAF HECA 031100Z 0312/0418 04005KT CAVOK BECMG 0312/0314 19007KT PROB40 TEMPO 0314/0320 4000 HZ NSC TEMPO 0407/0415 19010G20KT 3000 SA NSC", "TAF HEGN 031100Z 0312/0418 36008KT CAVOK", "TAF HELX 031100Z 0312/0418 32008KT CAVOK", "TAF HEMA 031100Z 0312/0418 35012KT CAVOK", "TAF HEMM 031100Z 0312/0418 15010G20KT 6000 NSC TEMPO 0312/0317 3000 SA NSC TEMPO 0312/0315 0800 SS BECMG 0322/0324 32014KT 9999 SCT020", "TAF HEOW 031100Z 0312/0418 02014KT CAVOK", "TAF HEPS 031100Z 0312/0418 07011KT CAVOK", "TAF HESC 031100Z 0312/0418 16006KT CAVOK", "TAF HESG 031100Z 0312/0418 34012KT CAVOK", "TAF HESH 031100Z 0312/0418 03008KT CAVOK", "TAF HESN 031100Z 0312/0418 36006KT CAVOK", "TAF HETB 031100Z 0312/0418 18008KT CAVOK", "TAF HETR 031100Z 0312/0418 26012KT CAVOK", "TAF HKEL 031100Z 0312/0418 27010KT 9999 FEW022CB SCT023 TEMPO 0312/03 16 -TSRA FEW018CB SCT019 BKN080 BECMG 0320/0323 VRB05KT NSW FEW015 BE CMG 0408/0411 27010KT FEW022CB SCT023 TEMPO 0412/0416 -TSRA FEW018CB SCT019 BKN080", "TAF HKJK 031100Z 0312/0418 06010KT 9999 06010KT FEW024CB SCT025 PROB4 0 TEMPO 0320/0324 VRB010KT -TSRA FEW018CB SCT019 BKN070 BECMG 0402/0405 NSW SCT017 BECMG 0408/0411 06010KT NSW FEW027", "TAF HKKI 031100Z 0312/0418 22010KT 9999 FEW024CB SCT025 TEMPO 0312/03 16 -TSRA BKN080 BECMG 0320/0323 06005KT NSW FEW018 BECMG 0408/0411 22 010KT FEW024CB SCT025 TEMPO 0412/0416 -TSRA FEW021CB SCT022 BKN080", "TAF HKML 031100Z 0312/0412 16015KT 9999 FEW022CB SCT080 TEMPO 0321/0400 00000KT -SHRA FEW020CB BKN080 BECMG 0403/0406 SCT020", "TAF HKMO 031100Z 0312/0418 13015KT 9999 FEW027 SCT080 TEMPO 0400/0403 00000KT -SHRA FEW020CB BKN080 BECMG 0404/0407 16010KT FEW024", "TAF HKNW 030500Z 0306/0406 06005KT 9999 BKN019 BKN090 BECMG 0308/0311 09015KT FEW024CB SCT025 PROB40 TEMPO 0320/0324 VRB010KT -TSRA FEW018CB SCT019 BKN070", "TAF HLGD 031100Z 0312/0412 30012G22KT 8000 SCT025 SCT080 BECMG0402/0404 30010KT", "TAF HLGT 031100Z 0312/0412 35010KT CAVOK", "TAF HLKF 031100Z 0312/0412 24015KT 8000 NSC BECMG 0321/0323 VRB02KT BECMG0410/0412 02010KT", "TAF HLLB 031100Z 0312/0412 27015G25KT 8000 SCT025 SCT080", "TAF HLLM 031100Z 0312/0412 30012G22KT 8000 SCT025 SCT080 BECMG0321/0323 33010KT", "TAF HLLQ 031100Z 0312/0412 25012G25KT 7000 SCT020 BKN070 ", "TAF HLLS 031100Z 0312/0412 30010G20KT 8000 NSC PROB40 TEMPO0312/0318 4000 BLSA BECMG0321/0323 33010KT BECMG0402/0404 VRB02KT", "TAF HLMS 031100Z 0312/0412 31015G30KT 8000 SCT025 SCT080 BECMG0406/0408 27010KT BECMG0410/0412 35012KT", "TAF HLON 031100Z 0312/0412 30012KT 8000 NSC BECMG0400/0402 VRB02KT", "TAF HLTD 031100Z 0312/0412 33015KT 8000 NSC BECMG0400/0402 VRB02KT", "TAF HLTQ 031100Z 0312/0412 20015G25KT 7000 NSC PROB40 TEMPO 0312/0314 3000 BLDU BECMG 0315/0317 33012KT BECMG0402/0404 24015KT BECMG0410/0412 35015KT", "TAF HLUB 031100Z 0312/0412 30012KT 8000 NSC BECMG 0400/0402 VRB02KT BECMG0409/0411 08010KT", "HRYR 031100Z 0312/0418 14012KT 9999 TSRA FEW023CB BKN025 BECMG 0316/0320 28006KT NSW SCT025 SCT100 BECMG 0402/0405 00000KT 3000 BR FEW006 SCT023 FM 040800 17008KT 9999 BKN023 TEMPO 0413/0417 10012KT TSRA FEW023CB BKN025", "TAF HSKA 031100Z 0312/0418 VRB03KT CAVOK", "TAF HSOB 031100Z 0312/0418 02008G18KT CAVOK TEMPO 0406/0409 8000 NSW", "TAF HSPN 031100Z 0312/0418 05011G22KT CAVOK BECMG 0321/0323 34008KT BECMG 0407/0409 09009G19KT", "TAF HSSJ 021100Z 0212/0318 VRB05KT 9999 FEW040 SCT140 PROB30 TEMPO 0216/0222 12006G16KT 7000 -TSRA FEW045CB BKN090 PROB40 TEMPO 0301/0307 21005KT 6000 -SHRA SCT026 BKN060", "HSSK 031100Z 0312/0418 36007G17KT CAVOK TEMPO 0406/0409 8000 NSW", "TAF HTAR 031100Z 0312/0412 14010KT 9999 BKN028 FEW030CB PROB30 TEMPO 0314/0319 TSRA BECMG 0320/0323 BKN020 BKN080", "TAF HTBU 030500Z 0306/0406 36005KT 9999 BKN014 FEW016CB BECMG 0308/0310 5000 TSRA BKN015 FEW017CB BECMG 0314/0316 NSW SCT016 PROB 30 TEMPO 0403/0405 9999 -TSRA SCT014 FEW016CB", "TAF HTDA 031100Z 0312/0418 17010KT SCT024 FEW025CB TEMPO 0402/0407 5000 TSRA BKN015 FEW016CB", "TAF HTDO 031100Z 0312/0412 13006KT 9999 BKN028 FEW030CB TEMPO 0312/0314 TSRA", "TAF HTKA 031100Z 0312/0412 18010KT 9999 BKN020 FEW021CB TEMPO 0312/0317 -TSRA SCT021 FEW022CB BKN080", "TAF HTKJ 031100Z 0312/0412 06010KT 9999 FEW026CB BKN028 BECMG 0317/0319 15010KT PROB40 TEMPO 0322/0404 TSRA", "TAF HTMW 031100Z 0312/0412 32010KT 9999 SCT022 FEW023CB BKN090 BECMG 0317/0319 00000KT TEMPO 0403/0409 11010KT TSRA BKN018 FEW019CB", "TAF HTTB 031100Z 0312/0412 13010KT 9999 SCT023 FEW024CB PROB40 TEMPO 0315/0322 TSRA", "TAF HTZA 031100Z 0312/0412 15015KT 9999 SCT020 FEW022CB BECMG 0318/0320 00000KT BECMG 0400/0402 22010KT BKN014 FEW016CB PROB30 TEMPO 0404/0409 5000 TSRA BECMG 0410/0412 15015KT SCT022", "TAF HUEN 030500Z 0306/0412 17010KT 9999 FEW022 FEW025CB BECMG 0307/0310 VRB08KT 9000 -TSRA SCT017 FEW019CB OVC100 BECMG 0403/0409 9000 -RA SCT020 FEW022CB", "KABE 031122Z 0312/0412 VRB03KT P6SM FEW250 FM031500 20012G23KT P6SM FEW040 FM032300 19006KT P6SM SCT150 FM040800 VRB04KT P6SM SCT010", "KABI 031120Z 0312/0412 19010KT P6SM SKC FM031500 23015G23KT P6SM FEW250 FM040100 18007KT P6SM FEW250", "KABQ 031124Z 0312/0412 VRB06KT P6SM SKC FM031700 22015G25KT P6SM SKC FM031900 23025G38KT P6SM SKC TEMPO 0402/0405 23016G26KT FM040700 22015G25KT P6SM SCT050", "KABR 031137Z 0312/0412 30007KT P6SM BKN035 OVC200 FM031500 31012G18KT P6SM OVC030 FM031900 36009KT P6SM OVC026 FM040000 02011G17KT P6SM OVC014 FM040700 03015G25KT P6SM OVC006 FM041000 03018G28KT 1 1/2SM -SN BR OVC007", "KABY 031120Z 0312/0412 00000KT P6SM SCT150 BKN200 FM031500 17006KT P6SM VCSH BKN045 OVC100 FM031800 18011G18KT 2SM +TSRA BR BKN030CB OVC045 FM032200 23005KT P6SM VCSH SCT040 OVC070 FM040000 18006KT P6SM VCSH SCT020 BKN030 FM040400 20005KT P6SM BKN008 OVC015 FM040800 21003KT 6SM BR OVC005", "KACK 031126Z 0312/0412 10009KT P6SM SKC FM031500 15010KT P6SM SKC FM031700 19014KT P6SM SKC FM040600 21014G21KT P6SM BKN070", "KACT 031120Z 0312/0412 19008KT P6SM FEW010 TEMPO 0312/0316 BKN010 FM032200 18016KT P6SM FEW045 SCT110 FM040200 16020G32KT P6SM FEW150 SCT250 FM040900 18016G26KT P6SM BKN022", "KACV 031131Z 0312/0412 05008KT P6SM VCSH SCT030 FM031500 12006KT P6SM VCSH BKN035 FM031700 32014G24KT P6SM -SHRA BKN040 FM040200 34007KT P6SM VCSH OVC030 FM040700 VRB03KT P6SM OVC050", "KACY 031122Z 0312/0412 VRB03KT P6SM SKC FM031500 19013KT P6SM FEW250 FM031800 19015G25KT P6SM FEW250 FM040200 20013KT P6SM FEW200", "KADF 031140Z 0312/0412 VRB03KT 6SM BR OVC004 TEMPO 0312/0315 3SM BR OVC002 FM031500 VRB05KT P6SM BKN007 OVC015 FM031700 20008KT P6SM BKN030 FM032000 19010KT P6SM SCT040 FM040100 17006KT P6SM SCT250", "TAF AMD KADW 030901Z 0309/0415 VRB06KT 9999 SKC QNH3007INS BECMG 0313/0314 20010G20KT 9999 SKC 510003 QNH3012INS BECMG 0322/0323 19009KT 9999 SCT150 510053 QNH2999INS BECMG 0408/0409 20010KT 9999 SCT040 510053 QNH3002INS TX22/0321Z TN05/0409Z", "KAEG 031124Z 0312/0412 24010KT P6SM SKC FM031600 23012G22KT P6SM SKC FM031800 22022G35KT P6SM SKC FM032100 22028G42KT P6SM SKC FM040800 22020G32KT P6SM SCT050", "KAEX 031135Z 0312/0412 21007KT P6SM OVC012 FM031400 20012G18KT P6SM BKN015 FM031700 20015G22KT P6SM BKN040 FM040100 16012G18KT P6SM SCT040 FM040600 16012KT P6SM BKN015", "TAF KAFF 031100Z 0311/0417 14006KT 9999 SCT200 530409 QNH2961INS BECMG 0315/0316 17014KT 9999 SCT200 530309 QNH2947INS BECMG 0318/0319 21015G28KT 9999 SCT200 530009 QNH2939INS WND 160V240 TEMPO 0321/0401 21020G35KT BECMG 0401/0402 17012KT 9999 SKC 560259 QNH2924INS WND 120V090 ROTOR CONDS EXSIT TEMPO 0402/0409 20012G22KT 530002 BECMG 0413/0414 27020G35KT 9999 SCT080 530002 560209 QNH2926INS TX19/0321Z TNM01/0312Z", "KAFW 031120Z 0312/0412 18008KT P6SM SCT007 TEMPO 0312/0315 4SM BR BKN007 FM031600 22015KT P6SM FEW250 FM040200 17017G32KT P6SM SCT110 FM041100 18019KT P6SM BKN013", "KAGC 031124Z 0312/0412 17006KT P6SM BKN250 FM031600 20010G18KT P6SM BKN120 FM040000 23005KT P6SM BKN080", "KAGS 031129Z 0312/0412 VRB03KT P6SM SCT150 FM031400 13006KT P6SM BKN100 FM031700 12006KT P6SM VCSH SCT035 BKN050 FM040100 VRB05KT P6SM SCT030 BKN050 FM040600 VRB03KT 3SM BR BKN015", "KAHN 031122Z 0312/0412 VRB03KT P6SM SCT100 BKN250 FM031700 08007KT P6SM -RA SCT008 OVC015 FM032300 06004KT 3SM BR VCSH BKN008 FM040600 04003KT 4SM BR BKN004 OVC008", "KAIA 031130Z 0312/0412 03015KT P6SM VCSH OVC060 FM031900 09015G22KT P6SM VCSH BKN030 OVC050 FM032300 09020G30KT 5SM BR VCSH BKN020 OVC030 FM040300 08029G38KT 3SM -SHSNDZ BKN012 OVC020 FM040500 09025G34KT 2SM -SHSN OVC012 FM040900 07024G26KT 1SM -SN BLSN OVC007", "KALB 031120Z 0312/0412 16006KT P6SM BKN100 FM031400 17015G29KT P6SM SCT150 FM032200 17008KT P6SM BKN060 PROB30 0401/0404 5SM -SHRA BR BKN040 FM040400 VRB03KT 5SM -SHRA BR BKN040 FM040700 VRB02KT 4SM -SHRA BR SCT018 BKN022 OVC040", "KALI 031123Z 0312/0412 14004KT 3SM BR OVC012 TEMPO 0312/0314 1SM BR FM031500 18010G15KT P6SM BKN025 FM031800 17012G22KT P6SM SCT040 FM032200 14015G25KT P6SM SCT050 FM040400 17012KT P6SM SCT015 BKN200 TEMPO 0406/0409 BKN015 OVC200 FM040900 17010KT P6SM OVC012 WS020/18045KT", "KALO 031127Z 0312/0412 VRB03KT P6SM BKN110 FM031600 05007KT P6SM BKN120 FM040500 05011G23KT P6SM BKN035", "KALS 031136Z 0312/0412 18012KT P6SM FEW200 FM031500 22024G37KT P6SM FEW200 FM032000 23034G52KT 6SM BLDU SCT200 FM040400 21030G43KT P6SM BKN100", "KALW 031131Z 0312/0412 19008KT 6SM -SN OVC015 TEMPO 0312/0316 3SM -SN OVC015 FM032000 19010KT P6SM BKN050 BKN100", "KAMA 031122Z 0312/0412 25015KT P6SM SKC FM031800 23022G32KT P6SM SKC FM040100 21018G28KT P6SM FEW250", "KANB 031135Z 0312/0412 06003KT P6SM -SHRA OVC080 FM031400 11005KT 5SM -SHRA BR BKN030 FM031600 12009KT 5SM -SHRA BR BKN015 FM031800 13007KT P6SM VCSH BKN015 FM040300 14005KT P6SM OVC009", "KAND 031122Z 0312/0412 00000KT P6SM BKN250 FM031800 08006KT 6SM -RA OVC023 TEMPO 0318/0320 5SM -RA BR OVC015 FM032000 06007KT 4SM -RA BR OVC017 FM032300 05006KT 3SM -DZ BR OVC009 FM040500 VRB03KT 5SM BR OVC004", "KAOO 031120Z 0312/0412 VRB03KT P6SM FEW250 WS020/19034KT FM031300 20007KT P6SM FEW250 FM031700 20010G18KT P6SM OVC200 FM032300 20007KT P6SM FEW100 OVC200", "KAPA 031139Z 0312/0412 19007KT P6SM FEW220 FM031700 22014KT P6SM FEW120 SCT220 FM031900 23018G28KT P6SM SCT130 BKN220 FM040200 20012KT P6SM SCT120 SCT220 FM041100 01015G25KT P6SM SCT050 BKN090", "KAPC 031120Z 0312/0412 28010KT P6SM FEW040 WS020/33035KT FM031600 31014G25KT P6SM SKC FM040500 VRB05KT P6SM SKC", "KAPF 031120Z 0312/0412 VRB04KT P6SM SCT030 TEMPO 0312/0313 5SM BR SCT005 SCT015 FM031500 20009KT P6SM FEW030 SCT060 FM031800 24013KT P6SM FEW250 FM040300 VRB04KT P6SM FEW040", "KAPN 031132Z 0312/0412 23016G25KT P6SM SCT250 FM032300 33010KT P6SM FEW250 FM040700 03006KT P6SM BKN035 FM040900 07009KT P6SM BKN022", "KARA 031135Z 0312/0412 20010KT P6SM OVC009 TEMPO 0312/0314 5SM BR FM031400 21014G20KT P6SM OVC015 FM031700 20017G25KT P6SM SCT035 FM040000 19010KT P6SM BKN250 FM040200 18009KT P6SM BKN015 FM040800 17008KT 5SM BR BKN009", "KART 031120Z 0312/0412 VRB03KT P6SM OVC060 FM031300 17012G19KT P6SM BKN120 FM031500 18018G27KT P6SM BKN100 FM031700 20019G29KT P6SM BKN060 FM032000 23014G22KT P6SM OVC070 FM032300 24009KT P6SM BKN080", "KASD 031127Z 0312/0412 20010KT P6SM SCT008 BKN015 FM031400 21012KT P6SM BKN020 FM031600 19011KT P6SM SCT025 BKN035 FM040900 17005KT P6SM BKN005 OVC020", "KASE 031120Z 0312/0412 16012KT P6SM SCT200 WS020/24040KT FM031400 16015G27KT P6SM BKN110 FM032000 21020G38KT 4SM -SHSN BR BKN050 FM040600 21021G35KT P6SM VCSH BKN050 FM041100 27020G30KT 3SM -SHSN BR BKN030", "KASN 031135Z 0312/0412 06003KT P6SM -SHRA OVC080 FM031400 11005KT 5SM -SHRA BR BKN030 FM031600 12009KT 5SM -SHRA BR BKN015 FM031800 13007KT P6SM VCSH BKN015 FM040300 14005KT P6SM OVC009", "KAST 031120Z 0312/0412 17007KT P6SM -SHRA BKN025 BKN040 FM031700 29010KT P6SM VCSH SCT030 BKN050 FM032200 31014G21KT P6SM -SHRA SCT030 BKN050 FM040600 27006KT P6SM -SHRA SCT025 OVC035", "KATL 031122Z 0312/0418 12005KT P6SM -SHRA SCT025 BKN100 FM031500 12010KT 5SM -RA BR BKN010 OVC050 FM032200 10006KT 4SM BR VCSH BKN008 FM040800 11004KT 3SM BR BKN004 OVC008 FM041600 14006KT P6SM BKN015", "KATW 031126Z 0312/0412 23009KT P6SM BKN150 FM031500 26008KT P6SM BKN200 FM032300 05005KT P6SM BKN120 FM040600 06009KT P6SM BKN012 FM041000 06010G17KT P6SM OVC008", "KATY 031137Z 0312/0412 23005KT P6SM OVC200 FM032000 34008KT P6SM BKN028 FM032300 01009KT P6SM OVC013 FM040300 04009KT P6SM OVC006 FM040800 05014G23KT P6SM OVC005 FM041100 05018G29KT 2SM -SN BR OVC006", "KAUG 031120Z 0312/0412 19007KT P6SM FEW250 FM031500 19011G22KT P6SM SCT200 FM032100 17009G18KT P6SM BKN080 FM040100 20006KT P6SM VCSH SCT035 OVC050 FM040600 26004KT P6SM OVC100", "KAUS 031128Z 0312/0418 18008KT 6SM BR OVC008 FM031600 19009KT P6SM BKN020 FM031700 17009G22KT P6SM SCT050 FM040900 17011KT P6SM SCT050", "KAUW 031126Z 0312/0412 24008KT P6SM BKN200 FM032300 03005KT P6SM BKN120 FM040600 07008KT P6SM BKN024 FM040800 08009KT P6SM BKN010 FM041000 08010KT P6SM OVC008", "KAVL 031122Z 0312/0412 VRB03KT P6SM BKN250 FM031800 19007KT P6SM -RA SCT021 OVC045 TEMPO 0318/0320 6SM -SHRA BR OVC020 FM032000 16008KT 4SM -RA BR OVC017 FM032200 15008KT 3SM -RA BR OVC009 FM040600 33003KT 3SM BR OVC010", "KAVP 031120Z 0312/0412 17009KT P6SM FEW120 FM031600 20012G21KT P6SM SCT150 FM040000 20009G14KT P6SM SCT200 FM040400 19004KT P6SM SCT110", "KAXN 031135Z 0312/0412 30011KT P6SM BKN018 FM040500 02005KT P6SM OVC012 FM040800 06009KT 4SM -SN BR OVC009 FM041000 07011KT 2SM -SN BR OVC006", "KAZO 031121Z 0312/0412 20007KT P6SM BKN100 FM031300 25004KT P6SM BKN080 FM040000 22004KT 4SM -RA BR OVC050 FM040300 05009KT P6SM RA OVC025 FM040400 06010KT P6SM RA OVC017 FM040700 07012KT 5SM RA BR OVC009", "TAF KBAB 031100Z 0311/0417 32012KT 9999 SKC QNH3003INS BECMG 0316/0317 33015G22KT 9999 SKC QNH3004INS BECMG 0403/0404 33009KT 9999 FEW060 QNH3009INS TX13/0323Z TN03/0314Z", "TAF AMD KBAD 022300Z 0223/0402 15015G25KT 9999 -TSRA OVC050CB QNH2988INS TEMPO 0223/0305 20025G35KT 8000 -TSRA OVC010CB BECMG 0306/0307 20012KT 9999 NSW OVC010 QNH2978INS BECMG 0318/0319 19015G25KT 9999 BKN030 BKN250 QNH2975INS BECMG 0400/0401 20015G22KT 9999 SCT050 BKN250 QNH2975INS TX22/0223Z TN18/0312Z LAST NO AMDS AFT 0223 NEXT 0312", "KBAF 031126Z 0312/0412 VRB03KT P6SM SKC FM031400 17010KT P6SM SKC FM031500 19013G20KT P6SM SKC FM040200 21007KT P6SM BKN060 FM040600 00000KT P6SM BKN025", "KBAM 031120Z 0312/0412 33008KT P6SM VCSH SCT025 OVC035 FM031800 33015G25KT P6SM -SHSN BKN035 OVC070 FM040300 30010G20KT P6SM SCT035 BKN050", "KBBD 031120Z 0312/0412 22008KT P6SM SKC FM031900 20011G20KT P6SM FEW250 FM040100 20007KT P6SM FEW250", "KBBG 031120Z 0312/0412 15010KT P6SM FEW250 FM031800 19011KT P6SM SKC FM040100 18010KT P6SM SKC WS020/21040KT", "KBCB 031120Z 0312/0412 00000KT P6SM SCT250 FM031500 18006KT P6SM BKN250 FM040000 19004KT P6SM BKN035 OVC100 FM040600 13003KT P6SM FEW006 OVC020", "KBCE 031135Z 0312/0412 14014KT P6SM SCT200 FM031500 20025G40KT P6SM SCT040 BKN070 FM040100 35011KT 1SM -SN BR SCT005 OVC015 FM041000 32018G28KT P6SM VCSH SCT025 BKN040", "KBDL 031126Z 0312/0418 18004KT P6SM FEW250 FM031400 17007KT P6SM FEW250 FM031700 19014KT P6SM FEW250 FM032000 20015G23KT P6SM FEW250 FM040300 21007KT P6SM BKN050 FM040600 20003KT P6SM BKN020", "KBDN 031131Z 0312/0412 26010KT P6SM SCT050 OVC100 FM031500 27010KT P6SM SCT050 BKN100 FM031800 32015G25KT P6SM BKN040 BKN070 FM040600 31010KT P6SM OVC050", "KBDR 031120Z 0312/0412 15006KT P6SM SKC FM031400 17009KT P6SM SCT200 FM031600 19012KT P6SM FEW050 SCT200 FM031800 19013G21KT P6SM SCT050 BKN200 FM040100 21010KT P6SM FEW040 BKN200 FM040600 21006KT P6SM BKN200 FM041000 VRB04KT P6SM SCT020 BKN200", "KBED 031126Z 0312/0412 16003KT P6SM SKC FM031500 17009KT P6SM SKC FM031900 20014G24KT P6SM SKC FM040100 21010G21KT P6SM OVC060 FM040500 23006KT P6SM OVC020", "KBFD 031120Z 0312/0412 16008KT P6SM OVC150 WS020/21036KT FM031500 22012G20KT P6SM BKN080 FM032200 25012G18KT 6SM -SHRA OVC040 FM040000 32004KT 6SM -SHRA OVC035 FM040300 VRB03KT 5SM -SHRA BR BKN030 FM040500 VRB03KT 4SM -SHRA BR BKN025 FM040800 11004KT 3SM -SHRA BR SCT009 OVC015", "KBFF 031130Z 0312/0412 03015G20KT P6SM OVC050 FM031600 09012G22KT P6SM VCSH BKN030 OVC050 FM040000 10019G28KT 5SM -SHRA VCTS BKN040CB OVC050 FM040300 08027G36KT 3SM -DZ BKN012 OVC030 FM040500 09024G32KT 2SM -SHSNDZ OVC015", "KBFI 031155Z 0312/0412 00000KT P6SM VCSH BKN020 OVC035 TEMPO 0312/0316 3SM -SHRA BR BKN012 OVC020 FM031600 VRB03KT P6SM VCSH BKN020 OVC030 FM031800 19004KT P6SM BKN027 BKN040 TEMPO 0318/0322 -SHRA BKN020 OVC035 FM032300 20005KT P6SM VCSH BKN040 FM040600 18004KT P6SM BKN035", "KBFL 031120Z 0312/0412 34018G23KT P6SM OVC045 FM031600 32023G30KT P6SM SCT050 FM040600 32012G18KT P6SM BKN250 FM040700 32010KT P6SM OVC250", "KBFM 031149Z 0312/0412 19008KT P6SM BKN010 OVC015 FM031800 19016KT P6SM BKN050 FM032000 20012KT P6SM SCT060 FM040200 18008KT P6SM BKN030 FM040900 18002KT 4SM BR OVC007", "KBGM 031120Z 0312/0412 17011KT P6SM BKN070 FM031600 20015G23KT P6SM BKN070 FM040200 23006KT P6SM BKN025 FM040500 00000KT 4SM -SHRA BR OVC015 FM040900 VRB03KT 1SM -DZ BR OVC005", "KBGR 031120Z 0312/0412 21005KT P6SM FEW200 FM031700 20010G20KT P6SM SCT130 FM032200 20012G24KT P6SM VCSH OVC040 FM040400 20011KT P6SM BKN080", "KBHB 031120Z 0312/0412 23004KT P6SM FEW200 FM031600 21012KT P6SM FEW240 FM032300 20014G26KT P6SM OVC090 FM040000 20015G28KT P6SM VCSH OVC090 FM040600 23010KT P6SM BKN110", "KBHM 031135Z 0312/0412 VRB03KT 6SM -RA BR OVC050 FM031400 14007KT P6SM VCSH BKN015 FM031600 16008KT P6SM SCT008 OVC012 TEMPO 0316/0319 BKN008 OVC012 FM031900 18007KT P6SM BKN015 FM040000 16005KT P6SM BKN045 FM040400 17006KT P6SM BKN018", "TAF KBIF 030600Z 0306/0412 VRB06KT 9999 SKC QNH2990INS BECMG 0317/0318 23020G30KT 8000 BLDU SKC 520009 520909 QNH2983INS BECMG 0319/0320 24030G40KT 5000 BLDU SKC 530009 530909 QNH2970INS BECMG 0322/0323 24030G40KT 1600 BLDU SKC 530009 530909 QNH2969INS BECMG 0405/0406 24035G50KT 1600 BLDU SKC 560009 560909 QNH2971INS BECMG 0408/0409 24030G40KT 2400 BLDU SKC 530009 530909 QNH2970INS TX28/0322Z TN06/0312Z", "KBIH 031120Z 0312/0412 33016G26KT P6SM SCT200 FM031600 35025G35KT P6SM VCSH BKN060 FM040300 34018G28KT P6SM FEW100", "KBIL 031131Z 0312/0412 30008KT P6SM BKN200 FM031700 05008KT P6SM SCT050 BKN200 FM032100 09012KT P6SM BKN050 OVC150 FM040000 09012KT P6SM VCSH SCT020 OVC050", "KBIS 031122Z 0312/0412 32007KT P6SM BKN012 FM032000 02008KT P6SM OVC013 FM040100 05009KT P6SM OVC009 FM041000 03015G25KT P6SM VCSH OVC009", "TAF KBIX 031000Z 0310/0416 17012KT 8000 -SHRA VCTS BKN004 BKN015CB QNH2984INS TEMPO 0310/0317 24020G25KT 8000 -TSRA FEW002 BKN010CB OVC017 BECMG 0317/0318 22015G20KT 9000 -SHRA SCT010 QNH2983INS BECMG 0400/0401 20009KT 8000 BR BKN010 QNH2985INS BECMG 0403/0404 20009KT 8000 BR FEW003 QNH2989INS BECMG 0404/0405 19006KT 8000 BR OVC003 QNH2987INS TX25/0320Z TN22/0310Z/ EIC", "KBJC 031139Z 0312/0412 VRB04KT P6SM FEW050 FEW120 FM031700 03007KT P6SM SCT120 BKN220 FM032200 23018G28KT P6SM SCT130 BKN220 FM040200 20012KT P6SM SCT120 SCT220 FM041000 01014G22KT P6SM SCT050 BKN090", "KBJI 031120Z 0312/0412 28009KT P6SM OVC006 FM031500 30006KT P6SM OVC005 FM040000 36005KT P6SM OVC009 FM040600 05007KT P6SM OVC007", "KBKE 031139Z 0312/0412 VRB05KT P6SM BKN150 FM031500 31008KT P6SM BKN090 FM031700 31014G22KT P6SM VCSH BKN060 FM040300 32008KT P6SM BKN100", "TAF KBKF 030900Z 0309/0415 VRB06KT 9999 SKC 510053 QNH2952INS BECMG 0319/0320 VRB06KT 9999 FEW075 530053 QNH2943INS BECMG 0321/0322 23020G25KT 9999 SKC 530053 QNH2939INS BECMG 0322/0323 23025G35KT 9999 SKC 530024 QNH2936INS BECMG 0401/0402 21009KT 9999 SKC 530053 QNH2917INS TX19/0322Z TN00/0313Z", "KBKW 031120Z 0312/0412 14008KT P6SM FEW250 FM031600 18011G18KT P6SM SCT140 FM032300 17010KT P6SM SCT140 FM040400 18008KT P6SM SCT050 FM040700 17007KT P6SM BKN026", "KBLF 031120Z 0312/0412 00000KT P6SM SCT250 FM031500 18008KT P6SM BKN250 FM032200 19010KT P6SM BKN045 OVC120 FM040600 20005KT P6SM FEW007 OVC025", "KBLH 031139Z 0312/0412 20009KT P6SM SKC FM031600 23014G25KT P6SM SCT250 FM032000 25030G43KT 6SM BLDU FEW250 FM040100 31028G40KT 6SM BLDU SKC FM040500 30018G25KT P6SM SKC", "KBLI 031155Z 0312/0412 VRB04KT P6SM SCT010 OVC035 FM031800 17007KT P6SM BKN035 FM032300 21008KT P6SM VCSH BKN040 FM040600 VRB04KT P6SM OVC060", "TAF AMD KBLV 031145Z 0311/0414 17012KT 9999 OVC050 QNH2972INS TEMPO 0311/0313 8000 -TSRA OVC040CB BECMG 0314/0315 16012G20KT 9999 SCT030 QNH2961INS BECMG 0322/0323 17012KT 9999 BKN020 QNH2963INS BECMG 0404/0405 16009KT 9999 OVC007 QNH2962INS TX24/0320Z TN10/0312Z", "KBMG 031120Z 0312/0412 18010KT P6SM VCSH OVC070 FM031400 20010G20KT P6SM BKN035 BKN070 FM040000 15007KT P6SM FEW015 BKN050 FM040800 17006KT P6SM OVC012", "KBMI 031131Z 0312/0412 10006KT P6SM BKN090 FM032200 09010KT P6SM VCSH BKN045 FM040100 08011KT 6SM -SHRA BR VCTS OVC035CB FM040300 08012KT 6SM -SHRA BR VCTS OVC025CB FM040600 11009KT P6SM OVC012", "KBNA 031141Z 0312/0412 18005KT P6SM VCSH SCT110 OVC150 FM031300 15009KT P6SM VCSH OVC045 TEMPO 0315/0319 4SM -DZ BKN030 FM031900 15008KT P6SM OVC015 FM040300 18009KT P6SM SKC", "KBNO 031139Z 0312/0412 30008KT P6SM BKN100 FM031600 28015G25KT P6SM BKN070 FM040500 29010KT P6SM BKN100", "KBOI 031139Z 0312/0412 31007KT P6SM BKN015 FM031500 31007KT P6SM OVC060 FM031700 31015G25KT P6SM VCSH BKN060", "KBOS 031126Z 0312/0418 15005KT P6SM FEW250 FM031600 19007KT P6SM FEW250 FM031700 20012KT P6SM FEW250 FM031900 21014G22KT P6SM BKN250 FM040600 24007KT P6SM OVC030", "KBPI 031138Z 0312/0412 VRB05KT 3SM -SN SCT012 OVC025 TEMPO 0312/0314 2SM -SN OVC012 FM032100 15009KT 4SM -SN SCT015 OVC025 FM040400 33012KT P6SM VCSH SCT025 BKN040", "KBPK 031151Z 0312/0412 18008KT P6SM SCT015 TEMPO 0312/0315 BKN015 FM031500 18010G20KT P6SM BKN030 FM031800 19012G22KT P6SM SCT035 FM040100 17010KT P6SM SCT250", "KBPT 031135Z 0312/0412 19010G16KT 6SM BR OVC006 FM031500 19012G18KT P6SM OVC012 FM031700 19016G24KT P6SM BKN020 FM031900 18014G20KT P6SM SCT025 FM040000 18012G18KT P6SM BKN250 FM040300 17013G19KT P6SM OVC009 FM040700 17014G20KT 4SM BR OVC008", "KBRD 031132Z 0312/0412 27011G20KT P6SM BKN022 FM031400 28009KT P6SM OVC012 FM040300 02005KT 5SM BR BKN008 FM040900 07012KT P6SM BKN007", "KBRL 031134Z 0312/0412 06007KT P6SM BKN100 FM031600 08007KT P6SM BKN080 FM032200 07010KT 5SM -SHRA BKN030 FM040400 05014G24KT P6SM OVC015", "KBRO 031124Z 0312/0412 17015KT P6SM OVC012 FM031600 17020G28KT P6SM SCT027 FM031900 16018G25KT P6SM FEW230 FM040400 16014KT P6SM BKN017", "KBTL 031121Z 0312/0412 23006KT P6SM BKN120 FM031800 22006KT P6SM BKN090 FM040000 22004KT 4SM -RA BR OVC050 FM040300 06009KT P6SM RA OVC022 FM040400 07009KT P6SM RA OVC018 FM040700 07011KT 6SM RA BR OVC008", "KBTM 031134Z 0312/0412 15005KT P6SM SCT100 BKN150 FM031900 32009KT P6SM VCSH BKN050 OVC120 FM032100 05011G18KT P6SM VCSH OVC050 FM040200 05011KT P6SM BKN050", "KBTR 031127Z 0312/0412 20012KT P6SM OVC012 FM031500 21015KT P6SM BKN020 FM031900 21015KT P6SM SCT030 FM040000 18010KT P6SM SCT030 FM040600 18008KT P6SM BKN015 FM041000 16008KT 5SM BR BKN008", "KBTV 031120Z 0312/0412 18009G16KT P6SM OVC100 FM031400 18013G25KT P6SM BKN080 FM032000 19011G21KT P6SM -SHRA OVC050 FM040200 21010KT P6SM BKN050 FM040500 23005KT P6SM OVC040 FM040900 VRB03KT P6SM SCT025 OVC035", "KBUF 031120Z 0312/0412 19012G20KT P6SM BKN150 FM031500 22017G27KT P6SM BKN070 FM031800 24020G32KT P6SM BKN080 FM032300 23011KT P6SM BKN060 FM040500 VRB03KT 4SM BR VCSH OVC035", "KBUR 031120Z 0312/0412 15006KT P6SM BKN025 FM031700 15012G22KT P6SM SCT025 FM040200 34015G22KT P6SM SKC FM040800 34010KT P6SM SKC", "KBVI 031124Z 0312/0412 19005KT P6SM BKN200 FM031500 20010G18KT P6SM BKN100 FM040000 25005KT P6SM VCSH BKN060", "KBVO 031120Z 0312/0412 17007KT P6SM OVC015 WS020/19040KT FM031500 19012G20KT P6SM SKC FM040100 18010KT P6SM SKC FM040500 18010KT P6SM SKC WS020/19040KT TEMPO 0409/0412 BKN020", "KBWG 031120Z 0312/0412 16005KT P6SM SHRA BKN060 OVC200 FM031500 16011KT P6SM BKN050 FM031800 15014KT P6SM SCT025 BKN050 FM032200 16008KT P6SM BKN015", "KBWI 031128Z 0312/0418 00000KT P6SM SCT250 FM031500 19013G20KT P6SM BKN250 FM040000 20004KT P6SM SCT200 FM041500 21007KT P6SM FEW050 SCT150", "KBYI 031138Z 0312/0412 VRB06KT 3SM -SN BR SCT025 OVC035 TEMPO 0312/0315 1SM -SN BR BKN005 OVC015 FM031600 27023G33KT P6SM VCSH SCT025 BKN035 FM040500 27025G35KT 6SM -SHSN BR BKN015 OVC035 FM040900 28022G32KT 3SM -SN BR BKN010 OVC025", "KBZN 031138Z 0312/0418 VRB03KT P6SM SCT250 FM040000 06014G23KT P6SM BKN050 PROB30 0401/0404 4SM -SN BR OVC025 FM040400 01012KT P6SM OVC025 PROB30 0404/0409 4SM -SN BR OVC015 FM040900 35007KT P6SM BKN050 PROB30 0415/0418 4SM -SN BR OVC004", "KCAE 031129Z 0312/0412 VRB03KT P6SM SCT150 FM031400 13006KT P6SM BKN100 FM031800 14006KT P6SM VCSH SCT035 BKN060 TEMPO 0321/0324 BKN025 FM040100 10005KT P6SM BKN025 FM040500 VRB03KT 3SM BR BKN015", "KCAK 031125Z 0312/0412 18006KT P6SM SCT250 FM031700 22010KT P6SM BKN050 FM032200 12006KT 6SM -SHRA SCT025 OVC035 FM040300 09005KT P6SM OVC025 FM040700 08005KT P6SM OVC015", "KCAR 031120Z 0312/0412 VRB03KT P6SM FEW150 FM031700 20010KT P6SM BKN060 FM031900 19010G20KT P6SM VCSH OVC050 FM040000 18013G21KT 3SM -SHSN OVC019 FM040300 19009KT P6SM VCSH BKN011 FM040600 21007KT P6SM BKN014", "TAF AMD KCBM 031115Z 0311/0415 18008KT 9999 BKN005 BKN015 OVC065 510006 QNH2980INS BECMG 0314/0315 18008KT 9999 SCT020 BKN035 510006 QNH2970INS BECMG 0408/0409 18008KT 9999 SCT007 OVC010 QNH2980INS TEMPO 0409/0414 BKN007 BECMG 0414/0415 18010G20KT 9999 SCT020 BKN160 QNH2980INS TX26/0321Z TN14/0311Z", "KCDC 031135Z 0312/0412 21023G38KT P6SM SCT200 FM031400 21025G40KT P6SM SCT040 BKN070 FM032000 23018G28KT P6SM VCSH SCT040 OVC050 FM032300 33006KT 3/4SM -SN BR SCT005 OVC012", "KCDR 031130Z 0312/0412 01005KT 1SM -SN BR FEW004 OVC012 FM031500 07011KT 2SM -SN BR OVC007 FM031900 05020G30KT 1SM -SHRASN OVC015 FM032300 05022G29KT 2SM -SHSN BR OVC010 FM040300 06024G33KT 1SM -SN BLSN BKN007 OVC010", "KCDS 031137Z 0312/0412 27011KT P6SM SKC FM031500 27015KT P6SM FEW250 FM032000 23015G30KT P6SM FEW250 FM040000 21015KT P6SM SKC FM041000 21015KT P6SM SKC WS010/22045KT", "KCEC 031131Z 0312/0412 10005KT P6SM BKN035 FM031500 01007KT 5SM HZ OVC050 FM031900 33015G20KT 6SM -SHRA HZ OVC035 FM040100 33013G23KT 4SM -SHRA HZ OVC025 FM040400 34009G19KT P6SM OVC040 FM040700 06008KT P6SM OVC050", "TAF KCEF 030000Z 0300/0406 33009KT 9999 FEW240 QNH3002INS BECMG 0313/0314 20012KT 9999 SCT100 BKN170 510103 QNH3006INS BECMG 0315/0316 21012G18KT 9999 SCT040 SCT080 BKN220 520004 QNH2993INS TEMPO 0316/0322 24018G30KT 530004 BECMG 0322/0323 21009KT 9999 SCT025 BKN045 WS020/20035KT 520204 QNH2999INS BECMG 0404/0405 VRB06KT 8000 -RA BR SCT007 SCT015 OVC025 WS020/21035KT 530204 QNH3002INS TX13/0320Z TNM07/0310Z LAST NO AMDS AFT 0301 NEXT 0312", "KCGI 031120Z 0312/0412 17007KT P6SM FEW025 SCT090 FM031500 17011G17KT P6SM BKN025 FM040000 17009KT P6SM BKN045 FM040800 17010KT P6SM BKN025", "KCHA 031120Z 0312/0412 11004KT P6SM OVC150 FM031400 16006KT 5SM -RA BR OVC020 FM031900 14012KT 5SM BR VCSH OVC015 FM040900 17007KT P6SM BKN012", "KCHO 031128Z 0312/0412 00000KT P6SM SCT250 FM031300 20004KT P6SM SCT250 FM031700 21013G20KT P6SM BKN250 FM032300 20006KT P6SM FEW200 FM040900 20005KT P6SM SCT040", "KCHS 031120Z 0312/0412 11003KT P6SM FEW150 SCT250 FM031600 14009KT P6SM FEW040 SCT100 BKN200 FM040000 15006KT P6SM VCSH SCT040 BKN080 FM040900 VRB03KT 6SM MIFG FEW010 BKN040", "KCID 031132Z 0312/0412 03003KT P6SM SCT080 OVC100 FM031700 09006KT P6SM BKN080 FM032000 06007KT 5SM -SHRA BKN050 FM040600 07012G21KT P6SM OVC029 FM040900 08014G25KT P6SM BKN019", "KCIU 031132Z 0312/0412 24010KT P6SM BKN040 FM031700 28011G19KT P6SM BKN023 FM032200 31009G16KT P6SM BKN018 FM040200 35006KT P6SM BKN035", "KCKB 031120Z 0312/0412 VRB05KT P6SM SCT240 FM031600 22010G16KT P6SM SCT220 FM040000 15005KT P6SM FEW220 FM040300 17005KT P6SM SKC FM040900 17003KT P6SM SCT170", "KCKV 031141Z 0312/0412 00000KT P6SM FEW040 FM031500 16008KT P6SM BKN015 FM040000 14007KT P6SM FEW250", "KCLE 031125Z 0312/0418 19012KT P6SM FEW250 FM031600 22008KT P6SM BKN050 FM032000 30006KT P6SM VCSH OVC035 FM032300 02008KT 5SM -RA OVC015 FM040300 05005KT 3SM BR OVC015 FM040600 06006KT 3SM BR OVC008", "KCLL 031120Z 0312/0412 20010KT P6SM BKN013 FM031700 19010G20KT P6SM SCT035 FM040700 17013KT P6SM BKN016", "KCLM 031155Z 0312/0412 22006KT P6SM OVC050 FM031900 33007KT P6SM VCSH BKN050 FM032300 33011KT P6SM VCSH BKN040 FM040400 28008KT P6SM OVC040 FM040900 24006KT P6SM BKN015 OVC030", "KCLT 031122Z 0312/0418 14004KT P6SM BKN250 FM031800 17005KT P6SM SCT025 BKN050 TEMPO 0319/0321 6SM -SHRA BR BKN025 FM032100 20005KT 5SM -RA BR OVC017 FM032300 14005KT 4SM -RA BR OVC007 FM040500 13005KT 3SM -DZ BR OVC005 FM041000 VRB03KT 6SM BR OVC006", "KCMA 031120Z 0312/0412 09006KT P6SM BKN015 OVC040 FM031400 25006KT P6SM BKN025 FM031600 25012G20KT P6SM SCT200 FM032000 25020G30KT P6SM SCT200 FM040000 25015G22KT P6SM SKC FM040300 28010KT P6SM SKC", "KCMH 031126Z 0312/0412 16006KT P6SM SCT100 OVC250 FM031400 19009KT P6SM VCSH SCT060 BKN090 FM031900 20011G18KT P6SM VCSH SCT060 BKN090 FM032300 20007KT P6SM SCT090 BKN250 FM040300 18004KT P6SM SCT050 FM040900 17006KT P6SM BKN025 FM041100 17007KT P6SM BKN015", "KCMI 031131Z 0312/0412 16005KT P6SM BKN090 FM032000 17011KT P6SM BKN060 FM040200 13011KT P6SM VCTS BKN040CB FM040400 14012KT P6SM VCTS BKN025CB FM040700 15010KT P6SM BKN015", "KCMX 031120Z 0312/0412 28012G24KT P6SM BKN070 FM031400 31011G19KT P6SM BKN028 FM031500 32009KT P6SM BKN006 FM031800 02008KT P6SM BKN009 FM032100 04008KT P6SM BKN010 FM041100 08010G21KT P6SM BKN012", "KCNM 031126Z 0312/0412 18007KT P6SM SKC FM031700 24024G32KT P6SM SKC", "KCNU 031135Z 0312/0412 17014KT P6SM OVC018 FM031500 19014KT P6SM OVC020 FM031800 19013G21KT P6SM BKN035 FM040000 VRB04KT P6SM SKC FM040800 17016G24KT P6SM FEW060 WS020/20045KT", "KCNY 031120Z 0312/0412 20020G28KT P6SM BKN200 FM031800 21031G44KT P6SM SCT200 FM032100 23037G50KT P6SM VCTS BKN080CB FM040300 24020G32KT P6SM BKN080 FM040700 29018G28KT 6SM -SHSNRA BKN050", "KCOD 031138Z 0312/0412 VRB06KT P6SM SCT070 BKN120 FM031600 03007KT P6SM VCSH SCT040 BKN060 FM032100 01012KT 5SM -SN SCT015 BKN025 FM040200 36015G25KT 1SM -SN BR SCT012 OVC020", "KCOE 031138Z 0312/0412 03005KT P6SM SCT025 BKN035 OVC045 FM031500 35006KT P6SM BKN050 FM031900 28006KT P6SM VCSH BKN050 OVC080 TEMPO 0321/0401 5SM -SHSN OVC030 FM040300 09005KT P6SM OVC060", "TAF KCOF 031000Z 0310/0416 18006KT 9999 FEW020 SCT100 QNH2994INS BECMG 0323/0324 13010KT 9999 VCSH SCT030 SCT070 QNH2996INS TEMPO 0400/0404 8000 -SHRA BECMG 0406/0407 22012KT 9999 NSW FEW020 SCT040 QNH2997INS TX27/0318Z TN20/0410Z", "KCON 031120Z 0312/0412 00000KT P6SM SKC FM031400 19010G18KT P6SM SCT150 FM032300 21007G15KT P6SM BKN050 OVC100 FM040400 21007KT P6SM VCSH BKN045 OVC100", "KCOS 031136Z 0312/0412 15004KT P6SM FEW250 FM031500 16013KT P6SM SCT200 FM031800 19018G30KT P6SM SCT200 FM032100 21028G42KT P6SM SCT200 FM040300 21022G32KT P6SM SCT200", "KCOT 031121Z 0312/0412 14005KT P6SM BKN250 FM031600 18008KT P6SM SCT200 FM040000 15018G25KT P6SM BKN200 FM041000 18012KT P6SM SCT012 BKN200 TEMPO 0410/0412 BKN012 OVC200", "KCOU 031131Z 0312/0412 19005KT P6SM FEW250 FM031400 14008KT P6SM SCT250 FM032100 20010KT P6SM BKN250 FM040000 02007KT P6SM BKN250", "KCPR 031138Z 0312/0412 06014G22KT 3/4SM -SN BR VV008 FM040200 05020G30KT 1/2SM SN BLSN SCT003 OVC006", "KCPS 031131Z 0312/0412 15005KT P6SM VCTS BKN070CB FM031300 16007KT P6SM BKN070 FM031800 16012G21KT P6SM BKN060 FM040000 16010KT P6SM BKN070 FM040600 16007KT P6SM SCT015 BKN022", "KCRE 031120Z 0312/0412 10005KT P6SM BKN250 FM031600 13011KT P6SM SCT045 BKN100 FM040000 14005KT 5SM -SHRA BR SCT015 BKN025 FM040800 22004KT 3SM BR VCSH BKN012", "KCRG 031154Z 0312/0412 17003KT P6SM VCSH SCT070 BKN120 OVC250 FM031500 17009G15KT P6SM VCSH SCT050 BKN080 BKN120 FM032000 13012G18KT P6SM VCSH SCT045 BKN060 BKN120 FM040300 16008KT P6SM VCSH SCT035 BKN045 OVC120 FM041000 27003KT P6SM SCT120 SCT250", "KCRP 031121Z 0312/0412 14007KT 5SM BR SCT009 BKN014 BKN250 TEMPO 0312/0314 BKN009 OVC014 FM031500 18012G18KT P6SM BKN020 FM031900 15018G25KT P6SM SCT035 FM040100 13017G24KT P6SM SCT020 TEMPO 0402/0404 BKN020 FM040400 15015KT P6SM BKN015 OVC200 FM040900 16012KT P6SM OVC012 WS020/18045KT", "KCRQ 031127Z 0312/0412 23008KT P6SM VCSH OVC025 FM031400 22010G17KT P6SM VCSH BKN025 FM032000 25015G25KT P6SM BKN035 FM040200 27010G17KT P6SM SKC FM040700 VRB05KT P6SM SKC", "KCRW 031120Z 0312/0412 VRB03KT P6SM SCT250 FM031700 21009KT P6SM SCT200 FM040100 18006KT P6SM FEW100 FM040900 17004KT P6SM BKN045", "KCSG 031122Z 0312/0412 10004KT P6SM VCSH SCT030 BKN070 FM031500 12009KT P6SM -SHRA BKN010 TEMPO 0316/0320 4SM TSRA BR BKN008CB FM032100 16007KT P6SM VCSH SCT008 BKN010 FM040600 17006KT P6SM SCT004 OVC008", "KCSM 031120Z 0312/0412 18014KT 1/2SM FG BKN004 FM031400 22014G22KT P6SM SKC FM040100 18013KT P6SM SKC", "KCSV 031141Z 0312/0412 21003KT P6SM SKC TEMPO 0313/0316 4SM SHRA OVC045 FM031600 16007KT 5SM BR VCSH OVC015 TEMPO 0316/0320 2SM -DZ BR FM040000 16003KT P6SM SKC", "KCTB 031138Z 0312/0412 VRB05KT P6SM BKN090 FM031400 VRB05KT P6SM BKN025 FM040400 05007KT P6SM BKN008", "KCUB 031129Z 0312/0412 VRB03KT P6SM SCT150 FM031400 13005KT P6SM BKN100 FM031800 15006KT P6SM VCSH SCT035 BKN060 TEMPO 0321/0324 BKN025 FM040100 VRB03KT P6SM BKN025 FM040500 VRB03KT 3SM BR BKN015", "KCVG 031126Z 0312/0418 18009KT P6SM VCSH FEW060 SCT070 OVC100 FM031400 19010KT P6SM VCSH SCT050 BKN090 FM031800 20011KT P6SM SCT090 BKN250 FM040000 18010KT P6SM BKN090 FM040600 18009KT P6SM BKN025 FM040800 18009KT P6SM BKN015 FM041200 17009KT P6SM BKN008 FM041700 19010KT P6SM BKN015", "TAF KCVS 0310/0416 25010KT 9999 SKC QNH2975INS BECMG 0315/0316 26015G25KT 9999 SKC QNH2958INS BECMG 0322/0323 26020G35KT 9999 SKC QNH2955INS BECMG 0400/0401 23010G20KT 9999 SKC QNH2956INS BECMG 0402/0403 21012KT 9999 SKC QNH2948INS BECMG 0412/0413 22015G25KT 9999 SKC QNH2948INS BECMG 0414/0415 24025G45KT 6000 BLDU SKC 530009 QNH2950INS TX28/0321Z TN05/0313Z", "KCWA 031126Z 0312/0412 24008KT P6SM BKN200 FM032300 03005KT P6SM BKN120 FM040600 07008KT P6SM BKN024 FM040800 08009KT P6SM BKN010 FM041000 08010KT P6SM OVC008", "KCXO 031120Z 0312/0412 20010KT P6SM BKN018 FM031700 19010G18KT P6SM SCT035 FM040600 17010KT P6SM BKN015 BKN022", "KCXP 031120Z 0312/0412 30015G22KT P6SM VCSH BKN035 TEMPO 0312/0313 2SM -SHSN BKN020 FM031600 33014G24KT P6SM VCSH SCT030 BKN045 FM040300 30014G22KT P6SM SCT040", "KCYS 031130Z 0312/0412 04010G17KT P6SM BKN040 OVC100 FM031500 14014G22KT P6SM BKN030 OVC040 FM032000 15017G24KT P6SM VCSH OVC040 FM040000 12013G20KT P6SM -SHRA VCTS BKN040CB OVC080 FM040300 03015G26KT 3SM -SHSNDZ VCTS BKN025CB OVC030 FM040600 01013G22KT 3SM -SHSNDZ BKN008 OVC020 FM041000 36014G27KT 2SM -SHSN BR OVC008", "TAF KDAA 031200Z 0312/0418 VRB06KT 9999 FEW200 QNH3014INS BECMG 0314/0315 19010G15KT 9999 SKC QNH2997INS BECMG 0322/0323 19006KT 9999 FEW190 QNH2997INS BECMG 0414/0415 VRB06KT 9999 SCT025 BKN050 QNH3002INS TX22/0318Z TN10/0410Z", "KDAB 031120Z 0312/0412 VRB03KT P6SM FEW120 BKN250 FM031500 12007KT P6SM SCT030 BKN250 FM031800 10012G20KT P6SM VCTS SCT040CB SCT100 BKN250 FM040200 VRB04KT P6SM FEW040 SCT100 SCT250", "KDAG 031120Z 0312/0412 26025G35KT P6SM FEW050 FM031500 26040G50KT 4SM BLDU SCT050 FM040300 26020KT P6SM SCT090 SCT150", "KDAL 031120Z 0312/0412 18008KT P6SM SCT007 TEMPO 0312/0315 4SM BR BKN007 FM031700 22015KT P6SM FEW250 FM040200 17017G32KT P6SM SCT110 FM041100 18019KT P6SM BKN013", "KDAN 031120Z 0312/0412 00000KT P6SM SKC FM031500 21008KT P6SM SCT250 FM032100 21006KT P6SM SCT100 OVC250 FM040300 22003KT P6SM -RA SCT040 OVC090 FM040600 24002KT 6SM BR SCT011 OVC025", "KDAY 031126Z 0312/0412 17007KT P6SM FEW100 SCT250 FM031500 20009KT P6SM VCSH BKN090 FM032100 21012G20KT P6SM VCSH BKN050 FM032300 19010KT P6SM BKN050 FM040700 18009KT P6SM BKN025 FM040900 17008KT P6SM BKN008", "KDBQ 031132Z 0312/0412 00000KT P6SM BKN110 FM032200 05007KT 5SM -SHRA OVC050 FM040600 08009KT P6SM OVC023 FM040900 08011G21KT P6SM BKN015", "KDCA 031128Z 0312/0418 18004KT P6SM SCT250 FM031600 20015G23KT P6SM BKN250 FM040000 19009KT P6SM SCT250 FM041500 19008G16KT P6SM FEW050 SCT250", "KDDC 031120Z 0312/0412 33010KT P6SM SKC FM031600 VRB06KT P6SM FEW200 FM040000 13013KT P6SM FEW200", "KDEC 031131Z 0312/0412 17006KT P6SM BKN090 FM031900 18011KT P6SM BKN060 FM040100 14011KT P6SM VCTS BKN045CB FM040500 14011KT P6SM VCTS BKN025CB FM040700 16011KT P6SM BKN015", "KDEN 031139Z 0312/0418 18009KT P6SM FEW060 SCT220 FM032100 23014G25KT P6SM SCT130 BKN220 FM040200 20012KT P6SM SCT120 SCT220 FM041000 01015G25KT P6SM SCT050 BKN090 FM041200 02012KT P6SM VCSH SCT035 OVC050 TEMPO 0412/0416 5SM -SHSN BKN030", "KDET 031120Z 0312/0412 17006KT P6SM SCT150 FM031400 24005KT P6SM BKN150 FM032100 VRB03KT P6SM SCT045 OVC070 FM040000 04004KT P6SM -SHRA BKN040 OVC060 FM040600 07010KT 6SM -SHRA BR BKN018 OVC035 FM040800 02006KT 5SM -RA BR OVC009", "KDFW 031120Z 0312/0418 18008KT P6SM SCT007 TEMPO 0312/0315 4SM BR BKN007 FM031600 22015KT P6SM FEW250 FM040200 17017G32KT P6SM SCT110 FM041100 18019KT P6SM BKN013", "KDHN 031120Z 0312/0412 15005KT 5SM BR VCSH BKN008 OVC100 FM031600 16006KT P6SM VCTS SCT020CB OVC070 FM031800 08005KT 3SM +TSRA BR BKN020CB OVC070 FM032300 17009KT P6SM VCSH SCT015 BKN050 FM040300 20008KT P6SM BKN008 FM040800 20006KT 4SM BR OVC005", "KDHT 031122Z 0312/0412 29009KT P6SM SKC FM031800 23025G35KT P6SM SKC FM040100 22019G29KT P6SM SKC", "KDIJ 031120Z 0312/0412 09006KT P6SM SCT020 SCT120 FM031800 32007KT P6SM VCSH BKN020 OVC035 FM032200 28007KT 3SM -SHSN BR BKN015 OVC025 FM040700 36010KT 5SM BR VCSH OVC020 AMD LTD TO CLD VIS AND WIND", "KDIK 031122Z 0312/0412 32014KT P6SM BKN015 FM031700 35006KT P6SM BKN028 FM040000 05009KT P6SM OVC015 FM040400 07011KT P6SM OVC008", "TAF KDLF 031130Z 0311/0417 08009KT 9999 SCT200 QNH2968INS BECMG 0314/0315 14010KT 9999 SCT200 QNH2952INS BECMG 0319/0320 21012KT 9999 SCT200 QNH2964INS BECMG 0400/0401 VRB06KT 9999 SCT200 QNH2956INS BECMG 0414/0415 14009KT 9999 SCT200 QNH2960INS TX35/0322Z TN17/0311Z", "KDLH 031132Z 0312/0412 26009KT P6SM VCSH BKN016 OVC025 TEMPO 0312/0314 5SM -SHSN BR FM032200 03006KT 3SM -SHSN BR BKN005 FM040000 07010G18KT 1SM BR BKN003 FM040600 08017G25KT 4SM BR OVC003", "KDLS 031131Z 0312/0412 29008KT P6SM BKN080 FM031800 30016G26KT P6SM BKN050 BKN100 FM040600 30010KT P6SM BKN250", "TAF KDMA 030601Z 0306/0412 12006KT 9999 SKC QNH2984INS BECMG 0317/0318 26015G25KT 9999 SKC 510009 QNH2970INS TEMPO 0321/0324 26020G35KT BECMG 0400/0401 26015KT 9999 SKC QNH2971INS BECMG 0405/0406 24009KT 9999 SKC QNH2980INS TX27/0320Z TN08/0313Z", "KDMN 031120Z 0312/0412 24005KT P6SM SKC FM031700 25020G30KT P6SM SKC FM032100 25025G35KT 4SM BLDU SKC FM040400 25030G40KT P6SM SKC", "KDNL 031129Z 0312/0412 VRB03KT P6SM SCT150 FM031300 14006KT P6SM BKN100 FM031700 12007KT P6SM VCSH SCT035 BKN050 FM040100 VRB05KT P6SM SCT030 BKN050 FM040600 VRB03KT 3SM BR BKN015", "TAF KDOV 030800Z 0308/0414 12006KT 9999 FEW250 QNH3003INS WND 20009KT AFT 0312 TEMPO 0314/0318 20012G20KT BECMG 0411/0412 20009KT 9999 BKN100 510101 QNH3006INS TX18/0318Z TN03/0310Z", "KDPA 031120Z 0312/0412 VRB03KT P6SM BKN100 FM031400 14007KT P6SM BKN070 FM032000 07010KT P6SM OVC060 TEMPO 0320/0323 6SM -SHRA FM032300 07011KT 5SM -RA BR SCT025 OVC040 PROB30 0402/0406 2SM TSRA OVC015CB FM040600 06012G18KT 5SM -SHRA BR OVC009", "KDRO 031120Z 0312/0412 26006KT P6SM FEW250 FM031600 22013G21KT P6SM FEW250 FM031900 22021G33KT P6SM SCT250 FM032300 23030G44KT P6SM BKN200 FM040200 24034G48KT P6SM BKN060 FM040500 25025G35KT P6SM VCSH BKN060", "KDRT 031128Z 0312/0412 08006KT P6SM SKC FM031500 08009KT P6SM FEW250 FM032100 12010KT P6SM FEW250", "KDSM 031127Z 0312/0412 12006KT P6SM OVC100 FM032100 05011G24KT P6SM OVC050 FM040500 06012G23KT P6SM BKN025", "KDTW 031120Z 0312/0418 20006KT P6SM SCT150 FM031400 24005KT P6SM BKN150 FM032000 VRB03KT P6SM SCT045 OVC070 FM040000 04004KT P6SM -SHRA BKN040 OVC060 FM040600 07010KT 6SM -SHRA BR BKN018 OVC035 FM040800 02006KT 5SM -RA BR OVC009", "KDUG 031123Z 0312/0412 10006KT P6SM SKC FM031600 19013G20KT P6SM SKC FM032000 23026G38KT P6SM SCT250 FM040400 22018G25KT P6SM SKC", "KDUJ 031124Z 0312/0412 15006KT P6SM BKN250 FM031500 21010G18KT P6SM BKN100 FM032300 24008KT P6SM VCSH BKN050", "KDVL 031120Z 0312/0412 35017G22KT P6SM OVC009 TEMPO 0312/0314 5SM -SN FM031500 33014G17KT P6SM OVC009 FM040000 02011KT P6SM OVC005", "KDVT 031139Z 0312/0412 12007KT P6SM SKC FM031600 18012G19KT P6SM SKC FM032200 24024G35KT P6SM FEW250 FM040500 28016G22KT P6SM SKC FM040700 27012KT P6SM SKC", "TAF KDYS 030800Z 0308/0414 24009KT 9999 SKC 510052 QNH2971INS BECMG 0316/0317 25012G18KT 9999 SKC 510062 QNH2968INS BECMG 0320/0321 22015G25KT 9999 SKC 520043 QNH2957INS BECMG 0400/0401 20009KT 9999 SKC 510042 QNH2957INS TX33/0321Z TN14/0312Z", "KEAR 031124Z 0312/0412 06011KT P6SM BKN080 FM031600 07016G22KT P6SM SCT030 BKN060 FM040500 06015G22KT P6SM BKN030 FM040900 07014G21KT P6SM BKN010", "KEAT 031138Z 0312/0412 31009KT P6SM OVC060 FM031800 30010KT P6SM SCT060 FM040000 29015KT P6SM SCT100 FM040900 31010KT P6SM BKN080", "KEAU 031135Z 0312/0412 23008KT P6SM BKN220 FM031600 28009KT P6SM BKN170 FM040000 34005KT P6SM BKN060 FM040600 05007KT P6SM BKN040 FM040800 07010KT P6SM BKN030 FM041100 08012G19KT P6SM BKN020", "KECG 031120Z 0312/0412 VRB04KT P6SM SKC FM031400 16012KT P6SM BKN250 FM040200 18008KT P6SM OVC080 FM040800 17005KT P6SM BKN035", "KECP 031120Z 0312/0412 10004KT P6SM OVC004 FM031600 14009KT P6SM SCT008 BKN015 OVC030 FM031800 19014G20KT P6SM VCSH SCT015 BKN030 BKN080 FM040000 16005KT P6SM SCT006 BKN012 FM040500 13003KT 4SM BR OVC005", "KEED 031120Z 0312/0412 23008KT P6SM SKC FM031700 25020G30KT P6SM SCT250 FM032300 30022G32KT P6SM FEW120 FM040500 32015G25KT P6SM FEW080 SCT100", "KEET 031135Z 0312/0412 VRB03KT 5SM -SHRA BR OVC050 FM031400 14006KT P6SM VCSH BKN011 FM031600 16007KT P6SM SCT008 OVC012 TEMPO 0316/0319 BKN008 OVC012 FM032000 19006KT P6SM BKN015 FM032300 VRB04KT P6SM SCT025 BKN250", "TAF AMD KEFD 031140Z 0311/0410 19009KT 8000 BR OVC010 QNH2975INS BECMG 0315/0316 21015G20KT 9000 BR SCT009 QNH2984INS BECMG 0318/0319 19015G20KT 9999 NSW FEW024 QNH2976INS BECMG 0322/0323 18015G20KT 9999 SCT030 QNH2974INS BECMG 0401/0402 17009KT 9000 BR SCT009 QNH2974INS BECMG 0402/0403 17009KT 8000 BR OVC009 QNH2975INS BECMG 0406/0407 18009KT 8000 BR OVC001 510013 QNH2971INS TX28/0319Z TN23/0311Z", "KEFK 031120Z 0312/0412 17005KT P6SM OVC100 FM031400 17012G21KT P6SM OVC070 FM032100 19009KT P6SM -DZ OVC050 FM040000 20007KT P6SM VCSH BKN070 WS020/25040KT FM040300 22005KT P6SM FEW025 BKN050", "KEGE 031120Z 0312/0412 15008KT P6SM SCT200 WS020/24040KT FM031500 22016G26KT P6SM BKN200 WS020/23040KT FM032300 22029G38KT P6SM VCTS BKN100CB FM040100 23023G43KT 6SM -SHRASN BR BKN060 FM040600 24021G35KT P6SM VCSH OVC060 FM041000 27020G30KT 6SM -SHSNRA BR OVC030", "TAF KEGI 030900Z 0309/0415 17006KT 9999 VCSH BKN007 QNH2992INS TEMPO 0309/0314 BKN010 BECMG 0314/0315 19009KT 9999 NSW BKN015 QNH2989INS BECMG 0316/0317 21012KT 9999 VCTS BKN020CB QNH2988INS TEMPO 0318/0322 22012G20KT 6000 -TSRA BKN010CB BECMG 0322/0323 20006KT 9999 NSW BKN020 QNH2988INS BECMG 0404/0405 21006KT 4800 BR SCT002 BKN006 QNH2990INS TEMPO 0406/0412 0800 FG BKN002 TX26/0319Z TN17/0309Z LAST NO AMDS AFT 0309 NEXT 0312", "KEKN 031120Z 0312/0412 00000KT P6SM SCT250 FM031400 VRB05KT P6SM SCT250 FM031700 22010KT P6SM FEW180 FM040000 17006KT P6SM FEW230 FM040900 17004KT P6SM SCT045", "KEKO 031120Z 0312/0412 24011KT 5SM -SHSN SCT025 BKN070 TEMPO 0312/0314 2SM -SHSN OVC025 FM031700 32012G22KT P6SM -SHSN SCT035 OVC060 FM040200 25010G20KT P6SM SCT040 BKN120", "KEKS 031138Z 0312/0412 00000KT P6SM SCT250 FM032000 35018KT P6SM BKN050 PROB30 0323/0404 4SM -SN BR OVC025 FM040400 35018G29KT P6SM OVC025 PROB30 0404/0405 4SM -SN BR OVC015 FM040500 36019G30KT P6SM OVC015 PROB30 0405/0411 4SM -SN BR OVC002", "KELD 031120Z 0312/0412 17004KT 5SM BR OVC007 FM031500 20010KT P6SM OVC009 FM031700 20011G17KT P6SM OVC015 FM032100 20013G18KT P6SM BKN100 FM040000 16006KT P6SM SCT200 FM040600 17010KT P6SM BKN150 FM040800 18009KT P6SM OVC050", "KELM 031120Z 0312/0412 18010G16KT P6SM SCT100 WS020/20040KT FM032000 22010G15KT P6SM BKN060 FM040200 00000KT 6SM -SHRA BR OVC025 FM040600 00000KT 2SM -DZ BR OVC006", "KELP 031120Z 0312/0412 26006KT P6SM SKC FM031700 25017G27KT P6SM SKC FM032100 25025G35KT 6SM BLDU SKC FM040400 25030G45KT P6SM SKC", "KELY 031120Z 0312/0412 34009KT 3SM -SN BR SCT012 OVC025 FM031700 30012G22KT P6SM -SHSN BKN040 OVC060 FM040300 31010G20KT P6SM SCT040 BKN120", "TAF KEND 031000Z 0310/0416 19012G22KT 8000 BR BKN006 BKN050 QNH2952INS TEMPO 0310/0313 BKN050 BECMG 0313/0314 21010G20KT 9999 NSW SKC QNH2944INS BECMG 0323/0324 15013G23KT 9999 SKC QNH2944INS BECMG 0414/0415 19015G25KT 9999 FEW250 QNH2945INS TX29/0321Z TN15/0312Z", "KENV 031135Z 0312/0412 33009KT P6SM VCSH SCT025 BKN050 FM031600 34020G30KT P6SM VCSH SCT050 BKN120 FM040000 33025G40KT P6SM SCT150", "KENW 031120Z 0312/0412 VRB04KT P6SM BKN100 FM031800 18009KT P6SM BKN120 FM032100 12007KT P6SM VCSH BKN090 FM040000 09006KT 6SM -SHRA BR OVC050 FM040700 07007KT P6SM VCSH OVC016", "KERI 031125Z 0312/0412 18012KT P6SM BKN250 FM031500 22012KT P6SM BKN150 FM032000 26008KT P6SM VCSH SCT025 OVC035 FM040000 09006KT 6SM -RA SCT015 OVC025 FM040600 06005KT 3SM -RA BR OVC008", "KEUG 031120Z 0312/0412 20004KT P6SM VCSH SCT025 OVC045 FM031600 20006KT P6SM -SHRA SCT015 OVC025 FM032100 29008KT P6SM -SHRA SCT030 BKN050 FM040600 20005KT P6SM -SHRA SCT025 OVC040", "KEUL 031139Z 0312/0412 30008KT P6SM OVC100 FM031700 30015G25KT P6SM VCSH BKN060", "KEVV 031120Z 0312/0412 VRB03KT 6SM -RA BR BKN080 FM031230 18009KT P6SM VCSH BKN060 FM031600 17013G20KT P6SM BKN025 FM040000 17007KT P6SM BKN020 FM040800 17008KT P6SM BKN015", "KEVW 031135Z 0312/0412 08011KT 1/2SM SN FZFG VV003 FM031600 04009KT 1SM -SN BR SCT007 OVC015 FM040000 34015G25KT 3SM -SN BR SCT020 OVC030", "KEWN 031120Z 0312/0412 14007KT P6SM SCT240 FM040200 17006KT P6SM OVC050 FM040600 16006KT P6SM OVC025 FM040900 16006KT P6SM BKN017", "KEWR 031120Z 0312/0418 15005KT P6SM FEW200 FM031400 18010KT P6SM SCT200 FM031600 20013G22KT P6SM SCT050 BKN200 FM040100 20010KT P6SM FEW040 BKN200 FM040600 21006KT P6SM BKN200 FM040900 VRB04KT P6SM SCT020 BKN200 FM041400 15005KT P6SM FEW020 BKN250", "KEYW 031138Z 0312/0412 13008KT P6SM SCT025", "TAF KFAF 031000Z 0310/0416 16009KT 9999 SKC QNH3010INS BECMG 0312/0313 18010G15KT 9999 SKC QNH3001INS BECMG 0319/0320 18009KT 9999 SKC QNH3000INS BECMG 0403/0404 17006KT 9999 BKN015 BKN025 QNH3000INS TX22/0321Z TN07/0311Z", "KFAR 031120Z 0312/0412 28014G19KT P6SM OVC014 FM031500 31014G20KT P6SM BKN012 FM040000 35009KT P6SM OVC011", "KFAT 031120Z 0312/0412 32014G24KT P6SM BKN060 BKN110 FM031600 32022G28KT P6SM SCT050 BKN100 FM040200 31014G20KT P6SM BKN250 FM040900 33006KT P6SM BKN250", "KFAY 031120Z 0312/0412 14004KT P6SM FEW150 BKN250 FM040000 14005KT 6SM -RA BR SCT030 BKN050 BKN100 FM040800 VRB03KT 5SM -RADZ BR BKN015", "TAF KFBG 030900Z 0309/0415 14006KT 9999 SKC QNH3003INS TEMPO 0317/0321 17010G18KT BECMG 0402/0403 14009KT 9000 DZ BR OVC008 QNH3006INS BECMG 0411/0412 VRB04KT 8000 -RA BR OVC008 QNH3001INS TX23/0321Z TN08/0311Z", "TAF KFCS 030500Z 0305/0411 VRB06KT 9999 SKC 530053 QNH2975INS BECMG 0311/0312 23015G25KT 9999 SKC 530009 QNH2961INS BECMG 0313/0314 23025G35KT 9999 SKC 540009 QNH2954INS TEMPO 0316/0323 23035G50KT 570009 BECMG 0322/0323 23025G35KT 9999 SKC 540009 QNH2939INS BECMG 0410/0411 21010G20KT 9999 SKC 510009 QNH2932INS TX18/0321Z TNM02/0313Z", "KFDY 031125Z 0312/0412 19008KT P6SM BKN250 FM032000 21007KT P6SM VCSH BKN035 FM032200 06007KT 6SM -SHRA SCT015 OVC025 FM040000 05007KT 5SM -RA BKN015 FM040500 09008KT 6SM BR BKN015", "TAF KFFO 031100Z 0311/0417 18009KT 9999 VCSH SCT070 BKN100 BKN200 510102 QNH2984INS BECMG 0313/0315 19009KT 9000 -SHRA SCT030 BKN060 BKN100 QNH2979INS BECMG 0319/0320 20012KT 9999 VCSH SCT025 BKN040 QNH2977INS BECMG 0323/0324 19008KT 9999 NSW BKN025 510102 QNH2978INS BECMG 0405/0406 20009KT 9999 BKN015 OVC025 510102 QNH2980INS BECMG 0410/0411 16009KT 9999 VCSH SCT005 OVC010 QNH2982INS BECMG 0416/0417 18012KT 8000 -SHRA VCTS SCT009 BKN015CB QNH2986INS TX19/0320Z TN04/0311Z", "TAF KFHU 030600Z 0306/0412 VRB06KT 9999 SKC QNH2991INS BECMG 0317/0318 22016G28KT 9999 SKC 520004 QNH2984INS BECMG 0320/0321 23025G38KT 9999 SKC 530004 QNH2977INS BECMG 0402/0403 23016G26KT 9999 SKC 530003 QNH2982INS TX23/0320Z TN07/0312Z", "KFKL 031124Z 0312/0412 16007KT P6SM BKN250 FM031400 19010KT P6SM BKN100 FM032000 22012KT P6SM OVC060 FM040000 08004KT P6SM VCSH OVC035 AMD NOT SKED", "KFLG 031120Z 0312/0412 23018G26KT P6SM SKC WS020/23050KT FM031500 22022G36KT P6SM SKC FM032100 22033G50KT P6SM SCT150 FM040300 24025G35KT P6SM VCSH BKN060 FM040800 23020G30KT P6SM BKN080", "KFLL 031120Z 0312/0418 VRB04KT P6SM FEW025 SCT250 FM031400 16006KT P6SM SCT035 SCT060 FM031800 14013KT P6SM FEW035 SCT250 FM040300 VRB04KT P6SM FEW040 FM041400 12010KT P6SM SCT035 SCT060", "KFLO 031120Z 0312/0412 13005KT P6SM BKN250 FM031600 15010KT P6SM BKN040 BKN100 FM040000 14005KT 5SM -SHRA BR SCT015 BKN025 FM040800 25004KT 3SM BR BKN007", "KFMH 031126Z 0312/0412 15007KT P6SM FEW250 FM031600 18010KT P6SM SKC FM031800 20015G22KT P6SM SKC FM040800 23009KT P6SM BKN040 FM040900 23007KT P6SM BKN025", "KFMN 031124Z 0312/0412 10009KT P6SM SCT250 FM031700 22014G24KT P6SM SCT250 FM032000 24024G40KT P6SM SCT250 FM040200 24032G48KT P6SM SCT140 FM040800 25020G32KT P6SM SCT060 BKN110", "KFMY 031131Z 0312/0412 VRB04KT P6SM SCT250 FM031500 21007KT P6SM SCT030 SCT250 FM031900 24012G18KT P6SM FEW050 SCT250 FM040000 27005KT P6SM SCT250 FM040300 VRB03KT P6SM FEW250", "KFNT 031120Z 0312/0412 20007KT P6SM SCT150 FM031400 26010KT P6SM BKN150 FM032100 24006KT P6SM SCT040 OVC070 FM040300 06004KT 5SM -SHRA BKN040 OVC060 FM040800 06006KT 3SM -RA BR OVC007", "KFOD 031127Z 0312/0412 05006KT P6SM OVC100 FM032300 04011KT P6SM BKN070 FM040500 05013G23KT P6SM BKN045", "KFOE 031126Z 0312/0412 09007KT P6SM VCSH BKN026 FM031300 11008KT P6SM VCSH OVC012 FM031600 08007KT P6SM BKN013 FM032200 05008KT P6SM BKN040 FM040600 09013KT P6SM BKN020", "KFPR 031120Z 0312/0412 14004KT P6SM SCT025 SCT060 SCT250 FM031400 16008KT P6SM VCSH SCT030 SCT080 SCT250 FM031800 14014G22KT P6SM VCTS SCT040CB SCT100 BKN250 FM040400 17006KT P6SM SCT060 SCT250", "KFSD 031120Z 0312/0412 33005KT P6SM VCSH BKN120 FM031400 34007KT P6SM OVC100 FM040200 05011G18KT P6SM BKN070 FM040600 05016G27KT P6SM BKN050 PROB30 0410/0412 5SM -FZDZ BKN015", "KFSM 031120Z 0312/0412 06009KT P6SM OVC025 WS020/17035KT FM031600 20012G20KT P6SM SKC FM040100 15007KT P6SM SKC FM040500 12007KT P6SM SKC WS020/19035KT", "KFST 031126Z 0312/0412 23008KT P6SM FEW250 FM031800 24015G23KT P6SM FEW250 FM040100 22011KT P6SM SCT250", "TAF KFTK 031100Z 0311/0417 17009KT 9999 VCSH SCT050 BKN100 OVC200 QNH2986INS TEMPO 0313/0316 18012KT 9000 -SHRA BKN050 OVC100 BECMG 0316/0317 18012G18KT 9999 NSW BKN045 BKN080 510005 QNH2978INS TEMPO 0318/0324 14015G22KT BECMG 0400/0401 16009KT 9999 OVC020 QNH2978INS BECMG 0412/0413 17010KT 9999 VCSH OVC015 QNH2983INS TEMPO 0413/0417 18012G18KT 9000 -SHRA OVC010 TX22/0321Z TN11/0311Z", "KFTW 031120Z 0312/0412 18008KT P6SM SCT007 TEMPO 0312/0315 4SM BR BKN007 FM031700 22015KT P6SM FEW250 FM040200 17017G32KT P6SM SCT110 FM041100 18019KT P6SM BKN013", "KFTY 031122Z 0312/0412 10004KT P6SM -SHRA SCT025 BKN100 FM031500 12010KT 5SM -RA BR BKN010 OVC050 FM032200 10005KT 4SM BR VCSH BKN008 FM040800 09004KT 3SM BR BKN004 OVC008", "KFVE 031120Z 0312/0412 19003KT P6SM FEW050 SCT150 FM031400 24010KT P6SM SCT090 FM031800 19010G20KT P6SM VCSH OVC040 FM032300 18011G23KT 1SM -SN BR OVC015 FM040300 19009KT 5SM -SHSN OVC008 FM040600 26005KT P6SM BKN014", "KFWA 031121Z 0312/0412 21006KT P6SM SCT100 FM032300 10006KT P6SM VCSH OVC030 FM040200 09008KT 6SM -SHRA BR OVC021 FM040300 09009KT 5SM -SHRA OVC012 FM040900 10008KT P6SM OVC007", "KFXE 031120Z 0312/0412 VRB04KT P6SM FEW025 SCT250 FM031400 16007KT P6SM SCT035 SCT060 FM031800 13013KT P6SM FEW035 SCT250 FM040300 VRB04KT P6SM FEW040", "KFYV 031120Z 0312/0412 17007KT P6SM SCT025 TEMPO 0312/0315 BKN025 FM031500 19012G20KT P6SM SKC FM040100 18008KT P6SM SKC FM040500 18008KT P6SM SKC WS020/19035KT", "KGBD 031135Z 0312/0412 04011KT P6SM OVC015 FM031600 02012KT P6SM SCT020 BKN035 FM032200 07012KT P6SM SCT150 FM040300 08014G22KT P6SM BKN020 FM040800 08010KT P6SM BKN011", "KGCC 031120Z 0312/0412 30008KT P6SM BKN080 FM031900 04008KT 4SM -SN OVC020 FM032200 04015KT 1SM -SN VV008 FM040200 04014G24KT 1/2SM SN VV008", "KGCK 031120Z 0312/0412 35010KT P6SM SKC FM031600 VRB06KT P6SM FEW200 FM032100 14012KT P6SM FEW200", "KGCN 031120Z 0312/0412 21016G25KT P6SM FEW250 FM031800 22028G45KT P6SM FEW250 FM032100 24032G48KT P6SM VCSH SCT110 PROB30 0323/0402 4SM -SHSN BR BKN035 FM040200 25018G28KT P6SM VCSH BKN060 PROB30 0402/0406 4SM -SHSN BR OVC025 FM040600 23015G25KT P6SM OVC050", "KGDV 031120Z 0312/0412 VRB06KT P6SM BKN015 FM031900 VRB06KT P6SM BKN025 FM040200 05010KT P6SM BKN035 FM040500 06010KT P6SM BKN025 FM041100 05010KT P6SM OVC009", "KGEG 031138Z 0312/0412 VRB04KT P6SM SCT007 BKN020 OVC030 FM031500 28006KT P6SM BKN030 OVC050 FM032000 28007KT P6SM VCSH BKN050 TEMPO 0321/0324 4SM -SHSN OVC025 FM040300 23006KT P6SM SCT100", "KGFK 031120Z 0312/0412 32020G32KT P6SM BKN008 FM031500 33019G25KT P6SM OVC010 FM040000 35014G20KT P6SM OVC009 FM040600 36012KT P6SM OVC009", "KGFL 031120Z 0312/0412 19004KT P6SM BKN090 FM031400 18014G28KT P6SM SCT150 FM032200 18008KT P6SM VCSH SCT060 PROB30 0322/0401 5SM -SHRA BR OVC040 FM040100 VRB03KT 5SM -SHRA BR BKN040 FM040600 VRB02KT 4SM -SHRA BR BKN018 OVC030", "KGGG 031120Z 0312/0412 18011KT P6SM OVC009 FM031500 21018G24KT P6SM OVC015 FM031800 20016G22KT P6SM BKN050 FM040000 17015G20KT P6SM SCT250 FM040600 18015KT P6SM BKN150 FM040900 17013KT P6SM OVC050", "KGGW 031120Z 0312/0412 VRB06KT P6SM BKN035 FM031400 VRB05KT P6SM BKN015 FM031600 VRB04KT P6SM BKN008 FM032300 04010KT P6SM BKN025", "KGJT 031120Z 0312/0412 12009G20KT P6SM SCT150 FM031600 17019G34KT P6SM BKN150 FM032100 22030G40KT P6SM VCTS BKN100CB FM040000 24028G48KT 6SM -SHRA BR VCTS BKN090CB FM040400 26018G34KT P6SM VCSH BKN050", "KGKY 031120Z 0312/0412 18008KT P6SM SCT007 TEMPO 0312/0315 4SM BR BKN007 FM031700 22015KT P6SM FEW250 FM040200 17017G32KT P6SM SCT110 FM041100 18019KT P6SM BKN013", "KGLD 031133Z 0312/0412 VRB06KT P6SM SKC FM031500 09013G22KT P6SM FEW230 FM040100 12018KT P6SM SKC FM040500 11014KT P6SM OVC024 FM040800 12010KT P6SM OVC009", "KGLH 031135Z 0312/0412 15005KT P6SM BKN009 OVC015 FM031600 21013KT P6SM BKN018 FM031800 20014G21KT P6SM OVC035 FM040000 18013KT P6SM SKC FM041000 18011KT P6SM BKN015", "TAF COR KGLS 031125Z 0312/0412 18014KT P6SM SCT004 OVC018 TEMPO 0312/0313 5SM BR BKN004 FM031500 19013KT P6SM BKN015 FM031800 18013KT P6SM BKN022 FM040100 16013KT P6SM FEW008 BKN012", "KGMU 031122Z 0312/0412 VRB03KT P6SM BKN250 FM031700 08005KT P6SM -RA SCT021 BKN050 TEMPO 0317/0320 6SM -RA BR BKN021 FM032000 06005KT 4SM -RA BR OVC015 FM032200 05005KT 3SM -RA BR OVC009 FM040400 30004KT 4SM BR OVC005", "KGNV 031154Z 0312/0412 18003KT P6SM VCSH SCT070 BKN120 OVC250 FM031400 15006KT P6SM SCT060 BKN120 OVC200 FM031900 24011G16KT P6SM VCSH SCT050 BKN080 BKN120 FM040200 25005KT P6SM VCSH SCT035 BKN045 OVC120 FM040800 00000KT 3SM BR BKN009 FM041000 00000KT 1/2SM FG BKN004 OVC008", "KGON 031120Z 0312/0412 VRB05KT P6SM SKC FM031300 17007KT P6SM SCT200 FM031600 18012KT P6SM FEW040 SCT200 FM031800 19013G20KT P6SM SCT040 BKN200 FM040100 20009KT P6SM FEW040 BKN200 FM040600 VRB05KT P6SM SCT015 BKN200", "KGPI 031134Z 0312/0412 33005KT P6SM SCT150 FM032000 01007KT P6SM VCSH OVC050 FM040200 01009KT P6SM BKN050", "KGPT 031127Z 0312/0412 20013G21KT P6SM OVC004 FM031500 21013KT P6SM BKN015 FM031700 21013KT P6SM SCT025 BKN035 FM040200 19008KT P6SM BKN020 FM041100 16006KT 5SM BR OVC005", "KGRB 031126Z 0312/0412 23008KT P6SM BKN200 FM031400 26009G16KT P6SM BKN200 FM031900 27008KT P6SM SCT250 FM032300 04006KT P6SM BKN120 FM040600 05010G18KT P6SM OVC011", "TAF AMD KGRF 030725Z 0307/0411 24007KT 6000 -RASN SCT004 OVC010 620159 QNH2991INS TEMPO 0307/0312 4800 BR BKN004 BECMG 0312/0313 24008KT 4800 BR OVC010 610159 QNH2997INS BECMG 0316/0317 21010KT 9999 NSW BKN015 OVC025 QNH2999INS BECMG 0407/0408 21010KT 9999 BKN015 QNH3003INS TX08/0323Z TN01/0309Z", "KGRI 031124Z 0312/0412 06011KT P6SM BKN080 FM031600 07016G22KT P6SM SCT030 BKN060 FM040500 06015G22KT P6SM BKN030 FM040900 07014G21KT P6SM BKN010", "TAF KGRK 030800Z 0308/0414 18008KT 4800 BR OVC012 QNH2973INS BECMG 0308/0309 19008KT 4800 BR OVC008 QNH2973INS TEMPO 0312/0314 0800 FG OVC008 BECMG 0313/0314 19010KT 9999 NSW OVC015 QNH2978INS BECMG 0315/0316 18012G18KT 9999 FEW060 QNH2963INS BECMG 0400/0401 16010KT 9999 FEW060 QNH2963INS TX34/0321Z TN19/0310Z", "KGRR 031121Z 0312/0412 26008KT P6SM BKN100 FM031700 23007KT P6SM BKN080 FM040000 22004KT 4SM -RA BR OVC050 FM040500 07009KT 4SM -RA BR OVC030 FM040600 08010KT 4SM -RA BR OVC012 FM040800 07012KT 3SM RA BR OVC008", "TAF AMD KGSB 031000Z 0310/0410 VRB03KT 9999 SCT200 QNH3000INS BECMG 0312/0313 13009KT 9999 SCT200 QNH3000INS BECMG 0320/0321 20009KT 9999 BKN150 QNH3000INS TX22/0318Z TN07/0310Z", "KGSO 031120Z 0312/0412 19008KT P6SM BKN150 BKN250 FM032100 20007KT P6SM VCSH SCT025 BKN050 BKN100 FM040230 19004KT 6SM -RADZ BR BKN015 FM040600 VRB03KT 4SM BR BKN007", "KGSP 031122Z 0312/0412 VRB03KT P6SM BKN250 FM031700 08005KT P6SM -RA SCT021 BKN050 TEMPO 0317/0320 6SM -RA BR BKN021 FM032000 06005KT 4SM -RA BR OVC015 FM032200 05005KT 3SM -RA BR OVC009 FM040400 30004KT 4SM BR OVC005", "TAF KGTB 030900Z 0309/0415 17012KT 9999 BKN100 QNH2999INS BECMG 0311/0312 17015G20KT 9999 BKN100 QNH2998INS BECMG 0314/0315 19020G30KT 9999 BKN050 620505 510004 QNH2989INS BECMG 0318/0319 20015G20KT 9999 BKN050 620505 QNH2984INS BECMG 0322/0323 25010KT 9999 BKN080 620806 QNH2988INS BECMG 0409/0410 07005KT 8000 -SHRA BKN030 620406 QNH3001INS TX11/0320Z TNM01/0311Z", "KGTF 031138Z 0312/0412 VRB03KT P6SM FEW250 FM032100 03011KT P6SM BKN050 FM040400 04010KT P6SM BKN015 FM040600 04009KT P6SM BKN008 FM041000 03007KT P6SM BKN015", "KGTR 031135Z 0312/0412 15011KT P6SM BKN006 OVC025 FM031400 17013KT P6SM OVC015 FM031800 21010KT P6SM OVC025 FM032000 20006KT P6SM SCT035 FM041000 16008KT P6SM OVC015", "KGUC 031120Z 0312/0412 36007KT P6SM SCT150 FM031600 22015G25KT P6SM BKN120 FM032300 20021G34KT P6SM BKN080 FM040300 22020G38KT 3SM -SHSN BR SCT020 BKN040", "KGUP 031124Z 0312/0412 22011KT P6SM SKC WS020/24050KT FM031500 22016G26KT P6SM SKC FM031700 23026G40KT P6SM SKC FM032000 22035G50KT P6SM SKC FM040800 24022G35KT P6SM VCSH SCT025 BKN050", "TAF AMD KGUR 030910Z 0309/0411 03006KT 1000 -SN VV011 QNH2971INS BECMG 0310/0311 04009KT 9000 -SN OVC009 QNH2971INS BECMG 0311/0312 VRB06KT 9000 -SN SCT001 OVC009 QNH2971INS BECMG 0312/0313 VRB06KT 9000 -SN BKN001 OVC009 QNH2971INS BECMG 0314/0315 07009KT 9000 -SN FEW001 OVC009 510012 QNH2961INS BECMG 0318/0319 08015KT 9000 -RA BKN016 OVC024 QNH2957INS BECMG 0319/0320 07012KT 9000 -SN SCT008 OVC016 QNH2951INS BECMG 0321/0322 05009KT 9000 -SN OVC007 510073 QNH2946INS BECMG 0323/0324 04012KT 9000 -RA BKN007 OVC015 510073 QNH2944INS BECMG 0400/0401 04015KT 9000 -SHRA BKN007 OVC015 510073 QNH2941INS BECMG 0402/0403 05012KT 9000 -SN OVC007 510073 QNH2932INS BECMG 0409/0410 36012KT 4800 -SN FEW006 OVC014 510062 QNH2932INS BECMG 0410/0411 36015KT 9000 -SN FEW006 OVC014 510062 QNH2931INS TXM02/0309Z TNM03/0409Z", "TAF KGUS 022100Z 0221/0403 19010G15KT 9999 SKC QNH2985INS BECMG 0302/0303 20010G15KT 9999 BKN100 BKN250 WS020/22040KT QNH2975INS BECMG 0308/0309 20012KT 9999 FEW030 BKN045 OVC060 QNH2970INS BECMG 0314/0315 20012G18KT 9999 -SHRA FEW015 OVC023 QNH2976INS BECMG 0402/0403 VRB06KT 8000 BR BKN016 OVC023 QNH2981INS TX16/0320Z TN07/0312Z LAST NO AMDS AFT 0303 NEXT 0313", "KGUY 031122Z 0312/0412 32010KT P6SM SKC FM032000 22021G32KT P6SM SKC FM040100 20014KT P6SM FEW250 FM040600 21020G32KT P6SM SKC", "KGWO 031135Z 0312/0412 15005KT P6SM OVC009 FM031500 20011KT P6SM BKN022 FM031900 19012G18KT P6SM BKN035 FM040000 17012KT P6SM SKC FM041000 17011KT P6SM BKN015", "KGYY 031120Z 0312/0412 VRB03KT P6SM BKN120 FM031400 09005KT P6SM BKN060 TEMPO 0318/0322 6SM -SHRA FM032200 07011KT 5SM -RA BR SCT020 OVC030 PROB30 0402/0406 2SM TSRA OVC015CB FM040600 06012G18KT 5SM -SHRA BR OVC009", "KHBG 031135Z 0312/0412 20010G18KT P6SM VCTS SCT015 BKN035CB FM031400 21011KT P6SM VCSH BKN015 FM031700 20015G20KT P6SM BKN045 FM032200 20010KT P6SM OVC250 FM040800 17006KT P6SM OVC015 FM041000 18006KT 6SM BR OVC007", "KHCR 031135Z 0312/0412 03007KT 1/2SM SN FZFG FEW004 BKN008 FM032000 02009KT 2SM -SHSN BR FEW007 BKN020 OVC035 FM040200 34013G21KT 6SM BR VCSH SCT020 OVC030", "KHDC 031127Z 0312/0412 20010KT P6SM OVC008 FM031400 21011KT P6SM BKN020 FM031700 19012KT P6SM SCT025 BKN035 FM040400 19005KT P6SM BKN020 FM041100 16008KT 5SM BR BKN008", "KHDN 031120Z 0312/0412 20013G20KT P6SM VCSH BKN100 WS020/23040KT FM031900 22020G30KT P6SM VCSH BKN050 FM032100 24030G40KT 4SM -SHSNRA BR VCTS OVC040CB FM040300 21016G30KT P6SM -SHSN OVC030 FM040800 27013G22KT 6SM -SHSN BR BKN035", "KHIB 031132Z 0312/0412 VRB03KT P6SM VCSH OVC016 TEMPO 0312/0314 26005KT 3SM -SHSN BR FM031500 29006KT P6SM VCSH BKN008 FM040100 05007KT 4SM BR BKN009 FM040900 08012G16KT P6SM BKN009", "KHIE 031120Z 0312/0412 VRB03KT P6SM SCT200 FM031400 19011KT P6SM SCT080 OVC100 FM032300 22010KT 6SM -SHRA BKN035 OVC050 FM040600 25005KT P6SM OVC045", "TAF KHIF 022100Z 0221/0403 34010KT 9999 VCSH SCT040 OVC070 QNH2968INS BECMG 0302/0303 33007KT 8000 -RASN BKN020 OVC040 620209 QNH2964INS BECMG 0305/0306 35008KT 1600 -SN BKN007 OVC015 650079 QNH2953INS BECMG 0319/0320 34015G20KT 4800 -SHSN SCT010 OVC025 620259 QNH2950INS TX04/0221Z TN00/0314Z LAST NO AMDS AFT 0223 NEXT 0313", "KHIO 031120Z 0312/0412 VRB03KT P6SM VCSH BKN025 OVC035 FM031800 26007KT P6SM VCSH SCT030 BKN040 FM032300 29011KT P6SM -SHRA SCT030 BKN050 FM040600 VRB04KT P6SM -SHRA SCT025 OVC040", "KHKS 031135Z 0312/0412 17005KT P6SM VCSH BKN023 OVC035 FM031700 21014G19KT P6SM BKN035 FM040000 17009KT P6SM SCT250 FM040900 17010KT P6SM OVC015", "KHKY 031122Z 0312/0412 06006KT P6SM BKN250 FM031800 19005KT P6SM SCT025 OVC100 TEMPO 0319/0321 6SM -RA BR OVC025 FM032100 21006KT 5SM -RA BR OVC019 FM040100 00000KT 3SM -RA BR OVC009 FM040400 00000KT 3SM BR OVC004", "KHLG 031124Z 0312/0412 17005KT P6SM BKN250 FM031500 21010G18KT P6SM BKN150 FM040000 18005KT P6SM BKN080", "KHLN 031138Z 0312/0412 VRB03KT P6SM SCT250 FM032000 01011KT P6SM BKN050 FM040400 34011G20KT P6SM BKN025 FM040600 33012G22KT P6SM BKN015 FM040900 31011KT P6SM BKN025", "TAF KHMN 030900Z 0309/0415 13012KT 9999 SKC QNH2988INS BECMG 0317/0318 20015G25KT 9999 SKC QNH2978INS BECMG 0319/0320 22025G35KT 6000 BLDU SCT240 530009 QNH2964INS BECMG 0402/0403 23040G50KT 4800 BLDU FEW240 560009 QNH2966INS SEV MTN WAVE TURBC TX26/0322Z TN10/0312Z", "KHNB 031120Z 0312/0412 15005KT P6SM SHRA VCTS BKN060CB OVC100 FM031400 18007KT P6SM VCSH OVC050 FM031700 19011G22KT P6SM BKN050 FM040000 15012KT P6SM OVC015", "KHND 031120Z 0312/0412 22023G33KT P6SM SCT200 BKN250 FM031500 26028G38KT P6SM FEW090 SCT200 FM032200 31022G31KT P6SM VCSH SCT070 BKN090 FM040300 32014G23KT P6SM FEW120", "KHOB 031126Z 0312/0412 25007KT P6SM SKC FM031600 24022G30KT P6SM SKC FM040100 23014KT P6SM FEW250", "KHON 031120Z 0312/0412 33007KT P6SM SCT120 BKN200 FM032200 01010KT P6SM OVC070 FM040300 03010G16KT P6SM OVC040 FM040400 04011G18KT P6SM OVC021 FM040500 04012G20KT P6SM OVC018 TEMPO 0410/0412 4SM -SN", "TAF KHOP 030800Z 0308/0414 19008KT 9999 SKC QNH2990INS BECMG 0309/0310 19006KT 9000 -SHRA SCT020 BKN040 QNH2990INS BECMG 0312/0313 15005KT 9999 NSW SCT050 BKN080 QNH2990INS BECMG 0315/0316 16015G25KT 9999 BKN030 QNH2983INS BECMG 0322/0323 16010KT 9999 OVC020 QNH2980INS TX19/0318Z TN12/0310Z", "KHOT 031140Z 0312/0412 12005KT 6SM BR OVC004 FM031500 VRB05KT P6SM BKN007 OVC015 FM031700 20008KT P6SM BKN030 FM032000 19010KT P6SM SCT040 FM040100 17006KT P6SM SCT250", "KHOU 031120Z 0312/0412 20009KT P6SM SCT008 BKN014 OVC025 FM031600 19010G20KT P6SM BKN022 FM031800 19011G21KT P6SM SCT035 FM040300 17010KT P6SM BKN015 BKN025", "KHPN 031120Z 0312/0412 VRB04KT P6SM SKC FM031300 15006KT P6SM SCT200 FM031500 17010KT P6SM SCT050 SCT200 FM031700 18013G21KT P6SM SCT050 BKN200 FM040100 18009KT P6SM SCT040 BKN200 FM040600 VRB04KT P6SM FEW020 BKN200 TEMPO 0408/0412 BKN015 AMD NOT SKED", "KHQM 031155Z 0312/0412 08005KT P6SM OVC030 FM031600 31006KT P6SM BKN035 FM032200 29008KT P6SM VCSH BKN040", "KHRF 031134Z 0312/0412 VRB04KT 1SM -SN OVC010 FM031400 35005KT 4SM -SN OVC030 FM032000 35011G18KT P6SM VCSH OVC050 PROB30 0321/0401 3SM -SN OVC030", "KHRL 031124Z 0312/0412 18015KT P6SM OVC012 FM031500 17020G28KT P6SM SCT027 FM031900 16018G25KT P6SM FEW230 FM040600 16014KT P6SM BKN017", "KHRO 031140Z 0312/0412 15010G18KT P6SM SCT015 TEMPO 0312/0315 BKN015 FM031500 16010G20KT P6SM BKN025 FM031700 18012G22KT P6SM SCT035 FM040100 17012KT P6SM SCT250", "TAF KHRT 031000Z 0310/0416 16008KT 3200 BR BKN005 BKN130 QNH2991INS TEMPO 0310/0314 1000 FG OVC003 BECMG 0313/0314 20010G18KT 9999 NSW BKN010 BKN130 QNH2989INS TEMPO 0314/0317 BKN008 BECMG 0316/0317 20012G20KT 9999 BKN015 BKN150 QNH2988INS BECMG 0318/0319 21012G20KT 6000 SHRA VCTS BKN012CB QNH2986INS BECMG 0321/0322 21012G20KT 9999 NSW BKN012CB QNH2987INS TEMPO 0400/0406 SCT015 BKN200 BECMG 0405/0406 20006KT 3200 BR BKN002 QNH2989INS TEMPO 0408/0413 1000 FG TX25/0319Z TN21/0310Z", "TAF KHST 031100Z 0311/0417 VRB06KT 9999 FEW027 QNH3002INS TEMPO 0311/0314 BKN025 BKN040 BECMG 0314/0315 14010KT 9999 SCT035 QNH2996INS BECMG 0323/0324 VRB06KT 9999 SCT025 SCT040 QNH2995INS BECMG 0414/0415 VRB06KT 9999 VCSH SCT027 SCT045 QNH3002INS TX31/0317Z TN20/0311Z", "KHSV 031120Z 0312/0412 13009G14KT 6SM -SHRA OVC080 FM031600 13014G23KT 6SM -SHRA OVC020 FM032300 13008G14KT P6SM BKN030", "KHTS 031120Z 0312/0412 VRB04KT P6SM SCT250 FM031600 21008KT P6SM SCT200 FM040100 19007KT P6SM FEW100 FM040900 18005KT P6SM BKN045", "KHUF 031120Z 0312/0412 17007KT P6SM BKN080 FM031400 20011G21KT P6SM BKN035 BKN080 FM040000 14008KT P6SM FEW015 OVC035 FM040900 16008KT P6SM OVC015", "KHUL 031120Z 0312/0412 23006KT P6SM FEW200 FM031600 20011G20KT P6SM BKN080 FM031900 20011G21KT P6SM VCSH OVC080 FM040100 21011G23KT P6SM VCSH BKN012 FM040500 21010KT P6SM BKN009 FM040700 22007KT P6SM SCT017", "KHUM 031127Z 0312/0412 19010KT P6SM OVC008 FM031400 20015KT P6SM BKN020 FM031900 19015KT P6SM SCT025 BKN035 FM040100 19010KT P6SM BKN020 FM041000 17007KT 2SM BR BKN008", "KHUT 031135Z 0312/0412 19009KT P6SM OVC012 TEMPO 0312/0314 BKN009 FM031400 25009KT P6SM BKN020 FM031600 33012KT P6SM BKN035 FM032000 03011KT P6SM SCT130 FM040600 09014KT P6SM FEW100 WS020/20035KT", "KHVR 031138Z 0312/0412 VRB04KT P6SM SCT040 FM031400 VRB05KT P6SM OVC025", "KHYA 031126Z 0312/0412 13007KT P6SM FEW250 FM031500 18012KT P6SM SKC FM032000 20016G24KT P6SM FEW250 FM040600 22012KT P6SM BKN060 FM041000 23008KT P6SM BKN030", "KHYR 031132Z 0312/0412 22006KT P6SM SKC FM031500 26007KT P6SM VCSH BKN019 FM040200 04006KT 6SM BR BKN009 FM040600 05010G17KT P6SM BKN009", "KHYS 031120Z 0312/0412 04015G25KT P6SM BKN020 FM031700 04012KT P6SM BKN070 FM040000 09010KT P6SM FEW200", "TAF KIAB 031000Z 0310/0416 20015G25KT 9999 BKN010 QNH2949INS BECMG 0315/0316 VRB06KT 9999 FEW220 QNH2939INS BECMG 0414/0415 20015G25KT 9999 SKC QNH2940INS TX26/0400Z TN13/0313Z", "KIAD 031128Z 0312/0418 18003KT P6SM SCT250 FM031600 19014G22KT P6SM BKN250 FM040000 19009KT P6SM SCT200 FM041500 20007KT P6SM SCT050 SCT250", "KIAG 031120Z 0312/0412 19011G18KT P6SM BKN250 FM031400 23020G31KT P6SM BKN100 FM032100 25012G19KT P6SM BKN060 FM040500 VRB03KT 4SM BR VCSH OVC045 FM040900 08004KT 2SM -SHRA BR OVC012", "KIAH 031120Z 0312/0418 18009KT P6SM BKN015 OVC025 FM031600 19010G18KT P6SM BKN025 FM031800 19011G21KT P6SM SCT040 FM040300 17011KT P6SM BKN015 BKN022 FM041500 17016KT P6SM SCT015 BKN250", "KICT 031135Z 0312/0412 19014KT P6SM BKN018 TEMPO 0312/0314 BKN009 FM031400 20014KT P6SM BKN020 FM031600 22013KT P6SM SCT050 FM032100 34011KT P6SM SKC FM040600 13014KT P6SM FEW250 WS020/19040KT", "KIDA 031120Z 0312/0412 36007KT P6SM VCSH SCT020 SCT120 FM031700 32010KT P6SM -SHSN SCT015 BKN040 FM040200 26012G22KT 6SM -SHSN BR BKN015 OVC025 FM040900 01012KT 6SM BR VCSH OVC015", "KIFP 031120Z 0312/0412 20010KT P6SM SKC FM031600 22020G30KT P6SM SCT250 FM040100 32022G32KT P6SM FEW120 FM040700 33015G25KT P6SM FEW120", "KILG 031122Z 0312/0412 VRB04KT P6SM SKC FM031500 19013G23KT P6SM FEW040 FM032300 19008KT P6SM FEW200", "KILM 031120Z 0312/0412 10005KT P6SM BKN250 FM031600 13011KT P6SM SCT045 BKN100 FM040100 14005KT 5SM -SHRA BR SCT015 BKN030 FM040900 23004KT 6SM BR VCSH BKN015", "KILN 031126Z 0312/0412 21009KT P6SM VCSH SCT060 BKN100 FM031800 20011G18KT P6SM VCSH SCT060 BKN250 FM032300 19008KT P6SM BKN090 FM040400 20010KT P6SM FEW250 FM040700 19009KT P6SM BKN025 FM040900 19008KT P6SM BKN015", "KIND 031120Z 0312/0418 17008KT P6SM OVC080 FM031500 20012G22KT P6SM BKN035 FM040000 13008KT P6SM FEW015 OVC035 FM040900 16007KT P6SM OVC012", "KINK 031126Z 0312/0412 24009KT P6SM SKC FM031600 24020G28KT P6SM SKC FM040100 24011KT P6SM FEW250", "KINL 031151Z 0312/0412 VRB04KT 6SM BR VCSH OVC008 TEMPO 0312/0314 4SM BR OVC005 FM031500 03009KT 6SM BR VCSH OVC008 FM031700 04009KT P6SM BKN011 FM040200 05009KT 6SM BR OVC020 FM040900 08012KT P6SM BKN027", "TAF AMD KINS 031110Z 0311/0411 21018G25KT 9999 SCT090 520009 QNH2953INS WND 120V220 TEMPO 0311/0313 22021G34KT BECMG 0312/0313 25018G25KT 9999 BKN070 620702 510009 QNH2954INS TEMPO 0313/0317 24021G34KT 520009 BECMG 0317/0318 35012G25KT 9000 -RASN OVC050 630505 510009 QNH2960INS BECMG 0321/0322 30021G35KT 9999 NSW SCT100 520009 QNH2962INS BECMG 0404/0405 30012G21KT 9999 SCT120 510009 QNH2976INS BECMG 0409/0410 26010G15KT 9999 FEW150 QNH2982INS TX11/0311Z TN03/0403Z", "KINT 031120Z 0312/0412 19008KT P6SM BKN150 BKN250 FM032100 20007KT P6SM VCSH SCT025 BKN050 BKN100 FM040230 19004KT 6SM -RADZ BR BKN015 FM040600 VRB03KT 4SM BR BKN007", "KINW 031120Z 0312/0412 16014G25KT P6SM FEW250 FM031600 18025G40KT P6SM FEW250 FM031800 21034G53KT 6SM BLDU SKC FM032100 22038G60KT 6SM BLDU SKC TEMPO 0321/0401 4SM BLDU FM040200 23030G40KT P6SM SKC FM040400 24025G35KT P6SM FEW150", "KIPL 031139Z 0312/0412 27015G24KT P6SM SKC FM031500 26023G35KT 6SM BLDU SCT250 FM032000 27030G43KT 6SM BLDU SCT250 FM040500 29018G29KT P6SM SKC FM040900 30013G20KT P6SM SKC", "KIPT 031120Z 0312/0412 07008KT P6SM FEW250 WS020/19033KT FM031500 17010G20KT P6SM OVC200 FM032300 19007KT P6SM VCSH BKN100 OVC200 FM040100 VRB05KT P6SM VCSH OVC050 FM040700 06004KT P6SM VCSH BKN022 FM040800 05004KT 5SM BR VCSH BKN013", "KISM 031120Z 0312/0412 VRB03KT P6SM SCT025 BKN170 BKN250 FM031500 14006KT P6SM SCT030 BKN250 FM032000 22008KT P6SM VCTS SCT050CB SCT120 BKN250 FM040200 VRB04KT P6SM FEW060 SCT100 BKN250", "KISO 031120Z 0312/0412 15007KT P6SM SCT240 FM040100 17007KT P6SM OVC050 FM040400 16005KT P6SM OVC028 FM040700 16005KT P6SM BKN014 AMD LTD TO CLD VIS AND WIND", "KISP 031120Z 0312/0412 16006KT P6SM SKC FM031400 17010KT P6SM SCT200 FM031600 18013G19KT P6SM FEW050 SCT200 FM032000 19016G24KT P6SM SCT050 BKN200 FM040200 20011KT P6SM FEW040 BKN200 FM040700 21007KT P6SM BKN200 FM041000 VRB04KT P6SM SCT020 BKN200", "KITH 031120Z 0312/0412 17013G19KT P6SM SCT140 WS020/20040KT FM031700 20015G23KT P6SM BKN100 FM040000 24005KT P6SM OVC035 FM040300 00000KT 5SM -SHRA BR OVC029 FM040600 VRB03KT 2SM -SHRA BR OVC015", "KIWA 031139Z 0312/0412 11007KT P6SM SKC FM031700 21011G18KT P6SM SKC FM032200 24020G32KT P6SM FEW250 FM040500 28016G22KT P6SM SKC FM040800 27012KT P6SM SKC", "KIWD 031120Z 0312/0412 23008KT P6SM SCT130 FM031500 26009KT P6SM BKN016 FM031900 32005KT P6SM BKN011 FM032000 36005KT P6SM BKN008 FM041100 08008KT P6SM BKN010", "KIXD 031135Z 0312/0412 08011KT P6SM SCT060 FM031400 10011KT P6SM BKN018 FM031700 13008KT P6SM BKN012 FM032200 05008KT P6SM BKN015", "KJAC 031138Z 0312/0412 36006KT P6SM SCT050 BKN080 FM031700 01010KT P6SM VCSH SCT025 OVC035 FM040100 01020G28KT P6SM VCSH OVC025 FM040600 01013G21KT P6SM VCSH SCT025 BKN040", "KJAN 031135Z 0312/0412 17005KT P6SM VCSH BKN020 OVC035 FM031700 21014G19KT P6SM BKN035 FM040000 17009KT P6SM SCT250 FM040900 17010KT P6SM OVC015", "KJAX 031154Z 0312/0412 VRB03KT P6SM VCSH SCT070 BKN120 OVC250 FM031400 14006KT P6SM SCT060 BKN120 OVC200 FM031800 17009G15KT P6SM VCSH SCT050 BKN080 BKN120 FM032200 14011G16KT P6SM VCSH SCT045 BKN060 BKN120 FM040200 16007KT P6SM VCSH SCT035 BKN045 OVC120 FM041000 00000KT 3SM BR SCT120 SCT250", "KJBR 031130Z 0312/0412 00000KT P6SM OVC025 FM031400 19010G15KT P6SM BKN025 FM032000 19012G18KT P6SM SCT060 FM040300 18008KT P6SM FEW025 SCT250", "KJCT 031120Z 0312/0412 20007KT P6SM FEW100 FM032000 21010G17KT P6SM FEW250 FM040100 18006KT P6SM FEW250", "KJEF 031131Z 0312/0412 12005KT P6SM FEW250 FM031400 16008KT P6SM SCT250", "KJER 031139Z 0312/0412 29013KT 5SM -SHSN BR SCT002 OVC025 TEMPO 0312/0315 2SM -SHSN BR OVC003 FM031500 27020G30KT P6SM VCSH BKN050 FM040200 25025G35KT 3SM -SN OVC030", "KJFK 031120Z 0312/0418 13005KT P6SM FEW200 FM031400 16010KT P6SM SCT200 FM031600 18015G21KT P6SM FEW050 SCT200 FM032000 18018G26KT P6SM SCT050 BKN200 FM040200 19012KT P6SM FEW040 BKN200 FM040700 21006KT P6SM FEW020 BKN200 FM041000 VRB05KT P6SM SCT020 BKN200 FM041400 16007KT P6SM FEW020 BKN250", "KJHW 031120Z 0312/0412 18006KT P6SM BKN100 FM031300 19011G18KT P6SM BKN200 FM031500 21013G20KT P6SM SCT100 FM032000 25010G16KT P6SM BKN045 FM032200 29006KT P6SM OVC035 FM040000 31004KT 5SM BR VCSH OVC035", "KJKA 031149Z 0312/0412 18010G17KT 5SM BR OVC003 FM031800 19016KT P6SM BKN050 FM032000 20012KT P6SM SCT060 FM040200 18008KT P6SM BKN030 FM040900 18002KT 4SM BR OVC007", "KJKL 031126Z 0312/0412 18006KT P6SM BKN250 FM032100 20009KT P6SM SCT090 FM040700 19007KT P6SM BKN050", "KJLN 031120Z 0312/0412 17013G23KT P6SM SCT023 FM031500 20015G24KT P6SM SCT250 FM040100 19009KT P6SM SKC WS020/21045KT", "KJMS 031122Z 0312/0412 33012KT P6SM OVC012 FM031700 36011KT P6SM OVC009 FM040500 03013KT P6SM OVC005", "KJST 031120Z 0312/0412 20008KT P6SM BKN150 FM031500 21010G20KT P6SM SCT050 BKN150 FM032300 21007KT P6SM SCT050 BKN150 FM040200 19005KT P6SM VCSH BKN050 WS019/25035KT", "KJVL 031120Z 0312/0412 VRB03KT P6SM SCT120 FM031700 28007KT P6SM BKN080 FM032200 03007KT P6SM VCSH OVC070 FM040000 07008KT 6SM -SHRA BR OVC050", "KJXN 031121Z 0312/0412 21008KT P6SM SCT210 FM040100 04007KT P6SM RA OVC045 FM040300 06009KT P6SM RA OVC028 FM040500 07009KT 5SM RA BR OVC018 FM040700 07009KT 4SM RA BR OVC008 FM041000 08011KT 5SM RA BR OVC004", "KJZI 031120Z 0312/0412 10003KT P6SM FEW150 SCT250 FM031600 14009KT P6SM FEW040 SCT100 BKN200 FM040000 15006KT P6SM VCSH SCT040 BKN080 FM040900 VRB03KT 5SM BR FEW010 BKN035", "KLAF 031120Z 0312/0412 16003KT P6SM BKN100 FM032000 07007KT P6SM OVC035 FM040500 10006KT 6SM BR OVC012", "KLAL 031131Z 0312/0412 VRB04KT 4SM BR SCT003 SCT130 BKN250 TEMPO 0312/0313 1SM BR OVC002 FM031500 24004KT P6SM SCT025 SCT130 BKN250 FM031800 25010KT P6SM SCT040 SCT250 FM040100 VRB03KT P6SM FEW050 FM040800 VRB03KT 4SM BR SCT003", "KLAN 031121Z 0312/0412 23008KT P6SM BKN120 FM032300 VRB04KT P6SM BKN100 FM040000 22004KT 4SM -RA BR OVC050 FM040600 07008KT 4SM RA BR OVC012 FM041000 07009KT 3SM RA BR OVC006", "KLAR 031130Z 0312/0412 17015KT P6SM VCSH OVC090 FM031900 15017G24KT 5SM -SHRASN VCTS BKN030CB OVC050 FM040000 17014G22KT 3SM -SHSN BR VCTS BKN025CB OVC030 FM040500 10015G20KT 3SM -SHSN BKN010 OVC020 FM040900 36019G27KT 1SM -SN BR OVC004", "KLAS 031120Z 0312/0418 21015G25KT P6SM SCT200 BKN250 FM031500 23029G38KT P6SM FEW090 SCT200 FM032200 32024G33KT P6SM VCSH SCT070 BKN090 FM040300 32018G28KT P6SM FEW120 FM041200 30013G24KT P6SM FEW120", "KLAW 031120Z 0312/0412 16007KT 1/2SM FG BKN003 FM031400 22013G21KT P6SM SCT007 FM040100 17011KT P6SM BKN250 FM040800 17014KT P6SM BKN012", "KLAX 031120Z 0312/0418 28008KT P6SM BKN025 FM031600 28015KT P6SM SCT025 FM031900 28018G28KT P6SM SCT200 FM032300 28025G35KT P6SM SCT200 FM040500 28018G28KT P6SM SCT200 FM041000 33015G25KT P6SM SCT200", "KLBB 031137Z 0312/0412 26011KT P6SM SKC FM031600 24015G25KT P6SM FEW250 FM031900 23025G35KT P6SM FEW250 FM040100 22015KT P6SM SKC FM040800 22015KT P6SM SKC WS008/23045KT", "KLBE 031124Z 0312/0412 18003KT P6SM BKN250 FM031500 21011KT P6SM BKN150 FM040000 20003KT P6SM BKN100", "KLBF 031126Z 0312/0412 06006KT P6SM FEW200 FM031500 06013KT P6SM SCT120 FM031800 09016KT P6SM SCT100 FM040300 09021G29KT P6SM BKN040 FM040800 09021G30KT P6SM OVC015 FM041100 08019G27KT P6SM OVC010", "KLBL 031120Z 0312/0412 32013KT P6SM SKC FM031500 VRB06KT P6SM FEW200 FM032100 19013KT P6SM FEW200", "KLBT 031120Z 0312/0412 13005KT P6SM BKN250 FM031600 15010KT P6SM BKN045 BKN150 FM040100 14005KT 5SM -SHRA BR SCT015 BKN025 FM040800 25004KT 3SM BR BKN007", "KLBX 031120Z 0312/0412 18011KT P6SM SCT008 BKN015 TEMPO 0312/0314 BKN008 FM031700 18012G22KT P6SM BKN022 FM031900 18013G23KT P6SM BKN035 FM040200 16011KT P6SM BKN015", "KLCH 031135Z 0312/0412 20012G18KT 3SM BR OVC003 FM031600 20013G20KT P6SM OVC015 FM031800 20014G22KT P6SM SCT025 FM040000 18010KT P6SM BKN250 FM040300 17010KT 6SM BR OVC012 FM040500 17010KT 3SM BR OVC008", "KLCK 031126Z 0312/0412 16005KT P6SM SCT100 OVC250 FM031400 19007KT P6SM VCSH SCT060 BKN090 FM032000 21011G18KT P6SM VCSH SCT060 BKN090 FM032300 20007KT P6SM SCT090 BKN250 FM040300 18004KT P6SM SCT050 FM040900 17005KT P6SM BKN025 FM041100 17006KT P6SM BKN015", "KLEB 031120Z 0312/0412 18006KT P6SM SCT250 FM031600 19011G20KT P6SM SCT200 FM040000 19005KT P6SM -SHRA SCT030 OVC050 FM040900 00000KT P6SM OVC050", "KLEE 031120Z 0312/0412 VRB02KT P6SM FEW020 BKN180 BKN250 FM031500 16005KT P6SM SCT040 SCT250 FM032100 25007KT P6SM VCSH SCT060 SCT120 BKN250 FM040000 27004KT P6SM FEW070 FEW100 BKN250", "KLEX 031120Z 0312/0412 16006KT P6SM BKN150 FM031500 19011KT P6SM VCSH BKN050 BKN100 FM031800 19011G18KT P6SM BKN050 FM040000 16013KT P6SM BKN050", "TAF KLFI 030900Z 0309/0415 12006KT 9999 SKC QNH3008INS BECMG 0317/0318 17010KT 9999 FEW200 QNH3005INS BECMG 0400/0401 17010KT 9999 FEW020 SCT180 QNH3002INS BECMG 0404/0405 15009KT 9999 BKN020 BKN100 QNH3000INS TX18/0320Z TN08/0309Z", "KLFK 031120Z 0312/0412 17009KT P6SM OVC009 FM031500 21013G19KT P6SM OVC010 FM031700 20013G19KT P6SM BKN050 FM040000 17015G21KT P6SM SCT200 FM040600 17012KT P6SM BKN100 FM040800 17013KT P6SM OVC015", "KLFT 031135Z 0312/0412 20010KT P6SM OVC009 TEMPO 0312/0314 5SM BR FM031400 21014G20KT P6SM OVC015 FM031700 20017G25KT P6SM SCT035 FM040000 19010KT P6SM BKN250 FM040200 18009KT P6SM BKN015 FM040800 17008KT 5SM BR BKN009", "KLGA 031120Z 0312/0418 12006KT P6SM FEW200 FM031400 17010KT P6SM SCT200 FM031600 19013G19KT P6SM FEW050 SCT200 FM032000 19016G24KT P6SM SCT050 BKN200 FM040100 19011KT P6SM FEW040 BKN200 FM040600 20007KT P6SM BKN200 FM041000 VRB05KT P6SM SCT020 BKN200 FM041400 05006KT P6SM FEW020 BKN250", "KLGB 031120Z 0312/0412 19006KT P6SM OVC035 FM031700 25010KT P6SM SCT035 FM032100 29018G28KT P6SM SCT200 FM040300 29015G22KT P6SM SKC FM040700 31010KT P6SM SKC", "KLGU 031135Z 0312/0412 34007KT P6SM VCSH SCT025 BKN040 FM031800 35010G18KT 1SM -SN BR FEW007 BKN015 FM040200 35010KT 6SM -SHSN BR FEW020 BKN030", "KLIT 031140Z 0312/0412 20008KT P6SM OVC007 TEMPO 0312/0315 5SM BR OVC003 FM031500 19008KT P6SM BKN007 OVC015 FM031800 20012KT P6SM BKN030 FM032000 19010KT P6SM SCT040 FM040100 18009KT P6SM SCT250", "KLLQ 031140Z 0312/0412 15006KT 4SM BR OVC004 TEMPO 0312/0315 2SM BR OVC002 FM031500 20008KT P6SM BKN007 OVC015 FM031800 21012KT P6SM BKN030 FM032100 21009KT P6SM SCT040 FM040100 18008KT P6SM SCT250", "KLMT 031142Z 0312/0412 25005KT P6SM SCT050 FM031600 29008KT P6SM OVC050 FM031800 31018G30KT 6SM -SHSN FEW020 OVC035 FM040300 31009KT P6SM SCT050", "KLND 031138Z 0312/0412 VRB06KT 3/4SM -SN BR SCT008 OVC015 FM040200 32007KT 1/2SM SN SCT005 OVC008", "KLNK 031120Z 0312/0412 06010KT P6SM OVC060 FM031800 05015G22KT P6SM OVC060 FM040400 07017G27KT P6SM BKN040 FM040700 08016G30KT P6SM -DZ OVC025 FM040900 09013G25KT P6SM -DZ OVC015", "KLNS 031120Z 0312/0412 VRB05KT P6SM FEW250 FM031400 19013G20KT P6SM FEW250 FM040000 19011KT P6SM SCT250 FM040200 18007KT P6SM SCT250 WS010/22040KT", "KLOZ 031126Z 0312/0412 18006KT P6SM BKN250 FM031900 17011KT P6SM BKN050 FM040900 18007KT P6SM BKN035", "KLRD 031121Z 0312/0412 13007KT P6SM BKN250 FM031600 18012KT P6SM BKN250 FM040000 15018G25KT P6SM BKN200 FM041000 18012KT P6SM SCT012 BKN200 TEMPO 0410/0412 BKN012 OVC200", "TAF KLRF 030700Z 0307/0413 18012KT 9999 FEW007 BKN100 QNH2978INS BECMG 0315/0316 17015G20KT 9999 FEW150 QNH2975INS BECMG 0321/0322 21012KT 9999 BKN100 QNH2967INS TX27/0322Z TN14/0310Z", "KLRU 031120Z 0312/0412 27006KT P6SM SKC FM031700 25018G28KT P6SM SKC FM032100 24025G35KT 6SM BLDU SKC FM040300 25030G40KT P6SM SKC", "KLSE 031120Z 0312/0412 22006KT P6SM BKN150 FM031700 31008KT P6SM BKN120 FM040300 03005KT P6SM BKN080", "TAF KLSV 030700Z 0307/0413 20020G35KT 9999 SCT050 530009 QNH2960INS BECMG 0311/0312 18020G30KT 9999 SCT060 520009 QNH2957INS TEMPO 0317/0402 30025G40KT BKN100 530009 BECMG 0402/0403 30015G25KT 9999 SCT100 9999 520009 QNH2964INS TX16/0316Z TN06/0406Z", "TAF KLTS 030901Z 0309/0415 VRB06KT 0800 FG OVC001 WS016/26038KT QNH2958INS BECMG 0311/0312 VRB06KT 9999 NSW SKC QNH2960INS BECMG 0317/0318 21012G20KT 9999 SKC QNH2960INS BECMG 0323/0324 19010KT 9999 SKC QNH2948INS BECMG 0402/0403 16010KT 9999 SKC 510102 QNH2950INS BECMG 0404/0405 17007KT 9999 SKC WS008/21037KT QNH2950INS BECMG 0411/0412 17007KT 9999 SKC WS015/26036KT QNH2951INS TX32/0321Z TN08/0312Z", "KLUK 031126Z 0312/0412 18005KT P6SM VCSH FEW060 BKN100 FM031400 20007KT P6SM VCSH SCT060 BKN100 FM031800 20010KT P6SM BKN090 FM040000 19009KT P6SM BKN090 FM040600 18008KT P6SM BKN025 FM040800 17007KT P6SM BKN015", "KLVK 031120Z 0312/0412 26012G20KT P6SM SCT025 BKN035 FM031500 30015G24KT P6SM FEW030 FM040800 22005KT P6SM SKC", "KLVM 031131Z 0312/0412 32010KT P6SM BKN100 FM031700 08008KT P6SM BKN100 FM032100 08015KT P6SM VCSH BKN060 FM032300 08014KT 3SM -SN SCT015 BKN030", "KLVS 031124Z 0312/0412 22018G30KT P6SM SKC TEMPO 0314/0317 22010G20KT FM032000 24028G42KT P6SM SKC FM040200 22022G36KT P6SM SKC", "KLWB 031120Z 0312/0412 03004KT P6SM SKC FM031400 21005KT P6SM SCT250 FM032000 20007KT P6SM BKN250 FM040000 19003KT P6SM BKN120", "KLWS 031138Z 0312/0412 19004KT P6SM VCSH BKN030 OVC070 FM031500 26003KT P6SM OVC030 FM032100 28006KT P6SM BKN050 FM040600 20005KT P6SM BKN070", "KLWT 031138Z 0312/0412 VRB04KT P6SM FEW250 PROB30 0321/0324 4SM -SN BR OVC025 FM040000 05011KT P6SM BKN050 PROB30 0400/0401 4SM -SN BR OVC025 FM040100 07010KT P6SM BKN025 PROB30 0401/0402 4SM -SN BR OVC015 FM041100 VRB06KT P6SM OVC008", "KLYH 031120Z 0312/0412 VRB03KT P6SM SKC FM031500 20008KT P6SM SCT250 FM031900 20012KT P6SM BKN250 FM040100 21008KT P6SM BKN060 OVC120 FM040800 19004KT P6SM FEW011 OVC025", "KMAF 031126Z 0312/0412 25008KT P6SM SKC FM031600 24022G30KT P6SM SKC FM040100 23011KT P6SM FEW250", "KMBG 031137Z 0312/0412 34005KT P6SM OVC200 FM040000 03010KT P6SM OVC029 FM040200 04011G17KT P6SM OVC019 FM040400 05012G19KT P6SM OVC009 FM041000 04016G25KT 1 1/2SM -SN BR OVC009", "KMBL 031132Z 0312/0412 24007KT P6SM OVC250 FM031800 26009KT P6SM BKN250 FM040200 03005KT P6SM SCT100 FM040700 07006KT P6SM VCSH OVC030 FM041100 08008KT P6SM BKN035", "KMBS 031120Z 0312/0412 21007G17KT P6SM SCT150 FM031400 26010KT P6SM BKN150 FM032100 24012KT P6SM SCT060 OVC090 FM040200 06004KT P6SM -SHRA BKN050 OVC080 FM040600 06005KT 6SM -RA OVC050 FM040800 04005KT 4SM -RA BR OVC015", "KMCB 031127Z 0312/0412 20010KT P6SM BKN012 OVC025 FM031500 21014KT P6SM BKN020 FM031800 21013KT P6SM SCT030 FM040500 18009KT P6SM BKN015 FM041000 17008KT 2SM BR BKN003", "KMCC 031120Z 0312/0412 32010KT P6SM SKC FM031700 33017G23KT P6SM SKC FM040200 32006KT P6SM SKC", "KMCE 031120Z 0312/0412 35009KT P6SM SKC FM031600 32020G26KT P6SM BKN250 FM040600 34006KT P6SM SCT250", "TAF KMCF 030900Z 0309/0415 04006KT 6000 BR SCT008 SCT200 QNH2994INS TEMPO 0309/0312 BKN008 BECMG 0312/0313 04009KT 9999 NSW FEW040 BKN150 QNH2997INS BECMG 0401/0402 20006KT 9999 SCT030 QNH2993INS TX31/0317Z TN19/0309Z", "KMCI 031135Z 0312/0412 07011KT P6SM SCT060 FM031400 10011KT P6SM BKN018 FM031700 10008KT P6SM BKN012 FM032200 05008KT P6SM BKN015", "KMCK 031133Z 0312/0412 VRB06KT P6SM SCT090 TEMPO 0312/0314 BKN025 FM031500 04015KT P6SM SCT150 FM040100 11018KT P6SM SCT090 FM040500 09015KT P6SM OVC028 FM041000 08013KT P6SM OVC006", "KMCN 031122Z 0312/0412 VRB03KT P6SM SCT100 BKN250 FM031500 11005KT P6SM VCSH BKN050 FM031800 14008KT P6SM -SHRA BKN015 FM032100 13006KT P6SM VCSH SCT008 BKN010 FM040600 16003KT P6SM SCT004 OVC008", "KMCO 031120Z 0312/0418 16003KT P6SM SCT020 BKN180 BKN250 FM031500 14006KT P6SM SCT030 BKN250 FM032000 20008KT P6SM VCTS SCT050CB SCT120 BKN250 FM040200 VRB04KT P6SM FEW060 SCT100 BKN250 FM041500 16004KT P6SM FEW060 FEW250", "KMCW 031127Z 0312/0412 VRB04KT P6SM OVC100 FM031600 34007KT P6SM BKN120 FM040300 07012G20KT P6SM OVC050", "KMDT 031120Z 0312/0412 13005KT P6SM FEW250 FM031400 17010G19KT P6SM FEW250 FM031700 19013G20KT P6SM BKN250 FM040000 17007KT P6SM SCT250 WS010/22035KT", "KMDW 031120Z 0312/0418 01005KT P6SM BKN100 FM031400 14007KT P6SM BKN070 FM032000 07010KT P6SM OVC060 TEMPO 0320/0323 6SM -SHRA FM032300 07011KT 5SM -RA BR SCT025 OVC040 PROB30 0402/0406 2SM TSRA OVC015CB FM040600 06012G18KT 5SM -SHRA BR OVC009 FM041200 09012G18KT 3SM -DZ BR OVC006", "KMEI 031135Z 0312/0412 15005KT P6SM -SHRA FEW015 SCT070 BKN110 FM031500 19011G17KT P6SM OVC019 FM031800 21012G18KT P6SM BKN035 FM032200 21009KT P6SM SCT250 FM040900 19007KT 6SM BR OVC015", "KMEM 031130Z 0312/0418 17010KT P6SM FEW006 BKN100 FM031500 19010KT P6SM BKN020 FM031900 20012KT P6SM BKN035 FM040100 18011KT P6SM BKN050 FM041200 19013KT P6SM BKN250", "KMER 031120Z 0312/0412 34007KT P6SM SKC FM031600 32020G26KT P6SM BKN250 FM040600 34006KT P6SM SCT250", "KMEV 031120Z 0312/0412 29015G25KT P6SM VCSH BKN035 TEMPO 0312/0313 2SM -SHSN BKN020 FM031600 34014G24KT P6SM VCSH SCT030 BKN045 FM040300 31014G22KT P6SM SCT040", "KMFD 031125Z 0312/0412 18011KT P6SM SCT250 FM031500 22011KT P6SM SCT070 FM040000 15005KT 5SM -SHRA SCT015 OVC025 FM040500 12004KT P6SM VCSH BKN015", "KMFE 031124Z 0312/0412 15012KT P6SM FEW250 TEMPO 0312/0314 5SM BR FM031500 16014G23KT P6SM FEW230 FM040200 15014KT P6SM BKN210 FM040800 15016G23KT P6SM BKN025", "KMFR 031142Z 0312/0412 VRB04KT P6SM VCSH SCT035 OVC060 FM031400 31004KT 5SM -SHSN BR OVC025 FM031800 32008KT P6SM -SHRA SCT025 OVC050 FM040400 VRB03KT P6SM -SHRASN OVC050", "TAF KMGE 021315Z 0213/0319 31009KT 9999 SCT250 QNH3005INS BECMG 0305/0306 VRB05KT 9999 SCT100 SCT250 QNH3002INS BECMG 0311/0312 14007KT 9999 BKN100 BKN250 QNH3007INS BECMG 0315/0316 12009KT 8000 -SHRA BR BKN015 OVC050 QNH3005INS TX22/0220Z TN08/0313Z LAST NO AMDS AFT 0220 NEXT 0311", "KMGM 031135Z 0312/0412 12005KT P6SM -RA VCTS OVC070CB FM031400 14008KT 5SM -SHRA BR VCTS BKN025CB FM031600 17009KT P6SM VCSH BKN015 FM031900 20010G19KT P6SM VCTS BKN040CB PROB30 0321/0324 3SM TSRA BR OVC025CB FM040200 19006KT P6SM SCT040 BKN100 FM040800 19005KT P6SM OVC008", "KMGW 031124Z 0312/0412 15003KT P6SM BKN250 FM031600 20010KT P6SM BKN200 FM040000 17003KT P6SM SCT200", "KMHK 031126Z 0312/0412 07010KT P6SM BKN025 FM031300 07009KT P6SM VCSH OVC012 FM031600 07009KT P6SM BKN012 FM032200 05010KT P6SM BKN040 FM040600 10012KT P6SM BKN015", "KMHR 031120Z 0312/0412 30008KT P6SM SKC FM031700 32013G19KT P6SM SKC FM040200 VRB05KT P6SM SKC AMD NOT SKED", "KMHT 031120Z 0312/0412 VRB03KT P6SM FEW150 FM031500 19011G18KT P6SM SCT150 FM032300 20007G18KT P6SM BKN050 OVC100 FM040500 VRB03KT P6SM VCSH BKN045 OVC100", "KMIA 031120Z 0312/0418 VRB04KT P6SM FEW025 SCT250 FM031400 17006KT P6SM SCT035 SCT060 FM031800 14011KT P6SM FEW035 SCT250 FM040300 VRB04KT P6SM FEW040 FM041400 12010KT P6SM SCT035 SCT060", "TAF KMIB 030900Z 0309/0415 03010KT 9000 BR FEW007 BKN020 OVC030 620209 QNH2969INS TEMPO 0309/0313 4800 -SN BR BKN007 BKN015 OVC030 620079 BECMG 0315/0316 03010G15KT 9999 NSW FEW010 BKN020 620209 QNH2986INS BECMG 0401/0402 05009KT 9999 BKN008 OVC030 620089 QNH2994INS TXM06/0321Z TNM12/0409Z", "KMIV 031122Z 0312/0412 VRB04KT P6SM SKC FM031500 19012G22KT P6SM FEW250 FM040000 19009KT P6SM FEW200", "KMKC 031135Z 0312/0412 07011KT P6SM SCT060 FM031400 10011KT P6SM BKN018 FM031700 10008KT P6SM BKN012 FM032200 05008KT P6SM BKN015", "KMKE 031120Z 0312/0418 VRB04KT P6SM BKN100 FM031800 18009KT P6SM BKN120 FM032000 12007KT P6SM VCSH BKN090 FM040000 09006KT 6SM -SHRA BR OVC050 FM040700 07007KT P6SM VCSH OVC016 FM041200 06011KT P6SM BKN006", "KMKG 031121Z 0312/0412 20005KT P6SM BKN120 FM031800 23009KT P6SM BKN080 FM040000 22004KT 4SM -RA BR OVC050 FM040700 08009KT 3SM -RA BR OVC018", "KMKL 031130Z 0312/0412 18007KT P6SM OVC100 FM040000 17009KT P6SM BKN050 FM041100 18010KT P6SM BKN250", "KMKT 031135Z 0312/0412 25007KT P6SM BKN150 FM031400 30009KT P6SM BKN120 FM040000 35006KT P6SM BKN050 FM040600 04009KT P6SM BKN025 FM041000 06014G22KT 6SM -RASN BR BKN015", "KMLB 031120Z 0312/0412 15004KT P6SM SCT025 SCT060 SCT250 FM031400 13007KT P6SM SCT030 SCT080 SCT250 FM031800 14013G22KT P6SM VCTS SCT040CB SCT100 BKN250 FM040200 17008KT P6SM SCT060 SCT250", "KMLC 031120Z 0312/0412 18012KT P6SM OVC015 WS020/19040KT FM031500 19012G20KT P6SM SKC FM040100 17011KT P6SM SKC FM040500 18010KT P6SM SKC WS020/19040KT TEMPO 0409/0412 BKN020", "KMLI 031133Z 0312/0412 04003KT P6SM BKN100 FM031500 09007KT P6SM BKN080 FM032200 07010KT 5SM -SHRA OVC040 FM040500 06013G25KT P6SM OVC020", "KMLS 031131Z 0312/0412 30010KT P6SM BKN100 FM031500 34005KT P6SM OVC030 FM032100 02014KT P6SM OVC050 FM040600 05008KT P6SM OVC050", "KMLU 031120Z 0312/0412 20013KT P6SM OVC010 FM031500 22012G17KT P6SM OVC015 FM031800 21012G18KT P6SM BKN050 FM040000 18011KT P6SM BKN250 FM040600 18009KT P6SM OVC050 FM040800 19008KT P6SM OVC010", "KMMH 031120Z 0312/0412 22036G50KT 5SM -SHSN BKN020 OVC030 WS005/23054KT FM031400 27026G42KT P6SM SCT040 FM032000 29013G23KT 5SM -SHSN BKN030 OVC040 FM040300 27017G28KT P6SM SCT040", "TAF KMMT 030700Z 0307/0413 VRB06KT 9999 SKC QNH3000INS BECMG 0317/0318 17010G15KT 9999 SCT030 510473 QNH3001INS BECMG 0323/0324 VRB06KT 8000 BR BKN023 520603 QNH2998INS BECMG 0402/0403 VRB06KT 8000 -RA SCT008 QNH3000INS BECMG 0405/0406 VRB06KT 8000 -SHRA BKN008 QNH2996INS BECMG 0408/0409 VRB06KT 4800 BR OVC001 QNH2998INS BECMG 0411/0412 VRB06KT 4800 BR SCT002 QNH3003INS TX22/0317Z TN08/0307Z", "KMOB 031149Z 0312/0412 20015KT P6SM BKN010 OVC019 FM031800 19016KT P6SM BKN050 FM032000 20012KT P6SM SCT060 FM040200 18008KT P6SM BKN030 FM040900 18002KT 4SM BR OVC007", "KMOD 031120Z 0312/0412 31014KT P6SM SKC FM031600 32022G30KT P6SM SKC FM040400 31010KT P6SM SKC", "KMOT 031122Z 0312/0412 36009KT 4SM -SN BR OVC015 FM031700 02010KT P6SM VCSH OVC009 FM032300 03010KT P6SM OVC008", "KMPV 031120Z 0312/0412 17005KT P6SM BKN120 FM031500 17012G20KT P6SM BKN080 FM032200 20009KT P6SM -SHRA OVC050 FM040400 23005KT P6SM BKN050 FM040900 VRB03KT P6SM FEW020 BKN035", "KMQY 031141Z 0312/0412 17005KT P6SM VCSH SKC FM031300 15009KT P6SM VCSH OVC045 TEMPO 0315/0319 4SM -DZ BKN030 FM031900 15008KT P6SM OVC015 FM040300 19004KT P6SM SKC", "KMRB 031128Z 0312/0412 00000KT P6SM FEW250 FM031300 18007KT P6SM SCT250 FM031600 19011G19KT P6SM SCT200 FM032300 18008KT P6SM SCT200 FM040900 VRB04KT P6SM FEW200", "KMRY 031120Z 0312/0412 30012G20KT P6SM VCSH SCT015 BKN040 FM031400 32020G32KT P6SM FEW035 BKN060 FM040300 32015G25KT P6SM FEW030 FM040900 33012KT P6SM FEW250", "KMSL 031120Z 0312/0412 13009G14KT 6SM -SHRA OVC050 FM031400 14010G16KT 6SM -SHRA OVC015 FM040300 15009G14KT P6SM SCT080", "KMSN 031120Z 0312/0412 VRB03KT P6SM BKN100 FM031700 28005KT P6SM BKN100 FM032300 03005KT P6SM VCSH OVC080 FM040300 10005KT 6SM -SHRA BR OVC060 FM040700 08008KT P6SM OVC016", "KMSO 031134Z 0312/0412 33005KT P6SM VCSH BKN050 OVC100 FM032000 32011G20KT P6SM VCSH BKN040 OVC060 PROB30 0322/0401 3SM -SN OVC020 FM040200 35005KT P6SM BKN050", "KMSP 031135Z 0312/0418 25007KT P6SM BKN150 FM031400 28009KT P6SM BKN120 FM040000 33004KT P6SM BKN040 FM040900 06009KT P6SM BKN025 FM041200 06014G21KT P6SM -RASN OVC015 FM041400 07017G28KT 5SM -RA BR OVC006", "KMSS 031120Z 0312/0412 18004KT P6SM OVC100 FM031400 18009G17KT P6SM OVC070 FM031700 20010G19KT P6SM -SHRA OVC050 FM040000 23010KT P6SM BKN070 FM040400 24005KT P6SM BKN070", "KMSY 031127Z 0312/0418 20010KT P6SM SCT015 BKN250 FM031400 20012KT P6SM BKN020 FM031800 20015KT P6SM BKN035 FM032300 20010KT P6SM SCT035 FM040300 19009KT P6SM BKN020 FM041000 17006KT 5SM BR BKN015 FM041400 16014KT P6SM SCT020", "TAF KMTC 031100Z 0311/0417 21009KT 9999 FEW030 BKN090 QNH2978INS BECMG 0320/0321 VRB06KT 9000 BR SCT015 BKN040 QNH2983INS BECMG 0404/0405 07006KT 8000 -SHRA SCT004 OVC015 QNH2990INS BECMG 0414/0415 07010G15KT 8000 -DZ BKN004 OVC010 QNH2994INS TX15/0321Z TN02/0311Z", "KMTH 031138Z 0312/0412 13006KT P6SM SCT025", "KMTJ 031120Z 0312/0412 18012G23KT P6SM BKN200 FM031500 20021G38KT P6SM BKN200 FM032100 22030G48KT P6SM VCSH BKN060 FM032300 23035G55KT 6SM -SHSNRA BR BKN060 FM040600 24025G41KT P6SM VCSH BKN060", "KMTN 031128Z 0312/0412 00000KT P6SM SCT250 FM031300 14007KT P6SM SCT250 FM031600 17016G23KT P6SM SCT250 FM040100 19008KT P6SM SCT200", "KMTW 031126Z 0312/0412 26007KT P6SM SCT120 BKN200 FM032300 12005KT P6SM BKN120 FM040500 06008KT P6SM BKN050 FM040700 05010KT P6SM BKN020 FM040900 06009KT P6SM OVC012", "TAF KMUI 031100Z 0311/0417 14006KT 9999 SCT150 QNH3008INS BECMG 0315/0316 17015G25KT 9999 SCT035 SCT075 QNH2995INS BECMG 0322/0323 19009KT 9999 FEW035 SCT085 BKN120 QNH2995INS BECMG 0415/0416 VRB06KT 9000 BR SCT015 BKN040 QNH3002INS TX17/0321Z TN01/0311Z", "TAF KMUO 031000Z 0310/0416 30009KT 9999 VCSH SCT040 BKN070 610703 QNH2971INS TEMPO 0310/0312 8000 -SHSN SCT005 BKN020 610208 BECMG 0314/0315 32015G25KT 9999 NSW SCT060 BKN090 620901 510009 QNH2974INS BECMG 0317/0318 32020G30KT 9999 FEW060 SCT090 520009 QNH2968INS BECMG 0400/0401 32012G20KT 9999 SCT040 BKN050 620505 QNH2968INS BECMG 0410/0411 32020G30KT 9999 FEW070 SCT080 BKN100 520009 QNH2970INS TX05/0322Z TNM02/0314Z", "KMVN 031120Z 0312/0412 17008KT 6SM RA BR SCT030 BKN090 FM031500 17013G20KT P6SM BKN025 FM040000 17007KT P6SM BKN020 FM040800 17008KT P6SM BKN015", "KMWH 031138Z 0312/0412 36006KT P6SM SCT030 BKN050 OVC070 FM031900 26006KT P6SM BKN090", "TAF AMD KMXF 031140Z 0311/0417 14006KT 4800 -RA SCT005 OVC015 510013 QNH2988INS TEMPO 0311/0319 VRB20G25KT 8000 -TSRA BKN005CB BECMG 0318/0319 12012KT 9000 -SHRA BKN012 510013 QNH2986INS TEMPO 0319/0322 22020G25KT 8000 -TSRA BKN009CB BECMG 0322/0323 VRB06KT 9000 BR BKN016 510013 QNH2986INS BECMG 0400/0401 VRB06KT 8000 BR BKN003 510013 QNH2987INS BECMG 0414/0415 VRB06KT 8000 BR BKN017 QNH2997INS TX26/0323Z TN14/0311Z", "KMYL 031139Z 0312/0412 VRB05KT 6SM BR BKN150 TEMPO 0312/0316 2SM -SHSN BR BKN015 OVC025 FM031600 31009KT P6SM OVC015 FM032100 31012G17KT P6SM VCSH OVC025 FM040300 34010KT P6SM VCSH BKN015", "KMYR 031120Z 0312/0412 11005KT P6SM BKN250 FM031600 14012KT P6SM SCT045 BKN100 FM040000 12010KT 5SM -SHRA BR SCT015 BKN025 FM040800 19005KT 3SM BR VCSH BKN012", "TAF KNBC 0309/0409 13008KT 9999 BKN200 QNH2997INS BECMG 0313/0315 12008KT 9999 BKN080 OVC120 QNH2994INS FM040230 16010KT 8000 -SHRA BKN010 OVC080 QNH2991INS BECMG 0406/0408 27008KT 9999 NSW OVC010 QNH2991INS T13/0310Z T24/0319Z", "TAF KNBG 0307/0407 18010KT 9999 SCT015 OVC035 QNH2987INS TEMPO 0307/0310 6000 -RA BKN010 OVC020 FM031200 20012G18KT 9999 FEW015 SCT025 QNH2986INS AUTOMATED SENSOR METWATCH 0307 TIL 0310 TX30/0320Z TN20/0312Z FN00259", "TAF KNCA 0309/0409 VRB06KT 9999 SKC QNH3010INS FM031230 12010KT 9999 SKC QNH3009INS FM031600 15010G20KT 9999 BKN040 QNH3009INS BECMG 0400/0402 17008KT 4800 -SHRA BR BKN030 OVC100 QNH3003INS T07/0309Z T21/0318Z", "KNEW 031127Z 0312/0412 20012KT P6SM BKN015 FM031500 20013KT P6SM BKN025 FM031900 19015KT P6SM SCT030 BKN050 FM040400 19010KT P6SM BKN020 FM041100 16008KT P6SM BKN015 BKN050", "TAF KNFG 0309/0409 12007KT 9999 OVC015 QNH2998INS FM031430 21010G20KT 9999 OVC020 QNH2994INS TEMPO 0320/0402 25015G25KT T11/0314Z T14/0320Z", "TAF KNFL 0307/0407 31012KT 9999 VCSH SCT100 640408 QNH2974INS TEMPO 0310/0316 3200 -SHSN BKN009 OVC016 BECMG 0318/0320 35018G25KT 9999 BKN065 OVC120 640409 540209 QNH2982INS BECMG 0402/0404 35012KT 9999 BKN055 OVC120 640504 500000 QNH2985INS AUTOMATED SENSOR METWATCH 0307 TIL 0315 TX03/0323Z TN00/0313Z FS30171", "TAF KNFW 0309/0407 19010G18KT 9999 SKC QNH2962INS BECMG 0316/0318 20015G20KT 9999 FEW025 QNH2960INS TX32/0321Z TN15/0312Z AMD 0859 FN00259", "TAF AMD KNGP 0311/0407 16010KT 6000 BR BKN004 OVC012 QNH2973INS FM031500 16014G21KT 9999 SCT006 BKN012 QNH2975INS FM031600 16016G23KT 9999 SCT012 BKN018 QNH2974INS FM031700 16019G27KT 9999 FEW015 SCT035 BKN250 QNH2971INS TEMPO 0320/0402 16022G30KT FM040500 17018G25KT 9999 OVC015 QNH2968INS TX30/0320Z TN23/0312Z AMD 1100 FN20058", "TAF KNGU 0307/0407 VRB06KT 9999 SCT030 QNH3006INS BECMG 0312/0314 18012KT 9999 SKC QNH3000INS BECMG 0404/0406 VRB06KT 9999 SCT030 SCT120 QNH2999INS TX26/0321Z TN05/0309Z FN00259", "TAF KNHK 0307/0407 17008KT 9999 FEW040 QNH3005INS BECMG 0312/0314 14013G20KT 9999 SCT030 QNH2997INS BECMG 0402/0404 18010KT 9999 FEW250 QNH2994INS TX15/0321Z TN06/0309Z FN00259", "TAF KNIP 0308/0407 VRB06KT 9999 FEW100 QNH2995INS BECMG 0312/0314 12010KT 9999 SCT020 BKN140 QNH2993INS BECMG 0320/0322 VRB06KT 9999 VCTS SCT040CB BKN080 OVC120 QNH2996INS TEMPO 0322/0403 VRB10G20KT 4800 TSRA BKN040CB OVC080 BECMG 0403/0405 VRB06KT 9999 NSW BKN080 QNH2995INS TX30/0321Z TN16/0309Z AMD 0809 FN00259", "TAF KNJK 0307/0407 26022G32KT 9000 BLDU SKC 530009 530904 QNH2977INS BECMG 0318/0319 26034G45KT 8000 BLDU SKC 560009 560906 QNH2972INS TEMPO 0320/0402 26028G38KT 6000 BLDU FEW200 FM040300 26024G34KT 9000 BLDU FEW200 530009 530904 QNH2985INS AUTOMATED SENSOR METWATCH 0307 TIL 0313 TX25/0400Z TN13/0312Z FS30207", "TAF KNKT 0309/0409 VRB06KT 9999 SKC QNH3010INS FM031230 12010KT 9999 SKC QNH3009INS FM031600 15010G20KT 9999 BKN040 QNH3009INS BECMG 0400/0402 17008KT 4800 -SHRA BR BKN030 OVC100 QNH3003INS T07/0309Z T21/0318Z", "TAF KNKX 0309/0409 20010KT 9999 OVC015 QNH2997INS FM031430 21012G22KT 9999 OVC020 QNH2995INS TEMPO 0320/0402 25015G25KT T09/0314Z T14/0320Z", "TAF KNLC 0307/0407 33018G25KT 9999 OVC049 540206 QNH2997INS TEMPO 0307/0310 33015G25KT FM031100 33012G18KT 9999 FEW025 510206 QNH2998INS FM031500 33018G25KT 9999 FEW040 530009 530909 QNH3002INS FM031900 33023G33KT 9999 SKC 530009 530909 QNH3000INS BECMG 0405/0406 33009KT 9999 SCT080 500000 QNH3002INS AUTOMATED SENSOR METWATCH 0307 TIL 3015 TX14/0323Z TN08/0315Z FS30171", "TAF KNMM 0307/0407 15008KT 9999 BR VCTS SCT025 BKN050CB QNH2986INS TEMPO 0307/0312 VRB20G35KT 1600 +TSRA BR OVC015CB FM031200 20012G20KT 9999 BR VCTS SCT015 BKN035CB QNH2980INS TEMPO 0312/0316 VRB15G25KT 6000 TSRA BR BKN010 OVC025CB FM031600 22008KT 9999 VCSH SCT015 SCT030CB BKN250 QNH2980INS BECMG 0322/0400 VRB05KT 9000 BR SCT020 SCT200 QNH2978INS AUTOMATED SENSOR METWATCH 0307 TIL 0310 TX30/0321Z N15/0307Z FN00259", "TAF AMD KNPA 0311/0407 18012G22KT 8000 BR VCSH SCT004 BKN015 BKN070 BKN250 QNH2988INS TEMPO 0311/0315 BKN004 FM031500 21013G22KT 9999 VCSH FEW005 BKN025 BKN070 BKN250 QNH2992INS FM031900 21013G22KT 9999 SCT025 BKN070 BKN250 QNH2990INS FM032200 20010KT 9999 SCT025 SCT070 BKN250 QNH2990INS FM040300 18007KT 8000 BR FEW005 BKN015 QNH2993INS TX26/0320Z TN22/0312Z AMD 1058Z FN20033", "TAF KNQI 0308/0407 16010KT 4800 BR BKN010 FEW250 QNH2972INS TEMPO 0308/0313 0400 FG VV002 BECMG 0314/0317 16015G25KT 9999 NSW FEW020 BKN250 QNH2980INS AUTOMATED SENSOR METWATCH 0307 TIL 0312 TX35/0321Z TN22/0307Z AMD 0801 FN00259", "TAF KNQX 0307/0407 VRB06KT 9999 FEW020 QNH2995INS BECMG 0309/0311 13010KT 9999 FEW020 QNH2993INS AUTOMATED SENSOR METWATCH 0307 TIL 0310 TX30/0320Z TN22/0309Z FN00259", "TAF KNRB 0307/0407 VRB06KT 9999 FEW100 FEW140 QNH2996INS BECMG 0313/0315 09011KT 9999 SCT025 BKN140 QNH2999INS TEMPO 0315/0318 BKN025 BECMG 0319/0321 VRB06KT 9999 VCTS SCT035CB BKN080 QNH2992INS TEMPO 0321/0403 VRB10G20KT 4800 TSRA BKN035CB OVC080 BECMG 0403/0405 VRB06KT 9999 NSW FEW020 BKN080 QNH2994INS AUTOMATED SENSOR METWATCH 0307 TIL 0309 TX27/0321Z TN15/0309Z FN00259", "TAF KNSE 0309/0407 15006KT 6000 BR FEW007 BKN012 QNH2990INS TEMPO 0309/0313 0400 FG VV002 FM031300 20015G23KT 9999 VCTS SCT020 BKN050CB QNH2990INS TEMPO 0313/0319 VRB20G30KT 4800 TSRA BR BKN008 BKN025CB OVC060 BECMG 0319/0321 19013G21KT 9999 VCSH SCT010 SCT030 BKN120 OVC200 QNH2985INS TX28/0321Z TN18/0308Z AMD 0901 FN00259", "TAF KNTD 0307/0407 28006KT 9999 FEW017 QNH2988INS TEMPO 0308/0313 6000 BR BKN015 BKN025 BECMG 0314/0315 31015G25KT 9999 SCT025 510004 QNH3000INS FM032000 30018G28KT 9999 SKC 510004 QNH3000INS FM040600 29014G24KT 9999 SKC 500000 QNH3000INS AUTOMATED SENSOR METWATCH 0307 TIL 0313 TX16/0323Z TN07/0312Z FS30207", "TAF KNTU 0307/0407 VRB06KT 9999 FEW035 QNH3005INS BECMG 0313/0315 16011KT 9999 SKC QNH3001INS BECMG 0402/0404 18007KT 9999 SCT020 SCT120 QNH3000INS TX23/0321Z TN04/0309Z FN00259", "TAF KNUW 0307/0407 33006KT 9999 VCSH FEW012 SCT032 BKN049 BKN160 650109 QNH2990INS TEMPO 0310/0316 6000 SHRA BKN015 BKN030 OVC060 FM031600 VRB06KT 9999 VCSH SCT015 BKN022 BKN060 650109 QNH2998INS TEMPO 0316/0322 8000 -SHRA BKN012 BKN022 OVC045 BECMG 0401/0403 VRB06KT VCSH SCT025 BKN030 BKN610 650107 QNH2999INS TX08/0323Z TN02/0315Z FS30171", "TAF KNXP 0309/0409 30020G30KT 6000 BLDU BKN020 QNH2976INS BECMG 0401/0403 SKC T16/0309Z T08/0403Z", "TAF KNYG 0309/0409 19010G20KT 9999 FEW020 SCT040 QNH3007INS TEMPO 0309/0314 BKN040 FM031530 21012G24KT 9999 FEW035 QNH2996INS BECMG 0401/0403 20008KT 9999 FEW150 QNH2997INS T04/0310Z T22/0321Z", "TAF KNYL 0309/0409 23008KT 9999 SKC QNH2979INS BECMG 0315/0317 28015G25KT 6000 BLDU SKC QNH2973INS T13/0413Z T24/0421Z", "TAF KNZY 0307/0407 28009KT 9999 SCT019 OVC025 QNH2993INS TEMPO 0307/0313 6000 BR BKN012 FM031100 26014G24KT 9999 BKN025 BKN032 QNH2992INS TEMPO 0312/0315 SCT025 SCT032 BECMG 0316/0317 28018G28KT 9999 FEW025 SCT032 510003 QNH2993INS FM040600 32015KT 9999 SKC 500000 QNH3000INS TX18/0323Z TN13/0403Z FS30207", "KOAJ 031120Z 0312/0412 14006KT P6SM SCT240 FM040100 16006KT P6SM OVC060 FM040400 15005KT P6SM OVC029 FM040700 15006KT P6SM OVC015 AMD LTD TO CLD VIS AND WIND", "KOAK 031120Z 0312/0418 32018G25KT P6SM SCT050 FM032100 31021G34KT P6SM SCT100 FM040700 30012G22KT P6SM SKC FM041000 33010KT P6SM SKC", "TAF KOFF 031000Z 0310/0416 11006KT 9999 FEW070 QNH2970INS BECMG 0313/0314 36009KT 9999 BKN070 QNH2973INS BECMG 0317/0318 06012G20KT 9999 OVC070 QNH2964INS BECMG 0323/0324 06012KT 9999 BKN050 QNH2963INS BECMG 0405/0406 06012KT 9999 BKN030 QNH2946INS TX17/0320Z TN10/0406Z", "KOFK 031120Z 0312/0412 02008KT P6SM BKN120 FM031700 05016KT P6SM SCT120 FM040000 06015G22KT P6SM BKN060 OVC070 FM040800 07016G30KT P6SM -DZ OVC015", "KOGB 031129Z 0312/0412 VRB04KT P6SM SCT150 TEMPO 0312/0313 1SM BR BKN002 FM031400 16006KT P6SM BKN100 FM031700 15007KT P6SM VCSH SCT035 BKN060 FM040100 16006KT P6SM SCT030 BKN050 FM040600 VRB03KT 3SM BR BKN015", "KOGD 031135Z 0312/0412 32007KT 2SM -SN BR SCT007 BKN015 FM031600 34007KT P6SM VCSH SCT025 BKN040 FM032100 36011G20KT 2SM -SN BR FEW008 BKN020 FM040400 30006KT P6SM VCSH SCT030 OVC040", "KOKC 031120Z 0312/0412 18013KT P6SM SCT005 TEMPO 0312/0314 BKN006 FM031400 22013G21KT P6SM SKC FM040100 17011KT P6SM BKN250 FM040600 17014KT P6SM BKN012", "KOLF 031120Z 0312/0412 VRB06KT P6SM BKN035 FM031500 VRB06KT P6SM BKN015 FM032200 05010KT P6SM BKN025", "KOLM 031155Z 0312/0412 20004KT P6SM BKN017 OVC025 TEMPO 0312/0316 6SM BR BKN002 FM031800 21006KT P6SM BKN030 TEMPO 0318/0322 -SHRA BKN015 OVC030 FM032200 25009KT P6SM VCSH BKN035 FM040600 23006KT P6SM BKN030", "KOLS 031123Z 0312/0412 VRB03KT P6SM SKC FM031700 21014G23KT P6SM SKC FM032100 23024G35KT P6SM SKC FM040300 22016G22KT P6SM SKC", "KOMA 031120Z 0312/0412 06008KT P6SM FEW150 FM031500 04009KT P6SM BKN080 FM032000 06013KT P6SM BKN060 FM040400 05012G30KT P6SM OVC045 FM040800 07012G30KT P6SM OVC015", "KONP 031120Z 0312/0412 28007KT P6SM -SHRA BKN020 OVC040 FM032100 32012G20KT P6SM -SHRA SCT025 BKN050 FM040600 30008KT P6SM -SHRA SCT020 OVC040", "KONT 031127Z 0312/0418 23005KT P6SM SCT012 BKN025 BKN045 FM031600 24008KT P6SM SCT025 BKN045 FM032000 26015G25KT P6SM SCT045 FM040500 35010KT P6SM SKC FM040800 05006KT P6SM SKC", "KOPF 031120Z 0312/0412 VRB04KT P6SM FEW025 SCT250 FM031400 17006KT P6SM SCT035 SCT060 FM031800 15012KT P6SM FEW035 SCT250 FM040300 VRB04KT P6SM FEW040", "KORD 031120Z 0312/0418 VRB03KT P6SM BKN100 FM031400 14007KT P6SM BKN070 FM032000 07010KT P6SM OVC060 TEMPO 0320/0323 6SM -SHRA FM032300 07011KT 5SM -RA BR SCT025 OVC040 PROB30 0402/0406 2SM TSRA OVC015CB FM040600 06012G18KT 5SM -SHRA BR OVC009 FM041200 09012G18KT 3SM -DZ BR OVC006", "KORF 031120Z 0312/0412 16007KT P6SM SKC FM031400 19014KT P6SM BKN250 FM032300 19008KT P6SM OVC150 FM040900 18006KT P6SM BKN040", "KORH 031126Z 0312/0412 16003KT P6SM SKC FM031400 19009KT P6SM SKC FM031700 21012G21KT P6SM SKC FM040400 23008KT P6SM BKN040 FM040600 24005KT P6SM OVC015", "KOTH 031142Z 0312/0412 14008KT P6SM -SHRA FEW020 BKN050 FM031800 31011G18KT P6SM -SHRA OVC050 FM040300 34008KT P6SM VCSH OVC050 FM040900 15008KT P6SM -SHRA SCT020 OVC040", "KOTM 031127Z 0312/0412 05008KT P6SM OVC090 TEMPO 0312/0315 6SM -SHRA FM031500 06013KT P6SM BKN080 FM040200 06014G23KT P6SM BKN030 FM040800 07014G25KT P6SM BKN016", "KOUN 031120Z 0312/0412 18013KT P6SM SCT005 TEMPO 0312/0314 BKN005 FM031400 22013G21KT P6SM SKC FM040100 17011KT P6SM BKN250 FM040600 17014KT P6SM BKN012", "KOWB 031120Z 0312/0412 VRB04KT 6SM BR VCSH BKN080 FM031300 18009KT P6SM BKN060 FM031600 17013G20KT P6SM BKN025 FM040000 17007KT P6SM BKN020 FM040800 17008KT P6SM BKN015", "KOXR 031120Z 0312/0412 VRB03KT P6SM OVC015 FM031400 28006KT P6SM BKN025 FM031600 28012G20KT P6SM SCT200 FM031900 27025G35KT P6SM SCT200 FM040300 28015G22KT P6SM SKC", "TAF COR KOZR 031005Z 0310/0416 15008KT 9999 SCT004 BKN008 540006 QNH2992INS BECMG 0311/0312 15008KT 9999 BKN004 OVC008 540006 QNH2992INS BECMG 0313/0314 18010G15KT 9999 VCTS BKN008 OVC030CB 540006 QNH2990INS TEMPO 0314/0315 18015G20KT BECMG 0314/0315 20010G15KT 6000 SHRA VCTS SCT008 OVC030CB 540006 QNH2990INS TEMPO 0315/0318 VRB20G28KT 1600 TSRA SCT008 BKN015CB BECMG 0319/0320 21010G15KT 9999 VCTS SCT020 OVC030CB 540006 QNH2986INS BECMG 0400/0401 18008KT 9999 NSW SCT008 OVC020 QNH2988INS BECMG 0403/0404 18006KT 9999 SCT004 OVC008 QNH2992INS BECMG 0407/0408 VRB04KT 9999 OVC004 QNH2990INS TX24/0319Z TN14/0311Z", "KPAE 031155Z 0312/0412 23004KT P6SM BKN025 OVC045 FM031800 24005KT P6SM BKN022 BKN035 TEMPO 0318/0322 -SHRA BKN015 OVC025 FM032200 VRB04KT P6SM VCSH SCT025 BKN040 FM040300 34004KT P6SM VCSH BKN030 FM040600 17004KT P6SM BKN030", "KPAH 031120Z 0312/0412 VRB03KT P6SM SCT080 FM031500 17010G16KT P6SM BKN025 FM040000 17008KT P6SM BKN045 FM040800 17008KT P6SM BKN025", "TAF KPAM 031100Z 0311/0417 13009KT 9999 BKN007 QNH2996INS TEMPO 0311/0313 4800 BR BECMG 0314/0315 19012G18KT 9999 BKN010 QNH2997INS TEMPO 0315/0319 SCT015 BECMG 0318/0319 20012G18KT 8000 -SHRA BKN020 QNH2995INS TEMPO 0319/0323 22015G26KT 4800 SHRA BKN010 BECMG 0322/0323 21009KT 9999 NSW BKN025 QNH2994INS BECMG 0407/0408 19006KT 3200 BR BKN007 QNH2995INS TX25/0318Z TN19/0311Z", "KPBF 031140Z 0312/0412 15007KT 6SM BR OVC004 TEMPO 0312/0315 P6SM NSW OVC008 FM031500 19008KT P6SM BKN007 OVC015 FM031800 20012KT P6SM BKN030 FM032000 19010KT P6SM SCT040 FM040100 18007KT P6SM SCT250", "KPBG 031120Z 0312/0412 17006KT P6SM OVC100 FM031500 16012G22KT P6SM BKN080 FM032000 19009KT P6SM -SHRA OVC050 FM040200 22006KT P6SM BKN070 FM040500 25004KT P6SM SCT025 BKN035", "KPBI 031120Z 0312/0412 VRB04KT P6SM FEW025 SCT250 FM031400 16009KT P6SM SCT035 SCT060 FM031800 14013KT P6SM FEW035 SCT250 FM040300 VRB04KT P6SM FEW040", "KPDK 031122Z 0312/0412 10005KT P6SM -SHRA FEW025 BKN100 FM031600 12010KT 5SM -RA BR BKN010 OVC050 FM032300 10005KT 4SM BR VCSH BKN008 FM040900 09003KT 3SM BR BKN004 OVC008", "KPDT 031131Z 0312/0412 28010KT P6SM SCT025 OVC035 TEMPO 0312/0316 5SM -RASN OVC025 FM031800 26011G22KT P6SM BKN035 BKN050 FM040000 24010KT P6SM BKN100", "KPDX 031120Z 0312/0412 22004KT P6SM -SHRA FEW015 BKN025 OVC035 FM032000 26007KT P6SM VCSH SCT025 BKN040 FM032300 29009G15KT P6SM -SHRA SCT030 BKN050 FM040400 27006KT P6SM -SHRA SCT025 OVC040", "KPEQ 031126Z 0312/0412 24008KT P6SM SKC FM031800 25018G26KT P6SM SKC FM040100 24011KT P6SM FEW250", "KPGA 031120Z 0312/0412 18012G24KT P6SM FEW250 FM031700 20024G33KT P6SM FEW250 FM032000 23028G40KT P6SM FEW250 FM040300 27018G30KT P6SM SCT110 FM040500 27015G22KT P6SM OVC100", "KPGD 031131Z 0312/0412 VRB04KT 6SM BR SCT250 FM031500 23006KT P6SM SCT025 SCT250 FM031800 24013G20KT P6SM FEW040 SCT250 FM040000 28006KT P6SM SCT250 FM040300 VRB03KT P6SM FEW250 FM040800 VRB03KT 4SM BR SCT003", "KPGV 031120Z 0312/0412 16007KT P6SM FEW250 FM040200 18009KT P6SM OVC060 FM040600 17006KT P6SM OVC030 FM040800 16005KT P6SM BKN015 AMD LTD TO CLD VIS AND WIND", "KPHF 031120Z 0312/0412 VRB03KT P6SM SKC FM031500 19012KT P6SM SCT250 FM040000 16008KT P6SM BKN150 FM041000 18005KT P6SM BKN040", "KPHL 031122Z 0312/0418 VRB05KT P6SM SKC FM031500 20013G23KT P6SM FEW040 FM040000 19009KT P6SM FEW200 FM041500 21007KT P6SM SCT040", "KPHX 031139Z 0312/0418 08007KT P6SM SKC FM031600 19009KT P6SM SKC FM031800 23014G22KT P6SM FEW250 FM032200 25024G35KT P6SM FEW250 FM040400 28016G22KT P6SM SKC FM040900 28012KT P6SM SKC", "KPIA 031131Z 0312/0412 08007KT P6SM BKN090 FM032200 08009KT P6SM VCSH BKN050 FM040000 07011KT 6SM -SHRA BR VCTS BKN035CB FM040200 07012KT 6SM -SHRA BR VCTS OVC025CB FM040600 06012KT P6SM BKN015", "KPIB 031135Z 0312/0412 20010G18KT 6SM BR VCTS BKN015CB BKN045 FM031400 21011KT P6SM VCSH BKN015 FM031700 20015G20KT P6SM BKN045 FM032200 20010KT P6SM OVC250 FM040800 17005KT P6SM OVC007 FM041000 17003KT 4SM BR OVC003", "KPIE 031131Z 0312/0412 VRB03KT P6SM SCT006 SCT130 BKN250 TEMPO 0312/0313 3SM BR BKN006 FM031500 11005KT P6SM SCT025 SCT130 BKN250 FM031800 23012KT P6SM FEW040 SCT250 FM040000 26006KT P6SM FEW050 FEW250 FM040300 VRB03KT P6SM FEW250 FM040800 VRB03KT 5SM BR SCT004", "KPIH 031120Z 0312/0412 VRB06KT P6SM VCSH SCT020 SCT120 FM031600 27014G22KT P6SM -SHSN SCT015 BKN050 FM040400 26015KT 6SM -SHSN BR BKN010 OVC025 FM040800 25014KT 2SM -SN BR BKN010 OVC020", "KPIR 031137Z 0312/0412 30007KT P6SM BKN100 BKN120 OVC200 FM040000 05011KT P6SM OVC030 FM040200 06012G19KT P6SM VCSH OVC018 FM040500 06017G28KT 4SM -SN BR OVC006", "KPIT 031124Z 0312/0418 17005KT P6SM BKN250 FM031500 21010G18KT P6SM BKN120 FM040000 23005KT P6SM BKN070 FM041500 19006KT P6SM OVC035", "KPKB 031120Z 0312/0412 VRB05KT P6SM VCSH SCT200 FM031600 21010KT P6SM SCT200 FM032300 18004KT P6SM FEW150 FM040900 17004KT P6SM BKN045", "KPLN 031132Z 0312/0412 25016G24KT P6SM BKN250 FM031900 28013G20KT P6SM SCT070 FM040300 01006KT P6SM BKN060 FM040800 08009KT P6SM BKN022", "KPMD 031120Z 0312/0412 29025G35KT P6SM -RA BKN015 FM031700 29030G40KT 4SM BLDU SCT200 FM040000 32040G50KT 2SM BLDU BKN250 FM040500 32020G30KT 4SM BLDU SKC", "KPNA 031138Z 0312/0412 VRB05KT 5SM -SN SCT025 OVC035 FM032100 14007KT 4SM -SN SCT015 OVC025 FM040200 07009KT P6SM VCSH SCT025 BKN040 FM040900 31010KT P6SM VCSH SCT025 BKN040", "KPNC 031120Z 0312/0412 18012G20KT P6SM BKN012 FM031400 20012G18KT P6SM SKC FM040100 15011KT P6SM SKC FM040800 17014KT P6SM BKN012", "KPNE 031122Z 0312/0412 VRB05KT P6SM SKC FM031500 20013G24KT P6SM FEW040 FM040000 19009KT P6SM FEW200", "KPNS 031149Z 0312/0412 18016KT P6SM FEW007 SCT020 FM031800 19016KT P6SM BKN050 FM032000 20012KT P6SM SCT060 FM040200 18008KT P6SM BKN030 FM040900 18002KT 4SM BR OVC007", "TAF KPOE 022300Z 0223/0405 17012G18KT 8000 -SHRA VCTS SCT025 OVC035CB QNH2985INS TEMPO 0223/0224 19015G25KT 4800 TSRA BR SCT008 OVC015CB BECMG 0300/0301 18012G18KT 9000 -SHRA OVC015 540109 QNH2981INS BECMG 0305/0306 19012KT 9999 NSW OVC007 540109 QNH2978INS BECMG 0313/0314 22014G22KT 9999 OVC010 540109 QNH2983INS BECMG 0316/0317 21012G18KT 9999 BKN020 OVC030 QNH2977INS BECMG 0323/0324 19012KT 9999 BKN015 OVC030 QNH2976INS BECMG 0404/0405 18006KT 8000 BR OVC010 QNH2978INS TX28/0321Z TN19/0309Z LAST NO AMDS AFT 0305 NEXT 0315", "KPOU 031120Z 0312/0412 17006KT P6SM FEW200 FM031400 18012G24KT P6SM FEW150 FM032300 17008KT P6SM VCSH SCT030 OVC040 PROB30 0404/0409 5SM -SHRA BR BKN025 FM040900 VRB03KT P6SM VCSH BKN025", "KPQI 031120Z 0312/0412 VRB03KT P6SM FEW150 FM031700 20010KT P6SM BKN060 FM031900 19010G20KT P6SM VCSH OVC050 FM040000 18013G21KT 3SM -SHSN OVC019 FM040300 19009KT P6SM VCSH BKN011 FM040600 21007KT P6SM BKN014", "KPRB 031120Z 0312/0412 31012KT P6SM SCT200 FM031400 31018G28KT P6SM SCT200 FM031700 33025G35KT P6SM SCT200 FM040400 32018G25KT P6SM SKC FM041000 31012KT P6SM SKC", "KPRC 031120Z 0312/0412 19015G20KT P6SM SKC FM031800 21026G43KT P6SM FEW250 FM032100 22035G48KT P6SM FEW250 FM040200 26022G32KT P6SM SCT200", "KPSC 031131Z 0312/0412 22008KT P6SM SCT015 BKN025 OVC040 TEMPO 0312/0316 -RA BKN015 FM031600 22008KT P6SM BKN060 BKN080", "KPSF 031120Z 0312/0412 18008KT P6SM SCT120 FM031400 19014G28KT P6SM SCT150 FM032300 20008KT P6SM BKN060 FM040200 VRB04KT P6SM VCSH BKN035 PROB30 0404/0408 5SM -SHRA BR OVC025 FM040800 VRB02KT 4SM -SHRA BR SCT018 BKN022", "KPSM 031120Z 0312/0412 VRB03KT P6SM SKC FM031400 20010KT P6SM FEW250 FM031700 19017G23KT P6SM BKN250 FM040000 19010KT P6SM BKN050 OVC100 FM040600 24005KT P6SM SCT050 OVC100", "KPSP 031127Z 0312/0412 33015G24KT P6SM SKC FM031500 33020G30KT 6SM HZ SKC FM032000 33028G40KT 4SM HZ BLDU SKC TEMPO 0321/0401 10010G18KT FM040200 34022G30KT 6SM HZ BLDU SKC FM040600 32012G22KT P6SM SKC FM040900 33011KT P6SM SKC", "KPTK 031120Z 0312/0412 19007KT P6SM SCT150 FM031400 26010KT P6SM BKN150 FM032100 24006KT P6SM SCT040 OVC070 FM040000 04004KT P6SM -SHRA BKN035 OVC060 FM040400 06005KT 5SM -SHRA BKN035 OVC060 FM040800 06006KT 3SM -RA BR OVC007", "KPUB 031136Z 0312/0412 33005KT P6SM SKC FM031400 10007KT P6SM SKC FM031900 21017G30KT P6SM SKC FM032300 21025G40KT P6SM SKC FM040600 19015G25KT P6SM SKC", "KPUW 031138Z 0312/0412 24007KT P6SM VCSH OVC060 TEMPO 0312/0316 4SM -SHSN BKN020 OVC030 FM032000 27010KT P6SM BKN035 TEMPO 0400/0404 -SHSN OVC030 FM040400 24006KT P6SM BKN050 FM040800 26004KT P6SM BKN025", "KPVD 031126Z 0312/0412 VRB03KT P6SM FEW250 FM031330 16007KT P6SM FEW250 FM031700 20012G20KT P6SM FEW250 FM032000 20015G25KT P6SM FEW250 FM040400 21009KT P6SM BKN050 FM040800 22005KT P6SM BKN025", "KPVU 031135Z 0312/0412 31013KT 1SM -SN BR SCT007 BKN015 FM032000 32015G25KT 4SM -SHSN BR FEW008 BKN025 FM040200 33022G32KT P6SM VCSH SCT020 OVC040", "KPVW 031137Z 0312/0412 26011KT P6SM SKC FM031600 25015G25KT P6SM FEW250 FM031900 23020G30KT P6SM FEW250 FM040200 23015KT P6SM SKC FM040800 23015KT P6SM SKC WS008/23045KT", "KPWM 031120Z 0312/0412 18006KT P6SM FEW250 FM031600 18014G23KT P6SM SCT150 FM040000 20010KT P6SM SCT050 OVC100", "KPWT 031155Z 0312/0412 VRB03KT 3/4SM BR OVC002 TEMPO 0312/0316 2SM -SHRA BR FM031800 21004KT P6SM BKN020 BKN040 TEMPO 0318/0322 -SHRA BKN015 OVC030 FM032200 19005KT P6SM VCSH SCT025 BKN040 FM040300 VRB04KT P6SM BKN025 OVC030 TEMPO 0408/0412 3SM BR BKN010 OVC020", "KRAP 031120Z 0312/0412 35007KT P6SM BKN080 FM032000 03010KT 3SM -SN OVC015 FM032300 06013KT 1SM -SN OVC010 FM040300 05015G25KT 1/2SM SN VV005", "KRBG 031142Z 0312/0412 16003KT 6SM -SHSN SCT025 OVC035 TEMPO 0312/0314 4SM -SHSN BR BKN012 BKN025 FM032200 31005KT P6SM -SHRA OVC035 FM040300 00000KT P6SM VCSH OVC040 FM040900 00000KT 5SM -SHRASN BKN025 OVC035", "KRBL 031120Z 0312/0412 32011KT P6SM SKC FM031700 35016G23KT P6SM SCT100 FM040300 32010KT P6SM SKC", "TAF KRCA 031100Z 0311/0417 VRB06KT 9999 BKN100 QNH2970INS BECMG 0318/0319 08008KT 4800 -SN OVC012 620128 QNH2965INS BECMG 0323/0324 06015G25KT 0800 SN OVC005 650059 520055 QNH2955INS TX03/0319Z TNM10/0411Z", "KRDD 031120Z 0312/0412 33010KT P6SM SKC FM031800 36014G19KT P6SM SCT100 FM040000 34008KT P6SM SKC", "KRDG 031122Z 0312/0412 VRB03KT P6SM FEW250 FM031400 20015G25KT P6SM FEW040 FM032300 17010KT P6SM SCT200 FM040800 19005KT P6SM FEW010", "KRDM 031131Z 0312/0412 26010KT P6SM SCT050 OVC100 FM031500 27010KT P6SM SCT050 BKN100 FM031800 32015G25KT P6SM BKN040 BKN070 FM040600 31010KT P6SM OVC050", "TAF AMD KRDR 031140Z 0311/0416 34015KT 9999 BKN006 OVC020 650069 QNH2954INS BECMG 0312/0314 34015KT 9000 -SN OVC014 650148 QNH2959INS TEMPO 0316/0322 34012G18KT -RA BECMG 0323/0324 35012G18KT 9000 -SN OVC017 650178 QNH2983INS BECMG 0410/0411 04010G20KT 8000 -SN OVC017 650178 QNH2985INS TXM02/0311Z TNM09/0403Z", "KRDU 031120Z 0312/0412 19008KT P6SM FEW150 BKN250 FM040000 18005KT P6SM VCSH SCT025 BKN050 BKN100 FM040800 VRB03KT 6SM -RADZ BR SCT007 BKN015", "KRFD 031120Z 0312/0412 VRB03KT P6SM BKN100 FM031400 15007KT P6SM BKN070 FM031900 07010KT P6SM OVC060 FM032200 07011KT 5SM -SHRA BR OVC040 PROB30 0402/0406 2SM TSRA OVC015CB FM040600 06012G18KT 5SM -SHRA BR OVC009", "KRHI 031126Z 0312/0412 24007KT P6SM SCT250 FM031400 26008G16KT P6SM SCT200 FM031700 28006KT P6SM BKN035 FM032200 03003KT P6SM BKN022 FM040300 06006KT P6SM BKN012 FM040700 07008KT P6SM OVC006", "KRIC 031120Z 0312/0412 12003KT P6SM SKC FM031600 20012KT P6SM BKN250 FM032300 18005KT P6SM BKN150 FM040900 18005KT P6SM BKN040", "KRIL 031120Z 0312/0412 14008KT P6SM SCT200 FM031500 20015G24KT P6SM BKN150 FM031800 22020G32KT P6SM VCTS BKN100CB FM032100 23026G41KT 6SM -SHRA BR VCTS BKN080CB FM040600 24021G35KT P6SM VCSH OVC060 FM041000 29020G30KT 6SM -SHSNRA BR OVC030", "TAF AMD KRIV 030915Z 0309/0410 16009KT 9999 VCSH SCT015 OVC020 510006 520609 QNH2993INS WND 130V210 TEMPO 0311/0318 18010G18KT 8000 -SHRA BR BKN015 BECMG 0318/0319 27012G20KT 9999 NSW SCT020 BKN040 540006 530609 QNH2989INS WND 250V300 BECMG 0319/0320 30012G20KT 9999 FEW050 520006 530609 QNH2987INS TEMPO 0322/0404 32022G30KT BECMG 0403/0404 32009KT 9999 SKC QNH2997INS BECMG 0406/0407 VRB05KT 9999 SKC QNH3001INS TX14/0321Z TN07/0313Z", "KRIW 031138Z 0312/0412 09007KT 2SM -SN SCT006 OVC012 FM031500 04013KT 1 1/2SM -SN BR SCT010 OVC019 FM040200 04015G25KT 3/4SM -SN BLSN SCT007 OVC012", "KRKD 031120Z 0312/0412 24007KT P6SM FEW200 FM031600 19014G23KT P6SM BKN150 FM040300 24011KT P6SM BKN050", "KRKS 031138Z 0312/0412 05012KT 2SM -SN BR SCT014 OVC022 FM031700 07012G19KT 1SM -SN SCT010 OVC015 FM040200 05020G30KT 2SM -SN BLSN SCT012 OVC018", "KRME 031120Z 0312/0412 13007KT P6SM BKN080 FM031800 21013G20KT P6SM BKN060 FM040100 26004KT 6SM -SHRA BR OVC035 FM040300 00000KT 4SM -SHRA BR OVC020 FM040800 00000KT 1SM -SHRA BR OVC015", "TAF KRND 031000Z 0310/0416 18009KT 9000 BR OVC006 QNH2972INS TEMPO 0312/0314 BKN007 BECMG 0313/0314 18009KT 9999 NSW BKN010 BKN250 QNH2977INS BECMG 0315/0316 17010KT 9999 BKN030 BKN250 QNH2975INS BECMG 0316/0317 16010G15KT 9999 SCT035 SCT250 QNH2969INS BECMG 0319/0320 15012G20KT 9999 SCT040 SCT250 QNH2960INS TEMPO 0322/0402 15015G25KT BECMG 0408/0409 17010KT 9999 BKN012 OVC250 510005 QNH2963INS TX34/0321Z TN20/0312Z", "KRNH 031135Z 0312/0412 24008KT P6SM BKN220 FM031500 28009KT P6SM BKN150 FM032200 30006KT P6SM BKN050 FM040600 05007KT P6SM BKN030 FM040900 07012KT P6SM BKN022 FM041100 07014G21KT P6SM OVC017", "KRNO 031120Z 0312/0412 29015G25KT 5SM -SHSN BKN030 OVC050 FM031600 34018G28KT P6SM VCSH SCT035 BKN050 FM040400 32012G22KT P6SM BKN050", "KROA 031120Z 0312/0412 VRB03KT P6SM SKC FM031600 17008KT P6SM BKN250 FM040000 19006KT P6SM BKN040 OVC100 FM040600 16003KT P6SM FEW011 OVC025", "KROC 031120Z 0312/0412 18013G21KT P6SM SCT070 FM031600 23018G28KT P6SM BKN080 FM031900 25016G26KT P6SM BKN080 FM040500 20004KT 5SM BR VCSH OVC045 FM040800 VRB03KT 3SM -SHRA BR OVC015", "KROG 031120Z 0312/0412 15011KT P6SM SCT025 TEMPO 0312/0315 BKN025 FM031500 19012G20KT P6SM SKC FM040100 17009KT P6SM SKC FM040500 17009KT P6SM SKC WS020/19035KT", "KROW 031124Z 0312/0412 VRB06KT P6SM SKC WS020/27040KT FM031700 20015G25KT P6SM SKC FM032000 22025G38KT P6SM SCT250 FM040400 20016G28KT P6SM SKC WS020/24045KT", "KRSL 031135Z 0312/0412 04013KT P6SM OVC015 FM031600 04012KT P6SM SCT020 BKN035 FM032200 07012KT P6SM SCT150 FM040300 08014G22KT P6SM BKN020 FM040800 08010KT P6SM BKN011", "KRST 031120Z 0312/0412 24005KT P6SM BKN150 FM031600 31007KT P6SM BKN120 FM040400 03007KT P6SM BKN080", "KRSW 031131Z 0312/0412 VRB04KT P6SM SCT250 FM031500 21007KT P6SM SCT030 SCT250 FM031900 24012G18KT P6SM FEW050 SCT250 FM040000 27005KT P6SM SCT250 FM040300 VRB03KT P6SM FEW250", "KRUT 031120Z 0312/0412 15006KT P6SM BKN100 FM031500 18011G19KT P6SM BKN100 FM032100 20009KT P6SM VCSH OVC070 FM040000 19006KT P6SM -SHRA OVC040 FM040600 14004KT P6SM SCT015 OVC035", "KRVS 031120Z 0312/0412 17010KT P6SM OVC015 WS020/19040KT FM031500 19012G20KT P6SM SKC FM040100 18010KT P6SM SKC FM040500 18010KT P6SM SKC WS020/19040KT TEMPO 0409/0412 BKN020", "KRWF 031135Z 0312/0412 28007KT P6SM BKN120 FM032300 35006KT P6SM OVC035 FM040300 36007KT P6SM OVC024 FM040500 02008KT P6SM BKN017 FM040900 05010KT 6SM -SN BR OVC012 FM041100 05013G20KT 3SM -SN BR OVC009", "KRWI 031120Z 0312/0412 18008KT P6SM FEW150 BKN250 FM040300 17004KT P6SM VCSH SCT025 BKN050 FM040800 VRB03KT 6SM -RADZ BR SCT007 BKN015", "KRWL 031130Z 0312/0412 05008G20KT 4SM -SN BR BKN012 OVC015 FM032000 24014G22KT 2SM -SHSN OVC015 FM032300 36013G24KT 2SM -SHSN BR BKN010 OVC015 FM040100 04012G20KT 1/2SM SN FZFG BKN007 OVC010 FM040500 06018G27KT 1SM -SN OVC007 FM040800 06031G40KT 1SM -SN BLSN BKN002 OVC007", "KRYY 031122Z 0312/0412 11004KT P6SM -SHRA FEW025 BKN100 FM031500 12010KT 5SM -RA BR BKN010 OVC050 FM032200 11008KT 4SM BR VCSH BKN008 FM040900 01005KT 3SM BR BKN004 OVC008", "KSAC 031120Z 0312/0412 31008KT P6SM SKC FM031700 33013G19KT P6SM SKC FM040200 VRB05KT P6SM SKC AMD NOT SKED", "KSAF 031124Z 0312/0412 VRB06KT P6SM SKC FM031600 24012G22KT P6SM SKC FM031900 23022G35KT P6SM SKC FM032200 21026G40KT P6SM SKC FM040200 21016G28KT P6SM SKC", "KSAN 031127Z 0312/0418 28008KT P6SM VCSH FEW017 BKN025 FM031500 26010G18KT P6SM VCSH BKN035 FM032000 28017G28KT P6SM BKN035 FM040300 30012G20KT P6SM FEW035 FM040700 31006KT P6SM SKC", "KSAT 031128Z 0312/0418 19005KT P6SM OVC010 TEMPO 0312/0315 3SM BR OVC008 FM031500 17008KT P6SM BKN020 FM031600 16008G18KT P6SM SCT050 FM032300 15010KT P6SM SCT050", "KSAV 031120Z 0312/0412 10003KT P6SM SCT150 BKN250 FM031600 14009KT P6SM FEW040 SCT080 BKN150 FM032300 16006KT P6SM VCSH SCT035 BKN060 FM040600 19003KT 5SM BR FEW008 BKN030", "KSAW 031120Z 0312/0412 26009KT P6SM SCT130 FM031700 33007KT P6SM BKN028 FM031800 35007KT P6SM BKN005 FM040300 02007KT 5SM BR BKN006 FM040800 04007KT P6SM BKN005 FM041000 05007KT P6SM BKN006", "KSBA 031120Z 0312/0412 30008KT P6SM SCT200 FM031600 29015G25KT P6SM SCT200 FM032000 28025G35KT P6SM SCT200 FM040300 31015G22KT P6SM SKC FM040600 33010KT P6SM SKC", "KSBD 031127Z 0312/0412 VRB04KT P6SM OVC025 FM031700 VRB05KT P6SM SCT025 BKN045 FM032000 25012G20KT P6SM SCT045 FM040000 35010G18KT P6SM SKC FM040700 VRB05KT P6SM SKC", "KSBM 031120Z 0312/0412 25005KT P6SM BKN100 FM031800 27009KT P6SM BKN140 FM032300 11007KT P6SM BKN120 FM040600 10008KT 6SM -SHRA BR BKN023 FM040900 06009KT P6SM OVC010", "KSBN 031121Z 0312/0412 19003KT P6SM SCT100 FM032100 05007KT P6SM VCSH OVC040 FM040100 07009KT 6SM SHRA BR OVC026 FM040400 07010KT 6SM SHRA BR OVC015 FM040600 08010KT 5SM SHRA BR OVC008", "KSBP 031120Z 0312/0412 33010KT P6SM BKN035 FM031400 32015G25KT P6SM SCT200 FM031900 32025G35KT P6SM SCT200 FM040300 32015G22KT P6SM SKC", "KSBY 031120Z 0312/0412 17007KT P6SM SKC FM031400 19014G23KT P6SM SCT250 FM040100 17006KT P6SM SKC", "KSCK 031120Z 0312/0412 29012KT P6SM SKC FM031600 32020G28KT P6SM SKC FM040300 28010KT P6SM SKC", "KSDF 031120Z 0312/0418 15005KT P6SM SCT060 OVC150 FM031300 17007KT P6SM VCSH BKN060 OVC100 FM031700 19011G20KT P6SM BKN050 FM040000 16012KT P6SM BKN050 FM040800 17007KT P6SM OVC025", "KSDL 031139Z 0312/0412 VRB04KT P6SM SKC FM031700 20009G18KT P6SM SKC FM032200 23020G31KT P6SM FEW250 FM040300 28014G20KT P6SM SKC FM040600 27010KT P6SM SKC", "KSDY 031120Z 0312/0412 VRB06KT P6SM BKN015 FM040300 05010KT P6SM BKN007 FM041000 05009KT P6SM BKN015", "KSEA 031155Z 0312/0418 01003KT P6SM VCSH BKN012 OVC035 TEMPO 0312/0316 4SM -SHRA BR BKN005 OVC012 FM031600 VRB04KT P6SM VCSH BKN015 OVC025 FM031800 23005KT P6SM BKN025 BKN040 TEMPO 0318/0322 -SHRA BKN015 OVC030 FM032300 23006KT P6SM VCSH BKN040 FM040600 19006KT P6SM BKN030 FM041200 17005KT P6SM OVC030", "KSEZ 031120Z 0312/0412 16008G14KT P6SM SKC FM031600 18018G28KT P6SM FEW250 FM032100 22032G48KT P6SM SCT250 FM040200 25020G32KT P6SM SCT090 FM040800 24010G20KT P6SM FEW090", "KSFB 031120Z 0312/0412 VRB04KT P6SM SCT025 BKN180 BKN250 FM031500 14006KT P6SM SCT040 BKN250 FM032000 15008KT P6SM VCTS SCT050CB SCT120 BKN250 FM040200 VRB04KT P6SM FEW060 SCT100 BKN250", "KSFF 031138Z 0312/0412 VRB02KT P6SM SCT007 BKN030 OVC040 FM031400 VRB02KT P6SM BKN040 TEMPO 0321/0324 27006KT -SHSN OVC030 FM040300 VRB02KT P6SM SCT100", "KSFO 031120Z 0312/0418 30018G26KT P6SM VCSH SCT050 FM031400 31020G33KT P6SM FEW100 FM032000 31025G40KT P6SM FEW100 FM040500 29016G25KT P6SM FEW200 FM041000 31012G20KT P6SM FEW200 FM041600 33015KT P6SM FEW200", "KSGF 031120Z 0312/0412 16016KT P6SM FEW250 FM031900 21014G23KT P6SM SKC FM040200 17014G23KT P6SM FEW250 WS020/22045KT", "KSGJ 031154Z 0312/0412 VRB03KT P6SM VCSH SCT070 BKN120 OVC250 FM031500 12009G15KT P6SM SCT050 BKN080 BKN120 FM032000 13013G19KT P6SM VCSH SCT045 BKN060 BKN120 FM040300 18009KT P6SM VCSH SCT035 BKN045 OVC120 FM041000 27003KT P6SM SCT120 SCT250", "KSGR 031120Z 0312/0412 19007KT P6SM SCT008 BKN015 OVC025 FM031600 19010G18KT P6SM BKN022 FM031800 19011G21KT P6SM SCT035 FM040300 17012KT P6SM BKN016 BKN025", "KSGU 031135Z 0312/0412 20011G18KT P6SM SCT200 FM031700 24025G38KT P6SM SCT040 BKN070 FM032100 25020G30KT P6SM VCSH SCT035 BKN060 FM040000 33013G21KT P6SM -SHRA SCT030 BKN040 FM040600 34011G18KT P6SM SCT080", "KSHR 031131Z 0312/0412 VRB04KT P6SM BKN200 FM031800 06005KT P6SM VCSH SCT040 OVC100 FM032200 11006KT P6SM -SN OVC025", "KSHV 031135Z 0311/0412 00000KT 4SM BR FEW012 OVC019 TEMPO 0311/0313 1/2SM FG FM031500 20012G17KT P6SM OVC015 FM031900 20014G20KT P6SM BKN050 FM040000 19011KT P6SM SCT200 FM040200 18015KT P6SM FEW250 FM040600 18013KT P6SM OVC100 FM041000 17012KT P6SM OVC025", "KSJC 031120Z 0312/0412 32013G21KT P6SM FEW025 BKN040 FM031700 32020G30KT P6SM FEW040 FM040300 32016G25KT P6SM FEW100 FM040800 32010KT P6SM SKC", "KSJS 031126Z 0312/0412 18007KT P6SM BKN250 FM032000 18008KT P6SM SCT100 FM040800 18006KT P6SM BKN060", "KSJT 031120Z 0312/0412 23007KT P6SM SKC FM031500 23011G20KT P6SM FEW250 FM040100 19007KT P6SM FEW250", "TAF KSKA 031100Z 0311/0417 VRB06KT 9999 VCSH OVC035 610359 QNH2976INS TEMPO 0311/0313 4800 -SN BKN007 OVC015 620079 BECMG 0316/0318 04006KT 9999 NSW FEW025 QNH2980INS BECMG 0320/0322 01010G15KT 9999 FEW050 QNH2980INS BECMG 0401/0402 33006KT 9999 SKC QNH2981INS TX05/0322Z TNM02/0314Z", "TAF KSKF 031000Z 0310/0416 14005KT 8000 BR BKN008 QNH2971INS TEMPO 0310/0315 4800 BR OVC005 BECMG 0315/0316 15008KT 9000 HZ BKN015 BKN250 QNH2974INS BECMG 0316/0317 16010KT 9999 NSW SCT020 SCT050 BKN250 QNH2965INS BECMG 0320/0321 16012G21KT 9999 SCT050 BKN250 QNH2961INS TEMPO 0400/0406 16015G25KT BECMG 0407/0408 15015KT 9999 SCT010 BKN250 QNH2965INS BECMG 0408/0409 15010KT 8000 BR BKN010 QNH2964INS TX35/0323Z TN21/0312Z", "KSLC 031135Z 0312/0418 34009KT 1SM -SN BR SCT004 OVC008 FM031800 34013G20KT 5SM -SHSN BR FEW008 BKN025 FM040100 33008KT 2SM -SN SCT008 BKN015 FM041000 34007KT P6SM VCSH SCT025 BKN040", "KSLE 031120Z 0312/0412 19006KT P6SM VCSH SCT015 BKN025 BKN040 FM031900 28009KT P6SM -SHRA SCT030 BKN050 FM040600 20006KT P6SM -SHRA SCT025 OVC040", "TAF KSLI 030500Z 0305/0411 VRB06KT 9999 BKN018 OVC025 QNH2988INS BECMG 0317/0318 VRB06KT 9999 SCT024 BKN035 QNH2993INS BECMG 0318/0319 32010G15KT 9999 SCT035 BKN050 QNH2993INS BECMG 0322/0323 31020G25KT 9999 SKC 510033 QNH2991INS BECMG 0405/0406 32009KT 9999 SKC 510043 QNH3004INS TX16/0400Z TN10/0411Z", "KSLK 031120Z 0312/0412 20005KT P6SM OVC100 FM031500 21011G19KT P6SM OVC070 WS020/22045KT FM031800 22014G24KT P6SM VCSH OVC060 FM032100 23009KT P6SM -SHRA OVC040 FM040200 24006KT P6SM SCT025 BKN040 FM040800 00000KT P6SM FEW012 BKN025", "KSLN 031135Z 0312/0412 05011KT P6SM OVC020 FM031700 03014KT P6SM BKN025 FM031900 05014G20KT P6SM BKN035 FM040300 06014G22KT P6SM BKN028 FM040800 10009KT P6SM BKN020 WS020/18035KT", "KSME 031126Z 0312/0412 18006KT P6SM BKN250 FM031900 16011KT P6SM BKN050 FM040900 17006KT P6SM BKN025", "KSMF 031120Z 0312/0412 31010KT P6SM SKC FM031700 33017G23KT P6SM SKC FM040200 32007KT P6SM SKC", "KSMN 031134Z 0312/0412 36005KT P6SM BKN080 FM031400 36006KT P6SM VCSH BKN050 OVC120 FM031900 02011G20KT P6SM -SHSN OVC040 PROB30 0321/0324 3SM -SN OVC030 FM040300 01009KT P6SM VCSH OVC050", "KSMO 031120Z 0312/0412 VRB03KT P6SM BKN025 FM031600 24006KT P6SM SCT025 FM031900 24015G25KT P6SM SCT200 FM032200 27022G32KT P6SM SCT200 FM040200 29012G20KT P6SM SKC FM040600 36010KT P6SM SKC", "KSMX 031120Z 0312/0412 33006KT P6SM BKN025 FM031500 31012G20KT P6SM BKN025 FM031700 31025G35KT P6SM SCT200 FM040300 31015G22KT P6SM SKC FM040600 31012KT P6SM SKC", "KSNA 031127Z 0312/0412 21005KT P6SM OVC035 FM031800 25012G20KT P6SM SCT035 FM040200 29008KT P6SM SKC FM040600 VRB05KT P6SM SKC", "KSNS 031120Z 0312/0412 29010G20KT P6SM BKN035 FM031400 32019G30KT P6SM FEW035 FM040400 32015G25KT P6SM FEW035 FM040900 25010KT P6SM SKC", "KSNY 031130Z 0312/0412 35010KT P6SM FEW120 FM032300 11018G28KT P6SM VCSH BKN030 OVC050 FM040300 09028G39KT 4SM -DZ BR OVC030 FM040800 10022G27KT 3SM -SHSNDZ BKN010 OVC020", "KSOA 031120Z 0312/0412 22007KT P6SM FEW100 FM032000 22011G18KT P6SM SKC FM040100 20007KT P6SM SKC", "KSPI 031131Z 0312/0412 09006KT P6SM BKN090 FM031500 17007KT P6SM BKN060 FM040000 15013KT P6SM VCTS BKN045CB FM040400 13010KT P6SM VCTS BKN025CB FM040600 15009KT P6SM BKN015", "KSPS 031120Z 0312/0412 22008KT P6SM SKC FM031600 22013G21KT P6SM SKC FM040100 17011KT P6SM BKN250 FM040800 17014KT P6SM BKN012", "KSRQ 031131Z 0312/0412 VRB03KT P6SM FEW008 SCT130 BKN250 FM031500 23007KT P6SM SCT020 SCT250 FM031700 24013KT P6SM FEW035 SCT250 FM040000 28006KT P6SM SCT250 FM040300 VRB03KT P6SM FEW250 FM040800 VRB03KT 5SM BR SCT004", "TAF KSSC 030700Z 0307/0413 VRB06KT 9999 SCT180 QNH3002INS BECMG 0315/0316 15009KT 9999 BKN180 520308 QNH3005INS BECMG 0318/0319 18009KT 6000 SHRA BR BKN030 OVC090 520308 QNH3005INS BECMG 0404/0405 12004KT 9999 NSW BKN010 QNH2999INS BECMG 0407/0408 35006KT 9999 BKN005 QNH2996INS TX22/0320Z TN09/0310Z", "KSSF 031128Z 0312/0412 16004KT P6SM OVC009 TEMPO 0312/0315 3SM BR OVC007 FM031500 16006KT P6SM BKN015 FM031600 15008KT P6SM SCT050 FM032000 15008G18KT P6SM SCT050 FM040500 15010KT P6SM SCT050", "KSSI 031154Z 0312/0412 VRB03KT P6SM VCSH SCT070 BKN120 OVC250 FM031500 12009G15KT P6SM VCSH SCT050 BKN080 BKN120 FM032000 15012G18KT P6SM VCSH SCT045 BKN060 BKN120 FM040300 16006KT P6SM VCSH SCT035 BKN045 OVC120 FM041000 27003KT P6SM SCT120 SCT250", "KSTC 031135Z 0312/0412 27009KT P6SM BKN120 FM031700 29008KT P6SM BKN040 FM032200 30006KT P6SM OVC030 FM040500 02005KT P6SM BKN022 FM040700 04007KT P6SM BKN015 FM041000 06014G21KT 3SM -SN OVC009", "KSTJ 031135Z 0312/0412 07011KT P6SM SCT060 FM031400 10011KT P6SM BKN018 FM031700 10008KT P6SM BKN012 FM032200 05008KT P6SM BKN015", "KSTL 031131Z 0312/0418 17007KT P6SM BKN080 FM031800 16012G21KT P6SM BKN060 FM040000 16011KT P6SM BKN070 FM040600 16007KT P6SM SCT015 BKN022 FM041600 17014G23KT P6SM BKN070", "KSTS 031120Z 0312/0412 30013G20KT P6SM VCSH FEW020 BKN030 FM031500 33020G28KT P6SM FEW150 FM040400 33010G25KT P6SM FEW150", "KSUA 031120Z 0312/0412 16006KT P6SM SCT060 SCT250 FM031400 16009KT P6SM VCSH SCT030 SCT080 SCT250 FM031800 13013G22KT P6SM VCTS SCT040CB SCT100 BKN250 FM040400 17006KT P6SM SCT060 SCT250 AMD NOT SKED", "KSUN 031120Z 0312/0418 32006KT P6SM VCSH SCT025 BKN040 TEMPO 0312/0316 2SM -SN BR BKN010 OVC020 FM031900 15009KT P6SM VCSH SCT025 BKN040 FM032300 22010KT 3SM -SHSN BR SCT015 OVC025 FM040800 33012KT P6SM VCSH BKN025 OVC040", "KSUS 031131Z 0312/0412 15005KT P6SM BKN070 FM031800 16011G20KT P6SM BKN060 FM032300 17010KT P6SM BKN070 FM040600 16007KT P6SM SCT015 BKN025", "TAF KSUU 031055Z 0311/0417 26010G15KT 9999 SKC QNH3002INS BECMG 0312/0313 33010G15KT 9999 FEW100 QNH3005INS BECMG 0316/0317 36015G25KT 9999 SCT100 BKN150 QNH3004INS BECMG 0402/0403 35010G15KT 9999 FEW150 QNH3007INS BECMG 0407/0408 VRB06KT 9999 SKC QNH3014INS TX18/0323Z TN04/0314Z", "KSUX 031120Z 0312/0412 01005KT P6SM BKN100 FM031500 03009KT P6SM BKN080 FM040200 05012G21KT P6SM BKN080 FM040600 07017G29KT P6SM BKN060 FM041000 07017G27KT P6SM OVC015", "TAF KSVN 030900Z 0309/0415 VRB06KT 9999 FEW170 SCT320 QNH2997INS TEMPO 0309/0312 VRB06KT 9000 BR BECMG 0317/0318 16009KT 9999 SCT040 SCT110 BKN150 QNH2995INS BECMG 0321/0322 14009KT 9000 -SHRA SCT030 BKN060 QNH2995INS BECMG 0406/0407 VRB06KT 8000 BR SCT003 BKN015 QNH2995INS BECMG 0412/0413 VRB06KT 9999 NSW SCT015 QNH3002INS TX24/0317Z TN13/0309Z", "KSWF 031120Z 0312/0418 VRB03KT P6SM SKC FM031400 19007KT P6SM SCT200 FM031700 22013G22KT P6SM SCT050 SCT150 FM040000 24009KT P6SM SCT080 BKN150 FM040700 VRB04KT P6SM SCT015 BKN150 FM041000 VRB03KT P6SM BKN015 FM041600 VRB04KT P6SM SCT015 BKN060 AMD NOT SKED", "KSWO 031120Z 0312/0412 17010KT P6SM SCT008 TEMPO 0312/0314 BKN008 FM031400 20012G18KT P6SM SKC FM040100 15011KT P6SM SKC FM040600 17014KT P6SM BKN012", "KSYM 031126Z 0312/0412 VRB05KT P6SM BKN100 FM031700 22009KT P6SM SCT250 FM040900 18006KT P6SM BKN040", "KSYR 031120Z 0312/0412 16009G15KT P6SM BKN100 WS020/20035KT FM031500 20015G24KT P6SM BKN100 FM032100 24010G17KT P6SM OVC050 FM040300 00000KT 5SM -SHRA BR OVC021 FM040800 00000KT 1SM -SHRA BR OVC015", "TAF KSZL 031100Z 0311/0417 13009KT 9999 SCT070 QNH2964INS BECMG 0314/0315 18010G15KT 9999 BKN013 QNH2960INS BECMG 0318/0319 19010G15KT 9999 BKN020 QNH2956INS BECMG 0322/0323 22009KT 9999 SCT025 QNH2950INS BECMG 0414/0415 19015G30KT 9999 OVC020 510006 QNH2947INS TX23/0321Z TN10/0312Z", "KTCC 031124Z 0312/0412 24008G16KT P6SM SKC FM031600 25015G25KT P6SM SKC FM031830 24025G40KT P6SM SKC FM040200 22018G30KT P6SM SKC FM040700 22018G30KT P6SM SKC WS015/24040KT", "KTCL 031135Z 0312/0412 13009KT 5SM -SHRA BR OVC015 FM031400 15008KT P6SM SCT008 OVC015 TEMPO 0314/0318 BKN008 OVC015 FM031800 19008KT P6SM BKN025 FM032100 21006KT P6SM BKN045 FM040600 17005KT P6SM OVC015 AMD NOT SKED", "TAF AMD KTCM 030950Z 0309/0411 21006KT 9999 VCSH OVC006 610179 QNH2993INS BECMG 0311/0312 VRB06KT 9999 NSW BKN012 OVC025 620159 QNH2996INS BECMG 0318/0319 21004KT 9999 BKN020 OVC035 620209 QNH3004INS BECMG 0322/0323 18004KT 9999 BKN040 OVC070 620403 QNH2999INS BECMG 0408/0409 19006KT 9999 BKN020 620203 QNH3004INS TX09/0323Z TN00/0312Z", "KTCS 031120Z 0312/0412 25007KT P6SM SKC FM031700 21020G30KT P6SM SKC FM032100 22025G35KT P6SM SKC FM040300 22035G45KT P6SM SKC FM040600 23015KT P6SM SKC", "KTEB 031120Z 0312/0418 VRB03KT P6SM FEW200 FM031300 18007KT P6SM SCT200 FM031600 20013G20KT P6SM SCT050 SCT200 FM040100 20009KT P6SM FEW040 BKN200 FM040600 VRB04KT P6SM SCT020 BKN200 FM041600 16005KT P6SM FEW020 BKN250", "KTEX 031120Z 0312/0412 16015G25KT P6SM BKN200 WS020/22040KT FM031700 20020G40KT P6SM SCT200 FM032200 21032G45KT P6SM VCSH BKN100 FM040000 22025G55KT 6SM -SHSN BR BKN060 FM040700 23028G45KT 6SM -SHSN BLSN OVC035", "TAF KTIK 030900Z 0309/0415 18012G18KT 9999 OVC006 QNH2954INS TEMPO 0309/0312 3200 BR OVC002 BECMG 0312/0313 20012KT 9999 SKC QNH2951INS BECMG 0319/0320 18012G22KT 9999 SKC QNH2949INS BECMG 0401/0402 18012G18KT 9999 SKC 520102 QNH2946INS TX29/0322Z TN14/0309Z", "KTIX 031120Z 0312/0412 15005KT P6SM SCT025 SCT060 BKN250 FM031500 13007KT P6SM SCT030 SCT250 FM031800 14012G22KT P6SM VCTS SCT040CB SCT100 BKN250 FM040200 17008KT P6SM SCT060 SCT250", "KTLH 031120Z 0312/0412 10003KT 6SM BR BKN006 OVC120 FM031500 17008KT P6SM SCT010 OVC018 FM032000 15010KT P6SM VCTS SCT025CB BKN035 OVC080 TEMPO 0321/0401 2SM +TSRA SCT018CB BKN025CB OVC035 FM040100 18004KT P6SM -SHRA SCT015 BKN025 FM040400 19003KT 6SM BR BKN008", "KTMB 031120Z 0312/0412 VRB04KT P6SM FEW025 SCT250 FM031500 15007KT P6SM SCT035 SCT060 FM031900 13012KT P6SM FEW035 SCT250 FM040300 VRB03KT P6SM FEW040", "KTOI 031135Z 0312/0412 15006KT P6SM -RA SCT007 OVC090 TEMPO 0312/0314 BKN007 FM031400 15007KT 3SM -SHRA BR VCTS BKN015CB OVC050 FM031600 18008KT 5SM -SHRA BR VCTS BKN015CB FM031800 19010G20KT P6SM VCTS BKN024CB PROB30 0321/0324 3SM TSRA BR OVC025CB FM040200 19005KT P6SM SCT040 BKN100 FM040800 19004KT P6SM OVC008", "KTOL 031125Z 0312/0412 22008KT P6SM OVC250 FM031800 22006KT P6SM VCSH OVC050 FM040300 07008KT 5SM -RA SCT015 OVC025 FM040600 07010KT 3SM -SHRA BR BKN008", "KTOP 031126Z 0312/0412 07007KT P6SM VCSH BKN028 FM031300 11008KT P6SM VCSH OVC015 FM031600 08007KT P6SM BKN015 FM032200 05008KT P6SM BKN040 FM040600 09012KT P6SM BKN020", "KTPA 031131Z 0312/0418 VRB03KT 6SM BR SCT005 SCT130 BKN250 TEMPO 0312/0313 3SM BR BKN003 FM031500 20005KT P6SM SCT025 SCT130 BKN250 FM031700 24011KT P6SM SCT040 SCT250 FM040000 29005KT P6SM FEW050 SCT250 FM040300 VRB03KT P6SM FEW250 FM040800 VRB03KT 5SM BR SCT004", "KTPH 031120Z 0312/0412 34020G30KT P6SM BKN110 FM031700 34035G45KT P6SM FEW060 BKN100", "KTRI 031120Z 0312/0412 VRB03KT P6SM BKN250 FM032100 18011G18KT P6SM BKN045 PROB30 0321/0323 4SM -RA BR OVC025 FM040000 15009KT 6SM BR OVC030 FM040500 14005KT 4SM BR BKN030 FM041000 14004KT 3SM BR BKN020", "KTRK 031120Z 0312/0412 22009KT 5SM -SHSN BKN015 OVC030 FM031400 VRB05KT P6SM VCSH BKN035 FM031700 33011KT 5SM -SHSN BKN025 OVC035 FM040300 VRB04KT P6SM SCT035", "KTRM 031127Z 0312/0412 33015G25KT 3SM HZ BLDU SKC FM031900 31015G28KT 3SM HZ BLDU SKC FM040200 33030G40KT 2SM HZ BLDU SKC FM040500 33020G30KT 3SM HZ BLDU SKC FM040800 33012G22KT 6SM HZ SKC", "KTTD 031120Z 0312/0412 23004KT P6SM -SHRA SCT010 BKN020 OVC035 FM032000 24005KT P6SM -SHRA SCT025 BKN040 FM040900 19005KT P6SM -SHRA SCT020 OVC040", "KTTN 031122Z 0312/0412 VRB05KT P6SM SKC FM031500 20012G23KT P6SM FEW040 FM032300 19009KT P6SM FEW200 FM040900 VRB05KT P6SM SCT010", "KTUL 031120Z 0312/0412 16013KT P6SM OVC015 WS020/19040KT FM031500 19012G20KT P6SM SKC FM040100 18012KT P6SM SKC FM040500 18012KT P6SM SKC WS020/19040KT TEMPO 0409/0412 BKN020", "KTUP 031130Z 0312/0412 12005KT P6SM VCSH SCT006 OVC024 FM031500 20008KT P6SM BKN010 FM032100 21007KT P6SM OVC035 FM040300 18006KT P6SM SCT250", "KTUS 031123Z 0312/0412 14008KT P6SM SKC FM031800 20013G20KT P6SM SKC FM032200 24024G36KT P6SM SKC FM040300 27014G23KT P6SM SKC FM040800 29010KT P6SM SKC", "KTVC 031132Z 0312/0412 24010KT P6SM OVC250 FM031800 27012G20KT P6SM SCT250 FM032300 34008KT P6SM FEW250 FM040300 03006KT P6SM SCT120 FM040700 06006KT P6SM BKN040", "KTVF 031120Z 0312/0412 33010KT P6SM BKN006 FM031500 34008KT P6SM OVC006 FM040000 36009KT P6SM OVC011 FM040600 05007KT P6SM OVC007", "KTVL 031120Z 0312/0412 20009KT 5SM -SHSN BKN015 OVC030 FM031500 17007KT P6SM VCSH BKN035 FM031800 15005KT 5SM -SHSN BKN025 OVC035 FM040300 VRB04KT P6SM SCT035", "KTWF 031139Z 0312/0412 29010KT P6SM SCT006 BKN013 TEMPO 0312/0315 2SM -SHSN BR OVC009 FM031500 26020G30KT P6SM VCSH BKN050 FM040300 26025G35KT 2SM -SN OVC020", "KTXK 031120Z 0312/0412 16006KT 5SM BR OVC005 FM031400 19008KT P6SM OVC009 FM031700 20011G17KT P6SM OVC015 FM032000 19013G19KT P6SM BKN150 FM040000 17011KT P6SM SCT250 FM040700 18013KT P6SM BKN150 FM041000 18011KT P6SM OVC050", "KTYR 031120Z 0312/0412 19013KT P6SM OVC009 FM031400 20012G18KT P6SM OVC015 FM031700 20015G21KT P6SM BKN050 FM040000 17018G23KT P6SM SCT250 FM040600 18017G23KT P6SM OVC100 FM040900 18015G22KT P6SM OVC050", "KTYS 031120Z 0312/0412 VRB03KT P6SM OVC250 FM031800 14007KT 5SM BR VCSH OVC035 FM032300 01005KT 4SM BR OVC020 FM040900 13004KT P6SM BKN025", "KUAO 031120Z 0312/0412 22005KT P6SM VCSH SCT015 BKN025 BKN045 FM032000 21007KT P6SM -SHRA BKN045 FM040900 21005KT P6SM -SHRA SCT025 OVC040", "KUES 031120Z 0312/0412 VRB04KT P6SM SCT120 FM031800 26007KT P6SM BKN100 FM032200 04006KT P6SM VCSH OVC080 FM040000 06006KT 6SM -SHRA BR OVC050 FM040700 07008KT P6SM VCSH OVC007", "KUIN 031131Z 0312/0412 05008KT P6SM VCSH BKN060 FM031400 09008KT P6SM BKN060 FM040200 05011KT P6SM VCTS BKN025CB FM040500 06010KT P6SM VCTS BKN007CB", "KUKI 031131Z 0312/0412 34007KT P6SM SCT050 FM031600 31013G23KT P6SM SCT050 FM040400 34006KT P6SM SKC FM040600 35005KT P6SM FEW250", "KUNV 031120Z 0312/0412 20003KT P6SM FEW250 WS020/19033KT FM031400 21010G17KT P6SM OVC200 FM032300 22007KT P6SM VCSH BKN070 OVC200 FM040700 00000KT P6SM SCT070", "KUTS 031120Z 0312/0412 20010KT P6SM BKN015 FM031700 20010G18KT P6SM SCT035 FM040200 17011KT P6SM BKN150 FM040800 18011KT P6SM SCT018 BKN025", "TAF KVAD 030800Z 0308/0414 12006KT 9999 BKN150 QNH3000INS BECMG 0315/0316 17010G15KT 9999 BKN040 QNH2996INS TEMPO 0320/0324 17015G25KT 3200 TSRA BKN025CB BECMG 0401/0402 21006KT 9999 SCT015 QNH2998INS BECMG 0407/0408 21006KT 4800 BR BKN007 QNH2999INS BECMG 0413/0414 21006KT 9999 NSW SCT010 QNH3000INS TX28/0322Z TN15/0310Z", "KVCT 031121Z 0312/0412 18007KT 6SM BR OVC012 FM031500 18012KT P6SM BKN020 FM031900 17015G20KT P6SM SCT035 FM040000 17012G18KT P6SM SCT020 BKN200 TEMPO 0400/0402 BKN020 FM040200 17010KT P6SM OVC012 FM040900 18005KT P6SM OVC009 WS020/19045KT", "KVEL 031120Z 0312/0412 34006KT P6SM VCSH OVC100 FM031800 24015G24KT P6SM -SHRA BKN060 FM032200 27017G27KT 6SM -SHSNRA BR BKN050 FM040000 36017G26KT 6SM -SHSN BR BKN040 FM040600 06015G25KT 3SM -SN BR SCT010 BKN030", "KVGT 031120Z 0312/0412 22020G30KT P6SM SCT200 BKN250 FM031400 26030G40KT P6SM FEW090 SCT200 FM032000 32025G35KT P6SM VCSH SCT070 BKN090 FM040200 34020G30KT P6SM FEW120", "KVIS 031120Z 0312/0412 31016G23KT P6SM OVC050 FM031600 33025G32KT P6SM SCT050 BKN100 FM040400 32014G22KT P6SM SCT250 FM040900 33006KT P6SM BKN250", "KVLD 031120Z 0312/0412 17004KT P6SM SCT150 BKN200 FM032100 18005KT P6SM VCTS SCT040CB OVC090 TEMPO 0322/0402 3SM TSRA BR BKN040CB OVC090 FM040200 17004KT P6SM VCSH SCT035 BKN090 FM040500 19003KT P6SM BKN006 FM040800 00000KT 2SM BR OVC003", "KVNY 031120Z 0312/0412 13006KT P6SM OVC015 FM031400 07010KT P6SM BKN025 FM040200 35012G20KT P6SM SCT200 FM040400 35020G30KT P6SM SCT200 FM040600 35025G35KT P6SM SKC FM040900 35015G22KT P6SM SKC", "TAF KVOK 030900Z 0309/0415 24009KT 9999 SCT160 QNH2970INS BECMG 0314/0315 23006KT 9999 BKN060 QNH2976INS BECMG 0320/0321 05006KT 9999 BKN100 QNH2979INS BECMG 0406/0407 07009KT 9999 FEW007 SCT025 BKN040 QNH2987INS BECMG 0414/0415 08015G25KT 8000 -RA SCT007 BKN015 OVC020 QNH2984INS TX12/0321Z TN02/0309Z", "TAF AMD KVPS 030715Z 0307/0407 17006KT 4800 BR BKN010 QNH2990INS TEMPO 0307/0315 3200 BR BKN006 BECMG 0315/0316 20012KT 9000 -SHRA VCTS BKN015CB QNH2988INS TEMPO 0319/0323 21012G20KT 6000 -TSRA SCT015CB BKN020 BECMG 0323/0324 19006KT 9999 NSW BKN020 QNH2986INS BECMG 0404/0405 20006KT 4800 BR SCT004 BKN008 QNH2988INS TX26/0318Z TN19/0309Z", "KVQQ 031154Z 0312/0412 18003KT P6SM VCSH SCT070 BKN120 OVC250 FM031400 15006KT P6SM SCT060 BKN120 OVC200 FM031800 18009G15KT P6SM VCSH SCT050 BKN080 BKN120 FM040200 16005KT P6SM VCSH SCT035 BKN045 OVC120 FM041000 00000KT 3SM BR SCT120 SCT250", "KVRB 031120Z 0312/0412 14006KT P6SM SCT025 SCT060 SCT250 FM031400 15008KT P6SM VCSH SCT030 SCT080 SCT250 FM031800 14014G22KT P6SM VCTS SCT040CB SCT100 BKN250 FM040400 17006KT P6SM SCT060 SCT250", "KVTN 031126Z 0312/0412 05006KT P6SM OVC080 FM032000 06012KT P6SM VCSH OVC040 FM040300 06020G29KT P6SM VCSH OVC020 FM040600 06020G30KT P6SM -SN OVC012 FM041000 05021G29KT 2SM -SN BLSN OVC005", "KWJF 031120Z 0312/0412 28025G35KT P6SM BKN025 OVC035 FM031400 28028G38KT P6SM SCT200 FM031700 28035G45KT 4SM BLDU SCT200 FM040100 31025G32KT P6SM SCT200 FM040300 31015G22KT P6SM SKC", "KWMC 031148Z 0312/0412 27011KT P6SM VCSH SCT025 BKN070 TEMPO 0312/0313 1SM -SHSN OVC025 FM031700 30015G25KT P6SM -SHSN BKN035 OVC080 FM040300 29012G22KT P6SM SCT035 BKN050", "TAF KWRB 030800Z 0308/0414 VRB03KT 9999 BKN150 QNH2999INS BECMG 0309/0310 VRB06KT 8000 -RA SCT100 BKN120 OVC160 QNH2995INS TEMPO 0317/0321 15010G20KT 6000 -TSRA SCT025 BKN035CB OVC085 BECMG 0401/0402 VRB05KT 9999 NSW BKN020 QNH2996INS BECMG 0404/0405 VRB05KT 9000 BR BKN015 QNH2995INS BECMG 0406/0407 VRB05KT 3200 BR BKN010 QNH2995INS TEMPO 0408/0413 0800 FG OVC009 BECMG 0413/0414 18006KT 9999 NSW SCT020 BKN030 QNH3002INS TX18/0315Z TN12/0309Z", "TAF KWRI 031000Z 0310/0416 VRB03KT 9999 SKC QNH3011INS BECMG 0313/0314 19015G25KT 9999 FEW080 QNH3002INS BECMG 0319/0320 20010KT 9999 BKN080 QNH2998INS BECMG 0404/0405 VRB03KT 9999 SCT100 WS020/21040KT QNH2999INS BECMG 0413/0414 21010G15KT 9999 BKN060 QNH3003INS TX18/0320Z TNM01/0310Z", "KWRL 031138Z 0312/0412 34006KT P6SM SCT050 BKN070 FM031900 35008KT P6SM VCSH SCT015 BKN025 FM032200 35011KT 4SM -SN SCT015 OVC022 FM040200 01014G22KT 3SM -SN SCT012 OVC020 FM040800 36010KT 6SM -SN SCT020 OVC035", "KWWR 031120Z 0312/0412 24010KT P6SM SKC FM031300 27009KT P6SM SKC FM031900 23012G20KT P6SM SKC FM040000 13011KT P6SM SCT250", "KXNA 031120Z 0312/0412 16009KT P6SM SCT025 TEMPO 0312/0315 BKN025 FM031500 19012G20KT P6SM SKC FM040100 18010KT P6SM SKC FM040500 18010KT P6SM SKC WS020/19035KT", "KXWA 031122Z 0312/0412 01013KT P6SM VCSH OVC007 FM031700 03008KT P6SM VCSH OVC014 FM032200 06012KT P6SM OVC010 FM040300 05012KT P6SM OVC008", "KYIP 031120Z 0312/0412 17006KT P6SM SCT150 FM031400 24005KT P6SM BKN150 FM032000 VRB03KT P6SM SCT045 OVC070 FM032300 04004KT P6SM -SHRA BKN040 OVC060 FM040600 07010KT 6SM -SHRA BR BKN018 OVC035 FM040800 02006KT 5SM -RA BR OVC009", "KYKM 031131Z 0312/0412 33007KT P6SM BKN060 BKN100 FM031800 32010KT P6SM SCT060 BKN100", "KYNG 031125Z 0312/0412 18008KT P6SM SCT150 FM031800 22010KT P6SM BKN050 FM032200 12006KT 6SM -SHRA SCT025 OVC035 FM040300 06005KT P6SM OVC025 FM040600 09005KT P6SM OVC015", "KZZV 031124Z 0312/0412 15004KT P6SM BKN250 FM031400 22010KT P6SM BKN100 FM040000 16004KT P6SM BKN080", "TAF LAKU 031100Z 0312/0412 36020KT 9999 BKN040 OVC070 TX12/0312Z TN03/0404Z TEMPO 0312/0318 36020G35KT TEMPO 0315/0405 5000 RA BR OVC030 TEMPO 0323/0411 2500 SNRA OVC015 BECMG 0400/0402 36010KT", "TAF LATI 031100Z 0312/0412 06012KT 9999 SCT040 BKN090 TX20/0312Z TN07/0404Z TEMPO 0312/0315 06015G25KT TEMPO 0318/0405 5000 RA BR OVC020 BECMG 0318/0319 36005KT", "TAF LBBG 031100Z 0312/0412 11016KT 9999 SCT030 BKN045 BECMG 0315/0317 05016KT TEMPO 0322/0406 5000 RA SCT015 OVC030 PROB40 0400/0406 4000 SHRA SCT020 FEW030CB BKN040", "TAF LBGO 031100Z 0312/0412 09010KT 9999 SCT030 BKN050 TEMPO 0312/0316 5000 SHRA FEW030CB BKN040 BECMG 0316/0318 4000 RA FEW005 BKN010 OVC020 TEMPO 0322/0402 09016G26KT BECMG 0406/0407 9999 NSW SCT020 BKN040", "TAF LBPD 031100Z 0312/0412 09010KT 4000 RA BKN010 OVC020 PROB30 TEMPO 0312/0316 3000 SHRA SCT020CB OVC040 TEMPO 0318/0403 09016G26KT", "TAF LBSF 031100Z 0312/0412 10010KT 4000 RA BKN020 OVC050 PROB30 TEMPO 0312/0316 09016G26KT 3000 SHRA SCT020CB OVC040 BECMG 0400/0402 VRB04KT BECMG 0406/0408 28012KT", "TAF LBWN 031100Z 0312/0412 10014KT 9999 SCT030 BKN045 PROB40 TEMPO 0313/0316 5000 SHRA FEW030CB BKN040 BECMG 0323/0324 04016KT TEMPO 0400/0411 5000 RA SCT015 OVC030 PROB40 0400/0406 5000 SHRA FEW030CB BKN040", "TAF LCEN 031040Z 0312/0412 12015KT 9999 FEW025", "TAF LCLK 031130Z 0312/0412 12010KT CAVOK BECMG 0315/0319 35009KT BECMG 0410/0412 21015KT", "TAF LCPH 031130Z 0312/0412 14012KT CAVOK BECMG 0315/0318 07009KT BECMG 0402/0406 13015KT", "TAF LCRA 031022Z 0312/0406 10012KT 9999 FEW040 PROB30 TEMPO 0318/0405 32004KT", "TAF LDDU 031125Z 0312/0412 03028G40KT CAVOK TX16/0312Z TN07/0405Z TEMPO 0312/0407 02030G50KT PROB40 TEMPO 0315/0406 02040G55KT BECMG 0409/0411 02015G25KT", "TAF LDLO 021125Z 0212/0312 21005KT 9999 FEW030 TX17/0212Z TN10/0305Z BECMG 0221/0223 02015KT TEMPO 0223/0312 02020G35KT", "TAF LDOS 031125Z 0312/0412 33015KT 9999 BKN025 TX10/0313Z TN01/0405Z TEMPO 0316/0402 04015G25KT", "TAF LDPL 031125Z 0312/0412 06020G35KT CAVOK TX12/0312Z TN03/0404Z PROB30 TEMPO 0318/0406 06030G45KT BECMG 0409/0411 07015G25KT", "TAF LDRI 031125Z 0312/0412 05025G40KT CAVOK TX11/0412Z TN04/0405Z TEMPO 0312/0412 04035G65KT PROB40 TEMPO 0312/0320 VRB25G50KT", "TAF LDSP 031125Z 0312/0412 04025G40KT CAVOK TX15/0312Z TN07/0405Z PROB40 TEMPO 0315/0406 04032G50KT BECMG 0409/0411 05015G25KT", "TAF LDZA 031125Z 0312/0412 03018KT 9999 BKN040 TX09/0312Z TN00/0405Z TEMPO 0312/0410 03020G30KT", "TAF LDZD 031125Z 0312/0412 05020KT CAVOK TX13/0312Z TN04/0405Z TEMPO 0312/0411 05020G30KT PROB40 TEMPO 0316/0402 04025G35KT", "TAF LEAB 031100Z 0312/0412 31005KT CAVOK TX19/0316Z TN04/0406Z BECMG 0317/0319 11008KT", "TAF LEAG 030800Z 0309/0409 09008KT 9999 FEW012 TX21/0313Z TN12/0407Z PROB30 TEMPO 0322/0409 BKN008", "TAF LEAL 031100Z 0312/0412 11010KT 9999 FEW050 TX20/0313Z TN12/0406Z TEMPO 0312/0314 VRB04KT BECMG 0318/0320 VRB04KT BECMG 0407/0409 10010KT", "TAF LEAM 031100Z 0312/0412 15012KT CAVOK TX21/0314Z TN10/0406Z BECMG 0319/0321 08010KT BECMG 0321/0323 35006KT BECMG 0407/0409 07014KT", "TAF LEAO 030800Z 0309/0409 05006KT CAVOK TX21/0316Z TN07/0406Z PROB40 TEMPO 0309/0403 VRB05KT", "TAF LEAS 030800Z 0309/0409 09009KT 9999 FEW040 TX14/0312Z TN05/0406Z PROB40 TEMPO 0311/0321 09015G25KT", "TAF LEBA 030800Z 0309/0409 08005KT CAVOK TX26/0315Z TN06/0406Z", "TAF LEBB 031100Z 0312/0412 VRB05KT 9999 FEW030 SCT040 TX15/0315Z TN04/0406Z TEMPO 0312/0319 05010KT PROB30 0400/0407 3000 BR BCFG BKN010 PROB30 TEMPO 0401/0407 0800 BCFG BKN002", "TAF LEBG 030800Z 0309/0409 04012KT 9999 FEW025 TX14/0316Z TN01/0406Z PROB40 TEMPO 0400/0403 1100 BCFG BKN002 PROB30 TEMPO 0402/0409 05015G25KT", "TAF LEBL 031100Z 0312/0412 11009KT 9999 FEW030 TX17/0312Z TN10/0405Z BECMG 0312/0314 17010KT PROB30 TEMPO 0312/0316 FEW050TCU BECMG 0318/0320 VRB04KT TEMPO 0320/0323 24008KT BECMG 0400/0402 34010KT", "TAF LEBR 030800Z 0309/0409 32009KT 9999 FEW040 TX17/0315Z TN01/0406Z PROB40 TEMPO 0309/0320 33022KT", "TAF LEBZ 030800Z 0309/0409 09005KT CAVOK TX25/0315Z TN09/0406Z", "TAF LECO 030800Z 0309/0409 VRB05KT CAVOK TX17/0315Z TN07/0404Z PROB30 TEMPO 0312/0318 33010KT PROB30 TEMPO 0400/0407 1500 BCFG BKN005 PROB30 TEMPO 0401/0407 0350 FG VV001", "TAF LECV 031100Z 0312/0412 04010KT CAVOK TX16/0316Z TN05/0406Z TEMPO 0312/0412 VRB05KT", "TAF LEEC 030800Z 0309/0409 03006KT CAVOK TX28/0315Z TN10/0406Z", "TAF LEGA 031100Z 0312/0412 VRB02KT CAVOK TX24/0315Z TN03/0406Z BECMG 0312/0314 32010KT BECMG 0319/0321 VRB02KT", "TAF LEGE 031100Z 0312/0412 VRB04KT 9999 FEW040 TX20/0313Z TN06/0406Z TEMPO 0312/0316 09010KT", "TAF LEGR 031100Z 0312/0412 VRB02KT CAVOK TX24/0315Z TN02/0406Z TEMPO 0314/0319 34010KT", "TAF LEGT 031100Z 0312/0412 VRB05KT CAVOK TX20/0316Z TN06/0406Z BECMG 0322/0324 04010KT", "TAF LEHC 030800Z 0309/0409 24010KT 9999 FEW025 TX21/0314Z TN04/0406Z BECMG 0318/0320 VRB03KT", "TAF LEIB 030800Z 0309/0409 36005KT 9999 FEW040 TX20/0313Z TN10/0406Z BECMG 0309/0311 13007KT PROB30 TEMPO 0311/0315 SHRA FEW025TCU BECMG 0323/0401 VRB04KT", "TAF LEJR 030800Z 0309/0409 VRB02KT CAVOK TX27/0314Z TN09/0406Z BECMG 0313/0315 29010KT BECMG 0320/0322 16005KT", "TAF LELC 031100Z 0312/0412 09010KT CAVOK TX20/0313Z TN10/0406Z BECMG 0318/0320 VRB02KT BECMG 0406/0408 09010KT", "TAF LELL 030800Z 0309/0409 VRB04KT 9999 FEW050 TX20/0313Z TN06/0405Z TEMPO 0311/0318 15010KT", "TAF AMD LELN 030925Z 0309/0409 25006KT CAVOK TX17/0316Z TNM01/0406Z TEMPO 0309/0311 BKN005", "TAF LELO 030800Z 0309/0409 28010KT 9999 BKN040 TX15/0316Z TN02/0406Z PROB40 TEMPO 0402/0403 0400 FG BCFG BKN002 PROB30 TEMPO 0315/0319 03010KT TEMPO 0321/0324 VRB05KT", "TAF LEMD 031100Z 0312/0418 VRB05KT CAVOK TX21/0416Z TN05/0406Z BECMG 0322/0324 02010KT PROB30 TEMPO 0410/0418 04015G25KT", "TAF LEMG 031100Z 0312/0412 13008KT CAVOK TX22/0313Z TN10/0406Z BECMG 0323/0401 VRB02KT BECMG 0408/0410 12010KT", "TAF LEMH 030800Z 0309/0409 35015KT 9999 FEW040 TX15/0312Z TN08/0406Z TEMPO 0309/0312 35025G40KT TEMPO 0312/0317 35017G28KT BECMG 0318/0320 36005KT", "TAF LEMO 030800Z 0309/0409 05006KT CAVOK TX27/0315Z TN09/0406Z", "TAF LEPA 031100Z 0312/0412 23010KT 9999 SCT030 TX17/0312Z TN07/0405Z TEMPO 0312/0314 33010KT PROB40 TEMPO 0312/0315 07010KT 4000 TSRA FEW030CB BECMG 0317/0319 VRB03KT", "TAF LEPP 030800Z 0309/0409 33009KT 9999 SCT030 TX14/0315Z TN01/0406Z PROB30 TEMPO 0312/0318 36015G25KT", "TAF LERI 031100Z 0312/0412 03004KT CAVOK TX23/0314Z TN10/0406Z BECMG 0315/0317 13010KT BECMG 0319/0321 VRB02KT BECMG 0409/0411 11010KT", "TAF LERL 030800Z 0309/0409 05006KT CAVOK TX21/0316Z TN07/0406Z PROB40 TEMPO 0309/0403 VRB05KT", "TAF LERS 030800Z 0309/0409 27008KT 9999 FEW050 TX22/0313Z TN07/0406Z TEMPO 0310/0314 VRB04KT BECMG 0314/0316 16010KT BECMG 0319/0321 01004KT", "TAF LERT 030800Z 0309/0409 06005KT CAVOK TX24/0313Z TN12/0406Z BECMG 0311/0313 26010KT BECMG 0321/0323 14008KT", "TAF LESA 030800Z 0309/0409 15005KT CAVOK TX18/0316Z TN00/0406Z PROB40 TEMPO 0402/0409 05012KT", "TAF LESO 031100Z 0312/0412 VRB05KT 9999 FEW025 SCT050 TX14/0312Z TN06/0406Z TEMPO 0312/0319 03010KT PROB30 0400/0407 3000 BR BCFG BKN010", "TAF LEST 031100Z 0312/0412 VRB05KT CAVOK TX17/0315Z TN04/0406Z PROB30 TEMPO 0312/0316 22010KT PROB40 TEMPO 0319/0406 36010KT PROB30 TEMPO 0400/0407 3000 BR BKN005 BKN010 PROB30 TEMPO 0401/0407 0800 BCFG BKN001", "TAF AMD LESU 030909Z 0309/0409 VRB04KT 9999 FEW050 TX17/0314Z TNM02/0406Z TEMPO 0310/0318 04010KT", "TAF LETO 031100Z 0312/0412 VRB05KT CAVOK TX21/0316Z TN05/0406Z BECMG 0322/0324 02010KT PROB30 TEMPO 0410/0412 04015G25KT", "TAF LEVC 031100Z 0312/0412 13011KT 9999 FEW050 TX21/0313Z TN08/0406Z TEMPO 0312/0314 VRB04KT BECMG 0320/0322 30005KT BECMG 0408/0410 09010KT", "TAF LEVD 030800Z 0309/0409 VRB05KT CAVOK TX18/0316Z TN04/0406Z PROB30 TEMPO 0404/0406 2500 BR PROB30 TEMPO 0406/0409 05015G25KT", "TAF LEVS 031100Z 0312/0412 VRB05KT CAVOK TX20/0316Z TN06/0406Z BECMG 0322/0324 04010KT", "TAF LEVT 031100Z 0312/0412 03009KT 9999 SCT030 TX14/0315Z TNM00/0405Z PROB40 TEMPO 0400/0407 3000 BR BCFG BKN005 PROB30 TEMPO 0400/0407 0350 FG VV001", "TAF LEVX 031100Z 0312/0412 VRB05KT CAVOK TX18/0313Z TN07/0406Z PROB40 TEMPO 0312/0321 28010KT PROB30 TEMPO 0318/0403 3000 RA BKN010", "TAF LEXJ 030800Z 0309/0409 06009KT 9999 SCT040 TX15/0313Z TN06/0406Z PROB40 TEMPO 0311/0319 06015G25KT", "TAF LEZG 031100Z 0312/0412 30015KT 9999 FEW030 TX20/0313Z TN06/0406Z TEMPO 0312/0318 30020G30KT BECMG 0323/0401 30010KT BECMG 0406/0408 31015KT", "TAF LEZL 030800Z 0309/0409 06010KT CAVOK TX28/0315Z TN10/0406Z BECMG 0315/0317 22006KT", "TAF LFAQ 031100Z 0312/0321 06014KT 9999 FEW030", "TAF LFAT 031100Z 0312/0321 08014KT CAVOK", "TAF LFBA 031100Z 0312/0321 33008KT 9999 BKN040 BECMG 0317/0319 CAVOK", "TAF LFBC 030800Z 0309/0409 02006KT 9999 BKN050", "TAF LFBD 031100Z 0312/0418 03010KT 9999 BKN030 TX15/0315Z TN04/0406Z BECMG 0318/0320 CAVOK PROB30 TEMPO 0404/0407 4000 BR", "TAF LFBE 031100Z 0312/0412 02010KT 9999 BKN030 BECMG 0318/0320 CAVOK PROB40 TEMPO 0403/0407 4000 BR", "TAF AMD LFBG 030814Z 0309/0409 03010KT 9999 BKN025", "TAF LFBH 031100Z 0312/0412 05010KT 9999 BKN020", "TAF LFBI 031100Z 0312/0412 04010KT 9999 BKN014 BECMG 0312/0314 BKN020 ", "TAF LFBL 031100Z 0312/0412 03010KT 9999 OVC012 BECMG 0313/0315 BKN020 BECMG 0319/0321 CAVOK PROB40 TEMPO 0403/0407 4000 BR", "TAF LFBM 030800Z 0309/0409 28005KT CAVOK", "TAF LFBO 031100Z 0312/0418 30010KT 9999 BKN040 BECMG 0404/0406 CAVOK", "TAF LFBP 031100Z 0312/0412 36006KT 9999 BKN040 BECMG 0318/0320 VRB02KT BECMG 0400/0402 3000 BR PROB40 TEMPO 0404/0408 0800 FG VV/// BECMG 0408/0410 CAVOK BECMG 0410/0412 32008KT", "TAF LFBT 031100Z 0312/0412 36006KT 9999 BKN020 BECMG 0318/0320 VRB02KT TEMPO 0403/0407 4000 BR BECMG 0410/0412 31008KT CAVOK", "TAF LFBU 031100Z 0312/0412 03010KT 9999 OVC015 BECMG 0318/0320 CAVOK PROB40 TEMPO 0403/0407 4000 BR", "TAF LFBZ 031100Z 0312/0412 06005KT 9999 SCT020 BKN050 BECMG 0312/0314 34010KT BECMG 0318/0320 VRB02KT SCT050 BECMG 0404/0406 4000 BR NSC BECMG 0408/0410 30010KT CAVOK", "TAF LFCK 031100Z 0312/0321 31011KT 9999 BKN025 TEMPO 0315/0321 SCT035TCU", "TAF LFCR 031100Z 0312/0412 31008KT 9999 BKN030 TEMPO 0312/0318 SCT025TCU BECMG 0319/0321 01006KT CAVOK", "TAF LFGJ 031100Z 0312/0321 04015KT 9999 BKN020 TEMPO 0312/0317 04015G25KT", "TAF LFJL 031100Z 0312/0412 06015KT 9999 SCT040", "TAF LFKB 030800Z 0309/0409 33015G25KT CAVOK TX19/0313Z TN08/0403Z BECMG 0311/0313 36010KT", "TAF LFKC 030800Z 0309/0409 03010KT CAVOK TX20/0313Z TN08/0403Z PROB40 TEMPO 0310/0313 02015G25KT TEMPO 0318/0323 VRB03KT", "TAF LFKF 030800Z 0309/0409 VRB03KT 9999 FEW065 OVC200 TEMPO 0309/0321 05010KT PROB30 TEMPO 0312/0315 05015G25KT BECMG 0321/0323 05010KT", "TAF LFKJ 030800Z 0309/0409 VRB03KT CAVOK BECMG 0312/0314 04010KT PROB40 TEMPO 0317/0321 33010KT TEMPO 0406/0409 FEW040TCU", "TAF LFKS 030800Z 0309/0409 36015G25KT CAVOK TEMPO 0310/0318 36020G30KT BECMG 0403/0405 01010KT", "TAF LFLB 030800Z 0309/0409 35010KT 9999 BKN028 BECMG 0313/0315 36015G25KT CAVOK", "TAF LFLC 031100Z 0312/0412 36010KT 9999 BKN018 TEMPO 0312/0314 4000 -DZ OVC005 BECMG 0321/0323 CAVOK", "TAF LFLL 031100Z 0312/0418 35010KT 9999 OVC011 BECMG 0312/0314 BKN016 TEMPO 0312/0318 35015G25KT BECMG 0318/0321 CAVOK PROB30 TEMPO 0400/0407 BKN012", "TAF LFLN 031100Z 0312/0321 36010KT 9999 BKN012 BECMG 0312/0314 BKN030 ", "TAF LFLP 030800Z 0309/0409 02008KT 9999 BKN035 BECMG 0312/0314 CAVOK TEMPO 0314/0323 02015G25KT", "TAF AMD LFLS 031008Z 0310/0409 34010KT 9999 BKN018 TEMPO 0310/0313 BKN012 PROB40 TEMPO 0310/0313 BKN007 BECMG 0318/0320 CAVOK PROB40 TEMPO 0400/0408 28004KT 1500 MIFG BKN016", "TAF LFLW 031100Z 0312/0321 34010KT 9999 BKN040 BECMG 0319/0321 VRB03KT", "TAF LFLX 031100Z 0312/0418 03010KT 9999 SCT015 OVC020 BECMG 0313/0316 CAVOK", "TAF LFLY 031100Z 0312/0412 35010KT 9999 OVC011 BECMG 0312/0314 BKN016 TEMPO 0312/0318 35015G25KT BECMG 0318/0321 CAVOK PROB30 TEMPO 0400/0407 BKN012", "TAF LFMD 030800Z 0309/0409 VRB03KT CAVOK BECMG 0310/0312 19010KT TEMPO 0312/0318 VRB15G25KT SHRA SCT060CB PROB40 TEMPO 0313/0317 TSRA BKN050CB BECMG 0318/0320 27006KT TEMPO 0322/0404 07015G25KT", "TAF LFMI 030800Z 0309/0409 36014G25KT CAVOK TX20/0314Z TN07/0403Z BECMG 0315/0317 34020G35KT BECMG 0401/0403 01015KT PROB30 TEMPO 0401/0409 -SHRA SCT060TCU", "TAF LFMK 030800Z 0309/0409 30015KT 9999 BKN035 TEMPO 0309/0317 30020G30KT BECMG 0406/0408 CAVOK", "TAF LFML 030800Z 0309/0415 33005KT CAVOK TX20/0314Z TN06/0405Z BECMG 0309/0311 27010KT BECMG 0313/0315 33015KT PROB40 TEMPO 0316/0321 33018G28KT BECMG 0400/0402 VRB03KT TEMPO 0403/0414 SHRA SCT050TCU BECMG 0407/0409 33010KT PROB30 TEMPO 0410/0414 4000 -TSRA SCT040CB BECMG 0412/0414 17010KT", "TAF LFMN 030800Z 0309/0415 32005KT CAVOK BECMG 0310/0312 19010KT TEMPO 0312/0318 VRB15G25KT SHRA SCT060CB BECMG 0319/0321 34010KT TEMPO 0322/0404 08017KT BECMG 0408/0410 10015KT TEMPO 0411/0415 FEW050CB BECMG 0413/0415 17008KT", "TAF LFMO 030800Z 0309/0409 35020G30KT CAVOK TX16/0314Z TN04/0406Z TEMPO 0310/0322 35025G40KT", "TAF LFMP 030800Z 0309/0409 31020G35KT CAVOK BECMG 0317/0319 31015G25KT BECMG 0321/0323 31010KT", "TAF LFMT 030800Z 0309/0409 36010KT CAVOK TEMPO 0309/0316 02015G25KT", "TAF LFMU 030800Z 0309/0409 31012KT CAVOK TEMPO 0310/0313 33015G25KT TEMPO 0313/0318 33020G30KT BECMG 0402/0404 VRB04KT", "TAF LFMV 030800Z 0309/0409 35020G30KT CAVOK TEMPO 0315/0322 35025G40KT PROB30 TEMPO 0402/0409 SCT040TCU TEMPO 0405/0409 35010KT", "TAF LFMY 030800Z 0309/0409 33010G20KT CAVOK TX20/0312Z TN06/0404Z TEMPO 0314/0317 33015G30KT TEMPO 0317/0322 33020G35KT PROB30 TEMPO 0408/0409 -SHRA FEW060TCU", "TAF LFOA 030800Z 0309/0409 03013KT 8000 SCT008 BKN013 TX13/0314Z TN00/0405Z BECMG 0309/0312 SCT025", "TAF LFOB 031100Z 0312/0412 02010KT 9999 BKN030", "TAF LFOE 030800Z 0309/0409 06010KT CAVOK", "TAF LFOH 031100Z 0312/0412 08010KT CAVOK", "TAF LFOJ 030800Z 0309/0409 03013KT 9999 BKN025 TX12/0315Z TN00/0404Z TEMPO 0309/0311 BKN012 BKN015", "TAF LFOK 031100Z 0312/0412 05012KT 9999 SCT030", "TAF LFOP 031100Z 0312/0321 07010KT 9999 BKN025", "TAF LFOT 031100Z 0312/0412 04010KT 9999 FEW020 BKN030 BECMG 0312/0315 CAVOK", "TAF LFPB 031100Z 0312/0412 06015KT 9999 FEW040", "TAF LFPG 031100Z 0312/0418 06015KT 9999 FEW040 TX12/0315Z TN01/0406Z", "TAF LFPN 031100Z 0312/0321 05011KT 9999 FEW030", "TAF LFPO 031100Z 0312/0418 06012KT CAVOK", "TAF LFPV 030800Z 0309/0409 06010KT 9999 BKN028 TX13/0315Z TN01/0406Z BECMG 0312/0314 CAVOK", "TAF LFQQ 031100Z 0312/0418 04012KT CAVOK", "TAF LFRB 031100Z 0312/0418 07010KT CAVOK BECMG 0322/0324 VRB05KT TEMPO 0400/0408 3000 BR PROB40 TEMPO 0402/0408 0500 FG VV///", "TAF LFRC 031100Z 0312/0321 08012KT 9999 SCT025 TEMPO 0312/0320 08015G25KT", "TAF LFRD 031100Z 0312/0412 07010KT CAVOK BECMG 0400/0402 VRB05KT TEMPO 0400/0409 2000 BR PROB40 TEMPO 0402/0408 0500 FG VV///", "TAF LFRG 031100Z 0312/0321 07010KT CAVOK", "TAF LFRH 031100Z 0312/0412 08010KT 9999 FEW020", "TAF LFRI 031100Z 0312/0412 05008KT 9999 BKN017", "TAF LFRJ 031100Z 0312/0321 06010KT CAVOK", "TAF LFRK 031100Z 0312/0321 05010KT CAVOK", "TAF LFRL 031100Z 0312/0412 08006KT CAVOK TEMPO 0323/0406 3000 BR", "TAF LFRM 031100Z 0312/0412 04008KT 9999 BKN020", "TAF LFRN 031100Z 0312/0412 06010KT 9999 SCT020 BECMG 0318/0320 VRB05KT TEMPO 0400/0408 3000 BR PROB40 TEMPO 0404/0408 0500 FG", "TAF LFRQ 031100Z 0312/0412 08010KT CAVOK BECMG 0314/0316 VRB05KT TEMPO 0320/0402 05010KT PROB40 TEMPO 0402/0408 2000 BR", "TAF LFRS 031100Z 0312/0418 05010KT 9999 BKN020", "TAF LFRZ 031100Z 0312/0412 06011KT 9999 BKN020", "TAF LFSB 031100Z 0312/0412 36008KT 9999 FEW025 BKN040 PROB40 0312/0324 11010KT", "TAF LFSI 030800Z 0309/0409 07012KT CAVOK", "TAF LFSL 031100Z 0312/0321 33010KT 9999 BKN025 BECMG 0318/0320 03005KT CAVOK", "TAF LFSO 030800Z 0309/0409 06010KT 9999 SCT025 TEMPO 0309/0318 07015G25KT", "TAF LFST 031100Z 0312/0412 03015KT 9999 BKN045 TEMPO 0312/0319 04017G27KT", "TAF LFSX 030800Z 0309/0409 19005KT 9999 BKN011 FM031030 06013KT 9999 SCT020", "TAF LFTH 030800Z 0309/0409 33008KT CAVOK BECMG 0310/0312 23010KT PROB40 TEMPO 0314/0320 23010G20KT 8000 SHRA FEW060TCU BECMG 0319/0321 06008KT BECMG 0407/0409 10010G20KT", "TAF LFTW 030800Z 0309/0409 36015KT CAVOK TEMPO 0309/0403 36020G30KT TEMPO 0403/0409 01015G25KT", "TAF LFVP 031100Z 0312/0321 28025G35KT 9999 BKN030 BECMG 0315/0318 28030G40KT", "TAF LFYR 030800Z 0309/0409 02005KT 9999 BKN013 BECMG 0309/0311 BKN018 ", "TAF LGAD 031100Z 0312/0321 15016KT 9999 SCT020 BKN080 PROB40 TEMPO 0312/0321 5000 RA PROB40 TEMPO 0312/0315 2000 TSRA FEW016CB BKN020 BKN080", "TAF LGAL 031100Z 0312/0321 07015KT 9999 FEW020 SCT040 TEMPO 0312/0318 07015G25KT PROB40 TEMPO 0312/0321 5000 RA FEW018TCU SCT020 BKN030 PROB30 TEMPO 0318/0321 3000 TSRA SCT008 FEW018CB BKN020", "TAF LGAV 031100Z 0312/0412 12010KT 9999 SCT020 BKN030 BKN070 BECMG 0312/0314 18015KT TEMPO 0313/0318 18014G24KT PROB40 TEMPO 0312/0318 5000 RA FEW018TCU BKN025 BKN070 PROB40 TEMPO 0321/0412 5000 RA SCT012 FEW018TCU BKN070 PROB30 TEMPO 0322/0407 5000 TSRA FEW010 FEW018CB BKN020 BKN070 TEMPO 0321/0403 19013G23KT", "TAF LGBL 031100Z 0312/0321 10012G22KT 9999 FEW010 BKN020 OVC080 PROB40 TEMPO 0312/0318 5000 RA PROB40 TEMPO 0312/0318 2000 TSRA FEW016CB BKN020 OVC080", "TAF LGEL 031100Z 0312/0412 16012KT 9999 FEW025 SCT030 BKN070 TEMPO 0313/0324 17012G22KT PROB40 TEMPO 0312/0319 5000 RA FEW018TCU BKN025 BKN070 PROB30 TEMPO 0312/0315 5000 TSRA FEW010 FEW018CB BKN020 BKN070 PROB40 TEMPO 0322/0409 5000 RA SCT012 FEW018TCU BKN070 PROB30 TEMPO 0322/0403 5000 TSRA FEW010 FEW018CB BKN020 BKN070 BECMG 0404/0406 VRB05KT", "TAF LGHI 031100Z 0312/0321 18016KT 9999 FEW025 TEMPO 0312/0318 17016G28KT SCT025 PROB40 TEMPO 0315/0321 5000 SCT012 FEW018TCU BKN025 PROB40 TEMPO 0316/0321 3000 TSRA SCT008 FEW018CB BKN020", "TAF LGIO 031100Z 0312/0321 08015KT 9999 FEW010 BKN025 BKN080 TEMPO 0312/0321 5000 RA FEW008 BKN020 OVC070 PROB40 TEMPO 0312/0318 3000 TSRA SCT008 FEW016CB BKN020 OVC070 BECMG 0312/0314 VRB03KT", "TAF LGIR 031100Z 0312/0412 18025G35KT 9999 SCT020 SCT080 PROB40 TEMPO 0316/0321 5000 RA FEW018TCU BKN020 BKN080 PROB30 TEMPO 0403/0409 5000 RA FEW018TCU BKN020 BKN080 BECMG 0313/0315 20010KT BECMG 0316/0318 VRB05KT BECMG 0319/0321 18012KT TEMPO 0402/0409 19012G22KT", "TAF LGKC 031100Z 0312/0321 22012KT 9000 FEW012 SCT020 TEMPO 0318/0321 21012G22KT PROB40 TEMPO 0312/0321 5000 RA SCT010 FEW018TCU BKN020 PROB30 TEMPO 0312/0315 3000 TSRA SCT008 FEW018CB BKN020", "TAF LGKF 031100Z 0312/0321 VRB05KT 9999 FEW014 FEW018TCU SCT020 BKN070 BECMG 0313/0315 18010KT PROB40 TEMPO 0312/0321 5000 RA SCT010 FEW018TCU BKN025 OVC070 PROB40 TEMPO 0312/0318 3000 TSRA SCT008 FEW018CB BKN020 OVC070", "TAF LGKL 031100Z 0312/0321 17012KT 9999 SCT020 BKN080 PROB40 TEMPO 0312/0321 4000 RA PROB40 TEMPO 0312/0321 2000 TSRA FEW016CB BKN020 BKN080", "TAF LGKO 031100Z 0312/0412 14025KT 9999 FEW014 SCT025 TEMPO 0312/0403 14024G34KT PROB40 TEMPO 0321/0406 5000 RA FEW018TCU BKN020 BECMG 0404/0406 18017KT TEMPO 0406/0410 19017G27KT", "TAF LGKP 031100Z 0312/0321 14015G30KT 9999 FEW018", "TAF LGKR 031100Z 0312/0412 VRB05KT 9999 SCT012 SCT035 BKN080 PROB40 TEMPO 0312/0400 5000 RA SCT010 SCT018TCU BKN030 BKN080 PROB40 TEMPO 0312/0316 3000 TSRA SCT008 SCT016CB BKN020 OVC070 TEMPO 0316/0321 14010KT BECMG 0400/0402 VRB05KT BECMG 0407/0409 32010KT TEMPO 0409/0412 32010G20KT", "TAF LGKV 031100Z 0312/0412 07015KT 9999 FEW010 BKN025 BKN080 TEMPO 0312/0412 5000 RA FEW008 BKN025 OVC070 PROB40 TEMPO 0312/0324 3000 TSRA SCT008 FEW018CB BKN020 OVC070 BECMG 0322/0324 VRB03KT PROB30 TEMPO 0406/0412 3000 TSRA SCT008 FEW018CB BKN020 OVC070", "TAF LGLM 031100Z 0312/0321 07010KT 9999 FEW010 SCT020 PROB40 TEMPO 0315/0321 5000 RA BKN020 PROB40 TEMPO 0315/0321 2000 TSRA FEW016CB BKN020 BECMG 0313/0315 18015G25KT", "TAF LGLR 031100Z 0312/0321 07010KT 9999 FEW008 BKN020 OVC080 PROB40 TEMPO 0312/0318 5000 RA PROB40 TEMPO 0312/0318 2000 TSRA FEW018CB BKN020 OVC080 TEMPO 0312/0314 09015G25KT", "TAF LGMK 031100Z 0312/0321 14017G27KT 9999 SCT020 TEMPO 0312/0315 22013KT BECMG 0316/0318 16012KT PROB40 TEMPO 0313/0318 5000 RA FEW018TCU SCT025", "TAF LGMT 031100Z 0312/0321 17012KT 9999 SCT020 TEMPO 0312/0316 18012G22KT TEMPO 0318/0321 18012G22KT PROB40 TEMPO 0318/0321 5000 RA FEW018TCU SCT020 BKN030", "TAF LGPZ 031100Z 0312/0412 15015KT 9999 FEW011 SCT030 BKN080 PROB40 TEMPO 0312/0403 5000 RA SCT012 FEW018TCU BKN020 BKN080 PROB40 TEMPO 0312/0316 2000 TSRA SCT008 SCT016CB BKN020 OVC070 BECMG 0312/0314 VRB05KT BECMG 0319/0321 08010KT BECMG 0401/0403 VRB05KT BECMG 0410/0412 28012KT", "TAF LGRP 031100Z 0312/0412 10015G25KT 9999 FEW010 SCT018 PROB40 TEMPO 0401/0409 5000 RA FEW018TCU BKN020 PROB30 TEMPO 0401/0404 5000 TSRA SCT010 FEW018CB BKN020 BECMG 0407/0409 18014KT", "TAF LGRX 031100Z 0312/0321 18015KT 9999 SCT020 BKN080 PROB40 TEMPO 0312/0321 5000 RA PROB40 TEMPO 0312/0315 2000 TSRA FEW016CB BKN020 BKN080", "TAF LGSA 031100Z 0312/0412 14016G26KT 9999 SCT020 SCT080 BECMG 0312/0314 26014KT PROB40 TEMPO 0313/0318 5000 RA FEW018TCU BKN025 BKN080 BECMG 0319/0321 VRB05KT PROB40 TEMPO 0322/0409 5000 RA FEW018TCU BKN025 BKN080 BECMG 0407/0409 25014KT TEMPO 0410/0412 26014G24KT", "TAF LGSK 031100Z 0312/0321 09014G24KT 8000 SCT010 BKN025 PROB40 TEMPO 0312/0318 5000 RA FEW018TCU BKN020 BECMG 0315/0317 16016KT", "TAF LGSM 031100Z 0312/0321 15017KT 9999 SCT020 TEMPO 0312/0318 15017G29KT", "TAF LGSR 031100Z 0312/0412 16020KT 9999 FEW018 SCT025 BECMG 0313/0315 26010KT TEMPO 0316/0324 VRB05KT PROB30 TEMPO 0318/0321 5000 RA SCT012 FEW018TCU BKN020 BECMG 0401/0403 19016KT", "TAF LGST 031100Z 0312/0321 17024KT 9999 FEW018 SCT080 TEMPO 0312/0313 17024G36KT BECMG 0316/0318 18010KT", "TAF LGSY 031100Z 0312/0321 16015G25KT 9999 FEW008 SCT020 PROB40 TEMPO 0312/0318 5000 RA BKN020", "TAF LGTG 031100Z 0312/0321 18010KT 9999 SCT020 BKN070 PROB40 TEMPO 0312/0315 5000 RA PROB30 TEMPO 0312/0315 2000 TSRA FEW018CB SCT020 BKN070", "TAF LGTL 031100Z 0312/0321 18015G30KT 9999 FEW020 BKN080 PROB40 TEMPO 0315/0318 5000 RA BECMG 0313/0315 18010KT", "TAF LGTS 031100Z 0312/0412 08015KT 9999 FEW010 BKN025 TEMPO 0312/0322 5000 RA FEW008 BKN025 PROB40 TEMPO 0312/0321 08015G25KT 3000 TSRA SCT008 FEW018CB BKN020 BECMG 0318/0320 VRB03KT BECMG 0404/0406 34018KT TEMPO 0404/0412 5000 RA FEW008 BKN025 PROB40 TEMPO 0406/0412 3000 TSRA SCT008 FEW018CB BKN020", "TAF LGZA 031100Z 0312/0321 23012KT 9999 FEW015 FEW018TCU SCT020 PROB40 TEMPO 0312/0321 5000 RA SCT010 FEW018TCU BKN020 BKN070 PROB40 TEMPO 0312/0321 3000 TSRA SCT008 FEW018CB BKN020 OVC070 BECMG 0316/0318 17014KT", "TAF LHBP 031115Z 0312/0412 36005KT CAVOK TEMPO 0312/0319 07012KT 7000 -SHRA SCT040 BKN060 BECMG 0319/0322 02012KT TEMPO 0408/0411 FEW040", "TAF LHDC 031115Z 0312/0321 01015KT CAVOK TEMPO 0312/0315 01020G30KT SCT040", "TAF LHKE 031115Z 0312/0321 32010KT 9999 SCT035 BKN050 BECMG 0312/0315 03012KT CAVOK TEMPO 0315/0321 04016G26KT", "TAF LHPA 031115Z 0312/0412 35020G32KT CAVOK BECMG 0316/0320 35015G25KT PROB40 TEMPO 0320/0404 34012KT 9999 BKN040 BECMG 0405/0409 35022G35KT 9999 SCT040 BKN200", "TAF LHPP 031115Z 0312/0321 35011KT 9999 BKN045 BECMG 0312/0314 CAVOK PROB30 TEMPO 0316/0321 35015G25KT -SHRA SCT040 BKN055", "TAF LHPR 031115Z 0312/0321 34022G32KT CAVOK BECMG 0316/0319 36014KT", "TAF LHSM 031115Z 0312/0321 01015G25KT CAVOK TEMPO 0312/0321 01022G34KT", "TAF LHSN 031115Z 0312/0321 03012KT CAVOK TEMPO 0312/0321 03016G28KT", "TAF LIBA 031100Z 0312/0321 02012KT 9999 SCT030 SCT060 TEMPO 0312/0316 33015G28KT TEMPO 0316/0618 03012G25KT", "TAF LIBC 031100Z 0312/0412 02013KT 6000 RA SCT020 BKN030 TEMPO 0312/0318 02018G30KT 2000 TSRA BECMG 0400/0402 02018G28KT NSW", "TAF LIBD 031100Z 0312/0412 02016KT 9999 SCT030 TEMPO 0312/0318 03016G26KT TEMPO 0312/0318 SHRA TEMPO 0318/0409 RA TEMPO 0400/0405 03016G26KT BECMG 0410/0412 33018G28KT", "TAF AMD LIBF 031137Z 0312/0412 34015KT 9999 SCT040 TEMPO 0312/0316 34018G28KT SHRA TEMPO 0315/0324 RA", "TAF LIBG 031100Z 0312/0321 03015KT 9999 RA FEW040 TEMPO 0312/0318 03018G28KT", "TAF LIBN 031100Z 0312/0321 04015G25KT 7000 RA FEW015 SCT020 BKN050 TEMPO 0312/0316 04020G33KT 4000 SHRA FEW012CB BKN020", "TAF LIBP 031100Z 0312/0412 02015KT 9999 FEW020 TEMPO 0312/0324 02018G28KT", "TAF LIBR 031100Z 0312/0412 03020G30KT 9999 BKN040 TEMPO 0312/0324 SHRA TEMPO 0400/0406 RA", "TAF LIBV 031100Z 0312/0321 01020G30KT 6000 RA BKN007 TEMPO 0312/0315 02020G35KT 3000 SHRA BKN005 FEW018CB TEMPO 0315/0321 2500 RA BR BKN004", "TAF LICA 031100Z 0312/0412 31018KT 9999 FEW020 OVC040 TEMPO 0312/0315 4000 SHRA BECMG 0400/0402 33008KT BECMG 0408/0410 27012KT", "TAF LICB 031100Z 0312/0412 28010KT 9999 SCT030 TEMPO 0312/0322 28020G30KT", "TAF LICC 031100Z 0312/0412 08010KT 9999 SCT020 BKN040 BECMG 0313/0315 28012KT BECMG 0409/0411 08010KT", "TAF LICD 031100Z 0312/0412 35025G38KT 9999 SCT030 BECMG 0404/0406 35018KT", "TAF LICG 031100Z 0312/0321 30025G40KT 9999 SCT020 BKN045 BECMG 0314/0316 30018G28KT", "TAF LICJ 031100Z 0312/0412 02015KT 9999 SCT030 TEMPO 0312/0318 01020G30KT", "TAF LICR 031100Z 0312/0412 34010KT 9999 SCT040 TEMPO 0312/0322 SHRA TEMPO 0312/0321 35020G30KT", "TAF LICT 031100Z 0312/0321 34018KT 9999 FEW015 SCT020 TEMPO 0312/0315 35020G32KT", "TAF LICZ 031100Z 0312/0412 30008KT 9999 SCT030 BKN060 TEMPO 0312/0315 34010KT 6000 RA SCT025 BKN040 BECMG 0402/0404 VRB03KT CAVOK BECMG 0406/0408 9999 FEW020 SCT050", "TAF LIEA 031100Z 0312/0412 34018G28KT CAVOK BECMG 0317/0319 34016KT", "TAF LIED 030500Z 0306/0315 33005KT FEW020 BECMG 0308/0310 33015KT 9999 SCT020 SCT040 TEMPO 0311/0315 SCT025 FEW030CB BKN060", "TAF LIEE 031100Z 0312/0412 34016KT 9999 SCT040 PROB40 TEMPO 0314/0320 TSRA BECMG 0316/0318 33006KT", "TAF LIEO 031100Z 0312/0412 01018G28KT 9999 SCT030 BECMG 0314/0316 01016KT", "TAF LIMC 031100Z 0312/0418 13012KT CAVOK BECMG 0318/0320 07008KT BECMG 0406/0408 13010KT", "TAF LIME 031100Z 0312/0412 14015KT 9999 FEW040 BECMG 0318/0320 08008KT BECMG 0407/0409 13012KT", "TAF LIMF 031100Z 0312/0412 12010KT 9999 FEW070 BECMG 0314/0316 VRB06KT TEMPO 0316/0323 4000 TSRA BECMG 0408/0410 06010KT", "TAF LIMG 031100Z 0312/0412 06010KT 9999 SCT070 BECMG 0318/0320 VRB05KT TEMPO 0321/0403 4000 TSRA BECMG 0408/0410 06012KT", "TAF LIMJ 031100Z 0312/0412 16012KT 9999 FEW070 PROB30 TEMPO 0312/0315 TSRA BECMG 0318/0320 04010KT TEMPO 0321/0403 TSRA", "TAF LIML 031100Z 0312/0412 12015KT CAVOK TEMPO 0312/0318 12015G25KT BECMG 0400/0402 06010KT BECMG 0407/0409 13013KT", "TAF LIMN 031100Z 0312/0321 13010KT 9999 SCT050 PROB30 TEMPO 0312/0314 7000 RA FEW020TCU SCT030", "TAF LIMP 031100Z 0312/0412 10015KT 9999 FEW050 BECMG 0400/0402 13005KT", "TAF LIMW 031100Z 0312/0321 26008KT 9999 SCT080", "TAF LIMZ 031100Z 0312/0412 06010KT 9999 FEW060 BECMG 0315/0317 30008KT TEMPO 0317/0401 4000 TSRA BECMG 0408/0410 02010KT", "TAF LIPA 031100Z 0312/0321 VRB03KT CAVOK PROB30 TEMPO 0312/0314 8000 RA FEW020TCU SCT040", "TAF LIPB 031100Z 0312/0412 01012KT 9999 SCT070 BECMG 0317/0319 VRB05KT BECMG 0410/0412 01010KT", "TAF LIPC 031100Z 0312/0321 07015KT 9999 FEW030", "TAF LIPE 031100Z 0312/0412 VRB05KT 9999 FEW030 BECMG 0312/0314 08012KT BECMG 0316/0318 VRB05KT BECMG 0322/0324 08013KT", "TAF LIPH 031100Z 0312/0412 08007KT CAVOK", "TAF LIPI 031100Z 0312/0321 09010G20KT CAVOK", "TAF LIPK 031100Z 0312/0412 08015KT 9999 SCT020 BKN030", "TAF LIPL 031100Z 0312/0321 13013KT 9999 SCT035 TEMPO 0315/0318 FEW030CB SCT035", "TAF LIPO 031100Z 0312/0412 12015KT 9999 FEW040 TEMPO 0314/0320 SHRA BECMG 0318/0320 06010KT BECMG 0407/0409 12013KT", "TAF LIPQ 031100Z 0312/0412 08013KT 9999 BKN080 TEMPO 0312/0315 08018G28KT", "TAF LIPR 031100Z 0312/0412 06016KT 9999 FEW020 SCT030 BECMG 0315/0317 07018G28KT BECMG 0408/0410 07015KT", "TAF LIPS 031100Z 0312/0321 08008KT 9999 SCT030 SCT070 PROB30 TEMPO 0314/0318 09010G20KT FEW025CB", "TAF LIPX 031100Z 0312/0412 12015KT 9999 FEW040 TEMPO 0315/0320 SHRA BECMG 0318/0320 06012KT BECMG 0407/0409 12013KT", "TAF LIPY 031100Z 0312/0412 06015KT 9999 SCT080 TEMPO 0316/0324 06015G25KT", "TAF LIPZ 031100Z 0312/0418 08015KT CAVOK TEMPO 0318/0324 07018G30KT BECMG 0410/0412 VRB05KT", "TAF LIQW 031100Z 0312/0321 36008KT 9999 FEW040 BECMG 0316/0318 03018KT TEMPO 0316/0318 03017G27KT", "TAF LIRA 031100Z 0312/0412 03013KT CAVOK", "TAF LIRE 031100Z 0312/0321 02015KT CAVOK", "TAF LIRF 031100Z 0312/0418 01020G30KT CAVOK BECMG 0320/0322 02014KT BECMG 0416/0418 02004KT", "TAF LIRG 031100Z 0312/0321 03020KT 9999 FEW030 TEMPO 0312/0314 02017G27KT", "TAF LIRH 031100Z 0312/0321 03010KT 9999 FEW040 TEMPO 0312/0315 02015G25KT SCT035", "TAF LIRL 031100Z 0312/0321 35005KT 9999 FEW070 TEMPO 0312/0316 02017KT", "TAF LIRM 030500Z 0306/0315 35012KT 9999 FEW030 SCT070", "TAF LIRN 031100Z 0312/0412 04024G34KT 9999 SCT040 BECMG 0404/0406 05012KT", "TAF LIRP 031100Z 0312/0412 07010KT 9999 SCT060 BECMG 0318/0320 05003KT CAVOK BECMG 0406/0408 07010KT", "TAF LIRQ 031100Z 0312/0412 04016KT 9999 FEW050 BECMG 0318/0320 04006KT BECMG 0406/0408 04016KT", "TAF LIRS 031100Z 0312/0321 02018KT 9999 FEW025 TEMPO 0312/0317 03020G30KT", "TAF LIRU 031100Z 0312/0321 36018G28KT CAVOK", "TAF LIRV 031100Z 0312/0321 02012KT CAVOK TEMPO 0312/0315 02013G25KT", "TAF LIRZ 031100Z 0312/0412 03018G28KT 9999 FEW030 BECMG 0318/0320 03018KT BECMG 0409/0411 03018G28KT", "TAF LJCE 031100Z 0312/0321 01005KT 9999 BKN045 TEMPO 0312/0321 07010G20KT PROB40 TEMPO 0312/0321 07015G25KT", "TAF LJLJ 031100Z 0312/0412 11007KT 9999 SCT060 PROB30 TEMPO 0312/0318 12012KT", "TAF LJMB 031100Z 0312/0412 02012KT 9999 FEW050 TEMPO 0312/0412 01017G30KT", "TAF LJPZ 031100Z 0312/0321 06014KT CAVOK TEMPO 0312/0321 06018G30KT", "TAF LKCV 030500Z 0306/0406 01012KT 9999 BKN030 TEMPO 0306/0310 CAVOK TEMPO 0308/0317 01018KT PROB30 TEMPO 0308/0316 01016G26KT", "TAF LKKB 030500Z 0306/0406 34008KT CAVOK BECMG 0307/0309 35012KT BKN040 TEMPO 0308/0320 01018KT BECMG 0317/0319 34006KT CAVOK TEMPO 0322/0406 SCT045", "TAF LKKV 031100Z 0312/0412 02007KT 9999 SCT035 TEMPO 0312/0320 BKN030 TEMPO 0312/0316 02014KT BECMG 0319/0321 03004KT TEMPO 0409/0412 BKN030", "TAF LKMT 031100Z 0312/0412 01012KT 9999 BKN035 TEMPO 0312/0412 02016G26KT TEMPO 0312/0412 BKN027", "TAF LKNA 030500Z 0306/0406 35010KT 9999 BKN030 TEMPO 0306/0312 BKN020 TEMPO 0306/0318 02018G28KT BECMG 0320/0322 CAVOK", "TAF LKPR 031100Z 0312/0418 36010KT 9999 SCT040 TEMPO 0312/0416 9999 BKN035 TEMPO 0312/0318 02016G28KT BECMG 0320/0322 33005KT BECMG 0408/0410 36010KT TEMPO 0411/0417 36012G24KT", "TAF LKTB 031100Z 0312/0412 36012KT CAVOK TEMPO 0312/0412 02014G26KT TEMPO 0312/0412 9999 BKN045", "TAF LLBG 031100Z 0312/0412 30008KT CAVOK BECMG 0314/0316 02005KT BECMG 0319/0321 VRB03KT BECMG 0406/0408 24005KT TX28/0312Z TN15/0404Z", "TAF LLER 031101Z 0312/0412 20010KT CAVOK PROB40 TEMPO 0312/0315 18016KT BECMG 0319/0321 VRB03KT BECMG 0406/0408 24008KT TX32/0313Z TN19/0404Z", "TAF LLHA 031100Z 0312/0412 34010KT CAVOK BECMG 0315/0317 VRB03KT BECMG 0319/0321 13008KT BECMG 0406/0408 20008KT TX25/0312Z TN17/0404Z", "TAF LLHZ 031100Z 0312/0412 33008KT CAVOK BECMG 0315/0317 04005KT BECMG 0319/0321 VRB03KT BECMG 0406/0408 23005KT TX26/0312Z TN15/0404Z", "TAF LLIB 031100Z 0312/0412 17006KT CAVOK BECMG 0313/0315 VRB03KT BECMG 0406/0408 22007KT TX26/0312Z TN15/0403Z", "TAF LMML 031100Z 0312/0412 30022G32KT 9999 SCT020 TEMPO 0312/0321 8000 SHRA BKN019TCU PROB30 0312/0321 4000 TSRAGS BKN015CB BECMG 0313/0316 32028G42KT BECMG 0319/0322 32022G32KT BECMG 0401/0404 29020G30KT", "TAF LOAN 031117Z 0312/0321 35015G30KT 9999 FEW030 BKN050 BECMG 0317/0319 01015KT", "TAF LOAV 031117Z 0312/0321 35015G30KT 9999 FEW030 BKN050 BECMG 0317/0319 01015KT", "TAF LOWG 031115Z 0312/0412 01010KT 9999 FEW060 TX10/0313Z TNM02/0404Z TEMPO 0312/0320 01015G30KT TEMPO 0408/0412 02015G25KT", "TAF LOWI 031115Z 0312/0412 08007KT 9999 SCT040 SCT060 TX06/0313Z TNM01/0404Z TEMPO 0312/0315 -RA TEMPO 0315/0321 -SHSN", "TAF LOWK 031115Z 0312/0412 04008KT 9999 FEW060 TX09/0312Z TNM01/0405Z TEMPO 0312/0318 02015G25KT TEMPO 0409/0412 02012G22KT", "TAF LOWL 031115Z 0312/0412 07010KT 9999 FEW035 BKN050 TX05/0314Z TNM01/0405Z BECMG 0319/0321 01005KT BECMG 0406/0408 35012KT", "TAF LOWS 031115Z 0312/0412 01007KT 9999 FEW025 SCT040 BKN060 TX05/0312Z TNM04/0404Z BECMG 0321/0323 VRB02KT PROB30 TEMPO 0402/0406 1200 BCFG FEW002 BECMG 0408/0410 01007KT", "TAF LOWW 031115Z 0312/0418 35015G25KT 9999 FEW050 TX05/0312Z TNM00/0405Z PROB30 TEMPO 0312/0316 36020G30KT BECMG 0318/0320 35013KT BECMG 0406/0408 35015G25KT TEMPO 0409/0415 36020G30KT", "TAF LOXA 031115Z 0312/0321 VRB03KT 9999 FEW020 SCT030 BKN050 TEMPO 0312/0318 06008KT -SHSN FEW010 SCT020 BKN040", "TAF LOXN 031115Z 0312/0321 35015KT 9999 BKN045 TEMPO 0312/0315 35018G30KT", "TAF LOXT 031115Z 0312/0321 36013KT 9999 FEW040 BKN060", "TAF LOXZ 031115Z 0312/0321 06010KT 9999 FEW040 SCT050 TEMPO 0312/0317 03012G25KT", "TAF LPAR 031102Z 0312/0321 VRB02KT CAVOK BECMG 0313/0315 34010KT", "TAF LPAZ 031100Z 0312/0418 35010KT 9999 SCT045 BECMG 0312/0315 03010KT TEMPO 0312/0418 FEW020 BKN045", "TAF LPBJ 031101Z 0312/0412 VRB02KT CAVOK BECMG 0314/0316 32008KT BECMG 0407/0409 10005KT", "TAF LPCS 031100Z 0312/0321 VRB05KT CAVOK BECMG 0312/0315 34012KT 9999 SCT045 PROB40 TEMPO 0318/0321 6000 -RA SCT012 BKN030 FEW040TCU", "TAF LPFR 031100Z 0312/0412 14010KT CAVOK BECMG 0313/0315 24012KT BECMG 0318/0321 32013KT BECMG 0401/0404 01010KT 9999 FEW045 PROB40 TEMPO 0404/0412 6000 -RA SCT012 BKN030 FEW040CB BECMG 0408/0410 10012KT", "TAF LPHR 031100Z 0312/0321 VRB05KT 9999 SCT035 TEMPO 0312/0321 27007KT FEW018 BKN030", "TAF LPLA 031101Z 0312/0412 30007KT 9999 SCT020", "TAF LPMA 031100Z 0312/0412 01013KT 9999 SCT015 TEMPO 0312/0316 01018G30KT BECMG 0316/0318 01018KT SCT015 SCT030 TEMPO 0318/0412 01023G38KT PROB40 TEMPO 0318/0324 8000 SHRA BKN013", "TAF LPMR 031101Z 0312/0412 VRB02KT 9999 FEW045 BECMG 0313/0315 35010KT PROB40 TEMPO 0319/0405 8000 -RA SCT015 SCT030 BECMG 0400/0402 01005KT", "TAF LPMT 031101Z 0312/0412 33010KT 9999 FEW045 PROB30 TEMPO 0322/0408 8000 -RA FEW020 SCT035", "TAF LPOV 031101Z 0312/0412 VRB02KT 9999 FEW045 BECMG 0312/0314 33008KT PROB40 TEMPO 0320/0403 8000 -RA SCT012 BKN035 BECMG 0400/0402 06005KT", "TAF LPPD 031100Z 0312/0412 35010KT 9999 SCT040 BECMG 0312/0315 03010KT TEMPO 0312/0412 FEW020 BKN035", "TAF LPPR 031100Z 0312/0412 24005KT CAVOK BECMG 0312/0315 32010KT 9999 FEW045 PROB30 TEMPO 0316/0324 8000 -RA SCT012 BKN040 BECMG 0400/0403 VRB02KT BECMG 0408/0410 08010KT CAVOK", "TAF LPPS 031100Z 0312/0418 35015KT 9999 SCT015 SCT030 TEMPO 0316/0418 36020G32KT PROB40 TEMPO 0316/0324 8000 SHRA BKN012", "TAF LPPT 031100Z 0312/0418 VRB05KT CAVOK BECMG 0312/0315 33012KT 9999 SCT045 PROB40 TEMPO 0318/0408 6000 -RA SCT012 BKN030 FEW040TCU BECMG 0408/0410 05008KT CAVOK BECMG 0414/0417 34012KT", "TAF LPST 031102Z 0312/0321 30010KT CAVOK TEMPO 0314/0318 32012G22KT", "TAF LQBK 031100Z 0312/0412 32007KT 9999 BKN030 TX07/0314Z TN02/0405Z PROB40 TEMPO 0318/0412 03012KT", "TAF LQMO 031100Z 0312/0412 02020G35KT 9999 FEW045 TX14/0314Z TN06/0405Z PROB40 TEMPO 0313/0409 02030G50KT", "TAF LQSA 031100Z 0312/0412 29012KT 9999 SCT018 BKN030 TX06/0312Z TNM01/0405Z TEMPO 0312/0320 35008KT RA BKN012 BKN025 TEMPO 0320/0408 35015G25KT 2500 SN BKN008 OVC020", "TAF LQTZ 031100Z 0312/0412 32010KT 9999 SCT010 BKN020 TX06/0314Z TN01/0405Z PROB30 TEMPO 0312/0317 3000 -RA BR BKN008 OVC020 PROB40 TEMPO 0404/0410 2000 -SN BR BKN007 OVC015", "TAF LRAR 031100Z 0312/0321 01018KT 9999 BKN030 TEMPO 0312/0316 01018G28KT BECMG 0316/0318 01025G35KT", "TAF LRBC 031100Z 0312/0321 36014KT 9999 BKN035", "TAF LRBM 031100Z 0312/0321 VRB04KT 9999 SCT030 BKN050 PROB30 TEMPO 0312/0314 FEW030CB BKN040 BECMG 0313/0315 33014KT BECMG 0316/0318 03010KT", "TAF LRBS 031100Z 0312/0412 08008KT 9999 SCT025 BECMG 0316/0318 08018KT 5000 -RA BKN010 OVC035 TEMPO 0321/0406 06020G35KT 1500 RA BR BKN005 OVC025 TEMPO 0407/0412 06020G35KT", "TAF LRCK 031100Z 0312/0412 10010KT 9999 SCT030 BECMG 0320/0322 04015KT TEMPO 0320/0401 5000 -RA BKN015 BKN025 BECMG 0402/0404 05016G28KT 5000 RA BKN015 OVC025 TEMPO 0405/0411 3000 SHRA BKN010 SCT020CB OVC025 BECMG 0410/0412 06015KT", "TAF LRCL 031100Z 0312/0321 30012KT 9999 SCT020 OVC035 PROB30 TEMPO 0314/0317 5000 -SHRA SCT015 SCT030CB OVC040 BECMG 0319/0321 5000 -RA BKN015 OVC025", "TAF LRCV 031100Z 0312/0321 08010KT 9999 SCT015 SCT035CB TEMPO 0312/0316 08016G26KT BECMG 0316/0318 08020KT 3000 RA BKN005 OVC020 TEMPO 0318/0321 08020G35KT 5000 -RA BKN010 OVC025", "TAF LRIA 031100Z 0312/0321 33012KT 9999 SCT020 BKN030 PROB40 TEMPO 0319/0321 BKN015 BKN025", "TAF LROD 031100Z 0312/0321 01010KT 9999 BKN030 BECMG 0313/0315 01020KT PROB30 TEMPO 0315/0318 01020G30KT", "TAF LROP 031100Z 0312/0412 08008KT 9999 SCT025 BECMG 0316/0318 08018KT 5000 -RA BKN010 OVC035 TEMPO 0321/0406 06020G35KT 1500 RA BR BKN005 OVC025 TEMPO 0407/0412 06020G35KT", "TAF LRSB 031100Z 0312/0412 VRB04KT 9999 SCT030 PROB40 TEMPO 0312/0317 5000 SHRA BKN010 BKN030CB BECMG 0317/0319 5000 -RA BKN010 OVC020 TEMPO 0402/0408 1500 -SN BR BKN005 OVC015", "TAF LRSM 031100Z 0312/0321 34015KT 9999 BKN040 TEMPO 0314/0318 34015G25KT", "TAF LRSV 031100Z 0312/0321 33014KT 9999 SCT015 BKN020 PROB30 TEMPO 0319/0321 BKN015", "TAF LRTC 031100Z 0312/0321 33010KT 9999 SCT025 BECMG 0314/0316 03008KT", "TAF LRTM 031100Z 0312/0321 32008KT 9999 BKN025 PROB40 TEMPO 0314/0317 5000 -SHRA SCT015 SCT020CB BKN030 BECMG 0318/0320 5000 -RA BKN010 OVC020", "TAF LRTR 031100Z 0312/0412 36016KT 9999 SCT030 TEMPO 0312/0316 01016G26KT BECMG 0316/0318 01025G35KT TEMPO 0400/0406 5000 -RA BECMG 0404/0406 01020KT 5000 RASN BKN015 BKN030 TEMPO 0406/0410 3000 SNRA BKN010 OVC020", "TAF LSGC 031125Z 0312/0321 05010KT 9999 BKN009 BECMG 0312/0314 SCT015 PROB40 TEMPO 0312/0317 04015G25KT BECMG 0314/0316 CAVOK", "TAF LSGG 031125Z 0312/0418 05015G25KT 9999 FEW020 BKN030 TX11/0314Z TN02/0405Z TX10/0414Z BECMG 0314/0317 CAVOK PROB40 TEMPO 0315/0406 04025G35KT", "TAF LSGS 031125Z 0312/0321 25010G25KT 9999 SCT040 BECMG 0313/0315 CAVOK BECMG 0317/0319 VRB02KT", "TAF LSZA 031125Z 0312/0321 01010KT CAVOK TEMPO 0312/0318 02015G25KT BECMG 0312/0315 9999 SCT050 PROB40 TEMPO 0316/0321 SHRA SCT040TCU", "TAF LSZB 031125Z 0312/0321 04008KT 9999 SCT020 BKN030 BECMG 0315/0318 CAVOK", "TAF LSZC 031125Z 0312/0321 35005KT 9999 BKN020", "TAF LSZG 031125Z 0312/0321 08012KT 9999 SCT030 TEMPO 0312/0321 08018G30KT BECMG 0313/0317 CAVOK", "TAF LSZH 031125Z 0312/0418 05010KT 9999 FEW025 BKN035 TX07/0314Z TNM01/0405Z TX08/0414Z TEMPO 0312/0318 05015G25KT BECMG 0317/0320 CAVOK PROB30 TEMPO 0403/0408 9999 SCT015 TEMPO 0410/0418 05015G25KT", "TAF LSZL 031125Z 0312/0321 11010KT CAVOK TEMPO 0312/0321 09018G32KT", "TAF LSZR 031125Z 0312/0321 03008KT 9999 SCT030 BKN040 BECMG 0318/0321 CAVOK", "TAF LSZS 031125Z 0312/0321 04008KT 9999 SCT065 TX04/0314Z TEMPO 0312/0315 CAVOK PROB40 TEMPO 0312/0318 02015G25KT", "TAF LTAB 031040Z 0312/0321 24008KT 9999 FEW040 BKN200 BECMG 0316/0319 CAVOK", "TAF LTAC 031040Z 0312/0412 22012KT 9999 SCT040 SCT100 BECMG 0313/0315 VRB02KT BECMG 0316/0318 CAVOK BECMG 0403/0406 SCT040 BKN100 BECMG 0406/0408 17014KT", "TAF LTAD 031040Z 0312/0321 24008KT 9999 FEW040 BKN200 BECMG 0316/0319 CAVOK", "TAF LTAE 031040Z 0312/0321 21012KT 9999 FEW040 SCT180 BECMG 0312/0316 VRB02KT CAVOK", "TAF LTAF 031040Z 0312/0412 VRB02KT 9999 SCT035 BECMG 0314/0316 CAVOK BECMG 0323/0401 03012KT BECMG 0408/0410 20009KT", "TAF LTAG 031040Z 0312/0412 VRB02KT 9999 SCT040 BECMG 0317/0319 03012KT", "TAF LTAH 031040Z 0312/0321 16015G25KT 9999 FEW035 BKN200 BECMG 0315/0318 13012KT CAVOK", "TAF LTAI 031040Z 0312/0412 16010KT 9999 SCT030 BECMG 0315/0318 34006KT BECMG 0408/0411 18020G30KT -SHRA FEW020CB BKN030", "TAF LTAJ 031040Z 0312/0412 VRB02KT 9999 SCT040 BECMG 0313/0315 CAVOK", "TAF LTAL 031040Z 0312/0321 24008KT 9999 SCT030 BKN090", "TAF LTAN 031040Z 0312/0321 20009KT 9999 FEW040 BKN100", "TAF LTAO 031040Z 0312/0321 18008KT 9999 SCT035 BKN100 TEMPO 0313/0316 -SHRA BKN030 BKN090", "TAF LTAP 031040Z 0312/0412 03007KT 9999 SCT040 BKN100 TEMPO 0312/0315 -SHRA BKN035 BKN090 BECMG 0318/0321 CAVOK", "TAF LTAR 031040Z 0312/0321 26015KT 9999 SCT035 BKN080 TEMPO 0312/0315 -SHRA FEW025CB BKN030 BECMG 0315/0318 11008KT BECMG 0318/0321 CAVOK", "TAF LTAS 031040Z 0312/0321 VRB02KT 9999 SCT030 BKN090 BECMG 0317/0320 CAVOK", "TAF LTAT 031040Z 0312/0412 12008KT 9999 SCT035 BKN100 TEMPO 0314/0317 -SHRA BKN030 BKN090", "TAF LTAU 031040Z 0312/0412 24012KT 9999 SCT040 SCT100 BECMG 0312/0315 VRB02KT BECMG 0316/0319 09012KT CAVOK PROB40 TEMPO 0402/0406 13015G25KT BECMG 0406/0409 16020G35KT PROB40 TEMPO 0410/0412 16030G45KT", "TAF LTAV 031040Z 0312/0321 22012KT 9999 FEW040 BKN200 TEMPO 0312/0316 BKN035 BECMG 0316/0318 VRB02KT", "TAF LTAW 031040Z 0312/0321 VRB02KT 9999 SCT040 BKN080 TEMPO 0312/0316 24015KT", "TAF LTAY 031040Z 0312/0412 16015G25KT 9999 FEW035 BKN200 BECMG 0315/0318 CAVOK BECMG 0322/0402 15025G35KT SCT035 BKN100 TEMPO 0406/0410 -SHRA BKN030", "TAF LTAZ 031040Z 0312/0412 24012KT 9999 SCT040 SCT100 BECMG 0313/0316 VRB02KT BECMG 0317/0319 11012KT CAVOK PROB40 TEMPO 0402/0406 13015G25KT BECMG 0406/0409 18020G35KT PROB40 TEMPO 0410/0412 18030G45KT", "TAF LTBA 031040Z 0312/0412 05015KT CAVOK BECMG 0313/0316 SCT030 BKN090 BECMG 0400/0403 33007KT BECMG 0409/0412 -SHRA BKN025 BKN080", "TAF LTBD 031040Z 0312/0321 16013G25KT CAVOK BECMG 0318/0321 SCT030 BKN100", "TAF LTBF 031040Z 0312/0321 18008KT 9999 FEW035 BKN200", "TAF LTBG 031040Z 0312/0321 04012KT CAVOK BECMG 0319/0321 SCT035 BKN100", "TAF LTBH 031040Z 0312/0321 07012KT 9999 SCT035 BKN100", "TAF LTBI 031040Z 0312/0321 22012KT 9999 FEW040 BKN200 TEMPO 0312/0316 BKN035 BECMG 0316/0318 VRB02KT", "TAF LTBJ 031040Z 0312/0412 17020G35KT CAVOK BECMG 0318/0321 17013KT SCT030 BKN100 BECMG 0321/0324 -SHRA BECMG 0400/0403 17018G35KT PROB40 TEMPO 0400/0404 4000 TSRA SCT015CB BKN025 TEMPO 0406/0410 4000 TSRA SCT015CB BKN025", "TAF LTBK 031040Z 0312/0321 17018G35KT CAVOK BECMG 0318/0321 17013KT SCT030 BKN100", "TAF LTBL 031040Z 0312/0321 15017G30KT 9999 FEW035 SCT100 BKN200", "TAF LTBN 031040Z 0312/0321 20015KT 9999 FEW040 BKN200 TEMPO 0312/0316 BKN035", "TAF LTBO 031040Z 0312/0321 18015G25KT 9999 FEW035 BKN200 BECMG 0315/0318 13012KT CAVOK", "TAF LTBP 031040Z 0312/0321 08009KT 9999 FEW035 BKN100 BECMG 0312/0315 CAVOK", "TAF LTBQ 031040Z 0312/0321 05009KT 9999 SCT035 BKN180 TEMPO 0312/0316 FEW030TCU SCT035 BKN180 BECMG 0316/0318 CAVOK", "TAF LTBR 031040Z 0312/0412 VRB02KT 9999 FEW035 BKN180 BECMG 0318/0322 CAVOK BECMG 0322/0402 07012KT PROB40 0408/0412 18015KT BECMG 0410/0412 SCT035 BKN100", "TAF AMD LTBS 031023Z 0312/0412 16020G30KT 9999 FEW030 BKN120 BECMG 0318/0320 10009KT BECMG 0322/0324 16022G35KT BECMG 0410/0412 -SHRA", "TAF LTBT 031040Z 0312/0321 15015G25KT 9999 FEW035 SCT100 BKN200", "TAF LTBU 031040Z 0312/0412 04012KT 9999 SCT030 BKN090 BECMG 0320/0323 34008KT TEMPO 0403/0407 -SHRA BECMG 0408/0411 -SHRA BKN025 BKN080", "TAF LTBV 031040Z 0312/0321 14022G40KT 9999 FEW035 SCT100 BKN200", "TAF LTBX 031040Z 0312/0321 04009KT 9999 FEW035 BKN100 BECMG 0312/0315 CAVOK", "TAF LTBY 031040Z 0312/0321 22012KT 9999 FEW040 BKN200 TEMPO 0312/0316 BKN035 BECMG 0316/0318 VRB02KT", "TAF LTBZ 031040Z 0312/0321 20015KT 9999 FEW040 BKN200 TEMPO 0312/0316 BKN035", "TAF LTCA 031040Z 0312/0321 07009KT 9999 SCT035 BKN100 TEMPO 0314/0317 -SHRA BKN030 BKN090", "TAF LTCB 031040Z 0312/0321 VRB02KT 9999 SCT035 BKN090", "TAF LTCC 031040Z 0312/0412 VRB02KT 9999 SCT040 SCT100 TEMPO 0312/0316 18012KT -TSRA FEW025CB BKN035 BKN090 BECMG 0318/0320 CAVOK BECMG 0400/0403 FEW040 BKN100", "TAF LTCD 031040Z 0312/0321 VRB02KT 9999 SCT045 BKN080 TEMPO 0313/0316 33013KT -SHRA", "TAF LTCE 031040Z 0312/0412 26013KT 9999 BKN035 BKN070 TEMPO 0312/0316 26015G25KT -SHRA FEW025CB BKN035 BECMG 0316/0318 VRB02KT BECMG 0318/0321 SCT040", "TAF LTCF 031040Z 0312/0412 VRB02KT 9999 BKN035 BKN080 TEMPO 0312/0315 30012G22KT PROB30 TEMPO 0321/0401 4500 BR PROB30 TEMPO 0401/0404 1200 BCFG", "TAF LTCG 031040Z 0312/0412 VRB02KT 9999 SCT035 BKN080 TEMPO 0312/0316 -SHRA BECMG 0403/0407 21013KT TEMPO 0408/0412 21016G28KT", "TAF LTCI 031040Z 0312/0321 28007KT 9999 SCT030 BKN080", "TAF LTCJ 031040Z 0312/0412 VRB02KT 9999 SCT040 BECMG 0320/0322 CAVOK BECMG 0406/0408 FEW040 BKN200", "TAF LTCK 031040Z 0312/0321 26008KT 9999 SCT030 BKN070", "TAF LTCL 031040Z 0312/0321 VRB02KT 9999 FEW040 SCT100 BECMG 0318/0321 CAVOK", "TAF LTCM 031040Z 0312/0321 15012KT 9999 SCT027 BKN080 TEMPO 0312/0315 -SHRA", "TAF LTCN 031040Z 0312/0321 VRB02KT 9999 FEW035 SCT100", "TAF LTCO 031040Z 0312/0321 24012KT 9999 SCT035 BKN080 TEMPO 0312/0316 22015G25KT -RA BKN035 BKN070 TEMPO 0315/0318 -RA BKN035 BKN070", "TAF LTCP 031040Z 0312/0321 VRB02KT 9999 SCT035 BKN100", "TAF LTCR 031040Z 0312/0321 VRB02KT 9999 SCT040 BECMG 0315/0317 CAVOK", "TAF LTCS 031040Z 0312/0412 18006KT 9999 SCT040 BECMG 0319/0321 CAVOK BECMG 0407/0409 12013KT", "TAF LTCT 031040Z 0312/0321 09012KT 9999 SCT040 BKN070 TEMPO 0312/0316 -SHRA BKN035 BKN070 BECMG 0316/0318 VRB02KT", "TAF LTCU 031040Z 0312/0321 18007KT 9999 SCT035 BKN100 TEMPO 0315/0318 -SHRA", "TAF LTCV 031040Z 0312/0412 27007KT 9999 FEW040 SCT100 BECMG 0316/0318 CAVOK BECMG 0406/0408 FEW040 BKN180", "TAF LTCW 031040Z 0312/0321 22009KT 9999 SCT030 BKN070 PROB40 TEMPO 0318/0321 4000 BR", "TAF LTDA 031040Z 0312/0321 VRB02KT CAVOK", "TAF LTFA 031040Z 0312/0321 15017G30KT 9999 FEW035 SCT100 BKN200", "TAF LTFB 031040Z 0312/0321 14018G30KT CAVOK BECMG 0318/0321 VRB02KT SCT030 BKN100", "TAF LTFC 031040Z 0312/0412 18020G30KT 9999 SCT035 BKN200 BECMG 0316/0319 04014KT BECMG 0406/0408 16025G40KT -SHRA FEW020CB BKN030", "TAF LTFD 031040Z 0312/0321 20008KT 9999 FEW035 BKN200", "TAF LTFE 031040Z 0312/0412 14022G40KT 9999 FEW035 SCT100 BKN200 BECMG 0322/0402 18018G30KT TEMPO 0400/0404 4000 TSRA FEW020CB BKN030 BECMG 0410/0412 -SHRA FEW020CB BKN030", "TAF LTFG 031040Z 0312/0321 24010KT 9999 FEW030 BECMG 0315/0318 11006KT CAVOK", "TAF LTFH 031040Z 0312/0321 08008KT 9999 SCT030 BKN100 TEMPO 0312/0315 -SHRA BKN028 BKN080", "TAF LTFJ 031040Z 0312/0412 03012KT 9999 FEW035 BKN100 BECMG 0312/0315 CAVOK BECMG 0319/0322 VRB02KT BECMG 0400/0403 SCT040 BKN100 PROB30 TEMPO 0403/0407 -SHRA BKN030 BKN080", "TAF LTFK 031040Z 0312/0321 04008KT 9999 FEW010 SCT035 BKN100", "TAF LTFM 031040Z 0312/0418 05012KT 9999 SCT028 BKN090 BECMG 0315/0318 08015G28KT BECMG 0321/0324 31008KT TEMPO 0400/0404 1200 BCFG BKN004 BKN020 BECMG 0409/0412 -SHRA BKN028 BKN080 TEMPO 0412/0416 -TSRA FEW018CB BKN025", "TAF LTFO 031040Z 0312/0321 23013KT 9999 SCT035 BKN090 BECMG 0312/0316 03008KT TEMPO 0312/0316 -SHRA", "TAF LUKK 031112Z 0312/0412 34010KT 9999 OVC012 TEMPO 0320/0406 BKN006 TEMPO 0406/0412 4000 RA BR BKN008", "TAF LWOH 031140Z 0312/0412 34015KT 9999 SCT030 BKN040 TEMPO 0312/0314 -RA BECMG 0314/0316 5000 RA BKN020 OVC030", "TAF LWSK 031140Z 0312/0412 VRB02KT 9999 -RA BKN040 OVC070 TEMPO 0313/0402 35014G28KT RA FEW020 BKN030 OVC040", "TAF LXGB 031027Z 0312/0321 10005KT 9999 FEW014 PROB30 TEMPO 0312/0315 SCT012 PROB30 0319/0321 7000 HZ", "TAF LYBE 031100Z 0312/0412 010015KT 9999 SCT033 TX12/0313Z TNM01/0405Z TEMPO 0319/0324 36015G25KT BECMG 0323/0401 4000 -SN BKN007 BKN020 BECMG 0404/0406 31011KT 1500 SN BKN003 OVC016", "TAF LYBT 031100Z 0312/0412 36015KT 9999 BKN030 TX12/0313Z TNM01/0405Z TEMPO 0319/0324 36017G27KT BECMG 0323/0401 5000 -SN BKN010 OVC027 BECMG 0404/0406 31010KT 2000 SN BKN004 OVC025", "TAF LYKV 031100Z 0312/0412 32008KT 9999 SCT013 BKN027 TX06/0313Z TNM01/0406Z BECMG 0315/0317 34018KT 5000 RA BKN010 BKN025 BECMG 0323/0401 2000 SN BKN006 OVC025", "TAF LYNI 031100Z 0312/0412 32020G32KT 9999 BKN007 TX07/0312Z TNM00/0405Z BECMG 0312/0314 SCT015 BKN030 BECMG 0316/0318 36012KT 5000 RA BECMG 0400/0402 32022G37KT BKN010 BKN023 BECMG 0404/0406 30015G25KT -SN TEMPO 0404/0409 1200 SN BKN005 BKN020", "TAF LYPG 031100Z 0312/0412 01017KT 9999 BKN040 BKN080 TX18/0313Z TN07/0405Z TEMPO 0312/0406 02022G35KT PROB40 TEMPO 0316/0403 02027G45KT", "TAF LYTV 031100Z 0312/0412 05015KT 9999 SCT040 BKN080 TX19/0313Z TN07/0405Z TEMPO 0312/0406 02020G35KT PROB40 TEMPO 0315/0403 02027G45KT", "TAF LYVR 031100Z 0312/0412 36015KT 9999 SCT020 BKN040 TX12/0313Z TN00/0407Z TEMPO 0319/0322 35015G25KT BECMG 0321/0323 5000 RA BKN010 BKN033 BECMG 0404/0406 30010KT 1500 SN BKN003 OVC015", "TAF LZIB 031115Z 0312/0412 34016KT CAVOK TEMPO 0312/0410 36025G35KT", "TAF LZKZ 031115Z 0312/0412 01018KT 9999 FEW037 TEMPO 0312/0412 02028G40KT", "TAF LZMC 031030Z 0312/0321 36010G22KT 9999 SCT045 BKN090 TEMPO 0312/0317 01016G36KT BECMG 0313/0315 CAVOK", "TAF LZPP 031115Z 0312/0321 33017KT 9999 SCT037 TEMPO 0312/0319 34025G35KT", "TAF LZPW 031030Z 0312/0321 36016G32KT 9999 BKN025 OVC040 PROB30 TEMPO 0312/0320 4000 -SHSN -RASN BKN010 OVC020", "TAF LZSL 031030Z 0312/0321 01012G25KT 9999 SCT050 TEMPO 0315/0318 BKN050", "TAF LZTT 031115Z 0312/0412 03022KT 9999 FEW040 TEMPO 0312/0316 2800 -SHSN BKN027 TEMPO 0312/0412 06030G40KT", "TAF LZZI 031115Z 0312/0321 04012KT 9999 BKN040", "MBGT 031030Z 0312/0412 09008KT 9999 FEW018 BECMG 0318/0320 14014KT SCT020", "MBPV 031030Z 0312/0412 09008KT 9999 FEW018 BECMG 0318/0320 14014KT SCT020", "TAF MDBH 031000Z 0312/0412 00000KT 9999 SCT018 FM031500 13015KT 9999 FEW024 PROB30 0402/0407 7000 -RA BKN016 SCT070", "TAF MDCY 031000Z 0312/0412 00000KT 9999 SCT018 FM031500 07012KT", "TAF MDJB 031000Z 0312/0412 00000KT 9999 SCT016 FM031800 16010KT PROB30 0323/0404 8000 -SHRA BKN016", "TAF MDLR 031000Z 0312/0412 07005KT 9999 SCT018 BECMG 0316/0318 13012KT", "TAF MDPC 031000Z 0312/0412 00000KT 9999 FEW018 BECMG 0312/0314 08005KT FM 0313/0315 8000 -SHRA BKN016", "TAF MDPP 031000Z 0312/0412 00000KT 9999 FEW016 PROB30 0312/0318 8000 -SH BKN018 BECMG 0313/0315 09018KT", "TAF MDSD 031000Z 0312/0412 03005KT 9999 SCT018 FM031600 13012KT 9999 FEW022", "TAF MDST 031000Z 0312/0412 06006KT 9999 SCT016 BECMG 0313/0315 10008KT", "MGGT 030500Z 0306/0406 03012KT 9999 FEW018 TX26/0320Z TN15/0312Z BECMG 0310/0312 8000 SCT014 BECMG 0314/0316 12010KT CAVOK BECMG 0320/0322 9999 FEW020 BECMG0402/0404 CAVOK", "MGMM 030500Z 0306/0406 00000KT 9999 FEW14 TX36/0320Z TN18/0312Z BECMG 0310/0312 FEW012 BECMG 0315/0317 08008KT SCT016 TEMPO 0322/0402 BKN016 BECMG 0301/0303 CAVOK ", "MGPB 030500Z 0306/0406 00000KT 9999 FEW018 TX30/0320Z TN22/0312Z BECMG 0308/0310 SCT016 BECMG 0315/0317 30006KT 9000 FEW018 BECMG 0320/0322 06008KT SCT018 BECMG 0403/0405 00000KT 9999 FEW016", "TAF MHLC 031100Z 0312/0412 VRB05KT 9999 FEW025 TX31/0320Z TN20/0312Z BECMG 0320/0322 08015KT BECMG 0407/0409 VRB05KT", "TAF MHLM 031100Z 0312/0412 VRB05KT 9999 FEW026 TX35/0320Z TN21/0312Z BECMG 0320/0322 07010KT BECMG 0404/0406 VRB05KT", "TAF MHPR 031100Z 0312/0412 19008KT 9999 FEW052 TX34/0320Z TN18/0310Z BECMG 0320/0322 03016KT BECMG 0405/0407 VRB06KT", "TAF MHRO 031100Z 0312/0412 09012KT 9999 FEW022 TX29/0320Z TN25/0312Z BECMG 0320/0322 08025KT BECMG 0409/0411 09010KT", "TAF MHTG 031100Z 0312/0412 VRB05KT 9999 BKN028 TX32/0320Z TN14/0312Z BECMG 0314/0316 SCT030 BECMG 0406/0408 BKN026", "TAF MKJP 031115Z 0312/0412 35004KT 9999 FEW022 BECMG 0313/0315 14019KT BECMG 0401/0403 35004KT", "TAF MKJS 031115Z 0312/0412 15004KT 9999 FEW022 BECMG 0314/0316 07018KT BECMG 0400/0402 14004KT", "TAF MMAA 031053Z 0312/0412 04005KT 5SM HZ SKC TX31/0319Z TN24/0312Z FM031800 24010KT P6SM SCT250 FM040600 34005KT 5SM HZ SKC", "TAF COR MMAN 031151Z 0306/0406 00000KT P6SM BKN250 TEMPO 0311/0315 5SM HZ SCT015 FM031800 12008KT P6SM SCT015 BKN250 FM040500 06005KT P6SM SCT250", "TAF MMAS 030456Z 0306/0406 00000KT P6SM SKC FM031800 24010KT P6SM BKN250 FM040300 24005KT P6SM BKN250", "TAF MMBT 030449Z 0306/0406 00000KT P6SM SKC FM031200 00000KT P6SM SCT020 SCT250 FM031800 24010KT P6SM SCT120 FM040300 00000KT P6SM SKC", "TAF MMCB 030449Z 0306/0406 00000KT P6SM SKC FM031600 26005KT 6SM HZ SKC FM040300 00000KT P6SM SKC", "TAF MMCE 030516Z 0306/0406 10010KT P6SM SCT020 TEMPO 0312/0315 BKN015 FM031800 08015KT P6SM SCT020 FM040300 07015KT P6SM SCT020", "TAF MMCL 030310Z 0306/0406 00000KT P6SM BKN250 FM031800 24010KT P6SM BKN120 BKN250 FM040500 00000KT P6SM BKN250", "TAF MMCM 030516Z 0306/0406 13010KT P6SM SCT020 TEMPO 0312/0315 BKN020 FM031800 13018KT P6SM SCT020 FM040300 12015KT P6SM SCT020", "TAF MMCN 030501Z 0306/0406 00000KT P6SM BKN200 FM031800 24012KT P6SM SCT100 BKN200 FM040300 00000KT P6SM SCT200", "TAF MMCP 030516Z 0306/0406 13015KT P6SM SKC TEMPO 0312/0315 SCT020 FM031800 13018KT P6SM SCT030 FM040300 12010KT P6SM SKC", "TAF MMCS 030222Z 0306/0406 25005KT P6SM SKC FM031800 22020KT P6SM SCT250 FM040600 25008KT P6SM SKC", "TAF MMCU 030222Z 0306/0406 34005KT P6SM SCT250 FM031800 28014KT P6SM SCT100 BKN250 FM040500 29005KT P6SM SCT250", "TAF MMCV 030530Z 0306/0406 14008KT 5SM HZ BKN100 FM031000 13005KT 5SM HZ SCT020 TEMPO 0311/0315 BKN020 FM031800 14015KT P6SM SCT200 FM040300 14005KT 6SM HZ SCT020", "TAF MMCZ 031026Z 0312/0412 12005KT P6SM SCT015 FM031800 12014KT P6SM BKN015 FM040600 12005KT P6SM SCT015", "TAF MMDO 030501Z 0306/0406 00000KT P6SM SCT080 OVC200 FM031200 20005KT P6SM SCT080 BKN200 FM040300 00000KT P6SM BKN200", "TAF MMEP 030456Z 0306/0406 00000KT P6SM SKC FM031600 34005KT P6SM SCT250 FM040300 00000KT P6SM BKN250", "TAF MMGL 031039Z 0312/0412 00000KT P6SM SCT250 TX33/0322Z TN14/0312Z FM031800 32008KT P6SM SCT080 BKN250 FM040600 30005KT P6SM SCT250", "TAF MMGM 030501Z 0306/0406 22005KT P6SM SCT200 FM031800 26010KT P6SM SCT200 FM040300 22005KT P6SM BKN200", "TAF MMHO 030310Z 0306/0406 22005KT P6SM SKC FM031800 24010KT P6SM SCT250 FM040500 22005KT P6SM SKC", "TAF MMIA 030456Z 0306/0406 24010KT P6SM SCT200 FM031200 00000KT 6SM HZ SCT200 FM040300 00000KT P6SM SCT200", "TAF MMIO 030222Z 0306/0406 36005KT P6SM BKN250 FM031800 36010KT P6SM SCT030 SCT100 BKN250 FM040500 36005KT P6SM SCT250", "TAF MMLM 030501Z 0306/0406 26005KT P6SM SCT220 FM031800 32015KT P6SM OVC220 FM040300 32005KT P6SM SCT150 BKN220", "TAF MMLO 030456Z 0306/0406 00000KT P6SM SCT220 FM031800 20010KT P6SM SCT070 SCT250 FM040300 00000KT P6SM SCT220", "TAF MMLP 030310Z 0306/0406 32005KT P6SM SCT250 FM031800 33012KT P6SM SCT100 BKN250 FM040500 33005KT P6SM SCT250", "TAF MMLT 030501Z 0306/0406 00000KT P6SM BKN240 FM031800 06010KT P6SM SCT240 FM040300 00000KT P6SM SCT240", "TAF MMMA 030530Z 0306/0406 14012KT P6SM SCT015 BKN200 TEMPO 0312/0315 3SM BR OVC015 FM031600 14015KT P6SM BKN025 BKN200 FM040300 14010KT P6SM SCT015 BKN200", "TAF COR MMMD 031153Z 0312/0412 11008KT P6SM SKC TX36/0322Z TN22/0312Z TEMPO 0312/0316 4SM HZ SCT010 FM031800 15012KT P6SM BKN020 FM040600 12007KT P6SM SCT020", "TAF MMML 030310Z 0306/0406 18005KT P6SM SKC FM031800 22012KT P6SM SCT250 FM040500 24005KT P6SM SKC", "TAF MMMM 031039Z 0312/0412 00000KT 6SM HZ SCT250 FM031800 30008KT P6SM SCT030 BKN250 FM040600 24005KT P6SM SKC", "TAF MMMT 030516Z 0306/0406 36010KT P6SM SCT020 TEMPO 0312/0314 3SM BR FM031800 18015KT P6SM SKC FM040300 16005KT 3SM HZ SCT020", "TAF MMMV 030222Z 0306/0406 04007KT P6SM BKN250 FM031800 14012KT P6SM SCT080 BKN250 FM040500 04007KT P6SM SCT040 SCT100", "TAF MMMX 031053Z 0312/0412 04006KT P6SM SKC TX29/0322Z TN12/0312Z FM031800 15014KT P6SM SCT020 SCT080 BKN250 PROB40 0400/0404 5SM TSRA BKN020CB FM040600 04007KT P6SM SCT020 BKN080", "TAF MMMY 031044Z 0312/0412 00000KT P6SM SCT250 TX32/0322Z TN21/0319Z TEMPO 0312/0316 5SM HZ SCT012 FM031800 12008KT P6SM SCT015 BKN250 FM040600 16005KT P6SM SCT250", "TAF MMMZ 031100Z 0312/0412 04005KT P6SM BKN250 TX29/0319Z TN16/0312Z FM031800 28010KT P6SM SCT080 BKN250 FM040600 34005KT P6SM BKN250", "TAF MMNL 030530Z 0306/0406 15005KT P6SM SCT080 BKN220 FM031200 14010KT P6SM SCT030 BKN220 TEMPO 0312/0315 BKN012 FM040300 15015KT P6SM SCT030 BKN220", "TAF MMOX 030449Z 0306/0406 00000KT P6SM SKC FM031200 04005KT P6SM SKC FM031800 14010KT P6SM SCT030 FM040300 00000KT P6SM SCT120", "TAF MMPA 030530Z 0306/0406 10010KT 6SM HZ SCT020 TEMPO 0312/0315 2SM BR BKN020 FM031600 34010KT P6SM SCT020 SCT200 BECMG 0321/0322 SKC FM040300 34005KT 5SM HZ SCT020", "TAF MMPB 030449Z 0306/0406 00000KT P6SM SKC FM031200 00000KT P6SM SKC FM031800 14010KT P6SM SKC FM040300 00000KT P6SM SKC", "TAF MMPG 030530Z 0306/0406 12010KT P6SM SCT200 FM031800 13015KT P6SM BKN200 FM040300 13010KT P6SM BKN200", "TAF MMPN 030456Z 0306/0406 00000KT P6SM SCT250 FM031800 24010KT P6SM BKN250 FM040300 00000KT P6SM SCT250", "TAF MMPQ 030516Z 0306/0406 10010KT P6SM SKC FM031600 10010KT P6SM SCT040 FM032100 10012KT P6SM SKC FM040300 10010KT P6SM SKC", "TAF MMPR 031039Z 0312/0412 04005KT P6SM SCT250 TX26/0319Z TN17/0312Z FM031800 23010KT P6SM BKN250 FM040600 34005KT P6SM SCT250", "TAF MMPS 030449Z 0306/0406 00000KT P6SM SKC FM031800 22012KT P6SM SCT015 FM040300 00000KT P6SM SKC", "TAF MMQT 030456Z 0306/0406 12010KT P6SM SCT020 FM031200 12005KT P6SM SCT020 FM031800 26010KT P6SM SCT020 SCT250 FM040300 00000KT P6SM SCT020", "TAF MMRX 030530Z 0306/0406 15010KT P6SM SCT015 BKN250 TEMPO 0312/0315 3SM BR BKN012 FM031600 15015KT 5SM HZ SCT030 BKN250 FM040300 14010KT P6SM BKN250", "TAF MMSD 030501Z 0306/0406 00000KT P6SM SCT240 FM031800 32010KT P6SM BKN240 FM040300 00000KT P6SM BKN240", "TAF MMSL 030501Z 0306/0406 32005KT P6SM SCT120 SCT240 FM031800 15010KT P6SM SCT240 FM040300 00000KT P6SM BKN240", "TAF MMSM 031053Z 0312/0412 03005KT P6SM SKC TEMPO 0312/0316 4SM HZ SCT020 FM031800 15014KT P6SM SCT020 BKN080 BKN250 TEMPO 0400/0404 3SM TSRA BKN020CB FM040700 05005KT P6SM SCT020 BKN080", "TAF MMSP 031039Z 0312/0412 00000KT 5SM HZ SCT250 TX31/0321Z TN13/0312Z TEMPO 0312/0316 4SM HZ SCT015 FM031800 12008KT P6SM SCT030 SCT080 BKN250 FM040600 20005KT P6SM SCT250", "TAF MMTC 030222Z 0306/0406 01005KT P6SM BKN250 FM031800 24010KT P6SM SCT100 BKN250 FM040500 00000KT P6SM SCT250", "TAF MMTG 030208Z 0306/0406 31007KT P6SM SKC TEMPO 0311/0315 4SM HZ SCT012 FM031800 16015KT P6SM SCT030 SCT080 FM040500 300006KT P6SM SKC", "TAF COR MMTJ 031101Z 0312/0412 27007KT P6SM OVC030 TX18/0321Z TN10/0312Z TEMPO 0312/0316 5SM -RA BR BKN018 FM031800 33010KT P6SM SCT250 FM040600 33010KT P6SM SCT020", "TAF MMTM 030333Z 0306/0406 11006KT 5SM HZ SCT010 TEMPO 0311/0315 3SM BR HZ BKN008 FM031800 23015KT 6SM HZ SCT020 BKN250 FM040500 12008KT 5SM HZ SCT010", "TAF MMTO 031053Z 0312/0412 00000KT 6SM HZ SCT020 TX27/0321Z TN08/0312Z TEMPO 0312/0316 4SM HZ FM031800 15014KT P6SM SCT020 SCT080 BKN250 TEMPO 0400/0404 BKN020CB FM040600 12005KT P6SM SCT020", "TAF MMTP 031026Z 0312/0412 00000KT P6SM SKC FM031800 23012KT P6SM SCT030 SCT080 FM040600 00000KT P6SM SKC", "TAF MMUN 031026Z 0312/0412 12006KT P6SM SCT015 TX29/0319Z TN23/0312Z FM031800 12014KT P6SM BKN015 FM040600 12005KT P6SM SCT015", "TAF MMVA 030516Z 0306/0406 06010KT P6SM SKC FM031600 12015KT P6SM SKC FM040300 07008KT P6SM SCT020", "TAF MMVR 030333Z 0306/0406 11005KT P6SM SCT250 TX32/0319Z TN22/0312Z TEMPO 0311/0315 3SM BR HZ SCT010 FM031800 08010KT P6SM SCT015 SCT250 FM040500 09005KT P6SM SKC", "TAF MMZC 031039Z 0312/0412 00000KT P6SM BKN100 TX28/0322Z TN09/0312Z FM031800 21016KT P6SM SCT100 BKN250 FM040600 23010KT P6SM SCT250", "TAF MMZH 030449Z 0306/0406 00000KT P6SM SKC FM031800 24012KT P6SM SKC FM040300 00000KT P6SM SKC", "TAF MMZO 030238Z 0306/0406 00000KT P6SM SKC FM031800 18010KT P6SM SCT020 SCT250 TEMPO 0322/0402 BKN020 FM040500 00000KT P6SM SCT020", "MNBL 022126Z 0300/0324 08004KT 9999 BKN018 BECMG 0308/0313 05006KT 9999 TEMPO 0314/0320 08010KT 7000 -DZ BKN018", "TAF MNMG 0312/0412 09014KT 9999 FEW020 SCT300 TEMPO 0322/0405 06012KT CAVOK BECMG 0406/0409 06010KT", "MNPC 022126Z 0300/0324 06008KT 7000 HZ SCT016 BECMG 0306/0312 09004KT TEMPO 0313/0323 07010G20KT 7000 DZ/VCRA SCT018 SCT060", "TAF MPDA 031100Z 0312/0324 03008KT 9999 FEW020 TEMPO 0312/0315 VRB03KT TEMPO 03117/0320 18008KT TEMPO 0320/0324 03018KT", "TAF MPMG 031100Z 0312/0324 35008KT 9999 FEW020 TEMPO 0318/0322 35015KT", "TAF MPPA 031100Z 0312/0418 35008KT 9999 FEW020 TEMPO 0318/0322 35015KT", "TAF MPSM 031100Z 0312/0418 34008KT 9999 FEW020 TEMPO 0316/0319 17005KT TEMPO 0319/0323 34015KT", "TAF MPTO 031100Z 0312/0418 34007KT 9999 FEW020 TEMPO 0312/0315 25004KT TEMPO 0318/0322 34015KT TEMPO 0404/0408 VRB02KT", "MRLB 031135Z 0312/0412 08020KT CAVOK TX35/0320Z TN22/0411Z TEMPO 0308/0315 26005KT ", "MRLM 031135Z 0312/0412 23005KT 9999 FEW020 BKN100 TX30/0321Z TN21/0411Z TEMPO 0312/0316 DZ FEW015TCU TEMPO 0317/0324 09006KT ", "MROC 031135Z 0312/0412 10014KT 9999 FEW040 TX29/0318Z TN19/0411Z TEMPO 0312/0321 11015G28KT ", "MRPV 031135Z 0312/0412 09015KT 9999 FEW035 TX27/0319Z TN18/0411Z TEMPO 0314/0321 08017G28KT ", "TAF MSLP 030925Z 0312/0412 06002KT CAVOK TX34/0318Z TN22/0310Z FM031700 22007KT 9999 FEW030 FM032300 VRB02KT 9999 FEW047 FM040300 06004KT CAVOK", "TAF MSSS 030925Z 0312/0412 36004KT CAVOK TX33/0318Z TN20/0310Z FM031700 18005KT 9999 FEW033 FM032300 VRB02KT 9999 FEW027 FM040400 34002KT CAVOK", "TAF MTCH 031100Z 0312/0412 01012KT 9000 FEW020 BECMG 0314/0318 04015KT SCT030CB TEMPO 0320/0405 VRB02KT FEW024 SCT080", "TAF MTPP 031100Z 0312/0412 12009KT 8000 FEW018 FMO31400 09012KT 9999 FEW025 BECMG 0318/0322 29010KT SCT024CB PROB30 TEMPO 0402/0406 4800 -SHRA FM040700 14005KT 8000 FEW022", "MUCC 031100Z 0312/0412 11007KT 9000 SCT020 BECMG 0316/0318 07013KT BECMG 0400/0403 09010KT", "MUCF 031100Z 0312/0324 VRB03KT 9000 FEW020 BECMG 0317/0319 22009KT BECMG 0321/0324 VRB03KT", "MUCL 031100Z 0312/0324 11011KT 9000 SCT020 BECMG 0320/0323 VRB03KT", "MUCM 031100Z 0312/0412 06008KT 9000 FEW012 BECMG 0313/0314 07010KT SCT020", "MUCU 031100Z 0312/0412 VRB03KT 9000 FEW020 BECMG 0314/0318 17009KT BECMG 0322/0324 VRB03KT", "TAF MUGM 0307/0407 VRB06KT 9999 SCT030 SCT070 QNH2991INS TEMPO 0307/0311 BKN030 BECMG 0314/0316 15009G18KT 9999 SKC QNH2989INS BECMG 0321/0323 VRB06KT 9999 SCT020 SCT060 QNH2994INS TX30/0318Z TN22/0311Z FN00259", "MUHA 031100Z 0312/0412 09004KT 9000 FEW030 BECMG 0314/0316 17010KT BECMG 0321/0323 VRB03KT BECMG 0402/0404 09005KT", "MUHG 031100Z 0312/0412 VRB03KT 9000 FEW030 BECMG 0313/0315 08012KT SCT020 BECMG 0318/0321 06012KT BECMG 0400/0403 08008KT FEW060", "MUSC 031100Z 0312/0412 VRB03KT 9000 FEW060 BECMG 0313/0315 12009KT SCT020 BECMG 0316/0318 07010KT BECMG 0400/0403 VRB03KT FEW060", "MUVR 031100Z 0312/0412 VRB03KT 9000 FEW060 TEMPO 0312/0317 11007KT BECMG 0318/0320 07010KT SCT020 BECMG 0400/0404 10008KT", "TAF MWCB 031100Z 0312/0412 09012KT 9999 FEW018 PROB30 TEMPO 0319/0322 9999 SHRA SCT016", "TAF MWCR 031100Z 0312/0412 09012KT 9999 FEW018 PROB30 TEMPO 0319/0322 9999 SHRA SCT016", "MYGF 031030Z 0312/0412 13003KT 9999 FEW040 BECMG 0318/0320 14012KT SCT025 BECMG 0403/0405 VRB02KT", "MYNN 031030Z 0312/0412 09003KT 9999 FEW020 BECMG 0317/0319 12010KT SCT025 BECMG 0402/0404 VRB02KT", "TAF MZBZ 031050Z 0312/0412 11010KT 9999 SCT024", "TAF NCRG 031112Z 0312/0412 11010KT 9999 SCT028 PROB30 TEMPO 0315/0318 5000 TSRA FEW018CB PROB30 TEMPO 0403/0406 5000 TSRA FEW018CB", "TAF NFFN 031110Z 0312/0412 31010KT 9999 FEW030 BECMG 0322/0324 31010KT PROB30 TEMPO 0402/0406 5000 SHRA BECMG 0406/0408 11005KT", "TAF NFNA 031113Z 0312/0412 12006KT 9999 SCT020 PROB30 TEMPO 0316/0318 5000 SHRA BKN018", "TAF NFTF 031111Z 0312/0412 10008KT 9999 SCT017", "TAF NFTV 031115Z 0312/0412 13010KT 9999 SCT017 PROB30 TEMPO 0400/0406 5000 TSRA FEW018CB", "TAF NGFU 031116Z 0312/0412 09004KT 9999 FEW018 SCT020 BKN100 PROB40 TEMPO 0312/0412 5000 SHRA BKN016", "TAF NGTA 031114Z 0312/0412 06007KT 9999 SCT018 SCT040 PROB30 TEMPO 0312/0408 8000 SHRA BKN015", "TAF NIUE 031115Z 0312/0412 10010KT 9999 SCT018 BKN030 PROB40 TEMPO 0312/0317 5000 SHRA BKN015", "TAF NLWF 031100Z 0312/0412 11008KT 9999 SCT025 PROB40 TEMPO 0315/0412 4000 SHRA BKN014 FEW020TCU PROB30 TEMPO 0320/0402 2500 TSRA BKN012 FEW015CB", "TAF NLWW 031100Z 0312/0412 10006KT 9999 SCT018 TEMPO 0312/0412 4000 SHRA BKN014 FEW020TCU PROB40 TEMPO 0322/0404 2500 TSRA BKN012 FEW015CB", "TAF NSFA 031111Z 0312/0412 23005KT 9999 SCT026 PROB30 TEMPO 0403/0406 5000 TSRA FEW018CB", "NSTU 031135Z 0312/0412 VRB06KT P6SM FEW015 SCT040", "TAF NTAA 031100Z 0312/0418 VRB05KT 9999 FEW023 BKN250 PROB30 TEMPO 0312/0315 3000 SHRA BKN040", "TAF NVSC 031100Z 0312/0412 VRB02KT 9999 SCT018 BKN025 INTER 0312/0318 9000 SHRA SCT010 BKN018", "TAF NVSG 031100Z 0312/0412 VRB04KT 9999 SCT010 BKN020 INTER 0312/0318 9000 SHRA SCT010 BKN018", "TAF NVSL 031100Z 0312/0412 VRB04KT 9999 SCT020 BKN025 PROB30 INTER 0312/0318 9000 SHRA SCT010 BKN018", "TAF NVSP 031100Z 0312/0412 VRB04KT 9999 SCT020 PROB30 INTER 0312/0318 9000 SHRA SCT010 BKN018", "TAF NVSS 031100Z 0312/0412 05007KT 9999 SCT010 BKN020 INTER 0312/0318 9000 SHRA SCT010 BKN018", "TAF NVVA 031100Z 0312/0412 VRB04KT 9999 SCT020", "TAF NVVV 031100Z 0312/0412 06006KT 9999 SCT020 FEW022CB BKN100 PROB40 INTER 0312/0318 9000 SHRA SCT010 BKN018", "TAF NVVW 031100Z 0312/0412 VRB03KT 9999 SCT020", "TAF NWWD 030500Z 0306/0406 VRB02KT 9999 SCT020 SCT050 BECMG 0322/0324 20012KT PROB40 TEMPO 0400/0406 3000 SHRA BKN012 FEW015CB SCT020TCU", "TAF AMD NWWE 022236Z 0222/0318 12005KT 9999 SCT012 SCT025 BKN035 TEMPO 0306/0318 4500 SHRA BKN014 FEW020TCU PROB40 TEMPO 0312/0318 2000 TSRA BKN006 SCT015TCU FEW018CB", "TAF NWWK 030500Z 0306/0406 VRB02KT 9999 SCT040 SCT050 BECMG 0322/0324 21012KT PROB40 TEMPO 0400/0406 3000 SHRA BKN012 FEW015CB SCT020TCU", "TAF NWWL 031100Z 0312/0412 10005KT 9999 FEW020 PROB30 TEMPO 0312/0318 2500 SHRA BKN010 FEW016CB TEMPO 0400/0412 4000 SHRA BKN014 FEW020TCU PROB40 TEMPO 0406/0412 2500 TSRA BKN009 SCT016CB", "TAF NWWM 031100Z 0312/0412 10014KT 9999 FEW020 SCT050 PROB30 TEMPO 0408/0412 2000 TSRA BKN012 FEW016CB", "TAF NWWR 031100Z 0312/0412 10005KT 9999 FEW020 PROB30 TEMPO 0312/0318 2500 SHRA BKN010 FEW016CB TEMPO 0400/0412 4000 SHRA BKN014 FEW020TCU PROB40 TEMPO 0406/0412 2500 TSRA BKN009 SCT016CB", "TAF NWWU 021700Z 0218/0318 11005KT 9999 FEW040 TEMPO 0310/0318 4000 SHRA FEW020TCU", "TAF NWWW 031100Z 0312/0412 VRB02KT 9999 FEW025 SCT045 BECMG 0400/0402 18010KT PROB40 TEMPO 0400/0406 4000 SHRA BKN014 FEW020TCU PROB30 TEMPO 0406/0412 2000 TSRA BKN010 FEW015CB BECMG 0408/0410 VRB02KT", "TAF NZAA 031105Z 0312/0418 22015KT 9999 FEW018 SCT025 BECMG 0316/0318 18005KT BECMG 0323/0401 22015KT BECMG 0408/0410 18005KT", "TAF NZCH 031111Z 0312/0418 VRB02KT CAVOK PROB40 0314/0320 0500 FG BECMG 0322/0400 18010KT BECMG 0405/0407 06008KT", "TAF NZQN 031111Z 0312/0406 03005KT 9999 SCT035 BECMG 0322/0400 24010KT", "TAF NZWN 031105Z 0312/0418 18008KT 9999 FEW020 BECMG 0406/0408 36010KT", "TAF OBBI 031100Z 0312/0418 33017KT CAVOK", "TAF OEAB 031100Z 0312/0418 20015KT 9999 SCT020 BECMG 0318/0320 19008KT FEW020 BECMG 0406/0408 20015KT", "TAF OEAH 031010Z 0312/0418 36014KT CAVOK BECMG 0316/0318 30010KT", "TAF OEAO 031100Z 0312/0418 15012KT 7000 NSC BECMG 0318/0320 VRB03KT BECMG 0406/0408 15015KT PROB30 TEMPO 0406/0414 3000 BLDU", "TAF OEBA 031100Z 0312/0418 22013KT 7000 FEW030 BECMG 0318/0320 11008KT BECMG 0408/0410 22014KT FEW030", "TAF OEBH 031100Z 0312/0418 24012KT 7000 NSC BECMG 0318/0320 11015KT TEMPO 0318/0406 2000 BLDU DU BECMG 0400/0402 14008KT", "TAF OEDF 031010Z 0312/0418 36018KT CAVOK BECMG 0316/0318 30010KT BECMG 0406/0408 33014KT", "TAF OEDM 031100Z 0312/0418 09012KT CAVOK BECMG 0400/0402 15010KT 7000 NSC", "TAF OEDR 031010Z 0312/0418 36018KT CAVOK BECMG 0316/0318 30010KT BECMG 0406/0408 33014KT", "TAF OEGN 031100Z 0312/0418 32010KT 7000 SCT030 BECMG 0318/0320 33005KT BECMG 0406/0408 24010KT", "TAF OEGS 031100Z 0312/0418 07010KT CAVOK BECMG 0400/0402 16008KT 7000 NSC", "TAF OEGT 031100Z 0312/0418 13010KT CAVOK BECMG 0318/0320 VRB03KT BECMG 0406/0408 14015KT 7000 NSC PROB40 TEMPO 0406/0412 3000 BLDU", "TAF OEHL 031100Z 0312/0418 18008KT CAVOK BECMG 0318/0320 35008KT BECMG 0404/0406 18010KT", "TAF OEJN 031100Z 0312/0418 32012KT CAVOK BECMG 0318/0320 02008KT 7000 NSC BECMG 0406/0408 29010KT", "TAF OEKJ 031100Z 0312/0418 02012KT CAVOK BECMG 0318/0320 06005KT BECMG 0408/0410 02008KT", "TAF OEKM 031100Z 0312/0418 20015KT 9999 SCT020 BECMG 0318/0320 19008KT FEW020 BECMG 0406/0408 20015KT", "TAF OEMA 031100Z 0312/0418 12012KT 7000 NSC BECMG 0318/0320 07008KT BECMG 0406/0408 13015KT PROB30 TEMPO 0406/0412 4000 BLDU", "TAF OENG 031100Z 0312/0418 12010KT 7000 NSC TEMPO 0312/0400 2000 DU BECMG 0320/0322 01005KT BECMG 0406/0408 11010KT", "TAF OEPA 031010Z 0312/0418 01006KT CAVOK BECMG 0316/0318 VRB03KT BECMG 0408/0410 01006KT", "TAF OEPS 030900Z 0309/0415 01010G15KT 9999 SKC QNH3008INS BECMG 0317/0318 VRB06KT 9999 SKC QNH3011INS TX27/0312Z TN10/0401Z", "TAF OERF 031100Z 0312/0418 20010KT CAVOK BECMG 0318/0320 VRB03KT BECMG 0400/0402 20010KT", "TAF OERK 031100Z 0312/0418 01010KT CAVOK BECMG 0318/0320 VRB03KT", "TAF OERR 031100Z 0312/0418 20010KT CAVOK", "TAF OESH 031100Z 0312/0418 06015KT 6000 NSC TEMPO 0312/0402 3000 BLDU DU BECMG 0320/0322 06008KT BECMG 0406/0408 09015KT", "TAF OESK 031100Z 0312/0418 16010KT CAVOK", "TAF OETB 031100Z 0312/0418 12012KT CAVOK BECMG 0318/0320 VRB03KT BECMG 0408/0410 21010KT", "TAF OETF 031100Z 0312/0418 27012KT 7000 FEW030 BECMG 0318/0320 VRB03KT BECMG 0400/0402 16012KT 6000 NSC", "TAF OETR 031100Z 0312/0418 19008KT CAVOK BECMG 0320/0322 15010KT 7000 NSC BECMG 0406/0408 18016KT PROB40 TEMPO 0406/0414 3000 BLDU", "TAF OEWD 031100Z 0312/0418 09015KT 7000 NSC TEMPO 0312/0402 3000 BLDU", "TAF OEWJ 031100Z 0312/0418 34015KT CAVOK BECMG 0320/0322 01006KT BECMG 0408/0410 32012KT", "TAF OEYN 031100Z 0312/0418 26013KT CAVOK BECMG 0318/0320 VRB03KT 7000 NSC PROB30 TEMPO 0320/0406 3000 HZ BECMG 0408/0410 24012KT", "TAF OIAA 031100Z 0312/0418 30010KT 7000 NSC TEMPO 0312/0315 32018G30KT", "TAF OIAW 031100Z 0312/0418 32010KT 7000 NSC TEMPO 0312/0315 32016KT TEMPO 0323/0405 5000 HZ/BR", "TAF OIBB 031120Z 0312/0321 32008KT 7000 NSC TEMPO 0312/0316 32022KT", "TAF OIBK 031100Z 0312/0418 30020KT 7000 NSC TEMPO 0312/0316 30018G30KT BECMG 0323/0401 30010KT TEMPO 0401/0406 4000 HZ BECMG 0408/0410 30018KT", "TAF OIBP 031120Z 0312/0321 30020KT 7000 NSC TEMPO 0312/0316 30030KT", "TAF OICC 031120Z 0312/0321 30008KT 8000 SCT040", "TAF OICI 031100Z 0312/0418 31008KT CAVOK TEMPO 0312/0315 31014KT", "TAF OIFM 031100Z 0312/0418 29008KT CAVOK TEMPO 0401/0406 5000 HZ", "TAF OIGG 031120Z 0312/0321 02008KT 7000 SCT020 SCT090 TEMPO 0312/0315 SCT030 BKN090 TEMPO 0321/0324 5000 BR BKN025 BKN090", "TAF OIIE 031100Z 0312/0418 30010KT 8000 FEW035 SCT100 TEMPO 0312/0316 30022KT", "TAF OIII 031100Z 0312/0418 24010KT 8000 FEW035 SCT100 TEMPO 0312/0316 28018KT", "TAF OIIP 031120Z 0312/0321 30010KT 7000 NSC TEMPO 0312/0316 30022KT", "TAF OIKB 031100Z 0312/0418 22010KT 6000 NSC TEMPO 0312/0316 19020KT 4000 SA BECMG 0320/0322 06008KT 5000 HZ FEW025 TEMPO 0323/0404 3000 HZ BECMG 0406/00408 22010KT 6000", "TAF OIKK 031100Z 0312/0418 30008KT 8000 FEW040 TEMPO 0312/0315 30014KT", "TAF OIMM 031100Z 0312/0418 33008KT 7000 SCT020 BKN100 TEMPO 0312/0320 33018KT 5000 -SHRA/TS SA SCT025 FEW030CB BKN100 TEMPO 0320/0401 SCT030 FEW035CB BKN090", "TAF OING 031120Z 0312/0321 34008KT 7000 FEW025 BKN090 TEMPO 0312/0316 26014KT FEW025CB SCT030 BKN090", "TAF OINZ 031120Z 0312/0321 27008KT 7000 FEW030 SCT090", "TAF OISL 031100Z 0312/0418 27010KT CAVOK", "TAF OISS 031100Z 0312/0418 24010KT CAVOK", "TAF OITL 031120Z 0312/0321 09008KT 7000 FEW040 TEMPO 0312/0316 09020KT FEW035CB SCT040 SCT090", "TAF OITR 031100Z 0312/0418 24008KT 8000 FEW035 SCT100 TEMPO 0312/0317 24014KT FEW035CB SCT040 BKN100", "TAF OITT 031100Z 0312/0418 28008KT 8000 FEW035 SCT100 TEMPO 0312/0316 24018KT FEW035CB SCT040 BKN100", "TAF OIYY 031120Z 0312/0321 34008KT 8000 NSC", "TAF OIZH 031100Z 0312/0418 26010KT 7000 NSC TEMPO 0312/0315 36016KT 5000 SA", "TAF OJAI 030954Z 0312/0418 18010KT 5000 HZ NSC PROB30 0312/0318 12018KT 4000 BLDU", "TAF COR OJAM 031020Z 0312/0418 16008KT 5000 HZ NSC PROB30 0312/0318 14016KT 4000 BLDU", "TAF OJAQ 030954Z 0312/0418 36010KT 5000 HZ NSC BECMG 0312/0314 18010KT 5000 HZ NSC PROB30 0312/0318 18018KT 4000 BLDU", "TAF OKAS 030807Z 0308/0414 32012G20KT 8000 BLDU SKC QNH3004INS TEMPO 0308/0314 33015G25KT 6000 BLDU BECMG 0314/0315 33010G15KT 9999 NSW SKC QNH2996INS WND 32009KT AFT 0318 BECMG 0405/0406 29012G20KT 8000 BLDU SKC QNH3003INS TEMPO 0410/0414 32015G25KT 6000 BLDU TX28/0311Z TN13/0401Z", "TAF OLBA 031000Z 0312/0418 34010KT CAVOK BECMG 0318/0321 04012KT BECMG 0403/0406 13018KT BECMG 0406/0409 19018KT BECMG 0412/0418 25016KT 8000 FEW026", "TAF OMAA 031100Z 0312/0418 30015KT 9999 FEW040 BECMG 0323/0401 24005KT BECMG 0404/0406 31014KT", "TAF OMAD 031100Z 0312/0418 31012KT 9999 FEW040 PROB30 0323/0401 25005KT BECMG 0403/0405 31012KT", "TAF OMAL 031100Z 0312/0418 30014KT 8000 NSC BECMG 0319/0321 20005KT PROB30 0322/0402 3000 BR BKN004 BECMG 0404/0406 29012KT", "TAF OMDB 031100Z 0312/0418 28015KT 8000 FEW033 PROB30 TEMPO 0312/0314 28020G30KT BECMG 0317/0319 21007KT BECMG 0405/0407 27015KT", "TAF OMDW 031100Z 0312/0418 28017KT 8000 FEW034 PROB30 TEMPO 0312/0314 29020G30KT 4000 BLDU BECMG 0316/0318 21007KT BECMG 0405/0407 28015KT", "TAF OMFJ 031100Z 0312/0418 29015KT 7000 NSC PROB40 TEMPO 0312/0406 30020G30KT 4000 BLDU", "TAF OMRK 031100Z 0312/0418 27015KT CAVOK BECMG 0315/0317 21005KT PROB30 0400/0405 3000 HZ BKN014 BECMG 0406/0408 27013KT", "TAF OMSJ 031100Z 0312/0418 26015KT 8000 FEW035 PROB30 TEMPO 0312/0314 29020G30KT BECMG 0316/0318 21007KT PROB30 0401/0404 4000 HZ BECMG 0405/0407 27015KT", "TAF OODQ 030500Z 0306/0406 31010KT 8000 NSC BECMG 0311/0313 12010KT BECMG 0316/0318 21010KT PROB30 TEMPO 0322/0401 4000 BR BKN010", "TAF OOMS 031100Z 0312/0418 35010KT 8000 NSC BECMG 0315/0317 24007KT BECMG 0406/0408 35012KT BECMG 0415/0417 VRB02KT", "TAF OOSA 031140Z 0312/0418 18012KT 9999 SCT025 BECMG 0316/0318 VRB03KT BECMG 0400/0402 02007KT CAVOK BECMG 0407/0409 18012KT", "TAF OOSH 031100Z 0312/0418 32010KT 8000 NSC BECMG 0317/0319 25010KT BECMG 0406/0408 06010KT BECMG 0414/0416 VRB02KT", "TAF OPBW 030945Z 0312/0406 36010KT 4000 FU FEW040 SCT100 TN19/0401Z PROB30 TEMPO 0322/0406 36025KT 2500 -TSRA FEW030CB SCT040 BKN100", "TAF OPDG 030945Z 0312/0406 36010KT 5000 FU FEW040 SCT100 TN18/0401Z PROB30 TEMPO 0320/0324 36025KT 2500 -TSRA FEW030CB SCT040 BKN100", "TAF OPFA 030945Z 0312/0418 23003KT 4000 FU SCT040 SCT100 TX27/0409Z TN17/0401Z TEMPO 0313/0317 36010G25KT 2000 -TSRA FEW030CB SCT040 SCT100BECMG 0400/0404 23002KT 2000 BR SCT100 FM040600 36003KT 5000 FU FEW040", "TAF OPGD 030930Z 0312/0412 24010G20KT 5000 HZ SCT030 BECMG 0315/0317 23010G20KT 4000 HZ SCT030 TEMPO 0400/0404 25005KT 2000 FU FEW030 FM040500 26010G20KT 4000 HZ SCT030", "TAF OPIS 030945Z 0312/0418 31010KT 6000 SCT040 BKN100 TEMPO 0312/0316 13015G25KT 3000 TSRA FEW030CB SCT040 BKN100 TEMPO 0321/0403 05015G25KT 2500 TSRA FEW030CB SCT040 OVC100", "TAF OPKC 030930Z 0312/0418 25010G20KT 6000 FEW030 FM031400 26010KT 5000 HZ SCT030 TEMPO 0401/0405 27006KT 3000 FU SCT030 FM040600 24010G20KT 6000 FEW030 BECMG 25010KT 5000 HZ SCT030", "TAF OPLA 031100Z 0312/0418 09008KT 4000 FU FEW040 BKN100 TX26/0410Z TN14/0401Z TEMPO 0316/0322 11015G40KT 2000 TSRA FEW030CB SCT040 BKN100 TEMPO 0401/0404 2000 BR NSC FM040600 33010KT 6000 FEW040 SCT100", "TAF OPMT 030945Z 0312/0406 36010KT 4000 FU FEW040 SCT100 TN17/0401Z PROB30 TEMPO 0320/0324 36025KT 2500 -TSRA FEW030CB SCT040 BKN100", "TAF OPNH 030930Z 0312/0418 23010G20KT 5000 HZ NSC BECMG 0317/0319 25010KT 4000 HZ NSC TEMPO 0400/0404 VRB03KT 3000 FU NSC FM040500 35010KT 4000 HZ NSC BECMG 0413/0415 04006KT 4000 HZ NSC", "TAF OPPS 030930Z 0312/0418 33008KT 4500 RA FU SCT040 BKN100 TEMPO 0314/0318 31008KT 4000 TSRA FEW035CB SCT040 BKN100 TEMPO 0323/0403 23008KT 4000 -TSRA FEW035CB SCT040 BKN100 TEMPO 0410/0413 05008KT 4500 -TSRA FEW035CB SCT040 BKN100", "TAF OPRK 030945Z 0312/0406 36010KT 4000 FU FEW040 SCT100 TN19/0401Z PROB30 TEMPO 0322/0402 36025KT 2500 -TSRA FEW030CB SCT040 BKN100", "TAF OPSK 030930Z 0312/0412 21010KT 5000 HZ SCT030 BECMG 0314/0316 33008KT 3000 HZ SCT030 TEMPO 0400/0404 VRB03KT 3000 FU SCT030 FM040500 07008KT 4000 HZ NSC", "TAF OPST 030945Z 0312/0418 13008KT 4000 FU SCT040 SCT100 TX26/0410Z TN15/0401Z PROB30 TEMPO 0315/0321 31015G25KT 3000 -TSRA FEW030CB SCT040 BKN100", "TAF ORBI 031000Z 0312/0412 33010KT 8000 NSC", "TAF ORER 031100Z 0312/0412 30008KT 8000 SCT035 BECMG 0318/0320 VRB02KT NSC", "TAF ORMM 030500Z 0306/0406 31016KT CAVOK ", "TAF ORSU 031100Z 0312/0412 29012KT 9999 SCT045 BECMG 0316/0318 32005KT CAVOK BECMG 0408/0410 26012KT", "OSAP 030500Z 0306/0406 03010KT 9999 FEW030 BECMG 0400/0402 12010KT CAVOK", "OSDI 030500Z 0306/0412 VRB03KT 4000 BR BECMG 0308/0310 22010KT 9999 FEW030 SCT100", "OSLK 030500Z 0306/0406 06010KT 9999 FEW030 SCT100 TEMPO 0310/0318 30015KT BECMG 0402/0404 09015G30KT", "TAF OTBD 031106Z 0312/0418 30013KT CAVOK TEMPO 0312/0316 33015G25KT", "TAF AMD OTBH 030920Z 0309/0414 33020G30KT 9999 SKC QNH2990INS TEMPO 0310/0314 34025G35KT BECMG 0315/0316 32015KT 9999 SKC QNH2990INS BECMG 0405/0406 32015G25KT 9999 SKC QNH2991INS TX26/0310Z TN17/0403Z", "TAF OTHH 030503Z 0306/0412 33017G27KT CAVOK", "TAF COR OYAA 030500Z 0306/0412 18012KT 7000 SCT020 BKN100 TEMPO 0308/0315 FEW035CB SCT200 BECMG 0318/0320 10005KT TEMPO 0321/0402 RA BKN015 BECMG 0406/0408 18012KT", "PAAQ 031139Z 0312/0412 35008KT P6SM SCT200 FM032200 14008KT P6SM SCT050 OVC100 FM040600 06008KT P6SM OVC050", "PABE 031140Z 0312/0412 03008KT P6SM OVC100 FM031800 05008KT 4SM -SN BR OVC025 FM040000 07006KT 6SM -SN BR OVC015 FM040400 16009KT 2SM -SN BR OVC007", "PABR 031138Z 0312/0412 24015KT 6SM -SN BR FEW015 FM040000 24008KT 6SM -SN BR BKN015 OVC025", "PABT 031138Z 0312/0412 VRB03KT P6SM VCFG FEW001 SCT100 FM031800 09004KT P6SM SCT050 BKN100 BKN200 FM040000 09004KT P6SM SCT035 BKN050 OVC100 FM040300 12006KT P6SM VCSH SCT025 BKN035 OVC050 FM040600 VRB06KT 4SM -SN BR BKN025 OVC035 FM040900 VRB04KT 2SM -SN BR BKN007 OVC015", "PACD 031139Z 0312/0412 20010KT 6SM BR OVC015 TEMPO 0316/0320 3SM BR FM032000 22015KT P6SM OVC025", "PACV 031120Z 0312/0412 VRB05KT P6SM BKN200", "PADL 031140Z 0312/0412 05009KT 2SM -SN BR SCT015 OVC025 FM031600 05011KT 1 1/2SM -SN BR SCT007 OVC015 FM032200 15007KT 4SM -SHSNRA BR OVC007 FM040600 19010KT 2SM -SHSN BR OVC003", "PADQ 031154Z 0312/0412 10009KT P6SM OVC050 FM031300 08015KT 2SM -RA BR OVC015 FM040000 05015KT 6SM -RA BR SCT008 OVC015", "PADU 031139Z 0312/0412 22012KT P6SM SCT015 OVC030 FM040400 21010KT P6SM VCSH OVC030", "TAF PAED 030500Z 0305/0411 25009KT 9999 FEW065 FEW200 QNH3000INS BECMG 0307/0308 VRB04KT 9999 FEW065 BKN200 QNH2995INS BECMG 0320/0321 01004KT 9999 FEW065 BKN100 621005 QNH2993INS BECMG 0323/0324 01004KT 9999 VCSH SCT045 OVC060 620609 QNH2990INS TX02/0402Z TNM08/0314Z", "TAF PAEI 030600Z 0306/0412 26009KT 9999 SCT020 QNH3005INS TEMPO 0309/0315 VRB06KT 4800 BCFG FEW030 SCT070 BECMG 0314/0315 VRB06KT 9999 FEW040 QNH2999INS BECMG 0318/0319 10009KT 9999 FEW050 SCT120 QNH2974INS BECMG 0404/0405 VRB04KT 9999 BKN050 620509 QNH2964INS TX02/0322Z TNM19/0314Z", "PAEN 031139Z 0312/0412 03009KT P6SM FEW100 BKN200 FM040000 36006KT P6SM VCSH SCT030 OVC045 FM040600 36006KT P6SM SCT030 OVC045", "PAFA 031138Z 0312/0418 VRB04KT P6SM VCFG FEW001 FEW045 SCT100 FM031800 VRB03KT P6SM FEW050 SCT100 SCT200 FM040900 VRB03KT P6SM SCT050 BKN100 BKN200", "TAF PAFB 030600Z 0306/0412 VRB06KT 9999 FEW030 QNH3004INS BECMG 0307/0308 VRB06KT 6000 BR FEW030 QNH3009INS BECMG 0309/0310 VRB06KT 3200 BR FEW020 QNH3008INS TEMPO 0312/0316 0800 FZFG VV001 BECMG 0315/0316 VRB06KT 3200 BR SCT005 SCT020 QNH3005INS BECMG 0316/0317 VRB06KT 6000 BR SCT015 QNH3003INS BECMG 0317/0318 11010G15KT 9999 NSW FEW020 FEW180 QNH2997INS BECMG 0319/0320 11010G15KT 9999 SCT180 QNH2984INS BECMG 0323/0324 11006KT 9999 SCT080 BKN180 QNH2975INS BECMG 0404/0405 13005KT 9999 SCT050 BKN080 QNH2967INS TX02/0401Z TNM19/0313Z", "PAGA 031138Z 0312/0412 06012KT P6SM SKC FM040000 03012KT P6SM SCT050 BKN100 OVC200 FM040300 03012KT P6SM VCSH BKN035 BKN050 OVC100 FM040900 06006KT 4SM -SN BR BKN025 OVC035 AMD NOT SKED", "PAGK 031120Z 0312/0412 VRB04KT P6SM SKC FM040200 17010KT P6SM BKN200", "PAGS 031132Z 0312/0412 34004KT P6SM SCT020 BKN050 TEMPO 0312/0314 BKN025 OVC050 FM032100 21006KT P6SM SCT080 AMD LTD TO CLD VIS AND WIND", "PAGY 031132Z 0312/0412 03013KT P6SM SCT050 OVC070 FM032000 04010KT P6SM SKC FM040600 02005KT P6SM SCT050 BKN070 AMD LTD TO CLD VIS AND WIND", "PAHN 031132Z 0312/0412 31010KT P6SM BKN070 TEMPO 0312/0313 2SM -SN BR OVC025 FM032200 12005KT P6SM SKC AMD LTD TO CLD VIS AND WIND", "PAHO 031139Z 0312/0412 05004KT P6SM FEW100 BKN200 FM031500 05005KT P6SM BKN050 OVC080 FM032000 07010KT P6SM VCSH SCT030 OVC045 FM040600 04005KT P6SM OVC050", "PAIL 031140Z 0312/0412 VRB05KT P6SM OVC100 FM031700 08010G15KT 3SM -SN OVC025 FM032000 09012G25KT 6SM -SHSN SCT020 OVC030", "PAJN 031132Z 0312/0412 VRB03KT 5SM -SHRASN BR SCT005 OVC060 FM031400 VRB05KT P6SM SCT015 BKN050 FM032000 23010KT P6SM SCT100 FM040300 VRB05KT P6SM SKC", "PAKN 031140Z 0312/0412 07005KT 2SM -SN BR SCT015 OVC025 FM031400 07007KT 1 1/2SM -SN BR SCT007 OVC015 FM032200 16007KT 4SM -SHRASN BR OVC007", "PAKT 031132Z 0312/0412 VRB06KT P6SM -SHRASN BKN035 OVC050 FM031900 33007KT P6SM BKN050 AMD LTD TO CLD VIS AND WIND TIL 031500", "PAKW 031132Z 0312/0412 VRB05KT P6SM -SHRASN SCT025 OVC050 TEMPO 0312/0314 5SM -SHRASN BKN020 OVC035 FM031900 24009KT P6SM SCT100 AMD LTD TO CLD VIS AND WIND", "PAMC 031138Z 0312/0412 36005KT P6SM FEW100 SCT200 FM032100 VRB03KT P6SM SCT050 BKN100 OVC200 FM040000 12005KT P6SM VCSH SCT025 BKN035 OVC050 FM040600 15006KT 6SM -SN BR BKN025 OVC035 FM040900 15006KT 4SM -SN BR BKN015 OVC025", "PANC 031139Z 0312/0418 35004KT P6SM BKN200 FM032200 VRB06KT P6SM FEW050 BKN100 FM040200 15006KT P6SM FEW030 OVC050 FM040800 35002KT P6SM OVC050", "PAOM 031138Z 0312/0412 00000KT P6SM VCFG SCT050 FM032100 VRB04KT P6SM SCT050 BKN100", "PAOR 031138Z 0312/0412 VRB03KT P6SM VCFG FEW001 SCT100 SCT200 FM031800 VRB06KT P6SM FEW001 SCT100 SCT200", "PAOT 031138Z 0312/0412 12006KT P6SM OVC012 FM031800 12006KT P6SM SCT015 BKN050 BKN100 FM032100 33006KT P6SM SCT050 BKN100 BKN200", "PAPG 031132Z 0312/0412 VRB03KT 5SM -SHRASN SCT025 OVC035 FM031700 VRB05KT P6SM BKN050 FM032200 05006KT P6SM SCT090 AMD LTD TO CLD VIS AND WIND TIL 031500", "PAQT 031138Z 0312/0412 24012KT 5SM -SN BR BKN012 OVC025 FM040000 24010KT 6SM -SN BR BKN015 OVC025", "PASC 031138Z 0312/0412 24015KT 5SM -SN BR BKN025 OVC050 FM040000 24012KT 6SM -SN BR BKN015 OVC025", "PASD 031139Z 0312/0412 VRB03KT 4SM -RA BR OVC010 FM031500 33007KT 2SM BR SCT003 OVC007 FM040000 24010KT P6SM SCT015 OVC025", "PASI 031132Z 0312/0412 VRB06KT 5SM BR FEW015 SCT025 BKN060 FM031800 34006KT P6SM SCT080", "PASN 031139Z 0312/0412 15008KT 1/2SM FG OVC007 FM032100 21012KT 1 1/2SM -SHSNRA BR OVC007 FM040600 32010KT 3SM BR BKN007 OVC015", "TAF PASY 030600Z 0306/0412 36012G18KT 9000 -RA OVC007 620079 QNH2959INS BECMG 0310/0312 36012G18KT 9999 NSW BKN015 620153 QNH2960INS BECMG 0319/0320 33010G15KT 9999 BKN020 620202 QNH2980INS BECMG 0401/0403 26009KT 9999 BKN025 620252 QNH2995INS TX03/0400Z TN01/0307Z LIMITED METWATCH 0306 TIL 0309", "PATA 031138Z 0312/0412 VRB03KT P6SM VCFG FEW001 SCT100 FM031800 09004KT P6SM SCT050 BKN100 BKN200 FM040300 09004KT P6SM SCT035 BKN050 OVC100 FM040600 12006KT P6SM VCSH SCT025 BKN035 OVC050 FM040900 VRB06KT 4SM -SN BR BKN025 OVC035", "PATK 031139Z 0312/0412 01003KT P6SM SCT200 FM040000 30003KT P6SM FEW050 BKN100 FM040600 00000KT 6SM -SN BR FEW020 OVC035", "PAUN 031138Z 0312/0412 07005KT P6SM FEW035 SCT050 SCT100 FM040300 07015KT P6SM SCT035 BKN050 OVC100 FM040600 07015KT P6SM VCSH SCT035 BKN050 OVC100", "PAVD 031154Z 0312/0412 18005KT P6SM SKC FM040400 32005KT P6SM FEW035 OVC100 AMD LTD TO CLD AND WIND TIL 031500", "PAWG 031132Z 0312/0412 11006KT 5SM -RASN BKN035 OVC050 FM031800 32007KT P6SM BKN050 AMD NOT SKED TIL 031500", "PAYA 031132Z 0312/0412 VRB03KT P6SM SKC TEMPO 0313/0316 3SM BR FM040900 09006KT P6SM SCT025 OVC050 AMD LTD TO CLD VIS AND WIND", "PGRO 030525Z 0306/0406 15007KT P6SM VCSH SCT015 BKN070 FM031000 18004KT P6SM VCSH SCT025 BKN050 FM032000 20005KT P6SM VCSH SCT025 SCT050", "PGSN 031134Z 0312/0412 18004KT P6SM VCSH SCT020 BKN040 TEMPO 0313/0317 4SM SHRA BKN015 FM032000 20005KT P6SM VCSH SCT025 SCT050", "TAF PGUA 031000Z 0310/0416 17006KT 9999 VCSH BKN014 QNH2971INS TEMPO 0312/0315 17010KT 6000 -SHRA TEMPO 0316/0321 19010G15KT 4800 SHRA VCTS BKN007CB TEMPO 0321/0411 17010KT 6000 -SHRA TX29/0402Z TN24/0318Z", "PGUM 031134Z 0312/0418 18004KT P6SM VCSH SCT022 SCT050 TEMPO 0314/0318 4SM SHRA BKN018 FM032000 20005KT P6SM VCSH SCT025 SCT050", "PGWT 030525Z 0306/0406 11007KT P6SM VCSH SCT018 BKN070 TEMPO 0306/0309 2SM -SHRA SCT015 BKN050 FM031000 18004KT P6SM VCSH SCT025 BKN050 FM032000 20005KT P6SM VCSH SCT025 SCT050", "PHJH 030412Z 0304/0324 05010KT P6SM VCSH SCT025 BKN035 OVC060 TEMPO 0304/0306 4SM SHRA BR BKN025 FM030600 06008KT P6SM VCSH SCT035 BKN040 FM032000 06012KT P6SM VCSH SCT035 BKN050", "PHJR 031135Z 0312/0412 07010KT P6SM VCSH FEW025 BKN100 FM032000 10008G15KT P6SM VCSH FEW025 SCT050 FM040400 05005KT P6SM VCSH FEW025 SCT050", "PHKO 031135Z 0312/0412 08005KT P6SM VCSH FEW025 BKN100 FM032100 23009KT P6SM VCSH SCT025 BKN100 FM040500 08005KT P6SM SCT025 BKN100", "PHLI 031135Z 0312/0412 05009KT P6SM VCSH SCT025 BKN035 TEMPO 0312/0316 5SM SHRA BR BKN025 FM031900 05014KT P6SM VCSH SCT025 BKN035", "PHMK 031135Z 0312/0412 04010KT P6SM VCSH SCT025 BKN050 FM032000 04014G22KT P6SM VCSH SCT025 BKN050 FM040500 04010KT P6SM VCSH SCT025 BKN050", "PHNL 031135Z 0312/0418 11011KT P6SM VCSH FEW025 BKN100 FM031300 07007KT P6SM VCSH FEW025 BKN100 FM032000 06013G20KT P6SM VCSH FEW025 SCT050 FM040600 06010KT P6SM VCSH FEW025 SCT050", "PHNY 031135Z 0312/0412 05007KT P6SM VCSH SCT015 BKN035 FM032100 04014KT P6SM VCSH SCT015 BKN025 FM040500 05007KT P6SM SCT025 BKN100 AMD NOT SKED", "PHOG 031135Z 0312/0412 07008KT P6SM VCSH SCT040 BKN100 FM032100 05015G23KT P6SM VCSH SCT035 BKN050 FM040500 06010KT P6SM VCSH SCT035 BKN050", "PHTO 031135Z 0312/0412 26008KT 3SM SHRA BR SCT025 BKN040 FM031800 25006KT P6SM VCSH SCT025 BKN040 FM032100 10008KT P6SM VCSH SCT025 BKN040 FM040500 24005KT P6SM VCSH SCT025 BKN040", "PKMJ 031134Z 0312/0412 09011KT P6SM VCSH FEW015 SCT100", "PKWA 031134Z 0312/0412 08015KT P6SM VCSH SCT020 SCT030", "TAF PLCH 031114Z 0312/0412 09007KT 9999 SCT020 PROB40 TEMPO 0312/0318 5000 SHRA BKN016", "PMDY 031135Z 0312/0412 16010KT P6SM BKN040 FM040900 12008KT P6SM SCT040 AMD NOT SKED", "PTKK 031134Z 0312/0412 13006KT P6SM VCSH SCT014 SCT120 TEMPO 0312/0316 -SHRA BKN014", "PTPN 022320Z 0300/0324 08011KT P6SM VCSH SCT018 BKN120", "PTRO 031134Z 0312/0412 01005KT P6SM VCSH SCT016 SCT110", "PTSA 022320Z 0300/0324 09005KT P6SM VCSH BKN016 BKN130 OVC300 TEMPO 0300/0304 4SM SHRA BKN014 OVC100 FM030500 09007KT P6SM VCSH SCT015 BKN120", "PTYA 031134Z 0312/0412 02005KT P6SM VCSH FEW016", "TAF AMD PWAK 030614Z 0306/0412 VRB06KT 9999 SCT040 QNH2984INS TX29/0404Z TN23/0317Z FOR MIL USE ONLY", "TAF RCFN 031100Z 0312/0412 35005KT 9999 FEW012 BKN032 BKN060 BECMG 0401/0403 12010KT", "TAF RCKH 031100Z 0312/0418 35005KT 9999 FEW012 BKN032 TEMPO 0319/0401 06005KT 5000 HZ BECMG 0401/0403 28010KT TEMPO 0404/0410 23010KT BECMG 0410/0412 35005KT", "TAF RCMQ 031100Z 0312/0412 35006KT 9000 FEW010 SCT200 TX28/0405Z TN18/0320Z BECMG 0313/0316 33004KT 6000 TEMPO 0318/0323 1600 BR BKN004 BKN008 BECMG 0401/0404 33008KT 5000 BR FEW008 BKN050 BECMG 0405/0408 9000 FEW010 SCT050", "TAF RCNN 031100Z 0312/0412 34004KT 9999 FEW012 BKN060 TX30/0405Z TN20/0320Z BECMG 0313/0316 8000 FEW012 BKN050 TEMPO 0318/0323 5000 BR FEW012 SCT050 BECMG 0400/0403 28006KT 9999 FEW012 SCT080 BECMG 0406/0409 33008KT FEW012 BKN060", "TAF RCSS 031100Z 0312/0412 10005KT 9999 FEW020 BECMG 0401/0403 33005KT TEMPO 0404/0410 28010KT", "TAF RCTP 031100Z 0312/0418 12005KT 9999 FEW020 TEMPO 0318/0324 21005KT BECMG 0400/0402 31005KT TEMPO 0404/0410 26010KT BECMG 0410/0412 21005KT", "TAF RJAA 031105Z 0312/0418 34005KT 9999 FEW030 BECMG 0403/0406 12008KT", "TAF RJAH 031105Z 0312/0418 03005KT 9999 FEW030 BECMG 0406/0409 16005KT BECMG 0412/0415 02006KT", "TAF RJBB 031106Z 0312/0418 06008KT 9999 FEW030 BECMG 0403/0406 23008KT", "TAF RJCB 031105Z 0312/0418 15005KT 9999 FEW040 BECMG 0312/0314 31004KT BECMG 0322/0400 14005KT BECMG 0409/0412 30005KT", "TAF RJCC 031105Z 0312/0418 16005KT 9999 FEW006 SCT015 TEMPO 0313/0315 FEW004 BKN006 TEMPO 0315/0318 2000 BR FEW002 BKN004 TEMPO 0318/0400 1500 BR FEW001 BKN003 BECMG 0322/0400 17018KT BECMG 0409/0412 15005KT", "TAF RJCH 031108Z 0312/0418 05005KT 9999 FEW015 BECMG 0321/0323 22005KT", "TAF RJCK 031108Z 0312/0418 19006KT 9999 FEW030 BECMG 0312/0314 28005KT BECMG 0319/0321 20005KT TEMPO 0400/0409 1500 BR FEW001 BKN003 BECMG 0412/0415 03007KT", "TAF RJCM 031108Z 0312/0418 20006KT 9999 FEW005 SCT015 BECMG 0406/0409 03005KT BECMG 0412/0415 18005KT", "TAF RJEC 031105Z 0312/0418 17010KT 9999 FEW030", "TAF RJFF 031105Z 0312/0418 15004KT 9999 FEW030 BECMG 0403/0406 33009KT BECMG 0409/0412 14004KT", "TAF RJFK 031105Z 0312/0418 10007KT 9999 FEW030 TEMPO 0403/0409 13015G25KT", "TAF RJFM 031106Z 0312/0418 08013KT 9999 FEW030 BKN040", "TAF RJFO 031108Z 0312/0418 25004KT 9999 FEW030 BECMG 0318/0320 06007KT BECMG 0406/0409 15011KT", "TAF RJFR 031105Z 0312/0418 01008KT 9999 FEW020 BECMG 0313/0315 10010KT BECMG 0400/0403 06011KT BECMG 0409/0412 12008KT", "TAF RJFS 031106Z 0312/0418 35005KT 9999 FEW030 BECMG 0313/0315 02005KT BECMG 0400/0403 22005KT BECMG 0406/0409 14007KT", "TAF RJFT 031105Z 0312/0418 06006KT 9999 FEW020 BECMG 0400/0403 23007KT BECMG 0409/0412 06003KT", "TAF RJFU 031108Z 0312/0418 34009KT 9999 FEW030 BECMG 0312/0314 14006KT BECMG 0403/0406 26007KT BECMG 0409/0412 14010KT", "TAF RJGG 031105Z 0312/0418 18008KT 9999 FEW030 SCT050 BECMG 0314/0316 34004KT BECMG 0400/0403 23006KT BECMG 0415/0418 06004KT", "TAF RJNK 031106Z 0312/0418 12004KT 9999 FEW030 BECMG 0400/0403 30006KT BECMG 0406/0409 03006KT BECMG 0412/0415 18004KT", "TAF RJNS 031106Z 0312/0418 34004KT 9999 FEW020 SCT040 BECMG 0400/0403 16010KT BECMG 0409/0412 30008KT", "TAF RJNT 031105Z 0312/0418 20004KT 9999 FEW010 BKN020 BECMG 0321/0323 36006KT BECMG 0412/0415 20006KT", "TAF RJOA 031105Z 0312/0418 03005KT 9999 FEW030", "TAF RJOB 031105Z 0312/0418 01004KT 9999 FEW035", "TAF RJOC 031105Z 0312/0418 11008KT 9999 FEW020 BECMG 0412/0415 17008KT", "TAF RJOH 031105Z 0312/0418 07012KT 9999 FEW020 BECMG 0412/0415 18005KT", "TAF RJOI 0309/0409 VRB06KT 9999 SKC QNH3014INS BECMG 0311/0313 31006KT 9999 FEW200 QNH3019INS BECMG 0321/0323 VRB06KT 9999 FEW020 SCT200 QNH3023INS FM040300 19008KT 9999 FEW030 SCT060 BKN180 QNH3016INS T09/0321Z T19/0406Z", "TAF RJOK 031106Z 0312/0418 35008KT 9999 FEW030 BECMG 0400/0403 18008KT BECMG 0409/0412 35006KT", "TAF RJOM 031105Z 0312/0418 36004KT 9999 FEW030 BECMG 0312/0314 12006KT BECMG 0322/0400 34006KT BECMG 0409/0412 12006KT", "TAF RJOO 031106Z 0312/0418 32005KT 9999 FEW025 BECMG 0400/0403 22006KT BECMG 0406/0409 32005KT", "TAF RJOT 031105Z 0312/0418 15006KT 9999 FEW035", "TAF RJSA 031105Z 0312/0418 20004KT 9999 FEW030 BECMG 0400/0403 26010KT BECMG 0409/0412 20008KT", "TAF RJSF 031105Z 0312/0418 14004KT 9999 FEW030 BECMG 0322/0400 36008KT BECMG 0406/0409 14004KT", "TAF RJSI 031105Z 0312/0418 20006KT 9999 FEW030 BECMG 0313/0315 02004KT BECMG 0403/0406 26008KT BECMG 0412/0415 02004KT", "TAF RJSK 031105Z 0312/0418 29007KT 9999 FEW010 BECMG 0312/0314 14004KT BECMG 0400/0403 28010KT BECMG 0409/0412 14004KT", "TAF RJSN 031105Z 0312/0418 35006KT 9999 FEW010 BECMG 0313/0315 17006KT BECMG 0400/0403 35008KT BECMG 0412/0415 17006KT", "TAF RJSS 031105Z 0312/0418 02005KT 9999 FEW030 BECMG 0313/0315 30004KT BECMG 0322/0400 12008KT BECMG 0409/0412 30004KT", "TAF RJTT 031105Z 0312/0418 36008KT 9999 FEW030 BECMG 0400/0403 08005KT BECMG 0406/0409 18012KT", "TAF RJTY 030500Z 0305/0411 06010G15KT 9999 FEW040 SCT060 QNH3014INS BECMG 0307/0309 08006KT 9999 FEW060 QNH3018INS BECMG 0312/0313 VRB06KT 9999 FEW060 QNH3027INS BECMG 0323/0401 VRB06KT 9999 SKC QNH3022INS TX18/0305Z TN08/0321Z", "TAF RKJB 031100Z 0312/0418 11006KT CAVOK TN08/0320Z TX21/0404Z BECMG 0323/0324 15015G25KT BECMG 0409/0411 4000 -RA FEW010 BKN035 OVC100", "TAF AMD RKJK 031100Z 0311/0414 VRB06KT 9999 SCT200 QNH3005INS BECMG 0400/0401 10009KT 8000 HZ BKN180 QNH3003INS BECMG 0403/0404 13009KT 8000 HZ FEW120 OVC150 QNH2995INS BECMG 0407/0408 15010G15KT 8000 BR SCT060 BKN080 QNH2986INS BECMG 0409/0410 14015G20KT 6000 -RA SCT020 BKN040 QNH2979INS BECMG 0413/0414 14012G20KT 8000 -RA SCT025 BKN030 OVC040 QNH2975INS TX17/0403Z TN08/0320Z", "TAF RKNN 031100Z 0312/0418 21006KT 9999 SCT010 SCT200 WND 12006KT 0400/0413 BECMG 0415/0416 18010KT 4800 -RA BR SCT040 BKN100 TN07/0321Z TX18/0406Z ", "TAF RKNW 031100Z 0312/0418 24006KT 9999 BKN250 WND 03006KT AFT 0314 WND 24006KT AFT 0401 BECMG 0408/0409 24006KT 9999 BKN100 BKN200 BECMG 0411/0412 24006KT 9999 -RA SCT030 OVC100 BECMG 0412/0413 24006KT 4800 -RA BR BKN030 OVC100 BECMG 0415/0416 24006KT 1600 -RA BR BKN015 OVC030 TN06/0321Z TX20/0406Z ", "TAF RKNY 031100Z 0312/0418 17010KT CAVOK TN09/0321Z TX16/0405Z BECMG 0401/0402 11010KT BECMG 0410/0411 35007KT BECMG 0412/0414 6000 -RA FEW010 BKN030 OVC080", "TAF RKPC 031100Z 0312/0418 10015G25KT CAVOK TN14/0318Z TX21/0405Z BECMG 0319/0320 11010KT BECMG 0402/0403 13016G28KT 9999 SCT030 BKN150 BECMG 0407/0408 13011KT FEW010 BKN030 OVC100 BECMG 0412/0413 36010KT 6000 -RA", "TAF RKPK 031100Z 0312/0418 06008KT 9999 SCT030 SCT200 TN09/0321Z TX22/0406Z BECMG 0314/0315 03006KT BECMG 0402/0403 18008KT BECMG 0411/0412 -RA BKN030 OVC100", "TAF RKSG 030300Z 0303/0409 10015G20KT 9000 HZ SKC 510053 QNH3016INS BECMG 0309/0310 12006KT 9000 HZ FEW270 510053 QNH3012INS TX23/0306Z TN09/0321Z", "TAF RKSI 031100Z 0312/0418 31007KT CAVOK TN10/0321Z TX20/0405Z BECMG 0312/0314 14010KT BECMG 0407/0408 05006KT BECMG 0409/0411 17007KT 6000 -RA FEW010 BKN040 OVC080 BECMG 0412/0414 09010KT BECMG 0415/0417 09015G25KT FEW010 BKN025 OVC080", "TAF RKSM 031100Z 0312/0418 18006KT 9999 BKN200 TN11/0321Z TX23/0406Z ", "TAF RKSO 030500Z 0305/0411 10009KT 9000 HZ BKN200 612001 QNH3014INS BECMG 0315/0316 10009KT 9000 BR BKN150 OVC200 621506 QNH3014INS BECMG 0405/0406 10009KT 9000 HZ VCSH BKN070 OVC130 610809 510009 QNH3013INS TEMPO 0406/0409 -SHRA BKN060 BECMG 0408/0409 10009KT 9000 -SHRA BR BKN030 OVC040 640709 QNH3013INS TEMPO 0409/0411 10012G18KT BKN020 TX26/0306Z TN09/0318Z", "TAF RKSS 031100Z 0312/0418 04005KT CAVOK TN09/0321Z TX21/0405Z BECMG 0314/0316 14006KT BECMG 0410/0412 11008KT 6000 -RA FEW012 BKN040 OVC080 BECMG 0416/0418 11015G25KT FEW011 BKN025 OVC070", "TAF RKSW 031100Z 0312/0418 12006KT 9999 BKN200 TN10/0322Z TX21/0406Z ", "TAF RKTE 031100Z 0312/0418 15006KT 9999 BKN200 WND 15010KT AFT 0401 BECMG 0408/0409 15010KT 9999 BKN100 BKN200 TN07/0321Z TX24/0405Z ", "TAF RKTI 031100Z 0312/0418 24006KT 9999 BKN200 BECMG 0411/0412 15006KT 9000 -RA BR BKN050 BKN100 TN05/0321Z TX22/0406Z ", "TAF RKTN 031100Z 0312/0418 12010KT CAVOK TN07/0321Z TX22/0406Z", "TAF RKTP 031100Z 0312/0418 15006KT 9999 SCT200 BECMG 0407/0408 18008KT 4800 -RA BR SCT015 OVC030 BECMG 0411/0412 18010KT 3200 -RA BR BKN015 OVC030 TN08/0321Z TX21/0406Z ", "TAF RKTU 031100Z 0312/0418 12006KT CAVOK TN06/0321Z TX20/0406Z BECMG 0409/0410 15008KT 4800 -RA BR NSC BECMG 0415/0416 3200 BKN015 OVC030", "TAF RKTY 031100Z 0312/0418 10006KT 9999 SCT030 SCT250 BECMG 0411/0412 12006KT 4800 -RA BR BKN030 BKN100 TN05/0321Z TX21/0406Z ", "TAF ROAH 031105Z 0312/0418 08018KT 9999 FEW025 BKN035 BECMG 0321/0323 10016KT", "TAF AMD RODN 031100Z 0311/0414 06012G18KT 9999 SCT030 QNH2997INS BECMG 0323/0324 10012G20KT 9999 BKN045 QNH3000INS BECMG 0409/0410 12009KT 9999 SCT050 QNH3002INS TX25/0405Z TN16/0320Z", "TAF ROIG 031105Z 0312/0418 10012KT 9999 FEW025 BKN035 BECMG 0409/0412 14012KT", "TAF ROTM 0309/0409 07010G18KT 9999 FEW030 QNH3000INS BECMG 0313/0315 08014G22KT 9999 SCT030 SCT200 QNH3004INS FM032200 11012G20KT 9999 BKN030 BKN200 QNH3007INS T17/0320Z T25/0403Z", "TAF RPLB 031100Z 0312/0412 07005KT 9999 FEW020 TX33/0405Z TN24/0321Z TEMPO 0312/0318 VRB03KT 8000 -SHRA FEW018CB FEW020 BKN080", "TAF RPLC 031100Z 0312/0418 18006KT 9999 SCT020 BKN300 TX35/0406Z TN25/0321Z TEMPO 0312/0318 32010KT FEW015CB SCT020 BKN100", "TAF RPLI 030500Z 0306/0406 29012KT 9999 FEW018 BKN280 BECMG 0312/0316 09004KT TEMPO 0402/0406 29010KT", "TAF RPLL 031100Z 0312/0418 12006KT 9999 FEW025 TX34/0405Z TN26/0322Z TEMPO 0312/0318 VRB02KT SCT023CB TEMPO 0406/0412 15012KT", "TAF RPMD 031100Z 0312/0412 34006KT 9999 FEW016 SCT080 TEMPO 0312/0318 VRB02KT FEW015CB BKN090", "TAF RPMR 031100Z 0312/0412 02006KT 9999 FEW018 SCT080 TEMPO 0312/0318 19002KT -SHRA SCT017CB BKN080", "TAF RPMZ 031100Z 0312/0412 03004KT 9999 FEW017 SCT090 TEMPO 0312/0318 FEW017CB BKN090", "TAF RPVD 031100Z 0312/0412 04005KT 9999 FEW015 TEMPO 0312/0318 01002KT FEW017CB", "TAF RPVM 031100Z 0312/0418 05006KT 9999 FEW020 SCT300 TEMPO 0318/0324 34004KT", "TAF RPVP 031100Z 0312/0412 07006KT 9999 FEW019 TEMPO 0312/0318 01002KT FEW017CB", "TAF SAAR 031100Z 0312/0412 11010KT 9999 BKN050 FEW050CB TX23/0318Z TN15/0409Z TEMPO 0313/0319 5000 TSRA SCT030 BKN040 FEW045CB BECMG 0315/0318 09005KT BECMG 0401/0403 18005KT 9999 NSW FEW025", "TAF SABE 031100Z 0312/0412 36010KT 5000 -RA SCT020 BKN050 TX21/0318Z TN16/0409Z BECMG 0313/0315 9999 NSW FEW020 BKN050 BECMG 0322/0324 VRB03KT 9999 SCT010", "TAF SACO 031100Z 0312/0412 18003KT 5000 BR BKN040 TX23/0318Z TN15/0410Z BECMG 0314/0316 9999 NSW BKN010 OVC030 BECMG 0403/0406 8000 OVC050", "TAF SADF 031100Z 0312/0412 36010KT 9999 SCT015 OVC060 TX22/0318Z TN16/0410Z BECMG 0315/0317 SCT030 BECMG 0400/0402 14005KT 5000 BR NSC TEMPO 0406/0411 1000 BR NSC", "TAF SAEZ 031100Z 0312/0412 02005KT 9000 -DZ SCT025 BKN050 TX22/0318Z TN14/0409Z BECMG 0315/0318 36010KT 9999 BKN050 BECMG 0321/0400 VRB05KT PROB30 0406/0412 16005KT 5000 BR BKN007", "TAF SAME 031100Z 0312/0412 23005KT 9999 SCT030 SCT100 TX27/0320Z TN17/0410Z BECMG 0314/0316 05005KT 9999 BKN030 SCT100 BECMG 0404/0406 18005KT CAVOK", "TAF SANR 022300Z 0300/0324 25008KT 9999 SCT010 BKN040 TX26/0318Z TN17/0310Z BECMG 0305/0307 2000 BR BKN005 BECMG 0312/0314 CAVOK BECMG 0319/0321 SCT020 FEW040CB OVC050 TEMPO 0321/0324 4000 TSRA", "TAF SANT 031100Z 0312/0412 23005KT 8000 SCT030 BKN050 OVC60 TX28/0318Z TN17/0410Z BECMG 0316/0318 6000 RA BKN020 OVC040 BECMG 0400/0402 1200 DZ BR OVC003", "TAF SARE 031100Z 0312/0412 09010KT CAVOK TX27/0319Z TN16/0409Z", "TAF SARF 031100Z 0312/0412 09010KT CAVOK TX27/0319Z TN16/0409Z", "TAF SARI 031100Z 0312/0412 VRB02 CAVOK TX30/0319Z TN17/0409Z", "TAF SARP 031100Z 0312/0412 09010KT CAVOK TX28/0319Z TN16/0409Z", "TAF SASA 031100Z 0312/0412 27005KT 1300 DZ RA SCT004 OVC020 TX25/0318Z TN16/0410Z BECMG 0315/0318 5000 -RA BKN015 BKN040 TEMPO 0318/0402 7000 SHRA BKN015 BKN040 FEW050TCU", "TAF SASJ 031100Z 0312/0412 VRB03KT 8000 SCT020 OVC050 TX25/0318Z TN19/0410Z PROB30 0315/0318 3000 -RADZ BKN020 OVC030 TEMPO 0318/0402 5000 -SHRA BKN015 BKN040 FEW050TCU", "TAF SAVC 031100Z 0312/0412 29015KT CAVOK TX23/0319Z TN14/0410Z BECMG 0314/0316 28027KT BECMG 0400/0402 27015KT", "TAF SAVT 030500Z 0306/0406 34015KT CAVOK TX14/0318Z TN02/0310Z BECMG 0316/0318 9999 DZ SCT030 OVC045", "TAF SAWE 031100Z 0312/0412 36020KT 9999 SCT020 SCT030 TX16/0319Z TN05/0410Z BECMG 0317/0319 35020G35KT SCT030 BKN040 BECMG 0323/0401 27025KT BECMG 0406/0408 30015KT", "TAF SAWG 031100Z 0312/0412 36015KT CAVOK TX22/0319Z TN06/0410Z BECMG 0315/0317 34020G30KT SCT030 SCT080 BECMG 0323/0401 24020KT BECMG 0405/0407 VRB05KT", "TAF SAWH 031100Z 0312/0412 34020KT 9999 SCT030 BKN040 TX15/0319Z TN04/0410Z TEMPO 0314/0321 34020G33KT BECMG 0402/0404 30015KT SCT020 SCT030", "TAF SAZM 031100Z 0312/0412 32010KT CAVOK TX24/0317Z TN11/0409Z BECMG 0316/0318 12010KT 9999 SCT040 BECMG 0401/0403 09005KT 5000 BR BKN015 TEMPO 0407/0410 0500 FG BKN003 ", "TAF SAZN 031100Z 0312/0412 VRB03KT CAVOK TX25/0319Z TN09/0410Z", "TAF SAZS 031100Z 0312/0412 17005KT CAVOK TX17/0319Z TN01/0410Z BECMG 0315/0318 29010KT BECMG 0321/0323 VRB03KT", "TAF SBAC 030810Z 0312/0324 00000KT 9999 SCT025 FEW030TCU TX30/0318Z TN28/0321Z PROB30 TEMPO 0315/0321 03005KT 4000 TSRA BKN020 FEW030CB RMK PHP", "TAF SBAF 030300Z 0306/0318 25003KT 9999 SCT030 TN18/0308Z TX27/0317Z BECMG 0311/0313 30005KT BECMG 0315/0317 10005KT RMK PEH", "TAF SBAN 030300Z 0306/0318 06003KT 9999 SCT020 TN18/0307Z TX26/0317Z BECMG 0314/0316 09005KT SCT030 FEW035TCU PROB30 0316/0318 7000 TSRA SCT030 FEW035CB RMK PEH", "TAF SBAR 030810Z 0312/0412 11007KT 9999 SCT017 TX30/0317Z TN24/0408Z BECMG 0400/0402 BKN020 PROB30 0405/0406 6000 BKN014 RMK PHP", "TAF SBAT 030230Z 0306/0318 VRB02KT 7000 BKN017 TN22/0308Z TX30/0318Z BECMG 0311/0313 34005KT 4000 SHRA BKN015 FEW025TCU RMK PGU", "TAF SBBE 030822Z 0312/0412 03005KT 7000 BKN013 TX30/0317Z TN24/0409Z BECMG 0314/0316 03010KT 5000 SHRA BKN015 FEW030TCU TEMPO 0317/0323 4000 TSRA BKN013 FEW030CB BECMG 0410/0412 03005KT BKN010 RMK PGU", "TAF SBBG 030900Z 0312/0324 03005KT 8000 NSC TX27/0317Z TN16/0323Z BECMG 0314/0316 10005KT SCT030 BECMG 0320/0322 CAVOK RMK PFD", "TAF SBBI 030300Z 0306/0318 08005KT 3000 BR OVC005 TN13/0308Z TX24/0318Z PROB30 0306/0311 0300 FG OVC001 BECMG 0311/0313 04005KT 9999 BKN010 BECMG 0314/0316 08005KT SCT030 RMK PEH", "TAF SBBR 030830Z 0312/0412 23005KT 9999 FEW040 TX28/0316Z TN19/0409Z BECMG 0312/0314 14007KT VCSH SCT040 FEW050TCU PROB30 TEMPO 0314/0320 TSRA SCT040 FEW050CB BECMG 0400/0402 CAVOK RMK PGD", "TAF SBBU 022300Z 0306/0318 13010KT CAVOK TN18/0309Z TX31/0318Z BECMG 0315/0317 13005KT RMK PGE", "TAF SBBV 030822Z 0312/0412 09015KT 9999 SCT035 TX32/0317Z TN24/0408Z TEMPO 0317/0320 11015KT SCT040 FEW045TCU BECMG 0321/0323 12007KT CAVOK RMK PGU", "TAF SBBW 022300Z 0306/0318 00000KT 9999 FEW015 TN21/0306Z TX32/0318Z PROB30 0316/0318 TS SCT020 FEW025CB RMK PGE", "TAF SBCB 030810Z 0312/0324 24007KT 9999 SCT020 TX26/0317Z TN24/0323Z BECMG 0314/0316 17010KT BECMG 0321/0323 10008KT RMK PHP", "TAF SBCF 030830Z 0312/0412 13007KT CAVOK TX30/0318Z TN19/0409Z BECMG 0312/0314 07005KT SCT040 BECMG 0316/0318 04010KT SCT035 FEW040TCU TEMPO 0318/0322 SHRA BKN030 FEW035TCU BECMG 0400/0402 11010KT CAVOK RMK PGD", "TAF SBCG 030830Z 0312/0412 06005KT CAVOK TX32/0318Z TN21/0409Z BECMG 0317/0319 13008KT SCT045 BECMG 0322/0324 07004KT CAVOK RMK PGD", "TAF SBCJ 030822Z 0312/0324 02003KT 8000 BKN007 TX28/0318Z TN22/0324Z BECMG 0314/0316 35005KT 4000 SHRA BKN015 FEW025TCU RMK PGU", "TAF SBCO 030300Z 0306/0318 06003KT 8000 NSC TN15/0309Z TX29/0317Z PROB30 0308/0310 2000 BR SCT004 BECMG 0314/0316 13005KT SCT030 RMK PFD", "TAF SBCP 030810Z 0312/0324 18013KT 9999 FEW020 TX31/0317Z TN24/0324Z BECMG 0321/0323 13007KT RMK PHP", "TAF SBCR 030830Z 0312/0412 00000KT CAVOK TX35/0318Z TN25/0409Z BECMG 0312/0314 03005KT PROB30 TEMPO 0318/0322 34005KT TS BKN030 FEW040CB RMK PGD", "TAF SBCT 030900Z 0312/0412 06005KT 9999 BKN010 TX24/0318Z TN13/0406Z BECMG 0314/0316 09005KT SCT030 BECMG 0322/0324 06005KT BKN008 BECMG 0403/0405 2000 BR OVC005 BECMG 0406/0408 36003KT 0500 FG OVC001 BECMG 0410/0412 32003KT 9999 BKN015 RMK PEH", "TAF SBCY 030822Z 0312/0412 01005KT 9999 SCT020 TX31/0317Z TN24/0408Z BECMG 0314/0316 30005KT SCT025 FEW035TCU PROB40 0316/0320 4500 TSRA BKN015 FEW030CB BECMG 0320/0322 07005KT 7000 BKN017 RMK PGU", "TAF SBCZ 030822Z 0312/0412 02003KT 6000 BKN010 TX29/0317Z TN23/0408Z BECMG 0313/0315 28007KT 7000 BKN017 FEW030TCU PROB40 0316/0324 4000 TSRA BKN015 FEW030CB BECMG 0400/0402 VRB03KT 6000 BKN013 PROB40 0407/0412 4000 DZ BR BKN007 RMK PGU", "TAF SBDN 022300Z 0306/0318 11012KT CAVOK TN19/0309Z TX31/0318Z BECMG 0313/0315 08006KT RMK PGE", "TAF SBEG 030822Z 0312/0412 13005KT 7000 BKN010 TX28/0317Z TN23/0408Z BECMG 0314/0316 07010KT SCT023 FEW030TCU PROB40 0318/0321 4000 TSRA BKN015 FEW030CB PROB40 0402/0410 4500 SHRA BKN015 FEW025TCU RMK PGU", "TAF SBFI 030900Z 0312/0412 09005KT CAVOK TX31/0318Z TN21/0408Z BECMG 0316/0318 04005KT 9999 SCT030 BECMG 0322/0324 08005KT CAVOK BECMG 0409/0411 05005KT RMK PEH", "TAF SBFL 030900Z 0312/0412 31005KT CAVOK TN19/0312Z TX28/0317Z BECMG 0314/0316 01010KT BECMG 0320/0322 01005KT BECMG 0401/0403 29004KT RMK PEM", "TAF SBFN 030810Z 0312/0324 18007KT 8000 BKN017 TX30/0317Z TN25/0324Z PROB30 TEMPO 0312/0318 5000 RA BKN015 RMK PHP", "TAF SBFZ 030810Z 0312/0412 16005KT 9999 BKN023 TX29/0316Z TN24/0409Z BECMG 0315/0317 BKN025 FEW030TCU BECMG 0319/0321 SCT020 TEMPO 0406/0412 4000 TSRA BKN020 FEW025CB RMK PHP", "TAF SBGL 030810Z 0312/0418 36005KT 9999 FEW020 TX26/0316Z TN22/0409Z BECMG 0315/0317 15013KT BECMG 0321/0323 09007KT BECMG 0405/0407 01005KT BECMG 0409/0411 05005KT BECMG 0415/0417 14012KT RMK PHP", "TAF SBGO 030830Z 0312/0412 03002KT 9999 FEW030 TX29/0316Z TN20/0409Z BECMG 0312/0314 04010KT 5000 VCSH BR SCT040 FEW050TCU PROB30 TEMPO 0314/0320 7000 TSRA SCT040 FEW050CB BECMG 0400/0402 CAVOK RMK PGD", "TAF SBGR 030830Z 0312/0418 08005KT 9999 BKN025 TN15/0409Z TX27/0417Z PROB40 0314/0320 FEW025 BECMG 0320/0322 14008KT BKN013 PROB30 0323/0401 BKN030 BECMG 0401/0403 10004KT FEW006 BECMG 0406/0408 8000 BKN009 PROB30 0408/0411 0300 FG OVC003 BECMG 0411/0413 BKN025 BECMG 0413/0415 SCT035 RMK PGQ", "TAF SBGW 030300Z 0306/0318 06003KT 9999 SCT015 TN18/0308Z TX26/0317Z BECMG 0314/0316 03005KT SCT030 RMK PEH", "TAF SBIH 030230Z 0306/0318 00000KT 7000 BKN017 TN23/0308Z TX30/0317Z BECMG 0311/0313 03010KT 9999 SCT020 FEW025TCU PROB40 0314/0318 4000 SHRA RMK PGU", "TAF SBIL 022300Z 0306/0318 24004KT 8000 FEW020 TN24/0308Z TX29/0318Z PROB30 0309/0313 VCSH SCT020 FEW030TCU BECMG 0313/0315 15011KT FEW025 RMK PGE", "TAF SBIZ 030230Z 0306/0318 28003KT 7000 BKN017 FEW030TCU TN23/0308Z TX30/0317Z PROB40 0309/0311 5000 BR BKN010 BECMG 0313/0315 05005KT 4500 SHRA BKN015 FEW025TCU RMK PGU", "TAF SBJE 030810Z 0312/0324 03010KT 9999 BKN020 TX31/0316Z TN28/0321Z TEMPO 0316/0320 3000 TSRA BKN010 FEW020CB RMK PHP", "TAF SBJP 030810Z 0312/0412 11005KT 9999 SCT023 TX30/0315Z TN24/0409Z RMK PHP", "TAF SBJV 030300Z 0306/0318 27005KT CAVOK TN17/0308Z TX29/0317Z PROB30 0310/0312 0400 FG BKN003 BECMG 0313/0314 03005KT RMK PEM", "TAF SBKG 030045Z 0306/0318 18003KT 9999 SCT015 TN22/0309Z TX30/0318Z TEMPO 0306/0309 7000 BKN008 BECMG 0309/0311 FEW015 BECMG 0311/0313 14007KT SCT020 BECMG 0316/0318 10012KT BKN025 RMK PFV", "TAF SBKP 030830Z 0312/0412 12010KT CAVOK TX28/0318Z TN16/0409Z BECMG 0312/0314 FEW025 BECMG 0318/0320 26007KT FEW040 BECMG 0320/0322 17010KT CAVOK BECMG 0322/0324 13012KT RMK PGQ", "TAF SBLO 030830Z 0312/0324 10008KT 9999 FEW025 TN22/0312Z TX31/0318Z RMK PGQ", "TAF SBMA 030822Z 0312/0324 36003KT 7000 BKN010 TX32/0317Z TN23/0324Z BECMG 0316/0318 35005KT 4000 TSRA BKN013 FEW030CB RMK PGU", "TAF SBME 030045Z 0306/0318 25010KT 9999 SCT020 TN24/0309Z TX30/0317Z BECMG 0312/0314 19013KT RMK PGA", "TAF SBMN 030900Z 0312/0324 09005KT 9999 FEW025 TN24/0312Z TX30/0317Z BECMG 0317/0318 04005KT RMK PEM", "TAF SBMO 030810Z 0312/0412 11005KT 9999 FEW023 TX30/0315Z TN23/0408Z BECMG 0318/0320 SCT030 BECMG 0400/0402 33005KT BKN020 BECMG 0404/0406 29005KT PROB40 0406/0410 BKN010 RMK PHP", "TAF SBMQ 030822Z 0312/0412 03010KT 7000 SCT010 BKN020 TX29/0317Z TN24/0408Z BECMG 0313/0315 08010KT 4500 SHRA BKN015 FEW030TCU PROB40 0318/0322 4000 TSRA BKN015 FEW030CB BECMG 0322/0324 02003KT 7000 NSW BKN017 RMK PGU", "TAF SBNF 030900Z 0312/0412 27005KT CAVOK TN20/0312Z TX27/0317Z BECMG 0317/0319 03008KT BECMG 0320/0321 06005KT BECMG 0400/0402 27004KT RMK PEM", "TAF SBNT 030810Z 0312/0324 11007KT 9999 SCT030 TX30/0315Z TN25/0324Z TEMPO 0316/0318 13015KT SCT023 FEW030TCU RMK PHP", "TAF SBOI 030822Z 0312/0324 03007KT 9999 SCT025 TX31/0318Z TN25/0324Z BECMG 0314/0316 06005KT SCT025 FEW030TCU RMK PGU", "TAF SBPA 030900Z 0312/0412 06003KT 8000 NSC TX29/0317Z TN16/0409Z BECMG 0314/0316 13005KT SCT030 BECMG 0320/0322 06003KT CAVOK BECMG 0406/0408 8000 NSC PROB30 0408/0410 2000 BR SCT004 RMK PFD", "TAF SBPB 030810Z 0312/0324 17010KT 8000 SCT015 TX28/0315Z TN24/0324Z BECMG 0315/0317 35010KT SCT017 FEW025TCU RMK PHP", "TAF SBPJ 030810Z 0312/0412 15003KT 9999 SCT010 TX30/0318Z TN23/0409Z BECMG 0313/0315 28005KT SCT025 BECMG 0316/0318 33007KT SCT030 FEW035TCU BECMG 0322/0324 13003KT FEW040 BECMG 0403/0405 03002KT 7000 FEW010 SCT015 BECMG 0409/0411 15003KT SCT010 RMK PHP", "TAF SBPK 030900Z 0312/0412 03003KT 8000 NSC TX25/0317Z TN16/0409Z BECMG 0314/0316 11005KT SCT030 BECMG 0320/0322 03003KT CAVOK BECMG 0406/0408 8000 NSC PROB30 0408/0410 2000 BR SCT004 RMK PFD", "TAF SBPL 030810Z 0312/0412 15007KT 9999 FEW035 TX33/0318Z TN22/0409Z BECMG 0320/0322 09005KT BECMG 0410/0412 17004KT RMK PHP", "TAF SBPP 030830Z 0312/0412 03005KT CAVOK TX31/0318Z TN20/0409Z BECMG 0314/0316 17007KT FEW020 BECMG 0318/0320 SCT020 FEW030TCU BECMG 0321/0323 18005KT CAVOK BECMG 0400/0402 00000KT RMK PGQ", "TAF SBPS 030810Z 0312/0412 17007KT 7000 SCT015 FEW035TCU TX28/0317Z TN22/0409Z TEMPO 0312/0315 17015KT 4000 SHRA BKN014 BECMG 0317/0319 8000 SCT010 BKN020 TEMPO 0400/0402 4000 SHRA SCT010 FEW035TCU BECMG 0404/0406 BKN020 RMK PHP", "TAF SBPV 030822Z 0312/0412 02003KT 7000 SCT010 TX32/0318Z TN25/0408Z BECMG 0313/0315 35005KT 8000 BKN020 FEW030TCU PROB40 0316/0321 4000 TSRA BKN015 FEW030CB BECMG 0322/0324 03003KT 7000 BKN015 PROB40 0408/0412 5000 BR BKN007 RMK PGU", "TAF SBRB 030822Z 0312/0324 03005KT 7000 BKN010 TX31/0318Z TN23/0324Z BECMG 0314/0316 4500 SHRA BKN015 FEW025TCU PROB40 0316/0323 4000 TSRA BKN014 FEW030CB RMK PGU", "TAF SBRF 030810Z 0312/0412 11005KT 9999 SCT025 TX30/0317Z TN25/0408Z BECMG 0406/0408 8000 BKN020 RMK PHP", "TAF SBRJ 030810Z 0312/0324 33007KT 9999 FEW025 TX26/0317Z TN24/0324Z BECMG 0314/0316 16010KT BECMG 0321/0323 09008KT RMK PHP", "TAF SBRP 030830Z 0312/0324 12004KT CAVOK TN24/0312Z TX32/0318Z BECMG 0312/0314 07008KT SCT030 TEMPO 0317/0320 TSRA SCT030 FEW040CB BECMG 0320/0322 16005KT CAVOK RMK PGD", "TAF SBSC 030300Z 0306/0318 24003KT 9999 SCT020 TN21/0308Z TX27/0317Z PROB30 0307/0310 3000 BR BECMG 0311/0313 18005KT BECMG 0315/0317 13008KT RMK PEH", "TAF SBSG 030810Z 0312/0412 15007KT 9999 SCT030 TX30/0315Z TN24/0409Z TEMPO 0316/0318 SCT012 FEW025TCU BECMG 0400/0402 20005KT BECMG 0402/0404 26005KT RMK PHP", "TAF SBSJ 030830Z 0312/0324 16005KT 9999 FEW020 TN19/0312Z TX25/0317Z BECMG 0312/0314 10005KT BKN025 BECMG 0317/0319 17010KT BKN035 BECMG 0321/0323 12007KT RMK PGQ", "TAF SBSL 030810Z 0312/0412 35003KT 8000 SCT010 FEW025TCU TX29/0314Z TN25/0409Z PROB30 TEMPO 0315/0317 3000 RA BKN017 TEMPO 0319/0324 6000 TS BKN015 FEW020CB BECMG 0400/0402 02005KT PROB30 0408/0411 BKN010 RMK PHP", "TAF SBSM 030300Z 0306/0318 10005KT 8000 NSC TN10/0309Z TX30/0317Z PROB30 0308/0310 2000 BR SCT002 BECMG 0314/0316 SCT030 RMK PFD", "TAF SBSN 030822Z 0312/0412 10005KT 9999 SCT015 TX28/0317Z TN23/0408Z BECMG 0313/0315 BKN017 FEW030TCU PROB40 0318/0322 4000 TSRA BKN013 FEW030CB TEMPO 0410/0412 4500 SHRA BKN015 FEW030TCU RMK PGU", "TAF SBSP 030830Z 0312/0324 10005KT 9999 BKN030 TN18/0312Z TX25/0317Z BECMG 0317/0319 15007KT BKN020 BECMG 0320/0323 BKN010 RMK PGQ", "TAF SBSV 030830Z 0312/0412 08010KT 9999 SCT025 TX30/0317Z TN23/0408Z TEMPO 0312/0314 VCSH BKN020 FEW030TCU BECMG 0314/0316 12010KT TEMPO 0322/0408 16012KT 5000 SHRA BR BKN012 FEW030TCU RMK PGD", "TAF SBTD 030830Z 0312/0324 07005KT CAVOK TN22/0312Z TX29/0318Z BECMG 0312/0314 03010KT BECMG 0315/0317 26007KT RMK PGQ", "TAF SBTE 030810Z 0312/0324 34005KT 9999 BKN015 TX32/0318Z TN24/0324Z BECMG 0314/0316 BKN020 TEMPO 0317/0322 03012KT 4000 TSRA BKN016 FEW030CB RMK PHP", "TAF SBTF 030822Z 0312/0324 17004KT 7000 BKN007 TX31/0318Z TN24/0324Z BECMG 0314/0316 32005KT 9999 SCT020 FEW025TCU RMK PGU", "TAF SBTT 030822Z 0312/0412 05003KT 6000 BKN007 TX29/0318Z TN23/0409Z PROB40 0312/0314 06007KT 5000 SHRA BKN015 FEW030TCU PROB40 0315/0324 4000 TSRA BKN015 FEW030CB BECMG 0400/0402 02004KT 7000 BKN017 RMK PGU", "TAF SBUG 030900Z 0312/0324 07007KT CAVOK TX29/0317Z TN23/0323Z RMK PFD", "TAF SBUL 022300Z 0306/0318 13005KT CAVOK TN19/0309Z TX26/0316Z BECMG 0312/0314 06010KT FEW040 FEW045TCU RMK PGE", "TAF SBUR 022300Z 0306/0318 06004KT CAVOK TN20/0309Z TX28/0317Z BECMG 0309/0311 04010KT BECMG 0314/0316 08005KT SCT040 RMK PGE", "TAF SBVH 030230Z 0306/0318 01003KT 9999 SCT010 TN21/0308Z TX27/0317Z PROB40 0309/0311 4000 BR BKN007 BECMG 0312/0314 35005KT 9999 SCT025 FEW030TCU PROB40 0316/0318 4000 TSRA BKN015 FEW030CB RMK PGU", "TAF SBVT 030810Z 0312/0412 18013KT 9999 FEW025 TX28/0317Z TN24/0407Z TEMPO 0312/0318 18015G25KT BECMG 0321/0323 21007KT RMK PHP", "TAF SBYS 030300Z 0306/0318 17003KT CAVOK TN16/0308Z TX29/0317Z BECMG 0315/0317 20005KT RMK PEH", "TAF SCAR 031024Z 0312/0412 22004KT 9999 BKN045 TX26/0318Z TN22/0410Z BECMG 0314/0315 CAVOK BECMG 0315/0317 22014KT BECMG 0322/0400 22004KT", "TAF SCAT 031033Z 0312/0412 34004KT 9999 OVC010 TX23/0318Z TN17/0410Z BECMG 0313/0314 OVC014 BECMG 0315/0317 34012KT BKN020 BECMG 0323/0401 27004KT OVC012 BECMG 0406/0408 34004KT", "TAF SCBA 031040Z 0312/0412 29015KT 9999 BKN030 TN08/0313Z TX14/0318Z BECMG 0317/0319 31025KT SCT035 TEMPO 0319/0322 30035KT CAVOK BECMG 0402/0404 31015KT BKN030 TEMPO 0406/0412 7000 -RA OVC020", "TAF SCCF 031024Z 0312/0412 11010KT CAVOK TX24/0319Z TN08/0410Z BECMG 0316/0318 27020KT TEMPO 0318/0321 27020G32KT BECMG 0400/0402 27010KT BECMG 0404/0406 11010KT", "TAF SCCH 031019Z 0312/0400 24004KT CAVOK TX24/0319Z TN13/0312Z BECMG 0316/0318 22010KT", "TAF SCCI 031022Z 0312/0412 35016G26KT 9000 FEW040 TX15/0318Z TN05/0412Z BECMG 0318/0320 29026G36KT SCT030 BKN040 TEMPO 0319/0321 7000 SHRA FEW015 BKN030 BECMG 0323/0401 30015G25KT FEW040 BECMG 0402/0404 32010KT BECMG 0410/0412 33015G25KT BKN040", "TAF SCCY 031100Z 0312/0324 02007KT 9999 BKN040 TN09/0313Z TX15/0319Z BECMG 0313/0315 33006KT", "TAF SCDA 031024Z 0312/0412 21004KT 9999 BKN045 TX27/0318Z TN21/0410Z BECMG 0314/0316 21015KT CAVOK BECMG 0402/0404 21004KT", "TAF SCEL 031014Z 0312/0412 VRB02KT CAVOK TX29/0319Z TN14/0410Z BECMG 0316/0318 20010KT BECMG 0402/0404 17004KT", "TAF COR SCFA 031105Z 0312/0412 36004KT CAVOK TX23/0318Z TN19/0410Z BECMG 0316/0318 20014KT BECMG 0323/0401 20004KT BECMG 0404/0406 BKN015", "TAF SCFM 031023Z 0312/0400 03016G27KT 9000 SCT040 TN09/0312Z TX17/0318Z BECMG 0316/0318 35019G30KT BECMG 0320/0322 30025G35KT TEMPO 0320/0322 7000 SHRA BKN030", "TAF SCGE 031019Z 0312/0400 20005KT 9999 SCT010 TX21/0319Z TN14/0312Z TEMPO 0312/0314 3000 BR BKN005 BECMG 0316/0318 18012KT CAVOK", "TAF SCGZ 031024Z 0312/0400 35010G20KT 9999 SCT040 TN10/0312Z TX15/0318Z PROB30 TEMPO 0312/0315 5000 BR SCT010 BKN025 TEMPO 0315/0319 01020G30KT", "TAF SCHR 031024Z 0312/0400 VRB02KT 8000 SCT020 BKN040 TN05/0312Z TX15/0318Z TEMPO 0312/0314 SCT010 BECMG 0314/0316 30005KT BECMG 0320/0322 VRB02KT 6000 RA SCT015 OVC030", "TAF COR SCIC 031138Z 0312/0400 19005KT CAVOK TX25/0319Z TN13/0312Z BECMG 0316/0318 20010KT SCT015 BECMG 0319/0321 CAVOK", "TAF SCIE 031015Z 0312/0412 19005KT CAVOK TX19/0319Z TN11/0410Z TEMPO 0312/0314 2000 BR SCT002 BKN005 BECMG 0316/0317 20010KT BECMG 0404/0406 20006KT", "TAF SCIP 030442Z 0306/0406 33015KT 9999 FEW025 TN21/0307Z TX26/0319Z TEMPO 0306/0312 34005KT 4000 SHRA SCT010 BKN020 BECMG 0315/0317 33015G25KT BECMG 0320/0322 SCT012 BKN025", "TAF COR SCIR 031036Z 0312/0400 15012KT SCT020 BKN030 TX29/0318Z TN15/ 0312Z", "TAF SCJO 031100Z 0312/0324 VRB02KT 3000 BR SCT002 TN01/0313Z TX19/0319Z BECMG 0312/0314 18006KT CAVOK", "TAF SCMK 031100Z 0312/0324 36012KT 9999 SCT030 BKN045 TN12/0313Z TX15/0319Z BECMG 0314/0316 36022KT BKN030", "TAF SCNT 031023Z 0312/0400 35010G20KT 8000 FEW010 SCT020 TN13/0312Z TX18/0318Z TEMPO 0312/0314 VRB02KT BECMG 0312/0314 FEW030 SCT040 BECMG 0316/0318 29012G23KT TEMPO 0319/0321 7000 SHRA FEW015 BKN025", "TAF SCPQ 031100Z 0312/0324 VRB02KT 0300 BKN002 TN05/0313Z TX17/0319Z BECMG 0315/0317 32006KT SCT030", "TAF SCQP 031035Z 0312/0412 VRB02KT 0500 FG OVC002 TN05/0313Z TX21/0320Z BECMG 0314/0316 18005KT CAVOK BECMG 0318/0320 24006KT BECMG 0402/0404 VRB02KT 2000 BR BKN005 BECMG 0404/0406 0500 FG OVC001", "TAF COR SCRD 031033Z 0312/0400 19004KT CAVOK TX24/0318Z TN13/0312Z BECMG 0316/0318 22010KT", "TAF SCRG 031018Z 0312/0400 20004KT CAVOK TX28/0319Z TN15/0312Z BECMG 0316/0318 21012KT", "TAF SCSE 031010Z 0312/0412 VRB02KT 0500 FG OVC005 TX19/0318Z TN13/ 0410Z TEMPO 0312/0315 2000 BR SCT005 BKN010 BECMG 0315/0317 28010KT 9999 FEW015 BECMG 0403/0405 30004KT BKN010", "TAF COR SCSN 031035Z 0312/0400 VRB02KT CAVOK TX20/0318Z TN10/0312Z BECMG 0316/0318 23010KT", "TAF COR SCTB 031032Z 0312/0400 VRB02KT CAVOK TX29/0318Z TN15/0312Z BECMG 0316/0318 24008KT", "TAF SCTE 031035Z 0312/0412 VRB02KT CAVOK TN02/0313Z TX17/0319Z TEMPO 0312/0313 2000 BR SCT003 BECMG 0318/0320 18007KT BECMG 0402/0404 VRB03KT TEMPO 0408/0412 0800 FG BKN002", "TAF COR SCTN 031100Z 0312/0324 08005KT CAVOK TN06/0313Z TX16/0319Z BECMG 0313/0315 30005KT", "TAF SCVD 031000Z 0312/0324 VRB02KT 2000 BR BKN002 TN03/0313Z TX20/0319Z BECMG 0313/0315 16005KT CAVOK", "TAF SCVM 031013Z 0312/0412 VRB02KT CAVOK TX22/0318Z TN10/0410Z BECMG 0316/0318 28010KT BECMG 0404/0406 29004KT BECMG 0407/0409 SCT010", "SEGU 031045Z 0312/0412 05006KT 9999 FEW010 SCT026 BKN100 BECMG 0313/0315 SCT026 SCT100 BECMG 0318/0320 22008KT BKN023 TEMPO 0321/0323 TSRA FEW016CB BKN020 BKN090 BECMG 0401/0403 05005KT SCT005 BKN020 BKN090 TX32/0320Z TN25/0410Z", "SELT 031045Z 0312/0412 19004KT 9999 SCT010 BKN030 BECMG 0313/0314 SCT030 BKN100 BECMG 0318/0319 17015KT TEMPO 0320/0322 SHRA FEW026TCU SCT030 BKN090 BECMG 0323/0401 19005KT FEW010 BKN030 BKN090 TX18/0319Z TN09/0411Z", "SEMT 031045Z 0312/0412 15004KT 9999 FEW023 BECMG 0317/0319 31007KT BECMG 0403/0405 15003KT BKN020 TX32/0320Z TN25/0410Z", "SEQM 031045Z 0312/0412 VRB03KT 9999 BKN026 SCT100 BECMG 0317/0319 36014KT FEW026TCU SCT030 BKN100 TEMPO 0320/0322 TS FEW026CB SCT030 BKN100 BECMG 0323/0401 03004KT SCT005 BKN030 BECMG 0404/0406 VRB03KT 6000 BCFG BKN004 BKN015 TX22/0319Z TN11/0411Z", "TAF SGAS 031040Z 0312/0412 14005KT CAVOK TX34/0319Z TN22/0410Z BECMG 0315/0318 02008KT 9999 SCT027", "TAF SGCO 031040Z 0312/0412 13004KT CAVOK TX35/0319Z TN24/0410Z BECMG 0314/0316 02010KT 9999 SCT027", "TAF SGEN 031040Z 0312/0412 11004KT CAVOK TX33/0319Z TN21/0410Z BECMG 0312/0314 03008KT 9999 SCT027", "TAF SGES 031040Z 0312/0412 13004KT CAVOK TX32/0319 TN21/0410Z BECMG 0315/0318 01007KT 9999 SCT027", "TAF SKAR 031030Z 0312/0412 00000KT 9999 SCT023 SCT090 TEMPO 0312/0314 5000 BCFG BKN010 TEMPO 0322/0401 DZ SCT017TCU BKN080 TX28/0319Z TN18/0410Z", "TAF SKBG 031030Z 0312/0412 18004KT 9999 BKN015 FM031700 32007KT 9999 SCT017 TEMPO 0400/0403 DZRA SCT012TCU BECMG 0404/0406 VRB02KT FEW012 TX26/0319Z TN19/0411Z", "TAF SKBO 031030Z 0312/0412 VRB02KT 9999 FEW020 BECMG 0314/0316 08010KT SCT020 BECMG 0403/0405 VRB02KT FEW015 TX20/0319Z TN08/0411Z", "TAF SKBQ 031030Z 0312/0412 02006KT 9999 SCT015 BECMG 0317/0319 04012KT BECMG 0400/0402 03015G25KT BECMG 0407/0409 03005KT TX32/0319Z TN25/0409Z", "TAF SKCC 031030Z 0312/0412 VRB02KT 9999 SCT015 TEMPO 0312/0315 5000 BCFG SCT012 BECMG 0315/0317 01010KT SCT020 BECMG 0404/0406 VRB02KT SCT015 PROB40 0408/0412 5000 BCFG SCT012 TX32/0319Z TN23/0411Z", "TAF SKCG 031030Z 0312/0412 01004KT CAVOK BECMG 0316/0318 03015G25KT TX33/0319Z TN24/0410Z", "TAF SKCL 031030Z 0312/0412 VRB03KT 9999 FEW023 BKN120 PROB40 0312/0313 5000 BR BKN015 BECMG 0319/0321 31010KT TEMPO 0321/0323 SHRA SCT020TCU BECMG 0403/0405 04005KT TX29/0319Z TN20/0410Z", "TAF SKLT 031030Z 0312/0412 VRB02KT 9999 BKN010 BKN080 TEMPO 0312/0315 DZRA TEMPO 0403/0407 DZRA SCT012TCU BKN070 PROB40 0407/0411 5000 DZ BKN010 TX30/0319Z TN23/0411Z", "TAF SKPE 031030Z 0312/0412 11004KT 9999 FEW020 BKN090 TEMPO 0322/0401 31010KT RA SCT017TCU TX27/0319Z TN18/0411Z", "TAF SKRG 031030Z 0312/0412 VRB02KT 4000 BR BKN008 BECMG 0314/0316 12010KT 9999 NSW SCT015 TEMPO 0319/0322 DZ SCT020TCU BECMG 0400/0402 VRB02KT TEMPO 0403/0406 DZ BKN010 TEMPO 0408/0411 4000 BCFG BKN005 TX23/0319Z TN13/0410Z", "TAF SKSM 031030Z 0312/0412 04004KT 9999 SCT015 BECMG 0317/0319 03015G25KT BECMG 0407/0409 VRB04KT TX36/0319Z TN25/0410Z", "TAF SKSP 031030Z 0312/0412 06014KT 9999 FEW018 TX31/0319Z TN26/0410Z", "TAF SLAL 031000Z 0312/0412 00000KT 9999 SCT017 TX20/0319Z TN07/0410Z BECMG 0314/0316 02012KT TEMPO 0318/0321 SCT023 FEW030CB BECMG 0323/0401 00000KT SCT020 SCT070", "TAF SLCB 031000Z 0312/0412 00000KT 9999 FEW033 TX28/0319Z TN10/0410Z BECMG 0314/0316 28010KT BECMG 0321/0323 13012KT SCT033 FEW036CB BECMG 0402/0404 00000KT SCT030 BKN070", "TAF SLCO 031000Z 0312/0412 33005KT 9999 FEW017 BKN080 TX31/0319Z TN22 /0410Z BECMG 0314/0316 35005KT SCT020 PROB30 TEMPO 0317/0320 34010KT 8000 SHRA SCT023 FEW025CB BECMG 0322/0402 00000KT SCT020 TEMPO 0407/0410 00000KT 3000 BR BKN004", "TAF SLET 031000Z 0312/0412 34012KT 9999 SCT017 TX32/0319Z TN22/0409Z PROB30 0319/0322 FEW030CB BECMG 0323/0401 34005KT SCT020 SCT070 PROB30 TEMPO 0407/0411 BKN020 FEW030CB", "TAF SLLP 031000Z 0312/0412 08006KT 9999 FEW013 TX15/0319Z TN03/0410Z BECMG 0313/0316 13012KT TEMPO 0321/0401 TSRA FEW017CB BECMG 0402/0406 3000E BCFG", "TAF SLOR 022200Z 0300/0324 02005KT 9999 SCT017 TX19/0319Z TN04/0310Z TEMPO 0317/0321 20012KT", "TAF SLRQ 022200Z 0300/0324 00000KT 9999 BKN010 TX34/0319Z TN24/0310Z TEMPO 0308/0312 3000 BR BKN005 BECMG 0313/0317 34010KT SCT013 FEW017CB BECMG 0321/0323 00000KT", "TAF SLTJ 031000Z 0312/0412 00000KT 9999 FEW030 TX26/0319Z TN13/0410Z BECMG 0315/0317 15010KT BECMG 0318/0321 SCT036 FEW040CB PROB30 TEMPO 0321/0400 8000 TSRA BECMG 0401/0403 00000KT SCT030 BKN070", "TAF SLTR 031000Z 0312/0412 32004KT 9999 FEW020 TX32/0319Z TN23/0410Z FEW017CB BECMG 0314/0316 30006KT SCT023 SCT080 PROB30 TEMPO 0318/ 0320 34010KT 7000 SHRA FEW025CB BECMG 0323/0403 03006KT FEW017 PROB30 TEMPO 0409/0411 6000 SHRA SCT006 BKN070", "TAF SLVR 031000Z 0312/0412 34012KT 9999 SCT017 TX32/0319Z TN22/0409Z PROB30 0319/0322 FEW030CB BECMG 0323/0401 34005KT SCT020 SCT070 PROB30 TEMPO 0407/0411 BKN020 FEW030CB", "TAF SLYA 022200Z 0300/0324 00000KT 9999 FEW020 TX34/0319Z TN21/0310Z BECMG 0315/0317 03010KT", "TAF SMJP 031000Z 0312/0412 03008KT 9999 SCT015 TX32/0317Z TN22/0409Z TEMPO 0316/0321 03010G20KT PROB30 TEMPO 0409/0411 VRB02KT 3000 BR SCT001", "TAF SMZO 031000Z 0312/0412 03010KT 9999 SCT015 TX32/0317Z TN23/0409Z TEMPO 0316/0321 03010G20KT", "TAF SOCA 031100Z 0312/0412 VRB02KT 9999 SCT020 BECMG 0312/0314 07010KT PROB30 TEMPO 0403/0412 4000 SHRA SCT018TCU", "TAF SPCL 031100Z 0312/0412 30004KT 9999 SCT020 BKN100 TX32/0319Z TN22/0411Z TEMPO 0312/0313 5000 BCFG BKN008 BKN080 TEMPO 0322/0402 10010KT 3000 SHRA BKN010 FEW025CB BKN080", "TAF SPEO 031110Z 0312/0412 19006KT CAVOK TX30/0319Z TN22/0411Z FM031800 19015KT 9999 SCT020 BECMG 0404/0406 19010KT SCT020 BKN050", "TAF SPGM 031105Z 0312/0412 VRB03KT 9999 FEW030 BKN100 TX29/0320Z TN21/0411Z TEMPO 0312/0315 4000 BR SCT020 OVC080 TAF SPJR 031105Z 0312/0412 VRB02KT 9999 FEW025 BKN050 TX23/0319Z TN09/0411Z TEMPO 0318/0321 8000 RA SCT020 BKN047 BECMG 0410/0412 5000 RA BR SCT015 OVC046", "TAF SPHI 031110Z 0312/0412 13007KT 9999 SCT020 BKN050 TX32/0319Z TN24/0411Z TEMPO 0312/0315 24007KT 9999 SCT009 TEMPO 0319/0321 22012KT 7000 RA BKN020 FM040000 16006KT 8000 BKN017 BKN080 TEMPO 0409/0412 01005KT 5000 RA BR BKN010 OVC050", "TAF SPHO 031100Z 0312/0412 17005KT 9999 FEW020 BKN095 TX22/0319Z TN12/0411Z TEMPO 0319/0321 15015KT FEW020 SCT040TCU SCT080 TEMPO 0322/0323 RA", "TAF SPJC 031110Z 0312/0412 17010KT CAVOK TX29/0319Z TN24/0411Z", "TAF SPJI 031100Z 0312/0412 12003KT 9999 SCT015 BKN080 TX30/0319Z TN22/0411Z TEMPO 0312/0314 5000 BCFG BKN010 BKN060 TEMPO 0323/0403 06010KT 4000 SHRA BKN010 FEW025TCU OVC060", "TAF SPJR 021700Z 0218/0318 14010KT 9999 SCT025 BKN050 TX22/0219Z TN09/0311Z BECMG 0223/0301 00000KT", "TAF SPLO 031120Z 0312/0412 17010KT 8000 BKN050 TX27/0319Z TN23/0410Z FM031600 19012KT CAVOK FM032400 14006KT 9999 SCT040", "TAF SPME 031110Z 0312/0412 18003KT 9000 BKN017 TX30/0319Z TN24/0411Z BECMG 0314/0317 27011KT SCT015 BKN050 TEMPO 0321/0401 21006KT 8000 RA BKN015 FM040300 15006KT 9999 BKN013", "TAF SPMS 031100Z 0312/0412 06003KT 9999 FEW015 BKN090 TX30/0319Z TN20/0411Z TEMPO 0312/0313 BKN012 BKN070 TEMPO 0324/0404 07010KT 5000 -TSRA BKN010 FEW025CB OVC060", "TAF SPNC 031105Z 0312/0412 08004KT 9999 FEW040 BKN100 TX29/0319Z TN16/0411Z BECMG 0318/0320 06014KT BECMG 0323/0401 07004KT", "TAF SPPY 031100Z 0312/0412 10010KT 9999 SCT012 SCT050 TX19/0320Z TN09/0411Z TEMPO 0312/0316 5000 BCFG BKN010 BKN040 TEMPO 0323/0404 12015KT 3000 DZRA BKN010 OVC040", "TAF SPQT 031100Z 0312/0412 VRB02KT 9999 BKN010 BKN100 TX31/0319Z TN23/0410Z TEMPO 0312/0313 5000 -DZ BR BKN006 BECMG 0316/0318 02005KT BKN015 SCT100 TEMPO 0323/0404 06012KT 5000 SHRA BKN010 FEW020TCU OVC080 TEMPO 0410/0412 4000 -DZ BCFG BKN003 BKN080", "TAF SPQU 031120Z 0312/0412 24005KT 9999 FEW120 TX21/0318Z TN11/0410Z FM031830 25011KT 9999 BKN025 FM032130 27006KT 7000 BKN008 BKN015 BECMG 0322/0324 3000 BR BKN002 BKN008 TEMPO 0400/0402 0800 FG", "TAF SPRU 031115Z 0312/0412 18004KT 6000 SCT050 TX30/0319Z TN23/0411Z BECMG 0316/0318 17010KT 9999 FM040000 14007KT 9999 SCT050 BECMG 0406/0408 SCT050 BKN100", "TAF SPSO 031100Z 0312/0412 VRB03KT CAVOK TX28/0319Z TN22/0411Z BECMG 0313/0316 29010KT BECMG 0320/0322 22015KT BECMG 0403/0405 21005KT", "TAF SPST 031105Z 0312/0412 VRB02KT 9999 FEW020 SCT080 TX31/0320Z TN21/0411Z TEMPO 0312/0315 4000 BR BKN010 OVC050", "TAF SPTN 031120Z 0312/0412 VRB02KT 9999 BKN060 TX29/0319Z TN21/0410Z FM031530 22009KT CAVOK FM032400 VRB02KT 9999 SCT040", "TAF SPTU 031100Z 0312/0412 14008KT 9999 SCT020 TX32/0320Z TN22/0411Z", "TAF SPUR 030515Z 0306/0406 08007KT 9999 SCT014 BKN020 TX33/0319Z TN25/0311Z TEMPO 0306/0308 34007KT 2000 TSRA SCT020CB BKN040 FM031600 25007KT 9999 SCT025 BKN100 TEMPO 0402/0404 SCT014 BKN020", "TAF SPYL 031110Z 0312/0412 30005KT 8000 BKN020 TX32/0319Z TN23/0411Z TEMPO 0312/0314 21003KT FM031800 27012KT 9999 SCT020 BKN050 BECMG 0323/0401 21007KT TEMPO 0406/0410 36005KT 5000 RA BKN015TCU BKN080", "TAF SPZO 031100Z 0312/0412 VRB04KT 9999 SCT040 BKN080 TX21/0319Z TN07/0411Z TEMPO 0318/0319 30014KT FEW040TCU SCT050 BKN090 TEMPO 0320/0322 8000 RA", "TAF SUAA 031130Z 0312/0412 34005KT 9999 SCT015 BKN080 TX20/0318Z TN15/0410Z TEMPO 0312/0318 3000 RA BR BKN010 OVC060 PROB30 TEMPO 0312/0318 TS BKN010 FEW040CB OVC060 TEMPO 0408/0411 3000 BR SCT010", "TAF SUCA 031130Z 0312/0412 05008KT 9999 SCT020 BKN080 TX21/0318Z TN15/0410Z TEMPO 0312/0318 5000 RA BR BKN010 OVC060 PROB30 TEMPO 0312/0318 TS BKN010 FEW040CB OVC060 TEMPO 0408/0411 3000 BR SCT010", "TAF SUDU 031130Z 0312/0412 06010KT 9999 SCT020 BKN080 TX23/0318Z TN13/0410Z TEMPO 0312/0318 3000 TSRA BR BKN013 FEW040CB OVC060 TEMPO 0408/0411 3000 BR SCT010", "TAF SULS 031130Z 0312/0412 36008KT 9999 SCT015 BKN080 TX19/0318Z TN15/0410Z TEMPO 0312/0318 3000 RA BR BKN010 OVC060 PROB30 TEMPO 0312/0318 TS BKN010 FEW040CB OVC060 TEMPO 0408/0411 3000 BR SCT010", "TAF SUMU 031130Z 0312/0412 34005KT 9999 SCT015 BKN080 TX20/0318Z TN15/0410Z TEMPO 0312/0318 3000 RA BR BKN010 OVC060 PROB30 TEMPO 0312/0318 TS BKN010 FEW040CB OVC060 TEMPO 0408/0411 3000 BR SCT010", "TAF COR SURV 031130Z 0312/0412 05005KT 9999 FEW020 TX26/0318Z TN13/0410Z PROB40 TEMPO 0315/0323 3000 RA BR BKN010 BKN060 TEMPO 0406/0412 3000 TSRA BR BKN010 FEW040CB BKN060", "TAF SUSO 031130Z 0312/0412 08005KT 9999 SCT020 BKN080 TX25/0318Z TN15/0410Z TEMPO 0312/0322 3000 RA BR BKN010 BKN060 PROB40 TEMPO 0316/0321 TS BKN010 FEW040CB BKN060 TEMPO 0403/0410 3000 TSRA BR BKN010 FEW040CB OVC060", "TAF SVBC 031000Z 0312/0412 06002KT 9999 SCT013 TX33/0318Z TN23/0407Z BECMG 0315/0321 07010KT 9000 DZ BKN020", "TAF SVJC 031000Z 0312/0412 09003KT 9999 SCT013 TX33/0319Z TN24/0407Z BECMG 0318/0322 09015KT 9000 DZ BKN020", "TAF SVMC 031000Z 0312/0412 07004KT 9999 SCT013 TX34/0319Z TN24/0408Z BECMG 0316/0322 09010KT 9000 DZ BKN020", "TAF SVMG 031000Z 0312/0412 10003KT 9999 SCT013 TX33/0318Z TN23/0408Z BECMG 0318/0322 12015KT 9000 DZ BKN020", "TAF SVMI 031000Z 0312/0412 09005KT 9999 SCT016 TX33/0318Z TN22/0407Z BECMG 0316/0322 11010KT 9000 DZ BKN020", "TAF SVPR 031000Z 0312/0412 07005KT 9999 SCT013 TX33/0319Z TN22/0407Z BECMG 0318/0322 06010KT 9000 DZ BKN020", "TAF SVSA 031000Z 0312/0412 07002KT 9999 SCT020 TX31/0319Z TN20/0408Z TEMPO 0314/0318 16006KT 9000 DZ BKN020", "TAF SVVA 031000Z 0312/0412 22005KT 9999 SCT016 SCT070 TX33/0319 TN23/0409 BECMG 0322/0402 09005KT BKN020 FM 040230 14005KT 9999 SCT020 BKN080", "TAF SYCJ 031100Z 0312/0412 06014KT 9999 SCT022 SCT100 BECMG 0317/0319 FEW024 BECMG 0400/0403 06004KT CAVOK", "TAF SYEB 031100Z 0312/0323 09016KT 9999 SCT022", "TAF SYEC 031100Z 0312/0412 05014KT 9999 BKN020 BECMG 0317/0319 FEW024 BECMG 0400/0403 06010KT 9999 FEW018", "TAF SYKA 031100Z 0312/0323 07014KT 9999 BKN020 BKN100", "TAF SYKM 031100Z 0312/0323 07014KT 9999 BKN020 BKN100", "TAF SYLT 031100Z 0312/0323 05014KT 9999 BKN025", "TAF TAPA 031100Z 0312/0412 09011KT 9999 SCT022", "TAF TBPB 031100Z 0312/0412 09017KT 9999 SCT020", "TAF TDPD 031100Z 0312/0412 11010KT 9999 SCT020", "TAF TFFF 031100Z 0312/0412 10015KT 9999 SCT025 SCT070 TEMPO 0312/0316 3000 SHRA BKN018TCU PROB30 TEMPO 0314/0321 11017G27KT BECMG 0323/0401 08005KT PROB30 TEMPO 0403/0412 4000 SHRA SCT018TCU", "TAF TFFR 031100Z 0312/0412 12012KT 9999 SCT035 PROB30 TEMPO 0314/0317 4000 SHRA SCT018TCU BECMG 0322/0324 VRB02KT PROB40 TEMPO 0405/0412 3000 SHRA BKN018TCU", "TGPY 031000Z 0312/0412 08016G26KT 9999 FEW022 BECMG 0400/0402 09015KT SCT018 SCT038", "TIST 031140Z 0312/0412 10009KT P6SM FEW030 FM031330 13016G22KT P6SM FEW025 FM032100 07012KT P6SM FEW030 FM040400 08008KT P6SM VCSH SCT028 SCT050", "TISX 031140Z 0312/0412 07010KT P6SM FEW023 FM031330 10016G22KT P6SM FEW022 FM031600 10017G24KT P6SM VCSH FEW022 SCT035 FM032200 06008KT P6SM FEW023", "TJBQ 031140Z 0312/0412 10005KT P6SM SKC FM031400 08014G20KT P6SM FEW030 FM031800 07018G26KT P6SM SCT025 SCT040 FM032100 09010KT P6SM VCSH BKN022 BKN035 FM040200 11005KT P6SM FEW025", "TJPS 031140Z 0312/0412 08008KT P6SM VCSH FEW035 SCT050 FM031400 14018G26KT P6SM FEW030 FEW050 FM032200 08012KT P6SM FEW040 FM040100 06004KT P6SM SKC", "TJSJ 031140Z 0312/0412 10005KT P6SM VCSH FEW025 SCT035 FM031400 08014KT P6SM FEW030 FM031800 07018G26KT P6SM FEW035 FM032200 08010KT P6SM FEW028 FM040400 10005KT P6SM FEW025", "TAF TKPK 031100Z 0312/0412 09014KT 9999 FEW022", "TAF TKPN 031100Z 0312/0412 09014KT 9999 FEW022", "TAF TLPC 031100Z 0312/0412 09009KT 9999 SCT025 TEMPO 0312/0400 SHRA BKN015", "TAF TLPL 031100Z 0312/0412 09018KT 9999 SCT025 TEMPO 0312/0400 SHRA BKN015", "TAF TNCA 030502Z 0306/0406 09015KT 9999 FEW016", "TAF TNCB 031043Z 0312/0418 08017KT 9999 SCT018", "TAF TNCC 031100Z 0312/0412 11012KT 9999 SCT020", "TNCM 031020Z 0312/0412 08013KT 9999 SCT018 ", "TAF TQPF 031100Z 0312/0412 09015KT 9999 SCT020", "TAF TRPG 031100Z 0312/0412 09015KT 9999 FEW022", "TAF TTCP 031000Z 0312/0412 11014KT 9999 FEW022 BECMG 0323/0401 06005KT FEW016", "TAF TTPP 031000Z 0312/0412 11012KT 9999 SCT025 BECMG 0323/0401 10005KT FEW016", "TAF TUPJ 031100Z 0312/0412 09011KT 9999 SCT020", "TAF TVSA 031100Z 0312/0412 06015KT 9999 SCT018 TEMPO 0315/0321 BKN015", "TAF TXKF 031133Z 0312/0412 03008KT 9999 FEW030 SCT300 ", "TAF UAAA 031102Z 0312/0412 16003MPS 6000 FEW100 TX18/0410Z TN02/0401Z TEMPO 0312/0315 03004G09MPS TEMPO 0315/0401 06003G08MPS 3100 FU BECMG 0401/0402 32003MPS 9999 TEMPO 0402/0406 27003G08MPS TEMPO 0406/0412 01004G10MPS", "TAF UAAH 031100Z 0312/0321 08014G19MPS CAVOK", "TAF UAAT 031101Z 0312/0321 02014MPS 9999 SCT100 TEMPO 0312/0318 04014G20MPS", "TAF UACC 031100Z 0312/0412 09006MPS CAVOK TX15/0410Z TNM03/0401Z TEMPO 0312/0317 11008MPS BECMG 0317/0318 13005MPS TEMPO 0317/0404 15004MPS 3100 BR SCT005 BECMG 0404/0406 09005MPS", "TAF UACK 031106Z 0312/0321 17006MPS CAVOK TEMPO 0312/0315 18007G12MPS", "TAF UACP 031101Z 0312/0321 18004MPS CAVOK TEMPO 0312/0315 16005MPS SCT030", "TAF UADD 031100Z 0312/0321 30005G10MPS 9999 NSC", "TAF UAII 031100Z 0312/0412 34003G08MPS 6000 BKN040CB TX23/0410Z TN07/0401Z TEMPO 0312/0316 28005G12MPS -TSRA BKN033CB TEMPO 0316/0404 20005G12MPS -TSRA", "TAF UAIT 031100Z 0312/0321 08012G17MPS 9999 SCT040 TEMPO 0312/0317 10015G21MPS SCT040CB", "TAF UAKD 031102Z 0312/0321 09013G18MPS CAVOK TEMPO 0312/0314 10017G22MPS BECMG 0314/0316 09009G14MPS", "TAF UAKK 031100Z 0312/0412 09005MPS CAVOK TX15/0409Z TNM03/0324Z TEMPO 0312/0315 09008MPS TEMPO 0404/0412 10008MPS", "TAF UAOO 031100Z 0312/0321 09010MPS 9999 BKN033 BKN100 TEMPO 0318/0321 3100 -SHRA BKN020CB", "TAF UARR 031100Z 0312/0321 15004MPS CAVOK TEMPO 0317/0321 11004MPS", "TAF UASK 031101Z 0312/0321 VRB01MPS 9999 NSC TEMPO 0312/0315 01004MPS", "TAF UASP 031100Z 0312/0321 16003G08MPS CAVOK TEMPO 0312/0321 3100 FU SCT011", "TAF UASS 031101Z 0312/0321 10006MPS 9999 SCT100", "TAF AMD UATE 031102Z 0312/0412 27005MPS 9999 SCT011 BKN033CB TX12/0410Z TN04/0403Z BECMG 0315/0317 VRB02MPS TEMPO 0315/0403 0200 -DZ FG VV001", "TAF UATG 031100Z 0312/0412 23005MPS 6000 BKN033CB TX19/0411Z TN07/0403Z TEMPO 0312/0316 3100 FU BECMG 0316/0318 3100 BR BECMG 0320/0322 29006MPS BECMG 0404/0406 34007MPS 9999 NSW", "TAF UATT 031100Z 0312/0412 11006MPS 9999 SCT050 TX18/0412Z TNM01/0401Z", "TAF UAUU 031101Z 0312/0321 14005MPS CAVOK TEMPO 0312/0318 12007G12MPS", "TAF UBBB 031055Z 0312/0412 04014KT 9999 SCT020 TX12/0312Z TN07/0402Z BECMG 0317/0319 16008KT BKN030 TEMPO 0321/0405 VRB04KT 3000 BR BCFG SCT005 TEMPO 0405/0412 19012KT", "TAF UBBF 030745Z 0309/0318 09005KT 9999 SCT020 SCT080 TEMPO 0309/0315 13008KT", "TAF UBBG 031100Z 0312/0412 08008KT 9999 FEW100 TX17/0312Z TN07/0402Z TEMPO 0312/0315 VRB04KT TEMPO 0316/0320 FEW030CB SCT100 BECMG 0400/0402 20008KT", "TAF UBBL 031055Z 0312/0412 13012KT 8000 NSC TX15/0312Z TN05/0402Z TEMPO 0312/0321 SCT030 TEMPO 0321/0405 3000 BR SCT007", "TAF UBBN 031054Z 0312/0412 VRB04KT 9999 FEW040CB SCT050 BKN100 TX19/0312Z TN06/0403Z TEMPO 0312/0318 30012KT TEMPO 0321/0405 03010KT", "TAF UBBQ 031055Z 0312/0412 17008KT 8000 SCT030 TX14/0312Z TN04/0402Z BECMG 0315/0317 VRB04KT TEMPO 0320/0406 3000 BR BCFG SCT004", "TAF UBBY 031100Z 0312/0321 VRB04KT 9999 FEW100 TEMPO 0312/0314 FEW050", "TAF UBBZ 030750Z 0309/0318 06010KT 9999 SCT030 SCT100 TEMPO 0309/0315 VRB04KT", "TAF UBEE 031100Z 0312/0321 VRB04KT CAVOK TEMPO 0315/0320 11010KT", "TAF UCFL 031054Z 0312/0412 14003G08MPS 9999 SCT030CB TEMPO 0312/0318 28003G08MPS BECMG 0318/0319 35003G08MPS TEMPO 0318/0402 04003G08MPS BECMG 0406/0407 14003G08MPS", "TAF UCFM 031057Z 0312/0412 05010G15MPS 7000 SCT060 TEMPO 0312/0320 07017G22MPS 2000 BLDU FEW002 BECMG 0320/0322 09003G08MPS TEMPO 0320/0403 06008G13MPS 2000 BLDU FEW002 BECMG 0405/0406 32003G08MPS SCT040CB", "TAF AMD UCFO 031153Z 0312/0412 27004G09MPS 6000 BKN050CB OVC100 TEMPO 0313/0319 VRB17G22MPS 1500 TSRAGR SCT002 BKN020CB TEMPO 0319/0324 27008G13MPS -SHRA SCT005 BKN020CB PROB40 TEMPO 0319/0324 -TSRA BECMG 0403/0405 32003G08MPS", "TAF UDSG 031058Z 0312/0412 22006KT 9999 SCT050 TEMPO 0312/0318 VRB16KT -TSRA BKN030CB", "TAF UDYZ 031100Z 0312/0412 24006KT 9999 FEW040 TEMPO 0312/0319 VRB20G30KT SCT040CB", "TAF UEEE 031100Z 0312/0418 04007G13MPS 9999 BKN020CB OVC070 TEMPO 0312/0403 0300 +SHSN BLSN VV002 BECMG 0400/0402 32007G14MPS", "TAF UERP 031100Z 0312/0412 20003G08MPS 8000 BKN020CB OVC100 TEMPO 0315/0403 25005G10MPS 1500 SHSN BLSN BKN010CB OVC100 BECMG 0320/0322 35005G11MPS TEMPO 0403/0412 3000 -SN DRSN", "TAF UERR 031100Z 0312/0412 24005G10MPS 9999 BKN020CB OVC100 TEMPO 0312/0324 2500 -SHSN BLSN SCT004 OVC015CB", "TAF UGAM 031000Z 0311/0317 27007KT 9999 SCT050 TEMPO 0311/0315 2000 SHRA BKN015CB ", "TAF UGKO 031100Z 0312/0412 27010KT 9999 BKN080 TX25/0411Z TN10/0403Z PROB40 TEMPO 0312/0316 3000 SHRA BKN017CB BECMG 0316/0319 08010KT BECMG 0320/0323 CAVOK TEMPO 0406/0412 08017KT", "TAF COR UGMS 031000Z 0311/0317 22007KT 9999 BKN100 TEMPO 0315/0317 RA OVC050", "TAF UGSB 031100Z 0312/0412 13012KT 9999 BKN100 TX24/0412Z TN11/0402Z PROB40 TEMPO 0312/0314 RA BKN050 BECMG 0316/0318 CAVOK BECMG 0318/0321 12022KT BECMG 0408/0410 11012KT", "TAF UGTB 031100Z 0312/0412 31017KT CAVOK TX22/0312Z TN05/0402Z TEMPO 0312/0316 30027KT BECMG 0316/0319 31007KT SCT060 TEMPO 0317/0324 SCT050CB", "TAF UHBB 031058Z 0312/0412 27006G11MPS 9999 SCT033 TEMPO 0312/0408 29010G15MPS", "TAF UHHH 031054Z 0312/0418 23005MPS CAVOK FM031400 25008MPS 9999 BKN020CB TEMPO 0314/0321 27010G15MPS 4000 -SHRA SCT011 BKN020CB FM040000 27010MPS CAVOK TEMPO 0400/0409 27012G18MPS", "TAF UHMA 031039Z 0312/0412 01003MPS 5000 BR FEW005 TEMPO 0312/0412 35006G11MPS 0500 FZFG BKN002", "TAF UHMM 031049Z 0312/0418 09003MPS 9999 FEW040 TEMPO 0403/0409 4000 -SN BKN030 FM040900 11006G14MPS 2000 SHSN BKN007 OVC017CB TEMPO 0409/0418 0500 +SHSN BLSN VV004", "TAF UHPP 031044Z 0312/0418 34003G10MPS 9999 SCT030 TEMPO 0402/0412 17005MPS", "TAF AMD UHSS 031110Z 0311/0418 18003MPS 0700 FZFG BKN002 BKN016CB BECMG 0323/0324 9999 NSW BKN025CB", "TAF UHWW 031050Z 0312/0412 20003MPS 6000 FEW002 BKN009 BECMG 0317/0320 0300 FG BKN002 BKN016CB BECMG 0322/0324 9999 NSW BKN018CB BECMG 0400/0402 36003G10MPS", "TAF UIAA 031100Z 0312/0412 28008G15MPS 9999 BKN040CB TEMPO 0312/0412 22003G08MPS", "TAF UIBB 031100Z 0312/0412 24006G14MPS 9999 SCT020 BECMG 0406/0408 30008G15MPS", "TAF UIII 031100Z 0312/0412 16003MPS CAVOK", "TAF UIUU 031100Z 0312/0412 32003G08MPS 9999 NSC", "TAF ULAA 031100Z 0312/0412 05003MPS 9999 SCT016 TEMPO 0312/0318 07004G10MPS 6000 FEW011 FM031800 06003G08MPS 6000 BKN016", "TAF ULLI 031056Z 0312/0412 02006G11MPS 6000 -SN BKN016 TEMPO 0312/0316 01008G14MPS 1500 -SHSN BLSN BKN010 BKN017CB TEMPO 0316/0406 3100 -SHSN BR BKN006 BKN016CB", "TAF ULMM 031050Z 0312/0412 21005G10MPS 9999 SCT016", "TAF ULOO 031054Z 0312/0321 35005G11MPS 6000 -SN BKN016 TEMPO 0312/0318 2100 -SHSNRA BKN010 BKN016CB", "TAF ULPB 031052Z 0312/0321 03007G13MPS 6000 -SN OVC016 TEMPO 0312/0315 3000 -SHSN BLSN BKN016CB", "TAF ULWC 031100Z 0312/0321 03003MPS 6000 OVC004 TEMPO 0312/0321 2100 -RA BR OVC002", "TAF UMBB 031053Z 0312/0321 01006G11MPS 6000 BKN020 TEMPO 0312/0315 03008G13MPS TEMPO 0315/0321 01004G09MPS BKN011", "TAF UMGG 031054Z 0312/0412 35005MPS 6000 BKN007 TEMPO 0312/0314 01007G12MPS 2000 SHRA BKN004 BKN012CB TEMPO 0314/0406 32005MPS 2000 SHRASN BR BKN004 SCT015CB FM040600 29006MPS 9999 BKN013", "TAF UMII 031102Z 0312/0321 36004G09MPS 2000 SN BKN005 TEMPO 0312/0321 02005G10MPS 1400 SHSNRA OVC003 BKN012CB", "TAF UMIO 031100Z 0312/0321 01006G11MPS 3000 -SNRA BKN007 TEMPO 0312/0321 35009G14MPS 1200 SHSNRA OVC004 BKN015CB", "TAF UMKK 031056Z 0312/0412 36009G15MPS 9999 SCT020 BECMG 0318/0320 35003G10MPS BECMG 0404/0406 36006G11MPS", "TAF UMMG 031107Z 0312/0321 01008G13MPS 9999 BKN020 TX04/0312Z TNM01/0321Z TEMPO 0316/0321 35004G09MPS", "TAF COR UMMS 031100Z 0312/0412 35006G11MPS 9999 BKN015 TEMPO 0312/0318 01010G15MPS 3000 -SNRA BKN010 BECMG 0318/0320 34005G10MPS 3000 -SN BKN010 TEMPO 0320/0412 1200 SHSN BKN005 BKN015CB", "TAF UMOO 031059Z 0312/0321 01006G11MPS 3000 -SNRA BKN007 TEMPO 0312/0321 35007G12MPS 1200 SHSNRA BR BKN004 BKN015CB", "TAF UNAA 031053Z 0312/0412 19003MPS CAVOK TEMPO 0318/0401 3500 BR FU BECMG 0402/0405 22008G15MPS", "TAF UNBB 031100Z 0312/0412 22003G08MPS CAVOK TEMPO 0312/0412 27008G13MPS", "TAF UNEE 031100Z 0312/0412 20003G08MPS CAVOK BECMG 0403/0406 26005G10MPS TEMPO 0406/0412 31003G08MPS", "TAF UNKL 031046Z 0312/0412 25007G15MPS 9999 SCT020 BECMG 0316/0318 26002G07MPS FM032300 27008G16MPS 6000 -SHSN BKN016CB TEMPO 0403/0410 2000 SHSN", "TAF UNNT 031100Z 0312/0412 21003G08MPS 8000 SCT040 TEMPO 0312/0315 22008G15MPS BECMG 0403/0406 26005G12MPS BECMG 0408/0409 31003G08MPS", "TAF UNOO 031055Z 0312/0412 17003MPS 8000 NSC TEMPO 0317/0403 3100 FU", "TAF UNTT 031100Z 0312/0321 23005G12MPS 9999 BKN040", "TAF UNWW 031100Z 0312/0412 19003G08MPS 8000 SCT040 TEMPO 0312/0315 24006G12MPS TEMPO 0403/0412 24006G12MPS", "TAF UOOO 031059Z 0312/0412 33006G11MPS 6000 BLSN BKN016 TEMPO 0312/0317 30011MPS 3200 BLSN BECMG 0317/0318 22005G10MPS 3200 BR TEMPO 0318/0324 28003G08MPS 0500 FZFG VV003 FM040000 18013G20MPS 0300 SN BLSN OVC011 TEMPO 0400/0409 0600 SN BLSN BKN002 OVC011", "TAF URKA 031056Z 0312/0412 20006G12MPS 9999 SCT020CB TEMPO 0312/0316 18010G15MPS -SHRA SCT011 BKN020CB FM031800 15003G08MPS 6000 SCT016 TEMPO 0321/0406 0500 FG BKN002", "TAF URKK 031049Z 0312/0412 19003G08MPS 9999 SCT030CB FM031800 09003G08MPS 6000 SCT030 TEMPO 0318/0406 0300 FG BKN002 TEMPO 0406/0412 10007G12MPS", "TAF URMG 031100Z 0312/0321 06003G08MPS 9999 SCT030 TEMPO 0312/0315 04005G13MPS", "TAF URML 031100Z 0312/0321 12003G08MPS 6000 FEW006 BKN020 TEMPO 0312/0315 14006G11MPS SCT006 BKN016 TEMPO 0315/0321 0500 FG BKN002", "TAF URMM 031100Z 0312/0412 10003G08MPS 9999 BKN030 TX20/0312Z TN03/0403Z TEMPO 0312/0318 12005G13MPS 6000 -SHRA BKN016 BKN040CB TEMPO 0407/0412 10006G14MPS", "TAF URMN 031100Z 0312/0321 07003G08MPS 9999 BKN020 TEMPO 0312/0321 12005G11MPS BKN016CB", "TAF URMO 031100Z 0312/0321 05003G08MPS 9999 BKN030 TEMPO 0312/0315 03005G13MPS", "TAF URMT 031100Z 0312/0321 34003G10MPS 9999 SCT030 TEMPO 0312/0318 25003G08MPS 6000 -SHRA SCT016 BKN020CB", "TAF URRP 031055Z 0312/0412 22003G12MPS 9999 SCT020CB TEMPO 0312/0321 25007G15MPS 4000 -TSRA FEW011 BKN020CB TEMPO 0321/0406 0300 FG BKN001 SCT020CB", "TAF URSS 031055Z 0312/0412 15003G08MPS 9999 SCT040CB BKN100 BECMG 0315/0316 05003G08MPS SCT030 BECMG 0407/0408 15004G09MPS NSC", "TAF URWA 031100Z 0312/0321 17005G11MPS 9999 SCT016 BECMG 0315/0316 22003G08MPS PROB40 TEMPO 0318/0321 0400 FG", "TAF URWI 031055Z 0312/0321 18003G12MPS 9999 SCT020CB TEMPO 0312/0321 30005G13MPS -SHRA", "TAF URWW 031055Z 0312/0321 21003G10MPS 6000 BKN016 TEMPO 0312/0315 16003G12MPS TEMPO 0315/0321 24003G12MPS -SHRA BKN016 SCT020CB", "TAF USCC 031100Z 0312/0412 14003G08MPS CAVOK", "TAF USCM 031100Z 0312/0321 11003G08MPS 6000 NSC TEMPO 0312/0321 03003MPS", "TAF USDA 031055Z 0312/0321 23009G14MPS 6000 DRSN FEW005 BKN020CB TEMPO 0313/0314 3000 -SHSN BLSN BECMG 0314/0316 21016G23MPS 0300 +SHSN BLSN BECMG 0318/0320 30013G19MPS 0700 BLSN", "TAF USHH 031037Z 0312/0412 04003G12MPS 9999 BKN020 TEMPO 0312/0406 3100 -SHSN SCT003 BKN016CB TEMPO 0406/0412 5000 -SHRA FEW004 BKN016CB", "TAF USNN 031048Z 0312/0412 30003G10MPS 9999 BKN040 BECMG 0314/0315 36003G10MPS TEMPO 0318/0406 -SHSN FEW003 BKN016CB", "TAF USPP 031057Z 0312/0412 27003G11MPS CAVOK BECMG 0314/0315 11003G08MPS", "TAF USRR 031055Z 0312/0412 01004G12MPS 6000 FEW006 BKN017CB TEMPO 0312/0324 2100 -SHSN BKN003 BKN016CB BECMG 0321/0323 07005G12MPS", "TAF USSS 031045Z 0312/0412 15003G12MPS CAVOK BECMG 0407/0410 SCT030", "TAF USTR 031039Z 0312/0412 18003G10MPS 9999 SCT030 TEMPO 0318/0324 VRB01MPS BECMG 0400/0403 10003G08MPS", "TAF UTAA 031045Z 0311/0412 32016KT 6000 BKN020 SCT030CB TEMPO 0311/0316 VRB32KT 1000 DS TSRA BKN010 PROB40 TEMPO 0316/0320 VRB26KT 3000 -TSRA BECMG 0320/0322 4000 -RA TEMPO 0322/0402 2000 BR", "TAF UTAK 031030Z 0312/0412 30014KT 9999 BKN008 BKN100 TEMPO 0312/0316 23014KT 6000 BKN004 SCT050CB OVC100 BECMG 0316/0318 34010KT 3000 BR BKN003 TEMPO 0318/0404 VRB04KT 0800 FG VV001 BECMG 0404/0406 13014KT 9999 NSW BKN020 TEMPO 0406/0409 6000 BKN005", "TAF UTAM 031040Z 0312/0412 35014KT 5000 SCT050CB BKN050 PROB40 TEMPO 0312/0318 VRB28KT 2000-TSSHRA BKN020 TEMPO 0318/0406 VRB30KT 2000-TSSHRA BKN015", "TAF UTAT 031037Z 0312/0412 36010KT 6000 SCT030 OVC050 TEMPO 0312/0406 VRB10KT 5000 -RA BKN020 PROB40 TEMPO 0312/0321 VRB28KT 1000 TSRA SCT020CB", "TAF UTAV 031030Z 0312/0412 30014KT 6000 BKN020 SCT030CB PROB40 TEMPO 0312/0318 VRB30KT 2000 TSSHRA BKN005 TEMPO 0402/0408 3000 -RA OVC007", "TAF UTDD 030900Z 0310/0322 VRB02MPS 6000 SCT011 SCT030CB BKN060 TEMPO 0310/0322 VRB08G13MPS 3100 -TSRA BR", "TAF UTDK 030900Z 0310/0319 VRB02MPS 6000 SCT011 BKN050CB TEMPO 0310/0319 VRB08MPS 3100 -TSRA BR", "TAF AMD UTDL 031056Z 0310/0322 24010MPS 6000 SCT050CB BKN080 TEMPO 0311/0316 26015MPS 3100 -TSRA BR SCT011 BKN040CB BECMG 0316/0318 24005MPS", "TAF UTDT 030901Z 0310/0319 VRB02MPS 6000 SCT011 SCT030CB BKN060 TEMPO 0310/0319 VRB08MPS 3100 -TSRA BR", "TAF UTFF 030900Z 0310/0319 34010KT 7000 FEW060CB BKN100 TEMPO 0312/0319 28014G24KT 3000 -TSRA BR BKN040CB", "TAF UTFN 031100Z 0312/0412 34010KT 7000 FEW050CB BKN100 TEMPO 0312/0322 23014G24KT 3000 -TSRA BR BKN040CB", "TAF UTNN 031100Z 0312/0412 VRB04KT CAVOK TEMPO 0312/0316 35010KT", "TAF UTNU 031100Z 0312/0412 VRB04KT CAVOK TEMPO 0312/0316 02010KT", "TAF UTSA 031101Z 0312/0412 VRB05KT 7000 SCT050CB TEMPO 0312/0323 30016KT 3000 -TSRA BR SCT008 OVC025CB", "TAF UTSB 031101Z 0312/0412 VRB05KT 7000 FEW010 SCT050CB TEMPO 0312/0323 31016KT 3000 -TSRA BR SCT006 OVC025CB", "TAF COR UTSK 030900Z 0310/0319 25006KT 7000 SCT008 BKN050CB TEMPO 0310/0315 VRB10G20KT 2000 TSRA BR SCT007 BKN040CB", "TAF UTSS 031100Z 0312/0412 11010KT 7000 SCT066CB BKN100 TEMPO 0312/0324 VRB14G24KT 2000 TSRA BR SCT007 BKN050CB TEMPO 0400/0404 1000 BR BKN006", "TAF UTST 031100Z 0312/0412 VRB06KT 6000 BKN050CB BKN100 TEMPO 0312/0323 26016G26KT 2000 TSRA DS SCT010 BKN040CB BKN100", "TAF UTTT 031100Z 0312/0412 28012KT 7000 SCT050CB BKN100 TEMPO 0312/0324 VRB15G25KT 3000 -TSRA BR SCT010 BKN040CB OVC100", "TAF UUBC 031056Z 0312/0321 10003MPS 9999 BKN020 TEMPO 0315/0321 3500 -SHRA SCT006 BKN011CB", "TAF UUBP 031057Z 0312/0321 VRB01MPS 9999 BKN016", "TAF UUBW 031051Z 0312/0412 08003MPS 8000 BKN016 TX14/0312Z TN05/0403Z TEMPO 0315/0405 2100 -SHRA BR BKN007 SCT016CB", "TAF UUDD 031053Z 0312/0418 08003MPS 9999 FEW007 BKN016 TX13/0312Z TN05/0403Z TEMPO 0316/0406 1000 -SHRA BR BKN005 SCT016CB", "TAF UUDL 031100Z 0312/0412 09003MPS 8000 BKN040 TX11/0312Z TN03/0403Z", "TAF UUEE 031056Z 0312/0412 06003MPS 8000 FEW007 BKN016 TX13/0312Z TN05/0401Z TEMPO 0312/0321 2000 -SHRA BR FEW005 SCT016CB TEMPO 0321/0406 0900 -RA FG FEW002 OVC005", "TAF UUMO 031057Z 0312/0321 VRB01MPS 9999 SCT016 TEMPO 0318/0321 6000 -SHRA BKN020CB", "TAF UUOB 031055Z 0312/0321 10008G13MPS 6000 BKN016 TEMPO 0312/0318 3000 -SHRA BR BKN011CB TEMPO 0318/0321 2000 RA BKN006", "TAF UUOK 031058Z 0312/0321 10007G12MPS 9999 BKN020 TEMPO 0312/0318 3100 -SHRA BR SCT006 BKN011CB", "TAF UUOL 031100Z 0312/0321 08003G08MPS 9999 SCT030", "TAF UUOO 031100Z 0312/0321 12003G08MPS 9999 SCT020 TEMPO 0317/0321 -SHRA BKN016CB", "TAF UUWW 031055Z 0312/0412 07003MPS 8000 FEW005 BKN016 TX12/0312Z TN07/0403Z TEMPO 0317/0405 2100 -SHRA BR BKN004 SCT016CB", "TAF UUYY 031100Z 0312/0412 05006G14MPS 8000 -SHSNRA BKN011 BKN017CB TEMPO 0312/0318 1000 SHSN BR BKN006 BKN016CB FM031800 06003G08MPS 6000 BKN017CB", "TAF UWGG 031052Z 0312/0412 08003G09MPS 9999 BKN030 TX13/0312Z TN04/0402Z", "TAF UWKD 031057Z 0312/0412 13005MPS CAVOK TX16/0312Z TN05/0403Z", "TAF UWKE 031057Z 0312/0412 11003G09MPS 9999 FEW030 TEMPO 0312/0318 15005G13MPS SCT016", "TAF UWKS 031043Z 0312/0321 11003G08MPS 9999 SCT040 TX14/0312Z TN04/0318Z", "TAF UWLL 031051Z 0312/0412 10005G11MPS 9999 SCT016 TX15/0312Z TN02/0403Z TEMPO 0312/0409 15003G08MPS", "TAF UWLW 031059Z 0312/0412 14003MPS 9999 SCT020 TX18/0411Z TN02/0403Z TEMPO 0312/0318 10003G09MPS TEMPO 0406/0412 11003G09MPS BKN016", "TAF UWOO 031043Z 0312/0412 12008G14MPS 9999 SCT020 TX16/0312Z TN02/0401Z TEMPO 0312/0316 10005G10MPS BECMG 0316/0318 09003G10MPS TEMPO 0318/0406 04003MPS", "TAF UWOR 031049Z 0312/0321 10008G14MPS 9999 SCT020 TX14/0312Z TN03/0321Z TEMPO 0312/0318 09005G10MPS BECMG 0318/0319 06005G10MPS", "TAF UWPS 031057Z 0312/0321 14003MPS 9999 BKN040CB TX16/0312Z TN06/0321Z", "TAF UWSG 031100Z 0312/0321 13003G08MPS CAVOK TX16/0312Z TN07/0321Z", "TAF UWUU 031048Z 0312/0412 10003G08MPS CAVOK TX20/0313Z TNM00/0402Z TEMPO 0312/0318 15005G10MPS", "TAF UWWW 031051Z 0312/0412 13006G13MPS 9999 SCT016 TX16/0312Z TN03/0403Z BECMG 0316/0318 15003G09MPS", "TAF VAAH 031100Z 0312/0321 26007KT 6000 FEW080 BECMG 0313/0315 4000 FU NSC", "TAF VAAU 031100Z 0312/0321 28008KT 5000 FU FEW020 SCT025 BECMG 0315/0317 34006KT 4000 FU SCT020", "TAF VABB 031100Z 0312/0418 31012KT 4000 FU HZ FEW020 BECMG 0315/0317 35005KT 3500 HZ NSC BECMG 0321/0323 05003KT 3000 HZ BECMG 0401/0403 2500 BR HZ FEW020 BECMG 0406/0408 26008KT 4000 HZ NSC TEMPO 0408/0412 32007G17KT BECMG 0413 0415 34008KT 3500 HZ", "TAF VABJ 031100Z 0312/0321 25010KT 6000 FEW100 BECMG 0319/0321 24006KT NSC", "TAF VABO 031100Z 0312/0321 26005KT 6000 FEW080 BECMG 0319/0321 VRB02KT NSC", "TAF VABP 031100Z 0312/0321 25010KT 6000 SCT025 BECMG 0318/0320 29008KT 5000 HZ FEW025", "TAF VABV 031100Z 0312/0321 18012KT 6000 FEW025 BECMG 0316/0318 23008KT NSC BECMG 0319/0321 27006KT", "TAF VADU 031100Z 0312/0321 28012KT 6000 NSC BECMG 0316/0318 28008KT FEW020", "TAF VAID 031100Z 0312/0321 25010KT 6000 SCT025 BECMG 0318/0320 29008KT 5000 HZ FEW025", "TAF VAJB 031100Z 0312/0321 27010KT 6000 FEW020 SCT025 BECMG 0315/0317 20008KT 5000 HZ", "TAF VAJL 030800Z 0309/0318 25006KT 5000 HZ FEW020 BECMG 0315/0317 VRB03KT 4000 HZ FEW100", "TAF VAJM 031100Z 0312/0321 27012KT 6000 FEW025 BECMG 0316/0318 24008KT NSC", "TAF VAKE 030800Z 0309/0318 18007KT 5000 FU FEW080 BECMG 0313/0315 26012KT 4000 FU ", "TAF VAKP 031100Z 0312/0321 26010KT 4000 FU FEW020 BECMG 0315/0317 35006KT 3000 FU FEW100", "TAF VANP 031100Z 0312/0418 26003KT 4000 HZ FEW020 SCT100 BECMG 0316/0318 16003KT 3000 HZ SCT100 BECMG 0400/0402 21003KT 2500 HZ FEW020 BECMG 0404/0406 26004KT 5000 HZ FEW020 SCT100 BECMG 0412/0414 32004KT 4000 HZ", "TAF VAOZ 030800Z 0309/0321 34005KT 6000 FEW030 BECMG 0318/0320 VRB02KT NSC", "TAF VAPO 030500Z 0306/0412 30010KT 6000 FEW025 SCT250 TEMPO 0401/0403 5000 HZ", "TAF VAPR 031100Z 0312/0321 27012KT 6000 FEW020 BECMG 0316/0318 27008KT", "TAF VARK 031100Z 0312/0321 30010KT 6000 FEW080 BECMG 0316/0318 27006KT NSC", "TAF VASD 030800Z 0309/0318 25006KT 5000 HZ FEW020 BECMG 0315/0317 VRB03KT 4000 HZ FEW100", "TAF VASL 031100Z 0312/0321 26010KT 4000 FU FEW020 BECMG 0315/0317 35006KT 3000 FU FEW100", "TAF VASU 031100Z 0312/0321 22008KT 6000 NSC BECMG 0319/0321 27007KT", "TAF VAUD 031100Z 0312/0418 26008KT 5000 HZ FEW100 BECMG 0400/0401 VRB03KT 3000 HZ BECMG 0404/0406 27010KT 5000 HZ NSC", "TAF VCBI 031100Z 0312/0418 25008KT 9999 SCT018 TX33/0407Z TN24/0400Z PROB40 TEMPO 0312/0315 -TSRA/SHRA SCT016 FEW020CB BKN080 BECMG 0312/0314 VRB05KT PROB30 TEMPO 0323/0406 -TSRA/SHRA SCT016 FEW020CB BECMG 0402/0404 23008KT", "TAF VCRI 031100Z 0312/0418 VRB05KT 9999 FEW018 TX33/0408Z TN23/0400Z PROB30 TEMPO 0312/0315 7000 -TSRA/SHRA SCT018 FEW020CB BKN080 ", "TAF VDPP 031100Z 0312/0406 17007KT 9999 SCT017 TEMPO 0312/0317 5000 TSRA SCT015 FEW017CB BKN040", "TAF VDSR 031100Z 0312/0406 25007KT 9999 SCT017 TEMPO 0312/0317 SCT015 FEW017CB BKN040", "TAF VDSV 031100Z 0312/0406 22008KT 9999 SCT017 TEMPO 0312/0317 5000 TSRA SCT015 FEW017CB BKN040", "TAF VEAB 030330Z 0306/0318 30005KT 6000 NSC TEMPO 0307/0312 30010G20KT 6000 SCT030", "TAF VEAN 030500Z 0306/0315 09005KT 3000 -RA BR FEW006 SCT018 FEW025CB OVC080", "TAF VEAT 031100Z 0312/0321 30003KT 5000 HZ FEW020 SCT025 BECMG 0315/3018 00000KT 2800 BR TEMPO 0318/3021 2500 -TSRA SCT018 FEW030CB BKN100", "TAF VEBD 030500Z 0306/0412 09005KT 5000 HZ SCT030 SCT090 TEMPO 0310/0312 SCT030 SCT100 FEW030CB", "TAF VEBI 030800Z 0309/0318 30005KT 5000 HZ FEW018 SCT100", "TAF VEBN 031100Z 0312/0418 29003KT 4000 HZ FEW020 BECMG 0313/0315 VRB02KT 2000 BR BECMG 0406/0408 29005KT 3000 HZ BECMG 0408/0410 4000 HZ BECMG 0416/0418 VRB02KT 3000 BR", "TAF VEBS 031100Z 0312/0418 18005KT 4000 HZ SCT018 BECMG 0322/0324 2000 BR BECMG 0403/0405 22005KT 4500 HZ FEW020 SCT100 TEMPO 0408/0412 2000 -TSRA BKN016 FEW030CB OVC080 BECMG 0413/0415 18005KT 3000 HZ", "TAF VEBU 030500Z 0306/0315 18003KT 5000 HZ FEW020 SCT025 BECMG 0313/0315 32003KT 3000 HZ FEW020 SCT100", "TAF VECC 031100Z 0312/0321 30005KT 3500 HZ FEW020 SCT100 BECMG 0313/0315 23005KT", "TAF VECO 030200Z 0303/0312 08005KT 3500 HZ FEW020 SCT100 BECMG 0306/0308 24005KT 5000 HZ", "TAF VECX 030930Z 0312/0324 27005KT 6000 FEW030 BECMG 0322/0324 VRB02KT 4000 HZ NSC", "TAF VEDG 031100Z 0312/0418 28005KT 5000 HZ FEW020 SCT100 BECMG 0316/0318 3200 HZ BECMG 0400/0402 20005KT 2500 HZ FEW100 BECMG 0403/0405 3500 HZ FEW020 SCT100 BECMG 0406/0408 29008KT 5000 HZ BECMG 0416/0418 19005KT 3500 HZ", "TAF VEDO 030500Z 0306/0315 25005KT 5000 HZ FEW020 BECMG 0313/0315 00000KT 3000 HZ", "TAF VEDZ 030500Z 0306/0315 02005KT 3000 -RA BR FEW006 SCT018 FEW025CB OVC080", "TAF VEGK 030330Z 0306/0318 29010KT 6000 NSC BECMG 310/0312 29010G20KT FEW030 TEMPO 0311/0313 FEW030TCU BECMG 0315/0317 VRB02KT 4000 BR FEW030 SCT250", "TAF VEGT 031100Z 0312/0321 00000KT 4000 HZ FEW020 FEW025CB SCT100 0318/0320 3000 ???RA/BR FEW020 FEW025CB BKN100", "TAF VEGY 031100Z 0312/0321 32012KT 6000 FEW020 SCT025 BECMG 0316/0318 00000KT 4000 HZ NSC", "TAF VEIM 031100Z 0312/0321 00000KT 4000 ???RA/HZ FEW020 FEW025CB SCT100 BECMG 0318/0320 3000 BR", "TAF VEJH 030800Z 0309/0318 27005KT 5000 HZ FEW020 TEMPO 0310/0314 2000 -TSRA BKN016 FEW030CB OVC080 BECMG 0315/0317 00000KT 3000 HZ", "TAF VEJR 030500Z 0306/0315 VRB03KT 5000 HZ FEW020 SCT025 BECMG 0313/0315 00000KT 3000 HZ FEW020 SCT100", "TAF VEJS 031100Z 0312/0321 32005KT 5000 HZ FEW020 SCT025 BECMG 0316/0318 00000KT 3000 HZ NSC", "TAF VEJT 030330Z 0306/0318 04005KT 5000 -RA SCT020 BKN090 TEMPO 0308/0310 3000 TSRA SCT020 FEW030CB BKN080 TEMPO 0315/0317 05010G20KT 2000 TSRABR", "TAF VEKI 031100Z 0312/0418 28004KT 4000 HZ FEW020 BECMG 0314/0316 VRB02KT 3000 BR BECMG 0318/0320 1500 BR BECMG 0406/0408 29005KT 5000 HZ BECMG 0413/0415 VRB02KT 3000 HZ BECMG 0416/0418 VRB02KT 1500 BR ", "TAF VEKO 031100Z 0312/0321 27010KT 6000 FEW020 SCT025 BECMG 0315/0317 20008KT 5000 HZ", "TAF VEKU 030330Z 0306/0318 09005KT 5000 BR SCT025 BKN090 TEMPO 0309/0311 FEW030CB TEMPO 0316/0318 21005KT 3000 TSRA SCT020 BKN090 FEW030CB", "TAF VELP 030800Z 0309/0318 23006KT 2500 -TSRA SCT018 FEW030CB BKN100 BECMG 0311/0315 00000KT 3000 BR SCT018 SCT100", "TAF VELR 030800Z 0309/0318 07004KT 5000 HZ FEW018 SCT100 ", "TAF VEMN 031100Z 0312/0321 14008KT 3000 BR FEW010 SCT018 BKN100 TEMPO 0318/0320 14015KT 1500 -TSRA RA SCT008 SCT016 FEW025CB OVC090", "TAF VEMR 030800Z 0309/0318 02005KT 5000 HZ FEW018 FEW025CB SCT100", "TAF VEPT 031100Z 0312/0321 28010KT 5000 HZ FEW018 SCT025 BECMG 0316/0318 32002KT 3500 HZ NSC", "TAF VEPY 030800Z 0309/0318 19005KT 5000 HZ SCT015 SCT100 TEMPO 0310/0314 2000 TSRA FEW008 SCT015 FEW025CB OVC090 BECMG 0314/0316 00000KT 2500 -RA BR SCT015 BKN090", "TAF VERC 031100Z 0312/0321 27010KT 6000 SCT020 SCT025 BECMG 0316/0318 00000KT 4000 HZ SCT020", "TAF VERK 030800Z 0309/0318 27005KT 5000 HZ SCT020 TEMPO 0310/0314 2000 -TSRA BKN016 FEW030CB OVC080 BECMG 0315/0317 3000 HZ", "TAF VERP 031100Z 0312/0321 07005KT 5000 HZ FEW025 BECMG 0313/0315 VRB03KT 3000 HZ NSC", "TAF VERU 030800Z 0309/0318 11005KT 5000 HZ FEW018 SCT100", "TAF VETJ 030500Z 0306/0315 27005KT 3000 -RA BR FEW006 SCT018 FEW025CB OVC080", "TAF VETZ 030330Z 0306/0318 14010KT 5000 TSRABR BKN010 BKN015 FEW030CB OVC080 BECMG 0307/0309 15010KT 6000 SCT010 SCT015 BKN080 FEW030TCU", "TAF VEZO 030500Z 0306/0315 32005KT 3000 -RA BR FEW006 SCT018 FEW025CB OVC080", "TAF VGEG 031100Z 0312/0418 35012KT 4000HZ FEW018 TEMPO 0321/0404 27035G45KT 2000 RA/TSRA BKN008 FEW028CB OVC090 BECMG 0404/0406 16012KT 5000HZ SCT018 BECMG 0410/0412 30010KT 4000HZ SCT016 BECMG 0415/0417 20008KT 4500HZ SCT017", "TAF VGHS 031100Z 0312/0418 16009KT 3500 HZ FEW100 TEMPO 0313/0320 16008KT 2000 TSRA/RA SCT008 FEW025CB BKN090 BECMG 0400/0403 15004KT 1800 BR FEW015 SCT100 BECMG 0405/0407 20009KT 3200 HZ FEW100", "TAF VHHH 031100Z 0312/0418 10015KT 9000 FEW010 SCT020 TX26/0406Z TN22/0323Z TEMPO 0312/0318 10020G30KT TEMPO 0322/0404 4000 SHRA FEW008CB SCT020 BECMG 0400/0402 16010KT", "TAF VIAG 030500Z 0306/0412 22005KT 6000 SCT030 BECMG 0313/0315 22005KT 6000 SCT030 SCT100 TEMPO 0401/0404 27010KT 5000 RABR SCT020 FEW030TCUCB BKN100 TEMPO 0409/0411 24015KT 6000 SCT020 FEW030TCUCB SCT100", "TAF VIAR 031100Z 0312/0418 23004KT 3000 BR SCT030 BKN090 TEMPO 0322/0402 34010G20KT 1500 TSRA BKN030 FEW035CB OVC080 BECMG 0405/0407 34006KT 4000 HZ FEW035 SCT100 BECMG 0415/0417 VRB02KT 3000 BR FEW100", "TAF VIBR 030500Z 0306/0315 18004KT 6000 FEW030 SCT080 TEMPO 0308/0312 2000 -TSRA FEW035CB BKN080", "TAF VIBT 030930Z 0312/0324 25005KT 6000 SCT025 BKN090 TEMPO 0316/0318 31015G25KT 3000 TSRA SCT025 FEW030CB BKN090 BECMG 0320/0324 5000 BR SCT025 SCT090", "TAF VIBY 030930Z 0312/0324 28007KT 6000 FEW030 SCT250 BECMG 0321/0322 VRB02KT 4000 BR SCT100 BKN250", "TAF VICG 030500Z 0306/0412 32010KT 6000 SCT025 FEW030TCU BKN100 TEMPO 0311/0315 32015G25KT 4000 TSRABR SCT025 FEW030CB BKN100 BECMG 0316/0318 5000 -RABR SCT025 BKN090 BECMG 0404/0406 6000 SCT025 SCT100 TEMPO 0409/0412 SCT025 FEW030 TCU/CB SCT100", "TAF VIDN 031100Z 0312/0321 27008KT 5000 HZ SCT030 TEMPO 0314/0317 2000 -TSRA SCT025 FEW035CB BKN090 BECMG 0318/0320 05004KT 3000 HZ FEW030 SCT090", "TAF VIDP 031100Z 0312/0418 27010KT 3500 HZ -RA SCT030 FEW035CB BKN090 BECMG 0315/0317 05004KT 2500 HZ SCT035 SCT100 TEMPO 0322/0402 25010G25KT 1500 TSRA SCT030 FEW035CB OVC080 BECMG 0405/0407 29008KT 4000 HZ FEW035 SCT100 BECMG 0415/0417 34005KT 3000 HZ FEW100", "TAF VIGG 030500Z 0306/0315 07005KT 6000 SCT030 OVC80 TEMPO 0306/0312 14008G18KT 2000 -TSRA FEW035CB OVC080", "TAF VIGR 030330Z 0306/0318 28005KT 6000 FEW030 BECMG 0308/0310 26010KT 6000 SCT030", "TAF VIJO 030330Z 0306/0318 25010KT 6000 FEW030 SCT100 TEMPO 0312/0316 24010G25KT TS SCT030 FEW030CB SCT100", "TAF VIJP 031100Z 0312/0418 26006KT 5000 HZ SCT035 BECMG 0315/0317 VRB03KT 3000 HZ SCT035 SCT100 BECMG 0404/0406 25010KT 5000 HZ", "TAF VIJR 030930Z 0312/0324 23010KT 6000 SCT030 SCT100", "TAF VIJU 030330Z 0306/0318 22010KT 6000 SCT025 BKN090 TEMPO 0307/0311 4000 TSRA SCT020 FEW030TCU/CB BKN090", "TAF VILH 030330Z 0306/0318 VRB02KT 6000 SCT070 BKN150 BECMG 0307/0308 SCT070 SCT100 BKN120 TEMPO 0308/0312 29015G25KT 5000 BLDU SCT070 FEW050TCU SCT100 BKN120", "TAF VILK 031100Z 0312/0418 30005KT 5000 HZ FEW020 BECMG 0318/0320 VRB02KT 3000 BR BECMG 0406/0408 30006KT 5000 HZ BECMG 0416/0418 VRB02KT 3000 BR ", "TAF VIPT 031100Z 0312/0321 27008KT 6000 FEW030 BECMG 0314/0316 02003KT 4000 HZ SCT035 SCT100 TEMPO 0318/0321 23010G20KT 2000 TSRA SCT025 FEW035CB BKN090", "TAF VISM 030500Z 0306/0315 14004KT 6000 SCT030 BKN060 TEMPO 0308/0312 2000 -TSRA FEW035CB BKN060", "TAF VISP 030930Z 0312/0324 34005KT 6000 FEW030 SCT250 BECMG 0317/0319 04005KT 6000 FEW030 FEWTCUCB030 SCT090 BKN250 TEMPO 0320/0324 02015G25KT 3000 TSRABR SCT015 FEW030CB BKN090", "TAF VISR 030330Z 0306/0318 VRB02KT 6000 -RA SCT020 BKN080 BECMG 0308/0310 26003KT SCT020 FEW030CB BKN090 TEMPO 0310/0313 26005G15KT TSRA", "TAF VIUT 021530Z 0300/0312 VRB02KT 5000 HZ SCT015 BECMG 0302/0303 24010KT 6000 NSC TEMPO 0308/0310 24015G25KT 4000 BLDU SCT030 FEW030TCU SCT250", "TAF VLLB 031100Z 0312/0412 27004KT 3000 BR SCT010 SCT060", "TAF VLLN 031100Z 0312/0412 27004KT 3000 BR SCT010 BKN100", "TAF VLPS 031100Z 0312/0412 14004KT 3000 BR FEW020 BKN050", "TAF VLSK 031100Z 0312/0412 22004KT 3000 BR SCT020 SCT100", "TAF VLVT 031100Z 0312/0412 22004KT 4000 BR SCT020 FEW200", "TAF VMMC 031100Z 0312/0418 11015KT 8000 FEW006 SCT015 TEMPO 0318/0403 4000 -RA BR BECMG 0322/0324 17010KT", "TAF VNKT 031100Z 0312/0412 24008KT 8000 FEW015 SCT030 PROB30 0312/0314 VRB12KT 5000 -TSRA FEW025CB BKN100 BECMG 0314/0315 12004KT 7000 FEW015 BECMG 0400/0402 VRB02KT 4000 BR FEW010 SCT030 BECMG 0404/0405 11003KT 6000 FEW015 BECMG 0407/0409 25010KT 8000 FEW020 SCT030 PROB30 0408/0412 VRB12KT 5000 -TSRA FEW025CB BKN100", "TAF VOAT 030200Z 0303/0312 35010KT 6000 FEW015", "TAF VOBG 031100Z 0312/0321 VRB02KT 6000 SCT015 TEMPO 0312/0318 SCT012 SCT020 FEW025CB", "TAF VOBL 031100Z 0312/0418 VRB02KT 6000 SCT015 TEMPO 0312/0318 SCT012 SCT020 FEW025CB TEMPO 0400/0403 4000 BR SCT008 TEMPO 0409/0415 SCT015 SCT020 FEW025CB", "TAF VOBM 031100Z 0312/0321 27005KT 6000 FEW015", "TAF VOBZ 031100Z 0312/0321 15006KT 6000 SCT015 SCT025 TEMPO 0312/0316 FEW030CB BECMG 0316/0318 18005KT 5000 HZ SCT015", "TAF VOCB 031100Z 0312/0418 21010KT 5000 HZ SCT015 BKN080 BECMG 0400/0403 3000 BR BECMG 0406/0407 5000 HZ BECMG 0409/0410 6000", "TAF VOCI 031100Z 0312/0418 28005KT 4500 HZ SCT015 BECMG 0315/0316 34005KT 3500 HZ SCT015 TEMPO 0322/0402 10005KT 2500 BR FEW015 SCT080 BECMG 0403/0405 32005KT 5000 HZ FEW015 TEMPO 0409/0413 28010KT 2500 TS TSRA SCT015 FEW025CB SCT080 BECMG 0413/0414 32005KT 3500 HZ SCT015 SCT080", "TAF VOCL 031100Z 0312/0418 29010KT 6000 SCT015 BECMG 0314/0316 34005KT 4500 HZ SCT015 TEMPO 0322/0402 VRB02KT 3500 BR FEW015 BECMG 0403/0404 28005KT 6000 FEW015 TEMPO 0409/0413 28010KT 3500 TS TSRA SCT015 FEW025CB SCT080 BECMG 0413/0414 32005KT 4500 HZ SCT015 SCT080", "TAF VOCP 030800Z 0309/0318 29006KT 6000 FEW020 SCT025 TEMPO 0309/0315 FEW030TCU", "TAF VOGB 030800Z 0309/0318 32010KT 6000 FEW015", "TAF VOGO 031100Z 0312/0418 30012KT 6000 NSC TEMPO 0312/0314 32010G20KT BECMG 0320/0324 35008KT TEMPO 0401/0403 05007KT FEW090 BECMG 0406/0408 30012KT TEMPO 0409/0413 33010G20KT", "TAF VOHB 031100Z 0312/0418 27005KT 6000 FEW015 TEMPO 0400/0403 3000 BR", "TAF VOHS 031100Z 0312/0321 22008KT 6000 SCT015 SCT025 TEMPO 0312/0318 FEW030CB BECMG 0318/0320 16005KT 5000 BR HZ SCT015", "TAF VOHY 031100Z 0312/0321 22008KT 6000 SCT015 SCT025 TEMPO 0312/0318 FEW030CB BECMG 0318/0320 16005KT 5000 BR HZ SCT015", "TAF VOJV 030800Z 0309/0318 34005KT 6000 FEW015", "TAF VOKN 031100Z 0312/0418 29010KT 5000 HZ -RA SCT015 BECMG 0314/0316 31005KT 3500 HZ SCT015 TEMPO 0322/0402 VRB02KT 3000 BR FEW015 BECMG 0403/0405 24005KT 6000 FEW015 TEMPO 0409/0413 28010KT 3500 TS TSRA SCT015 FEW025CB SCT080 BECMG 0413/0414 32005KT 4500 HZ SCT015 SCT080", "TAF VOKU 030800Z 0309/0318 26008KT 5000 HZ FEW015 SCT025 TEMPO 0309/0315 FEW030CB", "TAF VOLT 031100Z 0312/0321 26010KT 4000 FU FEW020 BECMG 0315/0317 35006KT 3000 FU FEW100", "TAF VOMD 031100Z 0312/0418 18005KT 6000 SCT020 BKN100 PROB30 TEMPO 0312/0315 4000 -TSRA/RA SCT015 FEW025CB BKN080 BECMG 0318/0319 5000 HZ BECMG 0403/0404 6000", "TAF VOML 031100Z 0312/0418 29010KT 6000 SCT015 TEMPO 0312/0315 SCT012 FEW025CB BECMG 0318/0319 09005KT TEMPO 0400/0403 4000 BR BECMG 0406/0407 29010KT", "TAF VOMM 031100Z 0312/0418 18015KT 6000 SCT020 BKN100 BECMG 0321/0322 25003KT BECMG 0400/0401 3000 BR BECMG 0403/0404 5000 HZ BECMG 0406/0407 18010KT 6000", "TAF VOMY 030800Z 0309/0318 27005KT 6000 SCT015 TEMPO 0312/0318 SCT012 SCT020 FEW025CB", "TAF VOND 031100Z 0312/0321 28008KT 5000 FU FEW020 SCT025 BECMG 0315/0317 34006KT 4000 FU SCT020", "TAF VOPB 031100Z 0312/0321 VRB02KT 5000 BR/HZ SCT014 SCT220", "TAF VORY 031100Z 0312/0321 22010KT 6000 SCT015 SCT025 TEMPO 0312/0316 FEW030CB BECMG 0316/0318 18005KT 5000 HZ SCT015", "TAF VOSR 031100Z 0312/0321 29010KT 4000 HZ FU FEW020 BECMG 0315/0317 34005KT 3000 HZ", "TAF VOTP 031100Z 0312/0321 21010KT 6000 SCT015 SCT025 TEMPO 0312/0318 30015KT 3000 -TSRA SCT010 FEW030CB BKN080 BECMG 0316/0318 18005KT 5000 HZ SCT015", "TAF VOTR 031100Z 0312/0418 18005KT 6000 SCT016 BKN100 PROB30 TEMPO 0312/0315 4000 -TSRA/RA SCT015 FEW025CB BKN080 BECMG 0321/0322 25003KT 5000 HZ BECMG 0400/0401 3000 BR BECMG 0403/0404 18005KT 5000 HZ BECMG 0406/0407 6000", "TAF VOTV 031100Z 0312/0418 28005KT 5000 HZ -TSRA SCT015 FEW025CB SCT080 BECMG 0315/0316 30005KT 3500 HZ -RA SCT015 SCT080 TEMPO 0322/0402 VRB02KT 2500 BR FEW015 SCT080 BECMG 0403/0404 32005KT 4500 HZ FEW015 BECMG 0405/0406 28005KT 6000 FEW015 TEMPO 0409/0413 28010KT 2500 TS TSRA SCT015 FEW025CB SCT080 BECMG 0413/0414 30005KT 3500 HZ SCT015 SCT080", "TAF VOVZ 031100Z 0312/0418 22010KT 5000 BR HZ FEW018 SCT080 TEMPO 0312/0315 FEW022TCU/CB BECMG 0316/0318 VRB02KT 4000 BR TEMPO 0323/0402 3000 BR BECMG 0404/0406 23008KT 5000 HZ TEMPO 0408/0412 23007G17KT", "TAF VRMG 031100Z 0312/0418 36006KT 9999 FEW018", "TAF VRMH 031100Z 0312/0418 33007KT 9999 FEW018", "TAF VRMM 031100Z 0312/0418 36007KT 9999 FEW018", "TAF VTBD 031100Z 0312/0418 18008KT 9999 FEW020 BECMG 0402/0404 24008KT BECMG 0412/0414 18008KT", "TAF VTBO 031100Z 0312/0412 17008KT 8000 FEW020 BECMG 0400/0402 23008KT", "TAF VTBS 031100Z 0312/0418 18008KT 9999 FEW020 BECMG 0402/0404 24008KT BECMG 0412/0414 18008KT", "TAF VTBU 031100Z 0312/0412 17009KT 9000 FEW020", "TAF VTCC 031100Z 0312/0418 25005KT 8000 SCT035 BECMG 0315/0317 33005KT BECMG 0319/0321 24005KT BECMG 0322/0324 18005KT 4000 HZ BECMG 0402/0404 7000 NSW BECMG 0409/0411 27005KT", "TAF VTCH 031100Z 0312/0412 22005KT 8000 SCT025 BECMG 0322/0324 3000 HZ BECMG 0403/0405 7000 NSW", "TAF VTCL 031100Z 0312/0412 24005KT 9999 FEW025", "TAF VTCN 031100Z 0312/0412 20005KT 9999 FEW030", "TAF VTCP 031100Z 0312/0412 21005KT 9999 FEW035 BECMG 0322/0324 3000 HZ BECMG 0404/0406 9000 NSW", "TAF VTCT 031100Z 0312/0418 26005KT 7000 SCT030 BECMG 0322/0324 2000 HZ BECMG 0401/0403 20005KT BECMG 0406/0408 6000 NSW BECMG 0410/0412 26005KT BECMG 0416/0418 32005KT", "TAF VTPB 031100Z 0312/0412 24005KT 9999 FEW030 BECMG 0400/0402 17005KT BECMG 0407/0409 25005KT", "TAF VTPH 031100Z 0312/0412 15008KT 9000 FEW020 BECMG 0316/0318 00000KT BECMG 0403/0405 14010KT", "TAF VTPM 031100Z 0312/0412 26008KT 9999 FEW035 BECMG 0316/0318 16005KT BECMG 0403/0405 25008KT", "TAF VTPO 031100Z 0312/0412 22005KT 9999 FEW030", "TAF VTPP 031100Z 0312/0412 15005KT 9999 FEW030", "TAF VTPT 031100Z 0312/0412 27010KT 9999 FEW028", "TAF VTSB 031100Z 0312/0412 23003KT 9999 FEW020 BECMG 0321/0323 3000 BR BECMG 0401/0403 9999 NSW BECMG 0404/0406 05008KT", "TAF VTSC 031100Z 0312/0412 01006KT 9999 FEW020 BECMG 0316/0318 20003KT BECMG 0404/0406 03010KT PROB40 TEMPO 0406/0412 VRB15G25KT 4000 TSRA FEW016CB SCT018 BKN100", "TAF VTSE 031100Z 0312/0412 14005KT 9000 FEW020 BECMG 0313/0315 00000KT BECMG 0404/0406 14008KT", "TAF VTSF 031100Z 0312/0412 19005KT 9999 FEW020 BECMG 0313/0315 00000KT BECMG 0404/0406 07008KT", "TAF VTSG 031100Z 0312/0412 20006KT 9999 SCT030 BECMG 0314/0316 00000KT BECMG 0402/0404 20008KT", "TAF VTSM 031100Z 0312/0412 17005KT 9999 FEW020", "TAF VTSP 031100Z 0312/0418 30008KT 9999 SCT020", "TAF VTSR 031100Z 0312/0412 30006KT 9999 SCT025", "TAF VTSS 031100Z 0312/0412 24005KT 9999 SCT020 BECMG 0321/0323 3000 BR BECMG 0401/0403 9999 NSW TEMPO 0406/0412 VRB15G25KT 4000 TSRA FEW016CB SCT018 BKN100", "TAF VTST 031100Z 0312/0412 13006KT 9999 SCT030 BECMG 0314/0316 00000KT BECMG 0402/0404 17007KT", "TAF VTSY 031100Z 0312/0412 00000KT 9999 SCT020 BECMG 0321/0323 0800 FG BKN005 BECMG 0401/0403 21006KT 9999 NSW SCT020 TEMPO 0405/0412 VRB15G25KT 3000 TSRA FEW016CB SCT018 BKN100", "TAF VTUD 031100Z 0312/0412 18005KT 8000 FEW030 TEMPO 0408/0412 VRB15KT 4000 TSRA FEW018CB BKN030", "TAF VTUI 031100Z 0312/0412 17005KT 7000 FEW030 TEMPO 0408/0412 VRB15KT 4000 TSRA FEW018CB BKN030", "TAF VTUK 031100Z 0312/0412 19006KT 8000 FEW030 TEMPO 0408/0412 VRB15KT 4000 TSRA FEW018CB BKN030", "TAF VTUL 031100Z 0312/0412 16005KT 7000 FEW030 TEMPO 0408/0412 VRB15KT 4000 TSRA FEW018CB BKN030", "TAF VTUO 031100Z 0312/0412 20005KT 9000 NSC", "TAF VTUQ 031100Z 0312/0412 23005KT 8000 FEW030", "TAF VTUU 031100Z 0312/0412 19005KT 9000 NSC", "TAF VTUV 031100Z 0312/0412 21005KT 8000 FEW030", "TAF VTUW 031100Z 0312/0412 16005KT 7000 FEW030 TEMPO 0408/0412 VRB15KT 4000 TSRA FEW018CB BKN030", "TAF VVCI 031100Z 0312/0412 12007KT 9999 SCT020 BKN030 BECMG 0315/0316 4000 BR TEMPO 0321/0401 2000 -DZ BR BKN004 OVC023 BECMG 0402/0403 6000 NSW", "TAF VVCR 031100Z 0312/0412 20006KT 9999 FEW015 BECMG 0402/0403 13012KT", "TAF VVCT 031100Z 0312/0412 VRB03KT 9999 SCT017 BECMG 0401/0402 14010KT TEMPO 0406/0411 TS SCT015 FEW017CB", "TAF VVDN 031100Z 0312/0412 20007KT 9999 FEW015 BECMG 0320/0322 4500 BR BECMG 0400/0401 8000 NSW BECMG 0403/0404 12010KT TEMPO 0408/0412 TS SCT013 FEW015CB SCT060", "TAF VVNB 031100Z 0312/0412 14008KT 9999 SCT020 BKN035 BECMG 0315/0316 4000 BR TEMPO 0321/0401 2000 -DZ BR BKN004 OVC020 BECMG 0402/0403 6000 NSW", "TAF VVPB 031100Z 0312/0412 22006KT 9999 SCT015 SCT050 BECMG 0318/0320 4000 BR BECMG 0400/0401 8000 NSW BECMG 0404/0405 07010KT TEMPO 0407/0412 TS SCT015 FEW017CB BKN050", "TAF VVPQ 031100Z 0312/0412 VRB03KT 9999 SCT017 BECMG 0317/0318 10010KT TEMPO 0404/0409 TS SCT015 FEW017CB", "TAF VVTS 031100Z 0312/0418 16006KT 9999 SCT017 TEMPO 0408/0412 10015G28KT 2000 +TSRA SCT015 SCT017CB", "TAF VVVD 031100Z 0312/0412 18006KT 9999 SCT013 BKN030 BECMG 0315/0316 4000 BR TEMPO 0320/0402 2000 -DZ BR BKN004 OVC020 BECMG 0403/0404 6000 NSW", "TAF VYMD 031100Z 0312/0412 19007KT 7000 BKN020 FEW025CB TEMPO 0312/0318 25007G15KT 5000 -TSRA BKN018 FEW020CB", "TAF VYNT 031100Z 0312/0412 14007KT 7000 SCT020 SCT120 TEMPO 0312/0318 07008KT 5000 -TSRA BKN018 FEW023CB BKN110", "TAF VYYY 031100Z 0312/0412 26010KT 7000 FEW020 SCT110 TEMPO 0312/0318 27008KT 5000 HZ FEW020 SCT110", "TAF WAAA 031100Z 0312/0418 10004KT 8000 FEW019 BECMG 0401/0403 31010KT", "TAF WABB 031100Z 0312/0418 33004KT 9999 SCT018 TEMPO 0316/0320 5000 RA FEW017CB BECMG 0322/0400 27006KT", "TAF WADD 031100Z 0312/0412 27010KT 9999 SCT016 TEMPO 0314/0318 VRB05KT 5000 RA FEW014CB BKN014", "TAF WADL 031100Z 0312/0412 21007KT 7000 SCT016 TEMPO 0321/0323 4000 RA FEW015CB", "TAF WALL 031100Z 0312/0418 01003KT 9999 FEW020 TEMPO 0315/0319 5000 TSRA FEW013CB BKN015", "TAF WALS 031100Z 0312/0324 20004KT 9999 FEW020 TEMPO 0315/0319 5000 TSRA FEW013CB BKN015", "TAF WAMM 031100Z 0312/0418 VRB02KT 9999 SCT019 BECMG 0401/0402 26008KT", "TAF WAOO 031100Z 0312/0412 33005KT 9999 SCT018 TEMPO 0315/0319 4000 RA", "TAF WAPP 031100Z 0312/0412 34007KT 9999 SCT017 TEMPO 0312/0315 5000 RA FEW016CB", "TAF WAQA 031100Z 0312/0324 13005KT 8000 FEW012CB BECMG 0313/0315 FEW020", "TAF WAQD 031100Z 0312/0324 00000KT 8000 FEW014CB SCT015 TEMPO 0313/0317 6000 RA", "TAF WAQJ 031100Z 0312/0324 00000KT 6000 BKN014 TEMPO 0313/0317 5000 TSRA FEW012CB BKN013", "TAF WAQQ 031100Z 0312/0324 08003KT 9999 FEW015 TEMPO 0313/0317 5000 TSRA FEW012CB BKN013", "TAF WAQT 031100Z 0312/0324 10007KT 9999 -RA SCT020 BECMG 0313/0315 9000 NSW", "TAF WARR 031100Z 0312/0412 25006KT 7000 SCT020 TEMPO 0312/0315 4000 TSRA SCT018CB", "TAF WATT 031100Z 0312/0412 13002KT 8000 SCT017", "TAF WBGB 031100Z 0312/0412 VRB03KT 9999 FEW016", "TAF WBGG 031100Z 0312/0412 VRB03KT 9999 SCT016 TEMPO 0312/0315 3000 +TSRA FEW015CB SCT020", "TAF WBGR 031100Z 0312/0412 24005KT 9999 FEW016 TEMPO 0312/0316 3000 +TSRA FEW014 FEW015CB SCT030", "TAF WBGS 031100Z 0312/0412 VRB03KT 9999 SCT016 TEMPO 0312/0316 25007G19KT 3000 +TSRA FEW015CB SCT020", "TAF WBKK 031100Z 0312/0412 11005KT 9999 FEW014 BECMG 0404/0406 31005KT", "TAF WBKL 031100Z 0312/0412 VRB03KT 9999 FEW014 PROB30 TEMPO 0314/0318 5000 TSRA FEW010 FEW017CB SCT030", "TAF WBKS 031100Z 0312/0412 22005KT 9999 FEW016", "TAF WBKW 031100Z 0312/0412 VRB03KT 9999 FEW016", "TAF WBSB 031050Z 0312/0418 22005KT 9999 FEW014 FEW015CB TEMPO 0315/0321 6000 -TSRA SCT014 FEW015CB BECMG 0318/0320 14004KT FEW004 FEW015CB", "TAF WIDD 031100Z 0312/0412 27005KT 9999 SCT014", "TAF WIEE 031100Z 0312/0412 02005KT 9999 SCT020", "TAF WIHH 031100Z 0312/0412 24006KT 6000 FEW020 BECMG 0320/0322 00000KT 5000 HZ", "TAF WIII 031100Z 0312/0418 24008KT 7000 FEW021 BECMG 0318/0320 5000 HZ BECMG 0322/0324 8000 NSW", "TAF WIMM 031100Z 0312/0412 VRB05KT 5000 HZ SCT018 BECMG 0401/0403 35008KT 9999 NSW", "TAF WIPB 022300Z 0300/0312 33007KT 9999 SCT010 TEMPO 0306/0309 3000 TSRA FEW010CB BKN010", "TAF WIPP 031100Z 0312/0412 34006KT 9999 SCT010 TEMPO 0321/0324 1500 BR", "TAF WIPY 030500Z 0306/0318 27007KT 9999 SCT011 TEMPO 0307/0311 5000 -TSRA FEW010CB BKN011", "TAF WITT 031100Z 0312/0412 36005KT 9999 SCT018 BECMG 0315/0318 15005KT", "TAF WMAP 031100Z 0312/0412 VRB02KT 9999 FEW024 PROB30 TEMPO 0407/0411 5000 TSRA FEW017CB", "TAF WMBT 031100Z 0312/0412 VRB03KT 9999 FEW025", "TAF WMKA 031100Z 0312/0412 VRB02KT 9000 FEW030 TEMPO 0406/0411 6000 TSRA FEW010 FEW017CB", "TAF WMKB 031100Z 0312/0412 VRB02KT 8000 FEW024 BECMG 0402/0404 32006KT 9999 FEW020 PROB40 TEMPO 0405/0409 6000 TSRA FEW017CB", "TAF WMKC 031100Z 0312/0412 VRB03KT 9999 FEW020 TEMPO 0312/0316 7000 -TSRA FEW017CB", "TAF WMKE 031100Z 0312/0412 VRB03KT 9999 FEW020", "TAF WMKI 031100Z 0312/0412 VRB02KT 8000 FEW026 BECMG 0400/0402 05005KT 9999 FEW020 PROB30 TEMPO 0408/0412 6000 TSRA FEW017CB", "TAF WMKJ 031100Z 0312/0412 VRB02KT 9999 FEW022 PROB30 TEMPO 0408/0412 5000 TSRA FEW017CB", "TAF WMKK 031100Z 0312/0418 VRB02KT 9999 FEW028", "TAF WMKL 031100Z 0312/0412 VRB02KT 9999 FEW026 TEMPO 0322/0403 6000 TSRA FEW010 FEW017CB PROB40 TEMPO 0406/0408 6000 SHRA FEW010 SCT020", "TAF WMKM 031100Z 0312/0412 VRB02KT 9999 FEW027", "TAF WMKN 031100Z 0312/0412 VRB03KT 9999 FEW017CB TEMPO 0312/0316 5000 TSRA FEW010 FEW017CB", "TAF WMKP 031100Z 0312/0412 00000KT 8000 FEW025 TEMPO 0321/0402 VRB02KT 5000 TSRA FEW010 FEW017CB BECMG 0403/0405 21008KT 9999 FEW020", "TAF WMPA 030500Z 0306/0406 VRB02KT 9999 FEW021", "TAF WMSA 031100Z 0312/0412 29005KT 9999 FEW026", "TAF WPDL 031048Z 0312/0400 16005KT 9999 SCT025", "TAF WSAP 031100Z 0312/0418 31006KT 9999 FEW015 SCT020 TEMPO 0407/0410 3000 TSRA FEW012CB BKN015", "TAF WSSL 031100Z 0312/0418 31006KT 9999 FEW015 SCT020 TEMPO 0407/0410 3000 TSRA FEW012CB BKN015", "TAF WSSS 031100Z 0312/0418 31006KT 9999 FEW015 SCT020 TEMPO 0407/0410 3000 TSRA FEW012CB BKN015", "TAF AMD YAMB 031101Z 0312/0412 16006KT 9999 FEW030 FM031800 20004KT 9999 SCT020 FM032100 17008KT 9999 SCT030 FM040700 06008KT 9999 SCT045 FM041100 25006KT CAVOK PROB30 TEMPO 0403/0409 VRB20G40KT 2000 TSRA BKN010 SCT045CB", "TAF YBAS 031101Z 0312/0412 07008KT CAVOK FM040300 02010KT CAVOK FM040900 09007KT CAVOK", "TAF YBBN 031101Z 0312/0418 20008KT 9999 -SHRA SCT025 FM040300 03010KT 9999 -SHRA FEW040 FM041200 27008KT CAVOK PROB30 TEMPO 0404/0409 VRB20G40KT 2000 TSRA BKN010 SCT030CB", "TAF AMD YBCG 031126Z 0312/0412 20008KT 9999 -SHRA SCT025 FM031800 22010KT 9999 NSW FEW030 FM040200 16014KT 9999 -SHRA SCT040 FM041000 20008KT 9999 -SHRA SCT025 INTER 0312/0314 3000 SHRA BKN010 INTER 0406/0412 3000 SHRA BKN010 PROB30 TEMPO 0403/0409 VRB20G35KT 1000 TSRA BKN010 SCT030CB", "TAF YBCS 031104Z 0312/0412 17005KT 9999 SCT025 FM040000 05010KT 9999 FEW030 FM040900 18005KT 9999 SCT025", "TAF AMD YBHM 031128Z 0311/0400 14014KT 9999 -SHRA BKN020 TEMPO 0312/0323 VRB15G25KT 2000 SHRA BKN012 SCT020TCU", "TAF AMD YBLN 031117Z 0312/0412 17010KT 9999 FEW030 FM040300 19012KT CAVOK FM040700 20014KT CAVOK PROB30 0320/0323 0300 FG", "TAF YBMA 031122Z 0312/0400 18006KT CAVOK FM032300 14011KT CAVOK", "TAF YBRK 031130Z 0312/0412 14008KT 9999 FEW025 FM040000 17006KT 9999 FEW040", "TAF YBRM 031104Z 0312/0412 33004KT 9999 FEW020 FM040300 31010KT 9999 SCT025 FM040900 27005KT 9999 FEW020 PROB30 TEMPO 0406/0410 VRB30G40KT 1000 TSRA BKN010 SCT030CB", "TAF AMD YBSU 031128Z 0312/0412 20008KT 9999 -SHRA SCT025 FM040200 13012KT 9999 -SHRA SCT030 FM040900 20008KT 9999 -SHRA SCT025 INTER 0312/0316 3000 SHRA BKN015 INTER 0407/0412 3000 SHRA BKN015 PROB30 TEMPO 0403/0409 VRB20G35KT 1000 TSRA BKN010 SCT030CB", "TAF YBTL 031120Z 0312/0412 09008KT 9999 -SHRA FEW017 SCT020 FM031400 15006KT 9999 -SHRA SCT012 BKN020 FM032300 12008KT 9999 NSW SCT015 BKN022 FM040200 07014KT 9999 SCT025 FM040800 09007KT 9999 BKN020 INTER 0312/0318 3000 SHRA BKN014 SCT022TCU TEMPO 0318/0322 9999 BKN012", "TAF AMD YBWW 031124Z 0312/0412 11010KT 9999 FEW015 FM031400 10010KT 9999 SCT012 FM032100 18006KT 9999 FEW030 PROB30 TEMPO 0403/0409 VRB20G35KT 1000 TSRA BKN010 SCT030CB", "TAF YCFS 031116Z 0312/0412 23008KT 9999 -SHRA SCT015 BKN030 FM040000 20013KT 9999 NSW SCT030 FM040900 23012KT 9999 SCT020 INTER 0312/0321 3000 SHRA BKN010 SCT020TCU", "TAF YCIN 030708Z 0308/0320 33008KT 9999 SCT025", "TAF AMD YFRT 031011Z 0310/0320 13016KT CAVOK FM031700 07012KT 9999 -SHRA NSC", "TAF YGEL 031129Z 0312/0406 18014KT 9999 FEW020 FM032000 17012KT 9999 SCT020 FM040300 21014KT CAVOK", "TAF AMD YGLA 031122Z 0312/0400 15008KT 9999 SCT020 FM031400 19006KT 9999 SCT015", "TAF AMD YHID 031113Z 0312/0412 14008KT 9999 -SHRA SCT015 FM040000 10012KT 9999 NSW SCT020 FM040800 14008KT 9999 -SHRA SCT015 INTER 0312/0404 2000 SHRA BKN012 SCT020TCU PROB30 TEMPO 0315/0402 VRB15G25KT 1000 TSRA BKN010 SCT020CB", "TAF YLHI 031118Z 0312/0412 08022G32KT 9999 -SHRA SCT015 BKN022 FM040000 08022G32KT 9999 -SHRA SCT025 BKN040 TEMPO 0312/0319 3000 SHRA BKN008 FEW025TCU INTER 0319/0412 5000 SHRA BKN020", "TAF YMAV 031107Z 0312/0412 29004KT CAVOK FM040000 11006KT CAVOK FM040300 17012KT CAVOK FM040800 18006KT 9999 FEW010 PROB30 0315/0323 0300 FG", "TAF YMHB 031110Z 0312/0412 20006KT 9999 FEW040 FM031500 33010KT 9999 FEW030 FM040200 28008KT 9999 SCT030 FM040500 16010KT CAVOK FM041000 34007KT CAVOK", "TAF YMLT 031111Z 0312/0412 33006KT 9999 FEW025 FM031900 VRB03KT 9999 FEW030 FM040200 34010KT 9999 FEW045 PROB30 0318/0322 0200 FG", "TAF YMML 031110Z 0312/0418 27005KT CAVOK FM031500 35005KT CAVOK BECMG 0403/0405 18010KT CAVOK FM041000 22007KT 9999 BKN010", "TAF YPAD 031106Z 0312/0418 06008KT CAVOK FM040200 25010KT CAVOK FM040800 14008KT CAVOK", "TAF YPCC 031101Z 0312/0412 18010KT 9999 SCT022 INTER 0318/0404 3000 SHRA BKN012", "TAF AMD YPDN 031121Z 0312/0418 16005KT 9999 SCT020 FM040400 31010KT 9999 SCT035 FM041200 28005KT 9999 FEW025 PROB30 TEMPO 0317/0322 VRB20G35KT 1000 TSRA BKN010 SCT025CB PROB30 TEMPO 0404/0410 VRB20G35KT 1000 TSRA BKN010 SCT030CB", "TAF YPEA 031118Z 0312/0406 19010KT CAVOK FM032100 17010KT 9999 FEW025 FM040500 22012KT CAVOK", "TAF AMD YPGV 031145Z 0311/0320 14005KT 9999 SCT025 PROB30 TEMPO 0311/0316 VRB20G35KT 1000 TSRA BKN010 SCT025CB", "TAF YPJT 031119Z 0312/0406 19010KT CAVOK FM032100 17010KT 9999 FEW020 FM040400 23014KT CAVOK", "TAF AMD YPKG 031128Z 0312/0412 16010KT 9999 -SHRA NSC FM032100 18007KT 9999 NSW BKN015 BECMG 0400/0401 19010KT 9999 SCT030", "TAF AMD YPKU 030728Z 0307/0320 36008KT CAVOK PROB30 TEMPO 0307/0312 VRB20G35KT 1000 TSRA BKN010 SCT060CB", "TAF YPLM 031113Z 0312/0412 22007KT 9999 FEW030 FM032300 17009KT 9999 SCT030 FM040300 09010KT 9999 SCT035 FM040700 22010KT 9999 SCT035", "TAF YPPD 031107Z 0312/0412 26008KT CAVOK FM040300 33014KT CAVOK", "TAF YPPH 031118Z 0312/0418 19012KT CAVOK FM032100 17010KT 9999 FEW025 FM040500 23014KT CAVOK FM041200 19012KT CAVOK", "TAF YPTN 031101Z 0312/0412 VRB03KT CAVOK FM031900 02004KT 9999 SCT010 FM040100 09010KT CAVOK FM041000 10004KT CAVOK", "TAF YPWR 031106Z 0312/0406 05008KT CAVOK", "TAF YPXM 031101Z 0312/0412 24005KT 9999 SCT015 INTER 0312/0403 3000 SHRA BKN010", "TAF AMD YSCB 031107Z 0311/0412 12004KT 9999 BKN018 BECMG 0322/0323 VRB03KT 9999 BKN025 FM040200 06008KT 9999 SCT040 FM040900 11005KT CAVOK", "TAF YSDU 031116Z 0312/0406 09010KT CAVOK FM040100 12008KT CAVOK", "TAF AMD YSNF 031114Z 0312/0412 12014KT 9999 -SHRA SCT018 FM032100 11015G25KT 9999 NSW SCT020 BKN030 FM040800 09013KT 9999 BKN030 INTER 0312/0318 5000 SHRA BKN018", "TAF AMD YSRI 031102Z 0312/0412 VRB03KT 9999 SCT030 FM032300 19005KT 9999 SCT020 BKN030 INTER 0401/0409 5000 SHRA BKN020 PROB30 0315/0323 0500 FG", "TAF YSSY 031104Z 0312/0418 05008KT 9999 FEW020 SCT035 FM031700 29006KT 9999 SCT030 FM040000 09008KT 9999 -SHRA SCT030 FM040300 12012KT 9999 -SHRA BKN030 FM041400 19010KT 9999 NSW FEW020 BKN030 INTER 0400/0412 5000 SHRA BKN010", "TAF YSTW 031117Z 0312/0406 12008KT CAVOK FM032300 16008KT CAVOK FM040400 17010KT 9999 FEW045 INTER 0404/0406 4000 SHRA SCT015 SCT045TCU", "TAF YWLM 031007Z 0311/0406 05005KT 9999 FEW015 BKN024 FM031400 30005KT 9999 -SHRA SCT012 BKN020 FM032300 11012KT 9999 -SHRA SCT015 BKN035 INTER 0313/0406 5000 SHRA BKN012", "TAF ZBAA 030904Z 0312/0412 10004MPS 5000 BR NSC TX12/0403Z TN10/0321Z BECMG 0323/0324 04005MPS 2800 -RA BR", "TAF ZBAD 030905Z 0312/0412 06004MPS 3500 BR NSC TX11/0407Z TN08/0321Z BECMG 0321/0322 03009G14MPS 2800 -RA BR BKN010 OVC040", "TAF ZBHH 030902Z 0312/0412 06004MPS 6000 -SN SCT040 TX06/0407Z TNM01/0322Z", "TAF ZBSJ 030909Z 0312/0412 06004MPS 4000 BR OVC040 TX12/0407Z TN07/0322Z BECMG 0315/0316 2500 -RA BR", "TAF ZBTJ 030911Z 0312/0412 08007MPS 6000 OVC040 TX12/0312Z TN06/0412Z BECMG 0322/0323 04009G17MPS 3000 -RA BR BECMG 0404/0405 BKN010 OVC026", "TAF ZBYN 030902Z 0312/0412 06004MPS 3000 -RA BR NSC TX09/0407Z TN04/0322Z BECMG 0401/0402 BR", "TAF ZGGG 030910Z 0312/0412 15004MPS 8000 OVC023 TX28/0407Z TN22/0322Z TEMPO 0322/0402 3500 TSRA SCT011 SCT026CB BKN030 TEMPO 0408/0412 2500 TSRA SCT011 SCT026CB BKN030", "TAF ZGHA 030904Z 0312/0412 17005MPS 4000 BR SCT040 TX22/0312Z TN12/0322Z BECMG 0313/0314 34004MPS TSRA FEW033CB BKN040 BECMG 0320/0321 -SHRA", "TAF ZGKL 030918Z 0312/0412 18004MPS 5000 BR SCT030 OVC050 TX24/0312Z TN15/0412Z TEMPO 0318/0324 2500 TSRA BR FEW010 SCT023 FEW036CB BKN040 BECMG 0401/0402 2500 -SHRA BR FEW006 SCT023 FEW036CB BKN040 TEMPO 0402/0408 VRB08MPS 1200 +TSRA BECMG 0405/0406 05005MPS", "TAF ZGNN 030906Z 0312/0412 18004MPS 5000 BR FEW013 BKN033 TX31/0407Z TN24/0322Z", "TAF ZGOW 030906Z 0312/0412 18003MPS 5000 BR BKN040 TX25/0406Z TN18/0322Z", "TAF ZGSZ 030903Z 0312/0412 12004MPS 6000 BKN040 TX26/0406Z TN23/0322Z BECMG 0405/0406 18004MPS", "TAF ZHCC 030918Z 0312/0412 02008G16MPS 3000 -RA BR OVC030 TX12/0406Z TN09/0322Z BECMG 0401/0402 5000 HZ", "TAF ZHHH 030913Z 0312/0412 35005G10MPS 3000 SHRA FEW010 SCT030CB BKN040 TX19/0407Z TN13/0322Z TEMPO 0312/0316 2800 +TSRA BECMG 0317/0318 -RA FEW015 BKN040", "TAF ZJHK 030903Z 0312/0412 16004MPS 9999 SCT020 TX34/0406Z TN24/0321Z TEMPO 0406/0412 TS SCT020 FEW026CB", "TAF ZJSY 030901Z 0312/0412 10004MPS 9999 SCT020 TX31/0406Z TN25/0321Z", "TAF ZKPY 030420Z 0306/0406 14004MPS CAVOK TX25/0306Z TN13/0321Z", "TAF ZKWS 030420Z 0306/0406 14004MPS CAVOK TX17/0306Z TN08/0321Z", "TAF ZLLL 030902Z 0312/0412 33003MPS 6000 SCT016 SCT040 TX07/0407Z TNM03/0323Z TEMPO 0321/0401 3500 BR BKN011 BECMG 0404/0405 04008MPS", "TAF ZLXY 030920Z 0312/0412 24003MPS 3000 -RA FEW009 SCT030 OVC060 TX12/0408Z TN08/0322Z BECMG 0402/0403 BR", "TAF COR ZMCK 031048Z 0312/0418 VRB02MPS 9999 SCT033 SCT100 TNM16/0323Z TX01/0407Z BECMG 0402/0404 27007MPS SCT100 BECMG 0410/0412 VRB02MPS", "TAF ZMUB 031048Z 0312/0418 VRB02MPS 9999 SCT033 SCT100 TNM18/0323Z TX01/0407Z BECMG 0402/0404 27005MPS SCT100 BECMG 0410/0412 VRB02MPS", "TAF ZPPP 030904Z 0312/0412 22004MPS 9999 FEW026 TX24/0408Z TN10/0323Z BECMG 0402/0403 23010G17MPS", "TAF ZSAM 030901Z 0312/0412 11003MPS 5000 SCT030 TX25/0406Z TN18/0321Z", "TAF ZSFZ 030904Z 0312/0412 02003MPS 5000 BR BKN020 TX22/0406Z TN15/0321Z BECMG 0402/0403 18005MPS", "TAF ZSHC 030902Z 0312/0412 15005MPS 3000 BR BKN020 TX22/0406Z TN16/0321Z TEMPO 0321/0403 SHRA BKN010 BKN020 FEW030CB", "TAF ZSJN 030913Z 0312/0412 06004MPS 3500 -RA BR NSC TX12/0312Z TN06/0412Z BECMG 0313/0314 04008G17MPS TEMPO 0320/0402 RA", "TAF ZSNB 030917Z 0312/0412 16006G11MPS 5000 BR SCT030 TX22/0406Z TN16/0321Z BECMG 0402/0403 -RA BR", "TAF ZSNJ 030909Z 0312/0412 14007MPS 3000 -SHRA BKN014 OVC033 TX18/0406Z TN14/0321Z TEMPO 0319/0401 2000 SHRA BKN007 OVC020 FEW030CB BECMG 0404/0406 27004MPS", "TAF ZSOF 030910Z 0312/0412 13004MPS 3000 -RA BR BKN005 OVC040 TX16/0407Z TN11/0322Z TEMPO 0312/0318 1400 TSRA FEW030CB BECMG 0319/0320 1400 BKN004 OVC040 BECMG 0321/0322 30005MPS BECMG 0401/0402 3000 BR BKN007", "TAF ZSPD 030908Z 0312/0412 14010G15MPS 6000 -SHRA BKN015 TX19/0406Z TN14/0321Z TEMPO 0321/0403 SHRA BKN011 SCT030CB", "TAF ZSQD 030909Z 0312/0412 09007G15MPS 6000 NSC TX13/0406Z TN10/0321Z BECMG 0317/0318 2800 -RA BECMG 0321/0322 15010G18MPS RA BKN008 OVC020 BECMG 0403/0404 -RA", "TAF ZSSS 030907Z 0312/0412 13008G13MPS 6000 -SHRA BKN015 TX20/0406Z TN15/0321Z TEMPO 0321/0403 SHRA BKN011 SCT030CB", "TAF ZUCK 030903Z 0312/0412 30004MPS 6000 SCT040 TX28/0408Z TN17/0322Z", "TAF ZUGY 030905Z 0312/0412 18006MPS 6000 BKN033 TX25/0407Z TN12/0322Z BECMG 0312/0313 02004MPS TEMPO 0313/0316 -TSRA FEW030CB OVC033", "TAF ZUUU 030903Z 0312/0412 02004MPS 6000 SCT050 TX23/0407Z TN17/0323Z", "TAF ZWSH 030905Z 0312/0412 04004MPS 3500 DU SCT040 TX18/0409Z TN10/0400Z BECMG 0404/0405 10006MPS", "TAF ZWWW 030903Z 0312/0412 36003MPS CAVOK TX05/0409Z TNM04/0323Z BECMG 0313/0314 18003MPS", "TAF ZYCC 030904Z 0312/0412 36004MPS 6000 SCT030 TX09/0406Z TN03/0321Z", "TAF ZYHB 030901Z 0312/0412 33004MPS 6000 FEW030 TX10/0406Z TN02/0321Z", "TAF ZYTL 030915Z 0312/0412 10004G09MPS 6000 SCT010 BKN033 TX13/0406Z TN08/0321Z TEMPO 0404/0410 03005G10MPS 1400 RA BR SCT005 BKN010 OVC033 BECMG 0405/0406 07008G14MPS 2800 -RA BR", "TAF ZYTX 030902Z 0312/0412 02005MPS 6000 NSC TX13/0406Z TN08/0321Z"]}