No errors
No warnings
481 ms
data source=metars
4843 results
raw_text,station_id,observation_time,latitude,longitude,temp_c,dewpoint_c,wind_dir_degrees,wind_speed_kt,wind_gust_kt,visibility_statute_mi,altim_in_hg,sea_level_pressure_mb,corrected,auto,auto_station,maintenance_indicator_on,no_signal,lightning_sensor_off,freezing_rain_sensor_off,present_weather_sensor_off,wx_string,sky_cover,cloud_base_ft_agl,sky_cover,cloud_base_ft_agl,sky_cover,cloud_base_ft_agl,sky_cover,cloud_base_ft_agl,flight_category,three_hr_pressure_tendency_mb,maxT_c,minT_c,maxT24hr_c,minT24hr_c,precip_in,pcp3hr_in,pcp6hr_in,pcp24hr_in,snow_in,vert_vis_ft,metar_type,elevation_m
OPLA 252125Z 00000KT 4000 FU NSC 25/14 Q1008 NOSIG RMK QFE982 A29.77,OPLA,2023-04-25T21:25:00Z,31.52,74.4,25.0,14.0,0,0,,2.49,29.763779,,,,,,TRUE,,,,FU,CLR,,,,,,,,IFR,,,,,,,,,,,,SPECI,217.0
KAVK 252125Z AUTO 11016KT 6SM BR BKN008 OVC012 09/09 A2996 RMK AO2 PWINO,KAVK,2023-04-25T21:25:00Z,36.77,-98.67,9.0,9.0,110,16,,6.0,29.958662,,,TRUE,TRUE,,,,,TRUE,BR,BKN,800,OVC,1200,,,,,IFR,,,,,,,,,,,,SPECI,450.0
CYLK 252124Z 11008KT 25SM -RA OVC023 05/01 A2982 RMK SC8 VIS 15 E SLP113,CYLK,2023-04-25T21:24:00Z,62.42,-110.67,5.0,1.0,110,8,,25.0,29.819881,1011.3,,,,,,,,,-RA,OVC,2300,,,,,,,MVFR,,,,,,,,,,,,SPECI,183.0
PHNY 252123Z AUTO 00000KT 1 3/4SM +RA BR BKN008 OVC011 21/21 A3010 RMK AO2 CIG 005V009 P0008,PHNY,2023-04-25T21:23:00Z,20.77,-156.95,21.0,21.0,0,0,,1.75,30.100393,,,TRUE,TRUE,,,,,,+RA BR,BKN,800,OVC,1100,,,,,IFR,,,,,,0.08,,,,,,SPECI,395.0
KPSX 252123Z AUTO 11012KT 10SM BKN022 BKN027 25/20 A2985 RMK AO2 T02500200,KPSX,2023-04-25T21:23:00Z,28.72,-96.25,25.0,20.0,110,12,,10.0,29.84941,,,TRUE,TRUE,,,,,,,BKN,2200,BKN,2700,,,,,MVFR,,,,,,,,,,,,SPECI,4.0
KMPV 252123Z AUTO VRB03KT 1 3/4SM RA BR FEW010 BKN021 OVC026 06/03 A3020 RMK AO2 P0005 T00560033,KMPV,2023-04-25T21:23:00Z,44.2,-72.57,5.6,3.3,0,3,,1.75,30.200787,,,TRUE,TRUE,,,,,,RA BR,FEW,1000,BKN,2100,OVC,2600,,,IFR,,,,,,0.05,,,,,,SPECI,336.0
YBHM 252122Z AUTO 15021KT 9999 -SHRA BKN010 BKN041 BKN052 21/20 Q1017,YBHM,2023-04-25T21:22:00Z,-20.35,148.95,21.0,20.0,150,21,,6.21,30.029528,,,TRUE,,,,,,,-SHRA,BKN,1000,BKN,4100,BKN,5200,,,MVFR,,,,,,,,,,,,SPECI,4.0
KPTK 252122Z 18005KT 10SM FEW007 BKN013 OVC021 05/02 A3015 RMK AO2 T00500017,KPTK,2023-04-25T21:22:00Z,42.67,-83.42,5.0,1.7,180,5,,10.0,30.15059,,,,TRUE,,,,,,,FEW,700,BKN,1300,OVC,2100,,,MVFR,,,,,,,,,,,,SPECI,295.0
KNSI 252122Z 34009KT 10SM SCT009 SCT012 15/11 A2992 RMK AO2 T01500111 $,KNSI,2023-04-25T21:22:00Z,33.23,-119.45,15.0,11.1,340,9,,10.0,29.920275,,,,TRUE,TRUE,,,,,,SCT,900,SCT,1200,,,,,VFR,,,,,,,,,,,,SPECI,161.0
KMCO 252122Z 06016KT 10SM -TSRA FEW022 SCT040CB SCT075 BKN150 BKN250 24/19 A2988 RMK AO2 LTG DSNT SW-NW RAB08 TSB20 OCNL LTGICCG SW-NW TS SW-NW MOV E P0000 T02440194,KMCO,2023-04-25T21:22:00Z,28.42,-81.33,24.4,19.4,60,16,,10.0,29.878937,,,,TRUE,,,,,,-TSRA,FEW,2200,SCT,4000,SCT,7500,BKN,15000,VFR,,,,,,0.005,,,,,,SPECI,27.0
KGNV 252122Z 06008KT 1 3/4SM +TSRA BKN048 BKN060 OVC075 22/18 A2996 RMK AO2 LTG DSNT SE AND S RAB2055 TSB00 P0005 T02220183,KGNV,2023-04-25T21:22:00Z,29.7,-82.28,22.2,18.3,60,8,,1.75,29.958662,,,,TRUE,,,,,,+TSRA,BKN,4800,BKN,6000,OVC,7500,,,IFR,,,,,,0.05,,,,,,SPECI,41.0
CYTZ 252122Z AUTO 20020KT 9SM -RA SCT055 BKN080 07/03 A3015 RMK SLP212,CYTZ,2023-04-25T21:22:00Z,43.63,-79.4,7.0,3.0,200,20,,9.0,30.15059,1021.2,,TRUE,,,,,,,-RA,SCT,5500,BKN,8000,,,,,VFR,,,,,,,,,,,,SPECI,76.0
UTO8 M M M 159/05/-08/2707+16/M/ PK WND 2721 2008Z SOG 16 1005 64MM,UTO8,2023-04-25T21:21:00Z,,,,,,,,0.62,,,,,,,,,,,,,,,,,,,,,,,,,,,,,,,,METAR,
PAZK 252121Z AUTO 01007KT 10SM FEW008 M03/M08 A2970 RMK AO2 FZRANO,PAZK,2023-04-25T21:21:00Z,61.93,-147.17,-3.0,-8.0,10,7,,10.0,29.698818,,,TRUE,TRUE,,,,TRUE,,,FEW,800,,,,,,,VFR,,,,,,,,,,,,METAR,1002.0
LEBL 252121Z 03005KT 310V070 9999 FEW012 16/14 Q1015 NOSIG,LEBL,2023-04-25T21:21:00Z,41.28,2.07,16.0,14.0,30,5,,6.21,29.970472,,,,,,TRUE,,,,,FEW,1200,,,,,,,VFR,,,,,,,,,,,,SPECI,2.0
KHQM 252121Z AUTO 26015KT 10SM SCT030 13/07 A3025 RMK AO2 T01330072,KHQM,2023-04-25T21:21:00Z,46.97,-123.93,13.3,7.2,260,15,,10.0,30.250984,,,TRUE,TRUE,,,,,,,SCT,3000,,,,,,,VFR,,,,,,,,,,,,SPECI,4.0
PKWA 252120Z AUTO 07020KT 10SM SCT023 SCT042 28/23 A2988 RMK AO2 T02750232 TSNO,PKWA,2023-04-25T21:20:00Z,8.72,167.72,27.5,23.2,70,20,,10.0,29.878937,,,TRUE,TRUE,,,TRUE,,,,SCT,2300,SCT,4200,,,,,VFR,,,,,,,,,,,,METAR,6.0
PHHI 252120Z AUTO 35011KT 10SM BKN014 BKN020 BKN028 OVC034 24/20 A3006 RMK AO2 CIG 014V026 BKN014 V SCT SLP171 $,PHHI,2023-04-25T21:20:00Z,21.48,-158.05,24.0,20.0,350,11,,10.0,30.059055,1017.1,,TRUE,TRUE,TRUE,,,,,,BKN,1400,BKN,2000,BKN,2800,OVC,3400,MVFR,,,,,,,,,,,,METAR,246.0
MHPR 252120Z 09014KT 5000 FU SCT048TCU FEW050CB 34/15 Q1011 A2987 NOSIG,MHPR,2023-04-25T21:20:00Z,14.38,-87.62,34.0,15.0,90,14,,3.11,29.852362,,,,,,TRUE,,,,FU,SCT,4800,FEW,5000,,,,,MVFR,,,,,,,,,,,,SPECI,628.0
LSZS 252120Z AUTO 00000KT 9999 FEW040 BKN045 BKN050 M00/M05 Q1013,LSZS,2023-04-25T21:20:00Z,46.53,9.88,0.0,-5.0,0,0,,6.21,29.911417,,,TRUE,,,,,,,,FEW,4000,BKN,4500,BKN,5000,,,VFR,,,,,,,,,,,,METAR,1708.0
LSZR 252120Z AUTO 13003KT 100V170 9999 FEW050 OVC070 06/06 Q1017,LSZR,2023-04-25T21:20:00Z,47.48,9.57,6.0,6.0,130,3,,6.21,30.029528,,,TRUE,,,,,,,,FEW,5000,OVC,7000,,,,,VFR,,,,,,,,,,,,METAR,396.0
LSZH 252120Z 15004KT 100V200 9999 -SHRA FEW012 SCT050 BKN075 07/05 Q1017 RESHRA NOSIG,LSZH,2023-04-25T21:20:00Z,47.48,8.53,7.0,5.0,150,4,,6.21,30.029528,,,,,,TRUE,,,,-SHRA,FEW,1200,SCT,5000,BKN,7500,,,VFR,,,,,,,,,,,,METAR,424.0
LSZG 252120Z AUTO VRB03KT 9999 SCT046 06/04 Q1016,LSZG,2023-04-25T21:20:00Z,47.17,7.42,6.0,4.0,0,3,,6.21,30.0,,,TRUE,,,,,,,,SCT,4600,,,,,,,VFR,,,,,,,,,,,,METAR,428.0
LSZC 252120Z AUTO VRB02KT 9999 OVC044 07/05 Q1017,LSZC,2023-04-25T21:20:00Z,46.97,8.38,7.0,5.0,0,2,,6.21,30.029528,,,TRUE,,,,,,,,OVC,4400,,,,,,,VFR,,,,,,,,,,,,METAR,445.0
LSZB 252120Z AUTO VRB02KT 9999 FEW046 04/04 Q1016,LSZB,2023-04-25T21:20:00Z,46.92,7.5,4.0,4.0,0,2,,6.21,30.0,,,TRUE,,,,,,,,FEW,4600,,,,,,,VFR,,,,,,,,,,,,METAR,510.0
LSZA 252120Z AUTO 36006KT 320V070 CAVOK 11/M02 Q1012,LSZA,2023-04-25T21:20:00Z,46.0,8.92,11.0,-2.0,360,6,,6.21,29.88189,,,TRUE,,,,,,,,CAVOK,,,,,,,,VFR,,,,,,,,,,,,METAR,276.0
LSMP 252120Z AUTO 00000KT 9999NDV NCD 06/04 Q1016 RMK,LSMP,2023-04-25T21:20:00Z,46.83,6.92,6.0,4.0,0,0,,,30.0,,,TRUE,,,,,,,,CLR,,,,,,,,,,,,,,,,,,,,METAR,490.0
LSMD 252120Z AUTO VRB02KT 7000NDV SHRASN FEW010 BKN012 OVC024 06/04 Q1017 RMK,LSMD,2023-04-25T21:20:00Z,47.4,8.65,6.0,4.0,0,2,,,30.029528,,,TRUE,,,,,,,SHRA SN,FEW,1000,BKN,1200,OVC,2400,,,,,,,,,,,,,,,METAR,436.0
LSGS 252120Z AUTO VRB01KT CAVOK 08/01 Q1016,LSGS,2023-04-25T21:20:00Z,46.22,7.32,8.0,1.0,0,1,,6.21,30.0,,,TRUE,,,,,,,,CAVOK,,,,,,,,VFR,,,,,,,,,,,,METAR,482.0
LSGG 252120Z VRB02KT CAVOK 07/02 Q1016 NOSIG,LSGG,2023-04-25T21:20:00Z,46.25,6.12,7.0,2.0,0,2,,6.21,30.0,,,,,,TRUE,,,,,CAVOK,,,,,,,,VFR,,,,,,,,,,,,METAR,411.0
LSGC 252120Z AUTO 27001KT 9999 FEW009 02/02 Q1016,LSGC,2023-04-25T21:20:00Z,47.08,6.8,2.0,2.0,270,1,,6.21,30.0,,,TRUE,,,,,,,,FEW,900,,,,,,,VFR,,,,,,,,,,,,METAR,1018.0
LOWW 252120Z 30009KT CAVOK 09/05 Q1012 NOSIG,LOWW,2023-04-25T21:20:00Z,48.12,16.57,9.0,5.0,300,9,,6.21,29.88189,,,,,,TRUE,,,,,CAVOK,,,,,,,,VFR,,,,,,,,,,,,METAR,179.0
LOWS 252120Z AUTO 18006KT 9999 -RA FEW022 BKN026 06/05 Q1016,LOWS,2023-04-25T21:20:00Z,47.78,13.02,6.0,5.0,180,6,,6.21,30.0,,,TRUE,,,,,,,-RA,FEW,2200,BKN,2600,,,,,MVFR,,,,,,,,,,,,METAR,427.0
LOWL 252120Z AUTO 28006KT 9999 FEW020 SCT044 06/04 Q1015,LOWL,2023-04-25T21:20:00Z,48.22,14.18,6.0,4.0,280,6,,6.21,29.970472,,,TRUE,,,,,,,,FEW,2000,SCT,4400,,,,,VFR,,,,,,,,,,,,METAR,290.0
LOWK 252120Z 29004KT 250V350 9999 FEW080 07/04 Q1012 NOSIG,LOWK,2023-04-25T21:20:00Z,46.65,14.32,7.0,4.0,290,4,,6.21,29.88189,,,,,,TRUE,,,,,FEW,8000,,,,,,,VFR,,,,,,,,,,,,METAR,450.0
LOWI 252120Z AUTO 10003KT 070V130 9999 -RA FEW022 BKN026 06/04 Q1016,LOWI,2023-04-25T21:20:00Z,47.27,11.33,6.0,4.0,100,3,,6.21,30.0,,,TRUE,,,,,,,-RA,FEW,2200,BKN,2600,,,,,MVFR,,,,,,,,,,,,METAR,570.0
LOWG 252120Z AUTO 04003KT 9999 FEW070 07/01 Q1011 NOSIG,LOWG,2023-04-25T21:20:00Z,47.0,15.43,7.0,1.0,40,3,,6.21,29.852362,,,TRUE,,,TRUE,,,,,FEW,7000,,,,,,,VFR,,,,,,,,,,,,METAR,337.0
LLBG 252120Z VRB02KT CAVOK 16/12 Q1014 NOSIG,LLBG,2023-04-25T21:20:00Z,32.0,34.88,16.0,12.0,0,2,,6.21,29.940945,,,,,,TRUE,,,,,CAVOK,,,,,,,,VFR,,,,,,,,,,,,METAR,35.0
LIRZ 252120Z AUTO 35003KT 310V030 9999 BKN100/// 10/08 Q1011,LIRZ,2023-04-25T21:20:00Z,43.1,12.5,10.0,8.0,350,3,,6.21,29.852362,,,TRUE,,,,,,,,BKN,10000,,,,,,,VFR,,,,,,,,,,,,METAR,206.0
LIRQ 252120Z 12003KT CAVOK 10/09 Q1011,LIRQ,2023-04-25T21:20:00Z,43.8,11.2,10.0,9.0,120,3,,6.21,29.852362,,,,,,,,,,,CAVOK,,,,,,,,VFR,,,,,,,,,,,,METAR,33.0
LIRN 252120Z 24004KT 200V270 9999 BKN075 15/13 Q1009 NOSIG,LIRN,2023-04-25T21:20:00Z,40.88,14.3,15.0,13.0,240,4,,6.21,29.793306,,,,,,TRUE,,,,,BKN,7500,,,,,,,VFR,,,,,,,,,,,,METAR,76.0
LIRF 252120Z 32005KT CAVOK 12/10 Q1009 NOSIG,LIRF,2023-04-25T21:20:00Z,41.78,12.23,12.0,10.0,320,5,,6.21,29.793306,,,,,,TRUE,,,,,CAVOK,,,,,,,,VFR,,,,,,,,,,,,METAR,2.0
LIRA 252120Z VRB01KT CAVOK 14/10 Q1009,LIRA,2023-04-25T21:20:00Z,41.8,12.58,14.0,10.0,0,1,,6.21,29.793306,,,,,,,,,,,CAVOK,,,,,,,,VFR,,,,,,,,,,,,METAR,101.0
LIPZ 252120Z 24007KT CAVOK 11/08 Q1011 NOSIG,LIPZ,2023-04-25T21:20:00Z,45.5,12.35,11.0,8.0,240,7,,6.21,29.852362,,,,,,TRUE,,,,,CAVOK,,,,,,,,VFR,,,,,,,,,,,,METAR,3.0
LIPY 252120Z AUTO 20004KT 9999 NCD 09/08 Q1011,LIPY,2023-04-25T21:20:00Z,43.62,13.37,9.0,8.0,200,4,,6.21,29.852362,,,TRUE,,,,,,,,CLR,,,,,,,,VFR,,,,,,,,,,,,METAR,11.0
LIPX 252120Z 34004KT 310V010 CAVOK 09/07 Q1012,LIPX,2023-04-25T21:20:00Z,45.38,10.87,9.0,7.0,340,4,,6.21,29.88189,,,,,,,,,,,CAVOK,,,,,,,,VFR,,,,,,,,,,,,METAR,67.0
LIPR 252120Z AUTO 20002KT 9999 SCT150/// 08/07 Q1011,LIPR,2023-04-25T21:20:00Z,44.02,12.62,8.0,7.0,200,2,,6.21,29.852362,,,TRUE,,,,,,,,SCT,15000,,,,,,,VFR,,,,,,,,,,,,METAR,10.0
LIPQ 252120Z AUTO VRB01KT 9999 NCD 09/09 Q1011,LIPQ,2023-04-25T21:20:00Z,45.82,13.47,9.0,9.0,0,1,,6.21,29.852362,,,TRUE,,,,,,,,CLR,,,,,,,,VFR,,,,,,,,,,,,METAR,6.0
LIPO 252120Z AUTO 01006KT 9999 NCD 10/08 Q1012,LIPO,2023-04-25T21:20:00Z,45.42,10.33,10.0,8.0,10,6,,6.21,29.88189,,,TRUE,,,,,,,,CLR,,,,,,,,VFR,,,,,,,,,,,,METAR,104.0
LIPH 252120Z AUTO 22005KT 9999 NCD 09/08 Q1011,LIPH,2023-04-25T21:20:00Z,45.63,12.18,9.0,8.0,220,5,,6.21,29.852362,,,TRUE,,,,,,,,CLR,,,,,,,,VFR,,,,,,,,,,,,METAR,10.0
LIPE 252120Z 23003KT CAVOK 10/07 Q1011,LIPE,2023-04-25T21:20:00Z,44.52,11.3,10.0,7.0,230,3,,6.21,29.852362,,,,,,,,,,,CAVOK,,,,,,,,VFR,,,,,,,,,,,,METAR,37.0
LIMZ 252120Z AUTO 26004KT 220V280 9999 NCD 10/03 Q1011,LIMZ,2023-04-25T21:20:00Z,44.53,7.62,10.0,3.0,260,4,,6.21,29.852362,,,TRUE,,,,,,,,CLR,,,,,,,,VFR,,,,,,,,,,,,METAR,377.0
LIML 252120Z 05006KT CAVOK 11/08 Q1012 NOSIG,LIML,2023-04-25T21:20:00Z,45.47,9.27,11.0,8.0,50,6,,6.21,29.88189,,,,,,TRUE,,,,,CAVOK,,,,,,,,VFR,,,,,,,,,,,,METAR,109.0
LIMJ 252120Z VRB01KT 9999 SCT025 15/13 Q1011,LIMJ,2023-04-25T21:20:00Z,44.42,8.83,15.0,13.0,0,1,,6.21,29.852362,,,,,,,,,,,SCT,2500,,,,,,,VFR,,,,,,,,,,,,METAR,3.0
LIMF 252120Z 36003KT 310V030 CAVOK 13/M05 Q1011,LIMF,2023-04-25T21:20:00Z,45.22,7.65,13.0,-5.0,360,3,,6.21,29.852362,,,,,,,,,,,CAVOK,,,,,,,,VFR,,,,,,,,,,,,METAR,295.0
LIME 252120Z AUTO 02004KT 9999 NCD 08/07 Q1012,LIME,2023-04-25T21:20:00Z,45.67,9.7,8.0,7.0,20,4,,6.21,29.88189,,,TRUE,,,,,,,,CLR,,,,,,,,VFR,,,,,,,,,,,,METAR,239.0
LIMC 252120Z 09006KT CAVOK 11/07 Q1012 NOSIG,LIMC,2023-04-25T21:20:00Z,45.62,8.72,11.0,7.0,90,6,,6.21,29.88189,,,,,,TRUE,,,,,CAVOK,,,,,,,,VFR,,,,,,,,,,,,METAR,221.0
LIEO 252120Z 27020KT CAVOK 18/10 Q1012,LIEO,2023-04-25T21:20:00Z,40.88,9.52,18.0,10.0,270,20,,6.21,29.88189,,,,,,,,,,,CAVOK,,,,,,,,VFR,,,,,,,,,,,,METAR,8.0
LIEE 252120Z 02007KT CAVOK 16/13 Q1014,LIEE,2023-04-25T21:20:00Z,39.25,9.07,16.0,13.0,20,7,,6.21,29.940945,,,,,,,,,,,CAVOK,,,,,,,,VFR,,,,,,,,,,,,METAR,1.0
LIEA 252120Z VRB03KT 9999 SCT013 16/15 Q1014,LIEA,2023-04-25T21:20:00Z,40.62,8.28,16.0,15.0,0,3,,6.21,29.940945,,,,,,,,,,,SCT,1300,,,,,,,VFR,,,,,,,,,,,,METAR,22.0
LICR 252120Z AUTO 03009KT 9999 SCT230/// 17/08 Q1012,LICR,2023-04-25T21:20:00Z,38.07,15.65,17.0,8.0,30,9,,6.21,29.88189,,,TRUE,,,,,,,,SCT,23000,,,,,,,VFR,,,,,,,,,,,,METAR,16.0
LICJ 252120Z 20012KT CAVOK 18/10 Q1012,LICJ,2023-04-25T21:20:00Z,38.17,13.08,18.0,10.0,200,12,,6.21,29.88189,,,,,,,,,,,CAVOK,,,,,,,,VFR,,,,,,,,,,,,METAR,20.0
LICD 252120Z AUTO 23003KT 9999 NCD 18/14 Q1014,LICD,2023-04-25T21:20:00Z,35.5,12.62,18.0,14.0,230,3,,6.21,29.940945,,,TRUE,,,,,,,,CLR,,,,,,,,VFR,,,,,,,,,,,,METAR,20.0
LICC 252120Z 26008KT CAVOK 15/13 Q1011,LICC,2023-04-25T21:20:00Z,37.47,15.05,15.0,13.0,260,8,,6.21,29.852362,,,,,,,,,,,CAVOK,,,,,,,,VFR,,,,,,,,,,,,METAR,6.0
LICB 252120Z AUTO 06002KT 9999 NCD 12/11 Q1013,LICB,2023-04-25T21:20:00Z,37.0,14.62,12.0,11.0,60,2,,6.21,29.911417,,,TRUE,,,,,,,,CLR,,,,,,,,VFR,,,,,,,,,,,,METAR,212.0
LICA 252120Z AUTO 24011KT 9999 BKN012/// BKN058/// 17/16 Q1010,LICA,2023-04-25T21:20:00Z,38.9,16.25,17.0,16.0,240,11,,6.21,29.822834,,,TRUE,,,,,,,,BKN,1200,BKN,5800,,,,,MVFR,,,,,,,,,,,,METAR,7.0
LIBR 252120Z 25013KT CAVOK 16/11 Q1007,LIBR,2023-04-25T21:20:00Z,40.65,17.95,16.0,11.0,250,13,,6.21,29.734253,,,,,,,,,,,CAVOK,,,,,,,,VFR,,,,,,,,,,,,METAR,5.0
LIBP 252120Z AUTO VRB02KT 9999 NCD 11/09 Q1011,LIBP,2023-04-25T21:20:00Z,42.42,14.18,11.0,9.0,0,2,,6.21,29.852362,,,TRUE,,,,,,,,CLR,,,,,,,,VFR,,,,,,,,,,,,METAR,10.0
LIBD 252120Z 28015KT CAVOK 16/11 Q1007,LIBD,2023-04-25T21:20:00Z,41.13,16.77,16.0,11.0,280,15,,6.21,29.734253,,,,,,,,,,,CAVOK,,,,,,,,VFR,,,,,,,,,,,,METAR,42.0
LGTS 252120Z 35005KT 320V020 9999 FEW035 16/12 Q1006 NOSIG,LGTS,2023-04-25T21:20:00Z,40.52,22.97,16.0,12.0,350,5,,6.21,29.704725,,,,,,TRUE,,,,,FEW,3500,,,,,,,VFR,,,,,,,,,,,,METAR,4.0
LGSO 252120Z AUTO 24017KT //// // ////// 17/13 Q1008 RE//,LGSO,2023-04-25T21:20:00Z,37.42,24.95,17.0,13.0,240,17,,,29.763779,,,TRUE,,,,,,,,,,,,,,,,,,,,,,,,,,,,METAR,71.0
LGSA 252120Z 26007KT 9999 FEW020 SCT080 16/13 Q1010,LGSA,2023-04-25T21:20:00Z,35.53,24.13,16.0,13.0,260,7,,6.21,29.822834,,,,,,,,,,,FEW,2000,SCT,8000,,,,,VFR,,,,,,,,,,,,METAR,122.0
LGRP 252120Z VRB02KT 9999 FEW018 17/09 Q1011 NOSIG,LGRP,2023-04-25T21:20:00Z,36.4,28.08,17.0,9.0,0,2,,6.21,29.852362,,,,,,TRUE,,,,,FEW,1800,,,,,,,VFR,,,,,,,,,,,,METAR,3.0
LGKZ 252120Z AUTO VRB02KT //// // ////// 10/01 Q1008 RE//,LGKZ,2023-04-25T21:20:00Z,40.28,21.83,10.0,1.0,0,2,,,29.763779,,,TRUE,,,,,,,,,,,,,,,,,,,,,,,,,,,,SPECI,615.0
LGKR 252120Z 00000KT 9999 FEW012 SCT017 15/14 Q1008 NOSIG,LGKR,2023-04-25T21:20:00Z,39.62,19.92,15.0,14.0,0,0,,6.21,29.763779,,,,,,TRUE,,,,,FEW,1200,SCT,1700,,,,,VFR,,,,,,,,,,,,METAR,2.0
LGKO 252120Z 18007KT 9999 FEW018 16/13 Q1011,LGKO,2023-04-25T21:20:00Z,36.8,27.08,16.0,13.0,180,7,,6.21,29.852362,,,,,,,,,,,FEW,1800,,,,,,,VFR,,,,,,,,,,,,METAR,130.0
LGKL 252120Z AUTO VRB01KT //// // ////// 12/10 Q1011 RE//,LGKL,2023-04-25T21:20:00Z,37.07,22.02,12.0,10.0,0,1,,,29.852362,,,TRUE,,,,,,,,,,,,,,,,,,,,,,,,,,,,SPECI,4.0
LGIR 252120Z 16007KT 9999 FEW020 15/10 Q1011 NOSIG,LGIR,2023-04-25T21:20:00Z,35.33,25.17,15.0,10.0,160,7,,6.21,29.852362,,,,,,TRUE,,,,,FEW,2000,,,,,,,VFR,,,,,,,,,,,,METAR,37.0
LGIO 252120Z AUTO VRB02KT //// // ////// 08/06 Q1010 RE//,LGIO,2023-04-25T21:20:00Z,39.7,20.82,8.0,6.0,0,2,,,29.822834,,,TRUE,,,,,,,,,,,,,,,,,,,,,,,,,,,,METAR,476.0
LGEL 252120Z 00000KT 9999 FEW025 19/07 Q1008,LGEL,2023-04-25T21:20:00Z,38.07,23.55,19.0,7.0,0,0,,6.21,29.763779,,,,,,,,,,,FEW,2500,,,,,,,VFR,,,,,,,,,,,,METAR,21.0
LGAV 252120Z 28011KT CAVOK 18/06 Q1008 NOSIG,LGAV,2023-04-25T21:20:00Z,37.93,23.95,18.0,6.0,280,11,,6.21,29.763779,,,,,,TRUE,,,,,CAVOK,,,,,,,,VFR,,,,,,,,,,,,METAR,83.0
LGAL 252120Z 00000KT 9999 FEW020 13/11 Q1006,LGAL,2023-04-25T21:20:00Z,40.85,25.95,13.0,11.0,0,0,,6.21,29.704725,,,,,,,,,,,FEW,2000,,,,,,,VFR,,,,,,,,,,,,METAR,5.0
LGAD 252120Z VRB03KT 9999 FEW025 14/13 Q1010,LGAD,2023-04-25T21:20:00Z,37.92,21.28,14.0,13.0,0,3,,6.21,29.822834,,,,,,,,,,,FEW,2500,,,,,,,VFR,,,,,,,,,,,,METAR,8.0
LATI 252120Z 12008KT 9999 FEW035CB SCT053 BKN075 15/10 Q1007 NOSIG,LATI,2023-04-25T21:20:00Z,41.42,19.72,15.0,10.0,120,8,,6.21,29.734253,,,,,,TRUE,,,,,FEW,3500,SCT,5300,BKN,7500,,,VFR,,,,,,,,,,,,METAR,32.0
KRND 252120Z AUTO 11006KT 10SM SCT024 BKN038 BKN045 25/20 A2979 RMK AO2 SLP082,KRND,2023-04-25T21:20:00Z,29.53,-98.27,25.0,20.0,110,6,,10.0,29.790354,1008.2,,TRUE,TRUE,,,,,,,SCT,2400,BKN,3800,BKN,4500,,,VFR,,,,,,,,,,,,METAR,224.0
KQFX 252120Z AUTO 12001KT 2400 BR FEW002 BKN020 07/07 A2986 RMK A02 TSNO,KQFX,2023-04-25T21:20:00Z,,,7.0,7.0,120,1,,1.49,29.861221,,,TRUE,TRUE,,,TRUE,,,BR,FEW,200,BKN,2000,,,,,IFR,,,,,,,,,,,,METAR,
KQFV 252120Z AUTO 05002KT 9999 OVC025 07/04 A2983 RMK A02 TSNO,KQFV,2023-04-25T21:20:00Z,,,7.0,4.0,50,2,,6.21,29.828741,,,TRUE,TRUE,,,TRUE,,,,OVC,2500,,,,,,,MVFR,,,,,,,,,,,,METAR,
KQFU 252120Z AUTO 17004KT 9000 OVC015 09/07 A2986 RMK A02 TSNO,KQFU,2023-04-25T21:20:00Z,,,9.0,7.0,170,4,,5.59,29.861221,,,TRUE,TRUE,,,TRUE,,,,OVC,1500,,,,,,,MVFR,,,,,,,,,,,,METAR,
KQFT 252120Z AUTO 18002KT 4800 HZ OVC023 09/06 A2984 RMK A02 TSNO,KQFT,2023-04-25T21:20:00Z,,,9.0,6.0,180,2,,2.98,29.840551,,,TRUE,TRUE,,,TRUE,,,HZ,OVC,2300,,,,,,,IFR,,,,,,,,,,,,METAR,
KQFB 252120Z AUTO 29001KT M0400 FG CLR 04/04 A2996 RMK A02 TSNO,KQFB,2023-04-25T21:20:00Z,,,4.0,4.0,290,1,,0.25,29.958662,,,TRUE,TRUE,,,TRUE,,,FG,CLR,,,,,,,,LIFR,,,,,,,,,,,,METAR,
KQEY 252120Z AUTO 03001KT M0400 FG CLR 04/04 A2962 RMK A02 TSNO,KQEY,2023-04-25T21:20:00Z,,,4.0,4.0,30,1,,0.25,29.619095,,,TRUE,TRUE,,,TRUE,,,FG,CLR,,,,,,,,LIFR,,,,,,,,,,,,METAR,
KQEX 252120Z AUTO 03002KT 6000 CLR 10/03 / RMK A02 TSNO,KQEX,2023-04-25T21:20:00Z,,,10.0,3.0,30,2,,3.73,,,,TRUE,TRUE,,,TRUE,,,,CLR,,,,,,,,MVFR,,,,,,,,,,,,METAR,
KQEW 252120Z AUTO 23003KT 9000 HZ FEW030 BKN085 08/05 A2988 RMK A02 TSNO,KQEW,2023-04-25T21:20:00Z,,,8.0,5.0,230,3,,5.59,29.878937,,,TRUE,TRUE,,,TRUE,,,HZ,FEW,3000,BKN,8500,,,,,VFR,,,,,,,,,,,,METAR,
KQEV 252120Z AUTO 07001KT 3200 BR SCT007 06/06 A2987 RMK A02 TSNO,KQEV,2023-04-25T21:20:00Z,,,6.0,6.0,70,1,,1.99,29.870079,,,TRUE,TRUE,,,TRUE,,,BR,SCT,700,,,,,,,IFR,,,,,,,,,,,,METAR,
KQEQ 252120Z AUTO 19005KT 6000 -SHRA BKN015 OVC033 09/09 A2986 RMK A02 TSNO,KQEQ,2023-04-25T21:20:00Z,,,9.0,9.0,190,5,,3.73,29.861221,,,TRUE,TRUE,,,TRUE,,,-SHRA,BKN,1500,OVC,3300,,,,,MVFR,,,,,,,,,,,,METAR,
KQEP 252120Z AUTO 21002KT 9999 BKN017 09/06 A2987 RMK A02 TSNO,KQEP,2023-04-25T21:20:00Z,,,9.0,6.0,210,2,,6.21,29.870079,,,TRUE,TRUE,,,TRUE,,,,BKN,1700,,,,,,,MVFR,,,,,,,,,,,,METAR,
KQEN 252120Z AUTO 26008G16KT 9999 FEW017 03/01 A2977 RMK A02 TSNO,KQEN,2023-04-25T21:20:00Z,,,3.0,1.0,260,8,16,6.21,29.769686,,,TRUE,TRUE,,,TRUE,,,,FEW,1700,,,,,,,VFR,,,,,,,,,,,,METAR,
KQEJ 252120Z AUTO 35001KT 9999 BKN055 06/06 A2980 RMK A02 TSNO,KQEJ,2023-04-25T21:20:00Z,,,6.0,6.0,350,1,,6.21,29.799213,,,TRUE,TRUE,,,TRUE,,,,BKN,5500,,,,,,,VFR,,,,,,,,,,,,METAR,
KPO1 252120Z AUTO 17017G22KT 10SM CLR 16/01 A3002 RMK AO2,KPO1,2023-04-25T21:20:00Z,48.13,-105.17,16.0,1.0,170,17,22,10.0,30.02067,,,TRUE,TRUE,,,,,,,CLR,,,,,,,,VFR,,,,,,,,,,,,SPECI,621.0
KPMP 252120Z 17010G19KT 10SM SCT050 SCT060 28/21 A2987 RMK AO2 WSHFT 2106 T02780206,KPMP,2023-04-25T21:20:00Z,26.25,-80.12,27.8,20.6,170,10,19,10.0,29.870079,,,,TRUE,,,,,,,SCT,5000,SCT,6000,,,,,VFR,,,,,,,,,,,,METAR,4.0
KONP 252120Z AUTO 33016G21KT 10SM CLR 12/07 A3022 RMK AO2,KONP,2023-04-25T21:20:00Z,44.57,-124.05,12.0,7.0,330,16,21,10.0,30.221457,,,TRUE,TRUE,,,,,,,CLR,,,,,,,,VFR,,,,,,,,,,,,SPECI,43.0
KMVH 252120Z AUTO 11005KT 10SM FEW060 FEW085 13/M00 A3001 RMK AO2 PWINO,KMVH,2023-04-25T21:20:00Z,46.83,-108.93,13.0,0.0,110,5,,10.0,30.008858,,,TRUE,TRUE,,,,,TRUE,,FEW,6000,FEW,8500,,,,,VFR,,,,,,,,,,,,SPECI,1352.0
KGWW 252120Z AUTO 00000KT 10SM SCT070 20/04 A3013 RMK AO2 T02030040,KGWW,2023-04-25T21:20:00Z,35.47,-77.97,20.3,4.0,0,0,,10.0,30.129921,,,TRUE,TRUE,,,,,,,SCT,7000,,,,,,,VFR,,,,,,,,,,,,METAR,40.0
KGVW 252120Z AUTO 09011KT 8SM BKN020 OVC024 23/19 A2991 RMK A01,KGVW,2023-04-25T21:20:00Z,29.13,-94.55,23.0,19.0,90,11,,8.0,29.911417,,,TRUE,TRUE,,,,,,,BKN,2000,OVC,2400,,,,,MVFR,,,,,,,,,,,,SPECI,37.0
KGUR 252120Z AUTO 00000KT 4SM -RA BR FEW013 SCT025 OVC031 07/07 A2996 RMK AO2 SLP164,KGUR,2023-04-25T21:20:00Z,42.25,-104.72,7.0,7.0,0,0,,4.0,29.958662,1016.4,,TRUE,TRUE,,,,,,-RA BR,FEW,1300,SCT,2500,OVC,3100,,,MVFR,,,,,,,,,,,,SPECI,1341.0
KGNG 252120Z AUTO 24011G16KT 10SM CLR 15/M02 A3012 RMK AO2,KGNG,2023-04-25T21:20:00Z,42.92,-114.77,15.0,-2.0,240,11,16,10.0,30.121063,,,TRUE,TRUE,,,,,,,CLR,,,,,,,,VFR,,,,,,,,,,,,SPECI,1128.0
KDSF 252120Z AUTO 03015KT 9SM SCT017 SCT021 SCT026 26/20 A2992 RMK A01,KDSF,2023-04-25T21:20:00Z,28.35,-88.27,26.0,20.0,30,15,,9.0,29.920275,,,TRUE,TRUE,,,,,,,SCT,1700,SCT,2100,SCT,2600,,,VFR,,,,,,,,,,,,SPECI,40.0
KBMQ 252120Z AUTO 15005KT 10SM BKN016 OVC021 21/17 A2988 RMK AO2 T02060172,KBMQ,2023-04-25T21:20:00Z,30.73,-98.23,20.6,17.2,150,5,,10.0,29.878937,,,TRUE,TRUE,,,,,,,BKN,1600,OVC,2100,,,,,MVFR,,,,,,,,,,,,METAR,387.0
KAXS 252120Z AUTO 06014G23KT 10SM SCT046 BKN060 BKN075 19/13 A2985 RMK AO2 T01920125,KAXS,2023-04-25T21:20:00Z,34.7,-99.33,19.2,12.5,60,14,23,10.0,29.84941,,,TRUE,TRUE,,,,,,,SCT,4600,BKN,6000,BKN,7500,,,VFR,,,,,,,,,,,,SPECI,433.0
KATP 252120Z AUTO 08016KT 5SM HZ CLR 24/21 A2988 RMK A01,KATP,2023-04-25T21:20:00Z,27.2,-90.03,24.0,21.0,80,16,,5.0,29.878937,,,TRUE,TRUE,,,,,,HZ,CLR,,,,,,,,MVFR,,,,,,,,,,,,SPECI,50.0
EYVI 252120Z 36003KT 340V050 CAVOK 09/08 Q1003 NOSIG,EYVI,2023-04-25T21:20:00Z,54.63,25.28,9.0,8.0,360,3,,6.21,29.616142,,,,,,TRUE,,,,,CAVOK,,,,,,,,VFR,,,,,,,,,,,,METAR,180.0
EYSA 252120Z 31006KT 9999 OVC023 07/05 Q1005 NOSIG,EYSA,2023-04-25T21:20:00Z,55.9,23.4,7.0,5.0,310,6,,6.21,29.675198,,,,,,TRUE,,,,,OVC,2300,,,,,,,MVFR,,,,,,,,,,,,METAR,135.0
EYPA 252120Z 24005KT 190V340 CAVOK 06/04 Q1006,EYPA,2023-04-25T21:20:00Z,55.97,21.08,6.0,4.0,240,5,,6.21,29.704725,,,,,,,,,,,CAVOK,,,,,,,,VFR,,,,,,,,,,,,METAR,15.0
EYKA 252120Z 29006KT 250V330 9999 OVC005 09/07 Q1004,EYKA,2023-04-25T21:20:00Z,54.97,24.08,9.0,7.0,290,6,,6.21,29.64567,,,,,,,,,,,OVC,500,,,,,,,IFR,,,,,,,,,,,,METAR,68.0
EVVA 252120Z AUTO 21008KT 9999 SCT008 OVC055 06/05 Q1004,EVVA,2023-04-25T21:20:00Z,57.35,21.55,6.0,5.0,210,8,,6.21,29.64567,,,TRUE,,,,,,,,SCT,800,OVC,5500,,,,,VFR,,,,,,,,,,,,METAR,1.0
EVRA 252120Z 33006KT 9999 BKN005 SCT048CB 09/08 Q1004 NOSIG,EVRA,2023-04-25T21:20:00Z,56.92,23.97,9.0,8.0,330,6,,6.21,29.64567,,,,,,TRUE,,,,,BKN,500,SCT,4800,,,,,IFR,,,,,,,,,,,,METAR,7.0
EVLA 252120Z AUTO 23008KT 9999 FEW014/// 06/04 Q1005,EVLA,2023-04-25T21:20:00Z,56.52,21.1,6.0,4.0,230,8,,6.21,29.675198,,,TRUE,,,,,,,,FEW,1400,,,,,,,VFR,,,,,,,,,,,,METAR,5.0
EVGA 252120Z AUTO 23004KT 190V280 9999 -RA FEW040/// 11/09 Q1003,EVGA,2023-04-25T21:20:00Z,56.78,24.85,11.0,9.0,230,4,,6.21,29.616142,,,TRUE,,,,,,,-RA,FEW,4000,,,,,,,VFR,,,,,,,,,,,,METAR,61.0
ESUT 252120Z AUTO VRB03KT 4700 -RASN FEW017/// OVC048/// M02/M05 Q1005,ESUT,2023-04-25T21:20:00Z,65.8,15.08,-2.0,-5.0,0,3,,2.92,29.675198,,,TRUE,,,,,,,-RA -SN,FEW,1700,OVC,4800,,,,,IFR,,,,,,,,,,,,METAR,457.0
ESUP 252120Z AUTO 07009KT 030V090 0700 R11/P2000D -SN VV009 ///// Q1010,ESUP,2023-04-25T21:20:00Z,67.25,23.07,,,70,9,,0.43,29.822834,,,TRUE,,,,,,,-SN,OVX,0,,,,,,,LIFR,,,,,,,,,,,900,METAR,164.0
ESTL 252120Z AUTO 26011KT 9999 OVC029/// 06/03 Q1004,ESTL,2023-04-25T21:20:00Z,56.07,13.2,6.0,3.0,260,11,,6.21,29.64567,,,TRUE,,,,,,,,OVC,2900,,,,,,,MVFR,,,,,,,,,,,,METAR,39.0
ESTA 252120Z AUTO 27014KT 9999 OVC021/// 07/03 Q1004,ESTA,2023-04-25T21:20:00Z,56.28,12.83,7.0,3.0,270,14,,6.21,29.64567,,,TRUE,,,,,,,,OVC,2100,,,,,,,MVFR,,,,,,,,,,,,METAR,19.0
ESSV 252120Z AUTO 18008KT 9999 FEW012/// OVC021/// 06/05 Q1001,ESSV,2023-04-25T21:20:00Z,57.67,18.35,6.0,5.0,180,8,,6.21,29.557087,,,TRUE,,,,,,,,FEW,1200,OVC,2100,,,,,MVFR,,,,,,,,,,,,METAR,38.0
ESST 252120Z AUTO 33004KT 2300 -SN VV015 01/00 Q1000,ESST,2023-04-25T21:20:00Z,60.15,12.98,1.0,0.0,330,4,,1.43,29.52756,,,TRUE,,,,,,,-SN,OVX,0,,,,,,,LIFR,,,,,,,,,,,1500,METAR,110.0
ESSP 252120Z AUTO 25008KT 9999 OVC092/// 07/05 Q1000,ESSP,2023-04-25T21:20:00Z,58.58,16.25,7.0,5.0,250,8,,6.21,29.52756,,,TRUE,,,,,,,,OVC,9200,,,,,,,VFR,,,,,,,,,,,,METAR,3.0
ESSL 252120Z AUTO 28009KT 9999 SCT032/// BKN088/// 06/03 Q1000,ESSL,2023-04-25T21:20:00Z,58.4,15.67,6.0,3.0,280,9,,6.21,29.52756,,,TRUE,,,,,,,,SCT,3200,BKN,8800,,,,,VFR,,,,,,,,,,,,METAR,51.0
ESSD 252120Z AUTO 06006KT 9999 OVC003/// 01/01 Q1000,ESSD,2023-04-25T21:20:00Z,60.42,15.5,1.0,1.0,60,6,,6.21,29.52756,,,TRUE,,,,,,,,OVC,300,,,,,,,LIFR,,,,,,,,,,,,METAR,151.0
ESSB 252120Z AUTO 12007KT 6000 OVC003/// 05/05 Q1000,ESSB,2023-04-25T21:20:00Z,59.35,17.93,5.0,5.0,120,7,,3.73,29.52756,,,TRUE,,,,,,,,OVC,300,,,,,,,LIFR,,,,,,,,,,,,METAR,14.0
ESSA 252120Z 14006KT 8000 OVC005 06/05 Q1000 BECMG 3000 BR BKN004,ESSA,2023-04-25T21:20:00Z,59.65,17.93,6.0,5.0,140,6,,4.97,29.52756,,,,,,,,,,,OVC,500,,,,,,,IFR,,,,,,,,,,,,METAR,36.0
ESPE 252120Z AUTO 06008KT 9999 -FZRASN BKN011/// OVC033/// M01/M01 Q1006,ESPE,2023-04-25T21:20:00Z,65.88,20.15,-1.0,-1.0,60,8,,6.21,29.704725,,,TRUE,,,,,,,-FZRA SN,BKN,1100,OVC,3300,,,,,MVFR,,,,,,,,,,,,METAR,182.0
ESPA 252120Z 05007KT 020V080 8000 -RASN BKN006 00/00 Q1006,ESPA,2023-04-25T21:20:00Z,65.53,22.12,0.0,0.0,50,7,,4.97,29.704725,,,,,,,,,,-RA -SN,BKN,600,,,,,,,IFR,,,,,,,,,,,,METAR,12.0
ESOW 252120Z AUTO 04007KT 9000 OVC003/// 05/04 Q1000,ESOW,2023-04-25T21:20:00Z,59.58,16.63,5.0,4.0,40,7,,5.59,29.52756,,,TRUE,,,,,,,,OVC,300,,,,,,,LIFR,,,,,,,,,,,,METAR,7.0
ESOK 252120Z AUTO 13006KT 1300 R03/P1500N R21/P1500N -RA OVC001/// 04/04 Q0998 REUP,ESOK,2023-04-25T21:20:00Z,59.45,13.33,4.0,4.0,130,6,,0.81,29.468504,,,TRUE,,,,,,,-RA,OVC,100,,,,,,,LIFR,,,,,,,,,,,,METAR,101.0
ESOH 252120Z AUTO 32003KT 280V350 5000 -RA OVC005/// 02/02 Q0999,ESOH,2023-04-25T21:20:00Z,60.02,13.58,2.0,2.0,320,3,,3.11,29.498032,,,TRUE,,,,,,,-RA,OVC,500,,,,,,,IFR,,,,,,,,,,,,METAR,145.0
ESOE 252120Z 26004KT 220V280 2000 DZ VV004 06/05 Q1000,ESOE,2023-04-25T21:20:00Z,59.22,15.05,6.0,5.0,260,4,,1.24,29.52756,,,,,,,,,,DZ,OVX,0,,,,,,,LIFR,,,,,,,,,,,400,METAR,57.0
ESNZ 252120Z AUTO 02004KT 9999 OVC012/// M02/M02 Q1002,ESNZ,2023-04-25T21:20:00Z,63.18,14.5,-2.0,-2.0,20,4,,6.21,29.586615,,,TRUE,,,,,,,,OVC,1200,,,,,,,MVFR,,,,,,,,,,,,METAR,360.0
ESNX 252120Z AUTO 03008KT 3700 -SN FEW009/// SCT017/// OVC022/// M02/M03 Q1004,ESNX,2023-04-25T21:20:00Z,65.58,19.28,-2.0,-3.0,30,8,,2.3,29.64567,,,TRUE,,,,,,,-SN,FEW,900,SCT,1700,OVC,2200,,,IFR,,,,,,,,,,,,METAR,380.0
ESNV 252120Z AUTO 01004KT 340V050 8000 OVC013/// M02/M03 Q1003,ESNV,2023-04-25T21:20:00Z,64.58,16.83,-2.0,-3.0,10,4,,4.97,29.616142,,,TRUE,,,,,,,,OVC,1300,,,,,,,MVFR,,,,,,,,,,,,METAR,348.0
ESNU 252120Z VRB03KT 1900 DZ OVC003 01/00 Q1002,ESNU,2023-04-25T21:20:00Z,63.78,20.28,1.0,0.0,0,3,,1.18,29.586615,,,,,,,,,,DZ,OVC,300,,,,,,,LIFR,,,,,,,,,,,,METAR,8.0
ESNS 252120Z AUTO 02009KT 4600 BR OVC002/// 00/00 Q1003,ESNS,2023-04-25T21:20:00Z,64.62,21.07,0.0,0.0,20,9,,2.86,29.616142,,,TRUE,,,,,,,BR,OVC,200,,,,,,,LIFR,,,,,,,,,,,,METAR,41.0
ESNQ 252120Z AUTO 06010KT 1200 R03/P2000N R21/P2000N -SN VV013 M04/M06 Q1010,ESNQ,2023-04-25T21:20:00Z,67.82,20.33,-4.0,-6.0,60,10,,0.75,29.822834,,,TRUE,,,,,,,-SN,OVX,0,,,,,,,LIFR,,,,,,,,,,,1300,METAR,447.0
ESNO 252120Z AUTO 33007KT 2600 BR OVC004/// 00/00 Q1001,ESNO,2023-04-25T21:20:00Z,63.4,18.97,0.0,0.0,330,7,,1.62,29.557087,,,TRUE,,,,,,,BR,OVC,400,,,,,,,LIFR,,,,,,,,,,,,METAR,100.0
ESNN 252120Z AUTO 32005KT 9999 BKN018/// BKN021/// OVC025/// 01/M01 Q1002,ESNN,2023-04-25T21:20:00Z,62.52,17.43,1.0,-1.0,320,5,,6.21,29.586615,,,TRUE,,,,,,,,BKN,1800,BKN,2100,OVC,2500,,,MVFR,,,,,,,,,,,,METAR,4.0
ESNL 252120Z AUTO 32006KT 3100 -RASN FEW005/// BKN008/// OVC010/// M01/M01 Q1003,ESNL,2023-04-25T21:20:00Z,64.55,18.72,-1.0,-1.0,320,6,,1.93,29.616142,,,TRUE,,,,,,,-RA -SN,FEW,500,BKN,800,OVC,1000,,,IFR,,,,,,,,,,,,METAR,220.0
ESNK 252120Z AUTO 34005KT 9999 OVC010/// ///// Q1002,ESNK,2023-04-25T21:20:00Z,63.03,17.77,,,340,5,,6.21,29.586615,,,TRUE,,,,,,,,OVC,1000,,,,,,,MVFR,,,,,,,,,,,,METAR,4.0
ESNG 252120Z AUTO 05007KT 0750 R30/P1500N SN VV005 M02/M03 Q1009,ESNG,2023-04-25T21:20:00Z,67.13,20.82,-2.0,-3.0,50,7,,0.47,29.793306,,,TRUE,,,,,,,SN,OVX,0,,,,,,,LIFR,,,,,,,,,,,500,METAR,300.0
ESND 252120Z AUTO 01004KT 340V050 9999 OVC011/// M01/M02 Q1001,ESND,2023-04-25T21:20:00Z,62.05,14.42,-1.0,-2.0,10,4,,6.21,29.557087,,,TRUE,,,,,,,,OVC,1100,,,,,,,MVFR,,,,,,,,,,,,METAR,352.0
ESMX 252120Z 22008KT 9999 SCT012 BKN015 BKN064 06/05 Q1002,ESMX,2023-04-25T21:20:00Z,56.92,14.72,6.0,5.0,220,8,,6.21,29.586615,,,,,,,,,,,SCT,1200,BKN,1500,BKN,6400,,,MVFR,,,,,,,,,,,,METAR,176.0
ESMT 252120Z AUTO 28004KT 260V320 9999 DZ SCT032/// BKN041/// OVC048/// 06/05 Q1003 RERA,ESMT,2023-04-25T21:20:00Z,56.68,12.82,6.0,5.0,280,4,,6.21,29.616142,,,TRUE,,,,,,,DZ,SCT,3200,BKN,4100,OVC,4800,,,VFR,,,,,,,,,,,,METAR,24.0
ESMS 252120Z 28014KT 9999 FEW044 06/M01 Q1005,ESMS,2023-04-25T21:20:00Z,55.53,13.37,6.0,-1.0,280,14,,6.21,29.675198,,,,,,,,,,,FEW,4400,,,,,,,VFR,,,,,,,,,,,,METAR,68.0
ESMQ 252120Z AUTO 22004KT 9999 OVC060/// 07/05 Q1002,ESMQ,2023-04-25T21:20:00Z,56.68,16.3,7.0,5.0,220,4,,6.21,29.586615,,,TRUE,,,,,,,,OVC,6000,,,,,,,VFR,,,,,,,,,,,,METAR,3.0
ESMK 252120Z AUTO 26010KT 9999 OVC032/// 06/03 Q1004,ESMK,2023-04-25T21:20:00Z,55.92,14.08,6.0,3.0,260,10,,6.21,29.64567,,,TRUE,,,,,,,,OVC,3200,,,,,,,VFR,,,,,,,,,,,,METAR,20.0
ESKS 252120Z AUTO 01006KT 3700 -SN SCT006/// OVC028/// M01/M02 Q0999,ESKS,2023-04-25T21:20:00Z,61.17,12.83,-1.0,-2.0,10,6,,2.3,29.498032,,,TRUE,,,,,,,-SN,SCT,600,OVC,2800,,,,,IFR,,,,,,,,,,,,METAR,503.0
ESKN 252120Z 15002KT 6000 BKN003 05/05 Q1000,ESKN,2023-04-25T21:20:00Z,58.78,16.92,5.0,5.0,150,2,,3.73,29.52756,,,,,,,,,,,BKN,300,,,,,,,LIFR,,,,,,,,,,,,METAR,41.0
ESKM 252120Z AUTO 03004KT 9999 -RASN OVC010/// 01/01 Q1001,ESKM,2023-04-25T21:20:00Z,60.97,14.52,1.0,1.0,30,4,,6.21,29.557087,,,TRUE,,,,,,,-RA -SN,OVC,1000,,,,,,,MVFR,,,,,,,,,,,,METAR,184.0
ESIB 252120Z AUTO 27011KT 9999 OVC011/// 04/03 Q1001,ESIB,2023-04-25T21:20:00Z,58.42,12.7,4.0,3.0,270,11,,6.21,29.557087,,,TRUE,,,,,,,,OVC,1100,,,,,,,MVFR,,,,,,,,,,,,METAR,51.0
ESIA 252120Z 24008KT 9999 OVC012 05/03 Q1000,ESIA,2023-04-25T21:20:00Z,58.52,14.5,5.0,3.0,240,8,,6.21,29.52756,,,,,,,,,,,OVC,1200,,,,,,,MVFR,,,,,,,,,,,,METAR,94.0
ESGT 252120Z 29009KT 260V320 9999 BKN016 03/00 Q1002,ESGT,2023-04-25T21:20:00Z,58.32,12.33,3.0,0.0,290,9,,6.21,29.586615,,,,,,,,,,,BKN,1600,,,,,,,MVFR,,,,,,,,,,,,METAR,40.0
ESGP 252120Z AUTO 28004KT 9999 FEW059/// BKN084/// 04/00 Q1003,ESGP,2023-04-25T21:20:00Z,57.77,11.87,4.0,0.0,280,4,,6.21,29.616142,,,TRUE,,,,,,,,FEW,5900,BKN,8400,,,,,VFR,,,,,,,,,,,,METAR,15.0
ESGJ 252120Z 24007KT 9999 BKN019 04/02 Q1001,ESGJ,2023-04-25T21:20:00Z,57.77,14.07,4.0,2.0,240,7,,6.21,29.557087,,,,,,,,,,,BKN,1900,,,,,,,MVFR,,,,,,,,,,,,METAR,224.0
ESGG 252120Z 23003KT CAVOK 02/01 Q1002,ESGG,2023-04-25T21:20:00Z,57.67,12.3,2.0,1.0,230,3,,6.21,29.586615,,,,,,,,,,,CAVOK,,,,,,,,VFR,,,,,,,,,,,,METAR,152.0
ESDF 252120Z AUTO 23002KT 9999 BKN022/// BKN028/// OVC058/// 06/05 Q1003,ESDF,2023-04-25T21:20:00Z,56.27,15.27,6.0,5.0,230,2,,6.21,29.616142,,,TRUE,,,,,,,,BKN,2200,BKN,2800,OVC,5800,,,MVFR,,,,,,,,,,,,METAR,52.0
ESCM 252120Z AUTO 02006KT 9999 -RA VV006 03/03 Q1001,ESCM,2023-04-25T21:20:00Z,59.88,17.6,3.0,3.0,20,6,,6.21,29.557087,,,TRUE,,,,,,,-RA,OVX,0,,,,,,,LIFR,,,,,,,,,,,600,METAR,21.0
ESCF 252120Z AUTO 26005KT 9999 SCT017/// OVC032/// 06/04 Q1000,ESCF,2023-04-25T21:20:00Z,58.38,15.52,6.0,4.0,260,5,,6.21,29.52756,,,TRUE,,,,,,,,SCT,1700,OVC,3200,,,,,VFR,,,,,,,,,,,,METAR,86.0
ENZV 252120Z 33018KT 9999 SCT029 05/M01 Q1009,ENZV,2023-04-25T21:20:00Z,58.88,5.63,5.0,-1.0,330,18,,6.21,29.793306,,,,,,,,,,,SCT,2900,,,,,,,VFR,,,,,,,,,,,,METAR,7.0
ENWV 252120Z AUTO 31026KT 9999NDV BKN027/// 05/M01 Q1014 W///S5,ENWV,2023-04-25T21:20:00Z,56.28,3.4,5.0,-1.0,310,26,,,29.940945,,,TRUE,,,,,,,,BKN,2700,,,,,,,,,,,,,,,,,,,METAR,30.0
ENVD 252120Z VRB03KT 9999 FEW048 M02/M06 Q1016,ENVD,2023-04-25T21:20:00Z,70.07,29.85,-2.0,-6.0,0,3,,6.21,30.0,,,,,,,,,,,FEW,4800,,,,,,,VFR,,,,,,,,,,,,METAR,39.0
ENVA 252120Z VRB03KT 9999 -RASN FEW003 BKN011 01/M00 Q1005 RMK WIND 670FT 34003KT,ENVA,2023-04-25T21:20:00Z,63.47,10.92,1.0,0.0,0,3,,6.21,29.675198,,,,,,,,,,-RA -SN,FEW,300,BKN,1100,,,,,MVFR,,,,,,,,,,,,SPECI,12.0
ENUN 252120Z AUTO 04020KT 020V080 9999NDV -SHRASN BKN017/// BKN091/// 03/M01 Q1011 W06/S4,ENUN,2023-04-25T21:20:00Z,,,3.0,-1.0,40,20,,,29.852362,,,TRUE,,,,,,,-SHRA SN,BKN,1700,BKN,9100,,,,,,,,,,,,,,,,,METAR,
ENUG 252120Z AUTO VRB01KT 9999NDV OVC041/// 02/M05 Q1016 W///S4,ENUG,2023-04-25T21:20:00Z,71.3,22.25,2.0,-5.0,0,1,,,30.0,,,TRUE,,,,,,,,OVC,4100,,,,,,,,,,,,,,,,,,,METAR,30.0
ENTO 252120Z 31005KT CAVOK 02/M01 Q1002,ENTO,2023-04-25T21:20:00Z,59.2,10.27,2.0,-1.0,310,5,,6.21,29.586615,,,,,,,,,,,CAVOK,,,,,,,,VFR,,,,,,,,,,,,METAR,84.0
ENTC 252120Z 06006KT CAVOK M01/M08 Q1015 RMK WIND 2600FT 10015KT,ENTC,2023-04-25T21:20:00Z,69.68,18.92,-1.0,-8.0,60,6,,6.21,29.970472,,,,,,,,,,,CAVOK,,,,,,,,VFR,,1.5,,,,,,,,,,SPECI,9.0
ENST 252120Z 04008KT 9999 -RASN FEW010 SCT018 BKN030 00/M02 Q1008 RMK WIND 300FT 06009KT,ENST,2023-04-25T21:20:00Z,65.97,12.47,0.0,-2.0,40,8,,6.21,29.763779,,,,,,,,,,-RA -SN,FEW,1000,SCT,1800,BKN,3000,,,MVFR,,,,,,,,,,,,METAR,17.0
ENSS 252120Z AUTO 28009KT 9999 NCD M02/M04 Q1016 RMK WIND 0500FT 30009KT,ENSS,2023-04-25T21:20:00Z,70.35,31.05,-2.0,-4.0,280,9,,6.21,30.0,,,TRUE,,,,,,,,CLR,,,,,,,,VFR,,,,,,,,,,,,METAR,13.0
ENSR 252120Z AUTO VRB01KT 9999 NCD M03/M07 Q1016 RMK WIND RWY32 VRB03KT WIND 1118FT /////KT,ENSR,2023-04-25T21:20:00Z,69.78,20.97,-3.0,-7.0,0,1,,6.21,30.0,,,TRUE,,,,,,,,CLR,,,,,,,,VFR,,,,,,,,,,,,METAR,5.0
ENSL 252120Z AUTO 31029KT 9999NDV FEW020/// SCT036/// 05/00 Q1014 W04/S4,ENSL,2023-04-25T21:20:00Z,58.37,1.9,5.0,0.0,310,29,,,29.940945,,,TRUE,,,,,,,,FEW,2000,SCT,3600,,,,,,,,,,,,,,,,,METAR,50.0
ENSK 252120Z AUTO 04007KT 9999 NCD 02/M09 Q1012,ENSK,2023-04-25T21:20:00Z,68.57,15.02,2.0,-9.0,40,7,,6.21,29.88189,,,TRUE,,,,,,,,CLR,,,,,,,,VFR,,,,,,,,,,,,METAR,3.0
ENSH 252120Z AUTO 03012KT 360V060 9999 NCD 03/M08 Q1011 RMK WIND 0150FT 04010KT,ENSH,2023-04-25T21:20:00Z,68.25,14.67,3.0,-8.0,30,12,,6.21,29.852362,,,TRUE,,,,,,,,CLR,,,,,,,,VFR,,,,,,,,,,,,METAR,9.0
ENSG 252120Z AUTO 30004KT 9999 -SN NCD 01/M05 Q1003 RMK WIND 3806FT 30017KT,ENSG,2023-04-25T21:20:00Z,61.15,7.13,1.0,-5.0,300,4,,6.21,29.616142,,,TRUE,,,,,,,-SN,CLR,,,,,,,,VFR,,,,,,,,,,,,METAR,493.0
ENSF 252120Z AUTO 34020KT 9999NDV FEW019/// ///// Q//// W///S4,ENSF,2023-04-25T21:20:00Z,61.25,1.85,,,340,20,,,,,,TRUE,,,,,,,,FEW,1900,,,,,,,,,,,,,,,,,,,METAR,15.0
ENSE 252120Z AUTO 01021KT //// BKN015/// 02/M01 Q1012 W///S/,ENSE,2023-04-25T21:20:00Z,61.45,2.15,2.0,-1.0,10,21,,,29.88189,,,TRUE,,,,,,,,BKN,1500,,,,,,,,,,,,,,,,,,,METAR,10.0
ENSD 252120Z AUTO 29006KT 210V360 9999 FEW011/// BKN021/// OVC028/// 02/M00 Q1008 RMK WIND RWY26 28008KT WIND 1140FT VRB09KT,ENSD,2023-04-25T21:20:00Z,61.82,6.12,2.0,0.0,290,6,,6.21,29.763779,,,TRUE,,,,,,,,FEW,1100,BKN,2100,OVC,2800,,,MVFR,,,,,,,,,,,,METAR,61.0
ENRY 252120Z 32008KT 9999 BKN088 03/M01 Q1002,ENRY,2023-04-25T21:20:00Z,59.37,10.77,3.0,-1.0,320,8,,6.21,29.586615,,,,,,,,,,,BKN,8800,,,,,,,VFR,,,,,,,,,,,,METAR,45.0
ENRS 252120Z AUTO 07015KT 9999 FEW048/// 04/M05 Q1010,ENRS,2023-04-25T21:20:00Z,67.52,12.1,4.0,-5.0,70,15,,6.21,29.822834,,,TRUE,,,,,,,,FEW,4800,,,,,,,VFR,,,,,,,,,,,,METAR,4.0
ENRM 252120Z AUTO 04004KT 9999 FEW013/// SCT040/// OVC068/// 00/M00 Q1006,ENRM,2023-04-25T21:20:00Z,64.83,11.13,0.0,0.0,40,4,,6.21,29.704725,,,TRUE,,,,,,,,FEW,1300,SCT,4000,OVC,6800,,,VFR,,,,,,,,,,,,METAR,4.0
ENRA 252120Z AUTO 09005KT 050V160 9999 -SN FEW015/// BKN029/// M00/M02 Q1008,ENRA,2023-04-25T21:20:00Z,66.37,14.3,0.0,-2.0,90,5,,6.21,29.763779,,,TRUE,,,,,,,-SN,FEW,1500,BKN,2900,,,,,MVFR,,,,,,,,,,,,METAR,66.0
ENQR 252120Z AUTO 01012KT 9999NDV -SHRASN BKN017/// 02/00 Q1012 W08/S4,ENQR,2023-04-25T21:20:00Z,61.52,2.22,2.0,0.0,10,12,,,29.88189,,,TRUE,,,,,,,-SHRA SN,BKN,1700,,,,,,,,,,,,,,,,,,,METAR,10.0
ENQC 252120Z AUTO 33021KT 9999NDV SCT026/// 05/M01 Q1010 W///S5,ENQC,2023-04-25T21:20:00Z,60.88,3.62,5.0,-1.0,330,21,,,29.822834,,,TRUE,,,,,,,,SCT,2600,,,,,,,,,,,,,,,,,,,METAR,20.0
ENQA 252120Z AUTO 36023KT 9999NDV SCT024/// 04/M01 Q1010 W09/S5,ENQA,2023-04-25T21:20:00Z,60.65,3.72,4.0,-1.0,360,23,,,29.822834,,,TRUE,,,,,,,,SCT,2400,,,,,,,,,,,,,,,,,,,METAR,90.0
ENOV 252120Z 20006KT 140V250 5000 -SHRASN FEW003 SCT012TCU BKN025 01/M00 Q1008 RMK WIND RWY24 VRB02KT WIND 2090FT 32015KT,ENOV,2023-04-25T21:20:00Z,62.17,6.07,1.0,0.0,200,6,,3.11,29.763779,,,,,,,,,,-SHRA -SHSN,FEW,300,SCT,1200,BKN,2500,,,MVFR,,,,,,,,,,,,METAR,72.0
ENOA 252120Z 34022KT 9999 FEW020CB 04/01 Q1011 W///S4,ENOA,2023-04-25T21:20:00Z,60.5,2.83,4.0,1.0,340,22,,6.21,29.852362,,,,,,,,,,,FEW,2000,,,,,,,VFR,,,,,,,,,,,,SPECI,5.0
ENNM 252120Z AUTO 03002KT 9000 -SN NCD 00/M01 Q1006,ENNM,2023-04-25T21:20:00Z,64.47,11.57,0.0,-1.0,30,2,,5.59,29.704725,,,TRUE,,,,,,,-SN,CLR,,,,,,,,VFR,,,,,,,,,,,,METAR,2.0
ENNE 252120Z AUTO 03025KT 9999NDV FEW043/// SCT120/// 04/M06 Q1008 W///S4,ENNE,2023-04-25T21:20:00Z,66.03,8.08,4.0,-6.0,30,25,,,29.763779,,,TRUE,,,,,,,,FEW,4300,SCT,12000,,,,,,,,,,,,,,,,,METAR,10.0
ENNA 252120Z AUTO VRB03KT 9999 NCD M04/M07 Q1017 RMK WIND 1800FT 31004KT,ENNA,2023-04-25T21:20:00Z,70.07,24.97,-4.0,-7.0,0,3,,6.21,30.029528,,,TRUE,,,,,,,,CLR,,,,,,,,VFR,,,,,,,,,,,,SPECI,12.0
ENMS 252120Z AUTO 35004KT 9999 -SN BKN029/// M00/M01 Q1007 RMK WIND 412FT 00000KT,ENMS,2023-04-25T21:20:00Z,65.78,13.22,0.0,-1.0,350,4,,6.21,29.734253,,,TRUE,,,,,,,-SN,BKN,2900,,,,,,,MVFR,,,,,,,,,,,,SPECI,44.0
ENML 252120Z 31003KT 240V030 9999 -SHRA SCT016 BKN068 01/00 Q1007,ENML,2023-04-25T21:20:00Z,62.75,7.27,1.0,0.0,310,3,,6.21,29.734253,,,,,,,,,,-SHRA,SCT,1600,BKN,6800,,,,,VFR,,,,,,,,,,,,METAR,3.0
ENMH 252120Z 27005KT 240V300 5000 -SN VV015 01/M01 Q1016,ENMH,2023-04-25T21:20:00Z,71.02,27.82,1.0,-1.0,270,5,,3.11,30.0,,,,,,,,,,-SN,OVX,0,,,,,,,LIFR,,,,,,,,,,,1500,METAR,10.0
ENLK 252120Z 04012KT CAVOK 02/M08 Q1011,ENLK,2023-04-25T21:20:00Z,68.15,13.62,2.0,-8.0,40,12,,6.21,29.852362,,,,,,,,,,,CAVOK,,,,,,,,VFR,,,,,,,,,,,,METAR,26.0
ENLA 252120Z AUTO 30022KT 9999NDV FEW030/// 06/M01 Q1013 W///S5,ENLA,2023-04-25T21:20:00Z,57.1,2.83,6.0,-1.0,300,22,,,29.911417,,,TRUE,,,,,,,,FEW,3000,,,,,,,,,,,,,,,,,,,METAR,10.0
ENKR 252120Z 29003KT 9999 BKN036 M02/M05 Q1016 RMK WIND 731FT 25004KT,ENKR,2023-04-25T21:20:00Z,69.72,29.88,-2.0,-5.0,290,3,,6.21,30.0,,,,,,,,,,,BKN,3600,,,,,,,VFR,,,,,,,,,,,,SPECI,86.0
ENKB 252120Z AUTO 36003KT 310V040 9999 -RA SCT008/// BKN010/// BKN029/// 01/M01 Q1007 RMK WIND 745FT 02010KT,ENKB,2023-04-25T21:20:00Z,63.12,7.82,1.0,-1.0,360,3,,6.21,29.734253,,,TRUE,,,,,,,-RA,SCT,800,BKN,1000,BKN,2900,,,MVFR,,,,,,,,,,,,METAR,62.0
ENJS 252120Z 34019KT 9999 SCT020 03/M01 Q1013 W07/S/,ENJS,2023-04-25T21:20:00Z,,,3.0,-1.0,340,19,,6.21,29.911417,,,,,,,,,,,SCT,2000,,,,,,,VFR,,,,,,,,,,,,METAR,
ENHV 252120Z AUTO VRB03KT 9999 OVC046/// 02/M04 Q1016,ENHV,2023-04-25T21:20:00Z,71.02,25.97,2.0,-4.0,0,3,,6.21,30.0,,,TRUE,,,,,,,,OVC,4600,,,,,,,VFR,,,,,,,,,,,,METAR,13.0
ENHM 252120Z AUTO 34028KT //// FEW025/// SCT052/// 04/04 Q1012 W07/S/,ENHM,2023-04-25T21:20:00Z,59.57,2.23,4.0,4.0,340,28,,,29.88189,,,TRUE,,,,,,,,FEW,2500,SCT,5200,,,,,,,,,,,,,,,,,METAR,10.0
ENHK 252120Z AUTO VRB01KT 9999 NCD M02/M06 Q1016,ENHK,2023-04-25T21:20:00Z,70.48,22.13,-2.0,-6.0,0,1,,6.21,30.0,,,TRUE,,,,,,,,CLR,,,,,,,,VFR,,,,,,,,,,,,METAR,6.0
ENHF 252120Z 00000KT 9999 BKN034 M00/M04 Q1016 RMK WIND 1254FT 22003KT,ENHF,2023-04-25T21:20:00Z,70.67,23.67,0.0,-4.0,0,0,,6.21,30.0,,,,,,,,,,,BKN,3400,,,,,,,VFR,,,,,,,,,,,,METAR,79.0
ENHD 252120Z AUTO 33021G32KT 9999 SCT029/// 05/M02 Q1009,ENHD,2023-04-25T21:20:00Z,59.35,5.22,5.0,-2.0,330,21,32,6.21,29.793306,,,TRUE,,,,,,,,SCT,2900,,,,,,,VFR,,,,,,,,,,,,METAR,22.0
ENGM 252120Z 36004KT 9999 -SNRA SCT028 BKN060 01/M01 Q1001,ENGM,2023-04-25T21:20:00Z,60.2,11.07,1.0,-1.0,360,4,,6.21,29.557087,,,,,,,,,,-SN -RA,SCT,2800,BKN,6000,,,,,VFR,,,,,,,,,,,,METAR,204.0
ENFL 252120Z AUTO 34012KT 310V020 9999NDV -SHRA FEW015/// SCT062/// 02/M00 Q1009,ENFL,2023-04-25T21:20:00Z,61.57,5.02,2.0,0.0,340,12,,,29.793306,,,TRUE,,,,,,,-SHRA,FEW,1500,SCT,6200,,,,,,,,,,,,,,,,,METAR,1.0
ENFB 252120Z AUTO 34018KT 9999NDV FEW020/// 04/00 Q1012 W///S4,ENFB,2023-04-25T21:20:00Z,61.2,1.83,4.0,0.0,340,18,,,29.88189,,,TRUE,,,,,,,,FEW,2000,,,,,,,,,,,,,,,,,,,SPECI,10.0
ENEV 252120Z 28003KT 240V010 9999 FEW066 SCT078 SCT092 02/M09 Q1012 RMK WIND 1400FT 09013KT,ENEV,2023-04-25T21:20:00Z,68.48,16.67,2.0,-9.0,280,3,,6.21,29.88189,,,,,,,,,,,FEW,6600,SCT,7800,SCT,9200,,,VFR,,,,,,,,,,,,METAR,26.0
ENDU 252120Z 09006KT 060V130 CAVOK 00/M10 Q1013 RMK WIND 1100FT 08009KT WIND 2200FT 10013KT,ENDU,2023-04-25T21:20:00Z,69.05,18.55,0.0,-10.0,90,6,,6.21,29.911417,,,,,,,,,,,CAVOK,,,,,,,,VFR,,1.3,,,,,,,,,,METAR,65.0
ENDR 252120Z AUTO 36022KT 9999NDV -SHRA SCT008/// SCT010/// BKN035/// 02/00 Q1007 W///S4,ENDR,2023-04-25T21:20:00Z,64.35,7.77,2.0,0.0,360,22,,,29.734253,,,TRUE,,,,,,,-SHRA,SCT,800,SCT,1000,BKN,3500,,,,,,,,,,,,,,,METAR,10.0
ENCN 252120Z 31007KT 280V350 CAVOK 05/M04 Q1005,ENCN,2023-04-25T21:20:00Z,58.2,8.07,5.0,-4.0,310,7,,6.21,29.675198,,,,,,,,,,,CAVOK,,,,,,,,VFR,,,,,,,,,,,,METAR,17.0
ENBS 252120Z AUTO 28014KT 9999 SCT033/// M01/M04 Q1015,ENBS,2023-04-25T21:20:00Z,70.62,29.68,-1.0,-4.0,280,14,,6.21,29.970472,,,TRUE,,,,,,,,SCT,3300,,,,,,,VFR,,,,,,,,,,,,METAR,144.0
ENBR 252120Z 34013KT 9999 FEW035 04/M02 Q1008 RMK WIND 1200FT 33029KT,ENBR,2023-04-25T21:20:00Z,60.28,5.22,4.0,-2.0,340,13,,6.21,29.763779,,,,,,,,,,,FEW,3500,,,,,,,VFR,,,,,,,,,,,,SPECI,49.0
ENBO 252120Z 07008KT 9999 BKN014 01/M02 Q1010,ENBO,2023-04-25T21:20:00Z,67.27,14.37,1.0,-2.0,70,8,,6.21,29.822834,,,,,,,,,,,BKN,1400,,,,,,,MVFR,,,,,,,,,,,,METAR,13.0
ENBN 252120Z AUTO 02005KT 9999NDV -RA OVC017/// 01/M02 Q1007,ENBN,2023-04-25T21:20:00Z,65.47,12.22,1.0,-2.0,20,5,,,29.734253,,,TRUE,,,,,,,-RA,OVC,1700,,,,,,,,,,,,,,,,,,,METAR,3.0
ENBL 252120Z 34006KT 310V030 9999 SCT035 M00/M03 Q1006,ENBL,2023-04-25T21:20:00Z,61.4,5.77,0.0,-3.0,340,6,,6.21,29.704725,,,,,,,,,,,SCT,3500,,,,,,,VFR,,,,,,,,,,,,METAR,313.0
ENAT 252120Z 23003KT 210V270 9999 FEW030 M03/M08 Q1017 RMK WIND 700FT 16006KT,ENAT,2023-04-25T21:20:00Z,69.97,23.37,-3.0,-8.0,230,3,,6.21,30.029528,,,,,,,,,,,FEW,3000,,,,,,,VFR,,,,,,,,,,,,METAR,3.0
ENAN 252120Z 07016KT CAVOK 02/M08 Q1013,ENAN,2023-04-25T21:20:00Z,69.3,16.13,2.0,-8.0,70,16,,6.21,29.911417,,,,,,,,,,,CAVOK,,,,,,,,VFR,,,,,,,,,,,,METAR,13.0
ELLX 252120Z 33004KT 290V350 CAVOK 03/00 Q1017 NOSIG,ELLX,2023-04-25T21:20:00Z,49.63,6.2,3.0,0.0,330,4,,6.21,30.029528,,,,,,TRUE,,,,,CAVOK,,,,,,,,VFR,,,,,,,,,,,,METAR,374.0
EKYT 252120Z AUTO 29012KT 270V330 9999 FEW042/// 06/01 Q1004,EKYT,2023-04-25T21:20:00Z,57.1,9.87,6.0,1.0,290,12,,6.21,29.64567,,,TRUE,,,,,,,,FEW,4200,,,,,,,VFR,,,,,,,,,,,,METAR,2.0
EKVG 252120Z AUTO 34010KT 4800 -SN BKN016/// M00/M03 Q1021 RMK BKN021/// WIND SKEID 35010KT 330V030,EKVG,2023-04-25T21:20:00Z,62.07,-7.27,0.0,-3.0,340,10,,2.98,30.147638,,,TRUE,,,,,,,-SN,BKN,1600,,,,,,,IFR,,,,,,,,,,,,SPECI,89.0
EKVD 252120Z AUTO 29011KT //// ///////// 04/00 Q1010,EKVD,2023-04-25T21:20:00Z,55.43,9.32,4.0,0.0,290,11,,,29.822834,,,TRUE,,,,,,,,,,,,,,,,,,,,,,,,,,,,SPECI,41.0
EKSP 252120Z 29014KT 9999 FEW035 SCT046 04/M00 Q1010,EKSP,2023-04-25T21:20:00Z,55.22,9.27,4.0,0.0,290,14,,6.21,29.822834,,,,,,,,,,,FEW,3500,SCT,4600,,,,,VFR,,,,,,,,,,,,METAR,40.0
EKSB 252120Z AUTO 28009KT 250V310 9999 FEW033/// 05/01 Q1010,EKSB,2023-04-25T21:20:00Z,54.97,9.8,5.0,1.0,280,9,,6.21,29.822834,,,TRUE,,,,,,,,FEW,3300,,,,,,,VFR,,,,,,,,,,,,METAR,23.0
EKRS 252120Z AUTO 29009KT 200V340 9999 OVC045/// 06/02 Q1007,EKRS,2023-04-25T21:20:00Z,55.42,11.8,6.0,2.0,290,9,,6.21,29.734253,,,TRUE,,,,,,,,OVC,4500,,,,,,,VFR,,,,,,,,,,,,METAR,34.0
EKRN 252120Z AUTO 27014KT 9999 FEW035/// OVC054/// 07/03 Q1006,EKRN,2023-04-25T21:20:00Z,55.07,14.75,7.0,3.0,270,14,,6.21,29.704725,,,TRUE,,,,,,,,FEW,3500,OVC,5400,,,,,VFR,,,,,,,,,,,,METAR,14.0
EKRK 252120Z AUTO 28010KT 9999 BKN043/// 06/M02 Q1006,EKRK,2023-04-25T21:20:00Z,55.58,12.13,6.0,-2.0,280,10,,6.21,29.704725,,,TRUE,,,,,,,,BKN,4300,,,,,,,VFR,,,,,,,,,,,,METAR,40.0
EKKA 252120Z AUTO 29015KT 9999 BKN030/// 05/M00 Q1008,EKKA,2023-04-25T21:20:00Z,56.3,9.12,5.0,0.0,290,15,,6.21,29.763779,,,TRUE,,,,,,,,BKN,3000,,,,,,,MVFR,,,,,,,,,,,,METAR,50.0
EKEB 252120Z AUTO 30016KT 9999 FEW046/// 05/M00 Q1010,EKEB,2023-04-25T21:20:00Z,55.52,8.55,5.0,0.0,300,16,,6.21,29.822834,,,TRUE,,,,,,,,FEW,4600,,,,,,,VFR,,,,,,,,,,,,METAR,29.0
EKCH 252120Z AUTO 27018KT 9999 NCD 06/M01 Q1006 TEMPO 28017G28KT,EKCH,2023-04-25T21:20:00Z,55.62,12.67,6.0,-1.0,270,18,,6.21,29.704725,,,TRUE,,,,,,,,CLR,,,,,,,,VFR,,,,,,,,,,,,SPECI,4.0
EKBI 252120Z AUTO 29015KT 9999 SCT033/// 04/M02 Q1009,EKBI,2023-04-25T21:20:00Z,55.73,9.15,4.0,-2.0,290,15,,6.21,29.793306,,,TRUE,,,,,,,,SCT,3300,,,,,,,VFR,,,,,,,,,,,,METAR,67.0
EKAH 252120Z AUTO 27016KT 9999 NCD 05/01 Q1006,EKAH,2023-04-25T21:20:00Z,56.28,10.62,5.0,1.0,270,16,,6.21,29.704725,,,TRUE,,,,,,,,CLR,,,,,,,,VFR,,,,,,,,,,,,METAR,25.0
EGTK 252120Z 03002KT CAVOK 06/00 Q1019,EGTK,2023-04-25T21:20:00Z,51.83,-1.32,6.0,0.0,30,2,,6.21,30.088583,,,,,,,,,,,CAVOK,,,,,,,,VFR,,,,,,,,,,,,METAR,78.0
EGTE 252120Z 06003KT CAVOK 07/02 Q1018,EGTE,2023-04-25T21:20:00Z,50.73,-3.42,7.0,2.0,60,3,,6.21,30.059055,,,,,,,,,,,CAVOK,,,,,,,,VFR,,,,,,,,,,,,METAR,30.0
EGSY 252120Z AUTO 16003KT 110V220 9999 NCD 08/02 Q1018,EGSY,2023-04-25T21:20:00Z,51.4,-3.43,8.0,2.0,160,3,,6.21,30.059055,,,TRUE,,,,,,,,CLR,,,,,,,,VFR,,,,,,,,,,,,METAR,46.0
EGSS 252120Z AUTO 13007KT 110V280 9999 NCD 06/02 Q1020,EGSS,2023-04-25T21:20:00Z,51.88,0.22,6.0,2.0,130,7,,6.21,30.11811,,,TRUE,,,,,,,,CLR,,,,,,,,VFR,,,,,,,,,,,,METAR,101.0
EGSH 252120Z 17001KT CAVOK 04/01 Q1020 NOSIG,EGSH,2023-04-25T21:20:00Z,52.68,1.28,4.0,1.0,170,1,,6.21,30.11811,,,,,,TRUE,,,,,CAVOK,,,,,,,,VFR,,,,,,,,,,,,METAR,21.0
EGPO 252120Z AUTO 32002KT 9999 NCD 02/M02 Q1020,EGPO,2023-04-25T21:20:00Z,58.22,-6.32,2.0,-2.0,320,2,,6.21,30.11811,,,TRUE,,,,,,,,CLR,,,,,,,,VFR,,,,,,,,,,,,METAR,10.0
EGPN 252120Z VRB02KT 9999 FEW035 06/M01 Q1019,EGPN,2023-04-25T21:20:00Z,56.45,-3.02,6.0,-1.0,0,2,,6.21,30.088583,,,,,,,,,,,FEW,3500,,,,,,,VFR,,,,,,,,,,,,METAR,4.0
EGPL 252120Z AUTO 05008KT 9999 NCD 03/00 Q1020,EGPL,2023-04-25T21:20:00Z,57.47,-7.37,3.0,0.0,50,8,,6.21,30.11811,,,TRUE,,,,,,,,CLR,,,,,,,,VFR,,,,,,,,,,,,METAR,3.0
EGPK 252120Z 08003KT 9999 FEW035 04/M01 Q1019,EGPK,2023-04-25T21:20:00Z,55.5,-4.58,4.0,-1.0,80,3,,6.21,30.088583,,,,,,,,,,,FEW,3500,,,,,,,VFR,,,,,,,,,,,,METAR,14.0
EGPH 252120Z VRB01KT CAVOK 05/00 Q1018,EGPH,2023-04-25T21:20:00Z,55.95,-3.35,5.0,0.0,0,1,,6.21,30.059055,,,,,,,,,,,CAVOK,,,,,,,,VFR,,,,,,,,,,,,METAR,29.0
EGPF 252120Z AUTO 24007KT 9999 NCD 02/M02 Q1019,EGPF,2023-04-25T21:20:00Z,55.87,-4.42,2.0,-2.0,240,7,,6.21,30.088583,,,TRUE,,,,,,,,CLR,,,,,,,,VFR,,,,,,,,,,,,METAR,8.0
EGPE 252120Z AUTO 02004KT 9999 FEW043/// 03/M01 Q1020,EGPE,2023-04-25T21:20:00Z,57.53,-4.05,3.0,-1.0,20,4,,6.21,30.11811,,,TRUE,,,,,,,,FEW,4300,,,,,,,VFR,,,,,,,,,,,,METAR,7.0
EGPD 252120Z AUTO 29003KT 260V330 9999 NCD 02/M02 Q1019,EGPD,2023-04-25T21:20:00Z,57.2,-2.22,2.0,-2.0,290,3,,6.21,30.088583,,,TRUE,,,,,,,,CLR,,,,,,,,VFR,,,,,,,,,,,,METAR,65.0
EGPC 252120Z AUTO 27009KT 9999 SCT049/// 01/M01 Q1019,EGPC,2023-04-25T21:20:00Z,58.45,-3.08,1.0,-1.0,270,9,,6.21,30.088583,,,TRUE,,,,,,,,SCT,4900,,,,,,,VFR,,,,,,,,,,,,METAR,38.0
EGPB 252120Z AUTO 36007KT 9999 FEW022/// 02/M01 Q1017,EGPB,2023-04-25T21:20:00Z,59.87,-1.3,2.0,-1.0,360,7,,6.21,30.029528,,,TRUE,,,,,,,,FEW,2200,,,,,,,VFR,,,,,,,,,,,,METAR,2.0
EGPA 252120Z AUTO 32008KT 9999 NCD 03/M01 Q1018,EGPA,2023-04-25T21:20:00Z,58.95,-2.9,3.0,-1.0,320,8,,6.21,30.059055,,,TRUE,,,,,,,,CLR,,,,,,,,VFR,,,,,,,,,,,,METAR,15.0
EGNX 252120Z 11009KT CAVOK 06/01 Q1019,EGNX,2023-04-25T21:20:00Z,52.82,-1.32,6.0,1.0,110,9,,6.21,30.088583,,,,,,,,,,,CAVOK,,,,,,,,VFR,,,,,,,,,,,,METAR,91.0
EGNT 252120Z 21002KT CAVOK 02/M00 Q1019,EGNT,2023-04-25T21:20:00Z,55.03,-1.7,2.0,0.0,210,2,,6.21,30.088583,,,,,,,,,,,CAVOK,,,,,,,,VFR,,,,,,,,,,,,METAR,77.0
EGNM 252120Z 11009KT CAVOK 04/M01 Q1019,EGNM,2023-04-25T21:20:00Z,53.87,-1.65,4.0,-1.0,110,9,,6.21,30.088583,,,,,,,,,,,CAVOK,,,,,,,,VFR,,,,,,,,,,,,METAR,221.0
EGNJ 252120Z AUTO VRB02KT //// // ///////// 03/01 Q1020,EGNJ,2023-04-25T21:20:00Z,53.57,-0.35,3.0,1.0,0,2,,,30.11811,,,TRUE,,,,,,,,,,,,,,,,,,,,,,,,,,,,METAR,23.0
EGMD 252120Z AUTO 10008KT 9999 NCD 07/03 Q1020,EGMD,2023-04-25T21:20:00Z,50.95,0.93,7.0,3.0,100,8,,6.21,30.11811,,,TRUE,,,,,,,,CLR,,,,,,,,VFR,,,,,,,,,,,,METAR,4.0
EGLL 252120Z AUTO 18006KT 9999 NCD 08/00 Q1019,EGLL,2023-04-25T21:20:00Z,51.48,-0.45,8.0,0.0,180,6,,6.21,30.088583,,,TRUE,,,,,,,,CLR,,,,,,,,VFR,,,,,,,,,,,,METAR,26.0
EGLF 252120Z AUTO 19003KT 9999 NCD 07/01 Q1019,EGLF,2023-04-25T21:20:00Z,51.28,-0.77,7.0,1.0,190,3,,6.21,30.088583,,,TRUE,,,,,,,,CLR,,,,,,,,VFR,,,,,,,,,,,,METAR,65.0
EGLC 252120Z AUTO 15005KT 9999 NCD 08/02 Q1020,EGLC,2023-04-25T21:20:00Z,51.5,0.05,8.0,2.0,150,5,,6.21,30.11811,,,TRUE,,,,,,,,CLR,,,,,,,,VFR,,,,,,,,,,,,METAR,10.0
EGKK 252120Z 12002KT CAVOK 06/01 Q1019,EGKK,2023-04-25T21:20:00Z,51.13,-0.18,6.0,1.0,120,2,,6.21,30.088583,,,,,,,,,,,CAVOK,,,,,,,,VFR,,,,,,,,,,,,METAR,58.0
EGKB 252120Z 15007KT CAVOK 05/01 Q1019,EGKB,2023-04-25T21:20:00Z,51.32,0.02,5.0,1.0,150,7,,6.21,30.088583,,,,,,,,,,,CAVOK,,,,,,,,VFR,,,,,,,,,,,,METAR,183.0
EGJJ 252120Z AUTO 09015KT 9999 NCD 08/03 Q1017,EGJJ,2023-04-25T21:20:00Z,49.22,-2.2,8.0,3.0,90,15,,6.21,30.029528,,,TRUE,,,,,,,,CLR,,,,,,,,VFR,,,,,,,,,,,,METAR,84.0
EGHQ 252120Z AUTO 11011KT 9999 NCD 07/00 Q1017,EGHQ,2023-04-25T21:20:00Z,50.43,-5.0,7.0,0.0,110,11,,6.21,30.029528,,,TRUE,,,,,,,,CLR,,,,,,,,VFR,,,,,,,,,,,,METAR,101.0
EGHH 252120Z 07003KT CAVOK 05/01 Q1019,EGHH,2023-04-25T21:20:00Z,50.78,-1.83,5.0,1.0,70,3,,6.21,30.088583,,,,,,,,,,,CAVOK,,,,,,,,VFR,,,,,,,,,,,,METAR,9.0
EGGW 252120Z AUTO 13003KT 9999 NCD 04/M02 Q1019,EGGW,2023-04-25T21:20:00Z,51.87,-0.37,4.0,-2.0,130,3,,6.21,30.088583,,,TRUE,,,,,,,,CLR,,,,,,,,VFR,,,,,,,,,,,,METAR,159.0
EGGP 252120Z 04005KT CAVOK 07/M02 Q1019,EGGP,2023-04-25T21:20:00Z,53.33,-2.85,7.0,-2.0,40,5,,6.21,30.088583,,,,,,,,,,,CAVOK,,,,,,,,VFR,,,,,,,,,,,,METAR,23.0
EGGD 252120Z AUTO 18004KT 9999 NCD 06/01 Q1018,EGGD,2023-04-25T21:20:00Z,51.37,-2.72,6.0,1.0,180,4,,6.21,30.059055,,,TRUE,,,,,,,,CLR,,,,,,,,VFR,,,,,,,,,,,,METAR,182.0
EGFF 252120Z AUTO 18005KT 150V210 9999 NCD 07/02 Q1018,EGFF,2023-04-25T21:20:00Z,51.38,-3.35,7.0,2.0,180,5,,6.21,30.059055,,,TRUE,,,,,,,,CLR,,,,,,,,VFR,,,,,,,,,,,,METAR,65.0
EGEC 252120Z AUTO 10002KT //// // ///////// ///// Q////,EGEC,2023-04-25T21:20:00Z,55.43,-5.68,,,100,2,,,,,,TRUE,,,,,,,,,,,,,,,,,,,,,,,,,,,,METAR,10.0
EGCK 252120Z AUTO 04005KT 9999 NCD 07/02 Q1018,EGCK,2023-04-25T21:20:00Z,53.1,-4.33,7.0,2.0,40,5,,6.21,30.059055,,,TRUE,,,,,,,,CLR,,,,,,,,VFR,,,,,,,,,,,,METAR,6.0
EGCC 252120Z AUTO 07003KT 9999 NCD 06/M01 Q1019 NOSIG,EGCC,2023-04-25T21:20:00Z,53.35,-2.27,6.0,-1.0,70,3,,6.21,30.088583,,,TRUE,,,TRUE,,,,,CLR,,,,,,,,VFR,,,,,,,,,,,,METAR,78.0
EGBB 252120Z 19002KT CAVOK 07/01 Q1019,EGBB,2023-04-25T21:20:00Z,52.47,-1.75,7.0,1.0,190,2,,6.21,30.088583,,,,,,,,,,,CAVOK,,,,,,,,VFR,,,,,,,,,,,,METAR,91.0
EGAC 252120Z AUTO 06003KT 9999 BKN046 08/03 Q1018,EGAC,2023-04-25T21:20:00Z,54.62,-5.87,8.0,3.0,60,3,,6.21,30.059055,,,TRUE,,,,,,,,BKN,4600,,,,,,,VFR,,,,,,,,,,,,METAR,2.0
EGAA 252120Z AUTO 11003KT 9999 SCT043 06/03 Q1018,EGAA,2023-04-25T21:20:00Z,54.65,-6.22,6.0,3.0,110,3,,6.21,30.059055,,,TRUE,,,,,,,,SCT,4300,,,,,,,VFR,,,,,,,,,,,,METAR,65.0
EFVA 252120Z AUTO 19004KT 9999 -SHRA OVC003 07/06 Q1002,EFVA,2023-04-25T21:20:00Z,63.05,21.77,7.0,6.0,190,4,,6.21,29.586615,,,TRUE,,,,,,,-SHRA,OVC,300,,,,,,,LIFR,,,,,,,,,,,,METAR,4.0
EFUT 252120Z AUTO 11007KT CAVOK 09/02 Q1004,EFUT,2023-04-25T21:20:00Z,60.88,26.93,9.0,2.0,110,7,,6.21,29.64567,,,TRUE,,,,,,,,CAVOK,,,,,,,,VFR,,,,,,,,,,,,METAR,104.0
EFTU 252120Z AUTO VRB01KT 4100 1000 R26/P2000D BR NSC 07/07 Q1002,EFTU,2023-04-25T21:20:00Z,60.52,22.27,7.0,7.0,0,1,,2.55,29.586615,,,TRUE,,,,,,,BR,CLR,,,,,,,,IFR,,,,,,,,,,,,SPECI,47.0
EFTP 252120Z AUTO VRB01KT CAVOK 06/05 Q1002,EFTP,2023-04-25T21:20:00Z,61.42,23.62,6.0,5.0,0,1,,6.21,29.586615,,,TRUE,,,,,,,,CAVOK,,,,,,,,VFR,,,,,,,,,,,,METAR,111.0
EFSI 252120Z AUTO 13003KT 1000 R32/2000N SHRA FEW020 //////CB 07/07 Q1002,EFSI,2023-04-25T21:20:00Z,62.7,22.83,7.0,7.0,130,3,,0.62,29.586615,,,TRUE,,,,,,,SHRA,FEW,2000,,,,,,,LIFR,,,,,,,,,,,,SPECI,90.0
EFSA 252120Z AUTO VRB01KT 2000 BCFG NCD 03/03 Q1005,EFSA,2023-04-25T21:20:00Z,61.95,28.93,3.0,3.0,0,1,,1.24,29.675198,,,TRUE,,,,,,,BCFG,CLR,,,,,,,,IFR,,,,,,,,,,,,METAR,90.0
EFRO 252120Z AUTO 08014KT 6000 -SN SCT004 OVC026 M01/M02 Q1008,EFRO,2023-04-25T21:20:00Z,66.57,25.82,-1.0,-2.0,80,14,,3.73,29.763779,,,TRUE,,,,,,,-SN,SCT,400,OVC,2600,,,,,MVFR,,,,,,,,,,,,METAR,201.0
EFPO 252120Z AUTO 30003KT 270V330 9999 -SHRA OVC003 //////CB 07/06 Q1002,EFPO,2023-04-25T21:20:00Z,61.47,21.8,7.0,6.0,300,3,,6.21,29.586615,,,TRUE,,,,,,,-SHRA,OVC,300,,,,,,,LIFR,,,,,,,,,,,,SPECI,10.0
EFOU 252120Z AUTO 10018KT 9999 -SNRA SCT005 BKN020 //////CB 02/01 Q1005 RESHRA,EFOU,2023-04-25T21:20:00Z,64.92,25.37,2.0,1.0,100,18,,6.21,29.675198,,,TRUE,,,,,,,-SN -RA,SCT,500,BKN,2000,,,,,MVFR,,,,,,,,,,,,SPECI,15.0
EFMI 252120Z AUTO VRB02KT CAVOK 04/03 Q1004,EFMI,2023-04-25T21:20:00Z,61.68,27.2,4.0,3.0,0,2,,6.21,29.64567,,,TRUE,,,,,,,,CAVOK,,,,,,,,VFR,,,,,,,,,,,,METAR,99.0
EFMA 252120Z AUTO 13005KT 1300 R21/1500U BCFG VV002 06/06 Q1001,EFMA,2023-04-25T21:20:00Z,60.12,19.9,6.0,6.0,130,5,,0.81,29.557087,,,TRUE,,,,,,,BCFG,OVX,0,,,,,,,LIFR,,,,,,,,,,,200,SPECI,6.0
EFLP 252120Z AUTO 09004KT CAVOK 09/01 Q1005,EFLP,2023-04-25T21:20:00Z,61.03,28.15,9.0,1.0,90,4,,6.21,29.675198,,,TRUE,,,,,,,,CAVOK,,,,,,,,VFR,,,,,,,,,,,,METAR,102.0
EFKU 252120Z AUTO 10005KT CAVOK 02/01 Q1006,EFKU,2023-04-25T21:20:00Z,63.02,27.8,2.0,1.0,100,5,,6.21,29.704725,,,TRUE,,,,,,,,CAVOK,,,,,,,,VFR,,,,,,,,,,,,METAR,92.0
EFKT 252120Z AUTO 05010KT CAVOK 01/M09 Q1010,EFKT,2023-04-25T21:20:00Z,67.7,24.85,1.0,-9.0,50,10,,6.21,29.822834,,,TRUE,,,,,,,,CAVOK,,,,,,,,VFR,,,,,,,,,,,,METAR,190.0
EFKS 252120Z AUTO 09010KT 050V120 9999 -SN FEW007 OVC029 M02/M04 Q1010,EFKS,2023-04-25T21:20:00Z,66.0,29.23,-2.0,-4.0,90,10,,6.21,29.822834,,,TRUE,,,,,,,-SN,FEW,700,OVC,2900,,,,,MVFR,,,,,,,,,,,,METAR,270.0
EFKK 252120Z AUTO 17003KT 1800 1400 R01/P2000U BR FEW002 04/04 Q1002,EFKK,2023-04-25T21:20:00Z,63.72,23.13,4.0,4.0,170,3,,1.12,29.586615,,,TRUE,,,,,,,BR,FEW,200,,,,,,,IFR,,,,,,,,,,,,SPECI,25.0
EFKI 252120Z AUTO 09011KT 9999 OVC004 01/00 Q1007,EFKI,2023-04-25T21:20:00Z,64.27,27.67,1.0,0.0,90,11,,6.21,29.734253,,,TRUE,,,,,,,,OVC,400,,,,,,,LIFR,,,,,,,,,,,,METAR,132.0
EFKE 252120Z AUTO 09012KT 9000 -SNRA OVC009 //////CB 01/M00 Q1006 RESHRA,EFKE,2023-04-25T21:20:00Z,65.78,24.57,1.0,0.0,90,12,,5.59,29.704725,,,TRUE,,,,,,,-SN -RA,OVC,900,,,,,,,IFR,,,,,,,,,,,,SPECI,15.0
EFJY 252120Z AUTO VRB01KT CAVOK 04/04 Q1003,EFJY,2023-04-25T21:20:00Z,62.4,25.68,4.0,4.0,0,1,,6.21,29.616142,,,TRUE,,,,,,,,CAVOK,,,,,,,,VFR,,,,,,,,,,,,METAR,139.0
EFJO 252120Z AUTO 12004KT CAVOK 05/03 Q1006,EFJO,2023-04-25T21:20:00Z,62.67,29.62,5.0,3.0,120,4,,6.21,29.704725,,,TRUE,,,,,,,,CAVOK,,,,,,,,VFR,,,,,,,,,,,,METAR,118.0
EFIV 252120Z AUTO 04006KT CAVOK M02/M08 Q1015,EFIV,2023-04-25T21:20:00Z,68.62,27.42,-2.0,-8.0,40,6,,6.21,29.970472,,,TRUE,,,,,,,,CAVOK,,,,,,,,VFR,,,,,,,,,,,,METAR,145.0
EFHK 252120Z 05006KT CAVOK 10/04 Q1002 NOSIG,EFHK,2023-04-25T21:20:00Z,60.32,24.97,10.0,4.0,50,6,,6.21,29.586615,,,,,,TRUE,,,,,CAVOK,,,,,,,,VFR,,,,,,,,,,,,METAR,56.0
EFHA 252120Z AUTO 14005KT CAVOK 09/04 Q1002,EFHA,2023-04-25T21:20:00Z,61.85,24.8,9.0,4.0,140,5,,6.21,29.586615,,,TRUE,,,,,,,,CAVOK,,,,,,,,VFR,,,,,,,,,,,,METAR,144.0
EFET 252120Z AUTO 05008KT CAVOK M02/M08 Q1012,EFET,2023-04-25T21:20:00Z,68.37,23.43,-2.0,-8.0,50,8,,6.21,29.88189,,,TRUE,,,,,,,,CAVOK,,,,,,,,VFR,,,,,,,,,,,,METAR,300.0
EETU 252120Z AUTO 14005KT 9999 SCT100/// 12/03 Q1003,EETU,2023-04-25T21:20:00Z,58.32,26.68,12.0,3.0,140,5,,6.21,29.616142,,,TRUE,,,,,,,,SCT,10000,,,,,,,VFR,,,,,,,,,,,,METAR,67.0
EETN 252120Z 12005KT CAVOK 11/03 Q1002 NOSIG,EETN,2023-04-25T21:20:00Z,59.4,24.82,11.0,3.0,120,5,,6.21,29.586615,,,,,,TRUE,,,,,CAVOK,,,,,,,,VFR,,,,,,,,,,,,METAR,41.0
EEPU 252120Z AUTO 20003KT 9999 NCD 08/05 Q1002,EEPU,2023-04-25T21:20:00Z,58.42,24.47,8.0,5.0,200,3,,6.21,29.586615,,,TRUE,,,,,,,,CLR,,,,,,,,VFR,,,,,,,,,,,,METAR,13.0
EEKE 252120Z AUTO 26004KT 190V330 9999NDV SCT025 06/04 Q1003,EEKE,2023-04-25T21:20:00Z,58.23,22.52,6.0,4.0,260,4,,,29.616142,,,TRUE,,,,,,,,SCT,2500,,,,,,,,,,,,,,,,,,,METAR,4.0
EDXW 252120Z AUTO 32020KT 9999 // SCT026/// BKN033/// 06/01 Q1012,EDXW,2023-04-25T21:20:00Z,54.92,8.33,6.0,1.0,320,20,,6.21,29.88189,,,TRUE,,,,,,,,SCT,2600,BKN,3300,,,,,VFR,,,,,,,,,,,,SPECI,8.0
EDWE 252120Z AUTO 29005KT 9999 // FEW031/// SCT046/// 05/01 Q1016,EDWE,2023-04-25T21:20:00Z,53.38,7.23,5.0,1.0,290,5,,6.21,30.0,,,TRUE,,,,,,,,FEW,3100,SCT,4600,,,,,VFR,,,,,,,,,,,,SPECI,0.0
EDVK 252120Z AUTO 26005KT 9999 // SCT048/// BKN083/// 04/01 Q1016,EDVK,2023-04-25T21:20:00Z,51.4,9.37,4.0,1.0,260,5,,6.21,30.0,,,TRUE,,,,,,,,SCT,4800,BKN,8300,,,,,VFR,,,,,,,,,,,,SPECI,277.0
EDVE 252120Z AUTO 28006KT 9999 SCT041/// BKN050/// 04/00 Q1015,EDVE,2023-04-25T21:20:00Z,52.32,10.55,4.0,0.0,280,6,,6.21,29.970472,,,TRUE,,,,,,,,SCT,4100,BKN,5000,,,,,VFR,,,,,,,,,,,,METAR,83.0
EDTY 252120Z AUTO 23003KT 9999 // OVC084/// 05/03 Q1016,EDTY,2023-04-25T21:20:00Z,49.12,9.78,5.0,3.0,230,3,,6.21,30.0,,,TRUE,,,,,,,,OVC,8400,,,,,,,VFR,,,,,,,,,,,,SPECI,398.0
EDTL 252120Z AUTO 33002KT 9999 // FEW013/// BKN025/// OVC031/// 07/07 Q1018,EDTL,2023-04-25T21:20:00Z,48.37,7.83,7.0,7.0,330,2,,6.21,30.059055,,,TRUE,,,,,,,,FEW,1300,BKN,2500,OVC,3100,,,MVFR,,,,,,,,,,,,METAR,152.0
EDSB 252120Z AUTO 23006KT 190V250 4100 SCT007/// BKN036/// OVC053/// 07/04 Q1017,EDSB,2023-04-25T21:20:00Z,48.78,8.08,7.0,4.0,230,6,,2.55,30.029528,,,TRUE,,,,,,,,SCT,700,BKN,3600,OVC,5300,,,IFR,,,,,,,,,,,,METAR,122.0
EDQM 252120Z AUTO 27004KT 9999 // SCT063/// OVC079/// 02/M01 Q1014,EDQM,2023-04-25T21:20:00Z,50.3,11.85,2.0,-1.0,270,4,,6.21,29.940945,,,TRUE,,,,,,,,SCT,6300,OVC,7900,,,,,VFR,,,,,,,,,,,,SPECI,578.0
EDNY 252120Z AUTO VRB02KT 9999 FEW042/// BKN059/// OVC073/// 06/06 Q1016,EDNY,2023-04-25T21:20:00Z,47.67,9.52,6.0,6.0,0,2,,6.21,30.0,,,TRUE,,,,,,,,FEW,4200,BKN,5900,OVC,7300,,,VFR,,,,,,,,,,,,METAR,411.0
EDMO 252120Z AUTO 21005KT 9999 // SCT024/// OVC029/// 05/04 Q1016,EDMO,2023-04-25T21:20:00Z,48.07,11.27,5.0,4.0,210,5,,6.21,30.0,,,TRUE,,,,,,,,SCT,2400,OVC,2900,,,,,MVFR,,,,,,,,,,,,SPECI,587.0
EDMA 252120Z AUTO 31007KT 9999 // BKN029/// BKN036/// OVC055/// 05/04 Q1016,EDMA,2023-04-25T21:20:00Z,48.42,10.92,5.0,4.0,310,7,,6.21,30.0,,,TRUE,,,,,,,,BKN,2900,BKN,3600,OVC,5500,,,MVFR,,,,,,,,,,,,SPECI,462.0
EDLW 252120Z AUTO 24002KT 9999 // FEW075/// 03/M01 Q1017,EDLW,2023-04-25T21:20:00Z,51.52,7.62,3.0,-1.0,240,2,,6.21,30.029528,,,TRUE,,,,,,,,FEW,7500,,,,,,,VFR,,,,,,,,,,,,SPECI,122.0
EDLV 252120Z 28003KT CAVOK 04/01 Q1018,EDLV,2023-04-25T21:20:00Z,51.6,6.15,4.0,1.0,280,3,,6.21,30.059055,,,,,,,,,,,CAVOK,,,,,,,,VFR,,,,,,,,,,,,METAR,27.0
EDLP 252120Z 27003KT 240V300 CAVOK 03/M01 Q1017,EDLP,2023-04-25T21:20:00Z,51.62,8.62,3.0,-1.0,270,3,,6.21,30.029528,,,,,,,,,,,CAVOK,,,,,,,,VFR,,,,,,,,,,,,METAR,211.0
EDLN 252120Z AUTO VRB02KT 9999 // NCD 03/M00 Q1018,EDLN,2023-04-25T21:20:00Z,51.23,6.5,3.0,0.0,0,2,,6.21,30.059055,,,TRUE,,,,,,,,CLR,,,,,,,,VFR,,,,,,,,,,,,SPECI,38.0
EDJA 252120Z AUTO 21008KT 9999 // SCT040/// OVC060/// 04/03 Q1016,EDJA,2023-04-25T21:20:00Z,47.98,10.23,4.0,3.0,210,8,,6.21,30.0,,,TRUE,,,,,,,,SCT,4000,OVC,6000,,,,,VFR,,,,,,,,,,,,SPECI,625.0
EDHL 252120Z AUTO 27006KT 240V300 9999 // SCT027/// BKN036/// 04/01 Q1013,EDHL,2023-04-25T21:20:00Z,53.8,10.72,4.0,1.0,270,6,,6.21,29.911417,,,TRUE,,,,,,,,SCT,2700,BKN,3600,,,,,VFR,,,,,,,,,,,,SPECI,13.0
EDHK 252120Z AUTO 28009KT 9999 // FEW030/// 04/01 Q1012,EDHK,2023-04-25T21:20:00Z,54.38,10.15,4.0,1.0,280,9,,6.21,29.88189,,,TRUE,,,,,,,,FEW,3000,,,,,,,VFR,,,,,,,,,,,,METAR,24.0
EDHI 252120Z AUTO 28009KT 260V320 9999 // SCT019/// BKN032/// BKN047/// 04/02 Q1014,EDHI,2023-04-25T21:20:00Z,53.53,9.83,4.0,2.0,280,9,,6.21,29.940945,,,TRUE,,,,,,,,SCT,1900,BKN,3200,BKN,4700,,,VFR,,,,,,,,,,,,SPECI,5.0
EDGS 252120Z AUTO 32005KT 9999 // SCT043/// BKN058/// 02/M01 Q1015,EDGS,2023-04-25T21:20:00Z,50.7,8.08,2.0,-1.0,320,5,,6.21,29.970472,,,TRUE,,,,,,,,SCT,4300,BKN,5800,,,,,VFR,,,,,,,,,,,,METAR,595.0
EDFM 252120Z AUTO 31006KT 9999 // OVC086/// 09/M00 Q1017,EDFM,2023-04-25T21:20:00Z,49.47,8.52,9.0,0.0,310,6,,6.21,30.029528,,,TRUE,,,,,,,,OVC,8600,,,,,,,VFR,,,,,,,,,,,,SPECI,94.0
EDFH 252120Z 31003KT 270V340 CAVOK 04/M01 Q1017,EDFH,2023-04-25T21:20:00Z,49.95,7.27,4.0,-1.0,310,3,,6.21,30.029528,,,,,,,,,,,CAVOK,,,,,,,,VFR,,,,,,,,,,,,METAR,494.0
EDDW 252120Z AUTO 28009KT 9999 FEW032 04/01 Q1015,EDDW,2023-04-25T21:20:00Z,53.03,8.8,4.0,1.0,280,9,,6.21,29.970472,,,TRUE,,,,,,,,FEW,3200,,,,,,,VFR,,,,,,,,,,,,METAR,5.0
EDDV 252120Z AUTO 27005KT CAVOK 04/00 Q1015,EDDV,2023-04-25T21:20:00Z,52.47,9.68,4.0,0.0,270,5,,6.21,29.970472,,,TRUE,,,,,,,,CAVOK,,,,,,,,VFR,,,,,,,,,,,,METAR,53.0
EDDS 252120Z AUTO 28004KT 9999 -RA SCT039 BKN048 06/04 Q1016,EDDS,2023-04-25T21:20:00Z,48.68,9.22,6.0,4.0,280,4,,6.21,30.0,,,TRUE,,,,,,,-RA,SCT,3900,BKN,4800,,,,,VFR,,,,,,,,,,,,METAR,374.0
EDDR 252120Z AUTO 35004KT CAVOK 05/M00 Q1017,EDDR,2023-04-25T21:20:00Z,49.22,7.1,5.0,0.0,350,4,,6.21,30.029528,,,TRUE,,,,,,,,CAVOK,,,,,,,,VFR,,,,,,,,,,,,METAR,317.0
EDDP 252120Z AUTO 29011G21KT 9999 FEW043 06/01 Q1014 NOSIG,EDDP,2023-04-25T21:20:00Z,51.43,12.23,6.0,1.0,290,11,21,6.21,29.940945,,,TRUE,,,TRUE,,,,,FEW,4300,,,,,,,VFR,,,,,,,,,,,,METAR,129.0
EDDN 252120Z AUTO 30004KT 9999 FEW042 BKN049 07/01 Q1016,EDDN,2023-04-25T21:20:00Z,49.5,11.05,7.0,1.0,300,4,,6.21,30.0,,,TRUE,,,,,,,,FEW,4200,BKN,4900,,,,,VFR,,,,,,,,,,,,METAR,312.0
EDDM 252120Z AUTO 26004KT 9999 -RA SCT033 06/05 Q1016 NOSIG,EDDM,2023-04-25T21:20:00Z,48.35,11.82,6.0,5.0,260,4,,6.21,30.0,,,TRUE,,,TRUE,,,,-RA,SCT,3300,,,,,,,VFR,,,,,,,,,,,,METAR,445.0
EDDL 252120Z AUTO VRB02KT CAVOK 04/00 Q1018 NOSIG,EDDL,2023-04-25T21:20:00Z,51.3,6.77,4.0,0.0,0,2,,6.21,30.059055,,,TRUE,,,TRUE,,,,,CAVOK,,,,,,,,VFR,,,,,,,,,,,,METAR,37.0
EDDK 252120Z AUTO 34002KT 9999 FEW048 04/00 Q1018 NOSIG,EDDK,2023-04-25T21:20:00Z,50.87,7.15,4.0,0.0,340,2,,6.21,30.059055,,,TRUE,,,TRUE,,,,,FEW,4800,,,,,,,VFR,,,,,,,,,,,,METAR,92.0
EDDH 252120Z AUTO 29008KT 250V340 9999 FEW020 SCT049 05/02 Q1013 NOSIG,EDDH,2023-04-25T21:20:00Z,53.63,10.0,5.0,2.0,290,8,,6.21,29.911417,,,TRUE,,,TRUE,,,,,FEW,2000,SCT,4900,,,,,VFR,,,,,,,,,,,,METAR,8.0
EDDG 252120Z AUTO 28004KT CAVOK 04/01 Q1017 NOSIG,EDDG,2023-04-25T21:20:00Z,52.13,7.7,4.0,1.0,280,4,,6.21,30.029528,,,TRUE,,,TRUE,,,,,CAVOK,,,,,,,,VFR,,,,,,,,,,,,METAR,46.0
EDDF 252120Z AUTO 22004KT CAVOK 04/M00 Q1017 NOSIG,EDDF,2023-04-25T21:20:00Z,50.05,8.6,4.0,0.0,220,4,,6.21,30.029528,,,TRUE,,,TRUE,,,,,CAVOK,,,,,,,,VFR,,,,,,,,,,,,METAR,113.0
EDDE 252120Z AUTO 29009KT CAVOK 04/01 Q1015,EDDE,2023-04-25T21:20:00Z,50.98,10.97,4.0,1.0,290,9,,6.21,29.970472,,,TRUE,,,,,,,,CAVOK,,,,,,,,VFR,,,,,,,,,,,,METAR,314.0
EDDC 252120Z AUTO 29007KT 260V320 CAVOK 05/M01 Q1013,EDDC,2023-04-25T21:20:00Z,51.13,13.75,5.0,-1.0,290,7,,6.21,29.911417,,,TRUE,,,,,,,,CAVOK,,,,,,,,VFR,,,,,,,,,,,,METAR,227.0
EDDB 252120Z AUTO 26006KT 9999 SCT045 04/00 Q1012 NOSIG,EDDB,2023-04-25T21:20:00Z,52.38,13.53,4.0,0.0,260,6,,6.21,29.88189,,,TRUE,,,TRUE,,,,,SCT,4500,,,,,,,VFR,,,,,,,,,,,,METAR,48.0
EDBC 252120Z AUTO 27009KT 9999 // SCT089/// 04/01 Q1014,EDBC,2023-04-25T21:20:00Z,51.85,11.42,4.0,1.0,270,9,,6.21,29.940945,,,TRUE,,,,,,,,SCT,8900,,,,,,,VFR,,,,,,,,,,,,METAR,178.0
EDAH 252120Z AUTO 26014KT 9999 // NCD 05/01 Q1009,EDAH,2023-04-25T21:20:00Z,53.87,14.15,5.0,1.0,260,14,,6.21,29.793306,,,TRUE,,,,,,,,CLR,,,,,,,,VFR,,,,,,,,,,,,SPECI,22.0
EDAC 252120Z AUTO 30003KT 270V330 9999 // SCT041/// BKN050/// OVC087/// 05/01 Q1014,EDAC,2023-04-25T21:20:00Z,50.98,12.5,5.0,1.0,300,3,,6.21,29.940945,,,TRUE,,,,,,,,SCT,4100,BKN,5000,OVC,8700,,,VFR,,,,,,,,,,,,METAR,193.0
EBOS 252120Z 07002KT 9999 FEW035 05/M01 Q1020 NOSIG,EBOS,2023-04-25T21:20:00Z,51.2,2.87,5.0,-1.0,70,2,,6.21,30.11811,,,,,,TRUE,,,,,FEW,3500,,,,,,,VFR,,,,,,,,,,,,METAR,5.0
EBLG 252120Z VRB02KT CAVOK 04/M00 Q1019 NOSIG,EBLG,2023-04-25T21:20:00Z,50.63,5.45,4.0,0.0,0,2,,6.21,30.088583,,,,,,TRUE,,,,,CAVOK,,,,,,,,VFR,,,,,,,,,,,,METAR,187.0
EBCI 252120Z 35003KT CAVOK 04/M01 Q1019 NOSIG,EBCI,2023-04-25T21:20:00Z,50.47,4.45,4.0,-1.0,350,3,,6.21,30.088583,,,,,,TRUE,,,,,CAVOK,,,,,,,,VFR,,,,,,,,,,,,METAR,176.0
EBBR 252120Z 33004KT CAVOK 03/00 Q1019 NOSIG,EBBR,2023-04-25T21:20:00Z,50.9,4.52,3.0,0.0,330,4,,6.21,30.088583,,,,,,TRUE,,,,,CAVOK,,,,,,,,VFR,,,,,,,,,,,,METAR,49.0
EBAW 252120Z AUTO 34005KT 9999 // VV/// 05/00 Q1019,EBAW,2023-04-25T21:20:00Z,51.2,4.47,5.0,0.0,340,5,,6.21,30.088583,,,TRUE,,,,,,,,OVX,0,,,,,,,LIFR,,,,,,,,,,,,SPECI,7.0
CYAT 252120Z AUTO 01009G15KT 5SM -SN FEW024 OVC039 00/M03 A3028 RMK SLP257,CYAT,2023-04-25T21:20:00Z,52.93,-82.43,0.0,-3.0,10,9,15,5.0,30.280512,1025.7,,TRUE,,,,,,,-SN,FEW,2400,OVC,3900,,,,,MVFR,,,,,,,,,,,,SPECI,4.0
CBBC 252120Z AUTO 19007KT 150V240 9SM BKN038 OVC046 10/05 A3023 RMK SLP239,CBBC,2023-04-25T21:20:00Z,52.18,-128.15,10.0,5.0,190,7,,9.0,30.230314,1023.9,,TRUE,,,,,,,,BKN,3800,OVC,4600,,,,,VFR,,,,,,,,,,,,SPECI,36.0
PGUM 252119Z 07015KT 10SM SCT017 BKN025 27/25 A2984 RMK AO2 RAE02 P0000 T02720250,PGUM,2023-04-25T21:19:00Z,13.48,144.8,27.2,25.0,70,15,,10.0,29.840551,,,,TRUE,,,,,,,SCT,1700,BKN,2500,,,,,MVFR,,,,,,0.005,,,,,,SPECI,74.0
KCAO 252119Z AUTO 19009G30KT 10SM -TSRA BKN050 BKN065 OVC080 12/04 A2980 RMK AO2 PK WND 25030/2111 WSHFT 2059 LTG DSNT N AND S RAB03 PRESFR P0003 T01220044,KCAO,2023-04-25T21:19:00Z,36.45,-103.15,12.2,4.4,190,9,30,10.0,29.799213,,,TRUE,TRUE,,,,,,-TSRA,BKN,5000,BKN,6500,OVC,8000,,,VFR,,,,,,0.03,,,,,,METAR,1517.0
K2V6 252119Z AUTO 09012KT 5SM -DZ SCT011 OVC020 06/05 A2993 RMK AO2,K2V6,2023-04-25T21:19:00Z,40.1,-102.72,6.0,5.0,90,12,,5.0,29.929134,,,TRUE,TRUE,,,,,,-DZ,SCT,1100,OVC,2000,,,,,MVFR,,,,,,,,,,,,METAR,1257.0
SARI 252118Z 19003KT 100V250 5000 -TSRA SCT006 FEW050CB OVC058 18/17 Q1015,SARI,2023-04-25T21:18:00Z,-25.73,-54.47,18.0,17.0,190,3,,3.11,29.970472,,,,,,,,,,-TSRA,SCT,600,FEW,5000,OVC,5800,,,MVFR,,,,,,,,,,,,SPECI,268.0
PAFE 252118Z AUTO 16004KT 10SM FEW019 BKN034 OVC055 06/03 A3010 RMK AO2 RAE13 P0000 $,PAFE,2023-04-25T21:18:00Z,56.97,-133.92,6.0,3.0,160,4,,10.0,30.100393,,,TRUE,TRUE,TRUE,,,,,,FEW,1900,BKN,3400,OVC,5500,,,VFR,,,,,,0.005,,,,,,SPECI,1.0
KI35 252118Z AUTO 00000KT 10SM SCT120 19/M03 A3011 RMK AO2,KI35,2023-04-25T21:18:00Z,36.87,-83.37,19.0,-3.0,0,0,,10.0,30.109253,,,TRUE,TRUE,,,,,,,SCT,12000,,,,,,,VFR,,,,,,,,,,,,METAR,467.0
KFCS 252118Z AUTO 07003KT 3SM -RA BR FEW005 FEW010 SCT014 OVC027 06/04 A2986 RMK AO2 PRESFR SLP120 $,KFCS,2023-04-25T21:18:00Z,38.67,-104.77,6.0,4.0,70,3,,3.0,29.861221,1012.0,,TRUE,TRUE,TRUE,,,,,-RA BR,FEW,500,FEW,1000,SCT,1400,OVC,2700,MVFR,,,,,,,,,,,,METAR,1789.0
KDEN 252118Z 36020G26KT 10SM TS BKN080CB BKN095 BKN120 BKN200 13/04 A2981 RMK TORNADO E2058 AO2 PK WND 35028/2103 LTG DSNT W-NE TSB12 OCNL LTGICCG S-SW TS S-SW MOV N T01280044,KDEN,2023-04-25T21:18:00Z,39.85,-104.65,12.8,4.4,360,20,26,10.0,29.811024,,,,TRUE,,,,,,TS,BKN,8000,BKN,9500,BKN,12000,BKN,20000,VFR,,,,,,,,,,,,METAR,1656.0
KBKF 252118Z 21026G30KT 1 1/2SM +TSRAGR BKN010 OVC020 09/03 A2982 RMK AO2A SLP069,KBKF,2023-04-25T21:18:00Z,39.72,-104.75,9.0,3.0,210,26,30,1.5,29.819881,1006.9,,,TRUE,,,,,,+TSRA +TSGR,BKN,1000,OVC,2000,,,,,IFR,,,,,,,,,,,,METAR,1703.0
KSAF 252117Z 36007KT 10SM VCTS BKN095 13/01 A2984 RMK AO2 LTG DSNT W AND NW T01330006,KSAF,2023-04-25T21:17:00Z,35.62,-106.1,13.3,0.6,360,7,,10.0,29.840551,,,,TRUE,,,,,,VCTS,BKN,9500,,,,,,,VFR,,,,,,,,,,,,SPECI,1918.0
KMNE 252117Z AUTO 10004KT 10SM OVC060 22/12 A2998 RMK AO2,KMNE,2023-04-25T21:17:00Z,32.65,-93.3,22.0,12.0,100,4,,10.0,29.97933,,,TRUE,TRUE,,,,,,,OVC,6000,,,,,,,VFR,,,,,,,,,,,,SPECI,84.0
KJYG 252117Z AUTO 06008KT 10SM 10/M08 A3020 RMK AO2,KJYG,2023-04-25T21:17:00Z,43.98,-94.55,10.0,-8.0,60,8,,10.0,30.200787,,,TRUE,TRUE,,,,,,,,,,,,,,,,,,,,,,,,,,,METAR,323.0
KJXN 252117Z 00000KT 10SM BKN014 BKN019 OVC024 06/02 A3016 RMK AO2 T00610017,KJXN,2023-04-25T21:17:00Z,42.27,-84.47,6.1,1.7,0,0,,10.0,30.159449,,,,TRUE,,,,,,,BKN,1400,BKN,1900,OVC,2400,,,MVFR,,,,,,,,,,,,SPECI,303.0
KCQM 252117Z AUTO 00000KT 10SM CLR 04/M09 A3028 RMK AO2,KCQM,2023-04-25T21:17:00Z,47.82,-92.68,4.0,-9.0,0,0,,10.0,30.280512,,,TRUE,TRUE,,,,,,,CLR,,,,,,,,VFR,,,,,,,,,,,,METAR,406.0
KCLM 252117Z AUTO 32008G14KT 10SM BKN025 12/04 A3029 RMK AO2 T01220044,KCLM,2023-04-25T21:17:00Z,48.12,-123.5,12.2,4.4,320,8,14,10.0,30.28937,,,TRUE,TRUE,,,,,,,BKN,2500,,,,,,,MVFR,,,,,,,,,,,,SPECI,81.0
KBTL 252117Z 00000KT 10SM SCT023 SCT031 07/01 A3016 RMK AO2 T00720011,KBTL,2023-04-25T21:17:00Z,42.32,-85.25,7.2,1.1,0,0,,10.0,30.159449,,,,TRUE,,,,,,,SCT,2300,SCT,3100,,,,,VFR,,,,,,,,,,,,SPECI,282.0
CYQG 252117Z AUTO 00000KT 9SM OVC012 05/02 A3017 RMK RVR MISG SLP225,CYQG,2023-04-25T21:17:00Z,42.27,-82.97,5.0,2.0,0,0,,9.0,30.171259,1022.5,,TRUE,,,,,,,,OVC,1200,,,,,,,MVFR,,,,,,,,,,,,SPECI,189.0
PANV 252116Z AUTO 05014G19KT 10SM -SN BKN025 OVC031 M03/M10 A2962 RMK AO2 SNB14 P0000 FZRANO TSNO,PANV,2023-04-25T21:16:00Z,62.65,-160.18,-3.0,-10.0,50,14,19,10.0,29.619095,,,TRUE,TRUE,,,TRUE,TRUE,,-SN,BKN,2500,OVC,3100,,,,,MVFR,,,,,,0.005,,,,,,METAR,91.0
PAMB 252116Z AUTO 04014KT 3/4SM -SN BR OVC004 M01/M02 A2948 RMK AO2 P0000 FZRANO $,PAMB,2023-04-25T21:16:00Z,58.98,-159.05,-1.0,-2.0,40,14,,0.75,29.480314,,,TRUE,TRUE,TRUE,,,TRUE,,-SN BR,OVC,400,,,,,,,LIFR,,,,,,0.005,,,,,,METAR,28.0
KTAD 252116Z AUTO VRB03KT 10SM FEW043 SCT060 OVC080 15/03 A2978 RMK AO2 LTG DSNT S RAE11 P0000 T01500028,KTAD,2023-04-25T21:16:00Z,37.27,-104.33,15.0,2.8,0,3,,10.0,29.778543,,,TRUE,TRUE,,,,,,,FEW,4300,SCT,6000,OVC,8000,,,VFR,,,,,,0.005,,,,,,SPECI,1751.0
KQDG 252116Z AUTO 15007KT 9999 -RA FEW045 BKN080 OVC095 10/09 A2976 RMK AO2 RAE12RAB16 SLP080,KQDG,2023-04-25T21:16:00Z,,,10.0,9.0,150,7,,6.21,29.760826,1008.0,,TRUE,TRUE,,,,,,-RA,FEW,4500,BKN,8000,OVC,9500,,,VFR,,,,,,,,,,,,SPECI,
KDUB 252116Z AUTO 17010G14KT 10SM CLR 09/M03 A3000 RMK AO2,KDUB,2023-04-25T21:16:00Z,43.55,-109.68,9.0,-3.0,170,10,14,10.0,30.0,,,TRUE,TRUE,,,,,,,CLR,,,,,,,,VFR,,,,,,,,,,,,SPECI,2205.0
KDIJ 252116Z AUTO 08007KT 10SM FEW028 04/01 A3009 RMK AO2,KDIJ,2023-04-25T21:16:00Z,43.75,-111.1,4.0,1.0,80,7,,10.0,30.088583,,,TRUE,TRUE,,,,,,,FEW,2800,,,,,,,VFR,,,,,,,,,,,,METAR,1896.0
KCUL 252116Z AUTO 25007KT 10SM CLR 20/00 A3010 RMK AO2,KCUL,2023-04-25T21:16:00Z,38.08,-88.12,20.0,0.0,250,7,,10.0,30.100393,,,TRUE,TRUE,,,,,,,CLR,,,,,,,,VFR,,,,,,,,,,,,SPECI,116.0
KBBB 252116Z AUTO 08005G08KT 10SM CLR 09/M06 A3025 RMK AO2,KBBB,2023-04-25T21:16:00Z,45.32,-95.65,9.0,-6.0,80,5,8,10.0,30.250984,,,TRUE,TRUE,,,,,,,CLR,,,,,,,,VFR,,,,,,,,,,,,METAR,315.0
KAUM 252116Z AUTO 01007G15KT 10SM CLR 10/M04 A3018 RMK AO2,KAUM,2023-04-25T21:16:00Z,43.67,-92.92,10.0,-4.0,10,7,15,10.0,30.180119,,,TRUE,TRUE,,,,,,,CLR,,,,,,,,VFR,,,,,,,,,,,,METAR,376.0
KAPS 252116Z AUTO 09009KT 10SM SCT120 25/14 A2995 RMK AO2,KAPS,2023-04-25T21:16:00Z,30.08,-90.58,25.0,14.0,90,9,,10.0,29.949802,,,TRUE,TRUE,,,,,,,SCT,12000,,,,,,,VFR,,,,,,,,,,,,METAR,1.0
K40B 252116Z AUTO VRB06KT 06/03 A3019 RMK AO1 SLP235 T00620033 52003 60000,K40B,2023-04-25T21:16:00Z,46.62,-69.52,6.2,3.3,0,6,,,30.188976,1023.5,,TRUE,TRUE,,,,,,,,,,,,,,,,0.3,,,,,,0.005,,,,,SPECI,344.0
CYTE 252116Z AUTO 20005KT 180V250 9SM BKN010 OVC029 M00/M02 A3035 RMK SLP283,CYTE,2023-04-25T21:16:00Z,64.22,-76.52,0.0,-2.0,200,5,,9.0,30.351377,1028.3,,TRUE,,,,,,,,BKN,1000,OVC,2900,,,,,MVFR,,,,,,,,,,,,SPECI,49.0
CYPE 252116Z 27019G29KT 15SM BKN055 10/M09 A2981 RMK CU5 SLP116,CYPE,2023-04-25T21:16:00Z,56.22,-117.45,10.0,-9.0,270,19,29,15.0,29.811024,1011.6,,,,,,,,,,BKN,5500,,,,,,,VFR,,,,,,,,,,,,SPECI,572.0
TJPS 252115Z AUTO 15006KT A2989 RMK AO2 PWINO TSNO,TJPS,2023-04-25T21:15:00Z,18.02,-66.57,,,150,6,,,29.890747,,,TRUE,TRUE,,,TRUE,,TRUE,,,,,,,,,,,,,,,,,,,,,,SPECI,12.0
SBFI 252115Z 19005KT 6000 -TSRA SCT014 OVC020 //////CB 18/18 Q1015 RERA,SBFI,2023-04-25T21:15:00Z,-25.6,-54.48,18.0,18.0,190,5,,3.73,29.970472,,,,,,,,,,-TSRA,SCT,1400,OVC,2000,,,,,MVFR,,,,,,,,,,,,SPECI,233.0
RKJK 252115Z 22008KT 4SM BR OVC014 10/10 A2990 RMK AO2A SLP130 $,RKJK,2023-04-25T21:15:00Z,35.9,126.62,10.0,10.0,220,8,,4.0,29.899607,1013.0,,,TRUE,TRUE,,,,,BR,OVC,1400,,,,,,,MVFR,,,,,,,,,,,,SPECI,8.0
PANW 252115Z AUTO 10013G19KT 2SM -SN BR OVC005 01/00 A2952 RMK AO2 VIS 1 3/4V4 P0000 FZRANO,PANW,2023-04-25T21:15:00Z,59.45,-157.32,1.0,0.0,100,13,19,2.0,29.518702,,,TRUE,TRUE,,,,TRUE,,-SN BR,OVC,500,,,,,,,IFR,,,,,,0.005,,,,,,METAR,100.0
PAKX 252115Z AUTO 07009G15KT 10SM SCT055 05/M03 A2956 RMK AO2,PAKX,2023-04-25T21:15:00Z,60.2,-154.32,5.0,-3.0,70,9,15,10.0,29.56004,,,TRUE,TRUE,,,,,,,SCT,5500,,,,,,,VFR,,,,,,,,,,,,METAR,88.0
PAAD 252115Z AUTO 09005KT 5SM OVC006 M21/M23 A3020 RMK AO2 T12101231 PWINO,PAAD,2023-04-25T21:15:00Z,70.13,-146.28,-21.0,-23.1,90,5,,5.0,30.200787,,,TRUE,TRUE,,,,,TRUE,,OVC,600,,,,,,,IFR,,,,,,,,,,,,METAR,8.0
LMML 252115Z 28008KT CAVOK 16/10 Q1014 NOSIG,LMML,2023-04-25T21:15:00Z,35.85,14.47,16.0,10.0,280,8,,6.21,29.940945,,,,,,TRUE,,,,,CAVOK,,,,,,,,VFR,,,,,,,,,,,,METAR,78.0
LIRP 252115Z VRB03KT CAVOK 09/09 Q1011 NOSIG,LIRP,2023-04-25T21:15:00Z,43.68,10.38,9.0,9.0,0,3,,6.21,29.852362,,,,,,TRUE,,,,,CAVOK,,,,,,,,VFR,,,,,,,,,,,,METAR,1.0
LHSN 252115Z 26004KT CAVOK 07/06 Q1007 NOSIG RMK BLU,LHSN,2023-04-25T21:15:00Z,47.12,20.23,7.0,6.0,260,4,,6.21,29.734253,,,,,,TRUE,,,,,CAVOK,,,,,,,,VFR,,,,,,,,,,,,SPECI,89.0
KZPH 252115Z AUTO 18007KT 10SM BKN042 BKN055 OVC110 25/18 A2990 RMK A02 LTG DSNT NE T02490184,KZPH,2023-04-25T21:15:00Z,28.23,-82.15,24.9,18.4,180,7,,10.0,29.899607,,,TRUE,TRUE,,,,,,,BKN,4200,BKN,5500,OVC,11000,,,VFR,,,,,,,,,,,,METAR,26.0
KZER 252115Z AUTO 28007KT 10SM BKN060 11/M06 A3017 RMK AO2,KZER,2023-04-25T21:15:00Z,40.7,-76.37,11.0,-6.0,280,7,,10.0,30.171259,,,TRUE,TRUE,,,,,,,BKN,6000,,,,,,,VFR,,,,,,,,,,,,SPECI,518.0
KY70 252115Z AUTO 00000KT 10SM BKN070 09/M02 A3014 RMK AO2 T00851024,KY70,2023-04-25T21:15:00Z,42.93,-85.07,8.5,-2.4,0,0,,10.0,30.138779,,,TRUE,TRUE,,,,,,,BKN,7000,,,,,,,VFR,,,,,,,,,,,,METAR,247.0
KY63 252115Z AUTO 03004KT 10SM SCT060 12/M05 A3025 RMK AO2 T01181055,KY63,2023-04-25T21:15:00Z,45.98,-96.0,11.8,-5.5,30,4,,10.0,30.250984,,,TRUE,TRUE,,,,,,,SCT,6000,,,,,,,VFR,,,,,,,,,,,,METAR,367.0
KY51 252115Z AUTO 06004KT 10SM BKN050 08/M02 A3019 RMK AO1 T00801022,KY51,2023-04-25T21:15:00Z,43.58,-90.9,8.0,-2.2,60,4,,10.0,30.188976,,,TRUE,TRUE,,,,,,,BKN,5000,,,,,,,VFR,,,,,,,,,,,,SPECI,390.0
KY49 252115Z AUTO 10005KT 10SM CLR 06/M08 A3026 RMK AO2 T00631080,KY49,2023-04-25T21:15:00Z,47.15,-94.65,6.3,-8.0,100,5,,10.0,30.259842,,,TRUE,TRUE,,,,,,,CLR,,,,,,,,VFR,,,,,,,,,,,,METAR,413.0
KY31 252115Z AUTO 29015G20KT 10SM SCT042 OVC050 07/00 A3013 RMK AO2 T00660001,KY31,2023-04-25T21:15:00Z,44.25,-84.18,6.6,0.1,290,15,20,10.0,30.129921,,,TRUE,TRUE,,,,,,,SCT,4200,OVC,5000,,,,,VFR,,,,,,,,,,,,METAR,264.0
KY23 252115Z AUTO 01007KT 10SM OVC060 08/M03 A3024 RMK AO2 T00811032,KY23,2023-04-25T21:15:00Z,45.3,-91.63,8.1,-3.2,10,7,,10.0,30.239174,,,TRUE,TRUE,,,,,,,OVC,6000,,,,,,,VFR,,,,,,,,,,,,SPECI,322.0
KY19 252115Z AUTO 17015G20KT 10SM CLR 11/M04 A3016 RMK AO2,KY19,2023-04-25T21:15:00Z,46.77,-100.9,11.0,-4.0,170,15,20,10.0,30.159449,,,TRUE,TRUE,,,,,,,CLR,,,,,,,,VFR,,,,,,,,,,,,SPECI,591.0
KXSA 252115Z AUTO 10005KT 10SM BKN065 15/02 A3019 RMK AO2 T01530022,KXSA,2023-04-25T21:15:00Z,37.87,-76.9,15.3,2.2,100,5,,10.0,30.188976,,,TRUE,TRUE,,,,,,,BKN,6500,,,,,,,VFR,,,,,,,,,,,,SPECI,41.0
KXNX 252115Z AUTO 00000KT 10SM CLR 20/M03 A3011 RMK A01,KXNX,2023-04-25T21:15:00Z,36.38,-86.42,20.0,-3.0,0,0,,10.0,30.109253,,,TRUE,TRUE,,,,,,,CLR,,,,,,,,VFR,,,,,,,,,,,,METAR,178.0
KXLL 252115Z AUTO 00000KT 10SM CLR 13/M04 A3019 RMK AO2,KXLL,2023-04-25T21:15:00Z,40.57,-75.48,13.0,-4.0,0,0,,10.0,30.188976,,,TRUE,TRUE,,,,,,,CLR,,,,,,,,VFR,,,,,,,,,,,,METAR,118.0
KX60 252115Z AUTO 15006KT 10SM BKN041 OVC050 24/18 A2992 RMK AO2 T02410184,KX60,2023-04-25T21:15:00Z,29.35,-82.47,24.1,18.4,150,6,,10.0,29.920275,,,TRUE,TRUE,,,,,,,BKN,4100,OVC,5000,,,,,VFR,,,,,,,,,,,,METAR,21.0
KX07 252115Z AUTO 10006KT 1 1/4SM BR SCT005 SCT027 BKN038 21/21 A2990 RMK A01,KX07,2023-04-25T21:15:00Z,27.9,-81.62,21.0,21.0,100,6,,1.25,29.899607,,,TRUE,TRUE,,,,,,BR,SCT,500,SCT,2700,BKN,3800,,,IFR,,,,,,,,,,,,METAR,36.0
KWWR 252115Z AUTO 09015KT 3SM -RA OVC003 08/07 A2994 RMK AO2,KWWR,2023-04-25T21:15:00Z,36.45,-99.52,8.0,7.0,90,15,,3.0,29.940945,,,TRUE,TRUE,,,,,,-RA,OVC,300,,,,,,,LIFR,,,,,,,,,,,,METAR,664.0
KWDR 252115Z AUTO 00000KT 10SM SCT060 BKN075 19/06 A3007 RMK AO2,KWDR,2023-04-25T21:15:00Z,33.98,-83.67,19.0,6.0,0,0,,10.0,30.070866,,,TRUE,TRUE,,,,,,,SCT,6000,BKN,7500,,,,,VFR,,,,,,,,,,,,METAR,280.0
KW81 252115Z AUTO 00000KT 10SM CLR 15/01 A3015 RMK AO1 T01490009,KW81,2023-04-25T21:15:00Z,37.18,-78.1,14.9,0.9,0,0,,10.0,30.15059,,,TRUE,TRUE,,,,,,,CLR,,,,,,,,VFR,,,,,,,,,,,,METAR,121.0
KW78 252115Z AUTO 00000KT 10SM CLR 17/03 A3015 RMK AO1 T01670032,KW78,2023-04-25T21:15:00Z,36.7,-78.85,16.7,3.2,0,0,,10.0,30.15059,,,TRUE,TRUE,,,,,,,CLR,,,,,,,,VFR,,,,,,,,,,,,METAR,120.0
KW75 252115Z AUTO 10004KT 10SM CLR 14/02 A3019 RMK AO1 T01360022,KW75,2023-04-25T21:15:00Z,37.6,-76.45,13.6,2.2,100,4,,10.0,30.188976,,,TRUE,TRUE,,,,,,,CLR,,,,,,,,VFR,,,,,,,,,,,,SPECI,8.0
KW63 252115Z AUTO 00000KT 10SM CLR 17/07 A3015 RMK AO1,KW63,2023-04-25T21:15:00Z,36.6,-78.55,17.0,7.0,0,0,,10.0,30.15059,,,TRUE,TRUE,,,,,,,CLR,,,,,,,,VFR,,,,,,,,,,,,METAR,126.0
KW43 252115Z AUTO 10016G20KT 10SM SCT120 12/03 A3002 RMK AO2,KW43,2023-04-25T21:15:00Z,44.67,-104.57,12.0,3.0,100,16,20,10.0,30.02067,,,TRUE,TRUE,,,,,,,SCT,12000,,,,,,,VFR,,,,,,,,,,,,METAR,1292.0
KW31 252115Z AUTO 00000KT 10SM BKN050 M37/M44 A3015 RMK AO1 T13691443,KW31,2023-04-25T21:15:00Z,36.95,-78.18,-36.9,-44.3,0,0,,10.0,30.15059,,,TRUE,TRUE,,,,,,,BKN,5000,,,,,,,VFR,,,,,,,,,,,,SPECI,159.0
KW22 252115Z AUTO 32004KT 10SM CLR 17/M08 A3011 RMK AO2,KW22,2023-04-25T21:15:00Z,39.0,-80.27,17.0,-8.0,320,4,,10.0,30.109253,,,TRUE,TRUE,,,,,,,CLR,,,,,,,,VFR,,,,,,,,,,,,METAR,497.0
KW13 252115Z AUTO 15009KT 10SM CLR 14/00 A3014 RMK AO1 T01371001,KW13,2023-04-25T21:15:00Z,38.08,-78.95,13.7,-0.1,150,9,,10.0,30.138779,,,TRUE,TRUE,,,,,,,CLR,,,,,,,,VFR,,,,,,,,,,,,METAR,440.0
KVYS 252115Z AUTO 03010G15KT 10SM SCT033 OVC040 10/02 A3017 RMK AO2 T01040022,KVYS,2023-04-25T21:15:00Z,41.35,-89.15,10.4,2.2,30,10,15,10.0,30.171259,,,TRUE,TRUE,,,,,,,SCT,3300,OVC,4000,,,,,VFR,,,,,,,,,,,,SPECI,198.0
KVWU 252115Z AUTO 00000KT 10SM BKN065 08/M06 A3027 RMK AO2,KVWU,2023-04-25T21:15:00Z,48.15,-94.52,8.0,-6.0,0,0,,10.0,30.268702,,,TRUE,TRUE,,,,,,,BKN,6500,,,,,,,VFR,,,,,,,,,,,,METAR,359.0
KVVV 252115Z AUTO 09008KT 026V106 10SM CLR 09/M04 A3023 RMK AO2,KVVV,2023-04-25T21:15:00Z,45.3,-96.42,9.0,-4.0,90,8,,10.0,30.230314,,,TRUE,TRUE,,,,,,,CLR,,,,,,,,VFR,,,,,,,,,,,,METAR,334.0
KVTP 252115Z AUTO 22007G14KT 180V260 7SM SCT030 BKN050 OVC090 02/M05 A2992 RMK AO2,KVTP,2023-04-25T21:15:00Z,37.5,-105.17,2.0,-5.0,220,7,14,7.0,29.920275,,,TRUE,TRUE,,,,,,,SCT,3000,BKN,5000,OVC,9000,,,VFR,,,,,,,,,,,,METAR,3086.0
KVTI 252115Z AUTO 02008KT 360V060 10SM CLR 15/M02 A3015 RMK AO2 T01461019,KVTI,2023-04-25T21:15:00Z,42.22,-92.02,14.6,-1.9,20,8,,10.0,30.15059,,,TRUE,TRUE,,,,,,,CLR,,,,,,,,VFR,,,,,,,,,,,,METAR,256.0
KVPC 252115Z AUTO 29005KT 10SM SCT110 21/04 A3004 RMK AO2,KVPC,2023-04-25T21:15:00Z,34.1,-84.85,21.0,4.0,290,5,,10.0,30.041338,,,TRUE,TRUE,,,,,,,SCT,11000,,,,,,,VFR,,,,,,,,,,,,METAR,234.0
KVOA 252115Z AUTO 05014KT 10SM FEW013 BKN024 OVC028 22/19 A2995 RMK A01,KVOA,2023-04-25T21:15:00Z,29.23,-87.78,22.0,19.0,50,14,,10.0,29.949802,,,TRUE,TRUE,,,,,,,FEW,1300,BKN,2400,OVC,2800,,,MVFR,,,,,,,,,,,,METAR,53.0
KVNW 252115Z AUTO 34006G14KT 10SM OVC060 11/00 A3011 RMK AO2,KVNW,2023-04-25T21:15:00Z,40.87,-84.62,11.0,0.0,340,6,14,10.0,30.109253,,,TRUE,TRUE,,,,,,,OVC,6000,,,,,,,VFR,,,,,,,,,,,,METAR,238.0
KVNC 252115Z AUTO 26009G17KT 10SM CLR 28/22 A2990 RMK AO2,KVNC,2023-04-25T21:15:00Z,27.07,-82.43,28.0,22.0,260,9,17,10.0,29.899607,,,TRUE,TRUE,,,,,,,CLR,,,,,,,,VFR,,,,,,,,,,,,METAR,4.0
KVLL 252115Z AUTO 00000KT 10SM BKN012 OVC023 05/02 A3018 RMK AO2 T00500022,KVLL,2023-04-25T21:15:00Z,42.55,-83.18,5.0,2.2,0,0,,10.0,30.180119,,,TRUE,TRUE,,,,,,,BKN,1200,OVC,2300,,,,,MVFR,,,,,,,,,,,,METAR,214.0
KVKY 252115Z AUTO 07015KT 10SM CLR A2996 RMK A01,KVKY,2023-04-25T21:15:00Z,29.25,-88.43,,,70,15,,10.0,29.958662,,,TRUE,TRUE,,,,,,,CLR,,,,,,,,VFR,,,,,,,,,,,,METAR,32.0
KVKS 252115Z AUTO 00000G10KT 10SM FEW120 24/09 A2996 RMK A01,KVKS,2023-04-25T21:15:00Z,32.23,-90.93,24.0,9.0,0,0,10,10.0,29.958662,,,TRUE,TRUE,,,,,,,FEW,12000,,,,,,,VFR,,,,,,,,,,,,METAR,31.0
KVJI 252115Z AUTO 36003KT 10SM SCT120 14/M09 A3012 RMK AO2 T01441088,KVJI,2023-04-25T21:15:00Z,36.68,-82.03,14.4,-8.8,360,3,,10.0,30.121063,,,TRUE,TRUE,,,,,,,SCT,12000,,,,,,,VFR,,,,,,,,,,,,METAR,636.0
KVHN 252115Z AUTO 25013G21KT 220V280 10SM CLR 28/M06 A2985 RMK AO2 T02841059,KVHN,2023-04-25T21:15:00Z,31.07,-104.78,28.4,-5.9,250,13,21,10.0,29.84941,,,TRUE,TRUE,,,,,,,CLR,,,,,,,,VFR,,,,,,,,,,,,METAR,1200.0
KVGC 252115Z AUTO 29003KT 10SM BKN080 07/M01 A3017 RMK AO2,KVGC,2023-04-25T21:15:00Z,42.85,-75.57,7.0,-1.0,290,3,,10.0,30.171259,,,TRUE,TRUE,,,,,,,BKN,8000,,,,,,,VFR,,,,,,,,,,,,SPECI,346.0
KVER 252115Z AUTO 16003KT 10SM CLR 20/05 A3007 RMK AO2 T02020045,KVER,2023-04-25T21:15:00Z,38.95,-92.68,20.2,4.5,160,3,,10.0,30.070866,,,TRUE,TRUE,,,,,,,CLR,,,,,,,,VFR,,,,,,,,,,,,SPECI,209.0
KVDI 252115Z AUTO 12008KT 10SM BKN018 BKN030 BKN044 21/17 A3002 RMK AO2,KVDI,2023-04-25T21:15:00Z,32.2,-82.37,21.0,17.0,120,8,,10.0,30.02067,,,TRUE,TRUE,,,,,,,BKN,1800,BKN,3000,BKN,4400,,,MVFR,,,,,,,,,,,,METAR,81.0
KVDF 252115Z AUTO 28003KT 10SM SCT039 BKN046 BKN055 28/23 A2990 RMK AO2,KVDF,2023-04-25T21:15:00Z,28.02,-82.33,28.0,23.0,280,3,,10.0,29.899607,,,TRUE,TRUE,,,,,,,SCT,3900,BKN,4600,BKN,5500,,,VFR,,,,,,,,,,,,SPECI,5.0
KVBW 252115Z AUTO 16005KT 10SM CLR 15/M01 A3013 RMK AO1 T01471012,KVBW,2023-04-25T21:15:00Z,38.37,-78.97,14.7,-1.2,160,5,,10.0,30.129921,,,TRUE,TRUE,,,,,,,CLR,,,,,,,,VFR,,,,,,,,,,,,SPECI,362.0
KUYF 252115Z AUTO 26010G14KT 10SM SCT075 BKN085 OVC110 12/M06 A3013 RMK AO2,KUYF,2023-04-25T21:15:00Z,39.93,-83.47,12.0,-6.0,260,10,14,10.0,30.129921,,,TRUE,TRUE,,,,,,,SCT,7500,BKN,8500,OVC,11000,,,VFR,,,,,,,,,,,,METAR,326.0
KUXL 252115Z AUTO 06007KT 10SM SCT035 25/16 A2993 RMK AO2 T02480160,KUXL,2023-04-25T21:15:00Z,30.13,-93.38,24.8,16.0,60,7,,10.0,29.929134,,,TRUE,TRUE,,,,,,,SCT,3500,,,,,,,VFR,,,,,,,,,,,,SPECI,2.0
KUVA 252115Z AUTO 00000KT 10SM BKN035 OVC041 25/18 A2983 RMK AO2 T02450177,KUVA,2023-04-25T21:15:00Z,29.22,-99.75,24.5,17.7,0,0,,10.0,29.828741,,,TRUE,TRUE,,,,,,,BKN,3500,OVC,4100,,,,,VFR,,,,,,,,,,,,METAR,285.0
KUUV 252115Z AUTO 25004KT 10SM CLR 20/01 A3008 RMK AO2,KUUV,2023-04-25T21:15:00Z,38.23,-91.17,20.0,1.0,250,4,,10.0,30.079725,,,TRUE,TRUE,,,,,,,CLR,,,,,,,,VFR,,,,,,,,,,,,SPECI,284.0
KUTA 252115Z AUTO 00000KT 9SM CLR 20/06 A3007 RMK AO2 T01960057 $,KUTA,2023-04-25T21:15:00Z,34.68,-90.35,19.6,5.7,0,0,,9.0,30.070866,,,TRUE,TRUE,TRUE,,,,,,CLR,,,,,,,,VFR,,,,,,,,,,,,METAR,58.0
KUSE 252115Z AUTO 01005KT 10SM -DZ FEW013 FEW033 06/06 A3014 RMK AO2,KUSE,2023-04-25T21:15:00Z,41.62,-84.13,6.0,6.0,10,5,,10.0,30.138779,,,TRUE,TRUE,,,,,,-DZ,FEW,1300,FEW,3300,,,,,VFR,,,,,,,,,,,,METAR,237.0
KUOX 252115Z AUTO 00000KT 10SM FEW075 18/01 A3008 RMK AO2,KUOX,2023-04-25T21:15:00Z,34.38,-89.53,18.0,1.0,0,0,,10.0,30.079725,,,TRUE,TRUE,,,,,,,FEW,7500,,,,,,,VFR,,,,,,,,,,,,METAR,123.0
KUNU 252115Z AUTO 03003KT 10SM BKN050 OVC065 07/M03 A3020 RMK AO2 T00741028,KUNU,2023-04-25T21:15:00Z,43.42,-88.7,7.4,-2.8,30,3,,10.0,30.200787,,,TRUE,TRUE,,,,,,,BKN,5000,OVC,6500,,,,,VFR,,,,,,,,,,,,SPECI,281.0
KUNI 252115Z AUTO 19005KT 7SM BKN090 BKN110 15/M06 A3013 RMK AO2 T01501058,KUNI,2023-04-25T21:15:00Z,39.22,-82.23,15.0,-5.8,190,5,,7.0,30.129921,,,TRUE,TRUE,,,,,,,BKN,9000,BKN,11000,,,,,VFR,,,,,,,,,,,,METAR,232.0
KUMP 252115Z AUTO 24010G14KT 10SM SCT050 BKN090 16/04 A3010 RMK AO2 T01550036,KUMP,2023-04-25T21:15:00Z,39.93,-86.05,15.5,3.6,240,10,14,10.0,30.100393,,,TRUE,TRUE,,,,,,,SCT,5000,BKN,9000,,,,,VFR,,,,,,,,,,,,SPECI,247.0
KULM 252115Z AUTO 02009KT 10SM CLR 09/M07 A3022 RMK AO2,KULM,2023-04-25T21:15:00Z,44.32,-94.5,9.0,-7.0,20,9,,10.0,30.221457,,,TRUE,TRUE,,,,,,,CLR,,,,,,,,VFR,,,,,,,,,,,,METAR,305.0
KUKT 252115Z AUTO VRB03KT 10SM CLR 14/M05 A3017 RMK A01,KUKT,2023-04-25T21:15:00Z,40.43,-75.38,14.0,-5.0,0,3,,10.0,30.171259,,,TRUE,TRUE,,,,,,,CLR,,,,,,,,VFR,,,,,,,,,,,,METAR,156.0
KUKL 252115Z AUTO 14014G18KT 10SM SCT070 18/00 A3003 RMK AO2 T01840000,KUKL,2023-04-25T21:15:00Z,38.3,-95.73,18.4,0.0,140,14,18,10.0,30.029528,,,TRUE,TRUE,,,,,,,SCT,7000,,,,,,,VFR,,,,,,,,,,,,METAR,357.0
KUCY 252115Z AUTO 05004G14KT 10SM CLR 20/01 A3006 RMK A01,KUCY,2023-04-25T21:15:00Z,36.38,-88.98,20.0,1.0,50,4,14,10.0,30.059055,,,TRUE,TRUE,,,,,,,CLR,,,,,,,,VFR,,,,,,,,,,,,METAR,97.0
KUBE 252115Z AUTO 01004KT 10SM OVC050 06/M02 A3025 RMK AO2,KUBE,2023-04-25T21:15:00Z,45.5,-91.98,6.0,-2.0,10,4,,10.0,30.250984,,,TRUE,TRUE,,,,,,,OVC,5000,,,,,,,VFR,,,,,,,,,,,,METAR,376.0
KU69 252115Z AUTO 27013G22KT 10SM BKN060 OVC070 11/M04 A2994 RMK A01,KU69,2023-04-25T21:15:00Z,40.2,-110.38,11.0,-4.0,270,13,22,10.0,29.940945,,,TRUE,TRUE,,,,,,,BKN,6000,OVC,7000,,,,,VFR,,,,,,,,,,,,METAR,1776.0
KU68 252115Z AUTO 02020G23KT 10SM CLR 18/M03 A2993 RMK AO2,KU68,2023-04-25T21:15:00Z,44.92,-108.45,18.0,-3.0,20,20,23,10.0,29.929134,,,TRUE,TRUE,,,,,,,CLR,,,,,,,,VFR,,,,,,,,,,,,METAR,1244.0
KU64 252115Z AUTO 31019G25KT 10SM BKN070 BKN090 BKN110 07/M11 A2991 RMK AO2 T00661108 $,KU64,2023-04-25T21:15:00Z,,,6.6,-10.8,310,19,25,10.0,29.911417,,,TRUE,TRUE,TRUE,,,,,,BKN,7000,BKN,9000,BKN,11000,,,VFR,,,,,,,,,,,,METAR,
KU55 252115Z AUTO 33021G28KT 10SM CLR 08/M07 A3007 RMK A01,KU55,2023-04-25T21:15:00Z,37.85,-112.38,8.0,-7.0,330,21,28,10.0,30.070866,,,TRUE,TRUE,,,,,,,CLR,,,,,,,,VFR,,,,,,,,,,,,METAR,2060.0
KU42 252115Z AUTO 02008KT 10SM BKN039 OVC045 07/04 A3011 RMK AO1 T00700037,KU42,2023-04-25T21:15:00Z,40.62,-111.98,7.0,3.7,20,8,,10.0,30.109253,,,TRUE,TRUE,,,,,,,BKN,3900,OVC,4500,,,,,VFR,,,,,,,,,,,,METAR,1399.0
KTYQ 252115Z AUTO 25010G14KT 10SM SCT050 14/02 A3010 RMK AO2 T01410024,KTYQ,2023-04-25T21:15:00Z,40.03,-86.25,14.1,2.4,250,10,14,10.0,30.100393,,,TRUE,TRUE,,,,,,,SCT,5000,,,,,,,VFR,,,,,,,,,,,,METAR,279.0
KTYL 252115Z AUTO 26019G32KT 10SM CLR 21/M03 A2988 RMK AO2,KTYL,2023-04-25T21:15:00Z,34.45,-110.12,21.0,-3.0,260,19,32,10.0,29.878937,,,TRUE,TRUE,,,,,,,CLR,,,,,,,,VFR,,,,,,,,,,,,SPECI,1748.0
KTXW 252115Z AUTO 07009KT 10SM SCT013 SCT031 OVC070 27/22 A2980 RMK AO2 T02720223,KTXW,2023-04-25T21:15:00Z,26.18,-97.97,27.2,22.3,70,9,,10.0,29.799213,,,TRUE,TRUE,,,,,,,SCT,1300,SCT,3100,OVC,7000,,,VFR,,,,,,,,,,,,METAR,21.0
KTWT 252115Z AUTO 29007KT 10SM CLR 20/01 A3011 RMK AO2,KTWT,2023-04-25T21:15:00Z,37.55,-87.95,20.0,1.0,290,7,,10.0,30.109253,,,TRUE,TRUE,,,,,,,CLR,,,,,,,,VFR,,,,,,,,,,,,METAR,113.0
KTWM 252115Z AUTO 17006KT 10SM OVC060 03/M03 A3028 RMK AO2,KTWM,2023-04-25T21:15:00Z,47.05,-91.75,3.0,-3.0,170,6,,10.0,30.280512,,,TRUE,TRUE,,,,,,,OVC,6000,,,,,,,VFR,,,,,,,,,,,,METAR,331.0
KTVY 252115Z AUTO 09004KT 10SM OVC050 10/00 A3011 RMK AO2,KTVY,2023-04-25T21:15:00Z,40.62,-112.35,10.0,0.0,90,4,,10.0,30.109253,,,TRUE,TRUE,,,,,,,OVC,5000,,,,,,,VFR,,,,,,,,,,,,METAR,1310.0
KTVK 252115Z AUTO 02004G10KT 10SM FEW039 FEW049 16/04 A3011 RMK AO2,KTVK,2023-04-25T21:15:00Z,40.68,-92.9,16.0,4.0,20,4,10,10.0,30.109253,,,TRUE,TRUE,,,,,,,FEW,3900,FEW,4900,,,,,VFR,,,,,,,,,,,,METAR,311.0
KTVI 252115Z AUTO 00000KT 10SM BKN055 OVC065 26/13 A2995 RMK AO2,KTVI,2023-04-25T21:15:00Z,30.9,-83.88,26.0,13.0,0,0,,10.0,29.949802,,,TRUE,TRUE,,,,,,,BKN,5500,OVC,6500,,,,,VFR,,,,,,,,,,,,METAR,74.0
KTTF 252115Z AUTO 28003KT 7SM -DZ BKN010 OVC023 05/04 A3016 RMK AO2 T00520035,KTTF,2023-04-25T21:15:00Z,41.93,-83.42,5.2,3.5,280,3,,7.0,30.159449,,,TRUE,TRUE,,,,,,-DZ,BKN,1000,OVC,2300,,,,,MVFR,,,,,,,,,,,,METAR,186.0
KTSP 252115Z AUTO 31013KT 9SM CLR 20/06 A3000 RMK AO2,KTSP,2023-04-25T21:15:00Z,35.13,-118.43,20.0,6.0,310,13,,9.0,30.0,,,TRUE,TRUE,,,,,,,CLR,,,,,,,,VFR,,,,,,,,,,,,SPECI,1209.0
KTQV 252115Z AUTO VRB06KT 10SM FEW050 BKN060 18/06 A3013 RMK A01,KTQV,2023-04-25T21:15:00Z,36.0,-78.93,18.0,6.0,0,6,,10.0,30.129921,,,TRUE,TRUE,,,,,,,FEW,5000,BKN,6000,,,,,VFR,,,,,,,,,,,,METAR,230.0
KTQK 252115Z AUTO 11014KT 10SM OVC008 08/07 A2995 RMK AO2 T00800070,KTQK,2023-04-25T21:15:00Z,38.47,-100.88,8.0,7.0,110,14,,10.0,29.949802,,,TRUE,TRUE,,,,,,,OVC,800,,,,,,,IFR,,,,,,,,,,,,METAR,906.0
KTQH 252115Z AUTO 11006KT 7SM -RA SCT029 BKN044 OVC075 10/07 A3005 RMK AO2,KTQH,2023-04-25T21:15:00Z,35.93,-95.0,10.0,7.0,110,6,,7.0,30.050198,,,TRUE,TRUE,,,,,,-RA,SCT,2900,BKN,4400,OVC,7500,,,VFR,,,,,,,,,,,,METAR,265.0
KTPF 252115Z AUTO 30008KT 7SM BKN110 29/20 A2990 RMK AO2,KTPF,2023-04-25T21:15:00Z,27.92,-82.45,29.0,20.0,300,8,,7.0,29.899607,,,TRUE,TRUE,,,,,,,BKN,11000,,,,,,,VFR,,,,,,,,,,,,SPECI,1.0
KTOC 252115Z AUTO 12006KT 10SM SCT049 BKN090 OVC110 18/06 A3010 RMK AO2 T01770063,KTOC,2023-04-25T21:15:00Z,34.6,-83.3,17.7,6.3,120,6,,10.0,30.100393,,,TRUE,TRUE,,,,,,,SCT,4900,BKN,9000,OVC,11000,,,VFR,,,,,,,,,,,,METAR,292.0
KTOB 252115Z AUTO 01007KT 350V060 10SM CLR 09/M06 A3020 RMK AO2,KTOB,2023-04-25T21:15:00Z,44.02,-92.82,9.0,-6.0,10,7,,10.0,30.200787,,,TRUE,TRUE,,,,,,,CLR,,,,,,,,VFR,,,,,,,,,,,,METAR,394.0
KTNU 252115Z AUTO 04004G12KT 10SM CLR 15/M01 A3011 RMK A01,KTNU,2023-04-25T21:15:00Z,41.67,-93.02,15.0,-1.0,40,4,12,10.0,30.109253,,,TRUE,TRUE,,,,,,,CLR,,,,,,,,VFR,,,,,,,,,,,,METAR,287.0
KTMT 252115Z AUTO 35005G14KT 10SM CLR 13/M09 A3014 RMK AO2 T01301087,KTMT,2023-04-25T21:15:00Z,39.47,-117.2,13.0,-8.7,350,5,14,10.0,30.138779,,,TRUE,TRUE,,,,,,,CLR,,,,,,,,VFR,,,,,,,,,,,,METAR,1748.0
KTME 252115Z AUTO 13013KT 8SM 26/19 A2986 RMK AO2,KTME,2023-04-25T21:15:00Z,29.8,-95.9,26.0,19.0,130,13,,8.0,29.861221,,,TRUE,TRUE,,,,,,,,,,,,,,,,,,,,,,,,,,,SPECI,49.0
KTMA 252115Z AUTO 33009KT 9SM SCT060 BKN090 26/14 A2998 RMK AO2 T02620138 $,KTMA,2023-04-25T21:15:00Z,31.43,-83.48,26.2,13.8,330,9,,9.0,29.97933,,,TRUE,TRUE,TRUE,,,,,,SCT,6000,BKN,9000,,,,,VFR,,,,,,,,,,,,SPECI,105.0
KTKX 252115Z AUTO 08007KT 8SM CLR 20/00 A3007 RMK AO2,KTKX,2023-04-25T21:15:00Z,36.22,-90.03,20.0,0.0,80,7,,8.0,30.070866,,,TRUE,TRUE,,,,,,,CLR,,,,,,,,VFR,,,,,,,,,,,,METAR,73.0
KTKV 252115Z AUTO 36005KT 10SM OVC046 05/M05 A3024 RMK AO2 T00451052 PWINO,KTKV,2023-04-25T21:15:00Z,45.47,-89.82,4.5,-5.2,360,5,,10.0,30.239174,,,TRUE,TRUE,,,,,TRUE,,OVC,4600,,,,,,,VFR,,,,,,,,,,,,SPECI,449.0
KTKC 252115Z AUTO VRB06G17KT 10SM CLR 10/M05 A3020 RMK AO2,KTKC,2023-04-25T21:15:00Z,44.25,-95.62,10.0,-5.0,0,6,17,10.0,30.200787,,,TRUE,TRUE,,,,,,,CLR,,,,,,,,VFR,,,,,,,,,,,,METAR,408.0
KTIP 252115Z AUTO 00000KT 10SM SCT055 SCT070 BKN080 16/05 A3009 RMK AO2 T01550050,KTIP,2023-04-25T21:15:00Z,40.28,-88.15,15.5,5.0,0,0,,10.0,30.088583,,,TRUE,TRUE,,,,,,,SCT,5500,SCT,7000,BKN,8000,,,VFR,,,,,,,,,,,,SPECI,224.0
KTIF 252115Z AUTO 13012G18KT 10SM BKN050 15/03 A3003 RMK AO2 T01530025,KTIF,2023-04-25T21:15:00Z,41.97,-100.57,15.3,2.5,130,12,18,10.0,30.029528,,,TRUE,TRUE,,,,,,,BKN,5000,,,,,,,VFR,,,,,,,,,,,,METAR,888.0
KTHA 252115Z AUTO 07007KT 10SM CLR 18/M00 A3005 RMK A01,KTHA,2023-04-25T21:15:00Z,35.38,-86.25,18.0,0.0,70,7,,10.0,30.050198,,,TRUE,TRUE,,,,,,,CLR,,,,,,,,VFR,,,,,,,,,,,,METAR,333.0
KTGI 252115Z AUTO 31003KT 10SM CLR 15/00 A3020 RMK AO1 T01450004,KTGI,2023-04-25T21:15:00Z,37.82,-75.98,14.5,0.4,310,3,,10.0,30.200787,,,TRUE,TRUE,,,,,,,CLR,,,,,,,,VFR,,,,,,,,,,,,METAR,1.0
KTEX 252115Z AUTO 27015KT 1/4SM +SN OVC005 M02/M03 A2995 RMK AO2,KTEX,2023-04-25T21:15:00Z,37.95,-107.9,-2.0,-3.0,270,15,,0.25,29.949802,,,TRUE,TRUE,,,,,,+SN,OVC,500,,,,,,,LIFR,,,,,,,,,,,,METAR,2760.0
KTEW 252115Z AUTO 20004KT 10SM OVC020 06/02 A3016 RMK AO2 T00580016,KTEW,2023-04-25T21:15:00Z,42.57,-84.42,5.8,1.6,200,4,,10.0,30.159449,,,TRUE,TRUE,,,,,,,OVC,2000,,,,,,,MVFR,,,,,,,,,,,,METAR,281.0
KTCY 252115Z AUTO 33008G15KT 10SM CLR 26/02 A2990 RMK A01,KTCY,2023-04-25T21:15:00Z,37.68,-121.43,26.0,2.0,330,8,15,10.0,29.899607,,,TRUE,TRUE,,,,,,,CLR,,,,,,,,VFR,,,,,,,,,,,,METAR,51.0
KTBX 252115Z AUTO 10SM SCT060 BKN070 BKN080 08/M03 A3008 RMK AO2,KTBX,2023-04-25T21:15:00Z,43.47,-108.23,8.0,-3.0,,,,10.0,30.079725,,,TRUE,TRUE,,,,,,,SCT,6000,BKN,7000,BKN,8000,,,VFR,,,,,,,,,,,,METAR,2230.0
KTBR 252115Z AUTO 12004KT 10SM SCT032 BKN050 OVC095 19/16 A3004 RMK AO2 T01880156 PWINO,KTBR,2023-04-25T21:15:00Z,32.48,-81.73,18.8,15.6,120,4,,10.0,30.041338,,,TRUE,TRUE,,,,,TRUE,,SCT,3200,BKN,5000,OVC,9500,,,VFR,,,,,,,,,,,,METAR,54.0
KTAZ 252115Z AUTO 34006KT 10SM CLR 16/04 A3009 RMK AO2 T01630035,KTAZ,2023-04-25T21:15:00Z,39.53,-89.33,16.3,3.5,340,6,,10.0,30.088583,,,TRUE,TRUE,,,,,,,CLR,,,,,,,,VFR,,,,,,,,,,,,METAR,188.0
KT89 252115Z AUTO VRB04G10KT 10SM CLR 32/M06 A2976 RMK A01,KT89,2023-04-25T21:15:00Z,29.27,-103.68,32.0,-6.0,0,4,10,10.0,29.760826,,,TRUE,TRUE,,,,,,,CLR,,,,,,,,VFR,,,,,,,,,,,,METAR,801.0
KT82 252115Z AUTO 16005KT 10SM SCT014 BKN032 OVC050 20/17 A2986 RMK AO2 T02040167,KT82,2023-04-25T21:15:00Z,30.25,-98.92,20.4,16.7,160,5,,10.0,29.861221,,,TRUE,TRUE,,,,,,,SCT,1400,BKN,3200,OVC,5000,,,VFR,,,,,,,,,,,,METAR,509.0
KT78 252115Z AUTO 08006G12KT 10SM BKN033 BKN042 24/18 A2989 RMK AO2,KT78,2023-04-25T21:15:00Z,30.08,-94.7,24.0,18.0,80,6,12,10.0,29.890747,,,TRUE,TRUE,,,,,,,BKN,3300,BKN,4200,,,,,VFR,,,,,,,,,,,,METAR,21.0
KT74 252115Z AUTO 13008KT 10SM SCT023 OVC030 22/18 A2987 RMK AO2 T02170175,KT74,2023-04-25T21:15:00Z,30.57,-97.45,21.7,17.5,130,8,,10.0,29.870079,,,TRUE,TRUE,,,,,,,SCT,2300,OVC,3000,,,,,MVFR,,,,,,,,,,,,METAR,169.0
KT69 252115Z AUTO 16011KT 7SM FEW019 BKN050 BKN055 25/22 A2982 RMK A01,KT69,2023-04-25T21:15:00Z,28.03,-97.55,25.0,22.0,160,11,,7.0,29.819881,,,TRUE,TRUE,,,,,,,FEW,1900,BKN,5000,BKN,5500,,,VFR,,,,,,,,,,,,SPECI,15.0
KT41 252115Z AUTO 13014KT 10SM CLR 25/18 A2989 RMK AO2 T02470181,KT41,2023-04-25T21:15:00Z,29.67,-95.07,24.7,18.1,130,14,,10.0,29.890747,,,TRUE,TRUE,,,,,,,CLR,,,,,,,,VFR,,,,,,,,,,,,METAR,8.0
KT35 252115Z AUTO 13005KT 10SM OVC029 23/17 A2987 RMK AO2 T02260172,KT35,2023-04-25T21:15:00Z,30.88,-96.97,22.6,17.2,130,5,,10.0,29.870079,,,TRUE,TRUE,,,,,,,OVC,2900,,,,,,,MVFR,,,,,,,,,,,,METAR,122.0
KT20 252115Z AUTO 14012KT 10SM BKN029 OVC037 26/20 A2983 RMK AO2 T02580203,KT20,2023-04-25T21:15:00Z,29.52,-97.47,25.8,20.3,140,12,,10.0,29.828741,,,TRUE,TRUE,,,,,,,BKN,2900,OVC,3700,,,,,MVFR,,,,,,,,,,,,METAR,107.0
KSZY 252115Z AUTO 14009KT 10SM 20/M06 A3005 RMK A01,KSZY,2023-04-25T21:15:00Z,35.2,-88.5,20.0,-6.0,140,9,,10.0,30.050198,,,TRUE,TRUE,,,,,,,,,,,,,,,,,,,,,,,,,,,METAR,184.0
KSZT 252115Z AUTO 26006KT 10SM SCT055 15/00 A3012 RMK AO2,KSZT,2023-04-25T21:15:00Z,48.3,-116.57,15.0,0.0,260,6,,10.0,30.121063,,,TRUE,TRUE,,,,,,,SCT,5500,,,,,,,VFR,,,,,,,,,,,,METAR,649.0
KSYN 252115Z AUTO 04007G14KT 10SM SCT060 10/M05 A3022 RMK AO2 T00971048,KSYN,2023-04-25T21:15:00Z,44.47,-93.02,9.7,-4.8,40,7,14,10.0,30.221457,,,TRUE,TRUE,,,,,,,SCT,6000,,,,,,,VFR,,,,,,,,,,,,SPECI,280.0
KSYM 252115Z AUTO VRB04G10KT 10SM CLR 17/M04 A3013 RMK AO2,KSYM,2023-04-25T21:15:00Z,38.22,-83.58,17.0,-4.0,0,4,10,10.0,30.129921,,,TRUE,TRUE,,,,,,,CLR,,,,,,,,VFR,,,,,,,,,,,,METAR,307.0
KSYI 252115Z AUTO 09009G14KT 10SM CLR 19/M01 A3006 RMK A01,KSYI,2023-04-25T21:15:00Z,35.57,-86.45,19.0,-1.0,90,9,14,10.0,30.059055,,,TRUE,TRUE,,,,,,,CLR,,,,,,,,VFR,,,,,,,,,,,,METAR,244.0
KSYF 252115Z AUTO 11015KT 10SM OVC016 10/05 A2996 RMK AO2 T00960053 PWINO,KSYF,2023-04-25T21:15:00Z,39.77,-101.8,9.6,5.3,110,15,,10.0,29.958662,,,TRUE,TRUE,,,,,TRUE,,OVC,1600,,,,,,,MVFR,,,,,,,,,,,,METAR,1041.0
KSXU 252115Z AUTO 26008KT 220V290 10SM SCT120 24/M06 A2973 RMK AO2 T02411059,KSXU,2023-04-25T21:15:00Z,34.93,-104.65,24.1,-5.9,260,8,,10.0,29.731298,,,TRUE,TRUE,,,,,,,SCT,12000,,,,,,,VFR,,,,,,,,,,,,METAR,1465.0
KSXK 252115Z AUTO 06007G18KT 10SM CLR 14/M05 A3012 RMK AO2,KSXK,2023-04-25T21:15:00Z,42.98,-96.17,14.0,-5.0,60,7,18,10.0,30.121063,,,TRUE,TRUE,,,,,,,CLR,,,,,,,,VFR,,,,,,,,,,,,METAR,430.0
KSWW 252115Z AUTO 19011KT 10SM SCT050 26/11 A2981 RMK AO2 T02580112,KSWW,2023-04-25T21:15:00Z,32.47,-100.47,25.8,11.2,190,11,,10.0,29.811024,,,TRUE,TRUE,,,,,,,SCT,5000,,,,,,,VFR,,,,,,,,,,,,METAR,718.0
KSVE 252115Z AUTO 14009KT 10SM CLR 17/M02 A3012 RMK AO2,KSVE,2023-04-25T21:15:00Z,40.37,-120.57,17.0,-2.0,140,9,,10.0,30.121063,,,TRUE,TRUE,,,,,,,CLR,,,,,,,,VFR,,,,,,,,,,,,SPECI,1263.0
KSVC 252115Z AUTO 26017G26KT 10SM CLR 25/M05 A2989 RMK AO2 T02511052,KSVC,2023-04-25T21:15:00Z,32.63,-108.15,25.1,-5.2,260,17,26,10.0,29.890747,,,TRUE,TRUE,,,,,,,CLR,,,,,,,,VFR,,,,,,,,,,,,METAR,1638.0
KSUZ 252115Z AUTO 08007KT 10SM BKN049 BKN100 15/07 A3007 RMK A01,KSUZ,2023-04-25T21:15:00Z,34.58,-92.48,15.0,7.0,80,7,,10.0,30.070866,,,TRUE,TRUE,,,,,,,BKN,4900,BKN,10000,,,,,VFR,,,,,,,,,,,,METAR,114.0
KSUW 252115Z AUTO 04008KT 10SM OVC065 06/M03 A3030 RMK AO2 T00591032,KSUW,2023-04-25T21:15:00Z,46.68,-92.1,5.9,-3.2,40,8,,10.0,30.301182,,,TRUE,TRUE,,,,,,,OVC,6500,,,,,,,VFR,,,,,,,,,,,,METAR,205.0
KSTK 252115Z AUTO 10015G20KT 10SM SCT024 BKN028 OVC044 10/05 A2993 RMK AO2,KSTK,2023-04-25T21:15:00Z,40.62,-103.27,10.0,5.0,100,15,20,10.0,29.929134,,,TRUE,TRUE,,,,,,,SCT,2400,BKN,2800,OVC,4400,,,MVFR,,,,,,,,,,,,METAR,1228.0
KSTF 252115Z AUTO VRB05G12KT 10SM FEW100 20/04 A3002 RMK AO2,KSTF,2023-04-25T21:15:00Z,33.43,-88.85,20.0,4.0,0,5,12,10.0,30.02067,,,TRUE,TRUE,,,,,,,FEW,10000,,,,,,,VFR,,,,,,,,,,,,METAR,99.0
KSTE 252115Z AUTO 01005KT 10SM OVC055 08/M09 A3021 RMK AO2 T00831094,KSTE,2023-04-25T21:15:00Z,44.55,-89.53,8.3,-9.4,10,5,,10.0,30.209646,,,TRUE,TRUE,,,,,,,OVC,5500,,,,,,,VFR,,,,,,,,,,,,METAR,335.0
KSRR 252115Z AUTO 25019G26KT 10SM 20/M09 A2991 RMK AO2,KSRR,2023-04-25T21:15:00Z,33.47,-105.52,20.0,-9.0,250,19,26,10.0,29.911417,,,TRUE,TRUE,,,,,,,,,,,,,,,,,,,,,,,,,,,METAR,2063.0
KSRE 252115Z AUTO 10011G18KT 10SM BKN007 OVC011 10/09 A2997 RMK AO2,KSRE,2023-04-25T21:15:00Z,35.27,-96.68,10.0,9.0,100,11,18,10.0,29.970472,,,TRUE,TRUE,,,,,,,BKN,700,OVC,1100,,,,,IFR,,,,,,,,,,,,METAR,306.0
KSRB 252115Z AUTO 00000KT 10SM CLR 19/M04 A3007 RMK AO2,KSRB,2023-04-25T21:15:00Z,36.05,-85.53,19.0,-4.0,0,0,,10.0,30.070866,,,TRUE,TRUE,,,,,,,CLR,,,,,,,,VFR,,,,,,,,,,,,METAR,303.0
KSPK 252115Z AUTO 32011G17KT 10SM FEW023 OVC044 06/02 A3009 RMK AO2,KSPK,2023-04-25T21:15:00Z,40.15,-111.67,6.0,2.0,320,11,17,10.0,30.088583,,,TRUE,TRUE,,,,,,,FEW,2300,OVC,4400,,,,,VFR,,,,,,,,,,,,METAR,1381.0
KSPF 252115Z AUTO 10014KT 10SM SCT080 10/02 A3002 RMK AO2,KSPF,2023-04-25T21:15:00Z,44.47,-103.78,10.0,2.0,100,14,,10.0,30.02067,,,TRUE,TRUE,,,,,,,SCT,8000,,,,,,,VFR,,,,,,,,,,,,SPECI,1191.0
KSPA 252115Z AUTO 00000KT 10SM SCT042 BKN075 OVC090 16/05 A3011 RMK AO2,KSPA,2023-04-25T21:15:00Z,34.92,-81.95,16.0,5.0,0,0,,10.0,30.109253,,,TRUE,TRUE,,,,,,,SCT,4200,BKN,7500,OVC,9000,,,VFR,,,,,,,,,,,,SPECI,242.0
KSOW 252115Z AUTO 24021G31KT 10SM FEW075 FEW090 SCT110 20/M04 A2993 RMK AO2,KSOW,2023-04-25T21:15:00Z,34.27,-110.0,20.0,-4.0,240,21,31,10.0,29.929134,,,TRUE,TRUE,,,,,,,FEW,7500,FEW,9000,SCT,11000,,,VFR,,,,,,,,,,,,SPECI,1954.0
KSOA 252115Z AUTO 16009G16KT 10SM 26/12 A2986 RMK AO2,KSOA,2023-04-25T21:15:00Z,30.58,-100.65,26.0,12.0,160,9,16,10.0,29.861221,,,TRUE,TRUE,,,,,,,,,,,,,,,,,,,,,,,,,,,METAR,654.0
KSNK 252115Z AUTO 16011G14KT 10SM SCT060 SCT075 25/10 A2978 RMK AO2 T02500100,KSNK,2023-04-25T21:15:00Z,32.7,-100.95,25.0,10.0,160,11,14,10.0,29.778543,,,TRUE,TRUE,,,,,,,SCT,6000,SCT,7500,,,,,VFR,,,,,,,,,,,,METAR,738.0
KSNC 252115Z AUTO 18007KT 10SM CLR 15/M03 A3014 RMK AO2,KSNC,2023-04-25T21:15:00Z,41.38,-72.5,15.0,-3.0,180,7,,10.0,30.138779,,,TRUE,TRUE,,,,,,,CLR,,,,,,,,VFR,,,,,,,,,,,,SPECI,114.0
KSMS 252115Z AUTO VRB06G11KT 10SM BKN070 22/07 A3009 RMK AO2,KSMS,2023-04-25T21:15:00Z,34.0,-80.37,22.0,7.0,0,6,11,10.0,30.088583,,,TRUE,TRUE,,,,,,,BKN,7000,,,,,,,VFR,,,,,,,,,,,,METAR,53.0
KSME 252115Z AUTO 03005KT 10SM CLR 18/M01 A3010 RMK AO2,KSME,2023-04-25T21:15:00Z,37.05,-84.62,18.0,-1.0,30,5,,10.0,30.100393,,,TRUE,TRUE,,,,,,,CLR,,,,,,,,VFR,,,,,,,,,,,,METAR,279.0
KSMD 252115Z AUTO 34008KT 10SM SCT055 BKN065 BKN095 10/04 A3013 RMK A01,KSMD,2023-04-25T21:15:00Z,41.15,-85.15,10.0,4.0,340,8,,10.0,30.129921,,,TRUE,TRUE,,,,,,,SCT,5500,BKN,6500,BKN,9500,,,VFR,,,,,,,,,,,,METAR,252.0
KSLR 252115Z AUTO 08010KT 10SM SCT049 SCT060 SCT090 19/11 A2996 RMK AO2 T01900108,KSLR,2023-04-25T21:15:00Z,33.17,-95.62,19.0,10.8,80,10,,10.0,29.958662,,,TRUE,TRUE,,,,,,,SCT,4900,SCT,6000,SCT,9000,,,VFR,,,,,,,,,,,,METAR,144.0
KSLO 252115Z AUTO 36006KT 10SM OVC100 18/07 A3009 RMK AO2 T01750066,KSLO,2023-04-25T21:15:00Z,38.65,-88.97,17.5,6.6,360,6,,10.0,30.088583,,,TRUE,TRUE,,,,,,,OVC,10000,,,,,,,VFR,,,,,,,,,,,,METAR,173.0
KSLH 252115Z AUTO 32008G14KT 7SM SCT033 BKN040 OVC048 04/03 A3017 RMK AO2,KSLH,2023-04-25T21:15:00Z,45.65,-84.52,4.0,3.0,320,8,14,7.0,30.171259,,,TRUE,TRUE,,,,,,,SCT,3300,BKN,4000,OVC,4800,,,VFR,,,,,,,,,,,,METAR,193.0
KSLB 252115Z AUTO 05010KT 10SM CLR 13/M05 A3013 RMK AO2,KSLB,2023-04-25T21:15:00Z,42.6,-95.23,13.0,-5.0,50,10,,10.0,30.129921,,,TRUE,TRUE,,,,,,,CLR,,,,,,,,VFR,,,,,,,,,,,,METAR,450.0
KSKF 252115Z AUTO 00000KT 10SM FEW035 FEW048 SCT065 BKN080 25/20 A2979 RMK AO2 PRESFR SLP083 $,KSKF,2023-04-25T21:15:00Z,29.38,-98.57,25.0,20.0,0,0,,10.0,29.790354,1008.3,,TRUE,TRUE,TRUE,,,,,,FEW,3500,FEW,4800,SCT,6500,BKN,8000,VFR,,,,,,,,,,,,SPECI,214.0
KSJX 252115Z AUTO 35004KT 10SM BKN025 BKN030 OVC035 05/00 A3021 RMK AO2 T00450000,KSJX,2023-04-25T21:15:00Z,45.7,-85.57,4.5,0.0,350,4,,10.0,30.209646,,,TRUE,TRUE,,,,,,,BKN,2500,BKN,3000,OVC,3500,,,MVFR,,,,,,,,,,,,METAR,202.0
KSJS 252115Z AUTO 00000KT 10SM CLR 17/M03 A3014 RMK AO2 T01671027,KSJS,2023-04-25T21:15:00Z,37.75,-82.63,16.7,-2.7,0,0,,10.0,30.138779,,,TRUE,TRUE,,,,,,,CLR,,,,,,,,VFR,,,,,,,,,,,,METAR,359.0
KSIK 252115Z AUTO 00000KT 10SM CLR 21/01 A3009 RMK AO2,KSIK,2023-04-25T21:15:00Z,36.9,-89.57,21.0,1.0,0,0,,10.0,30.088583,,,TRUE,TRUE,,,,,,,CLR,,,,,,,,VFR,,,,,,,,,,,,METAR,95.0
KSHL 252115Z AUTO 06009G15KT 040V100 10SM CLR 13/M08 A3013 RMK AO2,KSHL,2023-04-25T21:15:00Z,43.22,-95.83,13.0,-8.0,60,9,15,10.0,30.129921,,,TRUE,TRUE,,,,,,,CLR,,,,,,,,VFR,,,,,,,,,,,,METAR,430.0
KSHD 252115Z AUTO 17004KT 10SM CLR 15/M01 A3016 RMK AO2 T01471013,KSHD,2023-04-25T21:15:00Z,38.27,-78.9,14.7,-1.3,170,4,,10.0,30.159449,,,TRUE,TRUE,,,,,,,CLR,,,,,,,,VFR,,,,,,,,,,,,METAR,360.0
KSGS 252115Z AUTO 02005KT 10SM BKN060 09/M06 A3023 RMK AO2 T00901058,KSGS,2023-04-25T21:15:00Z,44.87,-93.03,9.0,-5.8,20,5,,10.0,30.230314,,,TRUE,TRUE,,,,,,,BKN,6000,,,,,,,VFR,,,,,,,,,,,,METAR,250.0
KSFQ 252115Z AUTO 10007KT 10SM SCT060 17/06 A3018 RMK AO2 T01700058,KSFQ,2023-04-25T21:15:00Z,36.68,-76.6,17.0,5.8,100,7,,10.0,30.180119,,,TRUE,TRUE,,,,,,,SCT,6000,,,,,,,VFR,,,,,,,,,,,,METAR,19.0
KSFM 252115Z AUTO 08005KT 3SM -RA BR OVC005 07/07 A3020 RMK AO2 CIG 004V007 P0000,KSFM,2023-04-25T21:15:00Z,43.38,-70.72,7.0,7.0,80,5,,3.0,30.200787,,,TRUE,TRUE,,,,,,-RA BR,OVC,500,,,,,,,IFR,,,,,,0.005,,,,,,METAR,70.0
KSEZ 252115Z AUTO 23013G22KT 200V260 10SM BKN110 22/M01 A2985 RMK AO2,KSEZ,2023-04-25T21:15:00Z,34.85,-111.78,22.0,-1.0,230,13,22,10.0,29.84941,,,TRUE,TRUE,,,,,,,BKN,11000,,,,,,,VFR,,,,,,,,,,,,METAR,1455.0
KSEP 252115Z AUTO 13008KT 10SM OVC019 19/15 A2990 RMK AO2 T01890145,KSEP,2023-04-25T21:15:00Z,32.22,-98.17,18.9,14.5,130,8,,10.0,29.899607,,,TRUE,TRUE,,,,,,,OVC,1900,,,,,,,MVFR,,,,,,,,,,,,METAR,399.0
KSEM 252115Z AUTO 35004KT 10SM CLR 25/07 A2999 RMK AO2,KSEM,2023-04-25T21:15:00Z,32.35,-86.98,25.0,7.0,350,4,,10.0,29.991142,,,TRUE,TRUE,,,,,,,CLR,,,,,,,,VFR,,,,,,,,,,,,METAR,48.0
KSEF 252115Z AUTO 27013G17KT 10SM -RA SCT060 BKN080 24/23 A2989 RMK AO2 LTG DSNT ALQDS T02380231,KSEF,2023-04-25T21:15:00Z,27.45,-81.35,23.8,23.1,270,13,17,10.0,29.890747,,,TRUE,TRUE,,,,,,-RA,SCT,6000,BKN,8000,,,,,VFR,,,,,,,,,,,,METAR,17.0
KSDC 252115Z AUTO 09003KT 5SM -RA BKN019 BKN028 OVC055 05/01 A3021 RMK AO2 P0001,KSDC,2023-04-25T21:15:00Z,43.23,-77.12,5.0,1.0,90,3,,5.0,30.209646,,,TRUE,TRUE,,,,,,-RA,BKN,1900,BKN,2800,OVC,5500,,,MVFR,,,,,,0.01,,,,,,METAR,127.0
KSDA 252115Z AUTO VRB03KT 9SM BKN060 18/05 A3005 RMK AO2,KSDA,2023-04-25T21:15:00Z,40.75,-95.42,18.0,5.0,0,3,,9.0,30.050198,,,TRUE,TRUE,,,,,,,BKN,6000,,,,,,,VFR,,,,,,,,,,,,SPECI,293.0
KSCX 252115Z AUTO VRB06KT 10SM CLR 18/M06 A3009 RMK A01,KSCX,2023-04-25T21:15:00Z,36.45,-84.58,18.0,-6.0,0,6,,10.0,30.088583,,,TRUE,TRUE,,,,,,,CLR,,,,,,,,VFR,,,,,,,,,,,,METAR,462.0
KSCD 252115Z AUTO 30004KT 10SM SCT110 22/07 A3003 RMK AO2 T02210067,KSCD,2023-04-25T21:15:00Z,33.17,-86.3,22.1,6.7,300,4,,10.0,30.029528,,,TRUE,TRUE,,,,,,,SCT,11000,,,,,,,VFR,,,,,,,,,,,,METAR,164.0
KSBS 252115Z AUTO 20004KT 10SM SCT047 05/M01 A2991 RMK AO1 T00541006,KSBS,2023-04-25T21:15:00Z,40.52,-106.87,5.4,-0.6,200,4,,10.0,29.911417,,,TRUE,TRUE,,,,,,,SCT,4700,,,,,,,VFR,,,,,,,,,,,,METAR,2097.0
KSBO 252115Z AUTO 15013G17KT 10SM BKN050 BKN085 BKN110 21/15 A3004 RMK AO2,KSBO,2023-04-25T21:15:00Z,32.62,-82.37,21.0,15.0,150,13,17,10.0,30.041338,,,TRUE,TRUE,,,,,,,BKN,5000,BKN,8500,BKN,11000,,,VFR,,,,,,,,,,,,METAR,98.0
KSAZ 252115Z AUTO 06003KT 10SM SCT065 09/M08 A3024 RMK AO2,KSAZ,2023-04-25T21:15:00Z,46.37,-94.8,9.0,-8.0,60,3,,10.0,30.239174,,,TRUE,TRUE,,,,,,,SCT,6500,,,,,,,VFR,,,,,,,,,,,,METAR,391.0
KSAR 252115Z AUTO 20005KT 10SM CLR 19/02 A3010 RMK AO2 T01900023,KSAR,2023-04-25T21:15:00Z,38.15,-89.7,19.0,2.3,200,5,,10.0,30.100393,,,TRUE,TRUE,,,,,,,CLR,,,,,,,,VFR,,,,,,,,,,,,METAR,162.0
KSAA 252115Z AUTO 34009KT 10SM BKN039 OVC050 07/M01 A2996 RMK AO2,KSAA,2023-04-25T21:15:00Z,41.45,-106.8,7.0,-1.0,340,9,,10.0,29.958662,,,TRUE,TRUE,,,,,,,BKN,3900,OVC,5000,,,,,VFR,,,,,,,,,,,,METAR,2093.0
KS71 252115Z AUTO 24010G16KT 10SM 19/02 A2993 ,KS71,2023-04-25T21:15:00Z,48.6,-109.25,19.0,2.0,240,10,16,10.0,29.929134,,,TRUE,,,,,,,,,,,,,,,,,,,,,,,,,,,,METAR,736.0
KS52 252115Z AUTO 13005KT 10SM SCT080 BKN100 OVC120 19/M04 A3008 RMK AO2 T01871040,KS52,2023-04-25T21:15:00Z,48.42,-120.15,18.7,-4.0,130,5,,10.0,30.079725,,,TRUE,TRUE,,,,,,,SCT,8000,BKN,10000,OVC,12000,,,VFR,,,,,,,,,,,,METAR,517.0
KS39 252115Z AUTO 05007KT 10SM CLR 17/M03 A3014 RMK AO2,KS39,2023-04-25T21:15:00Z,44.28,-120.9,17.0,-3.0,50,7,,10.0,30.138779,,,TRUE,TRUE,,,,,,,CLR,,,,,,,,VFR,,,,,,,,,,,,SPECI,987.0
KS33 252115Z AUTO 36004KT 10SM CLR A3016 RMK AO2,KS33,2023-04-25T21:15:00Z,44.67,-121.15,,,360,4,,10.0,30.159449,,,TRUE,TRUE,,,,,,,CLR,,,,,,,,VFR,,,,,,,,,,,,METAR,739.0
KS32 252115Z AUTO 11006KT 10SM CLR 09/M04 A3025 RMK AO2 TSNO,KS32,2023-04-25T21:15:00Z,47.42,-98.1,9.0,-4.0,110,6,,10.0,30.250984,,,TRUE,TRUE,,,TRUE,,,,CLR,,,,,,,,VFR,,,,,,,,,,,,METAR,435.0
KS25 252115Z AUTO 14012G23KT 10SM CLR 14/M04 A3008 RMK AO2,KS25,2023-04-25T21:15:00Z,47.8,-103.25,14.0,-4.0,140,12,23,10.0,30.079725,,,TRUE,TRUE,,,,,,,CLR,,,,,,,,VFR,,,,,,,,,,,,SPECI,632.0
KS24 252115Z AUTO 34005KT 10SM FEW037 SCT045 BKN060 09/03 A3014 RMK AO2,KS24,2023-04-25T21:15:00Z,41.3,-83.03,9.0,3.0,340,5,,10.0,30.138779,,,TRUE,TRUE,,,,,,,FEW,3700,SCT,4500,BKN,6000,,,VFR,,,,,,,,,,,,METAR,203.0
KS21 252115Z AUTO VRB06KT 10SM CLR 16/M09 A3018 RMK AO2,KS21,2023-04-25T21:15:00Z,43.88,-121.45,16.0,-9.0,0,6,,10.0,30.180119,,,TRUE,TRUE,,,,,,,CLR,,,,,,,,VFR,,,,,,,,,,,,METAR,1269.0
KRZT 252115Z AUTO 35004KT 10SM OVC080 13/M04 A3013 RMK AO2 PWINO,KRZT,2023-04-25T21:15:00Z,39.43,-83.02,13.0,-4.0,350,4,,10.0,30.129921,,,TRUE,TRUE,,,,,TRUE,,OVC,8000,,,,,,,VFR,,,,,,,,,,,,METAR,217.0
KRZR 252115Z AUTO VRB04G10KT 10SM BKN120 19/02 A3006 RMK A01,KRZR,2023-04-25T21:15:00Z,35.22,-84.8,19.0,2.0,0,4,10,10.0,30.059055,,,TRUE,TRUE,,,,,,,BKN,12000,,,,,,,VFR,,,,,,,,,,,,METAR,259.0
KRZN 252115Z AUTO 09007KT 10SM BKN055 07/M07 A3026 RMK AO2 T00691073,KRZN,2023-04-25T21:15:00Z,45.82,-92.37,6.9,-7.3,90,7,,10.0,30.259842,,,TRUE,TRUE,,,,,,,BKN,5500,,,,,,,VFR,,,,,,,,,,,,METAR,301.0
KRZL 252115Z AUTO 34012G15KT 10SM CLR 12/02 A3013 RMK AO2,KRZL,2023-04-25T21:15:00Z,40.95,-87.18,12.0,2.0,340,12,15,10.0,30.129921,,,TRUE,TRUE,,,,,,,CLR,,,,,,,,VFR,,,,,,,,,,,,METAR,210.0
KRYW 252115Z AUTO 15003KT 10SM SCT017 BKN032 OVC055 21/17 A2988 RMK AO2 T02090171,KRYW,2023-04-25T21:15:00Z,30.5,-97.97,20.9,17.1,150,3,,10.0,29.878937,,,TRUE,TRUE,,,,,,,SCT,1700,BKN,3200,OVC,5500,,,VFR,,,,,,,,,,,,METAR,370.0
KRYN 252115Z AUTO 25015G21KT 10SM CLR 31/M08 A2979 RMK AO2,KRYN,2023-04-25T21:15:00Z,32.15,-111.17,31.0,-8.0,250,15,21,10.0,29.790354,,,TRUE,TRUE,,,,,,,CLR,,,,,,,,VFR,,,,,,,,,,,,METAR,731.0
KRWV 252115Z AUTO 12004KT 10SM -RA BKN040 OVC048 22/18 A2988 RMK AO2 T02200180,KRWV,2023-04-25T21:15:00Z,30.52,-96.7,22.0,18.0,120,4,,10.0,29.878937,,,TRUE,TRUE,,,,,,-RA,BKN,4000,OVC,4800,,,,,VFR,,,,,,,,,,,,METAR,116.0
KRVL 252115Z AUTO 20008KT 10SM BKN080 BKN090 14/M04 A3016 RMK AO2,KRVL,2023-04-25T21:15:00Z,40.68,-77.63,14.0,-4.0,200,8,,10.0,30.159449,,,TRUE,TRUE,,,,,,,BKN,8000,BKN,9000,,,,,VFR,,,,,,,,,,,,SPECI,250.0
KRVJ 252115Z AUTO 09012G16KT 10SM -RA SCT035 SCT055 OVC090 19/18 A3002 RMK AO2 P0002 T01860178,KRVJ,2023-04-25T21:15:00Z,32.07,-82.15,18.6,17.8,90,12,16,10.0,30.02067,,,TRUE,TRUE,,,,,,-RA,SCT,3500,SCT,5500,OVC,9000,,,VFR,,,,,,0.02,,,,,,METAR,60.0
KRUG 252115Z AUTO 15008G14KT 130V190 10SM CLR 09/M03 A3020 RMK AO2,KRUG,2023-04-25T21:15:00Z,48.38,-100.02,9.0,-3.0,150,8,14,10.0,30.200787,,,TRUE,TRUE,,,,,,,CLR,,,,,,,,VFR,,,,,,,,,,,,SPECI,469.0
KRTS 252115Z AUTO 00000G11KT 10SM CLR 15/M11 A3015 RMK AO2,KRTS,2023-04-25T21:15:00Z,39.67,-119.88,15.0,-11.0,0,0,11,10.0,30.15059,,,TRUE,TRUE,,,,,,,CLR,,,,,,,,VFR,,,,,,,,,,,,METAR,1537.0
KRSN 252115Z AUTO 07007KT 10SM FEW100 22/08 A2997 RMK AO2 T02220084 $,KRSN,2023-04-25T21:15:00Z,32.52,-92.58,22.2,8.4,70,7,,10.0,29.970472,,,TRUE,TRUE,TRUE,,,,,,FEW,10000,,,,,,,VFR,,,,,,,,,,,,METAR,86.0
KRRT 252115Z AUTO 07009KT 10SM CLR 06/M04 A3030 RMK AO2,KRRT,2023-04-25T21:15:00Z,48.93,-95.33,6.0,-4.0,70,9,,10.0,30.301182,,,TRUE,TRUE,,,,,,,CLR,,,,,,,,VFR,,,,,,,,,,,,METAR,327.0
KRQO 252115Z AUTO 11011KT 10/09 A2995 RMK AO2 PWINO T01020095,KRQO,2023-04-25T21:15:00Z,35.47,-98.0,10.2,9.5,110,11,,,29.949802,,,TRUE,TRUE,,,,,TRUE,,,,,,,,,,,,,,,,,,,,,,METAR,431.0
KRQB 252115Z AUTO 03008KT 10SM OVC060 08/M04 A3014 RMK AO2 T00801038,KRQB,2023-04-25T21:15:00Z,43.72,-85.5,8.0,-3.8,30,8,,10.0,30.138779,,,TRUE,TRUE,,,,,,,OVC,6000,,,,,,,VFR,,,,,,,,,,,,METAR,282.0
KRPJ 252115Z AUTO 03008KT 10SM SCT029 SCT035 BKN049 09/03 A3018 RMK AO2 T00880026 TSNO,KRPJ,2023-04-25T21:15:00Z,41.88,-89.08,8.8,2.6,30,8,,10.0,30.180119,,,TRUE,TRUE,,,TRUE,,,,SCT,2900,SCT,3500,BKN,4900,,,VFR,,,,,,,,,,,,METAR,234.0
KRPH 252115Z AUTO 12008KT 9SM SCT023 OVC032 20/15 A2984 RMK AO2 T01950153 $,KRPH,2023-04-25T21:15:00Z,33.12,-98.55,19.5,15.3,120,8,,9.0,29.840551,,,TRUE,TRUE,TRUE,,,,,,SCT,2300,OVC,3200,,,,,VFR,,,,,,,,,,,,SPECI,341.0
KRPD 252115Z AUTO 01012G15KT 10SM OVC060 08/M02 A3026 RMK AO2 T00751020,KRPD,2023-04-25T21:15:00Z,45.42,-91.77,7.5,-2.0,10,12,15,10.0,30.259842,,,TRUE,TRUE,,,,,,,OVC,6000,,,,,,,VFR,,,,,,,,,,,,METAR,334.0
KROX 252115Z AUTO 00000KT 10SM BKN060 08/M05 A3028 RMK AO2,KROX,2023-04-25T21:15:00Z,48.85,-95.7,8.0,-5.0,0,0,,10.0,30.280512,,,TRUE,TRUE,,,,,,,BKN,6000,,,,,,,VFR,,,,,,,,,,,,METAR,320.0
KROS 252115Z AUTO 00000KT 10SM BKN060 10/M05 A3026 RMK AO2 T00991046,KROS,2023-04-25T21:15:00Z,45.7,-92.95,9.9,-4.6,0,0,,10.0,30.259842,,,TRUE,TRUE,,,,,,,BKN,6000,,,,,,,VFR,,,,,,,,,,,,METAR,282.0
KRNP 252115Z AUTO 13004KT 10SM SCT070 08/00 A3014 RMK AO2 T00830001,KRNP,2023-04-25T21:15:00Z,43.0,-84.13,8.3,0.1,130,4,,10.0,30.138779,,,TRUE,TRUE,,,,,,,SCT,7000,,,,,,,VFR,,,,,,,,,,,,METAR,224.0
KRNH 252115Z AUTO 05008KT 10SM BKN050 08/M01 A3024 RMK AO2 T00841009,KRNH,2023-04-25T21:15:00Z,45.15,-92.53,8.4,-0.9,50,8,,10.0,30.239174,,,TRUE,TRUE,,,,,,,BKN,5000,,,,,,,VFR,,,,,,,,,,,,METAR,302.0
KRNC 252115Z AUTO VRB04G13KT 10SM CLR 18/M01 A3007 RMK A01,KRNC,2023-04-25T21:15:00Z,35.7,-85.85,18.0,-1.0,0,4,13,10.0,30.070866,,,TRUE,TRUE,,,,,,,CLR,,,,,,,,VFR,,,,,,,,,,,,METAR,310.0
KRMY 252115Z AUTO 05003KT 10SM SCT015 OVC027 05/02 A3016 RMK AO2 T00520018,KRMY,2023-04-25T21:15:00Z,42.25,-84.95,5.2,1.8,50,3,,10.0,30.159449,,,TRUE,TRUE,,,,,,,SCT,1500,OVC,2700,,,,,MVFR,,,,,,,,,,,,METAR,285.0
KRMN 252115Z AUTO 02005KT 10SM BKN070 19/01 A3017 RMK AO2 T01870006,KRMN,2023-04-25T21:15:00Z,38.4,-77.45,18.7,0.6,20,5,,10.0,30.171259,,,TRUE,TRUE,,,,,,,BKN,7000,,,,,,,VFR,,,,,,,,,,,,METAR,50.0
KRLD 252115Z AUTO 16008G17KT 130V200 10SM CLR 21/01 A3014 RMK AO2 T02070012,KRLD,2023-04-25T21:15:00Z,46.3,-119.3,20.7,1.2,160,8,17,10.0,30.138779,,,TRUE,TRUE,,,,,,,CLR,,,,,,,,VFR,,,,,,,,,,,,METAR,118.0
KRKW 252115Z AUTO 07009G14KT 030V090 10SM CLR 17/M07 A3008 RMK A01,KRKW,2023-04-25T21:15:00Z,35.92,-84.68,17.0,-7.0,70,9,14,10.0,30.079725,,,TRUE,TRUE,,,,,,,CLR,,,,,,,,VFR,,,,,,,,,,,,METAR,505.0
KRKR 252115Z AUTO 06003KT 5SM VCTSRA SCT060 OVC085 09/07 A3006 RMK AO2 P0003 LTG DSNT S,KRKR,2023-04-25T21:15:00Z,35.02,-94.62,9.0,7.0,60,3,,5.0,30.059055,,,TRUE,TRUE,,,,,,VCTSRA,SCT,6000,OVC,8500,,,,,MVFR,,,,,,0.03,,,,,,METAR,136.0
KRID 252115Z AUTO 27011KT 10SM BKN060 OVC070 12/M01 A3013 RMK AO2,KRID,2023-04-25T21:15:00Z,39.75,-84.85,12.0,-1.0,270,11,,10.0,30.129921,,,TRUE,TRUE,,,,,,,BKN,6000,OVC,7000,,,,,VFR,,,,,,,,,,,,SPECI,346.0
KRGK 252115Z AUTO 03004KT 10SM SCT060 10/M07 A3021 RMK AO2,KRGK,2023-04-25T21:15:00Z,44.58,-92.48,10.0,-7.0,30,4,,10.0,30.209646,,,TRUE,TRUE,,,,,,,SCT,6000,,,,,,,VFR,,,,,,,,,,,,METAR,238.0
KRGA 252115Z AUTO 00000KT 10SM CLR 18/00 A3014 RMK AO2,KRGA,2023-04-25T21:15:00Z,37.63,-84.33,18.0,0.0,0,0,,10.0,30.138779,,,TRUE,TRUE,,,,,,,CLR,,,,,,,,VFR,,,,,,,,,,,,METAR,301.0
KREG 252115Z AUTO 11006KT 10SM BKN110 26/15 A2994 RMK AO2 T02570152,KREG,2023-04-25T21:15:00Z,30.17,-90.93,25.7,15.2,110,6,,10.0,29.940945,,,TRUE,TRUE,,,,,,,BKN,11000,,,,,,,VFR,,,,,,,,,,,,METAR,3.0
KRDK 252115Z AUTO 14007G16KT 10SM FEW055 17/04 A3007 RMK AO2,KRDK,2023-04-25T21:15:00Z,41.02,-95.27,17.0,4.0,140,7,16,10.0,30.070866,,,TRUE,TRUE,,,,,,,FEW,5500,,,,,,,VFR,,,,,,,,,,,,METAR,317.0
KRCZ 252115Z AUTO 13004KT 10SM UP CLR 18/08 A3011 RMK AO2 T01800075,KRCZ,2023-04-25T21:15:00Z,34.88,-79.77,18.0,7.5,130,4,,10.0,30.109253,,,TRUE,TRUE,,,,,,UP,CLR,,,,,,,,VFR,,,,,,,,,,,,METAR,110.0
KRCX 252115Z AUTO 36006KT 10SM OVC050 06/M01 A3026 RMK AO2 T00621012,KRCX,2023-04-25T21:15:00Z,45.5,-91.0,6.2,-1.2,360,6,,10.0,30.259842,,,TRUE,TRUE,,,,,,,OVC,5000,,,,,,,VFR,,,,,,,,,,,,METAR,373.0
KRCV 252115Z AUTO 27008G15KT 10SM SCT090 11/M06 A2981 RMK AO2 LTG DSNT E T01121061,KRCV,2023-04-25T21:15:00Z,37.72,-106.35,11.2,-6.1,270,8,15,10.0,29.811024,,,TRUE,TRUE,,,,,,,SCT,9000,,,,,,,VFR,,,,,,,,,,,,METAR,2418.0
KRCR 252115Z AUTO 02009KT 10SM BKN032 OVC040 10/05 A3012 RMK AO2,KRCR,2023-04-25T21:15:00Z,41.07,-86.18,10.0,5.0,20,9,,10.0,30.121063,,,TRUE,TRUE,,,,,,,BKN,3200,OVC,4000,,,,,VFR,,,,,,,,,,,,METAR,240.0
KRCM 252115Z AUTO 09007G14KT 10SM BKN070 19/02 A3005 RMK AO2,KRCM,2023-04-25T21:15:00Z,38.78,-93.8,19.0,2.0,90,7,14,10.0,30.050198,,,TRUE,TRUE,,,,,,,BKN,7000,,,,,,,VFR,,,,,,,,,,,,SPECI,242.0
KRCE 252115Z AUTO 10009KT 3SM -RA FEW007 BKN014 BKN018 10/09 A2995 RMK AO2,KRCE,2023-04-25T21:15:00Z,35.48,-97.82,10.0,9.0,100,9,,3.0,29.949802,,,TRUE,TRUE,,,,,,-RA,FEW,700,BKN,1400,BKN,1800,,,MVFR,,,,,,,,,,,,METAR,412.0
KRBW 252115Z AUTO 11008KT 10SM SCT044 SCT050 SCT120 21/11 A3006 RMK AO2,KRBW,2023-04-25T21:15:00Z,32.92,-80.63,21.0,11.0,110,8,,10.0,30.059055,,,TRUE,TRUE,,,,,,,SCT,4400,SCT,5000,SCT,12000,,,VFR,,,,,,,,,,,,METAR,30.0
KRBO 252115Z AUTO 13010KT 10SM SCT021 BKN050 OVC065 26/22 A2982 RMK AO2 T02550215,KRBO,2023-04-25T21:15:00Z,27.78,-97.68,25.5,21.5,130,10,,10.0,29.819881,,,TRUE,TRUE,,,,,,,SCT,2100,BKN,5000,OVC,6500,,,VFR,,,,,,,,,,,,METAR,24.0
KRAW 252115Z AUTO 15007KT 110V170 10SM SCT090 20/M01 A3005 RMK AO2,KRAW,2023-04-25T21:15:00Z,38.35,-93.35,20.0,-1.0,150,7,,10.0,30.050198,,,TRUE,TRUE,,,,,,,SCT,9000,,,,,,,VFR,,,,,,,,,,,,SPECI,285.0
KRAS 252115Z AUTO 09010KT 10SM OVC080 24/22 A2984 RMK AO2 T02450217,KRAS,2023-04-25T21:15:00Z,27.82,-97.08,24.5,21.7,90,10,,10.0,29.840551,,,TRUE,TRUE,,,,,,,OVC,8000,,,,,,,VFR,,,,,,,,,,,,METAR,3.0
KPZQ 252115Z AUTO 32007KT 10SM SCT028 BKN048 OVC050 04/02 A3017 RMK AO2 T00440018,KPZQ,2023-04-25T21:15:00Z,45.4,-83.82,4.4,1.8,320,7,,10.0,30.171259,,,TRUE,TRUE,,,,,,,SCT,2800,BKN,4800,OVC,5000,,,VFR,,,,,,,,,,,,SPECI,199.0
KPYX 252115Z AUTO 09014KT 1/4SM OVC002 10/09 A2984 RMK AO2 T00970089,KPYX,2023-04-25T21:15:00Z,36.42,-100.75,9.7,8.9,90,14,,0.25,29.840551,,,TRUE,TRUE,,,,,,,OVC,200,,,,,,,LIFR,,,,,,,,,,,,METAR,890.0
KPXE 252115Z AUTO 27004KT 10SM SCT055 SCT065 25/10 A3000 RMK AO2 T02470105,KPXE,2023-04-25T21:15:00Z,32.52,-83.77,24.7,10.5,270,4,,10.0,30.0,,,TRUE,TRUE,,,,,,,SCT,5500,SCT,6500,,,,,VFR,,,,,,,,,,,,METAR,126.0
KPWD 252115Z AUTO 17014G21KT 10SM CLR 14/M03 A3005 RMK AO2,KPWD,2023-04-25T21:15:00Z,48.78,-104.52,14.0,-3.0,170,14,21,10.0,30.050198,,,TRUE,TRUE,,,,,,,CLR,,,,,,,,VFR,,,,,,,,,,,,METAR,690.0
KPWC 252115Z AUTO 01003KT 10SM SCT060 07/M06 A3028 RMK AO2,KPWC,2023-04-25T21:15:00Z,46.72,-94.38,7.0,-6.0,10,3,,10.0,30.280512,,,TRUE,TRUE,,,,,,,SCT,6000,,,,,,,VFR,,,,,,,,,,,,METAR,394.0
KPVW 252115Z AUTO 19012G17KT 10SM CLR 21/08 A2979 RMK AO2 T02100080,KPVW,2023-04-25T21:15:00Z,34.17,-101.72,21.0,8.0,190,12,17,10.0,29.790354,,,TRUE,TRUE,,,,,,,CLR,,,,,,,,VFR,,,,,,,,,,,,METAR,1029.0
KPVJ 252115Z AUTO 11011G16KT 10SM BKN028 BKN100 15/08 A2991 RMK AO2 T01540084,KPVJ,2023-04-25T21:15:00Z,34.72,-97.22,15.4,8.4,110,11,16,10.0,29.911417,,,TRUE,TRUE,,,,,,,BKN,2800,BKN,10000,,,,,MVFR,,,,,,,,,,,,SPECI,287.0
KPVF 252115Z AUTO 29010KT 10SM CLR 22/04 A2996 RMK AO1,KPVF,2023-04-25T21:15:00Z,38.72,-120.75,22.0,4.0,290,10,,10.0,29.958662,,,TRUE,TRUE,,,,,,,CLR,,,,,,,,VFR,,,,,,,,,,,,SPECI,788.0
KPVE 252115Z AUTO 07007G13KT 040V110 10SM CLR 20/M07 A3006 RMK A01,KPVE,2023-04-25T21:15:00Z,35.65,-88.2,20.0,-7.0,70,7,13,10.0,30.059055,,,TRUE,TRUE,,,,,,,CLR,,,,,,,,VFR,,,,,,,,,,,,SPECI,146.0
KPVB 252115Z AUTO 03004KT 10SM OVC050 09/M05 A3019 RMK AO1 T00851050,KPVB,2023-04-25T21:15:00Z,42.68,-90.43,8.5,-5.0,30,4,,10.0,30.188976,,,TRUE,TRUE,,,,,,,OVC,5000,,,,,,,VFR,,,,,,,,,,,,SPECI,311.0
KPUJ 252115Z AUTO 30003KT 10SM BKN070 OVC095 21/04 A3004 RMK AO2,KPUJ,2023-04-25T21:15:00Z,33.92,-84.93,21.0,4.0,300,3,,10.0,30.041338,,,TRUE,TRUE,,,,,,,BKN,7000,OVC,9500,,,,,VFR,,,,,,,,,,,,METAR,385.0
KPUB 252115Z 35017KT 1 1/2SM R08R/5000VP6000FT +TSRA BKN020 BKN028 OVC048 08/05 A2987 RMK AO2 LTG DSNT SE AND SW TSB04 P0004 T00830050,KPUB,2023-04-25T21:15:00Z,38.28,-104.5,8.3,5.0,350,17,,1.5,29.870079,,,,TRUE,,,,,,+TSRA,BKN,2000,BKN,2800,OVC,4800,,,IFR,,,,,,0.04,,,,,,SPECI,1441.0
KPTT 252115Z AUTO 13011G16KT 10SM OVC011 09/09 A2999 RMK AO2 T00930090,KPTT,2023-04-25T21:15:00Z,37.7,-98.75,9.3,9.0,130,11,16,10.0,29.991142,,,TRUE,TRUE,,,,,,,OVC,1100,,,,,,,MVFR,,,,,,,,,,,,METAR,594.0
KPTS 252115Z AUTO 12006KT 10SM OVC050 16/06 A3003 RMK AO2 T01630058 PWINO,KPTS,2023-04-25T21:15:00Z,37.45,-94.73,16.3,5.8,120,6,,10.0,30.029528,,,TRUE,TRUE,,,,,TRUE,,OVC,5000,,,,,,,VFR,,,,,,,,,,,,SPECI,286.0
KPTD 252115Z AUTO 22008G16KT 10SM FEW055 FEW065 FEW080 10/M03 A3015 RMK AO2,KPTD,2023-04-25T21:15:00Z,44.68,-74.95,10.0,-3.0,220,8,16,10.0,30.15059,,,TRUE,TRUE,,,,,,,FEW,5500,FEW,6500,FEW,8000,,,VFR,,,,,,,,,,,,METAR,144.0
KPTB 252115Z AUTO 00000KT 10SM CLR 16/04 A3017 RMK AO2 T01590036,KPTB,2023-04-25T21:15:00Z,37.17,-77.52,15.9,3.6,0,0,,10.0,30.171259,,,TRUE,TRUE,,,,,,,CLR,,,,,,,,VFR,,,,,,,,,,,,SPECI,56.0
KPSO 252115Z AUTO 27020G27KT 10SM CLR 12/M08 A2982 RMK AO2 T01241084,KPSO,2023-04-25T21:15:00Z,37.28,-107.05,12.4,-8.4,270,20,27,10.0,29.819881,,,TRUE,TRUE,,,,,,,CLR,,,,,,,,VFR,,,,,,,,,,,,METAR,2332.0
KPSN 252115Z AUTO 12007KT 10SM OVC070 21/15 A2989 RMK AO2,KPSN,2023-04-25T21:15:00Z,31.78,-95.7,21.0,15.0,120,7,,10.0,29.890747,,,TRUE,TRUE,,,,,,,OVC,7000,,,,,,,VFR,,,,,,,,,,,,METAR,124.0
KPSK 252115Z AUTO 08003KT 10SM BKN110 13/M01 A3013 RMK AO2 T01311010,KPSK,2023-04-25T21:15:00Z,37.13,-80.67,13.1,-1.0,80,3,,10.0,30.129921,,,TRUE,TRUE,,,,,,,BKN,11000,,,,,,,VFR,,,,,,,,,,,,METAR,629.0
KPRS 252115Z AUTO 26008KT 10SM CLR 31/02 A2981 RMK AO2 T03050015,KPRS,2023-04-25T21:15:00Z,29.63,-104.35,30.5,1.5,260,8,,10.0,29.811024,,,TRUE,TRUE,,,,,,,CLR,,,,,,,,VFR,,,,,,,,,,,,SPECI,890.0
KPRO 252115Z AUTO 06006KT 10SM CLR 16/M02 A3011 RMK AO2 T01611025,KPRO,2023-04-25T21:15:00Z,41.83,-94.17,16.1,-2.5,60,6,,10.0,30.109253,,,TRUE,TRUE,,,,,,,CLR,,,,,,,,VFR,,,,,,,,,,,,METAR,308.0
KPRG 252115Z AUTO 00000KT 10SM SCT110 16/05 A3011 RMK AO2 T01550047,KPRG,2023-04-25T21:15:00Z,39.7,-87.67,15.5,4.7,0,0,,10.0,30.109253,,,TRUE,TRUE,,,,,,,SCT,11000,,,,,,,VFR,,,,,,,,,,,,METAR,197.0
KPPQ 252115Z AUTO 34007KT 10SM BKN110 18/06 A3009 RMK AO2 T01770058,KPPQ,2023-04-25T21:15:00Z,39.63,-90.78,17.7,5.8,340,7,,10.0,30.088583,,,TRUE,TRUE,,,,,,,BKN,11000,,,,,,,VFR,,,,,,,,,,,,METAR,215.0
KPPO 252115Z AUTO 35010G14KT 10SM BKN022 08/05 A3016 RMK AO2 T00810048,KPPO,2023-04-25T21:15:00Z,41.57,-86.73,8.1,4.8,350,10,14,10.0,30.159449,,,TRUE,TRUE,,,,,,,BKN,2200,,,,,,,MVFR,,,,,,,,,,,,METAR,242.0
KPPA 252115Z AUTO 15015G20KT 10SM 21/11 A2981 RMK AO2 T02100110,KPPA,2023-04-25T21:15:00Z,35.62,-101.0,21.0,11.0,150,15,20,10.0,29.811024,,,TRUE,TRUE,,,,,,,,,,,,,,,,,,,,,,,,,,,METAR,989.0
KPOY 252115Z AUTO 33019G28KT 10SM CLR 15/M05 A2996 RMK AO2,KPOY,2023-04-25T21:15:00Z,44.87,-108.8,15.0,-5.0,330,19,28,10.0,29.958662,,,TRUE,TRUE,,,,,,,CLR,,,,,,,,VFR,,,,,,,,,,,,METAR,1547.0
KPOV 252115Z AUTO 00000KT 10SM SCT037 BKN050 OVC055 09/M03 A3014 RMK AO2 T00901032 PWINO,KPOV,2023-04-25T21:15:00Z,41.22,-81.25,9.0,-3.2,0,0,,10.0,30.138779,,,TRUE,TRUE,,,,,TRUE,,SCT,3700,BKN,5000,OVC,5500,,,VFR,,,,,,,,,,,,METAR,363.0
KPNT 252115Z AUTO 36011G18KT 10SM SCT060 BKN070 13/02 A3014 RMK AO2 T01310021,KPNT,2023-04-25T21:15:00Z,40.92,-88.62,13.1,2.1,360,11,18,10.0,30.138779,,,TRUE,TRUE,,,,,,,SCT,6000,BKN,7000,,,,,VFR,,,,,,,,,,,,SPECI,199.0
KPNM 252115Z AUTO 04003G10KT 10SM SCT055 09/M07 A3026 RMK AO2,KPNM,2023-04-25T21:15:00Z,45.53,-93.6,9.0,-7.0,40,3,10,10.0,30.259842,,,TRUE,TRUE,,,,,,,SCT,5500,,,,,,,VFR,,,,,,,,,,,,METAR,298.0
KPNA 252115Z AUTO 10008KT 10SM SCT060 05/01 A3001 RMK AO2,KPNA,2023-04-25T21:15:00Z,42.8,-109.8,5.0,1.0,100,8,,10.0,30.008858,,,TRUE,TRUE,,,,,,,SCT,6000,,,,,,,VFR,,,,,,,,,,,,METAR,2158.0
KPMV 252115Z AUTO 12007KT 10SM OVC060 17/04 A3006 RMK AO2 T01650037,KPMV,2023-04-25T21:15:00Z,40.95,-95.92,16.5,3.7,120,7,,10.0,30.059055,,,TRUE,TRUE,,,,,,,OVC,6000,,,,,,,VFR,,,,,,,,,,,,METAR,365.0
KPMH 252115Z AUTO 17004KT 10SM SCT095 SCT120 17/M07 A3013 RMK AO2 T01651069,KPMH,2023-04-25T21:15:00Z,38.83,-82.85,16.5,-6.9,170,4,,10.0,30.129921,,,TRUE,TRUE,,,,,,,SCT,9500,SCT,12000,,,,,VFR,,,,,,,,,,,,METAR,200.0
KPLU 252115Z AUTO 00000KT 10SM BKN034 14/05 A3025 RMK AO2,KPLU,2023-04-25T21:15:00Z,47.1,-122.28,14.0,5.0,0,0,,10.0,30.250984,,,TRUE,TRUE,,,,,,,BKN,3400,,,,,,,VFR,,,,,,,,,,,,SPECI,164.0
KPLR 252115Z AUTO 05006KT 10SM CLR 22/04 A3004 RMK A01,KPLR,2023-04-25T21:15:00Z,33.57,-86.25,22.0,4.0,50,6,,10.0,30.041338,,,TRUE,TRUE,,,,,,,CLR,,,,,,,,VFR,,,,,,,,,,,,METAR,145.0
KPKV 252115Z AUTO 12014KT 10SM SCT055 SCT080 26/21 A2986 RMK AO2 T02550210,KPKV,2023-04-25T21:15:00Z,28.65,-96.68,25.5,21.0,120,14,,10.0,29.861221,,,TRUE,TRUE,,,,,,,SCT,5500,SCT,8000,,,,,VFR,,,,,,,,,,,,SPECI,8.0
KPJC 252115Z AUTO 00000KT 10SM BKN070 BKN120 12/M04 A3014 RMK AO2,KPJC,2023-04-25T21:15:00Z,40.8,-80.17,12.0,-4.0,0,0,,10.0,30.138779,,,TRUE,TRUE,,,,,,,BKN,7000,BKN,12000,,,,,VFR,,,,,,,,,,,,METAR,273.0
KPIM 252115Z AUTO 34005KT 10SM SCT060 24/08 A3001 RMK AO2 T02420075,KPIM,2023-04-25T21:15:00Z,32.83,-84.88,24.2,7.5,340,5,,10.0,30.008858,,,TRUE,TRUE,,,,,,,SCT,6000,,,,,,,VFR,,,,,,,,,,,,METAR,274.0
KPHT 252115Z AUTO 05010KT 10SM CLR 20/00 A3007 RMK A01,KPHT,2023-04-25T21:15:00Z,36.33,-88.38,20.0,0.0,50,10,,10.0,30.070866,,,TRUE,TRUE,,,,,,,CLR,,,,,,,,VFR,,,,,,,,,,,,SPECI,172.0
KPEZ 252115Z AUTO 16014G18KT 10SM SCT034 BKN043 BKN048 27/19 A2981 RMK AO2 T02740185,KPEZ,2023-04-25T21:15:00Z,28.95,-98.52,27.4,18.5,160,14,18,10.0,29.811024,,,TRUE,TRUE,,,,,,,SCT,3400,BKN,4300,BKN,4800,,,VFR,,,,,,,,,,,,SPECI,126.0
KPEX 252115Z AUTO 09004KT 10SM SCT055 09/M06 A3025 RMK AO2,KPEX,2023-04-25T21:15:00Z,45.37,-94.73,9.0,-6.0,90,4,,10.0,30.250984,,,TRUE,TRUE,,,,,,,SCT,5500,,,,,,,VFR,,,,,,,,,,,,METAR,359.0
KPEQ 252115Z AUTO 10003KT 10SM CLR 30/01 A2975 RMK AO2 T02960010,KPEQ,2023-04-25T21:15:00Z,31.38,-103.52,29.6,1.0,100,3,,10.0,29.749016,,,TRUE,TRUE,,,,,,,CLR,,,,,,,,VFR,,,,,,,,,,,,METAR,794.0
KPEA 252115Z AUTO 04006KT 10SM BKN075 BKN090 15/00 A3011 RMK AO2 T01521001,KPEA,2023-04-25T21:15:00Z,41.4,-92.95,15.2,-0.1,40,6,,10.0,30.109253,,,TRUE,TRUE,,,,,,,BKN,7500,BKN,9000,,,,,VFR,,,,,,,,,,,,METAR,264.0
KPDC 252115Z AUTO 22005KT 10SM SCT050 10/M02 A3020 RMK AO2 T00971016,KPDC,2023-04-25T21:15:00Z,43.02,-91.12,9.7,-1.6,220,5,,10.0,30.200787,,,TRUE,TRUE,,,,,,,SCT,5000,,,,,,,VFR,,,,,,,,,,,,METAR,201.0
KPCZ 252115Z AUTO 01005KT 10SM BKN055 OVC065 09/M05 A3021 RMK AO2 T00901053,KPCZ,2023-04-25T21:15:00Z,44.33,-89.02,9.0,-5.3,10,5,,10.0,30.209646,,,TRUE,TRUE,,,,,,,BKN,5500,OVC,6500,,,,,VFR,,,,,,,,,,,,METAR,248.0
KPCW 252115Z AUTO 05008KT 4SM -RA BKN026 BKN033 06/06 A3015 RMK AO2,KPCW,2023-04-25T21:15:00Z,41.52,-82.87,6.0,6.0,50,8,,4.0,30.15059,,,TRUE,TRUE,,,,,,-RA,BKN,2600,BKN,3300,,,,,MVFR,,,,,,,,,,,,SPECI,179.0
KPCM 252115Z AUTO 00000KT 10SM -RA SCT035 BKN075 OVC110 24/21 A2992 RMK AO2 P0001,KPCM,2023-04-25T21:15:00Z,28.0,-82.17,24.0,21.0,0,0,,10.0,29.920275,,,TRUE,TRUE,,,,,,-RA,SCT,3500,BKN,7500,OVC,11000,,,VFR,,,,,,0.01,,,,,,SPECI,43.0
KPCD 252115Z AUTO 04004KT 10SM CLR 20/04 A3007 RMK AO2 T02030039,KPCD,2023-04-25T21:15:00Z,37.87,-89.87,20.3,3.9,40,4,,10.0,30.070866,,,TRUE,TRUE,,,,,,,CLR,,,,,,,,VFR,,,,,,,,,,,,METAR,112.0
KPBX 252115Z AUTO 00000KT 10SM CLR 16/M04 A3013 RMK AO2 T01551041,KPBX,2023-04-25T21:15:00Z,37.57,-82.57,15.5,-4.1,0,0,,10.0,30.129921,,,TRUE,TRUE,,,,,,,CLR,,,,,,,,VFR,,,,,,,,,,,,METAR,447.0
KPBH 252115Z AUTO 02007KT 10SM OVC048 04/M05 A3024 RMK AO2 T00371052,KPBH,2023-04-25T21:15:00Z,45.7,-90.4,3.7,-5.2,20,7,,10.0,30.239174,,,TRUE,TRUE,,,,,,,OVC,4800,,,,,,,VFR,,,,,,,,,,,,METAR,445.0
KPAN 252115Z AUTO 22019KT 10SM FEW080 21/M01 A2992 RMK AO2 PWINO TSNO,KPAN,2023-04-25T21:15:00Z,34.25,-111.33,21.0,-1.0,220,19,,10.0,29.920275,,,TRUE,TRUE,,,TRUE,,TRUE,,FEW,8000,,,,,,,VFR,,,,,,,,,,,,SPECI,1575.0
KP52 252115Z AUTO 28014G22KT 10SM BKN110 27/M03 A2979 RMK AO2,KP52,2023-04-25T21:15:00Z,34.73,-112.03,27.0,-3.0,280,14,22,10.0,29.790354,,,TRUE,TRUE,,,,,,,BKN,11000,,,,,,,VFR,,,,,,,,,,,,METAR,1085.0
KP08 252115Z AUTO 25011KT 10SM CLR 32/00 A2976 RMK AO2,KP08,2023-04-25T21:15:00Z,32.93,-111.43,32.0,0.0,250,11,,10.0,29.760826,,,TRUE,TRUE,,,,,,,CLR,,,,,,,,VFR,,,,,,,,,,,,SPECI,477.0
KOZW 252115Z AUTO 00000KT 10SM SCT020 BKN026 06/02 A3016 RMK AO2 T00570016,KOZW,2023-04-25T21:15:00Z,42.62,-83.98,5.7,1.6,0,0,,10.0,30.159449,,,TRUE,TRUE,,,,,,,SCT,2000,BKN,2600,,,,,MVFR,,,,,,,,,,,,METAR,288.0
KOZS 252115Z AUTO 13005KT 10SM SCT080 18/00 A3006 RMK AO2,KOZS,2023-04-25T21:15:00Z,37.97,-92.68,18.0,0.0,130,5,,10.0,30.059055,,,TRUE,TRUE,,,,,,,SCT,8000,,,,,,,VFR,,,,,,,,,,,,METAR,321.0
KOZA 252115Z AUTO 21009G19KT 10SM CLR 26/09 A2983 RMK AO2,KOZA,2023-04-25T21:15:00Z,30.73,-101.2,26.0,9.0,210,9,19,10.0,29.828741,,,TRUE,TRUE,,,,,,,CLR,,,,,,,,VFR,,,,,,,,,,,,METAR,721.0
KOYM 252115Z AUTO 26004KT 10SM OVC065 09/M05 A3017 RMK AO2 PWINO,KOYM,2023-04-25T21:15:00Z,41.42,-78.5,9.0,-5.0,260,4,,10.0,30.171259,,,TRUE,TRUE,,,,,TRUE,,OVC,6500,,,,,,,VFR,,,,,,,,,,,,METAR,582.0
KOXV 252115Z AUTO VRB03G11KT 10SM SCT080 15/M00 A3011 RMK AO2,KOXV,2023-04-25T21:15:00Z,41.28,-93.12,15.0,0.0,0,3,11,10.0,30.109253,,,TRUE,TRUE,,,,,,,SCT,8000,,,,,,,VFR,,,,,,,,,,,,METAR,280.0
KOXI 252115Z AUTO 04011G16KT 10SM SCT027 BKN031 OVC038 10/02 A3014 RMK AO1,KOXI,2023-04-25T21:15:00Z,41.33,-86.67,10.0,2.0,40,11,16,10.0,30.138779,,,TRUE,TRUE,,,,,,,SCT,2700,BKN,3100,OVC,3800,,,VFR,,,,,,,,,,,,METAR,208.0
KOXD 252115Z AUTO 00000KT 10SM SCT060 SCT070 OVC090 16/M06 A3012 RMK AO2 T01561057,KOXD,2023-04-25T21:15:00Z,39.5,-84.78,15.6,-5.7,0,0,,10.0,30.121063,,,TRUE,TRUE,,,,,,,SCT,6000,SCT,7000,OVC,9000,,,VFR,,,,,,,,,,,,SPECI,317.0
KOWX 252115Z AUTO 01010KT 7SM OVC050 10/03 A3013 RMK AO1,KOWX,2023-04-25T21:15:00Z,41.03,-83.98,10.0,3.0,10,10,,7.0,30.129921,,,TRUE,TRUE,,,,,,,OVC,5000,,,,,,,VFR,,,,,,,,,,,,METAR,232.0
KOWI 252115Z AUTO 14009G15KT 110V170 10SM FEW075 21/02 A3002 RMK AO2 PWINO,KOWI,2023-04-25T21:15:00Z,38.53,-95.25,21.0,2.0,140,9,15,10.0,30.02067,,,TRUE,TRUE,,,,,TRUE,,FEW,7500,,,,,,,VFR,,,,,,,,,,,,SPECI,292.0
KOVL 252115Z AUTO 05011KT 10SM CLR 09/M05 A3022 RMK AO2,KOVL,2023-04-25T21:15:00Z,44.78,-95.03,9.0,-5.0,50,11,,10.0,30.221457,,,TRUE,TRUE,,,,,,,CLR,,,,,,,,VFR,,,,,,,,,,,,METAR,329.0
KOSC 252115Z AUTO 07008KT 10SM BKN055 BKN065 BKN080 06/M01 A3015 RMK AO2 T00621010,KOSC,2023-04-25T21:15:00Z,44.45,-83.4,6.2,-1.0,70,8,,10.0,30.15059,,,TRUE,TRUE,,,,,,,BKN,5500,BKN,6500,BKN,8000,,,VFR,,,,,,,,,,,,METAR,191.0
KOSA 252115Z AUTO 07007KT 10SM OVC065 18/12 A2996 RMK AO2 T01790116,KOSA,2023-04-25T21:15:00Z,33.1,-94.97,17.9,11.6,70,7,,10.0,29.958662,,,TRUE,TRUE,,,,,,,OVC,6500,,,,,,,VFR,,,,,,,,,,,,METAR,108.0
KORS 252115Z AUTO 36005KT 10SM FEW031 12/06 A3027 RMK AO2,KORS,2023-04-25T21:15:00Z,48.7,-122.92,12.0,6.0,360,5,,10.0,30.268702,,,TRUE,TRUE,,,,,,,FEW,3100,,,,,,,VFR,,,,,,,,,,,,SPECI,7.0
KORK 252115Z AUTO 10008KT 10SM FEW110 16/06 A3004 RMK AO2,KORK,2023-04-25T21:15:00Z,34.83,-92.25,16.0,6.0,100,8,,10.0,30.041338,,,TRUE,TRUE,,,,,,,FEW,11000,,,,,,,VFR,,,,,,,,,,,,METAR,166.0
KORG 252115Z AUTO 07009KT 10SM SCT030 BKN075 25/16 A2993 RMK AO2 T02460159,KORG,2023-04-25T21:15:00Z,30.07,-93.8,24.6,15.9,70,9,,10.0,29.929134,,,TRUE,TRUE,,,,,,,SCT,3000,BKN,7500,,,,,VFR,,,,,,,,,,,,METAR,2.0
KOQN 252115Z AUTO 31004KT 10SM SCT075 13/M05 A3018 RMK AO2,KOQN,2023-04-25T21:15:00Z,39.98,-75.58,13.0,-5.0,310,4,,10.0,30.180119,,,TRUE,TRUE,,,,,,,SCT,7500,,,,,,,VFR,,,,,,,,,,,,SPECI,141.0
KOPN 252115Z AUTO 00000KT 10SM SCT055 SCT075 SCT085 22/05 A3002 RMK AO2,KOPN,2023-04-25T21:15:00Z,32.95,-84.27,22.0,5.0,0,0,,10.0,30.02067,,,TRUE,TRUE,,,,,,,SCT,5500,SCT,7500,SCT,8500,,,VFR,,,,,,,,,,,,METAR,241.0
KOPL 252115Z AUTO 02009KT 10SM SCT100 22/16 A2994 RMK AO2 T02230159,KOPL,2023-04-25T21:15:00Z,30.55,-92.1,22.3,15.9,20,9,,10.0,29.940945,,,TRUE,TRUE,,,,,,,SCT,10000,,,,,,,VFR,,,,,,,,,,,,METAR,22.0
KOOA 252115Z AUTO 09005KT 10SM BKN080 16/01 A3011 RMK AO2 T01590005,KOOA,2023-04-25T21:15:00Z,41.23,-92.5,15.9,0.5,90,5,,10.0,30.109253,,,TRUE,TRUE,,,,,,,BKN,8000,,,,,,,VFR,,,,,,,,,,,,METAR,256.0
KONZ 252115Z AUTO 30005KT 10SM OVC012 06/05 A3016 RMK AO2 T00600054 P0001,KONZ,2023-04-25T21:15:00Z,42.1,-83.15,6.0,5.4,300,5,,10.0,30.159449,,,TRUE,TRUE,,,,,,,OVC,1200,,,,,,,MVFR,,,,,,0.01,,,,,,METAR,179.0
KONM 252115Z AUTO 16013G18KT 10SM CLR 26/M09 A2975 RMK AO2 T02601087,KONM,2023-04-25T21:15:00Z,34.02,-106.9,26.0,-8.7,160,13,18,10.0,29.749016,,,TRUE,TRUE,,,,,,,CLR,,,,,,,,VFR,,,,,,,,,,,,METAR,1467.0
KONL 252115Z AUTO 11011G16KT 10SM SCT050 16/00 A3007 RMK AO2 T01590003,KONL,2023-04-25T21:15:00Z,42.47,-98.68,15.9,0.3,110,11,16,10.0,30.070866,,,TRUE,TRUE,,,,,,,SCT,5000,,,,,,,VFR,,,,,,,,,,,,METAR,619.0
KONA 252115Z AUTO 12003KT 10SM SCT065 10/M05 A3022 RMK AO2,KONA,2023-04-25T21:15:00Z,44.07,-91.7,10.0,-5.0,120,3,,10.0,30.221457,,,TRUE,TRUE,,,,,,,SCT,6500,,,,,,,VFR,,,,,,,,,,,,METAR,200.0
KOMH 252115Z AUTO 19006KT 10SM SCT075 15/00 A3018 RMK AO2,KOMH,2023-04-25T21:15:00Z,38.25,-78.05,15.0,0.0,190,6,,10.0,30.180119,,,TRUE,TRUE,,,,,,,SCT,7500,,,,,,,VFR,,,,,,,,,,,,METAR,136.0
KOLZ 252115Z AUTO 05006G12KT 020V080 10SM FEW060 11/M03 A3017 RMK A01,KOLZ,2023-04-25T21:15:00Z,42.67,-91.97,11.0,-3.0,50,6,12,10.0,30.171259,,,TRUE,TRUE,,,,,,,FEW,6000,,,,,,,VFR,,,,,,,,,,,,METAR,328.0
KOLG 252115Z AUTO 04007KT 10SM SCT042 OVC050 05/M06 A3027 RMK AO1,KOLG,2023-04-25T21:15:00Z,46.3,-91.82,5.0,-6.0,40,7,,10.0,30.268702,,,TRUE,TRUE,,,,,,,SCT,4200,OVC,5000,,,,,VFR,,,,,,,,,,,,SPECI,334.0
KOKZ 252115Z AUTO 01005KT 10SM BKN080 OVC095 24/12 A3001 RMK AO2 T02430117,KOKZ,2023-04-25T21:15:00Z,32.97,-82.83,24.3,11.7,10,5,,10.0,30.008858,,,TRUE,TRUE,,,,,,,BKN,8000,OVC,9500,,,,,VFR,,,,,,,,,,,,METAR,128.0
KOKV 252115Z AUTO 12004KT 10SM CLR 13/M02 A3015 RMK AO2,KOKV,2023-04-25T21:15:00Z,39.13,-78.15,13.0,-2.0,120,4,,10.0,30.15059,,,TRUE,TRUE,,,,,,,CLR,,,,,,,,VFR,,,,,,,,,,,,METAR,213.0
KOKM 252115Z AUTO 11010KT 5SM -RA OVC008 10/10 A3003 RMK AO2 P0002 T00960096,KOKM,2023-04-25T21:15:00Z,35.67,-95.95,9.6,9.6,110,10,,5.0,30.029528,,,TRUE,TRUE,,,,,,-RA,OVC,800,,,,,,,IFR,,,,,,0.02,,,,,,METAR,215.0
KOJA 252115Z AUTO 09009KT 5SM -RA BR OVC005 10/10 A2993 RMK AO2 T01040096,KOJA,2023-04-25T21:15:00Z,35.55,-98.67,10.4,9.6,90,9,,5.0,29.929134,,,TRUE,TRUE,,,,,,-RA BR,OVC,500,,,,,,,IFR,,,,,,,,,,,,SPECI,490.0
KOIN 252115Z AUTO 13012KT 10SM BKN028 OVC034 11/06 A3004 RMK AO1 T01140064,KOIN,2023-04-25T21:15:00Z,39.83,-100.53,11.4,6.4,130,12,,10.0,30.041338,,,TRUE,TRUE,,,,,,,BKN,2800,OVC,3400,,,,,MVFR,,,,,,,,,,,,SPECI,810.0
KOIC 252115Z AUTO 00000KT 10SM OVC080 08/M03 A3019 RMK AO2 T00791026,KOIC,2023-04-25T21:15:00Z,42.57,-75.52,7.9,-2.6,0,0,,10.0,30.188976,,,TRUE,TRUE,,,,,,,OVC,8000,,,,,,,VFR,,,,,,,,,,,,METAR,311.0
KOGS 252115Z AUTO 21009G15KT 10SM SCT060 11/M04 A3013 RMK AO2,KOGS,2023-04-25T21:15:00Z,44.67,-75.47,11.0,-4.0,210,9,15,10.0,30.129921,,,TRUE,TRUE,,,,,,,SCT,6000,,,,,,,VFR,,,,,,,,,,,,METAR,88.0
KOGA 252115Z AUTO 13013KT 10SM BKN040 OVC046 13/04 A2998 RMK AO2 T01290042,KOGA,2023-04-25T21:15:00Z,41.12,-101.77,12.9,4.2,130,13,,10.0,29.97933,,,TRUE,TRUE,,,,,,,BKN,4000,OVC,4600,,,,,VFR,,,,,,,,,,,,METAR,991.0
KOEO 252115Z AUTO 03012G15KT 10SM SCT055 09/M01 A3028 RMK AO2 T00911015,KOEO,2023-04-25T21:15:00Z,45.32,-92.7,9.1,-1.5,30,12,15,10.0,30.280512,,,TRUE,TRUE,,,,,,,SCT,5500,,,,,,,VFR,,,,,,,,,,,,METAR,269.0
KOEL 252115Z AUTO 13014KT 4SM BR SCT006 OVC011 08/07 A2997 RMK AO1 T00830065,KOEL,2023-04-25T21:15:00Z,39.12,-100.82,8.3,6.5,130,14,,4.0,29.970472,,,TRUE,TRUE,,,,,,BR,SCT,600,OVC,1100,,,,,MVFR,,,,,,,,,,,,SPECI,924.0
KOEB 252115Z AUTO 35006KT 7SM OVC017 06/03 A3015 RMK AO2 T00560025,KOEB,2023-04-25T21:15:00Z,41.92,-85.05,5.6,2.5,350,6,,7.0,30.15059,,,TRUE,TRUE,,,,,,,OVC,1700,,,,,,,MVFR,,,,,,,,,,,,SPECI,291.0
KOBE 252115Z AUTO 15006KT 10SM CLR 28/22 A2985 RMK AO2,KOBE,2023-04-25T21:15:00Z,27.27,-80.85,28.0,22.0,150,6,,10.0,29.84941,,,TRUE,TRUE,,,,,,,CLR,,,,,,,,VFR,,,,,,,,,,,,METAR,11.0
KOAR 252115Z AUTO 28010KT 7SM CLR 13/09 A2995 RMK AO2 PWINO,KOAR,2023-04-25T21:15:00Z,36.67,-121.77,13.0,9.0,280,10,,7.0,29.949802,,,TRUE,TRUE,,,,,TRUE,,CLR,,,,,,,,VFR,,,,,,,,,,,,METAR,41.0
KO86 252115Z AUTO VRB05G13KT 10SM 26/M08 A3000 RMK A01,KO86,2023-04-25T21:15:00Z,40.98,-122.7,26.0,-8.0,0,5,13,10.0,30.0,,,TRUE,TRUE,,,,,,,,,,,,,,,,,,,,,,,,,,,SPECI,729.0
KO69 252115Z AUTO 8/44000008G14KT 10SM CLR 22/09 A2993 RMK A01,KO69,2023-04-25T21:15:00Z,38.25,-122.6,22.0,9.0,0,8,14,10.0,29.929134,,,TRUE,TRUE,,,,,,,CLR,,,,,,,,VFR,,,,,,,,,,,,METAR,26.0
KO32 252115Z AUTO VRB03KT 10SM CLR 26/11 A2989 RMK AO2 T02640108 $,KO32,2023-04-25T21:15:00Z,36.67,-119.45,26.4,10.8,0,3,,10.0,29.890747,,,TRUE,TRUE,TRUE,,,,,,CLR,,,,,,,,VFR,,,,,,,,,,,,SPECI,117.0
KO22 252115Z AUTO 25005G10KT 10SM CLR 24/03 A2993 RMK A01,KO22,2023-04-25T21:15:00Z,38.03,-120.42,24.0,3.0,250,5,10,10.0,29.929134,,,TRUE,TRUE,,,,,,,CLR,,,,,,,,VFR,,,,,,,,,,,,SPECI,637.0
KO05 252115Z AUTO 11008KT 10SM CLR 14/M03 A3011 RMK A01,KO05,2023-04-25T21:15:00Z,40.28,-121.23,14.0,-3.0,110,8,,10.0,30.109253,,,TRUE,TRUE,,,,,,,CLR,,,,,,,,VFR,,,,,,,,,,,,METAR,1380.0
KNUQ 252115Z AUTO 35010KT 10SM CLR 23/06 A2992 RMK AO2,KNUQ,2023-04-25T21:15:00Z,37.4,-122.05,23.0,6.0,350,10,,10.0,29.920275,,,TRUE,TRUE,,,,,,,CLR,,,,,,,,VFR,,,,,,,,,,,,SPECI,9.0
KNRN 252115Z AUTO 14012G16KT 10SM OVC034 12/05 A3004 RMK AO2,KNRN,2023-04-25T21:15:00Z,39.85,-99.9,12.0,5.0,140,12,16,10.0,30.041338,,,TRUE,TRUE,,,,,,,OVC,3400,,,,,,,VFR,,,,,,,,,,,,METAR,726.0
KN79 252115Z AUTO 00000KT 9SM CLR 12/M06 A3017 RMK AO2 T01161055,KN79,2023-04-25T21:15:00Z,,,11.6,-5.5,0,0,,9.0,30.171259,,,TRUE,TRUE,,,,,,,CLR,,,,,,,,VFR,,,,,,,,,,,,METAR,
KN38 252115Z AUTO 00000KT 10SM BKN070 BKN080 08/M06 A3013 RMK AO2,KN38,2023-04-25T21:15:00Z,41.73,-77.4,8.0,-6.0,0,0,,10.0,30.129921,,,TRUE,TRUE,,,,,,,BKN,7000,BKN,8000,,,,,VFR,,,,,,,,,,,,METAR,576.0
KN03 252115Z AUTO 36005KT 10SM SCT050 BKN065 08/M01 A3016 RMK AO2,KN03,2023-04-25T21:15:00Z,42.6,-76.22,8.0,-1.0,360,5,,10.0,30.159449,,,TRUE,TRUE,,,,,,,SCT,5000,BKN,6500,,,,,VFR,,,,,,,,,,,,METAR,361.0
KMZZ 252115Z AUTO 27008KT 10SM SCT055 SCT090 13/00 A3011 RMK AO2 T01280003,KMZZ,2023-04-25T21:15:00Z,40.48,-85.68,12.8,0.3,270,8,,10.0,30.109253,,,TRUE,TRUE,,,,,,,SCT,5500,SCT,9000,,,,,VFR,,,,,,,,,,,,METAR,260.0
KMZH 252115Z AUTO 03004KT 10SM SCT060 07/M07 A3026 RMK AO2,KMZH,2023-04-25T21:15:00Z,46.42,-92.8,7.0,-7.0,30,4,,10.0,30.259842,,,TRUE,TRUE,,,,,,,SCT,6000,,,,,,,VFR,,,,,,,,,,,,METAR,331.0
KMYZ 252115Z AUTO 14003KT 10SM OVC060 15/05 A3006 RMK AO2,KMYZ,2023-04-25T21:15:00Z,39.85,-96.63,15.0,5.0,140,3,,10.0,30.059055,,,TRUE,TRUE,,,,,,,OVC,6000,,,,,,,VFR,,,,,,,,,,,,METAR,388.0
KMYJ 252115Z AUTO 22003KT 10SM BKN090 18/03 A3007 RMK AO2,KMYJ,2023-04-25T21:15:00Z,39.15,-91.82,18.0,3.0,220,3,,10.0,30.070866,,,TRUE,TRUE,,,,,,,BKN,9000,,,,,,,VFR,,,,,,,,,,,,SPECI,249.0
KMWT 252115Z AUTO 27003KT 1 3/4SM RA BR FEW006 OVC047 11/09 A3008 RMK AO2 PRESRR P0008 T01110094,KMWT,2023-04-25T21:15:00Z,34.55,-93.58,11.1,9.4,270,3,,1.75,30.079725,,,TRUE,TRUE,,,,,,RA BR,FEW,600,OVC,4700,,,,,IFR,,,,,,0.08,,,,,,METAR,220.0
KMWO 252115Z AUTO 23009KT 10SM SCT070 SCT090 SCT110 14/M02 A3014 RMK AO2 T01441024,KMWO,2023-04-25T21:15:00Z,39.53,-84.4,14.4,-2.4,230,9,,10.0,30.138779,,,TRUE,TRUE,,,,,,,SCT,7000,SCT,9000,SCT,11000,,,VFR,,,,,,,,,,,,METAR,197.0
KMWM 252115Z AUTO 04008KT 10SM CLR 10/M08 A3019 RMK AO2,KMWM,2023-04-25T21:15:00Z,43.9,-95.1,10.0,-8.0,40,8,,10.0,30.188976,,,TRUE,TRUE,,,,,,,CLR,,,,,,,,VFR,,,,,,,,,,,,METAR,427.0
KMVE 252115Z AUTO 04010G14KT 10SM CLR 09/M05 A3023 RMK AO2,KMVE,2023-04-25T21:15:00Z,44.97,-95.72,9.0,-5.0,40,10,14,10.0,30.230314,,,TRUE,TRUE,,,,,,,CLR,,,,,,,,VFR,,,,,,,,,,,,METAR,319.0
KMUT 252115Z AUTO 07010G17KT 10SM FEW048 FEW055 13/03 A3015 RMK AO2,KMUT,2023-04-25T21:15:00Z,41.37,-91.15,13.0,3.0,70,10,17,10.0,30.15059,,,TRUE,TRUE,,,,,,,FEW,4800,FEW,5500,,,,,VFR,,,,,,,,,,,,SPECI,166.0
KMTV 252115Z AUTO 12003KT 10SM CLR 15/M01 A3017 RMK AO2 T01541007,KMTV,2023-04-25T21:15:00Z,36.63,-80.02,15.4,-0.7,120,3,,10.0,30.171259,,,TRUE,TRUE,,,,,,,CLR,,,,,,,,VFR,,,,,,,,,,,,METAR,276.0
KMTK 252115Z AUTO 00000G10KT 10SM BKN017 24/20 A2993 RMK A01,KMTK,2023-04-25T21:15:00Z,,,24.0,20.0,0,0,10,10.0,29.929134,,,TRUE,TRUE,,,,,,,BKN,1700,,,,,,,MVFR,,,,,,,,,,,,METAR,
KMRJ 252115Z AUTO 01004KT 10SM SCT045 OVC050 07/M06 A3021 RMK AO2 PWINO,KMRJ,2023-04-25T21:15:00Z,42.88,-90.23,7.0,-6.0,10,4,,10.0,30.209646,,,TRUE,TRUE,,,,,TRUE,,SCT,4500,OVC,5000,,,,,VFR,,,,,,,,,,,,METAR,350.0
KMQW 252115Z AUTO 05004KT 10SM CLR 29/15 A2999 RMK AO2 T02900150,KMQW,2023-04-25T21:15:00Z,32.1,-82.88,29.0,15.0,50,4,,10.0,29.991142,,,TRUE,TRUE,,,,,,,CLR,,,,,,,,VFR,,,,,,,,,,,,METAR,62.0
KMQS 252115Z AUTO 24007KT 10SM CLR 12/M05 A3019 RMK AO2,KMQS,2023-04-25T21:15:00Z,39.98,-75.87,12.0,-5.0,240,7,,10.0,30.188976,,,TRUE,TRUE,,,,,,,CLR,,,,,,,,VFR,,,,,,,,,,,,SPECI,200.0
KMQJ 252115Z AUTO 26008KT 10SM OVC055 15/04 A3011 RMK AO1,KMQJ,2023-04-25T21:15:00Z,39.85,-85.9,15.0,4.0,260,8,,10.0,30.109253,,,TRUE,TRUE,,,,,,,OVC,5500,,,,,,,VFR,,,,,,,,,,,,METAR,262.0
KMQB 252115Z AUTO 36009KT 10SM OVC080 15/05 A3013 RMK AO2 T01500047,KMQB,2023-04-25T21:15:00Z,40.52,-90.65,15.0,4.7,360,9,,10.0,30.129921,,,TRUE,TRUE,,,,,,,OVC,8000,,,,,,,VFR,,,,,,,,,,,,SPECI,205.0
KMPZ 252115Z AUTO 01005KT 10SM SCT046 13/03 A3013 RMK AO2,KMPZ,2023-04-25T21:15:00Z,40.95,-91.52,13.0,3.0,10,5,,10.0,30.129921,,,TRUE,TRUE,,,,,,,SCT,4600,,,,,,,VFR,,,,,,,,,,,,METAR,222.0
KMPR 252115Z AUTO 15012KT 10SM BKN026 OVC075 13/07 A3002 RMK AO2 T01310071,KMPR,2023-04-25T21:15:00Z,38.35,-97.68,13.1,7.1,150,12,,10.0,30.02067,,,TRUE,TRUE,,,,,,,BKN,2600,OVC,7500,,,,,MVFR,,,,,,,,,,,,METAR,455.0
KMOX 252115Z AUTO 07008G19KT 10SM 09/M07 A3024 RMK AO2,KMOX,2023-04-25T21:15:00Z,45.57,-95.97,9.0,-7.0,70,8,19,10.0,30.239174,,,TRUE,TRUE,,,,,,,,,,,,,,,,,,,,,,,,,,,METAR,346.0
KMOP 252115Z AUTO 33004KT 10SM BKN075 10/M05 A3013 RMK AO2 T00971048,KMOP,2023-04-25T21:15:00Z,43.62,-84.73,9.7,-4.8,330,4,,10.0,30.129921,,,TRUE,TRUE,,,,,,,BKN,7500,,,,,,,VFR,,,,,,,,,,,,METAR,229.0
KMNZ 252115Z AUTO 15010KT 7SM OVC018 21/18 A2987 RMK AO2 T02090178,KMNZ,2023-04-25T21:15:00Z,31.67,-98.15,20.9,17.8,150,10,,7.0,29.870079,,,TRUE,TRUE,,,,,,,OVC,1800,,,,,,,MVFR,,,,,,,,,,,,METAR,397.0
KMNV 252115Z AUTO VRB05G11KT 10SM 18/02 A3008 RMK A01,KMNV,2023-04-25T21:15:00Z,35.55,-84.38,18.0,2.0,0,5,11,10.0,30.079725,,,TRUE,TRUE,,,,,,,,,,,,,,,,,,,,,,,,,,,SPECI,306.0
KMNI 252115Z AUTO 13004KT 10SM OVC070 20/06 A3008 RMK AO2,KMNI,2023-04-25T21:15:00Z,33.58,-80.22,20.0,6.0,130,4,,10.0,30.079725,,,TRUE,TRUE,,,,,,,OVC,7000,,,,,,,VFR,,,,,,,,,,,,SPECI,29.0
KMNH 252115Z AUTO 00000KT 10SM BKN050 BKN065 OVC090 06/00 A2991 RMK AO2 LTG DSNT E THRU S,KMNH,2023-04-25T21:15:00Z,39.22,-104.65,6.0,0.0,0,0,,10.0,29.911417,,,TRUE,TRUE,,,,,,,BKN,5000,BKN,6500,OVC,9000,,,VFR,,,,,,,,,,,,METAR,2152.0
KMMI 252115Z AUTO 09006KT 10SM CLR 18/01 A3009 RMK A01,KMMI,2023-04-25T21:15:00Z,35.4,-84.57,18.0,1.0,90,6,,10.0,30.088583,,,TRUE,TRUE,,,,,,,CLR,,,,,,,,VFR,,,,,,,,,,,,SPECI,252.0
KMMH 252115Z AUTO 00000KT 10SM CLR 13/M12 A3016 RMK AO2 T01331124,KMMH,2023-04-25T21:15:00Z,37.62,-118.83,13.3,-12.4,0,0,,10.0,30.159449,,,TRUE,TRUE,,,,,,,CLR,,,,,,,,VFR,,,,,,,,,,,,SPECI,2167.0
KMLJ 252115Z AUTO 00000KT 10SM FEW070 OVC095 23/13 A3001 RMK AO2,KMLJ,2023-04-25T21:15:00Z,33.15,-83.25,23.0,13.0,0,0,,10.0,30.008858,,,TRUE,TRUE,,,,,,,FEW,7000,OVC,9500,,,,,VFR,,,,,,,,,,,,METAR,115.0
KMLE 252115Z AUTO 11005KT 10SM BKN050 17/03 A3008 RMK AO2 T01650033,KMLE,2023-04-25T21:15:00Z,41.2,-96.12,16.5,3.3,110,5,,10.0,30.079725,,,TRUE,TRUE,,,,,,,BKN,5000,,,,,,,VFR,,,,,,,,,,,,METAR,318.0
KMKS 252115Z AUTO 09006KT 10SM OVC120 21/08 A3007 RMK AO2,KMKS,2023-04-25T21:15:00Z,33.18,-80.03,21.0,8.0,90,6,,10.0,30.070866,,,TRUE,TRUE,,,,,,,OVC,12000,,,,,,,VFR,,,,,,,,,,,,SPECI,22.0
KMKN 252115Z AUTO 15009G15KT 10SM 21/16 A2986 RMK AO2 T02050160,KMKN,2023-04-25T21:15:00Z,31.92,-98.6,20.5,16.0,150,9,15,10.0,29.861221,,,TRUE,TRUE,,,,,,,,,,,,,,,,,,,,,,,,,,,SPECI,428.0
KMKJ 252115Z AUTO 32005KT 10SM OVC110 14/M06 A3015 RMK AO2 T01401059,KMKJ,2023-04-25T21:15:00Z,36.88,-81.33,14.0,-5.9,320,5,,10.0,30.15059,,,TRUE,TRUE,,,,,,,OVC,11000,,,,,,,VFR,,,,,,,,,,,,METAR,777.0
KMJQ 252115Z AUTO 09006KT 10SM CLR 11/M09 A3019 RMK AO2,KMJQ,2023-04-25T21:15:00Z,43.63,-94.98,11.0,-9.0,90,6,,10.0,30.188976,,,TRUE,TRUE,,,,,,,CLR,,,,,,,,VFR,,,,,,,,,,,,METAR,439.0
KMHR 252115Z AUTO 32012KT 10SM CLR 28/01 A2986 RMK A01,KMHR,2023-04-25T21:15:00Z,38.55,-121.28,28.0,1.0,320,12,,10.0,29.861221,,,TRUE,TRUE,,,,,,,CLR,,,,,,,,VFR,,,,,,,,,,,,METAR,30.0
KMHP 252115Z AUTO 09006KT 3 1/2SM RA BR SCT017 BKN065 OVC080 18/ A3004 RMK AO2 P0004 T0177////,KMHP,2023-04-25T21:15:00Z,32.37,-82.08,17.7,,90,6,,3.5,30.041338,,,TRUE,TRUE,,,,,,RA BR,SCT,1700,BKN,6500,OVC,8000,,,MVFR,,,,,,0.04,,,,,,METAR,60.0
KMHL 252115Z AUTO 07007KT 10SM SCT070 18/03 A3007 RMK AO2,KMHL,2023-04-25T21:15:00Z,39.1,-93.2,18.0,3.0,70,7,,10.0,30.070866,,,TRUE,TRUE,,,,,,,SCT,7000,,,,,,,VFR,,,,,,,,,,,,SPECI,236.0
KMGR 252115Z AUTO 34006KT 10SM FEW055 OVC100 26/14 A2995 RMK AO2 T02610142,KMGR,2023-04-25T21:15:00Z,31.08,-83.8,26.1,14.2,340,6,,10.0,29.949802,,,TRUE,TRUE,,,,,,,FEW,5500,OVC,10000,,,,,VFR,,,,,,,,,,,,METAR,86.0
KMGN 252115Z AUTO 26005KT 10SM OVC036 03/00 A3018 RMK AO2 T00390004,KMGN,2023-04-25T21:15:00Z,45.43,-84.92,3.9,0.4,260,5,,10.0,30.180119,,,TRUE,TRUE,,,,,,,OVC,3600,,,,,,,VFR,,,,,,,,,,,,METAR,205.0
KMGG 252115Z AUTO 04009KT 10SM BKN060 09/M07 A3025 RMK AO2 T00941074,KMGG,2023-04-25T21:15:00Z,45.23,-93.98,9.4,-7.4,40,9,,10.0,30.250984,,,TRUE,TRUE,,,,,,,BKN,6000,,,,,,,VFR,,,,,,,,,,,,METAR,310.0
KMGC 252115Z AUTO 36010G15KT 320V020 10SM OVC013 05/02 A3019 RMK AO2,KMGC,2023-04-25T21:15:00Z,41.7,-86.82,5.0,2.0,360,10,15,10.0,30.188976,,,TRUE,TRUE,,,,,,,OVC,1300,,,,,,,MVFR,,,,,,,,,,,,METAR,199.0
KMEZ 252115Z AUTO 05005KT 1SM +RA BR VV013 09/09 A3007 RMK AO2 P0015 T00870087,KMEZ,2023-04-25T21:15:00Z,34.55,-94.2,8.7,8.7,50,5,,1.0,30.070866,,,TRUE,TRUE,,,,,,+RA BR,OVX,0,,,,,,,LIFR,,,,,,0.15,,,,,1300,METAR,320.0
KMEV 252115Z AUTO 34008KT 10SM CLR 17/M04 A3011 RMK AO2,KMEV,2023-04-25T21:15:00Z,38.98,-119.75,17.0,-4.0,340,8,,10.0,30.109253,,,TRUE,TRUE,,,,,,,CLR,,,,,,,,VFR,,,,,,,,,,,,SPECI,1437.0
KMDZ 252115Z AUTO 01008KT 10SM OVC060 06/M04 A3021 RMK AO2 T00601044 PWINO,KMDZ,2023-04-25T21:15:00Z,45.1,-90.3,6.0,-4.4,10,8,,10.0,30.209646,,,TRUE,TRUE,,,,,TRUE,,OVC,6000,,,,,,,VFR,,,,,,,,,,,,METAR,446.0
KMDS 252115Z AUTO 07011G17KT 10SM CLR 11/M05 A3016 RMK AO2,KMDS,2023-04-25T21:15:00Z,44.02,-97.08,11.0,-5.0,70,11,17,10.0,30.159449,,,TRUE,TRUE,,,,,,,CLR,,,,,,,,VFR,,,,,,,,,,,,METAR,524.0
KMDQ 252115Z AUTO 10SM CLR 19/01 A3005 RMK A02 T01880007,KMDQ,2023-04-25T21:15:00Z,34.87,-86.55,18.8,0.7,,,,10.0,30.050198,,,TRUE,TRUE,,,,,,,CLR,,,,,,,,VFR,,,,,,,,,,,,METAR,221.0
KMDD 252115Z AUTO 26010KT 10SM 28/03 A2978 RMK AO2 T02800033,KMDD,2023-04-25T21:15:00Z,32.03,-102.1,28.0,3.3,260,10,,10.0,29.778543,,,TRUE,TRUE,,,,,,,,,,,,,,,,,,,,,,,,,,,METAR,853.0
KMCJ 252115Z AUTO 13010G18KT 090V160 7SM BKN033 OVC060 25/17 A2986 RMK A01,KMCJ,2023-04-25T21:15:00Z,29.72,-95.4,25.0,17.0,130,10,18,7.0,29.861221,,,TRUE,TRUE,,,,,,,BKN,3300,OVC,6000,,,,,VFR,,,,,,,,,,,,METAR,70.0
KMCD 252115Z AUTO 33005KT 10SM SCT023 SCT028 OVC033 03/03 A3017 RMK AO2 T00260026 P0001,KMCD,2023-04-25T21:15:00Z,45.85,-84.63,2.6,2.6,330,5,,10.0,30.171259,,,TRUE,TRUE,,,,,,,SCT,2300,SCT,2800,OVC,3300,,,VFR,,,,,,0.01,,,,,,METAR,228.0
KMCC 252115Z AUTO 33011KT 10SM CLR 28/01 A2987 RMK AO2,KMCC,2023-04-25T21:15:00Z,38.67,-121.4,28.0,1.0,330,11,,10.0,29.870079,,,TRUE,TRUE,,,,,,,CLR,,,,,,,,VFR,,,,,,,,,,,,SPECI,21.0
KMBY 252115Z AUTO 29004KT 10SM SCT075 18/01 A3008 RMK AO2,KMBY,2023-04-25T21:15:00Z,39.47,-92.43,18.0,1.0,290,4,,10.0,30.079725,,,TRUE,TRUE,,,,,,,SCT,7500,,,,,,,VFR,,,,,,,,,,,,METAR,263.0
KMBT 252115Z AUTO 05008KT 10SM CLR 19/M03 A3006 RMK A01,KMBT,2023-04-25T21:15:00Z,35.88,-86.38,19.0,-3.0,50,8,,10.0,30.059055,,,TRUE,TRUE,,,,,,,CLR,,,,,,,,VFR,,,,,,,,,,,,SPECI,187.0
KMBO 252115Z AUTO VRB05KT 10SM CLR 23/08 A2998 RMK AO2,KMBO,2023-04-25T21:15:00Z,32.43,-90.1,23.0,8.0,0,5,,10.0,29.97933,,,TRUE,TRUE,,,,,,,CLR,,,,,,,,VFR,,,,,,,,,,,,METAR,98.0
KMAW 252115Z AUTO 06003KT 10SM CLR 20/M01 A3010 RMK AO1,KMAW,2023-04-25T21:15:00Z,36.6,-90.0,20.0,-1.0,60,3,,10.0,30.100393,,,TRUE,TRUE,,,,,,,CLR,,,,,,,,VFR,,,,,,,,,,,,SPECI,88.0
KMAO 252115Z AUTO 10SM CLR 21/M03 A3010 RMK AO2,KMAO,2023-04-25T21:15:00Z,34.18,-79.33,21.0,-3.0,,,,10.0,30.100393,,,TRUE,TRUE,,,,,,,CLR,,,,,,,,VFR,,,,,,,,,,,,SPECI,27.0
KMAN 252115Z AUTO 28011G17KT 10SM CLR 17/00 A3011 RMK A01,KMAN,2023-04-25T21:15:00Z,43.58,-116.52,17.0,0.0,280,11,17,10.0,30.109253,,,TRUE,TRUE,,,,,,,CLR,,,,,,,,VFR,,,,,,,,,,,,SPECI,773.0
KM75 252115Z AUTO 19010KT 10SM CLR 18/02 A2993 RMK A01,KM75,2023-04-25T21:15:00Z,48.37,-107.92,18.0,2.0,190,10,,10.0,29.929134,,,TRUE,TRUE,,,,,,,CLR,,,,,,,,VFR,,,,,,,,,,,,SPECI,687.0
KM40 252115Z AUTO VRB04KT 10SM FEW022 FEW085 FEW120 20/04 A3006 RMK AO2,KM40,2023-04-25T21:15:00Z,33.87,-88.48,20.0,4.0,0,4,,10.0,30.059055,,,TRUE,TRUE,,,,,,,FEW,2200,FEW,8500,FEW,12000,,,VFR,,,,,,,,,,,,METAR,68.0
KM30 252115Z AUTO 17003KT 10SM CLR 19/M01 A3010 RMK AO2 T01941014,KM30,2023-04-25T21:15:00Z,37.18,-88.75,19.4,-1.4,170,3,,10.0,30.100393,,,TRUE,TRUE,,,,,,,CLR,,,,,,,,VFR,,,,,,,,,,,,SPECI,116.0
KM25 252115Z AUTO 00000KT 10SM CLR 20/00 A3010 RMK AO2 PWINO,KM25,2023-04-25T21:15:00Z,36.77,-88.58,20.0,0.0,0,0,,10.0,30.100393,,,TRUE,TRUE,,,,,TRUE,,CLR,,,,,,,,VFR,,,,,,,,,,,,SPECI,157.0
KM21 252115Z AUTO 35004KT 10SM CLR 19/00 A3010 RMK AO2 T01941004,KM21,2023-04-25T21:15:00Z,37.22,-87.15,19.4,-0.4,350,4,,10.0,30.100393,,,TRUE,TRUE,,,,,,,CLR,,,,,,,,VFR,,,,,,,,,,,,METAR,127.0
KM08 252115Z AUTO VRB04G12KT 10SM CLR 20/M05 A3004 RMK A01,KM08,2023-04-25T21:15:00Z,35.22,-89.05,20.0,-5.0,0,4,12,10.0,30.041338,,,TRUE,TRUE,,,,,,,CLR,,,,,,,,VFR,,,,,,,,,,,,SPECI,149.0
KM02 252115Z AUTO 07004KT 10SM CLR 19/M03 A3006 RMK A01,KM02,2023-04-25T21:15:00Z,36.13,-87.43,19.0,-3.0,70,4,,10.0,30.059055,,,TRUE,TRUE,,,,,,,CLR,,,,,,,,VFR,,,,,,,,,,,,SPECI,268.0
KM01 252115Z AUTO 00000KT 9SM CLR 21/M02 A3003 RMK AO2 T02061024 $,KM01,2023-04-25T21:15:00Z,35.2,-90.05,20.6,-2.4,0,0,,9.0,30.029528,,,TRUE,TRUE,TRUE,,,,,,CLR,,,,,,,,VFR,,,,,,,,,,,,METAR,68.0
KLYV 252115Z AUTO 14006KT 10SM CLR 11/M05 A3017 RMK AO2,KLYV,2023-04-25T21:15:00Z,43.62,-96.22,11.0,-5.0,140,6,,10.0,30.171259,,,TRUE,TRUE,,,,,,,CLR,,,,,,,,VFR,,,,,,,,,,,,METAR,435.0
KLYO 252115Z AUTO 12011KT 10SM OVC022 11/06 A3002 RMK AO2 T01080061,KLYO,2023-04-25T21:15:00Z,38.35,-98.23,10.8,6.1,120,11,,10.0,30.02067,,,TRUE,TRUE,,,,,,,OVC,2200,,,,,,,MVFR,,,,,,,,,,,,METAR,515.0
KLXY 252115Z AUTO 09005KT 10SM SCT028 BKN034 BKN049 22/16 A2988 RMK AO2 T02230158,KLXY,2023-04-25T21:15:00Z,31.63,-96.52,22.3,15.8,90,5,,10.0,29.878937,,,TRUE,TRUE,,,,,,,SCT,2800,BKN,3400,BKN,4900,,,VFR,,,,,,,,,,,,SPECI,164.0
KLXN 252115Z AUTO 11010KT 10SM SCT043 14/05 A3003 RMK AO2 T01370045,KLXN,2023-04-25T21:15:00Z,40.78,-99.77,13.7,4.5,110,10,,10.0,30.029528,,,TRUE,TRUE,,,,,,,SCT,4300,,,,,,,VFR,,,,,,,,,,,,SPECI,734.0
KLXL 252115Z AUTO 00000KT 10SM CLR 07/M06 A3025 RMK AO2,KLXL,2023-04-25T21:15:00Z,45.95,-94.33,7.0,-6.0,0,0,,10.0,30.250984,,,TRUE,TRUE,,,,,,,CLR,,,,,,,,VFR,,,,,,,,,,,,METAR,335.0
KLWA 252115Z AUTO 36010G15KT 10SM SCT015 06/03 A3018 RMK AO2 T00620028,KLWA,2023-04-25T21:15:00Z,42.35,-86.25,6.2,2.8,360,10,15,10.0,30.180119,,,TRUE,TRUE,,,,,,,SCT,1500,,,,,,,VFR,,,,,,,,,,,,SPECI,199.0
KLVL 252115Z AUTO 04003KT 10SM CLR 18/06 A3016 RMK AO1 T01800060,KLVL,2023-04-25T21:15:00Z,36.78,-77.8,18.0,6.0,40,3,,10.0,30.159449,,,TRUE,TRUE,,,,,,,CLR,,,,,,,,VFR,,,,,,,,,,,,SPECI,98.0
KLUX 252115Z AUTO 05005KT 10SM OVC065 18/06 A3009 RMK AO2,KLUX,2023-04-25T21:15:00Z,34.5,-81.95,18.0,6.0,50,5,,10.0,30.088583,,,TRUE,TRUE,,,,,,,OVC,6500,,,,,,,VFR,,,,,,,,,,,,METAR,213.0
KLUV 252115Z AUTO 25010G15KT 10SM SCT095 SCT120 26/06 A2979 RMK AO2,KLUV,2023-04-25T21:15:00Z,32.75,-101.92,26.0,6.0,250,10,15,10.0,29.790354,,,TRUE,TRUE,,,,,,,SCT,9500,SCT,12000,,,,,VFR,,,,,,,,,,,,METAR,910.0
KLUM 252115Z 06003G17KT 10SM BKN065 11/M09 A3023 RMK AO2 T01081091 PWINO,KLUM,2023-04-25T21:15:00Z,44.9,-91.87,10.8,-9.1,60,3,17,10.0,30.230314,,,,TRUE,,,,,TRUE,,BKN,6500,,,,,,,VFR,,,,,,,,,,,,SPECI,271.0
KLUL 252115Z AUTO 00000KT 10SM CLR 25/07 A2997 RMK A02 T02510069,KLUL,2023-04-25T21:15:00Z,31.67,-89.17,25.1,6.9,0,0,,10.0,29.970472,,,TRUE,TRUE,,,,,,,CLR,,,,,,,,VFR,,,,,,,,,,,,METAR,74.0
KLUG 252115Z AUTO 02009KT 10SM CLR 19/M03 A3006 RMK A01,KLUG,2023-04-25T21:15:00Z,35.52,-86.8,19.0,-3.0,20,9,,10.0,30.059055,,,TRUE,TRUE,,,,,,,CLR,,,,,,,,VFR,,,,,,,,,,,,SPECI,218.0
KLUD 252115Z AUTO 14007KT 10SM SCT031 SCT038 SCT060 21/12 A2989 RMK AO2 T02060120,KLUD,2023-04-25T21:15:00Z,33.25,-97.58,20.6,12.0,140,7,,10.0,29.890747,,,TRUE,TRUE,,,,,,,SCT,3100,SCT,3800,SCT,6000,,,VFR,,,,,,,,,,,,SPECI,319.0
KLUA 252115Z AUTO 00000KT 10SM CLR 14/M01 A3014 RMK AO2,KLUA,2023-04-25T21:15:00Z,38.67,-78.5,14.0,-1.0,0,0,,10.0,30.138779,,,TRUE,TRUE,,,,,,,CLR,,,,,,,,VFR,,,,,,,,,,,,METAR,273.0
KLRY 252115Z AUTO 16009KT 10SM SCT075 21/00 A3006 RMK AO2,KLRY,2023-04-25T21:15:00Z,38.62,-94.35,21.0,0.0,160,9,,10.0,30.059055,,,TRUE,TRUE,,,,,,,SCT,7500,,,,,,,VFR,,,,,,,,,,,,METAR,272.0
KLRU 252115Z AUTO 27018G29KT 10SM CLR 29/M04 A2983 RMK AO2 T02891038,KLRU,2023-04-25T21:15:00Z,32.28,-106.92,28.9,-3.8,270,18,29,10.0,29.828741,,,TRUE,TRUE,,,,,,,CLR,,,,,,,,VFR,,,,,,,,,,,,METAR,1355.0
KLRO 252115Z AUTO VRB04G13KT 9SM FEW120 22/14 A3006 RMK AO2,KLRO,2023-04-25T21:15:00Z,32.9,-79.78,22.0,14.0,0,4,13,9.0,30.059055,,,TRUE,TRUE,,,,,,,FEW,12000,,,,,,,VFR,,,,,,,,,,,,METAR,3.0
KLRJ 252115Z AUTO 04012KT 10SM CLR 14/M03 A3010 RMK AO2,KLRJ,2023-04-25T21:15:00Z,42.77,-96.2,14.0,-3.0,40,12,,10.0,30.100393,,,TRUE,TRUE,,,,,,,CLR,,,,,,,,VFR,,,,,,,,,,,,METAR,363.0
KLQK 252115Z AUTO 14003KT 10SM OVC080 17/06 A3010 RMK AO2 T01700064,KLQK,2023-04-25T21:15:00Z,34.82,-82.7,17.0,6.4,140,3,,10.0,30.100393,,,TRUE,TRUE,,,,,,,OVC,8000,,,,,,,VFR,,,,,,,,,,,,METAR,291.0
KLOM 252115Z AUTO 32004KT 10SM SCT075 14/M04 A3018 RMK AO2 T01421037,KLOM,2023-04-25T21:15:00Z,40.13,-75.27,14.2,-3.7,320,4,,10.0,30.180119,,,TRUE,TRUE,,,,,,,SCT,7500,,,,,,,VFR,,,,,,,,,,,,METAR,87.0
KLNQ 252115Z AUTO 04007KT 10SM SCT011 24/19 A2996 RMK AO2 T02400189,KLNQ,2023-04-25T21:15:00Z,29.35,-89.43,24.0,18.9,40,7,,10.0,29.958662,,,TRUE,TRUE,,,,,,,SCT,1100,,,,,,,VFR,,,,,,,,,,,,METAR,1.0
KLNP 252115Z AUTO 00000KT 10SM OVC100 13/M05 A3014 RMK AO2,KLNP,2023-04-25T21:15:00Z,36.98,-82.52,13.0,-5.0,0,0,,10.0,30.138779,,,TRUE,TRUE,,,,,,,OVC,10000,,,,,,,VFR,,,,,,,,,,,,METAR,817.0
KLNN 252115Z AUTO 03007KT 10SM BKN050 OVC060 06/02 A3018 RMK AO1 T00550016,KLNN,2023-04-25T21:15:00Z,41.68,-81.38,5.5,1.6,30,7,,10.0,30.180119,,,TRUE,TRUE,,,,,,,BKN,5000,OVC,6000,,,,,VFR,,,,,,,,,,,,METAR,190.0
KLNL 252115Z AUTO 35010KT 10SM OVC044 05/M07 A3024 RMK AO2 T00451070,KLNL,2023-04-25T21:15:00Z,46.15,-89.22,4.5,-7.0,350,10,,10.0,30.239174,,,TRUE,TRUE,,,,,,,OVC,4400,,,,,,,VFR,,,,,,,,,,,,METAR,517.0
KLNC 252115Z AUTO 16007KT 10SM SCT048 BKN060 OVC070 21/13 A2991 RMK AO2 T02080130,KLNC,2023-04-25T21:15:00Z,32.58,-96.72,20.8,13.0,160,7,,10.0,29.911417,,,TRUE,TRUE,,,,,,,SCT,4800,BKN,6000,OVC,7000,,,VFR,,,,,,,,,,,,SPECI,152.0
KLNA 252115Z AUTO 14011KT 10SM CLR 30/22 A2988 RMK AO2 LTG DSNT N T02970216,KLNA,2023-04-25T21:15:00Z,26.6,-80.08,29.7,21.6,140,11,,10.0,29.878937,,,TRUE,TRUE,,,,,,,CLR,,,,,,,,VFR,,,,,,,,,,,,SPECI,3.0
KLMS 252115Z AUTO 02006G11KT 10SM FEW120 20/05 A3006 RMK AO2,KLMS,2023-04-25T21:15:00Z,,,20.0,5.0,20,6,11,10.0,30.059055,,,TRUE,TRUE,,,,,,,FEW,12000,,,,,,,VFR,,,,,,,,,,,,SPECI,
KLMO 252115Z AUTO 36015G23KT 10SM SCT016 SCT023 SCT110 10/04 A2989 RMK AO2 T01040038,KLMO,2023-04-25T21:15:00Z,40.17,-105.17,10.4,3.8,360,15,23,10.0,29.890747,,,TRUE,TRUE,,,,,,,SCT,1600,SCT,2300,SCT,11000,,,VFR,,,,,,,,,,,,SPECI,1535.0
KLLN 252115Z AUTO 16006G16KT 10SM FEW070 24/07 A2979 RMK AO2,KLLN,2023-04-25T21:15:00Z,33.55,-102.37,24.0,7.0,160,6,16,10.0,29.790354,,,TRUE,TRUE,,,,,,,FEW,7000,,,,,,,VFR,,,,,,,,,,,,METAR,1071.0
KLKU 252115Z AUTO 26003KT 10SM SCT070 15/00 A3017 RMK AO2 T01510003,KLKU,2023-04-25T21:15:00Z,38.02,-77.97,15.1,0.3,260,3,,10.0,30.171259,,,TRUE,TRUE,,,,,,,SCT,7000,,,,,,,VFR,,,,,,,,,,,,METAR,146.0
KLKR 252115Z AUTO 04003KT 10SM OVC075 18/08 A3011 RMK AO2,KLKR,2023-04-25T21:15:00Z,34.72,-80.85,18.0,8.0,40,3,,10.0,30.109253,,,TRUE,TRUE,,,,,,,OVC,7500,,,,,,,VFR,,,,,,,,,,,,METAR,166.0
KLJF 252115Z AUTO 06009KT 10SM SCT060 09/M07 A3024 RMK AO2,KLJF,2023-04-25T21:15:00Z,45.1,-94.52,9.0,-7.0,60,9,,10.0,30.239174,,,TRUE,TRUE,,,,,,,SCT,6000,,,,,,,VFR,,,,,,,,,,,,METAR,347.0
KLHZ 252115Z AUTO 00000KT 10SM SCT055 SCT065 SCT090 17/06 A3015 RMK AO2,KLHZ,2023-04-25T21:15:00Z,36.02,-78.33,17.0,6.0,0,0,,10.0,30.15059,,,TRUE,TRUE,,,,,,,SCT,5500,SCT,6500,SCT,9000,,,VFR,,,,,,,,,,,,METAR,104.0
KLHM 252115Z AUTO 34011G15KT 10SM CLR 27/05 A2987 RMK AO1,KLHM,2023-04-25T21:15:00Z,38.92,-121.35,27.0,5.0,340,11,15,10.0,29.870079,,,TRUE,TRUE,,,,,,,CLR,,,,,,,,VFR,,,,,,,,,,,,SPECI,36.0
KLHB 252115Z AUTO 09005KT 10SM BKN027 OVC048 24/17 A2989 RMK AO2 T02350170,KLHB,2023-04-25T21:15:00Z,30.87,-96.62,23.5,17.0,90,5,,10.0,29.890747,,,TRUE,TRUE,,,,,,,BKN,2700,OVC,4800,,,,,MVFR,,,,,,,,,,,,SPECI,83.0
KLGC 252115Z AUTO 00000KT 10SM SCT110 24/05 A3001 RMK AO2 T02370051,KLGC,2023-04-25T21:15:00Z,33.0,-85.07,23.7,5.1,0,0,,10.0,30.008858,,,TRUE,TRUE,,,,,,,SCT,11000,,,,,,,VFR,,,,,,,,,,,,METAR,209.0
KLDM 252115Z AUTO 35014G20KT 10SM CLR 07/M04 A3019 RMK AO2 T00721037,KLDM,2023-04-25T21:15:00Z,43.97,-86.4,7.2,-3.7,350,14,20,10.0,30.188976,,,TRUE,TRUE,,,,,,,CLR,,,,,,,,VFR,,,,,,,,,,,,METAR,194.0
KLCQ 252115Z AUTO 08006KT 10SM SCT060 SCT095 22/18 A2995 RMK AO2 LTG DSNT NE,KLCQ,2023-04-25T21:15:00Z,30.18,-82.58,22.0,18.0,80,6,,10.0,29.949802,,,TRUE,TRUE,,,,,,,SCT,6000,SCT,9500,,,,,VFR,,,,,,,,,,,,METAR,59.0
KLCG 252115Z AUTO 07010G19KT 10SM CLR 17/00 A3009 RMK AO2 T01661003,KLCG,2023-04-25T21:15:00Z,42.25,-96.98,16.6,-0.3,70,10,19,10.0,30.088583,,,TRUE,TRUE,,,,,,,CLR,,,,,,,,VFR,,,,,,,,,,,,SPECI,434.0
KLBO 252115Z AUTO 16005G08KT 10SM SCT075 20/M03 A3006 RMK AO2,KLBO,2023-04-25T21:15:00Z,37.65,-92.65,20.0,-3.0,160,5,8,10.0,30.059055,,,TRUE,TRUE,,,,,,,SCT,7500,,,,,,,VFR,,,,,,,,,,,,METAR,399.0
KLAM 252115Z AUTO 21014G21KT 9SM FEW014 SCT024 SCT030 BKN042 BKN049 OVC060 08/01 A2987 RMK AO2 PK WND 22037/2055 WSHFT 2047 LTG DSNT NE AND S RAB2102E2111 FEW V SCT PRESFR P0000 T00790012 $,KLAM,2023-04-25T21:15:00Z,35.87,-106.27,7.9,1.2,210,14,21,9.0,29.870079,,,TRUE,TRUE,TRUE,,,,,,FEW,1400,SCT,2400,SCT,3000,BKN,4200,VFR,,,,,,0.005,,,,,,METAR,2166.0
KL35 252115Z AUTO 07011G14KT 10SM CLR 16/M07 A3008 RMK AO2,KL35,2023-04-25T21:15:00Z,34.27,-116.85,16.0,-7.0,70,11,14,10.0,30.079725,,,TRUE,TRUE,,,,,,,CLR,,,,,,,,VFR,,,,,,,,,,,,METAR,2062.0
KL18 252115Z AUTO 23006KT 10SM BKN021 18/13 A2990 RMK AO2,KL18,2023-04-25T21:15:00Z,33.35,-117.25,18.0,13.0,230,6,,10.0,29.899607,,,TRUE,TRUE,,,,,,,BKN,2100,,,,,,,MVFR,,,,,,,,,,,,SPECI,215.0
KL08 252115Z AUTO 11008KT 070V180 10SM CLR 33/01 A2975 RMK AO2,KL08,2023-04-25T21:15:00Z,33.27,-116.32,33.0,1.0,110,8,,10.0,29.749016,,,TRUE,TRUE,,,,,,,CLR,,,,,,,,VFR,,,,,,,,,,,,SPECI,156.0
KKY8 252115Z AUTO 23003KT 10SM CLR 19/00 A3011 RMK A01,KKY8,2023-04-25T21:15:00Z,37.95,-86.87,19.0,0.0,230,3,,10.0,30.109253,,,TRUE,TRUE,,,,,,,CLR,,,,,,,,VFR,,,,,,,,,,,,METAR,124.0
KKNB 252115Z AUTO 04007G13KT 10SM CLR 18/M11 A2998 RMK A01,KKNB,2023-04-25T21:15:00Z,37.02,-112.53,18.0,-11.0,40,7,13,10.0,29.97933,,,TRUE,TRUE,,,,,,,CLR,,,,,,,,VFR,,,,,,,,,,,,METAR,1476.0
KK88 252115Z AUTO 14008KT 10SM CLR 17/04 A3004 RMK AO1 T01730037,KK88,2023-04-25T21:15:00Z,37.87,-95.38,17.3,3.7,140,8,,10.0,30.041338,,,TRUE,TRUE,,,,,,,CLR,,,,,,,,VFR,,,,,,,,,,,,SPECI,308.0
KK82 252115Z AUTO 12016KT 10SM OVC045 14/05 A3003 RMK AO2 T01420053,KK82,2023-04-25T21:15:00Z,39.77,-98.8,14.2,5.3,120,16,,10.0,30.029528,,,TRUE,TRUE,,,,,,,OVC,4500,,,,,,,VFR,,,,,,,,,,,,METAR,548.0
KK62 252115Z AUTO 27005KT 10SM CLR 17/M01 A3011 RMK AO2,KK62,2023-04-25T21:15:00Z,38.7,-84.4,17.0,-1.0,270,5,,10.0,30.109253,,,TRUE,TRUE,,,,,,,CLR,,,,,,,,VFR,,,,,,,,,,,,METAR,274.0
KJZP 252115Z AUTO 12008KT 10SM OVC060 18/05 A3007 RMK AO2 T01840053,KJZP,2023-04-25T21:15:00Z,34.45,-84.47,18.4,5.3,120,8,,10.0,30.070866,,,TRUE,TRUE,,,,,,,OVC,6000,,,,,,,VFR,,,,,,,,,,,,METAR,462.0
KJZI 252115Z AUTO 06013KT 10SM FEW090 21/14 A3006 RMK AO2,KJZI,2023-04-25T21:15:00Z,32.7,-80.0,21.0,14.0,60,13,,10.0,30.059055,,,TRUE,TRUE,,,,,,,FEW,9000,,,,,,,VFR,,,,,,,,,,,,METAR,5.0
KJYR 252115Z AUTO 13008KT 10SM OVC055 15/04 A3006 RMK AO2,KJYR,2023-04-25T21:15:00Z,40.9,-97.62,15.0,4.0,130,8,,10.0,30.059055,,,TRUE,TRUE,,,,,,,OVC,5500,,,,,,,VFR,,,,,,,,,,,,SPECI,508.0
KJYO 252115Z AUTO 00000KT 10SM CLR 14/00 A3020 RMK AO2,KJYO,2023-04-25T21:15:00Z,39.07,-77.57,14.0,0.0,0,0,,10.0,30.200787,,,TRUE,TRUE,,,,,,,CLR,,,,,,,,VFR,,,,,,,,,,,,METAR,112.0
KJYM 252115Z AUTO 36004KT 10SM BKN016 OVC024 04/04 A3014 RMK AO2 T00430035,KJYM,2023-04-25T21:15:00Z,41.92,-84.58,4.3,3.5,360,4,,10.0,30.138779,,,TRUE,TRUE,,,,,,,BKN,1600,OVC,2400,,,,,MVFR,,,,,,,,,,,,METAR,357.0
KJYL 252115Z AUTO 12004KT 10SM -RA SCT039 BKN090 OVC100 18/17 A3005 RMK AO2 T01840169,KJYL,2023-04-25T21:15:00Z,32.65,-81.6,18.4,16.9,120,4,,10.0,30.050198,,,TRUE,TRUE,,,,,,-RA,SCT,3900,BKN,9000,OVC,10000,,,VFR,,,,,,,,,,,,SPECI,54.0
KJWY 252115Z AUTO 16004KT 10SM BKN048 OVC060 20/14 A2993 RMK AO2 T01960137,KJWY,2023-04-25T21:15:00Z,32.45,-96.92,19.6,13.7,160,4,,10.0,29.929134,,,TRUE,TRUE,,,,,,,BKN,4800,OVC,6000,,,,,VFR,,,,,,,,,,,,METAR,211.0
KJWG 252115Z AUTO 07012KT 1 1/2SM DZ BR OVC004 09/09 A2998 RMK AO2 T00920086,KJWG,2023-04-25T21:15:00Z,35.87,-98.42,9.2,8.6,70,12,,1.5,29.97933,,,TRUE,TRUE,,,,,,DZ BR,OVC,400,,,,,,,LIFR,,,,,,,,,,,,SPECI,469.0
KJVY 252115Z AUTO 25003KT 10SM CLR 18/00 A3010 RMK AO2 PWINO,KJVY,2023-04-25T21:15:00Z,38.37,-85.73,18.0,0.0,250,3,,10.0,30.100393,,,TRUE,TRUE,,,,,TRUE,,CLR,,,,,,,,VFR,,,,,,,,,,,,METAR,141.0
KJVW 252115Z AUTO 00000KT 10SM CLR 25/07 A2998 RMK AO2,KJVW,2023-04-25T21:15:00Z,32.3,-90.42,25.0,7.0,0,0,,10.0,29.97933,,,TRUE,TRUE,,,,,,,CLR,,,,,,,,VFR,,,,,,,,,,,,SPECI,73.0
KJTC 252115Z AUTO 24031G41KT 10SM CLR 19/M06 A2993 RMK AO2,KJTC,2023-04-25T21:15:00Z,34.13,-109.32,19.0,-6.0,240,31,41,10.0,29.929134,,,TRUE,TRUE,,,,,,,CLR,,,,,,,,VFR,,,,,,,,,,,,METAR,2148.0
KJSY 252115Z AUTO 08005KT 10SM CLR 14/M03 A3016 RMK AO2 T01361027 TSNO,KJSY,2023-04-25T21:15:00Z,45.35,-117.25,13.6,-2.7,80,5,,10.0,30.159449,,,TRUE,TRUE,,,TRUE,,,,CLR,,,,,,,,VFR,,,,,,,,,,,,METAR,1256.0
KJSV 252115Z AUTO 11008KT 8SM -DZ FEW006 SCT010 BKN095 11/11 A3005 RMK AO2,KJSV,2023-04-25T21:15:00Z,35.43,-94.8,11.0,11.0,110,8,,8.0,30.050198,,,TRUE,TRUE,,,,,,-DZ,FEW,600,SCT,1000,BKN,9500,,,VFR,,,,,,,,,,,,METAR,158.0
KJSO 252115Z AUTO 11003KT 10SM OVC055 19/13 A2995 RMK AO2 T01900130 TSNO,KJSO,2023-04-25T21:15:00Z,31.87,-95.22,19.0,13.0,110,3,,10.0,29.949802,,,TRUE,TRUE,,,TRUE,,,,OVC,5500,,,,,,,VFR,,,,,,,,,,,,METAR,204.0
KJRO 252115Z AUTO 32004KT 10SM BKN090 17/M01 A3014 RMK AO2,KJRO,2023-04-25T21:15:00Z,38.98,-82.58,17.0,-1.0,320,4,,10.0,30.138779,,,TRUE,TRUE,,,,,,,BKN,9000,,,,,,,VFR,,,,,,,,,,,,METAR,224.0
KJPX 252115Z AUTO 19006KT 10SM SCT028 BKN070 13/04 A3015 RMK AO2 T01260040 FZRANO,KJPX,2023-04-25T21:15:00Z,40.95,-72.25,12.6,4.0,190,6,,10.0,30.15059,,,TRUE,TRUE,,,,TRUE,,,SCT,2800,BKN,7000,,,,,VFR,,,,,,,,,,,,METAR,10.0
KJOT 252115Z AUTO 04013KT 10SM OVC033 09/03 A3019 RMK AO2 T00930026,KJOT,2023-04-25T21:15:00Z,41.52,-88.18,9.3,2.6,40,13,,10.0,30.188976,,,TRUE,TRUE,,,,,,,OVC,3300,,,,,,,VFR,,,,,,,,,,,,METAR,175.0
KJMR 252115Z AUTO 00000KT 10SM SCT060 08/M07 A3029 RMK AO2,KJMR,2023-04-25T21:15:00Z,45.88,-93.27,8.0,-7.0,0,0,,10.0,30.28937,,,TRUE,TRUE,,,,,,,SCT,6000,,,,,,,VFR,,,,,,,,,,,,METAR,301.0
KJKJ 252115Z AUTO 00000KT 10SM OVC060 09/M04 A3027 RMK AO2 TSNO,KJKJ,2023-04-25T21:15:00Z,46.83,-96.67,9.0,-4.0,0,0,,10.0,30.268702,,,TRUE,TRUE,,,TRUE,,,,OVC,6000,,,,,,,VFR,,,,,,,,,,,,METAR,280.0
KJFZ 252115Z AUTO 17003KT 10SM OVC100 14/M05 A3014 RMK AO2 T01401052,KJFZ,2023-04-25T21:15:00Z,37.07,-81.8,14.0,-5.2,170,3,,10.0,30.138779,,,TRUE,TRUE,,,,,,,OVC,10000,,,,,,,VFR,,,,,,,,,,,,METAR,809.0
KJFX 252115Z AUTO VRB05KT 10SM BKN095 21/04 A3005 RMK AO2,KJFX,2023-04-25T21:15:00Z,33.9,-87.32,21.0,4.0,0,5,,10.0,30.050198,,,TRUE,TRUE,,,,,,,BKN,9500,,,,,,,VFR,,,,,,,,,,,,SPECI,144.0
KJES 252115Z AUTO 13007KT 10SM SCT031 BKN048 OVC110 23/15 A3002 RMK AO2,KJES,2023-04-25T21:15:00Z,31.55,-81.88,23.0,15.0,130,7,,10.0,30.02067,,,TRUE,TRUE,,,,,,,SCT,3100,BKN,4800,OVC,11000,,,VFR,,,,,,,,,,,,METAR,26.0
KJCA 252115Z AUTO 04008KT 10SM SCT055 BKN110 19/07 A3008 RMK AO2 T01870073,KJCA,2023-04-25T21:15:00Z,34.18,-83.57,18.7,7.3,40,8,,10.0,30.079725,,,TRUE,TRUE,,,,,,,SCT,5500,BKN,11000,,,,,VFR,,,,,,,,,,,,METAR,287.0
KJAS 252115Z AUTO VRB03KT 8SM BKN065 21/16 A2993 RMK AO2,KJAS,2023-04-25T21:15:00Z,30.88,-94.03,21.0,16.0,0,3,,8.0,29.929134,,,TRUE,TRUE,,,,,,,BKN,6500,,,,,,,VFR,,,,,,,,,,,,METAR,60.0
KJAQ 252115Z AUTO 32007KT 10SM CLR 24/03 A2993 RMK AO1 T02350031,KJAQ,2023-04-25T21:15:00Z,38.37,-120.8,23.5,3.1,320,7,,10.0,29.929134,,,TRUE,TRUE,,,,,,,CLR,,,,,,,,VFR,,,,,,,,,,,,METAR,518.0
KIZA 252115Z AUTO VRB05KT 10SM CLR 22/13 A2990 RMK AO2,KIZA,2023-04-25T21:15:00Z,34.6,-120.07,22.0,13.0,0,5,,10.0,29.899607,,,TRUE,TRUE,,,,,,,CLR,,,,,,,,VFR,,,,,,,,,,,,METAR,200.0
KIYA 252115Z AUTO 07004KT SCT039 BKN110 25/13 A2993 RMK AO2 T02510128 PWINO,KIYA,2023-04-25T21:15:00Z,29.98,-92.08,25.1,12.8,70,4,,,29.929134,,,TRUE,TRUE,,,,,TRUE,,SCT,3900,BKN,11000,,,,,,,,,,,,,,,,,SPECI,4.0
KIUA 252115Z AUTO 10006KT 10SM BKN065 OVC075 09/02 A3016 RMK AO2 T00870023,KIUA,2023-04-25T21:15:00Z,42.92,-77.33,8.7,2.3,100,6,,10.0,30.159449,,,TRUE,TRUE,,,,,,,BKN,6500,OVC,7500,,,,,VFR,,,,,,,,,,,,SPECI,248.0
KISQ 252115Z AUTO 34012G16KT 10SM OVC027 04/M04 A3021 RMK AO2 T00391040,KISQ,2023-04-25T21:15:00Z,45.97,-86.17,3.9,-4.0,340,12,16,10.0,30.209646,,,TRUE,TRUE,,,,,,,OVC,2700,,,,,,,MVFR,,,,,,,,,,,,METAR,206.0
KISM 252115Z 09019G24KT 10SM VCTS SCT028 26/20 A2986 RMK AO2 LTG DSNT ALQDS TSB09 PRESFR PNO $,KISM,2023-04-25T21:15:00Z,28.28,-81.43,26.0,20.0,90,19,24,10.0,29.861221,,,,TRUE,TRUE,,,,,VCTS,SCT,2800,,,,,,,VFR,,,,,,,,,,,,SPECI,25.0
KIRS 252115Z AUTO 01006KT 10SM SCT018 OVC026 06/01 A3015 RMK AO2 T00580007,KIRS,2023-04-25T21:15:00Z,41.8,-85.43,5.8,0.7,10,6,,10.0,30.15059,,,TRUE,TRUE,,,,,,,SCT,1800,OVC,2600,,,,,MVFR,,,,,,,,,,,,METAR,282.0
KIOB 252115Z AUTO 29003KT 10SM CLR 16/00 A3014 RMK AO2 PWINO,KIOB,2023-04-25T21:15:00Z,38.05,-83.98,16.0,0.0,290,3,,10.0,30.138779,,,TRUE,TRUE,,,,,TRUE,,CLR,,,,,,,,VFR,,,,,,,,,,,,SPECI,301.0
KINJ 252115Z AUTO 12007KT 10SM BKN028 BKN039 OVC048 21/16 A2988 RMK AO2 T02100155,KINJ,2023-04-25T21:15:00Z,32.08,-97.1,21.0,15.5,120,7,,10.0,29.878937,,,TRUE,TRUE,,,,,,,BKN,2800,BKN,3900,OVC,4800,,,MVFR,,,,,,,,,,,,METAR,208.0
KINF 252115Z AUTO 07008KT 10SM SCT044 SCT050 26/20 A2992 RMK AO2 LTG DSNT E,KINF,2023-04-25T21:15:00Z,28.8,-82.32,26.0,20.0,70,8,,10.0,29.920275,,,TRUE,TRUE,,,,,,,SCT,4400,SCT,5000,,,,,VFR,,,,,,,,,,,,SPECI,14.0
KIMS 252115Z AUTO 26011G14KT 10SM SCT080 18/M01 A3012 RMK AO2,KIMS,2023-04-25T21:15:00Z,38.75,-85.47,18.0,-1.0,260,11,14,10.0,30.121063,,,TRUE,TRUE,,,,,,,SCT,8000,,,,,,,VFR,,,,,,,,,,,,METAR,244.0
KIMM 252115Z AUTO VRB05KT 10SM BKN046 OVC055 A2986 RMK AO2,KIMM,2023-04-25T21:15:00Z,26.43,-81.4,,,0,5,,10.0,29.861221,,,TRUE,TRUE,,,,,,,BKN,4600,OVC,5500,,,,,VFR,,,,,,,,,,,,SPECI,11.0
KIKW 252115Z AUTO 28005KT 10SM BKN060 OVC080 10/M04 A3013 RMK AO2 T00951041,KIKW,2023-04-25T21:15:00Z,43.67,-84.27,9.5,-4.1,280,5,,10.0,30.129921,,,TRUE,TRUE,,,,,,,BKN,6000,OVC,8000,,,,,VFR,,,,,,,,,,,,SPECI,190.0
KIKV 252115Z AUTO VRB05G14KT 10SM CLR 15/M01 A3012 RMK AO2,KIKV,2023-04-25T21:15:00Z,41.68,-93.57,15.0,-1.0,0,5,14,10.0,30.121063,,,TRUE,TRUE,,,,,,,CLR,,,,,,,,VFR,,,,,,,,,,,,METAR,270.0
KIKK 252115Z AUTO 02014KT 10SM CLR 11/02 A3015 RMK AO2 T01070017 PWINO,KIKK,2023-04-25T21:15:00Z,41.07,-87.85,10.7,1.7,20,14,,10.0,30.15059,,,TRUE,TRUE,,,,,TRUE,,CLR,,,,,,,,VFR,,,,,,,,,,,,SPECI,188.0
KIKG 252115Z AUTO 11010KT 10SM SCT045 BKN065 OVC080 25/22 A2981 RMK AO2 T02510222,KIKG,2023-04-25T21:15:00Z,27.55,-98.03,25.1,22.2,110,10,,10.0,29.811024,,,TRUE,TRUE,,,,,,,SCT,4500,BKN,6500,OVC,8000,,,VFR,,,,,,,,,,,,METAR,37.0
KIJX 252115Z AUTO 34009G14KT 10SM SCT110 18/04 A3009 RMK AO2 T01810043,KIJX,2023-04-25T21:15:00Z,39.77,-90.25,18.1,4.3,340,9,14,10.0,30.088583,,,TRUE,TRUE,,,,,,,SCT,11000,,,,,,,VFR,,,,,,,,,,,,METAR,187.0
KIIY 252115Z AUTO 14003KT 10SM SCT060 SCT110 22/10 A3005 RMK AO2 T02150102,KIIY,2023-04-25T21:15:00Z,33.78,-82.82,21.5,10.2,140,3,,10.0,30.050198,,,TRUE,TRUE,,,,,,,SCT,6000,SCT,11000,,,,,VFR,,,,,,,,,,,,METAR,192.0
KIIB 252115Z AUTO 08005KT 10SM SCT055 11/M02 A3018 RMK AO2 T01081024,KIIB,2023-04-25T21:15:00Z,42.45,-91.95,10.8,-2.4,80,5,,10.0,30.180119,,,TRUE,TRUE,,,,,,,SCT,5500,,,,,,,VFR,,,,,,,,,,,,METAR,294.0
KIGQ 252115Z AUTO 05013G16KT 10SM OVC017 06/01 A3019 RMK AO2 T00570012,KIGQ,2023-04-25T21:15:00Z,41.53,-87.53,5.7,1.2,50,13,16,10.0,30.188976,,,TRUE,TRUE,,,,,,,OVC,1700,,,,,,,MVFR,,,,,,,,,,,,METAR,187.0
KIFA 252115Z AUTO 04006KT 10SM CLR 13/M03 A3016 RMK AO2 T01311030,KIFA,2023-04-25T21:15:00Z,42.47,-93.27,13.1,-3.0,40,6,,10.0,30.159449,,,TRUE,TRUE,,,,,,,CLR,,,,,,,,VFR,,,,,,,,,,,,METAR,344.0
KIER 252115Z AUTO 08007KT 10SM BKN065 OVC120 24/13 A2996 RMK AO2 LTG DSNT N T02390129,KIER,2023-04-25T21:15:00Z,31.73,-93.1,23.9,12.9,80,7,,10.0,29.958662,,,TRUE,TRUE,,,,,,,BKN,6500,OVC,12000,,,,,VFR,,,,,,,,,,,,SPECI,35.0
KIDP 252115Z AUTO 20010KT 10SM BKN045 OVC110 14/08 A3004 RMK AO2 T01450077,KIDP,2023-04-25T21:15:00Z,37.17,-95.78,14.5,7.7,200,10,,10.0,30.041338,,,TRUE,TRUE,,,,,,,BKN,4500,OVC,11000,,,,,VFR,,,,,,,,,,,,METAR,252.0
KIDI 252115Z AUTO 21006KT 10SM FEW120 12/M04 A3017 RMK A01,KIDI,2023-04-25T21:15:00Z,40.63,-79.1,12.0,-4.0,210,6,,10.0,30.171259,,,TRUE,TRUE,,,,,,,FEW,12000,,,,,,,VFR,,,,,,,,,,,,METAR,425.0
KIBM 252115Z AUTO 11015G19KT 10SM OVC009 06/05 A2995 RMK AO2 T00610046,KIBM,2023-04-25T21:15:00Z,41.18,-103.68,6.1,4.6,110,15,19,10.0,29.949802,,,TRUE,TRUE,,,,,,,OVC,900,,,,,,,IFR,,,,,,,,,,,,METAR,1494.0
KI95 252115Z AUTO 23014G21KT 10SM OVC060 11/M02 A3011 RMK A01,KI95,2023-04-25T21:15:00Z,,,11.0,-2.0,230,14,21,10.0,30.109253,,,TRUE,TRUE,,,,,,,OVC,6000,,,,,,,VFR,,,,,,,,,,,,METAR,
KI75 252115Z AUTO 04007KT 7SM CLR 16/04 A3010 RMK AO2 T01630041,KI75,2023-04-25T21:15:00Z,41.05,-93.68,16.3,4.1,40,7,,7.0,30.100393,,,TRUE,TRUE,,,,,,,CLR,,,,,,,,VFR,,,,,,,,,,,,METAR,336.0
KI74 252115Z AUTO 20005KT 10SM SCT060 BKN075 BKN120 11/00 A3013 RMK AO2,KI74,2023-04-25T21:15:00Z,40.12,-83.75,11.0,0.0,200,5,,10.0,30.129921,,,TRUE,TRUE,,,,,,,SCT,6000,BKN,7500,BKN,12000,,,VFR,,,,,,,,,,,,METAR,322.0
KI69 252115Z AUTO 24007KT 10SM OVC075 16/M01 A3012 RMK AO2 T01581006,KI69,2023-04-25T21:15:00Z,39.08,-84.22,15.8,-0.6,240,7,,10.0,30.121063,,,TRUE,TRUE,,,,,,,OVC,7500,,,,,,,VFR,,,,,,,,,,,,METAR,238.0
KI68 252115Z AUTO 23009G15KT 10SM 14/00 A3013 RMK AO1 T01420000,KI68,2023-04-25T21:15:00Z,39.47,-84.25,14.2,0.0,230,9,15,10.0,30.129921,,,TRUE,TRUE,,,,,,,,,,,,,,,,,,,,,,,,,,,METAR,274.0
KI67 252115Z AUTO 13003KT 10SM OVC075 15/M01 A3012 RMK AO1,KI67,2023-04-25T21:15:00Z,39.25,-84.78,15.0,-1.0,130,3,,10.0,30.121063,,,TRUE,TRUE,,,,,,,OVC,7500,,,,,,,VFR,,,,,,,,,,,,METAR,177.0
KI63 252115Z AUTO 35008KT 10SM SCT044 17/07 A3009 RMK AO2 T01650070,KI63,2023-04-25T21:15:00Z,39.98,-90.8,16.5,7.0,350,8,,10.0,30.088583,,,TRUE,TRUE,,,,,,,SCT,4400,,,,,,,VFR,,,,,,,,,,,,METAR,221.0
KI23 252115Z AUTO 21005KT 10SM SCT090 13/M06 A3011 RMK AO1,KI23,2023-04-25T21:15:00Z,39.57,-83.42,13.0,-6.0,210,5,,10.0,30.109253,,,TRUE,TRUE,,,,,,,SCT,9000,,,,,,,VFR,,,,,,,,,,,,METAR,298.0
KI19 252115Z AUTO 27007G12KT 240V300 10SM BKN070 BKN100 13/M03 A3012 RMK AO2,KI19,2023-04-25T21:15:00Z,39.7,-83.98,13.0,-3.0,270,7,12,10.0,30.121063,,,TRUE,TRUE,,,,,,,BKN,7000,BKN,10000,,,,,VFR,,,,,,,,,,,,METAR,285.0
KI16 252115Z AUTO 10SM CLR 17/M07 A3017 RMK AO2 T01711069,KI16,2023-04-25T21:15:00Z,37.6,-81.57,17.1,-6.9,,,,10.0,30.171259,,,TRUE,TRUE,,,,,,,CLR,,,,,,,,VFR,,,,,,,,,,,,SPECI,528.0
KHZX 252115Z AUTO 04006KT 10SM BKN060 07/M06 A3026 RMK AO2,KHZX,2023-04-25T21:15:00Z,46.62,-93.32,7.0,-6.0,40,6,,10.0,30.259842,,,TRUE,TRUE,,,,,,,BKN,6000,,,,,,,VFR,,,,,,,,,,,,METAR,374.0
KHZL 252115Z AUTO 00000KT SCT060 10/M06 A3019 RMK AO2 PWINO,KHZL,2023-04-25T21:15:00Z,40.98,-76.0,10.0,-6.0,0,0,,,30.188976,,,TRUE,TRUE,,,,,TRUE,,SCT,6000,,,,,,,,,,,,,,,,,,,METAR,481.0
KHZE 252115Z AUTO 15009G15KT 10SM CLR 13/M07 A3015 RMK AO2,KHZE,2023-04-25T21:15:00Z,47.28,-101.58,13.0,-7.0,150,9,15,10.0,30.15059,,,TRUE,TRUE,,,,,,,CLR,,,,,,,,VFR,,,,,,,,,,,,METAR,542.0
KHYX 252115Z AUTO 15004KT 10SM BKN060 OVC075 09/00 A3014 RMK AO2 T00931005,KHYX,2023-04-25T21:15:00Z,43.43,-83.87,9.3,-0.5,150,4,,10.0,30.138779,,,TRUE,TRUE,,,,,,,BKN,6000,OVC,7500,,,,,VFR,,,,,,,,,,,,METAR,181.0
KHYW 252115Z AUTO 00000KT 10SM CLR 21/06 A3010 RMK AO2,KHYW,2023-04-25T21:15:00Z,33.83,-79.12,21.0,6.0,0,0,,10.0,30.100393,,,TRUE,TRUE,,,,,,,CLR,,,,,,,,VFR,,,,,,,,,,,,SPECI,10.0
KHWY 252115Z AUTO 18003KT 10SM SCT070 17/M03 A3017 RMK AO2 T01661031,KHWY,2023-04-25T21:15:00Z,38.58,-77.72,16.6,-3.1,180,3,,10.0,30.171259,,,TRUE,TRUE,,,,,,,SCT,7000,,,,,,,VFR,,,,,,,,,,,,SPECI,93.0
KHVS 252115Z AUTO 07007KT 10SM FEW110 20/04 A3010 RMK AO2,KHVS,2023-04-25T21:15:00Z,34.4,-80.12,20.0,4.0,70,7,,10.0,30.100393,,,TRUE,TRUE,,,,,,,FEW,11000,,,,,,,VFR,,,,,,,,,,,,METAR,110.0
KHVE 252115Z AUTO 33018G21KT 10SM SCT060 BKN075 BKN100 13/M07 A2995 RMK AO2,KHVE,2023-04-25T21:15:00Z,38.42,-110.7,13.0,-7.0,330,18,21,10.0,29.949802,,,TRUE,TRUE,,,,,,,SCT,6000,BKN,7500,BKN,10000,,,VFR,,,,,,,,,,,,METAR,1351.0
KHVC 252115Z AUTO VRB04KT 10SM CLR 20/01 A3009 RMK AO2,KHVC,2023-04-25T21:15:00Z,,,20.0,1.0,0,4,,10.0,30.088583,,,TRUE,TRUE,,,,,,,CLR,,,,,,,,VFR,,,,,,,,,,,,SPECI,
KHTH 252115Z AUTO 34011KT 10SM CLR 17/M06 A3012 RMK A01,KHTH,2023-04-25T21:15:00Z,38.55,-118.63,17.0,-6.0,340,11,,10.0,30.121063,,,TRUE,TRUE,,,,,,,CLR,,,,,,,,VFR,,,,,,,,,,,,SPECI,1281.0
KHSP 252115Z AUTO 17008KT 10SM CLR 10/M04 A3013 RMK AO2 T00991039,KHSP,2023-04-25T21:15:00Z,37.95,-79.82,9.9,-3.9,170,8,,10.0,30.129921,,,TRUE,TRUE,,,,,,,CLR,,,,,,,,VFR,,,,,,,,,,,,METAR,1148.0
KHSG 252115Z AUTO 34006G15KT 10SM SCT070 SCT080 BKN100 16/M01 A2994 RMK AO2 T01571015,KHSG,2023-04-25T21:15:00Z,43.72,-108.38,15.7,-1.5,340,6,15,10.0,29.940945,,,TRUE,TRUE,,,,,,,SCT,7000,SCT,8000,BKN,10000,,,VFR,,,,,,,,,,,,SPECI,1497.0
KHSD 252115Z AUTO 10007KT 3SM BR OVC013 10/09 A2996 RMK A01,KHSD,2023-04-25T21:15:00Z,35.6,-97.72,10.0,9.0,100,7,,3.0,29.958662,,,TRUE,TRUE,,,,,,BR,OVC,1300,,,,,,,MVFR,,,,,,,,,,,,SPECI,358.0
KHSB 252115Z AUTO 00000KT 10SM CLR 19/05 A3010 RMK AO2 T01920052,KHSB,2023-04-25T21:15:00Z,37.82,-88.55,19.2,5.2,0,0,,10.0,30.100393,,,TRUE,TRUE,,,,,,,CLR,,,,,,,,VFR,,,,,,,,,,,,SPECI,118.0
KHRX 252115Z AUTO 20015KT 10SM SCT070 BKN085 BKN120 24/06 A2975 RMK AO2 LTG DSNT E T02350062,KHRX,2023-04-25T21:15:00Z,34.87,-102.33,23.5,6.2,200,15,,10.0,29.749016,,,TRUE,TRUE,,,,,,,SCT,7000,BKN,8500,BKN,12000,,,VFR,,,,,,,,,,,,METAR,1153.0
KHRF 252115Z AUTO 19005KT 10SM OVC050 12/M00 A3013 RMK AO2,KHRF,2023-04-25T21:15:00Z,46.25,-114.13,12.0,0.0,190,5,,10.0,30.129921,,,TRUE,TRUE,,,,,,,OVC,5000,,,,,,,VFR,,,,,,,,,,,,METAR,1112.0
KHQU 252115Z AUTO 03006KT 10SM SCT100 23/10 A3003 RMK AO2 T02260105,KHQU,2023-04-25T21:15:00Z,33.53,-82.52,22.6,10.5,30,6,,10.0,30.029528,,,TRUE,TRUE,,,,,,,SCT,10000,,,,,,,VFR,,,,,,,,,,,,METAR,141.0
KHQG 252115Z AUTO 10016G21KT 1/2SM FG OVC002 10/09 A2986 RMK AO2 T00950091,KHQG,2023-04-25T21:15:00Z,37.17,-101.37,9.5,9.1,100,16,21,0.5,29.861221,,,TRUE,TRUE,,,,,,FG,OVC,200,,,,,,,LIFR,,,,,,,,,,,,SPECI,956.0
KHQG 252115Z AUTO 10016G21KT 1/2SM FG OVC002 10/09 A2986 RMK AO2 T00950091,KHQG,2023-04-25T21:15:00Z,37.17,-101.37,9.5,9.1,100,16,21,0.5,29.861221,,,TRUE,TRUE,,,,,,FG,OVC,200,,,,,,,LIFR,,,,,,,,,,,,SPECI,956.0
KHPT 252115Z AUTO 05004KT 10SM CLR 13/M05 A3015 RMK AO2,KHPT,2023-04-25T21:15:00Z,42.72,-93.23,13.0,-5.0,50,4,,10.0,30.15059,,,TRUE,TRUE,,,,,,,CLR,,,,,,,,VFR,,,,,,,,,,,,METAR,354.0
KHOE 252115Z AUTO 03004KT 10SM SCT050 SCT065 SCT100 26/13 A2995 RMK AO2 T02630140,KHOE,2023-04-25T21:15:00Z,31.05,-82.78,26.3,14.0,30,4,,10.0,29.949802,,,TRUE,TRUE,,,,,,,SCT,5000,SCT,6500,SCT,10000,,,VFR,,,,,,,,,,,,SPECI,56.0
KHNZ 252115Z AUTO 06003KT 10SM SCT050 16/04 A3014 RMK AO2 T01580043,KHNZ,2023-04-25T21:15:00Z,36.37,-78.53,15.8,4.3,60,3,,10.0,30.138779,,,TRUE,TRUE,,,,,,,SCT,5000,,,,,,,VFR,,,,,,,,,,,,METAR,158.0
KHNR 252115Z AUTO 09011KT 10SM CLR 16/02 A3010 RMK A01,KHNR,2023-04-25T21:15:00Z,41.58,-95.33,16.0,2.0,90,11,,10.0,30.100393,,,TRUE,TRUE,,,,,,,CLR,,,,,,,,VFR,,,,,,,,,,,,METAR,364.0
KHMZ 252115Z AUTO 14003KT 10SM BKN085 12/M06 A3014 RMK AO2 T01191059,KHMZ,2023-04-25T21:15:00Z,40.08,-78.52,11.9,-5.9,140,3,,10.0,30.138779,,,TRUE,TRUE,,,,,,,BKN,8500,,,,,,,VFR,,,,,,,,,,,,METAR,351.0
KHMT 252115Z AUTO 15003KT 10SM CLR 21/12 A2988 RMK AO2 T02150125,KHMT,2023-04-25T21:15:00Z,33.73,-117.02,21.5,12.5,150,3,,10.0,29.878937,,,TRUE,TRUE,,,,,,,CLR,,,,,,,,VFR,,,,,,,,,,,,METAR,462.0
KHMP 252115Z AUTO 27005KT 10SM BKN070 23/06 A3005 RMK AO2 T02260061,KHMP,2023-04-25T21:15:00Z,33.38,-84.33,22.6,6.1,270,5,,10.0,30.050198,,,TRUE,TRUE,,,,,,,BKN,7000,,,,,,,VFR,,,,,,,,,,,,METAR,263.0
KHLX 252115Z AUTO 17003KT 10SM SCT110 12/00 A3013 RMK AO2 T01211001,KHLX,2023-04-25T21:15:00Z,36.77,-80.82,12.1,-0.1,170,3,,10.0,30.129921,,,TRUE,TRUE,,,,,,,SCT,11000,,,,,,,VFR,,,,,,,,,,,,METAR,819.0
KHLB 252115Z AUTO 31006KT 10SM BKN070 BKN110 14/M02 A3011 RMK A01,KHLB,2023-04-25T21:15:00Z,39.35,-85.27,14.0,-2.0,310,6,,10.0,30.109253,,,TRUE,TRUE,,,,,,,BKN,7000,BKN,11000,,,,,VFR,,,,,,,,,,,,SPECI,297.0
KHJH 252115Z AUTO 13008G14KT 10SM OVC050 15/04 A3005 RMK AO2 T01530040,KHJH,2023-04-25T21:15:00Z,40.15,-97.58,15.3,4.0,130,8,14,10.0,30.050198,,,TRUE,TRUE,,,,,,,OVC,5000,,,,,,,VFR,,,,,,,,,,,,SPECI,449.0
KHII 252115Z AUTO 33021G31KT 10SM CLR 31/M07 A2977 RMK AO2,KHII,2023-04-25T21:15:00Z,34.57,-114.37,31.0,-7.0,330,21,31,10.0,29.769686,,,TRUE,TRUE,,,,,,,CLR,,,,,,,,VFR,,,,,,,,,,,,METAR,241.0
KHHW 252115Z AUTO 08007KT 7SM -RA 12/09 A2998 RMK AO2,KHHW,2023-04-25T21:15:00Z,34.03,-95.55,12.0,9.0,80,7,,7.0,29.97933,,,TRUE,TRUE,,,,,,-RA,,,,,,,,,,,,,,,,,,,,,METAR,178.0
KHHG 252115Z AUTO 35008G15KT 10SM SCT044 BKN050 BKN090 10/05 A3011 RMK AO2 T00960051,KHHG,2023-04-25T21:15:00Z,40.85,-85.45,9.6,5.1,350,8,15,10.0,30.109253,,,TRUE,TRUE,,,,,,,SCT,4400,BKN,5000,BKN,9000,,,VFR,,,,,,,,,,,,METAR,247.0
KHHF 252115Z AUTO 12011KT 10SM SCT025 SCT031 OVC048 18/12 A2983 RMK AO2 T01770116,KHHF,2023-04-25T21:15:00Z,35.9,-100.4,17.7,11.6,120,11,,10.0,29.828741,,,TRUE,TRUE,,,,,,,SCT,2500,SCT,3100,OVC,4800,,,VFR,,,,,,,,,,,,SPECI,729.0
KHFY 252115Z AUTO 25012G16KT 10SM BKN050 BKN060 OVC070 14/04 A3013 RMK AO2 T01390044,KHFY,2023-04-25T21:15:00Z,39.63,-86.08,13.9,4.4,250,12,16,10.0,30.129921,,,TRUE,TRUE,,,,,,,BKN,5000,BKN,6000,OVC,7000,,,VFR,,,,,,,,,,,,METAR,250.0
KHFJ 252115Z AUTO 13006KT 10SM OVC055 15/05 A3005 RMK AO2,KHFJ,2023-04-25T21:15:00Z,36.9,-94.02,15.0,5.0,130,6,,10.0,30.050198,,,TRUE,TRUE,,,,,,,OVC,5500,,,,,,,VFR,,,,,,,,,,,,SPECI,398.0
KHEQ 252115Z AUTO 12013KT 10SM OVC026 12/05 A2996 RMK AO2,KHEQ,2023-04-25T21:15:00Z,40.57,-102.28,12.0,5.0,120,13,,10.0,29.958662,,,TRUE,TRUE,,,,,,,OVC,2600,,,,,,,MVFR,,,,,,,,,,,,METAR,1136.0
KHEG 252115Z AUTO 07009KT 10SM CLR 23/16 A2997 RMK AO2 LTG DSNT W,KHEG,2023-04-25T21:15:00Z,30.28,-81.8,23.0,16.0,70,9,,10.0,29.970472,,,TRUE,TRUE,,,,,,,CLR,,,,,,,,VFR,,,,,,,,,,,,METAR,25.0
KHDL 252115Z AUTO VRB06KT 10SM BKN055 27/12 A2995 RMK AO2,KHDL,2023-04-25T21:15:00Z,31.37,-85.32,27.0,12.0,0,6,,10.0,29.949802,,,TRUE,TRUE,,,,,,,BKN,5500,,,,,,,VFR,,,,,,,,,,,,METAR,109.0
KHDE 252115Z AUTO 12013KT 10SM SCT038 OVC046 13/04 A3002 RMK AO2 T01290041,KHDE,2023-04-25T21:15:00Z,40.45,-99.33,12.9,4.1,120,13,,10.0,30.02067,,,TRUE,TRUE,,,,,,,SCT,3800,OVC,4600,,,,,VFR,,,,,,,,,,,,METAR,703.0
KHDC 252115Z AUTO 03003KT 10SM SCT065 25/13 A2994 RMK AO2 T02530134,KHDC,2023-04-25T21:15:00Z,30.52,-90.42,25.3,13.4,30,3,,10.0,29.940945,,,TRUE,TRUE,,,,,,,SCT,6500,,,,,,,VFR,,,,,,,,,,,,METAR,12.0
KHCR 252115Z AUTO 03009KT 10SM SCT031 OVC045 06/M02 A3004 RMK AO2,KHCR,2023-04-25T21:15:00Z,40.48,-111.43,6.0,-2.0,30,9,,10.0,30.041338,,,TRUE,TRUE,,,,,,,SCT,3100,OVC,4500,,,,,VFR,,,,,,,,,,,,METAR,1708.0
KHCO 252115Z AUTO 00000KT 10SM SCT060 09/M05 A3027 RMK AO2,KHCO,2023-04-25T21:15:00Z,48.75,-96.93,9.0,-5.0,0,0,,10.0,30.268702,,,TRUE,TRUE,,,,,,,SCT,6000,,,,,,,VFR,,,,,,,,,,,,METAR,250.0
KHCD 252115Z AUTO 03008KT 350V050 10SM CLR 09/M05 A3024 RMK AO2 T00931052,KHCD,2023-04-25T21:15:00Z,44.87,-94.38,9.3,-5.2,30,8,,10.0,30.239174,,,TRUE,TRUE,,,,,,,CLR,,,,,,,,VFR,,,,,,,,,,,,SPECI,320.0
KHBV 252115Z AUTO 18006KT 10SM SCT034 BKN046 27/19 A2981 RMK AO2 T02720189,KHBV,2023-04-25T21:15:00Z,27.35,-98.73,27.2,18.9,180,6,,10.0,29.811024,,,TRUE,TRUE,,,,,,,SCT,3400,BKN,4600,,,,,VFR,,,,,,,,,,,,METAR,200.0
KHAI 252115Z AUTO 03006KT 10SM SCT013 BKN018 OVC034 07/02 A3017 RMK AO2 T00690022,KHAI,2023-04-25T21:15:00Z,41.97,-85.6,6.9,2.2,30,6,,10.0,30.171259,,,TRUE,TRUE,,,,,,,SCT,1300,BKN,1800,OVC,3400,,,MVFR,,,,,,,,,,,,SPECI,250.0
KHAF 252115Z AUTO 31014KT 4SM HZ CLR 14/10 A2996 RMK AO2,KHAF,2023-04-25T21:15:00Z,37.52,-122.5,14.0,10.0,310,14,,4.0,29.958662,,,TRUE,TRUE,,,,,,HZ,CLR,,,,,,,,MVFR,,,,,,,,,,,,METAR,11.0
KHAE 252115Z AUTO 01005KT 10SM SCT060 BKN070 18/03 A3008 RMK AO2,KHAE,2023-04-25T21:15:00Z,39.73,-91.45,18.0,3.0,10,5,,10.0,30.079725,,,TRUE,TRUE,,,,,,,SCT,6000,BKN,7000,,,,,VFR,,,,,,,,,,,,METAR,230.0
KGZS 252115Z AUTO 07006KT 10SM CLR 19/M03 A3005 RMK A01,KGZS,2023-04-25T21:15:00Z,35.15,-87.05,19.0,-3.0,70,6,,10.0,30.050198,,,TRUE,TRUE,,,,,,,CLR,,,,,,,,VFR,,,,,,,,,,,,SPECI,198.0
KGZL 252115Z AUTO 11008KT 3SM -RA BR BKN011 10/09 A3004 RMK AO2,KGZL,2023-04-25T21:15:00Z,35.28,-95.1,10.0,9.0,110,8,,3.0,30.041338,,,TRUE,TRUE,,,,,,-RA BR,BKN,1100,,,,,,,MVFR,,,,,,,,,,,,METAR,176.0
KGYL 252115Z AUTO 02008KT 10SM CLR 09/M05 A3023 RMK AO2 T00851054,KGYL,2023-04-25T21:15:00Z,44.77,-94.08,8.5,-5.4,20,8,,10.0,30.230314,,,TRUE,TRUE,,,,,,,CLR,,,,,,,,VFR,,,,,,,,,,,,METAR,304.0
KGYF 252115Z AUTO 12008KT 10SM BKN014 BKN020 OVC075 A2981 RMK AO2 PWINO,KGYF,2023-04-25T21:15:00Z,26.13,-94.9,,,120,8,,10.0,29.811024,,,TRUE,TRUE,,,,,TRUE,,BKN,1400,BKN,2000,OVC,7500,,,MVFR,,,,,,,,,,,,METAR,65.0
KGYB 252115Z AUTO 00000KT 10SM BKN028 OVC038 22/18 A2987 RMK AO2 T02240181,KGYB,2023-04-25T21:15:00Z,30.17,-96.98,22.4,18.1,0,0,,10.0,29.870079,,,TRUE,TRUE,,,,,,,BKN,2800,OVC,3800,,,,,MVFR,,,,,,,,,,,,METAR,140.0
KGWR 252115Z AUTO 09008KT 060V150 10SM CLR 09/M02 A3023 RMK A01,KGWR,2023-04-25T21:15:00Z,46.22,-97.65,9.0,-2.0,90,8,,10.0,30.230314,,,TRUE,TRUE,,,,,,,CLR,,,,,,,,VFR,,,,,,,,,,,,SPECI,381.0
KGWB 252115Z AUTO 04006KT 10SM BKN046 BKN055 06/03 A3014 RMK AO2,KGWB,2023-04-25T21:15:00Z,41.3,-85.07,6.0,3.0,40,6,,10.0,30.138779,,,TRUE,TRUE,,,,,,,BKN,4600,BKN,5500,,,,,VFR,,,,,,,,,,,,METAR,268.0
KGVT 252115Z AUTO 12009KT 10SM OVC060 20/12 A2992 RMK AO2 TSNO T02050117,KGVT,2023-04-25T21:15:00Z,33.07,-96.07,20.5,11.7,120,9,,10.0,29.920275,,,TRUE,TRUE,,,TRUE,,,,OVC,6000,,,,,,,VFR,,,,,,,,,,,,METAR,165.0
KGVE 252115Z AUTO 20005KT 10SM CLR 16/00 A3016 RMK AO1 T01570004,KGVE,2023-04-25T21:15:00Z,38.15,-78.17,15.7,0.4,200,5,,10.0,30.159449,,,TRUE,TRUE,,,,,,,CLR,,,,,,,,VFR,,,,,,,,,,,,SPECI,138.0
KGRN 252115Z AUTO 12011KT 10SM SCT046 BKN050 OVC060 15/00 A3000 RMK AO2 T01481001,KGRN,2023-04-25T21:15:00Z,42.8,-102.17,14.8,-0.1,120,11,,10.0,30.0,,,TRUE,TRUE,,,,,,,SCT,4600,BKN,5000,OVC,6000,,,VFR,,,,,,,,,,,,SPECI,1080.0
KGPC 252115Z AUTO 25004KT 10SM OVC085 14/03 A3010 RMK AO2 T01420035,KGPC,2023-04-25T21:15:00Z,39.63,-86.82,14.2,3.5,250,4,,10.0,30.100393,,,TRUE,TRUE,,,,,,,OVC,8500,,,,,,,VFR,,,,,,,,,,,,METAR,254.0
KGOP 252115Z AUTO 14007KT 10SM OVC020 21/16 A2987 RMK AO2,KGOP,2023-04-25T21:15:00Z,31.42,-97.8,21.0,16.0,140,7,,10.0,29.870079,,,TRUE,TRUE,,,,,,,OVC,2000,,,,,,,MVFR,,,,,,,,,,,,METAR,272.0
KGOO 252115Z AUTO 28009KT 260V320 10SM CLR 23/03 A2997 RMK A01,KGOO,2023-04-25T21:15:00Z,39.22,-121.0,23.0,3.0,280,9,,10.0,29.970472,,,TRUE,TRUE,,,,,,,CLR,,,,,,,,VFR,,,,,,,,,,,,SPECI,950.0
KGNT 252115Z AUTO 26017G26KT 10SM SCT040 SCT050 BKN080 15/M01 A2990 RMK AO2 T01501013,KGNT,2023-04-25T21:15:00Z,35.17,-107.9,15.0,-1.3,260,17,26,10.0,29.899607,,,TRUE,TRUE,,,,,,,SCT,4000,SCT,5000,BKN,8000,,,VFR,,,,,,,,,,,,SPECI,1988.0
KGNB 252115Z AUTO 01004KT 10SM BKN100 OVC120 08/M09 A2987 RMK AO2 LTG DSNT E T00791092,KGNB,2023-04-25T21:15:00Z,40.08,-105.92,7.9,-9.2,10,4,,10.0,29.870079,,,TRUE,TRUE,,,,,,,BKN,10000,OVC,12000,,,,,VFR,,,,,,,,,,,,METAR,2500.0
KGMJ 252115Z AUTO VRB04KT 10SM SCT043 OVC060 17/07 A3003 RMK AO2,KGMJ,2023-04-25T21:15:00Z,36.6,-94.73,17.0,7.0,0,4,,10.0,30.029528,,,TRUE,TRUE,,,,,,,SCT,4300,OVC,6000,,,,,VFR,,,,,,,,,,,,METAR,251.0
KGLY 252115Z AUTO 18008KT 10SM FEW085 21/00 A3004 RMK AO2,KGLY,2023-04-25T21:15:00Z,38.35,-93.68,21.0,0.0,180,8,,10.0,30.041338,,,TRUE,TRUE,,,,,,,FEW,8500,,,,,,,VFR,,,,,,,,,,,,METAR,247.0
KGLW 252115Z AUTO 00000KT 10SM CLR 18/01 A3011 RMK AO2 T01840005,KGLW,2023-04-25T21:15:00Z,37.03,-85.95,18.4,0.5,0,0,,10.0,30.109253,,,TRUE,TRUE,,,,,,,CLR,,,,,,,,VFR,,,,,,,,,,,,METAR,216.0
KGLE 252115Z AUTO 15010KT 10SM SCT032 OVC085 21/12 A2992 RMK AO2 T02110116 PWINO,KGLE,2023-04-25T21:15:00Z,33.65,-97.2,21.1,11.6,150,10,,10.0,29.920275,,,TRUE,TRUE,,,,,TRUE,,SCT,3200,OVC,8500,,,,,VFR,,,,,,,,,,,,SPECI,250.0
KGKT 252115Z AUTO 04007KT 360V070 10SM CLR 19/01 A3008 RMK A01,KGKT,2023-04-25T21:15:00Z,35.85,-83.53,19.0,1.0,40,7,,10.0,30.079725,,,TRUE,TRUE,,,,,,,CLR,,,,,,,,VFR,,,,,,,,,,,,SPECI,305.0
KGIC 252115Z AUTO 00000KT 10SM SCT049 12/00 A3017 RMK AO1,KGIC,2023-04-25T21:15:00Z,45.95,-116.12,12.0,0.0,0,0,,10.0,30.171259,,,TRUE,TRUE,,,,,,,SCT,4900,,,,,,,VFR,,,,,,,,,,,,METAR,1002.0
KGHW 252115Z AUTO 02004KT 10SM SCT050 09/M07 A3025 RMK AO2,KGHW,2023-04-25T21:15:00Z,45.63,-95.32,9.0,-7.0,20,4,,10.0,30.250984,,,TRUE,TRUE,,,,,,,SCT,5000,,,,,,,VFR,,,,,,,,,,,,METAR,423.0
KGHG 252115Z AUTO 11005KT 10SM BKN090 11/06 A3015 RMK AO2,KGHG,2023-04-25T21:15:00Z,42.1,-70.67,11.0,6.0,110,5,,10.0,30.15059,,,TRUE,TRUE,,,,,,,BKN,9000,,,,,,,VFR,,,,,,,,,,,,SPECI,3.0
KGGP 252115Z AUTO 01007G14KT 10SM BKN046 OVC055 11/03 A3011 RMK AO2,KGGP,2023-04-25T21:15:00Z,40.72,-86.37,11.0,3.0,10,7,14,10.0,30.109253,,,TRUE,TRUE,,,,,,,BKN,4600,OVC,5500,,,,,VFR,,,,,,,,,,,,METAR,224.0
KGGI 252115Z AUTO 04007KT 10SM CLR 16/M02 A3013 RMK AO2 T01581025,KGGI,2023-04-25T21:15:00Z,41.72,-92.73,15.8,-2.5,40,7,,10.0,30.129921,,,TRUE,TRUE,,,,,,,CLR,,,,,,,,VFR,,,,,,,,,,,,SPECI,305.0
KGGF 252115Z AUTO 12018G23KT 10SM OVC035 12/05 A2996 RMK AO2,KGGF,2023-04-25T21:15:00Z,40.87,-101.73,12.0,5.0,120,18,23,10.0,29.958662,,,TRUE,TRUE,,,,,,,OVC,3500,,,,,,,VFR,,,,,,,,,,,,SPECI,1044.0
KGGE 252115Z AUTO 07012G15KT 10SM CLR 20/11 A3010 RMK AO2,KGGE,2023-04-25T21:15:00Z,33.32,-79.32,20.0,11.0,70,12,15,10.0,30.100393,,,TRUE,TRUE,,,,,,,CLR,,,,,,,,VFR,,,,,,,,,,,,SPECI,9.0
KGDJ 252115Z AUTO 12008KT 10SM BKN029 OVC035 21/14 A2988 RMK AO2 T02050141,KGDJ,2023-04-25T21:15:00Z,32.45,-97.82,20.5,14.1,120,8,,10.0,29.878937,,,TRUE,TRUE,,,,,,,BKN,2900,OVC,3500,,,,,MVFR,,,,,,,,,,,,METAR,235.0
KGDB 252115Z AUTO 02009G14KT 10SM CLR 11/M05 A3024 RMK AO2 T01101047,KGDB,2023-04-25T21:15:00Z,44.75,-95.55,11.0,-4.7,20,9,14,10.0,30.239174,,,TRUE,TRUE,,,,,,,CLR,,,,,,,,VFR,,,,,,,,,,,,METAR,316.0
KGDA 252115Z AUTO 00000KT 10SM CLR 19/00 A3010 RMK AO2 T01931001 PWINO,KGDA,2023-04-25T21:15:00Z,37.33,-88.1,19.3,-0.1,0,0,,10.0,30.100393,,,TRUE,TRUE,,,,,TRUE,,CLR,,,,,,,,VFR,,,,,,,,,,,,METAR,199.0
KGCY 252115Z AUTO VRB06KT 10SM CLR 17/M08 A3009 RMK A01,KGCY,2023-04-25T21:15:00Z,36.2,-82.82,17.0,-8.0,0,6,,10.0,30.088583,,,TRUE,TRUE,,,,,,,CLR,,,,,,,,VFR,,,,,,,,,,,,SPECI,488.0
KGCM 252115Z AUTO 13009KT 10SM -RA SCT055 BKN080 13/11 A3004 RMK AO2,KGCM,2023-04-25T21:15:00Z,36.3,-95.48,13.0,11.0,130,9,,10.0,30.041338,,,TRUE,TRUE,,,,,,-RA,SCT,5500,BKN,8000,,,,,VFR,,,,,,,,,,,,METAR,215.0
KGCD 252115Z AUTO 33005KT 10SM CLR 14/M02 A3015 RMK AO2 T01391019,KGCD,2023-04-25T21:15:00Z,44.4,-118.97,13.9,-1.9,330,5,,10.0,30.15059,,,TRUE,TRUE,,,,,,,CLR,,,,,,,,VFR,,,,,,,,,,,,METAR,1122.0
KGBG 252115Z AUTO 36008KT 10SM SCT038 SCT050 14/06 A3014 RMK AO2 T01400060 TSNO,KGBG,2023-04-25T21:15:00Z,40.93,-90.43,14.0,6.0,360,8,,10.0,30.138779,,,TRUE,TRUE,,,TRUE,,,,SCT,3800,SCT,5000,,,,,VFR,,,,,,,,,,,,METAR,230.0
KGAO 252115Z AUTO 09007KT 10SM CLR 26/18 A2995 RMK AO2 T02570178,KGAO,2023-04-25T21:15:00Z,29.45,-90.27,25.7,17.8,90,7,,10.0,29.949802,,,TRUE,TRUE,,,,,,,CLR,,,,,,,,VFR,,,,,,,,,,,,METAR,0.0
KGAF 252115Z AUTO VRB06KT 9SM CLR 08/M04 A3029 RMK AO2,KGAF,2023-04-25T21:15:00Z,48.4,-97.37,8.0,-4.0,0,6,,9.0,30.28937,,,TRUE,TRUE,,,,,,,CLR,,,,,,,,VFR,,,,,,,,,,,,METAR,250.0
KFZG 252115Z AUTO 07003KT 10SM SCT055 SCT075 BKN100 25/14 A2998 RMK AO2 T02500141,KFZG,2023-04-25T21:15:00Z,31.68,-83.27,25.0,14.1,70,3,,10.0,29.97933,,,TRUE,TRUE,,,,,,,SCT,5500,SCT,7500,BKN,10000,,,VFR,,,,,,,,,,,,METAR,105.0
KFYM 252115Z AUTO 13005KT 10SM CLR 19/M00 A3007 RMK A01,KFYM,2023-04-25T21:15:00Z,35.07,-86.57,19.0,0.0,130,5,,10.0,30.070866,,,TRUE,TRUE,,,,,,,CLR,,,,,,,,VFR,,,,,,,,,,,,SPECI,297.0
KFYJ 252115Z AUTO 00000KT 10SM SCT070 SCT080 14/03 A3019 RMK AO1 T01440031,KFYJ,2023-04-25T21:15:00Z,37.52,-76.77,14.4,3.1,0,0,,10.0,30.188976,,,TRUE,TRUE,,,,,,,SCT,7000,SCT,8000,,,,,VFR,,,,,,,,,,,,SPECI,3.0
KFYG 252115Z AUTO 21004G12KT 10SM CLR 21/03 A3006 RMK AO2,KFYG,2023-04-25T21:15:00Z,38.58,-91.0,21.0,3.0,210,4,12,10.0,30.059055,,,TRUE,TRUE,,,,,,,CLR,,,,,,,,VFR,,,,,,,,,,,,METAR,147.0
KFYE 252115Z AUTO VRB04KT 10SM CLR 20/M05 A3004 RMK A01,KFYE,2023-04-25T21:15:00Z,35.2,-89.38,20.0,-5.0,0,4,,10.0,30.041338,,,TRUE,TRUE,,,,,,,CLR,,,,,,,,VFR,,,,,,,,,,,,SPECI,133.0
KFXY 252115Z AUTO 35007G14KT 10SM CLR 11/M06 A3018 RMK AO2,KFXY,2023-04-25T21:15:00Z,43.23,-93.62,11.0,-6.0,350,7,14,10.0,30.180119,,,TRUE,TRUE,,,,,,,CLR,,,,,,,,VFR,,,,,,,,,,,,METAR,366.0
KFWC 252115Z AUTO 21007KT 10SM CLR 19/03 A3008 RMK AO1 T01930031,KFWC,2023-04-25T21:15:00Z,38.38,-88.42,19.3,3.1,210,7,,10.0,30.079725,,,TRUE,TRUE,,,,,,,CLR,,,,,,,,VFR,,,,,,,,,,,,SPECI,131.0
KFWB 252115Z AUTO 12004G10KT 10SM BKN050 OVC055 16/05 A3006 RMK AO2,KFWB,2023-04-25T21:15:00Z,36.7,-93.4,16.0,5.0,120,4,10,10.0,30.059055,,,TRUE,TRUE,,,,,,,BKN,5000,OVC,5500,,,,,VFR,,,,,,,,,,,,METAR,392.0
KFVX 252115Z AUTO 00000KT 10SM CLR 16/02 A3015 RMK AO2 T01610021,KFVX,2023-04-25T21:15:00Z,37.35,-78.43,16.1,2.1,0,0,,10.0,30.15059,,,TRUE,TRUE,,,,,,,CLR,,,,,,,,VFR,,,,,,,,,,,,SPECI,129.0
KFTN 252115Z AUTO VRB05G14KT 10SM SCT044 27/16 A2981 RMK A01,KFTN,2023-04-25T21:15:00Z,28.22,-100.02,27.0,16.0,0,5,14,10.0,29.811024,,,TRUE,TRUE,,,,,,,SCT,4400,,,,,,,VFR,,,,,,,,,,,,SPECI,236.0
KFSW 252115Z AUTO 07004KT 10SM 14/06 A3011 RMK AO2,KFSW,2023-04-25T21:15:00Z,40.67,-91.32,14.0,6.0,70,4,,10.0,30.109253,,,TRUE,TRUE,,,,,,,,,,,,,,,,,,,,,,,,,,,SPECI,219.0
KFSK 252115Z AUTO 14010KT 10SM SCT060 18/04 A3004 RMK AO2 T01810039,KFSK,2023-04-25T21:15:00Z,37.8,-94.77,18.1,3.9,140,10,,10.0,30.041338,,,TRUE,TRUE,,,,,,,SCT,6000,,,,,,,VFR,,,,,,,,,,,,METAR,276.0
KFSE 252115Z AUTO 36005KT 10SM CLR 08/M05 A3026 RMK AO2,KFSE,2023-04-25T21:15:00Z,47.58,-95.77,8.0,-5.0,360,5,,10.0,30.259842,,,TRUE,TRUE,,,,,,,CLR,,,,,,,,VFR,,,,,,,,,,,,METAR,389.0
KFRH 252115Z AUTO 25006KT 10SM CLR 17/M03 A3010 RMK AO1,KFRH,2023-04-25T21:15:00Z,38.5,-86.63,17.0,-3.0,250,6,,10.0,30.100393,,,TRUE,TRUE,,,,,,,CLR,,,,,,,,VFR,,,,,,,,,,,,METAR,241.0
KFPY 252115Z AUTO 00000KT 10SM CLR 27/17 A2993 RMK AO2 T02710168,KFPY,2023-04-25T21:15:00Z,30.07,-83.57,27.1,16.8,0,0,,10.0,29.929134,,,TRUE,TRUE,,,,,,,CLR,,,,,,,,VFR,,,,,,,,,,,,METAR,12.0
KFPR 252115Z 00000KT 10SM VCTS -RA SCT031 BKN100 23/20 A2988 RMK AO2 LTG DSNT S-W TSE09 P0001 T02280200,KFPR,2023-04-25T21:15:00Z,27.5,-80.38,22.8,20.0,0,0,,10.0,29.878937,,,,TRUE,,,,,,VCTS -RA,SCT,3100,BKN,10000,,,,,VFR,,,,,,0.01,,,,,,SPECI,7.0
KFPK 252115Z AUTO 00000KT 10SM SCT026 SCT031 06/00 A3014 RMK AO2 T00580002,KFPK,2023-04-25T21:15:00Z,42.57,-84.82,5.8,0.2,0,0,,10.0,30.138779,,,TRUE,TRUE,,,,,,,SCT,2600,SCT,3100,,,,,VFR,,,,,,,,,,,,SPECI,269.0
KFOA 252115Z AUTO 35007KT 10SM SCT070 SCT090 18/05 A3009 RMK AO2,KFOA,2023-04-25T21:15:00Z,38.67,-88.45,18.0,5.0,350,7,,10.0,30.088583,,,TRUE,TRUE,,,,,,,SCT,7000,SCT,9000,,,,,VFR,,,,,,,,,,,,METAR,141.0
KFMM 252115Z AUTO 09021G26KT 10SM OVC015 09/06 A2990 RMK AO2 LTG DSNT S AND SW,KFMM,2023-04-25T21:15:00Z,40.33,-103.8,9.0,6.0,90,21,26,10.0,29.899607,,,TRUE,TRUE,,,,,,,OVC,1500,,,,,,,MVFR,,,,,,,,,,,,METAR,1376.0
KFLY 252115Z AUTO 26014G19KT 10SM BKN021 BKN030 OVC050 05/01 A2992 RMK AO2 LTG DSNT N T00540008,KFLY,2023-04-25T21:15:00Z,38.95,-104.57,5.4,0.8,260,14,19,10.0,29.920275,,,TRUE,TRUE,,,,,,,BKN,2100,BKN,3000,OVC,5000,,,MVFR,,,,,,,,,,,,SPECI,2096.0
KFKS 252115Z AUTO 36008KT 10SM CLR 06/M01 A3021 RMK AO2 T00631011,KFKS,2023-04-25T21:15:00Z,44.63,-86.2,6.3,-1.1,360,8,,10.0,30.209646,,,TRUE,TRUE,,,,,,,CLR,,,,,,,,VFR,,,,,,,,,,,,METAR,189.0
KFKR 252115Z AUTO 29006G13KT 10SM SCT055 BKN065 14/02 A3007 RMK AO2,KFKR,2023-04-25T21:15:00Z,40.27,-86.57,14.0,2.0,290,6,13,10.0,30.070866,,,TRUE,TRUE,,,,,,,SCT,5500,BKN,6500,,,,,VFR,,,,,,,,,,,,METAR,260.0
KFKN 252115Z AUTO 08009KT 10SM SCT075 16/03 A3017 RMK AO2 T01630032,KFKN,2023-04-25T21:15:00Z,36.7,-76.9,16.3,3.2,80,9,,10.0,30.171259,,,TRUE,TRUE,,,,,,,SCT,7500,,,,,,,VFR,,,,,,,,,,,,SPECI,9.0
KFHB 252115Z AUTO 08015KT 10SM SCT100 23/20 A2998 RMK AO2 LTG DSNT SW,KFHB,2023-04-25T21:15:00Z,30.62,-81.47,23.0,20.0,80,15,,10.0,29.97933,,,TRUE,TRUE,,,,,,,SCT,10000,,,,,,,VFR,,,,,,,,,,,,METAR,4.0
KFGX 252115Z AUTO 30008KT 10SM CLR 16/M02 A3013 RMK AO2 T01631020,KFGX,2023-04-25T21:15:00Z,38.55,-83.75,16.3,-2.0,300,8,,10.0,30.129921,,,TRUE,TRUE,,,,,,,CLR,,,,,,,,VFR,,,,,,,,,,,,METAR,279.0
KFGN 252115Z AUTO 18007KT 10SM CLR 02/M04 A3030 RMK AO2,KFGN,2023-04-25T21:15:00Z,49.32,-94.9,2.0,-4.0,180,7,,10.0,30.301182,,,TRUE,TRUE,,,,,,,CLR,,,,,,,,VFR,,,,,,,,,,,,METAR,327.0
KFFX 252115Z AUTO 35008KT 10SM SCT050 BKN060 09/M01 A3015 RMK AO2 T00891007,KFFX,2023-04-25T21:15:00Z,43.43,-86.0,8.9,-0.7,350,8,,10.0,30.15059,,,TRUE,TRUE,,,,,,,SCT,5000,BKN,6000,,,,,VFR,,,,,,,,,,,,METAR,234.0
KFFM 252115Z AUTO 01003KT 10SM SCT065 09/M06 A3024 RMK AO2,KFFM,2023-04-25T21:15:00Z,46.28,-96.15,9.0,-6.0,10,3,,10.0,30.239174,,,TRUE,TRUE,,,,,,,SCT,6500,,,,,,,VFR,,,,,,,,,,,,METAR,362.0
KFFL 252115Z AUTO 11004KT 10SM SCT048 SCT055 14/01 A3011 RMK A01,KFFL,2023-04-25T21:15:00Z,41.05,-91.97,14.0,1.0,110,4,,10.0,30.109253,,,TRUE,TRUE,,,,,,,SCT,4800,SCT,5500,,,,,VFR,,,,,,,,,,,,METAR,240.0
KFFA 252115Z AUTO 06006KT 10SM CLR 14/05 A3017 RMK AO2 T01440049,KFFA,2023-04-25T21:15:00Z,36.02,-75.67,14.4,4.9,60,6,,10.0,30.171259,,,TRUE,TRUE,,,,,,,CLR,,,,,,,,VFR,,,,,,,,,,,,METAR,2.0
KFET 252115Z AUTO 10009G16KT 10SM BKN055 17/04 A3008 RMK AO2 T01710041,KFET,2023-04-25T21:15:00Z,41.45,-96.52,17.1,4.1,100,9,16,10.0,30.079725,,,TRUE,TRUE,,,,,,,BKN,5500,,,,,,,VFR,,,,,,,,,,,,SPECI,366.0
KFEP 252115Z AUTO 06008KT 10SM SCT042 BKN055 10/03 A3020 RMK AO2 T00980029,KFEP,2023-04-25T21:15:00Z,42.25,-89.58,9.8,2.9,60,8,,10.0,30.200787,,,TRUE,TRUE,,,,,,,SCT,4200,BKN,5500,,,,,VFR,,,,,,,,,,,,METAR,255.0
KFDW 252115Z AUTO 09006KT 10SM BKN060 21/05 A3008 RMK AO1,KFDW,2023-04-25T21:15:00Z,34.32,-81.12,21.0,5.0,90,6,,10.0,30.079725,,,TRUE,TRUE,,,,,,,BKN,6000,,,,,,,VFR,,,,,,,,,,,,METAR,174.0
KFBL 252115Z AUTO 35009KT 322V022 10SM CLR 10/M06 A3021 RMK AO2,KFBL,2023-04-25T21:15:00Z,44.33,-93.32,10.0,-6.0,350,9,,10.0,30.209646,,,TRUE,TRUE,,,,,,,CLR,,,,,,,,VFR,,,,,,,,,,,,METAR,318.0
KF70 252115Z AUTO 00000KT 10SM CLR 20/11 A2989 RMK AO2,KF70,2023-04-25T21:15:00Z,33.57,-117.13,20.0,11.0,0,0,,10.0,29.890747,,,TRUE,TRUE,,,,,,,CLR,,,,,,,,VFR,,,,,,,,,,,,SPECI,406.0
KF46 252115Z AUTO 14006KT 10SM SCT032 BKN060 21/13 A2991 RMK AO2 T02110125,KF46,2023-04-25T21:15:00Z,32.93,-96.43,21.1,12.5,140,6,,10.0,29.911417,,,TRUE,TRUE,,,,,,,SCT,3200,BKN,6000,,,,,VFR,,,,,,,,,,,,SPECI,175.0
KF44 252115Z AUTO 13006KT 10SM OVC075 21/13 A2991 RMK AO2,KF44,2023-04-25T21:15:00Z,32.17,-95.83,21.0,13.0,130,6,,10.0,29.911417,,,TRUE,TRUE,,,,,,,OVC,7500,,,,,,,VFR,,,,,,,,,,,,SPECI,137.0
KF17 252115Z AUTO 17008KT 10SM OVC110 22/11 A2996 RMK AO2,KF17,2023-04-25T21:15:00Z,31.83,-94.15,22.0,11.0,170,8,,10.0,29.958662,,,TRUE,TRUE,,,,,,,OVC,11000,,,,,,,VFR,,,,,,,,,,,,METAR,93.0
KF05 252115Z AUTO 19014G19KT 10SM BKN042 BKN060 OVC080 24/13 A2982 RMK AO2 T02420126,KF05,2023-04-25T21:15:00Z,34.23,-99.28,24.2,12.6,190,14,19,10.0,29.819881,,,TRUE,TRUE,,,,,,,BKN,4200,BKN,6000,OVC,8000,,,VFR,,,,,,,,,,,,METAR,384.0
KF00 252115Z AUTO 10012G16KT 10SM BKN033 18/11 A2994 RMK AO2 T01780109,KF00,2023-04-25T21:15:00Z,33.62,-96.18,17.8,10.9,100,12,16,10.0,29.940945,,,TRUE,TRUE,,,,,,,BKN,3300,,,,,,,VFR,,,,,,,,,,,,METAR,189.0
KEZZ 252115Z AUTO 00000KT 10SM BKN075 18/04 A3008 RMK AO2 T01770042,KEZZ,2023-04-25T21:15:00Z,39.72,-94.28,17.7,4.2,0,0,,10.0,30.079725,,,TRUE,TRUE,,,,,,,BKN,7500,,,,,,,VFR,,,,,,,,,,,,METAR,317.0
KEZS 252115Z AUTO 06003KT 10SM BKN055 OVC080 09/M04 A3020 RMK AO2 T00881039,KEZS,2023-04-25T21:15:00Z,44.78,-88.57,8.8,-3.9,60,3,,10.0,30.200787,,,TRUE,TRUE,,,,,,,BKN,5500,OVC,8000,,,,,VFR,,,,,,,,,,,,METAR,247.0
KEZM 252115Z AUTO 01004KT 10SM SCT050 BKN070 OVC110 24/14 A3000 RMK AO2,KEZM,2023-04-25T21:15:00Z,32.22,-83.13,24.0,14.0,10,4,,10.0,30.0,,,TRUE,TRUE,,,,,,,SCT,5000,BKN,7000,OVC,11000,,,VFR,,,,,,,,,,,,SPECI,86.0
KEZF 252115Z AUTO 20006KT 10SM OVC070 16/M01 A3016 RMK AO2 T01621011,KEZF,2023-04-25T21:15:00Z,38.27,-77.45,16.2,-1.1,200,6,,10.0,30.159449,,,TRUE,TRUE,,,,,,,OVC,7000,,,,,,,VFR,,,,,,,,,,,,SPECI,26.0
KEVU 252115Z AUTO 00000KT 10SM CLR 18/05 A3006 RMK AO2 T01870050,KEVU,2023-04-25T21:15:00Z,40.35,-94.92,18.7,5.0,0,0,,10.0,30.059055,,,TRUE,TRUE,,,,,,,CLR,,,,,,,,VFR,,,,,,,,,,,,METAR,351.0
KEVM 252115Z AUTO 00000KT 10SM BKN050 05/M07 A3028 RMK AO2 T00501068,KEVM,2023-04-25T21:15:00Z,47.42,-92.5,5.0,-6.8,0,0,,10.0,30.280512,,,TRUE,TRUE,,,,,,,BKN,5000,,,,,,,VFR,,,,,,,,,,,,METAR,419.0
KETB 252115Z AUTO 11007KT 10SM OVC065 06/M01 A3020 RMK AO2,KETB,2023-04-25T21:15:00Z,43.42,-88.13,6.0,-1.0,110,7,,10.0,30.200787,,,TRUE,TRUE,,,,,,,OVC,6500,,,,,,,VFR,,,,,,,,,,,,METAR,269.0
KERY 252115Z AUTO 34009KT 10SM OVC026 04/M02 A3019 RMK AO2 T00351022,KERY,2023-04-25T21:15:00Z,46.3,-85.45,3.5,-2.2,340,9,,10.0,30.188976,,,TRUE,TRUE,,,,,,,OVC,2600,,,,,,,MVFR,,,,,,,,,,,,METAR,261.0
KERV 252115Z AUTO 18009KT 10SM BKN023 BKN029 OVC060 22/17 A2985 RMK AO2 T02190168,KERV,2023-04-25T21:15:00Z,29.98,-99.08,21.9,16.8,180,9,,10.0,29.84941,,,TRUE,TRUE,,,,,,,BKN,2300,BKN,2900,OVC,6000,,,MVFR,,,,,,,,,,,,METAR,483.0
KEQA 252115Z AUTO 16009KT 10SM SCT037 BKN065 OVC095 15/06 A3003 RMK AO2,KEQA,2023-04-25T21:15:00Z,37.78,-96.82,15.0,6.0,160,9,,10.0,30.029528,,,TRUE,TRUE,,,,,,,SCT,3700,BKN,6500,OVC,9500,,,VFR,,,,,,,,,,,,METAR,422.0
KEOK 252115Z AUTO 04008KT 10SM FEW043 BKN110 16/06 A3010 RMK A01,KEOK,2023-04-25T21:15:00Z,40.47,-91.42,16.0,6.0,40,8,,10.0,30.100393,,,TRUE,TRUE,,,,,,,FEW,4300,BKN,11000,,,,,VFR,,,,,,,,,,,,METAR,206.0
KEOE 252115Z AUTO 05006KT 10SM SCT055 SCT110 20/06 A3011 RMK AO2,KEOE,2023-04-25T21:15:00Z,34.32,-81.63,20.0,6.0,50,6,,10.0,30.109253,,,TRUE,TRUE,,,,,,,SCT,5500,SCT,11000,,,,,VFR,,,,,,,,,,,,SPECI,166.0
KENL 252115Z AUTO 26007KT 10SM SCT070 BKN100 20/06 A3008 RMK AO2 T01980060,KENL,2023-04-25T21:15:00Z,38.52,-89.1,19.8,6.0,260,7,,10.0,30.079725,,,TRUE,TRUE,,,,,,,SCT,7000,BKN,10000,,,,,VFR,,,,,,,,,,,,SPECI,161.0
KEMV 252115Z AUTO 02003KT 10SM CLR 17/05 A3017 RMK AO2 T01660046,KEMV,2023-04-25T21:15:00Z,36.68,-77.48,16.6,4.6,20,3,,10.0,30.171259,,,TRUE,TRUE,,,,,,,CLR,,,,,,,,VFR,,,,,,,,,,,,SPECI,35.0
KEMM 252115Z AUTO 26014KT 10SM SCT020 03/M01 A3003 RMK AO2 TSNO,KEMM,2023-04-25T21:15:00Z,41.82,-110.55,3.0,-1.0,260,14,,10.0,30.029528,,,TRUE,TRUE,,,TRUE,,,,SCT,2000,,,,,,,VFR,,,,,,,,,,,,METAR,2219.0
KELO 252115Z AUTO 00000KT 10SM OVC050 04/M10 A3028 RMK AO2,KELO,2023-04-25T21:15:00Z,47.82,-91.83,4.0,-10.0,0,0,,10.0,30.280512,,,TRUE,TRUE,,,,,,,OVC,5000,,,,,,,VFR,,,,,,,,,,,,METAR,438.0
KELK 252115Z AUTO 08014KT 5SM BR OVC002 11/11 A2988 RMK AO2 SLP404 T01120112 $,KELK,2023-04-25T21:15:00Z,35.43,-99.4,11.2,11.2,80,14,,5.0,29.878937,1040.4,,TRUE,TRUE,TRUE,,,,,BR,OVC,200,,,,,,,LIFR,,,,,,,,,,,,METAR,603.0
KELA 252115Z AUTO 10SM BKN028 OVC036 26/20 A2985 RMK AO2 T02550202,KELA,2023-04-25T21:15:00Z,29.6,-96.32,25.5,20.2,,,,10.0,29.84941,,,TRUE,TRUE,,,,,,,BKN,2800,OVC,3600,,,,,MVFR,,,,,,,,,,,,METAR,56.0
KEKX 252115Z AUTO 08003KT 10SM SCT120 18/00 A3011 RMK AO2 T01761003,KEKX,2023-04-25T21:15:00Z,37.68,-85.92,17.6,-0.3,80,3,,10.0,30.109253,,,TRUE,TRUE,,,,,,,SCT,12000,,,,,,,VFR,,,,,,,,,,,,METAR,234.0
KEKS 252115Z AUTO 33007KT 10SM SCT029 BKN038 BKN047 10/03 A3013 RMK AO2,KEKS,2023-04-25T21:15:00Z,45.27,-111.65,10.0,3.0,330,7,,10.0,30.129921,,,TRUE,TRUE,,,,,,,SCT,2900,BKN,3800,BKN,4700,,,VFR,,,,,,,,,,,,METAR,1636.0
KEKM 252115Z 03007KT 9SM BKN020 OVC025 06/05 A3016 RMK AO2 CIG 016V024 BKN V OVC T00620046 $,KEKM,2023-04-25T21:15:00Z,41.72,-86.0,6.2,4.6,30,7,,9.0,30.159449,,,,TRUE,TRUE,,,,,,BKN,2000,OVC,2500,,,,,MVFR,,,,,,,,,,,,SPECI,236.0
KEKE 252115Z AUTO 04018KT 10SM FEW013 23/20 A2983 RMK A01,KEKE,2023-04-25T21:15:00Z,28.5,-91.58,23.0,20.0,40,18,,10.0,29.828741,,,TRUE,TRUE,,,,,,,FEW,1300,,,,,,,VFR,,,,,,,,,,,,SPECI,31.0
KEIK 252115Z AUTO 01013G25KT 10SM RA SCT032 BKN038 OVC070 08/03 A2987 RMK AO2 LTG DSNT W THRU NE T00800025,KEIK,2023-04-25T21:15:00Z,40.02,-105.05,8.0,2.5,10,13,25,10.0,29.870079,,,TRUE,TRUE,,,,,,RA,SCT,3200,BKN,3800,OVC,7000,,,VFR,,,,,,,,,,,,METAR,1551.0
KEHA 252115Z AUTO 08020G23KT 10SM SCT017 BKN022 OVC033 15/10 A2985 RMK AO2 T01510097,KEHA,2023-04-25T21:15:00Z,37.0,-101.87,15.1,9.7,80,20,23,10.0,29.84941,,,TRUE,TRUE,,,,,,,SCT,1700,BKN,2200,OVC,3300,,,MVFR,,,,,,,,,,,,METAR,1103.0
KEGV 252115Z AUTO 36008KT 10SM OVC042 04/M07 A3022 RMK AO2 T00391071,KEGV,2023-04-25T21:15:00Z,45.93,-89.27,3.9,-7.1,360,8,,10.0,30.221457,,,TRUE,TRUE,,,,,,,OVC,4200,,,,,,,VFR,,,,,,,,,,,,SPECI,499.0
KEGT 252115Z AUTO 12009KT 5SM -RA BR SCT009 BKN050 OVC070 09/08 A3004 RMK AO2 P0001 T00920083,KEGT,2023-04-25T21:15:00Z,37.32,-97.38,9.2,8.3,120,9,,5.0,30.041338,,,TRUE,TRUE,,,,,,-RA BR,SCT,900,BKN,5000,OVC,7000,,,MVFR,,,,,,0.01,,,,,,METAR,387.0
KEFT 252115Z AUTO 03007KT 10SM SCT038 SCT044 BKN060 08/M01 A3018 RMK AO2 T00771006,KEFT,2023-04-25T21:15:00Z,42.62,-89.6,7.7,-0.6,30,7,,10.0,30.180119,,,TRUE,TRUE,,,,,,,SCT,3800,SCT,4400,BKN,6000,,,VFR,,,,,,,,,,,,METAR,332.0
KEFK 252115Z AUTO 00000KT 10SM SCT038 BKN050 OVC065 09/02 A3015 RMK AO2 T00900020,KEFK,2023-04-25T21:15:00Z,44.88,-72.23,9.0,2.0,0,0,,10.0,30.15059,,,TRUE,TRUE,,,,,,,SCT,3800,BKN,5000,OVC,6500,,,VFR,,,,,,,,,,,,METAR,282.0
KEDU 252115Z AUTO 34010G14KT 10SM CLR 27/00 A2989 RMK AO1,KEDU,2023-04-25T21:15:00Z,38.53,-121.78,27.0,0.0,340,10,14,10.0,29.890747,,,TRUE,TRUE,,,,,,,CLR,,,,,,,,VFR,,,,,,,,,,,,SPECI,20.0
KEDJ 252115Z AUTO 22009KT 10SM 11/M02 A3013 RMK A01,KEDJ,2023-04-25T21:15:00Z,40.37,-83.82,11.0,-2.0,220,9,,10.0,30.129921,,,TRUE,TRUE,,,,,,,,,,,,,,,,,,,,,,,,,,,METAR,341.0
KECU 252115Z AUTO 17012KT 10SM FEW027 BKN036 BKN043 23/14 A2990 RMK AO2,KECU,2023-04-25T21:15:00Z,29.95,-100.17,23.0,14.0,170,12,,10.0,29.899607,,,TRUE,TRUE,,,,,,,FEW,2700,BKN,3600,BKN,4300,,,VFR,,,,,,,,,,,,METAR,725.0
KECS 252115Z AUTO 17014G17KT 10SM CLR 11/00 A3002 RMK AO2,KECS,2023-04-25T21:15:00Z,43.88,-104.32,11.0,0.0,170,14,17,10.0,30.02067,,,TRUE,TRUE,,,,,,,CLR,,,,,,,,VFR,,,,,,,,,,,,SPECI,1273.0
KEBS 252115Z AUTO 05007G14KT 10SM CLR 14/M06 A3013 RMK AO2,KEBS,2023-04-25T21:15:00Z,42.43,-93.87,14.0,-6.0,50,7,14,10.0,30.129921,,,TRUE,TRUE,,,,,,,CLR,,,,,,,,VFR,,,,,,,,,,,,SPECI,340.0
KEBG 252115Z AUTO 08007KT 10SM SCT015 SCT033 SCT043 27/22 A2980 RMK AO2 T02690219,KEBG,2023-04-25T21:15:00Z,26.45,-98.13,26.9,21.9,80,7,,10.0,29.799213,,,TRUE,TRUE,,,,,,,SCT,1500,SCT,3300,SCT,4300,,,VFR,,,,,,,,,,,,METAR,21.0
KEBA 252115Z AUTO 06005KT 10SM SCT090 BKN120 20/09 A3007 RMK AO2 T02030088,KEBA,2023-04-25T21:15:00Z,34.1,-82.82,20.3,8.8,60,5,,10.0,30.070866,,,TRUE,TRUE,,,,,,,SCT,9000,BKN,12000,,,,,VFR,,,,,,,,,,,,METAR,180.0
KE42 252115Z AUTO 08014KT 10SM SCT030 BKN037 17/12 A2982 RMK AO2 T01680121,KE42,2023-04-25T21:15:00Z,36.22,-101.2,16.8,12.1,80,14,,10.0,29.819881,,,TRUE,TRUE,,,,,,,SCT,3000,BKN,3700,,,,,VFR,,,,,,,,,,,,METAR,942.0
KE41 252115Z AUTO 19006KT 10SM CLR 27/07 A2980 RMK AO2 T02710067,KE41,2023-04-25T21:15:00Z,31.2,-101.47,27.1,6.7,190,6,,10.0,29.799213,,,TRUE,TRUE,,,,,,,CLR,,,,,,,,VFR,,,,,,,,,,,,METAR,825.0
KE38 252115Z AUTO 30009G16KT 10SM CLR 28/M06 A2992 RMK AO2 T02751065,KE38,2023-04-25T21:15:00Z,30.38,-103.68,27.5,-6.5,300,9,16,10.0,29.920275,,,TRUE,TRUE,,,,,,,CLR,,,,,,,,VFR,,,,,,,,,,,,METAR,1372.0
KE16 252115Z AUTO 34006KT 10SM CLR 25/07 A2993 RMK AO2 PWINO PNO,KE16,2023-04-25T21:15:00Z,37.08,-121.6,25.0,7.0,340,6,,10.0,29.929134,,,TRUE,TRUE,,,,,TRUE,,CLR,,,,,,,,VFR,,,,,,,,,,,,METAR,84.0
KE11 252115Z AUTO 26003KT 10SM CLR 28/03 A2979 RMK AO2 T02790033,KE11,2023-04-25T21:15:00Z,32.33,-102.53,27.9,3.3,260,3,,10.0,29.790354,,,TRUE,TRUE,,,,,,,CLR,,,,,,,,VFR,,,,,,,,,,,,METAR,966.0
KDZJ 252115Z AUTO 11005KT 10SM OVC070 17/04 A3008 RMK AO2 T01690039,KDZJ,2023-04-25T21:15:00Z,34.85,-84.0,16.9,3.9,110,5,,10.0,30.079725,,,TRUE,TRUE,,,,,,,OVC,7000,,,,,,,VFR,,,,,,,,,,,,METAR,578.0
KDZB 252115Z AUTO 17004KT 10SM BKN014 OVC055 21/17 A2988 RMK AO2 T02100166,KDZB,2023-04-25T21:15:00Z,30.53,-98.37,21.0,16.6,170,4,,10.0,29.878937,,,TRUE,TRUE,,,,,,,BKN,1400,OVC,5500,,,,,MVFR,,,,,,,,,,,,SPECI,329.0
KDYT 252115Z AUTO 02005KT 10SM OVC065 03/M01 A3030 RMK AO2,KDYT,2023-04-25T21:15:00Z,46.72,-92.03,3.0,-1.0,20,5,,10.0,30.301182,,,TRUE,TRUE,,,,,,,OVC,6500,,,,,,,VFR,,,,,,,,,,,,METAR,185.0
KDYB 252115Z AUTO 09008KT 050V130 9SM FEW055 FEW070 SCT120 23/10 A3006 RMK AO2,KDYB,2023-04-25T21:15:00Z,33.07,-80.28,23.0,10.0,90,8,,9.0,30.059055,,,TRUE,TRUE,,,,,,,FEW,5500,FEW,7000,SCT,12000,,,VFR,,,,,,,,,,,,METAR,15.0
KDYA 252115Z AUTO 36003KT 10SM BKN095 23/07 A3000 RMK AO2 T02260068,KDYA,2023-04-25T21:15:00Z,32.47,-87.95,22.6,6.8,360,3,,10.0,30.0,,,TRUE,TRUE,,,,,,,BKN,9500,,,,,,,VFR,,,,,,,,,,,,SPECI,33.0
KDXX 252115Z AUTO 08006KT 10SM CLR 11/M07 A3024 RMK AO2,KDXX,2023-04-25T21:15:00Z,44.98,-96.18,11.0,-7.0,80,6,,10.0,30.239174,,,TRUE,TRUE,,,,,,,CLR,,,,,,,,VFR,,,,,,,,,,,,METAR,327.0
KDWX 252115Z AUTO 32007KT 10SM BKN033 BKN038 08/00 A2998 RMK AO2 T00820002,KDWX,2023-04-25T21:15:00Z,41.03,-107.5,8.2,0.2,320,7,,10.0,29.97933,,,TRUE,TRUE,,,,,,,BKN,3300,BKN,3800,,,,,VFR,,,,,,,,,,,,SPECI,1974.0
KDVO 252115Z AUTO 35011KT 9SM CLR 28/11 A2990 RMK AO2,KDVO,2023-04-25T21:15:00Z,38.15,-122.55,28.0,11.0,350,11,,9.0,29.899607,,,TRUE,TRUE,,,,,,,CLR,,,,,,,,VFR,,,,,,,,,,,,METAR,1.0
KDUX 252115Z AUTO 12009G17KT 10SM CLR 23/06 A2976 RMK AO2 T02290057,KDUX,2023-04-25T21:15:00Z,35.85,-102.02,22.9,5.7,120,9,17,10.0,29.760826,,,TRUE,TRUE,,,,,,,CLR,,,,,,,,VFR,,,,,,,,,,,,METAR,1129.0
KDUH 252115Z AUTO 36003KT 7SM -RA SCT006 BKN024 OVC032 05/04 A3016 RMK AO2 T00510039,KDUH,2023-04-25T21:15:00Z,41.73,-83.65,5.1,3.9,360,3,,7.0,30.159449,,,TRUE,TRUE,,,,,,-RA,SCT,600,BKN,2400,OVC,3200,,,MVFR,,,,,,,,,,,,METAR,203.0
KDUC 252115Z AUTO 09011KT 10SM OVC031 18/11 A2990 RMK AO2 T01790112,KDUC,2023-04-25T21:15:00Z,34.47,-97.97,17.9,11.2,90,11,,10.0,29.899607,,,TRUE,TRUE,,,,,,,OVC,3100,,,,,,,VFR,,,,,,,,,,,,METAR,339.0
KDUA 252115Z AUTO 09012KT 10SM OVC037 17/08 A2996 RMK AO2,KDUA,2023-04-25T21:15:00Z,33.95,-96.4,17.0,8.0,90,12,,10.0,29.958662,,,TRUE,TRUE,,,,,,,OVC,3700,,,,,,,VFR,,,,,,,,,,,,SPECI,209.0
KDTL 252115Z AUTO 04005G11KT 10SM BKN060 09/M07 A3025 RMK AO2,KDTL,2023-04-25T21:15:00Z,46.82,-95.88,9.0,-7.0,40,5,11,10.0,30.250984,,,TRUE,TRUE,,,,,,,BKN,6000,,,,,,,VFR,,,,,,,,,,,,METAR,425.0
KDTA 252115Z AUTO 36007G16KT 10SM OVC055 10/M03 A3007 RMK AO1,KDTA,2023-04-25T21:15:00Z,39.38,-112.5,10.0,-3.0,360,7,16,10.0,30.070866,,,TRUE,TRUE,,,,,,,OVC,5500,,,,,,,VFR,,,,,,,,,,,,SPECI,1452.0
KDRM 252115Z AUTO 29004KT 10SM SCT037 OVC060 07/M01 A3014 RMK AO2 T00651006,KDRM,2023-04-25T21:15:00Z,46.0,-83.75,6.5,-0.6,290,4,,10.0,30.138779,,,TRUE,TRUE,,,,,,,SCT,3700,OVC,6000,,,,,VFR,,,,,,,,,,,,METAR,201.0
KDRI 252115Z AUTO 07004KT 10SM OVC080 22/15 A2995 RMK AO2 T02200154 $,KDRI,2023-04-25T21:15:00Z,30.83,-93.33,22.0,15.4,70,4,,10.0,29.949802,,,TRUE,TRUE,TRUE,,,,,,OVC,8000,,,,,,,VFR,,,,,,,,,,,,METAR,59.0
KDQH 252115Z AUTO 02005KT 10SM BKN110 26/13 A2998 RMK AO2 T02590129,KDQH,2023-04-25T21:15:00Z,31.48,-82.87,25.9,12.9,20,5,,10.0,29.97933,,,TRUE,TRUE,,,,,,,BKN,11000,,,,,,,VFR,,,,,,,,,,,,METAR,76.0
KDNV 252115Z AUTO 30010KT 10SM -RA BKN046 OVC050 14/06 A3010 RMK AO2 T01380059,KDNV,2023-04-25T21:15:00Z,40.2,-87.6,13.8,5.9,300,10,,10.0,30.100393,,,TRUE,TRUE,,,,,,-RA,BKN,4600,OVC,5000,,,,,VFR,,,,,,,,,,,,SPECI,208.0
KDNN 252115Z AUTO 04005KT 10SM BKN110 OVC140 19/05 A3006 RMK AO2 T01890054,KDNN,2023-04-25T21:15:00Z,34.72,-84.87,18.9,5.4,40,5,,10.0,30.059055,,,TRUE,TRUE,,,,,,,BKN,11000,OVC,14000,,,,,VFR,,,,,,,,,,,,METAR,216.0
KDNA 252115Z AUTO 26018G24KT 8SM CLR 28/M06 A2982 RMK AO2,KDNA,2023-04-25T21:15:00Z,31.88,-106.7,28.0,-6.0,260,18,24,8.0,29.819881,,,TRUE,TRUE,,,,,,,CLR,,,,,,,,VFR,,,,,,,,,,,,SPECI,1254.0
KDLZ 252115Z AUTO 24004KT 10SM OVC065 10/M02 A3014 RMK AO2,KDLZ,2023-04-25T21:15:00Z,40.28,-83.12,10.0,-2.0,240,4,,10.0,30.138779,,,TRUE,TRUE,,,,,,,OVC,6500,,,,,,,VFR,,,,,,,,,,,,METAR,287.0
KDLP 252115Z AUTO 07010KT 10SM FEW025 23/19 A2985 RMK A01,KDLP,2023-04-25T21:15:00Z,29.12,-89.55,23.0,19.0,70,10,,10.0,29.84941,,,TRUE,TRUE,,,,,,,FEW,2500,,,,,,,VFR,,,,,,,,,,,,SPECI,31.0
KDLO 252115Z AUTO 32007KT 10SM CLR 24/04 A2990 RMK AO2 T02440038,KDLO,2023-04-25T21:15:00Z,35.75,-119.23,24.4,3.8,320,7,,10.0,29.899607,,,TRUE,TRUE,,,,,,,CLR,,,,,,,,VFR,,,,,,,,,,,,METAR,97.0
KDLL 252115Z AUTO 10006KT 10SM SCT047 OVC060 10/M01 A3020 RMK AO2 T01021009,KDLL,2023-04-25T21:15:00Z,43.52,-89.77,10.2,-0.9,100,6,,10.0,30.200787,,,TRUE,TRUE,,,,,,,SCT,4700,OVC,6000,,,,,VFR,,,,,,,,,,,,METAR,297.0
KDKX 252115Z AUTO VRB04G11KT 10SM CLR 20/M01 A3008 RMK A01,KDKX,2023-04-25T21:15:00Z,35.97,-83.87,20.0,-1.0,0,4,11,10.0,30.079725,,,TRUE,TRUE,,,,,,,CLR,,,,,,,,VFR,,,,,,,,,,,,SPECI,253.0
KDKR 252115Z AUTO VRB04G12KT 10SM BKN060 22/17 A2991 RMK AO2,KDKR,2023-04-25T21:15:00Z,31.3,-95.4,22.0,17.0,0,4,12,10.0,29.911417,,,TRUE,TRUE,,,,,,,BKN,6000,,,,,,,VFR,,,,,,,,,,,,METAR,105.0
KDEH 252115Z AUTO VRB06KT 10SM FEW055 10/M03 A3017 RMK AO2,KDEH,2023-04-25T21:15:00Z,43.27,-91.73,10.0,-3.0,0,6,,10.0,30.171259,,,TRUE,TRUE,,,,,,,FEW,5500,,,,,,,VFR,,,,,,,,,,,,METAR,348.0
KDCY 252115Z AUTO 24006KT 10SM CLR 18/M01 A3010 RMK AO2 T01761006,KDCY,2023-04-25T21:15:00Z,38.7,-87.13,17.6,-0.6,240,6,,10.0,30.100393,,,TRUE,TRUE,,,,,,,CLR,,,,,,,,VFR,,,,,,,,,,,,METAR,143.0
KDBN 252115Z AUTO 10006KT 10SM SCT046 SCT060 BKN090 24/12 A3003 RMK AO2,KDBN,2023-04-25T21:15:00Z,32.57,-82.98,24.0,12.0,100,6,,10.0,30.029528,,,TRUE,TRUE,,,,,,,SCT,4600,SCT,6000,BKN,9000,,,VFR,,,,,,,,,,,,METAR,90.0
KD95 252115Z AUTO 19004KT 10SM SCT047 SCT055 OVC070 07/02 A3015 RMK AO2 T00650019 P0001,KD95,2023-04-25T21:15:00Z,43.07,-83.27,6.5,1.9,190,4,,10.0,30.15059,,,TRUE,TRUE,,,,,,,SCT,4700,SCT,5500,OVC,7000,,,VFR,,,,,,0.01,,,,,,METAR,253.0
KD73 252115Z AUTO 07008KT 010V080 10SM SCT050 BKN070 21/09 A3005 RMK AO2 T02120093,KD73,2023-04-25T21:15:00Z,33.78,-83.7,21.2,9.3,70,8,,10.0,30.050198,,,TRUE,TRUE,,,,,,,SCT,5000,BKN,7000,,,,,VFR,,,,,,,,,,,,METAR,254.0
KD60 252115Z AUTO 16012G17KT 10SM CLR 12/M07 A3011 RMK AO2,KD60,2023-04-25T21:15:00Z,48.38,-102.9,12.0,-7.0,160,12,17,10.0,30.109253,,,TRUE,TRUE,,,,,,,CLR,,,,,,,,VFR,,,,,,,,,,,,SPECI,682.0
KD57 252115Z AUTO 16013G18KT 10SM CLR 12/M10 A3012 RMK AO2,KD57,2023-04-25T21:15:00Z,46.82,-101.87,12.0,-10.0,160,13,18,10.0,30.121063,,,TRUE,TRUE,,,,,,,CLR,,,,,,,,VFR,,,,,,,,,,,,METAR,636.0
KD55 252115Z AUTO 12010KT 10SM CLR 06/M01 A3026 RMK AO2,KD55,2023-04-25T21:15:00Z,48.75,-98.4,6.0,-1.0,120,10,,10.0,30.259842,,,TRUE,TRUE,,,,,,,CLR,,,,,,,,VFR,,,,,,,,,,,,METAR,488.0
KD39 252115Z AUTO 08005KT 10SM SCT060 SCT075 08/M06 A3025 RMK AO2 T00841064,KD39,2023-04-25T21:15:00Z,45.7,-94.93,8.4,-6.4,80,5,,10.0,30.250984,,,TRUE,TRUE,,,,,,,SCT,6000,SCT,7500,,,,,VFR,,,,,,,,,,,,METAR,378.0
KD25 252115Z AUTO 36005KT 10SM OVC040 03/M06 A3025 RMK AO2 T00291061,KD25,2023-04-25T21:15:00Z,46.12,-89.88,2.9,-6.1,360,5,,10.0,30.250984,,,TRUE,TRUE,,,,,,,OVC,4000,,,,,,,VFR,,,,,,,,,,,,SPECI,490.0
KCZT 252115Z AUTO 10SM SCT046 BKN055 27/16 A2979 RMK AO2,KCZT,2023-04-25T21:15:00Z,28.52,-99.82,27.0,16.0,,,,10.0,29.790354,,,TRUE,TRUE,,,,,,,SCT,4600,BKN,5500,,,,,VFR,,,,,,,,,,,,METAR,176.0
KCZL 252115Z AUTO 02003KT 10SM OVC100 21/03 A3006 RMK AO2,KCZL,2023-04-25T21:15:00Z,34.47,-84.93,21.0,3.0,20,3,,10.0,30.059055,,,TRUE,TRUE,,,,,,,OVC,10000,,,,,,,VFR,,,,,,,,,,,,SPECI,197.0
KCYD 252115Z AUTO 07012KT 7SM SCT010 23/20 A2994 RMK A02 T02260202,KCYD,2023-04-25T21:15:00Z,28.17,-89.22,22.6,20.2,70,12,,7.0,29.940945,,,TRUE,TRUE,,,,,,,SCT,1000,,,,,,,VFR,,,,,,,,,,,,METAR,30.0
KCXW 252115Z AUTO 18007KT 9SM FEW048 FEW075 FEW110 17/ A3006 RMK A01,KCXW,2023-04-25T21:15:00Z,35.02,-92.55,17.0,,180,7,,9.0,30.059055,,,TRUE,TRUE,,,,,,,FEW,4800,FEW,7500,FEW,11000,,,VFR,,,,,,,,,,,,SPECI,84.0
KCXU 252115Z AUTO 00000KT 10SM CLR 23/12 A2996 RMK AO1 T02260119,KCXU,2023-04-25T21:15:00Z,31.22,-84.23,22.6,11.9,0,0,,10.0,29.958662,,,TRUE,TRUE,,,,,,,CLR,,,,,,,,VFR,,,,,,,,,,,,SPECI,48.0
KCXP 252115Z AUTO VRB06G14KT 10SM CLR 17/M07 A3013 RMK AO2,KCXP,2023-04-25T21:15:00Z,39.18,-119.73,17.0,-7.0,0,6,14,10.0,30.129921,,,TRUE,TRUE,,,,,,,CLR,,,,,,,,VFR,,,,,,,,,,,,METAR,1431.0
KCXE 252115Z AUTO 00000KT 10SM SCT050 17/04 A3015 RMK AO1 T01700042,KCXE,2023-04-25T21:15:00Z,36.78,-78.5,17.0,4.2,0,0,,10.0,30.15059,,,TRUE,TRUE,,,,,,,SCT,5000,,,,,,,VFR,,,,,,,,,,,,SPECI,154.0
KCWV 252115Z AUTO 12004KT 7SM -RA BKN060 BKN070 OVC090 19/18 A3004 RMK AO2 T01900176,KCWV,2023-04-25T21:15:00Z,32.2,-81.87,19.0,17.6,120,4,,7.0,30.041338,,,TRUE,TRUE,,,,,,-RA,BKN,6000,BKN,7000,OVC,9000,,,VFR,,,,,,,,,,,,METAR,32.0
KCWC 252115Z AUTO 16013G19KT 10SM BKN033 OVC065 22/14 A2986 RMK AO2 T02150135,KCWC,2023-04-25T21:15:00Z,33.85,-98.48,21.5,13.5,160,13,19,10.0,29.861221,,,TRUE,TRUE,,,,,,,BKN,3300,OVC,6500,,,,,VFR,,,,,,,,,,,,METAR,304.0
KCVX 252115Z AUTO 31008KT 10SM SCT033 OVC042 05/00 A3020 RMK AO2 T00501002,KCVX,2023-04-25T21:15:00Z,45.3,-85.27,5.0,-0.2,310,8,,10.0,30.200787,,,TRUE,TRUE,,,,,,,SCT,3300,OVC,4200,,,,,VFR,,,,,,,,,,,,METAR,196.0
KCVH 252115Z AUTO 00000KT 10SM CLR 24/11 A2992 RMK A01,KCVH,2023-04-25T21:15:00Z,36.9,-121.42,24.0,11.0,0,0,,10.0,29.920275,,,TRUE,TRUE,,,,,,,CLR,,,,,,,,VFR,,,,,,,,,,,,METAR,68.0
KCVC 252115Z AUTO 11005KT 10SM SCT048 SCT065 BKN095 21/10 A3003 RMK AO2,KCVC,2023-04-25T21:15:00Z,33.63,-83.85,21.0,10.0,110,5,,10.0,30.029528,,,TRUE,TRUE,,,,,,,SCT,4800,SCT,6500,BKN,9500,,,VFR,,,,,,,,,,,,SPECI,240.0
KCUH 252115Z AUTO 10006KT 7SM RA OVC008 09/09 A2998 RMK AO2 P0002 T00910086,KCUH,2023-04-25T21:15:00Z,35.95,-96.77,9.1,8.6,100,6,,7.0,29.97933,,,TRUE,TRUE,,,,,,RA,OVC,800,,,,,,,IFR,,,,,,0.02,,,,,,METAR,274.0
KCTY 252115Z AUTO 08003KT 10SM SCT040 SCT049 BKN085 25/19 A2993 RMK AO2,KCTY,2023-04-25T21:15:00Z,29.63,-83.1,25.0,19.0,80,3,,10.0,29.929134,,,TRUE,TRUE,,,,,,,SCT,4000,SCT,4900,BKN,8500,,,VFR,,,,,,,,,,,,METAR,12.0
KCTJ 252115Z AUTO 27004KT 10SM SCT070 SCT100 21/05 A3007 RMK AO2 T02100046,KCTJ,2023-04-25T21:15:00Z,33.63,-85.15,21.0,4.6,270,4,,10.0,30.070866,,,TRUE,TRUE,,,,,,,SCT,7000,SCT,10000,,,,,VFR,,,,,,,,,,,,METAR,351.0
KCSQ 252115Z AUTO VRB06G13KT 10SM BKN047 15/04 A3009 RMK AO2,KCSQ,2023-04-25T21:15:00Z,41.02,-94.37,15.0,4.0,0,6,13,10.0,30.088583,,,TRUE,TRUE,,,,,,,BKN,4700,,,,,,,VFR,,,,,,,,,,,,SPECI,394.0
KCRX 252115Z AUTO 00000G10KT 10SM CLR 20/M02 A3005 RMK AO2,KCRX,2023-04-25T21:15:00Z,34.92,-88.6,20.0,-2.0,0,0,10,10.0,30.050198,,,TRUE,TRUE,,,,,,,CLR,,,,,,,,VFR,,,,,,,,,,,,SPECI,128.0
KCQW 252115Z AUTO VRB06KT 10SM SCT080 SCT100 20/05 A3011 RMK AO2,KCQW,2023-04-25T21:15:00Z,34.72,-79.95,20.0,5.0,0,6,,10.0,30.109253,,,TRUE,TRUE,,,,,,,SCT,8000,SCT,10000,,,,,VFR,,,,,,,,,,,,METAR,67.0
KCQF 252115Z AUTO 20003KT 10SM CLR 23/16 A2996 RMK AO2,KCQF,2023-04-25T21:15:00Z,30.47,-87.88,23.0,16.0,200,3,,10.0,29.958662,,,TRUE,TRUE,,,,,,,CLR,,,,,,,,VFR,,,,,,,,,,,,METAR,21.0
KCQB 252115Z AUTO 11009KT 7SM DZ OVC004 09/09 A2999 RMK AO2 T00920087,KCQB,2023-04-25T21:15:00Z,35.72,-96.82,9.2,8.7,110,9,,7.0,29.991142,,,TRUE,TRUE,,,,,,DZ,OVC,400,,,,,,,LIFR,,,,,,,,,,,,METAR,298.0
KCPW 252115Z AUTO 27021G32KT 7SM SCT048 BKN055 M01/M10 A2995 RMK AO2 LTG DSNT NE,KCPW,2023-04-25T21:15:00Z,37.45,-106.8,-1.0,-10.0,270,21,32,7.0,29.949802,,,TRUE,TRUE,,,,,,,SCT,4800,BKN,5500,,,,,VFR,,,,,,,,,,,,METAR,3570.0
KCPT 252115Z AUTO 12010KT 9SM OVC025 21/15 A2988 RMK A01,KCPT,2023-04-25T21:15:00Z,32.35,-97.43,21.0,15.0,120,10,,9.0,29.878937,,,TRUE,TRUE,,,,,,,OVC,2500,,,,,,,MVFR,,,,,,,,,,,,METAR,260.0
KCPK 252115Z AUTO 10008KT 10SM BKN060 OVC070 14/03 A3018 RMK AO2 T01440029,KCPK,2023-04-25T21:15:00Z,36.67,-76.32,14.4,2.9,100,8,,10.0,30.180119,,,TRUE,TRUE,,,,,,,BKN,6000,OVC,7000,,,,,VFR,,,,,,,,,,,,METAR,4.0
KCPF 252115Z AUTO 00000KT 10SM CLR 17/M03 A3012 RMK AO2,KCPF,2023-04-25T21:15:00Z,37.38,-83.27,17.0,-3.0,0,0,,10.0,30.121063,,,TRUE,TRUE,,,,,,,CLR,,,,,,,,VFR,,,,,,,,,,,,SPECI,382.0
KCOQ 252115Z AUTO 07006KT 10SM OVC060 06/M07 A3025 RMK AO2 TSNO,KCOQ,2023-04-25T21:15:00Z,46.7,-92.5,6.0,-7.0,70,6,,10.0,30.250984,,,TRUE,TRUE,,,TRUE,,,,OVC,6000,,,,,,,VFR,,,,,,,,,,,,METAR,390.0
KCOM 252115Z AUTO 12011G16KT 10SM SCT029 OVC038 23/15 A2983 RMK AO2 T02260145,KCOM,2023-04-25T21:15:00Z,31.83,-99.4,22.6,14.5,120,11,16,10.0,29.828741,,,TRUE,TRUE,,,,,,,SCT,2900,OVC,3800,,,,,VFR,,,,,,,,,,,,METAR,516.0
KCNI 252115Z AUTO 06004KT 10SM OVC060 19/07 A3006 RMK AO2 T01890073,KCNI,2023-04-25T21:15:00Z,34.32,-84.42,18.9,7.3,60,4,,10.0,30.059055,,,TRUE,TRUE,,,,,,,OVC,6000,,,,,,,VFR,,,,,,,,,,,,METAR,371.0
KCNC 252115Z AUTO 05009KT 10SM FEW050 FEW055 15/04 A3009 RMK AO2,KCNC,2023-04-25T21:15:00Z,41.02,-93.37,15.0,4.0,50,9,,10.0,30.088583,,,TRUE,TRUE,,,,,,,FEW,5000,FEW,5500,,,,,VFR,,,,,,,,,,,,METAR,319.0
KCNB 252115Z AUTO 07005KT 10SM CLR 11/M07 A3022 RMK AO2 T01071067,KCNB,2023-04-25T21:15:00Z,44.73,-96.27,10.7,-6.7,70,5,,10.0,30.221457,,,TRUE,TRUE,,,,,,,CLR,,,,,,,,VFR,,,,,,,,,,,,METAR,363.0
KCMR 252115Z AUTO 29018G24KT 10SM CLR 18/M15 A2998 RMK AO2,KCMR,2023-04-25T21:15:00Z,35.3,-112.2,18.0,-15.0,290,18,24,10.0,29.97933,,,TRUE,TRUE,,,,,,,CLR,,,,,,,,VFR,,,,,,,,,,,,SPECI,2039.0
KCMD 252115Z AUTO 00000KT 10SM CLR 19/01 A3007 RMK AO2,KCMD,2023-04-25T21:15:00Z,34.27,-86.85,19.0,1.0,0,0,,10.0,30.070866,,,TRUE,TRUE,,,,,,,CLR,,,,,,,,VFR,,,,,,,,,,,,SPECI,294.0
KCLW 252115Z AUTO 30008G15KT 10SM CLR 26/20 A2991 RMK AO2 PWINO,KCLW,2023-04-25T21:15:00Z,27.98,-82.75,26.0,20.0,300,8,15,10.0,29.911417,,,TRUE,TRUE,,,,,TRUE,,CLR,,,,,,,,VFR,,,,,,,,,,,,SPECI,21.0
KCLS 252115Z AUTO 34003KT 10SM CLR 15/07 A3025 RMK AO2,KCLS,2023-04-25T21:15:00Z,46.68,-122.98,15.0,7.0,340,3,,10.0,30.250984,,,TRUE,TRUE,,,,,,,CLR,,,,,,,,VFR,,,,,,,,,,,,METAR,52.0
KCLK 252115Z AUTO 09012KT 5SM BR OVC006 11/10 A2992 RMK AO2,KCLK,2023-04-25T21:15:00Z,35.53,-98.93,11.0,10.0,90,12,,5.0,29.920275,,,TRUE,TRUE,,,,,,BR,OVC,600,,,,,,,IFR,,,,,,,,,,,,METAR,489.0
KCLI 252115Z AUTO 03003KT 10SM OVC070 08/M06 A3021 RMK AO2 T00811059,KCLI,2023-04-25T21:15:00Z,44.62,-88.73,8.1,-5.9,30,3,,10.0,30.209646,,,TRUE,TRUE,,,,,,,OVC,7000,,,,,,,VFR,,,,,,,,,,,,METAR,248.0
KCKZ 252115Z AUTO 29003G15KT 10SM CLR 13/M05 A3018 RMK AO2,KCKZ,2023-04-25T21:15:00Z,40.38,-75.28,13.0,-5.0,290,3,15,10.0,30.180119,,,TRUE,TRUE,,,,,,,CLR,,,,,,,,VFR,,,,,,,,,,,,METAR,160.0
KCKP 252115Z AUTO 07009KT 030V100 10SM SCT095 14/M03 A3013 RMK AO2 T01441026,KCKP,2023-04-25T21:15:00Z,42.73,-95.55,14.4,-2.6,70,9,,10.0,30.129921,,,TRUE,TRUE,,,,,,,SCT,9500,,,,,,,VFR,,,,,,,,,,,,METAR,369.0
KCKN 252115Z AUTO 30005KT 10SM BKN060 10/M06 A3026 RMK AO2,KCKN,2023-04-25T21:15:00Z,47.85,-96.62,10.0,-6.0,300,5,,10.0,30.259842,,,TRUE,TRUE,,,,,,,BKN,6000,,,,,,,VFR,,,,,,,,,,,,METAR,272.0
KCKM 252115Z AUTO 04006KT 10SM CLR 17/05 A3007 RMK A01,KCKM,2023-04-25T21:15:00Z,34.3,-90.52,17.0,5.0,40,6,,10.0,30.070866,,,TRUE,TRUE,,,,,,,CLR,,,,,,,,VFR,,,,,,,,,,,,METAR,52.0
KCKI 252115Z AUTO 13009KT 10SM CLR 22/05 A3009 RMK AO2,KCKI,2023-04-25T21:15:00Z,33.72,-79.85,22.0,5.0,130,9,,10.0,30.088583,,,TRUE,TRUE,,,,,,,CLR,,,,,,,,VFR,,,,,,,,,,,,SPECI,19.0
KCKF 252115Z AUTO 35003KT 10SM BKN060 BKN070 BKN085 26/12 A2999 RMK AO2 T02580120,KCKF,2023-04-25T21:15:00Z,31.98,-83.77,25.8,12.0,350,3,,10.0,29.991142,,,TRUE,TRUE,,,,,,,BKN,6000,BKN,7000,BKN,8500,,,VFR,,,,,,,,,,,,METAR,92.0
KCKC 252115Z AUTO 14005KT 10SM OVC050 03/M08 A3024 RMK AO2,KCKC,2023-04-25T21:15:00Z,47.83,-90.38,3.0,-8.0,140,5,,10.0,30.239174,,,TRUE,TRUE,,,,,,,OVC,5000,,,,,,,VFR,,,,,,,,,,,,METAR,544.0
KCJR 252115Z AUTO 00000KT 10SM CLR 17/M01 A3017 RMK AO2 T01651015,KCJR,2023-04-25T21:15:00Z,38.53,-77.87,16.5,-1.5,0,0,,10.0,30.171259,,,TRUE,TRUE,,,,,,,CLR,,,,,,,,VFR,,,,,,,,,,,,SPECI,90.0
KCIR 252115Z AUTO 06003KT 10SM CLR 20/00 A3010 RMK AO2 T02010004,KCIR,2023-04-25T21:15:00Z,37.07,-89.22,20.1,0.4,60,3,,10.0,30.100393,,,TRUE,TRUE,,,,,,,CLR,,,,,,,,VFR,,,,,,,,,,,,SPECI,96.0
KCIN 252115Z AUTO 07010G18KT 10SM FEW100 15/M02 A3010 RMK AO2,KCIN,2023-04-25T21:15:00Z,42.03,-94.78,15.0,-2.0,70,10,18,10.0,30.100393,,,TRUE,TRUE,,,,,,,FEW,10000,,,,,,,VFR,,,,,,,,,,,,METAR,365.0
KCHK 252115Z AUTO 08011KT 10SM SCT015 OVC022 12/09 A2991 RMK AO2 T01190090,KCHK,2023-04-25T21:15:00Z,35.1,-97.97,11.9,9.0,80,11,,10.0,29.911417,,,TRUE,TRUE,,,,,,,SCT,1500,OVC,2200,,,,,MVFR,,,,,,,,,,,,METAR,346.0
KCGC 252115Z AUTO 27009KT 10SM CLR 27/20 A2992 RMK AO2,KCGC,2023-04-25T21:15:00Z,28.87,-82.57,27.0,20.0,270,9,,10.0,29.920275,,,TRUE,TRUE,,,,,,,CLR,,,,,,,,VFR,,,,,,,,,,,,METAR,3.0
KCFS 252115Z AUTO 00000KT 10SM OVC075 09/M05 A3014 RMK AO2 T00931051,KCFS,2023-04-25T21:15:00Z,43.47,-83.45,9.3,-5.1,0,0,,10.0,30.138779,,,TRUE,TRUE,,,,,,,OVC,7500,,,,,,,VFR,,,,,,,,,,,,METAR,214.0
KCFJ 252115Z AUTO 21007KT 10SM CLR 14/M01 A3009 RMK AO2 T01401012,KCFJ,2023-04-25T21:15:00Z,39.98,-86.92,14.0,-1.2,210,7,,10.0,30.088583,,,TRUE,TRUE,,,,,,,CLR,,,,,,,,VFR,,,,,,,,,,,,SPECI,243.0
KCFE 252115Z AUTO 04007KT 010V080 10SM SCT060 08/M04 A3024 RMK AO2,KCFE,2023-04-25T21:15:00Z,45.17,-93.85,8.0,-4.0,40,7,,10.0,30.239174,,,TRUE,TRUE,,,,,,,SCT,6000,,,,,,,VFR,,,,,,,,,,,,METAR,292.0
KCFD 252115Z AUTO 12005KT 10SM BKN028 BKN040 BKN060 23/17 A2989 RMK AO2 T02310168,KCFD,2023-04-25T21:15:00Z,30.72,-96.33,23.1,16.8,120,5,,10.0,29.890747,,,TRUE,TRUE,,,,,,,BKN,2800,BKN,4000,BKN,6000,,,MVFR,,,,,,,,,,,,METAR,106.0
KCEY 252115Z AUTO 04008KT 10SM CLR 19/M00 A3009 RMK A01,KCEY,2023-04-25T21:15:00Z,36.67,-88.37,19.0,0.0,40,8,,10.0,30.088583,,,TRUE,TRUE,,,,,,,CLR,,,,,,,,VFR,,,,,,,,,,,,METAR,172.0
KCDN 252115Z AUTO 06008KT 10SM SCT070 SCT120 21/05 A3009 RMK AO2,KCDN,2023-04-25T21:15:00Z,34.28,-80.57,21.0,5.0,60,8,,10.0,30.088583,,,TRUE,TRUE,,,,,,,SCT,7000,SCT,12000,,,,,VFR,,,,,,,,,,,,METAR,90.0
KCDI 252115Z AUTO 00000KT 10SM BKN060 BKN070 OVC090 13/M03 A3014 RMK AO2 T01291030,KCDI,2023-04-25T21:15:00Z,39.97,-81.58,12.9,-3.0,0,0,,10.0,30.138779,,,TRUE,TRUE,,,,,,,BKN,6000,BKN,7000,OVC,9000,,,VFR,,,,,,,,,,,,METAR,241.0
KCDH 252115Z AUTO 02007KT 8SM BKN065 OVC080 16/11 A3003 RMK AO2,KCDH,2023-04-25T21:15:00Z,33.62,-92.77,16.0,11.0,20,7,,8.0,30.029528,,,TRUE,TRUE,,,,,,,BKN,6500,OVC,8000,,,,,VFR,,,,,,,,,,,,METAR,38.0
KCDD 252115Z AUTO 00000KT 10SM OVC050 05/M09 A3032 RMK AO2,KCDD,2023-04-25T21:15:00Z,48.27,-92.48,5.0,-9.0,0,0,,10.0,30.318897,,,TRUE,TRUE,,,,,,,OVC,5000,,,,,,,VFR,,,,,,,,,,,,SPECI,344.0
KCDA 252115Z AUTO 33003KT 10SM 07/02 A3015 RMK AO2 T00690023 PWINO,KCDA,2023-04-25T21:15:00Z,44.57,-72.02,6.9,2.3,330,3,,10.0,30.15059,,,TRUE,TRUE,,,,,TRUE,,,,,,,,,,,,,,,,,,,,,,METAR,357.0
KCCY 252115Z AUTO 36008KT 10SM CLR 11/M04 A3016 RMK AO2,KCCY,2023-04-25T21:15:00Z,43.07,-92.62,11.0,-4.0,360,8,,10.0,30.159449,,,TRUE,TRUE,,,,,,,CLR,,,,,,,,VFR,,,,,,,,,,,,METAR,340.0
KCCU 252115Z AUTO 09008G18KT 070V130 10SM SCT022 SCT046 BKN050 01/M05 A2995 RMK AO2,KCCU,2023-04-25T21:15:00Z,39.48,-106.15,1.0,-5.0,90,8,18,10.0,29.949802,,,TRUE,TRUE,,,,,,,SCT,2200,SCT,4600,BKN,5000,,,VFR,,,,,,,,,,,,SPECI,3672.0
KCCO 252115Z AUTO 32003KT 10SM CLR 23/05 A3002 RMK AO2 T02280045,KCCO,2023-04-25T21:15:00Z,33.32,-84.77,22.8,4.5,320,3,,10.0,30.02067,,,TRUE,TRUE,,,,,,,CLR,,,,,,,,VFR,,,,,,,,,,,,METAR,290.0
KCCB 252115Z AUTO 23010KT 200V270 10SM CLR 19/11 A2989 RMK AO2,KCCB,2023-04-25T21:15:00Z,34.12,-117.68,19.0,11.0,230,10,,10.0,29.890747,,,TRUE,TRUE,,,,,,,CLR,,,,,,,,VFR,,,,,,,,,,,,METAR,440.0
KCCA 252115Z AUTO 13004KT 10SM SCT050 OVC055 17/06 A3007 RMK AO2,KCCA,2023-04-25T21:15:00Z,35.6,-92.45,17.0,6.0,130,4,,10.0,30.070866,,,TRUE,TRUE,,,,,,,SCT,5000,OVC,5500,,,,,VFR,,,,,,,,,,,,METAR,152.0
KCBK 252115Z AUTO 10014KT 10SM BKN010 OVC017 09/07 A2997 RMK AO2 T00910072,KCBK,2023-04-25T21:15:00Z,39.43,-101.05,9.1,7.2,100,14,,10.0,29.970472,,,TRUE,TRUE,,,,,,,BKN,1000,OVC,1700,,,,,MVFR,,,,,,,,,,,,METAR,970.0
KCBG 252115Z AUTO 04003KT 10SM SCT060 09/M03 A3025 RMK AO2,KCBG,2023-04-25T21:15:00Z,45.57,-93.27,9.0,-3.0,40,3,,10.0,30.250984,,,TRUE,TRUE,,,,,,,SCT,6000,,,,,,,VFR,,,,,,,,,,,,METAR,285.0
KCBF 252115Z AUTO 06009G17KT 10SM FEW055 17/00 A3006 RMK AO2,KCBF,2023-04-25T21:15:00Z,41.27,-95.77,17.0,0.0,60,9,17,10.0,30.059055,,,TRUE,TRUE,,,,,,,FEW,5500,,,,,,,VFR,,,,,,,,,,,,METAR,379.0
KCAV 252115Z AUTO 05009G14KT 10SM CLR 13/M05 A3016 RMK A01,KCAV,2023-04-25T21:15:00Z,42.75,-93.77,13.0,-5.0,50,9,14,10.0,30.159449,,,TRUE,TRUE,,,,,,,CLR,,,,,,,,VFR,,,,,,,,,,,,METAR,352.0
KCAD 252115Z AUTO 36008KT 10SM OVC048 06/M02 A3014 RMK AO2 T00581021,KCAD,2023-04-25T21:15:00Z,44.27,-85.42,5.8,-2.1,360,8,,10.0,30.138779,,,TRUE,TRUE,,,,,,,OVC,4800,,,,,,,VFR,,,,,,,,,,,,METAR,397.0
KC99 252115Z AUTO 11004KT M1/4SM VCTS OVC001 M03/M03 A2996 RMK AO2 LTG DSNT E AND SE,KC99,2023-04-25T21:15:00Z,39.87,-105.55,-3.0,-3.0,110,4,,0.25,29.958662,,,TRUE,TRUE,,,,,,VCTS,OVC,100,,,,,,,LIFR,,,,,,,,,,,,METAR,3334.0
KC83 252115Z AUTO 33007G13KT 10SM CLR 27/02 A2990 RMK AO2,KC83,2023-04-25T21:15:00Z,37.83,-121.62,27.0,2.0,330,7,13,10.0,29.899607,,,TRUE,TRUE,,,,,,,CLR,,,,,,,,VFR,,,,,,,,,,,,SPECI,16.0
KC75 252115Z AUTO 02007KT 310V050 10SM CLR 13/06 A3013 RMK AO2 T01280059,KC75,2023-04-25T21:15:00Z,41.02,-89.38,12.8,5.9,20,7,,10.0,30.129921,,,TRUE,TRUE,,,,,,,CLR,,,,,,,,VFR,,,,,,,,,,,,METAR,166.0
KC65 252115Z AUTO 36009KT 10SM SCT024 OVC031 08/03 A3013 RMK A01,KC65,2023-04-25T21:15:00Z,41.37,-86.3,8.0,3.0,360,9,,10.0,30.129921,,,TRUE,TRUE,,,,,,,SCT,2400,OVC,3100,,,,,VFR,,,,,,,,,,,,METAR,241.0
KC62 252115Z AUTO 01007KT 10SM BKN016 OVC023 07/05 A3013 RMK AO2 T00730052,KC62,2023-04-25T21:15:00Z,41.47,-85.25,7.3,5.2,10,7,,10.0,30.129921,,,TRUE,TRUE,,,,,,,BKN,1600,OVC,2300,,,,,MVFR,,,,,,,,,,,,SPECI,304.0
KC35 252115Z AUTO 10003KT 10SM OVC065 08/M03 A3019 RMK AO2 T00821033 PWINO,KC35,2023-04-25T21:15:00Z,43.53,-89.98,8.2,-3.3,100,3,,10.0,30.188976,,,TRUE,TRUE,,,,,TRUE,,OVC,6500,,,,,,,VFR,,,,,,,,,,,,METAR,272.0
KC29 252115Z AUTO 12003KT 10SM SCT045 OVC060 08/M01 A3020 RMK AO1 T00821006,KC29,2023-04-25T21:15:00Z,43.12,-89.53,8.2,-0.6,120,3,,10.0,30.200787,,,TRUE,TRUE,,,,,,,SCT,4500,OVC,6000,,,,,VFR,,,,,,,,,,,,METAR,282.0
KC09 252115Z AUTO 03007KT 010V070 10SM 10/02 A3016 RMK AO2 T00990021,KC09,2023-04-25T21:15:00Z,41.43,-88.42,9.9,2.1,30,7,,10.0,30.159449,,,TRUE,TRUE,,,,,,,,,,,,,,,,,,,,,,,,,,,SPECI,179.0
KBYY 252115Z AUTO 13009KT 10SM SCT022 OVC070 24/19 A2988 RMK AO2 T02440192,KBYY,2023-04-25T21:15:00Z,28.97,-95.87,24.4,19.2,130,9,,10.0,29.878937,,,TRUE,TRUE,,,,,,,SCT,2200,OVC,7000,,,,,VFR,,,,,,,,,,,,METAR,12.0
KBYL 252115Z AUTO 07005KT 10SM CLR 17/M02 A3011 RMK AO1,KBYL,2023-04-25T21:15:00Z,36.8,-84.2,17.0,-2.0,70,5,,10.0,30.109253,,,TRUE,TRUE,,,,,,,CLR,,,,,,,,VFR,,,,,,,,,,,,SPECI,355.0
KBXK 252115Z AUTO 24013G21KT 210V280 10SM CLR 31/04 A2975 RMK A01,KBXK,2023-04-25T21:15:00Z,33.42,-112.68,31.0,4.0,240,13,21,10.0,29.749016,,,TRUE,TRUE,,,,,,,CLR,,,,,,,,VFR,,,,,,,,,,,,METAR,303.0
KBXA 252115Z AUTO 33003KT 10SM SCT055 27/13 A2995 RMK AO2 T02670128,KBXA,2023-04-25T21:15:00Z,30.82,-89.87,26.7,12.8,330,3,,10.0,29.949802,,,TRUE,TRUE,,,,,,,SCT,5500,,,,,,,VFR,,,,,,,,,,,,SPECI,35.0
KBWW 252115Z AUTO 15018G23KT 10SM FEW032 FEW049 OVC070 08/01 A3008 RMK AO2,KBWW,2023-04-25T21:15:00Z,46.17,-103.3,8.0,1.0,150,18,23,10.0,30.079725,,,TRUE,TRUE,,,,,,,FEW,3200,FEW,4900,OVC,7000,,,VFR,,,,,,,,,,,,METAR,911.0
KBWP 252115Z AUTO 10007KT 10SM BKN060 10/M04 A3024 RMK AO2,KBWP,2023-04-25T21:15:00Z,46.25,-96.62,10.0,-4.0,100,7,,10.0,30.239174,,,TRUE,TRUE,,,,,,,BKN,6000,,,,,,,VFR,,,,,,,,,,,,SPECI,294.0
KBVU 252115Z AUTO 03012G20KT 10SM CLR 26/M13 A2990 RMK AO2,KBVU,2023-04-25T21:15:00Z,35.95,-114.87,26.0,-13.0,30,12,20,10.0,29.899607,,,TRUE,TRUE,,,,,,,CLR,,,,,,,,VFR,,,,,,,,,,,,METAR,654.0
KBVS 252115Z AUTO VRB04KT 10SM BKN030 BKN036 13/08 A3027 RMK A01,KBVS,2023-04-25T21:15:00Z,48.47,-122.42,13.0,8.0,0,4,,10.0,30.268702,,,TRUE,TRUE,,,,,,,BKN,3000,BKN,3600,,,,,MVFR,,,,,,,,,,,,METAR,31.0
KBVN 252115Z AUTO 11009KT OVC060 17/02 A3005 RMK AO2 T01650019,KBVN,2023-04-25T21:15:00Z,41.73,-98.05,16.5,1.9,110,9,,,30.050198,,,TRUE,TRUE,,,,,,,OVC,6000,,,,,,,,,,,,,,,,,,,METAR,547.0
KBVI 252115Z AUTO 22008KT 10SM OVC070 13/M05 A3014 RMK AO2 T01261055,KBVI,2023-04-25T21:15:00Z,40.77,-80.37,12.6,-5.5,220,8,,10.0,30.138779,,,TRUE,TRUE,,,,,,,OVC,7000,,,,,,,VFR,,,,,,,,,,,,METAR,387.0
KBUU 252115Z AUTO 07006KT 10SM BKN041 OVC050 07/M02 A3021 RMK AO2 T00671017 PWINO,KBUU,2023-04-25T21:15:00Z,42.68,-88.3,6.7,-1.7,70,6,,10.0,30.209646,,,TRUE,TRUE,,,,,TRUE,,BKN,4100,OVC,5000,,,,,VFR,,,,,,,,,,,,METAR,238.0
KBTN 252115Z AUTO VRB06G15KT 8SM CLR 09/M05 A3021 RMK AO2,KBTN,2023-04-25T21:15:00Z,45.82,-97.75,9.0,-5.0,0,6,15,8.0,30.209646,,,TRUE,TRUE,,,,,,,CLR,,,,,,,,VFR,,,,,,,,,,,,SPECI,400.0
KBTA 252115Z AUTO 09008KT 7SM CLR 17/02 A3008 RMK AO2 T01710024,KBTA,2023-04-25T21:15:00Z,41.42,-96.12,17.1,2.4,90,8,,7.0,30.079725,,,TRUE,TRUE,,,,,,,CLR,,,,,,,,VFR,,,,,,,,,,,,METAR,400.0
KBRY 252115Z AUTO 05004KT 10SM CLR 18/M01 A3008 RMK AO2 T01841011,KBRY,2023-04-25T21:15:00Z,37.82,-85.5,18.4,-1.1,50,4,,10.0,30.079725,,,TRUE,TRUE,,,,,,,CLR,,,,,,,,VFR,,,,,,,,,,,,METAR,192.0
KBRG 252115Z AUTO 26015G27KT 10SM SCT120 24/M07 A2978 RMK AO2 T02381070,KBRG,2023-04-25T21:15:00Z,34.65,-106.83,23.8,-7.0,260,15,27,10.0,29.778543,,,TRUE,TRUE,,,,,,,SCT,12000,,,,,,,VFR,,,,,,,,,,,,METAR,1585.0
KBQP 252115Z AUTO 08004KT 10SM SCT070 21/06 A3001 RMK AO2 T02100059,KBQP,2023-04-25T21:15:00Z,32.75,-91.88,21.0,5.9,80,4,,10.0,30.008858,,,TRUE,TRUE,,,,,,,SCT,7000,,,,,,,VFR,,,,,,,,,,,,METAR,50.0
KBQK 252115Z AUTO 08013KT 10SM BKN090 BKN120 22/16 A3000 RMK AO2 T02220158,KBQK,2023-04-25T21:15:00Z,31.25,-81.47,22.2,15.8,80,13,,10.0,30.0,,,TRUE,TRUE,,,,,,,BKN,9000,BKN,12000,,,,,VFR,,,,,,,,,,,,METAR,7.0
KBPG 252115Z AUTO 21013G16KT 10SM CLR 28/05 A2976 RMK AO2 T02810045,KBPG,2023-04-25T21:15:00Z,32.22,-101.52,28.1,4.5,210,13,16,10.0,29.760826,,,TRUE,TRUE,,,,,,,CLR,,,,,,,,VFR,,,,,,,,,,,,METAR,782.0
KBPC 252115Z AUTO 17012G18KT 10SM SCT046 21/08 A2980 RMK AO2,KBPC,2023-04-25T21:15:00Z,35.88,-101.03,21.0,8.0,170,12,18,10.0,29.799213,,,TRUE,TRUE,,,,,,,SCT,4600,,,,,,,VFR,,,,,,,,,,,,SPECI,844.0
KBNL 252115Z AUTO 12006KT 10SM BKN065 OVC080 21/08 A3005 RMK AO2,KBNL,2023-04-25T21:15:00Z,33.25,-81.38,21.0,8.0,120,6,,10.0,30.050198,,,TRUE,TRUE,,,,,,,BKN,6500,OVC,8000,,,,,VFR,,,,,,,,,,,,SPECI,76.0
KBMT 252115Z AUTO 07005KT 10SM BKN027 24/16 A2991 RMK AO2 T02370163,KBMT,2023-04-25T21:15:00Z,30.07,-94.22,23.7,16.3,70,5,,10.0,29.911417,,,TRUE,TRUE,,,,,,,BKN,2700,,,,,,,MVFR,,,,,,,,,,,,METAR,8.0
KBKT 252115Z AUTO 09003KT 10SM BKN055 16/04 A3016 RMK AO1 T01580043,KBKT,2023-04-25T21:15:00Z,37.07,-77.95,15.8,4.3,90,3,,10.0,30.159449,,,TRUE,TRUE,,,,,,,BKN,5500,,,,,,,VFR,,,,,,,,,,,,METAR,134.0
KBKS 252115Z AUTO 12010KT 1/2SM HZ FEW020 SCT036 BKN045 26/22 A2979 RMK AO2 SLP050 T02580224 $,KBKS,2023-04-25T21:15:00Z,27.2,-98.12,25.8,22.4,120,10,,0.5,29.790354,1005.0,,TRUE,TRUE,TRUE,,,,,HZ,FEW,2000,SCT,3600,BKN,4500,,,LIFR,,,,,,,,,,,,SPECI,34.0
KBKN 252115Z AUTO 08006KT RA BKN017 BKN023 09/09 A3004 RMK AO2,KBKN,2023-04-25T21:15:00Z,36.75,-97.35,9.0,9.0,80,6,,,30.041338,,,TRUE,TRUE,,,,,,RA,BKN,1700,BKN,2300,,,,,,,,,,,,,,,,,SPECI,208.0
KBKD 252115Z AUTO 14009G14KT 10SM BKN031 BKN043 OVC050 23/15 A2983 RMK AO2 T02250152,KBKD,2023-04-25T21:15:00Z,32.72,-98.88,22.5,15.2,140,9,14,10.0,29.828741,,,TRUE,TRUE,,,,,,,BKN,3100,BKN,4300,OVC,5000,,,VFR,,,,,,,,,,,,SPECI,383.0
KBJI 252115Z AUTO 10007KT 10SM OVC060 08/M08 A3025 RMK AO2 T00791077,KBJI,2023-04-25T21:15:00Z,47.5,-94.92,7.9,-7.7,100,7,,10.0,30.250984,,,TRUE,TRUE,,,,,,,OVC,6000,,,,,,,VFR,,,,,,,,,,,,METAR,422.0
KBIJ 252115Z AUTO 08004KT 10SM BKN055 26/12 A2996 RMK AO2,KBIJ,2023-04-25T21:15:00Z,31.4,-84.9,26.0,12.0,80,4,,10.0,29.958662,,,TRUE,TRUE,,,,,,,BKN,5500,,,,,,,VFR,,,,,,,,,,,,SPECI,63.0
KBIE 252115Z AUTO 12004KT 10SM OVC060 16/05 A3005 RMK AO2 T01640049,KBIE,2023-04-25T21:15:00Z,40.28,-96.75,16.4,4.9,120,4,,10.0,30.050198,,,TRUE,TRUE,,,,,,,OVC,6000,,,,,,,VFR,,,,,,,,,,,,METAR,398.0
KBHC 252115Z AUTO 08012KT 7SM RA BKN043 OVC048 18/16 A3000 RMK AO2 LTG DSNT SE,KBHC,2023-04-25T21:15:00Z,31.72,-82.4,18.0,16.0,80,12,,7.0,30.0,,,TRUE,TRUE,,,,,,RA,BKN,4300,OVC,4800,,,,,VFR,,,,,,,,,,,,METAR,61.0
KBGF 252115Z AUTO 25004KT 10SM CLR 19/01 A3004 RMK A01,KBGF,2023-04-25T21:15:00Z,35.18,-86.07,19.0,1.0,250,4,,10.0,30.041338,,,TRUE,TRUE,,,,,,,CLR,,,,,,,,VFR,,,,,,,,,,,,SPECI,295.0
KBGE 252115Z AUTO 04007KT 360V070 10SM SCT050 BKN070 27/15 A2995 RMK AO2 LTG DSNT SW T02670146,KBGE,2023-04-25T21:15:00Z,30.97,-84.63,26.7,14.6,40,7,,10.0,29.949802,,,TRUE,TRUE,,,,,,,SCT,5000,BKN,7000,,,,,VFR,,,,,,,,,,,,METAR,40.0
KBFR 252115Z AUTO 25007KT 10SM SCT100 17/M02 A3009 RMK AO2,KBFR,2023-04-25T21:15:00Z,38.83,-86.45,17.0,-2.0,250,7,,10.0,30.088583,,,TRUE,TRUE,,,,,,,SCT,10000,,,,,,,VFR,,,,,,,,,,,,METAR,223.0
KBEC 252115Z AUTO 15010KT 10SM SCT037 OVC044 11/07 A3003 RMK AO2 T01130066,KBEC,2023-04-25T21:15:00Z,37.7,-97.22,11.3,6.6,150,10,,10.0,30.029528,,,TRUE,TRUE,,,,,,,SCT,3700,OVC,4400,,,,,VFR,,,,,,,,,,,,METAR,421.0
KBEA 252115Z AUTO 11008KT 10SM SCT022 SCT029 OVC055 25/21 A2983 RMK AO2 T02450205,KBEA,2023-04-25T21:15:00Z,28.37,-97.78,24.5,20.5,110,8,,10.0,29.828741,,,TRUE,TRUE,,,,,,,SCT,2200,SCT,2900,OVC,5500,,,VFR,,,,,,,,,,,,SPECI,83.0
KBDU 252115Z AUTO 36012G24KT 10SM SCT043 OVC060 09/01 A2987 RMK AO2 LTG DSNT E AND W,KBDU,2023-04-25T21:15:00Z,40.03,-105.23,9.0,1.0,360,12,24,10.0,29.870079,,,TRUE,TRUE,,,,,,,SCT,4300,OVC,6000,,,,,VFR,,,,,,,,,,,,METAR,1614.0
KBDN 252115Z AUTO 32008KT 10SM CLR 19/M07 A3012 RMK AO2,KBDN,2023-04-25T21:15:00Z,44.1,-121.2,19.0,-7.0,320,8,,10.0,30.121063,,,TRUE,TRUE,,,,,,,CLR,,,,,,,,VFR,,,,,,,,,,,,METAR,1044.0
KBDH 252115Z AUTO 07011KT 10SM CLR 10/M06 A3027 RMK AO2,KBDH,2023-04-25T21:15:00Z,45.12,-95.13,10.0,-6.0,70,11,,10.0,30.268702,,,TRUE,TRUE,,,,,,,CLR,,,,,,,,VFR,,,,,,,,,,,,METAR,341.0
KBDG 252115Z AUTO 29016G26KT 10SM 11/M10 A2995 RMK AO1 T01101101,KBDG,2023-04-25T21:15:00Z,37.58,-109.47,11.0,-10.1,290,16,26,10.0,29.949802,,,TRUE,TRUE,,,,,,,,,,,,,,,,,,,,,,,,,,,METAR,1778.0
KBCK 252115Z AUTO 35004KT 10SM OVC065 09/M05 A3021 RMK AO2 T00871052,KBCK,2023-04-25T21:15:00Z,44.25,-90.85,8.7,-5.2,350,4,,10.0,30.209646,,,TRUE,TRUE,,,,,,,OVC,6500,,,,,,,VFR,,,,,,,,,,,,METAR,256.0
KBCB 252115Z AUTO 00000KT 10SM OVC110 14/M04 A3016 RMK AO2 T01401042,KBCB,2023-04-25T21:15:00Z,37.22,-80.42,14.0,-4.2,0,0,,10.0,30.159449,,,TRUE,TRUE,,,,,,,OVC,11000,,,,,,,VFR,,,,,,,,,,,,SPECI,642.0
KBBP 252115Z AUTO 08006KT 10SM OVC075 19/07 A3011 RMK AO2,KBBP,2023-04-25T21:15:00Z,34.62,-79.73,19.0,7.0,80,6,,10.0,30.109253,,,TRUE,TRUE,,,,,,,OVC,7500,,,,,,,VFR,,,,,,,,,,,,SPECI,44.0
KBBD 252115Z AUTO 16015G21KT 10SM FEW030 BKN036 BKN043 24/14 A2983 RMK AO2,KBBD,2023-04-25T21:15:00Z,31.18,-99.32,24.0,14.0,160,15,21,10.0,29.828741,,,TRUE,TRUE,,,,,,,FEW,3000,BKN,3600,BKN,4300,,,VFR,,,,,,,,,,,,METAR,554.0
KBAX 252115Z AUTO 31004KT 10SM SCT060 OVC070 09/M02 A3013 RMK AO2 T00891016,KBAX,2023-04-25T21:15:00Z,43.78,-82.98,8.9,-1.6,310,4,,10.0,30.129921,,,TRUE,TRUE,,,,,,,SCT,6000,OVC,7000,,,,,VFR,,,,,,,,,,,,METAR,229.0
KBAM 252115Z AUTO 33009KT 10SM CLR 14/M05 A3016 RMK AO1,KBAM,2023-04-25T21:15:00Z,40.6,-116.87,14.0,-5.0,330,9,,10.0,30.159449,,,TRUE,TRUE,,,,,,,CLR,,,,,,,,VFR,,,,,,,,,,,,SPECI,1381.0
KBAC 252115Z AUTO 10008KT 10SM CLR 08/M04 A3024 RMK AO2,KBAC,2023-04-25T21:15:00Z,46.93,-98.02,8.0,-4.0,100,8,,10.0,30.239174,,,TRUE,TRUE,,,,,,,CLR,,,,,,,,VFR,,,,,,,,,,,,METAR,423.0
KAZE 252115Z AUTO 08011G18KT 10SM SCT050 SCT080 BKN120 22/17 A2999 RMK AO2 T02170167,KAZE,2023-04-25T21:15:00Z,31.88,-82.65,21.7,16.7,80,11,18,10.0,29.991142,,,TRUE,TRUE,,,,,,,SCT,5000,SCT,8000,BKN,12000,,,VFR,,,,,,,,,,,,METAR,78.0
KAZC 252115Z AUTO 33014G31KT 10SM CLR 18/M06 A3000 RMK AO2,KAZC,2023-04-25T21:15:00Z,36.97,-113.02,18.0,-6.0,330,14,31,10.0,30.0,,,TRUE,TRUE,,,,,,,CLR,,,,,,,,VFR,,,,,,,,,,,,METAR,1476.0
KAYS 252115Z AUTO 11011G16KT 070V130 10SM SCT030 SCT043 BKN060 25/17 A2997 RMK AO2 T02510173,KAYS,2023-04-25T21:15:00Z,31.25,-82.4,25.1,17.3,110,11,16,10.0,29.970472,,,TRUE,TRUE,,,,,,,SCT,3000,SCT,4300,BKN,6000,,,VFR,,,,,,,,,,,,METAR,42.0
KAXX 252115Z AUTO 24008G21KT 220V280 10SM SCT050 SCT065 11/M04 A2988 RMK AO2 T01121036,KAXX,2023-04-25T21:15:00Z,36.42,-105.28,11.2,-3.6,240,8,21,10.0,29.878937,,,TRUE,TRUE,,,,,,,SCT,5000,SCT,6500,,,,,VFR,,,,,,,,,,,,METAR,2543.0
KAXV 252115Z AUTO 24011KT 10SM BKN060 OVC080 12/M01 A3010 RMK AO2,KAXV,2023-04-25T21:15:00Z,40.5,-84.3,12.0,-1.0,240,11,,10.0,30.100393,,,TRUE,TRUE,,,,,,,BKN,6000,OVC,8000,,,,,VFR,,,,,,,,,,,,METAR,278.0
KAXH 252115Z AUTO 13009KT 10SM 25/18 A2989 RMK AO2 T02470184 PWINO,KAXH,2023-04-25T21:15:00Z,29.52,-95.48,24.7,18.4,130,9,,10.0,29.890747,,,TRUE,TRUE,,,,,TRUE,,,,,,,,,,,,,,,,,,,,,,SPECI,18.0
KAXA 252115Z AUTO VRB05G16KT 10SM CLR 12/M06 A3016 RMK A01,KAXA,2023-04-25T21:15:00Z,43.07,-94.27,12.0,-6.0,0,5,16,10.0,30.159449,,,TRUE,TRUE,,,,,,,CLR,,,,,,,,VFR,,,,,,,,,,,,METAR,371.0
KAWG 252115Z AUTO 07008KT 10SM FEW055 14/02 A3011 RMK AO2,KAWG,2023-04-25T21:15:00Z,41.27,-91.67,14.0,2.0,70,8,,10.0,30.109253,,,TRUE,TRUE,,,,,,,FEW,5500,,,,,,,VFR,,,,,,,,,,,,METAR,229.0
KAVQ 252115Z AUTO 26014G18KT 10SM 32/M06 A2977 RMK AO2 T03201059,KAVQ,2023-04-25T21:15:00Z,32.4,-111.22,32.0,-5.9,260,14,18,10.0,29.769686,,,TRUE,TRUE,,,,,,,,,,,,,,,,,,,,,,,,,,,METAR,618.0
KAVC 252115Z AUTO 02003KT 10SM CLR 17/06 A3021 RMK AO2 T01680060,KAVC,2023-04-25T21:15:00Z,36.68,-78.05,16.8,6.0,20,3,,10.0,30.209646,,,TRUE,TRUE,,,,,,,CLR,,,,,,,,VFR,,,,,,,,,,,,METAR,119.0
KAUN 252115Z AUTO 29006G12KT 10SM CLR 24/05 A2993 RMK A01,KAUN,2023-04-25T21:15:00Z,38.95,-121.08,24.0,5.0,290,6,12,10.0,29.929134,,,TRUE,TRUE,,,,,,,CLR,,,,,,,,VFR,,,,,,,,,,,,METAR,453.0
KAUH 252115Z AUTO 12007KT 10SM OVC060 16/04 A3005 RMK AO2 T01580036,KAUH,2023-04-25T21:15:00Z,40.88,-98.0,15.8,3.6,120,7,,10.0,30.050198,,,TRUE,TRUE,,,,,,,OVC,6000,,,,,,,VFR,,,,,,,,,,,,SPECI,549.0
KATS 252115Z AUTO VRB14G20KT 10SM CLR 28/M01 A2974 RMK AO2,KATS,2023-04-25T21:15:00Z,32.85,-104.47,28.0,-1.0,0,14,20,10.0,29.740158,,,TRUE,TRUE,,,,,,,CLR,,,,,,,,VFR,,,,,,,,,,,,SPECI,1073.0
KATA 252115Z AUTO 06006KT 10SM FEW070 SCT095 BKN110 18/10 A2996 RMK AO2 SLP046 T01810104 $,KATA,2023-04-25T21:15:00Z,33.1,-94.2,18.1,10.4,60,6,,10.0,29.958662,1004.6,,TRUE,TRUE,TRUE,,,,,,FEW,7000,SCT,9500,BKN,11000,,,VFR,,,,,,,,,,,,SPECI,85.0
KASW 252115Z AUTO 36006KT 10SM BKN022 BKN035 OVC050 08/03 A3013 RMK AO2 T00860034,KASW,2023-04-25T21:15:00Z,41.27,-85.83,8.6,3.4,360,6,,10.0,30.129921,,,TRUE,TRUE,,,,,,,BKN,2200,BKN,3500,OVC,5000,,,MVFR,,,,,,,,,,,,METAR,253.0
KASN 252115Z AUTO 29005KT 10SM CLR 23/05 A3004 RMK AO2 T02250045,KASN,2023-04-25T21:15:00Z,33.57,-86.05,22.5,4.5,290,5,,10.0,30.041338,,,TRUE,TRUE,,,,,,,CLR,,,,,,,,VFR,,,,,,,,,,,,METAR,159.0
KASL 252115Z AUTO 13003KT 10SM FEW060 21/11 A2993 RMK AO2 T02140114 $,KASL,2023-04-25T21:15:00Z,32.52,-94.3,21.4,11.4,130,3,,10.0,29.929134,,,TRUE,TRUE,TRUE,,,,,,FEW,6000,,,,,,,VFR,,,,,,,,,,,,SPECI,104.0
KARW 252115Z AUTO 09011G16KT 10SM -RA SCT034 BKN045 OVC090 19/13 A3005 RMK AO2,KARW,2023-04-25T21:15:00Z,32.42,-80.63,19.0,13.0,90,11,16,10.0,30.050198,,,TRUE,TRUE,,,,,,-RA,SCT,3400,BKN,4500,OVC,9000,,,VFR,,,,,,,,,,,,METAR,2.0
KARV 252115Z AUTO 01009KT 10SM SCT037 OVC043 03/M05 A3023 RMK AO2 T00331052,KARV,2023-04-25T21:15:00Z,45.92,-89.72,3.3,-5.2,10,9,,10.0,30.230314,,,TRUE,TRUE,,,,,,,SCT,3700,OVC,4300,,,,,VFR,,,,,,,,,,,,METAR,494.0
KARM 252115Z AUTO 14011KT 10SM SCT029 BKN050 OVC065 26/22 A2987 RMK AO2 T02610217 TSNO,KARM,2023-04-25T21:15:00Z,29.25,-96.15,26.1,21.7,140,11,,10.0,29.870079,,,TRUE,TRUE,,,TRUE,,,,SCT,2900,BKN,5000,OVC,6500,,,VFR,,,,,,,,,,,,SPECI,29.0
KAQX 252115Z AUTO 00000KT 3/4SM RA BKN003 BKN023 OVC041 17/15 A3005 RMK AO2,KAQX,2023-04-25T21:15:00Z,32.98,-81.27,17.0,15.0,0,0,,0.75,30.050198,,,TRUE,TRUE,,,,,,RA,BKN,300,BKN,2300,OVC,4100,,,LIFR,,,,,,,,,,,,METAR,48.0
KAQO 252115Z AUTO 13009KT 10SM FEW017 SCT024 OVC055 22/16 A2986 RMK AO2,KAQO,2023-04-25T21:15:00Z,30.78,-98.67,22.0,16.0,130,9,,10.0,29.861221,,,TRUE,TRUE,,,,,,,FEW,1700,SCT,2400,OVC,5500,,,VFR,,,,,,,,,,,,METAR,334.0
KAPY 252115Z AUTO 16009KT 10SM SCT040 SCT046 29/18 A2979 RMK AO2 T02880178 TSNO,KAPY,2023-04-25T21:15:00Z,26.97,-99.25,28.8,17.8,160,9,,10.0,29.790354,,,TRUE,TRUE,,,TRUE,,,,SCT,4000,SCT,4600,,,,,VFR,,,,,,,,,,,,SPECI,129.0
KANW 252115Z AUTO 10013G19KT 10SM OVC050 15/02 A3004 RMK AO2 T01500020,KANW,2023-04-25T21:15:00Z,42.57,-100.0,15.0,2.0,100,13,19,10.0,30.041338,,,TRUE,TRUE,,,,,,,OVC,5000,,,,,,,VFR,,,,,,,,,,,,METAR,788.0
KANQ 252115Z AUTO 01005KT 10SM BKN015 OVC020 06/04 A3014 RMK AO2,KANQ,2023-04-25T21:15:00Z,41.63,-85.08,6.0,4.0,10,5,,10.0,30.138779,,,TRUE,TRUE,,,,,,,BKN,1500,OVC,2000,,,,,MVFR,,,,,,,,,,,,SPECI,299.0
KAMN 252115Z AUTO 00000KT 10SM SCT070 OVC080 11/M06 A3014 RMK AO2 T01101064,KAMN,2023-04-25T21:15:00Z,43.32,-84.68,11.0,-6.4,0,0,,10.0,30.138779,,,TRUE,TRUE,,,,,,,SCT,7000,OVC,8000,,,,,VFR,,,,,,,,,,,,METAR,228.0
KALM 252115Z AUTO 22015KT 10SM FEW120 26/M05 A2979 RMK AO2,KALM,2023-04-25T21:15:00Z,32.83,-105.98,26.0,-5.0,220,15,,10.0,29.790354,,,TRUE,TRUE,,,,,,,FEW,12000,,,,,,,VFR,,,,,,,,,,,,SPECI,1267.0
KAJZ 252115Z AUTO 11008KT 10SM SCT023 SCT055 SCT070 09/03 A2992 RMK AO2 T00900026,KAJZ,2023-04-25T21:15:00Z,38.78,-108.07,9.0,2.6,110,8,,10.0,29.920275,,,TRUE,TRUE,,,,,,,SCT,2300,SCT,5500,SCT,7000,,,VFR,,,,,,,,,,,,METAR,1583.0
KAJR 252115Z AUTO 12003KT 7SM BKN065 BKN080 OVC110 18/06 A3008 RMK AO2 T01790061,KAJR,2023-04-25T21:15:00Z,34.5,-83.55,17.9,6.1,120,3,,7.0,30.079725,,,TRUE,TRUE,,,,,,,BKN,6500,BKN,8000,OVC,11000,,,VFR,,,,,,,,,,,,METAR,441.0
KAJG 252115Z AUTO 22010KT 10SM CLR 20/00 A3009 RMK AO2 T02020000,KAJG,2023-04-25T21:15:00Z,38.62,-87.73,20.2,0.0,220,10,,10.0,30.088583,,,TRUE,TRUE,,,,,,,CLR,,,,,,,,VFR,,,,,,,,,,,,SPECI,130.0
KAIT 252115Z AUTO 05009KT 10SM BKN060 07/M07 A3026 RMK AO2,KAIT,2023-04-25T21:15:00Z,46.53,-93.67,7.0,-7.0,50,9,,10.0,30.259842,,,TRUE,TRUE,,,,,,,BKN,6000,,,,,,,VFR,,,,,,,,,,,,METAR,367.0
KAIO 252115Z AUTO VRB05G13KT 10SM CLR 15/04 A3009 RMK AO2,KAIO,2023-04-25T21:15:00Z,41.4,-95.03,15.0,4.0,0,5,13,10.0,30.088583,,,TRUE,TRUE,,,,,,,CLR,,,,,,,,VFR,,,,,,,,,,,,METAR,349.0
KAIK 252115Z AUTO 09006KT 10SM BKN070 OVC080 22/08 A3005 RMK AO2 T02180077,KAIK,2023-04-25T21:15:00Z,33.65,-81.68,21.8,7.7,90,6,,10.0,30.050198,,,TRUE,TRUE,,,,,,,BKN,7000,OVC,8000,,,,,VFR,,,,,,,,,,,,METAR,155.0
KAIG 252115Z AUTO 35008KT 10SM BKN060 06/M05 A3020 RMK AO2 T00601047,KAIG,2023-04-25T21:15:00Z,45.15,-89.12,6.0,-4.7,350,8,,10.0,30.200787,,,TRUE,TRUE,,,,,,,BKN,6000,,,,,,,VFR,,,,,,,,,,,,SPECI,462.0
KAHQ 252115Z AUTO 11006KT 10SM BKN050 17/03 A3007 RMK AO2 T01720032,KAHQ,2023-04-25T21:15:00Z,41.23,-96.6,17.2,3.2,110,6,,10.0,30.070866,,,TRUE,TRUE,,,,,,,BKN,5000,,,,,,,VFR,,,,,,,,,,,,METAR,372.0
KAGO 252115Z AUTO 05004KT 10SM OVC065 18/09 A2999 RMK A01,KAGO,2023-04-25T21:15:00Z,33.23,-93.22,18.0,9.0,50,4,,10.0,29.991142,,,TRUE,TRUE,,,,,,,OVC,6500,,,,,,,VFR,,,,,,,,,,,,METAR,91.0
KAGI 252115Z AUTO 07013KT 10SM SCT016 27/19 A2988 RMK AO2 T02740188,KAGI,2023-04-25T21:15:00Z,27.55,-92.45,27.4,18.8,70,13,,10.0,29.878937,,,TRUE,TRUE,,,,,,,SCT,1600,,,,,,,VFR,,,,,,,,,,,,SPECI,41.0
KAFK 252115Z AUTO 19003KT 10SM BKN055 17/04 A3007 RMK AO2 T01650042,KAFK,2023-04-25T21:15:00Z,40.6,-95.85,16.5,4.2,190,3,,10.0,30.070866,,,TRUE,TRUE,,,,,,,BKN,5500,,,,,,,VFR,,,,,,,,,,,,METAR,353.0
KAEL 252115Z AUTO 03006KT 10SM CLR 10/M07 A3019 RMK AO2,KAEL,2023-04-25T21:15:00Z,43.68,-93.37,10.0,-7.0,30,6,,10.0,30.188976,,,TRUE,TRUE,,,,,,,CLR,,,,,,,,VFR,,,,,,,,,,,,SPECI,382.0
KAEJ 252115Z AUTO 00000KT 3SM -SN OVC003 01/00 A2989 RMK AO2 T00070000,KAEJ,2023-04-25T21:15:00Z,38.82,-106.12,0.7,0.0,0,0,,3.0,29.890747,,,TRUE,TRUE,,,,,,-SN,OVC,300,,,,,,,LIFR,,,,,,,,,,,,SPECI,2420.0
KADU 252115Z AUTO 07009G16KT 040V120 10SM SCT004 BKN022 OVC090 16/M02 A3010 RMK AO2 PWINO,KADU,2023-04-25T21:15:00Z,41.7,-94.92,16.0,-2.0,70,9,16,10.0,30.100393,,,TRUE,TRUE,,,,,TRUE,,SCT,400,BKN,2200,OVC,9000,,,MVFR,,,,,,,,,,,,METAR,391.0
KADH 252115Z AUTO 11010G15KT 11/10 A2999 RMK AO2 PWINO,KADH,2023-04-25T21:15:00Z,34.8,-96.67,11.0,10.0,110,10,15,,29.991142,,,TRUE,TRUE,,,,,TRUE,,,,,,,,,,,,,,,,,,,,,,SPECI,301.0
KADC 252115Z AUTO 00000KT 10SM SCT060 09/M08 A3024 RMK AO2 TSNO,KADC,2023-04-25T21:15:00Z,46.45,-95.22,9.0,-8.0,0,0,,10.0,30.239174,,,TRUE,TRUE,,,TRUE,,,,SCT,6000,,,,,,,VFR,,,,,,,,,,,,METAR,416.0
KACQ 252115Z AUTO 02011G15KT 10SM CLR 09/M05 A3022 RMK AO2,KACQ,2023-04-25T21:15:00Z,44.07,-93.55,9.0,-5.0,20,11,15,10.0,30.221457,,,TRUE,TRUE,,,,,,,CLR,,,,,,,,VFR,,,,,,,,,,,,METAR,339.0
KACJ 252115Z AUTO VRB03KT 10SM SCT070 24/10 A2999 RMK AO2 T02380103,KACJ,2023-04-25T21:15:00Z,32.12,-84.18,23.8,10.3,0,3,,10.0,29.991142,,,TRUE,TRUE,,,,,,,SCT,7000,,,,,,,VFR,,,,,,,,,,,,METAR,140.0
KACB 252115Z AUTO 25005KT 10SM OVC032 06/M01 A3019 RMK AO2 T00611013,KACB,2023-04-25T21:15:00Z,44.98,-85.2,6.1,-1.3,250,5,,10.0,30.188976,,,TRUE,TRUE,,,,,,,OVC,3200,,,,,,,VFR,,,,,,,,,,,,METAR,189.0
KAAS 252115Z AUTO 00000KT 10SM CLR 18/00 A3016 RMK AO1,KAAS,2023-04-25T21:15:00Z,37.35,-85.32,18.0,0.0,0,0,,10.0,30.159449,,,TRUE,TRUE,,,,,,,CLR,,,,,,,,VFR,,,,,,,,,,,,SPECI,270.0
KAAA 252115Z AUTO 00000KT 10SM OVC060 15/06 A3010 RMK AO2,KAAA,2023-04-25T21:15:00Z,40.17,-89.33,15.0,6.0,0,0,,10.0,30.100393,,,TRUE,TRUE,,,,,,,OVC,6000,,,,,,,VFR,,,,,,,,,,,,SPECI,179.0
KA39 252115Z AUTO 29012G18KT 250V320 10SM CLR 31/02 A2978 RMK AO2,KA39,2023-04-25T21:15:00Z,32.98,-111.92,31.0,2.0,290,12,18,10.0,29.778543,,,TRUE,TRUE,,,,,,,CLR,,,,,,,,VFR,,,,,,,,,,,,METAR,391.0
K9V9 252115Z AUTO 09009G14KT 10SM BKN100 13/M02 A3013 RMK AO2 T01341023,K9V9,2023-04-25T21:15:00Z,43.77,-99.32,13.4,-2.3,90,9,14,10.0,30.129921,,,TRUE,TRUE,,,,,,,BKN,10000,,,,,,,VFR,,,,,,,,,,,,METAR,511.0
K9MN 252115Z AUTO 02005KT 10SM CLR 10/M07 A3020 RMK AO1 T00961073,K9MN,2023-04-25T21:15:00Z,44.02,-92.48,9.6,-7.3,20,5,,10.0,30.200787,,,TRUE,TRUE,,,,,,,CLR,,,,,,,,VFR,,,,,,,,,,,,METAR,308.0
K9D7 252115Z AUTO 18007G16KT 10SM CLR 08/M03 A3025 RMK AO2 TSNO,K9D7,2023-04-25T21:15:00Z,48.48,-99.23,8.0,-3.0,180,7,16,10.0,30.250984,,,TRUE,TRUE,,,TRUE,,,,CLR,,,,,,,,VFR,,,,,,,,,,,,SPECI,451.0
K9A5 252115Z AUTO 06004KT 10SM OVC100 19/03 A3007 RMK AO2 T01880029,K9A5,2023-04-25T21:15:00Z,34.68,-85.28,18.8,2.9,60,4,,10.0,30.070866,,,TRUE,TRUE,,,,,,,OVC,10000,,,,,,,VFR,,,,,,,,,,,,METAR,234.0
K96D 252115Z AUTO 19005G13KT 10SM CLR 07/M06 A3028 RMK AO2,K96D,2023-04-25T21:15:00Z,48.93,-97.9,7.0,-6.0,190,5,13,10.0,30.280512,,,TRUE,TRUE,,,,,,,CLR,,,,,,,,VFR,,,,,,,,,,,,SPECI,290.0
K8W2 252115Z AUTO 00000KT 10SM CLR 15/M03 A3014 RMK AO1 T01501030,K8W2,2023-04-25T21:15:00Z,38.65,-78.7,15.0,-3.0,0,0,,10.0,30.138779,,,TRUE,TRUE,,,,,,,CLR,,,,,,,,VFR,,,,,,,,,,,,METAR,295.0
K8T6 252115Z AUTO 21003KT 3SM -RA BR FEW006 BKN043 OVC050 23/23 A2982 RMK AO2,K8T6,2023-04-25T21:15:00Z,28.37,-98.12,23.0,23.0,210,3,,3.0,29.819881,,,TRUE,TRUE,,,,,,-RA BR,FEW,600,BKN,4300,OVC,5000,,,MVFR,,,,,,,,,,,,METAR,39.0
K8B0 252115Z AUTO 15006KT 10SM FEW015 SCT024 BKN029 06/04 A3015 RMK AO2,K8B0,2023-04-25T21:15:00Z,44.98,-70.65,6.0,4.0,150,6,,10.0,30.15059,,,TRUE,TRUE,,,,,,,FEW,1500,SCT,2400,BKN,2900,,,MVFR,,,,,,,,,,,,SPECI,552.0
K8A3 252115Z AUTO 02008G13KT 10SM CLR 18/M03 A3008 RMK A01,K8A3,2023-04-25T21:15:00Z,36.42,-85.32,18.0,-3.0,20,8,13,10.0,30.079725,,,TRUE,TRUE,,,,,,,CLR,,,,,,,,VFR,,,,,,,,,,,,SPECI,413.0
K82C 252115Z AUTO 06004KT 10SM BKN055 OVC070 09/M04 A3020 RMK AO2 T00861037,K82C,2023-04-25T21:15:00Z,43.83,-90.13,8.6,-3.7,60,4,,10.0,30.200787,,,TRUE,TRUE,,,,,,,BKN,5500,OVC,7000,,,,,VFR,,,,,,,,,,,,SPECI,273.0
K81R 252115Z AUTO 15008G15KT 10SM SCT023 BKN033 OVC050 22/16 A2986 RMK AO2 T02230160,K81R,2023-04-25T21:15:00Z,31.23,-98.72,22.3,16.0,150,8,15,10.0,29.861221,,,TRUE,TRUE,,,,,,,SCT,2300,BKN,3300,OVC,5000,,,VFR,,,,,,,,,,,,METAR,381.0
K7W4 252115Z AUTO 10SM SCT065 16/01 A3017 RMK AO1 T01550009,K7W4,2023-04-25T21:15:00Z,37.97,-77.75,15.5,0.9,,,,10.0,30.171259,,,TRUE,TRUE,,,,,,,SCT,6500,,,,,,,VFR,,,,,,,,,,,,SPECI,115.0
K7L2 252115Z AUTO 16010KT 10SM CLR 11/M07 A3019 RMK AO2,K7L2,2023-04-25T21:15:00Z,46.22,-100.25,11.0,-7.0,160,10,,10.0,30.188976,,,TRUE,TRUE,,,,,,,CLR,,,,,,,,VFR,,,,,,,,,,,,SPECI,541.0
K7BM 252115Z AUTO 10003KT 1/4SM FG OVC002 00/00 A2991 RMK AO2 LTG DSNT E,K7BM,2023-04-25T21:15:00Z,38.78,-106.22,0.0,0.0,100,3,,0.25,29.911417,,,TRUE,TRUE,,,,,,FG,OVC,200,,,,,,,LIFR,,,,,,,,,,,,METAR,2996.0
K77S 252115Z AUTO 33008KT 300V360 9SM 16/09 A3016 RMK A01,K77S,2023-04-25T21:15:00Z,43.93,-123.0,16.0,9.0,330,8,,9.0,30.159449,,,TRUE,TRUE,,,,,,,,,,,,,,,,,,,,,,,,,,,SPECI,161.0
K6S2 252115Z AUTO 34011G19KT 10SM CLR 13/09 A3018 RMK AO2,K6S2,2023-04-25T21:15:00Z,43.98,-124.12,13.0,9.0,340,11,19,10.0,30.180119,,,TRUE,TRUE,,,,,,,CLR,,,,,,,,VFR,,,,,,,,,,,,METAR,16.0
K6S0 252115Z AUTO 27017KT 10SM FEW090 16/01 A3001 RMK A01,K6S0,2023-04-25T21:15:00Z,45.8,-109.97,16.0,1.0,270,17,,10.0,30.008858,,,TRUE,TRUE,,,,,,,FEW,9000,,,,,,,VFR,,,,,,,,,,,,METAR,1364.0
K6R3 252115Z AUTO 00000KT 10SM CLR 22/17 A2989 RMK AO2 T02210166 TSNO,K6R3,2023-04-25T21:15:00Z,30.35,-95.0,22.1,16.6,0,0,,10.0,29.890747,,,TRUE,TRUE,,,TRUE,,,,CLR,,,,,,,,VFR,,,,,,,,,,,,METAR,44.0
K6P9 252115Z AUTO 13008KT 10SM OVC016 19/15 A2986 RMK AO2 T01860154,K6P9,2023-04-25T21:15:00Z,32.43,-98.6,18.6,15.4,130,8,,10.0,29.861221,,,TRUE,TRUE,,,,,,,OVC,1600,,,,,,,MVFR,,,,,,,,,,,,METAR,451.0
K6L4 252115Z AUTO 17004KT 10SM CLR 16/M06 A3012 RMK AO2,K6L4,2023-04-25T21:15:00Z,37.85,-81.92,16.0,-6.0,170,4,,10.0,30.121063,,,TRUE,TRUE,,,,,,,CLR,,,,,,,,VFR,,,,,,,,,,,,SPECI,504.0
K6I2 252115Z AUTO 00000KT 10SM CLR 19/M01 A3012 RMK AO2,K6I2,2023-04-25T21:15:00Z,37.63,-85.25,19.0,-1.0,0,0,,10.0,30.121063,,,TRUE,TRUE,,,,,,,CLR,,,,,,,,VFR,,,,,,,,,,,,METAR,258.0
K6B9 252115Z AUTO 03006KT 10SM CLR 08/01 A3017 RMK AO2,K6B9,2023-04-25T21:15:00Z,42.92,-76.43,8.0,1.0,30,6,,10.0,30.171259,,,TRUE,TRUE,,,,,,,CLR,,,,,,,,VFR,,,,,,,,,,,,SPECI,306.0
K6B0 252115Z AUTO 13004KT 10SM SCT046 BKN060 OVC070 09/02 A3016 RMK AO2 T00910015,K6B0,2023-04-25T21:15:00Z,43.98,-73.1,9.1,1.5,130,4,,10.0,30.159449,,,TRUE,TRUE,,,,,,,SCT,4600,BKN,6000,OVC,7000,,,VFR,,,,,,,,,,,,METAR,149.0
K6A2 252115Z AUTO 00000KT 10SM BKN065 BKN090 22/06 A3002 RMK AO2,K6A2,2023-04-25T21:15:00Z,33.23,-84.27,22.0,6.0,0,0,,10.0,30.02067,,,TRUE,TRUE,,,,,,,BKN,6500,BKN,9000,,,,,VFR,,,,,,,,,,,,SPECI,290.0
K6A1 252115Z AUTO 00000KT 10SM BKN060 OVC100 24/09 A3002 RMK AO2 T02400091,K6A1,2023-04-25T21:15:00Z,32.57,-84.25,24.0,9.1,0,0,,10.0,30.02067,,,TRUE,TRUE,,,,,,,BKN,6000,OVC,10000,,,,,VFR,,,,,,,,,,,,METAR,198.0
K66R 252115Z AUTO 14005KT 10SM BKN028 BKN085 26/20 A2985 RMK AO2 T02580196,K66R,2023-04-25T21:15:00Z,29.65,-96.52,25.8,19.6,140,5,,10.0,29.84941,,,TRUE,TRUE,,,,,,,BKN,2800,BKN,8500,,,,,MVFR,,,,,,,,,,,,SPECI,70.0
K65S 252115Z AUTO 19010G16KT 10SM SCT065 15/00 A3009 RMK AO2,K65S,2023-04-25T21:15:00Z,48.73,-116.3,15.0,0.0,190,10,16,10.0,30.088583,,,TRUE,TRUE,,,,,,,SCT,6500,,,,,,,VFR,,,,,,,,,,,,METAR,708.0
K63S 252115Z AUTO 00000G12KT 10SM CLR 16/01 A3010 RMK A01,K63S,2023-04-25T21:15:00Z,48.53,-117.88,16.0,1.0,0,0,12,10.0,30.100393,,,TRUE,TRUE,,,,,,,CLR,,,,,,,,VFR,,,,,,,,,,,,METAR,571.0
K5T9 252115Z AUTO 14010KT 110V170 10SM CLR 28/17 A2977 RMK A01,K5T9,2023-04-25T21:15:00Z,28.85,-100.52,28.0,17.0,140,10,,10.0,29.769686,,,TRUE,TRUE,,,,,,,CLR,,,,,,,,VFR,,,,,,,,,,,,SPECI,269.0
K5SM 252115Z AUTO 29005G15KT 1 1/2SM -SN OVC002 M05/M06 A3000 RMK AO2 LTG DSNT SE,K5SM,2023-04-25T21:15:00Z,39.43,-107.38,-5.0,-6.0,290,5,15,1.5,30.0,,,TRUE,TRUE,,,,,,-SN,OVC,200,,,,,,,LIFR,,,,,,,,,,,,METAR,3229.0
K5R8 252115Z AUTO 09005KT 10SM BKN070 24/13 A2994 RMK AO2 T02350129,K5R8,2023-04-25T21:15:00Z,30.43,-93.47,23.5,12.9,90,5,,10.0,29.940945,,,TRUE,TRUE,,,,,,,BKN,7000,,,,,,,VFR,,,,,,,,,,,,METAR,26.0
K5H4 252115Z AUTO 15009KT 10SM CLR 09/M03 A3022 RMK AO2,K5H4,2023-04-25T21:15:00Z,47.78,-99.93,9.0,-3.0,150,9,,10.0,30.221457,,,TRUE,TRUE,,,,,,,CLR,,,,,,,,VFR,,,,,,,,,,,,SPECI,490.0
K5C1 252115Z AUTO 14003KT 10SM BKN023 OVC032 22/18 A2985 RMK AO1,K5C1,2023-04-25T21:15:00Z,29.72,-98.7,22.0,18.0,140,3,,10.0,29.84941,,,TRUE,TRUE,,,,,,,BKN,2300,OVC,3200,,,,,MVFR,,,,,,,,,,,,METAR,422.0
K5A6 252115Z AUTO 03008KT 10SM 19/05 A3003 RMK AO2 T01860050,K5A6,2023-04-25T21:15:00Z,33.47,-89.73,18.6,5.0,30,8,,10.0,30.029528,,,TRUE,TRUE,,,,,,,,,,,,,,,,,,,,,,,,,,,SPECI,109.0
K57C 252115Z AUTO 04004KT 10SM SCT039 BKN047 OVC050 07/M02 A3020 RMK AO2 T00681017,K57C,2023-04-25T21:15:00Z,42.8,-88.37,6.8,-1.7,40,4,,10.0,30.200787,,,TRUE,TRUE,,,,,,,SCT,3900,BKN,4700,OVC,5000,,,VFR,,,,,,,,,,,,METAR,454.0
K54J 252115Z AUTO 22004KT 10SM SCT055 SCT085 BKN100 25/15 A2995 RMK AO2 T02510147,K54J,2023-04-25T21:15:00Z,30.73,-86.15,25.1,14.7,220,4,,10.0,29.949802,,,TRUE,TRUE,,,,,,,SCT,5500,SCT,8500,BKN,10000,,,VFR,,,,,,,,,,,,METAR,87.0
K54A 252115Z AUTO 23009G16KT 10SM FEW070 29/21 A2990 RMK AO2,K54A,2023-04-25T21:15:00Z,26.85,-82.25,29.0,21.0,230,9,16,10.0,29.899607,,,TRUE,TRUE,,,,,,,FEW,7000,,,,,,,VFR,,,,,,,,,,,,SPECI,2.0
K4V1 252115Z AUTO 02013KT 10SM BKN016 BKN043 OVC090 11/07 A2984 RMK AO2 T01090066,K4V1,2023-04-25T21:15:00Z,37.7,-104.78,10.9,6.6,20,13,,10.0,29.840551,,,TRUE,TRUE,,,,,,,BKN,1600,BKN,4300,OVC,9000,,,MVFR,,,,,,,,,,,,METAR,1847.0
K4V0 252115Z AUTO 06009G15KT 030V100 10SM SCT046 BKN060 11/00 A2993 RMK AO2 T01070000,K4V0,2023-04-25T21:15:00Z,40.1,-108.77,10.7,0.0,60,9,15,10.0,29.929134,,,TRUE,TRUE,,,,,,,SCT,4600,BKN,6000,,,,,VFR,,,,,,,,,,,,METAR,1602.0
K4S2 252115Z AUTO 35005KT 10SM CLR 18/04 A3014 RMK AO2,K4S2,2023-04-25T21:15:00Z,45.68,-121.55,18.0,4.0,350,5,,10.0,30.138779,,,TRUE,TRUE,,,,,,,CLR,,,,,,,,VFR,,,,,,,,,,,,METAR,183.0
K4S1 252115Z AUTO 36013G20KT 5SM HZ CLR 14/10 A3006 RMK AO2,K4S1,2023-04-25T21:15:00Z,42.42,-124.42,14.0,10.0,360,13,20,5.0,30.059055,,,TRUE,TRUE,,,,,,HZ,CLR,,,,,,,,MVFR,,,,,,,,,,,,METAR,7.0
K4R5 252115Z AUTO 11005KT 10SM SCT024 SCT029 BKN110 05/M01 A3030 RMK AO2 T00471012,K4R5,2023-04-25T21:15:00Z,46.78,-90.77,4.7,-1.2,110,5,,10.0,30.301182,,,TRUE,TRUE,,,,,,,SCT,2400,SCT,2900,BKN,11000,,,VFR,,,,,,,,,,,,METAR,195.0
K4O4 252115Z AUTO 07010G15KT 8SM OVC055 14/09 A3000 RMK AO2,K4O4,2023-04-25T21:15:00Z,33.92,-94.87,14.0,9.0,70,10,15,8.0,30.0,,,TRUE,TRUE,,,,,,,OVC,5500,,,,,,,VFR,,,,,,,,,,,,SPECI,148.0
K4M9 252115Z AUTO 05007KT 9SM CLR 19/04 A3008 RMK AO2 PWINO,K4M9,2023-04-25T21:15:00Z,36.4,-90.65,19.0,4.0,50,7,,9.0,30.079725,,,TRUE,TRUE,,,,,TRUE,,CLR,,,,,,,,VFR,,,,,,,,,,,,METAR,86.0
K4I3 252115Z AUTO 22006KT 10SM SCT070 11/M03 A3014 RMK AO2,K4I3,2023-04-25T21:15:00Z,40.33,-82.53,11.0,-3.0,220,6,,10.0,30.138779,,,TRUE,TRUE,,,,,,,SCT,7000,,,,,,,VFR,,,,,,,,,,,,METAR,361.0
K4F2 252115Z AUTO 08004KT 10SM BKN050 OVC095 21/12 A2995 RMK AO2 T02120123,K4F2,2023-04-25T21:15:00Z,32.18,-94.3,21.2,12.3,80,4,,10.0,29.949802,,,TRUE,TRUE,,,,,,,BKN,5000,OVC,9500,,,,,VFR,,,,,,,,,,,,METAR,76.0
K4BM 252115Z AUTO 01004KT 1/4SM OVC001 M02/M03 A2997 RMK AO2 PWINO,K4BM,2023-04-25T21:15:00Z,39.05,-105.52,-2.0,-3.0,10,4,,0.25,29.970472,,,TRUE,TRUE,,,,,TRUE,,OVC,100,,,,,,,LIFR,,,,,,,,,,,,SPECI,3432.0
K4A9 252115Z AUTO 02004KT 10SM BKN090 20/01 A3004 RMK AO2 T01960014,K4A9,2023-04-25T21:15:00Z,34.47,-85.72,19.6,1.4,20,4,,10.0,30.041338,,,TRUE,TRUE,,,,,,,BKN,9000,,,,,,,VFR,,,,,,,,,,,,METAR,273.0
K4A6 252115Z AUTO 00000KT 10SM CLR 19/03 A3005 RMK AO2,K4A6,2023-04-25T21:15:00Z,34.68,-86.0,19.0,3.0,0,0,,10.0,30.050198,,,TRUE,TRUE,,,,,,,CLR,,,,,,,,VFR,,,,,,,,,,,,METAR,191.0
K49A 252115Z AUTO 33003KT 10SM OVC080 19/05 A3005 RMK AO2,K49A,2023-04-25T21:15:00Z,34.63,-84.53,19.0,5.0,330,3,,10.0,30.050198,,,TRUE,TRUE,,,,,,,OVC,8000,,,,,,,VFR,,,,,,,,,,,,METAR,449.0
K48A 252115Z AUTO 03005KT 10SM CLR 25/14 A3000 RMK AO2 T02480136,K48A,2023-04-25T21:15:00Z,32.4,-83.27,24.8,13.6,30,5,,10.0,30.0,,,TRUE,TRUE,,,,,,,CLR,,,,,,,,VFR,,,,,,,,,,,,METAR,115.0
K46U 252115Z AUTO 32011KT 10SM BKN041 08/01 A3006 RMK A01,K46U,2023-04-25T21:15:00Z,43.18,-111.05,8.0,1.0,320,11,,10.0,30.059055,,,TRUE,TRUE,,,,,,,BKN,4100,,,,,,,VFR,,,,,,,,,,,,SPECI,1718.0
K46D 252115Z AUTO 12011KT 10SM CLR 08/M02 A3024 RMK AO2,K46D,2023-04-25T21:15:00Z,47.45,-99.15,8.0,-2.0,120,11,,10.0,30.239174,,,TRUE,TRUE,,,,,,,CLR,,,,,,,,VFR,,,,,,,,,,,,SPECI,488.0
K42J 252115Z AUTO 08008KT 10SM CLR 22/20 A2994 RMK A01,K42J,2023-04-25T21:15:00Z,29.85,-82.05,22.0,20.0,80,8,,10.0,29.940945,,,TRUE,TRUE,,,,,,,CLR,,,,,,,,VFR,,,,,,,,,,,,METAR,57.0
K41U 252115Z AUTO 13004KT 10SM SCT031 BKN039 OVC045 06/M02 A3007 RMK AO1 T00571024,K41U,2023-04-25T21:15:00Z,39.33,-111.6,5.7,-2.4,130,4,,10.0,30.070866,,,TRUE,TRUE,,,,,,,SCT,3100,BKN,3900,OVC,4500,,,VFR,,,,,,,,,,,,METAR,1676.0
K40U 252115Z AUTO 33011G17KT 10SM BKN039 BKN050 08/M02 A3001 RMK AO2 T00761021,K40U,2023-04-25T21:15:00Z,40.98,-109.68,7.6,-2.1,330,11,17,10.0,30.008858,,,TRUE,TRUE,,,,,,,BKN,3900,BKN,5000,,,,,VFR,,,,,,,,,,,,METAR,1882.0
K3U3 252115Z AUTO 23005KT 10SM 09/M01 A3012 ,K3U3,2023-04-25T21:15:00Z,46.15,-112.87,9.0,-1.0,230,5,,10.0,30.121063,,,TRUE,,,,,,,,,,,,,,,,,,,,,,,,,,,,METAR,1534.0
K3T5 252115Z AUTO 14005KT 10SM FEW026 BKN041 BKN050 25/21 A2984 RMK AO2 T02490213,K3T5,2023-04-25T21:15:00Z,29.9,-96.95,24.9,21.3,140,5,,10.0,29.840551,,,TRUE,TRUE,,,,,,,FEW,2600,BKN,4100,BKN,5000,,,VFR,,,,,,,,,,,,METAR,96.0
K3S8 252115Z AUTO 00000KT 10SM CLR 21/03 A3011 RMK AO2,K3S8,2023-04-25T21:15:00Z,42.5,-123.4,21.0,3.0,0,0,,10.0,30.109253,,,TRUE,TRUE,,,,,,,CLR,,,,,,,,VFR,,,,,,,,,,,,SPECI,339.0
K3R7 252115Z AUTO 10009KT 10SM SCT040 BKN080 24/14 A2993 RMK AO2 T02400139,K3R7,2023-04-25T21:15:00Z,30.25,-92.67,24.0,13.9,100,9,,10.0,29.929134,,,TRUE,TRUE,,,,,,,SCT,4000,BKN,8000,,,,,VFR,,,,,,,,,,,,SPECI,5.0
K3N8 252115Z AUTO 00000KT 10SM OVC060 08/M05 A3025 RMK AO2 T00821049,K3N8,2023-04-25T21:15:00Z,47.25,-95.92,8.2,-4.9,0,0,,10.0,30.250984,,,TRUE,TRUE,,,,,,,OVC,6000,,,,,,,VFR,,,,,,,,,,,,METAR,379.0
K3L4 252115Z AUTO 07008KT 10SM BKN033 24/18 A2991 RMK A01,K3L4,2023-04-25T21:15:00Z,29.8,-92.8,24.0,18.0,70,8,,10.0,29.911417,,,TRUE,TRUE,,,,,,,BKN,3300,,,,,,,VFR,,,,,,,,,,,,SPECI,1.0
K3K3 252115Z AUTO 10014KT 10SM OVC008 08/07 A2990 RMK AO2,K3K3,2023-04-25T21:15:00Z,38.0,-101.75,8.0,7.0,100,14,,10.0,29.899607,,,TRUE,TRUE,,,,,,,OVC,800,,,,,,,IFR,,,,,,,,,,,,METAR,1010.0
K3F3 252115Z AUTO 13006KT 10SM OVC060 22/12 A2999 RMK AO2 T02180115,K3F3,2023-04-25T21:15:00Z,32.07,-93.77,21.8,11.5,130,6,,10.0,29.991142,,,TRUE,TRUE,,,,,,,OVC,6000,,,,,,,VFR,,,,,,,,,,,,METAR,96.0
K3D2 252115Z AUTO 36007KT 10SM OVC050 05/M04 A3021 RMK AO2 T00521037,K3D2,2023-04-25T21:15:00Z,45.13,-87.18,5.2,-3.7,360,7,,10.0,30.209646,,,TRUE,TRUE,,,,,,,OVC,5000,,,,,,,VFR,,,,,,,,,,,,SPECI,233.0
K3AU 252115Z AUTO 16009KT 10SM SCT055 BKN065 OVC110 12/05 A3003 RMK AO2,K3AU,2023-04-25T21:15:00Z,37.67,-97.08,12.0,5.0,160,9,,10.0,30.029528,,,TRUE,TRUE,,,,,,,SCT,5500,BKN,6500,OVC,11000,,,VFR,,,,,,,,,,,,SPECI,403.0
K38S 252115Z AUTO 00000KT 10SM 09/03 A3015 ,K38S,2023-04-25T21:15:00Z,46.38,-112.77,9.0,3.0,0,0,,10.0,30.15059,,,TRUE,,,,,,,,,,,,,,,,,,,,,,,,,,,,METAR,1430.0
K35A 252115Z AUTO 06004KT 10SM OVC075 18/07 A3014 RMK A02 T01790069,K35A,2023-04-25T21:15:00Z,34.68,-81.63,17.9,6.9,60,4,,10.0,30.138779,,,TRUE,TRUE,,,,,,,OVC,7500,,,,,,,VFR,,,,,,,,,,,,SPECI,186.0
K33V 252115Z AUTO 32012G19KT 10SM SCT047 07/M03 A2992 RMK AO1,K33V,2023-04-25T21:15:00Z,40.75,-106.28,7.0,-3.0,320,12,19,10.0,29.920275,,,TRUE,TRUE,,,,,,,SCT,4700,,,,,,,VFR,,,,,,,,,,,,METAR,2486.0
K33N 252115Z AUTO VRB04KT 10SM CLR 15/M02 A3018 RMK A01,K33N,2023-04-25T21:15:00Z,39.22,-75.6,15.0,-2.0,0,4,,10.0,30.180119,,,TRUE,TRUE,,,,,,,CLR,,,,,,,,VFR,,,,,,,,,,,,SPECI,17.0
K2V5 252115Z AUTO 07008KT 10SM OVC028 08/08 A2995 RMK AO2,K2V5,2023-04-25T21:15:00Z,40.1,-102.25,8.0,8.0,70,8,,10.0,29.949802,,,TRUE,TRUE,,,,,,,OVC,2800,,,,,,,MVFR,,,,,,,,,,,,METAR,1117.0
K2R9 252115Z AUTO 15012G16KT 10SM SCT027 BKN034 BKN050 25/20 A2983 RMK AO2 T02490202,K2R9,2023-04-25T21:15:00Z,28.82,-97.87,24.9,20.2,150,12,16,10.0,29.828741,,,TRUE,TRUE,,,,,,,SCT,2700,BKN,3400,BKN,5000,,,VFR,,,,,,,,,,,,METAR,88.0
K2P2 252115Z AUTO 01014G18KT 10SM CLR 05/M02 A3022 RMK AO2 T00521020,K2P2,2023-04-25T21:15:00Z,45.38,-86.92,5.2,-2.0,10,14,18,10.0,30.221457,,,TRUE,TRUE,,,,,,,CLR,,,,,,,,VFR,,,,,,,,,,,,SPECI,182.0
K2M2 252115Z AUTO VRB06G12KT 10SM CLR 19/M00 A3005 RMK A01,K2M2,2023-04-25T21:15:00Z,35.23,-87.25,19.0,0.0,0,6,12,10.0,30.050198,,,TRUE,TRUE,,,,,,,CLR,,,,,,,,VFR,,,,,,,,,,,,SPECI,286.0
K2J9 252115Z AUTO VRB04KT 10SM BKN047 OVC055 24/17 A2996 RMK AO2 LTG DSNT S AND SW,K2J9,2023-04-25T21:15:00Z,30.6,-84.55,24.0,17.0,0,4,,10.0,29.958662,,,TRUE,TRUE,,,,,,,BKN,4700,OVC,5500,,,,,VFR,,,,,,,,,,,,METAR,62.0
K2J5 252115Z AUTO 08006KT 10SM SCT032 OVC050 21/14 A3004 RMK AO2 T02060141,K2J5,2023-04-25T21:15:00Z,32.9,-81.97,20.6,14.1,80,6,,10.0,30.041338,,,TRUE,TRUE,,,,,,,SCT,3200,OVC,5000,,,,,VFR,,,,,,,,,,,,METAR,72.0
K2J3 252115Z AUTO 07006KT 10SM BKN060 BKN070 OVC080 23/13 A3003 RMK AO2 T02300127,K2J3,2023-04-25T21:15:00Z,32.98,-82.38,23.0,12.7,70,6,,10.0,30.029528,,,TRUE,TRUE,,,,,,,BKN,6000,BKN,7000,OVC,8000,,,VFR,,,,,,,,,,,,METAR,97.0
K2IS 252115Z AUTO 24009KT 10SM SCT050 SCT070 30/19 A2986 RMK AO2 LTG DSNT NW T03020186,K2IS,2023-04-25T21:15:00Z,26.73,-81.05,30.2,18.6,240,9,,10.0,29.861221,,,TRUE,TRUE,,,,,,,SCT,5000,SCT,7000,,,,,VFR,,,,,,,,,,,,METAR,5.0
K2I0 252115Z AUTO 11003KT 10SM CLR 20/M02 A3011 RMK AO2 T02031021,K2I0,2023-04-25T21:15:00Z,37.35,-87.4,20.3,-2.1,110,3,,10.0,30.109253,,,TRUE,TRUE,,,,,,,CLR,,,,,,,,VFR,,,,,,,,,,,,METAR,127.0
K2G9 252115Z AUTO 00000KT 10SM OVC110 10/M05 A3011 RMK AO2,K2G9,2023-04-25T21:15:00Z,40.03,-79.02,10.0,-5.0,0,0,,10.0,30.109253,,,TRUE,TRUE,,,,,,,OVC,11000,,,,,,,VFR,,,,,,,,,,,,SPECI,677.0
K2G4 252115Z AUTO VRB06G12KT 10SM SCT095 10/M08 A3011 RMK AO2,K2G4,2023-04-25T21:15:00Z,39.58,-79.33,10.0,-8.0,0,6,12,10.0,30.109253,,,TRUE,TRUE,,,,,,,SCT,9500,,,,,,,VFR,,,,,,,,,,,,SPECI,908.0
K2G2 252115Z AUTO VRB05KT 10SM BKN085 BKN110 12/M04 A3013 RMK A01,K2G2,2023-04-25T21:15:00Z,40.37,-80.7,12.0,-4.0,0,5,,10.0,30.129921,,,TRUE,TRUE,,,,,,,BKN,8500,BKN,11000,,,,,VFR,,,,,,,,,,,,SPECI,365.0
K2D5 252115Z AUTO 11008G14KT 10SM CLR 09/M04 A3023 RMK AO2,K2D5,2023-04-25T21:15:00Z,46.17,-98.08,9.0,-4.0,110,8,14,10.0,30.230314,,,TRUE,TRUE,,,,,,,CLR,,,,,,,,VFR,,,,,,,,,,,,SPECI,407.0
K2C8 252115Z AUTO 18004G10KT 10SM FEW048 08/M03 A3028 RMK AO2,K2C8,2023-04-25T21:15:00Z,48.78,-97.63,8.0,-3.0,180,4,10,10.0,30.280512,,,TRUE,TRUE,,,,,,,FEW,4800,,,,,,,VFR,,,,,,,,,,,,SPECI,271.0
K2A0 252115Z AUTO 09005KT 10SM CLR 19/02 A3007 RMK A01,K2A0,2023-04-25T21:15:00Z,35.48,-84.93,19.0,2.0,90,5,,10.0,30.070866,,,TRUE,TRUE,,,,,,,CLR,,,,,,,,VFR,,,,,,,,,,,,SPECI,219.0
K28J 252115Z AUTO 09010G17KT 10SM FEW045 FEW110 23/14 A2994 RMK AO2,K28J,2023-04-25T21:15:00Z,29.65,-81.68,23.0,14.0,90,10,17,10.0,29.940945,,,TRUE,TRUE,,,,,,,FEW,4500,FEW,11000,,,,,VFR,,,,,,,,,,,,SPECI,9.0
K24J 252115Z AUTO 00000KT 10SM CLR 27/15 A2993 RMK A01,K24J,2023-04-25T21:15:00Z,30.3,-83.03,27.0,15.0,0,0,,10.0,29.929134,,,TRUE,TRUE,,,,,,,CLR,,,,,,,,VFR,,,,,,,,,,,,METAR,30.0
K22N 252115Z AUTO 24004KT 10SM SCT080 13/M07 A3018 RMK AO2,K22N,2023-04-25T21:15:00Z,40.8,-75.77,13.0,-7.0,240,4,,10.0,30.180119,,,TRUE,TRUE,,,,,,,SCT,8000,,,,,,,VFR,,,,,,,,,,,,METAR,159.0
K21D 252115Z AUTO 06004G08KT 10SM BKN055 07/M05 A3025 RMK AO2,K21D,2023-04-25T21:15:00Z,45.0,-92.85,7.0,-5.0,60,4,8,10.0,30.250984,,,TRUE,TRUE,,,,,,,BKN,5500,,,,,,,VFR,,,,,,,,,,,,METAR,281.0
K20V 252115Z AUTO 32009G19KT 304V004 10SM BKN075 BKN085 BKN110 09/M02 A2986 RMK AO2,K20V,2023-04-25T21:15:00Z,40.05,-106.37,9.0,-2.0,320,9,19,10.0,29.861221,,,TRUE,TRUE,,,,,,,BKN,7500,BKN,8500,BKN,11000,,,VFR,,,,,,,,,,,,METAR,2259.0
K20U 252115Z AUTO 15020G25KT 10SM FEW070 12/00 A3007 RMK AO2,K20U,2023-04-25T21:15:00Z,46.93,-103.98,12.0,0.0,150,20,25,10.0,30.070866,,,TRUE,TRUE,,,,,,,FEW,7000,,,,,,,VFR,,,,,,,,,,,,METAR,839.0
K1V6 252115Z AUTO 08004KT 10SM OVC032 08/05 A2985 RMK AO2 LTG DSNT E,K1V6,2023-04-25T21:15:00Z,38.43,-105.1,8.0,5.0,80,4,,10.0,29.84941,,,TRUE,TRUE,,,,,,,OVC,3200,,,,,,,VFR,,,,,,,,,,,,METAR,1658.0
K1U7 252115Z AUTO 34018KT 10SM OVC031 03/M00 A3006 RMK A01,K1U7,2023-04-25T21:15:00Z,42.25,-111.33,3.0,0.0,340,18,,10.0,30.059055,,,TRUE,TRUE,,,,,,,OVC,3100,,,,,,,VFR,,,,,,,,,,,,METAR,1808.0
K1S5 252115Z AUTO 20006KT 10SM CLR 19/04 A3013 RMK AO2 T01890037,K1S5,2023-04-25T21:15:00Z,46.33,-119.97,18.9,3.7,200,6,,10.0,30.129921,,,TRUE,TRUE,,,,,,,CLR,,,,,,,,VFR,,,,,,,,,,,,SPECI,228.0
K1R8 252115Z AUTO 01005KT 10SM FEW065 FEW080 FEW090 25/13 A2994 RMK AO2,K1R8,2023-04-25T21:15:00Z,30.87,-87.82,25.0,13.0,10,5,,10.0,29.940945,,,TRUE,TRUE,,,,,,,FEW,6500,FEW,8000,FEW,9000,,,VFR,,,,,,,,,,,,METAR,76.0
K1R7 252115Z AUTO 00000KT 10SM CLR 24/11 A2999 RMK AO2 PWINO,K1R7,2023-04-25T21:15:00Z,31.6,-90.42,24.0,11.0,0,0,,10.0,29.991142,,,TRUE,TRUE,,,,,TRUE,,CLR,,,,,,,,VFR,,,,,,,,,,,,METAR,142.0
K1P1 252115Z AUTO 00000KT 2 1/2SM +RA SCT024 OVC030 07/05 A3016 RMK AO2 VIS 2V3 P0004 T00720048,K1P1,2023-04-25T21:15:00Z,43.78,-71.75,7.2,4.8,0,0,,2.5,30.159449,,,TRUE,TRUE,,,,,,+RA,SCT,2400,OVC,3000,,,,,IFR,,,,,,0.04,,,,,,SPECI,155.0
K1H2 252115Z AUTO 00000KT 10SM BKN090 18/03 A3009 RMK AO2 T01790033,K1H2,2023-04-25T21:15:00Z,39.07,-88.53,17.9,3.3,0,0,,10.0,30.088583,,,TRUE,TRUE,,,,,,,BKN,9000,,,,,,,VFR,,,,,,,,,,,,METAR,174.0
K1F0 252115Z AUTO 13011KT 10SM OVC031 17/10 A2992 RMK AO2 T01740100,K1F0,2023-04-25T21:15:00Z,34.15,-97.12,17.4,10.0,130,11,,10.0,29.920275,,,TRUE,TRUE,,,,,,,OVC,3100,,,,,,,VFR,,,,,,,,,,,,SPECI,256.0
K1D1 252115Z AUTO 10008KT 10SM CLR 10/M05 A3023 RMK AO2,K1D1,2023-04-25T21:15:00Z,45.23,-96.57,10.0,-5.0,100,8,,10.0,30.230314,,,TRUE,TRUE,,,,,,,CLR,,,,,,,,VFR,,,,,,,,,,,,SPECI,340.0
K1A9 252115Z AUTO 00000KT 10SM CLR 25/06 A2999 RMK AO2 T02480063,K1A9,2023-04-25T21:15:00Z,32.43,-86.52,24.8,6.3,0,0,,10.0,29.991142,,,TRUE,TRUE,,,,,,,CLR,,,,,,,,VFR,,,,,,,,,,,,SPECI,65.0
K1A6 252115Z AUTO 33004KT 10SM CLR 18/M01 A3012 RMK AO2 T01781014,K1A6,2023-04-25T21:15:00Z,36.62,-83.73,17.8,-1.4,330,4,,10.0,30.121063,,,TRUE,TRUE,,,,,,,CLR,,,,,,,,VFR,,,,,,,,,,,,METAR,348.0
K19S 252115Z AUTO 10017KT 5SM HZ OVC004 08/ A2991 RMK AO2 T0077////,K19S,2023-04-25T21:15:00Z,37.48,-100.83,7.7,,100,17,,5.0,29.911417,,,TRUE,TRUE,,,,,,HZ,OVC,400,,,,,,,LIFR,,,,,,,,,,,,METAR,886.0
K18H 252115Z AUTO 09013KT 6SM HZ CLR 28/22 A2984 RMK A01,K18H,2023-04-25T21:15:00Z,26.13,-92.03,28.0,22.0,90,13,,6.0,29.840551,,,TRUE,TRUE,,,,,,HZ,CLR,,,,,,,,VFR,,,,,,,,,,,,METAR,30.0
K18A 252115Z AUTO 02005KT 10SM SCT075 OVC095 17/07 A3016 RMK AO2 T01710075,K18A,2023-04-25T21:15:00Z,34.35,-83.13,17.1,7.5,20,5,,10.0,30.159449,,,TRUE,TRUE,,,,,,,SCT,7500,OVC,9500,,,,,VFR,,,,,,,,,,,,METAR,260.0
K17J 252115Z AUTO 04005KT 10SM OVC050 27/12 A2995 RMK AO2 LTG DSNT S T02720124,K17J,2023-04-25T21:15:00Z,31.0,-84.87,27.2,12.4,40,5,,10.0,29.949802,,,TRUE,TRUE,,,,,,,OVC,5000,,,,,,,VFR,,,,,,,,,,,,METAR,42.0
K15M 252115Z AUTO 00000KT 1 1/2SM HZ FEW150 19/M03 A3006 RMK AO2 T01941026 $,K15M,2023-04-25T21:15:00Z,34.77,-88.17,19.4,-2.6,0,0,,1.5,30.059055,,,TRUE,TRUE,TRUE,,,,,HZ,FEW,15000,,,,,,,IFR,,,,,,,,,,,,METAR,192.0
K14Y 252115Z AUTO 01006KT 10SM SCT060 08/M06 A3025 RMK AO2,K14Y,2023-04-25T21:15:00Z,45.9,-94.87,8.0,-6.0,10,6,,10.0,30.250984,,,TRUE,TRUE,,,,,,,SCT,6000,,,,,,,VFR,,,,,,,,,,,,METAR,404.0
K13K 252115Z AUTO 15007KT 10SM SCT080 SCT095 16/06 A3003 RMK AO2 T01590061,K13K,2023-04-25T21:15:00Z,37.85,-96.3,15.9,6.1,150,7,,10.0,30.029528,,,TRUE,TRUE,,,,,,,SCT,8000,SCT,9500,,,,,VFR,,,,,,,,,,,,METAR,367.0
K10G 252115Z AUTO 22007KT 10SM BKN070 11/M05 A3013 RMK AO2,K10G,2023-04-25T21:15:00Z,40.53,-81.95,11.0,-5.0,220,7,,10.0,30.129921,,,TRUE,TRUE,,,,,,,BKN,7000,,,,,,,VFR,,,,,,,,,,,,METAR,371.0
K0VG 252115Z AUTO VRB03KT 10SM FEW120 18/M04 A3012 RMK AO2,K0VG,2023-04-25T21:15:00Z,36.65,-83.22,18.0,-4.0,0,3,,10.0,30.121063,,,TRUE,TRUE,,,,,,,FEW,12000,,,,,,,VFR,,,,,,,,,,,,METAR,426.0
K0V4 252115Z AUTO 13003KT 10SM CLR 16/03 A3015 RMK AO1,K0V4,2023-04-25T21:15:00Z,37.15,-79.02,16.0,3.0,130,3,,10.0,30.15059,,,TRUE,TRUE,,,,,,,CLR,,,,,,,,VFR,,,,,,,,,,,,SPECI,186.0
K0S9 252115Z AUTO 11008KT 050V140 10SM BKN028 13/07 A3027 RMK AO2,K0S9,2023-04-25T21:15:00Z,48.05,-122.82,13.0,7.0,110,8,,10.0,30.268702,,,TRUE,TRUE,,,,,,,BKN,2800,,,,,,,MVFR,,,,,,,,,,,,METAR,33.0
K0R0 252115Z AUTO 04006KT 10SM CLR 26/11 A2998 RMK AO2,K0R0,2023-04-25T21:15:00Z,31.3,-89.82,26.0,11.0,40,6,,10.0,29.97933,,,TRUE,TRUE,,,,,,,CLR,,,,,,,,VFR,,,,,,,,,,,,SPECI,76.0
K0F2 252115Z AUTO 10SM OVC032 20/13 A2989 RMK AO2 T01970125,K0F2,2023-04-25T21:15:00Z,33.6,-97.78,19.7,12.5,,,,10.0,29.890747,,,TRUE,TRUE,,,,,,,OVC,3200,,,,,,,VFR,,,,,,,,,,,,METAR,330.0
K0E0 252115Z AUTO 20013G27KT 10SM SCT065 BKN075 OVC090 17/M05 A2986 RMK AO2 T01681050,K0E0,2023-04-25T21:15:00Z,34.98,-106.0,16.8,-5.0,200,13,27,10.0,29.861221,,,TRUE,TRUE,,,,,,,SCT,6500,BKN,7500,OVC,9000,,,VFR,,,,,,,,,,,,METAR,1887.0
K0CO 252115Z AUTO 25007G16KT 171V001 BKN003 OVC008 M06/M07 A2997 RMK AO2 PWINO,K0CO,2023-04-25T21:15:00Z,39.8,-105.77,-6.0,-7.0,250,7,16,,29.970472,,,TRUE,TRUE,,,,,TRUE,,BKN,300,OVC,800,,,,,,,,,,,,,,,,,METAR,3804.0
K0A9 252115Z AUTO 35003G10KT 9SM CLR 17/M03 A3010 RMK AO2,K0A9,2023-04-25T21:15:00Z,36.37,-82.17,17.0,-3.0,350,3,10,9.0,30.100393,,,TRUE,TRUE,,,,,,,CLR,,,,,,,,VFR,,,,,,,,,,,,SPECI,479.0
K0A0 252115Z AUTO 23017G26KT 10SM CLR 27/M09 A2978 RMK AO2,K0A0,2023-04-25T21:15:00Z,32.98,-106.97,27.0,-9.0,230,17,26,10.0,29.778543,,,TRUE,TRUE,,,,,,,CLR,,,,,,,,VFR,,,,,,,,,,,,SPECI,1401.0
K08D 252115Z AUTO 16012G18KT 10SM CLR 12/M07 A3012 RMK AO2,K08D,2023-04-25T21:15:00Z,48.3,-102.4,12.0,-7.0,160,12,18,10.0,30.121063,,,TRUE,TRUE,,,,,,,CLR,,,,,,,,VFR,,,,,,,,,,,,METAR,683.0
K06C 252115Z AUTO 06008KT 020V090 10SM BKN031 OVC038 07/02 A3019 RMK AO2 T00720018,K06C,2023-04-25T21:15:00Z,41.98,-88.1,7.2,1.8,60,8,,10.0,30.188976,,,TRUE,TRUE,,,,,,,BKN,3100,OVC,3800,,,,,VFR,,,,,,,,,,,,METAR,243.0
CYEG 252115Z 35019G28KT 20SM -SHRA BKN041 BKN051 10/02 A2986 RMK SC5SC2 CVCTV CLD EMBD SLP130,CYEG,2023-04-25T21:15:00Z,53.3,-113.58,10.0,2.0,350,19,28,20.0,29.861221,1013.0,,,,,,,,,-SHRA,BKN,4100,BKN,5100,,,,,VFR,,,,,,,,,,,,SPECI,710.0
CWPF 252115Z AUTO 16007KT 10/06 RMK AO1 SLP247 T00950060 58003,CWPF,2023-04-25T21:15:00Z,48.43,-123.43,9.5,6.0,160,7,,,,1024.7,,TRUE,TRUE,,,,,,,,,,,,,,,,-0.3,,,,,,,,,,,METAR,5.0
PAJZ 252114Z AUTO 12020KT 4SM -SN BR OVC007 01/M01 A2958 RMK AO2 P0000 FZRANO $,PAJZ,2023-04-25T21:14:00Z,59.73,-157.27,1.0,-1.0,120,20,,4.0,29.58071,,,TRUE,TRUE,TRUE,,,TRUE,,-SN BR,OVC,700,,,,,,,IFR,,,,,,0.005,,,,,,SPECI,80.0
KTOR 252114Z AUTO 17012KT 1 3/4SM -RA BR SCT006 BKN012 OVC019 08/07 A2997 RMK AO2 P0001 T00780067,KTOR,2023-04-25T21:14:00Z,42.07,-104.15,7.8,6.7,170,12,,1.75,29.970472,,,TRUE,TRUE,,,,,,-RA BR,SCT,600,BKN,1200,OVC,1900,,,IFR,,,,,,0.01,,,,,,METAR,1285.0
KNY0 252114Z AUTO 29009KT 10SM OVC075 08/M02 A3017 RMK AO2,KNY0,2023-04-25T21:14:00Z,42.98,-74.33,8.0,-2.0,290,9,,10.0,30.171259,,,TRUE,TRUE,,,,,,,OVC,7500,,,,,,,VFR,,,,,,,,,,,,METAR,266.0
KMLC 252114Z AUTO 10010G18KT 10SM -RA FEW009 BKN034 OVC041 11/09 A2998 RMK AO2 RAB01 P0000 T01060089,KMLC,2023-04-25T21:14:00Z,34.88,-95.78,10.6,8.9,100,10,18,10.0,29.97933,,,TRUE,TRUE,,,,,,-RA,FEW,900,BKN,3400,OVC,4100,,,VFR,,,,,,0.005,,,,,,SPECI,231.0
KLXV 252114Z AUTO 22006KT 10SM SCT023 BKN029 OVC050 01/M03 A2987 RMK AO2 T00061028,KLXV,2023-04-25T21:14:00Z,39.23,-106.32,0.6,-2.8,220,6,,10.0,29.870079,,,TRUE,TRUE,,,,,,,SCT,2300,BKN,2900,OVC,5000,,,MVFR,,,,,,,,,,,,METAR,3027.0
KARG 252114Z AUTO 10009KT 7SM CLR 19/01 A3008 RMK AO2,KARG,2023-04-25T21:14:00Z,36.12,-90.92,19.0,1.0,100,9,,7.0,30.079725,,,TRUE,TRUE,,,,,,,CLR,,,,,,,,VFR,,,,,,,,,,,,SPECI,82.0
KARB 252114Z 00000KT 9SM SCT013 OVC024 05/02 A3016 RMK AO2 T00500017,KARB,2023-04-25T21:14:00Z,42.22,-83.73,5.0,1.7,0,0,,9.0,30.159449,,,,TRUE,,,,,,,SCT,1300,OVC,2400,,,,,MVFR,,,,,,,,,,,,METAR,251.0
CYQX 252114Z 36013KT 4SM -SN BR BKN003 OVC007 00/00 A3023 RMK ST7ST1 CIG VRB 002-004 SLP246,CYQX,2023-04-25T21:14:00Z,48.95,-54.58,0.0,0.0,360,13,,4.0,30.230314,1024.6,,,,,,,,,-SN BR,BKN,300,OVC,700,,,,,LIFR,,,,,,,,,,,,SPECI,144.0
CYMO 252114Z AUTO 32009KT 1SM -SN FEW007 OVC015 M01/M03 A3019 RMK SLP224,CYMO,2023-04-25T21:14:00Z,51.28,-80.62,-1.0,-3.0,320,9,,1.0,30.188976,1022.4,,TRUE,,,,,,,-SN,FEW,700,OVC,1500,,,,,IFR,,,,,,,,,,,,SPECI,8.0
CYFS 252114Z 34014G24KT 2SM -SN BKN032 OVC045 M04/M08 A2997 RMK SC7SC1 SLP165,CYFS,2023-04-25T21:14:00Z,61.75,-121.22,-4.0,-8.0,340,14,24,2.0,29.970472,1016.5,,,,,,,,,-SN,BKN,3200,OVC,4500,,,,,IFR,,,,,,,,,,,,SPECI,174.0
CYCO 252114Z 04009KT 1SM -SN OVC034 M14/M17 A3022 RMK SN3SC6 VIS VRB 1/2-1 1/2 SLP239,CYCO,2023-04-25T21:14:00Z,67.82,-115.15,-14.0,-17.0,40,9,,1.0,30.221457,1023.9,,,,,,,,,-SN,OVC,3400,,,,,,,IFR,,,,,,,,,,,,SPECI,20.0
CYCB 252114Z 07013KT 2SM -SN BR BKN007 OVC035 M13/M16 A3027 RMK FG1SF4SC3 SLP257,CYCB,2023-04-25T21:14:00Z,69.1,-105.12,-13.0,-16.0,70,13,,2.0,30.268702,1025.7,,,,,,,,,-SN BR,BKN,700,OVC,3500,,,,,IFR,,,,,,,,,,,,SPECI,19.0
SBFN 252113Z AUTO 12002KT 9999 FEW028 24/24 Q1013,SBFN,2023-04-25T21:13:00Z,-3.85,-32.42,24.0,24.0,120,2,,6.21,29.911417,,,TRUE,,,,,,,,FEW,2800,,,,,,,VFR,,,,,,,,,,,,METAR,52.0
PAPN 252113Z AUTO 29004KT 7SM -RA BKN014 OVC035 04/02 A2944 RMK AO2 P0000,PAPN,2023-04-25T21:13:00Z,57.58,-157.57,4.0,2.0,290,4,,7.0,29.438976,,,TRUE,TRUE,,,,,,-RA,BKN,1400,OVC,3500,,,,,MVFR,,,,,,0.005,,,,,,SPECI,19.0
KXVG 252113Z AUTO 05006KT 10SM CLR 07/M08 A3026 RMK AO2,KXVG,2023-04-25T21:13:00Z,46.98,-94.2,7.0,-8.0,50,6,,10.0,30.259842,,,TRUE,TRUE,,,,,,,CLR,,,,,,,,VFR,,,,,,,,,,,,METAR,407.0
KOWA 252113Z AUTO 03006KT 10SM CLR 10/M05 A3020 RMK AO2,KOWA,2023-04-25T21:13:00Z,44.12,-93.25,10.0,-5.0,30,6,,10.0,30.200787,,,TRUE,TRUE,,,,,,,CLR,,,,,,,,VFR,,,,,,,,,,,,METAR,345.0
KORB 252113Z AUTO 09005KT 10SM BKN060 07/M08 A3026 RMK AO2,KORB,2023-04-25T21:13:00Z,48.02,-92.87,7.0,-8.0,90,5,,10.0,30.259842,,,TRUE,TRUE,,,,,,,BKN,6000,,,,,,,VFR,,,,,,,,,,,,METAR,407.0
KFOZ 252113Z AUTO 00000KT 10SM CLR 07/M08 A3031 RMK AO2,KFOZ,2023-04-25T21:13:00Z,47.77,-93.65,7.0,-8.0,0,0,,10.0,30.31004,,,TRUE,TRUE,,,,,,,CLR,,,,,,,,VFR,,,,,,,,,,,,METAR,412.0
KDVP 252113Z AUTO 06011G15KT 10SM CLR 10/M13 A3020 RMK AO2 T00981126,KDVP,2023-04-25T21:13:00Z,43.98,-95.78,9.8,-12.6,60,11,15,10.0,30.200787,,,TRUE,TRUE,,,,,,,CLR,,,,,,,,VFR,,,,,,,,,,,,METAR,493.0
KDPA 252113Z 05009KT 10SM SCT027 OVC035 07/01 A3018 RMK AO2 T00720006,KDPA,2023-04-25T21:13:00Z,41.88,-88.25,7.2,0.6,50,9,,10.0,30.180119,,,,TRUE,,,,,,,SCT,2700,OVC,3500,,,,,VFR,,,,,,,,,,,,SPECI,228.0
KAQP 252113Z AUTO 10007KT 10SM 11/M08 A3022 RMK AO2,KAQP,2023-04-25T21:13:00Z,45.22,-96.0,11.0,-8.0,100,7,,10.0,30.221457,,,TRUE,TRUE,,,,,,,,,,,,,,,,,,,,,,,,,,,METAR,312.0
PAJC 252112Z AUTO VRB03KT 10SM SCT026 OVC037 06/00 A2946 RMK AO2 PNO $,PAJC,2023-04-25T21:12:00Z,56.32,-158.37,6.0,0.0,0,3,,10.0,29.459646,,,TRUE,TRUE,TRUE,,,,,,SCT,2600,OVC,3700,,,,,VFR,,,,,,,,,,,,SPECI,10.0
KHDN 252112Z AUTO VRB06KT 10SM BKN033 07/M01 A2994 RMK AO2,KHDN,2023-04-25T21:12:00Z,40.48,-107.22,7.0,-1.0,0,6,,10.0,29.940945,,,TRUE,TRUE,,,,,,,BKN,3300,,,,,,,VFR,,,,,,,,,,,,SPECI,2012.0
KGOK 252112Z AUTO 35006KT 7SM -RA BKN009 OVC013 09/08 A2999 RMK AO2 CIG 007V011 PRESRR P0000 T00940083,KGOK,2023-04-25T21:12:00Z,35.85,-97.4,9.4,8.3,350,6,,7.0,29.991142,,,TRUE,TRUE,,,,,,-RA,BKN,900,OVC,1300,,,,,IFR,,,,,,0.005,,,,,,SPECI,326.0
KGJT 252112Z 36017G22KT 10SM -RA SCT046 BKN060 OVC100 09/03 A2990 RMK AO2 WSHFT 2052 RAB10 P0000 T00940033,KGJT,2023-04-25T21:12:00Z,39.13,-108.53,9.4,3.3,360,17,22,10.0,29.899607,,,,TRUE,,,,,,-RA,SCT,4600,BKN,6000,OVC,10000,,,VFR,,,,,,0.005,,,,,,SPECI,1475.0
KDAW 252112Z AUTO 06005KT 5SM -RA BR SCT009 BKN024 OVC047 08/07 A3017 RMK AO2 P0002 T00830067,KDAW,2023-04-25T21:12:00Z,43.28,-70.92,8.3,6.7,60,5,,5.0,30.171259,,,TRUE,TRUE,,,,,,-RA BR,SCT,900,BKN,2400,OVC,4700,,,MVFR,,,,,,0.02,,,,,,SPECI,100.0
CYZH 252112Z AUTO 31013G20KT 9SM FEW055 BKN094 OVC110 07/M04 A2982 RMK SLP116,CYZH,2023-04-25T21:12:00Z,55.28,-114.77,7.0,-4.0,310,13,20,9.0,29.819881,1011.6,,TRUE,,,,,,,,FEW,5500,BKN,9400,OVC,11000,,,VFR,,,,,,,,,,,,SPECI,583.0
CYCQ 252112Z 26009G26KT 210V290 35SM FEW055CB BKN064TCU OVC220 07/M08 A2994 RMK CB2TCU5CI1 CB S MOV E CB W MOV SE PCPN DIST SE+S+W PRESRR SLP165,CYCQ,2023-04-25T21:12:00Z,55.7,-121.62,7.0,-8.0,260,9,26,35.0,29.940945,1016.5,,,,,,,,,,FEW,5500,BKN,6400,OVC,22000,,,VFR,,,,,,,,,,,,SPECI,614.0
KITR 252111Z AUTO 10015KT 1SM BR OVC002 07/06 A2992 RMK AO2 T00720061,KITR,2023-04-25T21:11:00Z,39.23,-102.28,7.2,6.1,100,15,,1.0,29.920275,,,TRUE,TRUE,,,,,,BR,OVC,200,,,,,,,LIFR,,,,,,,,,,,,SPECI,1285.0
KGBD 252111Z AUTO 10010KT 10SM -RA BKN011 OVC017 09/08 A3002 RMK AO2 P0000,KGBD,2023-04-25T21:11:00Z,38.35,-98.87,9.0,8.0,100,10,,10.0,30.02067,,,TRUE,TRUE,,,,,,-RA,BKN,1100,OVC,1700,,,,,MVFR,,,,,,0.005,,,,,,SPECI,573.0
KDGW 252111Z AUTO 16009G19KT 10SM -RA OVC028 08/04 A2999 RMK AO2 RAB2058 P0000 T00780044,KDGW,2023-04-25T21:11:00Z,42.8,-105.38,7.8,4.4,160,9,19,10.0,29.991142,,,TRUE,TRUE,,,,,,-RA,OVC,2800,,,,,,,MVFR,,,,,,0.005,,,,,,SPECI,1503.0
KAFF 252111Z 16012KT 10SM -SHRA FEW026 BKN034 06/02 A2989 RMK AO2A SLP103,KAFF,2023-04-25T21:11:00Z,38.97,-104.82,6.0,2.0,160,12,,10.0,29.890747,1010.3,,,TRUE,,,,,,-SHRA,FEW,2600,BKN,3400,,,,,VFR,,,,,,,,,,,,METAR,2003.0
EHVL 252111Z AUTO 32015KT 9999 FEW027 06/M00 Q1018 BLU,EHVL,2023-04-25T21:11:00Z,53.28,5.08,6.0,0.0,320,15,,6.21,30.059055,,,TRUE,,,,,,,,FEW,2700,,,,,,,VFR,,,,,,,,,,,,SPECI,2.0
DIAP 252111Z 26004KT 9999 FEW011 27/27 Q1010 RETS NOSIG,DIAP,2023-04-25T21:11:00Z,5.25,-3.92,27.0,27.0,260,4,,6.21,29.822834,,,,,,TRUE,,,,,FEW,1100,,,,,,,VFR,,,,,,,,,,,,SPECI,4.0
CYAY 252111Z AUTO 03011KT 9SM SCT009 OVC016 02/M00 A3034 RMK SLP278,CYAY,2023-04-25T21:11:00Z,51.38,-56.07,2.0,0.0,30,11,,9.0,30.339567,1027.8,,TRUE,,,,,,,,SCT,900,OVC,1600,,,,,MVFR,,,,,,,,,,,,SPECI,23.0
VCRI 252110Z VRB02KT 9999 SCT018 FEW020CB 25/25 Q1007 NOSIG,VCRI,2023-04-25T21:10:00Z,6.28,81.13,25.0,25.0,0,2,,6.21,29.734253,,,,,,TRUE,,,,,SCT,1800,FEW,2000,,,,,VFR,,,,,,,,,,,,METAR,50.0
VCBI 252110Z VRB01KT 9999 FEW016 SCT030 24/24 Q1007 NOSIG,VCBI,2023-04-25T21:10:00Z,7.17,79.88,24.0,24.0,0,1,,6.21,29.734253,,,,,,TRUE,,,,,FEW,1600,SCT,3000,,,,,VFR,,,,,,,,,,,,METAR,10.0
RKSO 252110Z 22008KT 8SM BKN017 BKN025 OVC060 09/09 A2986 RMK AO2A SLP115 $,RKSO,2023-04-25T21:10:00Z,37.08,127.02,9.0,9.0,220,8,,8.0,29.861221,1011.5,,,TRUE,TRUE,,,,,,BKN,1700,BKN,2500,OVC,6000,,,MVFR,,,,,,,,,,,,SPECI,10.0
RJTY 252110Z 00000KT 4SM -DZ SCT004 OVC011 12/11 A2992 RMK AO2A SLP136,RJTY,2023-04-25T21:10:00Z,35.75,139.33,12.0,11.0,0,0,,4.0,29.920275,1013.6,,,TRUE,,,,,,-DZ,SCT,400,OVC,1100,,,,,MVFR,,,,,,,,,,,,SPECI,136.0
PGUA 252110Z AUTO 08016G20KT 10SM BKN009 OVC014 26/24 A2984 RMK AO2 CIG 007 RWY24L SLP095 $,PGUA,2023-04-25T21:10:00Z,13.57,144.92,26.0,24.0,80,16,20,10.0,29.840551,1009.5,,TRUE,TRUE,TRUE,,,,,,BKN,900,OVC,1400,,,,,IFR,,,,,,,,,,,,SPECI,159.0
PAMD 252110Z AUTO 12019G22KT 6SM -RA BR BKN009 OVC020 03/03 A2983 RMK AO2 CIG 007V013 PNO $,PAMD,2023-04-25T21:10:00Z,59.43,-146.3,3.0,3.0,120,19,22,6.0,29.828741,,,TRUE,TRUE,TRUE,,,,,-RA BR,BKN,900,OVC,2000,,,,,IFR,,,,,,,,,,,,SPECI,20.0
KXBP 252110Z AUTO 17009KT 10SM SCT039 BKN048 OVC070 20/13 A2990 RMK AO2 T02020127,KXBP,2023-04-25T21:10:00Z,33.18,-97.83,20.2,12.7,170,9,,10.0,29.899607,,,TRUE,TRUE,,,,,,,SCT,3900,BKN,4800,OVC,7000,,,VFR,,,,,,,,,,,,METAR,256.0
KX26 252110Z AUTO 08005KT 10SM -RA SCT050 SCT075 BKN095 25/19 A2990 RMK AO2 TSNO,KX26,2023-04-25T21:10:00Z,27.82,-80.5,25.0,19.0,80,5,,10.0,29.899607,,,TRUE,TRUE,,,TRUE,,,-RA,SCT,5000,SCT,7500,BKN,9500,,,VFR,,,,,,,,,,,,METAR,5.0
KVVS 252110Z AUTO 19003KT 10SM OVC100 13/M04 A3014 RMK AO2 T01301038,KVVS,2023-04-25T21:10:00Z,39.95,-79.65,13.0,-3.8,190,3,,10.0,30.138779,,,TRUE,TRUE,,,,,,,OVC,10000,,,,,,,VFR,,,,,,,,,,,,SPECI,386.0
KVES 252110Z AUTO 26010KT 10SM OVC060 12/M03 A3011 RMK AO2,KVES,2023-04-25T21:10:00Z,40.2,-84.53,12.0,-3.0,260,10,,10.0,30.109253,,,TRUE,TRUE,,,,,,,OVC,6000,,,,,,,VFR,,,,,,,,,,,,METAR,308.0
KVCV 252110Z AUTO 35011G17KT 10SM CLR 27/M09 A2993 RMK AO2,KVCV,2023-04-25T21:10:00Z,34.58,-117.38,27.0,-9.0,350,11,17,10.0,29.929134,,,TRUE,TRUE,,,,,,,CLR,,,,,,,,VFR,,,,,,,,,,,,METAR,871.0
KULS 252110Z AUTO 10014KT 3SM BR OVC004 08/08 A2988 RMK AO2,KULS,2023-04-25T21:10:00Z,37.6,-101.37,8.0,8.0,100,14,,3.0,29.878937,,,TRUE,TRUE,,,,,,BR,OVC,400,,,,,,,LIFR,,,,,,,,,,,,METAR,934.0
KSUT 252110Z AUTO 07011G15KT 10SM CLR 21/07 A3011 RMK AO2 T02050071,KSUT,2023-04-25T21:10:00Z,33.93,-78.08,20.5,7.1,70,11,15,10.0,30.109253,,,TRUE,TRUE,,,,,,,CLR,,,,,,,,VFR,,,,,,,,,,,,METAR,6.0
KS85 252110Z AUTO 14013KT 10SM 16/M00 A3002 RMK A01 Culbertson ,KS85,2023-04-25T21:10:00Z,48.15,-104.5,16.0,0.0,140,13,,10.0,30.02067,,,TRUE,TRUE,,,,,,,,,,,,,,,,,,,,,,,,,,,METAR,596.0
KRVF 252110Z AUTO VRB05KT 10SM BKN075 11/02 A3011 RMK AO2,KRVF,2023-04-25T21:10:00Z,45.53,-112.3,11.0,2.0,0,5,,10.0,30.109253,,,TRUE,TRUE,,,,,,,BKN,7500,,,,,,,VFR,,,,,,,,,,,,METAR,1445.0
KRHP 252110Z AUTO 33003KT 10SM OVC080 17/01 A3006 RMK AO2 T01740009,KRHP,2023-04-25T21:10:00Z,35.18,-83.85,17.4,0.9,330,3,,10.0,30.059055,,,TRUE,TRUE,,,,,,,OVC,8000,,,,,,,VFR,,,,,,,,,,,,METAR,515.0
KQER 252110Z AUTO 16003KT 9999 OVC024 08/05 A2977 RMK A02 TSNO,KQER,2023-04-25T21:10:00Z,,,8.0,5.0,160,3,,6.21,29.769686,,,TRUE,TRUE,,,TRUE,,,,OVC,2400,,,,,,,MVFR,,,,,,,,,,,,METAR,
KPMU 252110Z AUTO 00000KT 10SM CLR 17/05 A3007 RMK AO2,KPMU,2023-04-25T21:10:00Z,34.37,-89.9,17.0,5.0,0,0,,10.0,30.070866,,,TRUE,TRUE,,,,,,,CLR,,,,,,,,VFR,,,,,,,,,,,,METAR,67.0
KOLY 252110Z AUTO 27006KT 10SM SCT065 19/01 A3009 RMK AO2 T01900014 PWINO,KOLY,2023-04-25T21:10:00Z,38.72,-88.18,19.0,1.4,270,6,,10.0,30.088583,,,TRUE,TRUE,,,,,TRUE,,SCT,6500,,,,,,,VFR,,,,,,,,,,,,SPECI,144.0
KNOW 252110Z AUTO 31006KT 10SM SCT027 11/07 A3029 RMK AO2 T01090071,KNOW,2023-04-25T21:10:00Z,48.13,-123.4,10.9,7.1,310,6,,10.0,30.28937,,,TRUE,TRUE,,,,,,,SCT,2700,,,,,,,VFR,,,,,,,,,,,,METAR,3.0
KMRC 252110Z AUTO 07009KT 10SM CLR 20/M03 A3005 RMK A01,KMRC,2023-04-25T21:10:00Z,35.55,-87.18,20.0,-3.0,70,9,,10.0,30.050198,,,TRUE,TRUE,,,,,,,CLR,,,,,,,,VFR,,,,,,,,,,,,SPECI,205.0
KMQI 252110Z AUTO 08010KT 10SM CLR 15/05 A3018 RMK AO2 T01500052,KMQI,2023-04-25T21:10:00Z,35.92,-75.7,15.0,5.2,80,10,,10.0,30.180119,,,TRUE,TRUE,,,,,,,CLR,,,,,,,,VFR,,,,,,,,,,,,METAR,3.0
KMIO 252110Z AUTO 20005KT 10SM OVC047 15/08 A3004 RMK AO2,KMIO,2023-04-25T21:10:00Z,36.92,-94.88,15.0,8.0,200,5,,10.0,30.041338,,,TRUE,TRUE,,,,,,,OVC,4700,,,,,,,VFR,,,,,,,,,,,,SPECI,245.0
KM91 252110Z AUTO 04007G13KT 10SM CLR 19/M00 A3008 RMK A01,KM91,2023-04-25T21:10:00Z,36.53,-86.92,19.0,0.0,40,7,13,10.0,30.079725,,,TRUE,TRUE,,,,,,,CLR,,,,,,,,VFR,,,,,,,,,,,,SPECI,214.0
KM04 252110Z AUTO VRB05G11KT 10SM CLR 20/01 A3006 RMK A01,KM04,2023-04-25T21:10:00Z,35.58,-89.58,20.0,1.0,0,5,11,10.0,30.059055,,,TRUE,TRUE,,,,,,,CLR,,,,,,,,VFR,,,,,,,,,,,,SPECI,83.0
KK70 252110Z AUTO 15007KT 10SM CLR 29/24 A2987 RMK AO2,KK70,2023-04-25T21:10:00Z,25.32,-80.28,29.0,24.0,150,7,,10.0,29.870079,,,TRUE,TRUE,,,,,,,CLR,,,,,,,,VFR,,,,,,,,,,,,SPECI,20.0
KJNX 252110Z AUTO 05004KT 10SM SCT065 21/05 A3011 RMK AO2,KJNX,2023-04-25T21:10:00Z,35.53,-78.38,21.0,5.0,50,4,,10.0,30.109253,,,TRUE,TRUE,,,,,,,SCT,6500,,,,,,,VFR,,,,,,,,,,,,METAR,41.0
KIXA 252110Z AUTO 00000KT 10SM SCT060 17/08 A3014 RMK AO2,KIXA,2023-04-25T21:10:00Z,36.33,-77.63,17.0,8.0,0,0,,10.0,30.138779,,,TRUE,TRUE,,,,,,,SCT,6000,,,,,,,VFR,,,,,,,,,,,,METAR,43.0
KHZR 252110Z AUTO 35005KT 10SM OVC080 24/13 A2996 RMK AO2 T02370127,KHZR,2023-04-25T21:10:00Z,30.72,-91.48,23.7,12.7,350,5,,10.0,29.958662,,,TRUE,TRUE,,,,,,,OVC,8000,,,,,,,VFR,,,,,,,,,,,,METAR,11.0
KHIF 252110Z AUTO 00000KT 10SM SCT024 OVC034 06/00 A3007 RMK AO2 SLP176,KHIF,2023-04-25T21:10:00Z,41.12,-111.97,6.0,0.0,0,0,,10.0,30.070866,1017.6,,TRUE,TRUE,,,,,,,SCT,2400,OVC,3400,,,,,VFR,,,,,,,,,,,,METAR,1461.0
KGRY 252110Z AUTO 07016KT 10SM FEW015 22/19 A2990 RMK A01,KGRY,2023-04-25T21:10:00Z,27.63,-90.45,22.0,19.0,70,16,,10.0,29.899607,,,TRUE,TRUE,,,,,,,FEW,1500,,,,,,,VFR,,,,,,,,,,,,SPECI,58.0
KGNC 252110Z AUTO 25008KT 10SM CLR 27/03 A2982 RMK AO2 T02660032,KGNC,2023-04-25T21:10:00Z,32.68,-102.65,26.6,3.2,250,8,,10.0,29.819881,,,TRUE,TRUE,,,,,,,CLR,,,,,,,,VFR,,,,,,,,,,,,METAR,1002.0
KEYF 252110Z AUTO 00000KT 10SM BKN095 OVC120 20/05 A3012 RMK AO2 T02030048,KEYF,2023-04-25T21:10:00Z,34.6,-78.58,20.3,4.8,0,0,,10.0,30.121063,,,TRUE,TRUE,,,,,,,BKN,9500,OVC,12000,,,,,VFR,,,,,,,,,,,,METAR,39.0
KEXX 252110Z AUTO 00000KT 10SM OVC065 18/04 A3013 RMK AO2 T01750039,KEXX,2023-04-25T21:10:00Z,35.78,-80.3,17.5,3.9,0,0,,10.0,30.129921,,,TRUE,TRUE,,,,,,,OVC,6500,,,,,,,VFR,,,,,,,,,,,,METAR,221.0
KETN 252110Z AUTO 14010G16KT 10SM SCT025 BKN033 OVC060 20/15 A2984 RMK AO2 T02040153,KETN,2023-04-25T21:10:00Z,32.42,-98.82,20.4,15.3,140,10,16,10.0,29.840551,,,TRUE,TRUE,,,,,,,SCT,2500,BKN,3300,OVC,6000,,,VFR,,,,,,,,,,,,SPECI,445.0
KEDE 252110Z AUTO 09009KT 10SM CLR 18/10 A3017 RMK AO2 T01750098,KEDE,2023-04-25T21:10:00Z,36.03,-76.57,17.5,9.8,90,9,,10.0,30.171259,,,TRUE,TRUE,,,,,,,CLR,,,,,,,,VFR,,,,,,,,,,,,METAR,4.0
KEAN 252110Z AUTO 35006KT 10SM -DZ SCT007 BKN032 OVC038 07/06 A2997 RMK AO2 T00720057,KEAN,2023-04-25T21:10:00Z,42.05,-104.93,7.2,5.7,350,6,,10.0,29.970472,,,TRUE,TRUE,,,,,,-DZ,SCT,700,BKN,3200,OVC,3800,,,VFR,,,,,,,,,,,,SPECI,1452.0
KDWA 252110Z AUTO 33010G17KT 10SM CLR 28/02 A2990 RMK AO2,KDWA,2023-04-25T21:10:00Z,38.58,-121.85,28.0,2.0,330,10,17,10.0,29.899607,,,TRUE,TRUE,,,,,,,CLR,,,,,,,,VFR,,,,,,,,,,,,METAR,28.0
KDVK 252110Z AUTO 00000KT 10SM CLR 17/00 A3013 RMK AO2,KDVK,2023-04-25T21:10:00Z,37.58,-84.77,17.0,0.0,0,0,,10.0,30.129921,,,TRUE,TRUE,,,,,,,CLR,,,,,,,,VFR,,,,,,,,,,,,METAR,309.0
KDED 252110Z AUTO 03009KT 10SM CLR 25/15 A2994 RMK AO2 LTG DSNT SW T02470155,KDED,2023-04-25T21:10:00Z,29.07,-81.28,24.7,15.5,30,9,,10.0,29.940945,,,TRUE,TRUE,,,,,,,CLR,,,,,,,,VFR,,,,,,,,,,,,SPECI,21.0
KCQT 252110Z AUTO 00000KT 10SM BKN029 21/13 A2990 RMK AO2 T02060128 $,KCQT,2023-04-25T21:10:00Z,34.02,-118.28,20.6,12.8,0,0,,10.0,29.899607,,,TRUE,TRUE,TRUE,,,,,,BKN,2900,,,,,,,MVFR,,,,,,,,,,,,SPECI,51.0
KCGS 252110Z AUTO 30004KT 10SM CLR 15/M01 A3019 RMK AO2 T01481014,KCGS,2023-04-25T21:10:00Z,38.98,-76.92,14.8,-1.4,300,4,,10.0,30.188976,,,TRUE,TRUE,,,,,,,CLR,,,,,,,,VFR,,,,,,,,,,,,SPECI,15.0
KBMC 252110Z AUTO 00000KT 10SM OVC050 08/00 A3010 RMK AO1 T00801001,KBMC,2023-04-25T21:10:00Z,41.55,-112.07,8.0,-0.1,0,0,,10.0,30.100393,,,TRUE,TRUE,,,,,,,OVC,5000,,,,,,,VFR,,,,,,,,,,,,METAR,1289.0
KANK 252110Z AUTO 00000KT 5SM OVC003 02/02 A2998 RMK AO1 T00210015,KANK,2023-04-25T21:10:00Z,38.53,-106.05,2.1,1.5,0,0,,5.0,29.97933,,,TRUE,TRUE,,,,,,,OVC,300,,,,,,,LIFR,,,,,,,,,,,,METAR,2293.0
KAFO 252110Z AUTO 36005KT 10SM OVC025 03/M02 A3007 RMK AO2,KAFO,2023-04-25T21:10:00Z,42.72,-110.95,3.0,-2.0,360,5,,10.0,30.070866,,,TRUE,TRUE,,,,,,,OVC,2500,,,,,,,MVFR,,,,,,,,,,,,METAR,1881.0
KADT 252110Z AUTO 12014KT 10SM BKN022 BKN029 OVC036 12/06 A3003 RMK AO2 T01170059,KADT,2023-04-25T21:10:00Z,39.83,-101.05,11.7,5.9,120,14,,10.0,30.029528,,,TRUE,TRUE,,,,,,,BKN,2200,BKN,2900,OVC,3600,,,MVFR,,,,,,,,,,,,METAR,899.0
K8A0 252110Z AUTO 00000KT 10SM CLR 18/03 A3006 RMK AO2,K8A0,2023-04-25T21:10:00Z,34.23,-86.25,18.0,3.0,0,0,,10.0,30.059055,,,TRUE,TRUE,,,,,,,CLR,,,,,,,,VFR,,,,,,,,,,,,METAR,313.0
K6S8 252110Z AUTO VRB06G18KT 10SM 17/M01 A2999 RMK A01 LAUREL,K6S8,2023-04-25T21:10:00Z,45.7,-108.77,17.0,-1.0,0,6,18,10.0,29.991142,,,TRUE,TRUE,,,,,,,,,,,,,,,,,,,,,,,,,,,METAR,1072.0
K4U6 252110Z AUTO 14013G18KT 10SM 15/02 A2999 RMK A01 Circle ,K4U6,2023-04-25T21:10:00Z,47.42,-105.57,15.0,2.0,140,13,18,10.0,29.991142,,,TRUE,TRUE,,,,,,,,,,,,,,,,,,,,,,,,,,,METAR,739.0
K1A5 252110Z AUTO 15003KT 10SM SCT065 OVC075 16/04 A3012 RMK AO2 T01570042,K1A5,2023-04-25T21:10:00Z,35.22,-83.42,15.7,4.2,150,3,,10.0,30.121063,,,TRUE,TRUE,,,,,,,SCT,6500,OVC,7500,,,,,VFR,,,,,,,,,,,,METAR,611.0
K05U 252110Z AUTO 34006G13KT 10SM 14/M09 A3014 RMK A01,K05U,2023-04-25T21:10:00Z,39.6,-116.0,14.0,-9.0,340,6,13,10.0,30.138779,,,TRUE,TRUE,,,,,,,,,,,,,,,,,,,,,,,,,,,METAR,1813.0
EBFN 252110Z VRB02KT 9999 FEW030 05/02 Q1020 BLU FCST CANCEL,EBFN,2023-04-25T21:10:00Z,51.08,2.65,5.0,2.0,0,2,,6.21,30.11811,,,,,,,,,,,FEW,3000,,,,,,,VFR,,,,,,,,,,,,SPECI,9.0
CYTL 252110Z AUTO 17004KT 8SM OVC060 04/M07 A3034 RMK SLP290,CYTL,2023-04-25T21:10:00Z,53.82,-89.88,4.0,-7.0,170,4,,8.0,30.339567,1029.0,,TRUE,,,,,,,,OVC,6000,,,,,,,VFR,,,,,,,,,,,,SPECI,218.0
YBRM 252109Z AUTO 00000KT 9999 // NCD 19/19 Q1010 RF00/0/000/0,YBRM,2023-04-25T21:09:00Z,-17.93,122.23,19.0,19.0,0,0,,6.21,29.822834,,,TRUE,,,,,,,,CLR,,,,,,,,VFR,,,,,,,,,,,,SPECI,11.0
PADQ 252109Z 11013KT 10SM BKN010 BKN036 BKN045 04/02 A2956 RMK AO2 T00440022,PADQ,2023-04-25T21:09:00Z,57.75,-152.5,4.4,2.2,110,13,,10.0,29.56004,,,,TRUE,,,,,,,BKN,1000,BKN,3600,BKN,4500,,,MVFR,,,,,,,,,,,,SPECI,5.0
KVRB 252109Z 19010KT 10SM FEW032 BKN095 BKN110 23/21 A2988 RMK AO2 LTG DSNT S AND SW RAE05 P0000 T02330211,KVRB,2023-04-25T21:09:00Z,27.65,-80.42,23.3,21.1,190,10,,10.0,29.878937,,,,TRUE,,,,,,,FEW,3200,BKN,9500,BKN,11000,,,VFR,,,,,,0.005,,,,,,SPECI,7.0
KFME 252109Z AUTO 30006KT 10SM CLR 14/M01 A3021 RMK AO1,KFME,2023-04-25T21:09:00Z,39.08,-76.77,14.0,-1.0,300,6,,10.0,30.209646,,,TRUE,TRUE,,,,,,,CLR,,,,,,,,VFR,,,,,,,,,,,,METAR,43.0
KEVW 252109Z AUTO 31008G16KT 5SM -SN BR OVC009 00/M02 A3006 RMK AO2 P0000 T00001022,KEVW,2023-04-25T21:09:00Z,41.27,-111.03,0.0,-2.2,310,8,16,5.0,30.059055,,,TRUE,TRUE,,,,,,-SN BR,OVC,900,,,,,,,IFR,,,,,,0.005,,,,,,SPECI,2178.0
KAFP 252109Z AUTO 00000KT 10SM SCT085 BKN100 17/07 A3012 RMK AO2 T01710073,KAFP,2023-04-25T21:09:00Z,35.02,-80.08,17.1,7.3,0,0,,10.0,30.121063,,,TRUE,TRUE,,,,,,,SCT,8500,BKN,10000,,,,,VFR,,,,,,,,,,,,METAR,91.0
K2W6 252109Z AUTO 07005KT 10SM SCT065 BKN080 13/01 A3020 RMK AO1,K2W6,2023-04-25T21:09:00Z,38.32,-76.55,13.0,1.0,70,5,,10.0,30.200787,,,TRUE,TRUE,,,,,,,SCT,6500,BKN,8000,,,,,VFR,,,,,,,,,,,,SPECI,40.0
CYYT 252109Z 02013G24KT 1SM R16/4000VP6000FT/U -SN BR OVC001 M00/M00 A3011 RMK FG4ST4 SLP206,CYYT,2023-04-25T21:09:00Z,47.62,-52.73,0.0,0.0,20,13,24,1.0,30.109253,1020.6,,,,,,,,,-SN BR,OVC,100,,,,,,,LIFR,,,,,,,,,,,,SPECI,128.0
CYPQ 252109Z AUTO 20011KT 180V250 9SM -RA BKN037 BKN048 OVC060 06/01 A3014 RMK SLP213,CYPQ,2023-04-25T21:09:00Z,44.22,-78.37,6.0,1.0,200,11,,9.0,30.138779,1021.3,,TRUE,,,,,,,-RA,BKN,3700,BKN,4800,OVC,6000,,,VFR,,,,,,,,,,,,SPECI,190.0
SBGO 252108Z 13016G27KT 9000 2000SE TSRA SCT020 SCT050 SCT053CB BKN080 22/19 Q1018,SBGO,2023-04-25T21:08:00Z,-16.62,-49.22,22.0,19.0,130,16,27,5.59,30.059055,,,,,,,,,,TSRA,SCT,2000,SCT,5000,SCT,5300,BKN,8000,VFR,,,,,,,,,,,,SPECI,740.0
PACV 252108Z 11010G16KT 3SM RA BR OVC016 02/01 A2991 RMK AO2 P0003 I1000 T00220006,PACV,2023-04-25T21:08:00Z,60.5,-145.47,2.2,0.6,110,10,16,3.0,29.911417,,,,TRUE,,,,,,RA BR,OVC,1600,,,,,,,MVFR,,,,,,0.03,,,,,,SPECI,15.0
KGLD 252108Z AUTO 10014KT 2SM -RA BR BKN006 OVC012 08/07 A2993 RMK AO2 CIG 004V008 P0001 T00780072,KGLD,2023-04-25T21:08:00Z,39.37,-101.7,7.8,7.2,100,14,,2.0,29.929134,,,TRUE,TRUE,,,,,,-RA BR,BKN,600,OVC,1200,,,,,IFR,,,,,,0.01,,,,,,SPECI,1111.0
K04V 252108Z AUTO 30020G29KT 10SM 05/00 A2988 RMK AO2 LTG DSNT E,K04V,2023-04-25T21:08:00Z,38.1,-106.17,5.0,0.0,300,20,29,10.0,29.878937,,,TRUE,TRUE,,,,,,,,,,,,,,,,,,,,,,,,,,,METAR,2389.0
EBLB 252108Z AUTO VRB01KT 9999 BKN024/// 01/M00 Q1017 WHT,EBLB,2023-04-25T21:08:00Z,50.47,6.17,1.0,0.0,0,1,,6.21,30.029528,,,TRUE,,,,,,,,BKN,2400,,,,,,,MVFR,,,,,,,,,,,,SPECI,563.0
MUSC 252107Z 23008KT 190V270 3000 -RA BKN018 22/21 Q1013,MUSC,2023-04-25T21:07:00Z,22.5,-79.92,22.0,21.0,230,8,,1.86,29.911417,,,,,,,,,,-RA,BKN,1800,,,,,,,IFR,,,,,,,,,,,,SPECI,97.0
KPHN 252107Z AUTO 18006KT 10SM BKN020 BKN075 OVC090 07/01 A3016 RMK AO2,KPHN,2023-04-25T21:07:00Z,42.92,-82.52,7.0,1.0,180,6,,10.0,30.159449,,,TRUE,TRUE,,,,,,,BKN,2000,BKN,7500,OVC,9000,,,MVFR,,,,,,,,,,,,SPECI,195.0
KFNL 252107Z 08016G22KT 10SM OVC032 12/03 A2988 RMK AO2 WSHFT 2047 LTG DSNT SE AND S,KFNL,2023-04-25T21:07:00Z,40.45,-105.02,12.0,3.0,80,16,22,10.0,29.878937,,,,TRUE,,,,,,,OVC,3200,,,,,,,VFR,,,,,,,,,,,,SPECI,1529.0
KCOS 252107Z 31007KT 270V350 5SM RA SCT015 BKN023 OVC032 05/02 A2992 RMK AO2 P0000 T00500017,KCOS,2023-04-25T21:07:00Z,38.82,-104.68,5.0,1.7,310,7,,5.0,29.920275,,,,TRUE,,,,,,RA,SCT,1500,BKN,2300,OVC,3200,,,MVFR,,,,,,0.005,,,,,,METAR,1886.0
K1KN 252107Z AUTO 19014G20KT 10SM CLR 09/M05 A3012 RMK AO2 WSHFT 03 SLP224 $,K1KN,2023-04-25T21:07:00Z,,,9.0,-5.0,190,14,20,10.0,30.121063,1022.4,,TRUE,TRUE,TRUE,,,,,,CLR,,,,,,,,VFR,,,,,,,,,,,,SPECI,
PAOO 252106Z AUTO SCT025 OVC038 M01/M07 A2954 RMK AO2 PWINO FZRANO TSNO $,PAOO,2023-04-25T21:06:00Z,60.53,-165.08,-1.0,-7.0,,,,,29.53937,,,TRUE,TRUE,TRUE,,TRUE,TRUE,TRUE,,SCT,2500,OVC,3800,,,,,,,,,,,,,,,,,METAR,15.0
KQOA 252106Z 08010KT 4800 VCTS FU BKN085 35/16 A2981 RMK AO2A TS 5NE MOV N SLP045,KQOA,2023-04-25T21:06:00Z,,,35.0,16.0,80,10,,2.98,29.811024,1004.5,,,TRUE,,,,,,VCTS FU,BKN,8500,,,,,,,IFR,,,,,,,,,,,,METAR,
KGCK 252106Z 10015KT 2 1/2SM BR OVC005 07/07 A2992 RMK AO2 RAE03 P0000 T00720072,KGCK,2023-04-25T21:06:00Z,37.92,-100.72,7.2,7.2,100,15,,2.5,29.920275,,,,TRUE,,,,,,BR,OVC,500,,,,,,,IFR,,,,,,0.005,,,,,,SPECI,877.0
KBTM 252106Z AUTO 03007KT 10SM OVC030 07/01 A3012 RMK AO2 T00720006,KBTM,2023-04-25T21:06:00Z,45.97,-112.5,7.2,0.6,30,7,,10.0,30.121063,,,TRUE,TRUE,,,,,,,OVC,3000,,,,,,,MVFR,,,,,,,,,,,,SPECI,1680.0
KADG 252106Z AUTO 34005KT 10SM OVC015 06/03 A3016 RMK AO2 T00610028,KADG,2023-04-25T21:06:00Z,41.87,-84.08,6.1,2.8,340,5,,10.0,30.159449,,,TRUE,TRUE,,,,,,,OVC,1500,,,,,,,MVFR,,,,,,,,,,,,SPECI,244.0
CYZP 252106Z AUTO 14020KT 9SM BKN023 OVC029 08/06 A3006 RMK SLP182,CYZP,2023-04-25T21:06:00Z,53.25,-131.82,8.0,6.0,140,20,,9.0,30.059055,1018.2,,TRUE,,,,,,,,BKN,2300,OVC,2900,,,,,MVFR,,,,,,,,,,,,SPECI,7.0
CYUY 252106Z 13008KT 4SM -SHSN BKN010 OVC022 02/01 A3008 RMK SC5CU3 SLP203,CYUY,2023-04-25T21:06:00Z,48.2,-78.82,2.0,1.0,130,8,,4.0,30.079725,1020.3,,,,,,,,,-SHSN,BKN,1000,OVC,2200,,,,,MVFR,,,,,,,,,,,,SPECI,304.0
CYFC 252106Z AUTO 11004KT 9SM OVC024 08/03 A3025 RMK SLP246,CYFC,2023-04-25T21:06:00Z,45.87,-66.53,8.0,3.0,110,4,,9.0,30.250984,1024.6,,TRUE,,,,,,,,OVC,2400,,,,,,,MVFR,,,,,,,,,,,,SPECI,16.0
PWAK 252105Z AUTO 06013KT 8SM BKN020 27/21 A3004 RMK AO2 SLP179,PWAK,2023-04-25T21:05:00Z,19.28,166.62,27.0,21.0,60,13,,8.0,30.041338,1017.9,,TRUE,TRUE,,,,,,,BKN,2000,,,,,,,MVFR,,,,,,,,,,,,SPECI,7.0
PAPG 252105Z 12008KT 10SM FEW008 SCT022 BKN043 06/02 A3012 RMK AO2,PAPG,2023-04-25T21:05:00Z,56.82,-132.93,6.0,2.0,120,8,,10.0,30.121063,,,,TRUE,,,,,,,FEW,800,SCT,2200,BKN,4300,,,VFR,,,,,,,,,,,,SPECI,24.0
KW40 252105Z AUTO 02004KT 10SM SCT070 SCT120 20/06 A3012 RMK AO2 T02010059,KW40,2023-04-25T21:05:00Z,35.22,-78.03,20.1,5.9,20,4,,10.0,30.121063,,,TRUE,TRUE,,,,,,,SCT,7000,SCT,12000,,,,,VFR,,,,,,,,,,,,SPECI,50.0
KW29 252105Z AUTO 16007KT 140V240 10SM CLR 15/00 A3019 RMK AO2 T01500005,KW29,2023-04-25T21:05:00Z,38.98,-76.33,15.0,0.5,160,7,,10.0,30.188976,,,TRUE,TRUE,,,,,,,CLR,,,,,,,,VFR,,,,,,,,,,,,SPECI,1.0
KVUJ 252105Z AUTO 00000KT 10SM SCT055 BKN065 OVC085 19/07 A3016 RMK AO2 T01850065,KVUJ,2023-04-25T21:05:00Z,35.42,-80.15,18.5,6.5,0,0,,10.0,30.159449,,,TRUE,TRUE,,,,,,,SCT,5500,BKN,6500,OVC,8500,,,VFR,,,,,,,,,,,,SPECI,174.0
KUKF 252105Z AUTO 00000KT 10SM CLR 16/01 A3017 RMK AO2,KUKF,2023-04-25T21:05:00Z,36.22,-81.1,16.0,1.0,0,0,,10.0,30.171259,,,TRUE,TRUE,,,,,,,CLR,,,,,,,,VFR,,,,,,,,,,,,METAR,383.0
KTTA 252105Z AUTO 10006KT 10SM CLR 19/06 A3012 RMK AO2 T01870055,KTTA,2023-04-25T21:05:00Z,35.58,-79.1,18.7,5.5,100,6,,10.0,30.121063,,,TRUE,TRUE,,,,,,,CLR,,,,,,,,VFR,,,,,,,,,,,,METAR,71.0
KTDF 252105Z AUTO 06003KT 10SM CLR 16/05 A3016 RMK AO2,KTDF,2023-04-25T21:05:00Z,36.28,-78.98,16.0,5.0,60,3,,10.0,30.159449,,,TRUE,TRUE,,,,,,,CLR,,,,,,,,VFR,,,,,,,,,,,,METAR,180.0
KSVH 252105Z AUTO 00000KT 10SM CLR 18/03 A3012 RMK AO2 T01760033,KSVH,2023-04-25T21:05:00Z,35.75,-80.95,17.6,3.3,0,0,,10.0,30.121063,,,TRUE,TRUE,,,,,,,CLR,,,,,,,,VFR,,,,,,,,,,,,METAR,286.0
KSNH 252105Z AUTO VRB04G12KT 10SM CLR 20/M05 A3004 RMK A01,KSNH,2023-04-25T21:05:00Z,35.17,-88.22,20.0,-5.0,0,4,12,10.0,30.041338,,,TRUE,TRUE,,,,,,,CLR,,,,,,,,VFR,,,,,,,,,,,,METAR,142.0
KSIF 252105Z AUTO 00000KT 10SM CLR 17/02 A3014 RMK AO2 T01700018,KSIF,2023-04-25T21:05:00Z,36.43,-79.85,17.0,1.8,0,0,,10.0,30.138779,,,TRUE,TRUE,,,,,,,CLR,,,,,,,,VFR,,,,,,,,,,,,METAR,206.0
KSCR 252105Z AUTO 01003KT 10SM SCT080 BKN090 19/06 A3012 RMK AO2 T01920056,KSCR,2023-04-25T21:05:00Z,35.7,-79.5,19.2,5.6,10,3,,10.0,30.121063,,,TRUE,TRUE,,,,,,,SCT,8000,BKN,9000,,,,,VFR,,,,,,,,,,,,METAR,182.0
KRUQ 252105Z AUTO 05003KT 10SM SCT060 BKN110 18/05 A3012 RMK AO2 T01750045,KRUQ,2023-04-25T21:05:00Z,35.65,-80.52,17.5,4.5,50,3,,10.0,30.121063,,,TRUE,TRUE,,,,,,,SCT,6000,BKN,11000,,,,,VFR,,,,,,,,,,,,METAR,231.0
KPGV 252105Z AUTO 06004KT 10SM OVC070 20/02 A3013 RMK AO2,KPGV,2023-04-25T21:05:00Z,35.63,-77.4,20.0,2.0,60,4,,10.0,30.129921,,,TRUE,TRUE,,,,,,,OVC,7000,,,,,,,VFR,,,,,,,,,,,,METAR,6.0
KONX 252105Z AUTO 06006KT CLR 15/04 A3019 RMK AO2 T01450036 PWINO,KONX,2023-04-25T21:05:00Z,36.4,-76.02,14.5,3.6,60,6,,,30.188976,,,TRUE,TRUE,,,,,TRUE,,CLR,,,,,,,,,,,,,,,,,,,,METAR,4.0
KOCW 252105Z AUTO 08003KT 10SM OVC065 19/05 A3014 RMK AO2 T01870050,KOCW,2023-04-25T21:05:00Z,35.57,-77.05,18.7,5.0,80,3,,10.0,30.138779,,,TRUE,TRUE,,,,,,,OVC,6500,,,,,,,VFR,,,,,,,,,,,,METAR,10.0
KMWK 252105Z AUTO 00000KT 10SM CLR 16/01 A3016 RMK AO2 T01550009,KMWK,2023-04-25T21:05:00Z,36.47,-80.55,15.5,0.9,0,0,,10.0,30.159449,,,TRUE,TRUE,,,,,,,CLR,,,,,,,,VFR,,,,,,,,,,,,METAR,374.0
KMTJ 252105Z AUTO 11004KT 10SM BKN019 OVC036 04/01 A2995 RMK AO2 RAE01 P0000 T00440011,KMTJ,2023-04-25T21:05:00Z,38.5,-107.9,4.4,1.1,110,4,,10.0,29.949802,,,TRUE,TRUE,,,,,,,BKN,1900,OVC,3600,,,,,MVFR,,,,,,0.005,,,,,,SPECI,1755.0
KMRN 252105Z AUTO 09005KT 10SM SCT070 SCT120 19/04 A3012 RMK AO2 T01870035,KMRN,2023-04-25T21:05:00Z,35.82,-81.62,18.7,3.5,90,5,,10.0,30.121063,,,TRUE,TRUE,,,,,,,SCT,7000,SCT,12000,,,,,VFR,,,,,,,,,,,,METAR,375.0
KMCZ 252105Z AUTO 06003KT 10SM BKN065 BKN085 20/05 A3014 RMK AO2 T01950055,KMCZ,2023-04-25T21:05:00Z,,,19.5,5.5,60,3,,10.0,30.138779,,,TRUE,TRUE,,,,,,,BKN,6500,BKN,8500,,,,,VFR,,,,,,,,,,,,METAR,
KIPJ 252105Z AUTO 00000KT 10SM BKN100 BKN120 18/05 A3012 RMK AO2 T01750047,KIPJ,2023-04-25T21:05:00Z,35.48,-81.17,17.5,4.7,0,0,,10.0,30.121063,,,TRUE,TRUE,,,,,,,BKN,10000,BKN,12000,,,,,VFR,,,,,,,,,,,,METAR,266.0
KIAB 252105Z AUTO 18012KT 10SM SCT020 OVC034 11/07 A3000 RMK AO2 SLP164 $,KIAB,2023-04-25T21:05:00Z,37.62,-97.27,11.0,7.0,180,12,,10.0,30.0,1016.4,,TRUE,TRUE,TRUE,,,,,,SCT,2000,OVC,3400,,,,,VFR,,,,,,,,,,,,SPECI,413.0
KHRJ 252105Z AUTO 00000KT 10SM SCT070 SCT085 20/05 A3013 RMK AO2 T01960049,KHRJ,2023-04-25T21:05:00Z,35.38,-78.73,19.6,4.9,0,0,,10.0,30.129921,,,TRUE,TRUE,,,,,,,SCT,7000,SCT,8500,,,,,VFR,,,,,,,,,,,,METAR,55.0
KHBI 252105Z AUTO 00000KT 10SM SCT055 BKN080 BKN110 18/05 A3014 RMK AO2 T01770046,KHBI,2023-04-25T21:05:00Z,35.65,-79.9,17.7,4.6,0,0,,10.0,30.138779,,,TRUE,TRUE,,,,,,,SCT,5500,BKN,8000,BKN,11000,,,VFR,,,,,,,,,,,,METAR,199.0
KGEV 252105Z AUTO 13005KT 10SM SCT120 12/00 A3013 RMK AO2 T01161001,KGEV,2023-04-25T21:05:00Z,36.43,-81.42,11.6,-0.1,130,5,,10.0,30.129921,,,TRUE,TRUE,,,,,,,SCT,12000,,,,,,,VFR,,,,,,,,,,,,METAR,961.0
KFQD 252105Z AUTO 17004KT 10SM OVC110 17/03 A3012 RMK AO2,KFQD,2023-04-25T21:05:00Z,35.42,-81.93,17.0,3.0,170,4,,10.0,30.121063,,,TRUE,TRUE,,,,,,,OVC,11000,,,,,,,VFR,,,,,,,,,,,,METAR,325.0
KEHO 252105Z AUTO 14003KT 10SM SCT060 OVC100 17/04 A3011 RMK AO2 T01730038,KEHO,2023-04-25T21:05:00Z,35.25,-81.6,17.3,3.8,140,3,,10.0,30.109253,,,TRUE,TRUE,,,,,,,SCT,6000,OVC,10000,,,,,VFR,,,,,,,,,,,,METAR,261.0
KDPL 252105Z AUTO 00000KT 10SM BKN070 BKN120 20/05 A3012 R,KDPL,2023-04-25T21:05:00Z,35.0,-77.97,20.0,5.0,0,0,,10.0,30.121063,,,TRUE,,,,,,,,BKN,7000,BKN,12000,,,,,VFR,,,,,,,,,,,,METAR,39.0
KDMW 252105Z AUTO 00000KT 10SM SCT070 15/M03 A3018 RMK AO2,KDMW,2023-04-25T21:05:00Z,39.6,-77.0,15.0,-3.0,0,0,,10.0,30.180119,,,TRUE,TRUE,,,,,,,SCT,7000,,,,,,,VFR,,,,,,,,,,,,SPECI,239.0
KCTZ 252105Z AUTO 00000KT 10SM BKN120 21/06 A3012 RMK AO2 T02050060,KCTZ,2023-04-25T21:05:00Z,34.98,-78.37,20.5,6.0,0,0,,10.0,30.121063,,,TRUE,TRUE,,,,,,,BKN,12000,,,,,,,VFR,,,,,,,,,,,,METAR,43.0
KCPC 252105Z AUTO 09005KT 10SM SCT070 21/04 A3012 RMK AO2 T02050041,KCPC,2023-04-25T21:05:00Z,34.28,-78.72,20.5,4.1,90,5,,10.0,30.121063,,,TRUE,TRUE,,,,,,,SCT,7000,,,,,,,VFR,,,,,,,,,,,,METAR,27.0
KCGE 252105Z AUTO VRB06KT 10SM CLR 15/M00 A3019 RMK A01,KCGE,2023-04-25T21:05:00Z,38.53,-76.03,15.0,0.0,0,6,,10.0,30.188976,,,TRUE,TRUE,,,,,,,CLR,,,,,,,,VFR,,,,,,,,,,,,SPECI,5.0
KCBE 252105Z AUTO 24006KT 10SM SCT090 16/M04 A3017 RMK AO2 T01581043,KCBE,2023-04-25T21:05:00Z,39.62,-78.77,15.8,-4.3,240,6,,10.0,30.171259,,,TRUE,TRUE,,,,,,,SCT,9000,,,,,,,VFR,,,,,,,,,,,,METAR,226.0
KAUG 252105Z AUTO 14007KT 10SM OVC008 07/04 A3022 RMK AO2 CIG 007V011 T00670044,KAUG,2023-04-25T21:05:00Z,44.32,-69.8,6.7,4.4,140,7,,10.0,30.221457,,,TRUE,TRUE,,,,,,,OVC,800,,,,,,,IFR,,,,,,,,,,,,SPECI,107.0
KASJ 252105Z AUTO 00000KT 10SM SCT060 SCT075 18/04 A3015 RMK AO2 T01790039,KASJ,2023-04-25T21:05:00Z,36.28,-77.17,17.9,3.9,0,0,,10.0,30.15059,,,TRUE,TRUE,,,,,,,SCT,6000,SCT,7500,,,,,VFR,,,,,,,,,,,,METAR,20.0
KACZ 252105Z AUTO 09004KT 10SM BKN080 OVC120 20/05 A3011 RMK AO2 T02040048,KACZ,2023-04-25T21:05:00Z,,,20.4,4.8,90,4,,10.0,30.109253,,,TRUE,TRUE,,,,,,,BKN,8000,OVC,12000,,,,,VFR,,,,,,,,,,,,METAR,
K7W6 252105Z AUTO 04013G16KT 10SM CLR 18/06 A3015 RMK AO2 T01830062,K7W6,2023-04-25T21:05:00Z,35.55,-75.95,18.3,6.2,40,13,16,10.0,30.15059,,,TRUE,TRUE,,,,,,,CLR,,,,,,,,VFR,,,,,,,,,,,,METAR,1.0
K24A 252105Z AUTO 17005KT 10SM -DZ BKN060 OVC070 12/03 A3011 RMK AO2 T01240033,K24A,2023-04-25T21:05:00Z,35.32,-83.2,12.4,3.3,170,5,,10.0,30.109253,,,TRUE,TRUE,,,,,,-DZ,BKN,6000,OVC,7000,,,,,VFR,,,,,,,,,,,,METAR,864.0
CYMM 252105Z AUTO 26006KT 9SM -RA FEW023 OVC044 06/02 A2981 RMK SLP113,CYMM,2023-04-25T21:05:00Z,56.65,-111.22,6.0,2.0,260,6,,9.0,29.811024,1011.3,,TRUE,,,,,,,-RA,FEW,2300,OVC,4400,,,,,VFR,,,,,,,,,,,,SPECI,371.0
PATG 252104Z AUTO 03006KT 2 1/2SM -SN BR OVC019 01/M01 A2948 RMK AO2 VIS 1 3/4V4 P0000 FZRANO,PATG,2023-04-25T21:04:00Z,59.05,-160.38,1.0,-1.0,30,6,,2.5,29.480314,,,TRUE,TRUE,,,,TRUE,,-SN BR,OVC,1900,,,,,,,IFR,,,,,,0.005,,,,,,METAR,1.0
KVPZ 252104Z AUTO 01011KT 10SM FEW020 07/02 A3016 RMK AO2 T00720017,KVPZ,2023-04-25T21:04:00Z,41.45,-87.0,7.2,1.7,10,11,,10.0,30.159449,,,TRUE,TRUE,,,,,,,FEW,2000,,,,,,,VFR,,,,,,,,,,,,METAR,235.0
KICT 252104Z 15008KT 10SM -RA SCT019 OVC030 11/08 A3002 RMK AO2 P0000 T01060078,KICT,2023-04-25T21:04:00Z,37.65,-97.43,10.6,7.8,150,8,,10.0,30.02067,,,,TRUE,,,,,,-RA,SCT,1900,OVC,3000,,,,,MVFR,,,,,,0.005,,,,,,SPECI,428.0
KHYI 252104Z 04007KT 10SM BKN026 OVC034 24/19 A2985 RMK AO2,KHYI,2023-04-25T21:04:00Z,29.88,-97.87,24.0,19.0,40,7,,10.0,29.84941,,,,TRUE,,,,,,,BKN,2600,OVC,3400,,,,,MVFR,,,,,,,,,,,,METAR,180.0
KGTB 252104Z AUTO 24013KT 9SM SCT065 BKN085 09/M05 A3014 RMK AO2 WSHFT 2056 SLP211,KGTB,2023-04-25T21:04:00Z,44.07,-75.72,9.0,-5.0,240,13,,9.0,30.138779,1021.1,,TRUE,TRUE,,,,,,,SCT,6500,BKN,8500,,,,,VFR,,,,,,,,,,,,SPECI,206.0
KTUL 252103Z 12007KT 10SM -RA FEW012 BKN026 OVC033 11/10 A3004 RMK AO2 P0000 T01060100,KTUL,2023-04-25T21:03:00Z,36.2,-95.88,10.6,10.0,120,7,,10.0,30.041338,,,,TRUE,,,,,,-RA,FEW,1200,BKN,2600,OVC,3300,,,MVFR,,,,,,0.005,,,,,,SPECI,196.0
KMKO 252103Z AUTO 12011KT 4SM -RA BR FEW007 BKN012 OVC070 10/09 A3005 RMK AO2 P0002 T01000094,KMKO,2023-04-25T21:03:00Z,35.65,-95.37,10.0,9.4,120,11,,4.0,30.050198,,,TRUE,TRUE,,,,,,-RA BR,FEW,700,BKN,1200,OVC,7000,,,MVFR,,,,,,0.02,,,,,,METAR,184.0
KCYS 252103Z 07009KT 10SM BKN014 BKN019 OVC110 07/03 A2993 RMK AO2 T00720028,KCYS,2023-04-25T21:03:00Z,41.15,-104.8,7.2,2.8,70,9,,10.0,29.929134,,,,TRUE,,,,,,,BKN,1400,BKN,1900,OVC,11000,,,MVFR,,,,,,,,,,,,SPECI,1868.0
RKTE 252102Z 17003KT 4400 BR FEW010 BKN022 BKN060 05/05 A2987 RMK CIG022,RKTE,2023-04-25T21:02:00Z,36.57,127.5,5.0,5.0,170,3,,2.73,29.870079,,,,,,,,,,BR,FEW,1000,BKN,2200,BKN,6000,,,IFR,,,,,,,,,,,,SPECI,78.0
PHMK 252102Z 02005KT 6SM -RA SCT010 OVC017 22/21 A3006 RMK AO2 RAB2057 P0000 T02220211,PHMK,2023-04-25T21:02:00Z,21.15,-157.1,22.2,21.1,20,5,,6.0,30.059055,,,,TRUE,,,,,,-RA,SCT,1000,OVC,1700,,,,,MVFR,,,,,,0.005,,,,,,SPECI,135.0
PAHX 252102Z AUTO 03014KT 10SM OVC049 M03/M09 A2967 RMK AO2 SLP046 T10281089 58003 FZRANO,PAHX,2023-04-25T21:02:00Z,62.7,-159.57,-2.8,-8.9,30,14,,10.0,29.66929,1004.6,,TRUE,TRUE,,,,TRUE,,,OVC,4900,,,,,,,VFR,-0.3,,,,,,,,,,,METAR,20.0
KVCT 252102Z 14014KT 10SM SCT023 BKN030 OVC090 24/21 A2985 RMK AO2 T02440206,KVCT,2023-04-25T21:02:00Z,28.87,-96.93,24.4,20.6,140,14,,10.0,29.84941,,,,TRUE,,,,,,,SCT,2300,BKN,3000,OVC,9000,,,MVFR,,,,,,,,,,,,SPECI,33.0
KLEE 252102Z 07003KT 10SM -RA BKN030 BKN070 OVC095 21/21 A2994 RMK AO2 LTG DSNT E-S TSE2056 P0001 T02110206,KLEE,2023-04-25T21:02:00Z,28.82,-81.82,21.1,20.6,70,3,,10.0,29.940945,,,,TRUE,,,,,,-RA,BKN,3000,BKN,7000,OVC,9500,,,MVFR,,,,,,0.01,,,,,,SPECI,21.0
KBVY 252102Z 13009KT 10SM BKN024 BKN029 OVC095 10/06 A3016 RMK AO2 T01000061,KBVY,2023-04-25T21:02:00Z,42.58,-70.92,10.0,6.1,130,9,,10.0,30.159449,,,,TRUE,,,,,,,BKN,2400,BKN,2900,OVC,9500,,,MVFR,,,,,,,,,,,,SPECI,28.0
KAPN 252102Z AUTO 00000KT 4SM RA BR OVC016 04/02 A3016 RMK AO2 P0002 T00390017,KAPN,2023-04-25T21:02:00Z,45.07,-83.57,3.9,1.7,0,0,,4.0,30.159449,,,TRUE,TRUE,,,,,,RA BR,OVC,1600,,,,,,,MVFR,,,,,,0.02,,,,,,SPECI,208.0
PAFS 252101Z AUTO 06009KT 10SM CLR M01/M11 A2969 RMK AO2 SLP064 T10111106 58002 FZRANO,PAFS,2023-04-25T21:01:00Z,63.02,-154.35,-1.1,-10.6,60,9,,10.0,29.68996,1006.4,,TRUE,TRUE,,,,TRUE,,,CLR,,,,,,,,VFR,-0.2,,,,,,,,,,,METAR,131.0
KACT 252101Z 14009KT 10SM BKN026 BKN033 OVC080 21/16 A2988 RMK AO2 T02110156,KACT,2023-04-25T21:01:00Z,31.62,-97.23,21.1,15.6,140,9,,10.0,29.878937,,,,TRUE,,,,,,,BKN,2600,BKN,3300,OVC,8000,,,MVFR,,,,,,,,,,,,METAR,150.0
ZYTX 252100Z 35003MPS 320V020 9999 BKN020 03/M00 Q1015 NOSIG,ZYTX,2023-04-25T21:00:00Z,41.63,123.48,3.0,0.0,350,6,,6.21,29.970472,,,,,,TRUE,,,,,BKN,2000,,,,,,,MVFR,,,,,,,,,,,,METAR,56.0
ZYTL 252100Z 32003MPS 280V010 CAVOK 06/01 Q1016 NOSIG,ZYTL,2023-04-25T21:00:00Z,38.97,121.55,6.0,1.0,320,6,,6.21,30.0,,,,,,TRUE,,,,,CAVOK,,,,,,,,VFR,,,,,,,,,,,,METAR,33.0
ZYHB 252100Z 19001MPS 6000 NSC M05/M05 Q1012 NOSIG,ZYHB,2023-04-25T21:00:00Z,45.62,126.25,-5.0,-5.0,190,2,,3.73,29.88189,,,,,,TRUE,,,,,CLR,,,,,,,,MVFR,,,,,,,,,,,,METAR,134.0
ZYCC 252100Z VRB01MPS 3000 BR SCT007 BKN030 M01/M02 Q1013 NOSIG,ZYCC,2023-04-25T21:00:00Z,43.98,125.68,-1.0,-2.0,0,2,,1.86,29.911417,,,,,,TRUE,,,,BR,SCT,700,BKN,3000,,,,,IFR,,,,,,,,,,,,METAR,211.0
ZWWW 252100Z 24002MPS CAVOK 11/05 Q1023 NOSIG,ZWWW,2023-04-25T21:00:00Z,43.9,87.47,11.0,5.0,240,4,,6.21,30.206694,,,,,,TRUE,,,,,CAVOK,,,,,,,,VFR,,,,,,,,,,,,METAR,654.0
ZWSH 252100Z VRB02MPS 9999 BKN040 FEW040CB 18/M07 Q1013 NOSIG,ZWSH,2023-04-25T21:00:00Z,39.55,76.02,18.0,-7.0,0,4,,6.21,29.911417,,,,,,TRUE,,,,,BKN,4000,FEW,4000,,,,,VFR,,,,,,,,,,,,METAR,1374.0
ZUUU 252100Z VRB01MPS CAVOK 17/11 Q1015 NOSIG,ZUUU,2023-04-25T21:00:00Z,30.58,103.95,17.0,11.0,0,2,,6.21,29.970472,,,,,,TRUE,,,,,CAVOK,,,,,,,,VFR,,,,,,,,,,,,METAR,494.0
ZUTF 252100Z 13002MPS CAVOK 16/11 Q1015 NOSIG,ZUTF,2023-04-25T21:00:00Z,30.3,104.43,16.0,11.0,130,4,,6.21,29.970472,,,,,,TRUE,,,,,CAVOK,,,,,,,,VFR,,,,,,,,,,,,METAR,443.0
ZUGY 252100Z 02002MPS 9999 BKN043 08/07 Q1019 NOSIG,ZUGY,2023-04-25T21:00:00Z,26.53,106.8,8.0,7.0,20,4,,6.21,30.088583,,,,,,TRUE,,,,,BKN,4300,,,,,,,VFR,,,,,,,,,,,,METAR,1130.0
ZUCK 252100Z 35003MPS CAVOK 15/11 Q1017 NOSIG,ZUCK,2023-04-25T21:00:00Z,29.72,106.63,15.0,11.0,350,6,,6.21,30.029528,,,,,,TRUE,,,,,CAVOK,,,,,,,,VFR,,,,,,,,,,,,METAR,416.0
ZSSS 252100Z 32003MPS 290V350 CAVOK 15/10 Q1018 NOSIG,ZSSS,2023-04-25T21:00:00Z,31.2,121.33,15.0,10.0,320,6,,6.21,30.059055,,,,,,TRUE,,,,,CAVOK,,,,,,,,VFR,,,,,,,,,,,,METAR,2.0
ZSQD 252100Z 34002MPS CAVOK 07/04 Q1017 NOSIG,ZSQD,2023-04-25T21:00:00Z,36.27,120.38,7.0,4.0,340,4,,6.21,30.029528,,,,,,TRUE,,,,,CAVOK,,,,,,,,VFR,,,,,,,,,,,,METAR,8.0
ZSPD 252100Z 30003MPS 240V320 CAVOK 15/10 Q1017 NOSIG,ZSPD,2023-04-25T21:00:00Z,31.15,121.8,15.0,10.0,300,6,,6.21,30.029528,,,,,,TRUE,,,,,CAVOK,,,,,,,,VFR,,,,,,,,,,,,METAR,4.0
ZSOF 252100Z 16003MPS 4000 BR NSC 09/08 Q1017 BECMG TL2230 2500,ZSOF,2023-04-25T21:00:00Z,31.98,116.97,9.0,8.0,160,6,,2.49,30.029528,,,,,,,,,,BR,CLR,,,,,,,,IFR,,,,,,,,,,,,SPECI,23.0
ZSNJ 252100Z 29001MPS 2500 BR FEW033 09/09 Q1018 BECMG TL2250 3000,ZSNJ,2023-04-25T21:00:00Z,31.75,118.87,9.0,9.0,290,2,,1.55,30.059055,,,,,,,,,,BR,FEW,3300,,,,,,,IFR,,,,,,,,,,,,METAR,27.0
ZSNB 252100Z 29002MPS 260V330 6000 NSC 14/10 Q1018 NOSIG,ZSNB,2023-04-25T21:00:00Z,29.83,121.47,14.0,10.0,290,4,,3.73,30.059055,,,,,,TRUE,,,,,CLR,,,,,,,,MVFR,,,,,,,,,,,,METAR,5.0
ZSHC 252100Z 21001MPS CAVOK 13/11 Q1018 NOSIG,ZSHC,2023-04-25T21:00:00Z,30.22,120.43,13.0,11.0,210,2,,6.21,30.059055,,,,,,TRUE,,,,,CAVOK,,,,,,,,VFR,,,,,,,,,,,,METAR,8.0
ZSFZ 252100Z 01003MPS 7000 SCT010 OVC023 16/15 Q1016 NOSIG,ZSFZ,2023-04-25T21:00:00Z,25.93,119.67,16.0,15.0,10,6,,4.35,30.0,,,,,,TRUE,,,,,SCT,1000,OVC,2300,,,,,MVFR,,,,,,,,,,,,METAR,14.0
ZSAM 252100Z 08004MPS 4000 -RA BR BKN006 OVC017 17/17 Q1014 BECMG TL2250 BKN010 OVC020,ZSAM,2023-04-25T21:00:00Z,24.53,118.13,17.0,17.0,80,8,,2.49,29.940945,,,,,,,,,,-RA BR,BKN,600,OVC,1700,,,,,IFR,,,,,,,,,,,,METAR,13.0
ZPPP 252100Z 36004MPS 9999 SCT030 11/07 Q1021 NOSIG,ZPPP,2023-04-25T21:00:00Z,25.0,102.65,11.0,7.0,360,8,,6.21,30.147638,,,,,,TRUE,,,,,SCT,3000,,,,,,,VFR,,,,,,,,,,,,METAR,1885.0
ZMUB 252100Z VRB01MPS 9999 SCT100 M04/M10 Q1001 NOSIG RMK QFE645.1 62 NT,ZMUB,2023-04-25T21:00:00Z,47.83,106.75,-4.0,-10.0,0,2,,6.21,29.557087,,,,,,TRUE,,,,,SCT,10000,,,,,,,VFR,,,,,,,,,,,,SPECI,1300.0
ZMCK 252100Z 07005MPS 9999 SCT100 02/M12 Q1001 NOSIG RMK QFE636.9 36 NT,ZMCK,2023-04-25T21:00:00Z,47.65,106.82,2.0,-12.0,70,10,,6.21,29.557087,,,,,,TRUE,,,,,SCT,10000,,,,,,,VFR,,,,,,,,,,,,METAR,1366.0
ZLXY 252100Z 24002MPS 6000 NSC 09/09 Q1014 NOSIG,ZLXY,2023-04-25T21:00:00Z,34.43,108.75,9.0,9.0,240,4,,3.73,29.940945,,,,,,TRUE,,,,,CLR,,,,,,,,MVFR,,,,,,,,,,,,METAR,478.0
ZLLL 252100Z 32004MPS CAVOK 04/M02 Q1014 NOSIG,ZLLL,2023-04-25T21:00:00Z,36.52,103.62,4.0,-2.0,320,8,,6.21,29.940945,,,,,,TRUE,,,,,CAVOK,,,,,,,,VFR,,,,,,,,,,,,METAR,1939.0
ZJSY 252100Z VRB01MPS 9999 BKN050 25/23 Q1011 NOSIG,ZJSY,2023-04-25T21:00:00Z,18.3,109.42,25.0,23.0,0,2,,6.21,29.852362,,,,,,TRUE,,,,,BKN,5000,,,,,,,VFR,,,,,,,,,,,,METAR,27.0
ZJHK 252100Z 05005MPS 9999 BKN014 BKN023 22/19 Q1013 NOSIG,ZJHK,2023-04-25T21:00:00Z,19.93,110.43,22.0,19.0,50,10,,6.21,29.911417,,,,,,TRUE,,,,,BKN,1400,BKN,2300,,,,,MVFR,,,,,,,,,,,,METAR,21.0
ZHHH 252100Z VRB01MPS CAVOK 11/10 Q1018 NOSIG,ZHHH,2023-04-25T21:00:00Z,30.78,114.22,11.0,10.0,0,2,,6.21,30.059055,,,,,,TRUE,,,,,CAVOK,,,,,,,,VFR,,,,,,,,,,,,METAR,33.0
ZHCC 252100Z 28001MPS CAVOK 08/07 Q1016 NOSIG,ZHCC,2023-04-25T21:00:00Z,34.52,113.83,8.0,7.0,280,2,,6.21,30.0,,,,,,TRUE,,,,,CAVOK,,,,,,,,VFR,,,,,,,,,,,,METAR,149.0
ZGSZ 252100Z 36006MPS 9999 FEW020 BKN050 18/14 Q1014 NOSIG,ZGSZ,2023-04-25T21:00:00Z,22.63,113.8,18.0,14.0,360,12,,6.21,29.940945,,,,,,TRUE,,,,,FEW,2000,BKN,5000,,,,,VFR,,,,,,,,,,,,METAR,18.0
ZGOW 252100Z 01004MPS 9999 OVC040 18/14 Q1014 NOSIG,ZGOW,2023-04-25T21:00:00Z,23.55,116.5,18.0,14.0,10,8,,6.21,29.940945,,,,,,TRUE,,,,,OVC,4000,,,,,,,VFR,,,,,,,,,,,,METAR,4.0
ZGNN 252100Z 00000MPS CAVOK 18/15 Q1015 NOSIG,ZGNN,2023-04-25T21:00:00Z,22.62,108.17,18.0,15.0,0,0,,6.21,29.970472,,,,,,TRUE,,,,,CAVOK,,,,,,,,VFR,,,,,,,,,,,,METAR,128.0
ZGKL 252100Z 02002MPS CAVOK 11/11 Q1017 NOSIG,ZGKL,2023-04-25T21:00:00Z,25.22,110.03,11.0,11.0,20,4,,6.21,30.029528,,,,,,TRUE,,,,,CAVOK,,,,,,,,VFR,,,,,,,,,,,,METAR,151.0
ZGHA 252100Z 07001MPS 0900 R18R/0500N R18L/0450N FG NSC 09/08 Q1019 BECMG TL2140 0400,ZGHA,2023-04-25T21:00:00Z,28.18,113.22,9.0,8.0,70,2,,0.56,30.088583,,,,,,,,,,FG,CLR,,,,,,,,LIFR,,,,,,,,,,,,METAR,61.0
ZGGG 252100Z 32004MPS 9999 FEW030 15/13 Q1016 NOSIG,ZGGG,2023-04-25T21:00:00Z,23.4,113.3,15.0,13.0,320,8,,6.21,30.0,,,,,,TRUE,,,,,FEW,3000,,,,,,,VFR,,,,,,,,,,,,METAR,11.0
ZBYN 252100Z VRB01MPS CAVOK 02/M02 Q1016 NOSIG,ZBYN,2023-04-25T21:00:00Z,37.73,112.63,2.0,-2.0,0,2,,6.21,30.0,,,,,,TRUE,,,,,CAVOK,,,,,,,,VFR,,,,,,,,,,,,METAR,778.0
ZBTJ 252100Z 22001MPS CAVOK 06/05 Q1017 NOSIG,ZBTJ,2023-04-25T21:00:00Z,39.12,117.35,6.0,5.0,220,2,,6.21,30.029528,,,,,,TRUE,,,,,CAVOK,,,,,,,,VFR,,,,,,,,,,,,METAR,4.0
ZBSJ 252100Z 31002MPS CAVOK 04/01 Q1018 NOSIG,ZBSJ,2023-04-25T21:00:00Z,38.28,114.7,4.0,1.0,310,4,,6.21,30.059055,,,,,,TRUE,,,,,CAVOK,,,,,,,,VFR,,,,,,,,,,,,METAR,70.0
ZBHH 252100Z 07002MPS CAVOK M00/M10 Q1013 NOSIG,ZBHH,2023-04-25T21:00:00Z,40.85,111.82,0.0,-10.0,70,4,,6.21,29.911417,,,,,,TRUE,,,,,CAVOK,,,,,,,,VFR,,,,,,,,,,,,METAR,1081.0
ZBAD 252100Z 24003MPS CAVOK M00/M05 Q1017 NOSIG,ZBAD,2023-04-25T21:00:00Z,39.5,116.42,0.0,-5.0,240,6,,6.21,30.029528,,,,,,TRUE,,,,,CAVOK,,,,,,,,VFR,,,,,,,,,,,,METAR,25.0
ZBAA 252100Z 00000MPS CAVOK 00/M04 Q1017 NOSIG,ZBAA,2023-04-25T21:00:00Z,40.07,116.6,0.0,-4.0,0,0,,6.21,30.029528,,,,,,TRUE,,,,,CAVOK,,,,,,,,VFR,,,,,,,,,,,,METAR,31.0
YWLM 252100Z 31005KT 9999 SCT030 11/11 Q1027,YWLM,2023-04-25T21:00:00Z,-32.8,151.83,11.0,11.0,310,5,,6.21,30.324802,,,,,,,,,,,SCT,3000,,,,,,,VFR,,,,,,,,,,,,METAR,7.0
YSTW 252100Z AUTO 14006KT 9999 // NCD 10/08 Q1027 RF00.0/000.0,YSTW,2023-04-25T21:00:00Z,-31.08,150.85,10.0,8.0,140,6,,6.21,30.324802,,,TRUE,,,,,,,,CLR,,,,,,,,VFR,,,,,,,,,,,,METAR,404.0
YSSY 252100Z 30005KT 9999 FEW030 15/13 Q1028 HZ,YSSY,2023-04-25T21:00:00Z,-33.95,151.17,15.0,13.0,300,5,,6.21,30.35433,,,,,,,,,,HZ,FEW,3000,,,,,,,VFR,,,,,,,,,,,,METAR,3.0
YSRI 252100Z AUTO 00000KT 0200 // OVC002 12/12 Q1028 RF00.0/000.2,YSRI,2023-04-25T21:00:00Z,-33.6,150.77,12.0,12.0,0,0,,0.12,30.35433,,,TRUE,,,,,,,,OVC,200,,,,,,,LIFR,,,,,,,,,,,,SPECI,19.0
YSNF 252100Z AUTO 11010KT 9999 // BKN045 OVC053 19/12 Q1023,YSNF,2023-04-25T21:00:00Z,-29.03,167.93,19.0,12.0,110,10,,6.21,30.206694,,,TRUE,,,,,,,,BKN,4500,OVC,5300,,,,,VFR,,,,,,,,,,,,SPECI,113.0
YSDU 252100Z AUTO 14008KT 9999 // NCD 10/09 Q1027 RF00.0/000.0,YSDU,2023-04-25T21:00:00Z,-32.22,148.57,10.0,9.0,140,8,,6.21,30.324802,,,TRUE,,,,,,,,CLR,,,,,,,,VFR,,,,,,,,,,,,SPECI,285.0
YSCB 252100Z AUTO 36001KT 9999 // BKN025 05/05 Q1029 RF00.0/000.0,YSCB,2023-04-25T21:00:00Z,-35.3,149.18,5.0,5.0,360,1,,6.21,30.383858,,,TRUE,,,,,,,,BKN,2500,,,,,,,MVFR,,,,,,,,,,,,SPECI,577.0
YPWR 252100Z AUTO 04011KT 9999 // NCD 19/07 Q1017 RF00.0/000.0,YPWR,2023-04-25T21:00:00Z,-31.15,136.82,19.0,7.0,40,11,,6.21,30.029528,,,TRUE,,,,,,,,CLR,,,,,,,,VFR,,,,,,,,,,,,METAR,169.0
YPTN 252100Z AUTO 13004KT 9999 // NCD 24/22 Q1011 RF00.0/000.0,YPTN,2023-04-25T21:00:00Z,-14.52,132.38,24.0,22.0,130,4,,6.21,29.852362,,,TRUE,,,,,,,,CLR,,,,,,,,VFR,,,,,,,,,,,,SPECI,135.0
YPPD 252100Z AUTO 00000KT 9999 // SCT110 25/25 Q1011 RF00.0/000.0,YPPD,2023-04-25T21:00:00Z,-20.37,118.62,25.0,25.0,0,0,,6.21,29.852362,,,TRUE,,,,,,,,SCT,11000,,,,,,,VFR,,,,,,,,,,,,SPECI,6.0
YPLM 252100Z AUTO 21009KT 9999 // NCD 14/08 Q1015 RF00.0/000.0,YPLM,2023-04-25T21:00:00Z,-22.23,114.08,14.0,8.0,210,9,,6.21,29.970472,,,TRUE,,,,,,,,CLR,,,,,,,,VFR,,,,,,,,,,,,SPECI,5.0
YPKU 252100Z AUTO 00000KT 9999 // ////// 22/20 Q1010 RF00.0////./,YPKU,2023-04-25T21:00:00Z,-15.77,128.7,22.0,20.0,0,0,,6.21,29.822834,,,TRUE,,,,,,,,,,,,,,,,,,,,,,,,,,,,METAR,42.0
YPKG 252100Z AUTO 31008KT 9999 // NCD 10/06 Q1011 RF00.0/003.4,YPKG,2023-04-25T21:00:00Z,-30.78,121.45,10.0,6.0,310,8,,6.21,29.852362,,,TRUE,,,,,,,,CLR,,,,,,,,VFR,,,,,,,,,,,,METAR,372.0
YPJT 252100Z AUTO 15005KT 9999 // SCT037 SCT043 BKN049 13/11 Q1013,YPJT,2023-04-25T21:00:00Z,-32.1,115.88,13.0,11.0,150,5,,6.21,29.911417,,,TRUE,,,,,,,,SCT,3700,SCT,4300,BKN,4900,,,VFR,,,,,,,,,,,,METAR,29.0
YPGV 252100Z AUTO 14005KT 9999 // SCT070 SCT100 OVC120 24/23 Q1010,YPGV,2023-04-25T21:00:00Z,-12.27,136.82,24.0,23.0,140,5,,6.21,29.822834,,,TRUE,,,,,,,,SCT,7000,SCT,10000,OVC,12000,,,VFR,,,,,,,,,,,,METAR,53.0
YPEA 252100Z AUTO 06004KT 9999 -SHRA BKN034 BKN058 BKN100 14/12 Q1013,YPEA,2023-04-25T21:00:00Z,-31.67,116.02,14.0,12.0,60,4,,6.21,29.911417,,,TRUE,,,,,,,-SHRA,BKN,3400,BKN,5800,BKN,10000,,,VFR,,,,,,,,,,,,METAR,38.0
YPDN 252100Z 10005KT 9999 FEW013 25/23 Q1009,YPDN,2023-04-25T21:00:00Z,-12.42,130.9,25.0,23.0,100,5,,6.21,29.793306,,,,,,,,,,,FEW,1300,,,,,,,VFR,,,,,,,,,,,,METAR,32.0
YPCC 252100Z AUTO 14015KT 9999 // BKN025 BKN033 OVC040 26/23 Q1009,YPCC,2023-04-25T21:00:00Z,-12.18,96.83,26.0,23.0,140,15,,6.21,29.793306,,,TRUE,,,,,,,,BKN,2500,BKN,3300,OVC,4000,,,MVFR,,,,,,,,,,,,SPECI,3.0
YPAD 252100Z 03015KT CAVOK 22/09 Q1018,YPAD,2023-04-25T21:00:00Z,-34.95,138.52,22.0,9.0,30,15,,6.21,30.059055,,,,,,,,,,,CAVOK,,,,,,,,VFR,,,,,,,,,,,,METAR,2.0
YMML 252100Z 01010KT CAVOK 13/10 Q1025,YMML,2023-04-25T21:00:00Z,-37.67,144.82,13.0,10.0,10,10,,6.21,30.265747,,,,,,,,,,,CAVOK,,,,,,,,VFR,,,,,,,,,,,,METAR,115.0
YMLT 252100Z AUTO 18004KT 0100 FG OVC001 07/06 Q1025 RF00.2/000.4,YMLT,2023-04-25T21:00:00Z,-41.53,147.2,7.0,6.0,180,4,,0.06,30.265747,,,TRUE,,,,,,,FG,OVC,100,,,,,,,LIFR,,,,,,,,,,,,METAR,167.0
YMHB 252100Z 34009KT CAVOK 14/06 Q1023,YMHB,2023-04-25T21:00:00Z,-42.83,147.52,14.0,6.0,340,9,,6.21,30.206694,,,,,,,,,,,CAVOK,,,,,,,,VFR,,,,,,,,,,,,METAR,2.0
YMAV 252100Z AUTO 00000KT 9999 // NCD 07/07 Q1024 RF00.0/000.0,YMAV,2023-04-25T21:00:00Z,-38.03,144.48,7.0,7.0,0,0,,6.21,30.236221,,,TRUE,,,,,,,,CLR,,,,,,,,VFR,,,,,,,,,,,,METAR,11.0
YHID 252100Z AUTO 13011KT 9999 // BKN016 BKN025 OVC032 28/25 Q1009,YHID,2023-04-25T21:00:00Z,-10.58,142.3,28.0,25.0,130,11,,6.21,29.793306,,,TRUE,,,,,,,,BKN,1600,BKN,2500,OVC,3200,,,MVFR,,,,,,,,,,,,METAR,5.0
YGLA 252100Z AUTO 15009KT 9999 // NCD 20/14 Q1019 RF00.0/000.0,YGLA,2023-04-25T21:00:00Z,-23.87,151.22,20.0,14.0,150,9,,6.21,30.088583,,,TRUE,,,,,,,,CLR,,,,,,,,VFR,,,,,,,,,,,,METAR,17.0
YGEL 252100Z AUTO 20007KT 9999 // BKN052 16/10 Q1016 RF00.0/001.2,YGEL,2023-04-25T21:00:00Z,-28.8,114.7,16.0,10.0,200,7,,6.21,30.0,,,TRUE,,,,,,,,BKN,5200,,,,,,,VFR,,,,,,,,,,,,METAR,32.0
YFRT 252100Z AUTO 35013KT 9999 -RA OVC096 16/15 Q1009 RF00.2/003.4,YFRT,2023-04-25T21:00:00Z,-30.83,128.12,16.0,15.0,350,13,,6.21,29.793306,,,TRUE,,,,,,,-RA,OVC,9600,,,,,,,VFR,,,,,,,,,,,,METAR,159.0
YCIN 252100Z AUTO 16005KT 9999 // NCD 20/18 Q1010 RF00.0/000.0,YCIN,2023-04-25T21:00:00Z,-17.58,123.83,20.0,18.0,160,5,,6.21,29.822834,,,TRUE,,,,,,,,CLR,,,,,,,,VFR,,,,,,,,,,,,METAR,83.0
YCFS 252100Z AUTO 24009KT 9999 // OVC063 17/15 Q1026 RF00.0/002.0,YCFS,2023-04-25T21:00:00Z,-30.32,153.12,17.0,15.0,240,9,,6.21,30.295275,,,TRUE,,,,,,,,OVC,6300,,,,,,,VFR,,,,,,,,,,,,METAR,2.0
YBWW 252100Z AUTO 14005KT 9999 // SCT018 BKN039 11/10 Q1024,YBWW,2023-04-25T21:00:00Z,-27.55,151.8,11.0,10.0,140,5,,6.21,30.236221,,,TRUE,,,,,,,,SCT,1800,BKN,3900,,,,,VFR,,,,,,,,,,,,METAR,460.0
YBTL 252100Z AUTO 20007KT 9999 // NCD 22/18 Q1016 RF00.0/000.0,YBTL,2023-04-25T21:00:00Z,-19.25,146.75,22.0,18.0,200,7,,6.21,30.0,,,TRUE,,,,,,,,CLR,,,,,,,,VFR,,,,,,,,,,,,SPECI,4.0
YBSU 252100Z AUTO 19013KT 9999 -SHRA SCT023 BKN032 BKN041 18/16 Q1022,YBSU,2023-04-25T21:00:00Z,-26.6,153.08,18.0,16.0,190,13,,6.21,30.177166,,,TRUE,,,,,,,-SHRA,SCT,2300,BKN,3200,BKN,4100,,,VFR,,,,,,,,,,,,METAR,4.0
YBRK 252100Z AUTO 13008KT 9999 // NCD 19/13 Q1019 RF00.0/000.0,YBRK,2023-04-25T21:00:00Z,-23.37,150.47,19.0,13.0,130,8,,6.21,30.088583,,,TRUE,,,,,,,,CLR,,,,,,,,VFR,,,,,,,,,,,,SPECI,10.0
YBMA 252100Z AUTO 09006KT 9999 // SCT087 18/12 Q1016 RF00.0/000.0,YBMA,2023-04-25T21:00:00Z,-20.67,139.48,18.0,12.0,90,6,,6.21,30.0,,,TRUE,,,,,,,,SCT,8700,,,,,,,VFR,,,,,,,,,,,,SPECI,346.0
YBLN 252100Z AUTO 25008KT 9999 // SCT057 14/10 Q1011 RF00.0/018.2,YBLN,2023-04-25T21:00:00Z,-33.68,115.4,14.0,10.0,250,8,,6.21,29.852362,,,TRUE,,,,,,,,SCT,5700,,,,,,,VFR,,,,,,,,,,,,METAR,17.0
YBCS 252100Z AUTO 17008KT 9999 // SCT033 BKN041 OVC048 23/21 Q1014,YBCS,2023-04-25T21:00:00Z,-16.87,145.75,23.0,21.0,170,8,,6.21,29.940945,,,TRUE,,,,,,,,SCT,3300,BKN,4100,OVC,4800,,,VFR,,,,,,,,,,,,SPECI,2.0
YBCG 252100Z AUTO 20008KT 9999 // BKN036 BKN046 BKN058 18/16 Q1024,YBCG,2023-04-25T21:00:00Z,-28.17,153.5,18.0,16.0,200,8,,6.21,30.236221,,,TRUE,,,,,,,,BKN,3600,BKN,4600,BKN,5800,,,VFR,,,,,,,,,,,,SPECI,5.0
YBBN 252100Z 22009KT 9999 VCSH FEW008 BKN058 17/16 Q1023 RF00/0/001/4,YBBN,2023-04-25T21:00:00Z,-27.38,153.13,17.0,16.0,220,9,,6.21,30.206694,,,,,,,,,,VCSH,FEW,800,BKN,5800,,,,,VFR,,,,,,,,,,,,METAR,3.0
YBAS 252100Z AUTO /////KT 9999 // NCD 14/09 Q1016 RF00.0/000.0,YBAS,2023-04-25T21:00:00Z,-23.8,133.9,14.0,9.0,,,,6.21,30.0,,,TRUE,,,,,,,,CLR,,,,,,,,VFR,,,,,,,,,,,,SPECI,549.0
YAMB 252100Z 31004KT 9999 FEW020 BKN060 15/14 Q1023 RF00.0/000.6,YAMB,2023-04-25T21:00:00Z,-27.63,152.72,15.0,14.0,310,4,,6.21,30.206694,,,,,,,,,,,FEW,2000,BKN,6000,,,,,VFR,,,,,,,,,,,,METAR,26.0
WSSS 252100Z 34003KT 300V360 7000 FEW018 BKN300 26/25 Q1006 NOSIG,WSSS,2023-04-25T21:00:00Z,1.37,103.97,26.0,25.0,340,3,,4.35,29.704725,,,,,,TRUE,,,,,FEW,1800,BKN,30000,,,,,MVFR,,,,,,,,,,,,METAR,17.0
WSSL 252100Z VRB02KT 9999 FEW018 BKN300 26/25 Q1006,WSSL,2023-04-25T21:00:00Z,1.42,103.87,26.0,25.0,0,2,,6.21,29.704725,,,,,,,,,,,FEW,1800,BKN,30000,,,,,VFR,,,,,,,,,,,,METAR,11.0
WSAP 252100Z 02003KT 9999 FEW016 BKN300 27/24 Q1007,WSAP,2023-04-25T21:00:00Z,1.37,103.92,27.0,24.0,20,3,,6.21,29.734253,,,,,,,,,,,FEW,1600,BKN,30000,,,,,VFR,,,,,,,,,,,,METAR,20.0
WMSA 252100Z VRB02KT 7000 FEW005 25/24 Q1007,WMSA,2023-04-25T21:00:00Z,3.13,101.55,25.0,24.0,0,2,,4.35,29.734253,,,,,,,,,,,FEW,500,,,,,,,MVFR,,,,,,,,,,,,METAR,19.0
WMKP 252100Z 00000KT 8000 FEW025 27/26 Q1006 NOSIG,WMKP,2023-04-25T21:00:00Z,5.28,100.27,27.0,26.0,0,0,,4.97,29.704725,,,,,,TRUE,,,,,FEW,2500,,,,,,,MVFR,,,,,,,,,,,,METAR,4.0
WMKN 252100Z VRB02KT 9999 FEW022 26/25 Q1007,WMKN,2023-04-25T21:00:00Z,5.37,103.1,26.0,25.0,0,2,,6.21,29.734253,,,,,,,,,,,FEW,2200,,,,,,,VFR,,,,,,,,,,,,METAR,12.0
WMKM 252100Z VRB01KT 8000 FEW008 24/24 Q1007,WMKM,2023-04-25T21:00:00Z,2.27,102.25,24.0,24.0,0,1,,4.97,29.734253,,,,,,,,,,,FEW,800,,,,,,,MVFR,,,,,,,,,,,,METAR,9.0
WMKL 252100Z VRB02KT 9999 FEW025 27/25 Q1006,WMKL,2023-04-25T21:00:00Z,6.32,99.72,27.0,25.0,0,2,,6.21,29.704725,,,,,,,,,,,FEW,2500,,,,,,,VFR,,,,,,,,,,,,METAR,4.0
WMKK 252100Z VRB01KT 9000 FEW010 25/24 Q1007 NOSIG,WMKK,2023-04-25T21:00:00Z,2.75,101.72,25.0,24.0,0,1,,5.59,29.734253,,,,,,TRUE,,,,,FEW,1000,,,,,,,VFR,,,,,,,,,,,,METAR,21.0
WMKJ 252100Z VRB02KT 3000 BR FEW003 25/24 Q1006,WMKJ,2023-04-25T21:00:00Z,1.63,103.67,25.0,24.0,0,2,,1.86,29.704725,,,,,,,,,,BR,FEW,300,,,,,,,IFR,,,,,,,,,,,,METAR,38.0
WMKI 252100Z VRB02KT 8000 FEW026 25/24 Q1007,WMKI,2023-04-25T21:00:00Z,4.57,101.08,25.0,24.0,0,2,,4.97,29.734253,,,,,,,,,,,FEW,2600,,,,,,,MVFR,,,,,,,,,,,,METAR,37.0
WMKE 252100Z AUTO 00000KT //// // ////// 26/25 Q1007,WMKE,2023-04-25T21:00:00Z,4.53,103.43,26.0,25.0,0,0,,,29.734253,,,TRUE,,,,,,,,,,,,,,,,,,,,,,,,,,,,METAR,5.0
WMKD 252100Z 00000KT 9999 FEW025 26/25 Q1007 NOSIG,WMKD,2023-04-25T21:00:00Z,3.77,103.22,26.0,25.0,0,0,,6.21,29.734253,,,,,,TRUE,,,,,FEW,2500,,,,,,,VFR,,,,,,,,,,,,METAR,18.0
WMKC 252100Z VRB02KT 9999 FEW017CB 27/25 Q1007,WMKC,2023-04-25T21:00:00Z,6.17,102.28,27.0,25.0,0,2,,6.21,29.734253,,,,,,,,,,,FEW,1700,,,,,,,VFR,,,,,,,,,,,,METAR,7.0
WMKB 252100Z VRB02KT 7000 FEW024 25/24 Q1006 NOSIG,WMKB,2023-04-25T21:00:00Z,5.47,100.38,25.0,24.0,0,2,,4.35,29.704725,,,,,,TRUE,,,,,FEW,2400,,,,,,,MVFR,,,,,,,,,,,,METAR,4.0
WMBA 252100Z 00000KT 8000 FEW031 25/24 Q1006,WMBA,2023-04-25T21:00:00Z,4.22,100.7,25.0,24.0,0,0,,4.97,29.704725,,,,,,,,,,,FEW,3100,,,,,,,MVFR,,,,,,,,,,,,METAR,9.0
WMAU 252100Z 23005KT 6000 FEW002 SCT025 25/24 Q1007,WMAU,2023-04-25T21:00:00Z,2.38,103.88,25.0,24.0,230,5,,3.73,29.734253,,,,,,,,,,,FEW,200,SCT,2500,,,,,MVFR,,,,,,,,,,,,METAR,5.0
WIPP 252100Z 20003KT 5000 HZ SCT010 26/25 Q1007 NOSIG,WIPP,2023-04-25T21:00:00Z,-2.88,104.7,26.0,25.0,200,3,,3.11,29.734253,,,,,,TRUE,,,,HZ,SCT,1000,,,,,,,MVFR,,,,,,,,,,,,METAR,7.0
WIOO 252100Z AUTO 06001KT 9999 FEW019 25/24 Q1006,WIOO,2023-04-25T21:00:00Z,-0.15,109.4,25.0,24.0,60,1,,6.21,29.704725,,,TRUE,,,,,,,,FEW,1900,,,,,,,VFR,,,,,,,,,,,,METAR,4.0
WIMM 252100Z 19003KT 5000 HZ SCT018 26/25 Q1007 NOSIG,WIMM,2023-04-25T21:00:00Z,3.57,98.67,26.0,25.0,190,3,,3.11,29.734253,,,,,,TRUE,,,,HZ,SCT,1800,,,,,,,MVFR,,,,,,,,,,,,METAR,27.0
WIII 252100Z 20004KT 5000 HZ FEW020 26/25 Q1007 NOSIG,WIII,2023-04-25T21:00:00Z,-6.13,106.67,26.0,25.0,200,4,,3.11,29.734253,,,,,,TRUE,,,,HZ,FEW,2000,,,,,,,MVFR,,,,,,,,,,,,METAR,9.0
WIEE 252100Z AUTO VRB01KT 9999 BKN050 BKN250 OVC280 25/24 Q1006 NOSIG,WIEE,2023-04-25T21:00:00Z,-0.78,100.28,25.0,24.0,0,1,,6.21,29.704725,,,TRUE,,,TRUE,,,,,BKN,5000,BKN,25000,OVC,28000,,,VFR,,,,,,,,,,,,METAR,5.0
WIDD 252100Z 28001KT 9999 FEW014 26/25 Q1008 NOSIG,WIDD,2023-04-25T21:00:00Z,1.12,104.12,26.0,25.0,280,1,,6.21,29.763779,,,,,,TRUE,,,,,FEW,1400,,,,,,,VFR,,,,,,,,,,,,METAR,26.0
WIBB 252100Z AUTO 22001KT 9999 FEW017 25/25 Q1005,WIBB,2023-04-25T21:00:00Z,0.47,101.45,25.0,25.0,220,1,,6.21,29.675198,,,TRUE,,,,,,,,FEW,1700,,,,,,,VFR,,,,,,,,,,,,METAR,41.0
WBSB 252100Z 19002KT 9999 FEW005 FEW015CB BKN300 26/26 Q1007 NOSIG,WBSB,2023-04-25T21:00:00Z,4.93,114.92,26.0,26.0,190,2,,6.21,29.734253,,,,,,TRUE,,,,,FEW,500,FEW,1500,BKN,30000,,,VFR,,,,,,,,,,,,METAR,15.0
WBKW 252100Z VRB01KT 9999 FEW017 24/23 Q1007,WBKW,2023-04-25T21:00:00Z,4.32,118.12,24.0,23.0,0,1,,6.21,29.734253,,,,,,,,,,,FEW,1700,,,,,,,VFR,,,,,,,,,,,,METAR,17.0
WBKT 252100Z 13004KT 080V210 9999 FEW015 28/26 Q1007,WBKT,2023-04-25T21:00:00Z,6.92,116.83,28.0,26.0,130,4,,6.21,29.734253,,,,,,,,,,,FEW,1500,,,,,,,VFR,,,,,,,,,,,,METAR,11.0
WBKS 252100Z VRB02KT 9999 FEW015 27/25 Q1007,WBKS,2023-04-25T21:00:00Z,5.9,118.07,27.0,25.0,0,2,,6.21,29.734253,,,,,,,,,,,FEW,1500,,,,,,,VFR,,,,,,,,,,,,METAR,13.0
WBKL 252100Z 00000KT 9999 FEW013 26/25 Q1006,WBKL,2023-04-25T21:00:00Z,5.3,115.25,26.0,25.0,0,0,,6.21,29.704725,,,,,,,,,,,FEW,1300,,,,,,,VFR,,,,,,,,,,,,METAR,29.0
WBKK 252100Z 11004KT 9999 FEW015 25/24 Q1006 NOSIG,WBKK,2023-04-25T21:00:00Z,5.93,116.05,25.0,24.0,110,4,,6.21,29.704725,,,,,,TRUE,,,,,FEW,1500,,,,,,,VFR,,,,,,,,,,,,METAR,9.0
WBGY 252100Z AUTO 00000KT //// // ////// 25/25 Q1007,WBGY,2023-04-25T21:00:00Z,1.22,111.45,25.0,25.0,0,0,,,29.734253,,,TRUE,,,,,,,,,,,,,,,,,,,,,,,,,,,,SPECI,13.0
WBGS 252100Z VRB02KT 9999 FEW008 SCT018 25/24 Q1007,WBGS,2023-04-25T21:00:00Z,2.27,111.98,25.0,24.0,0,2,,6.21,29.734253,,,,,,,,,,,FEW,800,SCT,1800,,,,,VFR,,,,,,,,,,,,METAR,26.0
WBGR 252100Z VRB02KT 9999 SCT016 25/24 Q1006,WBGR,2023-04-25T21:00:00Z,4.32,113.98,25.0,24.0,0,2,,6.21,29.704725,,,,,,,,,,,SCT,1600,,,,,,,VFR,,,,,,,,,,,,METAR,18.0
WBGG 252100Z VRB02KT 9999 FEW020 25/23 Q1007 NOSIG,WBGG,2023-04-25T21:00:00Z,1.48,110.35,25.0,23.0,0,2,,6.21,29.734253,,,,,,TRUE,,,,,FEW,2000,,,,,,,VFR,,,,,,,,,,,,METAR,26.0
WBGB 252100Z VRB01KT 9999 FEW016 25/25 Q1007,WBGB,2023-04-25T21:00:00Z,3.12,113.02,25.0,25.0,0,1,,6.21,29.734253,,,,,,,,,,,FEW,1600,,,,,,,VFR,,,,,,,,,,,,METAR,34.0
WAYY 252100Z 34002KT 6000 -RA SCT015 24/24 Q1009 NOSIG,WAYY,2023-04-25T21:00:00Z,-4.53,136.88,24.0,24.0,340,2,,3.73,29.793306,,,,,,TRUE,,,,-RA,SCT,1500,,,,,,,MVFR,,,,,,,,,,,,METAR,32.0
WATT 252100Z 13005KT 7000 -RA SCT017 BKN070 25/25 Q1008 NOSIG,WATT,2023-04-25T21:00:00Z,-10.17,123.67,25.0,25.0,130,5,,4.35,29.763779,,,,,,TRUE,,,,-RA,SCT,1700,BKN,7000,,,,,MVFR,,,,,,,,,,,,METAR,104.0
WARR 252100Z 11006KT 7000 FEW020 28/25 Q1007 NOSIG,WARR,2023-04-25T21:00:00Z,-7.37,112.78,28.0,25.0,110,6,,4.35,29.734253,,,,,,TRUE,,,,,FEW,2000,,,,,,,MVFR,,,,,,,,,,,,METAR,3.0
WAQQ 252100Z 01003KT 8000 FEW015CB BKN015 26/25 Q1007 RESHRA,WAQQ,2023-04-25T21:00:00Z,3.33,117.57,26.0,25.0,10,3,,4.97,29.734253,,,,,,,,,,,FEW,1500,BKN,1500,,,,,MVFR,,,,,,,,,,,,METAR,6.0
WAPP 252100Z 36005KT 9999 FEW017 25/24 Q1007 NOSIG,WAPP,2023-04-25T21:00:00Z,-3.7,128.08,25.0,24.0,360,5,,6.21,29.734253,,,,,,TRUE,,,,,FEW,1700,,,,,,,VFR,,,,,,,,,,,,METAR,20.0
WAOO 252100Z AUTO 10003KT 9999 FEW060 FEW230 25/25 Q1006,WAOO,2023-04-25T21:00:00Z,-3.45,114.77,25.0,25.0,100,3,,6.21,29.704725,,,TRUE,,,,,,,,FEW,6000,FEW,23000,,,,,VFR,,,,,,,,,,,,METAR,23.0
WAMM 252100Z VRB01KT 9999 SCT020 24/23 Q1008 NOSIG METAR ,WAMM,2023-04-25T21:00:00Z,1.55,124.92,24.0,23.0,0,1,,6.21,29.763779,,,,,,TRUE,,,,,SCT,2000,,,,,,,VFR,,,,,,,,,,,,METAR,86.0
WALL 252100Z 00000KT 9000 FEW020 24/24 Q1007 NOSIG,WALL,2023-04-25T21:00:00Z,-1.27,116.9,24.0,24.0,0,0,,5.59,29.734253,,,,,,TRUE,,,,,FEW,2000,,,,,,,VFR,,,,,,,,,,,,METAR,3.0
WAJJ 252100Z 14002KT 9999 FEW010 26/23 Q1009 NOSIG,WAJJ,2023-04-25T21:00:00Z,-2.58,140.52,26.0,23.0,140,2,,6.21,29.793306,,,,,,TRUE,,,,,FEW,1000,,,,,,,VFR,,,,,,,,,,,,METAR,93.0
WAHS 252100Z 00000KT 6000 SCT014 26/25 Q1007 NOSIG,WAHS,2023-04-25T21:00:00Z,-6.98,110.38,26.0,25.0,0,0,,3.73,29.734253,,,,,,TRUE,,,,,SCT,1400,,,,,,,MVFR,,,,,,,,,,,,METAR,3.0
WADL 252100Z 08002KT 8000 SCT016 25/24 Q1009 NOSIG,WADL,2023-04-25T21:00:00Z,-8.75,116.28,25.0,24.0,80,2,,4.97,29.793306,,,,,,TRUE,,,,,SCT,1600,,,,,,,MVFR,,,,,,,,,,,,METAR,97.0
WADD 252100Z 06006KT 9000 -RA FEW014CB BKN015 26/25 Q1008 RETS TEMPO TL2200 9000 -RA,WADD,2023-04-25T21:00:00Z,-8.73,115.17,26.0,25.0,60,6,,5.59,29.763779,,,,,,,,,,-RA,FEW,1400,BKN,1500,,,,,MVFR,,,,,,,,,,,,SPECI,3.0
WABB 252100Z 10006KT 170V100 9999 SCT018 26/25 Q1009 NOSIG,WABB,2023-04-25T21:00:00Z,-1.18,136.12,26.0,25.0,100,6,,6.21,29.793306,,,,,,TRUE,,,,,SCT,1800,,,,,,,VFR,,,,,,,,,,,,METAR,12.0
WAAA 252100Z 13002KT 8000 FEW019 24/21 Q1007 NOSIG,WAAA,2023-04-25T21:00:00Z,-5.07,119.55,24.0,21.0,130,2,,4.97,29.734253,,,,,,TRUE,,,,,FEW,1900,,,,,,,MVFR,,,,,,,,,,,,METAR,13.0
VYYY 252100Z 25009KT 6000 FEW020 28/27 Q1005 NOSIG,VYYY,2023-04-25T21:00:00Z,16.9,96.13,28.0,27.0,250,9,,3.73,29.675198,,,,,,TRUE,,,,,FEW,2000,,,,,,,MVFR,,,,,,,,,,,,METAR,31.0
VVVD 252100Z AUTO 10001KT 9999 BKN072/// 20/19 Q1014 NOSIG,VVVD,2023-04-25T21:00:00Z,21.12,107.42,20.0,19.0,100,1,,6.21,29.940945,,,TRUE,,,TRUE,,,,,BKN,7200,,,,,,,VFR,,,,,,,,,,,,METAR,8.0
VVTS 252100Z 13007KT 9999 FEW020 29/25 Q1008 NOSIG,VVTS,2023-04-25T21:00:00Z,10.82,106.67,29.0,25.0,130,7,,6.21,29.763779,,,,,,TRUE,,,,,FEW,2000,,,,,,,VFR,,,,,,,,,,,,METAR,10.0
VVPQ 252100Z VRB03KT 9000 SCT015 24/23 Q1008 NOSIG,VVPQ,2023-04-25T21:00:00Z,10.23,103.97,24.0,23.0,0,3,,5.59,29.763779,,,,,,TRUE,,,,,SCT,1500,,,,,,,VFR,,,,,,,,,,,,METAR,8.0
VVPB 252100Z 36004KT 8000 SCT013 SCT040 26/25 Q1011 NOSIG,VVPB,2023-04-25T21:00:00Z,16.38,107.7,26.0,25.0,360,4,,4.97,29.852362,,,,,,TRUE,,,,,SCT,1300,SCT,4000,,,,,MVFR,,,,,,,,,,,,METAR,15.0
VVNB 252100Z 29003KT 6000 NSC 20/19 Q1014 NOSIG,VVNB,2023-04-25T21:00:00Z,21.22,105.8,20.0,19.0,290,3,,3.73,29.940945,,,,,,TRUE,,,,,CLR,,,,,,,,MVFR,,,,,,,,,,,,METAR,6.0
VVDN 252100Z 23002KT 8000 SCT015 SCT050 27/24 Q1011 NOSIG,VVDN,2023-04-25T21:00:00Z,16.03,108.2,27.0,24.0,230,2,,4.97,29.852362,,,,,,TRUE,,,,,SCT,1500,SCT,5000,,,,,MVFR,,,,,,,,,,,,METAR,7.0
VVCT 252100Z 09005KT 9999 FEW015 27/25 Q1008 NOSIG,VVCT,2023-04-25T21:00:00Z,10.08,105.72,27.0,25.0,90,5,,6.21,29.763779,,,,,,TRUE,,,,,FEW,1500,,,,,,,VFR,,,,,,,,,,,,METAR,6.0
VVCR 252100Z 36005KT 9999 FEW015 27/22 Q1010 NOSIG,VVCR,2023-04-25T21:00:00Z,12.0,109.22,27.0,22.0,360,5,,6.21,29.822834,,,,,,TRUE,,,,,FEW,1500,,,,,,,VFR,,,,,,,,,,,,METAR,12.0
VVCI 252100Z 30005KT 9999 FEW032 20/18 Q1014 NOSIG,VVCI,2023-04-25T21:00:00Z,20.82,106.73,20.0,18.0,300,5,,6.21,29.940945,,,,,,TRUE,,,,,FEW,3200,,,,,,,VFR,,,,,,,,,,,,METAR,6.0
VTUU 252100Z 06005KT 9000 NSC 27/22 Q1008 NOSIG,VTUU,2023-04-25T21:00:00Z,15.25,104.87,27.0,22.0,60,5,,5.59,29.763779,,,,,,TRUE,,,,,CLR,,,,,,,,VFR,,,,,,,,,,,,METAR,119.0
VTUK 252100Z VRB01KT 9000 NSC 27/22 Q1009 NOSIG,VTUK,2023-04-25T21:00:00Z,16.47,102.78,27.0,22.0,0,1,,5.59,29.793306,,,,,,TRUE,,,,,CLR,,,,,,,,VFR,,,,,,,,,,,,METAR,190.0
VTSS 252100Z 00000KT 9999 FEW020 24/23 Q1006 NOSIG,VTSS,2023-04-25T21:00:00Z,6.92,100.38,24.0,23.0,0,0,,6.21,29.704725,,,,,,TRUE,,,,,FEW,2000,,,,,,,VFR,,,,,,,,,,,,METAR,28.0
VTSP 252100Z VRB01KT 9999 FEW020 25/24 Q1006 NOSIG,VTSP,2023-04-25T21:00:00Z,8.12,98.32,25.0,24.0,0,1,,6.21,29.704725,,,,,,TRUE,,,,,FEW,2000,,,,,,,VFR,,,,,,,,,,,,METAR,12.0
VTSG 252100Z VRB01KT 5000 BR FEW030 25/24 Q1007 NOSIG,VTSG,2023-04-25T21:00:00Z,8.1,98.98,25.0,24.0,0,1,,3.11,29.734253,,,,,,TRUE,,,,BR,FEW,3000,,,,,,,MVFR,,,,,,,,,,,,METAR,32.0
VTCT 252100Z 29005KT 9000 -TSRA FEW018CB SCT045 28/18 Q1008 NOSIG,VTCT,2023-04-25T21:00:00Z,19.95,99.88,28.0,18.0,290,5,,5.59,29.763779,,,,,,TRUE,,,,-TSRA,FEW,1800,SCT,4500,,,,,VFR,,,,,,,,,,,,METAR,389.0
VTCC 252100Z 22002KT 9000 FEW035 27/19 Q1007 NOSIG,VTCC,2023-04-25T21:00:00Z,18.77,98.97,27.0,19.0,220,2,,5.59,29.734253,,,,,,TRUE,,,,,FEW,3500,,,,,,,VFR,,,,,,,,,,,,METAR,308.0
VTBU 252100Z 01004KT 6000 FEW020 27/25 Q1007 NOSIG,VTBU,2023-04-25T21:00:00Z,12.68,101.0,27.0,25.0,10,4,,3.73,29.734253,,,,,,TRUE,,,,,FEW,2000,,,,,,,MVFR,,,,,,,,,,,,METAR,12.0
VTBS 252100Z 00000KT 9999 FEW020 26/23 Q1007 NOSIG,VTBS,2023-04-25T21:00:00Z,13.68,100.75,26.0,23.0,0,0,,6.21,29.734253,,,,,,TRUE,,,,,FEW,2000,,,,,,,VFR,,,,,,,,,,,,METAR,1.0
VTBD 252100Z 03003KT 010V180 9000 FEW020 SCT030 25/24 Q1007 NOSIG,VTBD,2023-04-25T21:00:00Z,13.92,100.6,25.0,24.0,30,3,,5.59,29.734253,,,,,,TRUE,,,,,FEW,2000,SCT,3000,,,,,VFR,,,,,,,,,,,,METAR,6.0
"VRMM 252100Z 32007KT 9999 TS FEW017 FEW018CB BKN280 30/26 Q1008 RETS CB ENE,W TEMPO 4000 TSRA",VRMM,2023-04-25T21:00:00Z,4.2,73.52,30.0,26.0,320,7,,6.21,29.763779,,,,,,,,,,TS,FEW,1700,FEW,1800,BKN,28000,,,VFR,,,,,,,,,,,,METAR,2.0
VRMH 252100Z 33005KT 9999 FEW018 29/25 Q1008,VRMH,2023-04-25T21:00:00Z,6.75,73.17,29.0,25.0,330,5,,6.21,29.763779,,,,,,,,,,,FEW,1800,,,,,,,VFR,,,,,,,,,,,,METAR,1.0
"VRMG 252100Z 26015KT 9000 TS SCT017 FEW018CB BKN250 28/25 Q1008 RETS CB SW,W,NW TEMPO 4000 TSRA",VRMG,2023-04-25T21:00:00Z,-0.7,73.15,28.0,25.0,260,15,,5.59,29.763779,,,,,,,,,,TS,SCT,1700,FEW,1800,BKN,25000,,,VFR,,,,,,,,,,,,METAR,2.0
VOTV 252100Z 09004KT 3000 BR FEW015 SCT080 29/24 Q1007 NOSIG,VOTV,2023-04-25T21:00:00Z,8.48,76.92,29.0,24.0,90,4,,1.86,29.734253,,,,,,TRUE,,,,BR,FEW,1500,SCT,8000,,,,,IFR,,,,,,,,,,,,METAR,9.0
VOTR 252100Z VRB02KT 3000 BR FEW016 SCT100 27/25 Q1008 NOSIG,VOTR,2023-04-25T21:00:00Z,10.77,78.72,27.0,25.0,0,2,,1.86,29.763779,,,,,,TRUE,,,,BR,FEW,1600,SCT,10000,,,,,IFR,,,,,,,,,,,,METAR,90.0
VOMM 252100Z 10003KT 6000 SCT020 SCT100 30/27 Q1008 NOSIG,VOMM,2023-04-25T21:00:00Z,13.0,80.17,30.0,27.0,100,3,,3.73,29.763779,,,,,,TRUE,,,,,SCT,2000,SCT,10000,,,,,MVFR,,,,,,,,,,,,METAR,7.0
VOML 252100Z 05004KT 6000 SCT015 26/23 Q1008 NOSIG,VOML,2023-04-25T21:00:00Z,12.97,74.88,26.0,23.0,50,4,,3.73,29.763779,,,,,,TRUE,,,,,SCT,1500,,,,,,,MVFR,,,,,,,,,,,,METAR,100.0
VOMD 252100Z 00000KT 5000 HZ SCT0020 26/23 Q1008 NOSIG,VOMD,2023-04-25T21:00:00Z,9.83,78.08,26.0,23.0,0,0,,3.11,29.763779,,,,,,TRUE,,,,HZ,,,,,,,,,,,,,,,,,,,,,METAR,135.0
VOKN 252100Z 12005KT 4000 BR FEW012 SCT080 27/24 Q1008 NOSIG,VOKN,2023-04-25T21:00:00Z,11.92,75.55,27.0,24.0,120,5,,2.49,29.763779,,,,,,TRUE,,,,BR,FEW,1200,SCT,8000,,,,,IFR,,,,,,,,,,,,METAR,105.0
VOHS 252100Z 09013KT 3000 TSRA SCT015 FEW030CB BKN080 21/19 Q1013 NOSIG,VOHS,2023-04-25T21:00:00Z,17.23,78.43,21.0,19.0,90,13,,1.86,29.911417,,,,,,TRUE,,,,TSRA,SCT,1500,FEW,3000,BKN,8000,,,IFR,,,,,,,,,,,,METAR,607.0
VOCL 252100Z 05002KT 5000 BR FEW015 SCT080 24/22 Q1008 NOSIG,VOCL,2023-04-25T21:00:00Z,11.13,75.95,24.0,22.0,50,2,,3.11,29.763779,,,,,,TRUE,,,,BR,FEW,1500,SCT,8000,,,,,MVFR,,,,,,,,,,,,METAR,104.0
VOCI 252100Z 00000KT 3500 BR SCT015 SCT080 26/25 Q1008 NOSIG,VOCI,2023-04-25T21:00:00Z,10.15,76.4,26.0,25.0,0,0,,2.17,29.763779,,,,,,TRUE,,,,BR,SCT,1500,SCT,8000,,,,,IFR,,,,,,,,,,,,METAR,8.0
VOCB 252100Z 18004KT 4000 BR FEW012 SCT080 24/23 Q1010 NOSIG,VOCB,2023-04-25T21:00:00Z,11.02,77.03,24.0,23.0,180,4,,2.49,29.822834,,,,,,TRUE,,,,BR,FEW,1200,SCT,8000,,,,,IFR,,,,,,,,,,,,METAR,394.0
VOBL 252100Z 14006KT 6000 FEW015 24/20 Q1013 NOSIG,VOBL,2023-04-25T21:00:00Z,13.2,77.7,24.0,20.0,140,6,,3.73,29.911417,,,,,,TRUE,,,,,FEW,1500,,,,,,,MVFR,,,,,,,,,,,,METAR,908.0
VNKT 252100Z VRB02KT 7000 FEW015 12/10 Q1018 NOSIG,VNKT,2023-04-25T21:00:00Z,27.68,85.37,12.0,10.0,0,2,,4.35,30.059055,,,,,,TRUE,,,,,FEW,1500,,,,,,,MVFR,,,,,,,,,,,,METAR,1334.0
VMMC 252100Z 34015KT 9999 FEW018 SCT033 18/14 Q1014 NOSIG,VMMC,2023-04-25T21:00:00Z,22.15,113.58,18.0,14.0,340,15,,6.21,29.940945,,,,,,TRUE,,,,,FEW,1800,SCT,3300,,,,,VFR,,,,,,,,,,,,METAR,1.0
VILK 252100Z VRB02KT 4000 HZ FEW100 22/19 Q1008 NOSIG,VILK,2023-04-25T21:00:00Z,26.75,80.88,22.0,19.0,0,2,,2.49,29.763779,,,,,,TRUE,,,,HZ,FEW,10000,,,,,,,IFR,,,,,,,,,,,,METAR,121.0
VIJP 252100Z 07006KT 4000 HZ FEW100 26/10 Q1010 NOSIG,VIJP,2023-04-25T21:00:00Z,26.82,75.8,26.0,10.0,70,6,,2.49,29.822834,,,,,,TRUE,,,,HZ,FEW,10000,,,,,,,IFR,,,,,,,,,,,,METAR,383.0
VIDP 252100Z 00000KT 2500 HZ FEW100 25/12 Q1009 NOSIG,VIDP,2023-04-25T21:00:00Z,28.57,77.12,25.0,12.0,0,0,,1.55,29.793306,,,,,,TRUE,,,,HZ,FEW,10000,,,,,,,IFR,,,,,,,,,,,,METAR,236.0
VIAR 252100Z 00000KT 4000 HZ FEW100 23/13 Q1008 NOSIG,VIAR,2023-04-25T21:00:00Z,31.7,74.8,23.0,13.0,0,0,,2.49,29.763779,,,,,,TRUE,,,,HZ,FEW,10000,,,,,,,IFR,,,,,,,,,,,,METAR,226.0
VHHH 252100Z 35010KT 9999 FEW015 SCT035 19/15 Q1014 NOSIG,VHHH,2023-04-25T21:00:00Z,22.32,113.92,19.0,15.0,350,10,,6.21,29.940945,,,,,,TRUE,,,,,FEW,1500,SCT,3500,,,,,VFR,,,,,,,,,,,,METAR,9.0
VGHS 252100Z 29003KT 3500 HZ SCT100 28/22 Q1008 NOSIG,VGHS,2023-04-25T21:00:00Z,23.85,90.4,28.0,22.0,290,3,,2.17,29.763779,,,,,,TRUE,,,,HZ,SCT,10000,,,,,,,IFR,,,,,,,,,,,,METAR,11.0
VERC 252100Z 23005KT 3000 BR SCT020 SCT100 22/19 Q1012 NOSIG,VERC,2023-04-25T21:00:00Z,23.32,85.32,22.0,19.0,230,5,,1.86,29.88189,,,,,,TRUE,,,,BR,SCT,2000,SCT,10000,,,,,IFR,,,,,,,,,,,,METAR,646.0
VEPT 252100Z 09002KT 3000 HZ FEW018 SCT100 26/19 Q1008 NOSIG,VEPT,2023-04-25T21:00:00Z,25.6,85.08,26.0,19.0,90,2,,1.86,29.763779,,,,,,TRUE,,,,HZ,FEW,1800,SCT,10000,,,,,IFR,,,,,,,,,,,,METAR,53.0
VEGY 252100Z 00000KT 3500 BR FEW100 23/19 Q1008,VEGY,2023-04-25T21:00:00Z,24.75,84.95,23.0,19.0,0,0,,2.17,29.763779,,,,,,,,,,BR,FEW,10000,,,,,,,IFR,,,,,,,,,,,,METAR,115.0
VECC 252100Z 25003KT 3200 HZ FEW020 SCT100 28/24 Q1007 NOSIG,VECC,2023-04-25T21:00:00Z,22.65,88.43,28.0,24.0,250,3,,1.99,29.734253,,,,,,TRUE,,,,HZ,FEW,2000,SCT,10000,,,,,IFR,,,,,,,,,,,,METAR,11.0
VEBS 252100Z 21005KT 3500 HZ SCT018 BKN100 25/25 Q1009 NOSIG,VEBS,2023-04-25T21:00:00Z,20.25,85.82,25.0,25.0,210,5,,2.17,29.793306,,,,,,TRUE,,,,HZ,SCT,1800,BKN,10000,,,,,IFR,,,,,,,,,,,,METAR,42.0
VDSV 252100Z 06004KT 8000 -RA SCT015 FEW017CB SCT040 24/23 Q1008 RMK CB:S/SW,VDSV,2023-04-25T21:00:00Z,10.58,103.63,24.0,23.0,60,4,,4.97,29.763779,,,,,,,,,,-RA,SCT,1500,FEW,1700,SCT,4000,,,MVFR,,,,,,,,,,,,METAR,1.0
VDSR 252100Z 12012KT 9000 SCT015 FEW017CB SCT040 27/24 Q1008 RMK CB:NE,VDSR,2023-04-25T21:00:00Z,13.42,103.8,27.0,24.0,120,12,,5.59,29.763779,,,,,,,,,,,SCT,1500,FEW,1700,SCT,4000,,,VFR,,,,,,,,,,,,SPECI,16.0
VDPP 252100Z 27005KT 240V320 9000 SCT015 BKN040 26/23 Q1007,VDPP,2023-04-25T21:00:00Z,11.55,104.83,26.0,23.0,270,5,,5.59,29.734253,,,,,,,,,,,SCT,1500,BKN,4000,,,,,VFR,,,,,,,,,,,,METAR,10.0
VANP 252100Z 14007KT 3000 HZ SCT020 BKN100 25/20 Q1011 NOSIG,VANP,2023-04-25T21:00:00Z,21.08,79.05,25.0,20.0,140,7,,1.86,29.852362,,,,,,TRUE,,,,HZ,SCT,2000,BKN,10000,,,,,IFR,,,,,,,,,,,,METAR,309.0
VABP 252100Z 02004KT 6000 FEW100 25/07 Q1010 NOSIG,VABP,2023-04-25T21:00:00Z,23.28,77.33,25.0,7.0,20,4,,3.73,29.822834,,,,,,TRUE,,,,,FEW,10000,,,,,,,MVFR,,,,,,,,,,,,METAR,520.0
VABB 252100Z 19005KT 3500 BR SCT020 28/25 Q1007 NOSIG,VABB,2023-04-25T21:00:00Z,19.1,72.87,28.0,25.0,190,5,,2.17,29.734253,,,,,,TRUE,,,,BR,SCT,2000,,,,,,,IFR,,,,,,,,,,,,METAR,14.0
VAAU 252100Z 00000KT 6000 SCT020 25/18 Q1009 NOSIG,VAAU,2023-04-25T21:00:00Z,19.85,75.4,25.0,18.0,0,0,,3.73,29.793306,,,,,,TRUE,,,,,SCT,2000,,,,,,,MVFR,,,,,,,,,,,,METAR,578.0
VAAH 252100Z 00000KT 4000 FU FEW080 27/15 Q1005 NOSIG,VAAH,2023-04-25T21:00:00Z,23.07,72.63,27.0,15.0,0,0,,2.49,29.675198,,,,,,TRUE,,,,FU,FEW,8000,,,,,,,IFR,,,,,,,,,,,,METAR,52.0
UWWW 252100Z 10003MPS 9999 -SHRA SCT033CB 12/10 Q1014 R15/290050 NOSIG RMK QFE749/0999,UWWW,2023-04-25T21:00:00Z,53.5,50.17,12.0,10.0,100,6,,6.21,29.940945,,,,,,TRUE,,,,-SHRA,SCT,3300,,,,,,,VFR,,,,,,,,,,,,METAR,124.0
UWUU 252100Z 11003MPS CAVOK 12/01 Q1020 R14R/0///60 NOSIG,UWUU,2023-04-25T21:00:00Z,54.57,55.87,12.0,1.0,110,6,,6.21,30.11811,,,,,,TRUE,,,,,CAVOK,,,,,,,,VFR,,,,,,,,,,,,METAR,137.0
UWSG 252100Z 16005MPS 8000 OVC006 12/11 Q1008 R08/290160 NOSIG RMK QFE753/1005,UWSG,2023-04-25T21:00:00Z,51.72,46.17,12.0,11.0,160,10,,4.97,29.763779,,,,,,TRUE,,,,,OVC,600,,,,,,,IFR,,,,,,,,,,,,METAR,31.0
UWPS 252100Z 14007MPS 7000 -RA BKN015 12/11 Q1007 R20/290555 NOSIG RMK QFE737,UWPS,2023-04-25T21:00:00Z,54.12,45.2,12.0,11.0,140,14,,4.35,29.734253,,,,,,TRUE,,,,-RA,BKN,1500,,,,,,,MVFR,,,,,,,,,,,,METAR,206.0
UWOR 252100Z 17003MPS CAVOK 08/05 Q1023 R25/CLRD60 NOSIG RMK QFE744/0992,UWOR,2023-04-25T21:00:00Z,51.07,58.6,8.0,5.0,170,6,,6.21,30.206694,,,,,,TRUE,,,,,CAVOK,,,,,,,,VFR,,,,,,,,,,,,METAR,270.0
UWOO 252100Z 13005MPS CAVOK 15/03 Q1020 R08/CLRD60 NOSIG RMK QFE754/1006,UWOO,2023-04-25T21:00:00Z,51.8,55.47,15.0,3.0,130,10,,6.21,30.11811,,,,,,TRUE,,,,,CAVOK,,,,,,,,VFR,,,,,,,,,,,,METAR,90.0
UWLW 252100Z 10004MPS 9999 -RA OVC049 12/11 Q1013 R02/290250 NOSIG RMK QFE753/1004,UWLW,2023-04-25T21:00:00Z,54.4,48.8,12.0,11.0,100,8,,6.21,29.911417,,,,,,TRUE,,,,-RA,OVC,4900,,,,,,,VFR,,,,,,,,,,,,METAR,67.0
UWLL 252100Z 11006MPS 9999 -RA OVC005 11/11 Q1012 R20/290250 NOSIG RMK QFE749/0998,UWLL,2023-04-25T21:00:00Z,54.27,48.23,11.0,11.0,110,12,,6.21,29.88189,,,,,,TRUE,,,,-RA,OVC,500,,,,,,,IFR,,,,,,,,,,,,METAR,119.0
UWKS 252100Z 11006MPS 4200 -SHRA OVC009CB 11/11 Q1013 R06/290257 NOSIG RMK QFE745,UWKS,2023-04-25T21:00:00Z,56.08,47.35,11.0,11.0,110,12,,2.61,29.911417,,,,,,TRUE,,,,-SHRA,OVC,900,,,,,,,IFR,,,,,,,,,,,,METAR,165.0
UWKE 252100Z 10003MPS CAVOK 14/05 Q1016 R03/190060 NOSIG RMK QFE746/0994,UWKE,2023-04-25T21:00:00Z,55.57,52.08,14.0,5.0,100,6,,6.21,30.0,,,,,,TRUE,,,,,CAVOK,,,,,,,,VFR,,,,,,,,,,,,METAR,193.0
UWKD 252100Z 07005MPS 9000 -RA NSC 12/10 Q1014 R11/2/0050 NOSIG RMK QFE751/1001,UWKD,2023-04-25T21:00:00Z,55.62,49.28,12.0,10.0,70,10,,5.59,29.940945,,,,,,TRUE,,,,-RA,CLR,,,,,,,,VFR,,,,,,,,,,,,METAR,114.0
UWGG 252100Z 12004MPS 090V160 8000 -RA OVC010 12/12 Q1008 R18L/290050 NOSIG,UWGG,2023-04-25T21:00:00Z,56.23,43.78,12.0,12.0,120,8,,4.97,29.763779,,,,,,TRUE,,,,-RA,OVC,1000,,,,,,,MVFR,,,,,,,,,,,,METAR,73.0
UUYY 252100Z 02003MPS CAVOK 08/03 Q1015 R36/61D NOSIG RMK QFE752/1003,UUYY,2023-04-25T21:00:00Z,61.65,50.83,8.0,3.0,20,6,,6.21,29.970472,,,,,,TRUE,,,,,CAVOK,,,,,,,,VFR,,,,,,,,,,,,SPECI,107.0
UUWW 252100Z VRB01MPS CAVOK 11/08 Q1005 R06/290050 NOSIG,UUWW,2023-04-25T21:00:00Z,55.6,37.27,11.0,8.0,0,2,,6.21,29.675198,,,,,,TRUE,,,,,CAVOK,,,,,,,,VFR,,,,,,,,,,,,METAR,195.0
UUOO 252100Z 26003MPS 8000 -DZ OVC005 10/10 Q1003 R30/290150 NOSIG RMK QFE739,UUOO,2023-04-25T21:00:00Z,51.82,39.23,10.0,10.0,260,6,,4.97,29.616142,,,,,,TRUE,,,,-DZ,OVC,500,,,,,,,IFR,,,,,,,,,,,,METAR,154.0
UUOL 252100Z AUTO 33002MPS 4500 -RA ///006 10/10 Q1002,UUOL,2023-04-25T21:00:00Z,52.7,39.53,10.0,10.0,330,4,,2.8,29.586615,,,TRUE,,,,,,,-RA,,,,,,,,,,,,,,,,,,,,,METAR,176.0
UUOK 252100Z AUTO 23002MPS 9999 // 07/05 Q1006 RMK QFE737/0983,UUOK,2023-04-25T21:00:00Z,51.75,36.28,7.0,5.0,230,4,,6.21,29.704725,,,TRUE,,,,,,,,,,,,,,,,,,,,,,,,,,,,METAR,203.0
UUOB 252100Z 28002MPS 9000 NSC 09/07 Q1007 R29/010070 NOSIG,UUOB,2023-04-25T21:00:00Z,50.65,36.58,9.0,7.0,280,4,,5.59,29.734253,,,,,,TRUE,,,,,CLR,,,,,,,,VFR,,,,,,,,,,,,METAR,218.0
UUMO 252100Z 34001MPS 9000 -RA NSC 10/09 Q1005 R07/290050 NOSIG RMK QFE739/0986,UUMO,2023-04-25T21:00:00Z,55.52,37.5,10.0,9.0,340,2,,5.59,29.675198,,,,,,TRUE,,,,-RA,CLR,,,,,,,,VFR,,,,,,,,,,,,METAR,167.0
UUEE 252100Z 07003MPS CAVOK 13/06 Q1006 R06R/CLRD62 R06C/CLRD62 NOSIG,UUEE,2023-04-25T21:00:00Z,55.97,37.42,13.0,6.0,70,6,,6.21,29.704725,,,,,,TRUE,,,,,CAVOK,,,,,,,,VFR,,,,,,,,,,,,METAR,186.0
UUDL 252100Z 08003MPS 9999 -RA NSC 11/10 Q1009 R23/010060 NOSIG RMK QFE748,UUDL,2023-04-25T21:00:00Z,57.57,40.17,11.0,10.0,80,6,,6.21,29.793306,,,,,,TRUE,,,,-RA,CLR,,,,,,,,VFR,,,,,,,,,,,,METAR,88.0
UUDD 252100Z 36003MPS 9999 -RA SCT019 11/08 Q1005 R14R/290042 NOSIG,UUDD,2023-04-25T21:00:00Z,55.4,37.9,11.0,8.0,360,6,,6.21,29.675198,,,,,,TRUE,,,,-RA,SCT,1900,,,,,,,VFR,,,,,,,,,,,,METAR,165.0
UUBW 252100Z 01002MPS 9999 -RA OVC016 11/10 Q1005 R30/290050 NOSIG,UUBW,2023-04-25T21:00:00Z,55.55,38.15,11.0,10.0,10,4,,6.21,29.675198,,,,,,TRUE,,,,-RA,OVC,1600,,,,,,,MVFR,,,,,,,,,,,,METAR,111.0
UUBP 252100Z AUTO 09002MPS 9999 NCD 11/04 Q1006 NOSIG RMK QFE737/0983,UUBP,2023-04-25T21:00:00Z,53.22,34.18,11.0,4.0,90,4,,6.21,29.704725,,,TRUE,,,TRUE,,,,,CLR,,,,,,,,VFR,,,,,,,,,,,,METAR,197.0
UUBC 252100Z VRB01MPS 9999 -SHRA BKN058CB 11/09 Q1005 R13/CLRD60 NOSIG RMK QFE736/0981,UUBC,2023-04-25T21:00:00Z,54.55,36.37,11.0,9.0,0,2,,6.21,29.675198,,,,,,TRUE,,,,-SHRA,BKN,5800,,,,,,,VFR,,,,,,,,,,,,METAR,198.0
UTTT 252100Z 06008KT CAVOK 17/08 Q1012 R08R/CLRD70 NOSIG,UTTT,2023-04-25T21:00:00Z,41.27,69.27,17.0,8.0,60,8,,6.21,29.88189,,,,,,TRUE,,,,,CAVOK,,,,,,,,VFR,,,,,,,,,,,,METAR,429.0
UTST 252100Z 09002KT CAVOK 19/08 Q1008 R25/CLRD70 NOSIG,UTST,2023-04-25T21:00:00Z,37.28,67.32,19.0,8.0,90,2,,6.21,29.763779,,,,,,TRUE,,,,,CAVOK,,,,,,,,VFR,,,,,,,,,,,,METAR,311.0
UTSS 252100Z 12014KT 9999 NSC 16/05 Q1012 R09/CLRD70 NOSIG,UTSS,2023-04-25T21:00:00Z,39.7,66.98,16.0,5.0,120,14,,6.21,29.88189,,,,,,TRUE,,,,,CLR,,,,,,,,VFR,,,,,,,,,,,,METAR,665.0
UTSK 252100Z 04002KT CAVOK 18/08 Q1008 R16/CLRD70,UTSK,2023-04-25T21:00:00Z,38.8,65.77,18.0,8.0,40,2,,6.21,29.763779,,,,,,,,,,,CAVOK,,,,,,,,VFR,,,,,,,,,,,,METAR,399.0
UTSB 252100Z 36006KT CAVOK 18/05 Q1010 R01/CLRD70 NOSIG,UTSB,2023-04-25T21:00:00Z,39.77,64.48,18.0,5.0,360,6,,6.21,29.822834,,,,,,TRUE,,,,,CAVOK,,,,,,,,VFR,,,,,,,,,,,,METAR,225.0
UTSA 252100Z 03008KT 9999 NSC 16/03 Q1011 R07/CLRD70 NOSIG,UTSA,2023-04-25T21:00:00Z,40.12,65.17,16.0,3.0,30,8,,6.21,29.852362,,,,,,TRUE,,,,,CLR,,,,,,,,VFR,,,,,,,,,,,,METAR,346.0
UTNU 252100Z 07006KT CAVOK 15/01 Q1013 R31/CLRD70 NOSIG,UTNU,2023-04-25T21:00:00Z,41.58,60.63,15.0,1.0,70,6,,6.21,29.911417,,,,,,TRUE,,,,,CAVOK,,,,,,,,VFR,,,,,,,,,,,,METAR,97.0
UTNN 252100Z 05008KT CAVOK 18/M06 Q1014 R33/CLRD60 NOSIG,UTNN,2023-04-25T21:00:00Z,42.48,59.63,18.0,-6.0,50,8,,6.21,29.940945,,,,,,TRUE,,,,,CAVOK,,,,,,,,VFR,,,,,,,,,,,,METAR,76.0
UTFN 252100Z 34006KT 9999 NSC 19/03 Q1011 R28/CLRD70 NOSIG,UTFN,2023-04-25T21:00:00Z,40.98,71.57,19.0,3.0,340,6,,6.21,29.852362,,,,,,TRUE,,,,,CLR,,,,,,,,VFR,,,,,,,,,,,,METAR,477.0
UTFF 252100Z 15006KT 9999 NSC 18/08 Q1012 R18/CLRD70,UTFF,2023-04-25T21:00:00Z,40.37,71.73,18.0,8.0,150,6,,6.21,29.88189,,,,,,,,,,,CLR,,,,,,,,VFR,,,,,,,,,,,,METAR,612.0
UTDT 252100Z VRB01MPS 9999 SCT100 18/11 Q1008 R35/CLRD70 RMK QFE717/0956,UTDT,2023-04-25T21:00:00Z,37.87,68.87,18.0,11.0,0,2,,6.21,29.763779,,,,,,,,,,,SCT,10000,,,,,,,VFR,,,,,,,,,,,,METAR,443.0
UTDL 252100Z 25004MPS 9999 NSC 17/07 Q1012 R26/CLRD70 NOSIG RMK QFE721/0962,UTDL,2023-04-25T21:00:00Z,40.22,69.7,17.0,7.0,250,8,,6.21,29.88189,,,,,,TRUE,,,,,CLR,,,,,,,,VFR,,,,,,,,,,,,METAR,436.0
UTDK 252100Z 02006MPS 9999 NSC 19/10 Q1011 R01/09//70 RMK QFE701/0935,UTDK,2023-04-25T21:00:00Z,37.98,69.8,19.0,10.0,20,12,,6.21,29.852362,,,,,,,,,,,CLR,,,,,,,,VFR,,,,,,,,,,,,METAR,675.0
UTDD 252100Z VRB01MPS 9999 FEW110 18/08 Q1012 R09/D NOSIG RMK QFE691/0921,UTDD,2023-04-25T21:00:00Z,38.53,68.82,18.0,8.0,0,2,,6.21,29.88189,,,,,,TRUE,,,,,FEW,11000,,,,,,,VFR,,,,,,,,,,,,METAR,785.0
UTAV 252100Z 36006KT CAVOK 19/03 Q1010 R31/CLRD70 NOSIG,UTAV,2023-04-25T21:00:00Z,39.08,63.62,19.0,3.0,360,6,,6.21,29.822834,,,,,,TRUE,,,,,CAVOK,,,,,,,,VFR,,,,,,,,,,,,METAR,187.0
UTAT 252100Z 10010KT CAVOK 17/00 Q1013 R08/CLRD70 NOSIG,UTAT,2023-04-25T21:00:00Z,41.77,59.83,17.0,0.0,100,10,,6.21,29.911417,,,,,,TRUE,,,,,CAVOK,,,,,,,,VFR,,,,,,,,,,,,METAR,84.0
UTAM 252100Z 02004KT 6000 NSC 19/05 Q1010 R88/CLRD70 NOSIG,UTAM,2023-04-25T21:00:00Z,37.62,61.9,19.0,5.0,20,4,,3.73,29.822834,,,,,,TRUE,,,,,CLR,,,,,,,,MVFR,,,,,,,,,,,,METAR,218.0
UTAK 252100Z 31010KT CAVOK 14/10 Q1012 R16R/CLRD70 NOSIG,UTAK,2023-04-25T21:00:00Z,40.05,53.0,14.0,10.0,310,10,,6.21,29.88189,,,,,,TRUE,,,,,CAVOK,,,,,,,,VFR,,,,,,,,,,,,METAR,83.0
UTAA 252100Z 12006KT 080V150 9999 NSC 22/03 Q1008 R88/CLRD70 NOSIG,UTAA,2023-04-25T21:00:00Z,37.98,58.37,22.0,3.0,120,6,,6.21,29.763779,,,,,,TRUE,,,,,CLR,,,,,,,,VFR,,,,,,,,,,,,METAR,207.0
USTR 252100Z 25004MPS CAVOK 12/M02 Q1020 R21/090065 R30/////99 NOSIG,USTR,2023-04-25T21:00:00Z,57.18,65.32,12.0,-2.0,250,8,,6.21,30.11811,,,,,,TRUE,,,,,CAVOK,,,,,,,,VFR,,,,,,,,,,,,METAR,93.0
USSS 252100Z 00000MPS CAVOK 04/00 Q1022 R26R/010060 NOSIG RMK QFE745/0994,USSS,2023-04-25T21:00:00Z,56.75,60.78,4.0,0.0,0,0,,6.21,30.177166,,,,,,TRUE,,,,,CAVOK,,,,,,,,VFR,,,,,,,,,,,,METAR,222.0
USRR 252100Z 34001MPS 7000 1000SW BR FEW001 M05/M05 Q1015 R25/290055 NOSIG RMK QBB040 QFE756,USRR,2023-04-25T21:00:00Z,61.33,73.42,-5.0,-5.0,340,2,,4.35,29.970472,,,,,,TRUE,,,,BR,FEW,100,,,,,,,MVFR,,,,,,,,,,,,METAR,52.0
USPP 252100Z VRB01MPS CAVOK 10/M00 Q1019 R21/090060 NOSIG RMK QFE753,USPP,2023-04-25T21:00:00Z,57.92,56.02,10.0,0.0,0,2,,6.21,30.088583,,,,,,TRUE,,,,,CAVOK,,,,,,,,VFR,,,,,,,,,,,,METAR,120.0
USNN 252100Z 15003MPS CAVOK M00/M03 Q1015 R21/0///65 NOSIG RMK QFE756,USNN,2023-04-25T21:00:00Z,60.95,76.48,0.0,-3.0,150,6,,6.21,29.970472,,,,,,TRUE,,,,,CAVOK,,,,,,,,VFR,,,,,,,,,,,,METAR,52.0
USHH 252100Z 02002MPS CAVOK 02/M04 Q1017 R24/010060 TEMPO 1000 BR BKN003,USHH,2023-04-25T21:00:00Z,61.03,69.08,2.0,-4.0,20,4,,6.21,30.029528,,,,,,,,,,,CAVOK,,,,,,,,VFR,,,,,,,,,,,,METAR,46.0
USDA 252100Z AUTO 19007MPS 9999 ///032/// ///042/// M06/M07 Q1009 RMK QFE756/1008,USDA,2023-04-25T21:00:00Z,71.2,72.05,-6.0,-7.0,190,14,,6.21,29.793306,,,TRUE,,,,,,,,,,,,,,,,,,,,,,,,,,,,METAR,5.0
USCM 252100Z 16004MPS 9999 NSC 10/M00 Q1023 R36/090060 NOSIG RMK QFE729,USCM,2023-04-25T21:00:00Z,53.4,58.75,10.0,0.0,160,8,,6.21,30.206694,,,,,,TRUE,,,,,CLR,,,,,,,,VFR,,,,,,,,,,,,METAR,425.0
USCC 252100Z 23001MPS 3700 FU NSC 10/M01 Q1022 R27/000060 TEMPO 2000 FU RMK QFE746,USCC,2023-04-25T21:00:00Z,55.3,61.5,10.0,-1.0,230,2,,2.3,30.177166,,,,,,,,,,FU,CLR,,,,,,,,IFR,,,,,,,,,,,,METAR,227.0
URWW 252100Z 20007MPS 9999 BKN012 11/08 Q1009 R23/010070 TEMPO 1000 BR BKN002,URWW,2023-04-25T21:00:00Z,48.78,44.33,11.0,8.0,200,14,,6.21,29.793306,,,,,,,,,,,BKN,1200,,,,,,,MVFR,,,,,,,,,,,,METAR,131.0
URWI 252100Z AUTO 29006MPS 9999 // ///////// 09/05 Q1013,URWI,2023-04-25T21:00:00Z,46.37,44.33,9.0,5.0,290,12,,6.21,29.911417,,,TRUE,,,,,,,,,,,,,,,,,,,,,,,,,,,,METAR,145.0
URWA 252100Z 29002MPS 9000 NSC 12/11 Q1013 R27/190060 NOSIG RMK QFE761/1015,URWA,2023-04-25T21:00:00Z,46.28,47.98,12.0,11.0,290,4,,5.59,29.911417,,,,,,TRUE,,,,,CLR,,,,,,,,VFR,,,,,,,,,,,,METAR,-19.0
URSS 252100Z 04004MPS 9999 NSC 10/08 Q1013 R02/010070 R06/010070 NOSIG RMK R06/33001MPS QFE758,URSS,2023-04-25T21:00:00Z,43.45,39.92,10.0,8.0,40,8,,6.21,29.911417,,,,,,TRUE,,,,,CLR,,,,,,,,VFR,,,,,,,,,,,,METAR,4.0
URRP 252100Z 25005MPS 9999 FEW008 SCT045 11/11 Q1011 R23/290057 TEMPO 0300 FG SCT002 SCT020CB RMK QFE750/1001,URRP,2023-04-25T21:00:00Z,47.5,39.92,11.0,11.0,250,10,,6.21,29.852362,,,,,,,,,,,FEW,800,SCT,4500,,,,,VFR,,,,,,,,,,,,METAR,73.0
URMT 252100Z 00000MPS 9999 SCT044 10/04 Q1014 R25/010070 NOSIG RMK QFE722,URMT,2023-04-25T21:00:00Z,45.12,42.12,10.0,4.0,0,0,,6.21,29.940945,,,,,,TRUE,,,,,SCT,4400,,,,,,,VFR,,,,,,,,,,,,METAR,448.0
URMO 252100Z AUTO 12002MPS 9999 // ///////// 06/05 Q1014 RMK QFE717/0956,URMO,2023-04-25T21:00:00Z,43.2,44.6,6.0,5.0,120,4,,6.21,29.940945,,,TRUE,,,,,,,,,,,,,,,,,,,,,,,,,,,,METAR,505.0
URMN 252100Z 15001MPS 9999 BKN040 13/10 Q1013 R24/////// NOSIG RMK QFE723,URMN,2023-04-25T21:00:00Z,43.52,43.63,13.0,10.0,150,2,,6.21,29.911417,,,,,,TRUE,,,,,BKN,4000,,,,,,,VFR,,,,,,,,,,,,METAR,424.0
URMM 252100Z 19001MPS 9000 2800SE BR BKN031 09/09 Q1014 R30/290250 NOSIG RMK QFE732/0976,URMM,2023-04-25T21:00:00Z,44.22,43.07,9.0,9.0,190,2,,5.59,29.940945,,,,,,TRUE,,,,BR,BKN,3100,,,,,,,VFR,,,,,,,,,,,,METAR,318.0
URML 252100Z 24004MPS 9999 NSC 12/09 Q1013 R32/01//70 NOSIG RMK QFE760/1013,URML,2023-04-25T21:00:00Z,42.82,47.65,12.0,9.0,240,8,,6.21,29.911417,,,,,,TRUE,,,,,CLR,,,,,,,,VFR,,,,,,,,,,,,METAR,4.0
URMG 252100Z 14002MPS 080V200 9999 BKN063 14/10 Q1014 R26/090070 NOSIG RMK QFE745/0994,URMG,2023-04-25T21:00:00Z,43.38,45.7,14.0,10.0,140,4,,6.21,29.940945,,,,,,TRUE,,,,,BKN,6300,,,,,,,VFR,,,,,,,,,,,,METAR,160.0
URKK 252100Z 15003MPS CAVOK 09/07 Q1013 R05R/CLRD70 NOSIG RMK QFE757,URKK,2023-04-25T21:00:00Z,45.03,39.15,9.0,7.0,150,6,,6.21,29.911417,,,,,,TRUE,,,,,CAVOK,,,,,,,,VFR,,,,,,,,,,,,METAR,29.0
URKA 252100Z 15004MPS CAVOK 08/07 Q1012 R22/010070 NOSIG RMK QFE754/1006,URKA,2023-04-25T21:00:00Z,45.0,37.35,8.0,7.0,150,8,,6.21,29.88189,,,,,,TRUE,,,,,CAVOK,,,,,,,,VFR,,,,,,,,,,,,METAR,41.0
UOOO 252100Z 31005MPS 1800 R19/1900N -SHSN BR BKN003 BKN015CB M01/M01 Q1010 R19/19//60 NOSIG RMK QFE741/0989,UOOO,2023-04-25T21:00:00Z,69.32,87.33,-1.0,-1.0,310,10,,1.12,29.822834,,,,,,TRUE,,,,-SHSN BR,BKN,300,BKN,1500,,,,,LIFR,,,,,,,,,,,,METAR,177.0
UNWW 252100Z 14002MPS 9999 SCT040CB 00/M06 Q1019 R19/220250 NOSIG RMK QFE737,UNWW,2023-04-25T21:00:00Z,53.82,86.88,0.0,-6.0,140,4,,6.21,30.088583,,,,,,TRUE,,,,,SCT,4000,,,,,,,VFR,,,,,,,,,,,,METAR,307.0
UNTT 252100Z 21002MPS CAVOK M01/M06 Q1017 R21/////// NOSIG RMK QFE748,UNTT,2023-04-25T21:00:00Z,56.38,85.22,-1.0,-6.0,210,4,,6.21,30.029528,,,,,,TRUE,,,,,CAVOK,,,,,,,,VFR,,,,,,,,,,,,METAR,179.0
UNOO 252100Z 25003MPS CAVOK 09/M02 Q1020 R25/CLRD60 NOSIG RMK QFE757,UNOO,2023-04-25T21:00:00Z,54.97,73.32,9.0,-2.0,250,6,,6.21,30.11811,,,,,,TRUE,,,,,CAVOK,,,,,,,,VFR,,,,,,,,,,,,METAR,85.0
UNNT 252100Z VRB01MPS 9999 OVC026 02/00 Q1019 R25/290160 R16/290160 NOSIG RMK QFE754/1006,UNNT,2023-04-25T21:00:00Z,55.02,82.65,2.0,0.0,0,2,,6.21,30.088583,,,,,,TRUE,,,,,OVC,2600,,,,,,,MVFR,,,,,,,,,,,,METAR,106.0
UNKL 252100Z 24003MPS 9000 -SHSN SCT026CB M03/M06 Q1017 R29/CLRD65 NOSIG RMK QFE737,UNKL,2023-04-25T21:00:00Z,56.17,92.48,-3.0,-6.0,240,6,,5.59,30.029528,,,,,,TRUE,,,,-SHSN,SCT,2600,,,,,,,VFR,,,,,,,,,,,,METAR,278.0
UNEE 252100Z 23004MPS CAVOK M01/M06 Q1017 R23/CLRD60 NOSIG RMK QFE740,UNEE,2023-04-25T21:00:00Z,55.27,86.1,-1.0,-6.0,230,8,,6.21,30.029528,,,,,,TRUE,,,,,CAVOK,,,,,,,,VFR,,,,,,,,,,,,METAR,261.0
UNBB 252100Z 21003MPS 9000 -SHSNRA BKN017CB 02/01 Q1020 R24/290150 NOSIG RMK QFE743,UNBB,2023-04-25T21:00:00Z,53.37,83.53,2.0,1.0,210,6,,5.59,30.11811,,,,,,TRUE,,,,-SHSN -SHRA,BKN,1700,,,,,,,MVFR,,,,,,,,,,,,METAR,249.0
UNAA 252100Z 20003MPS CAVOK M03/M07 Q1021 R02/CLRD64 NOSIG RMK QFE743,UNAA,2023-04-25T21:00:00Z,53.75,91.4,-3.0,-7.0,200,6,,6.21,30.147638,,,,,,TRUE,,,,,CAVOK,,,,,,,,VFR,,,,,,,,,,,,METAR,249.0
UMMS 252100Z VRB01MPS CAVOK 07/05 Q1004 NOSIG,UMMS,2023-04-25T21:00:00Z,53.88,28.03,7.0,5.0,0,2,,6.21,29.64567,,,,,,TRUE,,,,,CAVOK,,,,,,,,VFR,,,,,,,,,,,,METAR,196.0
UMKK 252100Z 27003MPS 9999 OVC032 06/02 Q1007 R24/95D NOSIG RMK QFE754/1006,UMKK,2023-04-25T21:00:00Z,54.88,20.57,6.0,2.0,270,6,,6.21,29.734253,,,,,,TRUE,,,,,OVC,3200,,,,,,,VFR,,,,,,,,,,,,METAR,6.0
UMIO 252100Z 14002MPS CAVOK 08/05 Q1005 NOSIG RMK QFE736/0982,UMIO,2023-04-25T21:00:00Z,54.43,30.3,8.0,5.0,140,4,,6.21,29.675198,,,,,,TRUE,,,,,CAVOK,,,,,,,,VFR,,,,,,,,,,,,METAR,189.0
UMGG 252100Z 14005MPS CAVOK 12/07 Q1006 NOSIG,UMGG,2023-04-25T21:00:00Z,52.53,31.02,12.0,7.0,140,10,,6.21,29.704725,,,,,,TRUE,,,,,CAVOK,,,,,,,,VFR,,,,,,,,,,,,METAR,135.0
ULPB 252100Z AUTO 00000MPS 9999 // NCD 02/01 Q1009 RMK QFE753/1004,ULPB,2023-04-25T21:00:00Z,61.88,34.15,2.0,1.0,0,0,,6.21,29.793306,,,TRUE,,,,,,,,CLR,,,,,,,,VFR,,,,,,,,,,,,METAR,41.0
ULOO 252100Z 09002MPS CAVOK 07/04 Q1005 R19/090060 NOSIG RMK QFE749,ULOO,2023-04-25T21:00:00Z,57.78,28.4,7.0,4.0,90,4,,6.21,29.675198,,,,,,TRUE,,,,,CAVOK,,,,,,,,VFR,,,,,,,,,,,,METAR,46.0
ULMM 252100Z 17003MPS CAVOK M07/M10 Q1017 R31/090070 NOSIG RMK QFE755,ULMM,2023-04-25T21:00:00Z,68.78,32.75,-7.0,-10.0,170,6,,6.21,30.029528,,,,,,TRUE,,,,,CAVOK,,,,,,,,VFR,,,,,,,,,,,,METAR,79.0
ULLI 252100Z 15002MPS CAVOK 12/02 Q1006 R10R/090060 NOSIG,ULLI,2023-04-25T21:00:00Z,59.8,30.27,12.0,2.0,150,4,,6.21,29.704725,,,,,,TRUE,,,,,CAVOK,,,,,,,,VFR,,,,,,,,,,,,METAR,25.0
ULAA 252100Z 09003MPS 9999 SCT026CB 02/M02 Q1016 R08/290060 NOSIG RMK QFE761/1014,ULAA,2023-04-25T21:00:00Z,64.6,40.72,2.0,-2.0,90,6,,6.21,30.0,,,,,,TRUE,,,,,SCT,2600,,,,,,,VFR,,,,,,,,,,,,METAR,10.0
UIUU 252100Z 27002MPS 9999 NSC M03/M09 Q1002 R26/CLRD60 NOSIG RMK QFE708/0944,UIUU,2023-04-25T21:00:00Z,51.8,107.45,-3.0,-9.0,270,4,,6.21,29.586615,,,,,,TRUE,,,,,CLR,,,,,,,,VFR,,,,,,,,,,,,METAR,508.0
UIII 252100Z 30010MPS 3300 -SHSN OVC005CB 00/M01 Q1007 R30/CLRD60 NOSIG RMK QBB160 QFE711/0948,UIII,2023-04-25T21:00:00Z,52.27,104.37,0.0,-1.0,300,19,,2.05,29.734253,,,,,,TRUE,,,,-SHSN,OVC,500,,,,,,,IFR,,,,,,,,,,,,METAR,480.0
UIBB 252100Z AUTO 29007MPS 9999 // ///023/// M03/M05 Q1011 RMK QFE715/0954,UIBB,2023-04-25T21:00:00Z,56.37,101.7,-3.0,-5.0,290,14,,6.21,29.852362,,,TRUE,,,,,,,,,,,,,,,,,,,,,,,,,,,,METAR,485.0
UIAA 252100Z 00000MPS 9999 NSC M08/M11 Q1002 R29/CLRD70 NOSIG RMK QFE693/0925,UIAA,2023-04-25T21:00:00Z,52.02,113.32,-8.0,-11.0,0,0,,6.21,29.586615,,,,,,TRUE,,,,,CLR,,,,,,,,VFR,,,,,,,,,,,,METAR,650.0
UHWW 252100Z 01002MPS 4800 -SHRA SCT011 BKN026CB 05/04 Q1008 R25L/290065 NOSIG RMK QFE755,UHWW,2023-04-25T21:00:00Z,43.4,132.15,5.0,4.0,10,4,,2.98,29.763779,,,,,,TRUE,,,,-SHRA,SCT,1100,BKN,2600,,,,,IFR,,,,,,,,,,,,METAR,11.0
UHSS 252100Z 00000MPS 9999 SCT040CB 03/01 Q1012 R19/70D NOSIG RMK QFE758/1010,UHSS,2023-04-25T21:00:00Z,46.88,142.72,3.0,1.0,0,0,,6.21,29.88189,,,,,,TRUE,,,,,SCT,4000,,,,,,,VFR,,,,,,,,,,,,METAR,14.0
UHPP 252100Z VRB01MPS 9999 FEW040 BKN087 04/M04 Q1011 R34L/CLRD65 NOSIG RMK MT OBSC QFE755/1007,UHPP,2023-04-25T21:00:00Z,53.17,158.45,4.0,-4.0,0,2,,6.21,29.852362,,,,,,TRUE,,,,,FEW,4000,BKN,8700,,,,,VFR,,,,,,,,,,,,METAR,33.0
UHMM 252100Z 22001MPS 9999 FEW040 03/M04 Q1016 R10/70D NOSIG RMK QFE747 R28/00000MPS,UHMM,2023-04-25T21:00:00Z,59.92,150.72,3.0,-4.0,220,2,,6.21,30.0,,,,,,TRUE,,,,,FEW,4000,,,,,,,VFR,,,,,,,,,,,,METAR,175.0
UHMD 252100Z 03009MPS CAVOK M04/M12 Q1009 RMK QFE756/1008,UHMD,2023-04-25T21:00:00Z,64.38,-173.23,-4.0,-12.0,30,17,,6.21,29.793306,,,,,,,,,,,CAVOK,,,,,,,,VFR,,,,,,,,,,,,METAR,40.0
UHMA 252100Z 33004MPS CAVOK M09/M14 Q1015 R01/70D NOSIG RMK MID 35003MPS END R01/03003MPS QFE757/1010,UHMA,2023-04-25T21:00:00Z,64.73,177.73,-9.0,-14.0,330,8,,6.21,29.970472,,,,,,TRUE,,,,,CAVOK,,,,,,,,VFR,,,,,,,,,,,,METAR,53.0
UHHH 252100Z 25007MPS CAVOK 02/00 Q1005 R88/190050 NOSIG RMK QFE747/0997,UHHH,2023-04-25T21:00:00Z,48.52,135.18,2.0,0.0,250,14,,6.21,29.675198,,,,,,TRUE,,,,,CAVOK,,,,,,,,VFR,,,,,,,,,,,,METAR,74.0
UHBB 252100Z 24002MPS CAVOK M03/M12 Q1009 R36/090060 NOSIG RMK QFE739/0985,UHBB,2023-04-25T21:00:00Z,50.43,127.42,-3.0,-12.0,240,4,,6.21,29.793306,,,,,,TRUE,,,,,CAVOK,,,,,,,,VFR,,,,,,,,,,,,METAR,185.0
UGTB 252100Z 32020KT CAVOK 15/04 Q1014 NOSIG,UGTB,2023-04-25T21:00:00Z,41.67,44.95,15.0,4.0,320,20,,6.21,29.940945,,,,,,TRUE,,,,,CAVOK,,,,,,,,VFR,,,,,,,,,,,,METAR,468.0
UGSB 252100Z 14010KT CAVOK 14/08 Q1012 NOSIG,UGSB,2023-04-25T21:00:00Z,41.62,41.6,14.0,8.0,140,10,,6.21,29.88189,,,,,,TRUE,,,,,CAVOK,,,,,,,,VFR,,,,,,,,,,,,METAR,32.0
UGMS 252100Z AUTO VRB01KT //// ////// 01/M00 Q1019,UGMS,2023-04-25T21:00:00Z,43.05,42.75,1.0,0.0,0,1,,,30.088583,,,TRUE,,,,,,,,,,,,,,,,,,,,,,,,,,,,METAR,1442.0
UGKO 252100Z 07007KT CAVOK 12/09 Q1012 NOSIG,UGKO,2023-04-25T21:00:00Z,42.18,42.48,12.0,9.0,70,7,,6.21,29.88189,,,,,,TRUE,,,,,CAVOK,,,,,,,,VFR,,,,,,,,,,,,METAR,44.0
UGAM 252100Z AUTO VRB02KT //// ////// 06/05 Q1016,UGAM,2023-04-25T21:00:00Z,42.53,43.13,6.0,5.0,0,2,,,30.0,,,TRUE,,,,,,,,,,,,,,,,,,,,,,,,,,,,METAR,544.0
UERR 252100Z 33002MPS 9999 -SHSN SCT026CB M04/M05 Q1002 R25/590234 NOSIG RMK QFE721/0961,UERR,2023-04-25T21:00:00Z,62.53,114.05,-4.0,-5.0,330,4,,6.21,29.586615,,,,,,TRUE,,,,-SHSN,SCT,2600,,,,,,,VFR,,,,,,,,,,,,METAR,352.0
UERP 252100Z 01004MPS 8000 -SHSN BKN016CB OVC100 M05/M07 Q1005 R35/490350 NOSIG RMK QFE709,UERP,2023-04-25T21:00:00Z,66.4,112.03,-5.0,-7.0,10,8,,4.97,29.675198,,,,,,TRUE,,,,-SHSN,BKN,1600,OVC,10000,,,,,MVFR,,,,,,,,,,,,METAR,514.0
UEEE 252100Z 09002MPS 9999 SCT040 M05/M05 Q1011 R05/190155 NOSIG RMK QFE749,UEEE,2023-04-25T21:00:00Z,62.08,129.77,-5.0,-5.0,90,4,,6.21,29.852362,,,,,,TRUE,,,,,SCT,4000,,,,,,,VFR,,,,,,,,,,,,METAR,106.0
UDYZ 252100Z 00000KT 9999 FEW046 14/04 Q1014 NOSIG,UDYZ,2023-04-25T21:00:00Z,40.15,44.4,14.0,4.0,0,0,,6.21,29.940945,,,,,,TRUE,,,,,FEW,4600,,,,,,,VFR,,,,,,,,,,,,METAR,851.0
UDSG 252100Z 15004KT 9999 NSC 06/03 Q1016 NOSIG,UDSG,2023-04-25T21:00:00Z,40.75,43.87,6.0,3.0,150,4,,6.21,30.0,,,,,,TRUE,,,,,CLR,,,,,,,,VFR,,,,,,,,,,,,METAR,1515.0
UCFO 252100Z VRB01MPS 9999 FEW050CB 16/07 Q1013 NOSIG,UCFO,2023-04-25T21:00:00Z,40.6,72.8,16.0,7.0,0,2,,6.21,29.911417,,,,,,TRUE,,,,,FEW,5000,,,,,,,VFR,,,,,,,,,,,,METAR,881.0
UCFM 252100Z 06007MPS CAVOK 12/01 Q1019 TEMPO 05008G13MPS,UCFM,2023-04-25T21:00:00Z,43.07,74.48,12.0,1.0,60,14,,6.21,30.088583,,,,,,,,,,,CAVOK,,,,,,,,VFR,,,,,,,,,,,,METAR,632.0
UCFL 252100Z VRB01MPS 9999 SCT026CB BKN100 05/M03 Q1023,UCFL,2023-04-25T21:00:00Z,42.58,76.7,5.0,-3.0,0,2,,6.21,30.206694,,,,,,,,,,,SCT,2600,BKN,10000,,,,,VFR,,,,,,,,,,,,METAR,1654.0
UBBY 252100Z 13008KT 9999 FEW100 14/08 Q1017 NOSIG RMK MT OP,UBBY,2023-04-25T21:00:00Z,41.57,46.67,14.0,8.0,130,8,,6.21,30.029528,,,,,,TRUE,,,,,FEW,10000,,,,,,,VFR,,,,,,,,,,,,METAR,383.0
UBBQ 252100Z 09003KT 9999 NSC 12/10 Q1014 NOSIG RMK MT PT OBSC,UBBQ,2023-04-25T21:00:00Z,40.82,47.72,12.0,10.0,90,3,,6.21,29.940945,,,,,,TRUE,,,,,CLR,,,,,,,,VFR,,,,,,,,,,,,METAR,339.0
UBBN 252100Z 32006KT 9999 SCT040CB BKN090 15/08 Q1013 NOSIG RMK MT OP QFE685,UBBN,2023-04-25T21:00:00Z,39.18,45.45,15.0,8.0,320,6,,6.21,29.911417,,,,,,TRUE,,,,,SCT,4000,BKN,9000,,,,,VFR,,,,,,,,,,,,METAR,857.0
UBBL 252100Z 15005KT 9999 BKN060 15/15 Q1014 NOSIG RMK MT OP,UBBL,2023-04-25T21:00:00Z,38.75,48.82,15.0,15.0,150,5,,6.21,29.940945,,,,,,TRUE,,,,,BKN,6000,,,,,,,VFR,,,,,,,,,,,,METAR,-11.0
UBBG 252100Z 00000KT 9999 SCT100 15/09 Q1013 NOSIG,UBBG,2023-04-25T21:00:00Z,40.73,46.32,15.0,9.0,0,0,,6.21,29.911417,,,,,,TRUE,,,,,SCT,10000,,,,,,,VFR,,,,,,,,,,,,METAR,333.0
UBBF 252100Z AUTO 30008KT 9999 // ///////// 14/09 Q1013,UBBF,2023-04-25T21:00:00Z,39.6,47.2,14.0,9.0,300,8,,6.21,29.911417,,,TRUE,,,,,,,,,,,,,,,,,,,,,,,,,,,,METAR,370.0
UBBB 252100Z 30006KT 9999 FEW060CB 15/12 Q1014 NOSIG,UBBB,2023-04-25T21:00:00Z,40.47,50.07,15.0,12.0,300,6,,6.21,29.940945,,,,,,TRUE,,,,,FEW,6000,,,,,,,VFR,,,,,,,,,,,,METAR,94.0
UAUU 252100Z 19002MPS CAVOK 07/01 Q1025 NOSIG RMK QFE753/1004,UAUU,2023-04-25T21:00:00Z,53.2,63.55,7.0,1.0,190,4,,6.21,30.265747,,,,,,TRUE,,,,,CAVOK,,,,,,,,VFR,,,,,,,,,,,,METAR,177.0
UATT 252100Z 12006MPS CAVOK 15/02 Q1021 NOSIG RMK QFE746/0994,UATT,2023-04-25T21:00:00Z,50.25,57.2,15.0,2.0,120,12,,6.21,30.147638,,,,,,TRUE,,,,,CAVOK,,,,,,,,VFR,,,,,,,,,,,,METAR,217.0
UATG 252100Z 14005MPS 3600 HZ BKN033CB 21/06 Q1009 NOSIG RMK QFE759/1012,UATG,2023-04-25T21:00:00Z,47.12,51.83,21.0,6.0,140,10,,2.24,29.793306,,,,,,TRUE,,,,HZ,BKN,3300,,,,,,,IFR,,,,,,,,,,,,METAR,-23.0
UATE 252100Z 30004MPS 260V340 9999 SCT050CB 14/12 Q1011 NOSIG RMK QFE757/1009,UATE,2023-04-25T21:00:00Z,43.87,51.1,14.0,12.0,300,8,,6.21,29.852362,,,,,,TRUE,,,,,SCT,5000,,,,,,,VFR,,,,,,,,,,,,METAR,21.0
UASP 252100Z 20001MPS CAVOK 03/02 Q1022 NOSIG RMK QFE755/1007,UASP,2023-04-25T21:00:00Z,52.2,77.07,3.0,2.0,200,2,,6.21,30.177166,,,,,,TRUE,,,,,CAVOK,,,,,,,,VFR,,,,,,,,,,,,METAR,122.0
UASK 252100Z 11002MPS 9999 SCT080 01/M05 Q1025 NOSIG RMK QFE743/0991,UASK,2023-04-25T21:00:00Z,50.03,82.5,1.0,-5.0,110,4,,6.21,30.265747,,,,,,TRUE,,,,,SCT,8000,,,,,,,VFR,,,,,,,,,,,,METAR,285.0
UARR 252100Z 13006MPS 9999 -SHRA SCT050CB 15/08 Q1013 NOSIG RMK QFE756/1008,UARR,2023-04-25T21:00:00Z,51.15,51.53,15.0,8.0,130,12,,6.21,29.911417,,,,,,TRUE,,,,-SHRA,SCT,5000,,,,,,,VFR,,,,,,,,,,,,METAR,33.0
UAOO 252100Z 09009MPS CAVOK 15/M02 Q1019 NOSIG RMK QFE753/1004,UAOO,2023-04-25T21:00:00Z,44.7,65.6,15.0,-2.0,90,17,,6.21,30.088583,,,,,,TRUE,,,,,CAVOK,,,,,,,,VFR,,,,,,,,,,,,METAR,130.0
UAKK 252100Z 26001MPS CAVOK 05/M01 Q1027 NOSIG RMK QFE723/0964,UAKK,2023-04-25T21:00:00Z,49.68,73.35,5.0,-1.0,260,2,,6.21,30.324802,,,,,,TRUE,,,,,CAVOK,,,,,,,,VFR,,,,,,,,,,,,METAR,532.0
UAIT 252100Z 08015MPS CAVOK 16/00 Q1014 NOSIG RMK QFE736/0981,UAIT,2023-04-25T21:00:00Z,43.32,68.55,16.0,0.0,80,29,,6.21,29.940945,,,,,,TRUE,,,,,CAVOK,,,,,,,,VFR,,,,,,,,,,,,METAR,301.0
UAII 252100Z 07005MPS CAVOK 17/04 Q1013 NOSIG RMK QFE724/0966,UAII,2023-04-25T21:00:00Z,42.37,69.48,17.0,4.0,70,10,,6.21,29.911417,,,,,,TRUE,,,,,CAVOK,,,,,,,,VFR,,,,,,,,,,,,METAR,410.0
UADD 252100Z 04004MPS 9999 NSC 12/04 Q1017 NOSIG RMK QFE706/0941,UADD,2023-04-25T21:00:00Z,42.85,71.3,12.0,4.0,40,8,,6.21,30.029528,,,,,,TRUE,,,,,CLR,,,,,,,,VFR,,,,,,,,,,,,METAR,663.0
UACC 252100Z 26003MPS CAVOK 09/02 Q1026 NOSIG RMK QFE738/0984,UACC,2023-04-25T21:00:00Z,51.02,71.47,9.0,2.0,260,6,,6.21,30.295275,,,,,,TRUE,,,,,CAVOK,,,,,,,,VFR,,,,,,,,,,,,METAR,354.0
UAAA 252100Z 21002MPS 190V260 9999 FEW100 07/03 Q1023 NOSIG,UAAA,2023-04-25T21:00:00Z,43.35,77.03,7.0,3.0,210,4,,6.21,30.206694,,,,,,TRUE,,,,,FEW,10000,,,,,,,VFR,,,,,,,,,,,,METAR,673.0
TVSA 252100Z 17005KT 8000 -SHRA BKN012 BKN032 25/24 Q1012 NOSIG ,TVSA,2023-04-25T21:00:00Z,13.15,-61.15,25.0,24.0,170,5,,4.97,29.88189,,,,,,TRUE,,,,-SHRA,BKN,1200,BKN,3200,,,,,MVFR,,,,,,,,,,,,METAR,3.0
TUPJ 252100Z VRB03KT 10SM FEW024 27/20 A2992 RMK Q1013 VIS 16KM,TUPJ,2023-04-25T21:00:00Z,18.43,-64.53,27.0,20.0,0,3,,10.0,29.920275,,,,,,,,,,,FEW,2400,,,,,,,VFR,,,,,,,,,,,,METAR,6.0
TTPP 252100Z 00000KT 9999 VCSH FEW012 26/23 Q1012 NOSIG RMK VCSH-NE/S,TTPP,2023-04-25T21:00:00Z,10.58,-61.35,26.0,23.0,0,0,,6.21,29.88189,,,,,,TRUE,,,,VCSH,FEW,1200,,,,,,,VFR,,,,,,,,,,,,SPECI,11.0
TTCP 252100Z 06004KT 9999 -RA SCT014 25/24 Q1012,TTCP,2023-04-25T21:00:00Z,11.15,-60.85,25.0,24.0,60,4,,6.21,29.88189,,,,,,,,,,-RA,SCT,1400,,,,,,,VFR,,,,,,,,,,,,METAR,13.0
TRPG 252100Z 00000KT 9999 -SHRA SCT019 27/24 Q1014,TRPG,2023-04-25T21:00:00Z,16.78,-62.2,27.0,24.0,0,0,,6.21,29.940945,,,,,,,,,,-SHRA,SCT,1900,,,,,,,VFR,,,,,,,,,,,,METAR,170.0
TQPF 252100Z 07006KT 9999 SCT017 26/23 Q1013,TQPF,2023-04-25T21:00:00Z,18.2,-63.05,26.0,23.0,70,6,,6.21,29.911417,,,,,,,,,,,SCT,1700,,,,,,,VFR,,,,,,,,,,,,METAR,33.0
TNCM 252100Z 10003KT 050V160 9999 VCSH BKN016 28/22 Q1014 NOSIG RMK VCSH SE,TNCM,2023-04-25T21:00:00Z,18.05,-63.12,28.0,22.0,100,3,,6.21,29.940945,,,,,,TRUE,,,,VCSH,BKN,1600,,,,,,,MVFR,,,,,,,,,,,,METAR,9.0
TNCC 252100Z 08010KT CAVOK 29/23 Q1010 NOSIG,TNCC,2023-04-25T21:00:00Z,12.2,-68.97,29.0,23.0,80,10,,6.21,29.822834,,,,,,TRUE,,,,,CAVOK,,,,,,,,VFR,,,,,,,,,,,,METAR,10.0
TNCA 252100Z 08011KT 9999 FEW030 31/23 Q1010 NOSIG,TNCA,2023-04-25T21:00:00Z,12.5,-70.0,31.0,23.0,80,11,,6.21,29.822834,,,,,,TRUE,,,,,FEW,3000,,,,,,,VFR,,,,,,,,,,,,METAR,7.0
TLPL 252100Z 17012KT 5000 -RA FEW007 BKN040 26/23 Q1013 TEMPO 5000 RA,TLPL,2023-04-25T21:00:00Z,13.75,-60.95,26.0,23.0,170,12,,3.11,29.911417,,,,,,,,,,-RA,FEW,700,BKN,4000,,,,,MVFR,,,,,,,,,,,,METAR,13.0
TLPC 252100Z 00000KT 8000 -SHRA FEW008 SCT014 BKN042 25/24 Q1013 TEMPO FM2130 5000 RA,TLPC,2023-04-25T21:00:00Z,14.02,-61.0,25.0,24.0,0,0,,4.97,29.911417,,,,,,,,,,-SHRA,FEW,800,SCT,1400,BKN,4200,,,MVFR,,,,,,,,,,,,METAR,8.0
TKPK 252100Z 00000KT 9999 -SHRA BKN018 26/23 Q1013,TKPK,2023-04-25T21:00:00Z,17.3,-62.72,26.0,23.0,0,0,,6.21,29.911417,,,,,,,,,,-SHRA,BKN,1800,,,,,,,MVFR,,,,,,,,,,,,METAR,62.0
TGPY 252100Z 10015KT 9999 FEW017 SCT035 27/24 Q1012 NOSIG,TGPY,2023-04-25T21:00:00Z,12.0,-61.78,27.0,24.0,100,15,,6.21,29.88189,,,,,,TRUE,,,,,FEW,1700,SCT,3500,,,,,VFR,,,,,,,,,,,,METAR,12.0
TFFR 252100Z AUTO 02007KT 350V050 9999 BKN026/// BKN032/// ///CB 25/23 Q1012 TEMPO 3000 SHRA,TFFR,2023-04-25T21:00:00Z,16.27,-61.53,25.0,23.0,20,7,,6.21,29.88189,,,TRUE,,,,,,,,BKN,2600,BKN,3200,,,,,MVFR,,,,,,,,,,,,METAR,6.0
TFFF 252100Z AUTO 11004KT 070V140 9999 FEW046/// BKN072/// ///TCU 28/23 Q1012 TEMPO VRB15KT 2500 SHRA FEW010CB BKN018TCU,TFFF,2023-04-25T21:00:00Z,14.6,-61.0,28.0,23.0,110,4,,6.21,29.88189,,,TRUE,,,,,,,,FEW,4600,BKN,7200,,,,,VFR,,,,,,,,,,,,METAR,3.0
TDPD 252100Z 09004KT 9999 BKN017 27/24 Q1013,TDPD,2023-04-25T21:00:00Z,15.55,-61.3,27.0,24.0,90,4,,6.21,29.911417,,,,,,,,,,,BKN,1700,,,,,,,MVFR,,,,,,,,,,,,METAR,13.0
TDCF 252100Z 22002KT 9999 FEW018TCU SCT042 29/21 Q1011,TDCF,2023-04-25T21:00:00Z,15.33,-61.4,29.0,21.0,220,2,,6.21,29.852362,,,,,,,,,,,FEW,1800,SCT,4200,,,,,VFR,,,,,,,,,,,,METAR,4.0
TBPB 252100Z 19005KT 9999 -RA BKN012 BKN036 24/23 Q1012 NOSIG,TBPB,2023-04-25T21:00:00Z,13.07,-59.48,24.0,23.0,190,5,,6.21,29.88189,,,,,,TRUE,,,,-RA,BKN,1200,BKN,3600,,,,,MVFR,,,,,,,,,,,,METAR,55.0
TAPA 252100Z 10006KT 040V150 9999 VCSH BKN018 27/23 Q1012 NOSIG,TAPA,2023-04-25T21:00:00Z,17.13,-61.78,27.0,23.0,100,6,,6.21,29.88189,,,,,,TRUE,,,,VCSH,BKN,1800,,,,,,,MVFR,,,,,,,,,,,,METAR,15.0
SYLT 252100Z 27012KT 9999 BKN014 OVC100 25/24 Q//// RERA NOSIG,SYLT,2023-04-25T21:00:00Z,3.37,-59.78,25.0,24.0,270,12,,6.21,,,,,,,TRUE,,,,,BKN,1400,OVC,10000,,,,,MVFR,,,,,,,,,,,,METAR,88.0
SYCJ 252100Z 27004KT 9999 -SHRA SCT015CB SCT016 BKN036 27/25 Q1011 NOSIG RMK CB E-WNW,SYCJ,2023-04-25T21:00:00Z,6.5,-58.25,27.0,25.0,270,4,,6.21,29.852362,,,,,,TRUE,,,,-SHRA,SCT,1500,SCT,1600,BKN,3600,,,VFR,,,,,,,,,,,,METAR,30.0
SVVA 252100Z /////KT 9999 SCT016 30/20 Q1011,SVVA,2023-04-25T21:00:00Z,10.15,-67.92,30.0,20.0,,,,6.21,29.852362,,,,,,,,,,,SCT,1600,,,,,,,VFR,,,,,,,,,,,,METAR,428.0
SVMI 252100Z 09006KT 9999 SCT016 BKN080 35/27 Q1013,SVMI,2023-04-25T21:00:00Z,10.6,-67.0,35.0,27.0,90,6,,6.21,29.911417,,,,,,,,,,,SCT,1600,BKN,8000,,,,,VFR,,,,,,,,,,,,METAR,48.0
SVMG 252100Z 11015KT 9999 SCT030 OVC060 ///// Q1011,SVMG,2023-04-25T21:00:00Z,10.92,-63.97,,,110,15,,6.21,29.852362,,,,,,,,,,,SCT,3000,OVC,6000,,,,,VFR,,,,,,,,,,,,METAR,16.0
SUSO 252100Z 25003KT 9999 FEW020 FEW033TCU SCT070 20/18 Q1012,SUSO,2023-04-25T21:00:00Z,-31.43,-57.98,20.0,18.0,250,3,,6.21,29.88189,,,,,,,,,,,FEW,2000,FEW,3300,SCT,7000,,,VFR,,,,,,,,,,,,METAR,37.0
SUMU 252100Z 13005KT 9999 TS VCSH FEW020 FEW040CB SCT080 21/19 Q1012 TEMPO TS,SUMU,2023-04-25T21:00:00Z,-34.83,-56.02,21.0,19.0,130,5,,6.21,29.88189,,,,,,,,,,TS VCSH,FEW,2000,FEW,4000,SCT,8000,,,VFR,,,,,,,,,,,,METAR,32.0
SULS 252100Z VRB03KT 9999 VCSH FEW026 FEW040TCU SCT070 20/18 Q1012,SULS,2023-04-25T21:00:00Z,-34.87,-55.1,20.0,18.0,0,3,,6.21,29.88189,,,,,,,,,,VCSH,FEW,2600,FEW,4000,SCT,7000,,,VFR,,,,,,,,,,,,METAR,22.0
SUCA 252100Z VRB02KT 9999 FEW040CB SCT080 BKN200 18/17 Q1012,SUCA,2023-04-25T21:00:00Z,-34.45,-57.77,18.0,17.0,0,2,,6.21,29.88189,,,,,,,,,,,FEW,4000,SCT,8000,BKN,20000,,,VFR,,,,,,,,,,,,METAR,26.0
SUAA 252100Z VRB02KT 9999 FEW011 FEW016TCU 21/17 Q1012,SUAA,2023-04-25T21:00:00Z,-34.78,-56.25,21.0,17.0,0,2,,6.21,29.88189,,,,,,,,,,,FEW,1100,FEW,1600,,,,,VFR,,,,,,,,,,,,METAR,48.0
SPYL 252100Z 25009KT CAVOK 28/23 Q1009 RMK BIRD HAZARD RWY 17/35 PP000,SPYL,2023-04-25T21:00:00Z,-4.57,-81.25,28.0,23.0,250,9,,6.21,29.793306,,,,,,,,,,,CAVOK,,,,,,,,VFR,,,,,,,,,,,,METAR,89.0
SPUR 252100Z 21011KT 9999 BKN025 31/23 Q1008 RMK BIRD HAZARD RWY 19/01 PP000,SPUR,2023-04-25T21:00:00Z,-5.17,-80.58,31.0,23.0,210,11,,6.21,29.763779,,,,,,,,,,,BKN,2500,,,,,,,MVFR,,,,,,,,,,,,SPECI,55.0
SPTU 252100Z VRB02KT 9999 FEW025 31/22 Q1009 RMK BIRD HAZARD RWY 01/19 PP000,SPTU,2023-04-25T21:00:00Z,-12.62,-69.22,31.0,22.0,0,2,,6.21,29.793306,,,,,,,,,,,FEW,2500,,,,,,,VFR,,,,,,,,,,,,SPECI,213.0
SPTN 252100Z 22008KT CAVOK 21/14 Q1014 RMK PP000,SPTN,2023-04-25T21:00:00Z,-18.03,-70.28,21.0,14.0,220,8,,6.21,29.940945,,,,,,,,,,,CAVOK,,,,,,,,VFR,,,,,,,,,,,,METAR,459.0
SPST 252100Z 18003KT 9999 VCSH SCT015 SCT020 BKN080 25/25 Q1010 RMK PP001,SPST,2023-04-25T21:00:00Z,-6.52,-76.37,25.0,25.0,180,3,,6.21,29.822834,,,,,,,,,,VCSH,SCT,1500,SCT,2000,BKN,8000,,,VFR,,,,,,,,,,,,SPECI,282.0
SPSO 252100Z 25010KT CAVOK 25/19 Q1011 RMK BIRD HAZARD RWY 22/04 PP000,SPSO,2023-04-25T21:00:00Z,-13.73,-76.22,25.0,19.0,250,10,,6.21,29.852362,,,,,,,,,,,CAVOK,,,,,,,,VFR,,,,,,,,,,,,METAR,8.0
SPRU 252100Z 15010KT 8000 VCFG BKN070 25/20 Q1009 RMK PP000,SPRU,2023-04-25T21:00:00Z,-8.08,-79.12,25.0,20.0,150,10,,4.97,29.793306,,,,,,,,,,VCFG,BKN,7000,,,,,,,MVFR,,,,,,,,,,,,SPECI,23.0
SPQU 252100Z 26009KT 220V290 CAVOK 17/09 Q1026 NOSIG RMK PP000,SPQU,2023-04-25T21:00:00Z,-16.33,-71.57,17.0,9.0,260,9,,6.21,30.295275,,,,,,TRUE,,,,,CAVOK,,,,,,,,VFR,,,,,,,,,,,,METAR,2527.0
SPQT 252100Z 27002KT 9999 SCT017 29/25 Q1009 NOSIG RMK PP000,SPQT,2023-04-25T21:00:00Z,-3.78,-73.32,29.0,25.0,270,2,,6.21,29.793306,,,,,,TRUE,,,,,SCT,1700,,,,,,,VFR,,,,,,,,,,,,METAR,92.0
SPPY 252100Z 10009KT 9999 SCT015TCU BKN040 14/12 Q1026 RMK TX17.0 PP000,SPPY,2023-04-25T21:00:00Z,-6.22,-77.85,14.0,12.0,100,9,,6.21,30.295275,,,,,,,,,,,SCT,1500,BKN,4000,,,,,VFR,,,,,,,,,,,,SPECI,2536.0
SPNC 252100Z 07009KT 9999 FEW040 27/12 Q1018 RMK PP000,SPNC,2023-04-25T21:00:00Z,-9.87,-76.2,27.0,12.0,70,9,,6.21,30.059055,,,,,,,,,,,FEW,4000,,,,,,,VFR,,,,,,,,,,,,SPECI,1856.0
SPMS 252100Z 07003KT 9999 FEW015 SCT070 29/23 Q1010 RMK BIRD HAZARD RWY 09/27 PP000,SPMS,2023-04-25T21:00:00Z,-5.9,-76.12,29.0,23.0,70,3,,6.21,29.822834,,,,,,,,,,,FEW,1500,SCT,7000,,,,,VFR,,,,,,,,,,,,SPECI,149.0
SPME 252100Z 28008KT 9999 SCT013 SCT027 30/25 Q1008 RMK BIRD HAZARD RWY 32/14 PP000,SPME,2023-04-25T21:00:00Z,-3.55,-80.4,30.0,25.0,280,8,,6.21,29.763779,,,,,,,,,,,SCT,1300,SCT,2700,,,,,VFR,,,,,,,,,,,,SPECI,26.0
SPLO 252100Z 15013KT CAVOK 23/19 Q1012 RMK TX28.2 PP000,SPLO,2023-04-25T21:00:00Z,-17.7,-71.35,23.0,19.0,150,13,,6.21,29.88189,,,,,,,,,,,CAVOK,,,,,,,,VFR,,,,,,,,,,,,METAR,25.0
SPJL 252100Z /////KT 9999 NSC 17/M04 Q1033 RMK WIND RWY12 10006KT PP000,SPJL,2023-04-25T21:00:00Z,-15.47,-70.15,17.0,-4.0,,,,6.21,30.501968,,,,,,,,,,,CLR,,,,,,,,VFR,,0.6,,,,,,,,,,SPECI,3837.0
SPJJ 252100Z 10011G22KT 9999 FEW040TCU 18/// Q1029 RMK PP000,SPJJ,2023-04-25T21:00:00Z,-11.77,-75.47,,,100,11,22,6.21,30.383858,,,,,,,,,,,FEW,4000,,,,,,,VFR,,,,,,,,,,,,METAR,3322.0
SPJE 252100Z 35004KT 9999 VCSH SCT040 BKN090 26/23 Q1013 RMK BIRD HAZARD RWY 16/34 TX29.0 PP000,SPJE,2023-04-25T21:00:00Z,,,26.0,23.0,350,4,,6.21,29.911417,,,,,,,,,,VCSH,SCT,4000,BKN,9000,,,,,VFR,,,,,,,,,,,,METAR,
SPJC 252100Z 17012KT CAVOK 26/20 Q1010 NOSIG RMK BIRD HAZARD RWY 16 PP000,SPJC,2023-04-25T21:00:00Z,-12.02,-77.12,26.0,20.0,170,12,,6.21,29.822834,,,,,,TRUE,,,,,CAVOK,,,,,,,,VFR,,,,,,,,,,,,METAR,26.0
SPHO 252100Z 14007KT 100V170 9999 FEW050TCU BKN100 24/05 Q1024 RMK PP000,SPHO,2023-04-25T21:00:00Z,-13.17,-74.22,24.0,5.0,140,7,,6.21,30.236221,,,,,,,,,,,FEW,5000,BKN,10000,,,,,VFR,,,,,,,,,,,,SPECI,2743.0
SPHI 252100Z 18013KT 9999 SCT035 BKN080 26/21 Q1009 RMK BIRD HAZARD RWY 19/01 PP000,SPHI,2023-04-25T21:00:00Z,-6.78,-79.82,26.0,21.0,180,13,,6.21,29.793306,,,,,,,,,,,SCT,3500,BKN,8000,,,,,VFR,,,,,,,,,,,,SPECI,33.0
SPEO 252100Z 20014KT 9999 FEW050 25/21 Q1009 RMK PP000,SPEO,2023-04-25T21:00:00Z,-9.17,-78.52,25.0,21.0,200,14,,6.21,29.793306,,,,,,,,,,,FEW,5000,,,,,,,VFR,,,,,,,,,,,,SPECI,13.0
SPCL 252100Z 16004KT 9999 BKN022 BKN100 30/23 Q1010 RMK BIRD HAZARD RWY 02/20 PP000,SPCL,2023-04-25T21:00:00Z,-8.38,-74.58,30.0,23.0,160,4,,6.21,29.822834,,,,,,,,,,,BKN,2200,BKN,10000,,,,,MVFR,,,,,,,,,,,,SPECI,154.0
SOCA 252100Z AUTO 35003KT 300V030 9999 FEW007/// BKN046/// ///TCU 26/24 Q1010 TEMPO 3000 SHRA,SOCA,2023-04-25T21:00:00Z,4.82,-52.37,26.0,24.0,350,3,,6.21,29.822834,,,TRUE,,,,,,,,FEW,700,BKN,4600,,,,,VFR,,,,,,,,,,,,METAR,7.0
SMZO 252100Z 04006KT 7000 -SHRA SCT010 FEW012CB SCT022 28/24 Q1010 TEMPO TL2120 2000 +TSRA,SMZO,2023-04-25T21:00:00Z,5.82,-55.18,28.0,24.0,40,6,,4.35,29.822834,,,,,,,,,,-SHRA,SCT,1000,FEW,1200,SCT,2200,,,MVFR,,,,,,,,,,,,METAR,7.0
SMJP 252100Z 36007KT 3000 +TSRA SCT001 SCT010CB BKN015 25/25 Q1010 NOSIG,SMJP,2023-04-25T21:00:00Z,5.45,-55.18,25.0,25.0,360,7,,1.86,29.822834,,,,,,TRUE,,,,+TSRA,SCT,100,SCT,1000,BKN,1500,,,IFR,,,,,,,,,,,,METAR,14.0
SLVR 252100Z VRB02KT 9999 SCT020 26/21 Q1011,SLVR,2023-04-25T21:00:00Z,-17.63,-63.13,26.0,21.0,0,2,,6.21,29.852362,,,,,,,,,,,SCT,2000,,,,,,,VFR,,,,,,,,,,,,METAR,377.0
SLTR 252100Z 31006KT 9999 FEW020 SCT200 31/24 Q1010,SLTR,2023-04-25T21:00:00Z,-14.83,-64.92,31.0,24.0,310,6,,6.21,29.822834,,,,,,,,,,,FEW,2000,SCT,20000,,,,,VFR,,,,,,,,,,,,METAR,157.0
SLTJ 252100Z 15008KT 9999 NSC 21/11 Q1018,SLTJ,2023-04-25T21:00:00Z,-21.55,-64.72,21.0,11.0,150,8,,6.21,30.059055,,,,,,,,,,,CLR,,,,,,,,VFR,,,,,,,,,,,,METAR,1850.0
SLSV 252100Z 34005KT 9999 FEW017 30/24 Q1010,SLSV,2023-04-25T21:00:00Z,-16.4,-61.05,30.0,24.0,340,5,,6.21,29.822834,,,,,,,,,,,FEW,1700,,,,,,,VFR,,,,,,,,,,,,METAR,450.0
SLSA 252100Z 35006KT 9999 FEW017 BKN200 29/23 Q1009,SLSA,2023-04-25T21:00:00Z,-13.77,-65.43,29.0,23.0,350,6,,6.21,29.793306,,,,,,,,,,,FEW,1700,BKN,20000,,,,,VFR,,,,,,,,,,,,METAR,144.0
SLLP 252100Z 12009KT 9999 FEW020 SCT200 15/M07 Q1036,SLLP,2023-04-25T21:00:00Z,-16.52,-68.17,15.0,-7.0,120,9,,6.21,30.590551,,,,,,,,,,,FEW,2000,SCT,20000,,,,,VFR,,,,,,,,,,,,METAR,4061.0
SLET 252100Z 31005KT 9999 SCT020 25/20 Q1011,SLET,2023-04-25T21:00:00Z,-17.8,-63.17,25.0,20.0,310,5,,6.21,29.852362,,,,,,,,,,,SCT,2000,,,,,,,VFR,,,,,,,,,,,,METAR,421.0
SLCO 252100Z VRB02KT 9999 FEW015 FEW020CB BKN080 24/24 Q1010,SLCO,2023-04-25T21:00:00Z,-11.03,-68.78,24.0,24.0,0,2,,6.21,29.822834,,,,,,,,,,,FEW,1500,FEW,2000,BKN,8000,,,VFR,,,,,,,,,,,,METAR,238.0
SLCB 252100Z 22004KT 9999 FEW036 28/M03 Q1019,SLCB,2023-04-25T21:00:00Z,-17.42,-66.18,28.0,-3.0,220,4,,6.21,30.088583,,,,,,,,,,,FEW,3600,,,,,,,VFR,,,,,,,,,,,,METAR,2560.0
SLAL 252100Z 36010KT 9999 FEW023 19/04 Q1026,SLAL,2023-04-25T21:00:00Z,-19.23,-65.15,19.0,4.0,360,10,,6.21,30.295275,,,,,,,,,,,FEW,2300,,,,,,,VFR,,,,,,,,,,,,METAR,3109.0
SKVV 252100Z 32004KT 7000 -DZ BKN015 SCT090 24/22 Q1011 RMK A2988,SKVV,2023-04-25T21:00:00Z,4.17,-73.62,24.0,22.0,320,4,,4.35,29.852362,,,,,,,,,,-DZ,BKN,1500,SCT,9000,,,,,MVFR,,,,,,,,,,,,SPECI,421.0
SKVP 252100Z 29004KT 250V350 9999 FEW020 SCT200 33/21 Q1009 RMK A2982,SKVP,2023-04-25T21:00:00Z,10.43,-73.25,33.0,21.0,290,4,,6.21,29.793306,,,,,,,,,,,FEW,2000,SCT,20000,,,,,VFR,,,,,,,,,,,,SPECI,137.0
SKUI 252100Z 31007KT 9999 SCT030 34/24 Q1006 RMK A2973,SKUI,2023-04-25T21:00:00Z,5.68,-76.63,34.0,24.0,310,7,,6.21,29.704725,,,,,,,,,,,SCT,3000,,,,,,,VFR,,,,,,,,,,,,SPECI,55.0
SKUC 252100Z 08003KT 9999 BKN020 24/23 Q1011 RMK A2985,SKUC,2023-04-25T21:00:00Z,7.07,-70.73,24.0,23.0,80,3,,6.21,29.852362,,,,,,,,,,,BKN,2000,,,,,,,MVFR,,,,,,,,,,,,SPECI,127.0
SKSP 252100Z 12006KT 020V170 9999 FEW018 30/21 Q1011 RMK A2986,SKSP,2023-04-25T21:00:00Z,12.58,-81.72,30.0,21.0,120,6,,6.21,29.852362,,,,,,,,,,,FEW,1800,,,,,,,VFR,,,,,,,,,,,,METAR,6.0
SKSM 252100Z 35010KT 9999 FEW020 32/22 Q1009 RMK A2981,SKSM,2023-04-25T21:00:00Z,11.12,-74.22,32.0,22.0,350,10,,6.21,29.793306,,,,,,,,,,,FEW,2000,,,,,,,VFR,,,,,,,,,,,,METAR,5.0
SKRH 252100Z 04010KT 010V070 9999 SCT020 29/24 Q1008 RMK A2979,SKRH,2023-04-25T21:00:00Z,11.52,-72.92,29.0,24.0,40,10,,6.21,29.763779,,,,,,,,,,,SCT,2000,,,,,,,VFR,,,,,,,,,,,,SPECI,11.0
SKRG 252100Z 22006KT 9999 TS SCT018CB BKN030 17/14 Q1024 NOSIG RMK CB TS/W A3023,SKRG,2023-04-25T21:00:00Z,6.17,-75.42,17.0,14.0,220,6,,6.21,30.236221,,,,,,TRUE,,,,TS,SCT,1800,BKN,3000,,,,,MVFR,,,,,,,,,,,,METAR,2132.0
SKPV 252100Z 12006KT 9999 FEW017 33/27 Q1011 RMK A2986,SKPV,2023-04-25T21:00:00Z,13.37,-81.35,33.0,27.0,120,6,,6.21,29.852362,,,,,,,,,,,FEW,1700,,,,,,,VFR,,,,,,,,,,,,SPECI,7.0
SKPS 252100Z 16009KT 9999 SCT020 BKN080 21/15 Q1018 RMK A3006,SKPS,2023-04-25T21:00:00Z,1.4,-77.28,21.0,15.0,160,9,,6.21,30.059055,,,,,,,,,,,SCT,2000,BKN,8000,,,,,VFR,,,,,,,,,,,,SPECI,1798.0
SKPE 252100Z 09014KT 8000 TS BKN013CB SCT070 24/16 Q1015 RMK CB/E/SE/W A2998,SKPE,2023-04-25T21:00:00Z,4.82,-75.73,24.0,16.0,90,14,,4.97,29.970472,,,,,,,,,,TS,BKN,1300,SCT,7000,,,,,MVFR,,,,,,,,,,,,METAR,1341.0
SKPC 252100Z 11003KT 9999 NSC 29/23 Q1009 RMK A2981,SKPC,2023-04-25T21:00:00Z,6.18,-67.5,29.0,23.0,110,3,,6.21,29.793306,,,,,,,,,,,CLR,,,,,,,,VFR,,,,,,,,,,,,SPECI,51.0
SKNV 252100Z 05005KT 9999 FEW035 BKN200 31/21 Q1009 RMK A2981,SKNV,2023-04-25T21:00:00Z,2.93,-75.28,31.0,21.0,50,5,,6.21,29.793306,,,,,,,,,,,FEW,3500,BKN,20000,,,,,VFR,,,,,,,,,,,,SPECI,449.0
SKMZ 252100Z 10006KT 8000 -DZ VCFG BKN020 17/16 Q1024 RMK VCFG/W A3026,SKMZ,2023-04-25T21:00:00Z,5.03,-75.47,17.0,16.0,100,6,,4.97,30.236221,,,,,,,,,,-DZ VCFG,BKN,2000,,,,,,,MVFR,,,,,,,,,,,,SPECI,2075.0
SKMR 252100Z 33012KT 290V010 9999 SCT020 34/23 Q1007 RMK A2973,SKMR,2023-04-25T21:00:00Z,8.82,-75.83,34.0,23.0,330,12,,6.21,29.734253,,,,,,,,,,,SCT,2000,,,,,,,VFR,,,,,,,,,,,,SPECI,12.0
SKMD 252100Z 19017KT 9999 VCSH FEW025 BKN030CB 20/15 Q1018 RETS RMK CB/SE/N A3007,SKMD,2023-04-25T21:00:00Z,6.22,-75.58,20.0,15.0,190,17,,6.21,30.059055,,,,,,,,,,VCSH,FEW,2500,BKN,3000,,,,,MVFR,,,,,,,,,,,,SPECI,1491.0
SKLT 252100Z 09004KT 9999 FEW020 SCT200 30/23 Q1009 RMK A2980,SKLT,2023-04-25T21:00:00Z,-4.2,-69.93,30.0,23.0,90,4,,6.21,29.793306,,,,,,,,,,,FEW,2000,SCT,20000,,,,,VFR,,,,,,,,,,,,METAR,78.0
SKLC 252100Z 35012KT 310V010 9999 FEW025TCU SCT300 31/25 Q1007 RMK TCU/E A2976,SKLC,2023-04-25T21:00:00Z,7.82,-76.72,31.0,25.0,350,12,,6.21,29.734253,,,,,,,,,,,FEW,2500,SCT,30000,,,,,VFR,,,,,,,,,,,,SPECI,20.0
SKIP 252100Z 08004KT 9999 TS FEW012CB BKN016 15/10 Q1027 RERA RMK CB/E/W A3034,SKIP,2023-04-25T21:00:00Z,0.85,-77.67,15.0,10.0,80,4,,6.21,30.324802,,,,,,,,,,TS,FEW,1200,BKN,1600,,,,,MVFR,,,,,,,,,,,,SPECI,2964.0
SKIB 252100Z 04005KT 9999 VCSH BKN030TCU BKN110 25/22 Q1016 RMK TCU/N/S VCSH N/SW A3000,SKIB,2023-04-25T21:00:00Z,4.42,-75.12,25.0,22.0,40,5,,6.21,30.0,,,,,,,,,,VCSH,BKN,3000,BKN,11000,,,,,MVFR,,,,,,,,,,,,SPECI,899.0
SKEJ 252100Z 06004KT 9999 FEW015 SCT200 33/22 Q1006 RMK A2973,SKEJ,2023-04-25T21:00:00Z,7.02,-73.8,33.0,22.0,60,4,,6.21,29.704725,,,,,,,,,,,FEW,1500,SCT,20000,,,,,VFR,,,,,,,,,,,,SPECI,123.0
SKCL 252100Z 04006KT 9999 SCT030CB SCT090 30/19 Q1012 NOSIG RMK CB/SW A2988,SKCL,2023-04-25T21:00:00Z,3.53,-76.37,30.0,19.0,40,6,,6.21,29.88189,,,,,,TRUE,,,,,SCT,3000,SCT,9000,,,,,VFR,,,,,,,,,,,,METAR,967.0
SKCG 252100Z 34015KT 9999 FEW015 30/24 Q1009 RMK A2979,SKCG,2023-04-25T21:00:00Z,10.43,-75.52,30.0,24.0,340,15,,6.21,29.793306,,,,,,,,,,,FEW,1500,,,,,,,VFR,,,,,,,,,,,,METAR,6.0
SKCC 252100Z 01008KT 9999 SCT018 29/22 Q1011 RMK A2987,SKCC,2023-04-25T21:00:00Z,7.92,-72.52,29.0,22.0,10,8,,6.21,29.852362,,,,,,,,,,,SCT,1800,,,,,,,VFR,,,,,,,,,,,,METAR,308.0
SKBQ 252100Z 01009KT 320V050 9999 FEW015 32/21 Q1008 NOSIG RMK A2979,SKBQ,2023-04-25T21:00:00Z,10.87,-74.77,32.0,21.0,10,9,,6.21,29.763779,,,,,,TRUE,,,,,FEW,1500,,,,,,,VFR,,,,,,,,,,,,METAR,23.0
SKBO 252100Z 23008KT 180V270 9999 VCSH SCT020 BKN080 14/12 Q1025 REDZ NOSIG RMK VCSH/SW A3028,SKBO,2023-04-25T21:00:00Z,4.7,-74.15,14.0,12.0,230,8,,6.21,30.265747,,,,,,TRUE,,,,VCSH,SCT,2000,BKN,8000,,,,,VFR,,,,,,,,,,,,METAR,2547.0
SKBG 252100Z 33005KT 9999 SCT013 26/21 Q1013 RMK A2993,SKBG,2023-04-25T21:00:00Z,7.13,-73.18,26.0,21.0,330,5,,6.21,29.911417,,,,,,,,,,,SCT,1300,,,,,,,VFR,,,,,,,,,,,,METAR,1187.0
SKAR 252100Z 22006KT 9999 TS VCSH FEW020CB BKN025 29/18 Q1014 RMK CB VCSH/NE A2994,SKAR,2023-04-25T21:00:00Z,4.45,-75.77,29.0,18.0,220,6,,6.21,29.940945,,,,,,,,,,TS VCSH,FEW,2000,BKN,2500,,,,,MVFR,,,,,,,,,,,,SPECI,1214.0
SGES 252100Z 24007KT 4000 TSRA BKN010 OVC020 FEW040CB 18/18 Q1014,SGES,2023-04-25T21:00:00Z,-25.45,-54.85,18.0,18.0,240,7,,2.49,29.940945,,,,,,,,,,TSRA,BKN,1000,OVC,2000,FEW,4000,,,IFR,,,,,,,,,,,,METAR,256.0
SGEN 252100Z 05006KT 9999 OVC020 20/19Q1014,SGEN,2023-04-25T21:00:00Z,-27.23,-55.83,,,50,6,,6.21,29.940945,,,,,,,,,,,OVC,2000,,,,,,,MVFR,,,,,,,,,,,,METAR,202.0
SGAS 252100Z 00000KT 9999 FEW008 BKN015 BKN070 20/19 Q1013 RERA,SGAS,2023-04-25T21:00:00Z,-25.25,-57.52,20.0,19.0,0,0,,6.21,29.911417,,,,,,,,,,,FEW,800,BKN,1500,BKN,7000,,,MVFR,,,,,,,,,,,,METAR,83.0
SETU 252100Z 06007KT 9999 SCT020 BKN080 15/10 Q1029 RETS,SETU,2023-04-25T21:00:00Z,0.82,-77.7,15.0,10.0,60,7,,6.21,30.383858,,,,,,,,,,,SCT,2000,BKN,8000,,,,,VFR,,,,,,,,,,,,METAR,2936.0
SETN 252100Z 31004KT 280V350 9999 SCT026 SCT300 30/26 Q1008 RMK A2978,SETN,2023-04-25T21:00:00Z,0.98,-79.63,30.0,26.0,310,4,,6.21,29.763779,,,,,,,,,,,SCT,2600,SCT,30000,,,,,VFR,,,,,,,,,,,,METAR,10.0
SEST 252100Z 20006KT 9999 FEW020 SCT230 29/25 Q1008 RMK A2978,SEST,2023-04-25T21:00:00Z,-0.9,-89.62,29.0,25.0,200,6,,6.21,29.763779,,,,,,,,,,,FEW,2000,SCT,23000,,,,,VFR,,,,,,,,,,,,METAR,13.0
SESM 252100Z 16006KT 130V230 9999 SCT026 BKN130 25/19 Q1014 RMK A2995,SESM,2023-04-25T21:00:00Z,-1.5,-78.07,25.0,19.0,160,6,,6.21,29.940945,,,,,,,,,,,SCT,2600,BKN,13000,,,,,VFR,,,,,,,,,,,,METAR,1056.0
SESA 252100Z 26006KT CAVOK 29/23 Q1009 RMK A2980,SESA,2023-04-25T21:00:00Z,-2.2,-80.98,29.0,23.0,260,6,,6.21,29.793306,,,,,,,,,,,CAVOK,,,,,,,,VFR,,,,,,,,,,,,METAR,6.0
SERO 252100Z 29009KT 9999 FEW013 BKN080 31/23 Q1008,SERO,2023-04-25T21:00:00Z,-3.43,-79.98,31.0,23.0,290,9,,6.21,29.763779,,,,,,,,,,,FEW,1300,BKN,8000,,,,,VFR,,,,,,,,,,,,METAR,6.0
SERB 252100Z 09012KT 9999 BKN040 BKN100 19/13 Q1026,SERB,2023-04-25T21:00:00Z,-1.65,-78.67,19.0,13.0,90,12,,6.21,30.295275,,,,,,,,,,,BKN,4000,BKN,10000,,,,,VFR,,,,,,,,,,,,METAR,2788.0
SEQM 252100Z 35009KT 9999 VCSH FEW030TCU SCT033 BKN300 20/13 Q1023 NOSIG RMK A3022,SEQM,2023-04-25T21:00:00Z,-0.12,-78.35,20.0,13.0,350,9,,6.21,30.206694,,,,,,TRUE,,,,VCSH,FEW,3000,SCT,3300,BKN,30000,,,VFR,,,,,,,,,,,,METAR,2386.0
SENL 252100Z 17003KT 9999 FEW023 BKN100 28/23 Q1011 RMK A2986,SENL,2023-04-25T21:00:00Z,0.1,-76.87,28.0,23.0,170,3,,6.21,29.852362,,,,,,,,,,,FEW,2300,BKN,10000,,,,,VFR,,,,,,,,,,,,METAR,293.0
SEMT 252100Z 27007KT 9999 FEW020 30/22 Q1009 RMK A2980,SEMT,2023-04-25T21:00:00Z,-0.95,-80.67,30.0,22.0,270,7,,6.21,29.793306,,,,,,,,,,,FEW,2000,,,,,,,VFR,,,,,,,,,,,,METAR,13.0
SEMC 252100Z 17008KT 9999 SCT026 BKN200 27/18 Q1014 RMK A2996,SEMC,2023-04-25T21:00:00Z,-2.3,-78.12,27.0,18.0,170,8,,6.21,29.940945,,,,,,,,,,,SCT,2600,BKN,20000,,,,,VFR,,,,,,,,,,,,METAR,1036.0
SELT 252100Z 02004KT 350V080 9999 SCT030 SCT100 17/08 Q1027,SELT,2023-04-25T21:00:00Z,-0.92,-78.62,17.0,8.0,20,4,,6.21,30.324802,,,,,,,,,,,SCT,3000,SCT,10000,,,,,VFR,,,,,,,,,,,,METAR,2779.0
SEJD 252100Z 12002KT 9999 4000E FEW016CB SCT023 26/22 Q1010 RMK A2985,SEJD,2023-04-25T21:00:00Z,-1.07,-77.58,26.0,22.0,120,2,,6.21,29.822834,,,,,,,,,,,FEW,1600,SCT,2300,,,,,VFR,,,,,,,,,,,,METAR,376.0
SEGZ 252100Z 13003KT 9999 SCT020 SCT100 28/24 Q1014,SEGZ,2023-04-25T21:00:00Z,-3.42,-78.57,28.0,24.0,130,3,,6.21,29.940945,,,,,,,,,,,SCT,2000,SCT,10000,,,,,VFR,,,,,,,,,,,,METAR,805.0
SEGU 252100Z 15004KT 9999 FEW023 SCT030 BKN100 30/24 Q1007 NOSIG RMK A2975,SEGU,2023-04-25T21:00:00Z,-2.15,-79.88,30.0,24.0,150,4,,6.21,29.734253,,,,,,TRUE,,,,,FEW,2300,SCT,3000,BKN,10000,,,VFR,,,,,,,,,,,,METAR,6.0
SEGS 252100Z 10008KT 060V120 9999 FEW030 29/23 Q1011 RMK A2986,SEGS,2023-04-25T21:00:00Z,-0.45,-90.27,29.0,23.0,100,8,,6.21,29.852362,,,,,,,,,,,FEW,3000,,,,,,,VFR,,,,,,,,,,,,METAR,51.0
SECU 252100Z 14006KT 9999 BKN040 SCT100 17/11 Q1024,SECU,2023-04-25T21:00:00Z,-2.88,-78.98,17.0,11.0,140,6,,6.21,30.236221,,,,,,,,,,,BKN,4000,SCT,10000,,,,,VFR,,,,,,,,,,,,METAR,2516.0
SECO 252100Z 18004KT 9999 FEW026 BKN100 27/24 Q1009 RM A2981,SECO,2023-04-25T21:00:00Z,-0.45,-76.98,27.0,24.0,180,4,,6.21,29.793306,,,,,,,,,,,FEW,2600,BKN,10000,,,,,VFR,,,,,,,,,,,,METAR,256.0
SECA 252100Z 12008KT 9999 BKN040 27/14 Q1015 RMK A2997,SECA,2023-04-25T21:00:00Z,-4.0,-79.37,27.0,14.0,120,8,,6.21,29.970472,,,,,,,,,,,BKN,4000,,,,,,,VFR,,,,,,,,,,,,METAR,1237.0
SCVM 252100Z 32005KT 280V350 9999 OVC011 13/11 Q1016,SCVM,2023-04-25T21:00:00Z,-32.95,-71.48,13.0,11.0,320,5,,6.21,30.0,,,,,,,,,,,OVC,1100,,,,,,,MVFR,,,,,,,,,,,,METAR,136.0
SCVD 252100Z 08002KT 9999 FEW010 BKN015 OVC043 13/13 Q1015,SCVD,2023-04-25T21:00:00Z,-39.65,-73.08,13.0,13.0,80,2,,6.21,29.970472,,,,,,,,,,,FEW,1000,BKN,1500,OVC,4300,,,MVFR,,,,,,,,,,,,METAR,19.0
SCTN 252100Z 01006KT 4000 -RA SCT020 OVC050 13/13 Q1012,SCTN,2023-04-25T21:00:00Z,-42.92,-72.7,13.0,13.0,10,6,,2.49,29.88189,,,,,,,,,,-RA,SCT,2000,OVC,5000,,,,,IFR,,,,,,,,,,,,METAR,8.0
SCTE 252100Z 03008KT 7000 -RA SCT006 BKN050 OVC090 13/13 Q1013 NOSIG,SCTE,2023-04-25T21:00:00Z,-41.43,-73.08,13.0,13.0,30,8,,4.35,29.911417,,,,,,TRUE,,,,-RA,SCT,600,BKN,5000,OVC,9000,,,MVFR,,,,,,,,,,,,METAR,85.0
SCTB 252100Z 24006KT 7000 NSC 24/08 Q1015,SCTB,2023-04-25T21:00:00Z,-33.45,-70.53,24.0,8.0,240,6,,4.35,29.970472,,,,,,,,,,,CLR,,,,,,,,MVFR,,,,,,,,,,,,METAR,655.0
SCSN 252100Z 21004KT 120V270 1500 BR OVC005 13/13 Q1016,SCSN,2023-04-25T21:00:00Z,-33.65,-71.62,13.0,13.0,210,4,,0.93,30.0,,,,,,,,,,BR,OVC,500,,,,,,,LIFR,,,,,,,,,,,,METAR,73.0
SCSE 252100Z 29008KT 260V320 9999 BKN009 14/12 Q1014,SCSE,2023-04-25T21:00:00Z,-29.92,-71.2,14.0,12.0,290,8,,6.21,29.940945,,,,,,,,,,,BKN,900,,,,,,,IFR,,,,,,,,,,,,METAR,141.0
SCRM 252100Z 25019KT 8000 BKN020 M01/M04 Q0984 NOSIG,SCRM,2023-04-25T21:00:00Z,-62.18,-58.98,-1.0,-4.0,250,19,,4.97,29.055119,,,,,,TRUE,,,,,BKN,2000,,,,,,,MVFR,,,,,,,,,,,,METAR,45.0
SCRG 252100Z 19012KT 6000 NSC 21/09 Q1016,SCRG,2023-04-25T21:00:00Z,-34.17,-70.77,21.0,9.0,190,12,,3.73,30.0,,,,,,,,,,,CLR,,,,,,,,MVFR,,,,,,,,,,,,METAR,488.0
SCRD 252100Z 25004KT CAVOK 15/11 Q1016,SCRD,2023-04-25T21:00:00Z,-33.07,-71.55,15.0,11.0,250,4,,6.21,30.0,,,,,,,,,,,CAVOK,,,,,,,,VFR,,,,,,,,,,,,METAR,342.0
SCQP 252100Z 05003KT 9999 OVC039 13/12 Q1015,SCQP,2023-04-25T21:00:00Z,-38.92,-72.65,13.0,12.0,50,3,,6.21,29.970472,,,,,,,,,,,OVC,3900,,,,,,,VFR,,,,,,,,,,,,METAR,97.0
SCPQ 252100Z 01004KT 5000 -RA OVC004 12/11 Q1012,SCPQ,2023-04-25T21:00:00Z,-42.33,-73.72,12.0,11.0,10,4,,3.11,29.88189,,,,,,,,,,-RA,OVC,400,,,,,,,LIFR,,,,,,,,,,,,METAR,166.0
SCPD 252100Z 19010KT CAVOK 26/06 Q1014,SCPD,2023-04-25T21:00:00Z,,,26.0,6.0,190,10,,6.21,29.940945,,,,,,,,,,,CAVOK,,,,,,,,VFR,,,,,,,,,,,,METAR,
SCON 252100Z 00000KT 2000 -RA SCT005 OVC015 10/10 Q1013,SCON,2023-04-25T21:00:00Z,-43.13,-73.62,10.0,10.0,0,0,,1.24,29.911417,,,,,,,,,,-RA,SCT,500,OVC,1500,,,,,IFR,,,,,,,,,,,,METAR,11.0
SCNT 252100Z 29015KT 9999 FEW050 09/M01 Q1010,SCNT,2023-04-25T21:00:00Z,-51.67,-72.53,9.0,-1.0,290,15,,6.21,29.822834,,,,,,,,,,,FEW,5000,,,,,,,VFR,,,,,,,,,,,,METAR,68.0
SCMK 252100Z 18008KT 9999 BKN046 10/10 Q1013,SCMK,2023-04-25T21:00:00Z,-43.9,-73.73,10.0,10.0,180,8,,6.21,29.911417,,,,,,,,,,,BKN,4600,,,,,,,VFR,,,,,,,,,,,,METAR,22.0
SCJO 252100Z 03009KT 360V060 9999 OVC030 13/12 Q1013,SCJO,2023-04-25T21:00:00Z,-40.6,-73.05,13.0,12.0,30,9,,6.21,29.911417,,,,,,,,,,,OVC,3000,,,,,,,MVFR,,,,,,,,,,,,METAR,61.0
SCIR 252100Z 31012KT 9999 OVC013 19/16 Q////,SCIR,2023-04-25T21:00:00Z,-33.67,-78.93,19.0,16.0,310,12,,6.21,,,,,,,,,,,,OVC,1300,,,,,,,MVFR,,,,,,,,,,,,METAR,132.0
SCIP 252100Z 12015KT 9999 SCT035 BKN060 24/15 Q1015 NOSIG,SCIP,2023-04-25T21:00:00Z,-27.17,-109.43,24.0,15.0,120,15,,6.21,29.970472,,,,,,TRUE,,,,,SCT,3500,BKN,6000,,,,,VFR,,,,,,,,,,,,METAR,48.0
SCIE 252100Z VRB02KT 9999 FEW016 BKN180 15/11 Q1016,SCIE,2023-04-25T21:00:00Z,-36.77,-73.07,15.0,11.0,0,2,,6.21,30.0,,,,,,,,,,,FEW,1600,BKN,18000,,,,,VFR,,,,,,,,,,,,METAR,8.0
SCIC 252100Z 20005KT 6000 NSC 18/10 Q1014,SCIC,2023-04-25T21:00:00Z,-34.97,-71.22,18.0,10.0,200,5,,3.73,29.940945,,,,,,,,,,,CLR,,,,,,,,MVFR,,,,,,,,,,,,METAR,230.0
SCGE 252100Z 09003KT 5000 HZ SCT010 BKN020 OVC070 15/11 Q1017,SCGE,2023-04-25T21:00:00Z,-37.4,-72.42,15.0,11.0,90,3,,3.11,30.029528,,,,,,,,,,HZ,SCT,1000,BKN,2000,OVC,7000,,,MVFR,,,,,,,,,,,,METAR,122.0
SCFT 252100Z 00000KT 4000 RA BKN002 OVC020 11/11 Q1013,SCFT,2023-04-25T21:00:00Z,-43.18,-71.85,11.0,11.0,0,0,,2.49,29.911417,,,,,,,,,,RA,BKN,200,OVC,2000,,,,,LIFR,,,,,,,,,,,,METAR,345.0
SCEL 252100Z 16012KT CAVOK 23/08 Q1013 NOSIG,SCEL,2023-04-25T21:00:00Z,-33.38,-70.78,23.0,8.0,160,12,,6.21,29.911417,,,,,,TRUE,,,,,CAVOK,,,,,,,,VFR,,,,,,,,,,,,METAR,478.0
SCDA 252100Z 21013KT CAVOK 22/14 Q1013,SCDA,2023-04-25T21:00:00Z,-20.53,-70.17,22.0,14.0,210,13,,6.21,29.911417,,,,,,,,,,,CAVOK,,,,,,,,VFR,,,,,,,,,,,,METAR,41.0
SCCI 252100Z 31015KT 9999 BKN049 SCT070 08/01 Q1009 NOSIG,SCCI,2023-04-25T21:00:00Z,-53.0,-70.85,8.0,1.0,310,15,,6.21,29.793306,,,,,,TRUE,,,,,BKN,4900,SCT,7000,,,,,VFR,,,,,,,,,,,,METAR,37.0
SCCH 252100Z VRB02KT 2500 HZ FEW040 BKN080 13/11 Q1016,SCCH,2023-04-25T21:00:00Z,-36.57,-72.02,13.0,11.0,0,2,,1.55,30.0,,,,,,,,,,HZ,FEW,4000,BKN,8000,,,,,IFR,,,,,,,,,,,,METAR,148.0
SCCF 252100Z 27018KT CAVOK 22/M04 Q1025,SCCF,2023-04-25T21:00:00Z,-22.5,-68.9,22.0,-4.0,270,18,,6.21,30.265747,,,,,,,,,,,CAVOK,,,,,,,,VFR,,,,,,,,,,,,METAR,2290.0
SCCC 252100Z 00000KT CAVOK 12/01 Q1013,SCCC,2023-04-25T21:00:00Z,-46.58,-71.7,12.0,1.0,0,0,,6.21,29.911417,,,,,,,,,,,CAVOK,,,,,,,,VFR,,,,,,,,,,,,METAR,305.0
SCBA 252100Z 29006KT 9999 FEW040 SCT100 BKN200 11/04 Q1012,SCBA,2023-04-25T21:00:00Z,-45.92,-71.68,11.0,4.0,290,6,,6.21,29.88189,,,,,,,,,,,FEW,4000,SCT,10000,BKN,20000,,,VFR,,,,,,,,,,,,METAR,516.0
SCAT 252100Z 25006KT 220V280 9999 SCT013 OVC017 16/13 Q1015,SCAT,2023-04-25T21:00:00Z,-27.27,-70.77,16.0,13.0,250,6,,6.21,29.970472,,,,,,,,,,,SCT,1300,OVC,1700,,,,,MVFR,,,,,,,,,,,,METAR,209.0
SCAS 252100Z 25008KT 9999 SCT015 BKN100 11/08 Q1014,SCAS,2023-04-25T21:00:00Z,-45.4,-72.67,11.0,8.0,250,8,,6.21,29.940945,,,,,,,,,,,SCT,1500,BKN,10000,,,,,VFR,,,,,,,,,,,,METAR,8.0
SCAR 252100Z 22009KT CAVOK 22/16 Q1012,SCAR,2023-04-25T21:00:00Z,-18.35,-70.33,22.0,16.0,220,9,,6.21,29.88189,,,,,,,,,,,CAVOK,,,,,,,,VFR,,,,,,,,,,,,METAR,57.0
SCAP 252100Z 00000KT 9999 -DZ FEW001 OVC040 11/10 Q1016,SCAP,2023-04-25T21:00:00Z,-43.62,-71.8,11.0,10.0,0,0,,6.21,30.0,,,,,,,,,,-DZ,FEW,100,OVC,4000,,,,,VFR,,,,,,,,,,,,METAR,252.0
SBYS 252100Z 15002KT CAVOK 25/18 Q1018,SBYS,2023-04-25T21:00:00Z,-21.97,-47.33,25.0,18.0,150,2,,6.21,30.059055,,,,,,,,,,,CAVOK,,,,,,,,VFR,,,,,,,,,,,,METAR,600.0
SBVT 252100Z 17009KT 9999 FEW010 SCT030 BKN070 25/22 Q1018,SBVT,2023-04-25T21:00:00Z,-20.25,-40.28,25.0,22.0,170,9,,6.21,30.059055,,,,,,,,,,,FEW,1000,SCT,3000,BKN,7000,,,VFR,,,,,,,,,,,,METAR,4.0
SBVH 252100Z 33004KT 9999 FEW030 28/21 Q1013,SBVH,2023-04-25T21:00:00Z,-12.68,-60.08,28.0,21.0,330,4,,6.21,29.911417,,,,,,,,,,,FEW,3000,,,,,,,VFR,,,,,,,,,,,,METAR,615.0
SBUY 252100Z 30002KT 9999 FEW020 27/24 Q1009,SBUY,2023-04-25T21:00:00Z,-4.88,-65.35,27.0,24.0,300,2,,6.21,29.793306,,,,,,,,,,,FEW,2000,,,,,,,VFR,,,,,,,,,,,,METAR,44.0
SBUR 252100Z 10006KT CAVOK 26/16 Q1019,SBUR,2023-04-25T21:00:00Z,-19.77,-47.97,26.0,16.0,100,6,,6.21,30.088583,,,,,,,,,,,CAVOK,,,,,,,,VFR,,,,,,,,,,,,METAR,807.0
SBUL 252100Z 04006KT 9999 SCT030 23/16 Q1019,SBUL,2023-04-25T21:00:00Z,-18.87,-48.22,23.0,16.0,40,6,,6.21,30.088583,,,,,,,,,,,SCT,3000,,,,,,,VFR,,,,,,,,,,,,METAR,945.0
SBTU 252100Z AUTO 02004KT 350V050 9999 // FEW100/// 28/24 Q1011,SBTU,2023-04-25T21:00:00Z,-3.78,-49.72,28.0,24.0,20,4,,6.21,29.852362,,,TRUE,,,,,,,,FEW,10000,,,,,,,VFR,,,,,,,,,,,,SPECI,250.0
SBTT 252100Z 11005KT 9999 SCT020 29/22 Q1010,SBTT,2023-04-25T21:00:00Z,-4.25,-69.93,29.0,22.0,110,5,,6.21,29.822834,,,,,,,,,,,SCT,2000,,,,,,,VFR,,,,,,,,,,,,METAR,79.0
SBTF 252100Z 31007KT 9999 SCT035 BKN100 25/23 Q1010,SBTF,2023-04-25T21:00:00Z,-3.37,-64.72,25.0,23.0,310,7,,6.21,29.822834,,,,,,,,,,,SCT,3500,BKN,10000,,,,,VFR,,,,,,,,,,,,METAR,55.0
SBTE 252100Z 14006KT 9999 FEW030 32/22 Q1009,SBTE,2023-04-25T21:00:00Z,-5.05,-42.82,32.0,22.0,140,6,,6.21,29.793306,,,,,,,,,,,FEW,3000,,,,,,,VFR,,,,,,,,,,,,METAR,60.0
SBTA 252100Z 00000KT 9999 FEW040 22/17 Q1018,SBTA,2023-04-25T21:00:00Z,-23.03,-45.5,22.0,17.0,0,0,,6.21,30.059055,,,,,,,,,,,FEW,4000,,,,,,,VFR,,,,,,,,,,,,METAR,578.0
SBSV 252100Z 12008KT 9999 SCT020 28/23 Q1014,SBSV,2023-04-25T21:00:00Z,-12.9,-38.32,28.0,23.0,120,8,,6.21,29.940945,,,,,,,,,,,SCT,2000,,,,,,,VFR,,,,,,,,,,,,METAR,9.0
SBST 252100Z 13003KT 9999 SCT027 23/19 Q1017,SBST,2023-04-25T21:00:00Z,-23.92,-46.3,23.0,19.0,130,3,,6.21,30.029528,,,,,,,,,,,SCT,2700,,,,,,,VFR,,,,,,,,,,,,METAR,5.0
SBSR 252100Z 19005KT 9999 FEW030 SCT070 23/17 Q1017,SBSR,2023-04-25T21:00:00Z,-20.8,-49.4,23.0,17.0,190,5,,6.21,30.029528,,,,,,,,,,,FEW,3000,SCT,7000,,,,,VFR,,,,,,,,,,,,METAR,537.0
SBSP 252100Z 17007KT 140V200 9999 FEW025 20/17 Q1021,SBSP,2023-04-25T21:00:00Z,-23.62,-46.65,20.0,17.0,170,7,,6.21,30.147638,,,,,,,,,,,FEW,2500,,,,,,,VFR,,,,,,,,,,,,METAR,802.0
SBSN 252100Z 18002KT 9999 TS FEW016 FEW020CB 27/25 Q1009,SBSN,2023-04-25T21:00:00Z,-2.42,-54.78,27.0,25.0,180,2,,6.21,29.793306,,,,,,,,,,TS,FEW,1600,FEW,2000,,,,,VFR,,,,,,,,,,,,METAR,57.0
SBSM 252100Z 08007KT 4500 -TSRA BR FEW007 BKN030 FEW035CB OVC100 17/17 Q1015 RERA,SBSM,2023-04-25T21:00:00Z,-29.72,-53.7,17.0,17.0,80,7,,2.8,29.970472,,,,,,,,,,-TSRA BR,FEW,700,BKN,3000,FEW,3500,OVC,10000,IFR,,,,,,,,,,,,METAR,86.0
SBSL 252100Z 07004KT 9999 FEW030 FEW035TCU SCT100 28/25 Q1010,SBSL,2023-04-25T21:00:00Z,-2.58,-44.23,28.0,25.0,70,4,,6.21,29.822834,,,,,,,,,,,FEW,3000,FEW,3500,SCT,10000,,,VFR,,,,,,,,,,,,METAR,53.0
SBSJ 252100Z 14003KT CAVOK 23/17 Q1019,SBSJ,2023-04-25T21:00:00Z,-23.22,-45.87,23.0,17.0,140,3,,6.21,30.088583,,,,,,,,,,,CAVOK,,,,,,,,VFR,,,,,,,,,,,,METAR,640.0
SBSG 252100Z 13006KT 9999 FEW020 FEW025TCU 27/24 Q1012,SBSG,2023-04-25T21:00:00Z,-5.77,-35.37,27.0,24.0,130,6,,6.21,29.88189,,,,,,,,,,,FEW,2000,FEW,2500,,,,,VFR,,,,,,,,,,,,METAR,83.0
SBSC 252100Z 13005KT CAVOK 25/21 Q1017,SBSC,2023-04-25T21:00:00Z,-22.92,-43.72,25.0,21.0,130,5,,6.21,30.029528,,,,,,,,,,,CAVOK,,,,,,,,VFR,,,,,,,,,,,,METAR,6.0
SBRP 252100Z 14005KT CAVOK 26/15 Q1017,SBRP,2023-04-25T21:00:00Z,-21.13,-47.77,26.0,15.0,140,5,,6.21,30.029528,,,,,,,,,,,CAVOK,,,,,,,,VFR,,,,,,,,,,,,METAR,550.0
SBRJ 252100Z 11009KT 9999 FEW018 SCT100 25/22 Q1017,SBRJ,2023-04-25T21:00:00Z,-22.9,-43.17,25.0,22.0,110,9,,6.21,30.029528,,,,,,,,,,,FEW,1800,SCT,10000,,,,,VFR,,,,,,,,,,,,METAR,6.0
SBRF 252100Z 18008KT 5000 -RA FEW013 SCT022 BKN050 27/24 Q1012,SBRF,2023-04-25T21:00:00Z,-8.13,-34.92,27.0,24.0,180,8,,3.11,29.88189,,,,,,,,,,-RA,FEW,1300,SCT,2200,BKN,5000,,,MVFR,,,,,,,,,,,,METAR,10.0
SBRB 252100Z 08005KT 9999 FEW030 28/25 Q1010,SBRB,2023-04-25T21:00:00Z,-9.87,-67.88,28.0,25.0,80,5,,6.21,29.822834,,,,,,,,,,,FEW,3000,,,,,,,VFR,,,,,,,,,,,,METAR,190.0
SBPV 252100Z 01003KT 9999 FEW030 FEW035TCU 29/23 Q1010,SBPV,2023-04-25T21:00:00Z,-8.72,-63.9,29.0,23.0,10,3,,6.21,29.822834,,,,,,,,,,,FEW,3000,FEW,3500,,,,,VFR,,,,,,,,,,,,METAR,89.0
SBPS 252100Z 10004KT CAVOK 25/23 Q1015,SBPS,2023-04-25T21:00:00Z,-16.43,-39.07,25.0,23.0,100,4,,6.21,29.970472,,,,,,,,,,,CAVOK,,,,,,,,VFR,,,,,,,,,,,,METAR,44.0
SBPP 252100Z 00000KT 8000 -RA BKN018 BKN080 21/19 Q1016,SBPP,2023-04-25T21:00:00Z,-22.55,-55.7,21.0,19.0,0,0,,4.97,30.0,,,,,,,,,,-RA,BKN,1800,BKN,8000,,,,,MVFR,,,,,,,,,,,,METAR,650.0
SBPL 252100Z 20004KT 9999 FEW035 30/17 Q1013,SBPL,2023-04-25T21:00:00Z,-9.37,-40.57,30.0,17.0,200,4,,6.21,29.911417,,,,,,,,,,,FEW,3500,,,,,,,VFR,,,,,,,,,,,,METAR,386.0
SBPK 252100Z 08004KT 9999 FEW040 24/20 Q1014,SBPK,2023-04-25T21:00:00Z,-31.72,-52.33,24.0,20.0,80,4,,6.21,29.940945,,,,,,,,,,,FEW,4000,,,,,,,VFR,,,,,,,,,,,,METAR,17.0
SBPJ 252100Z 25003KT 9999 FEW040 30/22 Q1012,SBPJ,2023-04-25T21:00:00Z,-10.28,-48.37,30.0,22.0,250,3,,6.21,29.88189,,,,,,,,,,,FEW,4000,,,,,,,VFR,,,,,,,,,,,,METAR,226.0
SBPF 252100Z 02002KT 9999 SCT030 SCT080 21/17 Q1017,SBPF,2023-04-25T21:00:00Z,-28.25,-52.33,21.0,17.0,20,2,,6.21,30.029528,,,,,,,,,,,SCT,3000,SCT,8000,,,,,VFR,,,,,,,,,,,,METAR,720.0
SBPB 252100Z 10011KT 9999 FEW020 BKN100 ///// Q1009,SBPB,2023-04-25T21:00:00Z,-2.88,-41.72,,,100,11,,6.21,29.793306,,,,,,,,,,,FEW,2000,BKN,10000,,,,,VFR,,,,,,,,,,,,METAR,3.0
SBPA 252100Z 15002KT 9999 FEW040 BKN100 25/17 Q1014,SBPA,2023-04-25T21:00:00Z,-30.0,-51.17,25.0,17.0,150,2,,6.21,29.940945,,,,,,,,,,,FEW,4000,BKN,10000,,,,,VFR,,,,,,,,,,,,METAR,3.0
SBOI 252100Z 09001KT 9999 SCT013 BKN030 OVC048 25/24 Q1011,SBOI,2023-04-25T21:00:00Z,3.85,-51.78,25.0,24.0,90,1,,6.21,29.852362,,,,,,,,,,,SCT,1300,BKN,3000,OVC,4800,,,MVFR,,,,,,,,,,,,METAR,15.0
SBNT 252100Z 12006KT 9999 FEW020 SCT090 26/24 Q1012,SBNT,2023-04-25T21:00:00Z,-5.92,-35.25,26.0,24.0,120,6,,6.21,29.88189,,,,,,,,,,,FEW,2000,SCT,9000,,,,,VFR,,,,,,,,,,,,METAR,51.0
SBNM 252100Z 06006KT 9999 FEW010 SCT025 BKN080 18/18 Q1014 RETS,SBNM,2023-04-25T21:00:00Z,-28.27,-54.17,18.0,18.0,60,6,,6.21,29.940945,,,,,,,,,,,FEW,1000,SCT,2500,BKN,8000,,,VFR,,,,,,,,,,,,METAR,325.0
SBNF 252100Z 06007KT 9999 FEW020 22/18 Q1016,SBNF,2023-04-25T21:00:00Z,-26.88,-48.65,22.0,18.0,60,7,,6.21,30.0,,,,,,,,,,,FEW,2000,,,,,,,VFR,,,,,,,,,,,,METAR,5.0
SBMY 252100Z AUTO VRB02KT CAVOK 31/23 Q1010,SBMY,2023-04-25T21:00:00Z,-5.82,-61.28,31.0,23.0,0,2,,6.21,29.822834,,,TRUE,,,,,,,,CAVOK,,,,,,,,VFR,,,,,,,,,,,,METAR,44.0
SBMT 252100Z 16006KT 7000 FEW049 21/17 Q1020,SBMT,2023-04-25T21:00:00Z,-23.52,-46.63,21.0,17.0,160,6,,4.35,30.11811,,,,,,,,,,,FEW,4900,,,,,,,MVFR,,,,,,,,,,,,METAR,722.0
SBMS 252100Z 18008KT 5000 TSRA SCT015 FEW030CB BKN090 25/23 Q1011,SBMS,2023-04-25T21:00:00Z,-5.2,-37.37,25.0,23.0,180,8,,3.11,29.852362,,,,,,,,,,TSRA,SCT,1500,FEW,3000,BKN,9000,,,MVFR,,,,,,,,,,,,METAR,23.0
SBMQ 252100Z 10007KT 9999 FEW023 BKN075 27/25 Q1009,SBMQ,2023-04-25T21:00:00Z,0.05,-51.07,27.0,25.0,100,7,,6.21,29.793306,,,,,,,,,,,FEW,2300,BKN,7500,,,,,VFR,,,,,,,,,,,,METAR,15.0
SBMO 252100Z 08003KT 9999 VCSH BKN009 BKN016 OVC080 25/24 Q1014,SBMO,2023-04-25T21:00:00Z,-9.52,-35.78,25.0,24.0,80,3,,6.21,29.940945,,,,,,,,,,VCSH,BKN,900,BKN,1600,OVC,8000,,,IFR,,,,,,,,,,,,METAR,116.0
SBMN 252100Z 30006KT 9999 SCT020 FEW025TCU BKN100 28/23 Q1011,SBMN,2023-04-25T21:00:00Z,-3.13,-59.98,28.0,23.0,300,6,,6.21,29.852362,,,,,,,,,,,SCT,2000,FEW,2500,BKN,10000,,,VFR,,,,,,,,,,,,METAR,71.0
SBMK 252100Z 09008KT CAVOK 26/14 Q1018,SBMK,2023-04-25T21:00:00Z,-16.7,-43.82,26.0,14.0,90,8,,6.21,30.059055,,,,,,,,,,,CAVOK,,,,,,,,VFR,,,,,,,,,,,,METAR,665.0
SBMG 252100Z 05009KT CAVOK 23/17 Q1014,SBMG,2023-04-25T21:00:00Z,-23.48,-52.02,23.0,17.0,50,9,,6.21,29.940945,,,,,,,,,,,CAVOK,,,,,,,,VFR,,,,,,,,,,,,METAR,543.0
SBME 252100Z 09007KT 9999 SCT020 26/23 Q1018,SBME,2023-04-25T21:00:00Z,-22.35,-41.77,26.0,23.0,90,7,,6.21,30.059055,,,,,,,,,,,SCT,2000,,,,,,,VFR,,,,,,,,,,,,METAR,2.0
SBMA 252100Z 29003KT 9999 FEW025 FEW030TCU 29/25 Q1010,SBMA,2023-04-25T21:00:00Z,-5.37,-49.13,29.0,25.0,290,3,,6.21,29.822834,,,,,,,,,,,FEW,2500,FEW,3000,,,,,VFR,,,,,,,,,,,,METAR,110.0
SBLS 252100Z 13006KT 9999 SCT045 SCT100 23/15 Q1021,SBLS,2023-04-25T21:00:00Z,-19.67,-43.88,23.0,15.0,130,6,,6.21,30.147638,,,,,,,,,,,SCT,4500,SCT,10000,,,,,VFR,,,,,,,,,,,,METAR,850.0
SBLO 252100Z 08005KT CAVOK 23/18 Q1017,SBLO,2023-04-25T21:00:00Z,-23.33,-51.12,23.0,18.0,80,5,,6.21,30.029528,,,,,,,,,,,CAVOK,,,,,,,,VFR,,,,,,,,,,,,METAR,563.0
SBLE 252100Z AUTO 03004KT CAVOK 25/19 Q1016,SBLE,2023-04-25T21:00:00Z,-12.48,-41.28,25.0,19.0,30,4,,6.21,30.0,,,TRUE,,,,,,,,CAVOK,,,,,,,,VFR,,,,,,,,,,,,METAR,495.0
SBLB 252100Z AUTO 12014KT 9999 NCD 26/22 Q1018 W///S4,SBLB,2023-04-25T21:00:00Z,-22.1,-39.92,26.0,22.0,120,14,,6.21,30.059055,,,TRUE,,,,,,,,CLR,,,,,,,,VFR,,,,,,,,,,,,SPECI,10.0
SBKP 252100Z 21006KT 150V230 9999 FEW045 25/15 Q1019,SBKP,2023-04-25T21:00:00Z,-23.0,-47.13,25.0,15.0,210,6,,6.21,30.088583,,,,,,,,,,,FEW,4500,,,,,,,VFR,,,,,,,,,,,,METAR,659.0
SBKG 252100Z 10006KT 9999 FEW015 SCT020 BKN080 24/22 Q1015,SBKG,2023-04-25T21:00:00Z,-7.27,-35.88,24.0,22.0,100,6,,6.21,29.970472,,,,,,,,,,,FEW,1500,SCT,2000,BKN,8000,,,VFR,,,,,,,,,,,,METAR,499.0
SBJV 252100Z 01002KT 9999 SCT025 BKN070 22/20 Q1017,SBJV,2023-04-25T21:00:00Z,-26.22,-48.8,22.0,20.0,10,2,,6.21,30.029528,,,,,,,,,,,SCT,2500,BKN,7000,,,,,VFR,,,,,,,,,,,,METAR,3.0
SBJU 252100Z 16004KT 9999 FEW020 28/22 Q1015,SBJU,2023-04-25T21:00:00Z,-7.22,-39.27,28.0,22.0,160,4,,6.21,29.970472,,,,,,,,,,,FEW,2000,,,,,,,VFR,,,,,,,,,,,,METAR,407.0
SBJR 252100Z 12007KT 9999 FEW020 25/21 Q1017,SBJR,2023-04-25T21:00:00Z,-22.98,-43.37,25.0,21.0,120,7,,6.21,30.029528,,,,,,,,,,,FEW,2000,,,,,,,VFR,,,,,,,,,,,,METAR,5.0
SBJP 252100Z 13008KT 9999 FEW040 BKN100 27/25 Q1013,SBJP,2023-04-25T21:00:00Z,-7.15,-34.95,27.0,25.0,130,8,,6.21,29.911417,,,,,,,,,,,FEW,4000,BKN,10000,,,,,VFR,,,,,,,,,,,,METAR,66.0
SBJE 252100Z 24002KT 9999 SCT015 BKN070 30/25 Q1010,SBJE,2023-04-25T21:00:00Z,-2.9,-40.35,30.0,25.0,240,2,,6.21,29.822834,,,,,,,,,,,SCT,1500,BKN,7000,,,,,VFR,,,,,,,,,,,,METAR,25.0
SBIP 252100Z AUTO VRB01KT CAVOK 23/16 Q1018,SBIP,2023-04-25T21:00:00Z,-19.47,-42.48,23.0,16.0,0,1,,6.21,30.059055,,,TRUE,,,,,,,,CAVOK,,,,,,,,VFR,,,,,,,,,,,,METAR,240.0
SBIL 252100Z 15005KT 9999 FEW025 27/24 Q1016,SBIL,2023-04-25T21:00:00Z,-14.8,-39.02,27.0,24.0,150,5,,6.21,30.0,,,,,,,,,,,FEW,2500,,,,,,,VFR,,,,,,,,,,,,METAR,9.0
SBIH 252100Z 18005KT 9999 FEW020 FEW025TCU 31/24 Q1008,SBIH,2023-04-25T21:00:00Z,-4.25,-56.0,31.0,24.0,180,5,,6.21,29.763779,,,,,,,,,,,FEW,2000,FEW,2500,,,,,VFR,,,,,,,,,,,,METAR,30.0
SBHT 252100Z 18001KT 9999 FEW030 30/26 Q1009,SBHT,2023-04-25T21:00:00Z,-3.25,-52.27,30.0,26.0,180,1,,6.21,29.793306,,,,,,,,,,,FEW,3000,,,,,,,VFR,,,,,,,,,,,,METAR,105.0
SBGW 252100Z 03004KT 9999 FEW025 23/16 Q1019,SBGW,2023-04-25T21:00:00Z,-22.78,-45.2,23.0,16.0,30,4,,6.21,30.088583,,,,,,,,,,,FEW,2500,,,,,,,VFR,,,,,,,,,,,,METAR,539.0
SBGR 252100Z 14005KT 5000 HZ NSC 23/17 Q1020,SBGR,2023-04-25T21:00:00Z,-23.42,-46.47,23.0,17.0,140,5,,3.11,30.11811,,,,,,,,,,HZ,CLR,,,,,,,,MVFR,,,,,,,,,,,,METAR,745.0
SBGL 252100Z 14008KT 9999 FEW020 BKN100 24/20 Q1017,SBGL,2023-04-25T21:00:00Z,-22.82,-43.25,24.0,20.0,140,8,,6.21,30.029528,,,,,,,,,,,FEW,2000,BKN,10000,,,,,VFR,,,,,,,,,,,,METAR,3.0
SBFZ 252100Z 09007KT CAVOK 29/24 Q1011,SBFZ,2023-04-25T21:00:00Z,-3.77,-38.52,29.0,24.0,90,7,,6.21,29.852362,,,,,,,,,,,CAVOK,,,,,,,,VFR,,,,,,,,,,,,METAR,32.0
SBFS 252100Z 09003KT 9999 SCT015 25/22 Q1018,SBFS,2023-04-25T21:00:00Z,-22.02,-41.07,25.0,22.0,90,3,,6.21,30.059055,,,,,,,,,,,SCT,1500,,,,,,,VFR,,,,,,,,,,,,METAR,3.0
SBFL 252100Z 11004KT 9999 FEW035 22/20 Q1017,SBFL,2023-04-25T21:00:00Z,-27.67,-48.53,22.0,20.0,110,4,,6.21,30.029528,,,,,,,,,,,FEW,3500,,,,,,,VFR,,,,,,,,,,,,METAR,5.0
SBES 252100Z 08007KT 9999 FEW040 23/21 Q1018,SBES,2023-04-25T21:00:00Z,-22.82,-42.1,23.0,21.0,80,7,,6.21,30.059055,,,,,,,,,,,FEW,4000,,,,,,,VFR,,,,,,,,,,,,METAR,16.0
SBEG 252100Z 29004KT 9999 FEW020 BKN100 27/25 Q1011,SBEG,2023-04-25T21:00:00Z,-3.03,-60.03,27.0,25.0,290,4,,6.21,29.852362,,,,,,,,,,,FEW,2000,BKN,10000,,,,,VFR,,,,,,,,,,,,METAR,69.0
SBDN 252100Z 06006KT CAVOK 23/19 Q1015,SBDN,2023-04-25T21:00:00Z,-22.18,-51.43,23.0,19.0,60,6,,6.21,29.970472,,,,,,,,,,,CAVOK,,,,,,,,VFR,,,,,,,,,,,,METAR,438.0
SBCZ 252100Z 07006KT 9999 VCSH BKN025 OVC100 26/23 Q1011,SBCZ,2023-04-25T21:00:00Z,-7.58,-72.77,26.0,23.0,70,6,,6.21,29.852362,,,,,,,,,,VCSH,BKN,2500,OVC,10000,,,,,MVFR,,,,,,,,,,,,METAR,193.0
SBCY 252100Z 12005KT 9999 FEW020 SCT100 24/22 Q1012,SBCY,2023-04-25T21:00:00Z,-15.65,-56.12,24.0,22.0,120,5,,6.21,29.88189,,,,,,,,,,,FEW,2000,SCT,10000,,,,,VFR,,,,,,,,,,,,METAR,182.0
SBCX 252100Z 23002KT 9999 FEW040 SCT080 19/15 Q1018,SBCX,2023-04-25T21:00:00Z,-29.2,-51.18,19.0,15.0,230,2,,6.21,30.059055,,,,,,,,,,,FEW,4000,SCT,8000,,,,,VFR,,,,,,,,,,,,METAR,752.0
SBCT 252100Z 05004KT 9999 FEW005 SCT083 18/14 Q1020,SBCT,2023-04-25T21:00:00Z,-25.52,-49.17,18.0,14.0,50,4,,6.21,30.11811,,,,,,,,,,,FEW,500,SCT,8300,,,,,VFR,,,,,,,,,,,,METAR,914.0
SBCR 252100Z 32002KT 9999 FEW030 26/21 Q1011,SBCR,2023-04-25T21:00:00Z,-19.0,-57.67,26.0,21.0,320,2,,6.21,29.852362,,,,,,,,,,,FEW,3000,,,,,,,VFR,,,,,,,,,,,,METAR,142.0
SBCP 252100Z 16006KT CAVOK 24/22 Q1018,SBCP,2023-04-25T21:00:00Z,-21.7,-41.3,24.0,22.0,160,6,,6.21,30.059055,,,,,,,,,,,CAVOK,,,,,,,,VFR,,,,,,,,,,,,METAR,15.0
SBCO 252100Z VRB02KT 9999 -RA FEW040 BKN090 23/19 Q1014,SBCO,2023-04-25T21:00:00Z,-29.95,-51.15,23.0,19.0,0,2,,6.21,29.940945,,,,,,,,,,-RA,FEW,4000,BKN,9000,,,,,VFR,,,,,,,,,,,,METAR,8.0
SBCJ 252100Z 00000KT 9999 SCT030 25/21 Q1015,SBCJ,2023-04-25T21:00:00Z,-6.12,-50.0,25.0,21.0,0,0,,6.21,29.970472,,,,,,,,,,,SCT,3000,,,,,,,VFR,,,,,,,,,,,,METAR,634.0
SBCH 252100Z 10005KT 9999 SCT015 BKN080 19/19 Q1016,SBCH,2023-04-25T21:00:00Z,-27.13,-52.67,19.0,19.0,100,5,,6.21,30.0,,,,,,,,,,,SCT,1500,BKN,8000,,,,,VFR,,,,,,,,,,,,METAR,639.0
SBCG 252100Z 01008KT 9999 FEW030 SCT100 26/21 Q1013,SBCG,2023-04-25T21:00:00Z,-20.47,-54.67,26.0,21.0,10,8,,6.21,29.911417,,,,,,,,,,,FEW,3000,SCT,10000,,,,,VFR,,,,,,,,,,,,METAR,556.0
SBCF 252100Z 09009KT 9999 FEW045 SCT100 24/15 Q1020,SBCF,2023-04-25T21:00:00Z,-19.63,-43.97,24.0,15.0,90,9,,6.21,30.11811,,,,,,,,,,,FEW,4500,SCT,10000,,,,,VFR,,,,,,,,,,,,METAR,825.0
SBCB 252100Z 08013KT 9999 FEW030 24/22 Q1018,SBCB,2023-04-25T21:00:00Z,-22.92,-42.08,24.0,22.0,80,13,,6.21,30.059055,,,,,,,,,,,FEW,3000,,,,,,,VFR,,,,,,,,,,,,METAR,3.0
SBCA 252100Z 04016KT 9999 SCT030 BKN080 22/16 Q1015,SBCA,2023-04-25T21:00:00Z,-25.0,-53.5,22.0,16.0,40,16,,6.21,29.970472,,,,,,,,,,,SCT,3000,BKN,8000,,,,,VFR,,,,,,,,,,,,METAR,753.0
SBBW 252100Z /////KT 9999 SCT020 28/23 Q1014,SBBW,2023-04-25T21:00:00Z,-15.87,-52.38,28.0,23.0,,,,6.21,29.940945,,,,,,,,,,,SCT,2000,,,,,,,VFR,,,,,,,,,,,,SPECI,354.0
SBBV 252100Z 25004KT 9999 -RA BKN006 FEW035TCU OVC100 23/23 Q1012,SBBV,2023-04-25T21:00:00Z,2.85,-60.7,23.0,23.0,250,4,,6.21,29.88189,,,,,,,,,,-RA,BKN,600,FEW,3500,OVC,10000,,,IFR,,,,,,,,,,,,METAR,80.0
SBBU 252100Z 24001KT 9999 FEW035 SCT100 23/18 Q1018,SBBU,2023-04-25T21:00:00Z,-22.33,-49.07,23.0,18.0,240,1,,6.21,30.059055,,,,,,,,,,,FEW,3500,SCT,10000,,,,,VFR,,,,,,,,,,,,METAR,616.0
SBBR 252100Z 11009KT 9999 SCT040 FEW045TCU 24/15 Q1019,SBBR,2023-04-25T21:00:00Z,-15.87,-47.92,24.0,15.0,110,9,,6.21,30.088583,,,,,,,,,,,SCT,4000,FEW,4500,,,,,VFR,,,,,,,,,,,,METAR,1051.0
SBBI 252100Z 02003KT CAVOK 18/15 Q1020,SBBI,2023-04-25T21:00:00Z,-25.4,-49.23,18.0,15.0,20,3,,6.21,30.11811,,,,,,,,,,,CAVOK,,,,,,,,VFR,,,,,,,,,,,,METAR,928.0
SBBH 252100Z 10006KT CAVOK 24/14 Q1020,SBBH,2023-04-25T21:00:00Z,-19.85,-43.95,24.0,14.0,100,6,,6.21,30.11811,,,,,,,,,,,CAVOK,,,,,,,,VFR,,,,,,,,,,,,METAR,799.0
SBBG 252100Z AUTO 04006KT CAVOK 19/17 Q1013,SBBG,2023-04-25T21:00:00Z,-31.38,-54.12,19.0,17.0,40,6,,6.21,29.911417,,,TRUE,,,,,,,,CAVOK,,,,,,,,VFR,,,,,,,,,,,,METAR,182.0
SBBE 252100Z 07007KT 9999 FEW012 SCT025 BKN100 27/24 Q1010 RERA,SBBE,2023-04-25T21:00:00Z,-1.37,-48.47,27.0,24.0,70,7,,6.21,29.822834,,,,,,,,,,,FEW,1200,SCT,2500,BKN,10000,,,VFR,,,,,,,,,,,,METAR,16.0
SBAX 252100Z 13004KT 9999 SCT035 24/14 Q1020,SBAX,2023-04-25T21:00:00Z,-19.57,-46.97,24.0,14.0,130,4,,6.21,30.11811,,,,,,,,,,,SCT,3500,,,,,,,VFR,,,,,,,,,,,,METAR,989.0
SBAU 252100Z 12010KT 9999 FEW020 SCT080 23/18 Q1015,SBAU,2023-04-25T21:00:00Z,-21.13,-50.43,23.0,18.0,120,10,,6.21,29.970472,,,,,,,,,,,FEW,2000,SCT,8000,,,,,VFR,,,,,,,,,,,,METAR,415.0
SBAR 252100Z 14007KT 6000 -RA SCT008 BKN016 OVC030 23/23 Q1014,SBAR,2023-04-25T21:00:00Z,-10.98,-37.07,23.0,23.0,140,7,,3.73,29.940945,,,,,,,,,,-RA,SCT,800,BKN,1600,OVC,3000,,,MVFR,,,,,,,,,,,,METAR,4.0
SBAN 252100Z 07004KT 9999 VCSH SCT030 FEW040TCU 23/18 Q1020 RESHRA,SBAN,2023-04-25T21:00:00Z,-16.22,-48.97,23.0,18.0,70,4,,6.21,30.11811,,,,,,,,,,VCSH,SCT,3000,FEW,4000,,,,,VFR,,,,,,,,,,,,METAR,1131.0
SBAF 252100Z 00000KT CAVOK 24/22 Q1017,SBAF,2023-04-25T21:00:00Z,-22.87,-43.38,24.0,22.0,0,0,,6.21,30.029528,,,,,,,,,,,CAVOK,,,,,,,,VFR,,,,,,,,,,,,METAR,34.0
SAZS 252100Z 26008KT 9000 SHRA SCT035 SCT050 OVC200 11/06 Q1013 RMK PP///,SAZS,2023-04-25T21:00:00Z,-41.15,-71.17,11.0,6.0,260,8,,5.59,29.911417,,,,,,,,,,SHRA,SCT,3500,SCT,5000,OVC,20000,,,VFR,,,,,,,,,,,,SPECI,843.0
SAZN 252100Z 29005KT CAVOK 22/08 Q1010,SAZN,2023-04-25T21:00:00Z,-38.95,-68.15,22.0,8.0,290,5,,6.21,29.822834,,,,,,,,,,,CAVOK,,,,,,,,VFR,,,,,,,,,,,,METAR,273.0
SAZM 252100Z 07004KT 0500 R13/0700 BCFG BKN002 16/16 Q1013 RMK PP///,SAZM,2023-04-25T21:00:00Z,-37.92,-57.57,16.0,16.0,70,4,,0.31,29.911417,,,,,,,,,,BCFG,BKN,200,,,,,,,LIFR,,,,,,,,,,,,SPECI,17.0
SAWH 252100Z VRB02KT 9999 FEW032 SCT040 BKN070 06/01 Q1003 RMK PP000,SAWH,2023-04-25T21:00:00Z,-54.85,-68.3,6.0,1.0,0,2,,6.21,29.616142,,,,,,,,,,,FEW,3200,SCT,4000,BKN,7000,,,VFR,,,,,,,,,,,,METAR,22.0
SAWG 252100Z 23009KT CAVOK 10/M01 Q1011,SAWG,2023-04-25T21:00:00Z,-51.62,-69.27,10.0,-1.0,230,9,,6.21,29.852362,,,,,,,,,,,CAVOK,,,,,,,,VFR,,,,,,,,,,,,METAR,15.0
SAWE 252100Z 30013KT CAVOK 07/M00 Q1007 RMK PP000,SAWE,2023-04-25T21:00:00Z,-53.78,-67.75,7.0,0.0,300,13,,6.21,29.734253,,,,,,,,,,,CAVOK,,,,,,,,VFR,,,,,,,,,,,,SPECI,22.0
SAVC 252100Z 08006KT 9999 FEW020 BKN100 13/10 Q1014 RMK PP000,SAVC,2023-04-25T21:00:00Z,-45.78,-67.47,13.0,10.0,80,6,,6.21,29.940945,,,,,,,,,,,FEW,2000,BKN,10000,,,,,VFR,,,,,,,,,,,,SPECI,58.0
SASJ 252100Z 06006KT 030V090 CAVOK 21/16 Q1016 RMK PP000,SASJ,2023-04-25T21:00:00Z,-24.38,-65.1,21.0,16.0,60,6,,6.21,30.0,,,,,,,,,,,CAVOK,,,,,,,,VFR,,,,,,,,,,,,SPECI,913.0
SASA 252100Z 05008KT CAVOK 22/13 Q1016 RMK PP000,SASA,2023-04-25T21:00:00Z,-24.85,-65.48,22.0,13.0,50,8,,6.21,30.0,,,,,,,,,,,CAVOK,,,,,,,,VFR,,,,,,,,,,,,SPECI,1235.0
SARP 252100Z 36004KT 9999 SCT015 BKN100 21/20 Q1013,SARP,2023-04-25T21:00:00Z,-27.38,-55.97,21.0,20.0,360,4,,6.21,29.911417,,,,,,,,,,,SCT,1500,BKN,10000,,,,,VFR,,,,,,,,,,,,METAR,123.0
SARL 252100Z 27008KT CAVOK 22/16 Q1012,SARL,2023-04-25T21:00:00Z,-29.68,-57.15,22.0,16.0,270,8,,6.21,29.88189,,,,,,,,,,,CAVOK,,,,,,,,VFR,,,,,,,,,,,,METAR,70.0
SARF 252100Z 23007KT CAVOK 23/17 Q1012,SARF,2023-04-25T21:00:00Z,-26.22,-58.22,23.0,17.0,230,7,,6.21,29.88189,,,,,,,,,,,CAVOK,,,,,,,,VFR,,,,,,,,,,,,METAR,65.0
SARE 252100Z 14004KT 120V180 CAVOK 23/15 Q1013 RMK PP///,SARE,2023-04-25T21:00:00Z,-27.43,-59.05,23.0,15.0,140,4,,6.21,29.911417,,,,,,,,,,,CAVOK,,,,,,,,VFR,,,,,,,,,,,,SPECI,52.0
SARC 252100Z 16004KT 8000 FEW030 21/16 Q1013,SARC,2023-04-25T21:00:00Z,-27.43,-58.77,21.0,16.0,160,4,,4.97,29.911417,,,,,,,,,,,FEW,3000,,,,,,,MVFR,,,,,,,,,,,,METAR,60.0
SAOC 252100Z 05005KT CAVOK 23/12 Q1012,SAOC,2023-04-25T21:00:00Z,-33.08,-64.27,23.0,12.0,50,5,,6.21,29.88189,,,,,,,,,,,CAVOK,,,,,,,,VFR,,,,,,,,,,,,METAR,422.0
SANT 252100Z 09003KT 070V140 CAVOK 24/15 Q1013 RMK PP000,SANT,2023-04-25T21:00:00Z,-26.85,-65.1,24.0,15.0,90,3,,6.21,29.911417,,,,,,,,,,,CAVOK,,,,,,,,VFR,,,,,,,,,,,,SPECI,446.0
SAME 252100Z 02009KT CAVOK 26/07 Q1011,SAME,2023-04-25T21:00:00Z,-32.82,-68.78,26.0,7.0,20,9,,6.21,29.852362,,,,,,,,,,,CAVOK,,,,,,,,VFR,,,,,,,,,,,,METAR,709.0
SAEZ 252100Z 20003KT 8000 -RA BKN020 BKN060 18/18 Q1012 NOSIG RMK PP001,SAEZ,2023-04-25T21:00:00Z,-34.82,-58.53,18.0,18.0,200,3,,4.97,29.88189,,,,,,TRUE,,,,-RA,BKN,2000,BKN,6000,,,,,MVFR,,,,,,,,,,,,SPECI,16.0
SADF 252100Z 09005KT 9999 FEW050TCU SCT100 20/16 Q1012 RMK PP000,SADF,2023-04-25T21:00:00Z,-34.45,-58.58,20.0,16.0,90,5,,6.21,29.88189,,,,,,,,,,,FEW,5000,SCT,10000,,,,,VFR,,,,,,,,,,,,METAR,4.0
SACO 252100Z 13004KT 090V160 9999 FEW045 23/10 Q1013 NOSIG RMK PP000,SACO,2023-04-25T21:00:00Z,-31.32,-64.22,23.0,10.0,130,4,,6.21,29.911417,,,,,,TRUE,,,,,FEW,4500,,,,,,,VFR,,,,,,,,,,,,SPECI,474.0
SABE 252100Z VRB02KT 9999 FEW049TCU BKN100 19/16 Q1013 NOSIG RMK PP000,SABE,2023-04-25T21:00:00Z,-34.57,-58.42,19.0,16.0,0,2,,6.21,29.911417,,,,,,TRUE,,,,,FEW,4900,BKN,10000,,,,,VFR,,,,,,,,,,,,SPECI,3.0
SAAR 252100Z 02004KT CAVOK 20/17 Q1012 RMK PP000,SAAR,2023-04-25T21:00:00Z,-32.92,-60.77,20.0,17.0,20,4,,6.21,29.88189,,,,,,,,,,,CAVOK,,,,,,,,VFR,,,,,,,,,,,,SPECI,24.0
RPVP 252100Z 21004KT 9999 FEW019 27/24 Q1008 RMK A2977,RPVP,2023-04-25T21:00:00Z,9.75,118.75,27.0,24.0,210,4,,6.21,29.763779,,,,,,,,,,,FEW,1900,,,,,,,VFR,,,,,,,,,,,,METAR,15.0
RPVM 252100Z 36005KT 9999 FEW020 SCT300 27/24 Q1009 NOSIG RMK A2980,RPVM,2023-04-25T21:00:00Z,10.32,123.98,27.0,24.0,360,5,,6.21,29.793306,,,,,,TRUE,,,,,FEW,2000,SCT,30000,,,,,VFR,,,,,,,,,,,,METAR,9.0
"RPVD 252100Z 29004KT 9999 SCT015TCU BKN070 27/25 Q1008 RMK A2977 TCU E,SE",RPVD,2023-04-25T21:00:00Z,9.33,123.3,27.0,25.0,290,4,,6.21,29.763779,,,,,,,,,,,SCT,1500,BKN,7000,,,,,VFR,,,,,,,,,,,,METAR,11.0
RPMZ 252100Z 00000KT 9999 FEW016CB SCT300 25/23 Q1008 RMK A2977 CB/LTNG NE,RPMZ,2023-04-25T21:00:00Z,6.92,122.07,25.0,23.0,0,0,,6.21,29.763779,,,,,,,,,,,FEW,1600,SCT,30000,,,,,VFR,,,,,,,,,,,,METAR,8.0
RPMD 252100Z VRB02KT 9999 FEW016 BKN260 25/25 Q1009 RMK A2980,RPMD,2023-04-25T21:00:00Z,7.12,125.65,25.0,25.0,0,2,,6.21,29.793306,,,,,,,,,,,FEW,1600,BKN,26000,,,,,VFR,,,,,,,,,,,,METAR,19.0
RPLL 252100Z VRB02KT 9999 FEW025 SCT100 28/23 Q1009 NOSIG RMK A2980,RPLL,2023-04-25T21:00:00Z,14.52,121.0,28.0,23.0,0,2,,6.21,29.793306,,,,,,TRUE,,,,,FEW,2500,SCT,10000,,,,,VFR,,,,,,,,,,,,METAR,15.0
RPLI 252100Z VRB02KT 9999 FEW018 25/22 Q1008 NOSIG RMK A2977,RPLI,2023-04-25T21:00:00Z,18.17,120.52,25.0,22.0,0,2,,6.21,29.763779,,,,,,TRUE,,,,,FEW,1800,,,,,,,VFR,,,,,,,,,,,,METAR,5.0
RPLC 252100Z 32001KT 8000 SCT020 BKN100 27/22 Q1009 NOSIG RMK A2980,RPLC,2023-04-25T21:00:00Z,15.18,120.55,27.0,22.0,320,1,,4.97,29.793306,,,,,,TRUE,,,,,SCT,2000,BKN,10000,,,,,MVFR,,,,,,,,,,,,METAR,138.0
RPLB 252100Z 05006KT 020V090 9999 FEW020 BKN080 27/23 Q1009 NOSIG RMK A2980,RPLB,2023-04-25T21:00:00Z,14.8,120.27,27.0,23.0,50,6,,6.21,29.793306,,,,,,TRUE,,,,,FEW,2000,BKN,8000,,,,,VFR,,,,,,,,,,,,METAR,19.0
ROYN 252100Z AUTO 02023KT 9999 BKN007 BKN009 BKN010 21/20 Q1013,ROYN,2023-04-25T21:00:00Z,24.47,122.97,21.0,20.0,20,23,,6.21,29.911417,,,TRUE,,,,,,,,BKN,700,BKN,900,BKN,1000,,,IFR,,,,,,,,,,,,METAR,21.0
RORY 252100Z AUTO 34014KT 9999 FEW008 BKN010 BKN024 20/19 Q1012,RORY,2023-04-25T21:00:00Z,27.05,128.4,20.0,19.0,340,14,,6.21,29.88189,,,TRUE,,,,,,,,FEW,800,BKN,1000,BKN,2400,,,MVFR,,,,,,,,,,,,METAR,13.0
RORT 252100Z AUTO 01011KT 350V050 9999 -RA BKN014 OVC021 22/19 Q1012,RORT,2023-04-25T21:00:00Z,24.63,124.7,22.0,19.0,10,11,,6.21,29.88189,,,TRUE,,,,,,,-RA,BKN,1400,OVC,2100,,,,,MVFR,,,,,,,,,,,,METAR,9.0
RORS 252100Z AUTO 02017KT 9999 OVC016 21/19 Q1012,RORS,2023-04-25T21:00:00Z,24.82,125.15,21.0,19.0,20,17,,6.21,29.88189,,,TRUE,,,,,,,,OVC,1600,,,,,,,MVFR,,,,,,,,,,,,METAR,13.0
RORK 252100Z AUTO 26004KT 9999 SCT040 22/20 Q1011,RORK,2023-04-25T21:00:00Z,25.93,131.32,22.0,20.0,260,4,,6.21,29.852362,,,TRUE,,,,,,,,SCT,4000,,,,,,,VFR,,,,,,,,,,,,METAR,11.0
ROMY 252100Z AUTO 02011KT 9999 SCT013 OVC016 21/19 Q1012,ROMY,2023-04-25T21:00:00Z,24.78,125.27,21.0,19.0,20,11,,6.21,29.88189,,,TRUE,,,,,,,,SCT,1300,OVC,1600,,,,,MVFR,,,,,,,,,,,,METAR,38.0
ROMD 252100Z AUTO 24003KT 9999 FEW030 22/21 Q1011,ROMD,2023-04-25T21:00:00Z,25.83,131.25,22.0,21.0,240,3,,6.21,29.852362,,,TRUE,,,,,,,,FEW,3000,,,,,,,VFR,,,,,,,,,,,,METAR,45.0
ROIG 252100Z AUTO 03011KT 9999 BKN014 OVC020 21/19 Q1012,ROIG,2023-04-25T21:00:00Z,24.38,124.23,21.0,19.0,30,11,,6.21,29.88189,,,TRUE,,,,,,,,BKN,1400,OVC,2000,,,,,MVFR,,,,,,,,,,,,METAR,37.0
ROAH 252100Z 35015KT 9999 -SHRA FEW007 BKN009 BKN013 20/19 Q1012,ROAH,2023-04-25T21:00:00Z,26.18,127.65,20.0,19.0,350,15,,6.21,29.88189,,,,,,,,,,-SHRA,FEW,700,BKN,900,BKN,1300,,,IFR,,,,,,,,,,,,METAR,6.0
RKTU 252100Z 25006KT 1600 BR FEW005 BKN060 05/05 Q1012,RKTU,2023-04-25T21:00:00Z,36.7,127.5,5.0,5.0,250,6,,0.99,29.88189,,,,,,,,,,BR,FEW,500,BKN,6000,,,,,LIFR,,,,,,,,,,,,METAR,46.0
RKTN 252100Z 28001KT 8000 FEW030 05/05 Q1012,RKTN,2023-04-25T21:00:00Z,35.88,128.65,5.0,5.0,280,1,,4.97,29.88189,,,,,,,,,,,FEW,3000,,,,,,,MVFR,,,,,,,,,,,,METAR,25.0
RKSS 252100Z 24006KT 200V290 9999 FEW015 BKN025 10/07 Q1011 NOSIG,RKSS,2023-04-25T21:00:00Z,37.55,126.78,10.0,7.0,240,6,,6.21,29.852362,,,,,,TRUE,,,,,FEW,1500,BKN,2500,,,,,MVFR,,,,,,,,,,,,METAR,18.0
RKSM 252100Z 22006KT 9999 BKN020 BKN030 10/06 A2986,RKSM,2023-04-25T21:00:00Z,37.43,127.12,10.0,6.0,220,6,,6.21,29.861221,,,,,,,,,,,BKN,2000,BKN,3000,,,,,MVFR,,,,,,,,,,,,METAR,18.0
RKSI 252100Z 26011KT 9999 SCT012 BKN015 09/06 Q1011 NOSIG,RKSI,2023-04-25T21:00:00Z,37.47,126.45,9.0,6.0,260,11,,6.21,29.852362,,,,,,TRUE,,,,,SCT,1200,BKN,1500,,,,,MVFR,,,,,,,,,,,,METAR,7.0
RKPK 252100Z 34003KT 9000 FEW030 08/06 Q1012,RKPK,2023-04-25T21:00:00Z,35.17,128.93,8.0,6.0,340,3,,5.59,29.88189,,,,,,,,,,,FEW,3000,,,,,,,VFR,,,,,,,,,,,,METAR,3.0
RKPC 252100Z 21007KT 9999 FEW030 08/05 Q1015 NOSIG,RKPC,2023-04-25T21:00:00Z,33.5,126.48,8.0,5.0,210,7,,6.21,29.970472,,,,,,TRUE,,,,,FEW,3000,,,,,,,VFR,,,,,,,,,,,,METAR,23.0
RKNY 252100Z 28009G21KT 180V320 CAVOK 10/02 Q1008 NOSIG,RKNY,2023-04-25T21:00:00Z,38.07,128.67,10.0,2.0,280,9,21,6.21,29.763779,,,,,,TRUE,,,,,CAVOK,,,,,,,,VFR,,,,,,,,,,,,METAR,76.0
RKJB 252100Z 28003KT 210V340 9999 SCT015 10/07 Q1014 NOSIG,RKJB,2023-04-25T21:00:00Z,34.98,126.38,10.0,7.0,280,3,,6.21,29.940945,,,,,,TRUE,,,,,SCT,1500,,,,,,,VFR,,,,,,,,,,,,METAR,16.0
RJTT 252100Z 09008KT 9999 -RA FEW015 BKN030 BKN050 15/13 Q1012 NOSIG,RJTT,2023-04-25T21:00:00Z,35.55,139.77,15.0,13.0,90,8,,6.21,29.88189,,,,,,TRUE,,,,-RA,FEW,1500,BKN,3000,BKN,5000,,,MVFR,,,,,,,,,,,,METAR,5.0
RJSM 252100Z 13007KT 9999 -RA FEW008 SCT045 OVC080 10/07 Q1008,RJSM,2023-04-25T21:00:00Z,40.7,141.37,10.0,7.0,130,7,,6.21,29.763779,,,,,,,,,,-RA,FEW,800,SCT,4500,OVC,8000,,,VFR,,,,,,,,,,,,METAR,31.0
RJOS 252100Z 16022KT 2000 -SHRA BR SCT005 BKN008 OVC012 17/17 Q1004,RJOS,2023-04-25T21:00:00Z,34.12,134.62,17.0,17.0,160,22,,1.24,29.64567,,,,,,,,,,-SHRA BR,SCT,500,BKN,800,OVC,1200,,,IFR,,,,,,,,,,,,METAR,3.0
RJOO 252100Z AUTO 08008KT 9999 -RA NSC 16/15 Q1004,RJOO,2023-04-25T21:00:00Z,34.78,135.43,16.0,15.0,80,8,,6.21,29.64567,,,TRUE,,,,,,,-RA,CLR,,,,,,,,VFR,,,,,,,,,,,,METAR,11.0
RJOK 252100Z AUTO 20015KT 9999 -RA FEW006 BKN010 OVC013 //////TCU 19/19 Q1004,RJOK,2023-04-25T21:00:00Z,33.53,133.67,19.0,19.0,200,15,,6.21,29.64567,,,TRUE,,,,,,,-RA,FEW,600,BKN,1000,OVC,1300,,,MVFR,,,,,,,,,,,,SPECI,7.0
RJOH 252100Z 24003KT 220V280 9999 -SHRA FEW006 BKN015 OVC025 11/11 Q1008,RJOH,2023-04-25T21:00:00Z,35.48,133.25,11.0,11.0,240,3,,6.21,29.763779,,,,,,,,,,-SHRA,FEW,600,BKN,1500,OVC,2500,,,MVFR,,,,,,,,,,,,METAR,6.0
RJNK 252100Z 36011KT 9999 -SHRA FEW015 SCT030 BKN050 13/11 Q1005,RJNK,2023-04-25T21:00:00Z,36.38,136.42,13.0,11.0,360,11,,6.21,29.675198,,,,,,,,,,-SHRA,FEW,1500,SCT,3000,BKN,5000,,,VFR,,,,,,,,,,,,METAR,7.0
RJKI 252100Z AUTO 33017KT 9999 -RA FEW009 SCT017 BKN020 19/17 Q1011,RJKI,2023-04-25T21:00:00Z,28.32,129.92,19.0,17.0,330,17,,6.21,29.852362,,,TRUE,,,,,,,-RA,FEW,900,SCT,1700,BKN,2000,,,MVFR,,,,,,,,,,,,METAR,6.0
RJKA 252100Z AUTO 33008KT 300V010 9999 RA FEW008 SCT022 BKN050 18/17 Q1010,RJKA,2023-04-25T21:00:00Z,28.42,129.72,18.0,17.0,330,8,,6.21,29.822834,,,TRUE,,,,,,,RA,FEW,800,SCT,2200,BKN,5000,,,VFR,,,,,,,,,,,,METAR,7.0
RJGG 252100Z 11024KT 5000 -SHRA BR FEW004 BKN006 BKN015 14/14 Q1008 TEMPO 14028G38KT 3000 SHRA BR FEW004 BKN005,RJGG,2023-04-25T21:00:00Z,34.87,136.8,14.0,14.0,110,24,,3.11,29.763779,,,,,,,,,,-SHRA BR,FEW,400,BKN,600,BKN,1500,,,IFR,,,,,,,,,,,,METAR,5.0
RJFR 252100Z 32010KT 290V350 9999 -SHRA FEW006 SCT020 BKN030 13/10 Q1010,RJFR,2023-04-25T21:00:00Z,33.83,131.03,13.0,10.0,320,10,,6.21,29.822834,,,,,,,,,,-SHRA,FEW,600,SCT,2000,BKN,3000,,,MVFR,,,,,,,,,,,,METAR,9.0
RJFM 252100Z AUTO 26018KT 9999 FEW047 OVC130 //////TCU 16/14 Q1006,RJFM,2023-04-25T21:00:00Z,31.87,131.43,16.0,14.0,260,18,,6.21,29.704725,,,TRUE,,,,,,,,FEW,4700,OVC,13000,,,,,VFR,,,,,,,,,,,,SPECI,10.0
RJFK 252100Z 31013KT 9999 FEW010 SCT015 BKN140 13/11 Q1009,RJFK,2023-04-25T21:00:00Z,31.8,130.72,13.0,11.0,310,13,,6.21,29.793306,,,,,,,,,,,FEW,1000,SCT,1500,BKN,14000,,,VFR,,,,,,,,,,,,METAR,271.0
RJFF 252100Z 32009KT 9999 -SHRA FEW003 SCT015 BKN025 13/11 Q1010 NOSIG,RJFF,2023-04-25T21:00:00Z,33.58,130.45,13.0,11.0,320,9,,6.21,29.822834,,,,,,TRUE,,,,-SHRA,FEW,300,SCT,1500,BKN,2500,,,MVFR,,,,,,,,,,,,METAR,7.0
RJDB 252100Z AUTO 32003KT 280V360 9999 OVC041 12/10 Q1011,RJDB,2023-04-25T21:00:00Z,33.75,129.78,12.0,10.0,320,3,,6.21,29.852362,,,TRUE,,,,,,,,OVC,4100,,,,,,,VFR,,,,,,,,,,,,METAR,13.0
RJCO 252100Z 16022KT 9000 -SHRA FEW010 BKN015 BKN020 08/07 Q1010,RJCO,2023-04-25T21:00:00Z,43.12,141.37,8.0,7.0,160,22,,5.59,29.822834,,,,,,,,,,-SHRA,FEW,1000,BKN,1500,BKN,2000,,,MVFR,,,,,,,,,,,,METAR,7.0
RJCC 252100Z 14023G34KT 5000 SHRA BR FEW006 BKN010 BKN015 08/07 Q1009,RJCC,2023-04-25T21:00:00Z,42.77,141.68,8.0,7.0,140,23,34,3.11,29.793306,,,,,,,,,,SHRA BR,FEW,600,BKN,1000,BKN,1500,,,MVFR,,,,,,,,,,,,METAR,19.0
RJBB 252100Z 07006KT 9999 -SHRA FEW020 SCT040 BKN050 15/14 Q1004 TEMPO 3000 SHRA BR BECMG 19022G33KT,RJBB,2023-04-25T21:00:00Z,34.43,135.25,15.0,14.0,70,6,,6.21,29.64567,,,,,,,,,,-SHRA,FEW,2000,SCT,4000,BKN,5000,,,VFR,,,,,,,,,,,,METAR,8.0
RJAH 252100Z 02003KT 3000 -SHRA BR FEW008 BKN015 12/12 Q1013,RJAH,2023-04-25T21:00:00Z,36.17,140.42,12.0,12.0,20,3,,1.86,29.911417,,,,,,,,,,-SHRA BR,FEW,800,BKN,1500,,,,,IFR,,,,,,,,,,,,METAR,31.0
RJAA 252100Z 13003KT 8000 -RA FEW005 SCT030 BKN040 14/13 Q1013 NOSIG,RJAA,2023-04-25T21:00:00Z,35.77,140.38,14.0,13.0,130,3,,4.97,29.911417,,,,,,TRUE,,,,-RA,FEW,500,SCT,3000,BKN,4000,,,MVFR,,,,,,,,,,,,METAR,36.0
RCTP 252100Z 05016KT 9999 -RA FEW006 BKN012 BKN020 18/17 Q1014 NOSIG RMK A2996,RCTP,2023-04-25T21:00:00Z,25.07,121.22,18.0,17.0,50,16,,6.21,29.940945,,,,,,TRUE,,,,-RA,FEW,600,BKN,1200,BKN,2000,,,MVFR,,,,,,,,,,,,METAR,33.0
RCSS 252100Z 09006KT 9999 -RA FEW010 BKN032 BKN040 18/16 Q1014 NOSIG RMK A2997,RCSS,2023-04-25T21:00:00Z,25.07,121.55,18.0,16.0,90,6,,6.21,29.940945,,,,,,TRUE,,,,-RA,FEW,1000,BKN,3200,BKN,4000,,,VFR,,,,,,,,,,,,SPECI,8.0
RCNN 252100Z 36006KT 6000 FEW010 BKN060 21/18 Q1011 NOSIG RMK A2987,RCNN,2023-04-25T21:00:00Z,22.93,120.2,21.0,18.0,360,6,,3.73,29.852362,,,,,,TRUE,,,,,FEW,1000,BKN,6000,,,,,MVFR,,,,,,,,,,,,SPECI,15.0
RCMQ 252100Z 36009KT 8000 FEW006 SCT030 BKN050 18/17 Q1012 NOSIG RMK A2991,RCMQ,2023-04-25T21:00:00Z,24.27,120.62,18.0,17.0,360,9,,4.97,29.88189,,,,,,TRUE,,,,,FEW,600,SCT,3000,BKN,5000,,,MVFR,,,,,,,,,,,,SPECI,202.0
RCKH 252100Z 01005KT 4000 BR SCT010 BKN025 BKN050 23/20 Q1010 NOSIG RMK A2985,RCKH,2023-04-25T21:00:00Z,22.57,120.33,23.0,20.0,10,5,,2.49,29.822834,,,,,,TRUE,,,,BR,SCT,1000,BKN,2500,BKN,5000,,,IFR,,,,,,,,,,,,METAR,6.0
PLCH 252100Z 08005KT 9999 FEW018TCU SCT020 29/26 Q1010,PLCH,2023-04-25T21:00:00Z,1.98,-157.35,29.0,26.0,80,5,,6.21,29.822834,,,,,,,,,,,FEW,1800,SCT,2000,,,,,VFR,,,,,,,,,,,,METAR,5.0
PASO 252100Z AUTO 01004KT 10SM -RA BKN011 BKN019 OVC025 04/03 A2966 RMK AO2 P0000 T00440028 TSNO,PASO,2023-04-25T21:00:00Z,59.45,-151.7,4.4,2.8,10,4,,10.0,29.660433,,,TRUE,TRUE,,,TRUE,,,-RA,BKN,1100,BKN,1900,OVC,2500,,,MVFR,,,,,,0.005,,,,,,METAR,20.0
OTHH 252100Z AUTO 33008KT CAVOK 26/19 Q1007 NOSIG,OTHH,2023-04-25T21:00:00Z,25.27,51.6,26.0,19.0,330,8,,6.21,29.734253,,,TRUE,,,TRUE,,,,,CAVOK,,,,,,,,VFR,,,,,,,,,,,,METAR,3.0
OTBD 252100Z AUTO 33006KT 300V360 CAVOK 28/18 Q1007 NOSIG,OTBD,2023-04-25T21:00:00Z,25.25,51.57,28.0,18.0,330,6,,6.21,29.734253,,,TRUE,,,TRUE,,,,,CAVOK,,,,,,,,VFR,,,,,,,,,,,,METAR,13.0
OSLK 252100Z 06004KT CAVOK 13/12 Q1014,OSLK,2023-04-25T21:00:00Z,35.4,35.95,13.0,12.0,60,4,,6.21,29.940945,,,,,,,,,,,CAVOK,,,,,,,,VFR,,,,,,,,,,,,METAR,47.0
OSKL 252100Z 34006KT 9999 11/07 Q1012,OSKL,2023-04-25T21:00:00Z,37.03,41.2,11.0,7.0,340,6,,6.21,29.88189,,,,,,,,,,,,,,,,,,,,,,,,,,,,,,,METAR,443.0
OSDI 252100Z 21008KT CAVOK 15/06 Q1014,OSDI,2023-04-25T21:00:00Z,33.42,36.52,15.0,6.0,210,8,,6.21,29.940945,,,,,,,,,,,CAVOK,,,,,,,,VFR,,,,,,,,,,,,METAR,614.0
OSAP 252100Z 30006KT CAVOK 15/06 Q1014,OSAP,2023-04-25T21:00:00Z,36.17,37.22,15.0,6.0,300,6,,6.21,29.940945,,,,,,,,,,,CAVOK,,,,,,,,VFR,,,,,,,,,,,,METAR,390.0
ORSU 252100Z 30006KT CAVOK 08/07 Q1016,ORSU,2023-04-25T21:00:00Z,35.57,45.32,8.0,7.0,300,6,,6.21,30.0,,,,,,,,,,,CAVOK,,,,,,,,VFR,,,,,,,,,,,,METAR,760.0
ORNI 252100Z 00000KT 8000 NSC 24/09 Q1010,ORNI,2023-04-25T21:00:00Z,31.98,44.4,24.0,9.0,0,0,,4.97,29.822834,,,,,,,,,,,CLR,,,,,,,,MVFR,,,,,,,,,,,,METAR,33.0
ORMM 252100Z 30005KT CAVOK 23/10 Q1009 NOSIG,ORMM,2023-04-25T21:00:00Z,30.53,47.67,23.0,10.0,300,5,,6.21,29.793306,,,,,,TRUE,,,,,CAVOK,,,,,,,,VFR,,,,,,,,,,,,METAR,2.0
ORER 252100Z VRB02KT 9000 NSC 16/07 Q1014,ORER,2023-04-25T21:00:00Z,36.23,43.97,16.0,7.0,0,2,,5.59,29.940945,,,,,,,,,,,CLR,,,,,,,,VFR,,,,,,,,,,,,METAR,399.0
ORBI 252100Z 05005KT CAVOK 25/06 Q1010 NOSIG,ORBI,2023-04-25T21:00:00Z,33.27,44.23,25.0,6.0,50,5,,6.21,29.822834,,,,,,TRUE,,,,,CAVOK,,,,,,,,VFR,,,,,,,,,,,,METAR,37.0
OPST 252100Z 00000KT 4000 FU NSC 24/14 Q1009 NOSIG 53%,OPST,2023-04-25T21:00:00Z,32.53,74.37,24.0,14.0,0,0,,2.49,29.793306,,,,,,TRUE,,,,FU,CLR,,,,,,,,IFR,,,,,,,,,,,,METAR,234.0
OPSK 252100Z 00000KT 4000 HZ SCT100 26/15 Q1005 NOSIG,OPSK,2023-04-25T21:00:00Z,27.72,68.8,26.0,15.0,0,0,,2.49,29.675198,,,,,,TRUE,,,,HZ,SCT,10000,,,,,,,IFR,,,,,,,,,,,,METAR,62.0
OPPS 252100Z 23006KT 6000 HZ FEW040 SCT100 24/08 Q1013,OPPS,2023-04-25T21:00:00Z,33.98,71.52,24.0,8.0,230,6,,3.73,29.911417,,,,,,,,,,HZ,FEW,4000,SCT,10000,,,,,MVFR,,,,,,,,,,,,METAR,356.0
OPNH 252100Z 00000KT 6000 SCT100 27/16 Q1006,OPNH,2023-04-25T21:00:00Z,26.22,68.38,27.0,16.0,0,0,,3.73,29.704725,,,,,,,,,,,SCT,10000,,,,,,,MVFR,,,,,,,,,,,,METAR,30.0
OPMT 252100Z 13004KT 4000 HZ NSC 28/10 Q1007 NOSIG,OPMT,2023-04-25T21:00:00Z,30.2,71.42,28.0,10.0,130,4,,2.49,29.734253,,,,,,TRUE,,,,HZ,CLR,,,,,,,,IFR,,,,,,,,,,,,METAR,122.0
OPKC 252100Z 31008KT 6000 NSC 28/13 Q1008 NOSIG,OPKC,2023-04-25T21:00:00Z,24.9,67.13,28.0,13.0,310,8,,3.73,29.763779,,,,,,TRUE,,,,,CLR,,,,,,,,MVFR,,,,,,,,,,,,METAR,20.0
OPIS 252100Z 23005KT 6000 FEW040 SCT100 20/12 Q1011 NOSIG,OPIS,2023-04-25T21:00:00Z,33.55,72.83,20.0,12.0,230,5,,3.73,29.852362,,,,,,TRUE,,,,,FEW,4000,SCT,10000,,,,,MVFR,,,,,,,,,,,,METAR,542.0
OMSJ 252100Z 12005KT CAVOK 25/11 Q1007 WS ALL RWY NOSIG,OMSJ,2023-04-25T21:00:00Z,25.32,55.52,25.0,11.0,120,5,,6.21,29.734253,,,,,,TRUE,,,,,CAVOK,,,,,,,,VFR,,,,,,,,,,,,METAR,33.0
OMRK 252100Z 11007KT CAVOK 26/11 Q1007 A2975,OMRK,2023-04-25T21:00:00Z,25.62,55.93,26.0,11.0,110,7,,6.21,29.734253,,,,,,,,,,,CAVOK,,,,,,,,VFR,,,,,,,,,,,,METAR,18.0
OMFJ 252100Z 07003KT 050V110 8000 FEW025 26/23 Q1008 A2977,OMFJ,2023-04-25T21:00:00Z,25.1,56.32,26.0,23.0,70,3,,4.97,29.763779,,,,,,,,,,,FEW,2500,,,,,,,MVFR,,,,,,,,,,,,METAR,27.0
OMDW 252100Z 10005KT CAVOK 24/12 Q1008 NOSIG,OMDW,2023-04-25T21:00:00Z,24.9,55.17,24.0,12.0,100,5,,6.21,29.763779,,,,,,TRUE,,,,,CAVOK,,,,,,,,VFR,,,,,,,,,,,,METAR,34.0
OMDB 252100Z 09005KT 030V130 CAVOK 29/11 Q1006 NOSIG,OMDB,2023-04-25T21:00:00Z,25.25,55.37,29.0,11.0,90,5,,6.21,29.704725,,,,,,TRUE,,,,,CAVOK,,,,,,,,VFR,,,,,,,,,,,,METAR,5.0
OMAL 252100Z 08005KT 050V130 CAVOK 28/10 Q1008 NOSIG,OMAL,2023-04-25T21:00:00Z,24.25,55.6,28.0,10.0,80,5,,6.21,29.763779,,,,,,TRUE,,,,,CAVOK,,,,,,,,VFR,,,,,,,,,,,,METAR,247.0
OMAD 252100Z 07004KT 040V100 CAVOK 27/15 Q1006 NOSIG,OMAD,2023-04-25T21:00:00Z,24.42,54.47,27.0,15.0,70,4,,6.21,29.704725,,,,,,TRUE,,,,,CAVOK,,,,,,,,VFR,,,,,,,,,,,,METAR,9.0
OMAA 252100Z 07006KT 050V110 CAVOK 27/12 Q1006 NOSIG,OMAA,2023-04-25T21:00:00Z,24.42,54.65,27.0,12.0,70,6,,6.21,29.704725,,,,,,TRUE,,,,,CAVOK,,,,,,,,VFR,,,,,,,,,,,,METAR,13.0
OLBA 252100Z 28003KT 9999 FEW026 17/13 Q1015 NOSIG,OLBA,2023-04-25T21:00:00Z,33.82,35.48,17.0,13.0,280,3,,6.21,29.970472,,,,,,TRUE,,,,,FEW,2600,,,,,,,VFR,,,,,,,,,,,,METAR,29.0
OKKK 252100Z 00000KT CAVOK 24/14 Q1008 NOSIG,OKKK,2023-04-25T21:00:00Z,,,24.0,14.0,0,0,,6.21,29.763779,,,,,,TRUE,,,,,CAVOK,,,,,,,,VFR,,,,,,,,,,,,METAR,
OJAQ 252100Z 34010KT CAVOK 22/M02 Q1012 NOSIG,OJAQ,2023-04-25T21:00:00Z,29.62,35.02,22.0,-2.0,340,10,,6.21,29.88189,,,,,,TRUE,,,,,CAVOK,,,,,,,,VFR,,,,,,,,,,,,METAR,45.0
OJAM 252100Z 00000KT CAVOK 14/09 Q1015 NOSIG,OJAM,2023-04-25T21:00:00Z,31.98,35.98,14.0,9.0,0,0,,6.21,29.970472,,,,,,TRUE,,,,,CAVOK,,,,,,,,VFR,,,,,,,,,,,,METAR,765.0
OJAI 252100Z 31006KT 5000 HZ NSC 11/07 Q1015 NOSIG,OJAI,2023-04-25T21:00:00Z,31.72,36.0,11.0,7.0,310,6,,3.11,29.970472,,,,,,TRUE,,,,HZ,CLR,,,,,,,,MVFR,,,,,,,,,,,,METAR,723.0
OIZJ 252100Z 11012KT 6000 NSC 26/23 Q1008,OIZJ,2023-04-25T21:00:00Z,25.65,57.8,26.0,23.0,110,12,,3.73,29.763779,,,,,,,,,,,CLR,,,,,,,,MVFR,,,,,,,,,,,,METAR,6.0
OIZI 252100Z 26004KT CAVOK 22/08 Q1012,OIZI,2023-04-25T21:00:00Z,27.23,60.72,22.0,8.0,260,4,,6.21,29.88189,,,,,,,,,,,CAVOK,,,,,,,,VFR,,,,,,,,,,,,METAR,622.0
OIZH 252100Z 09006KT CAVOK 19/02 Q1015 A3000,OIZH,2023-04-25T21:00:00Z,29.47,60.92,19.0,2.0,90,6,,6.21,29.970472,,,,,,,,,,,CAVOK,,,,,,,,VFR,,,,,,,,,,,,METAR,1378.0
OIZB 252100Z 27004KT CAVOK 25/M00 Q1008,OIZB,2023-04-25T21:00:00Z,31.1,61.55,25.0,0.0,270,4,,6.21,29.763779,,,,,,,,,,,CAVOK,,,,,,,,VFR,,,,,,,,,,,,METAR,483.0
OIYY 252100Z 28004KT 9999 FEW035 18/09 Q1015,OIYY,2023-04-25T21:00:00Z,31.9,54.28,18.0,9.0,280,4,,6.21,29.970472,,,,,,,,,,,FEW,3500,,,,,,,VFR,,,,,,,,,,,,METAR,1226.0
OITT 252100Z 01008KT 9999 FEW030 FEW032CB 13/05 Q1015 A3000,OITT,2023-04-25T21:00:00Z,38.13,46.23,13.0,5.0,10,8,,6.21,29.970472,,,,,,,,,,,FEW,3000,FEW,3200,,,,,VFR,,,,,,,,,,,,METAR,1353.0
OITR 252100Z 27006KT CAVOK 07/04 Q1014 A2995,OITR,2023-04-25T21:00:00Z,37.67,45.07,7.0,4.0,270,6,,6.21,29.940945,,,,,,,,,,,CAVOK,,,,,,,,VFR,,,,,,,,,,,,METAR,1312.0
OITP 252100Z 13010KT CAVOK 14/13 Q1011,OITP,2023-04-25T21:00:00Z,39.6,47.88,14.0,13.0,130,10,,6.21,29.852362,,,,,,,,,,,CAVOK,,,,,,,,VFR,,,,,,,,,,,,METAR,72.0
OITM 252100Z 10004KT CAVOK 09/02 Q1015,OITM,2023-04-25T21:00:00Z,37.35,46.15,9.0,2.0,100,4,,6.21,29.970472,,,,,,,,,,,CAVOK,,,,,,,,VFR,,,,,,,,,,,,METAR,1340.0
OITL 252100Z 04004KT 0400 R15/0700D FG OVC002 10/10 Q1015,OITL,2023-04-25T21:00:00Z,38.33,48.42,10.0,10.0,40,4,,0.25,29.970472,,,,,,,,,,FG,OVC,200,,,,,,,LIFR,,,,,,,,,,,,SPECI,1314.0
OISY 252100Z 00000KT CAVOK 10/04 Q1019,OISY,2023-04-25T21:00:00Z,30.7,51.55,10.0,4.0,0,0,,6.21,30.088583,,,,,,,,,,,CAVOK,,,,,,,,VFR,,,,,,,,,,,,METAR,1800.0
OISS 252100Z 30004KT CAVOK 16/05 Q1015 A2999,OISS,2023-04-25T21:00:00Z,29.53,52.58,16.0,5.0,300,4,,6.21,29.970472,,,,,,,,,,,CAVOK,,,,,,,,VFR,,,,,,,,,,,,METAR,1484.0
OISL 252100Z 00000KT CAVOK 22/07 Q1009 A2982,OISL,2023-04-25T21:00:00Z,27.67,54.37,22.0,7.0,0,0,,6.21,29.793306,,,,,,,,,,,CAVOK,,,,,,,,VFR,,,,,,,,,,,,METAR,804.0
OISF 252100Z 03004KT CAVOK 16/03 Q1014 A2997,OISF,2023-04-25T21:00:00Z,28.9,53.72,16.0,3.0,30,4,,6.21,29.940945,,,,,,,,,,,CAVOK,,,,,,,,VFR,,,,,,,,,,,,METAR,1305.0
OINR 252100Z 32002KT 9999 FEW020CB BKN025 OVC080 17/16 Q1011,OINR,2023-04-25T21:00:00Z,36.9,50.67,17.0,16.0,320,2,,6.21,29.852362,,,,,,,,,,,FEW,2000,BKN,2500,OVC,8000,,,MVFR,,,,,,,,,,,,METAR,-19.0
OINN 252100Z 13002KT 8000 SCT018 FEW020CB BKN090 17/16 Q1011,OINN,2023-04-25T21:00:00Z,36.67,51.47,17.0,16.0,130,2,,4.97,29.852362,,,,,,,,,,,SCT,1800,FEW,2000,BKN,9000,,,MVFR,,,,,,,,,,,,METAR,-25.0
OING 252100Z 21004KT 6000 -RA FEW020 SCT030 OVC080 17/15 Q1014,OING,2023-04-25T21:00:00Z,36.9,54.4,17.0,15.0,210,4,,3.73,29.940945,,,,,,,,,,-RA,FEW,2000,SCT,3000,OVC,8000,,,MVFR,,,,,,,,,,,,METAR,0.0
OINE 252100Z 00000KT 9999 SCT030 BKN100 17/13 Q1012,OINE,2023-04-25T21:00:00Z,37.38,55.45,17.0,13.0,0,0,,6.21,29.88189,,,,,,,,,,,SCT,3000,BKN,10000,,,,,VFR,,,,,,,,,,,,METAR,125.0
OIMT 252100Z AUTO 31006KT //// // ////// 25/04 Q1009,OIMT,2023-04-25T21:00:00Z,33.67,56.88,25.0,4.0,310,6,,,29.793306,,,TRUE,,,,,,,,,,,,,,,,,,,,,,,,,,,,METAR,693.0
OIMN 252100Z 27004KT CAVOK 16/10 Q1014,OIMN,2023-04-25T21:00:00Z,37.48,57.3,16.0,10.0,270,4,,6.21,29.940945,,,,,,,,,,,CAVOK,,,,,,,,VFR,,,,,,,,,,,,METAR,1065.0
OIMM 252100Z 20006KT CAVOK 21/05 Q1014 A2996,OIMM,2023-04-25T21:00:00Z,36.23,59.63,21.0,5.0,200,6,,6.21,29.940945,,,,,,,,,,,CAVOK,,,,,,,,VFR,,,,,,,,,,,,METAR,995.0
OIMJ 252100Z AUTO 36007KT //// // ////// 17/10 Q1013,OIMJ,2023-04-25T21:00:00Z,36.43,55.1,17.0,10.0,360,7,,,29.911417,,,TRUE,,,,,,,,,,,,,,,,,,,,,,,,,,,,METAR,1285.0
OIMB 252100Z 10006KT CAVOK 16/M05 Q1015 A2999,OIMB,2023-04-25T21:00:00Z,32.9,59.28,16.0,-5.0,100,6,,6.21,29.970472,,,,,,,,,,,CAVOK,,,,,,,,VFR,,,,,,,,,,,,METAR,1512.0
OIKQ 252100Z 04006KT 6000 NSC 25/20 Q1007,OIKQ,2023-04-25T21:00:00Z,26.75,55.9,25.0,20.0,40,6,,3.73,29.734253,,,,,,,,,,,CLR,,,,,,,,MVFR,,,,,,,,,,,,METAR,9.0
OIKK 252100Z 00000KT 9999 SCT040 16/01 Q1016 A3002,OIKK,2023-04-25T21:00:00Z,30.25,56.97,16.0,1.0,0,0,,6.21,30.0,,,,,,,,,,,SCT,4000,,,,,,,VFR,,,,,,,,,,,,METAR,1749.0
OIKB 252100Z 36004KT 5000 HZ NSC 25/20 Q1007 A2976,OIKB,2023-04-25T21:00:00Z,27.22,56.37,25.0,20.0,360,4,,3.11,29.734253,,,,,,,,,,HZ,CLR,,,,,,,,MVFR,,,,,,,,,,,,METAR,6.0
OIIP 252100Z 27006KT 7000 RA BKN040 OVC080 15/08 Q1013 A2992,OIIP,2023-04-25T21:00:00Z,35.78,50.83,15.0,8.0,270,6,,4.35,29.911417,,,,,,,,,,RA,BKN,4000,OVC,8000,,,,,MVFR,,,,,,,,,,,,METAR,1270.0
OIII 252100Z 29008KT 9999 FEW040 SCT100 19/05 Q1013 A2992,OIII,2023-04-25T21:00:00Z,35.68,51.3,19.0,5.0,290,8,,6.21,29.911417,,,,,,,,,,,FEW,4000,SCT,10000,,,,,VFR,,,,,,,,,,,,METAR,1182.0
OIIE 252100Z 30014KT 9999 -SHRA FEW030CB SCT035 BKN100 18/08 Q1012,OIIE,2023-04-25T21:00:00Z,35.42,51.15,18.0,8.0,300,14,,6.21,29.88189,,,,,,,,,,-SHRA,FEW,3000,SCT,3500,BKN,10000,,,VFR,,,,,,,,,,,,METAR,993.0
OIHH 252100Z 14004KT 9999 FEW040 08/05 Q1017 A3004,OIHH,2023-04-25T21:00:00Z,34.87,48.55,8.0,5.0,140,4,,6.21,30.029528,,,,,,,,,,,FEW,4000,,,,,,,VFR,,,,,,,,,,,,METAR,1742.0
OIGG 252100Z 00000KT CAVOK 16/16 Q1011,OIGG,2023-04-25T21:00:00Z,37.33,49.6,16.0,16.0,0,0,,6.21,29.852362,,,,,,,,,,,CAVOK,,,,,,,,VFR,,,,,,,,,,,,METAR,-16.0
OIFS 252100Z 01004KT 9999 FEW040 05/01 Q1019,OIFS,2023-04-25T21:00:00Z,32.28,50.85,5.0,1.0,10,4,,6.21,30.088583,,,,,,,,,,,FEW,4000,,,,,,,VFR,,,,,,,,,,,,METAR,2042.0
OIFM 252100Z 24004KT CAVOK 10/06 Q1017 A3004,OIFM,2023-04-25T21:00:00Z,32.75,51.87,10.0,6.0,240,4,,6.21,30.029528,,,,,,,,,,,CAVOK,,,,,,,,VFR,,,,,,,,,,,,METAR,1539.0
OICS 252100Z 00000KT CAVOK 09/05 Q1016 A3001,OICS,2023-04-25T21:00:00Z,35.25,47.02,9.0,5.0,0,0,,6.21,30.0,,,,,,,,,,,CAVOK,,,,,,,,VFR,,,,,,,,,,,,METAR,1369.0
OICK 252100Z 16004KT CAVOK 12/11 Q1015,OICK,2023-04-25T21:00:00Z,33.43,48.28,12.0,11.0,160,4,,6.21,29.970472,,,,,,,,,,,CAVOK,,,,,,,,VFR,,,,,,,,,,,,METAR,1156.0
OICI 252100Z 11002KT CAVOK 12/06 Q1017 A3004,OICI,2023-04-25T21:00:00Z,33.58,46.4,12.0,6.0,110,2,,6.21,30.029528,,,,,,,,,,,CAVOK,,,,,,,,VFR,,,,,,,,,,,,METAR,1323.0
OICC 252100Z 29006KT CAVOK 11/07 Q1016 A3002,OICC,2023-04-25T21:00:00Z,34.35,47.17,11.0,7.0,290,6,,6.21,30.0,,,,,,,,,,,CAVOK,,,,,,,,VFR,,,,,,,,,,,,METAR,1310.0
OIBP 252100Z 00000KT CAVOK 24/16 Q1005 A2970,OIBP,2023-04-25T21:00:00Z,27.38,52.73,24.0,16.0,0,0,,6.21,29.675198,,,,,,,,,,,CAVOK,,,,,,,,VFR,,,,,,,,,,,,METAR,13.0
OIBL 252100Z 10004KT 4000 BR NSC 24/21 Q1006,OIBL,2023-04-25T21:00:00Z,26.53,54.82,24.0,21.0,100,4,,2.49,29.704725,,,,,,,,,,BR,CLR,,,,,,,,IFR,,,,,,,,,,,,METAR,25.0
OIBK 252100Z 29004KT 7000 NSC 24/22 Q1006,OIBK,2023-04-25T21:00:00Z,26.53,53.98,24.0,22.0,290,4,,4.35,29.704725,,,,,,,,,,,CLR,,,,,,,,MVFR,,,,,,,,,,,,METAR,27.0
OIBJ 252100Z AUTO VRB01KT //// // ////// 20/09 Q1012,OIBJ,2023-04-25T21:00:00Z,27.82,52.35,20.0,9.0,0,1,,,29.88189,,,TRUE,,,,,,,,,,,,,,,,,,,,,,,,,,,,METAR,647.0
OIBB 252100Z 36006KT CAVOK 26/17 Q1007 A2975,OIBB,2023-04-25T21:00:00Z,28.93,50.83,26.0,17.0,360,6,,6.21,29.734253,,,,,,,,,,,CAVOK,,,,,,,,VFR,,,,,,,,,,,,METAR,15.0
OIAW 252100Z 29006KT CAVOK 26/07 Q1007,OIAW,2023-04-25T21:00:00Z,31.33,48.77,26.0,7.0,290,6,,6.21,29.734253,,,,,,,,,,,CAVOK,,,,,,,,VFR,,,,,,,,,,,,METAR,25.0
OIAM 252100Z 30008KT CAVOK 24/09 Q1007,OIAM,2023-04-25T21:00:00Z,30.55,49.15,24.0,9.0,300,8,,6.21,29.734253,,,,,,,,,,,CAVOK,,,,,,,,VFR,,,,,,,,,,,,METAR,7.0
OIAH 252100Z 00000KT CAVOK 17/10 Q1012,OIAH,2023-04-25T21:00:00Z,30.33,50.83,17.0,10.0,0,0,,6.21,29.88189,,,,,,,,,,,CAVOK,,,,,,,,VFR,,,,,,,,,,,,METAR,730.0
OIAA 252100Z 30008KT CAVOK 25/07 Q1008,OIAA,2023-04-25T21:00:00Z,30.35,48.22,25.0,7.0,300,8,,6.21,29.763779,,,,,,,,,,,CAVOK,,,,,,,,VFR,,,,,,,,,,,,METAR,4.0
OEYN 252100Z 30006KT CAVOK 28/13 Q1005 NOSIG,OEYN,2023-04-25T21:00:00Z,24.13,38.07,28.0,13.0,300,6,,6.21,29.675198,,,,,,TRUE,,,,,CAVOK,,,,,,,,VFR,,,,,,,,,,,,METAR,20.0
OEWJ 252100Z 33007KT CAVOK 24/17 Q1008 NOSIG,OEWJ,2023-04-25T21:00:00Z,26.18,36.47,24.0,17.0,330,7,,6.21,29.763779,,,,,,TRUE,,,,,CAVOK,,,,,,,,VFR,,,,,,,,,,,,METAR,8.0
OEWD 252100Z 35010KT 4000 RA SCT040 BKN080 23/16 Q1012 RERA,OEWD,2023-04-25T21:00:00Z,20.5,45.2,23.0,16.0,350,10,,2.49,29.88189,,,,,,,,,,RA,SCT,4000,BKN,8000,,,,,IFR,,,,,,,,,,,,METAR,629.0
OETR 252100Z 28008KT CAVOK 17/M11 Q1013 NOSIG,OETR,2023-04-25T21:00:00Z,31.7,38.73,17.0,-11.0,280,8,,6.21,29.911417,,,,,,TRUE,,,,,CAVOK,,,,,,,,VFR,,,,,,,,,,,,METAR,854.0
OETF 252100Z 32005KT CAVOK 18/14 Q1018 NOSIG,OETF,2023-04-25T21:00:00Z,21.47,40.53,18.0,14.0,320,5,,6.21,30.059055,,,,,,TRUE,,,,,CAVOK,,,,,,,,VFR,,,,,,,,,,,,METAR,1460.0
OETB 252100Z 35015KT 8000 NSC 22/M10 Q1012 NOSIG,OETB,2023-04-25T21:00:00Z,28.37,36.62,22.0,-10.0,350,15,,4.97,29.88189,,,,,,TRUE,,,,,CLR,,,,,,,,MVFR,,,,,,,,,,,,METAR,770.0
OESK 252100Z 22005KT CAVOK 22/06 Q1015 NOSIG,OESK,2023-04-25T21:00:00Z,29.78,40.1,22.0,6.0,220,5,,6.21,29.970472,,,,,,TRUE,,,,,CAVOK,,,,,,,,VFR,,,,,,,,,,,,METAR,671.0
OESH 252100Z 06006KT 5000 DU NSC 30/10 Q1010 NOSIG,OESH,2023-04-25T21:00:00Z,17.47,47.12,30.0,10.0,60,6,,3.11,29.822834,,,,,,TRUE,,,,DU,CLR,,,,,,,,MVFR,,,,,,,,,,,,METAR,720.0
OERR 252100Z 00000KT CAVOK 22/M07 Q1011 NOSIG,OERR,2023-04-25T21:00:00Z,30.9,41.13,22.0,-7.0,0,0,,6.21,29.852362,,,,,,TRUE,,,,,CAVOK,,,,,,,,VFR,,,,,,,,,,,,METAR,554.0
OERK 252100Z 11005KT 9000 FEW040 BKN080 26/10 Q1013 TEMPO 5000 TSRA,OERK,2023-04-25T21:00:00Z,24.95,46.72,26.0,10.0,110,5,,5.59,29.911417,,,,,,,,,,,FEW,4000,BKN,8000,,,,,VFR,,,,,,,,,,,,METAR,618.0
OERF 252100Z 18006KT 9999 SCT040 25/05 Q1010 NOSIG,OERF,2023-04-25T21:00:00Z,29.62,43.48,25.0,5.0,180,6,,6.21,29.822834,,,,,,TRUE,,,,,SCT,4000,,,,,,,VFR,,,,,,,,,,,,METAR,441.0
OEPA 252100Z 08006KT 9999 SCT035 26/11 Q1010 NOSIG,OEPA,2023-04-25T21:00:00Z,28.33,46.12,26.0,11.0,80,6,,6.21,29.822834,,,,,,TRUE,,,,,SCT,3500,,,,,,,VFR,,,,,,,,,,,,METAR,361.0
OENG 252100Z 33004KT 9999 SCT030 SCT090 24/13 Q1016 NOSIG,OENG,2023-04-25T21:00:00Z,17.62,44.42,24.0,13.0,330,4,,6.21,30.0,,,,,,TRUE,,,,,SCT,3000,SCT,9000,,,,,VFR,,,,,,,,,,,,METAR,1210.0
OEMN 252100Z 01002KT CAVOK 31/17 Q1010,OEMN,2023-04-25T21:00:00Z,,,31.0,17.0,10,2,,6.21,29.822834,,,,,,,,,,,CAVOK,,,,,,,,VFR,,,,,,,,,,,,METAR,
OEMA 252100Z 32008KT CAVOK 29/M03 Q1012 NOSIG,OEMA,2023-04-25T21:00:00Z,24.55,39.7,29.0,-3.0,320,8,,6.21,29.88189,,,,,,TRUE,,,,,CAVOK,,,,,,,,VFR,,,,,,,,,,,,METAR,639.0
OEKM 252100Z 00000KT CAVOK 15/10 Q1023 NOSIG,OEKM,2023-04-25T21:00:00Z,18.3,42.78,15.0,10.0,0,0,,6.21,30.206694,,,,,,TRUE,,,,,CAVOK,,,,,,,,VFR,,,,,,,,,,,,METAR,2038.0
OEKJ 252100Z 10009KT 7000 FEW040 27/10 Q1012,OEKJ,2023-04-25T21:00:00Z,24.07,47.58,27.0,10.0,100,9,,4.35,29.88189,,,,,,,,,,,FEW,4000,,,,,,,MVFR,,,,,,,,,,,,METAR,487.0
OEJN 252100Z 32007KT CAVOK 28/21 Q1007 NOSIG,OEJN,2023-04-25T21:00:00Z,21.68,39.15,28.0,21.0,320,7,,6.21,29.734253,,,,,,TRUE,,,,,CAVOK,,,,,,,,VFR,,,,,,,,,,,,METAR,8.0
OEHL 252100Z 04004KT 9999 SCT045 18/12 Q1015 TEMPO 5000 TSRA,OEHL,2023-04-25T21:00:00Z,27.43,41.68,18.0,12.0,40,4,,6.21,29.970472,,,,,,,,,,,SCT,4500,,,,,,,VFR,,,,,,,,,,,,METAR,1002.0
OEGT 252100Z 30010KT CAVOK 17/03 Q1013 NOSIG,OEGT,2023-04-25T21:00:00Z,31.42,37.27,17.0,3.0,300,10,,6.21,29.911417,,,,,,TRUE,,,,,CAVOK,,,,,,,,VFR,,,,,,,,,,,,METAR,512.0
OEGS 252100Z 05006KT 9999 SCT040 20/16 Q1012,OEGS,2023-04-25T21:00:00Z,26.3,43.77,20.0,16.0,50,6,,6.21,29.88189,,,,,,,,,,,SCT,4000,,,,,,,VFR,,,,,,,,,,,,METAR,647.0
OEGN 252100Z 35004KT CAVOK 32/20 Q1007 NOSIG,OEGN,2023-04-25T21:00:00Z,16.9,42.58,32.0,20.0,350,4,,6.21,29.734253,,,,,,TRUE,,,,,CAVOK,,,,,,,,VFR,,,,,,,,,,,,METAR,5.0
OEDR 252100Z VRB03KT CAVOK 23/18 Q1007,OEDR,2023-04-25T21:00:00Z,26.27,50.17,23.0,18.0,0,3,,6.21,29.734253,,,,,,,,,,,CAVOK,,,,,,,,VFR,,,,,,,,,,,,METAR,17.0
OEDM 252100Z 08010KT 9999 SCT040 19/15 Q1012,OEDM,2023-04-25T21:00:00Z,24.45,44.12,19.0,15.0,80,10,,6.21,29.88189,,,,,,,,,,,SCT,4000,,,,,,,VFR,,,,,,,,,,,,METAR,922.0
OEDF 252100Z 00000KT CAVOK 23/18 Q1008 NOSIG,OEDF,2023-04-25T21:00:00Z,26.43,49.82,23.0,18.0,0,0,,6.21,29.763779,,,,,,TRUE,,,,,CAVOK,,,,,,,,VFR,,,,,,,,,,,,METAR,15.0
OEBH 252100Z 19005KT CAVOK 19/19 Q1015 NOSIG,OEBH,2023-04-25T21:00:00Z,19.98,42.62,19.0,19.0,190,5,,6.21,29.970472,,,,,,TRUE,,,,,CAVOK,,,,,,,,VFR,,,,,,,,,,,,METAR,1167.0
OEBA 252100Z 20004KT 9999 FEW030 17/13 Q1019 NOSIG,OEBA,2023-04-25T21:00:00Z,20.3,41.63,17.0,13.0,200,4,,6.21,30.088583,,,,,,TRUE,,,,,FEW,3000,,,,,,,VFR,,,,,,,,,,,,METAR,1659.0
OEAO 252100Z 31008KT CAVOK 26/00 Q1011 NOSIG,OEAO,2023-04-25T21:00:00Z,26.48,38.12,26.0,0.0,310,8,,6.21,29.852362,,,,,,TRUE,,,,,CAVOK,,,,,,,,VFR,,,,,,,,,,,,METAR,615.0
OEAH 252100Z 00000KT CAVOK 24/12 Q1008 NOSIG,OEAH,2023-04-25T21:00:00Z,25.28,49.48,24.0,12.0,0,0,,6.21,29.763779,,,,,,TRUE,,,,,CAVOK,,,,,,,,VFR,,,,,,,,,,,,METAR,180.0
OEAB 252100Z 00000KT CAVOK 14/09 Q1023 NOSIG,OEAB,2023-04-25T21:00:00Z,18.23,42.65,14.0,9.0,0,0,,6.21,30.206694,,,,,,TRUE,,,,,CAVOK,,,,,,,,VFR,,,,,,,,,,,,METAR,2092.0
OBBI 252100Z 31010KT CAVOK 25/19 Q1007 NOSIG,OBBI,2023-04-25T21:00:00Z,26.27,50.63,25.0,19.0,310,10,,6.21,29.734253,,,,,,TRUE,,,,,CAVOK,,,,,,,,VFR,,,,,,,,,,,,METAR,6.0
NZWN 252100Z AUTO 18020KT 9999 -RA SCT022/// BKN029/// OVC047/// 12/09 Q1016,NZWN,2023-04-25T21:00:00Z,-41.32,174.8,12.0,9.0,180,20,,6.21,30.0,,,TRUE,,,,,,,-RA,SCT,2200,BKN,2900,OVC,4700,,,MVFR,,,,,,,,,,,,METAR,12.0
NZCH 252100Z AUTO 27005KT 9999 BKN038/// 10/08 Q1016,NZCH,2023-04-25T21:00:00Z,-43.48,172.52,10.0,8.0,270,5,,6.21,30.0,,,TRUE,,,,,,,,BKN,3800,,,,,,,VFR,,,,,,,,,,,,METAR,36.0
NZAA 252100Z AUTO 24014KT 9999 FEW032/// BKN050/// 19/12 Q1020,NZAA,2023-04-25T21:00:00Z,-37.02,174.8,19.0,12.0,240,14,,6.21,30.11811,,,TRUE,,,,,,,,FEW,3200,BKN,5000,,,,,VFR,,,,,,,,,,,,METAR,7.0
NWWW 252100Z AUTO 16002KT 9999 BKN070 BKN084 OVC100 22/21 Q1011 TEMPO 4500 SHRA FEW020CB BKN025,NWWW,2023-04-25T21:00:00Z,-22.02,166.22,22.0,21.0,160,2,,6.21,29.852362,,,TRUE,,,,,,,,BKN,7000,BKN,8400,OVC,10000,,,VFR,,,,,,,,,,,,METAR,16.0
NVVW 252100Z 09003KT 9999 SCT020 27/25 Q1010,NVVW,2023-04-25T21:00:00Z,-19.45,169.22,27.0,25.0,90,3,,6.21,29.822834,,,,,,,,,,,SCT,2000,,,,,,,VFR,,,,,,,,,,,,METAR,5.0
NVVV 252100Z VRB01KT 9999 FEW020 26/24 Q1010,NVVV,2023-04-25T21:00:00Z,-17.68,168.3,26.0,24.0,0,1,,6.21,29.822834,,,,,,,,,,,FEW,2000,,,,,,,VFR,,,,,,,,,,,,METAR,23.0
NVSS 252100Z VRB01KT 9999 FEW025 SCT300 28/24 Q1009,NVSS,2023-04-25T21:00:00Z,-15.52,167.22,28.0,24.0,0,1,,6.21,29.793306,,,,,,,,,,,FEW,2500,SCT,30000,,,,,VFR,,,,,,,,,,,,METAR,47.0
NVSG 252100Z VRB01KT 9999 SCT020 BKN040 27/24 Q1010,NVSG,2023-04-25T21:00:00Z,-15.3,167.97,27.0,24.0,0,1,,6.21,29.822834,,,,,,,,,,,SCT,2000,BKN,4000,,,,,VFR,,,,,,,,,,,,METAR,31.0
NVSC 252100Z 00000KT 9999 FEW020 SCT300 28/26 Q1009,NVSC,2023-04-25T21:00:00Z,-13.85,167.55,28.0,26.0,0,0,,6.21,29.793306,,,,,,,,,,,FEW,2000,SCT,30000,,,,,VFR,,,,,,,,,,,,METAR,11.0
NTAA 252100Z 06008KT 9999 FEW020 SCT170 BKN210 28/24 Q1014 TEMPO 3000 SHRA FEW011CB SCT015 BKN040,NTAA,2023-04-25T21:00:00Z,-17.55,-149.62,28.0,24.0,60,8,,6.21,29.940945,,,,,,,,,,,FEW,2000,SCT,17000,BKN,21000,,,VFR,,,,,,,,,,,,METAR,2.0
NSFA 252100Z 21005KT 9999 FEW026 BKN270 30/24 Q1011,NSFA,2023-04-25T21:00:00Z,-13.83,-172.0,30.0,24.0,210,5,,6.21,29.852362,,,,,,,,,,,FEW,2600,BKN,27000,,,,,VFR,,,,,,,,,,,,METAR,6.0
NLWW 252100Z 06006KT 030V100 9999 FEW023 31/25 Q1011 TEMPO 4000 SHRA BKN018 FEW020CB,NLWW,2023-04-25T21:00:00Z,-13.23,-176.18,31.0,25.0,60,6,,6.21,29.852362,,,,,,,,,,,FEW,2300,,,,,,,VFR,,,,,,,,,,,,METAR,24.0
NIUE 252100Z AUTO 10008KT NCD 27/23 Q1014,NIUE,2023-04-25T21:00:00Z,-19.07,-169.92,27.0,23.0,100,8,,,29.940945,,,TRUE,,,,,,,,CLR,,,,,,,,,,,,,,,,,,,,METAR,22.0
NGTA 252100Z 08004KT 9999 FEW019 BKN300 29/25 Q1010,NGTA,2023-04-25T21:00:00Z,1.37,173.13,29.0,25.0,80,4,,6.21,29.822834,,,,,,,,,,,FEW,1900,BKN,30000,,,,,VFR,,,,,,,,,,,,METAR,8.0
NGFU 252100Z 14010KT 9999 FEW016CB FEW018TCU SCT020 BKN300 30/27 Q1010,NGFU,2023-04-25T21:00:00Z,-8.52,179.18,30.0,27.0,140,10,,6.21,29.822834,,,,,,,,,,,FEW,1600,FEW,1800,SCT,2000,BKN,30000,VFR,,,,,,,,,,,,METAR,2.0
NFTV 252100Z 14006KT 9999 SCT017 SCT300 26/22 Q1013,NFTV,2023-04-25T21:00:00Z,-18.58,-173.97,26.0,22.0,140,6,,6.21,29.911417,,,,,,,,,,,SCT,1700,SCT,30000,,,,,VFR,,,,,,,,,,,,METAR,71.0
NFTL 252100Z 12009KT 9999 SCT017TCU 27/23 Q1013,NFTL,2023-04-25T21:00:00Z,-19.78,-174.33,27.0,23.0,120,9,,6.21,29.911417,,,,,,,,,,,SCT,1700,,,,,,,VFR,,,,,,,,,,,,METAR,10.0
NFTF 252100Z 11010KT 9999 FEW017 SCT290 27/22 Q1015,NFTF,2023-04-25T21:00:00Z,-21.23,-175.15,27.0,22.0,110,10,,6.21,29.970472,,,,,,,,,,,FEW,1700,SCT,29000,,,,,VFR,,,,,,,,,,,,METAR,38.0
NFNS 252100Z 36004KT 9999 FEW030 28/23 Q1012,NFNS,2023-04-25T21:00:00Z,-16.82,179.33,28.0,23.0,360,4,,6.21,29.88189,,,,,,,,,,,FEW,3000,,,,,,,VFR,,,,,,,,,,,,METAR,4.0
NFNA 252100Z 35004KT 9999 SCT024 28/25 Q1012,NFNA,2023-04-25T21:00:00Z,-18.05,178.57,28.0,25.0,350,4,,6.21,29.88189,,,,,,,,,,,SCT,2400,,,,,,,VFR,,,,,,,,,,,,METAR,6.0
NFFN 252100Z 00000KT 9999 FEW030 28/22 Q1012 NOSIG,NFFN,2023-04-25T21:00:00Z,-17.75,177.45,28.0,22.0,0,0,,6.21,29.88189,,,,,,TRUE,,,,,FEW,3000,,,,,,,VFR,,,,,,,,,,,,METAR,14.0
NCSW 252100Z AUTO NIL,NCSW,2023-04-25T21:00:00Z,,,,,,,,,,,,TRUE,,,,,,,,,,,,,,,,,,,,,,,,,,,,METAR,
NCRK 252100Z AUTO NIL,NCRK,2023-04-25T21:00:00Z,-10.02,-161.1,,,,,,,,,,TRUE,,,,,,,,,,,,,,,,,,,,,,,,,,,,METAR,7.0
NCRG 252100Z AUTO 05006KT 9999 NCD 29/22 Q1014,NCRG,2023-04-25T21:00:00Z,-21.2,-159.82,29.0,22.0,50,6,,6.21,29.940945,,,TRUE,,,,,,,,CLR,,,,,,,,VFR,,,,,,,,,,,,METAR,7.0
NCPY 252100Z AUTO NIL,NCPY,2023-04-25T21:00:00Z,-9.02,-158.03,,,,,,,,,,TRUE,,,,,,,,,,,,,,,,,,,,,,,,,,,,METAR,2.0
NCPL 252100Z AUTO NIL,NCPL,2023-04-25T21:00:00Z,1.98,-157.48,,,,,,,,,,TRUE,,,,,,,,,,,,,,,,,,,,,,,,,,,,METAR,3.0
NCPK 252100Z AUTO NIL,NCPK,2023-04-25T21:00:00Z,-10.9,-165.83,,,,,,,,,,TRUE,,,,,,,,,,,,,,,,,,,,,,,,,,,,METAR,5.0
NCNS 252100Z AUTO NIL,NCNS,2023-04-25T21:00:00Z,,,,,,,,,,,,TRUE,,,,,,,,,,,,,,,,,,,,,,,,,,,,METAR,
NCMR 252100Z AUTO 07007KT //// ////// ///// Q1012,NCMR,2023-04-25T21:00:00Z,-19.85,-157.7,,,70,7,,,29.88189,,,TRUE,,,,,,,,,,,,,,,,,,,,,,,,,,,,METAR,8.0
NCMK 252100Z AUTO NIL,NCMK,2023-04-25T21:00:00Z,-20.15,-157.33,,,,,,,,,,TRUE,,,,,,,,,,,,,,,,,,,,,,,,,,,,METAR,13.0
NCMH 252100Z AUTO NIL,NCMH,2023-04-25T21:00:00Z,-10.38,-161.0,,,,,,,,,,TRUE,,,,,,,,,,,,,,,,,,,,,,,,,,,,METAR,1.0
NCMG 252100Z AUTO NIL,NCMG,2023-04-25T21:00:00Z,-21.88,-157.9,,,,,,,,,,TRUE,,,,,,,,,,,,,,,,,,,,,,,,,,,,METAR,14.0
NCAT 252100Z AUTO NIL,NCAT,2023-04-25T21:00:00Z,-19.97,-158.12,,,,,,,,,,TRUE,,,,,,,,,,,,,,,,,,,,,,,,,,,,METAR,11.0
NCAI 252100Z AUTO NIL,NCAI,2023-04-25T21:00:00Z,-18.82,-159.77,,,,,,,,,,TRUE,,,,,,,,,,,,,,,,,,,,,,,,,,,,METAR,7.0
MZBZ 252100Z 08008KT 9999 FEW026 31/24 A2981 Q1009 NOSIG RMK HZ,MZBZ,2023-04-25T21:00:00Z,17.53,-88.3,31.0,24.0,80,8,,6.21,29.793306,,,,,,TRUE,,,,,FEW,2600,,,,,,,VFR,,,,,,,,,,,,METAR,6.0
MYSM 252100Z AUTO 12009KT 9999 SCT028/// 27/20 A2993,MYSM,2023-04-25T21:00:00Z,24.05,-74.52,27.0,20.0,120,9,,6.21,29.929134,,,TRUE,,,,,,,,SCT,2800,,,,,,,VFR,,,,,,,,,,,,METAR,5.0
MYNN 252100Z 17010KT 9999 SCT025 BKN150 28/21 A2993,MYNN,2023-04-25T21:00:00Z,25.03,-77.47,28.0,21.0,170,10,,6.21,29.929134,,,,,,,,,,,SCT,2500,BKN,15000,,,,,VFR,,,,,,,,,,,,METAR,5.0
MYGF 252100Z 16009KT 9999 FEW015CB SCT020 BKN120 27/21 A2991,MYGF,2023-04-25T21:00:00Z,26.55,-78.7,27.0,21.0,160,9,,6.21,29.911417,,,,,,,,,,,FEW,1500,SCT,2000,BKN,12000,,,VFR,,,,,,,,,,,,METAR,2.0
MYCB 252100Z AUTO /////KT ///V/// //// R09///// // SCT034 ///// A////,MYCB,2023-04-25T21:00:00Z,24.32,-75.45,,,,,,,,,,TRUE,,,,,,,,SCT,3400,,,,,,,,,,,,,,,,,,,METAR,2.0
MWCR 252100Z 13007KT 9999 FEW018 30/22 Q1011,MWCR,2023-04-25T21:00:00Z,19.3,-81.37,30.0,22.0,130,7,,6.21,29.852362,,,,,,,,,,,FEW,1800,,,,,,,VFR,,,,,,,,,,,,METAR,4.0
MWCB 252100Z 15004KT 9999 FEW022 29/21 Q1012,MWCB,2023-04-25T21:00:00Z,19.68,-79.88,29.0,21.0,150,4,,6.21,29.88189,,,,,,,,,,,FEW,2200,,,,,,,VFR,,,,,,,,,,,,METAR,7.0
MTPP 252100Z 13012KT 9999 SCT026 SCT050 30/19 Q1011 A2985,MTPP,2023-04-25T21:00:00Z,18.57,-72.3,30.0,19.0,130,12,,6.21,29.852362,,,,,,,,,,,SCT,2600,SCT,5000,,,,,VFR,,,,,,,,,,,,METAR,36.0
MRPV 252100Z VRB02KT 9999 FEW030 BKN120 25/15 A2998 RESHRA NOSIG,MRPV,2023-04-25T21:00:00Z,9.95,-84.15,25.0,15.0,0,2,,6.21,29.97933,,,,,,TRUE,,,,,FEW,3000,BKN,12000,,,,,VFR,,,,,,,,,,,,METAR,998.0
MROC 252100Z 36004KT 320V030 9999 -RA FEW025 BKN060 24/18 A2995 NOSIG,MROC,2023-04-25T21:00:00Z,10.0,-84.22,24.0,18.0,360,4,,6.21,29.949802,,,,,,TRUE,,,,-RA,FEW,2500,BKN,6000,,,,,VFR,,,,,,,,,,,,METAR,900.0
MRLM 252100Z 09008KT 9999 FEW030 SCT240 30/24 A2983,MRLM,2023-04-25T21:00:00Z,9.97,-83.03,30.0,24.0,90,8,,6.21,29.828741,,,,,,,,,,,FEW,3000,SCT,24000,,,,,VFR,,,,,,,,,,,,METAR,2.0
MRLB 252100Z 28010KT CAVOK 34/23 A2975,MRLB,2023-04-25T21:00:00Z,10.6,-85.55,34.0,23.0,280,10,,6.21,29.749016,,,,,,,,,,,CAVOK,,,,,,,,VFR,,,,,,,,,,,,METAR,79.0
MPTO 252100Z 19008KT 9999 SCT018TCU SCT090 32/21 Q1010 TEMPO SCT016CB,MPTO,2023-04-25T21:00:00Z,9.05,-79.38,32.0,21.0,190,8,,6.21,29.822834,,,,,,,,,,,SCT,1800,SCT,9000,,,,,VFR,,,,,,,,,,,,METAR,7.0
MPSM 252100Z 10006KT 9999 FEW025 30/20 Q1008,MPSM,2023-04-25T21:00:00Z,8.38,-80.13,30.0,20.0,100,6,,6.21,29.763779,,,,,,,,,,,FEW,2500,,,,,,,VFR,,,,,,,,,,,,METAR,36.0
MPPA 252100Z 33008KT 9999 FEW018 33/19 Q1008,MPPA,2023-04-25T21:00:00Z,8.92,-79.6,33.0,19.0,330,8,,6.21,29.763779,,,,,,,,,,,FEW,1800,,,,,,,VFR,,,,,,,,,,,,METAR,1.0
MPMG 252100Z 31013KT 9999 FEW018CB SCT090 33/18 Q1008 NOSIG,MPMG,2023-04-25T21:00:00Z,8.98,-79.57,33.0,18.0,310,13,,6.21,29.763779,,,,,,TRUE,,,,,FEW,1800,SCT,9000,,,,,VFR,,,,,,,,,,,,METAR,6.0
MPDA 252100Z 20008KT 160V240 9000 VCSH FEW015TCU 31/24 Q1008,MPDA,2023-04-25T21:00:00Z,8.4,-82.43,31.0,24.0,200,8,,5.59,29.763779,,,,,,,,,,VCSH,FEW,1500,,,,,,,VFR,,,,,,,,,,,,METAR,15.0
MPBO 252100Z 04007KT 9999 FEW020 29/25 Q1009,MPBO,2023-04-25T21:00:00Z,9.35,-82.25,29.0,25.0,40,7,,6.21,29.793306,,,,,,,,,,,FEW,2000,,,,,,,VFR,,,,,,,,,,,,METAR,2.0
MNRS 252100Z 00000KT 3000 +FU FEW020CB BKN200 32/22 Q1008 CB/E,MNRS,2023-04-25T21:00:00Z,11.42,-85.82,32.0,22.0,0,0,,1.86,29.763779,,,,,,,,,,+FU,FEW,2000,BKN,20000,,,,,IFR,,,,,,,,,,,,METAR,53.0
MNPC 252100Z 11006KT 7000 FEW016 30/25 Q1009 HZ,MNPC,2023-04-25T21:00:00Z,14.05,-83.38,30.0,25.0,110,6,,4.35,29.793306,,,,,,,,,,HZ,FEW,1600,,,,,,,MVFR,,,,,,,,,,,,METAR,10.0
MNMG 252100Z 10014KT 5000 FEW025TCU SCT300 35/21 Q1007 A2976 5KM/S/SW/W POR FU EL RESTO DE CUADTES 8KM 1AC070 NOSIG,MNMG,2023-04-25T21:00:00Z,12.15,-86.17,35.0,21.0,100,14,,4.97,29.734253,,,,,,TRUE,,,,PO FU,FEW,2500,SCT,30000,,,,,MVFR,,,,,,,,,,,,METAR,59.0
MNJU 252100Z 18006KT 9999 SCT020 35/20 Q1009,MNJU,2023-04-25T21:00:00Z,12.08,-85.37,35.0,20.0,180,6,,6.21,29.793306,,,,,,,,,,,SCT,2000,,,,,,,VFR,,,,,,,,,,,,METAR,85.0
MNJG 252100Z 03004KT 5000 SCT014 31/16 Q1009 FU,MNJG,2023-04-25T21:00:00Z,13.13,-86.02,31.0,16.0,30,4,,3.11,29.793306,,,,,,,,,,FU,SCT,1400,,,,,,,MVFR,,,,,,,,,,,,METAR,981.0
MNCH 252100Z 18004KT 9999 SCT025 SCT300 33/24 Q1008 TCU/N/NE,MNCH,2023-04-25T21:00:00Z,12.63,-87.13,33.0,24.0,180,4,,6.21,29.763779,,,,,,,,,,,SCT,2500,SCT,30000,,,,,VFR,,,,,,,,,,,,METAR,70.0
MNBL 252100Z 11004KT 9999 FEW025 SCT090 30/23 Q1010,MNBL,2023-04-25T21:00:00Z,12.0,-83.77,30.0,23.0,110,4,,6.21,29.822834,,,,,,,,,,,FEW,2500,SCT,9000,,,,,VFR,,,,,,,,,,,,METAR,10.0
MKJS 252100Z 06009KT 9999 FEW022 29/19 Q1011,MKJS,2023-04-25T21:00:00Z,18.5,-77.92,29.0,19.0,60,9,,6.21,29.852362,,,,,,,,,,,FEW,2200,,,,,,,VFR,,,,,,,,,,,,METAR,3.0
MKJP 252100Z 16012KT 9999 FEW022CB 29/20 Q1011,MKJP,2023-04-25T21:00:00Z,17.93,-76.78,29.0,20.0,160,12,,6.21,29.852362,,,,,,,,,,,FEW,2200,,,,,,,VFR,,,,,,,,,,,,METAR,3.0
MHYR 252100Z 09005KT 8000 SCT026TCU 35/19,MHYR,2023-04-25T21:00:00Z,15.13,-87.13,35.0,19.0,90,5,,4.97,,,,,,,,,,,,SCT,2600,,,,,,,MVFR,,,,,,,,,,,,METAR,682.0
MHTR 252100Z 27003KT 6000 FEW024TCU 31/25,MHTR,2023-04-25T21:00:00Z,15.93,-85.93,31.0,25.0,270,3,,3.73,,,,,,,,,,,,FEW,2400,,,,,,,MVFR,,,,,,,,,,,,METAR,3.0
MHTG 252100Z 08002KT 6000 FEW040TCU 31/13 Q1014 A2994 NOSIG,MHTG,2023-04-25T21:00:00Z,14.07,-87.22,31.0,13.0,80,2,,3.73,29.940945,,,,,,TRUE,,,,,FEW,4000,,,,,,,MVFR,,,,,,,,,,,,METAR,1001.0
MHTE 252100Z 01006KT 7000 FEW026 32/26 Q1007,MHTE,2023-04-25T21:00:00Z,15.78,-87.48,32.0,26.0,10,6,,4.35,29.734253,,,,,,,,,,,FEW,2600,,,,,,,MVFR,,,,,,,,,,,,METAR,7.0
MHSR 252100Z 34005KT 5000 FU FEW034TCU FEW035CB 33/13,MHSR,2023-04-25T21:00:00Z,14.78,-88.78,33.0,13.0,340,5,,3.11,,,,,,,,,,,FU,FEW,3400,FEW,3500,,,,,MVFR,,,,,,,,,,,,METAR,1087.0
MHRO 252100Z VRB04KT 8000 FEW026 32/23 Q1009 A2980 NOSIG,MHRO,2023-04-25T21:00:00Z,16.32,-86.53,32.0,23.0,0,4,,4.97,29.793306,,,,,,TRUE,,,,,FEW,2600,,,,,,,MVFR,,,,,,,,,,,,METAR,6.0
MHPL 252100Z 00000KT 9999 SCT026TCU 31/26 Q1010,MHPL,2023-04-25T21:00:00Z,15.27,-83.78,31.0,26.0,0,0,,6.21,29.822834,,,,,,,,,,,SCT,2600,,,,,,,VFR,,,,,,,,,,,,METAR,13.0
MHNO 252100Z 18006KT 9999 FEW040TCU 31/21,MHNO,2023-04-25T21:00:00Z,14.43,-89.18,31.0,21.0,180,6,,6.21,,,,,,,,,,,,FEW,4000,,,,,,,VFR,,,,,,,,,,,,METAR,790.0
MHLM 252100Z 06012KT 5000 FU FEW030 33/24 Q1007 A2974 NOSIG,MHLM,2023-04-25T21:00:00Z,15.45,-87.93,33.0,24.0,60,12,,3.11,29.734253,,,,,,TRUE,,,,FU,FEW,3000,,,,,,,MVFR,,,,,,,,,,,,METAR,32.0
MHLE 252100Z 20006KT 9999 SCT022TCU FEW024CB 24/17,MHLE,2023-04-25T21:00:00Z,14.28,-88.17,24.0,17.0,200,6,,6.21,,,,,,,,,,,,SCT,2200,FEW,2400,,,,,VFR,,,,,,,,,,,,METAR,1688.0
MHGS 252100Z 36006KT 7000 SCT048TCU 34/16,MHGS,2023-04-25T21:00:00Z,14.57,-88.6,34.0,16.0,360,6,,4.35,,,,,,,,,,,,SCT,4800,,,,,,,MVFR,,,,,,,,,,,,METAR,913.0
MHCH 252100Z 25005KT 9999 FEW034 38/21,MHCH,2023-04-25T21:00:00Z,13.32,-87.15,38.0,21.0,250,5,,6.21,,,,,,,,,,,,FEW,3400,,,,,,,VFR,,,,,,,,,,,,METAR,58.0
MHCA 252100Z 08008KT 3000 FU SCT030 33/21 Q1011,MHCA,2023-04-25T21:00:00Z,14.87,-85.78,33.0,21.0,80,8,,1.86,29.852362,,,,,,,,,,FU,SCT,3000,,,,,,,IFR,,,,,,,,,,,,METAR,386.0
MGZA 252100Z 00000KT 9000 FEW025 SCT200 39/14 QFE 981.6 HZ,MGZA,2023-04-25T21:00:00Z,14.97,-89.53,39.0,14.0,0,0,,5.59,,,,,,,,,,,HZ,FEW,2500,SCT,20000,,,,,VFR,,,,,,,,,,,,METAR,195.0
MGTU 252100Z 36004KT 9000 FEW018 35/20 HZ,MGTU,2023-04-25T21:00:00Z,,,35.0,20.0,360,4,,5.59,,,,,,,,,,,HZ,FEW,1800,,,,,,,VFR,,,,,,,,,,,,METAR,
MGRT 252100Z 27008KT 9999 FEW020 35/22 Q1010 A2983 VOL. STA. MARIA Y SANTIAGUITO EN ACTIVIDAD,MGRT,2023-04-25T21:00:00Z,14.53,-91.7,35.0,22.0,270,8,,6.21,29.822834,,,,,,,,,,SA,FEW,2000,,,,,,,VFR,,,,,,,,,,,,METAR,209.0
MGQZ 252100Z 00000KT 8000 TS VCSH BKN020 FEW025CB 17/14 QFE 772.3 CB/TS/PCPN NNE,MGQZ,2023-04-25T21:00:00Z,14.87,-91.5,17.0,14.0,0,0,,4.97,,,,,,,,,,,TS VCSH TS,BKN,2000,FEW,2500,,,,,MVFR,,,,,,,,,,,,METAR,2378.0
MGPB 252100Z 03006KT 5000 HZ SKC 33/26 Q1007 A2974,MGPB,2023-04-25T21:00:00Z,15.73,-88.58,33.0,26.0,30,6,,3.11,29.734253,,,,,,,,,,HZ,SKC,,,,,,,,MVFR,,,,,,,,,,,,METAR,6.0
MGMT 252100Z 18004KT CAVOK 34/24,MGMT,2023-04-25T21:00:00Z,,,34.0,24.0,180,4,,6.21,,,,,,,,,,,,CAVOK,,,,,,,,VFR,,,,,,,,,,,,METAR,
MGMM 252100Z 32004KT 9000 FEW020 36/22 Q1009 A2980 HZ,MGMM,2023-04-25T21:00:00Z,16.9,-89.87,36.0,22.0,320,4,,5.59,29.793306,,,,,,,,,,HZ,FEW,2000,,,,,,,VFR,,,,,,,,,,,,METAR,105.0
MGHT 252100Z 00000KT 8000 TS SCT028 SCT032CB SCT090 27/15 HZ CB/TS N/W/NW,MGHT,2023-04-25T21:00:00Z,15.32,-91.5,27.0,15.0,0,0,,4.97,,,,,,,,,,,TS HZ TS,SCT,2800,SCT,3200,SCT,9000,,,MVFR,,,,,,,,,,,,METAR,1875.0
MGGT 252100Z 18010KT 7000 TSRA BKN020 FEW024CB 26/18 Q1018 A3006 HZ CB/TS NE/ENE/E,MGGT,2023-04-25T21:00:00Z,14.58,-90.53,26.0,18.0,180,10,,4.35,30.059055,,,,,,,,,,TSRA HZ TS,BKN,2000,FEW,2400,,,,,MVFR,,,,,,,,,,,,METAR,1497.0
MGES 252100Z 00000KT 9000 BKN022TCU 33/16 QFE 906.8 HZ FEW090 FEW200 TCU ENE/SE/WNW,MGES,2023-04-25T21:00:00Z,14.57,-89.32,33.0,16.0,0,0,,5.59,,,,,,,,,,,HZ,BKN,2200,FEW,9000,FEW,20000,,,MVFR,,,,,,,,,,,,METAR,948.0
MGCB 252100Z 05008KT 9999 SCT018 28/20 QFE 868.5,MGCB,2023-04-25T21:00:00Z,15.48,-90.42,28.0,20.0,50,8,,6.21,,,,,,,,,,,,SCT,1800,,,,,,,VFR,,,,,,,,,,,,METAR,1323.0
MDST 252100Z 12005KT 050V150 9999 SCT026 33/20 Q1010,MDST,2023-04-25T21:00:00Z,19.4,-70.6,33.0,20.0,120,5,,6.21,29.822834,,,,,,,,,,,SCT,2600,,,,,,,VFR,,,,,,,,,,,,METAR,175.0
MDSD 252100Z 22008KT 9999 FEW024 30/22 Q1012,MDSD,2023-04-25T21:00:00Z,18.42,-69.67,30.0,22.0,220,8,,6.21,29.88189,,,,,,,,,,,FEW,2400,,,,,,,VFR,,,,,,,,,,,,METAR,18.0
MDPP 252100Z 09010KT 9999 SCT020 28/23 Q1011,MDPP,2023-04-25T21:00:00Z,19.75,-70.57,28.0,23.0,90,10,,6.21,29.852362,,,,,,,,,,,SCT,2000,,,,,,,VFR,,,,,,,,,,,,METAR,9.0
MDPC 252100Z 10010KT 9999 FEW025 28/22 Q1012,MDPC,2023-04-25T21:00:00Z,18.57,-68.37,28.0,22.0,100,10,,6.21,29.88189,,,,,,,,,,,FEW,2500,,,,,,,VFR,,,,,,,,,,,,METAR,10.0
MDLR 252100Z 17006KT 9999 FEW020 29/25 Q1011,MDLR,2023-04-25T21:00:00Z,18.45,-68.92,29.0,25.0,170,6,,6.21,29.852362,,,,,,,,,,,FEW,2000,,,,,,,VFR,,,,,,,,,,,,METAR,66.0
MDJB 252100Z 18010KT 9999 FEW020 30/22 Q1012,MDJB,2023-04-25T21:00:00Z,18.57,-69.98,30.0,22.0,180,10,,6.21,29.88189,,,,,,,,,,,FEW,2000,,,,,,,VFR,,,,,,,,,,,,METAR,24.0
MDCY 252100Z 08012KT 9999 FEW019 28/22 Q1010,MDCY,2023-04-25T21:00:00Z,19.27,-69.73,28.0,22.0,80,12,,6.21,29.822834,,,,,,,,,,,FEW,1900,,,,,,,VFR,,,,,,,,,,,,METAR,4.0
MDBH 252100Z 13008KT 9999 FEW022 BKN080 29/21 Q1012,MDBH,2023-04-25T21:00:00Z,18.25,-71.12,29.0,21.0,130,8,,6.21,29.88189,,,,,,,,,,,FEW,2200,BKN,8000,,,,,VFR,,,,,,,,,,,,METAR,7.0
MDAB 252100Z 09008KT 9999 SCT022 31/23 Q1011,MDAB,2023-04-25T21:00:00Z,19.2,-69.43,31.0,23.0,90,8,,6.21,29.852362,,,,,,,,,,,SCT,2200,,,,,,,VFR,,,,,,,,,,,,METAR,28.0
MBPV 252100Z 00000KT 9999 SCT015 26/21 Q1012,MBPV,2023-04-25T21:00:00Z,21.77,-72.27,26.0,21.0,0,0,,6.21,29.88189,,,,,,,,,,,SCT,1500,,,,,,,VFR,,,,,,,,,,,,SPECI,7.0
LZZI 252100Z VRB02KT 9999 BKN052 08/05 Q1009,LZZI,2023-04-25T21:00:00Z,49.23,18.62,8.0,5.0,0,2,,6.21,29.793306,,,,,,,,,,,BKN,5200,,,,,,,VFR,,,,,,,,,,,,METAR,311.0
LZTT 252100Z VRB03KT 9999 FEW033 02/01 Q1006,LZTT,2023-04-25T21:00:00Z,49.07,20.25,2.0,1.0,0,3,,6.21,29.704725,,,,,,,,,,,FEW,3300,,,,,,,VFR,,,,,,,,,,,,METAR,693.0
LZPP 252100Z AUTO 36007KT 9999 09/05 Q1010,LZPP,2023-04-25T21:00:00Z,48.62,17.83,9.0,5.0,360,7,,6.21,29.822834,,,TRUE,,,,,,,,,,,,,,,,,,,,,,,,,,,,METAR,160.0
LZKZ 252100Z 02006KT CAVOK 07/04 Q1007 NOSIG,LZKZ,2023-04-25T21:00:00Z,48.67,21.23,7.0,4.0,20,6,,6.21,29.734253,,,,,,TRUE,,,,,CAVOK,,,,,,,,VFR,,,,,,,,,,,,METAR,227.0
LZIB 252100Z 31011KT 9999 FEW049 09/05 Q1011 NOSIG,LZIB,2023-04-25T21:00:00Z,48.17,17.22,9.0,5.0,310,11,,6.21,29.852362,,,,,,TRUE,,,,,FEW,4900,,,,,,,VFR,,,,,,,,,,,,METAR,129.0
LYVR 252100Z AUTO 10002KT 6000 1000 R19/P2000N R01/P2000N NSC 07/07 Q1008,LYVR,2023-04-25T21:00:00Z,45.13,21.32,7.0,7.0,100,2,,3.73,29.763779,,,TRUE,,,,,,,,CLR,,,,,,,,MVFR,,,,,,,,,,,,METAR,82.0
LYTV 252100Z AUTO VRB01KT CAVOK 13/12 Q1007,LYTV,2023-04-25T21:00:00Z,42.4,18.72,13.0,12.0,0,1,,6.21,29.734253,,,TRUE,,,,,,,,CAVOK,,,,,,,,VFR,,,,,,,,,,,,METAR,3.0
LYPG 252100Z 11003KT 080V140 9999 FEW034 14/09 Q1006 NOSIG,LYPG,2023-04-25T21:00:00Z,42.37,19.25,14.0,9.0,110,3,,6.21,29.704725,,,,,,TRUE,,,,,FEW,3400,,,,,,,VFR,,,,,,,,,,,,METAR,32.0
LYNI 252100Z VRB01KT 9999 MIFG FEW047 09/08 Q1008 NOSIG,LYNI,2023-04-25T21:00:00Z,43.33,21.85,9.0,8.0,0,1,,6.21,29.763779,,,,,,TRUE,,,,MIFG,FEW,4700,,,,,,,VFR,,,,,,,,,,,,METAR,197.0
LYKV 252100Z 36002KT CAVOK 09/09 Q1008 NOSIG,LYKV,2023-04-25T21:00:00Z,43.82,20.58,9.0,9.0,360,2,,6.21,29.763779,,,,,,TRUE,,,,,CAVOK,,,,,,,,VFR,,,,,,,,,,,,METAR,209.0
LYBT 252100Z 32001KT CAVOK 08/07 Q1008 NOSIG,LYBT,2023-04-25T21:00:00Z,44.93,20.25,8.0,7.0,320,1,,6.21,29.763779,,,,,,TRUE,,,,,CAVOK,,,,,,,,VFR,,,,,,,,,,,,METAR,78.0
LYBE 252100Z 29003KT CAVOK 10/06 Q1007 NOSIG,LYBE,2023-04-25T21:00:00Z,44.82,20.28,10.0,6.0,290,3,,6.21,29.734253,,,,,,TRUE,,,,,CAVOK,,,,,,,,VFR,,,,,,,,,,,,METAR,93.0
LWSK 252100Z VRB02KT 9999 FEW090 11/08 Q1008 NOSIG,LWSK,2023-04-25T21:00:00Z,41.97,21.63,11.0,8.0,0,2,,6.21,29.763779,,,,,,TRUE,,,,,FEW,9000,,,,,,,VFR,,,,,,,,,,,,METAR,232.0
LUKK 252100Z 14006KT 9999 OVC009 11/09 Q1004 TEMPO BKN006,LUKK,2023-04-25T21:00:00Z,46.93,28.93,11.0,9.0,140,6,,6.21,29.64567,,,,,,,,,,,OVC,900,,,,,,,IFR,,,,,,,,,,,,METAR,102.0
LRTR 252100Z VRB02KT 8000 0450N R11/0550N BCFG NSC 07/07 Q1007,LRTR,2023-04-25T21:00:00Z,45.82,21.33,7.0,7.0,0,2,,4.97,29.734253,,,,,,,,,,BCFG,CLR,,,,,,,,MVFR,,,,,,,,,,,,METAR,104.0
LRTM 252100Z 24004KT 8000 SHRA BKN010 SCT022CB BKN030 10/09 Q1004,LRTM,2023-04-25T21:00:00Z,46.47,24.42,10.0,9.0,240,4,,4.97,29.64567,,,,,,,,,,SHRA,BKN,1000,SCT,2200,BKN,3000,,,MVFR,,,,,,,,,,,,METAR,289.0
LRTC 252100Z AUTO 14009KT 7000 BKN075/// BKN180/// 12/10 Q1005 RERA,LRTC,2023-04-25T21:00:00Z,45.07,28.72,12.0,10.0,140,9,,4.35,29.675198,,,TRUE,,,,,,,,BKN,7500,BKN,18000,,,,,MVFR,,,,,,,,,,,,METAR,52.0
LRSV 252100Z 13005KT 9999 FEW010 12/11 Q1002,LRSV,2023-04-25T21:00:00Z,47.68,26.35,12.0,11.0,130,5,,6.21,29.586615,,,,,,,,,,,FEW,1000,,,,,,,VFR,,,,,,,,,,,,METAR,406.0
LRSM 252100Z AUTO 32011KT 9999 -RA FEW009/// OVC019/// 08/07 Q1004,LRSM,2023-04-25T21:00:00Z,47.7,22.88,8.0,7.0,320,11,,6.21,29.64567,,,TRUE,,,,,,,-RA,FEW,900,OVC,1900,,,,,MVFR,,,,,,,,,,,,METAR,123.0
LRSB 252100Z 31003KT 9999 SCT060 10/05 Q1004,LRSB,2023-04-25T21:00:00Z,45.78,24.08,10.0,5.0,310,3,,6.21,29.64567,,,,,,,,,,,SCT,6000,,,,,,,VFR,,,,,,,,,,,,METAR,442.0
LROP 252100Z 22009KT CAVOK 10/09 Q1004 NOSIG,LROP,2023-04-25T21:00:00Z,44.57,26.1,10.0,9.0,220,9,,6.21,29.64567,,,,,,TRUE,,,,,CAVOK,,,,,,,,VFR,,,,,,,,,,,,METAR,92.0
LROD 252100Z AUTO 31002KT 9999 BKN050/// 08/07 Q1007,LROD,2023-04-25T21:00:00Z,47.03,21.88,8.0,7.0,310,2,,6.21,29.734253,,,TRUE,,,,,,,,BKN,5000,,,,,,,VFR,,,,,,,,,,,,METAR,132.0
LRIA 252100Z 11009KT 9999 RA BKN040 11/10 Q1003,LRIA,2023-04-25T21:00:00Z,47.17,27.62,11.0,10.0,110,9,,6.21,29.616142,,,,,,,,,,RA,BKN,4000,,,,,,,VFR,,,,,,,,,,,,METAR,71.0
LRCV 252100Z 28010KT CAVOK 09/07 Q1004,LRCV,2023-04-25T21:00:00Z,44.32,23.88,9.0,7.0,280,10,,6.21,29.64567,,,,,,,,,,,CAVOK,,,,,,,,VFR,,,,,,,,,,,,METAR,192.0
LRCL 252100Z 28010KT 9999 -RA FEW017 OVC049 09/07 Q1004,LRCL,2023-04-25T21:00:00Z,46.78,23.68,9.0,7.0,280,10,,6.21,29.64567,,,,,,,,,,-RA,FEW,1700,OVC,4900,,,,,VFR,,,,,,,,,,,,METAR,313.0
LRCK 252100Z 21007KT CAVOK 11/10 Q1005 NOSIG,LRCK,2023-04-25T21:00:00Z,44.37,28.48,11.0,10.0,210,7,,6.21,29.675198,,,,,,TRUE,,,,,CAVOK,,,,,,,,VFR,,,,,,,,,,,,METAR,108.0
LRBS 252100Z 23007KT CAVOK 11/08 Q1004 NOSIG,LRBS,2023-04-25T21:00:00Z,44.5,26.08,11.0,8.0,230,7,,6.21,29.64567,,,,,,TRUE,,,,,CAVOK,,,,,,,,VFR,,,,,,,,,,,,METAR,91.0
LRBM 252100Z AUTO 26010KT 9999 -RA FEW004/// BKN006/// BKN008/// 08/08 Q1004,LRBM,2023-04-25T21:00:00Z,47.67,23.47,8.0,8.0,260,10,,6.21,29.64567,,,TRUE,,,,,,,-RA,FEW,400,BKN,600,BKN,800,,,IFR,,,,,,,,,,,,METAR,180.0
LRBC 252100Z 17007KT 9999 FEW060 11/09 Q1002,LRBC,2023-04-25T21:00:00Z,46.52,26.92,11.0,9.0,170,7,,6.21,29.586615,,,,,,,,,,,FEW,6000,,,,,,,VFR,,,,,,,,,,,,METAR,183.0
LRAR 252100Z 27002KT 9999 MIFG NSC 07/07 Q1007,LRAR,2023-04-25T21:00:00Z,46.18,21.27,7.0,7.0,270,2,,6.21,29.734253,,,,,,,,,,MIFG,CLR,,,,,,,,VFR,,,,,,,,,,,,METAR,102.0
LQTZ 252100Z VRB02KT 9999 SCT045 10/09 Q1007,LQTZ,2023-04-25T21:00:00Z,44.47,18.73,10.0,9.0,0,2,,6.21,29.734253,,,,,,,,,,,SCT,4500,,,,,,,VFR,,,,,,,,,,,,METAR,242.0
LQSA 252100Z VRB02KT 8000 RA FEW020 SCT030 BKN040 09/09 Q1008,LQSA,2023-04-25T21:00:00Z,43.82,18.32,9.0,9.0,0,2,,4.97,29.763779,,,,,,,,,,RA,FEW,2000,SCT,3000,BKN,4000,,,MVFR,,,,,,,,,,,,METAR,505.0
LQMO 252100Z VRB03KT 9999 FEW036 BKN076 11/10 Q1006,LQMO,2023-04-25T21:00:00Z,43.28,17.83,11.0,10.0,0,3,,6.21,29.704725,,,,,,,,,,,FEW,3600,BKN,7600,,,,,VFR,,,,,,,,,,,,METAR,49.0
LQBK 252100Z 28007KT 240V310 9999 -RA SCT045 12/10 Q1009 NOSIG,LQBK,2023-04-25T21:00:00Z,44.93,17.3,12.0,10.0,280,7,,6.21,29.793306,,,,,,TRUE,,,,-RA,SCT,4500,,,,,,,VFR,,,,,,,,,,,,METAR,114.0
LPPT 252100Z 33011KT CAVOK 17/13 Q1017,LPPT,2023-04-25T21:00:00Z,38.77,-9.13,17.0,13.0,330,11,,6.21,30.029528,,,,,,,,,,,CAVOK,,,,,,,,VFR,,,,,,,,,,,,METAR,98.0
LPPS 252100Z 09004KT 010V150 9999 FEW015 18/15 Q1017,LPPS,2023-04-25T21:00:00Z,33.07,-16.35,18.0,15.0,90,4,,6.21,30.029528,,,,,,,,,,,FEW,1500,,,,,,,VFR,,,,,,,,,,,,METAR,89.0
LPPR 252100Z 33004KT CAVOK 15/14 Q1018,LPPR,2023-04-25T21:00:00Z,41.23,-8.68,15.0,14.0,330,4,,6.21,30.059055,,,,,,,,,,,CAVOK,,,,,,,,VFR,,,,,,,,,,,,METAR,64.0
LPPD 252100Z 17006KT 140V200 0800 0400NW FG VV001 18/17 Q1009,LPPD,2023-04-25T21:00:00Z,37.73,-25.68,18.0,17.0,170,6,,0.5,29.793306,,,,,,,,,,FG,OVX,0,,,,,,,LIFR,,,,,,,,,,,100,METAR,62.0
LPMT 252100Z 34006KT CAVOK 18/13 Q1017,LPMT,2023-04-25T21:00:00Z,38.7,-9.05,18.0,13.0,340,6,,6.21,30.029528,,,,,,,,,,,CAVOK,,,,,,,,VFR,,,,,,,,,,,,METAR,4.0
LPMR 252100Z 36004KT CAVOK 15/13 Q1018,LPMR,2023-04-25T21:00:00Z,39.82,-8.88,15.0,13.0,360,4,,6.21,30.059055,,,,,,,,,,,CAVOK,,,,,,,,VFR,,,,,,,,,,,,METAR,50.0
LPMA 252100Z VRB03KT 9999 FEW016 19/14 Q1016,LPMA,2023-04-25T21:00:00Z,32.7,-16.77,19.0,14.0,0,3,,6.21,30.0,,,,,,,,,,,FEW,1600,,,,,,,VFR,,,,,,,,,,,,METAR,54.0
LPLA 252100Z /////KT 9999 FEW012 SCT023 19/15 Q1008,LPLA,2023-04-25T21:00:00Z,38.77,-27.1,19.0,15.0,,,,6.21,29.763779,,,,,,,,,,,FEW,1200,SCT,2300,,,,,VFR,,,,,,,,,,,,METAR,60.0
LPHR 252100Z 21007KT 9999 FEW006 17/16 Q1006,LPHR,2023-04-25T21:00:00Z,38.52,-28.72,17.0,16.0,210,7,,6.21,29.704725,,,,,,,,,,,FEW,600,,,,,,,VFR,,,,,,,,,,,,METAR,39.0
LPFR 252100Z 28003KT 250V310 CAVOK 21/16 Q1014,LPFR,2023-04-25T21:00:00Z,37.02,-7.97,21.0,16.0,280,3,,6.21,29.940945,,,,,,,,,,,CAVOK,,,,,,,,VFR,,,,,,,,,,,,METAR,3.0
LPCS 252100Z 01015KT CAVOK 16/13 Q1017,LPCS,2023-04-25T21:00:00Z,38.73,-9.35,16.0,13.0,10,15,,6.21,30.029528,,,,,,,,,,,CAVOK,,,,,,,,VFR,,,,,,,,,,,,METAR,99.0
LPBJ 252100Z 30008KT CAVOK 21/10 Q1016,LPBJ,2023-04-25T21:00:00Z,38.08,-7.93,21.0,10.0,300,8,,6.21,30.0,,,,,,,,,,,CAVOK,,,,,,,,VFR,,,,,,,,,,,,METAR,196.0
LPAZ 252100Z 17008KT 0900 R18/1400D -DZ FG VV002 18/18 Q1010,LPAZ,2023-04-25T21:00:00Z,36.97,-25.17,18.0,18.0,170,8,,0.56,29.822834,,,,,,,,,,-DZ FG,OVX,0,,,,,,,LIFR,,,,,,,,,,,200,METAR,96.0
LKTB 252100Z 30007KT CAVOK 08/01 Q1011 NOSIG,LKTB,2023-04-25T21:00:00Z,49.15,16.68,8.0,1.0,300,7,,6.21,29.852362,,,,,,TRUE,,,,,CAVOK,,,,,,,,VFR,,,,,,,,,,,,METAR,233.0
LKPR 252100Z 25006KT CAVOK 03/M00 Q1013 NOSIG,LKPR,2023-04-25T21:00:00Z,50.1,14.27,3.0,0.0,250,6,,6.21,29.911417,,,,,,TRUE,,,,,CAVOK,,,,,,,,VFR,,,,,,,,,,,,METAR,364.0
LKPD 252100Z 28008KT CAVOK 07/01 Q1013 RMK BLACK,LKPD,2023-04-25T21:00:00Z,50.02,15.73,7.0,1.0,280,8,,6.21,29.911417,,,,,,,,,,,CAVOK,,,,,,,,VFR,,,,,,,,,,,,METAR,226.0
LKNA 252100Z 30010KT CAVOK 04/01 Q1012 RMK BLU,LKNA,2023-04-25T21:00:00Z,49.17,16.12,4.0,1.0,300,10,,6.21,29.88189,,,,,,,,,,,CAVOK,,,,,,,,VFR,,,,,,,,,,,,METAR,460.0
LKMT 252100Z 33009KT 290V360 CAVOK 08/03 Q1011 NOSIG,LKMT,2023-04-25T21:00:00Z,49.68,18.12,8.0,3.0,330,9,,6.21,29.852362,,,,,,TRUE,,,,,CAVOK,,,,,,,,VFR,,,,,,,,,,,,METAR,251.0
LKLN 252100Z AUTO VRB02KT 9999 FEW060 OVC069 07/M00 Q1014,LKLN,2023-04-25T21:00:00Z,49.68,13.27,7.0,0.0,0,2,,6.21,29.940945,,,TRUE,,,,,,,,FEW,6000,OVC,6900,,,,,VFR,,,,,,,,,,,,METAR,353.0
LKKV 252100Z 28005KT 240V310 CAVOK 03/M04 Q1013,LKKV,2023-04-25T21:00:00Z,50.2,12.92,3.0,-4.0,280,5,,6.21,29.911417,,,,,,,,,,,CAVOK,,,,,,,,VFR,,,,,,,,,,,,METAR,600.0
LKKB 252100Z 26007KT CAVOK 06/00 Q1013,LKKB,2023-04-25T21:00:00Z,50.12,14.53,6.0,0.0,260,7,,6.21,29.911417,,,,,,,,,,,CAVOK,,,,,,,,VFR,,,,,,,,,,,,METAR,281.0
LKCV 252100Z 29009KT CAVOK 06/02 Q1013 NOSIG RMK BLU BLU,LKCV,2023-04-25T21:00:00Z,49.93,15.38,6.0,2.0,290,9,,6.21,29.911417,,,,,,TRUE,,,,,CAVOK,,,,,,,,VFR,,,,,,,,,,,,METAR,234.0
LJPZ 252100Z AUTO 12005KT 9999 NCD 08/07 Q1011,LJPZ,2023-04-25T21:00:00Z,45.47,13.62,8.0,7.0,120,5,,6.21,29.852362,,,TRUE,,,,,,,,CLR,,,,,,,,VFR,,,,,,,,,,,,METAR,2.0
LJMB 252100Z AUTO 35001KT 9999 NSC 08/07 Q1011,LJMB,2023-04-25T21:00:00Z,46.47,15.67,8.0,7.0,350,1,,6.21,29.852362,,,TRUE,,,,,,,,CLR,,,,,,,,VFR,,,,,,,,,,,,METAR,263.0
LJLJ 252100Z 28001KT 9999 FEW060 SCT085 BKN180 07/05 Q1010 NOSIG,LJLJ,2023-04-25T21:00:00Z,46.22,14.47,7.0,5.0,280,1,,6.21,29.822834,,,,,,TRUE,,,,,FEW,6000,SCT,8500,BKN,18000,,,VFR,,,,,,,,,,,,METAR,363.0
LJCE 252100Z AUTO 05004KT 360V090 9999 -RA NSC 11/05 Q1011,LJCE,2023-04-25T21:00:00Z,45.9,15.52,11.0,5.0,50,4,,6.21,29.852362,,,TRUE,,,,,,,-RA,CLR,,,,,,,,VFR,,,,,,,,,,,,METAR,153.0
LHBP 252100Z 33004KT CAVOK 08/05 Q1008 NOSIG,LHBP,2023-04-25T21:00:00Z,47.43,19.27,8.0,5.0,330,4,,6.21,29.763779,,,,,,TRUE,,,,,CAVOK,,,,,,,,VFR,,,,,,,,,,,,METAR,141.0
LGKP 252100Z AUTO 00000KT //// // ////// 16/14 Q1011 RERA,LGKP,2023-04-25T21:00:00Z,35.42,27.15,16.0,14.0,0,0,,,29.852362,,,TRUE,,,,,,,,,,,,,,,,,,,,,,,,,,,,METAR,20.0
LFYR 252100Z AUTO 06004KT CAVOK 11/06 Q1017,LFYR,2023-04-25T21:00:00Z,47.32,1.68,11.0,6.0,60,4,,6.21,30.029528,,,TRUE,,,,,,,,CAVOK,,,,,,,,VFR,,,,,,,,,,,,METAR,83.0
LFVP 252100Z AUTO 33009KT CAVOK 07/00 Q1021 NOSIG,LFVP,2023-04-25T21:00:00Z,46.77,-56.18,7.0,0.0,330,9,,6.21,30.147638,,,TRUE,,,TRUE,,,,,CAVOK,,,,,,,,VFR,,,,,,,,,,,,METAR,5.0
LFTW 252100Z AUTO 35008KT CAVOK 14/02 Q1014,LFTW,2023-04-25T21:00:00Z,43.75,4.42,14.0,2.0,350,8,,6.21,29.940945,,,TRUE,,,,,,,,CAVOK,,,,,,,,VFR,,,,,,,,,,,,METAR,91.0
LFTH 252100Z AUTO 34007KT CAVOK 16/M07 Q1011 NOSIG,LFTH,2023-04-25T21:00:00Z,43.1,6.15,16.0,-7.0,340,7,,6.21,29.852362,,,TRUE,,,TRUE,,,,,CAVOK,,,,,,,,VFR,,,,,,,,,,,,METAR,3.0
LFSX 252100Z AUTO 29001KT 9999 ////// 05/03 Q1017,LFSX,2023-04-25T21:00:00Z,47.77,6.35,5.0,3.0,290,1,,6.21,30.029528,,,TRUE,,,,,,,,,,,,,,,,,,,,,,,,,,,,METAR,266.0
LFST 252100Z AUTO 03004KT 9999 -RA FEW010 SCT016 BKN025 07/05 Q1018 NOSIG,LFST,2023-04-25T21:00:00Z,48.53,7.63,7.0,5.0,30,4,,6.21,30.059055,,,TRUE,,,TRUE,,,,-RA,FEW,1000,SCT,1600,BKN,2500,,,MVFR,,,,,,,,,,,,METAR,149.0
LFSO 252100Z AUTO 00000KT CAVOK 05/04 Q1017 NOSIG,LFSO,2023-04-25T21:00:00Z,48.57,5.97,5.0,4.0,0,0,,6.21,30.029528,,,TRUE,,,TRUE,,,,,CAVOK,,,,,,,,VFR,,,,,,,,,,,,METAR,328.0
LFSN 252100Z AUTO 00000KT CAVOK 07/06 Q1018,LFSN,2023-04-25T21:00:00Z,48.68,6.22,7.0,6.0,0,0,,6.21,30.059055,,,TRUE,,,,,,,,CAVOK,,,,,,,,VFR,,,,,,,,,,,,METAR,214.0
LFSL 252100Z AUTO 00000KT 9999 //////TCU 11/06 Q1017,LFSL,2023-04-25T21:00:00Z,45.03,1.48,11.0,6.0,0,0,,6.21,30.029528,,,TRUE,,,,,,,,,,,,,,,,,,,,,,,,,,,,METAR,300.0
LFSI 252100Z AUTO 09002KT CAVOK 04/03 Q1018,LFSI,2023-04-25T21:00:00Z,48.62,4.9,4.0,3.0,90,2,,6.21,30.059055,,,TRUE,,,,,,,,CAVOK,,,,,,,,VFR,,,,,,,,,,,,METAR,136.0
LFSG 252100Z AUTO 00000KT CAVOK 04/04 Q1017,LFSG,2023-04-25T21:00:00Z,48.33,6.07,4.0,4.0,0,0,,6.21,30.029528,,,TRUE,,,,,,,,CAVOK,,,,,,,,VFR,,,,,,,,,,,,METAR,320.0
LFSD 252100Z AUTO 33005KT CAVOK 06/04 Q1017,LFSD,2023-04-25T21:00:00Z,47.27,5.08,6.0,4.0,330,5,,6.21,30.029528,,,TRUE,,,,,,,,CAVOK,,,,,,,,VFR,,,,,,,,,,,,METAR,218.0
LFSB 252100Z AUTO VRB02KT 9999 FEW037 SCT094 07/07 Q1017 TEMPO 3000 BR,LFSB,2023-04-25T21:00:00Z,47.6,7.52,7.0,7.0,0,2,,6.21,30.029528,,,TRUE,,,,,,,,FEW,3700,SCT,9400,,,,,VFR,,,,,,,,,,,,METAR,262.0
LFRZ 252100Z AUTO 14008KT 9999 SCT043 OVC052 12/09 Q1015 BECMG BKN013,LFRZ,2023-04-25T21:00:00Z,47.32,-2.17,12.0,9.0,140,8,,6.21,29.970472,,,TRUE,,,,,,,,SCT,4300,OVC,5200,,,,,VFR,,,,,,,,,,,,METAR,2.0
LFRV 252100Z AUTO 11003KT 9999 BKN029 OVC037 10/07 Q1015,LFRV,2023-04-25T21:00:00Z,47.72,-2.72,10.0,7.0,110,3,,6.21,29.970472,,,TRUE,,,,,,,,BKN,2900,OVC,3700,,,,,MVFR,,,,,,,,,,,,METAR,132.0
LFRT 252100Z AUTO 08003KT 9999 BKN030 OVC039 10/07 Q1015,LFRT,2023-04-25T21:00:00Z,48.53,-2.85,10.0,7.0,80,3,,6.21,29.970472,,,TRUE,,,,,,,,BKN,3000,OVC,3900,,,,,MVFR,,,,,,,,,,,,METAR,134.0
LFRS 252100Z AUTO 13005KT 100V180 9999 BKN043 OVC050 11/07 Q1015 BECMG BKN009,LFRS,2023-04-25T21:00:00Z,47.17,-1.6,11.0,7.0,130,5,,6.21,29.970472,,,TRUE,,,,,,,,BKN,4300,OVC,5000,,,,,VFR,,,,,,,,,,,,METAR,26.0
LFRQ 252100Z AUTO 13014KT 9999 BKN019 OVC027 10/07 Q1014 TEMPO 4000 -RADZ BECMG OVC004,LFRQ,2023-04-25T21:00:00Z,47.97,-4.17,10.0,7.0,130,14,,6.21,29.940945,,,TRUE,,,,,,,,BKN,1900,OVC,2700,,,,,MVFR,,,,,,,,,,,,METAR,94.0
LFRO 252100Z AUTO 09007KT 050V120 9999 BKN046 OVC056 10/06 Q1015,LFRO,2023-04-25T21:00:00Z,48.75,-3.47,10.0,6.0,90,7,,6.21,29.970472,,,TRUE,,,,,,,,BKN,4600,OVC,5600,,,,,VFR,,,,,,,,,,,,METAR,86.0
LFRN 252100Z AUTO 11007KT 9999 BKN041 OVC070 12/07 Q1016 TEMPO 4000 -RA,LFRN,2023-04-25T21:00:00Z,48.07,-1.73,12.0,7.0,110,7,,6.21,30.0,,,TRUE,,,,,,,,BKN,4100,OVC,7000,,,,,VFR,,,,,,,,,,,,METAR,35.0
LFRM 252100Z AUTO 08008KT 060V120 9999 BKN048 OVC100 11/06 Q1017 NOSIG,LFRM,2023-04-25T21:00:00Z,47.95,0.2,11.0,6.0,80,8,,6.21,30.029528,,,TRUE,,,TRUE,,,,,BKN,4800,OVC,10000,,,,,VFR,,,,,,,,,,,,METAR,51.0
LFRL 252100Z AUTO 12010KT 090V170 9999 OVC030 10/06 Q1014 BECMG BKN004,LFRL,2023-04-25T21:00:00Z,48.27,-4.43,10.0,6.0,120,10,,6.21,29.940945,,,TRUE,,,,,,,,OVC,3000,,,,,,,MVFR,,,,,,,,,,,,METAR,80.0
LFRK 252100Z AUTO 09006KT CAVOK 08/04 Q1018,LFRK,2023-04-25T21:00:00Z,49.17,-0.45,8.0,4.0,90,6,,6.21,30.059055,,,TRUE,,,,,,,,CAVOK,,,,,,,,VFR,,,,,,,,,,,,METAR,66.0
LFRJ 252100Z AUTO 13006KT 9999 OVC039 11/07 Q1015 BECMG 4000 RADZ OVC012,LFRJ,2023-04-25T21:00:00Z,48.52,-4.15,11.0,7.0,130,6,,6.21,29.970472,,,TRUE,,,,,,,,OVC,3900,,,,,,,VFR,,,,,,,,,,,,METAR,109.0
LFRI 252100Z AUTO 12005KT 9999 OVC036/// //////TCU 11/07 Q1015 BECMG BKN007,LFRI,2023-04-25T21:00:00Z,46.7,-1.37,11.0,7.0,120,5,,6.21,29.970472,,,TRUE,,,,,,,,OVC,3600,,,,,,,VFR,,,,,,,,,,,,METAR,89.0
LFRH 252100Z AUTO 13012KT 9999 SCT023 OVC032 11/07 Q1015 TEMPO 3000 RADZ BECMG BKN008 OVC013,LFRH,2023-04-25T21:00:00Z,47.77,-3.45,11.0,7.0,130,12,,6.21,29.970472,,,TRUE,,,,,,,,SCT,2300,OVC,3200,,,,,VFR,,,,,,,,,,,,METAR,46.0
LFRG 252100Z AUTO 08006KT 050V110 CAVOK 07/03 Q1018,LFRG,2023-04-25T21:00:00Z,49.37,0.15,7.0,3.0,80,6,,6.21,30.059055,,,TRUE,,,,,,,,CAVOK,,,,,,,,VFR,,,,,,,,,,,,METAR,146.0
LFRD 252100Z AUTO 08007KT 9999 OVC041 10/06 Q1016 TEMPO 4000 -RA,LFRD,2023-04-25T21:00:00Z,48.58,-2.07,10.0,6.0,80,7,,6.21,30.0,,,TRUE,,,,,,,,OVC,4100,,,,,,,VFR,,,,,,,,,,,,METAR,56.0
LFRC 252100Z AUTO 10008KT 9999 FEW045 SCT120 BKN140 07/02 Q1018,LFRC,2023-04-25T21:00:00Z,49.63,-1.47,7.0,2.0,100,8,,6.21,30.059055,,,TRUE,,,,,,,,FEW,4500,SCT,12000,BKN,14000,,,VFR,,,,,,,,,,,,METAR,137.0
LFRB 252100Z AUTO 16009KT 9999 OVC033 10/05 Q1014 TEMPO 4000 -RADZ BECMG OVC005,LFRB,2023-04-25T21:00:00Z,48.45,-4.42,10.0,5.0,160,9,,6.21,29.940945,,,TRUE,,,,,,,,OVC,3300,,,,,,,VFR,,,,,,,,,,,,METAR,91.0
LFQQ 252100Z AUTO 03004KT CAVOK 05/01 Q1019 NOSIG,LFQQ,2023-04-25T21:00:00Z,50.57,3.1,5.0,1.0,30,4,,6.21,30.088583,,,TRUE,,,TRUE,,,,,CAVOK,,,,,,,,VFR,,,,,,,,,,,,METAR,43.0
LFQB 252100Z AUTO 00000KT CAVOK 03/01 Q1018,LFQB,2023-04-25T21:00:00Z,48.32,4.02,3.0,1.0,0,0,,6.21,30.059055,,,TRUE,,,,,,,,CAVOK,,,,,,,,VFR,,,,,,,,,,,,METAR,107.0
LFQA 252100Z AUTO 35003KT CAVOK 02/02 Q1018,LFQA,2023-04-25T21:00:00Z,49.2,4.15,2.0,2.0,350,3,,6.21,30.059055,,,TRUE,,,,,,,,CAVOK,,,,,,,,VFR,,,,,,,,,,,,METAR,92.0
LFPV 252100Z AUTO 08005KT CAVOK 06/03 Q1018 NOSIG,LFPV,2023-04-25T21:00:00Z,48.77,2.2,6.0,3.0,80,5,,6.21,30.059055,,,TRUE,,,TRUE,,,,,CAVOK,,,,,,,,VFR,,,,,,,,,,,,METAR,171.0
LFPT 252100Z AUTO 06003KT CAVOK 05/03 Q1018,LFPT,2023-04-25T21:00:00Z,49.1,2.03,5.0,3.0,60,3,,6.21,30.059055,,,TRUE,,,,,,,,CAVOK,,,,,,,,VFR,,,,,,,,,,,,METAR,91.0
LFPO 252100Z 07002KT CAVOK 07/03 Q1018 NOSIG,LFPO,2023-04-25T21:00:00Z,48.72,2.38,7.0,3.0,70,2,,6.21,30.059055,,,,,,TRUE,,,,,CAVOK,,,,,,,,VFR,,,,,,,,,,,,METAR,88.0
LFPN 252100Z AUTO 11002KT CAVOK 06/03 Q1018,LFPN,2023-04-25T21:00:00Z,48.75,2.12,6.0,3.0,110,2,,6.21,30.059055,,,TRUE,,,,,,,,CAVOK,,,,,,,,VFR,,,,,,,,,,,,METAR,152.0
LFPM 252100Z AUTO 06004KT CAVOK 06/03 Q1018,LFPM,2023-04-25T21:00:00Z,48.62,2.67,6.0,3.0,60,4,,6.21,30.059055,,,TRUE,,,,,,,,CAVOK,,,,,,,,VFR,,,,,,,,,,,,METAR,91.0
LFPG 252100Z 07004KT CAVOK 07/02 Q1018 NOSIG,LFPG,2023-04-25T21:00:00Z,49.02,2.53,7.0,2.0,70,4,,6.21,30.059055,,,,,,TRUE,,,,,CAVOK,,,,,,,,VFR,,,,,,,,,,,,METAR,107.0
LFPB 252100Z AUTO 03004KT CAVOK 07/03 Q1018 NOSIG,LFPB,2023-04-25T21:00:00Z,48.97,2.42,7.0,3.0,30,4,,6.21,30.059055,,,TRUE,,,TRUE,,,,,CAVOK,,,,,,,,VFR,,,,,,,,,,,,METAR,50.0
LFOZ 252100Z AUTO 06004KT CAVOK 06/04 Q1018,LFOZ,2023-04-25T21:00:00Z,47.9,2.17,6.0,4.0,60,4,,6.21,30.059055,,,TRUE,,,,,,,,CAVOK,,,,,,,,VFR,,,,,,,,,,,,METAR,121.0
LFOV 252100Z AUTO 10006KT 9999 -RA BKN045 OVC070 10/06 Q1016,LFOV,2023-04-25T21:00:00Z,48.03,-0.75,10.0,6.0,100,6,,6.21,30.0,,,TRUE,,,,,,,-RA,BKN,4500,OVC,7000,,,,,VFR,,,,,,,,,,,,METAR,99.0
LFOT 252100Z AUTO 07006KT CAVOK 10/07 Q1017 NOSIG,LFOT,2023-04-25T21:00:00Z,47.43,0.72,10.0,7.0,70,6,,6.21,30.029528,,,TRUE,,,TRUE,,,,,CAVOK,,,,,,,,VFR,,,,,,,,,,,,METAR,107.0
LFOP 252100Z AUTO 04007KT CAVOK 05/03 Q1018,LFOP,2023-04-25T21:00:00Z,49.37,1.17,5.0,3.0,40,7,,6.21,30.059055,,,TRUE,,,,,,,,CAVOK,,,,,,,,VFR,,,,,,,,,,,,METAR,149.0
LFOK 252100Z AUTO 04004KT CAVOK 06/03 Q1018 NOSIG,LFOK,2023-04-25T21:00:00Z,48.78,4.15,6.0,3.0,40,4,,6.21,30.059055,,,TRUE,,,TRUE,,,,,CAVOK,,,,,,,,VFR,,,,,,,,,,,,METAR,166.0
LFOJ 252100Z AUTO 07004KT CAVOK 07/04 Q1017 NOSIG,LFOJ,2023-04-25T21:00:00Z,47.98,1.75,7.0,4.0,70,4,,6.21,30.029528,,,TRUE,,,TRUE,,,,,CAVOK,,,,,,,,VFR,,,,,,,,,,,,METAR,122.0
LFOH 252100Z AUTO 08008KT CAVOK 07/02 Q1018,LFOH,2023-04-25T21:00:00Z,49.52,0.08,7.0,2.0,80,8,,6.21,30.059055,,,TRUE,,,,,,,,CAVOK,,,,,,,,VFR,,,,,,,,,,,,METAR,87.0
LFOE 252100Z AUTO 09004KT CAVOK 08/02 Q1018 NOSIG,LFOE,2023-04-25T21:00:00Z,49.02,1.22,8.0,2.0,90,4,,6.21,30.059055,,,TRUE,,,TRUE,,,,,CAVOK,,,,,,,,VFR,,,,,,,,,,,,METAR,132.0
LFOB 252100Z AUTO 04006KT 010V070 CAVOK 04/02 Q1018 NOSIG,LFOB,2023-04-25T21:00:00Z,49.47,2.12,4.0,2.0,40,6,,6.21,30.059055,,,TRUE,,,TRUE,,,,,CAVOK,,,,,,,,VFR,,,,,,,,,,,,METAR,99.0
LFOA 252100Z AUTO 06008KT CAVOK 09/06 Q1017 NOSIG,LFOA,2023-04-25T21:00:00Z,47.05,2.63,9.0,6.0,60,8,,6.21,30.029528,,,TRUE,,,TRUE,,,,,CAVOK,,,,,,,,VFR,,,,,,,,,,,,METAR,174.0
LFMY 252100Z AUTO 35006KT CAVOK 15/01 Q1013,LFMY,2023-04-25T21:00:00Z,43.6,5.1,15.0,1.0,350,6,,6.21,29.911417,,,TRUE,,,,,,,,CAVOK,,,,,,,,VFR,,,,,,,,,,,,METAR,57.0
LFMV 252100Z AUTO 34012KT CAVOK 16/01 Q1013,LFMV,2023-04-25T21:00:00Z,43.9,4.9,16.0,1.0,340,12,,6.21,29.911417,,,TRUE,,,,,,,,CAVOK,,,,,,,,VFR,,,,,,,,,,,,METAR,33.0
LFMU 252100Z AUTO 31010KT CAVOK 16/04 Q1015,LFMU,2023-04-25T21:00:00Z,43.32,3.35,16.0,4.0,310,10,,6.21,29.970472,,,TRUE,,,,,,,,CAVOK,,,,,,,,VFR,,,,,,,,,,,,METAR,14.0
LFMT 252100Z AUTO 31004KT CAVOK 14/03 Q1015 NOSIG,LFMT,2023-04-25T21:00:00Z,43.57,3.97,14.0,3.0,310,4,,6.21,29.970472,,,TRUE,,,TRUE,,,,,CAVOK,,,,,,,,VFR,,,,,,,,,,,,METAR,1.0
LFMP 252100Z AUTO 34006KT 300V050 9999 FEW030 SCT098 16/11 Q1015 NOSIG,LFMP,2023-04-25T21:00:00Z,42.73,2.87,16.0,11.0,340,6,,6.21,29.970472,,,TRUE,,,TRUE,,,,,FEW,3000,SCT,9800,,,,,VFR,,,,,,,,,,,,METAR,41.0
LFMO 252100Z AUTO 36011KT CAVOK 15/02 Q1014 NOSIG,LFMO,2023-04-25T21:00:00Z,44.13,4.87,15.0,2.0,360,11,,6.21,29.940945,,,TRUE,,,TRUE,,,,,CAVOK,,,,,,,,VFR,,,,,,,,,,,,METAR,56.0
LFMN 252100Z VRB02KT CAVOK 16/09 Q1010 BECMG 34010KT,LFMN,2023-04-25T21:00:00Z,43.65,7.2,16.0,9.0,0,2,,6.21,29.822834,,,,,,,,,,,CAVOK,,,,,,,,VFR,,,,,,,,,,,,METAR,4.0
LFML 252100Z AUTO 29012KT 9999 FEW013 16/03 Q1013 NOSIG,LFML,2023-04-25T21:00:00Z,43.45,5.22,16.0,3.0,290,12,,6.21,29.911417,,,TRUE,,,TRUE,,,,,FEW,1300,,,,,,,VFR,,,,,,,,,,,,METAR,20.0
LFMK 252100Z AUTO 25006KT 230V290 9999 OVC022 13/10 Q1017,LFMK,2023-04-25T21:00:00Z,43.22,2.32,13.0,10.0,250,6,,6.21,30.029528,,,TRUE,,,,,,,,OVC,2200,,,,,,,MVFR,,,,,,,,,,,,METAR,124.0
LFMI 252100Z AUTO 32008KT CAVOK 15/01 Q1013 TEMPO 34015G25KT,LFMI,2023-04-25T21:00:00Z,43.52,4.93,15.0,1.0,320,8,,6.21,29.911417,,,TRUE,,,,,,,,CAVOK,,,,,,,,VFR,,,,,,,,,,,,METAR,20.0
LFMH 252100Z AUTO 02002KT CAVOK 08/03 Q1016,LFMH,2023-04-25T21:00:00Z,45.52,4.28,8.0,3.0,20,2,,6.21,30.0,,,TRUE,,,,,,,,CAVOK,,,,,,,,VFR,,,,,,,,,,,,METAR,400.0
LFMD 252100Z AUTO VRB02KT CAVOK 14/04 Q1010 NOSIG,LFMD,2023-04-25T21:00:00Z,43.53,6.95,14.0,4.0,0,2,,6.21,29.822834,,,TRUE,,,TRUE,,,,,CAVOK,,,,,,,,VFR,,,,,,,,,,,,METAR,2.0
LFMC 252100Z AUTO VRB04KT 9999 ////// 17/M01 Q1011,LFMC,2023-04-25T21:00:00Z,43.37,6.38,17.0,-1.0,0,4,,6.21,29.852362,,,TRUE,,,,,,,,,,,,,,,,,,,,,,,,,,,,METAR,79.0
LFLY 252100Z AUTO 33005KT CAVOK 08/03 Q1016 NOSIG,LFLY,2023-04-25T21:00:00Z,45.72,4.95,8.0,3.0,330,5,,6.21,30.0,,,TRUE,,,TRUE,,,,,CAVOK,,,,,,,,VFR,,,,,,,,,,,,METAR,197.0
LFLX 252100Z AUTO 05007KT CAVOK 10/06 Q1016 NOSIG,LFLX,2023-04-25T21:00:00Z,46.87,1.73,10.0,6.0,50,7,,6.21,30.0,,,TRUE,,,TRUE,,,,,CAVOK,,,,,,,,VFR,,,,,,,,,,,,METAR,157.0
LFLW 252100Z AUTO VRB02KT CAVOK 09/06 Q1017,LFLW,2023-04-25T21:00:00Z,44.88,2.42,9.0,6.0,0,2,,6.21,30.029528,,,TRUE,,,,,,,,CAVOK,,,,,,,,VFR,,,,,,,,,,,,METAR,638.0
LFLS 252100Z AUTO 05005KT 020V090 CAVOK 09/01 Q1016,LFLS,2023-04-25T21:00:00Z,45.37,5.32,9.0,1.0,50,5,,6.21,30.0,,,TRUE,,,,,,,,CAVOK,,,,,,,,VFR,,,,,,,,,,,,METAR,386.0
LFLP 252100Z AUTO 32003KT CAVOK 08/04 Q1016,LFLP,2023-04-25T21:00:00Z,45.92,6.1,8.0,4.0,320,3,,6.21,30.0,,,TRUE,,,,,,,,CAVOK,,,,,,,,VFR,,,,,,,,,,,,METAR,460.0
LFLN 252100Z AUTO 13003KT CAVOK 07/04 Q1017,LFLN,2023-04-25T21:00:00Z,46.42,4.02,7.0,4.0,130,3,,6.21,30.029528,,,TRUE,,,,,,,,CAVOK,,,,,,,,VFR,,,,,,,,,,,,METAR,238.0
LFLL 252100Z 02003KT CAVOK 10/03 Q1016 NOSIG,LFLL,2023-04-25T21:00:00Z,45.72,5.07,10.0,3.0,20,3,,6.21,30.0,,,,,,TRUE,,,,,CAVOK,,,,,,,,VFR,,,,,,,,,,,,METAR,234.0
LFLC 252100Z AUTO 36003KT CAVOK 11/04 Q1016 NOSIG,LFLC,2023-04-25T21:00:00Z,45.78,3.17,11.0,4.0,360,3,,6.21,30.0,,,TRUE,,,TRUE,,,,,CAVOK,,,,,,,,VFR,,,,,,,,,,,,METAR,325.0
LFLB 252100Z AUTO VRB03KT CAVOK 07/05 Q1016,LFLB,2023-04-25T21:00:00Z,45.63,5.87,7.0,5.0,0,3,,6.21,30.0,,,TRUE,,,,,,,,CAVOK,,,,,,,,VFR,,,,,,,,,,,,METAR,234.0
LFKS 252100Z AUTO 25004KT CAVOK 15/09 Q1010,LFKS,2023-04-25T21:00:00Z,41.92,9.4,15.0,9.0,250,4,,6.21,29.822834,,,TRUE,,,,,,,,CAVOK,,,,,,,,VFR,,,,,,,,,,,,METAR,22.0
LFKJ 252100Z AUTO 05005KT CAVOK 13/10 Q1012 NOSIG,LFKJ,2023-04-25T21:00:00Z,41.92,8.8,13.0,10.0,50,5,,6.21,29.88189,,,TRUE,,,TRUE,,,,,CAVOK,,,,,,,,VFR,,,,,,,,,,,,METAR,9.0
LFKF 252100Z AUTO 22010KT 9999 FEW034 BKN230 15/10 Q1012 NOSIG,LFKF,2023-04-25T21:00:00Z,41.5,9.08,15.0,10.0,220,10,,6.21,29.88189,,,TRUE,,,TRUE,,,,,FEW,3400,BKN,23000,,,,,VFR,,,,,,,,,,,,METAR,15.0
LFKC 252100Z AUTO 16010KT CAVOK 17/06 Q1010,LFKC,2023-04-25T21:00:00Z,42.52,8.8,17.0,6.0,160,10,,6.21,29.822834,,,TRUE,,,,,,,,CAVOK,,,,,,,,VFR,,,,,,,,,,,,METAR,38.0
LFKB 252100Z AUTO 24004KT 110V270 CAVOK 14/09 Q1010 NOSIG,LFKB,2023-04-25T21:00:00Z,42.55,9.48,14.0,9.0,240,4,,6.21,29.822834,,,TRUE,,,TRUE,,,,,CAVOK,,,,,,,,VFR,,,,,,,,,,,,METAR,7.0
LFJR 252100Z AUTO 08008KT 9999 SCT044 BKN074 OVC086 12/07 Q1016,LFJR,2023-04-25T21:00:00Z,47.57,-0.32,12.0,7.0,80,8,,6.21,30.0,,,TRUE,,,,,,,,SCT,4400,BKN,7400,OVC,8600,,,VFR,,,,,,,,,,,,METAR,50.0
LFJL 252100Z AUTO 31003KT 9999 NCD 06/02 Q1018 NOSIG,LFJL,2023-04-25T21:00:00Z,48.97,6.25,6.0,2.0,310,3,,6.21,30.059055,,,TRUE,,,TRUE,,,,,CLR,,,,,,,,VFR,,,,,,,,,,,,METAR,259.0
LFGJ 252100Z AUTO 36006KT CAVOK 07/04 Q1017,LFGJ,2023-04-25T21:00:00Z,47.05,5.43,7.0,4.0,360,6,,6.21,30.029528,,,TRUE,,,,,,,,CAVOK,,,,,,,,VFR,,,,,,,,,,,,METAR,191.0
LFGA 252100Z AUTO VRB02KT 9999 FEW019 SCT044 OVC056 08/06 Q1017,LFGA,2023-04-25T21:00:00Z,48.1,7.35,8.0,6.0,0,2,,6.21,30.029528,,,TRUE,,,,,,,,FEW,1900,SCT,4400,OVC,5600,,,VFR,,,,,,,,,,,,METAR,191.0
LFCR 252100Z AUTO VRB02KT 9999 OVC046 08/05 Q1017 NOSIG,LFCR,2023-04-25T21:00:00Z,44.4,2.47,8.0,5.0,0,2,,6.21,30.029528,,,TRUE,,,TRUE,,,,,OVC,4600,,,,,,,VFR,,,,,,,,,,,,METAR,576.0
LFCK 252100Z AUTO 15005KT 9999 OVC026 11/10 Q1018 TEMPO 4000 -RADZ BKN007,LFCK,2023-04-25T21:00:00Z,43.55,2.28,11.0,10.0,150,5,,6.21,30.059055,,,TRUE,,,,,,,,OVC,2600,,,,,,,MVFR,,,,,,,,,,,,METAR,223.0
LFBZ 252100Z AUTO 21001KT 9999 OVC036 16/14 Q1017 NOSIG,LFBZ,2023-04-25T21:00:00Z,43.47,-1.53,16.0,14.0,210,1,,6.21,30.029528,,,TRUE,,,TRUE,,,,,OVC,3600,,,,,,,VFR,,,,,,,,,,,,METAR,70.0
LFBY 252100Z AUTO VRB02KT 9999 // ////// 16/14 Q1017,LFBY,2023-04-25T21:00:00Z,43.68,-1.07,16.0,14.0,0,2,,6.21,30.029528,,,TRUE,,,,,,,,,,,,,,,,,,,,,,,,,,,,METAR,32.0
LFBX 252100Z AUTO 00000KT 9999 OVC049/// //////CB 11/09 Q1017,LFBX,2023-04-25T21:00:00Z,45.2,0.82,11.0,9.0,0,0,,6.21,30.029528,,,TRUE,,,,,,,,OVC,4900,,,,,,,VFR,,,,,,,,,,,,METAR,97.0
LFBU 252100Z AUTO 14002KT 9999 OVC047/// ///TCU 12/08 Q1016 BECMG OVC009,LFBU,2023-04-25T21:00:00Z,45.72,0.22,12.0,8.0,140,2,,6.21,30.0,,,TRUE,,,,,,,,OVC,4700,,,,,,,VFR,,,,,,,,,,,,METAR,124.0
LFBT 252100Z AUTO 28005KT 250V320 9999 BKN056 BKN068 OVC100 15/13 Q1017 TEMPO 4000 -RADZ BKN007,LFBT,2023-04-25T21:00:00Z,43.18,0.0,15.0,13.0,280,5,,6.21,30.029528,,,TRUE,,,,,,,,BKN,5600,BKN,6800,OVC,10000,,,VFR,,,,,,,,,,,,METAR,359.0
LFBP 252100Z AUTO 26005KT 9999 BKN047/// BKN056/// BKN068/// //////TCU 16/13 Q1017 BECMG BKN030,LFBP,2023-04-25T21:00:00Z,43.38,-0.42,16.0,13.0,260,5,,6.21,30.029528,,,TRUE,,,,,,,,BKN,4700,BKN,5600,BKN,6800,,,VFR,,,,,,,,,,,,METAR,182.0
LFBO 252100Z AUTO 20005KT 180V240 9999 OVC016 12/11 Q1017 TEMPO 4000 -RADZ BKN005,LFBO,2023-04-25T21:00:00Z,43.62,1.37,12.0,11.0,200,5,,6.21,30.029528,,,TRUE,,,,,,,,OVC,1600,,,,,,,MVFR,,,,,,,,,,,,METAR,150.0
LFBM 252100Z AUTO 24005KT 9999 FEW013 SCT023 BKN031 14/14 Q1017 TEMPO 4500 -RA BKN004,LFBM,2023-04-25T21:00:00Z,43.92,-0.5,14.0,14.0,240,5,,6.21,30.029528,,,TRUE,,,,,,,,FEW,1300,SCT,2300,BKN,3100,,,VFR,,,,,,,,,,,,METAR,56.0
LFBL 252100Z AUTO 03004KT CAVOK 10/05 Q1016 TEMPO BKN014,LFBL,2023-04-25T21:00:00Z,45.87,1.17,10.0,5.0,30,4,,6.21,30.0,,,TRUE,,,,,,,,CAVOK,,,,,,,,VFR,,,,,,,,,,,,METAR,402.0
LFBI 252100Z AUTO 05002KT CAVOK 12/05 Q1016 NOSIG,LFBI,2023-04-25T21:00:00Z,46.58,0.32,12.0,5.0,50,2,,6.21,30.0,,,TRUE,,,TRUE,,,,,CAVOK,,,,,,,,VFR,,,,,,,,,,,,METAR,117.0
LFBH 252100Z AUTO 15009KT 9999 BKN031 OVC040 12/09 Q1015 TEMPO 2500 -DZRA BKN003,LFBH,2023-04-25T21:00:00Z,46.18,-1.2,12.0,9.0,150,9,,6.21,29.970472,,,TRUE,,,,,,,,BKN,3100,OVC,4000,,,,,VFR,,,,,,,,,,,,METAR,18.0
LFBG 252100Z AUTO 17004KT 140V200 9999 -DZ OVC036 12/09 Q1016 TEMPO 4000 -RA,LFBG,2023-04-25T21:00:00Z,45.67,-0.32,12.0,9.0,170,4,,6.21,30.0,,,TRUE,,,,,,,-DZ,OVC,3600,,,,,,,VFR,,,,,,,,,,,,METAR,28.0
LFBE 252100Z AUTO VRB02KT 9999 -RADZ OVC030 11/10 Q1017,LFBE,2023-04-25T21:00:00Z,44.82,0.52,11.0,10.0,0,2,,6.21,30.029528,,,TRUE,,,,,,,-RA -DZ,OVC,3000,,,,,,,MVFR,,,,,,,,,,,,METAR,49.0
LFBD 252100Z AUTO VRB03KT 3000 -DZ BR BKN003 BKN008 OVC014 13/13 Q1016 TEMPO DZ,LFBD,2023-04-25T21:00:00Z,44.82,-0.7,13.0,13.0,0,3,,1.86,30.0,,,TRUE,,,,,,,-DZ BR,BKN,300,BKN,800,OVC,1400,,,LIFR,,,,,,,,,,,,METAR,48.0
LFBC 252100Z AUTO 24007KT 4000 -DZ BR BKN005 OVC010 14/14 Q1016 TEMPO 2000 RADZ,LFBC,2023-04-25T21:00:00Z,44.52,-1.12,14.0,14.0,240,7,,2.49,30.0,,,TRUE,,,,,,,-DZ BR,BKN,500,OVC,1000,,,,,IFR,,,,,,,,,,,,METAR,22.0
LFBA 252100Z AUTO 12004KT 4300 -DZ BR FEW010 OVC014 12/12 Q1017,LFBA,2023-04-25T21:00:00Z,44.17,0.6,12.0,12.0,120,4,,2.67,30.029528,,,TRUE,,,,,,,-DZ BR,FEW,1000,OVC,1400,,,,,IFR,,,,,,,,,,,,METAR,68.0
LFAT 252100Z AUTO 07007KT CAVOK 05/02 Q1019,LFAT,2023-04-25T21:00:00Z,50.52,1.62,5.0,2.0,70,7,,6.21,30.088583,,,TRUE,,,,,,,,CAVOK,,,,,,,,VFR,,,,,,,,,,,,METAR,2.0
LFAQ 252100Z AUTO 02005KT CAVOK 03/01 Q1019,LFAQ,2023-04-25T21:00:00Z,49.97,2.7,3.0,1.0,20,5,,6.21,30.088583,,,TRUE,,,,,,,,CAVOK,,,,,,,,VFR,,,,,,,,,,,,METAR,107.0
LEZL 252100Z 25004KT CAVOK 26/08 Q1014 NOSIG,LEZL,2023-04-25T21:00:00Z,37.42,-5.9,26.0,8.0,250,4,,6.21,29.940945,,,,,,TRUE,,,,,CAVOK,,,,,,,,VFR,,,,,,,,,,,,METAR,26.0
LEZG 252100Z 27009KT CAVOK 21/11 Q1015,LEZG,2023-04-25T21:00:00Z,41.67,-1.02,21.0,11.0,270,9,,6.21,29.970472,,,,,,,,,,,CAVOK,,,,,,,,VFR,,,,,,,,,,,,METAR,245.0
LEXJ 252100Z 10003KT 070V140 9999 BKN045 16/15 Q1017,LEXJ,2023-04-25T21:00:00Z,43.42,-3.82,16.0,15.0,100,3,,6.21,30.029528,,,,,,,,,,,BKN,4500,,,,,,,VFR,,,,,,,,,,,,METAR,1.0
LEVX 252100Z 36003KT 330V040 9999 OVC018 15/13 Q1018 NOSIG,LEVX,2023-04-25T21:00:00Z,42.23,-8.62,15.0,13.0,360,3,,6.21,30.059055,,,,,,TRUE,,,,,OVC,1800,,,,,,,MVFR,,,,,,,,,,,,METAR,253.0
LEVT 252100Z 35003KT 330V040 8000 -RA FEW032 BKN070 14/13 Q1018,LEVT,2023-04-25T21:00:00Z,42.87,-2.72,14.0,13.0,350,3,,4.97,30.059055,,,,,,,,,,-RA,FEW,3200,BKN,7000,,,,,MVFR,,,,,,,,,,,,METAR,501.0
LEVS 252100Z AUTO 25005KT CAVOK 20/05 Q1017,LEVS,2023-04-25T21:00:00Z,40.37,-3.78,20.0,5.0,250,5,,6.21,30.029528,,,TRUE,,,,,,,,CAVOK,,,,,,,,VFR,,,,,,,,,,,,METAR,683.0
LEVD 252100Z AUTO 26009KT CAVOK 17/09 Q1017,LEVD,2023-04-25T21:00:00Z,41.72,-4.85,17.0,9.0,260,9,,6.21,30.029528,,,TRUE,,,,,,,,CAVOK,,,,,,,,VFR,,,,,,,,,,,,METAR,844.0
LEVC 252100Z 11003KT CAVOK 19/14 Q1013 NOSIG,LEVC,2023-04-25T21:00:00Z,39.5,-0.47,19.0,14.0,110,3,,6.21,29.911417,,,,,,TRUE,,,,,CAVOK,,,,,,,,VFR,,,,,,,,,,,,METAR,58.0
LETU 252100Z AUTO 32007KT 9999 NSC 19/12 Q1017,LETU,2023-04-25T21:00:00Z,,,19.0,12.0,320,7,,6.21,30.029528,,,TRUE,,,,,,,,CLR,,,,,,,,VFR,,,,,,,,,,,,METAR,
LETO 252100Z VRB02KT CAVOK 18/05 Q1016 NOSIG,LETO,2023-04-25T21:00:00Z,40.48,-3.47,18.0,5.0,0,2,,6.21,30.0,,,,,,TRUE,,,,,CAVOK,,,,,,,,VFR,,,,,,,,,,,,METAR,598.0
LETL 252100Z AUTO 36007KT CAVOK 17/04 Q1018,LETL,2023-04-25T21:00:00Z,40.42,-1.22,17.0,4.0,360,7,,6.21,30.059055,,,TRUE,,,,,,,,CAVOK,,,,,,,,VFR,,,,,,,,,,,,METAR,1024.0
LEST 252100Z 23005KT 200V290 5000 BR OVC002 14/14 Q1018 NOSIG,LEST,2023-04-25T21:00:00Z,42.88,-8.42,14.0,14.0,230,5,,3.11,30.059055,,,,,,TRUE,,,,BR,OVC,200,,,,,,,LIFR,,,,,,,,,,,,METAR,363.0
LESO 252100Z AUTO VRB02KT 9999 OVC038 16/15 Q1017,LESO,2023-04-25T21:00:00Z,43.35,-1.8,16.0,15.0,0,2,,6.21,30.029528,,,TRUE,,,,,,,,OVC,3800,,,,,,,VFR,,,,,,,,,,,,METAR,3.0
LESB 252100Z AUTO 22004KT CAVOK 17/15 Q1015,LESB,2023-04-25T21:00:00Z,39.6,2.7,17.0,15.0,220,4,,6.21,29.970472,,,TRUE,,,,,,,,CAVOK,,,,,,,,VFR,,,,,,,,,,,,METAR,48.0
LESA 252100Z AUTO VRB02KT CAVOK 15/09 Q1018,LESA,2023-04-25T21:00:00Z,40.95,-5.5,15.0,9.0,0,2,,6.21,30.059055,,,TRUE,,,,,,,,CAVOK,,,,,,,,VFR,,,,,,,,,,,,METAR,788.0
LERT 252100Z 31008KT CAVOK 21/15 Q1014 NOSIG,LERT,2023-04-25T21:00:00Z,36.63,-6.33,21.0,15.0,310,8,,6.21,29.940945,,,,,,TRUE,,,,,CAVOK,,,,,,,,VFR,,,,,,,,,,,,METAR,27.0
LERS 252100Z 05004KT 9999 SCT010 16/14 Q1015,LERS,2023-04-25T21:00:00Z,41.13,1.17,16.0,14.0,50,4,,6.21,29.970472,,,,,,,,,,,SCT,1000,,,,,,,VFR,,,,,,,,,,,,METAR,68.0
LEPP 252100Z 34007KT 9999 FEW037 15/10 Q1017,LEPP,2023-04-25T21:00:00Z,42.77,-1.65,15.0,10.0,340,7,,6.21,30.029528,,,,,,,,,,,FEW,3700,,,,,,,VFR,,,,,,,,,,,,METAR,448.0
LEPA 252100Z 26002KT CAVOK 17/15 Q1014 NOSIG,LEPA,2023-04-25T21:00:00Z,39.55,2.73,17.0,15.0,260,2,,6.21,29.940945,,,,,,TRUE,,,,,CAVOK,,,,,,,,VFR,,,,,,,,,,,,METAR,8.0
LEMI 252100Z AUTO 24007KT CAVOK 24/07 Q1013,LEMI,2023-04-25T21:00:00Z,37.8,-1.12,24.0,7.0,240,7,,6.21,29.911417,,,TRUE,,,,,,,,CAVOK,,,,,,,,VFR,,,,,,,,,,,,METAR,193.0
LEMH 252100Z 07005KT 020V080 9999 FEW006 16/15 Q1015,LEMH,2023-04-25T21:00:00Z,39.87,4.22,16.0,15.0,70,5,,6.21,29.970472,,,,,,,,,,,FEW,600,,,,,,,VFR,,,,,,,,,,,,METAR,82.0
LEMG 252100Z 00000KT CAVOK 19/13 Q1014 NOSIG,LEMG,2023-04-25T21:00:00Z,36.67,-4.47,19.0,13.0,0,0,,6.21,29.940945,,,,,,TRUE,,,,,CAVOK,,,,,,,,VFR,,,,,,,,,,,,METAR,5.0
LEMD 252100Z 34004KT 310V030 CAVOK 22/04 Q1016 NOSIG,LEMD,2023-04-25T21:00:00Z,40.45,-3.57,22.0,4.0,340,4,,6.21,30.0,,,,,,TRUE,,,,,CAVOK,,,,,,,,VFR,,,,,,,,,,,,METAR,589.0
LELO 252100Z AUTO 30003KT 240V350 9999 OVC044 18/10 Q1017,LELO,2023-04-25T21:00:00Z,42.45,-2.32,18.0,10.0,300,3,,6.21,30.029528,,,TRUE,,,,,,,,OVC,4400,,,,,,,VFR,,,,,,,,,,,,METAR,352.0
LELN 252100Z AUTO 28005KT 250V320 CAVOK 17/09 Q1018,LELN,2023-04-25T21:00:00Z,42.58,-5.65,17.0,9.0,280,5,,6.21,30.059055,,,TRUE,,,,,,,,CAVOK,,,,,,,,VFR,,,,,,,,,,,,METAR,911.0
LELL 252100Z AUTO VRB01KT CAVOK 16/12 Q1016,LELL,2023-04-25T21:00:00Z,41.52,2.1,16.0,12.0,0,1,,6.21,30.0,,,TRUE,,,,,,,,CAVOK,,,,,,,,VFR,,,,,,,,,,,,METAR,136.0
LELC 252100Z VRB02KT CAVOK 20/13 Q1013 NOSIG,LELC,2023-04-25T21:00:00Z,37.77,-0.8,20.0,13.0,0,2,,6.21,29.911417,,,,,,TRUE,,,,,CAVOK,,,,,,,,VFR,,,,,,,,,,,,METAR,3.0
LEJR 252100Z VRB02KT CAVOK 20/12 Q1014,LEJR,2023-04-25T21:00:00Z,36.75,-6.07,20.0,12.0,0,2,,6.21,29.940945,,,,,,,,,,,CAVOK,,,,,,,,VFR,,,,,,,,,,,,METAR,25.0
LEIB 252100Z VRB01KT CAVOK 17/15 Q1013 NOSIG,LEIB,2023-04-25T21:00:00Z,38.87,1.38,17.0,15.0,0,1,,6.21,29.911417,,,,,,TRUE,,,,,CAVOK,,,,,,,,VFR,,,,,,,,,,,,METAR,4.0
LEHC 252100Z AUTO 26006KT CAVOK 19/07 Q1015,LEHC,2023-04-25T21:00:00Z,42.08,-0.32,19.0,7.0,260,6,,6.21,29.970472,,,TRUE,,,,,,,,CAVOK,,,,,,,,VFR,,,,,,,,,,,,METAR,540.0
LEGR 252100Z 21005KT CAVOK 20/02 Q1017,LEGR,2023-04-25T21:00:00Z,37.18,-3.78,20.0,2.0,210,5,,6.21,30.029528,,,,,,,,,,,CAVOK,,,,,,,,VFR,,,,,,,,,,,,METAR,560.0
LEGE 252100Z 29002KT 9999 BKN050 14/13 Q1016,LEGE,2023-04-25T21:00:00Z,41.9,2.77,14.0,13.0,290,2,,6.21,30.0,,,,,,,,,,,BKN,5000,,,,,,,VFR,,,,,,,,,,,,METAR,140.0
LEDA 252100Z AUTO 24008KT CAVOK 20/09 Q1013,LEDA,2023-04-25T21:00:00Z,41.73,0.53,20.0,9.0,240,8,,6.21,29.911417,,,TRUE,,,,,,,,CAVOK,,,,,,,,VFR,,,,,,,,,,,,METAR,352.0
LECO 252100Z 19009KT 9999 BKN020 16/14 Q1017 NOSIG,LECO,2023-04-25T21:00:00Z,43.3,-8.37,16.0,14.0,190,9,,6.21,30.029528,,,,,,TRUE,,,,,BKN,2000,,,,,,,MVFR,,,,,,,,,,,,METAR,80.0
LECH 252100Z AUTO 00000KT CAVOK 18/09 Q1015,LECH,2023-04-25T21:00:00Z,40.2,0.07,18.0,9.0,0,0,,6.21,29.970472,,,TRUE,,,,,,,,CAVOK,,,,,,,,VFR,,,,,,,,,,,,METAR,360.0
LEBT 252100Z AUTO VRB02KT CAVOK 17/09 Q1014,LEBT,2023-04-25T21:00:00Z,39.58,-0.45,17.0,9.0,0,2,,6.21,29.940945,,,TRUE,,,,,,,,CAVOK,,,,,,,,VFR,,,,,,,,,,,,METAR,50.0
LEBR 252100Z AUTO 34008KT 9999 NSC 19/10 Q1016,LEBR,2023-04-25T21:00:00Z,42.2,-1.43,19.0,10.0,340,8,,6.21,30.0,,,TRUE,,,,,,,,CLR,,,,,,,,VFR,,,,,,,,,,,,METAR,347.0
LEBG 252100Z AUTO 05010KT 020V080 CAVOK 14/11 Q1018,LEBG,2023-04-25T21:00:00Z,42.37,-3.62,14.0,11.0,50,10,,6.21,30.059055,,,TRUE,,,,,,,,CAVOK,,,,,,,,VFR,,,,,,,,,,,,METAR,892.0
LEBB 252100Z 12003KT 070V160 9999 SCT032 BKN047 16/15 Q1017 NOSIG,LEBB,2023-04-25T21:00:00Z,43.28,-2.92,16.0,15.0,120,3,,6.21,30.029528,,,,,,TRUE,,,,,SCT,3200,BKN,4700,,,,,VFR,,,,,,,,,,,,METAR,38.0
LEBA 252100Z AUTO VRB01KT CAVOK 20/09 Q1014,LEBA,2023-04-25T21:00:00Z,37.85,-4.83,20.0,9.0,0,1,,6.21,29.940945,,,TRUE,,,,,,,,CAVOK,,,,,,,,VFR,,,,,,,,,,,,METAR,88.0
LEAS 252100Z 29003KT 240V310 9999 FEW010 BKN040 17/16 Q1017 NOSIG,LEAS,2023-04-25T21:00:00Z,43.57,-6.03,17.0,16.0,290,3,,6.21,30.029528,,,,,,TRUE,,,,,FEW,1000,BKN,4000,,,,,VFR,,,,,,,,,,,,METAR,120.0
LEAO 252100Z 26005KT 230V290 CAVOK 21/03 Q1017,LEAO,2023-04-25T21:00:00Z,38.95,-3.73,21.0,3.0,260,5,,6.21,30.029528,,,,,,,,,,,CAVOK,,,,,,,,VFR,,,,,,,,,,,,METAR,621.0
LEAM 252100Z AUTO 12002KT CAVOK 19/16 Q1014,LEAM,2023-04-25T21:00:00Z,36.85,-2.37,19.0,16.0,120,2,,6.21,29.940945,,,TRUE,,,,,,,,CAVOK,,,,,,,,VFR,,,,,,,,,,,,METAR,16.0
LEAL 252100Z VRB02KT CAVOK 19/16 Q1013 NOSIG,LEAL,2023-04-25T21:00:00Z,38.27,-0.55,19.0,16.0,0,2,,6.21,29.911417,,,,,,TRUE,,,,,CAVOK,,,,,,,,VFR,,,,,,,,,,,,METAR,26.0
LEAG 252100Z AUTO VRB01KT CAVOK 21/16 Q1014,LEAG,2023-04-25T21:00:00Z,36.12,-5.45,21.0,16.0,0,1,,6.21,29.940945,,,TRUE,,,,,,,,CAVOK,,,,,,,,VFR,,,,,,,,,,,,METAR,4.0
LEAB 252100Z 26004KT CAVOK 19/02 Q1017 NOSIG,LEAB,2023-04-25T21:00:00Z,38.95,-1.85,19.0,2.0,260,4,,6.21,30.029528,,,,,,TRUE,,,,,CAVOK,,,,,,,,VFR,,,,,,,,,,,,METAR,704.0
LDZD 252100Z 31004KT 250V020 9999 SCT028 BKN060 09/09 Q1009,LDZD,2023-04-25T21:00:00Z,44.1,15.33,9.0,9.0,310,4,,6.21,29.793306,,,,,,,,,,,SCT,2800,BKN,6000,,,,,VFR,,,,,,,,,,,,METAR,82.0
LDZA 252100Z 10005KT 060V140 CAVOK 11/07 Q1010 NOSIG,LDZA,2023-04-25T21:00:00Z,45.72,16.07,11.0,7.0,100,5,,6.21,29.822834,,,,,,TRUE,,,,,CAVOK,,,,,,,,VFR,,,,,,,,,,,,METAR,103.0
LDSP 252100Z 01005KT CAVOK 11/09 Q1006 NOSIG,LDSP,2023-04-25T21:00:00Z,43.53,16.3,11.0,9.0,10,5,,6.21,29.704725,,,,,,TRUE,,,,,CAVOK,,,,,,,,VFR,,,,,,,,,,,,METAR,16.0
LDRI 252100Z 00000KT CAVOK 08/07 Q1010,LDRI,2023-04-25T21:00:00Z,45.22,14.57,8.0,7.0,0,0,,6.21,29.822834,,,,,,,,,,,CAVOK,,,,,,,,VFR,,,,,,,,,,,,METAR,80.0
LDPL 252100Z 32008KT CAVOK 10/07 Q1010,LDPL,2023-04-25T21:00:00Z,44.88,13.92,10.0,7.0,320,8,,6.21,29.822834,,,,,,,,,,,CAVOK,,,,,,,,VFR,,,,,,,,,,,,METAR,63.0
LDOS 252100Z 36005KT CAVOK 10/06 Q1008,LDOS,2023-04-25T21:00:00Z,45.47,18.82,10.0,6.0,360,5,,6.21,29.763779,,,,,,,,,,,CAVOK,,,,,,,,VFR,,,,,,,,,,,,METAR,82.0
LDDU 252100Z 10005KT 070V130 9999 -RA VCTS FEW025CB 14/10 Q1007 TEMPO 31010KT 3000 TSRA,LDDU,2023-04-25T21:00:00Z,42.57,18.27,14.0,10.0,100,5,,6.21,29.734253,,,,,,,,,,-RA VCTS,FEW,2500,,,,,,,VFR,,,,,,,,,,,,METAR,156.0
LCPH 252100Z 02007KT CAVOK 14/10 Q1013 NOSIG,LCPH,2023-04-25T21:00:00Z,34.72,32.47,14.0,10.0,20,7,,6.21,29.911417,,,,,,TRUE,,,,,CAVOK,,,,,,,,VFR,,,,,,,,,,,,METAR,8.0
LCLK 252100Z 28004KT 230V300 CAVOK 16/13 Q1013 NOSIG,LCLK,2023-04-25T21:00:00Z,34.87,33.62,16.0,13.0,280,4,,6.21,29.911417,,,,,,TRUE,,,,,CAVOK,,,,,,,,VFR,,,,,,,,,,,,METAR,2.0
LBWN 252100Z AUTO 01004KT 9000 NSC 11/10 Q1006 TEMPO 5000 BR,LBWN,2023-04-25T21:00:00Z,43.22,27.82,11.0,10.0,10,4,,5.59,29.704725,,,TRUE,,,,,,,,CLR,,,,,,,,VFR,,,,,,,,,,,,METAR,74.0
LBSF 252100Z AUTO 30006KT 9999 BKN070/// 09/06 Q1008 NOSIG,LBSF,2023-04-25T21:00:00Z,42.65,23.37,9.0,6.0,300,6,,6.21,29.763779,,,TRUE,,,TRUE,,,,,BKN,7000,,,,,,,VFR,,,,,,,,,,,,METAR,592.0
LBPL 252100Z 27004KT 9999 SCT056 BKN100 13/09 Q1007,LBPL,2023-04-25T21:00:00Z,43.45,24.5,13.0,9.0,270,4,,6.21,29.734253,,,,,,,,,,,SCT,5600,BKN,10000,,,,,VFR,,,,,,,,,,,,METAR,93.0
LBPG 252100Z 31006KT 9999 OVC050 13/10 Q1007,LBPG,2023-04-25T21:00:00Z,42.28,24.72,13.0,10.0,310,6,,6.21,29.734253,,,,,,,,,,,OVC,5000,,,,,,,VFR,,,,,,,,,,,,METAR,198.0
LBPD 252100Z AUTO 28007KT 9999 BKN079/// OVC099/// 13/11 Q1006,LBPD,2023-04-25T21:00:00Z,42.05,24.85,13.0,11.0,280,7,,6.21,29.704725,,,TRUE,,,,,,,,BKN,7900,OVC,9900,,,,,VFR,,,,,,,,,,,,METAR,182.0
LBIA 252100Z 36004KT 9999 BKN100 12/12 Q1006,LBIA,2023-04-25T21:00:00Z,42.45,26.35,12.0,12.0,360,4,,6.21,29.704725,,,,,,,,,,,BKN,10000,,,,,,,VFR,,,,,,,,,,,,METAR,155.0
LBGO 252100Z AUTO 10003KT 9999 FEW063/// BKN190/// 08/08 Q1006,LBGO,2023-04-25T21:00:00Z,43.15,25.72,8.0,8.0,100,3,,6.21,29.704725,,,TRUE,,,,,,,,FEW,6300,BKN,19000,,,,,VFR,,,,,,,,,,,,METAR,84.0
LBBG 252100Z AUTO 24004KT 9999 -RA NSC 13/11 Q1006 NOSIG,LBBG,2023-04-25T21:00:00Z,42.57,27.52,13.0,11.0,240,4,,6.21,29.704725,,,TRUE,,,TRUE,,,,-RA,CLR,,,,,,,,VFR,,,,,,,,,,,,METAR,41.0
KSFB 252100Z 09011KT 10SM SCT043 BKN050 24/18 A2992 RMK AO2 LTG DSNT SW AND W T02390183,KSFB,2023-04-25T21:00:00Z,28.77,-81.23,23.9,18.3,90,11,,10.0,29.920275,,,,TRUE,,,,,,,SCT,4300,BKN,5000,,,,,VFR,,,,,,,,,,,,METAR,16.0
KSBD 252100Z 25004KT 7SM CLR 22/10 A2989,KSBD,2023-04-25T21:00:00Z,34.08,-117.25,22.0,10.0,250,4,,7.0,29.890747,,,,,,,,,,,CLR,,,,,,,,VFR,,,,,,,,,,,,METAR,353.0
KRBD 252100Z 15009KT 10SM BKN049 BKN060 OVC085 20/13 A2989 RMK AO2 T02000133,KRBD,2023-04-25T21:00:00Z,32.68,-96.87,20.0,13.3,150,9,,10.0,29.890747,,,,TRUE,,,,,,,BKN,4900,BKN,6000,OVC,8500,,,VFR,,,,,,,,,,,,METAR,200.0
KNEL 252100Z AUTO 30008KT OVC070 14/M02 A3015 RMK AO2 SLP209 T01391022 56002 $,KNEL,2023-04-25T21:00:00Z,40.03,-74.33,13.9,-2.2,300,8,,,30.15059,1020.9,,TRUE,TRUE,TRUE,,,,,,OVC,7000,,,,,,,,-0.2,,,,,,,,,,,SPECI,26.0
KMHV 252100Z AUTO 01006KT 10SM CLR 27/M03 A2991 RMK AO2,KMHV,2023-04-25T21:00:00Z,35.07,-118.15,27.0,-3.0,10,6,,10.0,29.911417,,,TRUE,TRUE,,,,,,,CLR,,,,,,,,VFR,,,,,,,,,,,,SPECI,841.0
KMHT 252100Z 35007KT 10SM -RA SCT035 BKN050 BKN085 12/04 A3013 RMK AO2 GRE2059 P0000 T01220039,KMHT,2023-04-25T21:00:00Z,42.93,-71.43,12.2,3.9,350,7,,10.0,30.129921,,,,TRUE,,,,,,-RA,SCT,3500,BKN,5000,BKN,8500,,,VFR,,,,,,0.005,,,,,,METAR,68.0
KJAU 252100Z AUTO 07006KT 10SM CLR 17/M05 A3014 RMK A01,KJAU,2023-04-25T21:00:00Z,36.33,-84.17,17.0,-5.0,70,6,,10.0,30.138779,,,TRUE,TRUE,,,,,,,CLR,,,,,,,,VFR,,,,,,,,,,,,SPECI,350.0
KGZN 252100Z AUTO 18013KT 10SM FEW027 SCT048 OVC055 21/15 A2983 RMK AO2,KGZN,2023-04-25T21:00:00Z,32.37,-99.02,21.0,15.0,180,13,,10.0,29.828741,,,TRUE,TRUE,,,,,,,FEW,2700,SCT,4800,OVC,5500,,,VFR,,,,,,,,,,,,SPECI,522.0
KGAG 252100Z AUTO 09011KT 5SM -RA BR OVC004 10/09 A2990 RMK AO2 P0000 T01000089,KGAG,2023-04-25T21:00:00Z,36.3,-99.77,10.0,8.9,90,11,,5.0,29.899607,,,TRUE,TRUE,,,,,,-RA BR,OVC,400,,,,,,,LIFR,,,,,,0.005,,,,,,METAR,670.0
KETC 252100Z AUTO 07005KT 7SM CLR 20/05 A3014 RMK AO2 T01950048,KETC,2023-04-25T21:00:00Z,35.93,-77.55,19.5,4.8,70,5,,7.0,30.138779,,,TRUE,TRUE,,,,,,,CLR,,,,,,,,VFR,,,,,,,,,,,,SPECI,15.0
KCQX 252100Z AUTO 06006KT 5SM BR BKN003 11/08 A3016 RMK AO2 CIG 002V007 T01060083,KCQX,2023-04-25T21:00:00Z,41.68,-70.0,10.6,8.3,60,6,,5.0,30.159449,,,TRUE,TRUE,,,,,,BR,BKN,300,,,,,,,LIFR,,,,,,,,,,,,METAR,17.0
KAKO 252100Z AUTO 11023G28KT 10SM BKN007 BKN012 OVC020 07/06 A2991 RMK AO2 PK WND 12028/2058 T00670056 TSNO,KAKO,2023-04-25T21:00:00Z,40.17,-103.22,6.7,5.6,110,23,28,10.0,29.911417,,,TRUE,TRUE,,,TRUE,,,,BKN,700,BKN,1200,OVC,2000,,,IFR,,,,,,,,,,,,METAR,1431.0
KABH 252100Z AUTO 12007KT 10SM SCT018 SCT023 BKN060 OVC075 08/03 A2989 RMK AO2 LTG DSNT N AND SW SLP118,KABH,2023-04-25T21:00:00Z,38.75,-104.3,8.0,3.0,120,7,,10.0,29.890747,1011.8,,TRUE,TRUE,,,,,,,SCT,1800,SCT,2300,BKN,6000,OVC,7500,VFR,,,,,,,,,,,,METAR,1838.0
HUEN 252100Z 36007KT 9999 FEW019 FEW022CB 21/20 Q1018,HUEN,2023-04-25T21:00:00Z,0.03,32.45,21.0,20.0,360,7,,6.21,30.059055,,,,,,,,,,,FEW,1900,FEW,2200,,,,,VFR,,,,,,,,,,,,METAR,1147.0
HTTB 252100Z 00000KT 9999 FEW020 FEW021CB 21/19 Q1018 NOSIG,HTTB,2023-04-25T21:00:00Z,-5.07,32.82,21.0,19.0,0,0,,6.21,30.059055,,,,,,TRUE,,,,,FEW,2000,FEW,2100,,,,,VFR,,,,,,,,,,,,METAR,1185.0
HTSU 252100Z 00000KT 9999 FEW020 FEW021CB 17/15 Q1024,HTSU,2023-04-25T21:00:00Z,-7.95,31.6,17.0,15.0,0,0,,6.21,30.236221,,,,,,,,,,,FEW,2000,FEW,2100,,,,,VFR,,,,,,,,,,,,METAR,1820.0
HTSO 252100Z 00000KT 9999 FEW019 FEW020CB 20/18 Q1019,HTSO,2023-04-25T21:00:00Z,-10.67,35.58,20.0,18.0,0,0,,6.21,30.088583,,,,,,,,,,,FEW,1900,FEW,2000,,,,,VFR,,,,,,,,,,,,METAR,1058.0
HTMU 252100Z 00000KT 9999 FEW014 FEW016CB BKN080 20/19 Q1018,HTMU,2023-04-25T21:00:00Z,-1.5,33.8,20.0,19.0,0,0,,6.21,30.059055,,,,,,,,,,,FEW,1400,FEW,1600,BKN,8000,,,VFR,,,,,,,,,,,,METAR,1154.0
HTMT 252100Z 18010KT 9999 FEW021 23/22 Q1013 NOSIG,HTMT,2023-04-25T21:00:00Z,-10.33,40.18,23.0,22.0,180,10,,6.21,29.911417,,,,,,TRUE,,,,,FEW,2100,,,,,,,VFR,,,,,,,,,,,,METAR,114.0
HTMG 252100Z 00000KT 9999 SCT023 23/22 Q1013,HTMG,2023-04-25T21:00:00Z,-6.78,37.65,23.0,22.0,0,0,,6.21,29.911417,,,,,,,,,,,SCT,2300,,,,,,,VFR,,,,,,,,,,,,METAR,512.0
HTKJ 252100Z 00000KT 9999 FEW024CB BKN025 22/21 Q1017 NOSIG,HTKJ,2023-04-25T21:00:00Z,-3.42,37.07,22.0,21.0,0,0,,6.21,30.029528,,,,,,TRUE,,,,,FEW,2400,BKN,2500,,,,,MVFR,,,,,,,,,,,,METAR,893.0
HTKA 252100Z 00000KT 9999 FEW019 FEW020CB 22/21 Q1014 NOSIG,HTKA,2023-04-25T21:00:00Z,-4.88,29.67,22.0,21.0,0,0,,6.21,29.940945,,,,,,TRUE,,,,,FEW,1900,FEW,2000,,,,,VFR,,,,,,,,,,,,METAR,819.0
HTIR 252100Z 00000KT 9999 FEW022 FEW024CB 20/15 Q1020,HTIR,2023-04-25T21:00:00Z,-7.67,35.75,20.0,15.0,0,0,,6.21,30.11811,,,,,,,,,,,FEW,2200,FEW,2400,,,,,VFR,,,,,,,,,,,,METAR,1432.0
HTDO 252100Z 08008KT 9999 FEW024 22/19 Q1017 NOSIG,HTDO,2023-04-25T21:00:00Z,-6.17,35.77,22.0,19.0,80,8,,6.21,30.029528,,,,,,TRUE,,,,,FEW,2400,,,,,,,VFR,,,,,,,,,,,,METAR,1119.0
HTDA 252100Z 21005KT 9999 TS FEW012 FEW014CB 25/24 Q1012 NOSIG,HTDA,2023-04-25T21:00:00Z,-6.88,39.2,25.0,24.0,210,5,,6.21,29.88189,,,,,,TRUE,,,,TS,FEW,1200,FEW,1400,,,,,VFR,,,,,,,,,,,,METAR,53.0
HTBU 252100Z 00000KT 9999 FEW016 FEW018CB BKN080 20/18 Q1017,HTBU,2023-04-25T21:00:00Z,-1.32,31.82,20.0,18.0,0,0,,6.21,30.029528,,,,,,,,,,,FEW,1600,FEW,1800,BKN,8000,,,VFR,,,,,,,,,,,,METAR,1144.0
HTAR 252100Z 10005KT 9999 BKN025 FEW026CB 20/18 Q1021 NOSIG,HTAR,2023-04-25T21:00:00Z,-3.37,36.63,20.0,18.0,100,5,,6.21,30.147638,,,,,,TRUE,,,,,BKN,2500,FEW,2600,,,,,MVFR,,,,,,,,,,,,METAR,1386.0
HRYR 252100Z 28003KT 9999 SCT025 BKN100 21/18 Q1020 RERA NOSIG,HRYR,2023-04-25T21:00:00Z,-1.97,30.13,21.0,18.0,280,3,,6.21,30.11811,,,,,,TRUE,,,,,SCT,2500,BKN,10000,,,,,VFR,,,,,,,,,,,,METAR,1493.0
HKJK 252100Z 36003KT 9999 BKN019 18/17 Q1022 NOSIG,HKJK,2023-04-25T21:00:00Z,-1.32,36.92,18.0,17.0,360,3,,6.21,30.177166,,,,,,TRUE,,,,,BKN,1900,,,,,,,MVFR,,,,,,,,,,,,METAR,1615.0
HKEL 252100Z 17003KT 9999 RA FEW013 FEW018CB BKN080 15/14 Q1026,HKEL,2023-04-25T21:00:00Z,0.4,35.23,15.0,14.0,170,3,,6.21,30.295275,,,,,,,,,,RA,FEW,1300,FEW,1800,BKN,8000,,,VFR,,,,,,,,,,,,METAR,2116.0
HETR 252100Z 35018KT CAVOK 26/M05 Q1009,HETR,2023-04-25T21:00:00Z,28.22,33.65,26.0,-5.0,350,18,,6.21,29.793306,,,,,,,,,,,CAVOK,,,,,,,,VFR,,,,,,,,,,,,METAR,35.0
HESW 252100Z 01017KT CAVOK 22/12 Q1013,HESW,2023-04-25T21:00:00Z,29.35,25.5,22.0,12.0,10,17,,6.21,29.911417,,,,,,,,,,,CAVOK,,,,,,,,VFR,,,,,,,,,,,,METAR,101.0
HECA 252100Z 07006KT CAVOK 21/09 Q1014 NOSIG,HECA,2023-04-25T21:00:00Z,30.12,31.4,21.0,9.0,70,6,,6.21,29.940945,,,,,,TRUE,,,,,CAVOK,,,,,,,,VFR,,,,,,,,,,,,METAR,68.0
HDAM 252100Z 140/05KT 9999 FEW023 29/22 Q1008,HDAM,2023-04-25T21:00:00Z,11.55,43.17,29.0,22.0,,,,6.21,29.763779,,,,,,,,,,,FEW,2300,,,,,,,VFR,,,,,,,,,,,,METAR,6.0
HAAB 252100Z 09003KT 9999 SCT025 16/12 Q1026,HAAB,2023-04-25T21:00:00Z,8.97,38.78,16.0,12.0,90,3,,6.21,30.295275,,,,,,,,,,,SCT,2500,,,,,,,VFR,,,,,,,,,,,,METAR,2319.0
GVSV 252100Z 06014KT 9999 FEW024 23/16 Q1014 NOSIG,GVSV,2023-04-25T21:00:00Z,16.83,-25.07,23.0,16.0,60,14,,6.21,29.940945,,,,,,TRUE,,,,,FEW,2400,,,,,,,VFR,,,,,,,,,,,,METAR,16.0
GVNP 252100Z 01013KT 9999 FEW016 23/17 Q1013 NOSIG,GVNP,2023-04-25T21:00:00Z,14.95,-23.48,23.0,17.0,10,13,,6.21,29.911417,,,,,,TRUE,,,,,FEW,1600,,,,,,,VFR,,,,,,,,,,,,METAR,70.0
GVAC 252100Z 03010KT 9999 SCT013 22/16 Q1014 NOSIG,GVAC,2023-04-25T21:00:00Z,16.73,-22.93,22.0,16.0,30,10,,6.21,29.940945,,,,,,TRUE,,,,,SCT,1300,,,,,,,VFR,,,,,,,,,,,,METAR,54.0
GUCY 252100Z 30006KT CAVOK 29/23 Q1011 NOSIG,GUCY,2023-04-25T21:00:00Z,9.57,-13.62,29.0,23.0,300,6,,6.21,29.852362,,,,,,TRUE,,,,,CAVOK,,,,,,,,VFR,,,,,,,,,,,,METAR,10.0
GQPP 252100Z 35012KT 7000 NSC 19/17 Q1013 NOSIG,GQPP,2023-04-25T21:00:00Z,20.92,-17.02,19.0,17.0,350,12,,4.35,29.911417,,,,,,TRUE,,,,,CLR,,,,,,,,MVFR,,,,,,,,,,,,METAR,5.0
GQNO 252100Z 32013KT 8000 NSC 20/17 Q1011 NOSIG,GQNO,2023-04-25T21:00:00Z,18.3,-15.97,20.0,17.0,320,13,,4.97,29.852362,,,,,,TRUE,,,,,CLR,,,,,,,,MVFR,,,,,,,,,,,,METAR,1.0
GOTT 252100Z 30004KT CAVOK 37/15 Q1007,GOTT,2023-04-25T21:00:00Z,13.73,-13.65,37.0,15.0,300,4,,6.21,29.734253,,,,,,,,,,,CAVOK,,,,,,,,VFR,,,,,,,,,,,,METAR,53.0
GOTK 252100Z 00000KT CAVOK 36/13 Q1007,GOTK,2023-04-25T21:00:00Z,12.57,-12.22,36.0,13.0,0,0,,6.21,29.734253,,,,,,,,,,,CAVOK,,,,,,,,VFR,,,,,,,,,,,,METAR,165.0
GOSS 252100Z 34014KT 290V010 CAVOK 21/20 Q1011,GOSS,2023-04-25T21:00:00Z,16.05,-16.45,21.0,20.0,340,14,,6.21,29.852362,,,,,,,,,,,CAVOK,,,,,,,,VFR,,,,,,,,,,,,METAR,3.0
GOSP 252100Z 32004KT CAVOK 34/20 Q1008,GOSP,2023-04-25T21:00:00Z,16.68,-14.97,34.0,20.0,320,4,,6.21,29.763779,,,,,,,,,,,CAVOK,,,,,,,,VFR,,,,,,,,,,,,METAR,10.0
GOSM 252100Z 00000KT CAVOK 35/11 Q1007,GOSM,2023-04-25T21:00:00Z,15.6,-13.33,35.0,11.0,0,0,,6.21,29.734253,,,,,,,,,,,CAVOK,,,,,,,,VFR,,,,,,,,,,,,METAR,28.0
GOOY 252100Z 28012KT 9999 FEW013 22/21 Q1011,GOOY,2023-04-25T21:00:00Z,14.73,-17.5,22.0,21.0,280,12,,6.21,29.852362,,,,,,,,,,,FEW,1300,,,,,,,VFR,,,,,,,,,,,,METAR,21.0
GOOK 252100Z 28008KT CAVOK 29/21 Q1009,GOOK,2023-04-25T21:00:00Z,14.15,-16.07,29.0,21.0,280,8,,6.21,29.793306,,,,,,,,,,,CAVOK,,,,,,,,VFR,,,,,,,,,,,,METAR,8.0
GOOG 252100Z 32007KT CAVOK 36/14 Q1005,GOOG,2023-04-25T21:00:00Z,15.4,-15.08,36.0,14.0,320,7,,6.21,29.675198,,,,,,,,,,,CAVOK,,,,,,,,VFR,,,,,,,,,,,,METAR,38.0
GOOD 252100Z 34010KT CAVOK 28/17 Q1010,GOOD,2023-04-25T21:00:00Z,14.65,-16.22,28.0,17.0,340,10,,6.21,29.822834,,,,,,,,,,,CAVOK,,,,,,,,VFR,,,,,,,,,,,,METAR,9.0
GOGK 252100Z 00000KT CAVOK 33/19 Q1006,GOGK,2023-04-25T21:00:00Z,12.9,-14.97,33.0,19.0,0,0,,6.21,29.704725,,,,,,,,,,,CAVOK,,,,,,,,VFR,,,,,,,,,,,,METAR,37.0
GOGG 252100Z 36004KT CAVOK 25/22 Q1011,GOGG,2023-04-25T21:00:00Z,12.55,-16.27,25.0,22.0,360,4,,6.21,29.852362,,,,,,,,,,,CAVOK,,,,,,,,VFR,,,,,,,,,,,,METAR,24.0
GOBD 252100Z 33014KT 9999 FEW010 22/20 Q1011 NOSIG,GOBD,2023-04-25T21:00:00Z,14.67,-17.07,22.0,20.0,330,14,,6.21,29.852362,,,,,,TRUE,,,,,FEW,1000,,,,,,,VFR,,,,,,,,,,,,METAR,90.0
GMTT 252100Z VRB01KT CAVOK 21/10 Q1014 NOSIG,GMTT,2023-04-25T21:00:00Z,35.72,-5.9,21.0,10.0,0,1,,6.21,29.940945,,,,,,TRUE,,,,,CAVOK,,,,,,,,VFR,,,,,,,,,,,,METAR,19.0
GMTN 252100Z VRB01KT CAVOK 18/12 Q1014 NOSIG,GMTN,2023-04-25T21:00:00Z,35.58,-5.32,18.0,12.0,0,1,,6.21,29.940945,,,,,,TRUE,,,,,CAVOK,,,,,,,,VFR,,,,,,,,,,,,METAR,10.0
GMTA 252100Z 18004KT CAVOK 23/12 Q1014 NOSIG,GMTA,2023-04-25T21:00:00Z,35.17,-3.85,23.0,12.0,180,4,,6.21,29.940945,,,,,,TRUE,,,,,CAVOK,,,,,,,,VFR,,,,,,,,,,,,METAR,14.0
GMMZ 252100Z VRB02KT 9999 FEW040 27/M02 Q1019 NOSIG,GMMZ,2023-04-25T21:00:00Z,30.93,-6.9,27.0,-2.0,0,2,,6.21,30.088583,,,,,,TRUE,,,,,FEW,4000,,,,,,,VFR,,,,,,,,,,,,METAR,1139.0
GMMX 252100Z 04004KT 300V110 9999 FEW030 32/06 Q1014 NOSIG,GMMX,2023-04-25T21:00:00Z,31.62,-8.03,32.0,6.0,40,4,,6.21,29.940945,,,,,,TRUE,,,,,FEW,3000,,,,,,,VFR,,,,,,,,,,,,METAR,465.0
GMMW 252100Z 22004KT CAVOK 19/07 Q1015 NOSIG,GMMW,2023-04-25T21:00:00Z,34.98,-3.02,19.0,7.0,220,4,,6.21,29.970472,,,,,,TRUE,,,,,CAVOK,,,,,,,,VFR,,,,,,,,,,,,METAR,174.0
GMMN 252100Z 04008KT CAVOK 22/13 Q1014 NOSIG,GMMN,2023-04-25T21:00:00Z,33.37,-7.58,22.0,13.0,40,8,,6.21,29.940945,,,,,,TRUE,,,,,CAVOK,,,,,,,,VFR,,,,,,,,,,,,METAR,196.0
GMML 252100Z 34008KT 8000 NSC 19/19 Q1014 NOSIG,GMML,2023-04-25T21:00:00Z,27.13,-13.23,19.0,19.0,340,8,,4.97,29.940945,,,,,,TRUE,,,,,CLR,,,,,,,,MVFR,,,,,,,,,,,,METAR,63.0
GMMI 252100Z AUTO 26004KT 8000 NSC 19/// Q1013 NOSIG,GMMI,2023-04-25T21:00:00Z,31.4,-9.68,,,260,4,,4.97,29.911417,,,TRUE,,,TRUE,,,,,CLR,,,,,,,,MVFR,,,,,,,,,,,,METAR,102.0
GMMH 252100Z 02014KT 8000 NSC 20/17 Q1012 NOSIG,GMMH,2023-04-25T21:00:00Z,23.72,-15.93,20.0,17.0,20,14,,4.97,29.88189,,,,,,TRUE,,,,,CLR,,,,,,,,MVFR,,,,,,,,,,,,METAR,11.0
GMME 252100Z 00000KT 6000 NSC 15/10 Q1013 NOSIG,GMME,2023-04-25T21:00:00Z,34.05,-6.77,15.0,10.0,0,0,,3.73,29.911417,,,,,,TRUE,,,,,CLR,,,,,,,,MVFR,,,,,,,,,,,,METAR,84.0
GMMB 252100Z AUTO 08006KT 9999 NSC 19/10 Q1014 NOSIG,GMMB,2023-04-25T21:00:00Z,33.65,-7.22,19.0,10.0,80,6,,6.21,29.940945,,,TRUE,,,TRUE,,,,,CLR,,,,,,,,VFR,,,,,,,,,,,,METAR,191.0
GMFO 252100Z 22005KT CAVOK 20/03 Q1017 NOSIG,GMFO,2023-04-25T21:00:00Z,34.78,-1.92,20.0,3.0,220,5,,6.21,30.029528,,,,,,TRUE,,,,,CAVOK,,,,,,,,VFR,,,,,,,,,,,,METAR,452.0
GMFM 252100Z 27004KT 200V290 CAVOK 22/11 Q1016 NOSIG,GMFM,2023-04-25T21:00:00Z,33.87,-5.52,22.0,11.0,270,4,,6.21,30.0,,,,,,TRUE,,,,,CAVOK,,,,,,,,VFR,,,,,,,,,,,,METAR,569.0
GMFK 252100Z 32012KT 9999 FEW036 SCT100 28/02 Q1019 NOSIG,GMFK,2023-04-25T21:00:00Z,31.95,-4.4,28.0,2.0,320,12,,6.21,30.088583,,,,,,TRUE,,,,,FEW,3600,SCT,10000,,,,,VFR,,,,,,,,,,,,METAR,1033.0
GMFF 252100Z 20006KT 9999 ////// 21/00 Q1017 NOSIG,GMFF,2023-04-25T21:00:00Z,33.92,-4.97,21.0,0.0,200,6,,6.21,30.029528,,,,,,TRUE,,,,,,,,,,,,,,,,,,,,,,,,,METAR,575.0
GMAD 252100Z 26005KT 8000 SCT008 19/18 Q1014 NOSIG,GMAD,2023-04-25T21:00:00Z,30.32,-9.42,19.0,18.0,260,5,,4.97,29.940945,,,,,,TRUE,,,,,SCT,800,,,,,,,MVFR,,,,,,,,,,,,METAR,66.0
GLRB 252100Z /////KT 8000 -RA FEW006 BKN016 FEW024CB 28/25 Q//// TEMPORA RMK CB/NE-E,GLRB,2023-04-25T21:00:00Z,6.25,-10.35,28.0,25.0,,,,4.97,,,,,,,,,,,-RA,FEW,600,BKN,1600,FEW,2400,,,MVFR,,,,,,,,,,,,SPECI,12.0
GGOV 252100Z 28005KT 250V330 8000 NSC 28/19 Q1009 NOSIG,GGOV,2023-04-25T21:00:00Z,11.88,-15.65,28.0,19.0,280,5,,4.97,29.793306,,,,,,TRUE,,,,,CLR,,,,,,,,MVFR,,,,,,,,,,,,METAR,31.0
GEML 252100Z AUTO VRB01KT CAVOK 20/10 Q1014,GEML,2023-04-25T21:00:00Z,35.27,-2.95,20.0,10.0,0,1,,6.21,29.940945,,,TRUE,,,,,,,,CAVOK,,,,,,,,VFR,,,,,,,,,,,,METAR,48.0
GECE 252100Z AUTO VRB01KT CAVOK 22/12 Q1014,GECE,2023-04-25T21:00:00Z,35.88,-5.3,22.0,12.0,0,1,,6.21,29.940945,,,TRUE,,,,,,,,CAVOK,,,,,,,,VFR,,,,,,,,,,,,METAR,2.0
GCXO 252100Z 29011KT 9999 BKN004 15/14 Q1016 NOSIG,GCXO,2023-04-25T21:00:00Z,28.48,-16.35,15.0,14.0,290,11,,6.21,30.0,,,,,,TRUE,,,,,BKN,400,,,,,,,LIFR,,,,,,,,,,,,METAR,623.0
GCTS 252100Z 13005KT 080V170 9999 BKN025 20/16 Q1015 NOSIG,GCTS,2023-04-25T21:00:00Z,28.05,-16.57,20.0,16.0,130,5,,6.21,29.970472,,,,,,TRUE,,,,,BKN,2500,,,,,,,MVFR,,,,,,,,,,,,METAR,59.0
GCRR 252100Z 10004KT 9999 BKN020 20/18 Q1014,GCRR,2023-04-25T21:00:00Z,28.95,-13.58,20.0,18.0,100,4,,6.21,29.940945,,,,,,,,,,,BKN,2000,,,,,,,MVFR,,,,,,,,,,,,METAR,9.0
GCLP 252100Z 36012KT 9999 FEW030 21/15 Q1015 NOSIG,GCLP,2023-04-25T21:00:00Z,27.92,-15.38,21.0,15.0,360,12,,6.21,29.970472,,,,,,TRUE,,,,,FEW,3000,,,,,,,VFR,,,,,,,,,,,,METAR,16.0
GCLA 252100Z AUTO 03007KT 350V080 9999 BKN023 21/16 Q1016,GCLA,2023-04-25T21:00:00Z,28.62,-17.75,21.0,16.0,30,7,,6.21,30.0,,,TRUE,,,,,,,,BKN,2300,,,,,,,MVFR,,,,,,,,,,,,METAR,20.0
GCHI 252100Z AUTO 34015KT 9999 BKN023 20/15 Q1015,GCHI,2023-04-25T21:00:00Z,27.82,-17.88,20.0,15.0,340,15,,6.21,29.970472,,,TRUE,,,,,,,,BKN,2300,,,,,,,MVFR,,,,,,,,,,,,METAR,21.0
GCGM 252100Z AUTO 24006KT CAVOK 19/15 Q1015 RMK R09/25004KT ARP/25005KT 210V270,GCGM,2023-04-25T21:00:00Z,28.03,-17.22,19.0,15.0,240,6,,6.21,29.970472,,,TRUE,,,,,,,,CAVOK,,,,,,,,VFR,,,,,,,,,,,,METAR,217.0
GCFV 252100Z 24003KT 9999 FEW026 21/18 Q1014,GCFV,2023-04-25T21:00:00Z,28.43,-13.87,21.0,18.0,240,3,,6.21,29.940945,,,,,,,,,,,FEW,2600,,,,,,,VFR,,,,,,,,,,,,METAR,11.0
GBYD 262100Z 33010KT CAVOK 23/20 1010,GBYD,2023-04-25T21:00:00Z,13.33,-16.65,23.0,20.0,330,10,,6.21,,,,,,,,,,,,CAVOK,,,,,,,,VFR,,,,,,,,,,,,METAR,29.0
GANR 252100Z 02008KT CAVOK 35/05 Q1010,GANR,2023-04-25T21:00:00Z,15.23,-9.58,35.0,5.0,20,8,,6.21,29.822834,,,,,,,,,,,CAVOK,,,,,,,,VFR,,,,,,,,,,,,METAR,237.0
GAMB 252100Z 01002KT CAVOK 33/07 Q1008,GAMB,2023-04-25T21:00:00Z,14.52,-4.08,33.0,7.0,10,2,,6.21,29.763779,,,,,,,,,,,CAVOK,,,,,,,,VFR,,,,,,,,,,,,METAR,271.0
GAKD 252100Z 08006KT CAVOK 35/10 Q1008,GAKD,2023-04-25T21:00:00Z,14.48,-11.4,35.0,10.0,80,6,,6.21,29.763779,,,,,,,,,,,CAVOK,,,,,,,,VFR,,,,,,,,,,,,METAR,53.0
GABS 252100Z 06005KT CAVOK 33/04 Q1009 NOSIG,GABS,2023-04-25T21:00:00Z,12.53,-7.95,33.0,4.0,60,5,,6.21,29.793306,,,,,,TRUE,,,,,CAVOK,,,,,,,,VFR,,,,,,,,,,,,METAR,375.0
FYWW 252100Z AUTO 11003KT //// // ////// 20/13 Q1023,FYWW,2023-04-25T21:00:00Z,-22.57,17.1,20.0,13.0,110,3,,,30.206694,,,TRUE,,,,,,,,,,,,,,,,,,,,,,,,,,,,SPECI,1672.0
FYWB 252100Z AUTO 36010KT //// // ////// 18/14 Q1011,FYWB,2023-04-25T21:00:00Z,-22.98,14.65,18.0,14.0,360,10,,,29.852362,,,TRUE,,,,,,,,,,,,,,,,,,,,,,,,,,,,METAR,87.0
FYOA 252100Z AUTO 36002KT //// // ////// 23/15 Q1014,FYOA,2023-04-25T21:00:00Z,-17.88,15.97,23.0,15.0,360,2,,,29.940945,,,TRUE,,,,,,,,,,,,,,,,,,,,,,,,,,,,METAR,1099.0
FYLZ 252100Z AUTO 20004KT //// // ////// 14/13 Q1012,FYLZ,2023-04-25T21:00:00Z,-26.68,15.25,14.0,13.0,200,4,,,29.88189,,,TRUE,,,,,,,,,,,,,,,,,,,,,,,,,,,,METAR,129.0
FYKT 252100Z AUTO 06007KT //// // ////// 21/09 Q1019,FYKT,2023-04-25T21:00:00Z,-26.53,18.12,21.0,9.0,60,7,,,30.088583,,,TRUE,,,,,,,,,,,,,,,,,,,,,,,,,,,,METAR,1064.0
FYKM 252100Z AUTO 10003KT //// // ////// 20/11 Q1017,FYKM,2023-04-25T21:00:00Z,-17.63,24.18,20.0,11.0,100,3,,,30.029528,,,TRUE,,,,,,,,,,,,,,,,,,,,,,,,,,,,METAR,959.0
FYGF 252100Z AUTO 28002KT //// // ////// 17/13 Q1022,FYGF,2023-04-25T21:00:00Z,-19.6,18.12,17.0,13.0,280,2,,,30.177166,,,TRUE,,,,,,,,,,,,,,,,,,,,,,,,,,,,METAR,1407.0
FVRG 252100Z 09003KT CAVOK 14/05 Q1023 NOSIG,FVRG,2023-04-25T21:00:00Z,-17.93,31.1,14.0,5.0,90,3,,6.21,30.206694,,,,,,TRUE,,,,,CAVOK,,,,,,,,VFR,,,,,,,,,,,,METAR,1490.0
FTTJ 252100Z 31002KT 7000 NSC 32/06 Q1006 NOSIG,FTTJ,2023-04-25T21:00:00Z,12.13,15.03,32.0,6.0,310,2,,4.35,29.704725,,,,,,TRUE,,,,,CLR,,,,,,,,MVFR,,,,,,,,,,,,METAR,295.0
FTTA 252100Z 23004KT CAVOK 32/19 Q1007,FTTA,2023-04-25T21:00:00Z,9.15,18.37,32.0,19.0,230,4,,6.21,29.734253,,,,,,,,,,,CAVOK,,,,,,,,VFR,,,,,,,,,,,,METAR,361.0
FSIA 252100Z 14004KT 110V180 9999 FEW022 28/24 Q1009 NOSIG,FSIA,2023-04-25T21:00:00Z,-4.67,55.52,28.0,24.0,140,4,,6.21,29.793306,,,,,,TRUE,,,,,FEW,2200,,,,,,,VFR,,,,,,,,,,,,METAR,3.0
FQXA 252100Z 08004KT CAVOK 22/21 Q1018,FQXA,2023-04-25T21:00:00Z,-25.05,33.62,22.0,21.0,80,4,,6.21,30.059055,,,,,,,,,,,CAVOK,,,,,,,,VFR,,,,,,,,,,,,METAR,3.0
FQTT 252100Z VRB04KT 9999 FEW020 21/18 Q1015,FQTT,2023-04-25T21:00:00Z,-16.1,33.63,21.0,18.0,0,4,,6.21,29.970472,,,,,,,,,,,FEW,2000,,,,,,,VFR,,,,,,,,,,,,METAR,146.0
FQQL 252100Z 00000KT 9999 BKN018 23/20 Q1016 REDZ,FQQL,2023-04-25T21:00:00Z,-17.87,36.87,23.0,20.0,0,0,,6.21,30.0,,,,,,,,,,,BKN,1800,,,,,,,MVFR,,,,,,,,,,,,METAR,5.0
FQPB 252100Z 22008KT 9999 FEW020 26/23 Q1013,FQPB,2023-04-25T21:00:00Z,-12.98,40.52,26.0,23.0,220,8,,6.21,29.911417,,,,,,,,,,,FEW,2000,,,,,,,VFR,,,,,,,,,,,,METAR,101.0
FQNP 252100Z 19006KT 9999 SCT020 22/20 Q1016,FQNP,2023-04-25T21:00:00Z,-15.1,39.27,22.0,20.0,190,6,,6.21,30.0,,,,,,,,,,,SCT,2000,,,,,,,VFR,,,,,,,,,,,,METAR,434.0
FQLC 252100Z 09005KT CAVOK 16/12 Q1021,FQLC,2023-04-25T21:00:00Z,-13.27,35.25,16.0,12.0,90,5,,6.21,30.147638,,,,,,,,,,,CAVOK,,,,,,,,VFR,,,,,,,,,,,,METAR,1362.0
FQCH 252100Z /////KT 9999 FEW015 20/19 Q1021,FQCH,2023-04-25T21:00:00Z,-19.15,33.43,20.0,19.0,,,,6.21,30.147638,,,,,,,,,,,FEW,1500,,,,,,,VFR,,,,,,,,,,,,METAR,695.0
FOOG 252100Z VRB02KT 9999 FEW010 25/24 Q1009,FOOG,2023-04-25T21:00:00Z,-0.7,8.75,25.0,24.0,0,2,,6.21,29.793306,,,,,,,,,,,FEW,1000,,,,,,,VFR,,,,,,,,,,,,METAR,4.0
FNLU 252100Z VRB03KT 9999 FEW020 BKN080 27/25 Q1010,FNLU,2023-04-25T21:00:00Z,-8.85,13.22,27.0,25.0,0,3,,6.21,29.822834,,,,,,,,,,,FEW,2000,BKN,8000,,,,,VFR,,,,,,,,,,,,METAR,75.0
FMMI 252100Z 13004KT 100V160 9999 FEW017 SCT20 17/16 Q1018 NOSIG,FMMI,2023-04-25T21:00:00Z,-18.8,47.47,17.0,16.0,130,4,,6.21,30.059055,,,,,,TRUE,,,,,FEW,1700,,,,,,,VFR,,,,,,,,,,,,METAR,1269.0
FMEP 252100Z AUTO 03005KT 9999 BKN031 BKN098 25/21 Q1012,FMEP,2023-04-25T21:00:00Z,-21.32,55.42,25.0,21.0,30,5,,6.21,29.88189,,,TRUE,,,,,,,,BKN,3100,BKN,9800,,,,,VFR,,,,,,,,,,,,METAR,21.0
FMEE 252100Z AUTO 20005KT CAVOK 23/22 Q1012 NOSIG,FMEE,2023-04-25T21:00:00Z,-20.88,55.52,23.0,22.0,200,5,,6.21,29.88189,,,TRUE,,,TRUE,,,,,CAVOK,,,,,,,,VFR,,,,,,,,,,,,METAR,20.0
FMCZ 252100Z AUTO 21011KT 9999 SCT025 BKN037 28/24 Q1011 NOSIG,FMCZ,2023-04-25T21:00:00Z,-12.8,45.27,28.0,24.0,210,11,,6.21,29.852362,,,TRUE,,,TRUE,,,,,SCT,2500,BKN,3700,,,,,VFR,,,,,,,,,,,,METAR,7.0
FIMP 252100Z 34005KT 9999 VCSH SCT015 BKN050 24/23 Q1013,FIMP,2023-04-25T21:00:00Z,-20.43,57.68,24.0,23.0,340,5,,6.21,29.911417,,,,,,,,,,VCSH,SCT,1500,BKN,5000,,,,,VFR,,,,,,,,,,,,METAR,57.0
FGSL 252100Z VRB02KT 9999 FEW010 24/24 Q1010 NOSIG,FGSL,2023-04-25T21:00:00Z,3.75,8.72,24.0,24.0,0,2,,6.21,29.822834,,,,,,TRUE,,,,,FEW,1000,,,,,,,VFR,,,,,,,,,,,,METAR,23.0
FDMY 252100Z AUTO 00000KT //// // ////// 21/19 Q1030,FDMY,2023-04-25T21:00:00Z,-25.88,31.52,21.0,19.0,0,0,,,30.413385,,,TRUE,,,,,,,,,,,,,,,,,,,,,,,,,,,,METAR,401.0
FBSK 252100Z 23004KT CAVOK 15/13 Q1020 NOSIG,FBSK,2023-04-25T21:00:00Z,-24.55,25.92,15.0,13.0,230,4,,6.21,30.11811,,,,,,TRUE,,,,,CAVOK,,,,,,,,VFR,,,,,,,,,,,,METAR,1007.0
FBPM 252100Z 06004KT CAVOK 22/10 Q1019,FBPM,2023-04-25T21:00:00Z,-21.17,27.48,22.0,10.0,60,4,,6.21,30.088583,,,,,,,,,,,CAVOK,,,,,,,,VFR,,,,,,,,,,,,METAR,1009.0
FBMN 252100Z VRB02KT 7000 NSC 21/13 Q1018,FBMN,2023-04-25T21:00:00Z,-19.97,23.42,21.0,13.0,0,2,,4.35,30.059055,,,,,,,,,,,CLR,,,,,,,,MVFR,,,,,,,,,,,,METAR,946.0
FAVV 252100Z AUTO 00000KT //// // ////// 16/11 Q1025,FAVV,2023-04-25T21:00:00Z,-26.57,27.97,16.0,11.0,0,0,,,30.265747,,,TRUE,,,,,,,,,,,,,,,,,,,,,,,,,,,,METAR,1480.0
FAUP 252100Z AUTO 30004KT //// // ////// 17/06 Q1019,FAUP,2023-04-25T21:00:00Z,-28.38,21.27,17.0,6.0,300,4,,,30.088583,,,TRUE,,,,,,,,,,,,,,,,,,,,,,,,,,,,SPECI,845.0
FAPP 252100Z AUTO 22001KT //// // ////// 18/12 Q1024,FAPP,2023-04-25T21:00:00Z,-23.83,29.45,18.0,12.0,220,1,,,30.236221,,,TRUE,,,,,,,,,,,,,,,,,,,,,,,,,,,,SPECI,1238.0
FAPN 252100Z AUTO 23003KT //// // ////// 15/12 Q1021,FAPN,2023-04-25T21:00:00Z,-25.33,27.17,15.0,12.0,230,3,,,30.147638,,,TRUE,,,,,,,,,,,,,,,,,,,,,,,,,,,,METAR,1045.0
FAPE 252100Z VRB01KT 9000 SCT012 OVC029 18/17 Q1018 NOSIG,FAPE,2023-04-25T21:00:00Z,-33.98,25.6,18.0,17.0,0,1,,5.59,30.059055,,,,,,TRUE,,,,,SCT,1200,OVC,2900,,,,,MVFR,,,,,,,,,,,,METAR,58.0
FAOR 252100Z 30007KT CAVOK 19/11 Q1025 NOSIG,FAOR,2023-04-25T21:00:00Z,-26.13,28.23,19.0,11.0,300,7,,6.21,30.265747,,,,,,TRUE,,,,,CAVOK,,,,,,,,VFR,,,,,,,,,,,,METAR,1684.0
FALW 252100Z AUTO 21003KT //// // ////// 14/11 Q1016,FALW,2023-04-25T21:00:00Z,-32.97,18.17,14.0,11.0,210,3,,,30.0,,,TRUE,,,,,,,,,,,,,,,,,,,,,,,,,,,,SPECI,31.0
FALE 252100Z 20003KT 9999 BKN035 21/19 Q1018 NOSIG,FALE,2023-04-25T21:00:00Z,-29.62,31.12,21.0,19.0,200,3,,6.21,30.059055,,,,,,TRUE,,,,,BKN,3500,,,,,,,VFR,,,,,,,,,,,,METAR,109.0
FALA 252100Z AUTO 20004KT //// // ////// 15/11 Q1024,FALA,2023-04-25T21:00:00Z,-25.93,27.92,15.0,11.0,200,4,,,30.236221,,,TRUE,,,,,,,,,,,,,,,,,,,,,,,,,,,,METAR,1365.0
FAKN 252100Z AUTO 07006KT //// // ////// 20/18 Q1023,FAKN,2023-04-25T21:00:00Z,-25.38,31.1,20.0,18.0,70,6,,,30.206694,,,TRUE,,,,,,,,,,,,,,,,,,,,,,,,,,,,METAR,864.0
FAKM 252100Z AUTO 00000KT //// // ////// 13/08 Q1020,FAKM,2023-04-25T21:00:00Z,-28.8,24.77,13.0,8.0,0,0,,,30.11811,,,TRUE,,,,,,,,,,,,,,,,,,,,,,,,,,,,METAR,1203.0
FAJB 252100Z AUTO 00000KT //// // ////// 14/10 Q1024,FAJB,2023-04-25T21:00:00Z,-26.15,28.0,14.0,10.0,0,0,,,30.236221,,,TRUE,,,,,,,,,,,,,,,,,,,,,,,,,,,,METAR,1626.0
FAHS 252100Z AUTO 17007KT //// // ////// 23/19 Q1019,FAHS,2023-04-25T21:00:00Z,-24.37,31.03,23.0,19.0,170,7,,,30.088583,,,TRUE,,,,,,,,,,,,,,,,,,,,,,,,,,,,METAR,532.0
FAGG 252100Z AUTO 11006KT 9999 R29///// // BKN030/// 17/13 Q1018,FAGG,2023-04-25T21:00:00Z,-34.0,22.37,17.0,13.0,110,6,,6.21,30.059055,,,TRUE,,,,,,,,BKN,3000,,,,,,,MVFR,,,,,,,,,,,,SPECI,196.0
FACT 252100Z 22007KT CAVOK 16/14 Q1017 NOSIG,FACT,2023-04-25T21:00:00Z,-33.97,18.6,16.0,14.0,220,7,,6.21,30.029528,,,,,,TRUE,,,,,CAVOK,,,,,,,,VFR,,,,,,,,,,,,METAR,48.0
FABL 252100Z AUTO 21003KT 190V260 //// R02///// // ///////// 10/07 Q1022,FABL,2023-04-25T21:00:00Z,-29.1,26.3,10.0,7.0,210,3,,,30.177166,,,TRUE,,,,,,,,,,,,,,,,,,,,,,,,,,,,SPECI,1348.0
EPWR 252100Z 27005KT 250V320 CAVOK 04/01 Q1012,EPWR,2023-04-25T21:00:00Z,51.1,16.88,4.0,1.0,270,5,,6.21,29.88189,,,,,,,,,,,CAVOK,,,,,,,,VFR,,,,,,,,,,,,METAR,118.0
EPWA 252100Z 29007KT 9999 -RA BKN034 08/07 Q1007 NOSIG,EPWA,2023-04-25T21:00:00Z,52.17,20.97,8.0,7.0,290,7,,6.21,29.734253,,,,,,TRUE,,,,-RA,BKN,3400,,,,,,,VFR,,,,,,,,,,,,METAR,107.0
EPSY 252100Z 34007KT 8000 -RA SCT007 BKN012 OVC025 06/04 Q1007,EPSY,2023-04-25T21:00:00Z,53.47,20.93,6.0,4.0,340,7,,4.97,29.734253,,,,,,,,,,-RA,SCT,700,BKN,1200,OVC,2500,,,MVFR,,,,,,,,,,,,METAR,136.0
EPSC 252100Z 26007KT CAVOK 05/M00 Q1009,EPSC,2023-04-25T21:00:00Z,53.58,14.9,5.0,0.0,260,7,,6.21,29.793306,,,,,,,,,,,CAVOK,,,,,,,,VFR,,,,,,,,,,,,METAR,47.0
EPRZ 252100Z 29007KT 9999 -RA BKN007 OVC026 06/06 Q1007,EPRZ,2023-04-25T21:00:00Z,50.1,22.02,6.0,6.0,290,7,,6.21,29.734253,,,,,,,,,,-RA,BKN,700,OVC,2600,,,,,IFR,,,,,,,,,,,,METAR,206.0
EPPO 252100Z 27008KT CAVOK 07/00 Q1010,EPPO,2023-04-25T21:00:00Z,52.42,16.83,7.0,0.0,270,8,,6.21,29.822834,,,,,,,,,,,CAVOK,,,,,,,,VFR,,,,,,,,,,,,METAR,87.0
EPMO 252100Z 28006KT 5000 -RA BR FEW010 BKN027 08/08 Q1007,EPMO,2023-04-25T21:00:00Z,52.45,20.65,8.0,8.0,280,6,,3.11,29.734253,,,,,,,,,,-RA BR,FEW,1000,BKN,2700,,,,,MVFR,,,,,,,,,,,,METAR,102.0
EPLL 252100Z 29008KT 9999 BKN040 BKN046 08/04 Q1009,EPLL,2023-04-25T21:00:00Z,51.72,19.4,8.0,4.0,290,8,,6.21,29.793306,,,,,,,,,,,BKN,4000,BKN,4600,,,,,VFR,,,,,,,,,,,,METAR,176.0
EPLB 252100Z 30015KT 260V320 9999 -RA SCT011 BKN040 07/06 Q1005,EPLB,2023-04-25T21:00:00Z,51.23,22.72,7.0,6.0,300,15,,6.21,29.675198,,,,,,,,,,-RA,SCT,1100,BKN,4000,,,,,VFR,,,,,,,,,,,,METAR,206.0
EPKT 252100Z 31009KT 9999 FEW035 07/03 Q1009,EPKT,2023-04-25T21:00:00Z,50.47,19.08,7.0,3.0,310,9,,6.21,29.793306,,,,,,,,,,,FEW,3500,,,,,,,VFR,,,,,,,,,,,,METAR,296.0
EPKK 252100Z 27005KT CAVOK 04/02 Q1009,EPKK,2023-04-25T21:00:00Z,50.07,19.8,4.0,2.0,270,5,,6.21,29.793306,,,,,,,,,,,CAVOK,,,,,,,,VFR,,,,,,,,,,,,METAR,237.0
EPGD 252100Z 25007KT CAVOK 05/M01 Q1007,EPGD,2023-04-25T21:00:00Z,54.37,18.47,5.0,-1.0,250,7,,6.21,29.734253,,,,,,,,,,,CAVOK,,,,,,,,VFR,,,,,,,,,,,,METAR,136.0
EPBY 252100Z 25005KT CAVOK 04/M00 Q1009,EPBY,2023-04-25T21:00:00Z,53.1,18.0,4.0,0.0,250,5,,6.21,29.793306,,,,,,,,,,,CAVOK,,,,,,,,VFR,,,,,,,,,,,,METAR,66.0
EIWF 252100Z 12007KT 090V150 CAVOK 08/04 Q1017,EIWF,2023-04-25T21:00:00Z,52.18,-7.08,8.0,4.0,120,7,,6.21,30.029528,,,,,,,,,,,CAVOK,,,,,,,,VFR,,,,,,,,,,,,METAR,26.0
EISG 252100Z 12006KT 9999 FEW046 SCT050 BKN060 09/02 Q1017,EISG,2023-04-25T21:00:00Z,54.28,-8.6,9.0,2.0,120,6,,6.21,30.029528,,,,,,,,,,,FEW,4600,SCT,5000,BKN,6000,,,VFR,,,,,,,,,,,,METAR,1.0
EINN 252100Z 12008KT 9999 FEW030 SCT050 BKN060 09/05 Q1016 NOSIG,EINN,2023-04-25T21:00:00Z,52.7,-8.92,9.0,5.0,120,8,,6.21,30.0,,,,,,TRUE,,,,,FEW,3000,SCT,5000,BKN,6000,,,VFR,,,,,,,,,,,,METAR,20.0
EIME 252100Z 10006KT CAVOK 07/03 Q1017,EIME,2023-04-25T21:00:00Z,53.3,-6.45,7.0,3.0,100,6,,6.21,30.029528,,,,,,,,,,,CAVOK,,,,,,,,VFR,,,,,,,,,,,,METAR,90.0
EIDW 252100Z 14007KT 9999 FEW017 BKN060 08/01 Q1018 NOSIG,EIDW,2023-04-25T21:00:00Z,53.42,-6.28,8.0,1.0,140,7,,6.21,30.059055,,,,,,TRUE,,,,,FEW,1700,BKN,6000,,,,,VFR,,,,,,,,,,,,METAR,75.0
EICK 252100Z 12013KT 9999 SCT017 SCT040 BKN070 08/05 Q1015 NOSIG,EICK,2023-04-25T21:00:00Z,51.85,-8.47,8.0,5.0,120,13,,6.21,29.970472,,,,,,TRUE,,,,,SCT,1700,SCT,4000,BKN,7000,,,VFR,,,,,,,,,,,,METAR,158.0
DXXX 252100Z 21006KT 9999 TS FEW013 FEW020CB 29/26 Q1011 BECMG NSW,DXXX,2023-04-25T21:00:00Z,6.17,1.25,29.0,26.0,210,6,,6.21,29.852362,,,,,,,,,,TS,FEW,1300,FEW,2000,,,,,VFR,,,,,,,,,,,,METAR,22.0
DXSK 252100Z 28004KT 8000 RATS SCT013 FEW016CB BKN120 24/21 Q////,DXSK,2023-04-25T21:00:00Z,9.0,1.15,24.0,21.0,280,4,,4.97,,,,,,,,,,,TS RA,SCT,1300,FEW,1600,BKN,12000,,,MVFR,,,,,,,,,,,,METAR,381.0
DTTZ 252100Z 22009KT 8000 NSC 29/05 Q1012,DTTZ,2023-04-25T21:00:00Z,33.93,8.1,29.0,5.0,220,9,,4.97,29.88189,,,,,,,,,,,CLR,,,,,,,,MVFR,,,,,,,,,,,,METAR,87.0
DTTX 252100Z 10003KT 9999 SCT030 20/13 Q1015,DTTX,2023-04-25T21:00:00Z,34.72,10.68,20.0,13.0,100,3,,6.21,29.970472,,,,,,,,,,,SCT,3000,,,,,,,VFR,,,,,,,,,,,,METAR,17.0
DTTN 252100Z ///04KT 8000 FEW020 22/06 Q1014,DTTN,2023-04-25T21:00:00Z,36.47,8.8,22.0,6.0,,,,4.97,29.940945,,,,,,,,,,,FEW,2000,,,,,,,MVFR,,,,,,,,,,,,SPECI,145.0
DTTL 252100Z 20004KT 140V240 CAVOK 18/15 Q1014,DTTL,2023-04-25T21:00:00Z,36.85,11.07,18.0,15.0,200,4,,6.21,29.940945,,,,,,,,,,,CAVOK,,,,,,,,VFR,,,,,,,,,,,,METAR,18.0
DTTK 252100Z VRB02KT 9999 FEW023 22/06 Q1015,DTTK,2023-04-25T21:00:00Z,35.67,10.08,22.0,6.0,0,2,,6.21,29.970472,,,,,,,,,,,FEW,2300,,,,,,,VFR,,,,,,,,,,,,METAR,65.0
DTTJ 252100Z 08004KT 9999 FEW030 21/13 Q1014 NOSIG,DTTJ,2023-04-25T21:00:00Z,33.87,10.77,21.0,13.0,80,4,,6.21,29.940945,,,,,,TRUE,,,,,FEW,3000,,,,,,,VFR,,,,,,,,,,,,METAR,3.0
DTTG 252100Z 05012KT CAVOK 21/16 Q1013 NOSIG,DTTG,2023-04-25T21:00:00Z,33.73,9.92,21.0,16.0,50,12,,6.21,29.911417,,,,,,TRUE,,,,,CAVOK,,,,,,,,VFR,,,,,,,,,,,,METAR,120.0
DTTF 252100Z 07013KT 9999 BKN030 23/07 Q1015 NOSIG,DTTF,2023-04-25T21:00:00Z,34.42,8.82,23.0,7.0,70,13,,6.21,29.970472,,,,,,TRUE,,,,,BKN,3000,,,,,,,MVFR,,,,,,,,,,,,METAR,314.0
DTTD 252100Z AUTO 05003KT 360V100 NCD 25/06 Q1015,DTTD,2023-04-25T21:00:00Z,32.32,10.4,25.0,6.0,50,3,,,29.970472,,,TRUE,,,,,,,,CLR,,,,,,,,,,,,,,,,,,,,METAR,306.0
DTTB 252100Z VRB02KT CAVOK 17/11 Q1014,DTTB,2023-04-25T21:00:00Z,37.25,9.8,17.0,11.0,0,2,,6.21,29.940945,,,,,,,,,,,CAVOK,,,,,,,,VFR,,,,,,,,,,,,METAR,4.0
DTTA 252100Z 15002KT 9999 FEW026 18/14 Q1014,DTTA,2023-04-25T21:00:00Z,36.85,10.22,18.0,14.0,150,2,,6.21,29.940945,,,,,,,,,,,FEW,2600,,,,,,,VFR,,,,,,,,,,,,METAR,4.0
DTNH 252100Z 33001KT CAVOK 16/12 Q1015 NOSIG,DTNH,2023-04-25T21:00:00Z,36.07,10.43,16.0,12.0,330,1,,6.21,29.970472,,,,,,TRUE,,,,,CAVOK,,,,,,,,VFR,,,,,,,,,,,,METAR,1.0
DTMB 252100Z 20003KT 9999 FEW023 20/10 Q1014,DTMB,2023-04-25T21:00:00Z,35.77,10.75,20.0,10.0,200,3,,6.21,29.940945,,,,,,,,,,,FEW,2300,,,,,,,VFR,,,,,,,,,,,,METAR,1.0
DTKA 252100Z 00000KT 9999 FEW020 14/09 Q1015 NOSIG,DTKA,2023-04-25T21:00:00Z,36.98,8.88,14.0,9.0,0,0,,6.21,29.970472,,,,,,TRUE,,,,,FEW,2000,,,,,,,VFR,,,,,,,,,,,,METAR,70.0
DRRN 252100Z 28004KT 9000 NSC 37/00 Q1007 NOSIG,DRRN,2023-04-25T21:00:00Z,13.47,2.17,37.0,0.0,280,4,,5.59,29.734253,,,,,,TRUE,,,,,CLR,,,,,,,,VFR,,,,,,,,,,,,METAR,223.0
DNMM 252100Z 25007KT 7000 TS FEW009 FEW020CB 25/23 Q1012 NOSIG,DNMM,2023-04-25T21:00:00Z,6.57,3.32,25.0,23.0,250,7,,4.35,29.88189,,,,,,TRUE,,,,TS,FEW,900,FEW,2000,,,,,MVFR,,,,,,,,,,,,METAR,27.0
DNKN 252100Z 00000KT CAVOK 30/19 Q1011 NOSIG,DNKN,2023-04-25T21:00:00Z,12.05,8.52,30.0,19.0,0,0,,6.21,29.852362,,,,,,TRUE,,,,,CAVOK,,,,,,,,VFR,,,,,,,,,,,,METAR,471.0
DIYO 252100Z 18006KT 8000 TS FEW020CB 26/22 Q1011 NOSIG,DIYO,2023-04-25T21:00:00Z,6.9,-5.35,26.0,22.0,180,6,,4.97,29.852362,,,,,,TRUE,,,,TS,FEW,2000,,,,,,,MVFR,,,,,,,,,,,,METAR,202.0
DIBK 252100Z 24008KT 8000 TS FEW013 FEW020CB 27/21 Q1011 NOSIG,DIBK,2023-04-25T21:00:00Z,7.73,-5.07,27.0,21.0,240,8,,4.97,29.852362,,,,,,TRUE,,,,TS,FEW,1300,FEW,2000,,,,,MVFR,,,,,,,,,,,,METAR,363.0
DGAA 252100Z 19009KT 9999 FEW020 29/25 Q1010 NOSIG,DGAA,2023-04-25T21:00:00Z,5.58,-0.17,29.0,25.0,190,9,,6.21,29.822834,,,,,,TRUE,,,,,FEW,2000,,,,,,,VFR,,,,,,,,,,,,METAR,68.0
DFOO 252100Z 00000KT CAVOK 29/23 Q1009,DFOO,2023-04-25T21:00:00Z,11.17,-4.32,29.0,23.0,0,0,,6.21,29.793306,,,,,,,,,,,CAVOK,,,,,,,,VFR,,,,,,,,,,,,METAR,461.0
DFFD 252100Z 34004KT CAVOK 34/14 Q1008 NOSIG,DFFD,2023-04-25T21:00:00Z,12.35,-1.52,34.0,14.0,340,4,,6.21,29.763779,,,,,,TRUE,,,,,CAVOK,,,,,,,,VFR,,,,,,,,,,,,METAR,309.0
DBBB 252100Z 20007KT 9999 SCT012 30/26 Q1010 NOSIG,DBBB,2023-04-25T21:00:00Z,6.35,2.38,30.0,26.0,200,7,,6.21,29.822834,,,,,,TRUE,,,,,SCT,1200,,,,,,,VFR,,,,,,,,,,,,METAR,4.0
DAUH 252100Z 16005KT CAVOK 29/M01 Q1013,DAUH,2023-04-25T21:00:00Z,31.67,6.15,29.0,-1.0,160,5,,6.21,29.911417,,,,,,,,,,,CAVOK,,,,,,,,VFR,,,,,,,,,,,,METAR,141.0
DAUG 252100Z 28005KT CAVOK 29/01 Q1015,DAUG,2023-04-25T21:00:00Z,32.38,3.78,29.0,1.0,280,5,,6.21,29.970472,,,,,,,,,,,CAVOK,,,,,,,,VFR,,,,,,,,,,,,METAR,444.0
DAUB 252100Z 29004KT CAVOK 29/// Q1012,DAUB,2023-04-25T21:00:00Z,34.78,5.73,,,290,4,,6.21,29.88189,,,,,,,,,,,CAVOK,,,,,,,,VFR,,,,,,,,,,,,METAR,75.0
DAUA 252100Z 36010KT CAVOK 28/M02 Q1013,DAUA,2023-04-25T21:00:00Z,27.83,-0.18,28.0,-2.0,360,10,,6.21,29.911417,,,,,,,,,,,CAVOK,,,,,,,,VFR,,,,,,,,,,,,METAR,278.0
DAOO 252100Z VRB02KT 9999 FEW033 21/06 Q1014,DAOO,2023-04-25T21:00:00Z,35.62,-0.62,21.0,6.0,0,2,,6.21,29.940945,,,,,,,,,,,FEW,3300,,,,,,,VFR,,,,,,,,,,,,METAR,87.0
DAON 252100Z VRB02KT CAVOK 21/05 Q1015,DAON,2023-04-25T21:00:00Z,35.02,-1.47,21.0,5.0,0,2,,6.21,29.970472,,,,,,,,,,,CAVOK,,,,,,,,VFR,,,,,,,,,,,,METAR,245.0
DAOI 252100Z VRB02KT CAVOK 26/M05 Q1015,DAOI,2023-04-25T21:00:00Z,36.22,1.32,26.0,-5.0,0,2,,6.21,29.970472,,,,,,,,,,,CAVOK,,,,,,,,VFR,,,,,,,,,,,,METAR,141.0
DAOB 252100Z 28004KT CAVOK 18/M05 Q1020,DAOB,2023-04-25T21:00:00Z,35.33,1.47,18.0,-5.0,280,4,,6.21,30.11811,,,,,,,,,,,CAVOK,,,,,,,,VFR,,,,,,,,,,,,METAR,976.0
DABS 252100Z 09005KT 9999 SCT033 19/M00 Q1018,DABS,2023-04-25T21:00:00Z,35.43,8.12,19.0,0.0,90,5,,6.21,30.059055,,,,,,,,,,,SCT,3300,,,,,,,VFR,,,,,,,,,,,,METAR,806.0
DABC 252100Z VRB02KT CAVOK 17/05 Q1018,DABC,2023-04-25T21:00:00Z,36.27,6.62,17.0,5.0,0,2,,6.21,30.059055,,,,,,,,,,,CAVOK,,,,,,,,VFR,,,,,,,,,,,,METAR,686.0
DABB 252100Z 27004KT 240V300 CAVOK 15/12 Q1015,DABB,2023-04-25T21:00:00Z,36.82,7.82,15.0,12.0,270,4,,6.21,29.970472,,,,,,,,,,,CAVOK,,,,,,,,VFR,,,,,,,,,,,,METAR,3.0
DAAT 252100Z 22005KT 200V260 CAVOK 27/M07 Q1016,DAAT,2023-04-25T21:00:00Z,22.82,5.47,27.0,-7.0,220,5,,6.21,30.0,,,,,,,,,,,CAVOK,,,,,,,,VFR,,,,,,,,,,,,METAR,1376.0
DAAS 252100Z 14004KT CAVOK 17/M02 Q1020,DAAS,2023-04-25T21:00:00Z,36.18,5.33,17.0,-2.0,140,4,,6.21,30.11811,,,,,,,,,,,CAVOK,,,,,,,,VFR,,,,,,,,,,,,METAR,1012.0
DAAG 252100Z 00000KT CAVOK 17/10 Q1015,DAAG,2023-04-25T21:00:00Z,36.68,3.22,17.0,10.0,0,0,,6.21,29.970472,,,,,,,,,,,CAVOK,,,,,,,,VFR,,,,,,,,,,,,METAR,18.0
CZZJ 252100Z AUTO 30008G15KT 11/M04 RMK AO1 SLP130 T01081042 58009,CZZJ,2023-04-25T21:00:00Z,53.58,-116.47,10.8,-4.2,300,8,15,,,1013.0,,TRUE,TRUE,,,,,,,,,,,,,,,,-0.9,,,,,,,,,,,METAR,927.0
CZVL 252100Z AUTO 32016G22KT 9SM FEW086 10/01 A2986 RMK SLP129,CZVL,2023-04-25T21:00:00Z,53.67,-113.85,10.0,1.0,320,16,22,9.0,29.861221,1012.9,,TRUE,,,,,,,,FEW,8600,,,,,,,VFR,,,,,,,,,,,,METAR,685.0
CZUM 252100Z AUTO 06009KT 9SM CLR 12/M03 A3023 RMK SLP256,CZUM,2023-04-25T21:00:00Z,53.55,-64.1,12.0,-3.0,60,9,,9.0,30.230314,1025.6,,TRUE,,,,,,,,CLR,,,,,,,,VFR,,,,,,,,,,,,METAR,431.0
CZTB 252100Z AUTO 00000KT 05/M06 RMK AO1 SOG 02 7001 SLP266 T00541057,CZTB,2023-04-25T21:00:00Z,48.37,-89.32,5.4,-5.7,0,0,,,,1026.6,,TRUE,TRUE,,,,,,,,,,,,,,,,,,,,,,,,,,,METAR,197.0
CZST 252100Z 25005KT 190V280 12SM SCT055 OVC075 07/01 A3017 RMK SC3AC5 SLP218,CZST,2023-04-25T21:00:00Z,55.93,-129.98,7.0,1.0,250,5,,12.0,30.171259,1021.8,,,,,,,,,,SCT,5500,OVC,7500,,,,,VFR,,,,,,,,,,,,METAR,10.0
CZSP 252100Z AUTO 05008KT 03/01 RMK AO1 SLP250 T00330013 55002,CZSP,2023-04-25T21:00:00Z,46.45,-62.58,3.3,1.3,50,8,,,,1025.0,,TRUE,TRUE,,,,,,,,,,,,,,,,-0.2,,,,,,,,,,,METAR,31.0
CZSM 252100Z AUTO 14006KT 11/02 RMK AO1 SLP070 T01090023 57007,CZSM,2023-04-25T21:00:00Z,60.03,-111.93,10.9,2.3,140,6,,,,1007.0,,TRUE,TRUE,,,,,,,,,,,,,,,,-0.7,,,,,,,,,,,SPECI,203.0
CZSJ 252100Z AUTO 14003KT 090V180 9SM SCT055 06/M08 A3030 RMK SLP280,CZSJ,2023-04-25T21:00:00Z,53.07,-93.35,6.0,-8.0,140,3,,9.0,30.301182,1028.0,,TRUE,,,,,,,,SCT,5500,,,,,,,VFR,,,,,,,,,,,,METAR,286.0
CZPC 252100Z AUTO 25028KT 9SM SCT190 SCT220 12/M03 A2993 RMK SLP151 DENSITY ALT 4500FT,CZPC,2023-04-25T21:00:00Z,49.52,-114.0,12.0,-3.0,250,28,,9.0,29.929134,1015.1,,TRUE,,,,,,,,SCT,19000,SCT,22000,,,,,VFR,,,,,,,,,,,,METAR,1187.0
CZMT 252100Z 15013G21KT 15SM BKN030 OVC120 09/03 A3008 RMK SC6AC2 SLP187,CZMT,2023-04-25T21:00:00Z,54.03,-132.13,9.0,3.0,150,13,21,15.0,30.079725,1018.7,,,,,,,,,,BKN,3000,OVC,12000,,,,,MVFR,,,,,,,,,,,,METAR,11.0
CZMJ 252100Z AUTO 13019KT 13/04 RMK AO1 SOG 01 8014 PK WND 12023/2034 SLP181 T01290037,CZMJ,2023-04-25T21:00:00Z,50.33,-105.53,12.9,3.7,130,19,,,,1018.1,,TRUE,TRUE,,,,,,,,,,,,,,,,,,,,,,,,,,,METAR,571.0
CZMD 252100Z AUTO 06006KT 050V190 9SM OVC055 05/M07 A3032 RMK SLP285,CZMD,2023-04-25T21:00:00Z,53.43,-91.77,5.0,-7.0,60,6,,9.0,30.318897,1028.5,,TRUE,,,,,,,,OVC,5500,,,,,,,VFR,,,,,,,,,,,,METAR,276.0
CZKD 252100Z AUTO 12004KT 07/M08 RMK AO1 SOG 29 8013 SLP268 T00701084,CZKD,2023-04-25T21:00:00Z,56.03,-96.52,7.0,-8.4,120,4,,,,1026.8,,TRUE,TRUE,,,,,,,,,,,,,,,,,,,,,,,,,,,METAR,190.0
CZHY 252100Z AUTO 01008KT 01/M00 RMK AO1 SLP080 T00131001 53008,CZHY,2023-04-25T21:00:00Z,60.83,-115.78,1.3,-0.1,10,8,,,,1008.0,,TRUE,TRUE,,,,,,,,,,,,,,,,0.8,,,,,,,,,,,SPECI,159.0
CZFS 252100Z AUTO 33014G21KT M04/M08 RMK AO1 PK WND 33023/2020 SLP162 T10411082 51019,CZFS,2023-04-25T21:00:00Z,61.77,-121.23,-4.1,-8.2,330,14,21,,,1016.2,,TRUE,TRUE,,,,,,,,,,,,,,,,1.9,,,,,,,,,,,SPECI,174.0
CZFM 252100Z VRB02KT 35SM SCT100 OVC260 M13/M21 A3025 RMK AS4CS4 SLP250,CZFM,2023-04-25T21:00:00Z,67.4,-134.87,-13.0,-21.0,0,2,,35.0,30.250984,1025.0,,,,,,,,,,SCT,10000,OVC,26000,,,,,VFR,,,,,,,,,,,,METAR,33.0
CZFA 252100Z 27007KT 230V340 30SM SCT060 07/M06 A2983 RMK CU4 SLP137,CZFA,2023-04-25T21:00:00Z,62.2,-133.38,7.0,-6.0,270,7,,30.0,29.828741,1013.7,,,,,,,,,,SCT,6000,,,,,,,VFR,,,,,,,,,,,,METAR,702.0
CZEV 252100Z AUTO 08005KT M16/M23 RMK AO1 SOG 52 8009 SLP259 T11551226,CZEV,2023-04-25T21:00:00Z,68.32,-133.48,-15.5,-22.6,80,5,,,,1025.9,,TRUE,TRUE,,,,,,,,,,,,,,,,,,,,,,,,,,,SPECI,92.0
CZEL 252100Z AUTO 25012KT 08/M04 RMK AO1 SLP210 T00771035 54000,CZEL,2023-04-25T21:00:00Z,43.65,-80.42,7.7,-3.5,250,12,,,,1021.0,,TRUE,TRUE,,,,,,,,,,,,,,,,,,,,,,,,,,,METAR,370.0
CZDB 252100Z AUTO 28006KT 11/02 RMK AO1 SLP234 T01120018 55004,CZDB,2023-04-25T21:00:00Z,45.42,-63.47,11.2,1.8,280,6,,,,1023.4,,TRUE,TRUE,,,,,,,,,,,,,,,,-0.4,,,,,,,,,,,METAR,38.0
CZCR 252100Z AUTO 08010KT 05/02 RMK AO1 SLP244 T00500023 55001,CZCR,2023-04-25T21:00:00Z,47.98,-66.33,5.0,2.3,80,10,,,,1024.4,,TRUE,TRUE,,,,,,,,,,,,,,,,-0.1,,,,,,,,,,,METAR,39.0
CZBF 252100Z AUTO 05005KT 020V090 9SM CLR 07/02 A3026 RMK SLP253,CZBF,2023-04-25T21:00:00Z,47.62,-65.75,7.0,2.0,50,5,,9.0,30.259842,1025.3,,TRUE,,,,,,,,CLR,,,,,,,,VFR,,,,,,,,,,,,SPECI,60.0
CYZY 252100Z AUTO 25015G21KT 9SM BKN086 07/M11 A2998 RMK SLP180,CYZY,2023-04-25T21:00:00Z,55.3,-123.13,7.0,-11.0,250,15,21,9.0,29.97933,1018.0,,TRUE,,,,,,,,BKN,8600,,,,,,,VFR,,,,,,,,,,,,SPECI,694.0
CYZX 252100Z 01010G15KT 15SM FEW250 11/03 A3021 RMK CI2 DENSITY ALT -553FT SLP233,CYZX,2023-04-25T21:00:00Z,44.98,-64.92,11.0,3.0,10,10,15,15.0,30.209646,1023.3,,,,,,,,,,FEW,25000,,,,,,,VFR,,,,,,,,,,,,SPECI,28.0
CYZW 252100Z 15006KT 100V200 25SM BKN055 04/M11 A2991 RMK CU6 SLP165,CYZW,2023-04-25T21:00:00Z,60.17,-132.75,4.0,-11.0,150,6,,25.0,29.911417,1016.5,,,,,,,,,,BKN,5500,,,,,,,VFR,,,,,,,,,,,,METAR,700.0
CYZV 252100Z 15008KT 30SM FEW090 FEW210 BKN240 08/00 A3029 RMK AC1CI2CI5 AC TR SLP263,CYZV,2023-04-25T21:00:00Z,50.22,-66.27,8.0,0.0,150,8,,30.0,30.28937,1026.3,,,,,,,,,,FEW,9000,FEW,21000,BKN,24000,,,VFR,,,,,,,,,,,,SPECI,43.0
CYZU 252100Z 33016G21KT 280V340 15SM FEW060 SCT087 BKN240 11/M06 A2985 RMK CU1AC3CI2 SLP128 DENSITY ALT 2900FT,CYZU,2023-04-25T21:00:00Z,54.15,-115.78,11.0,-6.0,330,16,21,15.0,29.84941,1012.8,,,,,,,,,,FEW,6000,SCT,8700,BKN,24000,,,VFR,,,,,,,,,,,,METAR,785.0
CYZT 252100Z 09006KT 20SM -RA SCT042 OVC058 10/05 A3025 RMK SC3ST5 SLP248,CYZT,2023-04-25T21:00:00Z,50.68,-127.37,10.0,5.0,90,6,,20.0,30.250984,1024.8,,,,,,,,,-RA,SCT,4200,OVC,5800,,,,,VFR,,,,,,,,,,,,METAR,13.0
CYZS 252100Z 09010KT 6SM -SN SCT007 OVC019 M03/M06 A3036 RMK ST4SC4 SLP288,CYZS,2023-04-25T21:00:00Z,64.2,-83.35,-3.0,-6.0,90,10,,6.0,30.360237,1028.8,,,,,,,,,-SN,SCT,700,OVC,1900,,,,,MVFR,,,,,,,,,,,,METAR,60.0
CYZR 252100Z AUTO 20008KT 9SM FEW020 BKN031 BKN038 OVC049 06/02 A3016 RMK SLP220,CYZR,2023-04-25T21:00:00Z,43.0,-82.3,6.0,2.0,200,8,,9.0,30.159449,1022.0,,TRUE,,,,,,,,FEW,2000,BKN,3100,BKN,3800,OVC,4900,VFR,,,,,,,,,,,,METAR,181.0
CYZG 252100Z 22006KT 15SM FEW014 BKN047 01/M02 A3034 RMK SF2SC5 LST STFD OB/ NXT 261200Z SLP297,CYZG,2023-04-25T21:00:00Z,62.17,-75.67,1.0,-2.0,220,6,,15.0,30.339567,1029.7,,,,,,,,,,FEW,1400,BKN,4700,,,,,VFR,,,,,,,,,,,,METAR,217.0
CYZF 252100Z 06010KT 15SM FEW055 BKN250 06/M03 A2978 RMK SC1CS6 SLP099,CYZF,2023-04-25T21:00:00Z,62.47,-114.45,6.0,-3.0,60,10,,15.0,29.778543,1009.9,,,,,,,,,,FEW,5500,BKN,25000,,,,,VFR,,,,,,,,,,,,SPECI,202.0
CYZE 252100Z AUTO 26008KT 9SM FEW029 SCT034 06/01 A3012 RMK SLP209,CYZE,2023-04-25T21:00:00Z,45.88,-82.57,6.0,1.0,260,8,,9.0,30.121063,1020.9,,TRUE,,,,,,,,FEW,2900,SCT,3400,,,,,VFR,,,,,,,,,,,,METAR,189.0
CYYZ 252100Z 24013KT 15SM BKN080 10/M01 A3013 RMK AC7 SLP209,CYYZ,2023-04-25T21:00:00Z,43.67,-79.62,10.0,-1.0,240,13,,15.0,30.129921,1020.9,,,,,,,,,,BKN,8000,,,,,,,VFR,,,,,,,,,,,,SPECI,171.0
CYYY 252100Z 04012KT 15SM BKN055 06/00 A3025 RMK SC6 SLP248,CYYY,2023-04-25T21:00:00Z,48.6,-68.22,6.0,0.0,40,12,,15.0,30.250984,1024.8,,,,,,,,,,BKN,5500,,,,,,,VFR,,,,,,,,,,,,METAR,43.0
CYYW 252100Z AUTO VRB03KT 9SM OVC055 05/M08 A3027 RMK SLP270,CYYW,2023-04-25T21:00:00Z,50.3,-88.9,5.0,-8.0,0,3,,9.0,30.268702,1027.0,,TRUE,,,,,,,,OVC,5500,,,,,,,VFR,,,,,,,,,,,,METAR,320.0
CYYU 252100Z 34007KT 1SM -SN FEW007 SCT010 BKN015 OVC020 00/M01 A3017 RMK SN3SC2SC2SC2SC2 SLP231,CYYU,2023-04-25T21:00:00Z,49.42,-82.47,0.0,-1.0,340,7,,1.0,30.171259,1023.1,,,,,,,,,-SN,FEW,700,SCT,1000,BKN,1500,OVC,2000,IFR,,,,,,,,,,,,METAR,228.0
CYYR 252100Z 05011KT 15SM SCT250 11/M02 A3030 RMK CI4 DENSITY ALT -614FT CONTRAILS SLP263,CYYR,2023-04-25T21:00:00Z,53.32,-60.42,11.0,-2.0,50,11,,15.0,30.301182,1026.3,,,,,,,,,,SCT,25000,,,,,,,VFR,,,,,,,,,,,,SPECI,42.0
CYYQ 252100Z 07007KT 15SM FEW250 M05/M07 A3039 RMK CI1 CI TR SLP298,CYYQ,2023-04-25T21:00:00Z,58.75,-94.07,-5.0,-7.0,70,7,,15.0,30.389763,1029.8,,,,,,,,,,FEW,25000,,,,,,,VFR,,,,,,,,,,,,SPECI,20.0
CYYN 252100Z AUTO 20015G23KT 9SM FEW096 16/02 A2988 RMK ICE MISG SLP130 DENSITY ALT 3600FT,CYYN,2023-04-25T21:00:00Z,50.28,-107.68,16.0,2.0,200,15,23,9.0,29.878937,1013.0,,TRUE,,,,,,,,FEW,9600,,,,,,,VFR,,,,,,,,,,,,METAR,814.0
CYYL 252100Z AUTO 15014G21KT 9SM CLR 08/M07 A3012 RMK SLP221,CYYL,2023-04-25T21:00:00Z,56.87,-101.07,8.0,-7.0,150,14,21,9.0,30.121063,1022.1,,TRUE,,,,,,,,CLR,,,,,,,,VFR,,,,,,,,,,,,METAR,351.0
CYYJ 252100Z 10008KT 090V150 30SM FEW040 FEW055 FEW110 SCT250 12/05 A3026 RMK CU1SC1AC1CI2 SC TR SLP250,CYYJ,2023-04-25T21:00:00Z,48.63,-123.42,12.0,5.0,100,8,,30.0,30.259842,1025.0,,,,,,,,,,FEW,4000,FEW,5500,FEW,11000,SCT,25000,VFR,,,,,,,,,,,,SPECI,16.0
CYYH 252100Z 14007KT 15SM FEW040 FEW060 SCT120 SCT210 M13/M15 A3044 RMK SC1SC2AC2CI1 SC TR CI TR SLP313,CYYH,2023-04-25T21:00:00Z,69.53,-93.57,-13.0,-15.0,140,7,,15.0,30.43996,1031.3,,,,,,,,,,FEW,4000,FEW,6000,SCT,12000,SCT,21000,VFR,,,,,,,,,,,,METAR,19.0
CYYG 252100Z 01010KT 15SM SCT014 BKN034 OVC100 05/02 A3025 RMK CU3SC4AC1 SLP248,CYYG,2023-04-25T21:00:00Z,46.28,-63.12,5.0,2.0,10,10,,15.0,30.250984,1024.8,,,,,,,,,,SCT,1400,BKN,3400,OVC,10000,,,VFR,,,,,,,,,,,,METAR,48.0
CYYF 252100Z 19005KT 120V210 15SM FEW080 BKN230 17/M01 A3009 RMK AC1CI7 AC TR SLP196 DENSITY ALT 1400FT,CYYF,2023-04-25T21:00:00Z,49.47,-119.6,17.0,-1.0,190,5,,15.0,30.088583,1019.6,,,,,,,,,,FEW,8000,BKN,23000,,,,,VFR,,,,,,,,,,,,METAR,342.0
CYYE 252100Z 33010KT 30SM SCT050 SCT250 08/M04 A2989 RMK SC3CI1 SLP141,CYYE,2023-04-25T21:00:00Z,58.83,-122.58,8.0,-4.0,330,10,,30.0,29.890747,1014.1,,,,,,,,,,SCT,5000,SCT,25000,,,,,VFR,,,,,,,,,,,,METAR,379.0
CYYD 252100Z 22004KT 200V330 25SM SCT055 BKN070 08/M05 A3007 RMK SC3AC2 SLP200,CYYD,2023-04-25T21:00:00Z,54.82,-127.18,8.0,-5.0,220,4,,25.0,30.070866,1020.0,,,,,,,,,,SCT,5500,BKN,7000,,,,,VFR,,,,,,,,,,,,METAR,527.0
CYYC 252100Z 28017G24KT 40SM BKN230 BKN300 15/M08 A2985 RMK CC5CI2 SLP129 DENSITY ALT 4600FT,CYYC,2023-04-25T21:00:00Z,51.12,-114.02,15.0,-8.0,280,17,24,40.0,29.84941,1012.9,,,,,,,,,,BKN,23000,BKN,30000,,,,,VFR,,,,,,,,,,,,SPECI,1085.0
CYYB 252100Z 19006KT 30SM BKN015 BKN090 04/01 A3007 RMK CU6AC1 SLP199,CYYB,2023-04-25T21:00:00Z,46.35,-79.42,4.0,1.0,190,6,,30.0,30.070866,1019.9,,,,,,,,,,BKN,1500,BKN,9000,,,,,MVFR,,,,,,,,,,,,METAR,360.0
CYXZ 252100Z 36006KT 320V050 12SM BKN027 OVC044 04/M03 A3018 RMK SC6SC2 SLP238,CYXZ,2023-04-25T21:00:00Z,47.97,-84.77,4.0,-3.0,360,6,,12.0,30.180119,1023.8,,,,,,,,,,BKN,2700,OVC,4400,,,,,MVFR,,,,,,,,,,,,METAR,287.0
CYXY 252100Z 19010G15KT 150V230 40SM FEW055 05/M08 A2986 RMK CU2 SLP148,CYXY,2023-04-25T21:00:00Z,60.72,-135.07,5.0,-8.0,190,10,15,40.0,29.861221,1014.8,,,,,,,,,,FEW,5500,,,,,,,VFR,,,,,,,,,,,,SPECI,677.0
CYXX 252100Z VRB03KT 25SM SCT030 BKN039 BKN190 13/06 A3026 RMK CU3SC3CS1 SLP249,CYXX,2023-04-25T21:00:00Z,49.03,-122.38,13.0,6.0,0,3,,25.0,30.259842,1024.9,,,,,,,,,,SCT,3000,BKN,3900,BKN,19000,,,VFR,,,,,,,,,,,,SPECI,54.0
CYXU 252100Z 23011KT 10SM -SHRA SCT017TCU OVC030 05/03 A3015 RMK TCU4SC4 VIS LWR W-NW SLP221,CYXU,2023-04-25T21:00:00Z,43.03,-81.15,5.0,3.0,230,11,,10.0,30.15059,1022.1,,,,,,,,,-SHRA,SCT,1700,OVC,3000,,,,,MVFR,,,,,,,,,,,,SPECI,278.0
CYXT 252100Z 17013G21KT 20SM VCSH FEW020 SCT042 SCT120 BKN230 08/03 A3015 RMK CF1CU2AC1CS3 SH SW SLP219,CYXT,2023-04-25T21:00:00Z,54.47,-128.57,8.0,3.0,170,13,21,20.0,30.15059,1021.9,,,,,,,,,VCSH,FEW,2000,SCT,4200,SCT,12000,BKN,23000,VFR,,,,,,,,,,,,METAR,213.0
CYXS 252100Z AUTO 28014G21KT 9SM BKN091 09/M07 A3006 RMK SLP203,CYXS,2023-04-25T21:00:00Z,53.88,-122.68,9.0,-7.0,280,14,21,9.0,30.059055,1020.3,,TRUE,,,,,,,,BKN,9100,,,,,,,VFR,,,,,,,,,,,,METAR,685.0
CYXR 252100Z AUTO 29005KT 250V330 9SM FEW017 SCT024 BKN033 OVC044 03/M02 A3009 RMK SLP203,CYXR,2023-04-25T21:00:00Z,47.7,-79.85,3.0,-2.0,290,5,,9.0,30.088583,1020.3,,TRUE,,,,,,,,FEW,1700,SCT,2400,BKN,3300,OVC,4400,VFR,,,,,,,,,,,,METAR,244.0
CYXQ 252100Z 05013G19KT 30SM SCT080 OVC250 02/M07 A2975 RMK AC3CI5 SLP122,CYXQ,2023-04-25T21:00:00Z,62.42,-140.87,2.0,-7.0,50,13,19,30.0,29.749016,1012.2,,,,,,,,,,SCT,8000,OVC,25000,,,,,VFR,,,,,,,,,,,,METAR,663.0
CYXP 252100Z 25012KT 15SM FEW004 SCT015 OVC027 01/M00 A3034 RMK ST2SC2SC4 SLP279,CYXP,2023-04-25T21:00:00Z,66.15,-65.72,1.0,0.0,250,12,,15.0,30.339567,1027.9,,,,,,,,,,FEW,400,SCT,1500,OVC,2700,,,MVFR,,,,,,,,,,,,METAR,29.0
CYXN 252100Z 07009KT 15SM OVC005 M07/M08 A3043 RMK ST8 SLP307,CYXN,2023-04-25T21:00:00Z,62.23,-92.58,-7.0,-8.0,70,9,,15.0,30.431103,1030.7,,,,,,,,,,OVC,500,,,,,,,IFR,,,,,,,,,,,,METAR,9.0
CYXL 252100Z 28005KT 230V340 15SM FEW050 06/M08 A3028 RMK CF1 SLP276,CYXL,2023-04-25T21:00:00Z,50.12,-91.9,6.0,-8.0,280,5,,15.0,30.280512,1027.6,,,,,,,,,,FEW,5000,,,,,,,VFR,,,,,,,,,,,,METAR,381.0
CYXJ 252100Z 26020G30KT 50SM SCT071 BKN240 09/M09 A2986 RMK CU4CI1 SLP138,CYXJ,2023-04-25T21:00:00Z,56.25,-120.73,9.0,-9.0,260,20,30,50.0,29.861221,1013.8,,,,,,,,,,SCT,7100,BKN,24000,,,,,VFR,,,,,,,,,,,,METAR,700.0
CYXH 252100Z 23015G//KT 30SM BKN080 OVC270 19/M01 A2984 RMK CU5CI3 WIND EST SLP109 DENSITY ALT 3500FT,CYXH,2023-04-25T21:00:00Z,50.02,-110.72,19.0,-1.0,,,,30.0,29.840551,1010.9,,,,,,,,,,BKN,8000,OVC,27000,,,,,VFR,,,,,,,,,,,,METAR,717.0
CYXE 252100Z 17017G23KT 15SM SCT065 BKN090 OVC300 16/01 A2988 RMK SC3AC2CI3 SLP134 DENSITY ALT 2300FT,CYXE,2023-04-25T21:00:00Z,52.17,-106.7,16.0,1.0,170,17,23,15.0,29.878937,1013.4,,,,,,,,,,SCT,6500,BKN,9000,OVC,30000,,,VFR,,,,,,,,,,,,METAR,504.0
CYXC 252100Z 36003KT 45SM SCT075 BKN240 15/M04 A3001 RMK AC4CI3 SLP174 DENSITY ALT 3800FT,CYXC,2023-04-25T21:00:00Z,49.6,-115.78,15.0,-4.0,360,3,,45.0,30.008858,1017.4,,,,,,,,,,SCT,7500,BKN,24000,,,,,VFR,,,,,,,,,,,,METAR,928.0
CYWL 252100Z 27011G16KT 220V290 15SM FEW060 BKN230 12/M10 A3005 RMK CU1CI6 SLP194 DENSITY ALT 3400FT,CYWL,2023-04-25T21:00:00Z,52.18,-122.07,12.0,-10.0,270,11,16,15.0,30.050198,1019.4,,,,,,,,,,FEW,6000,BKN,23000,,,,,VFR,,,,,,,,,,,,METAR,942.0
CYWK 252100Z 15003KT 100V200 15SM SCT150 11/M05 A3020 RMK AC3 SLP252,CYWK,2023-04-25T21:00:00Z,52.92,-66.87,11.0,-5.0,150,3,,15.0,30.200787,1025.2,,,,,,,,,,SCT,15000,,,,,,,VFR,,,,,,,,,,,,SPECI,547.0
CYWJ 252100Z 29009KT 270V340 15SM SCT024 SCT080 M09/M16 A3008 RMK SC1AC2 SLP210,CYWJ,2023-04-25T21:00:00Z,65.22,-123.43,-9.0,-16.0,290,9,,15.0,30.079725,1021.0,,,,,,,,,,SCT,2400,SCT,8000,,,,,VFR,,,,,,,,,,,,METAR,208.0
CYWH 252100Z 17007KT 15SM FEW030 BKN220 11/05 A3027 RMK SC2CI4 SLP252,CYWH,2023-04-25T21:00:00Z,48.42,-123.38,11.0,5.0,170,7,,15.0,30.268702,1025.2,,,,,,,,,,FEW,3000,BKN,22000,,,,,VFR,,,,,,,,,,,,METAR,4.0
CYWG 252100Z VRB08KT 15SM BKN055 09/M04 A3027 RMK SC5 SLP265,CYWG,2023-04-25T21:00:00Z,49.9,-97.23,9.0,-4.0,0,8,,15.0,30.268702,1026.5,,,,,,,,,,BKN,5500,,,,,,,VFR,,,,,,,,,,,,SPECI,238.0
CYWE 252100Z AUTO 06009G15KT 9SM CLR 02/M04 A2985 RMK ICE MISG SLP140,CYWE,2023-04-25T21:00:00Z,64.18,-114.08,2.0,-4.0,60,9,15,9.0,29.84941,1014.0,,TRUE,,,,,,,,CLR,,,,,,,,VFR,,,,,,,,,,,,METAR,374.0
CYWA 252100Z 11008KT 10SM FEW045 BKN065 OVC075 07/02 A3011 RMK SC2SC4AC2 DENSITY ALT -589FT SLP201,CYWA,2023-04-25T21:00:00Z,45.95,-77.32,7.0,2.0,110,8,,10.0,30.109253,1020.1,,,,,,,,,,FEW,4500,BKN,6500,OVC,7500,,,VFR,,,,,,,,,,,,METAR,121.0
CYVV 252100Z 28007KT 240V300 15SM BKN020 04/00 A3014 RMK SC6 SLP218,CYVV,2023-04-25T21:00:00Z,44.75,-81.1,4.0,0.0,280,7,,15.0,30.138779,1021.8,,,,,,,,,,BKN,2000,,,,,,,MVFR,,,,,,,,,,,,METAR,221.0
CYVT 252100Z AUTO 14011G16KT 9SM FEW100 SCT140 11/01 A2980 RMK SLP108,CYVT,2023-04-25T21:00:00Z,55.83,-108.42,11.0,1.0,140,11,16,9.0,29.799213,1010.8,,TRUE,,,,,,,,FEW,10000,SCT,14000,,,,,VFR,,,,,,,,,,,,METAR,438.0
CYVR 252100Z 23009G16KT 30SM FEW040 FEW055 FEW180 SCT210 12/08 A3026 RMK CU2SC1AC1CI2 SC TR AC TR SLP250,CYVR,2023-04-25T21:00:00Z,49.17,-123.17,12.0,8.0,230,9,16,30.0,30.259842,1025.0,,,,,,,,,,FEW,4000,FEW,5500,FEW,18000,SCT,21000,VFR,,,,,,,,,,,,SPECI,2.0
CYVQ 252100Z 28011G16KT 30SM FEW045 FEW220 FEW250 M08/M15 A3017 RMK SC1CC1CI1 SC TR SLP227,CYVQ,2023-04-25T21:00:00Z,65.27,-126.78,-8.0,-15.0,280,11,16,30.0,30.171259,1022.7,,,,,,,,,,FEW,4500,FEW,22000,FEW,25000,,,VFR,,,,,,,,,,,,METAR,63.0
CYVP 252100Z 03008KT 15SM BKN230 07/01 A3031 RMK CI6 SLP270,CYVP,2023-04-25T21:00:00Z,58.12,-68.42,7.0,1.0,30,8,,15.0,30.31004,1027.0,,,,,,,,,,BKN,23000,,,,,,,VFR,,,,,,,,,,,,SPECI,28.0
CYVO 252100Z 17012KT 15SM -SHRA SCT033 BKN060 05/M01 A3006 RMK CU3SC3 SLP199,CYVO,2023-04-25T21:00:00Z,48.07,-77.77,5.0,-1.0,170,12,,15.0,30.059055,1019.9,,,,,,,,,-SHRA,SCT,3300,BKN,6000,,,,,VFR,,,,,,,,,,,,METAR,329.0
CYVM 252100Z 36004KT 15SM FEW024 OVC032 M02/M05 A3032 RMK SC1SC7 SLP271,CYVM,2023-04-25T21:00:00Z,67.55,-64.02,-2.0,-5.0,360,4,,15.0,30.318897,1027.1,,,,,,,,,,FEW,2400,OVC,3200,,,,,VFR,,,,,,,,,,,,METAR,3.0
CYVL 252100Z AUTO 35012KT 9SM -SN CLR M13/M16 A3009 RMK SLP224,CYVL,2023-04-25T21:00:00Z,67.02,-126.13,-13.0,-16.0,350,12,,9.0,30.088583,1022.4,,TRUE,,,,,,,-SN,CLR,,,,,,,,VFR,,,,,,,,,,,,METAR,261.0
CYVC 252100Z 10011KT 15SM -SHRA SCT027 OVC050 04/01 A2998 RMK SC4SC4 CVCTV CLD EMBD SLP173,CYVC,2023-04-25T21:00:00Z,55.15,-105.27,4.0,1.0,100,11,,15.0,29.97933,1017.3,,,,,,,,,-SHRA,SCT,2700,OVC,5000,,,,,VFR,,,,,,,,,,,,METAR,378.0
CYUX 252100Z 34013KT 10SM DRSN FEW005 FEW100 M09/M12 A3044 RMK SF1AC1 SF TR SLP311,CYUX,2023-04-25T21:00:00Z,68.77,-81.22,-9.0,-12.0,340,13,,10.0,30.43996,1031.1,,,,,,,,,DRSN,FEW,500,FEW,10000,,,,,VFR,,,,,,,,,,,,METAR,8.0
CYUT 252100Z 35012KT 15SM FEW250 M11/M14 A3045 RMK CC1 SLP317,CYUT,2023-04-25T21:00:00Z,66.52,-86.22,-11.0,-14.0,350,12,,15.0,30.448818,1031.7,,,,,,,,,,FEW,25000,,,,,,,VFR,,,,,,,,,,,,METAR,22.0
CYUL 252100Z 28004KT 200V350 15SM FEW040 SCT078 BKN110 09/04 A3016 RMK CU1AC3AC4 CU TR SLP218,CYUL,2023-04-25T21:00:00Z,45.47,-73.73,9.0,4.0,280,4,,15.0,30.159449,1021.8,,,,,,,,,,FEW,4000,SCT,7800,BKN,11000,,,VFR,,,,,,,,,,,,SPECI,31.0
CYUB 252100Z 12008KT 15SM BKN010 M18/M21 A3031 RMK SC7 SLP266,CYUB,2023-04-25T21:00:00Z,69.43,-133.02,-18.0,-21.0,120,8,,15.0,30.31004,1026.6,,,,,,,,,,BKN,1000,,,,,,,MVFR,,,,,,,,,,,,METAR,5.0
CYUA 252100Z AUTO 12011KT ////SM NCD ///// A////,CYUA,2023-04-25T21:00:00Z,68.92,-137.23,,,120,11,,,,,,TRUE,,,,,,,,CLR,,,,,,,,,,,,,,,,,,,,METAR,25.0
CYTS 252100Z 35010KT 3SM -SN OVC026 00/M01 A3012 RMK SC8 SLP219,CYTS,2023-04-25T21:00:00Z,48.57,-81.37,0.0,-1.0,350,10,,3.0,30.121063,1021.9,,,,,,,,,-SN,OVC,2600,,,,,,,MVFR,,,,,,,,,,,,METAR,290.0
CYTR 252100Z 21012KT 15SM FEW040 SCT095 OVC250 08/01 A3016 RMK SC2AC1CI5 DENSITY ALT -725FT LTNG DTCTRS REP STRIKES 15 NM N QUAD SLP216,CYTR,2023-04-25T21:00:00Z,44.12,-77.52,8.0,1.0,210,12,,15.0,30.159449,1021.6,,,,,,,,,,FEW,4000,SCT,9500,OVC,25000,,,VFR,,,,,,,,,,,,SPECI,80.0
CYTH 252100Z VRB05KT 15SM FEW210 09/M08 A3024 RMK CI1 SLP257,CYTH,2023-04-25T21:00:00Z,55.8,-97.83,9.0,-8.0,0,5,,15.0,30.239174,1025.7,,,,,,,,,,FEW,21000,,,,,,,VFR,,,,,,,,,,,,METAR,212.0
CYSP 252100Z 03008G18KT 340V060 15SM SCT031 BKN045 BKN052 OVC240 03/M04 A3022 RMK SC3SC2SC1CI2 LAST STFD OBS/NEXT 261200UTC SLP254,CYSP,2023-04-25T21:00:00Z,48.75,-86.35,3.0,-4.0,30,8,18,15.0,30.221457,1025.4,,,,,,,,,,SCT,3100,BKN,4500,BKN,5200,OVC,24000,VFR,,,,,,,,,,,,METAR,312.0
CYSN 252100Z 26018G23KT 15SM BKN046 OVC070 08/M00 A3016 RMK SC7AC1 SLP219,CYSN,2023-04-25T21:00:00Z,43.2,-79.17,8.0,0.0,260,18,23,15.0,30.159449,1021.9,,,,,,,,,,BKN,4600,OVC,7000,,,,,VFR,,,,,,,,,,,,METAR,96.0
CYSM 252100Z 14009KT 100V160 15SM BKN035 OVC110 11/02 A2969 RMK SC7AC1 SLP067,CYSM,2023-04-25T21:00:00Z,60.03,-111.92,11.0,2.0,140,9,,15.0,29.68996,1006.7,,,,,,,,,,BKN,3500,OVC,11000,,,,,VFR,,,,,,,,,,,,METAR,203.0
CYSK 252100Z 01015KT 15SM BKN008 M01/M03 A3033 RMK SF5 SLP275,CYSK,2023-04-25T21:00:00Z,56.53,-79.25,-1.0,-3.0,10,15,,15.0,30.33071,1027.5,,,,,,,,,,BKN,800,,,,,,,IFR,,,,,,,,,,,,METAR,28.0
CYSJ 252100Z 08004KT 010V150 15SM BKN020 BKN160 08/03 A3023 RMK SC6AC1 SLP244,CYSJ,2023-04-25T21:00:00Z,45.32,-65.88,8.0,3.0,80,4,,15.0,30.230314,1024.4,,,,,,,,,,BKN,2000,BKN,16000,,,,,MVFR,,,,,,,,,,,,SPECI,89.0
CYSF 252100Z AUTO 14014G24KT 110V170 9SM FEW110 12/M04 A2991 RMK SLP143,CYSF,2023-04-25T21:00:00Z,59.25,-105.83,12.0,-4.0,140,14,24,9.0,29.911417,1014.3,,TRUE,,,,,,,,FEW,11000,,,,,,,VFR,,,,,,,,,,,,METAR,238.0
CYSC 252100Z AUTO 12006KT 9SM -RA OVC028 07/05 A3014 RMK SLP218,CYSC,2023-04-25T21:00:00Z,45.43,-71.68,7.0,5.0,120,6,,9.0,30.138779,1021.8,,TRUE,,,,,,,-RA,OVC,2800,,,,,,,MVFR,,,,,,,,,,,,METAR,236.0
CYSB 252100Z 36008KT 310V030 15SM -SHSN SCT009 BKN014 OVC038 03/01 A3008 RMK SF3CU3SC2 SLP205,CYSB,2023-04-25T21:00:00Z,46.63,-80.8,3.0,1.0,360,8,,15.0,30.079725,1020.5,,,,,,,,,-SHSN,SCT,900,BKN,1400,OVC,3800,,,MVFR,,,,,,,,,,,,METAR,349.0
CYRV 252100Z AUTO VRB02KT 9SM OVC076 14/M01 A3007 RMK SLP193,CYRV,2023-04-25T21:00:00Z,50.97,-118.17,14.0,-1.0,0,2,,9.0,30.070866,1019.3,,TRUE,,,,,,,,OVC,7600,,,,,,,VFR,,,,,,,,,,,,METAR,456.0
CYRT 252100Z 06006KT 020V080 15SM BKN008 OVC250 M07/M08 A3043 RMK SC7CI1 SLP311,CYRT,2023-04-25T21:00:00Z,62.82,-92.12,-7.0,-8.0,60,6,,15.0,30.431103,1031.1,,,,,,,,,,BKN,800,OVC,25000,,,,,IFR,,,,,,,,,,,,METAR,29.0
CYRQ 252100Z AUTO 14006KT 130V200 9SM FEW038 OVC091 10/02 A3015 RMK SLP213,CYRQ,2023-04-25T21:00:00Z,46.35,-72.68,10.0,2.0,140,6,,9.0,30.15059,1021.3,,TRUE,,,,,,,,FEW,3800,OVC,9100,,,,,VFR,,,,,,,,,,,,METAR,58.0
CYRL 252100Z 29004KT 15SM FEW050 06/M11 A3028 RMK SC2 SLP278,CYRL,2023-04-25T21:00:00Z,51.07,-93.78,6.0,-11.0,290,4,,15.0,30.280512,1027.8,,,,,,,,,,FEW,5000,,,,,,,VFR,,,,,,,,,,,,METAR,370.0
CYRJ 252100Z VRB02KT 25SM BKN051 07/06 A3015 RMK SC7 SLP218,CYRJ,2023-04-25T21:00:00Z,48.52,-72.27,7.0,6.0,0,2,,25.0,30.15059,1021.8,,,,,,,,,,BKN,5100,,,,,,,VFR,,,,,,,,,,,,METAR,173.0
CYRB 252100Z 18017KT 4SM IC DRSN BKN039 M20/M23 A3032 RMK SC7 SLP280,CYRB,2023-04-25T21:00:00Z,74.72,-94.97,-20.0,-23.0,180,17,,4.0,30.318897,1028.0,,,,,,,,,IC DRSN,BKN,3900,,,,,,,MVFR,,,,,,,,,,,,METAR,59.0
CYRA 252100Z 34015KT 15SM BKN098 M02/M06 A2991 RMK AS7 SLP147,CYRA,2023-04-25T21:00:00Z,64.12,-117.32,-2.0,-6.0,340,15,,15.0,29.911417,1014.7,,,,,,,,,,BKN,9800,,,,,,,VFR,,,,,,,,,,,,METAR,232.0
CYQZ 252100Z AUTO 32011KT 300V030 9SM BKN086 13/M05 A3007 RMK SLP199,CYQZ,2023-04-25T21:00:00Z,53.02,-122.52,13.0,-5.0,320,11,,9.0,30.070866,1019.9,,TRUE,,,,,,,,BKN,8600,,,,,,,VFR,,,,,,,,,,,,METAR,548.0
CYQY 252100Z 02007KT 15SM BKN240 07/M01 A3023 RMK CI6 SLP243,CYQY,2023-04-25T21:00:00Z,46.17,-60.03,7.0,-1.0,20,7,,15.0,30.230314,1024.3,,,,,,,,,,BKN,24000,,,,,,,VFR,,,,,,,,,,,,SPECI,58.0
CYQW 252100Z AUTO 10014G19KT 9SM BKN096 BKN110 12/04 A2986 RMK SLP129 DENSITY ALT 2000FT,CYQW,2023-04-25T21:00:00Z,52.77,-108.25,12.0,4.0,100,14,19,9.0,29.861221,1012.9,,TRUE,,,,,,,,BKN,9600,BKN,11000,,,,,VFR,,,,,,,,,,,,METAR,545.0
CYQV 252100Z AUTO 17010G21KT 9SM FEW110 09/M03 A3013 RMK SLP225,CYQV,2023-04-25T21:00:00Z,51.27,-102.47,9.0,-3.0,170,10,21,9.0,30.129921,1022.5,,TRUE,,,,,,,,FEW,11000,,,,,,,VFR,,,,,,,,,,,,METAR,493.0
CYQU 252100Z 28031G37KT 25SM VCSH SCT065TCU BKN240 10/M07 A2988 RMK TCU4CI1 SLP144,CYQU,2023-04-25T21:00:00Z,55.18,-118.88,10.0,-7.0,280,31,37,25.0,29.878937,1014.4,,,,,,,,,VCSH,SCT,6500,BKN,24000,,,,,VFR,,,,,,,,,,,,METAR,668.0
CYQT 252100Z 01007KT 330V040 20SM BKN050 05/M06 A3028 RMK SC7 SLP266,CYQT,2023-04-25T21:00:00Z,48.37,-89.32,5.0,-6.0,10,7,,20.0,30.280512,1026.6,,,,,,,,,,BKN,5000,,,,,,,VFR,,,,,,,,,,,,METAR,197.0
CYQR 252100Z 15023KT 15SM FEW140 FEW200 BKN260 09/00 A3007 RMK AC1CI1CI4 SLP205,CYQR,2023-04-25T21:00:00Z,50.43,-104.67,9.0,0.0,150,23,,15.0,30.070866,1020.5,,,,,,,,,,FEW,14000,FEW,20000,BKN,26000,,,VFR,,,,,,,,,,,,METAR,576.0
CYQQ 252100Z 11007KT 20SM FEW035 BKN140 12/05 A3027 RMK SC1AC5 DENSITY ALT -527FT SLP251,CYQQ,2023-04-25T21:00:00Z,49.72,-124.9,12.0,5.0,110,7,,20.0,30.268702,1025.1,,,,,,,,,,FEW,3500,BKN,14000,,,,,VFR,,,,,,,,,,,,SPECI,24.0
CYQM 252100Z 06005KT 15SM OVC021 05/02 A3026 RMK SC8 SLP250,CYQM,2023-04-25T21:00:00Z,46.12,-64.67,5.0,2.0,60,5,,15.0,30.259842,1025.0,,,,,,,,,,OVC,2100,,,,,,,MVFR,,,,,,,,,,,,SPECI,67.0
CYQL 252100Z 26028G37KT 60SM FEW080 FEW170 BKN270 17/M03 A2988 RMK AC1AC1CI6 AC TR SLP128 DENSITY ALT 4000FT,CYQL,2023-04-25T21:00:00Z,49.63,-112.8,17.0,-3.0,260,28,37,60.0,29.878937,1012.8,,,,,,,,,,FEW,8000,FEW,17000,BKN,27000,,,VFR,,,,,,,,,,,,METAR,923.0
CYQK 252100Z 21004KT 120V240 15SM SCT055 06/M08 A3028 RMK SC4 SLP275,CYQK,2023-04-25T21:00:00Z,49.78,-94.37,6.0,-8.0,210,4,,15.0,30.280512,1027.5,,,,,,,,,,SCT,5500,,,,,,,VFR,,,,,,,,,,,,METAR,413.0
CYQI 252100Z 02007KT 310V040 15SM OVC030 08/03 A3022 RMK SC8 SLP238,CYQI,2023-04-25T21:00:00Z,43.83,-66.08,8.0,3.0,20,7,,15.0,30.221457,1023.8,,,,,,,,,,OVC,3000,,,,,,,MVFR,,,,,,,,,,,,METAR,37.0
CYQH 252100Z 25016KT 210V310 40SM FEW032 BKN053 BKN080 04/M06 A2991 RMK CF1CU4AC1 TCU ASOCTD/VIRGA ALQDS SLP162,CYQH,2023-04-25T21:00:00Z,60.12,-128.82,4.0,-6.0,250,16,,40.0,29.911417,1016.2,,,,,,,,,,FEW,3200,BKN,5300,BKN,8000,,,VFR,,,,,,,,,,,,METAR,692.0
CYQF 252100Z AUTO 31012G21KT 9SM FEW096 BKN200 16/M08 A2982 RMK SLP112 DENSITY ALT 3900FT,CYQF,2023-04-25T21:00:00Z,52.17,-113.9,16.0,-8.0,310,12,21,9.0,29.819881,1011.2,,TRUE,,,,,,,,FEW,9600,BKN,20000,,,,,VFR,,,,,,,,,,,,METAR,912.0
CYQD 252100Z AUTO 13021G27KT 9SM CLR 07/M05 A3016 RMK SLP229,CYQD,2023-04-25T21:00:00Z,53.97,-101.08,7.0,-5.0,130,21,27,9.0,30.159449,1022.9,,TRUE,,,,,,,,CLR,,,,,,,,VFR,,,,,,,,,,,,METAR,268.0
CYQB 252100Z 08011G16KT 15SM -RA BKN010 BKN022 BKN041 07/06 A3018 RMK SC5SC1SC1 SLP224,CYQB,2023-04-25T21:00:00Z,46.78,-71.38,7.0,6.0,80,11,16,15.0,30.180119,1022.4,,,,,,,,,-RA,BKN,1000,BKN,2200,BKN,4100,,,MVFR,,,,,,,,,,,,SPECI,73.0
CYQA 252100Z AUTO 28009KT 240V320 9SM BKN028 OVC032 05/01 A3011 RMK SLP208,CYQA,2023-04-25T21:00:00Z,44.97,-79.3,5.0,1.0,280,9,,9.0,30.109253,1020.8,,TRUE,,,,,,,,BKN,2800,OVC,3200,,,,,MVFR,,,,,,,,,,,,METAR,277.0
CYPY 252100Z AUTO 18009KT 140V210 9SM FEW150 12/02 A2971 RMK SLP072,CYPY,2023-04-25T21:00:00Z,58.77,-111.12,12.0,2.0,180,9,,9.0,29.71063,1007.2,,TRUE,,,,,,,,FEW,15000,,,,,,,VFR,,,,,,,,,,,,METAR,225.0
CYPX 252100Z AUTO 32006KT 9SM BKN009 OVC081 M01/M03 A3038 RMK SLP291,CYPX,2023-04-25T21:00:00Z,60.03,-77.27,-1.0,-3.0,320,6,,9.0,30.380905,1029.1,,TRUE,,,,,,,,BKN,900,OVC,8100,,,,,IFR,,,,,,,,,,,,METAR,10.0
CYPW 252100Z 28008KT 240V300 25SM FEW024 FEW038 BKN140 BKN220 BKN250 12/07 A3027 RMK CU2SC1AC3CC1CI1 SC TR CC TR CONTRAILS SLP254,CYPW,2023-04-25T21:00:00Z,49.83,-124.5,12.0,7.0,280,8,,25.0,30.268702,1025.4,,,,,,,,,,FEW,2400,FEW,3800,BKN,14000,BKN,22000,VFR,,,,,,,,,,,,METAR,122.0
CYPR 252100Z AUTO 18008KT 130V200 9SM FEW025 OVC060 09/04 A3013 RMK SLP205,CYPR,2023-04-25T21:00:00Z,54.28,-130.45,9.0,4.0,180,8,,9.0,30.129921,1020.5,,TRUE,,,,,,,,FEW,2500,OVC,6000,,,,,VFR,,,,,,,,,,,,METAR,30.0
CYPO 252100Z AUTO 34007KT 320V040 9SM OVC031 00/M06 A3039 RMK SLP297,CYPO,2023-04-25T21:00:00Z,54.98,-85.43,0.0,-6.0,340,7,,9.0,30.389763,1029.7,,TRUE,,,,,,,,OVC,3100,,,,,,,VFR,,,,,,,,,,,,METAR,49.0
CYPL 252100Z AUTO VRB03KT 9SM OVC048 03/M08 A3030 RMK SLP285,CYPL,2023-04-25T21:00:00Z,51.43,-90.22,3.0,-8.0,0,3,,9.0,30.301182,1028.5,,TRUE,,,,,,,,OVC,4800,,,,,,,VFR,,,,,,,,,,,,SPECI,390.0
CYPH 252100Z AUTO 01010KT 9SM FEW010 M00/M03 A3035 RMK SLP283,CYPH,2023-04-25T21:00:00Z,58.47,-78.08,0.0,-3.0,10,10,,9.0,30.351377,1028.3,,TRUE,,,,,,,,FEW,1000,,,,,,,VFR,,,,,,,,,,,,METAR,24.0
CYPG 252100Z 17009KT 130V220 15SM SCT053 SCT210 10/M04 A3027 RMK CU3CI1 DENSITY ALT 86FT SLP263,CYPG,2023-04-25T21:00:00Z,49.9,-98.28,10.0,-4.0,170,9,,15.0,30.268702,1026.3,,,,,,,,,,SCT,5300,SCT,21000,,,,,VFR,,,,,,,,,,,,METAR,270.0
CYPD 252100Z AUTO 27008KT 9SM OVC033 07/M00 A3022 RMK SLP239,CYPD,2023-04-25T21:00:00Z,45.67,-61.37,7.0,0.0,270,8,,9.0,30.221457,1023.9,,TRUE,,,,,,,,OVC,3300,,,,,,,VFR,,,,,,,,,,,,METAR,106.0
CYPC 252100Z 28003KT 15SM FEW006 FEW210 M20/M23 A3033 RMK ST1CI2 ST TR SLP274,CYPC,2023-04-25T21:00:00Z,69.37,-124.07,-20.0,-23.0,280,3,,15.0,30.33071,1027.4,,,,,,,,,,FEW,600,FEW,21000,,,,,VFR,,,,,,,,,,,,METAR,5.0
CYPA 252100Z 14019KT 15SM -SHRA BKN051 OVC100 09/00 A2997 RMK SC7AC1 CVCTV CLD EMBD PRESFR SLP167,CYPA,2023-04-25T21:00:00Z,53.22,-105.67,9.0,0.0,140,19,,15.0,29.970472,1016.7,,,,,,,,,-SHRA,BKN,5100,OVC,10000,,,,,VFR,,,,,,,,,,,,METAR,428.0
CYOY 252100Z 08005KT 060V120 6SM -RA BR SCT006 OVC016 07/05 A3017 RMK SF4SC4 DENSITY ALT -503FT SLP224,CYOY,2023-04-25T21:00:00Z,46.88,-71.5,7.0,5.0,80,5,,6.0,30.171259,1022.4,,,,,,,,,-RA BR,SCT,600,OVC,1600,,,,,MVFR,,,,,,,,,,,,METAR,167.0
CYOW 252100Z 21010G17KT 15SM BKN049 BKN080 10/M02 A3014 RMK CU6AC1 SLP211,CYOW,2023-04-25T21:00:00Z,45.32,-75.67,10.0,-2.0,210,10,17,15.0,30.138779,1021.1,,,,,,,,,,BKN,4900,BKN,8000,,,,,VFR,,,,,,,,,,,,SPECI,111.0
CYOO 252100Z AUTO 20008G15KT 9SM BKN055 OVC072 08/M00 A3014 RMK SLP212,CYOO,2023-04-25T21:00:00Z,43.92,-78.9,8.0,0.0,200,8,15,9.0,30.138779,1021.2,,TRUE,,,,,,,,BKN,5500,OVC,7200,,,,,VFR,,,,,,,,,,,,METAR,136.0
CYOJ 252100Z 30007KT 280V340 10SM -SHRA BKN018 OVC024 05/04 A2970 RMK SC6SC2 CVCTV CLD EMBD SLP074,CYOJ,2023-04-25T21:00:00Z,58.62,-117.17,5.0,4.0,300,7,,10.0,29.698818,1007.4,,,,,,,,,-SHRA,BKN,1800,OVC,2400,,,,,MVFR,,,,,,,,,,,,METAR,339.0
CYOD 252100Z 22009KT 15SM SCT047 BKN100 BKN160 14/02 A2980 RMK SC3AC3AC1 DENSITY ALT 2324FT SLP105,CYOD,2023-04-25T21:00:00Z,54.4,-110.28,14.0,2.0,220,9,,15.0,29.799213,1010.5,,,,,,,,,,SCT,4700,BKN,10000,BKN,16000,,,VFR,,,,,,,,,,,,METAR,540.0
CYNM 252100Z AUTO 31007KT 9SM OVC020 05/03 A3007 RMK SLP198,CYNM,2023-04-25T21:00:00Z,49.77,-77.78,5.0,3.0,310,7,,9.0,30.070866,1019.8,,TRUE,,,,,,,,OVC,2000,,,,,,,MVFR,,,,,,,,,,,,METAR,276.0
CYNE 252100Z AUTO 22010G15KT 180V280 9SM CLR 07/M08 A3028 RMK SLP269,CYNE,2023-04-25T21:00:00Z,53.97,-97.83,7.0,-8.0,220,10,15,9.0,30.280512,1026.9,,TRUE,,,,,,,,CLR,,,,,,,,VFR,,,,,,,,,,,,METAR,220.0
CYND 252100Z 19006KT 170V250 15SM SCT052 BKN240 11/M02 A3013 RMK CU3CI3 SLP208,CYND,2023-04-25T21:00:00Z,45.52,-75.57,11.0,-2.0,190,6,,15.0,30.129921,1020.8,,,,,,,,,,SCT,5200,BKN,24000,,,,,VFR,,,,,,,,,,,,METAR,57.0
CYNA 252100Z AUTO 22006KT 210V270 9SM CLR 05/M00 A3030 RMK SLP264,CYNA,2023-04-25T21:00:00Z,50.18,-61.78,5.0,0.0,220,6,,9.0,30.301182,1026.4,,TRUE,,,,,,,,CLR,,,,,,,,VFR,,,,,,,,,,,,METAR,9.0
CYMX 252100Z 23003KT 090V250 25SM BKN045 BKN092 BKN250 08/02 A3016 RMK SC5AC1CI1 SLP220,CYMX,2023-04-25T21:00:00Z,45.67,-74.03,8.0,2.0,230,3,,25.0,30.159449,1022.0,,,,,,,,,,BKN,4500,BKN,9200,BKN,25000,,,VFR,,,,,,,,,,,,SPECI,78.0
CYMU 252100Z 07014KT 15SM FEW010 BKN050 05/02 A3025 RMK SF1SC4 LAST STFD OBS/NEXT 261200Z SLP250,CYMU,2023-04-25T21:00:00Z,56.53,-76.52,5.0,2.0,70,14,,15.0,30.250984,1025.0,,,,,,,,,,FEW,1000,BKN,5000,,,,,VFR,,,,,,,,,,,,METAR,69.0
CYMT 252100Z AUTO 10010KT 9SM FEW022 SCT031 BKN043 BKN060 07/04 A3010 RMK SLP210,CYMT,2023-04-25T21:00:00Z,49.77,-74.52,7.0,4.0,100,10,,9.0,30.100393,1021.0,,TRUE,,,,,,,,FEW,2200,SCT,3100,BKN,4300,BKN,6000,VFR,,,,,,,,,,,,METAR,388.0
CYMJ 252100Z 12021KT 15SM FEW090 BKN130 BKN270 13/02 A2999 RMK AC2AC3CI2 DENSITY ALT 2138FT VIRGA SLP171,CYMJ,2023-04-25T21:00:00Z,50.32,-105.55,13.0,2.0,120,21,,15.0,29.991142,1017.1,,,,,,,,,,FEW,9000,BKN,13000,BKN,27000,,,VFR,,,,,,,,,,,,METAR,578.0
CYMH 252100Z AUTO /////KT 9SM OVC018 02/00 A3037 RMK SLP287,CYMH,2023-04-25T21:00:00Z,52.3,-55.82,2.0,0.0,,,,9.0,30.369095,1028.7,,TRUE,,,,,,,,OVC,1800,,,,,,,MVFR,,,,,,,,,,,,SPECI,18.0
CYMA 252100Z 02009KT 310V050 20SM BKN032 M02/M10 A2990 RMK SC7 SLP164,CYMA,2023-04-25T21:00:00Z,63.62,-135.87,-2.0,-10.0,20,9,,20.0,29.899607,1016.4,,,,,,,,,,BKN,3200,,,,,,,VFR,,,,,,,,,,,,METAR,519.0
CYLW 252100Z AUTO 14003KT 100V240 9SM CLR 16/M01 A3009 RMK SLP198 DENSITY ALT 1700FT,CYLW,2023-04-25T21:00:00Z,49.95,-119.37,16.0,-1.0,140,3,,9.0,30.088583,1019.8,,TRUE,,,,,,,,CLR,,,,,,,,VFR,,,,,,,,,,,,METAR,420.0
CYLU 252100Z 32003KT 15SM SCT240 10/02 A3033 RMK CI3 LAST STFD OBS/NEXT 261200 UTC SLP275,CYLU,2023-04-25T21:00:00Z,58.72,-65.98,10.0,2.0,320,3,,15.0,30.33071,1027.5,,,,,,,,,,SCT,24000,,,,,,,VFR,,,,,,,,,,,,METAR,61.0
CYLT 252100Z 36002KT 10SM IC FEW090 M18/M21 A3035 RMK AS1 SLP281,CYLT,2023-04-25T21:00:00Z,82.52,-62.32,-18.0,-21.0,360,2,,10.0,30.351377,1028.1,,,,,,,,,IC,FEW,9000,,,,,,,VFR,,,,,,,,,,,,METAR,9.0
CYLL 252100Z 17007KT 150V260 15SM SCT100 BKN270 14/01 A2981 RMK AC3CI2 SLP113 DENSITY ALT 2800FT,CYLL,2023-04-25T21:00:00Z,53.32,-110.07,14.0,1.0,170,7,,15.0,29.811024,1011.3,,,,,,,,,,SCT,10000,BKN,27000,,,,,VFR,,,,,,,,,,,,METAR,664.0
CYLJ 252100Z 24011KT 15SM -SHRA BKN052 OVC086 13/01 A2982 RMK SC6AC2 CVCTV CLD EMBD SLP113 DENSITY ALT 1900FT,CYLJ,2023-04-25T21:00:00Z,54.12,-108.52,13.0,1.0,240,11,,15.0,29.819881,1011.3,,,,,,,,,-SHRA,BKN,5200,OVC,8600,,,,,VFR,,,,,,,,,,,,METAR,481.0
CYLD 252100Z 36006KT 320V030 15SM -SN OVC012 02/M00 A3012 RMK SC8 SLP228,CYLD,2023-04-25T21:00:00Z,47.82,-83.35,2.0,0.0,360,6,,15.0,30.121063,1022.8,,,,,,,,,-SN,OVC,1200,,,,,,,MVFR,,,,,,,,,,,,METAR,449.0
CYLA 252100Z 03007KT 15SM BKN250 01/01 A3035 RMK CS5 LAST STFD OBS/ NXT 261200Z SLP283,CYLA,2023-04-25T21:00:00Z,59.3,-69.58,1.0,1.0,30,7,,15.0,30.351377,1028.3,,,,,,,,,,BKN,25000,,,,,,,VFR,,,,,,,,,,,,METAR,35.0
CYKY 252100Z 02009G15KT 15SM VCSH SCT060TCU BKN090 16/06 A2980 RMK TCU4AC3 TCU ALQDS SLP106 DENSITY ALT 3100FT,CYKY,2023-04-25T21:00:00Z,51.52,-109.17,16.0,6.0,20,9,15,15.0,29.799213,1010.6,,,,,,,,,VCSH,SCT,6000,BKN,9000,,,,,VFR,,,,,,,,,,,,METAR,692.0
CYKP 252100Z AUTO 35011G17KT 320V040 9SM FEW033 OVC071 02/M06 A3030 RMK SLP276,CYKP,2023-04-25T21:00:00Z,51.67,-85.9,2.0,-6.0,350,11,17,9.0,30.301182,1027.6,,TRUE,,,,,,,,FEW,3300,OVC,7100,,,,,VFR,,,,,,,,,,,,METAR,181.0
CYKL 252100Z AUTO 14010G15KT 100V160 8SM SCT160 SCT250 14/M02 A3022 RMK SLP260,CYKL,2023-04-25T21:00:00Z,54.8,-66.8,14.0,-2.0,140,10,15,8.0,30.221457,1026.0,,TRUE,,,,,,,,SCT,16000,SCT,25000,,,,,VFR,,,,,,,,,,,,SPECI,507.0
CYKJ 252100Z AUTO 16015G22KT 9SM OVC045 07/M02 A2992 RMK SLP158,CYKJ,2023-04-25T21:00:00Z,57.25,-105.62,7.0,-2.0,160,15,22,9.0,29.920275,1015.8,,TRUE,,,,,,,,OVC,4500,,,,,,,VFR,,,,,,,,,,,,METAR,519.0
CYKG 252100Z 00000KT 15SM FEW070 01/M03 A3035 RMK AC1 LAST STFD OBS/NXT OBS 261200 UTC SLP293,CYKG,2023-04-25T21:00:00Z,61.58,-71.92,1.0,-3.0,0,0,,15.0,30.351377,1029.3,,,,,,,,,,FEW,7000,,,,,,,VFR,,,,,,,,,,,,METAR,134.0
CYKF 252100Z AUTO 22010KT 9SM BKN048 OVC060 08/M02 A3012 RMK SLP211,CYKF,2023-04-25T21:00:00Z,43.47,-80.38,8.0,-2.0,220,10,,9.0,30.121063,1021.1,,TRUE,,,,,,,,BKN,4800,OVC,6000,,,,,VFR,,,,,,,,,,,,METAR,312.0
CYKA 252100Z 14003KT 110V190 40SM FEW090 OVC200 16/M03 A3007 RMK CF1CS7 SLP190 DENSITY ALT 1400FT,CYKA,2023-04-25T21:00:00Z,50.7,-120.45,16.0,-3.0,140,3,,40.0,30.070866,1019.0,,,,,,,,,,FEW,9000,OVC,20000,,,,,VFR,,,,,,,,,,,,METAR,344.0
CYJT 252100Z 06011G17KT 15SM FEW015 SCT240 13/M03 A3021 RMK SC1CI3 SC TR CONTRAILS SLP232,CYJT,2023-04-25T21:00:00Z,48.55,-58.57,13.0,-3.0,60,11,17,15.0,30.209646,1023.2,,,,,,,,,,FEW,1500,SCT,24000,,,,,VFR,,,,,,,,,,,,SPECI,7.0
CYJF 252100Z 05009G15KT 360V070 15SM SCT031 BKN050 BKN070 01/M05 A2997 RMK SC3SC3AC1 SLP162,CYJF,2023-04-25T21:00:00Z,60.23,-123.47,1.0,-5.0,50,9,15,15.0,29.970472,1016.2,,,,,,,,,,SCT,3100,BKN,5000,BKN,7000,,,VFR,,,,,,,,,,,,METAR,215.0
CYIV 252100Z AUTO 35003KT 9SM CLR 07/M10 A3028 RMK SLP271,CYIV,2023-04-25T21:00:00Z,53.85,-94.65,7.0,-10.0,350,3,,9.0,30.280512,1027.1,,TRUE,,,,,,,,CLR,,,,,,,,VFR,,,,,,,,,,,,METAR,234.0
CYIO 252100Z 22008KT 12SM BKN007 OVC009 M10/M10 A3040 RMK ST7ST1 SLP304,CYIO,2023-04-25T21:00:00Z,72.68,-77.97,-10.0,-10.0,220,8,,12.0,30.398623,1030.4,,,,,,,,,,BKN,700,OVC,900,,,,,IFR,,,,,,,,,,,,METAR,61.0
CYIN 252100Z AUTO VRB04KT 9SM FEW071 12/M05 A3004 RMK SLP193 DENSITY ALT 4200FT,CYIN,2023-04-25T21:00:00Z,51.27,-121.68,12.0,-5.0,0,4,,9.0,30.041338,1019.3,,TRUE,,,,,,,,FEW,7100,,,,,,,VFR,,,,,,,,,,,,METAR,1127.0
CYHZ 252100Z 17011KT 15SM FEW040 BKN250 07/M01 A3022 RMK SC1CI4 SLP239,CYHZ,2023-04-25T21:00:00Z,44.87,-63.5,7.0,-1.0,170,11,,15.0,30.221457,1023.9,,,,,,,,,,FEW,4000,BKN,25000,,,,,VFR,,,,,,,,,,,,SPECI,136.0
CYHY 252100Z 01005KT 320V060 4SM -SN BKN004 OVC015 02/M01 A2974 RMK ST7SC1 SLP084,CYHY,2023-04-25T21:00:00Z,60.83,-115.77,2.0,-1.0,10,5,,4.0,29.740158,1008.4,,,,,,,,,-SN,BKN,400,OVC,1500,,,,,LIFR,,,,,,,,,,,,METAR,159.0
CYHU 252100Z AUTO 26013G18KT 9SM CLR 10/03 A3015 RMK SLP214,CYHU,2023-04-25T21:00:00Z,45.52,-73.42,10.0,3.0,260,13,18,9.0,30.15059,1021.4,,TRUE,,,,,,,,CLR,,,,,,,,VFR,,,,,,,,,,,,METAR,26.0
CYHM 252100Z 22012G18KT 15SM SCT017 BKN041 OVC056 06/03 A3016 RMK CU4SC2SC2 SLP222,CYHM,2023-04-25T21:00:00Z,43.17,-79.93,6.0,3.0,220,12,18,15.0,30.159449,1022.2,,,,,,,,,,SCT,1700,BKN,4100,OVC,5600,,,VFR,,,,,,,,,,,,METAR,237.0
CYHK 252100Z 18010KT 15SM BKN090 BKN220 M12/M15 A3040 RMK AC6CC1 CC TR SLP304,CYHK,2023-04-25T21:00:00Z,68.62,-95.85,-12.0,-15.0,180,10,,15.0,30.398623,1030.4,,,,,,,,,,BKN,9000,BKN,22000,,,,,VFR,,,,,,,,,,,,METAR,36.0
CYHE 252100Z AUTO 28014G21KT 260V320 9SM CLR 16/04 A3022 RMK SLP238,CYHE,2023-04-25T21:00:00Z,49.37,-121.5,16.0,4.0,280,14,21,9.0,30.221457,1023.8,,TRUE,,,,,,,,CLR,,,,,,,,VFR,,,,,,,,,,,,METAR,43.0
CYHD 252100Z AUTO VRB05KT 9SM SCT060 06/M09 A3027 RMK SLP276,CYHD,2023-04-25T21:00:00Z,49.82,-92.75,6.0,-9.0,0,5,,9.0,30.268702,1027.6,,TRUE,,,,,,,,SCT,6000,,,,,,,VFR,,,,,,,,,,,,METAR,414.0
CYHA 252100Z 06004KT 15SM FEW250 02/M02 A3039 RMK CI1 LAST STFD OBS/NEXT 261200UTC SLP294,CYHA,2023-04-25T21:00:00Z,61.03,-69.62,2.0,-2.0,60,4,,15.0,30.389763,1029.4,,,,,,,,,,FEW,25000,,,,,,,VFR,,,,,,,,,,,,METAR,31.0
CYGX 252100Z VRB10KT 15SM SKC 04/M06 A3032 RMK SLP281,CYGX,2023-04-25T21:00:00Z,56.35,-94.7,4.0,-6.0,0,10,,15.0,30.318897,1028.1,,,,,,,,,,SKC,,,,,,,,VFR,,,,,,,,,,,,METAR,145.0
CYGW 252100Z AUTO 01008G17KT 340V040 9SM OVC006 00/M00 A3025 RMK SLP246,CYGW,2023-04-25T21:00:00Z,55.27,-77.77,0.0,0.0,10,8,17,9.0,30.250984,1024.6,,TRUE,,,,,,,,OVC,600,,,,,,,IFR,,,,,,,,,,,,METAR,13.0
CYGV 252100Z AUTO 16004KT 110V190 9SM CLR 08/M01 A3029 RMK SLP261,CYGV,2023-04-25T21:00:00Z,50.28,-63.62,8.0,-1.0,160,4,,9.0,30.28937,1026.1,,TRUE,,,,,,,,CLR,,,,,,,,VFR,,,,,,,,,,,,METAR,32.0
CYGR 252100Z 09005KT 20SM FEW010 SCT280 06/01 A3027 RMK SC1CI3 SC TR SLP252,CYGR,2023-04-25T21:00:00Z,47.42,-61.77,6.0,1.0,90,5,,20.0,30.268702,1025.2,,,,,,,,,,FEW,1000,SCT,28000,,,,,VFR,,,,,,,,,,,,METAR,4.0
CYGP 252100Z 09009KT 15SM BKN220 07/01 A3028 RMK CI5 CONTRAILS SLP257,CYGP,2023-04-25T21:00:00Z,48.77,-64.47,7.0,1.0,90,9,,15.0,30.280512,1025.7,,,,,,,,,,BKN,22000,,,,,,,VFR,,,,,,,,,,,,METAR,31.0
CYGL 252100Z 35005KT 290V030 15SM SCT050 BKN160 BKN240 09/02 A3011 RMK SC4AC2CI1 SLP210,CYGL,2023-04-25T21:00:00Z,53.62,-77.7,9.0,2.0,350,5,,15.0,30.109253,1021.0,,,,,,,,,,SCT,5000,BKN,16000,BKN,24000,,,VFR,,,,,,,,,,,,SPECI,192.0
CYGK 252100Z 20014KT 15SM FEW040TCU SCT080 BKN250 06/02 A3018 RMK TCU1AC2CI4 SLP226,CYGK,2023-04-25T21:00:00Z,44.22,-76.58,6.0,2.0,200,14,,15.0,30.180119,1022.6,,,,,,,,,,FEW,4000,SCT,8000,BKN,25000,,,VFR,,,,,,,,,,,,METAR,91.0
CYGH 252100Z VRB02KT 25SM FEW020 FEW080 FEW240 M09/M17 A3018 RMK SC1AC1CI1 SC TR CI TR SLP231,CYGH,2023-04-25T21:00:00Z,66.23,-128.63,-9.0,-17.0,0,2,,25.0,30.180119,1023.1,,,,,,,,,,FEW,2000,FEW,8000,FEW,24000,,,VFR,,,,,,,,,,,,METAR,72.0
CYGE 252100Z CCA 13007KT 20SM SCT080 OVC210 15/M04 A2998 RMK AC4CI4 CU ASOCTD CC ASOCTD SLP164 DENSITY ALT 3200FT,CYGE,2023-04-25T21:00:00Z,51.3,-116.98,15.0,-4.0,130,7,,20.0,29.97933,1016.4,,,,,,,,,,SCT,8000,OVC,21000,,,,,VFR,,,,,,,,,,,,SPECI,786.0
CYFR 252100Z 11005KT 10SM -RA OVC010 05/04 A2971 RMK SC8 SLP073,CYFR,2023-04-25T21:00:00Z,61.17,-113.68,5.0,4.0,110,5,,10.0,29.71063,1007.3,,,,,,,,,-RA,OVC,1000,,,,,,,MVFR,,,,,,,,,,,,METAR,159.0
CYFO 252100Z 15011G18KT 15SM OVC100 07/M05 A3014 RMK AC8 SLP223,CYFO,2023-04-25T21:00:00Z,54.67,-101.67,7.0,-5.0,150,11,18,15.0,30.138779,1022.3,,,,,,,,,,OVC,10000,,,,,,,VFR,,,,,,,,,,,,METAR,303.0
CYFB 252100Z 27003KT 1/4SM R34/0900V1100FT/N FZFG OVC002 M01/M01 A3041 RMK ST8 SLP304,CYFB,2023-04-25T21:00:00Z,63.75,-68.55,-1.0,-1.0,270,3,,0.25,30.410433,1030.4,,,,,,,,,FZFG,OVC,200,,,,,,,LIFR,,,,,,,,,,,,SPECI,23.0
CYEV 252100Z 07005KT 030V100 15SM FEW160 FEW240 M15/M22 A3025 RMK AC1CS1 AC TR SLP255,CYEV,2023-04-25T21:00:00Z,68.32,-133.5,-15.0,-22.0,70,5,,15.0,30.250984,1025.5,,,,,,,,,,FEW,16000,FEW,24000,,,,,VFR,,,,,,,,,,,,METAR,74.0
CYET 252100Z AUTO 31011G16KT 260V330 9SM SCT055 SCT072 11/M04 A2984 RMK SLP131 DENSITY ALT 3400FT,CYET,2023-04-25T21:00:00Z,53.57,-116.47,11.0,-4.0,310,11,16,9.0,29.840551,1013.1,,TRUE,,,,,,,,SCT,5500,SCT,7200,,,,,VFR,,,,,,,,,,,,METAR,925.0
CYER 252100Z AUTO 04006KT 9SM OVC008 M02/M04 A3043 RMK SLP309,CYER,2023-04-25T21:00:00Z,56.02,-87.68,-2.0,-4.0,40,6,,9.0,30.431103,1030.9,,TRUE,,,,,,,,OVC,800,,,,,,,IFR,,,,,,,,,,,,METAR,11.0
CYEN 252100Z AUTO 14015G23KT 9SM CLR 11/M03 A3011 RMK SLP219,CYEN,2023-04-25T21:00:00Z,49.22,-102.97,11.0,-3.0,140,15,23,9.0,30.109253,1021.9,,TRUE,,,,,,,,CLR,,,,,,,,VFR,,,,,,,,,,,,METAR,580.0
CYEK 252100Z 10004KT 15SM OVC005 M06/M06 A3041 RMK SC8 SLP301,CYEK,2023-04-25T21:00:00Z,61.1,-94.07,-6.0,-6.0,100,4,,15.0,30.410433,1030.1,,,,,,,,,,OVC,500,,,,,,,IFR,,,,,,,,,,,,METAR,7.0
CYED 252100Z 33018G25KT 15SM FEW030 BKN070 BKN240 10/03 A2986 RMK SC2AC3CI1 DENSITY ALT 2356FT SLP131,CYED,2023-04-25T21:00:00Z,53.67,-113.47,10.0,3.0,330,18,25,15.0,29.861221,1013.1,,,,,,,,,,FEW,3000,BKN,7000,BKN,24000,,,VFR,,,,,,,,,,,,METAR,688.0
CYDQ 252100Z AUTO 26023G32KT 9SM FEW071 09/M09 A2988 RMK SLP145,CYDQ,2023-04-25T21:00:00Z,55.75,-120.18,9.0,-9.0,260,23,32,9.0,29.878937,1014.5,,TRUE,,,,,,,,FEW,7100,,,,,,,VFR,,,,,,,,,,,,SPECI,658.0
CYDP 252100Z VRB02KT 15SM FEW240 FEW270 05/01 A3035 RMK CS1CC1 CS TR CC TR SLP281,CYDP,2023-04-25T21:00:00Z,56.53,-61.68,5.0,1.0,0,2,,15.0,30.351377,1028.1,,,,,,,,,,FEW,24000,FEW,27000,,,,,VFR,,,,,,,,,,,,METAR,14.0
CYDN 252100Z AUTO 36005KT 340V060 9SM CLR 10/M01 A3020 RMK SLP244,CYDN,2023-04-25T21:00:00Z,51.1,-100.05,10.0,-1.0,360,5,,9.0,30.200787,1024.4,,TRUE,,,,,,,,CLR,,,,,,,,VFR,,,,,,,,,,,,METAR,302.0
CYDL 252100Z AUTO 22006KT 180V240 9SM CLR 03/M10 A2996 RMK SLP172,CYDL,2023-04-25T21:00:00Z,58.42,-130.02,3.0,-10.0,220,6,,9.0,29.958662,1017.2,,TRUE,,,,,,,,CLR,,,,,,,,VFR,,,,,,,,,,,,METAR,804.0
CYDF 252100Z 05014KT 15SM BKN220 07/M01 A3027 RMK CI5 SLP254,CYDF,2023-04-25T21:00:00Z,49.22,-57.4,7.0,-1.0,50,14,,15.0,30.268702,1025.4,,,,,,,,,,BKN,22000,,,,,,,VFR,,,,,,,,,,,,METAR,15.0
CYDC 252100Z 35004KT 260V070 25SM FEW060 BKN270 16/M02 A3010 RMK CF1CI6 CF TR CONTRAILS SLP199 DENSITY ALT 2800FT,CYDC,2023-04-25T21:00:00Z,49.47,-120.52,16.0,-2.0,350,4,,25.0,30.100393,1019.9,,,,,,,,,,FEW,6000,BKN,27000,,,,,VFR,,,,,,,,,,,,METAR,703.0
CYDB 252100Z 11015G24KT 15SM FEW045 FEW055 SCT090 SCT200 02/M07 A2976 RMK CU1CF1AC2CI1 CF TR CI TR SLP128,CYDB,2023-04-25T21:00:00Z,61.37,-139.02,2.0,-7.0,110,15,24,15.0,29.760826,1012.8,,,,,,,,,,FEW,4500,FEW,5500,SCT,9000,SCT,20000,VFR,,,,,,,,,,,,METAR,807.0
CYDA 252100Z VRB06KT 15SM -SN BKN056 M03/M09 A2990 RMK SC7 SLP157,CYDA,2023-04-25T21:00:00Z,64.03,-139.12,-3.0,-9.0,0,6,,15.0,29.899607,1015.7,,,,,,,,,-SN,BKN,5600,,,,,,,VFR,,,,,,,,,,,,METAR,338.0
CYCY 252100Z 32021KT 15SM -SG DRSN FEW011 OVC031 M07/M08 A3036 RMK SF1SC7 SLP286,CYCY,2023-04-25T21:00:00Z,70.48,-68.52,-7.0,-8.0,320,21,,15.0,30.360237,1028.6,,,,,,,,,-SG DRSN,FEW,1100,OVC,3100,,,,,VFR,,,,,,,,,,,,METAR,73.0
CYCX 252100Z 07005KT 030V100 15SM OVC020 08/03 A3025 RMK SC8 DENSITY ALT -956FT CIG EST SLP246,CYCX,2023-04-25T21:00:00Z,45.83,-66.45,8.0,3.0,70,5,,15.0,30.250984,1024.6,,,,,,,,,,OVC,2000,,,,,,,MVFR,,,,,,,,,,,,METAR,46.0
CYCS 252100Z 01007KT 15SM BKN017 BKN240 M08/M11 A3045 RMK SC6CI1 SLP315,CYCS,2023-04-25T21:00:00Z,63.35,-90.72,-8.0,-11.0,10,7,,15.0,30.448818,1031.5,,,,,,,,,,BKN,1700,BKN,24000,,,,,MVFR,,,,,,,,,,,,METAR,7.0
CYCP 252100Z 20008KT 15SM BKN080 BKN250 12/M01 A3002 RMK CU6CI1 CI TR SLP184,CYCP,2023-04-25T21:00:00Z,52.13,-119.28,12.0,-1.0,200,8,,15.0,30.02067,1018.4,,,,,,,,,,BKN,8000,BKN,25000,,,,,VFR,,,,,,,,,,,,METAR,677.0
CYCK 252100Z AUTO 20006KT 8SM -RA BKN012 BKN018 04/02 A3017 RMK SLP226,CYCK,2023-04-25T21:00:00Z,42.3,-82.08,4.0,2.0,200,6,,8.0,30.171259,1022.6,,TRUE,,,,,,,-RA,BKN,1200,BKN,1800,,,,,MVFR,,,,,,,,,,,,METAR,196.0
CYCG 252100Z 17011KT 15SM FEW055 SCT080 BKN220 17/02 A3006 RMK CU1AC2CI3 SLP189 DENSITY ALT 2100FT,CYCG,2023-04-25T21:00:00Z,49.28,-117.63,17.0,2.0,170,11,,15.0,30.059055,1018.9,,,,,,,,,,FEW,5500,SCT,8000,BKN,22000,,,VFR,,,,,,,,,,,,METAR,487.0
CYCD 252100Z 01004KT 360V070 20SM SCT033 BKN140 BKN230 12/07 A3026 RMK CU4AC1CI2 SLP250,CYCD,2023-04-25T21:00:00Z,49.05,-123.87,12.0,7.0,10,4,,20.0,30.259842,1025.0,,,,,,,,,,SCT,3300,BKN,14000,BKN,23000,,,VFR,,,,,,,,,,,,METAR,30.0
CYCA 252100Z AUTO 06008KT 9SM CLR 04/00 A3038 RMK SLP290,CYCA,2023-04-25T21:00:00Z,53.68,-57.03,4.0,0.0,60,8,,9.0,30.380905,1029.0,,TRUE,,,,,,,,CLR,,,,,,,,VFR,,,,,,,,,,,,METAR,12.0
CYBX 252100Z 08016G24KT 15SM FEW015 OVC250 04/M00 A3033 RMK SC1CI7 SLP274,CYBX,2023-04-25T21:00:00Z,51.45,-57.18,4.0,0.0,80,16,24,15.0,30.33071,1027.4,,,,,,,,,,FEW,1500,OVC,25000,,,,,VFR,,,,,,,,,,,,METAR,32.0
CYBW 252100Z AUTO 27015G21KT 9SM BKN210 OVC240 14/M06 A2986 RMK SLP138 DENSITY ALT 4900FT,CYBW,2023-04-25T21:00:00Z,51.1,-114.37,14.0,-6.0,270,15,21,9.0,29.861221,1013.8,,TRUE,,,,,,,,BKN,21000,OVC,24000,,,,,VFR,,,,,,,,,,,,METAR,1197.0
CYBV 252100Z 30006KT 15SM FEW260 06/M07 A3028 RMK CI2 CONTRAILS LAST STFD OBS/NEXT 261200UTC SLP270,CYBV,2023-04-25T21:00:00Z,52.35,-97.03,6.0,-7.0,300,6,,15.0,30.280512,1027.0,,,,,,,,,,FEW,26000,,,,,,,VFR,,,,,,,,,,,,METAR,219.0
CYBU 252100Z AUTO 13014G21KT 9SM FEW050 BKN089 09/M02 A3003 RMK SLP187,CYBU,2023-04-25T21:00:00Z,53.32,-104.0,9.0,-2.0,130,14,21,9.0,30.029528,1018.7,,TRUE,,,,,,,,FEW,5000,BKN,8900,,,,,VFR,,,,,,,,,,,,METAR,369.0
CYBR 252100Z 13007KT 110V170 15SM FEW040 SCT250 09/M03 A3022 RMK SC1CI4 SC TR SLP256,CYBR,2023-04-25T21:00:00Z,49.92,-99.95,9.0,-3.0,130,7,,15.0,30.221457,1025.6,,,,,,,,,,FEW,4000,SCT,25000,,,,,VFR,,,,,,,,,,,,METAR,405.0
CYBQ 252100Z AUTO 12010KT 9SM CLR 04/M07 A3023 RMK SLP262,CYBQ,2023-04-25T21:00:00Z,58.7,-98.5,4.0,-7.0,120,10,,9.0,30.230314,1026.2,,TRUE,,,,,,,,CLR,,,,,,,,VFR,,,,,,,,,,,,METAR,272.0
CYBL 252100Z 11005KT 060V130 30SM FEW020 BKN040 BKN130 11/06 A3026 RMK CU2SC3AC2 SLP252,CYBL,2023-04-25T21:00:00Z,49.95,-125.27,11.0,6.0,110,5,,30.0,30.259842,1025.2,,,,,,,,,,FEW,2000,BKN,4000,BKN,13000,,,VFR,,,,,,,,,,,,METAR,94.0
CYBK 252100Z 11005KT 20SM FEW010 FEW200 M11/M14 A3044 RMK SC1CS1 SC TR SLP313,CYBK,2023-04-25T21:00:00Z,64.3,-96.07,-11.0,-14.0,110,5,,20.0,30.43996,1031.3,,,,,,,,,,FEW,1000,FEW,20000,,,,,VFR,,,,,,,,,,,,METAR,14.0
CYBG 252100Z 08019KT 25SM SCT045 BKN100 10/02 A3016 RMK SC4AC1 DENSITY ALT -208FT SLP220,CYBG,2023-04-25T21:00:00Z,48.33,-70.98,10.0,2.0,80,19,,25.0,30.159449,1022.0,,,,,,,,,,SCT,4500,BKN,10000,,,,,VFR,,,,,,,,,,,,SPECI,151.0
CYBD 252100Z 23015G20KT 15SM FEW065 FEW150 FEW160 SCT260 13/M00 A3017 RMK CU1AC1AC1CC1 CU TR SLP219,CYBD,2023-04-25T21:00:00Z,52.38,-126.58,13.0,0.0,230,15,20,15.0,30.171259,1021.9,,,,,,,,,,FEW,6500,FEW,15000,FEW,16000,SCT,26000,VFR,,,,,,,,,,,,METAR,40.0
CYBC 252100Z AUTO 11009KT 9SM CLR 04/02 A3028 RMK SLP256,CYBC,2023-04-25T21:00:00Z,49.13,-68.2,4.0,2.0,110,9,,9.0,30.280512,1025.6,,TRUE,,,,,,,,CLR,,,,,,,,VFR,,,,,,,,,,,,METAR,20.0
CYBB 252100Z 05004KT 15SM FEW200 M15/M19 A3049 RMK CI1 SLP329,CYBB,2023-04-25T21:00:00Z,68.53,-89.78,-15.0,-19.0,50,4,,15.0,30.490158,1032.9,,,,,,,,,,FEW,20000,,,,,,,VFR,,,,,,,,,,,,METAR,13.0
CYAZ 252100Z 23009KT 15SM FEW034 FEW074 SCT240 11/04 A3029 RMK CU1AC1CC2 CU TR CONTRAILS SLP258,CYAZ,2023-04-25T21:00:00Z,49.08,-125.77,11.0,4.0,230,9,,15.0,30.28937,1025.8,,,,,,,,,,FEW,3400,FEW,7400,SCT,24000,,,VFR,,,,,,,,,,,,METAR,26.0
CYAW 252100Z 20009KT 15SM FEW030 BKN240 06/M00 A3025 RMK SC1CI4 DENSITY ALT -1166FT SLP247,CYAW,2023-04-25T21:00:00Z,44.63,-63.5,6.0,0.0,200,9,,15.0,30.250984,1024.7,,,,,,,,,,FEW,3000,BKN,24000,,,,,VFR,,,,,,,,,,,,METAR,50.0
CYAM 252100Z 30018KT 20SM FEW021 FEW038 FEW250 03/M02 A3018 RMK SC1SC1CI1 SC TR CI TR SLP230,CYAM,2023-04-25T21:00:00Z,46.48,-84.52,3.0,-2.0,300,18,,20.0,30.180119,1023.0,,,,,,,,,,FEW,2100,FEW,3800,FEW,25000,,,VFR,,,,,,,,,,,,METAR,186.0
CYAH 252100Z AUTO 15010G16KT 100V160 9SM CLR 14/M03 A3009 RMK SLP204,CYAH,2023-04-25T21:00:00Z,53.75,-73.67,14.0,-3.0,150,10,16,9.0,30.088583,1020.4,,TRUE,,,,,,,,CLR,,,,,,,,VFR,,,,,,,,,,,,METAR,298.0
CXZV 252100Z AUTO 14006KT 07/M00 RMK AO1 SLP260 T00661002 55000,CXZV,2023-04-25T21:00:00Z,50.22,-66.25,6.6,-0.2,140,6,,,,1026.0,,TRUE,TRUE,,,,,,,,,,,,,,,,0.0,,,,,,,,,,,METAR,43.0
CXZC 252100Z AUTO 33006KT M01/M02 RMK AO1 8PAST HR SOG 12 1003 SLP232 P0003 T10121024 50022,CXZC,2023-04-25T21:00:00Z,51.3,-80.62,-1.2,-2.4,330,6,,,,1023.2,,TRUE,TRUE,,,,,,,,,,,,,,,,2.2,,,,,0.03,,,,,,METAR,8.0
CXYH 252100Z AUTO 31002KT 01/M07 RMK AO1 2PAST HR 0005 SLP155 P0005 T00091067,CXYH,2023-04-25T21:00:00Z,61.25,-123.75,0.9,-6.7,310,2,,,,1015.5,,TRUE,TRUE,,,,,,,,,,,,,,,,,,,,,0.05,,,,,,METAR,197.0
CXWN 252100Z AUTO 24004KT 10/M06 RMK AO1 SLP263 T01041055 58008,CXWN,2023-04-25T21:00:00Z,49.88,-97.13,10.4,-5.5,240,4,,,,1026.3,,TRUE,TRUE,,,,,,,,,,,,,,,,-0.8,,,,,,,,,,,METAR,232.0
CXVN 252100Z AUTO 24013G19KT 08/01 RMK AO1 3006 PK WND 24022/2030 SLP223 T00800014 50003,CXVN,2023-04-25T21:00:00Z,43.18,-79.4,8.0,1.4,240,13,19,,,1022.3,,TRUE,TRUE,,,,,,,,,,,,,,,,0.3,,,,,,,,,,,METAR,86.0
CXTV 252100Z AUTO 08006KT M19/M22 RMK AO1 SOG 46 8006 SLP262 T11891220,CXTV,2023-04-25T21:00:00Z,68.75,-133.5,-18.9,-22.0,80,6,,,,1026.2,,TRUE,TRUE,,,,,,,,,,,,,,,,,,,,,,,,,,,METAR,91.0
CXTP 252100Z AUTO 35005KT 01/01 RMK AO1 7PAST HR 3005 SLP224 P0003 T00100008 50013,CXTP,2023-04-25T21:00:00Z,48.55,-53.97,1.0,0.8,350,5,,,,1022.4,,TRUE,TRUE,,,,,,,,,,,,,,,,1.3,,,,,0.03,,,,,,METAR,104.0
CXTO 252100Z AUTO 09/M01 RMK AO1 SLP209 T00871007 53001,CXTO,2023-04-25T21:00:00Z,43.67,-79.4,8.7,-0.7,,,,,,1020.9,,TRUE,TRUE,,,,,,,,,,,,,,,,0.1,,,,,,,,,,,METAR,115.0
CXTN 252100Z AUTO 11014KT M15/M20 RMK AO1 SOG 42 1004 PK WND 10017/2056 SLP245 T11471199,CXTN,2023-04-25T21:00:00Z,69.2,-122.35,-14.7,-19.9,110,14,,,,1024.5,,TRUE,TRUE,,,,,,,,,,,,,,,,,,,,,,,,,,,METAR,564.0
CXTD 252100Z AUTO 02007KT 05/01 RMK AO1 SLP258 T00530013 55001,CXTD,2023-04-25T21:00:00Z,45.62,-61.68,5.3,1.3,20,7,,,,1025.8,,TRUE,TRUE,,,,,,,,,,,,,,,,-0.1,,,,,,,,,,,METAR,58.0
CXSH 252100Z AUTO 08005KT 09/03 RMK AO1 3003 SLP215 T00890032 50022,CXSH,2023-04-25T21:00:00Z,46.55,-72.73,8.9,3.2,80,5,,,,1021.5,,TRUE,TRUE,,,,,,,,,,,,,,,,2.2,,,,,,,,,,,METAR,106.0
CXSE 252100Z AUTO 28015KT M23/M27 RMK AO1 SOG 22 1017 PK WND 28019/2030 SLP286 T12321272,CXSE,2023-04-25T21:00:00Z,73.77,-105.28,-23.2,-27.2,280,15,,,,1028.6,,TRUE,TRUE,,,,,,,,,,,,,,,,,,,,,,,,,,,METAR,11.0
CXRH 252100Z AUTO 26003KT 07/02 RMK AO1 SLP243 T00710023 55004,CXRH,2023-04-25T21:00:00Z,49.57,-57.88,7.1,2.3,260,3,,,,1024.3,,TRUE,TRUE,,,,,,,,,,,,,,,,-0.4,,,,,,,,,,,METAR,68.0
CXRB 252100Z AUTO 19015KT M20/M24 RMK AO1 PK WND 19019/2027 SLP278 T12001236 58008,CXRB,2023-04-25T21:00:00Z,74.72,-94.98,-20.0,-23.6,190,15,,,,1027.8,,TRUE,TRUE,,,,,,,,,,,,,,,,-0.8,,,,,,,,,,,METAR,30.0
CXPC 252100Z AUTO 04/02 RMK AO1 SLP214 T00390018 53007,CXPC,2023-04-25T21:00:00Z,45.35,-80.05,3.9,1.8,,,,,,1021.4,,TRUE,TRUE,,,,,,,,,,,,,,,,0.7,,,,,,,,,,,METAR,176.0
CXOX 252100Z AUTO 12010KT 04/01 RMK AO1 7PAST HR 8017 SLP163 P0003 T00390005 50016,CXOX,2023-04-25T21:00:00Z,55.15,-105.27,3.9,0.5,120,10,,,,1016.3,,TRUE,TRUE,,,,,,,,,,,,,,,,1.6,,,,,0.03,,,,,,METAR,381.0
CXNP 252100Z AUTO 33007KT 07/03 RMK AO1 SLP244 T00660029 53004,CXNP,2023-04-25T21:00:00Z,45.75,-64.23,6.6,2.9,330,7,,,,1024.4,,TRUE,TRUE,,,,,,,,,,,,,,,,0.4,,,,,,,,,,,METAR,19.0
CXNM 252100Z AUTO 35005KT 04/M01 RMK AO1 SOG 85 T00391009,CXNM,2023-04-25T21:00:00Z,46.82,-60.67,3.9,-0.9,350,5,,,,,,TRUE,TRUE,,,,,,,,,,,,,,,,,,,,,,,,,,,METAR,452.0
CXMY 252100Z AUTO 08/M00 RMK AO1 T00801004,CXMY,2023-04-25T21:00:00Z,44.98,-62.48,8.0,-0.4,,,,,,,,TRUE,TRUE,,,,,,,,,,,,,,,,,,,,,,,,,,,METAR,37.0
CXMM 252100Z AUTO 26006KT 06/02 RMK AO1 PK WND 29023/2000 SLP115 T00570016 50010,CXMM,2023-04-25T21:00:00Z,56.65,-111.22,5.7,1.6,260,6,,,,1011.5,,TRUE,TRUE,,,,,,,,,,,,,,,,1.0,,,,,,,,,,,METAR,372.0
CXMI 252100Z AUTO 18009KT 07/01 RMK AO1 SLP242 T00650010 53004,CXMI,2023-04-25T21:00:00Z,44.6,-63.53,6.5,1.0,180,9,,,,1024.2,,TRUE,TRUE,,,,,,,,,,,,,,,,0.4,,,,,,,,,,,METAR,15.0
CXMD 252100Z AUTO 17007KT 07/M05 RMK AO1 SLP265 T00711051 57007,CXMD,2023-04-25T21:00:00Z,49.18,-98.08,7.1,-5.1,170,7,,,,1026.5,,TRUE,TRUE,,,,,,,,,,,,,,,,-0.7,,,,,,,,,,,METAR,297.0
CXLL 252100Z AUTO M01/M09 RMK AO1 SOG 27 1011 SLP176 T10051089,CXLL,2023-04-25T21:00:00Z,61.12,-122.85,-0.5,-8.9,,,,,,1017.6,,TRUE,TRUE,,,,,,,,,,,,,,,,,,,,,,,,,,,METAR,180.0
CXLB 252100Z AUTO 13013KT 06/02 RMK AO1 SLP242 T00620019 53002,CXLB,2023-04-25T21:00:00Z,44.37,-64.3,6.2,1.9,130,13,,,,1024.2,,TRUE,TRUE,,,,,,,,,,,,,,,,0.2,,,,,,,,,,,METAR,4.0
CXKT 252100Z AUTO 07005KT 09/02 RMK AO1 SLP236 T00910024 55001,CXKT,2023-04-25T21:00:00Z,45.07,-64.48,9.1,2.4,70,5,,,,1023.6,,TRUE,TRUE,,,,,,,,,,,,,,,,-0.1,,,,,,,,,,,METAR,48.0
CXKI 252100Z AUTO 30002KT 02/M01 RMK AO1 SLP195 T00221013 51006,CXKI,2023-04-25T21:00:00Z,48.13,-80.0,2.2,-1.3,300,2,,,,1019.5,,TRUE,TRUE,,,,,,,,,,,,,,,,0.6,,,,,,,,,,,METAR,328.0
CXKE 252100Z AUTO 22005KT 10/M02 RMK AO1 SLP211 T01011015 56002,CXKE,2023-04-25T21:00:00Z,45.0,-75.63,10.1,-1.5,220,5,,,,1021.1,,TRUE,TRUE,,,,,,,,,,,,,,,,-0.2,,,,,,,,,,,METAR,99.0
CXKA 252100Z AUTO 36008KT M00/M01 RMK AO1 2PAST HR SOG 02 3004 SLP233 P0001 T10011014 50013,CXKA,2023-04-25T21:00:00Z,49.4,-82.45,-0.1,-1.4,360,8,,,,1023.3,,TRUE,TRUE,,,,,,,,,,,,,,,,1.3,,,,,0.01,,,,,,METAR,221.0
CXIB 252100Z AUTO 08003KT 05/M00 RMK AO1 SLP240 T00541004 55000,CXIB,2023-04-25T21:00:00Z,46.67,-60.4,5.4,-0.4,80,3,,,,1024.0,,TRUE,TRUE,,,,,,,,,,,,,,,,0.0,,,,,,,,,,,METAR,6.0
CXHM 252100Z AUTO 24005KT 08/01 RMK AO1 SLP221 T00830012 51008,CXHM,2023-04-25T21:00:00Z,43.28,-79.9,8.3,1.2,240,5,,,,1022.1,,TRUE,TRUE,,,,,,,,,,,,,,,,0.8,,,,,,,,,,,METAR,105.0
CXHA 252100Z AUTO 25004KT 05/03 RMK AO1 7PAST HR 8004 SLP221 P0003 T00510028 50023,CXHA,2023-04-25T21:00:00Z,42.03,-82.9,5.1,2.8,250,4,,,,1022.1,,TRUE,TRUE,,,,,,,,,,,,,,,,2.3,,,,,0.03,,,,,,METAR,193.0
CXGH 252100Z AUTO 04004KT 01/M02 RMK AO1 SLP266 T00131021 58012,CXGH,2023-04-25T21:00:00Z,50.63,-97.0,1.3,-2.1,40,4,,,,1026.6,,TRUE,TRUE,,,,,,,,,,,,,,,,-1.2,,,,,,,,,,,METAR,217.0
CXET 252100Z AUTO 01005KT 06/01 RMK AO1 5001 SLP210 T00550007 50004,CXET,2023-04-25T21:00:00Z,44.23,-79.78,5.5,0.7,10,5,,,,1021.0,,TRUE,TRUE,,,,,,,,,,,,,,,,0.4,,,,,,,,,,,METAR,250.0
CXEG 252100Z AUTO 36019G25KT 11/02 RMK AO1 PK WND 00025/2051 SLP126 T01060015 53009,CXEG,2023-04-25T21:00:00Z,53.3,-113.6,10.6,1.5,360,19,25,,,1012.6,,TRUE,TRUE,,,,,,,,,,,,,,,,0.9,,,,,,,,,,,METAR,706.0
CXEC 252100Z AUTO 33014G22KT 10/01 RMK AO1 3009 PK WND 00027/2042 SLP124 T01010008 50003,CXEC,2023-04-25T21:00:00Z,53.57,-113.52,10.1,0.8,330,14,22,,,1012.4,,TRUE,TRUE,,,,,,,,,,,,,,,,0.3,,,,,,,,,,,METAR,666.0
CXEA 252100Z AUTO 17002KT 06/M00 RMK AO1 SLP264 T00631001 58012,CXEA,2023-04-25T21:00:00Z,50.63,-93.22,6.3,-0.1,170,2,,,,1026.4,,TRUE,TRUE,,,,,,,,,,,,,,,,-1.2,,,,,,,,,,,METAR,351.0
CXDW 252100Z AUTO 19008KT 07/M05 RMK AO1 SOG 02 8006 SLP269 T00661047,CXDW,2023-04-25T21:00:00Z,49.4,-98.32,6.6,-4.7,190,8,,,,1026.9,,TRUE,TRUE,,,,,,,,,,,,,,,,,,,,,,,,,,,METAR,341.0
CXDK 252100Z AUTO 01/M05 RMK AO1 SLP157 T00141046 51004,CXDK,2023-04-25T21:00:00Z,61.27,-124.47,1.4,-4.6,,,,,,1015.7,,TRUE,TRUE,,,,,,,,,,,,,,,,0.4,,,,,,,,,,,METAR,269.0
CXDI 252100Z AUTO 22006KT 05/03 RMK AO1 4PAST HR 0005 SLP225 P0002 T00490027 50010,CXDI,2023-04-25T21:00:00Z,42.87,-80.55,4.9,2.7,220,6,,,,1022.5,,TRUE,TRUE,,,,,,,,,,,,,,,,1.0,,,,,0.02,,,,,,METAR,234.0
CXDE 252100Z AUTO 31008KT M09/M17 RMK AO1 SOG 34 0001 SLP212 T10901168,CXDE,2023-04-25T21:00:00Z,65.22,-123.43,-9.0,-16.8,310,8,,,,1021.2,,TRUE,TRUE,,,,,,,,,,,,,,,,,,,,,,,,,,,METAR,208.0
CXCK 252100Z AUTO 15008KT 04/M05 RMK AO1 SOG 41 0001 SLP139 T00431053,CXCK,2023-04-25T21:00:00Z,62.12,-136.2,4.3,-5.3,150,8,,,,1013.9,,TRUE,TRUE,,,,,,,,,,,,,,,,,,,,,,,,,,,METAR,526.0
CXCA 252100Z AUTO 35007KT 04/M06 RMK AO1 SOG 01 6001 PK WND 01018/2026 SLP270 T00371064,CXCA,2023-04-25T21:00:00Z,49.15,-88.35,3.7,-6.4,350,7,,,,1027.0,,TRUE,TRUE,,,,,,,,,,,,,,,,,,,,,,,,,,,METAR,228.0
CXBO 252100Z AUTO 09011KT 07/05 RMK AO1 T00710049 50002,CXBO,2023-04-25T21:00:00Z,46.83,-71.2,7.1,4.9,90,11,,,,,,TRUE,TRUE,,,,,,,,,,,,,,,,0.2,,,,,,,,,,,METAR,8.0
CXBK 252100Z AUTO 15020G25KT 09/02 RMK AO1 SOG 02 6011 PK WND 14027/2045 SLP199 T00850023,CXBK,2023-04-25T21:00:00Z,50.2,-104.7,8.5,2.3,150,20,25,,,1019.9,,TRUE,TRUE,,,,,,,,,,,,,,,,,,,,,,,,,,,METAR,585.0
CXBI 252100Z AUTO 30007KT 07/M01 RMK AO1 SLP213 T00651007 56004,CXBI,2023-04-25T21:00:00Z,44.48,-79.55,6.5,-0.7,300,7,,,,1021.3,,TRUE,TRUE,,,,,,,,,,,,,,,,-0.4,,,,,,,,,,,METAR,287.0
CXAT 252100Z AUTO 28004KT M17/M23 RMK AO1 3PAST HR SOG 10 0002 SLP313 P0001 T11691230 50003,CXAT,2023-04-25T21:00:00Z,73.0,-85.03,-16.9,-23.0,280,4,,,,1031.3,,TRUE,TRUE,,,,,,,,,,,,,,,,0.3,,,,,0.01,,,,,,METAR,10.0
CWZW 252100Z AUTO 18005KT 05/M12 RMK AO1 SOG 31 0004 SLP167 T00491115,CWZW,2023-04-25T21:00:00Z,60.17,-132.73,4.9,-11.5,180,5,,,,1016.7,,TRUE,TRUE,,,,,,,,,,,,,,,,,,,,,,,,,,,METAR,683.0
CWZQ 252100Z AUTO 33010KT 05/02 RMK AO1 SLP247 T00530023 56001,CWZQ,2023-04-25T21:00:00Z,46.53,-61.05,5.3,2.3,330,10,,,,1024.7,,TRUE,TRUE,,,,,,,,,,,,,,,,-0.1,,,,,,,,,,,METAR,13.0
CWZO 252100Z AUTO 18009KT RMK AO1,CWZO,2023-04-25T21:00:00Z,48.57,-123.25,,,180,9,,,,,,TRUE,TRUE,,,,,,,,,,,,,,,,,,,,,,,,,,,METAR,5.0
CWZN 252100Z AUTO 03006KT 06/M02 RMK AO1 SLP213 T00611019 53004,CWZN,2023-04-25T21:00:00Z,47.37,-55.8,6.1,-1.9,30,6,,,,1021.3,,TRUE,TRUE,,,,,,,,,,,,,,,,0.4,,,,,,,,,,,METAR,63.0
CWZL 252100Z AUTO 15021KT 07/06 RMK AO1 PK WND 15025/2051 SLP190 T00710059 58018,CWZL,2023-04-25T21:00:00Z,53.03,-131.6,7.1,5.9,150,21,,,,1019.0,,TRUE,TRUE,,,,,,,,,,,,,,,,-1.8,,,,,,,,,,,METAR,17.0
CWZG 252100Z AUTO 23012G22KT 10/M04 RMK AO1 PK WND 22023/2026 SLP141 T01041043 58010,CWZG,2023-04-25T21:00:00Z,51.2,-115.55,10.4,-4.3,230,12,22,,,1014.1,,TRUE,TRUE,,,,,,,,,,,,,,,,-1.0,,,,,,,,,,,METAR,1402.0
CWZA 252100Z AUTO 21006KT 14/07 RMK AO1 SLP247 T01390066 57006,CWZA,2023-04-25T21:00:00Z,49.25,-121.77,13.9,6.6,210,6,,,,1024.7,,TRUE,TRUE,,,,,,,,,,,,,,,,-0.6,,,,,,,,,,,METAR,18.0
CWYY 252100Z AUTO 18004KT 18/M01 RMK AO1 SLP193 T01811007 58014,CWYY,2023-04-25T21:00:00Z,49.03,-119.43,18.1,-0.7,180,4,,,,1019.3,,TRUE,TRUE,,,,,,,,,,,,,,,,-1.4,,,,,,,,,,,METAR,284.0
CWYJ 252100Z AUTO 08005KT 12/06 RMK AO1 SLP252 T01170061 50000,CWYJ,2023-04-25T21:00:00Z,48.45,-123.3,11.7,6.1,80,5,,,,1025.2,,TRUE,TRUE,,,,,,,,,,,,,,,,0.0,,,,,,,,,,,METAR,59.0
CWXL 252100Z AUTO 26014G20KT 18/00 RMK AO1 PK WND 27020/2037 SLP120 T01840000 56017,CWXL,2023-04-25T21:00:00Z,49.73,-111.45,18.4,0.0,260,14,20,,,1012.0,,TRUE,TRUE,,,,,,,,,,,,,,,,-1.7,,,,,,,,,,,METAR,815.0
CWXI 252100Z AUTO 08013G19KT 05/M00 RMK AO1 PK WND 07020/2041 SLP256 T00461003 53004,CWXI,2023-04-25T21:00:00Z,51.02,-57.1,4.6,-0.3,80,13,19,,,1025.6,,TRUE,TRUE,,,,,,,,,,,,,,,,0.4,,,,,,,,,,,METAR,15.0
CWXC 252100Z AUTO 13006KT 09/01 RMK AO1 SLP213 T00920009 53003,CWXC,2023-04-25T21:00:00Z,48.88,-71.03,9.2,0.9,130,6,,,,1021.3,,TRUE,TRUE,,,,,,,,,,,,,,,,0.3,,,,,,,,,,,METAR,306.0
CWXA 252100Z AUTO 00025KT 12/M06 RMK AO1 SLP163 T01181063 50002,CWXA,2023-04-25T21:00:00Z,51.07,-115.07,11.8,-6.3,0,25,,,,1016.3,,TRUE,TRUE,,,,,,,,,,,,,,,,0.2,,,,,,,,,,,METAR,1303.0
CWWZ 252100Z AUTO 25015KT 08/03 RMK AO1 PK WND 25019/2050 SLP220 T00750029 51007,CWWZ,2023-04-25T21:00:00Z,43.25,-79.22,7.5,2.9,250,15,,,,1022.0,,TRUE,TRUE,,,,,,,,,,,,,,,,0.7,,,,,,,,,,,METAR,75.0
CWWS 252100Z AUTO 23005KT 05/M06 RMK AO1 SOG 33 7013 SLP269 T00481057,CWWS,2023-04-25T21:00:00Z,52.82,-97.62,4.8,-5.7,230,5,,,,1026.9,,TRUE,TRUE,,,,,,,,,,,,,,,,,,,,,,,,,,,METAR,220.0
CWWL 252100Z AUTO 14020KT 08/06 RMK AO1 PK WND 14025/2046 SLP199 T00770055 58011,CWWL,2023-04-25T21:00:00Z,53.5,-130.63,7.7,5.5,140,20,,,,1019.9,,TRUE,TRUE,,,,,,,,,,,,,,,,-1.1,,,,,,,,,,,METAR,8.0
CWWK 252100Z AUTO 24003KT 13/06 RMK AO1 SLP258 T01310059 58003,CWWK,2023-04-25T21:00:00Z,49.02,-122.78,13.1,5.9,240,3,,,,1025.8,,TRUE,TRUE,,,,,,,,,,,,,,,,-0.3,,,,,,,,,,,METAR,10.0
CWWF 252100Z AUTO 18009KT 07/M02 RMK AO1 SOG 02 8012 SLP212 T00741023,CWWF,2023-04-25T21:00:00Z,49.7,-103.8,7.4,-2.3,180,9,,,,1021.2,,TRUE,TRUE,,,,,,,,,,,,,,,,,,,,,,,,,,,METAR,583.0
CWWE 252100Z AUTO 12010KT 07/02 RMK AO1 SLP248 T00730015 53003,CWWE,2023-04-25T21:00:00Z,43.98,-64.67,7.3,1.5,120,10,,,,1024.8,,TRUE,TRUE,,,,,,,,,,,,,,,,0.3,,,,,,,,,,,METAR,4.0
CWWB 252100Z AUTO 19009KT 08/01 RMK AO1 SLP221 T00780011 53008,CWWB,2023-04-25T21:00:00Z,43.3,-79.78,7.8,1.1,190,9,,,,1022.1,,TRUE,TRUE,,,,,,,,,,,,,,,,0.8,,,,,,,,,,,METAR,77.0
CWWA 252100Z AUTO 19002KT 12/06 RMK AO1 SLP252 T01200063 58002,CWWA,2023-04-25T21:00:00Z,49.35,-123.18,12.0,6.3,190,2,,,,1025.2,,TRUE,TRUE,,,,,,,,,,,,,,,,-0.2,,,,,,,,,,,METAR,172.0
CWVU 252100Z AUTO 33005KT 07/04 RMK AO1 SLP238 T00680037 53004,CWVU,2023-04-25T21:00:00Z,44.28,-66.33,6.8,3.7,330,5,,,,1023.8,,TRUE,TRUE,,,,,,,,,,,,,,,,0.4,,,,,,,,,,,METAR,4.0
CWVT 252100Z AUTO 13009G16KT 10/M00 RMK AO1 SLP120 T00991004 56020,CWVT,2023-04-25T21:00:00Z,55.83,-108.42,9.9,-0.4,130,9,16,,,1012.0,,TRUE,TRUE,,,,,,,,,,,,,,,,-2.0,,,,,,,,,,,METAR,431.0
CWVQ 252100Z AUTO 00000KT 08/03 RMK AO1 SLP218 T00790031 50007,CWVQ,2023-04-25T21:00:00Z,45.42,-73.92,7.9,3.1,0,0,,,,1021.8,,TRUE,TRUE,,,,,,,,,,,,,,,,0.7,,,,,,,,,,,METAR,38.0
CWVP 252100Z AUTO 25008KT 13/M01 RMK AO1 PK WND 24021/2026 SLP129 T01321006 56012,CWVP,2023-04-25T21:00:00Z,49.63,-109.52,13.2,-0.6,250,8,,,,1012.9,,TRUE,TRUE,,,,,,,,,,,,,,,,-1.2,,,,,,,,,,,METAR,1269.0
CWVN 252100Z AUTO 19017KT 16/M02 RMK AO1 PK WND 18027/2014 SLP146 T01581015 56016,CWVN,2023-04-25T21:00:00Z,49.07,-107.58,15.8,-1.5,190,17,,,,1014.6,,TRUE,TRUE,,,,,,,,,,,,,,,,-1.6,,,,,,,,,,,METAR,792.0
CWVI 252100Z AUTO 33024G31KT 07/03 RMK AO1 PK WND 32034/2037 SLP133 T00700031 53002,CWVI,2023-04-25T21:00:00Z,53.52,-112.1,7.0,3.1,330,24,31,,,1013.3,,TRUE,TRUE,,,,,,,,,,,,,,,,0.2,,,,,,,,,,,METAR,640.0
CWVF 252100Z AUTO 17006KT 11/07 RMK AO1 T01070066,CWVF,2023-04-25T21:00:00Z,49.1,-123.3,10.7,6.6,170,6,,,,,,TRUE,TRUE,,,,,,,,,,,,,,,,,,,,,,,,,,,METAR,13.0
CWUX 252100Z AUTO 10010G15KT 11/01 RMK AO1 PK WND 08017/2022 SLP219 T01090014 55000,CWUX,2023-04-25T21:00:00Z,48.3,-70.93,10.9,1.4,100,10,15,,,1021.9,,TRUE,TRUE,,,,,,,,,,,,,,,,0.0,,,,,,,,,,,METAR,150.0
CWUW 252100Z AUTO 21003KT ////SM OVC003 M02/M02 A3019,CWUW,2023-04-25T21:00:00Z,68.62,-71.12,-2.0,-2.0,210,3,,,30.188976,,,TRUE,,,,,,,,OVC,300,,,,,,,,,,,,,,,,,,,METAR,173.0
CWUS 252100Z AUTO 13005KT 16/M01 RMK AO1 SLP196 T01581011 56014,CWUS,2023-04-25T21:00:00Z,49.57,-119.65,15.8,-1.1,130,5,,,,1019.6,,TRUE,TRUE,,,,,,,,,,,,,,,,-1.4,,,,,,,,,,,METAR,455.0
CWTY 252100Z AUTO 10004KT 08/03 RMK AO1 SLP217 T00800034 53001,CWTY,2023-04-25T21:00:00Z,46.35,-72.52,8.0,3.4,100,4,,,,1021.7,,TRUE,TRUE,,,,,,,,,,,,,,,,0.1,,,,,,,,,,,METAR,8.0
CWTT 252100Z AUTO 20002KT 07/01 RMK AO1 T00680010,CWTT,2023-04-25T21:00:00Z,45.27,-72.17,6.8,1.0,200,2,,,,,,TRUE,TRUE,,,,,,,,,,,,,,,,,,,,,,,,,,,METAR,210.0
CWTN 252100Z AUTO 06005KT 07/05 RMK AO1 4PAST HR 3004 PK WND 09019/2022 SLP229 P0002 T00670050 50008,CWTN,2023-04-25T21:00:00Z,47.07,-70.78,6.7,5.0,60,5,,,,1022.9,,TRUE,TRUE,,,,,,,,,,,,,,,,0.8,,,,,0.02,,,,,,METAR,5.0
CWTG 252100Z AUTO 06013KT 04/02 RMK AO1 SLP254 T00410017 58002,CWTG,2023-04-25T21:00:00Z,49.32,-67.37,4.1,1.7,60,13,,,,1025.4,,TRUE,TRUE,,,,,,,,,,,,,,,,-0.2,,,,,,,,,,,METAR,6.0
CWTA 252100Z AUTO 26004KT 08/02 RMK AO1 SLP215 T00820019 50007,CWTA,2023-04-25T21:00:00Z,45.5,-73.58,8.2,1.9,260,4,,,,1021.5,,TRUE,TRUE,,,,,,,,,,,,,,,,0.7,,,,,,,,,,,METAR,71.0
CWSW 252100Z 17011G23KT 130V200 20SM SCT060 OVC200 12/M03 A2999 RMK SC4CS4 SLP167 DENSITY ALT 4300FT,CWSW,2023-04-25T21:00:00Z,49.83,-114.87,12.0,-3.0,170,11,23,20.0,29.991142,1016.7,,,,,,,,,,SCT,6000,OVC,20000,,,,,VFR,,,,,,,,,,,,METAR,1173.0
CWST 252100Z AUTO 04007KT 06/04 RMK AO1 PK WND 03017/2001 SLP230 T00590038 53001,CWST,2023-04-25T21:00:00Z,47.35,-70.02,5.9,3.8,40,7,,,,1023.0,,TRUE,TRUE,,,,,,,,,,,,,,,,0.1,,,,,,,,,,,METAR,31.0
CWSS 252100Z AUTO 12001KT 08/03 RMK AO1 SLP243 T00770033 55001,CWSS,2023-04-25T21:00:00Z,45.2,-67.25,7.7,3.3,120,1,,,,1024.3,,TRUE,TRUE,,,,,,,,,,,,,,,,-0.1,,,,,,,,,,,METAR,27.0
CWSR 252100Z AUTO 15010KT 09/01 RMK AO1 SLP134 T00850011 56014,CWSR,2023-04-25T21:00:00Z,53.37,-107.55,8.5,1.1,150,10,,,,1013.4,,TRUE,TRUE,,,,,,,,,,,,,,,,-1.4,,,,,,,,,,,METAR,589.0
CWSP 252100Z AUTO 29018KT 10/04 RMK AO1 PK WND 29022/2038 SLP248 T00990044 58005,CWSP,2023-04-25T21:00:00Z,48.38,-123.92,9.9,4.4,290,18,,,,1024.8,,TRUE,TRUE,,,,,,,,,,,,,,,,-0.5,,,,,,,,,,,METAR,2.0
CWSK 252100Z AUTO 18007KT 15/06 RMK AO1 SLP234 T01540058 58013,CWSK,2023-04-25T21:00:00Z,49.78,-123.17,15.4,5.8,180,7,,,,1023.4,,TRUE,TRUE,,,,,,,,,,,,,,,,-1.3,,,,,,,,,,,METAR,59.0
CWSG 252100Z AUTO 06008KT 06/02 RMK AO1 SLP254 T00570017 56002,CWSG,2023-04-25T21:00:00Z,49.12,-66.65,5.7,1.7,60,8,,,,1025.4,,TRUE,TRUE,,,,,,,,,,,,,,,,-0.2,,,,,,,,,,,METAR,5.0
CWSF 252100Z AUTO 09010G17KT 04/02 RMK AO1 PK WND 07018/2022 SLP247 T00350016 55004,CWSF,2023-04-25T21:00:00Z,49.25,-65.32,3.5,1.6,90,10,17,,,1024.7,,TRUE,TRUE,,,,,,,,,,,,,,,,-0.4,,,,,,,,,,,METAR,15.0
CWSD 252100Z AUTO 18004KT 07/02 RMK AO1 SLP250 T00670021 51003,CWSD,2023-04-25T21:00:00Z,46.43,-63.85,6.7,2.1,180,4,,,,1025.0,,TRUE,TRUE,,,,,,,,,,,,,,,,0.3,,,,,,,,,,,METAR,12.0
CWSA 252100Z AUTO 03007KT 9SM 05/02 A3023 RMK CLD MISG SLP239,CWSA,2023-04-25T21:00:00Z,43.93,-60.0,5.0,2.0,30,7,,9.0,30.230314,1023.9,,TRUE,,,,,,,,,,,,,,,,,,,,,,,,,,,,METAR,4.0
CWRZ 252100Z AUTO 04004KT 04/02 RMK AO1 SLP255 T00390015 58002,CWRZ,2023-04-25T21:00:00Z,48.42,-64.32,3.9,1.5,40,4,,,,1025.5,,TRUE,TRUE,,,,,,,,,,,,,,,,-0.2,,,,,,,,,,,METAR,16.0
CWRY 252100Z AUTO 28014G20KT 17/M03 RMK AO1 SOG 09 6013 PK WND 28022/2027 SLP129 T01731033,CWRY,2023-04-25T21:00:00Z,49.12,-112.05,17.3,-3.3,280,14,20,,,1012.9,,TRUE,TRUE,,,,,,,,,,,,,,,,,,,,,,,,,,,METAR,1048.0
CWRU 252100Z AUTO 16017KT 08/ RMK AO1 PK WND 16021/2050 SLP246 T0076 58001,CWRU,2023-04-25T21:00:00Z,50.12,-127.93,7.6,,160,17,,,,1024.6,,TRUE,TRUE,,,,,,,,,,,,,,,,-0.1,,,,,,,,,,,METAR,76.0
CWRT 252100Z AUTO 28011G21KT 11/M03 RMK AO1 PK WND 29027/2030 SLP171 T01081032 55007,CWRT,2023-04-25T21:00:00Z,49.62,-114.47,10.8,-3.2,280,11,21,,,1017.1,,TRUE,TRUE,,,,,,,,,,,,,,,,-0.7,,,,,,,,,,,METAR,1311.0
CWRO 252100Z AUTO 15018KT 10/ RMK AO1 PK WND 15023/2043 SLP192 T0100 58012,CWRO,2023-04-25T21:00:00Z,54.17,-131.67,10.0,,150,18,,,,1019.2,,TRUE,TRUE,,,,,,,,,,,,,,,,-1.2,,,,,,,,,,,METAR,7.0
CWRN 252100Z AUTO 12008KT 04/02 RMK AO1 SLP246 T00400019 55002,CWRN,2023-04-25T21:00:00Z,45.35,-60.98,4.0,1.9,120,8,,,,1024.6,,TRUE,TRUE,,,,,,,,,,,,,,,,-0.2,,,,,,,,,,,METAR,8.0
CWRM 252100Z AUTO 26011G18KT 16/M07 RMK AO1 SOG 01 6012 PK WND 28021/2035 SLP083 T01631070,CWRM,2023-04-25T21:00:00Z,52.42,-114.92,16.3,-7.0,260,11,18,,,1008.3,,TRUE,TRUE,,,,,,,,,,,,,,,,,,,,,,,,,,,METAR,986.0
CWRK 252100Z AUTO 20004KT 08/M03 RMK AO1 SLP198 T00811031 50000,CWRK,2023-04-25T21:00:00Z,45.07,-77.87,8.1,-3.1,200,4,,,,1019.8,,TRUE,TRUE,,,,,,,,,,,,,,,,0.0,,,,,,,,,,,METAR,328.0
CWRJ 252100Z AUTO 19012G19KT 18/M02 RMK AO1 PK WND 20021/2005 SLP107 T01841022 58023,CWRJ,2023-04-25T21:00:00Z,51.57,-107.92,18.4,-2.2,190,12,19,,,1010.7,,TRUE,TRUE,,,,,,,,,,,,,,,,-2.3,,,,,,,,,,,METAR,586.0
CWRA 252100Z AUTO 01/01 RMK AO1 SLP192 T00050008 53004,CWRA,2023-04-25T21:00:00Z,46.65,-53.07,0.5,0.8,,,,,,1019.2,,TRUE,TRUE,,,,,,,,,,,,,,,,0.4,,,,,,,,,,,METAR,4.0
CWQV 252100Z AUTO 09012KT 07/ RMK AO1 T0070,CWQV,2023-04-25T21:00:00Z,48.27,-70.12,7.0,,90,12,,,,,,TRUE,TRUE,,,,,,,,,,,,,,,,,,,,,,,,,,,METAR,4.0
CWQS 252100Z AUTO 14009KT 08/04 RMK AO1 SLP165 T00820043 58022,CWQS,2023-04-25T21:00:00Z,53.32,-132.77,8.2,4.3,140,9,,,,1016.5,,TRUE,TRUE,,,,,,,,,,,,,,,,-2.2,,,,,,,,,,,METAR,10.0
CWQR 252100Z AUTO 26004KT 05/02 RMK AO1 T00480016,CWQR,2023-04-25T21:00:00Z,50.22,-64.22,4.8,1.6,260,4,,,,,,TRUE,TRUE,,,,,,,,,,,,,,,,,,,,,,,,,,,METAR,9.0
CWQP 252100Z AUTO 20012KT 06/02 RMK AO1 PK WND 20017/2000 SLP223 T00610024 58003,CWQP,2023-04-25T21:00:00Z,43.83,-77.15,6.1,2.4,200,12,,,,1022.3,,TRUE,TRUE,,,,,,,,,,,,,,,,-0.3,,,,,,,,,,,METAR,77.0
CWQO 252100Z AUTO 04009KT 04/02 RMK AO1 T00430022,CWQO,2023-04-25T21:00:00Z,48.42,-68.9,4.3,2.2,40,9,,,,,,TRUE,TRUE,,,,,,,,,,,,,,,,,,,,,,,,,,,METAR,7.0
CWQK 252100Z AUTO 23011KT 09/05 RMK AO1 SLP250 T00870053 58003,CWQK,2023-04-25T21:00:00Z,48.3,-123.53,8.7,5.3,230,11,,,,1025.0,,TRUE,TRUE,,,,,,,,,,,,,,,,-0.3,,,,,,,,,,,METAR,5.0
CWQH 252100Z AUTO 22007KT 06/04 RMK AO1 4PAST HR 3008 SLP220 P0005 T00550042 50014,CWQH,2023-04-25T21:00:00Z,45.37,-71.82,5.5,4.2,220,7,,,,1022.0,,TRUE,TRUE,,,,,,,,,,,,,,,,1.4,,,,,0.05,,,,,,METAR,181.0
CWPZ 252100Z AUTO 28007KT 08/M05 RMK AO1 SLP202 T00761050 50001,CWPZ,2023-04-25T21:00:00Z,54.38,-125.97,7.6,-5.0,280,7,,,,1020.2,,TRUE,TRUE,,,,,,,,,,,,,,,,0.1,,,,,,,,,,,METAR,715.0
CWPR 252100Z AUTO 32009KT 15/M03 RMK AO1 SLP198 T01501031 56010,CWPR,2023-04-25T21:00:00Z,49.47,-120.52,15.0,-3.1,320,9,,,,1019.8,,TRUE,TRUE,,,,,,,,,,,,,,,,-1.0,,,,,,,,,,,METAR,703.0
CWPO 252100Z AUTO 16009KT 07/M02 RMK AO1 SOG 13 8008 SLP271 T00711020,CWPO,2023-04-25T21:00:00Z,49.2,-98.9,7.1,-2.0,160,9,,,,1027.1,,TRUE,TRUE,,,,,,,,,,,,,,,,,,,,,,,,,,,METAR,471.0
CWPE 252100Z AUTO 12005KT 07/04 RMK AO1 SLP241 T00690039 56003,CWPE,2023-04-25T21:00:00Z,45.07,-66.47,6.9,3.9,120,5,,,,1024.1,,TRUE,TRUE,,,,,,,,,,,,,,,,-0.3,,,,,,,,,,,METAR,9.0
CWPD 252100Z AUTO 06002KT 03/01 RMK AO1 SLP208 T00330011 53005,CWPD,2023-04-25T21:00:00Z,47.57,-71.22,3.3,1.1,60,2,,,,1020.8,,TRUE,TRUE,,,,,,,,,,,,,,,,0.5,,,,,,,,,,,METAR,795.0
CWOY 252100Z AUTO 16020G28KT 10/M02 RMK AO1 PK WND 16028/2055 SLP189 T00971015 58017,CWOY,2023-04-25T21:00:00Z,51.77,-104.2,9.7,-1.5,160,20,28,,,1018.9,,TRUE,TRUE,,,,,,,,,,,,,,,,-1.7,,,,,,,,,,,METAR,557.0
CWOE 252100Z AUTO 11013G20KT 17/M01 RMK AO1 PK WND 12020/2054 SLP131 T01711011 56016,CWOE,2023-04-25T21:00:00Z,49.12,-110.47,17.1,-1.1,110,13,20,,,1013.1,,TRUE,TRUE,,,,,,,,,,,,,,,,-1.6,,,,,,,,,,,METAR,931.0
CWOD 252100Z AUTO 13009KT 09/04 RMK AO1 SLP218 T00870037 53002,CWOD,2023-04-25T21:00:00Z,48.85,-72.55,8.7,3.7,130,9,,,,1021.8,,TRUE,TRUE,,,,,,,,,,,,,,,,0.2,,,,,,,,,,,METAR,150.0
CWOC 252100Z AUTO 09006KT 02/02 RMK AO1 SLP252 T00150015 53001,CWOC,2023-04-25T21:00:00Z,48.02,-65.32,1.5,1.5,90,6,,,,1025.2,,TRUE,TRUE,,,,,,,,,,,,,,,,0.1,,,,,,,,,,,METAR,42.0
CWOB 252100Z AUTO 13002KT ////SM ////// 07/00 A3032,CWOB,2023-04-25T21:00:00Z,63.33,-64.15,7.0,0.0,130,2,,,30.318897,,,TRUE,,,,,,,,,,,,,,,,,,,,,,,,,,,,METAR,369.0
CWNZ 252100Z AUTO 34009G15KT 01/M04 RMK AO1 SOG 10 6003 SLP249 T00091037,CWNZ,2023-04-25T21:00:00Z,49.75,-84.17,0.9,-3.7,340,9,15,,,1024.9,,TRUE,TRUE,,,,,,,,,,,,,,,,,,,,,,,,,,,METAR,261.0
CWNQ 252100Z AUTO 15003KT 10/04 RMK AO1 SLP213 T01040043 53001,CWNQ,2023-04-25T21:00:00Z,46.22,-72.65,10.4,4.3,150,3,,,,1021.3,,TRUE,TRUE,,,,,,,,,,,,,,,,0.1,,,,,,,,,,,METAR,9.0
CWNP 252100Z AUTO 28002KT 17/01 RMK AO1 SLP184 T01720010 58011,CWNP,2023-04-25T21:00:00Z,50.27,-117.82,17.2,1.0,280,2,,,,1018.4,,TRUE,TRUE,,,,,,,,,,,,,,,,-1.1,,,,,,,,,,,METAR,517.0
CWNM 252100Z AUTO 26006KT 17/02 RMK AO1 SLP185 T01680019 56011,CWNM,2023-04-25T21:00:00Z,49.5,-117.3,16.8,1.9,260,6,,,,1018.5,,TRUE,TRUE,,,,,,,,,,,,,,,,-1.1,,,,,,,,,,,METAR,533.0
CWNK 252100Z AUTO 17008KT 08/M05 RMK AO1 SLP267 T00821047 57008,CWNK,2023-04-25T21:00:00Z,49.5,-98.03,8.2,-4.7,170,8,,,,1026.7,,TRUE,TRUE,,,,,,,,,,,,,,,,-0.8,,,,,,,,,,,METAR,271.0
CWNH 252100Z AUTO 01006KT 07/03 RMK AO1 SLP236 T00670029 56003,CWNH,2023-04-25T21:00:00Z,47.8,-69.53,6.7,2.9,10,6,,,,1023.6,,TRUE,TRUE,,,,,,,,,,,,,,,,-0.3,,,,,,,,,,,METAR,147.0
CWNE 252100Z AUTO 08010KT 02/02 RMK AO1 SLP253 T00150017 53004,CWNE,2023-04-25T21:00:00Z,47.07,-64.0,1.5,1.7,80,10,,,,1025.3,,TRUE,TRUE,,,,,,,,,,,,,,,,0.4,,,,,,,,,,,METAR,5.0
CWND 252100Z AUTO 12011KT M19/M22 RMK AO1 SLP231 T11941221 58008,CWND,2023-04-25T21:00:00Z,69.63,-135.43,-19.4,-22.1,120,11,,,,1023.1,,TRUE,TRUE,,,,,,,,,,,,,,,,-0.8,,,,,,,,,,,METAR,14.0
CWNC 252100Z AUTO 22013KT 06/03 RMK AO1 SLP215 T00550033 55002,CWNC,2023-04-25T21:00:00Z,43.95,-78.17,5.5,3.3,220,13,,,,1021.5,,TRUE,TRUE,,,,,,,,,,,,,,,,-0.2,,,,,,,,,,,METAR,71.0
CWMT 252100Z AUTO 01006KT 06/M02 RMK AO1 SLP117 T00551024 53001,CWMT,2023-04-25T21:00:00Z,63.13,-117.25,5.5,-2.4,10,6,,,,1011.7,,TRUE,TRUE,,,,,,,,,,,,,,,,0.1,,,,,,,,,,,SPECI,274.0
CWMQ 252100Z AUTO 20008KT 18/02 RMK AO1 PK WND 20018/2045 SLP118 T01770024 56014,CWMQ,2023-04-25T21:00:00Z,49.9,-109.47,17.7,2.4,200,8,,,,1011.8,,TRUE,TRUE,,,,,,,,,,,,,,,,-1.4,,,,,,,,,,,METAR,767.0
CWMM 252100Z AUTO 13003KT 14/04 RMK AO1 1PAST HR 8007 SLP252 P0000 T01350044 50001,CWMM,2023-04-25T21:00:00Z,49.22,-122.68,13.5,4.4,130,3,,,,1025.2,,TRUE,TRUE,,,,,,,,,,,,,,,,0.1,,,,,0.005,,,,,,METAR,2.0
CWMJ 252100Z AUTO 20008KT 09/M03 RMK AO1 SLP204 T00901034 51001,CWMJ,2023-04-25T21:00:00Z,46.27,-76.0,9.0,-3.4,200,8,,,,1020.4,,TRUE,TRUE,,,,,,,,,,,,,,,,0.1,,,,,,,,,,,METAR,198.0
CWME 252100Z AUTO 22006KT 10/03 RMK AO1 SLP236 T01010027 58008,CWME,2023-04-25T21:00:00Z,52.18,-127.47,10.1,2.7,220,6,,,,1023.6,,TRUE,TRUE,,,,,,,,,,,,,,,,-0.8,,,,,,,,,,,METAR,23.0
CWLX 252100Z AUTO ///// ////SM ////// M03/M05 A3029,CWLX,2023-04-25T21:00:00Z,68.9,-75.15,-3.0,-5.0,,,,,30.28937,,,TRUE,,,,,,,,,,,,,,,,,,,,,,,,,,,,METAR,129.0
CWLS 252100Z AUTO 31009G15KT 07/M06 RMK AO1 SLP208 T00701062 53001,CWLS,2023-04-25T21:00:00Z,43.97,-80.75,7.0,-6.2,310,9,15,,,1020.8,,TRUE,TRUE,,,,,,,,,,,,,,,,0.1,,,,,,,,,,,METAR,413.0
CWLP 252100Z AUTO 15012KT 09/04 RMK AO1 SLP246 T00850035 58007,CWLP,2023-04-25T21:00:00Z,50.93,-127.63,8.5,3.5,150,12,,,,1024.6,,TRUE,TRUE,,,,,,,,,,,,,,,,-0.7,,,,,,,,,,,METAR,15.0
CWLM 252100Z AUTO 21010KT 11/06 RMK AO1 SLP251 T01050061 50000,CWLM,2023-04-25T21:00:00Z,48.42,-123.32,10.5,6.1,210,10,,,,1025.1,,TRUE,TRUE,,,,,,,,,,,,,,,,0.0,,,,,,,,,,,METAR,62.0
CWLE 252100Z AUTO 19019G25KT 16/M00 RMK AO1 SOG 01 7017 PK WND 19027/2023 SLP135 T01571001,CWLE,2023-04-25T21:00:00Z,50.95,-107.15,15.7,-0.1,190,19,25,,,1013.5,,TRUE,TRUE,,,,,,,,,,,,,,,,,,,,,,,,,,,METAR,666.0
CWLC 252100Z AUTO 13015KT 07/04 RMK AO1 PK WND 13018/2025 T00700040,CWLC,2023-04-25T21:00:00Z,54.3,-130.62,7.0,4.0,130,15,,,,,,TRUE,TRUE,,,,,,,,,,,,,,,,,,,,,,,,,,,METAR,27.0
CWLB 252100Z AUTO 02005KT 05/02 RMK AO1 PK WND 33023/2002 SLP134 T00450017 53013,CWLB,2023-04-25T21:00:00Z,54.77,-112.02,4.5,1.7,20,5,,,,1013.4,,TRUE,TRUE,,,,,,,,,,,,,,,,1.3,,,,,,,,,,,METAR,561.0
CWKX 252100Z AUTO 21006KT 03/M09 RMK AO1 SOG 08 8001 SLP187 T00321094,CWKX,2023-04-25T21:00:00Z,58.43,-130.02,3.2,-9.4,210,6,,,,1018.7,,TRUE,TRUE,,,,,,,,,,,,,,,,,,,,,,,,,,,METAR,807.0
CWKO 252100Z AUTO 16015KT 13/M04 RMK AO1 PK WND 17023/2025 SLP181 T01261037 57005,CWKO,2023-04-25T21:00:00Z,49.17,-105.97,12.6,-3.7,160,15,,,,1018.1,,TRUE,TRUE,,,,,,,,,,,,,,,,-0.5,,,,,,,,,,,METAR,914.0
CWKM 252100Z AUTO 10022G30KT ////SM BKN002 M18/M21 A3018,CWKM,2023-04-25T21:00:00Z,69.6,-140.17,-18.0,-21.0,100,22,30,,30.180119,,,TRUE,,,,,,,,BKN,200,,,,,,,,,,,,,,,,,,,METAR,8.0
CWKH 252100Z AUTO 11/04 RMK AO1 SLP239 T01090043 50000,CWKH,2023-04-25T21:00:00Z,48.57,-123.55,10.9,4.3,,,,,,1023.9,,TRUE,TRUE,,,,,,,,,,,,,,,,0.0,,,,,,,,,,,METAR,327.0
CWKG 252100Z AUTO 15004KT 11/02 RMK AO1 SLP232 T01060017 53005,CWKG,2023-04-25T21:00:00Z,44.43,-65.2,10.6,1.7,150,4,,,,1023.2,,TRUE,TRUE,,,,,,,,,,,,,,,,0.5,,,,,,,,,,,METAR,154.0
CWJX 252100Z AUTO 22011G18KT 19/M02 RMK AO1 SOG 01 7019 PK WND 25021/2043 SLP098 T01901018,CWJX,2023-04-25T21:00:00Z,50.88,-109.5,19.0,-1.8,220,11,18,,,1009.8,,TRUE,TRUE,,,,,,,,,,,,,,,,,,,,,,,,,,,METAR,671.0
CWJW 252100Z AUTO 16005KT 13/M08 RMK AO1 SOG 01 8002 PK WND 14017/2000 SLP135 T01301078,CWJW,2023-04-25T21:00:00Z,52.93,-118.03,13.0,-7.8,160,5,,,,1013.5,,TRUE,TRUE,,,,,,,,,,,,,,,,,,,,,,,,,,,METAR,1022.0
CWJV 252100Z AUTO 28003KT 15/01 RMK AO1 SLP199 T01540010 58009,CWJV,2023-04-25T21:00:00Z,50.22,-119.18,15.4,1.0,280,3,,,,1019.9,,TRUE,TRUE,,,,,,,,,,,,,,,,-0.9,,,,,,,,,,,METAR,487.0
CWJU 252100Z AUTO 10006KT 09/03 RMK AO1 SLP175 T00920034 57023,CWJU,2023-04-25T21:00:00Z,54.25,-133.07,9.2,3.4,100,6,,,,1017.5,,TRUE,TRUE,,,,,,,,,,,,,,,,-2.3,,,,,,,,,,,METAR,47.0
CWJT 252100Z AUTO 12002KT 08/06 RMK AO1 SLP211 T00800061 51008,CWJT,2023-04-25T21:00:00Z,46.07,-74.57,8.0,6.1,120,2,,,,1021.1,,TRUE,TRUE,,,,,,,,,,,,,,,,0.8,,,,,,,,,,,METAR,236.0
CWJR 252100Z AUTO 20009G17KT 16/03 RMK AO1 PK WND 23020/2002 SLP189 T01620029 58011,CWJR,2023-04-25T21:00:00Z,49.03,-116.5,16.2,2.9,200,9,17,,,1018.9,,TRUE,TRUE,,,,,,,,,,,,,,,,-1.1,,,,,,,,,,,METAR,642.0
CWJO 252100Z AUTO 09006KT 10/02 RMK AO1 PK WND 13018/2021 SLP214 T01040017,CWJO,2023-04-25T21:00:00Z,48.43,-71.15,10.4,1.7,90,6,,,,1021.4,,TRUE,TRUE,,,,,,,,,,,,,,,,,,,,,,,,,,,METAR,113.0
CWJI 252100Z AUTO 17011G18KT 12/M01 RMK AO1 PK WND 18022/2034 SLP174 T01191012 58006,CWJI,2023-04-25T21:00:00Z,49.72,-105.93,11.9,-1.2,170,11,18,,,1017.4,,TRUE,TRUE,,,,,,,,,,,,,,,,-0.6,,,,,,,,,,,METAR,724.0
CWJH 252100Z AUTO 16004KT 09/M06 RMK AO1 SOG 03 8018 PK WND 15018/2019 SLP190 T00911058,CWJH,2023-04-25T21:00:00Z,56.32,-103.27,9.1,-5.8,160,4,,,,1019.0,,TRUE,TRUE,,,,,,,,,,,,,,,,,,,,,,,,,,,METAR,345.0
CWJD 252100Z AUTO 09007KT 07/M06 RMK AO1 PK WND 11017/2011 SLP254 T00681063 56014,CWJD,2023-04-25T21:00:00Z,53.18,-99.27,6.8,-6.3,90,7,,,,1025.4,,TRUE,TRUE,,,,,,,,,,,,,,,,-1.4,,,,,,,,,,,METAR,222.0
CWJC 252100Z AUTO 14021KT M02/M05 RMK AO1 SOG 01 6011 PK WND 14031/2038 SLP243 T10151054,CWJC,2023-04-25T21:00:00Z,61.13,-100.9,-1.5,-5.4,140,21,,,,1024.3,,TRUE,TRUE,,,,,,,,,,,,,,,,,,,,,,,,,,,METAR,340.0
CWJB 252100Z AUTO 07/05 RMK AO1 T00700054,CWJB,2023-04-25T21:00:00Z,46.78,-71.28,7.0,5.4,,,,,,,,TRUE,TRUE,,,,,,,,,,,,,,,,,,,,,,,,,,,METAR,90.0
CWIZ 252100Z AUTO 29007KT 09/03 RMK AO1 T00890031,CWIZ,2023-04-25T21:00:00Z,45.28,-73.33,8.9,3.1,290,7,,,,,,TRUE,TRUE,,,,,,,,,,,,,,,,,,,,,,,,,,,METAR,45.0
CWIW 252100Z AUTO 17026G31KT 11/02 RMK AO1 PK WND 18033/2043 SLP168 T01100016 57015,CWIW,2023-04-25T21:00:00Z,51.67,-105.4,11.0,1.6,170,26,31,,,1016.8,,TRUE,TRUE,,,,,,,,,,,,,,,,-1.5,,,,,,,,,,,METAR,524.0
CWIT 252100Z AUTO 26003KT 07/04 RMK AO1 2002 SLP216 T00740035 50012,CWIT,2023-04-25T21:00:00Z,45.17,-73.67,7.4,3.5,260,3,,,,1021.6,,TRUE,TRUE,,,,,,,,,,,,,,,,1.2,,,,,,,,,,,METAR,53.0
CWIS 252100Z AUTO 07002KT 01/M00 RMK AO1 3PAST HR SOG 84 3004 SLP235 P0005 T00071003 50020,CWIS,2023-04-25T21:00:00Z,47.28,-70.63,0.7,-0.3,70,2,,,,1023.5,,TRUE,TRUE,,,,,,,,,,,,,,,,2.0,,,,,0.05,,,,,,METAR,720.0
CWIP 252100Z AUTO 13004KT 07/01 RMK AO1 T00730005,CWIP,2023-04-25T21:00:00Z,50.17,-66.43,7.3,0.5,130,4,,,,,,TRUE,TRUE,,,,,,,,,,,,,,,,,,,,,,,,,,,METAR,27.0
CWIL 252100Z AUTO ///// ////SM SCT065 BKN070 BKN110 M07/M09 A3029,CWIL,2023-04-25T21:00:00Z,68.32,-100.07,-7.0,-9.0,,,,,30.28937,,,TRUE,,,,,,,,SCT,6500,BKN,7000,BKN,11000,,,,,,,,,,,,,,,METAR,28.0
CWIK 252100Z AUTO 16012KT 09/M03 RMK AO1 PK WND 15019/2044 SLP228 T00881026 57013,CWIK,2023-04-25T21:00:00Z,50.37,-102.58,8.8,-2.6,160,12,,,,1022.8,,TRUE,TRUE,,,,,,,,,,,,,,,,-1.3,,,,,,,,,,,SPECI,597.0
CWIJ 252100Z AUTO 09012KT M04/M05 RMK AO1 SOG 78 8004 SLP194 T10421053,CWIJ,2023-04-25T21:00:00Z,65.77,-111.23,-4.2,-5.3,90,12,,,,1019.4,,TRUE,TRUE,,,,,,,,,,,,,,,,,,,,,,,,,,,METAR,490.0
CWII 252100Z AUTO 34005KT 02/M04 RMK AO1 SLP268 T00221035 58011,CWII,2023-04-25T21:00:00Z,50.7,-96.57,2.2,-3.5,340,5,,,,1026.8,,TRUE,TRUE,,,,,,,,,,,,,,,,-1.1,,,,,,,,,,,METAR,216.0
CWIG 252100Z AUTO 03011G16KT RMK AO1 PK WND 02018/2003,CWIG,2023-04-25T21:00:00Z,47.07,-70.53,,,30,11,16,,,,,TRUE,TRUE,,,,,,,,,,,,,,,,,,,,,,,,,,,METAR,12.0
CWID 252100Z AUTO 04004KT 07/M00 RMK AO1 SLP093 T00681002 53009,CWID,2023-04-25T21:00:00Z,61.32,-117.6,6.8,-0.2,40,4,,,,1009.3,,TRUE,TRUE,,,,,,,,,,,,,,,,0.9,,,,,,,,,,,METAR,160.0
CWHV 252100Z AUTO 12007KT 09/03 RMK AO1 SLP210 T00930033 57005,CWHV,2023-04-25T21:00:00Z,46.2,-70.78,9.3,3.3,120,7,,,,1021.0,,TRUE,TRUE,,,,,,,,,,,,,,,,-0.5,,,,,,,,,,,METAR,227.0
CWHT 252100Z AUTO 26010G16KT 04/M07 RMK AO1 SOG 11 7003 PK WND 25017/2048 SLP149 T00361067,CWHT,2023-04-25T21:00:00Z,60.77,-137.58,3.6,-6.7,260,10,16,,,1014.9,,TRUE,TRUE,,,,,,,,,,,,,,,,,,,,,,,,,,,METAR,601.0
CWHQ 252100Z AUTO 10005KT 08/06 RMK AO1 3PAST HR M P0001 T00830057 50003,CWHQ,2023-04-25T21:00:00Z,46.68,-71.97,8.3,5.7,100,5,,,,,,TRUE,TRUE,,,,,,,,,,,,,,,,0.3,,,,,0.01,,,,,,METAR,56.0
CWHP 252100Z AUTO 04007KT 00/M00 RMK AO1 SLP254 T00001003 57002,CWHP,2023-04-25T21:00:00Z,49.08,-61.7,0.0,-0.3,40,7,,,,1025.4,,TRUE,TRUE,,,,,,,,,,,,,,,,-0.2,,,,,,,,,,,METAR,7.0
CWHO 252100Z AUTO 00003KT 02/M00 RMK AO1 SLP280 T00221001 53001,CWHO,2023-04-25T21:00:00Z,55.45,-60.22,2.2,-0.1,0,3,,,,1028.0,,TRUE,TRUE,,,,,,,,,,,,,,,,0.1,,,,,,,,,,,METAR,16.0
CWHL 252100Z AUTO 14013KT 08/04 RMK AO1 SLP201 T00840044 58004,CWHL,2023-04-25T21:00:00Z,54.17,-130.35,8.4,4.4,140,13,,,,1020.1,,TRUE,TRUE,,,,,,,,,,,,,,,,-0.4,,,,,,,,,,,METAR,5.0
CWGY 252100Z AUTO 26006KT 17/01 RMK AO1 SOG 01 6019 SLP108 T01670006,CWGY,2023-04-25T21:00:00Z,51.67,-110.2,16.7,0.6,260,6,,,,1010.8,,TRUE,TRUE,,,,,,,,,,,,,,,,,,,,,,,,,,,METAR,709.0
CWGT 252100Z AUTO 13002KT 15/10 RMK AO1 SLP254 T01540102 58005,CWGT,2023-04-25T21:00:00Z,49.48,-124.43,15.4,10.2,130,2,,,,1025.4,,TRUE,TRUE,,,,,,,,,,,,,,,,-0.5,,,,,,,,,,,METAR,5.0
CWGR 252100Z AUTO 10005KT 06/01 RMK AO1 SLP251 T00550010 57001,CWGR,2023-04-25T21:00:00Z,47.42,-61.77,5.5,1.0,100,5,,,,1025.1,,TRUE,TRUE,,,,,,,,,,,,,,,,-0.1,,,,,,,,,,,METAR,4.0
CWGM 252100Z AUTO 25019G26KT 11/M04 RMK AO1 PK WND 27032/2009 SLP151 T01111044 56002,CWGM,2023-04-25T21:00:00Z,49.13,-113.8,11.1,-4.4,250,19,26,,,1015.1,,TRUE,TRUE,,,,,,,,,,,,,,,,-0.2,,,,,,,,,,,METAR,1292.0
CWGL 252100Z AUTO 19006KT 05/01 RMK AO1 SLP195 T00460010 50000,CWGL,2023-04-25T21:00:00Z,44.53,-79.22,4.6,1.0,190,6,,,,1019.5,,TRUE,TRUE,,,,,,,,,,,,,,,,0.0,,,,,,,,,,,METAR,220.0
CWGH 252100Z AUTO 21004KT 10/M00 RMK AO1 SLP216 T01021002 55001,CWGH,2023-04-25T21:00:00Z,44.42,-75.85,10.2,-0.2,210,4,,,,1021.6,,TRUE,TRUE,,,,,,,,,,,,,,,,-0.1,,,,,,,,,,,METAR,76.0
CWGD 252100Z AUTO 27005KT 06/M01 RMK AO1 SLP220 T00621013 55000,CWGD,2023-04-25T21:00:00Z,43.77,-81.72,6.2,-1.3,270,5,,,,1022.0,,TRUE,TRUE,,,,,,,,,,,,,,,,0.0,,,,,,,,,,,METAR,214.0
CWGB 252100Z AUTO 03004KT 11/ RMK AO1 SLP249 T0106 56004,CWGB,2023-04-25T21:00:00Z,49.35,-124.13,10.6,,30,4,,,,1024.9,,TRUE,TRUE,,,,,,,,,,,,,,,,-0.4,,,,,,,,,,,METAR,6.0
CWFQ 252100Z AUTO 34005KT 09/02 RMK AO1 SLP210 T00920020 53004,CWFQ,2023-04-25T21:00:00Z,45.03,-72.85,9.2,2.0,340,5,,,,1021.0,,TRUE,TRUE,,,,,,,,,,,,,,,,0.4,,,,,,,,,,,METAR,190.0
CWFJ 252100Z AUTO 26016G25KT 14/M04 RMK AO1 PK WND 27026/2037 T01351035,CWFJ,2023-04-25T21:00:00Z,49.2,-113.27,13.5,-3.5,260,16,25,,,,,TRUE,TRUE,,,,,,,,,,,,,,,,,,,,,,,,,,,METAR,1142.0
CWFF 252100Z AUTO 16019G26KT 09/M01 RMK AO1 PK WND 17027/2003 SLP173 T00861009 56021,CWFF,2023-04-25T21:00:00Z,52.82,-104.6,8.6,-0.9,160,19,26,,,1017.3,,TRUE,TRUE,,,,,,,,,,,,,,,,-2.1,,,,,,,,,,,METAR,482.0
CWEZ 252100Z AUTO 11003KT 11/07 RMK AO1 SLP249 T01110072 50000,CWEZ,2023-04-25T21:00:00Z,48.78,-123.05,11.1,7.2,110,3,,,,1024.9,,TRUE,TRUE,,,,,,,,,,,,,,,,0.0,,,,,,,,,,,METAR,23.0
CWEW 252100Z AUTO 25008KT 10/03 RMK AO1 SLP219 T00990032 53007,CWEW,2023-04-25T21:00:00Z,45.82,-73.43,9.9,3.2,250,8,,,,1021.9,,TRUE,TRUE,,,,,,,,,,,,,,,,0.7,,,,,,,,,,,METAR,17.0
CWEU 252100Z 12014KT 15SM SCT080 BKN120 OVC200 M19/M24 A3028 RMK AS3AS2CS3 SLP270,CWEU,2023-04-25T21:00:00Z,80.0,-85.93,-19.0,-24.0,120,14,,15.0,30.280512,1027.0,,,,,,,,,,SCT,8000,BKN,12000,OVC,20000,,,VFR,,,,,,,,,,,,METAR,2.0
CWER 252100Z AUTO 06022KT RMK AO1 PK WND 06028/2026,CWER,2023-04-25T21:00:00Z,47.0,-70.82,,,60,22,,,,,,TRUE,TRUE,,,,,,,,,,,,,,,,,,,,,,,,,,,METAR,4.0
CWEQ 252100Z AUTO 12003KT 11/M07 RMK AO1 SLP226 T01101072 58018,CWEQ,2023-04-25T21:00:00Z,52.12,-101.22,11.0,-7.2,120,3,,,,1022.6,,TRUE,TRUE,,,,,,,,,,,,,,,,-1.8,,,,,,,,,,,METAR,331.0
CWEP 252100Z AUTO 34006KT 03/02 RMK AO1 SLP255 T00250017 55001,CWEP,2023-04-25T21:00:00Z,46.45,-61.98,2.5,1.7,340,6,,,,1025.5,,TRUE,TRUE,,,,,,,,,,,,,,,,-0.1,,,,,,,,,,,METAR,9.0
CWEL 252100Z AUTO 36003KT 10/07 RMK AO1 SLP251 T01040071 58002,CWEL,2023-04-25T21:00:00Z,49.22,-123.8,10.4,7.1,360,3,,,,1025.1,,TRUE,TRUE,,,,,,,,,,,,,,,,-0.2,,,,,,,,,,,METAR,0.0
CWEH 252100Z AUTO 23011KT 14/02 RMK AO1 PK WND 24018/2001 SLP137 T01440019 57011,CWEH,2023-04-25T21:00:00Z,49.43,-108.98,14.4,1.9,230,11,,,,1013.7,,TRUE,TRUE,,,,,,,,,,,,,,,,-1.1,,,,,,,,,,,METAR,1077.0
CWEF 252100Z AUTO 31009KT 04/01 RMK AO1 SLP237 T00360013 56002,CWEF,2023-04-25T21:00:00Z,47.22,-60.13,3.6,1.3,310,9,,,,1023.7,,TRUE,TRUE,,,,,,,,,,,,,,,,-0.2,,,,,,,,,,,METAR,27.0
CWDZ 252100Z AUTO 30006KT 19/M03 RMK AO1 SLP102 T01911033 56014,CWDZ,2023-04-25T21:00:00Z,51.43,-112.67,19.1,-3.3,300,6,,,,1010.2,,TRUE,TRUE,,,,,,,,,,,,,,,,-1.4,,,,,,,,,,,METAR,689.0
CWDV 252100Z AUTO 03004KT 05/M09 RMK AO1 SOG 11 7006 SLP260 T00451090,CWDV,2023-04-25T21:00:00Z,49.02,-90.47,4.5,-9.0,30,4,,,,1026.0,,TRUE,TRUE,,,,,,,,,,,,,,,,,,,,,,,,,,,METAR,487.0
CWDQ 252100Z AUTO 12001KT 06/04 RMK AO1 SLP221 T00640038 53009,CWDQ,2023-04-25T21:00:00Z,47.42,-72.78,6.4,3.8,120,1,,,,1022.1,,TRUE,TRUE,,,,,,,,,,,,,,,,0.9,,,,,,,,,,,METAR,174.0
CWDO 252100Z AUTO 01016KT M01/M01 RMK AO1 PK WND 02020/2026 SLP240 T10101010 53004,CWDO,2023-04-25T21:00:00Z,49.68,-54.78,-1.0,-1.0,10,16,,,,1024.0,,TRUE,TRUE,,,,,,,,,,,,,,,,0.4,,,,,,,,,,,METAR,89.0
CWDM 252100Z AUTO 07007KT 09/M03 RMK AO1 SLP258 T00881033 56003,CWDM,2023-04-25T21:00:00Z,50.47,-59.63,8.8,-3.3,70,7,,,,1025.8,,TRUE,TRUE,,,,,,,,,,,,,,,,-0.3,,,,,,,,,,,METAR,2.0
CWDK 252100Z AUTO 27017G24KT 16/M02 RMK AO1 PK WND 25026/2018 SLP133 T01551019 55003,CWDK,2023-04-25T21:00:00Z,50.02,-113.62,15.5,-1.9,270,17,24,,,1013.3,,TRUE,TRUE,,,,,,,,,,,,,,,,-0.3,,,,,,,,,,,METAR,1014.0
CWDJ 252100Z AUTO 16019G26KT 09/M01 RMK AO1 PK WND 16028/2031 SLP202 T00931009 58009,CWDJ,2023-04-25T21:00:00Z,50.4,-104.58,9.3,-0.9,160,19,26,,,1020.2,,TRUE,TRUE,,,,,,,,,,,,,,,,-0.9,,,,,,,,,,,METAR,576.0
CWDC 252100Z AUTO 17007KT 07/M01 RMK AO1 SOG 02 6007 SLP121 T00731009,CWDC,2023-04-25T21:00:00Z,59.57,-108.48,7.3,-0.9,170,7,,,,1012.1,,TRUE,TRUE,,,,,,,,,,,,,,,,,,,,,,,,,,,METAR,311.0
CWDA 252100Z AUTO 00006KT 03/ RMK AO1 T0032,CWDA,2023-04-25T21:00:00Z,50.72,-56.12,3.2,,0,6,,,,,,TRUE,TRUE,,,,,,,,,,,,,,,,,,,,,,,,,,,METAR,30.0
CWCT 252100Z AUTO 27010G15KT 15/02 RMK AO1 SLP121 T01450018 57014,CWCT,2023-04-25T21:00:00Z,52.07,-111.43,14.5,1.8,270,10,15,,,1012.1,,TRUE,TRUE,,,,,,,,,,,,,,,,-1.4,,,,,,,,,,,METAR,793.0
CWCO 252100Z AUTO 01004KT 05/02 RMK AO1 SLP212 T00520021 53002,CWCO,2023-04-25T21:00:00Z,44.5,-80.22,5.2,2.1,10,4,,,,1021.2,,TRUE,TRUE,,,,,,,,,,,,,,,,0.2,,,,,,,,,,,METAR,182.0
CWCJ 252100Z AUTO 03005KT 04/M04 RMK AO1 SOG 02 3003 SLP253 T00401043,CWCJ,2023-04-25T21:00:00Z,48.6,-86.28,4.0,-4.3,30,5,,,,1025.3,,TRUE,TRUE,,,,,,,,,,,,,,,,,,,,,,,,,,,METAR,207.0
CWCF 252100Z AUTO 29005KT 05/M08 RMK AO1 SLP271 T00521075 58011,CWCF,2023-04-25T21:00:00Z,52.35,-97.03,5.2,-7.5,290,5,,,,1027.1,,TRUE,TRUE,,,,,,,,,,,,,,,,-1.1,,,,,,,,,,,METAR,219.0
CWBZ 252100Z AUTO 27004KT 11/02 RMK AO1 SLP210 T01100021 56002,CWBZ,2023-04-25T21:00:00Z,45.12,-74.28,11.0,2.1,270,4,,,,1021.0,,TRUE,TRUE,,,,,,,,,,,,,,,,-0.2,,,,,,,,,,,METAR,49.0
CWBY 252100Z AUTO 22004KT 07/00 RMK AO1 SLP261 T00710000 50000,CWBY,2023-04-25T21:00:00Z,49.83,-64.28,7.1,0.0,220,4,,,,1026.1,,TRUE,TRUE,,,,,,,,,,,,,,,,0.0,,,,,,,,,,,METAR,56.0
CWBV 252100Z AUTO 17008KT 06/02 RMK AO1 SLP230 T00590021 55000,CWBV,2023-04-25T21:00:00Z,44.82,-62.33,5.9,2.1,170,8,,,,1023.0,,TRUE,TRUE,,,,,,,,,,,,,,,,0.0,,,,,,,,,,,METAR,16.0
CWBU 252100Z AUTO 15014G20KT 09/M04 RMK AO1 PK WND 15023/2022 SLP182 T00911036 58019,CWBU,2023-04-25T21:00:00Z,53.33,-104.02,9.1,-3.6,150,14,20,,,1018.2,,TRUE,TRUE,,,,,,,,,,,,,,,,-1.9,,,,,,,,,,,SPECI,369.0
CWBT 252100Z AUTO 18002KT 06/00 RMK AO1 SLP264 T00580000 55000,CWBT,2023-04-25T21:00:00Z,50.27,-64.23,5.8,0.0,180,2,,,,1026.4,,TRUE,TRUE,,,,,,,,,,,,,,,,0.0,,,,,,,,,,,METAR,12.0
CWBS 252100Z AUTO 11009KT 08/04 RMK AO1 PK WND 14018/2039 T00770036,CWBS,2023-04-25T21:00:00Z,46.18,-72.92,7.7,3.6,110,9,,,,,,TRUE,TRUE,,,,,,,,,,,,,,,,,,,,,,,,,,,METAR,3.0
CWBO 252100Z AUTO 26005KT 19/00 RMK AO1 SLP111 T01870000 57016,CWBO,2023-04-25T21:00:00Z,50.53,-111.83,18.7,0.0,260,5,,,,1011.1,,TRUE,TRUE,,,,,,,,,,,,,,,,-1.6,,,,,,,,,,,METAR,752.0
CWBK 252100Z AUTO 09005KT 05/03 RMK AO1 SLP251 T00490028 55002,CWBK,2023-04-25T21:00:00Z,45.77,-62.67,4.9,2.8,90,5,,,,1025.1,,TRUE,TRUE,,,,,,,,,,,,,,,,-0.2,,,,,,,,,,,METAR,2.0
CWBA 252100Z AUTO 34005KT 05/01 RMK AO1 T00540014 50002,CWBA,2023-04-25T21:00:00Z,46.72,-79.1,5.4,1.4,340,5,,,,,,TRUE,TRUE,,,,,,,,,,,,,,,,0.2,,,,,,,,,,,METAR,181.0
CWAV 252100Z AUTO 26012G20KT 16/M07 RMK AO1 PK WND 26020/2050 SLP112 T01571070 56010,CWAV,2023-04-25T21:00:00Z,51.77,-114.67,15.7,-7.0,260,12,20,,,1011.2,,TRUE,TRUE,,,,,,,,,,,,,,,,-1.0,,,,,,,,,,,METAR,1115.0
CWAR 252100Z AUTO 35014KT 04/M00 RMK AO1 PK WND 35020/2027 SLP210 T00401004 53004,CWAR,2023-04-25T21:00:00Z,47.28,-54.0,4.0,-0.4,350,14,,,,1021.0,,TRUE,TRUE,,,,,,,,,,,,,,,,0.4,,,,,,,,,,,METAR,6.0
CWAQ 252100Z AUTO 17016G23KT 14/M03 RMK AO1 PK WND 14024/2008 SLP180 T01411026 56010,CWAQ,2023-04-25T21:00:00Z,49.05,-105.48,14.1,-2.6,170,16,23,,,1018.0,,TRUE,TRUE,,,,,,,,,,,,,,,,-1.0,,,,,,,,,,,METAR,761.0
CWAJ 252100Z AUTO 10002KT RMK AO1 56004,CWAJ,2023-04-25T21:00:00Z,42.25,-81.9,,,100,2,,,,,,TRUE,TRUE,,,,,,,,,,,,,,,,-0.4,,,,,,,,,,,METAR,177.0
CWAF 252100Z AUTO 05013KT 05/02 RMK AO1 PK WND 05017/2023 T00460015,CWAF,2023-04-25T21:00:00Z,48.07,-69.55,4.6,1.5,50,13,,,,,,TRUE,TRUE,,,,,,,,,,,,,,,,,,,,,,,,,,,METAR,6.0
CWAE 252100Z 18002KT 15SM FEW008TCU BKN140 12/01 A3018 RMK TCU1AC7 TCU TR WIND EST SLP230,CWAE,2023-04-25T21:00:00Z,50.13,-122.95,12.0,1.0,180,2,,15.0,30.180119,1023.0,,,,,,,,,,FEW,800,BKN,14000,,,,,VFR,,,,,,,,,,,,METAR,658.0
CTRA 252100Z AUTO 36003KT 06/M08 RMK AO1 SLP269 T00641079 58010,CTRA,2023-04-25T21:00:00Z,49.67,-93.73,6.4,-7.9,360,3,,,,1026.9,,TRUE,TRUE,,,,,,,,,,,,,,,,-1.0,,,,,,,,,,,METAR,432.0
CTNK 252100Z AUTO 22003KT 06/M00 RMK AO1 5002 SLP200 T00641001 50003,CTNK,2023-04-25T21:00:00Z,45.53,-78.27,6.4,-0.1,220,3,,,,1020.0,,TRUE,TRUE,,,,,,,,,,,,,,,,0.3,,,,,,,,,,,METAR,405.0
CTCK 252100Z AUTO 23005KT 10/M02 RMK AO1 SLP208 T01021024 56001,CTCK,2023-04-25T21:00:00Z,45.25,-74.97,10.2,-2.4,230,5,,,,1020.8,,TRUE,TRUE,,,,,,,,,,,,,,,,-0.1,,,,,,,,,,,METAR,84.0
CPIN 252100Z AUTO 05012KT ////SM ////// ///// A////,CPIN,2023-04-25T21:00:00Z,,,,,50,12,,,,,,TRUE,,,,,,,,,,,,,,,,,,,,,,,,,,,,METAR,
CMGB 252100Z AUTO 13004KT 07/04 RMK AO1 4PAST HR 3005 SLP214 P0005 T00650043 50014,CMGB,2023-04-25T21:00:00Z,45.37,-72.77,6.5,4.3,130,4,,,,1021.4,,TRUE,TRUE,,,,,,,,,,,,,,,,1.4,,,,,0.05,,,,,,SPECI,87.0
CMFM 252100Z AUTO 09002KT 03/02 RMK AO1 SOG 29 3003 SLP222 T00340017,CMFM,2023-04-25T21:00:00Z,47.32,-71.15,3.4,1.7,90,2,,,,1022.2,,TRUE,TRUE,,,,,,,,,,,,,,,,,,,,,,,,,,,SPECI,663.0
CERM 252100Z AUTO 07002KT 08/03 RMK AO1 SLP240 T00750032 55002,CERM,2023-04-25T21:00:00Z,47.42,-68.32,7.5,3.2,70,2,,,,1024.0,,TRUE,TRUE,,,,,,,,,,,,,,,,-0.2,,,,,,,,,,,METAR,151.0
CAHR 252100Z AUTO 01005KT 04/02 RMK AO1 SLP251 T00440021 53003,CAHR,2023-04-25T21:00:00Z,46.35,-63.17,4.4,2.1,10,5,,,,1025.1,,TRUE,TRUE,,,,,,,,,,,,,,,,0.3,,,,,,,,,,,METAR,52.0
BKPR 252100Z VRB01KT 9999 BKN050 09/08 Q1008 NOSIG,BKPR,2023-04-25T21:00:00Z,42.58,21.03,9.0,8.0,0,1,,6.21,29.763779,,,,,,TRUE,,,,,BKN,5000,,,,,,,VFR,,,,,,,,,,,,METAR,545.0
BIRK 252100Z 13004KT 090V160 9999 -SHRA FEW020 BKN048 BKN066 04/00 Q1026,BIRK,2023-04-25T21:00:00Z,64.13,-21.93,4.0,0.0,130,4,,6.21,30.295275,,,,,,,,,,-SHRA,FEW,2000,BKN,4800,BKN,6600,,,VFR,,,,,,,,,,,,METAR,12.0
BIKF 252100Z 01005KT 9999 VCSH SCT011 BKN017 BKN031 02/01 Q1025,BIKF,2023-04-25T21:00:00Z,63.98,-22.6,2.0,1.0,10,5,,6.21,30.265747,,,,,,,,,,VCSH,SCT,1100,BKN,1700,BKN,3100,,,MVFR,,,,,,,,,,,,METAR,49.0
BIEG 252100Z 02009KT 8000 -SHSN BR FEW010 SCT025 OVC050 M02/M04 Q1029,BIEG,2023-04-25T21:00:00Z,65.27,-14.4,-2.0,-4.0,20,9,,4.97,30.383858,,,,,,,,,,-SHSN BR,FEW,1000,SCT,2500,OVC,5000,,,MVFR,,,,,,,,,,,,METAR,20.0
BIAR 252100Z 31007KT 280V350 9999 -RASN SCT025 OVC056 M00/M06 Q1029,BIAR,2023-04-25T21:00:00Z,65.67,-18.07,0.0,-6.0,310,7,,6.21,30.383858,,,,,,,,,,-RA -SN,SCT,2500,OVC,5600,,,,,VFR,,,,,,,,,,,,METAR,1.0
AYPY 252100Z VRB03KT 9999 HZ FEW030 24/23 Q1008,AYPY,2023-04-25T21:00:00Z,-9.43,147.22,24.0,23.0,0,3,,6.21,29.763779,,,,,,,,,,HZ,FEW,3000,,,,,,,VFR,,,,,,,,,,,,METAR,44.0
AYNZ 252100Z 34003KT 9999 BKN020 OVC090 26/22 Q1009,AYNZ,2023-04-25T21:00:00Z,-6.57,146.72,26.0,22.0,340,3,,6.21,29.793306,,,,,,,,,,,BKN,2000,OVC,9000,,,,,MVFR,,,,,,,,,,,,METAR,74.0
AYMH 252100Z VRB03KT 5000M FG BKN005 16/16 Q1020,AYMH,2023-04-25T21:00:00Z,-5.83,144.3,16.0,16.0,0,3,,3.11,30.11811,,,,,,,,,,FG,BKN,500,,,,,,,IFR,,,,,,,,,,,,SPECI,1634.0
AGGM 252100Z 00000KT 9999 FEW017 SCT100 28/25 Q1009,AGGM,2023-04-25T21:00:00Z,-8.32,157.27,28.0,25.0,0,0,,6.21,29.793306,,,,,,,,,,,FEW,1700,SCT,10000,,,,,VFR,,,,,,,,,,,,METAR,6.0
AGGH 252100Z 18002KT 9999 FEW017 SCT300 27/24 Q1009,AGGH,2023-04-25T21:00:00Z,-9.42,160.05,27.0,24.0,180,2,,6.21,29.793306,,,,,,,,,,,FEW,1700,SCT,30000,,,,,VFR,,,,,,,,,,,,METAR,6.0
RODE 252059Z AUTO 34011KT -RA SCT011 OVC020 20/19 A2991 RMK AO2 RAE00B32 SLP170 P0000 60000 T02000194 53006 $,RODE,2023-04-25T20:59:00Z,26.72,127.77,20.0,19.4,340,11,,,29.911417,1017.0,,TRUE,TRUE,TRUE,,,,,-RA,SCT,1100,OVC,2000,,,,,,0.6,,,,,0.005,0.005,,,,,METAR,69.0
PADG 252059Z 10013KT 15SM BKN100 M06/M10 A2986,PADG,2023-04-25T20:59:00Z,68.03,-162.9,-6.0,-10.0,100,13,,15.0,29.861221,,,,,,,,,,,BKN,10000,,,,,,,VFR,,,,,,,,,,,,SPECI,296.0
MUCF 252059Z AUTO 20010KT 160V230 29/22 Q1012,MUCF,2023-04-25T20:59:00Z,22.15,-80.4,29.0,22.0,200,10,,,29.88189,,,TRUE,,,,,,,,,,,,,,,,,,,,,,,,,,,,METAR,35.0
KNOZ 252059Z AUTO VRB06KT 10SM CLR 31/07 A2977 RMK AO2 SLP029 T03110067 58014,KNOZ,2023-04-25T20:59:00Z,32.53,-114.5,31.1,6.7,0,6,,10.0,29.769686,1002.9,,TRUE,TRUE,,,,,,,CLR,,,,,,,,VFR,-1.4,,,,,,,,,,,SPECI,78.0
KMRT 252059Z AUTO 23007KT 10SM OVC065 11/M02 A3014 RMK AO1,KMRT,2023-04-25T20:59:00Z,40.22,-83.35,11.0,-2.0,230,7,,10.0,30.138779,,,TRUE,TRUE,,,,,,,OVC,6500,,,,,,,VFR,,,,,,,,,,,,METAR,302.0
KBJC 252059Z 35021G30KT 10SM -TSRA SCT039 OVC048 10/02 A2986 RMK OCNL LGT ICCG,KBJC,2023-04-25T20:59:00Z,39.9,-105.1,10.0,2.0,350,21,30,10.0,29.861221,,,,,,,,,,-TSRA,SCT,3900,OVC,4800,,,,,VFR,,,,,,,,,,,,SPECI,1694.0
K04W 252059Z AUTO 01006KT 10SM BKN055 09/M06 A3026 RMK AO2,K04W,2023-04-25T20:59:00Z,46.02,-92.9,9.0,-6.0,10,6,,10.0,30.259842,,,TRUE,TRUE,,,,,,,BKN,5500,,,,,,,VFR,,,,,,,,,,,,SPECI,310.0
ETIH 252059Z AUTO 26003KT 9999 FEW036 FEW046 05/01 A2997 RMK AO2 DZE59 SLP159 $,ETIH,2023-04-25T20:59:00Z,49.22,11.83,5.0,1.0,260,3,,6.21,29.970472,1015.9,,TRUE,TRUE,TRUE,,,,,,FEW,3600,FEW,4600,,,,,VFR,,,,,,,,,,,,SPECI,436.0
EHEH 252059Z AUTO 32003KT 280V360 9999 NCD 04/00 Q1019 BLU,EHEH,2023-04-25T20:59:00Z,51.45,5.38,4.0,0.0,320,3,,6.21,30.088583,,,TRUE,,,,,,,,CLR,,,,,,,,VFR,,,,,,,,,,,,SPECI,20.0
PASD 252058Z 22009KT 10SM SCT020 BKN029 BKN039 04/M01 A2948 RMK AO2 $,PASD,2023-04-25T20:58:00Z,55.33,-160.52,4.0,-1.0,220,9,,10.0,29.480314,,,,TRUE,TRUE,,,,,,SCT,2000,BKN,2900,BKN,3900,,,MVFR,,,,,,,,,,,,SPECI,6.0
MMCU 252058Z 27006KT 10SM SKC 29/M14 A2989 RMK SLP023 57035 953,MMCU,2023-04-25T20:58:00Z,28.7,-105.97,29.0,-14.0,270,6,,10.0,29.890747,1002.3,,,,,,,,,,SKC,,,,,,,,VFR,-3.5,,,,,,,,,,,METAR,1349.0
KROG 252058Z 21008KT 10SM OVC043 14/06 A3006 RMK AO2 SLP176 T01440056 58006,KROG,2023-04-25T20:58:00Z,36.37,-94.1,14.4,5.6,210,8,,10.0,30.059055,1017.6,,,TRUE,,,,,,,OVC,4300,,,,,,,VFR,-0.6,,,,,,,,,,,METAR,407.0
KRDR 252058Z 00000KT 10SM SCT055 10/M04 A3025 RMK SLP258 57007,KRDR,2023-04-25T20:58:00Z,47.93,-97.4,10.0,-4.0,0,0,,10.0,30.250984,1025.8,,,,,,,,,,SCT,5500,,,,,,,VFR,-0.7,,,,,,,,,,,SPECI,276.0
KPRN 252058Z AUTO 03003KT 10SM CLR 24/09 A2998 RMK AO2 SLP098 T02390094 58015,KPRN,2023-04-25T20:58:00Z,31.85,-86.62,23.9,9.4,30,3,,10.0,29.97933,1009.8,,TRUE,TRUE,,,,,,,CLR,,,,,,,,VFR,-1.5,,,,,,,,,,,SPECI,137.0
KMRH 252058Z AUTO 06009KT 10SM CLR 19/08 A3013 RMK AO2 SLP202 T01940083 55005,KMRH,2023-04-25T20:58:00Z,34.73,-76.65,19.4,8.3,60,9,,10.0,30.129921,1020.2,,TRUE,TRUE,,,,,,,CLR,,,,,,,,VFR,-0.5,,,,,,,,,,,SPECI,2.0
KMEI 252058Z 01005KT 10SM FEW100 24/08 A3000 RMK AO2 SLP155 T02440083 58021,KMEI,2023-04-25T20:58:00Z,32.33,-88.75,24.4,8.3,10,5,,10.0,30.0,1015.5,,,TRUE,,,,,,,FEW,10000,,,,,,,VFR,-2.1,,,,,,,,,,,SPECI,90.0
KFEW 252058Z 09010KT 10SM BKN014 OVC020 07/03 A2993 RMK SLPNO WND DATA ESTMD ALSTG ESTMD $,KFEW,2023-04-25T20:58:00Z,41.13,-104.87,7.0,3.0,90,10,,10.0,29.929134,,,,,TRUE,,,,,,BKN,1400,OVC,2000,,,,,MVFR,,,,,,,,,,,,METAR,1877.0
KEUF 252058Z AUTO 00000KT 10SM SCT060 26/11 A2998 RMK AO2 SLP149 T02610111 58017,KEUF,2023-04-25T20:58:00Z,31.95,-85.13,26.1,11.1,0,0,,10.0,29.97933,1014.9,,TRUE,TRUE,,,,,,,SCT,6000,,,,,,,VFR,-1.7,,,,,,,,,,,SPECI,87.0
KBCR 252058Z AUTO 34007KT 10SM CLR 28/14 A2994 RMK AO2 SLP098 T02830139 58018 $,KBCR,2023-04-25T20:58:00Z,30.85,-85.6,28.3,13.9,340,7,,10.0,29.940945,1009.8,,TRUE,TRUE,TRUE,,,,,,CLR,,,,,,,,VFR,-1.8,,,,,,,,,,,SPECI,26.0
K0J4 252058Z AUTO 00000KT 10SM BKN055 28/12 A2997 RMK AO2 SLP144 T02780122 58014,K0J4,2023-04-25T20:58:00Z,31.05,-86.32,27.8,12.2,0,0,,10.0,29.970472,1014.4,,TRUE,TRUE,,,,,,,BKN,5500,,,,,,,VFR,-1.4,,,,,,,,,,,METAR,96.0
PHNG 252057Z 03012KT 10SM BKN025 29/22 A3003 RMK AO2 SLP162 T02890217 50001 $,PHNG,2023-04-25T20:57:00Z,21.43,-157.77,28.9,21.7,30,12,,10.0,30.029528,1016.2,,,TRUE,TRUE,,,,,,BKN,2500,,,,,,,MVFR,0.1,,,,,,,,,,,SPECI,1.0
PABA 252057Z AUTO 03004KT 9SM OVC006 M18/M21 A3022 RMK AO2 SNE54 CIG 004V009 FZRANO PNO $,PABA,2023-04-25T20:57:00Z,70.13,-143.58,-18.0,-21.0,30,4,,9.0,30.221457,,,TRUE,TRUE,TRUE,,,TRUE,,,OVC,600,,,,,,,IFR,,,,,,,,,,,,METAR,1.0
KNYL 252057Z VRB05KT 7SM CLR 31/07 A2975 RMK AO2 SLP071 T03060072,KNYL,2023-04-25T20:57:00Z,32.65,-114.62,30.6,7.2,0,5,,7.0,29.749016,1007.1,,,TRUE,,,,,,,CLR,,,,,,,,VFR,,,,,,,,,,,,SPECI,58.0
KNJW 252057Z AUTO 00000KT 10SM CLR 22/06 A3005 RMK AO2 SLP090 T02170056 56018,KNJW,2023-04-25T20:57:00Z,32.78,-88.82,21.7,5.6,0,0,,10.0,30.050198,1009.0,,TRUE,TRUE,,,,,,,CLR,,,,,,,,VFR,-1.8,,,,,,,,,,,METAR,165.0
KNJM 252057Z AUTO 10012G19KT 8SM SCT120 22/06 A3013 RMK AO2 SLP205 T02220056 55006,KNJM,2023-04-25T20:57:00Z,34.68,-77.02,22.2,5.6,100,12,19,8.0,30.129921,1020.5,,TRUE,TRUE,,,,,,,SCT,12000,,,,,,,VFR,-0.6,,,,,,,,,,,SPECI,5.0
KMNM 252057Z AUTO 09008KT 10SM OVC055 05/M03 A3023 RMK AO2 SLP260 6//// T00501028 53002 PNO $,KMNM,2023-04-25T20:57:00Z,45.12,-87.63,5.0,-2.8,90,8,,10.0,30.230314,1026.0,,TRUE,TRUE,TRUE,,,,,,OVC,5500,,,,,,,VFR,0.2,,,,,,,,,,,METAR,188.0
KFLG 252057Z 26016G30KT 10SM FEW100 17/M08 A2994 RMK AO2 PK WND 26032/2022 SLP072 T01721083 56005,KFLG,2023-04-25T20:57:00Z,35.13,-111.67,17.2,-8.3,260,16,30,10.0,29.940945,1007.2,,,TRUE,,,,,,,FEW,10000,,,,,,,VFR,-0.5,,,,,,,,,,,SPECI,2134.0
KAQV 252057Z AUTO 07004KT 9SM -RA FEW065 OVC100 19/14 A2994 RMK AO2 SLP139 P0001 60001 T01890139 58018,KAQV,2023-04-25T20:57:00Z,31.4,-93.3,18.9,13.9,70,4,,9.0,29.940945,1013.9,,TRUE,TRUE,,,,,,-RA,FEW,6500,OVC,10000,,,,,VFR,-1.8,,,,,0.01,0.01,,,,,METAR,123.0
TJSJ 252056Z 06013KT 10SM FEW046 SCT060 BKN085 27/20 A2990 RMK AO2 SLP125 T02720200 56009,TJSJ,2023-04-25T20:56:00Z,18.43,-66.02,27.2,20.0,60,13,,10.0,29.899607,1012.5,,,TRUE,,,,,,,FEW,4600,SCT,6000,BKN,8500,,,VFR,-0.9,,,,,,,,,,,SPECI,3.0
ROTM 252056Z 36011KT 9999 VCSH BKN005 OVC011 19/19 A2990 RMK SHRAE22 CIG 003V008 SLP112 P0001 60001 T01940194 52005,ROTM,2023-04-25T20:56:00Z,26.27,127.75,19.4,19.4,360,11,,6.21,29.899607,1011.2,,,,,,,,,VCSH,BKN,500,OVC,1100,,,,,IFR,0.5,,,,,0.01,0.01,,,,,METAR,80.0
RJOI 252056Z 27005KT 10SM FEW010 BKN025 BKN070 14/12 A2978 RMK AO2 SLP083 60001 T01390117 53022,RJOI,2023-04-25T20:56:00Z,34.13,132.23,13.9,11.7,270,5,,10.0,29.778543,1008.3,,,TRUE,,,,,,,FEW,1000,BKN,2500,BKN,7000,,,MVFR,2.2,,,,,,0.01,,,,,METAR,2.0
PPIZ 252056Z AUTO 04014KT 10SM CLR M17/M21 A3017 RMK AO2 SLP220 T11671206 58008 FZRANO,PPIZ,2023-04-25T20:56:00Z,69.73,-163.0,-16.7,-20.6,40,14,,10.0,30.171259,1022.0,,TRUE,TRUE,,,,TRUE,,,CLR,,,,,,,,VFR,-0.8,,,,,,,,,,,METAR,5.0
PMDY 252056Z AUTO 10SM 22/13 A3024 RMK AO2 SLP240 T02170128 51003 TSNO $,PMDY,2023-04-25T20:56:00Z,28.22,-177.37,21.7,12.8,,,,10.0,30.239174,1024.0,,TRUE,TRUE,TRUE,,TRUE,,,,,,,,,,,,,0.3,,,,,,,,,,,METAR,6.0
PFYU 252056Z 05009KT 10SM BKN095 M07/M17 A3001 RMK AO2 SLP182 T10671172 58006,PFYU,2023-04-25T20:56:00Z,66.57,-145.23,-6.7,-17.2,50,9,,10.0,30.008858,1018.2,,,TRUE,,,,,,,BKN,9500,,,,,,,VFR,-0.6,,,,,,,,,,,METAR,130.0
PFWS 252056Z AUTO 11008KT 10SM BKN042 OVC050 03/M02 A2950 RMK AO2 SLP033 T00281017 55001,PFWS,2023-04-25T20:56:00Z,58.7,-157.0,2.8,-1.7,110,8,,10.0,29.500984,1003.3,,TRUE,TRUE,,,,,,,BKN,4200,OVC,5000,,,,,VFR,-0.1,,,,,,,,,,,METAR,40.0
PFSH 252056Z AUTO 01012KT 10SM CLR M06/M09 A2972 RMK AO2 SLP065 T10561089 56008 FZRANO,PFSH,2023-04-25T20:56:00Z,64.37,-161.22,-5.6,-8.9,10,12,,10.0,29.719488,1006.5,,TRUE,TRUE,,,,TRUE,,,CLR,,,,,,,,VFR,-0.8,,,,,,,,,,,METAR,6.0
PFNO 252056Z AUTO 06015KT 10SM CLR M06/M14 A2990 RMK AO2 SLP212 T10561144 58010 FZRANO $,PFNO,2023-04-25T20:56:00Z,66.82,-161.02,-5.6,-14.4,60,15,,10.0,29.899607,1021.2,,TRUE,TRUE,TRUE,,,TRUE,,,CLR,,,,,,,,VFR,-1.0,,,,,,,,,,,METAR,14.0
PFKW 252056Z AUTO 08008KT 10SM SCT060 01/M07 A2951 RMK AO2 SLP993 T00061067 56007 FZRANO,PFKW,2023-04-25T20:56:00Z,60.8,-161.43,0.6,-6.7,80,8,,10.0,29.509842,999.3,,TRUE,TRUE,,,,TRUE,,,SCT,6000,,,,,,,VFR,-0.7,,,,,,,,,,,METAR,4.0
PFKT 252056Z AUTO 06018KT 10SM CLR A2978 RMK AO2 PK WND 03030/2007 SLPNO 51003 FZRANO $,PFKT,2023-04-25T20:56:00Z,65.33,-166.47,,,60,18,,10.0,29.778543,,,TRUE,TRUE,TRUE,,,TRUE,,,CLR,,,,,,,,VFR,0.3,,,,,,,,,,,METAR,8.0
PFEL 252056Z AUTO 03013G18KT 10SM CLR M03/M12 A2972 RMK AO2 SLP067 T10331117 58003 FZRANO,PFEL,2023-04-25T20:56:00Z,64.62,-162.27,-3.3,-11.7,30,13,18,10.0,29.719488,1006.7,,TRUE,TRUE,,,,TRUE,,,CLR,,,,,,,,VFR,-0.3,,,,,,,,,,,METAR,50.0
PAWS 252056Z AUTO 08008KT 10SM OVC085 06/M07 A2975 RMK AO2 SLP081 T00611067 58003,PAWS,2023-04-25T20:56:00Z,61.57,-149.53,6.1,-6.7,80,8,,10.0,29.749016,1008.1,,TRUE,TRUE,,,,,,,OVC,8500,,,,,,,VFR,-0.3,,,,,,,,,,,METAR,102.0
PAWN 252056Z AUTO 00000KT 10SM CLR M03/M14 RMK AO2 SLPNO T10331139 FZRANO $,PAWN,2023-04-25T20:56:00Z,67.57,-162.98,-3.3,-13.9,0,0,,10.0,,,,TRUE,TRUE,TRUE,,,TRUE,,,CLR,,,,,,,,VFR,,,,,,,,,,,,METAR,26.0
PAWM 252056Z AUTO VRB06KT 8SM CLR M02/M12 A2971 RMK AO2 SLP065 T10171117 58005 FZRANO,PAWM,2023-04-25T20:56:00Z,64.68,-163.42,-1.7,-11.7,0,6,,8.0,29.71063,1006.5,,TRUE,TRUE,,,,TRUE,,,CLR,,,,,,,,VFR,-0.5,,,,,,,,,,,METAR,80.0
PAWG 252056Z 11008KT 10SM FEW025 SCT045 BKN070 07/01 A3013,PAWG,2023-04-25T20:56:00Z,56.48,-132.37,7.0,1.0,110,8,,10.0,30.129921,,,,,,,,,,,FEW,2500,SCT,4500,BKN,7000,,,VFR,,,,,,,,,,,,METAR,6.0
PAVD 252056Z COR 26003KT 7SM -RA SCT024 BKN037 OVC050 03/M01 A2997 RMK AO2 RAB47SNE47 SLP144 PCPN VRY LGT P0000 60000 T00281011 58001 $,PAVD,2023-04-25T20:56:00Z,61.13,-146.25,2.8,-1.1,260,3,,7.0,29.970472,1014.4,TRUE,,TRUE,TRUE,,,,,-RA,SCT,2400,BKN,3700,OVC,5000,,,VFR,-0.1,,,,,0.005,0.005,,,,,METAR,21.0
PAVC 252056Z AUTO 28019G25KT 9SM -RA OVC017 03/01 A2945 RMK AO2 RAB34 SLP974 P0000 60000 T00280011 56003,PAVC,2023-04-25T20:56:00Z,55.12,-162.27,2.8,1.1,280,19,25,9.0,29.450787,997.4,,TRUE,TRUE,,,,,,-RA,OVC,1700,,,,,,,MVFR,-0.3,,,,,0.005,0.005,,,,,METAR,48.0
PAUN 252056Z AUTO 08020KT 10SM CLR M03/M10 A2971 RMK AO2 PK WND 09027/2032 SLP064 60000 T10281100 50001 FZRANO,PAUN,2023-04-25T20:56:00Z,63.88,-160.8,-2.8,-10.0,80,20,,10.0,29.71063,1006.4,,TRUE,TRUE,,,,TRUE,,,CLR,,,,,,,,VFR,0.1,,,,,,0.005,,,,,METAR,4.0
PATQ 252056Z AUTO 00000KT 8SM CLR M12/M14 A3019 RMK AO2 SLP228 60000 T11171144 58009 FZRANO TSNO,PATQ,2023-04-25T20:56:00Z,70.47,-157.43,-11.7,-14.4,0,0,,8.0,30.188976,1022.8,,TRUE,TRUE,,,TRUE,TRUE,,,CLR,,,,,,,,VFR,-0.9,,,,,,0.005,,,,,METAR,28.0
PATE 252056Z AUTO 10016KT 10SM CLR M06/M11 A2975 RMK AO2 SLP082 T10611106 55008 FZRANO,PATE,2023-04-25T20:56:00Z,65.23,-166.33,-6.1,-10.6,100,16,,10.0,29.749016,1008.2,,TRUE,TRUE,,,,TRUE,,,CLR,,,,,,,,VFR,-0.8,,,,,,,,,,,METAR,93.0
PASX 252056Z AUTO 08006KT 10SM SCT070 04/M01 A2972 RMK AO2 SLP071 T00391011 58002,PASX,2023-04-25T20:56:00Z,60.48,-151.05,3.9,-1.1,80,6,,10.0,29.719488,1007.1,,TRUE,TRUE,,,,,,,SCT,7000,,,,,,,VFR,-0.2,,,,,,,,,,,METAR,28.0
PASM 252056Z AUTO 08010KT 10SM BKN032 M03/M09 A2958 RMK AO2 SLP028 T10331089 56005 FZRANO,PASM,2023-04-25T20:56:00Z,62.07,-163.3,-3.3,-8.9,80,10,,10.0,29.58071,1002.8,,TRUE,TRUE,,,,TRUE,,,BKN,3200,,,,,,,VFR,-0.5,,,,,,,,,,,METAR,108.0
PASK 252056Z AUTO 07020KT 10SM CLR M06/M12 A2990 RMK AO2 SLP124 T10611122 58006 FZRANO,PASK,2023-04-25T20:56:00Z,66.6,-160.0,-6.1,-12.2,70,20,,10.0,29.899607,1012.4,,TRUE,TRUE,,,,TRUE,,,CLR,,,,,,,,VFR,-0.6,,,,,,,,,,,METAR,3.0
PARY 252056Z AUTO 08018G22KT 10SM CLR M05/M14 A2977 RMK AO2 SLP099 T10501139 58005 FZRANO,PARY,2023-04-25T20:56:00Z,64.73,-155.47,-5.0,-13.9,80,18,22,10.0,29.769686,1009.9,,TRUE,TRUE,,,,TRUE,,,CLR,,,,,,,,VFR,-0.5,,,,,,,,,,,METAR,185.0
PARC 252056Z AUTO 32005KT 10SM CLR M10/M22 A2991 RMK AO2 SLP201 T11001217 56010 FZRANO,PARC,2023-04-25T20:56:00Z,68.12,-145.58,-10.0,-21.7,320,5,,10.0,29.911417,1020.1,,TRUE,TRUE,,,,TRUE,,,CLR,,,,,,,,VFR,-1.0,,,,,,,,,,,METAR,626.0
PAPO 252056Z AUTO 05025G28KT 6SM HZ CLR M07/M12 A2997 RMK AO2 PK WND 04029/2056 UPB12E16SNB00E12B16E53 SLP147 P0000 60000 T10671122 56015 FZRANO,PAPO,2023-04-25T20:56:00Z,68.35,-166.8,-6.7,-12.2,50,25,28,6.0,29.970472,1014.7,,TRUE,TRUE,,,,TRUE,,HZ,CLR,,,,,,,,VFR,-1.5,,,,,0.005,0.005,,,,,METAR,4.0
PAPM 252056Z AUTO 05015KT 9SM -SN OVC020 M01/M02 A2945 RMK AO2 SLP976 P0000 60000 T10061022 55000 FZRANO,PAPM,2023-04-25T20:56:00Z,59.02,-161.82,-0.6,-2.2,50,15,,9.0,29.450787,997.6,,TRUE,TRUE,,,,TRUE,,-SN,OVC,2000,,,,,,,MVFR,0.0,,,,,0.005,0.005,,,,,METAR,4.0
PAPH 252056Z AUTO 26011KT 10SM SCT008 SCT027 04/02 A2946 RMK AO2 UPB1957E05RAB05E26 SLP976 P0000 60000 T00440022 51008,PAPH,2023-04-25T20:56:00Z,56.95,-158.62,4.4,2.2,260,11,,10.0,29.459646,997.6,,TRUE,TRUE,,,,,,,SCT,800,SCT,2700,,,,,VFR,0.8,,,,,0.005,0.005,,,,,METAR,29.0
PAOU 252056Z AUTO 14012KT 10SM SCT029 BKN036 BKN044 04/00 A2942 RMK AO2 SLP964 6//// T00440000 55004 PNO $,PAOU,2023-04-25T20:56:00Z,56.0,-161.17,4.4,0.0,140,12,,10.0,29.421259,996.4,,TRUE,TRUE,TRUE,,,,,,SCT,2900,BKN,3600,BKN,4400,,,VFR,-0.4,,,,,,,,,,,METAR,3.0
PAOH 252056Z AUTO 06006KT 10SM FEW021 BKN034 OVC055 06/02 A3005 RMK AO2 RAB10E40 SLP178 P0000 60000 T00560017 58002,PAOH,2023-04-25T20:56:00Z,58.1,-135.45,5.6,1.7,60,6,,10.0,30.050198,1017.8,,TRUE,TRUE,,,,,,,FEW,2100,BKN,3400,OVC,5500,,,VFR,-0.2,,,,,0.005,0.005,,,,,METAR,0.0
PANI 252056Z AUTO 11010G15KT 10SM CLR 01/M06 A2962 RMK AO2 SLP022 T00111056 56007 FZRANO $,PANI,2023-04-25T20:56:00Z,61.58,-159.53,1.1,-5.6,110,10,15,10.0,29.619095,1002.2,,TRUE,TRUE,TRUE,,,TRUE,,,CLR,,,,,,,,VFR,-0.7,,,,,,,,,,,METAR,21.0
PANA 252056Z AUTO 07006KT 10SM SCT036 00/M07 A2952 RMK AO2 SLP995 T00001067 56004 FZRANO TSNO $,PANA,2023-04-25T20:56:00Z,60.68,-161.98,0.0,-6.7,70,6,,10.0,29.518702,999.5,,TRUE,TRUE,TRUE,,TRUE,TRUE,,,SCT,3600,,,,,,,VFR,-0.4,,,,,,,,,,,METAR,7.0
PAMY 252056Z AUTO 04009KT 10SM CLR M01/M05 A3029 RMK AO2 SLP257 60000 T10111050 51213 FZRANO,PAMY,2023-04-25T20:56:00Z,60.37,-166.27,-1.1,-5.0,40,9,,10.0,30.28937,1025.7,,TRUE,TRUE,,,,TRUE,,,CLR,,,,,,,,VFR,0.0,,,,,,0.005,,,,,METAR,14.0
PAMO 252056Z AUTO 08013KT 10SM CLR M04/M09 A2957 RMK AO2 SLP022 T10391089 57005 FZRANO,PAMO,2023-04-25T20:56:00Z,62.1,-163.68,-3.9,-8.9,80,13,,10.0,29.568897,1002.2,,TRUE,TRUE,,,,TRUE,,,CLR,,,,,,,,VFR,-0.5,,,,,,,,,,,METAR,93.0
PAMM 252056Z AUTO 10004KT 10SM BKN040 OVC055 08/01 A3014 RMK AO2 SLP302 60000 T00830011 58009 $,PAMM,2023-04-25T20:56:00Z,55.13,-131.58,8.3,1.1,100,4,,10.0,30.138779,1030.2,,TRUE,TRUE,TRUE,,,,,,BKN,4000,OVC,5500,,,,,VFR,-0.9,,,,,,0.005,,,,,METAR,0.0
PAMK 252056Z AUTO 06016KT 10SM CLR M03/M08 A2966 RMK AO2 SLP046 T10281083 58003 FZRANO,PAMK,2023-04-25T20:56:00Z,63.48,-162.12,-2.8,-8.3,60,16,,10.0,29.660433,1004.6,,TRUE,TRUE,,,,TRUE,,,CLR,,,,,,,,VFR,-0.3,,,,,,,,,,,METAR,31.0
PAMH 252056Z AUTO 07006KT CLR M04/M12 A2977 RMK AO2 SLP088 T10391117 58003 PWINO FZRANO $,PAMH,2023-04-25T20:56:00Z,63.9,-152.28,-3.9,-11.7,70,6,,,29.769686,1008.8,,TRUE,TRUE,TRUE,,,TRUE,TRUE,,CLR,,,,,,,,,-0.3,,,,,,,,,,,METAR,200.0
PALG 252056Z AUTO 09006KT 10SM BKN031 OVC043 M01/M07 A2956 RMK AO2 SLP014 T10061067 58000 FZRANO,PALG,2023-04-25T20:56:00Z,61.53,-160.33,-0.6,-6.7,90,6,,10.0,29.56004,1001.4,,TRUE,TRUE,,,,TRUE,,,BKN,3100,OVC,4300,,,,,VFR,0.0,,,,,,,,,,,METAR,13.0
PAKP 252056Z AUTO 04008KT 10SM CLR M18/M23 A2986 RMK AO2 SLP200 60000 T11831233 58002 FZRANO,PAKP,2023-04-25T20:56:00Z,68.13,-151.73,-18.3,-23.3,40,8,,10.0,29.861221,1020.0,,TRUE,TRUE,,,,TRUE,,,CLR,,,,,,,,VFR,-0.2,,,,,,0.005,,,,,METAR,649.0
PAKI 252056Z AUTO 10SM CLR M02/M05 A2950 RMK AO2 SLP993 T10221050 55001 FZRANO $,PAKI,2023-04-25T20:56:00Z,59.93,-164.03,-2.2,-5.0,,,,10.0,29.500984,999.3,,TRUE,TRUE,TRUE,,,TRUE,,,CLR,,,,,,,,VFR,-0.1,,,,,,,,,,,METAR,4.0
PAKH 252056Z AUTO 10SM UP OVC009 03/02 A2951 RMK AO2 RAE44UPB44 SLP993 P0000 60000 T00280022 55003 TSNO $,PAKH,2023-04-25T20:56:00Z,56.93,-154.18,2.8,2.2,,,,10.0,29.509842,999.3,,TRUE,TRUE,TRUE,,TRUE,,,UP,OVC,900,,,,,,,IFR,-0.3,,,,,0.005,0.005,,,,,METAR,15.0
PAKF 252056Z AUTO 20008KT 10SM OVC037 A2941 RMK AO2 SLPNO 60000 53000 FZRANO $,PAKF,2023-04-25T20:56:00Z,54.85,-163.42,,,200,8,,10.0,29.409449,,,TRUE,TRUE,TRUE,,,TRUE,,,OVC,3700,,,,,,,VFR,0.0,,,,,,0.005,,,,,METAR,2.0
PAIW 252056Z AUTO 06020G24KT 9SM CLR M11/M14 A2984 RMK AO2 SLP107 T11061144 58004 FZRANO,PAIW,2023-04-25T20:56:00Z,65.62,-168.1,-10.6,-14.4,60,20,24,9.0,29.840551,1010.7,,TRUE,TRUE,,,,TRUE,,,CLR,,,,,,,,VFR,-0.4,,,,,,,,,,,METAR,6.0
PAIN 252056Z AUTO 18007KT 150V210 10SM CLR 04/M08 A2969 RMK AO2 SLP085 T00391083 58001,PAIN,2023-04-25T20:56:00Z,63.73,-148.92,3.9,-8.3,180,7,,10.0,29.68996,1008.5,,TRUE,TRUE,,,,,,,CLR,,,,,,,,VFR,-0.1,,,,,,,,,,,METAR,525.0
PAIG 252056Z AUTO 08014G19KT 10SM OVC070 03/M01 A2952 RMK AO2 SLP006 60000 T00281011 56007 $,PAIG,2023-04-25T20:56:00Z,59.32,-155.9,2.8,-1.1,80,14,19,10.0,29.518702,1000.6,,TRUE,TRUE,TRUE,,,,,,OVC,7000,,,,,,,VFR,-0.7,,,,,,0.005,,,,,METAR,24.0
PAHY 252056Z AUTO 14010G17KT 10SM FEW030 SCT035 OVC046 07/00 A3008 RMK AO2 SLP183 60000 T00720000 58016 $,PAHY,2023-04-25T20:56:00Z,55.2,-132.83,7.2,0.0,140,10,17,10.0,30.079725,1018.3,,TRUE,TRUE,TRUE,,,,,,FEW,3000,SCT,3500,OVC,4600,,,VFR,-1.6,,,,,,0.005,,,,,METAR,0.0
PAHL 252056Z AUTO 06011G18KT 10SM CLR M05/M14 A2985 RMK AO2 SLP115 T10501139 58004 FZRANO,PAHL,2023-04-25T20:56:00Z,65.7,-156.35,-5.0,-13.9,60,11,18,10.0,29.84941,1011.5,,TRUE,TRUE,,,,TRUE,,,CLR,,,,,,,,VFR,-0.4,,,,,,,,,,,METAR,49.0
PAHC 252056Z AUTO 03007KT 340V050 10SM OVC055 M02/M09 A2962 RMK AO2 SLP034 T10221089 58003 FZRANO,PAHC,2023-04-25T20:56:00Z,62.18,-159.78,-2.2,-8.9,30,7,,10.0,29.619095,1003.4,,TRUE,TRUE,,,,TRUE,,,OVC,5500,,,,,,,VFR,-0.3,,,,,,,,,,,METAR,21.0
PAGS 252056Z AUTO 12010KT 10SM FEW029 SCT041 OVC050 07/01 A3007 RMK AO2 SLP182 T00670006 57003,PAGS,2023-04-25T20:56:00Z,58.42,-135.7,6.7,0.6,120,10,,10.0,30.070866,1018.2,,TRUE,TRUE,,,,,,,FEW,2900,SCT,4100,OVC,5000,,,VFR,-0.3,,,,,,,,,,,METAR,9.0
PAGN 252056Z AUTO 35003KT 10SM BKN015 BKN022 OVC032 05/03 A3008 RMK AO2 RAB1958E46 SLP176 P0001 60001 T00500028 57001,PAGN,2023-04-25T20:56:00Z,57.5,-134.58,5.0,2.8,350,3,,10.0,30.079725,1017.6,,TRUE,TRUE,,,,,,,BKN,1500,BKN,2200,OVC,3200,,,MVFR,-0.1,,,,,0.01,0.01,,,,,METAR,2.0
PAGL 252056Z AUTO 06007KT 10SM CLR M03/M09 A2973 RMK AO2 SLP062 T10281089 58001 FZRANO,PAGL,2023-04-25T20:56:00Z,64.55,-163.0,-2.8,-8.9,60,7,,10.0,29.731298,1006.2,,TRUE,TRUE,,,,TRUE,,,CLR,,,,,,,,VFR,-0.1,,,,,,,,,,,METAR,20.0
PAFM 252056Z AUTO 09008KT 10SM CLR M06/M16 A2994 RMK AO2 SLP149 T10561161 58012 FZRANO,PAFM,2023-04-25T20:56:00Z,67.1,-157.85,-5.6,-16.1,90,8,,10.0,29.940945,1014.9,,TRUE,TRUE,,,,TRUE,,,CLR,,,,,,,,VFR,-1.2,,,,,,,,,,,METAR,79.0
PADU 252056Z 23014KT 10SM -RASN BKN020 BKN027 OVC035 04/00 A2951 RMK AO2 SLP997 P0000 60003 T00390000 53007,PADU,2023-04-25T20:56:00Z,53.9,-166.53,3.9,0.0,230,14,,10.0,29.509842,999.7,,,TRUE,,,,,,-RA -SN,BKN,2000,BKN,2700,OVC,3500,,,MVFR,0.7,,,,,0.005,0.03,,,,,METAR,4.0
PADM 252056Z AUTO 02018KT 10SM FEW044 SCT100 M01/M06 A2960 RMK AO2 SLP028 T10061061 56006 FZRANO,PADM,2023-04-25T20:56:00Z,61.87,-162.03,-0.6,-6.1,20,18,,10.0,29.601377,1002.8,,TRUE,TRUE,,,,TRUE,,,FEW,4400,SCT,10000,,,,,VFR,-0.6,,,,,,,,,,,METAR,17.0
PADL 252056Z 03009KT 1 1/2SM -SN BR OVC008 M01/M02 A2950 RMK AO2 SLP992 P0000 60001 T10061017 56002,PADL,2023-04-25T20:56:00Z,59.05,-158.5,-0.6,-1.7,30,9,,1.5,29.500984,999.2,,,TRUE,,,,,,-SN BR,OVC,800,,,,,,,IFR,-0.2,,,,,0.005,0.01,,,,,METAR,20.0
PADK 252056Z AUTO 36011KT SCT035 SCT042 BKN050 04/M01 A2955 RMK AO2 SLP006 T00441006 58019 PWINO $,PADK,2023-04-25T20:56:00Z,51.88,-176.65,4.4,-0.6,360,11,,,29.551182,1000.6,,TRUE,TRUE,TRUE,,,,TRUE,,SCT,3500,SCT,4200,BKN,5000,,,,-1.9,,,,,,,,,,,METAR,3.0
PACM 252056Z AUTO 00000KT CLR M05/M12 A2962 RMK AO2 SLP026 T10501117 56005 PWINO FZRANO $,PACM,2023-04-25T20:56:00Z,61.85,-165.57,-5.0,-11.7,0,0,,,29.619095,1002.6,,TRUE,TRUE,TRUE,,,TRUE,TRUE,,CLR,,,,,,,,,-0.5,,,,,,,,,,,METAR,3.0
PABV 252056Z AUTO 00000KT 10SM BKN100 04/M02 A2975 RMK AO2 SLP079 T00391022 58005,PABV,2023-04-25T20:56:00Z,61.42,-149.52,3.9,-2.2,0,0,,10.0,29.749016,1007.9,,TRUE,TRUE,,,,,,,BKN,10000,,,,,,,VFR,-0.5,,,,,,,,,,,METAR,21.0
PABL 252056Z AUTO 07012KT 10SM OVC050 M04/M11 A2984 RMK AO2 SLP108 T10391106 58010 FZRANO,PABL,2023-04-25T20:56:00Z,65.98,-161.15,-3.9,-10.6,70,12,,10.0,29.840551,1010.8,,TRUE,TRUE,,,,TRUE,,,OVC,5000,,,,,,,VFR,-1.0,,,,,,,,,,,METAR,7.0
OTBH 252056Z 33007KT 9999 CLR 25/17 A2973 Q1006 RMK SLP068 T02540165 403750221 50001 FZRANO $,OTBH,2023-04-25T20:56:00Z,25.12,51.32,25.4,16.5,330,7,,6.21,29.704725,1006.8,,,,TRUE,,,TRUE,,,CLR,,,,,,,,VFR,0.1,,,37.5,22.1,,,,,,,SPECI,40.0
NZCM 252056Z AUTO 04018G29KT 020V090 2300 HZ OVC027 M25/M30 A2947 RMK AO2 SLP986 T12471301,NZCM,2023-04-25T20:56:00Z,-77.85,166.67,-24.7,-30.1,40,18,29,1.43,29.471457,998.6,,TRUE,TRUE,,,,,,HZ,OVC,2700,,,,,,,IFR,,,,,,,,,,,,SPECI,24.0
KYKN 252056Z AUTO 09011G16KT 9SM CLR 14/M02 A3012 RMK AO2 SLP215 T01391017 58011,KYKN,2023-04-25T20:56:00Z,42.92,-97.37,13.9,-1.7,90,11,16,9.0,30.121063,1021.5,,TRUE,TRUE,,,,,,,CLR,,,,,,,,VFR,-1.1,,,,,,,,,,,METAR,388.0
KY50 252056Z AUTO 35006KT 10SM OVC055 08/M04 A3021 RMK AO2 SLP237 6//// T00781044 56001 $,KY50,2023-04-25T20:56:00Z,44.03,-89.3,7.8,-4.4,350,6,,10.0,30.209646,1023.7,,TRUE,TRUE,TRUE,,,,,,OVC,5500,,,,,,,VFR,-0.1,,,,,,,,,,,METAR,261.0
KWWD 252056Z AUTO 32007KT 10SM FEW070 14/00 A3019 RMK AO2 SLP225 T01440000 55001 $,KWWD,2023-04-25T20:56:00Z,39.02,-74.92,14.4,0.0,320,7,,10.0,30.188976,1022.5,,TRUE,TRUE,TRUE,,,,,,FEW,7000,,,,,,,VFR,-0.1,,,,,,,,,,,METAR,4.0
KWVL 252056Z AUTO 11003KT 10SM OVC009 06/05 A3019 RMK AO2 RAE47 CIG 008V014 SLP255 P0000 60002 T00610050 53002,KWVL,2023-04-25T20:56:00Z,44.52,-69.67,6.1,5.0,110,3,,10.0,30.188976,1025.5,,TRUE,TRUE,,,,,,,OVC,900,,,,,,,IFR,0.2,,,,,0.005,0.02,,,,,METAR,87.0
KWMC 252056Z AUTO VRB03KT 10SM CLR 15/M06 A3014 RMK AO2 SLP192 T01501061 57008,KWMC,2023-04-25T20:56:00Z,40.9,-117.8,15.0,-6.1,0,3,,10.0,30.138779,1019.2,,TRUE,TRUE,,,,,,,CLR,,,,,,,,VFR,-0.8,,,,,,,,,,,METAR,1311.0
KWJF 252056Z 07009KT 10SM CLR 29/M02 A2990 RMK AO2 SLP107 T02891017 58009,KWJF,2023-04-25T20:56:00Z,34.73,-118.22,28.9,-1.7,70,9,,10.0,29.899607,1010.7,,,TRUE,,,,,,,CLR,,,,,,,,VFR,-0.9,,,,,,,,,,,METAR,712.0
KVIS 252056Z AUTO VRB03KT 10SM CLR 25/10 A2991 RMK AO2 SLP134 T02500100 58014,KVIS,2023-04-25T20:56:00Z,36.32,-119.4,25.0,10.0,0,3,,10.0,29.911417,1013.4,,TRUE,TRUE,,,,,,,CLR,,,,,,,,VFR,-1.4,,,,,,,,,,,METAR,92.0
KVBT 252056Z AUTO 21007KT 10SM OVC045 14/06 A3007 RMK AO2 SLP182 T01440061 56006,KVBT,2023-04-25T20:56:00Z,36.35,-94.22,14.4,6.1,210,7,,10.0,30.070866,1018.2,,TRUE,TRUE,,,,,,,OVC,4500,,,,,,,VFR,-0.6,,,,,,,,,,,METAR,390.0
KUKI 252056Z AUTO 00000KT 10SM CLR 27/03 A2991 RMK AO2 SLP122 T02720028 57022,KUKI,2023-04-25T20:56:00Z,39.12,-123.2,27.2,2.8,0,0,,10.0,29.911417,1012.2,,TRUE,TRUE,,,,,,,CLR,,,,,,,,VFR,-2.2,,,,,,,,,,,METAR,183.0
KUDG 252056Z AUTO 08007KT 10SM BKN080 BKN110 21/05 A3011 RMK AO2 SLP199 T02110050 58004,KUDG,2023-04-25T20:56:00Z,34.45,-79.88,21.1,5.0,80,7,,10.0,30.109253,1019.9,,TRUE,TRUE,,,,,,,BKN,8000,BKN,11000,,,,,VFR,-0.4,,,,,,,,,,,METAR,57.0
KUCP 252056Z AUTO 16005KT 10SM OVC065 11/M03 A3015 RMK AO2 SLP232 T01061028 56010,KUCP,2023-04-25T20:56:00Z,41.03,-80.42,10.6,-2.8,160,5,,10.0,30.15059,1023.2,,TRUE,TRUE,,,,,,,OVC,6500,,,,,,,VFR,-1.0,,,,,,,,,,,METAR,313.0
KTVF 252056Z AUTO VRB03KT 10SM OVC060 07/M06 A3028 RMK AO2 SLP270 T00721061 56005,KTVF,2023-04-25T20:56:00Z,48.07,-96.17,7.2,-6.1,0,3,,10.0,30.280512,1027.0,,TRUE,TRUE,,,,,,,OVC,6000,,,,,,,VFR,-0.5,,,,,,,,,,,METAR,339.0
KTPH 252056Z AUTO 10SM CLR 18/M08 A3007 RMK AO2 SLP136 T01781083 56011,KTPH,2023-04-25T20:56:00Z,38.05,-117.08,17.8,-8.3,,,,10.0,30.070866,1013.6,,TRUE,TRUE,,,,,,,CLR,,,,,,,,VFR,-1.1,,,,,,,,,,,METAR,1647.0
KSXT 252056Z AUTO VRB03KT 10SM CLR 14/04 A3013 RMK AO2 RAB34E44 SLP191 P0000 60000 T01440044 57005,KSXT,2023-04-25T20:56:00Z,42.6,-123.37,14.4,4.4,0,3,,10.0,30.129921,1019.1,,TRUE,TRUE,,,,,,,CLR,,,,,,,,VFR,-0.5,,,,,0.005,0.005,,,,,METAR,1151.0
KSUE 252056Z AUTO 01010KT 10SM BKN055 07/M04 A3022 RMK AO2 SLP240 T00671039 53002,KSUE,2023-04-25T20:56:00Z,44.85,-87.42,6.7,-3.9,10,10,,10.0,30.221457,1024.0,,TRUE,TRUE,,,,,,,BKN,5500,,,,,,,VFR,0.2,,,,,,,,,,,METAR,215.0
KSRC 252056Z AUTO 11007KT 10SM SCT049 19/06 A3008 RMK AO2 SLP185 T01940061 58015,KSRC,2023-04-25T20:56:00Z,35.22,-91.73,19.4,6.1,110,7,,10.0,30.079725,1018.5,,TRUE,TRUE,,,,,,,SCT,4900,,,,,,,VFR,-1.5,,,,,,,,,,,METAR,80.0
KSQI 252056Z AUTO 07006KT 10SM FEW038 OVC048 12/02 A3018 RMK AO2 SLP085 T01170022 51002,KSQI,2023-04-25T20:56:00Z,41.75,-89.67,11.7,2.2,70,6,,10.0,30.180119,1008.5,,TRUE,TRUE,,,,,,,FEW,3800,OVC,4800,,,,,VFR,0.2,,,,,,,,,,,METAR,196.0
KSPD 252056Z AUTO 06013KT 11/07 A2984 RMK AO1 SLP079 T01060072 55001,KSPD,2023-04-25T20:56:00Z,37.28,-102.62,10.6,7.2,60,13,,,29.840551,1007.9,,TRUE,TRUE,,,,,,,,,,,,,,,,-0.1,,,,,,,,,,,SPECI,1340.0
KSOP 252056Z AUTO 09004KT 10SM SCT060 BKN120 19/06 A3012 RMK AO2 SLP205 T01890061 56005 TSNO,KSOP,2023-04-25T20:56:00Z,35.23,-79.4,18.9,6.1,90,4,,10.0,30.121063,1020.5,,TRUE,TRUE,,,TRUE,,,,SCT,6000,BKN,12000,,,,,VFR,-0.5,,,,,,,,,,,METAR,135.0
KSMP 252056Z AUTO VRB06KT 10SM CLR 09/01 A3018 RMK AO2 SLP227 T00940011 58001,KSMP,2023-04-25T20:56:00Z,47.28,-121.33,9.4,1.1,0,6,,10.0,30.180119,1022.7,,TRUE,TRUE,,,,,,,CLR,,,,,,,,VFR,-0.1,,,,,,,,,,,SPECI,1206.0
KSMN 252056Z AUTO 17003KT 10SM CLR 14/M01 A3010 RMK AO2 SLP883 T01391006 58014,KSMN,2023-04-25T20:56:00Z,45.12,-113.87,13.9,-0.6,170,3,,10.0,30.100393,988.3,,TRUE,TRUE,,,,,,,CLR,,,,,,,,VFR,-1.4,,,,,,,,,,,METAR,1228.0
KSLG 252056Z AUTO 18011KT 10SM SCT047 13/06 A3006 RMK AO2 SLP177 T01330056 58005,KSLG,2023-04-25T20:56:00Z,36.2,-94.48,13.3,5.6,180,11,,10.0,30.059055,1017.7,,TRUE,TRUE,,,,,,,SCT,4700,,,,,,,VFR,-0.5,,,,,,,,,,,METAR,361.0
KSLE 252056Z 36007KT 340V040 10SM CLR 17/06 A3019 RMK AO2 SLP222 T01720061 56017,KSLE,2023-04-25T20:56:00Z,44.9,-123.0,17.2,6.1,360,7,,10.0,30.188976,1022.2,,,TRUE,,,,,,,CLR,,,,,,,,VFR,-1.7,,,,,,,,,,,METAR,63.0
KSKX 252056Z AUTO 27016G22KT 10SM CLR 15/M03 A2986 RMK AO2 PK WND 25029/2013 WSHFT 2006 SLP075 60000 T01501033 56011,KSKX,2023-04-25T20:56:00Z,36.45,-105.67,15.0,-3.3,270,16,22,10.0,29.861221,1007.5,,TRUE,TRUE,,,,,,,CLR,,,,,,,,VFR,-1.1,,,,,,0.005,,,,,METAR,2163.0
KSHV 252056Z 09008KT 10SM BKN095 23/11 A2996 RMK SLPNO,KSHV,2023-04-25T20:56:00Z,32.45,-93.83,23.0,11.0,90,8,,10.0,29.958662,,,,,,,,,,,BKN,9500,,,,,,,VFR,,,,,,,,,,,,METAR,70.0
KSGU 252056Z AUTO 35006KT 10SM CLR 21/M06 A2995 RMK AO2 SLP116 T02061061 56007,KSGU,2023-04-25T20:56:00Z,37.03,-113.52,20.6,-6.1,350,6,,10.0,29.949802,1011.6,,TRUE,TRUE,,,,,,,CLR,,,,,,,,VFR,-0.7,,,,,,,,,,,METAR,877.0
KSGT 252056Z AUTO 09009KT 10SM CLR 18/04 A3007 RMK AO2 SLP183 T01780044 58018,KSGT,2023-04-25T20:56:00Z,34.6,-91.57,17.8,4.4,90,9,,10.0,30.070866,1018.3,,TRUE,TRUE,,,,,,,CLR,,,,,,,,VFR,-1.8,,,,,,,,,,,METAR,67.0
KSGJ 252056Z 08010KT 10SM 23/18 A2998 RMK AO2 SLP150 T02330183 55012 $,KSGJ,2023-04-25T20:56:00Z,29.97,-81.33,23.3,18.3,80,10,,10.0,29.97933,1015.0,,,TRUE,TRUE,,,,,,,,,,,,,,,-1.2,,,,,,,,,,,METAR,2.0
KSGH 252056Z AUTO 24005KT 10SM BKN065 OVC110 13/M02 A3013 RMK AO2 SLP209 T01281017 58009,KSGH,2023-04-25T20:56:00Z,39.83,-83.83,12.8,-1.7,240,5,,10.0,30.129921,1020.9,,TRUE,TRUE,,,,,,,BKN,6500,OVC,11000,,,,,VFR,-0.9,,,,,,,,,,,METAR,318.0
KSFZ 252056Z AUTO 26004KT 10SM FEW070 SCT095 15/M01 A3012 RMK AO2 SLP202 T01501011 55001,KSFZ,2023-04-25T20:56:00Z,41.92,-71.5,15.0,-1.1,260,4,,10.0,30.121063,1020.2,,TRUE,TRUE,,,,,,,FEW,7000,SCT,9500,,,,,VFR,-0.1,,,,,,,,,,,METAR,129.0
KSFO 252056Z 29012KT 10SM BKN250 24/07 A2992 RMK AO2 SLP133 T02390072 58016,KSFO,2023-04-25T20:56:00Z,37.62,-122.37,23.9,7.2,290,12,,10.0,29.920275,1013.3,,,TRUE,,,,,,,BKN,25000,,,,,,,VFR,-1.6,,,,,,,,,,,METAR,2.0
KSEE 252056Z 27008G14KT 10SM FEW027 21/11 A2990,KSEE,2023-04-25T20:56:00Z,32.82,-116.97,21.0,11.0,270,8,14,10.0,29.899607,,,,,,,,,,,FEW,2700,,,,,,,VFR,,,,,,,,,,,,METAR,113.0
KSDY 252056Z AUTO 16013G22KT 10SM CLR 16/00 A3006 RMK AO2 SLP191 T01560000 58014,KSDY,2023-04-25T20:56:00Z,47.7,-104.2,15.6,0.0,160,13,22,10.0,30.059055,1019.1,,TRUE,TRUE,,,,,,,CLR,,,,,,,,VFR,-1.4,,,,,,,,,,,METAR,600.0
KSDF 252056Z 23004KT 10SM FEW100 18/M01 A3010 RMK AO2 SLP192 T01831011 56019,KSDF,2023-04-25T20:56:00Z,38.18,-85.73,18.3,-1.1,230,4,,10.0,30.100393,1019.2,,,TRUE,,,,,,,FEW,10000,,,,,,,VFR,-1.9,,,,,,,,,,,METAR,146.0
KSBP 252056Z 31018KT 10SM CLR 19/11 A2990 RMK AO2 SLP124 T01890111 56013,KSBP,2023-04-25T20:56:00Z,35.23,-120.63,18.9,11.1,310,18,,10.0,29.899607,1012.4,,,TRUE,,,,,,,CLR,,,,,,,,VFR,-1.3,,,,,,,,,,,METAR,52.0
KRUT 252056Z AUTO 33004KT 10SM FEW060 08/02 A3015 RMK AO2 RAE04 SLP212 P0000 60005 T00830022 51003 $,KRUT,2023-04-25T20:56:00Z,43.53,-72.95,8.3,2.2,330,4,,10.0,30.15059,1021.2,,TRUE,TRUE,TRUE,,,,,,FEW,6000,,,,,,,VFR,0.3,,,,,0.005,0.05,,,,,METAR,238.0
KRNM 252056Z 00000KT 6SM HZ FEW030 19/12 A2990 RMK AO2 T01940117,KRNM,2023-04-25T20:56:00Z,33.03,-116.92,19.4,11.7,0,0,,6.0,29.899607,,,,TRUE,,,,,,HZ,FEW,3000,,,,,,,VFR,,,,,,,,,,,,METAR,423.0
KRKD 252056Z AUTO 09008KT 10SM OVC008 06/04 A3023 RMK AO2 RAE1957 CIG 006V011 SLP238 60001 T00560044 53003,KRKD,2023-04-25T20:56:00Z,44.07,-69.1,5.6,4.4,90,8,,10.0,30.230314,1023.8,,TRUE,TRUE,,,,,,,OVC,800,,,,,,,IFR,0.3,,,,,,0.01,,,,,METAR,15.0
KRDM 252056Z VRB05KT 10SM CLR 18/M03 A3013 RMK AO2 SLP204 T01831028 56018,KRDM,2023-04-25T20:56:00Z,44.25,-121.15,18.3,-2.8,0,5,,10.0,30.129921,1020.4,,,TRUE,,,,,,,CLR,,,,,,,,VFR,-1.8,,,,,,,,,,,METAR,930.0
KPWT 252056Z AUTO VRB03KT 10SM FEW033 13/06 A3027 RMK AO2 SLP255 T01280061 58005,KPWT,2023-04-25T20:56:00Z,47.5,-122.77,12.8,6.1,0,3,,10.0,30.268702,1025.5,,TRUE,TRUE,,,,,,,FEW,3300,,,,,,,VFR,-0.5,,,,,,,,,,,METAR,143.0
KPWG 252056Z AUTO 13008KT 10SM OVC023 22/17 A2989 RMK AO2 SLP118 T02170167 58019,KPWG,2023-04-25T20:56:00Z,31.48,-97.32,21.7,16.7,130,8,,10.0,29.890747,1011.8,,TRUE,TRUE,,,,,,,OVC,2300,,,,,,,MVFR,-1.9,,,,,,,,,,,METAR,178.0
KPVU 252056Z 32013KT 10SM OVC047 07/01 A3010 RMK AO2 SLP190 T00670006 53011,KPVU,2023-04-25T20:56:00Z,40.22,-111.72,6.7,0.6,320,13,,10.0,30.100393,1019.0,,,TRUE,,,,,,,OVC,4700,,,,,,,VFR,1.1,,,,,,,,,,,METAR,1370.0
KPVG 252056Z AUTO 10SM CLR 17/02 A3018 RMK AO2 SLP221 T01670017 56005 $,KPVG,2023-04-25T20:56:00Z,36.78,-76.45,16.7,1.7,,,,10.0,30.180119,1022.1,,TRUE,TRUE,TRUE,,,,,,CLR,,,,,,,,VFR,-0.5,,,,,,,,,,,METAR,7.0
KPVC 252056Z AUTO 07007KT 10SM CLR 12/08 A3016 RMK AO2 SLP213 T01170078 53002,KPVC,2023-04-25T20:56:00Z,42.07,-70.22,11.7,7.8,70,7,,10.0,30.159449,1021.3,,TRUE,TRUE,,,,,,,CLR,,,,,,,,VFR,0.2,,,,,,,,,,,METAR,1.0
KPTV 252056Z AUTO 27006KT 10SM CLR 26/09 A2991 RMK AO2 SLPNO T02610089 58017,KPTV,2023-04-25T20:56:00Z,36.02,-119.07,26.1,8.9,270,6,,10.0,29.911417,,,TRUE,TRUE,,,,,,,CLR,,,,,,,,VFR,-1.7,,,,,,,,,,,METAR,132.0
KPRX 252056Z AUTO 08011KT 10SM -RA BKN047 OVC060 14/10 A2998 RMK AO2 RAB56 SLP150 P0000 60000 T01440100 58016,KPRX,2023-04-25T20:56:00Z,33.63,-95.45,14.4,10.0,80,11,,10.0,29.97933,1015.0,,TRUE,TRUE,,,,,,-RA,BKN,4700,OVC,6000,,,,,VFR,-1.6,,,,,0.005,0.005,,,,,METAR,165.0
KPQI 252056Z AUTO 16007KT 10SM OVC027 09/03 A3022 RMK AO2 SLP264 T00890033 55003,KPQI,2023-04-25T20:56:00Z,46.68,-68.05,8.9,3.3,160,7,,10.0,30.221457,1026.4,,TRUE,TRUE,,,,,,,OVC,2700,,,,,,,MVFR,-0.3,,,,,,,,,,,METAR,154.0
KPIB 252056Z AUTO 09004KT 10SM CLR 25/10 A2999 RMK AO2 SLP153 6//// T02500100 58022,KPIB,2023-04-25T20:56:00Z,31.47,-89.33,25.0,10.0,90,4,,10.0,29.991142,1015.3,,TRUE,TRUE,,,,,,,CLR,,,,,,,,VFR,-2.2,,,,,,,,,,,METAR,91.0
KP60 252056Z AUTO 00000KT 08/M06 A3006 RMK AO1 SLP151 T00831061 51008,KP60,2023-04-25T20:56:00Z,44.55,-110.42,8.3,-6.1,0,0,,,30.059055,1015.1,,TRUE,TRUE,,,,,,,,,,,,,,,,0.8,,,,,,,,,,,METAR,2377.0
KP53 252056Z AUTO 34012G24KT 01/M03 A3025 RMK AO1 SLP251 T00111028 51005,KP53,2023-04-25T20:56:00Z,46.42,-86.65,1.1,-2.8,340,12,24,,30.250984,1025.1,,TRUE,TRUE,,,,,,,,,,,,,,,,0.5,,,,,,,,,,,SPECI,185.0
KP28 252056Z AUTO 13013G20KT 09/08 A2998 RMK AO1 SLP153 60024 T00890083 56008 $,KP28,2023-04-25T20:56:00Z,37.28,-98.55,8.9,8.3,130,13,20,,29.97933,1015.3,,TRUE,TRUE,TRUE,,,,,,,,,,,,,,,-0.8,,,,,,0.24,,,,,METAR,469.0
KOWB 252056Z 00000KT 10SM CLR 18/01 A3011 RMK AO2 SLP197 T01830006 56018,KOWB,2023-04-25T20:56:00Z,37.72,-87.17,18.3,0.6,0,0,,10.0,30.109253,1019.7,,,TRUE,,,,,,,CLR,,,,,,,,VFR,-1.8,,,,,,,,,,,METAR,121.0
KOTH 252056Z 35021KT 10SM CLR 13/09 A3016 RMK AO2 PK WND 35026/2018 SLP214 T01330089 58015,KOTH,2023-04-25T20:56:00Z,43.42,-124.25,13.3,8.9,350,21,,10.0,30.159449,1021.4,,,TRUE,,,,,,,CLR,,,,,,,,VFR,-1.5,,,,,,,,,,,METAR,3.0
KOTG 252056Z AUTO 07006G15KT 10SM CLR 10/M07 A3019 RMK AO2 SLP238 6//// T01001072 56004 PNO $,KOTG,2023-04-25T20:56:00Z,43.65,-95.57,10.0,-7.2,70,6,15,10.0,30.188976,1023.8,,TRUE,TRUE,TRUE,,,,,,CLR,,,,,,,,VFR,-0.4,,,,,,,,,,,METAR,478.0
KOLU 252056Z AUTO 11010KT 10SM BKN055 17/03 A3007 RMK AO2 SLP187 6//// T01720028 56007,KOLU,2023-04-25T20:56:00Z,41.45,-97.33,17.2,2.8,110,10,,10.0,30.070866,1018.7,,TRUE,TRUE,,,,,,,BKN,5500,,,,,,,VFR,-0.7,,,,,,,,,,,METAR,438.0
KOKK 252056Z AUTO 25010KT 10SM BKN080 BKN090 14/01 A3011 RMK AO2 SLP197 6//// T01390006 58008 PNO $,KOKK,2023-04-25T20:56:00Z,40.53,-86.07,13.9,0.6,250,10,,10.0,30.109253,1019.7,,TRUE,TRUE,TRUE,,,,,,BKN,8000,BKN,9000,,,,,VFR,-0.8,,,,,,,,,,,METAR,251.0
KOFK 252056Z AUTO 11010G20KT 10SM CLR 17/00 A3007 RMK AO2 SLP185 T01720000 56007,KOFK,2023-04-25T20:56:00Z,41.98,-97.43,17.2,0.0,110,10,20,10.0,30.070866,1018.5,,TRUE,TRUE,,,,,,,CLR,,,,,,,,VFR,-0.7,,,,,,,,,,,METAR,476.0
KOCH 252056Z AUTO 10008KT 9SM OVC070 20/14 A2995 RMK AO2 SLP144 T02000139 58025 PWINO $,KOCH,2023-04-25T20:56:00Z,31.57,-94.72,20.0,13.9,100,8,,9.0,29.949802,1014.4,,TRUE,TRUE,TRUE,,,,TRUE,,OVC,7000,,,,,,,VFR,-2.5,,,,,,,,,,,METAR,105.0
KOAJ 252056Z 12005KT 10SM BKN075 OVC100 20/03 A3012 RMK AO2 SLP202 T02000033 55009,KOAJ,2023-04-25T20:56:00Z,34.82,-77.62,20.0,3.3,120,5,,10.0,30.121063,1020.2,,,TRUE,,,,,,,BKN,7500,OVC,10000,,,,,VFR,-0.9,,,,,,,,,,,METAR,26.0
KNYG 252056Z 15005KT 9SM CLR 16/02 A3019 RMK AO2 SLP223 T01560022 58008,KNYG,2023-04-25T20:56:00Z,38.5,-77.3,15.6,2.2,150,5,,9.0,30.188976,1022.3,,,TRUE,,,,,,,CLR,,,,,,,,VFR,-0.8,,,,,,,,,,,SPECI,2.0
KNXP 252056Z AUTO 36014G20KT 10SM CLR 29/01 A2992 RMK AO2 SLP097 T02890006 58011,KNXP,2023-04-25T20:56:00Z,34.28,-116.13,28.9,0.6,360,14,20,10.0,29.920275,1009.7,,TRUE,TRUE,,,,,,,CLR,,,,,,,,VFR,-1.1,,,,,,,,,,,SPECI,610.0
KNXF 252056Z AUTO 24007KT 9SM 17/14 A2991 RMK AO2 SLP213 T01720139 58007 $,KNXF,2023-04-25T20:56:00Z,33.28,-117.45,17.2,13.9,240,7,,9.0,29.911417,1021.3,,TRUE,TRUE,TRUE,,,,,,,,,,,,,,,-0.7,,,,,,,,,,,SPECI,28.0
KNUC 252056Z 26006KT 7SM SCT009 BKN014 BKN020 15/12 A2994 RMK AO2 SLP136 T01500122 58004 $,KNUC,2023-04-25T20:56:00Z,33.02,-118.57,15.0,12.2,260,6,,7.0,29.940945,1013.6,,,TRUE,TRUE,,,,,,SCT,900,BKN,1400,BKN,2000,,,MVFR,-0.4,,,,,,,,,,,METAR,52.0
KNTU 252056Z 09009KT 10SM FEW050 BKN180 14/02 A3019 RMK AO2 SLP224 T01390022 55003,KNTU,2023-04-25T20:56:00Z,36.82,-76.02,13.9,2.2,90,9,,10.0,30.188976,1022.4,,,TRUE,,,,,,,FEW,5000,BKN,18000,,,,,VFR,-0.3,,,,,,,,,,,METAR,6.0
KNSE 252056Z 36004KT 10SM SCT055 SCT150 BKN250 27/14 A2994 RMK AO2 SLP126 T02720144 58018,KNSE,2023-04-25T20:56:00Z,30.73,-87.02,27.2,14.4,360,4,,10.0,29.940945,1012.6,,,TRUE,,,,,,,SCT,5500,SCT,15000,BKN,25000,,,VFR,-1.8,,,,,,,,,,,SPECI,56.0
KNQI 252056Z 12009KT 10SM SCT025 BKN044 27/21 A2982 RMK AO2 SLP093 T02670211 58020 $,KNQI,2023-04-25T20:56:00Z,27.5,-97.82,26.7,21.1,120,9,,10.0,29.819881,1009.3,,,TRUE,TRUE,,,,,,SCT,2500,BKN,4400,,,,,VFR,-2.0,,,,,,,,,,,METAR,15.0
KNPA 252056Z 15009KT 10SM CLR 24/17 A2994 RMK AO2 SLP142 T02390167 58018 $,KNPA,2023-04-25T20:56:00Z,30.35,-87.32,23.9,16.7,150,9,,10.0,29.940945,1014.2,,,TRUE,TRUE,,,,,,CLR,,,,,,,,VFR,-1.8,,,,,,,,,,,SPECI,6.0
KNMM 252056Z 08007KT 10SM BKN100 23/07 A3001 RMK AO2 SLP171 T02280067 58021,KNMM,2023-04-25T20:56:00Z,32.53,-88.53,22.8,6.7,80,7,,10.0,30.008858,1017.1,,,TRUE,,,,,,,BKN,10000,,,,,,,VFR,-2.1,,,,,,,,,,,SPECI,94.0
KNLC 252056Z 36010G16KT 10SM BKN270 28/07 A2990 RMK AO2 SLP125 RH/26 T02780072 58014,KNLC,2023-04-25T20:56:00Z,36.32,-119.95,27.8,7.2,360,10,16,10.0,29.899607,1012.5,,,TRUE,,,,,,,BKN,27000,,,,,,,VFR,-1.4,,,,,,,,,,,SPECI,69.0
KNKT 252056Z 05010G19KT 10SM CLR 19/07 A3014 RMK AO2 SLP203 T01940072 55005,KNKT,2023-04-25T20:56:00Z,34.9,-76.88,19.4,7.2,50,10,19,10.0,30.138779,1020.3,,,TRUE,,,,,,,CLR,,,,,,,,VFR,-0.5,,,,,,,,,,,METAR,8.0
KNJK 252056Z 33005KT 10SM CLR 33/06 A2976 RMK AO2 SLP091 T03280061 58018 $,KNJK,2023-04-25T20:56:00Z,32.82,-115.67,32.8,6.1,330,5,,10.0,29.760826,1009.1,,,TRUE,TRUE,,,,,,CLR,,,,,,,,VFR,-1.8,,,,,,,,,,,SPECI,-15.0
KNID 252056Z AUTO 08007KT 10SM CLR 29/M06 A2988 RMK AO2 SLP102 T02891061 58015 $,KNID,2023-04-25T20:56:00Z,35.68,-117.68,28.9,-6.1,80,7,,10.0,29.878937,1010.2,,TRUE,TRUE,TRUE,,,,,,CLR,,,,,,,,VFR,-1.5,,,,,,,,,,,SPECI,682.0
KNGP 252056Z 11014KT 10SM FEW015 BKN060 OVC090 27/22 A2983 RMK AO2 SLP100 T2 SET T02720222 58019,KNGP,2023-04-25T20:56:00Z,27.68,-97.28,27.2,22.2,110,14,,10.0,29.828741,1010.0,,,TRUE,,,,,,,FEW,1500,BKN,6000,OVC,9000,,,VFR,-1.9,,,,,,,,,,,METAR,5.0
KNFL 252056Z VRB05G15KT 10SM SCT200 BKN240 16/M09 A3013 RMK AO2 SLP169 T01611094 56006,KNFL,2023-04-25T20:56:00Z,39.42,-118.7,16.1,-9.4,0,5,15,10.0,30.129921,1016.9,,,TRUE,,,,,,,SCT,20000,BKN,24000,,,,,VFR,-0.6,,,,,,,,,,,SPECI,1199.0
KNFE 252056Z AUTO 09009KT 10SM CLR 16/02 A3019 RMK AO2 SLP224 T01560017 55001,KNFE,2023-04-25T20:56:00Z,36.7,-76.13,15.6,1.7,90,9,,10.0,30.188976,1022.4,,TRUE,TRUE,,,,,,,CLR,,,,,,,,VFR,-0.1,,,,,,,,,,,SPECI,4.0
KNDZ 252056Z VRB03KT 10SM SCT060 SCT100 BKN250 27/14 A2994 RMK AO2 SLP126 T02720139 58018 $,KNDZ,2023-04-25T20:56:00Z,30.7,-87.02,27.2,13.9,0,3,,10.0,29.940945,1012.6,,,TRUE,TRUE,,,,,,SCT,6000,SCT,10000,BKN,25000,,,VFR,-1.8,,,,,,,,,,,METAR,51.0
KNCA 252056Z AUTO 13008G18KT 10SM OVC100 A3011 RMK AO2 SLP200 $,KNCA,2023-04-25T20:56:00Z,34.72,-77.45,,,130,8,18,10.0,30.109253,1020.0,,TRUE,TRUE,TRUE,,,,,,OVC,10000,,,,,,,VFR,,,,,,,,,,,,METAR,9.0
KNBC 252056Z 08007G14KT 10SM OVC095 21/13 A3005 RMK AO2 SLP177 T02060133 58007,KNBC,2023-04-25T20:56:00Z,32.47,-80.72,20.6,13.3,80,7,14,10.0,30.050198,1017.7,,,TRUE,,,,,,,OVC,9500,,,,,,,VFR,-0.7,,,,,,,,,,,METAR,9.0
KMYR 252056Z 08007KT 040V140 10SM FEW120 20/11 A3010 RMK AO2 SLP192 T02000106 56009,KMYR,2023-04-25T20:56:00Z,33.68,-78.92,20.0,10.6,80,7,,10.0,30.100393,1019.2,,,TRUE,,,,,,,FEW,12000,,,,,,,VFR,-0.9,,,,,,,,,,,METAR,7.0
KMVN 252056Z AUTO VRB06G16KT 10SM SCT070 20/04 A3009 RMK AO2 SLP194 T02000039 56016,KMVN,2023-04-25T20:56:00Z,38.32,-88.87,20.0,3.9,0,6,16,10.0,30.088583,1019.4,,TRUE,TRUE,,,,,,,SCT,7000,,,,,,,VFR,-1.6,,,,,,,,,,,METAR,145.0
KMTW 252056Z AUTO 14011KT 10SM FEW020 BKN060 06/01 A3022 RMK AO2 SLP237 T00560011 58003,KMTW,2023-04-25T20:56:00Z,44.12,-87.67,5.6,1.1,140,11,,10.0,30.221457,1023.7,,TRUE,TRUE,,,,,,,FEW,2000,BKN,6000,,,,,VFR,-0.3,,,,,,,,,,,METAR,197.0
KMTC 252056Z 17005KT 3SM BR BKN009 OVC036 04/03 A3016 RMK AO2A DZE23 SLP223 P0001 60005 T00440027 58002 $,KMTC,2023-04-25T20:56:00Z,42.62,-82.83,4.4,2.7,170,5,,3.0,30.159449,1022.3,,,TRUE,TRUE,,,,,BR,BKN,900,OVC,3600,,,,,IFR,-0.2,,,,,0.01,0.05,,,,,METAR,177.0
KMSV 252056Z AUTO 30006KT 10SM FEW065 09/M05 A3016 RMK AO2 SLP223 T00891050 53001,KMSV,2023-04-25T20:56:00Z,41.7,-74.78,8.9,-5.0,300,6,,10.0,30.159449,1022.3,,TRUE,TRUE,,,,,,,FEW,6500,,,,,,,VFR,0.1,,,,,,,,,,,METAR,427.0
KMRF 252056Z AUTO 23014G20KT 10SM CLR 26/M06 A2992 RMK AO2 SLP078 T02611061 58016,KMRF,2023-04-25T20:56:00Z,30.37,-104.02,26.1,-6.1,230,14,20,10.0,29.920275,1007.8,,TRUE,TRUE,,,,,,,CLR,,,,,,,,VFR,-1.6,,,,,,,,,,,METAR,1476.0
KMQY 252056Z 09007KT 10SM CLR 21/M02 A3009 RMK AO2 SLP196 T02111017 56019,KMQY,2023-04-25T20:56:00Z,36.02,-86.52,21.1,-1.7,90,7,,10.0,30.088583,1019.6,,,TRUE,,,,,,,CLR,,,,,,,,VFR,-1.9,,,,,,,,,,,METAR,156.0
KMOB 252056Z VRB03KT 10SM SCT055 SCT085 SCT150 27/12 A2996 RMK AO2 SLP142 T02720117 58019,KMOB,2023-04-25T20:56:00Z,30.68,-88.25,27.2,11.7,0,3,,10.0,29.958662,1014.2,,,TRUE,,,,,,,SCT,5500,SCT,8500,SCT,15000,,,VFR,-1.9,,,,,,,,,,,METAR,67.0
KMML 252056Z AUTO 11004KT 10SM CLR 09/M06 A3022 RMK AO2 SLP248 T00941061 56005,KMML,2023-04-25T20:56:00Z,44.45,-95.82,9.4,-6.1,110,4,,10.0,30.221457,1024.8,,TRUE,TRUE,,,,,,,CLR,,,,,,,,VFR,-0.5,,,,,,,,,,,METAR,358.0
KMKT 252056Z AUTO 03008KT 10SM CLR 09/M06 A3022 RMK AO2 SLP244 T00941061 58007,KMKT,2023-04-25T20:56:00Z,44.22,-93.92,9.4,-6.1,30,8,,10.0,30.221457,1024.4,,TRUE,TRUE,,,,,,,CLR,,,,,,,,VFR,-0.7,,,,,,,,,,,METAR,309.0
KMHS 252056Z AUTO VRB04KT 10SM CLR 19/M03 A3009 RMK AO2 SLP194 T01891028 58007,KMHS,2023-04-25T20:56:00Z,41.32,-122.32,18.9,-2.8,0,4,,10.0,30.088583,1019.4,,TRUE,TRUE,,,,,,,CLR,,,,,,,,VFR,-0.7,,,,,,,,,,,SPECI,1080.0
KMEH 252056Z AUTO VRB03KT 10SM CLR 12/01 A3015 RMK AO2 SLP222 T01170006 58010,KMEH,2023-04-25T20:56:00Z,45.52,-118.42,11.7,0.6,0,3,,10.0,30.15059,1022.2,,TRUE,TRUE,,,,,,,CLR,,,,,,,,VFR,-1.0,,,,,,,,,,,SPECI,1138.0
KMDT 252056Z 27003KT 10SM BKN070 13/M03 A3018 RMK AO2 SLP222 T01331033 55006,KMDT,2023-04-25T20:56:00Z,40.2,-76.77,13.3,-3.3,270,3,,10.0,30.180119,1022.2,,,TRUE,,,,,,,BKN,7000,,,,,,,VFR,-0.6,,,,,,,,,,,METAR,91.0
KMBL 252056Z AUTO 33012G18KT 10SM SCT050 07/M02 A3020 RMK AO2 SLP233 T00671022 53000,KMBL,2023-04-25T20:56:00Z,44.27,-86.25,6.7,-2.2,330,12,18,10.0,30.200787,1023.3,,TRUE,TRUE,,,,,,,SCT,5000,,,,,,,VFR,0.0,,,,,,,,,,,METAR,187.0
KM19 252056Z AUTO 02007KT 10SM CLR 17/04 A3009 RMK AO2 SLP187 6//// T01720039 58016 PNO $,KM19,2023-04-25T20:56:00Z,35.65,-91.17,17.2,3.9,20,7,,10.0,30.088583,1018.7,,TRUE,TRUE,TRUE,,,,,,CLR,,,,,,,,VFR,-1.6,,,,,,,,,,,METAR,72.0
KLZU 252056Z 07007KT 10SM BKN055 OVC070 19/08 A3005 RMK AO2 SLP186 T01890083 58008,KLZU,2023-04-25T20:56:00Z,33.98,-83.97,18.9,8.3,70,7,,10.0,30.050198,1018.6,,,TRUE,,,,,,,BKN,5500,OVC,7000,,,,,VFR,-0.8,,,,,,,,,,,METAR,316.0
KLWS 252056Z 28005KT 10SM CLR 18/03 A3015 RMK AO2 SLP209 T01780028 58016,KLWS,2023-04-25T20:56:00Z,46.37,-117.02,17.8,2.8,280,5,,10.0,30.15059,1020.9,,,TRUE,,,,,,,CLR,,,,,,,,VFR,-1.6,,,,,,,,,,,METAR,435.0
KLRD 252056Z 15010KT 10SM BKN040 28/18 A2979 RMK AO2 SLP084 T02830178 58028,KLRD,2023-04-25T20:56:00Z,27.55,-99.47,28.3,17.8,150,10,,10.0,29.790354,1008.4,,,TRUE,,,,,,,BKN,4000,,,,,,,VFR,-2.8,,,,,,,,,,,METAR,150.0
KLNR 252056Z AUTO 22003KT 10SM OVC065 09/M02 A3020 RMK AO2 SLP225 T00891022 56001,KLNR,2023-04-25T20:56:00Z,43.22,-90.18,8.9,-2.2,220,3,,10.0,30.200787,1022.5,,TRUE,TRUE,,,,,,,OVC,6500,,,,,,,VFR,-0.1,,,,,,,,,,,METAR,218.0
KLGD 252056Z AUTO VRB05KT 10SM CLR 15/M02 A3015 RMK AO2 SLP212 T01501017 56016,KLGD,2023-04-25T20:56:00Z,45.28,-118.0,15.0,-1.7,0,5,,10.0,30.15059,1021.2,,TRUE,TRUE,,,,,,,CLR,,,,,,,,VFR,-1.6,,,,,,,,,,,METAR,827.0
KLEW 252056Z AUTO 11008KT 7SM -RA OVC007 06/06 A3021 RMK AO2 CIG 004V010 SLP238 6//// T00610056 53005 PNO $,KLEW,2023-04-25T20:56:00Z,44.03,-70.28,6.1,5.6,110,8,,7.0,30.209646,1023.8,,TRUE,TRUE,TRUE,,,,,-RA,OVC,700,,,,,,,IFR,0.5,,,,,,,,,,,METAR,81.0
KLCI 252056Z AUTO 08010KT 10SM FEW085 09/05 A3014 RMK AO2 RAB02E24 SLP210 P0000 60000 T00940050 53002,KLCI,2023-04-25T20:56:00Z,43.57,-71.42,9.4,5.0,80,10,,10.0,30.138779,1021.0,,TRUE,TRUE,,,,,,,FEW,8500,,,,,,,VFR,0.2,,,,,0.005,0.005,,,,,METAR,166.0
KLBT 252056Z AUTO 06005KT 10SM OVC080 20/07 A3011 RMK AO2 SLP195 T02000072 56005,KLBT,2023-04-25T20:56:00Z,34.6,-79.07,20.0,7.2,60,5,,10.0,30.109253,1019.5,,TRUE,TRUE,,,,,,,OVC,8000,,,,,,,VFR,-0.5,,,,,,,,,,,METAR,37.0
KLBL 252056Z AUTO 11014G18KT 3SM BR OVC002 09/09 A2989 RMK AO2 SLP117 T00940094 56007,KLBL,2023-04-25T20:56:00Z,37.03,-100.97,9.4,9.4,110,14,18,3.0,29.890747,1011.7,,TRUE,TRUE,,,,,,BR,OVC,200,,,,,,,LIFR,-0.7,,,,,,,,,,,METAR,877.0
KLAS 252056Z 33009KT 10SM CLR 26/M10 A2991 RMK AO2 SLP108 T02561100 56011,KLAS,2023-04-25T20:56:00Z,36.07,-115.17,25.6,-10.0,330,9,,10.0,29.911417,1010.8,,,TRUE,,,,,,,CLR,,,,,,,,VFR,-1.1,,,,,,,,,,,SPECI,662.0
KKLS 252056Z AUTO 33009KT CLR 17/04 A3023 RMK AO2 SLP241 T01670044 56016 PWINO $,KKLS,2023-04-25T20:56:00Z,46.12,-122.9,16.7,4.4,330,9,,,30.230314,1024.1,,TRUE,TRUE,TRUE,,,,TRUE,,CLR,,,,,,,,,-1.6,,,,,,,,,,,METAR,4.0
KJRB 252056Z AUTO 23003KT 10SM OVC070 14/01 A3017 RMK AO2 SLP215 6//// T01390011 55000 PNO $,KJRB,2023-04-25T20:56:00Z,40.7,-74.02,13.9,1.1,230,3,,10.0,30.171259,1021.5,,TRUE,TRUE,TRUE,,,,,,OVC,7000,,,,,,,VFR,0.0,,,,,,,,,,,METAR,2.0
KJMS 252056Z AUTO 10005G16KT 10SM CLR 10/M04 A3023 RMK AO2 SLP250 T01001039 56007,KJMS,2023-04-25T20:56:00Z,46.93,-98.67,10.0,-3.9,100,5,16,10.0,30.230314,1025.0,,TRUE,TRUE,,,,,,,CLR,,,,,,,,VFR,-0.7,,,,,,,,,,,SPECI,455.0
KJKA 252056Z 14006G21KT 10SM FEW045 24/17 A2995,KJKA,2023-04-25T20:56:00Z,30.28,-87.67,24.0,17.0,140,6,21,10.0,29.949802,,,,,,,,,,,FEW,4500,,,,,,,VFR,,,,,,,,,,,,METAR,5.0
KJHW 252056Z AUTO 30012KT 10SM BKN040 OVC047 06/M02 A3016 RMK AO2 SLP233 6//// T00561017 53003 PNO $,KJHW,2023-04-25T20:56:00Z,42.15,-79.27,5.6,-1.7,300,12,,10.0,30.159449,1023.3,,TRUE,TRUE,TRUE,,,,,,BKN,4000,OVC,4700,,,,,VFR,0.3,,,,,,,,,,,METAR,520.0
KJAX 252056Z 06014G20KT 10SM FEW040 SCT080 BKN110 BKN250 23/18 A2995 RMK AO2 SLP142 T02330178 58013,KJAX,2023-04-25T20:56:00Z,30.5,-81.68,23.3,17.8,60,14,20,10.0,29.949802,1014.2,,,TRUE,,,,,,,FEW,4000,SCT,8000,BKN,11000,BKN,25000,VFR,-1.3,,,,,,,,,,,METAR,8.0
KJAC 252056Z 00000KT 10SM CLR 10/M02 A2998 RMK AO2 SLP153 T01001017 53004,KJAC,2023-04-25T20:56:00Z,43.62,-110.73,10.0,-1.7,0,0,,10.0,29.97933,1015.3,,,TRUE,,,,,,,CLR,,,,,,,,VFR,0.4,,,,,,,,,,,METAR,1967.0
KIWD 252056Z AUTO 04008KT 10SM OVC050 03/M06 A3028 RMK AO2 SLP272 T00331061 52002,KIWD,2023-04-25T20:56:00Z,46.52,-90.12,3.3,-6.1,40,8,,10.0,30.280512,1027.2,,TRUE,TRUE,,,,,,,OVC,5000,,,,,,,VFR,0.2,,,,,,,,,,,METAR,373.0
KITH 252056Z 32005KT 10SM SCT070 11/M03 A3016 RMK AO2 SLP223 T01061028 56006,KITH,2023-04-25T20:56:00Z,42.48,-76.45,10.6,-2.8,320,5,,10.0,30.159449,1022.3,,,TRUE,,,,,,,SCT,7000,,,,,,,VFR,-0.6,,,,,,,,,,,METAR,338.0
KISP 252056Z 17006KT 10SM SCT045 SCT060 BKN085 12/03 A3015 RMK AO2 RAE02 SLP211 P0000 60000 T01220033 53003,KISP,2023-04-25T20:56:00Z,40.8,-73.1,12.2,3.3,170,6,,10.0,30.15059,1021.1,,,TRUE,,,,,,,SCT,4500,SCT,6000,BKN,8500,,,VFR,0.3,,,,,0.005,,,,,,SPECI,25.0
KISO 252056Z 01004KT 10SM SCT080 21/04 A3013,KISO,2023-04-25T20:56:00Z,35.32,-77.62,21.0,4.0,10,4,,10.0,30.129921,,,,,,,,,,,SCT,8000,,,,,,,VFR,,,,,,,,,,,,METAR,27.0
KINW 252056Z AUTO 26027G42KT 10SM BKN095 BKN110 23/M01 A2982 RMK AO2 PK WND 25042/2055 RAB47E56 SLP040 P0000 60000 T02281011 56014,KINW,2023-04-25T20:56:00Z,35.03,-110.72,22.8,-1.1,260,27,42,10.0,29.819881,1004.0,,TRUE,TRUE,,,,,,,BKN,9500,BKN,11000,,,,,VFR,-1.4,,,,,0.005,0.005,,,,,METAR,1492.0
KILE 252056Z AUTO 16007KT 10SM OVC019 21/17 A2989 RMK AO2 SLP114 T02060167 58017,KILE,2023-04-25T20:56:00Z,31.08,-97.68,20.6,16.7,160,7,,10.0,29.890747,1011.4,,TRUE,TRUE,,,,,,,OVC,1900,,,,,,,MVFR,-1.7,,,,,,,,,,,METAR,256.0
KHYS 252056Z AUTO 13012KT 10SM -RA BKN018 OVC026 10/07 A3002 RMK AO2 RAB50 SLP169 P0000 60000 T01000067 51004 $,KHYS,2023-04-25T20:56:00Z,38.85,-99.27,10.0,6.7,130,12,,10.0,30.02067,1016.9,,TRUE,TRUE,TRUE,,,,,-RA,BKN,1800,OVC,2600,,,,,MVFR,0.4,,,,,0.005,0.005,,,,,METAR,607.0
KHYA 252056Z VRB06KT 10SM SCT020 11/07 A3014 RMK AO2 SLP207 T01110072 53005,KHYA,2023-04-25T20:56:00Z,41.67,-70.27,11.1,7.2,0,6,,10.0,30.138779,1020.7,,,TRUE,,,,,,,SCT,2000,,,,,,,VFR,0.5,,,,,,,,,,,METAR,11.0
KHWV 252056Z AUTO 20005KT 10SM BKN085 12/03 A3017 RMK AO2 SLP215 60003 T01220033 53002,KHWV,2023-04-25T20:56:00Z,40.82,-72.87,12.2,3.3,200,5,,10.0,30.171259,1021.5,,TRUE,TRUE,,,,,,,BKN,8500,,,,,,,VFR,0.2,,,,,,0.03,,,,,METAR,20.0
KHPN 252056Z 30007KT 10SM BKN090 13/00 A3015 RMK AO2 SLP210 T01330000 53004,KHPN,2023-04-25T20:56:00Z,41.07,-73.7,13.3,0.0,300,7,,10.0,30.15059,1021.0,,,TRUE,,,,,,,BKN,9000,,,,,,,VFR,0.4,,,,,,,,,,,METAR,113.0
KHND 252056Z 02015G19KT 10SM CLR 25/M08 A2993 RMK AO2 SLP128 T02501083 58012,KHND,2023-04-25T20:56:00Z,35.98,-115.13,25.0,-8.3,20,15,19,10.0,29.929134,1012.8,,,TRUE,,,,,,,CLR,,,,,,,,VFR,-1.2,,,,,,,,,,,METAR,740.0
KHNB 252056Z AUTO 31007KT 10SM CLR 18/02 A3011 RMK AO2 SLP197 T01830017 58016,KHNB,2023-04-25T20:56:00Z,38.25,-86.95,18.3,1.7,310,7,,10.0,30.109253,1019.7,,TRUE,TRUE,,,,,,,CLR,,,,,,,,VFR,-1.6,,,,,,,,,,,METAR,159.0
KHEZ 252056Z AUTO 35007KT 330V040 10SM CLR 23/13 A2998 RMK AO2 SLP151 T02330133 58015,KHEZ,2023-04-25T20:56:00Z,31.62,-91.3,23.3,13.3,350,7,,10.0,29.97933,1015.1,,TRUE,TRUE,,,,,,,CLR,,,,,,,,VFR,-1.5,,,,,,,,,,,METAR,82.0
KHEF 252056Z 20007KT 10SM CLR 16/M01 A3018 RMK AO2 SLP226 T01561006 56005,KHEF,2023-04-25T20:56:00Z,38.72,-77.52,15.6,-0.6,200,7,,10.0,30.180119,1022.6,,,TRUE,,,,,,,CLR,,,,,,,,VFR,-0.5,,,,,,,,,,,METAR,53.0
KGXY 252056Z 03016G23KT 8SM -RA SCT027 OVC036 07/06 A2990 RMK AO2 PK WND 02026/2003 LTG DSNT SE-SW TSE18B21E36 SLP127 P0001 60003 T00720056 53008,KGXY,2023-04-25T20:56:00Z,40.43,-104.62,7.2,5.6,30,16,23,8.0,29.899607,1012.7,,,TRUE,,,,,,-RA,SCT,2700,OVC,3600,,,,,VFR,0.8,,,,,0.01,0.03,,,,,METAR,1420.0
KGVQ 252056Z AUTO 27011G19KT 10SM FEW075 09/M06 A3015 RMK AO2 SLP217 T00941061 55000,KGVQ,2023-04-25T20:56:00Z,43.03,-78.17,9.4,-6.1,270,11,19,10.0,30.15059,1021.7,,TRUE,TRUE,,,,,,,FEW,7500,,,,,,,VFR,0.0,,,,,,,,,,,METAR,279.0
KGUC 252056Z AUTO 24011KT 10SM SCT013 BKN039 OVC055 04/01 A2987 RMK AO2 RAB13E36 SLP101 P0000 60001 T00390006 53001,KGUC,2023-04-25T20:56:00Z,38.52,-106.93,3.9,0.6,240,11,,10.0,29.870079,1010.1,,TRUE,TRUE,,,,,,,SCT,1300,BKN,3900,OVC,5500,,,VFR,0.1,,,,,0.005,0.01,,,,,METAR,2337.0
KGTU 252056Z 14006KT FEW023 SCT028 OVC043 22/17 A2989 RMK AO2 SLP119 T02170167 58019 $,KGTU,2023-04-25T20:56:00Z,30.68,-97.68,21.7,16.7,140,6,,,29.890747,1011.9,,,TRUE,TRUE,,,,,,FEW,2300,SCT,2800,OVC,4300,,,,-1.9,,,,,,,,,,,METAR,232.0
KGTR 252056Z 06003KT 10SM BKN110 21/03 A3005 RMK AO2 SLPNO T02110033 58018,KGTR,2023-04-25T20:56:00Z,33.45,-88.58,21.1,3.3,60,3,,10.0,30.050198,,,,TRUE,,,,,,,BKN,11000,,,,,,,VFR,-1.8,,,,,,,,,,,METAR,80.0
KGRD 252056Z AUTO 04007KT 10SM SCT110 19/08 A3008 RMK AO2 SLP185 T01940083 58012,KGRD,2023-04-25T20:56:00Z,34.25,-82.15,19.4,8.3,40,7,,10.0,30.079725,1018.5,,TRUE,TRUE,,,,,,,SCT,11000,,,,,,,VFR,-1.2,,,,,,,,,,,METAR,188.0
KGPZ 252056Z AUTO VRB03KT 10SM OVC060 07/M07 A3029 RMK AO2 SLP273 T00671072 58006,KGPZ,2023-04-25T20:56:00Z,47.22,-93.52,6.7,-7.2,0,3,,10.0,30.28937,1027.3,,TRUE,TRUE,,,,,,,OVC,6000,,,,,,,VFR,-0.6,,,,,,,,,,,METAR,410.0
KGON 252056Z 21009KT 10SM CLR 14/05 A3014 RMK AO2 SLP206 T01390050 53000,KGON,2023-04-25T20:56:00Z,41.33,-72.05,13.9,5.0,210,9,,10.0,30.138779,1020.6,,,TRUE,,,,,,,CLR,,,,,,,,VFR,0.0,,,,,,,,,,,METAR,2.0
KGNR 252056Z AUTO 15005KT 04/03 A3016 RMK AO1 SLP228 P0001 60005 T00440033 53004,KGNR,2023-04-25T20:56:00Z,45.47,-69.55,4.4,3.3,150,5,,,30.159449,1022.8,,TRUE,TRUE,,,,,,,,,,,,,,,,0.4,,,,,0.01,0.05,,,,,METAR,426.0
KGNA 252056Z AUTO 23003KT 02/00 A3030 RMK AO1 SLP271 T00220000 53001,KGNA,2023-04-25T20:56:00Z,47.75,-90.35,2.2,0.0,230,3,,,30.301182,1027.1,,TRUE,TRUE,,,,,,,,,,,,,,,,0.1,,,,,,,,,,,SPECI,186.0
KGDV 252056Z AUTO 13014G25KT 10SM SCT040 13/02 A3004 RMK AO2 SLP183 T01280022 56009 TSNO,KGDV,2023-04-25T20:56:00Z,47.13,-104.8,12.8,2.2,130,14,25,10.0,30.041338,1018.3,,TRUE,TRUE,,,TRUE,,,,SCT,4000,,,,,,,VFR,-0.9,,,,,,,,,,,METAR,749.0
KGAI 252056Z AUTO 32005KT 10SM CLR 13/M03 A3019 RMK AO2 SLP241 T01281028 55002,KGAI,2023-04-25T20:56:00Z,39.17,-77.17,12.8,-2.8,320,5,,10.0,30.188976,1024.1,,TRUE,TRUE,,,,,,,CLR,,,,,,,,VFR,-0.2,,,,,,,,,,,METAR,151.0
KGAD 252056Z AUTO 19003KT 10SM CLR 21/01 A3006 RMK AO2 SLP181 6//// T02060006 58014 PNO $,KGAD,2023-04-25T20:56:00Z,33.97,-86.08,20.6,0.6,190,3,,10.0,30.059055,1018.1,,TRUE,TRUE,TRUE,,,,,,CLR,,,,,,,,VFR,-1.4,,,,,,,,,,,METAR,169.0
KFSD 252056Z 10011KT 10SM FEW090 SCT250 14/M04 A3015 RMK AO2 SLP219 T01441039 58005,KFSD,2023-04-25T20:56:00Z,43.58,-96.75,14.4,-3.9,100,11,,10.0,30.15059,1021.9,,,TRUE,,,,,,,FEW,9000,SCT,25000,,,,,VFR,-0.5,,,,,,,,,,,METAR,433.0
KFOD 252056Z AUTO 05008KT 10SM CLR 14/M05 A3016 RMK AO2 SLP231 T01391050 58005,KFOD,2023-04-25T20:56:00Z,42.53,-94.17,13.9,-5.0,50,8,,10.0,30.159449,1023.1,,TRUE,TRUE,,,,,,,CLR,,,,,,,,VFR,-0.5,,,,,,,,,,,METAR,347.0
KFLP 252056Z AUTO VRB06KT 10SM FEW065 17/04 A3008 RMK AO2 SLP182 T01720039 58015,KFLP,2023-04-25T20:56:00Z,36.28,-92.58,17.2,3.9,0,6,,10.0,30.079725,1018.2,,TRUE,TRUE,,,,,,,FEW,6500,,,,,,,VFR,-1.5,,,,,,,,,,,METAR,215.0
KFKL 252056Z AUTO 27005KT 10SM OVC060 09/M03 A3015 RMK AO2 SLP222 T00891033 56005,KFKL,2023-04-25T20:56:00Z,41.37,-79.87,8.9,-3.3,270,5,,10.0,30.15059,1022.2,,TRUE,TRUE,,,,,,,OVC,6000,,,,,,,VFR,-0.5,,,,,,,,,,,METAR,468.0
KFCI 252056Z AUTO 19005KT 10SM BKN070 16/03 A3017 RMK AO2 SLP228 T01610033 56008,KFCI,2023-04-25T20:56:00Z,37.4,-77.52,16.1,3.3,190,5,,10.0,30.171259,1022.8,,TRUE,TRUE,,,,,,,BKN,7000,,,,,,,VFR,-0.8,,,,,,,,,,,METAR,63.0
KFAM 252056Z AUTO 00000KT 10SM CLR 19/M02 A3008 RMK AO2 SLP195 T01941017 56015,KFAM,2023-04-25T20:56:00Z,37.77,-90.42,19.4,-1.7,0,0,,10.0,30.079725,1019.5,,TRUE,TRUE,,,,,,,CLR,,,,,,,,VFR,-1.5,,,,,,,,,,,METAR,276.0
KEWK 252056Z AUTO 16010G17KT 10SM FEW037 SCT065 OVC085 13/07 A3004 RMK AO2 SLP171 T01280072 58006,KEWK,2023-04-25T20:56:00Z,38.05,-97.27,12.8,7.2,160,10,17,10.0,30.041338,1017.1,,TRUE,TRUE,,,,,,,FEW,3700,SCT,6500,OVC,8500,,,VFR,-0.6,,,,,,,,,,,METAR,468.0
KEUL 252056Z AUTO 29007G18KT 10SM CLR 17/01 A3011 RMK AO2 SLP198 T01670006 56010,KEUL,2023-04-25T20:56:00Z,43.63,-116.62,16.7,0.6,290,7,18,10.0,30.109253,1019.8,,TRUE,TRUE,,,,,,,CLR,,,,,,,,VFR,-1.0,,,,,,,,,,,METAR,741.0
KESC 252056Z AUTO 35009KT 10SM SCT041 06/M04 A3023 RMK AO2 SLP246 T00611039 53006,KESC,2023-04-25T20:56:00Z,45.72,-87.08,6.1,-3.9,350,9,,10.0,30.230314,1024.6,,TRUE,TRUE,,,,,,,SCT,4100,,,,,,,VFR,0.6,,,,,,,,,,,METAR,180.0
KENV 252056Z AUTO 32009G21KT 10SM CLR 16/M06 A3007 RMK AO2 WSHFT 2029 SLP176 T01561056 56003,KENV,2023-04-25T20:56:00Z,40.72,-114.02,15.6,-5.6,320,9,21,10.0,30.070866,1017.6,,TRUE,TRUE,,,,,,,CLR,,,,,,,,VFR,-0.3,,,,,,,,,,,METAR,1291.0
KELZ 252056Z AUTO 23007KT 210V270 10SM OVC080 08/M08 A3013 RMK AO2 SLP220 T00831078 58003,KELZ,2023-04-25T20:56:00Z,42.1,-77.98,8.3,-7.8,230,7,,10.0,30.129921,1022.0,,TRUE,TRUE,,,,,,,OVC,8000,,,,,,,VFR,-0.3,,,,,,,,,,,METAR,639.0
KEKY 252056Z AUTO VRB03KT 10SM FEW090 23/04 A3004 RMK AO2 SLP021 T02280044 58012,KEKY,2023-04-25T20:56:00Z,33.32,-86.93,22.8,4.4,0,3,,10.0,30.041338,1002.1,,TRUE,TRUE,,,,,,,FEW,9000,,,,,,,VFR,-1.2,,,,,,,,,,,METAR,213.0
KEKQ 252056Z AUTO 02007KT 10SM CLR 18/M01 A3013 RMK AO2 SLP201 60002 T01781006 57013,KEKQ,2023-04-25T20:56:00Z,36.85,-84.85,17.8,-0.6,20,7,,10.0,30.129921,1020.1,,TRUE,TRUE,,,,,,,CLR,,,,,,,,VFR,-1.3,,,,,,0.02,,,,,METAR,291.0
KEKO 252056Z AUTO 24007KT 10SM CLR 14/M06 A3011 RMK AO2 SLP184 T01391056 55004,KEKO,2023-04-25T20:56:00Z,40.82,-115.78,13.9,-5.6,240,7,,10.0,30.109253,1018.4,,TRUE,TRUE,,,,,,,CLR,,,,,,,,VFR,-0.4,,,,,,,,,,,METAR,1541.0
KEHR 252056Z AUTO 00000KT 10SM CLR 19/M01 A3011 RMK AO2 SLP197 T01891011 58016,KEHR,2023-04-25T20:56:00Z,37.82,-87.67,18.9,-1.1,0,0,,10.0,30.109253,1019.7,,TRUE,TRUE,,,,,,,CLR,,,,,,,,VFR,-1.6,,,,,,,,,,,METAR,117.0
KEGE 252056Z 26011G14KT 10SM BKN055 BKN075 08/M01 A2989 RMK AO2 SLP041 T00781011 55000,KEGE,2023-04-25T20:56:00Z,39.63,-106.92,7.8,-1.1,260,11,14,10.0,29.890747,1004.1,,,TRUE,,,,,,,BKN,5500,BKN,7500,,,,,VFR,0.0,,,,,,,,,,,METAR,1993.0
KEEN 252056Z AUTO 28003KT 10SM SCT090 BKN110 12/02 RMK AO2 RAB03E16 SLPNO P0000 60000 T01170017 $,KEEN,2023-04-25T20:56:00Z,42.88,-72.27,11.7,1.7,280,3,,10.0,,,,TRUE,TRUE,TRUE,,,,,,SCT,9000,BKN,11000,,,,,VFR,,,,,,0.005,0.005,,,,,METAR,143.0
KEED 252056Z AUTO 35020G28KT 10SM CLR 31/M06 A2981 RMK AO2 PK WND 02032/2010 SLP064 T03061056 58005,KEED,2023-04-25T20:56:00Z,34.77,-114.62,30.6,-5.6,350,20,28,10.0,29.811024,1006.4,,TRUE,TRUE,,,,,,,CLR,,,,,,,,VFR,-0.5,,,,,,,,,,,METAR,271.0
KEAU 252056Z VRB03KT 10SM BKN060 09/M07 A3022 RMK AO2 SLP242 T00891067 56003,KEAU,2023-04-25T20:56:00Z,44.87,-91.48,8.9,-6.7,0,3,,10.0,30.221457,1024.2,,,TRUE,,,,,,,BKN,6000,,,,,,,VFR,-0.3,,,,,,,,,,,METAR,271.0
KEAR 252056Z AUTO 13016KT 10SM FEW045 OVC055 14/04 A3004 RMK AO2 SLP177 T01440039 58000,KEAR,2023-04-25T20:56:00Z,40.72,-99.0,14.4,3.9,130,16,,10.0,30.041338,1017.7,,TRUE,TRUE,,,,,,,FEW,4500,OVC,5500,,,,,VFR,0.0,,,,,,,,,,,METAR,649.0
KDYR 252056Z AUTO VRB03KT 10SM CLR 19/04 A3009 RMK AO2 SLP194 T01940039 58016,KDYR,2023-04-25T20:56:00Z,36.0,-89.4,19.4,3.9,0,3,,10.0,30.088583,1019.4,,TRUE,TRUE,,,,,,,CLR,,,,,,,,VFR,-1.6,,,,,,,,,,,METAR,98.0
KDWU 252056Z AUTO 00000KT 10SM SCT085 18/01 A3013 RMK AO2 SLP205 T01780011 56018,KDWU,2023-04-25T20:56:00Z,38.55,-82.73,17.8,1.1,0,0,,10.0,30.129921,1020.5,,TRUE,TRUE,,,,,,,SCT,8500,,,,,,,VFR,-1.8,,,,,,,,,,,METAR,165.0
KDVL 252056Z AUTO 13009KT 10SM CLR 07/M03 A3025 RMK AO2 SLP275 T00721033 58008,KDVL,2023-04-25T20:56:00Z,48.12,-98.92,7.2,-3.3,130,9,,10.0,30.250984,1027.5,,TRUE,TRUE,,,,,,,CLR,,,,,,,,VFR,-0.8,,,,,,,,,,,METAR,439.0
KDUG 252056Z AUTO 10SM CLR 27/M06 A2988 RMK AO2 PK WND 22034/2023 SLP056 T02671056 58020 TSNO,KDUG,2023-04-25T20:56:00Z,31.47,-109.6,26.7,-5.6,,,,10.0,29.878937,1005.6,,TRUE,TRUE,,,TRUE,,,,CLR,,,,,,,,VFR,-2.0,,,,,,,,,,,SPECI,1260.0
KDIK 252056Z AUTO 15015G23KT 10SM BKN075 12/M04 A3008 RMK AO2 SLP201 T01221044 58008,KDIK,2023-04-25T20:56:00Z,46.8,-102.8,12.2,-4.4,150,15,23,10.0,30.079725,1020.1,,TRUE,TRUE,,,,,,,BKN,7500,,,,,,,VFR,-0.8,,,,,,,,,,,METAR,788.0
KDAY 252056Z 21008KT 10SM SCT045 BKN110 14/M01 A3013 RMK AO2 SLP204 T01441011 58012 VISNO RWY 6L $,KDAY,2023-04-25T20:56:00Z,39.9,-84.22,14.4,-1.1,210,8,,10.0,30.129921,1020.4,,,TRUE,TRUE,,,,,,SCT,4500,BKN,11000,,,,,VFR,-1.2,,,,,,,,,,,METAR,303.0
KD07 252056Z AUTO 10014KT 03/01 A3012 RMK AO1 SLP226 60007 T00280006 58008,KD07,2023-04-25T20:56:00Z,45.03,-102.02,2.8,0.6,100,14,,,30.121063,1022.6,,TRUE,TRUE,,,,,,,,,,,,,,,,-0.8,,,,,,,,,,,SPECI,786.0
KCXY 252056Z 02003KT 10SM FEW075 13/M04 A3018 RMK AO2 SLP223 T01331039 55005,KCXY,2023-04-25T20:56:00Z,40.22,-76.85,13.3,-3.9,20,3,,10.0,30.180119,1022.3,,,TRUE,,,,,,,FEW,7500,,,,,,,VFR,-0.5,,,,,,,,,,,METAR,102.0
KCWI 252056Z AUTO 07009KT 10SM BKN045 11/02 A3017 RMK AO2 SLP223 T01110017 58002,KCWI,2023-04-25T20:56:00Z,41.82,-90.32,11.1,1.7,70,9,,10.0,30.171259,1022.3,,TRUE,TRUE,,,,,,,BKN,4500,,,,,,,VFR,-0.2,,,,,,,,,,,METAR,212.0
KCVO 252056Z AUTO 06008KT 10SM CLR 17/07 A3019 RMK AO2 SLP224 T01720067 57021,KCVO,2023-04-25T20:56:00Z,44.5,-123.28,17.2,6.7,60,8,,10.0,30.188976,1022.4,,TRUE,TRUE,,,,,,,CLR,,,,,,,,VFR,-2.1,,,,,,,,,,,METAR,75.0
KCVN 252056Z AUTO 22014G18KT 10SM FEW095 24/M01 A2978 RMK AO2 SLP057 T02441006 56026,KCVN,2023-04-25T20:56:00Z,34.42,-103.07,24.4,-0.6,220,14,18,10.0,29.778543,1005.7,,TRUE,TRUE,,,,,,,FEW,9500,,,,,,,VFR,-2.6,,,,,,,,,,,METAR,1278.0
KCTB 252056Z AUTO 25025G35KT 10SM CLR 16/M03 A2993 RMK AO2 PK WND 23037/2038 SLP134 T01561028 57012,KCTB,2023-04-25T20:56:00Z,48.6,-112.37,15.6,-2.8,250,25,35,10.0,29.929134,1013.4,,TRUE,TRUE,,,,,,,CLR,,,,,,,,VFR,-1.2,,,,,,,,,,,METAR,1172.0
KCOE 252056Z AUTO 26015G19KT 10SM CLR 15/02 A3015 RMK AO2 SLP228 6//// T01500017 58012 PNO $,KCOE,2023-04-25T20:56:00Z,47.77,-116.82,15.0,1.7,260,15,19,10.0,30.15059,1022.8,,TRUE,TRUE,TRUE,,,,,,CLR,,,,,,,,VFR,-1.2,,,,,,,,,,,METAR,693.0
KCOD 252056Z AUTO 34015G21KT 10SM FEW065 15/M02 A2998 RMK AO2 SLP132 T01501022 53003,KCOD,2023-04-25T20:56:00Z,44.52,-109.02,15.0,-2.2,340,15,21,10.0,29.97933,1013.2,,TRUE,TRUE,,,,,,,FEW,6500,,,,,,,VFR,0.3,,,,,,,,,,,METAR,1550.0
KCIU 252056Z AUTO 33016KT 10SM FEW030 04/M04 A3017 RMK AO2 SLP223 T00391039 53004,KCIU,2023-04-25T20:56:00Z,46.25,-84.47,3.9,-3.9,330,16,,10.0,30.171259,1022.3,,TRUE,TRUE,,,,,,,FEW,3000,,,,,,,VFR,0.4,,,,,,,,,,,METAR,242.0
KCHS 252056Z 09009KT 10SM FEW030 SCT060 SCT080 23/11 A3006 RMK AO2 SLP178 T02330106 58011,KCHS,2023-04-25T20:56:00Z,32.9,-80.03,23.3,10.6,90,9,,10.0,30.059055,1017.8,,,TRUE,,,,,,,FEW,3000,SCT,6000,SCT,8000,,,VFR,-1.1,,,,,,,,,,,SPECI,12.0
KCGZ 252056Z AUTO 28012G24KT 10SM CLR 31/02 A2977 RMK AO2 SLP067 6//// T03110022 58020 PNO $,KCGZ,2023-04-25T20:56:00Z,32.95,-111.77,31.1,2.2,280,12,24,10.0,29.769686,1006.7,,TRUE,TRUE,TRUE,,,,,,CLR,,,,,,,,VFR,-2.0,,,,,,,,,,,METAR,444.0
KCEC 252056Z AUTO 34009KT 5SM HZ CLR 14/09 A3005 RMK AO2 SLP176 T01440094 56013,KCEC,2023-04-25T20:56:00Z,41.78,-124.23,14.4,9.4,340,9,,5.0,30.050198,1017.6,,TRUE,TRUE,,,,,,HZ,CLR,,,,,,,,MVFR,-1.3,,,,,,,,,,,METAR,17.0
KCAE 252056Z 11009KT 10SM SCT037 BKN080 21/08 A3006 RMK AO2 SLP177 T02110078 56010,KCAE,2023-04-25T20:56:00Z,33.93,-81.12,21.1,7.8,110,9,,10.0,30.059055,1017.7,,,TRUE,,,,,,,SCT,3700,BKN,8000,,,,,VFR,-1.0,,,,,,,,,,,METAR,69.0
KBZN 252056Z 00000KT 10SM FEW027 OVC038 10/03 A3010 RMK AO2 SLP202 T01000028 58003,KBZN,2023-04-25T20:56:00Z,45.78,-111.17,10.0,2.8,0,0,,10.0,30.100393,1020.2,,,TRUE,,,,,,,FEW,2700,OVC,3800,,,,,VFR,-0.3,,,,,,,,,,,METAR,1349.0
KBVX 252056Z AUTO 06007KT 10SM CLR 18/03 A3008 RMK AO2 SLPNO T01780033 56018,KBVX,2023-04-25T20:56:00Z,35.73,-91.65,17.8,3.3,60,7,,10.0,30.079725,,,TRUE,TRUE,,,,,,,CLR,,,,,,,,VFR,-1.8,,,,,,,,,,,METAR,137.0
KBTP 252056Z AUTO VRB06KT 10SM BKN065 12/M03 A3014 RMK AO2 SLP222 T01171028 56013 TSNO $,KBTP,2023-04-25T20:56:00Z,40.77,-79.95,11.7,-2.8,0,6,,10.0,30.138779,1022.2,,TRUE,TRUE,TRUE,,TRUE,,,,BKN,6500,,,,,,,VFR,-1.3,,,,,,,,,,,METAR,375.0
KBOK 252056Z AUTO 27007KT 10SM CLR 22/07 A3003 RMK AO2 SLP169 T02170067 58019,KBOK,2023-04-25T20:56:00Z,42.07,-124.28,21.7,6.7,270,7,,10.0,30.029528,1016.9,,TRUE,TRUE,,,,,,,CLR,,,,,,,,VFR,-1.9,,,,,,,,,,,METAR,140.0
KBMI 252056Z 36009G15KT 10SM FEW041 BKN080 16/06 A3011 RMK AO2 SLP195 T01560056 56002,KBMI,2023-04-25T20:56:00Z,40.47,-88.92,15.6,5.6,360,9,15,10.0,30.109253,1019.5,,,TRUE,,,,,,,FEW,4100,BKN,8000,,,,,VFR,-0.2,,,,,,,,,,,METAR,262.0
KBLM 252056Z AUTO 15006KT 10SM OVC065 12/04 A3018 RMK AO2 SLP221 T01220044 53004,KBLM,2023-04-25T20:56:00Z,40.17,-74.12,12.2,4.4,150,6,,10.0,30.180119,1022.1,,TRUE,TRUE,,,,,,,OVC,6500,,,,,,,VFR,0.4,,,,,,,,,,,METAR,45.0
KBKX 252056Z AUTO 09006KT 10SM CLR 10/M07 A3019 RMK AO2 SLP250 T01001067 58001,KBKX,2023-04-25T20:56:00Z,44.3,-96.82,10.0,-6.7,90,6,,10.0,30.188976,1025.0,,TRUE,TRUE,,,,,,,CLR,,,,,,,,VFR,-0.1,,,,,,,,,,,METAR,494.0
KBJJ 252056Z AUTO 18007G17KT 140V250 10SM BKN060 OVC070 10/M01 A3014 RMK AO2 SLP213 T01001011 58012,KBJJ,2023-04-25T20:56:00Z,40.87,-81.88,10.0,-1.1,180,7,17,10.0,30.138779,1021.3,,TRUE,TRUE,,,,,,,BKN,6000,OVC,7000,,,,,VFR,-1.2,,,,,,,,,,,METAR,338.0
KBIH 252056Z AUTO 34010KT 24/M08 A2999 RMK AO2 SLP114 6//// T02441083 58016 PNO $,KBIH,2023-04-25T20:56:00Z,37.37,-118.35,24.4,-8.3,340,10,,,29.991142,1011.4,,TRUE,TRUE,TRUE,,,,,,,,,,,,,,,-1.6,,,,,,,,,,,METAR,1252.0
KBIF 252056Z 24015G24KT 10SM 29/M06 A2981 RMK A02A PK WND 25030/2030 ALSTG WND DATA ESTMD SLPNO $,KBIF,2023-04-25T20:56:00Z,31.85,-106.38,29.0,-6.0,240,15,24,10.0,29.811024,,,,TRUE,TRUE,,,,,,,,,,,,,,,,,,,,,,,,,,METAR,1201.0
KBID 252056Z AUTO 22008KT 10SM CLR 12/06 A3016 RMK AO2 SLP215 T01220056 53003,KBID,2023-04-25T20:56:00Z,41.17,-71.58,12.2,5.6,220,8,,10.0,30.159449,1021.5,,TRUE,TRUE,,,,,,,CLR,,,,,,,,VFR,0.3,,,,,,,,,,,METAR,32.0
KBHB 252056Z AUTO 11005KT 10SM OVC012 06/03 A3025 RMK AO2 SLP247 T00560033 53009,KBHB,2023-04-25T20:56:00Z,44.45,-68.37,5.6,3.3,110,5,,10.0,30.250984,1024.7,,TRUE,TRUE,,,,,,,OVC,1200,,,,,,,MVFR,0.9,,,,,,,,,,,METAR,21.0
KAWO 252056Z AUTO 35006KT 10SM OVC034 14/07 A3027 RMK AO2 SLP254 T01390067 58007,KAWO,2023-04-25T20:56:00Z,48.17,-122.17,13.9,6.7,350,6,,10.0,30.268702,1025.4,,TRUE,TRUE,,,,,,,OVC,3400,,,,,,,VFR,-0.7,,,,,,,,,,,METAR,38.0
KASH 252056Z 30006KT 10SM SCT065 BKN080 OVC100 13/02 A3014 RMK AO2 SLP210 T01330017 53001,KASH,2023-04-25T20:56:00Z,42.78,-71.52,13.3,1.7,300,6,,10.0,30.138779,1021.0,,,TRUE,,,,,,,SCT,6500,BKN,8000,OVC,10000,,,VFR,0.1,,,,,,,,,,,METAR,56.0
KART 252056Z AUTO 25010KT 10SM SCT085 08/02 A3018 RMK AO2 SLP223 T00830017 53001,KART,2023-04-25T20:56:00Z,43.98,-76.03,8.3,1.7,250,10,,10.0,30.180119,1022.3,,TRUE,TRUE,,,,,,,SCT,8500,,,,,,,VFR,0.1,,,,,,,,,,,METAR,100.0
KAND 252056Z AUTO 08005KT 10SM FEW060 BKN090 BKN110 18/06 A3009 RMK AO2 RAB13E22 SLP185 P0000 60000 T01830061 56009,KAND,2023-04-25T20:56:00Z,34.5,-82.72,18.3,6.1,80,5,,10.0,30.088583,1018.5,,TRUE,TRUE,,,,,,,FEW,6000,BKN,9000,BKN,11000,,,VFR,-0.9,,,,,0.005,0.005,,,,,METAR,233.0
KALK 252056Z AUTO 25016G31KT 10SM CLR 26/M06 A2993 RMK AO2 PK WND 25031/2052 SLP048 T02561056 57014,KALK,2023-04-25T20:56:00Z,31.6,-110.43,25.6,-5.6,250,16,31,10.0,29.929134,1004.8,,TRUE,TRUE,,,,,,,CLR,,,,,,,,VFR,-1.4,,,,,,,,,,,SPECI,1451.0
KAJO 252056Z AUTO VRB05KT 10SM CLR 22/13 A2989 RMK AO2 SLP116 6//// T02170128 58015,KAJO,2023-04-25T20:56:00Z,33.9,-117.6,21.7,12.8,0,5,,10.0,29.890747,1011.6,,TRUE,TRUE,,,,,,,CLR,,,,,,,,VFR,-1.5,,,,,,,,,,,METAR,161.0
KAIZ 252056Z AUTO 11008KT 10SM CLR 19/M01 RMK AO2 SLPNO T01941011 $,KAIZ,2023-04-25T20:56:00Z,38.1,-92.53,19.4,-1.1,110,8,,10.0,,,,TRUE,TRUE,TRUE,,,,,,CLR,,,,,,,,VFR,,,,,,,,,,,,METAR,263.0
KAFJ 252056Z AUTO 26006KT 10SM SCT075 BKN100 13/M04 A3016 RMK AO2 SLP219 T01281044 56015,KAFJ,2023-04-25T20:56:00Z,40.13,-80.28,12.8,-4.4,260,6,,10.0,30.159449,1021.9,,TRUE,TRUE,,,,,,,SCT,7500,BKN,10000,,,,,VFR,-1.5,,,,,,,,,,,METAR,360.0
KADF 252056Z AUTO 34005KT 10SM OVC060 12/10 A3009 RMK AO2 SLP188 60000 T01220100 55006,KADF,2023-04-25T20:56:00Z,34.1,-93.07,12.2,10.0,340,5,,10.0,30.088583,1018.8,,TRUE,TRUE,,,,,,,OVC,6000,,,,,,,VFR,-0.6,,,,,,0.005,,,,,METAR,54.0
K8D3 252056Z AUTO 11011G15KT 11/M04 A3022 RMK AO1 SLP245 T01111044 58007,K8D3,2023-04-25T20:56:00Z,45.67,-96.98,11.1,-4.4,110,11,15,,30.221457,1024.5,,TRUE,TRUE,,,,,,,,,,,,,,,,-0.7,,,,,,,,,,,METAR,535.0
K79J 252056Z AUTO 04003KT 10SM FEW050 29/12 A2996 RMK AO2 SLP140 T02890122 58018,K79J,2023-04-25T20:56:00Z,31.32,-86.4,28.9,12.2,40,3,,10.0,29.958662,1014.0,,TRUE,TRUE,,,,,,,FEW,5000,,,,,,,VFR,-1.8,,,,,,,,,,,SPECI,93.0
K2WX 252056Z AUTO 15019G26KT 08/01 A3004 RMK AO1 PK WND 13026/2050 SLP191 T00830006 56006,K2WX,2023-04-25T20:56:00Z,45.6,-103.55,8.3,0.6,150,19,26,,30.041338,1019.1,,TRUE,TRUE,,,,,,,,,,,,,,,,-0.6,,,,,,,,,,,METAR,925.0
K1M4 252056Z AUTO 36005KT 10SM FEW080 BKN110 19/02 A3008 RMK AO2 SLP178 T01940022 58015,K1M4,2023-04-25T20:56:00Z,34.28,-87.6,19.4,2.2,360,5,,10.0,30.079725,1017.8,,TRUE,TRUE,,,,,,,FEW,8000,BKN,11000,,,,,VFR,-1.5,,,,,,,,,,,METAR,283.0
TXKF 252055Z 26008KT 9999 -RA FEW013 FEW047 BKN100 OVC130 19/17 Q1018 ,TXKF,2023-04-25T20:55:00Z,32.37,-64.68,19.0,17.0,260,8,,6.21,30.059055,,,,,,,,,,-RA,FEW,1300,FEW,4700,BKN,10000,OVC,13000,VFR,,,,,,,,,,,,METAR,4.0
TNCE 252055Z AUTO 05007KT 010V080 //// // ///////// 28/22 Q1013 RE//,TNCE,2023-04-25T20:55:00Z,17.48,-62.97,28.0,22.0,50,7,,,29.911417,,,TRUE,,,,,,,,,,,,,,,,,,,,,,,,,,,,METAR,38.0
TNCB 252055Z 10010KT 050V150 9999 FEW018 30/23 Q1010,TNCB,2023-04-25T20:55:00Z,12.13,-68.28,30.0,23.0,100,10,,6.21,29.822834,,,,,,,,,,,FEW,1800,,,,,,,VFR,,,,,,,,,,,,METAR,6.0
RODN 252055Z 33004KT 10SM SCT005 OVC012 19/17 A2989 RMK AO2A SLPNO RVRNO ALSTG ESTMD $,RODN,2023-04-25T20:55:00Z,26.35,127.77,19.0,17.0,330,4,,10.0,29.890747,,,,TRUE,TRUE,,,,,,SCT,500,OVC,1200,,,,,MVFR,,,,,,,,,,,,METAR,38.0
RKSG 252055Z 21003KT 5SM BR SCT022 BKN055 09/06 A2988 RMK AO2A SLP117 WND DATA ESTMD T00920056 $,RKSG,2023-04-25T20:55:00Z,36.97,127.02,9.2,5.6,210,3,,5.0,29.878937,1011.7,,,TRUE,TRUE,,,,,BR,SCT,2200,BKN,5500,,,,,MVFR,,,,,,,,,,,,METAR,12.0
PKMR 252055Z 06008KT 14SM -RA SCT014 BKN045 BKN110 OVC130 25/23 A2989 RMK SHRAB07E29RAB29 SLP124 60019 8/87/ T02530231 52024,PKMR,2023-04-25T20:55:00Z,7.08,171.38,25.3,23.1,60,8,,14.0,29.890747,1012.4,,,,,,,,,-RA,SCT,1400,BKN,4500,BKN,11000,OVC,13000,VFR,2.4,,,,,,0.19,,,,,METAR,7.0
PHSF 252055Z AUTO 25006KT 10SM CLR 19/11 A3035 RMK AO2 SLP169 T01930113 50000 $,PHSF,2023-04-25T20:55:00Z,19.77,-155.55,19.3,11.3,250,6,,10.0,30.351377,1016.9,,TRUE,TRUE,TRUE,,,,,,CLR,,,,,,,,VFR,0.0,,,,,,,,,,,METAR,1863.0
PATL 252055Z AUTO 00000KT 10SM CLR M04/M12 A2968 RMK AO2 SLP074 T10361124 57006 TSNO $,PATL,2023-04-25T20:55:00Z,62.9,-155.97,-3.6,-12.4,0,0,,10.0,29.681103,1007.4,,TRUE,TRUE,TRUE,,TRUE,,,,CLR,,,,,,,,VFR,-0.6,,,,,,,,,,,METAR,261.0
PATC 252055Z AUTO 03025KT 4SM BR FEW080 M13/M15 A2977 RMK AO2 PK WND 03028/2051 SLP089 T11301152 56014,PATC,2023-04-25T20:55:00Z,65.57,-167.92,-13.0,-15.2,30,25,,4.0,29.769686,1008.9,,TRUE,TRUE,,,,,,BR,FEW,8000,,,,,,,MVFR,-1.4,,,,,,,,,,,METAR,77.0
PASY 252055Z 30011KT 7SM FEW044 FEW070 BKN220 03/M02 A2970 RMK AO2A SLP057 WND DATA ESTMD T00261020 51002 PNO FZRANO $,PASY,2023-04-25T20:55:00Z,52.72,174.12,2.6,-2.0,300,11,,7.0,29.698818,1005.7,,,TRUE,TRUE,,,TRUE,,,FEW,4400,FEW,7000,BKN,22000,,,VFR,0.2,,,,,,,,,,,METAR,6.0
PALU 252055Z 08017KT 10SM FEW017 M09/M12 A3009 RMK AO2A SLP189 57010 BWC LOW,PALU,2023-04-25T20:55:00Z,68.88,-166.1,-9.0,-12.0,80,17,,10.0,30.088583,1018.9,,,TRUE,,,,,,,FEW,1700,,,,,,,VFR,-1.0,,,,,,,,,,,METAR,8.0
PAIM 252055Z AUTO 06012G19KT 350V100 10SM CLR M09/M17 A2982 RMK AO2 PK WND 04028/2018 SLP133 T10871171 57002,PAIM,2023-04-25T20:55:00Z,66.0,-153.7,-8.7,-17.1,60,12,19,10.0,29.819881,1013.3,,TRUE,TRUE,,,,,,,CLR,,,,,,,,VFR,-0.2,,,,,,,,,,,METAR,309.0
PAFR 252055Z AUTO 22006KT 9SM OVC120 04/M04 A2973 RMK AO2 SLP077 T00401040 58003 $,PAFR,2023-04-25T20:55:00Z,61.27,-149.65,4.0,-4.0,220,6,,9.0,29.731298,1007.7,,TRUE,TRUE,TRUE,,,,,,OVC,12000,,,,,,,VFR,-0.3,,,,,,,,,,,METAR,106.0
PAFB 252055Z 06008KT 10SM FEW100 SCT200 00/M11 A2979 RMK AO2A SLP100 T00021109 57009 CHINO RWY25R $,PAFB,2023-04-25T20:55:00Z,64.83,-147.62,0.2,-10.9,60,8,,10.0,29.790354,1010.0,,,TRUE,TRUE,,,,,,FEW,10000,SCT,20000,,,,,VFR,-0.9,,,,,,,,,,,SPECI,137.0
PAEI 252055Z AUTO 35007KT 10SM CLR 00/M10 A2975 RMK AO2 SLP086 T00001103 57011 $,PAEI,2023-04-25T20:55:00Z,64.67,-147.1,0.0,-10.3,350,7,,10.0,29.749016,1008.6,,TRUE,TRUE,TRUE,,,,,,CLR,,,,,,,,VFR,-1.1,,,,,,,,,,,METAR,166.0
PAEH 252055Z AUTO 07015KT 040V110 6SM -RASN FEW007 OVC045 M01/M01 A2942 RMK AO2 RAB1945E2024SNB2024E2049 SLP974 T10141014 53005,PAEH,2023-04-25T20:55:00Z,58.65,-162.07,-1.4,-1.4,70,15,,6.0,29.421259,997.4,,TRUE,TRUE,,,,,,-RA -SN,FEW,700,OVC,4500,,,,,VFR,0.5,,,,,,,,,,,METAR,101.0
PAED 252055Z 00000KT 10SM VCSH FEW045 SCT065 BKN100 OVC120 05/M03 A2971 RMK AO2A SLP058 T00451031 58001,PAED,2023-04-25T20:55:00Z,61.25,-149.83,4.5,-3.1,0,0,,10.0,29.71063,1005.8,,,TRUE,,,,,,VCSH,FEW,4500,SCT,6500,BKN,10000,OVC,12000,VFR,-0.1,,,,,,,,,,,METAR,54.0
PACZ 252055Z AUTO 06008KT 10SM BKN080 M06/M13 A2953 RMK AO2 SLP011 T10601133 56004,PACZ,2023-04-25T20:55:00Z,61.78,-166.03,-6.0,-13.3,60,8,,10.0,29.530512,1001.1,,TRUE,TRUE,,,,,,,BKN,8000,,,,,,,VFR,-0.4,,,,,,,,,,,METAR,129.0
OPFA 252055Z 00000KT 4000 FU NSC 24/15 Q1008 NOSIG,OPFA,2023-04-25T20:55:00Z,31.37,73.0,24.0,15.0,0,0,,2.49,29.763779,,,,,,TRUE,,,,FU,CLR,,,,,,,,IFR,,,,,,,,,,,,METAR,180.0
OKAS 252055Z AUTO 01006KT 9999 CLR 25/05 A2981 RMK AO2 SLP090 T02530049 403370219 50000 FZRANO $,OKAS,2023-04-25T20:55:00Z,29.35,47.52,25.3,4.9,10,6,,6.21,29.811024,1009.0,,TRUE,TRUE,TRUE,,,TRUE,,,CLR,,,,,,,,VFR,0.0,,,33.7,21.9,,,,,,,METAR,144.0
OEPS 252055Z 09007KT 9999 CLR 26/12 A2990 RMK AO2A SLP105 WND DATA ESTMD T02630115 50005,OEPS,2023-04-25T20:55:00Z,24.07,47.58,26.3,11.5,90,7,,6.21,29.899607,1010.5,,,TRUE,,,,,,,CLR,,,,,,,,VFR,0.5,,,,,,,,,,,SPECI,503.0
LIVT 252055Z AUTO VRB02KT //// 11/09 Q1011,LIVT,2023-04-25T20:55:00Z,45.68,13.75,11.0,9.0,0,2,,,29.852362,,,TRUE,,,,,,,,,,,,,,,,,,,,,,,,,,,,SPECI,20.0
LIVR 252055Z 29005KT CAVOK M01/M11 Q1010 RMK SKC MON LIB VIS MIN 9999,LIVR,2023-04-25T20:55:00Z,46.28,11.78,-1.0,-11.0,290,5,,6.21,29.822834,,,,,,,,,,,CAVOK,,,,,,,,VFR,,,,,,,,,,,,METAR,1997.0
LIVP 252055Z 35012KT CAVOK M03/M07 Q1010,LIVP,2023-04-25T20:55:00Z,46.15,11.03,-3.0,-7.0,350,12,,6.21,29.822834,,,,,,,,,,,CAVOK,,,,,,,,VFR,,,,,,,,,,,,METAR,2099.0
LIVM 252055Z AUTO /////KT //// ///// Q////,LIVM,2023-04-25T20:55:00Z,44.45,12.3,,,,,,,,,,TRUE,,,,,,,,,,,,,,,,,,,,,,,,,,,,SPECI,6.0
LIVF 252055Z 21004KT CAVOK 07/03 Q1010,LIVF,2023-04-25T20:55:00Z,43.52,12.72,7.0,3.0,210,4,,6.21,29.822834,,,,,,,,,,,CAVOK,,,,,,,,VFR,,,,,,,,,,,,METAR,549.0
LIVE 252055Z 03006G17KT CAVOK 02/M03 Q1012 RMK SKC VIS MIN 9999,LIVE,2023-04-25T20:55:00Z,46.82,10.5,2.0,-3.0,30,6,17,6.21,29.88189,,,,,,,,,,,CAVOK,,,,,,,,VFR,,,,,,,,,,,,METAR,1684.0
LIVD 252055Z AUTO VRB02KT //// 02/M03 Q1013,LIVD,2023-04-25T20:55:00Z,46.72,12.22,2.0,-3.0,0,2,,,29.911417,,,TRUE,,,,,,,,,,,,,,,,,,,,,,,,,,,,SPECI,1221.0
LIVC 252055Z AUTO /////KT //// M01/M03 Q1012,LIVC,2023-04-25T20:55:00Z,44.2,10.68,-1.0,-3.0,,,,,29.88189,,,TRUE,,,,,,,,,,,,,,,,,,,,,,,,,,,,SPECI,2139.0
LIRS 252055Z 08004KT CAVOK 13/12 Q1010 RMK SKC VIS MIN 9999 WIND THR03 VRB01KT WIND THR21 09001KT BLU,LIRS,2023-04-25T20:55:00Z,42.75,11.07,13.0,12.0,80,4,,6.21,29.822834,,,,,,,,,,,CAVOK,,,,,,,,VFR,,,,,,,,,,,,METAR,3.0
LIRM 252055Z 20005KT 9999 SCT030 14/13 Q1009 RMK SCT VIS MIN 9999 WIND THR06 23005KT BLU,LIRM,2023-04-25T20:55:00Z,41.05,14.07,14.0,13.0,200,5,,6.21,29.793306,,,,,,,,,,,SCT,3000,,,,,,,VFR,,,,,,,,,,,,METAR,6.0
LIRK 252055Z AUTO /////KT //// 02/M01 Q1018,LIRK,2023-04-25T20:55:00Z,42.47,12.97,2.0,-1.0,,,,,30.059055,,,TRUE,,,,,,,,,,,,,,,,,,,,,,,,,,,,SPECI,1721.0
LIRE 252055Z 36004KT CAVOK 13/11 Q1010 RMK SKC VIS MIN 9999 WIND THR13 35004KT WIND THR31 /////KT BLU,LIRE,2023-04-25T20:55:00Z,41.65,12.43,13.0,11.0,360,4,,6.21,29.822834,,,,,,,,,,,CAVOK,,,,,,,,VFR,,,,,,,,,,,,METAR,16.0
LIQC 252055Z 26006KT 9999 BKN025 15/14 Q1010 RMK BKN QUK / QUL / VIS MAR 15 KM VIS MIN 9999,LIQC,2023-04-25T20:55:00Z,40.55,14.2,15.0,14.0,260,6,,6.21,29.822834,,,,,,,,,,,BKN,2500,,,,,,,MVFR,,,,,,,,,,,,METAR,154.0
LIPS 252055Z 24002KT CAVOK 08/06 Q1011 RMK SKC VIS MIN 9999 WIND THR26 18002KT WIND THR08 19001KT BLU,LIPS,2023-04-25T20:55:00Z,45.68,12.1,8.0,6.0,240,2,,6.21,29.852362,,,,,,,,,,,CAVOK,,,,,,,,VFR,,,,,,,,,,,,METAR,42.0
LIPL 252055Z 02003KT CAVOK 09/09 Q1010 RMK SKC VIS MIN 9999 WIND THR31 03004KT WIND THR13 01003KT BLU,LIPL,2023-04-25T20:55:00Z,45.42,10.27,9.0,9.0,20,3,,6.21,29.822834,,,,,,,,,,,CAVOK,,,,,,,,VFR,,,,,,,,,,,,SPECI,96.0
LIPI 252055Z 16001KT CAVOK 08/07 Q1010 RMK SKC VIS MIN 9999 WIND THR06 18002KT WIND THR24 15001KT BLU,LIPI,2023-04-25T20:55:00Z,45.97,13.05,8.0,7.0,160,1,,6.21,29.822834,,,,,,,,,,,CAVOK,,,,,,,,VFR,,,,,,,,,,,,SPECI,49.0
LIPC 252055Z 22003KT CAVOK 09/08 Q1012 RMK SKC VIS MIN 9999 WIND THR11 23003KT WIND THR29 24002KT BLU,LIPC,2023-04-25T20:55:00Z,44.22,12.3,9.0,8.0,220,3,,6.21,29.88189,,,,,,,,,,,CAVOK,,,,,,,,VFR,,,,,,,,,,,,METAR,10.0
LIMH 252055Z AUTO 03025KT //// M11/M29 Q1011,LIMH,2023-04-25T20:55:00Z,45.93,7.7,-11.0,-29.0,30,25,,,29.852362,,,TRUE,,,,,,,,,,,,,,,,,,,,,,,,,,,,SPECI,3473.0
LIED 252055Z 27002KT CAVOK 15/14 Q1013 RMK SKC VIS MIN 9999 WIND THR35 /////KT WIND THR17 35002KT BLU,LIED,2023-04-25T20:55:00Z,39.35,8.97,15.0,14.0,270,2,,6.21,29.911417,,,,,,,,,,,CAVOK,,,,,,,,VFR,,,,,,,,,,,,SPECI,26.0
LIEB 252055Z 29011KT CAVOK 19/08 Q1010 RMK SKC QUK / QUL / VIS MAR 20 KM MON INVIS VIS MIN 9999,LIEB,2023-04-25T20:55:00Z,39.93,9.72,19.0,8.0,290,11,,6.21,29.822834,,,,,,,,,,,CAVOK,,,,,,,,VFR,,,,,,,,,,,,SPECI,126.0
LICZ 252055Z /////KT CAVOK 17/16 Q1010 RMK SKC VIS MIN 9999 WIND THR28 25010KT WIND THR10 26009KT A2986 BLU,LICZ,2023-04-25T20:55:00Z,37.4,14.92,17.0,16.0,,,,6.21,29.822834,,,,,,,,,,,CAVOK,,,,,,,,VFR,,,,,,,,,,,,METAR,22.0
LICT 252055Z 22003KT CAVOK 15/13 Q1013 RMK FEW FEW150 VIS MIN 9999 WIND THR13 25005KT BLU,LICT,2023-04-25T20:55:00Z,37.92,12.5,15.0,13.0,220,3,,6.21,29.911417,,,,,,,,,,,CAVOK,,,,,,,,VFR,,,,,,,,,,,,METAR,4.0
LIBV 252055Z 26003KT CAVOK 14/09 Q1007 RMK BKN SCT060 BKN070 VIS MIN 9999 WIND THR32 26004KT WIND THR14 28005KT BLU,LIBV,2023-04-25T20:55:00Z,40.77,16.93,14.0,9.0,260,3,,6.21,29.734253,,,,,,,,,,,CAVOK,,,,,,,,VFR,,,,,,,,,,,,METAR,344.0
LIBQ 252055Z AUTO 26008KT //// 06/05 Q1010,LIBQ,2023-04-25T20:55:00Z,39.32,16.38,6.0,5.0,260,8,,,29.822834,,,TRUE,,,,,,,,,,,,,,,,,,,,,,,,,,,,SPECI,1660.0
LIBN 252055Z 23005KT CAVOK 15/14 Q1008 RMK SKC VIS MIN 9999 WIND THR14 25008KT WIND THR32 23006KT BLU,LIBN,2023-04-25T20:55:00Z,40.23,18.13,15.0,14.0,230,5,,6.21,29.763779,,,,,,,,,,,CAVOK,,,,,,,,VFR,,,,,,,,,,,,SPECI,46.0
LIBA 252055Z 28007KT 9999 FEW030 13/10 Q1009 RMK BKN SCT100 VIS MIN 9999 WIND THR11 /////KT WIND THR29 /////KT BLU,LIBA,2023-04-25T20:55:00Z,41.53,15.72,13.0,10.0,280,7,,6.21,29.793306,,,,,,,,,,,FEW,3000,,,,,,,VFR,,,,,,,,,,,,SPECI,55.0
KXNO 252055Z AUTO 11010KT 10SM -DZ BKN100 BKN120 23/03 A3006 RMK AO2 SLP181 P0000 60000 T02290029 57010 $,KXNO,2023-04-25T20:55:00Z,33.62,-81.07,22.9,2.9,110,10,,10.0,30.059055,1018.1,,TRUE,TRUE,TRUE,,,,,-DZ,BKN,10000,BKN,12000,,,,,VFR,-1.0,,,,,0.005,0.005,,,,,METAR,94.0
KWRI 252055Z AUTO 31006KT 10SM CLR 14/M01 A3016 RMK AO2 SLP213 T01391013 $,KWRI,2023-04-25T20:55:00Z,40.02,-74.58,13.9,-1.3,310,6,,10.0,30.159449,1021.3,,TRUE,TRUE,TRUE,,,,,,CLR,,,,,,,,VFR,,,,,,,,,,,,METAR,35.0
KWRB 252055Z AUTO 02005KT 10SM CLR 25/12 A2999 RMK AO2 SLP157 T02540122 57013,KWRB,2023-04-25T20:55:00Z,32.63,-83.58,25.4,12.2,20,5,,10.0,29.991142,1015.7,,TRUE,TRUE,,,,,,,CLR,,,,,,,,VFR,-1.3,,,,,,,,,,,METAR,82.0
KVPS 252055Z 21008KT 10SM SCT090 24/17 A2995 RMK AO2A SLP149 T02410173 57015 $,KVPS,2023-04-25T20:55:00Z,30.47,-86.52,24.1,17.3,210,8,,10.0,29.949802,1014.9,,,TRUE,TRUE,,,,,,SCT,9000,,,,,,,VFR,-1.5,,,,,,,,,,,SPECI,21.0
KVOK 252055Z 01006KT 10SM BKN060 09/M04 A3019 RMK AO2A SLP235 T00861042 53001,KVOK,2023-04-25T20:55:00Z,43.93,-90.27,8.6,-4.2,10,6,,10.0,30.188976,1023.5,,,TRUE,,,,,,,BKN,6000,,,,,,,VFR,0.1,,,,,,,,,,,METAR,278.0
KVBG 252055Z 29005KT 6SM BR OVC007 13/10 A2996 RMK AO2A SLP149 T01250102 50000,KVBG,2023-04-25T20:55:00Z,34.73,-120.58,12.5,10.2,290,5,,6.0,29.958662,1014.9,,,TRUE,,,,,,BR,OVC,700,,,,,,,IFR,0.0,,,,,,,,,,,SPECI,96.0
KVAD 252055Z AUTO 35006KT 10SM FEW180 FEW210 27/14 A2993 RMK AO2 SLP136 T02680138 57017 $,KVAD,2023-04-25T20:55:00Z,30.97,-83.2,26.8,13.8,350,6,,10.0,29.929134,1013.6,,TRUE,TRUE,TRUE,,,,,,FEW,18000,FEW,21000,,,,,VFR,-1.7,,,,,,,,,,,METAR,70.0
KTZR 252055Z 26007KT 10SM OVC075 13/M03 A3013,KTZR,2023-04-25T20:55:00Z,39.9,-83.13,13.0,-3.0,260,7,,10.0,30.129921,,,,,,,,,,,OVC,7500,,,,,,,VFR,,,,,,,,,,,,METAR,275.0
KTNB 252055Z AUTO 19004KT 10SM CLR 13/M02 A3013 RMK AO2 T01331017,KTNB,2023-04-25T20:55:00Z,36.2,-81.65,13.3,-1.7,190,4,,10.0,30.129921,,,TRUE,TRUE,,,,,,,CLR,,,,,,,,VFR,,,,,,,,,,,,SPECI,958.0
KTIK 252055Z AUTO 12010KT 10SM OVC010 10/10 A2992 RMK AO2 RAB21E22DZB22E23RAB23E31DZB31E32RAB32E33 OVC V BKN SLP139 P0000 60000 T01000098 57009 $,KTIK,2023-04-25T20:55:00Z,35.4,-97.38,10.0,9.8,120,10,,10.0,29.920275,1013.9,,TRUE,TRUE,TRUE,,,,,,OVC,1000,,,,,,,MVFR,-0.9,,,,,0.005,0.005,,,,,METAR,387.0
KTDR 252055Z AUTO 25006KT 10SM CLR 26/20 A2991 RMK AO2 LTG DSNT NE SLP132 T02560195 58008 $,KTDR,2023-04-25T20:55:00Z,30.05,-85.52,25.6,19.5,250,6,,10.0,29.911417,1013.2,,TRUE,TRUE,TRUE,,,,,,CLR,,,,,,,,VFR,-0.8,,,,,,,,,,,METAR,4.0
KTCM 252055Z AUTO 31007KT 10SM SCT034 15/06 A3025 RMK AO2 SLP248 T01460057 58006 $,KTCM,2023-04-25T20:55:00Z,47.13,-122.47,14.6,5.7,310,7,,10.0,30.250984,1024.8,,TRUE,TRUE,TRUE,,,,,,SCT,3400,,,,,,,VFR,-0.6,,,,,,,,,,,METAR,87.0
KTBN 252055Z AUTO 10006KT 10SM CLR 19/M02 A3005 RMK AO2 SLP176 T01931018 57014,KTBN,2023-04-25T20:55:00Z,37.73,-92.13,19.3,-1.8,100,6,,10.0,30.050198,1017.6,,TRUE,TRUE,,,,,,,CLR,,,,,,,,VFR,-1.4,,,,,,,,,,,METAR,349.0
KT70 252055Z AUTO 16009KT 10SM BKN039 26/16 A2979 RMK AO2 SLP077 T02640163 57028 $,KT70,2023-04-25T20:55:00Z,29.12,-100.48,26.4,16.3,160,9,,10.0,29.790354,1007.7,,TRUE,TRUE,TRUE,,,,,,BKN,3900,,,,,,,VFR,-2.8,,,,,,,,,,,METAR,296.0
KSZL 252055Z 09008KT 10SM BKN070 19/03 A3004 RMK AO2A SLP174 T01900032 57016 $,KSZL,2023-04-25T20:55:00Z,38.73,-93.53,19.0,3.2,90,8,,10.0,30.041338,1017.4,,,TRUE,TRUE,,,,,,BKN,7000,,,,,,,VFR,-1.6,,,,,,,,,,,METAR,259.0
KSXS 252055Z AUTO 00000KT 9SM FEW050 26/13 A2994 RMK AO2 SLP138 T02610129 57017,KSXS,2023-04-25T20:55:00Z,31.37,-85.85,26.1,12.9,0,0,,9.0,29.940945,1013.8,,TRUE,TRUE,,,,,,,FEW,5000,,,,,,,VFR,-1.7,,,,,,,,,,,METAR,120.0
KSVN 252055Z AUTO 08010KT 10SM -RA BKN060 OVC090 19/16 A3000 RMK AO2 RAB11E27DZB31E34RAB34 SLP162 P0001 60001 T01930157 57007 $,KSVN,2023-04-25T20:55:00Z,32.02,-81.12,19.3,15.7,80,10,,10.0,30.0,1016.2,,TRUE,TRUE,TRUE,,,,,-RA,BKN,6000,OVC,9000,,,,,VFR,-0.7,,,,,0.01,0.01,,,,,METAR,13.0
KSUU 252055Z AUTO 00000KT 10SM CLR 28/04 A2988 RMK AO2 SLP125 T02800036 57016,KSUU,2023-04-25T20:55:00Z,38.27,-121.93,28.0,3.6,0,0,,10.0,29.878937,1012.5,,TRUE,TRUE,,,,,,,CLR,,,,,,,,VFR,-1.6,,,,,,,,,,,METAR,9.0
KSSC 252055Z 04009KT 10SM BKN070 BKN130 22/06 A3006 RMK AO2A SLP180 T02180061 58007 $,KSSC,2023-04-25T20:55:00Z,33.97,-80.47,21.8,6.1,40,9,,10.0,30.059055,1018.0,,,TRUE,TRUE,,,,,,BKN,7000,BKN,13000,,,,,VFR,-0.7,,,,,,,,,,,SPECI,71.0
KSLI 252055Z 22009KT 9SM BKN028 19/14 A2988 RMK AO2A SLP121 T01930139 57010,KSLI,2023-04-25T20:55:00Z,33.78,-118.03,19.3,13.9,220,9,,9.0,29.878937,1012.1,,,TRUE,,,,,,,BKN,2800,,,,,,,MVFR,-1.0,,,,,,,,,,,SPECI,8.0
KSKA 252055Z 24007G16KT 10SM CLR 14/01 A3013 RMK AO2A SLP205 T01400013 58007 $,KSKA,2023-04-25T20:55:00Z,47.62,-117.67,14.0,1.3,240,7,16,10.0,30.129921,1020.5,,,TRUE,TRUE,,,,,,CLR,,,,,,,,VFR,-0.7,,,,,,,,,,,METAR,754.0
KSHM 252055Z AUTO 15010KT 10SM VCTS -RA BKN045 OVC060 08/03 A2986 RMK AO2 RAB21E30DZB30E46RAB46 TSB03E18 SLP104 P0000 60000 T00790030 53009 $,KSHM,2023-04-25T20:55:00Z,38.8,-104.52,7.9,3.0,150,10,,10.0,29.861221,1010.4,,TRUE,TRUE,TRUE,,,,,VCTS -RA,BKN,4500,OVC,6000,,,,,VFR,0.9,,,,,0.005,0.005,,,,,METAR,1900.0
KSEQ 252055Z AUTO 13004KT 10SM BKN023 BKN029 BKN075 24/20 A2981 RMK AO2 SLP092 T02430196 57028,KSEQ,2023-04-25T20:55:00Z,29.57,-97.9,24.3,19.6,130,4,,10.0,29.811024,1009.2,,TRUE,TRUE,,,,,,,BKN,2300,BKN,2900,BKN,7500,,,MVFR,-2.8,,,,,,,,,,,METAR,160.0
KSCK 252055Z 29010KT 10SM CLR 27/06 A2989 RMK AO2 SLP120 T02720061 58013,KSCK,2023-04-25T20:55:00Z,37.88,-121.22,27.2,6.1,290,10,,10.0,29.890747,1012.0,,,TRUE,,,,,,,CLR,,,,,,,,VFR,-1.3,,,,,,,,,,,METAR,8.0
KSCH 252055Z 00000KT 15SM SCT060 BKN085 A3018 RMK TEMP AND DP MISSING,KSCH,2023-04-25T20:55:00Z,42.85,-73.92,,,0,0,,15.0,30.180119,,,,,,,,,,,SCT,6000,BKN,8500,,,,,VFR,,,,,,,,,,,,SPECI,100.0
KRNO 252055Z 10007KT 10SM FEW250 18/M06 A3011 RMK AO2 SLP166 T01831056 56007,KRNO,2023-04-25T20:55:00Z,39.5,-119.77,18.3,-5.6,100,7,,10.0,30.109253,1016.6,,,TRUE,,,,,,,FEW,25000,,,,,,,VFR,-0.7,,,,,,,,,,,METAR,1344.0
KRIV 252055Z AUTO 28005KT 10SM FEW190 22/12 A2988 RMK AO2 SLP111 T02240123 57010,KRIV,2023-04-25T20:55:00Z,33.87,-117.23,22.4,12.3,280,5,,10.0,29.878937,1011.1,,TRUE,TRUE,,,,,,,FEW,19000,,,,,,,VFR,-1.0,,,,,,,,,,,METAR,454.0
KRCA 252055Z AUTO 12006KT 10SM SCT036 BKN150 BKN180 11/01 A3004 RMK AO2 SLP188 T01130012 58001 $,KRCA,2023-04-25T20:55:00Z,44.15,-103.12,11.3,1.2,120,6,,10.0,30.041338,1018.8,,TRUE,TRUE,TRUE,,,,,,SCT,3600,BKN,15000,BKN,18000,,,VFR,-0.1,,,,,,,,,,,METAR,993.0
KQVF 252055Z AUTO 00000KT 9999 FEW090 BKN200 26/25 A2986 RMK AO2 SLP114 WND DATA ESTMD T02570250 402840229 50003,KQVF,2023-04-25T20:55:00Z,,,25.7,25.0,0,0,,6.21,29.861221,1011.4,,TRUE,TRUE,,,,,,,FEW,9000,BKN,20000,,,,,VFR,0.3,,,28.4,22.9,,,,,,,METAR,
KQTZ 252055Z 03003KT 9999 SKC 23/07 A2984 RMK SLP101 56002,KQTZ,2023-04-25T20:55:00Z,,,23.0,7.0,30,3,,6.21,29.840551,1010.1,,,,,,,,,,SKC,,,,,,,,VFR,-0.2,,,,,,,,,,,METAR,
KQRH 252055Z AUTO VRB03KT 9999 CLR 29/25 A2972 RMK AO2 SLP067 WND DATA ESTMD T02930249 403410284 50002,KQRH,2023-04-25T20:55:00Z,,,29.3,24.9,0,3,,6.21,29.719488,1006.7,,TRUE,TRUE,,,,,,,CLR,,,,,,,,VFR,0.2,,,34.1,28.4,,,,,,,METAR,
KQN3 252055Z 00000KT 9999 FEW160 38/02 A2977 RMK SLP060 WND DATA ESTMD T03760019 52012,KQN3,2023-04-25T20:55:00Z,,,37.6,1.9,0,0,,6.21,29.769686,1006.0,,,,,,,,,,FEW,16000,,,,,,,VFR,1.2,,,,,,,,,,,METAR,
KQHY 252055Z AUTO 22006KT 10SM SCT095 23/18 A2996 RMK AO2 SLP152 T02320178 57015,KQHY,2023-04-25T20:55:00Z,,,23.2,17.8,220,6,,10.0,29.958662,1015.2,,TRUE,TRUE,,,,,,,SCT,9500,,,,,,,VFR,-1.5,,,,,,,,,,,METAR,
KQD3 252055Z AUTO 00000KT 9999 CLR 29/25 A2977 RMK AO2 SLP066 WND DATA ESTMD T02880245 50002,KQD3,2023-04-25T20:55:00Z,,,28.8,24.5,0,0,,6.21,29.769686,1006.6,,TRUE,TRUE,,,,,,,CLR,,,,,,,,VFR,0.2,,,,,,,,,,,METAR,
KQBR 252055Z AUTO VRB01KT 10SM OVC032 07/01 A3011 RMK AO2 SLP185 WND DATA ESTMD T00720007 52009,KQBR,2023-04-25T20:55:00Z,,,7.2,0.7,0,1,,10.0,30.109253,1018.5,,TRUE,TRUE,,,,,,,OVC,3200,,,,,,,VFR,0.9,,,,,,,,,,,METAR,
KQBL 252055Z AUTO VRB04KT 10SM FEW095 23/18 A2996 RMK AO2 SLPNO WND DATA ESTMD T02260176 57016,KQBL,2023-04-25T20:55:00Z,,,22.6,17.6,0,4,,10.0,29.958662,,,TRUE,TRUE,,,,,,,FEW,9500,,,,,,,VFR,-1.6,,,,,,,,,,,METAR,
KQAZ 252055Z 29004KT 9000 HZ SCT170 34/M02 A2979 RMK AO2A SLP079 WND DATA ESTMD T03371022 52014,KQAZ,2023-04-25T20:55:00Z,,,33.7,-2.2,290,4,,5.59,29.790354,1007.9,,,TRUE,,,,,,HZ,SCT,17000,,,,,,,VFR,1.4,,,,,,,,,,,METAR,
KPSM 252055Z 05010KT 10SM BKN015 BKN080 10/06 A3016 RMK AO2A SLP216 T01030059 53008,KPSM,2023-04-25T20:55:00Z,43.08,-70.82,10.3,5.9,50,10,,10.0,30.159449,1021.6,,,TRUE,,,,,,,BKN,1500,BKN,8000,,,,,MVFR,0.8,,,,,,,,,,,METAR,34.0
KPOE 252055Z AUTO 12007KT 9SM SCT100 23/13 A2993 RMK AO2 SLP136 T02300126 58021,KPOE,2023-04-25T20:55:00Z,31.05,-93.2,23.0,12.6,120,7,,9.0,29.929134,1013.6,,TRUE,TRUE,,,,,,,SCT,10000,,,,,,,VFR,-2.1,,,,,,,,,,,METAR,98.0
KPOB 252055Z AUTO 07004KT 10SM SCT080 OVC120 19/05 A3010 RMK AO2 SLP196 T01920053 57009 $,KPOB,2023-04-25T20:55:00Z,35.17,-79.02,19.2,5.3,70,4,,10.0,30.100393,1019.6,,TRUE,TRUE,TRUE,,,,,,SCT,8000,OVC,12000,,,,,VFR,-0.9,,,,,,,,,,,METAR,57.0
KPHP 252055Z AUTO 09019KT 10SM SCT060 13/M01 A3009 RMK AO2 PK WND 08028/2027 SLP194 T01281006 56004,KPHP,2023-04-25T20:55:00Z,44.05,-101.6,12.8,-0.6,90,19,,10.0,30.088583,1019.4,,TRUE,TRUE,,,,,,,SCT,6000,,,,,,,VFR,-0.4,,,,,,,,,,,METAR,673.0
KPAM 252055Z AUTO 27008KT 10SM CLR 25/18 A2994 RMK AO2 SLP142 T02450179 58007 $,KPAM,2023-04-25T20:55:00Z,30.07,-85.57,24.5,17.9,270,8,,10.0,29.940945,1014.2,,TRUE,TRUE,TRUE,,,,,,CLR,,,,,,,,VFR,-0.7,,,,,,,,,,,METAR,4.0
KP58 252055Z AUTO 12011KT 05/02 A3015 RMK AO1 SLP218 T00500017 53005,KP58,2023-04-25T20:55:00Z,44.02,-82.8,5.0,1.7,120,11,,,30.15059,1021.8,,TRUE,TRUE,,,,,,,,,,,,,,,,0.5,,,,,,,,,,,METAR,180.0
KOZR 252055Z AUTO 32003KT 10SM CLR 26/12 A2995 RMK AO2 SLP143 T02610118 58015,KOZR,2023-04-25T20:55:00Z,31.28,-85.72,26.1,11.8,320,3,,10.0,29.949802,1014.3,,TRUE,TRUE,,,,,,,CLR,,,,,,,,VFR,-1.5,,,,,,,,,,,METAR,90.0
KOLE 252055Z AUTO 26003KT 10SM SCT060 OVC075 07/M06 A3012 RMK AO2,KOLE,2023-04-25T20:55:00Z,42.23,-78.37,7.0,-6.0,260,3,,10.0,30.121063,,,TRUE,TRUE,,,,,,,SCT,6000,OVC,7500,,,,,VFR,,,,,,,,,,,,METAR,651.0
KOGD 252055Z 32003KT 10SM OVC055 07/01 A3009,KOGD,2023-04-25T20:55:00Z,41.2,-112.02,7.0,1.0,320,3,,10.0,30.088583,,,,,,,,,,,OVC,5500,,,,,,,VFR,,,,,,,,,,,,METAR,1356.0
KOCQ 252055Z AUTO 08004KT 10SM OVC060 06/M01 A3022 RMK AO1 T00601015,KOCQ,2023-04-25T20:55:00Z,44.87,-87.92,6.0,-1.5,80,4,,10.0,30.221457,,,TRUE,TRUE,,,,,,,OVC,6000,,,,,,,VFR,,,,,,,,,,,,METAR,181.0
KNTD 252055Z 26008KT 7SM FEW016 OVC021 18/14 A2992 RMK AO2 SLP133 T01780139 58007 $,KNTD,2023-04-25T20:55:00Z,34.12,-119.12,17.8,13.9,260,8,,7.0,29.920275,1013.3,,,TRUE,TRUE,,,,,,FEW,1600,OVC,2100,,,,,MVFR,-0.7,,,,,,,,,,,SPECI,1.0
KNKX 252055Z 26007KT 10SM BKN023 OVC029 17/12 A2990 RMK AO2 SLP122 T01720117 58007,KNKX,2023-04-25T20:55:00Z,32.87,-117.13,17.2,11.7,260,7,,10.0,29.899607,1012.2,,,TRUE,,,,,,,BKN,2300,OVC,2900,,,,,MVFR,-0.7,,,,,,,,,,,SPECI,138.0
KNBG 252055Z 07006KT 10SM SCT029 SCT130 BKN250 25/17 A2994 RMK AO2 SLP138 T02500172 58016 $,KNBG,2023-04-25T20:55:00Z,29.83,-90.02,25.0,17.2,70,6,,10.0,29.940945,1013.8,,,TRUE,TRUE,,,,,,SCT,2900,SCT,13000,BKN,25000,,,VFR,-1.6,,,,,,,,,,,METAR,0.0
KMXF 252055Z AUTO 22006KT 10SM CLR 25/03 A2997 RMK AO2 SLP151 T02540033 57017,KMXF,2023-04-25T20:55:00Z,32.38,-86.37,25.4,3.3,220,6,,10.0,29.970472,1015.1,,TRUE,TRUE,,,,,,,CLR,,,,,,,,VFR,-1.7,,,,,,,,,,,METAR,47.0
KMUO 252055Z 32014G22KT 10SM FEW050 FEW120 FEW200 16/M01 A3007 RMK AO2A SLP182 T01591008 58005,KMUO,2023-04-25T20:55:00Z,43.03,-115.87,15.9,-0.8,320,14,22,10.0,30.070866,1018.2,,,TRUE,,,,,,,FEW,5000,FEW,12000,FEW,20000,,,VFR,-0.5,,,,,,,,,,,METAR,915.0
KMUI 252055Z 35005KT 10SM SCT065 SCT250 15/M07 A3020 RMK SLPNO WND DATA ESTMD ALSTG ESTMD 56003,KMUI,2023-04-25T20:55:00Z,40.43,-76.57,15.0,-7.0,350,5,,10.0,30.200787,,,,,,,,,,,SCT,6500,SCT,25000,,,,,VFR,-0.3,,,,,,,,,,,METAR,146.0
KMTN 252055Z 13005KT 10SM SCT075 14/02 A3020,KMTN,2023-04-25T20:55:00Z,39.32,-76.42,14.0,2.0,130,5,,10.0,30.200787,,,,,,,,,,,SCT,7500,,,,,,,VFR,,,,,,,,,,,,METAR,2.0
KMMT 252055Z AUTO 07008KT 10SM BKN070 OVC130 M A3005 RMK AO2 SLPNO ALSTG ESTMD 57009 $,KMMT,2023-04-25T20:55:00Z,33.92,-80.8,,,70,8,,10.0,30.050198,,,TRUE,TRUE,TRUE,,,,,,BKN,7000,OVC,13000,,,,,VFR,-0.9,,,,,,,,,,,METAR,76.0
KMKG 252055Z 29012KT 10SM BKN055 12/M01 A3016 RMK AO2 SLP215 T01171006 56009,KMKG,2023-04-25T20:55:00Z,43.17,-86.23,11.7,-0.6,290,12,,10.0,30.159449,1021.5,,,TRUE,,,,,,,BKN,5500,,,,,,,VFR,-0.9,,,,,,,,,,,METAR,190.0
KMIB 252055Z AUTO 17010G17KT 10SM CLR 11/M05 A3014 RMK AO2 SLP228 T01121053 57013 $,KMIB,2023-04-25T20:55:00Z,48.42,-101.35,11.2,-5.3,170,10,17,10.0,30.138779,1022.8,,TRUE,TRUE,TRUE,,,,,,CLR,,,,,,,,VFR,-1.3,,,,,,,,,,,SPECI,505.0
KMGE 252055Z 00000KT 10SM SCT070 BKN120 BKN250 21/04 A3002 RMK AO2A SLP165 T02100041 57012 $,KMGE,2023-04-25T20:55:00Z,33.92,-84.52,21.0,4.1,0,0,,10.0,30.02067,1016.5,,,TRUE,TRUE,,,,,,SCT,7000,BKN,12000,BKN,25000,,,VFR,-1.2,,,,,,,,,,,METAR,309.0
KMCF 252055Z AUTO 26008KT 10SM CLR 28/20 A2985 RMK AO2 SLP111 60019 T02810196 57012 FZRANO $,KMCF,2023-04-25T20:55:00Z,27.85,-82.52,28.1,19.6,260,8,,10.0,29.84941,1011.1,,TRUE,TRUE,TRUE,,,TRUE,,,CLR,,,,,,,,VFR,-1.2,,,,,,0.19,,,,,METAR,3.0
KLZZ 252055Z AUTO 17008KT 10SM OVC016 20/17 A2986 RMK AO2 T02020166,KLZZ,2023-04-25T20:55:00Z,31.1,-98.2,20.2,16.6,170,8,,10.0,29.861221,,,TRUE,TRUE,,,,,,,OVC,1600,,,,,,,MVFR,,,,,,,,,,,,SPECI,356.0
KLUF 252055Z AUTO 22013G22KT 10SM FEW200 31/04 A2973 RMK AO2 SLP054 T03070036 57022,KLUF,2023-04-25T20:55:00Z,33.53,-112.37,30.7,3.6,220,13,22,10.0,29.731298,1005.4,,TRUE,TRUE,,,,,,,FEW,20000,,,,,,,VFR,-2.2,,,,,,,,,,,METAR,333.0
KLTS 252055Z AUTO 06015KT 10SM BKN045 OVC055 19/13 A2981 RMK AO2 SLP088 T01940129 50008,KLTS,2023-04-25T20:55:00Z,34.67,-99.27,19.4,12.9,60,15,,10.0,29.811024,1008.8,,TRUE,TRUE,,,,,,,BKN,4500,OVC,5500,,,,,VFR,0.8,,,,,,,,,,,METAR,416.0
KLSV 252055Z AUTO 02018KT 10SM CLR 27/M12 A2987 RMK AO2 SLP096 T02691119 57013 $,KLSV,2023-04-25T20:55:00Z,36.23,-115.05,26.9,-11.9,20,18,,10.0,29.870079,1009.6,,TRUE,TRUE,TRUE,,,,,,CLR,,,,,,,,VFR,-1.3,,,,,,,,,,,METAR,563.0
KLSF 252055Z 29005KT 10SM FEW055 SCT200 24/11 A2996 RMK AO2A SLP150 T02440113 57017 $,KLSF,2023-04-25T20:55:00Z,32.32,-84.97,24.4,11.3,290,5,,10.0,29.958662,1015.0,,,TRUE,TRUE,,,,,,FEW,5500,SCT,20000,,,,,VFR,-1.7,,,,,,,,,,,METAR,68.0
KLRF 252055Z AUTO 11004KT 10SM FEW050 BKN140 BKN200 18/07 A3004 RMK AO2 SLP175 T01820070 57016 PWINO $,KLRF,2023-04-25T20:55:00Z,34.92,-92.12,18.2,7.0,110,4,,10.0,30.041338,1017.5,,TRUE,TRUE,TRUE,,,,TRUE,,FEW,5000,BKN,14000,BKN,20000,,,VFR,-1.6,,,,,,,,,,,SPECI,85.0
KLOR 252055Z AUTO 04003KT 10SM BKN060 BKN090 26/14 A2995 RMK AO2 LTG DSNT S SLP124 T02560138 57018,KLOR,2023-04-25T20:55:00Z,31.35,-85.75,25.6,13.8,40,3,,10.0,29.949802,1012.4,,TRUE,TRUE,,,,,,,BKN,6000,BKN,9000,,,,,VFR,-1.8,,,,,,,,,,,METAR,92.0
KLLJ 252055Z AUTO 03003KT 10SM OVC055 12/M02 A3009 RMK AO2 SLP172 T01221022 56007,KLLJ,2023-04-25T20:55:00Z,44.52,-114.22,12.2,-2.2,30,3,,10.0,30.088583,1017.2,,TRUE,TRUE,,,,,,,OVC,5500,,,,,,,VFR,-0.7,,,,,,,,,,,METAR,1535.0
KLIC 252055Z AUTO 13014G20KT 10SM OVC007 08/04 A2988 RMK AO2 CIG 004V011 SLP097 T00780044 55000,KLIC,2023-04-25T20:55:00Z,39.27,-103.67,7.8,4.4,130,14,20,10.0,29.878937,1009.7,,TRUE,TRUE,,,,,,,OVC,700,,,,,,,IFR,0.0,,,,,,,,,,,METAR,1635.0
KLHW 252055Z 04008KT 6SM -RA SCT030 BKN040 18/16 A2999 RMK AO2A RAB34 SLP158 P0000 60001 T01840160 57005 $,KLHW,2023-04-25T20:55:00Z,31.88,-81.57,18.4,16.0,40,8,,6.0,29.991142,1015.8,,,TRUE,TRUE,,,,,-RA,SCT,3000,BKN,4000,,,,,VFR,-0.5,,,,,0.005,0.01,,,,,METAR,14.0
KLGF 252055Z AUTO 36004KT M M CLR 31/05 A2975 RMK AO2 SLP072 T03060051 57014 RVRNO PWINO TSNO $,KLGF,2023-04-25T20:55:00Z,32.87,-114.4,30.6,5.1,360,4,,,29.749016,1007.2,,TRUE,TRUE,TRUE,,TRUE,,TRUE,,CLR,,,,,,,,,-1.4,,,,,,,,,,,METAR,118.0
KLFI 252055Z COR 08008KT 10SM BKN170 SCT200 14/03 A3018 RMK AO2A SLP226 T01430034 55006 $ COR 2056,KLFI,2023-04-25T20:55:00Z,37.08,-76.33,14.3,3.4,80,8,,10.0,30.180119,1022.6,TRUE,,TRUE,TRUE,,,,,,BKN,17000,SCT,20000,,,,,VFR,-0.6,,,,,,,,,,,SPECI,2.0
KLCK 252055Z AUTO 21005KT 10SM SCT110 15/M02 A3013 RMK AO2 T01451025,KLCK,2023-04-25T20:55:00Z,39.82,-82.92,14.5,-2.5,210,5,,10.0,30.129921,,,TRUE,TRUE,,,,,,,SCT,11000,,,,,,,VFR,,,,,,,,,,,,SPECI,225.0
KIRK 252055Z AUTO 04007KT 10SM FEW055 BKN080 18/06 A3009 RMK AO2 SLP193 T01780061 57008,KIRK,2023-04-25T20:55:00Z,40.1,-92.55,17.8,6.1,40,7,,10.0,30.088583,1019.3,,TRUE,TRUE,,,,,,,FEW,5500,BKN,8000,,,,,VFR,-0.8,,,,,,,,,,,METAR,292.0
KINS 252055Z AUTO 01011KT 10SM CLR 23/M13 A2996 RMK AO2 SLP109 T02291131 58013 $,KINS,2023-04-25T20:55:00Z,36.58,-115.68,22.9,-13.1,10,11,,10.0,29.958662,1010.9,,TRUE,TRUE,TRUE,,,,,,CLR,,,,,,,,VFR,-1.3,,,,,,,,,,,SPECI,954.0
KHUA 252055Z AUTO 17003KT 10SM BKN150 BKN170 20/M01 A3005 RMK AO2 SLP176 T01981008 57013,KHUA,2023-04-25T20:55:00Z,34.68,-86.68,19.8,-0.8,170,3,,10.0,30.050198,1017.6,,TRUE,TRUE,,,,,,,BKN,15000,BKN,17000,,,,,VFR,-1.3,,,,,,,,,,,METAR,200.0
KHST 252055Z AUTO 17006KT 10SM FEW036 29/20 A2988 RMK AO2 SLP122 T02900199 57016,KHST,2023-04-25T20:55:00Z,25.48,-80.37,29.0,19.9,170,6,,10.0,29.878937,1012.2,,TRUE,TRUE,,,,,,,FEW,3600,,,,,,,VFR,-1.6,,,,,,,,,,,METAR,1.0
KHRT 252055Z 19007KT 10SM SCT090 24/17 A2994 RMK AO2A SLP140 T02370169 57016 $,KHRT,2023-04-25T20:55:00Z,30.42,-86.68,23.7,16.9,190,7,,10.0,29.940945,1014.0,,,TRUE,TRUE,,,,,,SCT,9000,,,,,,,VFR,-1.6,,,,,,,,,,,SPECI,10.0
KHOP 252055Z AUTO 06004KT 10SM CLR 18/01 A3009 RMK AO2 SLP192 T01840014 57014,KHOP,2023-04-25T20:55:00Z,36.67,-87.5,18.4,1.4,60,4,,10.0,30.088583,1019.2,,TRUE,TRUE,,,,,,,CLR,,,,,,,,VFR,-1.4,,,,,,,,,,,METAR,170.0
KHON 252055Z AUTO 09008KT 10SM CLR 12/M04 A3017 RMK AO2 SLP224 T01221044 58004,KHON,2023-04-25T20:55:00Z,44.38,-98.23,12.2,-4.4,90,8,,10.0,30.171259,1022.4,,TRUE,TRUE,,,,,,,CLR,,,,,,,,VFR,-0.4,,,,,,,,,,,METAR,391.0
KHMN 252055Z AUTO 20014G24KT 10SM FEW120 27/M06 A2981 RMK AO2 SLP034 T02711059 57029 $,KHMN,2023-04-25T20:55:00Z,32.85,-106.1,27.1,-5.9,200,14,24,10.0,29.811024,1003.4,,TRUE,TRUE,TRUE,,,,,,FEW,12000,,,,,,,VFR,-2.9,,,,,,,,,,,METAR,1240.0
KHLR 252055Z AUTO 13006KT 7SM OVC017 20/16 A2989 RMK AO2 LTG DSNT NE SLP116 T02010157 57016,KHLR,2023-04-25T20:55:00Z,31.13,-97.72,20.1,15.7,130,6,,7.0,29.890747,1011.6,,TRUE,TRUE,,,,,,,OVC,1700,,,,,,,MVFR,-1.6,,,,,,,,,,,METAR,271.0
KHKS 252055Z AUTO 09006KT 10SM SKC 23/08 A2999,KHKS,2023-04-25T20:55:00Z,32.33,-90.22,23.0,8.0,90,6,,10.0,29.991142,,,TRUE,,,,,,,,SKC,,,,,,,,VFR,,,,,,,,,,,,METAR,103.0
KHFF 252055Z AUTO 17005KT 10SM FEW065 BKN110 19/06 A3010 RMK AO2 SLP195 T01890064 56001 $,KHFF,2023-04-25T20:55:00Z,35.03,-79.5,18.9,6.4,170,5,,10.0,30.100393,1019.5,,TRUE,TRUE,TRUE,,,,,,FEW,6500,BKN,11000,,,,,VFR,-0.1,,,,,,,,,,,METAR,100.0
KHEY 252055Z AUTO 00000KT 10SM FEW080 26/13 A2993 RMK AO2 LTG DSNT S SLP135 T02580133 57018,KHEY,2023-04-25T20:55:00Z,31.35,-85.65,25.8,13.3,0,0,,10.0,29.929134,1013.5,,TRUE,TRUE,,,,,,,FEW,8000,,,,,,,VFR,-1.8,,,,,,,,,,,METAR,95.0
KGXF 252055Z AUTO 22013G20KT 9SM CLR 32/01 A2975 RMK AO2 SLP063 T03210012 57017 FZRANO $,KGXF,2023-04-25T20:55:00Z,32.88,-112.72,32.1,1.2,220,13,20,9.0,29.749016,1006.3,,TRUE,TRUE,TRUE,,,TRUE,,,CLR,,,,,,,,VFR,-1.7,,,,,,,,,,,METAR,261.0
KGXA 252055Z AUTO 10007KT 10SM FEW160 26/M06 A2990 RMK AO2 SLP098 WND DATA ESTMD T02551061 57011,KGXA,2023-04-25T20:55:00Z,34.57,-117.67,25.5,-6.1,100,7,,10.0,29.899607,1009.8,,TRUE,TRUE,,,,,,,FEW,16000,,,,,,,VFR,-1.1,,,,,,,,,,,METAR,927.0
KGUS 252055Z AUTO 25011KT 10SM BKN050 BKN085 14/02 A3007 RMK AO2 SLP189 T01390015 57006 TSNO $,KGUS,2023-04-25T20:55:00Z,40.63,-86.15,13.9,1.5,250,11,,10.0,30.070866,1018.9,,TRUE,TRUE,TRUE,,TRUE,,,,BKN,5000,BKN,8500,,,,,VFR,-0.6,,,,,,,,,,,METAR,245.0
KGSB 252055Z 03006KT 10SM BKN070 BKN250 21/05 A3009 RMK AO2A SLP193 WND DATA ESTMD T02100045 55008 $,KGSB,2023-04-25T20:55:00Z,35.33,-77.93,21.0,4.5,30,6,,10.0,30.088583,1019.3,,,TRUE,TRUE,,,,,,BKN,7000,BKN,25000,,,,,VFR,-0.8,,,,,,,,,,,METAR,33.0
KGRK 252055Z AUTO 13007KT 7SM OVC013 19/16 A2988 RMK AO2 SLP113 T01910156 57015,KGRK,2023-04-25T20:55:00Z,31.07,-97.83,19.1,15.6,130,7,,7.0,29.878937,1011.3,,TRUE,TRUE,,,,,,,OVC,1300,,,,,,,MVFR,-1.5,,,,,,,,,,,METAR,311.0
KGRF 252055Z 00000KT 10SM SCT035 13/05 A3023 RMK AO2A SLP242 T01340045 57006 $,KGRF,2023-04-25T20:55:00Z,47.07,-122.57,13.4,4.5,0,0,,10.0,30.230314,1024.2,,,TRUE,TRUE,,,,,,SCT,3500,,,,,,,VFR,-0.6,,,,,,,,,,,METAR,91.0
KGPI 252055Z 15011KT 10SM SCT080 13/02 A3006 RMK AO2 SLP190 T01330017 56012,KGPI,2023-04-25T20:55:00Z,48.32,-114.25,13.3,1.7,150,11,,10.0,30.059055,1019.0,,,TRUE,,,,,,,SCT,8000,,,,,,,VFR,-1.2,,,,,,,,,,,METAR,903.0
KGPH 252055Z AUTO 10007KT 10SM BKN070 18/01 A3007 RMK AO2,KGPH,2023-04-25T20:55:00Z,39.33,-94.32,18.0,1.0,100,7,,10.0,30.070866,,,TRUE,TRUE,,,,,,,BKN,7000,,,,,,,VFR,,,,,,,,,,,,METAR,233.0
KGOV 252055Z AUTO 33010KT 9SM BKN037 OVC046 07/M02 A3014 RMK AO2 SLP224 T00711024 55000 $,KGOV,2023-04-25T20:55:00Z,44.68,-84.73,7.1,-2.4,330,10,,9.0,30.138779,1022.4,,TRUE,TRUE,TRUE,,,,,,BKN,3700,OVC,4600,,,,,VFR,0.0,,,,,,,,,,,METAR,350.0
KGFA 252055Z AUTO 25017KT 10SM FEW240 18/04 A2997 RMK AO2 SLP156 T01840042 57011 $,KGFA,2023-04-25T20:55:00Z,47.5,-111.18,18.4,4.2,250,17,,10.0,29.970472,1015.6,,TRUE,TRUE,TRUE,,,,,,FEW,24000,,,,,,,VFR,-1.1,,,,,,,,,,,METAR,1058.0
KFTK 252055Z AUTO 26006KT 10SM CLR 18/M00 A3009 RMK AO2 SLP193 T01841004 57014,KFTK,2023-04-25T20:55:00Z,37.9,-85.97,18.4,-0.4,260,6,,10.0,30.088583,1019.3,,TRUE,TRUE,,,,,,,CLR,,,,,,,,VFR,-1.4,,,,,,,,,,,METAR,225.0
KFSI 252055Z AUTO 05009KT 10SM OVC021 16/11 A2986 RMK AO2 SLP108 T01590113 55014 FZRANO $,KFSI,2023-04-25T20:55:00Z,34.65,-98.4,15.9,11.3,50,9,,10.0,29.861221,1010.8,,TRUE,TRUE,TRUE,,,TRUE,,,OVC,2100,,,,,,,MVFR,-1.4,,,,,,,,,,,METAR,360.0
KFRI 252055Z AUTO 10007KT 10SM FEW050 BKN075 18/05 A3003 RMK AO2 SLP167 T01820054 57009 $,KFRI,2023-04-25T20:55:00Z,39.05,-96.77,18.2,5.4,100,7,,10.0,30.029528,1016.7,,TRUE,TRUE,TRUE,,,,,,FEW,5000,BKN,7500,,,,,VFR,-0.9,,,,,,,,,,,METAR,232.0
KFHU 252055Z AUTO 26012G23KT 10SM CLR 26/M08 A2993 RMK AO2 SLP077 T02581082 57013,KFHU,2023-04-25T20:55:00Z,31.58,-110.35,25.8,-8.2,260,12,23,10.0,29.929134,1007.7,,TRUE,TRUE,,,,,,,CLR,,,,,,,,VFR,-1.3,,,,,,,,,,,METAR,1424.0
KFFO 252055Z 23007KT 10SM SCT070 OVC110 14/M02 A3009 RMK AO2A SLP196 T01431018 57013,KFFO,2023-04-25T20:55:00Z,39.83,-84.03,14.3,-1.8,230,7,,10.0,30.088583,1019.6,,,TRUE,,,,,,,SCT,7000,OVC,11000,,,,,VFR,-1.3,,,,,,,,,,,METAR,250.0
KFBG 252055Z AUTO 08004KT 10SM SCT070 BKN110 19/05 A3009 RMK AO2 SLP192 T01940054 57009 $,KFBG,2023-04-25T20:55:00Z,35.12,-78.92,19.4,5.4,80,4,,10.0,30.088583,1019.2,,TRUE,TRUE,TRUE,,,,,,SCT,7000,BKN,11000,,,,,VFR,-0.9,,,,,,,,,,,METAR,69.0
KFAF 252055Z AUTO 09006KT 10SM FEW170 15/02 A3016 RMK AO2 SLP217 T01510023 57006 $,KFAF,2023-04-25T20:55:00Z,37.13,-76.62,15.1,2.3,90,6,,10.0,30.159449,1021.7,,TRUE,TRUE,TRUE,,,,,,FEW,17000,,,,,,,VFR,-0.6,,,,,,,,,,,SPECI,3.0
KEND 252055Z AUTO 10013KT 5SM -RA BR BKN004 OVC070 08/08 A2996 RMK AO2 SLP149 P0037 60125 T00840079 58004 $,KEND,2023-04-25T20:55:00Z,36.33,-97.92,8.4,7.9,100,13,,5.0,29.958662,1014.9,,TRUE,TRUE,TRUE,,,,,-RA BR,BKN,400,OVC,7000,,,,,LIFR,-0.4,,,,,0.37,1.25,,,,,METAR,392.0
KEGI 252055Z AUTO 29003KT 10SM BKN080 27/14 A2993 RMK AO2 SLP135 T02700137 57015 $,KEGI,2023-04-25T20:55:00Z,30.65,-86.52,27.0,13.7,290,3,,10.0,29.929134,1013.5,,TRUE,TRUE,TRUE,,,,,,BKN,8000,,,,,,,VFR,-1.5,,,,,,,,,,,METAR,59.0
KEDW 252055Z 02003KT 50SM FEW250 28/M03 A2987 RMK AO2A SLP094 T02761033 57014,KEDW,2023-04-25T20:55:00Z,34.9,-117.87,27.6,-3.3,20,3,,50.0,29.870079,1009.4,,,TRUE,,,,,,,FEW,25000,,,,,,,VFR,-1.4,,,,,,,,,,,METAR,698.0
KEDC 252055Z AUTO 09004KT 9SM BKN020 BKN026 BKN042 21/20 A2985 RMK AO2 P0001,KEDC,2023-04-25T20:55:00Z,30.4,-97.57,21.0,20.0,90,4,,9.0,29.84941,,,TRUE,TRUE,,,,,,,BKN,2000,BKN,2600,BKN,4200,,,MVFR,,,,,,0.01,,,,,,SPECI,184.0
KEAT 252055Z AUTO VRB05KT 10SM CLR 16/M01 A3011 RMK AO2 SLP197 T01611011 58014,KEAT,2023-04-25T20:55:00Z,47.4,-120.2,16.1,-1.1,0,5,,10.0,30.109253,1019.7,,TRUE,TRUE,,,,,,,CLR,,,,,,,,VFR,-1.4,,,,,,,,,,,METAR,375.0
KDYS 252055Z AUTO 15016G23KT 10SM BKN047 BKN055 24/12 A2977 RMK AO2 SLP049 T02420122 57024,KDYS,2023-04-25T20:55:00Z,32.42,-99.83,24.2,12.2,150,16,23,10.0,29.769686,1004.9,,TRUE,TRUE,,,,,,,BKN,4700,BKN,5500,,,,,VFR,-2.4,,,,,,,,,,,METAR,544.0
KDOV 252055Z AUTO 31003KT 10SM CLR 15/M04 A3017 RMK AO2 SLP220 T01531036 58001,KDOV,2023-04-25T20:55:00Z,39.12,-75.47,15.3,-3.6,310,3,,10.0,30.171259,1022.0,,TRUE,TRUE,,,,,,,CLR,,,,,,,,VFR,-0.1,,,,,,,,,,,METAR,6.0
KDMA 252055Z 23012G19KT 10SM CLR 30/M07 A2980 RMK AO2A SLP053 T02971066 57017 RVRNO $,KDMA,2023-04-25T20:55:00Z,32.17,-110.88,29.7,-6.6,230,12,19,10.0,29.799213,1005.3,,,TRUE,TRUE,,,,,,CLR,,,,,,,,VFR,-1.7,,,,,,,,,,,METAR,804.0
KDLH 252055Z 11009KT 10SM OVC049 03/M04 A3027 RMK AO2 SLP272 T00331044 53000,KDLH,2023-04-25T20:55:00Z,46.85,-92.2,3.3,-4.4,110,9,,10.0,30.268702,1027.2,,,TRUE,,,,,,,OVC,4900,,,,,,,VFR,0.0,,,,,,,,,,,METAR,434.0
KDLF 252055Z AUTO 12010KT 10SM FEW040 25/16 A2977 RMK AO2 SLP072 T02530161 57024 $,KDLF,2023-04-25T20:55:00Z,29.37,-100.78,25.3,16.1,120,10,,10.0,29.769686,1007.2,,TRUE,TRUE,TRUE,,,,,,FEW,4000,,,,,,,VFR,-2.4,,,,,,,,,,,METAR,328.0
KDAA 252055Z AUTO 17005KT 10SM SCT070 15/M00 A3016 RMK AO2 SLP216 T01531005 56006,KDAA,2023-04-25T20:55:00Z,38.72,-77.17,15.3,-0.5,170,5,,10.0,30.159449,1021.6,,TRUE,TRUE,,,,,,,SCT,7000,,,,,,,VFR,-0.6,,,,,,,,,,,METAR,17.0
KCWN 252055Z AUTO 19006KT 9SM VCTS RA OVC017 05/02 A2990 RMK AO2 RAB1958 SLP016 P0010 60010 T00470021 53014 $,KCWN,2023-04-25T20:55:00Z,38.75,-104.85,4.7,2.1,190,6,,9.0,29.899607,1001.6,,TRUE,TRUE,TRUE,,,,,VCTS RA,OVC,1700,,,,,,,MVFR,1.4,,,,,0.1,0.1,,,,,METAR,2040.0
KCVS 252055Z 26012G18KT 10SM FEW110 24/M04 A2978 RMK AO2A PK WND 26037/33 SLP042 VIRGA W-SW T02351038 57020 $,KCVS,2023-04-25T20:55:00Z,34.37,-103.32,23.5,-3.8,260,12,18,10.0,29.778543,1004.2,,,TRUE,TRUE,,,,,,FEW,11000,,,,,,,VFR,-2.0,,,,,,,,,,,SPECI,1305.0
KCNW 252055Z 14007KT 10SM BKN033 23/16 A2989,KCNW,2023-04-25T20:55:00Z,31.63,-97.07,23.0,16.0,140,7,,10.0,29.890747,,,,,,,,,,,BKN,3300,,,,,,,VFR,,,,,,,,,,,,METAR,139.0
KCNK 252055Z AUTO 13009KT 10SM OVC050 16/06 A3004 RMK AO2 SLP171 T01560056 56003,KCNK,2023-04-25T20:55:00Z,39.55,-97.65,15.6,5.6,130,9,,10.0,30.041338,1017.1,,TRUE,TRUE,,,,,,,OVC,5000,,,,,,,VFR,-0.3,,,,,,,,,,,METAR,445.0
KCMY 252055Z AUTO 00000KT 10SM OVC070 10/M04 A3019 RMK AO2 SLP235 T00961040 55002 FZRANO $,KCMY,2023-04-25T20:55:00Z,43.97,-90.73,9.6,-4.0,0,0,,10.0,30.188976,1023.5,,TRUE,TRUE,TRUE,,,TRUE,,,OVC,7000,,,,,,,VFR,-0.2,,,,,,,,,,,METAR,253.0
KCMA 252055Z 22006KT 7SM BKN021 18/12 A2991 RMK AO2 SLP135 T01830122 58010,KCMA,2023-04-25T20:55:00Z,34.22,-119.1,18.3,12.2,220,6,,7.0,29.911417,1013.5,,,TRUE,,,,,,,BKN,2100,,,,,,,MVFR,-1.0,,,,,,,,,,,METAR,20.0
KCEF 252055Z 26009KT 10SM SCT070 BKN095 15/M02 A3010 RMK AO2A SLP200 T01501016 56001,KCEF,2023-04-25T20:55:00Z,42.2,-72.52,15.0,-1.6,260,9,,10.0,30.100393,1020.0,,,TRUE,,,,,,,SCT,7000,BKN,9500,,,,,VFR,-0.1,,,,,,,,,,,METAR,72.0
KCBM 252055Z AUTO 34008KT 10SM SCT090 19/04 A3001 RMK AO2 SLP165 T01890035 57018 $,KCBM,2023-04-25T20:55:00Z,33.65,-88.45,18.9,3.5,340,8,,10.0,30.008858,1016.5,,TRUE,TRUE,TRUE,,,,,,SCT,9000,,,,,,,VFR,-1.8,,,,,,,,,,,METAR,59.0
KBYS 252055Z AUTO 36012G18KT 10SM FEW280 26/M11 A2987 RMK AO2 SLP093 T02631106 57007 $,KBYS,2023-04-25T20:55:00Z,35.28,-116.63,26.3,-10.6,360,12,18,10.0,29.870079,1009.3,,TRUE,TRUE,TRUE,,,,,,FEW,28000,,,,,,,VFR,-0.7,,,,,,,,,,,METAR,717.0
KBWD 252055Z AUTO 16012G16KT 10SM SCT025 BKN033 OVC049 22/15 A2985 RMK AO1,KBWD,2023-04-25T20:55:00Z,31.8,-98.95,22.0,15.0,160,12,16,10.0,29.84941,,,TRUE,TRUE,,,,,,,SCT,2500,BKN,3300,OVC,4900,,,VFR,,,,,,,,,,,,SPECI,420.0
KBLV 252055Z COR 27006KT 10SM FEW075 BKN095 19/03 A3006 RMK AO2 SLP182 T01900032 57011 $ COR 2117,KBLV,2023-04-25T20:55:00Z,38.53,-89.83,19.0,3.2,270,6,,10.0,30.059055,1018.2,TRUE,,TRUE,TRUE,,,,,,FEW,7500,BKN,9500,,,,,VFR,-1.1,,,,,,,,,,,METAR,134.0
KBIX 252055Z AUTO 17009KT 10SM CLR 24/17 A2994 RMK AO2 SLP142 T02370167 57017,KBIX,2023-04-25T20:55:00Z,30.42,-88.92,23.7,16.7,170,9,,10.0,29.940945,1014.2,,TRUE,TRUE,,,,,,,CLR,,,,,,,,VFR,-1.7,,,,,,,,,,,METAR,4.0
KBAD 252055Z AUTO 12008KT 10SM BKN065 22/11 A2996 RMK AO2 SLP149 T02230111 57023,KBAD,2023-04-25T20:55:00Z,32.5,-93.67,22.3,11.1,120,8,,10.0,29.958662,1014.9,,TRUE,TRUE,,,,,,,BKN,6500,,,,,,,VFR,-2.3,,,,,,,,,,,METAR,49.0
KBAB 252055Z AUTO 34013KT 10SM FEW180 28/04 A2987 RMK AO2 SLP117 T02780041 57014 $,KBAB,2023-04-25T20:55:00Z,39.13,-121.43,27.8,4.1,340,13,,10.0,29.870079,1011.7,,TRUE,TRUE,TRUE,,,,,,FEW,18000,,,,,,,VFR,-1.4,,,,,,,,,,,METAR,31.0
KAST 252055Z AUTO 33010KT 10SM CLR 13/06 A3026 RMK AO2 SLP246 T01280061 56009,KAST,2023-04-25T20:55:00Z,46.15,-123.88,12.8,6.1,330,10,,10.0,30.259842,1024.6,,TRUE,TRUE,,,,,,,CLR,,,,,,,,VFR,-0.9,,,,,,,,,,,METAR,3.0
KANJ 252055Z AUTO 31011G18KT 10SM CLR 04/M01 A3016 RMK AO2 SLP219 T00441011 53005,KANJ,2023-04-25T20:55:00Z,46.47,-84.37,4.4,-1.1,310,11,18,10.0,30.159449,1021.9,,TRUE,TRUE,,,,,,,CLR,,,,,,,,VFR,0.5,,,,,,,,,,,METAR,220.0
KADW 252055Z AUTO 27004KT 10SM FEW070 SCT200 14/M02 A3016 RMK AO2 SLP221 T01441017 55006,KADW,2023-04-25T20:55:00Z,38.82,-76.87,14.4,-1.7,270,4,,10.0,30.159449,1022.1,,TRUE,TRUE,,,,,,,FEW,7000,SCT,20000,,,,,VFR,-0.6,,,,,,,,,,,METAR,87.0
KAAT 252055Z AUTO 6SM HZ CLR 17/M04 A3012 RMK AO2 SLP185 T01721039 58013,KAAT,2023-04-25T20:55:00Z,41.48,-120.57,17.2,-3.9,,,,6.0,30.121063,1018.5,,TRUE,TRUE,,,,,,HZ,CLR,,,,,,,,VFR,-1.3,,,,,,,,,,,METAR,1336.0
K9S9 252055Z AUTO 00000KT 10SM CLR 17/00 A3017 RMK AO2 PWINO,K9S9,2023-04-25T20:55:00Z,45.45,-119.68,17.0,0.0,0,0,,10.0,30.171259,,,TRUE,TRUE,,,,,TRUE,,CLR,,,,,,,,VFR,,,,,,,,,,,,METAR,498.0
K9L2 252055Z AUTO 03006KT M M M M M RMK AO2 SLPNO RVRNO $,K9L2,2023-04-25T20:55:00Z,34.98,-117.87,,,30,6,,,,,,TRUE,TRUE,TRUE,,,,,,,,,,,,,,,,,,,,,,,,,,METAR,697.0
K4MR 252055Z 19017G22KT 10SM FEW120 23/M02 A2974 RMK AO2A RAB08E20 SLP007 P0000 60000 T02331016 $,K4MR,2023-04-25T20:55:00Z,34.3,-103.8,23.3,-1.6,190,17,22,10.0,29.740158,1000.7,,,TRUE,TRUE,,,,,,FEW,12000,,,,,,,VFR,,,,,,0.005,0.005,,,,,METAR,1339.0
K2DP 252055Z AUTO 05009KT 10SM CLR 18/07 A3014 RMK AO2 SLPNO T01760065 57005 $,K2DP,2023-04-25T20:55:00Z,35.68,-75.9,17.6,6.5,50,9,,10.0,30.138779,,,TRUE,TRUE,TRUE,,,,,,CLR,,,,,,,,VFR,-0.5,,,,,,,,,,,METAR,1.0
K1YT 252055Z AUTO 25005KT 10SM CLR 17/M01 A3009 RMK AO2 SLP195 T01691008 57017 $,K1YT,2023-04-25T20:55:00Z,46.67,-120.45,16.9,-0.8,250,5,,10.0,30.088583,1019.5,,TRUE,TRUE,TRUE,,,,,,CLR,,,,,,,,VFR,-1.7,,,,,,,,,,,METAR,423.0
K1OW 252055Z AUTO 09018KT 1/4SM -RA FG VV003 06/05 A3002 RMK AO2 LTG DSNT S RAE34DZB39E43RAB43 SLP168 P0006 60030 T00550048 50003 RVRNO $,K1OW,2023-04-25T20:55:00Z,40.88,-104.0,5.5,4.8,90,18,,0.25,30.02067,1016.8,,TRUE,TRUE,TRUE,,,,,-RA FG,OVX,0,,,,,,,LIFR,0.3,,,,,0.06,0.3,,,,300,METAR,1650.0
K1ON 252055Z AUTO 18013G18KT 10SM CLR 10/M04 M RMK AO2 SLPNO T01041044 $,K1ON,2023-04-25T20:55:00Z,,,10.4,-4.4,180,13,18,10.0,,,,TRUE,TRUE,TRUE,,,,,,CLR,,,,,,,,VFR,,,,,,,,,,,,METAR,
K1OM 252055Z AUTO 15008KT 10SM SCT060 BKN080 16/05 A2993 RMK AO2 SLP143 T01610045 57009 $,K1OM,2023-04-25T20:55:00Z,47.33,-108.93,16.1,4.5,150,8,,10.0,29.929134,1014.3,,TRUE,TRUE,TRUE,,,,,,SCT,6000,BKN,8000,,,,,VFR,-0.9,,,,,,,,,,,METAR,1088.0
K1NW 252055Z AUTO 13017G24KT 10SM BKN023 OVC030 09/05 A2988 RMK AO2 LTG DSNT SW RAE1958DZB1958E05 BKN V OVC SLP108 P0000 60000 T00910045 55000 $,K1NW,2023-04-25T20:55:00Z,40.63,-103.83,9.1,4.5,130,17,24,10.0,29.878937,1010.8,,TRUE,TRUE,TRUE,,,,,,BKN,2300,OVC,3000,,,,,MVFR,0.0,,,,,0.005,0.005,,,,,METAR,1461.0
K1MW 252055Z AUTO 12022G26KT 10SM BKN018 BKN026 OVC039 10/05 A2990 RMK AO2 PK WND 12029/08 LTG DSNT SW RAB24E33DZB33E37RAB37E46DZB46E49 SLP120 P0000 60000 T00990051 53001 $,K1MW,2023-04-25T20:55:00Z,40.7,-103.48,9.9,5.1,120,22,26,10.0,29.899607,1012.0,,TRUE,TRUE,TRUE,,,,,,BKN,1800,BKN,2600,OVC,3900,,,MVFR,0.1,,,,,0.005,0.005,,,,,METAR,1338.0
K1MM 252055Z AUTO 10005KT 10SM FEW055 FEW070 14/03 A2996 RMK AO2 SLP158 T01400029 57005 $,K1MM,2023-04-25T20:55:00Z,47.02,-109.63,14.0,2.9,100,5,,10.0,29.958662,1015.8,,TRUE,TRUE,TRUE,,,,,,FEW,5500,FEW,7000,,,,,VFR,-0.5,,,,,,,,,,,METAR,1256.0
K1LN 252055Z AUTO 19014KT 10SM CLR 10/M02 A3013 RMK AO2 SLP222 T01011016 57013 $,K1LN,2023-04-25T20:55:00Z,,,10.1,-1.6,190,14,,10.0,30.129921,1022.2,,TRUE,TRUE,TRUE,,,,,,CLR,,,,,,,,VFR,-1.3,,,,,,,,,,,METAR,
K1KM 252055Z AUTO 16005KT 10SM OVC090 15/M01 A2997 RMK AO2 SLP155 60000 T01451008 58002 $,K1KM,2023-04-25T20:55:00Z,46.45,-109.8,14.5,-0.8,160,5,,10.0,29.970472,1015.5,,TRUE,TRUE,TRUE,,,,,,OVC,9000,,,,,,,VFR,-0.2,,,,,,0.005,,,,,METAR,1332.0
K1JW 252055Z AUTO 12013KT 10SM -RA OVC019 08/05 M RMK AO2 RAE09RAB11E29DZB29E32RAB32 SLPNO P0002 60004 T00760049 $,K1JW,2023-04-25T20:55:00Z,40.97,-103.2,7.6,4.9,120,13,,10.0,,,,TRUE,TRUE,TRUE,,,,,-RA,OVC,1900,,,,,,,MVFR,,,,,,0.02,0.04,,,,,METAR,1382.0
K1JN 252055Z AUTO 16012KT 10SM CLR 10/M06 A3012 RMK AO2 SLP225 T01031057 57011 $,K1JN,2023-04-25T20:55:00Z,,,10.3,-5.7,160,12,,10.0,30.121063,1022.5,,TRUE,TRUE,TRUE,,,,,,CLR,,,,,,,,VFR,-1.1,,,,,,,,,,,METAR,
K1JM 252055Z AUTO 22019G26KT 10SM CLR 16/M02 A2993 RMK AO2 PK WND 21026/51 SLP148 T01571023 57015 $,K1JM,2023-04-25T20:55:00Z,47.75,-111.55,15.7,-2.3,220,19,26,10.0,29.929134,1014.8,,TRUE,TRUE,TRUE,,,,,,CLR,,,,,,,,VFR,-1.5,,,,,,,,,,,METAR,1154.0
K1IW 252055Z AUTO 13021KT 10SM OVC027 11/04 A2992 RMK AO2 SLP126 T01050035 51005 $,K1IW,2023-04-25T20:55:00Z,41.05,-102.87,10.5,3.5,130,21,,10.0,29.920275,1012.6,,TRUE,TRUE,TRUE,,,,,,OVC,2700,,,,,,,MVFR,0.5,,,,,,,,,,,METAR,1294.0
K1IN 252055Z AUTO 17012KT 10SM CLR 11/M06 A3011 RMK AO2 SLP220 T01061058 57011 $,K1IN,2023-04-25T20:55:00Z,,,10.6,-5.8,170,12,,10.0,30.109253,1022.0,,TRUE,TRUE,TRUE,,,,,,CLR,,,,,,,,VFR,-1.1,,,,,,,,,,,METAR,
K1IM 252055Z AUTO 23014KT 10SM CLR 16/03 A2995 RMK AO2 SLP154 T01560034 57010 $,K1IM,2023-04-25T20:55:00Z,47.32,-111.47,15.6,3.4,230,14,,10.0,29.949802,1015.4,,TRUE,TRUE,TRUE,,,,,,CLR,,,,,,,,VFR,-1.0,,,,,,,,,,,METAR,1110.0
K1HW 252055Z AUTO 15019KT 10SM OVC030 11/04 A2992 RMK AO2 SLP131 T01110041 50006 $,K1HW,2023-04-25T20:55:00Z,41.32,-102.83,11.1,4.1,150,19,,10.0,29.920275,1013.1,,TRUE,TRUE,TRUE,,,,,,OVC,3000,,,,,,,MVFR,0.6,,,,,,,,,,,METAR,1265.0
K1HN 252055Z AUTO 02012G17KT 10SM CLR 12/M08 A3011 RMK AO2 SLP217 T01221083 57012 $,K1HN,2023-04-25T20:55:00Z,,,12.2,-8.3,20,12,17,10.0,30.109253,1021.7,,TRUE,TRUE,TRUE,,,,,,CLR,,,,,,,,VFR,-1.2,,,,,,,,,,,METAR,
K1HM 252055Z AUTO 27011KT 10SM CLR 16/M02 A2993 RMK AO2 SLP142 T01601025 57013 $,K1HM,2023-04-25T20:55:00Z,47.7,-111.95,16.0,-2.5,270,11,,10.0,29.929134,1014.2,,TRUE,TRUE,TRUE,,,,,,CLR,,,,,,,,VFR,-1.3,,,,,,,,,,,METAR,1181.0
K1GN 252055Z AUTO 17013G19KT 10SM CLR 11/M08 A3011 RMK AO2 SLP225 T01061081 57009 $,K1GN,2023-04-25T20:55:00Z,,,10.6,-8.1,170,13,19,10.0,30.109253,1022.5,,TRUE,TRUE,TRUE,,,,,,CLR,,,,,,,,VFR,-0.9,,,,,,,,,,,METAR,
K1GM 252055Z AUTO 20016G25KT 10SM CLR 14/00 M RMK AO2 SLPNO T01370000 $,K1GM,2023-04-25T20:55:00Z,47.33,-112.1,13.7,0.0,200,16,25,10.0,,,,TRUE,TRUE,TRUE,,,,,,CLR,,,,,,,,VFR,,,,,,,,,,,,METAR,1317.0
K1FW 252055Z AUTO 13013KT 10SM -RA OVC017 07/06 A2993 RMK AO2 RAE04DZB04E26DZB30E43RAB43 SLP134 P0001 60001 T00670060 52008 $,K1FW,2023-04-25T20:55:00Z,41.37,-103.48,6.7,6.0,130,13,,10.0,29.929134,1013.4,,TRUE,TRUE,TRUE,,,,,-RA,OVC,1700,,,,,,,MVFR,0.8,,,,,0.01,0.01,,,,,METAR,1451.0
K1EW 252055Z AUTO 30016KT 10SM -RA BKN007 OVC011 06/05 A2991 RMK AO2 LTG DSNT S RAE41RAB46 SLP131 P0003 60006 T00610049 53005 $,K1EW,2023-04-25T20:55:00Z,41.12,-103.98,6.1,4.9,300,16,,10.0,29.911417,1013.1,,TRUE,TRUE,TRUE,,,,,-RA,BKN,700,OVC,1100,,,,,IFR,0.5,,,,,0.03,0.06,,,,,METAR,1609.0
K1EN 252055Z AUTO 15012KT 10SM CLR 10/M07 A2991 RMK AO2 SLP156 T00981074 57009 $,K1EN,2023-04-25T20:55:00Z,,,9.8,-7.4,150,12,,10.0,29.911417,1015.6,,TRUE,TRUE,TRUE,,,,,,CLR,,,,,,,,VFR,-0.9,,,,,,,,,,,METAR,
K1EM 252055Z AUTO 26006KT 10SM BKN055 16/02 A2995 RMK AO2 SLP145 T01630023 57008 $,K1EM,2023-04-25T20:55:00Z,47.45,-109.42,16.3,2.3,260,6,,10.0,29.949802,1014.5,,TRUE,TRUE,TRUE,,,,,,BKN,5500,,,,,,,VFR,-0.8,,,,,,,,,,,METAR,1118.0
K1DM 252055Z AUTO 00000KT 10SM BKN060 16/01 A2996 RMK AO2 SLP157 T01580008 57010 $,K1DM,2023-04-25T20:55:00Z,47.37,-109.8,15.8,0.8,0,0,,10.0,29.958662,1015.7,,TRUE,TRUE,TRUE,,,,,,BKN,6000,,,,,,,VFR,-1.0,,,,,,,,,,,METAR,1093.0
K1CW 252055Z AUTO 15012KT 10SM -RA OVC016 07/05 A2996 RMK AO2 RAB05 OVC V BKN SLP144 P0002 60002 T00740052 52007 $,K1CW,2023-04-25T20:55:00Z,41.58,-103.57,7.4,5.2,150,12,,10.0,29.958662,1014.4,,TRUE,TRUE,TRUE,,,,,-RA,OVC,1600,,,,,,,MVFR,0.7,,,,,0.02,0.02,,,,,METAR,1370.0
K1CN 252055Z AUTO 16011KT 10SM CLR 11/M06 A3015 RMK AO2 SLP231 T01071058 57009 $,K1CN,2023-04-25T20:55:00Z,,,10.7,-5.8,160,11,,10.0,30.15059,1023.1,,TRUE,TRUE,TRUE,,,,,,CLR,,,,,,,,VFR,-0.9,,,,,,,,,,,METAR,
K1CM 252055Z AUTO 24015KT 10SM BKN060 OVC080 12/03 A2999 RMK AO2 SLP161 T01200032 53002 $,K1CM,2023-04-25T20:55:00Z,47.1,-110.17,12.0,3.2,240,15,,10.0,29.991142,1016.1,,TRUE,TRUE,TRUE,,,,,,BKN,6000,OVC,8000,,,,,VFR,0.2,,,,,,,,,,,METAR,1338.0
K1BW 252055Z AUTO 11011KT 10SM -DZ BKN007 OVC013 06/05 A2998 RMK AO2 RAE46DZB46 SLP156 P0009 60020 T00590045 52007 $,K1BW,2023-04-25T20:55:00Z,41.52,-104.0,5.9,4.5,110,11,,10.0,29.97933,1015.6,,TRUE,TRUE,TRUE,,,,,-DZ,BKN,700,OVC,1300,,,,,IFR,0.7,,,,,0.09,0.2,,,,,METAR,1606.0
K1BN 252055Z AUTO 17011G18KT 10SM CLR 10/M07 A3015 RMK AO2 SLP231 T01041069 57008 $,K1BN,2023-04-25T20:55:00Z,,,10.4,-6.9,170,11,18,10.0,30.15059,1023.1,,TRUE,TRUE,TRUE,,,,,,CLR,,,,,,,,VFR,-0.8,,,,,,,,,,,METAR,
K1BM 252055Z AUTO 29013G22KT 10SM SCT075 15/02 A2997 RMK AO2 SLP153 T01490021 55005 $,K1BM,2023-04-25T20:55:00Z,47.28,-110.37,14.9,2.1,290,13,22,10.0,29.970472,1015.3,,TRUE,TRUE,TRUE,,,,,,SCT,7500,,,,,,,VFR,-0.5,,,,,,,,,,,METAR,1234.0
K1AM 252055Z AUTO 29012KT 10SM FEW210 14/02 A2996 RMK AO2 SLP156 T01400016 57009 $,K1AM,2023-04-25T20:55:00Z,47.28,-110.8,14.0,1.6,290,12,,10.0,29.958662,1015.6,,TRUE,TRUE,TRUE,,,,,,FEW,21000,,,,,,,VFR,-0.9,,,,,,,,,,,METAR,1228.0
FJDG 252055Z 16008KT 9999 FEW018 SCT090 BKN230 27/25 A2977 RMK SLP078 8/192 T02730250 57017,FJDG,2023-04-25T20:55:00Z,-7.32,72.42,27.3,25.0,160,8,,6.21,29.769686,1007.8,,,,,,,,,,FEW,1800,SCT,9000,BKN,23000,,,VFR,-1.7,,,,,,,,,,,METAR,3.0
ETOU 252055Z 33003KT 9999 CLR 05/M01 A3004 RMK AO2A SLP178 T00461052 52017,ETOU,2023-04-25T20:55:00Z,50.03,8.32,4.6,-1.0,330,3,,6.21,30.041338,1017.8,,,TRUE,,,,,,,CLR,,,,,,,,VFR,1.7,,,,,,,,,,,SPECI,141.0
ETIK 252055Z AUTO 33005KT 9999 SCT044 BKN070 06/02 A3000 RMK AO2 SLP167 T00570016 52020 FZRANO,ETIK,2023-04-25T20:55:00Z,49.47,10.38,5.7,1.6,330,5,,6.21,30.0,1016.7,,TRUE,TRUE,,,,TRUE,,,SCT,4400,BKN,7000,,,,,VFR,2.0,,,,,,,,,,,METAR,326.0
ETIC 252055Z AUTO 30003KT 9999 OVC049 06/M00 A2994 RMK AO2 SLP150 T00621003 52017 $,ETIC,2023-04-25T20:55:00Z,49.7,11.93,6.2,-0.3,300,3,,6.21,29.940945,1015.0,,TRUE,TRUE,TRUE,,,,,,OVC,4900,,,,,,,VFR,1.7,,,,,,,,,,,METAR,414.0
ETEB 252055Z AUTO 30004KT 9999 BKN065 05/M00 A2998 RMK AO2 SLP175 T00541004 52017 $,ETEB,2023-04-25T20:55:00Z,49.32,10.63,5.4,-0.4,300,4,,6.21,29.97933,1017.5,,TRUE,TRUE,TRUE,,,,,,BKN,6500,,,,,,,VFR,1.7,,,,,,,,,,,METAR,466.0
ETAR 252055Z AUTO 00000KT 9999 OVC075 06/02 A3003 RMK AO2 SLP178 T00570016 52014,ETAR,2023-04-25T20:55:00Z,49.43,7.58,5.7,1.6,0,0,,6.21,30.029528,1017.8,,TRUE,TRUE,,,,,,,OVC,7500,,,,,,,VFR,1.4,,,,,,,,,,,SPECI,231.0
ETAD 252055Z 00000KT 9999 BKN070 05/M00 A3002 RMK AO2A SLP164 T00471001 52013,ETAD,2023-04-25T20:55:00Z,49.98,6.7,4.7,-0.1,0,0,,6.21,30.02067,1016.4,,,TRUE,,,,,,,BKN,7000,,,,,,,VFR,1.3,,,,,,,,,,,METAR,365.0
EHWO 252055Z AUTO 05001KT 9999 NCD 02/M00 Q1019 BLU,EHWO,2023-04-25T20:55:00Z,51.45,4.33,2.0,0.0,50,1,,6.21,30.088583,,,TRUE,,,,,,,,CLR,,,,,,,,VFR,,,,,,,,,,,,METAR,15.0
EHVK 252055Z AUTO 30003KT 270V350 9999 NCD 05/00 Q1018 BLU,EHVK,2023-04-25T20:55:00Z,51.65,5.7,5.0,0.0,300,3,,6.21,30.059055,,,TRUE,,,,,,,,CLR,,,,,,,,VFR,,,,,,,,,,,,METAR,20.0
EHSC 252055Z AUTO 34012KT 9999 ///////// 07/01 Q1020 W10/H13,EHSC,2023-04-25T20:55:00Z,51.93,3.67,7.0,1.0,340,12,,6.21,30.11811,,,TRUE,,,,,,,,,,,,,,,,,,,,,,,,,,,,METAR,19.0
EHSA 252055Z AUTO 34012KT 9999 ///////// 07/01 Q1019 W08/H14,EHSA,2023-04-25T20:55:00Z,52.0,3.28,7.0,1.0,340,12,,6.21,30.088583,,,TRUE,,,,,,,,,,,,,,,,,,,,,,,,,,,,METAR,18.0
EHRD 252055Z AUTO VRB02KT 9999 NSC 03/02 Q1019 NOSIG,EHRD,2023-04-25T20:55:00Z,51.95,4.45,3.0,2.0,0,2,,6.21,30.088583,,,TRUE,,,TRUE,,,,,CLR,,,,,,,,VFR,,,,,,,,,,,,METAR,-4.0
EHPG 252055Z AUTO 34012KT 270V080 9999 FEW027 SCT034 07/00 Q1019,EHPG,2023-04-25T20:55:00Z,52.37,3.35,7.0,0.0,340,12,,6.21,30.088583,,,TRUE,,,,,,,,FEW,2700,SCT,3400,,,,,VFR,,,,,,,,,,,,METAR,24.0
EHMG 252055Z AUTO 31019KT 9999 FEW029 SCT033 07/M00 Q1018,EHMG,2023-04-25T20:55:00Z,53.62,4.97,7.0,0.0,310,19,,6.21,30.059055,,,TRUE,,,,,,,,FEW,2900,SCT,3300,,,,,VFR,,,,,,,,,,,,METAR,30.0
EHMA 252055Z AUTO 31020KT 9999 FEW023 SCT030 06/00 Q1016,EHMA,2023-04-25T20:55:00Z,53.5,5.95,6.0,0.0,310,20,,6.21,30.0,,,TRUE,,,,,,,,FEW,2300,SCT,3000,,,,,VFR,,,,,,,,,,,,METAR,27.0
EHLW 252055Z AUTO 26005KT 230V310 9999 NCD 04/01 Q1017 BLU,EHLW,2023-04-25T20:55:00Z,53.22,5.75,4.0,1.0,260,5,,6.21,30.029528,,,TRUE,,,,,,,,CLR,,,,,,,,VFR,,,,,,,,,,,,METAR,1.0
EHLE 252055Z AUTO 30008KT 9999 FEW043 06/01 Q1018,EHLE,2023-04-25T20:55:00Z,52.45,5.52,6.0,1.0,300,8,,6.21,30.059055,,,TRUE,,,,,,,,FEW,4300,,,,,,,VFR,,,,,,,,,,,,METAR,-3.0
EHKV 252055Z AUTO 35019KT 9999 FEW023 SCT036 06/00 Q1019,EHKV,2023-04-25T20:55:00Z,53.27,3.63,6.0,0.0,350,19,,6.21,30.088583,,,TRUE,,,,,,,,FEW,2300,SCT,3600,,,,,VFR,,,,,,,,,,,,METAR,28.0
EHKD 252055Z AUTO 31010KT 260V340 9999 OVC062 06/02 Q1018 BLU,EHKD,2023-04-25T20:55:00Z,52.92,4.77,6.0,2.0,310,10,,6.21,30.059055,,,TRUE,,,,,,,,OVC,6200,,,,,,,VFR,,,,,,,,,,,,METAR,1.0
EHJR 252055Z AUTO 31013KT 280V340 //// // ///////// 06/02 Q1019 RE// W09/H25,EHJR,2023-04-25T20:55:00Z,53.22,3.22,6.0,2.0,310,13,,,30.088583,,,TRUE,,,,,,,,,,,,,,,,,,,,,,,,,,,,METAR,31.0
EHJA 252055Z AUTO 32019KT 9999 SCT024/// SCT033/// 06/M00 Q1018,EHJA,2023-04-25T20:55:00Z,53.82,2.95,6.0,0.0,320,19,,6.21,30.059055,,,TRUE,,,,,,,,SCT,2400,SCT,3300,,,,,VFR,,,,,,,,,,,,METAR,34.0
EHHW 252055Z AUTO 33015KT 280V350 9999 FEW026/// SCT029/// 06/01 Q1016,EHHW,2023-04-25T20:55:00Z,54.03,6.03,6.0,1.0,330,15,,6.21,30.0,,,TRUE,,,,,,,,FEW,2600,SCT,2900,,,,,VFR,,,,,,,,,,,,METAR,10.0
EHGR 252055Z AUTO 31003KT 250V330 9999 NCD 04/M00 Q1019 BLU,EHGR,2023-04-25T20:55:00Z,51.55,4.93,4.0,0.0,310,3,,6.21,30.088583,,,TRUE,,,,,,,,CLR,,,,,,,,VFR,,,,,,,,,,,,METAR,12.0
EHGG 252055Z AUTO 25006KT CAVOK 03/01 Q1017 NOSIG,EHGG,2023-04-25T20:55:00Z,53.12,6.57,3.0,1.0,250,6,,6.21,30.029528,,,TRUE,,,TRUE,,,,,CAVOK,,,,,,,,VFR,,,,,,,,,,,,METAR,2.0
EHFS 252055Z AUTO 33003KT 9999 FEW031/// 06/01 Q1019,EHFS,2023-04-25T20:55:00Z,51.45,3.6,6.0,1.0,330,3,,6.21,30.088583,,,TRUE,,,,,,,,FEW,3100,,,,,,,VFR,,,,,,,,,,,,METAR,1.0
EHFD 252055Z AUTO 30024KT 9999 FEW026/// 06/M00 Q1015,EHFD,2023-04-25T20:55:00Z,54.85,4.7,6.0,0.0,300,24,,6.21,29.970472,,,TRUE,,,,,,,,FEW,2600,,,,,,,VFR,,,,,,,,,,,,METAR,24.0
EHDV 252055Z AUTO 32018KT 9999 FEW020/// SCT029/// 06/// Q1018,EHDV,2023-04-25T20:55:00Z,54.32,2.93,,,320,18,,6.21,30.059055,,,TRUE,,,,,,,,FEW,2000,SCT,2900,,,,,VFR,,,,,,,,,,,,METAR,36.0
EHDL 252055Z AUTO 27003KT 9999 NCD 03/02 Q1018 BLU,EHDL,2023-04-25T20:55:00Z,52.07,5.88,3.0,2.0,270,3,,6.21,30.059055,,,TRUE,,,,,,,,CLR,,,,,,,,VFR,,,,,,,,,,,,METAR,49.0
EHBK 252055Z AUTO 33004KT CAVOK 05/00 Q1018 NOSIG,EHBK,2023-04-25T20:55:00Z,50.92,5.77,5.0,0.0,330,4,,6.21,30.059055,,,TRUE,,,TRUE,,,,,CAVOK,,,,,,,,VFR,,,,,,,,,,,,METAR,112.0
EHAM 252055Z 31003KT 270V020 9999 FEW028 05/02 Q1019 NOSIG,EHAM,2023-04-25T20:55:00Z,52.32,4.78,5.0,2.0,310,3,,6.21,30.088583,,,,,,TRUE,,,,,FEW,2800,,,,,,,VFR,,,,,,,,,,,,METAR,-2.0
EHAK 252055Z AUTO 33024KT 9999 FEW022/// SCT027/// 06/01 Q1016,EHAK,2023-04-25T20:55:00Z,55.38,3.82,6.0,1.0,330,24,,6.21,30.0,,,TRUE,,,,,,,,FEW,2200,SCT,2700,,,,,VFR,,,,,,,,,,,,METAR,33.0
EGVA 252055Z AUTO 02004KT 9999 BKN060 07/02 A3006 RMK AO2 SLP184 T00690018 53007 FZRANO $,EGVA,2023-04-25T20:55:00Z,51.67,-1.78,6.9,1.8,20,4,,6.21,30.059055,1018.4,,TRUE,TRUE,TRUE,,,TRUE,,,BKN,6000,,,,,,,VFR,0.7,,,,,,,,,,,METAR,84.0
EGUN 252055Z 08006KT 9999 FEW065 SCT250 05/03 A3011 RMK AO2A SLP200 T00510030 52012 $,EGUN,2023-04-25T20:55:00Z,52.37,0.48,5.1,3.0,80,6,,6.21,30.109253,1020.0,,,TRUE,TRUE,,,,,,FEW,6500,SCT,25000,,,,,VFR,1.2,,,,,,,,,,,METAR,10.0
EGUL 252055Z AUTO 08004KT 9999 CLR 05/02 A3011 RMK AO2 SLP200 T00500022 52013 $,EGUL,2023-04-25T20:55:00Z,52.42,0.57,5.0,2.2,80,4,,6.21,30.109253,1020.0,,TRUE,TRUE,TRUE,,,,,,CLR,,,,,,,,VFR,1.3,,,,,,,,,,,METAR,8.0
EBFS 252055Z 36003KT 9999 FEW060 04/M01 Q1018 BLU BLU,EBFS,2023-04-25T20:55:00Z,50.23,4.65,4.0,-1.0,360,3,,6.21,30.059055,,,,,,,,,,,FEW,6000,,,,,,,VFR,,,,,,,,,,,,SPECI,276.0
EBDT 252055Z 32006KT 9999 SKC 04/M00 Q1019 BLU BLU,EBDT,2023-04-25T20:55:00Z,51.02,5.07,4.0,0.0,320,6,,6.21,30.088583,,,,,,,,,,,SKC,,,,,,,,VFR,,,,,,,,,,,,SPECI,25.0
EBCV 252055Z AUTO 36004KT 9999 FEW085/// SCT100/// BKN110/// 04/01 Q1019 BLU,EBCV,2023-04-25T20:55:00Z,50.57,3.82,4.0,1.0,360,4,,6.21,30.088583,,,TRUE,,,,,,,,FEW,8500,SCT,10000,BKN,11000,,,VFR,,,,,,,,,,,,METAR,56.0
EBBL 252055Z VRB01KT 9999 SKC 04/00 Q1019 BLU BLU,EBBL,2023-04-25T20:55:00Z,51.17,5.47,4.0,0.0,0,1,,6.21,30.088583,,,,,,,,,,,SKC,,,,,,,,VFR,,,,,,,,,,,,METAR,50.0
EBBE 252055Z 31003KT 9999 SKC 04/M00 Q1019 BLU BLU,EBBE,2023-04-25T20:55:00Z,50.75,4.77,4.0,0.0,310,3,,6.21,30.088583,,,,,,,,,,,SKC,,,,,,,,VFR,,,,,,,,,,,,METAR,127.0
BGTL 252055Z 00000KT 2800 -SN BKN004 OVC020 M05/M08 A3025 RMK AO2 CIG 003 RWY26 SLP230 60003 TSNO $,BGTL,2023-04-25T20:55:00Z,76.53,-68.75,-5.0,-8.0,0,0,,1.74,30.250984,1023.0,,,TRUE,TRUE,,TRUE,,,-SN,BKN,400,OVC,2000,,,,,LIFR,,,,,,,0.03,,,,,METAR,79.0
PTTP 262054Z 10003KT 15SM SCT018 SCT300 29/25 A2984 RMK SLP105 8/101 T02900249 52017,PTTP,2023-04-25T20:54:00Z,6.97,158.22,29.0,24.9,100,3,,15.0,29.840551,1010.5,,,,,,,,,,SCT,1800,SCT,30000,,,,,VFR,1.7,,,,,,,,,,,METAR,36.0
PHOG 252054Z 03010KT 10SM SCT040 BKN055 28/19 A3003 RMK AO2 SLP175 T02780194 50001 $,PHOG,2023-04-25T20:54:00Z,20.9,-156.43,27.8,19.4,30,10,,10.0,30.029528,1017.5,,,TRUE,TRUE,,,,,,SCT,4000,BKN,5500,,,,,VFR,0.1,,,,,,,,,,,METAR,14.0
PGSN 252054Z 08015KT 10SM FEW015 FEW022 27/25 A2985 RMK AO2 RAB00E11 SLP128 P0000 60002 T02670250 51012 $,PGSN,2023-04-25T20:54:00Z,15.12,145.72,26.7,25.0,80,15,,10.0,29.84941,1012.8,,,TRUE,TRUE,,,,,,FEW,1500,FEW,2200,,,,,VFR,1.2,,,,,0.005,0.02,,,,,METAR,65.0
PAKN 252054Z 12009KT 10SM OVC050 05/M02 A2946 RMK AO2 SLP976 T00501017 55002,PAKN,2023-04-25T20:54:00Z,58.68,-156.65,5.0,-1.7,120,9,,10.0,29.459646,997.6,,,TRUE,,,,,,,OVC,5000,,,,,,,VFR,-0.2,,,,,,,,,,,METAR,20.0
PAHN 252054Z AUTO 13010KT OVC060 07/00 A3005 RMK AO2 SLP179 T00720000 58001 TSNO,PAHN,2023-04-25T20:54:00Z,59.25,-135.52,7.2,0.0,130,10,,,30.050198,1017.9,,TRUE,TRUE,,,TRUE,,,,OVC,6000,,,,,,,,-0.1,,,,,,,,,,,METAR,15.0
KWLD 252054Z AUTO 13006KT 6SM RA BR BKN029 BKN039 OVC049 10/08 A3005 RMK AO2 RAB23 SLP177 P0003 60003 T01000083 58005,KWLD,2023-04-25T20:54:00Z,37.17,-97.03,10.0,8.3,130,6,,6.0,30.050198,1017.7,,TRUE,TRUE,,,,,,RA BR,BKN,2900,BKN,3900,OVC,4900,,,MVFR,-0.5,,,,,0.03,0.03,,,,,METAR,351.0
KWAL 252054Z AUTO 17008KT 10SM SCT070 14/03 A3020 RMK AO2 SLP223 T01440033 55000,KWAL,2023-04-25T20:54:00Z,37.93,-75.47,14.4,3.3,170,8,,10.0,30.200787,1022.3,,TRUE,TRUE,,,,,,,SCT,7000,,,,,,,VFR,0.0,,,,,,,,,,,METAR,10.0
KVTA 252054Z AUTO 25008KT 10SM BKN080 13/M02 A3013 RMK AO2 SLP207 T01281017 56013,KVTA,2023-04-25T20:54:00Z,40.02,-82.47,12.8,-1.7,250,8,,10.0,30.129921,1020.7,,TRUE,TRUE,,,,,,,BKN,8000,,,,,,,VFR,-1.3,,,,,,,,,,,METAR,268.0
KVSF 252054Z AUTO 21006KT 10SM BKN070 OVC085 10/03 A3015 RMK AO2 SLP216 60000 T01000028 53001,KVSF,2023-04-25T20:54:00Z,43.35,-72.52,10.0,2.8,210,6,,10.0,30.15059,1021.6,,TRUE,TRUE,,,,,,,BKN,7000,OVC,8500,,,,,VFR,0.1,,,,,,0.005,,,,,METAR,176.0
KVAY 252054Z AUTO 32003KT 10SM BKN070 14/M01 A3017 RMK AO2 SLP217 T01391011 55000,KVAY,2023-04-25T20:54:00Z,39.93,-74.83,13.9,-1.1,320,3,,10.0,30.171259,1021.7,,TRUE,TRUE,,,,,,,BKN,7000,,,,,,,VFR,0.0,,,,,,,,,,,METAR,15.0
KUZA 252054Z AUTO VRB05KT 10SM OVC090 17/06 A3012 RMK AO2 SLP197 T01720056 55002,KUZA,2023-04-25T20:54:00Z,34.98,-81.05,17.2,5.6,0,5,,10.0,30.121063,1019.7,,TRUE,TRUE,,,,,,,OVC,9000,,,,,,,VFR,-0.2,,,,,,,,,,,METAR,198.0
KUIN 252054Z AUTO 01009KT 10SM FEW049 BKN090 18/07 A3009 RMK AO2 SLP187 T01780067 58007,KUIN,2023-04-25T20:54:00Z,39.95,-91.2,17.8,6.7,10,9,,10.0,30.088583,1018.7,,TRUE,TRUE,,,,,,,FEW,4900,BKN,9000,,,,,VFR,-0.7,,,,,,,,,,,METAR,233.0
KTQE 252054Z AUTO 08013G19KT 10SM CLR 18/01 A3009 RMK AO2 SLP187 T01780011 56010,KTQE,2023-04-25T20:54:00Z,41.77,-96.18,17.8,1.1,80,13,19,10.0,30.088583,1018.7,,TRUE,TRUE,,,,,,,CLR,,,,,,,,VFR,-1.0,,,,,,,,,,,METAR,312.0
KSYR 252054Z VRB05KT 10SM FEW034 SCT060 BKN090 09/M01 A3020 RMK AO2 SLP226 60000 T00941011 53003,KSYR,2023-04-25T20:54:00Z,43.12,-76.1,9.4,-1.1,0,5,,10.0,30.200787,1022.6,,,TRUE,,,,,,,FEW,3400,SCT,6000,BKN,9000,,,VFR,0.3,,,,,,0.005,,,,,METAR,125.0
KSUS 252054Z 22003KT 10SM BKN090 20/02 A3006 RMK AO2 SLP179 T02000022 58012,KSUS,2023-04-25T20:54:00Z,38.65,-90.65,20.0,2.2,220,3,,10.0,30.059055,1017.9,,,TRUE,,,,,,,BKN,9000,,,,,,,VFR,-1.2,,,,,,,,,,,METAR,140.0
KSLC 252054Z 35003KT 10SM BKN029 OVC035 07/02 A3010 RMK AO2 RAE54 SLP186 P0001 60001 T00720017 51009,KSLC,2023-04-25T20:54:00Z,40.77,-111.97,7.2,1.7,350,3,,10.0,30.100393,1018.6,,,TRUE,,,,,,,BKN,2900,OVC,3500,,,,,MVFR,0.9,,,,,0.01,0.01,,,,,METAR,1286.0
KSET 252054Z AUTO 34007KT 10SM OVC100 20/04 A3006 RMK AO2 SLP178 T02000039 58010 $,KSET,2023-04-25T20:54:00Z,38.93,-90.43,20.0,3.9,340,7,,10.0,30.059055,1017.8,,TRUE,TRUE,TRUE,,,,,,OVC,10000,,,,,,,VFR,-1.0,,,,,,,,,,,METAR,133.0
KSBY 252054Z 24003KT 10SM BKN065 BKN080 15/01 A3019 RMK AO2 SLP223 T01500011 55000,KSBY,2023-04-25T20:54:00Z,38.33,-75.5,15.0,1.1,240,3,,10.0,30.188976,1022.3,,,TRUE,,,,,,,BKN,6500,BKN,8000,,,,,VFR,0.0,,,,,,,,,,,METAR,14.0
KSBN 252054Z 02009KT 10SM SCT021 OVC028 08/03 A3016 RMK AO2 SLP218 T00780033 53003,KSBN,2023-04-25T20:54:00Z,41.7,-86.32,7.8,3.3,20,9,,10.0,30.159449,1021.8,,,TRUE,,,,,,,SCT,2100,OVC,2800,,,,,MVFR,0.3,,,,,,,,,,,METAR,236.0
KRST 252054Z 03005KT 10SM CLR 09/M04 A3020 RMK AO2 SLP239 T00941044 58001,KRST,2023-04-25T20:54:00Z,43.9,-92.5,9.4,-4.4,30,5,,10.0,30.200787,1023.9,,,TRUE,,,,,,,CLR,,,,,,,,VFR,-0.1,,,,,,,,,,,METAR,398.0
KRSP 252054Z AUTO 22007KT 160V310 10SM CLR 17/M05 A3016 RMK AO2 SLP221 T01671050 55003 $,KRSP,2023-04-25T20:54:00Z,39.65,-77.47,16.7,-5.0,220,7,,10.0,30.159449,1022.1,,TRUE,TRUE,TRUE,,,,,,CLR,,,,,,,,VFR,-0.3,,,,,,,,,,,METAR,555.0
KROC 252054Z 08005KT 10SM SCT070 SCT100 BKN200 08/02 A3017 RMK AO2 SLP224 60003 T00830022 56006,KROC,2023-04-25T20:54:00Z,43.12,-77.68,8.3,2.2,80,5,,10.0,30.171259,1022.4,,,TRUE,,,,,,,SCT,7000,SCT,10000,BKN,20000,,,VFR,-0.6,,,,,,0.03,,,,,METAR,166.0
KROA 252054Z 15005KT 10SM OVC130 15/M01 A3016 RMK AO2 SLP212 T01501011 56005,KROA,2023-04-25T20:54:00Z,37.32,-79.97,15.0,-1.1,150,5,,10.0,30.159449,1021.2,,,TRUE,,,,,,,OVC,13000,,,,,,,VFR,-0.5,,,,,,,,,,,METAR,349.0
KRKS 252054Z AUTO 29006KT 3SM -SN BR FEW006 BKN012 OVC037 02/01 A3001 RMK AO2 SLP168 P0000 60000 T00170011 51017,KRKS,2023-04-25T20:54:00Z,41.6,-109.07,1.7,1.1,290,6,,3.0,30.008858,1016.8,,TRUE,TRUE,,,,,,-SN BR,FEW,600,BKN,1200,OVC,3700,,,MVFR,1.7,,,,,0.005,0.005,,,,,METAR,2062.0
KRIC 252054Z 26005KT 10SM SCT070 SCT160 BKN200 OVC300 17/01 A3016 RMK AO2 SLP219 T01670011 56007,KRIC,2023-04-25T20:54:00Z,37.52,-77.32,16.7,1.1,260,5,,10.0,30.159449,1021.9,,,TRUE,,,,,,,SCT,7000,SCT,16000,BKN,20000,OVC,30000,VFR,-0.7,,,,,,,,,,,METAR,51.0
KRFD 252054Z 03006KT 10SM BKN037 BKN060 09/M01 A3020 RMK AO2 SLP232 T00941006 53001,KRFD,2023-04-25T20:54:00Z,42.2,-89.1,9.4,-0.6,30,6,,10.0,30.200787,1023.2,,,TRUE,,,,,,,BKN,3700,BKN,6000,,,,,VFR,0.1,,,,,,,,,,,METAR,222.0
KRDG 252054Z 31004KT 10SM CLR 13/M04 A3017 RMK AO2 SLP223 T01331044 55003,KRDG,2023-04-25T20:54:00Z,40.37,-75.97,13.3,-4.4,310,4,,10.0,30.171259,1022.3,,,TRUE,,,,,,,CLR,,,,,,,,VFR,-0.3,,,,,,,,,,,METAR,101.0
KRBL 252054Z AUTO 35012G21KT 10SM CLR 28/M01 A2994 RMK AO2 SLP136 T02781006 56015,KRBL,2023-04-25T20:54:00Z,40.15,-122.25,27.8,-0.6,350,12,21,10.0,29.940945,1013.6,,TRUE,TRUE,,,,,,,CLR,,,,,,,,VFR,-1.5,,,,,,,,,,,METAR,107.0
KPTW 252054Z AUTO VRB03KT 10SM CLR 13/M06 A3018 RMK AO2 SLP220 T01281056 55004,KPTW,2023-04-25T20:54:00Z,40.23,-75.55,12.8,-5.6,0,3,,10.0,30.180119,1022.0,,TRUE,TRUE,,,,,,,CLR,,,,,,,,VFR,-0.4,,,,,,,,,,,METAR,88.0
KPSF 252054Z AUTO 31009KT 10SM SCT043 BKN085 09/M01 A3013 RMK AO2 SLP206 T00941011 53006,KPSF,2023-04-25T20:54:00Z,42.43,-73.28,9.4,-1.1,310,9,,10.0,30.129921,1020.6,,TRUE,TRUE,,,,,,,SCT,4300,BKN,8500,,,,,VFR,0.6,,,,,,,,,,,METAR,352.0
KPNE 252054Z 32008KT 10SM SCT070 15/M02 A3018 RMK AO2 SLP220 T01501017 55002,KPNE,2023-04-25T20:54:00Z,40.08,-75.02,15.0,-1.7,320,8,,10.0,30.180119,1022.0,,,TRUE,,,,,,,SCT,7000,,,,,,,VFR,-0.2,,,,,,,,,,,METAR,32.0
KPLN 252054Z AUTO 33012KT 10SM OVC034 06/M02 A3018 RMK AO2 SLP228 60000 T00611022 53005,KPLN,2023-04-25T20:54:00Z,45.57,-84.8,6.1,-2.2,330,12,,10.0,30.180119,1022.8,,TRUE,TRUE,,,,,,,OVC,3400,,,,,,,VFR,0.5,,,,,,0.005,,,,,METAR,215.0
KPHL 252054Z VRB03KT 10SM BKN075 BKN240 BKN300 13/M03 A3018 RMK AO2 SLP219 T01331028 55003,KPHL,2023-04-25T20:54:00Z,39.87,-75.23,13.3,-2.8,0,3,,10.0,30.180119,1021.9,,,TRUE,,,,,,,BKN,7500,BKN,24000,BKN,30000,,,VFR,-0.3,,,,,,,,,,,METAR,2.0
KPHF 252054Z 07009KT 10SM CLR 14/03 A3019 RMK AO2 SLP221 T01390033 56006,KPHF,2023-04-25T20:54:00Z,37.13,-76.5,13.9,3.3,70,9,,10.0,30.188976,1022.1,,,TRUE,,,,,,,CLR,,,,,,,,VFR,-0.6,,,,,,,,,,,METAR,12.0
KORH 252054Z 25008KT 10SM BKN075 OVC090 12/M01 A3012 RMK AO2 SLP205 T01221011 53004,KORH,2023-04-25T20:54:00Z,42.27,-71.87,12.2,-1.1,250,8,,10.0,30.121063,1020.5,,,TRUE,,,,,,,BKN,7500,OVC,9000,,,,,VFR,0.4,,,,,,,,,,,METAR,306.0
KOLS 252054Z AUTO 28010G19KT 10SM CLR 28/M06 A2991 RMK AO2 SLP067 T02781061 56013,KOLS,2023-04-25T20:54:00Z,31.42,-110.85,27.8,-6.1,280,10,19,10.0,29.911417,1006.7,,TRUE,TRUE,,,,,,,CLR,,,,,,,,VFR,-1.3,,,,,,,,,,,METAR,1194.0
KOLM 252054Z 08006KT 10SM FEW036 14/06 A3025 RMK AO2 SLP246 T01390056 58007,KOLM,2023-04-25T20:54:00Z,46.97,-122.9,13.9,5.6,80,6,,10.0,30.250984,1024.6,,,TRUE,,,,,,,FEW,3600,,,,,,,VFR,-0.7,,,,,,,,,,,METAR,58.0
KOFP 252054Z AUTO 36003KT 10SM BKN070 17/02 A3018 RMK AO2 SLP220 T01670017 56008,KOFP,2023-04-25T20:54:00Z,37.7,-77.43,16.7,1.7,360,3,,10.0,30.180119,1022.0,,TRUE,TRUE,,,,,,,BKN,7000,,,,,,,VFR,-0.8,,,,,,,,,,,SPECI,63.0
KNAK 252054Z AUTO 14008KT 10SM BKN080 14/03 A3019 RMK AO2 SLP223 T01390028 55004 $,KNAK,2023-04-25T20:54:00Z,38.98,-76.48,13.9,2.8,140,8,,10.0,30.188976,1022.3,,TRUE,TRUE,TRUE,,,,,,BKN,8000,,,,,,,VFR,-0.4,,,,,,,,,,,METAR,2.0
KMVL 252054Z AUTO 36005KT 10SM FEW029 09/02 A3015 RMK AO2 SLP215 60001 T00940022 51005,KMVL,2023-04-25T20:54:00Z,44.53,-72.62,9.4,2.2,360,5,,10.0,30.15059,1021.5,,TRUE,TRUE,,,,,,,FEW,2900,,,,,,,VFR,0.5,,,,,,0.01,,,,,METAR,226.0
KMTP 252054Z AUTO VRB06KT 13/05 A3016 RMK AO1 SLP214 T01330050 53001,KMTP,2023-04-25T20:54:00Z,41.07,-71.92,13.3,5.0,0,6,,,30.159449,1021.4,,TRUE,TRUE,,,,,,,,,,,,,,,,0.1,,,,,,,,,,,METAR,2.0
KMRY 252054Z 34005KT 8SM CLR 13/09 A2996 RMK AO2 SLP157 T01280089 58007,KMRY,2023-04-25T20:54:00Z,36.58,-121.85,12.8,8.9,340,5,,8.0,29.958662,1015.7,,,TRUE,,,,,,,CLR,,,,,,,,VFR,-0.7,,,,,,,,,,,METAR,51.0
KMOT 252054Z 12014G21KT 10SM CLR 12/M06 A3016 RMK AO2 SLP229 T01221061 56011,KMOT,2023-04-25T20:54:00Z,48.25,-101.27,12.2,-6.1,120,14,21,10.0,30.159449,1022.9,,,TRUE,,,,,,,CLR,,,,,,,,VFR,-1.1,,,,,,,,,,,METAR,507.0
KMKC 252054Z 10004KT 10SM SCT070 19/03 A3005 RMK AO2 SLP173 T01890028 56014,KMKC,2023-04-25T20:54:00Z,39.12,-94.6,18.9,2.8,100,4,,10.0,30.050198,1017.3,,,TRUE,,,,,,,SCT,7000,,,,,,,VFR,-1.4,,,,,,,,,,,METAR,228.0
KMIV 252054Z AUTO VRB04KT 10SM CLR 14/M02 A3018 RMK AO2 PK WND 26027/2027 SLP217 T01441022 53002,KMIV,2023-04-25T20:54:00Z,39.37,-75.08,14.4,-2.2,0,4,,10.0,30.180119,1021.7,,TRUE,TRUE,,,,,,,CLR,,,,,,,,VFR,0.2,,,,,,,,,,,METAR,18.0
KMGJ 252054Z AUTO 34008KT 310V010 10SM OVC080 12/M04 A3014 RMK AO2 SLP209 T01221039 53001,KMGJ,2023-04-25T20:54:00Z,41.52,-74.27,12.2,-3.9,340,8,,10.0,30.138779,1020.9,,TRUE,TRUE,,,,,,,OVC,8000,,,,,,,VFR,0.1,,,,,,,,,,,METAR,106.0
KMFI 252054Z AUTO 36005KT 10SM OVC055 07/M05 A3020 RMK AO2 SLP240 T00721050 56002,KMFI,2023-04-25T20:54:00Z,44.63,-90.18,7.2,-5.0,360,5,,10.0,30.200787,1024.0,,TRUE,TRUE,,,,,,,OVC,5500,,,,,,,VFR,-0.2,,,,,,,,,,,METAR,383.0
KMEM 252054Z VRB03KT 10SM FEW200 BKN250 19/M01 A3006 RMK AO2 SLP178 T01941006 56018 $,KMEM,2023-04-25T20:54:00Z,35.07,-89.98,19.4,-0.6,0,3,,10.0,30.059055,1017.8,,,TRUE,TRUE,,,,,,FEW,20000,BKN,25000,,,,,VFR,-1.8,,,,,,,,,,,METAR,78.0
KLWT 252054Z AUTO 23003KT 10SM CLR 13/01 A2999 RMK AO2 SLP158 T01330011 56006,KLWT,2023-04-25T20:54:00Z,47.05,-109.47,13.3,1.1,230,3,,10.0,29.991142,1015.8,,TRUE,TRUE,,,,,,,CLR,,,,,,,,VFR,-0.6,,,,,,,,,,,METAR,1254.0
KLWM 252054Z 11006KT 10SM -RA SCT039 OVC095 12/06 A3016 RMK AO2 RAB51 PRESRR SLP214 P0000 60002 T01170056 53010,KLWM,2023-04-25T20:54:00Z,42.72,-71.13,11.7,5.6,110,6,,10.0,30.159449,1021.4,,,TRUE,,,,,,-RA,SCT,3900,OVC,9500,,,,,VFR,1.0,,,,,0.005,0.02,,,,,METAR,42.0
KLNK 252054Z 15007KT 10SM OVC060 17/04 A3007 RMK AO2 SLP183 T01720044 58007,KLNK,2023-04-25T20:54:00Z,40.85,-96.77,17.2,4.4,150,7,,10.0,30.070866,1018.3,,,TRUE,,,,,,,OVC,6000,,,,,,,VFR,-0.7,,,,,,,,,,,METAR,357.0
KLEX 252054Z 00000KT 10SM CLR 18/M02 A3012 RMK AO2 SLP199 T01781017 56014,KLEX,2023-04-25T20:54:00Z,38.03,-84.6,17.8,-1.7,0,0,,10.0,30.121063,1019.9,,,TRUE,,,,,,,CLR,,,,,,,,VFR,-1.4,,,,,,,,,,,METAR,294.0
KLAF 252054Z 10SM FEW060 BKN095 15/03 A3008 RMK AO2 SLP188 T01500033 58012,KLAF,2023-04-25T20:54:00Z,40.42,-86.93,15.0,3.3,,,,10.0,30.079725,1018.8,,,TRUE,,,,,,,FEW,6000,BKN,9500,,,,,VFR,-1.2,,,,,,,,,,,METAR,182.0
KJST 252054Z AUTO 00000KT 10SM BKN110 10/M05 A3012 RMK AO2 SLP213 T01001050 58006,KJST,2023-04-25T20:54:00Z,40.32,-78.83,10.0,-5.0,0,0,,10.0,30.121063,1021.3,,TRUE,TRUE,,,,,,,BKN,11000,,,,,,,VFR,-0.6,,,,,,,,,,,METAR,695.0
KJAN 252054Z 01005KT 10SM FEW110 24/08 A2999 RMK AO2 SLP152 T02390078 58018 $,KJAN,2023-04-25T20:54:00Z,32.32,-90.08,23.9,7.8,10,5,,10.0,29.991142,1015.2,,,TRUE,TRUE,,,,,,FEW,11000,,,,,,,VFR,-1.8,,,,,,,,,,,METAR,92.0
KIZG 252054Z AUTO 11008KT 5SM -RA BR FEW008 BKN017 OVC042 07/07 A3018 RMK AO2 RAB19 SLP222 P0003 60003 T00720067 53004,KIZG,2023-04-25T20:54:00Z,43.98,-70.95,7.2,6.7,110,8,,5.0,30.180119,1022.2,,TRUE,TRUE,,,,,,-RA BR,FEW,800,BKN,1700,OVC,4200,,,MVFR,0.4,,,,,0.03,0.03,,,,,METAR,138.0
KISW 252054Z AUTO 02005KT 10SM OVC065 08/M05 A3021 RMK AO2 SLP241 T00831050 56001,KISW,2023-04-25T20:54:00Z,44.37,-89.83,8.3,-5.0,20,5,,10.0,30.209646,1024.1,,TRUE,TRUE,,,,,,,OVC,6500,,,,,,,VFR,-0.1,,,,,,,,,,,METAR,311.0
KIPT 252054Z 25005KT 10SM SCT085 13/M05 A3016 RMK AO2 SLP214 T01331050 55008,KIPT,2023-04-25T20:54:00Z,41.25,-76.92,13.3,-5.0,250,5,,10.0,30.159449,1021.4,,,TRUE,,,,,,,SCT,8500,,,,,,,VFR,-0.8,,,,,,,,,,,METAR,160.0
KINT 252054Z 08005KT 10SM CLR 17/02 A3014 RMK AO2 SLP203 T01720022 57005,KINT,2023-04-25T20:54:00Z,36.13,-80.22,17.2,2.2,80,5,,10.0,30.138779,1020.3,,,TRUE,,,,,,,CLR,,,,,,,,VFR,-0.5,,,,,,,,,,,METAR,292.0
KINL 252054Z AUTO 32005KT 10SM FEW060 07/M07 A3028 RMK AO2 SLP271 T00671067 58008,KINL,2023-04-25T20:54:00Z,48.57,-93.4,6.7,-6.7,320,5,,10.0,30.280512,1027.1,,TRUE,TRUE,,,,,,,FEW,6000,,,,,,,VFR,-0.8,,,,,,,,,,,METAR,353.0
KIND 252054Z 25014G22KT 10SM BKN055 BKN110 OVC250 14/02 A3011 RMK AO2 RAB15E31 SLP198 P0000 60000 T01390022 56006,KIND,2023-04-25T20:54:00Z,39.72,-86.27,13.9,2.2,250,14,22,10.0,30.109253,1019.8,,,TRUE,,,,,,,BKN,5500,BKN,11000,OVC,25000,,,VFR,-0.6,,,,,0.005,0.005,,,,,METAR,242.0
KIMT 252054Z AUTO VRB06KT 10SM OVC045 06/M05 A3020 RMK AO2 SLP240 T00611050 50000,KIMT,2023-04-25T20:54:00Z,45.82,-88.12,6.1,-5.0,0,6,,10.0,30.200787,1024.0,,TRUE,TRUE,,,,,,,OVC,4500,,,,,,,VFR,0.0,,,,,,,,,,,METAR,343.0
KILN 252054Z AUTO 25007KT 10SM BKN070 BKN090 13/M02 A3012 RMK AO2 SLP213 T01331022 58014,KILN,2023-04-25T20:54:00Z,39.43,-83.8,13.3,-2.2,250,7,,10.0,30.121063,1021.3,,TRUE,TRUE,,,,,,,BKN,7000,BKN,9000,,,,,VFR,-1.4,,,,,,,,,,,METAR,325.0
KHWD 252054Z 28007KT 10SM CLR 23/08 A2992 RMK AO2 SLP141 T02280083 58015,KHWD,2023-04-25T20:54:00Z,37.67,-122.12,22.8,8.3,280,7,,10.0,29.920275,1014.1,,,TRUE,,,,,,,CLR,,,,,,,,VFR,-1.5,,,,,,,,,,,METAR,9.0
KGSO 252054Z VRB05KT 10SM FEW060 BKN160 OVC250 17/04 A3013 RMK AO2 SLP199 T01720039 55004,KGSO,2023-04-25T20:54:00Z,36.1,-79.95,17.2,3.9,0,5,,10.0,30.129921,1019.9,,,TRUE,,,,,,,FEW,6000,BKN,16000,OVC,25000,,,VFR,-0.4,,,,,,,,,,,METAR,275.0
KGED 252054Z AUTO 28007KT 10SM BKN075 16/M01 A3018 RMK AO2 SLP220 T01561011 55001,KGED,2023-04-25T20:54:00Z,38.68,-75.37,15.6,-1.1,280,7,,10.0,30.180119,1022.0,,TRUE,TRUE,,,,,,,BKN,7500,,,,,,,VFR,-0.1,,,,,,,,,,,METAR,15.0
KGCN 252054Z 34010G18KT 300V010 10SM CLR 16/M12 A2998 RMK AO2 PK WND 35030/2043 SLP107 T01561117 53003,KGCN,2023-04-25T20:54:00Z,35.95,-112.15,15.6,-11.7,340,10,18,10.0,29.97933,1010.7,,,TRUE,,,,,,,CLR,,,,,,,,VFR,0.3,,,,,,,,,,,METAR,1993.0
KFZY 252054Z AUTO 23006KT 10SM BKN090 09/M01 A3019 RMK AO2 SLP226 60000 T00941011 58001,KFZY,2023-04-25T20:54:00Z,43.35,-76.38,9.4,-1.1,230,6,,10.0,30.188976,1022.6,,TRUE,TRUE,,,,,,,BKN,9000,,,,,,,VFR,-0.1,,,,,,0.005,,,,,METAR,143.0
KFWA 252054Z 01010KT 10SM SCT048 OVC060 10/03 A3011 RMK RAB06E47 SLPNO,KFWA,2023-04-25T20:54:00Z,40.98,-85.2,10.0,3.0,10,10,,10.0,30.109253,,,,,,,,,,,SCT,4800,OVC,6000,,,,,VFR,,,,,,,,,,,,METAR,243.0
KFIG 252054Z AUTO 00000KT 10SM BKN070 11/M06 A3015 RMK AO2 SLP220 T01061056 56006,KFIG,2023-04-25T20:54:00Z,41.05,-78.42,10.6,-5.6,0,0,,10.0,30.15059,1022.0,,TRUE,TRUE,,,,,,,BKN,7000,,,,,,,VFR,-0.6,,,,,,,,,,,METAR,461.0
KFFZ 252054Z VRB06G18KT 10SM CLR 30/03 A2976 RMK AO2 SLP056 T03000028 58021,KFFZ,2023-04-25T20:54:00Z,33.47,-111.72,30.0,2.8,0,6,18,10.0,29.760826,1005.6,,,TRUE,,,,,,,CLR,,,,,,,,VFR,-2.1,,,,,,,,,,,METAR,420.0
KEWN 252054Z 08004KT 10SM CLR 20/04 A3014 RMK AO2 SLP204 T02000039 56008,KEWN,2023-04-25T20:54:00Z,35.07,-77.05,20.0,3.9,80,4,,10.0,30.138779,1020.4,,,TRUE,,,,,,,CLR,,,,,,,,VFR,-0.8,,,,,,,,,,,METAR,3.0
KEVV 252054Z 00000KT 10SM CLR 19/M01 A3011 RMK AO2 SLP196 T01891011 56016 $,KEVV,2023-04-25T20:54:00Z,38.05,-87.52,18.9,-1.1,0,0,,10.0,30.109253,1019.6,,,TRUE,TRUE,,,,,,CLR,,,,,,,,VFR,-1.6,,,,,,,,,,,METAR,123.0
KEUG 252054Z 36010KT 10SM FEW025 FEW250 17/09 A3018 RMK AO2 SLP221 T01670089 58020,KEUG,2023-04-25T20:54:00Z,44.13,-123.22,16.7,8.9,360,10,,10.0,30.180119,1022.1,,,TRUE,,,,,,,FEW,2500,FEW,25000,,,,,VFR,-2.0,,,,,,,,,,,METAR,109.0
KEFD 252054Z 12010KT 10SM SCT050 25/17 A2988,KEFD,2023-04-25T20:54:00Z,29.6,-95.17,25.0,17.0,120,10,,10.0,29.878937,,,,,,,,,,,SCT,5000,,,,,,,VFR,,,,,,,,,,,,METAR,9.0
KECG 252054Z AUTO 07012KT 10SM CLR 17/06 A3017 RMK AO2 SLP217 T01670056 56004,KECG,2023-04-25T20:54:00Z,36.27,-76.18,16.7,5.6,70,12,,10.0,30.171259,1021.7,,TRUE,TRUE,,,,,,,CLR,,,,,,,,VFR,-0.4,,,,,,,,,,,METAR,2.0
KDYL 252054Z AUTO 25007KT 10SM FEW075 14/M06 A3016 RMK AO2 SLP214 T01391056 58004,KDYL,2023-04-25T20:54:00Z,40.33,-75.12,13.9,-5.6,250,7,,10.0,30.159449,1021.4,,TRUE,TRUE,,,,,,,FEW,7500,,,,,,,VFR,-0.4,,,,,,,,,,,METAR,121.0
KDSV 252054Z AUTO 00000KT 10SM BKN065 OVC080 11/M03 A3015 RMK AO2 RAB36E45 SLP224 P0000 60000 T01061033 56006,KDSV,2023-04-25T20:54:00Z,42.57,-77.72,10.6,-3.3,0,0,,10.0,30.15059,1022.4,,TRUE,TRUE,,,,,,,BKN,6500,OVC,8000,,,,,VFR,-0.6,,,,,0.005,0.005,,,,,METAR,195.0
KDSM 252054Z 01008KT 10SM FEW075 FEW100 16/00 A3012 RMK AO2 SLP200 T01560000 58011,KDSM,2023-04-25T20:54:00Z,41.53,-93.67,15.6,0.0,10,8,,10.0,30.121063,1020.0,,,TRUE,,,,,,,FEW,7500,FEW,10000,,,,,VFR,-1.1,,,,,,,,,,,METAR,286.0
KDMH 252054Z AUTO 16/M05 A3019 RMK AO1 SLP222 T01561050 55002,KDMH,2023-04-25T20:54:00Z,39.28,-76.62,15.6,-5.0,,,,,30.188976,1022.2,,TRUE,TRUE,,,,,,,,,,,,,,,,-0.2,,,,,,,,,,,METAR,4.0
KDEC 252054Z 26005KT 10SM OVC075 16/05 A3009 RMK AO2 SLP189 T01610050 58007,KDEC,2023-04-25T20:54:00Z,39.83,-88.87,16.1,5.0,260,5,,10.0,30.088583,1018.9,,,TRUE,,,,,,,OVC,7500,,,,,,,VFR,-0.7,,,,,,,,,,,METAR,205.0
KDDH 252054Z AUTO 31007KT 10SM FEW048 BKN055 OVC095 11/M02 A3016 RMK AO2 SLP217 T01061017 53005,KDDH,2023-04-25T20:54:00Z,42.9,-73.25,10.6,-1.7,310,7,,10.0,30.159449,1021.7,,TRUE,TRUE,,,,,,,FEW,4800,BKN,5500,OVC,9500,,,VFR,0.5,,,,,,,,,,,METAR,241.0
KCRW 252054Z VRB03KT 10SM FEW250 16/M05 A3011 RMK AO2 SLP198 T01611050 56018,KCRW,2023-04-25T20:54:00Z,38.38,-81.58,16.1,-5.0,0,3,,10.0,30.109253,1019.8,,,TRUE,,,,,,,FEW,25000,,,,,,,VFR,-1.8,,,,,,,,,,,METAR,278.0
KCOU 252054Z 12004KT 10SM BKN080 19/03 A3007 RMK AO2 SLP182 T01890033 58014,KCOU,2023-04-25T20:54:00Z,38.82,-92.22,18.9,3.3,120,4,,10.0,30.070866,1018.2,,,TRUE,,,,,,,BKN,8000,,,,,,,VFR,-1.4,,,,,,,,,,,METAR,272.0
KCEU 252054Z AUTO 12004KT 10SM OVC080 16/07 A3010 RMK AO2 RAB20E44 SLP190 P0000 60000 T01610072 55005,KCEU,2023-04-25T20:54:00Z,34.67,-82.88,16.1,7.2,120,4,,10.0,30.100393,1019.0,,TRUE,TRUE,,,,,,,OVC,8000,,,,,,,VFR,-0.5,,,,,0.005,0.005,,,,,METAR,270.0
KCAR 252054Z AUTO 13005KT 10SM OVC026 08/03 A3021 RMK AO2 SLP238 T00830028 55002,KCAR,2023-04-25T20:54:00Z,46.87,-68.02,8.3,2.8,130,5,,10.0,30.209646,1023.8,,TRUE,TRUE,,,,,,,OVC,2600,,,,,,,MVFR,-0.2,,,,,,,,,,,METAR,189.0
KBWI 252054Z 23004KT 10SM FEW075 BKN200 BKN250 14/M02 A3018 RMK AO2 SLP220 T01441017 55001,KBWI,2023-04-25T20:54:00Z,39.17,-76.68,14.4,-1.7,230,4,,10.0,30.180119,1022.0,,,TRUE,,,,,,,FEW,7500,BKN,20000,BKN,25000,,,VFR,-0.1,,,,,,,,,,,METAR,42.0
KBUY 252054Z AUTO 01004KT 10SM FEW060 18/06 A3013 RMK AO2 SLP201 T01780061 56005,KBUY,2023-04-25T20:54:00Z,36.05,-79.47,17.8,6.1,10,4,,10.0,30.129921,1020.1,,TRUE,TRUE,,,,,,,FEW,6000,,,,,,,VFR,-0.5,,,,,,,,,,,METAR,185.0
KBUF 252054Z 27010G17KT 10SM FEW030 OVC080 09/M05 A3016 RMK AO2 SLP217 T00941050 56001,KBUF,2023-04-25T20:54:00Z,42.93,-78.73,9.4,-5.0,270,10,17,10.0,30.159449,1021.7,,,TRUE,,,,,,,FEW,3000,OVC,8000,,,,,VFR,-0.1,,,,,,,,,,,METAR,217.0
KBTV 252054Z 22007KT 10SM FEW030 SCT070 SCT085 12/01 A3015 RMK AO2 SLP212 60000 T01170006 53001,KBTV,2023-04-25T20:54:00Z,44.47,-73.15,11.7,0.6,220,7,,10.0,30.15059,1021.2,,,TRUE,,,,,,,FEW,3000,SCT,7000,SCT,8500,,,VFR,0.1,,,,,,0.005,,,,,METAR,101.0
KBOS 252054Z 10013KT 10SM FEW013 SCT032 BKN100 11/06 A3015 RMK AO2 SLP210 T01060056 53008,KBOS,2023-04-25T20:54:00Z,42.37,-71.02,10.6,5.6,100,13,,10.0,30.15059,1021.0,,,TRUE,,,,,,,FEW,1300,SCT,3200,BKN,10000,,,VFR,0.8,,,,,,,,,,,METAR,4.0
KBFL 252054Z 35008KT 10SM CLR 28/07 A2989 RMK AO2 SLP115 T02780067 58016,KBFL,2023-04-25T20:54:00Z,35.43,-119.05,27.8,6.7,350,8,,10.0,29.890747,1011.5,,,TRUE,,,,,,,CLR,,,,,,,,VFR,-1.6,,,,,,,,,,,METAR,146.0
KAVP 252054Z 10SM BKN070 12/M04 A3017 RMK AO2 SLP218 60000 T01221044 55003,KAVP,2023-04-25T20:54:00Z,41.33,-75.72,12.2,-4.4,,,,10.0,30.171259,1021.8,,,TRUE,,,,,,,BKN,7000,,,,,,,VFR,-0.3,,,,,,0.005,,,,,METAR,290.0
KAVL 252054Z 17007KT 10SM -RA BKN055 OVC070 15/02 A3012 RMK AO2 RAB50 SLP193 P0000 60000 T01500022 55001,KAVL,2023-04-25T20:54:00Z,35.43,-82.53,15.0,2.2,170,7,,10.0,30.121063,1019.3,,,TRUE,,,,,,-RA,BKN,5500,OVC,7000,,,,,VFR,-0.1,,,,,0.005,0.005,,,,,METAR,646.0
KAUW 252054Z AUTO 33009KT 10SM OVC060 08/M06 A3019 RMK AO2 SLP239 T00781061 56001,KAUW,2023-04-25T20:54:00Z,44.93,-89.62,7.8,-6.1,330,9,,10.0,30.188976,1023.9,,TRUE,TRUE,,,,,,,OVC,6000,,,,,,,VFR,-0.1,,,,,,,,,,,METAR,367.0
KALO 252054Z 01006KT 10SM CLR 14/M03 A3015 RMK AO2 SLP215 T01441033 58006,KALO,2023-04-25T20:54:00Z,42.55,-92.4,14.4,-3.3,10,6,,10.0,30.15059,1021.5,,,TRUE,,,,,,,CLR,,,,,,,,VFR,-0.6,,,,,,,,,,,METAR,264.0
KAKR 252054Z AUTO 27004KT 10SM BKN055 OVC070 12/M06 A3014 RMK AO2 SLP210 T01171061 58006,KAKR,2023-04-25T20:54:00Z,41.03,-81.47,11.7,-6.1,270,4,,10.0,30.138779,1021.0,,TRUE,TRUE,,,,,,,BKN,5500,OVC,7000,,,,,VFR,-0.6,,,,,,,,,,,METAR,319.0
KAKQ 252054Z AUTO 09003KT 10SM CLR 16/04 A3017 RMK AO2 SLP216 T01610039 56007 PWINO,KAKQ,2023-04-25T20:54:00Z,36.98,-77.0,16.1,3.9,90,3,,10.0,30.171259,1021.6,,TRUE,TRUE,,,,,TRUE,,CLR,,,,,,,,VFR,-0.7,,,,,,,,,,,METAR,34.0
KAKH 252054Z AUTO 00000KT 10SM FEW075 OVC100 17/07 A3011 RMK AO2 SLP196 T01720067 58004,KAKH,2023-04-25T20:54:00Z,35.2,-81.15,17.2,6.7,0,0,,10.0,30.109253,1019.6,,TRUE,TRUE,,,,,,,FEW,7500,OVC,10000,,,,,VFR,-0.4,,,,,,,,,,,METAR,242.0
KACY 252054Z 31010G19KT 10SM SCT075 15/M02 A3017 RMK AO2 SLP215 T01501022 53003,KACY,2023-04-25T20:54:00Z,39.45,-74.57,15.0,-2.2,310,10,19,10.0,30.171259,1021.5,,,TRUE,,,,,,,SCT,7500,,,,,,,VFR,0.3,,,,,,,,,,,METAR,18.0
KAAO 252054Z AUTO 16011KT 10SM SCT027 BKN036 OVC055 12/07 A3003 RMK AO2 SLP173 T01220067 58006,KAAO,2023-04-25T20:54:00Z,37.75,-97.22,12.2,6.7,160,11,,10.0,30.029528,1017.3,,TRUE,TRUE,,,,,,,SCT,2700,BKN,3600,OVC,5500,,,VFR,-0.6,,,,,,,,,,,METAR,429.0
K1V4 252054Z AUTO 08/04 A3013 RMK AO1 SLP206 T00830044 53004,K1V4,2023-04-25T20:54:00Z,44.42,-72.02,8.3,4.4,,,,,30.129921,1020.6,,TRUE,TRUE,,,,,,,,,,,,,,,,0.4,,,,,,,,,,,METAR,213.0
K12N 252054Z AUTO 00000KT 14/M04 A3015 RMK AO1 SLP215 T01391044 55001,K12N,2023-04-25T20:54:00Z,41.02,-74.73,13.9,-4.4,0,0,,,30.15059,1021.5,,TRUE,TRUE,,,,,,,,,,,,,,,,-0.1,,,,,,,,,,,METAR,178.0
TJNR 252053Z AUTO 05005KT 10SM CLR 28/21 A2992 RMK AO2 SLP131 T02780211 56010,TJNR,2023-04-25T20:53:00Z,18.25,-65.63,27.8,21.1,50,5,,10.0,29.920275,1013.1,,TRUE,TRUE,,,,,,,CLR,,,,,,,,VFR,-1.0,,,,,,,,,,,SPECI,7.0
TISX 252053Z 12005KT 10SM BKN025 OVC033 27/22 A2992 RMK AO2 SLP129 T02670217 56007,TISX,2023-04-25T20:53:00Z,17.7,-64.8,26.7,21.7,120,5,,10.0,29.920275,1012.9,,,TRUE,,,,,,,BKN,2500,OVC,3300,,,,,MVFR,-0.7,,,,,,,,,,,SPECI,16.0
TIST 252053Z VRB06KT 10SM FEW032 28/21 A2990 RMK AO2 SLP126 T02830211 56012,TIST,2023-04-25T20:53:00Z,18.33,-64.98,28.3,21.1,0,6,,10.0,29.899607,1012.6,,,TRUE,,,,,,,FEW,3200,,,,,,,VFR,-1.2,,,,,,,,,,,SPECI,5.0
PTYA 252053Z VRB06KT 12SM FEW016TCU BKN300 26/25 A2978 RMK TCU E SLP084 8/201 T02610253 52010,PTYA,2023-04-25T20:53:00Z,9.48,138.08,26.1,25.3,0,6,,12.0,29.778543,1008.4,,,,,,,,,,FEW,1600,BKN,30000,,,,,VFR,1.0,,,,,,,,,,,METAR,4.0
PHTO 252053Z 08009KT 10SM CLR 28/19 A3004 RMK AO2 SLP170 T02830189 58002,PHTO,2023-04-25T20:53:00Z,19.72,-155.05,28.3,18.9,80,9,,10.0,30.041338,1017.0,,,TRUE,,,,,,,CLR,,,,,,,,VFR,-0.2,,,,,,,,,,,METAR,9.0
PHNL 252053Z 02009G16KT 10SM FEW023 SCT031 SCT040 28/21 A3003 RMK AO2 SLP169 T02780206 55002,PHNL,2023-04-25T20:53:00Z,21.33,-157.93,27.8,20.6,20,9,16,10.0,30.029528,1016.9,,,TRUE,,,,,,,FEW,2300,SCT,3100,SCT,4000,,,VFR,-0.2,,,,,,,,,,,METAR,2.0
PHLI 252053Z 04014KT 10SM SCT033 OVC043 24/18 A3008 RMK AO2 SLP184 T02440183 51004,PHLI,2023-04-25T20:53:00Z,21.97,-159.33,24.4,18.3,40,14,,10.0,30.079725,1018.4,,,TRUE,,,,,,,SCT,3300,OVC,4300,,,,,VFR,0.4,,,,,,,,,,,METAR,32.0
PHKO 252053Z 24007KT 10SM FEW050 27/19 A3004 RMK AO2 SLP171 T02720194 50003,PHKO,2023-04-25T20:53:00Z,19.73,-156.05,27.2,19.4,240,7,,10.0,30.041338,1017.1,,,TRUE,,,,,,,FEW,5000,,,,,,,VFR,0.3,,,,,,,,,,,METAR,11.0
PHJR 252053Z 35010KT 10SM BKN038 28/19 A3004 RMK AO2 SLP179 T02830194 58002,PHJR,2023-04-25T20:53:00Z,21.32,-158.07,28.3,19.4,350,10,,10.0,30.041338,1017.9,,,TRUE,,,,,,,BKN,3800,,,,,,,VFR,-0.2,,,,,,,,,,,METAR,9.0
PAYA 252053Z AUTO 14007KT 10SM BKN036 OVC044 06/M01 A3000 RMK AO2 SLP159 T00561011 55005 TSNO,PAYA,2023-04-25T20:53:00Z,59.52,-139.67,5.6,-1.1,140,7,,10.0,30.0,1015.9,,TRUE,TRUE,,,TRUE,,,,BKN,3600,OVC,4400,,,,,VFR,-0.5,,,,,,,,,,,METAR,9.0
PAWI 252053Z AUTO 00000KT 10SM FEW002 M15/M17 A3018 RMK AO2 UPE21 SLP220 T11501172 57012 TSNO,PAWI,2023-04-25T20:53:00Z,70.63,-160.02,-15.0,-17.2,0,0,,10.0,30.180119,1022.0,,TRUE,TRUE,,,TRUE,,,,FEW,200,,,,,,,VFR,-1.2,,,,,,,,,,,METAR,12.0
PAWD 252053Z AUTO 00000KT 1/2SM SN FG VV007 01/M01 A2977 RMK AO2 SLP079 P0007 60021 T00061011 58001 TSNO,PAWD,2023-04-25T20:53:00Z,60.12,-149.42,0.6,-1.1,0,0,,0.5,29.769686,1007.9,,TRUE,TRUE,,,TRUE,,,SN FG,OVX,0,,,,,,,LIFR,-0.1,,,,,0.07,0.21,,,,700,METAR,3.0
PATO 252053Z AUTO 12016G34KT 070V150 1 1/2SM -SN OVC013 02/M01 A2978 RMK AO2 PK WND 07038/2020 RAB06E44SNE06B44 SLP086 P0010 60018 T00221006 56004 TSNO,PATO,2023-04-25T20:53:00Z,60.78,-148.85,2.2,-0.6,120,16,34,1.5,29.778543,1008.6,,TRUE,TRUE,,,TRUE,,,-SN,OVC,1300,,,,,,,IFR,-0.4,,,,,0.1,0.18,,,,,METAR,47.0
PATK 252053Z 00000KT 10SM BKN065 07/M08 A2975 RMK AO2 SLP079 T00671078 50000,PATK,2023-04-25T20:53:00Z,62.32,-150.1,6.7,-7.8,0,0,,10.0,29.749016,1007.9,,,TRUE,,,,,,,BKN,6500,,,,,,,VFR,0.0,,,,,,,,,,,METAR,107.0
PASN 252053Z AUTO 35012KT 9SM OVC022 M04/M08 A2950 RMK AO2 SNB15E47 SLP991 P0000 60000 T10391078 53002 TSNO,PASN,2023-04-25T20:53:00Z,57.15,-170.22,-3.9,-7.8,350,12,,9.0,29.500984,999.1,,TRUE,TRUE,,,TRUE,,,,OVC,2200,,,,,,,MVFR,0.2,,,,,0.005,0.005,,,,,METAR,8.0
PASI 252053Z 22007KT 10SM FEW030 BKN043 OVC055 07/02 A3003 RMK AO2 SLP169 T00720017 55000 $,PASI,2023-04-25T20:53:00Z,57.03,-135.35,7.2,1.7,220,7,,10.0,30.029528,1016.9,,,TRUE,TRUE,,,,,,FEW,3000,BKN,4300,OVC,5500,,,VFR,0.0,,,,,,,,,,,METAR,2.0
PASC 252053Z 23009KT 10SM SCT005 M21/M24 A3020 RMK AO2 SLP229 T12111244 58009,PASC,2023-04-25T20:53:00Z,70.2,-148.47,-21.1,-24.4,230,9,,10.0,30.200787,1022.9,,,TRUE,,,,,,,SCT,500,,,,,,,VFR,-0.9,,,,,,,,,,,METAR,17.0
PAQT 252053Z AUTO 22003KT 10SM OVC006 M18/M20 A3021 RMK AO2 SLP233 T11831200 58009 TSNO PNO,PAQT,2023-04-25T20:53:00Z,70.22,-151.0,-18.3,-20.0,220,3,,10.0,30.209646,1023.3,,TRUE,TRUE,,,TRUE,,,,OVC,600,,,,,,,IFR,-0.9,,,,,,,,,,,METAR,11.0
PAOT 252053Z 08017KT 10SM CLR M07/M12 A2988 RMK AO2 SLP119 T10671117 58009,PAOT,2023-04-25T20:53:00Z,66.88,-162.6,-6.7,-11.7,80,17,,10.0,29.878937,1011.9,,,TRUE,,,,,,,CLR,,,,,,,,VFR,-0.9,,,,,,,,,,,METAR,3.0
PAOR 252053Z 11010KT 10SM OVC100 00/M08 A2978 RMK AO2 SLP119 T00001078 58003 PNO,PAOR,2023-04-25T20:53:00Z,62.97,-141.93,0.0,-7.8,110,10,,10.0,29.778543,1011.9,,,TRUE,,,,,,,OVC,10000,,,,,,,VFR,-0.3,,,,,,,,,,,METAR,524.0
PAOM 252053Z 05012KT 10SM CLR M04/M10 A2971 RMK AO2 SLP060 T10441100 57005,PAOM,2023-04-25T20:53:00Z,64.5,-165.43,-4.4,-10.0,50,12,,10.0,29.71063,1006.0,,,TRUE,,,,,,,CLR,,,,,,,,VFR,-0.5,,,,,,,,,,,METAR,6.0
PANC 252053Z 25006KT 10SM SCT120 03/M03 A2974 RMK AO2 SLP072 T00281028 $,PANC,2023-04-25T20:53:00Z,61.17,-150.02,2.8,-2.8,250,6,,10.0,29.740158,1007.2,,,TRUE,TRUE,,,,,,SCT,12000,,,,,,,VFR,,,,,,,,,,,,METAR,39.0
PAMR 252053Z 26006KT 10SM SCT110 03/M04 A2973 RMK AO2 SLP070 T00331044 58001,PAMR,2023-04-25T20:53:00Z,61.22,-149.85,3.3,-4.4,260,6,,10.0,29.731298,1007.0,,,TRUE,,,,,,,SCT,11000,,,,,,,VFR,-0.1,,,,,,,,,,,METAR,43.0
PAMC 252053Z AUTO A2970 RMK AO2 SLPNO 58007 PWINO FZRANO TSNO $,PAMC,2023-04-25T20:53:00Z,62.97,-155.62,,,,,,,29.698818,,,TRUE,TRUE,TRUE,,TRUE,TRUE,TRUE,,,,,,,,,,,-0.7,,,,,,,,,,,METAR,101.0
PALH 252053Z AUTO 26005KT 10SM FEW120 04/M04 A2974 RMK AO2 SLP073 T00391044 58002 TSNO,PALH,2023-04-25T20:53:00Z,61.18,-149.97,3.9,-4.4,260,5,,10.0,29.740158,1007.3,,TRUE,TRUE,,,TRUE,,,,FEW,12000,,,,,,,VFR,-0.2,,,,,,,,,,,METAR,26.0
PAKW 252053Z AUTO VRB05KT 8SM -RA SCT036 BKN043 OVC050 08/03 A3007 RMK AO2 RAB44 SLP182 P0001 60001 T00780028 58011 TSNO,PAKW,2023-04-25T20:53:00Z,55.58,-133.07,7.8,2.8,0,5,,8.0,30.070866,1018.2,,TRUE,TRUE,,,TRUE,,,-RA,SCT,3600,BKN,4300,OVC,5000,,,VFR,-1.1,,,,,0.01,0.01,,,,,METAR,7.0
PAKV 252053Z AUTO 06012KT 10SM OVC100 M05/M13 A2981 RMK AO2 SLP098 T10501133 58004 TSNO,PAKV,2023-04-25T20:53:00Z,64.33,-158.72,-5.0,-13.3,60,12,,10.0,29.811024,1009.8,,TRUE,TRUE,,,TRUE,,,,OVC,10000,,,,,,,VFR,-0.4,,,,,,,,,,,METAR,53.0
PAKT 252053Z 13013KT 10SM FEW035 BKN055 08/01 A3013 RMK AO2 SLP204 HARBOR WIND 11010KT 60000 T00780006 58007,PAKT,2023-04-25T20:53:00Z,55.35,-131.72,7.8,0.6,130,13,,10.0,30.129921,1020.4,,,TRUE,,,,,,,FEW,3500,BKN,5500,,,,,VFR,-0.7,-1.0,,,,,0.005,,,,,METAR,27.0
PAJN 252053Z 12011G17KT 10SM FEW014 BKN050 OVC065 06/02 A3007 RMK AO2 SLP183 60000 T00560017 51001 $,PAJN,2023-04-25T20:53:00Z,58.35,-134.55,5.6,1.7,120,11,17,10.0,30.070866,1018.3,,,TRUE,TRUE,,,,,,FEW,1400,BKN,5000,OVC,6500,,,VFR,0.1,,,,,,0.005,,,,,METAR,6.0
PAIL 252053Z 08012G19KT 10SM BKN040 OVC070 02/M01 A2959 RMK AO2 SLPNO 6//// T00221011 55002 $,PAIL,2023-04-25T20:53:00Z,59.75,-154.92,2.2,-1.1,80,12,19,10.0,29.589567,,,,TRUE,TRUE,,,,,,BKN,4000,OVC,7000,,,,,VFR,-0.2,,,,,,,,,,,METAR,44.0
PAHO 252053Z 09008KT 10SM FEW026 SCT033 BKN041 04/01 A2968 RMK AO2 SLP053 T00440011 55002,PAHO,2023-04-25T20:53:00Z,59.63,-151.48,4.4,1.1,90,8,,10.0,29.681103,1005.3,,,TRUE,,,,,,,FEW,2600,SCT,3300,BKN,4100,,,VFR,-0.2,,,,,,,,,,,METAR,6.0
PAGY 252053Z AUTO 20010KT 10SM OVC065 07/M02 A3005 RMK AO2 SLP174 T00671017 50006 TSNO,PAGY,2023-04-25T20:53:00Z,59.47,-135.32,6.7,-1.7,200,10,,10.0,30.050198,1017.4,,TRUE,TRUE,,,TRUE,,,,OVC,6500,,,,,,,VFR,0.6,,,,,,,,,,,METAR,7.0
PAGK 252053Z AUTO 14016G29KT 10SM CLR 04/M04 A2978 RMK AO2 PK WND 17029/2044 SLP112 T00391044 56008 TSNO,PAGK,2023-04-25T20:53:00Z,62.15,-145.45,3.9,-4.4,140,16,29,10.0,29.778543,1011.2,,TRUE,TRUE,,,TRUE,,,,CLR,,,,,,,,VFR,-0.8,,,,,,,,,,,METAR,481.0
PAFA 252053Z 01003KT 10SM FEW110 FEW200 01/M12 A2980 RMK AO2 SLP099 T00111117 58008,PAFA,2023-04-25T20:53:00Z,64.8,-147.87,1.1,-11.7,10,3,,10.0,29.799213,1009.9,,,TRUE,,,,,,,FEW,11000,FEW,20000,,,,,VFR,-0.8,,,,,,,,,,,METAR,130.0
PAEN 252053Z 07006KT 10SM SCT070 OVC110 04/M03 A2970 RMK AO2 SLP060 T00391028 58003,PAEN,2023-04-25T20:53:00Z,60.57,-151.25,3.9,-2.8,70,6,,10.0,29.698818,1006.0,,,TRUE,,,,,,,SCT,7000,OVC,11000,,,,,VFR,-0.3,,,,,,,,,,,METAR,30.0
PAEG 252053Z AUTO 07008KT 10SM OVC050 M04/M14 A2988 RMK AO2 SLP137 T10441139 58018 TSNO,PAEG,2023-04-25T20:53:00Z,64.78,-141.15,-4.4,-13.9,70,8,,10.0,29.878937,1013.7,,TRUE,TRUE,,,TRUE,,,,OVC,5000,,,,,,,VFR,-1.8,,,,,,,,,,,METAR,273.0
PACD 252053Z 18010KT 10SM -RA BKN025 BKN030 OVC036 04/01 A2940 RMK AO2 RAB25 SLP956 P0000 60000 T00440006 $,PACD,2023-04-25T20:53:00Z,55.22,-162.72,4.4,0.6,180,10,,10.0,29.40059,995.6,,,TRUE,TRUE,,,,,-RA,BKN,2500,BKN,3000,OVC,3600,,,MVFR,,,,,,0.005,0.005,,,,,METAR,23.0
PABR 252053Z 00000KT 10SM CLR M13/M14 A3019 RMK AO2 SLP224 60001 T11281144 56010 $,PABR,2023-04-25T20:53:00Z,71.28,-156.78,-12.8,-14.4,0,0,,10.0,30.188976,1022.4,,,TRUE,TRUE,,,,,,CLR,,,,,,,,VFR,-1.0,,,,,,0.01,,,,,METAR,6.0
PABI 252053Z 11019KT 10SM FEW050 FEW110 FEW200 M02/M10 A2977 RMK AO2 SLP109 T10171100 58004,PABI,2023-04-25T20:53:00Z,64.0,-145.72,-1.7,-10.0,110,19,,10.0,29.769686,1010.9,,,TRUE,,,,,,,FEW,5000,FEW,11000,FEW,20000,,,VFR,-0.4,,,,,,,,,,,METAR,388.0
PABE 252053Z 05008KT 10SM FEW041 M01/M08 A2952 RMK AO2 SLP999 6//// T10061083 56005 PNO $,PABE,2023-04-25T20:53:00Z,60.78,-161.83,-0.6,-8.3,50,8,,10.0,29.518702,999.9,,,TRUE,TRUE,,,,,,FEW,4100,,,,,,,VFR,-0.5,,,,,,,,,,,METAR,28.0
PAAQ 252053Z 12012G20KT 10SM BKN110 07/M06 A2975 RMK AO2 SLP077 T00721061 58002,PAAQ,2023-04-25T20:53:00Z,61.6,-149.08,7.2,-6.1,120,12,20,10.0,29.749016,1007.7,,,TRUE,,,,,,,BKN,11000,,,,,,,VFR,-0.2,,,,,,,,,,,METAR,68.0
MMMX 252053Z 27006KT 10SM FEW025 SCT200 28/M05 A3016 NOSIG RMK SLP002 57020 953 8/202 HZY,MMMX,2023-04-25T20:53:00Z,19.43,-99.08,28.0,-5.0,270,6,,10.0,30.159449,1000.2,,,,,TRUE,,,,,FEW,2500,SCT,20000,,,,,VFR,-2.0,,,,,,,,,,,METAR,2224.0
KZZV 252053Z AUTO 35003KT 10SM OVC075 13/M03 A3013 RMK AO2 SLP208 T01281033 56011,KZZV,2023-04-25T20:53:00Z,39.95,-81.9,12.8,-3.3,350,3,,10.0,30.129921,1020.8,,TRUE,TRUE,,,,,,,OVC,7500,,,,,,,VFR,-1.1,,,,,,,,,,,METAR,268.0
KYKM 252053Z AUTO VRB04KT 10SM CLR 17/00 A3013 RMK AO2 SLP204 T01720000 56018,KYKM,2023-04-25T20:53:00Z,46.57,-120.53,17.2,0.0,0,4,,10.0,30.129921,1020.4,,TRUE,TRUE,,,,,,,CLR,,,,,,,,VFR,-1.8,,,,,,,,,,,METAR,319.0
KYIP 252053Z 36003KT 10SM OVC014 05/02 A3017 RMK AO2 RAE07 SLP220 P0000 60002 T00500017 55003,KYIP,2023-04-25T20:53:00Z,42.23,-83.53,5.0,1.7,360,3,,10.0,30.171259,1022.0,,,TRUE,,,,,,,OVC,1400,,,,,,,MVFR,-0.3,,,,,0.005,0.02,,,,,METAR,215.0
KXNA 252053Z 18008KT 10SM OVC049 15/06 A3005 RMK AO2 SLP173 T01500056 58005,KXNA,2023-04-25T20:53:00Z,36.28,-94.3,15.0,5.6,180,8,,10.0,30.050198,1017.3,,,TRUE,,,,,,,OVC,4900,,,,,,,VFR,-0.5,,,,,,,,,,,METAR,390.0
KWVI 252053Z AUTO 21005KT 10SM CLR 20/09 A2994 RMK AO2 SLP139 T02000094 58010,KWVI,2023-04-25T20:53:00Z,36.93,-121.78,20.0,9.4,210,5,,10.0,29.940945,1013.9,,TRUE,TRUE,,,,,,,CLR,,,,,,,,VFR,-1.0,,,,,,,,,,,METAR,47.0
KWST 252053Z AUTO 18007KT 10SM CLR 13/06 A3015 RMK AO2 SLP209 T01330061 53002,KWST,2023-04-25T20:53:00Z,41.35,-71.8,13.3,6.1,180,7,,10.0,30.15059,1020.9,,TRUE,TRUE,,,,,,,CLR,,,,,,,,VFR,0.2,,,,,,,,,,,METAR,20.0
KWRL 252053Z AUTO 00000KT 10SM FEW060 OVC080 16/M02 A2990 RMK AO2 LTG DSNT NE SLP114 T01611017 53002,KWRL,2023-04-25T20:53:00Z,43.97,-107.95,16.1,-1.7,0,0,,10.0,29.899607,1011.4,,TRUE,TRUE,,,,,,,FEW,6000,OVC,8000,,,,,VFR,0.2,,,,,,,,,,,METAR,1281.0
KVLD 252053Z 03005KT 10SM SCT060 28/14 A2994 RMK AO1 SLP143 T02830144 58017,KVLD,2023-04-25T20:53:00Z,30.78,-83.27,28.3,14.4,30,5,,10.0,29.940945,1014.3,,,TRUE,,,,,,,SCT,6000,,,,,,,VFR,-1.7,,,,,,,,,,,METAR,59.0
KVIH 252053Z AUTO 12004KT 10SM CLR 19/01 A3007 RMK AO2 SLP178 T01940006 58016,KVIH,2023-04-25T20:53:00Z,38.13,-91.77,19.4,0.6,120,4,,10.0,30.070866,1017.8,,TRUE,TRUE,,,,,,,CLR,,,,,,,,VFR,-1.6,,,,,,,,,,,METAR,342.0
KVGT 252053Z 34013G19KT 10SM CLR 27/M10 A2990 RMK AO2 PK WND 31027/2019 SLP121 T02671100 58006,KVGT,2023-04-25T20:53:00Z,36.22,-115.2,26.7,-10.0,340,13,19,10.0,29.899607,1012.1,,,TRUE,,,,,,,CLR,,,,,,,,VFR,-0.6,,,,,,,,,,,METAR,664.0
KVEL 252053Z AUTO 07013G23KT 10SM CLR 12/M02 A2993 RMK AO2 SLP113 T01171022 53005,KVEL,2023-04-25T20:53:00Z,40.45,-109.52,11.7,-2.2,70,13,23,10.0,29.929134,1011.3,,TRUE,TRUE,,,,,,,CLR,,,,,,,,VFR,0.5,,,,,,,,,,,METAR,1604.0
KVCB 252053Z AUTO 36009KT 10SM CLR 29/01 A2990 RMK AO2 SLP124 T02940006 58015,KVCB,2023-04-25T20:53:00Z,38.38,-121.95,29.4,0.6,360,9,,10.0,29.899607,1012.4,,TRUE,TRUE,,,,,,,CLR,,,,,,,,VFR,-1.5,,,,,,,,,,,METAR,30.0
KUUU 252053Z AUTO 21008KT 180V250 10SM SCT075 13/03 A3014 RMK AO2 SLP204 T01330028 53002,KUUU,2023-04-25T20:53:00Z,41.53,-71.28,13.3,2.8,210,8,,10.0,30.138779,1020.4,,TRUE,TRUE,,,,,,,SCT,7500,,,,,,,VFR,0.2,,,,,,,,,,,METAR,45.0
KUTS 252053Z AUTO 10005KT 9SM SCT050 23/17 A2990 RMK AO2 SLP122 T02330167 58022,KUTS,2023-04-25T20:53:00Z,30.75,-95.58,23.3,16.7,100,5,,9.0,29.899607,1012.2,,TRUE,TRUE,,,,,,,SCT,5000,,,,,,,VFR,-2.2,,,,,,,,,,,METAR,103.0
KUNV 252053Z 00000KT 10SM BKN075 11/M05 A3015,KUNV,2023-04-25T20:53:00Z,40.85,-77.83,11.0,-5.0,0,0,,10.0,30.15059,,,,,,,,,,,BKN,7500,,,,,,,VFR,,,,,,,,,,,,METAR,365.0
KUNO 252053Z AUTO 15008KT 10SM CLR 17/00 A3007 RMK AO2 SLP181 T01720000 58013,KUNO,2023-04-25T20:53:00Z,36.88,-91.9,17.2,0.0,150,8,,10.0,30.070866,1018.1,,TRUE,TRUE,,,,,,,CLR,,,,,,,,VFR,-1.3,,,,,,,,,,,METAR,376.0
KUIL 252053Z AUTO VRB06KT 10SM BKN028 13/06 A3028 RMK AO2 SLP252 T01280056 58006,KUIL,2023-04-25T20:53:00Z,47.93,-124.55,12.8,5.6,0,6,,10.0,30.280512,1025.2,,TRUE,TRUE,,,,,,,BKN,2800,,,,,,,MVFR,-0.6,,,,,,,,,,,METAR,58.0
KUAO 252053Z 32004KT 10SM CLR 16/07 A3021 RMK AO2 SLP229 T01610067 56017,KUAO,2023-04-25T20:53:00Z,45.25,-122.77,16.1,6.7,320,4,,10.0,30.209646,1022.9,,,TRUE,,,,,,,CLR,,,,,,,,VFR,-1.7,,,,,,,,,,,METAR,60.0
KTYS 252053Z 05008G17KT 10SM FEW050 SCT150 BKN250 19/01 A3008 RMK AO2 SLP183 T01890011 58012,KTYS,2023-04-25T20:53:00Z,35.82,-83.98,18.9,1.1,50,8,17,10.0,30.079725,1018.3,,,TRUE,,,,,,,FEW,5000,SCT,15000,BKN,25000,,,VFR,-1.2,,,,,,,,,,,METAR,300.0
KTYR 252053Z 15008KT 10SM BKN055 OVC070 21/12 A2994 RMK AO2 SLP132 T02110117 58019,KTYR,2023-04-25T20:53:00Z,32.37,-95.4,21.1,11.7,150,8,,10.0,29.940945,1013.2,,,TRUE,,,,,,,BKN,5500,OVC,7000,,,,,VFR,-1.9,,,,,,,,,,,METAR,161.0
KTXK 252053Z 07007KT 10SM OVC060 19/08 A3000 RMK AO2 RAB03E13 SLP157 P0000 60000 T01890083 58017 $,KTXK,2023-04-25T20:53:00Z,33.45,-93.98,18.9,8.3,70,7,,10.0,30.0,1015.7,,,TRUE,TRUE,,,,,,OVC,6000,,,,,,,VFR,-1.7,,,,,0.005,0.005,,,,,METAR,118.0
KTWF 252053Z AUTO 29011G25KT 10SM CLR 14/M02 A3010 RMK AO2 SLP176 T01391017 58003,KTWF,2023-04-25T20:53:00Z,42.48,-114.48,13.9,-1.7,290,11,25,10.0,30.100393,1017.6,,TRUE,TRUE,,,,,,,CLR,,,,,,,,VFR,-0.3,,,,,,,,,,,METAR,1269.0
KTVR 252053Z AUTO VRB03KT 10SM CLR 24/09 A2999 RMK AO2 SLP162 T02440089 58023,KTVR,2023-04-25T20:53:00Z,32.35,-91.03,24.4,8.9,0,3,,10.0,29.991142,1016.2,,TRUE,TRUE,,,,,,,CLR,,,,,,,,VFR,-2.3,,,,,,,,,,,METAR,25.0
KTVL 252053Z AUTO VRB05KT 10SM CLR 12/M03 A3014 RMK AO2 SLP185 T01221033 53002,KTVL,2023-04-25T20:53:00Z,38.9,-120.0,12.2,-3.3,0,5,,10.0,30.138779,1018.5,,TRUE,TRUE,,,,,,,CLR,,,,,,,,VFR,0.2,,,,,,,,,,,METAR,1907.0
KTVC 252053Z 03006KT 10SM FEW036 BKN048 07/M01 A3018 RMK AO2 SLP228 T00721006 50001,KTVC,2023-04-25T20:53:00Z,44.73,-85.58,7.2,-0.6,30,6,,10.0,30.180119,1022.8,,,TRUE,,,,,,,FEW,3600,BKN,4800,,,,,VFR,0.1,,,,,,,,,,,METAR,188.0
KTUS 252053Z 27009G14KT 10SM CLR 29/M04 A2983 RMK AO2 SLP057 T02941044 58015,KTUS,2023-04-25T20:53:00Z,32.13,-110.95,29.4,-4.4,270,9,14,10.0,29.828741,1005.7,,,TRUE,,,,,,,CLR,,,,,,,,VFR,-1.5,,,,,,,,,,,METAR,776.0
KTUP 252053Z 09005KT 10SM FEW100 19/00 A3006 RMK AO2 SLP177 60001 T01940000 58018,KTUP,2023-04-25T20:53:00Z,34.27,-88.77,19.4,0.0,90,5,,10.0,30.059055,1017.7,,,TRUE,,,,,,,FEW,10000,,,,,,,VFR,-1.8,,,,,,0.01,,,,,METAR,107.0
KTTN 252053Z 28004KT 10SM BKN075 13/M02 A3016 RMK AO2 SLP208 T01331017 58000,KTTN,2023-04-25T20:53:00Z,40.28,-74.82,13.3,-1.7,280,4,,10.0,30.159449,1020.8,,,TRUE,,,,,,,BKN,7500,,,,,,,VFR,0.0,,,,,,,,,,,METAR,58.0
KTTD 252053Z 30006KT 10SM CLR 17/07 A3020 RMK AO2 SLP227 T01720067 56019 $,KTTD,2023-04-25T20:53:00Z,45.55,-122.42,17.2,6.7,300,6,,10.0,30.200787,1022.7,,,TRUE,TRUE,,,,,,CLR,,,,,,,,VFR,-1.9,,,,,,,,,,,METAR,8.0
KTRL 252053Z AUTO 12008G14KT 10SM FEW085 21/12 A2991 RMK AO2 SLP125 T02110122 58027,KTRL,2023-04-25T20:53:00Z,32.72,-96.27,21.1,12.2,120,8,14,10.0,29.911417,1012.5,,TRUE,TRUE,,,,,,,FEW,8500,,,,,,,VFR,-2.7,,,,,,,,,,,METAR,144.0
KTRI 252053Z 00000KT 10SM BKN170 18/M04 A3011 RMK AO2 SLP186 T01781039 58005,KTRI,2023-04-25T20:53:00Z,36.48,-82.4,17.8,-3.9,0,0,,10.0,30.109253,1018.6,,,TRUE,,,,,,,BKN,17000,,,,,,,VFR,-0.5,,,,,,,,,,,METAR,456.0
KTPA 252053Z 27011KT 10SM FEW034 FEW080 28/19 A2989 RMK AO2 LTG DSNT NE AND E SLP122 CB DSNT NE-SE T02830194 58010,KTPA,2023-04-25T20:53:00Z,27.97,-82.53,28.3,19.4,270,11,,10.0,29.890747,1012.2,,,TRUE,,,,,,,FEW,3400,FEW,8000,,,,,VFR,-1.0,,,,,,,,,,,METAR,2.0
KTOP 252053Z 17007KT 10SM FEW060 BKN080 19/04 A3004 RMK AO2 SLP170 T01890039 56011,KTOP,2023-04-25T20:53:00Z,39.07,-95.63,18.9,3.9,170,7,,10.0,30.041338,1017.0,,,TRUE,,,,,,,FEW,6000,BKN,8000,,,,,VFR,-1.1,,,,,,,,,,,METAR,268.0
KTOI 252053Z AUTO 01009KT 10SM CLR 27/11 A2999 RMK AO2 SLP150 T02720111 58017,KTOI,2023-04-25T20:53:00Z,31.85,-86.02,27.2,11.1,10,9,,10.0,29.991142,1015.0,,TRUE,TRUE,,,,,,,CLR,,,,,,,,VFR,-1.7,,,,,,,,,,,METAR,120.0
KTMB 252053Z 22007KT 10SM FEW070 30/19 A2988 RMK AO2 SLP117 T03000189 56017,KTMB,2023-04-25T20:53:00Z,25.65,-80.43,30.0,18.9,220,7,,10.0,29.878937,1011.7,,,TRUE,,,,,,,FEW,7000,,,,,,,VFR,-1.7,,,,,,,,,,,METAR,2.0
KTLH 252053Z 00000KT 10SM BKN045 BKN100 28/15 A2992 RMK AO2 SLP130 CB DSNT SE AND SW-NW MOV E T02780150 57019,KTLH,2023-04-25T20:53:00Z,30.4,-84.35,27.8,15.0,0,0,,10.0,29.920275,1013.0,,,TRUE,,,,,,,BKN,4500,BKN,10000,,,,,VFR,-1.9,,,,,,,,,,,METAR,17.0
KTKI 252053Z 12009G16KT 10SM SCT048 19/12 A2991 RMK AO2 SLP132 T01940117 58024,KTKI,2023-04-25T20:53:00Z,33.18,-96.58,19.4,11.7,120,9,16,10.0,29.911417,1013.2,,,TRUE,,,,,,,SCT,4800,,,,,,,VFR,-2.4,,,,,,,,,,,METAR,173.0
KTIW 252053Z 16005KT 10SM SCT028 12/05 A3027 RMK AO2 SLP252 T01220050 58003,KTIW,2023-04-25T20:53:00Z,47.27,-122.58,12.2,5.0,160,5,,10.0,30.268702,1025.2,,,TRUE,,,,,,,SCT,2800,,,,,,,VFR,-0.3,,,,,,,,,,,METAR,89.0
KTHV 252053Z AUTO 30006KT 10SM CLR 14/M03 A3018 RMK AO2 SLP224 T01391028 55005,KTHV,2023-04-25T20:53:00Z,39.92,-76.88,13.9,-2.8,300,6,,10.0,30.180119,1022.4,,TRUE,TRUE,,,,,,,CLR,,,,,,,,VFR,-0.5,,,,,,,,,,,METAR,141.0
KTDZ 252053Z AUTO 02004KT 7SM SCT041 OVC049 07/04 A3016 RMK AO2 RAE43 SLP219 P0000 60001 T00720039 56002,KTDZ,2023-04-25T20:53:00Z,41.57,-83.48,7.2,3.9,20,4,,7.0,30.159449,1021.9,,TRUE,TRUE,,,,,,,SCT,4100,OVC,4900,,,,,VFR,-0.2,,,,,0.005,0.01,,,,,METAR,189.0
KTCS 252053Z AUTO 26021G31KT 10SM CLR 27/M11 A2979 RMK AO2 PK WND 22032/2042 WSHFT 2013 SLP011 T02721111 56025,KTCS,2023-04-25T20:53:00Z,33.23,-107.27,27.2,-11.1,260,21,31,10.0,29.790354,1001.1,,TRUE,TRUE,,,,,,,CLR,,,,,,,,VFR,-2.5,,,,,,,,,,,METAR,1471.0
KTCL 252053Z 02006KT 10SM OVC095 23/05 A3003 RMK AO2 SLP168 T02280050 58017,KTCL,2023-04-25T20:53:00Z,33.22,-87.62,22.8,5.0,20,6,,10.0,30.029528,1016.8,,,TRUE,,,,,,,OVC,9500,,,,,,,VFR,-1.7,,,,,,,,,,,METAR,48.0
KTCC 252053Z AUTO 26018G25KT 10SM FEW120 24/M04 A2970 RMK AO2 SLP012 60002 T02391044 56027,KTCC,2023-04-25T20:53:00Z,35.18,-103.6,23.9,-4.4,260,18,25,10.0,29.698818,1001.2,,TRUE,TRUE,,,,,,,FEW,12000,,,,,,,VFR,-2.7,,,,,,0.02,,,,,METAR,1233.0
KSWO 252053Z 10009KT 4SM RA BR BKN007 OVC012 10/09 A3000 RMK AO2 CIG 005V010 SLP157 P0017 60044 T01000089 56005,KSWO,2023-04-25T20:53:00Z,36.17,-97.08,10.0,8.9,100,9,,4.0,30.0,1015.7,,,TRUE,,,,,,RA BR,BKN,700,OVC,1200,,,,,IFR,-0.5,,,,,0.17,0.44,,,,,METAR,293.0
KSTS 252053Z 21007KT 10SM CLR 28/08 A2990 RMK AO2 SLP119 T02780078 58018,KSTS,2023-04-25T20:53:00Z,38.5,-122.82,27.8,7.8,210,7,,10.0,29.899607,1011.9,,,TRUE,,,,,,,CLR,,,,,,,,VFR,-1.8,,,,,,,,,,,METAR,35.0
KSTP 252053Z 05007G18KT 10SM BKN060 09/M04 A3025 RMK AO2 SLP246 T00941039 56005,KSTP,2023-04-25T20:53:00Z,44.93,-93.05,9.4,-3.9,50,7,18,10.0,30.250984,1024.6,,,TRUE,,,,,,,BKN,6000,,,,,,,VFR,-0.5,,,,,,,,,,,METAR,213.0
KSTJ 252053Z 00000KT 10SM OVC070 18/04 A3006 RMK AO2 SLP177 T01830039 56013,KSTJ,2023-04-25T20:53:00Z,39.77,-94.92,18.3,3.9,0,0,,10.0,30.059055,1017.7,,,TRUE,,,,,,,OVC,7000,,,,,,,VFR,-1.3,,,,,,,,,,,METAR,247.0
KSTC 252053Z 05004KT 10SM BKN060 09/M07 A3025 RMK AO2 SLP260 T00891067 56007,KSTC,2023-04-25T20:53:00Z,45.55,-94.05,8.9,-6.7,50,4,,10.0,30.250984,1026.0,,,TRUE,,,,,,,BKN,6000,,,,,,,VFR,-0.7,,,,,,,,,,,METAR,302.0
KSSI 252053Z AUTO 07012KT 10SM CLR 24/17 A2999 RMK AO2 LTG DSNT W SLP156 T02390167 56015,KSSI,2023-04-25T20:53:00Z,31.15,-81.38,23.9,16.7,70,12,,10.0,29.991142,1015.6,,TRUE,TRUE,,,,,,,CLR,,,,,,,,VFR,-1.5,,,,,,,,,,,METAR,6.0
KSSF 252053Z 10003KT 10SM SCT030 BKN037 BKN075 26/19 A2981 RMK AO2 SLP086 60000 T02560189 58025 $,KSSF,2023-04-25T20:53:00Z,29.33,-98.47,25.6,18.9,100,3,,10.0,29.811024,1008.6,,,TRUE,TRUE,,,,,,SCT,3000,BKN,3700,BKN,7500,,,VFR,-2.5,,,,,,0.005,,,,,METAR,175.0
KSRQ 252053Z 26011KT 10SM CLR 27/21 A2988 RMK AO2 LTG DSNT E SLP116 T02720206 58010,KSRQ,2023-04-25T20:53:00Z,27.4,-82.57,27.2,20.6,260,11,,10.0,29.878937,1011.6,,,TRUE,,,,,,,CLR,,,,,,,,VFR,-1.0,,,,,,,,,,,METAR,5.0
KSPW 252053Z AUTO 02008KT 10SM CLR 13/M07 A3017 RMK AO2 SLP223 T01331067 56006,KSPW,2023-04-25T20:53:00Z,43.17,-95.22,13.3,-6.7,20,8,,10.0,30.171259,1022.3,,TRUE,TRUE,,,,,,,CLR,,,,,,,,VFR,-0.6,,,,,,,,,,,METAR,407.0
KSPG 252053Z 31010G18KT 10SM SCT028 27/21 A2988 RMK AO2 LTG DSNT NE SLP117 T02670211 58011,KSPG,2023-04-25T20:53:00Z,27.77,-82.63,26.7,21.1,310,10,18,10.0,29.878937,1011.7,,,TRUE,,,,,,,SCT,2800,,,,,,,VFR,-1.1,,,,,,,,,,,METAR,1.0
KSPB 252053Z AUTO 05004KT 10SM CLR 17/07 A3021 RMK AO2 SLP229 T01670072 56018,KSPB,2023-04-25T20:53:00Z,45.77,-122.87,16.7,7.2,50,4,,10.0,30.209646,1022.9,,TRUE,TRUE,,,,,,,CLR,,,,,,,,VFR,-1.8,,,,,,,,,,,METAR,15.0
KSNY 252053Z AUTO 14020G25KT 10SM OVC027 10/03 A2994 RMK AO2 PK WND 14027/2038 SLP135 T01000028 51005,KSNY,2023-04-25T20:53:00Z,41.1,-102.98,10.0,2.8,140,20,25,10.0,29.940945,1013.5,,TRUE,TRUE,,,,,,,OVC,2700,,,,,,,MVFR,0.5,,,,,,,,,,,METAR,1307.0
KSNS 252053Z 31011KT 9SM CLR 19/09 A2994 RMK AO2 SLP146 T01940089 56012 $,KSNS,2023-04-25T20:53:00Z,36.67,-121.6,19.4,8.9,310,11,,9.0,29.940945,1014.6,,,TRUE,TRUE,,,,,,CLR,,,,,,,,VFR,-1.2,,,,,,,,,,,METAR,20.0
KSNA 252053Z 20009G17KT 10SM FEW028 BKN039 19/13 A2990 RMK AO2 SLP125 T01940128 58010 $,KSNA,2023-04-25T20:53:00Z,33.67,-117.87,19.4,12.8,200,9,17,10.0,29.899607,1012.5,,,TRUE,TRUE,,,,,,FEW,2800,BKN,3900,,,,,VFR,-1.0,,,,,,,,,,,METAR,14.0
KSMQ 252053Z AUTO 32003KT 10SM BKN080 15/M03 A3014 RMK AO2 SLP209 T01501033 55002,KSMQ,2023-04-25T20:53:00Z,40.62,-74.67,15.0,-3.3,320,3,,10.0,30.138779,1020.9,,TRUE,TRUE,,,,,,,BKN,8000,,,,,,,VFR,-0.2,,,,,,,,,,,METAR,30.0
KSMF 252053Z 34015KT 10SM SCT250 29/01 A2987 RMK AO2 SLP115 T02890011 58016,KSMF,2023-04-25T20:53:00Z,38.7,-121.6,28.9,1.1,340,15,,10.0,29.870079,1011.5,,,TRUE,,,,,,,SCT,25000,,,,,,,VFR,-1.6,,,,,,,,,,,METAR,7.0
KSLN 252053Z 13011KT 10SM BKN040 OVC047 15/07 A3003 RMK AO2 SLP169 T01500067 56007,KSLN,2023-04-25T20:53:00Z,38.8,-97.65,15.0,6.7,130,11,,10.0,30.029528,1016.9,,,TRUE,,,,,,,BKN,4000,OVC,4700,,,,,VFR,-0.7,,,,,,,,,,,METAR,377.0
KSJC 252053Z 34007KT 10SM FEW080 BKN110 OVC160 24/08 A2991 RMK AO2 SLP129 T02440083 58015,KSJC,2023-04-25T20:53:00Z,37.37,-121.92,24.4,8.3,340,7,,10.0,29.911417,1012.9,,,TRUE,,,,,,,FEW,8000,BKN,11000,OVC,16000,,,VFR,-1.5,,,,,,,,,,,METAR,13.0
KSIY 252053Z AUTO 00000KT 10SM CLR 21/01 A3009 RMK AO2 SLP195 T02060006 58023,KSIY,2023-04-25T20:53:00Z,41.77,-122.47,20.6,0.6,0,0,,10.0,30.088583,1019.5,,TRUE,TRUE,,,,,,,CLR,,,,,,,,VFR,-2.3,,,,,,,,,,,METAR,807.0
KSHR 252053Z AUTO VRB03KT 10SM BKN080 16/M01 A2998 RMK AO2 SLP148 T01611006 58005,KSHR,2023-04-25T20:53:00Z,44.77,-106.97,16.1,-0.6,0,3,,10.0,29.97933,1014.8,,TRUE,TRUE,,,,,,,BKN,8000,,,,,,,VFR,-0.5,,,,,,,,,,,METAR,1212.0
KSHN 252053Z AUTO 00000KT 10SM BKN043 14/04 A3023 RMK AO2 SLP241 T01390044 58007,KSHN,2023-04-25T20:53:00Z,47.23,-123.13,13.9,4.4,0,0,,10.0,30.230314,1024.1,,TRUE,TRUE,,,,,,,BKN,4300,,,,,,,VFR,-0.7,,,,,,,,,,,METAR,84.0
KSGR 252053Z 12007KT 10SM BKN034 BKN042 26/18 A2987 RMK AO2 SLP117 T02610183 58016,KSGR,2023-04-25T20:53:00Z,29.62,-95.65,26.1,18.3,120,7,,10.0,29.870079,1011.7,,,TRUE,,,,,,,BKN,3400,BKN,4200,,,,,VFR,-1.6,,,,,,,,,,,METAR,22.0
KSFF 252053Z COR 24007KT 210V270 10SM SCT050 16/02 A3015 RMK AO2 SLP208 T01560017 58012,KSFF,2023-04-25T20:53:00Z,47.68,-117.32,15.6,1.7,240,7,,10.0,30.15059,1020.8,TRUE,,TRUE,,,,,,,SCT,5000,,,,,,,VFR,-1.2,,,,,,,,,,,METAR,593.0
KSEG 252053Z AUTO VRB03KT 10SM BKN080 13/M04 A3017 RMK AO2 SLP220 T01331039 55008,KSEG,2023-04-25T20:53:00Z,40.82,-76.87,13.3,-3.9,0,3,,10.0,30.171259,1022.0,,TRUE,TRUE,,,,,,,BKN,8000,,,,,,,VFR,-0.8,,,,,,,,,,,METAR,136.0
KSEA 252053Z 33005KT 10SM SCT029 BKN250 13/06 A3026 RMK AO2 SLP254 T01280056 58005,KSEA,2023-04-25T20:53:00Z,47.45,-122.32,12.8,5.6,330,5,,10.0,30.259842,1025.4,,,TRUE,,,,,,,SCT,2900,BKN,25000,,,,,VFR,-0.5,,,,,,,,,,,METAR,115.0
KSDL 252053Z 21010G18KT 10SM CLR 29/04 A2978 RMK AO2 SLP062 T02940039 56020,KSDL,2023-04-25T20:53:00Z,33.62,-111.92,29.4,3.9,210,10,18,10.0,29.778543,1006.2,,,TRUE,,,,,,,CLR,,,,,,,,VFR,-2.0,,,,,,,,,,,METAR,438.0
KSBM 252053Z AUTO 08010KT 10SM FEW060 07/01 A3021 RMK AO2 SLP234 T00720006 55001,KSBM,2023-04-25T20:53:00Z,43.78,-87.85,7.2,0.6,80,10,,10.0,30.209646,1023.4,,TRUE,TRUE,,,,,,,FEW,6000,,,,,,,VFR,-0.1,,,,,,,,,,,METAR,225.0
KSBA 252053Z 22008KT 9SM SCT022 17/12 A2992 RMK AO2 SLP133 T01720117 58003,KSBA,2023-04-25T20:53:00Z,34.43,-119.85,17.2,11.7,220,8,,9.0,29.920275,1013.3,,,TRUE,,,,,,,SCT,2200,,,,,,,VFR,-0.3,,,,,,,,,,,METAR,2.0
KSAV 252053Z 07007KT 9SM -RA SCT055 BKN075 OVC100 20/16 A3003 RMK AO2 RAB1958 SLP167 CB DSNT SW P0002 60002 T02000156 58005,KSAV,2023-04-25T20:53:00Z,32.12,-81.2,20.0,15.6,70,7,,9.0,30.029528,1016.7,,,TRUE,,,,,,-RA,SCT,5500,BKN,7500,OVC,10000,,,VFR,-0.5,,,,,0.02,0.02,,,,,METAR,10.0
KSAC 252053Z 33012KT 10SM CLR 28/03 A2988 RMK AO2 SLP118 T02780028 58015,KSAC,2023-04-25T20:53:00Z,38.5,-121.5,27.8,2.8,330,12,,10.0,29.878937,1011.8,,,TRUE,,,,,,,CLR,,,,,,,,VFR,-1.5,,,,,,,,,,,METAR,5.0
KRXE 252053Z AUTO VRB06KT 10SM FEW050 14/01 A3003 RMK AO2 SLP161 T01390006 53001,KRXE,2023-04-25T20:53:00Z,43.83,-111.8,13.9,0.6,0,6,,10.0,30.029528,1016.1,,TRUE,TRUE,,,,,,,FEW,5000,,,,,,,VFR,0.1,,,,,,,,,,,METAR,1483.0
KRWL 252053Z AUTO 31009G20KT 10SM FEW026 07/M01 A2997 RMK AO2 SLP127 T00721006 51010,KRWL,2023-04-25T20:53:00Z,41.8,-107.2,7.2,-0.6,310,9,20,10.0,29.970472,1012.7,,TRUE,TRUE,,,,,,,FEW,2600,,,,,,,VFR,1.0,,,,,,,,,,,METAR,2066.0
KRWI 252053Z AUTO 31003KT 10SM CLR 19/04 A3013 RMK AO2 SLP204 T01940039 56010,KRWI,2023-04-25T20:53:00Z,35.85,-77.9,19.4,3.9,310,3,,10.0,30.129921,1020.4,,TRUE,TRUE,,,,,,,CLR,,,,,,,,VFR,-1.0,,,,,,,,,,,METAR,46.0
KRWF 252053Z AUTO 03008KT 10SM CLR 10/M05 A3022 RMK AO2 SLP242 T01001050 58008,KRWF,2023-04-25T20:53:00Z,44.55,-95.08,10.0,-5.0,30,8,,10.0,30.221457,1024.2,,TRUE,TRUE,,,,,,,CLR,,,,,,,,VFR,-0.8,,,,,,,,,,,METAR,312.0
KRVS 252053Z 10009KT 6SM -RA BR BKN010 OVC015 10/08 A3004 RMK AO2 CIG 009V012 SLP175 P0005 60012 T01000083 58014,KRVS,2023-04-25T20:53:00Z,36.05,-95.98,10.0,8.3,100,9,,6.0,30.041338,1017.5,,,TRUE,,,,,,-RA BR,BKN,1000,OVC,1500,,,,,MVFR,-1.4,,,,,0.05,0.12,,,,,METAR,191.0
KRUE 252053Z AUTO 16003KT 10SM OVC100 16/06 A3007 RMK AO2 SLP178 T01560061 56009,KRUE,2023-04-25T20:53:00Z,35.25,-93.1,15.6,6.1,160,3,,10.0,30.070866,1017.8,,TRUE,TRUE,,,,,,,OVC,10000,,,,,,,VFR,-0.9,,,,,,,,,,,METAR,119.0
KRTN 252053Z AUTO 27023G40KT 10SM FEW055 SCT075 OVC095 14/M04 A2981 RMK AO2 PK WND 27049/2041 WSHFT 2024 LTG DSNT N SLP049 60000 T01391039 55005,KRTN,2023-04-25T20:53:00Z,36.73,-104.5,13.9,-3.9,270,23,40,10.0,29.811024,1004.9,,TRUE,TRUE,,,,,,,FEW,5500,SCT,7500,OVC,9500,,,VFR,-0.5,,,,,,0.005,,,,,METAR,1939.0
KRSW 252053Z 26012G20KT 10SM CLR 29/20 A2988 RMK AO2 SLP115 T02890200 58010,KRSW,2023-04-25T20:53:00Z,26.53,-81.75,28.9,20.0,260,12,20,10.0,29.878937,1011.5,,,TRUE,,,,,,,CLR,,,,,,,,VFR,-1.0,,,,,,,,,,,METAR,8.0
KRSL 252053Z AUTO 15013KT 10SM OVC024 12/06 A3001 RMK AO2 SLP165 T01170061 53004,KRSL,2023-04-25T20:53:00Z,38.87,-98.82,11.7,6.1,150,13,,10.0,30.008858,1016.5,,TRUE,TRUE,,,,,,,OVC,2400,,,,,,,MVFR,0.4,,,,,,,,,,,METAR,569.0
KRQE 252053Z AUTO 25028G39KT 10SM SCT110 17/M11 A2982 RMK AO2 PK WND 24044/2028 SLP016 T01721111 56015,KRQE,2023-04-25T20:53:00Z,35.65,-109.07,17.2,-11.1,250,28,39,10.0,29.819881,1001.6,,TRUE,TRUE,,,,,,,SCT,11000,,,,,,,VFR,-1.5,,,,,,,,,,,METAR,2056.0
KRNT 252053Z 33007KT 10SM CLR 14/06 A3026 RMK AO2 SLP250 T01390061 58008,KRNT,2023-04-25T20:53:00Z,47.5,-122.22,13.9,6.1,330,7,,10.0,30.259842,1025.0,,,TRUE,,,,,,,CLR,,,,,,,,VFR,-0.8,,,,,,,,,,,METAR,7.0
KRMG 252053Z AUTO 06003KT 8SM OVC110 21/02 A3004 RMK AO2 SLP167 T02110017 58013,KRMG,2023-04-25T20:53:00Z,34.35,-85.17,21.1,1.7,60,3,,8.0,30.041338,1016.7,,TRUE,TRUE,,,,,,,OVC,11000,,,,,,,VFR,-1.3,,,,,,,,,,,METAR,196.0
KRME 252053Z 27005KT 10SM FEW060 10/M03 A3019 RMK AO2 SLP224 60000 T01001033 55006,KRME,2023-04-25T20:53:00Z,43.22,-75.4,10.0,-3.3,270,5,,10.0,30.188976,1022.4,,,TRUE,,,,,,,FEW,6000,,,,,,,VFR,-0.6,,,,,,0.005,,,,,METAR,146.0
KRKP 252053Z AUTO 12013KT 7SM BKN065 BKN085 26/21 A2984 RMK AO2 SLP105 T02560211 56017,KRKP,2023-04-25T20:53:00Z,28.08,-97.05,25.6,21.1,120,13,,7.0,29.840551,1010.5,,TRUE,TRUE,,,,,,,BKN,6500,BKN,8500,,,,,VFR,-1.7,,,,,,,,,,,METAR,8.0
KRIW 252053Z AUTO 16010G18KT 10SM BKN060 BKN085 09/04 A2998 RMK AO2 WSHFT 2036 RAB1957E25 SLP130 P0000 60000 T00940039 53017,KRIW,2023-04-25T20:53:00Z,43.07,-108.43,9.4,3.9,160,10,18,10.0,29.97933,1013.0,,TRUE,TRUE,,,,,,,BKN,6000,BKN,8500,,,,,VFR,1.7,,,,,0.005,0.005,,,,,METAR,1662.0
KRIL 252053Z AUTO 00000KT 10SM OVC075 07/01 A2992 RMK AO2 SLP124 T00670011 53002,KRIL,2023-04-25T20:53:00Z,39.53,-107.73,6.7,1.1,0,0,,10.0,29.920275,1012.4,,TRUE,TRUE,,,,,,,OVC,7500,,,,,,,VFR,0.2,,,,,,,,,,,METAR,1683.0
KRHI 252053Z AUTO VRB05KT 10SM OVC040 03/M05 A3023 RMK AO2 SLP258 T00331050 53004,KRHI,2023-04-25T20:53:00Z,45.63,-89.48,3.3,-5.0,0,5,,10.0,30.230314,1025.8,,TRUE,TRUE,,,,,,,OVC,4000,,,,,,,VFR,0.4,,,,,,,,,,,METAR,493.0
KRDD 252053Z 35012KT 10SM CLR 27/M01 A2993 RMK AO2 SLP129 T02721006 56017,KRDD,2023-04-25T20:53:00Z,40.52,-122.3,27.2,-0.6,350,12,,10.0,29.929134,1012.9,,,TRUE,,,,,,,CLR,,,,,,,,VFR,-1.7,,,,,,,,,,,METAR,152.0
KRBG 252053Z AUTO 02004KT 10SM CLR 17/04 A3014 RMK AO2 SLP209 T01670044 58021,KRBG,2023-04-25T20:53:00Z,43.23,-123.35,16.7,4.4,20,4,,10.0,30.138779,1020.9,,TRUE,TRUE,,,,,,,CLR,,,,,,,,VFR,-2.1,,,,,,,,,,,METAR,152.0
KRAL 252053Z 26009KT 10SM CLR 21/11 A2988 RMK AO2 SLP107 T02110111 58009,KRAL,2023-04-25T20:53:00Z,33.95,-117.45,21.1,11.1,260,9,,10.0,29.878937,1010.7,,,TRUE,,,,,,,CLR,,,,,,,,VFR,-0.9,,,,,,,,,,,METAR,254.0
KRAC 252053Z AUTO 03011KT 10SM CLR 07/00 A3023 RMK AO2 SLP241 T00720000 51004,KRAC,2023-04-25T20:53:00Z,42.77,-87.82,7.2,0.0,30,11,,10.0,30.230314,1024.1,,TRUE,TRUE,,,,,,,CLR,,,,,,,,VFR,0.4,,,,,,,,,,,METAR,203.0
KPWA 252053Z 13009KT 10SM -RA OVC012 10/08 A2996 RMK AO2 RAB17 SLP142 P0002 60002 T01000078 56004,KPWA,2023-04-25T20:53:00Z,35.53,-97.65,10.0,7.8,130,9,,10.0,29.958662,1014.2,,,TRUE,,,,,,-RA,OVC,1200,,,,,,,MVFR,-0.4,,,,,0.02,0.02,,,,,METAR,390.0
KPUW 252053Z AUTO 00000KT 10SM FEW048 13/02 A3018 RMK AO2 SLP223 T01280017 58010,KPUW,2023-04-25T20:53:00Z,46.75,-117.12,12.8,1.7,0,0,,10.0,30.180119,1022.3,,TRUE,TRUE,,,,,,,FEW,4800,,,,,,,VFR,-1.0,,,,,,,,,,,METAR,774.0
KPSP 252053Z VRB05KT 10SM CLR 36/M03 A2976 RMK AO2 WSHFT 2005 SLP073 T03561033 56019,KPSP,2023-04-25T20:53:00Z,33.82,-116.5,35.6,-3.3,0,5,,10.0,29.760826,1007.3,,,TRUE,,,,,,,CLR,,,,,,,,VFR,-1.9,,,,,,,,,,,METAR,123.0
KPSC 252053Z 20013KT 10SM CLR 19/02 A3015 RMK AO2 SLP208 T01940017 58021,KPSC,2023-04-25T20:53:00Z,46.27,-119.12,19.4,1.7,200,13,,10.0,30.15059,1020.8,,,TRUE,,,,,,,CLR,,,,,,,,VFR,-2.1,,,,,,,,,,,METAR,121.0
KPRC 252053Z 24020G31KT 10SM FEW080 23/M02 A2991 RMK AO2 PK WND 25029/2039 SLP056 T02281022 58008,KPRC,2023-04-25T20:53:00Z,34.65,-112.42,22.8,-2.2,240,20,31,10.0,29.911417,1005.6,,,TRUE,,,,,,,FEW,8000,,,,,,,VFR,-0.8,,,,,,,,,,,METAR,1528.0
KPRB 252053Z AUTO VRB04KT 10SM CLR 25/05 A2991 RMK AO2 SLP125 6//// T02500050 58016,KPRB,2023-04-25T20:53:00Z,35.67,-120.63,25.0,5.0,0,4,,10.0,29.911417,1012.5,,TRUE,TRUE,,,,,,,CLR,,,,,,,,VFR,-1.6,,,,,,,,,,,METAR,249.0
KPQL 252053Z VRB05KT 10SM CLR 26/17 A2995 RMK AO2 SLP143 T02560172 $,KPQL,2023-04-25T20:53:00Z,30.47,-88.53,25.6,17.2,0,5,,10.0,29.949802,1014.3,,,TRUE,TRUE,,,,,,CLR,,,,,,,,VFR,,,,,,,,,,,,METAR,4.0
KPOU 252053Z 02004KT 10SM FEW060 13/01 RMK AO2 SLPNO T01330011 $,KPOU,2023-04-25T20:53:00Z,41.63,-73.88,13.3,1.1,20,4,,10.0,,,,,TRUE,TRUE,,,,,,FEW,6000,,,,,,,VFR,,,,,,,,,,,,METAR,45.0
KPOF 252053Z AUTO 10003KT 10SM CLR 19/00 A3009 RMK AO2 SLP189 T01890000 56016,KPOF,2023-04-25T20:53:00Z,36.77,-90.32,18.9,0.0,100,3,,10.0,30.088583,1018.9,,TRUE,TRUE,,,,,,,CLR,,,,,,,,VFR,-1.6,,,,,,,,,,,METAR,99.0
KPNS 252053Z 17010KT 10SM CLR 26/17 A2995 RMK AO2 SLP142 T02610167 58017,KPNS,2023-04-25T20:53:00Z,30.48,-87.18,26.1,16.7,170,10,,10.0,29.949802,1014.2,,,TRUE,,,,,,,CLR,,,,,,,,VFR,-1.7,,,,,,,,,,,METAR,34.0
KPNC 252053Z AUTO 12007KT 3SM RA BR FEW009 OVC020 10/08 A3004 RMK AO2 SLP171 6//// T01000083 53002 PNO $,KPNC,2023-04-25T20:53:00Z,36.73,-97.1,10.0,8.3,120,7,,3.0,30.041338,1017.1,,TRUE,TRUE,TRUE,,,,,RA BR,FEW,900,OVC,2000,,,,,MVFR,0.2,,,,,,,,,,,METAR,304.0
KPMD 252053Z VRB03G16KT 10SM CLR 28/M05 A2990 RMK AO2 SLP101 T02781050 58012,KPMD,2023-04-25T20:53:00Z,34.63,-118.08,27.8,-5.0,0,3,16,10.0,29.899607,1010.1,,,TRUE,,,,,,,CLR,,,,,,,,VFR,-1.2,,,,,,,,,,,METAR,764.0
KPKD 252053Z AUTO VRB04KT 10SM FEW065 08/M08 A3024 RMK AO2 SLP260 T00781083 58008,KPKD,2023-04-25T20:53:00Z,46.9,-95.07,7.8,-8.3,0,4,,10.0,30.239174,1026.0,,TRUE,TRUE,,,,,,,FEW,6500,,,,,,,VFR,-0.8,,,,,,,,,,,METAR,439.0
KPKB 252053Z 26006KT 10SM SCT085 15/M06 A3013 RMK AO2 SLP206 T01501056 56016,KPKB,2023-04-25T20:53:00Z,39.35,-81.43,15.0,-5.6,260,6,,10.0,30.129921,1020.6,,,TRUE,,,,,,,SCT,8500,,,,,,,VFR,-1.6,,,,,,,,,,,METAR,245.0
KPIR 252053Z AUTO 11012KT 10SM OVC100 08/02 A3013 RMK AO2 SLP214 60000 T00780017 58003,KPIR,2023-04-25T20:53:00Z,44.38,-100.28,7.8,1.7,110,12,,10.0,30.129921,1021.4,,TRUE,TRUE,,,,,,,OVC,10000,,,,,,,VFR,-0.3,,,,,,0.005,,,,,METAR,524.0
KPIL 252053Z AUTO 09012KT 10SM BKN048 BKN080 26/23 A2980 RMK AO2 SLP092 T02560228 58013,KPIL,2023-04-25T20:53:00Z,26.17,-97.33,25.6,22.8,90,12,,10.0,29.799213,1009.2,,TRUE,TRUE,,,,,,,BKN,4800,BKN,8000,,,,,VFR,-1.3,,,,,,,,,,,METAR,5.0
KPIH 252053Z 30011KT 10SM BKN055 13/01 A3007 RMK AO2 SLP175 T01330011 56002,KPIH,2023-04-25T20:53:00Z,42.92,-112.57,13.3,1.1,300,11,,10.0,30.070866,1017.5,,,TRUE,,,,,,,BKN,5500,,,,,,,VFR,-0.2,,,,,,,,,,,METAR,1357.0
KPHD 252053Z AUTO 22007KT 10SM OVC075 13/M04 A3015 RMK AO2 SLP214 T01281039 56009,KPHD,2023-04-25T20:53:00Z,40.47,-81.42,12.8,-3.9,220,7,,10.0,30.15059,1021.4,,TRUE,TRUE,,,,,,,OVC,7500,,,,,,,VFR,-0.9,,,,,,,,,,,METAR,272.0
KPGD 252053Z 25015G23KT 10SM CLR 29/21 A2989 RMK AO2 LTG DSNT N SLP119 T02890206 58013,KPGD,2023-04-25T20:53:00Z,26.92,-82.0,28.9,20.6,250,15,23,10.0,29.890747,1011.9,,,TRUE,,,,,,,CLR,,,,,,,,VFR,-1.3,,,,,,,,,,,METAR,7.0
KPGA 252053Z AUTO 31011G19KT 10SM CLR 19/M09 A2990 RMK AO2 SLP077 T01941089 58003,KPGA,2023-04-25T20:53:00Z,36.92,-111.45,19.4,-8.9,310,11,19,10.0,29.899607,1007.7,,TRUE,TRUE,,,,,,,CLR,,,,,,,,VFR,-0.3,,,,,,,,,,,METAR,1310.0
KPEO 252053Z AUTO VRB05KT 10SM BKN060 OVC075 08/02 A3017 RMK AO2 SLP222 60000 T00830017 58002,KPEO,2023-04-25T20:53:00Z,42.65,-77.05,8.3,1.7,0,5,,10.0,30.171259,1022.2,,TRUE,TRUE,,,,,,,BKN,6000,OVC,7500,,,,,VFR,-0.2,,,,,,0.005,,,,,METAR,268.0
KPDX 252053Z 27008KT 10SM FEW020 BKN250 16/04 A3022 RMK AO2 SLP232 T01610039 56015,KPDX,2023-04-25T20:53:00Z,45.6,-122.62,16.1,3.9,270,8,,10.0,30.221457,1023.2,,,TRUE,,,,,,,FEW,2000,BKN,25000,,,,,VFR,-1.5,,,,,,,,,,,METAR,7.0
KPDT 252053Z AUTO 00000KT 10SM CLR 17/04 A3015 RMK AO2 SLP206 T01670039 58022,KPDT,2023-04-25T20:53:00Z,45.7,-118.83,16.7,3.9,0,0,,10.0,30.15059,1020.6,,TRUE,TRUE,,,,,,,CLR,,,,,,,,VFR,-2.2,,,,,,,,,,,METAR,453.0
KPDK 252053Z 23004KT 10SM SCT065 BKN080 20/08 A3004 RMK AO2 SLP170 T02000083 58012,KPDK,2023-04-25T20:53:00Z,33.88,-84.3,20.0,8.3,230,4,,10.0,30.041338,1017.0,,,TRUE,,,,,,,SCT,6500,BKN,8000,,,,,VFR,-1.2,,,,,,,,,,,METAR,299.0
KPBI 252053Z 16010KT 10SM SCT050 SCT075 BKN100 28/21 A2987 RMK AO2 SLP115 CB DSNT N-NE T02830206 58016,KPBI,2023-04-25T20:53:00Z,26.68,-80.1,28.3,20.6,160,10,,10.0,29.870079,1011.5,,,TRUE,,,,,,,SCT,5000,SCT,7500,BKN,10000,,,VFR,-1.6,,,,,,,,,,,METAR,4.0
KPBG 252053Z AUTO 09005KT 10SM FEW050 BKN085 09/01 A3015 RMK AO2 SLP212 60001 T00940011 55002,KPBG,2023-04-25T20:53:00Z,44.65,-73.47,9.4,1.1,90,5,,10.0,30.15059,1021.2,,TRUE,TRUE,,,,,,,FEW,5000,BKN,8500,,,,,VFR,-0.2,,,,,,0.01,,,,,METAR,61.0
KPBF 252053Z AUTO 06009KT 10SM FEW060 BKN090 OVC100 16/07 A3006 RMK AO2 SLP178 60002 T01610072 58017,KPBF,2023-04-25T20:53:00Z,34.18,-91.93,16.1,7.2,60,9,,10.0,30.059055,1017.8,,TRUE,TRUE,,,,,,,FEW,6000,BKN,9000,OVC,10000,,,VFR,-1.7,,,,,,0.02,,,,,METAR,63.0
KPAH 252053Z 09003KT 10SM CLR 21/M01 A3009 RMK AO2 SLP188 T02061011 56015,KPAH,2023-04-25T20:53:00Z,37.07,-88.77,20.6,-1.1,90,3,,10.0,30.088583,1018.8,,,TRUE,,,,,,,CLR,,,,,,,,VFR,-1.5,,,,,,,,,,,METAR,125.0
KPAE 252053Z 27009KT 10SM CLR 12/05 A3027 RMK AO2 SLP251 T01170050 58005,KPAE,2023-04-25T20:53:00Z,47.92,-122.28,11.7,5.0,270,9,,10.0,30.268702,1025.1,,,TRUE,,,,,,,CLR,,,,,,,,VFR,-0.5,,,,,,,,,,,METAR,166.0
KP68 252053Z AUTO 35007KT 13/M08 A3011 RMK AO1 SLP166 T01281078 58007,KP68,2023-04-25T20:53:00Z,39.6,-116.0,12.8,-7.8,350,7,,,30.109253,1016.6,,TRUE,TRUE,,,,,,,,,,,,,,,,-0.7,,,,,,,,,,,METAR,1813.0
KOWD 252053Z 09005KT 10SM SCT043 BKN065 OVC085 14/05 A3013 RMK AO2 SLP204 T01390050 53008,KOWD,2023-04-25T20:53:00Z,42.18,-71.17,13.9,5.0,90,5,,10.0,30.129921,1020.4,,,TRUE,,,,,,,SCT,4300,BKN,6500,OVC,8500,,,VFR,0.8,,,,,,,,,,,METAR,14.0
KOVS 252053Z AUTO VRB04KT 10SM BKN060 12/M03 A3021 RMK AO2 SLP233 T01171028 58003,KOVS,2023-04-25T20:53:00Z,43.15,-90.68,11.7,-2.8,0,4,,10.0,30.209646,1023.3,,TRUE,TRUE,,,,,,,BKN,6000,,,,,,,VFR,-0.3,,,,,,,,,,,METAR,205.0
KOVE 252053Z AUTO 30011G19KT 10SM CLR 28/04 A2990 RMK AO2 SLP125 T02830044 56016,KOVE,2023-04-25T20:53:00Z,39.5,-121.62,28.3,4.4,300,11,19,10.0,29.899607,1012.5,,TRUE,TRUE,,,,,,,CLR,,,,,,,,VFR,-1.6,,,,,,,,,,,METAR,56.0
KOTM 252053Z AUTO VRB04KT 10SM SCT050 14/03 A3011 RMK AO2 SLP198 T01440033 58007,KOTM,2023-04-25T20:53:00Z,41.1,-92.45,14.4,3.3,0,4,,10.0,30.109253,1019.8,,TRUE,TRUE,,,,,,,SCT,5000,,,,,,,VFR,-0.7,,,,,,,,,,,METAR,254.0
KOSU 252053Z 21006KT 10SM OVC070 13/M03 A3013 RMK AO2 SLP206 T01331028 57015,KOSU,2023-04-25T20:53:00Z,40.08,-83.08,13.3,-2.8,210,6,,10.0,30.129921,1020.6,,,TRUE,,,,,,,OVC,7000,,,,,,,VFR,-1.5,,,,,,,,,,,METAR,276.0
KOSH 252053Z 07008KT 10SM SCT050 OVC060 08/M03 A3020 RMK AO2 SLP234 T00781028 56005,KOSH,2023-04-25T20:53:00Z,43.98,-88.55,7.8,-2.8,70,8,,10.0,30.200787,1023.4,,,TRUE,,,,,,,SCT,5000,OVC,6000,,,,,VFR,-0.5,,,,,,,,,,,METAR,239.0
KORL 252053Z 07016KT 10SM SCT031 26/19 A2990 RMK AO2 LTG DSNT W AND NW SLP130 T02560189 58010,KORL,2023-04-25T20:53:00Z,28.55,-81.33,25.6,18.9,70,16,,10.0,29.899607,1013.0,,,TRUE,,,,,,,SCT,3100,,,,,,,VFR,-1.0,,,,,,,,,,,METAR,32.0
KOQT 252053Z AUTO VRB04KT 10SM CLR 18/M02 A3010 RMK AO2 SLP194 T01831017 56015,KOQT,2023-04-25T20:53:00Z,36.02,-84.23,18.3,-1.7,0,4,,10.0,30.100393,1019.4,,TRUE,TRUE,,,,,,,CLR,,,,,,,,VFR,-1.5,,,,,,,,,,,METAR,276.0
KOPF 252053Z 16013KT 10SM SCT043 SCT050 28/20 A2988 RMK AO2 SLP118 60000 T02830200 56018,KOPF,2023-04-25T20:53:00Z,25.92,-80.28,28.3,20.0,160,13,,10.0,29.878937,1011.8,,,TRUE,,,,,,,SCT,4300,SCT,5000,,,,,VFR,-1.8,,,,,,0.005,,,,,METAR,1.0
KONT 252053Z 24007KT 10SM FEW250 19/12 A2989 RMK AO2 SLP115 T01940117 58011,KONT,2023-04-25T20:53:00Z,34.05,-117.58,19.4,11.7,240,7,,10.0,29.890747,1011.5,,,TRUE,,,,,,,FEW,25000,,,,,,,VFR,-1.1,,,,,,,,,,,METAR,279.0
KONO 252053Z AUTO 28014G20KT 10SM CLR 18/01 A3012 RMK AO2 SLP201 T01830006 58013,KONO,2023-04-25T20:53:00Z,44.02,-117.02,18.3,0.6,280,14,20,10.0,30.121063,1020.1,,TRUE,TRUE,,,,,,,CLR,,,,,,,,VFR,-1.3,,,,,,,,,,,METAR,668.0
KOMK 252053Z AUTO 19009KT 10SM CLR 18/00 A3010 RMK AO2 SLP194 T01830000 57017,KOMK,2023-04-25T20:53:00Z,48.47,-119.52,18.3,0.0,190,9,,10.0,30.100393,1019.4,,TRUE,TRUE,,,,,,,CLR,,,,,,,,VFR,-1.7,,,,,,,,,,,METAR,395.0
KOLF 252053Z AUTO 15010KT 10SM FEW110 17/00 A3001 RMK AO2 SLP170 T01670000 56015,KOLF,2023-04-25T20:53:00Z,48.1,-105.58,16.7,0.0,150,10,,10.0,30.008858,1017.0,,TRUE,TRUE,,,,,,,FEW,11000,,,,,,,VFR,-1.5,,,,,,,,,,,METAR,605.0
KOJC 252053Z 12011KT 10SM SCT070 18/02 A3005 RMK AO2 SLP172 T01780022 56013,KOJC,2023-04-25T20:53:00Z,38.85,-94.73,17.8,2.2,120,11,,10.0,30.050198,1017.2,,,TRUE,,,,,,,SCT,7000,,,,,,,VFR,-1.3,,,,,,,,,,,METAR,328.0
KOGB 252053Z AUTO 04007KT 10SM FEW032 SCT055 OVC075 19/13 A3007 RMK AO2 RAB26E50 SLP180 P0002 60002 T01940128 55007,KOGB,2023-04-25T20:53:00Z,33.47,-80.85,19.4,12.8,40,7,,10.0,30.070866,1018.0,,TRUE,TRUE,,,,,,,FEW,3200,SCT,5500,OVC,7500,,,VFR,-0.7,,,,,0.02,0.02,,,,,METAR,59.0
KODX 252053Z AUTO 16009KT 10SM BKN050 16/03 A3004 RMK AO2 SLP181 T01560028 55003,KODX,2023-04-25T20:53:00Z,41.62,-98.95,15.6,2.8,160,9,,10.0,30.041338,1018.1,,TRUE,TRUE,,,,,,,BKN,5000,,,,,,,VFR,-0.3,,,,,,,,,,,METAR,628.0
KODO 252053Z AUTO 27007KT 10SM CLR 28/03 A2979 RMK AO2 SLP050 T02780033 56023,KODO,2023-04-25T20:53:00Z,31.92,-102.4,27.8,3.3,270,7,,10.0,29.790354,1005.0,,TRUE,TRUE,,,,,,,CLR,,,,,,,,VFR,-2.3,,,,,,,,,,,METAR,912.0
KOAK 252053Z 26006KT 10SM SCT250 22/08 A2994 RMK AO2 SLP136 T02220083 58018,KOAK,2023-04-25T20:53:00Z,37.72,-122.23,22.2,8.3,260,6,,10.0,29.940945,1013.6,,,TRUE,,,,,,,SCT,25000,,,,,,,VFR,-1.8,,,,,,,,,,,METAR,3.0
KNUW 252053Z COR 28007KT 10SM SCT033 SCT120 BKN200 11/07 A3029 RMK AO2 SLP260 T01060067 58001 VISNO $,KNUW,2023-04-25T20:53:00Z,48.35,-122.65,10.6,6.7,280,7,,10.0,30.28937,1026.0,TRUE,,TRUE,TRUE,,,,,,SCT,3300,SCT,12000,BKN,20000,,,VFR,-0.1,,,,,,,,,,,METAR,14.0
KNUI 252053Z AUTO 08007KT 10SM CLR 15/02 A3018 RMK AO2 SLP220 T01500017 56006,KNUI,2023-04-25T20:53:00Z,38.15,-76.43,15.0,1.7,80,7,,10.0,30.180119,1022.0,,TRUE,TRUE,,,,,,,CLR,,,,,,,,VFR,-0.6,,,,,,,,,,,METAR,4.0
KNRS 252053Z 25011KT 10SM SCT027 18/13 A2993 RMK AO2 SLP134 T01780128 58005,KNRS,2023-04-25T20:53:00Z,32.57,-117.12,17.8,12.8,250,11,,10.0,29.929134,1013.4,,,TRUE,,,,,,,SCT,2700,,,,,,,VFR,-0.5,,,,,,,,,,,METAR,15.0
KNQX 252053Z 18006KT 10SM BKN250 27/23 A2989 RMK AO2 SLP121 T02670233 56014 $,KNQX,2023-04-25T20:53:00Z,24.57,-81.67,26.7,23.3,180,6,,10.0,29.890747,1012.1,,,TRUE,TRUE,,,,,,BKN,25000,,,,,,,VFR,-1.4,,,,,,,,,,,SPECI,2.0
KNIP 252053Z 08010KT 10SM SCT045 BKN070 BKN100 BKN250 24/16 A2995 RMK AO2 SLP137 CB DSNT W VCSH W T2 SET T02390161 58014,KNIP,2023-04-25T20:53:00Z,30.23,-81.67,23.9,16.1,80,10,,10.0,29.949802,1013.7,,,TRUE,,,,,,,SCT,4500,BKN,7000,BKN,10000,BKN,25000,VFR,-1.4,,,,,,,,,,,SPECI,3.0
KNEW 252053Z 12009KT 10SM CLR 25/16 A2995 RMK AO2 SLP135 T02500161 58018,KNEW,2023-04-25T20:53:00Z,30.05,-90.03,25.0,16.1,120,9,,10.0,29.949802,1013.5,,,TRUE,,,,,,,CLR,,,,,,,,VFR,-1.8,,,,,,,,,,,METAR,1.0
KMYV 252053Z AUTO 32012G20KT 10SM CLR 28/03 A2988 RMK AO2 SLP122 T02830033 58015,KMYV,2023-04-25T20:53:00Z,39.1,-121.57,28.3,3.3,320,12,20,10.0,29.878937,1012.2,,TRUE,TRUE,,,,,,,CLR,,,,,,,,VFR,-1.5,,,,,,,,,,,METAR,18.0
KMYF 252053Z VRB06KT 10SM BKN025 18/11 A2991 RMK AO2 SLP124 T01830111 58008,KMYF,2023-04-25T20:53:00Z,32.82,-117.13,18.3,11.1,0,6,,10.0,29.911417,1012.4,,,TRUE,,,,,,,BKN,2500,,,,,,,MVFR,-0.8,,,,,,,,,,,METAR,128.0
KMWL 252053Z AUTO 16012KT 10SM OVC028 22/14 A2986 RMK AO2 SLP101 T02170139 58018,KMWL,2023-04-25T20:53:00Z,32.78,-98.07,21.7,13.9,160,12,,10.0,29.861221,1010.1,,TRUE,TRUE,,,,,,,OVC,2800,,,,,,,MVFR,-1.8,,,,,,,,,,,METAR,288.0
KMVY 252053Z 16008KT 10SM BKN070 13/08 A3015 RMK AO2 SLP210 T01330083 53007,KMVY,2023-04-25T20:53:00Z,41.4,-70.62,13.3,8.3,160,8,,10.0,30.15059,1021.0,,,TRUE,,,,,,,BKN,7000,,,,,,,VFR,0.7,,,,,,,,,,,METAR,18.0
KMTO 252053Z AUTO 33005KT 10SM OVC100 16/04 A3009 RMK AO2 SLP190 60000 T01560039 56009,KMTO,2023-04-25T20:53:00Z,39.47,-88.27,15.6,3.9,330,5,,10.0,30.088583,1019.0,,TRUE,TRUE,,,,,,,OVC,10000,,,,,,,VFR,-0.9,,,,,,0.005,,,,,METAR,216.0
KMTH 252053Z AUTO 17005KT 10SM CLR 29/21 A2988 RMK AO2 SLP118 T02890211 56016,KMTH,2023-04-25T20:53:00Z,24.73,-81.05,28.9,21.1,170,5,,10.0,29.878937,1011.8,,TRUE,TRUE,,,,,,,CLR,,,,,,,,VFR,-1.6,,,,,,,,,,,METAR,1.0
KMSY 252053Z 04009KT 10SM FEW036 SCT150 BKN250 26/16 A2994 RMK AO2 SLP143 T02560156 58016,KMSY,2023-04-25T20:53:00Z,30.0,-90.25,25.6,15.6,40,9,,10.0,29.940945,1014.3,,,TRUE,,,,,,,FEW,3600,SCT,15000,BKN,25000,,,VFR,-1.6,,,,,,,,,,,METAR,0.0
KMSS 252053Z AUTO 21005KT 10SM BKN070 BKN080 11/M02 A3016 RMK AO2 SLP216 T01061017 56002,KMSS,2023-04-25T20:53:00Z,44.93,-74.85,10.6,-1.7,210,5,,10.0,30.159449,1021.6,,TRUE,TRUE,,,,,,,BKN,7000,BKN,8000,,,,,VFR,-0.2,,,,,,,,,,,METAR,60.0
KMSP 252053Z 36006G19KT 10SM SCT060 09/M06 A3024 RMK AO2 SLP246 T00941056 58003,KMSP,2023-04-25T20:53:00Z,44.88,-93.23,9.4,-5.6,360,6,19,10.0,30.239174,1024.6,,,TRUE,,,,,,,SCT,6000,,,,,,,VFR,-0.3,,,,,,,,,,,METAR,255.0
KMSO 252053Z 20006KT 10SM OVC060 13/02 A3011 RMK AO2 SLP200 T01330017 55012,KMSO,2023-04-25T20:53:00Z,46.92,-114.1,13.3,1.7,200,6,,10.0,30.109253,1020.0,,,TRUE,,,,,,,OVC,6000,,,,,,,VFR,-1.2,,,,,,,,,,,METAR,974.0
KMSN 252053Z 00000KT 10SM -RA SCT041 BKN050 OVC060 08/M02 A3019 RMK AO2 RAB50 SLP230 P0000 60000 T00781017 51002,KMSN,2023-04-25T20:53:00Z,43.13,-89.35,7.8,-1.7,0,0,,10.0,30.188976,1023.0,,,TRUE,,,,,,-RA,SCT,4100,BKN,5000,OVC,6000,,,VFR,0.2,,,,,0.005,0.005,,,,,METAR,262.0
KMSL 252053Z AUTO 05003KT 10SM CLR 20/M01 A3006 RMK AO2 SLP178 T02001011 58017,KMSL,2023-04-25T20:53:00Z,34.75,-87.6,20.0,-1.1,50,3,,10.0,30.059055,1017.8,,TRUE,TRUE,,,,,,,CLR,,,,,,,,VFR,-1.7,,,,,,,,,,,METAR,170.0
KMRB 252053Z 11010G15KT 10SM CLR 14/M03 A3016 RMK AO2 SLP214 T01391028 56007,KMRB,2023-04-25T20:53:00Z,39.4,-77.98,13.9,-2.8,110,10,15,10.0,30.159449,1021.4,,,TRUE,,,,,,,CLR,,,,,,,,VFR,-0.7,,,,,,,,,,,METAR,165.0
KMPO 252053Z AUTO VRB03KT 10SM CLR 09/M06 A3014 RMK AO2 SLP217 T00891061 55001,KMPO,2023-04-25T20:53:00Z,41.13,-75.38,8.9,-6.1,0,3,,10.0,30.138779,1021.7,,TRUE,TRUE,,,,,,,CLR,,,,,,,,VFR,-0.1,,,,,,,,,,,METAR,576.0
KMOD 252053Z 32014KT 10SM CLR 27/03 A2989 RMK AO2 SLP120 T02670028 58014,KMOD,2023-04-25T20:53:00Z,37.62,-120.95,26.7,2.8,320,14,,10.0,29.890747,1012.0,,,TRUE,,,,,,,CLR,,,,,,,,VFR,-1.4,,,,,,,,,,,METAR,25.0
KMNN 252053Z AUTO 25009KT 8SM OVC060 11/M03 A3013 RMK AO2 SLP210 T01111028 56009,KMNN,2023-04-25T20:53:00Z,40.62,-83.07,11.1,-2.8,250,9,,8.0,30.129921,1021.0,,TRUE,TRUE,,,,,,,OVC,6000,,,,,,,VFR,-0.9,,,,,,,,,,,METAR,301.0
KMMV 252053Z AUTO 36005KT 10SM CLR 16/06 A3020 RMK AO2 SLP226 T01610061 57017,KMMV,2023-04-25T20:53:00Z,45.2,-123.13,16.1,6.1,360,5,,10.0,30.200787,1022.6,,TRUE,TRUE,,,,,,,CLR,,,,,,,,VFR,-1.7,,,,,,,,,,,METAR,48.0
KMMK 252053Z AUTO 00000KT 10SM BKN070 OVC085 14/M01 A3014 RMK AO2 SLP207 60000 T01391011 53002,KMMK,2023-04-25T20:53:00Z,41.52,-72.83,13.9,-1.1,0,0,,10.0,30.138779,1020.7,,TRUE,TRUE,,,,,,,BKN,7000,OVC,8500,,,,,VFR,0.2,,,,,,0.005,,,,,METAR,30.0
KMLU 252053Z 08003KT 10SM OVC075 22/08 A3001 RMK AO2 SLP160 T02220083 58019,KMLU,2023-04-25T20:53:00Z,32.52,-92.03,22.2,8.3,80,3,,10.0,30.008858,1016.0,,,TRUE,,,,,,,OVC,7500,,,,,,,VFR,-1.9,,,,,,,,,,,METAR,22.0
KMLT 252053Z AUTO 13004KT 10SM FEW009 OVC013 07/06 A3023 RMK AO2 RAB29E39 SLP245 P0000 60000 T00670056 53003,KMLT,2023-04-25T20:53:00Z,45.65,-68.7,6.7,5.6,130,4,,10.0,30.230314,1024.5,,TRUE,TRUE,,,,,,,FEW,900,OVC,1300,,,,,MVFR,0.3,,,,,0.005,0.005,,,,,METAR,121.0
KMLS 252053Z AUTO 20004KT 10SM CLR 14/01 A2999 RMK AO2 SLP158 T01440006 58011,KMLS,2023-04-25T20:53:00Z,46.43,-105.88,14.4,0.6,200,4,,10.0,29.991142,1015.8,,TRUE,TRUE,,,,,,,CLR,,,,,,,,VFR,-1.1,,,,,,,,,,,METAR,800.0
KMLP 252053Z AUTO VRB04KT 10SM FEW019 BKN033 OVC040 05/M01 A3014 RMK AO2 SLP172 T00501006 52003,KMLP,2023-04-25T20:53:00Z,47.45,-115.67,5.0,-0.6,0,4,,10.0,30.138779,1017.2,,TRUE,TRUE,,,,,,,FEW,1900,BKN,3300,OVC,4000,,,VFR,0.3,,,,,,,,,,,METAR,1837.0
KMKL 252053Z 09007KT 050V110 10SM CLR 21/M01 A3007 RMK AO2 SLP181 T02061011 56019,KMKL,2023-04-25T20:53:00Z,35.6,-88.92,20.6,-1.1,90,7,,10.0,30.070866,1018.1,,,TRUE,,,,,,,CLR,,,,,,,,VFR,-1.9,,,,,,,,,,,METAR,130.0
KMIW 252053Z AUTO 02007KT 10SM CLR 14/M04 A3014 RMK AO2 SLP208 T01441039 57006,KMIW,2023-04-25T20:53:00Z,42.12,-92.92,14.4,-3.9,20,7,,10.0,30.138779,1020.8,,TRUE,TRUE,,,,,,,CLR,,,,,,,,VFR,-0.6,,,,,,,,,,,METAR,296.0
KMIE 252053Z 25008G18KT 10SM FEW060 FEW075 14/00 A3010 RMK AO2 SLP191 T01440000 57010,KMIE,2023-04-25T20:53:00Z,40.23,-85.4,14.4,0.0,250,8,18,10.0,30.100393,1019.1,,,TRUE,,,,,,,FEW,6000,FEW,7500,,,,,VFR,-1.0,,,,,,,,,,,METAR,286.0
KMIC 252053Z VRB04KT 10SM SCT060 09/M06 A3024 RMK AO2 SLP247 T00941056 56003,KMIC,2023-04-25T20:53:00Z,45.07,-93.35,9.4,-5.6,0,4,,10.0,30.239174,1024.7,,,TRUE,,,,,,,SCT,6000,,,,,,,VFR,-0.3,,,,,,,,,,,METAR,263.0
KMIA 252053Z 14010KT 10SM FEW028 FEW060 FEW250 29/22 A2988 RMK AO2 SLP118 T02890217 56017 $,KMIA,2023-04-25T20:53:00Z,25.8,-80.32,28.9,21.7,140,10,,10.0,29.878937,1011.8,,,TRUE,TRUE,,,,,,FEW,2800,FEW,6000,FEW,25000,,,VFR,-1.7,,,,,,,,,,,METAR,1.0
KMHE 252053Z AUTO 09008KT 10SM BKN095 14/M04 A3015 RMK AO2 SLP215 T01441039 58006,KMHE,2023-04-25T20:53:00Z,43.77,-98.03,14.4,-3.9,90,8,,10.0,30.15059,1021.5,,TRUE,TRUE,,,,,,,BKN,9500,,,,,,,VFR,-0.6,,,,,,,,,,,METAR,397.0
KMGY 252053Z AUTO 26009G18KT 10SM FEW070 SCT100 14/M03 A3012 RMK AO2 SLP201 T01391033 58014,KMGY,2023-04-25T20:53:00Z,39.6,-84.23,13.9,-3.3,260,9,18,10.0,30.121063,1020.1,,TRUE,TRUE,,,,,,,FEW,7000,SCT,10000,,,,,VFR,-1.4,,,,,,,,,,,METAR,290.0
KMGW 252053Z VRB04KT 10SM BKN100 14/M06 A3014 RMK AO2 SLP209 T01441056 58014,KMGW,2023-04-25T20:53:00Z,39.65,-79.92,14.4,-5.6,0,4,,10.0,30.138779,1020.9,,,TRUE,,,,,,,BKN,10000,,,,,,,VFR,-1.4,,,,,,,,,,,METAR,375.0
KMGM 252053Z 23004KT 10SM CLR 26/09 A3000 RMK AO2 SLP156 T02560094 58017,KMGM,2023-04-25T20:53:00Z,32.3,-86.4,25.6,9.4,230,4,,10.0,30.0,1015.6,,,TRUE,,,,,,,CLR,,,,,,,,VFR,-1.7,,,,,,,,,,,METAR,64.0
KMFR 252053Z COR 32007KT 10SM CLR 20/02 A3008 RMK AO2 SLP182 T02000022 57029,KMFR,2023-04-25T20:53:00Z,42.38,-122.87,20.0,2.2,320,7,,10.0,30.079725,1018.2,TRUE,,TRUE,,,,,,,CLR,,,,,,,,VFR,-2.9,,,,,,,,,,,METAR,397.0
KMFE 252053Z 15003KT 10SM FEW033 28/20 A2980 RMK AO2 SLP089 T02830200 58023,KMFE,2023-04-25T20:53:00Z,26.18,-98.25,28.3,20.0,150,3,,10.0,29.799213,1008.9,,,TRUE,,,,,,,FEW,3300,,,,,,,VFR,-2.3,,,,,,,,,,,METAR,29.0
KMDW 252053Z 02014KT 10SM BKN022 07/01 A3019 RMK AO2 SLP228 T00720006 51009,KMDW,2023-04-25T20:53:00Z,41.78,-87.75,7.2,0.6,20,14,,10.0,30.188976,1022.8,,,TRUE,,,,,,,BKN,2200,,,,,,,MVFR,0.9,,,,,,,,,,,METAR,186.0
KMCW 252053Z AUTO 05006G16KT 10SM CLR 11/M06 A3018 RMK AO2 SLP225 T01111061 58005,KMCW,2023-04-25T20:53:00Z,43.15,-93.33,11.1,-6.1,50,6,16,10.0,30.180119,1022.5,,TRUE,TRUE,,,,,,,CLR,,,,,,,,VFR,-0.5,,,,,,,,,,,METAR,363.0
KMCN 252053Z 00000KT 10SM FEW050 25/12 A3000 RMK AO2 SLP157 T02500117 58012,KMCN,2023-04-25T20:53:00Z,32.68,-83.65,25.0,11.7,0,0,,10.0,30.0,1015.7,,,TRUE,,,,,,,FEW,5000,,,,,,,VFR,-1.2,,,,,,,,,,,METAR,104.0
KMCK 252053Z AUTO 12015G23KT 10SM OVC036 13/05 A2999 RMK AO2 SLP160 T01280050 53003,KMCK,2023-04-25T20:53:00Z,40.2,-100.58,12.8,5.0,120,15,23,10.0,29.991142,1016.0,,TRUE,TRUE,,,,,,,OVC,3600,,,,,,,VFR,0.3,,,,,,,,,,,METAR,780.0
KMCI 252053Z 12010G15KT 10SM BKN055 BKN200 19/06 A3005 RMK AO2 SLP174 T01940056 56012,KMCI,2023-04-25T20:53:00Z,39.3,-94.73,19.4,5.6,120,10,15,10.0,30.050198,1017.4,,,TRUE,,,,,,,BKN,5500,BKN,20000,,,,,VFR,-1.2,,,,,,,,,,,METAR,308.0
KMCE 252053Z AUTO 34007KT 10SM CLR 26/05 A2989 RMK AO2 SLP122 T02610050 58011,KMCE,2023-04-25T20:53:00Z,37.28,-120.5,26.1,5.0,340,7,,10.0,29.890747,1012.2,,TRUE,TRUE,,,,,,,CLR,,,,,,,,VFR,-1.1,,,,,,,,,,,METAR,49.0
KMCB 252053Z AUTO VRB03KT 10SM CLR 24/10 A2996 RMK AO2 SLP142 T02440100 56021,KMCB,2023-04-25T20:53:00Z,31.18,-90.47,24.4,10.0,0,3,,10.0,29.958662,1014.2,,TRUE,TRUE,,,,,,,CLR,,,,,,,,VFR,-2.1,,,,,,,,,,,METAR,124.0
KMBS 252053Z 23004KT 10SM OVC085 09/M06 A3014 RMK AO2 SLP212 T00941056 56004,KMBS,2023-04-25T20:53:00Z,43.53,-84.08,9.4,-5.6,230,4,,10.0,30.138779,1021.2,,,TRUE,,,,,,,OVC,8500,,,,,,,VFR,-0.4,,,,,,,,,,,METAR,201.0
KMAI 252053Z AUTO 02010KT 10SM CLR 28/14 A2993 RMK AO1 LTG DSNT S AND SW SLP134 T02780139 58018,KMAI,2023-04-25T20:53:00Z,30.83,-85.18,27.8,13.9,20,10,,10.0,29.929134,1013.4,,TRUE,TRUE,,,,,,,CLR,,,,,,,,VFR,-1.8,,,,,,,,,,,METAR,33.0
KMAF 252053Z 8SM CLR 28/06 A2978 RMK AO2 SLP046 T02780056 58022 $,KMAF,2023-04-25T20:53:00Z,31.95,-102.2,27.8,5.6,,,,8.0,29.778543,1004.6,,,TRUE,TRUE,,,,,,CLR,,,,,,,,VFR,-2.2,,,,,,,,,,,METAR,874.0
KLXT 252053Z AUTO 16007KT 10SM FEW070 19/03 A3006 RMK AO2 SLP177 T01890028 56014,KLXT,2023-04-25T20:53:00Z,38.97,-94.37,18.9,2.8,160,7,,10.0,30.059055,1017.7,,TRUE,TRUE,,,,,,,FEW,7000,,,,,,,VFR,-1.4,,,,,,,,,,,METAR,306.0
KLWV 252053Z AUTO 25008KT 10SM FEW110 19/03 A3009 RMK AO2 SLP190 T01890028 58014,KLWV,2023-04-25T20:53:00Z,38.77,-87.6,18.9,2.8,250,8,,10.0,30.088583,1019.0,,TRUE,TRUE,,,,,,,FEW,11000,,,,,,,VFR,-1.4,,,,,,,,,,,METAR,128.0
KLWD 252053Z AUTO VRB04KT 10SM FEW050 BKN110 17/04 A3008 RMK AO2 SLP189 T01720044 56010,KLWD,2023-04-25T20:53:00Z,40.63,-93.9,17.2,4.4,0,4,,10.0,30.079725,1018.9,,TRUE,TRUE,,,,,,,FEW,5000,BKN,11000,,,,,VFR,-1.0,,,,,,,,,,,METAR,345.0
KLVS 252053Z AUTO 24033G48KT 10SM FEW110 17/M06 A2984 RMK AO2 PK WND 23048/2051 SLP020 T01671061 55014,KLVS,2023-04-25T20:53:00Z,35.65,-105.13,16.7,-6.1,240,33,48,10.0,29.840551,1002.0,,TRUE,TRUE,,,,,,,FEW,11000,,,,,,,VFR,-1.4,,,,,,,,,,,METAR,2095.0
KLVM 252053Z AUTO 25017KT 10SM BKN090 13/02 A3003 RMK AO2 SLP162 T01330017 53000,KLVM,2023-04-25T20:53:00Z,45.7,-110.43,13.3,1.7,250,17,,10.0,30.029528,1016.2,,TRUE,TRUE,,,,,,,BKN,9000,,,,,,,VFR,0.0,,,,,,,,,,,METAR,1418.0
KLVK 252053Z VRB05KT 10SM CLR 27/02 A2990 RMK AO2 SLP123 T02670017 58016,KLVK,2023-04-25T20:53:00Z,37.7,-121.82,26.7,1.7,0,5,,10.0,29.899607,1012.3,,,TRUE,,,,,,,CLR,,,,,,,,VFR,-1.6,,,,,,,,,,,METAR,120.0
KLVJ 252053Z AUTO 13011G17KT 10SM BKN031 26/17 A2990 RMK AO2 SLP125 T02610172 58013,KLVJ,2023-04-25T20:53:00Z,29.52,-95.25,26.1,17.2,130,11,17,10.0,29.899607,1012.5,,TRUE,TRUE,,,,,,,BKN,3100,,,,,,,VFR,-1.3,,,,,,,,,,,METAR,11.0
KLUK 252053Z 00000KT 10SM BKN090 15/M01 A3013 RMK AO2 SLP202 T01501006 56016,KLUK,2023-04-25T20:53:00Z,39.1,-84.42,15.0,-0.6,0,0,,10.0,30.129921,1020.2,,,TRUE,,,,,,,BKN,9000,,,,,,,VFR,-1.6,,,,,,,,,,,METAR,144.0
KLSE 252053Z 28006G15KT 10SM BKN060 11/M05 A3021 RMK AO2 SLP237 T01111050 58002,KLSE,2023-04-25T20:53:00Z,43.88,-91.25,11.1,-5.0,280,6,15,10.0,30.209646,1023.7,,,TRUE,,,,,,,BKN,6000,,,,,,,VFR,-0.2,,,,,,,,,,,METAR,198.0
KLPR 252053Z AUTO 00000KT 10SM BKN046 OVC055 08/02 A3016 RMK AO2 RAE1957 SLP218 P0000 60000 T00830017 58004,KLPR,2023-04-25T20:53:00Z,41.35,-82.18,8.3,1.7,0,0,,10.0,30.159449,1021.8,,TRUE,TRUE,,,,,,,BKN,4600,OVC,5500,,,,,VFR,-0.4,,,,,0.005,0.005,,,,,METAR,241.0
KLOZ 252053Z AUTO 14003KT 10SM CLR 17/M01 A3012 RMK AO2 SLP199 T01671011 58013,KLOZ,2023-04-25T20:53:00Z,37.08,-84.07,16.7,-1.1,140,3,,10.0,30.121063,1019.9,,TRUE,TRUE,,,,,,,CLR,,,,,,,,VFR,-1.3,,,,,,,,,,,METAR,361.0
KLOU 252053Z 00000KT 10SM CLR 18/00 A3010 RMK AO2 SLP194 T01780000 56019,KLOU,2023-04-25T20:53:00Z,38.22,-85.67,17.8,0.0,0,0,,10.0,30.100393,1019.4,,,TRUE,,,,,,,CLR,,,,,,,,VFR,-1.9,,,,,,,,,,,METAR,165.0
KLOL 252053Z AUTO VRB03KT 10SM CLR 16/M07 A3012 RMK AO2 SLP188 T01611072 58009,KLOL,2023-04-25T20:53:00Z,40.07,-118.57,16.1,-7.2,0,3,,10.0,30.121063,1018.8,,TRUE,TRUE,,,,,,,CLR,,,,,,,,VFR,-0.9,,,,,,,,,,,METAR,1191.0
KLNS 252053Z VRB06KT 10SM FEW070 14/M02 A3018 RMK AO2 SLP221 T01391017 55005,KLNS,2023-04-25T20:53:00Z,40.12,-76.3,13.9,-1.7,0,6,,10.0,30.180119,1022.1,,,TRUE,,,,,,,FEW,7000,,,,,,,VFR,-0.5,,,,,,,,,,,METAR,122.0
KLND 252053Z AUTO 12006KT 10SM BKN032 BKN041 OVC060 08/03 A2998 RMK AO2 RAB04E27 SLP137 P0000 60000 T00830033 53012,KLND,2023-04-25T20:53:00Z,42.82,-108.73,8.3,3.3,120,6,,10.0,29.97933,1013.7,,TRUE,TRUE,,,,,,,BKN,3200,BKN,4100,OVC,6000,,,VFR,1.2,,,,,0.005,0.005,,,,,METAR,1700.0
KLMT 252053Z VRB06KT 10SM CLR 17/M02 A3013 RMK AO2 SLP192 T01721022 58015,KLMT,2023-04-25T20:53:00Z,42.15,-121.72,17.2,-2.2,0,6,,10.0,30.129921,1019.2,,,TRUE,,,,,,,CLR,,,,,,,,VFR,-1.5,,,,,,,,,,,METAR,1246.0
KLLQ 252053Z AUTO 03006KT 10SM OVC060 17/08 A3004 RMK AO2 SLP169 T01720083 58017,KLLQ,2023-04-25T20:53:00Z,33.63,-91.75,17.2,8.3,30,6,,10.0,30.041338,1016.9,,TRUE,TRUE,,,,,,,OVC,6000,,,,,,,VFR,-1.7,,,,,,,,,,,METAR,86.0
KLKV 252053Z AUTO VRB05KT 7SM CLR 16/M03 A3015 RMK AO2 SLP207 T01611033 58009,KLKV,2023-04-25T20:53:00Z,42.17,-120.4,16.1,-3.3,0,5,,7.0,30.15059,1020.7,,TRUE,TRUE,,,,,,,CLR,,,,,,,,VFR,-0.9,,,,,,,,,,,METAR,1440.0
KLIT 252053Z VRB06KT 10SM SCT060 OVC085 17/06 A3007 RMK AO2 RAB49E53 SLP183 P0000 60000 T01720061 58016,KLIT,2023-04-25T20:53:00Z,34.73,-92.23,17.2,6.1,0,6,,10.0,30.070866,1018.3,,,TRUE,,,,,,,SCT,6000,OVC,8500,,,,,VFR,-1.6,,,,,0.005,0.005,,,,,METAR,77.0
KLHX 252053Z AUTO 07023G30KT 10SM FEW023 SCT029 13/07 A2980 RMK AO2 PK WND 08030/2048 SLP064 T01330072 56012,KLHX,2023-04-25T20:53:00Z,38.05,-103.52,13.3,7.2,70,23,30,10.0,29.799213,1006.4,,TRUE,TRUE,,,,,,,FEW,2300,SCT,2900,,,,,VFR,-1.2,,,,,,,,,,,METAR,1289.0
KLHQ 252053Z AUTO 32003KT 10SM OVC090 13/M01 A3014 RMK AO2 SLP209 T01331011 56011,KLHQ,2023-04-25T20:53:00Z,39.75,-82.67,13.3,-1.1,320,3,,10.0,30.138779,1020.9,,TRUE,TRUE,,,,,,,OVC,9000,,,,,,,VFR,-1.1,,,,,,,,,,,METAR,259.0
KLGB 252053Z 22008KT 10SM OVC026 18/12 A2990 RMK AO2 SLP126 T01830117 58008,KLGB,2023-04-25T20:53:00Z,33.82,-118.15,18.3,11.7,220,8,,10.0,29.899607,1012.6,,,TRUE,,,,,,,OVC,2600,,,,,,,MVFR,-0.8,,,,,,,,,,,METAR,10.0
KLFT 252053Z 05005KT 10SM BKN043 BKN110 27/16 A2994 RMK AO2 SLP136 T02670156 58019,KLFT,2023-04-25T20:53:00Z,30.2,-91.97,26.7,15.6,50,5,,10.0,29.940945,1013.6,,,TRUE,,,,,,,BKN,4300,BKN,11000,,,,,VFR,-1.9,,,,,,,,,,,METAR,9.0
KLFK 252053Z AUTO 12008KT 10SM SCT060 BKN080 BKN095 21/14 A2994 RMK AO2 SLP135 60000 T02110139 58024,KLFK,2023-04-25T20:53:00Z,31.23,-94.75,21.1,13.9,120,8,,10.0,29.940945,1013.5,,TRUE,TRUE,,,,,,,SCT,6000,BKN,8000,BKN,9500,,,VFR,-2.4,,,,,,0.005,,,,,METAR,87.0
KLEB 252053Z 25005KT 10SM SCT046 BKN060 BKN120 12/01 A3013 RMK AO2 SLP204 T01220006 53002,KLEB,2023-04-25T20:53:00Z,43.63,-72.3,12.2,0.6,250,5,,10.0,30.129921,1020.4,,,TRUE,,,,,,,SCT,4600,BKN,6000,BKN,12000,,,VFR,0.2,,,,,,,,,,,METAR,169.0
KLCH 252053Z 08005KT 10SM CLR 24/15 A2993 RMK AO2 SLP142 T02440150 58021,KLCH,2023-04-25T20:53:00Z,30.13,-93.22,24.4,15.0,80,5,,10.0,29.929134,1014.2,,,TRUE,,,,,,,CLR,,,,,,,,VFR,-2.1,,,,,,,,,,,METAR,2.0
KLBX 252053Z AUTO 11008KT 10SM FEW021 BKN040 OVC055 23/18 A2989 RMK AO2 SLP122 T02330183 56008,KLBX,2023-04-25T20:53:00Z,29.12,-95.47,23.3,18.3,110,8,,10.0,29.890747,1012.2,,TRUE,TRUE,,,,,,,FEW,2100,BKN,4000,OVC,5500,,,VFR,-0.8,,,,,,,,,,,METAR,4.0
KLBF 252053Z AUTO 13011KT 10SM OVC043 14/04 A3001 RMK AO2 SLP163 T01390044 52002,KLBF,2023-04-25T20:53:00Z,41.12,-100.67,13.9,4.4,130,11,,10.0,30.008858,1016.3,,TRUE,TRUE,,,,,,,OVC,4300,,,,,,,VFR,0.2,,,,,,,,,,,METAR,843.0
KLBB 252053Z 18012G16KT 10SM FEW055 SCT250 23/09 A2980 RMK AO2 SLP055 CB DSNT N MOV E TCU DSNT W T02330089 56027,KLBB,2023-04-25T20:53:00Z,33.67,-101.82,23.3,8.9,180,12,16,10.0,29.799213,1005.5,,,TRUE,,,,,,,FEW,5500,SCT,25000,,,,,VFR,-2.7,,,,,,,,,,,METAR,996.0
KLAX 252053Z 24012KT 10SM FEW014 FEW030 19/13 A2991 RMK AO2 SLP127 T01890128 58006 $,KLAX,2023-04-25T20:53:00Z,33.93,-118.38,18.9,12.8,240,12,,10.0,29.911417,1012.7,,,TRUE,TRUE,,,,,,FEW,1400,FEW,3000,,,,,VFR,-0.6,,,,,,,,,,,METAR,30.0
KLAW 252053Z 100/12KT 10SM SCT031 BKN043 OVC060 19/13 A2987,KLAW,2023-04-25T20:53:00Z,34.55,-98.42,19.0,13.0,,,,10.0,29.870079,,,,,,,,,,,SCT,3100,BKN,4300,OVC,6000,,,VFR,,,,,,,,,,,,METAR,328.0
KLAR 252053Z AUTO 35019KT 10SM SCT026 BKN036 BKN049 08/01 A2992 RMK AO2 PK WND 34026/2009 RAB34E47 SLP081 P0000 60000 T00830011 51015,KLAR,2023-04-25T20:53:00Z,41.32,-105.67,8.3,1.1,350,19,,10.0,29.920275,1008.1,,TRUE,TRUE,,,,,,,SCT,2600,BKN,3600,BKN,4900,,,VFR,1.5,,,,,0.005,0.005,,,,,METAR,2217.0
KLAN 252053Z VRB03KT 10SM FEW027 BKN033 08/00 A3016 RMK AO2 SLP219 T00830000 56006 $,KLAN,2023-04-25T20:53:00Z,42.78,-84.58,8.3,0.0,0,3,,10.0,30.159449,1021.9,,,TRUE,TRUE,,,,,,FEW,2700,BKN,3300,,,,,VFR,-0.6,,,,,,,,,,,METAR,261.0
KLAA 252053Z AUTO 7SM OVC006 09/07 A2986 RMK AO2 SLP100 T00890067 56001,KLAA,2023-04-25T20:53:00Z,38.07,-102.68,8.9,6.7,,,,7.0,29.861221,1010.0,,TRUE,TRUE,,,,,,,OVC,600,,,,,,,IFR,-0.1,,,,,,,,,,,METAR,1129.0
KJLN 252053Z COR 10007KT 10SM BKN055 16/06 A3005 RMK AO2 SLP175 T01610056 58007,KJLN,2023-04-25T20:53:00Z,37.15,-94.5,16.1,5.6,100,7,,10.0,30.050198,1017.5,TRUE,,TRUE,,,,,,,BKN,5500,,,,,,,VFR,-0.7,,,,,,,,,,,METAR,297.0
KJKL 252053Z AUTO 00000KT 10SM CLR 17/M02 A3012 RMK AO2 SLP200 T01721022 58014,KJKL,2023-04-25T20:53:00Z,37.6,-83.32,17.2,-2.2,0,0,,10.0,30.121063,1020.0,,TRUE,TRUE,,,,,,,CLR,,,,,,,,VFR,-1.4,,,,,,,,,,,METAR,414.0
KJER 252053Z AUTO 24009G19KT 200V280 10SM CLR 13/M02 A3010 RMK AO2 SLP190 T01331022 58003,KJER,2023-04-25T20:53:00Z,42.72,-114.45,13.3,-2.2,240,9,19,10.0,30.100393,1019.0,,TRUE,TRUE,,,,,,,CLR,,,,,,,,VFR,-0.3,,,,,,,,,,,METAR,1226.0
KJEF 252053Z 06004KT 10SM CLR 21/01 A3007 RMK AO2 SLP170 T02060011 58015 $,KJEF,2023-04-25T20:53:00Z,38.6,-92.15,20.6,1.1,60,4,,10.0,30.070866,1017.0,,,TRUE,TRUE,,,,,,CLR,,,,,,,,VFR,-1.5,,,,,,,,,,,METAR,167.0
KJBR 252053Z AUTO 04006KT 10SM CLR 19/01 A3009 RMK AO2 SLP188 T01890011 56015 $,KJBR,2023-04-25T20:53:00Z,35.83,-90.65,18.9,1.1,40,6,,10.0,30.088583,1018.8,,TRUE,TRUE,TRUE,,,,,,CLR,,,,,,,,VFR,-1.5,,,,,,,,,,,METAR,79.0
KIXD 252053Z 14010KT 10SM BKN070 18/03 A3006 RMK AO2 SLP174 T01830028 56013,KIXD,2023-04-25T20:53:00Z,38.82,-94.88,18.3,2.8,140,10,,10.0,30.059055,1017.4,,,TRUE,,,,,,,BKN,7000,,,,,,,VFR,-1.3,,,,,,,,,,,METAR,322.0
KIWI 252053Z AUTO 10006KT 10SM OVC009 06/04 A3023 RMK AO2 RAE25 CIG 007V012 SLP237 P0004 60006 T00610044 53004,KIWI,2023-04-25T20:53:00Z,43.97,-69.72,6.1,4.4,100,6,,10.0,30.230314,1023.7,,TRUE,TRUE,,,,,,,OVC,900,,,,,,,IFR,0.4,,,,,0.04,0.06,,,,,METAR,16.0
KIPL 252053Z AUTO VRB03KT 10SM CLR 31/07 A2973 RMK AO2 SLP070 6//// T03060067 58017,KIPL,2023-04-25T20:53:00Z,32.83,-115.58,30.6,6.7,0,3,,10.0,29.731298,1007.0,,TRUE,TRUE,,,,,,,CLR,,,,,,,,VFR,-1.7,,,,,,,,,,,METAR,-16.0
KINK 252053Z AUTO 21005KT 10SM CLR 28/M02 A2976 RMK AO2 SLP039 T02831017 58027 $,KINK,2023-04-25T20:53:00Z,31.78,-103.2,28.3,-1.7,210,5,,10.0,29.760826,1003.9,,TRUE,TRUE,TRUE,,,,,,CLR,,,,,,,,VFR,-2.7,,,,,,,,,,,METAR,857.0
KIML 252053Z AUTO 13017G29KT 10SM OVC034 12/04 A2997 RMK AO2 PK WND 13029/2014 SLP156 T01170039 50001,KIML,2023-04-25T20:53:00Z,40.52,-101.62,11.7,3.9,130,17,29,10.0,29.970472,1015.6,,TRUE,TRUE,,,,,,,OVC,3400,,,,,,,VFR,0.1,,,,,,,,,,,METAR,997.0
KILM 252053Z 08010KT 10SM BKN110 22/02 A3011 RMK AO2 SLP195 T02170017 55011,KILM,2023-04-25T20:53:00Z,34.27,-77.9,21.7,1.7,80,10,,10.0,30.109253,1019.5,,,TRUE,,,,,,,BKN,11000,,,,,,,VFR,-1.1,,,,,,,,,,,METAR,9.0
KIDA 252053Z 33007G14KT 10SM BKN050 OVC060 13/02 A3005 RMK AO2 SLP169 T01330022 53000,KIDA,2023-04-25T20:53:00Z,43.52,-112.07,13.3,2.2,330,7,14,10.0,30.050198,1016.9,,,TRUE,,,,,,,BKN,5000,OVC,6000,,,,,VFR,0.0,,,,,,,,,,,METAR,1444.0
KICR 252053Z AUTO 09019G25KT 10SM BKN060 15/M01 A3009 RMK AO2 SLP196 T01501006 55005,KICR,2023-04-25T20:53:00Z,43.38,-99.85,15.0,-0.6,90,19,25,10.0,30.088583,1019.6,,TRUE,TRUE,,,,,,,BKN,6000,,,,,,,VFR,-0.5,,,,,,,,,,,METAR,618.0
KIAH 252053Z 09011KT 10SM SCT038 BKN170 BKN250 24/17 A2987 RMK AO2 SLP115 T02440172 58022,KIAH,2023-04-25T20:53:00Z,30.0,-95.37,24.4,17.2,90,11,,10.0,29.870079,1011.5,,,TRUE,,,,,,,SCT,3800,BKN,17000,BKN,25000,,,VFR,-2.2,,,,,,,,,,,METAR,27.0
KIAG 252053Z 28008KT 10SM BKN065 OVC080 09/01 A3016 RMK AO2 SLP222 T00940006 53003,KIAG,2023-04-25T20:53:00Z,43.12,-78.93,9.4,0.6,280,8,,10.0,30.159449,1022.2,,,TRUE,,,,,,,BKN,6500,OVC,8000,,,,,VFR,0.3,,,,,,,,,,,METAR,179.0
KHZY 252053Z AUTO VRB05KT 10SM -RA BKN039 OVC048 07/M01 A3019 RMK AO2 RAB46 SLP229 P0000 60000 T00671011 51006,KHZY,2023-04-25T20:53:00Z,41.78,-80.7,6.7,-1.1,0,5,,10.0,30.188976,1022.9,,TRUE,TRUE,,,,,,-RA,BKN,3900,OVC,4800,,,,,VFR,0.6,,,,,0.005,0.005,,,,,METAR,279.0
KHYR 252053Z AUTO 04006KT 10SM OVC055 06/M06 A3027 RMK AO2 SLP265 T00561061 50001,KHYR,2023-04-25T20:53:00Z,46.02,-91.45,5.6,-6.1,40,6,,10.0,30.268702,1026.5,,TRUE,TRUE,,,,,,,OVC,5500,,,,,,,VFR,0.1,,,,,,,,,,,METAR,369.0
KHWO 252053Z 16010KT 10SM 30/20 A2988 RMK AO2 SLP118 T03000200 56018 $,KHWO,2023-04-25T20:53:00Z,26.0,-80.23,30.0,20.0,160,10,,10.0,29.878937,1011.8,,,TRUE,TRUE,,,,,,,,,,,,,,,-1.8,,,,,,,,,,,METAR,2.0
KHVR 252053Z AUTO 26011G20KT 10SM FEW070 SCT090 19/01 A2991 RMK AO2 PK WND 23027/2020 SLP133 T01940011 56016,KHVR,2023-04-25T20:53:00Z,48.55,-109.77,19.4,1.1,260,11,20,10.0,29.911417,1013.3,,TRUE,TRUE,,,,,,,FEW,7000,SCT,9000,,,,,VFR,-1.6,,,,,,,,,,,METAR,789.0
KHVN 252053Z 17007KT 10SM BKN090 13/05 A3015 RMK AO2 SLP209 T01330050 53002,KHVN,2023-04-25T20:53:00Z,41.27,-72.88,13.3,5.0,170,7,,10.0,30.15059,1020.9,,,TRUE,,,,,,,BKN,9000,,,,,,,VFR,0.2,,,,,,,,,,,METAR,4.0
KHUL 252053Z AUTO 13005KT 10SM OVC021 08/02 A3022 RMK AO2 SLP238 T00780022 53000,KHUL,2023-04-25T20:53:00Z,46.12,-67.8,7.8,2.2,130,5,,10.0,30.221457,1023.8,,TRUE,TRUE,,,,,,,OVC,2100,,,,,,,MVFR,0.0,,,,,,,,,,,METAR,148.0
KHUF 252053Z 36005KT 10SM -RA FEW038 BKN070 OVC090 14/04 A3010 RMK AO2 RAB48 SLP195 P0000 60000 T01390044 58007,KHUF,2023-04-25T20:53:00Z,39.45,-87.32,13.9,4.4,360,5,,10.0,30.100393,1019.5,,,TRUE,,,,,,-RA,FEW,3800,BKN,7000,OVC,9000,,,VFR,-0.7,,,,,0.005,0.005,,,,,METAR,174.0
KHTL 252053Z AUTO 01006KT 10SM BKN038 OVC046 07/M01 A3014 RMK AO2 SLP217 T00671011 58001,KHTL,2023-04-25T20:53:00Z,44.35,-84.67,6.7,-1.1,10,6,,10.0,30.138779,1021.7,,TRUE,TRUE,,,,,,,BKN,3800,OVC,4600,,,,,VFR,-0.1,,,,,,,,,,,METAR,350.0
KHSV 252053Z 00000KT 10SM BKN250 21/00 A3005 RMK AO2 SLP175 T02060000 58014,KHSV,2023-04-25T20:53:00Z,34.65,-86.78,20.6,0.0,0,0,,10.0,30.050198,1017.5,,,TRUE,,,,,,,BKN,25000,,,,,,,VFR,-1.4,,,,,,,,,,,METAR,190.0
KHSI 252053Z AUTO 13010G18KT 10SM FEW047 OVC055 15/04 A3005 RMK AO2 SLP178 T01500039 55001,KHSI,2023-04-25T20:53:00Z,40.6,-98.43,15.0,3.9,130,10,18,10.0,30.050198,1017.8,,TRUE,TRUE,,,,,,,FEW,4700,OVC,5500,,,,,VFR,-0.1,,,,,,,,,,,METAR,592.0
KHRO 252053Z AUTO 11008KT 10SM OVC047 15/04 A3007 RMK AO2 SLP178 T01500039 56010,KHRO,2023-04-25T20:53:00Z,36.27,-93.15,15.0,3.9,110,8,,10.0,30.070866,1017.8,,TRUE,TRUE,,,,,,,OVC,4700,,,,,,,VFR,-1.0,,,,,,,,,,,METAR,417.0
KHRI 252053Z AUTO 00000KT 10SM CLR 18/04 A3015 RMK AO2 SLP208 T01830039 56025,KHRI,2023-04-25T20:53:00Z,45.83,-119.27,18.3,3.9,0,0,,10.0,30.15059,1020.8,,TRUE,TRUE,,,,,,,CLR,,,,,,,,VFR,-2.5,,,,,,,,,,,METAR,194.0
KHOU 252053Z 11009G17KT 10SM SCT028 SCT050 BKN180 26/17 A2988 RMK AO2 SLP123 T02560172 58014,KHOU,2023-04-25T20:53:00Z,29.63,-95.28,25.6,17.2,110,9,17,10.0,29.878937,1012.3,,,TRUE,,,,,,,SCT,2800,SCT,5000,BKN,18000,,,VFR,-1.4,,,,,,,,,,,METAR,13.0
KHOT 252053Z AUTO 00000KT 2 1/2SM RA OVC049 13/09 A3009 RMK AO2 RAE06B47 SLP186 P0001 60003 T01280094 55006,KHOT,2023-04-25T20:53:00Z,34.48,-93.1,12.8,9.4,0,0,,2.5,30.088583,1018.6,,TRUE,TRUE,,,,,,RA,OVC,4900,,,,,,,IFR,-0.6,,,,,0.01,0.03,,,,,METAR,153.0
KHLN 252053Z 24012G23KT 10SM CLR 14/01 A3007 RMK AO2 SLP193 T01390011 58004,KHLN,2023-04-25T20:53:00Z,46.6,-111.98,13.9,1.1,240,12,23,10.0,30.070866,1019.3,,,TRUE,,,,,,,CLR,,,,,,,,VFR,-0.4,,,,,,,,,,,METAR,1178.0
KHLG 252053Z 27004KT 10SM FEW070 BKN095 13/M04 A3013 RMK AO2 SLP211 T01281039 56014,KHLG,2023-04-25T20:53:00Z,40.17,-80.65,12.8,-3.9,270,4,,10.0,30.129921,1021.1,,,TRUE,,,,,,,FEW,7000,BKN,9500,,,,,VFR,-1.4,,,,,,,,,,,METAR,365.0
KHLC 252053Z AUTO 14010KT 10SM -RA OVC022 12/06 A3001 RMK AO2 RAB49 SLP161 P0000 60000 T01170061 53001,KHLC,2023-04-25T20:53:00Z,39.37,-99.83,11.7,6.1,140,10,,10.0,30.008858,1016.1,,TRUE,TRUE,,,,,,-RA,OVC,2200,,,,,,,MVFR,0.1,,,,,0.005,0.005,,,,,METAR,667.0
KHKY 252053Z VRB03KT 10SM CLR 18/04 A3011 RMK AO2 SLP185 T01780039 56006,KHKY,2023-04-25T20:53:00Z,35.75,-81.38,17.8,3.9,0,3,,10.0,30.109253,1018.5,,,TRUE,,,,,,,CLR,,,,,,,,VFR,-0.6,,,,,,,,,,,METAR,357.0
KHKA 252053Z AUTO 07008KT 10SM CLR 19/01 A3007 RMK AO2 SLP183 T01940011 58017 $,KHKA,2023-04-25T20:53:00Z,35.93,-89.83,19.4,1.1,70,8,,10.0,30.070866,1018.3,,TRUE,TRUE,TRUE,,,,,,CLR,,,,,,,,VFR,-1.7,,,,,,,,,,,METAR,78.0
KHJO 252053Z AUTO 00000KT 10SM CLR 26/09 A2990 RMK AO2 SLP127 T02610094 58013 $,KHJO,2023-04-25T20:53:00Z,36.32,-119.62,26.1,9.4,0,0,,10.0,29.899607,1012.7,,TRUE,TRUE,TRUE,,,,,,CLR,,,,,,,,VFR,-1.3,,,,,,,,,,,METAR,73.0
KHIO 252053Z VRB03KT 10SM CLR 16/07 A3021 RMK AO2 SLP229 T01560072 56016,KHIO,2023-04-25T20:53:00Z,45.55,-122.95,15.6,7.2,0,3,,10.0,30.209646,1022.9,,,TRUE,,,,,,,CLR,,,,,,,,VFR,-1.6,,,,,,,,,,,METAR,62.0
KHIB 252053Z AUTO VRB04KT 10SM BKN055 05/M11 A3027 RMK AO2 SLP268 60000 T00501106 56007,KHIB,2023-04-25T20:53:00Z,47.38,-92.83,5.0,-10.6,0,4,,10.0,30.268702,1026.8,,TRUE,TRUE,,,,,,,BKN,5500,,,,,,,VFR,-0.7,,,,,,0.005,,,,,METAR,409.0
KHHR 252053Z 26010KT 10SM BKN021 OVC028 21/12 A2990 RMK AO2 SLP125 T02060117 58008,KHHR,2023-04-25T20:53:00Z,33.92,-118.33,20.6,11.7,260,10,,10.0,29.899607,1012.5,,,TRUE,,,,,,,BKN,2100,OVC,2800,,,,,MVFR,-0.8,,,,,,,,,,,METAR,21.0
KHGR 252053Z 31009KT 10SM CLR 14/M03 A3018 RMK AO2 SLP231 T01441033 56005 $,KHGR,2023-04-25T20:53:00Z,39.7,-77.73,14.4,-3.3,310,9,,10.0,30.180119,1023.1,,,TRUE,TRUE,,,,,,CLR,,,,,,,,VFR,-0.5,,,,,,,,,,,METAR,206.0
KHFD 252053Z 29009KT 10SM OVC095 14/01 A3014 RMK AO2 SLP206 T01440006 53003,KHFD,2023-04-25T20:53:00Z,41.73,-72.65,14.4,0.6,290,9,,10.0,30.138779,1020.6,,,TRUE,,,,,,,OVC,9500,,,,,,,VFR,0.3,,,,,,,,,,,METAR,3.0
KHEI 252053Z AUTO 13012G21KT 10SM OVC045 08/00 A3013 RMK AO2 SLP220 T00780000 58004,KHEI,2023-04-25T20:53:00Z,46.02,-102.65,7.8,0.0,130,12,21,10.0,30.129921,1022.0,,TRUE,TRUE,,,,,,,OVC,4500,,,,,,,VFR,-0.4,,,,,,,,,,,METAR,824.0
KHBR 252053Z AUTO 10018KT 8SM BKN012 BKN021 17/12 A2987 RMK AO2 SLP107 T01670117 58015,KHBR,2023-04-25T20:53:00Z,34.98,-99.05,16.7,11.7,100,18,,8.0,29.870079,1010.7,,TRUE,TRUE,,,,,,,BKN,1200,BKN,2100,,,,,MVFR,-1.5,,,,,,,,,,,METAR,475.0
KHBG 252053Z AUTO 00000KT 10SM CLR 26/10 A2998 RMK AO2 SLP148 T02610100 58021,KHBG,2023-04-25T20:53:00Z,31.27,-89.25,26.1,10.0,0,0,,10.0,29.97933,1014.8,,TRUE,TRUE,,,,,,,CLR,,,,,,,,VFR,-2.1,,,,,,,,,,,METAR,45.0
KHAO 252053Z AUTO 26004KT 10SM FEW060 BKN070 BKN085 16/M01 A3014 RMK AO2 SLP208 T01561011 56014,KHAO,2023-04-25T20:53:00Z,39.37,-84.52,15.6,-1.1,260,4,,10.0,30.138779,1020.8,,TRUE,TRUE,,,,,,,FEW,6000,BKN,7000,BKN,8500,,,VFR,-1.4,,,,,,,,,,,METAR,185.0
KGZH 252053Z AUTO 35005KT 10SM CLR 27/11 A2997 RMK AO2 SLP145 T02670111 58017,KGZH,2023-04-25T20:53:00Z,31.42,-87.05,26.7,11.1,350,5,,10.0,29.970472,1014.5,,TRUE,TRUE,,,,,,,CLR,,,,,,,,VFR,-1.7,,,,,,,,,,,METAR,77.0
KGWO 252053Z AUTO 03010KT 10SM BKN100 22/06 A3002 RMK AO2 SLP165 T02220056 58018,KGWO,2023-04-25T20:53:00Z,33.5,-90.08,22.2,5.6,30,10,,10.0,30.02067,1016.5,,TRUE,TRUE,,,,,,,BKN,10000,,,,,,,VFR,-1.8,,,,,,,,,,,METAR,42.0
KGVL 252053Z AUTO 05007KT 10SM OVC065 18/06 A3008 RMK AO2 SLP182 T01830061 58007,KGVL,2023-04-25T20:53:00Z,34.27,-83.83,18.3,6.1,50,7,,10.0,30.079725,1018.2,,TRUE,TRUE,,,,,,,OVC,6500,,,,,,,VFR,-0.7,,,,,,,,,,,METAR,387.0
KGUY 252053Z AUTO 14008KT 10SM FEW034 OVC043 17/08 A2980 RMK AO2 SLP068 T01720083 58012,KGUY,2023-04-25T20:53:00Z,36.68,-101.5,17.2,8.3,140,8,,10.0,29.799213,1006.8,,TRUE,TRUE,,,,,,,FEW,3400,OVC,4300,,,,,VFR,-1.2,,,,,,,,,,,METAR,950.0
KGUP 252053Z AUTO 29025G38KT 10SM SCT085 BKN110 17/M04 A2984 RMK AO2 PK WND 28047/2036 RAB12E21B45E53 SLP023 P0000 60000 T01721044 55012,KGUP,2023-04-25T20:53:00Z,35.52,-108.8,17.2,-4.4,290,25,38,10.0,29.840551,1002.3,,TRUE,TRUE,,,,,,,SCT,8500,BKN,11000,,,,,VFR,-1.2,,,,,0.005,0.005,,,,,METAR,1972.0
KGTF 252053Z 22016G28KT 10SM CLR 17/03 A2998 RMK AO2 PK WND 21028/2052 SLP153 T01670028 56011,KGTF,2023-04-25T20:53:00Z,47.47,-111.38,16.7,2.8,220,16,28,10.0,29.97933,1015.3,,,TRUE,,,,,,,CLR,,,,,,,,VFR,-1.1,,,,,,,,,,,METAR,1117.0
KGSP 252053Z 15005KT 10SM OVC090 17/04 A3011 RMK AO2 SLP194 T01720039 56007,KGSP,2023-04-25T20:53:00Z,34.9,-82.22,17.2,3.9,150,5,,10.0,30.109253,1019.4,,,TRUE,,,,,,,OVC,9000,,,,,,,VFR,-0.7,,,,,,,,,,,METAR,285.0
KGSH 252053Z AUTO 36010KT 10SM BKN020 OVC025 08/04 A3014 RMK AO2 SLP210 60001 T00780039 53001,KGSH,2023-04-25T20:53:00Z,41.53,-85.78,7.8,3.9,360,10,,10.0,30.138779,1021.0,,TRUE,TRUE,,,,,,,BKN,2000,OVC,2500,,,,,MVFR,0.1,,,,,,0.01,,,,,METAR,252.0
KGRR 252053Z 18003KT 10SM FEW034 BKN060 BKN080 08/M01 A3015 RMK AO2 RAB10E22 SLP217 P0000 60000 T00781006 56006,KGRR,2023-04-25T20:53:00Z,42.88,-85.52,7.8,-0.6,180,3,,10.0,30.15059,1021.7,,,TRUE,,,,,,,FEW,3400,BKN,6000,BKN,8000,,,VFR,-0.6,,,,,0.005,0.005,,,,,METAR,239.0
KGRI 252053Z 12010KT 10SM BKN050 OVC060 16/03 A3006 RMK AO2 SLP187 T01560033 56003,KGRI,2023-04-25T20:53:00Z,40.97,-98.32,15.6,3.3,120,10,,10.0,30.059055,1018.7,,,TRUE,,,,,,,BKN,5000,OVC,6000,,,,,VFR,-0.3,,,,,,,,,,,METAR,562.0
KGRB 252053Z AUTO 08006KT 10SM OVC065 09/M02 A3020 RMK AO2 SLP234 T00891017 58002,KGRB,2023-04-25T20:53:00Z,44.48,-88.13,8.9,-1.7,80,6,,10.0,30.200787,1023.4,,TRUE,TRUE,,,,,,,OVC,6500,,,,,,,VFR,-0.2,,,,,,,,,,,METAR,209.0
KGPT 252053Z 13011KT 10SM CLR 25/17 A2995 RMK AO2 SLP140 T02500172 58017,KGPT,2023-04-25T20:53:00Z,30.42,-89.08,25.0,17.2,130,11,,10.0,29.949802,1014.0,,,TRUE,,,,,,,CLR,,,,,,,,VFR,-1.7,,,,,,,,,,,METAR,5.0
KGMU 252053Z 08005KT 10SM FEW060 OVC090 18/04 A3010 RMK AO2 SLP191 T01780044 58008,KGMU,2023-04-25T20:53:00Z,34.85,-82.35,17.8,4.4,80,5,,10.0,30.100393,1019.1,,,TRUE,,,,,,,FEW,6000,OVC,9000,,,,,VFR,-0.8,,,,,,,,,,,METAR,309.0
KGLR 252053Z AUTO 31006KT 10SM OVC033 06/M03 A3014 RMK AO2 SLP219 T00561033 53005,KGLR,2023-04-25T20:53:00Z,45.02,-84.68,5.6,-3.3,310,6,,10.0,30.138779,1021.9,,TRUE,TRUE,,,,,,,OVC,3300,,,,,,,VFR,0.5,,,,,,,,,,,METAR,403.0
KGLH 252053Z 06008KT 10SM OVC080 21/04 A3002 RMK AO2 SLP171 T02110039 58020,KGLH,2023-04-25T20:53:00Z,33.47,-90.98,21.1,3.9,60,8,,10.0,30.02067,1017.1,,,TRUE,,,,,,,OVC,8000,,,,,,,VFR,-2.0,,,,,,,,,,,METAR,40.0
KGKY 252053Z 14010KT 10SM SCT031 OVC047 21/13 A2990 RMK AO2 SLP119 T02110128 56017,KGKY,2023-04-25T20:53:00Z,32.67,-97.1,21.1,12.8,140,10,,10.0,29.899607,1011.9,,,TRUE,,,,,,,SCT,3100,OVC,4700,,,,,VFR,-1.7,,,,,,,,,,,METAR,189.0
KGKJ 252053Z AUTO VRB05KT 10SM OVC055 08/M02 A3014 RMK AO2 SLP217 T00831017 55000,KGKJ,2023-04-25T20:53:00Z,41.63,-80.22,8.3,-1.7,0,5,,10.0,30.138779,1021.7,,TRUE,TRUE,,,,,,,OVC,5500,,,,,,,VFR,0.0,,,,,,,,,,,METAR,428.0
KGIF 252053Z AUTO 24011G18KT 10SM -RA SCT046 BKN090 OVC110 25/21 A2989 RMK AO2 LTG DSNT ALQDS RAB27 SLP120 P0000 60000 T02500206 55015,KGIF,2023-04-25T20:53:00Z,28.07,-81.75,25.0,20.6,240,11,18,10.0,29.890747,1012.0,,TRUE,TRUE,,,,,,-RA,SCT,4600,BKN,9000,OVC,11000,,,VFR,-1.5,,,,,0.005,0.005,,,,,METAR,44.0
KGGW 252053Z AUTO 16015G21KT 10SM SCT100 17/M01 A2999 RMK AO2 SLP161 T01671011 56012,KGGW,2023-04-25T20:53:00Z,48.22,-106.62,16.7,-1.1,160,15,21,10.0,29.991142,1016.1,,TRUE,TRUE,,,,,,,SCT,10000,,,,,,,VFR,-1.2,,,,,,,,,,,METAR,698.0
KGGG 252053Z 14009KT 10SM SCT060 OVC080 21/11 A2994 RMK AO2 SLP137 T02110106 56022,KGGG,2023-04-25T20:53:00Z,32.38,-94.72,21.1,10.6,140,9,,10.0,29.940945,1013.7,,,TRUE,,,,,,,SCT,6000,OVC,8000,,,,,VFR,-2.2,,,,,,,,,,,METAR,107.0
KGFL 252053Z AUTO 21008KT 10SM SCT065 OVC085 11/M02 A3015 RMK AO2 SLP215 60000 T01111017 55003,KGFL,2023-04-25T20:53:00Z,43.33,-73.62,11.1,-1.7,210,8,,10.0,30.15059,1021.5,,TRUE,TRUE,,,,,,,SCT,6500,OVC,8500,,,,,VFR,-0.3,,,,,,0.005,,,,,METAR,99.0
KGFK 252053Z VRB03KT 10SM BKN055 08/M04 A3027 RMK AO2 SLP262 T00831044 56006 $,KGFK,2023-04-25T20:53:00Z,47.95,-97.18,8.3,-4.4,0,3,,10.0,30.268702,1026.2,,,TRUE,TRUE,,,,,,BKN,5500,,,,,,,VFR,-0.6,,,,,,,,,,,METAR,256.0
KGEZ 252053Z AUTO 29007KT 10SM OVC070 14/01 A3011 RMK AO2 SLP198 60000 T01390006 58007,KGEZ,2023-04-25T20:53:00Z,39.58,-85.8,13.9,0.6,290,7,,10.0,30.109253,1019.8,,TRUE,TRUE,,,,,,,OVC,7000,,,,,,,VFR,-0.7,,,,,,0.005,,,,,METAR,245.0
KGEY 252053Z AUTO 34014G19KT 10SM FEW080 SCT100 BKN120 19/M02 A2987 RMK AO2 PK WND 34026/2039 WSHFT 2010 LTG DSNT SE SLP098 T01941022 55000,KGEY,2023-04-25T20:53:00Z,44.52,-108.08,19.4,-2.2,340,14,19,10.0,29.870079,1009.8,,TRUE,TRUE,,,,,,,FEW,8000,SCT,10000,BKN,12000,,,VFR,0.0,,,,,,,,,,,METAR,1191.0
KGEG 252053Z 23012G18KT 10SM SCT050 BKN250 14/01 A3015 RMK AO2 SLP211 T01440011 58008,KGEG,2023-04-25T20:53:00Z,47.62,-117.53,14.4,1.1,230,12,18,10.0,30.15059,1021.1,,,TRUE,,,,,,,SCT,5000,BKN,25000,,,,,VFR,-0.8,,,,,,,,,,,METAR,718.0
KGCC 252053Z AUTO 00000KT 10SM BKN050 BKN120 11/05 A2999 RMK AO2 SLP146 60010 T01060050 56002,KGCC,2023-04-25T20:53:00Z,44.33,-105.55,10.6,5.0,0,0,,10.0,29.991142,1014.6,,TRUE,TRUE,,,,,,,BKN,5000,BKN,12000,,,,,VFR,-0.2,,,,,,0.1,,,,,METAR,1328.0
KFYV 252053Z 20011KT 10SM CLR 14/06 A3006 RMK AO2 SLP178 T01440056 58001,KFYV,2023-04-25T20:53:00Z,36.02,-94.17,14.4,5.6,200,11,,10.0,30.059055,1017.8,,,TRUE,,,,,,,CLR,,,,,,,,VFR,-0.1,,,,,,,,,,,METAR,377.0
KFXE 252053Z 13006KT 10SM FEW045 SCT065 SCT080 29/21 A2986 RMK AO2 SLP114 6//// T02890211 56019 PNO,KFXE,2023-04-25T20:53:00Z,26.2,-80.18,28.9,21.1,130,6,,10.0,29.861221,1011.4,,,TRUE,,,,,,,FEW,4500,SCT,6500,SCT,8000,,,VFR,-1.9,,,,,,,,,,,METAR,3.0
KFWN 252053Z AUTO VRB04KT 10SM BKN080 14/M03 A3016 RMK AO2 SLP215 T01391033 55001,KFWN,2023-04-25T20:53:00Z,41.2,-74.63,13.9,-3.3,0,4,,10.0,30.159449,1021.5,,TRUE,TRUE,,,,,,,BKN,8000,,,,,,,VFR,-0.1,,,,,,,,,,,METAR,129.0
KFVE 252053Z AUTO 15005KT 10SM OVC024 07/02 A3021 RMK AO2 SLP235 6//// T00720017,KFVE,2023-04-25T20:53:00Z,47.28,-68.3,7.2,1.7,150,5,,10.0,30.209646,1023.5,,TRUE,TRUE,,,,,,,OVC,2400,,,,,,,MVFR,,,,,,,,,,,,METAR,299.0
KFUL 252053Z 18006KT 10SM BKN028 21/13 A2989 RMK AO2 SLP119 T02110128 58011,KFUL,2023-04-25T20:53:00Z,33.87,-117.98,21.1,12.8,180,6,,10.0,29.890747,1011.9,,,TRUE,,,,,,,BKN,2800,,,,,,,MVFR,-1.1,,,,,,,,,,,METAR,23.0
KFTY 252053Z 23003KT 10SM BKN075 BKN090 22/06 A3003 RMK AO2 SLP164 T02170056 56014,KFTY,2023-04-25T20:53:00Z,33.78,-84.52,21.7,5.6,230,3,,10.0,30.029528,1016.4,,,TRUE,,,,,,,BKN,7500,BKN,9000,,,,,VFR,-1.4,,,,,,,,,,,METAR,245.0
KFTW 252053Z 15011G19KT 10SM FEW036 SCT048 BKN055 22/14 A2988 RMK AO2 SLP112 T02170144 58021 $,KFTW,2023-04-25T20:53:00Z,32.83,-97.37,21.7,14.4,150,11,19,10.0,29.878937,1011.2,,,TRUE,TRUE,,,,,,FEW,3600,SCT,4800,BKN,5500,,,VFR,-2.1,,,,,,,,,,,METAR,213.0
KFST 252053Z AUTO 34009KT 10SM CLR 29/M01 A2979 RMK AO2 SLP046 T02891011 57028 $,KFST,2023-04-25T20:53:00Z,30.92,-102.92,28.9,-1.1,340,9,,10.0,29.790354,1004.6,,TRUE,TRUE,TRUE,,,,,,CLR,,,,,,,,VFR,-2.8,,,,,,,,,,,METAR,917.0
KFSM 252053Z 11004KT 6SM -RA BR FEW060 OVC080 11/09 A3008 RMK AO2 SLP186 P0007 60010 T01110094 58006,KFSM,2023-04-25T20:53:00Z,35.33,-94.37,11.1,9.4,110,4,,6.0,30.079725,1018.6,,,TRUE,,,,,,-RA BR,FEW,6000,OVC,8000,,,,,VFR,-0.6,,,,,0.07,0.1,,,,,METAR,136.0
KFRG 252053Z 33007KT 10SM SCT065 SCT085 14/01 A3015 RMK AO2 SLP209 T01440006 55001,KFRG,2023-04-25T20:53:00Z,40.73,-73.42,14.4,0.6,330,7,,10.0,30.15059,1020.9,,,TRUE,,,,,,,SCT,6500,SCT,8500,,,,,VFR,-0.1,,,,,,,,,,,METAR,23.0
KFOK 252053Z 23004KT 10SM OVC080 13/07 A3017 RMK AO2 SLPNO T01280067 55002 $,KFOK,2023-04-25T20:53:00Z,40.85,-72.62,12.8,6.7,230,4,,10.0,30.171259,,,,TRUE,TRUE,,,,,,OVC,8000,,,,,,,VFR,-0.2,,,,,,,,,,,METAR,13.0
KFOE 252053Z 13008KT 10SM BKN075 19/04 A3004 RMK AO2 SLP170 T01890044 56014,KFOE,2023-04-25T20:53:00Z,38.93,-95.65,18.9,4.4,130,8,,10.0,30.041338,1017.0,,,TRUE,,,,,,,BKN,7500,,,,,,,VFR,-1.4,,,,,,,,,,,METAR,315.0
KFNT 252053Z 00000KT 10SM FEW027 SCT049 OVC060 08/01 A3015 RMK AO2 SLP218 T00780011 56002,KFNT,2023-04-25T20:53:00Z,42.97,-83.75,7.8,1.1,0,0,,10.0,30.15059,1021.8,,,TRUE,,,,,,,FEW,2700,SCT,4900,OVC,6000,,,VFR,-0.2,,,,,,,,,,,METAR,235.0
KFNB 252053Z AUTO 08007KT 10SM FEW055 SCT070 19/06 A3005 RMK AO2 SLP173 T01890061 58015,KFNB,2023-04-25T20:53:00Z,40.07,-95.58,18.9,6.1,80,7,,10.0,30.050198,1017.3,,TRUE,TRUE,,,,,,,FEW,5500,SCT,7000,,,,,VFR,-1.5,,,,,,,,,,,METAR,301.0
KFMY 252053Z 26014G22KT 10SM CLR 30/20 A2987 RMK AO2 SLP117 T03000200 58011,KFMY,2023-04-25T20:53:00Z,26.58,-81.87,30.0,20.0,260,14,22,10.0,29.870079,1011.7,,,TRUE,,,,,,,CLR,,,,,,,,VFR,-1.1,,,,,,,,,,,METAR,4.0
KFMN 252053Z 28025G32KT 10SM CLR 17/M05 A2978 RMK AO2 PK WND 29036/2036 SLP051 T01721050 55001,KFMN,2023-04-25T20:53:00Z,36.75,-108.23,17.2,-5.0,280,25,32,10.0,29.778543,1005.1,,,TRUE,,,,,,,CLR,,,,,,,,VFR,-0.1,,,,,,,,,,,METAR,1677.0
KFLO 252053Z 06008KT 10SM CLR 22/04 A3010 RMK AO2 SLP189 T02170039 58006 $,KFLO,2023-04-25T20:53:00Z,34.18,-79.73,21.7,3.9,60,8,,10.0,30.100393,1018.9,,,TRUE,TRUE,,,,,,CLR,,,,,,,,VFR,-0.6,,,,,,,,,,,METAR,43.0
KFLL 252053Z 18006G17KT 10SM SCT032 28/21 A2986,KFLL,2023-04-25T20:53:00Z,26.07,-80.15,28.0,21.0,180,6,17,10.0,29.861221,,,,,,,,,,,SCT,3200,,,,,,,VFR,,,,,,,,,,,,METAR,1.0
KFLD 252053Z AUTO 05007KT 10SM SCT065 09/M04 A3020 RMK AO2 SLP233 T00891044 55002,KFLD,2023-04-25T20:53:00Z,43.77,-88.48,8.9,-4.4,50,7,,10.0,30.200787,1023.3,,TRUE,TRUE,,,,,,,SCT,6500,,,,,,,VFR,-0.2,,,,,,,,,,,METAR,242.0
KFHR 252053Z AUTO 17005KT 10SM CLR 13/05 A3029 RMK AO2 SLP256 T01280050 50002,KFHR,2023-04-25T20:53:00Z,48.52,-123.03,12.8,5.0,170,5,,10.0,30.28937,1025.6,,TRUE,TRUE,,,,,,,CLR,,,,,,,,VFR,0.2,,,,,,,,,,,METAR,34.0
KFFT 252053Z AUTO 13004KT 10SM CLR 18/M01 A3011 RMK AO2 SLP195 T01781011 57018,KFFT,2023-04-25T20:53:00Z,38.18,-84.9,17.8,-1.1,130,4,,10.0,30.109253,1019.5,,TRUE,TRUE,,,,,,,CLR,,,,,,,,VFR,-1.8,,,,,,,,,,,METAR,235.0
KFFC 252053Z AUTO VRB03KT 10SM FEW070 23/05 A3002 RMK AO2 SLP164 T02280050 58013,KFFC,2023-04-25T20:53:00Z,33.35,-84.57,22.8,5.0,0,3,,10.0,30.02067,1016.4,,TRUE,TRUE,,,,,,,FEW,7000,,,,,,,VFR,-1.3,,,,,,,,,,,METAR,242.0
KFDY 252053Z AUTO 22009KT 10SM OVC050 11/01 A3012 RMK AO2 SLP200 T01110006 56004,KFDY,2023-04-25T20:53:00Z,41.02,-83.67,11.1,0.6,220,9,,10.0,30.121063,1020.0,,TRUE,TRUE,,,,,,,OVC,5000,,,,,,,VFR,-0.4,,,,,,,,,,,METAR,247.0
KFDR 252053Z AUTO 18013G18KT 10SM SCT033 BKN055 23/13 A2980 RMK AO2 SLP079 T02330128 56021,KFDR,2023-04-25T20:53:00Z,34.35,-98.98,23.3,12.8,180,13,18,10.0,29.799213,1007.9,,TRUE,TRUE,,,,,,,SCT,3300,BKN,5500,,,,,VFR,-2.1,,,,,,,,,,,METAR,378.0
KFCM 252053Z 03008KT 340V050 10SM FEW060 09/M05 A3023 RMK AO2 SLP243 T00941050 58004,KFCM,2023-04-25T20:53:00Z,44.83,-93.47,9.4,-5.0,30,8,,10.0,30.230314,1024.3,,,TRUE,,,,,,,FEW,6000,,,,,,,VFR,-0.4,,,,,,,,,,,METAR,276.0
KFAY 252053Z 00000KT 10SM BKN110 20/06 A3011 RMK AO2 SLP189 T02000056 $,KFAY,2023-04-25T20:53:00Z,34.98,-78.88,20.0,5.6,0,0,,10.0,30.109253,1018.9,,,TRUE,TRUE,,,,,,BKN,11000,,,,,,,VFR,,,,,,,,,,,,METAR,57.0
KFAT 252053Z VRB03KT 10SM FEW100 BKN200 BKN250 26/08 A2990 RMK AO2 SLP124 MTNS OBSC HZ DSNT N-E-S T02560083 58011,KFAT,2023-04-25T20:53:00Z,36.78,-119.72,25.6,8.3,0,3,,10.0,29.899607,1012.4,,,TRUE,,,,,,,FEW,10000,BKN,20000,BKN,25000,,,VFR,-1.1,,,,,,,,,,,METAR,102.0
KFAR 252053Z 07004KT 10SM OVC060 10/M04 A3026 RMK AO2 SLP255 T01001039 56007,KFAR,2023-04-25T20:53:00Z,46.9,-96.82,10.0,-3.9,70,4,,10.0,30.259842,1025.5,,,TRUE,,,,,,,OVC,6000,,,,,,,VFR,-0.7,,,,,,,,,,,METAR,276.0
KEYW 252053Z 17007KT 10SM CLR 27/22 A2990 RMK AO2 SLP129 T02670222 56014,KEYW,2023-04-25T20:53:00Z,24.55,-81.75,26.7,22.2,170,7,,10.0,29.899607,1012.9,,,TRUE,,,,,,,CLR,,,,,,,,VFR,-1.4,,,,,,,,,,,METAR,1.0
KEYE 252053Z AUTO 24006KT 10SM OVC055 14/02 A3010 RMK AO2 SLP195 T01390022 58007,KEYE,2023-04-25T20:53:00Z,39.83,-86.3,13.9,2.2,240,6,,10.0,30.100393,1019.5,,TRUE,TRUE,,,,,,,OVC,5500,,,,,,,VFR,-0.7,,,,,,,,,,,METAR,248.0
KEWB 252053Z 14012KT 10SM OVC055 12/07 A3013 RMK AO2 SLP201 T01170067 53005,KEWB,2023-04-25T20:53:00Z,41.68,-70.95,11.7,6.7,140,12,,10.0,30.129921,1020.1,,,TRUE,,,,,,,OVC,5500,,,,,,,VFR,0.5,,,,,,,,,,,METAR,22.0
KETH 252053Z AUTO 08008G14KT 10SM SCT060 09/M04 A3026 RMK AO2,KETH,2023-04-25T20:53:00Z,45.78,-96.55,9.0,-4.0,80,8,14,10.0,30.259842,,,TRUE,TRUE,,,,,,,SCT,6000,,,,,,,VFR,,,,,,,,,,,,METAR,309.0
KESF 252053Z AUTO 00000KT 10SM FEW055 SCT080 OVC110 22/13 A2996 RMK AO2 SLP144 T02220133 58016,KESF,2023-04-25T20:53:00Z,31.4,-92.28,22.2,13.3,0,0,,10.0,29.958662,1014.4,,TRUE,TRUE,,,,,,,FEW,5500,SCT,8000,OVC,11000,,,VFR,-1.6,,,,,,,,,,,METAR,27.0
KEQY 252053Z AUTO 20003KT 10SM FEW055 BKN075 OVC090 17/07 A3011 RMK AO2 RAB10E36 SLP206 P0000 60000 T01720072 58002,KEQY,2023-04-25T20:53:00Z,35.02,-80.62,17.2,7.2,200,3,,10.0,30.109253,1020.6,,TRUE,TRUE,,,,,,,FEW,5500,BKN,7500,OVC,9000,,,VFR,-0.2,,,,,0.005,0.005,,,,,METAR,205.0
KEPH 252053Z AUTO 19006G15KT 10SM CLR 17/03 A3013 RMK AO2 SLP203 T01720028 58012,KEPH,2023-04-25T20:53:00Z,47.3,-119.52,17.2,2.8,190,6,15,10.0,30.129921,1020.3,,TRUE,TRUE,,,,,,,CLR,,,,,,,,VFR,-1.2,,,,,,,,,,,METAR,382.0
KENW 252053Z 03009KT 10SM SCT035 09/M01 A3020 RMK AO2 SLP233 T00891006 50001,KENW,2023-04-25T20:53:00Z,42.6,-87.93,8.9,-0.6,30,9,,10.0,30.200787,1023.3,,,TRUE,,,,,,,SCT,3500,,,,,,,VFR,0.1,,,,,,,,,,,METAR,222.0
KEMP 252053Z AUTO 13009G19KT 10SM BKN095 18/03 A3002 RMK AO2 SLP164 T01830033 58015,KEMP,2023-04-25T20:53:00Z,38.33,-96.2,18.3,3.3,130,9,19,10.0,30.02067,1016.4,,TRUE,TRUE,,,,,,,BKN,9500,,,,,,,VFR,-1.5,,,,,,,,,,,METAR,366.0
KELN 252053Z AUTO 00000KT 10SM CLR 17/02 A3012 RMK AO2 SLP200 T01720022 56013,KELN,2023-04-25T20:53:00Z,47.03,-120.53,17.2,2.2,0,0,,10.0,30.121063,1020.0,,TRUE,TRUE,,,,,,,CLR,,,,,,,,VFR,-1.3,,,,,,,,,,,METAR,532.0
KELM 252053Z 19007KT 10SM BKN070 OVC090 12/M03 A3014 RMK AO2 SLP213 T01171028 56010,KELM,2023-04-25T20:53:00Z,42.15,-76.9,11.7,-2.8,190,7,,10.0,30.138779,1021.3,,,TRUE,,,,,,,BKN,7000,OVC,9000,,,,,VFR,-1.0,,,,,,,,,,,METAR,287.0
KELD 252053Z AUTO 09011KT 10SM OVC065 19/07 A3001 RMK AO2 SLP160 T01890072 58020,KELD,2023-04-25T20:53:00Z,33.22,-92.82,18.9,7.2,90,11,,10.0,30.008858,1016.0,,TRUE,TRUE,,,,,,,OVC,6500,,,,,,,VFR,-2.0,,,,,,,,,,,METAR,76.0
KEET 252053Z AUTO 00000KT 10SM CLR 22/06 A3002 RMK AO2 SLP163 T02220061 58015,KEET,2023-04-25T20:53:00Z,33.18,-86.78,22.2,6.1,0,0,,10.0,30.02067,1016.3,,TRUE,TRUE,,,,,,,CLR,,,,,,,,VFR,-1.5,,,,,,,,,,,METAR,172.0
KEEO 252053Z AUTO 01007KT 10SM BKN034 06/01 A2994 RMK AO2 SLP124 T00610006 52004,KEEO,2023-04-25T20:53:00Z,40.05,-107.88,6.1,0.6,10,7,,10.0,29.940945,1012.4,,TRUE,TRUE,,,,,,,BKN,3400,,,,,,,VFR,0.4,,,,,,,,,,,METAR,1957.0
KECP 252053Z 31005KT 10SM SCT030 BKN070 26/17 A2993 RMK AO1 LTG DSNT E RAB13E52 SLP148 P0000 60000 T02560167 58012,KECP,2023-04-25T20:53:00Z,30.35,-85.8,25.6,16.7,310,5,,10.0,29.929134,1014.8,,,TRUE,,,,,,,SCT,3000,BKN,7000,,,,,VFR,-1.2,,,,,0.005,0.005,,,,,METAR,17.0
KDXR 252053Z VRB06KT 10SM BKN060 BKN075 OVC090 13/M01 A3015 RMK AO2 SLP212 T01331006 53003,KDXR,2023-04-25T20:53:00Z,41.37,-73.48,13.3,-0.6,0,6,,10.0,30.15059,1021.2,,,TRUE,,,,,,,BKN,6000,BKN,7500,OVC,9000,,,VFR,0.3,,,,,,,,,,,METAR,138.0
KDWH 252053Z AUTO 09012G17KT 10SM FEW035 26/17 A2986 RMK AO2 SLP109 T02610172 58025,KDWH,2023-04-25T20:53:00Z,30.07,-95.55,26.1,17.2,90,12,17,10.0,29.861221,1010.9,,TRUE,TRUE,,,,,,,FEW,3500,,,,,,,VFR,-2.5,,,,,,,,,,,METAR,46.0
KDVT 252053Z 26011G19KT 10SM CLR 29/04 A2977 RMK AO2 SLP059 T02940039 58022,KDVT,2023-04-25T20:53:00Z,33.68,-112.07,29.4,3.9,260,11,19,10.0,29.769686,1005.9,,,TRUE,,,,,,,CLR,,,,,,,,VFR,-2.2,,,,,,,,,,,METAR,454.0
KDUJ 252053Z AUTO 21007KT 170V240 10SM OVC060 11/M04 A3013 RMK AO2 SLP214 T01061039 56007,KDUJ,2023-04-25T20:53:00Z,41.17,-78.9,10.6,-3.9,210,7,,10.0,30.129921,1021.4,,TRUE,TRUE,,,,,,,OVC,6000,,,,,,,VFR,-0.7,,,,,,,,,,,METAR,552.0
KDTW 252053Z 02004KT 10SM OVC011 05/02 A3017 RMK AO2 RAE49 SLP223 P0001 60005 T00500022 56004 $,KDTW,2023-04-25T20:53:00Z,42.23,-83.33,5.0,2.2,20,4,,10.0,30.171259,1022.3,,,TRUE,TRUE,,,,,,OVC,1100,,,,,,,MVFR,-0.4,,,,,0.01,0.05,,,,,METAR,192.0
KDTS 252053Z VRB05KT 10SM CLR 24/18 A2995 RMK AO2 SLP141 T02440178 58015,KDTS,2023-04-25T20:53:00Z,30.4,-86.47,24.4,17.8,0,5,,10.0,29.949802,1014.1,,,TRUE,,,,,,,CLR,,,,,,,,VFR,-1.5,,,,,,,,,,,METAR,5.0
KDTO 252053Z 11009KT 10SM BKN036 BKN045 21/12 A2990 RMK AO2 SLP119 T02110122 56022,KDTO,2023-04-25T20:53:00Z,33.2,-97.2,21.1,12.2,110,9,,10.0,29.899607,1011.9,,,TRUE,,,,,,,BKN,3600,BKN,4500,,,,,VFR,-2.2,,,,,,,,,,,METAR,199.0
KDTN 252053Z 150/07KT 10SM FEW100 22/11 A2997,KDTN,2023-04-25T20:53:00Z,32.55,-93.75,22.0,11.0,,,,10.0,29.970472,,,,,,,,,,,FEW,10000,,,,,,,VFR,,,,,,,,,,,,METAR,53.0
KDRT 252053Z AUTO 11011KT 10SM FEW040 28/16 A2978 RMK AO2 SLP077 T02780156 58026,KDRT,2023-04-25T20:53:00Z,29.37,-100.92,27.8,15.6,110,11,,10.0,29.778543,1007.7,,TRUE,TRUE,,,,,,,FEW,4000,,,,,,,VFR,-2.6,,,,,,,,,,,METAR,303.0
KDRO 252053Z AUTO 28020G32KT 10SM CLR 14/M03 A2980 RMK AO2 PK WND 27043/1956 SLP055 60000 T01441033 55005,KDRO,2023-04-25T20:53:00Z,37.15,-107.77,14.4,-3.3,280,20,32,10.0,29.799213,1005.5,,TRUE,TRUE,,,,,,,CLR,,,,,,,,VFR,-0.5,,,,,,0.005,,,,,METAR,2021.0
KDRA 252053Z AUTO 03010G22KT 360V070 10SM CLR 23/M11 A2997 RMK AO2 PK WND 04028/2030 SLP110 T02331106 56015,KDRA,2023-04-25T20:53:00Z,36.62,-116.03,23.3,-10.6,30,10,22,10.0,29.970472,1011.0,,TRUE,TRUE,,,,,,,CLR,,,,,,,,VFR,-1.5,,,,,,,,,,,METAR,988.0
KDNL 252053Z AUTO 05006KT 10SM BKN075 23/08 A3004 RMK AO2 SLP169 T02280078 56012,KDNL,2023-04-25T20:53:00Z,33.47,-82.03,22.8,7.8,50,6,,10.0,30.041338,1016.9,,TRUE,TRUE,,,,,,,BKN,7500,,,,,,,VFR,-1.2,,,,,,,,,,,METAR,126.0
KDMO 252053Z AUTO 10010KT 10SM BKN070 20/03 A3007 RMK AO2 SLP179 T02000028 58016,KDMO,2023-04-25T20:53:00Z,38.72,-93.17,20.0,2.8,100,10,,10.0,30.070866,1017.9,,TRUE,TRUE,,,,,,,BKN,7000,,,,,,,VFR,-1.6,,,,,,,,,,,METAR,271.0
KDMN 252053Z AUTO 25015G27KT 10SM CLR 27/M07 A2984 RMK AO2 PK WND 27030/2028 SLP040 T02721067 57026,KDMN,2023-04-25T20:53:00Z,32.27,-107.72,27.2,-6.7,250,15,27,10.0,29.840551,1004.0,,TRUE,TRUE,,,,,,,CLR,,,,,,,,VFR,-2.6,,,,,,,,,,,METAR,1310.0
KDLS 252053Z AUTO 00000KT 10SM CLR 18/04 A3014 RMK AO2 SLP206 T01830044 58024,KDLS,2023-04-25T20:53:00Z,45.62,-121.17,18.3,4.4,0,0,,10.0,30.138779,1020.6,,TRUE,TRUE,,,,,,,CLR,,,,,,,,VFR,-2.4,,,,,,,,,,,METAR,71.0
KDLN 252053Z AUTO VRB03KT 10SM BKN035 08/01 A3009 RMK AO2 SLP185 T00830011 58005,KDLN,2023-04-25T20:53:00Z,45.25,-112.55,8.3,1.1,0,3,,10.0,30.088583,1018.5,,TRUE,TRUE,,,,,,,BKN,3500,,,,,,,VFR,-0.5,,,,,,,,,,,METAR,1586.0
KDKK 252053Z AUTO 27010G19KT 10SM OVC050 08/02 A3020 RMK AO2 SLP233 T00830017 53008,KDKK,2023-04-25T20:53:00Z,42.5,-79.28,8.3,1.7,270,10,19,10.0,30.200787,1023.3,,TRUE,TRUE,,,,,,,OVC,5000,,,,,,,VFR,0.8,,,,,,,,,,,METAR,205.0
KDHT 252053Z AUTO 15009G18KT 10SM CLR 21/05 A2976 RMK AO2 SLP043 T02110050 56026,KDHT,2023-04-25T20:53:00Z,36.02,-102.55,21.1,5.0,150,9,18,10.0,29.760826,1004.3,,TRUE,TRUE,,,,,,,CLR,,,,,,,,VFR,-2.6,,,,,,,,,,,METAR,1217.0
KDHN 252053Z VRB03KT 10SM FEW090 26/13 A2999 RMK AO2 SLP151 T02610128 58018,KDHN,2023-04-25T20:53:00Z,31.32,-85.45,26.1,12.8,0,3,,10.0,29.991142,1015.1,,,TRUE,,,,,,,FEW,9000,,,,,,,VFR,-1.8,,,,,,,,,,,METAR,113.0
KDFW 252053Z 13011KT 10SM BKN034 BKN043 BKN060 21/13 A2989 RMK AO2 SLP117 T02110133 58020,KDFW,2023-04-25T20:53:00Z,32.9,-97.02,21.1,13.3,130,11,,10.0,29.890747,1011.7,,,TRUE,,,,,,,BKN,3400,BKN,4300,BKN,6000,,,VFR,-2.0,,,,,,,,,,,METAR,168.0
KDFI 252053Z AUTO 36006KT 9SM OVC050 06/03 A3014 RMK AO2 SLP213 60002 T00610033 50001,KDFI,2023-04-25T20:53:00Z,41.33,-84.43,6.1,3.3,360,6,,9.0,30.138779,1021.3,,TRUE,TRUE,,,,,,,OVC,5000,,,,,,,VFR,0.1,,,,,,0.02,,,,,METAR,215.0
KDEW 252053Z AUTO 23014G18KT 10SM FEW055 15/01 A3013 RMK AO2 PK WND 20028/2000 SLP208 T01500011 58013,KDEW,2023-04-25T20:53:00Z,47.97,-117.43,15.0,1.1,230,14,18,10.0,30.129921,1020.8,,TRUE,TRUE,,,,,,,FEW,5500,,,,,,,VFR,-1.3,,,,,,,,,,,METAR,672.0
KDET 252053Z 00000KT 7SM -RA BKN013 OVC017 06/02 A3017 RMK AO2 SLP223 P0000 60005 T00560017 58002,KDET,2023-04-25T20:53:00Z,42.4,-83.02,5.6,1.7,0,0,,7.0,30.171259,1022.3,,,TRUE,,,,,,-RA,BKN,1300,OVC,1700,,,,,MVFR,-0.2,,,,,0.005,0.05,,,,,METAR,190.0
KDEQ 252053Z AUTO 9SM -RA OVC065 14/08 A3002 RMK AO2 LTG DSNT N RAB53 SLP164 P0000 60000 T01390083 58006,KDEQ,2023-04-25T20:53:00Z,34.05,-94.4,13.9,8.3,,,,9.0,30.02067,1016.4,,TRUE,TRUE,,,,,,-RA,OVC,6500,,,,,,,VFR,-0.6,,,,,0.005,0.005,,,,,METAR,107.0
KDCU 252053Z AUTO 25006KT 10SM CLR 21/00 A3007 RMK AO2 SLP180 T02060000 58013,KDCU,2023-04-25T20:53:00Z,34.65,-86.95,20.6,0.0,250,6,,10.0,30.070866,1018.0,,TRUE,TRUE,,,,,,,CLR,,,,,,,,VFR,-1.3,,,,,,,,,,,METAR,180.0
KDBQ 252053Z 03008KT 10SM FEW047 10/M01 A3018 RMK AO2 SLP225 T01001011 50001,KDBQ,2023-04-25T20:53:00Z,42.4,-90.7,10.0,-1.1,30,8,,10.0,30.180119,1022.5,,,TRUE,,,,,,,FEW,4700,,,,,,,VFR,0.1,,,,,,,,,,,METAR,317.0
KDAN 252053Z AUTO 00000KT 10SM FEW120 17/03 A3014 RMK AO2 SLP200 T01670033 58007,KDAN,2023-04-25T20:53:00Z,36.57,-79.33,16.7,3.3,0,0,,10.0,30.138779,1020.0,,TRUE,TRUE,,,,,,,FEW,12000,,,,,,,VFR,-0.7,,,,,,,,,,,METAR,170.0
KDAL 252053Z 16009G17KT 10SM FEW033 SCT047 OVC065 21/12 A2990 RMK AO2 SLP121 BINOVC T02110122 $,KDAL,2023-04-25T20:53:00Z,32.85,-96.85,21.1,12.2,160,9,17,10.0,29.899607,1012.1,,,TRUE,TRUE,,,,,,FEW,3300,SCT,4700,OVC,6500,,,VFR,,,,,,,,,,,,METAR,148.0
KDAB 252053Z 06012KT 10SM FEW019 FEW023 SCT046 BKN150 24/18 A2994 RMK AO2 SLP137 CB DSNT NW T02440178 56016,KDAB,2023-04-25T20:53:00Z,29.18,-81.07,24.4,17.8,60,12,,10.0,29.940945,1013.7,,,TRUE,,,,,,,FEW,1900,FEW,2300,SCT,4600,BKN,15000,VFR,-1.6,,,,,,,,,,,METAR,8.0
KCXO 252053Z 05007KT 10SM FEW038 22/17 A2989 RMK AO2 SLP121 T02170167 58023,KCXO,2023-04-25T20:53:00Z,30.35,-95.42,21.7,16.7,50,7,,10.0,29.890747,1012.1,,,TRUE,,,,,,,FEW,3800,,,,,,,VFR,-2.3,,,,,,,,,,,METAR,69.0
KCUT 252053Z AUTO 09010KT 10SM CLR 07/M01 A3004 RMK AO2 SLP176 T00671006 51012,KCUT,2023-04-25T20:53:00Z,43.73,-103.62,6.7,-0.6,90,10,,10.0,30.041338,1017.6,,TRUE,TRUE,,,,,,,CLR,,,,,,,,VFR,1.2,,,,,,,,,,,METAR,1700.0
KCUB 252053Z AUTO VRB04KT 10SM OVC065 21/06 A3008 RMK AO2 SLP183 T02110061 56008,KCUB,2023-04-25T20:53:00Z,33.97,-81.0,21.1,6.1,0,4,,10.0,30.079725,1018.3,,TRUE,TRUE,,,,,,,OVC,6500,,,,,,,VFR,-0.8,,,,,,,,,,,METAR,55.0
KCSV 252053Z AUTO 10008KT 10SM CLR 17/M04 A3010 RMK AO2 SLP188 T01671039 58012,KCSV,2023-04-25T20:53:00Z,35.95,-85.08,16.7,-3.9,100,8,,10.0,30.100393,1018.8,,TRUE,TRUE,,,,,,,CLR,,,,,,,,VFR,-1.2,,,,,,,,,,,METAR,569.0
KCSM 252053Z 09013KT 3SM BR OVC003 12/11 A2989 RMK AO2 SLP116 T01170106 58013,KCSM,2023-04-25T20:53:00Z,35.35,-99.2,11.7,10.6,90,13,,3.0,29.890747,1011.6,,,TRUE,,,,,,BR,OVC,300,,,,,,,LIFR,-1.3,,,,,,,,,,,METAR,586.0
KCRS 252053Z AUTO 12008KT 10SM SCT065 OVC085 21/14 A2992 RMK AO2 SLP128 T02110139 58022,KCRS,2023-04-25T20:53:00Z,32.03,-96.4,21.1,13.9,120,8,,10.0,29.920275,1012.8,,TRUE,TRUE,,,,,,,SCT,6500,OVC,8500,,,,,VFR,-2.2,,,,,,,,,,,METAR,136.0
KCRQ 252053Z 25007KT 10SM BKN016 OVC023 17/12 A2990 RMK AO2 SLP125 T01670122 58006,KCRQ,2023-04-25T20:53:00Z,33.13,-117.28,16.7,12.2,250,7,,10.0,29.899607,1012.5,,,TRUE,,,,,,,BKN,1600,OVC,2300,,,,,MVFR,-0.6,,,,,,,,,,,METAR,96.0
KCRG 252053Z 09011KT 10SM CLR 24/17 A2996 RMK AO2 SLP143 T02390172 58015,KCRG,2023-04-25T20:53:00Z,30.33,-81.52,23.9,17.2,90,11,,10.0,29.958662,1014.3,,,TRUE,,,,,,,CLR,,,,,,,,VFR,-1.5,,,,,,,,,,,METAR,12.0
KCRE 252053Z 10010KT 10SM CLR 20/09 A3009 RMK AO1 SLP189 T02000089 56010,KCRE,2023-04-25T20:53:00Z,33.82,-78.72,20.0,8.9,100,10,,10.0,30.088583,1018.9,,,TRUE,,,,,,,CLR,,,,,,,,VFR,-1.0,,,,,,,,,,,METAR,9.0
KCQC 252053Z AUTO 29016G26KT 10SM FEW070 OVC100 14/M05 A2988 RMK AO2 PK WND 25040/2042 WSHFT 2035 SLP061 T01391050 56018,KCQC,2023-04-25T20:53:00Z,35.0,-105.67,13.9,-5.0,290,16,26,10.0,29.878937,1006.1,,TRUE,TRUE,,,,,,,FEW,7000,OVC,10000,,,,,VFR,-1.8,,,,,,,,,,,METAR,2163.0
KCPS 252053Z 00000KT 10SM FEW080 BKN100 20/03 A3007 RMK AO2 SLP183 T02000033 56011,KCPS,2023-04-25T20:53:00Z,38.53,-90.15,20.0,3.3,0,0,,10.0,30.070866,1018.3,,,TRUE,,,,,,,FEW,8000,BKN,10000,,,,,VFR,-1.1,,,,,,,,,,,METAR,125.0
KCPR 252053Z 05014KT 10SM FEW028 OVC037 08/03 A2995 RMK AO2 SLP134 60002 T00780028 52017,KCPR,2023-04-25T20:53:00Z,42.9,-106.47,7.8,2.8,50,14,,10.0,29.949802,1013.4,,,TRUE,,,,,,,FEW,2800,OVC,3700,,,,,VFR,1.7,,,,,,0.02,,,,,METAR,1623.0
KCOT 252053Z AUTO 16010KT 10SM FEW038 SCT045 BKN070 28/18 A2980 RMK AO2 SLP084 T02830183 58023,KCOT,2023-04-25T20:53:00Z,28.45,-99.22,28.3,18.3,160,10,,10.0,29.799213,1008.4,,TRUE,TRUE,,,,,,,FEW,3800,SCT,4500,BKN,7000,,,VFR,-2.3,,,,,,,,,,,METAR,144.0
KCNY 252053Z AUTO 27008G16KT 10SM SCT075 SCT090 12/M08 A2989 RMK AO2 SLP103 T01171078 53005,KCNY,2023-04-25T20:53:00Z,38.77,-109.75,11.7,-7.8,270,8,16,10.0,29.890747,1010.3,,TRUE,TRUE,,,,,,,SCT,7500,SCT,9000,,,,,VFR,0.5,,,,,,,,,,,METAR,1392.0
KCNO 252053Z 30005G15KT 10SM FEW040 21/12 A2990 RMK AO2 SLP119 T02110117 58014,KCNO,2023-04-25T20:53:00Z,33.98,-117.62,21.1,11.7,300,5,15,10.0,29.899607,1011.9,,,TRUE,,,,,,,FEW,4000,,,,,,,VFR,-1.4,,,,,,,,,,,METAR,191.0
KCNM 252053Z AUTO 24007G17KT 10SM CLR 28/M06 A2972 RMK AO2 SLP022 T02831061 58032,KCNM,2023-04-25T20:53:00Z,32.33,-104.25,28.3,-6.1,240,7,17,10.0,29.719488,1002.2,,TRUE,TRUE,,,,,,,CLR,,,,,,,,VFR,-3.2,,,,,,,,,,,METAR,993.0
KCMX 252053Z AUTO 35010G19KT 10SM CLR 05/M04 A3026 RMK AO2 SLP259 T00501044 50003,KCMX,2023-04-25T20:53:00Z,47.17,-88.48,5.0,-4.4,350,10,19,10.0,30.259842,1025.9,,TRUE,TRUE,,,,,,,CLR,,,,,,,,VFR,0.3,,,,,,,,,,,METAR,326.0
KCMI 252053Z 31010KT 10SM SCT046 BKN070 BKN090 16/04 A3009 RMK AO2 SLP190 T01560039 58007,KCMI,2023-04-25T20:53:00Z,40.03,-88.27,15.6,3.9,310,10,,10.0,30.088583,1019.0,,,TRUE,,,,,,,SCT,4600,BKN,7000,BKN,9000,,,VFR,-0.7,,,,,,,,,,,METAR,227.0
KCLL 252053Z 11006KT 10SM FEW028 SCT036 SCT065 24/17 A2987 RMK AO2 SLP111 T02440167 58023,KCLL,2023-04-25T20:53:00Z,30.58,-96.37,24.4,16.7,110,6,,10.0,29.870079,1011.1,,,TRUE,,,,,,,FEW,2800,SCT,3600,SCT,6500,,,VFR,-2.3,,,,,,,,,,,METAR,96.0
KCKB 252053Z VRB06KT 10SM CLR 15/M04 A3012 RMK AO2 SLP198 T01501044 56016,KCKB,2023-04-25T20:53:00Z,39.3,-80.22,15.0,-4.4,0,6,,10.0,30.121063,1019.8,,,TRUE,,,,,,,CLR,,,,,,,,VFR,-1.6,,,,,,,,,,,METAR,368.0
KCHO 252053Z 16007KT 10SM FEW070 17/M01 A3015 RMK AO2 SLP209 T01671006 57005,KCHO,2023-04-25T20:53:00Z,38.13,-78.45,16.7,-0.6,160,7,,10.0,30.15059,1020.9,,,TRUE,,,,,,,FEW,7000,,,,,,,VFR,-0.5,,,,,,,,,,,METAR,193.0
KCHA 252053Z 09005KT 10SM FEW100 SCT130 SCT250 20/03 A3008 RMK AO2 SLP182 T02000028 58014,KCHA,2023-04-25T20:53:00Z,35.03,-85.2,20.0,2.8,90,5,,10.0,30.079725,1018.2,,,TRUE,,,,,,,FEW,10000,SCT,13000,SCT,25000,,,VFR,-1.4,,,,,,,,,,,METAR,203.0
KCGI 252053Z 00000KT 10SM CLR 20/01 A3009 RMK AO2 SLP187 T02000006 56016,KCGI,2023-04-25T20:53:00Z,37.23,-89.58,20.0,0.6,0,0,,10.0,30.088583,1018.7,,,TRUE,,,,,,,CLR,,,,,,,,VFR,-1.6,,,,,,,,,,,METAR,103.0
KCEZ 252053Z AUTO VRB03G15KT 10SM FEW033 FEW100 11/00 A2988 RMK AO2 SLP082 60000 T01060000 50013,KCEZ,2023-04-25T20:53:00Z,37.3,-108.63,10.6,0.0,0,3,15,10.0,29.878937,1008.2,,TRUE,TRUE,,,,,,,FEW,3300,FEW,10000,,,,,VFR,1.3,,,,,,0.005,,,,,METAR,1801.0
KCEW 252053Z AUTO 01003KT 10SM OVC065 27/13 A2996 RMK AO2 SLP142 T02720133 58015,KCEW,2023-04-25T20:53:00Z,30.78,-86.52,27.2,13.3,10,3,,10.0,29.958662,1014.2,,TRUE,TRUE,,,,,,,OVC,6500,,,,,,,VFR,-1.5,,,,,,,,,,,METAR,47.0
KCDW 252053Z 00000KT 10SM BKN080 14/M06 A3016 RMK AO2 SLP217 T01391056 55000,KCDW,2023-04-25T20:53:00Z,40.88,-74.28,13.9,-5.6,0,0,,10.0,30.159449,1021.7,,,TRUE,,,,,,,BKN,8000,,,,,,,VFR,0.0,,,,,,,,,,,METAR,52.0
KCDS 252053Z AUTO 16009G20KT 120V180 10SM BKN060 23/11 A2982 RMK AO2 SLP080 T02330106 58020,KCDS,2023-04-25T20:53:00Z,34.43,-100.28,23.3,10.6,160,9,20,10.0,29.819881,1008.0,,TRUE,TRUE,,,,,,,BKN,6000,,,,,,,VFR,-2.0,,,,,,,,,,,METAR,595.0
KCDR 252053Z AUTO 06015G23KT 10SM SCT055 BKN070 14/03 A2998 RMK AO2 SLP156 T01390033 56001,KCDR,2023-04-25T20:53:00Z,42.83,-103.1,13.9,3.3,60,15,23,10.0,29.97933,1015.6,,TRUE,TRUE,,,,,,,SCT,5500,BKN,7000,,,,,VFR,-0.1,,,,,,,,,,,METAR,1002.0
KCDC 252053Z AUTO 36015G23KT 10SM CLR 12/M04 A3005 RMK AO2 PK WND 01027/2042 SLP142 T01171039 51000,KCDC,2023-04-25T20:53:00Z,37.7,-113.1,11.7,-3.9,360,15,23,10.0,30.050198,1014.2,,TRUE,TRUE,,,,,,,CLR,,,,,,,,VFR,0.0,,,,,,,,,,,METAR,1703.0
KCCR 252053Z 32006KT 10SM CLR 27/06 A2990 RMK AO2 SLP113 T02670061 58017,KCCR,2023-04-25T20:53:00Z,38.0,-122.05,26.7,6.1,320,6,,10.0,29.899607,1011.3,,,TRUE,,,,,,,CLR,,,,,,,,VFR,-1.7,,,,,,,,,,,METAR,6.0
KCAG 252053Z AUTO 23007KT 10SM SCT023 BKN037 OVC044 07/01 A2994 RMK AO2 SLP133 T00720011 52001,KCAG,2023-04-25T20:53:00Z,40.5,-107.52,7.2,1.1,230,7,,10.0,29.940945,1013.3,,TRUE,TRUE,,,,,,,SCT,2300,BKN,3700,OVC,4400,,,VFR,0.1,,,,,,,,,,,METAR,1888.0
KBYI 252053Z AUTO 29008G18KT 10SM CLR 14/M02 A3008 RMK AO2 SLP176 60000 T01391022 58003,KBYI,2023-04-25T20:53:00Z,42.55,-113.77,13.9,-2.2,290,8,18,10.0,30.079725,1017.6,,TRUE,TRUE,,,,,,,CLR,,,,,,,,VFR,-0.3,,,,,,0.005,,,,,METAR,1263.0
KBYG 252053Z AUTO VRB06KT 10SM SCT050 13/M01 A2998 RMK AO2 SLP139 T01281006 58001,KBYG,2023-04-25T20:53:00Z,44.38,-106.72,12.8,-0.6,0,6,,10.0,29.97933,1013.9,,TRUE,TRUE,,,,,,,SCT,5000,,,,,,,VFR,-0.1,,,,,,,,,,,METAR,1503.0
KBWG 252053Z AUTO VRB03KT 10SM CLR 19/01 A3011 RMK AO2 SLP195 T01890006 58013,KBWG,2023-04-25T20:53:00Z,36.97,-86.42,18.9,0.6,0,3,,10.0,30.109253,1019.5,,TRUE,TRUE,,,,,,,CLR,,,,,,,,VFR,-1.3,,,,,,,,,,,METAR,159.0
KBVO 252053Z AUTO 00000KT 5SM -RA BR FEW065 OVC080 11/09 A3007 RMK AO2 RAB21 SLP178 P0002 60002 T01110089 56010,KBVO,2023-04-25T20:53:00Z,36.77,-96.02,11.1,8.9,0,0,,5.0,30.070866,1017.8,,TRUE,TRUE,,,,,,-RA BR,FEW,6500,OVC,8000,,,,,MVFR,-1.0,,,,,0.02,0.02,,,,,METAR,210.0
KBUR 252053Z 19008KT 150V220 10SM CLR 22/12 A2988 RMK AO2 SLP108 T02170117 58012,KBUR,2023-04-25T20:53:00Z,34.2,-118.37,21.7,11.7,190,8,,10.0,29.878937,1010.8,,,TRUE,,,,,,,CLR,,,,,,,,VFR,-1.2,,,,,,,,,,,SPECI,221.0
KBTR 252053Z 01004KT 10SM FEW110 27/13 A2994 RMK AO2 SLP137 T02720128 58021,KBTR,2023-04-25T20:53:00Z,30.53,-91.15,27.2,12.8,10,4,,10.0,29.940945,1013.7,,,TRUE,,,,,,,FEW,11000,,,,,,,VFR,-2.1,,,,,,,,,,,METAR,20.0
KBRO 252053Z 20005KT 10SM -RA SCT024 OVC039 24/22 A2980 RMK AO2 RAB03 SLP091 P0005 60020 T02390222 58012 $,KBRO,2023-04-25T20:53:00Z,25.92,-97.42,23.9,22.2,200,5,,10.0,29.799213,1009.1,,,TRUE,TRUE,,,,,-RA,SCT,2400,OVC,3900,,,,,VFR,-1.2,,,,,0.05,0.2,,,,,METAR,6.0
KBRL 252053Z AUTO 35006G14KT 10SM FEW038 FEW080 14/06 A3012 RMK AO2 SLP201 T01440056 58002,KBRL,2023-04-25T20:53:00Z,40.77,-91.13,14.4,5.6,350,6,14,10.0,30.121063,1020.1,,TRUE,TRUE,,,,,,,FEW,3800,FEW,8000,,,,,VFR,-0.2,,,,,,,,,,,METAR,208.0
KBRD 252053Z AUTO 03010KT 10SM FEW060 08/M07 A3026 RMK AO2 SLP260 T00781072 58008,KBRD,2023-04-25T20:53:00Z,46.4,-94.13,7.8,-7.2,30,10,,10.0,30.259842,1026.0,,TRUE,TRUE,,,,,,,FEW,6000,,,,,,,VFR,-0.8,,,,,,,,,,,METAR,372.0
KBPT 252053Z 07010KT 10SM FEW027 24/17 A2991 RMK AO2 SLP127 T02440167 58016,KBPT,2023-04-25T20:53:00Z,29.95,-94.03,24.4,16.7,70,10,,10.0,29.911417,1012.7,,,TRUE,,,,,,,FEW,2700,,,,,,,VFR,-1.6,,,,,,,,,,,METAR,6.0
KBPK 252053Z AUTO 19007KT 10SM CLR 17/01 A3007 RMK AO2 SLP179 T01670011,KBPK,2023-04-25T20:53:00Z,36.37,-92.47,16.7,1.1,190,7,,10.0,30.070866,1017.9,,TRUE,TRUE,,,,,,,CLR,,,,,,,,VFR,,,,,,,,,,,,METAR,279.0
KBPI 252053Z AUTO 09007KT 10SM SCT042 09/M01 A2999 RMK AO2 SLP118 T00941011 53015,KBPI,2023-04-25T20:53:00Z,42.58,-110.1,9.4,-1.1,90,7,,10.0,29.991142,1011.8,,TRUE,TRUE,,,,,,,SCT,4200,,,,,,,VFR,1.5,,,,,,,,,,,METAR,2120.0
KBOI 252053Z 29010G20KT 10SM CLR 17/01 A3009 RMK AO2 PK WND 26028/2020 SLP185 T01720006 58008,KBOI,2023-04-25T20:53:00Z,43.57,-116.23,17.2,0.6,290,10,20,10.0,30.088583,1018.5,,,TRUE,,,,,,,CLR,,,,,,,,VFR,-0.8,,,,,,,,,,,METAR,860.0
KBNO 252053Z AUTO 25008KT 10SM CLR 14/M02 A3016 RMK AO2 SLP215 T01391017 58012 $,KBNO,2023-04-25T20:53:00Z,43.6,-118.95,13.9,-1.7,250,8,,10.0,30.159449,1021.5,,TRUE,TRUE,TRUE,,,,,,CLR,,,,,,,,VFR,-1.2,,,,,,,,,,,METAR,1263.0
KBNA 252053Z 10009KT 10SM FEW250 21/M02 A3010 RMK AO2 SLP189 T02061022 58016 $,KBNA,2023-04-25T20:53:00Z,36.12,-86.68,20.6,-2.2,100,9,,10.0,30.100393,1018.9,,,TRUE,TRUE,,,,,,FEW,25000,,,,,,,VFR,-1.6,,,,,,,,,,,METAR,168.0
KBMG 252053Z 29009KT 10SM BKN070 OVC090 17/01 A3009 RMK AO2 SLP190 T01670006 56010,KBMG,2023-04-25T20:53:00Z,39.15,-86.62,16.7,0.6,290,9,,10.0,30.088583,1019.0,,,TRUE,,,,,,,BKN,7000,OVC,9000,,,,,VFR,-1.0,,,,,,,,,,,METAR,254.0
KBLI 252053Z 19004KT 10SM SCT035 13/07 A3027 RMK AO2 SLP256 T01280067 58003,KBLI,2023-04-25T20:53:00Z,48.8,-122.53,12.8,6.7,190,4,,10.0,30.268702,1025.6,,,TRUE,,,,,,,SCT,3500,,,,,,,VFR,-0.3,,,,,,,,,,,METAR,46.0
KBKV 252053Z 27010KT 10SM CLR 29/20 A2990 RMK AO2 LTG DSNT SE AND S SLP124 T02890200 56012,KBKV,2023-04-25T20:53:00Z,28.47,-82.45,28.9,20.0,270,10,,10.0,29.899607,1012.4,,,TRUE,,,,,,,CLR,,,,,,,,VFR,-1.2,,,,,,,,,,,METAR,21.0
KBKL 252053Z 01008KT 10SM OVC065 07/03 A3016 RMK AO2 RAB01E16 SLP219 P0000 60000 T00720028 58007,KBKL,2023-04-25T20:53:00Z,41.53,-81.67,7.2,2.8,10,8,,10.0,30.159449,1021.9,,,TRUE,,,,,,,OVC,6500,,,,,,,VFR,-0.7,,,,,0.005,0.005,,,,,METAR,177.0
KBKE 252053Z AUTO 31007G15KT 260V360 10SM CLR 15/00 A3014 RMK AO2 SLP209 T01500000 56013,KBKE,2023-04-25T20:53:00Z,44.85,-117.82,15.0,0.0,310,7,15,10.0,30.138779,1020.9,,TRUE,TRUE,,,,,,,CLR,,,,,,,,VFR,-1.3,,,,,,,,,,,METAR,1025.0
KBIV 252053Z AUTO 30010KT 10SM SCT060 08/01 A3018 RMK AO2 SLP226 T00780011 50001,KBIV,2023-04-25T20:53:00Z,42.75,-86.1,7.8,1.1,300,10,,10.0,30.180119,1022.6,,TRUE,TRUE,,,,,,,SCT,6000,,,,,,,VFR,0.1,,,,,,,,,,,METAR,207.0
KBIL 252053Z 00000KT 10SM FEW075 FEW240 16/M01 A2999 RMK AO2 SLP150 T01611011 58004,KBIL,2023-04-25T20:53:00Z,45.8,-108.55,16.1,-1.1,0,0,,10.0,29.991142,1015.0,,,TRUE,,,,,,,FEW,7500,FEW,24000,,,,,VFR,-0.4,,,,,,,,,,,METAR,1089.0
KBHM 252053Z VRB04KT 10SM BKN100 BKN150 23/04 A3006 RMK AO2 SLP174 T02280039 58012,KBHM,2023-04-25T20:53:00Z,33.57,-86.75,22.8,3.9,0,4,,10.0,30.059055,1017.4,,,TRUE,,,,,,,BKN,10000,BKN,15000,,,,,VFR,-1.2,,,,,,,,,,,METAR,191.0
KBGR 252053Z 15006KT 10SM -RA OVC014 07/04 A3023 RMK AO2 RAB1959 SLP239 P0000 60000 T00670044 53006,KBGR,2023-04-25T20:53:00Z,44.8,-68.82,6.7,4.4,150,6,,10.0,30.230314,1023.9,,,TRUE,,,,,,-RA,OVC,1400,,,,,,,MVFR,0.6,,,,,0.005,0.005,,,,,METAR,45.0
KBGM 252053Z AUTO VRB03KT 10SM OVC070 09/M06 A3014 RMK AO2 SLP216 T00941056 56008,KBGM,2023-04-25T20:53:00Z,42.22,-75.98,9.4,-5.6,0,3,,10.0,30.138779,1021.6,,TRUE,TRUE,,,,,,,OVC,7000,,,,,,,VFR,-0.8,,,,,,,,,,,METAR,485.0
KBFM 252053Z 15006KT 10SM CLR 26/13 A2996 RMK AO2 SLP146 T02610128 58018,KBFM,2023-04-25T20:53:00Z,30.62,-88.07,26.1,12.8,150,6,,10.0,29.958662,1014.6,,,TRUE,,,,,,,CLR,,,,,,,,VFR,-1.8,,,,,,,,,,,METAR,7.0
KBFI 252053Z VRB03KT 10SM BKN031 13/06 A3026 RMK AO2 SLP248 T01280056 58007,KBFI,2023-04-25T20:53:00Z,47.55,-122.32,12.8,5.6,0,3,,10.0,30.259842,1024.8,,,TRUE,,,,,,,BKN,3100,,,,,,,VFR,-0.7,,,,,,,,,,,METAR,7.0
KBFF 252053Z AUTO 14014G19KT 10SM OVC030 12/06 A2996 RMK AO2 RAE11 SLP139 P0000 60000 T01170056 53007,KBFF,2023-04-25T20:53:00Z,41.87,-103.6,11.7,5.6,140,14,19,10.0,29.958662,1013.9,,TRUE,TRUE,,,,,,,OVC,3000,,,,,,,MVFR,0.7,,,,,0.005,0.005,,,,,METAR,1204.0
KBFD 252053Z AUTO 00000KT 10SM OVC070 09/M06 A3012 RMK AO2 SLP215 T00891056 56007,KBFD,2023-04-25T20:53:00Z,41.8,-78.63,8.9,-5.6,0,0,,10.0,30.121063,1021.5,,TRUE,TRUE,,,,,,,OVC,7000,,,,,,,VFR,-0.7,,,,,,,,,,,METAR,642.0
KBEH 252053Z AUTO 33007KT 280V010 10SM BKN014 BKN022 07/02 A3018 RMK AO2 SLP223 T00670022 53004,KBEH,2023-04-25T20:53:00Z,42.13,-86.42,6.7,2.2,330,7,,10.0,30.180119,1022.3,,TRUE,TRUE,,,,,,,BKN,1400,BKN,2200,,,,,MVFR,0.4,,,,,,,,,,,METAR,196.0
KBDE 252053Z AUTO 03003KT 10SM BKN060 09/M06 A3028 RMK AO2 SLP268 T00941061 58008,KBDE,2023-04-25T20:53:00Z,48.73,-94.62,9.4,-6.1,30,3,,10.0,30.280512,1026.8,,TRUE,TRUE,,,,,,,BKN,6000,,,,,,,VFR,-0.8,,,,,,,,,,,METAR,330.0
KBCT 252053Z 17008G16KT 10SM SCT030 31/21 A2987,KBCT,2023-04-25T20:53:00Z,26.38,-80.1,31.0,21.0,170,8,16,10.0,29.870079,,,,,,,,,,,SCT,3000,,,,,,,VFR,,,,,,,,,,,,METAR,3.0
KBCE 252053Z AUTO 31021G30KT 10SM CLR 07/M04 A3003 RMK AO2 PK WND 31034/2036 SLP104 T00671044 53006,KBCE,2023-04-25T20:53:00Z,37.7,-112.15,6.7,-4.4,310,21,30,10.0,30.029528,1010.4,,TRUE,TRUE,,,,,,,CLR,,,,,,,,VFR,0.6,,,,,,,,,,,METAR,2311.0
KBBW 252053Z AUTO 10010KT 10SM FEW044 OVC055 15/03 A3003 RMK AO2 SLP173 T01500033 56004,KBBW,2023-04-25T20:53:00Z,41.43,-99.63,15.0,3.3,100,10,,10.0,30.029528,1017.3,,TRUE,TRUE,,,,,,,FEW,4400,OVC,5500,,,,,VFR,-0.4,,,,,,,,,,,METAR,771.0
KBAF 252053Z 24008KT 210V300 10SM OVC090 14/M01 A3013 RMK AO2 SLP206 60000 T01391011 55000,KBAF,2023-04-25T20:53:00Z,42.17,-72.72,13.9,-1.1,240,8,,10.0,30.129921,1020.6,,,TRUE,,,,,,,OVC,9000,,,,,,,VFR,0.0,,,,,,0.005,,,,,METAR,80.0
KAZO 252053Z 36009KT 10SM FEW023 OVC034 07/01 A3016 RMK AO2 SLP221 T00720006 57002,KAZO,2023-04-25T20:53:00Z,42.23,-85.55,7.2,0.6,360,9,,10.0,30.159449,1022.1,,,TRUE,,,,,,,FEW,2300,OVC,3400,,,,,VFR,-0.2,,,,,,,,,,,METAR,264.0
KAXN 252053Z AUTO 06009G16KT 10SM BKN060 08/M07 A3025 RMK AO2 SLP259 T00831067 56006,KAXN,2023-04-25T20:53:00Z,45.87,-95.4,8.3,-6.7,60,9,16,10.0,30.250984,1025.9,,TRUE,TRUE,,,,,,,BKN,6000,,,,,,,VFR,-0.6,,,,,,,,,,,METAR,433.0
KAWM 252053Z AUTO VRB04KT 10SM CLR 19/M01 A3006 RMK AO2 RAB25E43 SLP175 P0000 60000 T01941011 58018,KAWM,2023-04-25T20:53:00Z,35.13,-90.23,19.4,-1.1,0,4,,10.0,30.059055,1017.5,,TRUE,TRUE,,,,,,,CLR,,,,,,,,VFR,-1.8,,,,,0.005,0.005,,,,,METAR,64.0
KAUS 252053Z 03007KT 10SM SCT021 BKN030 OVC044 22/19 A2986 RMK AO2 SLP104 T02220189 56023,KAUS,2023-04-25T20:53:00Z,30.18,-97.68,22.2,18.9,30,7,,10.0,29.861221,1010.4,,,TRUE,,,,,,,SCT,2100,BKN,3000,OVC,4400,,,MVFR,-2.3,,,,,,,,,,,METAR,148.0
KAUO 252053Z AUTO VRB03KT 10SM CLR 23/09 A3002 RMK AO2 SLP157 6//// T02330089 58016 PNO $,KAUO,2023-04-25T20:53:00Z,32.62,-85.43,23.3,8.9,0,3,,10.0,30.02067,1015.7,,TRUE,TRUE,TRUE,,,,,,CLR,,,,,,,,VFR,-1.6,,,,,,,,,,,METAR,231.0
KATY 252053Z AUTO 12007KT 10SM CLR 09/M06 A3019 RMK AO2 SLP237 T00941056 57004,KATY,2023-04-25T20:53:00Z,44.9,-97.15,9.4,-5.6,120,7,,10.0,30.188976,1023.7,,TRUE,TRUE,,,,,,,CLR,,,,,,,,VFR,-0.4,,,,,,,,,,,METAR,531.0
KASX 252053Z AUTO 36010KT 10SM OVC060 05/M01 A3030 RMK AO2 SLP272 T00501011 53001,KASX,2023-04-25T20:53:00Z,46.55,-90.92,5.0,-1.1,360,10,,10.0,30.301182,1027.2,,TRUE,TRUE,,,,,,,OVC,6000,,,,,,,VFR,0.1,,,,,,,,,,,METAR,249.0
KASE 252053Z 02008KT 1SM -SN BR FEW005 BKN008 OVC012 00/M01 A2990 RMK AO2 SLP105 P0002 60002 T00001011 53010,KASE,2023-04-25T20:53:00Z,39.23,-106.87,0.0,-1.1,20,8,,1.0,29.899607,1010.5,,,TRUE,,,,,,-SN BR,FEW,500,BKN,800,OVC,1200,,,IFR,1.0,,,,,0.02,0.02,,,,,METAR,2384.0
KASD 252053Z AUTO 07005KT 10SM SCT050 27/16 A2993 RMK AO2 SLP135 T02720156 58021,KASD,2023-04-25T20:53:00Z,30.35,-89.82,27.2,15.6,70,5,,10.0,29.929134,1013.5,,TRUE,TRUE,,,,,,,SCT,5000,,,,,,,VFR,-2.1,,,,,,,,,,,METAR,8.0
KARA 252053Z 08005KT 10SM FEW100 26/14 A2993 RMK AO2 SLP135 T02560144 58018,KARA,2023-04-25T20:53:00Z,30.03,-91.88,25.6,14.4,80,5,,10.0,29.929134,1013.5,,,TRUE,,,,,,,FEW,10000,,,,,,,VFR,-1.8,,,,,,,,,,,METAR,5.0
KAPF 252053Z 22014KT 10SM CLR 29/20 A2988 RMK AO2 SLP117 T02940200 58012,KAPF,2023-04-25T20:53:00Z,26.15,-81.77,29.4,20.0,220,14,,10.0,29.878937,1011.7,,,TRUE,,,,,,,CLR,,,,,,,,VFR,-1.2,,,,,,,,,,,METAR,2.0
KAPA 252053Z 35007KT 10SM -RA BKN047 BKN060 OVC075 10/00 A2985 RMK AO2 LTG DSNT NW RAB42 SLP086 OCNL LTGICCG DSNT NW P0000 60000 T01000000 53006,KAPA,2023-04-25T20:53:00Z,39.57,-104.85,10.0,0.0,350,7,,10.0,29.84941,1008.6,,,TRUE,,,,,,-RA,BKN,4700,BKN,6000,OVC,7500,,,VFR,0.6,,,,,0.005,0.005,,,,,METAR,1791.0
KAOO 252053Z AUTO 00000KT 10SM CLR 12/M05 A3015 RMK AO2 SLP217 T01221050 56006,KAOO,2023-04-25T20:53:00Z,40.3,-78.32,12.2,-5.0,0,0,,10.0,30.15059,1021.7,,TRUE,TRUE,,,,,,,CLR,,,,,,,,VFR,-0.6,,,,,,,,,,,METAR,450.0
KAOH 252053Z AUTO 22011KT 10SM OVC055 11/M01 A3012 RMK AO2 SLP202 T01111006 58005,KAOH,2023-04-25T20:53:00Z,40.7,-84.02,11.1,-0.6,220,11,,10.0,30.121063,1020.2,,TRUE,TRUE,,,,,,,OVC,5500,,,,,,,VFR,-0.5,,,,,,,,,,,METAR,294.0
KANB 252053Z AUTO 23003KT 10SM BKN100 22/05 A3003 RMK AO2 SLP168 T02220050 58014,KANB,2023-04-25T20:53:00Z,33.58,-85.85,22.2,5.0,230,3,,10.0,30.029528,1016.8,,TRUE,TRUE,,,,,,,BKN,10000,,,,,,,VFR,-1.4,,,,,,,,,,,METAR,187.0
KAMW 252053Z AUTO 35008KT 10SM CLR 15/M02 A3013 RMK AO2 SLP204 T01501022 58009,KAMW,2023-04-25T20:53:00Z,41.98,-93.62,15.0,-2.2,350,8,,10.0,30.129921,1020.4,,TRUE,TRUE,,,,,,,CLR,,,,,,,,VFR,-0.9,,,,,,,,,,,METAR,282.0
KAMG 252053Z AUTO 12007KT 10SM SCT050 BKN060 BKN080 24/16 A2996 RMK AO2 SLP145 T02440161 56013,KAMG,2023-04-25T20:53:00Z,31.53,-82.5,24.4,16.1,120,7,,10.0,29.958662,1014.5,,TRUE,TRUE,,,,,,,SCT,5000,BKN,6000,BKN,8000,,,VFR,-1.3,,,,,,,,,,,METAR,61.0
KAMA 252053Z 16019G26KT 10SM CLR 22/08 A2978 RMK AO2 PK WND 17029/2014 SLP052 T02170083 56025,KAMA,2023-04-25T20:53:00Z,35.22,-101.72,21.7,8.3,160,19,26,10.0,29.778543,1005.2,,,TRUE,,,,,,,CLR,,,,,,,,VFR,-2.5,,,,,,,,,,,METAR,1102.0
KALW 252053Z 00000KT 10SM CLR 16/03 A3015 RMK AO2 SLP212 T01560028 58020,KALW,2023-04-25T20:53:00Z,46.1,-118.28,15.6,2.8,0,0,,10.0,30.15059,1021.2,,,TRUE,,,,,,,CLR,,,,,,,,VFR,-2.0,,,,,,,,,,,METAR,355.0
KALI 252053Z AUTO 14008KT 8SM -RA SCT039 BKN047 OVC060 24/23 A2982 RMK AO2 SLP095 P0000 60000 T02390228 58019,KALI,2023-04-25T20:53:00Z,27.73,-98.02,23.9,22.8,140,8,,8.0,29.819881,1009.5,,TRUE,TRUE,,,,,,-RA,SCT,3900,BKN,4700,OVC,6000,,,VFR,-1.9,,,,,0.005,0.005,,,,,METAR,52.0
KAIA 252053Z AUTO 13017G23KT 10SM FEW047 OVC060 14/02 A2997 RMK AO2 PK WND 14026/2011 SLP141 T01440022 53005,KAIA,2023-04-25T20:53:00Z,42.05,-102.8,14.4,2.2,130,17,23,10.0,29.970472,1014.1,,TRUE,TRUE,,,,,,,FEW,4700,OVC,6000,,,,,VFR,0.5,,,,,,,,,,,METAR,1198.0
KAGS 252053Z 09004KT 10SM OVC070 23/08 A3002 RMK AO2 SLP164 T02280078 57011,KAGS,2023-04-25T20:53:00Z,33.37,-81.97,22.8,7.8,90,4,,10.0,30.02067,1016.4,,,TRUE,,,,,,,OVC,7000,,,,,,,VFR,-1.1,,,,,,,,,,,METAR,40.0
KAGC 252053Z 25007KT 10SM FEW065 13/M04 A3013 RMK AO2 SLP213 T01281044 58015,KAGC,2023-04-25T20:53:00Z,40.35,-79.92,12.8,-4.4,250,7,,10.0,30.129921,1021.3,,,TRUE,,,,,,,FEW,6500,,,,,,,VFR,-1.5,,,,,,,,,,,METAR,380.0
KAFW 252053Z 14010KT 10SM FEW037 BKN080 BKN250 21/13 A2988 RMK AO2 SLP110 T02110133 58023,KAFW,2023-04-25T20:53:00Z,32.97,-97.32,21.1,13.3,140,10,,10.0,29.878937,1011.0,,,TRUE,,,,,,,FEW,3700,BKN,8000,BKN,25000,,,VFR,-2.3,,,,,,,,,,,METAR,208.0
KAEX 252053Z 07003KT 10SM -RA FEW080 OVC100 22/13 A2995 RMK AO2 RAB00E26B43 SLP147 P0000 60000 T02170133 58020,KAEX,2023-04-25T20:53:00Z,31.33,-92.57,21.7,13.3,70,3,,10.0,29.949802,1014.7,,,TRUE,,,,,,-RA,FEW,8000,OVC,10000,,,,,VFR,-2.0,,,,,0.005,0.005,,,,,METAR,25.0
KACV 252053Z AUTO 29006KT 10SM CLR 13/09 A3004 RMK AO2 SLP177 T01280089 58010,KACV,2023-04-25T20:53:00Z,40.98,-124.1,12.8,8.9,290,6,,10.0,30.041338,1017.7,,TRUE,TRUE,,,,,,,CLR,,,,,,,,VFR,-1.0,,,,,,,,,,,METAR,63.0
KACK 252053Z 19006KT 10SM FEW004 09/06 A3015 RMK AO2 SLP211 T00890061 53006,KACK,2023-04-25T20:53:00Z,41.25,-70.07,8.9,6.1,190,6,,10.0,30.15059,1021.1,,,TRUE,,,,,,,FEW,400,,,,,,,VFR,0.6,,,,,,,,,,,METAR,12.0
KABY 252053Z VRB04KT 10SM BKN055 28/12 A2998 RMK AO2 SLP149 T02780122 58018,KABY,2023-04-25T20:53:00Z,31.53,-84.2,27.8,12.2,0,4,,10.0,29.97933,1014.9,,,TRUE,,,,,,,BKN,5500,,,,,,,VFR,-1.8,,,,,,,,,,,METAR,60.0
KABR 252053Z AUTO 09009G16KT 10SM CLR 11/M03 A3021 RMK AO2 SLP240 T01111028 57005,KABR,2023-04-25T20:53:00Z,45.45,-98.42,11.1,-2.8,90,9,16,10.0,30.209646,1024.0,,TRUE,TRUE,,,,,,,CLR,,,,,,,,VFR,-0.5,,,,,,,,,,,METAR,397.0
KAAF 252053Z AUTO 11005KT 10SM CLR 24/18 A2993 RMK AO2 SLP135 T02440183 56016,KAAF,2023-04-25T20:53:00Z,29.73,-85.03,24.4,18.3,110,5,,10.0,29.929134,1013.5,,TRUE,TRUE,,,,,,,CLR,,,,,,,,VFR,-1.6,,,,,,,,,,,METAR,5.0
PTKK 252052Z VRB04KT 15SM FEW013 BKN120 OVC280 28/25 A2980 RMK SLP093 8/171 T02830253 52015,PTKK,2023-04-25T20:52:00Z,7.47,151.85,28.3,25.3,0,4,,15.0,29.799213,1009.3,,,,,,,,,,FEW,1300,BKN,12000,OVC,28000,,,VFR,1.5,,,,,,,,,,,METAR,3.0
PATA 252052Z 10010KT 10SM CLR M05/M15 A2986 RMK AO2 SLP119 T10501150 58006,PATA,2023-04-25T20:52:00Z,65.17,-152.1,-5.0,-15.0,100,10,,10.0,29.861221,1011.9,,,TRUE,,,,,,,CLR,,,,,,,,VFR,-0.6,,,,,,,,,,,METAR,62.0
MMTG 252052Z 06009KT 6SM FEW300 38/10 A2975 RMK SLP035 56040 977 8/002 FU HZ,MMTG,2023-04-25T20:52:00Z,16.57,-93.03,38.0,10.0,60,9,,6.0,29.749016,1003.5,,,,,,,,,,FEW,30000,,,,,,,VFR,-4.0,,,,,,,,,,,METAR,463.0
KVTN 252052Z AUTO 09011G21KT 10SM BKN050 OVC060 15/02 A3005 RMK AO2 SLP180 T01500017 57001,KVTN,2023-04-25T20:52:00Z,42.87,-100.55,15.0,1.7,90,11,21,10.0,30.050198,1018.0,,TRUE,TRUE,,,,,,,BKN,5000,OVC,6000,,,,,VFR,-0.1,,,,,,,,,,,METAR,790.0
KTRM 252052Z AUTO VRB06KT 9SM CLR 34/03 A2971 RMK AO2 SLP064 T03440033 58023 $,KTRM,2023-04-25T20:52:00Z,33.63,-116.17,34.4,3.3,0,6,,9.0,29.71063,1006.4,,TRUE,TRUE,TRUE,,,,,,CLR,,,,,,,,VFR,-2.3,,,,,,,,,,,METAR,-39.0
KTOL 252052Z 33004KT 7SM -RA FEW027 OVC040 07/04 A3015 RMK AO2 SLP217 P0002 60008 T00670039 55002,KTOL,2023-04-25T20:52:00Z,41.58,-83.8,6.7,3.9,330,4,,7.0,30.15059,1021.7,,,TRUE,,,,,,-RA,FEW,2700,OVC,4000,,,,,VFR,-0.2,,,,,0.02,0.08,,,,,METAR,206.0
KTAN 252052Z AUTO 16006KT 10SM -RA BKN045 BKN050 OVC070 13/05 A3014 RMK AO2 RAB40 SLP205 P0001 60001 T01330050 53009,KTAN,2023-04-25T20:52:00Z,41.88,-71.02,13.3,5.0,160,6,,10.0,30.138779,1020.5,,TRUE,TRUE,,,,,,-RA,BKN,4500,BKN,5000,OVC,7000,,,VFR,0.9,,,,,0.01,0.01,,,,,METAR,8.0
KSUX 252052Z 10009G17KT 10SM FEW100 16/01 A3011 RMK AO2 SLP201 T01560006 56009,KSUX,2023-04-25T20:52:00Z,42.38,-96.38,15.6,0.6,100,9,17,10.0,30.109253,1020.1,,,TRUE,,,,,,,FEW,10000,,,,,,,VFR,-0.9,,,,,,,,,,,METAR,332.0
KSPS 252052Z AUTO 16014KT 10SM BKN080 22/14 A2985 RMK AO2 SLP099 T02220139 56018 $,KSPS,2023-04-25T20:52:00Z,33.98,-98.5,22.2,13.9,160,14,,10.0,29.84941,1009.9,,TRUE,TRUE,TRUE,,,,,,BKN,8000,,,,,,,VFR,-1.8,,,,,,,,,,,METAR,310.0
KSPI 252052Z 36005KT 10SM SCT100 17/04 A3010 RMK AO2 SLP193 T01670039 58003,KSPI,2023-04-25T20:52:00Z,39.85,-89.68,16.7,3.9,360,5,,10.0,30.100393,1019.3,,,TRUE,,,,,,,SCT,10000,,,,,,,VFR,-0.3,,,,,,,,,,,METAR,179.0
KSGF 252052Z 11011G16KT 10SM SCT060 18/04 A3004 RMK AO2 SLP171 T01830039 56015,KSGF,2023-04-25T20:52:00Z,37.23,-93.38,18.3,3.9,110,11,16,10.0,30.041338,1017.1,,,TRUE,,,,,,,SCT,6000,,,,,,,VFR,-1.5,,,,,,,,,,,METAR,387.0
KREO 252052Z AUTO 03006KT 14/M04 A3014 RMK AO1 SLP210 T01441044 58009,KREO,2023-04-25T20:52:00Z,42.58,-117.87,14.4,-4.4,30,6,,,30.138779,1021.0,,TRUE,TRUE,,,,,,,,,,,,,,,,-0.9,,,,,,,,,,,METAR,1237.0
KRAP 252052Z 09008KT 10SM SCT037 SCT048 12/02 A3006 RMK AO2 SLP193 T01220022 58002,KRAP,2023-04-25T20:52:00Z,44.05,-103.05,12.2,2.2,90,8,,10.0,30.059055,1019.3,,,TRUE,,,,,,,SCT,3700,SCT,4800,,,,,VFR,-0.2,,,,,,,,,,,METAR,965.0
KPYM 252052Z AUTO 14007KT 10SM OVC090 14/04 A3013 RMK AO2 SLP207 T01390044 53003,KPYM,2023-04-25T20:52:00Z,41.92,-70.73,13.9,4.4,140,7,,10.0,30.129921,1020.7,,TRUE,TRUE,,,,,,,OVC,9000,,,,,,,VFR,0.3,,,,,,,,,,,METAR,42.0
KPWK 252052Z 05009G18KT 10SM FEW029 07/M01 A3021 RMK AO2 SLP234 T00721006 50005,KPWK,2023-04-25T20:52:00Z,42.12,-87.9,7.2,-0.6,50,9,18,10.0,30.209646,1023.4,,,TRUE,,,,,,,FEW,2900,,,,,,,VFR,0.5,,,,,,,,,,,METAR,194.0
KPPF 252052Z AUTO 15003KT 10SM BKN048 OVC055 16/06 A3005 RMK AO2 SLP174 T01610056 58009,KPPF,2023-04-25T20:52:00Z,37.33,-95.5,16.1,5.6,150,3,,10.0,30.050198,1017.4,,TRUE,TRUE,,,,,,,BKN,4800,OVC,5500,,,,,VFR,-0.9,,,,,,,,,,,METAR,265.0
KP69 252052Z AUTO 00000KT 16/03 A3016 RMK AO1 SLP214 T01610033 56011,KP69,2023-04-25T20:52:00Z,46.15,-115.6,16.1,3.3,0,0,,,30.159449,1021.4,,TRUE,TRUE,,,,,,,,,,,,,,,,-1.1,,,,,,,,,,,METAR,447.0
KORE 252052Z AUTO 30006KT 10SM BKN080 12/01 A3015 RMK AO2 SLP212 60000 T01170006 53002,KORE,2023-04-25T20:52:00Z,42.57,-72.28,11.7,0.6,300,6,,10.0,30.15059,1021.2,,TRUE,TRUE,,,,,,,BKN,8000,,,,,,,VFR,0.2,,,,,,0.005,,,,,METAR,165.0
KOMA 252052Z 08008KT 10SM FEW060 SCT250 17/03 A3008 RMK AO2 SLP185 T01720028 58011,KOMA,2023-04-25T20:52:00Z,41.32,-95.9,17.2,2.8,80,8,,10.0,30.079725,1018.5,,,TRUE,,,,,,,FEW,6000,SCT,25000,,,,,VFR,-1.1,,,,,,,,,,,METAR,299.0
KOKC 252052Z 12010KT 10SM OVC013 10/08 A2996 RMK AO2 SLP143 T01000083 56005,KOKC,2023-04-25T20:52:00Z,35.38,-97.6,10.0,8.3,120,10,,10.0,29.958662,1014.3,,,TRUE,,,,,,,OVC,1300,,,,,,,MVFR,-0.5,,,,,,,,,,,METAR,391.0
KOKB 252052Z AUTO 26007KT 10SM FEW016 OVC027 18/13 A2990 RMK AO2 SLP125 T01780128 56007,KOKB,2023-04-25T20:52:00Z,33.22,-117.35,17.8,12.8,260,7,,10.0,29.899607,1012.5,,TRUE,TRUE,,,,,,,FEW,1600,OVC,2700,,,,,MVFR,-0.7,,,,,,,,,,,METAR,7.0
KNZY 252052Z 21009KT 10SM SCT028 18/13 A2991 RMK AO2 SLP127 T01780133 58007 $,KNZY,2023-04-25T20:52:00Z,32.7,-117.22,17.8,13.3,210,9,,10.0,29.911417,1012.7,,,TRUE,TRUE,,,,,,SCT,2800,,,,,,,VFR,-0.7,,,,,,,,,,,METAR,4.0
KNRB 252052Z 06013KT 10SM SCT040 BKN100 BKN250 24/19 A2997 RMK AO2 SLP146 T02440189 58012 $,KNRB,2023-04-25T20:52:00Z,30.38,-81.42,24.4,18.9,60,13,,10.0,29.970472,1014.6,,,TRUE,TRUE,,,,,,SCT,4000,BKN,10000,BKN,25000,,,VFR,-1.2,,,,,,,,,,,METAR,4.0
KNHK 252052Z COR 09008KT 10SM SCT075 SCT280 16/01 A3019 RMK AO2 SLP223 T01560011 56005 $,KNHK,2023-04-25T20:52:00Z,38.28,-76.4,15.6,1.1,90,8,,10.0,30.188976,1022.3,TRUE,,TRUE,TRUE,,,,,,SCT,7500,SCT,28000,,,,,VFR,-0.5,,,,,,,,,,,METAR,5.0
KNFW 252052Z 18014G17KT 7SM BKN033 BKN250 22/13 A2989 RMK AO2 SLP105 T02170133 58021 CHINO S VISNO S $,KNFW,2023-04-25T20:52:00Z,32.78,-97.43,21.7,13.3,180,14,17,7.0,29.890747,1010.5,,,TRUE,TRUE,,,,,,BKN,3300,BKN,25000,,,,,VFR,-2.1,,,,,,,,,,,METAR,188.0
KNFG 252052Z 27007KT 10SM BKN016 OVC023 19/13 A2991 RMK AO2 SLP126 T01890133 58009,KNFG,2023-04-25T20:52:00Z,33.3,-117.35,18.9,13.3,270,7,,10.0,29.911417,1012.6,,,TRUE,,,,,,,BKN,1600,OVC,2300,,,,,MVFR,-0.9,,,,,,,,,,,METAR,21.0
KN60 252052Z AUTO 13009G15KT 12/M07 A3015 RMK AO1 SLP228 60001 T01171072 58010,KN60,2023-04-25T20:52:00Z,47.65,-101.43,11.7,-7.2,130,9,15,,30.15059,1022.8,,TRUE,TRUE,,,,,,,,,,,,,,,,-1.0,,,,,,0.01,,,,,METAR,582.0
KMWH 252052Z 15013G18KT 10SM CLR 17/02 A3014 RMK AO2 SLP209 T01670022 58010,KMWH,2023-04-25T20:52:00Z,47.2,-119.32,16.7,2.2,150,13,18,10.0,30.138779,1020.9,,,TRUE,,,,,,,CLR,,,,,,,,VFR,-1.0,,,,,,,,,,,METAR,355.0
KMLI 252052Z 02006KT 10SM FEW044 13/03 A3016 RMK AO2 SLP213 T01280028 51006,KMLI,2023-04-25T20:52:00Z,41.45,-90.52,12.8,2.8,20,6,,10.0,30.159449,1021.3,,,TRUE,,,,,,,FEW,4400,,,,,,,VFR,0.6,,,,,,,,,,,METAR,174.0
KMLF 252052Z AUTO 36015G28KT 10SM SCT065 12/M04 A3005 RMK AO2 PK WND 34028/2045 SLP151 T01221044 57001,KMLF,2023-04-25T20:52:00Z,38.42,-113.02,12.2,-4.4,360,15,28,10.0,30.050198,1015.1,,TRUE,TRUE,,,,,,,SCT,6500,,,,,,,VFR,-0.1,,,,,,,,,,,METAR,1537.0
KMKE 252052Z 06010KT 10SM FEW032 FEW045 07/00 A3021 RMK AO2 SLP235 T00670000 50003,KMKE,2023-04-25T20:52:00Z,42.95,-87.9,6.7,0.0,60,10,,10.0,30.209646,1023.5,,,TRUE,,,,,,,FEW,3200,FEW,4500,,,,,VFR,0.3,,,,,,,,,,,METAR,203.0
KMHK 252052Z 12007KT 10SM BKN055 OVC075 18/06 A3004 RMK AO2 SLP170 T01830056 56010,KMHK,2023-04-25T20:52:00Z,39.13,-96.68,18.3,5.6,120,7,,10.0,30.041338,1017.0,,,TRUE,,,,,,,BKN,5500,OVC,7500,,,,,VFR,-1.0,,,,,,,,,,,METAR,320.0
KMFD 252052Z 22009KT 10SM OVC060 10/M02 A3013 RMK AO2 SLP212 T01001022 56009,KMFD,2023-04-25T20:52:00Z,40.82,-82.52,10.0,-2.2,220,9,,10.0,30.129921,1021.2,,,TRUE,,,,,,,OVC,6000,,,,,,,VFR,-0.9,,,,,,,,,,,METAR,394.0
KMEB 252052Z AUTO 15006KT 10SM OVC095 20/06 A3012 RMK AO2 SLP199 T02000056 56004,KMEB,2023-04-25T20:52:00Z,34.78,-79.37,20.0,5.6,150,6,,10.0,30.121063,1019.9,,TRUE,TRUE,,,,,,,OVC,9500,,,,,,,VFR,-0.4,,,,,,,,,,,METAR,65.0
KMDH 252052Z 06006KT 10SM CLR 20/01 A3010 RMK AO2 SLP190 T02000011 56015,KMDH,2023-04-25T20:52:00Z,37.78,-89.25,20.0,1.1,60,6,,10.0,30.100393,1019.0,,,TRUE,,,,,,,CLR,,,,,,,,VFR,-1.5,,,,,,,,,,,METAR,122.0
KMBG 252052Z AUTO 17010KT 10SM BKN060 OVC070 11/M05 A3014 RMK AO2 SLP219 T01061050 58005,KMBG,2023-04-25T20:52:00Z,45.55,-100.42,10.6,-5.0,170,10,,10.0,30.138779,1021.9,,TRUE,TRUE,,,,,,,BKN,6000,OVC,7000,,,,,VFR,-0.5,,,,,,,,,,,METAR,515.0
KLWC 252052Z AUTO 11012KT 8SM SCT070 19/02 A3005 RMK AO1 SLP172 T01890022 56012,KLWC,2023-04-25T20:52:00Z,39.02,-95.22,18.9,2.2,110,12,,8.0,30.050198,1017.2,,TRUE,TRUE,,,,,,,SCT,7000,,,,,,,VFR,-1.2,,,,,,,,,,,METAR,252.0
KIOW 252052Z AUTO 06005KT 10SM BKN055 13/01 A3016 RMK AO2 SLP215 T01280011 50000,KIOW,2023-04-25T20:52:00Z,41.63,-91.55,12.8,1.1,60,5,,10.0,30.159449,1021.5,,TRUE,TRUE,,,,,,,BKN,5500,,,,,,,VFR,0.0,,,,,,,,,,,METAR,199.0
KIJD 252052Z AUTO VRB03KT 10SM BKN065 OVC080 16/00 A3012 RMK AO2 SLP202 T01560000 50002,KIJD,2023-04-25T20:52:00Z,41.75,-72.18,15.6,0.0,0,3,,10.0,30.121063,1020.2,,TRUE,TRUE,,,,,,,BKN,6500,OVC,8000,,,,,VFR,0.2,,,,,,,,,,,METAR,73.0
KIEN 252052Z AUTO 10009KT 10SM BKN049 OVC060 14/03 A3001 RMK AO2 SLP164 T01390028 50001,KIEN,2023-04-25T20:52:00Z,43.03,-102.52,13.9,2.8,100,9,,10.0,30.008858,1016.4,,TRUE,TRUE,,,,,,,BKN,4900,OVC,6000,,,,,VFR,0.1,,,,,,,,,,,METAR,1002.0
KIAD 252052Z 31006KT 10SM BKN070 15/M02 A3018 RMK AO2 SLP219 T01501022 55005,KIAD,2023-04-25T20:52:00Z,38.93,-77.45,15.0,-2.2,310,6,,10.0,30.180119,1021.9,,,TRUE,,,,,,,BKN,7000,,,,,,,VFR,-0.5,,,,,,,,,,,METAR,90.0
KHUT 252052Z 14012KT 10SM OVC020 11/07 A3002 RMK AO2 SLP160 T01110067 58004,KHUT,2023-04-25T20:52:00Z,38.07,-97.87,11.1,6.7,140,12,,10.0,30.02067,1016.0,,,TRUE,,,,,,,OVC,2000,,,,,,,MVFR,-0.4,,,,,,,,,,,METAR,464.0
KHRL 252052Z 00000KT 10SM BKN010 BKN043 OVC050 24/24 A2981 RMK AO2 RAE28 SLP093 P0003 60015 T02440239 58013,KHRL,2023-04-25T20:52:00Z,26.23,-97.65,24.4,23.9,0,0,,10.0,29.811024,1009.3,,,TRUE,,,,,,,BKN,1000,BKN,4300,OVC,5000,,,MVFR,-1.3,,,,,0.03,0.15,,,,,METAR,9.0
KHIE 252052Z AUTO 06007KT 10SM FEW070 OVC100 09/05 A3013 RMK AO2 SLP212 60018 T00940050 50000,KHIE,2023-04-25T20:52:00Z,44.37,-71.55,9.4,5.0,60,7,,10.0,30.129921,1021.2,,TRUE,TRUE,,,,,,,FEW,7000,OVC,10000,,,,,VFR,0.0,,,,,,0.18,,,,,METAR,321.0
KGLS 252052Z 07011KT 10SM BKN021 BKN030 25/21 A2990 RMK AO2 SLP126 T02500206 58012,KGLS,2023-04-25T20:52:00Z,29.27,-94.87,25.0,20.6,70,11,,10.0,29.899607,1012.6,,,TRUE,,,,,,,BKN,2100,BKN,3000,,,,,MVFR,-1.2,,,,,,,,,,,METAR,2.0
KFIT 252052Z AUTO 36005KT 10SM BKN075 OVC090 14/M01 A3013 RMK AO2 RAB09E25 SLP206 P0000 60000 T01391006 53004,KFIT,2023-04-25T20:52:00Z,42.55,-71.75,13.9,-0.6,360,5,,10.0,30.129921,1020.6,,TRUE,TRUE,,,,,,,BKN,7500,OVC,9000,,,,,VFR,0.4,,,,,0.005,0.005,,,,,METAR,102.0
KEST 252052Z AUTO 04009G18KT 10SM CLR 12/M07 A3018 RMK AO2 SLP229 T01171072 56003,KEST,2023-04-25T20:52:00Z,43.4,-94.75,11.7,-7.2,40,9,18,10.0,30.180119,1022.9,,TRUE,TRUE,,,,,,,CLR,,,,,,,,VFR,-0.3,,,,,,,,,,,METAR,401.0
KDVN 252052Z AUTO 02008KT 10SM SCT044 11/01 A3018 RMK AO2 SLP219 T01110011 50003,KDVN,2023-04-25T20:52:00Z,41.62,-90.58,11.1,1.1,20,8,,10.0,30.180119,1021.9,,TRUE,TRUE,,,,,,,SCT,4400,,,,,,,VFR,0.3,,,,,,,,,,,METAR,227.0
KDDC 252052Z AUTO 10015KT 6SM -RA BR OVC005 08/07 A2995 RMK AO2 RAB1958 SLP140 P0000 60000 T00780067 58000,KDDC,2023-04-25T20:52:00Z,37.77,-99.97,7.8,6.7,100,15,,6.0,29.949802,1014.0,,TRUE,TRUE,,,,,,-RA BR,OVC,500,,,,,,,IFR,0.0,,,,,0.005,0.005,,,,,METAR,786.0
KDCA 252052Z 17006KT 10SM SCT070 BKN220 15/01 A3019 RMK AO2 SLP222 T01500006 55005 $,KDCA,2023-04-25T20:52:00Z,38.85,-77.03,15.0,0.6,170,6,,10.0,30.188976,1022.2,,,TRUE,TRUE,,,,,,SCT,7000,BKN,22000,,,,,VFR,-0.5,,,,,,,,,,,METAR,4.0
KCVG 252052Z VRB04KT 10SM BKN080 BKN110 16/00 A3011 RMK AO2 SLP196 T01610000 56014,KCVG,2023-04-25T20:52:00Z,39.05,-84.67,16.1,0.0,0,4,,10.0,30.109253,1019.6,,,TRUE,,,,,,,BKN,8000,BKN,11000,,,,,VFR,-1.4,,,,,,,,,,,METAR,264.0
KCNU 252052Z AUTO 14012G16KT 10SM SCT050 BKN100 18/06 A3004 RMK AO2 SLP169 T01780061 56010,KCNU,2023-04-25T20:52:00Z,37.67,-95.48,17.8,6.1,140,12,16,10.0,30.041338,1016.9,,TRUE,TRUE,,,,,,,SCT,5000,BKN,10000,,,,,VFR,-1.0,,,,,,,,,,,METAR,301.0
KCLT 252052Z 00000KT 10SM BKN065 BKN110 OVC250 18/04 A3011 RMK AO2 SLP211 T01830039 58003,KCLT,2023-04-25T20:52:00Z,35.22,-80.95,18.3,3.9,0,0,,10.0,30.109253,1021.1,,,TRUE,,,,,,,BKN,6500,BKN,11000,OVC,25000,,,VFR,-0.3,,,,,,,,,,,METAR,223.0
KCKV 252052Z AUTO 07007KT 10SM CLR 20/01 A3010 RMK AO2 SLP190 T02000006 58015,KCKV,2023-04-25T20:52:00Z,36.62,-87.42,20.0,0.6,70,7,,10.0,30.100393,1019.0,,TRUE,TRUE,,,,,,,CLR,,,,,,,,VFR,-1.5,,,,,,,,,,,METAR,166.0
KCID 252052Z 01005KT 10SM FEW060 13/M01 A3014 RMK AO2 SLP210 T01331011 57002,KCID,2023-04-25T20:52:00Z,41.88,-91.72,13.3,-1.1,10,5,,10.0,30.138779,1021.0,,,TRUE,,,,,,,FEW,6000,,,,,,,VFR,-0.2,,,,,,,,,,,METAR,257.0
KCFV 252052Z AUTO 19007KT 10SM OVC048 15/08 A3004 RMK AO2 SLP170 T01500078 56008,KCFV,2023-04-25T20:52:00Z,37.08,-95.57,15.0,7.8,190,7,,10.0,30.041338,1017.0,,TRUE,TRUE,,,,,,,OVC,4800,,,,,,,VFR,-0.8,,,,,,,,,,,METAR,228.0
KBML 252052Z AUTO 00000KT 10SM OVC026 08/03 A3014 RMK AO2 SLP216 T00780028 53006,KBML,2023-04-25T20:52:00Z,44.58,-71.18,7.8,2.8,0,0,,10.0,30.138779,1021.6,,TRUE,TRUE,,,,,,,OVC,2600,,,,,,,MVFR,0.6,,,,,,,,,,,METAR,344.0
KBLU 252052Z AUTO 07007KT 040V110 10SM CLR 17/M09 A3009 RMK AO2 SLP133 T01671089 50006,KBLU,2023-04-25T20:52:00Z,39.28,-120.7,16.7,-8.9,70,7,,10.0,30.088583,1013.3,,TRUE,TRUE,,,,,,,CLR,,,,,,,,VFR,0.6,,,,,,,,,,,METAR,1605.0
KBLF 252052Z AUTO 30006KT 10SM SCT100 13/M07 A3013 RMK AO2 SLP204 T01281072 55003,KBLF,2023-04-25T20:52:00Z,37.3,-81.2,12.8,-7.2,300,6,,10.0,30.129921,1020.4,,TRUE,TRUE,,,,,,,SCT,10000,,,,,,,VFR,-0.3,,,,,,,,,,,METAR,871.0
KBKB 252052Z AUTO VRB04KT 10SM SCT110 23/12 A2992 RMK AO2 SLP159 T02330122 58021,KBKB,2023-04-25T20:52:00Z,31.02,-92.92,23.3,12.2,0,4,,10.0,29.920275,1015.9,,TRUE,TRUE,,,,,,,SCT,11000,,,,,,,VFR,-2.1,,,,,,,,,,,METAR,74.0
KBIS 252052Z 16010G19KT 10SM CLR 12/M06 A3017 RMK AO2 SLP231 T01221056 56008,KBIS,2023-04-25T20:52:00Z,46.77,-100.75,12.2,-5.6,160,10,19,10.0,30.171259,1023.1,,,TRUE,,,,,,,CLR,,,,,,,,VFR,-0.8,,,,,,,,,,,METAR,506.0
KBDR 252052Z 18009KT 10SM BKN095 14/02 A3014 RMK AO2 SLP207 T01390022 55001 $,KBDR,2023-04-25T20:52:00Z,41.17,-73.13,13.9,2.2,180,9,,10.0,30.138779,1020.7,,,TRUE,TRUE,,,,,,BKN,9500,,,,,,,VFR,-0.1,,,,,,,,,,,METAR,5.0
KBAN 252052Z AUTO 23004KT 10SM CLR 11/M06 A3013 RMK AO2 SLP178 T01111056 55003 $,KBAN,2023-04-25T20:52:00Z,38.35,-119.52,11.1,-5.6,230,4,,10.0,30.129921,1017.8,,TRUE,TRUE,TRUE,,,,,,CLR,,,,,,,,VFR,-0.3,,,,,,,,,,,METAR,2067.0
KATL 252052Z 22005KT 10SM SCT070 BKN095 BKN250 22/06 A3003 RMK AO2 SLP166 ACC N-E W-NW T02170061 58013,KATL,2023-04-25T20:52:00Z,33.63,-84.45,21.7,6.1,220,5,,10.0,30.029528,1016.6,,,TRUE,,,,,,,SCT,7000,BKN,9500,BKN,25000,,,VFR,-1.3,,,,,,,,,,,METAR,309.0
KARR 252052Z 03012KT 8SM BKN027 BKN037 08/02 A3017 RMK AO2 SLP219 T00830017 50004,KARR,2023-04-25T20:52:00Z,41.77,-88.48,8.3,1.7,30,12,,8.0,30.171259,1021.9,,,TRUE,,,,,,,BKN,2700,BKN,3700,,,,,MVFR,0.4,,,,,,,,,,,METAR,213.0
KAQW 252052Z AUTO VRB04KT 10SM OVC048 11/01 A3016 RMK AO2 SLP217 60000 T01060006 53005,KAQW,2023-04-25T20:52:00Z,42.7,-73.17,10.6,0.6,0,4,,10.0,30.159449,1021.7,,TRUE,TRUE,,,,,,,OVC,4800,,,,,,,VFR,0.5,,,,,,0.005,,,,,METAR,196.0
KALS 252052Z AUTO 20026G38KT 10SM FEW075 BKN095 15/M05 A2979 RMK AO2 PK WND 21045/2021 WSHFT 2024 SLP031 T01501050 55008,KALS,2023-04-25T20:52:00Z,37.43,-105.87,15.0,-5.0,200,26,38,10.0,29.790354,1003.1,,TRUE,TRUE,,,,,,,FEW,7500,BKN,9500,,,,,VFR,-0.8,,,,,,,,,,,METAR,2299.0
KAFN 252052Z AUTO 29007KT 10SM BKN100 12/M01 A3013 RMK AO2 SLP214 T01221006 51007,KAFN,2023-04-25T20:52:00Z,42.8,-72.0,12.2,-0.6,290,7,,10.0,30.129921,1021.4,,TRUE,TRUE,,,,,,,BKN,10000,,,,,,,VFR,0.7,,,,,,,,,,,METAR,308.0
KABQ 252052Z 26023G37KT 10SM SCT110 BKN140 BKN250 23/M07 A2979 RMK AO2 PK WND 25057/2005 RAB17E21 SLP022 BLDU SE P0000 60000 T02281067 55025,KABQ,2023-04-25T20:52:00Z,35.05,-106.62,22.8,-6.7,260,23,37,10.0,29.790354,1002.2,,,TRUE,,,,,,,SCT,11000,BKN,14000,BKN,25000,,,VFR,-2.5,,,,,0.005,0.005,,,,,METAR,1620.0
PHBK 252051Z AUTO 01014G19KT 10SM CLR 28/18 A3003 RMK AO2 SLP171 T02780183 58002,PHBK,2023-04-25T20:51:00Z,22.03,-159.78,27.8,18.3,10,14,19,10.0,30.029528,1017.1,,TRUE,TRUE,,,,,,,CLR,,,,,,,,VFR,-0.2,,,,,,,,,,,METAR,5.0
MUGM 252051Z 15010KT 10SM FEW030 FEW250 29/22 A2988 RMK AO2 SLP119 SHRA DSNT NE T02890217 56016 $,MUGM,2023-04-25T20:51:00Z,19.9,-75.2,28.9,21.7,150,10,,10.0,29.878937,1011.9,,,TRUE,TRUE,,,,,,FEW,3000,FEW,25000,,,,,VFR,-1.6,,,,,,,,,,,SPECI,21.0
MUCM 252051Z 22008KT 180V280 9000 SCT036 33/13 Q1011,MUCM,2023-04-25T20:51:00Z,21.42,-77.85,33.0,13.0,220,8,,5.59,29.852362,,,,,,,,,,,SCT,3600,,,,,,,VFR,,,,,,,,,,,,METAR,125.0
MMQT 252051Z 27007G28KT 12SM BKN270 28/M07 A3015 RMK 8/008,MMQT,2023-04-25T20:51:00Z,20.62,-100.18,28.0,-7.0,270,7,28,12.0,30.15059,,,,,,,,,,,BKN,27000,,,,,,,VFR,,,,,,,,,,,,METAR,1909.0
KYNG 252051Z 24011KT 10SM -RA FEW038 OVC055 10/M02 A3015 RMK AO2 RAB39 SLP218 P0000 60000 T01001022 55003,KYNG,2023-04-25T20:51:00Z,41.25,-80.67,10.0,-2.2,240,11,,10.0,30.15059,1021.8,,,TRUE,,,,,,-RA,FEW,3800,OVC,5500,,,,,VFR,-0.3,,,,,0.005,0.005,,,,,METAR,356.0
KXWA 252051Z AUTO 17013G23KT 10SM CLR 14/M03 A3007 RMK AO2 SLP205 T01391028 58013,KXWA,2023-04-25T20:51:00Z,48.27,-103.75,13.9,-2.8,170,13,23,10.0,30.070866,1020.5,,TRUE,TRUE,,,,,,,CLR,,,,,,,,VFR,-1.3,,,,,,,,,,,METAR,717.0
KVNY 252051Z 15007KT 10SM CLR 24/12 A2987 RMK AO2 SLP109 T02390122 58011,KVNY,2023-04-25T20:51:00Z,34.22,-118.48,23.9,12.2,150,7,,10.0,29.870079,1010.9,,,TRUE,,,,,,,CLR,,,,,,,,VFR,-1.1,,,,,,,,,,,METAR,241.0
KUGN 252051Z 03010KT 10SM FEW030 07/00 A3020 RMK AO2 SLP233 T00720000 51003,KUGN,2023-04-25T20:51:00Z,42.42,-87.87,7.2,0.0,30,10,,10.0,30.200787,1023.3,,,TRUE,,,,,,,FEW,3000,,,,,,,VFR,0.3,,,,,,,,,,,METAR,217.0
KTPL 252051Z AUTO 13008KT OVC025 21/17 A2989 RMK AO2 SLP115 T02110167 56018 PWINO RVRNO $,KTPL,2023-04-25T20:51:00Z,31.15,-97.4,21.1,16.7,130,8,,,29.890747,1011.5,,TRUE,TRUE,TRUE,,,,TRUE,,OVC,2500,,,,,,,,-1.8,,,,,,,,,,,METAR,206.0
KTEB 252051Z 25007KT 10SM BKN070 OVC080 14/M01 A3014 RMK AO2 RAB42E50 SLP205 P0000 60000 T01391006 55001,KTEB,2023-04-25T20:51:00Z,40.87,-74.05,13.9,-0.6,250,7,,10.0,30.138779,1020.5,,,TRUE,,,,,,,BKN,7000,OVC,8000,,,,,VFR,-0.1,,,,,0.005,0.005,,,,,METAR,3.0
KSTL 252051Z 33007KT 290V360 10SM FEW070 SCT100 SCT250 21/03 A3008 RMK AO2 SLP182 T02110028 58011 $,KSTL,2023-04-25T20:51:00Z,38.75,-90.37,21.1,2.8,330,7,,10.0,30.079725,1018.2,,,TRUE,TRUE,,,,,,FEW,7000,SCT,10000,SCT,25000,,,VFR,-1.1,,,,,,,,,,,METAR,163.0
KSNT 252051Z AUTO 35005KT 08/M04 A3011 RMK AO1 SLP159 T00831044 55001,KSNT,2023-04-25T20:51:00Z,44.17,-114.93,8.3,-4.4,350,5,,,30.109253,1015.9,,TRUE,TRUE,,,,,,,,,,,,,,,,-0.1,,,,,,,,,,,METAR,1980.0
KSMX 252051Z 29009KT 7SM SCT200 17/11 A2993 RMK AO2 SLP137 T01670106 58006,KSMX,2023-04-25T20:51:00Z,34.9,-120.45,16.7,10.6,290,9,,7.0,29.929134,1013.7,,,TRUE,,,,,,,SCT,20000,,,,,,,VFR,-0.6,,,,,,,,,,,METAR,73.0
KSMO 252051Z 23010KT 10SM CLR 18/11 A2990 RMK AO2 SLP125 T01830111 58008,KSMO,2023-04-25T20:51:00Z,34.02,-118.45,18.3,11.1,230,10,,10.0,29.899607,1012.5,,,TRUE,,,,,,,CLR,,,,,,,,VFR,-0.8,,,,,,,,,,,METAR,56.0
KSLK 252051Z AUTO 21007KT 10SM BKN036 BKN046 OVC070 06/M01 A3012 RMK AO2 SLP213 T00611011 50003,KSLK,2023-04-25T20:51:00Z,44.4,-74.2,6.1,-1.1,210,7,,10.0,30.121063,1021.3,,TRUE,TRUE,,,,,,,BKN,3600,BKN,4600,OVC,7000,,,VFR,0.3,,,,,,,,,,,METAR,502.0
KSDB 252051Z AUTO 08009G21KT 10SM CLR 22/M01 A3001 RMK AO2 SLP117 T02221006 58002 PWINO $,KSDB,2023-04-25T20:51:00Z,34.75,-118.72,22.2,-0.6,80,9,21,10.0,30.008858,1011.7,,TRUE,TRUE,TRUE,,,,TRUE,,CLR,,,,,,,,VFR,-0.2,,,,,,,,,,,METAR,1377.0
KSAT 252051Z 17007KT 10SM FEW029 BKN039 OVC065 24/18 A2984 RMK AO2 SLP088 60000 T02440183 58026,KSAT,2023-04-25T20:51:00Z,29.53,-98.48,24.4,18.3,170,7,,10.0,29.840551,1008.8,,,TRUE,,,,,,,FEW,2900,BKN,3900,OVC,6500,,,VFR,-2.6,,,,,,0.005,,,,,METAR,246.0
KSAN 252051Z 20009KT 10SM SCT022 BKN029 19/12 A2992 RMK AO2 SLP133 T01940122 58008,KSAN,2023-04-25T20:51:00Z,32.73,-117.18,19.4,12.2,200,9,,10.0,29.920275,1013.3,,,TRUE,,,,,,,SCT,2200,BKN,2900,,,,,MVFR,-0.8,,,,,,,,,,,METAR,3.0
KSAD 252051Z AUTO 30011G28KT 270V330 10SM CLR 30/M03 A2978 RMK AO2 PK WND 30028/2043 SLP037 T03001033 58026,KSAD,2023-04-25T20:51:00Z,32.85,-109.63,30.0,-3.3,300,11,28,10.0,29.778543,1003.7,,TRUE,TRUE,,,,,,,CLR,,,,,,,,VFR,-2.6,,,,,,,,,,,METAR,937.0
KROW 252051Z AUTO 10SM CLR 28/00 A2974 RMK AO2 RAB09E19 SLP017 P0000 60000 T02780000 57027,KROW,2023-04-25T20:51:00Z,33.3,-104.5,27.8,0.0,,,,10.0,29.740158,1001.7,,TRUE,TRUE,,,,,,,CLR,,,,,,,,VFR,-2.7,,,,,0.005,0.005,,,,,METAR,1105.0
KRDU 252051Z 12005KT 10SM SCT048 BKN070 BKN250 20/07 A3012 RMK AO2 SLP198 T02000067 56009,KRDU,2023-04-25T20:51:00Z,35.9,-78.78,20.0,6.7,120,5,,10.0,30.121063,1019.8,,,TRUE,,,,,,,SCT,4800,BKN,7000,BKN,25000,,,VFR,-0.9,,,,,,,,,,,METAR,121.0
KPWM 252051Z 09013KT 3/4SM BR OVC005 06/06 A3020 RMK AO2 SLP228 T00610056 53006,KPWM,2023-04-25T20:51:00Z,43.65,-70.3,6.1,5.6,90,13,,0.75,30.200787,1022.8,,,TRUE,,,,,,BR,OVC,500,,,,,,,LIFR,0.6,,,,,,,,,,,METAR,15.0
KPVD 252051Z 17007KT 10SM BKN085 14/03 A3013 RMK AO2 SLP203 T01440028 51002,KPVD,2023-04-25T20:51:00Z,41.72,-71.43,14.4,2.8,170,7,,10.0,30.129921,1020.3,,,TRUE,,,,,,,BKN,8500,,,,,,,VFR,0.2,,,,,,,,,,,METAR,15.0
KPIT 252051Z 15006KT 10SM FEW070 BKN110 BKN250 12/M06 A3013 RMK AO2 SLP217 T01171056 56015,KPIT,2023-04-25T20:51:00Z,40.47,-80.2,11.7,-5.6,150,6,,10.0,30.129921,1021.7,,,TRUE,,,,,,,FEW,7000,BKN,11000,BKN,25000,,,VFR,-1.5,,,,,,,,,,,METAR,339.0
KPHX 252051Z 25009G22KT 10SM FEW120 32/04 A2974 RMK AO2 SLP053 T03220039 58021,KPHX,2023-04-25T20:51:00Z,33.43,-112.02,32.2,3.9,250,9,22,10.0,29.740158,1005.3,,,TRUE,,,,,,,FEW,12000,,,,,,,VFR,-2.1,,,,,,,,,,,METAR,338.0
KP59 252051Z AUTO 04006KT 03/M03 A3028 RMK AO1 SLP262 T00281028 50003,KP59,2023-04-25T20:51:00Z,47.47,-87.88,2.8,-2.8,40,6,,,30.280512,1026.2,,TRUE,TRUE,,,,,,,,,,,,,,,,0.3,,,,,,,,,,,METAR,185.0
KOXR 252051Z 26009KT 9SM OVC018 17/14 A2991 RMK AO2 SLP129 T01720139 58007,KOXR,2023-04-25T20:51:00Z,34.2,-119.2,17.2,13.9,260,9,,9.0,29.911417,1012.9,,,TRUE,,,,,,,OVC,1800,,,,,,,MVFR,-0.7,,,,,,,,,,,METAR,12.0
KOXC 252051Z COR 00000KT 10SM BKN085 12/M01 A3015 RMK AO2 SLP224 T01221011 53001 $,KOXC,2023-04-25T20:51:00Z,41.47,-73.13,12.2,-1.1,0,0,,10.0,30.15059,1022.4,TRUE,,TRUE,TRUE,,,,,,BKN,8500,,,,,,,VFR,0.1,,,,,,,,,,,METAR,211.0
KORF 252051Z 05008G16KT 10SM CLR 15/02 A3018 RMK AO2 SLP218 T01500017 56005,KORF,2023-04-25T20:51:00Z,36.9,-76.2,15.0,1.7,50,8,16,10.0,30.180119,1021.8,,,TRUE,,,,,,,CLR,,,,,,,,VFR,-0.5,,,,,,,,,,,METAR,5.0
KORD 252051Z 03014G19KT 10SM SCT023 BKN039 07/00 A3018 RMK AO2 SLP224 T00720000 50006 $,KORD,2023-04-25T20:51:00Z,41.95,-87.93,7.2,0.0,30,14,19,10.0,30.180119,1022.4,,,TRUE,TRUE,,,,,,SCT,2300,BKN,3900,,,,,VFR,0.6,,,,,,,,,,,METAR,202.0
KOCF 252051Z 09009G16KT 10SM BKN060 24/20 A2993 RMK AO2 LTG DSNT N AND SE TSE22 SLP136 60016 T02440200 50000 $,KOCF,2023-04-25T20:51:00Z,29.17,-82.22,24.4,20.0,90,9,16,10.0,29.929134,1013.6,,,TRUE,TRUE,,,,,,BKN,6000,,,,,,,VFR,0.0,,,,,,0.16,,,,,METAR,24.0
KNYC 252051Z AUTO VRB03KT 10SM BKN065 OVC085 15/M01 A3017 RMK AO2 SLP208 T01501011 55001 $,KNYC,2023-04-25T20:51:00Z,40.78,-73.97,15.0,-1.1,0,3,,10.0,30.171259,1020.8,,TRUE,TRUE,TRUE,,,,,,BKN,6500,OVC,8500,,,,,VFR,-0.1,,,,,,,,,,,METAR,33.0
KNBT 252051Z AUTO 07013KT 10SM CLR 22/09 A3013 RMK AO2 SLP208 T02170094 56008,KNBT,2023-04-25T20:51:00Z,35.02,-76.47,21.7,9.4,70,13,,10.0,30.129921,1020.8,,TRUE,TRUE,,,,,,,CLR,,,,,,,,VFR,-0.8,,,,,,,,,,,METAR,5.0
KMYL 252051Z AUTO 33009KT 10SM CLR 09/M02 A3010 RMK AO2 SLP199 T00891017 55004,KMYL,2023-04-25T20:51:00Z,44.9,-116.1,8.9,-1.7,330,9,,10.0,30.100393,1019.9,,TRUE,TRUE,,,,,,,CLR,,,,,,,,VFR,-0.4,,,,,,,,,,,METAR,1532.0
KMWN 252051Z 20009KT 1/16SM -SN FZFG VV000 M03/M03 RMK VRY LGT ICG,KMWN,2023-04-25T20:51:00Z,44.27,-71.3,-3.0,-3.0,200,9,,0.06,,,,,,,,,,,-SN FZFG,OVX,0,,,,,,,LIFR,,,,,,,,,,,0,METAR,1911.0
KLWB 252051Z 23007KT 10SM CLR 13/M04 A3012,KLWB,2023-04-25T20:51:00Z,37.87,-80.4,13.0,-4.0,230,7,,10.0,30.121063,,,,,,,,,,,CLR,,,,,,,,VFR,,,,,,,,,,,,METAR,702.0
KLGU 252051Z AUTO 00000KT 10SM OVC045 05/02 A3010 RMK AO2 SLP192 60002 T00500017 53010,KLGU,2023-04-25T20:51:00Z,41.78,-111.85,5.0,1.7,0,0,,10.0,30.100393,1019.2,,TRUE,TRUE,,,,,,,OVC,4500,,,,,,,VFR,1.0,,,,,,0.02,,,,,METAR,1359.0
KLGA 252051Z 03004KT 10SM FEW060 BKN090 14/M01 A3015 RMK AO2 SLP208 T01391011 53000,KLGA,2023-04-25T20:51:00Z,40.78,-73.88,13.9,-1.1,30,4,,10.0,30.15059,1020.8,,,TRUE,,,,,,,FEW,6000,BKN,9000,,,,,VFR,0.0,,,,,,,,,,,METAR,9.0
KJFK 252051Z 19009KT 10SM FEW065 BKN085 BKN250 12/03 A3016 RMK AO2 SLP214 T01220033 53001 $,KJFK,2023-04-25T20:51:00Z,40.63,-73.77,12.2,3.3,190,9,,10.0,30.159449,1021.4,,,TRUE,TRUE,,,,,,FEW,6500,BKN,8500,BKN,25000,,,VFR,0.1,,,,,,,,,,,METAR,3.0
KILG 252051Z 29007KT 10SM CLR 14/M02 A3019 RMK AO2 SLP222 T01441022 55002 $,KILG,2023-04-25T20:51:00Z,39.67,-75.6,14.4,-2.2,290,7,,10.0,30.188976,1022.2,,,TRUE,TRUE,,,,,,CLR,,,,,,,,VFR,-0.2,,,,,,,,,,,METAR,22.0
KIGM 252051Z AUTO 36019G30KT 10SM CLR 23/M09 A2992 RMK AO2 PK WND 02030/2043 SLP075 T02331089 58003,KIGM,2023-04-25T20:51:00Z,35.25,-113.93,23.3,-8.9,360,19,30,10.0,29.920275,1007.5,,TRUE,TRUE,,,,,,,CLR,,,,,,,,VFR,-0.3,,,,,,,,,,,METAR,1045.0
KHTS 252051Z 18007KT 10SM CLR 17/M03 A3012 RMK AO2 SLP202 T01721028 56016,KHTS,2023-04-25T20:51:00Z,38.37,-82.55,17.2,-2.8,180,7,,10.0,30.121063,1020.2,,,TRUE,,,,,,,CLR,,,,,,,,VFR,-1.6,,,,,,,,,,,METAR,252.0
KHSE 252051Z AUTO 05010G18KT 10SM CLR 17/10 A3014 RMK AO2 SLP207 T01720100 58006 $,KHSE,2023-04-25T20:51:00Z,35.23,-75.62,17.2,10.0,50,10,18,10.0,30.138779,1020.7,,TRUE,TRUE,TRUE,,,,,,CLR,,,,,,,,VFR,-0.6,,,,,,,,,,,METAR,4.0
KHDO 252051Z AUTO VRB03KT 10SM FEW027 SCT033 OVC060 24/18 A2983 RMK AO2 SLP090 T02440178 58021,KHDO,2023-04-25T20:51:00Z,29.37,-99.17,24.4,17.8,0,3,,10.0,29.828741,1009.0,,TRUE,TRUE,,,,,,,FEW,2700,SCT,3300,OVC,6000,,,VFR,-2.1,,,,,,,,,,,METAR,280.0
KGEU 252051Z 23013G20KT 10SM FEW100 31/04 A2973,KGEU,2023-04-25T20:51:00Z,33.53,-112.3,31.0,4.0,230,13,20,10.0,29.731298,,,,,,,,,,,FEW,10000,,,,,,,VFR,,,,,,,,,,,,METAR,319.0
KGDP 252051Z AUTO 23025G46KT 6SM HZ 26/M06 A2988 RMK AO2 PK WND 24046/2042 SLPNO T02561056,KGDP,2023-04-25T20:51:00Z,31.83,-104.82,25.6,-5.6,230,25,46,6.0,29.878937,,,TRUE,TRUE,,,,,,HZ,,,,,,,,,,,,,,,,,,,,,METAR,1664.0
KEWR 252051Z 26011G15KT 10SM FEW060 BKN085 16/M02 A3015 RMK AO2 SLP209 T01611022 55000,KEWR,2023-04-25T20:51:00Z,40.68,-74.17,16.1,-2.2,260,11,15,10.0,30.15059,1020.9,,,TRUE,,,,,,,FEW,6000,BKN,8500,,,,,VFR,0.0,,,,,,,,,,,METAR,2.0
KERI 252051Z 33004KT 10SM FEW047 OVC060 06/01 A3019 RMK AO2 SLP230 T00610006 51006,KERI,2023-04-25T20:51:00Z,42.08,-80.18,6.1,0.6,330,4,,10.0,30.188976,1023.0,,,TRUE,,,,,,,FEW,4700,OVC,6000,,,,,VFR,0.6,,,,,,,,,,,METAR,222.0
KELP 252051Z 24015G24KT 10SM FEW130 29/M06 A2981 RMK AO2 PK WND 25033/2030 SLP022 T02891056 58024,KELP,2023-04-25T20:51:00Z,31.82,-106.35,28.9,-5.6,240,15,24,10.0,29.811024,1002.2,,,TRUE,,,,,,,FEW,13000,,,,,,,VFR,-2.4,,,,,,,,,,,METAR,1205.0
KEKN 252051Z AUTO 00000KT 10SM CLR 14/M05 A3010 RMK AO2 SLP209 T01441050 58013,KEKN,2023-04-25T20:51:00Z,38.88,-79.85,14.4,-5.0,0,0,,10.0,30.100393,1020.9,,TRUE,TRUE,,,,,,,CLR,,,,,,,,VFR,-1.3,,,,,,,,,,,METAR,596.0
KCSG 252051Z 00000KT 10SM BKN060 24/10 A2999 RMK AO2 SLP152 T02390100 58014,KCSG,2023-04-25T20:51:00Z,32.52,-84.95,23.9,10.0,0,0,,10.0,29.991142,1015.2,,,TRUE,,,,,,,BKN,6000,,,,,,,VFR,-1.4,,,,,,,,,,,METAR,120.0
KCRP 252051Z 14010KT 10SM SCT022 BKN030 OVC085 26/22 A2982 RMK AO2 SLP097 T02610217 57020,KCRP,2023-04-25T20:51:00Z,27.77,-97.5,26.1,21.7,140,10,,10.0,29.819881,1009.7,,,TRUE,,,,,,,SCT,2200,BKN,3000,OVC,8500,,,MVFR,-2.0,,,,,,,,,,,METAR,11.0
KCON 252051Z AUTO 28006KT 10SM -RA FEW044 OVC055 11/04 A3015 RMK AO2 RAB44 SLP211 P0000 60000 T01060039 53010,KCON,2023-04-25T20:51:00Z,43.2,-71.5,10.6,3.9,280,6,,10.0,30.15059,1021.1,,TRUE,TRUE,,,,,,-RA,FEW,4400,OVC,5500,,,,,VFR,1.0,,,,,0.005,0.005,,,,,METAR,102.0
KCMH 252051Z VRB05KT 10SM SCT075 BKN100 OVC250 13/M02 A3013 RMK AO2 SLP209 T01281022 56013,KCMH,2023-04-25T20:51:00Z,40.0,-82.88,12.8,-2.2,0,5,,10.0,30.129921,1020.9,,,TRUE,,,,,,,SCT,7500,BKN,10000,OVC,25000,,,VFR,-1.3,,,,,,,,,,,METAR,257.0
KCLE 252051Z 03006KT 10SM OVC060 08/02 A3014 RMK AO2 RAE24 SLP229 P0000 60000 T00780022 58006,KCLE,2023-04-25T20:51:00Z,41.42,-81.85,7.8,2.2,30,6,,10.0,30.138779,1022.9,,,TRUE,,,,,,,OVC,6000,,,,,,,VFR,-0.6,,,,,0.005,0.005,,,,,METAR,237.0
KCDJ 252051Z AUTO 00000KT 19/04 A3008 RMK AO1 SLP182 T01940039 58012,KCDJ,2023-04-25T20:51:00Z,39.82,-93.57,19.4,3.9,0,0,,,30.079725,1018.2,,TRUE,TRUE,,,,,,,,,,,,,,,,-1.2,,,,,,,,,,,METAR,234.0
KCAK 252051Z 24009KT 10SM BKN060 OVC080 11/M02 A3014 RMK AO2 SLP213 T01061022 56008,KCAK,2023-04-25T20:51:00Z,40.92,-81.45,10.6,-2.2,240,9,,10.0,30.138779,1021.3,,,TRUE,,,,,,,BKN,6000,OVC,8000,,,,,VFR,-0.8,,,,,,,,,,,METAR,369.0
KBKW 252051Z AUTO VRB04KT 10SM CLR 13/M07 A3012 RMK AO2 SLP209 T01331072 58009,KBKW,2023-04-25T20:51:00Z,37.8,-81.12,13.3,-7.2,0,4,,10.0,30.121063,1020.9,,TRUE,TRUE,,,,,,,CLR,,,,,,,,VFR,-0.9,,,,,,,,,,,METAR,762.0
KBHK 252051Z AUTO 13020G24KT 10SM CLR 11/01 A3004 RMK AO2 PK WND 13028/2006 SLP184 T01110011 58009,KBHK,2023-04-25T20:51:00Z,46.35,-104.25,11.1,1.1,130,20,24,10.0,30.041338,1018.4,,TRUE,TRUE,,,,,,,CLR,,,,,,,,VFR,-0.9,,,,,,,,,,,METAR,904.0
KBGD 252051Z AUTO 13011G21KT 10SM SCT050 22/08 A2979 RMK AO2 SLP061 T02220083 58027,KBGD,2023-04-25T20:51:00Z,35.7,-101.4,22.2,8.3,130,11,21,10.0,29.790354,1006.1,,TRUE,TRUE,,,,,,,SCT,5000,,,,,,,VFR,-2.7,,,,,,,,,,,METAR,928.0
KBED 252051Z 11011KT 10SM SCT080 OVC095 12/06 A3012 RMK AO2 SLP214 60000 T01220056 53005,KBED,2023-04-25T20:51:00Z,42.47,-71.3,12.2,5.6,110,11,,10.0,30.121063,1021.4,,,TRUE,,,,,,,SCT,8000,OVC,9500,,,,,VFR,0.5,,,,,,0.005,,,,,METAR,39.0
KBDL 252051Z 25008KT 210V280 10SM BKN070 BKN095 15/M01 A3013 RMK AO2 SLP204 T01501006 53001,KBDL,2023-04-25T20:51:00Z,41.93,-72.68,15.0,-0.6,250,8,,10.0,30.129921,1020.4,,,TRUE,,,,,,,BKN,7000,BKN,9500,,,,,VFR,0.1,,,,,,,,,,,METAR,52.0
KBAZ 252051Z AUTO 15004KT 10SM SCT023 BKN070 25/19 A2983 RMK AO2 SLP094 60000 T02500194 56028,KBAZ,2023-04-25T20:51:00Z,29.72,-98.05,25.0,19.4,150,4,,10.0,29.828741,1009.4,,TRUE,TRUE,,,,,,,SCT,2300,BKN,7000,,,,,VFR,-2.8,,,,,,0.005,,,,,METAR,199.0
KAVX 252051Z AUTO 00000KT 5SM BR OVC002 14/12 A2993 RMK AO2 SLP128 T01440122 58005,KAVX,2023-04-25T20:51:00Z,33.4,-118.42,14.4,12.2,0,0,,5.0,29.929134,1012.8,,TRUE,TRUE,,,,,,BR,OVC,200,,,,,,,LIFR,-0.5,,,,,,,,,,,METAR,482.0
KATT 252051Z AUTO 00000KT 10SM FEW025 BKN049 OVC070 21/20 A2987 RMK AO2 RAB12E27 SLP109 P0000 60000 T02110200 56022,KATT,2023-04-25T20:51:00Z,30.32,-97.77,21.1,20.0,0,0,,10.0,29.870079,1010.9,,TRUE,TRUE,,,,,,,FEW,2500,BKN,4900,OVC,7000,,,VFR,-2.2,,,,,0.005,0.005,,,,,METAR,203.0
KALB 252051Z 00000KT 10SM -DZ OVC070 11/M01 A3019 RMK AO2 SLP224 P0000 60000 T01061006 52003,KALB,2023-04-25T20:51:00Z,42.75,-73.8,10.6,-0.6,0,0,,10.0,30.188976,1022.4,,,TRUE,,,,,,-DZ,OVC,7000,,,,,,,VFR,0.3,,,,,0.005,0.005,,,,,METAR,82.0
KAHN 252051Z 05005KT 10SM FEW055 OVC100 21/08 A3006 RMK AO2 SLP177 T02060083 58008,KAHN,2023-04-25T20:51:00Z,33.95,-83.33,20.6,8.3,50,5,,10.0,30.059055,1017.7,,,TRUE,,,,,,,FEW,5500,OVC,10000,,,,,VFR,-0.8,,,,,,,,,,,METAR,241.0
KABE 252051Z 23006KT 10SM CLR 13/M04 A3016 RMK AO2 SLP215 T01331044 55004,KABE,2023-04-25T20:51:00Z,40.65,-75.45,13.3,-4.4,230,6,,10.0,30.159449,1021.5,,,TRUE,,,,,,,CLR,,,,,,,,VFR,-0.4,,,,,,,,,,,METAR,117.0
TJBQ 252050Z 02005KT 10SM SCT036 28/21 A2993,TJBQ,2023-04-25T20:50:00Z,18.5,-67.13,28.0,21.0,20,5,,10.0,29.929134,,,,,,,,,,,SCT,3600,,,,,,,VFR,,,,,,,,,,,,METAR,69.0
RJTR 252050Z AUTO 29003KT 5SM -RA BR OVC015 11/11 A2991 RMK AO2 LTG DSNT S RAE03RAB04E14RAB50 SLP131 $,RJTR,2023-04-25T20:50:00Z,35.52,139.4,11.0,11.0,290,3,,5.0,29.911417,1013.1,,TRUE,TRUE,TRUE,,,,,-RA BR,OVC,1500,,,,,,,MVFR,,,,,,,,,,,,METAR,106.0
PTRO 252050Z 01004KT 14SM SCT015 BKN110 BKN290 25/24 A2979 ,PTRO,2023-04-25T20:50:00Z,7.37,134.55,25.0,24.0,10,4,,14.0,29.790354,,,,,,,,,,,SCT,1500,BKN,11000,BKN,29000,,,VFR,,,,,,,,,,,,METAR,30.0
PGRO 252050Z 08012KT 7SM VCSH BKN014 BKN100 26/23 A2981 RMK VCSH SW,PGRO,2023-04-25T20:50:00Z,14.18,145.25,26.0,23.0,80,12,,7.0,29.811024,,,,,,,,,,VCSH,BKN,1400,BKN,10000,,,,,MVFR,,,,,,,,,,,,METAR,181.0
PALP 252050Z VRB02KT 5SM SCT002 BKN006 BKN010 M17/M20 A3022,PALP,2023-04-25T20:50:00Z,70.33,-150.93,-17.0,-20.0,0,2,,5.0,30.221457,,,,,,,,,,,SCT,200,BKN,600,BKN,1000,,,IFR,,,,,,,,,,,,METAR,4.0
OOSH 252050Z AUTO VRB03KT //// ////// 27/23 Q1007 RMK 1003,OOSH,2023-04-25T20:50:00Z,24.38,56.62,27.0,23.0,0,3,,,29.734253,,,TRUE,,,,,,,,,,,,,,,,,,,,,,,,,,,,METAR,35.0
OOSA 252050Z 22006KT 9999 SCT025 29/24 Q1008 NOSIG,OOSA,2023-04-25T20:50:00Z,17.03,54.1,29.0,24.0,220,6,,6.21,29.763779,,,,,,TRUE,,,,,SCT,2500,,,,,,,VFR,,,,,,,,,,,,METAR,20.0
OOMS 252050Z 15007KT 090V180 CAVOK 30/15 Q1007 NOSIG,OOMS,2023-04-25T20:50:00Z,23.58,58.28,30.0,15.0,150,7,,6.21,29.734253,,,,,,TRUE,,,,,CAVOK,,,,,,,,VFR,,,,,,,,,,,,METAR,8.0
OOKB 252050Z AUTO 15006KT 110V180 CAVOK 30/13 Q1007 NOSIG,OOKB,2023-04-25T20:50:00Z,26.17,56.23,30.0,13.0,150,6,,6.21,29.734253,,,TRUE,,,TRUE,,,,,CAVOK,,,,,,,,VFR,,,,,,,,,,,,METAR,30.0
OODQ 252050Z AUTO 10006KT 070V140 9999 OVC007 26/26 Q1009 NOSIG RMK RH100? 0,OODQ,2023-04-25T20:50:00Z,19.52,57.65,26.0,26.0,100,6,,6.21,29.793306,,,TRUE,,,TRUE,,,,,OVC,700,,,,,,,IFR,,,,,,,,,,,,METAR,116.0
OOAD 252050Z AUTO 10005KT //// R31///// // NCD 22/19 Q1010 NOSIG,OOAD,2023-04-25T20:50:00Z,22.5,57.37,22.0,19.0,100,5,,,29.822834,,,TRUE,,,TRUE,,,,,CLR,,,,,,,,,,,,,,,,,,,,METAR,327.0
NSTU 252050Z VRB05KT 12SM FEW021 SCT100 BKN220 29/27 A2987 RMK SLP117 8/178 T02910269 52010,NSTU,2023-04-25T20:50:00Z,-14.33,-170.72,29.1,26.9,0,5,,12.0,29.870079,1011.7,,,,,,,,,,FEW,2100,SCT,10000,BKN,22000,,,VFR,1.0,,,,,,,,,,,METAR,8.0
MUVR 252050Z 24006KT 200V270 9000 FEW018CB SCT020 28/20 Q1013,MUVR,2023-04-25T20:50:00Z,23.03,-81.43,28.0,20.0,240,6,,5.59,29.911417,,,,,,,,,,,FEW,1800,SCT,2000,,,,,VFR,,,,,,,,,,,,METAR,65.0
MUHG 252050Z VRB04KT 9000 FEW042 33/15 Q1011,MUHG,2023-04-25T20:50:00Z,20.78,-76.32,33.0,15.0,0,4,,5.59,29.852362,,,,,,,,,,,FEW,4200,,,,,,,VFR,,,,,,,,,,,,METAR,100.0
MUHA 252050Z 11007KT 080V150 9000 BKN030 27/20 Q1013,MUHA,2023-04-25T20:50:00Z,22.98,-82.42,27.0,20.0,110,7,,5.59,29.911417,,,,,,,,,,,BKN,3000,,,,,,,MVFR,,,,,,,,,,,,METAR,61.0
MUCU 252050Z 19006KT 150V230 9000 SCT020 28/21 Q1012,MUCU,2023-04-25T20:50:00Z,19.97,-75.83,28.0,21.0,190,6,,5.59,29.88189,,,,,,,,,,,SCT,2000,,,,,,,VFR,,,,,,,,,,,,METAR,70.0
MUCL 252050Z 18009KT 140V220 9000 FEW020 29/21 Q1012,MUCL,2023-04-25T20:50:00Z,21.63,-81.55,29.0,21.0,180,9,,5.59,29.88189,,,,,,,,,,,FEW,2000,,,,,,,VFR,,,,,,,,,,,,METAR,5.0
MUCC 252050Z 08014KT 9000 FEW020 29/22 Q1011,MUCC,2023-04-25T20:50:00Z,22.47,-78.33,29.0,22.0,80,14,,5.59,29.852362,,,,,,,,,,,FEW,2000,,,,,,,VFR,,,,,,,,,,,,METAR,7.0
MSSM 252050Z 16005KT 8000 37/21 Q1006 A2973,MSSM,2023-04-25T20:50:00Z,13.43,-88.12,37.0,21.0,160,5,,4.97,29.704725,,,,,,,,,,,,,,,,,,,,,,,,,,,,,,,SPECI,92.0
MSSA 252050Z 16002KT 9999 FEW037 35/17 Q1014 A2996,MSSA,2023-04-25T20:50:00Z,13.97,-89.53,35.0,17.0,160,2,,6.21,29.940945,,,,,,,,,,,FEW,3700,,,,,,,VFR,,,,,,,,,,,,SPECI,656.0
MSLP 252050Z 23008KT 170V260 9999 FEW033 32/24 Q1008 A2978 NOSIG,MSLP,2023-04-25T20:50:00Z,13.43,-89.05,32.0,24.0,230,8,,6.21,29.763779,,,,,,TRUE,,,,,FEW,3300,,,,,,,VFR,,,,,,,,,,,,METAR,25.0
MSAC 252050Z 23010KT 9999 FEW030 35/23 Q1006 A2973,MSAC,2023-04-25T20:50:00Z,13.57,-89.83,35.0,23.0,230,10,,6.21,29.704725,,,,,,,,,,,FEW,3000,,,,,,,VFR,,,,,,,,,,,,SPECI,14.0
MMML 252050Z 29005KT 10SM SKC 31/03 A2975 RMK SLP075 57020 903,MMML,2023-04-25T20:50:00Z,32.62,-115.23,31.0,3.0,290,5,,10.0,29.749016,1007.5,,,,,,,,,,SKC,,,,,,,,VFR,-2.0,,,,,,,,,,,METAR,21.0
MMCT 252050Z 18005KT 8SM SCT025 36/19 A2976 RMK 8/100 MDT CU CI,MMCT,2023-04-25T20:50:00Z,20.63,-88.45,36.0,19.0,180,5,,8.0,29.760826,,,,,,,,,,,SCT,2500,,,,,,,VFR,,,,,,,,,,,,METAR,29.0
LXGB 252050Z AUTO 36001KT 9999 NCD 20/16 Q1014,LXGB,2023-04-25T20:50:00Z,36.15,-5.33,20.0,16.0,360,1,,6.21,29.940945,,,TRUE,,,,,,,,CLR,,,,,,,,VFR,,,,,,,,,,,,METAR,5.0
LTFO 252050Z 19003KT CAVOK 12/06 Q1012,LTFO,2023-04-25T20:50:00Z,41.18,40.85,12.0,6.0,190,3,,6.21,29.88189,,,,,,,,,,,CAVOK,,,,,,,,VFR,,,,,,,,,,,,METAR,5.0
LTFM 252050Z 18011KT 9999 FEW040 BKN100 15/09 Q1007 NOSIG RMK RWY17L 18012KT RWY34L 18011KT RWY16R 17013KT RWY36 18012KT RWY18 18013KT,LTFM,2023-04-25T20:50:00Z,41.27,28.75,15.0,9.0,180,11,,6.21,29.734253,,,,,,TRUE,,,,,FEW,4000,BKN,10000,,,,,VFR,,,,,,,,,,,,METAR,99.0
LTFJ 252050Z 31006KT 270V040 9999 BKN035 BKN090 16/10 Q1008 NOSIG RMK RWY24 30004KT 240V350,LTFJ,2023-04-25T20:50:00Z,40.9,29.3,16.0,10.0,310,6,,6.21,29.763779,,,,,,TRUE,,,,,BKN,3500,BKN,9000,,,,,VFR,,,,,,,,,,,,METAR,83.0
LTFH 252050Z 15002KT 3300 1600NW BR SCT003 10/10 Q1010 NOSIG,LTFH,2023-04-25T20:50:00Z,41.27,36.57,10.0,10.0,150,2,,2.05,29.822834,,,,,,TRUE,,,,BR,SCT,300,,,,,,,IFR,,,,,,,,,,,,METAR,7.0
LTFG 252050Z 12006KT 9999 FEW025 14/11 Q1013,LTFG,2023-04-25T20:50:00Z,36.3,32.3,14.0,11.0,120,6,,6.21,29.911417,,,,,,,,,,,FEW,2500,,,,,,,VFR,,,,,,,,,,,,METAR,26.0
LTFE 252050Z VRB01KT 9999 FEW035 BKN100 14/12 Q1011 NOSIG RMK RWY10 VRB01KT,LTFE,2023-04-25T20:50:00Z,37.25,27.67,14.0,12.0,0,1,,6.21,29.852362,,,,,,TRUE,,,,,FEW,3500,BKN,10000,,,,,VFR,,,,,,,,,,,,METAR,6.0
LTFD 252050Z 29004KT 9999 SCT035 SCT100 15/13 Q1008,LTFD,2023-04-25T20:50:00Z,39.55,27.02,15.0,13.0,290,4,,6.21,29.763779,,,,,,,,,,,SCT,3500,SCT,10000,,,,,VFR,,,,,,,,,,,,METAR,15.0
LTFC 252050Z 04003KT 010V070 9999 SCT035 09/05 Q1013 RMK RWY23 03005KT,LTFC,2023-04-25T20:50:00Z,37.87,30.38,9.0,5.0,40,3,,6.21,29.911417,,,,,,,,,,,SCT,3500,,,,,,,VFR,,,,,,,,,,,,METAR,862.0
LTDA 252050Z 24006KT 220V340 9999 FEW035 16/08 Q1013 NOSIG,LTDA,2023-04-25T20:50:00Z,36.37,36.28,16.0,8.0,240,6,,6.21,29.911417,,,,,,TRUE,,,,,FEW,3500,,,,,,,VFR,,,,,,,,,,,,METAR,80.0
LTCW 252050Z 12003KT 9999 FEW030 06/03 Q1018,LTCW,2023-04-25T20:50:00Z,37.55,44.23,6.0,3.0,120,3,,6.21,30.059055,,,,,,,,,,,FEW,3000,,,,,,,VFR,,,,,,,,,,,,METAR,1852.0
LTCV 252050Z 24009KT CAVOK 10/07 Q1014,LTCV,2023-04-25T20:50:00Z,37.37,42.07,10.0,7.0,240,9,,6.21,29.940945,,,,,,,,,,,CAVOK,,,,,,,,VFR,,,,,,,,,,,,METAR,620.0
LTCT 252050Z 00000KT 9999 -SHRA FEW040 BKN080 16/04 Q1014,LTCT,2023-04-25T20:50:00Z,39.98,43.87,16.0,4.0,0,0,,6.21,29.940945,,,,,,,,,,-SHRA,FEW,4000,BKN,8000,,,,,VFR,,,,,,,,,,,,METAR,936.0
LTCS 252050Z 16004KT CAVOK 14/02 Q1014 RMK RWY22 14006KT SKC,LTCS,2023-04-25T20:50:00Z,37.45,38.9,14.0,2.0,160,4,,6.21,29.940945,,,,,,,,,,,CAVOK,,,,,,,,VFR,,,,,,,,,,,,METAR,825.0
LTCP 252050Z 07010KT 9999 FEW035 13/05 Q1013,LTCP,2023-04-25T20:50:00Z,37.73,38.47,13.0,5.0,70,10,,6.21,29.911417,,,,,,,,,,,FEW,3500,,,,,,,VFR,,,,,,,,,,,,METAR,672.0
LTCN 252050Z 23006KT CAVOK 14/09 Q1013,LTCN,2023-04-25T20:50:00Z,37.53,36.95,14.0,9.0,230,6,,6.21,29.911417,,,,,,,,,,,CAVOK,,,,,,,,VFR,,,,,,,,,,,,METAR,505.0
LTCJ 252050Z 33003KT 300V360 CAVOK 12/09 Q1013 NOSIG RMK RWY20 VRB02KT SKC,LTCJ,2023-04-25T20:50:00Z,37.93,41.12,12.0,9.0,330,3,,6.21,29.911417,,,,,,TRUE,,,,,CAVOK,,,,,,,,VFR,,,,,,,,,,,,METAR,559.0
LTCI 252050Z 00000KT 9999 SCT030 07/02 Q1020 NOSIG,LTCI,2023-04-25T20:50:00Z,38.47,43.33,7.0,2.0,0,0,,6.21,30.11811,,,,,,TRUE,,,,,SCT,3000,,,,,,,VFR,,,,,,,,,,,,METAR,1654.0
LTCG 252050Z 00000KT CAVOK 14/06 Q1012 NOSIG RMK RWY29 00000KT,LTCG,2023-04-25T20:50:00Z,41.0,39.77,14.0,6.0,0,0,,6.21,29.88189,,,,,,TRUE,,,,,CAVOK,,,,,,,,VFR,,,,,,,,,,,,METAR,28.0
LTCF 252050Z 21007KT 9999 FEW035 05/02 Q1016 NOSIG,LTCF,2023-04-25T20:50:00Z,40.57,43.12,5.0,2.0,210,7,,6.21,30.0,,,,,,TRUE,,,,,FEW,3500,,,,,,,VFR,,,,,,,,,,,,METAR,1794.0
LTCE 252050Z 22002KT CAVOK 06/M03 Q1017 NOSIG RMK RWY08R VRB01KT RWY26R 20004KT RWY08L VRB01KT 2AC080,LTCE,2023-04-25T20:50:00Z,39.95,41.17,6.0,-3.0,220,2,,6.21,30.029528,,,,,,TRUE,,,,,CAVOK,,,,,,,,VFR,,,0.4,,,,,,,,,METAR,1758.0
LTCD 252050Z VRB01KT CAVOK 07/02 Q1015 NOSIG,LTCD,2023-04-25T20:50:00Z,39.72,39.52,7.0,2.0,0,1,,6.21,29.970472,,,,,,TRUE,,,,,CAVOK,,,,,,,,VFR,,,,,,,,,,,,METAR,1146.0
LTCC 252050Z VRB02KT CAVOK 10/04 Q1013 NOSIG RMK RWY16 00000KT SKC,LTCC,2023-04-25T20:50:00Z,37.88,40.2,10.0,4.0,0,2,,6.21,29.911417,,,,,,TRUE,,,,,CAVOK,,,,,,,,VFR,,,,,,,,,,,,METAR,676.0
LTCB 252050Z 00000KT CAVOK 10/09 Q1010 NOSIG,LTCB,2023-04-25T20:50:00Z,40.97,38.07,10.0,9.0,0,0,,6.21,29.822834,,,,,,TRUE,,,,,CAVOK,,,,,,,,VFR,,,,,,,,,,,,METAR,5.0
LTCA 252050Z VRB05KT CAVOK 08/06 Q1014 NOSIG,LTCA,2023-04-25T20:50:00Z,38.6,39.28,8.0,6.0,0,5,,6.21,29.940945,,,,,,TRUE,,,,,CAVOK,,,,,,,,VFR,,,,,,,,,,,,METAR,887.0
LTBY 252050Z VRB02KT 9999 BKN040 10/07 Q1010,LTBY,2023-04-25T20:50:00Z,39.82,30.52,10.0,7.0,0,2,,6.21,29.822834,,,,,,,,,,,BKN,4000,,,,,,,VFR,,,,,,,,,,,,METAR,788.0
LTBU 252050Z 16005KT 9999 FEW040 SCT080 14/10 Q1007 RMK RWY22 16004KT,LTBU,2023-04-25T20:50:00Z,41.13,27.92,14.0,10.0,160,5,,6.21,29.734253,,,,,,,,,,,FEW,4000,SCT,8000,,,,,VFR,,,,,,,,,,,,METAR,165.0
LTBS 252050Z 02006KT 9999 FEW030 BKN180 13/12 Q1012 NOSIG RMK RWY19 36004KT 1CU030 5CI180,LTBS,2023-04-25T20:50:00Z,36.7,28.78,13.0,12.0,20,6,,6.21,29.88189,,,,,,TRUE,,,,,FEW,3000,BKN,18000,,,,,VFR,,,,,,,,,,,,METAR,2.0
LTBR 252050Z VRB02KT 9999 SCT035 BKN090 12/11 Q1009 NOSIG RMK RWY07 VRB02KT,LTBR,2023-04-25T20:50:00Z,40.25,29.57,12.0,11.0,0,2,,6.21,29.793306,,,,,,TRUE,,,,,SCT,3500,BKN,9000,,,,,VFR,,,,,,,,,,,,METAR,233.0
LTBQ 252050Z 09004KT 340V140 9999 SCT036 BKN090 13/11 Q1009 RESHRA NOSIG,LTBQ,2023-04-25T20:50:00Z,40.73,30.07,13.0,11.0,90,4,,6.21,29.793306,,,,,,TRUE,,,,,SCT,3600,BKN,9000,,,,,VFR,,,,,,,,,,,,METAR,51.0
LTBJ 252050Z 18006KT 9999 SCT035 BKN100 14/12 Q1009 NOSIG RMK RWY16 20008KT,LTBJ,2023-04-25T20:50:00Z,38.28,27.15,14.0,12.0,180,6,,6.21,29.793306,,,,,,TRUE,,,,,SCT,3500,BKN,10000,,,,,VFR,,,0.8,,,,,,,,,METAR,123.0
LTBH 252050Z 23007KT 180V250 9999 FEW035 SCT100 BKN200 17/11 Q1007,LTBH,2023-04-25T20:50:00Z,40.13,26.42,17.0,11.0,230,7,,6.21,29.734253,,,,,,,,,,,FEW,3500,SCT,10000,BKN,20000,,,VFR,,,,,,,,,,,,METAR,8.0
LTBF 252050Z 18006KT 9999 FEW035 SCT100 15/10 Q1009 NOSIG,LTBF,2023-04-25T20:50:00Z,39.62,27.92,15.0,10.0,180,6,,6.21,29.793306,,,,,,TRUE,,,,,FEW,3500,SCT,10000,,,,,VFR,,,,,,,,,,,,METAR,95.0
LTBD 252050Z 00000KT 9999 FEW040 SCT100 BKN200 14/12 Q1011,LTBD,2023-04-25T20:50:00Z,37.82,27.88,14.0,12.0,0,0,,6.21,29.852362,,,,,,,,,,,FEW,4000,SCT,10000,BKN,20000,,,VFR,,,,,,,,,,,,METAR,29.0
LTBA 252050Z VRB02KT 9999 -TSRA FEW015CB BKN028 BKN080 15/11 Q1008 RESHRA RMK RWY23 VRB01KT,LTBA,2023-04-25T20:50:00Z,40.97,28.82,15.0,11.0,0,2,,6.21,29.763779,,,,,,,,,,-TSRA,FEW,1500,BKN,2800,BKN,8000,,,MVFR,,,,,,,,,,,,METAR,33.0
LTAZ 252050Z 14005KT 9999 SCT040 SCT100 10/07 Q1013 RMK RWY29 13004KT,LTAZ,2023-04-25T20:50:00Z,38.77,34.52,10.0,7.0,140,5,,6.21,29.911417,,,,,,,,,,,SCT,4000,SCT,10000,,,,,VFR,,,,,,,,,,,,METAR,944.0
LTAY 252050Z 22010KT 9999 FEW035 SCT100 13/04 Q1012 NOSIG,LTAY,2023-04-25T20:50:00Z,37.78,29.7,13.0,4.0,220,10,,6.21,29.88189,,,,,,TRUE,,,,,FEW,3500,SCT,10000,,,,,VFR,,,,,,,,,,,,METAR,851.0
LTAU 252050Z 00000KT 9999 SCT040 BKN080 10/07 Q1013 NOSIG RMK RWY07 26006KT,LTAU,2023-04-25T20:50:00Z,38.77,35.48,10.0,7.0,0,0,,6.21,29.911417,,,,,,TRUE,,,,,SCT,4000,BKN,8000,,,,,VFR,,,,,,,,,,,,METAR,1053.0
LTAT 252050Z VRB02KT CAVOK 08/04 Q1014 NOSIG RMK RWY03 23003KT,LTAT,2023-04-25T20:50:00Z,38.43,38.08,8.0,4.0,0,2,,6.21,29.940945,,,,,,TRUE,,,,,CAVOK,,,,,,,,VFR,,,,,,,,,,,,METAR,850.0
LTAR 252050Z 20008KT 9999 SCT035 SCT100 06/01 Q1014,LTAR,2023-04-25T20:50:00Z,39.8,36.9,6.0,1.0,200,8,,6.21,29.940945,,,,,,,,,,,SCT,3500,SCT,10000,,,,,VFR,,,,,,,,,,,,METAR,1601.0
LTAP 252050Z 29004KT 9999 FEW040 BKN100 10/07 Q1010 NOSIG RMK RWY23 34002KT,LTAP,2023-04-25T20:50:00Z,40.83,35.52,10.0,7.0,290,4,,6.21,29.822834,,,,,,TRUE,,,,,FEW,4000,BKN,10000,,,,,VFR,,,,,,,,,,,,METAR,536.0
LTAN 252050Z 18006KT 9999 FEW035 SCT100 11/05 Q1013 NOSIG,LTAN,2023-04-25T20:50:00Z,37.97,32.55,11.0,5.0,180,6,,6.21,29.911417,,,,,,TRUE,,,,,FEW,3500,SCT,10000,,,,,VFR,,,,,,,,,,,,METAR,1029.0
LTAJ 252050Z 00000KT CAVOK 12/06 Q1013 NOSIG RMK RWY10 31004KT 3CI200,LTAJ,2023-04-25T20:50:00Z,36.95,37.48,12.0,6.0,0,0,,6.21,29.911417,,,,,,TRUE,,,,,CAVOK,,,,,,,,VFR,,,,,,,,,,,,METAR,684.0
LTAI 252050Z 05006KT 9999 BKN030 17/14 Q1013 NOSIG RMK RWY18C 05005KT RWY36R 03004KT RWY18L 04003KT,LTAI,2023-04-25T20:50:00Z,36.9,30.8,17.0,14.0,50,6,,6.21,29.911417,,,,,,TRUE,,,,,BKN,3000,,,,,,,MVFR,,,,,,,,,,,,METAR,50.0
LTAG 252050Z 06004KT 9999 FEW035 SCT200 13/10 Q1013 NOSIG RMK 2CU035 4CI200,LTAG,2023-04-25T20:50:00Z,37.0,35.42,13.0,10.0,60,4,,6.21,29.911417,,,,,,TRUE,,,,,FEW,3500,SCT,20000,,,,,VFR,,,,,,,,,,,,METAR,62.0
LTAF 252050Z 15001KT 9999 SCT035 16/14 Q1013 NOSIG RMK RWY23 00000KT 4CU035,LTAF,2023-04-25T20:50:00Z,36.98,35.28,16.0,14.0,150,1,,6.21,29.911417,,,,,,TRUE,,,,,SCT,3500,,,,,,,VFR,,,,,,,,,,,,METAR,19.0
LTAE 252050Z 07003KT 9999 SCT035 BKN100 09/06 Q1011 RESHRA NOSIG RMK RWY21 12003KT,LTAE,2023-04-25T20:50:00Z,40.07,32.57,9.0,6.0,70,3,,6.21,29.852362,,,,,,TRUE,,,,,SCT,3500,BKN,10000,,,,,VFR,,,,,,,,,,,,METAR,836.0
LTAC 252050Z VRB02KT 9999 SCT040 BKN100 10/05 Q1011 NOSIG RMK RWY21L 30003KT 270V360 RWY03L 31004KT RWY21R 31004KT,LTAC,2023-04-25T20:50:00Z,40.12,32.98,10.0,5.0,0,2,,6.21,29.852362,,,,,,TRUE,,,,,SCT,4000,BKN,10000,,,,,VFR,,,,,,,,,,,,METAR,952.0
LSMM 252050Z AUTO 11006KT 9999NDV BKN077 BKN098 05/05 Q1017 RMK,LSMM,2023-04-25T20:50:00Z,46.75,8.12,5.0,5.0,110,6,,,30.029528,,,TRUE,,,,,,,,BKN,7700,BKN,9800,,,,,,,,,,,,,,,,,METAR,570.0
LOXZ 252050Z VRB02KT 9999 FEW060 BKN070 07/01 Q1012,LOXZ,2023-04-25T20:50:00Z,47.2,14.75,7.0,1.0,0,2,,6.21,29.88189,,,,,,,,,,,FEW,6000,BKN,7000,,,,,VFR,,,,,,,,,,,,METAR,678.0
LIPK 252050Z 00000KT CAVOK 08/05 Q1011,LIPK,2023-04-25T20:50:00Z,44.2,12.07,8.0,5.0,0,0,,6.21,29.852362,,,,,,,,,,,CAVOK,,,,,,,,VFR,,,,,,,,,,,,METAR,24.0
LIPB 252050Z VRB01KT 9999 FEW070 10/04 Q1012,LIPB,2023-04-25T20:50:00Z,46.47,11.32,10.0,4.0,0,1,,6.21,29.88189,,,,,,,,,,,FEW,7000,,,,,,,VFR,,,,,,,,,,,,METAR,239.0
LIMP 252050Z VRB03KT CAVOK 08/07 Q1011,LIMP,2023-04-25T20:50:00Z,44.82,10.3,8.0,7.0,0,3,,6.21,29.852362,,,,,,,,,,,CAVOK,,,,,,,,VFR,,,,,,,,,,,,METAR,41.0
LIBF 252050Z 29007KT 9999 BKN030 13/11 Q1010,LIBF,2023-04-25T20:50:00Z,41.42,15.53,13.0,11.0,290,7,,6.21,29.822834,,,,,,,,,,,BKN,3000,,,,,,,MVFR,,,,,,,,,,,,METAR,81.0
LGSR 252050Z 24017KT 9999 SCT025 17/16 Q1010,LGSR,2023-04-25T20:50:00Z,36.4,25.48,17.0,16.0,240,17,,6.21,29.822834,,,,,,,,,,,SCT,2500,,,,,,,VFR,,,,,,,,,,,,METAR,31.0
LGSM 252050Z 17006KT 9999 SCT025 17/12 Q1010,LGSM,2023-04-25T20:50:00Z,37.68,26.92,17.0,12.0,170,6,,6.21,29.822834,,,,,,,,,,,SCT,2500,,,,,,,VFR,,,,,,,,,,,,METAR,5.0
LGRX 252050Z 21005KT 9999 FEW025 15/14 Q1010 RMK FEW080 FEW180 BLU,LGRX,2023-04-25T20:50:00Z,38.17,21.42,15.0,14.0,210,5,,6.21,29.822834,,,,,,,,,,,FEW,2500,,,,,,,VFR,,,,,,,,,,,,SPECI,16.0
LGPZ 252050Z 00000KT 9999 FEW025 15/12 Q1009 RMK FEW080 SCT180 BLU,LGPZ,2023-04-25T20:50:00Z,38.92,20.77,15.0,12.0,0,0,,6.21,29.793306,,,,,,,,,,,FEW,2500,,,,,,,VFR,,,,,,,,,,,,METAR,3.0
LGMT 252050Z 21011KT 9999 FEW020 18/14 Q1008,LGMT,2023-04-25T20:50:00Z,39.05,26.6,18.0,14.0,210,11,,6.21,29.763779,,,,,,,,,,,FEW,2000,,,,,,,VFR,,,,,,,,,,,,METAR,4.0
LGLM 252050Z 19003KT 9999 FEW020 17/14 Q1005,LGLM,2023-04-25T20:50:00Z,39.92,25.23,17.0,14.0,190,3,,6.21,29.675198,,,,,,,,,,,FEW,2000,,,,,,,VFR,,,,,,,,,,,,METAR,4.0
LGHI 252050Z 21008KT 9999 FEW025 16/13 Q1008,LGHI,2023-04-25T20:50:00Z,38.33,26.13,16.0,13.0,210,8,,6.21,29.763779,,,,,,,,,,,FEW,2500,,,,,,,VFR,,,,,,,,,,,,METAR,6.0
LGBL 252050Z 33007KT 9999 FEW030 15/07 Q1007,LGBL,2023-04-25T20:50:00Z,39.22,22.8,15.0,7.0,330,7,,6.21,29.734253,,,,,,,,,,,FEW,3000,,,,,,,VFR,,,,,,,,,,,,METAR,13.0
LCRA 252050Z 30005KT CAVOK 16/11 Q1012 NOSIG,LCRA,2023-04-25T20:50:00Z,34.58,32.98,16.0,11.0,300,5,,6.21,29.88189,,,,,,TRUE,,,,,CAVOK,,,,,,,,VFR,,,,,,,,,,,,METAR,23.0
LCEN 252050Z 32004KT 9999 FEW020 15/12 Q1013 NOSIG RMK RWY11 33005KT,LCEN,2023-04-25T20:50:00Z,35.15,33.5,15.0,12.0,320,4,,6.21,29.911417,,,,,,TRUE,,,,,FEW,2000,,,,,,,VFR,,,,,,,,,,,,METAR,91.0
KWDG 252050Z 09013KT 5SM RA BKN006 OVC042 09/09 A3000,KWDG,2023-04-25T20:50:00Z,36.37,-97.78,9.0,9.0,90,13,,5.0,30.0,,,,,,,,,,RA,BKN,600,OVC,4200,,,,,IFR,,,,,,,,,,,,METAR,352.0
KVQQ 252050Z 06009KT 10SM BKN040 24/17 A2995,KVQQ,2023-04-25T20:50:00Z,30.22,-81.88,24.0,17.0,60,9,,10.0,29.949802,,,,,,,,,,,BKN,4000,,,,,,,VFR,,,,,,,,,,,,METAR,21.0
KRYY 252050Z 00000KT 10SM BKN075 OVC090 21/05 A3005 RMK AO2 SLP171 T02060050 58010 $,KRYY,2023-04-25T20:50:00Z,34.02,-84.6,20.6,5.0,0,0,,10.0,30.050198,1017.1,,,TRUE,TRUE,,,,,,BKN,7500,OVC,9000,,,,,VFR,-1.0,,,,,,,,,,,METAR,306.0
KOQU 252050Z AUTO 18017KT 10SM SCT065 SCT085 15/05 A3014,KOQU,2023-04-25T20:50:00Z,41.6,-71.42,15.0,5.0,180,17,,10.0,30.138779,,,TRUE,,,,,,,,SCT,6500,SCT,8500,,,,,VFR,,,,,,,,,,,,METAR,6.0
KOMN 252050Z 07010KT 7SM SCT023 23/20 A2994,KOMN,2023-04-25T20:50:00Z,29.3,-81.12,23.0,20.0,70,10,,7.0,29.940945,,,,,,,,,,,SCT,2300,,,,,,,VFR,,,,,,,,,,,,METAR,7.0
KOLV 252050Z 15005KT 10SM CLR 20/M03 A3006,KOLV,2023-04-25T20:50:00Z,34.98,-89.78,20.0,-3.0,150,5,,10.0,30.059055,,,,,,,,,,,CLR,,,,,,,,VFR,,,,,,,,,,,,METAR,124.0
KNQA 252050Z 08004KT 10SM CLR 19/M03 A3006,KNQA,2023-04-25T20:50:00Z,35.35,-89.87,19.0,-3.0,80,4,,10.0,30.059055,,,,,,,,,,,CLR,,,,,,,,VFR,,,,,,,,,,,,METAR,90.0
KJWN 252050Z 06011KT 10SM CLR 20/M02 A3007,KJWN,2023-04-25T20:50:00Z,36.18,-86.88,20.0,-2.0,60,11,,10.0,30.070866,,,,,,,,,,,CLR,,,,,,,,VFR,,,,,,,,,,,,METAR,149.0
KJQF 252050Z 06004KT 10SM BKN060 OVC085 18/05 A3014,KJQF,2023-04-25T20:50:00Z,35.38,-80.72,18.0,5.0,60,4,,10.0,30.138779,,,,,,,,,,,BKN,6000,OVC,8500,,,,,VFR,,,,,,,,,,,,METAR,204.0
KIFP 252050Z 36018KT 10SM CLR 29/M08 A2980,KIFP,2023-04-25T20:50:00Z,35.15,-114.57,29.0,-8.0,360,18,,10.0,29.799213,,,,,,,,,,,CLR,,,,,,,,VFR,,,,,,,,,,,,METAR,210.0
KHXD 252050Z 06007G18KT 10SM SCT080 21/14 A3005,KHXD,2023-04-25T20:50:00Z,32.22,-80.7,21.0,14.0,60,7,18,10.0,30.050198,,,,,,,,,,,SCT,8000,,,,,,,VFR,,,,,,,,,,,,METAR,5.0
KHUM 252050Z 07006KT 7SM SCT033 26/17 A2995,KHUM,2023-04-25T20:50:00Z,29.57,-90.67,26.0,17.0,70,6,,7.0,29.949802,,,,,,,,,,,SCT,3300,,,,,,,VFR,,,,,,,,,,,,METAR,1.0
KHSA 252050Z 14010KT 10SM CLR 26/15 A2994,KHSA,2023-04-25T20:50:00Z,30.37,-89.45,26.0,15.0,140,10,,10.0,29.940945,,,,,,,,,,,CLR,,,,,,,,VFR,,,,,,,,,,,,METAR,6.0
KHQZ 252050Z 12008G15KT 10SM SCT033 BKN065 22/13 A2992,KHQZ,2023-04-25T20:50:00Z,32.75,-96.53,22.0,13.0,120,8,15,10.0,29.920275,,,,,,,,,,,SCT,3300,BKN,6500,,,,,VFR,,,,,,,,,,,,METAR,136.0
KHOB 252050Z 21008G18KT 10SM FEW085 27/M03 A2979,KHOB,2023-04-25T20:50:00Z,32.67,-103.22,27.0,-3.0,210,8,18,10.0,29.790354,,,,,,,,,,,FEW,8500,,,,,,,VFR,,,,,,,,,,,,METAR,1112.0
KGYI 252050Z 10008KT 7SM CLR 19/10 A2995,KGYI,2023-04-25T20:50:00Z,33.72,-96.67,19.0,10.0,100,8,,7.0,29.949802,,,,,,,,,,,CLR,,,,,,,,VFR,,,,,,,,,,,,METAR,227.0
KGPM 252050Z 15010KT 10SM OVC050 20/11 A2992,KGPM,2023-04-25T20:50:00Z,32.7,-97.05,20.0,11.0,150,10,,10.0,29.920275,,,,,,,,,,,OVC,5000,,,,,,,VFR,,,,,,,,,,,,METAR,178.0
KFWS 252050Z 14009G14KT 10SM SCT027 SCT042 BKN060 21/14 A2991,KFWS,2023-04-25T20:50:00Z,32.57,-97.3,21.0,14.0,140,9,14,10.0,29.911417,,,,,,,,,,,SCT,2700,SCT,4200,BKN,6000,,,VFR,,,,,,,,,,,,METAR,211.0
KFIN 252050Z 08012KT 10SM SCT120 23/18 A2995,KFIN,2023-04-25T20:50:00Z,29.47,-81.2,23.0,18.0,80,12,,10.0,29.949802,,,,,,,,,,,SCT,12000,,,,,,,VFR,,,,,,,,,,,,METAR,10.0
KEVB 252050Z 07010KT 10SM FEW020 SCT060 24/18 A2993,KEVB,2023-04-25T20:50:00Z,29.05,-80.95,24.0,18.0,70,10,,10.0,29.929134,,,,,,,,,,,FEW,2000,SCT,6000,,,,,VFR,,,,,,,,,,,,METAR,2.0
KESN 252050Z 00000KT 10SM SCT065 14/M01 A3023,KESN,2023-04-25T20:50:00Z,38.8,-76.07,14.0,-1.0,0,0,,10.0,30.230314,,,,,,,,,,,SCT,6500,,,,,,,VFR,,,,,,,,,,,,METAR,14.0
KDPG 252050Z 03009KT 40SM FEW055 BKN070 11/M01 A3010 RMK SH DSNT NE SLP175 T01131015 54000,KDPG,2023-04-25T20:50:00Z,40.2,-112.93,11.3,-1.5,30,9,,40.0,30.100393,1017.5,,,,,,,,,,FEW,5500,BKN,7000,,,,,VFR,,,,,,,,,,,,METAR,1324.0
KDAG 252050Z AUTO 01012G19KT 10SM CLR 30/M11 A2986 RMK AO2 SLP087 T03001111 58015,KDAG,2023-04-25T20:50:00Z,34.85,-116.78,30.0,-11.1,10,12,19,10.0,29.861221,1008.7,,TRUE,TRUE,,,,,,,CLR,,,,,,,,VFR,-1.5,,,,,,,,,,,METAR,584.0
KCHD 252050Z 27007G15KT 10SM CLR 31/01 A2976,KCHD,2023-04-25T20:50:00Z,33.27,-111.82,31.0,1.0,270,7,15,10.0,29.760826,,,,,,,,,,,CLR,,,,,,,,VFR,,,,,,,,,,,,METAR,378.0
KBOW 252050Z 24010KT 8SM SCT050 24/20 A2990 RMK TS IN VICINITY LTG DSNT ALQDS,KBOW,2023-04-25T20:50:00Z,27.93,-81.77,24.0,20.0,240,10,,8.0,29.899607,,,,,,,,,,,SCT,5000,,,,,,,VFR,,,,,,,,,,,,METAR,38.0
KALN 252050Z 33010KT 10SM BKN075 19/03 A3008,KALN,2023-04-25T20:50:00Z,38.88,-90.03,19.0,3.0,330,10,,10.0,30.079725,,,,,,,,,,,BKN,7500,,,,,,,VFR,,,,,,,,,,,,METAR,159.0
KAEG 252050Z 25030G38KT 10SM SCT100 21/M06 A2982,KAEG,2023-04-25T20:50:00Z,35.13,-106.8,21.0,-6.0,250,30,38,10.0,29.819881,,,,,,,,,,,SCT,10000,,,,,,,VFR,,,,,,,,,,,,METAR,1771.0
KADM 252050Z 08010KT 10SM OVC033 17/10 A2993,KADM,2023-04-25T20:50:00Z,34.3,-97.02,17.0,10.0,80,10,,10.0,29.929134,,,,,,,,,,,OVC,3300,,,,,,,VFR,,,,,,,,,,,,METAR,223.0
ETNG 252050Z 29003KT CAVOK 06/01 Q1018,ETNG,2023-04-25T20:50:00Z,50.97,6.03,6.0,1.0,290,3,,6.21,30.059055,,,,,,,,,,,CAVOK,,,,,,,,VFR,,,,,,,,,,,,METAR,76.0
ENSB 252050Z 13003KT CAVOK M07/M10 Q1025 RMK WIND 1400FT 12008KT,ENSB,2023-04-25T20:50:00Z,78.25,15.47,-7.0,-10.0,130,3,,6.21,30.265747,,,,,,,,,,,CAVOK,,,,,,,,VFR,,,,,,,,,,,,METAR,30.0
ENOL 252050Z 05004KT 9999 FEW010 SCT025 BKN070 01/M00 Q1006 TEMPO 2000 SNRA VV010,ENOL,2023-04-25T20:50:00Z,63.7,9.6,1.0,0.0,50,4,,6.21,29.704725,,,,,,,,,,,FEW,1000,SCT,2500,BKN,7000,,,VFR,,,,,,,,,,,,METAR,9.0
ENLE 252050Z 29026KT 9999 VCSH SCT020TCU 05/M01 Q1014 W08/S5,ENLE,2023-04-25T20:50:00Z,56.53,3.22,5.0,-1.0,290,26,,6.21,29.940945,,,,,,,,,,VCSH,SCT,2000,,,,,,,VFR,,,,,,,,,,,,METAR,10.0
ENHE 252050Z 05021KT 9999 FEW020 SCT040 BKN070 02/M02 Q1009 W///S4,ENHE,2023-04-25T20:50:00Z,65.33,2.33,2.0,-2.0,50,21,,6.21,29.793306,,,,,,,,,,,FEW,2000,SCT,4000,BKN,7000,,,VFR,,,,,,,,,,,,METAR,10.0
ENGC 252050Z 36023KT 9999 VCSH FEW015CB SCT025 04/M01 Q1012 W04/S5,ENGC,2023-04-25T20:50:00Z,61.02,2.02,4.0,-1.0,360,23,,6.21,29.88189,,,,,,,,,,VCSH,FEW,1500,SCT,2500,,,,,VFR,,,,,,,,,,,,METAR,10.0
ENBV 252050Z 29010KT 9999 FEW012 BKN045 01/M00 Q1016,ENBV,2023-04-25T20:50:00Z,70.87,29.02,1.0,0.0,290,10,,6.21,30.0,,,,,,,,,,,FEW,1200,BKN,4500,,,,,VFR,,,,,,,,,,,,METAR,13.0
ENAL 252050Z 01006KT 9999 -DZ SCT016 BKN021 02/00 Q1008,ENAL,2023-04-25T20:50:00Z,62.57,6.12,2.0,0.0,10,6,,6.21,29.763779,,,,,,,,,,-DZ,SCT,1600,BKN,2100,,,,,MVFR,,,,,,,,,,,,METAR,21.0
EGYP 252050Z 27012KT 9999 SCT022 BKN030 08/04 Q1006 NOSIG,EGYP,2023-04-25T20:50:00Z,-51.82,-58.45,8.0,4.0,270,12,,6.21,29.704725,,,,,,TRUE,,,,,SCT,2200,BKN,3000,,,,,MVFR,,,,,,,,,,,,METAR,70.0
EGYM 252050Z 10004KT 9999 FEW040 04/M01 Q1020,EGYM,2023-04-25T20:50:00Z,52.63,0.57,4.0,-1.0,100,4,,6.21,30.11811,,,,,,,,,,,FEW,4000,,,,,,,VFR,,,,,,,,,,,,METAR,25.0
EGYH 252050Z AUTO 11008KT 9999 NCD 03/M00 Q1020,EGYH,2023-04-25T20:50:00Z,52.87,0.15,3.0,0.0,110,8,,6.21,30.11811,,,TRUE,,,,,,,,CLR,,,,,,,,VFR,,,,,,,,,,,,METAR,5.0
EGYE 252050Z AUTO 11007KT //// ///////// ///// Q////,EGYE,2023-04-25T20:50:00Z,52.97,-0.57,,,110,7,,,,,,TRUE,,,,,,,,,,,,,,,,,,,,,,,,,,,,METAR,105.0
EGYD 252050Z AUTO 09005KT 9999 NCD 03/M00 Q1019,EGYD,2023-04-25T20:50:00Z,53.03,-0.5,3.0,0.0,90,5,,6.21,30.088583,,,TRUE,,,,,,,,CLR,,,,,,,,VFR,,,,,,,,,,,,METAR,65.0
EGXZ 252050Z AUTO 11003KT 9999 FEW060/// OVC072/// 04/00 Q1020,EGXZ,2023-04-25T20:50:00Z,54.2,-1.38,4.0,0.0,110,3,,6.21,30.11811,,,TRUE,,,,,,,,FEW,6000,OVC,7200,,,,,VFR,,,,,,,,,,,,METAR,24.0
EGXW 252050Z 10006KT CAVOK 04/00 Q1019 NOSIG RMK BLU BLU,EGXW,2023-04-25T20:50:00Z,53.18,-0.52,4.0,0.0,100,6,,6.21,30.088583,,,,,,TRUE,,,,,CAVOK,,,,,,,,VFR,,,,,,,,,,,,METAR,70.0
EGXV 252050Z AUTO 17001KT 9999 BKN072/// 02/M00 Q1019,EGXV,2023-04-25T20:50:00Z,53.87,-0.45,2.0,0.0,170,1,,6.21,30.088583,,,TRUE,,,,,,,,BKN,7200,,,,,,,VFR,,,,,,,,,,,,METAR,6.0
EGXT 252050Z AUTO 08006KT 9999 NCD 05/01 Q1019,EGXT,2023-04-25T20:50:00Z,52.62,-0.47,5.0,1.0,80,6,,6.21,30.088583,,,TRUE,,,,,,,,CLR,,,,,,,,VFR,,,,,,,,,,,,METAR,74.0
EGXS 252050Z AUTO 09005KT 9999 NCD 06/M01 Q1020,EGXS,2023-04-25T20:50:00Z,53.48,0.15,6.0,-1.0,90,5,,6.21,30.11811,,,TRUE,,,,,,,,CLR,,,,,,,,VFR,,,,,,,,,,,,METAR,6.0
EGXE 252050Z AUTO 04001KT 9999 FEW055/// BKN072/// 04/M00 Q1019,EGXE,2023-04-25T20:50:00Z,54.28,-1.52,4.0,0.0,40,1,,6.21,30.088583,,,TRUE,,,,,,,,FEW,5500,BKN,7200,,,,,VFR,,,,,,,,,,,,METAR,30.0
EGXC 252050Z 09005KT CAVOK 04/00 Q1020 RMK BLU,EGXC,2023-04-25T20:50:00Z,53.1,-0.17,4.0,0.0,90,5,,6.21,30.11811,,,,,,,,,,,CAVOK,,,,,,,,VFR,,,,,,,,,,,,METAR,9.0
EGWU 252050Z 15003KT CAVOK 06/M01 Q1019 NOSIG RMK BLU BLU,EGWU,2023-04-25T20:50:00Z,51.55,-0.42,6.0,-1.0,150,3,,6.21,30.088583,,,,,,TRUE,,,,,CAVOK,,,,,,,,VFR,,,,,,,,,,,,METAR,33.0
EGWC 252050Z AUTO 02002KT //// ///////// ///// Q////,EGWC,2023-04-25T20:50:00Z,52.63,-2.3,,,20,2,,,,,,TRUE,,,,,,,,,,,,,,,,,,,,,,,,,,,,METAR,79.0
EGVP 252050Z 18002KT CAVOK 06/01 Q1019 NOSIG RMK BLU BLU,EGVP,2023-04-25T20:50:00Z,51.13,-1.57,6.0,1.0,180,2,,6.21,30.088583,,,,,,TRUE,,,,,CAVOK,,,,,,,,VFR,,,,,,,,,,,,METAR,80.0
EGVO 252050Z 21004KT CAVOK 06/01 Q1019 NOSIG RMK BLU BLU,EGVO,2023-04-25T20:50:00Z,51.23,-0.95,6.0,1.0,210,4,,6.21,30.088583,,,,,,TRUE,,,,,CAVOK,,,,,,,,VFR,,,,,,,,,,,,METAR,118.0
EGVN 252050Z 04003KT CAVOK 06/M01 Q1018 NOSGI RMK BLU NOSGI BLU,EGVN,2023-04-25T20:50:00Z,51.77,-1.58,6.0,-1.0,40,3,,6.21,30.059055,,,,,,,,,,SG,CAVOK,,,,,,,,VFR,,,,,,,,,,,,METAR,83.0
EGUW 252050Z AUTO 13002KT 9999 BKN028/// 05/02 Q1020,EGUW,2023-04-25T20:50:00Z,52.12,0.97,5.0,2.0,130,2,,6.21,30.11811,,,TRUE,,,,,,,,BKN,2800,,,,,,,MVFR,,,,,,,,,,,,METAR,86.0
EGUB 252050Z AUTO 09007KT 9999 OVC060/// 04/01 Q1019,EGUB,2023-04-25T20:50:00Z,51.62,-1.08,4.0,1.0,90,7,,6.21,30.088583,,,TRUE,,,,,,,,OVC,6000,,,,,,,VFR,,,,,,,,,,,,METAR,56.0
EGQS 252050Z 36012KT 9999 FEW033 04/M01 Q1019 NOSIG RMK BLU BLU,EGQS,2023-04-25T20:50:00Z,57.72,-3.32,4.0,-1.0,360,12,,6.21,30.088583,,,,,,TRUE,,,,,FEW,3300,,,,,,,VFR,,,,,,,,,,,,METAR,6.0
EGQM 252050Z AUTO 24003KT 9999 OVC066/// 03/M01 Q1019,EGQM,2023-04-25T20:50:00Z,55.42,-1.6,3.0,-1.0,240,3,,6.21,30.088583,,,TRUE,,,,,,,,OVC,6600,,,,,,,VFR,,,,,,,,,,,,METAR,24.0
EGQL 252050Z 14004KT CAVOK 06/00 Q1019 RMK BLU,EGQL,2023-04-25T20:50:00Z,56.38,-2.87,6.0,0.0,140,4,,6.21,30.088583,,,,,,,,,,,CAVOK,,,,,,,,VFR,,,,,,,,,,,,METAR,11.0
EGQK 252050Z AUTO 34010KT 9999 OVC066/// 04/M02 Q1020,EGQK,2023-04-25T20:50:00Z,57.65,-3.57,4.0,-2.0,340,10,,6.21,30.11811,,,TRUE,,,,,,,,OVC,6600,,,,,,,VFR,,,,,,,,,,,,METAR,5.0
EGQA 252050Z AUTO 36008KT 9999 SCT053/// 02/M03 Q1020,EGQA,2023-04-25T20:50:00Z,57.83,-3.95,2.0,-3.0,360,8,,6.21,30.11811,,,TRUE,,,,,,,,SCT,5300,,,,,,,VFR,,,,,,,,,,,,METAR,4.0
EGPI 252050Z AUTO 09003KT 9999 NCD 02/M02 Q1019,EGPI,2023-04-25T20:50:00Z,55.68,-6.25,2.0,-2.0,90,3,,6.21,30.088583,,,TRUE,,,,,,,,CLR,,,,,,,,VFR,,,,,,,,,,,,METAR,17.0
EGOV 252050Z AUTO 05007KT 9999 OVC170/// 07/00 Q1018,EGOV,2023-04-25T20:50:00Z,53.25,-4.53,7.0,0.0,50,7,,6.21,30.059055,,,TRUE,,,,,,,,OVC,17000,,,,,,,VFR,,,,,,,,,,,,METAR,11.0
EGOS 252050Z AUTO 22001KT 9999 FEW063/// OVC190/// 05/M00 Q1018,EGOS,2023-04-25T20:50:00Z,52.8,-2.67,5.0,0.0,220,1,,6.21,30.059055,,,TRUE,,,,,,,,FEW,6300,OVC,19000,,,,,VFR,,,,,,,,,,,,METAR,76.0
EGOP 252050Z AUTO 12005KT 9999 OVC059/// 09/01 Q1018,EGOP,2023-04-25T20:50:00Z,51.72,-4.37,9.0,1.0,120,5,,6.21,30.059055,,,TRUE,,,,,,,,OVC,5900,,,,,,,VFR,,,,,,,,,,,,METAR,8.0
EGOM 252050Z AUTO 11008KT 9999 OVC042/// 04/M02 Q1018,EGOM,2023-04-25T20:50:00Z,55.05,-2.55,4.0,-2.0,110,8,,6.21,30.059055,,,TRUE,,,,,,,,OVC,4200,,,,,,,VFR,,,,,,,,,,,,METAR,286.0
EGNV 252050Z 13003KT CAVOK 03/M01 Q1020,EGNV,2023-04-25T20:50:00Z,54.52,-1.42,3.0,-1.0,130,3,,6.21,30.11811,,,,,,,,,,,CAVOK,,,,,,,,VFR,,,,,,,,,,,,METAR,36.0
EGNS 252050Z 03006KT CAVOK 06/01 Q1018,EGNS,2023-04-25T20:50:00Z,54.08,-4.63,6.0,1.0,30,6,,6.21,30.059055,,,,,,,,,,,CAVOK,,,,,,,,VFR,,,,,,,,,,,,METAR,18.0
EGJB 252050Z 09013KT 9999 FEW045 08/02 Q1017,EGJB,2023-04-25T20:50:00Z,49.42,-2.6,8.0,2.0,90,13,,6.21,30.029528,,,,,,,,,,,FEW,4500,,,,,,,VFR,,,,,,,,,,,,METAR,102.0
EGDY 252050Z 10002KT 9999 FEW040 BKN180 06/01 Q1018 NOSIG RMK BLU BLU,EGDY,2023-04-25T20:50:00Z,51.0,-2.63,6.0,1.0,100,2,,6.21,30.059055,,,,,,TRUE,,,,,FEW,4000,BKN,18000,,,,,VFR,,,,,,,,,,,,METAR,21.0
EGDR 252050Z 08015KT 9999 -RA FEW025 BKN030 OVC050 08/05 Q1016 TEMPO 7000 -RA SCT014 RMK BLU TEMPO GRN,EGDR,2023-04-25T20:50:00Z,50.08,-5.25,8.0,5.0,80,15,,6.21,30.0,,,,,,,,,,-RA,FEW,2500,BKN,3000,OVC,5000,,,MVFR,,,,,,,,,,,,METAR,74.0
EGDM 252050Z AUTO 20003KT 9999 OVC170/// 05/01 Q1019,EGDM,2023-04-25T20:50:00Z,51.17,-1.75,5.0,1.0,200,3,,6.21,30.088583,,,TRUE,,,,,,,,OVC,17000,,,,,,,VFR,,,,,,,,,,,,METAR,122.0
EEEI 252050Z AUTO VRB02KT CAVOK 10/05 Q1002,EEEI,2023-04-25T20:50:00Z,59.27,24.2,10.0,5.0,0,2,,6.21,29.586615,,,TRUE,,,,,,,,CAVOK,,,,,,,,VFR,,,,,,,,,,,,METAR,19.0
BGSF 252050Z AUTO 05005KT 9999NDV FEW007/// BKN036/// BKN041/// OVC048/// 02/01 Q1026,BGSF,2023-04-25T20:50:00Z,67.0,-50.72,2.0,1.0,50,5,,,30.295275,,,TRUE,,,,,,,,FEW,700,BKN,3600,BKN,4100,OVC,4800,,,,,,,,,,,,,METAR,75.0
BGKK 252050Z AUTO 26005KT 9999NDV NCD M00/M05 Q1032,BGKK,2023-04-25T20:50:00Z,65.57,-37.13,0.0,-5.0,260,5,,,30.47244,,,TRUE,,,,,,,,CLR,,,,,,,,,,,,,,,,,,,,METAR,37.0
BGJN 252050Z AUTO 19003KT 7000NDV -SN BKN005/// OVC013/// 01/00 Q1024,BGJN,2023-04-25T20:50:00Z,69.25,-51.07,1.0,0.0,190,3,,,30.236221,,,TRUE,,,,,,,-SN,BKN,500,OVC,1300,,,,,,,,,,,,,,,,,METAR,22.0
BGGH 252050Z 20019KT 9999 FEW005 BKN067 01/00 Q1027,BGGH,2023-04-25T20:50:00Z,64.2,-51.68,1.0,0.0,200,19,,6.21,30.324802,,,,,,,,,,,FEW,500,BKN,6700,,,,,VFR,,,,,,,,,,,,METAR,76.0
BGBW 252050Z 23007KT 9999 FEW045 SCT120 BKN160 07/M01 Q1029,BGBW,2023-04-25T20:50:00Z,61.17,-45.42,7.0,-1.0,230,7,,6.21,30.383858,,,,,,,,,,,FEW,4500,SCT,12000,BKN,16000,,,VFR,,,,,,,,,,,,METAR,49.0
MMCZ 252049Z 14010KT 8SM FEW015 31/23 A2984 RMK SLP110 55016 910 8/500,MMCZ,2023-04-25T20:49:00Z,20.52,-86.92,31.0,23.0,140,10,,8.0,29.840551,1011.0,,,,,,,,,,FEW,1500,,,,,,,VFR,-1.6,,,,,,,,,,,METAR,7.0
KTRK 252048Z 34010KT 10SM FEW250 13/M04 A3014,KTRK,2023-04-25T20:48:00Z,39.32,-120.13,13.0,-4.0,340,10,,10.0,30.138779,,,,,,,,,,,FEW,25000,,,,,,,VFR,,,,,,,,,,,,METAR,1800.0
KTOA 252048Z 27010KT 10SM SCT011 BKN030 19/13 A2991,KTOA,2023-04-25T20:48:00Z,33.8,-118.33,19.0,13.0,270,10,,10.0,29.911417,,,,,,,,,,,SCT,1100,BKN,3000,,,,,MVFR,,,,,,,,,,,,METAR,30.0
KLAL 252048Z 18003KT 10SM -RA SCT026 BKN075 23/19 A2990 RMK LTG DSNT N THROUGH SE,KLAL,2023-04-25T20:48:00Z,27.98,-82.02,23.0,19.0,180,3,,10.0,29.899607,,,,,,,,,,-RA,SCT,2600,BKN,7500,,,,,VFR,,,,,,,,,,,,METAR,39.0
KJDN 252048Z AUTO 12008KT 17/M01 A2998 RMK AO1 SLP158 T01671006 57010,KJDN,2023-04-25T20:48:00Z,47.33,-106.95,16.7,-0.6,120,8,,,29.97933,1015.8,,TRUE,TRUE,,,,,,,,,,,,,,,,-1.0,,,,,,,,,,,METAR,802.0
KASG 252048Z 23005KT 10SM BKN044 OVC049 15/08 A3007,KASG,2023-04-25T20:48:00Z,36.17,-94.12,15.0,8.0,230,5,,10.0,30.070866,,,,,,,,,,,BKN,4400,OVC,4900,,,,,VFR,,,,,,,,,,,,METAR,410.0
PAPT 252047Z 19015KT 7SM BRK040 OVC100 01/M02 A2964 RMK NO SPECI,PAPT,2023-04-25T20:47:00Z,62.1,-152.72,1.0,-2.0,190,15,,7.0,29.639763,,,,,,,,,,BR,OVC,10000,,,,,,,VFR,,,,,,,,,,,,METAR,577.0
PAEL 252047Z 09010KT 15SM SCT025 OVC050 05/00 A3004 RMK SPB E03012KT SEA 0 SWELL 2 SW NOSPECI,PAEL,2023-04-25T20:47:00Z,58.2,-136.35,5.0,0.0,90,10,,15.0,30.041338,,,,,,,,,,,SCT,2500,OVC,5000,,,,,VFR,,,,,,,,,,,,METAR,8.0
MMMD 252047Z 25010KT 7SM BKN020TCU 38/17 A2976 RMK SLP085 57021 967 8/200 HZY CI,MMMD,2023-04-25T20:47:00Z,20.95,-89.65,38.0,17.0,250,10,,7.0,29.760826,1008.5,,,,,,,,,,BKN,2000,,,,,,,MVFR,-2.1,,,,,,,,,,,METAR,10.0
MMIO 252047Z 27005KT 10SM SKC 29/10 A3004 RMK CI,MMIO,2023-04-25T20:47:00Z,25.55,-100.93,29.0,10.0,270,5,,10.0,30.041338,,,,,,,,,,,SKC,,,,,,,,VFR,,,,,,,,,,,,SPECI,1430.0
MMEP 252047Z 34012KT 10SM BKN250 31/13 A2998 RMK SLP141 57014 905 8/008 HZY,MMEP,2023-04-25T20:47:00Z,21.42,-104.85,31.0,13.0,340,12,,10.0,29.97933,1014.1,,,,,,,,,,BKN,25000,,,,,,,VFR,-1.4,,,,,,,,,,,SPECI,921.0
MMAA 252047Z 23009KT 5SM FEW015 FEW300 30/22 A2978 RMK SLP086 57026 961 8/102 HZY FU NE,MMAA,2023-04-25T20:47:00Z,16.75,-99.75,30.0,22.0,230,9,,5.0,29.778543,1008.6,,,,,,,,,,FEW,1500,FEW,30000,,,,,MVFR,-2.6,,,,,,,,,,,METAR,5.0
KTIX 252047Z 06015KT 7SM SCT015 27/20 A2993,KTIX,2023-04-25T20:47:00Z,28.5,-80.8,27.0,20.0,60,15,,7.0,29.929134,,,,,,,,,,,SCT,1500,,,,,,,VFR,,,,,,,,,,,,METAR,10.0
KSUN 252047Z 23011KT 10SM SKC 11/M01 A3010,KSUN,2023-04-25T20:47:00Z,43.5,-114.28,11.0,-1.0,230,11,,10.0,30.100393,,,,,,,,,,,SKC,,,,,,,,VFR,,,,,,,,,,,,METAR,1619.0
KSUA 252047Z 11012KT 7SM VCTS SCT012 BKN020 27/16 A2990,KSUA,2023-04-25T20:47:00Z,27.18,-80.22,27.0,16.0,110,12,,7.0,29.899607,,,,,,,,,,VCTS,SCT,1200,BKN,2000,,,,,MVFR,,,,,,,,,,,,METAR,4.0
KSQL 252047Z 32006KT 10SM CLR 25/03 A2993,KSQL,2023-04-25T20:47:00Z,37.52,-122.25,25.0,3.0,320,6,,10.0,29.929134,,,,,,,,,,,CLR,,,,,,,,VFR,,,,,,,,,,,,METAR,1.0
KRHV 252047Z 32007KT 10SM SCT080 24/09 A2992,KRHV,2023-04-25T20:47:00Z,37.33,-121.82,24.0,9.0,320,7,,10.0,29.920275,,,,,,,,,,,SCT,8000,,,,,,,VFR,,,,,,,,,,,,METAR,37.0
KPOC 252047Z 27006KT 10SM CLR 20/12 A2991,KPOC,2023-04-25T20:47:00Z,34.1,-117.77,20.0,12.0,270,6,,10.0,29.911417,,,,,,,,,,,CLR,,,,,,,,VFR,,,,,,,,,,,,METAR,304.0
KPAO 252047Z 01008KT 10SM FEW200 21/12 A2993,KPAO,2023-04-25T20:47:00Z,37.47,-122.12,21.0,12.0,10,8,,10.0,29.929134,,,,,,,,,,,FEW,20000,,,,,,,VFR,,,,,,,,,,,,METAR,2.0
KLBE 252047Z VRB06KT 20SM FEW070 12/M04 A3014,KLBE,2023-04-25T20:47:00Z,40.27,-79.4,12.0,-4.0,0,6,,20.0,30.138779,,,,,,,,,,,FEW,7000,,,,,,,VFR,,,,,,,,,,,,METAR,345.0
KIWA 252047Z 28011G18KT 10SM CLR 30/03 A2978,KIWA,2023-04-25T20:47:00Z,33.3,-111.65,30.0,3.0,280,11,18,10.0,29.778543,,,,,,,,,,,CLR,,,,,,,,VFR,,,,,,,,,,,,METAR,420.0
KGYR 252047Z 25008G19KT 10SM FEW100 FEW250 31/05 A2976,KGYR,2023-04-25T20:47:00Z,33.42,-112.37,31.0,5.0,250,8,19,10.0,29.760826,,,,,,,,,,,FEW,10000,FEW,25000,,,,,VFR,,,,,,,,,,,,METAR,292.0
KGYH 252047Z 07006KT 10SM SCT060 BKN080 16/07 A3011,KGYH,2023-04-25T20:47:00Z,34.75,-82.38,16.0,7.0,70,6,,10.0,30.109253,,,,,,,,,,,SCT,6000,BKN,8000,,,,,VFR,,,,,,,,,,,,METAR,283.0
KCWA 252047Z 30007KT 7SM OVC060 08/M05 A3021,KCWA,2023-04-25T20:47:00Z,44.78,-89.67,8.0,-5.0,300,7,,7.0,30.209646,,,,,,,,,,,OVC,6000,,,,,,,VFR,,,,,,,,,,,,METAR,387.0
KCIC 252047Z 30011KT 10SM CLR 27/02 A2993,KCIC,2023-04-25T20:47:00Z,39.78,-121.85,27.0,2.0,300,11,,10.0,29.929134,,,,,,,,,,,CLR,,,,,,,,VFR,,,,,,,,,,,,METAR,72.0
KCFO 252047Z 16014G19KT 10SM SCT049 BKN055 OVC085 15/00 A2983,KCFO,2023-04-25T20:47:00Z,39.78,-104.55,15.0,0.0,160,14,19,10.0,29.828741,,,,,,,,,,,SCT,4900,BKN,5500,OVC,8500,,,VFR,,,,,,,,,,,,METAR,1672.0
KADS 252047Z 11010G15KT 13SM SCT032 SCT044 OVC060 22/12 A2991,KADS,2023-04-25T20:47:00Z,32.97,-96.83,22.0,12.0,110,10,15,13.0,29.911417,,,,,,,,,,,SCT,3200,SCT,4400,OVC,6000,,,VFR,,,,,,,,,,,,METAR,198.0
MMSM 252046Z 28008KT 220V340 8SM FEW020 SCT220 27/M02 A3015 RMK 8/102 HZY MDT CU E S,MMSM,2023-04-25T20:46:00Z,19.75,-99.02,27.0,-2.0,280,8,,8.0,30.15059,,,,,,,,,,,FEW,2000,SCT,22000,,,,,VFR,,,,,,,,,,,,METAR,2250.0
MMSL 252046Z 24012KT 10SM SKC 28/12 A2991 RMK AC,MMSL,2023-04-25T20:46:00Z,22.95,-109.93,28.0,12.0,240,12,,10.0,29.911417,,,,,,,,,,,SKC,,,,,,,,VFR,,,,,,,,,,,,METAR,205.0
MMIA 252046Z 25012KT 6SM BKN200 30/21 A3001 RMK 8/009 HZY,MMIA,2023-04-25T20:46:00Z,19.27,-103.57,30.0,21.0,250,12,,6.0,30.008858,,,,,,,,,,,BKN,20000,,,,,,,VFR,,,,,,,,,,,,SPECI,744.0
MMGL 252046Z 30015KT 10SM SCT300 30/M12 A3007 RMK SLP055 57033 912 8/002,MMGL,2023-04-25T20:46:00Z,20.52,-103.32,30.0,-12.0,300,15,,10.0,30.070866,1005.5,,,,,,,,,,SCT,30000,,,,,,,VFR,-3.3,,,,,,,,,,,SPECI,1531.0
MMCV 252046Z 30005KT 8SM BKN015 27/17 A2981 RMK SLP/// 57021 992 8/100 HZY,MMCV,2023-04-25T20:46:00Z,23.72,-98.97,27.0,17.0,300,5,,8.0,29.811024,,,,,,,,,,,BKN,1500,,,,,,,MVFR,-2.1,,,,,,,,,,,METAR,230.0
MMCL 252046Z 19011KT 10SM SKC 31/17 A2984 RMK SLP104 57016 904 ISOL CI,MMCL,2023-04-25T20:46:00Z,24.77,-107.47,31.0,17.0,190,11,,10.0,29.840551,1010.4,,,,,,,,,,SKC,,,,,,,,VFR,-1.6,,,,,,,,,,,METAR,35.0
KSAW 252046Z 02014G19KT 10SM SCT021 BKN035 02/M04 A3023,KSAW,2023-04-25T20:46:00Z,46.35,-87.4,2.0,-4.0,20,14,19,10.0,30.230314,,,,,,,,,,,SCT,2100,BKN,3500,,,,,VFR,,,,,,,,,,,,METAR,359.0
KCWF 252046Z 10007KT 10SM CLR 23/14 A2994,KCWF,2023-04-25T20:46:00Z,30.22,-93.15,23.0,14.0,100,7,,10.0,29.940945,,,,,,,,,,,CLR,,,,,,,,VFR,,,,,,,,,,,,METAR,4.0
TJIG 252045Z 09008KT 10SM SCT030 SCT070 28/21 A2990,TJIG,2023-04-25T20:45:00Z,18.45,-66.1,28.0,21.0,90,8,,10.0,29.899607,,,,,,,,,,,SCT,3000,SCT,7000,,,,,VFR,,,,,,,,,,,,METAR,3.0
PAKU 252045Z 27003KT 10SM R24/P6000FT SCT007 M20/M22 A3020,PAKU,2023-04-25T20:45:00Z,70.32,-149.6,-20.0,-22.0,270,3,,10.0,30.200787,,,,,,,,,,,SCT,700,,,,,,,VFR,,,,,,,,,,,,METAR,23.0
MMTO 252045Z 31011KT 8SM FEW200 24/M07 A3027 RMK SLP041 57022 930 8/001 CU,MMTO,2023-04-25T20:45:00Z,19.35,-99.57,24.0,-7.0,310,11,,8.0,30.268702,1004.1,,,,,,,,,,FEW,20000,,,,,,,VFR,-2.2,,,,,,,,,,,METAR,2582.0
MMPS 252045Z 25008KT 12SM FEW020 SCT100 30/22 A2982 RMK 8/110 HZY,MMPS,2023-04-25T20:45:00Z,15.87,-97.08,30.0,22.0,250,8,,12.0,29.819881,,,,,,,,,,,FEW,2000,SCT,10000,,,,,VFR,,,,,,,,,,,,METAR,65.0
MMMM 252045Z 24009KT 8SM SCT300 32/00 A3008 RMK SLP034 57022 902 8/002 CU,MMMM,2023-04-25T20:45:00Z,19.85,-101.03,32.0,0.0,240,9,,8.0,30.079725,1003.4,,,,,,,,,,SCT,30000,,,,,,,VFR,-2.2,,,,,,,,,,,SPECI,1840.0
MMCS 252045Z 26016KT 10SM SKC 28/M05 A2984 RMK SLP006 57025 959,MMCS,2023-04-25T20:45:00Z,31.63,-106.42,28.0,-5.0,260,16,,10.0,29.840551,1000.6,,,,,,,,,,SKC,,,,,,,,VFR,-2.5,,,,,,,,,,,SPECI,1194.0
MMCN 252045Z 20008KT 10SM BKN200 29/12 A2981 RMK SLP095 8/008 FULYR SW HZY,MMCN,2023-04-25T20:45:00Z,27.4,-109.83,29.0,12.0,200,8,,10.0,29.811024,1009.5,,,,,,,,,,BKN,20000,,,,,,,VFR,,,,,,,,,,,,METAR,57.0
LHSM 252045Z AUTO 33006KT CAVOK 09/05 Q1011,LHSM,2023-04-25T20:45:00Z,46.68,17.17,9.0,5.0,330,6,,6.21,29.852362,,,TRUE,,,,,,,,CAVOK,,,,,,,,VFR,,,,,,,,,,,,METAR,119.0
LHPR 252045Z AUTO 30009KT CAVOK 07/05 Q1010,LHPR,2023-04-25T20:45:00Z,47.63,17.82,7.0,5.0,300,9,,6.21,29.822834,,,TRUE,,,,,,,,CAVOK,,,,,,,,VFR,,,,,,,,,,,,METAR,127.0
LHPP 252045Z AUTO 36006KT CAVOK 10/05 Q1009,LHPP,2023-04-25T20:45:00Z,45.98,18.23,10.0,5.0,360,6,,6.21,29.793306,,,TRUE,,,,,,,,CAVOK,,,,,,,,VFR,,,,,,,,,,,,METAR,193.0
LHPA 252045Z 32010KT CAVOK 09/05 Q1010 NOSIG RMK BLU,LHPA,2023-04-25T20:45:00Z,47.35,17.5,9.0,5.0,320,10,,6.21,29.822834,,,,,,TRUE,,,,,CAVOK,,,,,,,,VFR,,,,,,,,,,,,METAR,143.0
LHKE 252045Z 32002KT CAVOK 08/04 Q1008 NOSIG RMK BLU,LHKE,2023-04-25T20:45:00Z,46.92,19.75,8.0,4.0,320,2,,6.21,29.763779,,,,,,TRUE,,,,,CAVOK,,,,,,,,VFR,,,,,,,,,,,,METAR,113.0
LHDC 252045Z AUTO 33006KT 300V010 CAVOK 09/06 Q1007 NOSIG,LHDC,2023-04-25T20:45:00Z,47.48,21.62,9.0,6.0,330,6,,6.21,29.734253,,,TRUE,,,TRUE,,,,,CAVOK,,,,,,,,VFR,,,,,,,,,,,,METAR,105.0
KUES 252045Z 06005KT 10SM SCT040 OVC046 05/M03 A3021,KUES,2023-04-25T20:45:00Z,43.05,-88.25,5.0,-3.0,60,5,,10.0,30.209646,,,,,,,,,,,SCT,4000,OVC,4600,,,,,VFR,,,,,,,,,,,,METAR,273.0
KSWF 252045Z 29010KT 10SM BKN070 13/M02 A3014,KSWF,2023-04-25T20:45:00Z,41.5,-74.08,13.0,-2.0,290,10,,10.0,30.138779,,,,,,,,,,,BKN,7000,,,,,,,VFR,,,,,,,,,,,,METAR,139.0
KOUN 252045Z 09011G17KT 10SM OVC012 11/08 A2995,KOUN,2023-04-25T20:45:00Z,35.25,-97.47,11.0,8.0,90,11,17,10.0,29.949802,,,,,,,,,,,OVC,1200,,,,,,,MVFR,,,,,,,,,,,,METAR,359.0
KMWC 252045Z 07007KT 10SM SCT040 07/M01 A3021,KMWC,2023-04-25T20:45:00Z,43.12,-88.03,7.0,-1.0,70,7,,10.0,30.209646,,,,,,,,,,,SCT,4000,,,,,,,VFR,,,,,,,,,,,,METAR,225.0
KMWA 252045Z 00000KT 20SM CLR 19/01 A3010,KMWA,2023-04-25T20:45:00Z,37.77,-89.02,19.0,1.0,0,0,,20.0,30.100393,,,,,,,,,,,CLR,,,,,,,,VFR,,,,,,,,,,,,METAR,142.0
KMMU 252045Z 33004KT 10SM BKN085 15/M02 A3016,KMMU,2023-04-25T20:45:00Z,40.78,-74.42,15.0,-2.0,330,4,,10.0,30.159449,,,,,,,,,,,BKN,8500,,,,,,,VFR,,,,,,,,,,,,METAR,55.0
KLOT 252045Z 02016G23KT 10SM BKN028 OVC034 08/03 A3018,KLOT,2023-04-25T20:45:00Z,41.6,-88.1,8.0,3.0,20,16,23,10.0,30.180119,,,,,,,,,,,BKN,2800,OVC,3400,,,,,MVFR,,,,,,,,,,,,METAR,205.0
KJVL 252045Z 08008KT 10SM BKN045 OVC060 09/00 A3020,KJVL,2023-04-25T20:45:00Z,42.62,-89.05,9.0,0.0,80,8,,10.0,30.200787,,,,,,,,,,,BKN,4500,OVC,6000,,,,,VFR,,,,,,,,,,,,METAR,244.0
KGYY 252045Z 36017KT 10SM OVC012 06/02 A3012,KGYY,2023-04-25T20:45:00Z,41.62,-87.42,6.0,2.0,360,17,,10.0,30.121063,,,,,,,,,,,OVC,1200,,,,,,,MVFR,,,,,,,,,,,,METAR,179.0
KFMH 252045Z 16007KT 10SM BKN065 12/06 A3014,KFMH,2023-04-25T20:45:00Z,41.65,-70.52,12.0,6.0,160,7,,10.0,30.138779,,,,,,,,,,,BKN,6500,,,,,,,VFR,,,,,,,,,,,,METAR,35.0
KEMT 252045Z 20007G14KT 10SM FEW031 22/13 A2989,KEMT,2023-04-25T20:45:00Z,34.08,-118.03,22.0,13.0,200,7,14,10.0,29.890747,,,,,,,,,,,FEW,3100,,,,,,,VFR,,,,,,,,,,,,METAR,84.0
KCGF 252045Z 35008KT 10SM -DZ BKN036 06/02 A3018,KCGF,2023-04-25T20:45:00Z,41.57,-81.47,6.0,2.0,350,8,,10.0,30.180119,,,,,,,,,,-DZ,BKN,3600,,,,,,,VFR,,,,,,,,,,,,METAR,265.0
KBBG 252045Z 11008KT 10SM OVC050 15/04 A3008,KBBG,2023-04-25T20:45:00Z,36.53,-93.2,15.0,4.0,110,8,,10.0,30.079725,,,,,,,,,,,OVC,5000,,,,,,,VFR,,,,,,,,,,,,METAR,403.0
KBAK 252045Z 35006KT 10SM SCT065 OVC075 14/M02 A3011,KBAK,2023-04-25T20:45:00Z,39.27,-85.9,14.0,-2.0,350,6,,10.0,30.109253,,,,,,,,,,,SCT,6500,OVC,7500,,,,,VFR,,,,,,,,,,,,METAR,199.0
KATW 252045Z 35005KT 10SM BKN050 BKN065 08/M04 A3018,KATW,2023-04-25T20:45:00Z,44.27,-88.52,8.0,-4.0,350,5,,10.0,30.180119,,,,,,,,,,,BKN,5000,BKN,6500,,,,,VFR,,,,,,,,,,,,METAR,266.0
KANE 252045Z 08006KT 10SM BKN055 09/M05 A3024,KANE,2023-04-25T20:45:00Z,45.15,-93.22,9.0,-5.0,80,6,,10.0,30.239174,,,,,,,,,,,BKN,5500,,,,,,,VFR,,,,,,,,,,,,METAR,276.0
K1S3 252045Z AUTO 17004KT 10SM 16/M03 A2998 ,K1S3,2023-04-25T20:45:00Z,46.27,-106.62,16.0,-3.0,170,4,,10.0,29.97933,,,TRUE,,,,,,,,,,,,,,,,,,,,,,,,,,,,METAR,831.0
MMVA 252044Z 07007KT 5SM SCT017 BKN100 32/23 A2977 RMK SLP080 57027 973 8/120 HZY,MMVA,2023-04-25T20:44:00Z,18.0,-92.82,32.0,23.0,70,7,,5.0,29.769686,1008.0,,,,,,,,,,SCT,1700,BKN,10000,,,,,MVFR,-2.7,,,,,,,,,,,METAR,13.0
MMTM 252044Z E07010KT 10SM BKN220 27/21 A2978 RMK SLP084 57016 990 8/008,MMTM,2023-04-25T20:44:00Z,22.28,-97.87,27.0,21.0,70,10,,10.0,29.778543,1008.4,,,,,,,,,,BKN,22000,,,,,,,VFR,-1.6,,,,,,,,,,,METAR,21.0
MMOX 252044Z 00000KT 5SM SCT030TCU BKN210 30/05 A3003 RMK SLP067 57007 951 8/208 FU HZ,MMOX,2023-04-25T20:44:00Z,17.0,-96.72,30.0,5.0,0,0,,5.0,30.029528,1006.7,,,,,,,,,,SCT,3000,BKN,21000,,,,,MVFR,-0.7,,,,,,,,,,,METAR,1528.0
MMVR 252043Z 12009KT 6SM FEW012 SCT030 30/23 A2977 RMK SLP072 57023 988 8/800 HZY ISOL CI,MMVR,2023-04-25T20:43:00Z,19.15,-96.18,30.0,23.0,120,9,,6.0,29.769686,1007.2,,,,,,,,,,FEW,1200,SCT,3000,,,,,VFR,-2.3,,,,,,,,,,,METAR,26.0
MMPA 252043Z 00000KT 6SM OVC020 27/21 A2977 RMK SLP054 57022 990 8/8// HZY,MMPA,2023-04-25T20:43:00Z,20.6,-97.47,27.0,21.0,0,0,,6.0,29.769686,1005.4,,,,,,,,,,OVC,2000,,,,,,,MVFR,-2.2,,,,,,,,,,,METAR,153.0
MMMZ 252043Z 26007KT 15SM SKC 29/17 A2987 RMK SLP100 57013 958 ISOL CI,MMMZ,2023-04-25T20:43:00Z,23.17,-106.27,29.0,17.0,260,7,,15.0,29.870079,1010.0,,,,,,,,,,SKC,,,,,,,,VFR,-1.3,,,,,,,,,,,METAR,7.0
MMBT 252043Z 18010KT 10SM BKN220 31/23 A2983 RMK 8/002,MMBT,2023-04-25T20:43:00Z,15.77,-96.27,31.0,23.0,180,10,,10.0,29.828741,,,,,,,,,,,BKN,22000,,,,,,,VFR,,,,,,,,,,,,METAR,137.0
MMZH 252042Z 23010KT 7SM FEW250 32/21 A2982 RMK SLP089 57027 957 8/002 HZY,MMZH,2023-04-25T20:42:00Z,17.6,-101.47,32.0,21.0,230,10,,7.0,29.819881,1008.9,,,,,,,,,,FEW,25000,,,,,,,VFR,-2.7,,,,,,,,,,,METAR,9.0
MMZC 252042Z E22012KT 10SM SKC 25/M23 A3011,MMZC,2023-04-25T20:42:00Z,22.9,-102.68,25.0,-23.0,220,12,,10.0,30.109253,,,,,,,,,,,SKC,,,,,,,,VFR,,,,,,,,,,,,METAR,2175.0
MMTJ 252042Z 25005KT 8SM BKN020 18/13 A2993 RMK SLP153 54000 905 8/500 HZY,MMTJ,2023-04-25T20:42:00Z,32.53,-116.97,18.0,13.0,250,5,,8.0,29.929134,1015.3,,,,,,,,,,BKN,2000,,,,,,,MVFR,,,,,,,,,,,,METAR,150.0
MMPB 252042Z 16014KT 9SM FEW025 SCT230 26/02 A3018 RMK 8/102 HZY,MMPB,2023-04-25T20:42:00Z,19.17,-98.37,26.0,2.0,160,14,,9.0,30.180119,,,,,,,,,,,FEW,2500,SCT,23000,,,,,VFR,,,,,,,,,,,,METAR,2250.0
MMLP 252042Z 22008KT 10SM FEW200 29/05 A2987 RMK SLP113 57012 911 8/002,MMLP,2023-04-25T20:42:00Z,24.07,-110.37,29.0,5.0,220,8,,10.0,29.870079,1011.3,,,,,,,,,,FEW,20000,,,,,,,VFR,-1.2,,,,,,,,,,,METAR,16.0
MMCB 252042Z 23010G20KT 8SM BKN250 35/01 A2993 RMK 8/008 CU SC HZY,MMCB,2023-04-25T20:42:00Z,18.83,-99.27,35.0,1.0,230,10,20,8.0,29.929134,,,,,,,,,,,BKN,25000,,,,,,,VFR,,,,,,,,,,,,METAR,1281.0
MMAS 252042Z 24012KT 10SM SKC 26/M22 A3009 RMK ISOL CI,MMAS,2023-04-25T20:42:00Z,21.7,-102.32,26.0,-22.0,240,12,,10.0,30.088583,,,,,,,,,,,SKC,,,,,,,,VFR,,,,,,,,,,,,SPECI,1866.0
KRPX 252042Z AUTO 10SM 16/M01 A2990 RMK Roundup ,KRPX,2023-04-25T20:42:00Z,46.47,-108.55,16.0,-1.0,,,,10.0,29.899607,,,TRUE,,,,,,,,,,,,,,,,,,,,,,,,,,,,METAR,1062.0
MMPQ 252041Z 00000KT 6SM SCT030 34/24 A2965 RMK 8/100 HZY,MMPQ,2023-04-25T20:41:00Z,17.53,-92.02,34.0,24.0,0,0,,6.0,29.648623,,,,,,,,,,,SCT,3000,,,,,,,VFR,,,,,,,,,,,,METAR,48.0
MMPN 252041Z 20008KT 7SM BKN280 26/11 A3008 RMK 8/001 HZY CU,MMPN,2023-04-25T20:41:00Z,19.38,-102.03,26.0,11.0,200,8,,7.0,30.079725,,,,,,,,,,,BKN,28000,,,,,,,VFR,,,,,,,,,,,,SPECI,1602.0
MMNL 252041Z 17011KT 10SM BKN030 27/18 A2980 RMK SLP075 57033 992 8/500,MMNL,2023-04-25T20:41:00Z,27.43,-99.57,27.0,18.0,170,11,,10.0,29.799213,1007.5,,,,,,,,,,BKN,3000,,,,,,,MVFR,-3.3,,,,,,,,,,,SPECI,146.0
MMMY 252041Z 14009KT 15SM SCT040 25/16 A2981 RMK SLP/// 5//// 9// 8/500,MMMY,2023-04-25T20:41:00Z,25.77,-100.1,25.0,16.0,140,9,,15.0,29.811024,,,,,,,,,,,SCT,4000,,,,,,,VFR,,,,,,,,,,,,METAR,382.0
MMMT 252041Z 36010KT 6SM BKN020 BKN040 27/26 A2974 RMK SLP071 57023 987 8/600 VCHZ,MMMT,2023-04-25T20:41:00Z,18.1,-94.57,27.0,26.0,360,10,,6.0,29.740158,1007.1,,,,,,,,,,BKN,2000,BKN,4000,,,,,MVFR,-2.3,,,,,,,,,,,METAR,15.0
MMCM 252041Z 12013KT 7SM SCT020 31/22 A2982 RMK SLP099 5//// 903 8/500 HZY,MMCM,2023-04-25T20:41:00Z,18.5,-88.33,31.0,22.0,120,13,,7.0,29.819881,1009.9,,,,,,,,,,SCT,2000,,,,,,,VFR,,,,,,,,,,,,METAR,10.0
MMZO 252040Z 25015KT 12SM FEW020 SCT250 28/22 A2984 RMK 8/104,MMZO,2023-04-25T20:40:00Z,19.13,-104.57,28.0,22.0,250,15,,12.0,29.840551,,,,,,,,,,,FEW,2000,SCT,25000,,,,,VFR,,,,,,,,,,,,SPECI,11.0
MMUN 252040Z 13016KT 7SM FEW015 30/22 A2984 RMK SLP108 57016 907 8/100 CI,MMUN,2023-04-25T20:40:00Z,21.03,-86.85,30.0,22.0,130,16,,7.0,29.840551,1010.8,,,,,,,,,,FEW,1500,,,,,,,VFR,-1.6,,,,,,,,,,,METAR,13.0
MMTP 252040Z 23010KT 8SM SKC 33/23 A2979 RMK SLP111 57018 957 HZY,MMTP,2023-04-25T20:40:00Z,14.78,-92.37,33.0,23.0,230,10,,8.0,29.790354,1011.1,,,,,,,,,,SKC,,,,,,,,VFR,-1.8,,,,,,,,,,,METAR,27.0
MMTC 252040Z 09006KT 10SM SKC 31/M04 A2990 RMK SLP032 55033 904,MMTC,2023-04-25T20:40:00Z,25.57,-103.4,31.0,-4.0,90,6,,10.0,29.899607,1003.2,,,,,,,,,,SKC,,,,,,,,VFR,-3.3,,,,,,,,,,,SPECI,1128.0
MMSP 252040Z 27007G17KT 12SM BKN230 29/M23 A3005 RMK SLP052 57006 909 8/008,MMSP,2023-04-25T20:40:00Z,22.25,-100.93,29.0,-23.0,270,7,17,12.0,30.050198,1005.2,,,,,,,,,,BKN,23000,,,,,,,VFR,-0.6,,,,,,,,,,,METAR,1841.0
MMSD 252040Z 15014KT 10SM SKC 28/07 A2986 RMK SLP098 57011 907,MMSD,2023-04-25T20:40:00Z,23.15,-109.72,28.0,7.0,150,14,,10.0,29.861221,1009.8,,,,,,,,,,SKC,,,,,,,,VFR,-1.1,,,,,,,,,,,METAR,107.0
MMRX 252040Z 08004KT 7SM SCT030 SCT280 29/19 A2980 RMK SLP141 57023 993 8/502 HZY,MMRX,2023-04-25T20:40:00Z,26.02,-98.22,29.0,19.0,80,4,,7.0,29.799213,1014.1,,,,,,,,,,SCT,3000,SCT,28000,,,,,VFR,-2.3,,,,,,,,,,,SPECI,45.0
MMPR 252040Z 22011KT 13SM BKN250 27/20 A2987 RMK SLP111 57011 914 8/008,MMPR,2023-04-25T20:40:00Z,20.67,-105.25,27.0,20.0,220,11,,13.0,29.870079,1011.1,,,,,,,,,,BKN,25000,,,,,,,VFR,-1.1,,,,,,,,,,,METAR,6.0
MMMA 252040Z 03003KT 9SM BKN017CB OVC080 25/24 A2982 RMK SLP097 57014 990 8/36/ OCNL DROPS HZY,MMMA,2023-04-25T20:40:00Z,25.77,-97.52,25.0,24.0,30,3,,9.0,29.819881,1009.7,,,,,,,,,,BKN,1700,OVC,8000,,,,,MVFR,-1.4,,,,,,,,,,,SPECI,7.0
MMLT 252040Z 07010KT 10SM BKN200 26/14 A2981 RMK SLP095 8/008,MMLT,2023-04-25T20:40:00Z,25.98,-111.33,26.0,14.0,70,10,,10.0,29.811024,1009.5,,,,,,,,,,BKN,20000,,,,,,,VFR,,,,,,,,,,,,METAR,4.0
MMLO 252040Z 31010KT 10SM BKN250 30/M16 A3014 RMK SLP056 57018 903 8/008,MMLO,2023-04-25T20:40:00Z,21.0,-101.47,30.0,-16.0,310,10,,10.0,30.138779,1005.6,,,,,,,,,,BKN,25000,,,,,,,VFR,-1.8,,,,,,,,,,,SPECI,1805.0
MMLM 252040Z 21013KT 10SM BKN220 28/11 A2986 RMK SLP112 8/008 HZY,MMLM,2023-04-25T20:40:00Z,25.68,-109.08,28.0,11.0,210,13,,10.0,29.861221,1011.2,,,,,,,,,,BKN,22000,,,,,,,VFR,,,,,,,,,,,,METAR,6.0
MMHO 252040Z 19011KT 10SM SKC 34/03 A2983 RMK SLP098 57021 907 HZY,MMHO,2023-04-25T20:40:00Z,29.08,-111.05,34.0,3.0,190,11,,10.0,29.828741,1009.8,,,,,,,,,,SKC,,,,,,,,VFR,-2.1,,,,,,,,,,,METAR,186.0
MMGM 252040Z 20015KT 10SM BKN200 27/19 A2978 RMK 8/008,MMGM,2023-04-25T20:40:00Z,27.95,-110.92,27.0,19.0,200,15,,10.0,29.778543,,,,,,,,,,,BKN,20000,,,,,,,VFR,,,,,,,,,,,,METAR,13.0
MMDO 252040Z 29002KT 10SM OVC200 28/M16 A3005 RMK SLP017 57025 907 8/007,MMDO,2023-04-25T20:40:00Z,24.12,-104.52,28.0,-16.0,290,2,,10.0,30.050198,1001.7,,,,,,,,,,OVC,20000,,,,,,,VFR,-2.5,,,,,,,,,,,METAR,1863.0
MMCP 252040Z 30010KT 6SM FEW030 SCT300 32/23 A2979 RMK SLP075 57024 956 8/101 HZY,MMCP,2023-04-25T20:40:00Z,19.82,-90.5,32.0,23.0,300,10,,6.0,29.790354,1007.5,,,,,,,,,,FEW,3000,SCT,30000,,,,,VFR,-2.4,,,,,,,,,,,METAR,9.0
MMCE 252040Z 01010KT 7SM SKC 30/23 A2978 RMK SLP081 57027 960 HZY,MMCE,2023-04-25T20:40:00Z,18.65,-91.8,30.0,23.0,10,10,,7.0,29.778543,1008.1,,,,,,,,,,SKC,,,,,,,,VFR,-2.7,,,,,,,,,,,METAR,5.0
MMAN 252040Z 14010KT 8SM SKC 25/16 A2984 RMK SLP/// 5//// 9// HZY ISOL SC,MMAN,2023-04-25T20:40:00Z,25.87,-100.23,25.0,16.0,140,10,,8.0,29.840551,,,,,,,,,,,SKC,,,,,,,,VFR,,,,,,,,,,,,SPECI,447.0
KTFP 252035Z AUTO 12014KT 10SM SCT015 SCT060 26/21 A2982 RMK AO2 T02590212,KTFP,2023-04-25T20:35:00Z,27.92,-97.22,25.9,21.2,120,14,,10.0,29.819881,,,TRUE,TRUE,,,,,,,SCT,1500,SCT,6000,,,,,VFR,,,,,,,,,,,,METAR,5.0
KRFI 252035Z AUTO 15006KT 10SM BKN070 BKN085 OVC090 22/08 A2997 RMK AO2 LTG DSNT N T02230082,KRFI,2023-04-25T20:35:00Z,32.15,-94.85,22.3,8.2,150,6,,10.0,29.970472,,,TRUE,TRUE,,,,,,,BKN,7000,BKN,8500,OVC,9000,,,VFR,,,,,,,,,,,,SPECI,133.0
KOWP 252035Z AUTO 13008KT 5SM VCTS SCT010 SCT025 BKN035 12/10 A3006 RMK AO2 LTG DSNT W P0002 T01150103,KOWP,2023-04-25T20:35:00Z,36.18,-96.15,11.5,10.3,130,8,,5.0,30.059055,,,TRUE,TRUE,,,,,,VCTS,SCT,1000,SCT,2500,BKN,3500,,,MVFR,,,,,,0.02,,,,,,SPECI,267.0
KEDN 252035Z AUTO 00000KT 10SM SCT050 BKN095 24/13 A2997 RMK AO2 T02400133 PWINO,KEDN,2023-04-25T20:35:00Z,31.3,-85.9,24.0,13.3,0,0,,10.0,29.970472,,,TRUE,TRUE,,,,,TRUE,,SCT,5000,BKN,9500,,,,,VFR,,,,,,,,,,,,SPECI,103.0
KDCM 252035Z AUTO 00000KT 10SM BKN090 16/07 A3012 RMK AO2 LTG DSNT SE,KDCM,2023-04-25T20:35:00Z,34.78,-81.2,16.0,7.0,0,0,,10.0,30.121063,,,TRUE,TRUE,,,,,,,BKN,9000,,,,,,,VFR,,,,,,,,,,,,METAR,191.0
RKTP 252031Z 22007KT 9999 BKN012 BKN025 10/08 A2990 RMK CIG012,RKTP,2023-04-25T20:31:00Z,36.7,126.48,10.0,8.0,220,7,,6.21,29.899607,,,,,,,,,,,BKN,1200,BKN,2500,,,,,MVFR,,,,,,,,,,,,SPECI,13.0
YPPH 252030Z 08005KT 9999 FEW018 13/12 Q1012,YPPH,2023-04-25T20:30:00Z,-31.93,115.98,13.0,12.0,80,5,,6.21,29.88189,,,,,,,,,,,FEW,1800,,,,,,,VFR,,,,,,,,,,,,METAR,16.0
VIUT 252030Z VRB01KT 6000 FEW100 BKN250 26/03 Q1007 NOSIG,VIUT,2023-04-25T20:30:00Z,25.82,71.48,26.0,3.0,0,1,,3.73,29.734253,,,,,,TRUE,,,,,FEW,10000,BKN,25000,,,,,MVFR,,,,,,,,,,,,METAR,152.0
VEBN 252030Z 00000KT 2000 BR FEW100 23/21 Q1008 NOSIG,VEBN,2023-04-25T20:30:00Z,25.45,82.85,23.0,21.0,0,0,,1.24,29.763779,,,,,,TRUE,,,,BR,FEW,10000,,,,,,,IFR,,,,,,,,,,,,METAR,81.0
UBBZ 252030Z AUTO 30004KT 9999 // ///081/// 17/10 Q1015,UBBZ,2023-04-25T20:30:00Z,39.1,46.73,17.0,10.0,300,4,,6.21,29.970472,,,TRUE,,,,,,,,,,,,,,,,,,,,,,,,,,,,METAR,489.0
ETSL 252030Z 27003KT 9999 FEW020 SCT045 BKN080 05/03 Q1016 BLU FCST CNL,ETSL,2023-04-25T20:30:00Z,48.18,10.87,5.0,3.0,270,3,,6.21,30.0,,,,,,,,,,,FEW,2000,SCT,4500,BKN,8000,,,VFR,,,,,,,,,,,,SPECI,548.0
RKNW 252023Z 23004KT 4800 BR BKN020 BKN060 08/06 A2986 RMK CIG020,RKNW,2023-04-25T20:23:00Z,37.33,127.95,8.0,6.0,230,4,,2.98,29.861221,,,,,,,,,,BR,BKN,2000,BKN,6000,,,,,IFR,,,,,,,,,,,,SPECI,152.0
LGMK 252020Z 20008KT 9999 FEW018 17/12 Q1009,LGMK,2023-04-25T20:20:00Z,37.43,25.35,17.0,12.0,200,8,,6.21,29.793306,,,,,,,,,,,FEW,1800,,,,,,,VFR,,,,,,,,,,,,METAR,126.0
ETWM 252020Z AUTO 33003KT //// // ////// 04/00 Q1017 ///,ETWM,2023-04-25T20:20:00Z,52.72,7.33,4.0,0.0,330,3,,,30.029528,,,TRUE,,,,,,,,,,,,,,,,,,,,,,,,,,,,METAR,18.0
ETSN 252020Z 28005KT 9999 BKN045 07/04 Q1015 BLU,ETSN,2023-04-25T20:20:00Z,48.72,11.22,7.0,4.0,280,5,,6.21,29.970472,,,,,,,,,,,BKN,4500,,,,,,,VFR,,,,,,,,,,,,METAR,378.0
ETSI 252020Z AUTO 25005KT 7000 // ////// 07/04 Q1015 ///,ETSI,2023-04-25T20:20:00Z,48.72,11.53,7.0,4.0,250,5,,4.35,29.970472,,,TRUE,,,,,,,,,,,,,,,,,,,,,,,,,,,,METAR,366.0
ETSH 252020Z 28005KT 9999 SCT050 BKN080 06/M01 Q1013 BLU,ETSH,2023-04-25T20:20:00Z,51.77,13.17,6.0,-1.0,280,5,,6.21,29.911417,,,,,,,,,,,SCT,5000,BKN,8000,,,,,VFR,,,,,,,,,,,,METAR,79.0
ETSB 252020Z AUTO 32006KT //// // ////// 04/M01 Q1016 ///,ETSB,2023-04-25T20:20:00Z,50.17,7.07,4.0,-1.0,320,6,,,30.0,,,TRUE,,,,,,,,,,,,,,,,,,,,,,,,,,,,METAR,477.0
ETNW 252020Z 31008KT 9999 FEW035 SCT070 06/01 Q1015 BLU+,ETNW,2023-04-25T20:20:00Z,52.45,9.42,6.0,1.0,310,8,,6.21,29.970472,,,,,,,,,,,FEW,3500,SCT,7000,,,,,VFR,,,,,,,,,,,,METAR,57.0
ETNT 252020Z 27005KT 9999 FEW020 03/01 Q1015 BLACKBLU+,ETNT,2023-04-25T20:20:00Z,53.53,7.67,3.0,1.0,270,5,,6.21,29.970472,,,,,,,,,,,FEW,2000,,,,,,,VFR,,,,,,,,,,,,METAR,5.0
ETNS 252020Z AUTO 28009KT 9000 // ////// 04/01 Q1011 ///,ETNS,2023-04-25T20:20:00Z,54.47,9.52,4.0,1.0,280,9,,5.59,29.852362,,,TRUE,,,,,,,,,,,,,,,,,,,,,,,,,,,,METAR,22.0
ETNN 252020Z 29004KT 9999 SCT050 06/M00 Q1018 BLU+,ETNN,2023-04-25T20:20:00Z,50.82,6.67,6.0,0.0,290,4,,6.21,30.059055,,,,,,,,,,,SCT,5000,,,,,,,VFR,,,,,,,,,,,,METAR,108.0
ETNL 252020Z 26011KT 9999 FEW071 05/01 Q1010 BLU+BLU TEMPO WHT,ETNL,2023-04-25T20:20:00Z,53.92,12.27,5.0,1.0,260,11,,6.21,29.822834,,,,,,,,,,,FEW,7100,,,,,,,VFR,,,,,,,,,,,,METAR,40.0
ETNH 252020Z 28008KT 9999 VCSH FEW015CB 04/02 Q1012 BLU+,ETNH,2023-04-25T20:20:00Z,54.32,9.55,4.0,2.0,280,8,,6.21,29.88189,,,,,,,,,,VCSH,FEW,1500,,,,,,,VFR,,,,,,,,,,,,METAR,6.0
ETMN 252020Z 31013KT 9999 SCT020CB 05/01 Q1014 BLU+BLU+ TEMPO WHT,ETMN,2023-04-25T20:20:00Z,53.77,8.67,5.0,1.0,310,13,,6.21,29.940945,,,,,,,,,,,SCT,2000,,,,,,,VFR,,,,,,,,,,,,METAR,23.0
ETHS 252020Z 29007KT 9999 FEW030 SCT070 04/M00 Q1014 BLACKBLU+,ETHS,2023-04-25T20:20:00Z,52.92,10.18,4.0,0.0,290,7,,6.21,29.940945,,,,,,,,,,,FEW,3000,SCT,7000,,,,,VFR,,,,,,,,,,,,METAR,71.0
ETHN 252020Z 31003KT 9999 SCT040 SCT070 05/00 Q1015 BLU+,ETHN,2023-04-25T20:20:00Z,49.38,9.97,5.0,0.0,310,3,,6.21,29.970472,,,,,,,,,,,SCT,4000,SCT,7000,,,,,VFR,,,,,,,,,,,,METAR,466.0
ETHL 252020Z 04003KT 9999 FEW018 BKN035 06/03 Q1016 BLU BLU TEMPO GRN,ETHL,2023-04-25T20:20:00Z,48.22,9.92,6.0,3.0,40,3,,6.21,30.0,,,,,,,,,,,FEW,1800,BKN,3500,,,,,VFR,,,,,,,,,,,,METAR,536.0
ETHF 252020Z 29007KT 9999 BKN050 04/01 Q1016 BLU BLU,ETHF,2023-04-25T20:20:00Z,51.12,9.28,4.0,1.0,290,7,,6.21,30.0,,,,,,,,,,,BKN,5000,,,,,,,VFR,,,,,,,,,,,,METAR,171.0
ETHC 252020Z 26004KT 9999 FEW032 05/M00 Q1015 BLU+BLU+ TEMPO GRN,ETHC,2023-04-25T20:20:00Z,52.6,10.02,5.0,0.0,260,4,,6.21,29.970472,,,,,,,,,,,FEW,3200,,,,,,,VFR,,,,,,,,,,,,METAR,35.0
ETHB 252020Z 28006KT 9999 FEW035 04/00 Q1016 BLU+BLU+,ETHB,2023-04-25T20:20:00Z,52.27,9.07,4.0,0.0,280,6,,6.21,30.0,,,,,,,,,,,FEW,3500,,,,,,,VFR,,,,,,,,,,,,METAR,69.0
ETHA 252020Z AUTO 26006KT 9999 // ////// 03/02 Q1015 ///,ETHA,2023-04-25T20:20:00Z,47.83,10.87,3.0,2.0,260,6,,6.21,29.970472,,,TRUE,,,,,,,,,,,,,,,,,,,,,,,,,,,,METAR,738.0
ETGG 252020Z AUTO 31019KT 9999 // ////// 05/02 Q1011 ///,ETGG,2023-04-25T20:20:00Z,54.83,9.5,5.0,2.0,310,19,,6.21,29.852362,,,TRUE,,,,,,,,,,,,,,,,,,,,,,,,,,,,METAR,33.0
PFCL 252013Z AUTO 07013KT 2SM -SN BR OVC011 M01/M01 A2948 RMK AO2 P0000 FZRANO TSNO,PFCL,2023-04-25T20:13:00Z,58.83,-158.53,-1.0,-1.0,70,13,,2.0,29.480314,,,TRUE,TRUE,,,TRUE,TRUE,,-SN BR,OVC,1100,,,,,,,IFR,,,,,,0.005,,,,,,SPECI,23.0
RKNN 252012Z 25008KT 9999 FEW050 10/00 A2980,RKNN,2023-04-25T20:12:00Z,37.75,128.93,10.0,0.0,250,8,,6.21,29.799213,,,,,,,,,,,FEW,5000,,,,,,,VFR,,,,,,,,,,,,SPECI,11.0
