{"station_id": ["AGGA", "AGGC", "AGGH", "AGGK", "AGGL", "AGGM", "AGGN", "AGGR", "ANYN", "AYPY", "BGAA", "BGBW", "BGCO", "BGGH", "BGJN", "BGKK", "BGMQ", "BGPT", "BGQQ", "BGSF", "BGSS", "BGTL", "BGUK", "BGUQ", "BIAR", "BIEG", "BIKF", "BIRK", "BKPR", "CWSA", "CWWU", "CYAH", "CYAM", "CYAT", "CYAW", "CYAY", "CYBC", "CYBG", "CYBK", "CYBR", "CYBW", "CYBX", "CYCA", "CYCB", "CYCO", "CYCX", "CYCY", "CYDB", "CYDF", "CYDN", "CYDP", "CYED", "CYEG", "CYEK", "CYEN", "CYER", "CYEU", "CYEV", "CYFB", "CYFC", "CYFS", "CYGK", "CYGL", "CYGP", "CYGQ", "CYGR", "CYGT", "CYGV", "CYGW", "CYGX", "CYHD", "CYHK", "CYHM", "CYHU", "CYHY", "CYHZ", "CYIO", "CYIV", "CYJT", "CYKA", "CYKF", "CYKJ", "CYKL", "CYLD", "CYLL", "CYLW", "CYMA", "CYMH", "CYMJ", "CYMM", "CYMO", "CYMT", "CYMX", "CYNA", "CYNE", "CYOD", "CYOJ", "CYOO", "CYOW", "CYOY", "CYPA", "CYPE", "CYPG", "CYPH", "CYPL", "CYPQ", "CYPR", "CYPX", "CYPY", "CYQA", "CYQB", "CYQD", "CYQF", "CYQG", "CYQH", "CYQI", "CYQK", "CYQL", "CYQM", "CYQQ", "CYQR", "CYQT", "CYQU", "CYQV", "CYQW", "CYQX", "CYQY", "CYQZ", "CYRB", "CYRJ", "CYRL", "CYRQ", "CYRT", "CYSB", "CYSC", "CYSF", "CYSJ", "CYSM", "CYTE", "CYTH", "CYTL", "CYTR", "CYTS", "CYTZ", "CYUL", "CYUX", "CYUY", "CYVC", "CYVM", "CYVO", "CYVP", "CYVQ", "CYVR", "CYVV", "CYWA", "CYWG", "CYWK", "CYWL", "CYXC", "CYXE", "CYXH", "CYXJ", "CYXL", "CYXR", "CYXS", "CYXT", "CYXU", "CYXX", "CYXY", "CYYB", "CYYC", "CYYE", "CYYF", "CYYG", "CYYH", "CYYJ", "CYYL", "CYYN", "CYYQ", "CYYR", "CYYT", "CYYU", "CYYY", "CYYZ", "CYZE", "CYZF", "CYZH", "CYZP", "CYZR", "CYZS", "CYZT", "CYZV", "CYZX", "CZBF", "CZMD", "CZSJ", "CZUM", "CZVL", "DAAD", "DAAE", "DAAG", "DAAJ", "DAAP", "DAAS", "DAAT", "DAAV", "DAAY", "DABB", "DABC", "DABS", "DABT", "DAFH", "DAOB", "DAOF", "DAOI", "DAON", "DAOO", "DAOR", "DAOV", "DATM", "DAUA", "DAUB", "DAUG", "DAUH", "DAUI", "DAUK", "DAUL", "DAUO", "DAUT", "DAUU", "DAUZ", "DBBB", "DFFD", "DFOO", "DGAA", "DGLE", "DGSI", "DIAP", "DIBK", "DIYO", "DNAA", "DNAK", "DNBE", "DNGO", "DNIB", "DNIL", "DNJO", "DNKA", "DNKN", "DNKT", "DNMA", "DNMM", "DNSO", "DNSU", "DNYO", "DRRN", "DRZA", "DRZR", "DTKA", "DTMB", "DTNH", "DTTA", "DTTB", "DTTF", "DTTG", "DTTJ", "DTTR", "DTTX", "DTTZ", "DXNG", "DXXX", "EBAW", "EBBE", "EBBL", "EBBR", "EBCI", "EBCV", "EBDT", "EBFN", "EBFS", "EBLG", "EBOS", "EDAC", "EDAH", "EDDB", "EDDC", "EDDE", "EDDF", "EDDG", "EDDH", "EDDK", "EDDL", "EDDM", "EDDN", "EDDP", "EDDR", "EDDS", "EDDV", "EDDW", "EDFH", "EDFM", "EDGS", "EDHI", "EDHK", "EDHL", "EDJA", "EDLN", "EDLP", "EDLV", "EDLW", "EDMA", "EDMO", "EDNY", "EDQM", "EDSB", "EDTL", "EDTY", "EDVE", "EDVK", "EDXW", "EEEI", "EETN", "EFHA", "EFHK", "EFJY", "EFKK", "EFKS", "EFKT", "EFKU", "EFMA", "EFOU", "EFPO", "EFRO", "EFSA", "EFSI", "EFTP", "EFTU", "EFUT", "EFVA", "EGAA", "EGAC", "EGAE", "EGBB", "EGBJ", "EGCC", "EGCK", "EGCN", "EGDM", "EGDR", "EGDY", "EGEC", "EGEO", "EGFF", "EGGD", "EGGP", "EGGW", "EGHC", "EGHE", "EGHH", "EGHI", "EGHQ", "EGJA", "EGJB", "EGJJ", "EGKA", "EGKB", "EGKK", "EGLC", "EGLF", "EGLL", "EGMC", "EGMD", "EGNH", "EGNJ", "EGNM", "EGNO", "EGNR", "EGNS", "EGNT", "EGNV", "EGNX", "EGOS", "EGOV", "EGPA", "EGPB", "EGPC", "EGPD", "EGPE", "EGPF", "EGPH", "EGPI", "EGPK", "EGPL", "EGPN", "EGPO", "EGPU", "EGQL", "EGQS", "EGSC", "EGSH", "EGSS", "EGSY", "EGTC", "EGTE", "EGTK", "EGUL", "EGUN", "EGVA", "EGVN", "EGVO", "EGVP", "EGWU", "EGXC", "EGXE", "EGXP", "EGXW", "EGYD", "EGYM", "EGYP", "EHAM", "EHBK", "EHEH", "EHGG", "EHGR", "EHKD", "EHLE", "EHLW", "EHRD", "EHVK", "EHWO", "EICK", "EIDL", "EIDW", "EIKN", "EIKY", "EIME", "EINN", "EISG", "EIWF", "EKAH", "EKBI", "EKCH", "EKEB", "EKGC", "EKHD", "EKKA", "EKOD", "EKRK", "EKRN", "EKSB", "EKSP", "EKVD", "EKVG", "EKVJ", "EKYT", "ELLX", "ENAL", "ENAN", "ENAT", "ENBN", "ENBO", "ENBR", "ENBS", "ENBV", "ENCN", "ENDU", "ENEV", "ENFL", "ENGC", "ENGM", "ENHD", "ENHE", "ENHF", "ENHV", "ENKB", "ENKR", "ENLE", "ENML", "ENMS", "ENNA", "ENNE", "ENNO", "ENOA", "ENOL", "ENOV", "ENRA", "ENRM", "ENRO", "ENRY", "ENSB", "ENSD", "ENSH", "ENSK", "ENSO", "ENSR", "ENTC", "ENTO", "ENVA", "ENVD", "ENZV", "EPBY", "EPCE", "EPDA", "EPDE", "EPGD", "EPIR", "EPKK", "EPKS", "EPKT", "EPLB", "EPLK", "EPLL", "EPLY", "EPMB", "EPMI", "EPMM", "EPMO", "EPOK", "EPPO", "EPPR", "EPPW", "EPRA", "EPRZ", "EPSC", "EPSN", "EPSY", "EPTM", "EPWA", "EPWR", "EPZG", "ESCF", "ESCM", "ESDF", "ESGG", "ESGJ", "ESGP", "ESGT", "ESIA", "ESIB", "ESKN", "ESMK", "ESMQ", "ESMS", "ESMT", "ESMX", "ESNG", "ESNK", "ESNN", "ESNO", "ESNQ", "ESNS", "ESNU", "ESNX", "ESNZ", "ESOE", "ESOK", "ESOW", "ESPA", "ESPE", "ESSA", "ESSB", "ESSD", "ESSL", "ESSP", "ESSV", "ESTA", "ESTL", "ETAD", "ETAR", "ETEB", "ETHA", "ETHB", "ETHC", "ETHF", "ETHL", "ETHN", "ETHS", "ETIC", "ETIK", "ETMN", "ETND", "ETNG", "ETNH", "ETNL", "ETNN", "ETNS", "ETNW", "ETOU", "ETSH", "ETSI", "ETSN", "EVGA", "EVLA", "EVRA", "EYKA", "EYPA", "EYSA", "EYVI", "FABL", "FACT", "FAEL", "FAGG", "FAHS", "FAKM", "FAKN", "FALA", "FALE", "FAMM", "FAOR", "FAPE", "FAPM", "FAPP", "FARB", "FAUP", "FAUT", "FAWB", "FAWK", "FBKE", "FBMN", "FBPM", "FBSK", "FCBB", "FCPP", "FDMS", "FDSK", "FEFF", "FGBT", "FGSL", "FHAW", "FIMP", "FIMR", "FJDG", "FKKD", "FLCP", "FLHN", "FLKK", "FLKS", "FLMA", "FLMF", "FLMG", "FLSK", "FLSW", "FMCH", "FMCZ", "FMEE", "FMEP", "FMMI", "FMMS", "FMMT", "FMNA", "FMNM", "FMNN", "FMSD", "FMST", "FNBG", "FNCA", "FNCT", "FNDU", "FNGI", "FNHU", "FNKU", "FNLU", "FNMA", "FNME", "FNMO", "FNSA", "FNSO", "FNUB", "FNUE", "FOOG", "FOOL", "FPST", "FQBR", "FQCH", "FQIN", "FQLC", "FQMA", "FQNC", "FQNP", "FQPB", "FQQL", "FQTT", "FQVL", "FQXA", "FSIA", "FTTJ", "FVJN", "FVRG", "FWCL", "FWKI", "FYGF", "FYKM", "FYLZ", "FYOA", "FYRU", "FYWB", "FYWE", "FYWH", "FZAA", "FZIC", "FZNA", "FZQA", "GABS", "GAGO", "GBYD", "GCFV", "GCGM", "GCHI", "GCLA", "GCLP", "GCRR", "GCTS", "GCXO", "GECE", "GEML", "GFLL", "GGOV", "GMAD", "GMAG", "GMFF", "GMFK", "GMFM", "GMFO", "GMME", "GMMH", "GMMI", "GMML", "GMMN", "GMMW", "GMMX", "GMMZ", "GMTA", "GMTT", "GOBD", "GOGS", "GOOY", "GOSS", "GQNO", "GQPP", "GUCY", "GVAC", "GVBA", "GVNP", "GVSV", "HAAB", "HADR", "HBBA", "HCMM", "HDAM", "HEAL", "HEAR", "HEAT", "HEAX", "HEBA", "HEBL", "HECA", "HEGN", "HELX", "HEMA", "HEMM", "HEOW", "HEPS", "HESC", "HESG", "HESH", "HESN", "HETB", "HETR", "HKEL", "HKJK", "HKKI", "HKML", "HKMO", "HKNW", "HLGD", "HLGT", "HLKF", "HLLB", "HLLM", "HLLQ", "HLLS", "HLMS", "HLON", "HLTD", "HLTQ", "HLUB", "HRYR", "HRZA", "HSKA", "HSMK", "HSOB", "HSPN", "HSSJ", "HSSK", "HTAR", "HTDA", "HTDO", "HTKA", "HTKJ", "HTMW", "HTTB", "HTZA", "HUEN", "HUSO", "KABE", "KABI", "KABQ", "KABR", "KABY", "KACK", "KACT", "KACV", "KACY", "KADF", "KADW", "KAEG", "KAEX", "KAFF", "KAFW", "KAGC", "KAGS", "KAHN", "KAIA", "KALB", "KALI", "KALO", "KALS", "KALW", "KAMA", "KANB", "KAND", "KAOO", "KAPA", "KAPC", "KAPF", "KAPN", "KARA", "KART", "KASD", "KASE", "KASN", "KAST", "KATL", "KATW", "KATY", "KAUG", "KAUS", "KAUW", "KAVL", "KAVP", "KAXN", "KAZO", "KBAB", "KBAD", "KBAF", "KBAM", "KBBD", "KBBG", "KBCB", "KBCE", "KBDL", "KBDN", "KBDR", "KBED", "KBFD", "KBFF", "KBFI", "KBFL", "KBFM", "KBGM", "KBGR", "KBHB", "KBHM", "KBIF", "KBIH", "KBIL", "KBIS", "KBIX", "KBJC", "KBJI", "KBKE", "KBKF", "KBKW", "KBLF", "KBLH", "KBLI", "KBLV", "KBMG", "KBMI", "KBNA", "KBNO", "KBOI", "KBOS", "KBPI", "KBPK", "KBPT", "KBRD", "KBRL", "KBRO", "KBTL", "KBTM", "KBTR", "KBTV", "KBUF", "KBUR", "KBVI", "KBVO", "KBWG", "KBWI", "KBYI", "KBZN", "KCAE", "KCAK", "KCAR", "KCBM", "KCDC", "KCDR", "KCDS", "KCEC", "KCEF", "KCGI", "KCHA", "KCHO", "KCHS", "KCID", "KCIU", "KCKB", "KCKV", "KCLE", "KCLL", "KCLM", "KCLT", "KCMA", "KCMH", "KCMI", "KCMX", "KCNM", "KCNU", "KCNY", "KCOD", "KCOE", "KCOF", "KCON", "KCOS", "KCOT", "KCOU", "KCPR", "KCPS", "KCRE", "KCRG", "KCRP", "KCRQ", "KCRW", "KCSG", "KCSM", "KCSV", "KCTB", "KCUB", "KCVG", "KCVS", "KCWA", "KCXO", "KCXP", "KCYS", "KDAA", "KDAB", "KDAG", "KDAL", "KDAN", "KDAY", "KDBQ", "KDCA", "KDDC", "KDEC", "KDEN", "KDET", "KDFW", "KDHN", "KDHT", "KDIJ", "KDIK", "KDLF", "KDLH", "KDLS", "KDMA", "KDMN", "KDNL", "KDOV", "KDPA", "KDRO", "KDRT", "KDSM", "KDTW", "KDUJ", "KDVL", "KDVT", "KDYS", "KEAR", "KEAT", "KEAU", "KECG", "KECP", "KEDW", "KEED", "KEET", "KEFD", "KEFK", "KEGE", "KEGI", "KEKN", "KEKO", "KEKS", "KELD", "KELM", "KELP", "KELY", "KEND", "KENV", "KENW", "KERI", "KEUG", "KEUL", "KEVV", "KEVW", "KEWN", "KEWR", "KEYW", "KFAF", "KFAR", "KFAT", "KFAY", "KFBG", "KFCS", "KFDY", "KFFO", "KFHU", "KFKL", "KFLG", "KFLL", "KFLO", "KFMH", "KFMN", "KFMY", "KFNT", "KFOD", "KFOE", "KFPR", "KFRI", "KFSD", "KFSM", "KFST", "KFTK", "KFTW", "KFTY", "KFVE", "KFWA", "KFXE", "KFYV", "KGBD", "KGCC", "KGCK", "KGCN", "KGDV", "KGEG", "KGFA", "KGFK", "KGFL", "KGGG", "KGGW", "KGJT", "KGKY", "KGLD", "KGLH", "KGLS", "KGMU", "KGNV", "KGON", "KGPI", "KGPT", "KGRB", "KGRF", "KGRI", "KGRK", "KGRR", "KGSB", "KGSO", "KGSP", "KGTB", "KGTF", "KGTR", "KGUC", "KGUP", "KGUR", "KGUS", "KGUY", "KGWO", "KGYY", "KHBG", "KHCR", "KHDC", "KHDN", "KHIB", "KHIE", "KHIF", "KHIO", "KHKS", "KHKY", "KHLG", "KHLN", "KHMN", "KHNB", "KHND", "KHOB", "KHON", "KHOP", "KHOT", "KHOU", "KHPN", "KHQM", "KHRL", "KHRO", "KHRT", "KHST", "KHSV", "KHTS", "KHUA", "KHUF", "KHUL", "KHUM", "KHUT", "KHVR", "KHYA", "KHYR", "KHYS", "KIAB", "KIAD", "KIAG", "KIAH", "KICT", "KIDA", "KIFP", "KILG", "KILM", "KILN", "KIND", "KINK", "KINL", "KINS", "KINT", "KINW", "KIPL", "KIPT", "KISM", "KISO", "KISP", "KITH", "KIWA", "KIWD", "KIXD", "KJAC", "KJAN", "KJAX", "KJBR", "KJCT", "KJEF", "KJER", "KJFK", "KJHW", "KJKA", "KJKL", "KJLN", "KJMS", "KJST", "KJVL", "KJXN", "KJZI", "KLAF", "KLAL", "KLAN", "KLAR", "KLAS", "KLAW", "KLAX", "KLBB", "KLBE", "KLBF", "KLBL", "KLBT", "KLBX", "KLCH", "KLCK", "KLEB", "KLEE", "KLEX", "KLFI", "KLFK", "KLFT", "KLGA", "KLGB", "KLGU", "KLIT", "KLLQ", "KLMT", "KLND", "KLNK", "KLNS", "KLOZ", "KLRD", "KLRF", "KLRU", "KLSE", "KLSF", "KLSV", "KLTS", "KLUF", "KLUK", "KLVK", "KLVM", "KLVS", "KLWB", "KLWS", "KLWT", "KLYH", "KMAF", "KMBG", "KMBL", "KMBS", "KMCB", "KMCC", "KMCE", "KMCF", "KMCI", "KMCK", "KMCN", "KMCO", "KMCW", "KMDT", "KMDW", "KMEI", "KMEM", "KMER", "KMEV", "KMFD", "KMFE", "KMFR", "KMGE", "KMGM", "KMGW", "KMHK", "KMHR", "KMHT", "KMIA", "KMIB", "KMIV", "KMKC", "KMKE", "KMKG", "KMKL", "KMKT", "KMLB", "KMLC", "KMLI", "KMLS", "KMLU", "KMMH", "KMMT", "KMOB", "KMOD", "KMOT", "KMPV", "KMQY", "KMRB", "KMRY", "KMSL", "KMSN", "KMSO", "KMSP", "KMSS", "KMSY", "KMTC", "KMTH", "KMTJ", "KMTN", "KMTW", "KMUI", "KMUO", "KMVN", "KMWH", "KMXF", "KMYL", "KMYR", "KNBC", "KNBG", "KNCA", "KNEW", "KNFG", "KNFL", "KNFW", "KNGP", "KNGU", "KNHK", "KNID", "KNIP", "KNJK", "KNKT", "KNKX", "KNLC", "KNMM", "KNPA", "KNQI", "KNQX", "KNRB", "KNSE", "KNTD", "KNTU", "KNUC", "KNUW", "KNXP", "KNYG", "KNYL", "KNZY", "KOAJ", "KOAK", "KOFF", "KOFK", "KOGB", "KOGD", "KOKC", "KOLF", "KOLM", "KOLS", "KOMA", "KONP", "KONT", "KOPF", "KORD", "KORF", "KORH", "KOTH", "KOTM", "KOUN", "KOWB", "KOXR", "KOZR", "KPAE", "KPAH", "KPAM", "KPBF", "KPBG", "KPBI", "KPDK", "KPDT", "KPDX", "KPEQ", "KPGA", "KPGD", "KPGV", "KPHF", "KPHL", "KPHX", "KPIA", "KPIB", "KPIE", "KPIH", "KPIR", "KPIT", "KPKB", "KPLN", "KPMD", "KPNA", "KPNC", "KPNE", "KPNS", "KPOB", "KPOE", "KPOU", "KPQI", "KPRB", "KPRC", "KPSC", "KPSF", "KPSM", "KPSP", "KPTK", "KPUB", "KPUW", "KPVD", "KPVU", "KPVW", "KPWM", "KPWT", "KRAP", "KRBG", "KRBL", "KRCA", "KRDD", "KRDG", "KRDM", "KRDR", "KRDU", "KRFD", "KRHI", "KRIC", "KRIL", "KRIV", "KRIW", "KRKD", "KRKS", "KRME", "KRND", "KRNH", "KRNO", "KROA", "KROC", "KROG", "KROW", "KRSL", "KRST", "KRSW", "KRUT", "KRVS", "KRWF", "KRWI", "KRWL", "KRYY", "KSAC", "KSAF", "KSAN", "KSAT", "KSAV", "KSAW", "KSBA", "KSBD", "KSBM", "KSBN", "KSBP", "KSBY", "KSCK", "KSDF", "KSDL", "KSDY", "KSEA", "KSEZ", "KSFB", "KSFF", "KSFO", "KSGF", "KSGJ", "KSGR", "KSGU", "KSHR", "KSHV", "KSJC", "KSJS", "KSJT", "KSKA", "KSKF", "KSLC", "KSLE", "KSLI", "KSLK", "KSLN", "KSME", "KSMF", "KSMN", "KSMO", "KSMX", "KSNA", "KSNS", "KSNY", "KSOA", "KSPI", "KSPS", "KSRQ", "KSSC", "KSSF", "KSSI", "KSTC", "KSTJ", "KSTL", "KSTS", "KSUA", "KSUN", "KSUS", "KSUU", "KSUX", "KSVN", "KSWF", "KSWO", "KSYM", "KSYR", "KSZL", "KTBN", "KTCC", "KTCL", "KTCM", "KTCS", "KTEB", "KTEX", "KTIK", "KTIX", "KTLH", "KTMB", "KTOI", "KTOL", "KTOP", "KTPA", "KTPH", "KTRI", "KTRK", "KTRM", "KTTD", "KTTN", "KTUL", "KTUP", "KTUS", "KTVC", "KTVF", "KTVL", "KTWF", "KTXK", "KTYR", "KTYS", "KUAO", "KUES", "KUIN", "KUKI", "KUNV", "KUTS", "KVAD", "KVBG", "KVCT", "KVEL", "KVGT", "KVIS", "KVLD", "KVNY", "KVOK", "KVPS", "KVQQ", "KVRB", "KVTN", "KWJF", "KWMC", "KWRB", "KWRI", "KWRL", "KWWR", "KWYS", "KXNA", "KXWA", "KYIP", "KYKM", "KYNG", "KZZV", "LATI", "LBBG", "LBGO", "LBPD", "LBSF", "LBWN", "LCEN", "LCLK", "LCPH", "LCRA", "LDDU", "LDOS", "LDPL", "LDRI", "LDSP", "LDZA", "LDZD", "LEAB", "LEAG", "LEAL", "LEAM", "LEAO", "LEAS", "LEBA", "LEBB", "LEBG", "LEBL", "LEBR", "LEBZ", "LECO", "LECV", "LEEC", "LEGA", "LEGE", "LEGR", "LEGT", "LEHC", "LEIB", "LEJR", "LELC", "LELL", "LELN", "LELO", "LEMD", "LEMG", "LEMH", "LEMO", "LEPA", "LEPP", "LERI", "LERL", "LERS", "LERT", "LESA", "LESO", "LEST", "LESU", "LETO", "LEVC", "LEVD", "LEVS", "LEVT", "LEVX", "LEXJ", "LEZG", "LEZL", "LFAQ", "LFAT", "LFBA", "LFBC", "LFBD", "LFBE", "LFBG", "LFBH", "LFBI", "LFBL", "LFBM", "LFBO", "LFBP", "LFBT", "LFBU", "LFBZ", "LFCK", "LFCR", "LFGJ", "LFJL", "LFKB", "LFKC", "LFKF", "LFKJ", "LFKS", "LFLB", "LFLC", "LFLL", "LFLN", "LFLP", "LFLS", "LFLW", "LFLX", "LFLY", "LFMD", "LFMI", "LFMK", "LFML", "LFMN", "LFMO", "LFMP", "LFMT", "LFMU", "LFMV", "LFMY", "LFOA", "LFOB", "LFOE", "LFOH", "LFOJ", "LFOK", "LFOP", "LFOT", "LFPB", "LFPG", "LFPN", "LFPO", "LFPV", "LFQQ", "LFRB", "LFRC", "LFRD", "LFRG", "LFRH", "LFRI", "LFRJ", "LFRK", "LFRL", "LFRM", "LFRN", "LFRQ", "LFRS", "LFRZ", "LFSB", "LFSI", "LFSL", "LFSO", "LFST", "LFSX", "LFTH", "LFTW", "LFVP", "LFYR", "LGAD", "LGAL", "LGAV", "LGBL", "LGEL", "LGHI", "LGIO", "LGIR", "LGKC", "LGKF", "LGKL", "LGKO", "LGKP", "LGKR", "LGKV", "LGLM", "LGLR", "LGMK", "LGMT", "LGPZ", "LGRP", "LGRX", "LGSA", "LGSK", "LGSM", "LGSR", "LGST", "LGSY", "LGTG", "LGTL", "LGTS", "LGZA", "LHBP", "LHDC", "LHKE", "LHPA", "LHPP", "LHPR", "LHSM", "LHSN", "LIBA", "LIBC", "LIBD", "LIBF", "LIBG", "LIBN", "LIBP", "LIBR", "LIBV", "LICA", "LICB", "LICC", "LICD", "LICG", "LICJ", "LICR", "LICT", "LICZ", "LIEA", "LIED", "LIEE", "LIEO", "LIMC", "LIME", "LIMF", "LIMG", "LIMJ", "LIML", "LIMN", "LIMP", "LIMW", "LIMZ", "LIPA", "LIPB", "LIPC", "LIPE", "LIPH", "LIPI", "LIPK", "LIPL", "LIPO", "LIPQ", "LIPR", "LIPS", "LIPX", "LIPY", "LIPZ", "LIRA", "LIRE", "LIRF", "LIRG", "LIRH", "LIRL", "LIRM", "LIRN", "LIRP", "LIRQ", "LIRS", "LIRU", "LIRV", "LIRZ", "LJCE", "LJLJ", "LJMB", "LJPZ", "LKKB", "LKKV", "LKMT", "LKNA", "LKPD", "LKPR", "LKTB", "LLBG", "LLER", "LLHA", "LLHZ", "LLIB", "LMML", "LOAN", "LOAV", "LOWG", "LOWI", "LOWK", "LOWL", "LOWS", "LOWW", "LOXA", "LOXN", "LOXT", "LOXZ", "LPAR", "LPAZ", "LPBJ", "LPCS", "LPFR", "LPHR", "LPLA", "LPMA", "LPMR", "LPMT", "LPOV", "LPPD", "LPPR", "LPPS", "LPPT", "LPST", "LQBK", "LQMO", "LQSA", "LQTZ", "LRAR", "LRBC", "LRBM", "LRBO", "LRBS", "LRCK", "LRCL", "LRCT", "LRCV", "LRFT", "LRIA", "LROD", "LROP", "LRSB", "LRSM", "LRSV", "LRTC", "LRTM", "LRTR", "LRTZ", "LSGC", "LSGG", "LSGS", "LSZA", "LSZB", "LSZC", "LSZG", "LSZH", "LSZL", "LSZR", "LSZS", "LTAB", "LTAC", "LTAD", "LTAE", "LTAF", "LTAG", "LTAH", "LTAI", "LTAJ", "LTAL", "LTAN", "LTAO", "LTAP", "LTAR", "LTAS", "LTAT", "LTAU", "LTAV", "LTAW", "LTAY", "LTAZ", "LTBA", "LTBD", "LTBF", "LTBG", "LTBH", "LTBI", "LTBJ", "LTBK", "LTBL", "LTBN", "LTBO", "LTBP", "LTBQ", "LTBR", "LTBS", "LTBT", "LTBU", "LTBV", "LTBX", "LTBY", "LTBZ", "LTCA", "LTCB", "LTCC", "LTCD", "LTCE", "LTCF", "LTCG", "LTCI", "LTCJ", "LTCK", "LTCL", "LTCM", "LTCN", "LTCO", "LTCP", "LTCR", "LTCS", "LTCT", "LTCU", "LTCV", "LTCW", "LTDA", "LTFA", "LTFB", "LTFC", "LTFD", "LTFE", "LTFG", "LTFH", "LTFJ", "LTFK", "LTFM", "LTFO", "LUKK", "LWOH", "LWSK", "LXGB", "LYBE", "LYBT", "LYKV", "LYNI", "LYPG", "LYTV", "LYVR", "LZIB", "LZKZ", "LZMC", "LZPP", "LZPW", "LZSL", "LZTT", "LZZI", "MBGT", "MBPV", "MDBH", "MDCY", "MDJB", "MDLR", "MDPC", "MDPP", "MDSD", "MDST", "MGGT", "MGMM", "MGPB", "MGSJ", "MHLC", "MHLM", "MHPR", "MHRO", "MHTG", "MKJP", "MKJS", "MMAA", "MMAN", "MMAS", "MMBT", "MMCB", "MMCE", "MMCL", "MMCM", "MMCN", "MMCP", "MMCS", "MMCU", "MMCV", "MMCZ", "MMDO", "MMEP", "MMGL", "MMGM", "MMHO", "MMIA", "MMIO", "MMLM", "MMLO", "MMLP", "MMLT", "MMMA", "MMMD", "MMML", "MMMM", "MMMT", "MMMV", "MMMX", "MMMY", "MMMZ", "MMNL", "MMOX", "MMPA", "MMPB", "MMPG", "MMPN", "MMPQ", "MMPR", "MMPS", "MMQT", "MMRX", "MMSD", "MMSL", "MMSM", "MMSP", "MMTC", "MMTG", "MMTJ", "MMTM", "MMTO", "MMTP", "MMUN", "MMVA", "MMVR", "MMZC", "MMZH", "MMZO", "MNBL", "MNMG", "MNPC", "MPDA", "MPMG", "MPPA", "MPSM", "MPTO", "MRLB", "MRLM", "MROC", "MRPV", "MSLP", "MSSS", "MTCH", "MTPP", "MUCC", "MUCF", "MUCL", "MUCM", "MUCU", "MUGM", "MUHA", "MUHG", "MUSC", "MUVR", "MWCB", "MWCR", "MYGF", "MYNN", "MZBZ", "NCRG", "NFFN", "NFNA", "NFTF", "NFTV", "NGFU", "NGTA", "NIUE", "NLWF", "NLWW", "NSFA", "NSTU", "NTAA", "NVSC", "NVSG", "NVSL", "NVSP", "NVSS", "NVVA", "NVVV", "NVVW", "NWWD", "NWWE", "NWWK", "NWWL", "NWWM", "NWWR", "NWWU", "NWWW", "NZAA", "NZCH", "NZFX", "NZQN", "NZWN", "OBBI", "OEAB", "OEAH", "OEAO", "OEBA", "OEBH", "OEDF", "OEDM", "OEDR", "OEGN", "OEGS", "OEGT", "OEHL", "OEJN", "OEKJ", "OEKM", "OEMA", "OENG", "OEPA", "OEPS", "OERF", "OERK", "OERR", "OESH", "OESK", "OETB", "OETF", "OETR", "OEWD", "OEWJ", "OEYN", "OIAA", "OIAW", "OIBB", "OIBK", "OIBP", "OICC", "OICI", "OIFM", "OIGG", "OIIE", "OIII", "OIIP", "OIKB", "OIKK", "OIMM", "OING", "OINZ", "OISL", "OISS", "OITL", "OITR", "OITT", "OIYY", "OIZH", "OJAI", "OJAM", "OJAQ", "OKAS", "OKBK", "OLBA", "OMAA", "OMAD", "OMAL", "OMDB", "OMDW", "OMFJ", "OMRK", "OMSJ", "OODQ", "OOMS", "OOSA", "OOSH", "OPBW", "OPDG", "OPFA", "OPGD", "OPIS", "OPKC", "OPLA", "OPMT", "OPNH", "OPPS", "OPRK", "OPSK", "OPST", "ORBI", "ORER", "ORMM", "ORNI", "ORSU", "OSAP", "OSDI", "OSLK", "OTBD", "OTBH", "OTHH", "PAAQ", "PABE", "PABI", "PABR", "PABT", "PACD", "PACV", "PADL", "PADQ", "PADU", "PAED", "PAEI", "PAEN", "PAFA", "PAFB", "PAGA", "PAGK", "PAGS", "PAGY", "PAHN", "PAHO", "PAIL", "PAJN", "PAKN", "PAKT", "PAKW", "PAMC", "PANC", "PAOM", "PAOR", "PAOT", "PAPG", "PAQT", "PASC", "PASD", "PASI", "PASN", "PASY", "PATA", "PATK", "PAUN", "PAVD", "PAWG", "PAYA", "PGRO", "PGSN", "PGUA", "PGUM", "PGWT", "PHHI", "PHJH", "PHJR", "PHKO", "PHLI", "PHMK", "PHNG", "PHNL", "PHNY", "PHOG", "PHTO", "PKMJ", "PKWA", "PLCH", "PMDY", "PTKK", "PTPN", "PTRO", "PTSA", "PTYA", "PWAK", "RCFN", "RCKH", "RCMQ", "RCNN", "RCSS", "RCTP", "RJAA", "RJAH", "RJBB", "RJCB", "RJCC", "RJCH", "RJCK", "RJCM", "RJEC", "RJFF", "RJFK", "RJFM", "RJFO", "RJFR", "RJFS", "RJFT", "RJFU", "RJGG", "RJNK", "RJNS", "RJNT", "RJOA", "RJOB", "RJOC", "RJOH", "RJOI", "RJOK", "RJOM", "RJOO", "RJOT", "RJSA", "RJSF", "RJSI", "RJSK", "RJSN", "RJSS", "RJTT", "RJTY", "RKJB", "RKJK", "RKNY", "RKPC", "RKPK", "RKSG", "RKSI", "RKSM", "RKSO", "RKSS", "RKTN", "RKTU", "ROAH", "RODN", "ROIG", "ROTM", "RPLB", "RPLC", "RPLI", "RPLL", "RPMD", "RPMR", "RPMZ", "RPVD", "RPVM", "RPVP", "SAAR", "SABE", "SACO", "SADF", "SAEZ", "SAME", "SANR", "SANT", "SARE", "SARF", "SARI", "SARP", "SASA", "SASJ", "SAVC", "SAWE", "SAWG", "SAWH", "SAZM", "SAZN", "SAZS", "SBAC", "SBAF", "SBAN", "SBAR", "SBAT", "SBBE", "SBBG", "SBBI", "SBBR", "SBBU", "SBBV", "SBBW", "SBCB", "SBCF", "SBCG", "SBCJ", "SBCO", "SBCP", "SBCR", "SBCT", "SBCY", "SBCZ", "SBDN", "SBEG", "SBFI", "SBFL", "SBFN", "SBFZ", "SBGL", "SBGO", "SBGR", "SBGW", "SBIH", "SBIL", "SBIZ", "SBJE", "SBJP", "SBJV", "SBKG", "SBKP", "SBLO", "SBMA", "SBME", "SBMN", "SBMO", "SBMQ", "SBNF", "SBNT", "SBOI", "SBPA", "SBPB", "SBPJ", "SBPK", "SBPL", "SBPP", "SBPS", "SBPV", "SBRB", "SBRF", "SBRJ", "SBRP", "SBSC", "SBSG", "SBSJ", "SBSL", "SBSM", "SBSN", "SBSP", "SBSV", "SBTD", "SBTE", "SBTF", "SBTT", "SBUG", "SBUL", "SBUR", "SBVH", "SBVT", "SBYS", "SCAR", "SCAT", "SCBA", "SCCF", "SCCI", "SCCY", "SCDA", "SCEL", "SCFA", "SCIE", "SCIP", "SCJO", "SCNT", "SCQP", "SCSE", "SCTE", "SCVM", "SEGU", "SELT", "SEMT", "SEQM", "SGAS", "SGCO", "SGEN", "SGES", "SKAR", "SKBG", "SKBO", "SKBQ", "SKCC", "SKCG", "SKCL", "SKLT", "SKPE", "SKRG", "SKSM", "SKSP", "SLAL", "SLCB", "SLCO", "SLET", "SLLP", "SLTJ", "SLTR", "SLVR", "SMJP", "SMZO", "SOCA", "SPCL", "SPEO", "SPGM", "SPHI", "SPHO", "SPHY", "SPJC", "SPJI", "SPJL", "SPJR", "SPLO", "SPME", "SPMS", "SPNC", "SPPY", "SPQT", "SPQU", "SPRU", "SPSO", "SPST", "SPTN", "SPTU", "SPYL", "SPZO", "SUAA", "SUCA", "SUDU", "SULS", "SUMU", "SURV", "SUSO", "SVBC", "SVJC", "SVMC", "SVMG", "SVMI", "SVPR", "SVSA", "SYCJ", "SYEB", "SYEC", "SYKA", "SYKM", "SYLT", "SYMB", "TAPA", "TBPB", "TDPD", "TFFF", "TFFR", "TGPY", "TIST", "TISX", "TJBQ", "TJPS", "TJSJ", "TKPK", "TKPN", "TLPC", "TLPL", "TNCA", "TNCB", "TNCC", "TNCM", "TQPF", "TRPG", "TTCP", "TTPP", "TUPJ", "TVSA", "TXKF", "UAAA", "UAAH", "UAAT", "UACC", "UACK", "UACP", "UADD", "UAII", "UAIT", "UAKD", "UAKK", "UAOO", "UARR", "UASK", "UASP", "UASS", "UATE", "UATG", "UATT", "UAUU", "UBBB", "UBBF", "UBBG", "UBBL", "UBBN", "UBBQ", "UBBY", "UBEE", "UCFL", "UCFM", "UCFO", "UDSG", "UDYZ", "UEEE", "UERP", "UERR", "UGAM", "UGKO", "UGMS", "UGSB", "UGTB", "UHBB", "UHHH", "UHMA", "UHMM", "UHPP", "UHSS", "UHWW", "UIAA", "UIBB", "UIII", "UIUU", "ULAA", "ULLI", "ULMM", "ULOO", "ULPB", "ULWC", "UMBB", "UMGG", "UMII", "UMIO", "UMKK", "UMMG", "UMMS", "UMOO", "UNAA", "UNBB", "UNEE", "UNKL", "UNNT", "UNOO", "UNTT", "UNWW", "UOOO", "URKA", "URKK", "URMG", "URML", "URMM", "URMN", "URMO", "URMT", "URRP", "URSS", "URWA", "URWI", "URWW", "USCC", "USCM", "USDA", "USHH", "USNN", "USPP", "USRR", "USSS", "USTR", "UTAA", "UTAK", "UTAM", "UTAT", "UTAV", "UTDD", "UTDK", "UTDL", "UTDT", "UTFF", "UTFN", "UTNN", "UTNU", "UTSA", "UTSB", "UTSK", "UTSS", "UTST", "UTTT", "UUBC", "UUBP", "UUBW", "UUDD", "UUDL", "UUEE", "UUMO", "UUOB", "UUOK", "UUOL", "UUOO", "UUWW", "UUYY", "UWGG", "UWKD", "UWKE", "UWKS", "UWLL", "UWLW", "UWOO", "UWOR", "UWPS", "UWSG", "UWUU", "UWWW", "VAAH", "VAAU", "VABB", "VABJ", "VABO", "VABP", "VABV", "VADU", "VAID", "VAJB", "VAJL", "VAJM", "VAKE", "VAKP", "VANP", "VAOZ", "VAPO", "VAPR", "VARK", "VASD", "VASL", "VASU", "VAUD", "VCBI", "VCRI", "VDPP", "VDSR", "VDSV", "VEAB", "VEAN", "VEAT", "VEBD", "VEBI", "VEBN", "VEBS", "VEBU", "VECC", "VECO", "VECX", "VEDG", "VEDZ", "VEGK", "VEGT", "VEGY", "VEIM", "VEJH", "VEJR", "VEJS", "VEJT", "VEKO", "VELP", "VELR", "VEMN", "VEMR", "VEPT", "VEPY", "VERC", "VERP", "VERU", "VETJ", "VETZ", "VEZO", "VGEG", "VGHS", "VHHH", "VIAG", "VIAR", "VIBR", "VIBT", "VIBY", "VICG", "VIDN", "VIDP", "VIGG", "VIGR", "VIJO", "VIJP", "VIJU", "VIKG", "VILH", "VILK", "VISM", "VISR", "VLLB", "VLLN", "VLPS", "VLSK", "VLVT", "VMMC", "VNKT", "VOAR", "VOAT", "VOBG", "VOBL", "VOBM", "VOBZ", "VOCB", "VOCI", "VOCL", "VOCP", "VOGB", "VOGO", "VOHB", "VOHS", "VOHY", "VOJV", "VOKN", "VOKU", "VOLT", "VOMD", "VOML", "VOMM", "VOMY", "VOND", "VOPB", "VORY", "VOSR", "VOTP", "VOTR", "VOTV", "VOVZ", "VRMG", "VRMH", "VRMM", "VTBD", "VTBO", "VTBS", "VTBU", "VTCC", "VTCH", "VTCL", "VTCN", "VTCP", "VTCT", "VTPB", "VTPH", "VTPM", "VTPO", "VTPP", "VTSB", "VTSC", "VTSE", "VTSF", "VTSG", "VTSM", "VTSP", "VTSR", "VTSS", "VTST", "VTUD", "VTUI", "VTUK", "VTUL", "VTUO", "VTUQ", "VTUU", "VTUV", "VTUW", "VVCI", "VVCR", "VVCT", "VVDN", "VVNB", "VVPB", "VVPQ", "VVTS", "VYMD", "VYNT", "VYYY", "WAAA", "WABB", "WADD", "WADL", "WALL", "WALS", "WAMM", "WAOO", "WAPP", "WAQA", "WAQD", "WAQJ", "WAQQ", "WAQT", "WARR", "WATT", "WBGB", "WBGG", "WBGR", "WBGS", "WBKK", "WBKL", "WBKS", "WBKW", "WBSB", "WIDD", "WIEE", "WIHH", "WIII", "WIMM", "WIPB", "WIPP", "WIPY", "WITT", "WMAP", "WMBT", "WMKA", "WMKB", "WMKC", "WMKE", "WMKI", "WMKJ", "WMKK", "WMKL", "WMKM", "WMKN", "WMKP", "WMPA", "WMSA", "WPDL", "WSAP", "WSSL", "WSSS", "YAMB", "YBAS", "YBBN", "YBCG", "YBCS", "YBHM", "YBLN", "YBMA", "YBRK", "YBRM", "YBTL", "YBWW", "YCFS", "YCIN", "YFRT", "YGEL", "YGLA", "YHID", "YLHI", "YMAV", "YMHB", "YMLT", "YMML", "YPAD", "YPCC", "YPDN", "YPEA", "YPGV", "YPJT", "YPKG", "YPKU", "YPLM", "YPPD", "YPPH", "YPTN", "YPWR", "YPXM", "YSCB", "YSDU", "YSNF", "YSRI", "YSSY", "YSTW", "YWLM", "ZBAA", "ZBAD", "ZBHH", "ZBSJ", "ZBTJ", "ZBYN", "ZGGG", "ZGHA", "ZGKL", "ZGNN", "ZGOW", "ZGSZ", "ZHCC", "ZHHH", "ZJHK", "ZJSY", "ZKPY", "ZKWS", "ZLLL", "ZLXY", "ZMCK", "ZMUB", "ZPPP", "ZSAM", "ZSFZ", "ZSHC", "ZSJN", "ZSNB", "ZSNJ", "ZSOF", "ZSPD", "ZSQD", "ZSSS", "ZUCK", "ZUGY", "ZUUU", "ZWSH", "ZWWW", "ZYCC", "ZYHB", "ZYTL", "ZYTX"], "raw_text": ["TAF AGGA 122310Z 1300/1324 18008KT 9999 FEW017 SCT028 PROB40 INTER 1303/1307 8000 TSSH SCT015 FEW016CB BKN028 Q 1008 1006 1005 1007", "TAF AGGC 122310Z 1300/1324 05008KT 9999 SCT017 SCT028 PROB40 INTER 1302/1307 8000 TSSH BKN016 FEW017CB Q 1009 1007 1006 1008", "TAF AGGH 131110Z 1312/1412 VRB03KT 9999 FEW015 SCT028 INTER 1311/1318 5000 TSSH SCT015 FEW016CB BKN028 T 24 23 23 26 Q 1011 1009 1008 1010", "TAF AGGK 122310Z 1300/1324 34010KT 9999 FEW017 INTER 1300/1307 8000 TSSH SCT015 FEW016CB BKN028", "TAF AGGL 122310Z 1300/1324 36010KT 9999 FEW017 PROB40 INTER 1302/1307 8000 TSSH SCT015 FEW016CB BKN028", "TAF AGGM 131110Z 1312/1412 VRB03KT 9999 SCT017 Q 1009 1007 1006 1008", "TAF AGGN 131110Z 1312/1412 VRB03KT 9999 SCT017 Q 1009 1007 1006 1008", "TAF AGGR 122310Z 1300/1324 34010KT 9999 -SHRA SCT017 SCT028 INTER 1300/1307 5000 TSSH BKN016 FEW017CB", "TAF ANYN 130907Z 1312/1412 09012KT 9999 SCT020 SCT140 T 27 26 24 25 Q 1009 1007 1008 1010", "TAF AYPY 130900Z 1312/1412 16012KT 9999 SCT020 FM131800 13010KT 9999 SCT030 FM132200 11006KT 9999 SCT018 SCT140 FM140300 18008KT 9999 -SHRA BKN030 INTER 1404/1409 5000 TSRA BKN010 FEW018CB PROB30 1319/1321 VRB03KT 0600 FG", "TAF BGAA 131009Z 1310/1317 24006KT 9999 SCT020", "TAF BGBW 131109Z 1312/1321 06008KT 9999 SCT050", "TAF BGCO 130854Z 1309/1316 35020KT 5000 -SN BKN028 TEMPO 1309/1316 35012KT 1200 SN DRSN BKN012", "TAF BGGH 131109Z 1312/1321 36015KT 9999 SCT180 TEMPO 1312/1321 36015G25KT", "TAF BGJN 131116Z 1312/1321 10005KT 9999 BKN060 TEMPO 1312/1321 2500 -SN BKN014", "TAF BGKK 131109Z 1312/1319 04010KT 9999 BKN070 TEMPO 1312/1319 04012G25KT BKN050", "TAF BGMQ 131006Z 1310/1318 33008KT 9999 SCT030", "TAF BGPT 130857Z 1309/1318 10005KT 9999 FEW100", "TAF BGQQ 131009Z 1310/1318 05005KT 9999 FEW200 BECMG 1315/1318 05012KT -SN BKN050", "TAF BGSF 131100Z 1312/1418 05005KT 9999 BKN070 TEMPO 1312/1315 2000 -SHSN BKN018 TEMPO 1315/1318 3000 -SHSN BKN018 BECMG 1321/1324 SCT150", "TAF BGSS 131009Z 1310/1317 35012KT 9999 SCT040 TEMPO 1310/1317 30015G25KT 4000 -SHSN DRSN BKN020", "TAF BGTL 130300Z 1303/1409 11009KT 9999 FEW180 QNH2982INS BECMG 1310/1311 12012KT 9999 FEW045 SCT060 BKN120 QNH2986INS BECMG 1318/1319 12010G18KT 9999 SCT015 BKN030 OVC045 620304 520009 QNH2981INS BECMG 1320/1321 12020G30KT 9999 SCT010 BKN015 OVC025 620159 520009 QNH2980INS TEMPO 1322/1405 12025G40KT 4000 -SN BECMG 1406/1407 14010G15KT 6000 -SN BKN010 OVC020 620209 QNH2980INS TXM06/1318Z TNM15/1305Z LAST NO AMDS AFT 1303 NEXT 1311", "TAF BGUK 131007Z 1310/1318 05006KT 9999 SCT030 TEMPO 1310/1318 BKN020", "TAF BGUQ 130854Z 1309/1318 30015KT 9999 BKN025 TEMPO 1309/1318 VRB12G25KT SCT025", "TAF BIAR 131046Z 1312/1412 34007KT 9999 FEW035 SCT050 TX04/1315Z TNM01/1400Z BECMG 1317/1319 SCT012 BKN017 TEMPO 1319/1409 6000 -RASN BKN012 TEMPO 1409/1412 3000 RASN OVC008", "TAF BIEG 131046Z 1312/1412 19005KT 9999 SCT040 TX06/1315Z TN01/1400Z BECMG 1320/1322 01010KT SCT010 BKN018 TEMPO 1322/1412 3000 RASN BKN007 OVC014", "TAF BIKF 131046Z 1312/1412 10012KT 9999 SCT040 TX07/1314Z TN02/1406Z BECMG 1319/1321 04015KT TEMPO 1321/1412 03020G30KT", "TAF BIRK 131046Z 1312/1412 08010KT 9999 FEW035 TX06/1315Z TNM01/1406Z", "TAF BKPR 131130Z 1312/1412 17006KT 9999 FEW015 SCT020 BKN050 TEMPO 1322/1408 3000 -RA BR BKN010", "TAF AMD CWSA 130918Z 1309/1320 VRB03KT 1/2SM FG FEW008 TEMPO 1309/1312 6SM BR SKC FM131200 16005KT P6SM FEW015 TEMPO 1312/1315 3SM BR BKN015 RMK FCST BASED ON AUTO OBS. NXT FCST BY 131400Z", "TAF CWWU 131200Z 1312/1412 22005KT P6SM FEW030 FM131800 20004KT P6SM SKC FM140000 18004KT P6SM SCT020 BKN040 FM140700 19005KT P6SM FEW020 SCT035 BKN070 RMK NXT FCST BY 131800Z", "TAF CYAH 131040Z 1311/1321 15010KT P6SM -SHRA OVC020 TEMPO 1311/1314 P6SM NSW OVC030 FM131400 16012G22KT P6SM BKN040 TEMPO 1314/1318 BKN020 FM131800 16012G22KT P6SM SCT040 BKN100 RMK FCST BASED ON AUTO OBS. NXT FCST BY 131800Z", "TAF CYAM 130740Z 1308/1320 VRB03KT P6SM FEW002 SCT015 BKN040 TEMPO 1308/1310 4SM SHRA BR FEW002 BKN006 OVC015 FM131000 13008KT 4SM SHRA BR BKN005 OVC060 TEMPO 1310/1315 P6SM NSW SCT005 OVC010 FM131500 28010KT 4SM SHRA BR OVC012 RMK NXT FCST BY 131400Z", "TAF CYAT 130840Z 1309/1319 24010G20KT P6SM OVC015 TEMPO 1309/1319 OVC030 BECMG 1309/1311 27006KT RMK FCST BASED ON AUTO OBS. NXT FCST BY 131500Z", "TAF CYAW 131140Z 1312/1324 VRB03KT P6SM BKN006 OVC250 TEMPO 1312/1314 BKN010 OVC250 FM131400 20008KT P6SM BKN010 OVC250 TEMPO 1314/1320 SCT010 OVC250 FM132000 18010KT P6SM BKN200 RMK NXT FCST BY 131800Z", "TAF CYAY 130740Z 1308/1320 VRB03KT P6SM SCT015 OVC030 TEMPO 1308/1313 4SM -RA BR FEW007 OVC015 PROB30 1308/1313 BKN007 OVC012 RMK FCST BASED ON AUTO OBS. NXT FCST BY 131400Z", "TAF CYBC 130740Z 1308/1320 VRB03KT P6SM OVC080 TEMPO 1308/1311 P6SM -SHRA BECMG 1308/1310 07010KT FM131100 09014KT P6SM SCT150 BECMG 1317/1319 SCT050 SCT180 RMK FCST BASED ON AUTO OBS. NXT FCST BY 131400Z", "TAF CYBG 131140Z 1312/1412 10008KT P6SM FEW040 SCT150 BKN250 BECMG 1314/1316 10015KT FM132100 10015G25KT P6SM BKN050 OVC080 TEMPO 1400/1408 P6SM -SHRA FM140800 09015G28KT P6SM -RA OVC050 TEMPO 1408/1412 5SM RA BR SCT020 OVC030 RMK NXT FCST BY 131500Z", "TAF CYBK 131140Z 1312/1324 05008KT P6SM -RASN SCT008 BKN015 OVC030 TEMPO 1312/1314 3SM -RASN BKN008 OVC015 BECMG 1312/1314 32015KT FM131400 34020KT P6SM BKN008 TEMPO 1314/1318 SCT008 BKN012 FM131800 35020G30KT P6SM BKN012 BECMG 1322/1324 35015G25KT RMK NXT FCST BY 131800Z", "TAF CYBR 131140Z 1312/1324 32015G25KT P6SM OVC050 FM131600 32022G32KT P6SM BKN050 OVC120 FM132100 33020G30KT P6SM BKN060 BKN160 RMK NXT FCST BY 131800Z", "TAF CYBW 131140Z 1312/1324 31005KT P6SM SKC RMK FCST BASED ON AUTO OBS. NXT FCST BY 131800Z", "TAF CYBX 130740Z 1308/1320 05005KT P6SM BKN030 TEMPO 1308/1309 6SM -RA -DZ BR OVC020 FM130900 07010KT P6SM OVC015 TEMPO 1309/1317 SCT015 OVC050 FM131700 11005KT P6SM SCT020 BKN050 TEMPO 1317/1320 BKN020 RMK NXT FCST BY 131400Z", "TAF CYCA 130740Z 1308/1320 20005KT P6SM SKC FM130900 27005KT P6SM SCT015 TEMPO 1309/1316 BKN015 BECMG 1314/1316 VRB03KT RMK FCST BASED ON AUTO OBS. NXT FCST BY 131400Z", "TAF AMD CYCB 131008Z 1310/1319 31015G25KT P6SM SCT020 BKN040 TEMPO 1310/1319 5SM -SN BR BKN020 OVC040 RMK NXT FCST BY 131300Z", "TAF CYCO 130640Z 1307/1319 22010KT P6SM SCT030 FM131500 19010KT P6SM SCT060 BKN120 TEMPO 1315/1319 P6SM -SN BKN060 OVC120 BECMG 1316/1318 15015G25KT RMK NXT FCST BY 131300Z", "TAF CYCX 130240Z 1303/1315 19005KT P6SM BKN160 BKN230 TEMPO 1308/1311 2SM BR FM131100 19005KT P6SM BKN160 BKN230 TEMPO 1311/1315 BKN010 BKN160 BECMG 1313/1315 19008G18KT RMK NXT FCST BY 130900Z", "TAF CYCY 130640Z 1307/1319 26006KT P6SM FEW020 BECMG 1315/1317 16012KT RMK FCST BASED ON AUTO OBS. NXT FCST BY 131300Z", "TAF CYDB 131140Z 1312/1324 30016KT 5SM -SN FEW008 OVC020 TEMPO 1312/1316 1SM -SHSN BR BKN008 OVC020 FM131600 31012KT P6SM SCT020 BKN060 TEMPO 1316/1324 5SM -SHSN BR BKN020 OVC060 RMK FCST BASED ON AUTO OBS. NXT FCST BY 131800Z", "TAF CYDF 130740Z 1308/1320 VRB03KT P6SM SKC PROB30 1308/1313 1SM BR BECMG 1313/1315 25006KT RMK NXT FCST BY 131400Z", "TAF CYDN 131140Z 1312/1324 31015G25KT P6SM OVC040 FM131500 32020G30KT P6SM OVC050 TEMPO 1315/1320 P6SM -SHRASN FM132000 32018G28KT P6SM OVC060 RMK FCST BASED ON AUTO OBS. NXT FCST BY 131800Z", "TAF CYDP 130946Z 1310/1322 28005KT P6SM SCT012 TEMPO 1310/1314 BKN012 RMK NXT FCST BY 131400Z", "TAF CYED 122340Z 1300/1312 30012KT P6SM FEW060 FM130200 VRB03KT P6SM SKC RMK NXT FCST BY 130600Z", "TAF CYEG 131140Z 1312/1412 20004KT P6SM FEW250 FM131800 27010KT P6SM FEW100 SCT250 RMK NXT FCST BY 131500Z", "TAF AMD CYEK 130724Z 1307/1318 36020KT 1SM -RA BR BKN003 TEMPO 1307/1318 1/2SM -RA FG BKN002 RMK FCST BASED ON AUTO OBS. NXT FCST BY 131200Z", "TAF CYEN 131140Z 1312/1324 32020G30KT P6SM SKC BECMG 1315/1317 32025G40KT RMK FCST BASED ON AUTO OBS. NXT FCST BY 131800Z", "TAF CYER 130840Z 1309/1319 31008KT 2 1/2SM -RA BR OVC006 TEMPO 1309/1313 P6SM -RA OVC012 FM131300 31008KT P6SM OVC008 TEMPO 1313/1317 OVC015 FM131700 30008KT P6SM OVC015 RMK FCST BASED ON AUTO OBS. NXT FCST BY 131500Z", "TAF CYEU 131040Z 1311/1323 12010KT P6SM SCT060 BKN150 TEMPO 1311/1323 6SM -SN BKN060 OVC150 RMK ADVISORY OFFSITE. NXT FCST BY 131800Z", "TAF CYEV 130640Z 1307/1319 08006KT P6SM SCT210 FM130900 VRB03KT P6SM FEW020 BKN160 FM131500 04008KT P6SM SCT020 BKN080 TEMPO 1315/1319 4SM -SN BR BKN020 OVC080 RMK NXT FCST BY 131300Z", "TAF CYFB 131140Z 1312/1412 04005KT P6SM FEW015 TEMPO 1312/1318 BKN015 BECMG 1316/1318 14008KT FM140000 14008KT P6SM FEW002 PROB30 1400/1412 1/2SM FZFG RMK NXT FCST BY 131800Z", "TAF CYFC 131140Z 1312/1324 VRB03KT 3SM BR BKN002 TEMPO 1312/1314 P6SM NSW BKN200 FM131400 17010G20KT P6SM FEW020 SCT200 FM131600 18012G22KT P6SM FEW040 FEW200 BECMG 1322/1324 16008KT RMK FCST BASED ON AUTO OBS. NXT FCST BY 131800Z", "TAF CYFS 131140Z 1312/1324 13010G20KT P6SM SCT080 BKN120 TEMPO 1312/1314 P6SM -RA BKN080 OVC120 PROB30 1312/1314 P6SM -FZRA FM131400 12010G20KT P6SM SCT120 TEMPO 1314/1324 BKN120 BECMG 1318/1320 18008KT RMK NXT FCST BY 131800Z", "TAF CYGK 131143Z 1312/1324 16018G30KT P6SM -SHRA SCT012 OVC040 TEMPO 1312/1315 3SM SHRA BR BKN012 OVC030 FM131500 16015G28KT 3SM SHRA BR BKN007 OVC030 TEMPO 1315/1318 P6SM -SHRA SCT012 OVC050 BECMG 1315/1317 27010G20KT FM131800 27010G20KT P6SM SCT012 OVC080 TEMPO 1318/1323 5SM -SHRA BR BKN012 OVC050 BECMG 1318/1320 23010KT FM132300 23008KT P6SM BKN025 BKN060 BKN100 TEMPO 1323/1324 BKN020 OVC050 RMK NXT FCST BY 131400Z", "TAF CYGL 131140Z 1312/1412 14010G20KT P6SM SCT015 OVC030 TEMPO 1312/1314 5SM -SHRA BR SCT008 OVC015 FM131400 13012G22KT P6SM -RA SCT015 OVC030 TEMPO 1314/1321 4SM -RA BR SCT008 OVC015 FM132100 12012G22KT 3SM SHRA BR BKN008 OVC015 TEMPO 1321/1324 P6SM -RA SCT008 OVC015 PROB30 1321/1324 BKN005 OVC015 FM140000 11012G22KT P6SM -SHRA BKN008 OVC020 BECMG 1404/1406 11012KT FM140800 17008KT P6SM FEW004 SCT100 PROB30 1408/1412 1SM BR BKN004 RMK NXT FCST BY 131800Z", "TAF CYGP 130740Z 1308/1320 VRB03KT P6SM FEW240 PROB30 1308/1310 1SM BR FM131100 28006KT P6SM BKN120 BECMG 1313/1315 14008G18KT FM131800 16012G22KT P6SM SCT180 RMK NXT FCST BY 131400Z", "TAF CYGQ 130741Z 1308/1320 VRB03KT P6SM SCT006 BKN050 TEMPO 1308/1312 BKN006 BKN020 FM131200 30006KT P6SM BKN030 TEMPO 1312/1320 P6SM -SHRA BKN020 RMK FCST BASED ON AUTO OBS. NXT FCST BY 131400Z", "TAF CYGR 131040Z 1311/1323 20008KT P6SM BKN160 FM131800 18012KT P6SM FEW060 BKN180 RMK NXT FCST BY 131400Z", "TAF AMD CYGT 131116Z 1311/1321 18015KT P6SM -SN BKN015 BECMG 1313/1315 18025G35KT RMK NXT FCST BY 131300Z", "TAF CYGV 130740Z 1308/1320 04005KT P6SM SKC PROB30 1308/1312 2SM BR FM131200 06010KT P6SM FEW020 BKN160 FM131800 08012KT P6SM BKN120 BECMG 1319/1320 SCT200 RMK FCST BASED ON AUTO OBS. NXT FCST BY 131400Z", "TAF CYGW 131140Z 1312/1324 14015G25KT P6SM SCT020 OVC040 TEMPO 1312/1324 P6SM -SHRA OVC020 BECMG 1315/1317 14010G20KT RMK FCST BASED ON AUTO OBS. NXT FCST BY 131800Z", "TAF AMD CYGX 131053Z 1310/1319 35012G22KT P6SM -DZ SCT006 OVC020 TEMPO 1310/1313 3SM -RA BR OVC006 FM131300 36012G22KT 2SM -RASN BR OVC005 TEMPO 1313/1318 6SM -RA BR OVC010 FM131800 34012KT 4SM -RA BR OVC006 TEMPO 1318/1319 P6SM -RA OVC012 RMK NXT FCST BY 131300Z", "TAF AMD CYHD 131153Z 1311/1320 28008KT 1SM -SHSN VV008 TEMPO 1311/1316 6SM -RASN BR OVC015 FM131600 28012G22KT P6SM -SHRA SCT015 OVC030 TEMPO 1316/1319 4SM -SHRASN SCT008 OVC015 FM131900 25012G22KT P6SM OVC015 TEMPO 1319/1320 3SM -SHRA BR BKN008 OVC015 RMK FCST BASED ON AUTO OBS. NXT FCST BY 131400Z", "TAF CYHK 131140Z 1312/1324 17015G25KT 1SM -SN BKN004 TEMPO 1312/1315 1 1/2SM -SN BKN008 BECMG 1313/1315 32020KT FM131500 32020KT 1 1/2SM -SN BKN006 TEMPO 1315/1318 6SM -SN SCT006 BKN010 FM131800 32020KT P6SM SCT008 BKN015 TEMPO 1318/1324 P6SM -SN BKN008 OVC015 RMK FCST BASED ON AUTO OBS. NXT FCST BY 131800Z", "TAF CYHM 131143Z 1312/1412 27008KT P6SM FEW006 OVC040 TEMPO 1312/1314 5SM -SHRA BR BKN006 OVC040 BECMG 1312/1314 27010G20KT FM131400 27010G20KT P6SM BKN012 BKN100 TEMPO 1314/1317 SCT010 BKN100 FM131700 22010G20KT P6SM -SHRA BKN025 BECMG 1319/1321 24015G25KT FM132100 24015G25KT P6SM BKN030 BECMG 1321/1323 24010KT FEW040 FM140900 23006KT P6SM BKN040 RMK NXT FCST BY 131800Z", "TAF CYHU 131140Z 1312/1412 16010G20KT P6SM FEW070 OVC250 BECMG 1312/1314 16015G25KT FM131500 16020G30KT P6SM BKN040 OVC100 TEMPO 1315/1320 P6SM -SHRA FM132000 17020G30KT 6SM -SHRA BR OVC040 FM132200 22015G25KT 4SM RA BR BKN015 OVC040 FM140000 23008KT 4SM RA BR SCT008 OVC012 FM140300 26010KT 4SM RA BR SCT006 OVC012 RMK FCST BASED ON AUTO OBS. NXT FCST BY 131800Z", "TAF CYHY 131140Z 1312/1324 13010G20KT P6SM SCT070 TEMPO 1312/1324 BKN070 BECMG 1316/1318 17015G25KT RMK NXT FCST BY 131800Z", "TAF CYHZ 131140Z 1312/1412 19008KT 1/8SM FG VV001 TEMPO 1312/1315 P6SM NSW FEW020 BKN240 FM131500 17010KT P6SM FEW020 FM140300 14010KT P6SM SCT020 BKN030 PROB30 1406/1411 BKN006 BECMG 1411/1412 13012G22KT RMK NXT FCST BY 131500Z", "TAF CYIO 130640Z 1307/1319 14007KT P6SM BKN015 TEMPO 1307/1319 SCT015 BKN025 BECMG 1315/1317 24008KT RMK FCST BASED ON AUTO OBS. NXT FCST BY 131300Z", "TAF CYIV 130640Z 1307/1319 30015G25KT P6SM -RA OVC015 TEMPO 1307/1309 4SM -RA BR OVC010 FM130900 30015G25KT 6SM -RASN BR OVC015 TEMPO 1309/1312 2SM -SN BR OVC008 FM131200 30015G25KT 2SM -SN OVC008 TEMPO 1312/1318 5SM -RASN BR OVC015 PROB30 1312/1318 1SM -SN FM131800 30015G25KT 6SM -RA OVC015 TEMPO 1318/1319 3SM -RASN BR OVC010 RMK FCST BASED ON AUTO OBS. NXT FCST BY 131300Z", "TAF CYJT 131140Z 1312/1412 VRB03KT P6SM FEW040 SCT200 BECMG 1313/1315 23006KT FM132100 VRB03KT P6SM BKN160 FM140500 09005KT P6SM SCT180 RMK NXT FCST BY 131800Z", "TAF CYKA 130640Z 1307/1319 VRB03KT P6SM SKC RMK NXT FCST BY 131300Z", "TAF AMD CYKF 130944Z 1309/1320 29010G20KT P6SM SCT020 OVC050 TEMPO 1309/1313 5SM BR BKN007 OVC040 FM131300 25010KT P6SM BKN015 BKN080 TEMPO 1313/1317 SCT015 BKN100 BECMG 1314/1316 23012G22KT FM131700 23012G22KT P6SM BKN030 TEMPO 1317/1320 P6SM -SHRA BKN020 RMK FCST BASED ON AUTO OBS. NXT FCST BY 131400Z", "TAF CYKJ 130940Z 1310/1322 33020G30KT P6SM OVC030 TEMPO 1310/1315 OVC020 FM131500 33015G25KT P6SM SCT025 RMK FCST BASED ON AUTO OBS. NXT FCST BY 131300Z", "TAF AMD CYKL 130902Z 1309/1320 16008KT 1/2SM -RA -DZ FG VV002 TEMPO 1309/1316 3SM BR OVC008 FM131600 16010KT P6SM BKN015 TEMPO 1316/1320 SCT015 RMK FCST BASED ON AUTO OBS. NXT FCST BY 131400Z", "TAF CYLD 131140Z 1312/1324 14005KT 5SM -RA BR OVC004 TEMPO 1312/1318 P6SM NSW OVC010 BECMG 1312/1314 15010G20KT FM131800 20010G20KT P6SM BKN015 TEMPO 1318/1321 BKN025 FM132100 21008KT P6SM BKN025 TEMPO 1321/1324 BKN020 RMK NXT FCST BY 131400Z", "TAF CYLL 131140Z 1312/1324 27010KT P6SM SKC RMK FCST BASED ON AUTO OBS. NXT FCST BY 131800Z", "TAF CYLW 130640Z 1307/1319 VRB03KT P6SM FEW240 RMK FCST BASED ON AUTO OBS. NXT FCST BY 131300Z", "TAF CYMA 131140Z 1312/1324 26005KT P6SM -RA SCT010 BKN020 TEMPO 1312/1315 1/2SM SHSN -FZRA BKN010 OVC020 FM131500 24008KT P6SM -SN SCT015 BKN025 TEMPO 1315/1322 2SM -RASN BR BKN015 OVC025 FM132200 27008KT P6SM SCT020 BKN040 TEMPO 1322/1324 4SM -SHSN BR BKN020 OVC040 RMK NXT FCST BY 131800Z", "TAF CYMH 130840Z 1309/1321 VRB03KT P6SM SKC BECMG 1313/1315 32005KT BECMG 1316/1318 VRB03KT RMK FCST BASED ON AUTO OBS. NXT FCST BY 131400Z", "TAF CYMJ 131140Z 1312/1324 30018G28KT P6SM SKC BECMG 1316/1318 30025G35KT BECMG 1319/1321 30030G40KT RMK NXT FCST BY 131800Z", "TAF CYMM 130640Z 1307/1319 31006KT P6SM SKC BECMG 1308/1310 VRB03KT FM131200 12007KT P6SM SCT250 RMK FCST BASED ON AUTO OBS. NXT FCST BY 131300Z", "TAF CYMO 131140Z 1312/1324 29005KT P6SM SCT015 BKN060 TEMPO 1312/1324 P6SM -SHRA OVC015 BECMG 1314/1316 03008KT RMK FCST BASED ON AUTO OBS. NXT FCST BY 131800Z", "TAF CYMT 131140Z 1312/1324 12010G20KT P6SM OVC060 TEMPO 1312/1318 P6SM -SHRA BECMG 1312/1314 14015G25KT FM131800 14015G25KT P6SM OVC030 TEMPO 1318/1321 5SM -SHRA BR OVC008 PROB30 1318/1321 OVC006 FM132100 14015G25KT P6SM -RA OVC012 TEMPO 1321/1324 5SM -SHRA BR OVC006 RMK FCST BASED ON AUTO OBS. NXT FCST BY 131800Z", "TAF CYMX 131140Z 1312/1412 05005KT P6SM SCT080 BKN150 FM131500 13010G20KT P6SM OVC040 TEMPO 1315/1317 6SM -SHRA BR OVC020 FM131700 14010KT P6SM -SHRA SCT012 OVC030 TEMPO 1317/1321 4SM -SHRA BR OVC008 FM132100 22010G20KT 4SM SHRA BKN006 OVC030 BECMG 1401/1403 25005KT RMK NXT FCST BY 131800Z", "TAF CYNA 130740Z 1308/1320 VRB03KT P6SM SKC TEMPO 1308/1312 1SM BR BECMG 1309/1311 08009KT FM131500 11010KT P6SM FEW020 BKN160 RMK FCST BASED ON AUTO OBS. AUTO OBS REP NON-REPRESENTATIVE PCPN. NXT FCST BY 131400Z", "TAF CYNE 130640Z 1307/1319 31015G25KT P6SM OVC030 TEMPO 1307/1309 P6SM -RA FM130900 32015G30KT P6SM -RA OVC030 TEMPO 1309/1312 2 1/2SM -SNRA OVC015 FM131200 32020G30KT 1 1/2SM -SN OVC015 TEMPO 1312/1319 4SM -RASN OVC025 PROB40 1312/1319 1SM -SN VV010 RMK FCST BASED ON AUTO OBS. NXT FCST BY 131300Z", "TAF CYOD 131140Z 1312/1412 VRB03KT P6SM FEW250 FM132000 25005KT P6SM FEW080 SCT200 FM140000 VRB03KT P6SM FEW120 PROB30 1409/1412 1/2SM FG VV002 RMK NXT FCST BY 131500Z", "TAF CYOJ 130640Z 1307/1319 VRB03KT P6SM SCT080 BKN250 BECMG 1314/1316 13007KT RMK FCST BASED ON AUTO OBS. NXT FCST BY 131300Z", "TAF CYOO 130740Z 1308/1320 16010G20KT P6SM -SHRA SCT015 OVC030 TEMPO 1308/1311 3SM SHRA BR BKN007 OVC020 FM131100 20010KT P6SM SCT012 OVC040 TEMPO 1311/1315 5SM -SHRA BR BKN007 OVC020 FM131500 24010G20KT P6SM BKN015 BKN090 TEMPO 1315/1318 SCT020 BKN100 FM131800 23010G20KT P6SM BKN025 TEMPO 1318/1320 P6SM -SHRA BKN020 RMK FCST BASED ON AUTO OBS. NXT FCST BY 131400Z", "TAF CYOW 131140Z 1312/1412 12010KT P6SM OVC080 TEMPO 1312/1316 P6SM -SHRA OVC015 FM131600 15012G22KT 5SM -SHRA BR OVC015 TEMPO 1316/1318 P6SM -SHRA OVC030 FM131800 21015G25KT 4SM -RA BR BKN012 OVC030 TEMPO 1318/1320 2SM SHRA BR BKN006 OVC012 FM132000 19010G20KT 4SM -SHRA BR BKN006 OVC012 FM140800 15006KT P6SM FEW006 BKN150 RMK NXT FCST BY 131500Z", "TAF CYOY 131140Z 1312/1324 VRB03KT P6SM SCT120 BKN240 FM131600 12010KT P6SM BKN050 BKN200 FM132000 12012G22KT P6SM -RA SCT020 OVC030 TEMPO 1320/1324 5SM RA BR BKN020 OVC030 RMK NXT FCST BY 131800Z", "TAF CYPA 130640Z 1307/1319 33015G25KT P6SM SKC RMK NXT FCST BY 131300Z", "TAF CYPE 130640Z 1307/1319 26005KT P6SM FEW100 SCT220 FM130900 24010KT P6SM FEW080 SCT140 BKN220 RMK NXT FCST BY 131300Z", "TAF CYPG 122340Z 1300/1312 32015G25KT P6SM FEW030 OVC050 TEMPO 1300/1304 P6SM -SHRA FM130400 30012G25KT P6SM FEW015 OVC040 TEMPO 1304/1309 P6SM -SHRASN FM130900 30015G30KT P6SM BKN040 RMK NXT FCST BY 130600Z", "TAF CYPH 131140Z 1312/1324 12015G25KT P6SM FEW030 FM131400 13015G25KT P6SM SCT020 BKN030 TEMPO 1314/1318 P6SM -SHRA BKN020 OVC030 FM131800 14015G25KT P6SM FEW020 BKN030 BECMG 1320/1322 12012KT RMK FCST BASED ON AUTO OBS. NXT FCST BY 131800Z", "TAF CYPL 130740Z 1308/1320 27008G18KT P6SM SCT020 BKN040 TEMPO 1308/1314 5SM -SHRASN BKN020 OVC040 FM131400 24008G18KT P6SM SCT020 BKN040 TEMPO 1314/1320 P6SM -SHRA BKN020 OVC040 RMK FCST BASED ON AUTO OBS. NXT FCST BY 131400Z", "TAF CYPQ 130940Z 1310/1322 17012KT P6SM -SHRA SCT015 OVC040 TEMPO 1310/1312 3SM SHRA BR BKN005 OVC015 FM131200 17012KT P6SM SCT015 OVC030 TEMPO 1312/1315 5SM -SHRA BR BKN007 OVC015 BECMG 1312/1314 24010G20KT FM131500 24010G20KT P6SM BKN015 BKN090 TEMPO 1315/1318 SCT020 BKN100 FM131800 22010G20KT P6SM BKN025 TEMPO 1318/1322 P6SM -SHRA BKN020 RMK FCST BASED ON AUTO OBS. NXT FCST BY 131400Z", "TAF CYPR 130640Z 1307/1319 08006KT P6SM FEW080 BKN240 FM131600 14012G22KT P6SM SCT050 BKN100 TEMPO 1316/1319 P6SM -RA BKN050 RMK FCST BASED ON AUTO OBS. NXT FCST BY 131300Z", "TAF CYPX 131140Z 1312/1324 10025G35KT P6SM FEW015 SCT150 FM131600 10022G32KT P6SM SCT015 TEMPO 1316/1324 BKN015 RMK FCST BASED ON AUTO OBS. NXT FCST BY 131800Z", "TAF CYPY 131140Z 1312/1324 VRB03KT P6SM SKC BECMG 1314/1316 15010KT RMK FCST BASED ON AUTO OBS. NXT FCST BY 131800Z", "TAF CYQA 131143Z 1312/1324 29007KT P6SM SCT005 OVC015 TEMPO 1312/1314 5SM -SHRA BR BKN005 OVC015 FM131400 26008KT P6SM BKN012 OVC040 TEMPO 1314/1316 SCT015 BKN100 FM131600 22008KT P6SM BKN025 BKN070 TEMPO 1316/1324 P6SM -SHRA BKN015 BKN050 RMK FCST BASED ON AUTO OBS. NXT FCST BY 131400Z", "TAF CYQB 131140Z 1312/1412 04005KT P6SM FEW140 BKN200 BECMG 1313/1315 11010KT FM131800 11010G20KT P6SM BKN050 FM132100 11015G25KT P6SM -SHRA OVC040 FM140300 09012G22KT 6SM -SHRA BR OVC030 FM140600 09012G22KT 5SM -SHRA BR OVC015 RMK NXT FCST BY 131800Z", "TAF CYQD 130640Z 1307/1319 31022G32KT P6SM OVC040 RMK FCST BASED ON AUTO OBS. NXT FCST BY 131300Z", "TAF CYQF 131140Z 1312/1324 21005KT P6SM SKC FM131800 24010KT P6SM FEW150 SCT250 RMK NXT FCST BY 131800Z", "TAF CYQG 131143Z 1312/1412 26010KT P6SM SCT015 BKN100 TEMPO 1312/1314 P6SM -SHRA BKN015 BKN070 FM131400 26012G22KT P6SM BKN025 FM131600 25015G25KT P6SM BKN040 TEMPO 1316/1320 P6SM -SHRA FM132000 24015G28KT P6SM BKN050 BECMG 1321/1323 24012G22KT FM140000 24012KT P6SM FEW040 RMK FCST BASED ON AUTO OBS. NXT FCST BY 131800Z", "TAF CYQH 131140Z 1312/1324 16008KT P6SM SCT050 BKN080 BECMG 1316/1318 24015G25KT RMK NXT FCST BY 131800Z", "TAF CYQI 131140Z 1312/1324 15006KT 2SM BR OVC002 TEMPO 1312/1315 P6SM NSW SCT002 FM131500 16010KT P6SM FEW020 SCT200 BECMG 1316/1318 16012G22KT BECMG 1322/1323 14012KT RMK NXT FCST BY 131800Z", "TAF CYQK 130740Z 1308/1320 30008KT P6SM SCT015 OVC030 TEMPO 1308/1312 4SM -SHSN BKN008 OVC015 PROB40 1308/1312 2SM -SHSN BKN005 OVC015 FM131200 28010KT P6SM -SHRASN SCT015 OVC030 TEMPO 1312/1316 2 1/2SM -SHSN SCT008 OVC015 BECMG 1312/1314 28012G22KT FM131600 28012G22KT P6SM -SHRA SCT015 OVC030 TEMPO 1316/1320 4SM -SHRASN SCT008 OVC015 BECMG 1316/1318 28015G25KT RMK NXT FCST BY 131400Z", "TAF CYQL 131140Z 1312/1324 22008KT P6SM SKC RMK FCST BASED ON AUTO OBS. NXT FCST BY 131800Z", "TAF CYQM 131140Z 1312/1412 19006KT P6SM FEW150 BKN180 BECMG 1315/1317 18012KT FM131800 17012G22KT P6SM FEW180 BECMG 1322/1324 18008KT FEW025 FM140300 18008KT P6SM FEW015 BKN025 FM140600 14008KT P6SM FEW010 BKN020 FM141100 13012G22KT P6SM FEW015 RMK NXT FCST BY 131800Z", "TAF CYQQ 131140Z 1312/1412 VRB03KT P6SM SKC BECMG 1317/1319 04005KT BECMG 1323/1401 VRB03KT FM140600 32005KT P6SM SCT250 RMK NXT FCST BY 131800Z", "TAF CYQR 131140Z 1312/1412 32020G30KT P6SM SKC BECMG 1316/1318 32028G38KT BECMG 1400/1402 33015KT FM140700 34010KT P6SM BKN090 RMK NXT FCST BY 131800Z", "TAF CYQT 130740Z 1308/1320 26006KT P6SM FEW020 BKN120 TEMPO 1308/1314 BKN020 BKN120 FM131400 30010KT P6SM SCT020 BKN030 RMK NXT FCST BY 131400Z", "TAF CYQU 130640Z 1307/1319 30005KT P6SM FEW150 SCT250 BECMG 1312/1314 23012KT RMK NXT FCST BY 131300Z", "TAF CYQV 131140Z 1312/1324 32020G30KT P6SM OVC040 TEMPO 1312/1317 SCT040 FM131700 32028G38KT P6SM SKC RMK FCST BASED ON AUTO OBS. NXT FCST BY 131800Z", "TAF CYQW 131140Z 1312/1324 30012KT P6SM SKC BECMG 1316/1318 31015G25KT FM132300 32012KT P6SM SCT100 RMK FCST BASED ON AUTO OBS. NXT FCST BY 131800Z", "TAF CYQX 131140Z 1312/1412 25008KT P6SM FEW060 SCT210 BECMG 1318/1320 VRB03KT FM140000 VRB03KT P6SM BKN180 FM140400 VRB03KT P6SM OVC120 RMK NXT FCST BY 131800Z", "TAF CYQY 131140Z 1312/1324 22005KT P6SM SCT120 BKN240 PROB30 1312/1313 1/2SM FG FM131500 20010KT P6SM FEW020 SCT160 BECMG 1316/1318 FEW030 FM132200 18008KT P6SM FEW010 PROB30 1322/1324 2SM BR OVC005 RMK NXT FCST BY 131800Z", "TAF CYQZ 131140Z 1312/1324 VRB03KT P6SM SKC PROB30 1312/1316 1/2SM FG BKN002 FM131600 16008KT P6SM SKC BECMG 1322/1324 36005KT RMK FCST BASED ON AUTO OBS. NXT FCST BY 131900Z", "TAF CYRB 131140Z 1312/1412 12015KT 3SM -SN SCT006 OVC012 TEMPO 1312/1315 1SM -SN BKN004 OVC008 BECMG 1312/1314 29008KT FM131500 28015KT 5SM -SN SCT008 OVC015 TEMPO 1315/1321 2SM -SN BKN006 OVC012 FM132100 31020KT P6SM -SN SCT012 OVC025 TEMPO 1321/1412 3SM -SN SCT008 OVC012 BECMG 1402/1404 28012KT RMK NXT FCST BY 131800Z", "TAF CYRJ 131140Z 1312/1324 12005KT P6SM BKN130 BKN200 BECMG 1313/1315 16010G20KT FM131600 16012G22KT P6SM SCT050 SCT200 FM132100 16012G22KT P6SM -SHRA OVC050 RMK NXT FCST BY 131400Z", "TAF CYRL 131040Z 1311/1323 27008KT P6SM -SN SCT008 OVC015 TEMPO 1311/1314 1 1/2SM -SHSN BKN008 OVC015 FM131400 28012G22KT P6SM SCT015 OVC030 TEMPO 1314/1321 2 1/2SM -SHSNRA BKN015 OVC030 PROB30 1314/1321 1 1/2SM -SHSN FM132100 28010G20KT 3SM -SHRASN BKN015 OVC030 RMK NXT FCST BY 131400Z", "TAF AMD CYRQ 131018Z 1310/1320 15008KT P6SM OVC160 TEMPO 1310/1312 5SM BR FM131500 14012G22KT P6SM BKN040 FM131800 16012G22KT P6SM -SHRA OVC030 RMK FCST BASED ON AUTO OBS. NXT FCST BY 131400Z", "TAF CYRT 131140Z 1312/1324 08012KT 1SM -RA BR OVC002 TEMPO 1312/1318 2SM -RA BR BKN004 FM131800 36015KT 1SM -RA BR BKN004 TEMPO 1318/1324 3SM -RA BR BKN008 RMK NXT FCST BY 131800Z", "TAF AMD CYSB 131151Z 1311/1320 26006KT 3/4SM BR BKN180 BECMG 1312/1314 P6SM NSW FM131400 23010KT P6SM BKN020 BKN100 TEMPO 1314/1318 BKN025 BKN100 FM131800 23010G20KT P6SM BKN025 TEMPO 1318/1320 P6SM -SHRA BKN020 RMK NXT FCST BY 131400Z", "TAF CYSC 131040Z 1311/1323 15007KT P6SM SCT160 SCT240 BECMG 1313/1315 17015G25KT FM131500 17015G25KT P6SM BKN050 RMK FCST BASED ON AUTO OBS. NXT FCST BY 131800Z", "TAF CYSF 131140Z 1312/1324 32012G22KT P6SM BKN030 TEMPO 1312/1315 OVC020 FM131500 33010KT P6SM FEW020 FM131800 35007KT P6SM FEW100 SCT250 RMK FCST BASED ON AUTO OBS. NXT FCST BY 131800Z", "TAF CYSJ 131140Z 1312/1324 17005KT 1SM BR VV002 BECMG 1312/1314 P6SM NSW FEW007 BKN200 FM131500 17012KT P6SM SCT200 FM132100 16007KT P6SM FEW040 FEW200 RMK NXT FCST BY 131800Z", "TAF CYSM 131140Z 1312/1324 VRB03KT P6SM FEW120 SCT250 BECMG 1314/1316 15007KT FM131800 15012KT P6SM SCT120 BKN200 RMK NXT FCST BY 131800Z", "TAF CYTE 130640Z 1307/1319 11022G32KT P6SM BKN020 FM130900 12020G30KT P6SM FEW020 TEMPO 1309/1319 BKN020 RMK FCST BASED ON AUTO OBS. NXT FCST BY 131300Z", "TAF AMD CYTH 131049Z 1310/1319 32020G30KT WS005/32045KT P6SM -RASN OVC025 TEMPO 1310/1313 2 1/2SM -SN OVC015 FM131300 32020G40KT 1SM -SN VV012 TEMPO 1313/1319 4SM -SNRA OVC020 RMK NXT FCST BY 131300Z", "TAF AMD CYTL 130822Z 1308/1320 27008KT P6SM -RA SCT015 OVC030 TEMPO 1308/1314 5SM -SHRASN BKN007 OVC015 FM131400 22008KT P6SM SCT015 OVC030 TEMPO 1314/1320 P6SM -SHRA BKN015 OVC030 BECMG 1316/1318 18010KT RMK FCST BASED ON AUTO OBS. NXT FCST BY 131400Z", "TAF CYTR 131140Z 1312/1412 17012G25KT 2SM RA BR OVC007 TEMPO 1312/1318 6SM -RA BR SCT007 OVC015 PROB30 1312/1318 OVC003 FM131800 22008G18KT 5SM -RA BR BKN015 OVC025 TEMPO 1318/1402 P6SM NSW FEW015 BKN025 BKN130 BECMG 1319/1321 22008KT FM140200 24008KT P6SM -SHRA FEW015 BKN025 BKN130 FM140900 21008KT P6SM BKN025 PROB30 1409/1412 2SM BR RMK NXT FCST BY 131800Z", "TAF CYTS 130740Z 1308/1320 VRB03KT P6SM SCT008 SCT012 OVC050 TEMPO 1308/1310 P6SM -SHRA BKN008 OVC012 FM131000 VRB03KT P6SM SCT008 SCT012 OVC025 TEMPO 1310/1318 P6SM -SHRA BKN008 OVC012 FM131800 18008KT P6SM BKN030 BKN100 RMK NXT FCST BY 131400Z", "TAF CYTZ 130740Z 1308/1408 18010G20KT P6SM -SHRA SCT015 OVC040 TEMPO 1308/1310 3SM SHRA BR BKN007 OVC020 FM131000 20010KT P6SM SCT015 BKN030 OVC050 TEMPO 1310/1314 5SM -SHRA BR BKN008 OVC025 BECMG 1310/1312 26010KT FM131400 23010G20KT P6SM BKN015 BKN090 TEMPO 1314/1318 SCT020 BKN100 FM131800 23012G22KT P6SM -SHRA BKN025 FM132200 23012G22KT P6SM BKN030 BECMG 1322/1324 24012KT FEW040 RMK FCST BASED ON AUTO OBS. NXT FCST BY 131400Z", "TAF CYUL 131140Z 1312/1412 15012KT P6SM FEW070 BKN150 OVC250 BECMG 1312/1314 15012G22KT FM131500 16015G25KT P6SM BKN040 OVC100 TEMPO 1315/1320 P6SM -SHRA BECMG 1315/1317 15020G30KT FM132000 15020G30KT 6SM -SHRA BR OVC030 FM132200 22015G25KT 4SM RA BR BKN015 OVC040 FM140000 22012KT 4SM RA BR SCT008 OVC012 BECMG 1401/1403 25010KT RMK NXT FCST BY 131500Z", "TAF CYUX 130640Z 1307/1319 16012KT P6SM SCT006 BKN010 TEMPO 1307/1319 5SM -SN BR BKN006 BECMG 1313/1315 16025G35KT RMK FCST BASED ON AUTO OBS. NXT FCST BY 131300Z", "TAF CYUY 131140Z 1312/1324 17007KT 3SM RA BR OVC006 TEMPO 1312/1320 P6SM -RA SCT007 OVC012 BECMG 1314/1316 23008KT FM132000 21010KT P6SM BKN020 TEMPO 1320/1324 BKN030 RMK NXT FCST BY 131800Z", "TAF CYVC 130640Z 1307/1319 31015G25KT P6SM OVC040 FM130900 31015G25KT P6SM FEW030 TEMPO 1309/1315 BKN030 RMK NXT FCST BY 131300Z", "TAF CYVM 130640Z 1307/1319 32008KT P6SM SCT040 BECMG 1308/1310 19008KT RMK FCST BASED ON AUTO OBS. NXT FCST BY 131300Z", "TAF CYVO 131140Z 1312/1324 15012KT P6SM -RA SCT008 OVC015 TEMPO 1312/1314 4SM RA BR BKN006 OVC015 FM131400 15010G20KT 4SM -RA BR OVC006 TEMPO 1314/1320 P6SM -RA OVC012 PROB30 1314/1320 2SM SHRA BR OVC005 FM132000 18008KT P6SM BKN012 BKN080 RMK NXT FCST BY 131800Z", "TAF CYVP 131140Z 1312/1324 11006KT 1SM BR OVC004 TEMPO 1312/1314 6SM BR OVC007 FM131400 08010KT P6SM SCT008 BKN015 TEMPO 1314/1321 BKN030 PROB30 1314/1317 BKN006 OVC012 FM132100 07008KT P6SM FEW020 RMK NXT FCST BY 131800Z", "TAF CYVQ 131143Z 1312/1324 11015G30KT P6SM -SN SCT010 OVC060 TEMPO 1312/1316 1SM -SHSN BR BKN010 OVC060 PROB40 1312/1316 5SM -FZRA BR FM131600 11015G25KT P6SM SCT010 BKN060 TEMPO 1316/1318 3SM -SHSN BR BKN010 OVC060 PROB40 1316/1318 5SM -FZRA BR FM131800 27015G35KT P6SM SCT010 BKN060 TEMPO 1318/1322 3SM -SHSN BR BKN010 OVC060 PROB40 1318/1322 5SM -FZRA BR FM132200 29020G40KT P6SM SCT008 BKN060 TEMPO 1322/1324 1SM -SHSN BR BKN008 OVC060 RMK NXT FCST BY 131800Z", "TAF CYVR 131140Z 1312/1418 09005KT P6SM SKC BECMG 1318/1320 27008KT BECMG 1404/1406 10005KT RMK NXT FCST BY 131500Z", "TAF CYVV 131040Z 1311/1323 25005KT P6SM BKN015 BKN100 TEMPO 1311/1316 SCT015 BKN100 BECMG 1314/1316 22012G22KT FM131600 22012G22KT P6SM -SHRA BKN020 TEMPO 1316/1322 P6SM NSW BKN025 FM132200 21010KT P6SM BKN030 TEMPO 1322/1323 BKN020 RMK NXT FCST BY 131400Z", "TAF CYWA 122340Z 1300/1324 13008KT P6SM FEW060 OVC080 TEMPO 1300/1306 P6SM -SHRA BKN060 FM130600 15010KT 5SM -RA BR SCT015 OVC040 FM131000 13010G20KT 3SM RA BR OVC008 PROB30 1310/1318 OVC005 FM131800 22008G18KT 5SM -RA BR BKN010 OVC040 RMK NXT FCST BY 130600Z", "TAF CYWG 131140Z 1312/1412 31012G22KT P6SM -SHSNRA SCT010 OVC030 TEMPO 1312/1317 2 1/2SM -SHSN BKN009 OVC020 FM131700 31022G32KT P6SM -SHRA OVC020 TEMPO 1317/1403 5SM -SHSN FM140300 32015G25KT P6SM BKN015 OVC080 TEMPO 1403/1412 5SM -SHSN OVC015 PROB30 1408/1412 2SM -SHSN RMK NXT FCST BY 131800Z", "TAF AMD CYWK 131114Z 1311/1320 VRB03KT 6SM BR BKN180 TEMPO 1311/1314 1/2SM FG VV002 FM131600 12005KT P6SM -SHRA BKN030 RMK FCST BASED ON AUTO OBS. NXT FCST BY 131400Z", "TAF CYWL 130640Z 1307/1319 VRB03KT P6SM FEW210 RMK NXT FCST BY 131300Z", "TAF CYXC 130640Z 1307/1319 VRB03KT P6SM SKC RMK NXT FCST BY 131300Z", "TAF CYXE 131140Z 1312/1412 30015G25KT P6SM SKC FM140100 32010KT P6SM SKC FM140300 35005KT P6SM BKN100 FM140800 35005KT P6SM FEW080 RMK NXT FCST BY 131800Z", "TAF CYXH 131140Z 1312/1324 VRB03KT P6SM BKN070 FM131500 23008KT P6SM FEW100 RMK FCST BASED ON AUTO OBS. NXT FCST BY 131800Z", "TAF CYXJ 130640Z 1307/1319 24012KT P6SM FEW020 BKN220 BECMG 1315/1317 23015G25KT RMK NXT FCST BY 131300Z", "TAF AMD CYXL 130807Z 1308/1320 30008KT P6SM SCT005 OVC030 TEMPO 1308/1314 2SM -SHSN BKN005 OVC015 FM131400 28010G20KT P6SM -SHRA SCT015 OVC030 TEMPO 1314/1318 5SM -SHRASN SCT008 OVC015 FM131800 27012G22KT 6SM -SHRA BR SCT008 OVC015 RMK NXT FCST BY 131400Z", "TAF CYXR 131140Z 1312/1324 29007KT P6SM SCT010 OVC020 TEMPO 1312/1314 2 1/2SM -RA BR BKN009 OVC020 FM131400 VRB03KT P6SM BKN010 OVC020 TEMPO 1314/1318 SCT012 OVC025 FM131800 20010KT P6SM BKN020 TEMPO 1318/1321 BKN040 FM132100 17010KT P6SM OVC025 RMK FCST BASED ON AUTO OBS. NXT FCST BY 131800Z", "TAF CYXS 130640Z 1307/1319 VRB03KT P6SM SKC PROB30 1311/1317 1/2SM FG RMK FCST BASED ON AUTO OBS. NXT FCST BY 131300Z", "TAF AMD CYXT 130932Z 1309/1319 VRB03KT P6SM BKN220 TEMPO 1309/1312 1/2SM FG BKN002 FM131200 VRB03KT 1/2SM FG BKN002 TEMPO 1312/1318 4SM BR SCT002 BKN200 FM131800 17005KT P6SM SCT007 BKN150 TEMPO 1318/1319 4SM BR BKN007 RMK NXT FCST BY 131300Z", "TAF CYXU 131143Z 1312/1412 25008KT P6SM FEW015 BKN140 TEMPO 1312/1317 FEW006 BKN015 BKN090 BECMG 1313/1315 24010G20KT FM131700 24012G22KT P6SM BKN025 TEMPO 1317/1322 P6SM -SHRA BECMG 1318/1320 23015G25KT FM132200 23012G22KT P6SM BKN040 FM140100 23008KT P6SM FEW040 RMK NXT FCST BY 131800Z", "TAF CYXX 131140Z 1312/1412 VRB03KT P6SM SKC BECMG 1318/1320 24008KT BECMG 1403/1405 VRB03KT RMK NXT FCST BY 131800Z", "TAF CYXY 131140Z 1312/1324 16020G30KT P6SM BKN060 TEMPO 1312/1319 5SM -SHRA BR OVC060 BECMG 1316/1318 16015G25KT FM131900 16015G25KT P6SM -RA SCT040 BKN060 TEMPO 1319/1322 4SM -SHRA BR OVC040 PROB30 1319/1322 5SM -FZRA BR FM132200 33010G20KT P6SM SCT060 TEMPO 1322/1324 5SM -SHSNRA BR BKN060 PROB30 1322/1324 5SM -FZRA BR RMK NXT FCST BY 131800Z", "TAF CYYB 130740Z 1308/1320 16006KT P6SM -SHRA SCT012 OVC025 TEMPO 1308/1311 3SM -SHRA BR BKN005 OVC012 BECMG 1308/1310 20008KT FM131100 25006KT 2SM -SHRA BR BKN004 OVC010 TEMPO 1311/1314 6SM BR SCT005 OVC015 FM131400 23010KT P6SM BKN015 BKN100 TEMPO 1314/1318 SCT015 BKN100 FM131800 22010G20KT P6SM -SHRA BKN020 TEMPO 1318/1320 P6SM NSW BKN025 RMK FCST BASED ON AUTO OBS. NXT FCST BY 131400Z", "TAF CYYC 131140Z 1312/1412 VRB03KT P6SM SKC BECMG 1313/1315 28005KT FM131800 24010KT P6SM FEW250 FM140600 30012KT P6SM FEW120 SCT250 RMK NXT FCST BY 131500Z", "TAF CYYE 130640Z 1307/1319 17005KT P6SM BKN120 OVC240 RMK NXT FCST BY 131300Z", "TAF CYYF 130640Z 1307/1319 01008KT P6SM FEW240 RMK NXT FCST BY 131300Z", "TAF CYYG 131140Z 1312/1324 18008KT P6SM SCT160 BKN240 FM131500 18010KT P6SM FEW050 FEW240 RMK NXT FCST BY 131800Z", "TAF CYYH 131140Z 1312/1324 17015KT 1SM -SN BKN003 TEMPO 1312/1320 1 1/2SM -SN BKN006 BECMG 1316/1318 32018KT FM132000 32018KT P6SM BKN010 TEMPO 1320/1324 SCT010 RMK NXT FCST BY 131800Z", "TAF CYYJ 131140Z 1312/1412 29005KT P6SM FEW240 BECMG 1316/1318 09007KT BECMG 1404/1406 29005KT RMK NXT FCST BY 131800Z", "TAF CYYL 130640Z 1307/1319 32020G35KT WS005/32050KT 1SM -SN OVC015 TEMPO 1307/1310 3SM -SN OVC030 FM131000 33025G40KT 2SM -SN OVC015 TEMPO 1310/1314 6SM -SN OVC030 PROB30 1310/1314 1SM -SN FM131400 34025G35KT 3SM -SN OVC025 TEMPO 1314/1319 P6SM NSW OVC040 RMK FCST BASED ON AUTO OBS. NXT FCST BY 131300Z", "TAF CYYN 131140Z 1312/1324 30010KT P6SM SKC BECMG 1315/1317 32020G30KT BECMG 1322/1324 32015KT RMK FCST BASED ON AUTO OBS. NXT FCST BY 131800Z", "TAF CYYQ 131140Z 1312/1412 01010KT P6SM -RA OVC010 TEMPO 1312/1315 2SM -RA BR OVC005 BECMG 1313/1315 01025G35KT FM131500 01025G35KT 2SM -RA BR OVC005 TEMPO 1315/1324 6SM -RA BR OVC010 PROB30 1315/1324 3/4SM -RA BR OVC003 FM140000 01010KT 1SM -DZ BR OVC003 PROB30 1400/1405 1/2SM FG VV002 FM140500 VRB03KT P6SM SCT003 BKN008 PROB30 1405/1412 1SM -DZ BR OVC003 RMK NXT FCST BY 131800Z", "TAF CYYR 131140Z 1312/1412 VRB03KT P6SM FEW008 SCT025 BKN250 TEMPO 1312/1316 BKN008 OVC025 FM131600 06005KT P6SM SCT015 BKN025 TEMPO 1316/1318 BKN015 OVC025 FM131800 06005KT P6SM SCT020 SCT240 TEMPO 1318/1402 BKN020 FM140200 VRB03KT P6SM FEW008 BKN025 BKN100 RMK NXT FCST BY 131800Z", "TAF CYYT 131140Z 1312/1412 26012KT P6SM FEW020 BECMG 1319/1321 VRB03KT FM140200 23005KT P6SM BKN130 FM140500 24005KT P6SM FEW006 SCT140 FM140800 VRB03KT P6SM FEW004 RMK NXT FCST BY 131800Z", "TAF CYYU 130740Z 1308/1320 VRB03KT P6SM SCT015 BKN040 TEMPO 1308/1315 FEW008 BKN015 OVC030 FM131500 14008KT P6SM -SHRA BKN025 BKN070 RMK NXT FCST BY 131400Z", "TAF CYYY 130740Z 1308/1320 VRB03KT P6SM OVC080 TEMPO 1308/1310 P6SM -SHRA FM131000 15010KT P6SM SCT160 BECMG 1313/1315 18012G22KT FM131900 17012G22KT P6SM SCT050 SCT150 RMK NXT FCST BY 131400Z", "TAF CYYZ 131143Z 1312/1418 27010G20KT P6SM FEW003 OVC030 TEMPO 1312/1314 4SM -RA BR SCT003 OVC020 FM131400 29010G20KT P6SM BKN015 BKN090 TEMPO 1314/1318 SCT020 BKN100 BECMG 1315/1317 23012G22KT FM131800 22012G22KT P6SM -SHRA BKN025 FM132200 23012G22KT P6SM BKN030 BECMG 1322/1324 23010KT FEW040 FM141100 22008KT P6SM BKN040 RMK NXT FCST BY 131500Z", "TAF CYZE 130940Z 1310/1322 VRB03KT P6SM SCT015 TEMPO 1310/1314 5SM BR BKN015 FM131400 18008KT P6SM BKN025 TEMPO 1314/1322 P6SM -SHRA BKN015 BECMG 1314/1316 23012KT RMK FCST BASED ON AUTO OBS. NXT FCST BY 131400Z", "TAF CYZF 131140Z 1312/1412 12015G25KT P6SM FEW080 TEMPO 1312/1318 BKN080 PROB30 1312/1316 5SM -FZRA FM131800 14025G35KT P6SM BKN060 BECMG 1322/1324 15015G25KT FM140000 15015G25KT P6SM BKN080 TEMPO 1400/1409 SCT080 FM140900 17010G20KT P6SM SCT040 BKN080 TEMPO 1409/1412 5SM -SHRA BR FEW020 BKN040 OVC080 BECMG 1410/1412 32020G35KT RMK NXT FCST BY 131800Z", "TAF CYZH 130640Z 1307/1319 VRB03KT P6SM SKC FM131200 25005KT P6SM FEW120 SCT200 RMK FCST BASED ON AUTO OBS. NXT FCST BY 131300Z", "TAF CYZP 130640Z 1307/1319 15007KT P6SM BKN240 FM131500 16012KT P6SM SCT040 BKN070 TEMPO 1315/1319 P6SM -RA BKN040 RMK FCST BASED ON AUTO OBS. NXT FCST BY 131300Z", "TAF AMD CYZR 130748Z 1308/1320 28008KT P6SM BKN015 BKN100 TEMPO 1308/1316 SCT015 BKN100 BECMG 1312/1314 25010G20KT FM131600 23012G25KT P6SM BKN030 TEMPO 1316/1320 P6SM -SHRA RMK FCST BASED ON AUTO OBS. NXT FCST BY 131400Z", "TAF CYZS 130640Z 1307/1319 10018G28KT P6SM FEW140 FM131100 10015G25KT P6SM SCT008 BKN020 TEMPO 1311/1319 5SM -RA BR PROB30 1311/1316 4SM -FZRA BR RMK NXT FCST BY 131300Z", "TAF CYZT 130640Z 1307/1319 VRB03KT P6SM FEW002 SCT200 TEMPO 1307/1310 BKN002 FM131000 VRB03KT 1/2SM FG OVC002 TEMPO 1310/1319 P6SM NSW FEW200 RMK NXT FCST BY 131300Z", "TAF CYZV 131140Z 1312/1412 06007KT P6SM SCT080 BKN100 BECMG 1312/1313 08008G18KT FM131500 09012G22KT P6SM FEW060 BKN160 BECMG 1322/1324 08012KT FM140000 08012KT P6SM FEW040 TEMPO 1400/1412 BKN040 RMK NXT FCST BY 131800Z", "TAF CYZX 131140Z 1312/1412 00000KT P6SM SCT012 BKN250 FM131400 16005KT P6SM BKN250 FM131800 16010KT P6SM BKN180 FM132200 16008KT P6SM FEW030 SCT200 FM140100 15005KT P6SM SCT020 SCT200 FM140400 15005KT P6SM BKN015 FM140800 15008KT P6SM BKN025 RMK NXT FCST BY 131800Z", "TAF CZBF 130840Z 1309/1321 VRB03KT P6SM FEW060 BKN120 FM131200 20006KT P6SM BKN170 BECMG 1313/1315 18010G20KT FM131800 18010G20KT P6SM FEW050 SCT180 RMK FCST BASED ON AUTO OBS. NXT FCST BY 131400Z", "TAF AMD CZMD 131140Z 1311/1322 27008G18KT P6SM SCT015 OVC030 TEMPO 1311/1316 2SM -SHSN BKN015 OVC030 FM131600 20006KT 6SM -SHSNRA BKN015 OVC030 RMK FCST BASED ON AUTO OBS. NXT FCST BY 131600Z", "TAF CZSJ 130940Z 1310/1322 28008G18KT P6SM SCT012 OVC025 TEMPO 1310/1312 4SM -SHSNRA BKN008 OVC012 FM131200 27008G18KT P6SM SCT015 OVC030 TEMPO 1312/1318 2 1/2SM -SHSN BKN015 OVC030 PROB30 1312/1318 1 1/2SM -SHSN FM131800 25006KT 4SM -SHSNRA BKN015 OVC030 RMK FCST BASED ON AUTO OBS. NXT FCST BY 131600Z", "TAF AMD CZUM 130901Z 1309/1320 12005KT 1/2SM -RA -DZ FG OVC002 TEMPO 1309/1313 P6SM NSW OVC004 FM131300 13010KT P6SM SCT004 OVC012 TEMPO 1313/1315 2SM BR OVC004 FM131500 13008KT P6SM BKN015 BKN050 TEMPO 1315/1320 SCT015 BKN050 RMK FCST BASED ON AUTO OBS. NXT FCST BY 131400Z", "TAF CZVL 131140Z 1312/1324 VRB03KT P6SM FEW250 BECMG 1314/1316 24008KT RMK FCST BASED ON AUTO OBS. NXT FCST BY 131800Z", "TAF DAAD 131100Z 1312/1321 VRB02KT 8000 FEW030 BKN200 PROB30 TEMPO 1312/1317 FEW033CB", "TAF DAAE 131100Z 1312/1412 35008KT 9999 SCT016 SCT033 TEMPO 1312/1320 08012KT FEW023CB PROB30 TEMPO 1312/1316 4000 -SHRA TEMPO 1402/1409 2000 BR BKN008", "TAF DAAG 131100Z 1312/1412 04010KT 9999 FEW020 SCT080 TEMPO 1312/1318 FEW026CB", "TAF DAAJ 131100Z 1312/1412 VRB02KT CAVOK", "TAF DAAP 131100Z 1312/1321 13010KT CAVOK", "TAF DAAS 131100Z 1312/1412 33009KT 9999 SCT023 TEMPO 1312/1320 03014KT FEW030CB PROB40 TEMPO 1313/1319 4000 -TSRA FEW026CB TEMPO 1401/1409 3000 BR BKN008 PROB30 TEMPO 1403/1408 0500 FG BKN003", "TAF DAAT 131100Z 1312/1412 12008KT CAVOK", "TAF DAAV 131100Z 1312/1412 34012KT 9999 SCT016 SCT033 TEMPO 1312/1320 FEW023CB PROB30 TEMPO 1312/1316 4000 -SHRA BECMG 1320/1322 20006KT TEMPO 1402/1409 2000 BR BKN008", "TAF DAAY 131100Z 1312/1321 36010KT 9999 FEW030 SCT033 BECMG 1314/1316 15010KT TEMPO 1316/1320 TSRA FEW030CB BKN033", "TAF DABB 131100Z 1312/1412 02015KT 9999 FEW013 SCT030 PROB30 TEMPO 1313/1320 FEW023TCU BECMG 1320/1322 27007KT TEMPO 1402/1409 2000 BR BKN008 PROB30 TEMPO 1405/1408 0600 FG BKN003", "TAF DABC 131100Z 1312/1412 35008KT 9999 FEW013 SCT030 PROB40 TEMPO 1314/1321 05012KT FEW026CB TEMPO 1402/1409 3000 BR BKN008 PROB30 TEMPO 1405/1408 0600 FG BKN003", "TAF DABS 131100Z 1312/1412 29006KT 9999 FEW033 BKN100 TEMPO 1314/1323 35013KT FEW030CB PROB40 TEMPO 1315/1322 4000 -TSRA SCT026CB PROB30 TEMPO 1405/1408 3000 BR BKN008", "TAF DABT 131100Z 1312/1412 36004KT 9999 SCT020 TEMPO 1314/1322 06012KT FEW030CB PROB40 TEMPO 1314/1321 4000 -TSRA FEW026CB TEMPO 1401/1409 3000 BR BKN008 PROB30 TEMPO 1403/1408 0500 FG BKN003", "TAF DAFH 131100Z 1312/1321 28006KT 9999 SCT040 PROB30 TEMPO 1314/1317 VRB15G25KT 3000 DRSA FEW033CB", "TAF DAOB 131100Z 1312/1412 09006KT 9999 FEW026 PROB30 TEMPO 1312/1321 FEW023CB", "TAF DAOF 131100Z 1312/1321 10006KT CAVOK", "TAF DAOI 131100Z 1312/1412 VRB02KT 9999 FEW026 BECMG 1313/1315 06010KT PROB30 TEMPO 1316/1321 5000 -TSRA FEW026CB BECMG 1320/1323 VRB02KT TEMPO 1405/1408 4000 BR SCT010 BECMG 1410/1412 02010KT 9999 SCT026", "TAF DAON 131100Z 1312/1412 02010KT 9999 SCT026 PROB40 TEMPO 1316/1321 5000 TSRA FEW026CB BECMG 1320/1323 VRB02KT TEMPO 1404/1408 4000 BR SCT010 BECMG 1410/1412 02010KT 9999 SCT026", "TAF DAOO 131100Z 1312/1412 02010KT 9999 BKN026 PROB30 TEMPO 1316/1322 5000 -TSRA FEW026CB BECMG 1320/1323 VRB02KT TEMPO 1404/1408 4000 BR SCT010 BECMG 1410/1412 02010KT 9999 SCT026", "TAF DAOR 131100Z 1312/1321 12012KT 8000 FEW033 PROB30 TEMPO 1312/1318 12015G25KT 2000 DRDU FEW033CB PROB30 TEMPO 1314/1318 VRB20G30KT 4000 TSRA FEW030CB", "TAF DAOV 131100Z 1312/1321 02010KT 9999 SCT026 PROB40 TEMPO 1316/1320 TSRA FEW026CB BKN030", "TAF DATM 131100Z 1312/1321 14008KT CAVOK", "TAF DAUA 131100Z 1312/1412 07024KT 6000 DRSA SCT046 SCT133 PROB30 TEMPO 1312/1314 4000 BECMG 1313/1315 18012KT 6000 NSW BECMG 1320/1322 02015KT BECMG 1405/1407 10012KT PROB40 1406/1411 10022KT 4000 DRSA", "TAF DAUB 131100Z 1312/1412 28006KT 9999 FWE040 BKN100 PROB30 TEMPO 1312/1318 35014KT FEW033CB", "TAF DAUG 131100Z 1312/1412 10006KT 9999 SCT040 SCT230 PROB30 TEMPO 1312/1318 FEW040CB", "TAF DAUH 131100Z 1312/1412 33008KT 9999 FEW040 SCT100 PROB30 TEMPO 1312/1317 FEW033CB", "TAF DAUI 131100Z 1312/1412 08024KT 4000 DRSA NSC BECMG 1313/1315 08014KT 6000 NSW", "TAF DAUK 131100Z 1312/1321 35006KT 9999 FEW040 SCT233", "TAF DAUL 131100Z 1312/1321 08006KT 9999 SCT033 PROB30 TEMPO 1312/1317 FEW033CB BECMG 1313/1315 21010KT", "TAF DAUO 131100Z 1312/1321 08006KT CAVOK", "TAF DAUT 131100Z 1312/1321 12018KT 8000 SCT046 PROB30 TEMPO 1312/1318 FEW040CB PROB40 TEMPO 1318/1321 04022KT", "TAF DAUU 131100Z 1312/1321 36008KT 9999 SCT040 SCT100", "TAF DAUZ 131100Z 1312/1412 14015KT CAVOK BECMG 1317/1319 VRB02KT", "TAF DBBB 131100Z 1312/1418 24010KT 9999 SCT012 TEMPO 1313/1319 TS BKN012 FEW023CB PROB30 1314/1318 09015G30KT 4000 TSRA", "TAF DFFD 131100Z 1312/1418 06008KT 8000 NSC PROB40 TEMPO 1406/1410 4000 DU", "TAF DFOO 131100Z 1312/1412 VRB08KT 9999 FEW020 PROB30 TEMP0 1316/1324 TS FEW020 FEW033CB", "TAF DGAA 131130Z 1312/1418 19015KT 9999 SCT015 PROB30 1314/1320 4000 TSRA BKN010 FEW030CB BECMG 1400/1402 27005KT SCT010", "TAF DGLE 131130Z 1312/1412 16008KT 9999 SCT015 PROB40 1314/1320 4000 TSRA BKN010 FEW030CB BECMG 1323/1401 FEW010", "TAF DGSI 131130Z 1312/1412 33006KT 9999 SCT015 PROB40 1315/1321 17008KT 4000 TSRA BKN010 FEW030CB BECMG 1406/1408 5000 BR BKN010", "TAF DIAP 131141Z 1312/1418 23010KT 8000 FEW013 PROB30 TEMPO 1315/1318 FEW013 FEW020CB PROB30 TEMPO 1321/1324 4000 RADZ FEW011 BKN030 PROB30 TEMPO 1400/1406 4000 TSRA BKN010 FEW020CB PROB30 TEMPO 1415/1418 FEW013 FEW020CB", "TAF DIBK 131147Z 1312/1412 12006KT 8000 FEW011 PROB30 TEMPO 1312/1316 BKN013 PROB30 TEMPO 1317/1323 SCT013 FEW020CB PROB30 TEMPO 1404/1408 2000 BR BKN010", "TAF DIYO 131144Z 1312/1412 22008KT 8000 SCT015 PROB30 TEMPO 1312/1316 BKN015 PROB30 TEMPO 1318/1324 TS BKN010 FEW020CB PROB30 TEMPO 1404/1408 2000 BR BKN010", "TAF DNAA 131100Z 1312/1418 11007KT 9999 BKN010 TEMPO 1313/1316 23012KT BKN012 TEMPO 1316/1322 TS SCT013 FEW020CB PROB30 1317/1320 05018G36KT 5000 TSRA BKN008 FEW018CB BECMG 1322/1324 CAVOK BECMG 1409/1411 24010KT BKN011 TEMPO 1415/1418 TS SCT013 FEW020CB", "TAF DNAK 131100Z 1312/1418 24010KT 9999 BKN013 TEMPO 1312/1317 TS SCT013 FEW020CB PROB30 1313/1316 5000 -TSRA BKN008 FEW018CB BECMG 1317/1319 VRB02KT SCT009 TEMPO 1405/1408 5000 BR BECMG 1408/1410 25010KT BKN013 TEMPO 1412/1417 SCT013 FEW020CB", "TAF DNBE 131100Z 1312/1418 21010KT 9999 BKN012 TEMPO 1312/1316 TS SCT012 FEW020CB BECMG 1316/1318 VRB02KT SCT009 TEMPO 1404/1408 3000 BR BECMG 1408/1410 22010KT BKN012 TEMPO 1412/1417 SCT012 FEW020CB", "TAF DNGO 131100Z 1312/1418 21003KT CAVOK TEMPO 1314/1319 TS FEW014 FEW021CB", "TAF DNIB 131100Z 1312/1418 23010KT 9999 BKN013 TEMPO 1312/1317 TS SCT013 FEW020CB PROB30 1313/1316 5000 -TSRA BKN008 FEW018CB BECMG 1317/1319 VRB02KT SCT010 BECMG 1408/1410 24010KT BKN013 TEMPO 1412/1417 SCT013 FEW020CB", "TAF DNIL 131100Z 1312/1418 05005KT 9999 TSRA SCT010 FEW020CB BECMG 1313/1315 NSW FEW010 PROB30 TEMPO 1405/1408 VRB02KT 5000 BR BKN007 BECMG 1408/1410 21012KT BKN011 TEMPO 1414/1418 TS SCT013 FEW020CB", "TAF DNJO 131100Z 1312/1418 15018KT 9999 SCT008 BECMG 1313/1315 22010KT BKN010 TEMPO 1314/1319 TS SCT010 FEW018CB PROB30 1315/1318 04016G32KT 5000 TSRA BKN006 FEW015CB BECMG 1319/1322 14005KT FEW009 TEMPO 1404/1408 VRB02KT 3000 BR BKN005 BECMG 1408/1410 23012KT BKN008 TEMPO 1414/1418 TS SCT010 FEW017CB", "TAF DNKA 131100Z 1312/1418 14008KT 9999 SCT010 BECMG 1313/1315 22012KT BKN012 TEMPO 1315/1321 TS SCT013 FEW020CB PROB30 1316/1319 05016G32KT 5000 -TSRA BKN008 FEW018CB BECMG 1321/1324 13005KT CAVOK BECMG 1409/1411 24010KT BKN011 TEMPO 1415/1418 TS SCT013 FEW020CB", "TAF DNKN 131100Z 1312/1418 07011KT 8000 NSC TEMPO 1406/1412 5000 HZ", "TAF DNKT 131100Z 1312/1418 16010KT CAVOK TEMPO 1406/1412 5000 HZ", "TAF DNMA 131100Z 1312/1418 06006KT 9999 NSC TEMPO 1405/1411 5000 HZ", "TAF DNMM 131100Z 1312/1418 22010KT 8000 BKN013 FEW020CB TEMPO 1312/1317 5000 -TSRA BKN008 FEW018CB BECMG 1317/1319 SCT010 BECMG 1319/1321 VRB02KT BECMG 1408/1410 23010KT BKN013 TEMPO 1412/1417 SCT013 FEW020CB", "TAF DNSO 131100Z 1312/1418 10005KT 7000 NSC TEMPO 1407/1413 5000 HZ", "TAF DNSU 131100Z 1312/1418 20010KT 9999 BKN012 TEMPO 1312/1316 TS SCT012 FEW020CB BECMG 1316/1318 VRB02KT SCT009 TEMPO 1404/1408 3000 BR BECMG 1408/1410 21010KT BKN012 TEMPO 1412/1417 SCT012 FEW020CB", "TAF DNYO 131100Z 1312/1418 33005KT 9999 FEW012 TEMPO 1314/1319 TS SCT014 FEW020CB", "TAF DRRN 131100Z 1312/1418 08008KT 4500 DU NSC BECMG 1320/1322 6000 NSW TEMPO 1407/1410 3500 DU", "TAF DRZA 131100Z 1312/1412 12010KT 8000 NSC TEMPO 1312/1316 3500 DU", "TAF DRZR 131100Z 1312/1412 08008KT 8000 NSC", "TAF DTKA 130900Z 1310/1319 18003KT 9999 SCT020 SCT030 TEMPO 1310/1319 5000 TSRA FEW023CB BECMG 1310/1312 28012KT", "TAF DTMB 131100Z 1312/1412 01010KT 9999 FEW023 PROB30 TEMPO 1313/1319 TSRA FEW026CB BECMG 1404/1406 30015KT", "TAF DTNH 131100Z 1312/1412 34010KT 9999 SCT033 PROB40 TEMPO 1313/1322 VRB20G30KT TSRA FEW026CB BECMG 1316/1318 35010KT BECMG 1409/1411 32018KT", "TAF DTTA 131100Z 1312/1412 26010KT 9999 SCT026 PROB40 TEMPO 1313/1319 TSRA BKN026 FEW030CB BECMG 1409/1411 32018KT", "TAF DTTB 130900Z 1310/1319 23005KT 8000 SCT016 SCT030 TEMPO 1310/1319 5000 TSRA BKN016 FEW023CB SCT030 BECMG 1310/1312 27012KT", "TAF DTTF 130900Z 1310/1319 05015KT 8000 SCT026 SCT033 PROB40 TEMPO 1315/1319 VRB15G25KT 5000 -TSRA SCT026 FEW030CB SCT033", "TAF DTTG 130900Z 1310/1319 07010KT 8000 SCT020 SCT030", "TAF DTTJ 131100Z 1312/1412 04010KT 9999 FEW033", "TAF DTTR 130900Z 1310/1319 18018KT CAVOK PROB30 TEMPO 1312/1315 4000 SA", "TAF DTTX 131100Z 1312/1412 04010KT 8000 FEW020 SCT030 BECMG 1322/1324 34010KT", "TAF DTTZ 131100Z 1312/1412 04006KT 9999 BKN033 BECMG 1313/1315 10010KT PROB30 TEMPO 1319/1404 RA FEW026TCU", "TAF DXNG 131100Z 1312/1412 VRB05KT FEW008 PROB30 TEMPO 1315/1320 TSRA BKN006 FEW016CB", "TAF DXXX 131100Z 1312/1418 20010KT 9999 SCT014 TEMPO 1315/1321 TS BKN010 FEW020CB PROB30 4000 TSRA BECMG 1400/1402 26005KT BECMG 1408/1410 20010KT", "TAF EBAW 131120Z 1312/1321 21007KT 9999 BKN030 PROB30 TEMPO 1312/1319 4000 RA SHRA BKN012 BECMG 1319/1321 BKN008 TEMPO 1319/1321 3000 -DZRA BKN003", "TAF EBBE 130541Z 1307/1316 22010KT 9999 FEW030 BKN060 TEMPO 1307/1316 5000 -RA FEW009 SCT020 BKN050 PROB40 TEMPO 1307/1316 2000 RA SCT005 BKN015 OVC030", "TAF EBBL 130541Z 1307/1316 20008KT 9999 SCT030 TEMPO 1308/1316 5000 -RA -SHRA SCT015 BKN020 TEMPO 1312/1316 20010G20KT 2000 RA SHRA SCT010 BKN015", "TAF EBBR 131120Z 1312/1418 21007KT 9999 BKN030 PROB30 TEMPO 1312/1319 4000 RA SHRA BKN012 BECMG 1319/1321 BKN008 TEMPO 1319/1410 3000 -DZRA PROB40 TEMPO 1323/1409 1500 DZ BR BKN003 BECMG 1410/1412 SCT012 BKN020", "TAF EBCI 131120Z 1312/1418 22008KT 9999 BKN030 PROB30 TEMPO 1312/1319 4000 RA SHRA BKN012 BECMG 1319/1321 BKN006 TEMPO 1319/1410 2500 -DZRA PROB40 TEMPO 1322/1410 1500 DZ BR BKN002 BECMG 1412/1414 BKN012", "TAF EBCV 130541Z 1307/1316 21007KT 7000 -RA SCT020 BKN060 OVC100 TEMPO 1307/1309 9000 NSW FEW020 OVC060 TEMPO 1309/1313 3500 RA BKN009 BKN030 OVC060 BECMG 1314/1316 8000 NSW BKN020 TEMPO 1313/1315 4000 -RADZ BKN013 OVC060 BY EBWM", "TAF EBDT 130541Z 1307/1316 21010KT 9999 SCT030 BKN150 TEMPO 1311/1315 21010G20KT 7000 -RA SCT010 OVC050 BECMG 1314/1316 25007G18KT 9999 SCT020 BKN060 PROB40 TEMPO 1314/1316 7000 -SHRA SCT010 BKN050", "TAF EBFN 130541Z 1307/1316 22007KT 9999 FEW015 SCT025 BKN060 TEMPO 1307/1310 5000 -RA -RADZ SCT010 BKN020 OVC050 PROB30 TEMPO 1307/1309 3000 RA SCT007 BKN015 BKN040 BY EBWM", "TAF EBFS 130541Z 1307/1316 20010KT 9999 SCT030 BKN050 BECMG 1309/1311 SCT020 BKN030 TEMPO 1312/1316 22010G20KT 6000 -SHRA -RA SCT010 BKN020 TEMPO 1314/1316 22012G22KT 4000 SHRA RA SCT006 BKN010", "TAF EBLG 131120Z 1312/1418 22006KT 9999 BKN030 PROB30 TEMPO 1312/1319 4000 RA SHRA BKN012 BECMG 1319/1321 BKN007 TEMPO 1319/1410 2500 -DZRA PROB40 TEMPO 1322/1409 1500 DZ BR BKN002 BECMG 1410/1413 BKN012", "TAF EBOS 131120Z 1312/1418 21009KT 9999 SCT008 BKN012 TEMPO 1312/1313 4500 -RADZ SCT004 BKN008 PROB30 TEMPO 1312/1313 2500 RADZ BKN004 TEMPO 1313/1320 4500 -SHRA BKN008 BECMG 1320/1409 3000 -DZRA PROB30 TEMPO 1405/1409 1500 BR BKN004 BECMG 1409/1411 SCT020", "TAF EDAC 131100Z 1312/1321 22009KT 9999 SCT025 BECMG 1314/1317 19004KT", "TAF EDAH 131100Z 1312/1321 17006KT 9999 SCT045", "TAF EDDB 131100Z 1312/1412 20005KT CAVOK TEMPO 1403/1407 2000 BR", "TAF EDDC 131100Z 1312/1412 20005KT 9999 SCT040 TEMPO 1401/1405 3500 -RA", "TAF EDDE 131100Z 1312/1412 22007KT 9999 SCT030", "TAF EDDF 131100Z 1312/1418 21005KT 9999 SCT005 BKN030 PROB30 TEMPO 1312/1313 4500 BR BKN005 PROB30 TEMPO 1313/1320 RA TEMPO 1320/1410 4000 -RADZ BR BKN008 PROB30 TEMPO 1413/1418 RA", "TAF EDDG 131100Z 1312/1412 19005KT 9999 SCT020 BKN030 PROB30 TEMPO 1313/1320 RA TEMPO 1322/1409 3000 BR BKN008 PROB30 TEMPO 1402/1408 1200 BR BKN002", "TAF EDDH 131100Z 1312/1418 19006KT 9999 SCT035 PROB30 TEMPO 1316/1320 4000 -RA BKN014 BECMG 1320/1323 OVC007 TEMPO 1323/1408 2000 -DZ BR BKN003 BECMG 1408/1411 BKN030", "TAF EDDK 131100Z 1312/1418 17004KT 9999 SCT020 BKN030 PROB30 TEMPO 1314/1318 RA TEMPO 1404/1408 BKN014 TEMPO 1410/1414 RA", "TAF EDDL 131100Z 1312/1418 18007KT 9999 SCT020 BKN030 PROB30 TEMPO 1312/1318 RA TEMPO 1400/1415 BKN012 TEMPO 1410/1415 RA", "TAF EDDM 131100Z 1312/1418 23003KT 9999 BKN020 TEMPO 1321/1405 2500 RADZ BKN005 TEMPO 1405/1409 BKN008", "TAF EDDN 131100Z 1312/1412 16005KT 9999 SCT010 BKN015 TEMPO 1312/1313 BKN010 TEMPO 1319/1323 4000 SHRA BKN012TCU TEMPO 1323/1405 2500 RADZ BKN005 TEMPO 1406/1409 BKN008", "TAF EDDP 131100Z 1312/1412 21008KT 9999 SCT025", "TAF EDDR 131100Z 1312/1412 22005KT 9999 BKN030 PROB30 TEMPO 1312/1318 RA BKN006 TEMPO 1318/1412 4000 -RADZ BR BKN004", "TAF EDDS 131100Z 1312/1412 VRB03KT 9999 BKN030 TEMPO 1312/1318 20005KT TEMPO 1314/1321 RA PROB30 TEMPO 1314/1321 TSRA BKN020CB PROB40 TEMPO 1321/1409 4000 -RADZ BR BKN008", "TAF EDDV 131100Z 1312/1412 19006KT 9999 SCT040 PROB30 TEMPO 1318/1321 4000 -RA TEMPO 1321/1408 BKN012 PROB30 TEMPO 1400/1406 3500 -DZ BR BKN008", "TAF EDDW 131100Z 1312/1412 19007KT 9999 SCT020 PROB40 TEMPO 1315/1320 4000 -RA BKN014 BECMG 1320/1323 OVC007 TEMPO 1322/1408 2000 -DZ BR BKN003 PROB30 TEMPO 1400/1407 0700 FG BKN001 BECMG 1408/1411 SCT030", "TAF EDFH 131100Z 1312/1412 23006KT 9999 BKN020 PROB30 TEMPO 1312/1318 RA BKN006 TEMPO 1318/1412 3000 -RADZ BCFG BKN003 PROB30 TEMPO 1400/1410 0400 FG VV001", "TAF EDFM 131100Z 1312/1321 21005KT 9999 BKN030 PROB30 TEMPO 1312/1313 DZ BKN012 TEMPO 1313/1320 RA PROB30 TEMPO 1313/1318 SHRA BKN020CB TEMPO 1320/1321 4000 -RADZ BR BKN008", "TAF EDGS 131100Z 1312/1321 22007KT 7000 BKN020 TEMPO 1313/1321 2500 RADZ BKN004", "TAF EDHI 131100Z 1312/1321 19006KT 9999 SCT035 PROB30 TEMPO 1316/1321 4000 -RA BKN014", "TAF EDHK 131100Z 1312/1319 21007KT 9999 SCT030 TEMPO 1315/1319 4000 -RA BKN012 PROB30 TEMPO 1317/1318 BKN008", "TAF EDHL 131100Z 1312/1321 19005KT 9999 SCT035 PROB30 TEMPO 1317/1321 4000 -RA BKN014", "TAF EDJA 131100Z 1312/1321 25006KT 9999 BKN015 BECMG 1317/1319 BKN010 TEMPO 1318/1321 4000 SHRA BKN008TCU", "TAF EDLN 131100Z 1312/1321 21005KT 9999 SCT020 BKN030 PROB30 TEMPO 1312/1320 RA", "TAF EDLP 131100Z 1312/1412 21008KT 9999 BKN030 PROB30 TEMPO 1315/1322 SHRA SCT025TCU BECMG 1322/1324 15005KT PROB30 TEMPO 1402/1408 4000 BR BKN007", "TAF EDLV 131100Z 1312/1412 23006KT 9999 BKN025 PROB40 TEMPO 1312/1318 4000 RADZ BECMG 1321/1324 17004KT BKN007 TEMPO 1322/1409 2000 BR BKN004 TEMPO 1409/1412 4000 -RADZ BECMG 1410/1412 BKN010", "TAF EDLW 131100Z 1312/1412 19008KT 9999 BKN030 PROB30 TEMPO 1314/1320 SHRA SCT020TCU TEMPO 1400/1409 BKN014", "TAF EDMA 131100Z 1312/1321 24004KT 9999 SCT015 BKN020 TEMPO 1319/1321 SHRA BKN015TCU", "TAF EDMO 131100Z 1312/1321 24004KT 9999 BKN015 BECMG 1316/1318 BKN010 TEMPO 1318/1321 4000 SHRA BKN008TCU", "TAF EDNY 131100Z 1312/1412 VRB02KT 9999 SCT020 TEMPO 1318/1323 4000 RADZ BKN012 PROB30 TEMPO 1323/1405 4000 BR BKN005", "TAF EDQM 131100Z 1312/1321 21005KT 4000 BR OVC006 BECMG 1312/1314 7000 BKN010 BECMG 1314/1316 SCT020 BECMG 1318/1320 BKN010 TEMPO 1319/1321 4000 -RA BR OVC006", "TAF EDSB 131100Z 1312/1412 21005KT 9999 BKN030 TEMPO 1313/1320 RA PROB30 TEMPO 1313/1320 SHRA BKN020CB PROB30 TEMPO 1320/1409 BKN014", "TAF EDTL 131100Z 1312/1321 21005KT 9999 BKN030 TEMPO 1313/1320 RA PROB30 TEMPO 1313/1320 TSRA BKN020CB PROB30 TEMPO 1320/1321 BKN014", "TAF EDTY 131100Z 1312/1321 22005KT 9999 FEW020 BECMG 1316/1318 BKN010 TEMPO 1317/1321 4000 -RA BR OVC006", "TAF EDVE 131100Z 1312/1321 20005KT 9999 SCT040", "TAF EDVK 131100Z 1312/1321 20005KT 8000 BKN025 TEMPO 1318/1321 4000 -RADZ BKN004", "TAF EDXW 131100Z 1312/1321 20012KT 9999 BKN020 TEMPO 1312/1317 4000 -RA BKN010 PROB30 TEMPO 1312/1315 SHRA BKN008 BKN020TCU BECMG 1317/1319 24007KT PROB30 TEMPO 1317/1321 BKN012", "TAF EEEI 131130Z 1312/1412 19007KT 9999 SCT010 PROB40 TEMPO 1312/1315 BKN008 FEW020CB TEMPO 1320/1406 1500 BCFG BR BKN004 TEMPO 1408/1412 4000 SHRA BKN006 BKN015 FEW020CB", "TAF EETN 131130Z 1312/1412 19007KT 9999 BKN015 TEMPO 1312/1315 BKN010 PROB40 TEMPO 1315/1323 3000 RA BR BKN005 OVC015 PROB40 TEMPO 1323/1405 0500 FG VV002 TEMPO 1409/1412 4000 SHRA BKN008 SCT015CB", "TAF EFHA 131129Z 1312/1315 19009KT 9999 BKN015 TEMPO 1312/1315 BKN012", "TAF EFHK 131129Z 1312/1412 19009KT 9999 SCT012 BKN025 TEMPO 1312/1318 BKN009 TEMPO 1318/1320 BKN013 FEW020TCU BECMG 1320/1322 BKN007 TEMPO 1322/1412 4000 BR SCT005 BKN040", "TAF EFJY 131129Z 1312/1412 19009KT 9999 SCT015 BKN025 TEMPO 1312/1321 BKN014 BECMG 1321/1323 BKN008 TEMPO 1323/1412 4500 -DZRA BKN004", "TAF EFKK 131137Z 1312/1321 17012KT 9999 BKN009 TEMPO 1312/1318 BKN012", "TAF EFKS 131131Z 1312/1315 20010KT CAVOK BECMG 1313/1315 5000 BKN008", "TAF EFKT 130834Z 1309/1312 18008KT 9999 FEW006 BKN035 TEMPO 1309/1312 5000 BKN006", "TAF EFKU 131132Z 1312/1412 19009KT 9999 SCT020 TEMPO 1320/1403 BKN012 BECMG 1403/1405 BKN008 TEMPO 1405/1412 6000 -RADZ BKN012", "TAF EFMA 131137Z 1312/1321 21012KT 9999 FEW012 PROB30 TEMPO 1312/1314 BKN012", "TAF EFOU 131131Z 1312/1412 20009KT 9999 SCT008 BKN015 TEMPO 1312/1402 BKN008 BECMG 1402/1404 BKN008 TEMPO 1404/1412 4000 BR BKN004 PROB30 1407/1412 0500 FG VV001", "TAF EFPO 131137Z 1312/1321 19008KT 9999 BKN015 TEMPO 1312/1315 BKN013 PROB30 TEMPO 1312/1313 BKN009", "TAF EFRO 131131Z 1312/1412 19010KT 0400 FG VV001 TEMPO 1312/1317 3000 BR BKN003 BECMG 1317/1319 6000 NSW BKN005 TEMPO 1319/1401 1200 BR BKN003 BECMG 1401/1403 VRB02KT 3000 BR BKN002 PROB40 1403/1409 0400 FG VV001", "TAF EFSA 131132Z 1312/1318 20009KT CAVOK BECMG 1316/1318 BKN013", "TAF EFSI 131137Z 1312/1321 21010KT 9999 BKN016 TEMPO 1312/1318 BKN014", "TAF EFTP 131129Z 1312/1412 19009KT 9999 SCT015 BKN025 TEMPO 1312/1318 BKN014 BECMG 1321/1323 BKN012 TEMPO 1323/1403 4000 BR BKN006 PROB30 TEMPO 1403/1412 2500 BR BKN004 SCT025TCU", "TAF EFTU 131129Z 1312/1412 21010KT 9999 FEW015 BKN040 TEMPO 1312/1322 BKN012 BECMG 1322/1324 BKN012 TEMPO 1400/1412 7000 -SHRA BKN008 FEW020TCU", "TAF EFUT 131132Z 1312/1318 20008KT 9999 SCT014 BKN040 TEMPO 1312/1318 BKN012 PROB40 1315/1318 BKN006", "TAF COR EFVA 131140Z 1312/1412 22012KT 9999 BKN015 BKN035 TEMPO 1312/1320 BKN009 TEMPO 1320/1401 BKN013 BECMG 1401/1403 7000 -RADZ BKN006 TEMPO 1403/1409 2000 BR BKN004 BECMG 1409/1411 9999 BKN025", "TAF EGAA 131055Z 1312/1412 19012KT 9999 FEW012 SCT025 PROB30 TEMPO 1314/1318 5000 +SHRA BKN014 TEMPO 1319/1410 BKN008 PROB30 TEMPO 1320/1407 BKN004 PROB40 TEMPO 1400/1412 6000 SHRA", "TAF EGAC 131056Z 1312/1321 20012KT 9999 FEW015 SCT025 PROB30 TEMPO 1316/1319 5000 +SHRA BKN014", "TAF EGAE 131056Z 1312/1321 20012KT 9999 FEW015 SCT025 PROB40 TEMPO 1312/1316 21015G25KT 5000 +SHRA BKN012", "TAF EGBB 131057Z 1312/1412 23004KT 9999 SCT035 PROB30 TEMPO 1403/1409 6000 BKN004 PROB30 TEMPO 1409/1412 8000 -RA BKN008", "TAF EGBJ 131057Z 1312/1319 VRB02KT 9999 SCT040 PROB40 TEMPO 1312/1314 8000 BKN008", "TAF EGCC 131057Z 1312/1418 19005KT 9999 FEW025 SCT035 PROB30 TEMPO 1321/1404 8000 -RA -SHRA PROB40 TEMPO 1404/1410 4000 BR BKN004 TEMPO 1415/1418 7000 RA SHRA BKN008", "TAF EGCK 131100Z 1312/1321 19009KT 9999 FEW025 SCT030 PROB40 TEMPO 1316/1321 7000 -SHRA -RA BKN009", "TAF EGCN 131059Z 1312/1412 17005KT 9999 FEW025 SCT035 PROB40 TEMPO 1318/1410 6000", "TAF EGDM 130622Z 1307/1315 19002KT 0700 FG FEW025 BECMG 1307/1309 9999 NSW TEMPO 1307/1309 5000 -RADZ SCT003 TEMPO 1309/1312 SCT013", "TAF EGDR 130456Z 1306/1315 VRB02KT 9999 FEW010 SCT025 TEMPO 1306/1315 SCT010 PROB40 TEMPO 1306/1309 4000 -RADZ BR SCT004 PROB30 TEMPO 1306/1309 0500 FG SCT000 BECMG 1308/1311 33005KT", "TAF EGDY 130520Z 1306/1315 VRB03KT 1000 BCFG FEW000 SCT002 PROB40 TEMPO 1307/1309 0500 FG SCT000 BECMG 1309/1311 5000 BR FEW005 SCT040 BECMG 1312/1314 9999 NSW SCT028", "TAF EGEC 131102Z 1312/1317 18012KT 9999 FEW025 TEMPO 1312/1317 19015G25KT TEMPO 1313/1315 7000 -RA PROB30 TEMPO 1313/1315 4000 RA", "TAF EGEO 131102Z 1312/1317 16010KT 9999 FEW020 TEMPO 1312/1317 7000 -RA PROB30 TEMPO 1312/1317 19015G25KT 4000 RA BKN012", "TAF EGFF 131102Z 1312/1412 24004KT 9999 FEW035 PROB30 TEMPO 1312/1314 8000 BKN008 TEMPO 1321/1412 8000 -RA BKN010 PROB30 TEMPO 1403/1412 4000 RADZ BKN006", "TAF EGGD 131102Z 1312/1412 VRB03KT 9999 FEW035 PROB30 TEMPO 1312/1314 8000 BKN008 BECMG 1318/1321 20010KT TEMPO 1323/1412 8000 -RA BKN008 PROB30 TEMPO 1406/1412 4000 RADZ BKN004", "TAF AMD EGGP 131153Z 1312/1412 17005KT 9999 FEW025 SCT035 PROB30 TEMPO 1320/1403 8000 -RA -SHRA PROB40 TEMPO 1403/1410 6000 BECMG 1409/1412 24010KT", "TAF EGGW 131102Z 1312/1412 20005KT 9999 SCT025 PROB30 TEMPO 1312/1314 8000 BKN008 TEMPO 1321/1408 8000 PROB30 TEMPO 1400/1408 3000 BR BKN004 PROB30 TEMPO 1408/1412 9000 BKN008", "TAF EGHC 131057Z 1312/1318 03004KT 9999 SCT015 PROB30 TEMPO 1315/1318 BKN010", "TAF EGHE 131057Z 1312/1318 16005KT 9999 SCT020 PROB40 TEMPO 1312/1318 BKN012", "TAF EGHH 131057Z 1312/1321 05004KT 9999 SCT020 PROB40 TEMPO 1312/1314 BKN014", "TAF EGHI 131057Z 1312/1321 VRB03KT 9999 FEW030 PROB40 TEMPO 1312/1314 BKN014", "TAF EGHQ 131057Z 1312/1321 27004KT 9999 SCT020 PROB30 TEMPO 1315/1318 BKN014", "TAF COR EGJA 131114Z 1312/1321 33010KT 9999 BKN008 PROB30 TEMPO 1312/1315 2000 -DZ BR FEW000 BKN001 TEMPO 1315/1321 BKN015", "TAF EGJB 131101Z 1312/1321 28010KT 5000 -DZ BR BKN002 PROB30 TEMPO 1312/1314 0800 DZ BCFG BKN000 PROB40 TEMPO 1312/1314 9999 NSW BKN005 BECMG 1314/1316 34008KT 9999 NSW SCT005 BKN012 TEMPO 1316/1321 BKN015", "TAF COR EGJJ 131114Z 1312/1321 26015KT 4000 -DZ SCT002 BKN003 TEMPO 1312/1314 2000 DZ BR BKN002 PROB40 TEMPO 1312/1314 0600 +DZ BCFG BKN000 PROB30 TEMPO 1312/1315 9999 NSW BKN005 BECMG 1315/1317 32006KT 9999 NSW SCT005 BKN012", "TAF EGKA 131058Z 1312/1319 10006KT 9999 SCT025 PROB30 TEMPO 1312/1317 9000 -RA BKN008", "TAF EGKB 131058Z 1312/1321 15004KT 9999 SCT025 PROB30 TEMPO 1312/1321 9000 -RA BKN009", "TAF EGKK 131055Z 1312/1418 VRB02KT 9999 SCT045 PROB30 TEMPO 1312/1314 BKN012 TEMPO 1320/1410 8000 PROB30 TEMPO 1321/1409 4000 BR PROB30 TEMPO 1406/1410 BKN012 BECMG 1409/1412 20010KT TEMPO 1410/1418 6000 RA BKN009 PROB30 TEMPO 1412/1418 4000 RADZ BKN004", "TAF EGLC 131058Z 1312/1321 02004KT 9999 SCT035 PROB30 TEMPO 1312/1321 9000", "TAF EGLF 131058Z 1312/1321 01004KT 9999 SCT020 PROB30 TEMPO 1312/1315 BKN008", "TAF EGLL 131112Z 1312/1418 35003KT 9999 FEW007 SCT025 PROB30 TEMPO 1403/1409 7000 BKN006 TEMPO 1409/1418 7000 RA PROB30 TEMPO 1412/1415 4000 RADZ BKN007 BECMG 1415/1418 BKN007", "TAF EGMC 131058Z 1312/1321 10005KT 9999 SCT020 PROB30 TEMPO 1312/1313 9000 -RA BKN010 PROB30 TEMPO 1320/1321 9000", "TAF EGMD 131058Z 1312/1321 10005KT 9999 SCT020 PROB30 TEMPO 1312/1315 4000 BR BKN009 PROB30 TEMPO 1315/1321 9000 -RA BKN009", "TAF EGNH 131100Z 1312/1320 18005KT 9999 FEW025 PROB30 TEMPO 1318/1320 8000 -SHRA -RA BKN014", "TAF EGNJ 131100Z 1312/1321 24004KT 9999 FEW028", "TAF EGNM 131059Z 1312/1412 19005KT 9999 FEW025 SCT035 PROB30 TEMPO 1322/1406 8000 -RA -SHRA BKN008 PROB40 TEMPO 1406/1410 6000", "TAF EGNO 131100Z 1312/1318 18005KT 9999 FEW025", "TAF EGNR 131100Z 1312/1320 18005KT 9999 FEW025 SCT035", "TAF EGNS 131100Z 1312/1321 17010KT 9999 FEW025", "TAF EGNT 131059Z 1312/1412 18007KT 9999 FEW025 PROB30 TEMPO 1400/1404 8000 -RA -SHRA BKN014 TEMPO 1409/1412 6000 RA BKN012", "TAF EGNV 131100Z 1312/1321 18005KT 9999 FEW028 PROB30 TEMPO 1318/1321 7000", "TAF EGNX 131057Z 1312/1412 VRB03KT 9999 SCT035 BECMG 1319/1322 20010KT PROB30 TEMPO 1404/1409 BKN006 PROB30 TEMPO 1409/1412 8000 -RA BKN008", "TAF EGOS 130552Z 1307/1315 VRB05KT 7000 BR SCT035 BECMG 1307/1309 9999 NSW PROB40 1307/1308 0500 BCFG PROB30 TEMPO 1309/1311 SCT010 TEMPO 1311/1314 SCT020", "TAF EGOV 130458Z 1307/1315 08003KT CAVOK PROB40 TEMPO 1312/1315 SCT020 BKN035", "TAF EGPA 131100Z 1312/1321 18007KT 9999 FEW030 BECMG 1314/1317 18017KT TEMPO 1314/1317 5000 RA SHRA TEMPO 1316/1321 19020G30KT", "TAF EGPB 131100Z 1312/1321 24014KT 9999 FEW015 BECMG 1315/1318 18022KT TEMPO 1317/1320 7000 -RA PROB30 TEMPO 1317/1320 4000 RA PROB40 TEMPO 1319/1321 19025G35KT", "TAF EGPC 131100Z 1312/1321 18009KT 9999 FEW025 TEMPO 1314/1316 5000 RA SHRA PROB40 TEMPO 1315/1321 19015G25KT", "TAF AMD EGPD 131155Z 1312/1412 11006KT 9999 FEW035 BECMG 1312/1315 19010KT TEMPO 1317/1320 7000 -RA PROB30 TEMPO 1317/1403 19015G25KT PROB30 TEMPO 1320/1323 BKN009 BECMG 1402/1405 24006KT PROB30 TEMPO 1402/1404 8000 -RA", "TAF EGPE 131100Z 1312/1321 23006KT 9999 FEW025 PROB40 TEMPO 1313/1318 7000 -RA TEMPO 1315/1321 23015G25KT", "TAF EGPF 131057Z 1312/1412 20009KT 9999 FEW040 TEMPO 1315/1319 7000 -RA PROB30 TEMPO 1315/1319 22015G25KT 4000 RA BKN012 PROB40 TEMPO 1401/1403 23015G25KT 6000 RA BKN012 TEMPO 1410/1412 5000 RA SHRA", "TAF EGPH 131057Z 1312/1412 22009KT 9999 FEW040 TEMPO 1318/1322 22015G25KT 7000 -RA PROB30 TEMPO 1318/1322 4000 RA SHRA PROB40 TEMPO 1402/1405 23015G25KT 7000 -RA BKN012 PROB40 TEMPO 1410/1412 6000 RA SHRA", "TAF EGPI 131102Z 1312/1318 18015KT 9999 FEW025 TEMPO 1312/1316 19018G28KT 7000 -RA PROB30 TEMPO 1312/1316 4000 RA BKN009 BECMG 1316/1318 24015KT", "TAF EGPK 131057Z 1312/1412 18012KT 9999 FEW024 TEMPO 1315/1319 7000 -RA PROB30 TEMPO 1316/1319 4000 RA BKN012 PROB30 TEMPO 1400/1403 22015G25KT 7000 -RA BKN012 BECMG 1403/1406 25007KT", "TAF EGPL 131100Z 1312/1318 19019KT 9999 FEW010 BKN020 TEMPO 1312/1313 19022G35KT 7000 -RA PROB30 TEMPO 1312/1313 4000 RA SHRA BKN009 BECMG 1313/1315 25015KT BECMG 1315/1318 19017KT", "TAF EGPN 131102Z 1312/1321 VRB02KT 9999 FEW015 BECMG 1312/1315 20010KT PROB40 TEMPO 1317/1321 6000 RA BKN012", "TAF EGPO 131100Z 1312/1321 18017KT 9999 FEW010 BKN035 TEMPO 1312/1315 18020G30KT 6000 RA SHRA PROB40 TEMPO 1312/1315 19025G40KT PROB30 TEMPO 1312/1314 4000 +RA BKN010 BECMG 1315/1318 24012KT TEMPO 1315/1318 24015G25KT", "TAF EGPU 131102Z 1312/1318 18024KT 9999 FEW015 TEMPO 1312/1318 6000 RA SHRA PROB40 TEMPO 1312/1316 BKN012 PROB30 TEMPO 1312/1314 20028G38KT BECMG 1315/1318 24017KT", "TAF EGQL 130423Z 1306/1315 26007KT 9999 FEW030", "TAF EGQS 130422Z 1306/1324 22005KT 9999 FEW045 PROB30 TEMPO 1314/1318 7000 SHRA TEMPO 1316/1320 21016G26KT", "TAF EGSC 131056Z 1312/1317 VRB02KT 9999 SCT030 PROB40 TEMPO 1312/1315 7000 BKN010", "TAF EGSH 131100Z 1312/1321 VRB03KT 9999 FEW025 SCT035 PROB30 TEMPO 1318/1321 6000", "TAF EGSS 131102Z 1312/1418 20004KT 9999 SCT035 TEMPO 1321/1409 8000 PROB30 TEMPO 1400/1409 4000 BR BKN004 PROB30 TEMPO 1409/1412 9000 BKN010 TEMPO 1412/1418 6000 RA BKN010 PROB30 TEMPO 1415/1418 2500 RADZ BKN004", "TAF EGSY 131057Z 1312/1321 06004KT 9999 FEW035 PROB40 TEMPO 1312/1314 8000 BKN008", "TAF EGTC 131056Z 1312/1318 10003KT 9999 SCT020 TEMPO 1312/1315 8000 BKN010", "TAF EGTE 131057Z 1312/1321 34003KT 9999 SCT020 PROB40 TEMPO 1312/1314 8000 BKN008", "TAF AMD EGTK 131148Z 1312/1321 VRB02KT 9999 SCT015 TEMPO 1312/1315 4000 BR BKN004", "TAF AMD EGUL 130624Z 1305/1411 26006KT 1600 BR SCT005 BKN008 QNH2997INS TEMPO 1306/1309 0400 FG BKN005 BECMG 1311/1312 VRB06KT 9999 NSW BKN010 QNH2991INS BECMG 1314/1315 VRB06KT 9999 BKN015 QNH2990INS BECMG 1320/1321 VRB03KT 8000 BR BKN008 QNH2989INS BECMG 1323/1324 VRB06KT 6000 BR SCT008 BKN015 QNH2978INS TX15/1315Z TN09/1405Z", "TAF EGUN 130400Z 1304/1410 24005KT 8000 BR SCT030 BKN080 620805 QNH3001INS BECMG 1304/1305 21006KT 4000 BR BKN010 620705 QNH3000INS TEMPO 1305/1311 2400 BR OVC005 BECMG 1310/1311 22009KT 9999 NSW SCT007 BKN020 620703 QNH3000INS BECMG 1314/1315 22009KT 9999 SCT020 BKN030 620802 QNH2993INS BECMG 1320/1321 22006KT 8000 BR SCT010 BKN020 620802 QNH2993INS BECMG 1401/1402 20005KT 4000 BR SCT007 BKN015 QNH2989INS BECMG 1404/1405 18005KT 3200 BR BKN010 QNH2985INS TEMPO 1405/1409 BKN005 BECMG 1409/1410 21007KT 8000 BR SCT015 BKN030 QNH2982INS TX15/1315Z TN10/1404Z", "TAF EGVA 130400Z 1304/1410 VRB06KT 0600 FG SCT005 QNH2998INS BECMG 1312/1313 VRB06KT 8000 BR FEW008 OVC020 QNH2992INS BECMG 1318/1319 VRB06KT 9999 NSW FEW008 OVC015 QNH2992INS BECMG 1400/1401 VRB06KT 8000 BR BKN007 OVC014 QNH2993INS BECMG 1409/1410 20006KT 8000 BR SCT006 BKN020 QNH2981INS TX14/1315Z TN10/1401Z", "TAF EGVN 131049Z 1312/1412 24004KT 9999 FEW018 PROB40 TEMPO 1312/1314 SCT015 PROB40 1320/1409 4000 BR TEMPO 1400/1409 BKN008 PROB30 1402/1407 2500 SCT006 TEMPO 1409/1412 6000 RA BKN010", "TAF EGVO 130459Z 1306/1318 24003KT 9999 BKN030 PROB30 1306/1308 0500 FG BKN000 PROB30 TEMPO 1306/1309 5000 BR SCT006 PROB30 TEMPO 1309/1313 SCT010 PROB40 TEMPO 1313/1318 SCT020", "TAF EGVP 131053Z 1312/1321 VRB05KT 9999 FEW020 TEMPO 1312/1317 SCT020", "TAF EGWU 131048Z 1312/1406 VRB05KT 9999 FEW018 PROB40 TEMPO 1312/1315 SCT018 PROB30 TEMPO 1403/1406 SCT020", "TAF EGXC 131037Z 1312/1406 VRB05KT 9999 SCT030 PROB30 1402/1406 4000 BR", "TAF EGXE 131034Z 1312/1318 18005KT 9999 FEW030", "TAF EGXP 131029Z 1312/1318 VRB04KT 9999 SCT030", "TAF EGXW 130415Z 1306/1324 VRB03KT 7000 BR BKN030 BECMG 1306/1309 9999 NSW PROB30 1306/1309 0800 FG BKN000", "TAF EGYD 131025Z 1312/1318 VRB05KT 9999 SCT030", "TAF EGYM 131103Z 1312/1318 36004KT 9999 SCT045", "TAF COR EGYP 131009Z 1312/1406 23027G37KT 9999 SCT025 TEMPO 1312/1315 4000 -SHRASN BKN014CB PROB30 TEMPO 1312/1315 2000 SHRASN SHGS PROB30 TEMPO 1315/1319 5000 -SHRASN BKN020 TEMPO 1319/1405 BKN015 PROB30 TEMPO 1319/1402 7000 -SHRA BKN014 BECMG 1320/1323 26017G27KT BECMG 1403/1406 29014KT", "TAF EHAM 131117Z 1312/1418 22007KT 9999 BKN018 TEMPO 1312/1316 4500 -DZ BKN008 PROB30 TEMPO 1315/1318 4500 -SHRA BKN014 FEW020TCU BECMG 1317/1320 VRB02KT BKN025 PROB30 TEMPO 1322/1404 1200 BCFG BECMG 1402/1405 14006KT 2500 DZRA BR BKN004 PROB40 TEMPO 1405/1408 1400 DZ SCT001 BKN002 BECMG 1411/1414 22008KT 9999 NSW BKN014 BECMG 1414/1417 SCT030", "TAF EHBK 131114Z 1312/1418 20008KT CAVOK PROB40 TEMPO 1312/1321 6000 RA -SHRA BKN014 FEW018TCU TEMPO 1321/1414 4000 BR DZ BKN008", "TAF EHEH 130515Z 1306/1412 19006KT 9999 SCT035 BECMG 1306/1308 SCT015 BKN020 TEMPO 1307/1314 3000 RADZ SHRA SCT006 BKN010 SCT020CB BECMG 1312/1315 BKN030 PROB40 TEMPO 1314/1321 4000 -DZRA SCT006 BKN010 BECMG 1321/1323 FEW010 SCT012 BKN015 TEMPO 1321/1403 3000 DZRA SCT005 BKN008 BECMG 1400/1403 3500 BR -DZ SCT005 BKN008 PROB30 TEMPO 1403/1412 1500 DZ SCT002 BKN003", "TAF EHGG 131114Z 1312/1418 21007KT 6000 -RADZ BKN005 PROB40 TEMPO 1312/1318 3000 BKN003 BECMG 1318/1321 5000 BR BKN015 PROB40 1322/1408 0900 FG BKN000 BECMG 1408/1410 2000 BKN003 TEMPO 1408/1418 0900 FG DZ BKN001", "TAF EHGR 130441Z 1305/1317 21008KT 9999 FEW015 BKN030 TEMPO 1305/1312 3000 RADZ -SHRA SCT006 BKN010 SCT020CB PROB40 TEMPO 1312/1317 4000 -DZRA SCT006 BKN010", "TAF EHKD 130823Z 1309/1321 25006KT 9999 FEW010 BKN050 BECMG 1309/1312 SCT016 BKN020 PROB30 TEMPO 1310/1314 FEW008 SCT012CB", "TAF EHLE 131115Z 1312/1418 20006KT 9999 BKN014 TEMPO 1312/1322 4500 -DZ BKN008 BECMG 1317/1320 VRB02KT SCT025 PROB40 1320/1404 0600 BCFG BECMG 1404/1407 14006KT 2500 DZRA BR BKN004 PROB40 TEMPO 1405/1408 1400 DZ SCT001 BKN002 BECMG 1413/1416 22007KT 9999 NSW BKN014 BECMG 1416/1418 SCT030", "TAF COR EHLW 130539Z 1306/1317 17008KT 6000 -RA SCT017 BKN045 TEMPO 1305/1312 3000 RADZ BR -SHRA SCT006 BKN010 SCT020CB BECMG 1311/1314 SCT020 BKN030 PROB40 TEMPO 1312/1316 4500 SHRA FEW010 SCT015CB", "TAF EHRD 131117Z 1312/1418 22007KT 9999 BKN018 TEMPO 1312/1316 4500 -DZ BKN008 PROB30 TEMPO 1315/1318 4500 -SHRA BKN014 FEW020TCU BECMG 1317/1320 VRB02KT PROB30 TEMPO 1322/1407 0600 BCFG BECMG 1401/1404 14006KT 2500 DZRA BR BKN004 TEMPO 1407/1410 1400 DZ SCT001 BKN002 BECMG 1410/1413 22008KT 9999 NSW BKN014 BECMG 1414/1417 SCT030", "TAF EHVK 130444Z 1305/1317 20006KT 9999 FEW030 BECMG 1306/1308 SCT015 BKN020 TEMPO 1307/1314 3000 RADZ SHRA SCT006 BKN010 SCT020CB BECMG 1312/1315 BKN030 PROB40 TEMPO 1314/1317 4000 -DZRA SCT006 BKN010", "TAF EHWO 130440Z 1305/1317 22007KT 9999 SCT015 BKN020 TEMPO 1305/1311 3000 RADZ -SHRA SCT006 BKN010 SCT020CB BECMG 1311/1313 BKN030 PROB40 TEMPO 1311/1317 4000 -DZRA SCT006 BKN010", "TAF EICK 131100Z 1312/1412 21008KT 9999 BKN004 BECMG 1312/1314 SCT005 PROB30 TEMPO 1312/1313 1200 BR PROB40 TEMPO 1313/1318 4000 -SHRA BR BKN012 PROB30 TEMPO 1314/1318 BKN008 PROB40 TEMPO 1318/1408 3000 BR PROB30 TEMPO 1402/1407 0800 FG BKN002 PROB30 TEMPO 1404/1408 -SHRA BKN010 FEW020CB", "TAF EIDL 130500Z 1306/1315 17011KT 9999 FEW025 SCT040 BECMG 1309/1311 19019KT TEMPO 1310/1313 4000 -SHRA BKN012 FEW020CB", "TAF EIDW 131100Z 1312/1412 21010KT 9999 FEW020 PROB30 TEMPO 1318/1321 -SHRA BKN014 BECMG 1400/1402 25010KT PROB30 TEMPO 1404/1408 4500 -SHRA BR BKN012", "TAF EIKN 131100Z 1312/1412 19010KT 9999 FEW008 BKN025 TEMPO 1312/1315 4000 -SHRA BKN010 TEMPO 1314/1318 25010KT TEMPO 1322/1403 3000 SHRA BKN007 FEW017CB BECMG 1323/1401 26008KT PROB40 TEMPO 1403/1408 3000 BR", "TAF EIKY 130500Z 1306/1315 VRB03KT 2000 BR SCT002 PROB40 TEMPO 1306/1308 0800 FG BKN001 BECMG 1307/1309 20010KT 9999 NSW TEMPO 1313/1315 4000 -SHRA BKN012 FEW020CB", "TAF EIME 130500Z 1306/1315 16005KT 9999 FEW020 PROB30 TEMPO 1306/1308 2000 BR SCT002 BECMG 1309/1311 22011KT", "TAF EINN 131100Z 1312/1412 20008KT 9999 FEW018 BKN045 TEMPO 1313/1317 25010KT 4000 SHRA BKN012 BECMG 1323/1401 25010KT TEMPO 1402/1405 4000 SHRA BKN012 FEW020CB PROB30 TEMPO 1405/1408 VRB03KT 2000 BR BECMG 1409/1411 28010KT", "TAF EISG 130500Z 1306/1315 10005KT 9999 SCT030 BKN050 BECMG 1307/1309 16012KT TEMPO 1310/1313 4000 -SHRA BKN012 FEW020CB", "TAF EIWF 130500Z 1306/1315 VRB03KT 6000 SCT045 TEMPO 1306/1308 3000 BR BECMG 1307/1309 9999 BECMG 1311/1313 22010KT", "TAF EKAH 131118Z 1312/1412 17006KT CAVOK TEMPO 1313/1318 4000 RADZ BKN012 BECMG 1318/1321 3000 -RADZ BR BKN008 TEMPO 1321/1405 1200 RADZ BKN002 BECMG 1405/1407 8000 NSW SCT008", "TAF EKBI 131118Z 1312/1412 16008KT 7000 -RA BKN015 TEMPO 1312/1314 3000 RADZ BKN006 BECMG 1314/1316 1200 RADZ BR BKN002 TEMPO 1316/1318 3000 BR BKN006 FM131800 15005KT 0300 FG VV001 TEMPO 1318/1406 5000 BR SCT005 BECMG 1406/1408 6000 NSW SCT008", "TAF EKCH 131114Z 1312/1412 17012KT 9999 SCT020 BECMG 1316/1318 23012KT -RADZ BKN010 TEMPO 1318/1407 2000 RADZ BR BKN008 BECMG 1407/1409 BKN015", "TAF EKEB 131119Z 1312/1321 15010KT 5000 -RA BKN020 BECMG 1312/1314 1500 RADZ BKN003 TEMPO 1314/1317 4000 BR BKN008 FM131700 VRB02KT 0300 FG VV001 TEMPO 1317/1319 3000 BR SCT004 BECMG 1319/1321 30010KT 5000 NSW SCT010", "TAF EKGC 130500Z 1306/1315 30012KT 4000 RADZ BKN005 BECMG 1306/1308 01015KT 9999 NSW SCT020", "TAF EKHD 130500Z 1306/1315 35012KT 9999 SCT020", "TAF EKKA 131101Z 1312/1412 16006KT 9999 BKN050 TEMPO 1312/1319 4000 RADZ BKN012 BECMG 1319/1321 2000 BR BKN002 BECMG 1321/1323 8000 NSW FEW015 BKN030 TEMPO 1323/1402 BKN014 PROB40 1402/1407 0300 FG VV001", "TAF EKOD 130858Z 1309/1316 18008KT CAVOK TEMPO 1312/1314 4000 RADZ BKN010 BECMG 1314/1316 2000 RADZ BKN004", "TAF EKRK 131121Z 1312/1321 15008KT 9999 BKN040 BECMG 1314/1317 BKN012 TEMPO 1317/1321 3000 RADZ BKN006", "TAF EKRN 131120Z 1312/1321 20010KT 9999 FEW150 TEMPO 1312/1321 18012G22KT", "TAF EKSB 130858Z 1309/1318 19008KT 8000 -RADZ NSC TEMPO 1311/1313 4000 RADZ BKN010 BECMG 1313/1315 2000 RADZ BKN004 TEMPO 1315/1318 4000 BR BKN006", "TAF EKSP 131125Z 1312/1412 20010KT 7000 -RADZ BKN006 TEMPO 1312/1322 1500 RADZ BR BKN002 FM132200 28010KT 2000 BR SCT002 SCT030 TEMPO 1322/1409 0300 FG BKN002 BECMG 1401/1403 VRB02KT BECMG 1409/1410 20008KT 9999 NSW", "TAF EKVD 130858Z 1309/1316 18006KT 8000 -RADZ NSC TEMPO 1311/1314 4000 RADZ BKN008 BECMG 1314/1316 1500 RADZ BR BKN003", "TAF EKVG 131120Z 1312/1321 26010KT 9999 -RA SCT015 BKN025 BECMG 1312/1314 11008KT TEMPO 1316/1321 4000 RADZ BKN012", "TAF EKVJ 130858Z 1309/1315 14008KT 8000 -RADZ NSC TEMPO 1309/1312 4000 RADZ BKN010 BECMG 1312/1314 2000 RADZ BKN005", "TAF EKYT 131101Z 1312/1412 18008KT 9999 BKN040 TEMPO 1312/1316 7000 -RADZ BECMG 1316/1318 3000 -RADZ BR BKN010 TEMPO 1318/1322 8000 NSW BKN005 BECMG 1322/1324 25010KT 9999 NSW FEW015 BKN030", "TAF ELLX 131100Z 1312/1418 19007KT 9000 BKN035 TEMPO 1313/1318 2000 -RADZ BKN006 BECMG 1318/1321 4000 BR BKN010 PROB40 TEMPO 1321/1406 0200 FG OVC001 TEMPO 1406/1418 1200 DZ BR BKN004", "TAF ENAL 131100Z 1312/1321 24009KT 9999 SCT040 BECMG 1314/1315 18010KT", "ENAN 1312/1412 22012KT 9999 -SHRA FEW012 BKN025 PROB40 TEMPO 1312/1316 SHRA BKN014TCU TEMPO 1312/1320 25015G25KT TEMPO 1316/1409 FEW020TCU", "TAF ENAT 131100Z 1312/1321 20005KT 9999 -RA FEW005 BKN020", "TAF ENBN 131100Z 1312/1321 25006KT 9999 FEW010 BKN025 TEMPO 1312/1318 -SHRA SCT020TCU", "ENBO 1312/1412 25013KT 9999 -SHRA FEW010 BKN030 TEMPO 1312/1321 FEW020TCU BECMG 1321/1324 19010KT TEMPO 1403/1412 09009KT", "ENBR 1312/1412 VRB05KT 9999 FEW015TCU SCT025 BECMG 1317/1319 17010KT TEMPO 1406/1412 16018G30KT BECMG 1410/1412 BKN014 TEMPO 1410/1412 SHRA BKN008 SCT014CB", "TAF ENBS 131100Z 1312/1321 22015KT 9999 -RA FEW015 BKN025", "TAF ENBV 131100Z 1312/1321 23008KT 9999 SCT030", "TAF ENCN 131100Z 1312/1321 26007KT 9999 FEW015", "ENDU 1312/1412 21008KT 9999 -SHRA FEW008 BKN035 TEMPO 1312/1320 FEW025TCU PROB30 TEMPO 1322/1406 1200 PRFG", "ENEV 1312/1412 22009KT 9999 -SHRA FEW015 BKN030 PROB40 TEMPO 1312/1315 22015G25KT SHRA BKN014TCU TEMPO 1315/1324 FEW020TCU TEMPO 1400/1406 SHRA BKN014TCU BECMG 1409/1412 14010KT", "TAF ENFL 131100Z 1312/1321 15008KT 9999 FEW020 SCT030", "ENGC 1312/1412 20022KT 9999 FEW015 SCT035 TEMPO 1312/1322 BKN014 FEW020TCU BECMG 1320/1323 19034KT TEMPO 1322/1409 SHRA BKN012CB PROB30 TEMPO 1406/1409 TS BECMG 1408/1410 22024KT", "ENGM 1312/1412 18012KT 9999 -RA BKN008 TEMPO 1312/1324 3000 BR BKN004 BECMG 1319/1321 VRB05KT BKN015 TEMPO 1400/1412 BKN006", "TAF ENHD 131100Z 1312/1320 30008KT 9999 FEW020 SCT040 BECMG 1318/1320 13010KT", "TAF ENHE 131100Z 1312/1321 24020KT 9999 SCT030 BECMG 1317/1318", "TAF ENHF 131100Z 1312/1321 19005KT 9999 FEW020 BKN040 TEMPO 1315/1321 -RA BKN014", "TAF ENHV 131100Z 1312/1321 22009KT 9999 SCT025 BKN045", "TAF ENKB 131100Z 1312/1321 24008KT 9999 -SHRA FEW015 SCT025 BECMG 1315/1317 16010KT", "TAF ENKR 131100Z 1312/1321 22014KT 9999 FEW015 BKN020 PROB30 1313/1315 -RA BKN014", "TAF ENLE 131100Z 1312/1321 34009KT 9999 FEW020 BKN035 PROB30 TEMPO 1314/1316 21012KT", "TAF ENML 131100Z 1312/1321 26009KT 9999 -SHRA FEW010 BKN025", "TAF ENMS 131100Z 1312/1321 18005KT 9999 FEW020 BKN030 TEMPO 1312/1321 -SHRA FEW025TCU", "ENNA 1312/1412 18008KT 9999 -RA FEW015 BKN030 PROB30 TEMPO 1403/1408 BKN012", "TAF ENNE 130800Z 1309/1317 28022KT 9999 FEW015 BKN025 BECMG 1311/1314 22020KT", "TAF ENNO 130800Z 1309/1317 VRB05KT 9999 SCT015 BKN025", "ENOA 1312/1412 20020KT 9999 FEW025 SCT040 TEMPO 1314/1324 BKN014 BECMG 1320/1323 19030KT TEMPO 1400/1406 BKN012CB TEMPO 1406/1410 SHRA BKN008CB PROB30 TEMPO 1406/1409 TS BECMG 1409/1412 23020KT", "ENOL 1312/1412 25010KT 9999 -SHRA FEW020 BKN040 TEMPO 1312/1318 SHRA BKN020TCU BECMG 1317/1320 13012KT PROB30 TEMPO 1322/1402 1200 PRFG", "TAF ENOV 131100Z 1312/1321 VRB05KT 9999 FEW015", "TAF ENRA 131100Z 1312/1321 24005KT 9999 FEW005 BKN025 TEMPO 1312/1318 -SHRA FEW025TCU", "TAF AMD ENRM 130634Z 1306/1313 16012KT 9999 -RA FEW010 BKN020 BECMG 1306/1308 25010KT TEMPO 1306/1309 4000 RA BKN008 TEMPO 1309/1313 SHRA BKN012TCU", "TAF ENRO 131100Z 1312/1319 VRB05KT 9999 -RA FEW015 BKN030 TEMPO 1315/1319 3000 DZRA BR BKN008", "ENRY 1312/1412 20010KT 9999 -RA SCT007 BKN014 TEMPO 1312/1315 4000 SHRA BR BKN004 FEW015CB TEMPO 1315/1322 BKN008 BECMG 1318/1320 VRB05KT PROB40 1322/1410 0800 FG VV002", "ENSB 1312/1412 36005KT 9999 FEW020 BKN050 TEMPO 1312/1318 36018KT BECMG 1403/1406 27010KT", "TAF ENSD 131100Z 1312/1321 VRB05KT 9999 FEW020 SCT035", "TAF ENSH 130500Z 1306/1312 22018KT 9999 -RA FEW008 BKN020 PROB30 TEMPO 1306/1307 22022G35KT 4000 RA BKN008 TEMPO 1309/1312 FEW020TCU", "TAF ENSK 131100Z 1312/1321 25012KT 9999 -SHRA FEW020 BKN035 TEMPO 1312/1315 SHRA TEMPO 1312/1321 FEW020TCU", "TAF ENSO 130800Z 1309/1318 28008KT 9999 FEW020 SCT030", "TAF ENSR 131100Z 1312/1320 18008KT 9999 SCT035 BKN045 TEMPO 1314/1320 25015G25KT", "COR ENTC 1312/1412 20012KT 9999 -SHRA SCT015 BKN035 TEMPO 1312/1314 SHRA BKN014 TEMPO 1312/1409 FEW020TCU", "ENTO 1312/1412 20012KT 9999 -RA SCT004 BKN008 TEMPO 1312/1315 3000 SHRA BR BKN004 FEW015CB BECMG 1317/1319 VRB05KT BKN012 PROB40 1321/1410 0800 FG VV002", "ENVA 1312/1412 24008KT 9999 -RA FEW010 BKN040 TEMPO 1312/1314 RA BKN008 BECMG 1410/1412 13010KT", "TAF ENVD 131100Z 1312/1321 23012KT 9999 FEW015 BKN025 PROB30 1313/1315 -RA BKN014", "ENZV 1312/1412 31008KT 9999 FEW030 SCT040 BECMG 1319/1321 16010KT TEMPO 1409/1412 17015G25KT", "TAF EPBY 131130Z 1312/1412 16010KT CAVOK TEMPO 1322/1408 3000 BR BKN005 PROB30 TEMPO 1402/1407 VRB02KT 0700 FG OVC002", "TAF EPCE 130500Z 1306/1315 VRB02KT CAVOK BECMG 1307/1309 17008KT PROB30 TEMPO 1309/1315 17010G20KT", "TAF EPDA 130500Z 1306/1315 15008KT CAVOK BECMG 1312/1314 BKN040", "TAF EPDE 130500Z 1306/1315 10004KT CAVOK TEMPO 1306/1307 3000 MIFG BR NSC BECMG 1307/1309 16008KT TEMPO 1309/1312 SCT030", "TAF EPGD 131130Z 1312/1412 17010KT CAVOK TEMPO 1312/1314 19015G25KT BECMG 1321/1324 VRB02KT PROB40 TEMPO 1321/1409 3000 BR BKN004", "TAF EPIR 130500Z 1306/1315 13008KT CAVOK", "TAF EPKK 131130Z 1312/1412 08005KT CAVOK BECMG 1318/1321 2000 BR TEMPO 1321/1406 0500 FG BKN002 BECMG 1406/1408 CAVOK", "TAF EPKS 130500Z 1306/1315 14006KT CAVOK PROB30 1306/1308 3000 MIFG BR", "TAF EPKT 131130Z 1312/1412 16008KT CAVOK BECMG 1320/1323 3500 BR PROB30 1323/1406 0500 FG BKN002 BECMG 1406/1409 CAVOK", "TAF EPLB 131130Z 1312/1412 12009KT CAVOK TEMPO 1322/1407 3000 BR PROB30 TEMPO 1401/1406 0600 FG BKN001", "TAF EPLK 130500Z 1306/1315 14008KT CAVOK", "TAF EPLL 131130Z 1312/1412 15008KT CAVOK PROB40 TEMPO 1400/1406 3000 BR", "TAF EPLY 130500Z 1306/1315 VRB02KT CAVOK BECMG 1307/1309 16010KT", "TAF EPMB 130500Z 1306/1315 16004KT 9999 BKN048 BECMG 1306/1309 17010KT CAVOK", "TAF EPMI 130500Z 1306/1315 16010KT CAVOK", "TAF EPMM 130500Z 1306/1315 VRB03KT CAVOK TEMPO 1306/1307 5000 MIFG BR SCT045 BECMG 1308/1310 16010KT TEMPO 1310/1314 SCT040", "TAF EPMO 131130Z 1312/1412 14010KT CAVOK PROB40 TEMPO 1400/1406 3000 BR", "TAF EPOK 130500Z 1306/1315 18005KT 9999 SCT040 BECMG 1306/1308 18010KT CAVOK BECMG 1308/1310 18016KT", "TAF EPPO 131130Z 1312/1412 16008KT CAVOK BECMG 1400/1403 3000 BR BKN012 TEMPO 1403/1408 1500 -RA BR BKN006 BECMG 1408/1411 BKN018", "TAF COR EPPR 130500Z 1306/1315 18010KT CAVOK", "TAF EPPW 130500Z 1306/1315 15010KT CAVOK", "TAF EPRA 130500Z 1306/1315 16003KT 8000 NSC BECMG 1306/1308 CAVOK", "TAF EPRZ 131130Z 1312/1412 12008KT CAVOK BECMG 1318/1321 3000 BR BECMG 1321/1324 0200 FG BKN001 PROB30 1402/1406 0100 FZFG BECMG 1407/1410 18010KT CAVOK", "TAF EPSC 131130Z 1312/1412 17010KT CAVOK BECMG 1315/1318 VRB02KT TEMPO 1319/1409 3000 BR PROB40 TEMPO 1323/1406 0600 FG OVC001 PROB40 TEMPO 1406/1409 -RA BKN005", "TAF EPSN 130500Z 1306/1315 19010KT CAVOK", "TAF EPSY 131130Z 1312/1321 18010KT CAVOK", "TAF EPTM 130500Z 1306/1315 VRB02KT CAVOK BECMG 1307/1309 16010KT", "TAF EPWA 131130Z 1312/1412 15011KT CAVOK PROB40 TEMPO 1401/1406 3000 BR", "TAF EPWR 131130Z 1312/1412 15008KT CAVOK PROB40 TEMPO 1400/1406 3000 BR", "TAF EPZG 131130Z 1312/1321 16005KT CAVOK", "TAF ESCF 131130Z 1312/1320 18010G15KT 9999 SCT030 BECMG 1319/1320 BKN010 RMK MIL", "TAF ESCM 131130Z 1312/1320 21010KT 9999 SCT040 RMK MIL", "TAF ESDF 131130Z 1312/1321 18014KT 9999 FEW020 BECMG 1318/1321 4000 RA BKN006 RMK MIL", "TAF ESGG 131130Z 1312/1412 17010KT 9999 FEW013 BKN020 PROB40 1312/1317 BKN013 BECMG 1317/1319 BKN007 TEMPO 1319/1406 2500 -RADZ BKN003 BECMG 1406/1408 26008KT BKN020", "TAF ESGJ 131130Z 1312/1321 17008KT 9999 SCT040 PROB40 1312/1319 BKN013 PROB40 1319/1321 4000 -RADZ BKN007", "TAF ESGP 131130Z 1312/1321 17008KT 9999 SCT013 BKN020 TEMPO 1312/1318 BKN014 TEMPO 1318/1321 4000 -RADZ BKN007", "TAF ESGT 131130Z 1312/1320 18010KT 9999 BKN020 PROB40 1312/1318 BKN014 TEMPO 1318/1320 4000 -RADZ BKN008", "TAF ESIA 130830Z 1309/1314 19010KT 9999 SCT008 BKN050 RMK MIL", "TAF ESIB 131130Z 1312/1320 18012KT 9999 BKN040 PROB30 TEMPO 1312/1317 8000 SHRA BKN012TCU TEMPO 1317/1320 5000 SHRA BKN012CB RMK MIL", "TAF ESKN 131130Z 1312/1412 19009KT CAVOK PROB40 1402/1404 2000 DZ BR BKN004 PROB40 1404/1408 0500 FG VV002", "TAF ESMK 131110Z 1312/1319 16007KT 9999 BKN020", "TAF ESMQ 131130Z 1312/1319 18013KT 9999 BKN045 PROB40 1318/1319 BKN014", "TAF ESMS 131114Z 1312/1412 16008KT CAVOK BECMG 1318/1320 23008KT 4000 -RADZ BKN010 TEMPO 1320/1402 2500 RADZ BKN008 TEMPO 1402/1407 1400 BR BKN003 BECMG 1407/1409 9999 NSW BKN020", "TAF ESMT 131110Z 1312/1319 17008KT 9999 SCT020 TEMPO 1315/1317 BKN012 BECMG 1317/1319 4000 -RADZ BKN010", "TAF ESMX 131130Z 1312/1321 17007KT 9999 BKN040 BECMG 1317/1319 4000 -RADZ BKN006 TEMPO 1319/1321 8000 SCT006 BKN015", "TAF ESNG 131130Z 1312/1321 18005KT 9999 SCT045 PROB40 1316/1319 2000 BR BKN004 PROB40 1319/1321 0400 FG VV002", "TAF ESNK 131130Z 1312/1317 16007KT 9999 SCT025", "TAF ESNN 131130Z 1312/1321 20007KT 9999 -RA BKN035 PROB40 1313/1319 BKN012 PROB40 1319/1321 2000 BR BKN012", "TAF ESNO 131130Z 1312/1319 21007KT 9999 BKN025", "TAF ESNQ 131130Z 1312/1317 21010KT 9999 BKN045", "TAF ESNS 131130Z 1312/1321 22008KT 9999 BKN040", "TAF ESNU 131130Z 1312/1321 22007KT 9999 BKN040 PROB40 1319/1321 4000 -RA BR", "TAF ESNX 131130Z 1312/1320 24005KT CAVOK", "TAF ESNZ 131130Z 1312/1321 20007KT 9999 BKN045 PROB40 1312/1318 BKN012 PROB40 1318/1321 4000 -RA BR BKN012", "TAF ESOE 131130Z 1312/1321 19009KT CAVOK", "TAF ESOK 131130Z 1312/1315 19010KT 9999 SCT009 BKN020 TEMPO 1312/1315 RA BKN009", "TAF ESOW 131130Z 1312/1315 19009KT CAVOK", "TAF ESPA 131130Z 1312/1321 22006KT CAVOK RMK MIL", "TAF ESPE 131130Z 1312/1314 22005KT CAVOK RMK MIL", "TAF ESSA 131130Z 1312/1412 19009KT CAVOK PROB40 1403/1409 2000 DZ BR BKN004", "TAF ESSB 131130Z 1312/1321 19009KT CAVOK", "TAF ESSD 131130Z 1312/1315 19009KT 9999 BKN020", "TAF ESSL 131130Z 1312/1316 18008KT CAVOK", "TAF ESSP 131130Z 1312/1315 19009KT CAVOK", "TAF ESSV 131130Z 1312/1320 19009KT 9999 SCT020 BKN040", "TAF ESTA 131110Z 1312/1321 17008KT 9999 SCT020 TEMPO 1314/1317 BKN012 BECMG 1317/1319 4000 -RADZ BKN012 TEMPO 1319/1321 2000 RADZ BKN008", "TAF ESTL 131110Z 1312/1315 18007KT 9999 SCT020", "TAF AMD ETAD 130600Z 1306/1410 VRB06KT 0600 FG SCT001 BKN030 QNH3010INS BECMG 1307/1308 21007KT 3200 BR SCT005 BKN020 QNH3010INS BECMG 1309/1310 21009KT 6000 BR SCT007 BKN015 QNH3009INS BECMG 1311/1312 22012KT 9000 -SHRA BKN007 OVC015 QNH3003INS BECMG 1318/1319 21009KT 9999 NSW BKN010 QNH3003INS BECMG 1323/1324 21009KT 9000 -SHRA BKN007 QNH2993INS TX14/1314Z TN07/1306Z", "TAF AMD ETAR 130620Z 1306/1408 16006KT 8000 BR BKN020 QNH3013INS BECMG 1310/1311 22009KT 9000 -SHRA BR SCT010 BKN030 QNH3007INS BECMG 1321/1322 22009KT 6000 -SHRA BR BKN010 QNH3002INS BECMG 1401/1402 20009KT 6000 BR BKN008 QNH2999INS TX17/1314Z TN07/1306Z", "TAF ETEB 121500Z 1215/1321 15006KT 5000 BR BKN015 BKN020 QNH3024INS BECMG 1303/1304 18006KT 5000 BR BKN004 OVC020 QNH3018INS BECMG 1312/1313 20006KT 9999 NSW SCT005 BKN020 QNH3012INS TX14/1215Z TN10/1223Z LAST NO AMDS AFT 1215 NEXT 1307", "TAF ETHA 130420Z 1305/1314 VRB03KT 0500 FG VV001 BECMG 1305/1307 24005KT 3000 BR BKN010 BECMG 1307/1309 24005KT 9999 NSW SCT020", "TAF ETHB 130409Z 1305/1314 18007KT 9999 NSW SCT030 BKN100 BECMG 1309/1311 22007KT 9999 NSW BKN030 TEMPO 1313/1314 22010KT 8000 -RA BKN025", "TAF ETHC 130421Z 1305/1314 18007KT 9999 NSW SCT030 BKN100 TEMPO 1306/1308 VRB02KT 6000 NSW SCT120 BKN200", "TAF COR ETHF 130439Z 1305/1314 VRB03KT 3000 BR BKN005 TEMPO 1305/1308 VRB01KT 0100 FG VV001 BECMG 1308/1310 20007KT 8000 NSW SCT020 BKN130", "TAF AMD ETHL 130621Z 1305/1314 24007KT 6000 BR BKN012 TEMPO 1306/1308 25005KT 2500 BR BKN005 BECMG 1308/1310 25005KT 8000 NSW SCT008 BKN020 BKN180", "TAF ETHN 131009Z 1311/1320 24007KT 9999 NSW SCT015 BKN040 BKN150 BECMG 1316/1318 24007KT 8000 NSW BKN020 OVC040 TEMPO 1318/1320 24007KT 3000 -RADZ BKN005 OVC012", "TAF AMD ETHS 130621Z 1306/1314 22008KT 9999 NSW SCT030 BKN130 TEMPO 1306/1310 20005KT 7000 NSW BKN015 BKN100", "TAF ETIC 130200Z 1302/1408 18003KT 5000 BR BKN020 QNH3018INS BECMG 1304/1305 15003KT 1600 BR BKN006 QNH3020INS BECMG 1307/1308 17003KT 9999 NSW BKN010 OVC015 QNH3019INS TEMPO 1309/1312 VCSH OVC003 BECMG 1318/1319 21005KT 8000 -SHRA OVC007 QNH3011INS BECMG 1323/1324 24005KT 4000 BR OVC007 QNH3010INS TX14/1314Z TN05/1303Z", "TAF ETIK 130600Z 1306/1412 VRB06KT 6000 BR BKN014 BKN025 QNH3012INS BECMG 1309/1310 VRB06KT 9999 NSW SCT018 BKN030 BKN180 QNH3008INS BECMG 1314/1315 VRB06KT 8000 -SHRA OVC025 QNH3008INS BECMG 1317/1318 VRB06KT 9999 NSW BKN025 QNH3008INS BECMG 1401/1402 VRB06KT 2400 BR BKN015 QNH3004INS BECMG 1405/1406 VRB06KT 6000 BR BKN015 QNH3003INS BECMG 1409/1410 VRB06KT 9999 NSW OVC015 QNH2999INS TX14/1314Z TN06/1404Z", "TAF ETMN 131023Z 1311/1320 20007KT 7000 -RA FEW005 SCT020 OVC050 BECMG 1311/1313 20010KT 5000 -RA SCT005 BKN012 OVC050 TEMPO 1312/1320 21010KT 3000 RADZ BKN004 OVC010", "TAF ETND 130412Z 1305/1314 20005KT 9999 NSW BKN040 BKN100 TEMPO 1308/1314 22010KT 7000 -RA BKN020 BY ETGL", "TAF ETNG 130500Z 1306/1321 18005KT CAVOK BECMG 1308/1310 21008G15KT PROB30 TEMPO 1309/1312 -RA TEMPO 1312/1318 5000 RA SHRA SCT018TCU BKN040 BECMG 1317/1319 20005KT BKN025 PROB30 TEMPO 1318/1321 6000 -SHRA BKN015TCU", "TAF ETNH 130406Z 1305/1314 16007KT 9999 NSW FEW020 BKN070 TEMPO 1305/1311 18007KT 5000 -RA BKN020 BECMG 1311/1313 19008KT 5000 -RA BKN012 BY ETGL", "TAF ETNL 130406Z 1305/1317 15005KT 9999 NSW FEW035 BKN140 PROB30 1305/1307 08003KT 2000 BCFG FEW140 BECMG 1307/1309 20007KT 9999 NSW FEW070 BKN120 BY ETGL", "TAF ETNN 130413Z 1305/1314 17004KT 9999 NSW FEW030 BKN140 BECMG 1308/1310 20006KT 9999 NSW SCT030 BKN100 TEMPO 1310/1314 21008KT 8000 -RA BKN025 BKN050 BY ETGL", "TAF ETNS 130406Z 1305/1314 16007KT 9999 NSW FEW020 BKN070 TEMPO 1305/1311 18007KT 5000 -RA BKN020 BECMG 1311/1313 19008KT 5000 -RA BKN012 BY ETGL", "TAF ETNW 130412Z 1305/1405 19005KT 9999 NSW FEW030 BKN140 BECMG 1310/1312 22008KT 9999 NSW BKN040 BKN070 TEMPO 1315/1321 23010KT 7000 -RA BKN020 BKN050 BECMG 1323/1401 20005KT 8000 NSW BKN020 TEMPO 1403/1405 VRB03KT 3000 BR BKN005 BY ETGL", "TAF ETOU 130400Z 1304/1410 VRB03KT 6000 BR SCT005 BKN010 QNH3012INS TEMPO 1304/1309 0400 FG OVC002 BECMG 1310/1311 18003KT 9999 NSW SCT010 BKN015 QNH3006INS BECMG 1315/1316 24006KT 8000 -SHRA FEW005 BKN010 QNH3006INS BECMG 1318/1319 24006KT 9999 NSW FEW010 BKN025 QNH3004INS BECMG 1403/1404 18006KT 9999 SCT005 BKN010 QNH2997INS TX16/1314Z TN10/1304Z", "TAF ETSH 130421Z 1305/1314 18006KT 9999 NSW FEW040 BKN140 TEMPO 1305/1307 12002KT 2000 BCFG FEW002 SCT140", "TAF ETSI 131011Z 1311/1320 23003KT 7000 NSW FEW007 BKN020 TEMPO 1312/1320 27005KT 9999 NSW SCT025 BKN200", "TAF ETSN 130422Z 1305/1314 VRB01KT 0200 FG VV000 SCT180 TEMPO 1305/1309 VRB02KT 0400 FG VV001 SCT180 BECMG 1309/1310 VRB03KT 0800 FG BKN002 BKN180 BECMG 1310/1312 21004KT 8000 NSW SCT015 BKN180 BY ETGL", "TAF EVGA 131102Z 1312/1412 16005KT 9999 BKN030 TEMPO 1312/1315 BKN012 BKN020CB TEMPO 1317/1408 2000 BR BKN005", "TAF EVLA 131104Z 1312/1412 17007KT 9999 BKN030 TEMPO 1312/1318 BKN020CB TEMPO 1403/1412 BKN010", "TAF EVRA 131100Z 1312/1412 17007KT 9999 BKN020 TEMPO 1312/1318 BKN020CB TEMPO 1318/1401 3000 BR TEMPO 1401/1407 3000 BR BKN005 PROB40 TEMPO 1401/1407 0700 FG BKN002", "TAF EYKA 131104Z 1312/1412 VRB05KT 9000 BKN015 TEMPO 1312/1315 5000 BR BKN005 BKN010 TEMPO 1315/1321 3000 BR BKN005 BECMG 1405/1407 BKN010", "TAF EYPA 131100Z 1312/1412 20010KT 9000 SCT015 TEMPO 1312/1315 BKN015 BECMG 1400/1402 BKN010", "TAF EYSA 131100Z 1312/1321 20008KT 6000 SCT010 BKN015 TEMPO 1315/1318 BKN005 BECMG 1318/1320 3000 BR BKN005", "TAF EYVI 131100Z 1312/1412 VRB05KT 5000 BR BKN005 OVC015 TEMPO 1312/1315 3000 OVC002 FM131500 OVC005 TEMPO 1315/1320 0500 FG VV002 BECMG 1320/1322 0300 FG VV001 TEMPO 1403/1406 3000 BR BKN003 BECMG 1406/1408 5000 BR BKN005 BECMG 1408/1410 9000 NSW SCT010 BKN015", "TAF FABL 131000Z 1312/1412 35018KT CAVOK TX33/1312Z TN16/1404Z PROB30 TEMPO 1312/1318 FEW090TCU BECMG 1322/1324 VRB03KT BECMG 1406/1408 34010KT", "TAF AMD FACT 131007Z 1312/1418 19012KT 9999 SCT010 BKN018 TX22/1312Z TN13/1404Z FM131800 16005KT CAVOK FM140600 16018KT 9999 BKN020 TEMPO 1410/1416 16018G28KT", "TAF FAEL 130900Z 1310/1319 22011KT CAVOK TX30/1312Z TN22/1319Z", "TAF AMD FAGG 131007Z 1312/1412 22012KT 9999 SCT015 BKN020 TX21/1312Z TN14/1404Z PROB40 TEMPO 1314/1318 3000 -RA BKN006 FM131900 28005KT 9999 BKN020", "TAF FAHS 130900Z 1310/1318 12010KT CAVOK TX37/1313Z TN27/1318Z BECMG 1311/1313 06010KT SCT035", "TAF FAKM 130900Z 1310/1318 30010KT 9999 FEW080TCU TX35/1312Z TN26/1318Z PROB30 TEMPO 1312/1318 FEW080CB", "TAF FAKN 130900Z 1310/1318 VRB03KT CAVOK TX33/1313Z TN23/1318Z BECMG 1310/1312 06010KT", "TAF FALA 131000Z 1312/1412 35010KT CAVOK TX33/1412Z TN16/1403Z BECMG 1316/1318 VRB03KT PROB30 TEMPO 1318/1322 TS FEW045CB BECMG 1408/1410 02010KT", "TAF FALE 131000Z 1312/1418 07012KT CAVOK TX32/1312Z TN21/1403Z PROB30 TEMPO 1315/1320 5000 TSRA BKN020 FEW035CB TEMPO 1320/1324 32015KT FM140300 18010KT 9999 BKN020", "TAF FAMM 130900Z 1310/1318 03015G25KT CAVOK TX33/1313Z TN22/1318Z FM131400 02010KT CAVOK", "TAF FAOR 131000Z 1312/1418 32012KT CAVOK TX31/1412Z TN15/1403Z BECMG 1318/1320 02009KT PROB40 TEMPO 1318/1324 08010KT -TSRA FEW040CB BECMG 1401/1403 VRB03KT BECMG 1408/1410 32010KT", "TAF FAPE 131000Z 1312/1412 25020KT 9000 SCT004 BKN007 TX22/1312Z TN15/1404Z BECMG 1312/1314 SCT012 BKN018 TEMPO 1312/1317 25022G32KT TEMPO 1316/1402 5000 SHRA FEW045TCU", "TAF FAPM 130900Z 1310/1321 VRB03KT CAVOK TX37/1311Z TN23/1321Z PROB30 TEMPO 1314/1318 5000 TSRA BKN025 FEW035CB", "TAF FAPP 130900Z 1310/1318 06010KT CAVOK TX34/1313Z TN25/1318Z", "TAF FARB 130900Z 1310/1318 03015KT CAVOK TX36/1312Z TN24/1318Z", "TAF FAUP 131000Z 1312/1412 33010KT 9999 FEW070TCU BKN100 TX37/1312Z TN20/1404Z PROB30 TEMPO 1312/1318 FEW070CB BECMG 1316/1318 27010KT CAVOK BECMG 1322/1324 19008KT", "TAF FAUT 130900Z 1310/1318 VRB03KT 9999 FEW040 TX38/1311Z TN23/1318Z BECMG 1310/1312 08012KT PROB30 TEMPO 1311/1318 FEW060CB", "TAF FAWB 130900Z 1310/1318 VRB03KT CAVOK TX34/1313Z TN24/1318Z", "TAF FAWK 130900Z 1310/1318 VRB03KT CAVOK TX33/1313Z TN24/1318Z", "FBKE 130900Z 1312/1321 08009KT CAVOK", "FBMN 131000Z 1312/1412 06006KT CAVOK", "FBPM 131000Z 1312/1412 08010KT CAVOK", "TAF FBSK 131000Z 1312/1418 04006KT CAVOK", "TAF FCBB 131100Z 1312/1418 VRB02KT 9000 FEW020 BECMG 1315/1317 26010KT FEW020 FEW030CB PROB40 TEMPO 1318/1321 TS BECMG 1322/1324 BKN020 BECMG 1409/1411 SCT020 FEW030CB BECMG 1412/1414 -TSRA", "TAF FCPP 131100Z 1312/1412 19010KT 9999 FEW015 BKN023 BECMG 1313/1315 FEW016 FEW030CB BECMG 1401/1403 VRB03KT -TSRA BKN010 BKN023 FEW028CB", "FDMS 130700Z 1309/1318 02007KT CAVOK BECMG 1312/1314 FEW045TCU PROB30 TEMPO 1314/1318 8000 -TSRA FEW040CB", "FDSK 130700Z 1309/1318 01013KT CAVOK BECMG 1313/1315 FEW045TCU", "TAF FEFF 130500Z 1306/1412 VRB03KT 9999 FEW010 BECMG 1308/1309 BKN013 BECMG 1310/1312 SCT023 FEW040CB TEMPO 1313/1317 4000 TSRA BECMG 1318/1319 BKN010 BECMG 1320/1322 CAVOK", "FGBT 131100Z 1312/1412 25006KT 9999 SCT010 PROB40 TEMPO 1315/1320 4000 TSRA BKN010 FEW020CB TEMPO 1405/1409 TS FEW020CB", "TAF FGSL 131100Z 1312/1418 25006KT 9999 SCT010 PROB40 TEMPO 1312/1317 3000 TSRA FEW020CB PROB30 TEMPO 1403/1408 4000 RADZ BKN008", "TAF FHAW 130430Z 1306/1324 14010KT 9999 FEW018 SCT040 PROB40 TEMPO 1306/1310 7000 -SHRA SCT017 PROB30 TEMPO 1321/1324 6000 -SHRA SCT015", "TAF FIMP 131120Z 1312/1418 11010KT 9999 SCT018 TEMPO 1318/1405 7000 -SHRA FEW010 BKN015", "TAF FIMR 131125Z 1312/1406 11020G35KT 9999 SCT017 TEMPO 1313/1316 7000 -SHRA BKN016", "TAF FJDG 130100Z 1301/1407 14012KT 9999 SCT015 SCT035 QNH2984INS TX31/1315Z TN25/1301Z FOR MIL USE ONLY", "TAF FKKD 131100Z 1312/1418 VRB03KT 9999 BKN016 FEW020CB TEMPO 1317/1322 TS BECMG 1319/1321 BKN013 FEW016CB TEMPO 1402/1408 3000 TSRA", "TAF FLCP 122200Z 1300/1406 09010KT 9999 SCT010 BECMG 1304/1308 09010G15KT 9000 HZ NSC BECMG 1310/1314 09010KT", "TAF FLHN 122200Z 1300/1406 VRB03KT CAVOK BECMG 1220/1222 05005KT CAVOK BECMG 1304/1306 09010KT BECMG 1316/1318 12010KT", "TAF FLKK 122200Z 1300/1406 09010KT CAVOK BECMG 1304/1308 09010G15KT 8000 HZ NSC BECMG 1310/1314 FEW035", "TAF FLKS 122200Z 1300/1406 16010KT CAVOK BECMG 1305/1309 09010KT BECMG 1314/1318 15010KT", "TAF FLMA 122200Z 1300/1406 09005KT CAVOK BECMG 1304/1306 09010KT BECMG 1307/1311 09010G15KT BECMG 1314/1318 09010KT", "TAF FLMF 122200Z 1300/1406 09010KT 9999 SCT010 BECMG 1304/1308 09010G15KT 9000 HZ NSC BECMG 1310/1314 09010KT", "TAF FLMG 122200Z 1300/1406 09010KT CAVOK BECMG 1307/1309 05010KT 9999 FEW025 BECMG 1310/1312 BKN030 BECMG 1313/1315 07005KT SCT035", "TAF FLSK 122200Z 1300/1406 12010KT CAVOK BECMG 1305/1308 09010KT 8000 FU NSC BECMG 1309/1311 FEW030", "TAF FLSW 122200Z 1300/1406 15005KT CAVOK BECMG 1304/1308 09010KT BECMG 1310/1312 09005KT 9999 FEW035 BECMG 1313/1315 VRB03KT SCT040", "TAF FMCH 131100Z 1312/1418 23012KT 9999 FEW020 SCT030 BECMG 1314/1316 07003KT BECMG 1405/1407 20012KT", "TAF FMCZ 131100Z 1312/1412 17010KT CAVOK", "TAF FMEE 131100Z 1312/1418 12020G30KT 9999 FEW030 SCT050 BECMG 1314/1316 12015KT PROB40 TEMPO 1400/1406 4500 SHRA BECMG 1404/1405 12020G30KT BECMG 1413/1415 12014KT", "TAF FMEP 131100Z 1312/1321 13023G33KT CAVOK", "TAF FMMI 131100Z 1312/1418 13014KT 9999 FEW017 SCT020 BECMG 1320/1322 VRB04KT BECMG 1403/1406 13014KT", "TAF FMMS 131100Z 1312/1412 16010KT 9999 SCT017 SCT033 PROB40 TEMPO 1317/1403 4500 SHRA PROB40 TEMPO 1407/1412 4000 SHRA", "TAF FMMT 131100Z 1312/1412 12010KT 9999 SCT017 SCT033 PROB40 TEMPO 1316/1412 4000 SHRA BECMG 1317/1320 28005KT", "TAF FMNA 131100Z 1312/1412 14017G28KT 9999 FEW020", "TAF FMNM 131100Z 1312/1412 14010KT 9999 FEW023 BECMG 1313/1315 34010KT BECMG 1318/1321 12007KT", "TAF FMNN 131100Z 1312/1412 30010KT 9999 SCT020 BECMG 1320/1322 04005KT PROB30 TEMPO 1322/1403 4500 SHRA", "TAF FMSD 131100Z 1312/1412 08022G35KT 9999 FEW020", "TAF FMST 131100Z 1312/1412 28012KT 9999 FEW023CB SCT040 PROB30 TEMPO 1312/1317 4500 TSRA BECMG 1317/1320 04006KT SCT020", "TAF FNBG 131100Z 1312/1324 28011KT 9999 FEW015", "TAF FNCA 131100Z 1312/1324 20010KT 9999 BKN015 BECMG 1318/1321 18009KT", "TAF FNCT 131100Z 1312/1324 28010KT 9999 FEW018", "TAF FNDU 131100Z 1312/1324 07005KT 9000 FEW018 TEMPO 1313/1317 VRB03KT SCT018 FEW025CB", "TAF FNGI 131100Z 1312/1324 05007KT 9999 FEW022", "TAF FNHU 131100Z 1312/1324 06004KT 9000 NSW BECMG 1318/1821 32006KT", "TAF FNKU 131100Z 1312/1324 06004KT 9999 FEW022", "TAF FNLU 131100Z 1312/1418 24012KT 9999 FEW015 BKN040 TEMPO 1313/1317 18008KT BECMG 1318/1321 20006KT", "TAF FNMA 131100Z 1312/1324 06004KT 9999 SCT015 BKN040 TEMPO 1313/1317 31006KT 7000 SCT022 FEW030CB", "TAF FNME 131100Z 1312/1324 VRB02KT 9999 FEW018", "TAF FNMO 131100Z 1312/1324 24010KT 9000 NSW", "TAF FNSA 131100Z 1312/1324 13005KT 9999 FEW015 BECMG 1313/1317 VRB02KT SCT012 FEW022TCU", "TAF FNSO 131100Z 1312/1324 20011KT 9000 FEW018 BKN040 BECMG 1313/1317 14010KT", "TAF FNUB 131100Z 1312/1324 26005KT 9000 NSC", "TAF FNUE 131100Z 1312/1324 10005KT 9999 FEW020 TEMPO 1313/1318 VRB03KT SCT015 FEW025CB", "TAF FOOG 131100Z 1312/1412 21012KT 9999 SCT012 FEW018CB BKN030 PROB40 TEMPO 1316/1321 4000 TSRA BKN008 FEW018CB OVC026", "TAF FOOL 131100Z 1312/1418 24006KT 9999 SCT012 BKN030 PROB30 TEMPO 1314/1319 TS BKN010 FEW020CB TEMPO 1322/1407 3000 TSRA BKN010 FEW020CB OVC026", "TAF FPST 121600Z 1218/1324 22008KT 9999 FEW020CB BKN040 PROB 30 TEMPO 1302/1306 5000 RADZ SCT010 FEW020CB OVC030", "TAF FQBR 131000Z 1312/1418 10013KT 9999 FEW020 TX31/1313Z TN21/1403Z BECMG 1400/1402 VRB03KT BECMG 1406/1408 36006KT BECMG 1412/1414 10015KT", "TAF FQCH 131000Z 1312/1412 09012KT 9999 FEW020 TX35/1313Z TN17/1403Z BECMG 1400/1402 VRB03KT BECMG 1406/1408 09007KT", "TAF FQIN 131000Z 1312/1412 09012KT 9999 SCT020 TX29/1313Z TN23/1403Z BECMG 1318/1320 10007KT", "TAF FQLC 131000Z 1312/1412 07014KT 9999 SCT018 TX28/1313Z TN12/1403Z BECMG 1318/1320 11007KT BECMG 1406/1408 05010KT", "TAF FQMA 131000Z 1312/1418 08013KT 9999 FEW020 TX31/1313Z TN22/1403Z BECMG 1315/1317 08015G25KT BECMG 1322/1324 36007KT BECMG 1412/1414 10015KT", "TAF FQNC 131000Z 1312/1418 06012KT 9999 SCT020 TX30/1313Z TN21/1403Z BECMG 1318/1320 06007KT BECMG 1400/1402 VRB03KT BECMG 1412/1414 06013KT", "TAF FQNP 131000Z 1312/1412 06012KT 9999 FEW020 TX34/1313Z TN20/1403Z BECMG 1400/1402 36007KT BECMG 1410/1412 09013KT", "TAF FQPB 131000Z 1312/1412 08012KT 9999 FEW020 TX30/1313Z TN21/1403Z BECMG 1318/1320 08007KT BECMG 1400/1402 VRB03KT BECMG 1410/1412 09010KT", "TAF FQQL 131000Z 1312/1412 16012KT 9999 FEW020 TX32/1313Z TN21/1403Z BECMG 1318/1320 10007KT BECMG 1406/1408 04007KT", "TAF FQTT 131000Z 1312/1412 12012KT 9999 FEW020 TX39/1313Z TN23/1403Z BECMG 1318/1320 18010KT", "TAF FQVL 131000Z 1312/1412 09012KT 9999 BKN020 TX29/1313Z TN22/1403Z BECMG 1400/1402 10007KT", "TAF FQXA 131000Z 1312/1412 11012KT 9999 SCT020 TX31/1313Z TN21/1403Z BECMG 1400/1402 05006KT BECMG 1406/1408 35007KT", "TAF FSIA 131103Z 1312/1412 12012KT 9999 SCT022", "TAF FTTJ 131100Z 1312/1418 VRB04KT 8000 FEW033 PROB30 TEMPO 1316/1319 4000 DU TS", "TAF FVJN 131000Z 1312/1418 09012KT CAVOK", "TAF FVRG 131000Z 1312/1418 07013KT CAVOK", "TAF FWCL 130900Z 1312/1418 10015KT 9999 SCT035 BECMG 1312/1314 09008KT 9999 FEW035 SCT080 FM131500 08008KT CAVOK BECMG 1408/1410 07008KT 9999 FEW030 BECMG 1411/1413 08008KT 9999 SCT035 FM141400 08008KT CAVOK", "TAF FWKI 130800Z 1312/1418 10015KT CAVOK", "TAF FYGF 131100Z 1312/1321 06005KT CAVOK BECMG 1313/1315 9999 SCT050", "TAF FYKM 131100Z 1312/1321 10007KT CAVOK", "TAF FYLZ 131100Z 1312/1321 35007KT CAVOK BECMG 1313/1315 20013KT", "TAF FYOA 131100Z 1312/1321 02005KT CAVOK BECMG 1313/1315 15005KT", "TAF FYRU 131100Z 1312/1321 06007KT CAVOK", "TAF FYWB 131000Z 1312/1412 32005KT 9999 SCT020 BECMG 1313/1315 22012KT CAVOK BECMG 1319/1321 32006KT SCT015", "TAF FYWE 131100Z 1312/1321 31010KT CAVOK BECMG 1315/1317 21008KT", "TAF FYWH 131000Z 1312/1412 36012KT CAVOK BECMG 1313/1315 9999 SCT050 BECMG 1319/1321 21010KT NSC", "TAF FZAA 130500Z 1306/1412 18004KT 7000 BKN018 BECMG 1311/1313 34012KT SCT023 FEW030CB PROB30 TEMPO 1316/1320 TS BECMG 1321/1323 21004KT BKN016", "TAF FZIC 130500Z 1306/1412 21006KT 7000 SCT014 BECMG 1308/1311 BKN026 FEW034CB TEMPO 1314/1317 TS BECMG 1317/1319 NSC FM140200 00000KT 1500 BR BKN003 FM140700 18006KT 6000 SCT015", "TAF FZNA 130500Z 1306/1412 09004KT 8000 SCT016 BECMG 1308/1310 21010KT SCT018 FEW022CB PROB30 TEMPO 1312/1317 TS BECMG 1312/1320 05004KT SCT017 BECMG 1407/1409 18010KT SCT016 FEW020CB", "TAF FZQA 130500Z 1306/1412 06008KT 800 NSC BECMG 1309/1311 13012KT CAVOK BECMG 1313/1315 03006KT 9999 FEW022", "TAF GABS 131130Z 1312/1418 04006KT 9999 FEW016 PROB40 TEMPO 1316/1322 TS SCT016 FEW033CB", "TAF GAGO 131130Z 1312/1412 10010KT 7000 NSC", "TAF GBYD 131100Z 1312/1418 24008KT 9999 SCT013 TEMPO 1315/1321 4000 TSRA BKN012 FEW030CB", "TAF GCFV 130800Z 1309/1409 04016KT 9999 SCT025 TX27/1314Z TN22/1406Z", "TAF GCGM 130800Z 1309/1409 02015KT 9999 FEW025 TX24/1314Z TN20/1406Z TEMPO 1309/1406 02015G25KT TEMPO 1309/1406 VRB15G25KT PROB40 TEMPO 1309/1317 VRB09KT", "TAF GCHI 130800Z 1309/1409 03015KT 9999 SCT025 TX25/1314Z TN22/1406Z", "TAF GCLA 130800Z 1309/1409 36010KT 9999 SCT025 TX25/1314Z TN21/1406Z PROB40 TEMPO 1309/1409 RADZ", "TAF GCLP 130800Z 1309/1409 02020KT 9999 SCT030 TX25/1314Z TN21/1406Z PROB30 TEMPO 1312/1318 02020G30KT PROB30 1310/1409 RA", "TAF GCRR 130800Z 1309/1409 01020KT 9999 SCT025 TX29/1314Z TN21/1406Z PROB40 TEMPO 1309/1320 01020G30KT", "TAF GCTS 130800Z 1309/1409 06022KT 9999 FEW035 TX28/1314Z TN21/1406Z PROB40 TEMPO 1311/1318 06025G35KT BECMG 1318/1320 30005KT PROB30 TEMPO 1318/1321 36012KT BECMG 1407/1409 04018KT", "TAF GCXO 130800Z 1309/1409 34008KT 9999 SCT015 TX22/1314Z TN16/1406Z PROB40 TEMPO 1309/1409 BKN010 PROB30 TEMPO 1309/1315 3000 DZ BCFG BKN005 PROB40 TEMPO 1315/1403 1500 DZ BCFG BKN002", "TAF GECE 130800Z 1309/1409 06012KT 9999 SCT030 TX24/1315Z TN19/1406Z PROB40 TEMPO 1403/1409 4000 BR BKN010", "TAF GEML 131100Z 1312/1412 07010KT 9999 FEW012 SCT018 TX24/1313Z TN20/1406Z BECMG 1320/1322 VRB02KT PROB40 TEMPO 1400/1409 4000 BR BKN010 BECMG 1406/1408 06010KT", "TAF GFLL 130500Z 1306/1412 07004KT 5000 BR BKN008 FEW027CB TEMPO 1309/1313 12007KT 9999 BKN010 TEMPO 1316/1320 22006KT BKN011 TEMPO 1402/1406 VRB02KT 8000 TSRA BKN010 FEW026CB", "TAF GGOV 131100Z 1312/1412 VRB05KT 8000 SCT010 TEMPO 1317/1323 4000 TSRA BKN010 FEW015CB", "TAF GMAD 131100Z 1312/1418 26010KT 8000 SCT016 BECMG 1318/1320 18008KT", "TAF GMAG 131100Z 1312/1418 20004KT 8000 NSC", "TAF GMFF 131100Z 1312/1418 06014KT 9999 SCT033 BKN100 BECMG 1313/1315 SCT033 FEW040CB BKN100 PROB30 TEMPO 1315/1319 06015G26KT TS BECMG 1319/1321 CAVOK", "TAF GMFK 131100Z 1312/1418 07012KT 9999 SCT030 FEW040CB TEMPO 1314/1318 20018KT TS SCT030 FEW036CB", "TAF GMFM 131100Z 1312/1418 07013KT 9999 FEW020 SCT100 BECMG 1320/1324 10005KT CAVOK", "TAF GMFO 131100Z 1312/1418 36013KT 9999 BKN013 BKN026 TEMPO 1314/1320 TSRA FEW030CB", "TAF GMME 131100Z 1312/1418 36008KT 7000 SCT016 TEMPO 1314/1320 CAVOK", "TAF GMMH 131100Z 1312/1418 06019KT CAVOK BECMG 1403/1406 BKN010 PROB40 1405/1409 2000 BR", "TAF GMMI 131100Z 1312/1418 36014KT 6000 NSC", "TAF GMML 131100Z 1312/1418 01014KT 5000 BKN020 BECMG 1312/1314 7000 BECMG 1400/1402 BKN008 BECMG 1409/1412 NSC", "TAF GMMN 131100Z 1312/1418 06006KT CAVOK BECMG 1312/1314 36014KT BECMG 1319/1321 18004KT TEMPO 1323/1408 3000 BR SCT010 PROB30 TEMPO 1401/1406 0400 FG BKN002 BECMG 1411/1413 36012KT", "TAF GMMW 131100Z 1312/1418 07016KT 7000 BKN014 SCT022 PROB40 TEMPO 1312/1315 5000 RA BECMG 1322/1324 VRB02KT PROB40 1400/1410 2000 BR BECMG 1406/1410 SCT015", "TAF GMMX 131100Z 1312/1418 06006KT 9999 SCT023 TEMPO 1403/1410 3000 BR BKN008", "TAF GMMZ 131100Z 1312/1418 07007KT 9999 SCT030 TEMPO 1314/1320 12015KT", "TAF GMTA 131100Z 1312/1418 05009KT 8000 SCT020TCU BKN060 PROB40 TEMPO 1312/1316 5000 RA BECMG 1314/1318 NSC PROB40 1400/1409 2000 BR", "TAF GMTT 131100Z 1312/1418 07023KT 8000 SCT023", "TAF GOBD 131100Z 1312/1418 25008 9999 SCT015 PROB30 1316/1320 TS BKN012 FEW030CB", "TAF GOGS 131100Z 1312/1412 23008KT 9999 SCT013 TEMPO 1314/1320 3000 TSRA BKN010 FEW030CB", "TAF GOOY 131100Z 1312/1418 25008KT 9999 SCT015", "TAF GOSS 131100Z 1312/1412 28008KT 9999 SCT015", "TAF GQNO 131100Z 1312/1418 07012KT 6000 NSC PROB40 TEMPO 1312/1319 4000 BLDU BECMG 1318/1321 34012KT", "TAF GQPP 131100Z 1312/1412 02016KT 6000 NSC PROB40 TEMPO 1316/1319 4500 DRSA", "TAF GUCY 120500Z 1206/1312 24006KT 9999 SCT015 SCT110 BECMG 1206/1210 BKN015 FEW023CB PROB30 TEMPO 1217/1221 09012KT 6000 -TSRA BKN011 FEW020CB BKN100", "TAF GVAC 131100Z 1312/1418 05018KT 9999 SCT014", "TAF GVBA 131100Z 1312/1418 05016KT 9999 FEW014", "TAF GVNP 131100Z 1312/1418 04013KT 8000 FEW015 TEMPO 1317/1321 FEW015 BKN020", "TAF GVSV 131100Z 1312/1418 05024G36KT 9999 SCT018 TEMPO 1322/1407 06020KT", "TAF HAAB 130330Z 1306/1412 09008KT 9999 SCT025 SCT080 BECMG 1306/1312 12010KT SCT024", "TAF HADR 130330Z 1306/1412 03006KT 9999 FEW025 SCT080 BECMG 1306/1312 32008KT SCT025", "TAF HBBA 130500Z 1306/1412 36003KT 9999 FEW030 SCT100 BECMG 1308/1310 18008G20KT BECMG 1319/1321 VRB04KT 9999 FEW025 BECMG 1407/1409 18008G20KT 9999 FEW030 SCT100", "TAF HCMM 131100Z 1312/1418 19015KT 9999 SCT022 SCT090 BECMG 1322/1401 18010KT BKN019 BECMG 1408/1411 20015KT SCT023", "TAF HDAM 131100Z 1312/1412 08012KT 9999 SCT023 FEW133 B ECMG 1315/1321 VRB05KT SCT023 FEW133 FEW266 BECMG 1400/1406 09010KT SCT023 SCT133", "TAF HEAL 131100Z 1312/1418 31012KT 9999 SCT020", "TAF HEAR 131100Z 1312/1418 34012KT 9999 SCT025", "TAF HEAT 131100Z 1312/1418 35015KT CAVOK", "TAF HEAX 131100Z 1312/1418 33013KT 9999 SCT020", "TAF HEBA 131100Z 1312/1418 32014KT 9999 SCT020", "TAF HEBL 131100Z 1312/1418 34010KT CAVOK", "TAF HECA 131101Z 1312/1418 32010KT 9999 SCT020 TEMPO 1400/1406 VRB03KT 4000 BR NSC", "TAF HEGN 131100Z 1312/1418 01015KT CAVOK", "TAF HELX 131100Z 1312/1418 31010KT CAVOK", "TAF HEMA 131100Z 1312/1418 02015KT CAVOK", "TAF HEMM 131100Z 1312/1418 31012KT 9999 SCT020", "TAF HEOW 131100Z 1312/1418 36013KT CAVOK", "TAF HEPS 131100Z 1312/1418 32010KT 9999 SCT020", "TAF HESC 131100Z 1312/1418 33010KT CAVOK", "TAF HESG 131100Z 1312/1418 34013KT CAVOK", "TAF HESH 131100Z 1312/1418 03015KT CAVOK", "TAF HESN 131100Z 1312/1418 35008KT CAVOK", "TAF HETB 131100Z 1312/1418 02015KT CAVOK", "TAF HETR 131100Z 1312/1418 31018G28KT CAVOK", "TAF HKEL 130500Z 1306/1412 14010KT 9999 FEW023CB SCT024 PROB30 TEMPO 1312/1316 VRB10KT -TSRA FEW019CB SCT020 BKN080 BECMG 1320/1323 14010KT CAVOK BECMG 1408/1411 9999 FEW023CB SCT024", "TAF HKJK 130500Z 1306/1412 09010KT 9999 SCT025 BECMG 1320/1323 04005KT CAVOK BECMG 1401/1405 9999 FEW018 BECMG 1408/1411 SCT025", "TAF HKKI 130500Z 1306/1412 22010KT 9999 FEW026CB SCT027 BKN080 PROB30 TEMPO 1312/1316 -TSRA FEW022CB BKN023 BKN080 BECMG 1320/1323 06005KT NSW SCT018 BECMG 1408/1411 22010KT FEW026CB SCT027 BKN080", "TAF HKML 130500Z 1306/1406 18010KT 9999 FEW023 BECMG 1309/1312 18020KT FEW025 BECMG 1400/1403 18010KT SCT020", "TAF HKMO 130500Z 1306/1412 15015KT 9999 FEW026 BECMG 1400/1403 21005KT SCT020 BECMG 1409/1412 16015KT FEW026", "TAF HKNW 130500Z 1306/1406 09010KT 9999 SCT025 BECMG 1320/1323 04005KT CAVOK BECMG 1401/1405 9999 FEW018", "TAF HLGD 131100Z 1312/1412 27014KT 8000 NSC BECMG 1321/1323 17015KT BECMG 1408/1410 35015KT", "TAF HLGT 131100Z 1312/1412 17010KT CAVOK BECMG 1315/1317 08010KT BECMG 1321/1323 VRB02KT ", "TAF HLKF 131100Z 1312/1412 04010KT CAVOK", "TAF HLLB 131100Z 1312/1412 16012KT 8000 FEW080 BECMG1315/1317 34012KT BECMG 1321/1323 VRB02KT BECMG 1404/1406 17015KT", "TAF HLLM 131100Z 1312/1412 34015KT 8000 FEW030 SCT080 BECMG 1318/1320 VRB02KT PROB30 1321/1408 6000 RA BKN024 BECMG 1402/1404 35015KT", "TAF HLLQ 131100Z 1312/1412 VRB02KT 9999 FEW025", "TAF HLLS 131100Z 1312/1412 12012KT CAVOK BECMG 1318/1320 VRB02KT", "TAF HLMS 131100Z 1312/1412 VRB02KT 8000 FEW030 SCT080 PROB30 1402/1408 6000 RA BKN024", "TAF HLON 131100Z 1312/1412 VRB02KT CAVOK", "TAF HLTD 131100Z 1312/1412 22012KT 8000 SCT040 SCT080 BECMG 1320/1322 35012KT BECMG 1402/1404 VRB02KT", "TAF HLTQ 131100Z 1312/1412 VRB02KT 8000 FEW025 BECMG 1316/1318 36012KT BECMG 1321/1323 VRB02KT BECMG 1410/1412 17012KT", "TAF HLUB 131100Z 1312/1412 12012KT CAVOK BECMG 1318/1320 36010KT BECMG 1403/1405 VRB02KT", "HRYR 131100Z 1312/1418 12008KT 9999 SCT025 TEMPO 1314/1317 15010G20KT TS FEW023CB BKN025 BECMG 1319/1322 33004KT NSW SCT026 BECMG 1408/1411 13008KT SCT025 BECMG 1413/1417 16010G20KT TS FEW023CB BKN025", "HRZA 131100Z 1312/1418 12008KT 9999 SCT025 TEMPO 1316/1320 19006KT -TSRA FEW023CB BKN025 FM 140100 00000KT SCT026 BECMG 1405/1407 24005KT 9000 SCT025 TEMPO 1412/1417 12010G20KT 9999 TS FEW023CB SCT025", "HSKA 131100Z 1312/1418 VRB03KT 9999 FEW040 SCT140 TEMPO 1316/1320 4000 TSRA FEW045CB BKN140", "TAF HSMK 130430Z 1306/1412 VRB05KT 9999 SCT090 SCT140 TEMPO 1312/1318 03005KT 9999 FEW045 SCT140", "HSOB 131100Z 1312/1418 02008G18KT CAVOK TEMPO 1314/1318 18008G18KT 9999 FEW040 SCT140 PROB30 TEMPO 1318/1321 4000 TSRA FEW045CB BKN140", "HSPN 131100Z 1312/1418 02010G20KT 6000 NSW BECMG 1320/1322 32008KT", "TAF HSSJ 130430Z 1306/1412 VRB03KT CAVOK BECMG 1308/1310 09004KT 9999 FEW090 SCT140 TEMPO 1312/1318 09006KT 03005KT 9999 FEW045 SCT090", "HSSK 131100Z 1312/1418 VRB03KT CAVOK TEMPO 1314/1320 9999 FEW040 SCT140 PROB30 TEMPO 1320/1323 4000 TSRA FEW045CB BKN140", "HTAR 131100Z 1312/1412 12015KT 9999 FEW036", "HTDA 131100Z 1312/1418 14015KT 9999 BKN029 BECMG 1316/1318 13005KT SCT015", "HTDO 131100Z 1312/1412 09010KT 9999 FEW030", "HTKA 130500Z 1306/1406 12008KT CAVOK TEMPO 1307/1313 21012KT 9999 FEW022", "HTKJ 131100Z 1312/1412 09015KT 9999 FEW044 BECMG 1322/1401 21005KT BKN018 BECMG 1407/1410 FEW034", "HTMW 131100Z 1312/1412 35010KT 9999 FEW025 FEW026CB BECMG 1318/1319 00000KT", "HTTB 131100Z 1312/1412 12015KT 9999 FEW024", "HTZA 131100Z 1312/1412 13015KT 9999 FEW020 BECMG 1318/1320 13005KT BECMG 1402/1404 21010KT", "TAF HUEN 131100Z 1312/1418 18008KT 9999 FEW023 FEW025CB TEMPO 1406/1408 35010KT 9000 -TSRA SCT018 FEW020CB BKN100", "TAF HUSO 131100Z 1312/1412 07006KT 9999 SCT021 FEW023CB FM 131400 36008KT TS BKN018 FEW020CB BECMG 1402/1406 05005KT FEW020 BECMG 1409/1412 VRB07KT SCT020 FEW022CB", "KABE 131120Z 1312/1412 14006KT 6SM BR SCT025 OVC040 FM131400 15010G19KT 4SM -SHRA BR OVC020 FM131600 16011G21KT 2SM -SHRA BR VCTS SCT004 OVC010CB FM140000 28008KT 5SM -SHRA BR VCTS SCT008 OVC010CB WS020/18030KT FM140400 30005KT 5SM -SHRA BR SCT025 OVC030 FM140600 VRB04KT P6SM BKN060", "KABI 131120Z 1312/1412 03006KT P6SM SKC FM131500 04009KT P6SM SKC FM140000 VRB05KT P6SM SKC", "KABQ 131120Z 1312/1412 VRB06KT P6SM SKC FM131900 26007KT P6SM SKC FM140200 VRB06KT P6SM SKC", "KABR 131120Z 1312/1412 31010KT P6SM SKC FM131400 32017G27KT P6SM SKC FM131500 32023G38KT P6SM SKC FM140000 30013G22KT P6SM SCT250", "KABY 131152Z 1312/1412 22005KT 4SM -RA SCT004 BKN020 TEMPO 1312/1313 2SM TSRA BR BKN002 BKN020CB FM131400 27006KT P6SM BKN050 FM140400 32005KT P6SM SKC", "KACK 131137Z 1312/1412 16015KT P6SM BKN060 FM132300 14020G29KT P6SM VCSH OVC050 FM140600 15023G33KT 6SM -RA BR OVC030 WS020/16050KT FM140800 15024G35KT 5SM -RA BR OVC015 WS020/16050KT FM140900 15025G36KT 4SM -RA BR OVC008 WS020/17055KT", "KACT 131120Z 1312/1412 35010KT P6SM SKC FM131700 03012KT P6SM SKC", "KACV 131126Z 1312/1412 06003KT 1SM BR OVC003 TEMPO 1312/1315 1/4SM FG VV001 FM131500 28004KT 2SM BR OVC003 FM132100 31006KT P6SM BKN005 FM140200 VRB04KT 1/2SM FG OVC001", "KACY 131120Z 1312/1412 17006KT P6SM BKN080 FM131600 17011G19KT P6SM VCSH SCT025 OVC060 FM131900 16012G22KT 6SM BR VCSH SCT015 OVC025 FM132100 17011G20KT 5SM -SHRA BR VCTS SCT008 OVC010CB FM140300 25008KT 5SM -SHRA BR OVC008 WS020/19040KT FM140500 32007KT 6SM -SHRA BR OVC015 WS020/20030KT FM140900 31005KT P6SM SCT060", "KADF 131120Z 1312/1412 36004KT P6SM SKC FM131800 30010G16KT P6SM SKC FM140000 31003KT P6SM SKC", "TAF KADW 130100Z 1301/1407 19012KT 9999 SCT100 BKN250 510053 QNH2988INS BECMG 1310/1311 18010G20KT 9999 VCSH SCT020 BKN050 510053 QNH2986INS BECMG 1313/1314 16010G15KT 9999 -DZ SCT010 BKN020 520053 QNH2979INS BECMG 1316/1317 16010G20KT 9999 -SHRA VCTS SCT010 BKN020CB QNH2967INS BECMG 1319/1320 30012KT 8000 -SHRA BR BKN010 OVC020 QNH2967INS TX20/1318Z TN16/1310Z", "KAEG 131120Z 1312/1412 32008KT P6SM SKC FM131900 27007KT P6SM SKC FM140200 31006KT P6SM SKC", "KAEX 131123Z 1312/1412 01008KT P6SM BKN200 FM131600 02009KT P6SM SKC FM140100 VRB03KT P6SM SKC", "TAF AMD KAFF 122158Z 1221/1401 01012G20KT 9999 FEW080 530005 QNH3009INS TEMPO 1221/1223 560003 BECMG 1300/1301 VRB06KT 9999 SKC QNH3020INS BECMG 1311/1312 35009KT 9999 SKC 520203 QNH3025INS WND 310V030 ROTOR CONDS EXIST BECMG 1314/1315 01009KT 9999 SCT250 QNH3013INS WND 15009KT AFT 1319 TX22/1221Z TNM03/1313Z LAST NO AMDS AFT 1222 NEXT 1311", "KAFW 131120Z 1312/1412 02010KT P6SM SKC", "KAGC 131120Z 1312/1412 25010G20KT P6SM -RA OVC010 FM131500 26010G20KT P6SM OVC050 FM132100 VRB05KT P6SM SKC", "KAGS 131139Z 1312/1412 19004KT 6SM BR VCSH OVC015 TEMPO 1312/1315 3SM -SHRA BR OVC008 FM131500 25008KT P6SM VCSH OVC025 FM131800 27010G18KT P6SM BKN035 FM140000 32004KT P6SM SKC", "KAHN 131134Z 1312/1412 VRB03KT 3SM -SHRA BR BKN004 FM131400 25006KT P6SM BKN004 FM131500 27008KT P6SM BKN012 BKN025 FM131800 28011G20KT P6SM SCT030 FM132300 28008KT P6SM SKC FM140200 30005KT P6SM SKC", "KAIA 131129Z 1312/1412 30011KT P6SM SKC FM131400 32018G28KT P6SM SKC FM131800 32028G38KT P6SM SKC FM132300 32020G30KT P6SM SKC FM140100 31015KT P6SM SKC FM140400 29011KT P6SM SKC", "KALB 131136Z 1312/1412 16012G21KT P6SM SCT012 BKN050 TEMPO 1312/1315 5SM -SHRA BR BKN012 OVC040 FM131500 16015G25KT P6SM SCT025 BKN040 FM131700 16018G32KT P6SM BKN050 PROB30 1321/1324 4SM -SHRA BR OVC020 FM140000 18013KT 3SM -SHRA BR SCT008 OVC015 PROB30 1400/1403 28015G25KT 1 1/2SM +SHRA BR OVC015 FM140300 28006KT 6SM -RA BR BKN025 OVC040 PROB30 1403/1406 2SM RA BR BKN008 OVC015 FM141000 VRB03KT 1 1/2SM BR BKN005", "KALI 131120Z 1312/1412 VRB04KT 6SM BR FEW020 TEMPO 1312/1313 1SM BR BKN010 FM131400 02006KT P6SM FEW030 SCT050", "KALO 131120Z 1312/1412 29009KT P6SM SCT240 FM131400 29015G24KT P6SM FEW200 FM131600 30020G32KT P6SM BKN070 FM132300 31015G25KT P6SM BKN080 FM140000 26008KT P6SM SCT250", "KALS 131120Z 1312/1412 VRB05KT P6SM SKC FM131800 35008KT P6SM SKC FM140400 VRB04KT P6SM SKC", "KALW 131121Z 1312/1412 12007KT P6SM SKC FM131800 VRB06KT P6SM SKC FM140600 12007KT P6SM SKC", "KAMA 131124Z 1312/1412 02005KT P6SM SKC FM131500 06007KT P6SM SKC FM132000 18005KT P6SM SKC FM141100 23007KT P6SM FEW190", "KANB 131134Z 1312/1412 VRB03KT P6SM BKN002 FM131400 27005KT P6SM BKN022 FM131500 28007KT P6SM BKN035 FM140000 31005KT P6SM SKC FM140400 00000KT P6SM SKC", "KAND 131133Z 1312/1412 21003KT P6SM BKN027 BKN120 TEMPO 1312/1314 BKN007 OVC027 FM131500 25010G17KT P6SM SCT030 BKN070 FM131700 26011G18KT P6SM SCT070 FM140300 30005KT P6SM SKC", "KAOO 131120Z 1312/1412 18010G15KT 6SM -RA BR OVC015 WS020/19035KT FM131900 24007KT P6SM VCSH SCT025 BKN040 FM140000 27005KT P6SM SCT250", "KAPA 131120Z 1312/1412 21006KT P6SM SKC FM131600 04007KT P6SM FEW100 FEW220 FM140100 19008KT P6SM FEW220", "KAPC 131130Z 1312/1412 26009KT P6SM OVC006 FM131800 22007KT P6SM SKC FM132300 19015KT P6SM SKC FM140400 24008KT P6SM FEW009 FM141130 VRB05KT P6SM BKN008", "KAPF 131120Z 1312/1412 VRB04KT P6SM FEW025 BKN150 FM131400 19006KT P6SM VCSH SCT025 SCT035 OVC100 FM131600 24008KT P6SM VCTS BKN030CB BKN050 FM140100 VRB03KT P6SM SCT035 BKN100", "KAPN 131138Z 1312/1412 19005KT P6SM VCSH BKN045 FM131300 23006KT P6SM BKN060 FM131500 23008G17KT P6SM BKN045 FM131800 24009G17KT P6SM VCSH BKN060", "KARA 131123Z 1312/1412 02010KT P6SM -SHRA SCT015 BKN050 TEMPO 1312/1314 3SM SHRA BR BKN015 FM131400 02009KT P6SM BKN200 FM131700 02010KT P6SM SKC FM140100 VRB03KT P6SM SKC", "KART 131120Z 1312/1412 17020G32KT P6SM -SHRA OVC040 FM131500 20016G24KT 4SM RA BR OVC020 FM132200 20007KT 6SM -RA OVC025 FM140600 18005KT P6SM VCSH BKN060", "KASD 131120Z 1312/1412 17003KT 1/2SM FG VV004 FM131345 36006KT P6SM SCT020 BKN080 BKN250 FM131500 01007KT P6SM FEW040 SCT080 SCT250", "KASE 131120Z 1312/1412 21007KT P6SM SKC FM131300 19004KT P6SM SKC FM131800 36006KT P6SM SKC FM132100 34012G20KT P6SM SKC FM140300 21009KT P6SM SKC FM140800 17006KT P6SM SKC", "KASN 131134Z 1312/1412 00000KT 4SM BR BKN002 FM131400 27005KT P6SM BKN030 FM131500 29007KT P6SM BKN040 FM140300 00000KT P6SM SKC FM141100 00000KT P6SM SKC", "KAST 131120Z 1312/1412 08004KT P6SM SKC", "KATL 131134Z 1312/1418 14005KT 6SM SHRA BR BKN004 FM131300 17006KT P6SM BKN006 FM131500 28010KT P6SM BKN012 BKN025 FM131800 30011G20KT P6SM SCT040 FM140000 30008KT P6SM SKC FM141200 26005KT P6SM SKC", "KATW 131138Z 1312/1412 26009KT P6SM BKN070 FM131500 28012G18KT P6SM BKN050 FM131900 28012G19KT P6SM -SHRA OVC050 FM140000 26005KT P6SM SCT070", "KATY 131120Z 1312/1412 28012G21KT P6SM SKC FM131500 31023G38KT P6SM FEW200 FM132300 32016G32KT P6SM FEW250 FM140100 29011G18KT P6SM FEW250", "KAUG 131123Z 1311/1412 17005KT 4SM BR SCT008 BKN019 BKN050 FM131300 16007KT P6SM BKN025 FM132200 14008KT P6SM SCT015 OVC050 FM140100 13014G27KT P6SM SCT015 OVC030", "KAUS 131120Z 1312/1418 35013KT P6SM SKC FM131500 02013KT P6SM SKC FM132200 02005KT P6SM FEW250", "KAUW 131138Z 1312/1412 26009KT P6SM SCT018 BKN040 TEMPO 1312/1315 -SHRA BKN018 FM131500 29010G17KT P6SM -SHRA OVC025 FM131700 29011G19KT P6SM -SHRA OVC040 FM132000 29011G18KT P6SM OVC050 FM140000 27003KT P6SM BKN060", "KAVL 131133Z 1312/1412 14003KT P6SM BKN090 FM131600 29014G24KT P6SM SCT090 FM132200 31009KT P6SM SKC FM140500 34006KT P6SM SKC FM140800 35003KT P6SM SKC", "KAVP 131135Z 1312/1412 17010G20KT P6SM VCSH BKN035 WS020/19040KT FM131300 17010G22KT 4SM SHRA BR BKN025 WS020/18045KT FM131700 16017G30KT 6SM -SHRA BR OVC012 TEMPO 1320/1323 18025G40KT 2SM +SHRA OVC008 FM132300 22007KT 5SM SHRA OVC013 FM140600 VRB02KT P6SM BKN050", "KAXN 131127Z 1312/1412 31016G26KT P6SM BKN060 FM140300 29009KT P6SM OVC100 PROB30 1408/1412 4SM -SHRASN OVC040", "KAZO 131128Z 1312/1412 21008G14KT P6SM SCT080 FM131400 26015G25KT P6SM -SHRA BKN040 FM140100 25005KT P6SM VCSH BKN100", "TAF KBAB 130300Z 1303/1409 VRB06KT 9999 SKC QNH2998INS BECMG 1318/1319 22006KT 9999 SKC QNH2987INS WND VRB06KT AFT 1403 TX30/1323Z TN11/1312Z", "TAF KBAD 130405Z 1304/1410 28005KT 9999 -SHRA VCTS BKN070CB QNH2987INS TEMPO 1304/1306 33015G25KT -TSRA BECMG 1307/1308 01010KT 9999 NSW SCT100 QNH2990INS BECMG 1313/1314 35010KT 9999 SKC QNH2990INS TX28/1320Z TN13/1312Z LAST NO AMDS AFT 1304 NEXT 1312", "KBAF 131137Z 1312/1412 15006KT P6SM VCSH OVC010 FM131600 17010G24KT P6SM -RA OVC020 FM132100 15011G25KT 4SM -RA BR SCT008 OVC012 FM140200 15012G26KT 1 1/2SM +RA BR OVC008 FM140900 27009KT 3SM BR VCSH OVC008", "KBAM 131120Z 1312/1412 VRB06KT P6SM SKC", "KBBD 131120Z 1312/1412 02005KT P6SM SKC FM131500 04010KT P6SM SKC FM140000 VRB05KT P6SM SKC", "KBBG 131120Z 1312/1412 VRB04KT P6SM SKC FM131500 29012G22KT P6SM SKC FM131800 29015G25KT P6SM SKC FM140100 VRB04KT P6SM SKC", "KBCB 131120Z 1312/1412 00000KT P6SM OVC015 FM131400 21005KT 6SM BR VCSH OVC015 FM131700 27008G16KT P6SM BKN035 FM132000 28008G16KT P6SM SCT030 BKN100 FM140000 30005KT P6SM SKC", "KBCE 131137Z 1312/1412 30007KT P6SM SKC FM131700 35008KT P6SM SKC FM140300 27006KT P6SM SKC", "KBDL 131137Z 1312/1418 15007KT P6SM VCSH SCT008 OVC012 FM131600 17013G20KT P6SM -RA OVC020 FM132200 16012G26KT 4SM -RA BR SCT008 OVC012 FM140200 18011G25KT 1 1/2SM RA BR OVC008 FM141000 32006KT 3SM BR VCSH OVC008 FM141500 29006KT P6SM SCT200", "KBDN 131121Z 1312/1412 VRB06KT P6SM SKC FM131800 34007KT P6SM SKC FM140600 VRB06KT P6SM SKC", "KBDR 131124Z 1312/1412 16013G23KT P6SM SCT020 BKN035 TEMPO 1316/1319 5SM -SHRA BKN025 FM131900 16016G26KT 4SM -SHRA BR BKN020 OVC030 FM132200 15016G26KT 2SM SHRA VCTS BKN010CB OVC020 WS020/17050KT TEMPO 1402/1406 1SM +SHRA BR BKN008 FM140700 33009KT P6SM SCT020 BKN060 PROB30 1407/1410 4SM -SHRA BKN025", "KBED 131137Z 1312/1412 16008KT P6SM OVC060 FM131800 16012G24KT P6SM VCSH SCT020 OVC040 FM132100 15011G23KT 6SM -RA BR OVC020 FM140100 14013G26KT 4SM -RA BR OVC012 FM140700 14013G30KT 1 1/2SM -RA BR SCT003 OVC008", "KBFD 131120Z 1312/1412 19010G20KT 6SM -RA BR OVC015 WS020/21040KT TEMPO 1312/1314 4SM BR OVC007 FM131700 26007KT P6SM VCSH SCT015 BKN035 FM132200 27006KT P6SM OVC100", "KBFF 131129Z 1312/1412 31011KT P6SM SKC WS020/33040KT FM131400 31014G22KT P6SM SKC FM131700 32025G35KT P6SM SKC FM132300 32016G24KT P6SM SKC FM140100 30007KT P6SM SKC", "KBFI 131120Z 1312/1412 00000KT P6SM SKC FM131700 32006KT 6SM HZ SKC FM140600 03006KT P6SM SKC", "KBFL 131120Z 1312/1412 32004KT P6SM FEW250", "KBFM 131139Z 1312/1412 32005KT P6SM VCTS SCT011CB BKN030 FM131300 34006KT P6SM SCT030 BKN080 FM131500 36007KT P6SM SCT250", "KBGM 131135Z 1312/1412 16016G27KT 6SM SHRA BKN015 WS020/18040KT FM131500 17019G32KT 6SM -SHRA OVC008 TEMPO 1319/1322 18025G40KT 1SM +SHRA OVC003 FM132300 30007KT 6SM -SHRA OVC012 FM140800 VRB02KT P6SM SCT035", "KBGR 131133Z 1312/1412 16008KT P6SM SCT008 BKN035 TEMPO 1312/1314 5SM BR BKN008 FM131400 17010G18KT P6SM BKN150 FM131600 17012G22KT P6SM BKN080 FM140000 15012G22KT P6SM BKN040 WS020/17045KT FM140200 15012G22KT P6SM VCSH OVC015 WS020/17045KT FM140800 16015G25KT 3SM -RA BR OVC006 WS020/17050KT", "KBHB 131133Z 1312/1412 18008KT P6SM SCT008 BKN035 TEMPO 1312/1314 5SM BR BKN008 FM131400 17010G18KT P6SM BKN150 FM131600 17012G22KT P6SM BKN080 FM140000 15012G22KT P6SM BKN040 WS020/17045KT FM140200 15015G25KT P6SM VCSH OVC015 WS020/17045KT FM140800 16018G28KT 3SM -RA BR OVC005 WS020/17050KT", "KBHM 131134Z 1312/1412 VRB03KT 2SM BR BKN003 FM131300 VRB04KT 4SM BR BKN003 FM131400 31006KT P6SM BKN080 FM131500 32008KT P6SM SCT150 FM140300 00000KT P6SM SKC", "TAF KBIF 122200Z 1222/1404 VRB06KT 9999 SKC QNH3011INS TX26/1222Z TN11/1313Z", "KBIH 131121Z 1312/1412 33007KT P6SM SKC FM131500 VRB06KT P6SM SKC FM132000 16008KT P6SM SKC FM140400 33008KT P6SM SKC", "KBIL 131126Z 1312/1412 31006KT P6SM SCT100 FM132000 30015KT P6SM SCT200 FM140000 31006KT P6SM SCT100", "KBIS 131129Z 1312/1412 32018G25KT P6SM SKC FM131300 31022G33KT P6SM SKC FM131500 32030G45KT P6SM SKC FM140000 32019G29KT P6SM FEW300 FM140200 31012G17KT P6SM FEW250 WS017/33040KT FM140600 30011KT P6SM SCT070 SCT120 WS015/33040KT", "TAF KBIX 130200Z 1302/1408 VRB06KT 9999 SCT012 BKN025 QNH2988INS BECMG 1308/1309 VRB06KT 4800 BR BKN010 QNH2992INS BECMG 1314/1315 36009KT 9999 NSW FEW010 SCT040 QNH2995INS TX28/1320Z TN20/1311Z LAST NO AMDS AFT 1304 NEXT 1310", "KBJC 131120Z 1312/1412 VRB06KT P6SM SKC FM131600 14006KT P6SM FEW100 FEW220 FM140100 21007KT P6SM FEW220", "KBJI 131120Z 1312/1412 30015G21KT 6SM -SN OVC012 FM131800 30014G22KT P6SM -SHRASN OVC030 FM140200 29005KT P6SM BKN040 FM140600 28006KT P6SM -SHSN OVC015", "KBKE 131140Z 1312/1412 VRB04KT P6SM SKC TEMPO 1320/1324 35008KT", "TAF KBKF 130133Z 1301/1407 06006KT 9999 SKC 510052 QNH3015INS TX16/1323Z TN01/1312Z", "KBKW 131143Z 1312/1412 21008G16KT P6SM VCSH OVC025 FM131700 28010G17KT P6SM BKN050 FM132100 29009KT P6SM SCT210 FM140200 VRB04KT P6SM FEW240", "KBLF 131120Z 1312/1412 23003KT P6SM SCT025 BKN040 FM131300 21007KT 3SM -SHRA BR OVC015 FM131500 26012G18KT 6SM BR VCSH BKN012 FM131900 29013G20KT P6SM SCT035 SCT250 FM132200 29006KT P6SM SCT250 FM140100 28005KT P6SM SKC", "KBLH 131120Z 1312/1412 25004KT P6SM SKC FM131600 VRB03KT P6SM SKC FM140200 25005KT P6SM SKC", "KBLI 131120Z 1312/1412 00000KT P6SM SCT001 TEMPO 1312/1314 5SM BR FM131500 00000KT P6SM SKC FM132000 29006KT 6SM HZ SKC FM140300 00000KT P6SM SKC FM140800 00000KT 5SM BR SCT001", "TAF AMD KBLV 130431Z 1304/1406 34015G25KT 9999 FEW050 BKN090 QNH2982INS BECMG 1306/1307 29009KT 9999 SCT090 SCT250 QNH2982INS BECMG 1314/1315 28015G25KT 9999 SKC QNH2987INS BECMG 1317/1318 28018G29KT 9999 FEW080 QNH2981INS BECMG 1321/1322 28009KT 9999 FEW080 QNH2982INS TX18/1320Z TN07/1312Z", "KBMG 131120Z 1312/1412 28010KT P6SM FEW070 FM131600 27016G30KT P6SM SCT100 FM132300 26010KT P6SM SCT100 AMD LTD TO CLD VIS AND WIND TIL 131300", "KBMI 131120Z 1312/1412 27009KT P6SM SCT100 FM131400 29013G23KT P6SM SCT100 FM131700 28021G35KT P6SM FEW250 FM132300 28012G25KT P6SM FEW250 FM140200 26007KT P6SM FEW250 FM141000 22007KT P6SM FEW250", "KBNA 131120Z 1312/1412 26005KT P6SM SCT006 SCT060 TEMPO 1312/1313 BKN005 FM131400 30009G16KT P6SM SKC FM140000 20004KT P6SM SKC", "KBNO 131140Z 1312/1412 VRB06KT P6SM SKC", "KBOI 131140Z 1312/1412 14007KT P6SM SKC FM131800 32007KT P6SM SKC FM140500 14007KT P6SM SKC", "KBOS 131137Z 1312/1418 16010KT P6SM BKN040 FM131700 16012G22KT P6SM SCT020 OVC040 FM132200 14014G25KT 6SM -RA BR OVC020 FM140300 14015G29KT 4SM -RA BR SCT008 OVC012 FM140700 15015G31KT 2SM -RA BR SCT003 OVC008 FM141500 17012G21KT 5SM -RA BR OVC008", "KBPI 131120Z 1312/1412 VRB05KT P6SM SCT250 FM131900 33014G20KT P6SM FEW250 FM140100 34008KT P6SM FEW250 FM140700 VRB05KT P6SM FEW250", "KBPK 131120Z 1312/1412 31003KT P6SM SKC FM131600 29012G20KT P6SM SKC FM140000 VRB04KT P6SM SKC", "KBPT 131123Z 1312/1412 36008KT 6SM BR VCTS SCT012 BKN035CB TEMPO 1312/1314 VRB12G20KT 2SM TSRA BR BKN015CB FM131400 02009KT P6SM BKN200 FM131700 03010KT P6SM SKC FM140100 VRB03KT P6SM SKC", "KBRD 131122Z 1312/1412 30014G25KT P6SM OVC080 FM131400 31012G20KT P6SM BKN040 FM140000 30007G14KT P6SM BKN040", "KBRL 131122Z 1312/1412 26008KT P6SM FEW090 FM131300 28011G28KT P6SM FEW060 FM131700 29025G35KT P6SM SCT060 FM140100 30007KT P6SM FEW240", "KBRO 131120Z 1312/1412 VRB03KT P6SM FEW250 FM131800 04010KT P6SM SCT110 FM140200 VRB03KT P6SM FEW250", "KBTL 131128Z 1312/1412 21008G14KT P6SM SCT080 FM131400 26015G25KT P6SM -SHRA BKN040 FM140100 25005KT P6SM VCSH BKN100", "KBTM 131120Z 1312/1412 12003KT P6SM SKC FM132000 30006KT P6SM SKC FM140100 VRB03KT P6SM SKC", "KBTR 131120Z 1312/1412 02004KT P6SM -RA FEW090 BKN110 FM131400 01006KT P6SM SCT250 FM140100 VRB03KT P6SM SKC", "KBTV 131130Z 1312/1412 18011G19KT P6SM SCT150 WS020/19045KT FM131500 17017G29KT P6SM SCT050 BKN100 FM131900 17019G33KT P6SM VCSH SCT035 BKN060 FM132200 18012G20KT P6SM VCSH BKN035 FM140000 19009KT 6SM -SHRA BR OVC025 WS020/16045KT FM140500 VRB03KT 3SM RA BR OVC015", "KBUF 131120Z 1312/1412 20012KT 4SM RA BR OVC025 FM131400 24014G22KT 6SM -SHRA OVC035 FM131700 24016G24KT P6SM VCSH BKN040 FM140000 22008KT P6SM BKN050 FM140600 18006KT P6SM SCT050", "KBUR 131129Z 1312/1412 VRB03KT 6SM BR OVC008 FM131600 VRB03KT P6SM OVC012 FM131800 VRB03KT P6SM SKC FM132000 17009KT P6SM SKC FM140300 12006KT P6SM SKC FM140700 VRB03KT P6SM OVC009", "KBVI 131120Z 1312/1412 25010G20KT 6SM -RA OVC010 FM131500 26010G19KT P6SM OVC050 FM132100 VRB05KT P6SM SKC AMD LTD TO WIND VIS AND WX", "KBVO 131120Z 1312/1412 29005KT P6SM BKN110 FM131800 29011G21KT P6SM SCT250 FM140000 VRB03KT P6SM SCT250", "KBWG 131120Z 1312/1412 29009KT P6SM SCT250 FM131600 27014G22KT P6SM FEW250 FM132300 25004KT P6SM SKC", "KBWI 131140Z 1312/1418 17006KT 3SM SHRA OVC050 FM131400 17009KT 3SM SHRA BR OVC025 FM131600 17009KT P6SM VCSH OVC015 FM131800 17009KT P6SM OVC015 FM132200 17010G20KT 5SM SHRA OVC020 FM140000 00000KT P6SM OVC035", "KBYI 131120Z 1312/1412 VRB05KT P6SM SKC FM132100 31006KT P6SM SKC FM140200 23005KT P6SM SKC", "KBZN 131120Z 1312/1418 VRB06KT P6SM SCT150", "KCAE 131139Z 1312/1412 VRB03KT 1/2SM FG VV002 TEMPO 1312/1313 1SM BR VV002 FM131400 25008KT P6SM OVC025 FM131800 26010G18KT P6SM BKN035 FM140000 31006KT P6SM SKC", "KCAK 131131Z 1312/1412 30012G20KT P6SM VCSH SCT015 OVC070 TEMPO 1312/1315 5SM -SHRA SCT015 BKN025 FM131500 26010KT P6SM BKN080 FM131800 25012G20KT P6SM SCT060 FM140100 22005KT P6SM FEW150", "KCAR 131133Z 1312/1412 15008KT P6SM BKN150 FM131800 17012G22KT P6SM BKN080 FM140000 16012G22KT P6SM BKN040 WS020/17045KT FM140200 15012G22KT P6SM VCSH OVC015 WS020/17045KT FM140900 15012G22KT 3SM -RA BR OVC008 WS020/17050KT", "TAF KCBM 130100Z 1301/1407 20009KT 9999 OVC012 QNH2985INS BECMG 1303/1304 20012KT 8000 -SHRA BKN012 OVC030 QNH2987INS TEMPO 1304/1307 VRB15G30KT 1600 TSRA BKN009CB BECMG 1307/1308 31012KT 9999 NSW SCT005 OVC010 QNH2986INS BECMG 1309/1310 31009KT 9999 SKC QNH2986INS BECMG 1314/1315 33012G18KT 9999 SKC QNH2987INS BECMG 1322/1323 VRB06KT 9999 SKC QNH2989INS TX24/1320Z TN15/1401Z LAST NO AMDS AFT 1301 NEXT 1309", "KCDC 131137Z 1312/1412 VRB04KT P6SM SKC FM131800 35006KT P6SM SKC FM140100 VRB05KT P6SM SKC", "KCDR 131129Z 1312/1412 29014KT P6SM SKC FM131300 30015G25KT P6SM SKC FM131500 31025G35KT P6SM SKC FM132300 31017G27KT P6SM SKC FM140100 29011KT P6SM SKC", "KCDS 131120Z 1312/1412 07009KT P6SM SKC", "KCEC 131126Z 1312/1412 VRB02KT 1/2SM FG OVC002 FM131800 VRB05KT 3SM BR HZ BKN003 FM132100 31007KT 5SM HZ SCT005 FM140100 VRB06KT 1SM BR OVC004 FM140600 VRB03KT 1/2SM FG OVC001 AMD NOT SKED", "TAF KCEF 130200Z 1302/1408 19009KT 9999 SCT180 BKN210 WS017/21032KT 510107 QNH2996INS TEMPO 1309/1314 6000 BR BKN007 BKN015 BECMG 1313/1314 17010G15KT 9999 VCSH FEW007 SCT015 BKN025 OVC040 510107 QNH2994INS TEMPO 1314/1318 18015G25KT 520008 BECMG 1317/1318 17012G18KT 8000 -RA BR FEW007 BKN015 OVC030 510107 QNH2987INS TEMPO 1318/1321 18020G30KT 520008 BECMG 1320/1321 17012G18KT 4800 -RA BR SCT007 OVC012 510107 QNH2985INS TEMPO 1321/1402 18020G30KT 520008 BECMG 1402/1403 17012KT 4800 -RA BR BKN007 560054 QNH2979INS TX21/1319Z TN11/1311Z LAST NO AMDS AFT 1303 NEXT 1311", "KCGI 131128Z 1312/1412 27004KT P6SM FEW250 FM131500 27008KT P6SM SKC FM131700 28014G24KT P6SM SKC FM140000 29008KT P6SM SKC FM140200 29006KT P6SM FEW250 FM140400 VRB04KT P6SM SKC", "KCHA 131120Z 1312/1412 26006KT P6SM SCT020 BKN040 TEMPO 1312/1314 BKN020 FM131600 27012KT P6SM SKC FM140000 30003KT P6SM SKC", "KCHO 131140Z 1312/1412 19007KT 6SM BR OVC004 FM131400 19007KT P6SM OVC008 FM131500 19007KT P6SM OVC015 FM131700 19008KT P6SM OVC035 FM132200 23003KT P6SM BKN060 FM141100 00000KT P6SM SKC", "KCHS 131120Z 1312/1412 VRB03KT P6SM OVC007 TEMPO 1312/1315 VRB05KT SCT007 OVC011 FM131500 27008KT P6SM SCT015 BKN040 FM131800 25007KT P6SM BKN035 FM140600 30004KT P6SM SKC", "KCID 131122Z 1312/1412 29008KT P6SM FEW100 FM131300 30015G24KT P6SM FEW060 FM131600 30020G34KT P6SM BKN060 FM140100 30007KT P6SM FEW240", "KCIU 131138Z 1312/1412 20007KT P6SM VCSH OVC022 FM131600 23006KT 6SM BR VCSH BKN022 FM131900 24006KT 6SM -SHRA BR OVC035 FM140000 25004KT P6SM VCSH OVC022 FM140600 16004KT 6SM -SHRA BR BKN013", "KCKB 131143Z 1312/1412 21008G17KT P6SM VCSH SCT025 BKN045 TEMPO 1312/1315 5SM -SHRA OVC020 FM131700 24008G15KT P6SM BKN050 FM132300 27005G11KT P6SM SCT160 FM140300 VRB02KT P6SM FEW240", "KCKV 131120Z 1312/1412 29004KT P6SM SCT040 FM131400 30012G21KT P6SM SKC FM140000 25004KT P6SM SKC", "KCLE 131131Z 1312/1418 25010KT P6SM VCSH BKN015 BKN100 FM131400 24012G20KT P6SM BKN080 FM140100 21007KT P6SM FEW150", "KCLL 131138Z 1312/1412 04009KT P6SM FEW240 FM140100 VRB05KT P6SM SKC", "KCLM 131120Z 1312/1412 VRB03KT P6SM SKC FM131800 08007KT P6SM SKC FM132300 VRB03KT P6SM SKC", "KCLT 131133Z 1312/1418 22005KT P6SM OVC006 TEMPO 1312/1315 SCT006 BKN012 FM131500 22008KT P6SM OVC015 FM131600 24009KT P6SM BKN022 FM131700 24010G16KT P6SM SCT050 FM132300 29005KT P6SM SCT150 FM140400 34005KT P6SM SKC", "KCMA 131129Z 1312/1412 VRB03KT 4SM BR OVC011 FM131600 VRB03KT P6SM OVC012 FM131800 23008KT P6SM SKC FM140500 VRB03KT P6SM BKN009", "KCMH 131132Z 1312/1412 28012KT P6SM VCSH SCT020 BKN080 FM131600 26013G22KT P6SM BKN050 FM140000 25010KT P6SM BKN150 FM140500 23006KT P6SM SCT250", "KCMI 131120Z 1312/1412 27008KT P6SM SCT100 FM131400 28013G22KT P6SM SCT100 FM131800 28022G36KT P6SM FEW250 FM132300 28012G24KT P6SM FEW250 FM140200 28007KT P6SM FEW250 FM140500 24005KT P6SM FEW250", "KCMX 131120Z 1312/1412 31005KT 6SM BR VCSH BKN035 FM131500 32007KT P6SM VCSH OVC020 FM132000 32009KT P6SM BKN035 FM132200 30009KT P6SM BKN050 FM140300 29008KT P6SM VCSH BKN040", "KCNM 131121Z 1312/1412 10007KT P6SM FEW250", "KCNU 131120Z 1312/1412 28008KT P6SM SCT200 FM131700 30017G25KT P6SM FEW250 FM140000 30011KT P6SM SKC FM140200 28008KT P6SM SKC", "KCNY 131120Z 1312/1412 VRB04KT P6SM SKC", "KCOD 131120Z 1312/1412 VRB05KT P6SM SCT250 FM131600 03008KT P6SM SCT250 FM140300 VRB05KT P6SM SCT250", "KCOE 131132Z 1312/1412 06008KT P6SM FEW250 FM132200 32005KT P6SM SKC FM140400 04006KT P6SM SKC", "TAF KCOF 130200Z 1302/1408 VRB06KT 9999 VCSH SCT040 QNH2995INS BECMG 1306/1307 VRB06KT 9999 NSW SCT030 QNH2987INS BECMG 1314/1315 VRB06KT 9999 VCSH SCT030 QNH2982INS TX29/1317Z TN25/1308Z LAST NO AMDS AFT 1304 NEXT 1310", "KCON 131120Z 1312/1412 VRB03KT P6SM OVC004 FM131600 13006KT P6SM BKN020 FM132000 14005KT P6SM VCSH OVC015 FM132300 13007G15KT 4SM -RA BR OVC009 FM140600 12012G22KT 2SM -RA BR OVC005 WS020/17045KT", "KCOS 131120Z 1312/1412 36005KT P6SM SKC FM131800 05006KT P6SM SKC FM132000 16008KT P6SM SKC FM140500 35006KT P6SM SKC", "KCOT 131120Z 1312/1412 VRB04KT P6SM FEW030 SCT050 FM131400 04010KT P6SM FEW030", "KCOU 131120Z 1312/1412 26010KT P6SM FEW250 FM131600 28017G34KT P6SM FEW250 FM140000 29008KT P6SM SKC FM140300 25004KT P6SM SKC", "KCPR 131120Z 1312/1412 25006KT P6SM SCT090 FM131600 30010KT P6SM SCT250 FM131800 30012G20KT P6SM SCT250 FM140100 30009KT P6SM SCT250 FM140500 26007KT P6SM SCT250", "KCPS 131120Z 1312/1412 25006KT P6SM SKC FM131600 28015G30KT P6SM FEW250 FM140000 29007KT P6SM FEW250 FM140300 VRB03KT P6SM SKC", "KCRE 131120Z 1312/1412 20006KT P6SM SCT015 TEMPO 1312/1314 BKN015 FM131400 21006KT P6SM BKN015 TEMPO 1316/1317 SCT020 FM131700 22007KT P6SM SCT120 FM140100 26006KT P6SM FEW250 FM140600 33007KT P6SM FEW200", "KCRG 131123Z 1312/1412 27008KT P6SM VCSH SCT025 BKN040 BKN100 TEMPO 1313/1315 4SM SHRA SCT015 BKN025 OVC040 FM132200 VRB04KT P6SM SCT025 SCT100 BKN250 FM140800 34004KT 6SM BR FEW005 SCT010", "KCRP 131120Z 1312/1412 18007KT P6SM SCT030 TEMPO 1312/1313 VRB03KT 4SM BR BKN010 FM131400 03007KT P6SM FEW030 SCT060", "KCRQ 131126Z 1312/1412 VRB03KT P6SM OVC012 TEMPO 1312/1316 5SM BR OVC009 FM131600 VRB04KT P6SM OVC015 FM131900 26008KT P6SM SCT018 TEMPO 1323/1402 BKN018 FM140200 VRB04KT P6SM OVC012", "KCRW 131143Z 1312/1412 23010G17KT P6SM VCSH OVC025 FM131700 26007G15KT P6SM BKN070 FM132000 27008G16KT P6SM SCT120 FM140000 VRB03KT P6SM FEW250", "KCSG 131134Z 1312/1412 VRB04KT 6SM SHRA BR BKN020 FM131400 26005KT P6SM BKN004 FM131500 29007KT P6SM BKN010 FM131600 28007KT P6SM BKN025 FM131700 29009KT P6SM SCT030 FM140000 31004KT P6SM SKC", "KCSM 131120Z 1312/1412 36011G17KT P6SM SKC FM132100 31009KT P6SM SKC FM140000 24009KT P6SM SKC", "KCSV 131120Z 1312/1412 23006KT P6SM SCT007 BKN035 TEMPO 1312/1314 BKN007 FM131500 30010G19KT P6SM SKC FM140000 22002KT P6SM SKC", "KCTB 131120Z 1312/1412 VRB04KT P6SM SCT150 FM132000 27011KT P6SM SKC", "KCUB 131139Z 1312/1412 VRB03KT 1/4SM FG VV004 TEMPO 1312/1314 1SM BR BKN006 FM131400 25007KT P6SM OVC025 FM131800 26010G17KT P6SM BKN035 FM140000 31004KT P6SM SKC", "KCVG 131132Z 1312/1418 24010KT P6SM VCSH SCT025 BKN035 FM131400 29014G20KT P6SM FEW025 SCT070 FM131600 26015G25KT P6SM SCT050 FM140000 26010KT P6SM BKN250 FM140500 22005KT P6SM SCT250 FM141500 22008KT P6SM SKC", "TAF KCVS 130200Z 1302/1408 17010KT 9999 SKC QNH3010INS BECMG 1309/1310 06010KT 9999 SKC QNH3010INS BECMG 1314/1315 09010KT 9999 SKC QNH3010INS TEMPO 1316/1318 09010G15KT BECMG 1321/1322 VRB06KT 9999 SKC QNH3008INS TX22/1322Z TN09/1313Z", "KCWA 131138Z 1312/1412 26009KT P6SM SCT016 BKN040 TEMPO 1312/1315 -SHRA BKN016 FM131500 29011G18KT P6SM -SHRA OVC022 FM131700 29012G19KT P6SM -SHRA OVC035 FM132000 29011G19KT P6SM OVC050 FM140000 27004KT P6SM BKN060", "KCXO 131138Z 1312/1412 VRB03KT P6SM BKN020 FM131300 VRB03KT P6SM FEW020 FM131500 04007KT P6SM SCT060 FM132300 VRB04KT P6SM SKC", "KCXP 131120Z 1312/1412 VRB04KT P6SM SKC FM132000 08011G17KT P6SM FEW100 FM140100 VRB03KT P6SM SKC", "KCYS 131129Z 1312/1412 30005KT P6SM SKC FM131500 33014G22KT P6SM SKC FM131800 33020G30KT P6SM SKC FM140100 31008KT P6SM SKC", "TAF KDAA 122000Z 1220/1402 19012KT 9999 FEW040 SCT100 BKN200 QNH2990INS WND VRB06KT AFT 1301 BECMG 1308/1309 17009KT 9999 VCSH SCT020 BKN045 QNH2985INS BECMG 1314/1315 16012KT 9000 -SHRA SCT008 BKN012 OVC025 QNH2977INS TEMPO 1315/1321 8000 -SHRA BR BKN008 BECMG 1320/1321 20012KT 9999 VCTS SCT010 BKN020CB QNH2964INS TX22/1220Z TN15/1309Z LAST NO AMDS AFT 1301 NEXT 1312", "KDAB 131120Z 1312/1412 25005KT P6SM SCT025 BKN100 FM131500 25007KT P6SM VCTS SCT035CB BKN120 TEMPO 1316/1320 4SM SHRA BKN030 FM132300 24005KT P6SM SCT035 SCT080", "KDAG 131121Z 1312/1412 27011KT P6SM FEW120 FM131900 08007KT P6SM FEW120 FM140300 25010KT P6SM SKC", "KDAL 131120Z 1312/1412 03010KT P6SM SKC", "KDAN 131120Z 1312/1412 VRB03KT 6SM -SHRA BR OVC006 FM131500 21006KT 6SM BR VCSH BKN012 FM131800 24006KT P6SM BKN050 FM140300 33005KT P6SM OVC100", "KDAY 131132Z 1312/1412 29010KT P6SM VCSH SCT025 BKN060 FM131500 26015G25KT P6SM SCT050 BKN100 FM132300 25011KT P6SM BKN250 FM140900 21006KT P6SM SCT250", "KDBQ 131122Z 1312/1412 27008KT P6SM FEW100 FM131400 29016G26KT P6SM SCT060 FM131800 29020G31KT P6SM VCSH BKN060 FM140100 30007KT P6SM FEW240", "KDCA 131140Z 1312/1418 17009KT 3SM SHRA OVC035 FM131500 17009KT P6SM VCSH OVC008 FM131700 17009KT P6SM OVC015 FM132100 20010G20KT 5SM SHRA OVC035 FM132300 01004KT P6SM OVC035", "KDDC 131124Z 1311/1412 30010KT P6SM SKC FM131700 32018G28KT P6SM FEW240 FM140200 32007KT P6SM FEW250", "KDEC 131120Z 1312/1412 27008KT P6SM SCT100 FM131400 28013G22KT P6SM SCT100 FM131700 28021G35KT P6SM FEW250 FM132300 29013G25KT P6SM FEW250 FM140200 28007KT P6SM FEW250", "KDEN 131120Z 1312/1418 22008KT P6SM SKC FM131400 VRB06KT P6SM SKC FM131600 01011KT P6SM FEW100 FEW220 FM140000 VRB06KT P6SM FEW100 FEW220 FM140500 20009KT P6SM FEW220 FM141700 30011KT P6SM FEW220", "KDET 131120Z 1312/1412 24007KT P6SM SCT050 BKN070 FM131500 24013G20KT P6SM BKN045 OVC080 TEMPO 1320/1324 5SM SHRA OVC045 FM140100 22007KT P6SM SCT045 BKN100 OVC250", "KDFW 131120Z 1312/1418 03010KT P6SM SKC", "KDHN 131123Z 1312/1412 22002KT 6SM -RA BR FEW002 BKN030 TEMPO 1312/1314 3SM RA BR BKN002 FM131500 31007KT P6SM BKN050 FM140400 33005KT P6SM SKC", "KDHT 131124Z 1312/1412 36006KT P6SM SKC FM131600 07005KT P6SM SKC FM131800 16006KT P6SM SKC FM140800 26005KT P6SM SKC", "KDIJ 131120Z 1312/1412 13006KT P6SM FEW180 FM131900 32008KT P6SM SKC FM140200 08007KT P6SM SKC AMD LTD TO CLD VIS AND WIND", "KDIK 131129Z 1312/1412 31018G27KT P6SM SKC FM131400 30024G38KT P6SM SKC FM131600 31028G43KT P6SM FEW250 FM132300 31022G33KT P6SM SKC FM140200 31017G25KT P6SM SKC WS015/32040KT FM140600 30011KT P6SM SCT250 WS012/32040KT", "TAF AMD KDLF 122310Z 1223/1401 32010G15KT 9999 FEW250 QNH2989INS BECMG 1312/1313 33006KT 9999 SKC QNH3003INS TX32/1321Z TN18/1312Z LAST NO AMDS AFT 1223 NEXT 1311", "KDLH 131122Z 1312/1412 32011G22KT P6SM -DZSN OVC012 FM131300 30011KT P6SM BKN030 FM131400 31012G19KT P6SM OVC018 FM131800 30012KT P6SM BKN030 FM140200 29007KT P6SM BKN045", "KDLS 131121Z 1312/1412 VRB06KT P6SM SKC", "TAF KDMA 130600Z 1306/1412 12007KT 9999 FEW100 SCT220 QNH2990INS BECMG 1316/1317 12007KT 9999 FEW100 SCT220 QNH2990INS BECMG 1401/1402 VRB06KT 9999 FEW100 SCT220 QNH2992INS BECMG 1404/1405 12009KT 9999 FEW100 SCT220 QNH2993INS TX32/1322Z TN13/1314Z", "KDMN 131137Z 1312/1412 VRB04KT P6SM BKN250 FM131800 20006KT P6SM SCT250 FM140600 VRB05KT P6SM FEW250", "KDNL 131139Z 1312/1412 19004KT P6SM VCSH OVC015 TEMPO 1312/1315 3SM -SHRA BR OVC006 FM131500 25008KT P6SM OVC025 FM131800 27010G18KT P6SM BKN035 FM140000 32004KT P6SM SKC", "TAF KDOV 130000Z 1300/1406 16009KT 9999 SCT030 BKN150 520103 QNH2993INS TEMPO 1300/1304 8000 -SHRA BECMG 1309/1310 17012KT 6000 -RA SCT030 BKN050 520103 QNH2990INS BECMG 1311/1312 17012G18KT 4800 RA SCT020 OVC050 550104 QNH2988INS BECMG 1313/1314 18015G25KT 4800 RA VCTS BKN020CB OVC050 550105 QNH2975INS BECMG 1317/1318 18015G25KT 8000 -SHRA BKN020 OVC040 550104 QNH2965INS TEMPO 1318/1322 16020G30KT BECMG 1321/1322 17015G25KT 8000 -SHRA BKN015 BKN020 540104 QNH2965INS TEMPO 1322/1402 30015G25KT OVC015 BECMG 1401/1402 27012G20KT 1600 -TSRA BKN015CB OVC025 510104 QNH2977INS TX22/1320Z TN14/1310Z", "KDPA 131120Z 1312/1412 26010G19KT P6SM SCT080 FM131800 28016G26KT P6SM VCSH BKN060 TEMPO 1319/1323 29020G34KT 6SM -SHRAGS FM140100 24006KT P6SM SCT060", "KDRO 131120Z 1312/1412 VRB04KT P6SM SKC FM131900 23009KT P6SM SKC FM140200 29008KT P6SM SKC FM140600 02003KT P6SM SKC", "KDRT 131120Z 1312/1412 34005KT P6SM FEW250", "KDSM 131120Z 1312/1412 29010G22KT P6SM FEW250 WS020/31040KT FM131400 30018G29KT P6SM FEW250 FM131800 30022G37KT P6SM FEW250 FM132300 30016G28KT P6SM FEW250 FM140100 26006KT P6SM SKC", "KDTW 131120Z 1312/1418 24007KT P6SM SCT050 BKN070 FM131500 24013G20KT P6SM BKN045 OVC080 TEMPO 1320/1324 5SM SHRA OVC045 FM140100 22007KT P6SM SCT045 BKN100 OVC250", "KDUJ 131120Z 1312/1412 18010G22KT 6SM -RA OVC008 FM131400 20012G20KT P6SM -RA OVC015 FM131700 27010G18KT P6SM OVC040 FM132000 23010G18KT P6SM SCT025 FM140200 22006KT P6SM SKC", "KDVL 131120Z 1312/1412 32011G30KT P6SM OVC040 FM131500 31023G36KT P6SM SCT100 FM140000 31013KT P6SM BKN080", "KDVT 131120Z 1312/1412 04006KT P6SM SKC FM132000 23005KT P6SM FEW120 FM140400 04006KT P6SM SKC", "TAF KDYS 130000Z 1300/1406 VRB06KT 9999 SKC QNH2996INS TX26/1320Z TN14/1311Z", "KEAR 131129Z 1312/1412 29013KT P6SM FEW250 WS010/32045KT FM131400 30018G27KT P6SM SKC FM131600 31023G36KT P6SM SKC FM132300 31017G24KT P6SM SKC FM140100 31010KT P6SM SKC FM140900 26008KT P6SM FEW250", "KEAT 131132Z 1312/1412 29005KT P6SM SKC TEMPO 1314/1318 4SM HZ SCT024 FM132100 15003KT P6SM SKC FM140300 VRB04KT 6SM HZ SKC", "KEAU 131127Z 1312/1412 27008KT P6SM BKN100 FM131500 29012G18KT P6SM OVC050 FM140100 29004KT P6SM OVC100", "KECG 131120Z 1312/1412 13003KT P6SM SKC FM131300 16009KT 6SM -SHRA BR OVC040 FM131500 16011G18KT 6SM -SHRA BR OVC025 FM131800 16012G19KT P6SM OVC020 FM132200 18005KT P6SM VCSH BKN035 FM140300 31012KT P6SM BKN060", "KECP 131120Z 1312/1412 33002KT P6SM VCTS SCT035CB FM131500 32005KT P6SM BKN050 FM140400 35007KT P6SM SKC", "TAF KEDW 130500Z 1305/1411 VRB06KT 9999 BKN120 QNH3008INS BECMG 1306/1307 VRB06KT 9999 FEW120 QNH2996INS TX31/1322Z TN14/1314Z LAST NO AMDS AFT 1305 NEXT 1313", "KEED 131121Z 1312/1412 VRB05KT P6SM SKC FM131600 02008KT P6SM SKC FM140300 24008KT P6SM SKC", "KEET 131134Z 1312/1412 VRB03KT P6SM BKN006 FM131400 31005KT P6SM BKN045 FM131600 31007KT P6SM SCT120 FM140000 VRB03KT P6SM SKC FM140600 00000KT P6SM SKC", "TAF KEFD 130400Z 1304/1410 19009KT 8000 BR FEW090 QNH2980INS TEMPO 1309/1314 BKN003 BECMG 1314/1315 VRB06KT 8000 -SHRA BKN011 QNH2997INS BECMG 1316/1317 VRB06KT 8000 BR SCT018 QNH2989INS BECMG 1323/1324 09012KT 9000 -SHRA BKN025 QNH2991INS BECMG 1402/1403 VRB06KT 9000 BR FEW018 QNH2997INS TX33/1319Z TN19/1310Z", "KEFK 131130Z 1312/1412 17009KT P6SM SCT150 WS020/19045KT FM131500 16015G28KT P6SM SCT035 OVC050 FM132100 15013G25KT P6SM VCSH OVC035 WS020/17050KT FM140200 15010G18KT 6SM -SHRA BR OVC028 WS020/16050KT FM140500 14007KT 3SM RA BR OVC015 WS020/16055KT FM141000 VRB04KT 5SM -SHRA BR OVC012", "KEGE 131120Z 1312/1412 12004KT P6SM SKC FM132100 26011KT P6SM SKC FM140200 14004KT P6SM SKC", "TAF AMD KEGI 130500Z 1305/1407 32009KT 9999 BKN005 BKN020 BKN100 QNH2988INS TEMPO 1305/1306 15009KT 4800 -TSRA BR BKN002 BKN015CB BECMG 1308/1309 33010G15KT 9000 -SHRA VCTS BKN015 BKN020CB QNH2985INS BECMG 1313/1314 35009KT 9999 NSW SCT020 QNH2983INS BECMG 1401/1402 02009KT 9999 FEW020 QNH2984INS TX28/1319Z TN20/1311Z LAST NO AMDS AFT 1305 NEXT 1309", "KEKN 131143Z 1312/1412 20007G13KT P6SM VCSH SCT025 OVC040 TEMPO 1313/1316 5SM -SHRA OVC025 FM131800 25006G15KT P6SM VCSH BKN035 FM132000 26007G16KT P6SM BKN060 FM140000 VRB03KT P6SM FEW200 AMD NOT SKED", "KEKO 131120Z 1312/1412 VRB06KT P6SM SKC", "KEKS 131120Z 1312/1412 VRB06KT P6SM SCT150 FM132200 32007KT P6SM SCT150", "KELD 131121Z 1312/1412 36003KT 1 1/2SM BR FEW002 TEMPO 1312/1313 1/4SM FG VV002 FM131300 34008KT P6SM SKC FM140000 00000KT P6SM SKC", "KELM 131135Z 1312/1412 17010G21KT 6SM SHRA BKN020 OVC100 WS020/18040KT FM131700 22011G21KT 6SM -SHRA BR OVC008 TEMPO 1317/1320 18025G40KT 1SM +SHRA OVC006 FM132100 30007KT P6SM -SHRA BKN012 FM140000 13003KT P6SM BKN040 FM140800 VRB02KT 1SM BR FEW050", "KELP 131137Z 1312/1412 VRB04KT P6SM BKN250 FM131800 21006KT P6SM SCT250 FM140600 VRB05KT P6SM FEW250", "KELY 131120Z 1312/1412 19007KT P6SM SKC FM131700 36007KT P6SM SKC FM140300 18011KT P6SM SKC", "TAF KEND 130200Z 1302/1408 VRB06KT 9999 SKC QNH3001INS BECMG 1303/1304 36015KT 9999 SKC QNH3009INS BECMG 1316/1317 32015G25KT 9999 FEW100 QNH2999INS BECMG 1323/1324 33012KT 9999 SKC QNH3000INS TX23/1321Z TN11/1311Z", "KENV 131137Z 1312/1412 30004KT P6SM SKC FM131600 11007KT P6SM SKC FM140200 30004KT P6SM SKC", "KENW 131120Z 1312/1412 27011KT P6SM SCT050 FM131500 28014G22KT P6SM BKN050 FM131800 28015G25KT P6SM VCSH BKN050 FM140000 26008KT P6SM SCT120", "KERI 131131Z 1312/1412 27013G23KT P6SM -SHRA OVC015 FM131500 24010G18KT P6SM VCSH OVC050 FM132300 21010G18KT P6SM BKN100 FM140300 19010KT P6SM SCT070", "KEUG 131120Z 1312/1412 20003KT P6SM SKC FM131400 20003KT P6SM MIFG FEW001 FM131700 01006KT P6SM SKC", "KEUL 131140Z 1312/1412 VRB05KT P6SM SKC", "KEVV 131128Z 1312/1412 27005G15KT P6SM FEW250 FM131400 27010KT P6SM SKC FM131700 27016G25KT P6SM SKC FM132200 30013G22KT P6SM FEW250 FM140100 VRB04KT P6SM FEW250 FM140400 VRB04KT P6SM SKC", "KEVW 131137Z 1312/1412 15006KT P6SM SKC FM131500 24008KT P6SM SKC FM131900 29012KT P6SM SKC FM140200 VRB06KT P6SM SKC", "KEWN 131138Z 1312/1412 19008KT P6SM -SHRA SCT008 BKN090 TEMPO 1312/1316 5SM RA BR SCT008 BKN015 FM131600 19008KT P6SM -SHRA SCT008 BKN015 FM132000 19008KT P6SM BKN035 FM140900 34008KT P6SM FEW040", "KEWR 131124Z 1312/1418 17007KT P6SM VCSH BKN050 FM131300 16011G21KT P6SM VCSH FEW020 BKN035 OVC050 TEMPO 1316/1319 5SM -SHRA BKN025 FM131900 16014G24KT 4SM -SHRA VCTS BKN020CB OVC030 FM132300 17015G26KT 2SM SHRA VCTS BKN010CB OVC020 WS020/17050KT TEMPO 1401/1404 1SM +SHRA BR BKN008 FM140500 31010KT P6SM SCT020 BKN060 PROB30 1405/1408 4SM -SHRA BKN025 FM141400 29008KT P6SM SKC", "KEYW 131124Z 1312/1412 17007KT P6SM FEW018 BKN150 FM131600 20007KT P6SM FEW019 BKN150 FM132100 27008KT P6SM VCTS SCT020CB OVC150 FM140200 VRB04KT P6SM FEW020 BKN150", "TAF AMD KFAF 130300Z 1303/1408 15006KT 9999 SCT060 BKN140 QNH2997INS BECMG 1306/1307 15006KT 9999 BKN055 QNH2989INS BECMG 1311/1312 16009KT 8000 -SHRA BKN035 OVC060 QNH2975INS BECMG 1317/1318 14012KT 8000 -SHRA OVC020 QNH2969INS BECMG 1401/1402 26009KT 9999 NSW BKN025 QNH2975INS TX22/1321Z TN17/1307Z LAST NO AMDS AFT 1303 NEXT 1310", "KFAR 131120Z 1312/1412 31013G19KT P6SM FEW040 FM131300 31013G20KT P6SM BKN060 FM131900 32015G24KT P6SM BKN080 FM140100 33009KT P6SM BKN080 FM140600 28008KT P6SM VCSH OVC030", "KFAT 131120Z 1312/1412 30002KT P6SM SKC", "KFAY 131124Z 1312/1412 19007KT 6SM BR VCSH BKN007 OVC015 FM131500 22008KT P6SM BKN012 OVC025 FM131630 23008KT P6SM BKN025 BKN110 FM131800 23008KT P6SM SCT028 BKN250 PROB30 1400/1405 27015G25KT 5SM -SHRA BR BKN025 OVC100 FM140500 33008KT P6SM SCT060 TEMPO 1405/1408 33013G21KT SCT030 BKN060", "TAF COR KFBG 130333Z 1301/1407 19007KT 9999 OVC200 QNH3002INS BECMG 1303/1304 10007KT 8000 -SHRA OVC060 QNH2999INS BECMG 1309/1310 10010KT 8000 -SHRA VCTS OVC010 QNH2991INS TEMPO 1311/1315 12010G15KT 4800 TSRA OVC008 BECMG 1320/1321 23006KT 8000 -SHRA OVC040 QNH2971INS BECMG 1402/1403 34006KT 9999 NSW BKN040 QNH2983INS TX25/1320Z TN15/1407Z", "TAF KFCS 130500Z 1305/1411 21006KT 9999 SKC QNH3024INS BECMG 1318/1319 15009KT 9999 FEW060 QNH3017INS BECMG 1402/1403 30006KT 9999 SKC QNH3017INS TX18/1321Z TN03/1312Z", "KFDY 131131Z 1312/1412 25009KT P6SM SCT040 BKN080 FM131400 25012G22KT P6SM SCT080 FM132200 24014G23KT P6SM BKN120 FM140100 24008KT P6SM SCT150", "TAF KFFO 130301Z 1303/1409 25009KT 9999 FEW020 BKN045 BKN120 510205 QNH2971INS TEMPO 1305/1307 26012G18KT 9000 -SHRA BECMG 1307/1308 26012KT 9999 SCT020 BKN045 BKN060 510205 QNH2973INS BECMG 1311/1312 26012KT 9999 VCSH BKN020 BKN060 QNH2974INS BECMG 1313/1314 27010G15KT 9999 NSW FEW060 510102 QNH2974INS TEMPO 1315/1323 26015G25KT BECMG 1322/1323 26009KT 9999 FEW075 QNH2973INS TX17/1303Z TN09/1311Z", "TAF KFHU 130600Z 1306/1412 21006KT 9999 BKN250 QNH3015INS BECMG 1310/1311 11006KT 9999 BKN210 QNH3012INS BECMG 1319/1320 12008KT 9999 FEW070 SCT200 QNH3008INS BECMG 1400/1401 23007KT 9999 FEW060 SCT160 BKN250 QNH3006INS WND 14006KT AFT 1407 TX28/1322Z TN13/1313Z", "KFKL 131120Z 1312/1412 22010G18KT 6SM -RA OVC004 FM131500 23012G22KT P6SM OVC050 FM132100 23008KT P6SM SKC FM140400 22006KT P6SM BKN060 FM140800 VRB03KT P6SM SKC", "KFLG 131120Z 1312/1412 VRB03KT P6SM SKC FM131800 09009KT P6SM SKC FM140200 VRB03KT P6SM SKC", "KFLL 131120Z 1312/1418 VRB04KT P6SM VCSH SCT030 BKN090 FM131400 20008KT P6SM VCTS SCT030 BKN035CB BKN100 FM131700 23008KT P6SM VCTS BKN030CB BKN050 FM140000 VRB05KT P6SM VCSH SCT030 BKN050 BKN250 FM140300 VRB04KT P6SM SCT035 BKN060 FM141600 02007KT P6SM SCT035 BKN100", "KFLO 131157Z 1312/1412 VRB03KT 5SM BR SCT007 BKN200 TEMPO 1312/1314 3/4SM BR BKN004 FM131400 23006KT P6SM BKN012 TEMPO 1316/1317 SCT020 FM131700 24008KT P6SM SCT040 FM132100 26005KT P6SM SCT200 FM140500 34005KT P6SM FEW200", "KFMH 131137Z 1312/1412 16014G21KT P6SM BKN070 FM132200 15016G30KT P6SM VCSH OVC050 FM140200 15019G31KT P6SM -RA OVC030 FM140400 15019G32KT 6SM -RA BR OVC025 WS020/16045KT FM140500 15020G32KT 5SM -RA BR OVC012 WS020/16045KT FM140800 16021G35KT 4SM -RA BR OVC008 WS020/16050KT", "KFMN 131120Z 1312/1412 07007KT P6SM SKC FM131900 28015G22KT P6SM SKC FM140200 28007KT P6SM SKC FM140700 07006KT P6SM SKC", "KFMY 131123Z 1312/1412 VRB03KT P6SM SCT120 BKN250 FM131400 26006KT P6SM VCSH SCT040 BKN120 FM131800 25008KT P6SM VCTS BKN040CB FM140100 VRB03KT P6SM SCT040 BKN120", "KFNT 131120Z 1312/1412 23007KT P6SM SCT035 OVC070 FM131400 24013G20KT P6SM BKN045 OVC080 TEMPO 1319/1323 5SM SHRA OVC045 FM140100 22007KT P6SM SCT045 BKN100 OVC250", "KFOD 131120Z 1312/1412 30010G20KT P6SM FEW230 FM131500 30020G30KT P6SM FEW100 FM132300 31014G23KT P6SM FEW100 FM140100 27007KT P6SM FEW250", "KFOE 131120Z 1312/1412 28012G21KT P6SM SKC FM131500 28017G28KT P6SM SKC FM131800 30025G32KT P6SM SKC FM140000 29008KT P6SM SKC", "KFPR 131120Z 1312/1412 23003KT P6SM SCT020 BKN120 FM131600 26006KT P6SM VCSH SCT030 BKN120 FM131900 31005KT P6SM VCTS SCT030CB BKN100 TEMPO 1319/1323 3SM TSRA BKN030CB FM140100 24003KT P6SM VCSH SCT035 SCT080 FM140500 VRB03KT P6SM SCT035 SCT150", "TAF KFRI 130400Z 1304/1410 25005KT 9999 SCT120 QNH3006INS BECMG 1304/1305 26005KT 9999 SCT120 510003 QNH3003INS BECMG 1311/1312 28010KT 9999 SKC QNH3003INS BECMG 1316/1317 31020G35KT 9999 SKC QNH3005INS BECMG 1322/1323 30010KT 9999 SKC QNH2994INS TX19/1319Z TN09/1312Z", "KFSD 131139Z 1312/1412 30013G18KT P6SM SKC FM131700 31024G40KT P6SM FEW220 FM132300 30017G29KT P6SM SKC FM140200 27006KT P6SM SCT130", "KFSM 131120Z 1312/1412 24005KT P6SM SCT250 FM131500 29011KT P6SM SCT250 FM132100 28016G25KT P6SM SCT250 FM140000 28007KT P6SM SCT250", "KFST 131121Z 1312/1412 15006KT P6SM FEW250", "TAF AMD KFTK 122250Z 1222/1401 22008KT 9999 SCT060 BKN120 BKN250 QNH2972INS BECMG 1300/1301 25008KT 9999 NSW SCT040 SCT250 QNH2974INS BECMG 1311/1312 29012G18KT 9999 SCT060 BKN100 QNH2985INS TX19/1222Z TN14/1312Z LAST NO AMDS AFT 1303 NEXT 1311", "KFTW 131120Z 1312/1412 03010KT P6SM SKC", "KFTY 131134Z 1312/1412 11005KT 5SM -SHRA BR BKN010 FM131300 16007KT P6SM BKN012 FM131500 28009KT P6SM BKN015 BKN025 FM131800 29011G20KT P6SM SCT030 FM140000 30007KT P6SM SKC FM140200 31005KT P6SM SKC", "KFVE 131133Z 1312/1412 15008KT P6SM BKN150 FM131800 17012G22KT P6SM BKN080 FM140000 16012G22KT P6SM BKN040 WS020/17045KT FM140300 15012G22KT P6SM VCSH OVC015 WS020/17045KT FM140900 15015G25KT 3SM -RA BR OVC008 WS020/17050KT", "KFWA 131121Z 1312/1412 24010KT P6SM SCT060 FM131430 25014G23KT P6SM SCT060 FM131800 25017G30KT P6SM SCT100 FM140000 23005KT P6SM SCT100", "KFXE 131120Z 1312/1412 VRB04KT P6SM VCSH SCT030 BKN090 FM131400 20008KT P6SM VCTS SCT030 BKN035CB BKN100 FM131700 22008KT P6SM VCTS BKN030CB BKN050 FM140000 VRB05KT P6SM VCSH SCT030 BKN050 BKN250 FM140300 VRB04KT P6SM SCT035 BKN060", "KFYV 131120Z 1312/1412 00000KT P6SM SKC FM131500 27005KT P6SM SCT250 FM131800 28016G25KT P6SM SCT250 FM140000 29005KT P6SM SCT250", "KGBD 131120Z 1312/1412 28010KT P6SM SCT180 FM131600 31015G26KT P6SM FEW240 FM140000 32013KT P6SM SKC", "KGCC 131120Z 1312/1412 30011KT P6SM SCT080 FM131600 31025G35KT P6SM SCT150 FM140100 28015KT P6SM FEW250", "KGCK 131124Z 1311/1412 29009KT P6SM SKC FM131700 32015G25KT P6SM FEW230 FM140300 31007KT P6SM SKC", "KGCN 131120Z 1312/1412 VRB03KT P6SM SKC FM131900 02009KT P6SM SKC FM140200 VRB03KT P6SM SKC", "KGDV 131138Z 1312/1412 30020G30KT P6SM SKC FM131700 31030G40KT P6SM SKC FM140300 29015G25KT P6SM FEW080 FM140800 31010KT P6SM BKN250", "KGEG 131132Z 1312/1412 VRB04KT P6SM FEW250", "TAF KGFA 130401Z 1304/1410 VRB06KT 9999 FEW080 QNH3027INS BECMG 1312/1313 24009KT 9999 SKC QNH3002INS TX18/1322Z TN03/1313Z", "KGFK 131120Z 1312/1412 31011G20KT P6SM BKN035 FM131500 32020G29KT P6SM VCSH BKN060 FM140000 33013KT P6SM VCSH OVC050 FM140600 30010KT 6SM -SHRASN OVC030", "KGFL 131136Z 1312/1412 VRB03KT 6SM BR SCT015 OVC050 WS020/18035KT TEMPO 1312/1314 4SM -SHRA BR BKN015 OVC035 FM131400 19015G25KT P6SM SCT025 BKN040 PROB30 1322/1402 VRB15G25KT 1 1/2SM +SHRA BR BKN008 OVC015 FM140200 24005KT 6SM -RA BR OVC025 PROB30 1402/1406 2SM RA BR BKN005 OVC012 FM140800 VRB03KT 1/2SM FG BKN002", "KGGG 131121Z 1312/1412 03005KT P6SM SKC FM131500 03010KT P6SM SKC FM140000 VRB03KT P6SM SKC", "KGGW 131138Z 1312/1412 31015G25KT P6SM SKC FM131900 31025G35KT P6SM SKC FM140100 31011KT P6SM FEW200 FM140600 VRB06KT P6SM SCT250", "KGJT 131120Z 1312/1412 11006KT P6SM SKC FM131600 15009KT P6SM SKC FM132000 29007KT P6SM SKC FM140500 08005KT P6SM SKC", "KGKY 131120Z 1312/1412 02010KT P6SM SKC", "KGLD 131120Z 1312/1412 29008KT P6SM FEW210 FM131500 30014KT P6SM FEW250 FM131600 32020G33KT P6SM SKC FM140000 31008KT P6SM SKC FM140600 27008KT P6SM SKC", "KGLH 131149Z 1312/1412 34004KT P6SM SKC TEMPO 1312/1314 1SM BR VV002 FM131500 33010G15KT P6SM SKC FM140300 00000KT P6SM SKC", "KGLS 131138Z 1312/1412 VRB04KT P6SM FEW007 BKN250 FM131500 02008KT P6SM SCT090 FM132200 12008KT P6SM SCT080 FM140200 VRB04KT P6SM FEW040 FM140800 05007KT P6SM FEW150", "KGMU 131133Z 1312/1412 23008KT P6SM SCT005 OVC017 FM131400 23007KT P6SM SCT025 BKN120 FM131700 25013G20KT P6SM SCT060 FM132200 27010KT P6SM SKC FM140200 32005KT P6SM SKC", "KGNV 131123Z 1312/1412 VRB04KT P6SM VCSH SCT025 BKN040 OVC080 TEMPO 1312/1315 VRB15G25KT 3SM SHRA BKN015 OVC025 FM131500 27008KT P6SM VCSH SCT025 BKN040 BKN100 FM132300 VRB04KT P6SM SCT025 SCT100 BKN250 FM140800 34002KT 3SM BR SCT003 SCT006", "KGON 131124Z 1312/1412 16015G25KT P6SM VCSH FEW020 BKN035 OVC050 TEMPO 1312/1316 5SM -SHRA BKN025 FM131600 16016G26KT 4SM -SHRA BR BKN020 OVC030 FM132300 14016G26KT 2SM SHRA VCTS BKN010CB OVC020 WS020/17050KT TEMPO 1402/1406 1SM +SHRA BKN007", "KGPI 131120Z 1312/1412 00000KT P6SM VCFG SKC FM131600 VRB03KT P6SM SKC", "KGPT 131120Z 1312/1412 31004KT P6SM VCSH FEW019 BKN045 OVC110 FM131400 34005KT P6SM SCT003 FM131800 01007KT P6SM SCT250", "KGRB 131138Z 1312/1412 25009KT P6SM BKN060 FM131500 28011G18KT P6SM BKN050 FM131800 28011G20KT P6SM -SHRA OVC040 FM140000 26005KT P6SM BKN070", "TAF KGRF 130500Z 1305/1411 00000KT 9999 SKC QNH3023INS BECMG 1316/1317 36006KT 9999 SKC QNH3019INS TX22/1323Z TN08/1314Z", "KGRI 131129Z 1312/1412 28013KT P6SM FEW250 WS010/31045KT FM131400 30018G30KT P6SM SKC FM131600 31024G38KT P6SM SKC FM132300 31017G27KT P6SM SKC FM140100 31011KT P6SM SKC FM140900 26008KT P6SM FEW250", "TAF KGRK 130000Z 1300/1406 27012KT 9999 SCT100 QNH2982INS BECMG 1301/1302 32010KT 9999 SKC QNH2985INS BECMG 1307/1308 35008KT 9999 SKC QNH2997INS BECMG 1314/1315 03012G18KT 9999 SKC QNH2993INS BECMG 1400/1401 06008KT 9999 SKC QNH2997INS TX32/1300Z TN17/1312Z", "KGRR 131128Z 1312/1412 22008KT P6SM VCSH BKN070 FM131400 25012G22KT P6SM -SHRA BKN035 FM140000 25006KT P6SM VCSH OVC050", "TAF KGSB 130400Z 1304/1410 10003KT 9999 FEW045 SCT090 BKN130 QNH3004INS BECMG 1306/1307 18005KT 6000 SHRA SCT012 BKN027 OVC130 QNH2992INS TEMPO 1310/1314 4800 BR BKN006 OVC012 BECMG 1314/1315 20006KT 9999 NSW SCT008 BKN015 OVC050 QNH2979INS BECMG 1317/1318 28010KT 9999 SCT015 BKN070 QNH2970INS TEMPO 1319/1322 26013KT 4800 -TSRA BKN040CB BECMG 1402/1403 34010G20KT 9999 SCT030 SCT080 QNH2977INS TX25/1320Z TN14/1403Z LAST NO AMDS AFT 1304 NEXT 1311", "KGSO 131124Z 1312/1412 19005KT 6SM BR BKN006 OVC015 FM131600 22007KT P6SM BKN012 OVC035 FM131700 22007KT P6SM BKN020 BKN035 FM131800 23007KT P6SM VCSH SCT030 BKN035 BKN090 PROB30 1322/1403 27015G25KT 4SM -SHRA BR BKN025 FM140300 33008KT P6SM SCT060 TEMPO 1403/1406 32014G22KT BKN060", "KGSP 131133Z 1312/1412 22006KT P6SM BKN005 TEMPO 1312/1314 3SM BR SCT005 BKN015 FM131400 23007KT P6SM SCT025 BKN120 FM131700 25013G20KT P6SM SCT060 FM132200 27010KT P6SM SKC FM140200 32005KT P6SM SKC", "TAF KGTB 130100Z 1301/1407 17012G20KT 9999 BKN060 OVC100 QNH2970INS BECMG 1311/1312 16015G25KT 8000 SHRA BKN020 OVC050 510003 QNH2960INS BECMG 1316/1317 16030G40KT 1600 +SHRA BKN002 OVC010 550005 QNH2958INS BECMG 1319/1320 21012KT 4800 SHRA BR BKN008 OVC020 QNH2965INS BECMG 1322/1323 23012KT 8000 -SHRA FEW020 BKN045 OVC070 QNH2971INS TX16/1314Z TN13/1400Z", "KGTF 131120Z 1312/1412 VRB05KT P6SM SCT150 FM132100 23007KT P6SM SKC", "KGTR 131120Z 1312/1412 35005KT 2SM BR SCT003 BKN110 TEMPO 1312/1315 1SM BR OVC003 FM131500 33010G16KT P6SM SKC FM140100 00000KT P6SM SKC", "KGUC 131120Z 1312/1412 02003KT P6SM SKC FM131900 27009KT P6SM SKC FM132100 29013G20KT P6SM FEW250 FM140200 31009KT P6SM SKC FM140500 VRB04KT P6SM SKC", "KGUP 131120Z 1312/1412 VRB06KT P6SM SKC FM131900 32010KT P6SM SKC FM140200 VRB06KT P6SM FEW250", "TAF KGUR 130500Z 1305/1411 28006KT 9999 FEW065 BKN095 510063 QNH3022INS BECMG 1315/1316 32020G25KT 9999 SKC 510074 QNH3027INS BECMG 1317/1318 32030G40KT 9999 SKC 510072 QNH3011INS BECMG 1323/1324 32020G30KT 9999 SKC 510053 QNH3009INS BECMG 1400/1401 33012KT 9999 SKC 510053 QNH3002INS TX17/1322Z TN01/1407Z", "TAF AMD KGUS 130130Z 1301/1403 27010KT 9000 BR SCT012 QNH2972INS TEMPO 1302/1304 0800 FG OVC002 BECMG 1303/1304 VRB06KT 9999 NSW SKC QNH2970INS TEMPO 1306/1310 28025G35KT 6000 -RA BKN015 520005 BECMG 1312/1313 26010G15KT 9999 NSW FEW060 SCT085 QNH2970INS BECMG 1315/1316 26020G25KT 9999 BKN085 QNH2968INS BECMG 1323/1324 27009KT 9999 SCT075 BKN100 QNH2977INS TX15/1320Z TN07/1311Z LAST NO AMDS AFT 1303 NEXT 1313", "KGUY 131124Z 1312/1412 30005KT P6SM SKC FM140100 23005KT P6SM SKC", "KGWO 131120Z 1312/1412 34004KT 1SM BR SCT003 TEMPO 1312/1315 1/4SM FG VV001 FM131500 32010G15KT P6SM SKC FM140000 00000KT P6SM SKC", "KGYY 131120Z 1312/1412 26010G19KT P6SM SCT080 FM131800 28016G26KT P6SM VCSH BKN060 TEMPO 1319/1323 29020G34KT 6SM -SHRAGS FM140100 24006KT P6SM SCT060", "KHBG 131120Z 1312/1412 34004KT P6SM BKN110 FM131800 36007KT P6SM SKC FM140000 00000KT P6SM SKC", "KHCR 131137Z 1312/1412 VRB03KT P6SM SKC FM132100 24007KT P6SM SKC FM140100 VRB05KT P6SM SKC", "KHDC 131120Z 1312/1412 00000KT P6SM SCT250 FM131400 36006KT P6SM SCT250", "KHDN 131120Z 1312/1412 VRB04KT P6SM SKC FM131900 29007KT P6SM SKC FM132100 29011G18KT P6SM SKC FM140200 20004KT P6SM SKC", "KHIB 131122Z 1312/1412 30009KT 3SM -SN BR OVC013 FM131400 31009G17KT P6SM BKN018 FM131500 31009G17KT P6SM OVC020 FM131700 30010G17KT P6SM OVC030", "KHIE 131120Z 1312/1412 00000KT P6SM BKN200 FM131800 16012KT P6SM OVC025 TEMPO 1321/1324 P6SM -RA OVC015 FM140000 15012KT 4SM -RA BR OVC015 WS020/16045KT FM140600 14013G25KT 4SM RA BR OVC007 WS020/16045KT", "TAF KHIF 130500Z 1305/1411 11009KT 9999 SKC QNH3028INS BECMG 1318/1319 33006KT 9999 SKC QNH3018INS BECMG 1404/1405 11012KT 9999 SKC QNH3013INS TX21/1323Z TN08/1313Z", "KHIO 131120Z 1312/1412 VRB03KT P6SM SKC", "KHKS 131120Z 1312/1412 36004KT P6SM BKN120 FM131600 36010G15KT P6SM SKC FM140000 00000KT P6SM SKC", "KHKY 131133Z 1312/1412 18005KT P6SM SCT012 BKN030 TEMPO 1312/1314 SCT005 BKN012 FM131400 24006KT P6SM SCT026 BKN120 FM131700 27010G16KT P6SM SCT060 FM140200 34006KT P6SM SKC", "KHLG 131120Z 1312/1412 25010G20KT 6SM -RA OVC010 FM131500 26009KT P6SM OVC050 FM132100 VRB05KT P6SM SKC", "KHLN 131120Z 1312/1412 VRB04KT P6SM SCT150 FM132200 VRB04KT P6SM SKC", "TAF KHMN 130150Z 1301/1407 VRB06KT 9999 SKC QNH3012INS BECMG 1313/1314 VRB06KT 9999 FEW240 QNH3007INS TX26/1321Z TN10/1312Z LAST NO AMDS AFT 1302 NEXT 1309", "KHNB 131120Z 1312/1412 25008KT P6SM FEW250 FM131500 27018G31KT P6SM FEW250 FM132300 23005KT P6SM SKC", "KHND 131121Z 1312/1412 19007KT P6SM SKC FM131500 VRB05KT P6SM SKC FM131700 04006KT P6SM SKC FM140300 17007KT P6SM SKC", "KHOB 131121Z 1312/1412 10008KT P6SM FEW250", "KHON 131139Z 1312/1412 30015G20KT P6SM SKC FM131800 32027G41KT P6SM SKC FM132300 32019G32KT P6SM SKC FM140200 29007KT P6SM FEW160", "TAF KHOP 130000Z 1300/1406 18010KT 9999 SCT006 BKN060 QNH2984INS BECMG 1303/1304 26007KT 9999 SCT030 OVC080 QNH2991INS BECMG 1308/1309 29004KT 8000 BR OVC250 QNH2992INS BECMG 1313/1314 31015G25KT 9999 NSW SKC QNH2989INS BECMG 1320/1321 30012KT 9999 FEW250 QNH2989INS TX20/1320Z TN09/1406Z", "KHOT 131120Z 1312/1412 36005KT P6SM SKC FM131800 30010G17KT P6SM SKC FM140000 32003KT P6SM SKC", "KHOU 131143Z 1312/1412 VRB05KT P6SM -RA FEW008 SCT012 BKN250 FM131400 35003KT P6SM FEW020 SCT060 FM131700 01007KT P6SM SCT060 FM132100 10008KT P6SM SCT040 FM140100 VRB03KT P6SM FEW150", "KHPN 131124Z 1312/1412 14004KT P6SM VCSH SCT050 OVC100 TEMPO 1312/1313 1/2SM FG BKN002 FM131300 16010G20KT P6SM VCSH FEW020 BKN035 OVC050 TEMPO 1316/1320 5SM -SHRA BKN025 FM132000 16011G21KT 4SM -SHRA VCTS BKN020CB OVC030 FM132300 17011G21KT 2SM SHRA VCTS BKN010CB OVC020 WS020/17050KT TEMPO 1401/1404 1SM +SHRA BR BKN006 FM140500 32010KT P6SM SCT020 BKN060 PROB30 1405/1408 4SM -SHRA BKN025 AMD NOT SKED", "KHQM 131120Z 1312/1412 08007KT P6SM SKC FM132200 27005KT P6SM SKC FM140400 08007KT P6SM SKC", "KHRL 131120Z 1312/1412 VRB03KT P6SM FEW250 FM131900 03010KT P6SM SCT110 FM140300 VRB03KT P6SM FEW210", "KHRO 131120Z 1312/1412 31010KT P6SM SKC FM131500 29018G25KT P6SM SKC FM140000 VRB05KT P6SM SKC", "TAF AMD KHRT 130345Z 1303/1408 03009KT 3200 RA VCTS BKN010CB BKN020 OVC035 QNH2992INS TEMPO 1303/1305 1600 +TSRA BKN005 OVC015CB BECMG 1304/1305 34009KT 9999 NSW FEW050 SCT090 SCT250 QNH2984INS TEMPO 1309/1311 6000 -SHRA BKN020 BECMG 1320/1321 34009KT 9999 NSW SKC QNH2984INS TX27/1322Z TN20/1311Z", "TAF KHST 130300Z 1303/1409 VRB06KT 9999 VCSH SCT020 SCT045 QNH2988INS BECMG 1313/1314 20008KT 9999 VCSH SCT020 SCT045 BKN085 QNH2984INS TEMPO 1315/1321 VRB12G18KT 4800 -TSRA BKN020CB OVC040 BECMG 1323/1324 VRB06KT 9999 NSW SCT020 SCT045 QNH2984INS TX30/1319Z TN25/1310Z", "KHSV 131120Z 1312/1412 29005KT P6SM BKN008 FM131500 32010KT P6SM SCT050 FM140100 VRB03KT P6SM SKC", "KHTS 131154Z 1312/1412 24008G16KT P6SM VCSH OVC020 FM131400 28008KT P6SM BKN040 FM131700 27009G18KT P6SM SCT240 FM140000 VRB03KT P6SM FEW240", "TAF KHUA 122000Z 1220/1402 17012KT 8000 BR BKN020 OVC070 510043 QNH2993INS BECMG 1300/1301 16006KT 8000 BR BKN005 QNH2990INS BECMG 1301/1302 21006KT 8000 -SHRA OVC005 510032 QNH2988INS TEMPO 1302/1308 25020G30KT 8000 -TSRA OVC005CB BECMG 1308/1309 29009KT 6000 SHRA FEW003 510033 QNH2988INS TEMPO 1308/1311 26020G25KT 6000 -TSRA FEW003CB BKN010 OVC018 BECMG 1312/1313 VRB06KT 8000 BR SKC 510033 QNH2990INS BECMG 1316/1317 30010G15KT 9999 NSW SKC 510043 QNH2991INS BECMG 1400/1401 VRB06KT 9999 SKC QNH2995INS TX23/1221Z TN15/1312Z LAST NO AMDS AFT 1300 NEXT 1312", "KHUF 131120Z 1312/1412 29010KT P6SM FEW070 FM131600 27017G31KT P6SM BKN070 FM132300 28010KT P6SM SCT100", "KHUL 131133Z 1312/1412 15008KT P6SM BKN150 FM131800 17012G22KT P6SM BKN080 FM140000 16012G22KT P6SM BKN040 WS020/17045KT FM140200 15012G22KT P6SM VCSH OVC015 WS020/17045KT FM140900 15012G22KT 3SM -RA BR OVC008 WS020/17050KT", "KHUM 131120Z 1312/1412 34003KT 3SM -RA VCTS BKN005 BKN020CB FM131330 34005KT 5SM BR VCSH SCT040 SCT250 FM131530 35006KT P6SM FEW040 SCT250", "KHUT 131120Z 1312/1412 29008KT P6SM SCT170 FM131700 31017G25KT P6SM FEW250 FM140100 31010KT P6SM SKC", "KHVR 131120Z 1312/1412 24005KT P6SM SCT150 FM131800 29014KT P6SM SCT150 FM140100 24010KT P6SM FEW150", "KHYA 131137Z 1312/1412 16014G21KT P6SM BKN070 FM132300 16015G25KT P6SM VCSH OVC050 FM140300 15020G32KT 6SM -RA BR OVC030 WS020/16045KT FM140600 15020G33KT 5SM -RA BR OVC015 WS020/16045KT FM140900 15022G35KT 4SM -RA BR OVC008 WS020/16050KT", "KHYR 131122Z 1312/1412 VRB04KT P6SM -RA VCSH OVC010 FM131400 30007G15KT P6SM VCSH BKN016 FM131600 30009G17KT P6SM VCSH OVC021 FM132300 28007G15KT P6SM BKN050", "KHYS 131124Z 1311/1412 28007KT P6SM FEW120 FM131700 31022G33KT P6SM SKC FM140200 31008KT P6SM SKC", "TAF KIAB 130200Z 1302/1408 35012G18KT 9999 SCT100 QNH3002INS BECMG 1315/1316 32015G20KT 9999 SKC QNH3012INS BECMG 1317/1318 30020G30KT 9999 SKC QNH2997INS BECMG 1401/1402 31006KT 9999 SKC QNH2996INS TX21/1321Z TN13/1308Z", "KIAD 131140Z 1312/1418 17009KT 3SM -SHRA OVC015 FM131300 17009KT P6SM VCSH OVC008 FM132000 18010G20KT 5SM SHRA OVC015 FM132200 31006KT P6SM OVC035 FM140000 00000KT P6SM OVC050", "KIAG 131120Z 1312/1412 20012KT 4SM RA BR OVC025 FM131400 24010KT 6SM -SHRA OVC035 FM131700 23014G22KT P6SM VCSH BKN040 FM140100 22008KT 6SM -SHRA OVC040 FM140900 18005KT P6SM VCSH BKN040", "KIAH 131143Z 1312/1418 02006KT P6SM VCSH FEW009 SCT012 SCT150 FM131400 01006KT P6SM SCT060 FM131700 06008KT P6SM FEW060 FM140100 VRB05KT P6SM SKC", "KICT 131120Z 1312/1412 29008KT P6SM SCT180 FM131700 31016G24KT P6SM FEW250 FM132300 32015KT P6SM SKC", "KIDA 131120Z 1312/1412 35005KT P6SM FEW200 FM132000 VRB05KT P6SM SKC FM140200 20004KT P6SM SKC", "KIFP 131121Z 1312/1412 01006KT P6SM SKC FM131600 36013KT P6SM SKC FM132100 35008KT P6SM SKC FM140100 VRB05KT P6SM SKC", "KILG 131120Z 1312/1412 16007KT P6SM VCSH SCT025 BKN060 FM131600 16011G20KT 6SM BR VCSH SCT015 OVC030 FM131800 17011G20KT 5SM -SHRA BR SCT008 OVC015 FM132300 26008KT 4SM -SHRA BR VCTS SCT004 OVC008CB FM140200 32007KT 5SM -SHRA BR OVC015 FM140400 32006KT P6SM VCSH SCT015 OVC025", "KILM 131120Z 1312/1412 18005KT 6SM -SHRA OVC035 TEMPO 1313/1314 BKN020 FM131400 20006KT P6SM VCSH BKN020 TEMPO 1317/1318 SCT020 FM131800 23007KT P6SM SCT045 FM140000 24005KT P6SM SCT150 FM140500 32006KT P6SM FEW200", "KILN 131132Z 1312/1412 29010KT P6SM VCSH OVC035 TEMPO 1312/1313 -SHRA FM131500 27015G24KT P6SM SCT050 BKN100 FM132300 25010KT P6SM SCT100 BKN250 FM140500 24006KT P6SM SCT250", "KIND 131120Z 1312/1418 24012KT P6SM FEW100 FM131600 25017G30KT P6SM SCT100 FM140000 23007KT P6SM SCT100 FM141500 25016G28KT P6SM SCT100", "KINK 131121Z 1312/1412 07008KT P6SM SKC", "KINL 131122Z 1312/1412 27007KT P6SM VCSH BKN010 OVC110 FM131800 28012G19KT 6SM -SHRA BR OVC017 FM132300 27009G18KT 5SM -SHRA BR VCSH OVC013 FM140100 26006KT 5SM -SHSN BR OVC016 FM140500 25005KT 3SM -SHSN BR OVC009", "TAF AMD KINS 130524Z 1305/1411 VRB06KT 9999 SKC QNH3013INS BECMG 1317/1318 04009KT 9999 FEW250 QNH3012INS BECMG 1320/1321 09010G15KT 9999 FEW250 QNH3004INS BECMG 1403/1404 09008KT 9999 SKC QNH2998INS TX31/1322Z TN12/1314Z", "KINT 131124Z 1312/1412 22005KT 6SM BR BKN006 OVC015 TEMPO 1312/1313 OVC004 FM131600 22007KT P6SM BKN012 OVC035 FM131700 22007KT P6SM BKN020 BKN035 FM131800 23007KT P6SM VCSH SCT030 BKN035 BKN090 PROB30 1322/1403 27015G25KT 4SM -SHRA BR BKN025 FM140300 33008KT P6SM SCT060 TEMPO 1403/1406 32014G22KT BKN060", "KINW 131120Z 1312/1412 21003KT P6SM SKC FM131900 02007KT P6SM SKC FM140200 VRB04KT P6SM SKC", "KIPL 131120Z 1312/1412 27005KT P6SM SKC FM131700 VRB03KT P6SM SKC FM140200 26006KT P6SM SKC", "KIPT 131120Z 1312/1412 13010G20KT 6SM -RA BR OVC025 WS020/18035KT FM131600 14008G15KT 4SM -RA BR VCTS OVC015CB FM132100 17007KT P6SM SCT025 BKN040", "KISM 131120Z 1312/1412 26005KT P6SM SCT025 BKN060 BKN120 FM131400 30006KT P6SM VCSH SCT030 BKN100 FM131600 30007KT P6SM VCTS SCT035CB BKN120 TEMPO 1318/1321 4SM TSRA BKN030CB FM140000 33005KT P6SM SCT035 SCT080", "KISO 131138Z 1312/1412 18008KT P6SM SHRA SCT025 BKN100 TEMPO 1312/1316 5SM RA BR BKN025 FM131600 18008KT P6SM SCT008 BKN015 FM132000 VRB06KT P6SM BKN035 FM140800 36008KT P6SM FEW040 AMD LTD TO CLD VIS AND WIND", "KISP 131124Z 1312/1412 17014G24KT P6SM FEW020 BKN035 OVC050 TEMPO 1316/1318 5SM -SHRA BKN025 FM131800 16016G26KT 5SM -SHRA BR BKN025 OVC040 FM132200 15016G26KT 2SM SHRA VCTS BKN010CB OVC020 WS020/17050KT TEMPO 1401/1405 1SM +SHRA BR BKN008 FM140700 33010KT P6SM SCT020 BKN060 PROB30 1407/1410 4SM -SHRA BKN025", "KITH 131141Z 1312/1412 16012G20KT P6SM -SHRA BKN025 OVC100 WS020/18045KT FM131400 17017G30KT P6SM -SHRA BKN015 WS020/18045KT FM131700 18014G24KT P6SM -RA OVC008 TEMPO 1318/1321 18025G40KT 1SM +SHRA FM132100 30007G12KT 5SM -SHRA BR OVC020 FM140000 13004KT P6SM -SHRA BKN040 FM140600 VRB03KT P6SM SCT050", "KIWA 131120Z 1312/1412 12006KT P6SM FEW250 FM132000 29004KT P6SM FEW120 FM140400 12006KT P6SM SKC", "KIWD 131120Z 1312/1412 27007KT P6SM -SHRASN OVC017 FM131300 28007KT P6SM -SHRA OVC015 FM131600 30010G18KT P6SM VCSH OVC020 FM132000 30010KT P6SM VCSH OVC040 FM140100 27008KT P6SM -SHSN VCSH BKN050 FM140800 24007KT P6SM BKN030", "KIXD 131120Z 1312/1412 27009KT P6SM SKC FM131500 29018G28KT P6SM FEW100 SCT250 FM140000 28007KT P6SM SKC FM140300 24007KT P6SM SKC", "KJAC 131120Z 1312/1412 36008KT P6SM SCT250 FM131400 VRB05KT P6SM SCT250 FM132100 30007KT P6SM SCT250 FM140300 36007KT P6SM SCT250", "KJAN 131120Z 1312/1412 36004KT P6SM BKN120 FM131600 36010G15KT P6SM SKC FM140000 00000KT P6SM SKC", "KJAX 131123Z 1312/1412 26008KT P6SM VCSH SCT025 BKN040 BKN100 TEMPO 1313/1315 4SM SHRA SCT015 BKN025 OVC040 FM132200 VRB04KT P6SM SCT025 SCT100 BKN250 FM140800 34002KT 5SM BR FEW005 SCT010", "KJBR 131139Z 1312/1412 28007KT P6SM SKC FM131700 28014G21KT P6SM SKC FM132300 27009KT P6SM SKC FM140100 26003KT P6SM SKC", "KJCT 131120Z 1312/1412 VRB04KT P6SM SKC FM131500 06009KT P6SM SKC FM140000 VRB04KT P6SM FEW250", "KJEF 131120Z 1312/1412 26006KT P6SM FEW250 FM131600 28016G32KT P6SM FEW250 FM140000 29008KT P6SM SKC FM140300 VRB03KT P6SM SKC", "KJER 131140Z 1312/1412 08010KT P6SM SKC FM132000 25008KT P6SM SKC FM140300 13007KT P6SM SKC", "KJFK 131124Z 1312/1418 16010KT P6SM VCSH FEW020 OVC100 FM131300 16013G23KT P6SM VCSH SCT020 BKN035 OVC050 TEMPO 1316/1320 5SM -SHRA BKN025 FM132000 16016G26KT 4SM -SHRA VCTS BKN020CB OVC030 FM132300 17018G29KT 2SM SHRA VCTS BKN010CB OVC020 WS020/17050KT TEMPO 1401/1404 1SM +SHRA BR BKN007 FM140600 32011KT P6SM SCT020 BKN060 PROB30 1406/1409 4SM -SHRA BKN025 FM141500 29009KT P6SM SKC", "KJHW 131120Z 1312/1412 21010KT 4SM RA BR OVC007 FM131400 23008KT 6SM -SHRA OVC015 FM131900 24008KT P6SM BKN040 FM140000 20005KT P6SM SCT040", "KJKA 131139Z 1312/1412 32005KT P6SM VCSH SCT008 BKN025 TEMPO 1312/1313 VRB15G25KT 5SM SHRA BKN008 FM131400 33006KT P6SM SCT030 BKN080 FM131600 31008KT P6SM SCT250", "KJKL 131131Z 1312/1412 VRB04KT P6SM VCSH OVC008 FM131300 VRB05KT P6SM BKN015 FM131500 28006KT P6SM BKN040 FM131800 28009G20KT P6SM FEW200 FM132300 VRB04KT P6SM FEW250", "KJLN 131120Z 1312/1412 VRB04KT P6SM SKC FM131500 29015G25KT P6SM SKC FM131800 29019G29KT P6SM SKC FM140000 30008KT P6SM SKC FM140400 22006KT P6SM SKC", "KJMS 131129Z 1312/1412 30018G27KT P6SM BKN040 OVC060 FM131400 31021G37KT P6SM SCT040 BKN070 FM131600 32025G40KT P6SM FEW090 FM132200 32021G32KT P6SM FEW180 FM140200 32011G17KT P6SM SCT080 BKN100 FM140600 30011KT P6SM BKN040 OVC070", "KJST 131120Z 1312/1412 21010G20KT P6SM -RA OVC020 WS020/21035KT FM131700 25010KT 6SM BR VCSH SCT015 BKN035 FM132100 27011KT P6SM OVC100", "KJVL 131120Z 1312/1412 27011KT P6SM SCT220 FM131600 29015G23KT P6SM SCT050 FM131800 28015G28KT P6SM VCSH BKN050 FM132300 28008KT P6SM SCT140 FM140500 VRB04KT P6SM SCT130", "KJXN 131128Z 1312/1412 22008G16KT P6SM VCSH BKN050 FM131400 25015G25KT P6SM VCSH BKN040 FM140000 26005KT P6SM VCSH OVC100", "KJZI 131120Z 1312/1412 VRB03KT P6SM FEW004 SCT008 BKN120 TEMPO 1312/1315 VRB05KT SCT007 OVC011 FM131500 27008KT P6SM SCT015 BKN040 FM131800 25007KT P6SM BKN035 FM140600 30004KT P6SM SKC", "KLAF 131120Z 1312/1412 26010KT P6SM SCT050 FM131600 26018G31KT P6SM BKN060 FM132300 28010KT P6SM SCT100 AMD LTD TO CLD VIS AND WIND TIL 131300", "KLAL 131123Z 1312/1412 VRB03KT P6SM SCT100 FM131400 25005KT P6SM SCT030 SCT250 FM131800 25006KT P6SM VCTS BKN040CB FM140200 VRB03KT P6SM SCT050 BKN120", "KLAN 131128Z 1312/1412 22008G16KT P6SM VCSH BKN040 FM131400 25015G25KT P6SM VCSH BKN040 FM140600 VRB03KT P6SM VCSH OVC050", "KLAR 131129Z 1312/1412 32005KT P6SM SKC FM131600 32012G18KT P6SM SKC FM131900 32017G27KT P6SM SKC FM140100 31008KT P6SM SKC FM140600 21007KT P6SM SKC", "KLAS 131121Z 1312/1418 22006KT P6SM SKC FM131700 04006KT P6SM SKC FM140400 25007KT P6SM SKC FM141500 VRB05KT P6SM SKC", "KLAW 131120Z 1312/1412 36010KT P6SM SKC FM140000 25003KT P6SM SKC", "KLAX 131129Z 1312/1418 VRB03KT P6SM OVC011 FM131700 26008KT P6SM OVC015 FM132000 26012KT P6SM FEW020 FM140400 26007KT P6SM OVC012 FM140900 VRB03KT P6SM OVC015 FM141700 26007KT P6SM BKN015", "KLBB 131120Z 1312/1412 VRB05KT P6SM SKC FM131600 16011KT P6SM SKC", "KLBE 131120Z 1312/1412 18012G22KT 6SM -RA OVC015 FM131800 24010G20KT P6SM SCT015 FM132300 23007KT P6SM SKC", "KLBF 131126Z 1312/1412 31010G19KT P6SM SKC WS020/33040KT FM131500 31019G38KT P6SM SKC FM140100 31011G24KT P6SM SKC FM140500 29007KT P6SM SKC", "KLBL 131124Z 1311/1412 29007KT P6SM SKC FM131700 33015G25KT P6SM SKC FM140300 25006KT P6SM SKC", "KLBT 131155Z 1312/1412 18005KT P6SM SCT006 BKN200 FM131400 21007KT P6SM SCT015 TEMPO 1316/1317 BKN010 FM131700 23008KT P6SM SCT045 FM132200 25005KT P6SM SCT150 FM140500 35005KT P6SM FEW200 AMD NOT SKED", "KLBX 131138Z 1312/1412 VRB03KT 1/2SM FG BKN002 FM131300 VRB04KT 6SM BR SCT012 BKN250 FM131500 02005KT P6SM BKN070 FM132100 12007KT P6SM SCT040 FM140100 VRB03KT P6SM FEW150", "KLCH 131123Z 1312/1412 01008KT 6SM -SHRA BR VCTS SCT020 BKN050CB TEMPO 1312/1314 VRB10G20KT 2SM TSRA BR BKN020CB FM131400 03009KT P6SM BKN200 FM131800 03010KT P6SM SKC FM140100 VRB03KT P6SM SKC", "KLCK 131132Z 1312/1412 29014KT P6SM VCSH SCT020 BKN080 FM131600 26013G22KT P6SM BKN050 FM140000 25010KT P6SM BKN150 FM140500 23006KT P6SM SCT250", "KLEB 131120Z 1312/1412 00000KT P6SM OVC017 FM131500 19011KT P6SM OVC019 FM132200 18010G22KT 4SM -RA BR OVC015 FM140300 18007G17KT 4SM RA BR OVC009 WS020/16040KT FM140600 19009G18KT 4SM RA BR OVC007 WS020/16045KT", "KLEE 131120Z 1312/1412 27004KT P6SM SCT030 BKN120 FM131400 33004KT P6SM VCSH SCT025 BKN100 FM131500 30007KT P6SM VCTS SCT035CB BKN120 TEMPO 1316/1320 4SM SHRA BKN030 FM132300 30005KT P6SM SCT035 SCT080", "KLEX 131120Z 1312/1412 27010KT P6SM SCT050 FM131600 27014G26KT P6SM FEW250 FM140000 22006KT P6SM SKC", "TAF KLFI 130100Z 1301/1407 20006KT 9999 FEW026 SCT040 BKN055 QNH3008INS BECMG 1314/1315 21009KT 8000 -SHRA SCT040 BKN050 OVC070 QNH2984INS TEMPO 1318/1323 21010G20KT 6000 -TSRA BKN030 OVC040CB BECMG 1323/1400 22009KT 8000 -SHRA BKN020 OVC030 QNH2972INS BECMG 1402/1403 20009KT 9999 NSW BKN020 OVC025 QNH2977INS TX21/1320Z TN17/1309Z", "KLFK 131121Z 1312/1412 02005KT P6SM SCT070 FM131500 04011KT P6SM SKC FM140000 VRB03KT P6SM SKC", "KLFT 131123Z 1312/1412 01008KT P6SM -SHRA SCT015 BKN050 TEMPO 1312/1314 3SM SHRA BR BKN015 FM131400 02009KT P6SM BKN200 FM131700 02009KT P6SM SKC FM140100 VRB03KT P6SM SKC", "KLGA 131124Z 1312/1418 17008KT P6SM VCSH FEW020 OVC100 FM131300 16014G24KT P6SM VCSH FEW020 BKN035 OVC050 TEMPO 1316/1320 5SM -SHRA BKN025 FM132000 16017G27KT 4SM -SHRA VCTS BKN020CB OVC030 FM132300 17018G29KT 2SM SHRA VCTS BKN010CB OVC020 WS020/17050KT TEMPO 1401/1404 1SM +SHRA BR BKN007 FM140600 32010KT P6SM SCT020 BKN060 PROB30 1406/1409 4SM -SHRA BKN025 FM141500 29008KT P6SM SKC", "KLGB 131129Z 1312/1412 VRB03KT P6SM OVC015 FM131900 19007KT P6SM SKC FM132300 29008KT P6SM SKC FM140500 VRB03KT P6SM OVC012", "KLGU 131137Z 1312/1412 VRB04KT P6SM SKC", "KLIT 131120Z 1312/1412 34005KT P6SM SKC FM131800 29014G22KT P6SM SKC FM140000 29005KT P6SM SKC", "KLLQ 131120Z 1312/1412 33003KT P6SM SKC FM131800 33008G15KT P6SM SKC FM140000 29004KT P6SM SKC AMD NOT SKED", "KLMT 131120Z 1312/1412 VRB04KT P6SM SKC", "KLND 131120Z 1312/1412 VRB05KT P6SM SCT250 FM140200 24006KT P6SM SCT250", "KLNK 131120Z 1312/1412 28012G20KT P6SM FEW250 WS020/33043KT FM131400 31019G35KT P6SM SKC FM140100 29007KT P6SM SKC", "KLNS 131120Z 1312/1412 16010KT 6SM -RA BR OVC025 WS020/18035KT FM131800 16009KT 4SM -RA BR VCTS OVC025CB FM132200 30006KT P6SM SCT025 BKN050 FM140400 31004KT P6SM OVC100", "KLOZ 131131Z 1312/1412 26006KT P6SM VCSH OVC008 FM131230 28007KT P6SM BKN015 FM131330 29007KT P6SM SCT035 FM131800 28011G20KT P6SM FEW250 FM132300 VRB04KT P6SM FEW250", "KLRD 131120Z 1312/1412 VRB05KT P6SM FEW050", "TAF KLRF 122300Z 1223/1405 27009KT 9999 FEW100 SCT200 QNH2977INS TEMPO 1223/1302 35010G15KT 6000 -TSRA SCT050CB BKN120 BECMG 1301/1302 36009KT 9999 SCT080 QNH2987INS BECMG 1305/1306 VRB06KT 9999 SKC QNH2985INS BECMG 1315/1316 33012G20KT 9999 SKC QNH2996INS BECMG 1321/1322 35009KT 9999 SKC QNH2993INS TX28/1223Z TN11/1311Z", "KLRU 131137Z 1312/1412 VRB04KT P6SM BKN250 FM131800 19006KT P6SM SCT250 FM140600 VRB05KT P6SM FEW250", "KLSE 131120Z 1312/1412 27010KT P6SM BKN090 FM131400 30011G21KT P6SM BKN050 FM140000 27008KT P6SM BKN080 FM140300 23006KT P6SM BKN090", "TAF AMD KLSF 122201Z 1221/1403 VRB06KT 8000 -SHRA VCTS SCT008 OVC015CB QNH2995INS TEMPO 1222/1223 VRB15G35KT 3200 -TSRA BR BKN003CB TEMPO 1223/1303 22010G20KT 4800 TSRA BKN007 OVC015CB BECMG 1304/1305 15004KT 8000 BR SCT003 OVC010 WSCONDS QNH2985INS TEMPO 1307/1311 24010G20KT 8000 -SHRA VCTS BKN003 OVC008CB BECMG 1314/1315 28008KT 9999 NSW BKN015 WSCONDS QNH2990INS BECMG 1317/1318 31010G20KT 9999 SKC 510002 QNH2985INS BECMG 1321/1322 33006KT 9999 SKC 510002 QNH2990INS TX22/1221Z TN19/1305Z LAST NO AMDS AFT 1403 NEXT 1413", "TAF AMD KLSV 122305Z 1223/1405 12005KT 9999 FEW160 QNH2991INS BECMG 1303/1304 30006KT 9999 FEW250 QNH3002INS BECMG 1316/1317 04012KT 9999 SKC QNH2991INS BECMG 1403/1404 24008KT 9999 SKC QNH2993INS TX34/1323Z TN18/1314Z", "TAF KLTS 130100Z 1301/1407 VRB06KT 9999 SKC QNH2997INS BECMG 1307/1308 01010G15KT 9999 SKC QNH3002INS BECMG 1314/1315 02012KT 9999 SKC QNH3003INS TX25/1321Z TN09/1312Z", "TAF KLUF 130400Z 1304/1410 VRB06KT 9999 SCT200 QNH2983INS TX35/1323Z TN18/1313Z", "KLUK 131132Z 1312/1412 25010KT P6SM -SHRA SCT025 BKN035 FM131400 28014G20KT P6SM FEW025 SCT070 FM131600 26015G25KT P6SM SCT050 FM140000 26010KT P6SM BKN250 FM140500 22005KT P6SM SCT250", "KLVK 131153Z 1312/1412 29007KT P6SM OVC010 FM131830 VRB05KT P6SM SKC FM132200 29012KT P6SM SKC FM140400 VRB05KT P6SM SKC FM141000 VRB03KT P6SM BKN010", "KLVM 131126Z 1312/1412 32011KT P6SM FEW060 SCT250 FM131900 27012KT P6SM SCT200", "KLVS 131120Z 1312/1412 05012KT P6SM SKC FM131700 14010KT P6SM SKC FM132200 18010KT P6SM SKC FM140300 14006KT P6SM SKC", "KLWB 131120Z 1312/1412 23005KT P6SM SCT025 BKN040 FM131600 25010G16KT P6SM VCSH OVC015 FM131800 26013G19KT P6SM OVC050 FM132100 28007KT P6SM BKN100 FM140000 30003KT P6SM SKC", "KLWS 131132Z 1312/1412 VRB04KT P6SM SCT250", "KLWT 131120Z 1312/1412 26011KT P6SM SCT150 FM131800 30011KT P6SM SKC FM140100 24007KT P6SM SKC", "KLYH 131120Z 1312/1412 19010KT P6SM OVC004 FM131600 21010G18KT P6SM VCSH BKN012 FM131900 23009G16KT P6SM BKN035 FM132100 25007KT P6SM SCT030 BKN100", "KMAF 131121Z 1312/1412 07008KT P6SM FEW250", "KMBG 131120Z 1312/1412 32011KT P6SM SKC FM131400 32018G30KT P6SM SKC FM131500 32029G45KT P6SM SKC FM140100 32019G30KT P6SM SKC FM140700 29014G20KT P6SM FEW250", "KMBL 131138Z 1312/1412 26007KT P6SM VCSH BKN025 FM131800 25008G17KT 6SM -SHRA BR OVC060 FM132300 26006KT 6SM BR VCSH BKN045 FM140000 27006KT 6SM -SHRA BR OVC060", "KMBS 131120Z 1312/1412 24010KT P6SM SCT025 BKN060 FM131400 24013G20KT P6SM BKN045 OVC080 TEMPO 1316/1320 5SM SHRA OVC045 FM140100 22007KT P6SM SCT045 BKN100 OVC250", "KMCB 131120Z 1312/1412 31003KT P6SM FEW250 FM131400 01007KT P6SM SCT250 FM140000 00000KT P6SM SKC", "KMCC 131120Z 1312/1412 18007KT P6SM SKC", "KMCE 131120Z 1312/1412 VRB03KT P6SM SKC", "TAF AMD KMCF 130300Z 1303/1407 03009KT 9999 SCT020 BKN080 QNH2977INS TEMPO 1303/1304 6000 -TSRA SCT010 BKN020CB TEMPO 1315/1322 22009KT 8000 -SHRA BKN020 BECMG 1404/1405 35006KT 9999 FEW010 SCT015 BKN020 QNH2982INS TX29/1318Z TN24/1305Z", "KMCI 131120Z 1312/1412 27009KT P6SM SKC FM131500 30018G28KT P6SM FEW100 SCT250 FM140000 28009KT P6SM SKC FM140300 24007KT P6SM SKC", "KMCK 131120Z 1312/1412 29009KT P6SM FEW250 WS020/32040KT FM131500 30016G29KT P6SM SKC FM131600 31020G34KT P6SM SKC FM140000 30009KT P6SM SKC FM140200 27007KT P6SM SKC", "KMCN 131134Z 1312/1412 22004KT 5SM -SHRA BR BKN004 FM131400 24007KT P6SM BKN005 FM131500 27006KT P6SM BKN009 FM131600 28008KT P6SM BKN015 BKN025 FM131800 29009KT P6SM SCT030 FM140200 30004KT P6SM SKC", "KMCO 131120Z 1312/1418 26005KT P6SM SCT025 BKN060 BKN120 FM131400 30006KT P6SM VCSH SCT030 BKN100 FM131600 30007KT P6SM VCTS SCT035CB BKN120 TEMPO 1318/1321 4SM SHRA BKN030 FM140000 33005KT P6SM SCT035 SCT080 FM141400 04007KT P6SM SCT030 SCT050", "KMCW 131120Z 1312/1412 30010G18KT P6SM FEW220 FM131500 30020G30KT P6SM BKN070 FM132300 31014G23KT P6SM BKN100 FM140100 28007KT P6SM SCT130", "KMDT 131120Z 1312/1412 15008KT 6SM -RA BR OVC025 WS020/18035KT FM131700 16008KT 4SM -RA BR VCTS OVC025CB FM132200 30006KT P6SM SCT025 BKN050 FM140400 30005KT P6SM OVC100", "KMDW 131120Z 1312/1418 26010G19KT P6SM SCT080 FM131800 28016G26KT P6SM VCSH BKN060 TEMPO 1319/1323 29020G34KT 6SM -SHRAGS FM140100 25007KT P6SM SCT060 FM141500 22012G20KT P6SM BKN150", "KMEI 131120Z 1312/1412 35007KT P6SM SCT005 BKN110 FM131800 34010KT P6SM SKC FM140100 00000KT P6SM SKC", "KMEM 131139Z 1312/1418 34009KT P6SM SKC FM131800 30011G17KT P6SM SKC FM132300 28007KT P6SM SKC FM140400 22002KT P6SM SKC FM141500 24011KT P6SM SKC", "KMER 131120Z 1312/1412 VRB03KT P6SM SKC", "KMEV 131120Z 1312/1412 VRB03KT P6SM SKC FM132000 33009G16KT P6SM FEW100 FM140200 VRB05KT P6SM SKC", "KMFD 131131Z 1312/1412 26007KT P6SM FEW035 BKN080 FM131700 26011G20KT P6SM SCT080 FM140300 23006KT P6SM FEW150", "KMFE 131120Z 1312/1412 00000KT P6SM FEW250 FM132200 07009KT P6SM SCT110 FM140600 VRB03KT P6SM SCT120", "KMFR 131120Z 1312/1412 VRB03KT P6SM SKC", "TAF AMD KMGE 122233Z 1222/1403 16009KT 9999 FEW007 SCT015 BKN200 QNH2993INS BECMG 1303/1304 15009KT 9999 OVC012 QNH2990INS BECMG 1306/1307 19006KT 6000 BR OVC008 QNH2988INS BECMG 1309/1310 22006KT 4800 -RA BR OVC006 QNH2987INS BECMG 1312/1313 25006KT 6000 BR OVC008 QNH2987INS BECMG 1314/1315 28009KT 9999 NSW OVC010 QNH2987INS BECMG 1315/1316 30012G25KT 9999 SCT015 QNH2986INS BECMG 1400/1401 32012KT 9999 FEW050 QNH2989INS TX22/1321Z TN18/1311Z LAST NO AMDS AFT 1303 NEXT 1311", "KMGM 131134Z 1312/1412 VRB05KT P6SM BKN011 FM131500 31006KT P6SM BKN015 FM131600 31007KT P6SM SCT013 FM132300 30005KT P6SM SKC FM140500 VRB03KT P6SM SKC", "KMGW 131120Z 1312/1412 19010G20KT 6SM -RA OVC025 FM131700 23010G18KT P6SM BKN040 FM132200 24006KT P6SM SKC", "KMHK 131120Z 1312/1412 27011G20KT P6SM SKC FM131500 29017G27KT P6SM SKC FM131800 31022G33KT P6SM SKC FM140000 29008KT P6SM SKC", "KMHR 131120Z 1312/1412 VRB05KT P6SM SKC", "KMHT 131120Z 1312/1412 00000KT P6SM OVC006 FM131500 15008KT P6SM BKN025 FM132100 14010KT 5SM -RA BR OVC009 FM140600 13013G24KT 4SM RA BR OVC007 WS020/17045KT", "KMIA 131120Z 1312/1418 VRB04KT P6SM SCT030 BKN090 FM131400 20008KT P6SM VCTS SCT030 BKN035CB BKN100 FM131700 22008KT P6SM VCTS BKN030CB BKN050 FM140000 VRB05KT P6SM VCSH SCT030 BKN050 BKN250 FM140300 VRB04KT P6SM SCT035 BKN060 FM141600 02007KT P6SM SCT035 BKN100", "TAF AMD KMIB 130206Z 1302/1407 35010G15KT 9999 FEW100 QNH2975INS BECMG 1310/1311 31015G25KT 9999 FEW100 QNH2982INS BECMG 1314/1315 31020G40KT 9999 FEW090 520001 QNH2991INS BECMG 1400/1401 32015G25KT 9999 FEW090 QNH2975INS BECMG 1402/1403 31010G15KT 9999 FEW090 QNH2974INS TX10/1320Z TN01/1310Z", "KMIV 131120Z 1312/1412 16006KT P6SM VCSH BKN070 FM131400 17011G20KT P6SM VCSH SCT025 OVC050 FM132000 16010G19KT 6SM -SHRA BR VCTS SCT009 OVC015CB FM132300 17009KT 4SM -SHRA BR VCTS SCT005 OVC008CB FM140400 32006KT 5SM -SHRA BR SCT009 OVC010 FM140600 32006KT P6SM BKN025", "KMKC 131120Z 1312/1412 27010KT P6SM SKC FM131500 29016G26KT P6SM FEW100 SCT250 FM140000 26006KT P6SM SKC", "KMKE 131120Z 1312/1418 26010KT P6SM BKN060 FM131600 28014G23KT P6SM BKN110 FM131800 28014G25KT P6SM VCSH BKN050 FM132300 27012KT P6SM SCT120 FM140400 25008KT P6SM SCT170 FM141700 22013G21KT P6SM BKN120", "KMKG 131128Z 1312/1412 26010G20KT P6SM VCSH BKN050 FM131400 26015G25KT P6SM -SHRA BKN070 FM140000 27008KT P6SM OVC100", "KMKL 131139Z 1312/1412 34007KT P6SM SKC FM131800 30012G20KT P6SM SKC FM132300 24007KT P6SM SKC FM140200 00000KT P6SM SKC", "KMKT 131127Z 1312/1412 30018G26KT P6SM BKN070 FM132300 30011KT P6SM BKN120 FM140300 26005KT P6SM OVC100", "KMLB 131120Z 1312/1412 26004KT P6SM SCT030 BKN120 FM131500 28006KT P6SM VCSH SCT025 BKN120 FM131700 30007KT P6SM VCTS SCT035CB BKN120 TEMPO 1318/1322 3SM TSRA BKN030CB FM140100 33005KT P6SM SCT035 SCT080", "KMLC 131120Z 1312/1412 01005KT P6SM SCT250 FM131800 31011KT P6SM SCT250 FM140000 27005KT P6SM SCT250", "KMLI 131122Z 1312/1412 28009KT P6SM SCT100 FM131300 29013G25KT P6SM FEW060 FM131500 29021G32KT P6SM BKN060 FM140100 30007KT P6SM FEW240", "KMLS 131126Z 1312/1412 29013KT P6SM FEW100 WS015/33040KT FM131600 31015G30KT P6SM FEW050 SCT200 FM140100 32012KT P6SM FEW250", "KMLU 131121Z 1312/1412 01004KT P6SM FEW080 FM131500 01008KT P6SM SKC FM140000 VRB03KT P6SM SKC", "KMMH 131120Z 1312/1412 VRB04KT P6SM SKC FM132100 10009KT P6SM FEW100 FM140300 30004KT P6SM SKC", "TAF KMMT 122300Z 1223/1405 VRB06KT 9999 BKN035 OVC095 QNH2995INS TEMPO 1300/1305 21020G25KT 8000 -TSRA BKN008CB OVC015 BECMG 1307/1308 VRB06KT 8000 -SHRA BKN008 510003 QNH2994INS BECMG 1308/1309 VRB06KT 8000 -SHRA OVC003 QNH2989INS TEMPO 1308/1312 22020G25KT 8000 -TSRA OVC003CB BECMG 1315/1316 24009KT 8000 BR BKN003 510003 QNH2985INS BECMG 1316/1317 25012KT 9000 BR FEW014 QNH2983INS BECMG 1317/1318 26010G15KT 9000 -SHRA SCT030 QNH2975INS TEMPO 1317/1318 25020G30KT 9000 -TSRA BKN025CB TX27/1320Z TN15/1305Z", "KMOB 131139Z 1312/1412 34005KT 6SM BR VCSH SCT005 BKN030 FM131300 35006KT P6SM SCT030 BKN110 FM131500 36008KT P6SM SCT250", "KMOD 131120Z 1312/1412 33007KT P6SM SKC", "KMOT 131129Z 1312/1412 29017G26KT P6SM SKC FM131400 30023G36KT P6SM SKC FM131600 31028G43KT P6SM SKC FM140000 31022G33KT P6SM FEW250 FM140400 30014G20KT P6SM FEW100 SCT150 FM140600 30012G17KT P6SM SCT040 BKN070", "KMPV 131131Z 1312/1412 18006KT P6SM SCT030 WS020/19045KT TEMPO 1312/1314 BKN015 FM131400 17012G22KT P6SM SCT025 BKN120 WS020/18045KT FM131700 17016G29KT P6SM VCSH BKN025 FM140100 16010G19KT 6SM -SHRA BR OVC018 WS020/16050KT FM140500 18007KT 3SM RA BR OVC015 WS020/16055KT FM140900 VRB04KT 5SM -SHRA BR OVC012", "KMQY 131120Z 1312/1412 28004KT 5SM BR SCT007 SCT060 TEMPO 1312/1313 BKN005 FM131400 30009G16KT P6SM SKC FM140000 25005KT P6SM SKC", "KMRB 131140Z 1312/1412 17008KT P6SM OVC015 FM131300 17006KT 5SM -SHRA OVC020 FM131400 17006KT P6SM OVC025 FM131800 18010G20KT P6SM -SHRA OVC025 FM132000 25004KT P6SM OVC045", "KMRY 131130Z 1312/1412 VRB03KT 6SM BR OVC005 FM131630 VRB04KT P6SM BKN008 FM131900 28008KT P6SM SCT010 FM140000 27007KT P6SM BKN009 FM140500 VRB04KT P6SM OVC007 FM140800 VRB03KT P6SM OVC004", "KMSL 131120Z 1312/1412 31005KT P6SM BKN008 FM131400 33010KT P6SM SCT050 FM140000 VRB04KT P6SM SKC", "KMSN 131120Z 1312/1412 27010KT P6SM BKN050 FM131500 29014G22KT P6SM SCT090 FM131800 29014G28KT P6SM VCSH BKN050 FM132300 28008KT P6SM SCT100 FM140800 24005KT P6SM SCT110", "KMSO 131120Z 1312/1412 VRB03KT P6SM SKC", "KMSP 131127Z 1312/1418 29011G18KT P6SM BKN080 FM131500 30014G26KT P6SM OVC050 FM132200 29010KT P6SM OVC050 FM140300 26009KT P6SM OVC100 PROB30 1409/1415 4SM -SHRASN OVC040", "KMSS 131130Z 1312/1412 15011G19KT P6SM VCSH BKN070 WS020/19050KT FM131500 16018G30KT P6SM VCSH SCT035 BKN050 WS020/18050KT FM131900 17014G26KT P6SM -SHRA OVC035 FM132200 19011G18KT 5SM -SHRA BR OVC021 FM140000 20006KT 4SM RA BR OVC025 FM141000 21003KT P6SM VCSH BKN035", "KMSY 131120Z 1312/1418 31005KT P6SM VCSH FEW008 SCT040 SCT060 FM131500 36007KT P6SM SCT250 FM132300 VRB04KT P6SM SKC FM141500 07007KT P6SM SKC", "TAF KMTC 121900Z 1219/1401 18015G20KT 9999 FEW055 OVC130 QNH2962INS BECMG 1300/1301 20012KT 9000 -SHRA OVC025 QNH2960INS TEMPO 1301/1304 25015G20KT 6000 -TSRA OVC015CB BECMG 1305/1306 29006KT 9999 NSW SCT015 SCT060 QNH2959INS BECMG 1313/1314 25012G18KT 9999 SCT035 QNH2961INS BECMG 1321/1322 25010KT 9999 SCT050 QNH2967INS TX21/1221Z TN10/1310Z LAST NO AMDS AFT 1303 NEXT 1311", "KMTH 131124Z 1312/1412 17008KT P6SM VCSH SCT023 OVC150 FM131300 18007KT P6SM FEW020 BKN150 FM132100 27006KT P6SM VCTS SCT020CB OVC150 FM140200 VRB04KT P6SM FEW020 BKN150", "KMTJ 131120Z 1312/1412 17007KT P6SM SKC FM131400 VRB04KT P6SM SKC FM131930 32008KT P6SM SKC FM140200 17009KT P6SM SKC", "KMTN 131140Z 1312/1412 12008KT 3SM SHRA OVC060 FM131700 17010G22KT P6SM OVC015 FM132200 22010G20KT 5SM SHRA OVC020 FM140000 32003KT P6SM OVC015 FM140200 00000KT P6SM BKN035", "KMTW 131138Z 1312/1412 26010KT P6SM SCT020 BKN070 TEMPO 1312/1314 BKN020 FM131500 27013G20KT P6SM BKN050 FM131900 28012G20KT P6SM -SHRA BKN050 FM140000 27006KT P6SM SCT070", "TAF KMUI 130300Z 1303/1409 VRB06KT 9999 FEW015 SCT020 OVC025 QNH2985INS BECMG 1312/1313 16009KT 9000 -SHRA FEW005 BKN012 BKN020 QNH2968INS BECMG 1322/1323 VRB06KT 9000 BR FEW030 BKN045 OVC070 QNH2971INS TX19/1318Z TN12/1403Z LAST NO AMDS AFT 1304 NEXT 1311", "TAF KMUO 130200Z 1302/1408 30009KT 9999 FEW200 QNH3020INS BECMG 1305/1306 VRB06KT 9999 FEW250 QNH3022INS BECMG 1316/1317 12012KT 9999 FEW250 QNH3027INS BECMG 1318/1319 VRB06KT 9999 SKC QNH3015INS BECMG 1323/1324 32009KT 9999 SKC QNH3011INS TX23/1322Z TN05/1313Z", "KMVN 131128Z 1312/1412 26006KT P6SM FEW070 FM131500 26011G20KT P6SM SKC FM131800 28016G27KT P6SM FEW250 FM132300 29009KT P6SM FEW250 FM140200 29006KT P6SM FEW250 FM140400 VRB04KT P6SM SKC", "KMWH 131132Z 1312/1412 36004KT P6SM SKC FM132300 17005KT P6SM SKC FM140600 35005KT P6SM SKC", "TAF KMXF 121900Z 1219/1401 VRB06KT 8000 -SHRA BKN009 QNH2998INS TEMPO 1219/1304 24020G30KT 8000 -TSRA OVC009CB BECMG 1312/1313 VRB06KT 8000 -SHRA OVC010 510013 QNH2990INS BECMG 1314/1315 33010G15KT 9999 NSW SKC 510023 QNH2993INS TX26/1319Z TN18/1301Z LAST NO AMDS AFT 1303 NEXT 1311", "KMYL 131140Z 1312/1412 VRB04KT P6SM SKC FM132000 30010KT P6SM SKC FM140300 VRB05KT P6SM SKC", "KMYR 131120Z 1312/1412 22005KT P6SM SCT015 TEMPO 1312/1314 BKN015 FM131400 23006KT P6SM BKN015 TEMPO 1316/1317 SCT020 FM131700 23006KT P6SM SCT120 FM140100 26005KT P6SM FEW250 FM140600 33006KT P6SM FEW200 AMD NOT SKED", "TAF KNBC 1303/1403 23005KT 9999 SCT040 BKN080 QNH2994INS TEMPO 1309/1312 23008KT 6000 TSRA BR BKN030 BECMG 1314/1316 25008KT 9999 BKN100 QNH2983INS T21/1309Z T26/1321Z AUTOMATED SENSOR METWATCH 1303 UNTIL 1309", "TAF KNBG 1223/1323 18012G18KT 9999 VCSH SCT025CB BKN030 BKN250 QNH2989INS TEMPO 1223/1303 VRB25G35KT 1600 +TSRA BR SCT007 BKN013CB OVC050 BECMG 1303/1305 22006KT 8000 BR VCSH SCT020 BKN035 BKN120 OVC250 QNH2987INS BECMG 1306/1308 VRB03KT 3200 BR FEW005 SCT025 BKN120 BKN250 QNH2986INS TEMPO 1308/1312 VRB03KT 1600 BR FEW005 BKN020 BKN100 BKN250 BECMG 1312/1314 33010G15KT 9999 NSW SCT020 BKN040 BKN100 BKN250 QNH2984INS AUTOMATED SENSOR METWATCH 1304 TIL 1310 T19/1311Z T28/1319Z FN00247", "TAF KNCA 1303/1403 00000KT 9999 SKC QNH2997INS BECMG 1306/1308 14006KT 8000 -SHRA BR BKN030 OVC050 QNH2975INS TEMPO 1310/1315 3200 SHRA BR BKN015 OVC030 FM131700 20006KT 9999 SCT020 BKN030 OVC050 QNH2970INS AUTOMATED SENSOR METWATCH 1305 TIL 1311 T16/1305Z T26/1319Z", "KNEW 131120Z 1312/1412 28004KT P6SM FEW007 SCT040 BKN050 FM131300 33007KT P6SM SCT020 FM140000 35006KT P6SM FEW250 FM140300 02007KT P6SM SKC", "TAF KNFG 1303/1403 VRB05KT 9999 BKN015 532009 532903 QNH3003INS BECMG 1317/1319 21010KT 9999 SCT020 SCT100 500000 QNH2997INS BECMG 1323/1401 VRB05KT 9999 OVC015 QNH2990INS T17/1313Z T26/1321Z", "KNFL TAF 1307/1407 VRB06KT 9999 SKC QNH3015INS AUTOMATED SENSOR METWATCH 1307 TIL 1313 T05/1314Z T27/1323Z FS30203", "TAF KNFW 1223/1323 36012KT 9999 SKC QNH2985INS WND 340V040 BECMG 1312/1314 VRB06KT 9999 SKC QNH3008INS AUTOMATED SENSOR METWATCH 1304 TIL 1311 T32/1223Z T15/1313Z FN20070", "KNGP AMD TAF 1311/1407 28006KT 9999 MIFG FEW004 SCT012 SCT100 QNH2988INS TEMPO 1311/1314 8000 BR MIFG SCT003 BKN010 BKN100 FM131700 VRB05KT 9999 SCT018 SCT100 QNH2988INS FM131900 12010KT 9999 SCT025 SCT100 QNH2983INS FM132100 11012KT 9999 SCT025CB SCT100 BKN250 QNH2983INS FM140200 15008KT 9999 FEW015 FEW035 SCT250 QNH2988INS T25/1312Z T32/1320Z AMD 1107 FN20044", "KNGU TAF 1307/1407 16008KT 8000 BR BKN100 BKN190 BKN230 QNH2971INS TEMPO 1312/1315 17014G22KT 4800 -SHRA BKN020CB BKN045 BKN310 TEMPO 1315/1318 VRB15G25KT 1600 TSRA BR BKN010CB BECMG 1318/1320 19009KT 6000 -SHRA BKN025 BKN045 QNH2971INS BECMG 1403/1405 22006KT 9999 NSW BKN035 OVC055 QNH2978INS T19/1312Z T22/1321Z FN00247", "TAF KNHK 1223/1323 16008KT 9999 SCT150 BKN220 BKN280 QNH2988INS BECMG 1307/1309 17011KT 9000 -RA BKN060 BKN220 BKN280 QNH2984INS BECMG 1313/1315 17013KT 4800 -SHRA VCTS BKN020CB BKN060 BKN220 QNH2970INS AUTOMATED SENSOR METWATCH 1303 TIL 1308 T17/1310Z T22/1319Z FN20066", "TAF AMD KNID 1305/1323 21008KT 9999 SKC QNH3008INS BECMG 1313/1315 VRB05KT 9999 FEW120 QNH2999INS BECMG 1319/1321 12006KT 9999 FEW080 QNH2994INS LAST NO AMDS AFT 1305 NEXT 1315 T14/1314Z T34/1322Z AMD 0525", "KNIP TAF AMD 1308/1407 34010KT 8000 -SHRA BKN025 BKN045 BKN250 QNH2988INS TEMPO 1308/1311 4800 -SHRA BR BKN015 FM131100 26008KT 8000 VCSH BR BKN015 BKN030CB OVC110 QNH2980INS TEMPO 1314/1318 VRB15G25KT 4800 -TSRA BR BKN015 BKN025CB FM140100 20005KT 9999 FEW030 SCT180 QNH2985INS T21/1312Z T26/1319Z AMD 0805 FN20083", "KNJK TAF 1307/1407 27009KT 9999 FEW070 QNH2984INS FM132100 27007KT 9999 SKC QNH2974INS AUTOMATED SENSOR METWATCH 1307 TIL 1313 T22/1313Z T36/1322Z FS30190", "TAF KNKT 1303/1403 VRB06KT 9999 SCT080 QNH2995INS BECMG 1306/1308 VRB06KT 9999 BKN020 QNH2990INS FM130900 16005KT 6000 SHRA BR SCT005 OVC010 QNH2974INS FM131800 18006KT 9999 BKN040 QNH2970INS T16/1305Z T24/1320Z", "TAF KNKX 1303/1403 VRB05KT 9999 OVC009 QNH2992INS TEMPO 1310/1315 8000 BR BECMG 1315/1317 9999 BKN010 BKN020 QNH3000INS FM131930 30008KT 9999 SKC QNH2992INS T17/1314Z T31/1321Z", "KNLC TAF 1307/1407 32008KT 9999 SKC QNH2985INS AUTOMATED SENSOR METWATCH 1307 TIL 1314 T14/1314Z T31/1323Z FS30203", "TAF KNMM 1223/1323 VRB06KT 9999 VCSH BKN006 BKN020CB BKN040 QNH2987INS TEMPO 1223/1304 VRB10G20KT 3200 TSRA SCT008 BKN025CB BKN040 BECMG 1304/1305 24008KT 6000 BR VCSH BKN005 OVC010 QNH2990INS TEMPO 1305/1311 VRB10G20KT 4800 TSRA BR BKN005 BKN015CB OVC020 FM131200 33007KT 9999 BKN005 OVC010 QNH2993INS BECMG 1316/1318 34010G18KT 9999 SCT015 SCT250 QNH2995INS AUTOMATED SENSOR METWATCH 1305 TIL 1311 T16/1311Z T25/1321Z FN20082", "TAF KNPA 1223/1323 19007KT 9999 SCT020 SCT100 BKN250 QNH2990INS FM130400 21005KT 9999 VCSH SCT015 BKN045 BKN100 QNH2988INS FM130800 24008KT 9999 VCTS SCT007 BKN015CB OVC040 QNH2986INS TEMPO 1308/1312 6000 SHRA FM131300 32009KT 9999 FEW007 BKN015 BKN050 BKN250 QNH2988INS FM131600 34010KT 9999 SCT015 BKN050 BKN250 QNH2992INS FM131800 35010KT 9999 FEW025 SCT250 QNH2988INS AUTOMATED SENSOR METWATCH 1303 TIL 1311 T20/1312Z T27/1318Z FN20053", "TAF KNQI 1223/1323 13010KT 9999 FEW050 QNH2982INS FM130100 VRB04KT 9999 SKC QNH2988INS FM130600 VRB03KT 4800 BR SCT015 QNH2986INS FM130900 00000KT 0800 FG VV002 QNH2986INS FM131400 33005KT 6000 BR FEW010 QNH2991INS FM131800 VRB06KT 9999 NSW FEW050 QNH2985INS BECMG 1320/1322 11008KT 9999 VCTS SCT050CB BKN100 QNH2984INS T24/1312Z T34/1321Z FN00247", "TAF KNQX 1223/1323 10008KT 9999 FEW020 SCT150 BKN250 QNH2990INS FM130700 14007KT 9999 VCSH SCT020 BKN150 BKN250 QNH2984INS FM131900 23009KT 9999 VCSH SCT020 BKN080 OVC150 QNH2979INS AUTOMATED SENSOR METWATCH 1302 TIL 1310 T27/1310Z T30/1316Z FN200056", "KNRB TAF AMD 1311/1407 VRB05KT 9999 VCSH SCT025 BKN100 BKN250 QNH2982INS FM131200 30010KT 9999 VCSH SCT015 BKN035 BKN070 BKN250 QNH2976INS TEMPO 1312/1316 24005KT 6000 -SHRA SCT010 OVC020 FM140200 VRB03KT 9999 SCT015 OVC040 QNH2983INS T22/1312Z T27/1319Z AMD 1105 FN20022", "TAF KNSE 1223/1323 18006KT 9999 VCSH SCT020 SCT035 BKN100 BKN250 QNH2988INS TEMPO 1301/1306 8000 BR SCT008 BKN015 OVC035 FM130600 25005KT 8000 BR VCSH SCT006 BKN015CB OVC035 QNH2985INS TEMPO 1306/1312 4800 -SHRA BR BKN006 OVC012 FM131300 33008KT 9999 SCT008 OVC015 QNH2988INS FM131800 35010KT 9999 SCT015 BKN030 BKN250 QNH2989INS FM132000 36008KT 9999 SCT030 BKN250 QNH2984INS AUTOMATED SENSOR METWATCH 1304 TIL 1311 T22/1312Z T26/1320Z FN20029", "KNTD TAF 1307/1407 VRB06KT 9999 FEW013 SCT150 QNH2997INS TEMPO 1313/1319 4800 BR SCT013 BKN025 FM131900 29009KT 9999 SCT015 SCT060 QNH2986INS FM140300 VRB06KT 8000 BR BKN011 BKN180 QNH2987INS AUTOMATED SENSOR METWATCH 1307 TIL 1315 T18/1312Z T22/1322Z FS30190", "TAF KNTU 1223/1323 17010G20KT 9999 SCT150 BKN150 OVC300 QNH2998INS FM130700 17012KT 9999 BKN030 OVC120 QNH2984INS TEMPO 1310/1315 VRB06KT 4800 SHRA BKN020 OVC050 FM131500 15014G24KT 4800 RA BKN015 OVC030 641208 QNH2965INS TEMPO 1318/1323 VRB25G40KT 3200 TSRA BKN008 OVC015CB T17/1310Z T22/1319Z FN20051", "TAF KNUC 1223/1323 27013KT 9999 BKN013 BKN020 QNH3004INS TEMPO 1223/1305 SCT014 SCT020 BECMG 1305/1307 28007KT 9999 OVC007 QNH3001INS FM131400 28009KT 9999 OVC010 QNH3002INS FM131800 27012KT 9999 BKN015 QNH2993INS LAST NO AMDS AFT 1301 NEXT 1315 16/1312Z T20/1322Z FS30202", "KNUW TAF 1307/1407 VRB06KT 9999 FEW250 QNH3020INS TEMPO 1310/1315 8000 BCFG SCT006 T07/1308Z T16/1323Z FS30203", "TAF KNXP 1303/1403 VRB06KT 9999 SCT100 52009 522903 QNH2994INS BECMG 1309/1311 VRB05KT 9999 SKC 500000 QNH3007INS T17/1314Z T18/1421Z", "TAF KNYG 1221/1321 16009KT 9999 SCT050 QNH2993INS BECMG 1308/1310 18009KT 4800 RA BR BKN020 OVC050 QNH2967INS TEMPO 1310/1316 3200 TSRA BKN002 OVC010 LAST NO AMDS AFT 1221/ NEXT 1309 AUTOMATED SENSOR METWATCH 1223 TIL 1311 T20/1221Z T15/1311Z", "TAF KNYL 1303/1403 VRB06KT 9999 FEW080 QNH2987INS FM131800 VRB06KT 9999 FEW080 QNH2976INS AUTOMATED SENSOR METWATCH 1307 TIL 1314 T22/1314Z T37/1322Z", "KNZY TAF 1307/1407 VRB06KT 9999 OVC015 QNH2992INS TEMPO 1310/1316 8000 BR OVC008 FM132000 29008KT 9999 SCT015 SCT180 QNH2989INS FM140200 VRB06KT 9999 BKN013 BKN180 QNH2986INS AUTOMATED SENSOR METWATCH 1307 TIL 1315 T18/1312Z T22/1322Z FS30190", "KOAJ 131138Z 1312/1412 VRB06KT P6SM -SHRA SCT025 BKN090 TEMPO 1312/1315 4SM RA BR BKN025 FM131500 VRB06KT P6SM SHRA SCT008 BKN015 FM131900 22008KT P6SM BKN035 FM141000 34008KT P6SM FEW040 AMD LTD TO CLD VIS AND WIND", "KOAK 131130Z 1312/1418 VRB05KT P6SM OVC012 FM131900 28009KT P6SM FEW012 FM140500 27007KT P6SM BKN013 FM141000 26005KT P6SM OVC009", "TAF KOFF 130200Z 1302/1408 30012KT 9999 SCT100 QNH2992INS BECMG 1313/1314 30015G25KT 9999 SCT100 QNH2993INS BECMG 1315/1316 31025G35KT 9999 SKC QNH2987INS BECMG 1323/1324 31012KT 9999 SKC QNH2987INS TX16/1322Z TN07/1312Z", "KOFK 131120Z 1312/1412 30012G20KT P6SM FEW250 WS020/33040KT FM131400 31021G39KT P6SM SKC FM140100 29008KT P6SM SKC", "KOGB 131139Z 1312/1412 VRB03KT 6SM BR BKN006 OVC012 TEMPO 1312/1313 1SM BR FM131400 25008KT P6SM OVC025 FM131800 27010G16KT P6SM BKN035 FM140000 30005KT P6SM SKC", "KOGD 131137Z 1312/1412 17005KT P6SM SKC FM131700 33006KT P6SM SKC FM140100 17005KT P6SM SKC", "KOKC 131120Z 1312/1412 35005KT P6SM SKC FM131500 33011G17KT P6SM FEW100 FM132300 28008KT P6SM SKC", "KOLF 131138Z 1312/1412 29015G25KT P6SM SKC FM131800 31022G36KT P6SM SKC FM140200 29010KT P6SM FEW080", "KOLM 131120Z 1312/1412 00000KT P6SM SKC FM131700 01006KT P6SM SKC FM140400 00000KT P6SM SKC", "KOLS 131128Z 1312/1412 VRB03KT P6SM BKN250 FM132000 25006KT P6SM FEW100 BKN250 FM140200 VRB03KT P6SM BKN250", "KOMA 131120Z 1312/1412 29012G20KT P6SM FEW250 WS020/33038KT FM131400 31018G32KT P6SM SKC FM140100 29008KT P6SM SKC", "KONP 131133Z 1312/1412 09004KT P6SM FEW002 TEMPO 1312/1315 1/2SM FG BKN002 FM131800 01007KT P6SM SKC", "KONT 131126Z 1312/1418 VRB04KT 4SM BR OVC008 FM131530 VRB03KT 6SM BR BKN012 FM131800 24005KT 6SM HZ SCT015 FM132000 26011KT P6SM SCT100 FM140400 25005KT P6SM SCT150 FM140900 VRB04KT 4SM BR BKN008 FM141500 VRB03KT 6SM BR BKN012 FM141700 VRB03KT 6SM HZ SCT015", "KOPF 131120Z 1312/1412 VRB04KT P6SM SCT030 BKN090 FM131400 20008KT P6SM VCTS SCT030 BKN035CB BKN100 FM131700 21008KT P6SM VCTS BKN030CB BKN050 FM140000 VRB05KT P6SM VCSH SCT030 BKN050 BKN250 FM140300 VRB04KT P6SM SCT035 BKN060", "KORD 131120Z 1312/1418 26010G19KT P6SM SCT080 FM131800 28016G26KT P6SM VCSH BKN060 TEMPO 1319/1323 29020G34KT 6SM -SHRAGS FM140100 25007KT P6SM SCT060 FM141500 22012G20KT P6SM BKN150", "KORF 131120Z 1312/1412 15006KT P6SM VCSH BKN070 FM131300 17010KT 6SM -SHRA BR OVC070 FM131500 18012KT 6SM -SHRA BR OVC035 FM131700 17013KT 6SM -SHRA BR OVC015 FM132300 18009KT P6SM VCSH BKN035 FM140200 33011KT P6SM BKN040", "KORH 131137Z 1312/1412 17009KT P6SM VCSH SCT008 OVC012 FM131600 15012G22KT P6SM VCSH OVC008 FM132000 15011G26KT 4SM -RA BR OVC008 FM140000 15014G27KT 2SM RA BR OVC003 FM140200 15015G30KT 1SM RA BR OVC003 WS020/16045KT FM141000 20008KT 1 1/2SM RA BR OVC003 WS020/16040KT", "KOTH 131120Z 1312/1412 VRB03KT 1/2SM FG OVC002 FM131800 VRB04KT 5SM BR SKC FM132000 33011G19KT P6SM SKC FM140200 34005KT P6SM SKC FM140700 34004KT 1SM BR VCFG BKN002", "KOTM 131120Z 1312/1412 28010G19KT P6SM FEW240 FM131400 29018G29KT P6SM FEW250 FM131800 30022G36KT P6SM FEW250 FM132300 30014G22KT P6SM FEW250 FM140100 29007KT P6SM FEW250", "KOUN 131120Z 1312/1412 36005KT P6SM SKC FM131500 32010G15KT P6SM FEW100 FM132300 28007KT P6SM SKC", "KOWB 131128Z 1312/1412 28005KT P6SM FEW250 FM131400 27009KT P6SM SKC FM132300 29010KT P6SM FEW250 FM140200 29006KT P6SM FEW250 FM140400 VRB04KT P6SM SKC", "KOXR 131129Z 1312/1412 VRB03KT 5SM BR OVC011 FM131700 VRB03KT P6SM OVC015 FM132000 27010KT P6SM SKC FM140300 VRB03KT P6SM BKN009", "TAF KOZR 130000Z 1300/1406 06006KT 9999 VCSH FEW007 BKN015 BKN050 QNH3000INS BECMG 1304/1305 VRB06KT 8000 SHRA VCTS SCT004 BKN007CB OVC012 QNH2988INS BECMG 1307/1308 VRB06KT 9999 NSW BKN004 OVC007 QNH2988INS BECMG 1310/1311 16006KT 8000 SHRA VCTS BKN004 OVC012CB QNH2988INS BECMG 1312/1313 33008KT 9999 NSW BKN004 OVC007 QNH2990INS BECMG 1315/1316 33008KT 9999 FEW020 QNH2990INS BECMG 1318/1319 33007KT 9999 SKC QNH2990INS TX28/1319Z TN18/1311Z", "KPAE 131120Z 1312/1412 35006KT P6SM SKC FM131600 35006KT 6SM HZ SKC", "KPAH 131128Z 1312/1412 29005KT P6SM FEW240 FM131600 27011G19KT P6SM SKC FM140000 28006KT P6SM SKC FM140200 29006KT P6SM FEW250 FM140400 VRB04KT P6SM SKC", "TAF KPAM 130300Z 1303/1409 24009KT 9999 SCT014 BKN040 QNH2989INS TEMPO 1305/1313 27010G20KT 6000 -SHRA BKN014 OVC030 BECMG 1312/1313 35009KT 9999 SCT020 BKN050 QNH2990INS BECMG 1317/1318 30012G18KT 9999 FEW050 QNH2986INS BECMG 1402/1403 36012G18KT 9999 SKC QNH2995INS TX28/1318Z TN20/1310Z", "KPBF 131120Z 1312/1412 35004KT P6SM SKC FM131800 30011G19KT P6SM SKC FM140000 30004KT P6SM SKC", "KPBG 131130Z 1312/1412 16012G22KT P6SM SCT150 WS020/19045KT FM131500 16018G31KT P6SM SCT040 BKN070 FM131900 17019G33KT P6SM VCSH BKN040 FM132300 17011G19KT 6SM -SHRA BR SCT025 OVC035 WS020/16045KT FM140200 16006KT 3SM RA BR OVC025 FM141000 VRB03KT 6SM -SHRA BR OVC015", "KPBI 131120Z 1312/1412 VRB05KT P6SM VCSH SCT030 BKN090 FM131400 20008KT P6SM VCTS SCT030 BKN035CB BKN100 FM131700 22008KT P6SM VCTS BKN030CB BKN050 FM140000 VRB05KT P6SM VCSH SCT030 BKN050 BKN250 FM140300 VRB04KT P6SM SCT035 BKN060", "KPDK 131134Z 1312/1412 VRB03KT 5SM -SHRA BR BKN006 FM131300 27006KT P6SM BKN006 FM131500 28009KT P6SM BKN015 BKN025 FM131700 29010G20KT P6SM SCT030 FM132300 29008KT P6SM SKC FM140400 31004KT P6SM SKC", "KPDT 131121Z 1312/1412 15007KT P6SM SKC FM131800 34007KT P6SM SKC FM140600 15007KT P6SM SKC", "KPDX 131120Z 1312/1412 29004KT P6SM SKC", "KPEQ 131121Z 1312/1412 04006KT P6SM FEW250", "KPGA 131120Z 1312/1412 VRB05KT P6SM SKC", "KPGD 131123Z 1312/1412 06005KT P6SM SCT120 BKN250 FM131500 25006KT P6SM VCSH SCT040 BKN120 FM131800 25009KT P6SM VCTS BKN040CB FM140100 VRB03KT P6SM SCT040 BKN120", "KPGV 131138Z 1312/1412 19008KT P6SM SHRA SCT020 BKN040 TEMPO 1312/1316 4SM RA BR SCT008 BKN020 FM131600 18008KT P6SM SHRA SCT008 BKN015 FM131900 VRB06KT P6SM BKN035 FM140800 36008KT P6SM FEW040 AMD LTD TO CLD VIS AND WIND", "KPHF 131120Z 1312/1412 14005KT P6SM BKN080 FM131300 17008KT 6SM -SHRA BR OVC035 FM131500 17011KT 6SM -SHRA BR OVC025 FM131900 17012KT P6SM BKN025 FM132200 18009G15KT P6SM VCSH SCT020 BKN035 FM140100 33009KT P6SM SCT007 BKN050", "KPHL 131120Z 1312/1418 16007KT P6SM VCSH SCT025 BKN060 FM131600 17011G20KT 6SM BR VCSH SCT015 OVC025 FM132000 17011G20KT 5SM -SHRA BR VCTS SCT007 OVC015CB FM140200 30007KT 4SM -SHRA BR OVC010 WS020/19030KT FM140400 31007KT 6SM -SHRA BR SCT015 OVC020 FM140600 32006KT P6SM BKN035", "KPHX 131120Z 1312/1418 10004KT P6SM FEW250 FM132100 27005KT P6SM FEW120 FM140600 10005KT P6SM SKC", "KPIA 131120Z 1312/1412 27007KT P6SM SCT100 FM131400 29013G22KT P6SM SCT100 FM131700 28020G35KT P6SM FEW250 FM132200 29010G30KT P6SM FEW250 FM140100 26005KT P6SM FEW250", "KPIB 131120Z 1312/1412 34004KT P6SM BKN110 FM131800 36007KT P6SM SKC FM140000 00000KT P6SM SKC", "KPIE 131123Z 1312/1412 VRB03KT P6SM FEW100 FM131500 25006KT P6SM VCSH SCT030 SCT250 FM131900 25009KT P6SM VCTS SCT040CB BKN120 FM140100 VRB03KT P6SM SCT050 SCT120 BKN250", "KPIH 131120Z 1312/1412 VRB04KT P6SM FEW200 FM131900 31008KT P6SM SKC FM140200 19005KT P6SM SKC", "KPIR 131120Z 1312/1412 33025G41KT P6SM SKC FM131800 31030G45KT P6SM SKC FM132300 31019G30KT P6SM FEW250 FM140600 28012G19KT P6SM FEW250", "KPIT 131120Z 1312/1418 26010G20KT P6SM -RA OVC010 FM131500 26010G18KT P6SM OVC050 FM132100 VRB05KT P6SM SKC FM141500 21006KT P6SM BKN080", "KPKB 131156Z 1312/1412 22008G16KT P6SM VCSH OVC025 TEMPO 1312/1315 5SM -SHRA OVC015 FM131500 27008G17KT P6SM BKN060 FM132100 26008KT P6SM SCT230 FM140000 VRB03KT P6SM FEW200", "KPLN 131138Z 1312/1412 22004KT P6SM VCSH OVC035 FM131300 23004KT 6SM -SHRA BR OVC022 FM131800 24007KT 6SM -SHRA BR OVC035 FM141000 22004KT 6SM -SHRA BR BKN035", "KPMD 131129Z 1312/1412 20006KT P6SM SCT120 FM131900 05006KT P6SM SCT100 FM132300 23008KT P6SM SCT100 FM140600 VRB03KT P6SM SKC", "KPNA 131120Z 1312/1412 29007KT P6SM SCT250 FM131730 30014G24KT P6SM SCT250 FM140100 30009KT P6SM SCT250", "KPNC 131120Z 1312/1412 VRB04KT P6SM SCT100 FM131400 31008KT P6SM SCT100 FM131600 31014G20KT P6SM SKC FM140000 28004KT P6SM SKC", "KPNE 131120Z 1312/1412 15007KT P6SM VCSH BKN060 FM131600 17011G20KT 6SM BR VCSH SCT015 OVC025 FM132000 16011G20KT 5SM -SHRA BR SCT008 OVC015 FM140000 17008KT 4SM -SHRA BR VCTS SCT004 OVC008CB FM140200 30008KT 4SM -SHRA BR OVC010 WS020/18030KT FM140500 32007KT P6SM VCSH SCT015 OVC020", "KPNS 131139Z 1312/1412 32006KT P6SM VCSH SCT007 BKN035 TEMPO 1312/1313 VRB15G25KT 5SM SHRA BKN025 FM131300 33006KT P6SM SCT030 BKN080 FM131500 32008KT P6SM SCT250", "TAF KPOB 121700Z 1217/1323 09009KT 9999 BKN050 BKN090 QNH3006INS BECMG 1300/1301 12005KT 9999 BKN040 OVC080 QNH2993INS BECMG 1306/1307 13007KT 8000 -SHRA BKN020 OVC030 QNH2978INS TEMPO 1310/1314 17012G18KT 4800 -SHRA VCTS FEW004 BKN007CB OVC015 BECMG 1316/1317 14010KT 9999 NSW SCT020 BKN030 BKN080 QNH2968INS TX24/1220Z TN19/1310Z LAST NO AMDS AFT 1222 NEXT 1317", "TAF KPOE 122300Z 1223/1405 VRB06KT 9999 SCT050 QNH2987INS BECMG 1301/1302 18007KT 9999 BKN010 QNH2987INS BECMG 1303/1304 18007KT 5000 BR BKN007 QNH2991INS BECMG 1304/1305 VRB06KT 3200 BR BKN005 QNH2991INS TEMPO 1308/1310 0800 FG BKN005 BECMG 1311/1312 05007KT 5000 BR BKN006 QNH2996INS BECMG 1314/1315 05015G20KT 9999 SCT020 QNH3002INS BECMG 1320/1321 05012KT 9999 SKC QNH2995INS BECMG 1323/1324 VRB06KT 9999 SKC QNH2997INS TX28/1320Z TN21/1313Z LAST NO AMDS AFT 1305 NEXT 1315", "KPOU 131136Z 1312/1412 15007KT P6SM SCT010 BKN060 WS020/18030KT TEMPO 1312/1314 5SM -SHRA BR BKN010 OVC040 FM131400 16011G18KT P6SM SCT025 BKN050 FM131700 15013G24KT P6SM BKN020 OVC040 PROB30 1321/1324 3SM -SHRA BR BKN015 OVC025 FM140000 14005KT 3SM -SHRA BR BKN015 OVC040 PROB30 1400/1404 VRB15G25KT 1 1/2SM +SHRA BR BKN008 OVC012 FM140400 VRB04KT 6SM -RA BR SCT008 OVC012 PROB30 1404/1408 2SM RA BR BKN008 OVC012 FM140800 VRB03KT 1 1/2SM BR BKN003", "KPQI 131133Z 1312/1412 15008KT P6SM BKN150 FM131800 17012G22KT P6SM BKN080 FM140000 16012G22KT P6SM BKN040 WS020/17045KT FM140200 15012G22KT P6SM VCSH OVC015 WS020/17045KT FM140900 15012G22KT 3SM -RA BR OVC008 WS020/17050KT", "KPRB 131129Z 1312/1412 VRB03KT P6SM OVC003 FM131700 VRB03KT P6SM SKC FM132100 21010KT P6SM SKC FM140000 28010KT P6SM SKC FM140500 VRB03KT P6SM SKC", "KPRC 131120Z 1312/1412 20007KT P6SM SKC FM131800 05007KT P6SM SKC FM140200 20007KT P6SM SKC", "KPSC 131121Z 1312/1412 VRB06KT P6SM SKC", "KPSF 131136Z 1312/1412 14007KT P6SM SCT010 BKN050 WS020/18030KT TEMPO 1312/1314 5SM -SHRA BR BKN010 FM131600 16015G25KT P6SM BKN025 OVC040 PROB30 1321/1401 2SM SHRA BR BKN008 OVC012 FM140100 17010KT 4SM -SHRA BR SCT008 OVC012 PROB30 1401/1405 VRB15G25KT 1 1/2SM +SHRA BR BKN008 OVC012 FM140500 VRB04KT 6SM -RA BR SCT008 OVC012 PROB30 1405/1408 2SM RA BR OVC008 FM141000 29004KT 4SM BR BKN006", "KPSM 131120Z 1312/1412 10004KT P6SM BKN035 BKN180 FM132200 12010KT 5SM BR BKN015 FM140000 11011G19KT 5SM BR OVC009 FM140400 11011G19KT 3SM -RA BR OVC004 WS020/17045KT FM140700 11014G27KT 2SM RA BR OVC003 WS020/17045KT", "KPSP 131126Z 1312/1412 33006KT P6SM SKC FM131900 11010KT P6SM SCT100 FM140100 33009KT P6SM SCT150 FM140700 VRB04KT P6SM SKC", "KPTK 131120Z 1312/1412 22007KT P6SM SCT040 BKN060 FM131500 24013G20KT P6SM BKN045 OVC080 TEMPO 1320/1324 5SM SHRA OVC045 FM140100 22007KT P6SM SCT045 BKN100 OVC250", "KPUB 131120Z 1312/1412 VRB04KT P6SM SKC FM131600 04007KT P6SM SKC FM132000 11006KT P6SM SKC FM140200 VRB05KT P6SM SKC", "KPUW 131132Z 1312/1412 09007KT P6SM SKC FM132100 27006KT P6SM SKC FM140300 00000KT P6SM SKC", "KPVD 131137Z 1312/1412 17011KT P6SM VCSH OVC035 FM131500 16014G24KT P6SM VCSH OVC040 FM132000 16014G29KT 5SM -RA BR OVC025 FM132200 15015G29KT 4SM -RA BR SCT008 OVC012 FM140800 16017G34KT 2SM -RA BR OVC008", "KPVU 131137Z 1312/1412 VRB04KT P6SM SKC FM131800 29005KT P6SM SKC FM140200 VRB04KT P6SM SKC", "KPVW 131120Z 1312/1412 VRB04KT P6SM SKC FM131600 16011KT P6SM SKC", "KPWM 131120Z 1312/1412 16003KT 6SM BR FEW014 BKN070 FM131600 15008G15KT P6SM OVC050 FM132300 12009G17KT 5SM BR OVC019 TEMPO 1400/1402 4SM -RA OVC050 FM140200 13013KT 2SM BR OVC004 WS020/17045KT FM140600 13014G28KT 4SM RA BR OVC003 WS020/17045KT", "KPWT 131120Z 1312/1412 04006KT P6SM SKC", "KRAP 131120Z 1312/1412 32022G35KT P6SM SKC FM131600 32033G45KT P6SM FEW060 FM140000 32015G25KT P6SM SKC", "KRBG 131120Z 1312/1412 VRB03KT 6SM HZ SKC", "KRBL 131120Z 1312/1412 34006KT P6SM SKC", "TAF AMD KRCA 130605Z 1306/1409 32015G25KT 9999 SCT080 QNH3000INS TEMPO 1305/1308 33020G35KT BECMG 1314/1315 32020G35KT 9999 SKC 520003 QNH2998INS TEMPO 1317/1322 33025G50KT 530004 BECMG 1401/1402 32015G25KT 9999 SKC QNH2990INS TX14/1321Z TN04/1311Z LAST NO AMDS AFT 1306 NEXT 1411", "KRDD 131120Z 1312/1412 VRB05KT P6SM SKC", "KRDG 131120Z 1312/1412 16008KT 6SM BR VCSH SCT015 OVC030 FM131400 17011G22KT 4SM -SHRA BR OVC015 FM131600 16013G25KT 4SM -SHRA VCTS OVC010CB FM132100 23010G19KT 3SM -SHRA VCTS SCT008 OVC015CB FM132300 26007KT 3SM -SHRA VCTS SCT015 OVC020CB FM140200 30005KT 6SM -SHRA BR SCT025 OVC035", "KRDM 131121Z 1312/1412 17007KT P6SM SKC FM131800 34007KT P6SM SKC FM140600 17007KT P6SM SKC", "TAF KRDR 130200Z 1302/1408 32015KT 9999 BKN050 620505 510004 QNH2970INS BECMG 1314/1315 31015G25KT 9999 BKN060 620605 510004 QNH2971INS BECMG 1401/1402 31012KT 9999 SCT060 BKN070 620706 QNH2960INS TX07/1320Z TN00/1312Z", "KRDU 131124Z 1312/1412 17005KT P6SM VCSH BKN007 OVC012 TEMPO 1312/1313 3SM SHRA BR BKN005 FM131600 20007KT P6SM BKN015 BKN110 FM131700 21007KT P6SM BKN022 FM132000 22007KT P6SM VCSH SCT025 BKN035 BKN110 PROB30 1321/1402 VRB15G25KT 3SM -TSRA BR BKN025CB OVC100 FM140400 34007KT P6SM BKN070 TEMPO 1404/1407 32013G21KT BKN060", "KRFD 131120Z 1312/1412 26010G19KT P6SM SCT080 FM131700 28015G25KT P6SM VCSH BKN060 TEMPO 1318/1322 29020G34KT 6SM -SHRAGS FM140100 24005KT P6SM SCT060", "KRHI 131138Z 1312/1412 27007KT P6SM SCT008 BKN020 TEMPO 1312/1314 4SM -SHRA BKN008 FM131400 27010KT P6SM SCT012 BKN022 TEMPO 1314/1316 4SM -SHRA BKN012 FM131600 29010G17KT P6SM -SHRA OVC024 FM131900 29010G17KT P6SM -SHRA OVC040 FM132300 27006KT P6SM BKN050", "KRIC 131120Z 1312/1412 14009KT 6SM -RA BR SCT025 BKN060 FM131400 17009KT P6SM -RA SCT007 OVC025 FM131600 18009KT P6SM VCSH BKN020 OVC040 FM131800 19010KT P6SM SCT020 BKN050 FM132100 22009G15KT P6SM VCSH BKN035 FM141000 32005KT P6SM BKN060", "KRIL 131120Z 1312/1412 VRB04KT P6SM SKC FM132000 30009KT P6SM SKC FM140200 21006KT P6SM SKC FM140600 VRB03KT P6SM SKC", "TAF KRIV 130400Z 1304/1410 30006KT 9999 FEW120 BKN250 QNH3005INS BECMG 1309/1310 30004KT 0800 FG OVC002 QNH3002INS BECMG 1314/1315 30004KT 3200 BR OVC005 QNH3003INS BECMG 1315/1316 33004KT 4800 BR BKN008 QNH3004INS BECMG 1316/1317 32006KT 9999 NSW FEW010 SCT120 QNH3006INS BECMG 1319/1320 32009KT 9999 SCT120 510005 QNH2990INS TS OMTNS SE TIL 01Z TEMPO 1321/1402 32012G18KT BECMG 1402/1403 30006KT 9999 FEW120 QNH2994INS BECMG 1408/1409 VRB04KT 4800 BR OVC005 QNH2993INS TX28/1322Z TN16/1312Z", "KRIW 131120Z 1312/1412 31008KT P6SM SCT250 FM131700 05007KT P6SM SCT250 FM140300 30008KT P6SM SCT250", "KRKD 131120Z 1312/1412 20007KT P6SM BKN040 BKN060 FM132100 13010KT P6SM OVC100 FM140300 13012G22KT P6SM OVC050 FM140600 12013G23KT P6SM -RA OVC001 WS020/17045KT FM140900 14017G31KT 4SM RA BR OVC007 WS020/17045KT", "KRKS 131120Z 1312/1412 26010KT P6SM SKC FM132000 28011G18KT P6SM SKC FM140200 24008KT P6SM SKC", "KRME 131135Z 1312/1412 12011G20KT P6SM BKN050 WS020/18045KT FM131500 14016G29KT 6SM -RA OVC025 TEMPO 1319/1322 18025G40KT 1SM +SHRA OVC008 FM132200 31005KT 5SM -SHRA BR OVC015 FM140900 VRB02KT P6SM BKN035", "TAF KRND 121530Z 1216/1322 22012KT 9999 FEW035 QNH2985INS WND VRB06KT AFT 1301 BECMG 1310/1311 02012G18KT 9999 SKC QNH2984INS TX34/1220Z TN19/1311Z LAST NO AMDS AFT 1300 NEXT 1310", "KRNH 131127Z 1312/1412 28011G20KT P6SM BKN100 FM131500 30012G22KT P6SM OVC040 FM140100 29004KT P6SM OVC100 PROB30 1411/1412 4SM -SHRASN OVC040", "KRNO 131120Z 1312/1412 VRB03KT P6SM SKC FM132200 07007KT P6SM FEW100 FM140300 VRB03KT P6SM SKC", "KROA 131120Z 1312/1412 VRB04KT P6SM SCT030 BKN060 FM131500 24009KT P6SM -SHRA OVC035 FM131800 27011G17KT P6SM OVC050 FM132100 30009KT P6SM SCT150 BKN250 FM140400 29004KT P6SM FEW250", "KROC 131120Z 1312/1412 17012KT 4SM RA BR OVC035 FM131300 20008KT 4SM RA BR OVC020 FM131700 24008KT 6SM -SHRA OVC035 FM131900 21006KT P6SM VCSH BKN040 FM132300 19005KT P6SM BKN060 FM140600 19005KT P6SM SCT060", "KROG 131120Z 1312/1412 26008KT P6SM SCT250 FM131800 28018G27KT P6SM SCT250 FM140000 28006KT P6SM SCT250", "KROW 131120Z 1312/1412 03012KT P6SM FEW250 FM131900 12007KT P6SM SCT250 FM132100 16008KT P6SM SCT250 FM140300 19006KT P6SM SKC", "KRSL 131120Z 1312/1412 28013KT P6SM FEW210 FM131500 30015G25KT P6SM SKC FM140200 30012KT P6SM SKC", "KRST 131120Z 1312/1412 28010KT P6SM BKN080 FM131400 30015G25KT P6SM BKN050 FM140000 27010KT P6SM BKN070 FM140800 24008KT P6SM BKN080", "KRSW 131123Z 1312/1412 10004KT P6SM SCT120 BKN250 FM131400 26005KT P6SM VCSH SCT040 BKN120 FM131800 25007KT P6SM VCTS BKN040CB FM140100 VRB03KT P6SM SCT040 BKN120", "KRUT 131130Z 1312/1412 14012G19KT P6SM SCT050 FM131700 15016G29KT P6SM VCSH SCT025 OVC050 TEMPO 1317/1321 6SM -SHRA BR BKN025 FM140000 14011G18KT 6SM -SHRA BR OVC025 WS020/16050KT FM140300 15008G15KT 3SM RA BR OVC015 WS020/16050KT FM140500 15005KT 6SM -SHRA BR OVC008 FM141000 VRB03KT P6SM VCSH SCT008 OVC012", "KRVS 131120Z 1312/1412 31004KT P6SM SCT250 FM131800 29011G18KT P6SM SCT250 FM140000 VRB03KT P6SM SCT250", "KRWF 131127Z 1312/1412 28011KT P6SM BKN060 FM131400 30018G27KT P6SM SCT080 FM132300 29007KT P6SM BKN200", "KRWI 131124Z 1312/1412 16003KT 5SM -SHRA SCT012 BKN022 OVC090 FM131300 19005KT P6SM VCSH BKN007 OVC012 FM131600 20007KT P6SM VCSH BKN012 OVC025 FM131700 21007KT P6SM VCSH BKN025 FM132000 23005KT P6SM SCT030 BKN040 PROB30 1400/1404 5SM -SHRA BR BKN025 OVC090 FM140400 33008KT P6SM BKN070 TEMPO 1404/1407 31013G21KT BKN060", "KRWL 131129Z 1312/1412 33005KT P6SM SKC FM131900 32012G20KT P6SM SKC FM140000 26007KT P6SM SKC", "KRYY 131134Z 1312/1412 22007KT 6SM BR BKN005 FM131300 27007KT P6SM BKN010 FM131600 30010KT P6SM BKN015 BKN025 FM131700 29010G20KT P6SM SCT030 FM132200 30010KT P6SM SKC FM140300 31005KT P6SM SKC", "KSAC 131120Z 1312/1412 18006KT P6SM SKC", "KSAF 131120Z 1312/1412 36013KT P6SM SKC FM132000 26008KT P6SM SKC FM140200 12006KT P6SM SKC FM140700 01008KT P6SM SKC", "KSAN 131126Z 1312/1418 VRB04KT P6SM OVC015 FM131800 28009KT P6SM BKN022 TEMPO 1319/1323 SCT022 FM140300 VRB04KT P6SM OVC015", "KSAT 131120Z 1312/1418 32006KT P6SM SKC FM131500 03013KT P6SM SKC FM131900 05007KT P6SM FEW250", "KSAV 131120Z 1312/1412 26005KT P6SM BKN003 OVC120 TEMPO 1312/1315 VRB03KT P6SM BKN006 OVC009 FM131500 28008KT P6SM SCT015 BKN040 FM131800 28009KT P6SM SCT040 BKN110 FM140500 33004KT P6SM SCT050", "KSAW 131120Z 1312/1412 27005KT P6SM SCT050 FM131600 29007KT 6SM BR VCSH BKN026 FM132100 01006KT 4SM -SHRA BR OVC014 FM132200 35005KT 6SM -SHRA BR OVC020 FM140000 31005KT P6SM -SHRA BKN035 FM140400 29007KT P6SM VCSH BKN060", "KSBA 131129Z 1312/1412 10006KT P6SM BKN009 FM131800 15006KT P6SM SKC FM132100 23006KT P6SM SKC FM140300 VRB03KT P6SM SKC FM140800 VRB03KT P6SM OVC007", "KSBD 131126Z 1312/1412 VRB04KT 4SM BR OVC008 FM131530 VRB03KT 6SM BR BKN012 FM131700 24005KT 6SM HZ SCT015 FM132100 26010KT P6SM SCT100 FM140400 25005KT P6SM SCT150 FM141100 VRB04KT 4SM BR BKN008", "KSBM 131120Z 1312/1412 26008KT P6SM BKN060 FM131500 27013KT P6SM BKN060 FM131800 28015G23KT P6SM VCSH SCT050 FM132300 27012G20KT P6SM SCT070 FM140500 26007KT P6SM SCT100", "KSBN 131121Z 1312/1412 24010KT P6SM SCT080 FM131500 25014G25KT P6SM SCT080 FM140030 22004KT P6SM SCT200", "KSBP 131129Z 1312/1412 32008KT P6SM OVC006 FM131900 30010KT P6SM SKC FM140400 VRB03KT P6SM BKN007 FM140900 VRB03KT 5SM BR OVC004", "KSBY 131120Z 1312/1412 11005KT P6SM OVC080 FM131300 16009KT P6SM VCSH OVC050 FM131600 17010KT P6SM -SHRA SCT007 OVC025 FM132000 17013G20KT P6SM VCSH SCT007 OVC020 FM140100 32009KT 4SM -SHRA BR SCT003 OVC007 FM140700 31006KT P6SM BKN050", "KSCK 131120Z 1312/1412 30005KT P6SM SKC", "KSDF 131120Z 1312/1418 29011KT P6SM SCT050 FM131600 26016G30KT P6SM SCT200 FM140000 23004KT P6SM FEW250 FM141500 24012G23KT P6SM FEW250", "KSDL 131120Z 1312/1412 VRB03KT P6SM FEW250 FM132100 22004KT P6SM FEW120 FM140200 VRB03KT P6SM SKC", "KSDY 131138Z 1312/1412 31021G32KT P6SM SKC FM131600 31030G40KT P6SM SKC FM140200 31020G30KT P6SM FEW120 FM140500 31015G25KT P6SM SCT250", "KSEA 131120Z 1312/1418 36006KT P6SM SKC FM131700 36006KT 6SM HZ SKC FM140600 03006KT P6SM SKC", "KSEZ 131120Z 1312/1412 03014KT P6SM SKC FM131500 VRB03KT P6SM SKC FM131800 20006KT P6SM SKC FM140200 04012KT P6SM SKC", "KSFB 131120Z 1312/1412 26005KT P6SM BKN010 BKN110 FM131400 30006KT P6SM VCSH SCT030 BKN100 FM131600 29007KT P6SM VCTS SCT035CB BKN120 TEMPO 1318/1321 4SM SHRA BKN030 FM140000 31005KT P6SM SCT035 SCT080", "KSFF 131132Z 1312/1412 VRB03KT P6SM FEW250", "KSFO 131130Z 1312/1418 28008KT P6SM FEW008 BKN010 TEMPO 1313/1316 BKN008 FM131900 28012KT P6SM SKC FM132300 30018KT P6SM SKC FM140500 29008KT P6SM SCT012 FM140900 28006KT P6SM BKN010 FM141300 VRB05KT P6SM BKN008", "KSGF 131120Z 1312/1412 26006KT P6SM SKC FM131600 29015G22KT P6SM SKC FM131800 29019G29KT P6SM SKC FM140100 28010KT P6SM SKC FM140400 22006KT P6SM SKC", "KSGJ 131123Z 1312/1412 27008KT P6SM VCSH SCT025 BKN040 BKN100 TEMPO 1314/1316 4SM SHRA SCT015 BKN025 OVC040 FM132000 13008KT P6SM VCSH SCT025 BKN040 BKN100 PROB30 1321/1402 VRB15G25KT 4SM TSRA BKN025CB OVC040 FM140300 VRB04KT P6SM SCT025 SCT100 BKN250 FM140900 34004KT 6SM BR FEW005 SCT010", "KSGR 131138Z 1312/1412 VRB03KT P6SM SCT012 BKN250 FM131300 35006KT P6SM FEW012 SCT090 FM131800 02007KT P6SM SCT080 FM132200 14007KT P6SM SCT040 FM140100 VRB04KT P6SM FEW150", "KSGU 131137Z 1312/1412 VRB05KT P6SM SKC", "KSHR 131126Z 1312/1412 33008KT P6SM SCT070 WS015/29035KT FM131700 31018G28KT P6SM FEW150 FM140100 31009KT P6SM SKC", "KSHV 131121Z 1312/1412 03006KT P6SM FEW070 FM131500 03010KT P6SM SKC FM140000 VRB03KT P6SM SKC", "KSJC 131153Z 1312/1412 VRB05KT P6SM OVC010 FM131930 33007KT P6SM SKC FM140500 VRB04KT P6SM FEW015 FM140700 VRB03KT P6SM BKN014", "KSJS 131131Z 1312/1412 VRB04KT P6SM VCSH OVC020 FM131500 VRB05KT P6SM VCSH SCT035 FM131800 28007G18KT P6SM FEW250 FM132300 VRB04KT P6SM FEW250", "KSJT 131120Z 1312/1412 VRB05KT P6SM SKC FM131500 06010KT P6SM SKC FM140000 VRB05KT P6SM SKC", "TAF KSKA 130300Z 1303/1409 VRB06KT 9999 FEW220 QNH3012INS WND 04009KT AFT 1318 TX21/1321Z TN06/1314Z", "TAF KSKF 130200Z 1302/1408 VRB06KT 9999 FEW085 QNH2984INS BECMG 1305/1306 36006KT 9999 FEW060 QNH2996INS BECMG 1314/1315 03012G20KT 9999 SKC QNH2990INS BECMG 1401/1402 VRB06KT 9999 SKC QNH2999INS TX34/1322Z TN21/1313Z", "KSLC 131137Z 1312/1418 15005KT P6SM SKC FM131700 33008KT P6SM SKC FM140300 15005KT P6SM SKC", "KSLE 131120Z 1312/1412 36004KT P6SM SKC", "TAF KSLI 130500Z 1305/1411 VRB06KT 8000 BR SCT011 SCT018 QNH3004INS BECMG 1307/1308 VRB06KT 8000 BR FEW004 BKN011 BKN018 QNH3003INS BECMG 1308/1309 VRB06KT 8000 BR OVC004 QNH2999INS BECMG 1318/1319 VRB06KT 8000 BR SCT004 SCT011 QNH2986INS BECMG 1406/1407 VRB06KT 8000 BR BKN010 QNH2992INS BECMG 1407/1408 VRB06KT 8000 BR BKN003 OVC010 QNH2987INS TX24/1400Z TN17/1315Z", "KSLK 131130Z 1312/1412 18012G24KT P6SM SCT030 BKN100 WS020/20050KT FM131500 19019G34KT P6SM VCSH SCT025 OVC035 WS020/18055KT FM132100 18013G25KT 6SM -SHRA BR BKN021 OVC035 FM140000 20008KT 3SM RA BR OVC018 FM140400 22003KT 5SM -SHRA BR OVC012 FM141100 23003KT P6SM VCSH BKN025", "KSLN 131120Z 1312/1412 28011KT P6SM FEW250 FM131400 29014G25KT P6SM SKC FM140000 31013KT P6SM SKC", "KSME 131131Z 1312/1412 27008KT P6SM VCSH BKN015 FM131300 29007KT P6SM SCT025 FM131800 27011G19KT P6SM FEW250 FM132300 VRB04KT P6SM FEW250", "KSMF 131120Z 1312/1412 17007KT P6SM SKC", "KSMN 131120Z 1312/1412 00000KT P6SM SKC", "KSMO 131129Z 1312/1412 VRB03KT P6SM OVC011 FM131900 24008KT P6SM SKC FM140300 VRB03KT P6SM OVC012", "KSMX 131129Z 1312/1412 VRB03KT 5SM BR OVC003 FM131500 VRB03KT 6SM BR OVC005 FM131900 30010KT P6SM SKC FM140300 VRB03KT 5SM BR BKN007 FM140900 VRB03KT 1/4SM FG VV001", "KSNA 131126Z 1312/1412 VRB04KT P6SM OVC014 FM131700 VRB04KT P6SM BKN022 FM131900 22008KT P6SM FEW020 FM140400 VRB05KT P6SM OVC015", "KSNS 131130Z 1312/1412 VRB04KT P6SM OVC007 FM131800 29011KT P6SM SKC FM140400 31007KT P6SM BKN010 FM140700 VRB04KT P6SM OVC008", "KSNY 131129Z 1312/1412 29010KT P6SM SKC FM131500 33018G28KT P6SM SKC FM131800 33025G35KT P6SM SKC FM132300 33015G25KT P6SM SKC FM140100 32014KT P6SM SKC FM140400 29011KT P6SM SKC", "KSOA 131120Z 1312/1412 VRB04KT P6SM SKC FM131500 05009KT P6SM FEW250 FM140000 VRB04KT P6SM FEW250", "KSPI 131120Z 1312/1412 27007KT P6SM SCT100 FM131400 29013G23KT P6SM SCT100 FM131700 29021G35KT P6SM FEW250 FM132300 29011G23KT P6SM FEW250 FM140200 29007KT P6SM FEW250 FM140600 23005KT P6SM FEW250", "KSPS 131120Z 1312/1412 02011KT P6SM SKC FM140100 24005KT P6SM SKC", "KSRQ 131123Z 1312/1412 VRB03KT P6SM SCT100 BKN250 FM131500 25008KT P6SM VCTS SCT040CB SCT100 BKN250 FM132200 26008KT P6SM VCSH SCT040 BKN120 FM140100 VRB03KT P6SM SCT040 BKN120", "TAF AMD KSSC 130030Z 1300/1405 12006KT 8000 -SHRA BKN080 QNH2999INS TEMPO 1301/1305 12010G15KT 4800 -TSRA BKN010CB BECMG 1304/1305 15006KT 6000 -SHRA BKN010 BKN060 QNH2987INS BECMG 1310/1311 17004KT 8000 BR BKN015 BKN035 QNH2982INS BECMG 1314/1315 20009KT 9999 NSW SCT020 BKN040 QNH2978INS BECMG 1317/1318 24010G15KT 9999 SCT040 BKN100 QNH2972INS BECMG 1323/1324 24006KT 9999 SKC QNH2979INS TX26/1320Z TN18/1310Z", "KSSF 131120Z 1312/1412 32006KT P6SM SKC FM131500 03013KT P6SM SKC FM131900 05007KT P6SM FEW250", "KSSI 131123Z 1312/1412 26008KT P6SM VCSH SCT025 BKN040 BKN100 TEMPO 1313/1315 6SM BR SCT008 BKN015 OVC025 FM132000 18008KT P6SM SCT025 SCT100 BKN250 FM140100 VRB04KT P6SM SCT025 BKN250 FM140900 35006KT P6SM SCT250", "KSTC 131127Z 1312/1412 30011KT P6SM OVC060 FM131500 31014G24KT P6SM BKN060 FM140100 30005KT P6SM OVC100 PROB30 1408/1412 4SM -SHRASN OVC040", "KSTJ 131120Z 1312/1412 28012KT P6SM SKC FM131500 30020G30KT P6SM FEW100 SCT250 FM140000 29006KT P6SM SKC FM140300 24005KT P6SM SKC", "KSTL 131120Z 1312/1418 25009KT P6SM SKC FM131600 28016G32KT P6SM FEW250 FM140000 29007KT P6SM FEW250 FM140300 25004KT P6SM SKC FM141500 24010G20KT P6SM SKC", "KSTS 131130Z 1312/1412 00000KT 5SM BR OVC004 FM131930 18007KT P6SM SKC FM140400 15004KT P6SM SCT008 FM140700 VRB03KT P6SM OVC006", "KSUA 131120Z 1312/1412 26003KT P6SM SCT020 BKN120 FM131600 25006KT P6SM VCSH SCT030 BKN100 FM131800 27007KT P6SM VCTS SCT030CB BKN120 TEMPO 1319/1323 3SM TSRA BKN030CB FM140100 24003KT P6SM VCSH SCT035 SCT080 FM140500 VRB03KT P6SM SCT035 SCT150 AMD NOT SKED", "KSUN 131120Z 1312/1418 32010KT P6SM FEW180 FM131800 14010KT P6SM FEW180 FM140200 30005KT P6SM SKC FM140800 32010KT P6SM SKC AMD LTD TO CLD VIS AND WIND TIL 131400", "KSUS 131120Z 1312/1412 25007KT P6SM SKC FM131600 28015G30KT P6SM FEW250 FM140000 29007KT P6SM FEW250 FM140300 VRB03KT P6SM SKC", "TAF AMD KSUU 130525Z 1305/1409 23025G35KT 9999 SKC 510003 QNH2996INS BECMG 1314/1315 23015G25KT 9999 SKC QNH2998INS BECMG 1318/1319 23010G15KT 9999 SKC QNH2986INS TX28/1323Z TN10/1314Z", "KSUX 131139Z 1312/1412 30008KT P6SM BKN080 FM131400 32016G28KT P6SM SCT200 FM131800 31025G39KT P6SM SKC FM140000 29011G19KT P6SM FEW250 FM140500 28005KT P6SM FEW250", "TAF AMD KSVN 130510Z 1305/1411 VRB06KT 4800 -SHRA BKN007 BKN018 OVC026 QNH2995INS TEMPO 1305/1308 VRB20G30KT 4800 TSRA FEW011CB BKN018 OVC026 BECMG 1308/1309 VRB06KT 4800 -SHRA BR SCT003 OVC010 QNH2987INS BECMG 1312/1313 26009KT 9999 NSW FEW002 BKN015 QNH2987INS BECMG 1315/1316 25010G15KT 9999 BKN010 QNH2981INS BECMG 1318/1319 27009KT 9999 SCT025 QNH2979INS TX27/1320Z TN16/1411Z", "KSWF 131124Z 1312/1418 15013KT 5SM -SHRA BKN025 OVC040 FM131700 15012G19KT 5SM -SHRA BKN020 OVC030 TEMPO 1317/1320 BKN010 FM132000 15013G20KT 2SM SHRA VCTS BKN015CB OVC020 WS020/17045KT TEMPO 1400/1403 1SM +SHRA BR BKN008 FM140400 30008KT P6SM SCT020 BKN060 FM141400 26007KT P6SM SKC", "KSWO 131120Z 1312/1412 32007KT P6SM SCT100 FM131600 31012G20KT P6SM SCT100 FM140000 26004KT P6SM SKC", "KSYM 131131Z 1312/1412 28006KT P6SM BKN015 FM131300 29007KT P6SM SCT070 FM131800 27011G19KT P6SM FEW250 FM132300 VRB05KT P6SM FEW250 AMD NOT SKED", "KSYR 131155Z 1312/1412 15018G30KT P6SM -SHRA BKN040 OVC100 WS020/19035KT FM131400 16017G33KT P6SM -SHRA OVC025 WS020/19045KT FM131800 20013G25KT P6SM -RA OVC025 TEMPO 1318/1321 18025G40KT 1SM +SHRA BKN008 FM132100 20005KT 6SM -SHRA BR OVC025 FM140800 VRB04KT P6SM BKN050", "TAF KSZL 130300Z 1303/1409 33015G25KT 9999 FEW100 QNH2996INS BECMG 1313/1314 27015G25KT 9999 SKC QNH2993INS TEMPO 1317/1323 28025G35KT 520004 BECMG 1400/1401 30009KT 9999 SKC QNH2995INS TX18/1321Z TN06/1311Z", "TAF KTBN 122100Z 1221/1403 31012G18KT 9999 FEW030 QNH2985INS BECMG 1223/1224 VRB06KT 9999 SKC QNH2988INS BECMG 1314/1315 28010G15KT 9999 SKC QNH2997INS BECMG 1317/1318 28020G30KT 9999 SKC 510063 QNH2989INS BECMG 1323/1324 28006KT 9999 SKC QNH2992INS TX21/1222Z TN07/1311Z", "KTCC 131120Z 1312/1412 06010KT P6SM SKC FM131700 12007KT P6SM SKC FM140100 VRB06KT P6SM SKC", "KTCL 131134Z 1312/1412 VRB03KT P6SM BKN007 FM131400 33006KT P6SM SCT090 FM131500 33007KT P6SM SCT170 FM132300 31005KT P6SM SKC FM140300 00000KT P6SM SKC", "TAF KTCM 130500Z 1305/1411 VRB04KT 9999 SKC QNH3018INS BECMG 1312/1313 VRB04KT 4800 BR SKC QNH3018INS BECMG 1314/1315 VRB04KT 9999 NSW SKC QNH3018INS TX22/1323Z TN06/1313Z", "KTCS 131137Z 1312/1412 30006KT P6SM FEW250 FM131800 19006KT P6SM FEW250 FM140300 31006KT P6SM SKC", "KTEB 131124Z 1312/1418 17004KT P6SM VCSH BKN050 FM131300 16010G20KT P6SM VCSH FEW020 BKN035 OVC050 TEMPO 1316/1319 5SM -SHRA BKN025 FM131900 16013G23KT 4SM -SHRA VCTS BKN020CB OVC030 FM132300 17015G25KT 2SM SHRA VCTS BKN010CB OVC020 WS020/17050KT TEMPO 1401/1404 1SM +SHRA BR BKN009 FM140500 32008KT P6SM SCT020 BKN060 PROB30 1405/1408 4SM -SHRA BKN025 FM141400 29008KT P6SM SKC", "KTEX 131120Z 1312/1412 15006KT P6SM SKC FM131800 28009KT P6SM SKC FM140300 13007KT P6SM SKC FM140600 11004KT P6SM SKC", "TAF KTIK 130100Z 1301/1407 36009KT 9999 SKC QNH2997INS BECMG 1317/1318 32010G15KT 9999 FEW100 QNH3014INS BECMG 1400/1401 27009KT 9999 SKC QNH3002INS TX25/1321Z TN12/1313Z", "KTIX 131120Z 1312/1412 23003KT P6SM SCT030 BKN120 FM131500 28006KT P6SM VCSH SCT025 BKN120 FM131700 30007KT P6SM VCTS SCT035CB BKN120 TEMPO 1318/1321 3SM TSRA BKN030CB FM140100 33005KT P6SM SCT035 SCT080", "KTLH 131150Z 1312/1412 VRB02KT 3SM BR OVC002 TEMPO 1312/1313 1SM BR OVC001 FM131300 VRB03KT 6SM BR VCTS BKN030CB FM131600 30005KT P6SM BKN040 FM140500 34005KT P6SM SKC", "KTMB 131120Z 1312/1412 VRB04KT P6SM SCT030 BKN090 FM131400 20008KT P6SM VCTS SCT030 BKN035CB BKN100 FM131700 23008KT P6SM VCTS BKN030CB BKN050 FM140000 VRB05KT P6SM VCSH SCT030 BKN050 BKN250 FM140300 VRB04KT P6SM SCT035 BKN060", "KTOI 131134Z 1312/1412 VRB04KT 6SM RA BR SCT018 BKN090 FM131300 VRB04KT P6SM BKN015 FM131700 32007KT P6SM BKN090 FM132300 31005KT P6SM FEW250 FM140800 00000KT P6SM FEW250", "KTOL 131131Z 1312/1412 25009KT P6SM VCSH SCT040 BKN080 FM131400 25013G24KT P6SM SCT080 FM132100 24012KT P6SM BKN120 FM140300 24006KT P6SM SCT150", "KTOP 131120Z 1312/1412 28009KT P6SM SKC FM131500 28014G27KT P6SM SKC FM131800 30022G30KT P6SM SKC FM140000 29007KT P6SM SKC", "KTPA 131123Z 1312/1418 VRB03KT P6SM FEW120 FM131500 25006KT P6SM VCSH SCT030 SCT250 FM131900 25007KT P6SM VCTS BKN040CB FM140100 VRB03KT P6SM SCT050 SCT120 BKN250", "KTPH 131120Z 1312/1412 36009KT P6SM SKC FM131600 VRB06KT P6SM SKC FM140400 36009KT P6SM SKC", "KTRI 131120Z 1312/1412 23003KT P6SM SCT025 OVC100 FM131300 25006KT P6SM VCSH OVC025 FM131800 26010G20KT P6SM SCT035 FM132300 26007KT P6SM SKC FM140300 00000KT P6SM SKC", "KTRK 131120Z 1312/1412 VRB03KT P6SM SKC FM132200 08008G15KT P6SM SKC FM140200 VRB03KT P6SM SKC", "KTRM 131126Z 1312/1412 VRB04KT P6SM SKC FM131900 15009KT P6SM SCT100 FM140200 33006KT P6SM SCT150", "KTTD 131120Z 1312/1412 08010KT P6SM SKC", "KTTN 131120Z 1312/1412 16006KT P6SM VCSH BKN060 FM131600 17010G19KT 6SM BR VCSH SCT015 OVC020 FM132100 16010G18KT 5SM -SHRA BR VCTS SCT008 OVC015CB FM140000 17007KT 4SM -SHRA BR VCTS SCT004 OVC008CB FM140300 29006KT 4SM -SHRA BR SCT008 OVC010 FM140700 31005KT P6SM BKN045", "KTUL 131120Z 1312/1412 31005KT P6SM SCT120 FM131800 29014G24KT P6SM SCT250 FM140000 VRB03KT P6SM SCT250", "KTUP 131139Z 1312/1412 30004KT P6SM FEW200 TEMPO 1312/1313 2SM BR SCT002 FM131300 35009KT P6SM SKC FM131700 33010G16KT P6SM SKC FM132300 33006KT P6SM SKC FM140100 00000KT P6SM SKC", "KTUS 131128Z 1312/1412 15008KT P6SM BKN250 FM132000 33007KT P6SM FEW120 BKN250 FM140300 24005KT P6SM BKN250 FM140600 15007KT P6SM BKN250", "KTVC 131138Z 1312/1412 23006KT 6SM -SHRA BR OVC035 FM131300 24006KT 6SM -SHRA BR BKN035 FM132000 24009G20KT 6SM -SHRA BR OVC045 FM140000 23004KT 6SM -SHRA BR BKN045 FM140500 22005KT 6SM -SHRA BR OVC035 FM140800 23004KT 6SM SHRA BR OVC060", "KTVF 131120Z 1312/1412 30014KT P6SM VCSH BKN018 FM131400 31015G24KT P6SM VCSH BKN025 FM131800 31019G28KT P6SM -SHRASN BKN035", "KTVL 131120Z 1312/1412 19004KT P6SM SKC FM131900 03006KT P6SM FEW090 FM140200 00000KT P6SM SKC", "KTWF 131140Z 1312/1412 20010KT P6SM SKC FM131700 32008KT P6SM SKC FM140300 21007KT P6SM SKC", "KTXK 131121Z 1312/1412 03003KT P6SM SKC FM131500 36010KT P6SM SKC FM140000 VRB03KT P6SM SKC", "KTYR 131121Z 1312/1412 04005KT P6SM SKC FM131500 03012KT P6SM SKC FM140000 VRB03KT P6SM SKC", "KTYS 131120Z 1312/1412 24007KT P6SM OVC025 TEMPO 1312/1314 BKN015 FM131500 25007KT P6SM BKN035 FM131700 26012KT P6SM SKC FM140000 24003KT P6SM SKC", "KUAO 131120Z 1312/1412 01004KT P6SM SKC", "KUES 131120Z 1312/1412 25008KT P6SM SCT230 FM131400 27012KT P6SM SCT110 FM131800 28014G28KT P6SM VCSH BKN050 FM140000 28009KT P6SM SCT130", "KUIN 131120Z 1312/1412 26009KT P6SM FEW100 FM131500 29018G32KT P6SM FEW250 FM140000 28008KT P6SM SKC FM140500 23005KT P6SM SKC", "KUKI 131126Z 1312/1412 00000KT P6SM SKC", "KUNV 131120Z 1312/1412 21010KT 6SM -RA BR OVC015 WS020/19035KT FM131900 25007KT P6SM SCT025 BKN040 FM140300 28003KT P6SM SCT250", "KUTS 131138Z 1312/1412 04007KT P6SM FEW250", "TAF KVAD 130000Z 1300/1406 13006KT 9999 SCT020 QNH2993INS TEMPO 1300/1304 13010G20KT 4800 -TSRA BKN020CB BECMG 1309/1310 20003KT 0800 FG OVC005 QNH2988INS BECMG 1313/1314 25006KT 4800 BR BKN008 QNH2987INS BECMG 1315/1316 28006KT 9999 NSW SCT015 QNH2986INS BECMG 1317/1318 29006KT 9999 SCT030 QNH2983INS TX27/1318Z TN21/1306Z", "TAF KVBG 130615Z 1306/1412 34008KT 9999 OVC006 QNH3010INS BECMG 1308/1309 34008KT 9999 VCSH BKN008 OVC100 QNH3011INS TEMPO 1310/1315 9000 -SHRA SCT008 BKN100 BECMG 1319/1320 31009KT 9999 NSW SCT006 SCT100 QNH3007INS BECMG 1323/1324 31009KT 6000 BR BKN006 QNH3006INS BECMG 1401/1402 33007KT 4800 BR OVC005 QNH3007INS BECMG 1405/1406 VRB06KT 0800 FG VV001 QNH3007INS BECMG 1408/1409 VRB06KT 0400 FG VV001 QNH3009INS TX16/1316Z TN13/1312Z LAST NO AMDS AFT 1306 NEXT 1313", "KVCT 131120Z 1312/1412 VRB05KT P6SM SCT020 TEMPO 1312/1313 3SM BR BKN010 FM131800 04007KT P6SM FEW060 FM140800 04004KT 4SM BR FEW250", "KVEL 131120Z 1312/1412 30003KT P6SM SKC FM140300 31007KT P6SM SKC", "KVGT 131121Z 1312/1412 32007KT P6SM SKC FM131800 08007KT P6SM SKC FM140400 32007KT P6SM SKC", "KVIS 131120Z 1312/1412 29002KT P6SM FEW250", "KVLD 131153Z 1312/1412 VRB03KT 4SM -RA BR SCT004 BKN025 TEMPO 1312/1314 1/4SM FG BKN001 FM131400 27006KT P6SM BKN040 FM140500 32005KT P6SM SKC", "KVNY 131129Z 1312/1412 VRB03KT 6SM BR OVC008 FM131600 VRB03KT P6SM OVC012 FM131800 VRB03KT P6SM SKC FM132000 15008KT P6SM SKC FM140300 VRB03KT P6SM SKC FM140800 VRB03KT P6SM OVC009", "TAF KVOK 121700Z 1217/1323 28012KT 9999 FEW005 BKN050 BKN070 QNH2963INS TEMPO 1217/1220 29012G18KT BKN010 BECMG 1220/1221 27009KT 9000 -SHRA SCT020 SCT050 BKN120 QNH2957INS BECMG 1222/1223 27009KT 9000 -SHRA BKN025 OVC050 QNH2957INS TEMPO 1301/1304 8000 BR OVC010 BECMG 1307/1308 27009KT 9000 -SHRA BKN012 OVC030 QNH2957INS BECMG 1313/1314 30012G18KT 9000 -SHRA BKN020 OVC035 QNH2964INS TX16/1220Z TN04/1314Z LAST NO AMDS AFT 1302 NEXT 1309", "TAF AMD KVPS 130350Z 1303/1407 20006KT VCTS 9999 SCT015 SCT025CB QNH2992INS TEMPO 1303/1309 8000 -TSRA BKN015 BKN025CB BKN150 BECMG 1308/1309 29008KT 8000 BR SCT015 QNH2990INS BECMG 1312/1313 32009KT 9999 SCT015 BKN030 QNH2989INS BECMG 1317/1318 35010G15KT 9999 SCT025 QNH2986INS BECMG 1321/1322 35009KT 9999 SKC QNH2985INS TX27/1319Z TN21/1309Z", "KVQQ 131123Z 1312/1412 26008KT P6SM VCSH SCT025 BKN040 BKN100 TEMPO 1312/1315 4SM SHRA SCT015 BKN025 OVC040 FM132200 VRB04KT P6SM SCT025 SCT100 BKN250 FM140800 34002KT 3SM BR SCT003 SCT006", "KVRB 131120Z 1312/1412 23003KT P6SM SCT020 BKN120 FM131600 29007KT P6SM VCSH SCT030 BKN120 FM131900 34007KT P6SM VCTS SCT030CB BKN100 TEMPO 1319/1323 3SM TSRA BKN030CB FM140100 24003KT P6SM VCSH SCT035 SCT080 FM140500 VRB03KT P6SM SCT035 SCT150", "KVTN 131126Z 1312/1412 30015G25KT P6SM SKC FM131900 31025G43KT P6SM SKC FM132300 31018G32KT P6SM SKC FM140500 29009KT P6SM FEW250 WS020/33040KT", "KWJF 131129Z 1312/1412 VRB05KT P6SM SCT120 FM131900 05006KT P6SM SCT100 FM132300 23008KT P6SM SCT100 FM140600 VRB03KT P6SM SKC", "KWMC 131120Z 1312/1412 VRB06KT P6SM SKC", "TAF AMD KWRB 130511Z 1305/1406 VRB06KT 9999 BKN006 OVC080 QNH2993INS BECMG 1310/1311 VRB06KT 4800 BR OVC002 QNH2982INS BECMG 1313/1314 VRB06KT 9999 NSW BKN010 OVC025 QNH2991INS BECMG 1316/1317 27012G20KT 9999 SCT025 SCT100 QNH2982INS BECMG 1321/1322 VRB06KT 9999 SCT035 SCT150 QNH2984INS TX26/1320Z TN17/1311Z", "TAF KWRI 130200Z 1302/1408 19008KT 9999 FEW030 BKN170 QNH2989INS TEMPO 1310/1314 18010KT 9000 -SHRA SCT030 BKN100 BECMG 1314/1315 18015G25KT 9000 -SHRA SCT030 BKN050 510203 QNH2974INS BECMG 1317/1318 15015G25KT 3200 RA VCTS OVC020CB 510203 QNH2961INS BECMG 1402/1403 18010KT 8000 -RA OVC005 QNH2965INS BECMG 1407/1408 29005KT 9999 NSW OVC025 QNH2973INS TX24/1318Z TN13/1310Z", "KWRL 131120Z 1312/1412 VRB06KT P6SM FEW100 FM131700 33007KT P6SM SCT250 FM140300 16005KT P6SM SCT250", "KWWR 131120Z 1312/1412 29005KT P6SM SKC FM131400 33012G18KT P6SM SKC FM140000 25007KT P6SM SKC", "KWYS 131120Z 1312/1412 VRB04KT P6SM SCT150", "KXNA 131120Z 1312/1412 27008KT P6SM SCT250 FM131800 29015G24KT P6SM SCT250 FM140000 30007KT P6SM SCT250 FM140300 VRB03KT P6SM SCT250", "KXWA 131129Z 1312/1412 30017G29KT P6SM SKC FM131400 31024G39KT P6SM SCT300 FM131800 31030G40KT P6SM FEW300 FM140000 32023G32KT P6SM SKC FM140200 31017G25KT P6SM FEW250 WS015/33040KT FM140600 30010KT P6SM SCT200 WS015/33040KT", "KYIP 131120Z 1312/1412 24007KT P6SM SCT050 BKN070 FM131500 24013G20KT P6SM BKN045 OVC080 TEMPO 1320/1324 5SM SHRA OVC045 FM140100 22007KT P6SM SCT045 BKN100 OVC250", "KYKM 131121Z 1312/1412 28007KT P6SM SKC FM131800 VRB06KT P6SM SKC", "KYNG 131131Z 1312/1412 28008KT P6SM VCSH SCT015 OVC035 TEMPO 1312/1315 5SM -SHRA SCT015 BKN025 FM131500 26010KT P6SM BKN080 FM140000 20005KT P6SM BKN120", "KZZV 131120Z 1312/1412 26010G20KT P6SM SCT018 BKN050 FM132000 24010KT P6SM SKC FM140200 20006KT P6SM OVC070 FM140600 VRB05KT P6SM SKC", "TAF LATI 131100Z 1312/1412 12007KT 4000 RA BR SCT020 OVC040 TX19/1312Z TN15/1404Z TEMPO 1313/1319 2000 +RA SCT020CB OVC040 BECMG 1407/1409 9999 -RA OVC070", "TAF LBBG 131100Z 1312/1412 08010KT 9999 SCT050 BECMG 1317/1319 02008KT BECMG 1322/1324 SCT015 BKN030 BECMG 1407/1409 08012KT SCT030", "TAF LBGO 131100Z 1312/1412 VRB04KT CAVOK TEMPO 1400/1405 3000 BR SCT010 BECMG 1406/1408 09010KT SCT040", "TAF LBPD 131100Z 1312/1412 09010KT CAVOK BECMG 1320/1322 VRB04KT BECMG 1407/1409 08010KT SCT060", "TAF LBSF 131100Z 1312/1412 10008KT CAVOK BECMG 1400/1402 SCT030 BKN050 PROB40 TEMPO 1402/1406 5000 RA BKN020 OVC040", "TAF LBWN 131100Z 1312/1412 11010KT 9999 SCT050 BECMG 1317/1319 04008KT PROB30 TEMPO 1403/1406 5000 DZ SCT010 BKN015 BECMG 1408/1410 11010KT", "TAF LCEN 131040Z 1312/1412 35015KT 9999 BKN025 BECMG 1318/1321 22015KT FEW025", "TAF LCLK 131130Z 1312/1412 19013KT 9999 FEW025 PROB30 TEMPO 1312/1315 FEW030TCU BECMG 1317/1320 30006KT BECMG 1408/1411 18012KT", "TAF LCPH 131130Z 1312/1412 30013KT 9999 FEW025 PROB30 TEMPO 1312/1315 FEW030TCU BECMG 1317/1320 01006KT PROB30 TEMPO 1322/1405 BKN015 BECMG 1407/1410 27012KT", "TAF LCRA 131023Z 1312/1406 26010KT 9999 FEW030", "TAF LDDU 131125Z 1312/1412 16005KT 9999 FEW020 TX21/1411Z TN16/1404Z PROB40 TEMPO 1312/1321 SHRA FEW025TCU SCT030 BECMG 1400/1402 02012KT BECMG 1408/1410 20008KT", "TAF LDOS 131125Z 1312/1412 03004KT CAVOK TX20/1313Z TN11/1404Z PROB30 1403/1408 2000 BR", "TAF LDPL 131125Z 1312/1412 06010KT CAVOK TX22/1312Z TN12/1404Z", "TAF LDRI 131125Z 1312/1412 27004KT CAVOK TX22/1312Z TN16/1404Z BECMG 1316/1318 05006KT BECMG 1409/1411 26005KT", "TAF LDSP 131125Z 1312/1412 10005KT CAVOK TX23/1411Z TN15/1404Z PROB30 TEMPO 1312/1316 23008KT FEW030TCU SCT035 BECMG 1315/1317 31005KT", "TAF LDZA 131125Z 1312/1412 VRB02KT 9999 SCT033 TX18/1313Z TN09/1405Z BECMG 1320/1322 2000 BR BECMG 1402/1404 0200 FG VV002 BECMG 1407/1409 3000 BR BKN005 BECMG 1409/1411 9999 NSW FEW010 SCT030", "TAF LDZD 131125Z 1312/1412 VRB02KT CAVOK TX23/1312Z TN10/1404Z TEMPO 1323/1408 06008KT BECMG 1409/1411 31010KT", "TAF LEAB 131100Z 1312/1412 VRB05KT CAVOK TX25/1412Z TN08/1406Z", "TAF LEAG 130800Z 1309/1409 07009KT 9999 SCT020 TX24/1315Z TN18/1406Z PROB30 TEMPO 1403/1409 4000 BR BKN014", "TAF LEAL 131100Z 1312/1412 09009KT CAVOK TX26/1312Z TN17/1404Z BECMG 1317/1319 32005KT PROB40 TEMPO 1322/1405 32006KT", "TAF LEAM 131100Z 1312/1412 08014KT CAVOK TX29/1314Z TN17/1406Z BECMG 1318/1320 VRB02KT BECMG 1410/1412 19010KT", "TAF LEAO 130800Z 1309/1409 06005KT CAVOK TX26/1315Z TN07/1406Z", "TAF LEAS 130800Z 1309/1409 23006KT 9999 FEW030 TX21/1314Z TN15/1407Z TEMPO 1311/1318 30010KT", "TAF LEBA 130800Z 1309/1409 08005KT CAVOK TX31/1315Z TN12/1406Z", "TAF LEBB 131100Z 1312/1412 32008KT 9999 FEW020 TX23/1314Z TN14/1406Z PROB30 TEMPO 1312/1314 12004KT BECMG 1318/1321 VRB03KT PROB30 TEMPO 1322/1406 BKN010", "TAF LEBG 130800Z 1309/1409 22007KT CAVOK TX23/1315Z TN04/1406Z TEMPO 1319/1403 VRB04KT PROB30 TEMPO 1323/1408 2000 BR BCFG BKN005", "TAF LEBL 131100Z 1312/1412 22010KT 9999 FEW040 TX24/1314Z TN18/1406Z BECMG 1321/1323 34007KT PROB40 TEMPO 1406/1412 BKN010 BECMG 1409/1411 06009KT", "TAF LEBR 130800Z 1309/1409 30006KT CAVOK TX25/1315Z TN11/1406Z PROB40 TEMPO 1317/1321 01011KT", "TAF LEBZ 130800Z 1309/1409 VRB02KT CAVOK TX31/1315Z TN13/1406Z", "TAF LECO 130800Z 1309/1409 22005KT 9999 BKN020 TX22/1313Z TN17/1407Z PROB30 TEMPO 1312/1318 DZ PROB40 TEMPO 1318/1409 3000 DZ BR BKN010 PROB30 TEMPO 1320/1408 0800 BCFG VV002", "TAF LECV 131100Z 1312/1412 VRB05KT CAVOK TX23/1315Z TN12/1406Z", "TAF LEEC 130800Z 1309/1409 03005KT CAVOK TX31/1315Z TN15/1406Z BECMG 1318/1320 27010KT BECMG 1323/1401 VRB02KT", "TAF LEGA 131100Z 1312/1412 VRB02KT CAVOK TX26/1315Z TN10/1406Z BECMG 1314/1316 18010KT BECMG 1322/1324 VRB02KT", "TAF LEGE 131100Z 1312/1412 17010KT CAVOK TX24/1313Z TN13/1405Z BECMG 1317/1319 VRB03KT PROB30 TEMPO 1400/1407 4000 BR", "TAF LEGR 131100Z 1312/1412 VRB02KT CAVOK TX26/1315Z TN09/1406Z PROB30 TEMPO 1317/1321 18010KT", "TAF LEGT 131100Z 1312/1412 VRB05KT CAVOK TX25/1315Z TN11/1406Z", "TAF LEHC 130800Z 1309/1409 28009KT CAVOK TX24/1313Z TN13/1405Z TEMPO 1309/1312 VRB03KT", "TAF LEIB 130800Z 1309/1409 VRB04KT 9999 SCT030 TX25/1312Z TN17/1404Z BECMG 1319/1321 23009KT", "TAF LEJR 130800Z 1309/1409 03005KT CAVOK TX31/1314Z TN14/1406Z BECMG 1312/1314 15010KT BECMG 1321/1323 03004KT", "TAF LELC 131100Z 1312/1412 09010KT CAVOK TX26/1313Z TN17/1406Z BECMG 1319/1321 33004KT", "TAF LELL 130800Z 1309/1409 27006KT 9999 FEW030 TX24/1312Z TN15/1405Z TEMPO 1313/1318 22008KT BECMG 1318/1320 VRB03KT", "TAF LELN 130800Z 1309/1409 02006KT CAVOK TX23/1315Z TN04/1406Z BECMG 1310/1311 25008KT BECMG 1318/1319 34005KT PROB30 TEMPO 1403/1407 3000 BR BKN006", "TAF LELO 130800Z 1309/1409 VRB05KT CAVOK TX27/1315Z TN09/1406Z PROB30 TEMPO 1404/1407 1500 BR BCFG BKN005", "TAF LEMD 131100Z 1312/1418 VRB05KT CAVOK TX28/1315Z TN11/1406Z PROB30 TEMPO 1312/1318 23006G16KT PROB40 TEMPO 1411/1418 22008G18KT", "TAF LEMG 131100Z 1312/1412 14008KT CAVOK TX28/1313Z TN17/1406Z BECMG 1319/1321 VRB02KT BECMG 1322/1324 29006KT BECMG 1408/1410 13006KT", "TAF LEMH 130800Z 1309/1409 36006KT 9999 SCT035 TX23/1312Z TN17/1404Z BECMG 1315/1317 VRB03KT BECMG 1322/1324 27008KT", "TAF LEMO 130800Z 1309/1409 03005KT CAVOK TX30/1315Z TN15/1406Z PROB30 TEMPO 1318/1322 22010KT", "TAF LEPA 131100Z 1312/1412 20008KT 9999 FEW025 TX26/1412Z TN18/1406Z BECMG 1318/1320 VRB03KT BECMG 1408/1410 22008KT", "TAF AMD LEPP 131033Z 1310/1409 VRB02KT 9999 FEW020 TX24/1315Z TN12/1406Z PROB40 TEMPO 1310/1312 BKN010 TEMPO 1314/1321 33010KT PROB40 TEMPO 1400/1409 3000 BCFG BKN005 PROB30 TEMPO 1403/1409 0350 FG VV002", "TAF LERI 131100Z 1312/1412 08005KT CAVOK TX28/1314Z TN14/1406Z", "TAF LERL 130800Z 1309/1409 06005KT CAVOK TX26/1315Z TN06/1406Z", "TAF LERS 130800Z 1309/1409 27006KT CAVOK TX26/1312Z TN15/1404Z BECMG 1312/1314 22010KT BECMG 1318/1320 VRB03KT", "TAF LERT 130800Z 1309/1409 05010KT CAVOK TX27/1313Z TN16/1406Z BECMG 1312/1314 22008KT BECMG 1318/1320 13010KT BECMG 1400/1402 05006KT", "TAF LESA 130800Z 1309/1409 VRB04KT 9999 FEW030 TX26/1315Z TN06/1406Z", "TAF LESO 131100Z 1312/1412 26004KT 9999 FEW020 TX23/1313Z TN16/1406Z PROB40 TEMPO 1322/1409 DZ BKN010", "TAF LEST 131100Z 1312/1412 26005KT 9999 BKN016 TX21/1315Z TN15/1408Z PROB30 TEMPO 1312/1317 3000 DZ BKN010 TEMPO 1317/1412 3000 DZ BR BKN010 TEMPO 1320/1409 0350 FG VV002", "TAF LESU 130800Z 1309/1409 VRB02KT 9999 SCT045 TX23/1313Z TN10/1405Z TEMPO 1312/1317 20008KT", "TAF LETO 131100Z 1312/1412 VRB05KT CAVOK TX26/1315Z TN10/1406Z", "TAF LEVC 131100Z 1312/1412 13009KT CAVOK TX25/1312Z TN15/1404Z TEMPO 1312/1314 VRB04KT BECMG 1317/1319 VRB04KT TEMPO 1321/1403 31007KT", "TAF LEVD 130800Z 1309/1409 VRB04KT CAVOK TX23/1315Z TN06/1406Z TEMPO 1311/1317 26008KT PROB30 TEMPO 1403/1408 3000 BR BKN006", "TAF LEVS 131100Z 1312/1412 VRB05KT CAVOK TX24/1315Z TN11/1406Z", "TAF LEVT 131100Z 1312/1412 VRB02KT 9999 FEW030 TX24/1315Z TN06/1406Z TEMPO 1313/1320 02011KT PROB40 TEMPO 1400/1409 3000 BR BKN005 PROB40 TEMPO 1402/1409 0350 FG VV001", "TAF LEVX 131100Z 1312/1412 VRB03KT 9999 FEW020 TX22/1313Z TN15/1407Z TEMPO 1312/1318 29010KT PROB40 TEMPO 1320/1410 3000 BR BKN010 PROB40 TEMPO 1323/1409 0350 DZ FG VV002", "TAF LEXJ 130800Z 1309/1409 25007KT 9999 FEW015 TX22/1314Z TN15/1406Z PROB30 TEMPO 1323/1406 BKN010", "TAF LEZG 131100Z 1312/1412 30008KT CAVOK TX23/1313Z TN14/1405Z", "TAF LEZL 130800Z 1309/1409 06006KT CAVOK TX30/1315Z TN14/1406Z BECMG 1318/1320 23010KT BECMG 1322/1324 VRB02KT", "TAF LFAQ 131100Z 1312/1321 19007KT 9999 OVC012 TEMPO 1313/1321 2000 DZRA OVC005", "TAF LFAT 131100Z 1312/1321 22007KT 9999 OVC012 TEMPO 1312/1321 1500 DZRA OVC003", "TAF LFBA 131100Z 1312/1321 VRB03KT 9999 SCT030 BKN040 BECMG 1313/1315 27007KT TEMPO 1315/1321 -RA BKN023", "TAF LFBC 130800Z 1309/1409 22005KT 8000 FEW003 BKN140 TEMPO 1310/1317 BKN008 BECMG 1317/1319 BKN012 OVC020 TEMPO 1317/1409 3000 -RADZ BKN007 BECMG 1402/1404 BKN020", "TAF LFBD 131100Z 1312/1418 21010KT 9999 BKN013 TX19/1312Z TN13/1406Z TEMPO 1313/1412 4000 -RA BKN010 PROB40 TEMPO 1317/1321 BKN005 PROB40 TEMPO 1321/1408 27010KT 2000 DZ OVC003", "TAF LFBE 131100Z 1312/1412 VRB03KT 9999 BKN020 PROB40 TEMPO 1316/1321 -RA BECMG 1319/1321 BKN010 TEMPO 1321/1410 2000 DZ OVC003", "TAF AMD LFBG 131126Z 1311/1409 16005KT 9999 BKN013 BKN040 TEMPO 1311/1319 -RA BKN008 BKN015TCU BKN040 TEMPO 1319/1322 3000 -DZ OVC003 ", "TAF LFBH 131100Z 1312/1412 21010KT 9999 BKN030 TEMPO 1312/1314 6000 -RA BKN005 TEMPO 1312/1412 4000 -RA BKN012 PROB40 TEMPO 1316/1322 2000 DZRA OVC005 BECMG 1319/1321 27010KT", "TAF LFBI 131100Z 1312/1412 21010KT 9999 BKN020 TEMPO 1312/1406 4000 -RA BKN012 PROB40 TEMPO 1321/1405 2000 BR OVC003 BECMG 1400/1402 26010KT TEMPO 1407/1412 3000 BR BKN003", "TAF LFBL 131100Z 1312/1412 18007KT 8000 BKN020 TEMPO 1312/1320 22010KT -RA BKN013 TEMPO 1320/1406 2000 -RADZ OVC003 PROB30 TEMPO 1400/1406 0400 FG VV///", "TAF LFBM 130800Z 1309/1409 VRB02KT 1500 BR OVC002 BECMG 1309/1310 9999 NSW BKN006 BECMG 1310/1312 NSC BECMG 1320/1322 SCT003 OVC008 TEMPO 1322/1409 4000 -RADZ OVC004", "TAF LFBO 131100Z 1312/1418 VRB03KT CAVOK BECMG 1313/1315 27008KT BECMG 1320/1322 BKN020 PROB40 TEMPO 1400/1411 -RA BKN012 BECMG 1414/1416 CAVOK", "TAF LFBP 131100Z 1312/1412 27008KT 9999 BKN080 BECMG 1318/1320 BKN023 PROB40 TEMPO 1320/1411 -RA BKN013", "TAF LFBT 131100Z 1312/1412 27008KT 9999 BKN080 BECMG 1319/1321 BKN023 PROB40 TEMPO 1323/1412 -RA BKN013 PROB30 TEMPO 1404/1411 BKN009", "TAF LFBU 131100Z 1312/1412 17006KT 9999 BKN010 TEMPO 1312/1316 23010KT 4000 RA BKN008 TEMPO 1316/1406 RA BKN008 PROB40 1321/1408 2000 DZ OVC003", "TAF LFBZ 131100Z 1312/1412 26007KT CAVOK TEMPO 1318/1406 4000 -RA BKN013 PROB40 TEMPO 1403/1412 2000 DZ BKN005", "TAF LFCK 131100Z 1312/1321 30008KT CAVOK", "TAF LFCR 131100Z 1312/1412 27007KT 9999 SCT030 BKN060 TEMPO 1313/1318 -RA BKN025 BECMG 1319/1321 BKN018 BECMG 1321/1323 BKN013 BECMG 1323/1401 BKN008 TEMPO 1401/1412 4000 -RA OVC003 PROB40 TEMPO 1403/1410 0500 FG VV///", "TAF LFGJ 131100Z 1312/1321 18005KT 9999 FEW008 BKN050 TEMPO 1312/1321 -RA BKN008 FEW030TCU", "TAF LFJL 131100Z 1312/1412 20008KT 9999 FEW010 BKN030 TEMPO 1312/1412 -RA BKN010 FEW030TCU", "TAF LFKB 130800Z 1309/1409 30005KT 9999 FEW020 TX24/1312Z TN13/1405Z BECMG 1309/1311 36010KT BECMG 1317/1319 25004KT", "TAF LFKC 130800Z 1309/1409 36010KT CAVOK TX23/1312Z TN15/1405Z BECMG 1317/1319 20006KT", "TAF LFKF 130800Z 1309/1409 06004KT 9999 SCT025 BECMG 1309/1311 25010KT TEMPO 1323/1401 RA FEW040TCU", "TAF LFKJ 130800Z 1309/1409 VRB03KT 9999 BKN025 BKN035 BECMG 1309/1311 22010KT BECMG 1317/1319 05005KT TEMPO 1322/1401 RA FEW040TCU", "TAF LFKS 130800Z 1309/1409 03010KT CAVOK BECMG 1318/1320 27005KT BECMG 1407/1409 13010KT", "TAF LFLB 130800Z 1309/1409 VRB03KT CAVOK TEMPO 1311/1317 -SHRA SCT040TCU PROB30 TEMPO 1402/1407 3000 BR", "TAF LFLC 131100Z 1312/1412 20007KT 9999 SCT045 BECMG 1323/1401 OVC030 TEMPO 1400/1402 RA", "TAF LFLL 131100Z 1312/1418 15005KT CAVOK PROB40 TEMPO 1312/1317 4000 -RA BR FEW007 SCT010 BKN060 TEMPO 1321/1406 2000 BR BKN002 PROB30 TEMPO 1322/1404 0500 FG VV/// BECMG 1405/1407 BKN050 TEMPO 1414/1418 -RA BKN040", "TAF LFLN 131100Z 1312/1321 19004KT 9999 BKN020", "TAF LFLP 130800Z 1309/1409 VRB03KT 9999 SCT080 PROB40 TEMPO 1311/1319 4000 SHRA FEW035CB SCT040TCU TEMPO 1323/1405 BKN030", "TAF LFLS 130800Z 1309/1409 09007KT CAVOK PROB40 TEMPO 1312/1319 -SHRA BKN050 PROB40 TEMPO 1401/1407 3000 BR", "TAF LFLW 130500Z 1306/1315 VRB03KT CAVOK PROB30 TEMPO 1306/1310 3000 BR OVC004 BECMG 1310/1312 27010KT", "TAF AMD LFLX 131153Z 1312/1418 22009KT 9999 FEW015 BKN060 PROB40 TEMPO 1315/1320 5000 -RA BKN013 BECMG 1320/1323 OVC008 PROB40 TEMPO 1322/1406 2500 -DZRA OVC003 BECMG 1413/1416 23015G25KT BKN015", "TAF LFLY 131100Z 1312/1412 15005KT CAVOK PROB40 TEMPO 1312/1317 4000 -RA BR FEW008 SCT010 BKN060 TEMPO 1321/1406 2000 BR BKN002 PROB30 TEMPO 1322/1404 0500 FG VV/// BECMG 1405/1407 BKN050", "TAF LFMD 130800Z 1309/1409 VRB03KT CAVOK BECMG 1310/1312 18010KT BECMG 1317/1319 VRB03KT", "TAF LFMI 130800Z 1309/1409 VRB03KT CAVOK TX24/1313Z TN15/1406Z", "TAF LFMK 130800Z 1309/1409 VRB02KT CAVOK BECMG 1310/1312 28010KT BECMG 1322/1324 BKN023 PROB40 TEMPO 1400/1409 -RA BKN013", "TAF LFML 130800Z 1309/1415 22006KT CAVOK TX24/1313Z TN14/1405Z BECMG 1322/1324 32010KT", "TAF LFMN 130800Z 1309/1415 32008KT CAVOK BECMG 1310/1312 20012KT PROB40 TEMPO 1317/1319 05008KT BECMG 1319/1321 35010KT BECMG 1409/1411 19008KT", "TAF LFMO 130800Z 1309/1409 VRB03KT CAVOK TX25/1315Z TN13/1405Z BECMG 1318/1320 34010KT", "TAF LFMP 130800Z 1309/1409 22005KT CAVOK BECMG 1310/1312 13010KT BECMG 1316/1318 31010KT TEMPO 1318/1401 RA FEW040TCU", "TAF LFMT 130800Z 1309/1409 VRB03KT CAVOK BECMG 1309/1311 20010KT BECMG 1316/1318 29010KT TEMPO 1401/1406 RA FEW040TCU", "TAF LFMU 130800Z 1309/1409 28003KT CAVOK BECMG 1311/1313 20010KT BECMG 1317/1319 30010KT TEMPO 1322/1402 RA FEW040TCU TEMPO 1402/1408 VRB03KT", "TAF LFMV 130800Z 1309/1409 VRB03KT CAVOK", "TAF LFMY 130800Z 1309/1409 VRB03KT CAVOK TX25/1313Z TN13/1405Z", "TAF LFOA 130800Z 1309/1409 21005KT 7000 FEW003 SCT045 OVC070 TX18/1314Z TN14/1404Z PROB40 TEMPO 1309/1311 -RA BKN003 BECMG 1311/1313 BKN010 BKN015 TEMPO 1313/1403 4000 RA BKN003 BKN020TCU BECMG 1400/1403 -DZRA BKN003 BKN009 TEMPO 1406/1409 4000 RA BKN010TCU", "TAF LFOB 131100Z 1312/1412 19007KT 9999 OVC012 TEMPO 1312/1316 4000 DZRA OVC007 TEMPO 1316/1410 1200 DZ OVC002", "TAF AMD LFOE 131133Z 1311/1409 22009KT 3000 -DZ OVC005 BECMG 1315/1316 8000 NSW BKN007 OVC009 BECMG 1320/1321 BKN003 OVC005 TEMPO 1321/1406 1200 -DZ OVC001 BECMG 1407/1409 BKN008 OVC010", "TAF LFOH 131100Z 1312/1412 22010KT 9999 OVC007 TEMPO 1312/1403 2000 DZRA OVC002 TEMPO 1403/1412 BKN015", "TAF LFOJ 130800Z 1309/1409 20010KT CAVOK TX17/1315Z TN14/1406Z PROB40 TEMPO 1309/1311 4000 -RA BKN008 BKN012 BKN020 BECMG 1311/1313 BKN008 OVC012 TEMPO 1311/1405 4000 -DZRA BKN004 PROB40 TEMPO 1401/1404 2000 -DZRA BKN002", "TAF LFOK 131100Z 1312/1412 21007KT 9999 SCT013 OVC050 BECMG 1321/1324 OVC007 TEMPO 1400/1410 1200 DZRA OVC001", "TAF LFOP 131100Z 1312/1412 19007KT 9999 OVC011 TEMPO 1312/1315 4000 DZRA OVC005 TEMPO 1315/1412 1200 DZ OVC001", "TAF LFOT 131100Z 1312/1412 20009KT 9999 BKN015 TEMPO 1312/1412 4500 -RA BKN009 PROB40 TEMPO 1320/1406 2500 -DZRA OVC003", "TAF LFPB 131100Z 1312/1412 23010KT 9999 SCT014 BKN050 BECMG 1312/1313 BKN012 PROB40 TEMPO 1314/1406 3500 -RADZ BKN008 PROB40 TEMPO 1404/1408 2000 BR BKN005 TEMPO 1410/1412 3000 RA BKN010", "TAF LFPG 131100Z 1312/1418 23010KT 9999 SCT014 BKN050 TX17/1412Z TN14/1406Z BECMG 1312/1313 BKN012 PROB40 TEMPO 1314/1406 3500 -RADZ BKN006 PROB40 TEMPO 1404/1408 1200 BR BKN003 PROB30 TEMPO 1405/1407 0700 FG BKN002 TEMPO 1410/1418 3000 RA BKN010", "TAF LFPN 131100Z 1312/1321 21009KT 9999 SCT010 BKN040 BECMG 1312/1314 -RA BKN010 TEMPO 1314/1321 3000 -RADZ OVC007 PROB40 TEMPO 1319/1321 BKN004", "TAF LFPO 131100Z 1312/1418 23008KT 9999 BKN040 TEMPO 1313/1406 -RA BKN013 PROB40 TEMPO 1316/1406 3500 -RADZ OVC006 PROB30 TEMPO 1320/1406 2000 -DZ OVC002 BECMG 1408/1411 -RA BKN013 TEMPO 1412/1418 2500 RA OVC006 PROB40 TEMPO 1415/1418 20015G25KT", "TAF AMD LFPV 131150Z 1311/1409 23006KT 6000 OVC011 TEMPO 1311/1315 4000 RADZ BKN005 BECMG 1315/1317 BKN003 OVC008 TEMPO 1315/1318 4000 -RADZ TEMPO 1318/1408 3000 RADZ TEMPO 1322/1407 BKN001", "TAF LFQQ 131100Z 1312/1418 19007KT 9999 OVC030 BECMG 1313/1315 OVC012 TEMPO 1317/1410 1200 DZ BR OVC003", "TAF LFRB 131100Z 1312/1418 VRB05KT 9999 BKN008 PROB40 TEMPO 1312/1318 3000 DZ BKN003 PROB30 TEMPO 1312/1318 BKN020 TEMPO 1318/1415 2000 RADZ BKN003 PROB40 TEMPO 1318/1406 0800 FG VV/// BECMG 1402/1404 20010KT BECMG 1406/1408 23015G30KT BECMG 1413/1415 32010KT BECMG 1416/1418 VRB05KT BKN020", "TAF LFRC 131100Z 1312/1321 22010KT 9999 OVC010 TEMPO 1312/1321 BKN005 PROB40 TEMPO 1312/1314 2000 DZ BKN003 BECMG 1312/1314 VRB05KT PROB40 TEMPO 1318/1321 2000 BR BKN002", "TAF LFRD 131100Z 1312/1412 20010KT 9999 BKN015 TEMPO 1312/1405 BKN008 PROB40 TEMPO 1312/1318 3000 RADZ BKN005 BECMG 1312/1314 VRB05KT PROB40 TEMPO 1315/1324 28010KT PROB30 TEMPO 1318/1412 1500 BR BKN002 BECMG 1405/1407 16010KT BKN012 TEMPO 1405/1412 3000 RADZ BKN005 BECMG 1410/1412 22015G25KT", "TAF LFRG 131100Z 1312/1321 21010KT 9999 BKN012 TEMPO 1312/1321 3000 RADZ BKN005 PROB30 TEMPO 1312/1318 1500 BR BKN002 BECMG 1318/1320 VRB05KT PROB40 TEMPO 1318/1321 1500 BR BKN002", "TAF LFRH 131100Z 1312/1412 23010KT 2000 DZ BR BKN003 OVC008 TEMPO 1312/1324 1000 RADZ BR OVC001 TEMPO 1312/1321 0700 FG VV/// BECMG 1400/1402 3500 -DZ BR BKN008 OVC030 BECMG 1404/1406 BKN004 TEMPO 1406/1412 23015G30KT 1200 RADZ BR BKN002", "TAF LFRI 131100Z 1312/1412 22010KT 9999 BKN020 TEMPO 1312/1406 4000 -RA BKN012 PROB40 TEMPO 1315/1404 2000 DZRA OVC005 TEMPO 1406/1412 3000 -RA BKN005", "TAF LFRJ 131100Z 1312/1321 VRB02KT 9999 OVC007 TEMPO 1312/1318 4000 RADZ BKN003 TEMPO 1312/1316 BKN012 TEMPO 1318/1321 2000 RADZ BKN002", "TAF LFRK 131100Z 1312/1321 22010KT 9999 BKN020 TEMPO 1312/1321 BKN012 PROB40 TEMPO 1312/1318 3000 DZ BKN008 BECMG 1318/1320 VRB05KT PROB40 TEMPO 1318/1321 2000 BR BKN002", "TAF LFRL 131100Z 1312/1412 35005KT 3000 -DZ OVC002 PROB40 TEMPO 1312/1402 6000 BKN010 TEMPO 1312/1412 0500 FG VV/// TEMPO 1312/1412 2000 RADZ", "TAF LFRM 130500Z 1306/1406 VRB05KT 9999 BKN020 TEMPO 1306/1405 4000 -RA BKN012 BECMG 1310/1312 22010KT PROB40 TEMPO 1311/1406 2000 DZRA OVC003", "TAF LFRN 131100Z 1312/1412 20010KT 9999 BKN015 TEMPO 1312/1405 BKN008 PROB40 TEMPO 1312/1318 3000 RADZ BKN005 BECMG 1315/1317 VRB05KT PROB30 TEMPO 1318/1321 30010KT PROB40 TEMPO 1318/1412 1500 BR BKN002 BECMG 1405/1407 19010KT BKN012 TEMPO 1405/1412 3000 RADZ BKN005 BECMG 1410/1412 23015G25KT", "TAF LFRQ 131100Z 1312/1412 26010KT 9999 OVC008 TEMPO 1312/1314 1500 RADZ BKN003 PROB40 TEMPO 1312/1314 0500 FG VV/// BECMG 1312/1314 VRB05KT PROB40 TEMPO 1314/1318 3000 DZ BKN003 PROB30 TEMPO 1314/1318 BKN020 TEMPO 1318/1412 2000 RADZ BKN003 PROB40 TEMPO 1318/1406 0800 FG VV/// BECMG 1403/1405 20010KT BECMG 1405/1407 24015G25KT PROB40 TEMPO 1410/1412 24020G35KT", "TAF LFRS 131100Z 1312/1418 20010KT 9999 BKN020 TEMPO 1312/1403 4000 -RA BKN012 PROB40 TEMPO 1316/1402 2000 DZRA OVC005 BECMG 1322/1324 26010KT BECMG 1407/1409 4000 -RA BKN012 TEMPO 1409/1412 24015G25KT 2000 DZRA OVC008 PROB40 TEMPO 1412/1418 4000 -RA BKN010 TEMPO 1412/1418 25015G30KT", "TAF LFRZ 131100Z 1312/1412 20010KT 9999 BKN020 TEMPO 1312/1402 4000 -RA BKN010 PROB40 TEMPO 1313/1401 2000 RA OVC006 BECMG 1317/1319 26010KT TEMPO 1401/1412 4000 -RA OVC006", "TAF LFSB 131100Z 1312/1412 16005KT 9999 SCT030 BKN070 PROB40 TEMPO 1313/1317 30010KT 4000 RA SCT030TCU", "TAF LFSI 130800Z 1309/1409 21008KT 9999 SCT015 BKN030 TEMPO 1312/1319 4000 RA BKN010 BKN020 BECMG 1320/1322 BKN005", "TAF LFSL 131100Z 1312/1321 VRB03KT 9999 BKN025 TEMPO 1313/1318 -RA BKN012", "TAF LFSO 130800Z 1309/1409 19003KT 9999 BKN019 SCT030 TEMPO 1310/1317 3000 -RA BKN010 SCT020TCU TEMPO 1321/1402 4000 -RA BKN008 TEMPO 1406/1409 3000 RA BKN004", "TAF LFST 131100Z 1312/1412 20007KT 9999 FEW050 BKN070 TEMPO 1313/1412 4500 -RA", "TAF LFSX 130800Z 1309/1409 12005KT 2000 BR OVC001 BECMG 1309/1310 9999 NSW OVC005 BECMG 1311/1313 NSC", "TAF LFTH 130800Z 1309/1409 35005KT CAVOK BECMG 1310/1312 24012KT BECMG 1401/1403 VRB03KT", "TAF LFTW 130800Z 1309/1409 VRB04KT CAVOK BECMG 1320/1322 32010KT", "TAF LFVP 131100Z 1312/1321 24010KT 9999 BKN015 BECMG 1313/1316 SCT015 ", "TAF LFYR 130800Z 1309/1409 22005KT 9999 SCT020 BKN040 PROB30 TEMPO 1309/1311 BKN010 TEMPO 1312/1316 3000 RA BKN018 BKN020TCU TEMPO 1323/1409 2000 DZRA BKN005 OVC010", "TAF LGAD 131100Z 1312/1321 22010KT 9999 SCT020 SCT080 BECMG 1317/1319 SCT020 BKN080 TEMPO 1319/1321 5000 RA", "TAF LGAL 131100Z 1312/1321 05012KT 9999 FEW025", "TAF LGAV 131100Z 1312/1412 02014KT 9999 FEW025 BECMG 1320/1322 VRB05KT BECMG 1322/1324 FEW020 BKN070 PROB30 TEMPO 1406/1412 5000 RA FEW018TCU BKN020 BKN070 PROB30 TEMPO 1409/1412 4000 TSRA FEW012 FEW018CB BKN020 BKN070", "TAF LGBL 131100Z 1312/1321 10010KT 9999 SCT020 BKN080 PROB30 TEMPO 1318/1321 5000 RA", "TAF LGEL 131100Z 1312/1412 35012KT 9999 FEW025 BECMG 1317/1319 VRB05KT BECMG 1321/1323 FEW020 BKN070 BECMG 1403/1405 FEW015 BKN020 BKN070 PROB30 TEMPO 1406/1412 5000 RA FEW018TCU BKN020 BKN070 PROB30 TEMPO 1409/1412 4000 TSRA FEW012 FEW018CB BKN020 BKN070", "TAF LGHI 131100Z 1312/1321 01012KT 9999 FEW020", "TAF LGIO 131100Z 1312/1321 VRB03KT 9999 SCT025 SCT080 TEMPO 1312/1321 5000 RA FEW008 BKN025 OVC080 PROB40 TEMPO 1316/1321 3000 TSRA SCT006 FEW018CB BKN025 OVC070", "TAF LGIR 131100Z 1312/1412 31014KT 9999 SCT025 BECMG 1320/1322 VRB05KT BECMG 1409/1411 07010KT", "TAF LGKC 131100Z 1312/1321 04010KT 9999 FEW025 BECMG 1312/1314 VRB05KT BECMG 1318/1320 20010KT", "TAF LGKF 131100Z 1312/1321 VRB05KT 9999 FEW015 SCT025 BECMG 1319/1321 16010KT BECMG 1313/1315 SCT020 BKN080 PROB40 TEMPO 1316/1321 5000 RA FEW018TCU BKN020 BKN080 PROB30 TEMPO 1318/1321 4000 TSRA SCT008 FEW018CB BKN020 OVC070", "TAF LGKL 131100Z 1312/1321 15010KT 9999 SCT025 PROB30 TEMPO 1312/1315 5000 RA SCT020 BKN080", "TAF LGKO 131100Z 1312/1412 32015KT 9999 FEW016 TEMPO 1312/1318 32016G26KT", "TAF LGKP 131100Z 1312/1321 32030G45KT 9999 SCT018", "TAF LGKR 131100Z 1312/1412 14010KT 9999 FEW018 BKN080 TEMPO 1321/1403 12014G24KT PROB40 TEMPO 1314/1412 5000 RA FEW018TCU BKN025 BKN070 PROB40 TEMPO 1318/1406 3000 TSRA SCT008 FEW018CB BKN020 OVC070", "TAF LGKV 131100Z 1312/1412 06010KT 9999 FEW025 BECMG 1312/1314 VRB03KT FEW025 BKN080 BECMG 1318/1320 06013KT PROB30 TEMPO 1403/1410 7000 RA FEW010 BKN025 OVC080", "TAF LGLM 131100Z 1312/1321 04015KT 9999 FEW018 TEMPO 1312/1315 04015G25KT", "TAF LGLR 130500Z 1306/1315 VRB03KT 9999 SCT025 BECMG 1310/1312 SCT020 BKN080 PROB30 TEMPO 1312/1315 5000 RA SCT020 BKN080", "TAF LGMK 131100Z 1312/1321 36018G28KT 9999 SCT012", "TAF LGMT 131100Z 1312/1321 35012KT 9999 FEW020 TEMPO 1312/1315 35012G22KT", "TAF LGPZ 131100Z 1312/1412 27010KT 9999 FEW018 BKN080 BECMG 1319/1321 10012KT PROB40 TEMPO 1317/1409 5000 RA FEW018TCU SCT025 BKN070 PROB40 TEMPO 1320/1406 3000 TSRA SCT008 FEW018CB BKN020 OVC070", "TAF LGRP 131100Z 1312/1412 26014KT 9999 FEW020 TEMPO 1312/1316 27014G24KT", "TAF LGRX 131100Z 1312/1321 24010KT 9999 SCT020 SCT080 BECMG 1317/1319 SCT020 BKN080 TEMPO 1319/1321 5000 RA", "TAF LGSA 131100Z 1312/1412 33010KT 9999 FEW020 BECMG 1316/1318 VRB05KT BECMG 1407/1409 08010KT", "TAF LGSK 131100Z 1312/1321 05010KT 9999 FEW018 SCT060", "TAF LGSM 131100Z 1312/1321 36015KT 9999 FEW020 TEMPO 1312/1315 35012G22KT", "TAF LGSR 131100Z 1312/1412 34020KT 9999 FEW025", "TAF LGST 131100Z 1312/1321 30020G30KT 9999 FEW025", "TAF LGSY 130500Z 1306/1315 02016KT 9999 SCT020", "TAF LGTG 130500Z 1306/1315 01010KT 9999 SCT020", "TAF LGTL 130500Z 1306/1315 01012KT 9999 SCT020 TEMPO 1306/1315 01012G25KT", "TAF LGTS 131100Z 1312/1412 VRB03KT 9999 SCT025 TEMPO 1320/1412 4000 RA SCT008 BKN025", "TAF LGZA 131100Z 1312/1321 VRB05KT 9999 FEW014 BECMG 1319/1321 16010KT BECMG 1313/1315 SCT020 BKN080 PROB30 TEMPO 1317/1321 5000 RA FEW018TCU BKN020 BKN080 PROB30 TEMPO 1318/1321 4000 TSRA SCT008 FEW018CB BKN020 OVC070", "TAF LHBP 131115Z 1312/1412 10005KT CAVOK TEMPO 1312/1315 SCT040 BKN180 TEMPO 1322/1407 VRB03KT BKN045 BECMG 1408/1411 17005KT SCT035", "TAF LHDC 131115Z 1312/1321 04004KT CAVOK PROB30 TEMPO 1320/1321 3000 BR NSC", "TAF LHKE 131115Z 1312/1321 07005KT CAVOK TEMPO 1312/1315 9999 FEW040 SCT230 TEMPO 1315/1321 VRB03KT", "TAF LHPA 130515Z 1306/1406 VRB03KT 5000 BR MIFG BCFG NSC PROB30 TEMPO 1306/1308 1500 BR MIFG BCFG BECMG 1308/1310 9999 NSW SCT025 BKN200 BECMG 1309/1312 20005KT CAVOK BECMG 1315/1318 14004KT BECMG 1321/1324 VRB03KT", "TAF LHPP 131124Z 1312/1321 12006KT CAVOK TEMPO 1312/1316 SCT035 TEMPO 1312/1321 VRB03KT PROB30 TEMPO 1319/1321 3000 BR NSC", "TAF LHPR 131115Z 1312/1321 15005KT 9999 SCT040 BKN060 BECMG 1314/1317 CAVOK", "TAF LHSM 131115Z 1312/1321 VRB04KT CAVOK TEMPO 1312/1316 SCT030 TEMPO 1317/1321 5000 BR NSC PROB30 TEMPO 1319/1321 1500 BCFG BR", "TAF LHSN 131115Z 1312/1321 07005KT CAVOK", "TAF LIBA 130500Z 1306/1315 29005KT 6000 RA SCT010 SCT025 BKN060 TEMPO 1306/1309 3000 RA BR BECMG 1307/1309 10010KT BKN020 TEMPO 1309/1315 08010KT 3000 SHRA BR FEW025CB BKN050", "TAF LIBC 131100Z 1312/1412 20010KT 9999 BKN015 TEMPO 1312/1318 4000 TSRA BECMG 1316/1318 VRB05KT BECMG 1403/1405 35013KT TEMPO 1408/1412 35016G30KT", "TAF LIBD 131100Z 1312/1412 08010KT 8000 BKN040 TEMPO 1312/1321 3000 RA TEMPO 1321/1403 2000 SHRA BECMG 1400/1402 34010KT", "TAF LIBF 131100Z 1312/1412 06010KT 1000 RA BKN005 BECMG 1319/1321 32005KT BKN030 BECMG 1401/1403 8000 NSW BECMG 1409/1411 32015KT", "TAF LIBG 131100Z 1312/1321 07006KT 9999 SCT030 TEMPO 1312/1315 RA TEMPO 1315/1321 SHRA", "TAF LIBN 130500Z 1306/1315 10005KT 9999 SCT020 TEMPO 1307/1315 RA", "TAF LIBP 131100Z 1312/1412 VRB05KT 9999 BKN050 TEMPO 1312/1319 RA BECMG 1410/1412 35010KT", "TAF LIBR 131100Z 1312/1412 VRB05KT 9999 BKN030 PROB40 TEMPO 1315/1318 4000 RA BECMG 1316/1318 05012KT TEMPO 1318/1404 2000 SHRA BECMG 1406/1408 35012KT", "TAF LIBV 130500Z 1306/1315 06008KT 5000 BR SCT010 TEMPO 1306/1311 3000 RABR SCT010 BKN015 TEMPO 1311/1315 2500 TSRA BKN010 FEW020CB", "TAF LICA 131100Z 1312/1412 27012KT 9999 SCT020 TEMPO 1312/1316 4000 TSRA TEMPO 1316/1320 3000 SHRA TEMPO 1320/1406 3000 TSRA", "TAF LICB 131100Z 1312/1412 24010KT 9999 SCT030 TEMPO 1312/1318 4000 TSRA", "TAF LICC 131100Z 1312/1412 26010KT 9999 SCT030 TEMPO 1312/1318 4000 TSRA", "TAF LICD 131100Z 1312/1412 14012KT 9999 SCT020 BECMG 1312/1314 33016KT BECMG 1317/1319 33016G26KT", "TAF LICG 131100Z 1312/1321 30013KT 9999 SCT020 TEMPO 1312/1318 4000 SHRA", "TAF LICJ 131100Z 1312/1412 23015KT 9999 SCT030 TEMPO 1312/1403 3000 SHRA BECMG 1316/1318 28012KT BECMG 1321/1323 34018KT", "TAF LICR 131100Z 1312/1412 19010KT 9999 SCT030 TEMPO 1312/1315 4000 TSRA BECMG 1314/1316 VRB05KT BECMG 1316/1318 35013KT TEMPO 1400/1406 35016G35KT TSRA", "TAF LICT 131100Z 1312/1321 32013KT 9999 FEW010 SCT018 TEMPO 1312/1317 FEW008CB BKN015 7000 RA TSRA", "TAF LICZ 130500Z 1306/1406 27006KT 9999 SCT025 SCT080 TEMPO 1311/1317 5000 TSRA FEW020CB SCT025", "TAF LIEA 131100Z 1312/1412 03010KT 9999 SCT025 BECMG 1312/1314 30012KT", "TAF LIED 130500Z 1306/1315 VRB03KT 9999 SCT020 BKN030 TEMPO 1306/1312 4000 TSRA FEW015CB BKN020 BECMG 1309/1311 34006KT", "TAF LIEE 131100Z 1312/1412 33013KT 9999 SCT030", "TAF LIEO 131100Z 1312/1412 01010KT 9999 SCT030 BECMG 1316/1318 25008KT", "TAF LIMC 131100Z 1312/1418 VRB05KT 9999 SCT050 TEMPO 1401/1407 3000 BCFG", "TAF LIME 131100Z 1312/1412 VRB05KT CAVOK", "TAF LIMF 131100Z 1312/1412 VRB05KT CAVOK", "TAF LIMG 131100Z 1312/1412 VRB05KT CAVOK", "TAF LIMJ 131100Z 1312/1412 VRB05KT CAVOK", "TAF LIML 131100Z 1312/1412 VRB05KT CAVOK TEMPO 1401/1407 1500 BCFG", "TAF LIMN 130500Z 1306/1315 35005KT 9999 SCT050", "TAF LIMP 131100Z 1312/1412 VRB05KT CAVOK", "TAF LIMW 131100Z 1312/1321 10008KT CAVOK", "TAF LIMZ 131100Z 1312/1412 VRB05KT CAVOK", "TAF LIPA 130500Z 1306/1315 04005KT 9999 FEW050", "TAF LIPB 131100Z 1312/1412 VRB05KT 9999 SCT050 PROB40 TEMPO 1323/1403 SHRA", "TAF LIPC 131100Z 1312/1321 05008KT 9999 SCT020", "TAF LIPE 131100Z 1312/1412 VRB05KT CAVOK", "TAF LIPH 131100Z 1312/1412 VRB03KT CAVOK", "TAF LIPI 130500Z 1306/1315 33005KT 9999 FEW050", "TAF LIPK 131100Z 1312/1412 VRB05KT CAVOK", "TAF LIPL 130800Z 1309/1318 21005KT CAVOK BECMG 1316/1318 5000 BR", "TAF LIPO 131100Z 1312/1412 VRB05KT CAVOK", "TAF LIPQ 131100Z 1312/1412 VRB05KT CAVOK", "TAF LIPR 131100Z 1312/1412 VRB05KT CAVOK BECMG 1408/1410 31011KT", "TAF LIPS 130500Z 1306/1315 VRB03KT 9999 FEW050", "TAF LIPX 131100Z 1312/1412 VRB05KT CAVOK", "TAF LIPY 131100Z 1312/1412 VRB05KT CAVOK PROB40 TEMPO 1312/1315 SHRA TEMPO 1322/1405 3000 BR BECMG 1409/1411 33011KT", "TAF LIPZ 131100Z 1312/1418 VRB05KT CAVOK", "TAF LIRA 131100Z 1312/1412 03007KT 9999 SCT040 TEMPO 1312/1315 4000 SHRA BECMG 1318/1320 VRB05KT", "TAF LIRE 130500Z 1306/1315 02010KT 9999 SCT020 SCT060 TEMPO 1306/1310 RA BKN060", "TAF LIRF 131100Z 1312/1418 02010KT 9999 SCT030 TEMPO 1312/1315 SHRA BECMG 1313/1315 32011KT BECMG 1319/1321 02007KT BECMG 1410/1412 29013KT", "TAF LIRG 131100Z 1312/1321 35005KT 8000 SCT030 SCT040 TEMPO 1312/1315 4000 RA BR SCT010 SCT025", "TAF LIRH 131100Z 1312/1321 16006KT 7000 SCT035 TEMPO 1312/1315 3000 RA BKN030", "TAF LIRL 131100Z 1312/1321 35008KT 9999 FEW020 SCT030 TEMPO 1312/1316 7000 RA SCT020 SCT025", "TAF LIRM 131100Z 1312/1321 02012KT 9999 SCT020 BKN060 TEMPO 1312/1318 4000 RA BKN020", "TAF LIRN 131100Z 1312/1412 04010KT 9999 SCT040 TEMPO 1312/1318 4000 SHRA TEMPO 1318/1321 RA", "TAF LIRP 131100Z 1312/1412 24006KT CAVOK", "TAF LIRQ 131100Z 1312/1412 04010KT 9999 FEW050 BECMG 1318/1320 VRB05KT", "TAF LIRS 131100Z 1312/1321 35010KT 9999 FEW025 BECMG 1216/1217 03005KT", "TAF LIRU 131100Z 1312/1321 01008KT 9999 BKN030 TEMPO 1312/1315 3000 RA", "TAF LIRV 131100Z 1312/1321 06010KT 9999 FEW020 SCT050 TEMPO 1312/1313 7000 RA SCT020 SCT050", "TAF LIRZ 131100Z 1312/1412 03008KT 9999 SCT030 BKN070", "TAF LJCE 131100Z 1312/1321 08003KT 9999 FEW010 SCT030", "TAF LJLJ 131100Z 1312/1412 VRB01KT 9999 FEW040 PROB40 TEMPO 1403/1408 0350 FG VV001 PROB30 TEMPO 1403/1408 3500 BR BKN015", "TAF LJMB 131100Z 1312/1412 VRB02KT 9999 FEW030 PROB40 1402/1408 3500 BR BKN010 PROB30 TEMPO 1403/1406 0350 FG VV001", "TAF LJPZ 131100Z 1312/1321 30005KT CAVOK", "TAF LKKB 130500Z 1306/1406 14006KT CAVOK BECMG 1318/1320 24006KT BKN030 TEMPO 1400/1406 4000 RA SCT012 BKN018", "TAF LKKV 131100Z 1312/1418 17004KT 9999 SCT022 TEMPO 1312/1322 BKN017 BECMG 1322/1400 23004KT 9999 BKN011 TEMPO 1400/1409 3000 -RA BR BKN006 PROB30 TEMPO 1400/1407 1200 BR OVC002 BECMG 1410/1413 9999 BKN020 TEMPO 1415/1418 SCT023", "TAF LKMT 131100Z 1312/1418 22004KT 9999 BKN035 TEMPO 1321/1406 3000 BR SCT005 BECMG 1409/1411 9999 BKN025 TEMPO 1411/1416 23014KT 8000 SHRA SCT022TCU", "TAF LKNA 130500Z 1306/1406 VRB02KT 9999 BKN015 TEMPO 1307/1310 16004KT OVC008 BECMG 1314/1316 SCT025 BECMG 1322/1400 5000 BR SCT006 TEMPO 1400/1406 0500 FG VV001", "TAF LKPD 130500Z 1306/1406 VRB02KT CAVOK PROB30 TEMPO 1306/1307 5000 MIFG BR BKN004 BECMG 1307/1309 09006KT BECMG 1318/1320 21008KT BKN020", "TAF LKPR 131100Z 1312/1418 18004KT 9999 BKN035 BECMG 1318/1321 23008KT TEMPO 1322/1408 4000 BR BKN020 PROB30 TEMPO 1400/1406 2000 -RA BR SCT007 BKN014 BECMG 1415/1417 18007KT CAVOK", "TAF LKTB 131100Z 1312/1418 09004KT 9999 BKN014 OVC018 BECMG 1312/1315 9999 BKN024 BECMG 1319/1322 16004KT 3000 BR BKN007 TEMPO 1404/1410 1200 -RA BR OVC003 PROB30 TEMPO 1404/1408 0700 -DZ FG OVC002 BECMG 1410/1412 9999 BKN012 BECMG 1413/1415 9999 BKN025", "TAF LLBG 131116Z 1312/1412 31010KT 9999 SCT040 BECMG 1316/1318 VRB04KT SCT030 TEMPO 1322/1407 BKN030 BECMG 1407/1409 27010KT SCT040 TX27/1312Z TN20/1404Z", "TAF LLER 131113Z 1312/1412 36012KT CAVOK PROB30 1317/1320 31018KT TX31/1313Z TN21/1404Z", "TAF LLHA 131118Z 1312/1412 31010KT 9999 SCT035 BECMG 1320/1322 VRB04KT PROB40 TEMPO 1322/1408 -RA BKN030 FM140800 29010KT 9999 SCT035 PROB40 TEMPO 1408/1411 -RA BKN030 TX27/1312Z TN21/1404Z", "TAF LLHZ 131118Z 1312/1412 31008KT 9999 SCT035 BECMG 1314/1316 VRB03KT SCT030 PROB40 TEMPO 1322/1408 -RA BKN025 FM140800 27008KT 9999 SCT035 PROB40 TEMPO 1408/1411 -RA BKN030 TX27/1312Z TN20/1403Z", "TAF LLIB 131119Z 1312/1412 32010KT 9999 FEW045 BECMG 1316/1318 VRB04KT SCT030 BECMG 1406/1408 16006KT SCT040 TX29/1312Z TN17/1403Z", "TAF COR LMML 131100Z 1312/1412 15010KT 9999 SCT018 TEMPO 1312/1318 BKN015 PROB30 TEMPO 1312/1318 8000 SHRA BKN018TCU BECMG 1315/1318 31010KT BECMG 1400/1403 31020G30KT", "TAF LOAN 131125Z 1312/1321 VRB03KT 9000 BKN020 BECMG 1312/1314 FEW040 PROB30 TEMPO 1318/1321 0400 FG VV003", "TAF LOAV 131125Z 1312/1321 VRB03KT 4000 BKN015 TEMPO 1313/1320 8000 FEW020", "TAF LOWG 131115Z 1312/1412 VRB03KT 9999 FEW050 TX18/1313Z TN08/1403Z TEMPO 1312/1317 15008KT TEMPO 1320/1409 0800 PRFG BKN004 PROB40 TEMPO 1402/1408 0200 FG VV001", "TAF LOWI 131115Z 1312/1412 VRB03KT 9999 FEW060 TX18/1314Z TN09/1405Z TEMPO 1312/1316 09007KT TEMPO 1322/1406 SHRA BKN012", "TAF LOWK 131115Z 1312/1412 VRB02KT 9999 FEW050 TX16/1314Z TN09/1403Z TEMPO 1312/1317 10007KT TEMPO 1322/1409 0800 PRFG BKN007 PROB40 TEMPO 1402/1408 0200 FG VV002", "TAF LOWL 131115Z 1312/1412 VRB04KT 9999 SCT020 TX16/1313Z TN09/1323Z BECMG 1319/1321 28007KT PROB40 TEMPO 1320/1324 0800 BCFG SCT002 TEMPO 1401/1406 4000 -SHRA SCT004 BKN010", "TAF LOWS 131115Z 1312/1412 33005KT 9999 SCT020 TX18/1412Z TN10/1405Z BECMG 1316/1318 15004KT TEMPO 1319/1406 4000 -RA BKN020 PROB30 TEMPO 1319/1406 RA BKN009 BECMG 1408/1410 03006KT", "TAF LOWW 131115Z 1312/1418 16006KT 9999 BKN014 TX17/1413Z TN10/1404Z BECMG 1312/1314 SCT025 BECMG 1317/1319 VRB03KT PROB30 TEMPO 1400/1404 1200 BCFG TEMPO 1404/1415 -SHRA PROB30 TEMPO 1404/1412 25010KT SHRA", "TAF LOXA 131115Z 1312/1321 VRB04KT 9999 FEW060 BKN250", "TAF LOXN 131115Z 1312/1321 VRB03KT 8000 BKN015 BECMG 1312/1314 9999 FEW050 SCT160", "TAF LOXT 131115Z 1312/1321 VRB03KT 9999 OVC018 BECMG 1313/1315 05005KT FEW050 SCT160", "TAF LOXZ 131115Z 1312/1321 VRB03KT 9999 FEW050 SCT300 BECMG 1316/1318 FEW050 SCT150 BKN200", "TAF LPAR 131103Z 1312/1321 34008KT CAVOK", "TAF LPAZ 131100Z 1312/1418 VRB05KT 9999 SCT025 BECMG 1412/1415 28010KT", "TAF LPBJ 131102Z 1312/1412 VRB02KT CAVOK TEMPO 1318/1324 34010KT BECMG 1400/1402 VRB02KT", "TAF LPCS 131100Z 1312/1321 35013KT CAVOK", "TAF LPFR 131100Z 1312/1412 18005KT CAVOK BECMG 1312/1315 25013KT BECMG 1319/1321 30005KT BECMG 1400/1403 09005KT", "TAF LPHR 131100Z 1312/1321 19010KT 9999 SCT035 TEMPO 1312/1321 BKN035", "TAF COR LPLA 131104Z 1312/1412 16008KT 9999 SCT015 BKN030 BECMG 1321/1324 23012KT SCT025", "TAF LPMA 131100Z 1312/1412 02013KT 9999 SCT015 TEMPO 1312/1412 01015G25KT", "TAF LPMR 131102Z 1312/1412 VRB02KT 2500 BR BKN006 BECMG 1312/1315 34010KT 9999 NSW FEW020 BECMG 1318/1321 VRB02KT 7000 BKN008 PROB30 1322/1408 1200 BR BKN004 BECMG 1309/1312 34010KT 9999 FEW018", "TAF LPMT 131102Z 1312/1412 34012KT CAVOK BECMG 1400/1403 36005KT PROB40 1403/1408 BKN007", "TAF LPOV 131102Z 1312/1412 VRB02KT 2000 BR BKN006 BECMG 1312/1315 34010KT 9999 NSW FEW020 BECMG 1318/1321 VRB02KT 5000 BR BKN008 PROB40 1323/1408 0200 FG BKN002 BECMG 1309/1312 34010KT 9999 NSW FEW018", "TAF LPPD 131100Z 1312/1412 19008KT 9999 SCT025 BECMG 1318/1321 VRB05KT BECMG 1403/1406 25008KT", "TAF LPPR 131100Z 1312/1412 VRB02KT 5000 BR BKN005 BECMG 1312/1315 34010KT CAVOK BECMG 1318/1321 VRB05KT 5000 BR SCT008 TEMPO 1321/1408 3000 BR SCT002 BKN004 PROB40 TEMPO 1402/1406 0300 FG VV001 BECMG 1408/1410 33010KT CAVOK", "TAF LPPS 131100Z 1312/1418 03015KT 9999 SCT015 TEMPO 1312/1418 FEW015 BKN030", "TAF LPPT 131100Z 1312/1418 35012KT CAVOK BECMG 1400/1403 35005KT 9999 BKN007 TEMPO 1404/1407 3000 BR BKN003 BECMG 1408/1410 35010KT CAVOK", "TAF LPST 131103Z 1312/1321 33007KT 9999 FEW015 BECMG 1313/1315 32012KT", "TAF LQBK 131100Z 1312/1412 03005KT 6000 SCT015 BKN025 TX19/1313Z TN10/1404Z BECMG 1321/1323 3000 BR PROB40 1403/1408 1200 BR BKN004 TEMPO 1408/1410 BKN010 BECMG 1410/1412 7000 NSW", "TAF LQMO 131100Z 1312/1412 VRB02KT 9999 SCT050 TX25/1313Z TN11/1404Z PROB30 TEMPO 1313/1318 SHRA FEW035TCU SCT045 BECMG 1406/1408 03010KT", "TAF LQSA 131100Z 1312/1412 VRB02KT 9999 SCT050 TX19/1313Z TN09/1404Z TEMPO 1320/1409 4000 BR BKN005 PROB40 1404/1408 1200 BCFG BKN003 PROB40 TEMPO 1408/1412 4000 -RA BR BKN014", "TAF LQTZ 131100Z 1312/1412 VRB02KT 6000 SCT012 BKN025 TX18/1313Z TN08/1404Z PROB30 TEMPO 1312/1317 3000 -RA BR BKN008 OVC020 BECMG 1320/1322 2000 BR BKN005 OVC020 PROB40 1400/1408 0200 FG BKN001 BECMG 1408/1410 5000 BKN012", "TAF LRAR 131100Z 1312/1321 VRB04KT 9999 SCT025 PROB30 TEMPO 1312/1316 SCT025CB", "TAF LRBC 131100Z 1312/1321 VRB04KT 9999 SCT010 OVC045 TEMPO 1312/1317 5000 -RA BR BKN010 FEW030CB OVC035", "TAF LRBM 131100Z 1312/1321 VRB04KT 9999 SCT025 TEMPO 1312/1315 SCT025CB", "TAF LRBO 131100Z 1312/1412 04010KT 9999 SCT060 BKN160 BECMG 1320/1322 SCT015 BKN050 OVC080 BECMG 1408/1410 BKN025 OVC090", "TAF LRBS 131100Z 1312/1412 08005KT CAVOK PROB40 TEMPO 1400/1406 3000 BR BKN005 BECMG 1406/1408 06016KT", "TAF LRCK 131100Z 1312/1412 06008KT CAVOK PROB40 TEMPO 1319/1402 5000 -SHRA SCT035CB", "TAF LRCL 131100Z 1312/1321 VRB04KT 9999 BKN020 PROB40 TEMPO 1312/1315 5000 -SHRA BKN010 SCT025CB BECMG 1319/1321 5000 BR", "TAF LRCT 131100Z 1312/1412 09005KT 9999 SCT020 BKN050 PROB30 TEMPO 1313/1316 8000 RA SHRA FEW025CB OVC033 BECMG 1400/1402 VRE03KT 0500 FG SCT002 SCT100 BECMG 1407/1409 9999 SCT070", "TAF LRCV 131100Z 1312/1321 06008KT CAVOK", "TAF LRFT 131100Z 1312/1412 09003KT 9999 SCT200 TEMPO 1312/1317 SCT060 PROB40 TEMPO 1402/1405 0800 FG BKN005", "TAF LRIA 131100Z 1312/1321 VRB04KT 9999 SCT020 OVC045 PROB40 TEMPO 1312/1315 5000 -RA BR BKN015 OVC035", "TAF LROD 131100Z 1312/1321 VRB04KT CAVOK PROB30 TEMPO 1312/1315 FEW030CB", "TAF LROP 131100Z 1312/1412 08005KT CAVOK PROB40 TEMPO 1400/1406 3000 BR BKN005 BECMG 1406/1408 06016KT", "TAF LRSB 131100Z 1312/1412 VRB04KT 9999 SCT025 PROB30 TEMPO 1314/1317 5000 TSRA BKN010 SCT035CB BKN050 BECMG 1320/1322 5000 BR PROB30 TEMPO 1400/1406 1500 BR OVC005 BECMG 1406/1408 9999 NSW", "TAF LRSM 131100Z 1312/1321 VRB04KT CAVOK", "TAF LRSV 131100Z 1312/1321 09007KT 1500 BR BKN002 OVC045 BECMG 1312/1314 5000 BKN045 BECMG 1314/1316 9999 NSW", "TAF LRTC 131100Z 1312/1321 VRB04KT 9999 SCT045 BECMG 1313/1315 07010KT PROB40 TEMPO 1317/1321 5000 -RA BR", "TAF LRTM 131100Z 1312/1321 VRB04KT 5000 -RA BR BKN005 OVC030 BECMG 1313/1315 9999 NSW SCT020 BKN035 BECMG 1319/1321 3000 BR OVC010", "TAF LRTR 131100Z 1312/1412 10006KT 9999 SCT025 PROB30 TEMPO 1312/1316 SCT025CB BECMG 1322/1400 3000 BR PROB30 TEMPO 1400/1405 1500 BR BKN002 BECMG 1406/1408 9999 NSW", "TAF LRTZ 131100Z 1312/1412 06008KT 9999 SCT030 BKN200 BECMG 1316/1318 VRB03KT SCT020 BKN070 PROB30 TEMPO 1402/1406 -RA BKN010 BKN040 BECMG 1408/1410 06014KT SCT025", "TAF LSGC 131125Z 1312/1321 23006KT 9999 BKN035", "TAF LSGG 131125Z 1312/1418 VRB02KT 9999 FEW020 TX18/1314Z TN11/1405Z TX17/1415Z", "TAF LSGS 131125Z 1312/1321 VRB02KT 9999 FEW080", "TAF LSZA 131125Z 1312/1321 VRB02KT 9999 FEW045 TEMPO 1312/1318 CAVOK", "TAF LSZB 131125Z 1312/1321 09006KT 9999 FEW016 SCT095 PROB30 TEMPO 1315/1320 SHRA", "TAF LSZC 131125Z 1312/1321 VRB02KT CAVOK BECMG 1312/1315 9999 BKN060 TEMPO 1315/1321 SHRA PROB40 TEMPO 1317/1321 4000 BR BKN014", "TAF LSZG 131125Z 1312/1321 VRB02KT 9999 FEW010 BKN050 PROB40 TEMPO 1314/1318 SHRA", "TAF LSZH 131125Z 1312/1418 24004KT 9000 FEW016 TX16/1314Z TN12/1406Z TX16/1414Z PROB30 TEMPO 1315/1324 SHRA PROB30 TEMPO 1318/1406 CAVOK PROB40 1402/1408 4000 BR NSC", "TAF LSZL 131125Z 1312/1321 VRB02KT 9999 FEW040 SCT060", "TAF LSZR 131125Z 1312/1321 VRB02KT 9999 FEW018 PROB30 TEMPO 1316/1321 SHRA", "TAF LSZS 131125Z 1312/1321 VRB02KT 9999 FEW030 BKN060 TX13/1313Z TEMPO 1316/1321 SHRA SCT050TCU", "TAF LTAB 131040Z 1312/1321 VRB02KT 9999 FEW040 SCT100", "TAF LTAC 131040Z 1312/1412 05007KT 9999 SCT040 BKN180", "TAF LTAD 131040Z 1312/1321 VRB02KT 9999 FEW040 SCT200 BECMG 1315/1317 CAVOK", "TAF LTAE 131040Z 1312/1321 VRB02KT CAVOK", "TAF LTAF 131040Z 1312/1412 VRB02KT 9999 SCT035", "TAF LTAG 131040Z 1312/1412 21012KT 9999 SCT030 BECMG 1316/1318 VRB02KT BECMG 1410/1412 22012KT", "TAF AMD LTAH 130515Z 1306/1315 VRB02KT 0400 FG VV001 BECMG 1306/1308 9999 NSW SCT035", "TAF LTAI 131040Z 1312/1412 18010KT 9999 SCT030 BECMG 1315/1318 34006KT CAVOK BECMG 1407/1410 16012KT SCT030", "TAF LTAJ 131040Z 1312/1412 VRB02KT 9999 FEW040 BKN120 BECMG 1316/1318 CAVOK", "TAF LTAL 131040Z 1312/1321 04008KT 8000 FEW010 BKN030", "TAF LTAN 131040Z 1312/1321 01009KT 9999 FEW040 SCT100", "TAF LTAO 130440Z 1306/1315 VRB02KT 9999 SCT040 BKN100 TEMPO 1311/1315 -SHRA BKN035 BKN090", "TAF LTAP 131040Z 1312/1412 03015KT 9999 SCT040 BKN100 BECMG 1319/1322 VRB02KT", "TAF LTAR 131040Z 1312/1321 35012KT 9999 SCT040 SCT100 TEMPO 1312/1315 -SHRA FEW025CB BKN030 BECMG 1317/1320 VRB02KT", "TAF LTAS 131040Z 1312/1321 VRB02KT 9999 SCT040 BKN100", "TAF LTAT 131040Z 1312/1412 06006KT 9999 SCT040 BKN100 TEMPO 1312/1316 -SHRA FEW027CB BKN035 BKN090", "TAF LTAU 131040Z 1312/1412 32012KT 9999 SCT040 BECMG 1314/1317 VRB02KT PROB40 TEMPO 1403/1406 4000 BR", "TAF LTAV 130440Z 1306/1315 VRB02KT 9999 SCT035", "TAF LTAW 131040Z 1312/1321 04008KT 9999 BKN035 BECMG 1312/1316 SCT040 SCT100", "TAF LTAY 131040Z 1312/1321 VRB02KT 9999 FEW035 SCT100 TEMPO 1313/1316 28012KT", "TAF LTAZ 131040Z 1312/1412 35012KT 9999 FEW040 BECMG 1315/1318 CAVOK BECMG 1321/1324 VRB02KT SCT040 PROB40 TEMPO 1402/1406 2500 BR", "TAF LTBA 131040Z 1312/1412 04015KT 9999 SCT025 BKN080 BECMG 1405/1408 04020G30KT", "TAF LTBD 131040Z 1312/1321 27012KT 9999 FEW030 BECMG 1315/1317 VRB02KT CAVOK", "TAF LTBF 131040Z 1312/1321 01012KT 9999 SCT035 SCT200", "TAF LTBG 131040Z 1312/1321 06015KT 9999 FEW020 SCT035", "TAF LTBH 131040Z 1312/1321 07015KT 9999 SCT035", "TAF LTBI 131040Z 1312/1321 VRB02KT 9999 FEW040 SCT200 TEMPO 1312/1316 34012KT", "TAF LTBJ 131040Z 1312/1412 35014KT CAVOK BECMG 1319/1321 VRB02KT BECMG 1403/1406 FEW030 BKN100", "TAF LTBK 130440Z 1306/1315 34009KT CAVOK BECMG 1306/1309 34015G25KT", "TAF LTBL 131040Z 1312/1321 34012KT CAVOK", "TAF LTBN 130440Z 1306/1315 VRB02KT 9999 SCT035", "TAF LTBO 131040Z 1312/1321 VRB02KT 9999 FEW040 SCT100", "TAF LTBP 130440Z 1306/1315 VRB02KT 9999 SCT040 SCT100 TEMPO 1308/1312 06012KT", "TAF LTBQ 131040Z 1312/1321 04007KT 8000 BKN028 TEMPO 1312/1316 -SHRA", "TAF LTBR 131040Z 1312/1412 01012KT 9999 SCT035 BECMG 1315/1318 VRB02KT PROB40 1402/1406 2500 BR BKN008", "TAF LTBS 131040Z 1312/1412 22012KT 9999 FEW030 SCT180 BECMG 1316/1318 VRB02KT CAVOK BECMG 1407/1409 21012KT FEW030 BKN120", "TAF LTBT 130440Z 1306/1315 VRB02KT CAVOK BECMG 1306/1308 SCT035 SCT100", "TAF LTBU 131040Z 1312/1412 03013KT 9999 SCT040 BECMG 1316/1319 CAVOK BECMG 1404/1407 04020G30KT SCT030 BKN090", "TAF LTBV 130440Z 1306/1315 VRB02KT CAVOK BECMG 1308/1310 28012KT FEW035", "TAF COR LTBX 130440Z 1306/1315 04007KT 9999 SCT040 SCT100 TEMPO 1308/1312 04015G25KT -SHRA BKN035 BKN090", "TAF LTBY 131040Z 1312/1321 VRB02KT 9999 FEW040 SCT200 TEMPO 1312/1316 34012KT", "TAF LTBZ 131040Z 1312/1321 VRB02KT 9999 FEW040 SCT200 TEMPO 1312/1316 02012KT", "TAF LTCA 131040Z 1312/1321 VRB02KT 9999 SCT035 BKN100 TEMPO 1314/1317 15015KT -SHRA", "TAF LTCB 131040Z 1312/1321 VRB02KT 9999 BKN033 TEMPO 1312/1316 -SHRA SCT012 BKN028 TEMPO 1316/1320 -SHRA SCT012 BKN028", "TAF LTCC 131040Z 1312/1412 20010KT 9999 FEW040 BKN100 BECMG 1317/1319 CAVOK", "TAF LTCD 131040Z 1312/1321 VRB02KT 9999 FEW080 TEMPO 1315/1317 27012KT", "TAF LTCE 131040Z 1312/1412 VRB02KT 9999 SCT035 BKN080 TEMPO 1312/1315 26012KT -SHRA TEMPO 1403/1407 -SHRA PROB40 TEMPO 1409/1412 22012KT -TSRA FEW025CB BKN035", "TAF LTCF 131040Z 1312/1321 VRB02KT 9999 BKN040 BKN080 BECMG 1312/1314 01012KT BECMG 1314/1316 VRB02KT TEMPO 1315/1319 -SHRA FEW025CB BKN035", "TAF LTCG 131040Z 1312/1412 VRB02KT 9999 SCT035 BKN100 TEMPO 1312/1316 -SHRA SCT012 BKN028 TEMPO 1316/1320 -SHRA SCT012 BKN028 TEMPO 1321/1401 -SHRA SCT006 BKN028", "TAF LTCI 131040Z 1312/1321 28008KT 9999 FEW040 BKN120 BECMG 1315/1317 15010KT", "TAF LTCJ 131040Z 1312/1412 VRB02KT CAVOK BECMG 1316/1318 FEW040 BKN100", "TAF LTCK 131040Z 1312/1321 24011KT 9999 FEW040 BKN100 PROB40 TEMPO 1316/1319 -TSRA FEW020CB BKN040 PROB30 TEMPO 1319/1321 -TSRA FEW020CB BKN040", "TAF LTCL 131040Z 1312/1321 VRB02KT 9999 FEW040 SCT100 BKN200", "TAF LTCM 131040Z 1312/1321 06007KT 9999 SCT028 BKN080", "TAF LTCN 131040Z 1312/1321 28009KT 9999 FEW040 SCT100 BECMG 1319/1321 CAVOK", "TAF LTCO 131040Z 1312/1321 27012KT 9999 SCT040 BKN080", "TAF LTCP 131040Z 1312/1321 21008KT 9999 SCT040 BKN100", "TAF LTCR 131040Z 1312/1321 21006KT 9999 FEW040 BECMG 1312/1314 CAVOK", "TAF LTCS 131040Z 1312/1412 VRB02KT 9999 FEW040 BKN100 TEMPO 1312/1314 20012KT BECMG 1316/1319 CAVOK", "TAF LTCT 131040Z 1312/1321 VRB02KT 9999 FEW040 BKN100 BECMG 1313/1315 24012KT", "TAF LTCU 131040Z 1312/1321 VRB02KT 9999 SCT035 BKN100 TEMPO 1313/1317 21015KT -SHRA", "TAF LTCV 131040Z 1312/1412 18006KT CAVOK BECMG 1318/1320 SCT040 PROB30 TEMPO 1321/1324 VRB15G25KT -TSRA FEW025CB BKN030", "TAF LTCW 131040Z 1312/1321 21014KT 9999 SCT040 SCT120 BECMG 1315/1317 06008KT", "TAF LTDA 130740Z 1309/1318 VRB02KT 9999 FEW040 BECMG 1311/1313 24012KT", "TAF LTFA 130440Z 1306/1315 36008KT CAVOK", "TAF LTFB 131040Z 1312/1321 26012KT CAVOK BECMG 1315/1317 VRB02KT", "TAF LTFC 131040Z 1312/1412 VRB02KT 9999 FEW035 SCT200 BECMG 1409/1411 21015KT FEW025CB BKN030", "TAF LTFD 131040Z 1312/1321 07015KT 9999 FEW035 BKN200", "TAF LTFE 131040Z 1312/1412 26012KT 9999 FEW035 BECMG 1314/1317 VRB02KT CAVOK PROB40 1403/1406 2000 BCFG BECMG 1406/1408 FEW035 BKN200 BECMG 1408/1410 25013KT", "TAF LTFG 131040Z 1312/1321 VRB02KT 9999 SCT030", "TAF LTFH 131040Z 1312/1321 01008KT 9999 SCT036 BKN100", "TAF LTFJ 131040Z 1312/1412 05016KT 9999 SCT030 BKN100 BECMG 1318/1321 05006KT BECMG 1405/1408 05018KT PROB40 TEMPO 1408/1412 05020G32KT", "TAF LTFK 131040Z 1312/1321 33008KT CAVOK", "TAF LTFM 131040Z 1312/1418 05016KT 9999 SCT025 SCT090 BECMG 1404/1407 06018G28KT PROB30 TEMPO 1414/1418 -SHRA BKN022 BKN080", "TAF LTFO 131040Z 1312/1321 06010KT 9999 SCT035 BKN100 TEMPO 1312/1316 -SHRA SCT012 BKN025 BECMG 1314/1318 18008KT TEMPO 1316/1320 -SHRA SCT012 BKN025", "TAF LUKK 131120Z 1312/1412 VRB05KT 9999 BKN040 PROB40 TEMPO 1312/1318 5000 RA BKN015", "TAF LWOH 131130Z 1312/1412 VRB02KT 9999 FEW020 SCT033 BKN070 TEMPO TEMPO 1314/1406 3000 +RA BKN010 OVC030", "TAF LWSK 131130Z 1312/1412 16006KT 9999 FEW020 BKN040 OVC070 TEMPO 1314/1403 4000 RA SCT010 OVC030", "TAF LXGB 131038Z 1312/1321 09010KT 9999 FEW020 PROB30 TEMPO 1312/1315 09014G24KT 520002", "TAF COR LYBE 131100Z 1312/1412 09005KT 8000 SCT030 TX20/1313Z TN11/1404Z PROB30 TEMPO 1312/1315 5000 SHRA SCT027TCU SCT030 BECMG 1401/1403 3000 BR PROB40 TEMPO 1404/1406 0800 FG BECMG 1407/1409 9999 NSW", "TAF LYBT 131100Z 1312/1412 03004KT 8000 SCT033 TX19/1313Z TN11/1405Z PROB30 TEMPO 1312/1315 5000 SHRA SCT030TCU SCT033 BECMG 1401/1403 3000 BR PROB30 1403/1406 0600 FG BECMG 1406/1408 9999 NSW", "TAF LYKV 131100Z 1312/1412 VRB02KT 6000 NSW SCT015 SCT030 TX19/1313Z TN09/1405Z PROB40 TEMPO 1312/1316 5000 SHRA SCT030TCU SCT033 BECMG 1323/1401 2000 BR BECMG 1401/1403 0500 FG VV001 BECMG 1408/1410 3000 BR BKN005 BECMG 1410/1412 6000 NSW SCT015", "TAF LYNI 131100Z 1312/1412 03007KT 9999 SCT040 TX21/1313Z TN09/1404Z PROB30 TEMPO 1312/1315 SHRA FEW033TCU SCT040", "TAF LYPG 131100Z 1312/1412 18007KT 9999 SCT040 SCT080 TX22/1313Z TN14/1405Z PROB30 TEMPO 1313/1321 -SHRA FEW030TCU SCT040", "TAF LYTV 131100Z 1312/1412 24006KT 9999 SCT033 TX22/1312Z TN12/1404Z PROB30 TEMPO 1312/1321 SHRA FEW027TCU BKN030 BECMG 1402/1404 03010KT", "TAF LYVR 131100Z 1312/1412 15006KT 9999 SCT033 TX21/1313Z TN14/1404Z PROB40 TEMPO 1312/1315 5000 SHRA SCT027TCU SCT030 BECMG 1320/1322 12016KT", "TAF LZIB 131115Z 1312/1412 12004KT 9999 SCT020 PROB40 TEMPO 1312/1314 5000 BR BKN015 BECMG 1401/1403 VRB02KT PROB40 TEMPO 1403/1408 2000 MIFG BKN004", "TAF LZKZ 131115Z 1312/1412 VRB02KT CAVOK BECMG 1410/1412 18006KT", "TAF LZMC 130430Z 1306/1318 14002KT 9999 SCT040 SCT080 TEMPO 1306/1308 VRB02KT 5000 BR BCFG BKN045 TEMPO 1312/1318 12008KT CAVOK", "TAF LZPP 131115Z 1312/1321 VRB02KT CAVOK TEMPO 1312/1318 9999 BKN035", "TAF LZPW 130430Z 1306/1318 VRB04KT CAVOK", "TAF LZSL 130430Z 1306/1318 VRB03KT 9999 SCT020 TEMPO 1306/1308 BKN015 BECMG 1308/1310 FEW040 BECMG 1311/1313 BKN045 TEMPO 1313/1316 20006KT", "TAF LZTT 131115Z 1312/1412 VRB02KT 9999 SCT050 TEMPO 1402/1408 1500 BCFG BKN002 BECMG 1410/1412 21005KT", "TAF LZZI 131115Z 1312/1321 VRB02KT 9999 BKN030", "MBGT 131030Z 1312/1412 10012KT 9999 SCT018", "MBPV 131030Z 1312/1412 10012KT 9999 SCT018", "TAF MDBH 131000Z 1312/1412 27006KT 9999 SCT018 BECMG 1314/1316 13015KT", "TAF MDCY 131000Z 1312/1412 00000KT 9999 FEW018 TEMPO 1312/1318 8000-RA BKN016 BECMG 1316/1318 06008KT", "TAF MDJB 131000Z 1312/1412 00000KT 9999 FEW018 SCT300 PROB30 1315/1321 7000-SHRA BKN016 BECMG 1313/1315 03005KT FM 131800 18010KT 9999 FEW018CB SCT020", "TAF MDLR 131000Z 1312/1412 04005KT 9999 SCT016 TEMPO 1312/1318 8000-SH BKN016 ", "TAF MDPC 131000Z 1312/1412 08010KT 9999 SCT022 PROB30 1312/1318 8000-TSRA FEW016CB BKN018 SCT070", "TAF MDPP 131000Z 1312/1412 12012KT 9999 FEW020 PROB30 1312/1318 7000-RA SCT016 BKN070", "TAF MDSD 131000Z 1312/1412 01004KT 9999 FEW016CB SCT018 PROB30 1316/1322 7000-TSRA FEW014CB BKN016 BECMG 1318/1320 12008KT", "TAF MDST 131000Z 1312/1412 11008KT 9999 SCT025 BKN300 PROB30 1320/1402 6000-SHRA FEW016CB BKN018", "MGGT 130500Z 1306/1406 03006KT 8000 SCT014 TX26/1320Z TN16/1312Z PROB40 TEMPO 1306/1316 VRB03KT 4000 BR BKN010 BECMG 1316/1318 SCT018 TEMPO 1318/1404 18008KT 8000 VCTSRA SCT20TCU FEW025CB BECMG 1400/1402 SCT016", "MGMM 130500Z 1306/1406 00000KT 9999 FEW014 TX34/1320Z TN23/1312Z TEMPO 1306/1316 SCT012 BECMG 1316/1318 14008KT SCT020 PROB40 TEMPO 1322/1406 7000 TSRA SCT022TCU FEW025CB BECMG 1400/1402 00000KT SCT018", "MGPB 130500Z 1306/1406 06008KT 9999 SCT016 BKN080 TX32/1320Z TN20/1312Z PROB30 TEMPO 1306/1312 8000 DZ BKN016 BECMG 1316/1318 05008KT SCT018 PROB40 TEMPO 1321/1406 8000 VCTSRA SCT020TCU FEW025CB BECMG 1400/1402 00000KT SCT016", "MGSJ 130500Z 1306/1406 00000KT 9999 FEW016 TX33/1320Z TN20/1312Z BECMG 1316/1318 22008KT FEW018 TEMPO 1320/1406 24012KT 7000 TSRA SCT020TCU SCT025CB BECMG 1400/1402 00000KT SCT016", "TAF MHLC 131100Z 1312/1412 VRB03KT 9999 FEW026 TX31/1319Z TN23/1412Z BECMG 1318/1320 03008KT SCT030TCU FEW035CB TEMPO 1322/1401 8000 VCSH FM140100 VRB02KT 9999 SCT026", "TAF MHLM 131100Z 1312/1412 24003KT 9999 FEW026 TX33/1321Z TN23/1412Z BECMG 1317/1319 04008KT SCT030TCU FEW035CB FM140100 VRB03KT 9999 FEW028", "TAF MHPR 131100Z 1312/1412 VRB05KT 9999 SCT046 TX30/1319Z TN21/1309Z FM132000 18012KT 9999 SCT048TCU BECMG 1322/1400 7000 TSSHRA FEW050CB FM140500 VRB04KT 9999 BKN046", "TAF MHRO 131100Z 1312/1412 VRB05KT 9999 FEW024 TX31/1321Z TN27/1412Z", "TAF MHTG 131100Z 1312/1412 VRB03KT 9999 FEW010 SCT028 TX28/1321Z TN19/1412Z BECMG 1314/1316 16005KT SCT030TCU TEMPO 1322/1401 8000 TSVCSH SCT030TCU FEW035CB FM140100 VRB03KT 9999 SCT028", "TAF MKJP 131115Z 1312/1412 34004KT 9999 FEW022 BECMG 1314/1316 14017KT BECMG 1400/1412 36004KT FEW022CB", "TAF MKJS 131115Z 1312/1412 VRB02KT 9999 FEW022 BECMG 1314/1316 08010KT TEMPO 1318/1324 TSRA BKN018CB BECMG 1322/1324 VRB02KT FEW022CB", "TAF MMAA 131032Z 1312/1418 32005KT 5SM HZ SCT015 BKN100 BKN300 TX30/1319Z TN26/1312Z FM131800 24010KT P6SM SCT020 BKN100 FM132100 24015KT P6SM BKN015CB TEMPO 1322/1402 4SM TSRA", "TAF MMAN 130355Z 1306/1406 15005KT P6SM SKC FM131800 12005KT P6SM SCT030 FM140300 14005KT P6SM SKC", "TAF MMAS 130408Z 1306/1406 10005KT P6SM SKC FM131800 08008KT P6SM SCT100 BKN250 FM140500 09005KT P6SM SKC", "TAF MMBT 130434Z 1306/1406 00000KT P6SM SCT020 SCT250 FM131800 14010KT P6SM SCT020 SCT120 BKN250 PROB40 1321/1401 6SM -RA BKN020 FM140500 00000KT P6SM SCT020 SCT250", "TAF MMCB 130434Z 1306/1406 00000KT P6SM SCT015 BKN250 FM131800 20008KT P6SM SCT020 BKN080 BKN250 FM140500 00000KT P6SM SCT020 SCT250", "TAF MMCE 130522Z 1306/1406 00000KT P6SM SCT250 FM130900 30007KT 5SM -RA BKN015 TEMPO 1311/1315 3SM -RA BKN010 FM131700 33017KT 5SM -RA BKN015 BKN080 BKN250 PROB40 1317/1321 4SM -RA BKN015CB FM132200 34015KT P6SM BKN015 BKN080 OVC250", "TAF MMCL 130453Z 1306/1406 00000KT P6SM SKC BECMG 1319/1320 27010KT FM140100 27005KT P6SM SCT020", "TAF MMCM 130522Z 1306/1406 12007KT P6SM SCT020 SCT100 FM131800 13012KT P6SM SCT020 BKN100 BKN250 PROB40 1321/1401 6SM -RA BKN020CB FM140500 12006KT P6SM SCT020 SCT100", "TAF MMCN 130301Z 1306/1406 30005KT P6SM SKC FM131800 28010KT P6SM SCT250 FM140500 30005KT P6SM SKC", "TAF COR MMCP 131127Z 1306/1406 36005KT P6SM SCT030 TEMPO 1306/1310 4SM TSRA BKN010CB FM131000 20007KT 6SM HZ BKN020 TEMPO 1312/1316 3SM -RA BKN010CB FM131600 20016KT 5SM -RA BKN020 BKN080 OVC250 TEMPO 1316/1320 4SM -RA BKN015CB FM132200 19015KT P6SM BKN018 BKN080 BKN250", "TAF MMCS 130355Z 1306/1406 00000KT P6SM SKC FM131200 24005KT P6SM SKC FM131800 00000KT P6SM SCT040 FM140300 00000KT P6SM SKC", "TAF MMCU 130355Z 1306/1406 00000KT P6SM SKC FM131200 14005KT P6SM SKC FM131800 14010KT P6SM SKC FM140300 00000KT P6SM SKC", "TAF COR MMCV 130351Z 1306/1406 33005KT P6SM SCT015 BKN120 TEMPO 1311/1315 5SM HZ BKN012 FM131800 36008KT P6SM SCT015 BKN100 BKN250 PROB40 1402/1406 6SM -RA BKN020", "TAF MMCZ 131022Z 1312/1418 12005KT P6SM SCT015 FM131800 12015KT P6SM SCT015 BKN250 FM140600 00000KT P6SM SCT015 BKNT250 FM141200 12010KT P6SM BKN015", "TAF MMDO 130301Z 1306/1406 00000KT 6SM HZ SCT025 FM131800 08007KT P6SM SCT025 BKN250 FM140500 00000KT P6SM SCT250", "TAF MMEP 130408Z 1306/1406 00000KT P6SM SCT250 FM131800 36008KT P6SM BKN250 FM140500 00000KT P6SM SCT250", "TAF MMGL 131007Z 1312/1418 00000KT P6SM BKN300 TX28/1321Z TN11/1312Z FM131800 24010KT 6SM HZ SCT300 FM140600 00000KT P6SM BKN300 FM141200 00000KT 6SM HZ SCT020 BKN300", "TAF MMGM 130301Z 1306/1406 27005KT P6SM SKC FM131800 26015KT P6SM SCT030 SCT250 FM140500 28005KT P6SM SKC", "TAF MMHO 130453Z 1306/1406 00000KT P6SM SCT200 FM131800 27007KT P6SM SCT030 BECMG 1401/1402 00000KT", "TAF MMIA 130408Z 1306/1406 00000KT 5SM HZ SCT020 FM131800 25012KT 6SM HZ SCT020 PROB40 1322/1402 5SM -RA BKN020CB FM140500 00000KT 5SM HZ SCT020", "TAF MMIO 130355Z 1306/1406 34010KT P6SM SKC FM131200 00000KT P6SM SKC FM131800 35010KT P6SM SKC FM140300 34005KT P6SM SKC", "TAF MMLM 130301Z 1306/1406 29006KT P6SM SKC FM131800 26016KT P6SM SCT030 SCT250 FM140500 30005KT P6SM SKC", "TAF MMLO 130408Z 1306/1406 03005KT P6SM SCT250 FM131800 04007KT P6SM SCT030 BKN250 FM140500 04005KT P6SM SCT250", "TAF MMLP 130453Z 1306/1406 00000KT P6SM SKC BECMG 1318/1319 30010KT FM140200 25005KT P6SM SCT030", "TAF MMLT 130301Z 1306/1406 30006KT P6SM SCT040 FM131800 04014KT P6SM SCT030 SCT250 FM140500 30005KT P6SM SKC", "TAF MMMA 130253Z 1306/1406 07006KT P6SM SKC TEMPO 1311/1315 3SM BR HZ BKN010 FM131800 02012KT P6SM BKN020 BKN250 FM140500 04006KT P6SM SKC", "TAF COR MMMD 131106Z 1312/1418 14010KT 5SM HZ OVC003 TX34/1320Z TN24/1312Z TEMPO 1312/1315 3SM RA FM131800 24010KT 4SM RA BKN020 BKN070 BKN300 TEMPO 1321/1401 3SM TSRA BKN020CB FM141200 12010KT P6SM BKN020", "TAF MMML 130453Z 1306/1406 29005KT P6SM SKC FM132000 31010KT P6SM SKC BECMG 1403/1404 00000KT", "TAF MMMM 131007Z 1312/1418 00000KT P6SM SCT020 SCT280 FM131800 24010KT P6SM SCT280 FM140600 00000KT P6SM BKN020 BKN280", "TAF COR MMMT 131137Z 1306/1406 00000KT 6SM HZ SCT080 TEMPO 1307/1311 3SM -DZ BR HZ BKN008 FM131200 33007KT 5SM HZ BKN015 BKN080 TEMPO 1317/1321 4SM -RA BKN012 FM132200 34016KT P6SM BKN020 BKN080 OVC250 FM140500 34010KT 6SM HZ BKN020 BKN080", "TAF MMMV 130355Z 1306/1406 04005KT P6SM SCT060 FM131200 04010KT P6SM SCT040 FM131800 00000KT P6SM SCT050", "TAF MMMX 131032Z 1312/1418 08005KT P6SM SCT020 TX25/1321Z TN13/1312Z TEMPO 1312/1315 3SM BR BKN015 FM131600 34005KT 6SM HZ SCT020 FM131800 34015KT 6SM HZ SCT250 FM140600 33005KT P6SM SCT020 SCT250 TEMPO 1412/1415 BKN015", "TAF MMMY 130948Z 1312/1418 32005KT P6SM SCT020 TX32/1321Z TN19/1312Z TEMPO 1312/1315 BKN020 FM131800 34005KT P6SM SKC FM140600 12005KT P6SM SCT020 FM141200 12005KT P6SM SCT015", "TAF MMMZ 131041Z 1312/1418 00000KT P6SM SCT240 TX31/1319Z TN21/1312Z FM131800 24010KT P6SM SKC FM140600 02005KT P6SM SCT025 SCT240 FM141200 00000KT P6SM SCT240", "TAF MMNL 130253Z 1306/1406 00000KT P6SM SKC TEMPO 1311/1315 4SM HZ BKN010 FM131800 09008KT P6SM SCT030 BKN120 PROB40 1400/1404 5SM -RA BKN020 FM140500 09005KT P6SM SCT030 BKN250", "TAF MMOX 130434Z 1306/1406 17005KT P6SM SCT120 BKN250 TEMPO 1311/1315 4SM HZ BKN012 FM131800 03012KT P6SM SCT030 SCT080 BKN250 PROB40 1322/1402 5SM -RA BKN030CB FM140500 34005KT P6SM SCT030 BKN250", "TAF MMPA 130253Z 1306/1406 08005KT P6SM SCT020 TEMPO 1311/1315 4SM HZ BKN012 FM131800 36014KT P6SM SCT020 BKN080 BKN250 FM140500 02008KT P6SM SCT020 BKN080", "TAF MMPB 130434Z 1306/1406 34006KT P6SM SCT090 BKN250 TEMPO 1311/1315 6SM HZ BKN020 FM131800 35012KT P6SM SCT025 BKN080 BKN250 FM140500 34005KT P6SM BKN250", "TAF MMPG 130253Z 1306/1406 00000KT P6SM SKC FM131800 12010KT P6SM SCT040 SCT250 FM140500 00000KT P6SM SKC", "TAF MMPN 130408Z 1306/1406 00000KT 4SM HZ SCT015 TEMPO 1311/1315 3SM BR HZ BKN010 FM131800 18008KT P6SM SCT020 SCT080 BKN250 PROB40 1322/1402 6SM -RA BKN020CB FM140500 00000KT 5SM HZ SCT015 SCT250", "TAF MMPQ 130522Z 1306/1406 00000KT 6SM HZ SCT070 TEMPO 1311/1315 4SM HZ BKN020 FM131800 33010KT 6SM HZ SCT030 BKN080 BKN250 TEMPO 1321/1401 BKN020CB FM140500 34007KT 6SM HZ SCT030 BKN080", "TAF MMPR 131007Z 1312/1418 00000KT P6SM SCT030 SCT250 TX31/1319Z TN22/1312Z FM131500 03005KT P6SM SCT030 SCT260 BECMG 1318/1319 22010KT FM132100 24010KT P6SM BKN100 OVC250 FM140600 04005KT P6SM BKN250", "TAF MMPS 130434Z 1306/1406 00000KT P6SM SCT010 SCT250 FM131800 14010KT P6SM SCT010 BKN080 BKN250 PROB40 1321/1401 6SM -RA BKN020 FM140500 00000KT P6SM SCT020 SCT250", "TAF MMQT 130408Z 1306/1406 11006KT P6SM SCT020 SCT250 FM131800 07012KT P6SM SCT020 BKN250 FM140500 08006KT P6SM SCT020 SCT250", "TAF MMRX 130253Z 1306/1406 12007KT P6SM SKC TEMPO 1311/1315 3SM BR HZ BKN010 FM131800 02012KT P6SM BKN030 FM140500 04006KT P6SM SKC", "TAF MMSD 130301Z 1306/1406 34005KT P6SM SKC FM131800 16014KT P6SM SCT040 SCT250 FM140500 35005KT P6SM SKC", "TAF MMSL 130301Z 1306/1406 00000KT P6SM SKC FM131800 20010KT P6SM SCT040 FM140500 00000KT P6SM SKC", "TAF MMSM 131032Z 1312/1418 00000KT P6SM SCT020 TEMPO 1312/1315 2SM BR BKN015 FM131800 34005KT 5SM HZ SCT020 FM132100 34015KT P6SM SCT200 FM140600 04005KT 6SM HZ SCT200 TEMPO 1412/1415 3SM BR", "TAF MMSP 131007Z 1312/1418 12005KT 3SM HZ SCT015 TX26/1321Z TN10/1312Z TEMPO 1312/1315 2SM BR BKN010 FM131600 12008KT 5SM HZ SCT025 FM131800 13010KT P6SM SCT025 SCT210 FM140600 12005KT P6SM SCT250 TEMPO 1412/1415 3SM BR", "TAF MMTC 130355Z 1306/1406 00000KT P6SM SCT025 FM131200 00000KT P6SM SKC FM131800 06010KT P6SM SKC FM140300 00000KT P6SM SCT025", "TAF MMTG 130421Z 1306/1406 24005KT P6SM SCT030 BKN090 FM131000 00000KT 4SM HZ BKN020 TEMPO 1311/1315 2SM BR BKN006 FM131800 12005KT P6SM SCT030 BKN300 PROB40 1322/1401 4SM TSRA BKN030CB", "TAF MMTJ 131041Z 1312/1418 30005KT 2SM BR OVC002 TX22/1319Z TN18/1312Z TEMPO 1312/1315 1SM -DZ BR FM131600 29005KT 6SM HZ BKN015 FM132100 30010KT 6SM HZ OVC015 FM140300 26005KT 5SM HZ OVC010 TEMPO 1410/1414 2SM BR OVC004", "TAF MMTM 130435Z 1306/1406 34005KT P6SM SCT020 SCT200 FM131000 00000KT 3SM BR BKN015 TEMPO 1311/1315 2SM BR BKN010 FM131800 04010KT P6SM SCT020 BKN200 FM140300 00000KT P6SM SCT015", "TAF MMTO 131032Z 1312/1418 00000KT 5SM HZ SCT020 TX22/1321Z TN07/1312Z TEMPO 1312/1315 2SM BR BKN015 FM131800 04005KT P6SM SCT020 BKN200 FM140300 00000KT P6SM SCT200 TEMPO 1412/1415 3SM BR BKN015", "TAF MMTP 131022Z 1312/1418 00000KT P6SM SCT100 SCT200 FM131800 24010KT P6SM BKN020 BKN200 TEMPO 1322/1402 4SM TSRA BKN020CB FM140600 00000KT P6SM BKN020 BKN200", "TAF MMUN 131022Z 1312/1418 00000KT P6SM SCT015 SCT250 TX31/1319Z TN25/1312Z FM131800 08005KT 08010KT P6SM SCT015 BECMG 1320/1321 BKN015CB TEMPO 1322/1402 4SM TSRA BKN015CB", "TAF COR MMVA 131108Z 1306/1406 00000KT 5SM HZ SKC FM131000 34006KT 4SM -RA BKN012 BKN080 TEMPO 1312/1316 2SM -RA BR BKN010 FM132100 33018KT 6SM HZ BKN012 BKN090 OVC250 FM140500 34010KT 5SM HZ SCT012 BKN080", "TAF MMVR 130435Z 1306/1406 00000KT 5SM HZ SCT020 SCT070 TX29/1321Z TN21/1312Z FM130900 03010KT 3SM HZ BKN015 TEMPO 1312/1315 2SM BR OVC015 FM131600 12005KT P6SM SCT015 BKN250 FM132100 04005KT P6SM BKN015 BKN250 TEMPO 1322/1402 5SM RA BKN015CB", "TAF MMZC 131007Z 1312/1418 00000KT P6SM SCT040 TX25/1321Z TN09/1312Z FM131600 04005KT P6SM SCT080 FM131800 05010KT P6SM SCT200 FM140600 04010KT P6SM BKN040 TEMPO 1412/1415 BKN020", "TAF COR MMZH 131133Z 1306/1406 12005KT P6SM SCT020 SCT250 TEMPO 1306/1310 6SM -RA BKN020 FM131000 00000KT 6SM HZ BKN020 BKN080 TEMPO 1312/1316 5SM TSRA BKN020CB FM131800 18008KT P6SM BKN020 BKN090 OVC250 PROB40 1318/1322 5SM TSRA BKN020CB FM140500 16005KT P6SM SCT020 SCT090 BKN250", "TAF MMZO 130409Z 1306/1406 24005KT P6SM SCT030 BKN200 TEMPO 1306/1308 5SM RA VC CB SCT030CB FM131000 00000KT P6SM SCT015 FM131800 24010KT P6SM SCT020 PROB40 1321/1401 5SM RA BKN020CB", "MNBL 122211Z 1300/1324 VRB04KT 6000 VCRA BKN016TCU FM130400 00000KT 9999 SCT018 BECMG 1312/1315 07008KT 7000 RA BKN017 FM132000 3000 DZ/TSRA SCT016CB SCT070", "MNMG 130900Z 1312/1412 09006KT 9999 FEW020 SCT300 BECMG 1314/1318 08010KT FEW023 SCT090 TEMPO 1320/1400 09012KT 9000 VCRA FEW020CB SCT070", "MNPC 122211Z 1300/1324 VRB04KT 7000 HZ/VCRA BKN017 FM130600 8000 HZ FEW018 TEMPO 1317/1321 VRB08KT 5000 DZ/TSRA BKN016TCU", "TAF MPDA 131100Z 1312/1324 22007KT 9999 SCT018 TEMPO 1320/1324 6000 TSRA SCT015CB BKN080", "TAF MPMG 131100Z 1312/1324 34006KT 9999 SCT018 TEMPO 1318/1322 18008KT 6000 TSRA SCT015CB BKN080 PROB30 1322/1324 6000 RA SCT015CB BKN090", "TAF MPPA 131100Z 1312/1418 02006KT 9999 SCT018 TEMPO 1312/1315 25005KT TEMPO 1319/1323 18008KT 6000 TSRA SCT015CB BKN080 PROB30 1400/1402 6000 RA SCT015CB BKN090", "TAF MPSM 131100Z 1312/1418 34006KT 9999 SCT018 TEMPO 1319/1323 17011KT 6000 TSRA SCT015CB BKN080 PROB30 1400/1402 6000 RA SCT015CB BKN090", "TAF MPTO 131100Z 1312/1418 34006KT 9999 SCT018 TEMPO 1312/1315 24005KT TEMPO 1319/1323 17011KT 6000 TSRA SCT015CB BKN080 PROB30 1400/1402 6000 RA SCT015CB BKN090", "MRLB 131100Z 1312/1412 27006KT 9999 FEW030 TX30/1319Z TN22/1411Z TEMPO 1312/1314 VRB02KT 3000 BR SCT005 TEMPO 1321/1324 TSRA FEW020CB ", "MRLM 131100Z 1312/1412 27005KT 9999 FEW020 TX31/1320Z TN22/1411Z TEMPO 1312/1316 RA FEW020TCU BKN025 BECMG 1315/1318 05006KT ", "MROC 131100Z 1312/1412 25005KT 9999 SCT020 TX29/1317Z TN19/1411Z TEMPO 1312/1314 09006KT TEMPO 1320/1323 5000 TSRA SCT015CB TEMPO 1323/1404 5000 RA BR BKN010 ", "MRPV 131100Z 1312/1412 09006KT 9999 SCT020 TX27/1317Z TN19/1411Z BECMG 1314/1317 27007KT TEMPO 1320/1323 5000 TSRA SCT015CB BKN020 TEMPO 1323/1404 5000 RA BR BKN010 ", "TAF MSLP 130925Z 1312/1412 05005KT 9999 SCT017 SCT030 TX32/1318Z TN23/1410Z FM131800 23010KT 9999 SCT023 FEW037CB TEMPO 1320/1323 8000 TSRA SCT020 FEW037CB SCT045 FM140000 VRB03KT 9999 SCT020 FEW037CB FM140500 05004KT 9999 SCT020 FEW037CB", "TAF MSSS 130925Z 1312/1412 33004KT 5000 BR SCT012 TX29/1319Z TN20/1410Z FM131400 36004KT 9999 NSW SCT017 FM131800 20009KT 9999 SCT020 FEW037CB TEMPO 1320/1323 8000 TSRA SCT017 FEW037CB SCT043 FM140000 35004KT 9999 SCT017 FEW037CB", "TAF MTCH 131100Z 1312/1412 VRB02KT 9000 FEW022 BECMG 1314/1318 02012KT PROB40 TEMPO 1400/1406 4000 TSRA SCT022CB BKN040 BECMG 1408/1412 VRB02KT 8000 NSW FEW020", "TAF MTPP 131100Z 1312/1412 09004KT 9000 SCT020 BECMG 1318/1320 30010KT PROB30 TEMPO 1321/1403 4000 TSRA SCT014CB BKN030 BECMG 1406/1410 VRB02KT 9000 NSW FEW016", "MUCC 131100Z 1312/1412 11005KT 9000 SCT020 BECMG 1313/1315 18008KT TEMPO 1319/1403 VRB10KT 5000 TSRA SCT018CB BKN020 BECMG 1404/1405 11005KT", "MUCF 131100Z 1312/1406 VRB03KT 9000 SCT020 BECMG 1314/1316 21007KT TEMPO 1319/1401 VRB10KT 4000 TSRA SCT018CB BKN020", "MUCL 131100Z 1312/1406 VRB03KT 9000 FEW018CB SCT030 BECMG 1314/1315 14007KT SCT020 TEMPO 1320/1324 FEW018CB", "MUCM 131100Z 1312/1412 VRB03KT 9000 SCT020 BECMG 1313/1315 16007KT TEMPO 1319/1401 VRB10KT 4000 TSRA SCT018CB BKN020 BECMG 1402/1404 VRB03KT", "MUCU 131100Z 1312/1412 01005KT 9000 FEW020 BECMG 1314/1315 14007KT SCT020 TEMPO 1320/1401 VRB10KT 5000 TSRA FEW018CB BKN020 BECMG 1402/1403 35005KT", "TAF MUGM 1223/1323 06006KT 9999 FEW030 SCT250 QNH2987INS BECMG 1314/1316 13010KT 9999 VCSH FEW030 FEW080 SCT250 QNH2982INS T24/1310Z T32/1318Z FN20097", "MUHA 131100Z 1312/1412 18005KT 9000 SCT030 TEMPO 1319/1324 VRB10KT 3000 TSRA FEW018CB BKN020 BECMG 1401/1402 VRB03KT BKN030", "MUHG 131100Z 1312/1412 07004KT 9000 FEW030 BECMG 1314/1315 12008KT SCT020 TEMPO 1320/1324 VRB10KT 4000 TSRA SCT018CB BKN020 BECMG 1401/1403 VRB03KT", "MUSC 131100Z 1312/1412 VRB03KT 9000 SCT020 BECMG 1314/1315 18008KT TEMPO 1320/1401 VRB10KT 4000 TSRA SCT018CB BKN020 BECMG 1402/1404 VRB03KT", "MUVR 131100Z 1312/1412 15005KT 9000 SCT020 BECMG 1314/1315 21008KT TEMPO 1318/1402 VRB10KT 4000 TSRA SCT018CB BKN020 BECMG 1403/1405 VRB03KT", "TAF MWCB 131100Z 1312/1412 11014KT 9999 SCT018", "TAF MWCR 131100Z 1312/1412 11014KT 9999 SCT018 TEMPO 1319/1322 9000 SHRA SCT016CB", "MYGF 131030Z 1312/1412 18007G17KT 9000 SHRA SCT015CB TEMPO 1312/1314 4800 TSRA BKN015CB BKN030 PROB40 TEMPO 1318/1321 20010G20KT 1600 TSRA FEW012 OVC015CB", "MYNN 131030Z 1312/1412 18010KT 9999 FEW015CB BKN040 PROB30 TEMPO 1321/1406 16008G18KT 4800 TSRA SCT015CB OVC070", "TAF MZBZ 131100Z 1312/1412 11007KT 9999 SCT023 PROB30 TEMPO 1316/1319 5000 SHRA BKN014", "TAF NCRG 131102Z 1312/1412 07010KT 9999 BKN014", "TAF NFFN 131101Z 1312/1412 29005KT 8000 -RA SCT024 BKN100 PROB40 TEMPO 1312/1324 VRB15G25KT TEMPO 1312/1324 3000 TSRA BKN015 SCT018CB PROB40 TEMPO 1400/1406 8000 SHRA BKN018", "TAF NFNA 131113Z 1312/1412 35005KT 9999 -SHRA SCT010 BKN040 TEMPO 1312/1324 VRB15G25KT 3000 +TSRA BKN015 SCT017CB", "TAF NFTF 131107Z 1312/1412 VRB03KT 9999 FEW014 FM131700 35015KT 9000 -RA FEW007 SCT025 BKN100 TEMPO 1317/1406 VRB15G25KT 3000 TSRA BKN015 SCT018CB PROB40 TEMPO 1406/1412 5000 TSRA BKN016 FEW018CB", "TAF NFTV 131119Z 1312/1412 VRB03KT 9999 FEW020 TEMPO 1315/1408 5000 TSRA BKN015 FEW018CB", "TAF NGFU 131117Z 1312/1412 07008KT 9999 SCT020", "TAF NGTA 131113Z 1312/1412 09010KT 9999 FEW020", "TAF NIUE 131115Z 1312/1412 VRB03KT 9999 SCT020 PROB40 TEMPO 1406/1412 5000 TSRA FEW018CB", "TAF NLWF 131100Z 1312/1412 04008KT 9999 SCT020 BKN030 TEMPO 1312/1321 3000 SHRA BKN014 FEW018CB PROB40 TEMPO 1312/1324 1200 +TSRA BKN010 SCT015CB TEMPO 1400/1408 SHRA BKN012 SCT018TCU", "TAF NLWW 131100Z 1312/1412 VRB02KT 9999 FEW015 SCT025 BKN040 PROB30 TEMPO 1312/1318 4000 SHRA BKN014 SCT020TCU BECMG 1323/1401 03012KT BECMG 1408/1410 VRB02KT", "TAF NSFA 131108Z 1312/1412 VRB03KT 9999 BKN022 PROB40 TEMPO 1318/1412 5000 TSRA FEW018CB", "NSTU 131123Z 1312/1412 08008KT P6SM VCSH SCT020 BKN040", "TAF NTAA 131100Z 1312/1418 VRB04KT 9999 FEW020 SCT060 TEMPO 1320/1402 05013KT PROB30 TEMPO 1412/1418 5000 SHRA FEW017 BKN045", "TAF NVSC 131100Z 1312/1412 VRB03KT 9999 BKN018 OVC110 INTER 1312/1318 7000 TSRA FEW008 BKN016 FEW022CB OVC100", "TAF NVSG 131100Z 1312/1412 VRB03KT 9999 BKN020 INTER 1312/1318 9000 SHRA FEW010 BKN018", "TAF NVSL 131100Z 1312/1412 VRB03KT 9999 SCT020", "TAF NVSP 131100Z 1312/1412 VRB03KT 9999 SCT020", "TAF NVSS 131100Z 1312/1412 VRB03KT 9999 BKN020 INTER 1312/1318 9000 SHRA FEW010 BKN018", "TAF NVVA 131100Z 1312/1412 VRB03KT 9999 SCT020", "TAF NVVV 131100Z 1312/1412 VRB03KT 9999 SCT020", "TAF NVVW 131100Z 1312/1412 VRB03KT 9999 SCT020", "TAF NWWD 130500Z 1306/1406 18010KT 9999 FEW040 BECMG 1306/1308 VRB02KT BECMG 1322/1324 20010KT", "TAF NWWE 121700Z 1218/1318 14005KT 9999 SCT020 BKN250 BECMG 1222/1224 15015KT PROB40 TEMPO 1300/1308 14015G25KT SHRA", "TAF NWWK 130500Z 1306/1406 14018KT 9999 FEW050 BECMG 1307/1309 13006KT BECMG 1322/1324 20010KT", "TAF NWWL 131100Z 1312/1412 15005KT 9999 FEW020 SCT030 BECMG 1323/1401 14015KT BECMG 1408/1410 14005KT", "TAF NWWM 131100Z 1312/1412 15015KT 9999 FEW025 SCT035 PROB30 TEMPO 1315/1321 SHRA FEW020TCU", "TAF NWWR 131100Z 1312/1412 17005KT 9999 FEW025 SCT050 BECMG 1323/1401 16015KT BECMG 1408/1410 15005KT", "TAF NWWU 121700Z 1218/1318 20005KT 9999 SCT035 BECMG 1222/1224 11012KT PROB40 TEMPO 1302/1306 SHRA BECMG 1307/1309 19006KT", "TAF NWWW 131100Z 1312/1412 VRB02KT 9999 SCT025 SCT055 PROB30 TEMPO 1315/1321 SHRA BECMG 1322/1324 16012KT BECMG 1407/1409 VRB02KT", "TAF NZAA 131109Z 1312/1418 08005KT 9999 SCT030 SCT040 TEMPO 1312/1317 6000 SHRA PROB30 TEMPO 1312/1315 4000 SHRA FEW020TCU BECMG 1318/1320 12015KT", "TAF NZCH 131109Z 1312/1418 VRB02KT 9999 SCT040 BKN050 BECMG 1322/1400 05010KT", "TAF NZFX 130855Z 1309/1409 16020G30KT 9999 DRSN FEW040 BKN140 540106 QNH2867INS GRID33020G30KT TEMPO 1312/1315 12015G25KT GRID29015G25KT BECMG 1315/1317 05012KT 9999 NSW FEW150 QNH2872INS GRID22012KT ", "TAF NZQN 131109Z 1312/1406 17010KT 9999 SCT020 BECMG 1312/1314 02005KT BECMG 1322/1400 24010KT BECMG 1402/1404 17010KT", "TAF NZWN 131109Z 1312/1418 16015KT 9999 FEW020 BKN045 BECMG 1410/1412 16005KT", "TAF OBBI 131100Z 1312/1418 36007KT CAVOK", "TAF OEAB 131100Z 1312/1418 05010KT 9999 FEW020 PROB30 TEMPO 1312/1318 FEW025CB BECMG 1320/1322 VRB03KT CAVOK BECMG 1406/1408 08008KT", "TAF OEAH 131000Z 1312/1418 05012KT CAVOK BECMG 1318/1320 VRB03KT 8000 NSC TEMPO 1400/1404 3000 BR BECMG 1409/1411 15005KT CAVOK", "TAF OEAO 131100Z 1312/1418 26012KT CAVOK BECMG 1318/1320 36010KT BECMG 1322/1400 VRB03KT BECMG 1408/1410 21014KT", "TAF OEBA 131100Z 1312/1418 09012KT 9999 FEW030 PROB30 TEMPO 1312/1318 FEW025CB BECMG 1320/1322 20008KT CAVOK BECMG 1406/1408 12012KT", "TAF OEBH 131100Z 1312/1418 09010KT CAVOK BECMG 1321/1323 19008KT BECMG 1408/1410 13010KT", "TAF OEDF 131000Z 1312/1418 02010KT CAVOK BECMG 1318/1320 VRB03KT 8000 NSC TEMPO 1400/1404 3000 BR BECMG 1409/1411 07008KT CAVOK", "TAF OEDM 130400Z 1305/1321 16015KT CAVOK BECMG 1318/1320 16008KT", "TAF OEDR 131000Z 1312/1418 02010KT CAVOK BECMG 1318/1320 VRB03KT 8000 NSC TEMPO 1400/1404 3000 BR BECMG 1409/1411 07008KT CAVOK", "TAF OEGN 131100Z 1312/1418 30012KT 9999 FEW030 TEMPO 1312/1320 TS SCT030 FEW035CB BECMG 1320/1322 VRB03KT 7000 NSC BECMG 1406/1408 29012KT", "TAF OEGS 131100Z 1312/1418 15010KT CAVOK BECMG 1402/1404 VRB03KT BECMG 1406/1408 19012KT", "TAF OEGT 131100Z 1312/1418 31014KT CAVOK BECMG 1320/1322 VRB03KT BECMG 1406/1408 31012KT", "TAF OEHL 131100Z 1312/1418 20016KT 7000 NSC BECMG 1318/1320 24013KT 9999 FEW040 PROB30 TEMPO 1318/1403 FEW030CB BECMG 1406/1408 22014KT", "TAF OEJN 131100Z 1312/1418 28012KT 9999 FEW040 BECMG 1318/1320 VRB03KT 7000 FEW030 PROB40 TEMPO 1400/1404 3000 BR FEW020 BECMG 1406/1408 28010KT", "TAF OEKJ 131100Z 1312/1418 09010KT CAVOK BECMG 1320/1322 VRB03KT BECMG 1407/1409 09012KT", "TAF OEKM 131100Z 1312/1418 05010KT 9999 FEW020 PROB30 TEMPO 1312/1318 FEW025CB BECMG 1320/1322 VRB03KT CAVOK BECMG 1406/1408 08008KT", "TAF OEMA 131100Z 1312/1418 20010KT 9999 FEW045 BECMG 1318/1320 08008KT PROB30 TEMPO 1318/1402 4000 DU FEW030CB BECMG 1406/1408 18008KT", "TAF OENG 131100Z 1312/1418 06010KT CAVOK BECMG 1318/1320 VRB03KT BECMG 1400/1402 28006KT", "TAF OEPA 131000Z 1312/1418 18012KT CAVOK", "TAF OEPS 130100Z 1301/1407 30003KT 9999 SKC QNH3003INS BECMG 1310/1311 07010G16KT 9999 SKC QNH3000INS BECMG 1315/1316 08009KT 9999 SKC QNH3003INS TX35/1311Z TN23/1303Z", "TAF OERF 131100Z 1312/1418 18014KT 7000 NSC BECMG 1320/1322 24006KT BECMG 1406/1408 20014KT", "TAF OERK 131100Z 1312/1418 09012KT CAVOK BECMG 1321/1323 VRB03KT BECMG 1406/1408 13010KT", "TAF OERR 131100Z 1312/1418 24012KT CAVOK BECMG 1320/1322 31010KT BECMG 1408/1410 22014KT", "TAF OESH 131100Z 1312/1418 03010KT CAVOK BECMG 1318/1320 09008KT", "TAF OESK 131100Z 1312/1418 26012KT CAVOK BECMG 1320/1322 VRB03KT BECMG 1406/1408 25010KT", "TAF OETB 131100Z 1312/1418 27010KT CAVOK BECMG 1322/1400 VRB03KT BECMG 1408/1410 24010KT", "TAF OETF 131100Z 1312/1418 09012KT 9999 FEW030 PROB30 TEMPO 1312/1318 FEW025CB BECMG 1316/1318 28010KT CAVOK BECMG 1322/1400 19008KT", "TAF OETR 131100Z 1312/1418 27010KT CAVOK BECMG 1320/1322 36006KT BECMG 1408/1410 25010KT", "TAF OEWD 131100Z 1312/1418 09010KT CAVOK BECMG 1320/1322 VRB03KT", "TAF OEWJ 131100Z 1312/1418 33018KT CAVOK BECMG 1318/1320 35008KT BECMG 1408/1410 29012KT", "TAF OEYN 131100Z 1312/1418 28016KT 9999 FEW040 BECMG 1320/1322 VRB03KT CAVOK BECMG 1406/1408 25012KT", "TAF OIAA 131110Z 1312/1418 28008KT 7000 NSC TEMPO 1312/1315 32014KT BECMG 1317/1319 12006KT TEMPO 1323/1405 4000 HZ BECMG 1406/1408 20008KT", "TAF OIAW 131110Z 1312/1418 28008KT 7000 NSC TEMPO 1312/1315 32014KT BECMG 1318/1320 06008KT TEMPO 1401/1405 5000 HZ BECMG 1407/1409 20008KT", "TAF OIBB 131130Z 1312/1321 32008KT 7000 NSC TEMPO 1312/1317 32018KT 4000 SA", "TAF OIBK 131110Z 1312/1418 20010KT 4000 HZ FEW030 BECMG 1316/1318 28008KT 3000 HZ/BR TEMPO 1322/1404 2000 BR SCT025 BECMG 1406/1408 16010KT 5000 HZ BECMG 1416/1418 28008KT 4000 HZ/BR", "TAF OIBP 131130Z 1312/1321 20008KT 6000 NSC", "TAF OICC 131130Z 1312/1321 28008KT 8000 NSC", "TAF OICI 131110Z 1312/1418 20008KT 8000 NSC TEMPO 1312/1315 25016KT FEW035 SCT100 BECMG 1316/1318 12008KT TEMPO 1407/1415 20018KT FEW035TCU SCT040 SCT100", "TAF OIFM 131110Z 1312/1418 20008KT 7000 NSC PROB30 TEMPO 1402/1406 5000 HZ TEMPO 1412/1416 06014KT FEW035TCU SCT040 SCT100", "TAF OIGG 131130Z 1312/1321 30008KT 6000 SCT015 FEW020CB SCT030 BKN080 TEMPO 1312/1315 3000 RA/DZ BR SCT010CB BKN015 OVC070 TEMPO 1315/1321 4000 RA/DZ BR", "TAF OIIE 131110Z 1312/1418 12010KT CAVOK BECMG 1320/1322 32008KT", "TAF OIII 131110Z 1312/1418 14006KT 8000 NSC TEMPO 1312/1315 23014KT FEW040TCU SCT100 BECMG 1319/1321 34008KT BECMG 1408/1410 16010KT", "TAF OIIP 131130Z 1312/1321 14010KT 7000 FEW040 SCT100 TEMPO 1312/1316 FEW035TCU SCT040 BKN100 BECMG 1316/1318 31010KT", "TAF OIKB 131110Z 1312/1418 12008KT 6000 FEW030 TEMPO 1312/1315 20014KT BECMG 1315/1317 06008KT 4000 HZ/BR TEMPO 1322/1404 2000 BR SCT020 BECMG 1406/1408 12008KT 6000 NSC TEMPO 1408//1414 20016KT", "TAF OIKK 131110Z 1312/1418 12008KT 8000 NSC TEMPO 1312/1316 06014KT TEMPO 1412/1416 06014KT SCT040", "TAF OIMM 131110Z 1312/1418 08008KT CAVOK TEMPO 1312/1315 14016KT TEMPO 1408/1415 12018KT", "TAF OING 131130Z 1312/1321 08008KT 7000 FEW030 SCT090 TEMPO 1312/1318 FEW030CB SCT035 BKN090", "TAF OINZ 131130Z 1312/1321 02008KT 7000 FEW030 SCT100", "TAF OISL 131110Z 1312/1418 20008KT 8000 NSC TEMPO 1312/1315 24014KT FEW035TCU", "TAF OISS 131110Z 1312/1418 16008KT 7000 NSC TEMPO 1312/1315 25014KT", "TAF OITL 131130Z 1312/1321 06016KT 7000 BKN005 TEMPO 1312/1315 4000 DZ BR BKN004 FEW025CB OVC090 BECMG 1317/1319 08006KT", "TAF OITR 131110Z 1312/1418 28008KT FEW040 BKN100 TEMPO 1312/1315 04014KT FEW035CB SCT040 BKN100 BECMG 1318/1320 34006KT CAVOK TEMPO 1409/1415 28012KT", "TAF OITT 131110Z 1312/1418 04010KT 9999 FEW040 SCT100 TEMPO 1312/1317 10016KT FEW035CB SCT040 BKN100 PROB40 1312/1315 5000 TS/SHRA BECMG 1319/1321 34006KT CAVOK BECMG 1405/1407 06008KT TEMPO 1408/1414 12016KT", "TAF OIYY 131130Z 1312/1321 04008KT 8000 NSC BECMG 1314/1316 28008KT", "TAF OIZH 131110Z 1312/1418 06008KT 8000 NSC TEMPO 1312/1315 03016KT TEMPO 1409/1415 03014KT", "TAF OJAI 131022Z 1312/1418 28012KT 5000 HZ SCT030 PROB40 1400/1406 28004KT 0800 FG", "TAF OJAM 131022Z 1312/1418 29010KT 6000 SCT030 PROB40 1400/1406 3000 BR", "TAF OJAQ 131022Z 1312/1418 35014KT 6000 NSC", "TAF OKAS 130000Z 1300/1406 VRB06KT 9999 SKC QNH2984INS BECMG 1310/1311 09012KT 9999 SKC QNH2987INS BECMG 1318/1319 13009KT 9999 SKC QNH2988INS TX35/1313Z TN19/1303Z", "TAF OKBK 130500Z 1306/1412 VRB03KT 7000 NSC", "TAF OLBA 131000Z 1312/1418 23012KT 8000 SCT023 TEMPO 1312/1406 6000 -RA BKN023 BECMG 1320/1322 16008KT BECMG 1406/1408 20010KT SCT026", "TAF OMAA 131100Z 1312/1418 32012KT 8000 NSC BECMG 1312/1314 32012KT BECMG 1317/1319 06006KT PROB30 1400/1404 4000 HZ BECMG 1402/1404 16010KT BECMG 1409/1411 32012KT", "TAF OMAD 131100Z 1312/1418 32010KT 8000 NSC BECMG 1317/1319 06005KT PROB30 1400/1404 4000 HZ BECMG 1402/1404 16008KT BECMG 1409/1411 32010KT", "TAF OMAL 131100Z 1312/1418 14005KT 8000 NSC BECMG 1312/1314 36008KT BECMG 1316/1318 06006KT BECMG 1323/1401 16012KT BECMG 1412/1414 30006KT", "TAF OMDB 131100Z 1312/1418 33010KT 8000 NSC BECMG 1316/1318 10005KT BECMG 1403/1405 19010KT BECMG 1408/1410 33010KT BECMG 1415/1417 08005KT", "TAF OMDW 131100Z 1312/1418 33012KT 8000 NSC BECMG 1316/1318 12005KT PROB30 1321/1403 3000 HZ BECMG 1402/1404 17012KT BECMG 1410/1412 33012KT BECMG 1415/1417 08005KT", "TAF OMFJ 131100Z 1312/1418 10006KT 8000 NSC BECMG 1314/1316 VRB03KT BECMG 1322/1400 30005KT BECMG 1406/1408 10007KT", "TAF OMRK 131100Z 1312/1418 33010KT 8000 NSC BECMG 1315/1317 VRB02KT PROB30 1321/1404 3000 HZ BECMG 1403/1405 20010KT BECMG 1408/1410 33010KT BECMG 1414/1416 VRB02KT", "TAF OMSJ 131100Z 1312/1418 33010KT 8000 NSC BECMG 1316/1318 13005KT PROB30 1321/1404 3000 HZ BECMG 1403/1405 19010KT BECMG 1409/1411 33010KT BECMG 1415/1417 08005KT", "TAF OODQ 130500Z 1306/1406 22010KT 8000 FEW020 BECMG 1307/1309 12012KT BECMG 1318/1320 21008KT PROB30 TEMPO 1322/1405 4000 BR BKN015", "TAF OOMS 131100Z 1312/1418 05012KT 8000 NSC BECMG 1316/1318 23009KT BECMG 1406/1408 03012KT BECMG 1416/1418 VRB02KT", "TAF OOSA 131140Z 1312/1418 19014KT 9999 FEW025 BECMG 1316/1318 VRB03KT BECMG 1407/1409 18013KT", "TAF OOSH 131100Z 1312/1418 06010KT 8000 NSC BECMG 1316/1318 VRB02KT BECMG 1407/1409 08010KT BECMG 1416/1418 VRB02KT", "TAF OPBW 130945Z 1312/1406 15012KT 4000 FU SCT120 TN20/1401Z", "TAF OPDG 130945Z 1312/1406 05012KT 4000 FU SCT120 TN20/1401Z", "TAF OPFA 130945Z 1312/1406 18004KT 4000 FU FEW040 TN21/1401Z TEMPO 1401/1405 VRB02KT 1500 BR NSC", "TAF OPGD 130930Z 1312/1412 24008KT 4000 HZ SCT030 BECMG 1318/1320 VRB03KT 2500 FU SCT025 TEMPO 1400/1405 00000KT 1000 BR SCT020 FM140600 23010KT 5000 HZ FEW030", "TAF OPIS 130930Z 1312/1418 27010KT 5000 HZ NSC TEMPO 1323/1403 12010KT 2000 BR TEMPO 1409/1413 30010G20KT 7000 FEW040 SCT100", "TAF OPKC 130930Z 1312/1418 25008KT 5000 HZ FEW020 BECMG 1316/1318 34007KT 4000 HZ NSC TEMPO 1401/1406 VRB03KT 3000 FU NSC FM140800 28012KT 6000 NSC", "TAF OPLA 130350Z 1306/1412 31008KT 5000 HZ NSC TX32/1310Z TN20/1401Z TEMPO FM131500 VRB02KT 4000 FU NSC TEMPO 1400/1404 00000KT 1500 BR FM 140600 31010KT 5000 HZ NSC", "TAF OPMT 130945Z 1312/1406 36012KT 4000 FU SCT120 TN19/1401Z", "TAF OPNH 130930Z 1312/1418 18005KT 5000 HZ NSC BECMG 1316/1318 VRB03KT 4000 HZ NSC TEMPO 1401/1405 00000KT 3000 FU NSC FM140600 18007KT 5000 HZ NSC", "TAF OPPS 130930Z 1312/1418 05006KT 5000 HZ NSC TEMPO 1321/1402 VRB02KT 2500 FU BECMG 1402/1404 31006KT 6000", "TAF OPRK 130945Z 1312/1406 35012KT 4000 FU SCT120 TN20/1401Z", "TAF OPSK 130930Z 1312/1412 VRB03KT 4000 HZ NSC TEMPO 1401/1405 00000KT 3000 FU NSC FM140600 18007KT 5000 HZ NSC", "TAF OPST 130945Z 1312/1418 31006KT 4000 FU FEW040 TX31/1410Z TN19/1401Z TRMPO 1400/1400 05003KT 1000 BR", "TAF ORBI 131000Z 1312/1412 08007KT 5000 DU NSC BECMG 1314/1316 12005KT 8000", "TAF ORER 131100Z 1312/1412 26008KT 7000 FEW040 SCT100 BECMG 1318/1320 VRB02KT", "TAF ORMM 131000Z 1312/1412 33011KT CAVOK BECMG 1321/1323 12004KT PROB40 TEMPO 1321/1405 3000 DU NSC", "TAF ORNI 131000Z 1312/1412 13005KT 8000 NSC", "TAF ORSU 131100Z 1312/1412 25010KT CAVOK BECMG 1315/1317 32005KT ", "OSAP 131100Z 1312/1412 24008KT 9999 FEW030 BECMG 1314/1316 31008KT 9999 SCT030 BKN100", "OSDI 131100Z 1312/1418 24010G20KT 9999 FEW030 SCT100 TEMPO 1320/1410 22010KT CAVOK", "OSLK 131100Z 1312/1412 24010G20KT 9999 SCT030", "TAF OTBD 131129Z 1312/1418 08007KT 8000 NSC TEMPO 1312/1318 6000 FEW035TCU PROB30 TEMPO 1312/1315 VRB15G25KT 4000 -TSRA FEW030CB TEMPO 1318/1401 02007KT TEMPO 1318/1405 VRB03KT 5000 HZ PROB30 TEMPO 1400/1404 2500 BR", "TAF OTBH 130000Z 1300/1406 VRB06KT 9999 SKC QNH2979INS BECMG 1301/1302 VRB06KT 8000 HZ SKC QNH2979INS BECMG 1304/1305 VRB06KT 9999 NSW SKC QNH2978INS BECMG 1311/1312 08009KT 9999 SKC QNH2979INS BECMG 1316/1317 VRB06KT 9999 SKC QNH2982INS TX38/1311Z TN23/1400Z", "TAF OTHH 130514Z 1306/1412 06008KT 8000 NSC TEMPO 1306/1319 VRB03KT TEMPO 1306/1309 32006KT PROB30 TEMPO 1308/1315 6000 FEW035 TCU", "PAAQ 131121Z 1312/1412 30005KT P6SM SKC FM140600 04008KT P6SM SKC", "PABE 131124Z 1312/1412 VRB06KT P6SM SCT002 BKN025 TEMPO 1312/1316 1/2SM FZFG OVC002 FM131600 VRB06KT 6SM BR VCFG SCT002 FM132100 04008KT P6SM SCT025", "TAF PABI 130600Z 1306/1412 28006KT 1600 -SN BKN008 OVC015 620084 510013 QNH2958INS TEMPO 1306/1312 0800 SN BECMG 1314/1315 28009KT 9999 NSW BKN015 OVC025 620153 510023 QNH2965INS BECMG 1407/1408 VRB06KT 9999 FEW019 SCT026 BKN040 510053 QNH3006INS TXM03/1323Z TNM14/1406Z", "PABR 131130Z 1312/1412 31014KT P6SM VCSH FEW025 SCT035 BKN045 FM131400 28011KT 6SM -SHSN BR BKN025 OVC050 FM140300 30012KT 6SM -SHSN BR SCT025 OVC050", "PABT 131130Z 1312/1412 31004KT P6SM -SHSN SCT010 OVC045 TEMPO 1312/1315 BKN010 FM131500 33004KT P6SM SCT035 OVC050 FM132100 VRB03KT P6SM SCT050 BKN100", "PACD 131129Z 1312/1412 14010KT P6SM SCT025 BKN050 FM131800 13020G30KT 6SM -RA SCT015 BKN025 FM140000 13030G40KT 2SM RA BR OVC007", "PACV 131121Z 1312/1412 VRB04KT 3SM BR BKN010 OVC025 TEMPO 1312/1316 6SM BR SCT025 OVC035 FM131800 VRB04KT P6SM SCT050", "PADL 131124Z 1312/1412 VRB03KT P6SM SCT035 FM132200 04010KT P6SM SKC", "PADQ 131121Z 1312/1412 29010G18KT P6SM SKC FM131800 27005KT P6SM SKC FM140500 12008KT P6SM SCT200", "PADU 131124Z 1312/1412 13020G33KT 6SM -RA BR BKN035 TEMPO 1312/1315 4SM -RA BR BKN015 FM131500 12020G33KT 3SM -RA BR OVC015 FM132200 13010KT P6SM VCSH SCT015 BKN040", "TAF PAED 130500Z 1305/1411 01009KT 9999 BKN060 BKN150 QNH2943INS BECMG 1312/1313 35009KT 9999 FEW020 QNH2954INS TX02/1323Z TNM03/1315Z", "TAF PAEI 130600Z 1306/1412 VRB06KT 9999 FEW050 BKN100 QNH2972INS BECMG 1309/1310 VRB06KT 9999 FEW025 BKN050 620504 QNH2969INS TEMPO 1316/1319 32010G15KT FEW050 BECMG 1320/1321 28010KT 9999 BKN025 OVC040 622505 QNH2980INS TX00/1400Z TNM07/1316Z", "PAEN 131121Z 1312/1412 VRB05KT P6SM SKC FM140600 04008KT P6SM SKC", "PAFA 131130Z 1312/1418 VRB03KT P6SM VCFG SCT030 BKN150 BKN180 FM131800 VRB03KT P6SM SCT060 BKN100 FM140000 02003KT P6SM SCT090", "TAF PAFB 130600Z 1306/1412 VRB06KT 9999 FEW010 SCT025 BKN100 620106 QNH2970INS BECMG 1317/1318 27007KT 9999 BKN025 OVC060 620256 QNH2977INS TX00/1400Z TNM08/1314Z", "PAGA 131130Z 1312/1412 VRB03KT 6SM -SN BKN025 OVC040 FM131600 32003KT P6SM VCSH SCT025 OVC050 FM132000 VRB03KT P6SM BKN050 AMD LTD TO CLD VIS WX", "PAGK 131134Z 1312/1412 34007KT 2SM -SN BR OVC025 FM131600 32007KT 5SM -SN OVC030 FM132200 33010KT P6SM FEW030 BKN060 FM140300 VRB03KT P6SM SKC", "PAGS 131120Z 1312/1412 14024G33KT 6SM -RA BR SCT025 OVC050 WS020/18045KT FM131400 14028G38KT 4SM RA BR BKN025 OVC040 WS020/19045KT FM131600 14022G32KT 4SM -RA BR OVC015 WS020/19035KT FM132300 16016G24KT 6SM -RA BR SCT015 OVC025 FM140200 15010KT P6SM -SHRA SCT015 OVC035 AMD LTD TO CLD VIS AND WIND", "PAGY 131120Z 1312/1412 21030G42KT 5SM -RA BR OVC050 WS020/18050KT FM132200 21024G35KT 6SM -RA BR OVC035 WS020/19040KT FM140100 21015G25KT P6SM -RA OVC040 AMD LTD TO CLD VIS AND WIND", "PAHN 131120Z 1312/1412 10015G25KT 2SM +RA BR SCT007 SCT020 OVC035 WS020/18055KT TEMPO 1312/1316 10025G40KT 4SM -RA BR SCT007 OVC015 FM131800 10020G33KT 4SM -RA BR BKN007 OVC015 WS020/18050KT FM140100 10012G20KT 6SM -RA SCT007 OVC020 FM140400 10008G15KT P6SM -SHRA SCT015 OVC035 AMD LTD TO CLD VIS AND WIND", "PAHO 131121Z 1312/1412 VRB06KT P6SM SKC", "PAIL 131124Z 1312/1412 VRB04KT P6SM SKC", "PAJN 131120Z 1312/1412 12025G37KT 4SM RA BR OVC020 WS020/18045KT TEMPO 1312/1316 SCT025 BKN050 OVC070 FM140100 12014G23KT 5SM -RA BR SCT015 OVC025 FM140300 12010KT P6SM -RA SCT015 OVC030", "PAKN 131124Z 1312/1412 VRB04KT P6SM SCT001 TEMPO 1312/1316 1/2SM FZFG VV001", "PAKT 131120Z 1312/1412 14010KT P6SM -RA OVC025 FM131500 15013G24KT 6SM -RA BR OVC015 WS020/17035KT FM132100 14016G23KT 4SM -RA BR OVC015 WS020/19035KT FM140400 14011G17KT 5SM -RA BR OVC015 AMD LTD TO CLD VIS AND WIND 1312/1315", "PAKW 131120Z 1312/1412 17010G18KT P6SM -RA SCT015 OVC030 WS020/19030KT FM131400 17010G20KT 5SM RA BR OVC025 WS020/19040KT FM132100 20015G25KT 5SM RA BR OVC025 WS020/21035KT FM140200 19006KT 6SM -RA BR SCT015 OVC025 WS020/24025KT AMD LTD TO CLD VIS AND WIND", "PAMC 131130Z 1312/1412 00000KT P6SM BKN070 FM131600 VRB03KT P6SM BKN050 FM140900 35003KT P6SM SCT250", "PANC 131121Z 1312/1418 13006KT P6SM SKC FM132100 01005KT P6SM SKC", "PAOM 131130Z 1312/1412 02006KT P6SM FEW025 SCT120", "PAOR 131130Z 1312/1412 32012KT 4SM -SN BR FEW013 BKN025 OVC040 FM131400 31012KT 2SM -SN BR OVC015 FM131900 31013KT 5SM BR VCSH OVC015 FM132100 31013KT P6SM VCSH BKN025 OVC040 FM140300 VRB03KT P6SM BKN050", "PAOT 131130Z 1312/1412 14008KT 6SM BR VCSH SCT025 OVC050 FM132000 20008KT 6SM -SHSN BR BKN025 OVC050 FM132100 24010KT 4SM -SHSN BR OVC025 FM140200 29009KT 6SM -SHSN BR BKN025 OVC050 FM140600 30006KT P6SM VCSH SCT015 OVC050", "PAPG 131120Z 1312/1412 13005KT 6SM -RA BR SCT006 BKN025 OVC035 WS020/17030KT FM131300 12008KT 5SM RA BR SCT006 OVC015 WS020/16035KT FM131900 15008G18KT 5SM RA BR OVC015 WS020/16035KT FM140100 15007KT 5SM -RA BR OVC015 WS020/19030KT FM140400 14004KT 6SM -RA OVC015 AMD LTD TO CLD VIS AND WIND 1312/1315", "PAQT 131130Z 1312/1412 25012KT P6SM VCSH SCT012 BKN040 FM132100 25014KT P6SM VCSH BKN025 OVC040", "PASC 131130Z 1312/1412 24016KT 6SM -SHSN BR BKN015 BKN035 OVC040 FM131700 24017KT 4SM -SHSN BR SCT015 OVC025", "PASD 131129Z 1312/1412 17007KT P6SM BKN100 FM132100 15012G20KT 6SM -RA SCT015 OVC025 FM140000 16012G20KT 4SM -RA BR SCT007 OVC015", "PASI 131120Z 1312/1412 17026G40KT 5SM -RA BR SCT005 OVC025 WS020/19050KT FM131400 15020G30KT 4SM RA BR SCT005 OVC015 WS020/20045KT FM132200 20013G25KT 5SM -RA BR SCT015 OVC020 WS020/21035KT FM140100 22010KT 6SM -RA SCT015 OVC025 FM140400 22005KT P6SM -SHRA SCT020 OVC040", "PASN 131124Z 1312/1412 10020G25KT P6SM -SHRA SCT015 BKN025 TEMPO 1312/1316 SCT025 BKN045 FM131600 08027G37KT P6SM BKN025 OVC050 FM132100 07027G37KT 4SM -RA BR OVC015 FM140300 06027G37KT 2SM -RA BR OVC007", "TAF PASY 130600Z 1306/1412 26012G18KT 8000 -RA BR OVC009 QNH2914INS BECMG 1313/1314 32015G25KT 9000 BR OVC012 510033 QNH2924INS BECMG 1320/1321 36020G35KT 9999 NSW BKN012 OVC020 510004 QNH2957INS BECMG 1407/1408 35025KT 9999 BKN035 BKN050 510023 QNH2986INS TX07/1316Z TN06/1403Z LIMITED METWATCH 1306 TIL 1309", "PATA 131130Z 1312/1412 VRB04KT P6SM BKN050 AMD NOT SKED", "PATK 131121Z 1312/1412 36006KT P6SM SKC", "PAUN 131130Z 1312/1412 06008KT P6SM BKN050", "PAVD 131134Z 1312/1412 08010G20KT 6SM BR FEW003 SCT015 OVC030 FM131600 07010G20KT P6SM SCT025 BKN060 FM140200 07008KT P6SM SKC AMD NOT SKED", "PAWG 130528Z 1306/1406 VRB04KT P6SM -RA FEW015 OVC050 FM131000 13010G20KT 6SM -RA BR SCT007 SCT015 OVC035 WS020/17035KT FM131500 12018G26KT 5SM RA BR SCT007 OVC025 WS020/17040KT FM132100 12015G24KT 4SM RA BR OVC025 WS020/18035KT FM140400 15007G15KT 6SM -RA BR OVC025 AMD LTD TO CLD VIS AND WIND 1306/1315", "PAYA 131120Z 1312/1412 19015G25KT 4SM -RA BR BKN005 OVC015 FM131600 25008KT 6SM -RA BKN015 OVC025 FM132100 24004KT P6SM -SHRA BKN025 OVC040 FM140100 VRB03KT P6SM -SHRA SCT025 OVC045 AMD LTD TO CLD VIS AND WIND", "PGRO 130539Z 1306/1406 23011KT P6SM VCSH FEW015 BKN100", "PGSN 131122Z 1312/1412 10011KT P6SM VCSH SCT015 SCT050 BKN100 TEMPO 1312/1316 4SM SHRA BKN015 BKN050", "TAF PGUA 130200Z 1302/1408 25015KT 9999 VCSH SCT014 BKN045 QNH2967INS TEMPO 1302/1306 20015G20KT 4800 -SHRA BKN009 BKN012 TEMPO 1306/1324 22015G20KT 3200 SHRA VCTS BKN010CB TX30/1303Z TN24/1317Z", "PGUM 131122Z 1312/1418 15006KT P6SM VCSH FEW020 SCT035 BKN050 TEMPO 1312/1316 4SM SHRA BKN015 BKN030 OVC070", "PGWT 130539Z 1306/1406 VRB06KT P6SM VCSH FEW015 BKN100", "TAF AMD PHHI 130120Z 1301/1405 34009KT 9999 SCT015 BKN030 OVC150 QNH2992INS TEMPO 1301/1303 8000 -SHRA BKN010 OVC025 TEMPO 1303/1308 1600 TSRA BKN005 BKN010CB OVC035 BECMG 1311/1312 VRB06KT 4800 BR BKN025 OVC035 QNH2994INS TEMPO 1312/1314 1200 BR BKN004 OVC010 BECMG 1319/1320 02009KT 9999 NSW SCT025 BKN035 QNH2999INS TX27/1301Z TN20/1315Z", "PHJH 122339Z 1300/1324 31008KT P6SM VCSH SCT030 SCT045 FM130600 VRB06KT P6SM VCSH FEW030 SCT050 FM132000 35010KT P6SM FEW030 FEW050", "PHJR 131123Z 1312/1412 VRB04KT P6SM VCSH SCT020 BKN040 FM132000 23009KT P6SM VCSH SCT020 BKN040 FM140500 VRB05KT P6SM VCSH SCT025 BKN040", "PHKO 131123Z 1312/1412 13005KT P6SM VCSH SCT020 BKN045 FM132000 25011KT P6SM SCT030 BKN040 FM140500 VRB06KT P6SM VCSH SCT025 BKN040", "PHLI 131123Z 1312/1412 29006KT P6SM VCSH SCT020 BKN045 FM132000 03009KT P6SM VCSH SCT025 SCT040 FM140400 29006KT P6SM VCSH SCT020 BKN040", "PHMK 131123Z 1312/1412 VRB05KT P6SM VCSH FEW025 SCT040 FM132000 02008KT P6SM SCT025 SCT040 FM140500 VRB05KT P6SM SCT025 SCT040", "TAF AMD PHNG 1303/1403 VRB05KT 9999 BKN030 BKN050 QNH2987INS TEMPO 1303/1309 6000 +SHRA VCTS BKN030 OVC040 T24/1314Z T28/1321Z", "PHNL 131123Z 1312/1418 35005KT P6SM VCSH SCT020 BKN040 FM132000 20009KT P6SM SCT025 BKN040 FM140500 VRB05KT P6SM SCT025 SCT045", "PHNY 131123Z 1312/1412 VRB05KT P6SM VCSH SCT010 BKN030 FM132000 28007KT P6SM SCT015 FM140000 28007KT P6SM VCSH BKN015", "PHOG 131123Z 1312/1412 VRB06KT P6SM FEW030 SCT045 FM132000 02012KT P6SM SCT030 SCT045 FM140500 VRB06KT P6SM FEW030 SCT045", "PHTO 131123Z 1312/1412 24005KT P6SM SCT025 SCT040 FM132000 06009KT P6SM VCSH SCT025 SCT040 FM140500 24005KT P6SM VCSH SCT025 BKN045", "PKMJ 131122Z 1312/1412 08015KT P6SM VCSH SCT015 SCT050 BKN120 TEMPO 1312/1316 4SM SHRA BKN015 OVC050", "PKWA 131122Z 1312/1412 08011KT P6SM VCSH FEW020 SCT120", "TAF PLCH 131116Z 1312/1412 11008KT 9999 FEW020 PROB30 TEMPO 1318/1406 11010G20KT", "PMDY 131123Z 1312/1412 07011KT P6SM SCT030 SCT050 FM132100 08009KT P6SM FEW030 FEW050", "PTKK 131122Z 1312/1412 10006KT P6SM VCSH FEW014 BKN120", "PTPN 130539Z 1306/1406 VRB06KT P6SM VCSH SCT020 OVC130 TEMPO 1306/1310 13008G18KT 4SM SHRA BKN018 BKN050", "PTRO 131122Z 1312/1412 25011KT P6SM VCSH SCT015 BKN110 TEMPO 1312/1316 4SM SHRA BKN015 OVC100", "PTSA 122336Z 1300/1324 VRB06KT P6SM VCSH SCT020 BKN130 TEMPO 1300/1304 -SHRA BKN020", "PTYA 131122Z 1312/1412 25011KT P6SM VCSH SCT016 BKN050 BKN120 TEMPO 1312/1316 4SM SHRA BKN014 OVC110", "TAF PWAK 130600Z 1306/1412 14012KT 9999 SCT020 SCT040 QNH2984INS TEMPO 1307/1314 9000 -SHRA BKN025 TX28/1307Z TN25/1320Z FOR MIL USE ONLY", "TAF RCFN 131100Z 1312/1412 01007KT 9999 FEW016 BKN032 TEMPO 1402/1408 06012KT TEMPO 1408/1412 05010KT FEW010 BKN020", "TAF RCKH 131100Z 1312/1418 36005KT 9000 FEW016 BKN032 TEMPO 1319/1401 07005KT 5000 HZ TEMPO 1402/1408 26009KT TEMPO 1408/1413 30005KT", "TAF RCMQ 131100Z 1312/1412 01016KT 9999 FEW012 SCT020 TX28/1405Z TN20/1321Z BECMG 1314/1317 01012KT TEMPO 1318/1323 FEW010 BKN040 BECMG 1402/1405 01016KT TEMPO 1406/1411 FEW012 BKN060", "TAF RCNN 131100Z 1312/1412 36010KT 9999 FEW012 TX31/1406Z TN21/1320Z BECMG 1314/1317 02004KT BECMG 1400/1403 36010KT FEW012 SCT100", "TAF RCSS 131100Z 1312/1412 07008KT 9999 FEW016 BKN032 TEMPO 1318/1324 6000 -RA FEW010 BKN017 TEMPO 1401/1407 08013KT FEW010 BKN020 TEMPO 1407/1412 11005KT 6000 -RA FEW007 BKN017", "TAF RCTP 131100Z 1312/1418 04020KT 9999 FEW012 BKN024 TEMPO 1318/1324 06015KT 6000 -RA FEW007 BKN014 TEMPO 1401/1408 05025KT FEW009 BKN015 TEMPO 1408/1413 6000 -RA FEW007 BKN014", "TAF RJAA 131109Z 1312/1418 36014KT 6000 -RA FEW004 BKN008 TEMPO 1312/1318 3000 -RA BR FEW002 BKN004 BECMG 1321/1323 FEW010 BKN020", "TAF RJAH 131109Z 1312/1418 01010KT 6000 -RA FEW005 BKN012 TEMPO 1312/1321 3000 -RA BR FEW002 BKN005", "TAF RJBB 131105Z 1312/1418 06010KT 9999 FEW020 SCT050 BECMG 1403/1406 30006KT BECMG 1409/1412 05010KT", "TAF RJCB 131106Z 1312/1418 33005KT 9999 FEW008 BKN015 TEMPO 1312/1322 4000 BR FEW005 BKN008 BECMG 1400/1403 15010KT BECMG 1412/1415 32004KT", "TAF RJCC 131105Z 1312/1418 12003KT 9999 FEW010 SCT030 BECMG 1315/1317 35005KT BECMG 1322/1400 18010KT", "TAF RJCH 131107Z 1312/1418 07007KT 9999 FEW020", "TAF RJCK 131107Z 1312/1418 34007KT 9999 FEW006 BKN015 TEMPO 1315/1321 4000 -SHRA BR FEW004 BKN006 BECMG 1400/1403 18010KT BECMG 1412/1415 34008KT", "TAF RJCM 131106Z 1312/1418 19007KT 9999 FEW006 BKN015 TEMPO 1316/1400 4000 BR FEW003 BKN006", "TAF RJEC 131108Z 1312/1418 17005KT 9999 FEW003 SCT015 TEMPO 1315/1323 3000 BR", "TAF RJFF 131107Z 1312/1418 36005KT 9999 FEW030 BECMG 1315/1317 15004KT BECMG 1400/1403 03006KT BECMG 1412/1415 15005KT", "TAF RJFK 131105Z 1312/1418 08007KT 9999 FEW030 BECMG 1320/1322 04006KT BECMG 1322/1400 10010KT", "TAF RJFM 131106Z 1312/1418 02013KT 9999 FEW020 BKN050", "TAF RJFO 131107Z 1312/1418 25003KT 9999 FEW020 BECMG 1316/1318 03010KT BECMG 1409/1412 29005KT", "TAF RJFR 131107Z 1312/1418 02007KT 9999 FEW025 BECMG 1400/1403 13005KT BECMG 1406/1409 02006KT", "TAF RJFS 131106Z 1312/1418 36005KT 9999 FEW030 BECMG 1320/1322 03009KT", "TAF RJFT 131106Z 1312/1418 06014KT 9999 FEW030 BECMG 1403/1406 32005KT BECMG 1409/1412 06006KT", "TAF RJFU 131107Z 1312/1418 03008KT 9999 FEW030 BECMG 1314/1316 14004KT BECMG 1322/1400 36008KT", "TAF RJGG 131105Z 1312/1418 36006KT 9999 FEW030 SCT050 BECMG 1403/1406 22006KT BECMG 1412/1415 34005KT", "TAF RJNK 131105Z 1312/1418 13004KT 9999 FEW030 BECMG 1400/1403 02010KT BECMG 1412/1415 13004KT", "TAF RJNS 131105Z 1312/1418 35004KT 9999 FEW020 SCT050 BECMG 1322/1400 06008KT BECMG 1409/1412 32005KT", "TAF RJNT 131105Z 1312/1418 20004KT 9999 FEW020 BKN030 BECMG 1400/1403 36006KT BECMG 1409/1412 20004KT", "TAF RJOA 131105Z 1312/1418 05006KT 9999 FEW030", "TAF RJOB 131106Z 1312/1418 36005KT 9999 FEW030", "TAF RJOC 131105Z 1312/1418 10004KT 9999 FEW030 BECMG 1313/1315 17006KT BECMG 1400/1403 07011KT BECMG 1412/1415 17005KT", "TAF RJOH 131106Z 1312/1418 07009KT 9999 FEW030 BECMG 1314/1316 18005KT BECMG 1400/1403 05010KT BECMG 1412/1415 18004KT", "TAF RJOI 1303/1403 07012KT 9999 FEW030 512509 513409 QNH3008INS BECMG 1309/1311 01009KT 9999 FEW030 FEW250 512509 513409 QNH3006INS BECMG 1313/1315 01012KT 9999 SCT025 SCT250 512509 513409 QNH3004INS FM140200 08009KT 9999 FEW020 SCT250 512509 513409 QNH2999INS T25/1305Z T17/1321Z", "TAF RJOK 131107Z 1312/1418 35008KT 9999 FEW025 BECMG 1400/1403 18008KT BECMG 1406/1409 35006KT", "TAF RJOM 131107Z 1312/1418 12006KT 9999 FEW030 BECMG 1322/1400 35009KT BECMG 1406/1409 12007KT", "TAF RJOO 131106Z 1312/1418 32004KT 9999 FEW025 BECMG 1400/1403 07006KT BECMG 1406/1409 35008KT", "TAF RJOT 131107Z 1312/1418 15006KT 9999 FEW025", "TAF RJSA 131108Z 1312/1418 20004KT 9999 FEW010 BECMG 1322/1400 02008KT BECMG 1409/1412 20004KT", "TAF RJSF 131109Z 1312/1418 36008KT 3000 -RA BR FEW001 BKN003 BKN005 TEMPO 1312/1322 0700 -RA FG BECMG 1322/1400 9999 NSW FEW010 SCT015", "TAF RJSI 131105Z 1312/1418 01004KT 9999 FEW020 BKN040 TEMPO 1318/1400 1500 BR FEW001 BKN003 BECMG 1400/1403 19005KT BECMG 1409/1412 01004KT", "TAF RJSK 131107Z 1312/1418 13005KT 9999 FEW020 TEMPO 1318/1400 1500 BR FEW001 BKN003", "TAF RJSN 131105Z 1312/1418 10004KT 9999 FEW030 SCT070 BECMG 1403/1406 03010KT BECMG 1412/1415 13005KT", "TAF RJSS 131105Z 1312/1418 34004KT 9999 FEW020 BKN030 BECMG 1400/1403 10008KT BECMG 1409/1412 34004KT", "TAF RJTT 131105Z 1312/1418 36017KT 9999 FEW015 BKN020 TEMPO 1312/1315 FEW005 BKN008", "TAF RJTY 130503Z 1305/1411 03012KT 9999 SCT015 BKN025 OVC035 QNH3022INS TEMPO 1306/1310 9000 -RA BKN015 OVC025 BECMG 1310/1311 35009KT 9999 SCT008 BKN015 OVC025 QNH3015INS BECMG 1400/1401 01012KT 9999 SCT025 BKN040 QNH3005INS TX22/1405Z TN14/1321Z", "TAF RKJB 131100Z 1312/1418 11005KT 7000 NSC TN11/1321Z TX22/1405Z BECMG 1403/1404 35008KT BECMG 1411/1412 11005KT", "TAF RKJK 130000Z 1300/1406 08009KT 9999 SKC QNH3030INS BECMG 1307/1308 35006KT 9999 SKC QNH3018INS BECMG 1314/1315 10006KT 8000 BR BKN240 QNH3016INS TEMPO 1320/1323 4800 BR BECMG 1323/1324 07009KT 9999 NSW BKN180 QNH3014INS TX19/1306Z TN13/1321Z", "TAF RKNY 131100Z 1312/1418 25006KT CAVOK TN11/1321Z TX19/1405Z BECMG 1323/1401 11005KT BECMG 1411/1412 25006KT", "TAF RKPC 131100Z 1312/1418 10010KT 9999 SCT030 TN17/1321Z TX21/1405Z BECMG 1318/1319 BKN030 BECMG 1400/1401 07015G25KT BECMG 1404/1405 SCT030 BECMG 1409/1410 10010KT", "TAF RKPK 131100Z 1312/1418 01006KT 9999 FEW040 TN14/1321Z TX25/1406Z TEMPO 1402/1405 03008KT BKN030 BKN200", "TAF RKSG 131100Z 1311/1417 VRB06KT 9999 FEW230 QNH3008INS TX20/1406Z TN10/1321Z", "TAF RKSI 131100Z 1312/1418 01006KT CAVOK TN13/1321Z TX20/1405Z BECMG 1316/1318 08006KT BECMG 1403/1405 31006KT BECMG 1416/1418 01010KT", "TAF RKSM 131100Z 1312/1418 24006KT 9999 SCT200 TN11/1321Z TX22/1406Z", "TAF RKSO 130500Z 1305/1411 03009KT 9999 FEW030 QNH3020INS BECMG 1312/1313 35006KT 9000 BR FEW030 FEW200 QNH3018INS BECMG 1318/1319 10006KT 8000 BR FEW030 FEW200 QNH3017INS BECMG 1400/1401 33006KT 9999 NSW FEW030 FEW200 QNH3008INS TX22/1305Z TN09/1321Z", "TAF RKSS 131100Z 1312/1418 36005KT CAVOK TN10/1321Z TX22/1405Z BECMG 1317/1318 08005KT 6000 NSC BECMG 1401/1402 33005KT CAVOK", "TAF RKTN 130500Z 1306/1412 13006KT 9999 FEW040 TN11/1321Z TX24/1406Z", "TAF RKTU 131100Z 1312/1418 09006KT CAVOK TN09/1321Z TX23/1406Z BECMG 1318/1319 4800 BR NSC BECMG 1320/1321 1600 SCT030 BKN200 BECMG 1400/1401 4800 BECMG 1402/1403 9999 NSW", "TAF ROAH 131108Z 1312/1418 04018KT 9999 SCT020 TEMPO 1406/1409 06018G28KT 4000 SHRA FEW008 BKN015 FEW020CB TEMPO 1409/1418 07018G30KT", "TAF RODN 130000Z 1300/1406 02012G18KT 9999 SCT030 BKN050 QNH2982INS BECMG 1303/1304 03015G20KT 9999 SCT030 BKN050 QNH2972INS BECMG 1320/1321 04012G18KT 9999 VCSH SCT030 BKN050 QNH2973INS TEMPO 1401/1405 8000 -SHRA BKN020 TX29/1305Z TN22/1319Z", "TAF ROIG 131109Z 1312/1418 02015KT 9999 FEW015 BKN025 TEMPO 1314/1321 02020G32KT TEMPO 1409/1412 4000 SHRA", "TAF ROTM 1304/1403 05015G25KT 9999 SCT030 BKN060 QNH2969INS TEMPO 1313/1318 05013KT 9999 SCT030 BKN060 BECMG 1320/1321 05013G20KT 9999 VCSH SCT030 BKN060 QNH2969INS TEMPO 1321/1403 05015G25KT 9000 -SHRA BKN030 BKN060 T29/1304Z T23/1318Z", "TAF RPLB 131100Z 1312/1412 06004KT 9999 FEW020 SCT300 TX33/1405Z TN25/1321Z TEMPO 1312/1318 10008KT 9000 -SHRA FEW016CB SCT018 BKN080", "TAF RPLC 131100Z 1312/1418 34008KT 9999 SCT020 BKN300 TX33/1406Z TN25/1321Z TEMPO 1312/1318 36007KT FEW020 BKN300", "TAF RPLI 131100Z 1312/1412 03008KT 9999 FEW018 BKN090 TEMPO 1312/1318 01012KT 7000 -TSRA FEW017CB SCT018 OVC090", "TAF RPLL 131100Z 1312/1418 26006KT 9999 FEW025 SCT100 TX33/1406Z TN27/1321Z TEMPO 1312/1318 06006KT -SHRA FEW023CB SCT025 OVC100 TEMPO 1318/1324 32005KT SCT023 BKN100", "TAF RPMD 131100Z 1312/1412 35006KT 9999 FEW016 BKN290 TEMPO 1312/1318 02010KT FEW015CB SCT016 BKN090 BECMG 1401/1403 15006KT", "TAF RPMR 131100Z 1312/1412 20006KT 9999 FEW018 BKN250 TEMPO 1312/1318 30008KT FEW017CB BKN080", "TAF RPMZ 131100Z 1312/1412 25006KT 9999 FEW017 SCT090 BKN300 TEMPO 1312/1318 VRB03KT -SHRA FEW016CB SCT017 BKN090", "TAF RPVD 131100Z 1312/1412 07006KT 9999 FEW015 BKN220 TEMPO 1312/1318 30005KT -SHRA FEW014CB SCT015 BKN070", "TAF RPVM 131100Z 1312/1418 22005KT 9999 FEW020 BKN300 TEMPO 1312/1318 28006KT -SHRA FEW018CB BKN100 TEMPO 1318/1324 27004KT FEW018CB BKN300", "TAF RPVP 131100Z 1312/1412 21008KT 9999 FEW019 SCT080 BKN240 TEMPO 1312/1318 27012KT FEW017CB BKN080", "TAF SAAR 131100Z 1312/1412 18020KT CAVOK TX24/1319Z TN12/1410Z BECMG 1318/1319 16010KT BECMG 1406/1408 09015KT ", "TAF SABE 131100Z 1312/1412 18015KT CAVOK TX20/1319Z TN11/1410Z BECMG 1319/1320 09015KT ", "TAF SACO 131100Z 1312/1412 18020G30KT 5000 BLDU NSC TX22/1319Z TN06/1310Z BECMG 1314/1317 18015KT 8000 SCT050 BECMG 1322/1401 14005KT 9999 SCT030 BKN060 BECMG 1403/1406 27005KT 9999 OVC030", "TAF SADF 131100Z 1312/1412 18015G25KT 9000 SCT040 TX19/1318Z TN07/1409Z BECMG 1315/1317 16015KT CAVOK BECMG 1321/1323 09010KT", "TAF SAEZ 131100Z 1312/1412 18015G30KT CAVOK TX18/1318Z TN08/1410Z BECMG 1315/1317 18010KT BECMG 1320/1322 09010KT", "TAF SAME 131100Z 1312/1412 14010KT 7000 DU NSC TX21/1320Z TN07/1411Z BECMG 1315/1317 14005KT 9999 NSW BECMG 1402/1404 20005KT CAVOK", "TAF SANR 122300Z 1300/1324 02005KT CAVOK TX27/1318Z TN12/1310Z BECMG 1306/1309 VRB02KT BECMG 1312/1315 16015G25KT 8000 NSC BECMG 1322/1324 11005KT CAVOK", "TAF SANT 131100Z 1312/1412 36005KT 5000 FU NSC TX30/1318Z TN10/1410Z BECMG 1314/1317 18015G25KT 3000 BLDU NSC BECMG 1322/1401 14005KT 8000 NSC", "TAF SARE 131100Z 1312/1412 02005KT CAVOK TX30/1318Z TN16/1410Z BECMG 1318/1319 16015G25KT BECMG 1400/1401 18010KT", "TAF SARF 131100Z 1312/1412 07005KT CAVOK TX30/1318Z TN15/1410Z BECMG 1317/1318 16010G20KT BECMG 1401/1402 16005KT", "TAF SARI 131100Z 1312/1412 VRB03KT 9999 SCT005 BKN015 SCT040 TX22/1315Z TN16/1410Z BECMG 1317/1319 6000 TSRA BKN008 BKN020 BKN040 BECMG 1401/1402 0500 FG OVC005", "TAF SARP 131100Z 1312/1412 11005KT 9999 BKN040 SCT100 TX27/1318Z TN14/1410Z BECMG 1317/1318 16005KT CAVOK", "TAF SASA 131100Z 1312/1412 VRB03KT CAVOK TX27/1318Z TN07/1410Z BECMG 1317/1320 09015KT 9999 SCT030 BECMG 1401/1404 34005KT", "TAF SASJ 131100Z 1312/1412 32005KT CAVOK TX30/1318Z TN12/1410Z BECMG 1314/137 07010KT 9999 SCT030 BECMG 1400/1403 32010KT", "TAF SAVC 130500Z 1306/1406 19015KT 9999 FEW035 BKN040 TX16/1318Z TN02/1310Z BECMG 1308/1310 29015KT CAVOK ", "TAF SAWE 131100Z 1312/1412 27015G25KT CAVOK TX09/1318Z TN01/1312Z BECMG 1318/1320 27015KT BECMG 1323/1401 27025G35KT SCT030 BKN060 ", "TAF SAWG 131100Z 1312/1412 25025G35KT 9999 SCT025 BKN070 TX14/1319Z TNM00/1312Z BECMG 1313/1315 27015KT CAVOK BECMG 1321/1323 34010KT DZ BKN025 BECMG 1402/1404 27010KT CAVOK ", "TAF SAWH 130500Z 1306/1406 29015KT 5000 SN DZ BKN004 OVC025 TX09/1318Z TNM02/1309Z BECMG 1312/1314 9999 DZ SCT035 OVC045 BECMG 1318/1320 9999 NSW SCT030 ", "TAF SAZM 131100Z 1312/1412 23020KT 9999 SCT025 TX13/1318Z TN02/1409Z BECMG 1323/1401 18010KT CAVOK BECMG 1404/1406 VRB03KT", "TAF SAZN 131100Z 1312/1412 25010KT CAVOK TX18/1319Z TN06/1410Z BECMG 1314/1315 30005KT BECMG 1402/1414 VRB03KT", "TAF SAZS 131100Z 1312/1412 29010KT CAVOK TX09/1319Z TN01/1411Z BECMG 1315/1316 29015KT BECMG 1401/1402 VRB03KT BECMG 1404/1406 4000 BR OVC020 BECMG 1410/1412 9999 SCT035 ", "TAF SBAC 130830Z 1312/1324 04010KT 9999 SCT030 TX33/1317Z TN25/1324Z BECMG 1319/1321 06015KT FEW030 RMK PHN", "TAF SBAF 130300Z 1306/1318 05005KT 9999 SCT020 TN20/1309Z TX30/1317Z PROB30 1306/1308 BKN004 PROB30 1308/1310 BKN008 RMK PEU", "TAF SBAN 130300Z 1306/1318 09008KT CAVOK TN19/1309Z TX32/1317Z RMK PEU", "TAF SBAR 130830Z 1312/1412 12010KT 9999 SCT020 TX29/1315Z TN25/1408Z RMK PHN", "TAF SBAT 130100Z 1306/1318 27005KT 9999 SCT025 TN22/1307Z TX30/1317Z PROB30 1310/1312 5000 BR RMK PHD", "TAF SBBE 130845Z 1312/1412 07010KT 9999 BKN030 TX30/1318Z TN29/1412Z BECMG 1315/1317 36005KT BKN035 FEW040TCU PROB30 1318/1321 TS BKN020 FEW025CB BECMG 1322/1324 05010KT FEW030 BECMG 1410/1412 08005KT FEW015 RMK PGY", "TAF SBBG 130900Z 1312/1324 05009KT CAVOK TN10/1312Z TX23/1317Z BECMG 1313/1315 22010KT 9999 SCT030 BECMG 1321/1323 CAVOK RMK PEN", "TAF SBBI 130300Z 1306/1318 01007KT 8000 SCT010 BKN048 TN15/1309Z TX21/1317Z TEMPO 1316/1318 4000 RA RMK PEU", "TAF SBBR 130830Z 1312/1412 07010KT CAVOK TX32/1317Z TN19/1409Z BECMG 1319/1321 11005KT BECMG 1404/1406 08005KT RMK PGL", "TAF SBBU 130430Z 1306/1318 14005KT CAVOK TN19/1308Z TX31/1317Z BECMG 1313/1315 06005KT FEW040 BECMG 1316/1318 35008KT SCT040 RMK PGH", "TAF SBBV 130845Z 1312/1412 34005KT 9999 FEW010 TX32/1318Z TN26/1412Z BECMG 1314/1316 06005KT SCT030 FEW040TCU BECMG 1403/1406 07005KT 4000 TSRA FEW020 FEW035CB BECMG 1410/1412 31005KT 9999 NSW SCT008 RMK PGY", "TAF SBBW 130440Z 1306/1318 24002KT 9999 FEW015 TN21/1307Z TX33/1317Z BECMG 1310/1312 12005KT CAVOK BECMG 1313/1315 07008KT RMK PGL", "TAF SBCB 130830Z 1312/1324 05015KT 8000 SCT015 TX26/1318Z TN23/1324Z BECMG 1312/1314 SCT025 TEMPO 1314/1320 08015G25KT BECMG 1321/1323 07018KT RMK PHN", "TAF SBCF 130830Z 1312/1412 14004KT CAVOK TX32/1318Z TN17/1409Z BECMG 1313/1315 04010KT BECMG 1401/1403 12005KT CAVOK RMK PGL", "TAF SBCG 130830Z 1312/1412 07007KT 9999 SCT020 TX27/1317Z TN20/1410Z BECMG 1314/1316 03007KT TEMPO 1318/1321 30006KT TSRA SCT023 FEW045CB BECMG 1321/1323 15004KT BKN010 TEMPO 1403/1409 RA RMK PGL", "TAF SBCJ 130845Z 1312/1324 06005KT 7000 SCT025 TX30/1317Z TN24/1323Z PROB30 1314/1316 5000 FU SCT025 BECMG 1317/1319 00000KT NSC RMK PGY", "TAF SBCO 130300Z 1306/1318 10005KT 4000 BR BKN006 TN14/1306Z TX24/1317Z PROB40 TEMPO 1306/1311 0800 FG BKN003 BECMG 1312/1314 9999 SCT030 RMK PEN", "TAF SBCP 130830Z 1312/1324 04010KT 9999 FEW025 TX30/1318Z TN23/1324Z BECMG 1312/1314 09015KT BECMG 1320/1323 07010KT RMK PHN", "TAF SBCR 130830Z 1312/1412 VRB03KT 8000 FEW020 TX28/1318Z TN21/1409Z TEMPO 1315/1319 RA BKN015 BECMG 1319/1321 23004KT TEMPO 1403/1409 VRB03KT 7000 TSRA BKN010 FEW030CB RMK PGL", "TAF SBCT 130900Z 1312/1412 03008KT 7000 BKN025 FEW035TCU TX22/1317Z TN16/1409Z TEMPO 1401/1408 4000 RA BKN014 FEW025TCU BECMG 1408/1410 BKN007 RMK PEU", "TAF SBCY 130845Z 1312/1412 17005KT 9999 SCT015 TX25/1317Z TN24/1412Z BECMG 1314/1316 12005KT FEW020 BECMG 1320/1322 18005KT BKN015 FEW025TCU BECMG 1400/1402 06005KT BKN015 BECMG 1410/1412 16005KT FEW020 RMK PGY", "TAF SBCZ 130845Z 1312/1412 34005KT 9999 FEW018 TX33/1317Z TN25/1412Z PROB30 1318/1320 TS BKN030 FEW035CB BECMG 1321/1323 36005KT SCT030 BECMG 1400/1402 00000KT CAVOK BECMG 1410/1412 02005KT RMK PGY", "TAF SBDN 130430Z 1306/1318 12005KT 8000 SCT005 TN19/1309Z TX30/1317Z PROB30 1308/1310 5000 BR BKN005 BECMG 1311/1313 06005KT 9999 FEW030 BECMG 1313/1315 02005KT FEW040 RMK PGH", "TAF SBEG 130845Z 1312/1412 24005KT 9999 FEW015 TX31/1318Z TN29/1412Z BECMG 1314/1316 18005KT SCT030 BECMG 1319/1321 25005KT SCT030 FEW035TCU PROB30 1323/1404 TS SCT020 FEW030CB BECMG 1405/1407 00000KT CAVOK BECMG 1410/1412 25005KT FEW020 RMK PGY", "TAF SBFI 130900Z 1312/1412 33005KT 7000 BKN015 FEW030TCU TX23/1318Z TN17/1409Z TEMPO 1312/1314 4000 RA BKN010 FEW035TCU PROB40 1316/1319 5000 TSRA BKN025 FEW030CB BECMG 1400/1401 BKN025 RMK PEU", "TAF SBFL 130900Z 1312/1412 33005KT 6000 RA BKN010 BKN020 TX23/1317Z TN18/1409Z BECMG 1316/1318 06005KT 8000 BKN020 BECMG 1322/1324 12005KT 4000 RA BKN010 BKN020 BECMG 1406/1408 18010G30KT 8000 RA SCT010 BKN020 RMK PFF", "TAF SBFN 130830Z 1312/1324 12013KT 7000 BKN025 TX29/1317Z TN24/1324Z BECMG 1319/1321 17010KT RMK PHN", "TAF SBFZ 130830Z 1312/1412 14013KT 9999 SCT025 TX33/1317Z TN25/1409Z BECMG 1318/1321 09010KT BECMG 1404/1407 14013KT BKN020 RMK PHN", "TAF SBGL 130830Z 1312/1418 04005KT 5000 BR BKN017 TX28/1317Z TN23/1409Z BECMG 1312/1314 8000 NSW SCT015 BECMG 1314/1316 15007KT SCT025 BECMG 1318/1320 21010KT BECMG 1322/1324 32003KT 7000 BKN030 PROB40 1409/1412 4000 BR BKN010 BECMG 1415/1418 14010KT BKN017 RMK PHN", "TAF SBGO 130830Z 1312/1412 07008KT 8000 FEW025 TX34/1318Z TN21/1409Z BECMG 1314/1316 09005KT BECMG 1401/1403 00000KT RMK PGL", "TAF SBGR 130830Z 1312/1418 07005KT 8000 NSC TX29/1317Z TN17/1409Z BECMG 1312/1314 35005KT 9999 SCT020 BECMG 1314/1316 SCT040 BECMG 1320/1322 17007KT BKN020 BECMG 1322/1324 BKN012 BECMG 1402/1404 00000KT 4000 BR BKN004 PROB30 1407/1410 0800 FG OVC002 BECMG 1413/1415 15011KT 9999 NSW BKN030 RMK PGH", "TAF SBGW 130300Z 1306/1318 05006KT CAVOK TN20/1309Z TX32/1317Z RMK PEU", "TAF SBIH 130100Z 1306/1318 00000KT 9999 FEW015 TN24/1307Z TX34/1317Z PROB30 1306/1308 TS SCT015 FEW025CB BECMG 1313/1315 29005KT SCT020 RMK PHD", "TAF SBIL 130440Z 1306/1318 12010KT 9999 SCT023 TN23/1308Z TX27/1317Z RMK PGL", "TAF SBIZ 130100Z 1306/1318 09005KT 9999 SCT020 TN24/1308Z TX36/1317Z RMK PHD", "TAF SBJE 130830Z 1312/1324 10013KT 9999 FEW020 TX37/1316Z TN25/1324Z BECMG 1320/1322 07010KT RMK PHN", "TAF SBJP 130830Z 1312/1412 14015KT 8000 BKN025 TX30/1317Z TN24/1408Z PROB30 1312/1317 5000 DZ BKN012 BECMG 1322/1324 15007KT SCT020 TEMPO 1405/1410 4000 RA BKN015 BECMG 1410/1412 14015KT BKN020 RMK PHN", "TAF SBJV 130300Z 1306/1318 27005KT 0800 FG BKN008 BKN020 TN19/1306Z TX24/1317Z BECMG 1308/1310 22005KT 8000 BKN010 BKN020 BECMG 1312/1314 06005KT 9999 BKN025 RMK PFF", "TAF SBKG 130045Z 1306/1318 14013KT 8000 SCT025 TN23/1309Z TX29/1318Z TEMPO 1306/1308 5000 RA BKN005 BECMG 1310/1312 14015KT 9999 SCT030 RMK PGU", "TAF SBKP 130830Z 1312/1412 09005KT CAVOK TX30/1318Z TN19/1409Z BECMG 1313/1315 35008KT 9999 FEW035 BECMG 1320/1322 15007KT BECMG 1323/1401 14014KT CAVOK PROB30 1408/1411 4000 BR NSC RMK PGH", "TAF SBLO 130830Z 1312/1324 20002KT 4000 BR BKN008 TX24/1316Z TN21/1324Z BECMG 1313/1315 07007KT 8000 NSW SCT020 FEW030TCU TEMPO 1317/1321 TSRA SCT020 FEW030CB BECMG 1322/1324 19005KT RA BKN009 RMK PGH", "TAF SBMA 130845Z 1312/1324 04005KT CAVOK TX36/1317Z TN28/1323Z BECMG 1316/1318 09005KT SCT025 FEW030TCU BECMG 1321/1323 31005KT CAVOK RMK PGY", "TAF SBME 130045Z 1306/1318 05015KT 9999 SCT020 TN23/1309Z TX33/1315Z BECMG 1313/1315 11015KT RMK PGU", "TAF SBMN 130900Z 1312/1324 12005KT CAVOK TX31/1316Z TN27/1323Z PROB30 1316/1318 09005KT 8000 TSRA FEW030 FEW035CB BECMG 1320/1322 06005KT 9999 FEW030 RMK PFF", "TAF SBMO 130830Z 1312/1412 13013KT 8000 BKN025 TX28/1316Z TN23/1409Z PROB30 1312/1313 5000 RA BR BKN015 BECMG 1315/1317 15010KT SCT023 PROB40 TEMPO 1403/1410 4000 RA BR BKN015 BECMG 1410/1412 13015KT BKN020 RMK PHN", "TAF SBMQ 130845Z 1312/1412 03005KT 9999 FEW015 TX35/1318Z TN31/1412Z BECMG 1314/1316 11005KT SCT030 FEW035TCU BECMG 1400/1402 05005KT CAVOK BECMG 1404/1406 36005KT BECMG 1410/1412 33005KT RMK PGY", "TAF SBNF 130900Z 1312/1412 22005KT 9999 BKN010 BKN020 TX22/1317Z TN19/1406Z BECMG 1314/1316 27005KT 8000 RA SCT010 BKN020 PROB30 TEMPO 1322/1324 33005KT 8000 TSRA BKN020 FEW030CB BECMG 1402/1404 12012KT 4000 TSRA BKN012 FEW030CB BECMG 1408/1410 12012G30KT 8000 RA SCT010 BKN020 RMK PFF", "TAF SBNT 130830Z 1312/1324 15015G25KT 8000 BKN020 FEW030TCU TX30/1317Z TN25/1324Z BECMG 1312/1314 SCT030 BECMG 1315/1318 13015KT BECMG 1322/1324 14010KT FEW020 RMK PHN", "TAF SBOI 130845Z 1312/1324 03005KT 9999 SCT020 TX32/1316Z TN22/1323Z PROB30 1315/1317 SCT030 FEW035TCU RMK PGY", "TAF SBPA 130900Z 1312/1412 35005KT 8000 SCT007 TX25/1317Z TN15/1406Z BECMG 1313/1315 9999 SCT030 BECMG 1316/1318 CAVOK BECMG 1322/1324 16008KT 9999 SCT040 RMK PEN", "TAF SBPB 130830Z 1312/1324 13015KT 9999 FEW023 TX33/1316Z TN28/1324Z BECMG 1318/1321 15010KT RMK PHN", "TAF SBPJ 130830Z 1312/1412 25007KT 7000 NSC TX35/1318Z TN25/1409Z PROB40 1312/1315 5000 FU BECMG 1319/1321 15007KT PROB40 1403/1410 14004KT 5000 FU BECMG 1410/1412 5000 FU RMK PHN", "TAF SBPK 130900Z 1312/1412 34009KT 8000 SCT015 TX24/1317Z TN10/1406Z BECMG 1313/1315 23008KT 9999 SCT030 BECMG 1317/1319 CAVOK RMK PEN", "TAF SBPL 130830Z 1312/1412 16015KT 9999 BKN025 TX34/1318Z TN23/1409Z BECMG 1314/1317 18010KT SCT030 BECMG 1406/1409 BKN025 RMK PHN", "TAF SBPP 130830Z 1312/1412 02007KT 8000 BKN015 TX24/1317Z TN19/1409Z PROB30 1312/1313 3000 BR BKN007 BECMG 1314/1316 33006KT BKN015 FEW025TCU TEMPO 1317/1321 TSRA BKN015 FEW025CB BECMG 1322/1324 RA BKN015 PROB30 1408/1411 4000 RA BR BKN007 RMK PGH", "TAF SBPS 130830Z 1312/1412 09010KT 8000 SCT017 TX27/1317Z TN24/1409Z BECMG 1318/1321 12007KT FEW020 BECMG 1402/1404 07007KT BKN017 PROB40 1405/1410 5000 BR BKN013 BECMG 1410/1412 10010KT RMK PHN", "TAF SBPV 130845Z 1312/1412 24005KT 9999 FEW015 TX32/1318Z TN24/1412Z BECMG 1315/1317 31005KT SCT030 FEW035TCU PROB30 1400/1404 10005KT 4000 TSRA FEW020 FEW030CB BECMG 1405/1407 08005KT BECMG 1410/1412 24005KT CAVOK RMK PGY", "TAF SBRB 130845Z 1312/1324 33005KT 9999 SCT015 TX32/1317Z TN23/1323Z PROB30 1318/1323 23005KT 4000 TSRA FEW030 FEW035CB RMK PGY", "TAF SBRF 130830Z 1312/1412 16015KT 8000 SCT020 TX29/1316Z TN25/1408Z BECMG 1400/1402 13010KT BKN020 PROB40 TEMPO 1403/1410 4000 RA BR BKN010 BECMG 1410/1412 17015KT SCT017 RMK PHN", "TAF SBRJ 130830Z 1312/1324 15007KT 4000 BR BKN015 TX26/1318Z TN23/1323Z BECMG 1312/1314 18012KT 8000 NSW SCT015 BKN025 BECMG 1319/1322 14007KT SCT030 RMK PHN", "TAF SBRP 130830Z 1312/1324 02006KT CAVOK TX33/1317Z TN26/1323Z BECMG 1316/1318 34005KT BECMG 1319/1321 15005KT RMK PGL", "TAF SBSC 130300Z 1306/1318 15006KT 9999 SCT020 TN20/1309Z TX30/1317Z PROB40 1306/1308 4000 BR BKN004 PROB40 1308/1310 BKN008 RMK PEU", "TAF SBSG 130830Z 1312/1412 20010KT 8000 BKN030 TX31/1316Z TN22/1408Z TEMPO 1314/1318 17015G25KT BECMG 1321/1323 17007KT FEW023 BECMG 1409/1412 21010KT 6000 BKN017 RMK PHN", "TAF SBSJ 130830Z 1312/1324 00000KT 8000 SCT015 TX30/1318Z TN20/1324Z BECMG 1313/1315 33005KT 9999 FEW040 BECMG 1316/1318 SCT040 BECMG 1320/1322 14009KT 8000 NSC RMK PGH", "TAF SBSL 130830Z 1312/1412 08013KT 9999 SCT020 TX34/1317Z TN27/1408Z BECMG 1315/1317 34015KT BKN020 FEW025TCU BECMG 1320/1323 04010KT CAVOK BECMG 1410/1412 07013KT BKN020 RMK PHN", "TAF SBSM 130300Z 1306/1318 34012KT 8000 NSC TN12/1306Z TX17/1317Z PROB40 TEMPO 1307/1312 0800 FG BKN006 BECMG 1312/1314 24008KT 8000 SCT010 BECMG 1314/1316 9999 SCT030 RMK PEN", "TAF SBSN 130845Z 1312/1412 08005KT 9999 FEW020 TX33/1317Z TN30/1412Z BECMG 1315/1317 02005KT FEW020 BECMG 1404/1406 18005KT FEW015 BECMG 1410/1412 04005KT FEW020 RMK PGY", "TAF SBSP 130830Z 1312/1324 00000KT 8000 NSC TX28/1317Z TN19/1324Z BECMG 1312/1314 34005KT SCT015 BECMG 1314/1316 9999 SCT030 BECMG 1319/1321 17009KT BKN015 BECMG 1322/1324 BKN010 RMK PGH", "TAF SBSV 130830Z 1312/1412 12010KT 9999 SCT023 TX29/1316Z TN24/1408Z TEMPO 1312/1315 7000 SHRA BKN016 FEW023TCU RMK PGL", "TAF SBTD 130830Z 1312/1324 02007KT 4000 BR BKN004 TX22/1316Z TN18/1324Z BECMG 1313/1315 02007KT 8000 NSW BKN020 FEW030TCU TEMPO 1316/1320 TSRA SCT005 BKN020 FEW030CB BECMG 1321/1323 00000KT RA SCT003 BKN005 RMK PGH", "TAF SBTE 130830Z 1312/1324 12010KT 9999 SCT030 TN30/1312Z TX37/1317Z BECMG 1316/1318 14007KT FEW040 BECMG 1321/1323 00000KT RMK PHN", "TAF SBTF 130845Z 1312/1324 22005KT 9999 SCT020 TX33/1317Z TN26/1323Z BECMG 1315/1317 03005KT SCT020 FEW025TCU PROB30 1319/1323 07005KT TS FEW015 FEW035CB RMK PGY", "TAF SBTT 130845Z 1312/1412 07005KT 9999 SCT015 TX32/1318Z TN23/1412Z PROB30 1312/1314 4000 BR FEW006 BECMG 1315/1317 30005KT SCT030 PROB30 1320/1323 TS SCT030 FEW035CB BECMG 1410/1412 07005KT 4000 BR FEW006 RMK PGY", "TAF SBUG 130900Z 1312/1324 06011KT CAVOK TN14/1312Z TX26/1317Z BECMG 1320/1322 9999 SCT040 RMK PEN", "TAF SBUL 130440Z 1306/1318 12007KT CAVOK TN20/1309Z TX32/1317Z BECMG 1310/1312 04010KT RMK PGL", "TAF SBUR 130440Z 1306/1318 10004KT CAVOK TN20/1309Z TX33/1317Z BECMG 1310/1312 02015KT RMK PGL", "TAF SBVH 130100Z 1306/1318 29005KT 9999 SCT015 TN20/1307Z TX31/1317Z BECMG 1314/1316 09010KT SCT020 FEW030TCU RMK PHD", "TAF SBVT 130830Z 1312/1412 35010KT 9999 SCT030 TX31/1316Z TN23/1409Z BECMG 1314/1316 06018KT FEW030 BECMG 1321/1323 02010KT BECMG 1403/1406 7000 SCT015 BECMG 1409/1412 SCT027 RMK PHN", "TAF SBYS 130300Z 1306/1318 03007KT 9999 SCT030 TN19/1309Z TX33/1317Z RMK PEU", "TAF SCAR 131018Z 1312/1412 17004KT 9999 OVC027 TX18/1318Z TN15/1410Z BECMG 1313/1315 22011KT BECMG 1316/1318 CAVOK BECMG 1323/1401 16004KT OVC025", "TAF SCAT 131020Z 1312/1412 36008KT 9999 OVC014 TX17/1318Z TN10/1410Z BECMG 1315/1317 28010KT CAVOK BECMG 1320/1322 22004KT BECMG 1402/1404 OVC006 BECMG 1410/1412 36010KT", "TAF SCBA 131010Z 1312/1412 30025KT 9999 FEW035 TN02/1312Z TX08/1317Z BECMG 1314/1316 30025KT SCT035 BKN120 BECMG 1321/1323 31015KT BKN030", "TAF SCCF 131019Z 1312/1412 10015KT CAVOK TX21/1318Z TNM00/1410Z BECMG 1313/1314 09004KT BECMG 1315/1317 28020KT TEMPO 1317/1321 30025G35KT BECMG 1400/1401 27008KT BECMG 1403/1405 11016KT", "TAF SCCI 131004Z 1312/1412 25020KT 9999 SCT030 TN03/1312Z TX11/1318Z TEMPO 1315/1319 VRB05KT 9000 -SHRA SCT020 BKN040 BECMG 1320/1322 29022KT TEMPO 1406/1411 30024G34KT 7000 -SHRA BKN040", "TAF SCCY 131014Z 1312/1324 02005KT 9999 BKN030 TN03/1312Z TX08/1319Z", "TAF SCDA 131019Z 1312/1412 26004KT 9999 OVC030 TX18/1318Z TN14/1410Z BECMG 1313/1315 FEW030 BECMG 1316/1318 21013KT BECMG 1322/1400 OVC023 BECMG 1403/1405 11004KT", "TAF SCEL 131000Z 1312/1412 16005KT 6000 NSC TX26/1319Z TN07/1410Z BECMG 1313/1315 VRB02KT CAVOK BECMG 1315/1317 20015KT BECMG 1402/1403 17004KT BECMG 1408/1410 7000 NSC", "TAF SCFA 131020Z 1312/1412 30004KT 9999 BKN025 TX16/1316Z TN13/1410Z BECMG 1313/1315 22012KT FEW025 BECMG 1322/1324 BKN018 BECMG 1401/1403 16004KT BECMG 1405/1407 01005KT OVC024", "TAF SCIE 131000Z 1312/1412 22003KT CAVOK TX15/1319Z TN06/1410Z BECMG 1315/1317 22015KT TEMPO 1318/1322 20020G30KT BECMG 1401/1403 23006KT", "TAF SCIP 131001Z 1312/1412 04009KT 9999 SCT025 TX23/1320Z TN15/1410Z TEMPO 1312/1319 7000 -SHRA SCT015 BKN030 TEMPO 1408/1410 VRB04KT", "TAF SCJO 131012Z 1312/1324 VRB03KT 9999 SCT015 TN02/1312Z TX12/1319Z BECMG 1315/1317 24005KT SCT030 BKN150 BECMG 1318/1320 BKN040 BKN100", "TAF SCNT 131004Z 1312/1400 30012KT 9999 SCT030 TN00/1400Z TX10/1318Z BECMG 1320/1322 33010KT BKN020", "TAF SCQP 131006Z 1312/1412 VRB03KT CAVOK TN00/1312Z TX14/1319Z BECMG 1315/1317 21010KT FEW040 BKN100 BECMG 1401/1403 VRB03KT BKN035", "TAF SCSE 131000Z 1312/1412 13004KT 9999 OVC010 TX17/1319Z TN10/1410Z BECMG 1313/1315 FEW008 SCT012 BECMG 1315/1317 28010KT CAVOK BECMG 1401/1403 26004KT TEMPO 1406/1412 BKN010", "TAF SCTE 131007Z 1312/1412 VRB03KT 9999 FEW015 TN02/1312Z TX14/1319Z BECMG 1315/1317 36010KT BKN025 BKN040 TEMPO 1319/1321 -SHRA SCT012 OVC020 BECMG 1323/1401 30005KT OVC025", "TAF SCVM 131000Z 1312/1412 16004KT CAVOK TX20/1319Z TN08/1410Z BECMG 1315/1317 20012KT TEMPO 1318/1400 20015G25KT BECMG 1401/1403 26004KT", "SEGU 131130Z 1312/1412 22008KT 9999 FEW010 BKN030 BECMG 1316/1318 15006KT SCT026 BKN100 BECMG 1322/1324 22012KT FEW026 BECMG 1404/1406 FEW010 BKN030 TX29/1320Z TN21/1410Z", "SELT 131130Z 1312/1412 16005KT 9999 SCT030 SCT080 BECMG 1316/1317 19016KT TEMPO 1319/1322 FEW026TCU BKN033 BKN100 BECMG 1323/1401 16004KT BKN030 BKN100 TX18/1319Z TN04/1411Z", "SEMT 131035Z 1312/1412 22010KT 9999 BKN020 BECMG 1318/1319 30010KT SCT020 BECMG 1400/1402 22008KT BKN020 BECMG 1404/1406 OVC020 TX27/1320Z TN21/1410Z", "SEQM 131035Z 1312/1412 VRB03KT 9999 SCT030 SCT080 BECMG 1317/1318 36015KT TEMPO 1319/1322 TSRA FEW023CB BKN030 BKN090 BECMG 1323/1401 0304KT FEW010 SCT020 BKN080 BECMG 1404/1406 8000 BCFG BKN005 TX22/1319Z TN10/1411Z", "TAF SGAS 130930Z 1312/1412 04009KT CAVOK TX25/1319Z TN17/1410Z BECMG 1314/1317 9999 BKN027 BECMG 1317/1320 8000 -RA BKN020 PROB30 TEMPO 1320/1400 15007KT 6000 TSRA SCT010 BKN015 FEW040CB BECMG 1401/1404 15007KT 9999 BKN021", "TAF SGCO 130930Z 1312/1412 05007KT 9999 SCT033 TX23/1319Z TN18/1410Z PROB30 TEMPO 1313/1317 9000 -RA BKN021 BECMG 1318/1320 7000 TSRA BKN015 FEW040CB PROB40 TEMPO 1320/1400 4000 TSRA OVC012 FEW040CB BECMG 1401/1404 15007KT 7000 TSRA OVC015 FEW040CB", "TAF SGEN 130930Z 1312/1412 04007KT CAVOK TX27/1319Z TN15/1410Z BECMG 1316/1319 15007KT 9999 BKN033", "TAF SGES 130930Z 1312/1412 05007KT 9999 SCT033 TX22/1319Z TN17/1410Z BECMG 1314/1316 9000 -RA BKN021 BECMG 1316/1319 15007KT 7000 TSRA BKN021 FEW040CB PROB40 TEMPO 1319/1323 21015KT 4000 TSRA BKN007 OVC012 FEW040CB TEMPO 1404/1407 6000 RA OVC012", "TAF SKAR 131030Z 1312/1412 00000KT 9999 SCT017 BKN080 TEMPO 1312/1314 5000 RADZ SCT012TCU BKN080 TEMPO 1314/1319 26005KT FEW020 SCT090 BECMG 1319/1320 03005KT TEMPO 1321/1324 5000 RA SCT015TCU BKN080 BECMG 1401/1403 00000KT TX27/1319Z TN17/1411Z", "TAF SKBG 131030Z 1312/1412 VRB02KT 9999 SCT010 BKN070 BECMG 1316/1318 32008KT SCT015 PROB40 TEMPO 1321/1402 3000 TSRA BKN010CB BECMG 1401/1402 VRB02KT SCT010 BKN070 TX26/1318Z TN18/1410Z", "TAF SKBO 131030Z 1312/1412 05006KT 9999 SCT015 BKN070 BECMG 1316/1318 26010KT BKN020 PROB40 TEMPO 1319/1323 5000 TSRA SCT017CB BECMG 1400/1402 VRB02KT FEW015 SCT070 TX19/1318Z TN07/1410Z", "TAF SKBQ 130430Z 1306/1406 23005KT 9999 SCT010 TEMPO 1306/1309 RA SCT010 BKN070 TEMPO 1312/1315 RA SCT010 BKN070 TEMPO 1315/1318 TSRA SCT015CB BKN070 TEMPO 1319/1323 RA SCT015 BKN070 TX32/1316Z TN24/1309Z", "TAF SKCC 131030Z 1312/1412 VRB02KT 9999 SCT015 BKN070 BECMG 1317/1319 01010KT SCT023 PROB40 TEMPO 1319/1322 5000 TSRA SCT015CB BECMG 1400/1402 VRB02KT SCT015 TX32/1218Z TN23/1410Z", "TAF SKCG 131030Z 1312/1412 24005KT 9999 SCT015 BKN070 TEMPO 1312/1315 5000 TSRA SCT015CB BECMG 1317/1319 11010KT BECMG 1401/1402 VRB03KT PROB40 TEMPO 1400/1405 4000 TSRA SCT015CB TX30/1318Z TN26/1410Z", "TAF SKCL 131030Z 1312/1412 VRB02KT 9999 FEW025 SCT090 BECMG 1316/1318 32010KT SCT020 BKN090 PROB40 1321/1324 RADZ SCT015TCU BKN080 BECMG 1401/1403 04005KT FEW025 SCT120 TX30/1318Z TN19/1411Z", "TAF SKLT 131030Z 1312/1412 VRB02KT 9999 SCT010 BKN070 BECMG 1316/1318 36008KT SCT017 PROB40 TEMPO 1321/1324 TS SCT015CB TX32/1319Z TN24/1410Z", "TAF SKPE 131030Z 1312/1412 VRB02KT 9999 SCT015 SCT090 TEMPO 1312/1314 6000 RADZ SCT010TCU BKN080 TEMPO 1315/1319 32008KT SCT020 BECMG 1319/1321 13010KT TEMPO 1322/1402 6000 RA SCT015TCU BKN080 BECMG 1402/1404 VRB02KT FEW017 SCT090 TX26/1318Z TN19/1411Z", "TAF SKRG 131030Z 1312/1412 VRB02KT 5000 BCFG BKN010 BECMG 1313/1315 12010KT 9999 NSW SCT015 TEMPO 1319/1322 DZ SCT017CB BECMG 1400/1402 VRB02KT TEMPO 1403/1406 DZ BKN010 TX22/1319Z TN12/1410Z", "TAF SKSM 131030Z 1312/1412 VRB03KT 9999 FEW020 BKN070 TEMPO 1312/1315 RA SCT020CB TEMPO 1315/1318 TSRA FEW020CB BKN070 TEMPO 1321/1401 TSRA SCT020CB BKN070 TX30/1318Z TN23/1409Z", "TAF SKSP 131030Z 1312/1412 VRB02KT 9999 SCT016 BKN080 TEMPO 1312/1316 5000 SHRA SCT015CB BECMG 1314/1316 05012KT TX30/1318Z TN25/1410Z", "TAF SLAL 131000Z 1312/1412 00000KT 9999 FEW020 TX23/1319Z TN06/1411Z BECMG 1315/1317 02015KT BECMG 1402/1404 00000KT SCT010 BKN070 TEMPO 1409/1411 BKN010", "TAF SLCB 131000Z 1312/1412 00000KT 9999 FEW036 TX28/1319Z TN08/1411Z BECMG 1315/1317 26012KT TEMPO 1319/1322 04012G25KT SCT036 FEW040CB TEMPO 1323/1401 12010KT BECMG 1401/1403 00000KT FEW030 BKN070", "TAF SLCO 131000Z 1312/1412 00000KT 9999 SCT012 BKN070 TX31/1319Z TN20/1410Z BECMG 1314/1316 30006KT SCT017 BKN080 PROB40 TEMPO 1317/1321 6000 SHRA FEW025CB BECMG 1322/1401 00000KT", "TAF SLET 131000Z 1312/1412 VRB02KT 9999 FEW012 BKN020 BKN080 TX24/1320Z TN19/1410Z PROB40 TEMPO 1315/1318 32010KT 6000 SHRA BKN020 FEW030CB BECMG 1405/1408 VRB02KT 6000 RA SCT008 BKN023 BKN080 BECMG 1409/1412 16013KT 9999 FEW010 BKN025", "TAF SLLP 131000Z 1312/1412 28010KT 9999 FEW017 TX16/1319Z TN00/1410Z BECMG 1315/1316 29015G27KT BECMG 1401/1403 03005KT", "TAF SLTJ 131000Z 1312/1412 00000KT 9999 NSC TX26/1319Z TN08/1411Z BECMG 1315/1317 15012KT BECMG 1322/1400 00000KT SCT027 BKN070", "TAF SLTR 131000Z 1312/1412 16008KT 9999 FEW020 BKN080 TX30/1319Z TN19/1410Z PROB40 TEMPO 1317/1321 8000 SHRA FEW023CB BECMG 1322/1401 00000KT", "TAF SLVR 131000Z 1312/1412 VRB02KT 9999 FEW012 BKN020 BKN080 TX24/1320Z TN19/1410Z PROB40 TEMPO 1315/1318 34008KT 6000 SHRA BKN020 FEW030CB BECMG 1405/1408 VRB02KT 5000 BR SCT008 BKN023 BKN080 BECMG 1409/1412 16013KT 9999 FEW010 BKN025", "TAF SMJP 131000Z 1312/1412 12005KT 9999 SCT012 TX33/1317Z TN23/1409Z TEMPO 1318/1323 5000 SHRA FEW015CB SCT020 TEMPO 1318/1320 VRB06G16KT TS BECMG 1407/1408 VRB01KT 0800 FG BKN001 BECMG 1410/1411 10005KT 9999 SCT010", "TAF SMZO 131000Z 1312/1412 11006KT 9999 SCT012 TX33/1317Z TN23/1409Z TEMPO 1317/1320 VRB06G16KT 5000 TSRA FEW015CB SCT020 PROB40 TEMPO 1408/1410 4000 BR SCT005", "TAF SOCA 131100Z 1312/1412 VRB02KT 9999 SCT035 BECMG 1314/1315 07010KT PROB40 TEMPO 1315/1319 VRB15G25KT 3000 SHRA SCT008 SCT015CB BKN025TCU BECMG 1320/1322 VRB02KT", "TAF SPCL 131100Z 1312/1412 36005KT 9999 SCT020 TX35/1319Z TN22/1411Z TEMPO 1319/1323 02015KT 3000 SHRA BKN010 FEW025TCU BKN080 TEMPO 1409/1412 00000KT 2000 BR BKN005 SCT100", "TAF SPEO 131100Z 1312/1412 20008KT 8000 BKN013 TX20/1319Z TN12/1411Z BECMG 1316/1318 17016KT SCT020 FM140200 17007KT 9999 BKN015", "TAF SPGM 131110Z 1312/1412 15005KT 9999 FEW030 BKN100 TX32/1319Z TN21/1411Z TEMPO 1312/1314 4000 BR", "TAF SPHI 131100Z 1312/1412 18006KT 9999 BKN013 TX23/1319Z TN15/1411Z BECMG 1316/1318 18016KT SCT020 TEMPO 1319/1322 18021KT BECMG 1400/1402 16012KT BKN015", "TAF SPHO 131100Z 1312/1412 21005KT CAVOK TX29/1319Z TN09/1411Z TEMPO 1319/1323 33015KT", "TAF SPHY 131100Z 1312/1412 15005KT CAVOK TX18/1319Z TN02/1411Z", "TAF SPJC 131100Z 1312/1412 23005KT 7000 OVC011 TX18/1320Z TN14/1411Z BECMG 1315/1317 28010KT 9999 OVC015 BECMG 1318/1320 19012KT BKN020 BECMG 1322/1401 OVC013 BECMG 1404/1407 15005KT OVC009", "TAF SPJI 131100Z 1312/1412 12005KT 9999 SCT020 TX36/1320Z TN20/1411Z TEMPO 1320/1401 03015KT 3000 SHRA SCT010 FEW025TCU BKN100", "TAF SPJL 131123Z 1312/1412 33005KT CAVOK TX20/1319Z TNM07/1410Z BECMG 1319/1322 21010KT BECMG 1400/1402 05005KT", "TAF SPJR 131110Z 1312/1412 VRB02KT 9999 SCT025 BKN050 TX26/1319Z TN09/1411Z BECMG 1314/1316 17010KT TEMPO 1319/1321 RA SCT023 BKN046 BECMG 1322/1324 VRB03KT", "TAF SPLO 131123Z 1312/1412 17008KT 9999 BKN030 TX21/1319Z TN15/1411Z", "TAF SPME 131100Z 1312/1412 35005KT 9999 BKN015 TX26/1319Z TN20/1411Z BECMG 1316/1318 BKN020 FM132000 28005KT 9999 BKN014", "TAF SPMS 131100Z 1312/1412 03005KT 9999 SCT020 TX35/1320Z TN23/1411Z TEMPO 1320/1401 03015KT 3000 SHRA BKN010 FEW025TCU", "TAF COR SPNC 131110Z 1312/1412 07005KT 9999 FEW040 TX30/1319Z TN17/1411Z BECMG 1316/1318 07015KT BECMG 1323/1402 06004KT", "TAF SPPY 131100Z 1312/1412 06008KT 9999 SCT020 TX22/1320Z TN10/1411Z TEMPO 1312/1314 3000 BCFG SCT010 TEMPO 1317/1321 03015KT 4000 RA SCT010 FEW025TCU BKN100", "TAF SPQT 131100Z 1312/1412 00000KT 9999 FEW005 SCT100 TX34/1319Z TN22/1411Z BECMG 1314/1317 03005KT BKN020 TEMPO 1320/1401 06015KT 3000 SHRA BKN010 FEW025TCU BKN080 TEMPO 1408/1412 2000 BR BKN003 SCT100", "TAF SPQU 131123Z 1312/1412 04006KT CAVOK TX21/1318Z TN05/1410Z BECMG 1316/1318 25012KT BECMG 1322/1324 06007KT", "TAF SPRU 131100Z 1312/1412 16011KT 6000 OVC012 TX17/1319Z TN15/1411Z BECMG 1319/1321 BKN017 TEMPO 1321/1403 SCT020 FM140200 16007KT 5000 BR OVC011", "TAF SPSO 131100Z 1312/1412 VRB03KT 4000 BR OVC013 TX20/1320Z TN12/1411Z TEMPO 1312/1313 2000 BR OVC010 BECMG 1315/1317 28010KT 8000 NSC FM132000 21016KT CAVOK BECMG 1403/1405 7000 OVC011", "TAF SPST 131110Z 1312/1412 00000KT 9999 SCT025 TX36/1319Z TN21/1411Z BECMG 1314/1317 15010KT TEMPO 1320/1322 RA BECMG 1322/1324 05005KT", "TAF SPTN 131123Z 1312/1412 VRB03KT 9999 BKN025 TX20/1319Z TN12/1411Z FM131300 27005KT 9999 FEW040 FM131600 21010KT CAVOK FM132300 27005KT 8000 SCT010 BKN020 TEMPO 1401/1404 4000 BR BKN014", "TAF SPTU 121705Z 1218/1318 33005KT 4000 RA BR BKN012 OVC100 TX24/1220Z TN21/1311Z BECMG 1218/1221 9999 NSW SCT020 BKN100", "TAF SPYL 131100Z 1312/1412 14015KT CAVOK TX27/1319Z TN13/1411Z", "TAF SPZO 131100Z 1312/1412 01005KT 9999 FEW050 TX24/1319Z TN03/1411Z BECMG 1317/1319 35015KT BECMG 1400/1402 15005KT", "SUAA 131140Z 1312/1412 19017KT CAVOK TX17/1312Z TN05/1409Z TEMPO 1312/1318 19020G30KT PROB30 TEMPO 1312/1318 9999 RA SCT012 BKN070 BECMG 1404/1406 07005KT", "SUCA 131140Z 1312/1412 18020KT CAVOK TX17/1317Z TN04/1409Z TEMPO 1312/1320 18022G32KT PROB30 TEMPO 1312/1318 9999 RA SCT012 BKN070 BECMG 1320/1322 07015KT", "SUDU 131140Z 1312/1412 26008KT CAVOK TX20/1316Z TN03/1409Z BECMG 1312/1314 1815KT TEMPO 1312/1318 18015G25KT PROB30 TEMPO 1312/1318 9999 RA FEW015 BKN070 BECMG 1402/1404 08005KT", "SULS 131140Z 1312/1412 19020KT CAVOK TX18/1312Z TN04/1409Z TEMPO 1312/1320 19022G32KT PROB40 TEMPO 1312/1318 9999 RA BKN010 BKN070 BECMG 1404/1406 07005KT", "TAF COR SUMU 131150Z 1312/1412 19017KT CAVOK TX16/1312Z TN05/1409Z TEMPO 1312/1318 19020G30KT PROB30 TEMPO 1312/1318 9999 RA SCT012 BKN070 BECMG 1404/1406 07005KT", "SURV 131140Z 1312/1412 30005KT CAVOK TX25/1318Z TN05/1409Z BECMG 1318/1320 16015KT TEMPO 1400/1409 13015G25KT", "SUSO 131140Z 1312/1412 27005KT CAVOK TX25/1318Z TN05/1409Z BECMG 1316/1318 16015KT TEMPO 1321/1406 14015G25KT", "TAF SVBC 131000Z 1312/1412 12004KT 9999 FEW010 TX35/1318Z TN22/1307Z BECMG 1315/1321 05006KT 9000 DZ SCT016 SCT100", "TAF SVJC 131000Z 1312/1412 08004KT 9999 FEW013 TX34/1319Z TN22/1307Z BECMG 1316/1321 07003KT 9999 SCT013 SCT090", "TAF SVMC 131000Z 1312/1412 09015KT 9000 DZ SCT016 TX35/1319Z TN22/1308 BECMG 1315/1321 22006KT SCT013 SCT060", "TAF SVMG 131000Z 1312/1412 07007KT 9999 FEW010 TX34/1318Z TN22/1308Z BECMG 1316/1321 08013KT 9000 DZ SCT010 SCT080", "TAF SVMI 131000Z 1312/1412 07003KT 9999 SCT016 BKN070 TX34/1318Z TN21/1307Z BECMG 1315/1321 09008KT 9999 SCT016", "TAF SVPR 131000Z 1312/1412 07012KT 9999 SCT013 TX34/1319Z TN22/1307Z BECMG 1316/1321 05006KT 9999 SCT013 SCT060", "TAF SVSA 131000Z 1312/1412 12004KT 9000 DZ SCT020 TX33/1319Z TN19/1308Z BECMG 1316/1322 18005KT 9999 SCT020 SCT090", "TAF SYCJ 131100Z 1312/1412 VRB12KT 5000 TS SHRA FEW014CB SCT015 BKN032 BECMG 1317/1319 10010KT 9999 SCT019 BKN090", "TAF SYEB 131100Z 1312/1323 06008KT 5000 TS SHRA FEW016CB SCT017 BKN032 BECMG 1317/1319 11010KT 9999 BKN017 BKN090", "TAF SYEC 131100Z 1312/1412 VRB12KT 5000 TS SHRA FEW015CB SCT016 BKN032 BECMG 1316/1318 10010KT 9999 BKN018 BKN090", "TAF SYKA 131100Z 1312/1323 07010KT 9999 SCT017 BKN090 BECMG 1315/1317 VRB12KT 5000 TS SHRA FEW016CB BKN032", "TAF SYKM 131100Z 1312/1323 07010KT 9999 SCT017 BKN090 BECMG 1315/1317 VRB12KT 5000 TS SHRA FEW016CB BKN032", "TAF SYLT 131100Z 1312/1323 05010KT 9999 SCT018 TEMPO 1318/1322 5000 TS SHRA FEW015CB BKN016", "TAF SYMB 131100Z 1312/1323 08008KT 9999 SCT017 BKN090 BECMG 1314/1316 VRB12KT 4000 TS SHRA FEW015CB BKN032", "TAF TAPA 131100Z 1312/1412 09010KT 9999 SCT020", "TAF TBPB 131100Z 1312/1412 09012KT 9999 SCT018", "TAF TDPD 131100Z 1312/1412 10007KT 9999 SCT018", "TAF TFFF 131100Z 1312/1412 09012KT 9999 SCT025 PROB30 TEMPO 1312/1318 4500 -SHRA BKN018TCU BECMG 1323/1401 VRB02KT PROB30 TEMPO 1406/1412 4500 -SHRA BKN018TCU", "TAF TFFR 131100Z 1312/1412 VRB02KT 9999 SCT025 BECMG 1312/1314 12012KT PROB30 TEMPO 1313/1321 4500 -SHRA BKN020TCU BECMG 1321/1323 VRB02KT PROB30 TEMPO 1403/1409 4500 -SHRA BKN018TCU", "TGPY 130355Z COR 1306/1406 07010KT 9999 FEW018 BECMG 1312/1314 09015KT FEW021", "TIST 131120Z 1312/1412 08005KT P6SM VCSH FEW025 SCT050 FM131400 10009KT P6SM FEW030 FEW050 FM131800 12012G18KT P6SM VCSH SCT025 SCT040 FM132200 08006KT P6SM FEW025 SCT050", "TISX 131120Z 1312/1412 03005KT P6SM VCSH FEW025 SCT050 FM131400 08010KT P6SM FEW030 FEW050 FM131800 10012G19KT P6SM VCSH FEW025 SCT040 FM132300 05004KT P6SM FEW025 SCT050", "TJBQ 131120Z 1312/1412 12004KT P6SM VCSH SCT025 FM131400 07011KT P6SM SCT030 FM131700 08014KT P6SM VCTS SCT022CB BKN040 FM132300 VRB03KT P6SM VCSH SCT025 SCT070", "TJPS 131120Z 1312/1412 10006KT P6SM FEW025 SCT060 FM131400 13011KT P6SM FEW030 FEW060 FM131800 15014KT P6SM SCT030 FM132300 07005KT P6SM FEW030 FEW060 AMD NOT SKED", "TJSJ 131120Z 1312/1412 11004KT P6SM VCSH SCT030 SCT050 FM131400 06011KT P6SM FEW035 SCT080 FM131800 07015KT P6SM VCSH SCT025 SCT050 FM132200 10007KT P6SM FEW025 SCT050", "TAF TKPK 131100Z 1312/1412 07012KT 9999 SCT020", "TAF TKPN 131100Z 1312/1412 09012KT 9999 SCT020", "TAF TLPC 131100Z 1312/1412 09009KT 9999 SCT027", "TAF TLPL 131100Z 1312/1412 08015KT 9999 SCT027", "TAF TNCA 130517Z 1306/1406 10012KT 9999 SCT020 TEMPO 1306/1318 6000 SHRA FEW014CB BKN018 PROB30 TEMPO 1306/1312 12015G25KT 4000 TSRA SCT012CB BKN015 BECMG 1310/1312 11017KT", "TAF TNCB 131117Z 1312/1418 09015KT 9999 SCT020 PROB40 TEMPO 1312/1320 4000 SHRA TSRA BKN014 SCT018CB PROB30 TEMPO 1403/1416 4000 SHRA BKN014 SCT018CB", "TAF TNCC 131115Z 1312/1412 12008KT 9999 SCT020 BECMG 1312/1314 12013KT TEMPO 1312/1318 12010G20KT 6000 SHRA FEW012CB BKN015 PROB30 TEMPO 1408/1412 6000 SHRA BKN014", "TNCM 131000Z 1312/1412 09008KT 9999 SCT020 ", "TAF TQPF 131100Z 1312/1412 09010KT 9999 SCT020", "TAF TRPG 131100Z 1312/1412 09014KT 9999 SCT020", "TAF TTCP 131000Z 1312/1412 10010KT 9999 FEW022 BECMG 1400/1402 06005KT FEW016", "TAF TTPP 131000Z 1312/1412 10010KT 9999 FEW020 BECMG 1323/1401 00000KT FEW016", "TAF TUPJ 131100Z 1312/1412 08010KT 9999 SCT020", "TAF TVSA 131100Z 1312/1412 07010KT 9999 SCT018", "TAF TXKF 131133Z 1312/1412 10014KT 9999 SCT025 ", "TAF UAAA 131103Z 1312/1412 16003MPS 9999 SCT050CB BKN100 TX24/1409Z TN05/1401Z TEMPO 1312/1320 21003G08MPS 3100 FU TEMPO 1320/1403 26003G08MPS BECMG 1403/1404 03003G08MPS TEMPO 1403/1412 34003MPS", "TAF UAAH 131100Z 1312/1321 14003MPS CAVOK", "TAF UAAT 131100Z 1312/1321 35003G10MPS 9999 NSC", "TAF UACC 131101Z 1312/1412 12004MPS 9999 SCT030 BKN100 TX19/1409Z TN02/1401Z TEMPO 1312/1316 16003MPS FEW030CB BECMG 1316/1318 14003MPS TEMPO 1316/1403 18004MPS -SHRA SCT011 SCT020CB BECMG 1403/1405 20004MPS TEMPO 1405/1412 23004MPS", "TAF UACK 131100Z 1312/1321 12006MPS 9999 SCT040 TEMPO 1312/1318 14008G13MPS", "TAF UACP 130800Z 1309/1318 11008MPS 9999 BKN030 TEMPO 1309/1312 13009G14MPS", "TAF UADD 131100Z 1312/1321 34003MPS 9999 NSC TEMPO 1312/1315 02003G08MPS", "TAF UAII 131101Z 1312/1412 25003G08MPS 7000 SCT040 TX26/1410Z TN09/1401Z TEMPO 1312/1315 30003G08MPS BECMG 1315/1316 08006MPS TEMPO 1318/1404 12005MPS 4000 FU FM140600 28004G09MPS 9999 SCT050CB", "TAF UAIT 131100Z 1312/1321 21003G08MPS 9999 SCT100 TEMPO 1312/1318 17004G09MPS BKN050", "TAF UAKD 131101Z 1312/1321 20005MPS 9999 SCT030 BKN100 TEMPO 1312/1318 23004MPS", "TAF AMD UAKK 131148Z 1312/1412 16003MPS 9999 SCT030 BKN100 TX19/1410Z TNM01/1324Z TEMPO 1318/1402 -SHRA BKN020CB TEMPO 1406/1412 23006MPS", "TAF UAOO 131053Z 1312/1321 27003MPS CAVOK TEMPO 1315/1318 33003MPS TEMPO 1318/1321 35003MPS", "TAF UARR 131100Z 1312/1321 26005MPS 9999 SCT011 SCT020 TEMPO 1316/1321 2000 BR BKN005", "TAF UASK 131100Z 1312/1321 VRB01MPS 9999 NSC", "TAF UASP 131100Z 1312/1321 11005MPS CAVOK TEMPO 1312/1315 09006G13MPS", "TAF UASS 131102Z 1312/1321 09006MPS 9999 SCT100 TEMPO 1312/1318 04006G11MPS", "TAF UATE 131105Z 1312/1412 32003G08MPS 9999 SCT033CB TX18/1409Z TN09/1402Z BECMG 1316/1318 03005MPS BECMG 1403/1405 12005G11MPS BKN020", "TAF UATG 131100Z 1312/1412 28009MPS 9999 BKN030CB TX16/1410Z TN10/1403Z BECMG 1314/1316 27004MPS SCT033CB BECMG 1404/1406 23005MPS", "TAF UATT 131102Z 1312/1412 20005MPS 9999 BKN040 TX14/1412Z TN07/1402Z TEMPO 1312/1318 24010MPS 3100 -SHRA SCT011 BKN033CB TEMPO 1318/1406 24003MPS 3100 BR BKN004 SCT020CB", "TAF UAUU 131100Z 1312/1321 12003G08MPS CAVOK TEMPO 1312/1314 14005G10MPS BKN040", "TAF UBBB 131059Z 1312/1412 04010KT 9999 BKN030 TX21/1312Z TN17/1401Z TEMPO 1312/1317 07008KT -RA TEMPO 1317/1405 35006KT -SHRA SCT025CB BKN025 TEMPO 1405/1412 VRB04KT FEW030CB BKN030", "TAF UBBF 131100Z 1312/1321 VRB04KT 6000 BKN010 OVC030 TEMPO 1312/1318 05006KT 3000 -RA BKN006 OVC020 TEMPO 1318/1321 31006KT", "TAF UBBG 131100Z 1312/1412 09008KT 9999 SCT020 BKN040 TX18/1312Z TN13/1403Z BECMG 1316/1318 VRB04KT TEMPO 1318/1321 -RA OVC020 TEMPO 1321/1406 24008KT 3000 -DZ BR SCT007 OVC020", "TAF UBBL 131101Z 1312/1412 31005KT 8000 SCT010 BKN030 TX18/1312Z TN15/1402Z TEMPO 1312/1324 VRB04KT 5000 -RA BKN010 OVC020", "TAF UBBN 131055Z 1312/1412 VRB04KT 9999 FEW045CB SCT050 BKN100 TX25/1312Z TN10/1403Z TEMPO 1312/1315 14012KT TEMPO 1315/1322 10010KT", "TAF UBBQ 131103Z 1312/1412 VRB04KT 9999 BKN030 BKN080 TX18/1312Z TN12/1402Z TEMPO 1312/1317 27006KT -RA TEMPO 1320/1405 6000 -RA BKN015 BECMG 1405/1407 26006KT", "TAF UBBY 131100Z 1312/1321 VRB04KT 9999 SCT040 BKN080 TEMPO 1312/1315 30008KT TEMPO 1315/1321 10008KT -RA SCT025 OVC050", "TAF UBEE 131100Z 1312/1321 VRB04KT 6000 SCT005 OVC030 TEMPO 1312/1318 1500 -RA BR OVC003", "TAF UCFL 131054Z 1312/1412 11003G08MPS 9999 SCT030CB TEMPO 1312/1316 02003G08MPS BECMG 1316/1318 34003G08MPS TEMPO 1316/1324 04003G08MPS", "TAF UCFM 131043Z 1312/1412 14003G08MPS 9999 SCT050CB TEMPO 1315/1321 25007G12MPS 1500 BR FU FEW004 TEMPO 1321/1403 20003G08MPS 1500 BR FU FEW004 BECMG 1405/1406 32003G08MPS TEMPO 1406/1412 24003G08MPS", "TAF UCFO 131047Z 1312/1412 18003G08MPS 6000 NSC TEMPO 1312/1318 30003G08MPS 2500 FU FEW050 BECMG 1403/1405 32003G08MPS", "TAF UDSG 131100Z 1312/1412 06006KT 9999 SCT040 TEMPO 1312/1315 VRB16KT SCT040CB TEMPO 1315/1322 VRB16G26KT -TSRA BKN030CB", "TAF UDYZ 131100Z 1312/1412 04006KT 9999 FEW040 TEMPO 1314/1321 VRB16KT SCT040CB", "TAF UEEE 131100Z 1312/1418 14003G08MPS 3200 -SHSN SCT007 BKN015CB OVC070 TEMPO 1312/1403 VRB01MPS 0300 SHSN FZFG VV002", "TAF UERP 131100Z 1312/1412 34003G08MPS 6000 -SHSN BKN009 BKN013CB OVC100 TEMPO 1312/1321 2000 SHSN BR BKN004 OVC012CB", "TAF UERR 131100Z 1312/1412 27003G08MPS 4000 -SNRA BKN007 TEMPO 1312/1321 1000 BR VV003 BECMG 1322/1324 36003G08MPS", "TAF UGAM 131000Z 1311/1317 26006KT 9999 SCT090 TEMPO 1314/1317 BKN050", "TAF UGKO 131100Z 1312/1412 26007KT 9999 SCT080 TX19/1312Z TN10/1403Z TEMPO 1314/1318 4000 SHRA BKN030CB PROB40 TEMPO 1401/1405 0500 FG VV002", "TAF UGMS 131000Z 1311/1317 24007KT 9999 BKN080", "TAF UGSB 131100Z 1312/1412 30006KT 9999 FEW030 SCT120 TX21/1411Z TN14/1402Z TEMPO 1314/1319 SHRA SCT025CB BECMG 1316/1318 12010KT BECMG 1319/1321 CAVOK TEMPO 1322/1406 13020KT BECMG 1407/1408 32007KT", "TAF UGTB 131100Z 1312/1412 VRB02KT 9999 BKN060 TX19/1312Z TN12/1402Z BECMG 1315/1317 BKN030CB OVC050 TEMPO 1317/1322 4500 SHRA SCT012 BKN018CB TEMPO 1322/1403 3000 RA BKN010 OVC020 BECMG 1408/1410 SCT050", "TAF UHBB 131040Z 1312/1412 23003MPS 9999 SCT030 TEMPO 1316/1323 3100 BR SCT011 BECMG 1323/1402 18003G08MPS", "TAF UHHH 131046Z 1312/1418 18003MPS 9999 SCT020 TEMPO 1312/1321 3100 BR FU FM140100 24003MPS CAVOK", "TAF UHMA 131052Z 1312/1412 01003MPS 9999 NSC TEMPO 1312/1324 32005MPS 5000 BR SCT003 TEMPO 1400/1412 16005MPS SCT007", "TAF COR UHMM 131033Z 1312/1418 26003G08MPS 9999 SCT040 TEMPO 1312/1318 5000 -SN BR OVC015", "TAF UHPP 131048Z 1312/1418 32003G12MPS 9999 SCT030CB", "TAF UHSS 131100Z 1312/1418 16003MPS 9999 BKN030CB BECMG 1400/1402 24003G08MPS BECMG 1412/1414 VRB01MPS", "TAF UHWW 131100Z 1312/1412 20003MPS 9999 FEW002 BKN016 BECMG 1314/1316 0300 FG VV002 TEMPO 1316/1322 VRB01MPS 0100 FG BECMG 1322/1324 18003G08MPS 9999 NSW", "TAF UIAA 131100Z 1312/1412 20003G08MPS 9999 SCT040CB TEMPO 1312/1321 26005G10MPS TEMPO 1321/1412 28010G15MPS 3100 -SHSN BKN014CB", "TAF UIBB 131100Z 1312/1412 27005MPS 9999 FEW004 BKN016CB TEMPO 1312/1406 1900 SHSNRA", "TAF UIII 131100Z 1312/1412 32005MPS 9999 BKN009CB TEMPO 1312/1406 2000 SHSNRA BKN004 BKN009CB", "TAF UIUU 131100Z 1312/1412 32008G13MPS 9999 -SHRA BKN030CB TEMPO 1312/1409 34013G18MPS 2500 -SHSNRA BKN011CB", "TAF ULAA 131100Z 1312/1412 25003MPS 9999 SCT020 TEMPO 1312/1320 21004G09MPS 6000 -SHRA BKN016CB FM132000 21003MPS 9999 BKN018 TEMPO 1320/1406 19003MPS TEMPO 1406/1409 6000 -SHRA FEW007 BKN016CB", "TAF ULLI 131057Z 1312/1412 24005MPS 9999 SCT030 BECMG 1314/1316 18003MPS BECMG 1318/1319 4000 MIFG BR TEMPO 1319/1406 0400 FG VV002 TEMPO 1409/1412 BKN015", "TAF ULMM 131059Z 1312/1412 21003G08MPS 6000 -SHRA BKN016CB BECMG 1321/1323 BKN011CB TEMPO 1323/1412 3100 -SHRA BKN004 BKN011CB", "TAF ULOO 131051Z 1312/1321 18003MPS 8000 FEW006 SCT016 TEMPO 1318/1321 0300 FG BKN003", "TAF ULPB 131052Z 1312/1321 23003MPS 8000 SCT016 TEMPO 1312/1317 27005G10MPS PROB40 TEMPO 1318/1321 0700 FG VV003", "TAF ULWC 131100Z 1312/1321 27003MPS 6000 FEW005 BKN017 TEMPO 1315/1321 1000 BR MIFG BKN003", "TAF UMBB 131100Z 1312/1321 VRB02MPS 6000 SCT020 TEMPO 1318/1321 3100 BR", "TAF UMGG 131103Z 1312/1412 VRB02MPS 9999 BKN025 TEMPO 1321/1406 1200 BR SCT004 TEMPO 1406/1408 BKN005", "TAF UMII 131112Z 1312/1321 VRB02MPS 6000 BKN015 TEMPO 1312/1314 BKN007 TEMPO 1314/1317 SCT010 TEMPO 1317/1321 2000 BR BKN005", "TAF UMIO 131101Z 1311/1321 VRB02MPS 6000 BKN007 TEMPO 1311/1315 3000 BCFG BR FEW004 TEMPO 1315/1321 0300 FG FEW002", "TAF UMKK 131058Z 1312/1412 17006G11MPS 8000 FEW010 SCT017", "TAF UMMG 131102Z 1312/1321 17003MPS 9999 BKN020 TEMPO 1319/1321 2500 BR SCT007", "TAF UMMS 131101Z 1311/1412 VRB02MPS 9999 BKN020 BECMG 1315/1317 5000 BR BKN004 TEMPO 1317/1408 0200 FG VV001 BECMG 1408/1409 16005MPS 9999 NSW BKN010", "TAF UMOO 131100Z 1312/1321 VRB02MPS 8000 BKN015 TEMPO 1312/1321 3000 BR BKN005", "TAF UNAA 131056Z 1312/1412 36003MPS 6000 SCT020CB", "TAF UNBB 131100Z 1312/1412 08003G08MPS CAVOK", "TAF UNEE 131100Z 1312/1412 32003G08MPS 8000 BKN040 TEMPO 1312/1319 BKN016 TEMPO 1319/1404 0300 FG SCT001 SCT016CB BECMG 1404/1405 07003G08MPS", "TAF UNKL 131048Z 1312/1412 28003G08MPS 9999 BKN016CB TEMPO 1318/1324 BKN010 BKN016CB BECMG 1401/1403 33005MPS", "TAF UNNT 131100Z 1312/1412 31003G08MPS 8000 BKN040 BECMG 1400/1403 04003G08MPS", "TAF UNOO 131055Z 1312/1412 12005G12MPS 9999 BKN040", "TAF UNTT 131100Z 1312/1321 32003G08MPS 8000 BKN016CB", "TAF UNWW 131100Z 1312/1412 27003G08MPS 8000 BKN040 TEMPO 1312/1318 -SHRA BKN020CB BECMG 1315/1318 06003G08MPS TEMPO 1318/1403 0300 FZFG SCT002", "TAF UOOO 131056Z 1312/1412 21003G08MPS 1500 -SN BR BKN007 TEMPO 1312/1315 0500 -SN FZFG VV004 BECMG 1315/1318 0300 -SN FZFG VV002 FM140500 21010G20MPS 6000 -SN OVC011 TEMPO 1405/1412 1000 SN OVC005", "TAF URKA 131055Z 1312/1412 04003G08MPS 9999 SCT030 TEMPO 1312/1412 08006G12MPS", "TAF URKK 131056Z 1312/1412 16003MPS CAVOK BECMG 1313/1315 04003MPS", "TAF URMG 131100Z 1312/1321 10003G08MPS 9999 BKN030", "TAF URML 131100Z 1312/1321 13003G10MPS 9999 BKN025 TEMPO 1312/1318 07003G08MPS 6000 -SHRA BKN016 SCT033CB", "TAF URMM 131100Z 1312/1412 09003G08MPS 9999 BKN030 TX17/1312Z TN07/1403Z TEMPO 1312/1318 03005G10MPS", "TAF URMN 131100Z 1312/1321 06003G08MPS 9999 BKN020 TEMPO 1315/1321 2000 BR BKN005", "TAF URMO 131100Z 1312/1321 08003G08MPS 9999 BKN030 TEMPO 1315/1321 6000 -SHRA BKN016 BKN030CB", "TAF URMT 131100Z 1312/1321 01003G08MPS 9999 BKN030 BECMG 1316/1318 06003G08MPS", "TAF URRP 131055Z 1312/1412 32003G10MPS 9999 SCT020 TEMPO 1312/1315 28003G12MPS BECMG 1315/1316 02003G08MPS TEMPO 1316/1412 05003G11MPS", "TAF URSS 131055Z 1312/1412 25003G08MPS 9999 FEW040 SCT100 TEMPO 1312/1315 20003G08MPS BECMG 1315/1316 05003G08MPS BKN100 BECMG 1319/1321 04006MPS BECMG 1407/1409 20003G08MPS BECMG 1411/1412 25003G08MPS", "TAF URWA 131058Z 1312/1321 28006G12MPS 9999 SCT016 BECMG 1314/1316 24003G09MPS", "TAF URWI 131056Z 1312/1321 28003G11MPS 9999 SCT016 TEMPO 1312/1318 31006G13MPS", "TAF URWW 131056Z 1312/1321 30006G12MPS 9999 SCT016 TEMPO 1312/1316 33003G11MPS BKN016 SCT020CB BECMG 1316/1318 33003G10MPS BKN016", "TAF USCC 131057Z 1312/1412 12003G10MPS 9999 BKN020CB TEMPO 1312/1318 06003G12MPS FM131800 18003G12MPS 6000 BKN016CB TEMPO 1400/1409 24003G12MPS -SHRA", "TAF USCM 131058Z 1312/1321 18003G12MPS 6000 BKN016CB TEMPO 1312/1321 24003G12MPS -SHRA", "TAF USDA 131055Z 1312/1321 19007G13MPS 6000 FEW003 BKN016 TEMPO 1318/1321 2100 -RA BR BKN004", "TAF USHH 131037Z 1312/1412 16003G12MPS 9999 SCT020 TEMPO 1315/1318 5000 BR MIFG FEW003 BKN016 TEMPO 1318/1406 5000 -RA BR SCT003 OVC016 TEMPO 1406/1412 12003G12MPS", "TAF USNN 131055Z 1312/1412 18003MPS 9999 SCT030 TEMPO 1312/1315 FEW003 SCT016 FM131500 17003MPS 6000 FEW003 SCT017 TEMPO 1315/1324 VRB01MPS 0300 FZFG VV002", "TAF USPP 131055Z 1312/1412 12003G10MPS 9999 BKN016 BECMG 1318/1320 06003G08MPS BECMG 1403/1405 -SHRA BKN020CB", "TAF USRR 131043Z 1312/1412 20003G10MPS 9999 SCT016 TEMPO 1318/1402 0200 FG VV002", "TAF USSS 131057Z 1312/1412 13003G10MPS CAVOK FM131800 10003MPS 6000 -RA BKN016 BECMG 1402/1404 19003G08MPS", "TAF USTR 131038Z 1312/1412 13004G12MPS 9999 SCT020 TEMPO 1315/1406 12003MPS 3100 BR MIFG FEW003 SCT020", "TAF UTAA 131045Z 1312/1412 02010KT 6000 SCT050 BKN100 BECMG 1315/1317 09012KT TEMPO 1318/1402 18012KT 3000 HZ BECMG 1404/1406 05016KT", "TAF UTAK 131030Z 1312/1412 07016G26KT 9999 SCT030 SCT040CB BKN100 TEMPO 1312/1314 14018KT SCT012 SCT030CB BKN100 TEMPO 1316/1323 6000 -SHRA BKN020 SCT030CB BKN100", "TAF UTAM 131030Z 1312/1412 04012KT 5000 SCT050 TEMPO 1312/1318 33012KT TEMPO 1402/1412 12014KT", "TAF UTAT 131031Z 1312/1412 35016KT CAVOK TEMPO 1312/1315 03012KT", "TAF UTAV 131030Z 1312/1412 28014KT CAVOK TEMPO 1312/1318 34014KT 6000 SCT050", "TAF UTDD 130900Z 1310/1322 VRB02MPS 8000 FEW066 SCT100 TEMPO 1310/1316 26006MPS", "TAF UTDK 130900Z 1310/1319 VRB02MPS 9999 FEW066 SCT100 TEMPO 1310/1313 21005MPS BECMG 1314/1316 03005MPS", "TAF UTDL 130900Z 1310/1322 24005MPS 9999 NSC TEMPO 1310/1312 VRB02MPS BECMG 1315/1317 VRB02MPS", "TAF UTDT 130900Z 1310/1319 VRB02MPS 8000 FEW066 SCT100", "TAF UTFF 130900Z 1310/1319 34010KT 7000 NSC TEMPO 1312/1319 VRB12KT 4000 FU", "TAF UTFN 131100Z 1312/1412 34010KT 7000 NSC TEMPO 1312/1324 VRB08KT 4500 FU", "TAF UTNN 131100Z 1312/1412 33008G18KT CAVOK TEMPO 1316/1402 VRB04KT", "TAF UTNU 131100Z 1312/1412 34008G18KT CAVOK", "TAF UTSA 131101Z 1312/1412 VRB03KT 7000 NSC TEMPO 1312/1323 32012KT 4000 FU", "TAF UTSB 131100Z 1312/1412 VRB03KT 7000 NSC TEMPO 1312/1323 36012KT", "TAF UTSK 130901Z 1310/1319 VRB04KT CAVOK TEMPO 1310/1316 25012G22KT", "TAF UTSS 131059Z 1312/1412 12010KT 9999 NSC TEMPO 1312/1315 30014G24KT TEMPO 1315/1324 15012G22KT", "TAF UTST 131100Z 1312/1412 VRB06KT 6000 NSC TEMPO 1312/1321 09008G18KT", "TAF UTTT 131100Z 1312/1412 07010KT 7000 NSC TEMPO 1400/1412 FEW060CB SCT100", "TAF UUBC 131053Z 1312/1321 30004MPS 9999 BKN030", "TAF UUBP 131051Z 1312/1321 34003MPS 9999 BKN025 TEMPO 1316/1318 0500 FG OVC002", "TAF UUBW 131050Z 1312/1412 28003MPS 9000 SCT020 TX10/1412Z TN01/1403Z PROB40 TEMPO 1317/1407 0300 FG BKN002", "TAF UUDD 131052Z 1312/1418 28003G08MPS 6000 FEW006 BKN016 TX09/1312Z TN00/1323Z TEMPO 1316/1407 0300 FG SCT002", "TAF UUDL 131100Z 1312/1412 30003MPS 9999 BKN040 TX10/1312Z TN01/1403Z", "TAF UUEE 131054Z 1312/1412 31003G08MPS 9999 FEW006 BKN016 TX08/1312Z TN02/1401Z TEMPO 1316/1406 0300 FG OVC001", "TAF UUMO 131055Z 1312/1321 30003MPS 9999 FEW006 BKN016 TEMPO 1316/1321 0300 FG OVC001", "TAF UUOB 131059Z 1312/1321 33003MPS 9999 BKN020", "TAF UUOK 131055Z 1312/1321 32005MPS 9999 SCT030", "TAF UUOL 131100Z 1312/1321 31003MPS 9999 BKN030", "TAF UUOO 131100Z 1312/1321 33003G08MPS 9999 BKN020CB", "TAF UUWW 131054Z 1312/1412 30003MPS 6000 FEW005 BKN016 TX09/1312Z TN01/1402Z TEMPO 1316/1407 0300 FG OVC001", "TAF UUYY 131100Z 1312/1412 24003MPS 9999 FEW011 BKN017CB TEMPO 1312/1314 6000 -SHRA FEW007 BKN016CB FM131400 35003MPS 6000 -SHRA FEW011 BKN017CB TEMPO 1314/1406 0300 -SHRA FG BKN002 BKN016CB TEMPO 1406/1412 BKN006 BKN016CB", "TAF UWGG 131050Z 1312/1412 31003G09MPS 8000 OVC011 TX08/1312Z TN03/1403Z", "TAF UWKD 131054Z 1312/1412 31005MPS 4000 -RA BR OVC007 TX09/1312Z TN06/1402Z TEMPO 1312/1318 2100 BR BKN003 TEMPO 1318/1406 0500 FG BKN002", "TAF UWKE 131100Z 1312/1412 35003G10MPS 9999 BKN016 TEMPO 1312/1318 09003G12MPS 6000 -SHRA SCT020CB TEMPO 1318/1406 6000 -RA BKN005", "TAF UWKS 131053Z 1312/1321 34003G09MPS 8000 OVC006 TX08/1312Z TN06/1321Z TEMPO 1312/1320 3000 -RA BR OVC003", "TAF UWLL 131053Z 1312/1412 32003G09MPS 6000 -RA BKN011 TX10/1312Z TN04/1403Z TEMPO 1312/1318 2100 -SHRA BR BKN005 BKN015CB TEMPO 1318/1406 -SHRA BKN016CB", "TAF UWLW 131058Z 1312/1412 32003G09MPS 9999 -RA BKN016 TX10/1312Z TN04/1402Z TEMPO 1312/1412 35006G12MPS 3000 -RA BR OVC007", "TAF UWOO 131041Z 1312/1412 22005G12MPS 6000 -SHRA FEW005 BKN016CB TX12/1312Z TN05/1403Z TEMPO 1312/1406 24003G08MPS 1000 SHRA BR BKN003 BKN015CB BECMG 1406/1407 26005G10MPS", "TAF UWOR 131047Z 1312/1321 22006G11MPS 9999 BKN020CB TX12/1312Z TN06/1321Z TEMPO 1312/1321 24008G14MPS 6000 -SHRA BKN016CB", "TAF UWPS 131056Z 1312/1321 32003G08MPS 9999 BKN025 TX10/1312Z TN06/1321Z", "TAF UWSG 131053Z 1312/1321 30006G12MPS 9999 BKN016 TX11/1312Z TN03/1321Z TEMPO 1312/1315 -SHRA FEW004 SCT007 BKN020CB", "TAF UWUU 131044Z 1312/1412 14004G09MPS 9999 OVC030 TX12/1409Z TN06/1401Z TEMPO 1312/1321 VRB01MPS 6000 -SHRA BKN016CB FM132100 22003G08MPS 6000 BKN020 TEMPO 1321/1403 0300 FG VV002", "TAF UWWW 131051Z 1312/1412 31006G13MPS 6000 -RA BKN016 TX11/1312Z TN05/1402Z TEMPO 1312/1318 2000 SHRA BR OVC004 BKN016CB", "TAF VAAH 131100Z 1312/1321 09006KT 5000 FU HZ NSC BECMG 1314/1316 03004KT 4000 HZ BECMG 1318/1320 07003KT", "TAF VAAU 131100Z 1312/1418 05005KT 3000 -RA HZ SCT018 SCT025 BKN090 TEMPO 1312/1316 04007G17KT 1500 -TSRA SHRA SCT015 FEW030CB OVC080 BECMG 1316/1318 2500 BR HZ SCT020 BKN100 BECMG 1400/1402 2000 BR HZ BECMG 1406/1408 2500 -RA HZ SCT018 SCT025 BKN090 TEMPO 1408/1414 08008G18KT 1500 -TSRA SHRA SCT015 FEW030CB OVC080 BECMG 1415/1417 3000 HZ SCT020 BKN100", "TAF VABB 131100Z 1312/1321 05005KT 3000 -RA HZ SCT012 SCT018 FEW030CB OVC080 TEMPO 1312/1321 1500 TSRA SHRA SCT012 SCT018 FEW030CB OVC080 BECMG 1318/1320 12005KT 2500 -RA SHRA ", "TAF VABJ 131100Z 1312/1321 05005KT 6000 NSC BECMG 1316/1318 32005KT", "TAF VABO 131100Z 1312/1321 05005KT 5000 FU SCT020 BECMG 1314/1316 4000 HZ FU BECMG 1316/1318 09004KT", "TAF VABP 131100Z 1312/1321 05010KT 6000 NSC BECMG 1315/1317 5000 HZ", "TAF VABV 131100Z 1312/1321 05006KT 5000 HZ NSC BECMG 1316/1318 09005KT", "TAF VADU 131100Z 1312/1321 06008KT 4000 HZ NSC BECMG 1316/1318 05009KT", "TAF VAID 131100Z 1312/1321 05010KT 6000 FEW025 BECMG 1315/1317 5000 HZ NSC", "TAF VAJB 131100Z 1312/1321 05010KT 5000 HZ FEW025 SCT030 BECMG 1315/1317 4000 HZ SCT030", "TAF VAJL 130500Z 1306/1315 09008KT 3000 -RA -SHRA SCT012 SCT018 SCT025 FEW025TCU/CB BKN090 TEMPO 1306/1312 05008G18KT 1500 TSRA SHRA SCT010 SCT015 FEW030CB OVC080 BECMG 1313/1315 05006KT 3000 -RA HZ", "TAF VAJM 131100Z 1312/1321 32007KT 6000 FEW020 BECMG 1316/1318 14004KT NSC", "TAF VAKE 130800Z 1309/1318 36005KT 5000 HZ FU FEW025 BECMG 1313/1315 23004KT SCT020", "TAF VAKP 131100Z 1312/1321 04004KT 3000 -RA HZ SCT018 SCT025 BKN090 TEMPO 1312/1318 05007G17KT 1500 -TSRA SHRA SCT015 FEW030CB OVC080 ", "TAF VANP 131100Z 1312/1321 36005KT 2500 HZ -RA FEW010 SCT020 SCT080", "TAF VAOZ 130800Z 1309/1321 06010KT 6000 FEW025 SCT030 TEMPO 1310/1313 5000 TSRA SCT025 SCT030 FEW030CB BKN090 TEMPO 1314/1317 5000 BR", "TAF VAPO 130500Z 1306/1412 05010KT 6000 SCT020 BKN090 TEMPO 1306/1310 05015G25KT 3000 TSRA SCT015 SCT020 FEW025CB BKN080 TEMPO 1313/1317 -RA SCT018 BKN080 TEMPO 1322/1402 VRB02KT 4000 BR TEMPO 1407/1411 05015G25KT 4000 TSRA SCT015 SCT020 FEW025CB BKN080", "TAF VAPR 131100Z 1312/1321 36006KT 6000 FEW020 BECMG 1316/1318 05006KT", "TAF VARK 131100Z 1312/1321 09006KT 6000 FEW020", "TAF VASD 130800Z 1309/1318 09008KT 3000 -RA -SHRA SCT012 SCT018 FEW025TCU/CB BKN090 TEMPO 1309/1315 05008G18KT 1500 TSRA SHRA SCT010 SCT015 FEW030CB OVC080 BECMG 1313/1315 05006KT 3000 -RA -SHRA SCT010 SCT015 FEW030CB OVC080", "TAF VASL 131100Z 1312/1321 04004KT 3000 -RA HZ SCT018 SCT025 BKN090 TEMPO 1312/1318 05007G17KT 1500 -TSRA SHRA SCT015 FEW030CB OVC080 ", "TAF VASU 131100Z 1312/1321 02006KT 4000 DZ HZ SCT025 BECMG 1314/1316 VRB02KT 5000 HZ FEW020 BECMG 1316/1318 06003KT 4000 HZ", "TAF VAUD 131100Z 1312/1418 VRB03KT 4000 HZ NSC BECMG 1404/1406 06005KT 5000 HZ FEW040 BECMG 1412/1414 VRB03KT 3000 HZ NSC", "TAF VCBI 131100Z 1312/1418 24009KT 9000 -TSRA/SHRA FEW012 BKN016 TX29/1407Z TN24/1400Z BECMG 1316/1318 VRB05KTKT", "VCRI 131100Z 1312/1418 24010KT 9999 SCT018 TX33/1407Z TN25/1400Z PROB40 TEMPO 1312/1316 7000 -TSRA/SHRA SCT016 FEW018CB BKN080 BECMG 1314/1316 VRB05KT", "TAF VDPP 131100Z 1312/1406 34007KT 9999 SCT017 TEMPO 1312/1317 SCT015 FEW017CB SCT040", "TAF VDSR 131100Z 1312/1406 33008KT 9999 SCT017 TEMPO 1312/1317 SCT015 FEW017CB SCT040", "TAF VDSV 131100Z 1312/1406 32007KT 9999 SCT017 TEMPO 1312/1317 SCT015 FEW017CB SCT040", "TAF VEAB 130330Z 1306/1318 36005KT 6000 SCT020 SCT250 BECMG 1313/1318 02005KT 5000 HZ/BR FEW020 SCT250", "TAF VEAN 130500Z 1306/1315 05005KT 5000 BR HZ SCT020 BKN100 BECMG 1313/1315 00000KT 3000 BR", "TAF VEAT 131100Z 1312/1321 00000KT 4000 BR SCT018 SCT025 FEW030CB BECMG 1315/1319 2500 BR SCT018 BKN100", "TAF VEBD 130500Z 1306/1412 12007KT 6000 SCT020 FEW030TCU SCT100 TEMPO 1309/1312 4000 TSRA SCT015 FEW030CB BKN080 TEMPO 1400/1403 3000 BR SCT025 SCT100", "TAF VEBI 130800Z 1309/1318 09005KT 5000 HZ SCT018 BKN100 BECMG 1313/1315 00000KT 3000 BR", "TAF VEBN 131100Z 1312/1321 32004KT 4000 HZ FEW020 SCT025 BECMG 1314/1316 VRB02KT 3000 BR SCT020 SCT100", "TAF VEBS 131100Z 1312/1418 07005KT 4000 HZ SCT016 SCT100 TEMPO 1313/1315 2000 -TSRA BKN016 FEW030CB OVC090 BECMG 1403/1405 03005KT 5000 HZ SCT018 SCT100 TEMPO 1408/1412 2000 -TSRA BKN016 FEW030CB OVC090 BECMG 1413/1415 07005KT 3000 HZ SCT016 SCT100", "TAF VEBU 130500Z 1306/1315 05005KT 3000 BR FEW020 SCT025 TEMPO 1309/1313 09010G20KT 2000 -TSRA FEW020 SCT025 FEW030CB BKN090", "TAF VECC 131100Z 1312/1321 16005KT 3500 -RA HZ SCT018 BKN100 TEMPO 1312/1316 1500 TSRA SCT015 FEW025CB OVC090", "TAF VECO 130200Z 1303/1312 00000KT 2500 -RA BR SCT018 BKN090 TEMPO 1303/1307 1400 TSRA SCT015 FEW025CB OVC090 BECMG 1307/1309 11005KT 4000 -RA HZ", "TAF VECX 130330Z 1306/1318 29010KT 6000 SCT030 TEMPO 1309/1311 SCT025 FEW030TCU", "TAF VEDG 131100Z 1312/1418 34005KT 3500 -RA HZ SCT018 BKN100 TEMPO 1320/1324 1500 TSRA SCT015 FEW025CB OVC090 BECMG 1400/1402 00000KT 2400 -RA HZ BECMG 1403/1405 02005KT 4000 -RA HZ SCT018 SCT025 TEMPO 1406/1410 1500 TSRA SCT015 FEW025CB OVC090", "TAF VEDZ 130500Z 1306/1315 32005KT 3000 -RA BR FEW010 SCT018 BKN090 BECMG 1308/1310 5000 BR HZ SCT020 SCT100 BECMG 1313/1315 00000KT 3000 BR", "TAF VEGK 130330Z 1306/1318 29005KT 6000 SCT025 SCT100 TEMPO 1308/1312 27010KT 6000 SCT020 FEW030TCU/CB SCT250 BECMG 1316/1318 VRB02KT 5000 BR SCT020 SCT100", "TAF VEGT 131100Z 1312/1418 32005KT 3000 BR SCT018 FEW025CB BKN100 TEMPO 1315/1317 1500 -TSRA FEW010 SCT018 FEW025CB BKN090 BECMG 1403/1405 05005KT 5000 HZ SCT018 SCT100 BECMG 1413/1415 00000KT 3000 BR", "TAF VEGY 131100Z 1312/1321 00000KT 4000 HZ SCT018 BKN100 BECMG 1318/1320 3000 SCT018 SCT100", "TAF VEIM 131100Z 1312/1418 25005KT 3000 BR SCT018 BKN100 TEMPO 1315/1317 1500 -TSRA FEW008 SCT016 FEW025CB OVC090 BECMG 1403/1405 11005KT 5000 HZ SCT018 SCT100 BECMG 1413/1415 00000KT 3000 BR", "TAF VEJH 131100Z 1312/1321 03005KT 4000 HZ SCT018 SCT100 TEMPO 1313/1315 2000 -TSRA BKN016 FEW030CB OVC090", "TAF VEJR 130500Z 1306/1315 19005KT 4000 HZ -RA FEW018 SCT025 TEMPO 1308/1312 09010G20KT 2000 -TSRA FEW020 SCT025 FEW030CB BKN090 BECMG 1313/1315 11003KT 2500 HZ -RA SCT018 BKN090", "TAF VEJS 131100Z 1312/1321 00000KT 2500 -RA BR SCT018 FEW030CB BKN100 1318/1320 3500 BR SCT018 BKN100", "TAF VEJT 130330Z 1306/1318 02005KT SCT020 FEW030TCU BKN090 TEMPO 1308/1310 20010G20KT 3000 TSRA SCT008 SCT012 FEW030CB BKN090 TEMPO 1315/1318 VRB02KT 5000 RA SCT012 BKN090", "TAF VEKO 131100Z 1312/1321 05010KT 5000 HZ FEW025 SCT030 BECMG 1315/1317 4000 HZ SCT030", "TAF VELP 130800Z 1309/1318 15004KT 4000 BR SCT018 SCT025 BKN100 TEMPO 1311/1315 2800 -TSRA SCT015 FEW030CB BKN100", "TAF VELR 130800Z 1309/1318 05005KT 4000 HZ FEW008 SCT016 BKN090", "TAF VEMN 131100Z 1312/1321 09006KT 5000 HZ SCT018 BKN100 BECMG 1312/1315 3000 BR SCT018 BKN100", "TAF VEMR 130800Z 1309/1318 21005KT 5000 HZ SCT018 BKN100 BECMG 1312/1314 00000KT 3000 BR", "TAF VEPT 131100Z 1312/1321 32005KT 4000 BR HZ SCT018 BKN100 BECMG 1318/1320 00000KT 2500 BR SCT100", "TAF VEPY 130800Z 1309/1318 19005KT 4000 -RA HZ FEW008 SCT015 BKN090 BECMG 1312/1314 00000KT 2500 -RA BR", "TAF VERC 131100Z 1312/1321 00000KT 4000 -RA HZ SCT018 FEW030CB BKN100 BECMG 1318 1320 00000KT 3000 HZ SCT100", "TAF VERP 131100Z 1312/1321 28005KT 5000 HZ FEW020 SCT025 TEMPO 1313/1317 32010KT 3000 -TSRA -SHRA SCT020 FEW030CB BKN080 ", "TAF VERU 130800Z 1309/1318 27005KT 5000 HZ SCT018 BKN100 BECMG 1312/1314 00000KT 3000 BR", "TAF VETJ 130500Z 1306/1315 27005KT 5000 BR HZ SCT020 BKN100 BECMG 1313/1315 00000KT 3000 BR", "TAF VETZ 130330Z 1306/1318 17005KT 5000 RABR BKN010 SCT015 OVC080 BECMG 1306/1307 14005KT 6000 SCT010 SCT015 BKN080", "TAF VEZO 130500Z 1306/1315 02005KT 3000 -RA BR FEW010 SCT018 BKN090 BECMG 1308/1310 5000 BR HZ SCT020 SCT100 BECMG 1313/1315 00000KT 3000 BR", "TAF VGEG 131100Z 1312/1418 23010KT 5000 HZ SCT016 BKN120 TEMPO 1322/1403 30020KT 1500 RA/TSRA BKN007 FEW028CB OVC080 BECMG 1403/1405 15008KT 5000 SCT016 BKN120 BECMG 1411/1413 23010KT 4500 HZ SCT016 BKN120", "TAF VGHS 131100Z 1312/1418 20007KT 4000 HZ SCT012 BKN100 TEMPO 1318/1322 22020KT 2000 RA/TSRA BKN008 FEW025CB OVC090 BECMG 1404/1406 21008KT 4000 HZ SCT012 BKN100", "TAF VHHH 131100Z 1312/1418 12010KT 9999 FEW030 TX30/1406Z TN24/1322Z BECMG 1315/1317 06010KT BECMG 1403/1405 30010KT BECMG 1408/1410 10010KT", "TAF VIAG 130500Z 1306/1412 32008KT 6000 FEW030 BECMG 1218/1220 5000 BR NSC BECMG 1222/1223 3000 BR TEMPO 1300/1303 1500 BR BECMG 1304/1305 5000 BR", "TAF VIAR 131100Z 1312/1418 29006KT 5000 HZ NSC BECMG 1318/1320 VRB02KT 3000 BR BECMG 1400/1402 00000KT 2000 BR BECMG 1403/1405 VRB02KT 4000 HZ BECMG 1406/0408 29006KT 5000 HZ BECMG 1415/1417 VRB02KT 3000 HZ", "TAF VIBR 130500Z 1306/1315 VRB02KT 6000 FEW025 BECMG 1312/1314 3000 BR", "TAF VIBT 130330Z 1306/1318 22010KT 6000 FEW025 TEMPO 1316/1318 13005KT 5000 BR", "TAF VIBY 130030Z 1306/1318 28008KT 6000 SCT030 BECMG 1316/1318 27004KT 4000 BR/HZ SCT025 TX 31/09Z", "TAF VICG 131100Z 1312/1418 VRB02KT 6000 NSC TEMPO 1315/1318 VRB02KT 5000 BR NSC TEMPO 1322/1400 VRB02KT 3000 BR NSC BECMG 1401/1403 34010KT 6000 FEW030 SCT090 TEMPO 1408/1410 32010G20KT 6000 SCT030 FEW030TCU BECMG 1412/1415 VRB02KT 5000 BR SCT090", "TAF VIDN 130500Z 1306/1315 29005KT 6000 FEW030 BECMG 1312/1314 VRB02KT 3000 HZ BR", "TAF VIDP 131100Z 1312/1418 32006KT 4000 HZ NSC BECMG 1318/1320 25004KT 2500 BR BECMG 1400/1402 00000KT 1500 BR BECMG 1404/1406 25004KT 3000 HZ BECMG 1408/1410 32006KT 4000 HZ BECMG 1415/1417 25003KT 3000 HZ", "TAF VIGG 130500Z 1306/1315 00000KT 6000 FEW040 BECMG 1312/1314 3000 BR", "TAF VIGR 130330Z 1306/1318 34005KT 6000 SCT020 TEMPO 1309/1311 FEW030TCU BECMG 1316/1318 29005KT 5000 BR FEW025", "TAF VIJO 130800Z 1309/1318 VRB02KT 5000 HZ NSC BECMG 1313/1315 05005KT 3000 HZ", "TAF VIJP 131100Z 1312/1418 VRB03KT 3000 HZ FU NSC BECMG 1404/1406 VRB03KT 5000 HZ FEW040 BECMG 1412/1414 VRB03KT 3000 HZ FU NSC", "TAF VIJU 130330Z 1306/1318 02010KT 6000 NSC BECMG 1307/1311 32010KT 6000 FEW030", "TAF VIKG 130500Z 1306/1315 VRB02KT 5000 HZ NSC BECMG 1313/1315 36004KT 3000 HZ BR NSC", "TAF VILH 120930Z 1218/1312 29005KT 6000 SCT070 SCT100 TEMPO 1223/1303 5000 RA SCT060 BKN100 TEMPO 1308/1312 29010G20KT", "TAF VILK 131100 1312/1321 29004KT 5000 HZ SCT020 SCT025 BECMG 1314/1316 VRB02KT 3000 BR SCT100", "TAF VISM 130500Z 1306/1315 00000KT 6000 NSC BECMG 1312/1314 3000 BR FEW030", "TAF VISR 130330Z 1306/1318 29005KT 6000 FEW025 SCT090 TEMPO 1309/1312 FEW030TCU TEMPO 1312/1314 4000 FU", "TAF VLLB 131100Z 1312/1412 09004KT 5000 BR SCT020 BKN080", "TAF VLLN 131100Z 1312/1412 14002KT 4000 BR SCT010 SCT050 BKN100", "TAF VLPS 131100Z 1312/1412 36010KT 5000 BR FEW020 SCT050 BKN200", "TAF VLSK 131100Z 1312/1412 06008KT 4000 BR SCT020 FEW050 SCT100", "TAF VLVT 131100Z 1312/1412 09004KT 5000 BR FEW050 SCT100", "TAF VMMC 131100Z 1312/1418 02014KT 9999 FEW040 TEMPO 1312/1316 09008KT TEMPO 1410/1416 09008KT", "TAF VNKT 131100Z 1312/1412 22008KT 8000 FEW015 SCT030 BKN100 BECMG 1314/1315 15003KT 7000 FEW015 SCT030 BECMG 1400/1402 VRB02KT 6000 FEW010 SCT030 BKN100 BECMG 1404/1405 12003KT 7000 FEW015 SCT030 BECMG 1407/1408 25008KT 8000 FEW015 SCT030 BKN100 PROB30 1408/1412 VRB10KT 5000 -TSRA/-RA FEW025CB", "TAF VOAR 130500Z 1306/1412 15004KT 6000 FEW020 SCT090 TEMPO 1311/1316 3400 -RA/DZ SCT018 BKN080 BECMG 1316/1318 VRB02KT 4500 BR BECMG 1400/1401 2500 BECMG 1403/1405 16008KT 6000", "TAF VOAT 130200Z 1303/1312 27005KT 5000 HZ SCT012 TEMPO 1309/1312 28010KT 3500 -TSRA SCT015 FEW025CB BKN080", "TAF VOBG 131100Z 1312/1321 09010KT 6000 SCT012 SCT080 TEMPO 1312/1318 3000 TSRA RA SCT008 SCT012 FEW025CB BKN080", "TAF VOBL 131100Z 1312/1418 09010KT 6000 SCT012 SCT080 TEMPO 1312/1318 3000 TSRA RA SCT008 SCT012 FEW025CB BKN080 BECMG 1322/1323 3000 DZ BR SCT008 SCT012 TEMPO 1400/1403 1500 BR SCT005 SCT012 TEMPO 1409/1415 3000 TSRA RA SCT008 SCT012 FEW025CB BKN080", "TAF VOBM 131100Z 1312/1321 27010KT 6000 SCT012 SCT080 TEMPO 1312/1318 3000 TSRA RA SCT008 SCT012 FEW025CB BKN080", "TAF VOBZ 131100Z 1312/1321 14008KT 6000 SCT015 BKN100 TEMPO 1312/1318 14010KT 3000 -TSRA DZ BR SCT010 SCT015 FEW030CB OVC080 BECMG 1318/1320 23008KT 5000 BR HZ SCT015 SCT100", "TAF VOCB 131100Z 1312/1418 21010KT 5000 HZ SCT012 BKN080 PROB30 TEMPO 1312/1318 4000 -TSRA/RA SCT010 FEW020CB BKN080 BECMG 1406/147 6000 BECMG 1415/1416 5000 HZ", "TAF VOCI 131100Z 1312/1418 27010KT 5000 HZ SCT015 SCT090 BECMG 1315/1316 VRB03KT 4000 BR TEMPO 1322/1402 2500 BR SCT015 BKN080 BECMG 1403/1404 29005KT 5000 HZ FEW010 SCT015 BKN080 TEMPO 1410/1412 28010KT 5000 HZ SCT015 SCT080 BECMG 1414/1415 28005KT 4000 BR", "TAF VOCL 131100Z 1312/1418 28005KT 6000 FEW012 SCT080 BECMG 1315/1316 VRB03KT 5000 BR TEMPO 1322/1402 4000 BR SCT012 SCT080 BECMG 1403/1404 27005KT 6000 SCT012 SCT080 TEMPO 1412/1414 28010KT 5000 BR", "TAF VOCP 130800Z 1309/1318 10008KT 6000 SCT015 SCT100 TEMPO 1311/1315 FEW030CB BKN080 BECMG 1315/1317 VRB04KT 5000 HZ SCT015 SCT100", "TAF VOGB 130800Z 1309/1318 VRB02KT 6000 SCT015 SCT080 TEMPO 1309/1315 3000 TSRA RA SCT012 SCT018 FEW025CB BKN080", "TAF VOGO 131100Z 1312/1418 26006KT 6000 FEW015 SCT020 SCT090 TEMPO 1316/1320 3000 TSRA RA FEW008 SCT016 FEW025CB BKN080 TEMPO 1400/1409 VRB02KT 2000 DZ BR FEW006 SCT012 BKN080 TEMPO 1414/1418 3000 TSRA RA FEW010 SCT020 FEW025CB BKN080", "TAF VOHB 131100Z 1312/1418 27010KT 6000 SCT012 SCT080 TEMPO 1312/1318 3000 TSRA RA SCT008 SCT012 FEW025CB BKN080 BECMG 1322/1323 3000 BR SCT008 SCT012 TEMPO 1400/1403 1500 BR TEMPO 1409/1415 3000 TSRA RA SCT008 SCT012 FEW025CB BKN080", "TAF VOHS 131100Z 1312/1321 12005KT 3000 TSRA SCT010 SCT015 BKN080 TEMPO 1313/1318 12005KT 3000 -TSRA BKN010 FEW030CB OVC080", "TAF VOHY 131100Z 1312/1321 12005KT 3000 TSRA SCT010 SCT015 BKN080 TEMPO 1313/1318 12005KT 3000 -TSRA BKN010 FEW030CB OVC080", "TAF VOJV 130800Z 1309/1318 VRB02KT 6000 SCT015 SCT080 TEMPO 1309/1315 3000 TSRA RA SCT012 SCT018 FEW025CB BKN080", "TAF VOKN 131100Z 1312/1418 29005KT 6000 FEW015 BECMG 1316/1317 VRB03KT 4000 BR FEW012 SCT080 TEMPO 1322/1402 1500 BR SCT004 SCT012 BKN080 BECMG 1403/1404 26005KT 5000 HZ SCT012 SCT080 TEMPO 1410/1414 29010KT 6000 FEW012 FEW025TCU BECMG 1414/1415 28005KT 4000 BR FEW012", "TAF VOKU 130800Z 1309/1318 05010KT 6000 SCT015 BKN100 TEMPO 1311/1315 15015KT 3000 -TSRA BKN010 FEW030CB BKN080 BECMG 1315/1317 VRB04KT 5000 HZ SCT015 SCT100", "TAF VOLT 131100Z 1312/1321 04004KT 3000 -RA HZ SCT018 SCT025 BKN090 TEMPO 1312/1318 05007G17KT 1500 -TSRA SHRA SCT015 FEW030CB OVC080 ", "TAF VOMD 131100Z 1312/1418 09005KT 5000 -DZ/BR SCT018 BKN080 PROB30 TEMPO 1312/1318 4000 -TSRA/RA SCT015 FEW025CB BKN080 BECMG 1318/1319 29005KT BECMG 1406/1407 6000 BECMG 1412/1413 09005KT 5000 HZ", "TAF VOML 131100Z 1312/1418 25010KT 6000 SCT012 SCT080 TEMPO 1312/1318 3000 RA DZ SCT005 SCT012 FEW025CB BKN080 BECMG 1317/1318 VRB02KT BECMG 1322/1323 3000 BR SCT005 SCT012 TEMPO 1400/1403 0800 FG SCT001 SCT012 BECMG 1404/1405 25010KT 6000 SCT012 SCT080", "TAF VOMM 131100Z 1312/1418 14010KT 5000 BR/HZ SCT020 BKN100 PROB30 TEMPO 1312/1318 4000 -TSRA/RA SCT015 FEW025CB BKN080 BECMG 1318/1319 25005KT BECMG 1400/1401 3000 RA/+DZ SCT012 BKN080 BECMG 1403/1404 5000 -DZ/HZ BECMG 1406/1407 6000 BECMG 1412/1413 14010KT", "TAF VOMY 130800Z 1309/1318 11010KT 6000 SCT012 SCT080 TEMPO 1309/1315 3000 TSRA RA SCT008 SCT012 FEW025CB BKN080", "TAF VOND 131100Z 1312/1321 05005KT 3000 -RA HZ SCT018 SCT025 BKN090 TEMPO 1312/1316 04007G17KT 1500 -TSRA SHRA SCT015 FEW030CB OVC080 BECMG 1316/1318 2500 BR HZ SCT020 BKN100 ", "TAF VOPB 130900Z 1312/1321 VRB02KT 5000 BR SCT014 BKN080 TEMPO 1312/1316 3000 RA SCT012 SCT020 FEW022TCU BKN080", "TAF VORY 131100Z 1312/1321 12010KT 3000 -TSRA SCT010 SCT015 BKN080 TEMPO 1312/1318 5000 BR BKN010 SCT015 OVC080", "TAF VOSR 131100Z 1312/1321 25005KT 3000 -RA HZ SCT018 SCT025 BKN090 TEMPO 1312/1318 27007G17KT 1500 -TSRA SHRA SCT015 FEW030CB OVC080 ", "TAF VOTP 131100Z 1312/1321 14010KT 6000 SCT015 SCT025 TEMPO 1316/1318 14006KT 5000 BR HZ SCT015 SCT100", "TAF VOTR 131100Z 1312/1418 11005KT 3000 -DZ/BR SCT016 BKN080 PROB30 TEMPO 1312/1318 3000 TSRA/RA SCT015 FEW025CB BKN080 BECMG 1403/1404 5000 HZ BECMG 1406/1407 6000 BECMG 1415/1416 5000 HZ", "TAF VOTV 131100Z 1312/1418 28005KT 5000 TS HZ SCT015 FEW025CB SCT090 BECMG 1314/1315 3000 BR SCT015 SCT080 BECMG 1322/1402 36005KT 2500 -RA BR BECMG 1404/1405 28010KT 6000 FEW015 SCT080 TEMPO 1410/1414 4000 -TSRA BR SCT015 FEW025CB BKN080 BECMG 1414/1415 28005KT 3000 BR SCT015 SCT080", "TAF VOVZ 131100Z 1312/1418 11006KT 5000 BR SCT018 BKN08 BECMG 1314/1316 VRB02KT TEMPO 1322/1402 3000 BR BECMG 1402/1404 23005KT 5000 BR/HZ TEMPO 1408/1412 4000 RA/DZ FEW010 FEW025CB BKN080 BECMG 1414/1416 VRB02KT 5000 BR SCT018 SCT080", "TAF VRMG 131100Z 1312/1418 26017KT 9999 FEW018TCU BKN120 TEMPO 1314/1320 25020G35KT 5000 TSRA FEW017CB", "TAF VRMH 131100Z 1312/1418 27014KT 9000 SCT017TCU BKN110 TEMPO 1312/1318 26018G33KT 4000 TSRA SCT016CB", "TAF VRMM 131100Z 1312/1418 28020KT 9000 SCT017TCU BKN110 TEMPO 1314/1320 28025G40KT 3000 TSRA SCT017CB", "TAF VTBD 131100Z 1312/1418 03005KT 9999 FEW030 BECMG 1317/1319 33005KT BECMG 1400/1402 03005KT", "TAF VTBO 131100Z 1312/1412 03008KT 9000 FEW020 SCT080 BECMG 1317/1319 26005KT BECMG 1400/1402 02008KT", "TAF VTBS 131100Z 1312/1418 08005KT 9999 FEW030 BECMG 1319/1321 01005KT BECMG 1401/1403 08005KT", "TAF VTBU 131100Z 1312/1412 01006KT 9999 FEW020", "TAF VTCC 131100Z 1312/1418 15005KT 9999 SCT035 BECMG 1313/1315 26005KT PROB30 TEMPO 1319/1323 -TSRA FEW025CB SCT035 BECMG 1322/1324 19005KT PROB30 TEMPO 1407/1413 10010G25KT 3000 TSRA FEW025CB SCT035 BECMG 1410/1412 27005KT", "TAF VTCH 131100Z 1312/1412 15005KT 9999 FEW025 BECMG 1321/1323 00000KT 1500 BR BECMG 1400/1402 16005KT 9999 NSW", "TAF VTCL 131100Z 1312/1412 14005KT 9999 FEW025 PROB30 TEMPO 1407/1412 -TSRA FEW020CB SCT025", "TAF VTCN 131100Z 1312/1412 08005KT 9999 FEW025", "TAF VTCP 131100Z 1312/1412 20005KT 9999 SCT045 PROB30 TEMPO 1407/1412 -TSRA FEW020CB SCT030", "TAF VTCT 131100Z 1312/1418 03005KT 9999 FEW025 BECMG 1313/1315 22005KT BECMG 1319/1321 02005KT BECMG 1406/1408 16005KT", "TAF VTPB 131100Z 1312/1412 02005KT 9999 FEW030", "TAF VTPH 131100Z 1312/1412 05005KT 9999 FEW020", "TAF VTPM 131100Z 1312/1412 26005KT 9999 FEW030", "TAF VTPO 131100Z 1312/1412 28005KT 9999 FEW025", "TAF VTPP 131100Z 1312/1412 27005KT 9999 FEW025", "TAF VTSB 131100Z 1312/1412 00000KT 9999 FEW020 BECMG 1321/1323 1500 BR BKN005 BECMG 1400/1402 9999 NSW FEW020 BECMG 1402/1404 06008KT TEMPO 1406/1412 VRB15G25KT 4000 TSRA FEW016CB SCT018 BKN100", "TAF VTSC 131100Z 1312/1412 30005KT 9999 FEW020 SCT100 TEMPO 1321/1403 4000 RA TEMPO 1406/1412 VRB15G25KT 4000 TSRA FEW016CB SCT018 BKN100", "TAF VTSE 131100Z 1312/1412 00000KT 9999 FEW020 BECMG 1402/1404 05006KT TEMPO 1405/1412 VRB15G25KT 4000 TSRA FEW016CB SCT018 BKN100", "TAF VTSF 131100Z 1312/1412 04005KT 9999 SCT020 TEMPO 1312/1316 4000 TSRA FEW016CB SCT018 BKN100 TEMPO 1406/1412 VRB15G25KT 3000 TSRA FEW016CB SCT018 BKN100", "TAF VTSG 131100Z 1312/1412 00000KT 9999 FEW020 TEMPO 1312/1318 24015G25KT 3000 TSRA FEW018CB SCT020 BKN100 BECMG 1320/1322 3000 BR BECMG 1400/1402 9999 NSW BECMG 1404/1406 24006KT TEMPO 1406/1412 24015G25KT 3000 TSRA FEW018CB SCT020 BKN100", "TAF VTSM 131100Z 1312/1412 33005KT 9999 FEW020 TEMPO 1405/1412 VRB15G25KT 4000 TSRA FEW016CB SCT018 BKN100", "TAF VTSP 131100Z 1312/1418 00000KT 9999 FEW020 TEMPO 1312/1318 30015G25KT 3000 TSRA FEW018CB SCT020 BKN100 BECMG 1400/1402 30008KT", "TAF VTSR 131100Z 1312/1412 00000KT 9999 SCT020 BECMG 1404/1406 30006KT", "TAF VTSS 131100Z 1312/1412 00000KT 9999 FEW020 BKN100 PROB40 TEMPO 1312/1316 4000 RA BECMG 1321/1323 2000 BR BKN005 BECMG 1401/1403 03008KT 9999 NSW FEW020 TEMPO 1406/1412 VRB15G25KT 3000 TSRA FEW016CB SCT018 BKN100", "TAF VTST 131100Z 1312/1412 00000KT 9999 FEW020 TEMPO 1312/1318 24015G25KT 3000 TSRA FEW018CB SCT020 BKN100 BECMG 1320/1322 3000 BR BECMG 1400/1402 9999 NSW BECMG 1404/1406 24006KT TEMPO 1406/1412 24015G25KT 3000 TSRA FEW018CB SCT020 BKN100", "TAF VTUD 131100Z 1312/1412 08005KT 9000 NSC", "TAF VTUI 131100Z 1312/1412 06005KT 9000 NSC", "TAF VTUK 131100Z 1312/1412 04005KT 8000 NSC", "TAF VTUL 131100Z 1312/1412 10005KT 7000 FEW030 BECMG 1321/1323 00000KT 2500 BR BECMG 1401/1403 12005KT 8000 NSW", "TAF VTUO 131100Z 1312/1412 08010KT CAVOK", "TAF VTUQ 131100Z 1312/1412 05008KT CAVOK", "TAF VTUU 131100Z 1312/1412 03012KT CAVOK", "TAF VTUV 131100Z 1312/1412 05007KT CAVOK", "TAF VTUW 131100Z 1312/1412 07005KT 9000 NSC", "TAF VVCI 131100Z 1312/1412 07005KT CAVOK", "TAF VVCR 131100Z 1312/1412 35008KT 8000 SCT015 BKN060 TEMPO 1312/1324 4500 RA BECMG 1402/1403 26010KT", "TAF VVCT 131100Z 1312/1412 VRB03KT 9999 SCT015 SCT040 BECMG 1321/1322 36010KT TEMPO 1322/1402 4000 SHRA BKN013 FEW015CB BKN040 TEMPO 1407/1412 36015G25KT 3000 TSRA BKN013 SCT015CB", "TAF VVDN 131100Z 1312/1412 32014KT 8000 FEW015 BKN050 TEMPO 1318/1324 4000 RA TEMPO 1400/1406 33015G25KT 2500 +TSRA SCT010 SCT015CB BKN050 TEMPO 1406/1412 35018G28KT 1400 +TSRA SCT007 SCT015CB BKN050", "TAF VVNB 131100Z 1312/1412 03005KT CAVOK", "TAF VVPB 131100Z 1312/1412 31008KT 8000 FEW015 BKN050 TEMPO 1320/1402 4000 RA TEMPO 1402/1408 32015G25KT 2800 +TSRA SCT010 SCT015CB BKN050 TEMPO 1408/1412 34017G27KT 1400 +TSRA SCT007 SCT015CB BKN050", "TAF VVPQ 131100Z 1312/1412 VRB03KT 9999 SCT015 BECMG 1320/1321 27010KT TEMPO 1321/1402 3000 SHRA BKN013 SCT015CB", "TAF VVTS 131100Z 1312/1418 35007KT 9999 SCT015 SCT040 TEMPO 1406/1411 35015G25KT 3000 TSRA BKN013 SCT015CB", "TAF VYMD 131100Z 1312/1412 36005KT 7000 BKN020 TEMPO 1312/1318 36007KT 6000 BKN020 FEW025CB", "TAF VYNT 131100Z 1312/1412 23007KT 7000 SCT018 FEW023CB BKN110 TEMPO 1312/1318 27006KT 5000 -TSRA BKN015 FEW020CB BKN110", "TAF VYYY 131100Z 1312/1412 25005KT 7000 SCT018 FEW020CB BKN100 TEMPO 1312/1318 23006KT 4000 TSRA BKN016 FEW018CB OVC090", "TAF WAAA 131100Z 1312/1418 12004KT 8000 SCT019 BECMG 1402/1403 29010KT", "TAF WABB 131100Z 1312/1418 00000KT 9000 SCT018 BECMG 1323/1400 10006KT", "TAF WADD 131100Z 1312/1412 15010KT 9999 SCT016", "TAF WADL 131100Z 1312/1412 16005KT 7000 SCT016", "TAF WALL 131100Z 1312/1418 24007KT 9000 FEW020 BECMG 1315/1317 FEW015CB SCT015 TEMPO 1318/1322 5000 RA FEW014CB BKN015", "TAF WALS 131100Z 1312/1324 23006KT 8000 FEW017 TEMPO 1320/1323 3000 BR BN015", "TAF WAMM 131100Z 1312/1418 VRB03KT 9999 SCT019 BECMG 1400/1402 25007KT", "TAF WAOO 131100Z 1312/1412 22005KT 9000 SCT017 PROB40 TEMPO 1404/1408 4000 RA", "TAF WAPP 131100Z 1312/1412 34007KT 9999 SCT017", "TAF WAQA 131100Z 1312/1324 12006KT 7000 FEW012 BECMG 1320/1322 FEW012CB SCT015", "TAF WAQD 131100Z 1312/1324 00000KT 7000 SCT015 TEMPO 1312/1315 3000 FU", "TAF WAQJ 131100Z 1312/1324 26005KT 6000 BKN017 TEMPO 1312/1316 4000 TSRA FEW014CB BKN015", "TAF WAQQ 131100Z 1312/1324 07005KT 8000 SCT015", "TAF WAQT 131100Z 1312/1324 26005KT 7000 FEW015CB SCT017 TEMPO 1313/1316 4000 TSRA FEW010CB BKN012", "TAF WARR 131100Z 1312/1412 25005KT 8000 SCT020CB TEMPO 1312/1314 5000 TSRA BECMG 1314/1316 5000 HZ FEW020 BECMG 1400/1402 06012KT 9999 NSW", "TAF WATT 131100Z 1312/1412 15006KT 8000 SCT017 BECMG 1401/1403 17014KT", "TAF WBGB 131100Z 1312/1412 22006KT 9999 SCT016 TEMPO 1312/1314 8000 -RA FEW015CB SCT016", "TAF WBGG 131100Z 1312/1412 24005KT 9999 SCT018 TEMPO 1408/1412 3000 TSRA FEW015CB SCT018", "TAF WBGR 131100Z 1312/1412 23012KT 9999 SCT018 TEMPO 1312/1316 4000 +TSRA FEW015CB", "TAF WBGS 131100Z 1312/1412 24005KT 9999 SCT016 TEMPO 1312/1314 8000 -RA FEW015CB SCT016 TEMPO 1409/1412 4000 RA SCT016", "TAF WBKK 131100Z 1312/1412 11007KT 9999 FEW014 PROB30 TEMPO 1319/1322 22012G25KT 4000 TSRA FEW013 FEW016CB", "TAF WBKL 131100Z 1312/1412 22007KT 9999 FEW015 PROB30 TEMPO 1318/1322 22010G23KT 4000 TSRA FEW010 FEW015CB", "TAF WBKS 131100Z 1312/1412 03007KT 9999 FEW016 PROB30 TEMPO 1316/1319 5000 TSRA FEW012 FEW016CB", "TAF WBKW 131100Z 1312/1412 32005KT 9999 FEW017 PROB40 TEMPO 1320/1323 24010G23KT 5000 TSRA FEW012 FEW016CB", "TAF WBSB 131050Z 1312/1418 22010KT 9999 FEW014 FEW015CB TEMPO 1312/1318 21015G25KT 5000 -SHRA SCT014 FEW015CB BECMG 1316/1318 FEW004", "TAF WIDD 131100Z 1312/1412 24005KT 9000 FEW014", "TAF WIEE 131100Z 1312/1412 16004KT 9999 SCT020 TEMPO 1319/1322 3000 RA BKN018", "TAF WIHH 131100Z 1312/1412 08005KT 4000 HZ SCT018 BECMG 1316/1318 21003KT 3000 BR", "TAF WIII 131100Z 1312/1418 15010KT 5000 HZ SCT020 TEMPO 1312/1314 -RA BECMG 1314/1316 VRB03KT BECMG 1322/1324 8000 NSW", "TAF WIMM 131100Z 1312/1412 VRB05KT 5000 HZ SCT018 TEMPO 1313/1317 -TSRA FEW017CB SCT018 BECMG 1402/1404 02010KT 9999 NSW", "TAF WIPB 130500Z 1306/1318 12005KT 9999 BKN010 TEMPO 1308/1312 4000 TSRA FEW010CB BKN011", "TAF WIPP 131100Z 1312/1412 05006KT 9999 SCT010 TEMPO 1321/1324 3000 BR", "TAF WIPY 130500Z 1306/1318 09006KT 9999 SCT010 TEMPO 1307/1311 3000 TSRA FEW009CB BKN010", "TAF WITT 131100Z 1312/1412 28007KT 9999 SCT018 TEMPO 1317/1320 16005KT", "TAF WMAP 131100Z 1312/1412 VRB03KT 9999 FEW017CB TEMPO 1406/1410 4000 TSRA FEW017CB SCT018", "TAF WMBT 131100Z 1312/1412 VRB02KT 9999 FEW025", "TAF WMKA 131100Z 1312/1412 VRB02KT 9000 SCT028 TEMPO 1320/1401 5000 TSRA FEW017CB", "TAF WMKB 131100Z 1312/1412 VRB02KT 8000 FEW024 TEMPO 1321/1401 6000 TSRA FEW017CB BECMG 1404/1406 30006KT 9000 FEW020", "TAF WMKC 131100Z 1312/1412 34006KT 9999 FEW020", "TAF WMKE 131100Z 1312/1412 VRB02KT 9999 FEW017 TEMPO 1312/1316 4000 TSRA FEW014CB", "TAF WMKI 131100Z 1312/1412 VRB02KT 8000 FEW027 BECMG 1400/1402 05005KT 9999 FEW020 PROB30 TEMPO 1406/1410 6000 TSRA FEW017CB", "TAF WMKJ 131100Z 1312/1412 VRB03KT 9999 FEW022 TEMPO 1406/1410 26005G18KT 4000 TSRA FEW017CB SCT020", "TAF AMD WMKK 131126Z 1312/1418 VRB02KT 9999 FEW017CB TEMPO 1320/1400 3000 TSRA FEW008 FEW016CB PROB30 TEMPO 1406/1410 4000 TSRA FEW016CB SCT018", "TAF WMKL 131100Z 1312/1412 VRB02KT 9999 SCT026 PROB30 TEMPO 1316/1319 7000 RA FEW017CB TEMPO 1319/1324 5000 TSRA FEW017CB", "TAF WMKM 131100Z 1312/1412 VRB03KT 9999 FEW028 TEMPO 1320/1400 4000 TSRA FEW008 FEW017CB", "TAF WMKN 131100Z 1312/1412 33006KT 9999 FEW022", "TAF WMKP 131100Z 1312/1412 00000KT 9000 SCT025 PROB30 TEMPO 1316/1319 6000 RA FEW017CB TEMPO 1319/1400 5000 TSRA FEW017CB BECMG 1405/1407 23008KT FEW020", "TAF WMPA 130500Z 1306/1406 VRB02KT 9999 FEW021 PROB30 TEMPO 1318/1322 6000 TSRA FEW017CB", "TAF WMSA 131100Z 1312/1412 30006KT 9999 FEW026 TEMPO 1320/1400 4000 TSRA FEW008 FEW017CB", "TAF WPDL 131111Z 1312/1400 16005KT 9999 FEW020", "TAF WSAP 131100Z 1312/1418 26010KT 9999 FEW015 BKN020", "TAF WSSL 131100Z 1312/1418 26010KT 9999 FEW015 BKN020", "TAF WSSS 131100Z 1312/1418 26010KT 9999 FEW015 BKN020", "TAF YAMB 131053Z 1312/1412 08006KT 9999 SCT015 BKN025 FM131400 VRB03KT 9999 BKN010 FM132300 33008KT 9999 FEW015 SCT030 FM140700 24006KT 9999 FEW040 TEMPO 1312/1323 4000 DZ BKN005", "TAF YBAS 131112Z 1312/1412 14007KT CAVOK BECMG 1323/1400 11016G26KT CAVOK FM140300 10012KT CAVOK", "TAF YBBN 131106Z 1312/1418 05006KT 9999 -SHRA SCT020 BKN035 FM131800 35006KT 9999 -SHRA BKN015 BKN030 FM140000 02008KT 9999 -SHRA FEW020 SCT030 FM140200 03014KT 9999 NSW SCT035 FM140900 32008KT 9999 -SHRA SCT020 BKN050 FM141500 23008KT CAVOK INTER 1312/1401 4000 SHRA BKN012", "TAF YBCG 131050Z 1312/1412 20005KT 9999 -SHRA BKN018 BKN035 FM132000 36008KT 9999 -SHRA BKN018 BKN035 FM140100 01014KT 9999 NSW SCT020 BKN040 FM140800 01014KT 9999 -RA SCT018 BKN050 INTER 1312/1401 3000 SHRA BKN012", "TAF YBCS 131100Z 1312/1412 17006KT 9999 -SHRA SCT020 FM140000 09012KT 9999 NSW SCT035 FM140900 17006KT 9999 SCT025 TEMPO 1312/1323 9999 BKN018", "TAF AMD YBHM 131001Z 1312/1400 12014KT 9999 BKN020 TEMPO 1318/1400 9999 BKN015", "TAF AMD YBLN 131106Z 1312/1412 23010KT 9999 BKN045 FM131300 VRB05KT 9999 SCT035 FM140200 33008KT 9999 BKN040 FM140400 29014KT 9999 -SHRA SCT020 BKN030 FM141000 16008KT 9999 NSW SCT015 INTER 1404/1410 4000 SHRA BKN015", "TAF YBMA 131002Z 1312/1400 17014KT CAVOK", "TAF YBRK 131052Z 1312/1412 17005KT 9999 -SHRA SCT015 BKN025 FM140000 06010KT 9999 NSW BKN035 FM141000 04008KT 9999 SCT020 TEMPO 1314/1322 9999 BKN008 INTER 1318/1400 3000 SHRA BKN008", "TAF AMD YBRM 131115Z 1312/1412 14010KT CAVOK FM132300 11016KT CAVOK BECMG 1404/1406 23012KT CAVOK", "TAF YBTL 131005Z 1311/1406 09010KT 9999 SCT027 FM132300 07014KT 9999 SCT035", "TAF YBWW 131101Z 1312/1412 08010KT 9999 SCT015 FM131400 07010KT 9999 BKN012 FM132300 32014KT 9999 SCT020 BECMG 1405/1406 25010KT 9999 -RA BKN030 TEMPO 1314/1323 9999 BKN008 TEMPO 1410/1412 9999 BKN008 PROB30 1318/1321 0500 FG", "TAF YCFS 131108Z 1312/1412 01009KT 9999 -SHRA SCT015 BKN025 FM132100 01014KT 9999 NSW FEW025 FM140300 02014KT 9999 -SHRA FEW025 BKN050 FM141000 25010KT CAVOK", "TAF YCIN 130721Z 1308/1320 15009KT CAVOK", "TAF AMD YFRT 131004Z 1310/1320 19012KT CAVOK FM131500 VRB30KT CAVOK PROB30 1317/1320 0300 FG", "TAF YGEL 131106Z 1312/1406 16010KT CAVOK FM132000 13008KT CAVOK FM140300 18016G28KT CAVOK", "TAF AMD YGLA 131051Z 1312/1400 12009KT 9999 -SHRA SCT015 BKN025 FM132300 07010KT 9999 NSW BKN035 TEMPO 1314/1322 9999 BKN014 INTER 1315/1400 3000 SHRA BKN012", "TAF AMD YHID 131100Z 1312/1412 12014KT 9999 -SHRA SCT016 FM132300 12018KT 9999 NSW SCT020 FM141000 12014KT 9999 -SHRA BKN016", "TAF YLHI 131108Z 1312/1412 09010KT 9999 SCT020 FM132100 06010KT 9999 SCT025 FM140300 03014KT 9999 SCT030", "TAF AMD YMAV 131129Z 1312/1412 33010KT 9999 -SHRA SCT030 FM132200 33015G25KT 9999 -SHRA SCT020 BKN030 FM140300 27015G25KT 9999 -SHRA BKN030 FM140800 27010KT 9999 NSW SCT035 FM141100 31006KT 9999 SCT035 INTER 1321/1404 5000 SHRA SCT012 BKN025", "TAF AMD YMHB 131122Z 1311/1412 03018G28KT 9999 -RA SCT020 BKN035 FM131400 36014KT 9999 -RA BKN030 FM131700 28014KT 9999 -RA BKN035 FM140200 04008KT 9999 -SHRA BKN040 INTER 1403/1409 4000 SHRA BKN020 SCT030TCU", "TAF AMD YMLT 131107Z 1311/1412 01015G25KT 9999 -RA NSC BECMG 1314/1315 35015KT 9999 -RA BKN015 BECMG 1323/1400 31014KT 9999 -SHRA SCT030 TEMPO 1311/1314 5000 RA SCT012 BKN020 TEMPO 1314/1323 3000 RA BKN008", "TAF YMML 131130Z 1312/1418 35010KT 9999 -SHRA SCT030 FM132100 33015KT 9999 -SHRA SCT030 FM140100 29015G25KT 9999 -SHRA SCT020 BKN040 FM140700 25012KT 9999 -SHRA SCT035 FM141000 30008KT 9999 NSW SCT035", "TAF YPAD 131120Z 1312/1418 29015KT 9999 -SHRA FEW025 FM131800 25014KT 9999 -SHRA SCT030 FM140900 26008KT 9999 NSW FEW030 INTER 1312/1318 26020G30KT 5000 SHRA SCT015 FEW030TCU", "TAF YPCC 131116Z 1312/1412 10014KT 9999 -SHRA SCT018 INTER 1312/1400 3000 SHRA BKN010 SCT020TCU", "TAF YPDN 131112Z 1312/1418 30007KT 9999 FEW020 FM131600 03005KT 9999 SCT020 FM140300 32010KT 9999 SCT030 FM141000 28005KT 9999 FEW020 PROB30 TEMPO 1406/1409 VRB20G35KT 1000 TSRA BKN010 SCT030CB", "TAF YPEA 131020Z 1311/1400 19008KT CAVOK FM131500 14005KT CAVOK", "TAF YPGV 130647Z 1308/1320 07012KT 9999 SCT025 FM131000 07006KT 9999 SCT020", "TAF YPJT 131106Z 1312/1406 19010KT CAVOK FM131400 14006KT CAVOK FM132200 10006KT CAVOK FM140200 23010KT CAVOK", "TAF YPKG 131106Z 1312/1412 13008KT CAVOK FM132000 07005KT CAVOK FM140300 33008KT CAVOK", "TAF YPKU 130723Z 1308/1320 01008KT CAVOK", "TAF YPLM 131117Z 1312/1412 24012KT CAVOK FM131600 21011KT CAVOK FM140000 07010KT CAVOK FM140300 01017KT CAVOK FM141000 30008KT CAVOK", "TAF AMD YPPD 131117Z 1312/1412 26008KT CAVOK FM131400 18009KT CAVOK FM131600 13014KT CAVOK FM140000 09018KT CAVOK FM140500 35014KT CAVOK FM141100 28006KT CAVOK", "TAF YPPH 131106Z 1312/1418 22010KT CAVOK FM131300 16006KT CAVOK FM131900 VRB03KT CAVOK FM140400 23012KT CAVOK FM141300 16006KT CAVOK", "TAF YPTN 131112Z 1312/1412 32007KT CAVOK FM140200 VRB03KT CAVOK", "TAF YPWR 131118Z 1312/1406 25012KT CAVOK FM131700 25010KT 9999 FEW020 FM140000 23010KT 9999 SCT045", "TAF AMD YPXM 131122Z 1311/1412 13010KT 9999 -SHRA BKN009 FM140300 13010KT 9999 -SHRA BKN015", "TAF AMD YSCB 131116Z 1311/1412 03008KT 9999 -RA NSC FM131500 35008KT 9999 -RA SCT015 BKN025 FM131800 32008KT 9999 -RA BKN020 FM132200 29012KT 9999 NSW SCT020 BECMG 1400/1401 28015G25KT 9999 -SHRA SCT050 FM140600 28012KT 9999 NSW SCT050 FM141000 30006KT 9999 FEW050 TEMPO 1315/1322 3000 RA BKN010", "TAF AMD YSDU 131113Z 1311/1406 04014KT CAVOK FM131500 33013KT 9999 -RA SCT015 FM131800 28010KT 9999 -RA SCT010 BKN020 FM132300 26014KT 9999 NSW SCT030 TEMPO 1317/1322 3000 RA BKN010", "TAF AMD YSNF 131112Z 1311/1412 16008KT 9999 -SHRA SCT017 SCT025 BECMG 1311/1313 16008KT 9999 -SHRA BKN015 BECMG 1319/1321 18007KT 9999 -SHRA BKN020 FM140000 20012KT 9999 NSW SCT030", "TAF YSRI 131103Z 1312/1412 03004KT 9999 SCT015 BKN020 FM131800 02006KT 9999 -RA SCT020 BKN030 BECMG 1323/1401 26014KT 9999 -SHRA SCT015 BKN020 FM140300 26014KT 9999 NSW FEW035 FM141100 VRB03KT CAVOK INTER 1320/1323 5000 RA BKN020 INTER 1323/1401 4000 SHRA BKN020", "TAF YSSY 131103Z 1312/1418 02018KT 9999 BKN015 FM131400 02016KT 9999 SCT015 FM131800 01014KT 9999 -RA SCT020 BKN050 FM140100 26016G26KT CAVOK FM140800 26010KT CAVOK INTER 1318/1320 6000 RA SCT020 BKN040 TEMPO 1320/1323 4000 RA SCT015 BKN025", "TAF YSTW 131117Z 1312/1406 04008KT CAVOK FM132100 34014KT 9999 -RA SCT012 BKN018 FM140100 28014KT 9999 -RA SCT010 BKN016 FM140500 26012KT 9999 NSW SCT020 TEMPO 1322/1405 3000 RA BKN010", "TAF YWLM 131011Z 1311/1406 04012KT CAVOK FM132000 02010KT 9999 -RA FEW015 BKN050 BECMG 1401/1403 27014KT 9999 -SHRA SCT030 INTER 1320/1401 4000 RA SCT015 BKN020 INTER 1401/1404 4000 SHRA BKN015", "TAF ZBAA 130900Z 1312/1412 17004MPS 5000 BR NSC TX22/1407Z TN10/1321Z", "TAF ZBAD 130901Z 1312/1412 20004MPS 3500 BR NSC TX20/1407Z TN09/1321Z", "TAF ZBHH 130907Z 1312/1412 06004MPS CAVOK TX20/1407Z TN05/1322Z", "TAF ZBSJ 130920Z 1312/1412 33003MPS 3000 BR NSC TX17/1407Z TN07/1321Z", "TAF ZBTJ 130906Z 1312/1412 21003MPS 5000 HZ NSC TX22/1406Z TN09/1321Z", "TAF ZBYN 130905Z 1312/1412 21003MPS 3000 HZ NSC TX20/1407Z TN07/1321Z", "TAF ZGGG 130904Z 1312/1412 36004MPS 8000 FEW040 TX31/1407Z TN20/1322Z", "TAF ZGHA 130902Z 1312/1412 33004MPS 6000 SCT040 TX27/1407Z TN13/1322Z", "TAF ZGKL 130902Z 1312/1412 05003MPS 6000 NSC TX30/1407Z TN11/1322Z", "TAF ZGNN 130906Z 1312/1412 36003MPS CAVOK TX30/1407Z TN18/1322Z", "TAF ZGOW 130906Z 1312/1412 09003MPS 5000 BR FEW050 TX31/1406Z TN18/1322Z", "TAF ZGSZ 130907Z 1312/1412 06004MPS 8000 FEW030 TX30/1406Z TN21/1322Z BECMG 1404/1406 36004MPS", "TAF ZHCC 130902Z 1312/1412 16003MPS 5000 HZ NSC TX23/1407Z TN12/1322Z", "TAF ZHHH 130901Z 1312/1412 08003MPS 6000 NSC TX25/1407Z TN10/1321Z", "TAF ZJHK 130904Z 1312/1412 03003MPS 9999 BKN040 TX28/1406Z TN21/1321Z BECMG 1401/1402 05008G13MPS BECMG 1409/1410 04003MPS", "TAF ZJSY 130904Z 1312/1412 08005G10MPS 9999 SCT020 TX27/1406Z TN19/1321Z TEMPO 1318/1324 TSRA SCT018 FEW025CB TEMPO 1400/1406 1200 +TSRA SCT016 FEW025CB BKN040", "TAF ZKPY 130410Z 1306/1406 27003MPS CAVOK TX21/1306Z TN07/1321Z", "TAF ZKWS 130410Z 1306/1406 27003MPS CAVOK TX20/1306Z TN09/1321Z", "TAF ZLLL 130904Z 1312/1412 35003MPS 6000 NSC TX15/1408Z TN00/1323Z", "TAF ZLXY 130902Z 1312/1412 24003MPS 3000 BR NSC TX20/1408Z TN11/1322Z", "TAF ZMCK 131035Z 1312/1418 VRB02MPS 9999 SCT100 TNM05/1322Z TX05/1407Z BECMG 1402/1404 32007MPS SCT033 SCT100 BECMG 1411/1413 34005MPS", "TAF ZMUB 131039Z 1312/1418 VRB02MPS 9999 SCT100 TNM07/1322Z TX05/1407Z BECMG 1402/1404 33006MPS SCT033 SCT100 BECMG 1411/1413 VRB02MPS", "TAF ZPPP 130909Z 1312/1412 04004MPS 4000 BR FEW004 SCT020 BKN036 TX15/1408Z TN11/1323Z", "TAF ZSAM 130906Z 1312/1412 06005G10MPS 8000 SCT030 TX31/1406Z TN22/1321Z", "TAF ZSFZ 130912Z 1312/1412 04008G14MPS 9999 BKN020 TX27/1406Z TN20/1321Z", "TAF ZSHC 130901Z 1312/1412 03003MPS 6000 SCT033 TX24/1406Z TN14/1321Z", "TAF ZSJN 130901Z 1312/1412 21003MPS 3500 BR NSC TX20/1406Z TN08/1321Z", "TAF ZSNB 130907Z 1312/1412 03004MPS 6000 BKN030 TX23/1406Z TN14/1321Z", "TAF ZSNJ 130901Z 1312/1412 09004MPS 3000 HZ NSC TX23/1406Z TN09/1321Z", "TAF ZSOF 130901Z 1312/1412 07003MPS 5000 HZ NSC TX22/1407Z TN11/1321Z", "TAF ZSPD 130911Z 1312/1412 04004MPS 6000 BKN030 TX23/1406Z TN16/1321Z", "TAF ZSQD 130905Z 1312/1412 18003MPS 5000 BR NSC TX22/1406Z TN11/1321Z BECMG 1318/1319 2000 BECMG 1321/1322 3500", "TAF ZSSS 130906Z 1312/1412 04004MPS 6000 BKN030 TX24/1406Z TN17/1321Z", "TAF ZUCK 130901Z 1312/1412 30003MPS 4500 BR OVC050 TX20/1407Z TN16/1322Z", "TAF ZUGY 130901Z 1312/1412 02003MPS 6000 BKN033 TX22/1407Z TN10/1322Z", "TAF ZUUU 130905Z 1312/1412 02003MPS 6000 SCT040 TX21/1406Z TN15/1322Z", "TAF ZWSH 130902Z 1312/1412 16004MPS 6000 FEW040 TX19/1409Z TN10/1400Z BECMG 1317/1318 32005MPS BECMG 1407/1408 16004MPS", "TAF ZWWW 130904Z 1312/1412 36004MPS CAVOK TX19/1409Z TN08/1323Z BECMG 1313/1314 18004MPS BECMG 1402/1403 36004MPS", "TAF ZYCC 130906Z 1312/1412 23004MPS 6000 FEW030 TX17/1406Z TN07/1321Z", "TAF ZYHB 130903Z 1312/1412 22004MPS 4000 BR FEW030 TX18/1406Z TN02/1321Z TEMPO 1318/1324 1200", "TAF ZYTL 130918Z 1312/1412 20004MPS 6000 SCT033 TX21/1405Z TN10/1322Z", "TAF ZYTX 130901Z 1312/1412 20004MPS 6000 NSC TX20/1406Z TN08/1321Z"]}