station_id,raw_text
AGGA,TAF AGGA 152310Z 1600/1624 18010KT 9999 SCT018
AGGC,TAF AGGC 152310Z 1600/1624 05010KT 9999 SCT018
AGGH,TAF AGGH 160507Z 1606/1706 05008KT 9999 SCT018 PROB40 INTER 1606/1610 8000 SHRA BKN016 T 30 28 26 25 Q 1007 1009 1010 1008
AGGK,TAF AGGK 152310Z 1600/1624 05010KT 9999 SCT018
AGGL,TAF AGGL 152310Z 1600/1624 09012KT 9999 SCT018 BKN029 PROB40 INTER 1600/1605 5000 SHRA BKNO16
AGGM,TAF AGGM 160507Z 1606/1706 05008KT 9999 SCT018 PROB40 INTER 1606/1610 8000 SHRA BKN016 Q 1007 1009 1010 1008
AGGN,TAF AGGN 160507Z 1606/1706 05008KT 9999 SCT018
AGGR,TAF AGGR 152310Z 1600/1624 07010KT 9999 SCT018 BKN029 PROB40 INTER 1600/1604 5000 SHRA BKNO16
ANYN,TAF ANYN 160234Z 1606/1706 09010KT 9999 FEW020
AYPY,TAF AYPY 160230Z 1606/1706 17015KT 9999 -SHRA SCT018 BKN030 FM161000 16012KT 9999 -RADZ SCT030 SCT140 INTER 1606/1609 5000 TSRA BKN010 FEW018CB
BGSF,TAF BGSF 160500Z 1606/1712 06010KT 9999 FEW100 SCT180 TEMPO 1618/1712 BKN080
BIAR,TAF BIAR 160458Z 1606/1706 34022G38KT 5000 RASN OVC015 TX04/1615Z TNM00/1706Z TEMPO 1606/1612 1500 +RASN OVC005 BECMG 1612/1614 34015G25KT 9999 -RA OVC014 BECMG 1619/1621 34005KT
BIEG,TAF BIEG 160458Z 1606/1706 01025G38KT 3000 +RADZ OVC005 TX05/1615Z TN01/1706Z BECMG 1609/1611 02015KT 7000 RADZ BKN010 OVC015 BECMG 1612/1614 4000 -RADZ OVC008 TEMPO 1614/1706 1500 RADZ BR OVC004
BIKF,TAF BIKF 160458Z 1606/1706 02025G42KT 9999 BKN023 TX05/1614Z TN02/1706Z BECMG 1618/1620 03020KT CAVOK BECMG 1701/1703 03010KT
BIRK,TAF BIRK 160458Z 1606/1706 02022G35KT 9999 BKN025 TX05/1614Z TN01/1706Z BECMG 1614/1616 CAVOK BECMG 1618/1620 VRB02KT
BKPR,TAF BKPR 160530Z 1606/1706 VRB03KT 0150 FG BKN002 TEMPO 1607/1608 0800 BCFG SCT006 BECMG 1608/1610 CAVOK BECMG 1701/1704 0200 FG BKN002
CWWU,TAF AMD CWWU 151500Z 1515/1612 VRB02KT 1 1/2SM BR BKN003 BKN140 BECMG 1515/1517 P6SM SCT140 FM160300 18005KT P6SM BKN012 TEMPO 1603/1610 3SM BR OVC006 RMK NXT FCST BY 151800Z
CYAM,TAF AMD CYAM 160622Z 1606/1614 24010KT P6SM SCT015 BKN030 TEMPO 1606/1608 5SM -SHRA BR BKN015 OVC030 FM160800 28005KT P6SM -SHRA SCT005 OVC010 TEMPO 1608/1614 OVC025 PROB30 1608/1613 BKN005 RMK NXT FCST BY 160800Z
CYAY,TAF CYAY 160140Z 1602/1614 13008KT P6SM FEW004 TEMPO 1605/1614 1SM BR BKN004 RMK FCST BASED ON AUTO OBS. NXT FCST BY 160800Z
CYBC,TAF CYBC 160140Z 1602/1614 13005KT 2SM -DZ BR BKN003 OVC015 TEMPO 1602/1606 6SM BR SCT003 OVC015 PROB30 1602/1606 3/4SM DZ BR OVC001 FM160600 06005KT 1/2SM -DZ FG VV001 TEMPO 1606/1612 3SM BR OVC004 FM161200 VRB03KT 6SM BR FEW001 RMK FCST BASED ON AUTO OBS. NXT FCST BY 160800Z
CYBG,TAF CYBG 160540Z 1606/1706 VRB03KT P6SM BKN070 TEMPO 1606/1608 FEW070 FM161200 27008KT P6SM FEW040 FM161900 VRB03KT P6SM SCT040 BKN240 RMK NXT FCST BY 161200Z
CYBK,TAF CYBK 160540Z 1606/1618 33025G35KT P6SM SCT015 BKN025 TEMPO 1606/1612 4SM -SN BLSN BKN015 OVC025 BECMG 1607/1609 33020G30KT FM161200 33012G22KT P6SM SCT020 BKN040 TEMPO 1612/1618 5SM -SN BKN020 BKN040 RMK NXT FCST BY 161200Z
CYBR,TAF CYBR 160540Z 1606/1618 34012KT P6SM OVC050 FM161300 33012KT P6SM SCT050 TEMPO 1613/1616 BKN050 RMK NXT FCST BY 161200Z
CYBX,TAF CYBX 160140Z 1602/1614 VRB03KT P6SM FEW006 PROB30 1602/1605 2SM BR BKN006 FM160500 06005KT 6SM BR FEW006 TEMPO 1605/1614 2SM BR BKN006 PROB30 1605/1614 3/4SM BR BKN002 RMK NXT FCST BY 160800Z
CYCA,TAF CYCA 160140Z 1602/1614 20006KT P6SM BKN200 PROB30 1602/1614 2SM BR RMK FCST BASED ON AUTO OBS. NXT FCST BY 160800Z
CYCB,TAF CYCB 160640Z 1607/1619 31010KT P6SM SCT012 SCT030 TEMPO 1607/1612 SCT008 BKN020 FM161200 32010G20KT P6SM SCT030 TEMPO 1612/1619 BKN020 RMK NXT FCST BY 161300Z
CYCO,TAF CYCO 160640Z 1607/1619 23015KT P6SM SKC FM160900 24010KT P6SM SCT012 PROB30 1609/1618 1SM BR BKN012 RMK NXT FCST BY 161300Z
CYCY,TAF CYCY 160640Z 1607/1619 22015G25KT P6SM SCT020 BKN220 TEMPO 1607/1614 22030G40KT BKN020 OVC180 FM161400 20008KT P6SM SCT220 BECMG 1616/1618 32006KT RMK FCST BASED ON AUTO OBS. NXT FCST BY 161300Z
CYDB,TAF CYDB 160540Z 1606/1618 30012KT P6SM SCT060 RMK FCST BASED ON AUTO OBS. NXT FCST BY 161200Z
CYDF,TAF AMD CYDF 160631Z 1606/1614 VRB03KT 6SM BR FEW002 TEMPO 1606/1613 1/2SM FG VV002 FM161300 04005KT 1SM BR BKN150 BECMG 1613/1614 P6SM NSW RMK NXT FCST BY 160800Z
CYDN,TAF CYDN 160540Z 1606/1618 34012G22KT P6SM BKN040 FM161000 32012KT P6SM BKN040 TEMPO 1610/1618 SCT040 RMK FCST BASED ON AUTO OBS. NXT FCST BY 161200Z
CYEG,TAF CYEG 160540Z 1606/1706 13010KT P6SM OVC080 BECMG 1609/1611 FEW080 SCT250 FM161100 14008KT P6SM FEW080 FEW250 FM161500 16008KT P6SM FEW250 FM162100 13008KT P6SM SKC BECMG 1705/1706 16012KT RMK NXT FCST BY 160900Z
CYEV,TAF CYEV 160640Z 1607/1619 08008KT P6SM BKN150 BECMG 1609/1611 08010G20KT BKN030 OVC100 FM161100 08010G20KT P6SM SCT015 BKN030 TEMPO 1611/1619 3SM -SN BKN012 RMK NXT FCST BY 161300Z
CYFB,TAF AMD CYFB 160552Z 1606/1706 30005KT 1/2SM -DZ FG VV002 TEMPO 1606/1609 2SM BR OVC006 FM160900 VRB03KT 1/2SM -RA FG VV002 TEMPO 1609/1618 1 1/2SM -RA BR OVC004 BECMG 1613/1615 12012G22KT FM161800 14020G30KT 3/4SM -DZ BR VV004 TEMPO 1618/1703 2SM BR OVC008 FM170300 14020KT P6SM SCT008 OVC012 TEMPO 1703/1706 1 1/2SM BR SCT003 OVC006 BECMG 1704/1706 14012KT RMK NXT FCST BY 161200Z
CYFC,TAF CYFC 160541Z 1606/1618 22005KT 5SM -DZ BR BKN006 BKN050 TEMPO 1606/1608 6SM BR SCT006 BKN050 PROB30 1606/1608 1SM -DZ BR OVC003 FM160800 VRB03KT 6SM BR SCT003 BKN050 TEMPO 1608/1615 1SM BR BKN005 BKN050 FM161500 31005KT P6SM SCT010 RMK FCST BASED ON AUTO OBS. NXT FCST BY 161200Z
CYFS,TAF CYFS 160540Z 1606/1618 12008KT P6SM SCT030 BKN050 TEMPO 1606/1607 3/4SM -SN SCT008 BKN020 OVC040 PROB30 1606/1607 3/4SM -SN -PL BR BKN005 FM160700 14010G20KT P6SM SCT012 BKN030 TEMPO 1607/1612 BKN012 FM161200 14010G20KT P6SM BKN030 TEMPO 1612/1618 SCT030 RMK NXT FCST BY 161200Z
CYGL,TAF CYGL 160540Z 1606/1706 VRB03KT P6SM FEW030 OVC070 TEMPO 1606/1609 P6SM -SHRA BKN020 BKN030 FM160900 03010KT P6SM -SHRA SCT008 OVC030 TEMPO 1609/1615 4SM -SHRA BR BKN008 OVC015 PROB30 1609/1615 2SM -SHRA BR BKN006 OVC012 FM161500 30008KT 6SM -SHRA BR SCT008 BKN012 OVC025 FM161800 30008KT P6SM SCT015 BKN030 OVC040 FM170000 26005KT P6SM -SHRA BKN020 OVC030 FM170400 06008KT P6SM -SHRA BKN012 OVC025 RMK NXT FCST BY 161200Z
CYGP,TAF CYGP 160140Z 1602/1614 06010KT 2SM -RA BR OVC006 TEMPO 1602/1604 6SM -RA BR SCT006 OVC012 FM160400 12008KT 2SM -DZ BR OVC005 TEMPO 1604/1614 6SM BR OVC008 PROB30 1604/1614 1/2SM -DZ FG VV002 RMK NXT FCST BY 160800Z
CYGQ,TAF AMD CYGQ 160421Z 1604/1614 30005KT P6SM SCT005 BKN040 TEMPO 1604/1614 BKN020 PROB30 1608/1613 3/4SM -DZ BR OVC003 RMK FCST BASED ON AUTO OBS. NXT FCST BY 160800Z
CYGV,TAF CYGV 160140Z 1602/1614 10010G20KT 5SM -RA BR BKN004 OVC012 TEMPO 1602/1604 P6SM NSW SCT004 OVC012 PROB40 1602/1604 3/4SM -RA BR VV002 FM160400 10010G20KT 1SM -RA BR OVC003 TEMPO 1604/1614 6SM BR OVC008 PROB40 1604/1614 3/4SM -RA BR VV002 RMK FCST BASED ON AUTO OBS. NXT FCST BY 160800Z
CYGW,TAF CYGW 160540Z 1606/1618 VRB03KT P6SM OVC070 FM160900 09005KT P6SM BKN040 OVC060 TEMPO 1609/1612 P6SM -SHRA BKN025 OVC040 FM161200 01008KT P6SM SCT025 OVC040 TEMPO 1612/1615 3SM -SHRA BR BKN012 OVC025 PROB30 1612/1615 2SM -SHRA BR BKN006 OVC012 FM161500 33009KT 3SM -SHRA BR BKN008 OVC012 RMK FCST BASED ON AUTO OBS. NXT FCST BY 161200Z
CYGX,TAF CYGX 160640Z 1607/1619 35020G30KT 6SM -SN BKN020 TEMPO 1607/1610 2SM -SN BLSN OVC008 FM161000 35018G28KT P6SM BKN030 TEMPO 1610/1619 5SM -SN SCT008 BKN020 RMK NXT FCST BY 161300Z
CYHD,TAF AMD CYHD 160629Z 1606/1614 31006KT 3SM -RA BR OVC009 TEMPO 1606/1610 P6SM -RA SCT009 OVC012 PROB30 1606/1610 2SM -SHSN FM161000 31010KT 3SM -SNRA BR OVC009 TEMPO 1610/1612 6SM -RA BR OVC012 PROB40 1610/1612 2SM -SHSN FM161200 32012G22KT 2SM -SN BKN008 OVC015 RMK FCST BASED ON AUTO OBS. NXT FCST BY 160800Z
CYHK,TAF CYHK 160540Z 1606/1618 30012KT P6SM SCT015 OVC025 TEMPO 1606/1618 3SM -SN BR OVC015 RMK FCST BASED ON AUTO OBS. NXT FCST BY 161200Z
CYHM,TAF CYHM 160548Z 1606/1706 21005KT P6SM FEW040 PROB30 1607/1612 2SM BR FM161400 23010G20KT P6SM SCT050 FM161700 24010G20KT P6SM BKN040 FM162300 24010G20KT P6SM SCT060 FM170300 VRB03KT P6SM BKN050 PROB30 1704/1706 2SM BR RMK NXT FCST BY 161200Z
CYHU,TAF CYHU 160540Z 1606/1706 24012G22KT P6SM FEW060 BECMG 1606/1608 24010KT BECMG 1608/1610 24005KT FM161600 21008KT P6SM BKN040 FM162300 14005KT P6SM FEW040 RMK FCST BASED ON AUTO OBS. NXT FCST BY 161200Z
CYHY,TAF CYHY 160540Z 1606/1618 12010G20KT P6SM SCT040 BKN070 TEMPO 1606/1611 5SM -SN BKN030 FM161100 14010G20KT P6SM BKN040 TEMPO 1611/1617 SCT015 BKN030 FM161700 16012G22KT P6SM SCT040 TEMPO 1617/1618 BKN040 RMK NXT FCST BY 161200Z
CYHZ,TAF CYHZ 160540Z 1606/1706 11010KT 1/8SM -DZ FG VV002 TEMPO 1606/1610 1/2SM FG FM161000 10008KT 1/2SM -DZ FG OVC002 TEMPO 1610/1612 2SM BR FM161200 08005KT 1SM -DZ BR OVC002 TEMPO 1612/1615 6SM BR SCT002 OVC008 FM161500 05005KT 6SM BR SCT002 BKN008 FM161800 05008KT P6SM BKN010 FM162200 19006KT 3SM -DZ BR BKN004 OVC008 BECMG 1702/1704 23006KT RMK NXT FCST BY 160900Z
CYIO,TAF CYIO 160640Z 1607/1619 22020G30KT P6SM SCT020 OVC050 TEMPO 1607/1612 3SM -SN BLSN BKN020 OVC040 BECMG 1607/1609 25020G30KT FM161200 26015G25KT P6SM SCT015 OVC030 TEMPO 1612/1618 2SM -SN OVC015 FM161800 23008KT P6SM SCT020 TEMPO 1618/1619 P6SM -SN BKN020 RMK FCST BASED ON AUTO OBS. NXT FCST BY 161300Z
CYIV,TAF CYIV 160640Z 1607/1619 34020G30KT 3SM -SN OVC020 TEMPO 1607/1611 1SM -SHSN OVC008 FM161100 34018G28KT P6SM OVC030 TEMPO 1611/1614 3SM -SN OVC020 FM161400 34015G25KT P6SM BKN030 TEMPO 1614/1619 SCT030 RMK FCST BASED ON AUTO OBS. NXT FCST BY 161300Z
CYJT,TAF CYJT 160540Z 1606/1706 08010KT P6SM OVC180 FM161500 08012KT P6SM OVC080 BECMG 1618/1620 09012G22KT FM162000 09012G22KT 6SM -RA BR SCT020 OVC040 FM170000 08015G25KT 5SM -RA BR BKN020 OVC040 RMK NXT FCST BY 161200Z
CYKA,TAF CYKA 160640Z 1607/1619 10007KT P6SM SKC RMK NXT FCST BY 161300Z
CYKF,TAF CYKF 160140Z 1602/1614 21007KT P6SM SCT150 FM161100 21010KT P6SM SCT030 TEMPO 1611/1614 BKN030 RMK FCST BASED ON AUTO OBS. NXT FCST BY 160800Z
CYKL,TAF CYKL 160140Z 1602/1614 15012KT 3SM -RA BR BKN007 OVC015 TEMPO 1602/1603 P6SM -RA SCT007 OVC015 FM160300 16012G22KT 2SM -DZ BR OVC005 TEMPO 1603/1609 P6SM NSW OVC012 FM160900 18012G22KT P6SM OVC012 TEMPO 1609/1612 3SM BR OVC008 FM161200 18010G20KT P6SM OVC020 RMK FCST BASED ON AUTO OBS. NXT FCST BY 160800Z
CYLL,TAF CYLL 160540Z 1606/1618 11008KT P6SM OVC050 BECMG 1609/1611 14010KT FM161400 15008KT P6SM BKN070 BKN250 BECMG 1615/1617 FEW070 SCT250 FM161700 17010KT P6SM FEW250 RMK FCST BASED ON AUTO OBS. NXT FCST BY 161200Z
CYLW,TAF CYLW 160640Z 1607/1619 VRB03KT P6SM SKC RMK FCST BASED ON AUTO OBS. NXT FCST BY 161300Z
CYMA,TAF CYMA 160540Z 1606/1618 02010G20KT P6SM SCT006 SCT030 OVC050 TEMPO 1606/1618 2SM BR BKN006 OVC020 PROB30 1606/1618 1SM -FZDZ BR BKN004 RMK NXT FCST BY 161200Z
CYMM,TAF CYMM 160640Z 1607/1619 11003KT P6SM OVC070 BECMG 1610/1612 12006KT OVC050 FM161200 12006KT P6SM OVC050 FM161800 13006KT P6SM BKN070 BECMG 1618/1619 SCT090 RMK FCST BASED ON AUTO OBS. NXT FCST BY 161300Z
CYMO,TAF AMD CYMO 160543Z 1606/1618 VRB03KT 3SM -RA BR SCT005 OVC008 TEMPO 1606/1618 6SM -RA BR OVC025 PROB30 1606/1616 OVC005 RMK FCST BASED ON AUTO OBS. NXT FCST BY 161200Z
CYMX,TAF CYMX 160540Z 1606/1706 22005KT P6SM FEW040 BECMG 1615/1617 BKN040 OVC060 FM162300 18005KT P6SM BKN060 BECMG 1700/1702 VRB03KT RMK NXT FCST BY 161200Z
CYNA,TAF AMD CYNA 160503Z 1605/1614 11010G20KT P6SM OVC010 TEMPO 1605/1609 3SM -DZ BR OVC005 PROB30 1605/1609 3/4SM -RA BR VV002 FM160900 13012G22KT 1SM -RA BR OVC003 TEMPO 1609/1614 6SM BR OVC008 PROB30 1609/1614 3/4SM -RA BR VV002 RMK FCST BASED ON AUTO OBS. NXT FCST BY 160800Z
CYNE,TAF CYNE 160640Z 1607/1619 35012G22KT P6SM BKN030 TEMPO 1607/1611 5SM -SHSN BKN020 FM161100 35010G20KT P6SM SCT030 TEMPO 1611/1619 BKN030 RMK FCST BASED ON AUTO OBS. NXT FCST BY 161300Z
CYOD,TAF CYOD 160540Z 1606/1706 12005KT P6SM OVC060 FM161100 12005KT P6SM BKN080 FM161900 17008KT P6SM SCT080 FM170200 12005KT P6SM FEW240 RMK NXT FCST BY 161200Z
CYOJ,TAF CYOJ 160640Z 1607/1619 13012KT P6SM FEW040 OVC060 TEMPO 1607/1610 P6SM VCSH OVC040 FM161300 12008KT P6SM BKN070 BKN220 BECMG 1614/1616 FEW070 BKN250 FM161700 12008KT P6SM FEW250 RMK FCST BASED ON AUTO OBS. NXT FCST BY 161300Z
CYOO,TAF CYOO 160140Z 1602/1614 22007KT P6SM SCT150 RMK FCST BASED ON AUTO OBS. NXT FCST BY 160800Z
CYOW,TAF CYOW 160540Z 1606/1706 20005KT P6SM FEW060 SCT240 FM161500 20008KT P6SM BKN040 FM161900 19010KT P6SM -SHRA BKN040 OVC060 FM170100 19010KT P6SM BKN040 BECMG 1703/1705 VRB03KT RMK NXT FCST BY 160900Z
CYPA,TAF CYPA 160640Z 1607/1619 VRB03KT P6SM BKN100 FM160900 VRB03KT P6SM BKN060 RMK NXT FCST BY 161300Z
CYPE,TAF CYPE 160640Z 1607/1619 03004KT P6SM FEW220 FM161200 03004KT P6SM SKC PROB30 1613/1615 1 1/2SM BR FM161700 17004KT P6SM SKC RMK NXT FCST BY 161300Z
CYPH,TAF AMD CYPH 160631Z 1606/1618 33010KT P6SM FEW040 BKN060 OVC120 TEMPO 1606/1610 2SM -DZ BR BKN003 OVC040 FM161000 35008KT P6SM SCT003 BKN040 TEMPO 1610/1612 2SM -RA -DZ BR BKN003 OVC080 PROB30 1610/1612 3/4SM -DZ BR OVC002 FM161200 31006KT 3/4SM -DZ BR OVC002 FM161500 31007KT 4SM -RA -DZ BR BKN005 OVC015 RMK FCST BASED ON AUTO OBS. NXT FCST BY 161200Z
CYPL,TAF CYPL 160140Z 1602/1614 VRB03KT P6SM BKN050 TEMPO 1602/1609 BKN020 BKN050 BECMG 1604/1606 30006KT FM160900 31008KT P6SM SCT015 OVC040 TEMPO 1609/1612 3SM -RASN BR BKN006 OVC015 FM161200 32010G20KT 3SM -RASN BR BKN006 OVC012 RMK FCST BASED ON AUTO OBS. NXT FCST BY 160800Z
CYPR,TAF CYPR 160640Z 1607/1619 VRB03KT 1/2SM FG VV002 TEMPO 1607/1617 6SM BR SCT003 FM161700 14005KT P6SM FEW008 RMK FCST BASED ON AUTO OBS. NXT FCST BY 161300Z
CYPX,TAF CYPX 160540Z 1606/1618 05012KT 1/2SM FG VV002 TEMPO 1606/1609 P6SM NSW OVC006 FM160900 11006KT 3/4SM -RA BR VV004 TEMPO 1609/1615 2SM -RA BR OVC008 BECMG 1610/1612 34005KT FM161500 31006KT 1/2SM -RA FG VV002 BECMG 1616/1618 23008KT RMK FCST BASED ON AUTO OBS. NXT FCST BY 161200Z
CYQB,TAF CYQB 160540Z 1606/1706 24008KT P6SM -SHRA BKN040 FM160800 24008KT P6SM FEW040 FM161400 22008KT P6SM SKC FM161800 25008KT P6SM FEW030 SCT240 BECMG 1622/1624 VRB03KT RMK NXT FCST BY 161200Z
CYQD,TAF CYQD 160640Z 1607/1619 34012G22KT P6SM OVC040 FM160900 33012KT P6SM SCT040 RMK FCST BASED ON AUTO OBS. NXT FCST BY 161300Z
CYQF,TAF CYQF 160540Z 1606/1618 16008KT P6SM SKC PROB30 1613/1615 16004KT 1 1/2SM BR FM161500 17006KT P6SM SKC RMK FCST BASED ON AUTO OBS. NXT FCST BY 161200Z
CYQG,TAF CYQG 160548Z 1606/1706 22007KT P6SM SKC FM161400 23010G20KT P6SM SCT070 FM162000 27015KT P6SM BKN060 FM162300 29015KT P6SM BKN040 FM170500 26010G20KT P6SM OVC020 RMK FCST BASED ON AUTO OBS. NXT FCST BY 161200Z
CYQH,TAF CYQH 160540Z 1606/1618 11008KT P6SM SCT008 OVC015 TEMPO 1606/1618 2SM BR BKN008 OVC015 BECMG 1612/1614 VRB03KT RMK NXT FCST BY 161200Z
CYQI,TAF CYQI 160541Z 1606/1618 VRB03KT 1/2SM -DZ FG OVC002 TEMPO 1606/1609 2SM BR OVC006 BECMG 1607/1609 34008KT FM160900 34008KT 3SM -DZ BR BKN004 OVC008 TEMPO 1609/1611 6SM BR OVC008 FM161100 35010KT 6SM BR BKN004 BKN050 TEMPO 1611/1615 P6SM NSW SCT004 BKN050 FM161500 31008KT P6SM SCT004 RMK NXT FCST BY 161200Z
CYQK,TAF CYQK 160140Z 1602/1614 33012G22KT P6SM SCT008 OVC015 TEMPO 1602/1605 5SM -SHRA BR BKN008 OVC020 FM160500 32012G22KT 3SM -RASN BR BKN007 OVC012 TEMPO 1605/1609 P6SM -SHRA SCT007 OVC012 FM160900 32012G22KT 2SM -SN BKN008 OVC015 TEMPO 1609/1612 6SM -RASN BR BKN015 OVC025 PROB30 1609/1612 1 1/2SM -SHSN BKN006 OVC012 FM161200 33015G25KT 1 1/2SM -SHSN SCT008 BKN015 OVC025 RMK NXT FCST BY 160800Z
CYQL,TAF CYQL 160542Z 1606/1618 13008KT P6SM SKC BECMG 1609/1611 VRB03KT FM161100 VRB03KT P6SM SKC PROB30 1611/1614 1/2SM FG VV004 FM161500 23004KT P6SM SKC BECMG 1616/1618 VRB03KT RMK FCST BASED ON AUTO OBS. NXT FCST BY 161200Z
CYQM,TAF CYQM 160540Z 1606/1706 14010G20KT 5SM -RA BR OVC005 TEMPO 1606/1617 P6SM NSW OVC010 FM161700 16006KT 3SM -RA BR BKN006 OVC015 FM162200 VRB03KT 1SM -DZ BR OVC004 BECMG 1700/1702 25005KT FM170300 25005KT 6SM BR SCT006 RMK NXT FCST BY 161200Z
CYQQ,TAF CYQQ 160540Z 1606/1706 VRB03KT P6SM FEW250 RMK NXT FCST BY 161200Z
CYQR,TAF CYQR 160540Z 1606/1706 33008KT P6SM SKC FM161600 34006KT P6SM BKN060 BECMG 1622/1624 VRB03KT BECMG 1702/1704 13010KT RMK NXT FCST BY 161200Z
CYQT,TAF CYQT 160140Z 1602/1614 30005KT P6SM SCT030 BKN060 TEMPO 1602/1604 P6SM -SHRA BKN030 OVC060 FM160400 30005KT P6SM FEW020 SCT060 PROB30 1610/1613 2SM BR RMK NXT FCST BY 160800Z
CYQU,TAF CYQU 160640Z 1607/1619 07003KT P6SM FEW120 BECMG 1608/1610 VRB02KT FM161100 VRB02KT P6SM SKC TEMPO 1611/1616 1 1/2SM BR PROB30 1612/1615 1/2SM FG VV004 FM161700 VRB02KT P6SM SKC RMK NXT FCST BY 161300Z
CYQW,TAF CYQW 160540Z 1606/1618 VRB03KT P6SM BKN100 BECMG 1610/1612 12006KT FM161400 14008KT P6SM BKN060 RMK FCST BASED ON AUTO OBS. NXT FCST BY 161200Z
CYQX,TAF CYQX 160540Z 1606/1706 20005KT P6SM FEW002 BKN220 PROB40 1606/1612 1/2SM FG BKN002 FM161300 16010KT P6SM BKN200 BECMG 1613/1615 12012KT FM162100 11012KT P6SM BKN180 FM170000 13012G22KT 6SM -SHRA BR BKN015 OVC200 RMK NXT FCST BY 161200Z
CYQY,TAF CYQY 160542Z 1606/1618 12010G20KT 1SM RA BR OVC002 TEMPO 1606/1610 3SM -RA BR PROB40 1606/1610 1/4SM -RA FG FM161000 12012G22KT 3/4SM -RA BR VV002 TEMPO 1610/1614 3SM -RA BR FM161400 10012G22KT 1SM SHRA BR OVC003 RMK NXT FCST BY 161200Z
CYRB,TAF CYRB 160540Z 1606/1706 30020G30KT 3SM -SN BLSN BKN005 OVC030 TEMPO 1606/1609 P6SM NSW SCT005 OVC030 BECMG 1607/1609 26020G30KT FM160900 26020G30KT P6SM SCT012 OVC030 TEMPO 1609/1612 4SM -SN BLSN SCT008 OVC012 FM161200 28020G30KT P6SM SCT012 OVC025 TEMPO 1612/1621 2SM -SN BLSN OVC008 FM162100 31025G35KT P6SM SCT015 OVC030 TEMPO 1621/1706 3SM -SN BLSN BKN015 OVC025 BECMG 1701/1703 31020G30KT RMK NXT FCST BY 161200Z
CYRQ,TAF AMD CYRQ 160433Z 1604/1614 23008G18KT P6SM BKN080 BECMG 1608/1610 23007KT FM161100 VRB03KT P6SM SKC PROB30 1611/1614 2SM BR RMK FCST BASED ON AUTO OBS. NXT FCST BY 160800Z
CYRT,TAF AMD CYRT 160627Z 1606/1618 35030G40KT P6SM OVC025 TEMPO 1606/1612 2SM -SN BLSN OVC015 FM161200 34025G35KT 4SM -SN BLSN OVC015 TEMPO 1612/1618 P6SM NSW SCT015 OVC030 RMK NXT FCST BY 161200Z
CYSB,TAF AMD CYSB 160547Z 1605/1614 23010KT P6SM BKN030 TEMPO 1605/1608 4SM -SHRA BR BKN008 OVC020 BECMG 1606/1608 18010KT FM160800 17010KT 6SM -RA BR OVC015 TEMPO 1608/1614 2SM -DZ BR BKN006 OVC015 PROB30 1610/1614 3/4SM -DZ BR OVC004 RMK NXT FCST BY 160800Z
CYSF,TAF CYSF 160550Z 1606/1618 VRB02KT P6SM SKC TEMPO 1609/1615 1 1/2SM BR PROB40 1610/1614 1/2SM FZFG VV004 FM161500 06003KT P6SM BKN120 BKN220 FM161700 10005KT P6SM OVC100 RMK FCST BASED ON AUTO OBS. NXT FCST BY 161200Z
CYSJ,TAF CYSJ 160541Z 1606/1618 VRB03KT 1 1/2SM -SHRA BR BKN005 OVC020 TEMPO 1606/1610 6SM BR SCT005 OVC020 FM161000 VRB03KT 1SM -DZ BR BKN005 OVC050 TEMPO 1610/1612 3SM BR BKN010 OVC050 FM161200 32006KT P6SM SCT005 OVC050 TEMPO 1612/1615 BKN006 OVC050 FM161500 30006KT P6SM FEW020 BECMG 1616/1618 VRB03KT RMK NXT FCST BY 161200Z
CYSM,TAF CYSM 160547Z 1606/1618 VRB02KT P6SM BKN120 BKN250 FM160900 13004KT P6SM SCT060 OVC100 TEMPO 1610/1614 5SM -SN OVC050 FM161400 14006KT P6SM OVC040 BECMG 1617/1618 14010KT RMK NXT FCST BY 161200Z
CYTE,TAF CYTE 160640Z 1607/1619 11006KT 1/4SM FG VV002 TEMPO 1607/1612 3SM BR BKN006 OVC025 BECMG 1607/1609 02006KT FM161200 04008KT 3/4SM -RA BR VV004 TEMPO 1612/1618 3SM BR OVC008 BECMG 1613/1615 02012KT FM161800 01020KT 1SM -RA BR OVC008 TEMPO 1618/1619 6SM BR SCT008 OVC012 RMK FCST BASED ON AUTO OBS. NXT FCST BY 161300Z
CYTH,TAF CYTH 160640Z 1607/1619 35012G22KT P6SM SCT030 TEMPO 1607/1609 BKN030 FM161200 35010KT P6SM SCT025 TEMPO 1612/1619 BKN025 RMK NXT FCST BY 161300Z
CYTL,TAF CYTL 160140Z 1602/1614 VRB03KT P6SM FEW030 OVC070 TEMPO 1602/1606 BKN030 OVC070 BECMG 1603/1605 33012KT FM160600 33012KT P6SM SCT015 BKN030 TEMPO 1606/1609 3SM -RASN BR BKN008 OVC015 PROB30 1606/1609 2SM -SNRA BKN006 OVC015 FM160900 34012G22KT 3SM -SNRA BKN006 OVC015 FM161200 33015G25KT 2SM -SN BKN008 OVC020 RMK FCST BASED ON AUTO OBS. NXT FCST BY 160800Z
CYTR,TAF CYTR 160540Z 1606/1706 17005KT P6SM FEW120 FM160900 VRB03KT P6SM SCT050 BKN100 FM161400 20008KT P6SM BKN040 BKN080 BECMG 1617/1619 20008G18KT BECMG 1623/1701 16005KT RMK NXT FCST BY 161200Z
CYTS,TAF AMD CYTS 160621Z 1606/1614 23007KT 6SM -RA BR BKN010 OVC030 TEMPO 1606/1614 P6SM NSW OVC030 PROB30 1606/1614 BKN008 RMK NXT FCST BY 160800Z
CYTZ,TAF CYTZ 160140Z 1602/1702 27007KT P6SM SKC BECMG 1602/1604 24007KT FM161500 23010G20KT P6SM SCT050 FM161800 22010G20KT P6SM BKN050 FM162000 23010G20KT P6SM OVC040 TEMPO 1620/1702 5SM -SHRA BR OVC020 RMK FCST BASED ON AUTO OBS. NXT FCST BY 160800Z
CYUL,TAF CYUL 160540Z 1606/1706 22012G22KT P6SM SKC BECMG 1607/1609 22012KT FM161800 23012KT P6SM OVC040 BECMG 1619/1621 17007KT FM170100 VRB03KT P6SM SCT040 RMK NXT FCST BY 160900Z
CYUX,TAF CYUX 160640Z 1607/1619 30015G25KT 4SM -SN BLSN BKN012 TEMPO 1607/1612 P6SM NSW SCT012 SCT030 BECMG 1610/1612 34020G30KT FM161200 34020G30KT 3SM -SN OVC010 TEMPO 1612/1618 1 1/2SM -SN BLSN OVC006 FM161800 35020G30KT P6SM SCT012 BKN025 TEMPO 1618/1619 3SM -SN BLSN OVC012 RMK FCST BASED ON AUTO OBS. NXT FCST BY 161300Z
CYUY,TAF CYUY 160540Z 1606/1618 20008G18KT 5SM -SHRA BR OVC012 TEMPO 1606/1617 P6SM NSW OVC030 PROB30 1606/1613 BKN008 FM161700 19012KT P6SM -SHRA BKN030 RMK NXT FCST BY 161200Z
CYVC,TAF CYVC 160640Z 1607/1619 35005KT P6SM SKC FM161400 01006KT P6SM BKN060 BECMG 1616/1618 16008KT RMK NXT FCST BY 161300Z
CYVM,TAF CYVM 160640Z 1607/1619 VRB03KT P6SM SCT030 OVC060 TEMPO 1607/1609 P6SM -RA SCT015 OVC030 FM160900 27005KT P6SM -RA SCT012 OVC030 TEMPO 1609/1612 2SM -RA BR SCT008 OVC012 FM161200 30006KT 1 1/2SM -RA BR OVC006 TEMPO 1612/1619 5SM -RA OVC012 BECMG 1616/1618 18006KT RMK FCST BASED ON AUTO OBS. NXT FCST BY 161300Z
CYVO,TAF CYVO 160540Z 1606/1618 20008G18KT P6SM OVC030 TEMPO 1606/1616 5SM -SHRA BR OVC015 PROB30 1606/1613 BKN008 FM161600 19012KT P6SM -SHRA BKN040 RMK FCST BASED ON AUTO OBS. NXT FCST BY 161200Z
CYVP,TAF CYVP 160541Z 1606/1618 16006KT P6SM SCT012 OVC030 TEMPO 1606/1609 4SM -SHRA BR BKN020 OVC030 FM160900 17010KT P6SM OVC025 TEMPO 1609/1615 P6SM -SHRA SCT006 OVC020 FM161500 19015G25KT P6SM BKN030 BECMG 1616/1618 19015G30KT RMK NXT FCST BY 161200Z
CYVQ,TAF CYVQ 160544Z 1606/1618 11015G30KT P6SM -SN SCT015 BKN030 OVC100 TEMPO 1606/1610 2SM -SN BLSN BKN012 PROB30 1606/1610 1SM -SN -PL BLSN FM161000 12010G20KT P6SM SCT020 SCT060 TEMPO 1610/1618 BKN020 OVC060 RMK NXT FCST BY 161200Z
CYVR,TAF CYVR 160540Z 1606/1712 VRB03KT P6SM FEW060 TEMPO 1607/1619 3SM FU FM161900 28007KT P6SM FEW250 BECMG 1702/1704 VRB03KT RMK NXT FCST BY 160900Z
CYWG,TAF CYWG 160540Z 1606/1706 33018G28KT P6SM SCT020 OVC070 TEMPO 1606/1617 BKN020 OVC070 FM161700 35018G28KT P6SM SCT015 OVC030 TEMPO 1617/1619 5SM -SHSN SCT008 OVC015 FM161900 35020KT P6SM SCT030 TEMPO 1619/1621 BKN030 BECMG 1702/1704 35012KT RMK NXT FCST BY 161200Z
CYWK,TAF AMD CYWK 160257Z 1602/1614 18008G18KT P6SM SCT015 TEMPO 1602/1614 3SM -DZ BR BKN009 RMK NXT FCST BY 160800Z
CYWL,TAF CYWL 160642Z 1607/1619 VRB03KT P6SM SKC PROB30 1607/1616 1SM BR BECMG 1616/1618 11010G20KT RMK NXT FCST BY 161300Z
CYXC,TAF CYXC 160640Z 1607/1619 24007KT P6SM FEW250 BECMG 1609/1611 VRB03KT RMK NXT FCST BY 161300Z
CYXE,TAF CYXE 160540Z 1606/1706 VRB03KT P6SM SKC FM161000 VRB03KT P6SM BKN070 BECMG 1615/1617 16008KT FM170000 14010KT P6SM SCT070 TEMPO 1700/1706 BKN070 RMK NXT FCST BY 161200Z
CYXH,TAF CYXH 160544Z 1606/1618 VRB03KT P6SM SKC BECMG 1613/1615 09004KT BECMG 1617/1618 12005KT RMK FCST BASED ON AUTO OBS. NXT FCST BY 161200Z
CYXJ,TAF CYXJ 160640Z 1607/1619 11010KT P6SM FEW120 FEW240 RMK NXT FCST BY 161300Z
CYXL,TAF AMD CYXL 160514Z 1605/1614 33008KT 6SM -RA BR FEW009 BKN040 TEMPO 1605/1608 3SM -RA BR BKN009 OVC040 FM160800 32010G20KT P6SM -RA BKN012 OVC030 TEMPO 1608/1613 3SM -RASN BR BKN008 OVC012 PROB30 1608/1613 2SM -SHSN FM161300 33012G22KT 2SM -SHSN BKN008 OVC015 RMK NXT FCST BY 160800Z
CYXS,TAF CYXS 160640Z 1607/1619 VRB03KT P6SM SKC TEMPO 1607/1610 1SM BR FM161000 VRB03KT 1/4SM FG VV002 TEMPO 1610/1615 5SM BR SKC BECMG 1615/1617 P6SM NSW SCT005 FM161700 30008KT P6SM SCT005 RMK FCST BASED ON AUTO OBS. NXT FCST BY 161300Z
CYXT,TAF CYXT 160640Z 1607/1619 01012KT P6SM SKC FM161000 01007KT P6SM FEW005 RMK NXT FCST BY 161300Z
CYXU,TAF CYXU 160548Z 1606/1706 23005KT P6SM FEW150 FM161500 22010G20KT P6SM BKN050 BECMG 1622/1624 30010KT BECMG 1701/1703 25010KT FM170500 24012KT 3SM -DZ BR OVC008 PROB30 1705/1706 1SM -DZ BR OVC004 RMK NXT FCST BY 161200Z
CYXX,TAF CYXX 160540Z 1606/1706 VRB03KT P6SM FEW240 TEMPO 1606/1616 3SM FU FM161600 06010KT P6SM FEW240 FM162300 12005KT P6SM FEW240 RMK NXT FCST BY 161200Z
CYXY,TAF CYXY 160540Z 1606/1618 17018KT P6SM SCT010 SCT120 TEMPO 1606/1613 4SM -SHRA BR BKN010 BECMG 1613/1615 17020G30KT RMK NXT FCST BY 161200Z
CYYB,TAF CYYB 160140Z 1602/1614 22010G20KT P6SM -SHRA SCT008 OVC025 TEMPO 1602/1608 4SM -SHRA BR BKN008 OVC020 FM160800 21007KT 6SM -RA BR SCT005 OVC012 TEMPO 1608/1614 2SM -DZ BR BKN005 OVC012 RMK NXT FCST BY 160800Z
CYYC,TAF CYYC 160540Z 1606/1706 17008KT P6SM FEW260 BECMG 1608/1610 17004KT BECMG 1611/1613 21004KT FM161500 25004KT P6SM SKC BECMG 1616/1618 VRB03KT BECMG 1618/1620 13008KT FM162300 15010KT P6SM SKC BECMG 1700/1702 17008KT BECMG 1705/1706 21004KT RMK NXT FCST BY 160900Z
CYYE,TAF CYYE 160640Z 1607/1619 01003KT P6SM BKN200 BKN240 BECMG 1609/1611 VRB03KT FM161100 VRB03KT P6SM BKN240 BECMG 1614/1616 SCT240 FM161800 VRB03KT P6SM FEW240 RMK NXT FCST BY 161300Z
CYYF,TAF CYYF 160640Z 1607/1619 01005KT P6SM SKC RMK NXT FCST BY 161300Z
CYYG,TAF CYYG 160542Z 1606/1618 13010KT 3SM -DZ BR OVC007 TEMPO 1606/1615 P6SM NSW SCT007 OVC010 PROB30 1606/1613 OVC005 FM161500 14010KT P6SM BKN009 OVC030 TEMPO 1615/1618 BKN015 OVC030 RMK NXT FCST BY 161200Z
CYYH,TAF CYYH 160540Z 1606/1618 31008KT P6SM FEW008 SCT200 BECMG 1607/1609 30012G22KT FM160900 30012G22KT P6SM SCT012 BKN030 TEMPO 1609/1618 3SM -SN BKN012 OVC030 BECMG 1612/1614 29012KT RMK NXT FCST BY 161200Z
CYYJ,TAF CYYJ 160540Z 1606/1706 VRB03KT P6SM FEW250 BECMG 1618/1620 04005KT RMK NXT FCST BY 161200Z
CYYL,TAF CYYL 160640Z 1607/1619 36010KT P6SM SKC FM161100 36008KT P6SM SCT025 TEMPO 1611/1619 BKN025 RMK FCST BASED ON AUTO OBS. NXT FCST BY 161300Z
CYYN,TAF CYYN 160540Z 1606/1618 VRB03KT P6SM OVC090 BECMG 1606/1608 18008KT RMK FCST BASED ON AUTO OBS. NXT FCST BY 161200Z
CYYQ,TAF CYYQ 160540Z 1606/1706 34028G38KT P6SM SCT020 BKN070 TEMPO 1606/1702 3SM -SN BLSN BKN020 OVC070 BECMG 1700/1702 34018KT FM170200 34018KT 5SM -SN BKN020 RMK NXT FCST BY 161200Z
CYYR,TAF CYYR 160540Z 1606/1706 18005KT P6SM FEW012 BKN050 OVC140 TEMPO 1606/1613 BKN012 OVC050 FM161300 18008G18KT P6SM BKN015 BKN100 TEMPO 1613/1618 OVC010 PROB30 1613/1618 OVC005 FM161800 18008G18KT P6SM BKN020 BKN120 BECMG 1619/1621 18005KT RMK NXT FCST BY 161200Z
CYYT,TAF CYYT 160540Z 1606/1706 27006KT 1/2SM FG VV002 TEMPO 1606/1612 6SM BR BKN003 FM161200 VRB03KT 3/4SM BR BKN003 BECMG 1612/1614 P6SM NSW SCT008 FM161500 14008KT P6SM FEW020 FM162000 14012KT P6SM BKN005 OVC010 FM170000 14015G25KT 2SM BR OVC005 FM170300 14015G25KT 2SM -SHRA BR OVC005 RMK NXT FCST BY 161200Z
CYYU,TAF AMD CYYU 160253Z 1602/1614 26005KT 2SM -SHRA -DZ BR OVC003 TEMPO 1602/1614 6SM BR OVC008 PROB30 1608/1613 BKN002 RMK NXT FCST BY 160800Z
CYYY,TAF AMD CYYY 160641Z 1606/1614 10006KT 1/2SM FG VV003 TEMPO 1606/1614 6SM BR SCT003 PROB30 1606/1612 OVC002 RMK NXT FCST BY 160800Z
CYYZ,TAF CYYZ 160548Z 1606/1712 24007KT P6SM FEW100 BECMG 1612/1614 23010G20KT FM161700 23015KT P6SM BKN050 BECMG 1622/1624 24007KT BECMG 1702/1704 30007KT FM170500 VRB03KT 6SM BR FEW007 BKN030 TEMPO 1705/1709 5SM -SHRA BR OVC020 PROB30 1705/1709 3SM BR BKN007 FM170900 23010KT P6SM FEW007 PROB30 1709/1712 BKN007 RMK NXT FCST BY 160900Z
CYZF,TAF CYZF 160540Z 1606/1706 12006KT P6SM SCT140 BECMG 1607/1609 11010G20KT FM160900 11010G20KT P6SM SCT050 BKN100 TEMPO 1609/1615 5SM -SN SCT015 BKN040 FM161500 14018G28KT P6SM SCT015 BKN050 TEMPO 1615/1621 5SM -SN BKN015 FM162100 14018G28KT P6SM BKN020 BKN160 TEMPO 1621/1703 SCT020 BKN040 FM170300 13012G22KT P6SM SCT030 TEMPO 1703/1706 BKN020 RMK NXT FCST BY 161200Z
CYZH,TAF CYZH 160640Z 1607/1619 09010G20KT P6SM OVC080 BECMG 1609/1611 FEW080 FM161300 11010G20KT P6SM SKC RMK FCST BASED ON AUTO OBS. NXT FCST BY 161300Z
CYZP,TAF CYZP 160640Z 1607/1619 26006KT 1/2SM -DZ FG VV002 TEMPO 1607/1619 2SM BR OVC003 BECMG 1616/1618 14015KT RMK FCST BASED ON AUTO OBS. NXT FCST BY 161300Z
CYZS,TAF AMD CYZS 152207Z 1522/1607 20010KT P6SM OVC015 TEMPO 1522/1603 2SM -DZ BR OVC005 FM160400 20010KT 6SM -RA BR OVC012 TEMPO 1604/1607 3/4SM -DZ BR OVC003 RMK NXT FCST BY 160100Z
CYZT,TAF CYZT 160640Z 1607/1619 VRB03KT P6SM SKC PROB30 1610/1619 1SM BR RMK NXT FCST BY 161300Z
CYZV,TAF CYZV 160540Z 1606/1706 10010KT 1SM -DZ BR VV002 TEMPO 1606/1615 3SM BR OVC003 PROB30 1606/1613 3/4SM -DZ BR VV001 FM161500 15006KT 2SM BR OVC006 BECMG 1616/1618 6SM BR SCT006 FM162200 VRB03KT 2SM BR SCT002 BKN006 FM170000 VRB03KT 1SM BR OVC002 RMK NXT FCST BY 161200Z
CYZX,TAF CYZX 160540Z 1606/1706 11008KT P6SM OVC010 TEMPO 1606/1609 4SM -SHRA BR OVC006 FM160900 VRB03KT 5SM -SHRA BR OVC010 TEMPO 1609/1614 2SM -SHRA BR OVC006 FM161400 VRB03KT 6SM -DZ -SHRA BR SCT008 OVC012 FM162200 VRB03KT P6SM OVC012 FM170200 VRB03KT P6SM SCT012 RMK NXT FCST BY 161200Z
CYZY,TAF CYZY 160640Z 1607/1609 VRB03KT P6SM SCT080 BKN240 PROB30 1607/1609 1SM BR RMK FCST BASED ON AUTO OBS. NXT FCST BY 161500Z
CZUM,TAF CZUM 160140Z 1602/1614 13010KT P6SM OVC015 TEMPO 1602/1603 3SM -RA BR OVC009 FM160300 13010KT P6SM SCT006 OVC012 TEMPO 1603/1614 2SM -DZ BR BKN006 OVC012 RMK FCST BASED ON AUTO OBS. NXT FCST BY 160800Z
CZVL,TAF CZVL 160540Z 1606/1618 13006KT P6SM BKN080 BECMG 1609/1611 FEW080 FEW250 FM161400 15006KT P6SM FEW250 RMK FCST BASED ON AUTO OBS. NXT FCST BY 161200Z
DAAE,TAF COR DAAE 160500Z 1606/1706 23008KT 9999 FEW020
DAAG,TAF DAAG 160500Z 1606/1706 04008KT CAVOK
DAAJ,TAF DAAJ 160500Z 1606/1706 02010KT CAVOK
DAAP,TAF DAAP 160500Z 1606/1615 10008KT CAVOK
DAAS,TAF COR DAAS 160500Z 1606/1706 33008KT CAVOK
DAAT,TAF DAAT 160500Z 1606/1706 08012KT CAVOK PROB40 TEMPO 1606/1612 08015G25KT
DAAV,TAF COR DAAV 160500Z 1606/1706 03008KT 9999 FEW020
DAAY,TAF DAAY 160500Z 1606/1615 21005KT 9999 FEW030 SCT233
DABB,TAF COR DABB 160500Z 1606/1706 03008KT 9999 FEW020
DABC,TAF COR DABC 160500Z 1606/1706 28008KT CAVOK
DABS,TAF COR DABS 160500Z 1606/1706 34008KT CAVOK
DABT,TAF COR DABT 160500Z 1606/1706 29008KT CAVOK
DAOB,TAF DAOB 160500Z 1606/1706 22008KT CAVOK PROB30 TEMPO 1615/1620 FEW030TCU
DAOF,TAF DAOF 160500Z 1606/1615 35012KT 9999 SCT046 SCT100 PROB30 TEMPO 1606/1609 3000 HZ FEW030CB BECMG 1608/1610 10010KT
DAOI,TAF DAOI 160500Z 1606/1706 VRB02KT CAVOK BECMG 1610/1613 36005KT BECMG 1616/1619 VRB02KT 9999 FEW030 BKN233 BECMG 1619/1622 06005KT BECMG 1622/1701 VRB02KT
DAON,TAF DAON 160500Z 1606/1706 VRB02KT 9999 FEW030 BKN200 BECMG 1613/1616 18014KT BECMG 1616/1619 VRB02KT
DAOO,TAF DAOO 160500Z 1606/1706 VRB02KT 9999 FEW010 BECMG 1610/1613 02010KT 9999 FEW030 BKN233 BECMG 1613/1615 34005KT BECMG 1619/1621 VRB02KT BECMG 1702/1705 16010KT
DAOR,TAF DAOR 160500Z 1606/1615 06008KT 9999 SCT033 BECMG 1610/1612 14010KT
DAOV,TAF DAOV 160500Z 1606/1615 VRB02KT 9999 FEW030 SCT233 BECMG 1613/1615 34005KT
DATM,TAF AMD DATM 160618Z 1606/1615 07010KT CAVOK PROB30 TEMPO 1611/1615 07020KT 4000 DRSA
DAUA,TAF DAUA 160500Z 1606/1706 08012KT CAVOK PROB30 TEMPO 1612/1618 08022KT 3000 DRSA
DAUB,TAF COR DAUB 160500Z 1606/1706 02008KT CAVOK
DAUG,TAF DAUG 160500Z 1606/1706 28006KT CAVOK
DAUH,TAF DAUH 160500Z 1606/1706 09006KT CAVOK
DAUI,TAF DAUI 160500Z 1606/1706 06014KT 8000 NSC
DAUK,TAF DAUK 160500Z 1606/1615 16006KT CAVOK
DAUL,TAF DAUL 160500Z 1606/1615 VRB02KT CAVOK BECMG 1609/1611 22010KT
DAUO,TAF DAUO 160500Z 1606/1615 14006KT CAVOK
DAUT,TAF DAUT 160500Z 1606/1615 10014KT CAVOK
DAUU,TAF DAUU 160500Z 1606/1615 VRB02KT CAVOK BECMG 1606/1608 10010KT
DAUZ,TAF DAUZ 160500Z 1606/1706 08010KT CAVOK
DBBB,TAF DBBB 160500Z 1606/1712 28003KT 9999 SCT009 TEMPO 1606/1612 -TSRA BKN009 FEW022CB BECMG 1611/1613 20010KT
DFFD,TAF DFFD 160500Z 1606/1712 22008KT 9999 FEW026 PROB30 TEMPO 1614/1622 TS FEW026 FEW036CB
DFOO,TAF DFOO 160500Z 1606/1706 20008KT 9999 FEW020 TEMPO 1614/1624 4000 TSRA SCT020 FEW033CB
DGAA,TAF DGAA 160500Z 1606/1712 27010KT 9999 BKN012 PROB40 TEMPO 1606/1610 5000 TSRA BKN010 FEW030CB BECMG 1612/1614 21014KT SCT015 BECMG 1701/1703 27006KT
DGLE,TAF DGLE 160500Z 1606/1706 23010KT 999 SCT016 PROB30 TEMPO 1616/1620 TS FEW030CB BECMG 1700/1702 CAVOK
DGSI,TAF DGSI 160500Z 1606/1706 23010KT 9999 BKN012 PROB30 TEMPO 1612/1616 5000 TSRA BKN010 FEW030CB BECMG 1623/1701 SCT012
DIAP,TAF DIAP 160521Z 1606/1712 29006KT 9999 SCT012 PROB30 TEMPO 1606/1609 4000 RA BKN010 BKN030 BECMG 1609/1611 23010KT PROB30 TEMPO 1612/1616 4000 RA BKN010 BKN030 PROB40 TEMPO 1620/1624 4000 RA BKN010 BKN030 TEMPO 1702/1707 3000 RA BKN010 BKN030
DIBK,TAF DIBK 160524Z 1606/1706 20006KT 8000 BKN011 PROB40 1606/1609 3000 BR BECMG 1615/1616 SCT013 PROB30 TEMPO 1617/1622 TS BKN012 FEW023CB
DIYO,TAF COR DIYO 152316Z 1600/1624 20006KT 9999 BKN010 PROB30 TEMPO 1600/1603 4000 RA PROB40 1605/1609 3000 BR BECMG 1615/1616 SCT013
DNAA,TAF DNAA 160500Z 1606/1712 VRB02KT 9999 FEW009 BECMG 1609/1612 25010KT BKN013 PROB30 TEMPO 1615/1622 TS SCT013 FEW020CB PROB30 1616/1619 06016G34KT 5000 -TSRA BKN008 FEW018CB BECMG 1622/1624 10004KT CAVOK PROB30 TEMPO 1705/1708 5000 BR SCT007 BECMG 1709/1712 23010KT 23010KT BKN013
DNAK,TAF DNAK 160500Z 1606/1712 VRB02KT 8000 SCT009 TEMPO 1606/1608 4000 BR BECMG 1608/1610 24010KT BKN013 TEMPO 1613/1619 TS SCT013 FEW020CB BECMG 1619/1621 VRB02KT SCT011 BECMG 1708/1710 24010KT BKN013
DNBE,TAF DNBE 152300Z 1600/1706 VRB02KT 8000 SCT008 TEMPO 1605/1608 3000 BR BECMG 1608/1610 21010KT BKN012 TEMPO 1611/1617 BKN012 FEW020CB PROB30 1613/1617 TS BECMG 1617/1619 VRB02KT SCT009
DNGO,TAF DNGO 160500Z 1606/1712 23006KT CAVOK BECMG 1611/1613 05012KT
DNIB,TAF COR DNIB 152300Z 1600/1706 VRB02KT 9999 SCT010 TEMPO 1605/1608 5000 BR BECMG 1608/1610 23010KT BKN013 TEMPO 1614/1619 TS SCT013 FEW020CB BECMG 1619/1621 VRB02KT SCT011
DNIL,TAF DNIL 160500Z 1606/1712 17004KT 9999 FEW009 PROB30 TEMPO 1606/1609 5000 BR BECMG 1609/1612 23010KT BKN012 TEMPO 1616/1622 TS SCT012 FEW020CB BECMG 1622/1624 VRB30 TEMPO 1705/1709 17005KT 5000 BR SCT007 BECMG 1709/1712 23010KT BKN012
DNJO,TAF DNJO 160500Z 1606/1712 16003KT CAVOK PROB30 TEMPO 1606/1609 5000 BR BKN004 BECMG 1610/1612 26010KT BKN010 TEMPO 1614/1619 TS SCT009 FEW017CB PROB30 1615/1618 07018G36KT 5000 -TSRA BKN004 FEW015CB BECMG 1615/1621 14005KT CAVOK BECMG 1701/1703 11005KT
DNKA,TAF DNKA 160500Z 1606/1712 VRB02KT CAVOK BECMG 1609/1611 23010KT BKN013 PROB30 TEMPO 1615/1621 TS SCT013 FEW020CB BECMG 1621/1624 12005KT CAVOK TEMPO 1709/1712 22010KT BKN013
DNKN,TAF DNKN 160500Z 1606/1712 03007KT 3000 HZ NSC BECMG 15/1617 5000
DNKT,TAF DNKT 151700Z 1518/1624 09007KT 3000 HZ NSC BECMG 1520/1522 6000 NSW
DNMA,TAF DNMA 160500Z 1606/1712 06008KT 3000 HZ NSC BECMG 1615/1617 5000
DNMM,TAF DNMM 160500Z 1606/1712 VRB02KT 8000 SCT009 PROB30 TEMPO 1606/1608 5000 BR BECMG 1608/1610 22010KT BKN013 TEMPO 1613/1619 SCT013 FEW020CB PROB30 1614/1619 5000 -TSRA BKN009 FEW019CB BECMG 1619/1621 VRB02KT SCT011 BECMG 1708/1710 21010KT BKN013
DNSO,TAF DNSO 160500Z 1606/1712 10007KT 5000 HZ NSC BECMG 1615/1617 7000 NSW
DNSU,TAF DNSU 152300Z 1600/1706 VRB02KT 8000 SCT008 TEMPO 1605/1608 3000 BR BECMG 1608/1610 20010KT BKN012 TEMPO 1611/1617 BKN012 FEW020CB PROB30 1613/1617 TS BECMG 1617/1619 VRB02KT SCT009
DNYO,TAF DNYO 160500Z 1606/1712 25005KT CAVOK
DRRN,TAF COR DRRN 160500Z 1606/1712 26005KT 8000 NSC TEMPO 1616/1620 VRB15KT 3500 BLDU TS FEW033 FEW040CB
DRZA,TAF COR DRZA 160500Z 1606/1706 10010KT 8000 NSC
DRZR,TAF COR DRZR 160500Z 1606/1706 06008KT 8000 NSC
DTKA,TAF DTKA 160600Z 1607/1616 08005KT 9999 SCT020
DTMB,TAF DTMB 160500Z 1606/1706 VRB02KT 6000 SCT023 BECMG 1615/1617 11015KT
DTNH,TAF DTNH 160500Z 1606/1706 22003KT CAVOK BECMG 1620/1622 11015KT
DTTA,TAF DTTA 160500Z 1606/1706 17002KT 9999 SCT026 BECMG 1620/1622 14015KT
DTTB,TAF DTTB 160600Z 1607/1616 33002KT 9999 SCT020
DTTF,TAF DTTF 160600Z 1607/1616 03005KT CAVOK
DTTG,TAF DTTG 160600Z 1607/1616 23002KT CAVOK
DTTJ,TAF DTTJ 160500Z 1606/1706 17004KT 9999 FEW020 BECMG 1612/1614 14010KT
DTTR,TAF DTTR 160600Z 1607/1616 08005KT CAVOK
DTTX,TAF DTTX 160500Z 1606/1706 33004KT CAVOK BECMG 1616/1618 12010KT
DTTZ,TAF DTTZ 160500Z 1606/1706 10010KT CAVOK
DXNG,TAF DXNG 160500Z 1606/1706 VRB05KT 9999 FEW006 PROB30 TEMPO 1614/1619 TS BKN006 FEW016CB
DXXX,TAF DXXX 160500Z 1606/1712 26006KT 9999 TS BKN010 FEW020CB BECMG 1606/1608 NSW FEW010 BECMG 1608/1610 20010KT BECMG 1622/1624 26006KT
EBAW,TAF EBAW 160500Z 1606/1615 21008KT 9999 FEW045 BECMG 1613/1615 15006KT
EBBR,TAF EBBR 160500Z 1606/1712 21010KT 9999 FEW045 BECMG 1614/1616 15006KT PROB30 TEMPO 1614/1617 RA BECMG 1700/1702 21010KT PROB30 TEMPO 1710/1712 4500 RA SHRA BKN014 SCT030TCU
EBCI,TAF EBCI 160500Z 1606/1712 20010KT 9999 FEW040 BECMG 1613/1615 14005KT PROB30 TEMPO 1613/1616 RA SCT009 BKN013 BECMG 1622/1624 20010KT PROB30 TEMPO 1710/1712 4500 RA SHRA BKN014 SCT030TCU
EBCV,TAF COR EBCV 160541Z 1607/1616 22010KT 9999 FEW015 SCT060 BKN200 BECMG 1612/1614 SCT020 BKN050 BECMG 1614/1616 16010KT 8000 -RA BKN015 BY EBWM
EBFN,TAF EBFN 160545Z 1607/1616 20007KT 9999 FEW020 SCT025 TEMPO 1607/1610 SCT018 BECMG 1612/1614 16005KT TEMPO 1614/1616 16010G20KT 4000 SHRA SCT015TCU
EBLG,TAF EBLG 160500Z 1606/1712 21010KT 9999 FEW045 BECMG 1614/1616 14005KT PROB30 TEMPO 1614/1617 RA BKN014 BECMG 1623/1701 20010KT
EBOS,TAF EBOS 160500Z 1606/1712 20013KT 9999 SCT035 PROB30 TEMPO 1606/1608 SHRA BECMG 1615/1617 13007KT PROB40 TEMPO 1615/1619 4500 RA BKN012 BKN040 BECMG 1623/1701 19010KT PROB40 TEMPO 1708/1712 4500 RA SHRA BKN014 SCT030TCU
EDDB,TAF EDDB 160500Z 1606/1706 20006KT 9999 SCT025 BECMG 1607/1610 23011KT BECMG 1614/1617 21005KT BECMG 1619/1622 13004KT TEMPO 1623/1706 2500 BCFG
EDDC,TAF EDDC 160500Z 1606/1706 17007KT 9999 SCT030 TEMPO 1610/1616 24008KT
EDDE,TAF EDDE 160500Z 1606/1706 22008KT 9999 BKN025 BECMG 1615/1617 VRB02KT PROB30 TEMPO 1622/1705 3000 BCFG
EDDF,TAF EDDF 160500Z 1606/1712 20007KT 9999 BKN035 PROB30 TEMPO 1606/1610 4500 RADZ BKN005 BECMG 1616/1620 VRB03KT TEMPO 1620/1710 1500 BCFG BKN002 BECMG 1710/1712 22006KT
EDDG,TAF EDDG 160500Z 1606/1706 20009KT CAVOK BECMG 1614/1617 VRB03KT BECMG 1620/1623 14005KT
EDDH,TAF EDDH 160500Z 1606/1712 21012KT 9999 FEW030 TEMPO 1608/1613 24015G25KT BECMG 1614/1616 23004KT BECMG 1623/1701 13006KT BECMG 1708/1710 20009KT
EDDK,TAF EDDK 160500Z 1606/1712 16006KT CAVOK BECMG 1608/1611 23006KT BECMG 1613/1616 13007KT PROB30 TEMPO 1617/1620 RA PROB30 TEMPO 1710/1712 SHRA SCT020CB
EDDL,TAF EDDL 160500Z 1606/1712 20009KT CAVOK BECMG 1613/1617 14006KT PROB30 TEMPO 1618/1621 RA BECMG 1620/1623 15011KT PROB40 TEMPO 1709/1712 SHRA SCT025CB
EDDM,TAF EDDM 160500Z 1606/1712 VRB03KT CAVOK TEMPO 1608/1613 19005KT TEMPO 1614/1617 07005KT BECMG 1623/1703 0800 FG PROB30 TEMPO 1702/1707 0400 FG VV002 BECMG 1707/1709 9999
EDDN,TAF EDDN 160500Z 1606/1706 14006KT 9999 FEW045 BECMG 1609/1611 21005KT BECMG 1615/1617 12005KT PROB30 TEMPO 1703/1706 1500 BCFG
EDDP,TAF EDDP 160500Z 1606/1706 19007KT 9999 BKN025 BECMG 1618/1620 13003KT PROB30 TEMPO 1623/1704 4000 BCFG
EDDR,TAF EDDR 160500Z 1606/1706 21007KT 9999 BKN030 PROB30 TEMPO 1606/1612 4500 RADZ BKN005 BECMG 1615/1618 14005KT PROB30 TEMPO 1620/1706 3000 BCFG BKN003
EDDS,TAF EDDS 160500Z 1606/1706 VRB03KT CAVOK
EDDV,TAF EDDV 160500Z 1606/1706 20005KT CAVOK BECMG 1607/1609 22011KT PROB30 TEMPO 1609/1613 24015G25KT BECMG 1615/1617 22004KT BECMG 1623/1701 15006KT
EDDW,TAF EDDW 160500Z 1606/1706 20007KT CAVOK BECMG 1606/1608 22012KT TEMPO 1609/1613 24015G25KT BECMG 1614/1616 21004KT BECMG 1623/1701 13007KT
EDFH,TAF EDFH 160500Z 1606/1706 23008KT 9999 BKN025 PROB30 TEMPO 1606/1612 4500 RADZ BKN005 BECMG 1615/1618 15008KT PROB30 TEMPO 1620/1706 1000 BCFG BKN001
EDHK,TAF EDHK 160300Z 1604/1612 20008KT CAVOK BECMG 1607/1609 23013KT TEMPO 1610/1612 24015G25KT
EDHL,TAF EDHL 160500Z 1606/1615 20004KT CAVOK BECMG 1606/1608 23010KT TEMPO 1609/1614 24015G25KT
EDJA,TAF EDJA 160500Z 1606/1615 23004KT CAVOK
EDLP,TAF EDLP 160500Z 1606/1706 21010KT CAVOK BECMG 1613/1615 22005KT BECMG 1615/1618 15005KT PROB30 TEMPO 1620/1623 RA BECMG 1622/1701 17010KT
EDLV,TAF EDLV 160500Z 1606/1706 22008KT CAVOK BECMG 1613/1616 VRB03KT BECMG 1619/1622 12006KT BECMG 1701/1704 18007KT
EDLW,TAF EDLW 160500Z 1606/1706 22010KT CAVOK BECMG 1614/1618 16006KT PROB30 TEMPO 1619/1623 RA
EDNY,TAF EDNY 160500Z 1606/1706 VRB03KT CAVOK PROB30 TEMPO 1611/1615 23005KT PROB30 TEMPO 1623/1704 3000 BCFG PROB40 TEMPO 1704/1706 0600 FG
EDSB,TAF EDSB 160500Z 1606/1706 VRB03KT 9999 SCT035 TEMPO 1620/1706 1500 BCFG BKN001 PROB30 TEMPO 1700/1706 0500 FG
EDVK,TAF EDVK 160500Z 1606/1615 20007KT 9999 BKN025 PROB30 TEMPO 1606/1612 RADZ BKN010
EEEI,TAF EEEI 160530Z 1606/1706 20012KT 9999 BKN010 TEMPO 1606/1610 4000 DZ BR OVC004 TEMPO 1611/1616 20015G25KT 3000 SHRA BKN002 FEW015CB BECMG 1617/1619 26015G28KT TEMPO 1618/1621 3000 SHRA BKN004 SCT020CB TEMPO 1623/1704 5000 SHRA FEW015CB
EETN,TAF EETN 160530Z 1606/1706 18014KT 5000 BR OVC005 TEMPO 1606/1610 0800 DZ FG OVC002 BECMG 1610/1612 9999 NSW BKN008 BKN015 TEMPO 1614/1617 3000 SHRA BKN005 SCT020CB BECMG 1617/1619 SCT020CB BKN025 TEMPO 1619/1621 3000 SHRA BKN008 SCT020CB BECMG 1619/1621 24018G30KT
EFHK,TAF AMD EFHK 160553Z 1606/1706 16012KT 5000 -RADZ BKN004 TEMPO 1606/1611 2500 BR OVC005 PROB30 TEMPO 1608/1611 0700 FG BECMG 1611/1612 9999 -RA BKN007 TEMPO 1612/1623 4000 SHRA BKN013 FEW020CB PROB30 TEMPO 1620/1623 23016G28KT BECMG 1623/1701 24016KT SCT025
EFIV,TAF EFIV 160533Z 1606/1609 20009KT 9999 BKN020 PROB40 TEMPO 1606/1609 6000 RA BKN012
EFJY,TAF EFJY 160531Z 1606/1706 16010KT 9999 OVC005 TEMPO 1606/1609 6000 SHRA BKN004 SCT015CB BECMG 1609/1611 1200 BR BKN003 BECMG 1615/1617 BKN007 TEMPO 1617/1622 BKN015 TEMPO 1622/1701 4000 +SHRA BKN005 SCT015CB
EFKT,TAF EFKT 160533Z 1606/1609 20009KT 9999 SCT010 BKN025 TEMPO 1606/1609 BKN008
EFKU,TAF EFKU 160531Z 1606/1706 16011KT 9999 OVC006 TEMPO 1606/1611 6000 SHRA BKN004 BKN015CB TEMPO 1611/1617 2500 -RADZ BR BKN003 BECMG 1617/1619 BKN015 TEMPO 1619/1706 4000 +SHRA BKN009 BKN020CB
EFMA,TAF EFMA 160533Z 1606/1615 22016KT 9999 BKN004 OVC016 BECMG 1606/1607 BKN005 TEMPO 1607/1610 20016G26KT 6000 SHRA BKN010 SCT015CB BECMG 1610/1612 SCT010
EFOU,TAF EFOU 160533Z 1606/1706 15008KT 9999 FEW012 BKN020 TEMPO 1606/1609 BKN009 TEMPO 1609/1617 7000 SHRA BKN009 FEW020CB BECMG 1617/1619 21010KT TEMPO 1700/1706 BKN012 BECMG 1703/1705 27012KT
EFRO,TAF EFRO 160533Z 1606/1706 20009KT 9999 BKN009 TEMPO 1606/1612 SCT012 BKN015 PROB40 1606/1608 20015G25KT TEMPO 1612/1618 7000 RA BKN004 PROB40 1613/1618 BKN004 FEW015CB TEMPO 1618/1702 SCT013 BKN015 BECMG 1702/1704 BKN004 TEMPO 1704/1706 1200 -DZ BR BKN001
EFSI,TAF AMD EFSI 160630Z 1606/1615 16007KT 9999 SHRA FEW008 FEW015CB BKN016 BECMG 1606/1607 -SHRA BKN008 FEW015CB TEMPO 1607/1609 4000 SHRA BKN004 BECMG 1609/1611 BKN015 TEMPO 1611/1614 BKN014 FEW015CB
EFTP,TAF EFTP 160531Z 1606/1706 17010KT 9999 OVC007 TEMPO 1606/1608 2500 DZ BR OVC003 BECMG 1609/1611 BKN013 TEMPO 1612/1703 4000 SHRA BKN009 SCT015CB TEMPO 1703/1706 2000 BR OVC004
EFTU,TAF EFTU 160536Z 1606/1706 18007KT 2000 BR OVC001 BECMG 1606/1608 4000 BKN008 PROB40 1608/1610 8000 NSW BKN010 BECMG 1610/1612 BKN020 TEMPO 1612/1624 6000 SHRA BKN004 SCT015CB
EFVA,TAF EFVA 160533Z 1606/1706 16011KT 9999 FEW007 BKN009 TEMPO 1606/1612 5000 SHRA BKN015 FEW020CB PROB40 1606/1612 +TSRA BECMG 1613/1614 22012KT BKN020 BECMG 1619/1621 VRB02KT TEMPO 1621/1703 1200 BCFG
EGAA,TAF EGAA 160455Z 1606/1706 22012KT 9999 SCT030 PROB30 TEMPO 1606/1608 7000 SHRA BECMG 1612/1615 16006KT BECMG 1618/1621 10016G26KT 7000 RA TEMPO 1619/1623 10018G36KT 4000 +RA BKN012 BECMG 1621/1624 16015G25KT 9999 NSW BECMG 1702/1705 18020G35KT PROB30 TEMPO 1704/1706 7000 RA BKN012
EGAC,TAF EGAC 160525Z 1606/1615 23010KT 9999 FEW024 PROB40 TEMPO 1606/1609 22015G25KT
EGBB,TAF EGBB 160458Z 1606/1706 22006KT CAVOK BECMG 1615/1618 BKN045 BECMG 1618/1621 14012KT TEMPO 1619/1624 8000 -RA BKN010 PROB30 TEMPO 1620/1624 14015G25KT 2000 +RA RADZ BKN004 BECMG 1623/1702 20012KT PROB40 TEMPO 1700/1703 7000 SHRA PROB30 TEMPO 1700/1706 22015G25KT
EGCC,TAF EGCC 160459Z 1606/1712 20010KT 9999 FEW035 BECMG 1615/1618 12010KT TEMPO 1618/1701 14018G30KT TEMPO 1621/1702 6000 RA BKN008 PROB30 TEMPO 1621/1702 3000 +RA BECMG 1623/1702 18010KT TEMPO 1704/1712 19015G25KT BECMG 1710/1712 24012KT
EGCK,TAF EGCK 160500Z 1606/1615 25015KT 9999 FEW025 BECMG 1607/1610 18009KT BECMG 1612/1615 12010KT
EGCN,TAF EGCN 160502Z 1606/1706 21015KT 9999 FEW025 BECMG 1615/1618 11005KT TEMPO 1618/1624 13015G25KT BECMG 1621/1624 BKN008 TEMPO 1621/1703 6000 RA BKN003 PROB30 TEMPO 1621/1703 3000 +RA RADZ BECMG 1700/1703 20010KT SCT024
EGFF,TAF EGFF 160504Z 1606/1706 31010KT 9999 SCT035 BECMG 1606/1608 VRB04KT BECMG 1610/1613 13010KT BECMG 1617/1619 BKN007 TEMPO 1617/1622 7000 RA PROB30 TEMPO 1617/1620 13017G27KT PROB30 TEMPO 1618/1622 3000 +RADZ BKN004 BECMG 1620/1622 21012KT SCT040 PROB30 TEMPO 1622/1703 21015G25KT PROB30 TEMPO 1623/1701 3000 +RA +SHRA BKN014
EGGD,TAF EGGD 160504Z 1606/1706 21012KT 9999 SCT030 BECMG 1613/1616 13012KT BECMG 1617/1620 BKN004 TEMPO 1617/1621 14015G25KT TEMPO 1617/1622 6000 RA PROB30 TEMPO 1618/1622 2500 +RADZ BKN001 BECMG 1620/1622 20012KT FEW004 SCT015 TEMPO 1621/1706 20015G25KT PROB30 TEMPO 1700/1702 3000 +RA +SHRA BKN010
EGGP,TAF EGGP 160459Z 1606/1706 25011KT 9999 FEW035 BECMG 1606/1609 18006KT BECMG 1615/1618 11012KT TEMPO 1618/1624 13018G28KT TEMPO 1620/1701 6000 RA BKN008 PROB30 TEMPO 1621/1701 3000 +RA BECMG 1701/1704 18010KT
EGGW,TAF EGGW 160502Z 1606/1706 22010KT 9999 FEW040 BECMG 1614/1617 15009KT BECMG 1618/1621 BKN006 TEMPO 1618/1623 6000 RA PROB40 TEMPO 1618/1623 15015G25KT 3000 +RA BKN003 BECMG 1622/1701 21012KT FEW020 PROB30 TEMPO 1623/1704 21015G25KT PROB30 TEMPO 1703/1705 7000 RA BKN012
EGHH,TAF AMD EGHH 160625Z 1606/1615 24004KT 9999 FEW025 TEMPO 1606/1609 1500 MIFG PROB30 TEMPO 1606/1609 0300 FG VV/// BECMG 1609/1612 18010KT
EGHI,TAF EGHI 160624Z 1606/1615 23004KT 9999 FEW030 PROB40 TEMPO 1606/1609 1500 MIFG BECMG 1611/1614 17010KT
EGHQ,TAF EGHQ 160500Z 1606/1615 17005KT 9999 FEW030 BECMG 1610/1613 16015KT TEMPO 1610/1615 18018G28KT
EGJA,TAF AMD EGJA 160636Z 1606/1615 22010KT 9999 FEW020 BECMG 1609/1612 16004KT PROB30 TEMPO 1612/1615 5000 RADZ BR FEW005 BKN010
EGJB,TAF EGJB 160459Z 1606/1615 22010KT 9999 FEW019 BECMG 1607/1609 16008KT TEMPO 1614/1615 7000 RA BKN010
EGJJ,TAF EGJJ 160459Z 1606/1615 23010KT 9999 FEW017 BECMG 1607/1609 16008KT TEMPO 1613/1615 7000 RA BKN010 PROB30 TEMPO 1614/1615 4000 +RA BKN002
EGKK,TAF EGKK 160459Z 1606/1712 22009KT 9999 FEW025 BECMG 1612/1615 15010KT TEMPO 1617/1624 6000 RA PROB40 TEMPO 1618/1623 17015G25KT 4000 +SHRA BKN007 BECMG 1621/1624 22010KT PROB30 TEMPO 1700/1707 6000 SHRA BKN010
EGLC,TAF EGLC 160454Z 1606/1615 23010KT 9999 FEW045 BECMG 1612/1615 16009KT
EGLL,TAF EGLL 160500Z 1606/1712 23007KT 9999 FEW030 BECMG 1614/1617 15010KT PROB30 TEMPO 1615/1618 9000 -RA TEMPO 1618/1624 8000 RA BKN014 PROB30 TEMPO 1618/1622 3000 +RA BKN008 BECMG 1622/1624 21009KT PROB30 TEMPO 1700/1706 8000 RA
EGMC,TAF EGMC 160454Z 1606/1615 23010KT 9999 FEW045 BECMG 1612/1615 16009KT
EGMD,TAF EGMD 160454Z 1606/1615 25010KT 9999 SCT045 BECMG 1609/1612 17011KT
EGNJ,TAF EGNJ 160500Z 1606/1615 22012KT CAVOK TEMPO 1606/1608 23015G25KT
EGNM,TAF EGNM 160502Z 1606/1706 24015KT 9999 FEW030 TEMPO 1606/1607 7000 SHRA TEMPO 1607/1611 25018G28KT BECMG 1613/1617 12007KT BECMG 1621/1623 BKN006 TEMPO 1621/1703 3000 RADZ BKN003 TEMPO 1621/1701 13015G27KT PROB30 TEMPO 1622/1702 0500 +RA FG BKN001 BECMG 1701/1704 20010KT FEW025
EGNS,TAF EGNS 160500Z 1606/1615 25020KT 9999 SCT025 BECMG 1610/1613 20010KT
EGNT,TAF EGNT 160502Z 1606/1706 25012KT 9999 FEW030 TEMPO 1606/1613 26018G32KT BECMG 1615/1619 12005KT PROB30 TEMPO 1622/1702 12015G25KT TEMPO 1623/1703 7000 RA BKN006 PROB30 TEMPO 1623/1703 3000 +RA RADZ BKN004 BECMG 1701/1704 20010KT
EGNV,TAF EGNV 160557Z 1606/1615 21015KT CAVOK PROB40 TEMPO 1606/1612 23018G32KT BECMG 1612/1615 18005KT
EGNX,TAF EGNX 160458Z 1606/1706 23010KT CAVOK BECMG 1615/1618 12012KT BKN045 TEMPO 1619/1624 8000 -RA BKN010 PROB30 TEMPO 1620/1624 14015G25KT 2000 +RA RADZ BKN004 BECMG 1623/1702 20012KT PROB40 TEMPO 1700/1703 7000 SHRA PROB30 TEMPO 1700/1706 22015G25KT
EGPA,TAF EGPA 152301Z 1600/1609 VRB03KT 9999 SCT030 TEMPO 1600/1609 5000 SHRA BKN012 BECMG 1603/1606 27012KT PROB30 TEMPO 1605/1608 28015G25KT
EGPB,TAF EGPB 160458Z 1606/1615 VRB04KT 9999 FEW015 SCT030 TEMPO 1606/1615 7000 SHRA PROB30 TEMPO 1606/1609 3500 +SHRA BKN014 BKN020CB BECMG 1607/1611 27018KT
EGPC,TAF EGPC 160458Z 1606/1615 26010KT 9999 FEW020 SCT030 PROB30 TEMPO 1606/1615 7000 SHRA PROB30 TEMPO 1611/1615 27015G25KT
EGPD,TAF EGPD 160459Z 1606/1706 25012KT 9999 SCT030 PROB40 TEMPO 1608/1612 25015G25KT BECMG 1615/1618 19007KT BECMG 1621/1624 12010KT TEMPO 1701/1705 13016G28KT 7000 RA BKN014 PROB30 TEMPO 1702/1705 3500 +RA BKN009 BECMG 1704/1706 18009KT
EGPE,TAF EGPE 160458Z 1606/1615 22012KT 9999 FEW020 SCT030 TEMPO 1606/1614 24015G27KT PROB40 TEMPO 1606/1610 5000 SHRA
EGPF,TAF EGPF 160459Z 1606/1706 23012KT 9999 SCT020 BKN030 PROB30 TEMPO 1606/1609 25015G25KT 5000 SHRA BECMG 1617/1620 09010KT TEMPO 1623/1703 10017G28KT 7000 RA PROB30 TEMPO 1700/1703 3500 +RA BKN014 BECMG 1701/1704 16012KT TEMPO 1703/1706 17015G26KT
EGPH,TAF EGPH 160459Z 1606/1706 24009KT 9999 FEW020 SCT030 TEMPO 1606/1608 5000 SHRA BKN014 PROB40 TEMPO 1606/1612 25016G27KT BECMG 1620/1622 09010KT PROB40 TEMPO 1623/1703 11015G25KT TEMPO 1700/1703 7000 RA PROB30 TEMPO 1701/1703 3500 +RA BKN014 BECMG 1703/1706 18010KT PROB40 TEMPO 1703/1706 16015G25KT
EGPI,TAF EGPI 160503Z 1606/1615 28020KT 9999 FEW020 SCT030 TEMPO 1606/1608 26024G36KT 5000 SHRA BECMG 1611/1615 20010KT
EGPK,TAF EGPK 160459Z 1606/1706 24017KT 9999 FEW020 SCT030 TEMPO 1606/1608 25022G34KT 5000 SHRA PROB40 TEMPO 1606/1607 25030G45KT BECMG 1618/1621 10015G25KT TEMPO 1622/1702 7000 RA PROB30 TEMPO 1623/1701 11022G35KT 3500 +RA BKN014 BECMG 1701/1704 17016G27KT
EGPO,TAF EGPO 160458Z 1606/1615 24009KT 9999 FEW020 SCT030 PROB30 TEMPO 1606/1615 5000 SHRA PROB30 TEMPO 1609/1615 25015G25KT
EGPU,TAF EGPU 160503Z 1606/1615 29017KT 9999 FEW025 SCT040 PROB40 TEMPO 1606/1610 29020G30KT 5000 SHRA BECMG 1612/1615 23009KT
EGQL,TAF EGQL 160445Z 1606/1615 25015KT 9999 SCT040 BECMG 1606/1609 25018G30KT PROB40 TEMPO 1606/1609 5000 SHRA SCT018 BECMG 1612/1615 25012KT
EGQS,TAF EGQS 160449Z 1606/1624 23015KT 9999 SCT040 BECMG 1606/1610 25018G28KT PROB30 TEMPO 1607/1609 5000 SHRA SCT018 BECMG 1615/1618 18010KT
EGSH,TAF EGSH 160501Z 1606/1615 23012KT CAVOK PROB30 TEMPO 1606/1607 24015G25KT
EGSS,TAF EGSS 160502Z 1606/1712 22010KT 9999 FEW040 BECMG 1614/1617 15009KT TEMPO 1618/1623 6000 RA SHRA BECMG 1619/1622 BKN006 PROB40 TEMPO 1619/1623 15015G25KT 3000 +SHRA BKN003 BECMG 1622/1701 21012KT FEW020 PROB30 TEMPO 1623/1704 21015G25KT PROB30 TEMPO 1703/1706 7000 RA BKN012
EGSY,TAF EGSY 160500Z 1606/1615 26010KT 9999 FEW035 BECMG 1606/1608 VRB03KT BECMG 1610/1613 15010KT
EGTE,TAF EGTE 160500Z 1606/1615 19003KT 9999 FEW030 BECMG 1611/1614 17013KT
EGTK,TAF EGTK 160554Z 1606/1615 22006KT 9999 FEW025
EGUN,TAF EGUN 160400Z 1604/1710 21010G15KT 9999 FEW120 WS015/23038KT QNH2968INS BECMG 1608/1609 23010G15KT 9999 FEW100 QNH2986INS BECMG 1612/1613 21010G15KT 9999 FEW025 SCT030 QNH2988INS BECMG 1615/1617 13010G15KT 9999 BKN040 BKN180 QNH2981INS BECMG 1619/1621 15010G15KT 9999 VCSH SCT010 OVC020 WS016/19035KT 610802 QNH2977INS TEMPO 1621/1703 18012G20KT 6000 -SHRA BR SCT008 OVC012 BECMG 1702/1703 21010G15KT 8000 BR VCSH SCT015 BKN020 BKN080 WS016/22030KT QNH2979INS BECMG 1706/1707 21012G18KT 9999 NSW SCT030 BKN160 QNH2990INS TX16/1615Z TN10/1606Z
EGVN,TAF EGVN 160431Z 1606/1706 22010KT 9999 SCT040 BECMG 1616/1618 BKN010 TEMPO 1618/1624 4500 RADZ PROB40 TEMPO 1619/1624 16015G25KT 2500 +RADZ BKN005 BECMG 1700/1704 SCT035 PROB30 TEMPO 1700/1706 20015G25KT
EGWU,TAF EGWU 160446Z 1606/1624 23007KT 9999 FEW030 BECMG 1617/1620 7000 -RA BKN018 TEMPO 1618/1623 4000 RA BKN008 PROB30 TEMPO 1618/1622 3000 +RA BKN006 BECMG 1622/1624 BKN025
EGXC,TAF EGXC 160453Z 1606/1624 23012KT CAVOK TEMPO 1620/1624 6000 RA BKN016 PROB40 TEMPO 1622/1624 3000 RADZ SCT005
EGYD,TAF EGYD 160625Z 1607/1615 24014KT CAVOK
EGYP,TAF EGYP 160434Z 1606/1624 29016KT CAVOK PROB40 TEMPO 1606/1607 29020G30KT TEMPO 1607/1613 28025G35KT BECMG 1613/1615 25025G36KT BECMG 1619/1621 29016G26KT
EHAM,TAF EHAM 160511Z 1606/1712 20012KT 9999 FEW020 TEMPO 1606/1607 6000 SHRA SCT018CB BECMG 1609/1912 24010KT BECMG 1613/1616 15007KT BECMG 1700/1703 18010KT BECMG 1709/1712 21010KT
EHBK,TAF EHBK 160523Z 1606/1712 21008KT 9999 SCT035 BECMG 1607/1610 24010KT BECMG 1615/1618 13005KT BECMG 1621/1624 18012KT BECMG 1707/1710 21010KT
EHEH,TAF EHEH 160501Z 1606/1712 18007KT CAVOK BECMG 1609/1611 SCT016 BECMG 1611/1613 SCT022 BECMG 1614/1617 11003KT PROB30 TEMPO 1618/1620 SCT050CB BECMG 1621/1624 15007KT PROB40 TEMPO 1710/1712 4500 RA SHRA SCT030 SCT045CB BKN060 PROB30 TEMPO 1710/1712 TSRA
EHGG,TAF EHGG 160523Z 1606/1712 21012KT 9999 FEW030 PROB40 TEMPO 1606/1609 7000 -SHRA FEW025TCU BECMG 1609/1612 24012KT BECMG 1615/1618 12005KT BECMG 1707/1710 21010KT PROB30 TEMPO 1709/1712 4000 SHRA BKN010 FEW015CB
EHKD,TAF EHKD 160427Z 1605/1617 23015G25KT 9999 SCT025 BKN035 TEMPO 1605/1608 4000 -SHRA -RA FEW013 FEW020CB BKN030 BECMG 1614/1616 18008KT
EHLE,TAF EHLE 160511Z 1606/1712 20012KT 9999 FEW020 PROB30 TEMPO 1606/1608 6000 SHRA SCT018CB BECMG 1608/1611 24010KT BECMG 1613/1616 14007KT BECMG 1700/1703 18010KT BECMG 1709/1712 21010KT PROB30 TEMPO 1709/1712 6000 -RA -SHRA SCT012 FEW050CB
EHLW,TAF EHLW 160402Z 1605/1617 22012KT 9999 SCT025 BKN035 TEMPO 1605/1610 4500 -RA -SHRA FEW015 FEW020CB BKN028 BECMG 1615/1617 20008KT
EHRD,TAF EHRD 160511Z 1606/1712 20012KT 9999 FEW020 PROB40 TEMPO 1606/1607 6000 SHRA SCT018CB BECMG 1612/1615 18007KT BECMG 1620/1623 15010KT BECMG 1702/1705 20010KT
EHVK,TAF EHVK 160401Z 1605/1617 21009KT CAVOK BECMG 1609/1611 SCT016 BECMG 1611/1613 SCT022 BECMG 1615/1617 12003KT
EICK,TAF EICK 160500Z 1606/1706 VRB03KT 9999 FEW018 SCT028 BECMG 1608/1610 09010KT -RA BKN012 BECMG 1610/1612 11016G26KT TEMPO 1611/1617 3000 RA BKN007 PROB30 TEMPO 1612/1617 2000 +RA BKN004 SCT018CB BECMG 1612/1614 14020G32KT TEMPO 1614/1618 15025G42KT BECMG 1616/1618 20020G30KT NSW FEW018 SCT025 TEMPO 1618/1623 21023G40KT TEMPO 1619/1622 -SHRA SCT018CB BECMG 1622/1624 23020G30KT TEMPO 1623/1704 24025G40KT
EIDL,TAF EIDL 160500Z 1606/1615 26015KT 9999 FEW018 BKN030 PROB30 TEMPO 1606/1608 27017G27KT BECMG 1611/1613 21007KT BECMG 1613/1615 15010KT
EIDW,TAF EIDW 160500Z 1606/1706 24012KT 9999 FEW015 SCT030 BECMG 1606/1608 21007KT BECMG 1610/1612 15008KT BECMG 1612/1614 12010KT BECMG 1614/1616 12015G26KT -RA BECMG 1616/1618 12020G32KT PROB30 TEMPO 1617/1620 13023G37KT TEMPO 1618/1621 4000 RA BKN012 BECMG 1619/1621 18015G25KT PROB30 TEMPO 1619/1621 2500 +RA BKN007 SCT018CB TEMPO 1621/1623 19018G30KT BECMG 1623/1701 22020G32KT PROB40 TEMPO 1700/1706 22023G37KT
EIKN,TAF EIKN 160500Z 1606/1706 22008KT 9999 FEW018 SCT028 BECMG 1609/1611 14010KT BECMG 1613/1615 11013KT -RA TEMPO 1614/1619 3000 RA BKN007 BECMG 1615/1617 08018G30KT TEMPO 1616/1619 07023G40KT PROB30 TEMPO 1617/1619 2000 +RA BECMG 1618/1620 11013KT PROB30 TEMPO 1619/1622 -SHRA SCT017CB BECMG 1620/1622 13017G28KT TEMPO 1622/1706 4000 SHRA BKN010 SCT017CB BECMG 1622/1624 17020G35KT BECMG 1702/1704 22020G32KT
EIKY,TAF EIKY 160500Z 1606/1615 VRB03KT 9999 FEW018 SCT030 BECMG 1608/1610 10010KT -RA BECMG 1611/1613 09014G25KT TEMPO 1611/1615 4000 RA BKN012 BECMG 1613/1615 12018G30KT PROB40 TEMPO 1613/1615 2500 +RA BKN008 SCT018CB
EIME,TAF EIME 160500Z 1606/1615 22016KT 9999 FEW015 SCT030 BECMG 1607/1609 19010KT BECMG 1610/1612 16007KT BECMG 1613/1615 09010KT -RA
EINN,TAF EINN 160500Z 1606/1706 18006KT 9999 FEW018 SCT030 BECMG 1606/1608 11010KT BECMG 1611/1613 08017G28KT -RA TEMPO 1613/1617 4000 RA BKN010 BECMG 1614/1616 11020G32KT PROB30 TEMPO 1615/1617 2500 +RA BKN005 SCT018CB BECMG 1616/1618 17013KT NSW TEMPO 1618/1706 -SHRA SCT018CB TEMPO 1618/1620 17018G30KT TEMPO 1620/1623 16025G40KT BECMG 1622/1624 22025G38KT PROB30 TEMPO 1623/1706 23028G48KT
EISG,TAF EISG 160500Z 1606/1615 23012KT 9999 FEW015 SCT030 BECMG 1606/1608 19006KT BECMG 1609/1611 15010KT BECMG 1613/1615 12013KT
EIWF,TAF EIWF 160500Z 1606/1615 VRB03KT 9999 FEW018 SCT030 BECMG 1608/1610 10010KT BECMG 1611/1613 14015G26KT -RA BECMG 1613/1615 14020G36KT PROB30 TEMPO 1613/1615 4000 RA BKN010
EKAH,TAF EKAH 160509Z 1606/1706 20005KT 9999 BKN030 TEMPO 1606/1608 4000 SHRA BKN012 BKN020CB BECMG 1606/1608 20015KT TEMPO 1608/1614 22018G32KT 4000 SHRA BKN014 BKN020CB TEMPO 1614/1616 24015G25KT BECMG 1619/1622 21005KT TEMPO 1702/1706 2500 BR MIFG
EKBI,TAF EKBI 160509Z 1606/1706 18007KT 9999 BKN030 TEMPO 1606/1608 4000 SHRA BKN012 BKN020CB BECMG 1606/1608 22017KT TEMPO 1608/1613 21020G34KT 4000 SHRA BKN014 BKN020CB TEMPO 1613/1616 24018G28KT BECMG 1616/1618 23008KT BECMG 1704/1706 12010KT 4000 -RA
EKCH,TAF EKCH 160509Z 1606/1706 21013KT 9999 BKN020 TEMPO 1606/1609 BKN012 TEMPO 1612/1616 23018G32KT SHRA BKN020CB BECMG 1700/1703 20003KT BECMG 1703/1706 12010KT
EKEB,TAF EKEB 160509Z 1606/1615 20015KT 9999 BKN030 TEMPO 1606/1613 22020G35KT 4000 SHRA BKN014 BKN020CB TEMPO 1613/1615 24018G30KT
EKGC,TAF EKGC 160509Z 1606/1615 21035KT 9999 SCT030 TEMPO 1606/1610 22035G45KT SHRA BKN025CB BECMG 1613/1615 24025KT
EKHD,TAF EKHD 160509Z 1606/1615 21043KT 9999 SCT030 TEMPO 1606/1613 SHRA BKN025CB
EKKA,TAF EKKA 160512Z 1606/1706 18008KT 9999 BKN020 FM160800 22015G28KT 9999 BKN025 TEMPO 1608/1615 24016G34KT 4000 SHRA BKN014 SCT020CB BECMG 1615/1617 24012KT TEMPO 1700/1706 3000 BR
EKRK,TAF EKRK 160509Z 1606/1615 21012KT 9999 BKN020 TEMPO 1606/1610 BKN010 TEMPO 1610/1612 22018G30KT SCT020CB TEMPO 1612/1615 24018G30KT SHRA BKN020CB
EKRN,TAF EKRN 160512Z 1606/1615 22012KT 8000 SCT012 BKN030 TEMPO 1606/1615 23015G25KT BKN012
EKSP,TAF EKSP 160512Z 1606/1706 20014KT 9999 SCT012 BKN020 TEMPO 1606/1608 4000 SHRA BKN008 BKN020CB FM160800 22015G28KT 9999 BKN025 TEMPO 1608/1614 24020G35KT 4000 SHRA BKN012 SCT020CB BECMG 1614/1616 24012KT TEMPO 1700/1706 3000 BR
EKVG,TAF EKVG 160520Z 1606/1615 34015KT 9999 -SHRA BKN015 TEMPO 1606/1615 SHRA OVC012TCU BECMG 1610/1612 04007KT
EKYT,TAF EKYT 160512Z 1606/1706 18012KT 9999 BKN020 TEMPO 1606/1608 4000 SHRA BKN012 FM160800 22018G28KT 9999 BKN025 TEMPO 1608/1612 22022G35KT 4000 TSRA BKN012 BKN020CB TEMPO 1612/1615 24022G35KT 4000 SHRA BKN012 BKN020CB TEMPO 1615/1618 24022G35KT BECMG 1618/1621 24012KT TEMPO 1700/1703 3000 BR
ELLX,TAF ELLX 160500Z 1606/1712 22009KT 9999 SCT004 BKN015 TEMPO 1606/1612 4000 -DZRA BR BKN002 PROB40 TEMPO 1612/1615 BKN008
ENAL,TAF ENAL 160500Z 1606/1615 17009KT 9999 FEW050 PROB40 TEMPO 1609/1615 SHRA SCT035CB
ENAN,TAF ENAN 1606/1706 19012KT 9999 -SHRA FEW025 BKN040 TEMPO 1606/1612 FEW020TCU BECMG 1700/1702 27008KT TEMPO 1703/1706 SHRA BKN014CB BECMG 1704/1706 34012KT
ENAT,TAF ENAT 160500Z 1606/1615 15005KT 9999 -RA FEW018 BKN030 PROB40 TEMPO 1606/1608 BKN012
ENBN,TAF ENBN 160500Z 1606/1615 05008KT CAVOK TEMPO 1606/1609 12015KT
ENBO,TAF ENBO 1606/1706 10012KT 9999 FEW020 SCT050 BECMG 1615/1618 20009KT TEMPO 1700/1706 FEW020TCU BECMG 1703/1704 26015KT
ENBR,TAF ENBR 1606/1706 16014KT 9999 -SHRA FEW015 BKN030 TEMPO 1606/1620 17018G28KT 4000 SHRA BKN010 SCT015CB PROB30 TEMPO 1606/1615 TS BECMG 1612/1614 24015KT
ENCN,TAF ENCN 160500Z 1606/1615 20008KT 9999 BKN020 TEMPO 1606/1615 22018G32KT 2500 SHRA BR BKN008 SCT020CB PROB30 TEMPO 1606/1610 TS BECMG 1610/1612 26012KT
ENDU,TAF ENDU 1606/1706 VRB03KT 9999 FEW020 BKN035 PROB30 TEMPO 1606/1608 0800 FG VV003
ENEV,TAF ENEV 1606/1706 16005KT 9999 FEW015 BKN030 TEMPO 1700/1706 SHRA BKN012
ENFL,TAF ENFL 160500Z 1606/1615 12014KT 9999 -SHRA BKN025 TEMPO 1606/1615 4000 SHRA SCT015CB TEMPO 1607/1610 16015G25KT
ENGC,TAF ENGC 1606/1706 17020KT 9999 FEW025 BKN040 TEMPO 1606/1612 4000 SHRA BKN015CB PROB30 TEMPO 1606/1610 TS BECMG 1612/1614 26020KT TEMPO 1616/1620 26030KT
ENGM,TAF ENGM 1606/1706 VRB03KT 9999 BKN008 PROB30 1606/1609 0800 FG VV002 BECMG 1610/1612 19010KT BKN020 TEMPO 1610/1614 20015G25KT SHRA BKN008 SCT020CB BECMG 1622/1624 VRB03KT
ENHD,TAF ENHD 160500Z 1606/1615 17012KT 9999 FEW015 BKN030 TEMPO 1606/1615 4000 SHRA BKN012 BKN025CB TEMPO 1606/1612 17020G30KT BECMG 1611/1613 25015KT TEMPO 1612/1615 24020G30KT
ENHE,TAF ENHE 160500Z 1606/1615 10028KT 9999 SCT025 BECMG 1607/1609 12018KT
ENKB,TAF ENKB 160500Z 1606/1615 VRB05KT 9999 FEW070
ENKR,TAF ENKR 160500Z 1606/1615 16009KT 9999 FEW008 SCT012 BKN025 TEMPO 1606/1609 4000 RADZ BKN004
ENLE,TAF ENLE 160500Z 1606/1615 22040KT 9999 -SHRA SCT030 PROB40 TEMPO 1606/1611 SHRA SCT015CB
ENNA,TAF ENNA 1606/1706 20009KT 9999 BKN025 TEMPO 1606/1608 BKN008 PROB40 TEMPO 1610/1613 27012KT
ENNE,TAF ENNE 160500Z 1606/1615 08018KT 9999 BKN020
ENOA,ENOA 1606/1706 18020KT 9999 FEW015 BKN030 TEMPO 1606/1618 4000 SHRA BKN012 BKN015CB PROB30 TEMPO 1606/1609 TS BECMG 1609/1612 24025KT TEMPO 1615/1617 26035KT
ENOL,TAF ENOL 1606/1706 12015KT CAVOK TEMPO 1606/1610 FEW030CB BECMG 1614/1616 10005KT BECMG 1621/1624 24015KT TEMPO 1622/1706 25017G27KT SHRA BKN020CB
ENOV,TAF ENOV 160500Z 1606/1615 VRB05KT 9999 FEW020 BKN050 TEMPO 1606/1615 SHRA SCT020CB
ENRY,TAF ENRY 1606/1706 18007KT 9999 FEW008 SCT020 PROB30 1606/1607 0800 FG VV002 TEMPO 1609/1614 19018G28KT 2500 SHRA BKN008 SCT020CB PROB30 1609/1612 TS
ENSB,TAF ENSB 1606/1706 13015KT CAVOK BECMG 1702/1704 14005KT
ENSD,TAF ENSD 160500Z 1606/1615 12006KT 9999 BKN050 TEMPO 1606/1615 4000 SHRA SCT020CB
ENTC,TAF ENTC 1606/1706 20008KT 9999 FEW020 BKN045 PROB40 1606/1609 BKN014 TEMPO 1702/1706 SHRA FEW025TCU
ENTO,TAF ENTO 1606/1706 VRB03KT 9999 FEW008 SCT020 PROB30 1606/1607 0800 FG VV002 BECMG 1607/1609 20010KT TEMPO 1608/1614 19020G30KT 2500 SHRA BKN008 SCT020CB PROB30 TEMPO 1609/1612 TS
ENVA,TAF COR ENVA 1606/1706 09008KT CAVOK TEMPO 1703/1706 4000 SHRA BKN012 BKN020CB
ENZV,TAF ENZV 1606/1706 16015KT 9999 -SHRA FEW020 BKN040 TEMPO 1606/1610 16020G35KT TEMPO 1606/1618 4000 SHRA SCT020CB PROB40 TEMPO 1606/1613 TS BECMG 1608/1610 24015KT TEMPO 1610/1618 24018G28KT
EPBY,TAF AMD EPBY 160632Z 1606/1706 21008KT 9999 BKN014 PROB30 TEMPO 1606/1616 8000 -SHRA SCT005 BKN012TCU BECMG 1609/1611 BKN040 BECMG 1620/1622 4000 BR PROB40 1700/1706 VRB03KT 0600 FG BKN004
EPCE,TAF EPCE 160500Z 1606/1615 19008KT 9999 BKN007 TEMPO 1606/1611 -SHRA BKN012TCU BECMG 1611/1613 SCT020
EPDA,TAF EPDA 160500Z 1606/1615 23008KT 9999 BKN020 BECMG 1609/1611 CAVOK
EPDE,TAF EPDE 160500Z 1606/1615 15006KT CAVOK
EPGD,TAF AMD EPGD 160616Z 1606/1706 21010KT 8000 SCT007 BKN030 TEMPO 1606/1608 4000 RA BR BKN005 BKN010 PROB40 TEMPO 1606/1608 2000 RA BR BKN002 PROB40 TEMPO 1608/1612 4000 BR BKN007 BKN012 PROB40 TEMPO 1612/1618 SCT015TCU PROB40 TEMPO 1621/1706 3000 BR BKN007 BECMG 1704/1706 VRB02KT 
EPKK,TAF EPKK 160530Z 1606/1706 VRB02KT 9999 SCT045 PROB40 TEMPO 1609/1615 24010KT
EPKS,TAF COR EPKS 160501Z 1606/1615 19006KT 9999 BKN025 PROB30 1606/1608 5000 BR BKN007
EPKT,TAF EPKT 160530Z 1606/1706 17007KT CAVOK PROB40 TEMPO 1609/1615 20015G25KT
EPLB,TAF EPLB 160530Z 1606/1706 18005KT 9999 SCT045
EPLK,TAF EPLK 160500Z 1606/1615 20010KT 9999 BKN040
EPLL,TAF EPLL 160530Z 1606/1706 19006KT 9999 BKN037 PROB40 TEMPO 1609/1615 -RA BKN014 PROB40 1621/1706 2500 BR
EPMB,TAF EPMB 160500Z 1606/1615 19010KT 7000 SCT050 BKN080 BECMG 1606/1609 9999 BKN030 PROB30 TEMPO 1609/1615 -SHRA -RA SCT015TCU BKN020
EPMI,TAF EPMI 160500Z 1606/1615 20008KT 9999 BKN005 TEMPO 1606/1608 3000 BR BKN003 BECMG 1609/1611 BKN020
EPMM,TAF EPMM 160500Z 1606/1615 19010KT 9999 BKN033
EPMO,TAF EPMO 160530Z 1606/1706 18007KT 9999 BKN040 PROB40 TEMPO 1612/1616 -RA BKN014 PROB40 1621/1706 1500 BR BKN005
EPOK,TAF EPOK 160500Z 1606/1615 21012KT 9999 SCT012 BKN040 TEMPO 1606/1612 5000 SHRA BKN010TCU BECMG 1612/1614 SCT015
EPPO,TAF EPPO 160530Z 1606/1706 20006KT 9999 BKN030 BECMG 1617/1619 4500 BR
EPPW,TAF EPPW 160500Z 1606/1615 19008KT 9999 BKN027 PROB30 TEMPO 1606/1608 BKN014
EPRZ,TAF EPRZ 160530Z 1606/1706 VRB02KT CAVOK BECMG 1606/1609 20010KT PROB40 TEMPO 1609/1615 20015G25KT
EPSC,TAF EPSC 160530Z 1606/1706 17008KT 9999 BKN040 TEMPO 1621/1706 3000 BR
EPSN,TAF EPSN 160500Z 1606/1615 20008KT 9999 SCT007 BKN017 BECMG 1608/1610 BKN025 BKN040
EPSY,TAF AMD EPSY 160635Z 1606/1615 20008KT 9999 BKN040 PROB40 TEMPO 1609/1615 -RA SCT014 BKN023
EPTM,TAF EPTM 160500Z 1606/1615 18008KT 9999 BKN040
EPWA,TAF EPWA 160530Z 1606/1706 19007KT 9999 BKN040 PROB40 TEMPO 1612/1616 -RA BKN014 PROB40 1621/1706 3500 BR
EPWR,TAF EPWR 160530Z 1606/1706 16006KT 9999 SCT040 BECMG 1609/1612 24010KT
EPZG,TAF EPZG 160530Z 1606/1615 VRB02KT 0400 FG SCT040 TEMPO 1606/1607 0100 FG BECMG 1607/1609 24010KT CAVOK
ESDF,TAF ESDF 160630Z 1607/1615 19005KT CAVOK PROB40 1607/1608 0700 BCFG
ESGG,TAF ESGG 160530Z 1606/1706 20009KT 9999 BKN006 PROB40 1606/1610 SHRA FEW007 BKN020CB BECMG 1610/1612 22015G25KT FEW010 BKN025 TEMPO 1610/1614 4000 TSRA BKN008 BKN030CB PROB40 1614/1620 SCT025CB BECMG 1621/1623 26007KT
ESGP,TAF ESGP 160530Z 1606/1615 21008KT CAVOK PROB40 1606/1610 SHRA BKN008 SCT030CB BECMG 1610/1612 22017G30KT TEMPO 1610/1614 4000 TSRA BKN010 BKN030CB
ESKN,TAF ESKN 160530Z 1606/1706 19009KT 9999 SCT010 BKN035 PROB40 1606/1608 BKN008 PROB40 1611/1617 SHRA SCT030CB BECMG 1613/1615 24015G25KT BECMG 1702/1704 25005KT
ESMS,TAF ESMS 160509Z 1606/1706 21010KT 9999 BKN020 TEMPO 1606/1611 BKN012 TEMPO 1612/1616 23015G28KT SCT020CB BECMG 1623/1701 VRB03KT TEMPO 1703/1706 2500 BR MIFG
ESMX,TAF ESMX 160530Z 1606/1615 22008KT 8000 BKN004 BECMG 1606/1608 BKN012 BECMG 1608/1610 BKN020 PROB40 1612/1615 SHRA SCT025CB
ESNQ,TAF ESNQ 160530Z 1606/1609 22010KT CAVOK
ESNS,TAF ESNS 160630Z 1607/1615 05003KT CAVOK BECMG 1607/1609 BKN008 PROB40 1609/1613 4000 SHRA BKN004 BKN030CB BECMG 1612/1614 18010KT PROB40 1613/1615 BKN015
ESNU,TAF COR ESNU 160549Z 1606/1615 VRB02KT 9999 SCT045 BECMG 1606/1609 15010KT 2000 RA BKN003 TEMPO 1609/1611 5000 TSRA BKN010CB BECMG 1611/1613 21012KT 9999 BKN012 BECMG 1613/1615 BKN020
ESNZ,TAF ESNZ 160530Z 1606/1615 16003KT 9999 -RA SCT025 PROB40 1606/1610 4000 -RA BR BKN005 TEMPO 1610/1612 BKN008
ESOW,TAF ESOW 160530Z 1606/1610 19012KT 9999 FEW009 BKN030 PROB40 1606/1607 BKN008
ESPA,TAF ESPA 160530Z 1606/1615 20004KT CAVOK TEMPO 1611/1615 2000 RA BKN005
ESSA,TAF AMD ESSA 160536Z 1606/1706 19010KT 9999 SCT012 BKN020 PROB40 1606/1608 BKN008 TEMPO 1613/1618 SHRA SCT030CB BECMG 1616/1618 25015G27KT BECMG 1702/1704 25012KT
ESSV,TAF AMD ESSV 160628Z 1606/1615 20015KT 2500 BR BKN003 BECMG 1607/1609 9999 BKN020 BECMG 1612/1614 22017G27KT
ETAD,TAF ETAD 160400Z 1604/1710 21006KT 6000 -SHRA BR BKN005 OVC010 QNH2989INS TEMPO 1604/1608 OVC007 BECMG 1610/1611 20009KT 8000 -SHRA BR OVC010 QNH2999INS BECMG 1614/1615 18006KT 9999 NSW OVC015 QNH3001INS BECMG 1619/1620 19009KT 9999 SCT020 BKN030 QNH3005INS TX17/1615Z TN12/1605Z
ETAR,TAF AMD ETAR 160250Z 1602/1708 21009KT 9999 BKN020 QNH2994INS BECMG 1603/1604 22009KT 9000 -SHRA BKN010 QNH2996INS BECMG 1609/1610 19009KT 9999 NSW BKN015 QNH3005INS BECMG 1613/1614 16009KT 9999 SCT015 BKN030 QNH3006INS BECMG 1621/1622 21010G15KT 9999 FEW020 SCT050 QNH3013INS TX18/1615Z TN15/1604Z
ETNL,TAF ETNL 160413Z 1605/1617 21005KT 9999 NSW FEW070 BKN180 BY ETGL
ETNW,TAF ETNW 160414Z 1605/1705 23012KT 9999 NSW FEW040 BKN220 PROB30 1610/1613 24015G25KT 9999 NSW FEW050 SCT220 TEMPO 1621/1702 16007KT 6000 -RA FEW010 BKN020 TEMPO 1702/1705 VRB03KT 4000 BR FEW015 SCT080 BY ETGL
ETOU,TAF AMD ETOU 160556Z 1605/1710 VRB06KT 9999 SCT009 OVC020 QNH2995INS TEMPO 1605/1607 8000 BR BECMG 1611/1612 VRB06KT 9999 SCT012 BKN050 QNH3005INS BECMG 1621/1622 VRB06KT 4800 BR SCT015 QNH3011INS BECMG 1704/1705 19008KT 9999 NSW FEW015 QNH3016INS TX18/1613Z TN14/1605Z
ETSN,TAF ETSN 160413Z 1605/1614 17003KT 9999 NSW SCT080 BKN120 BY ETGL
EVGA,TAF EVGA 160505Z 1606/1706 19010KT 9999 OVC006 TEMPO 1606/1612 4000 BR OVC004 TEMPO 1612/1618 4000 -SHRA BKN004 BKN015CB BECMG 1618/1620 BKN020
EVLA,TAF EVLA 160502Z 1606/1706 17010KT 7000 OVC007 TEMPO 1607/1610 19013G27KT 4000 -SHRA BKN004 BKN010CB BECMG 1610/1612 24012KT BKN020 TEMPO 1612/1615 BKN012 TEMPO 1615/1624 24018G30KT
EVRA,TAF EVRA 160500Z 1606/1706 16010KT 9999 OVC008 TEMPO 1606/1609 4000 BR BKN004 BECMG 1609/1610 OVC013 TEMPO 1613/1618 4000 -SHRA BKN005 BKN015CB BECMG 1618/1620 22010KT BKN020
EYKA,TAF EYKA 160500Z 1606/1706 19010KT 9000 SCT015 BKN025 TEMPO 1612/1623 SHRA SCT010 BKN015CB BECMG 1623/1624 25010KT TEMPO 1700/1706 3000 BR BKN005
EYPA,TAF EYPA 160500Z 1606/1706 19012G22KT 6000 BKN010 TEMPO 1606/1609 BKN005 BKN015 TEMPO 1609/1613 3000 SHRA BKN005 BKN015CB TEMPO 1613/1618 BKN005 BECMG 1618/1619 27014G24KT SCT030
EYSA,TAF EYSA 160500Z 1606/1615 19010KT 5000 BR BKN010 TEMPO 1606/1609 3000 OVC005 BECMG 1610/1611 9000 NSW BKN015 TEMPO 1611/1615 5000 SHRA BKN015CB
EYVI,TAF EYVI 160500Z 1606/1706 17012KT 9000 BKN035 TEMPO 1606/1612 5000 SHRA SCT005 BKN015CB TEMPO 1615/1621 3000 SHRA BKN005 BKN015CB BECMG 1621/1623 3000 BR BKN005
FABL,TAF AMD FABL 160558Z 1606/1706 06015KT CAVOK TX26/1612Z TN14/1704Z PROB30 TEMPO 1607/1612 -SHRA FEW060TCU TEMPO 1609/1618 35015G30KT -TSRA FEW045CB PROB30 TEMPO 1700/1703 5000 DZ OVC015
FACT,TAF FACT 160400Z 1606/1712 VRB03KT CAVOK TX23/1612Z TN15/1704Z PROB40 TEMPO 1609/1612 -TSRA FEW050CB FM162000 35008KT 9999 BKN008 PROB40 TEMPO 1620/1706 3000 BR BKN004 BECMG 1707/1709 SCT008 BKN020
FAEL,TAF FAEL 160600Z 1607/1618 05011KT 9999 SCT006 BKN017 BKN038 TX20/1614Z TN18/1618Z TEMPO 1610/1618 4500 TSRA BKN010 SCT040CB
FAGG,TAF FAGG 160400Z 1606/1706 VRB02KT CAVOK TX23/1612Z TN14/1704Z BECMG 1612/1614 08012KT PROB40 TEMPO 1613/1619 4000 -TSRA FEW050CB BECMG 1621/1623 VRB02KT
FAHS,TAF FAHS 160310Z 1604/1615 15010KT 9999 BKN020 TX27/1612Z TN19/1604Z PROB30 TEMPO 1604/1606 5000 BR BKN008
FAKM,TAF FAKM 160600Z 1607/1618 05010KT CAVOK TX25/1612Z TN17/1618Z PROB30 TEMPO 1612/1615 -SHRA FEW050TCU
FAKN,TAF FAKN 160600Z 1607/1618 VRB03KT 9999 BKN025 TX24/1613Z TN20/1618Z BECMG 1608/1610 06009KT BECMG 1615/1617 VRB03KT
FALA,TAF FALA 160400Z 1606/1706 02013KT 9999 SCT020 TX28/1612Z TN17/1704Z BECMG 1607/1609 CAVOK BECMG 1700/1702 BKN015
FALE,TAF FALE 160400Z 1606/1712 04005KT 9999 SCT040 TX26/1712Z TN18/1703Z TEMPO 1609/1615 04013KT PROB30 TEMPO 1618/1703 5000 RA BKN015 BECMG 1620/1622 01004KT BECMG 1709/1711 06017KT
FAOR,TAF FAOR 160400Z 1606/1712 06015KT CAVOK TX27/1612Z TN16/1704Z BECMG 1607/1609 36016KT PROB30 TEMPO 1619/1621 TS FEW050CB BECMG 1700/1702 BKN015 PROB30 TEMPO 1708/1712 -TSRA FEW050CB
FAPE,TAF FAPE 160400Z 1606/1706 06012KT 9999 FEW008 OVC015 TX21/1611Z TN16/1703Z TEMPO 1606/1616 04016G26KT TEMPO 1606/1610 5000 SHRA SCT008 FEW050TCU BECMG 1620/1622 VRB03KT BECMG 1704/1706 24012KT
FAPM,TAF FAPM 160600Z 1607/1618 VRB03KT 9999 SCT030 TX21/1612Z TN14/1618Z BECMG 1608/1610 08013KT BKN030 PROB30 TEMPO 1615/1618 5000 SHRA BKN015 FEW030TCU
FAPP,TAF FAPP 160600Z 1607/1618 06012KT 9999 BKN015 TX24/1613Z TN17/1618Z BECMG 1607/1609 BKN025 BECMG 1615/1617 CAVOK
FARB,TAF FARB 160600Z 1607/1618 14006KT 9999 SCT024 TX26/1612Z TN20/1618Z BECMG 1608/1610 08015KT
FAUP,TAF FAUP 160400Z 1606/1706 20012KT CAVOK TX28/1612Z TN18/1704Z PROB30 TEMPO 1607/1613 -SHRA FEW050TCU BECMG 1609/1611 09010KT TEMPO 1613/1619 TSRA FEW050CB
FAUT,TAF FAUT 160600Z 1607/1618 14007KT 9999 -RA SCT012 BKN025 TX20/1611Z TN15/1618Z TEMPO 1610/1618 3500 TSRA SCT040CB
FAWB,TAF FAWB 160600Z 1607/1618 03011KT 9999 SCT020 TX30/1613Z TN21/1618Z BECMG 1607/1609 CAVOK
FAWK,TAF FAWK 160300Z 1604/1615 04013KT CAVOK TX27/1612Z TN17/1604Z PROB30 TEMPO 1613/1615 FEW045TCU
FBMN,FBMN 160400Z 1606/1706 03007KT CAVOK
FBPM,FBPM 160400Z 1606/1706 08010KT CAVOK BECMG 1612/1614 FEW035CB BECMG 1618/1620 CAVOK
FBSK,FBSK 160400Z 1606/1712 04013KT CAVOK BECMG 1611/1613 FEW035CB PROB30 TEMPO 1618/1622 TSRA BECMG 1700/1702 CAVOK PROB30 TEMPO 1707/1711 FEW030CB TSRA
FCBB,TAF FCBB 160500Z 1606/1712 26004KT 9000 SCT020 PROB30 1617/1621 FEW020 FEW030CB
FCPP,TAF FCPP 160500Z 1606/1706 20005KT 9000 SCT020 PROB30 1616/1620 SCT022 FEW030CB
FEFF,TAF FEFF 160500Z 1606/1712 VRB03KT 9999 FEW010 BECMG 1608/1609 BKN013 BECMG 1610/1612 SCT023 FEW040CB TEMPO 1612/1617 4000 TSRA BECMG 1619/1620 BKN010 BECMG 1621/1623 CAVOK
FGBT,TAF FGBT 160500Z 1606/1706 24006KT 8000 SCT010 PROB30 TEMPO 1613/1617 3000 TSRA BKN010 FEW020CB
FGSL,TAF FGSL 160500Z 1606/1712 25005KT 9999 SCT009 TEMPO 1606/1609 4500 TSRA DZ BKN008 FEW016CB TEMPO 1612/1616 3000 TSRA BKN008 FEW018CB
FIMP,TAF COR FIMP 160500Z 1606/1712 11010KT 9999 SCT017 TEMPO 1606/1618 7000 -SHRA BKN015
FIMR,TAF FIMR 160500Z 1606/1700 09017G27KT 9999 SCT018 TEMPO 1606/1608 7000 -SHRA BKN016
FJDG,TAF FJDG 160100Z 1601/1707 14009KT 9999 FEW025 SCT050 BKN090 QNH2979INS TX29/1616Z TN25/1601Z FOR MIL USE ONLY
FKKD,TAF FKKD 160500Z 1606/1712 VRB02KT 8000 TS BKN013 FEW016CB BECMG 1608/1610 NSW PROB40 1616/1621 4000 TSRA TEMPO 1704/1708 3000 TSRA
FKKL,TAF FKKL 160500Z 1606/1618 VRB04KT CAVOK
FKKR,TAF FKKR 160500Z 1606/1618 24004KT 9999 FEW013
FKYS,TAF FKYS 160500Z 1606/1706 26004KT 8000 BKN006 BECMG 1608/1610 BKN016 TEMPO 1614/1619 4000 TSRA BKN013 FEW016CB BECMG 1621/1623 BKN006
FMCH,TAF FMCH 160500Z 1606/1712 14013KT 9999 FEW020 SCT030 BECMG 1615/1617 07003KT BECMG 1705/1707 13015KT
FMCZ,TAF FMCZ 160500Z 1606/1706 VRB03KT 9999 BKN025 TEMPO 1607/1610 4500 SHRA BKN020TCU
FMEE,TAF FMEE 160500Z 1606/1712 10015KT 9999 FEW020 SCT060 TEMPO 1702/1706 4500 SHRA
FMEP,TAF FMEP 160500Z 1606/1615 13012KT 9999 FEW030 BECMG 1606/1608 24012KT
FMMI,TAF FMMI 160500Z 1606/1712 VRB02KT 9999 FEW020 BECMG 1608/1611 10014KT FEW023CB BECMG 1618/1620 06002KT FEW020 PROB40 1700/1706 0500 FG BKN004 BECMG 1706/1708 12010KT
FMMS,TAF FMMS 160500Z 1606/1706 14010KT 9999 SCT017 SCT040 PROB40 TEMPO 1606/1610 4000 SHRA
FMMT,TAF FMMT 160500Z 1606/1706 24005KT 9999 FEW017 SCT033 BECMG 1606/1608 12010KT BECMG 1614/1616 28004KT PROB30 TEMPO 1700/1706 4500 SHRA SCT017TCU
FMNA,TAF FMNA 160500Z 1606/1706 14012KT 9999 FEW020
FMNM,TAF FMNM 160500Z 1606/1706 14010KT 9999 FEW023 BECMG 1608/1610 34012KT BECMG 1618/1620 VRB02KT
FMNN,TAF FMNN 160500Z 1606/1706 04006KT 9999 BKN020 BECMG 1609/1611 28010KT BECMG 1613/1615 22004KT PROB40 TEMPO 1620/1702 4000 SHRA
FMSD,TAF FMSD 160500Z 1606/1706 06004KT 9999 FEW020 BECMG 1607/1609 08015KT
FMST,TAF FMST 160500Z 1606/1706 16004KT 9999 FEW020 SCT040 BECMG 1608/1610 24012KT SCT020CB BECMG 1618/1620 18006KT FEW020
FNBG,TAF FNBG 152255Z 1600/1612 VRB03KT 8000 BKN010 PROB30 TEMPO 1607/1612 5000 DZ BECMG 1610/1612 32005KT
FNCA,TAF FNCA 152255Z 1600/1612 22005KT 5000 DZ SCT008 BKN020 TEMPO 1604/1608 7000 PROB40 TEMPO 1608/1612 4000 -RA
FNCT,TAF FNCT 152255Z 1600/1612 VRB03KT 8000 BKN009 PROB30 TEMPO 1606/1612 4000 DZ BECMG 1607/1609 24004KT
FNDU,TAF FNDU 152255Z 1600/1612 30005KT 7000 BKN005 FEW015CB PROB30 TEMPO 1605/1610 VRB03KT 5000 DZ
FNGI,TAF FNGI 152255Z 1600/1612 VRB02KT 7000 BKN010 PROB30 TEMPO 1607/1612 5000 -RA
FNHU,TAF FNHU 152255Z 1600/1612 22006KT 8000 BKN010 BECMG 1602/1604 VRB03KT PROB30 TEMPO 1604/1609 4000 DZ
FNKU,TAF FNKU 152255Z 1600/1612 23006KT 7000 SCT010 BECMG 1610/1612 VRB03KT
FNLU,TAF FNLU 160500Z 1606/1712 VRB03KT 8000 FEW018 BKN030 PROB30 TEMPO 1606/1610 4000 DZ BECMG 1612/1614 22006KT BECMG 1614/1616 FEW022
FNMA,TAF FNMA 152255Z 1600/1612 VRB03KT 7000 FEW008 BKN015 PROB40 TEMPO 1601/1607 27006KT 3000 BR DZ OVC005
FNME,TAF FNME 152255Z 1600/1612 22005KT 8000 BKN010 BECMG 1602/1604 VRB03KT FEW010
FNMO,TAF FNMO 152255Z 1600/1612 VRB03KT 7000 BKN008 BECMG 1610/1612 31006KT
FNSA,TAF FNSA 152255Z 1600/1612 32006KT 4000 -TSRA BKN007 FEW012CB BKN020 TEMPO 1601/1605 7000 BECMG 1605/1607 26005KT 9000 FEW015 BKN025
FNSO,TAF FNSO 152255Z 1600/1612 21006KT 7000 BKN008 PROB40 TEMPO 1601/1605 5000 DZ PROB40 TEMPO 1608/1612 4000 -RA
FNUB,TAF FNUB 152255Z 1600/1612 VRB02KT 8000 BKN010 TEMPO 1602/1606 FEW008 BECMG 1610/1612 34005KT 5000 DZ
FNUE,TAF COR FNUE 152255Z 1600/1612 29009KT 4000 -TSRA SCT010 FEW016CB BECMG 1601/1603 7000 BECMG 1604/1606 SCT020 BECMG 1610/1612 VRB03KT
FOOG,TAF COR FOOG 152300Z 1600/1624 VRB02KT 9999 SCT010 TEMPO 1603/1609 3000 TSRA BKN008 FEW020CB BECMG 1608/1610 20010KT 006KT 8000 BKN010 BECMG 1602/1604 VRB03KT PROB30 TEMPO 1604/1609 4000 DZ
FOOL,TAF FOOL 151700Z 1518/1624 26006KT 9999 SCT010 PROB40 TEMPO 1522/1604 3000 TSRA BKN010 FEW020CB
FQBR,TAF FQBR 160400Z 1606/1712 09006KT 9999 SCT020 TX30/1613Z TN21/1703Z BECMG 1613/1615 16014KT BECMG 1620/1622 09006KT FEW020
FQCH,TAF FQCH 160400Z 1606/1706 09012KT 9999 SCT020 TX34/1613Z TN15/1703Z BECMG 1619/1621 19008KT FEW020
FQIN,TAF FQIN 160400Z 1606/1706 21006KT 9999 SCT020 TX31/1613Z TN21/1703Z BECMG 1612/1614 09010KT 
FQLC,TAF FQLC 160400Z 1606/1706 05006KT 9999 FEW020 TX29/1613Z TN10/1703Z BECMG 1609/1611 09014KT BECMG 1619/1621 02008KT
FQMA,TAF FQMA 160400Z 1606/1712 19010KT 9999 BKN020 TX26/1613Z TN19/1703Z BECMG 1610/1612 16012KT SCT025 BECMG 1619/1621 23008KT FEW020 BECMG 1709/1711 08008KT
FQNC,TAF FQNC 160400Z 1606/1712 03012KT 9999 FEW025 TX31/1613Z TN20/1703Z BECMG 1620/1622 32006KT BECMG 1708/1710 05012KT
FQNP,TAF FQNP 160400Z 1606/1706 06012KT 9999 FEW020 TX33/1613Z TN18/1703Z BECMG 1613/1615 09008KT BECMG 1620/1622 03006KT CAVOK
FQPB,TAF FQPB 160400Z 1606/1706 06012KT 9999 FEW020 TX30/1613Z TN20/1703Z BECMG 1619/1621 32006KT
FQQL,TAF FQQL 160400Z 1606/1706 12010KT 9999 SCT025 TX34/1613Z TN20/1703Z BECMG 1617/1619 28008KT FEW020
FQTT,TAF FQTT 160400Z 1606/1706 12012KT CAVOK TX38/1613Z TN24/1703Z BECMG 1615/1617 19008KT 5000 HZ NSC
FQVL,TAF FQVL 160400Z 1606/1706 23008KT 9999 SCT020 TX30/1613Z TN21/1703Z PROB30 TEMPO 1608/1610 4000 DZ SCT015 BECMG 1612/1614 09010KT SCT025 BECMG 1618/1620 23008KT
FQXA,TAF FQXA 160400Z 1606/1706 15014KT 9999 SCT020 TX25/1613Z TN19/1703Z PROB30 TEMPO 1607/1611 4000 DZ SCT015 BECMG 1612/1614 09010KT
FSIA,TAF FSIA 160505Z 1606/1706 12008KT 9999 FEW024
FTTJ,TAF FTTJ 160500Z 1606/1712 VRB03KT 6000 NSC TEMPO 1607/1612 04012KT
FVJN,TAF FVJN 160400Z 1606/1712 09010KT CAVOK BECMG 1610/1612 BKN060TCU PROB30 TEMPO 1612/1618 -TSRA FEW050CB BECMG 1618/1620 CAVOK
FVRG,TAF FVRG 160400Z 1606/1712 08010KT CAVOK
FWCL,TAF FWCL 160500Z 1606/1712 04004KT 8000 HZ NSC BECMG 1609/1611 11006KT 9999 FEW025 BECMG 1616/1618 12009KT CAVOK
FWKI,TAF FWKI 160400Z 1606/1712 07004KT 5000 HZ NSC BECMG 1611/1613 09012KT 9999 FEW035 FM161500 08014KT CAVOK
FYGF,TAF FYGF 160500Z 1606/1615 26005KT 9999 -TSRA FEW035CB SCT040 BECMG 1607/1609 -RA BKN020 
FYKM,TAF FYKM 160500Z 1606/1615 07010KT CAVOK
FYLZ,TAF FYLZ 160500Z 1606/1615 21004KT 9999 BKN020
FYOA,TAF FYOA 160500Z 1606/1615 21004KT 9999 -TSRA FEW035CB 
FYRU,TAF FYRU 160500Z 1606/1615 00000KT CAVOK BECMG 1607/1609 10007KT
FYWB,TAF FYWB 160400Z 1606/1706 33005KT 9999 OVC007 BECMG 1607/1609 OVC010 BECMG 1609/1611 BKN020 BECMG 1611/1613 29011KT CAVOK
FYWE,TAF FYWE 160500Z 1606/1615 30005KT 9999 -TSRA FEW035CB TEMPO 1606/1607 -SHRA BKN020
FYWH,TAF FYWH 160400Z 1606/1706 29008KT 9999 SCT025 FEW035CB BKN080 BECMG 1607/1609 -SHRA BKN025 BECMG 1609/1611 NSW SCT030 PROB30 TEMPO 1611/1621 33018KT 7000 TSRA FEW030CB BKN035TCU
FZAA,TAF FZAA 160500Z 1606/1712 24004KT 8000 SCT018 BECMG 1611/1613 32010KT BKN020 FEW030CB PROB30 TEMPO 1613/1617 4000 TSRA BECMG 1620/1622 16002KT FEW018
FZIC,TAF FZIC 151100Z 1512/1618 26006KT 8000 SCT026 FEW030CB BECMG 1516/1518 00000KT NSC BECMG 1523/1602 2000 BR FM160600 18006KT 7000 SCT010 BECMG 1609/1611 BKN024 FEW032
FZNA,TAF FZNA 160500Z 1606/1712 18005KT 6000 SCT016 FEW020CB TEMPO 1610/1616 -TSRA BECMG 1618/1620 SCT014 BECMG 1708/1710 SCT018 FEW022CB
FZQA,TAF FZQA 160500Z 1606/1712 10012KT CAVOK BECMG 1611/1613 18015G20KT 9999 FEW025 BECMG 1616/1618 10010KT CAVOK
GABS,TAF GABS 160500Z 1606/1712 18004KT 9999 FEW020 TEMPO 1606/1612 08020G35KT 4000 TSRA BKN020 FEW033CB
GAGO,TAF GAGO 160500Z 1606/1706 VRB08KT 6000 FEW030
GBYD,TAF GBYD 160500Z 1606/1712 32008KT 9999 SCT012
GCFV,TAF GCFV 160200Z 1603/1703 33005KT 9999 SCT025 TX27/1614Z TN20/1606Z PROB40 TEMPO 1603/1604 TS FEW020CB PROB30 TEMPO 1603/1604 SHRA FEW020TCU
GCGM,TAF GCGM 160200Z 1603/1703 30004KT 9999 SCT015 TX26/1614Z TN22/1606Z
GCHI,TAF GCHI 160200Z 1603/1703 02009KT 9999 SCT015 TX25/1614Z TN21/1606Z
GCLA,TAF GCLA 160200Z 1603/1703 32005KT 9999 SCT025 TX25/1614Z TN20/1606Z BECMG 1608/1610 02010KT
GCLP,TAF GCLP 160200Z 1603/1703 30004KT 9999 SCT025 TX25/1614Z TN19/1606Z BECMG 1608/1610 04010KT
GCRR,TAF GCRR 160200Z 1603/1703 27006KT 9999 SCT025 TX28/1614Z TN19/1606Z PROB30 TEMPO 1603/1609 07010KT PROB40 TEMPO 1603/1604 TS FEW020CB PROB40 TEMPO 1603/1604 SHRA FEW020TCU
GCTS,TAF AMD GCTS 160555Z 1605/1703 14005KT 9999 FEW025 TX28/1614Z TN20/1606Z BECMG 1608/1610 26010KT
GCXO,TAF AMD GCXO 160537Z 1605/1703 28006KT 9999 FEW008 TX22/1614Z TN16/1606Z PROB30 TEMPO 1612/1616 3000 BCFG BKN008
GECE,TAF GECE 150800Z 1509/1609 VRB03KT 9999 SCT012 TX22/1601Z TN17/1606Z TEMPO 1509/1609 BKN010 PROB40 TEMPO 1600/1609 0800 FG BKN001
GEML,TAF GEML 160500Z 1606/1706 09004KT 9999 FEW015 TX25/1615Z TN19/1606Z BECMG 1621/1624 26010KT BECMG 1703/1706 12004KT
GFLL,TAF GFLL 150500Z 1506/1612 VRB02KT 9999 BKN008 TEMPO 1514/1518 24008KT TS BKN010 FEW026CB TEMPO 1606/1610 09005KT 8000 TSRA BKN009 FEW026CB PROB30
GGOV,TAF GGOV 152300Z 1600/1624 VRB05KT 8000 SCT012 TEMPO 1617/1622 4000 TSRA BKN010 FEW015CB
GLRB,TAF GLRB 160500Z 1606/1706 22010KT 9999 BKN016 BECMG 1607/1709 06004KT 8000 -DZ BKN011 FEW022CB TEMPO 1612/1616 21009KT 9999 BKN017 FEW025CB
GMAD,TAF GMAD 152300Z 1600/1706 04004KT CAVOK
GMAG,TAF GMAG 160500Z 1606/1712 26008KT 8000 NSC
GMFF,TAF GMFF 160500Z 1606/1712 22006KT CAVOK BECMG 1612/1614 24012KT 9999 SCT033 PROB30 TEMPO 1618/1620 5000 TSRA SCT033 SCT040CB
GMFK,TAF GMFK 160500Z 1606/1712 10005KT 9999 FEW033
GMFM,TAF GMFM 160500Z 1606/1712 13006KT CAVOK BECMG 1609/1613 9999 SCT020 SCT100 TEMPO 1612/1618 32010KT
GMFO,TAF GMFO 160500Z 1606/1712 VRB02KT 9999 SCT026 BKN200 TEMPO 1614/1618 32014KT
GMME,TAF GMME 160500Z 1606/1712 13013KT 5000 SCT016 BECMG 1609/1612 08008KT 8000 BKN013
GMMH,TAF GMMH 160500Z 1606/1712 06010KT 7000 NSC PROB30 1606/1608 4000 BR BKN010
GMMI,TAF GMMI 160500Z 1606/1712 24005KT 8000 NSC
GMML,TAF GMML 160500Z 1606/1712 05008KT 8000 FEW030CB BECMG 1606/1608 SCT030 BKN100
GMMN,TAF COR GMMN 160500Z 1606/1712 30004KT 0400 FG OVC001 BECMG 1606/1610 8000 SCT020 BECMG 1610/1612 18012KT BECMG 1618/1621 14004KT TEMPO 1700/1708 0800 FG OVC001
GMMW,TAF GMMW 160500Z 1606/1712 VRB02KT 6000 NSC
GMMX,TAF GMMX 160500Z 1606/1712 06008KT 8000 SCT030 SCT100 TEMPO 1612/1618 14016G28KT 5000 TSRA BKN030 FEW040CB
GMMZ,TAF GMMZ 160500Z 1606/1712 09005KT 8000 SCT030 SCT100 TEMPO 1609/1620 20017G39KT 4000 +TSRA BKN030 FEW040CB SCT100
GMTA,TAF GMTA 160500Z 1606/1712 VRB02KT CAVOK
GMTT,TAF GMTT 160500Z 1606/1712 07012KT CAVOK
GOBD,TAF GOBD 160500Z 1606/1712 34008KT 9999 SCT013
GOGS,TAF GOGS 160500Z 1606/1706 32008KT 9999 SCT015
GOOY,TAF GOOY 160500Z 1606/1712 34008KT 9999 SCT013
GOSS,TAF GOSS 160500Z 1606/1706 34008KT 9999 SCT010
GQNO,TAF GQNO 160500Z 1606/1712 35014KT 7000 NSC
GQPP,TAF GQPP 160500Z 1606/1706 36012KT 2500 BR BKN005 FM161100 01014KT 6000 NSW NSC
GUCY,TAF GUCY 150500Z 1506/1612 27006KT 9999 SCT015 BKN110 BECMG 1506/1510 06004KT SCT015 BKN110 PROB30 TEMPO 1520/1602 20010KT 5000 -TSRA BKN013 FEW023CB BKN100 26006KT 9999 SCT015 SCT110 PROB30 TEMPO 1503/1509 32008KT 5000 -TSRA BKN013 FEW023CB BKN100
GVAC,TAF GVAC 160500Z 1606/1712 05010KT 9999 SCT014 TEMPO 1612/1618 BKN014
GVBA,TAF GVBA 152300Z 1600/1706 04008KT 9999 SCT015
GVNP,TAF GVNP 160500Z 1606/1712 04010KT 9999 SCT016
GVSV,TAF GVSV 160500Z 1606/1712 06012KT 9999 FEW022
HAAB,TAF HAAB 160330Z 1606/1712 10007KT 9999 FEW025 SCT090
HADR,TAF HADR 160330Z 1606/1712 340056KT 9999 FEW030 SCT090
HBBA,TAF HBBA 160500Z 1606/1712 36004KT 9999 FEW030 BECMG 1608/1610 18010G20KT 9999 FEW025 SCT100 BECMG 1619/1621 00000KT CAVOK BECMG 1702/1704 36004KT 8000 FEW030 BECMG 1708/1710 18008G20KT 9999 FEW025 SCT100
HCMM,TAF HCMM 160500Z 1606/1712 17010KT 9999 SCT020 TEMPO 1706/1709 9000 -RA BKN020 BECMG 1710/1712 NSW SCT023
HDAM,TAF HDAM 160500Z 1606/1706 09015G20KT 9999 FEW023 FEW133 BECMG 1615/1621 VRB06KT FEW020 BECMG 1700/1706 11008KT 9000 HZ SCT020
HEAL,TAF HEAL 160500Z 1606/1712 28008G18KT 9999 SCT020 TEMPO 1606/1615 6000 SHRA BKN020
HEAR,TAF HEAR 160500Z 1606/1712 22008KT 9999 SCT025
HEAT,TAF HEAT 160500Z 1606/1712 34012KT CAVOK TEMPO 1606/1609 6000 NSC
HEAX,TAF HEAX 160500Z 1606/1712 32006KT 9999 SCT020 TEMPO 1606/1624 8000 -SHRA BKN020 BECMG 1606/1608 21008G18KT PROB30 TEMPO 1617/1622 6000 TSSHRA FEW017CB
HEBA,TAF HEBA 160500Z 1606/1712 32006KT 9999 SCT020 TEMPO 1606/1624 8000 -SHRA BKN020 BECMG 1606/1608 21008G18KT PROB30 TEMPO 1617/1622 6000 TSSHRA FEW017CB
HEBL,TAF HEBL 160500Z 1606/1712 02010KT CAVOK
HECA,TAF HECA 160500Z 1606/1712 25009KT 7000 SCT025 TEMPO 1606/1609 24005KT 4000 HZ NSC PROB40 1609/1618 22012G22KT 3000 SA NSC
HEGN,TAF HEGN 160500Z 1606/1712 32012KT CAVOK BECMG 1609/1611 11010KT
HELX,TAF HELX 160500Z 1606/1712 34008KT CAVOK TEMPO 1606/1609 VRB03KT 5000 HZ NSC
HEMA,TAF HEMA 160500Z 1606/1712 31010KT CAVOK BECMG 1609/1611 07010KT
HEMM,TAF HEMM 160500Z 1606/1712 28008G18KT 9999 SCT020 TEMPO 1606/1615 6000 SHRA BKN020
HEOW,TAF HEOW 160500Z 1606/1712 35015KT CAVOK
HEPS,TAF HEPS 160500Z 1606/1712 25009KT 9999 SCT025 SCT200 PROB40 1606/1706 6000 RA BKN020 FEW018TCU TEMPO 1615/1702 6000 TSRA SCT018CB
HESC,TAF HESC 160500Z 1606/1712 27010KT CAVOK
HESG,TAF HESG 160500Z 1606/1712 33012KT CAVOK
HESH,TAF HESH 160500Z 1606/1712 30010KT CAVOK BECMG 1609/1611 19010KT
HESN,TAF HESN 160500Z 1606/1712 35010KT CAVOK
HETB,TAF HETB 160500Z 1606/1712 13010KT CAVOK
HETR,TAF HETR 160500Z 1606/1712 29012KT CAVOK
HKEL,TAF HKEL 160500Z 1606/1712 17005KT 9999 SCT020 BECMG 1609/1612 09010KT FEW022CB SCT023 TEMPO 1613/1617 -TSRA FEW019CB SCT020 BKN080 BECMG 1620/1623 16065KT NSW FEW017 SCT080 BECMG 1709/1712 08010KT FEW023CB SCT024
HKJK,TAF HKJK 160500Z 1606/1712 09010KT 9999 SCT020 BECMG 1608/1611 SCT028 BECMG 1620/1623 SCT020 BECMG 1700/1704 18005KT BKN015
HKKI,TAF HKKI 160500Z 1606/1712 06005KT 9999 FEW018 SCT080 BECMG 1608/1611 22010KT FEW027CB SCT028 TEMPO 1613/1617 -TSRA FEW020CB SCT021 BKN080 BECMG 1620/1623 05005KT NSW FEW017 SCT080 BECMG 1709/1712 21010KT FEW026CB SCT027
HKML,TAF HKML 160500Z 1606/1706 17010KT 9999 FEW025 BECMG 1700/1703 00000KT SCT020
HKMO,TAF HKMO 160500Z 1606/1712 15010KT 9999 FEW026 BECMG 1700/1703 22005KT FEW020 BECMG 1709/1712 15010KT SCT025
HKNW,TAF HKNW 160500Z 1606/1706 06010KT 9999 BKN017 BECMG 1608/1611 SCT027 BECMG 1620/1623 SCT019 BECMG 1700/1704 VRB02KT BKN016
HLGD,TAF HLGD 160500Z 1606/1706 VRB02KT 8000 SCT025 SCT090 BECMG 1610/1612 36012KT
HLGT,TAF HLGT 152300Z 1600/1624 VRB02KT CAVOK 
HLKF,TAF HLKF 160500Z 1606/1706 VRB02KT CAVOK BECMG 1610/1612 36010KT
HLLB,TAF HLLB 160500Z 1606/1706 VRB02KT 8000 SCT025 SCT090 BECMG 1612/1614 36012KT
HLLM,TAF HLLM 160500Z 1606/1706 VRB02KT 8000 SCT025 SCT090 BECMG 1612/1614 06012KT 8000 SCT030
HLLQ,TAF HLLQ 160500Z 1606/1706 36014KT 7000 SCT025 SCT070 PROB30 TEMPO 1606/1612 6000 SHRA BKN020
HLLS,TAF HLLS 160500Z 1606/1706 03010KT CAVOK
HLMS,TAF HLMS 160500Z 1606/1706 VRB02KT 8000 SCT025 SCT080 BECMG 1612/1614 06012KT 8000 SCT030
HLON,TAF HLON 160500Z 1606/1706 VRB02KT 8000 SCT045
HLTD,TAF HLTD 160500Z 1606/1706 03008KT CAVOK
HLTQ,TAF HLTQ 160500Z 1606/1706 34014KT 8000 SCT025 SCT080 PROB30 TEMPO 1606/1612 6000 SHRA BKN025
HLUB,TAF HLUB 160500Z 1606/1706 06010KT CAVOK BECMG1700/1702 VRB02KT
HRYR,HRYR 160500Z 1606/1712 08005KT 9999 SCT025 BECMG 1608/1611 17008KT BKN025 TEMPO 1613/1617 08012G24KT FEW023CB BKN025 BECMG 1618/1621 34006KT SCT026 SCT100 BECMG 1707/1710 18008KT BKN025
HSKA,HSKA 160500Z 1606/1712 36007KT CAVOK TEMPO 1609/1615 VRB03KT 9999 FEW040 SCT140
HSOB,HSOB 160500Z 1606/1712 36006G16KT CAVOK TEMPO 1609/1615 VRB03KT 9999 FEW040 SCT140
HSPN,HSPN 160500Z 1606/1712 32008KT CAVOK BECMG 1610/1612 05012G22KT
HSSK,HSSK 160500Z 1606/1712 02008G18KT CAVOK TEMPO 1610/1615 VRB03KT 9999 FEW040
HTAR,HTAR 160500Z 1606/1706 12010KT 9999 BKN036 BECMG 1611/1613 FEW042
HTDA,HTDA 160500Z 1606/1712 08010KT 9999 BKN025 BECMG 1612/1615 SCT030
HTDO,HTDO 160500Z 1606/1706 09010KT 080V130 9999 NSC
HTKA,HTKA 160500Z 1606/1706 00000KT 9999 FEW020 PROB30 TEMPO 1608/1611 21008KT -SHRA
HTKJ,HTKJ 160500Z 1606/1706 09005KT 9999 BKN025 BECMG 1612/1615 09015KT SCT032
HTMW,HTMW 160500Z 1606/1706 13010KT 9999 TS SCT025 FEW026CB BECMG 1611/1613 33010KT NSW
HTTB,HTTB 160500Z 1606/1706 14010KT 9999 SCT024
HTZA,HTZA 160500Z 1606/1706 18010KT 9999 SCT018 BECMG 1610/1612 12015KT BECMG 1618/1620 00000KT
HUEN,TAF HUEN 160500Z 1606/1712 34008KT 9999 FEW026 TEMPO 1609/1612 VRB06KT -TSSH SCT023 FEW026CB BECMG 1613/1617 18005KT
HUSO,TAF HUSO 160500Z 1606/1706 29005KT 9999 FEW018 BKN100 BECMG 1609/1612 VRB07KT BKN021 FEW023CB FM 161500 09009KT 9000 -TSRA BKN018 FEW020CB BECMG 1702/1706 36005KT 9999 FEW018 SCT100
KABE,KABE 160522Z 1606/1706 VRB03KT P6SM SCT200 FM161500 29005KT P6SM SCT100 FM162000 VRB03KT P6SM BKN150
KABI,KABI 160548Z 1606/1706 18011KT P6SM SCT060 OVC250 FM161400 35006KT P6SM VCSH SCT060 BKN100 FM161700 35008KT 6SM -SHRA BR VCTS OVC015CB FM162300 01015G22KT 6SM SHRA BR VCTS OVC015CB FM170300 02011G17KT 5SM SHRA BR VCTS OVC008CB
KABQ,KABQ 160523Z 1606/1706 08009KT P6SM VCTS BKN070CB FM160800 08025G35KT P6SM VCSH BKN070 FM161600 09030G40KT 6SM -RA BR OVC050 FM162100 08022G30KT 5SM RA BR OVC035 FM170100 09012G20KT P6SM VCSH BKN050
KABR,KABR 160520Z 1606/1706 34013KT P6SM OVC050 FM161600 34017G25KT P6SM FEW250 FM162300 34016KT P6SM FEW250 FM170000 34009KT P6SM SCT240
KABY,KABY 160520Z 1606/1706 00000KT P6SM SKC FM161800 26005KT P6SM FEW050 FM170000 00000KT P6SM SKC
KACK,KACK 160525Z 1606/1706 27004KT P6SM SKC FM161000 22007KT P6SM SKC FM162100 24010KT P6SM BKN150 FM170300 27008KT P6SM SCT200
KACT,KACT 160520Z 1606/1706 18011KT P6SM SCT080 BKN250 FM161000 17007KT P6SM BKN040 FM161300 18005KT P6SM BKN022 FM161900 04007KT P6SM -SHRA VCTS BKN035CB FM162300 02009KT P6SM VCSH BKN020
KACV,KACV 160520Z 1606/1706 02003KT P6SM OVC012 TEMPO 1608/1612 4SM BR BKN007 OVC015 FM161200 VRB03KT 4SM BR BKN007 OVC015 FM161700 13005KT P6SM OVC015 FM162000 26009KT P6SM BKN020 FM170000 33007KT P6SM BKN025
KACY,KACY 160522Z 1606/1706 21005KT P6SM FEW250 FM161100 32005KT P6SM BKN200 FM161700 27005KT P6SM SCT100 FM162000 21005KT P6SM SCT200 FM170000 VRB03KT P6SM BKN150
KADF,KADF 160527Z 1606/1706 05007KT P6SM VCSH SCT060 OVC100 FM161000 18006KT 4SM TSRA BR OVC025CB FM162000 25005KT P6SM VCSH OVC040 FM170000 32003KT P6SM OVC250
KADW,TAF KADW 160100Z 1601/1707 VRB06KT 9999 SCT080 QNH2995INS BECMG 1618/1619 19009KT 9999 BKN060 QNH2999INS BECMG 1704/1705 20009KT 9999 FEW007 SCT014 BKN020 QNH2984INS BECMG 1705/1706 20006KT 9999 VCSH BKN007 OVC014 QNH2978INS TX21/1620Z TN10/1611Z
KAEG,KAEG 160523Z 1606/1706 03006KT P6SM VCTS BKN060CB FM160900 03011KT P6SM VCSH BKN080 FM161400 03012G18KT 5SM RA BR OVC050 FM161700 03012KT 4SM RA BR OVC025 FM170000 VRB06KT 6SM -RA BR OVC020
KAEX,KAEX 160633Z 1607/1706 14004KT P6SM FEW200 TEMPO 1609/1613 2SM BR FM161400 14005KT P6SM SCT040 FM161900 18006KT P6SM SCT040 FM170100 VRB03KT P6SM SCT250
KAFF,TAF COR KAFF 152012Z 1519/1701 03012KT 9999 FEW080 SCT200 QNH3011INS WND 330V140 BECMG 1523/1524 01014KT 9999 SCT060 BKN120 520005 QNH3014INS BECMG 1603/1604 35010KT 9999 VCSH OVC040 610404 QNH3025INS BECMG 1609/1610 14009KT 9999 VCSH SCT020 BKN040 610405 QNH3034INS BECMG 1613/1614 15009KT 9999 VCSH BKN010 OVC020 610206 QNH3033INS BECMG 1618/1619 16012KT 9999 NSW BKN035 620353 QNH3028INS TX19/1520Z TN00/1613Z LAST NO AMDS AFT 1520 NEXT 1711
KAFW,KAFW 160520Z 1606/1706 17011KT P6SM SCT090 BKN200 FM161100 16008KT P6SM VCTS SCT020 OVC040CB FM161200 14006KT 6SM -TSRA BKN012CB TEMPO 1612/1614 36015G25KT 2SM +TSRA FM161600 07007KT P6SM -SHRA BKN012 FM161900 03009KT P6SM VCSH BKN020 OVC040 FM170200 01013KT P6SM SCT025 OVC060
KAGC,KAGC 160522Z 1606/1706 24004KT P6SM SKC FM161600 22010G18KT P6SM FEW150 FM162200 VRB04KT P6SM BKN080
KAGS,KAGS 160520Z 1606/1706 VRB03KT P6SM SCT250 TEMPO 1608/1612 4SM BR FM161500 24008KT P6SM FEW250 FM170000 VRB03KT P6SM BKN250
KAHN,KAHN 160529Z 1606/1706 VRB03KT P6SM FEW250 FM161600 24007KT P6SM FEW250 FM162300 22004KT P6SM BKN200
KAIA,KAIA 160520Z 1606/1706 31007KT P6SM SCT100 FM161700 34012G22KT P6SM SCT060 FM162300 36010KT P6SM SCT080
KALB,KALB 160526Z 1606/1706 25006KT P6SM FEW250 FM161500 27004KT P6SM BKN150 FM162000 27004KT P6SM SCT150
KALI,KALI 160537Z 1606/1706 14004KT P6SM SCT018 TEMPO 1606/1609 BKN018 FM160900 14003KT 5SM BR BKN012 TEMPO 1610/1612 3SM BR FM161400 16010KT P6SM BKN015 BKN035 TEMPO 1616/1618 SCT015 BKN035 FM161800 13012KT P6SM SCT035 SCT050 FM170200 13008KT P6SM FEW025 SCT250
KALO,KALO 160520Z 1606/1706 31005KT P6SM BKN100 FM161300 31011G17KT P6SM BKN050 BKN100 FM161800 31016G24KT P6SM BKN050 BKN120 FM170100 33012G20KT P6SM FEW240
KALS,KALS 160602Z 1606/1706 07010G20KT P6SM BKN050 FM161400 VRB06KT P6SM BKN050 FM161800 08008KT P6SM VCSH BKN050 FM162300 11006KT P6SM VCSH BKN050 FM170400 10004KT P6SM VCSH BKN030
KALW,KALW 160520Z 1606/1706 13005KT P6SM SKC FM161800 VRB05KT P6SM SKC
KAMA,KAMA 160539Z 1606/1706 04013KT P6SM SCT250 FM160900 04014KT P6SM VCSH BKN110 FM161500 04015KT 5SM -SHRA BR OVC025 FM170200 02008KT P6SM OVC050
KANB,KANB 160539Z 1606/1706 VRB04KT P6SM FEW250 FM161600 25009KT P6SM FEW250 FM170000 24007KT P6SM SCT050 BKN110 PROB30 1701/1706 4SM -SHRA BR SCT025 BKN050
KAND,KAND 160524Z 1606/1706 21004KT P6SM FEW200 FM161400 24007KT P6SM SCT150 FM161700 24010G17KT P6SM BKN150 FM162300 23006KT P6SM SCT060 BKN120
KAOO,KAOO 160539Z 1606/1706 VRB04KT P6SM BKN150 FM161500 25009G15KT P6SM BKN080 FM162200 22004KT P6SM BKN080 OVC150
KAPA,KAPA 160525Z 1606/1706 34006KT P6SM VCSH SCT050 BKN110 FM161000 07004KT P6SM FEW015 OVC035 FM161200 16005KT P6SM FEW015 OVC035 FM161700 VRB05KT P6SM FEW015 SCT030 BKN050 FM170300 18005KT P6SM BKN250
KAPC,KAPC 160530Z 1606/1706 27009KT P6SM OVC015 FM161730 21008KT P6SM SCT025 FM162000 19012KT P6SM FEW200 FM170400 24008KT P6SM SCT050 SCT200
KAPF,KAPF 160520Z 1606/1706 VRB05KT P6SM SCT030 BKN050 FM161500 08010KT P6SM SCT035 SCT100 FM162100 08008KT P6SM SCT250 FM170000 VRB05KT P6SM SKC
KAPN,KAPN 160524Z 1606/1706 23007KT P6SM VCSH BKN050 FM160800 VRB03KT P6SM BKN035 FM161300 24007KT P6SM VCSH BKN035 FM161600 27008G13KT P6SM BKN028 FM170000 27007KT P6SM VCSH OVC035
KARA,KARA 160636Z 1607/1706 13003KT 4SM BR FEW150 TEMPO 1607/1611 1/2SM FG VV002 FM161100 11004KT 3SM BR FEW150 TEMPO 1611/1614 1/2SM FG VV002 FM161400 13007KT P6SM SCT040 FM161900 18006KT P6SM SCT040 FM170100 17003KT P6SM SCT250 FM170500 00000KT 6SM BR SCT250
KART,KART 160544Z 1606/1706 VRB03KT P6SM BKN040 FM161500 20011G18KT P6SM SCT080 FM162000 22008KT P6SM SCT080 FM170300 15008KT P6SM BKN060
KASD,KASD 160634Z 1607/1706 00000KT P6SM SKC TEMPO 1607/1611 1SM BR VV002 FM161400 00000KT P6SM SCT250 FM161800 14005KT P6SM SCT040 FM170100 VRB03KT P6SM SCT030
KASE,KASE 160529Z 1606/1706 19004KT P6SM SKC FM161000 14008KT P6SM FEW250 FM161400 13006KT P6SM SCT200 FM161900 24007KT P6SM SCT250 FM170000 31008KT P6SM SCT250
KASN,KASN 160539Z 1606/1706 VRB04KT P6SM FEW250 FM161600 25009KT P6SM FEW250 FM170000 24007KT P6SM SCT050 BKN110 PROB30 1701/1706 4SM -SHRA BR SCT025 BKN050
KAST,KAST 160520Z 1606/1706 24008KT 2SM BR OVC002 FM161700 17006KT P6SM BKN006 FM161900 20012G20KT P6SM SKC
KATL,KATL 160529Z 1606/1712 24004KT P6SM FEW250 FM161500 25008KT P6SM FEW250 FM170000 25004KT P6SM SCT200 FM171000 28004KT P6SM BKN150
KATW,KATW 160520Z 1606/1706 30007KT P6SM SCT060 FM161000 27005KT P6SM BKN035 FM161400 28007G16KT P6SM BKN025 FM161800 29010G18KT P6SM BKN030 PROB30 1620/1624 -SHRA OVC025 FM170300 29014G20KT P6SM BKN030
KATY,KATY 160520Z 1606/1706 34007KT P6SM BKN050 FM160800 33010G19KT P6SM OVC040 FM161500 34014G23KT P6SM SCT060 FM170000 33010G20KT P6SM SCT250 FM170200 36006KT P6SM SCT250
KAUG,KAUG 160530Z 1606/1706 00000KT 1/4SM FG VV001 FM161300 01003KT 5SM BR SCT004 FM161500 VRB03KT P6SM SCT050 FM162200 16003KT P6SM BKN100
KAUS,KAUS 160532Z 1606/1712 17005KT P6SM SCT015 BKN250 FM161100 16006KT P6SM OVC012 FM161600 14008KT P6SM SCT060 SCT250 PROB30 1700/1703 -TSRA SCT060CB FM170300 03010KT P6SM VCTS BKN050CB BKN250 FM170900 01012KT 5SM -TSRA OVC010CB
KAUW,KAUW 160520Z 1606/1706 29006KT P6SM BKN035 FM161000 29006KT P6SM BKN017 FM161600 28010G17KT P6SM -SHRA OVC017 FM162000 29011G21KT P6SM -SHRA BKN022 FM170300 29014G23KT P6SM BKN018 AMD NOT SKED
KAVL,KAVL 160524Z 1606/1706 00000KT P6SM SCT200 FM160900 34002KT P6SM BKN150 FM161400 34007KT P6SM BKN120 FM161800 32008KT P6SM BKN070 FM162300 VRB05KT P6SM VCSH BKN060 PROB30 1700/1706 -SHRA BKN040
KAVP,KAVP 160520Z 1606/1706 13003KT P6SM SCT150 FM161500 25008KT P6SM BKN200 FM170000 11003KT P6SM BKN150
KAXN,KAXN 160520Z 1606/1706 33010KT P6SM OVC040 FM161000 32013G22KT P6SM BKN060 FM161200 32013G21KT P6SM BKN025 FM161800 33018G27KT P6SM BKN040 FM170000 33012G22KT P6SM SCT250
KAZO,KAZO 160540Z 1606/1706 19008KT P6SM BKN080 FM161600 27008KT P6SM BKN035 FM170000 28009KT P6SM VCSH OVC035 FM170400 27009KT P6SM VCSH OVC025
KBAD,TAF AMD KBAD 152200Z 1522/1702 20008KT 9999 SKC QNH2993INS BECMG 1600/1601 17005KT 9999 FEW220 QNH2996INS BECMG 1614/1615 01005KT 9999 BKN020 QNH3006INS BECMG 1620/1621 01005KT 9999 -SHRA BKN025 QNH3001INS TX31/1522Z TN13/1612Z LAST NO AMDS AFT 1522 NEXT 1612
KBAF,KBAF 160525Z 1606/1706 21003KT P6SM SKC FM160700 00000KT P6SM SKC FM160900 34003KT P6SM FEW250 FM161800 27003KT P6SM BKN200 FM170000 00000KT P6SM FEW200
KBAM,KBAM 160520Z 1606/1706 VRB05KT P6SM SKC
KBBD,KBBD 160548Z 1606/1706 17011KT P6SM BKN250 FM161300 16011KT P6SM BKN020 FM161800 18009KT P6SM BKN050 FM162200 03012G18KT P6SM VCTS BKN050CB FM170300 02012KT 6SM -SHRA VCTS BKN015CB
KBBG,KBBG 160520Z 1606/1706 VRB05KT 6SM TSRA BR OVC080CB FM160900 VRB05KT P6SM VCTS OVC080CB FM162000 32007KT P6SM BKN240
KBCB,KBCB 160536Z 1606/1706 VRB03KT P6SM BKN060 BKN090 FM161500 VRB03KT P6SM BKN100 FM161800 26008G18KT P6SM BKN120 FM162200 25005KT P6SM -SHRA OVC050 FM170100 26003KT 4SM -RA BR OVC035
KBCE,KBCE 160520Z 1606/1706 VRB05KT P6SM SKC FM161800 10010G20KT P6SM SKC FM170000 10008KT P6SM SKC
KBDL,KBDL 160525Z 1606/1712 15003KT P6SM FEW080 FM160900 34004KT P6SM SCT250 FM162100 25004KT P6SM BKN200 FM170300 00000KT P6SM BKN200
KBDN,KBDN 160520Z 1606/1706 21005KT P6SM SKC FM162100 35009KT P6SM SKC
KBDR,KBDR 160524Z 1606/1706 23006KT P6SM FEW060 FM160800 VRB03KT P6SM FEW060 SCT150 FM161300 35005KT P6SM BKN150 FM161700 25008KT P6SM SCT150 FM162300 VRB04KT P6SM SCT070
KBED,KBED 160525Z 1606/1706 00000KT P6SM SKC FM161300 32003KT P6SM FEW150 FM161700 29003KT P6SM BKN200 FM162200 00000KT P6SM BKN200
KBFD,KBFD 160539Z 1606/1706 VRB04KT P6SM BKN150 FM161400 23009G15KT P6SM BKN150 FM162200 21004KT P6SM BKN050 OVC150
KBFF,KBFF 160520Z 1606/1706 30007KT P6SM FEW150 FM161800 33008KT P6SM SCT120
KBFI,KBFI 160520Z 1606/1706 34006KT 6SM HZ SKC FM160900 00000KT 4SM HZ SKC FM162000 30006KT 5SM BR SKC FM170300 25005KT P6SM SKC
KBFL,KBFL 160520Z 1606/1706 VRB05KT P6SM SKC
KBFM,KBFM 160520Z 1606/1706 00000KT P6SM FEW200 FM161600 11004KT P6SM SCT250
KBGM,KBGM 160520Z 1606/1706 VRB03KT P6SM FEW250 FM161500 22008KT P6SM SCT210 FM162300 19004KT P6SM FEW240
KBGR,KBGR 160529Z 1606/1706 00000KT 1SM BR OVC002 FM160800 00000KT 1/2SM FG OVC002 FM161300 36003KT P6SM FEW003 SCT080 FM161400 36003KT P6SM FEW250 FM170000 VRB02KT P6SM SCT100
KBHB,KBHB 160600Z 1606/1706 00000KT 1/2SM FG OVC004 FM160700 00000KT 1/4SM FG OVC002 FM161300 36002KT 1SM BR SCT003 FM161400 36002KT 3SM BR FEW090 FM161500 VRB03KT P6SM FEW250 FM170000 VRB02KT P6SM SCT100
KBHM,KBHM 160539Z 1606/1706 VRB04KT P6SM BKN150 FM161600 24008KT P6SM FEW250 FM161800 26010KT P6SM SCT050 BKN150 FM170100 24006KT P6SM VCSH SCT050 BKN110
KBIF,TAF KBIF 160600Z 1606/1712 VRB06KT 9999 FEW040 BKN060 QNH2998INS TEMPO 1606/1609 VRB06KT 9000 VCSH TEMPO 1620/1703 07010G20KT 8000 -TSRA BKN040 TX24/1620Z TN13/1712Z
KBIH,KBIH 160520Z 1606/1706 32007KT P6SM SKC FM162100 VRB05KT P6SM SKC FM170400 32006KT P6SM SKC
KBIL,KBIL 160531Z 1606/1706 VRB05KT P6SM FEW070 SCT220
KBIS,KBIS 160527Z 1606/1706 32010KT P6SM FEW050 FM161700 33015KT P6SM SCT200 FM170200 32007KT P6SM SCT200
KBIX,TAF AMD KBIX 152147Z 1521/1621 VRB06KT 9999 SKC QNH3010INS TX28/1618Z TN17/1611Z LAST NO AMDS AFT 1522 NEXT 1613
KBJC,KBJC 160525Z 1606/1706 02003KT P6SM SCT020 OVC035 FM161000 07006KT P6SM SCT030 OVC035 FM161200 VRB03KT P6SM SCT010 BKN030 FM161700 VRB05KT P6SM SCT030 BKN050 FM170300 27005KT P6SM BKN250
KBJI,KBJI 160520Z 1606/1706 31009G20KT P6SM OVC020 FM161400 32013G20KT P6SM OVC015 FM161800 33016G25KT P6SM BKN030 FM162300 33013G20KT P6SM BKN070 FM170300 33010KT P6SM SCT150
KBKE,KBKE 160520Z 1606/1706 VRB05KT P6SM FEW250 FM161800 09010KT P6SM SKC FM170100 VRB05KT P6SM SKC
KBKF,TAF KBKF 160100Z 1601/1707 VRB06KT 9999 FEW200 510013 QNH3014INS TX16/1622Z TN03/1613Z
KBKW,KBKW 160541Z 1606/1706 22004KT P6SM SCT080 FM161800 24007KT P6SM BKN070 FM162100 25006KT 6SM -SHRA BR VCTS OVC026CB FM170000 20004KT 5SM SHRA BR OVC017 FM170400 23005KT 6SM BR BKN016
KBLF,KBLF 160536Z 1606/1706 24005KT P6SM VCSH BKN050 BKN080 FM161800 24008G18KT 5SM -SHRA BR OVC060 FM162200 26007KT 4SM SHRA BR OVC028 FM170300 26006KT 3SM -RA BR OVC012
KBLH,KBLH 160538Z 1606/1706 30013G24KT P6SM BKN110 FM160700 04003KT P6SM BKN110 FM161000 VRB04KT P6SM BKN250 FM162300 32002KT P6SM FEW250 FM170100 27003KT P6SM FEW250
KBLI,KBLI 160520Z 1606/1706 VRB03KT 6SM HZ SKC FM160900 VRB03KT 2SM HZ BR SKC TEMPO 1609/1613 1/2SM FG SCT007 FM161500 VRB03KT 6SM HZ SKC FM162200 30006KT 6SM HZ SKC FM170300 19003KT P6SM SKC
KBLV,TAF KBLV 160000Z 1600/1706 18006KT 9999 FEW080 SCT150 BKN250 QNH2999INS BECMG 1610/1611 32006KT 9999 FEW100 FEW250 QNH3001INS BECMG 1616/1617 34009KT 9999 FEW060 SCT250 QNH3001INS TX19/1621Z TN08/1612Z
KBMG,KBMG 160520Z 1606/1706 25003KT P6SM SCT150 FM161200 31007KT P6SM FEW250 FM161900 30010G20KT P6SM FEW250 FM170000 30006KT P6SM SCT200 AMD LTD TO CLD VIS AND WIND TIL 161300
KBMI,KBMI 160520Z 1606/1706 23007KT P6SM SCT100 FM161100 30008KT P6SM SKC FM161700 31014G25KT P6SM SCT050 FM170000 32012KT P6SM SCT250
KBNA,KBNA 160524Z 1606/1706 17004KT P6SM SCT150 FM160900 21004KT P6SM VCSH BKN100 FM161800 25006KT P6SM VCTS OVC070CB FM170200 30005KT P6SM SCT070 SCT150
KBNO,KBNO 160520Z 1606/1706 34007KT P6SM SKC FM161900 05010KT P6SM SKC
KBOI,KBOI 160520Z 1606/1706 15008KT P6SM SKC FM162000 31006KT P6SM SKC FM170200 14008KT P6SM SKC
KBOS,KBOS 160525Z 1606/1712 21004KT P6SM SKC FM161000 25004KT P6SM SKC FM161800 29004KT P6SM BKN200 FM162200 33003KT P6SM BKN200 FM170000 26004KT P6SM BKN200 FM170900 23003KT P6SM SCT025
KBPI,KBPI 160521Z 1606/1706 18007KT P6SM SKC FM170200 VRB05KT P6SM SKC
KBPK,KBPK 160527Z 1606/1706 16005KT P6SM VCSH SCT050 OVC120 TEMPO 1606/1610 4SM TSRA BR OVC035CB FM161000 34005KT 5SM TSRA BR OVC030CB TEMPO 1610/1614 VRB10G25KT 2SM TSRA BR BKN025CB FM161400 34007KT 4SM -SHRA BR OVC025 FM161800 32006KT P6SM SCT100
KBPT,KBPT 160632Z 1607/1706 14003KT P6SM FEW150 TEMPO 1607/1611 1SM BR VV002 FM161100 11004KT P6SM FEW150 TEMPO 1611/1614 1SM BR VV002 FM161400 13006KT P6SM SCT040 FM161900 16007KT P6SM SCT040 FM170500 00000KT 3SM BR SCT250
KBRD,KBRD 160532Z 1606/1706 31009KT P6SM BKN025 OVC035 FM161000 31011G21KT P6SM BKN015 OVC025 FM162000 33014G25KT P6SM BKN040
KBRL,KBRL 160537Z 1606/1706 27006KT P6SM SKC FM160700 30007KT P6SM SKC FM161600 30010G18KT P6SM SCT040 FM161800 30013G22KT P6SM BKN050 FM170000 31010KT P6SM SCT050
KBRO,KBRO 160520Z 1606/1706 14005KT P6SM FEW025 FM161500 14012KT P6SM SCT040 FM170100 12006KT P6SM SCT250
KBTL,KBTL 160540Z 1606/1706 20008KT P6SM BKN100 FM161600 27010KT P6SM BKN035 FM170000 28009KT P6SM VCSH OVC035 FM170400 27009KT P6SM VCSH OVC025
KBTM,KBTM 160520Z 1606/1706 16004KT P6SM SKC
KBTR,KBTR 160521Z 1606/1706 VRB03KT P6SM SKC FM161100 00000KT 3SM BR SKC TEMPO 1611/1613 1/2SM FG VV003 FM161400 VRB03KT P6SM SCT250 FM170000 VRB03KT P6SM SCT040 BKN150
KBTV,KBTV 160531Z 1606/1706 VRB04KT P6SM OVC050 FM160700 02004KT P6SM BKN060 FM161140 17005KT P6SM SCT250
KBUF,KBUF 160544Z 1606/1706 20006KT P6SM OVC040 FM161100 20008KT P6SM SCT050 FM161400 22013G22KT P6SM SCT070 FM162300 21008KT P6SM BKN070 FM170300 22006KT P6SM VCSH BKN050
KBUR,KBUR 160546Z 1606/1706 VRB03KT P6SM SCT015 BKN050 FM161200 VRB03KT 4SM BR BKN015 FM161600 VRB03KT P6SM BKN025 FM162100 18008KT P6SM SCT050 FM170200 VRB03KT P6SM SCT015 BKN025
KBVI,KBVI 160522Z 1606/1706 00000KT P6SM SKC FM161600 22010G18KT P6SM FEW150 FM162200 21004KT P6SM BKN080
KBVO,KBVO 160522Z 1606/1706 01009KT 6SM SHRA VCTS BKN090CB TEMPO 1606/1610 3SM TSRA BKN050CB FM161200 01008KT P6SM BKN150 OVC250 FM161800 36011G19KT P6SM BKN250
KBWG,KBWG 160532Z 1606/1706 00000KT P6SM BKN140 FM161500 24006KT P6SM VCSH SCT020 OVC050 TEMPO 1615/1618 6SM -SHRA FM161800 25010G15KT P6SM VCSH SCT060 OVC090 FM162300 30005KT P6SM BKN120
KBWI,KBWI 160531Z 1606/1712 VRB03KT P6SM SKC FM161400 VRB03KT P6SM BKN110 FM162200 16005KT P6SM OVC080 FM170800 21006KT P6SM OVC060
KBYI,KBYI 160520Z 1606/1706 07006KT P6SM SKC FM170200 VRB04KT P6SM SKC
KBZN,KBZN 160544Z 1606/1712 VRB06KT P6SM SCT150 SCT250
KCAE,KCAE 160520Z 1606/1706 VRB03KT P6SM SCT250 FM161500 23008KT P6SM FEW250 FM170000 VRB03KT P6SM BKN250
KCAK,KCAK 160539Z 1606/1706 VRB03KT P6SM SCT080 BKN150 FM161000 20007KT P6SM BKN100 FM161700 24012KT P6SM SCT100 FM170100 29005KT P6SM BKN100
KCAR,KCAR 160529Z 1606/1706 VRB02KT 3SM BR FEW004 FM160800 00000KT 1/2SM FG OVC004 FM161100 26003KT 3SM BR BKN004 FM161300 27003KT P6SM FEW250 FM170200 36003KT P6SM SCT150
KCDC,KCDC 160520Z 1606/1706 36006KT P6SM SKC FM170200 15005KT P6SM SKC
KCDR,KCDR 160520Z 1606/1706 30008KT P6SM SCT250 FM161200 VRB05KT 3SM BR BKN007 FM161600 32010KT P6SM SCT120
KCDS,KCDS 160521Z 1606/1706 16011KT P6SM BKN110 WS007/21030KT FM161500 03020KT 6SM SHRA BR SCT030 OVC070
KCEC,KCEC 160520Z 1606/1706 14005KT P6SM OVC012 FM161200 16005KT 2SM BR BKN004 OVC015 FM161700 17010KT P6SM OVC015 FM162100 18012KT P6SM BKN015 OVC025 FM170300 15007KT P6SM OVC025
KCEF,TAF KCEF 160200Z 1602/1708 VRB06KT 9999 FEW250 510055 QNH2994INS BECMG 1605/1606 VRB06KT 9999 MIFG FEW002 SCT250 QNH2996INS TEMPO 1611/1613 1600 BR SCT002 BECMG 1612/1613 VRB06KT 9999 NSW SCT170 BKN220 QNH2992INS BECMG 1617/1618 25009KT 9999 FEW050 BKN100 OVC200 QNH2989INS BECMG 1701/1702 VRB06KT 9999 SCT050 BKN085 OVC120 QNH2984INS TX18/1620Z TN05/1611Z LAST NO AMDS AFT 1603 NEXT 1611
KCGI,KCGI 160520Z 1606/1706 VRB03KT P6SM BKN150 FM161600 30008KT P6SM BKN250 FM170000 33005KT P6SM SCT250
KCHA,KCHA 160530Z 1606/1706 VRB03KT P6SM FEW060 SCT200 FM160900 21004KT P6SM VCSH BKN150 FM161500 24008KT P6SM SCT060 BKN120 PROB30 1621/1703 5SM SHRA BKN060 FM170300 VRB03KT P6SM VCSH BKN060
KCHO,KCHO 160531Z 1606/1706 00000KT P6SM BKN140 FM161800 20005KT P6SM BKN100 FM162100 VRB04KT P6SM -SHRA OVC060 FM170500 VRB04KT P6SM -SHRA OVC003
KCHS,KCHS 160520Z 1606/1706 00000KT P6SM SKC FM161400 26004KT P6SM SKC FM161900 20008KT P6SM FEW250 FM170100 19004KT P6SM SCT250
KCID,KCID 160537Z 1606/1706 33007KT P6SM SKC FM161600 32012G19KT P6SM BKN040 FM161800 31017G25KT P6SM BKN050 FM170000 32010KT P6SM SCT050 FM170500 33016G26KT P6SM SCT040
KCIU,KCIU 160524Z 1606/1706 24006KT P6SM VCSH OVC050 FM160800 VRB03KT P6SM VCSH OVC022 FM161200 26004KT P6SM VCSH OVC025 FM162200 29006KT 6SM -SHRA BR OVC018
KCKB,KCKB 160541Z 1606/1706 00000KT P6SM FEW140 FM161400 21004KT P6SM SCT150 FM161700 23008KT P6SM BKN110 FM162300 22004KT P6SM BKN090
KCKV,KCKV 160524Z 1606/1706 00000KT P6SM FEW250 FM160900 24004KT P6SM VCSH BKN100 FM161500 25008KT P6SM VCTS OVC070CB FM162200 29005KT P6SM OVC070
KCLE,KCLE 160539Z 1606/1712 20004KT P6SM SCT080 BKN150 FM161000 20007KT P6SM BKN080 FM161700 24012KT P6SM SCT100 FM162100 28010KT P6SM SCT120 FM170700 25010G22KT P6SM BKN120
KCLL,KCLL 160520Z 1606/1706 17008KT P6SM FEW030 FEW250 TEMPO 1610/1614 BKN015 FM161400 18005KT P6SM FEW015 SCT040 FM162300 05011KT P6SM VCTS SCT060CB BKN100
KCLM,KCLM 160520Z 1606/1706 00000KT 6SM HZ SKC FM160900 18003KT 6SM HZ SKC FM161900 09005KT 6SM HZ SKC FM170300 26003KT P6SM SKC
KCLT,KCLT 160524Z 1606/1712 22004KT P6SM FEW200 FM161400 23006KT P6SM SCT200 FM161700 23008KT P6SM BKN150 FM170000 21005KT P6SM SCT060 BKN120 FM170600 24005KT P6SM BKN060 PROB30 1708/1712 -SHRA BKN040
KCMA,KCMA 160537Z 1606/1706 26006KT P6SM OVC035 FM161800 24008KT P6SM SKC FM170300 VRB03KT P6SM SKC
KCMH,KCMH 160533Z 1606/1706 23003KT P6SM SCT090 BKN250 FM160900 21004KT P6SM BKN100 FM161400 22008KT P6SM SCT150 FM161700 24012G20KT P6SM SCT150 FM162300 28010KT P6SM SCT250 FM170200 30008KT P6SM BKN250
KCMI,KCMI 160520Z 1606/1706 20007KT P6SM SCT100 FM161200 30009KT P6SM SKC FM161700 30014G24KT P6SM SCT250 FM170000 32012KT P6SM SCT250
KCMX,KCMX 160528Z 1606/1706 29006KT P6SM VCSH BKN025 OVC040 TEMPO 1606/1608 5SM -SHRA BR BKN018 FM161200 31009KT P6SM VCSH BKN019 FM161500 32010G18KT P6SM VCSH BKN022 FM162200 32015G27KT 4SM -SHRA BR OVC015 FM170200 34017G29KT 2SM -SHSNRA BR OVC014
KCNM,KCNM 160531Z 1606/1706 32005KT P6SM VCSH BKN080 FM161500 33013KT P6SM VCTS BKN018CB FM161900 36012KT 5SM -SHRA BR VCTS OVC015CB PROB30 1619/1624 2SM TSRA BR OVC004CB FM170000 36015KT 5SM -SHRA BR VCTS OVC011CB
KCNU,KCNU 160520Z 1606/1706 03006KT P6SM VCSH SCT080 BKN100 TEMPO 1606/1608 5SM -RA BKN070 FM160900 36006KT P6SM SCT100 SCT250 FM161800 35010KT P6SM SCT250 FM170100 35007KT P6SM FEW250
KCNY,KCNY 160529Z 1606/1706 24004KT P6SM SKC FM160800 16008KT P6SM FEW250 FM161100 06007KT P6SM FEW250 FM161700 07010KT P6SM SCT250 FM162000 06007KT P6SM SCT250 FM170000 14005KT P6SM SCT250
KCOD,KCOD 160521Z 1606/1706 VRB05KT P6SM SKC FM161700 03006KT P6SM SKC FM170300 21005KT P6SM SKC
KCOE,KCOE 160520Z 1606/1706 04011KT P6SM FEW250 FM162000 04007KT P6SM SKC
KCOF,TAF KCOF 151300Z 1513/1619 06010KT 9999 FEW040 QNH3003INS BECMG 1516/1517 05012G18KT 9999 SCT040 QNH3001INS BECMG 1523/1524 07012KT 9999 FEW050 QNH3000INS TX29/1517Z TN25/1610Z LAST NO AMDS AFT 1519 NEXT 1614
KCON,KCON 160530Z 1606/1706 00000KT P6SM SKC FM161400 29004KT P6SM SCT150
KCOS,KCOS 160602Z 1606/1706 36010KT P6SM SCT080 SCT150 FM160800 01008KT P6SM SCT040 OVC080 FM161700 13010KT P6SM BKN020 OVC030 FM170300 01006KT P6SM BKN040
KCOT,KCOT 160537Z 1606/1706 14011KT P6SM SKC FM160800 14007KT P6SM BKN012 FM161500 15009KT P6SM SCT025 FM161800 14010KT P6SM SCT045 SCT250 FM170200 12013G18KT P6SM SCT030 BKN250
KCOU,KCOU 160520Z 1606/1706 VRB04KT P6SM SCT250 FM160900 33006KT P6SM FEW250 FM161900 32011G18KT P6SM FEW250 FM170000 33007KT P6SM FEW250
KCPR,KCPR 160521Z 1606/1706 VRB05KT P6SM FEW040 FM161200 VRB03KT P6SM VCFG FEW002 FM161600 VRB05KT P6SM SKC FM161800 04006KT P6SM SKC FM170300 VRB05KT P6SM SCT100
KCPS,KCPS 160520Z 1606/1706 VRB04KT P6SM FEW250 FM161100 33006KT P6SM SCT250 FM161800 33010KT P6SM SCT250
KCRE,KCRE 160520Z 1606/1706 25004KT P6SM SKC FM161300 27004KT P6SM SKC FM161700 20007KT P6SM SKC FM162300 21009KT P6SM FEW250
KCRG,KCRG 160520Z 1606/1706 00000KT P6SM SKC FM161500 07005KT P6SM SCT250
KCRP,KCRP 160537Z 1606/1706 14008KT P6SM FEW024 FM161000 15004KT P6SM BKN015 BKN035 FM161600 15010KT P6SM SCT025 SCT040 FM162000 12012KT P6SM SCT035 SCT250 FM170200 12008KT P6SM FEW025 SCT250
KCRQ,KCRQ 160520Z 1606/1706 VRB04KT P6SM -SHRA BKN025 OVC035 FM160800 VRB03KT P6SM VCSH SCT025 OVC040 FM161200 VRB04KT P6SM SCT025 OVC040 FM162000 26007KT P6SM SCT040 FM170100 VRB04KT P6SM BKN025
KCRW,KCRW 160541Z 1606/1706 00000KT P6SM SCT130 FM161500 23005KT P6SM SCT070 BKN150 FM162000 23005KT P6SM VCSH SCT060 OVC100
KCSG,KCSG 160529Z 1606/1706 VRB03KT P6SM SKC FM161900 24006KT P6SM FEW250
KCSM,KCSM 160520Z 1606/1706 05008G15KT P6SM SHRA OVC120 TEMPO 1606/1607 P6SM -TSRA BKN050CB FM160900 03012G20KT P6SM VCTS OVC070CB TEMPO 1609/1611 4SM SHRA BR OVC025 FM161500 02016G20KT P6SM OVC100
KCSV,KCSV 160524Z 1606/1706 00000KT P6SM BKN250 FM161500 25008KT P6SM BKN100 FM162200 25007KT P6SM VCTS SCT025CB OVC040 TEMPO 1700/1703 6SM -TSRA BR BKN025CB OVC040 FM170500 28004KT P6SM VCSH BKN025
KCTB,KCTB 160544Z 1606/1706 VRB06KT P6SM SCT150 SCT250
KCUB,KCUB 160520Z 1606/1706 VRB03KT P6SM SCT250 FM161500 23007KT P6SM FEW250 FM170000 VRB03KT P6SM BKN250
KCVG,KCVG 160533Z 1606/1712 23004KT P6SM BKN100 FM161400 22008KT P6SM SCT100 BKN250 FM161700 24012G20KT P6SM SCT150 FM162300 29010KT P6SM SCT250 FM170300 30008KT P6SM BKN200
KCVS,TAF AMD KCVS 160335Z 1602/1708 VRB06KT 9999 SCT150 QNH2998INS TEMPO 1604/1607 04012G18KT 9000 -TSRA BKN080CB BECMG 1606/1607 04010G15KT 9000 -SHRA BKN100 QNH3006INS BECMG 1615/1616 06015G25KT 9999 NSW BKN100 BKN120 QNH2998INS BECMG 1700/1701 08009KT 9999 BKN120 QNH3018INS TX14/1622Z TN12/1613Z LAST NO AMDS AFT 1602 NEXT 1618
KCWA,KCWA 160520Z 1606/1706 29006KT P6SM BKN035 FM161000 29006KT P6SM BKN017 FM161600 28010G17KT P6SM -SHRA OVC017 FM162000 29011G21KT P6SM -SHRA BKN022 FM170300 29014G23KT P6SM BKN018
KCXO,KCXO 160520Z 1606/1706 VRB05KT P6SM FEW015 SCT250 TEMPO 1610/1614 5SM BR BKN015 FM161400 17005KT P6SM SCT025 SCT250 FM162100 13005KT P6SM SCT060 SCT100 FM170100 VRB03KT P6SM SCT040 BKN100
KCXP,KCXP 160520Z 1606/1706 VRB03KT P6SM SKC FM162100 06007KT P6SM SKC FM170300 VRB03KT P6SM SKC
KCYS,KCYS 160520Z 1606/1706 33006KT P6SM BKN050 FM161600 33010KT P6SM SCT050 FM162000 02008KT P6SM SCT050
KDAB,KDAB 160520Z 1606/1706 00000KT P6SM FEW035 FM161500 07008KT P6SM FEW040 FM170000 VRB02KT P6SM SKC
KDAG,KDAG 160520Z 1606/1706 VRB06KT P6SM FEW120 BKN200 FM162000 12005KT P6SM FEW120 FM170300 25006KT P6SM SKC
KDAL,KDAL 160520Z 1606/1706 17011KT P6SM SCT090 BKN200 FM161100 16008KT P6SM VCTS SCT020 OVC040CB FM161200 14006KT 6SM -TSRA BKN012CB TEMPO 1612/1614 36015G25KT 2SM +TSRA FM161600 07007KT P6SM -SHRA BKN012 FM161900 03009KT P6SM VCSH BKN020 OVC040 FM170200 01013KT P6SM SCT025 OVC060
KDAN,KDAN 160536Z 1606/1706 VRB03KT P6SM SCT100 FM161500 25007KT P6SM BKN120 FM162300 24003KT 4SM -RA BR OVC080
KDAY,KDAY 160533Z 1606/1706 23005KT P6SM SCT100 BKN250 FM160800 23007KT P6SM BKN100 FM161400 22010KT P6SM SCT150 FM161700 24012G20KT P6SM SCT150 FM162300 29011KT P6SM SCT250 FM170500 30008KT P6SM BKN250
KDBQ,KDBQ 160537Z 1606/1706 30007KT P6SM SKC FM161500 32012G19KT P6SM BKN040 FM161700 31017G25KT P6SM BKN050 FM170000 32010KT P6SM SCT050 AMD NOT SKED
KDCA,KDCA 160531Z 1606/1712 VRB04KT P6SM FEW110 FM161400 VRB03KT P6SM BKN100 FM170200 18006KT P6SM -RA OVC060 FM171100 22005KT P6SM OVC008
KDDC,KDDC 160520Z 1606/1706 02007KT P6SM FEW250 FM161600 02012KT P6SM SCT045 FM170000 36007KT P6SM SCT060
KDEC,KDEC 160520Z 1606/1706 23007KT P6SM SCT100 FM161200 30008KT P6SM SKC FM161700 31012G22KT P6SM SCT250 FM170000 32012KT P6SM SCT250
KDEN,KDEN 160525Z 1606/1712 31006KT P6SM VCSH FEW050 OVC090 FM160800 03005KT P6SM FEW015 BKN030 FM161000 08005KT P6SM FEW015 BKN030 FM161400 03007KT P6SM SCT035 BKN050 FM162000 VRB04KT P6SM FEW035 SCT050 FM170300 20005KT P6SM FEW050 BKN250
KDET,KDET 160523Z 1606/1706 22007KT P6SM BKN250 FM161400 28013G20KT P6SM SCT025 BKN040 FM161900 26013KT P6SM BKN050 FM170000 24010KT P6SM SCT025 BKN040 PROB30 1700/1704 6SM -RA OVC025
KDFW,KDFW 160520Z 1606/1712 17011KT P6SM SCT090 BKN200 FM161100 16008KT P6SM VCTS SCT020 OVC040CB FM161200 14006KT 6SM -TSRA BKN012CB TEMPO 1612/1614 36015G25KT 2SM +TSRA FM161600 07007KT P6SM -SHRA BKN012 FM161900 03009KT P6SM VCSH BKN020 OVC040 FM170200 01013KT P6SM SCT025 OVC060
KDHN,KDHN 160520Z 1606/1706 12003KT P6SM SKC FM161800 24005KT P6SM SCT045 FM170000 21003KT P6SM SKC
KDHT,KDHT 160539Z 1606/1706 04015G23KT P6SM SCT250 FM160900 02014G22KT P6SM VCSH BKN080 FM161600 03015KT 5SM -SHRA BR OVC040 FM170000 01010KT P6SM OVC070
KDIJ,KDIJ 160520Z 1606/1706 11005KT P6SM SKC FM161800 32005KT P6SM SKC FM170200 12005KT P6SM SKC AMD LTD TO CLD VIS AND WIND
KDIK,KDIK 160527Z 1606/1706 33005KT P6SM SCT200 FM161700 33015KT P6SM SCT200 FM170200 VRB03KT P6SM SCT100
KDLH,KDLH 160532Z 1606/1706 30010G17KT P6SM VCSH OVC015 FM161800 31016G24KT P6SM VCSH SCT015 BKN025 FM162200 32016G27KT P6SM SCT040
KDLS,KDLS 160520Z 1606/1706 VRB05KT P6SM SKC
KDMA,TAF AMD KDMA 160625Z 1606/1712 29010KT 9999 VCTS FEW045 BKN065 OVC120 QNH2993INS BECMG 1610/1611 26009KT 9999 NSW SCT050 BKN090 BKN160 QNH3000INS BECMG 1615/1616 22009KT 9999 BKN080 BKN120 QNH3002INS BECMG 1623/1624 35009KT 9999 SCT120 BKN180 QNH3005INS TX25/1622Z TN15/1613Z
KDMN,KDMN 160520Z 1606/1706 27008KT P6SM BKN070 FM161200 05006KT P6SM OVC070 FM161800 36011KT P6SM OVC060 PROB30 1618/1619 P6SM -TSRA OVC100CB
KDNL,KDNL 160520Z 1606/1706 VRB03KT P6SM SCT250 FM161500 24008KT P6SM FEW250 FM170000 VRB03KT P6SM BKN250
KDOV,TAF KDOV 160000Z 1600/1706 22012KT 9999 FEW100 QNH2999INS BECMG 1605/1606 30006KT 9999 BKN080 QNH2988INS WND 22009KT AFT 1622 BECMG 1704/1705 22009KT 9000 -SHRA BKN030 QNH2988INS TX20/1618Z TN11/1610Z
KDPA,KDPA 160520Z 1606/1706 22007KT P6SM SCT080 FM160900 30008KT P6SM SCT040 FM161600 29015G25KT P6SM BKN035
KDRO,KDRO 160529Z 1606/1706 31004KT P6SM SKC FM161600 10009KT P6SM VCSH BKN070 FM162100 12010KT P6SM -SHRA BKN050 FM162200 12010KT P6SM VCSH BKN045 FM170000 18008KT P6SM BKN050
KDRT,KDRT 160532Z 1606/1706 11010KT P6SM BKN250 FM161100 12012KT P6SM OVC012 FM161700 14010KT P6SM SCT050 SCT250 PROB30 1700/1703 -TSRA SCT050CB FM170300 05010KT 5SM TSRA BKN040CB OVC150
KDSM,KDSM 160520Z 1606/1706 30005KT P6SM FEW150 FM161200 29005KT P6SM BKN100 FM161700 32012G22KT P6SM BKN070 BKN200 FM162300 33011G19KT P6SM FEW060 FEW210 FM170300 34008KT P6SM FEW250
KDTW,KDTW 160523Z 1606/1712 20007KT P6SM BKN250 FM161400 28013G20KT P6SM SCT025 BKN040 FM161900 26013KT P6SM BKN050 FM170000 24010KT P6SM SCT025 BKN040 PROB30 1700/1704 6SM -RA OVC025
KDUJ,KDUJ 160522Z 1606/1706 VRB03KT P6SM SKC FM161500 23010G18KT P6SM FEW150 FM162200 VRB04KT P6SM BKN080
KDVL,KDVL 160520Z 1606/1706 34015KT P6SM BKN040 FM161300 33017G25KT P6SM BKN070 FM161700 34019G25KT P6SM SCT150 FM170000 35010KT P6SM FEW250 FM170400 01007KT P6SM FEW250
KDVT,KDVT 160538Z 1606/1706 VRB06KT P6SM VCSH SCT040 BKN070 BKN150 FM160700 05004KT 5SM TSRA BR BKN070CB FM160900 10004KT 5SM BR VCTS BKN060CB FM161000 11004KT P6SM VCTS BKN070CB FM161300 27004KT P6SM SCT045 FM161800 VRB06KT P6SM VCTS SCT060CB FM162200 35005KT P6SM FEW250
KDYS,TAF AMD KDYS 152200Z 1522/1622 16012KT 9999 SCT070 QNH2985INS BECMG 1612/1613 VRB06KT 9000 -SHRA OVC030 QNH2995INS BECMG 1614/1615 36009KT 8000 RA OVC030 QNH3008INS TEMPO 1619/1622 03015G25KT 8000 TSRA OVC010CB BECMG 1621/1622 03012KT 8000 RA BKN010 OVC015 QNH3000INS TX31/1522Z TN20/1612Z LAST NO AMDS AFT 1522 NEXT 1612
KEAR,KEAR 160524Z 1606/1706 31007KT P6SM FEW080 FM161300 33010KT P6SM SCT020 BKN035 FM161800 34016G24KT P6SM SCT050 FM162300 35012KT P6SM FEW250 FM170100 36006KT P6SM SKC
KEAT,KEAT 160520Z 1606/1706 31004KT P6SM FEW250 FM161200 30008KT 6SM HZ SKC FM162000 14005KT P6SM SKC FM170000 21004KT P6SM SKC
KEAU,KEAU 160520Z 1606/1706 30012KT P6SM OVC040 FM161100 30008KT P6SM OVC025 FM161800 30010G16KT P6SM OVC025 FM162000 31010G18KT P6SM OVC050
KECG,KECG 160528Z 1606/1706 20005KT P6SM SKC FM161500 24007KT P6SM SCT250 FM170300 22007KT P6SM BKN090
KECP,KECP 160520Z 1606/1706 00000KT P6SM SKC FM161500 16005KT P6SM SCT040 FM170000 19007KT P6SM SKC
KEDW,TAF AMD KEDW 160024Z 1600/1703 VRB06KT 9999 FEW100 510009 QNH2980INS TEMPO 1600/1602 9999 VCSH BKN100 BECMG 1603/1604 22008KT 9999 FEW100 QNH2985INS BECMG 1622/1623 25012G20KT 9999 FEW100 520009 QNH2992INS TX27/1623Z TN13/1613Z LAST NO AMDS AFT 1600 NEXT 1613
KEED,KEED 160520Z 1606/1706 VRB05KT P6SM SCT100 BKN200 FM160700 12008KT P6SM VCSH SCT080 BKN200 FM161200 VRB05KT P6SM SCT080 BKN200 FM162000 15007KT P6SM FEW110 SCT250 FM170200 23006KT P6SM SKC
KEET,KEET 160539Z 1606/1706 VRB03KT P6SM SCT250 FM161600 24008KT P6SM FEW250 FM162100 26009KT P6SM SCT080 BKN150 FM170000 23005KT P6SM SCT050 BKN150
KEFD,TAF KEFD 160400Z 1604/1710 VRB06KT 9999 SCT019 QNH3000INS BECMG 1605/1606 VRB06KT 9000 BR SCT019 QNH2994INS BECMG 1612/1613 VRB06KT 8000 BR FEW018 QNH2989INS TX29/1619Z TN22/1612Z
KEFK,KEFK 160531Z 1606/1706 33005KT P6SM SKC FM160800 00000KT P6SM FEW070 FM161800 17004KT P6SM SCT250
KEGE,KEGE 160529Z 1606/1706 VRB05KT P6SM SKC FM170300 13005KT P6SM FEW250
KEGI,TAF AMD KEGI 150500Z 1505/1607 33009KT 9999 SKC QNH2998INS BECMG 1512/1513 12009KT 9999 SKC QNH3000INS TX28/1519Z TN11/1510Z LAST NO AMDS AFT 1505 NEXT 1709
KEKN,KEKN 160541Z 1606/1706 00000KT P6SM SCT150 FM160800 00000KT 3SM BR SCT130 FM161100 00000KT 1/2SM FG BKN002 FM161300 00000KT 5SM BR SCT110 FM161400 24006KT P6SM BKN120 FM170000 00000KT P6SM BKN070 FM170500 20004KT P6SM BKN035
KEKO,KEKO 160520Z 1606/1706 07007KT P6SM SKC
KEKS,KEKS 160544Z 1606/1706 VRB06KT P6SM SCT150 SCT250
KELD,KELD 160520Z 1606/1706 00000KT P6SM SKC FM161200 VRB03KT P6SM BKN100 BKN250 FM161600 VRB04KT P6SM VCSH SCT015 BKN080 FM162100 22005KT P6SM BKN100 FM170000 00000KT P6SM OVC100
KELM,KELM 160520Z 1606/1706 00000KT 6SM BR FEW003 TEMPO 1607/1609 3SM BR FM160900 00000KT 3SM BR SCT003 TEMPO 1609/1612 1SM BR FM161200 22003KT P6SM FEW250 FM161500 21007KT P6SM FEW100 FM162300 VRB03KT P6SM SCT100
KELP,KELP 160520Z 1606/1706 15011KT P6SM FEW100 FEW180 FM161000 04008KT P6SM BKN100 BKN250 FM170000 03013KT P6SM VCTS OVC100CB
KELY,KELY 160520Z 1606/1706 17010KT P6SM SKC FM161700 02008KT P6SM SKC
KEND,TAF KEND 160200Z 1602/1708 03006KT 8000 SHRA VCTS BKN050CB QNH2990INS BECMG 1608/1609 02006KT 9000 SHRA BKN150 QNH3000INS BECMG 1614/1615 01015KT 9999 NSW SCT070 BKN150 QNH3014INS BECMG 1619/1620 36012G22KT 9999 SCT250 QNH3013INS BECMG 1700/1701 02008KT 9999 SKC QNH3007INS TX25/1621Z TN12/1612Z
KENV,KENV 160520Z 1606/1706 VRB05KT P6SM SKC FM160900 33009KT P6SM SKC
KENW,KENW 160534Z 1606/1706 27010KT P6SM BKN060 TEMPO 1606/1610 SCT060 FM161000 29006KT P6SM FEW060 FM161200 29007KT P6SM FEW070 FM161500 29011G18KT P6SM SCT040 FM162000 29014G23KT P6SM BKN035
KERI,KERI 160539Z 1606/1706 19009KT P6SM SCT080 BKN150 FM161400 22012KT P6SM SCT100 FM162100 25010G18KT P6SM SCT100 FM170200 24008KT P6SM BKN100
KEUG,KEUG 160520Z 1606/1706 VRB03KT P6SM FEW015 SCT040 FM161300 00000KT 3SM FU HZ SCT015 SCT040 FM161900 22007KT P6SM FEW040
KEUL,KEUL 160520Z 1606/1706 VRB05KT P6SM SKC AMD NOT SKED
KEVV,KEVV 160520Z 1606/1706 VRB03KT P6SM SCT150 FM161600 28010G16KT P6SM SCT250 FM170000 32005KT P6SM FEW250
KEVW,KEVW 160520Z 1606/1706 08015G23KT P6SM SKC FM162000 08008KT P6SM SKC
KEWN,KEWN 160523Z 1606/1706 25006KT P6SM SKC FM162300 21006KT P6SM BKN200
KEWR,KEWR 160524Z 1606/1712 VRB04KT P6SM FEW060 FM161000 33006KT P6SM BKN150 FM161800 26008KT P6SM SCT080 FM170200 VRB04KT P6SM SCT070 FM171100 18006KT P6SM BKN050
KEYW,KEYW 160545Z 1606/1706 07005KT P6SM VCSH SCT020 FM161500 09009KT P6SM SCT025
KFAF,TAF KFAF 150300Z 1503/1608 VRB06KT 9999 SKC QNH2998INS TX24/1520Z TN10/1507Z LAST NO AMDS AFT 1503 NEXT 1710
KFAR,KFAR 160520Z 1606/1706 34013KT P6SM BKN050 FM160900 33013G20KT P6SM SCT045 FM161200 33014G25KT P6SM BKN035 FM161600 34018G25KT P6SM BKN070 FM170000 34012KT P6SM SCT150
KFAT,KFAT 160520Z 1606/1706 VRB06KT P6SM SKC
KFAY,KFAY 160540Z 1606/1706 22006KT P6SM FEW250
KFBG,TAF KFBG 160100Z 1601/1707 21004KT 9999 SKC QNH3004INS BECMG 1621/1622 22008KT 9999 FEW100 QNH2999INS TX25/1619Z TN13/1611Z
KFCS,TAF KFCS 160500Z 1605/1711 02010KT 9999 SCT080 QNH3031INS BECMG 1609/1610 03005KT 9999 BKN030 OVC040 QNH3033INS BECMG 1612/1613 07005KT 9999 VCSH BKN010 OVC030 QNH3033INS BECMG 1615/1616 07005KT 9000 -DZ BKN010 OVC030 QNH3033INS BECMG 1618/1619 15010KT 9999 NSW BKN015 BKN040 QNH3029INS BECMG 1622/1623 15010KT 9999 BKN030 BKN100 QNH3030INS BECMG 1704/1705 33005KT 9999 FEW080 SCT200 QNH3033INS TX13/1621Z TN05/1613Z
KFDY,KFDY 160539Z 1606/1706 22004KT P6SM BKN100 FM161300 24012G20KT P6SM SKC FM162300 30010KT P6SM BKN120
KFFO,TAF KFFO 160310Z 1603/1709 22006KT 9999 BKN200 QNH2998INS BECMG 1605/1606 23006KT 9999 SCT060 BKN080 BKN200 620805 QNH2999INS BECMG 1613/1614 24010G15KT 9999 SCT070 BKN100 QNH2985INS TEMPO 1617/1622 26015G25KT BECMG 1622/1624 29009KT 9999 SCT030 SCT200 510103 QNH2983INS TX19/1619Z TN06/1611Z
KFKL,KFKL 160522Z 1606/1706 22004KT P6SM SKC FM161400 22010G18KT P6SM FEW150 FM162200 23004KT P6SM BKN080
KFLG,KFLG 160541Z 1606/1706 VRB05KT 6SM -SHRA BR SCT025 BKN040 TEMPO 1606/1610 4SM SHRA BR OVC025 FM161000 VRB04KT 6SM -SHRA BR OVC020 TEMPO 1614/1618 4SM TSRA BR OVC012CB FM162100 06007KT 6SM -SHRA BR BKN060 PROB30 1621/1703 4SM TSRA BR OVC020CB
KFLL,KFLL 160520Z 1606/1712 06007KT P6SM VCSH SCT030 OVC050 FM161500 06012KT P6SM SCT035 SCT100 FM170000 10008KT P6SM SCT035 SCT250
KFLO,KFLO 160520Z 1606/1706 23005KT P6SM SKC FM161400 25006KT P6SM SKC FM162000 21007KT P6SM FEW250 FM170000 19006KT P6SM SCT250
KFMH,KFMH 160525Z 1606/1706 00000KT P6SM SKC FM161300 23003KT P6SM FEW250 FM161600 22007KT P6SM SCT200 FM170000 26003KT P6SM BKN200
KFMN,KFMN 160523Z 1606/1706 10008KT P6SM FEW100 BKN150 FM161300 09007KT P6SM VCSH BKN060 FM161600 11009KT P6SM -RA OVC040 TEMPO 1616/1620 4SM RA BR OVC030 FM170000 10007KT 4SM -RA OVC040
KFMY,KFMY 160558Z 1606/1706 06005KT P6SM FEW250 FM161400 10008KT P6SM FEW040 SCT250 FM170200 10004KT P6SM FEW250
KFNT,KFNT 160523Z 1606/1706 21007KT P6SM OVC100 FM161400 28013G20KT P6SM SCT025 BKN040 TEMPO 1614/1617 BKN025 OVC040 FM161900 26013KT P6SM BKN050 FM162300 24010KT P6SM SCT025 BKN040 PROB30 1623/1703 6SM -RA OVC025
KFOD,KFOD 160520Z 1606/1706 31006KT P6SM FEW250 FM161200 32008KT P6SM BKN070 FM161700 33012G18KT P6SM BKN130 FM161900 32017G23KT P6SM BKN220 FM170000 33011G19KT P6SM FEW240
KFOE,KFOE 160520Z 1606/1706 34006KT P6SM SCT200 FM161800 32013KT P6SM FEW200 FM170000 35006KT P6SM SKC
KFPR,KFPR 160520Z 1606/1706 07005KT P6SM FEW035 FM161400 09010KT P6SM SCT035 FM170100 10003KT P6SM FEW030
KFSD,KFSD 160520Z 1606/1706 32006KT P6SM SCT050 FM161500 33012G19KT P6SM SCT035 FM161800 33015G23KT P6SM FEW250 FM170000 33008KT P6SM SCT250
KFSM,KFSM 160522Z 1606/1706 05006KT P6SM VCTS BKN100CB FM160800 VRB06KT 6SM SHRA VCTS SCT050CB BKN100 TEMPO 1608/1612 3SM TSRA BKN025CB FM161200 VRB05KT 5SM SHRA BR VCTS OVC008CB FM161600 01006KT P6SM BKN015 FM162000 34007KT P6SM BKN050
KFST,KFST 160531Z 1606/1706 14011KT P6SM VCSH BKN250 FM160900 20007KT P6SM VCTS BKN090CB FM161800 08010KT 6SM SHRA BR VCTS BKN029CB PROB30 1618/1621 4SM TSRA BR OVC015CB FM162100 08013G21KT 6SM SHRA BR VCTS BKN017CB
KFTW,KFTW 160520Z 1606/1706 17011KT P6SM SCT090 BKN200 FM161100 16008KT P6SM VCTS SCT020 OVC040CB FM161200 14006KT 6SM -TSRA BKN012CB TEMPO 1612/1614 36015G25KT 2SM +TSRA FM161600 07007KT P6SM -SHRA BKN012 FM161900 03009KT P6SM VCSH BKN020 OVC040 FM170200 01013KT P6SM SCT025 OVC060
KFTY,KFTY 160529Z 1606/1706 21003KT P6SM FEW250 FM161500 26007KT P6SM FEW250 FM162300 24004KT P6SM SCT200
KFVE,KFVE 160619Z 1606/1706 19006KT 3SM BR FEW015 FM160700 24003KT 1/2SM FG BKN003 FM161100 25003KT 2SM BR FEW003 FM161200 25005KT P6SM FEW250 FM170200 32004KT P6SM SCT150
KFWA,KFWA 160520Z 1606/1706 20005KT P6SM BKN070 FM160900 23007KT P6SM FEW250 FM161700 29012G18KT P6SM SCT200 FM170200 28010KT P6SM BKN080
KFXE,KFXE 160520Z 1606/1706 VRB05KT P6SM OVC050 FM161500 06012KT P6SM SCT035 SCT100 FM162300 08008KT P6SM SCT035 SCT250 FM170300 08005KT P6SM SCT250
KFYV,KFYV 160522Z 1606/1706 VRB04KT 6SM SHRA VCTS SCT050CB BKN080 TEMPO 1606/1610 VRB15G30KT 3SM -TSRA BKN035CB FM161000 VRB04KT 5SM -SHRA VCTS OVC050CB FM161600 35009KT P6SM BKN100 OVC250
KGBD,KGBD 160520Z 1606/1706 36006KT P6SM FEW250 FM161700 35012KT P6SM SCT240 FM170000 36006KT P6SM FEW250
KGCC,KGCC 160520Z 1606/1706 28007KT P6SM SKC FM161600 34010KT P6SM SKC
KGCK,KGCK 160520Z 1606/1706 03008KT P6SM FEW240 FM161600 02012KT P6SM BKN060 FM170000 35007KT P6SM SCT050
KGCN,KGCN 160541Z 1606/1706 VRB04KT P6SM VCSH BKN090 TEMPO 1607/1611 OVC025 FM161300 VRB04KT 6SM -SHRA BR OVC060 TEMPO 1613/1617 4SM -SHRA BR OVC008 FM161700 06009G15KT P6SM BKN045 PROB30 1617/1623 4SM TSRA BR OVC010CB
KGDV,KGDV 160531Z 1606/1706 VRB06KT P6SM SCT170
KGEG,KGEG 160520Z 1606/1706 04007KT P6SM FEW250
KGFK,KGFK 160520Z 1606/1706 33014G20KT P6SM BKN035 FM160700 33014G20KT P6SM BKN050 FM161500 33020G25KT P6SM BKN030 FM161900 34020G25KT P6SM SCT100 FM170100 34009KT P6SM FEW230
KGFL,KGFL 160526Z 1606/1706 33005KT P6SM SKC FM160900 VRB03KT P6SM SKC TEMPO 1611/1614 2SM BR FEW002 FM161500 VRB02KT P6SM BKN150 FM162200 VRB03KT P6SM SCT150
KGGG,KGGG 160520Z 1606/1706 19008KT P6SM SKC FM161200 19005KT P6SM BKN010 BKN100 FM161500 VRB05KT P6SM VCSH BKN012 FM161800 34006KT P6SM VCTS BKN100CB FM170000 36007KT P6SM OVC050
KGGW,KGGW 160531Z 1606/1706 VRB05KT P6SM FEW090
KGJT,KGJT 160529Z 1606/1706 08008KT P6SM SKC FM161800 12005KT P6SM FEW250 FM162300 31007KT P6SM SCT250 FM170300 29007KT P6SM SCT250
KGKY,KGKY 160520Z 1606/1706 17011KT P6SM SCT090 BKN200 FM161100 16008KT P6SM VCTS SCT020 OVC040CB FM161200 14006KT 6SM -TSRA BKN012CB TEMPO 1612/1614 36015G25KT 2SM +TSRA FM161600 07007KT P6SM -SHRA BKN012 FM161900 03009KT P6SM VCSH BKN020 OVC040 FM170200 01013KT P6SM SCT025 OVC060
KGLD,KGLD 160532Z 1606/1706 36006KT P6SM FEW120 SCT200 FM161200 33006KT P6SM SCT200 FM162300 36009KT P6SM SKC
KGLH,KGLH 160536Z 1606/1706 20004KT P6SM BKN080 BKN120 FM161500 29006KT P6SM BKN100
KGLS,KGLS 160520Z 1606/1706 14006KT P6SM FEW020 FEW250 FM161400 14010KT P6SM SCT020 SCT250 FM161800 11012KT P6SM VCTS SCT025CB SCT250 FM170100 12011KT P6SM FEW025 BKN250
KGMU,KGMU 160524Z 1606/1706 24005KT P6SM FEW200 FM161400 24006KT P6SM SCT150 FM161700 23009G17KT P6SM BKN150 FM162300 24007KT P6SM SCT060 BKN120
KGNV,KGNV 160520Z 1606/1706 VRB03KT P6SM SKC FM161500 09005KT P6SM SCT250
KGON,KGON 160524Z 1606/1706 VRB04KT P6SM FEW070 FM161400 33005KT P6SM BKN200 FM161700 25008KT P6SM BKN150 FM162300 VRB04KT P6SM SCT070
KGPI,KGPI 160520Z 1606/1706 01004KT P6SM SKC FM161000 00000KT P6SM VCFG SKC FM161400 VRB03KT P6SM SKC
KGPT,KGPT 160521Z 1606/1706 00000KT P6SM FEW250 FM161000 00000KT 2SM BR FEW250 TEMPO 1611/1613 1/2SM FG VV002 FM161300 VRB03KT P6SM SCT250 FM161800 15008KT P6SM SCT035 FM170000 VRB03KT P6SM BKN150
KGRB,KGRB 160520Z 1606/1706 28005KT P6SM SCT080 FM161000 27005KT P6SM BKN040 FM161400 28007G16KT P6SM BKN028 FM161800 29010G18KT P6SM BKN035 PROB30 1620/1624 -SHRA OVC025 FM170300 29014G20KT P6SM BKN030
KGRF,TAF KGRF 160500Z 1605/1711 02006KT 9999 SKC QNH2992INS TX23/1700Z TN11/1613Z
KGRI,KGRI 160524Z 1606/1706 31007KT P6SM FEW080 FM161300 33010KT P6SM SCT020 BKN035 FM161800 34016G24KT P6SM SCT050 FM162300 35012KT P6SM FEW250 FM170100 36006KT P6SM SKC
KGRK,TAF KGRK 160000Z 1600/1706 16009KT 9999 FEW270 SCT290 QNH2988INS BECMG 1611/1612 17009KT 9999 OVC025 QNH2992INS BECMG 1617/1618 17009KT 9999 SCT025 QNH2990INS TEMPO 1620/1624 8000 -SHRA BECMG 1705/1706 03009KT 8000 -RA BKN009 OVC025 QNH2993INS TX30/1600Z TN20/1610Z
KGRR,KGRR 160540Z 1606/1706 20008KT P6SM OVC080 FM161200 26005KT P6SM BKN050 FM161600 27008KT P6SM BKN025 FM161900 27010KT P6SM BKN035 FM170100 28009KT P6SM -SHRA OVC025
KGSB,TAF KGSB 160400Z 1604/1710 VRB03KT 9999 SKC QNH3002INS BECMG 1608/1609 VRB05KT 9999 SCT090 QNH2992INS BECMG 1623/1624 22008KT 9999 SCT050 QNH2985INS TX26/1619Z TN12/1611Z LAST NO AMDS AFT 1604 NEXT 1704
KGSO,KGSO 160540Z 1606/1706 20005KT P6SM SCT100 SCT250 WS012/25030KT FM160900 22004KT P6SM SCT100 SCT250 FM161400 24008KT P6SM SCT100 BKN200 FM162300 24004KT P6SM VCSH BKN070 BKN200
KGSP,KGSP 160524Z 1606/1706 24004KT P6SM FEW200 FM161400 23006KT P6SM SCT150 FM161700 23010KT P6SM BKN150 FM170100 23005KT P6SM BKN080
KGTB,TAF KGTB 160100Z 1601/1707 25006KT 9999 SCT040 QNH2996INS BECMG 1615/1616 20010G15KT 9999 SCT030 BKN045 BKN080 QNH2988INS BECMG 1621/1622 VRB06KT 9999 FEW040 BKN080 QNH2970INS TX12/1619Z TN05/1607Z
KGTF,KGTF 160544Z 1606/1706 VRB06KT P6SM FEW150 FEW250
KGTR,KGTR 160536Z 1606/1706 20004KT P6SM BKN080 BKN120 FM161500 29006KT P6SM BKN100
KGUC,KGUC 160529Z 1606/1706 35007KT P6SM SKC FM160700 07007KT P6SM FEW250 FM161200 08005KT P6SM SCT200 FM161600 09007KT P6SM SCT200 FM162200 12011KT P6SM SCT250
KGUP,KGUP 160523Z 1606/1706 06006KT P6SM VCSH SCT040 OVC080 FM161400 08008KT P6SM -SHRA BKN060 FM161700 08011KT P6SM -SHRA OVC050 TEMPO 1620/1624 5SM SHRA OVC040 FM170000 08010KT P6SM -SHRA OVC050
KGUS,TAF KGUS 152100Z 1521/1703 24015KT 9999 SKC QNH2996INS BECMG 1617/1618 28015KT 9999 FEW030 FEW045 SCT060 QNH2996INS BECMG 1620/1621 28020G25KT 9999 BKN035 OVC055 QNH2994INS BECMG 1623/1624 29012KT 9999 BKN045 QNH2994INS TX16/1620Z TN04/1612Z LAST NO AMDS AFT 1603 NEXT 1613
KGUY,KGUY 160539Z 1606/1706 04010KT P6SM SCT250 FM161100 35010KT P6SM BKN200 FM161500 03013KT P6SM BKN180 FM170300 32006KT P6SM SCT230
KGWO,KGWO 160536Z 1606/1706 20004KT P6SM BKN080 BKN120 FM161500 29006KT P6SM BKN100
KGYY,KGYY 160520Z 1606/1706 23005KT P6SM SCT080 FM161000 29009KT P6SM SCT040 FM161600 28015G25KT P6SM BKN035
KHBG,KHBG 160536Z 1606/1706 00000KT P6SM SKC FM160900 00000KT 4SM BR SKC FM161100 00000KT 1/2SM FG BKN001 FM161400 16004KT P6SM SKC
KHCR,KHCR 160520Z 1606/1706 VRB06KT P6SM SKC
KHDC,KHDC 160645Z 1607/1706 00000KT P6SM FEW250 TEMPO 1607/1611 1SM BR VV002 FM161400 VRB04KT P6SM SCT250 FM162200 VRB04KT P6SM SCT040 BKN150
KHDN,KHDN 160529Z 1606/1706 12006KT P6SM BKN120 FM162200 33008KT P6SM SKC FM170000 28010KT P6SM SKC
KHIB,KHIB 160532Z 1606/1706 30010G20KT P6SM VCSH OVC015 FM162000 32015G25KT P6SM OVC025 FM170200 34015G25KT P6SM OVC025
KHIE,KHIE 160530Z 1606/1706 00000KT P6SM SKC TEMPO 1609/1612 2SM BR BKN001 FM161200 VRB03KT P6SM SCT025 BKN050 FM161800 28004KT P6SM BKN110
KHIF,TAF KHIF 152100Z 1521/1703 33010KT 9999 SCT200 QNH3003INS BECMG 1602/1603 10020G30KT 9999 SKC 520009 QNH3008INS TEMPO 1604/1618 09030G40KT 530009 BECMG 1618/1619 10012G18KT 9999 SKC QNH3012INS TX21/1523Z TN08/1613Z LAST NO AMDS AFT 1523 NEXT 1613
KHIO,KHIO 160520Z 1606/1706 08013G20KT P6SM SKC WS020/10035KT FM160800 07008KT P6SM SKC WS020/10035KT FM160900 VRB03KT P6SM SKC WS020/10030KT FM161800 13008KT P6SM SKC
KHKS,KHKS 160536Z 1606/1706 VRB04KT P6SM SKC
KHKY,KHKY 160524Z 1606/1706 24003KT P6SM FEW080 SCT200 FM161300 25004KT P6SM BKN150 FM161700 24007KT P6SM BKN120 FM162300 26006KT P6SM BKN060 PROB30 1700/1706 -SHRA BKN040
KHLG,KHLG 160522Z 1606/1706 21004KT P6SM SKC FM161600 22010G18KT P6SM FEW150 FM162200 22004KT P6SM BKN080
KHLN,KHLN 160544Z 1606/1706 VRB06KT P6SM SCT150 SCT250
KHNB,KHNB 160532Z 1606/1706 00000KT P6SM BKN250 FM161500 25005KT P6SM BKN250 FM161800 29011G18KT P6SM SCT250 FM162300 32008KT P6SM FEW250
KHND,KHND 160520Z 1606/1706 19010KT P6SM FEW120 BKN200 FM161200 VRB05KT P6SM FEW120 FM161900 03005KT P6SM FEW120 FM170300 19008KT P6SM SKC
KHOB,KHOB 160531Z 1606/1706 12015G20KT 6SM BR VCTS OVC060CB FM161500 02011G22KT 6SM -SHRA BR VCTS BKN015CB PROB30 1621/1624 2SM TSRA BR OVC004CB FM170000 02020G30KT 5SM -SHRA BR VCTS OVC011CB
KHON,KHON 160520Z 1606/1706 32009KT P6SM BKN050 FM161400 34014G21KT P6SM FEW250 FM170000 33008KT P6SM SCT250
KHOP,TAF KHOP 160000Z 1600/1706 VRB06KT 9999 FEW250 QNH3003INS BECMG 1608/1609 VRB06KT 9000 -SHRA BKN095 QNH3000INS TEMPO 1614/1618 25010G15KT 9000 -TSRA OVC070CB BECMG 1621/1622 27009KT 9999 NSW OVC070 QNH2999INS TX17/1618Z TN14/1606Z
KHOT,KHOT 160527Z 1606/1706 11007KT P6SM VCSH SCT005 OVC050 FM161000 18006KT 4SM TSRA BR OVC025CB FM162000 25005KT P6SM VCSH OVC040 FM170000 32003KT P6SM OVC250
KHOU,KHOU 160520Z 1606/1706 VRB04KT P6SM FEW015 SCT250 FM161500 14007KT P6SM SCT035 SCT250 FM162000 11008KT P6SM VCTS SCT050CB SCT250 FM170200 VRB05KT P6SM FEW040 BKN250
KHPN,KHPN 160524Z 1606/1706 VRB03KT P6SM FEW060 SCT150 FM161800 27006KT P6SM SCT150 FM162300 VRB03KT P6SM SCT070 AMD NOT SKED
KHQM,KHQM 160520Z 1606/1706 09010KT 6SM HZ SKC FM161500 14012KT 4SM BR SCT004 FM161900 16012G22KT 6SM BR SCT010
KHRL,KHRL 160520Z 1606/1706 14004KT P6SM FEW025 FM161600 14014KT P6SM SCT040 FM170200 12008KT P6SM SCT250
KHRO,KHRO 160527Z 1606/1706 18008KT P6SM VCSH SCT040 OVC080 TEMPO 1606/1610 2SM TSRA BR OVC035CB FM161000 33005KT 5SM TSRA BR OVC030CB TEMPO 1610/1614 VRB10G25KT 2SM TSRA BR OVC025CB FM161400 34007KT 4SM -SHRA BR OVC025 FM161700 33006KT P6SM SCT100
KHRT,TAF KHRT 160200Z 1602/1708 36006KT 9999 SKC QNH2999INS WND 18012KT AFT 1616 TX28/1619Z TN13/1611Z
KHST,TAF KHST 160300Z 1603/1709 06009KT 9999 FEW025 SCT065 BKN200 QNH2997INS TEMPO 1606/1611 8000 -SHRA BKN018 OVC035 BECMG 1615/1616 07012G18KT 9999 SCT025 BKN065 QNH2991INS BECMG 1623/1624 08009KT 9999 SCT025 SCT065 QNH2989INS TX30/1619Z TN24/1610Z
KHSV,KHSV 160520Z 1606/1706 22005KT P6SM FEW060 BKN100 OVC200 FM161000 22005KT P6SM VCSH FEW060 BKN100 OVC200 FM161400 26008KT P6SM FEW060 BKN100 OVC200 FM170000 VRB05KT P6SM VCSH SCT035 BKN250
KHTS,KHTS 160541Z 1606/1706 00000KT P6SM FEW140 FM161600 22008KT P6SM SCT100 FM162300 23005KT P6SM VCSH BKN100
KHUF,KHUF 160520Z 1606/1706 26003KT P6SM SCT150 FM161200 31007KT P6SM FEW250 FM161900 30010G20KT P6SM FEW250 FM170000 30006KT P6SM SCT200
KHUL,KHUL 160600Z 1606/1706 00000KT 1/4SM FG OVC002 FM161200 31003KT 3SM BR FEW005 FM161300 32003KT P6SM FEW090 FM161400 32004KT P6SM FEW250 FM170200 36002KT P6SM SCT100
KHUM,KHUM 160542Z 1606/1706 00000KT P6SM SKC TEMPO 1606/1610 1SM BR VV005 FM161400 VRB03KT P6SM SCT250 FM161800 12008KT P6SM SCT035
KHUT,KHUT 160520Z 1606/1706 03005KT P6SM FEW100 SCT250 FM160800 01007KT P6SM FEW250 FM161800 34011KT P6SM FEW250 FM162300 35009KT P6SM FEW250
KHVR,KHVR 160544Z 1606/1706 VRB06KT P6SM BKN150 BKN250
KHYA,KHYA 160642Z 1607/1706 04004KT 6SM BR SKC TEMPO 1607/1610 1 1/2SM BR FM161000 22003KT P6SM SKC FM161500 22008KT P6SM BKN200 FM170000 26005KT P6SM SCT200
KHYR,KHYR 160532Z 1606/1706 30008G16KT P6SM VCSH BKN015 OVC025 FM161900 31011G21KT P6SM VCSH OVC020 FM170200 33013G26KT P6SM OVC020
KHYS,KHYS 160520Z 1606/1706 36007KT P6SM SCT250
KIAB,TAF AMD KIAB 160500Z 1605/1621 10009KT 6000 -SHRA VCTS BKN050CB BKN100 QNH2993INS TEMPO 1605/1606 09010G20KT 6000 -TSRA BKN050CB BKN100 BECMG 1604/1605 08009KT 9999 NSW FEW220 QNH2996INS BECMG 1617/1618 01010G15KT 9999 FEW220 QNH3014INS TX21/1621Z TN12/1613Z
KIAD,KIAD 160531Z 1606/1712 VRB04KT P6SM SKC FM160900 VRB04KT P6SM BKN110 FM170100 18005KT P6SM -RA OVC060
KIAG,KIAG 160544Z 1606/1706 21006KT P6SM OVC045 FM161300 22012G20KT P6SM BKN060 FM161500 22015G24KT P6SM SCT070 FM162300 22010KT P6SM BKN070 FM170300 27006KT P6SM VCSH BKN050
KIAH,KIAH 160520Z 1606/1712 15005KT P6SM FEW015 SCT250 FM161700 14006KT P6SM SCT025 SCT250 FM162100 12007KT P6SM VCTS FEW050CB SCT100 FM170100 VRB05KT P6SM FEW040 BKN250 FM170900 VRB04KT P6SM VCTS BKN018CB
KICT,KICT 160520Z 1606/1706 03010KT P6SM VCSH BKN090 FM160900 01008KT P6SM FEW100 BKN250 FM162000 34010KT P6SM FEW250 FM170500 01007KT P6SM SKC
KIDA,KIDA 160520Z 1606/1706 01007KT P6SM SKC FM162300 VRB05KT P6SM SKC
KIFP,KIFP 160520Z 1606/1706 VRB05KT P6SM SCT100 BKN200 FM160700 12008KT P6SM VCSH BKN080 BKN200 FM161200 VRB05KT P6SM SCT080 BKN200 FM162000 20012KT P6SM FEW110 SCT250 FM170100 16006KT P6SM SKC
KILG,KILG 160522Z 1606/1706 VRB03KT P6SM SCT250 FM161000 33005KT P6SM BKN200 FM161700 27005KT P6SM SCT100 FM162100 24005KT P6SM BKN150 FM170000 VRB03KT P6SM BKN100
KILM,KILM 160520Z 1606/1706 VRB03KT P6SM SKC FM161300 26006KT P6SM SKC FM162000 21007KT P6SM FEW250
KILN,KILN 160533Z 1606/1706 23005KT P6SM SCT100 BKN250 FM161000 23007KT P6SM BKN100 FM161400 22010KT P6SM SCT150 FM161700 24012G20KT P6SM SCT150 FM162300 29011KT P6SM SCT250 FM170400 30008KT P6SM BKN250
KIND,KIND 160520Z 1606/1712 25003KT P6SM BKN150 FM161200 31007KT P6SM FEW250 FM161900 30010G20KT P6SM FEW250 FM170000 30006KT P6SM SCT200
KINK,KINK 160531Z 1606/1706 10010KT P6SM -SHRA VCTS BKN070CB FM161800 08011KT 6SM SHRA BR VCTS BKN018CB PROB30 1618/1621 4SM TSRA BR OVC009CB FM162100 07015G24KT 6SM SHRA BR VCTS OVC009CB
KINL,KINL 160532Z 1606/1706 31009G18KT 6SM -SHRASN SCT008 OVC012 FM161100 32010G18KT P6SM VCSH OVC015 FM161800 33014G22KT P6SM VCSH OVC015 FM162100 33014G23KT P6SM BKN020
KINS,TAF AMD KINS 151737Z 1517/1623 VRB06KT 9999 SKC QNH2986INS BECMG 1520/1521 11010G15KT 9999 FEW130 FEW190 QNH2984INS TEMPO 1603/1605 13012G24KT BECMG 1605/1606 21008KT 9999 FEW110 SCT190 QNH2991INS BECMG 1608/1609 VRB06KT 9999 FEW120 SCT200 QNH2997INS BECMG 1620/1621 08010G15KT 9999 FEW120 FEW200 QNH2997INS TX31/1522Z TN12/1614Z LAST NO AMDS AFT 1517 NEXT 1615
KINT,KINT 160540Z 1606/1706 20005KT P6SM SCT100 SCT250 WS012/25030KT FM160900 22004KT P6SM SCT100 SCT250 FM161400 24008KT P6SM SCT100 BKN200 FM162300 24004KT P6SM VCSH BKN070 BKN200
KINW,KINW 160541Z 1606/1706 VRB04KT P6SM VCTS BKN060CB TEMPO 1606/1610 4SM -SHRA BR OVC015 FM161000 00000KT 6SM BR VCTS BKN060CB FM161200 VRB03KT 6SM -SHRA BR BKN060 TEMPO 1614/1618 4SM TSRA BR OVC010CB
KIPL,KIPL 160538Z 1606/1706 30006KT P6SM VCSH SCT100 FM160700 VRB05KT P6SM SCT110 SCT250 FM162100 05008KT P6SM FEW250 FM162200 02004KT P6SM FEW250
KIPT,KIPT 160539Z 1606/1706 27004KT P6SM BKN150 FM161500 24006KT P6SM SCT080 BKN150 FM162200 VRB03KT P6SM BKN080 OVC150
KISM,KISM 160520Z 1606/1706 05003KT P6SM SKC FM161500 09007KT P6SM FEW040 FM170100 13002KT P6SM SKC
KISO,KISO 160523Z 1606/1706 21005KT P6SM SKC FM162300 21006KT P6SM BKN200 AMD LTD TO CLD VIS AND WIND
KISP,KISP 160524Z 1606/1706 VRB05KT P6SM FEW060 SCT150 FM161300 34005KT P6SM BKN150 FM161800 27008KT P6SM SCT150 FM162300 VRB04KT P6SM SCT070
KITH,KITH 160520Z 1606/1706 VRB03KT P6SM FEW250 FM161500 21008KT P6SM FEW080 FM170000 16005KT P6SM BKN150
KIWA,KIWA 160538Z 1606/1706 VRB07KT P6SM VCTS SCT050CB BKN060 BKN100 TEMPO 1606/1610 VRB10G20KT SCT060CB SCT100 FM161000 VRB06KT P6SM SCT050 SCT060 BKN100 FM161800 24010G20KT P6SM VCTS SCT070CB BKN150 FM162200 02007KT P6SM SCT070 SCT180 AMD LTD TO CLD VIS AND WIND TIL 161200
KIWD,KIWD 160528Z 1606/1706 30009KT P6SM -SHRA SCT008 OVC015 FM160700 30010G20KT P6SM -SHRA OVC015 FM161200 31012G23KT 6SM -SHRA BR OVC012 FM162300 32014G26KT 4SM -SHRASN BR OVC010 FM170500 34015G25KT 3SM -SHSN BR OVC010
KIXD,KIXD 160520Z 1606/1706 34005KT P6SM SKC FM161700 33015KT P6SM SCT060 FM170000 34008KT P6SM SKC
KJAC,KJAC 160521Z 1606/1706 01008KT P6SM SKC FM161500 VRB05KT P6SM SKC FM170300 01006KT P6SM SKC
KJAN,KJAN 160536Z 1606/1706 VRB04KT P6SM SKC
KJAX,KJAX 160520Z 1606/1706 00000KT P6SM SKC FM161500 07005KT P6SM SCT250
KJBR,KJBR 160520Z 1606/1706 09006KT 5SM -TSRA BR BKN050CB OVC250 FM160800 VRB04KT P6SM -RA OVC100 FM161600 25008KT P6SM OVC100 FM170000 31004KT P6SM BKN250
KJCT,KJCT 160548Z 1606/1706 16007KT P6SM BKN250 FM161200 17005KT P6SM BKN015 FM161700 17007KT P6SM SCT050 BKN250 FM161800 13007KT P6SM SCT100 BKN250 FM170100 03014G20KT P6SM VCTS BKN050CB FM170400 03013G20KT 6SM -SHRA VCTS OVC015CB
KJEF,KJEF 160520Z 1606/1706 VRB04KT P6SM SCT250 FM160900 33006KT P6SM FEW250 FM161900 32011G18KT P6SM FEW250 FM170000 33007KT P6SM FEW250
KJER,KJER 160520Z 1606/1706 10012G22KT P6SM SKC FM161500 08015G25KT P6SM SKC FM162000 06011KT P6SM SKC
KJFK,KJFK 160524Z 1606/1712 23006KT P6SM FEW060 FM161000 34006KT P6SM BKN150 FM161700 27009KT P6SM SCT100 FM162200 23007KT P6SM SCT070 FM170400 VRB04KT P6SM SCT070 FM171000 18007KT P6SM BKN050
KJHW,KJHW 160544Z 1606/1706 19004KT P6SM FEW250 FM161300 20007KT P6SM FEW060 FM161500 22012G19KT P6SM FEW070 FM162100 22008KT P6SM SCT070 FM162300 21007KT P6SM BKN060 FM170200 22005KT P6SM BKN040
KJKA,KJKA 160623Z 1606/1706 00000KT 4SM BR SKC FM161200 00000KT P6SM SKC FM161600 12005KT P6SM SCT250
KJKL,KJKL 160537Z 1606/1706 VRB03KT P6SM SKC FM161900 VRB05KT P6SM -SHRA OVC050 FM162200 VRB04KT P6SM VCSH BKN050
KJLN,KJLN 160520Z 1606/1706 VRB05KT P6SM -SHRA BKN080 TEMPO 1606/1610 -TSRA BKN080CB FM161100 VRB03KT P6SM VCSH SCT240 FM161500 01007KT P6SM SCT250 FM162100 34010KT P6SM SCT250
KJMS,KJMS 160527Z 1606/1706 36010KT P6SM OVC050 FM161500 33015G25KT P6SM SCT200 FM170200 36005KT P6SM FEW200
KJST,KJST 160539Z 1606/1706 24006KT P6SM BKN150 FM161500 24010G17KT P6SM BKN060 FM162200 23007KT P6SM BKN080 OVC150
KJVL,KJVL 160534Z 1606/1706 VRB04KT P6SM FEW060 FM161300 28007KT P6SM SCT090 FM161500 29011G18KT P6SM SCT060 FM162000 30014G22KT P6SM BKN040 FM170200 31011G18KT P6SM BKN060
KJXN,KJXN 160540Z 1606/1706 22007KT P6SM SCT080 FM161800 27009KT P6SM BKN040 FM170300 27006KT P6SM VCSH OVC025
KJZI,KJZI 160520Z 1606/1706 00000KT P6SM SKC FM161400 26004KT P6SM SKC FM161900 20008KT P6SM FEW250 FM170100 19004KT P6SM SCT250
KLAF,KLAF 160520Z 1606/1706 24003KT P6SM BKN100 FM161200 31007KT P6SM FEW250 FM161900 30010G20KT P6SM FEW250 FM170000 30006KT P6SM SCT200 AMD LTD TO CLD VIS AND WIND TIL 161300
KLAL,KLAL 160558Z 1606/1706 VRB03KT P6SM SKC FM161400 10007KT P6SM FEW040 FEW250 FM170100 11004KT P6SM FEW250 AMD NOT SKED TIL 161100
KLAN,KLAN 160540Z 1606/1706 22010KT P6SM OVC080 FM161500 28007KT P6SM BKN035 FM170100 27007KT P6SM VCSH OVC025
KLAR,KLAR 160520Z 1606/1706 VRB06KT P6SM BKN080 FM161200 VRB03KT 3SM BR BKN003 BKN050 FM161600 06007KT P6SM SCT080
KLAS,KLAS 160520Z 1606/1712 19008KT P6SM FEW120 BKN200 FM160900 VRB06KT P6SM FEW120 SCT200 FM161900 08006KT P6SM FEW120 FM170300 20006KT P6SM SKC
KLAW,KLAW 160520Z 1606/1706 07006G12KT P6SM SHRA BKN030 TEMPO 1606/1610 4SM -TSRA BKN040CB FM161200 03014KT 6SM -SHRA BR OVC010 FM161800 02013KT P6SM OVC050 TEMPO 1618/1621 P6SM -RA OVC050 FM170000 35006KT P6SM OVC100
KLAX,KLAX 160546Z 1606/1712 VRB03KT P6SM VCSH SCT025 BKN040 FM160700 VRB03KT P6SM BKN030 FM161200 VRB03KT 4SM BR BKN015 BKN025 FM161700 27006KT P6SM BKN030 FM162100 27008KT P6SM BKN050 FM170400 27006KT P6SM SCT015 BKN025
KLBB,KLBB 160539Z 1606/1706 20011KT P6SM SCT250 WS007/21030KT TEMPO 1609/1612 3SM SHRA BR OVC025 FM161900 05020KT 6SM SHRA BR OVC020
KLBE,KLBE 160522Z 1606/1706 00000KT P6SM SKC FM161400 23010G18KT P6SM FEW150 FM162200 22004KT P6SM BKN080
KLBF,KLBF 160520Z 1606/1706 32005KT P6SM FEW110 FM161200 32007KT P6SM SCT080 FM161500 33012G22KT P6SM SCT070 FM170000 36006KT P6SM FEW250
KLBL,KLBL 160520Z 1606/1706 04009KT P6SM SCT230 FM161500 03013G21KT P6SM BKN060 FM170100 VRB04KT P6SM SCT050
KLBT,KLBT 160520Z 1606/1706 23005KT P6SM SKC FM161400 25007KT P6SM SKC FM162000 22007KT P6SM FEW250 FM170000 19006KT P6SM SCT250 AMD NOT SKED
KLBX,KLBX 160520Z 1606/1706 VRB02KT P6SM FEW250 FM160700 13004KT 5SM BR FEW250 TEMPO 1610/1613 2SM BR FM161500 14007KT P6SM SCT020 SCT250 FM161800 13009KT P6SM VCTS SCT025CB SCT250 FM170100 11005KT P6SM FEW025 BKN250
KLCH,KLCH 160628Z 1606/1706 13003KT 4SM BR FEW150 TEMPO 1606/1610 1/2SM FG VV002 FM161000 11004KT 3SM BR FEW150 TEMPO 1610/1614 1/2SM FG VV002 FM161400 13006KT P6SM SCT040 FM161900 18007KT P6SM SCT040 FM170100 17003KT P6SM SCT250 FM170500 00000KT 3SM BR SCT250
KLCK,KLCK 160533Z 1606/1706 23003KT P6SM SCT090 BKN250 FM160900 21004KT P6SM BKN100 FM161400 22008KT P6SM SCT150 FM161700 24012G20KT P6SM SCT150 FM162300 28010KT P6SM SCT250 FM170200 30008KT P6SM BKN250
KLEB,KLEB 160530Z 1606/1706 00000KT 1/2SM FG VV001 FM161300 VRB03KT P6SM FEW250 FM161800 25004KT P6SM SCT150
KLEE,KLEE 160520Z 1606/1706 04004KT P6SM SKC FM161500 08007KT P6SM FEW040 FM170100 11004KT P6SM SKC
KLEX,KLEX 160532Z 1606/1706 VRB03KT P6SM SCT250 FM161200 18004KT P6SM OVC100 FM161500 22007KT P6SM BKN100 FM161900 23009G18KT P6SM SCT100 BKN250 FM162300 27007KT P6SM SCT250
KLFI,TAF KLFI 160100Z 1601/1707 VRB06KT 9999 FEW090 QNH3003INS BECMG 1702/1703 21009KT 9000 DZ BKN030 QNH2987INS TEMPO 1704/1707 33015KT 8000 -SHRA BKN010 OVC030 TX23/1620Z TN14/1610Z
KLFK,KLFK 160520Z 1606/1706 15006KT P6SM SKC FM160800 16003KT P6SM BKN010 FM161200 16003KT 4SM BR BKN007 FM161500 17004KT P6SM BKN015 FM161600 VRB04KT P6SM VCTS BKN035CB FM170000 02006KT P6SM OVC250
KLFT,KLFT 160634Z 1607/1706 00000KT P6SM FEW150 TEMPO 1607/1611 1/2SM FG VV002 FM161100 11004KT 3SM BR FEW150 TEMPO 1611/1614 1/2SM FG VV002 FM161400 13005KT P6SM SCT040 FM161900 18005KT P6SM SCT040 FM170100 17003KT P6SM SCT250 FM170500 00000KT 6SM BR SCT250
KLGA,KLGA 160524Z 1606/1712 23004KT P6SM FEW060 FM160900 34006KT P6SM BKN150 FM161200 01006KT P6SM BKN150 FM161800 29008KT P6SM SCT100 FM162300 25006KT P6SM SCT070 FM170400 VRB04KT P6SM SCT070 FM171000 17006KT P6SM BKN050
KLGB,KLGB 160546Z 1606/1706 10012KT 4SM SHRA BKN025 OVC035 FM160700 VRB03KT P6SM SCT015 BKN040 FM161000 VRB03KT 4SM BR BKN015 BKN025 FM161600 VRB03KT P6SM BKN030 FM161800 22008KT P6SM SCT050 FM162300 28006KT P6SM SCT015 SCT025
KLGU,KLGU 160520Z 1606/1706 08015G38KT P6SM SKC FM161900 08010G20KT P6SM SKC FM170000 08010KT P6SM SKC
KLIT,KLIT 160527Z 1606/1706 16007KT P6SM OVC040 TEMPO 1607/1611 5SM TSRA BR OVC025CB FM161100 34005KT 4SM TSRA BR OVC030CB FM162000 28006KT P6SM OVC035 FM170000 32005KT P6SM OVC250
KLLQ,KLLQ 160527Z 1606/1706 24009G16KT P6SM OVC250 FM161200 34005KT 4SM TSRA BR OVC035CB PROB30 1616/1622 2SM TSRA BR OVC025CB FM162200 28006KT P6SM -SHRA OVC035 FM170000 32005KT P6SM OVC250 AMD NOT SKED
KLMT,KLMT 160520Z 1606/1706 VRB04KT P6SM SKC
KLND,KLND 160521Z 1606/1706 VRB05KT P6SM FEW060 FM161100 VRB05KT P6SM SKC FM170200 24006KT P6SM SKC
KLNK,KLNK 160520Z 1606/1706 33005KT P6SM SCT060 FM161500 33012G24KT P6SM BKN040 FM161700 33018G28KT P6SM BKN040
KLNS,KLNS 160539Z 1606/1706 VRB04KT P6SM BKN150
KLOZ,KLOZ 160537Z 1606/1706 VRB03KT P6SM SKC FM161500 24008KT P6SM VCSH BKN060 FM161800 24009KT P6SM SHRA OVC050 FM162100 25008KT 5SM SHRA VCTS OVC050CB FM170000 VRB04KT P6SM OVC060
KLRD,KLRD 160537Z 1606/1706 12014G20KT P6SM SKC FM160800 14008KT P6SM SCT015 TEMPO 1610/1614 6SM BR BKN015 FM161400 15012KT P6SM SCT030 FM161800 13010KT P6SM SCT045 SCT250 FM170200 12015G20KT P6SM SCT030 BKN250
KLRF,TAF AMD KLRF 160335Z 1603/1705 VRB06KT 9999 BKN060 QNH2988INS TEMPO 1603/1605 VRB25G35KT 3200 +TSRA BKN050CB BECMG 1610/1611 VRB06KT 8000 -SHRA BKN030 OVC080 QNH2996INS BECMG 1620/1621 VRB06KT 9999 NSW BKN040 BKN120 QNH2999INS TX22/1623Z TN15/1611Z
KLRU,KLRU 160520Z 1606/1706 18007KT P6SM VCSH BKN090 OVC110 FM161000 05008KT P6SM BKN060 FM161800 07011KT P6SM OVC060 PROB30 1618/1619 P6SM -TSRA BKN100CB
KLSE,KLSE 160523Z 1606/1706 31010KT P6SM OVC050 FM161400 30012G21KT P6SM OVC029 FM161900 31013G22KT P6SM BKN035 FM170000 32012G23KT P6SM BKN050
KLSV,TAF KLSV 152300Z 1523/1705 18015G25KT 9999 SCT150 BKN200 520009 QNH2982INS TEMPO 1601/1605 18020G30KT BECMG 1605/1606 12010G15KT 9999 BKN200 QNH2988INS BECMG 1611/1612 09005KT 9999 SCT200 QNH2992INS BECMG 1615/1616 12005KT 9999 FEW180 QNH2995INS BECMG 1621/1622 15008KT 9999 FEW200 QNH2991INS TX30/1623Z TN17/1613Z
KLTS,TAF AMD KLTS 150528Z 1505/1607 VRB06KT 9999 SKC QNH2979INS BECMG 1518/1519 21012G18KT 9999 SCT230 QNH2982INS BECMG 1523/1524 18009KT 9999 SCT075 QNH2983INS BECMG 1606/1607 26020G30KT 9000 -TSRA FEW035 BKN050CB QNH2992INS TX32/1521Z TN14/1512Z LAST NO AMDS AFT 1505 NEXT 1709
KLUK,KLUK 160533Z 1606/1706 VRB04KT P6SM BKN100 FM161400 22007KT P6SM SCT100 BKN250 FM161700 24012G20KT P6SM SCT150 FM162300 29008KT P6SM SCT250 FM170300 30004KT P6SM BKN250
KLVK,KLVK 160530Z 1606/1706 26007KT P6SM OVC018 FM161700 25007KT P6SM SCT020 FM161830 27010KT P6SM FEW250 FM170500 VRB05KT P6SM FEW050 SCT250
KLVM,KLVM 160531Z 1606/1706 VRB06KT P6SM FEW200
KLVS,KLVS 160523Z 1606/1706 05011KT P6SM FEW150 BKN250 FM161000 04010G20KT P6SM VCSH FEW035 BKN060 FM161200 05014G22KT 5SM -SHRA SCT015 BKN025 FM161600 05011G17KT 3SM RA BR OVC015 FM170000 03009KT 5SM -RA BR OVC008
KLWB,KLWB 160536Z 1606/1706 VRB03KT P6SM BKN100 FM161400 25004KT P6SM BKN150 FM161800 25007KT P6SM BKN080 FM162300 24005KT 5SM -SHRA BR OVC035 FM170300 24003KT 3SM -RA BR OVC015
KLWS,KLWS 160520Z 1606/1706 VRB05KT P6SM FEW250
KLWT,KLWT 160544Z 1606/1706 VRB06KT P6SM SCT150 SCT250
KLYH,KLYH 160536Z 1606/1706 VRB03KT P6SM SCT090 FM161400 23005KT P6SM BKN200 FM161900 23009KT P6SM SCT070 BKN120 FM162300 22007KT P6SM BKN070 OVC100 FM170300 21003KT 4SM -RA BR OVC035
KMAF,KMAF 160531Z 1606/1706 20010G27KT P6SM VCSH BKN100 FM161400 06008KT 6SM -SHRA BR VCTS BKN070CB FM161800 06012G20KT 6SM SHRA BR VCTS OVC011CB PROB30 1618/1624 4SM TSRA BR OVC008CB FM170000 04020G30KT 5SM -SHRA VCTS OVC012CB
KMBG,KMBG 160520Z 1606/1706 33011G17KT P6SM BKN040 FM161000 34013G20KT P6SM BKN220 FM161500 34015G24KT P6SM FEW250 FM170000 35009KT P6SM SCT250 FM170300 36006KT P6SM SCT250
KMBL,KMBL 160524Z 1606/1706 29007G18KT P6SM BKN050 FM161100 29007KT P6SM VCSH BKN035 FM161500 29009G15KT P6SM VCSH OVC028 FM161900 27012G19KT 6SM -SHRA OVC025 FM170200 30015G25KT 6SM -SHRA OVC022
KMBS,KMBS 160523Z 1606/1706 20007KT P6SM OVC070 FM161400 28013G20KT P6SM SCT025 BKN040 TEMPO 1614/1617 BKN025 OVC040 FM161900 26013KT P6SM BKN050 FM162300 24010KT P6SM SCT025 BKN040 PROB30 1623/1703 6SM -RA OVC025
KMCB,KMCB 160521Z 1606/1706 00000KT P6SM SKC FM161100 00000KT 3SM BR SCT005 TEMPO 1611/1613 1/2SM FG VV002 FM161400 VRB04KT P6SM SCT250 FM170000 VRB03KT P6SM SCT035 OVC150
KMCC,KMCC 160524Z 1606/1706 15011KT P6SM SKC FM160900 18008KT P6SM BKN025 TEMPO 1612/1616 BKN015 FM162100 18004KT P6SM BKN250
KMCE,KMCE 160520Z 1606/1706 VRB06KT P6SM SKC
KMCF,TAF KMCF 160100Z 1601/1707 09006KT 9999 FEW050 SCT080 QNH3003INS BECMG 1606/1607 06009KT 9999 FEW060 QNH3002INS BECMG 1615/1616 09010G15KT 9999 FEW020 SCT050 QNH2999INS TX31/1620Z TN21/1611Z
KMCI,KMCI 160520Z 1606/1706 34005KT P6SM FEW250 FM161700 32015KT P6SM SCT060 FM170000 34008KT P6SM SKC
KMCK,KMCK 160532Z 1606/1706 02004KT P6SM SCT120 BKN200 FM161800 33014KT P6SM SCT150 FM162300 35010KT P6SM SKC
KMCN,KMCN 160529Z 1606/1706 VRB03KT P6SM FEW250 FM161600 24005KT P6SM FEW250
KMCO,KMCO 160520Z 1606/1712 02004KT P6SM SKC FM161500 08008KT P6SM FEW040 FM170100 11004KT P6SM SKC
KMCW,KMCW 160520Z 1606/1706 31008KT P6SM SCT250 FM161100 30007KT P6SM BKN050 FM161600 32014G25KT P6SM BKN080 BKN140 FM162000 32017G27KT P6SM SCT110 FM170000 32013G22KT P6SM FEW230
KMDT,KMDT 160539Z 1606/1706 VRB04KT P6SM BKN150
KMDW,KMDW 160520Z 1606/1712 24007KT P6SM SCT080 FM160930 30009KT P6SM SCT040 FM161600 29015G25KT P6SM BKN035
KMEI,KMEI 160536Z 1606/1706 VRB04KT P6SM SKC
KMEM,KMEM 160520Z 1606/1712 17008KT P6SM VCTS BKN050CB FM160700 24005KT P6SM -SHRA VCTS SCT045CB BKN100 FM161200 27005KT P6SM VCSH OVC100 FM162000 28006KT P6SM OVC050 FM170100 25005KT P6SM OVC100 FM170300 33006KT P6SM BKN100
KMER,KMER 160520Z 1606/1706 VRB05KT P6SM SKC
KMEV,KMEV 160520Z 1606/1706 VRB03KT P6SM SKC FM162200 35006KT P6SM SKC FM170200 VRB03KT P6SM SKC
KMFD,KMFD 160539Z 1606/1706 22004KT P6SM BKN100 FM161400 23012G20KT P6SM SKC FM170100 30008KT P6SM BKN120
KMFE,KMFE 160520Z 1606/1706 13006KT P6SM FEW025 FM161600 14013KT P6SM SCT040 FM170300 12009KT P6SM FEW250
KMFR,KMFR 160520Z 1606/1706 VRB03KT P6SM SKC
KMGE,TAF KMGE 151302Z 1513/1619 VRB03KT 9999 SKC QNH3006INS BECMG 1513/1514 24010KT 9999 SKC QNH3004INS BECMG 1523/1524 23005KT 9999 SKC QNH3004INS BECMG 1610/1611 VRB03KT 9999 BKN250 QNH3006INS BECMG 1614/1615 24010KT 9999 BKN250 QNH3002INS TX27/1521Z TN13/1612Z LAST NO AMDS AFT 1520 NEXT 1611
KMGM,KMGM 160539Z 1606/1706 VRB03KT P6SM FEW250 FM161700 28007KT P6SM FEW250 FM170100 25005KT P6SM SCT250
KMGW,KMGW 160522Z 1606/1706 00000KT P6SM SKC FM161600 22010G18KT P6SM FEW150 FM162200 18004KT P6SM BKN080
KMHK,KMHK 160520Z 1606/1706 35007KT P6SM SCT200 FM161900 34011KT P6SM FEW200 FM170000 36005KT P6SM SKC
KMHR,KMHR 160524Z 1606/1706 15007KT P6SM SKC FM160900 18008KT P6SM BKN025 TEMPO 1612/1616 BKN015 FM162100 18004KT P6SM BKN250
KMHT,KMHT 160530Z 1606/1706 VRB03KT P6SM SKC FM161800 29005KT P6SM SCT150
KMIA,KMIA 160520Z 1606/1712 VRB05KT P6SM OVC050 FM161500 06012KT P6SM SCT035 SCT100 FM162300 08008KT P6SM SCT035 SCT250 FM170300 08005KT P6SM SCT250
KMIV,KMIV 160522Z 1606/1706 VRB02KT P6SM FEW250 FM161100 VRB02KT P6SM BKN200 FM161500 33005KT P6SM SCT150 FM161800 27005KT P6SM SCT200 FM162300 VRB02KT P6SM BKN150
KMKC,KMKC 160520Z 1606/1706 34005KT P6SM FEW250 FM161700 32013KT P6SM SCT060 FM170000 34005KT P6SM SKC
KMKE,KMKE 160534Z 1606/1712 28008KT P6SM BKN060 TEMPO 1606/1610 SCT060 FM161500 29011G19KT P6SM BKN040 FM161700 29013G21KT P6SM OVC030 FM162000 29014G22KT P6SM OVC035 FM170400 30012G22KT P6SM BKN030
KMKG,KMKG 160540Z 1606/1706 24014G22KT P6SM BKN100 FM161100 28007KT P6SM BKN050 FM161700 28009KT P6SM OVC025 FM162000 28010KT P6SM VCSH OVC035 FM170000 29013G20KT P6SM -SHRA OVC025
KMKL,KMKL 160520Z 1606/1706 20004KT P6SM -RA OVC050 FM161900 25010KT P6SM OVC050 FM170000 27005KT P6SM OVC100 FM170500 31005KT P6SM BKN250
KMKT,KMKT 160520Z 1606/1706 31006KT P6SM SCT090 FM161400 32014G24KT P6SM BKN040 FM162300 33016G24KT P6SM FEW250
KMLB,KMLB 160520Z 1606/1706 08007KT P6SM FEW035 FM161500 07009KT P6SM FEW035 FM170100 11005KT P6SM FEW030
KMLC,KMLC 160522Z 1606/1706 VRB05KT 6SM SHRA VCTS SCT050CB BKN090 TEMPO 1607/1611 VRB20G35KT 2SM TSRA BKN035CB FM161100 VRB05KT 6SM SHRA VCTS OVC012CB TEMPO 1611/1615 2SM TSRA OVC008CB FM161500 36005KT P6SM OVC008 FM161800 36010KT P6SM BKN015 FM162100 36010KT P6SM BKN035
KMLI,KMLI 160537Z 1606/1706 27006KT P6SM SKC FM160700 31008KT P6SM SKC FM161600 30012G20KT P6SM SCT040 FM161800 30015G25KT P6SM BKN050 FM170000 31010KT P6SM SCT050
KMLS,KMLS 160531Z 1606/1706 VRB06KT P6SM SCT250 FM161000 VRB06KT P6SM VCFG FEW002 SCT250 FM161600 VRB06KT P6SM FEW100 BKN200
KMLU,KMLU 160520Z 1606/1706 18005KT P6SM SKC FM161600 VRB05KT P6SM FEW035 BKN250 FM162100 04005KT P6SM BKN250 FM170000 01004KT P6SM OVC250 FM170200 36004KT P6SM OVC100
KMMH,KMMH 160520Z 1606/1706 VRB03KT P6SM SKC FM162200 14004KT P6SM FEW090 FM170300 VRB03KT P6SM SKC
KMMT,TAF KMMT 152300Z 1523/1705 VRB06KT 9999 SKC QNH2996INS TX25/1620Z TN12/1612Z
KMOB,KMOB 160520Z 1606/1706 00000KT P6SM FEW200 FM161600 14005KT P6SM SCT250
KMOD,KMOD 160524Z 1606/1706 35006KT P6SM SKC FM161000 33008KT P6SM SCT025 TEMPO 1612/1616 BKN015 FM162100 31004KT P6SM SKC
KMOT,KMOT 160527Z 1606/1706 30011KT P6SM FEW040 FM161700 33015KT P6SM SCT200 FM170200 05010KT P6SM SCT100
KMPV,KMPV 160531Z 1606/1706 00000KT P6SM SKC TEMPO 1607/1611 5SM BR FM161700 15004KT P6SM BKN250 FM170100 00000KT P6SM FEW250
KMQY,KMQY 160524Z 1606/1706 18003KT P6SM SCT150 FM160900 21004KT P6SM VCSH BKN100 FM161800 25006KT P6SM VCTS OVC070CB FM170300 30005KT P6SM SCT070 SCT150
KMRB,KMRB 160531Z 1606/1706 VRB03KT P6SM FEW150 FM160800 00000KT P6SM BKN140 FM161700 18005KT P6SM BKN080
KMRY,KMRY 160530Z 1606/1706 VRB03KT P6SM OVC020 FM161100 VRB04KT P6SM OVC015 FM161730 29005KT P6SM SCT020 FM162100 29010KT P6SM FEW020 FM170400 VRB04KT P6SM BKN018
KMSL,KMSL 160520Z 1606/1706 22005KT P6SM FEW060 BKN100 OVC200 FM160800 22005KT P6SM VCSH FEW060 BKN100 OVC200 FM161200 26008KT P6SM FEW060 BKN100 OVC200 FM170000 VRB05KT P6SM VCSH SCT035 BKN250
KMSN,KMSN 160534Z 1606/1706 30005KT P6SM BKN060 TEMPO 1606/1610 SCT060 FM161300 28008KT P6SM BKN050 FM161600 29012G20KT P6SM OVC030 FM162100 30014G23KT P6SM BKN035
KMSO,KMSO 160520Z 1606/1706 10004KT P6SM SKC FM161700 12010KT P6SM SKC FM170100 VRB03KT P6SM SKC
KMSP,KMSP 160520Z 1606/1712 30007KT P6SM OVC035 FM160900 31010KT P6SM OVC028 FM161400 31012G18KT P6SM BKN025 FM161800 32015G25KT P6SM OVC035 FM170200 33012G20KT P6SM SCT220
KMSS,KMSS 160531Z 1606/1706 19004KT P6SM SKC FM161400 21007KT P6SM SCT060 FM161800 21007G15KT P6SM SCT050 FM162200 VRB04KT P6SM BKN110
KMSY,KMSY 160521Z 1606/1712 VRB03KT P6SM SKC TEMPO 1611/1613 2SM BR FM161400 10008KT P6SM FEW250 FM170000 13005KT P6SM SCT040 BKN150
KMTC,TAF AMD KMTC 152000Z 1520/1701 25015G20KT 9999 FEW025 QNH2969INS BECMG 1521/1522 22009KT 9999 SCT055 QNH2988INS BECMG 1615/1616 27012KT 9999 BKN030 620404 QNH2977INS TX13/1522Z TN05/1609Z LAST NO AMDS AFT 1603 NEXT 1611
KMTH,KMTH 160545Z 1606/1706 07010KT P6SM VCSH SCT020 FM161600 07008KT P6SM SCT025
KMTJ,KMTJ 160529Z 1606/1706 14008KT P6SM SKC FM161100 15006KT P6SM SCT250 FM161900 34007KT P6SM SCT200 FM170100 28007KT P6SM SCT250 FM170300 15007KT P6SM SCT250
KMTN,KMTN 160531Z 1606/1706 00000KT P6SM SKC FM161100 VRB03KT P6SM BKN110 FM170500 18006KT P6SM OVC060 AMD NOT SKED
KMTW,KMTW 160520Z 1606/1706 28005KT P6SM SCT060 FM161000 27005KT P6SM BKN040 FM161400 29008G16KT P6SM BKN030 FM161800 29010G18KT P6SM BKN035 PROB30 1620/1624 -SHRA OVC025 FM170300 29014G23KT P6SM BKN030
KMUI,TAF KMUI 151900Z 1519/1701 21015KT 9999 SKC 510053 QNH2987INS BECMG 1521/1522 19006KT 9999 FEW050 510053 QNH2989INS TX23/1619Z TN10/1609Z LAST NO AMDS AFT 1519 NEXT 1611
KMUO,TAF AMD KMUO 152320Z 1523/1624 11012G18KT 9999 FEW180 QNH3001INS TEMPO 1519/1523 12015G25KT 510009 BECMG 1601/1602 10009KT 9999 SKC QNH3002INS BECMG 1610/1611 13010G15KT 9999 SKC QNH3011INS TX24/1523Z TN03/1613Z LAST NO AMDS AFT 1518 NEXT 1710
KMVN,KMVN 160520Z 1606/1706 30005KT P6SM SCT150
KMWH,KMWH 160520Z 1606/1706 01007KT P6SM FEW250 FM162000 08006KT P6SM SKC FM170300 03006KT P6SM SKC
KMXF,TAF KMXF 151900Z 1519/1701 VRB06KT 9999 SKC QNH2999INS TX26/1521Z TN11/1612Z LAST NO AMDS AFT 1602 NEXT 1611
KMYL,KMYL 160520Z 1606/1706 VRB05KT P6SM SKC
KMYR,KMYR 160520Z 1606/1706 24004KT P6SM SKC FM161400 27005KT P6SM SKC FM161700 21006KT P6SM SKC FM162300 20009KT P6SM FEW250
KNBG,TAF AMD KNBG 1604/1623 14002KT 4800 BR SKC QNH3002INS TEMPO 1604/1609 0800 BR VV002 TEMPO 1609/1613 3200 BR FEW002 FM161400 12009KT 9999 NSW BKN250 QNH2995INS AUTOMATED SENSOR METWATCH 1604 TIL 1613 T16/1610Z T30/1619Z AMD 0403Z FN00071
KNCA,TAF KNCA 1603/1703 VRB06KT 9999 SKC QNH3004INS BECMG 1613/1615 27008KT 9999 SCT050 QNH2990INS T14/1611Z T26/1620Z
KNEW,KNEW 160521Z 1606/1706 12005KT P6SM SKC FM161400 09005KT P6SM FEW250 FM170100 15005KT P6SM SCT250
KNFG,TAF KNFG 1603/1703 VRB06KT 9999 SCT030 BKN110 QNH2990INS TEMPO 1604/1610 SHRA BKN015 OVC035 FM161730 VRB05KT 9999 BKN010 OVC020 QNH2990INS FM161930 27009KT 9999 OVC010 QNH2987INS T17/1615Z T19/1623Z
KNFL,TAF KNFL 1523/1623 VRB06KT 9999 FEW250 QNH2994INS FM162000 06008KT 9999 FEW250 QNH3004INS LAST NO AMDS AFT 1601 NEXT 1714 1601 T04/1614Z T24/1623Z FS30201
KNFW,TAF KNFW 1523/1623 22009G17KT 9999 FEW070 SCT250 QNH2990INS FM161100 11006KT 8000 -SHRA BR OVC015 QNH2998INS TEMPO 1614/1619 24020G30KT 8000 -TSRA FEW012CB BKN020 OVC027 AUTOMATED SENSOR METWATCH 1523 TIL 1611 T29/1522Z T19/1612Z FN20048
KNGP,TAF KNGP 1523/1623 16010G18KT 9999 SCT020 SCT250 QNH2990INS FM160300 13010G18KT 9999 SCT030 SCT250 QNH2991INS AUTOMATED SENSOR METWATCH 1523 TIL 1618 T25/1512Z T32/1520Z FN00231
KNGU,TAF KNGU 1523/1623 20007G15KT 9999 FEW050 FEW300 QNH3000INS BECMG 1602/1603 21009KT 9999 SKC WSCONDS QNH3003INS BECMG 1608/1609 VRB06KT 9999 FEW070 SCT100 BKN140 QNH2998INS T14/1612Z T20/1619Z FN00231
KNHK,TAF KNHK 1523/1623 20010G18KT 9999 FEW110 QNH2992INS BECMG 1603/1605 20010KT 9999 FEW250 QNH2990INS T13/1608Z T18/1619Z FN00231
KNIP,TAF COR KNIP 1523/1623 08009KT 9999 SKC QNH2994INS BECMG 1602/1604 VRB06KT 9999 FEW040 QNH3005INS BECMG 1608/1610 VRB06KT 9999 FEW030 SCT100 BKN180 QNH2998INS T16/1611Z T26/1619Z COR 0130 FN00259
KNJK,TAF KNJK 1523/1623 VRB06KT 9999 VCTS SCT030CB BKN050 OVC090 QNH2970INS TEMPO 1523/1605 VRB28G38KT 1600 +TSRA BKN025CB OVC060 FM160600 26008KT 9999 VCSH SCT020 BKN050 OVC100 QNH2973INS LAST NO AMDS AFT 1601 NEXT 1715 T20/1612Z T30/1700Z FS30199
KNKT,TAF KNKT 1603/1703 VRB06KT 9999 SKC QNH3004INS BECMG 1613/1615 27008KT 9999 SCT050 QNH2990INS T14/1611Z T26/1620Z
KNKX,TAF KNKX 1603/1703 VRB06KT 9999 BKN030 OVC044 QNH2991INS TEMPO 1603/1609 SHRA BKN015 OVC035 FM160930 VRB04KT 9999 BKN015 OVC035 QNH2997INS FM161830 VRB05KT 9999 BKN010 OVC020 QNH2990INS FM162030 30009KT 9999 OVC010 QNH2987INS T17/1615Z T19/1623Z
KNLC,TAF KNLC 1523/1623 33009KT 9999 SKC QNH2973INS TEMPO 1605/1611 VRB06KT AUTOMATED SENSOR METWATCH 1601 TIL 1622 T12/1614Z T27/1700Z FS30201
KNQX,TAF KNQX 1523/1623 03005KT 9999 VCTS SCT010CB BKN040 BKN080 QNH2993INS TEMPO 1523/1604 VRB10G20KT 4800 TSRA SCT015CB BKN020 TEMPO 1604/1606 VRB25G35KT 9000 -TSRA BKN020CB OVC040 BECMG 1612/1613 08010G18KT 8000 -SHRA BKN020 OVC040 QNH2992INS AUTOMATED SENSOR METWATCH 1523 TIL 1610 T32/1516Z T26/1606Z FN00231
KNSE,TAF KNSE 1523/1623 VRB06KT 9999 SKC QNH3000INS FM160400 VRB06KT 9999 SKC QNH3003INS FM161800 VRB06KT 9999 FEW120 QNH3000INS AUTOMATED SENSOR METWATCH 1523 TIL 1711 T13/1612Z T29/1618Z FN00231
KNTD,TAF KNTD 1523/1623 VRB06KT 9999 VCSH FEW028 SCT120 QNH2981INS TEMPO 1523/1600 03009KT 6000 -SHRA SCT006 BKN023 FM160000 23008KT 9999 VCSH SCT018 BKN025 BKN120 QNH2980INS FM160300 VRB06KT 8000 -TSRA SCT012CB OVC023 QNH2987INS FM161000 36006KT 9000 -DZ SCT006 BKN012 QNH2991INS T16/1612Z T22/1623Z FS30167
KNTU,TAF COR KNTU 1523/1623 18010KT 9999 SCT050 QNH2994INS BECMG 1603/1605 24010KT 9999 SCT100 QNH3000INS BECMG 1608/1609 VRB06KT 9999 FEW070 SCT100 BKN140 QNH2998INS T14/1612Z T20/1619Z COR 0055 FN00259
KNUW,TAF KNUW 1523/1623 VRB06KT 9000 FU SCT070 BKN200 QNH2994INS BECMG 1605/1607 09010KT 9000 FU SCT060 BKN200 QNH2993INS TEMPO 1615/1621 VRB06KT FM162300 25010G15KT 9000 FU SCT050 BKN250 QNH2991INS T11/1612Z T20/1623Z FS30201
KNXP,TAF KNXP 1603/1703 15010KT 9999 SCT080 QNH2990INS BECMG 1609/1611 VRB06KT 9999 SCT100 QNH2992INS BECMG 1619/1621 10008KT 9999 SCT100 QNH3000INS T16/1614Z T26/1621Z
KNYG,TAF KNYG 1521/1621 20009KT 9999 SKC QNH2993INS BECMG 1601/1602 VRB06KT 9999 FEW070 QNH2995INS BECMG 1618/1619 18006KT 9999 SKC QNH2999INS T23/1521Z T10/1611Z
KNYL,TAF KNYL 1603/1703 01010G20KT 9999 FEW050 SCT070 QNH2978INS BECMG 1605/1607 VRB06KT 9999 FEW050 SCT070 521809 522709 523601 QNH2980INS FM162000 VRB06KT 9999 SCT040 500000 QNH2990INS T20/1610Z T31/1623Z
KNZY,TAF KNZY 1523/1623 VRB06KT 9999 VCTS FEW012CB OVC040 QNH2984INS TEMPO 1523/1605 VRB15G25KT 6000 TSRA BKN012CB OVC030 FM160500 24009KT 8000 BR VCTS BKN030CB OVC040 QNH2992INS TEMPO 1605/1610 VRB15G25KT 6000 TSRA BKN020CB BECMG 1612/1614 20009KT 8000 BR -SHRA BKN030 QNH2994INS FM161600 19009KT 9999 BKN030 QNH2997INS T17/1612Z T21/1621Z FS30099
KOAJ,KOAJ 160523Z 1606/1706 24005KT P6SM SKC FM162300 20006KT P6SM BKN200 AMD LTD TO CLD VIS AND WIND
KOAK,KOAK 160530Z 1606/1712 25008KT P6SM OVC025 FM161100 24005KT 6SM -DZ BR BKN017 OVC020 FM161730 24008KT P6SM BKN025 FM162200 29010KT P6SM FEW025 FEW200 FM170400 27008KT P6SM FEW020 SCT200 FM170700 VRB05KT P6SM SCT025 BKN040
KOFF,TAF KOFF 160200Z 1602/1708 34006KT 9999 FEW060 QNH3002INS BECMG 1608/1609 34006KT 9999 BKN100 QNH3011INS BECMG 1616/1617 33015G25KT 9999 FEW060 QNH3019INS BECMG 1622/1623 34009KT 9999 SKC QNH3015INS TX14/1602Z TN05/1612Z
KOFK,KOFK 160520Z 1606/1706 32006KT P6SM BKN060 FM161500 33012G24KT P6SM BKN050 FM161600 33018G28KT P6SM SCT040
KOGB,KOGB 160520Z 1606/1706 VRB03KT P6SM SCT250 TEMPO 1608/1612 4SM BR FM161500 23008KT P6SM FEW250 FM170000 VRB03KT P6SM BKN250
KOGD,KOGD 160520Z 1606/1706 09015G35KT P6SM SKC FM161800 09010G20KT P6SM SKC FM170000 09010KT P6SM SKC
KOKC,KOKC 160520Z 1606/1706 06007G14KT P6SM SHRA BKN035 FM161200 03007G12KT P6SM VCTS OVC120CB PROB30 1615/1621 4SM -SHRA BR OVC025 FM170100 01006KT P6SM BKN150
KOLF,KOLF 160531Z 1606/1706 VRB06KT P6SM SCT110
KOLM,KOLM 160520Z 1606/1706 00000KT 4SM HZ SKC FM161200 00000KT 1/2SM FG HZ SKC FM161900 22006KT 4SM HZ SKC FM170200 00000KT P6SM SKC
KOLS,KOLS 160538Z 1606/1706 18010G19KT P6SM VCSH SCT040 FM161200 VRB04KT P6SM FEW250 FM162000 25007KT P6SM SCT050 AMD NOT SKED
KOMA,KOMA 160520Z 1606/1706 34005KT P6SM SCT060 FM161500 33012G24KT P6SM BKN050 FM161700 33018G28KT P6SM BKN040
KONP,KONP 160520Z 1606/1706 20007KT 2SM BR OVC002 FM160900 17004KT 1/4SM FG VV002 FM161700 19014G21KT 2SM BR OVC003 AMD NOT SKED
KONT,KONT 160520Z 1606/1712 25006KT P6SM -SHRA BKN025 OVC035 FM160800 VRB04KT P6SM VCSH SCT025 OVC035 FM161200 VRB04KT P6SM SCT025 OVC035 FM161900 26009KT P6SM SCT020 BKN040 FM170500 VRB05KT P6SM BKN035
KOPF,KOPF 160520Z 1606/1706 VRB05KT P6SM OVC050 FM161500 06012KT P6SM SCT035 SCT100 FM162300 08008KT P6SM SCT035 SCT250 FM170300 08005KT P6SM SCT250
KORD,KORD 160520Z 1606/1712 24007KT P6SM SCT080 FM160900 30009KT P6SM SCT040 FM161600 29015G25KT P6SM BKN035
KORF,KORF 160528Z 1606/1706 21007KT P6SM SCT250 FM170200 23005KT P6SM -SHRA BKN090
KORH,KORH 160525Z 1606/1706 26008KT P6SM SKC FM160800 27004KT P6SM SKC FM161100 33004KT P6SM FEW250 FM161700 27004KT P6SM BKN200
KOTH,KOTH 160520Z 1606/1706 VRB03KT 6SM BR OVC005 FM160900 16006KT 1/2SM FG OVC003 FM161700 17006KT 6SM BR OVC004 FM161900 27009KT P6SM BKN007 FM170200 20005KT 6SM BR OVC005
KOTM,KOTM 160520Z 1606/1706 27007KT P6SM FEW150 FM161800 30014G22KT P6SM BKN090 BKN150 FM170000 32010G19KT P6SM FEW250
KOUN,KOUN 160520Z 1606/1706 12006G11KT P6SM SCT060 BKN150 TEMPO 1606/1607 VRB20G45KT 2SM TSRA BKN040CB FM160700 06007G14KT P6SM SHRA BKN035 FM161200 03007G12KT P6SM VCTS OVC120CB PROB30 1615/1621 4SM -SHRA BR OVC025 FM170100 01006KT P6SM BKN150
KOWB,KOWB 160520Z 1606/1706 VRB03KT P6SM BKN150 FM161600 27011G17KT P6SM SCT250 FM170000 32006KT P6SM FEW250
KOXR,KOXR 160537Z 1606/1706 26006KT P6SM OVC035 FM161900 28008KT P6SM SKC FM170300 VRB03KT P6SM SKC
KOZR,TAF COR KOZR 160013Z 1600/1706 VRB05KT 9999 SKC QNH3002INS TX29/1619Z TN12/1611Z LAST NO AMDS AFT 1606 NEXT 1708
KPAE,KPAE 160520Z 1606/1706 11006KT 6SM HZ SKC FM160900 09004KT 3SM HZ SKC FM161900 15005KT 5SM BR SKC FM170200 VRB03KT P6SM SKC
KPAH,KPAH 160520Z 1606/1706 VRB03KT P6SM BKN150 FM161600 28008KT P6SM FEW080 BKN250 FM170000 33005KT P6SM SCT250
KPAM,TAF KPAM 160300Z 1603/1709 06003KT 9999 SKC QNH3004INS BECMG 1614/1615 15009KT 9999 SCT025 QNH2991INS WND 19006KT AFT 1619 TX30/1618Z TN13/1610Z
KPBF,KPBF 160527Z 1606/1706 34008G15KT P6SM OVC050 TEMPO 1606/1610 32015G26KT 3SM TSRA BR SCT025 OVC040CB FM161000 34005KT 4SM TSRA BR OVC030CB FM162100 28006KT P6SM OVC035 FM170000 30005KT P6SM OVC250
KPBG,KPBG 160531Z 1606/1706 VRB06KT P6SM OVC060 FM160900 00000KT P6SM FEW100 FM161500 16004KT P6SM SCT240
KPBI,KPBI 160520Z 1606/1706 06007KT P6SM SCT030 OVC050 FM161500 07012KT P6SM SCT035 SCT100 FM162300 08008KT P6SM SCT035 SCT250 FM170500 10005KT P6SM SCT250
KPDK,KPDK 160529Z 1606/1706 22004KT P6SM FEW250 FM161500 25007KT P6SM FEW250 FM162300 24004KT P6SM BKN200
KPDT,KPDT 160520Z 1606/1706 13007KT P6SM SKC FM161800 33006KT P6SM SKC
KPDX,KPDX 160520Z 1606/1706 10010KT P6SM SKC WS020/10040KT FM160900 12005KT P6SM SKC WS020/10035KT FM161900 11013G20KT P6SM SKC
KPEQ,KPEQ 160531Z 1606/1706 16008KT P6SM VCTS BKN100CB FM161700 08008KT P6SM VCTS BKN030CB PROB30 1617/1621 4SM TSRA BR OVC015CB FM162200 05013KT 6SM SHRA BR VCTS OVC012CB
KPGA,KPGA 160541Z 1606/1706 VRB04KT P6SM SCT250 FM161700 05007KT P6SM BKN090 PROB30 1620/1624 4SM -SHRA BR OVC050 FM170000 09009G17KT P6SM SCT070 PROB30 1700/1704 4SM -SHRA BR BKN035 FM170400 VRB03KT P6SM BKN070
KPGD,KPGD 160558Z 1606/1706 06005KT P6SM FEW250 FM161400 09009KT P6SM FEW040 SCT250 FM170200 09004KT P6SM FEW250
KPGV,KPGV 160523Z 1606/1706 23006KT P6SM SKC FM170000 20007KT P6SM BKN080 AMD LTD TO CLD VIS AND WIND
KPHF,KPHF 160528Z 1606/1706 25006KT P6SM SCT250 FM170300 VRB03KT 6SM -SHRA BR OVC070 FM170500 VRB03KT 6SM RA BR OVC040
KPHL,KPHL 160522Z 1606/1712 VRB03KT P6SM SCT250 FM161000 33005KT P6SM BKN200 FM161800 25005KT P6SM SCT100 FM162200 20005KT P6SM BKN150 FM170000 VRB03KT P6SM BKN100
KPHX,KPHX 160538Z 1606/1712 23012G20KT P6SM SHRA SCT040 BKN080 BKN150 TEMPO 1606/1609 VRB06KT TS BKN050CB OVC090 FM160900 VRB06KT P6SM SCT060 BKN080 BKN150 TEMPO 1614/1618 15007KT -RA BKN050 BKN080 FM161800 24010G21KT P6SM VCTS SCT070CB BKN150 TEMPO 1620/1622 10020G29KT FM162200 06006KT P6SM FEW070 SCT180 SCT250 FM170400 VRB05KT P6SM SKC
KPIA,KPIA 160520Z 1606/1706 23005KT P6SM SCT250 FM160900 31005KT P6SM SKC FM161700 31012G20KT P6SM SCT050 FM170000 32009KT P6SM SCT250
KPIB,KPIB 160536Z 1606/1706 00000KT P6SM SKC FM160900 00000KT 4SM BR SKC FM161100 00000KT 1/2SM FG BKN001 FM161400 16004KT P6SM SKC
KPIE,KPIE 160558Z 1606/1706 08005KT P6SM SKC FM161400 08007KT P6SM FEW030 FM162200 30006KT P6SM FEW040 FEW250 FM170200 10005KT P6SM FEW250
KPIH,KPIH 160520Z 1606/1706 06007KT P6SM SKC FM162100 03005KT P6SM SKC FM170200 10005KT P6SM SKC
KPIR,KPIR 160520Z 1606/1706 33015G22KT P6SM OVC040 FM161100 34010G18KT P6SM SCT250 FM161500 34016G22KT P6SM FEW250 FM162300 34013KT P6SM FEW250 FM170200 36006KT P6SM SCT250
KPIT,KPIT 160522Z 1606/1712 20003KT P6SM FEW250 FM161600 22010G18KT P6SM FEW150 FM162200 VRB04KT P6SM BKN080
KPKB,KPKB 160541Z 1606/1706 00000KT P6SM SCT150 FM161400 20004KT P6SM SCT110 FM161700 22007G16KT P6SM SCT150 FM162300 21004KT P6SM SCT130
KPLN,KPLN 160524Z 1606/1706 VRB03KT P6SM -SHRA OVC025 FM160700 29004KT P6SM VCSH OVC025 FM161600 28007G15KT P6SM VCSH BKN025 FM162200 29008KT 6SM -SHRA BR BKN022
KPMD,KPMD 160546Z 1606/1706 22010KT P6SM SCT080 SCT120 FM160800 VRB05KT P6SM SCT010 SCT050 FM161800 23005KT P6SM SCT250 FM170000 24012KT P6SM SKC
KPNA,KPNA 160521Z 1606/1706 VRB04KT P6SM SKC FM161800 17006KT P6SM SKC FM170500 30005KT P6SM SKC
KPNC,KPNC 160520Z 1606/1706 05009G14KT P6SM -SHRA VCTS BKN050CB FM160900 04006KT P6SM VCSH BKN140 FM161400 03008KT P6SM BKN220 FM161900 01010G15KT P6SM BKN190
KPNE,KPNE 160522Z 1606/1706 VRB03KT P6SM SCT250 FM161000 33005KT P6SM BKN200 FM161800 27005KT P6SM SCT100 FM162200 VRB03KT P6SM BKN200
KPNS,KPNS 160520Z 1606/1706 00000KT P6SM SKC FM161600 13005KT P6SM SCT250
KPOE,TAF KPOE 152300Z 1523/1705 17009KT 9999 SKC QNH2999INS BECMG 1602/1603 VRB06KT 9999 SKC QNH3004INS BECMG 1608/1609 VRB06KT 3200 BR BKN005 QNH3002INS TEMPO 1611/1613 0800 FG BKN003 BECMG 1613/1614 14007KT 8000 BR BKN007 QNH3003INS BECMG 1615/1616 14009KT 9999 BKN010 QNH3004INS BECMG 1617/1618 14009KT 9999 SCT025 QNH2997INS BECMG 1623/1624 VRB06KT 9999 SKC QNH2996INS TX30/1620Z TN17/1612Z LAST NO AMDS AFT 1605 NEXT 1615
KPOU,KPOU 160526Z 1606/1706 01003KT P6SM SKC FM160700 VRB03KT P6SM FEW250 FM161400 VRB03KT P6SM BKN140 FM161900 26004KT P6SM BKN100
KPQI,KPQI 160559Z 1606/1706 00000KT 3/4SM BR OVC001 FM160700 00000KT 1/4SM FG OVC002 FM161200 27003KT 2SM BR BKN003 FM161300 27003KT P6SM FEW070 FM161500 28003KT P6SM FEW250 FM170200 36002KT P6SM SCT100
KPRB,KPRB 160641Z 1606/1706 29008KT P6SM BKN015 FM161700 VRB03KT P6SM SCT015 FM162100 22010KT P6SM SKC FM170500 VRB03KT P6SM SKC
KPRC,KPRC 160541Z 1606/1706 VRB05KT 6SM BR VCTS OVC060CB TEMPO 1606/1610 4SM SHRA BR OVC010 FM161200 VRB04KT 6SM -SHRA BR BKN060 TEMPO 1614/1618 4SM TSRA BR OVC003CB
KPSC,KPSC 160520Z 1606/1706 VRB04KT P6SM SKC FM161800 35006KT P6SM SKC
KPSF,KPSF 160526Z 1606/1706 24006KT P6SM SKC FM161200 29004KT P6SM BKN120 FM161600 29004KT P6SM OVC150 FM162100 27003KT P6SM SCT150
KPSM,KPSM 160530Z 1606/1706 14005KT P6SM SKC
KPSP,KPSP 160520Z 1606/1706 33005KT P6SM VCSH BKN100 FM161300 VRB05KT P6SM SCT100
KPTK,KPTK 160523Z 1606/1706 20007KT P6SM BKN100 OVC250 FM161400 28013G20KT P6SM SCT025 BKN040 TEMPO 1614/1617 BKN025 OVC040 FM161900 26013KT P6SM BKN050 FM170000 24010KT P6SM SCT025 BKN040 PROB30 1700/1704 6SM -RA OVC025
KPUB,KPUB 160544Z 1606/1706 02010KT P6SM FEW100 FEW250 FM161200 08005KT P6SM BKN050 OVC100 FM161600 11007KT P6SM BKN050 OVC080 FM170300 02005KT P6SM SCT050 BKN200
KPUW,KPUW 160520Z 1606/1706 09003KT P6SM FEW250 FM161200 09012KT P6SM FEW250 FM161900 VRB05KT P6SM SKC
KPVD,KPVD 160525Z 1606/1706 00000KT P6SM FEW250 FM161200 31003KT P6SM FEW200 FM161700 25005KT P6SM BKN150 FM162300 27004KT P6SM SCT200
KPVU,KPVU 160520Z 1606/1706 VRB06KT P6SM SKC FM161900 34008KT P6SM SKC
KPVW,KPVW 160521Z 1606/1706 19011KT P6SM BKN250 WS007/21030KT TEMPO 1609/1613 4SM SHRA BR OVC025 FM162000 05015KT 6SM SHRA BR OVC020
KPWM,KPWM 160530Z 1606/1706 00000KT 6SM BR SKC FM161300 VRB04KT P6SM SCT150
KPWT,KPWT 160520Z 1606/1706 04007KT 6SM HZ SKC FM160900 06005KT 4SM HZ SKC TEMPO 1613/1617 3/4SM BR FM162100 14009KT 5SM BR SKC FM170300 19003KT P6SM SKC
KRAP,KRAP 160520Z 1606/1706 33011KT P6SM SCT035 FM161600 35015G25KT P6SM SKC
KRBG,KRBG 160520Z 1606/1706 VRB03KT 5SM HZ SKC
KRBL,KRBL 160524Z 1606/1706 16008KT P6SM SKC FM161200 32005KT P6SM SKC
KRCA,TAF KRCA 150758Z 1507/1609 32012G18KT 9999 FEW200 QNH2975INS BECMG 1514/1515 33020G35KT 9999 BKN060 QNH2999INS BECMG 1522/1523 32012G20KT 9999 BKN030 QNH3010INS BECMG 1600/1601 32012KT 9999 BKN025 OVC040 QNH3017INS TX16/1521Z TN09/1511Z LAST NO AMDS AFT 1502 NEXT 1711
KRDD,KRDD 160524Z 1606/1706 VRB04KT P6SM SKC
KRDG,KRDG 160522Z 1606/1706 VRB03KT P6SM SCT200 FM161500 30005KT P6SM SCT100 FM162100 VRB03KT P6SM BKN150
KRDM,KRDM 160520Z 1606/1706 16005KT P6SM SKC FM162100 32010KT P6SM SKC
KRDR,TAF AMD KRDR 160500Z 1605/1708 33012G18KT 9999 OVC040 620404 QNH3002INS BECMG 1614/1615 33020G25KT 9999 SCT025 OVC035 620403 QNH3024INS BECMG 1615/1616 34020G30KT 9999 BKN040 620403 510003 QNH3025INS BECMG 1700/1701 34012KT 9999 FEW045 QNH3031INS TX04/1621Z TNM02/1702Z
KRDU,KRDU 160540Z 1606/1706 21004KT P6SM FEW110 SCT250 WS012/25032KT FM161000 24006KT P6SM FEW110 SCT250 FM170100 20004KT P6SM VCSH SCT060 BKN080 BKN200
KRFD,KRFD 160520Z 1606/1706 30008KT P6SM SCT040 FM161500 30015G25KT P6SM BKN035
KRHI,KRHI 160520Z 1606/1706 28008KT P6SM VCSH OVC010 FM161000 29006KT P6SM -SHRA OVC009 FM161600 29011G19KT P6SM -SHRA OVC014 FM162300 30010G18KT 5SM -SHSN BR BKN018
KRIC,KRIC 160528Z 1606/1706 VRB05KT P6SM SCT250 FM162100 24007KT P6SM OVC080 FM170000 19004KT 6SM RA BR OVC060 FM170500 18004KT 6SM RA BR OVC020
KRIL,KRIL 160529Z 1606/1706 06005KT P6SM SKC FM162300 31007KT P6SM FEW250 FM170200 25006KT P6SM FEW250
KRIV,TAF AMD KRIV 160450Z 1604/1710 32012KT 9999 VCTS SCT015 BKN020 BKN080CB QNH2995INS TEMPO 1604/1608 VRB12G20KT 8000 -TSRA BKN015 BKN022 OVC080CB BECMG 1607/1608 VRB04KT 9999 VCSH SCT005 BKN010 OVC020 QNH2995INS BECMG 1611/1612 VRB04KT 8000 BR BKN005 OVC010 QNH2995INS BECMG 1617/1618 32006KT 9999 NSW BKN010 BKN020 QNH3002INS BECMG 1618/1619 32009KT 9999 SCT010 BKN025 QNH2999INS BECMG 1701/1702 32006KT 9999 FEW015 QNH3002INS TX24/1622Z TN16/1613Z
KRIW,KRIW 160521Z 1606/1706 03006KT P6SM SCT060 FM161100 32006KT P6SM SKC FM161400 VRB05KT P6SM SKC FM161800 07007KT P6SM SKC FM170500 31006KT P6SM SKC
KRKD,KRKD 160530Z 1606/1706 00000KT 1/2SM FG VV001 FM161300 VRB03KT 4SM BR OVC003 FM161600 VRB04KT P6SM SCT008 FM162300 00000KT P6SM OVC150 AMD NOT SKED
KRKS,KRKS 160521Z 1606/1706 07015KT P6SM FEW070 FM161000 07011KT P6SM SKC FM170500 VRB05KT P6SM SKC
KRME,KRME 160520Z 1606/1706 13003KT P6SM FEW250 FM161500 16006KT P6SM FEW100 FM162200 12003KT P6SM SCT100
KRNH,KRNH 160520Z 1606/1706 30008KT P6SM BKN035 FM161200 30010KT P6SM OVC026 FM161400 31011KT P6SM OVC025 FM161800 31016G24KT P6SM BKN035
KRNO,KRNO 160520Z 1606/1706 VRB03KT P6SM SKC FM162200 09006KT P6SM SKC FM170300 VRB03KT P6SM SKC
KROA,KROA 160536Z 1606/1706 29004KT P6SM SCT100 FM161400 26005KT P6SM SCT040 BKN150 FM161800 25010KT 6SM -SHRA BR BKN060 OVC120 FM162300 24007KT 5SM -RA BR OVC060 TEMPO 1702/1704 3SM -RA BR OVC035
KROC,KROC 160544Z 1606/1706 22004KT P6SM FEW070 FM160800 20004KT P6SM SCT045 FM161100 20005KT P6SM SCT100 FM161500 23010KT P6SM SCT100 FM170100 20006KT P6SM BKN070
KROG,KROG 160522Z 1606/1706 VRB04KT 6SM SHRA VCTS SCT050CB BKN080 TEMPO 1606/1610 VRB15G30KT 3SM -TSRA BKN035CB FM161000 VRB04KT 5SM -SHRA VCTS OVC050CB FM161600 35009KT P6SM BKN100 OVC250
KROW,KROW 160523Z 1606/1706 14007KT P6SM SCT150 SCT200 FM161000 36016G26KT P6SM VCSH BKN060 FM161700 01018G30KT 5SM RA BR OVC025 FM162000 03015G25KT 6SM -RA OVC015 FM170100 03011KT 4SM -RA BR OVC012
KRSL,KRSL 160520Z 1606/1706 36007KT P6SM FEW250 FM161500 34009KT P6SM SCT250 FM161800 35012KT P6SM FEW250 FM170100 35005KT P6SM SKC
KRST,KRST 160523Z 1606/1706 31009KT P6SM OVC035 FM161400 31012G24KT P6SM BKN028 FM161900 31015G26KT P6SM BKN035 FM162300 32016G25KT P6SM BKN045 FM170200 33013G23KT P6SM SCT100
KRSW,KRSW 160558Z 1606/1706 06005KT P6SM FEW250 FM161400 09009KT P6SM FEW040 SCT250 FM170200 09004KT P6SM FEW250
KRUT,KRUT 160531Z 1606/1706 00000KT P6SM SKC FM160700 11004KT P6SM SCT250 FM161400 35004KT P6SM FEW250
KRVS,KRVS 160617Z 1606/1706 01006KT 6SM SHRA VCTS SCT050CB BKN080 TEMPO 1606/1610 4SM -TSRA BKN050CB FM161200 01007KT P6SM BKN120 OVC250 FM161800 01011KT P6SM SCT150 BKN250
KRWF,KRWF 160520Z 1606/1706 31006KT P6SM BKN070 FM161400 32015G25KT P6SM SCT035 FM162300 33012G20KT P6SM FEW250
KRWI,KRWI 160540Z 1606/1706 20004KT P6SM FEW110 SCT250 WS012/25032KT FM161100 24006KT P6SM FEW110 SCT250 FM170200 21004KT P6SM VCSH SCT060 BKN080 BKN200
KRWL,KRWL 160520Z 1606/1706 04007KT P6SM SCT150 FM162000 36008KT P6SM SCT200
KRYY,KRYY 160529Z 1606/1706 23004KT P6SM FEW250 FM161500 26007KT P6SM FEW250 FM162300 24004KT P6SM BKN200
KSAC,KSAC 160524Z 1606/1706 20006KT P6SM SKC FM160900 18008KT P6SM BKN025 TEMPO 1612/1616 BKN015 FM162100 18004KT P6SM BKN250
KSAF,KSAF 160523Z 1606/1706 14012G20KT P6SM VCSH SCT060 BKN090 FM161200 13018G30KT 6SM -SHRA BR SCT030 BKN050 FM161800 10014G20KT 4SM RA BR OVC030 FM170000 03009KT P6SM -RA OVC020
KSAN,KSAN 160520Z 1606/1712 VRB04KT P6SM VCSH FEW015 BKN045 FM161200 VRB04KT P6SM SCT025 OVC040 FM162000 31009KT P6SM SCT040 FM170200 31005KT P6SM BKN025
KSAT,KSAT 160532Z 1606/1712 16008KT P6SM SCT015 BKN250 FM160900 16006KT P6SM OVC010 FM161600 15008KT P6SM SCT060 SCT250 FM170000 11009KT P6SM BKN060 OVC250 FM170600 07010KT P6SM VCTS OVC020CB FM170900 03012KT 5SM -TSRA OVC009CB
KSAV,KSAV 160520Z 1606/1706 00000KT P6SM SKC FM161500 24004KT P6SM SKC FM161900 19006KT P6SM FEW250 FM170100 19003KT P6SM SCT250
KSAW,KSAW 160528Z 1606/1706 28004KT P6SM SCT011 OVC070 FM160900 30005KT P6SM -SHRA BKN035 FM161200 30005KT P6SM BKN030 FM162000 30008KT 6SM -SHRA BR OVC019 FM170200 32009KT 4SM -SHSNRA BR OVC009
KSBA,KSBA 160537Z 1606/1706 VRB03KT P6SM OVC025 FM161800 16008KT P6SM SCT030 FM162000 23008KT P6SM SKC FM170300 VRB03KT P6SM SKC
KSBD,KSBD 160520Z 1606/1706 25006KT P6SM VCSH BKN015 OVC025 FM161200 VRB04KT P6SM BKN025 OVC035 FM161900 25006KT P6SM SCT025 BKN040 FM162200 26008KT P6SM BKN040 FM170300 VRB05KT P6SM BKN035
KSBM,KSBM 160534Z 1606/1706 30005KT P6SM BKN060 TEMPO 1606/1610 SCT060 FM161300 29012G19KT P6SM OVC030 FM162200 29015G23KT P6SM VCSH BKN025 FM170100 30013G21KT P6SM BKN030
KSBN,KSBN 160520Z 1606/1706 21008KT P6SM SCT080 FM161400 28009KT P6SM FEW250 FM161600 29012G18KT P6SM BKN060 FM170300 30011KT P6SM VCSH OVC040
KSBP,KSBP 160537Z 1606/1706 VRB03KT P6SM OVC022 FM160900 VRB03KT 6SM BR OVC015 FM161600 VRB03KT P6SM OVC022 FM162000 30010KT P6SM SKC FM170300 VRB03KT P6SM SKC
KSBY,KSBY 160528Z 1606/1706 18006KT P6SM SCT250 FM161500 29004KT P6SM BKN250 FM170100 16005KT 6SM -SHRA BKN080
KSCK,KSCK 160524Z 1606/1706 33004KT P6SM SKC FM161000 33008KT P6SM SCT025 TEMPO 1612/1616 BKN015 FM162100 18004KT P6SM BKN250
KSDF,KSDF 160532Z 1606/1712 VRB04KT P6SM FEW150 FM161200 18004KT P6SM BKN100 FM161500 23006KT P6SM SCT100 BKN250 FM161900 26011G19KT P6SM BKN250 FM170000 30008KT P6SM SCT250
KSDL,KSDL 160538Z 1606/1706 23012G18KT P6SM -TSRA SCT040 BKN050CB OVC100 FM160900 12004KT P6SM VCTS BKN090CB FM161200 23005KT P6SM VCTS SCT100CB FM161800 VRB06KT P6SM VCTS SCT070CB FM162000 19010G18KT P6SM SCT250 FM162200 13004KT P6SM FEW250
KSDY,KSDY 160531Z 1606/1706 33009KT P6SM SCT180
KSEA,KSEA 160520Z 1606/1712 04009KT 5SM HZ SKC FM160900 04007KT 3SM HZ SKC FM162200 29006KT 5SM HZ SKC FM170300 27005KT P6SM SKC
KSEZ,KSEZ 160545Z 1606/1706 04012G22KT 6SM -SHRA OVC040 TEMPO 1606/1609 4SM SHRA BR OVC015 FM161200 VRB04KT 6SM -SHRA BR OVC035 TEMPO 1614/1618 4SM SHRA BR OVC023 FM161800 VRB03KT 6SM -SHRA BR OVC070 PROB30 1618/1624 4SM TSRA BR OVC020CB
KSFB,KSFB 160520Z 1606/1706 01003KT P6SM SKC FM161500 09007KT P6SM FEW040 FM170100 13003KT P6SM SKC
KSFF,KSFF 160520Z 1606/1706 VRB05KT P6SM FEW250
KSFO,KSFO 160530Z 1606/1712 21006KT P6SM OVC020 FM161900 24010KT P6SM FEW025 FM162300 28012KT P6SM FEW250 FM170400 25007KT P6SM FEW020 SCT200 FM170800 VRB05KT P6SM BKN030
KSGF,KSGF 160520Z 1606/1706 VRB04KT P6SM -SHRA BKN080 TEMPO 1606/1610 -TSRA BKN080CB FM161000 VRB04KT P6SM VCSH BKN190 FM161500 34007KT P6SM SCT250 FM161900 33009KT P6SM SCT250
KSGJ,KSGJ 160520Z 1606/1706 32005KT P6SM SKC FM160700 11004KT P6SM SKC FM161600 08008KT P6SM SCT250
KSGR,KSGR 160520Z 1606/1706 VRB04KT P6SM FEW015 SCT250 TEMPO 1610/1613 6SM BR FM161400 15007KT P6SM SCT025 SCT250 FM162000 12009KT P6SM VCTS SCT050CB SCT250 FM170200 VRB05KT P6SM FEW040 BKN250
KSGU,KSGU 160520Z 1606/1706 14006KT P6SM SKC FM161500 VRB05KT P6SM SKC
KSHR,KSHR 160531Z 1606/1706 VRB06KT P6SM FEW250
KSHV,KSHV 160520Z 1606/1706 18005KT P6SM FEW280 FM161200 VRB04KT P6SM SCT010 SCT120 BKN250 FM161800 34006KT P6SM VCTS BKN100CB FM170000 36010KT P6SM OVC100 FM170300 35008KT P6SM OVC050
KSJC,KSJC 160530Z 1606/1706 17007KT P6SM OVC025 FM161730 25004KT P6SM FEW030 FM162200 32008KT P6SM SKC FM170400 VRB05KT P6SM SCT250
KSJS,KSJS 160537Z 1606/1706 VRB03KT P6SM FEW250 FM162000 23006KT P6SM -SHRA OVC050 FM162300 VRB05KT P6SM VCSH OVC060
KSJT,KSJT 160548Z 1606/1706 18007KT P6SM BKN250 FM161400 14005KT P6SM BKN035 FM161900 04010KT P6SM OVC050 FM162100 03013KT 6SM SHRA VCTS BKN050CB FM170300 03014G20KT 6SM SHRA BR VCTS OVC015CB
KSKA,TAF KSKA 160300Z 1603/1709 04009KT 9999 FEW250 QNH3012INS TX22/1623Z TN08/1612Z
KSKF,TAF KSKF 160200Z 1602/1708 14013KT 9999 FEW065 SCT250 QNH2992INS TEMPO 1602/1605 14016G25KT BECMG 1605/1606 14009KT 9999 SCT014 SCT250 QNH2991INS BECMG 1607/1608 14006KT 9999 SCT007 BKN012 QNH2990INS BECMG 1609/1610 14004KT 9000 BR BKN007 OVC012 QNH2994INS BECMG 1613/1614 14006KT 9999 NSW SCT010 BKN015 BKN250 QNH2997INS BECMG 1615/1616 12008KT 9999 SCT040 SCT250 QNH2987INS BECMG 1702/1703 10007KT 9999 VCSH BKN060 QNH2989INS TX33/1620Z TN22/1611Z LAST NO AMDS AFT 1605 NEXT 1610
KSLC,KSLC 160520Z 1606/1712 14004KT P6SM SKC FM161900 32009KT P6SM SKC FM170300 17007KT P6SM SKC
KSLE,KSLE 160520Z 1606/1706 35004KT P6SM SKC FM161800 25007KT P6SM SKC
KSLI,TAF KSLI 160500Z 1605/1711 VRB06KT 9000 BR BKN024 OVC040 QNH2990INS TEMPO 1605/1608 -SHRA 08025G35KT BECMG 1615/1616 VRB06KT 8000 BR BKN003 OVC011 QNH2998INS BECMG 1619/1620 VRB06KT 8000 DZ BR SCT004 OVC011 QNH2997INS BECMG 1707/1708 VRB06KT 9999 NSW SCT018 QNH3002INS BECMG 1709/1710 VRB06KT 8000 BR SCT011 BKN018 QNH3001INS BECMG 1710/1711 VRB06KT 8000 BR SCT011 SCT018 QNH2999INS TX20/1700Z TN17/1711Z
KSLK,KSLK 160531Z 1606/1706 00000KT P6SM SKC FM161400 22006KT P6SM BKN200 FM162300 VRB04KT P6SM BKN050
KSLN,KSLN 160520Z 1606/1706 34005KT P6SM FEW240 FM161500 34007KT P6SM FEW250 FM161700 34012KT P6SM FEW240 FM170000 35007KT P6SM SKC
KSME,KSME 160537Z 1606/1706 VRB03KT P6SM FEW150 FM161600 24008KT P6SM VCSH OVC060 FM161800 25009KT 5SM SHRA VCTS OVC050CB FM162300 VRB05KT P6SM VCSH OVC060 FM170400 VRB03KT P6SM SCT100
KSMF,KSMF 160524Z 1606/1706 14010KT P6SM SKC FM160900 15008KT P6SM BKN025 TEMPO 1612/1616 BKN015 FM162100 18004KT P6SM BKN250
KSMN,KSMN 160520Z 1606/1706 31005KT P6SM SKC
KSMO,KSMO 160546Z 1606/1706 VRB03KT P6SM VCSH BKN025 BKN035 FM161000 VRB03KT 6SM BR BKN015 BKN025 FM161700 24006KT P6SM BKN030 FM162100 26006KT P6SM BKN050 FM170400 VRB03KT P6SM SCT015 BKN025
KSMX,KSMX 160537Z 1606/1706 VRB03KT P6SM BKN015 OVC025 FM161700 VRB03KT P6SM OVC022 FM162000 30010KT P6SM SKC FM170300 VRB03KT 5SM BR OVC007
KSNA,KSNA 160523Z 1606/1706 VRB04KT P6SM -SHRA SCT025 BKN040 TEMPO 1606/1608 3SM SHRA BR BKN025 OVC030 FM160800 VRB03KT P6SM VCSH FEW025 BKN040 FM161200 VRB04KT P6SM SCT025 BKN040 FM162000 22008KT P6SM SCT040 FM170200 23005KT P6SM BKN040 FM170400 VRB04KT P6SM BKN025
KSNS,KSNS 160530Z 1606/1706 VRB05KT P6SM OVC022 FM161100 VRB04KT P6SM OVC018 FM161730 29004KT P6SM BKN025 FM162000 29012KT P6SM FEW025 FM170500 VRB05KT P6SM BKN025
KSNY,KSNY 160520Z 1606/1706 35010KT P6SM BKN150 FM161700 34014G25KT P6SM SCT120 FM170000 02007KT P6SM SCT120
KSOA,KSOA 160548Z 1606/1706 16006KT P6SM BKN250 FM161200 VRB06KT P6SM BKN012 FM161700 14008KT P6SM SCT100 BKN250 FM162200 10009KT P6SM VCTS BKN050CB FM170100 02012G18KT P6SM -SHRA VCTS BKN035CB FM170400 02011KT 5SM SHRA VCTS OVC015CB
KSPI,KSPI 160520Z 1606/1706 23005KT P6SM SCT100 FM161100 31008KT P6SM SKC FM161700 30010G20KT P6SM SCT050 FM170000 32010KT P6SM SCT250
KSPS,KSPS 160520Z 1606/1706 17009G15KT P6SM BKN190 FM161200 05010G17KT 6SM -SHRA BR OVC011 FM162100 02013KT P6SM OVC025 TEMPO 1621/1624 P6SM -RA OVC025 FM170000 02008KT P6SM OVC050
KSRQ,KSRQ 160558Z 1606/1706 07005KT P6SM SKC FM161400 08009KT P6SM FEW040 FEW250 FM161800 14008KT P6SM FEW040 FEW250 FM162200 30006KT P6SM FEW040 FEW250 FM170200 10005KT P6SM FEW250
KSSC,TAF KSSC 152300Z 1523/1705 22006KT 9999 SKC QNH3005INS BECMG 1617/1618 25009KT 9999 SKC QNH2994INS TX29/1620Z TN12/1612Z LAST NO AMDS AFT 1523 NEXT 1607
KSSF,KSSF 160532Z 1606/1706 14006KT P6SM SCT015 BKN250 FM160900 13004KT P6SM OVC010 FM161600 14008KT P6SM SCT060 SCT250 FM170000 11008KT P6SM BKN060 OVC250
KSSI,KSSI 160520Z 1606/1706 VRB03KT P6SM SKC FM161500 09005KT P6SM SCT250
KSTC,KSTC 160520Z 1606/1706 31012G20KT P6SM OVC035 FM161400 32012G22KT P6SM BKN025 FM161800 32016G25KT P6SM BKN035 FM162300 33014G25KT P6SM SCT250
KSTJ,KSTJ 160520Z 1606/1706 34005KT P6SM FEW250 FM161700 32015KT P6SM SCT060 FM170000 34008KT P6SM SKC
KSTL,KSTL 160520Z 1606/1712 VRB04KT P6SM FEW250 FM161100 33006KT P6SM SCT250 FM161800 33010KT P6SM SCT250 FM170700 31005KT P6SM FEW250
KSTS,KSTS 160530Z 1606/1706 VRB03KT P6SM OVC015 FM161030 00000KT 6SM -DZ BR OVC012 FM161630 VRB05KT P6SM BKN020 OVC030 FM161900 19008KT P6SM SCT030 SCT200 FM170400 VRB03KT P6SM BKN025
KSUA,KSUA 160520Z 1606/1706 07005KT P6SM SCT035 FM161500 08010KT P6SM SCT035 FM170100 09004KT P6SM FEW030 AMD NOT SKED
KSUN,KSUN 160520Z 1606/1712 31010KT P6SM SKC FM161900 13007KT P6SM SKC FM170200 31011KT P6SM SKC AMD LTD TO CLD VIS AND WIND TIL 161400
KSUS,KSUS 160520Z 1606/1706 VRB04KT P6SM FEW250 FM161100 33006KT P6SM SCT250 FM161800 33010KT P6SM SCT250
KSUU,TAF AMD KSUU 160320Z 1603/1709 23025G35KT 9999 SCT020 510003 QNH2984INS TEMPO 1603/1609 BKN015 BECMG 1611/1612 23015G25KT 9999 SCT010 QNH2992INS BECMG 1700/1701 23012G18KT 9999 SKC QNH2996INS TX24/1623Z TN12/1614Z
KSUX,KSUX 160520Z 1606/1706 32005KT P6SM SKC FM161500 33012G18KT P6SM SCT045 FM161700 32016G23KT P6SM SKC FM170000 33009KT P6SM FEW250
KSWF,KSWF 160524Z 1606/1712 VRB03KT P6SM SCT080 FM161400 33005KT P6SM BKN150 FM161900 28007KT P6SM SCT100 FM170000 VRB03KT P6SM SCT070 AMD NOT SKED
KSWO,KSWO 160520Z 1606/1706 06008KT P6SM -SHRA VCTS BKN050CB TEMPO 1606/1607 4SM -TSRA BKN050CB FM161100 04006KT P6SM BKN100 BKN200 FM161300 03007KT P6SM BKN190 FM161500 02008G14KT P6SM OVC210
KSYM,KSYM 160537Z 1606/1706 VRB03KT P6SM FEW250 FM161800 23007KT P6SM VCSH BKN070
KSYR,KSYR 160520Z 1606/1706 12003KT P6SM FEW070 FM161500 20006KT P6SM FEW100 FM170000 15004KT P6SM SCT200
KSZL,TAF KSZL 160300Z 1603/1709 21006KT 9999 SCT150 BKN200 QNH2995INS BECMG 1606/1607 27006KT 9999 FEW050 QNH2997INS BECMG 1614/1615 35012G18KT 9999 FEW050 QNH3000INS BECMG 1622/1623 33009KT 9999 SKC QNH3002INS TX20/1621Z TN06/1612Z
KTCC,KTCC 160523Z 1606/1706 04012G22KT P6SM -TSRA BKN080CB FM160800 05012G22KT P6SM VCSH BKN080 FM161600 06014G24KT 5SM RA BR OVC015 FM162000 06009KT P6SM -RA OVC015 FM170000 05007KT 4SM -RA BR OVC010
KTCL,KTCL 160539Z 1606/1706 VRB03KT P6SM SCT250 FM161600 25009KT P6SM SCT250 FM170000 22006KT P6SM SCT050 BKN250
KTCM,TAF KTCM 160500Z 1605/1711 02006KT 8000 HZ SKC QNH2992INS BECMG 1701/1702 25006KT 9999 NSW SKC QNH2995INS BECMG 1710/1711 21006KT 4800 BR OVC005 QNH3008INS TX27/1614Z TN07/1622Z
KTCS,KTCS 160520Z 1606/1706 02006KT P6SM VCSH FEW080 FEW100 FM161100 02011G20KT P6SM VCSH OVC060 FM161800 03010G20KT P6SM OVC060 PROB30 1618/1619 P6SM -TSRA OVC100CB
KTEB,KTEB 160524Z 1606/1712 VRB03KT P6SM FEW060 SCT150 FM161800 27006KT P6SM SCT150 FM162300 VRB03KT P6SM SCT070
KTEX,KTEX 160529Z 1606/1706 VRB04KT P6SM SKC FM160800 11007KT P6SM SCT200 FM161600 14005KT P6SM BKN120 FM161800 29006KT P6SM BKN140 FM161900 27007KT P6SM VCSH BKN090 FM170200 13005KT P6SM BKN080
KTIK,TAF AMD KTIK 160519Z 1605/1707 VRB06KT 8000 -SHRA OVC025 QNH2998INS TEMPO 1605/1607 25025G35KT 6000 TSRA OVC020CB BECMG 1608/1609 25015KT 9000 -SHRA BKN050 QNH3000INS BECMG 1615/1616 03009KT 9999 NSW BKN100 QNH3012INS TX20/1621Z TN15/1612Z
KTIX,KTIX 160520Z 1606/1706 07007KT P6SM SKC FM161500 08009KT P6SM FEW035 FM170100 11003KT P6SM FEW030 AMD NOT SKED TIL 161100
KTLH,KTLH 160520Z 1606/1706 00000KT P6SM SKC FM161800 19005KT P6SM SCT050 FM170000 00000KT P6SM SKC
KTMB,KTMB 160520Z 1606/1706 VRB05KT P6SM OVC050 FM161500 06012KT P6SM SCT035 SCT100 FM162300 08008KT P6SM SCT035 SCT250 FM170200 08005KT P6SM SCT250
KTOI,KTOI 160539Z 1606/1706 VRB03KT P6SM FEW250 FM161700 28007KT P6SM FEW250 FM170100 25005KT P6SM SCT250
KTOL,KTOL 160539Z 1606/1706 22004KT P6SM BKN080 FM161300 25010KT P6SM SCT100 FM162000 28012KT P6SM BKN100
KTOP,KTOP 160520Z 1606/1706 34005KT P6SM SCT200 FM161900 32011KT P6SM FEW200 FM170000 35005KT P6SM SKC
KTPA,KTPA 160558Z 1606/1712 06004KT P6SM SKC FM161400 09006KT P6SM FEW030 FM161800 15007KT P6SM FEW040 FEW250 FM162200 30007KT P6SM FEW040 FEW250 FM170200 10004KT P6SM FEW250
KTPH,KTPH 160520Z 1606/1706 VRB06KT P6SM SKC
KTRI,KTRI 160530Z 1606/1706 VRB04KT P6SM SCT050 BKN150 FM161500 25007KT P6SM SCT040 OVC100 PROB30 1622/1704 4SM TSRA BR BKN040CB FM170400 VRB03KT P6SM VCSH BKN050
KTRK,KTRK 160520Z 1606/1706 VRB03KT P6SM SKC FM162200 14005KT P6SM SKC FM170200 VRB03KT P6SM SKC
KTRM,KTRM 160520Z 1606/1706 VRB05KT P6SM VCSH BKN100 FM161300 VRB04KT P6SM SCT100
KTTD,KTTD 160520Z 1606/1706 09014G22KT P6SM SKC FM170000 10005KT P6SM SKC
KTTN,KTTN 160522Z 1606/1706 VRB03KT P6SM SCT250 FM161000 33005KT P6SM BKN200 FM161600 27005KT P6SM SCT100 FM162000 VRB03KT P6SM BKN200
KTUL,KTUL 160549Z 1606/1706 05010KT 6SM SHRA VCTS SCT050CB BKN080 TEMPO 1606/1610 3SM -TSRA BKN050CB FM161200 01007KT P6SM BKN120 OVC250 FM161800 01011KT P6SM SCT150 BKN250
KTUP,KTUP 160520Z 1606/1706 00000KT P6SM SCT250 FM161600 29006KT P6SM OVC100 FM170000 34005KT P6SM OVC100
KTUS,KTUS 160615Z 1606/1706 29006KT P6SM VCTS SCT080CB TEMPO 1606/1608 -TSRA BKN070CB FM160800 17005KT P6SM VCSH BKN070 FM161200 VRB04KT P6SM SCT110 FM162000 30007KT P6SM SCT070
KTVC,KTVC 160524Z 1606/1706 27006KT P6SM BKN040 FM161100 27005KT P6SM VCSH BKN035 FM161400 26008KT P6SM VCSH BKN028 FM162100 28010KT 6SM -SHRA BR BKN025
KTVF,KTVF 160520Z 1606/1706 32014G20KT P6SM OVC040 FM160700 33014G20KT P6SM BKN030 FM161500 33020G25KT P6SM BKN030 FM161900 34020G25KT P6SM BKN070 FM170100 34009KT P6SM SCT100
KTVL,KTVL 160520Z 1606/1706 VRB03KT P6SM SKC FM162200 17005KT P6SM SKC FM170100 VRB03KT P6SM SKC
KTWF,KTWF 160520Z 1606/1706 13010KT P6SM SKC FM161800 06011KT P6SM SKC FM170300 17011KT P6SM SKC
KTXK,KTXK 160520Z 1606/1706 16010KT P6SM SKC FM161000 VRB05KT P6SM BKN100 BKN250 FM161300 VRB04KT P6SM VCTS SCT013CB BKN070 FM161600 VRB04KT 6SM -RA BR SCT015 BKN070 FM162100 25005KT P6SM OVC050 FM170000 33004KT P6SM OVC100
KTYR,KTYR 160520Z 1606/1706 18008KT P6SM SKC FM161100 18005KT P6SM BKN010 BKN100 FM161300 VRB05KT P6SM VCTS BKN012CB FM161800 VRB05KT P6SM VCTS BKN025CB FM162000 03010KT P6SM VCTS OVC035CB FM170000 01011KT 6SM -RA OVC100
KTYS,KTYS 160530Z 1606/1706 VRB04KT P6SM SCT200 FM161400 23007KT P6SM SCT060 OVC150 FM161700 24008G14KT P6SM SCT050 OVC120 PROB30 1623/1705 4SM TSRA BR BKN040CB OVC120
KUAO,KUAO 160520Z 1606/1706 05010KT P6SM SKC FM160900 04005KT P6SM SKC FM162200 15008KT P6SM SKC
KUES,KUES 160534Z 1606/1706 28006KT P6SM OVC060 TEMPO 1606/1610 SCT060 FM161200 28007KT P6SM SCT050 FM161500 29011G19KT P6SM BKN040 FM161700 29013G21KT P6SM OVC030 FM170400 30011G21KT P6SM BKN030
KUIN,KUIN 160520Z 1606/1706 25005KT P6SM SCT250 FM160700 33006KT P6SM SCT250 FM161800 30013G22KT P6SM FEW250 FM170000 33008KT P6SM FEW250
KUKI,KUKI 160550Z 1606/1706 17005KT P6SM SCT010 TEMPO 1606/1609 BKN015 FM160900 17003KT P6SM OVC015 TEMPO 1612/1616 3SM BR BKN008 OVC012 FM161800 18005KT P6SM SKC
KUNV,KUNV 160539Z 1606/1706 27004KT P6SM BKN150 FM161500 24009KT P6SM BKN080 FM162200 22004KT P6SM BKN080 OVC150
KUTS,KUTS 160520Z 1606/1706 17007KT P6SM FEW250 TEMPO 1610/1613 BKN015 FM161300 18005KT P6SM FEW015 SCT035 FM162300 05007KT P6SM VCTS SCT060CB BKN100
KVCT,KVCT 160537Z 1606/1706 12004KT P6SM FEW015 FM160900 VRB02KT 6SM BR SCT012 TEMPO 1609/1613 3SM BR BKN012 FM161400 15007KT P6SM BKN025 BKN040 FM162000 13010KT P6SM BKN040 FM170200 11006KT P6SM FEW020 SCT250
KVEL,KVEL 160529Z 1606/1706 01008G19KT P6SM SKC FM160800 05012KT P6SM FEW250 FM161200 08010KT P6SM FEW250 FM161500 05009KT P6SM FEW250 FM170200 10009KT P6SM SKC
KVGT,KVGT 160520Z 1606/1706 14008KT P6SM FEW120 BKN200 FM160800 VRB05KT P6SM FEW120 BKN200 FM161800 11006KT P6SM FEW120 FM170300 18006KT P6SM SKC
KVIS,KVIS 160520Z 1606/1706 VRB04KT P6SM SKC
KVLD,KVLD 160520Z 1606/1706 20003KT P6SM SKC
KVNY,KVNY 160546Z 1606/1706 VRB03KT P6SM SCT015 BKN050 FM161200 VRB03KT 4SM BR BKN015 FM161600 VRB03KT P6SM BKN025 FM162100 18008KT P6SM BKN050 FM170200 VRB03KT P6SM SCT015 BKN025
KVOK,TAF AMD KVOK 151311Z 1513/1615 26009KT 9999 SCT015 QNH2969INS BECMG 1514/1515 25012G18KT 9999 FEW020 SCT080 BKN120 QNH2968INS BECMG 1520/1521 VRB06KT 9999 SCT020 OVC035 QNH2970INS BECMG 1612/1613 28006KT 9999 BKN008 OVC015 QNH2979INS BECMG 1614/1615 30015G20KT 9000 BR OVC009 QNH2980INS TX10/1521Z TNM03/1513Z LAST NO AMDS AFT 1513 NEXT 1714
KVPS,TAF KVPS 160100Z 1601/1707 04005KT 9999 SKC QNH3000INS BECMG 1617/1618 16008KT 9999 FEW025 QNH2994INS TX30/1619Z TN14/1611Z
KVQQ,KVQQ 160520Z 1606/1706 00000KT P6SM SKC TEMPO 1607/1611 1 1/2SM BR OVC003 FM161500 08004KT P6SM SCT250
KVRB,KVRB 160520Z 1606/1706 08006KT P6SM FEW035 FM161500 08011KT P6SM SCT035 FM170100 10004KT P6SM FEW030
KVTN,KVTN 160610Z 1606/1706 32005KT P6SM OVC030 TEMPO 1608/1612 OVC025 FM161200 32008KT P6SM BKN040 FM161500 34014G24KT P6SM SCT080 FM170000 35006KT P6SM SCT250
KWJF,KWJF 160546Z 1606/1706 24010KT P6SM SCT080 SCT120 FM160800 VRB05KT P6SM SCT010 SCT050 FM161800 25007KT P6SM SCT250 FM170000 26010KT P6SM SKC
KWMC,KWMC 160520Z 1606/1706 04010KT P6SM SKC
KWRB,TAF KWRB 160000Z 1600/1706 VRB06KT 9999 FEW250 QNH3005INS TX25/1620Z TN10/1612Z
KWRI,TAF KWRI 160200Z 1602/1708 29003KT 9999 SCT100 QNH2999INS BECMG 1611/1612 30006KT 9999 BKN090 QNH2990INS BECMG 1618/1619 28003KT 9999 OVC060 QNH2982INS BECMG 1705/1706 17008KT 9999 OVC020 QNH2980INS TX21/1619Z TN07/1611Z
KWRL,KWRL 160521Z 1606/1706 VRB05KT P6SM SKC
KWWR,KWWR 160520Z 1606/1706 05008KT P6SM SCT100 SCT250 FM160700 02005KT P6SM BKN120 OVC250 FM161400 02009G14KT P6SM BKN220 FM170100 02006KT P6SM BKN170
KWYS,KWYS 160544Z 1606/1706 VRB06KT P6SM FEW150 FEW250
KXNA,KXNA 160522Z 1606/1706 VRB04KT 6SM SHRA VCTS SCT050CB BKN080 TEMPO 1606/1610 VRB15G30KT 3SM -TSRA BKN035CB FM161000 VRB04KT 5SM -SHRA VCTS OVC050CB FM161600 35009KT P6SM BKN100 OVC250
KXWA,KXWA 160527Z 1606/1706 34010KT P6SM SCT200 FM170200 07005KT P6SM SCT100
KYIP,KYIP 160523Z 1606/1706 20007KT P6SM BKN250 FM161400 28013G20KT P6SM SCT025 BKN040 FM161900 26013KT P6SM BKN050 FM170000 24010KT P6SM SCT025 BKN040 PROB30 1700/1704 6SM -RA OVC025
KYKM,KYKM 160520Z 1606/1706 27008KT P6SM SKC FM161800 12006KT P6SM SKC
KYNG,KYNG 160539Z 1606/1706 VRB03KT P6SM SCT080 BKN150 FM161100 20006KT P6SM BKN100 FM161800 23010KT P6SM SCT100 FM170200 27005KT P6SM BKN100
KZZV,KZZV 160522Z 1606/1706 11003KT P6SM SKC FM161700 23010G18KT P6SM FEW150 FM162200 22004KT P6SM BKN080
LATI,TAF LATI 160500Z 1606/1706 VRB03KT CAVOK TX24/1612Z TN10/1704Z TEMPO 1610/1617 34010KT
LBBG,TAF LBBG 160500Z 1606/1706 36012KT 9999 SCT030 BECMG 1609/1611 07016KT BECMG 1618/1620 35010KT CAVOK
LBGO,TAF LBGO 160500Z 1606/1706 VRB04KT 3000 BR SCT005 TEMPO 1606/1607 0600 BCFG VV002 BECMG 1607/1609 9999 SCT060 BECMG 1700/1702 3000 BR TEMPO 1702/1705 0800 BCFG SCT004
LBPD,TAF LBPD 160500Z 1606/1706 VRB04KT 9999 SCT060 BECMG 1610/1612 09010KT BECMG 1618/1620 VRB04KT TEMPO 1702/1705 4000 BR
LBSF,TAF LBSF 160500Z 1606/1706 VRB04KT 7000 NSC TEMPO 1606/1607 3000 BR SCT015 BECMG 1608/1610 08012KT CAVOK
LBWN,TAF LBWN 160500Z 1606/1706 01010KT 9999 SCT040 BECMG 1609/1611 06014KT BECMG 1616/1618 35008KT CAVOK
LCEN,TAF LCEN 160440Z 1606/1706 12015KT 9999 SCT020 SCT025 PROB40 TEMPO 1606/1610 12015G25KT 3000 TSRA SCT020CB SCT025 BKN080
LCLK,TAF LCLK 160530Z 1606/1706 16015KT 9999 SCT020 SCT050 PROB30 TEMPO 1606/1618 VRB20G30KT 2000 TSRA SCT020CB BECMG 1616/1620 33012KT
LCPH,TAF LCPH 160530Z 1606/1706 12012KT 9999 SCT020 SCT040 PROB40 TEMPO 1606/1620 VRB20G30KT 2000 TSRA BKN020CB BECMG 1617/1621 35009KT
LCRA,TAF LCRA 160416Z 1606/1624 07014KT 9999 FEW025 TEMPO 1606/1624 5000 SHRA PROB40 TEMPO 1606/1619 3000 +TSRA BKN025CB PROB30 TEMPO 1606/1617 VRB15G25KT 2000 TSGS
LDDU,TAF LDDU 160525Z 1606/1706 06006KT CAVOK TX21/1612Z TN14/1704Z TEMPO 1610/1617 29006KT
LDLO,TAF LDLO 160525Z 1606/1706 02004KT CAVOK TX22/1612Z TN16/1703Z PROB30 TEMPO 1610/1614 20006KT
LDOS,TAF LDOS 160525Z 1606/1706 10005KT CAVOK TX22/1613Z TN06/1704Z
LDPL,TAF LDPL 160525Z 1606/1706 08004KT CAVOK TX23/1613Z TN12/1702Z PROB30 TEMPO 1613/1616 27006KT
LDRI,TAF LDRI 160525Z 1606/1706 VRB02KT CAVOK TX23/1613Z TN12/1703Z PROB30 TEMPO 1610/1615 32006KT
LDSB,TAF LDSB 151125Z 1512/1612 20005KT CAVOK TX21/1611Z TN08/1604Z PROB30 TEMPO 1513/1516 20007KT
LDSP,TAF LDSP 160525Z 1606/1706 30005KT CAVOK TX24/1612Z TN14/1705Z PROB40 TEMPO 1611/1616 23008KT
LDZA,TAF LDZA 160525Z 1606/1706 VRB02KT 0200 FG VV002 TX21/1614Z TN09/1703Z BECMG 1607/1609 3000 BR BKN003 BECMG 1609/1611 9999 NSW FEW012 BECMG 1619/1621 2500 BR BECMG 1621/1623 0300 FG
LDZD,TAF LDZD 160525Z 1606/1706 VRB02KT 3000 BR NSC TX24/1612Z TN09/1705Z PROB30 TEMPO 1606/1607 0500 FG BECMG 1607/1609 CAVOK PROB40 1611/1616 28008KT PROB40 1621/1706 2500 BR PROB40 TEMPO 1701/1705 0300 FG VV002
LEAB,TAF LEAB 160500Z 1606/1706 VRB05KT CAVOK TX28/1615Z TN12/1706Z BECMG 1612/1614 16010KT BECMG 1622/1624 VRB05KT PROB30 TEMPO 1700/1705 DZRA RA SCT040TCU BKN060
LEAL,TAF LEAL 160500Z 1606/1706 VRB04KT CAVOK TX30/1612Z TN19/1705Z BECMG 1611/1613 09007KT BECMG 1621/1623 06009KT
LEAM,TAF LEAM 160500Z 1606/1706 35005KT CAVOK TX28/1615Z TN17/1606Z BECMG 1609/1611 20010KT BECMG 1614/1617 09011KT BECMG 1620/1623 34009KT
LEAO,TAF LEAO 160200Z 1603/1703 VRB05KT CAVOK TX28/1615Z TN10/1606Z PROB40 TEMPO 1615/1622 15010KT PROB30 TEMPO 1616/1620 15012G25KT
LEAS,TAF LEAS 160200Z 1603/1703 22009KT CAVOK TX25/1614Z TN13/1606Z PROB30 TEMPO 1603/1606 3000 BR BKN010 PROB40 TEMPO 1609/1614 09010KT PROB40 TEMPO 1614/1620 30010KT TEMPO 1619/1703 BKN010 PROB40 TEMPO 1619/1624 08010KT 3000 BR BKN005
LEBA,TAF LEBA 160200Z 1603/1703 VRB02KT CAVOK TX31/1615Z TN14/1606Z PROB30 TEMPO 1604/1607 4000 BR SCT004 BECMG 1606/1609 07010KT BECMG 1617/1619 VRB03KT PROB30 TEMPO 1622/1703 15010KT SHRA FEW035TCU SCT050
LEBB,TAF LEBB 160500Z 1606/1706 VRB03KT CAVOK TX28/1613Z TN15/1606Z BECMG 1606/1609 14009KT TEMPO 1614/1618 VRB04KT
LEBG,TAF LEBG 160200Z 1603/1703 20012KT CAVOK TX26/1615Z TN10/1606Z TEMPO 1603/1608 VRB05KT PROB40 TEMPO 1610/1619 20015G30KT
LEBL,TAF LEBL 160500Z 1606/1706 33008KT 9999 FEW015 TX26/1612Z TN18/1606Z PROB30 TEMPO 1606/1610 BKN014 BECMG 1608/1610 12007KT BECMG 1617/1619 06009KT PROB40 TEMPO 1620/1706 BKN010
LEBZ,TAF LEBZ 160200Z 1603/1703 VRB02KT CAVOK TX29/1615Z TN13/1606Z PROB30 TEMPO 1605/1607 4000 BR SCT005 PROB30 1615/1624 22015G25KT 4000 SHRA FEW030TCU SCT045
LECO,TAF LECO 160200Z 1603/1703 20009KT 9999 SCT010 BKN020 TX18/1614Z TN13/1701Z PROB40 TEMPO 1603/1615 BKN010 PROB30 TEMPO 1603/1618 3000 RADZ BR BKN005 PROB40 TEMPO 1607/1610 20017G27KT PROB40 TEMPO 1618/1703 3000 RADZ BR BKN010
LECV,TAF LECV 160500Z 1606/1706 VRB05KT CAVOK TX22/1615Z TN14/1706Z TEMPO 1610/1615 20010KT PROB40 TEMPO 1618/1706 SCT050TCU PROB30 TEMPO 1700/1706 VRB15G30KT 4000 DZRA RA SCT050CB BKN060
LEGE,TAF LEGE 160500Z 1606/1706 VRB04KT 9999 FEW020 TX28/1613Z TN19/1705Z PROB40 TEMPO 1606/1608 3000 BR BKN010 BECMG 1608/1610 18012KT BECMG 1619/1621 VRB04KT
LEGR,TAF LEGR 160500Z 1606/1706 VRB02KT 9999 FEW050 SCT090 TX30/1615Z TN10/1606Z BECMG 1612/1615 17010KT BECMG 1620/1622 VRB02KT
LEGT,TAF LEGT 160500Z 1606/1706 20006KT CAVOK TX27/1615Z TN12/1706Z PROB40 TEMPO 1618/1706 SCT050TCU PROB30 TEMPO 1700/1706 VRB15G30KT 4000 DZRA RA SCT050CB BKN060
LEHC,TAF LEHC 160200Z 1603/1703 12009KT CAVOK TX27/1614Z TN15/1605Z
LEIB,TAF LEIB 160200Z 1603/1703 VRB04KT 9999 FEW030 TX26/1612Z TN19/1605Z TEMPO 1611/1614 22007KT BECMG 1620/1622 08009KT
LEJR,TAF LEJR 160200Z 1603/1703 04004KT 9999 SCT008 TX30/1615Z TN15/1606Z TEMPO 1603/1608 3000 BR BKN003 PROB40 TEMPO 1603/1606 0600 FG VV001 BECMG 1612/1615 16010KT PROB30 TEMPO 1615/1619 25008KT
LELC,TAF LELC 160500Z 1606/1706 28004KT CAVOK TX27/1613Z TN15/1606Z BECMG 1612/1614 14010KT BECMG 1617/1620 02006KT PROB30 TEMPO 1700/1706 BKN010
LELL,TAF LELL 160200Z 1603/1703 VRB04KT 9999 SCT020 TX27/1613Z TN17/1605Z PROB40 TEMPO 1603/1609 BKN010 BECMG 1613/1615 12009KT
LELN,TAF LELN 160200Z 1603/1703 VRB05KT CAVOK TX22/1615Z TN05/1606Z PROB40 TEMPO 1604/1610 BKN014 BECMG 1610/1612 20010KT PROB40 TEMPO 1612/1618 20013G25KT PROB40 TEMPO 1618/1703 SCT060TCU PROB40 TEMPO 1620/1703 4000 RA DZRA SCT030TCU BKN040
LELO,TAF LELO 160200Z 1603/1703 VRB05KT CAVOK TX30/1615Z TN10/1606Z PROB40 TEMPO 1610/1620 20010KT BECMG 1622/1702 09012KT PROB40 TEMPO 1700/1703 09015G25KT
LEMD,TAF LEMD 160500Z 1606/1712 VRB05KT CAVOK TX27/1615Z TN14/1706Z TEMPO 1608/1624 18010KT PROB30 TEMPO 1610/1618 18010G25KT PROB40 TEMPO 1618/1706 SCT050TCU PROB30 TEMPO 1700/1706 VRB15G30KT 4000 DZRA RA SCT050CB BKN060
LEMG,TAF LEMG 160500Z 1606/1706 29006KT 9999 FEW025 TX27/1613Z TN15/1606Z PROB30 TEMPO 1606/1611 VRB02KT BECMG 1610/1612 13006KT BECMG 1617/1619 VRB02KT PROB40 TEMPO 1622/1706 29006KT
LEMH,TAF LEMH 160200Z 1603/1703 15009KT 9999 FEW020 TX24/1612Z TN19/1605Z BECMG 1614/1616 11010KT
LEMO,TAF LEMO 160200Z 1603/1703 VRB02KT 9999 FEW012 TX29/1615Z TN15/1603Z TEMPO 1603/1607 BKN006 PROB30 TEMPO 1603/1606 1200 BCFG BR BKN002 BECMG 1607/1610 04010KT BECMG 1614/1617 24005KT
LEPA,TAF LEPA 160500Z 1606/1706 05005KT 9999 FEW015 TX28/1612Z TN16/1606Z BECMG 1610/1612 22010KT BECMG 1617/1619 05005KT
LEPP,TAF LEPP 160200Z 1603/1703 VRB03KT CAVOK TX28/1614Z TN13/1606Z BECMG 1607/1610 16014KT PROB40 TEMPO 1612/1617 16018G28KT
LERI,TAF LERI 160500Z 1606/1706 VRB02KT CAVOK TX30/1614Z TN13/1606Z PROB30 TEMPO 1614/1618 15010KT
LERL,TAF LERL 160200Z 1603/1703 VRB05KT CAVOK TX28/1615Z TN10/1606Z PROB40 TEMPO 1615/1622 15010KT PROB30 TEMPO 1616/1620 15012G25KT
LERS,TAF LERS 160200Z 1603/1703 02005KT 9999 SCT020 TX27/1612Z TN17/1605Z PROB40 TEMPO 1603/1609 BKN010 BECMG 1610/1612 14009KT TEMPO 1618/1621 VRB04KT BECMG 1621/1623 04009KT
LERT,TAF LERT 160200Z 1603/1703 05006KT 9999 SCT010 TX29/1615Z TN18/1606Z TEMPO 1603/1607 4000 BR BKN003 PROB30 TEMPO 1603/1606 1000 BCFG BR BKN002 BECMG 1612/1614 16010KT PROB30 TEMPO 1614/1619 25008KT
LESA,TAF AMD LESA 160449Z 1604/1703 VRB05KT 9999 FEW020 SCT030 TX25/1615Z TN10/1606Z PROB40 TEMPO 1604/1608 3000 BR BCFG BKN010 BECMG 1608/1610 20013KT PROB40 TEMPO 1610/1616 20015G25KT PROB40 TEMPO 1618/1621 4000 RA DZRA SCT030TCU BKN060
LESO,TAF LESO 160500Z 1606/1706 19009KT CAVOK TX30/1614Z TN17/1606Z PROB40 TEMPO 1619/1622 19019G29KT
LEST,TAF LEST 160500Z 1606/1706 21009KT 6000 SCT005 BKN016 TX16/1613Z TN13/1623Z PROB30 TEMPO 1606/1609 3000 RADZ BR BKN005 BKN010 PROB30 TEMPO 1606/1618 0800 DZ BCFG BKN002 PROB40 TEMPO 1606/1614 19015G25KT PROB40 TEMPO 1609/1706 3000 RADZ BR BKN005 BKN010 PROB40 TEMPO 1618/1706 1500 SHRA SCT030TCU
LESU,TAF LESU 160200Z 1603/1703 VRB04KT CAVOK TX26/1613Z TN11/1605Z BECMG 1611/1613 20010KT BECMG 1616/1618 VRB04KT
LETO,TAF LETO 160500Z 1606/1706 VRB05KT CAVOK TX26/1615Z TN12/1706Z TEMPO 1608/1624 18010KT PROB30 TEMPO 1610/1618 18010G25KT PROB40 TEMPO 1618/1706 SCT050TCU PROB30 TEMPO 1700/1706 VRB15G30KT 4000 DZRA RA SCT050CB BKN060
LEVC,TAF LEVC 160500Z 1606/1706 VRB04KT CAVOK TX27/1612Z TN18/1705Z TEMPO 1609/1611 08005KT BECMG 1611/1613 10009KT BECMG 1616/1618 VRB04KT
LEVD,TAF LEVD 160200Z 1603/1703 VRB05KT CAVOK TX26/1615Z TN10/1606Z BECMG 1608/1612 20013KT PROB40 TEMPO 1610/1618 20015G25KT PROB40 TEMPO 1618/1703 VRB12G25KT RA DZRA SCT040TCU BKN060 BECMG 1622/1624 VRB05KT
LEVS,TAF LEVS 160500Z 1606/1706 20006KT CAVOK TX25/1615Z TN13/1706Z PROB40 TEMPO 1618/1706 SCT050TCU PROB30 TEMPO 1700/1706 VRB15G30KT 4000 DZRA RA SCT050CB BKN060
LEVT,TAF LEVT 160500Z 1606/1706 22009KT CAVOK TX26/1615Z TN10/1606Z PROB40 TEMPO 1611/1613 22015G25KT
LEVX,TAF LEVX 160500Z 1606/1706 19009KT 6000 SCT005 BKN016 TX17/1613Z TN14/1706Z TEMPO 1606/1624 3000 RADZ BR BKN005 BKN010 PROB40 TEMPO 1606/1624 0800 DZ BCFG BKN002 PROB40 TEMPO 1606/1612 19015G25KT PROB40 TEMPO 1614/1623 1500 +SHRA BKN030TCU PROB40 TEMPO 1700/1706 3000 BR BKN010
LEXJ,TAF LEXJ 160200Z 1603/1703 21006KT CAVOK TX25/1612Z TN15/1605Z PROB30 TEMPO 1603/1605 3000 BR BKN010 PROB40 TEMPO 1606/1610 19015G25KT
LEZG,TAF LEZG 160500Z 1606/1706 09009KT CAVOK TX30/1613Z TN18/1705Z PROB30 TEMPO 1606/1608 3000 BR BKN010 TEMPO 1606/1608 VRB04KT BECMG 1608/1610 12012KT
LEZL,TAF LEZL 160200Z 1603/1703 22004KT 9999 SCT012 TX29/1615Z TN17/1606Z TEMPO 1603/1608 BKN008 PROB30 TEMPO 1603/1608 1500 BR BKN003 BECMG 1607/1610 06010KT BECMG 1614/1617 24006KT
LFAQ,TAF LFAQ 160500Z 1606/1615 21007KT 9999 BKN040
LFAT,TAF LFAT 160500Z 1606/1615 22010KT 9999 BKN020
LFBA,TAF LFBA 160500Z 1606/1615 12007KT CAVOK
LFBD,TAF LFBD 160500Z 1606/1712 08005KT CAVOK TX28/1614Z TN14/1606Z PROB30 TEMPO 1606/1608 4000 BR BECMG 1608/1610 16010KT
LFBE,TAF LFBE 160500Z 1606/1706 10006KT CAVOK BECMG 1609/1611 15015G25KT CAVOK PROB30 TEMPO 1700/1703 BKN018
LFBH,TAF LFBH 160500Z 1606/1706 VRB03KT 9999 SCT010 TEMPO 1606/1609 3000 -RADZ BKN004 PROB30 TEMPO 1606/1608 0700 FG VV/// BECMG 1610/1612 14010KT BECMG 1613/1615 20012KT BECMG 1618/1620 VRB03KT TEMPO 1700/1706 VRB15G25KT 4500 -SHRA SCT060TCU
LFBI,TAF LFBI 160500Z 1606/1706 VRB03KT 9999 SCT008 TEMPO 1606/1609 2000 -RADZ BKN004 OVC020 BECMG 1609/1611 18010KT PROB30 TEMPO 1618/1624 4500 -SHRA SCT040TCU PROB40 TEMPO 1703/1706 VRB15G25KT 4000 SHRA SCT060TCU
LFBL,TAF LFBL 160500Z 1606/1706 VRB03KT CAVOK BECMG 1606/1608 13010KT BECMG 1609/1611 17015G25KT BECMG 1614/1616 17010KT PROB30 1622/1624 3000 BR SCT015
LFBM,TAF LFBM 160200Z 1603/1703 10005KT CAVOK TEMPO 1603/1607 3000 BR PROB40 TEMPO 1603/1605 0500 FG
LFBO,TAF LFBO 160500Z 1606/1712 14012KT 9999 BKN010 BECMG 1608/1610 CAVOK BECMG 1614/1616 14015G25KT TEMPO 1619/1705 BKN015
LFBP,TAF LFBP 160500Z 1606/1706 12005KT CAVOK PROB30 TEMPO 1606/1607 0800 BCFG
LFBT,TAF LFBT 160500Z 1606/1706 VRB04KT CAVOK TEMPO 1621/1701 20017G27KT
LFBU,TAF LFBU 160500Z 1606/1706 11005KT CAVOK BECMG 1607/1609 17010G20KT BECMG 1616/1618 VRB03KT BECMG 1622/1624 15015G25KT
LFBZ,TAF LFBZ 160500Z 1606/1706 VRB02KT CAVOK PROB30 TEMPO 1606/1607 14004KT 2500 BR BECMG 1607/1609 19010KT TEMPO 1619/1621 19015G25KT BECMG 1703/1705 28010KT
LFCK,TAF LFCK 160500Z 1606/1615 12020G30KT CAVOK
LFCR,TAF LFCR 160500Z 1606/1706 13012KT CAVOK BECMG 1612/1614 13018G28KT
LFGJ,TAF LFGJ 160500Z 1606/1615 20010KT CAVOK
LFJL,TAF LFJL 160500Z 1606/1706 16008KT 9999 FEW010 BKN020 TEMPO 1606/1612 4000 -RA BKN009 PROB30 TEMPO 1609/1612 2000 RA BKN003 FEW015TCU BECMG 1614/1616 CAVOK
LFKB,TAF LFKB 160200Z 1603/1703 23005KT CAVOK TX24/1612Z TN14/1703Z TEMPO 1603/1608 BKN020 BECMG 1608/1610 12010KT BECMG 1616/1618 VRB03KT TEMPO 1618/1703 BKN014
LFKC,TAF LFKC 160200Z 1603/1703 18007KT CAVOK TX25/1613Z TN15/1603Z BECMG 1608/1610 35007KT BECMG 1617/1619 16005KT
LFKF,TAF LFKF 160200Z 1603/1703 VRB03KT CAVOK BECMG 1604/1606 06010KT TEMPO 1618/1703 BKN012
LFKJ,TAF LFKJ 160200Z 1603/1703 05005KT CAVOK BECMG 1610/1612 21010KT BECMG 1617/1619 05005KT
LFKS,TAF AMD LFKS 160530Z 1605/1703 27005KT 9999 SCT025 BKN120 BECMG 1607/1609 12010KT CAVOK BECMG 1618/1620 27005KT PROB30 TEMPO 1700/1703 BKN014
LFLB,TAF LFLB 160200Z 1603/1703 19005KT CAVOK
LFLC,TAF LFLC 160500Z 1606/1706 18003KT CAVOK BECMG 1609/1610 18015G25KT TEMPO 1610/1706 18025G35KT
LFLL,TAF LFLL 160500Z 1606/1712 17012KT CAVOK BECMG 1608/1611 18015G25KT PROB30 TEMPO 1610/1615 18020G35KT BECMG 1616/1617 18012KT
LFLN,TAF LFLN 160500Z 1606/1615 17005KT CAVOK
LFLP,TAF LFLP 160200Z 1603/1703 VRB02KT CAVOK
LFLS,TAF LFLS 160200Z 1603/1703 09005KT CAVOK PROB40 TEMPO 1603/1608 BKN010 PROB30 TEMPO 1605/1608 0600 FG VV/// BECMG 1609/1611 23010KT
LFLW,TAF LFLW 160500Z 1606/1615 12012KT 9999 FEW040 TEMPO 1613/1615 12015G25KT
LFLX,TAF LFLX 160500Z 1606/1712 18005KT CAVOK TEMPO 1606/1610 BKN012 PROB40 TEMPO 1606/1608 4000 -RA BKN006 PROB30 TEMPO 1606/1608 2000 -RADZ BKN002 PROB40 TEMPO 1708/1712 4000 -RA BKN080
LFLY,TAF LFLY 160500Z 1606/1706 18012KT CAVOK BECMG 1608/1611 18015G25KT PROB40 TEMPO 1609/1616 18020G35KT BECMG 1616/1618 18012KT
LFMD,TAF LFMD 160200Z 1603/1703 VRB03KT CAVOK PROB30 TEMPO 1603/1610 BKN014 PROB30 TEMPO 1610/1615 10010KT
LFMI,TAF LFMI 160200Z 1603/1703 09010KT CAVOK TX26/1613Z TN18/1605Z TEMPO 1603/1608 BKN012 BECMG 1610/1612 16015KT BECMG 1621/1623 13005KT
LFMK,TAF LFMK 160200Z 1603/1703 11012KT 9999 BKN008 BKN020 BECMG 1608/1610 BKN014 BECMG 1610/1612 09020G30KT SCT025 BECMG 1614/1616 BKN014 BECMG 1616/1618 OVC008
LFML,TAF LFML 160200Z 1603/1709 11010KT CAVOK TX25/1614Z TN17/1605Z TEMPO 1603/1608 BKN014 BECMG 1608/1610 17013KT BECMG 1617/1619 09005KT
LFMN,TAF LFMN 160200Z 1603/1709 34010KT CAVOK PROB30 TEMPO 1603/1610 BKN014 BECMG 1609/1610 10008KT BECMG 1619/1621 34010KT
LFMO,TAF LFMO 160200Z 1603/1703 VRB02KT 9999 BKN041 TX24/1615Z TN09/1605Z TEMPO 1603/1610 BKN014
LFMP,TAF AMD LFMP 160531Z 1605/1703 VRB03KT 9999 BKN016 TEMPO 1605/1620 BKN010 PROB30 TEMPO 1605/1611 1500 BR OVC003 BECMG 1611/1613 12012KT SCT030 TEMPO 1613/1616 12015G25KT BECMG 1620/1622 VRB03KT
LFMT,TAF LFMT 160200Z 1603/1703 12012KT 9999 OVC010 TEMPO 1603/1610 11015G25KT PROB40 TEMPO 1603/1610 2000 -DZ BR OVC003 TEMPO 1611/1620 BKN020 PROB40 TEMPO 1620/1703 2000 -DZ BR OVC003
LFMU,TAF LFMU 160200Z 1603/1703 06010KT 9999 OVC012 TEMPO 1603/1703 OVC008 PROB40 TEMPO 1603/1607 3000 BR OVC003 BECMG 1608/1610 13012KT TEMPO 1608/1703 OVC007 PROB30 TEMPO 1620/1703 3000 BR OVC003
LFMV,TAF LFMV 160200Z 1603/1703 VRB03KT 9999 BKN030 TEMPO 1603/1609 BKN014 BECMG 1609/1611 17010KT CAVOK BECMG 1619/1621 VRB03KT
LFOA,TAF AMD LFOA 160335Z 1603/1703 15007KT CAVOK TX23/1615Z TN15/1604Z
LFOB,TAF LFOB 160500Z 1606/1706 18007KT 9999 BKN025 TEMPO 1606/1612 BKN010 TEMPO 1615/1618 3000 RA BKN013 TEMPO 1703/1705 3000 RA BKN007
LFOE,TAF AMD LFOE 160627Z 1606/1703 22005KT CAVOK BECMG 1607/1609 SCT015 BECMG 1609/1611 SCT030
LFOH,TAF LFOH 160500Z 1606/1706 21010KT 9999 BKN022 TEMPO 1606/1612 BKN010 TEMPO 1612/1618 16015G25KT 3000 RA BKN007
LFOJ,TAF LFOJ 160200Z 1603/1703 16003KT 9999 BKN012 BKN020 TX22/1615Z TN14/1605Z TEMPO 1603/1608 BKN004 OVC012 BECMG 1608/1610 CAVOK
LFOK,TAF LFOK 160500Z 1606/1706 14007KT 9999 BKN025 TEMPO 1606/1611 2000 DZRA OVC003
LFOP,TAF LFOP 160500Z 1606/1706 19010KT 9999 BKN040 TEMPO 1606/1612 BKN010 TEMPO 1613/1618 3000 RA BKN007 PROB30 1703/1706 BKN007
LFOT,TAF LFOT 160500Z 1606/1706 16005KT 9999 BKN030 TEMPO 1606/1610 BKN012 PROB40 TEMPO 1606/1609 4000 -RA BKN006 PROB30 TEMPO 1606/1609 2000 -RADZ BKN002 BECMG 1611/1614 CAVOK
LFPB,TAF LFPB 160500Z 1606/1706 18003KT 9999 BKN035 TEMPO 1704/1706 BKN030TCU
LFPG,TAF LFPG 160500Z 1606/1712 18003KT 9999 BKN035 TX20/1615Z TN14/1606Z TEMPO 1704/1712 BKN030TCU
LFPN,TAF LFPN 160500Z 1606/1615 18006KT 9999 BKN030 TEMPO 1606/1612 BKN012 PROB40 TEMPO 1606/1612 4000 -RA BKN006 PROB30 TEMPO 1606/1609 2000 -RADZ BKN004 BECMG 1612/1615 CAVOK
LFPO,TAF LFPO 160500Z 1606/1712 18006KT 9999 BKN030 TEMPO 1606/1612 BKN012 PROB40 TEMPO 1606/1612 4000 -RA BKN006 PROB30 TEMPO 1606/1609 2000 -RADZ BKN004 BECMG 1612/1615 CAVOK PROB40 TEMPO 1706/1712 4000 RA BKN025
LFPV,TAF LFPV 160200Z 1603/1703 21005KT 9999 SCT009 TX19/1615Z TN12/1621Z BECMG 1603/1604 OVC008 TEMPO 1605/1610 -RA OVC005 PROB40 TEMPO 1605/1606 OVC003 BECMG 1610/1611 CAVOK PROB40 TEMPO 1611/1615 -SHRA SCT020TCU
LFQQ,TAF LFQQ 160500Z 1606/1712 20010KT 9999 SCT040 BECMG 1614/1617 14010KT PROB30 1614/1617 4000 RA BKN013 OVC080 BECMG 1622/1701 20010KT TEMPO 1706/1712 3000 RA BKN007
LFRB,TAF LFRB 160500Z 1606/1712 VRB05KT 9999 BKN025 PROB30 TEMPO 1606/1609 3000 BR BKN003 BECMG 1608/1610 13010KT TEMPO 1610/1614 2500 RA BKN005 BKN015TCU BECMG 1611/1613 17018G30KT PROB40 TEMPO 1614/1618 20020G40KT 4000 SHRA BKN012 BKN020TCU TEMPO 1618/1709 BKN012 BECMG 1622/1624 22010KT PROB40 TEMPO 1620/1703 4000 RA BKN005 BKN020TCU PROB40 TEMPO 1703/1709 3000 BR BKN005
LFRC,TAF LFRC 160500Z 1606/1615 22010KT 9999 SCT025 PROB30 TEMPO 1606/1608 3000 BR BECMG 1609/1612 15012KT TEMPO 1613/1615 3000 RA BKN013
LFRD,TAF LFRD 160500Z 1606/1706 19005KT 9999 BKN030 PROB40 TEMPO 1606/1610 3000 BR BKN002 BECMG 1608/1610 15010KT TEMPO 1610/1615 2500 RA BKN005 BECMG 1618/1620 20010KT TEMPO 1620/1706 BKN013 TEMPO 1700/1706 3000 RA BKN008
LFRG,TAF LFRG 160500Z 1606/1615 20008KT 9999 SCT025 PROB30 TEMPO 1606/1608 3000 BR BECMG 1610/1613 15010KT TEMPO 1613/1615 3000 RA BKN013
LFRH,TAF LFRH 160500Z 1606/1706 VRB03KT CAVOK PROB30 TEMPO 1606/1607 3000 BR BECMG 1608/1610 11010G20KT BKN030 TEMPO 1608/1612 4000 -RA BKN005 OVC012TCU BECMG 1616/1618 22010G20KT BECMG 1622/1624 BKN010 OVC020 TEMPO 1623/1705 4000 RA BKN003 OVC010
LFRI,TAF AMD LFRI 160623Z 1606/1706 VRB03KT 1200 BR BKN002 TEMPO 1606/1607 4000 BR BECMG 1607/1610 14010KT 9999 NSW SCT015 BECMG 1615/1617 20010KT BECMG 1620/1622 VRB04KT PROB40 TEMPO 1622/1703 3000 BR TEMPO 1703/1706 4500 -SHRA BKN030TCU
LFRK,TAF LFRK 160500Z 1606/1615 20008KT 9999 SCT025 PROB30 TEMPO 1606/1608 3000 BR BECMG 1610/1613 15010KT TEMPO 1613/1615 3000 RA BKN013
LFRM,TAF LFRM 160500Z 1606/1706 VRB03KT 9999 SCT040 TEMPO 1606/1610 4000 -RA BKN012 OVC020 BECMG 1610/1612 17010KT BECMG 1623/1701 VRB03KT TEMPO 1703/1706 4500 -SHRA SCT040TCU
LFRN,TAF LFRN 160500Z 1606/1706 VRB05KT 9999 BKN030 TEMPO 1606/1609 3000 BR BKN003 BECMG 1608/1610 15010KT TEMPO 1610/1613 2500 RA BR BKN005 TEMPO 1622/1624 3000 BR BKN003 PROB40 TEMPO 1700/1706 3000 RA BKN005
LFRQ,TAF AMD LFRQ 160600Z 1606/1706 VRB05KT 0500 FG VV/// BECMG 1606/1609 14010KT 9999 NSW BKN025 TEMPO 1609/1615 2500 RA BR BKN005 BKN015TCU BECMG 1610/1612 18015G30KT TEMPO 1615/1618 4000 SHRA BKN010 BKN020TCU BECMG 1618/1620 21010KT TEMPO 1618/1706 BKN013 TEMPO 1622/1706 4000 RA BKN005 BKN020TCU
LFRS,TAF AMD LFRS 160621Z 1606/1712 VRB04KT 9999 BKN020 TEMPO 1606/1608 6000 BKN002 TEMPO 1606/1609 2500 -RADZ BKN002 OVC020 FM160900 14010KT 9999 BKN008 BECMG 1609/1611 BKN017 BECMG 1614/1616 20012KT BECMG 1620/1622 VRB03KT PROB40 TEMPO 1622/1703 3000 BR TEMPO 1703/1712 4000 -RA
LFRZ,TAF LFRZ 160500Z 1606/1706 19010KT 9999 SCT015 BKN025 TEMPO 1606/1609 12007KT 2000 -RADZ BKN003 OVC020 TEMPO 1703/1706 4000 -RA
LFSB,TAF LFSB 160500Z 1606/1706 18005KT CAVOK
LFSI,TAF AMD LFSI 160437Z 1604/1703 23005KT 9999 SCT015 OVC030 TEMPO 1604/1610 3000 RADZ BKN008 BKN014
LFSL,TAF LFSL 160500Z 1606/1615 10005KT CAVOK BECMG 1608/1610 16010KT
LFSO,TAF LFSO 150800Z 1509/1609 21012KT 8000 BKN015 TEMPO 1509/1605 4000 RA BKN008
LFST,TAF LFST 160500Z 1606/1706 18004KT 9999 SCT050 BKN120 TEMPO 1606/1609 -RA BECMG 1611/1613 CAVOK PROB40 TEMPO 1701/1706 4000 MIFG
LFTH,TAF LFTH 160200Z 1603/1703 VRB03KT 9999 BKN012 BECMG 1609/1612 11012KT TEMPO 1612/1618 CAVOK
LFTW,TAF LFTW 160200Z 1603/1703 VRB03KT 9999 OVC010 PROB40 TEMPO 1603/1609 2000 DZ BKN004 BECMG 1610/1612 17013KT NSC BECMG 1621/1623 VRB04KT BKN012
LGAD,TAF LGAD 160500Z 1606/1615 02008KT 9999 FEW025
LGAL,TAF LGAL 160500Z 1606/1615 03016KT 9999 FEW030 TEMPO 1606/1609 03016G26KT SCT030
LGAV,TAF LGAV 160500Z 1606/1706 01022KT 9999 FEW010 BKN025 TEMPO 1606/1706 01025G35KT
LGBL,TAF LGBL 160500Z 1606/1615 35008KT 9999 SCT025
LGEL,TAF LGEL 160500Z 1606/1706 35016KT 9999 FEW018 BKN025 TEMPO 1606/1706 36020G30KT
LGHI,TAF LGHI 160500Z 1606/1615 01016KT 9999 FEW030 TEMPO 1606/1615 01017G27KT SCT030
LGIO,TAF LGIO 160500Z 1606/1615 VRB03KT 9999 FEW025
LGIR,TAF LGIR 160500Z 1606/1706 36020KT 9999 SCT015 BKN025 PROB40 TEMPO 1606/1706 5000 RA SCT010 FEW018TCU BKN020 PROB30 TEMPO 1606/1612 3000 TSRA SCT006 FEW018CB BKN020 OVC070 TEMPO 1606/1706 35022G34KT
LGKC,TAF LGKC 160500Z 1606/1615 02020G32KT 9999 FEW010 SCT018
LGKF,TAF LGKF 160500Z 1606/1615 04010KT 9999 FEW018 BECMG 1609/1611 VRB05KT
LGKL,TAF LGKL 160500Z 1606/1615 02012KT 9999 FEW025
LGKO,TAF LGKO 160500Z 1606/1706 36017KT 9999 FEW016 BKN020 PROB30 TEMPO 1606/1609 5000 RA FEW010 FEW018TCU BKN020 TEMPO 1612/1706 35017G27KT
LGKP,TAF LGKP 160500Z 1606/1615 35012KT 9999 BKN020 PROB30 TEMPO 1606/1612 5000 RA
LGKR,TAF LGKR 160500Z 1606/1706 VRB05KT 9999 FEW018
LGKV,TAF LGKV 160500Z 1606/1706 06015KT 9999 FEW025
LGLM,TAF LGLM 160500Z 1606/1615 04015G25KT 9999 FEW020
LGLR,TAF LGLR 160500Z 1606/1615 VRB03KT 9999 SCT025
LGMK,TAF LGMK 160500Z 1606/1615 01022KT 9999 FEW018 TEMPO 1606/1615 36025G35KT SCT018
LGMT,TAF LGMT 160500Z 1606/1615 36015KT 9999 SCT025 TEMPO 1606/1615 36016G26KT
LGPZ,TAF LGPZ 160500Z 1606/1706 06010KT 9999 FEW018 TEMPO 1615/1618 33010KT
LGRP,TAF LGRP 160500Z 1606/1706 VRB05KT 9999 SCT012 FEW018TCU BKN025 PROB30 TEMPO 1606/1615 5000 RA SCT008 FEW016TCU BKN020 PROB30 TEMPO 1606/1609 3000 TSRA BKN006 FEW016CB OVC020
LGRX,TAF LGRX 160500Z 1606/1615 03012KT 9999 FEW025
LGSA,TAF LGSA 160500Z 1606/1706 01018KT 9999 SCT015 BKN020 PROB40 TEMPO 1606/1706 5000 RA SCT012 FEW018TCU BKN020 PROB30 TEMPO 1606/1612 4000 TSRA SCT006 FEW018CB BKN020 OVC070 TEMPO 1606/1706 01020G30KT
LGSK,TAF LGSK 160500Z 1606/1615 03017KT 9000 FEW018
LGSM,TAF LGSM 160500Z 1606/1615 36010KT 9999 FEW020 SCT050 TEMPO 1609/1615 36010G20KT
LGSR,TAF LGSR 160500Z 1606/1706 35020KT 9999 SCT025 TEMPO 1606/1706 35022G34KT
LGST,TAF LGST 160500Z 1606/1615 35018KT 9999 FEW010 FEW018TCU BKN025 PROB40 TEMPO 1606/1615 5000 RA SCT010 FEW018TCU BKN020 PROB30 TEMPO 1606/1609 3000 TSRA SCT006 FEW016CB BKN020 OVC070 TEMPO 1606/1615 35020G32KT
LGSY,TAF LGSY 160500Z 1606/1615 02020G30KT 9999 SCT025
LGTG,TAF LGTG 160500Z 1606/1615 36012KT 9999 SCT025
LGTL,TAF LGTL 160500Z 1606/1615 36015G30KT 9999 BKN020 PROB30 TEMPO 1606/1615 5000 RA
LGTS,TAF LGTS 160500Z 1606/1706 VRB03KT 9999 FEW025 PROB40 TEMPO 1703/1706 5000 BR SCT010
LGZA,TAF LGZA 160500Z 1606/1615 02012KT 9999 FEW018
LHBP,TAF LHBP 160515Z 1606/1706 10005KT CAVOK BECMG 1606/1609 15008KT BECMG 1615/1618 09005KT
LHDC,TAF LHDC 160515Z 1606/1615 VRB03KT 3000 BR NSC BECMG 1606/1609 14006KT CAVOK
LHKE,TAF LHKE 160515Z 1606/1615 14006KT CAVOK PROB40 TEMPO 1606/1607 6000 MIFG NSC BECMG 1606/1608 16009KT
LHPA,TAF LHPA 160515Z 1606/1706 18004KT CAVOK BECMG 1606/1609 19009KT BECMG 1614/1617 15005KT PROB30 TEMPO 1702/1706 VRB02KT 8000 MIFG BCFG NSC
LHPP,TAF LHPP 160515Z 1606/1615 11005KT CAVOK TEMPO 1609/1615 VRB03KT
LHPR,TAF LHPR 160515Z 1606/1615 13006KT CAVOK BECMG 1608/1611 17010KT
LHSM,TAF AMD LHSM 160600Z 1606/1615 VRB02KT 0150 FG VV001 BECMG 1606/1609 18007KT CAVOK
LHSN,TAF LHSN 160515Z 1606/1615 14005KT CAVOK BECMG 1606/1608 17010KT PROB40 1613/1615 11005KT
LIBA,TAF LIBA 160500Z 1606/1615 28006KT 5000 BR FEW010 BECMG 1608/1610 9999 FEW030 TEMPO 1612/1615 09008KT
LIBC,TAF LIBC 160614Z 1607/1706 35005KT CAVOK BECMG 1608/1610 05010KT BECMG 1616/1618 35006KT
LIBD,TAF LIBD 160500Z 1606/1706 VRB06KT CAVOK
LIBF,TAF LIBF 160500Z 1606/1706 VRB05KT CAVOK TEMPO 1620/1706 1200 BCFG
LIBG,TAF LIBG 160610Z 1607/1615 03006KT CAVOK
LIBP,TAF LIBP 160500Z 1606/1706 VRB05KT CAVOK BECMG 1610/1612 08010KT BECMG 1613/1615 VRB05KT TEMPO 1622/1706 3000 BR
LIBR,TAF LIBR 160500Z 1606/1706 32008KT CAVOK
LIBV,TAF LIBV 160500Z 1606/1615 VRB03KT 3000 BR FEW010 BECMG 1606/1608 34007KT 9999 SCT030
LICA,TAF LICA 160500Z 1606/1706 VRB05KT CAVOK BECMG 1608/1610 25012KT BECMG 1617/1619 VRB05KT
LICB,TAF LICB 160500Z 1606/1706 VRB04KT 9999 FEW030 BECMG 1608/1610 25010KT BECMG 1616/1618 VRB04KT
LICC,TAF LICC 160500Z 1606/1706 VRB05KT CAVOK BECMG 1608/1610 09012KT BECMG 1616/1618 VRB05KT
LICD,TAF LICD 160500Z 1606/1706 VRB05KT 9999 FEW020 BECMG 1610/1612 15012KT BECMG 1617/1619 VRB05KT
LICG,TAF LICG 160500Z 1606/1615 VRB05KT 9999 SCT020 BECMG 1608/1610 15012KT
LICJ,TAF LICJ 160500Z 1606/1706 VRB05KT 9999 FEW030 BECMG 1608/1610 03012KT BECMG 1616/1618 VRB05KT
LICR,TAF LICR 160500Z 1606/1706 VRB05KT 9999 SCT030 BECMG 1608/1610 16012KT BECMG 1617/1619 VRB05KT
LICT,TAF LICT 160500Z 1606/1615 09005KT 9999 FEW020 BECMG 1610/1612 30005KT SCT040
LICZ,TAF LICZ 160500Z 1606/1706 33005KT 9999 FEW080 BECMG 1611/1613 09010KT FEW030 BECMG 1619/1621 VRB03KT SCT020 BECMG 1700/1702 30003KT
LIEA,TAF LIEA 160500Z 1606/1706 VRB04KT 9999 FEW025 BECMG 1608/1610 02010KT BECMG 1617/1619 VRB04KT
LIED,TAF LIED 160500Z 1606/1615 VRB03KT 9999 SCT015 BECMG 1609/1610 14010KT CAVOK
LIEE,TAF LIEE 160500Z 1606/1706 VRB05KT 9999 FEW035 BECMG 1608/1610 16012KT BECMG 1617/1619 VRB05KT
LIEO,TAF LIEO 160500Z 1606/1706 27006KT 9999 FEW030 BECMG 1608/1610 06012KT BECMG 1617/1619 VRB05KT
LIMC,TAF LIMC 160500Z 1606/1712 VRB05KT 8000 BKN050
LIME,TAF LIME 160500Z 1606/1706 VRB05KT 8000 SCT040
LIMF,TAF LIMF 160500Z 1606/1706 VRB04KT 4000 BR BKN040 BECMG 1610/1612 8000
LIMG,TAF LIMG 160604Z 1607/1706 VRB06KT CAVOK
LIMJ,TAF LIMJ 160500Z 1606/1706 VRB05KT 9999 SCT030
LIML,TAF LIML 160500Z 1606/1706 VRB04KT 6000 BKN040 TEMPO 1622/1706 3000 BR
LIMP,TAF LIMP 160500Z 1606/1706 VRB04KT 6000 SCT050 TEMPO 1622/1706 3000 BR
LIMZ,TAF LIMZ 160500Z 1606/1706 VRB04KT 6000 BKN040
LIPB,TAF LIPB 160500Z 1606/1706 VRB05KT 7000 BKN040
LIPC,TAF LIPC 160500Z 1606/1615 VRB03KT CAVOK BECMG 1612/1614 07006KT
LIPE,TAF LIPE 160500Z 1606/1706 VRB05KT 9999 FEW040 TEMPO 1622/1706 3000 BR
LIPH,TAF LIPH 160500Z 1606/1706 VRB03KT 6000 SCT030 TEMPO 1622/1706 1200 BCFG
LIPK,TAF LIPK 160500Z 1606/1706 VRB05KT 9999 FEW040 TEMPO 1622/1706 1200 BCFG
LIPL,TAF LIPL 160500Z 1606/1615 VRB03KT 3000 BR BKN060 PROB40 TEMPO 1606/1608 1500 BR BECMG 1608/1610 6000
LIPO,TAF LIPO 160500Z 1606/1706 VRB05KT 4000 BR SCT050 BECMG 1610/1612 7000 TEMPO 1700/1706 1200 BCFG
LIPQ,TAF LIPQ 160500Z 1606/1706 VRB05KT 6000 FEW040
LIPR,TAF LIPR 160500Z 1606/1706 VRB05KT 9999 FEW040 BECMG 1612/1614 10010KT BECMG 1616/1618 VRB05KT TEMPO 1700/1706 3000 BR
LIPS,TAF LIPS 160500Z 1606/1615 05003KT 2500 BR SCT035 TEMPO 1606/1607 1500 BR BECMG 1607/1609 7000
LIPX,TAF LIPX 160500Z 1606/1706 VRB05KT 6000 SCT050
LIPY,TAF LIPY 160500Z 1606/1706 VRB05KT CAVOK BECMG 1610/1612 10010KT BECMG 1616/1618 VRB05KT TEMPO 1622/1706 2000 BR
LIPZ,TAF LIPZ 160500Z 1606/1712 06006KT 7000 SCT030 BECMG 1611/1613 16010KT BECMG 1618/1620 VRB05KT TEMPO 1622/1706 1200 BCFG
LIRA,TAF LIRA 160500Z 1606/1706 VRB04KT CAVOK BECMG 1608/1610 23010KT BECMG 1616/1618 VRB04KT
LIRE,TAF LIRE 160500Z 1606/1615 04005KT CAVOK
LIRF,TAF LIRF 160500Z 1606/1712 VRB04KT 9999 FEW030 BECMG 1608/1610 13010KT BECMG 1614/1616 VRB04KT TEMPO 1700/1705 3000 BR BECMG 1708/1710 25010KT
LIRM,TAF LIRM 160500Z 1606/1615 35006KT CAVOK
LIRN,TAF LIRN 160500Z 1606/1706 VRB04KT CAVOK BECMG 1608/1610 23010KT BECMG 1616/1618 VRB04KT
LIRP,TAF LIRP 160500Z 1606/1706 12005KT 9999 BKN040 TEMPO 1606/1607 5000 BR BECMG 1607/1609 9999 SCT035 SCT060 BECMG 1621/1623 CAVOK TEMPO 1702/1706 5000 MIFG
LIRQ,TAF LIRQ 160500Z 1606/1706 VRB05KT 9999 FEW030
LIRS,TAF LIRS 160500Z 1606/1615 02004KT CAVOK
LIRV,TAF LIRV 160500Z 1606/1615 VRB03KT 9999 FEW020 TEMPO 1606/1608 0100 FG BKN001
LIRZ,TAF LIRZ 160500Z 1606/1706 VRB05KT 9999 FEW040
LJCE,TAF LJCE 160500Z 1606/1615 VRB02KT 0200 FG VV001 TEMPO 1608/1611 3000 BR BKN003 BECMG 1610/1612 9999 NSW FEW030
LJLJ,TAF LJLJ 160500Z 1606/1706 VRB02KT 4000 BR FEW003 PROB30 1606/1608 0350 FG VV001 BECMG 1608/1610 9999 NSW FEW030 TEMPO 1621/1706 3000 BR PROB40 1702/1706 0300 FG VV001
LJMB,TAF LJMB 160500Z 1606/1706 VRB02KT CAVOK PROB30 TEMPO 1612/1616 19010KT TEMPO 1621/1706 3000 BCFG BR BKN003 PROB30 1703/1706 0300 FG VV001
LJPZ,TAF LJPZ 160500Z 1606/1615 11007KT 9999 SCT050
LKKB,TAF LKKB 160500Z 1606/1706 20008KT CAVOK TEMPO 1606/1609 5000 RA BR SCT015 OVC028 TEMPO 1609/1615 SCT035 BECMG 1621/1623 5000 BR NSC BECMG 1700/1702 2000 BR SCT009 TEMPO 1701/1706 0600 FG VV001
LKKV,TAF LKKV 160500Z 1606/1712 21005KT 9999 BKN016 TEMPO 1606/1612 4000 -RA BR BKN012 PROB30 TEMPO 1606/1609 1200 BR SCT005 BECMG 1612/1614 CAVOK BECMG 1619/1622 15005KT 3000 BR NSC TEMPO 1622/1708 1200 BR BKN005 PROB30 TEMPO 1622/1708 0500 FG VV001 BECMG 1708/1711 CAVOK
LKMT,TAF LKMT 160500Z 1606/1712 21008KT 9999 BKN040 TEMPO 1609/1620 22012G25KT BECMG 1612/1614 CAVOK
LKNA,TAF LKNA 160500Z 1606/1706 13006KT 0400 -DZ FG VV001 BECMG 1610/1612 2000 BR BKN005 PROB30 TEMPO 1612/1617 4000 BR SCT012 TEMPO 1619/1706 0700 FG OVC002
LKPD,TAF COR LKPD 160500Z 1606/1706 18004KT 9999 BKN040 TEMPO 1606/1612 10006KT 6000 RA BKN020 BECMG 1609/1611 CAVOK BECMG 1620/1622 12004KT PROB40 1622/1706 3000 MIFG BR SCT005
LKPR,TAF LKPR 160500Z 1606/1712 19008KT 9999 SCT040 TEMPO 1606/1608 3000 DZ BR SCT003 BECMG 1622/1700 16005KT 4000 BR SCT005 TEMPO 1700/1708 1200 BR BKN003 PROB30 TEMPO 1700/1708 0500 FG VV001 BECMG 1708/1710 9999 SCT015
LKTB,TAF LKTB 160500Z 1606/1712 18006KT 9999 BKN030 TEMPO 1606/1608 4000 BR OVC010 PROB30 TEMPO 1606/1608 2000 BR OVC004 BECMG 1612/1614 SCT020 BECMG 1618/1620 10005KT TEMPO 1620/1708 3000 BR SCT003 PROB30 TEMPO 1622/1708 1200 BR BKN002
LLBG,TAF LLBG 160503Z 1606/1706 VRB03KT CAVOK BECMG 1607/1609 32010KT PROB30 TEMPO 1612/1615 9999 FEW060CB BKN100 BECMG 1615/1617 VRB03KT BECMG 1620/1622 16006KT TX29/1611Z TN21/1703Z
LLER,TAF LLER 160502Z 1606/1706 03006KT CAVOK BECMG 1607/1609 18008KT BECMG 1617/1619 36008KT TX34/1612Z TN21/1703Z
LLHA,TAF LLHA 160512Z 1606/1706 14006KT CAVOK BECMG 1607/1609 34015KT PROB40 TEMPO 1609/1616 9999 TS FEW060CB BKN100 BECMG 1616/1618 VRB03KT BECMG 1620/1622 16006KT PROB30 TEMPO 1703/1706 9999 -RA BKN100 TX29/1611Z TN21/1703Z
LLHZ,TAF LLHZ 160512Z 1606/1706 VRB03KT CAVOK BECMG 1607/1609 32010KT PROB40 TEMPO 1610/1615 9999 FEW060CB BKN100 BECMG 1615/1617 VRB03KT BECMG 1620/1622 17006KT TX28/1611Z TN21/1703Z
LLIB,TAF LLIB 160513Z 1606/1706 VRB04KT CAVOK FM160700 17006KT CAVOK PROB40 TEMPO 1609/1614 9999 TS FEW060CB BKN100 BECMG 1614/1616 VRB03KT TX30/1612Z TN16/1703Z
LMML,TAF LMML 160500Z 1606/1706 10007KT 9999 SCT025 PROB30 1608/1616 9000 SHRA SCT024TCU
LOWG,TAF LOWG 160515Z 1606/1706 VRB05KT 9999 FEW050 TX20/1614Z TN09/1705Z TEMPO 1606/1610 0300 FG VV002 TEMPO 1618/1620 4000 MIFG TEMPO 1620/1706 0300 FG VV001
LOWI,TAF LOWI 160515Z 1606/1706 27004KT 9999 SCT070 TX22/1614Z TN07/1705Z PROB30 TEMPO 1606/1607 BKN006 BECMG 1609/1611 09007KT PROB40 TEMPO 1611/1618 12015KT BECMG 1616/1618 27003KT TEMPO 1700/1706 MIFG SCT002
LOWK,TAF AMD LOWK 160617Z 1606/1706 VRB04KT 9999 FEW050 TX20/1614Z TN08/1606Z TEMPO 1606/1609 0300 FG BKN002 TEMPO 1621/1623 4000 MIFG TEMPO 1623/1706 0300 FG BKN002
LOWL,TAF LOWL 160515Z 1606/1706 09005KT 0800 FG VV002 TX19/1614Z TN10/1702Z TEMPO 1606/1608 0200 VV001 BECMG 1608/1610 4000 BKN015 BECMG 1610/1612 CAVOK BECMG 1620/1622 1200 BCFG TEMPO 1622/1706 0300 FG VV001
LOWS,TAF LOWS 160515Z 1606/1706 16007KT CAVOK TX24/1614Z TN11/1705Z BECMG 1610/1612 34005KT BECMG 1616/1618 15005KT PROB30 TEMPO 1703/1706 VRB02KT 1200 BCFG NSC
LOWW,TAF LOWW 160515Z 1606/1712 13004KT 1500 FEW001 BKN003 TX20/1712Z TN11/1606Z TEMPO 1606/1608 0400 FG BKN001 BECMG 1608/1610 5000 BKN005 FM161100 14010KT CAVOK PROB30 1703/1708 BKN005 TEMPO 1709/1712 15015G25KT
LOXZ,TAF COR LOXZ 160515Z 1606/1615 11003KT 0400 FG VV002 BECMG 1607/1609 VRB03KT 9999 FEW050
LPAZ,TAF LPAZ 160500Z 1606/1712 32013KT 9999 SCT025 TEMPO 1606/1623 FEW020 BKN035 PROB30 TEMPO 1606/1609 8000 SHRA BKN015 FEW020TCU BECMG 1618/1620 28013KT BECMG 1623/1702 24018KT SCT018 BKN030 TEMPO 1706/1712 24020G33KT 8000 SHRA BKN015
LPBJ,TAF LPBJ 160505Z 1606/1706 VRB02KT CAVOK PROB30 1606/1609 0100 FG BKN001 BECMG 1610/1613 17012KT TEMPO 1614/1616 17018G30KT 4000 RA SCT030 BECMG 1616/1617 16007KT TEMPO 1621/1706 4000 RA SCT030 PROB30 TEMPO 1701/1706 3000 TSRA SCT015 BKN030CB
LPCS,TAF LPCS 160632Z 1606/1615 17007KT 9999 BKN018 BECMG 1607/1610 FEW025
LPFR,TAF LPFR 160500Z 1606/1706 06005KT CAVOK BECMG 1609/1611 12010KT 9999 FEW045 BECMG 1613/1615 VRB05KT BECMG 1620/1623 10005KT
LPHR,TAF LPHR 160632Z 1606/1615 35010KT 9999 FEW018 SCT030 PROB30 TEMPO 1607/1615 8000 SHRA BKN015 BECMG 1610/1613 28010KT
LPLA,TAF LPLA 160506Z 1606/1706 31012KT 9999 SCT025 TEMPO 1606/1609 32015G25KT BECMG 1618/1621 25012KT TEMPO 1621/1706 25015G25KT 8000 -SHRA SCT014 BKN020 PROB40 TEMPO 1700/1706 24020G35KT 4000 SHRA SCT007 BKN014 BKN025CB
LPMA,TAF LPMA 160500Z 1606/1706 VRB05KT 9999 SCT015 BECMG 1611/1614 20007KT BECMG 1617/1619 25007KT TEMPO 1619/1703 VRB05KT BECMG 1703/1706 22012KT
LPMR,TAF LPMR 160506Z 1606/1706 17010KT 8000 SCT008 BKN018 PROB40 1606/1609 VRB02KT 2000 BR OVC008 PROB40 TEMPO 1609/1612 2000 RADZ BR BECMG 1610/1613 9999 SCT025 TEMPO 1619/1706 4000 RA PROB40 TEMPO 1700/1706 2000 TSRA BKN008 BKN030CB
LPMT,TAF LPMT 160506Z 1606/1706 VRB02KT 9999 BKN020 PROB30 1606/1610 2000 BR BKN008 BECMG 1609/1612 18010KT SCT020 TEMPO 1616/1706 4000 RA SCT030 PROB40 TEMPO 1621/1706 2000 TSRA BKN012 BKN030CB
LPOV,TAF LPOV 151714Z 1518/1618 18010KT 8000 FEW007 BKN016 PROB40 TEMPO 1518/1521 3000 -RADZ BR SCT004 BKN009 PROB40 TEMPO 1521/1609 0700 -RADZ FG BKN004 PROB40 TEMPO 1609/1611 3000 -RADZ BR SCT004 BKN009 BECMG 1610/1612 9999 FEW015 SCT025
LPPD,TAF LPPD 160500Z 1606/1706 35010KT 9999 SCT020 TEMPO 1606/1702 FEW018 BKN035 BECMG 1613/1615 30008KT BECMG 1620/1622 24012KT BECMG 1702/1705 27017KT SCT014 BKN030
LPPR,TAF LPPR 160500Z 1606/1706 19012KT 9999 SCT012 BKN030 PROB30 TEMPO 1606/1608 5000 -RADZ BR SCT002 BKN004 BECMG 1618/1620 16008KT PROB30 TEMPO 1618/1622 6000 RA SCT008 BKN025 BECMG 1703/1706 5000 -RADZ BR SCT004 BKN008
LPPS,TAF LPPS 160500Z 1606/1712 VRB05KT 9999 SCT015 BECMG 1612/1615 23005KT BECMG 1707/1710 20010KT
LPPT,TAF LPPT 160500Z 1606/1712 21005KT 9999 BKN018 PROB30 TEMPO 1606/1608 5000 BR BKN006 BECMG 1608/1611 16008KT FEW025 PROB30 TEMPO 1616/1620 6000 RA SCT015 BKN040 BECMG 1622/1624 VRB05KT 5000 -RADZ BR SCT006 BKN012 BECMG 1709/1712 20010KT 9999 NSW BKN018
LQBK,TAF COR LQBK 160556Z 1606/1706 VRB02KT 4000 BR NSC TX21/1614Z TN07/1704Z BECMG 1606/1608 9999 NSW PROB40 1700/1706 3000 BR TEMPO 1703/1706 0200 FG VV002
LQMO,TAF LQMO 160500Z 1606/1706 VRB02KT CAVOK TX26/1614Z TN09/1704Z
LQSA,TAF LQSA 160500Z 1606/1706 VRB02KT CAVOK TX22/1614Z TN05/1606Z PROB40 1606/1608 1200 BCFG BKN002 TEMPO 1700/1706 3000 BR PROB40 1703/1706 0200 FG BKN001
LQTZ,TAF LQTZ 160500Z 1606/1706 VRB02KT CAVOK TX23/1614Z TN07/1704Z TEMPO 1700/1706 3000 BR PROB40 1701/1706 0200 FG VV001
LRAR,TAF LRAR 160500Z 1606/1615 14006KT CAVOK
LRBC,TAF LRBC 160500Z 1606/1615 VRB04KT CAVOK
LRBO,TAF LRBO 160500Z 1606/1706 04006KT 9999 SKC TEMPO 1609/1613 10010KT
LRBS,TAF LRBS 160500Z 1606/1706 03006KT CAVOK PROB40 TEMPO 1606/1607 5000 BR
LRCK,TAF LRCK 160500Z 1606/1706 VRB04KT CAVOK BECMG 1606/1608 02010KT BECMG 1615/1617 VRB04KT
LRCL,TAF LRCL 160500Z 1606/1615 VRB04KT 0200 FG VV001 BECMG 1606/1607 0800 BKN002 BECMG 1607/1608 3000 BR SCT005 BECMG 1608/1610 9999 NSW BECMG 1610/1612 11010KT
LRCT,TAF LRCT 160500Z 1606/1706 VRB03KT 0500 FG VV002 BECMG 1607/1609 5000 BR BKN010 BECMG 1609/1611 9999 SKC
LRCV,TAF LRCV 160500Z 1606/1615 08007KT CAVOK
LRFT,TAF LRFT 160500Z 1606/1706 03008KT 9999 SKC
LRIA,TAF LRIA 160500Z 1606/1615 VRB04KT CAVOK TEMPO 1609/1613 11010KT
LROD,TAF LROD 160500Z 1606/1615 10006KT CAVOK
LROP,TAF LROP 160500Z 1606/1706 03006KT CAVOK PROB40 TEMPO 1606/1607 5000 BR
LRSB,TAF LRSB 160500Z 1606/1706 VRB04KT CAVOK PROB40 TEMPO 1606/1607 3000 BR TEMPO 1620/1706 3000 BR
LRSV,TAF LRSV 160500Z 1606/1615 VRB04KT CAVOK BECMG 1607/1609 14010KT
LRTC,TAF LRTC 160500Z 1606/1615 VRB04KT CAVOK BECMG 1606/1608 01010KT
LRTM,TAF LRTM 160500Z 1606/1615 VRB04KT 0600 FG BKN002 PROB40 TEMPO 1606/1607 0350 FG VV001 BECMG 1607/1608 3000 BR SCT005 BECMG 1608/1609 5000 BECMG 1609/1610 9999 NSW
LRTR,TAF LRTR 160500Z 1606/1706 11006KT CAVOK
LRTZ,TAF LRTZ 160500Z 1606/1706 33006KT 9999 FEW030 TEMPO 1608/1612 04012KT SCT035 BECMG 1615/1617 SKC
LSGC,TAF LSGC 160525Z 1606/1615 VRB02KT CAVOK BECMG 1606/1609 23010KT
LSGG,TAF LSGG 160525Z 1606/1712 VRB02KT CAVOK TX23/1614Z TN13/1606Z TN10/1705Z BECMG 1606/1608 23007KT BECMG 1615/1617 VRB02KT PROB30 TEMPO 1702/1706 4500 MIFG
LSGS,TAF AMD LSGS 160610Z 1606/1615 VRB02KT 9999 SCT150 BECMG 1607/1610 CAVOK
LSZA,TAF LSZA 160525Z 1606/1615 VRB02KT 9999 BKN060 TEMPO 1606/1607 4500 BR
LSZB,TAF LSZB 160525Z 1606/1615 VRB02KT CAVOK TEMPO 1606/1610 9999 SCT140
LSZG,TAF LSZG 160525Z 1606/1615 VRB02KT 7000 NSC PROB40 1606/1607 3500 BCFG PROB30 1606/1607 0400 PRFG VV002
LSZH,TAF LSZH 160525Z 1606/1712 VRB02KT CAVOK TX22/1614Z TN12/1606Z TN08/1704Z PROB40 1606/1607 3000 BCFG BECMG 1621/1623 2000 BCFG NSC BECMG 1623/1701 0600 PRFG BECMG 1701/1703 0400 FG VV002 BECMG 1707/1709 3000 BR SCT002 BECMG 1709/1711 CAVOK
LSZL,TAF LSZL 160525Z 1606/1615 VRB02KT 9999 SCT070 PROB30 TEMPO 1606/1608 4500 BR
LSZR,TAF LSZR 160525Z 1606/1615 VRB02KT CAVOK
LSZS,TAF LSZS 160525Z 1606/1615 20002KT 9999 OVC011 TX14/1612Z BECMG 1606/1607 SCT015 PROB30 1611/1612 21012KT
LTAB,TAF LTAB 160440Z 1606/1615 VRB02KT 9999 SCT040 BKN100 TEMPO 1606/1610 -SHRA BKN035 BKN090 TEMPO 1610/1614 -SHRA BKN035 BKN090
LTAC,TAF LTAC 160440Z 1606/1706 VRB02KT 9999 SCT040 BKN100 TEMPO 1606/1610 03012KT -SHRA FEW025CB BKN030 BKN080 TEMPO 1613/1617 03012KT -SHRA FEW025CB BKN030 BKN080 TEMPO 1618/1622 03012KT -SHRA BKN025 BKN080 TEMPO 1623/1703 -SHRA SCT009 BKN025 BKN080 BECMG 1703/1706 03012KT
LTAD,TAF LTAD 160440Z 1606/1615 VRB02KT 9999 SCT040 BKN100 TEMPO 1606/1610 -SHRA BKN035 BKN090 TEMPO 1610/1614 -SHRA BKN035 BKN090
LTAE,TAF LTAE 160440Z 1606/1615 VRB02KT 9999 SCT040 BKN100 TEMPO 1606/1610 -SHRA BKN030 BKN090 TEMPO 1610/1614 -SHRA BKN030 BKN090
LTAF,TAF LTAF 160440Z 1606/1706 VRB02KT 9999 SCT035 PROB40 TEMPO 1618/1622 VRB15G25KT -TSRA SCT020CB BKN030
LTAG,TAF LTAG 160440Z 1606/1706 03007KT 9999 SCT035 BKN100 TEMPO 1619/1622 VRB15G25KT -TSRA FEW025CB BKN030 TEMPO 1701/1705 03017KT
LTAH,TAF LTAH 160440Z 1606/1615 VRB02KT 9999 SCT040 BKN100 TEMPO 1606/1610 -SHRA TEMPO 1610/1614 -SHRA
LTAI,TAF LTAI 160440Z 1606/1706 VRB02KT 9999 SCT030 BKN100 BECMG 1606/1609 FEW020CB BKN030 PROB40 1610/1614 -TSRA BECMG 1618/1621 34012KT SCT030
LTAJ,TAF LTAJ 160440Z 1606/1706 VRB02KT CAVOK BECMG 1610/1612 FEW040 BKN120 BECMG 1616/1618 BKN040 BKN100 TEMPO 1621/1701 -TSRA FEW020CB BKN030 BECMG 1700/1702 36012KT TEMPO 1701/1705 -TSRA FEW020CB BKN030
LTAL,TAF LTAL 160440Z 1606/1615 VRB02KT 3200 BR FEW008 BECMG 1606/1608 6000 BKN034 TEMPO 1609/1612 -SHRA BKN028 BKN080
LTAN,TAF LTAN 160440Z 1606/1615 VRB02KT 9999 SCT035 BKN090 BECMG 1609/1611 -SHRA PROB40 TEMPO 1611/1614 -TSRA FEW025CB BKN035
LTAO,TAF LTAO 160440Z 1606/1615 VRB02KT 9999 SCT040 BKN100
LTAP,TAF LTAP 160440Z 1606/1706 VRB02KT 9999 BKN020 BECMG 1608/1611 03015KT SCT040 BECMG 1615/1618 03005KT BKN028 TEMPO 1618/1622 -SHRA
LTAR,TAF LTAR 160440Z 1606/1615 12008KT 9999 SCT035 SCT100 TEMPO 1612/1615 16018G32KT -TSRA FEW025CB BKN030
LTAS,TAF LTAS 160440Z 1606/1615 VRB02KT 6000 SCT030 BKN090 TEMPO 1606/1610 4000 -SHRA BR SCT004 BKN025 BKN080 TEMPO 1610/1614 34012KT 4000 -SHRA BR SCT004 BKN025 BKN080
LTAT,TAF LTAT 160440Z 1606/1706 07007KT 9999 SCT040 BKN100 TEMPO 1616/1619 34011KT BECMG 1619/1621 21011KT
LTAU,TAF LTAU 160440Z 1606/1706 06008KT 9999 SCT040 SCT100 PROB40 TEMPO 1610/1614 15015G30KT -TSRA FEW030CB BKN035 BKN090 TEMPO 1615/1619 -SHRA FEW030CB BKN035 BKN090 TEMPO 1622/1702 -SHRA BKN033 BKN090
LTAV,TAF LTAV 160440Z 1606/1615 VRB02KT 9999 SCT040 BKN100 TEMPO 1606/1610 -SHRA TEMPO 1610/1614 -SHRA
LTAW,TAF LTAW 160440Z 1606/1615 VRB02KT 4000 BR SCT005 SCT040 BECMG 1606/1608 9999 NSW
LTAY,TAF LTAY 160440Z 1606/1615 VRB02KT 9999 SCT035 BKN100 BECMG 1606/1609 -SHRA PROB40 TEMPO 1612/1615 -TSRA FEW020CB BKN030
LTAZ,TAF LTAZ 160440Z 1606/1706 VRB02KT 9999 SCT040 SCT100 TEMPO 1610/1614 24015G30KT -TSRA FEW030CB BKN035 BKN090 TEMPO 1615/1619 -SHRA FEW030CB BKN035 BKN090 TEMPO 1622/1702 -SHRA BKN033 BKN090
LTBA,TAF LTBA 160440Z 1606/1706 01015KT 9999 SCT035 BKN100 BECMG 1606/1608 03019G29KT TEMPO 1607/1611 -SHRA SCT015 BKN025 BECMG 1615/1618 02015KT
LTBD,TAF LTBD 160440Z 1606/1615 VRB02KT 9999 SCT035 BKN100 TEMPO 1606/1608 3500 -SHRA BR BECMG 1607/1610 09013KT
LTBF,TAF LTBF 160440Z 1606/1615 01010KT 9999 FEW020 SCT035 BKN100 TEMPO 1606/1610 01020G30KT
LTBG,TAF LTBG 160440Z 1606/1615 06020G32KT 9999 FEW015 SCT035 BKN100 TEMPO 1606/1610 -SHRA
LTBH,TAF LTBH 160440Z 1606/1615 07017G28KT 9999 SCT035 BKN100
LTBI,TAF LTBI 160440Z 1606/1615 VRB02KT 9999 SCT040 BKN100 TEMPO 1606/1610 -SHRA TEMPO 1610/1614 -SHRA
LTBJ,TAF LTBJ 160440Z 1606/1706 35014KT 9999 FEW030 BKN100 BECMG 1606/1609 01022G35KT BECMG 1618/1621 CAVOK BECMG 1621/1624 36015G25KT
LTBK,TAF LTBK 160440Z 1606/1615 34014KT 9999 FEW030 BKN100 BECMG 1606/1609 35020G32KT
LTBL,TAF LTBL 160440Z 1606/1615 36012KT CAVOK BECMG 1607/1609 36015G25KT
LTBN,TAF LTBN 160440Z 1606/1615 VRB02KT 9999 SCT040 BKN100 TEMPO 1606/1610 -SHRA TEMPO 1610/1614 -SHRA
LTBO,TAF LTBO 160440Z 1606/1615 08008KT 9999 SCT035 BKN100 TEMPO 1606/1610 -SHRA BECMG 1607/1609 07015G25KT
LTBP,TAF LTBP 160440Z 1606/1615 04012KT 9999 BKN030 BKN080 TEMPO 1606/1610 -SHRA SCT012 BKN020 TEMPO 1610/1614 03015G27KT -SHRA
LTBQ,TAF LTBQ 160440Z 160615 03008KT 6000 -SHRA SCT012 BKN025 TEMPO 1606/1610 3200 SHRA TEMPO 1610/1614 3200 SHRA
LTBR,TAF LTBR 160440Z 1606/1706 VRB02KT 8000 -SHRA BKN030 BKN090 TEMPO 1607/1609 4000 SHRA BKN020 BKN080 BECMG 1608/1611 35014KT BECMG 1617/1621 VRB02KT SCT035 PROB40 1703/1706 3500 -SHRA BR BKN025
LTBS,TAF LTBS 160440Z 1606/1706 VRB02KT 9999 SCT030 BKN090 PROB40 TEMPO 1611/1615 4000 TSRA FEW020CB BKN030
LTBT,TAF LTBT 160440Z 1606/1615 01012KT 9999 SCT040 BKN100 BECMG 1607/1609 36015G25KT
LTBU,TAF LTBU 160440Z 1606/1706 01014KT 9999 SCT030 BECMG 1606/1608 03019G29KT TEMPO 1607/1609 -SHRA BKN025 BECMG 1615/1618 03012KT
LTBV,TAF LTBV 160440Z 1606/1615 VRB02KT 9999 SCT035 BKN100 PROB40 TEMPO 1610/1614 -SHRA
LTBX,TAF LTBX 160440Z 1606/1615 03015KT 9999 BKN030 BKN090 TEMPO 1607/1610 -SHRA SCT012 BKN025 PROB40 TEMPO 1610/1614 04017G27KT -SHRA
LTBY,TAF LTBY 160440Z 1606/1615 VRB02KT 9999 SCT040 BKN100 TEMPO 1606/1610 -SHRA TEMPO 1610/1614 -SHRA
LTBZ,TAF LTBZ 160440Z 1606/1615 VRB02KT 9999 SCT040 BKN100 TEMPO 1606/1610 -SHRA TEMPO 1610/1614 -SHRA
LTCA,TAF LTCA 160440Z 1606/1615 23007KT 9999 SCT035 BKN100
LTCB,TAF LTCB 160440Z 1606/1615 VRB02KT 9999 SCT035 BKN100
LTCC,TAF LTCC 160440Z 1606/1706 VRB02KT CAVOK
LTCD,TAF LTCD 160440Z 1606/1615 VRB02KT 9999 FEW045
LTCE,TAF LTCE 160440Z 1606/1706 VRB02KT 9999 SCT035 BKN070 TEMPO 1610/1614 -SHRA FEW025CB BKN035
LTCF,TAF LTCF 160440Z 1606/1615 VRB02KT 9999 SCT040 BKN070 TEMPO 1612/1615 -TSRA FEW025CB BKN035
LTCG,TAF LTCG 160440Z 1606/1706 VRB02KT 9999 SCT035 TEMPO 1610/1614 BKN035 TEMPO 1614/1618 -SHRA BKN028 BECMG 1618/1622 BKN035
LTCI,TAF LTCI 160440Z 1606/1615 28009KT 9999 FEW040 SCT180
LTCJ,TAF LTCJ 160440Z 1606/1706 VRB02KT CAVOK BECMG 1608/1610 FEW040 BKN100 BKN200 BECMG 1701/1703 CAVOK
LTCK,TAF LTCK 160440Z 1606/1615 28009KT 9999 SCT030
LTCL,TAF LTCL 160440Z 1606/1615 21005KT 9999 FEW040 SCT100
LTCM,TAF LTCM 160440Z 1606/1615 VRB02KT 6000 SCT030 BKN100
LTCN,TAF LTCN 160440Z 1606/1615 VRB02KT 9999 FEW040 SCT100
LTCO,TAF LTCO 160440Z 1606/1615 VRB02KT 9999 SCT040
LTCP,TAF LTCP 160440Z 1606/1615 02012KT 9999 SCT040 BKN100
LTCR,TAF LTCR 160440Z 1606/1615 VRB02KT CAVOK
LTCS,TAF LTCS 160440Z 1606/1706 36006KT CAVOK BECMG 1618/1620 SCT040 BKN100 PROB30 TEMPO 1700/1704 -TSRA FEW020CB BKN030
LTCT,TAF AMD LTCT 160539Z 1606/1615 VRB02KT 9999 FEW035CB SCT040 BKN080 TEMPO 1606/1608 -SHRA BECMG 1607/1609 SCT040 BKN080
LTCU,TAF LTCU 160440Z 1606/1615 23007KT 9999 SCT035 BKN100
LTCV,TAF LTCV 160440Z 1606/1706 VRB02KT 9999 FEW040 SCT100 BECMG 1606/1608 CAVOK BECMG 1618/1621 FEW040 BKN100
LTCW,TAF LTCW 160440Z 1606/1615 22009KT 8000 SCT030 BKN120
LTDA,TAF LTDA 160440Z 1606/1615 VRB02KT 9999 FEW035 BKN120
LTFA,TAF LTFA 160440Z 1606/1615 36012KT CAVOK BECMG 1607/1609 36015G25KT
LTFB,TAF LTFB 160440Z 1606/1615 VRB02KT 9999 SCT035 BKN100 BECMG 1606/1609 03017G27KT
LTFC,TAF LTFC 160440Z 1606/1706 36006KT 9999 SCT035 BKN100 TEMPO 1608/1612 -SHRA BKN030 BKN090
LTFD,TAF LTFD 160440Z 1606/1615 06015KT 9999 SCT035 BKN100 TEMPO 1606/1610 06025G35KT
LTFE,TAF LTFE 160440Z 1606/1706 VRB02KT 9999 SCT035 BKN100 PROB40 TEMPO 1610/1614 -SHRA
LTFG,TAF LTFG 160440Z 1606/1615 11005KT 9999 -TSRA FEW020CB BKN030 BECMG 1606/1609 18010KT NSW
LTFH,TAF LTFH 160440Z 1606/1615 VRB02KT 9999 SCT030 BKN100
LTFJ,TAF LTFJ 160440Z 1606/1706 04015KT 9999 BKN025 BKN080 TEMPO 1606/1609 -SHRA TEMPO 1609/1613 04016G27KT -SHRA PROB30 TEMPO 1613/1617 -SHRA PROB30 TEMPO 1623/1703 -SHRA
LTFK,TAF LTFK 160440Z 1606/1615 04020G32KT 9999 SCT025 BKN100
LTFM,TAF COR LTFM 160440Z 1606/1712 03021G31KT 9999 BKN022 TEMPO 1606/1610 -SHRA PROB30 TEMPO 1622/1702 -SHRA TEMPO 1706/1710 -SHRA
LTFO,TAF LTFO 160440Z 1606/1615 VRB02KT 9999 SCT035 BKN100
LUKK,TAF LUKK 160520Z 1606/1706 07008KT CAVOK BECMG 1617/1619 VRB04KT TEMPO 1701/1706 3000 BR
LWOH,TAF LWOH 160530Z 1606/1706 VRB02KT CAVOK BECMG 1608/1610 16005KT
LWSK,TAF LWSK 160530Z 1606/1706 VRB02KT CAVOK
LXGB,TAF AMD LXGB 160629Z 1606/1615 07008KT CAVOK PROB30 TEMPO 1606/1612 7000 -TSRA BKN120CB PROB30 TEMPO 1612/1615 08015G25KT 7000 -SHRA BKN120CB 520002
LYBE,TAF LYBE 160500Z 1606/1706 12007KT CAVOK TX22/1612Z TN10/1705Z TEMPO 1606/1612 12017KT
LYBT,TAF LYBT 160500Z 1606/1706 11009KT CAVOK TX22/1613Z TN11/1705Z
LYKV,TAF LYKV 160500Z 1606/1706 12005KT CAVOK TX22/1613Z TN06/1705Z TEMPO 1606/1607 3000 BR
LYNI,TAF LYNI 160500Z 1606/1706 05005KT CAVOK TX22/1612Z TN06/1705Z
LYPG,TAF LYPG 160500Z 1606/1706 16005KT CAVOK TX23/1612Z TN10/1605Z
LYTV,TAF LYTV 160500Z 1606/1706 26005KT CAVOK TX23/1613Z TN07/1705Z
LYVR,TAF LYVR 160500Z 1606/1706 14015G28KT CAVOK TX20/1612Z TN13/1705Z TEMPO 1606/1612 13020G38KT BECMG 1612/1614 14012KT
LZIB,TAF LZIB 160515Z 1606/1706 04005KT 9999 FEW012 SCT040 TEMPO 1609/1615 13006KT BECMG 1615/1617 09005KT
LZKZ,TAF LZKZ 160515Z 1606/1706 20004KT CAVOK TEMPO 1609/1617 21010KT BECMG 1700/1702 VRB02KT
LZMC,TAF LZMC 160430Z 1606/1618 15006KT CAVOK TEMPO 1606/1608 VRB02KT 5000 BCFG BR FEW010 BKN070 TEMPO 1609/1618 16012KT
LZPP,TAF LZPP 160515Z 1606/1615 19004KT 9999 BKN045 BECMG 1607/1609 16010KT
LZPW,TAF LZPW 160430Z 1606/1618 20012G25KT CAVOK
LZSL,TAF LZSL 160430Z 1606/1618 04002KT 9999 BKN050 BECMG 1609/1611 17004KT BECMG 1614/1616 FEW055
LZTT,TAF LZTT 160515Z 1606/1706 19005KT 9999 FEW046 BECMG 1609/1611 25010KT BECMG 1619/1621 VRB02KT
LZZI,TAF LZZI 160515Z 1606/1615 VRB02KT 9999 SCT042 BECMG 1610/1612 25005KT
MBGT,MBGT 160430Z 1606/1706 090058KT 9999 VCSH SCT018 SCT040 BECMG 1618/1620 FEW014CB SCT018
MBPV,MBPV 160430Z 1606/1706 090058KT 9999 VCSH SCT018 SCT040 BECMG 1618/1620 FEW014CB SCT018
MDBH,TAF MDBH 160400Z 1606/1706 00000KT 9999 FEW018 BECMG 1613/1615 13012KT
MDCY,TAF MDCY 160400Z 1606/1706 00000KT 9999 FEW018 PROB30 1606/1609 8000 -RA SCT018 SCT070 BECMG 16013/1615 12010KT
MDJB,TAF MDJB 160400Z 1606/1706 00000KT 9999 SCT016 BECMG 1612/1614 03005KT
MDLR,TAF MDLR 160400Z 1606/1706 00000KT 9999 SCT018 PROB30 1606/1612 8000 -SHRA BKN016 TEMPO 1614/1616 09006KT
MDPC,TAF MDPC 152200Z 1600/1700 09005KT 9999 FEW022 PROB30 1603/1609 8000 -TSRA FEW016CB SCT018 BECMG 1606/1608 00000KT
MDPP,TAF COR MDPP 160400Z 1606/1706 00000KT 9999 SCT018 BECMG 1614/1616 09014KT
MDSD,TAF MDSD 160400Z 1606/1706 07006KT 9999 FEW018 SCT300 TEMPO 1606/1611 8000 -RA BKN018 BECMG 1613/1615 05010KT
MDST,TAF MDST 160400Z 1606/1706 00000KT 9999 FEW018 SCT300 TEMPO 1610/1614 5000 BR BKN014 FM 1615 11010KT 9999 FEW020 SCT300
MGGT,MGGT 160500Z 1606/1706 36010KT 9999 BKN014 TX25/1620Z TN15/1612Z BECMG 1608/1610 SCT016 BECMG 1614/1616 36010KT SCT018 TEMPO 1622/1706 8000 TSRA SCT020TCU FEW025CB BECMG 1702/1704 02006KT BKN016
MGMM,MGMM 152300Z 1600/1624 00000KT 9999 FEW016 BKN090 TX34/1620Z TN23/1612Z BECMG 1602/1604 CAVOK BECMG 1608/1610 SCT012 BECMG 1614/1616 09008KT SCT018 TEMPO 1620/1624 8000 TSRA SCT020TCU FEW025CB
MGPB,MGPB 160500Z 1606/1706 00000KT 9999 STC016 BKN080 TX32/1620Z TN21/1612Z BECMG 1614/1616 05008KT SCT018 TEMPO 1621/1704 8000 TSRA SCT020TCU FEW025CB BECMG 1701/1703 00000KT SCT016
MGSJ,MGSJ 160500Z 1606/1706 00000KT 9999 FEW016 BKN080 TX33/1620Z TN21/1612Z BECMG 1614/1616 18008KT FEW018 TEMPO 1621/1706 8000 TSRA SCT020TCU FEW025CB BECMG 1700/1702 00000KT BKN018
MHLC,TAF MHLC 160500Z 1606/1706 06010KT 9999 SCT024 TX32/1619Z TN23/1612Z FM161600 03012KT 9999 SCT030TCU TEMPO 1622/1701 5000 TSSHRA SCT032CB BKN080 FM170100 VRB03KT 9999 SCT025
MHLM,TAF MHLM 160500Z 1606/1706 VRB05KT 9999 SCT026 TX33/1620Z TN24/1612Z FM161500 04012KT SCT032TCU TEMPO 1621/1701 6000 TSSHRA SCT032CB BKN080 FM170100 VRB03KT 9999 SCT030
MHPR,TAF MHPR 160500Z 1606/1706 VRB05KT 9999 SCT050 TX30/1620Z TN21/1609Z FM161800 33010KT 9999 SCT046TCU FEW048CB TEMPO 1621/1701 7000 SHRA FM170100 VRB05KT 9999 SCT046
MHRO,TAF MHRO 160500Z 1606/1706 08018KT 9999 SCT022 TX31/1619Z TN28/1612Z
MHTG,TAF MHTG 160500Z 1606/1706 VRB04KT 9999 FEW010 SCT030 TX29/1620Z TN19/1612Z FM161600 08008KT 9999 SCT032TCU TEMPO 1621/1701 5000 SHRA SCT035CB FM170100 VRB04KT 9999 SCT028
MKJP,TAF MKJP 160515Z 1606/1706 35008KT 9999 FEW020 FEW022CB BECMG 1614/1616 14018KT TEMPO 1617/1624 TSRA BKN020CB BECMG 1701/1703 35008KT
MKJS,TAF MKJS 160515Z 1606/1706 15005KT 9999 FEW020 FEW022 PROB30 TEMPO 1609/1614 TS SCT020CB BECMG 1615/1617 05012KT PROB40 TEMPO 1618/1624 TSRA SCT020CB SCT036 BECMG 1701/1703 VRB02KT
MMAA,TAF MMAA 160314Z 1606/1712 34005KT 5SM HZ SCT015 SCT250 TX31/1619Z TN26/1612Z FM161800 23008KT P6SM SCT015 SCT100 BKN250 TEMPO 1621/1701 BKN015CB FM170600 34005KT 5SM HZ SCT015 SCT250
MMAN,TAF MMAN 160414Z 1606/1706 09005KT P6SM SCT030 TEMPO 1611/1615 6SM HZ BKN010 FM161800 13012KT P6SM SCT030 BKN080 FM170500 14005KT P6SM SCT030
MMAS,TAF MMAS 160425Z 1606/1706 07005KT 6SM HZ SKC FM161800 14010KT P6SM SCT050 TEMPO 1622/1702 BKN050 FM170400 16005KT P6SM SCT030
MMBT,TAF MMBT 160418Z 1606/1706 00000KT 6SM HZ SCT020 BKN200 TEMPO 1612/1615 BKN020 FM161800 20010KT P6SM SCT030 SCT100 BKN200 TEMPO 1622/1702 5SM TSRA BKN020CB
MMCB,TAF MMCB 160418Z 1606/1706 00000KT 6SM HZ SKC TEMPO 1612/1615 3SM BR SCT010 FM161900 16010KT 6SM HZ SCT020 SCT100 BKN200 TEMPO 1622/1702 6SM TSRA BKN020CB
MMCE,TAF MMCE 160445Z 1606/1706 13010KT 6SM HZ SCT020 TEMPO 1612/1615 BKN015 FM161800 15010KT P6SM SCT020 BKN100 BECMG 1620/1621 03010KT TEMPO 1623/1703 6SM TSRA BKN015CB
MMCL,TAF MMCL 160255Z 1606/1706 00000KT P6SM SCT080 TEMPO 1612/1616 BKN015 FM161800 21008KT P6SM SCT020 BKN100 FM170500 00000KT P6SM SCT080
MMCM,TAF MMCM 160445Z 1606/1706 09005KT 6SM HZ SCT020 FM161800 13010KT 6SM HZ BKN020 TEMPO 1618/1622 5SM TSRA BKN015CB FM170300 13005KT 6SM HZ SCT015
MMCN,TAF MMCN 160433Z 1606/1706 00000KT 6SM HZ BKN030 TEMPO 1612/1615 3SM BR OVC010 FM162000 20010KT P6SM SCT030 FM170300 24005KT P6SM SCT015
MMCP,TAF MMCP 160445Z 1606/1706 00000KT 6SM HZ SCT300 TEMPO 1610/1614 BKN015 FM161900 13010KT 6SM HZ SCT030 SCT300 TEMPO 1622/1702 6SM TSRA BKN020CB
MMCS,TAF MMCS 160414Z 1606/1706 14005KT P6SM SCT030 FM161800 36012KT P6SM SCT030 SCT120 BKN250 TEMPO 1700/1704 5SM -RA BKN030CB FM170500 03006KT P6SM SCT030 BKN1200
MMCU,TAF MMCU 160414Z 1606/1706 32005KT P6SM SCT030 BKN080 TEMPO 1606/1608 6SM -RA BKN030CB FM161800 35012KT P6SM SCT030 BKN080 BKN250 FM170500 30005KT P6SM SCT030 BKN250
MMCV,TAF MMCV 160501Z 1606/1706 16005KT 6SM HZ SKC TEMPO 1611/1614 2SM BR BKN010 FM162000 14015KT P6SM BKN030 FM170300 16005KT 6SM HZ SCT020
MMCZ,TAF MMCZ 160409Z 1606/1712 10005KT P6SM SCT015 SCT250 FM161800 10012KT P6SM BKN015 BKN250 TEMPO 1621/1701 BKN015CB FM170600 09005KT P6SM SCT015 SCT250
MMDO,TAF MMDO 160433Z 1606/1706 13005KT P6SM SCT020 TEMPO 1611/1614 3SM BR SCT010 FM161900 16010KT P6SM SCT030 FM170300 16005KT P6SM SKC
MMEP,TAF MMEP 160425Z 1606/1706 03005KT 6SM HZ BKN015 FM160900 00000KT 3SM BR BKN010 TEMPO 1610/1614 1/2SM FG VV002 FM161500 00000KT 6SM HZ BKN015 FM161900 35010KT P6SM SCT020 SCT200 TEMPO 1622/1702 BKN020
MMGL,TAF MMGL 160235Z 1606/1712 00000KT P6SM SCT250 TX28/1621Z TN15/1612Z TEMPO 1612/1616 2SM BR HZ BKN015 FM161800 36008KT P6SM P6SM SCT020 BKN080 BKN250 FM170600 00000KT P6SM SCT250
MMGM,TAF MMGM 160433Z 1606/1706 23008KT P6SM SKC FM161800 23015KT P6SM SCT030 FM170300 24008KT P6SM SKC
MMHO,TAF MMHO 160255Z 1606/1706 22005KT P6SM SCT030 FM161800 23012KT P6SM SCT030 BKN090 TEMPO 1621/1701 BKN030 FM170500 22005KT P6SM SCT030
MMIA,TAF MMIA 160425Z 1606/1706 23005KT 6SM HZ SCT020 TEMPO 1611/1615 3SM BR BKN010 FM161800 24010KT 6SM HZ BKN025 TEMPO 1622/1702 5SM TSRA BKN020CB
MMIO,TAF MMIO 160414Z 1606/1706 00000KT P6SM SKC FM161800 36014KT P6SM SCT040 FM170500 00000KT P6SM SKC
MMLM,TAF MMLM 160433Z 1606/1706 25005KT 6SM HZ SKC TEMPO 1612/1614 3SM HZ SCT010 FM161800 23010KT P6SM SCT030 FM170300 24005KT P6SM SKC
MMLO,TAF MMLO 160425Z 1606/1706 02005KT 6SM HZ SCT200 FM161800 13010KT P6SM BKN030 FM170300 14005KT P6SM SCT020
MMLP,TAF MMLP 160255Z 1606/1706 18005KT P6SM SKC FM161800 31010KT P6SM SCT020 BKN070 TEMPO 1619/1623 BKN020 FM170500 19005KT P6SM SKC
MMLT,TAF MMLT 160433Z 1606/1706 26005KT P6SM SKC FM161900 26015KT P6SM SCT040 FM170400 26008KT P6SM SKC
MMMA,TAF MMMA 160501Z 1606/1706 12008KT P6SM SCT015 FM161800 13015KT P6SM BKN020 TEMPO 1619/1623 6SM -RA BKN020CB FM170300 14005KT 6SM HZ SCT020
MMMD,TAF MMMD 160409Z 1606/1712 10007KT P6SM SCT015 SCT250 TX33/1620Z TN24/1612Z TEMPO 1611/1615 4SM HZ BKN010 FM161800 12010KT P6SM BKN020 BKN250 TEMPO 1701/1705 5SM TSRA BKN015CB FM170600 09005KT P6SM SCT020 SCT250
MMML,TAF MMML 160255Z 1606/1706 28008KT P6SM SCT040 BKN250 FM161800 33012KT P6SM SCT030 BKN250 TEMPO 1620/1624 BKN040 FM170500 30007KT P6SM SCT040 SCT250
MMMM,TAF MMMM 160235Z 1606/1712 00000KT P6SM SKC FM161800 33008KT P6SM SCT030 SCT080 FM170600 00000KT P6SM SKC
MMMT,TAF MMMT 160445Z 1606/1706 02010KT 5SM HZ BKN030 BKN060 TEMPO 1606/1610 4SM TSRA BKN020CB FM161000 03005KT 6SM HZ BKN020 BKN080 TEMPO 1611/1615 3SM -RA BR BKN010 OVC020 FM161800 03010KT 6SM HZ BKN030 TEMPO 1623/1703 5SM TSRA BKN020CB
MMMV,TAF MMMV 160414Z 1606/1706 04007KT P6SM SKC FM161800 04012KT P6SM SCT040 FM170500 06006KT P6SM SKC
MMMX,TAF MMMX 160314Z 1606/1712 03006KT P6SM SKC TX25/1621Z TN11/1612Z FM161800 35012KT P6SM SCT030 SCT080 BKN250 FM170600 34006KT P6SM SKC
MMMY,TAF MMMY 160414Z 1606/1712 10007KT P6SM SCT030 TX30/1621Z TN23/1612Z TEMPO 1611/1615 6SM HZ BKN010 FM161800 13012KT P6SM SCT030 BKN080 FM170600 14005KT P6SM SCT030
MMMZ,TAF MMMZ 160255Z 1606/1712 34005KT P6SM SKC TX30/1620Z TN24/1612Z TEMPO 1611/1615 BKN015 FM161800 28008KT P6SM SCT025 BKN250 FM170600 34005KT P6SM SCT250
MMNL,TAF MMNL 160501Z 1606/1706 13010KT P6SM SKC FM160800 13010KT 5SM HZ BKN020 TEMPO 1611/1615 2SM BR SCT005 OVC010 FM161700 14018KT P6SM BKN030 FM170300 03015KT 6SM HZ BKN020
MMOX,TAF MMOX 160418Z 1606/1706 35005KT 6SM HZ SCT020 SCT080 TEMPO 1612/1615 BKN015 FM161800 03010KT P6SM SCT030 BKN100 TEMPO 1622/1702 5SM TSRA BKN020CB
MMPA,TAF MMPA 160501Z 1606/1706 08005KT 6SM HZ SKC FM161000 00000KT 4SM HZ SCT015 TEMPO 1612/1615 2SM BR BKN010 FM161800 03010KT 6SM HZ SCT020 TEMPO 1622/1702 BKN020
MMPB,TAF MMPB 160418Z 1606/1706 09005KT P6SM SCT020 TEMPO 1612/1615 3SM HZ BKN015 FM161900 13010KT P6SM SCT030 BKN200 TEMPO 1622/1702 6SM TSRA BKN020CB
MMPG,TAF MMPG 160501Z 1606/1706 12008KT P6SM SKC FM161000 13010KT 6SM HZ BKN015 TEMPO 1611/1615 3SM BR OVC010 FM161800 14015KT P6SM BKN030 FM170200 33010G20KT 5SM RA BKN020CB OVC070
MMPN,TAF MMPN 160425Z 1606/1706 00000KT 5SM HZ SCT020 TEMPO 1611/1615 2SM BR BKN010 FM161800 18010KT 6SM HZ BKN025 TEMPO 1622/1702 6SM TSRA BKN020CB
MMPQ,TAF MMPQ 160445Z 1606/1706 00000KT 6SM HZ SCT020 SCT100 BKN200 TEMPO 1612/1615 3SM BR HZ BKN020 FM161800 08010KT 6SM HZ SCT030 BKN100 TEMPO 1623/1703 5SM TSRA BKN020CB
MMPR,TAF MMPR 160235Z 1606/1712 34005KT P6SM SCT025 BKN080 TX31/1622Z TN26/1612Z FM161800 23010KT P6SM SCT025 BKN080 BKN250 FM170600 34005KT P6SM SCT030 SCT080 BKN250
MMPS,TAF MMPS 160418Z 1606/1706 23005KT P6SM SCT030 BKN100 FM161800 22010KT P6SM SCT030 BKN200 TEMPO 1622/1702 5SM TSRA BKN020CB
MMQT,TAF MMQT 160425Z 1606/1706 13005KT 6SM HZ SKC TEMPO 1612/1615 3SM HZ FM161800 13010KT P6SM SKC FM170300 13005KT 6SM HZ SKC
MMRX,TAF MMRX 160501Z 1606/1706 14010KT P6SM SKC TEMPO 1612/1615 BKN015 FM161900 15015KT P6SM BKN030 BECMG 1621/1622 SCT030 FM170300 14005KT 6SM HZ SCT020
MMSD,TAF MMSD 160433Z 1606/1706 26005KT 6SM HZ SCT030 FM161800 15012KT P6SM SCT040 FM170300 13005KT P6SM SKC
MMSL,TAF MMSL 160433Z 1606/1706 26010KT 6SM HZ SCT030 FM161900 26015KT P6SM SCT040 FM170300 26005KT P6SM SKC
MMSM,TAF MMSM 160314Z 1606/1712 03006KT P6SM SKC FM161800 35012KT P6SM SCT030 SCT080 BKN250 TEMPO 1622/1702 BKN025 FM170600 34006KT P6SM SKC
MMSP,TAF MMSP 160235Z 1606/1712 00000KT P6SM SKC TX24/1620Z TN08/1612Z TEMPO 1611/1615 2SM BR HZ BKN010 FM161800 12010KT P6SM SCT030 SCT080 FM170600 00000KT P6SM SKC
MMTC,TAF MMTC 160414Z 1606/1706 05005KT P6SM SKC FM161800 15007KT P6SM SCT030 SCT080 FM170500 10005KT P6SM SKC
MMTG,TAF MMTG 160409Z 1606/1706 00000KT P6SM SCT250 TEMPO 1611/1615 2SM BR HZ SCT004 BKN010 FM161800 02012KT P6SM BKN030 BKN100 BKN250 PROB40 1622/1702 5SM -RA BKN020CB FM170500 34005KT P6SM SCT030 SCT250
MMTJ,TAF COR MMTJ 160345Z 1606/1712 30005KT P6SM SCT015 BKN040 TX21/1620Z TN16/1612Z FM160900 00000KT 6SM HZ BKN020 TEMPO 1611/1615 5SM HZ BKN015 FM161800 35008KT P6SM SCT030 BKN080 FM170600 30005KT P6SM BKN020 FM170900 00000KT 5SM HZ BKN015
MMTM,TAF MMTM 160314Z 1606/1706 08007KT P6SM SKC TEMPO 1611/1615 BKN020 FM161800 09010KT P6SM SCT020 SCT100 FM170500 08006KT P6SM SKC
MMTO,TAF MMTO 160314Z 1606/1712 03006KT P6SM SKC TX23/1621Z TN07/1612Z FM161000 00000KT 4SM HZ SKC TEMPO 1612/1616 3SM BR HZ SCT015 FM161800 35012KT P6SM SCT030 SCT080 BKN250 PROB40 1623/1703 6SM -RA BKN020CB FM170600 34006KT P6SM SKC FM171000 00000KT 4SM HZ SKC
MMTP,TAF MMTP 160409Z 1606/1712 00000KT P6SM SCT070 FM161800 24008KT P6SM SCT020 BKN080 BKN250 TEMPO 1623/1703 BKN020CB FM170600 00000KT P6SM SCT030 SCT100
MMUN,TAF MMUN 160409Z 1606/1712 10005KT P6SM SCT015 TX31/1619Z TN25/1612Z FM161800 10012KT P6SM BKN015 BKN250 TEMPO 1621/1701 BKN015CB FM170600 09005KT P6SM SCT015 SCT250
MMVA,TAF MMVA 160445Z 1606/1706 00000KT 6SM HZ SKC TEMPO 1606/1610 5SM RA BKN015CB FM161000 00000KT 4SM HZ SCT015 BKN060 TEMPO 1610/1614 2SM BR SCT005 BKN010 FM161800 08010KT P6SM SCT020 BKN100 TEMPO 1623/1703 5SM TSRA BKN020CB
MMVR,TAF MMVR 160314Z 1606/1706 36006KT P6SM SCT008 TX32/1619Z TN23/1612Z PROB40 1612/1616 4SM -RA BKN012 FM161800 36012KT P6SM SCT015 BKN080 FM170500 02005KT P6SM SCT010 SCT250
MMZC,TAF MMZC 160235Z 1606/1712 17005KT P6SM SCT040 TX26/1621Z TN11/1612Z FM161800 18010KT P6SM BKN040 BKN250 FM170600 16005KT P6SM SCT040
MMZH,TAF MMZH 160418Z 1606/1706 00000KT 6SM HZ SKC FM161800 23010KT P6SM SCT020 BKN100 TEMPO 1622/1702 5SM TSRA BKN015CB
MMZO,TAF MMZO 160235Z 1606/1706 00000KT P6SM SCT020 SCT250 FM161800 24010KT P6SM SCT020 BKN100 BKN250 FM170500 00000KT P6SM SCT020 SCT250
MNBL,MNBL 152135Z 1600/1624 33006KT 8000 VCRA/-DZ SCT016 SCT070 BECMG 1610/1614 9999 BKN016 TEMPO 1616/1620 07010KT 5000 -DZ
MNMG,MNMG 160500Z 1606/1706 VRB04KT 9999 FEW022 SCT300 BECMG 1615/1617 09008KT 9999 SCT23TCU SCT070 PROB30 8000 -RA TEMPO 1702/1704 12006KT 9999 FEW022
MNPC,MNPC 152135Z 1600/1624 33004KT 6000 VCRA/-DZ BKN016TCU BECMG 1608/1612 7000 HZ SCT016 TEMPO 1614/1620 07010KT 6000 VCRA
MPDA,TAF MPDA 152300Z 1600/1612 22006KT 9999 SCT018 SCT090 PROB30 1600/1602 VRB02KT 7000 -RA SCT016 BKN090 TEMPO 1604/1608 27004KT
MPMG,TAF MPMG 152300Z 1600/1612 04005KT 9999 SCT016 SCT090 TEMPO 1604/1608 VRB02KT FEW014CB
MPPA,TAF MPPA 152300Z 1600/1706 02005KT 9999 SCT016 SCT090 TEMPO 1604/1608 VRB02KT FEW015CB PROB40 1618/1622 19008KT 7000 TSRA SCT016CB BKN090
MPSM,TAF MPSM 151720Z 1518/1624 19006KT 9999 SCT016 SCT090 PROB40 1519/1523 6000 TSRA SCT014CB BKN090 TEMPO 1523/1602 00000KT
MPTO,TAF MPTO 160500Z 1606/1712 33005KT 9999 SCT018 SCT090 PROB40 1606/1610 VRB02KT 8000 RA TEMPO 1610/1614 06004KT PROB40 1618/1622 17008KT 7000 TSRA SCT016CB BKN090
MRLB,MRLB 160500Z 1606/1706 12004KT 9999 FEW030 SCT200 TX31/1619Z TN22/1611Z TEMPO 1608/1614 00000KT 3000 BR TEMPO 1620/1624 27005KT 5000 TSRA SCT020CB 
MRLM,MRLM 160500Z 1606/1706 28003KT 9999 FEW030 BKN200 TX30/1620Z TN22/1611Z TEMPO 1608/1614 DZ FEW020TCU BECMG 1615/1618 05006KT BECMG 1700/1703 25004KT 
MROC,MROC 160500Z 1606/1706 25002KT 9999 SCT010 BKN040 TX28/1617Z TN18/1610Z TEMPO 1606/1609 VRB02KT 3000 BR BKN015 BECMG 1609/1611 09005KT BECMG 1614/1617 25006KT TEMPO 1619/1622 3000 TSRA SCT015CB 
MRPV,MRPV 160500Z 1606/1706 32003KT 9999 FEW010 BKN030 TX28/1618Z TN28/1610Z TEMPO 1606/1608 VRB02KT 5000 BR BKN010 BECMG 1608/1610 09005KT BECMG 1615/1618 29006KT TEMPO 1619/1924 5000 TSRA SCT010CB 
MSLP,TAF MSLP 160325Z 1606/1706 05006KT 9999 SCT023 FEW037CB BKN070 TX32/1617Z TN24/1610Z FM161300 08003KT 9999 SCT023 FM161700 20009KT 9999 SCT027 FEW037CB TEMPO 1619/1622 7000 TSRA BKN027 SCT037CB TEMPO 1703/1706 08013G30KT 2000 +TSRA BKN023 BKN033CB BKN060
MSSS,TAF MSSS 160325Z 1606/1706 35002KT 9999 SCT020 FEW037CB TX29/1518Z TN21/1612Z TEMPO 1611/1613 35002KT 2000 BR SCT010 FM161300 35002KT 9999 SCT027 TEMPO 1621/1624 18008KT 7000 TSRA BKN030 SCT037CB TEMPO 1702/1705 35012G23KT 2000 +TSRA BKN020 BKN030CB
MTCH,TAF MTCH 151730Z 1518/1618 03009KT 8000 SCT024CB BECMG 1604/1608 VRB02KT FM161300 05012KT 9000 FEW025
MTPP,TAF MTPP 151730Z 1518/1618 06006KT 9999 SCT028TCU SCT200 BECMG 1520/1522 28012KT PROB40 TEMPO 1600/1604 4000 TSRA SCT014CB SCT030 BECMG 1608/1610 VRB02KT 9000 NSW FEW016 TEMPO 1612/1616 10012KT
MUCC,MUCC 160500Z 1606/1706 VRB03KT 9000 SCT020 BECMG 1615/1617 04008KT TEMPO 1618/1624 VRB10KT 5000 TSRA SCT018CB BKN020 BECMG 1703/1705 VRB03KT
MUCM,MUCM 160500Z 1606/1706 VRB03KT 9000 SCT020 TEMPO 1618/1624 VRB10KT 5000 TSRA SCT018CB BKN020
MUCU,MUCU 160500Z 1606/1706 36005KT 9000 SCT020 BECMG 1615/1617 18008KT TEMPO 1618/1624 VRB10KT 5000 TSRA SCT018CB BKN020 BECMG 1703/1705 36005KT
MUGM,TAF MUGM 1523/1623 VRB06KT 9999 FEW030 SCT050 BKN250 QNH2990INS BECMG 1601/1603 34006KT 9999 FEW030 SCT250 QNH2988INS TEMPO 1603/1608 8000 BR BKN020 BKN080 T25/1611Z T30/1618Z FN00231
MUHA,MUHA 160500Z 1606/1706 VRB03KT 9000 SCT030 BECMG 1613/1615 05009KT TEMPO 1618/1623 3000 TSRA FEW018CB BKN020 BECMG 1701/1703 VRB03KT
MUHG,MUHG 160500Z 1606/1706 VRB03KT 9000 SCT020 BECMG 1615/1617 02008KT TEMPO 1618/1624 VRB10KT 5000 TSRA SCT018CB BKN020 BECMG 1703/1705 VRB03KT
MUSC,MUSC 160500Z 1606/1706 VRB03KT 9000 SCT020 BECMG 1615/1617 05008KT TEMPO 1618/1624 VRB10KT 5000 TSRA SCT018CB BKN020 BECMG 1703/1705 VRB03KT
MUVR,MUVR 160500Z 1606/1706 VRB03KT 9000 SCT020 BECMG 1615/1617 05010KT TEMPO 1618/1624 VRB10KT 5000 TSRA SCT018CB BKN020 BECMG 1703/1705 VRB03KT
MWCB,TAF MWCB 151700Z 1518/1618 12010KT 9999 SHRA SCT016CB BECMG 1522/524 07008KT SCT018 TEMPO 1616/1618 8000 SHRA SCT012CB
MWCR,TAF MWCR 152300Z 1600/1624 12010KT 9999 SHRA SCT014CB BECMG 1600/1602 9999 SCT018 TEMPO 1612/1616 9000 SHRA SCT014CB
MYGF,MYGF 160430Z 1606/1706 09005KT CAVOK FM131200 07012KT 9999 FEW018 SCT025
MYNN,MYNN 160430Z 1606/1706 08008KT 9999 FEW020 SCT035
MZBZ,TAF MZBZ 160300Z 1606/1706 10008KT 9999 SCT022 PROB40 TEMPO 1608/1619 5000 SHRA BKN014 PROB30 TEMPO 1612/1618 4000 TSRA FEW010CB SCT014 BKN045
NCRG,TAF NCRG 160514Z 1606/1706 09008KT 9999 FEW020
NFFN,TAF NFFN 160513Z 1606/1706 12005KT 9999 FEW030 BECMG 1621/1623 31010KT PROB40 TEMPO 1701/1704 5000 TSRA BKN016 FEW017CB BECMG 1704/1706 12005KT
NFNA,TAF NFNA 160518Z 1606/1706 11008KT 9999 SCT020 BKN045 PROB40 TEMPO 1606/1612 5000 TSRA BKN015 FEW018CB PROB40 TEMPO 1612/1706 5000 SHRA BKN015
NFTF,TAF NFTF 160515Z 1606/1706 14006KT 9999 FEW015 PROB40 TEMPO 1606/1621 5000 TSRA BKN015 FEW018CB
NFTV,TAF NFTV 160523Z 1606/1706 04005KT 9999 FEW020
NGFU,TAF NGFU 160522Z 1606/1706 05008KT 9999 SCT018 OVC100 PROB40 TEMPO 1606/1609 5000 TSRA FEW018CB PROB40 TEMPO 1612/1620 5000 TSRA FEW018CB PROB40 TEMPO 1700/1706 5000 SHRA BKN016
NGTA,TAF NGTA 160518Z 1606/1706 07006KT 9999 FEW020
NLWF,TAF NLWF 160500Z 1606/1706 08012KT 9999 FEW020 SCT035 TEMPO 1606/1624 SHRA FEW020TCU PROB40 TEMPO 1606/1609 4000 SHRA BKN014 FEW018TCU
NLWW,TAF NLWW 160500Z 1606/1706 08010KT 9999 FEW025 TEMPO 1608/1706 SHRA FEW020TCU
NSFA,TAF NSFA 160516Z 1606/1706 05006KT 9999 SCT020
NSTU,NSTU 160520Z 1606/1706 10015KT P6SM VCSH SCT015 SCT040 SCT100
NTAA,TAF NTAA 160500Z 1606/1712 VRB05KT 9999 FEW023
NVSC,TAF NVSC 152300Z 1600/1624 VRB01KT 9999 SCT020 BKN100 INTER 1600/1606 8000 SHRA SCT010 BKN018 OVC090
NVSG,TAF NVSG 152300Z 1600/1624 VRB03KT 9999 SCT020 INTER 1600/1606 9000 SHRA FEW010 BKN018
NVSL,TAF NVSL 152300Z 1600/1624 08005KT 9999 SCT020
NVSP,TAF NVSP 152300Z 1600/1624 14010KT 9999 SCT020
NVSS,TAF NVSS 160500Z 1606/1706 13010KT 9999 BKN020 OVC040 INTER 1600/1606 9000 SHRA FEW010 BKN018 OVC038
NVVA,TAF NVVA 152300Z 1600/1624 VRB03KT 9999 SCT020
NVVV,TAF NVVV 160500Z 1606/1706 09010KT 9999 SCT020 BKN120
NVVW,TAF NVVW 152300Z 1600/1624 VRB03KT 9999 SCT020
NWWD,TAF NWWD 160500Z 1606/1706 20008KT 9999 FEW045 PROB30 TEMPO 1700/1706 SHRA FEW020TCU
NWWE,TAF NWWE 151700Z 1518/1618 13008KT 9999 FEW035
NWWK,TAF NWWK 160500Z 1606/1706 18005KT 9999 SCT045 PROB30 TEMPO 1700/1706 SHRA FEW020TCU
NWWL,TAF NWWL 151700Z 1518/1618 10006KT 9999 SCT030
NWWM,TAF NWWM 151700Z 1518/1618 07008KT 9999 FEW030 BECMG 1522/1524 13015KT
NWWR,TAF NWWR 151700Z 1518/1618 10006KT 9999 FEW030
NWWU,TAF NWWU 151700Z 1518/1618 18006KT 9999 SCT030 BECMG 1520/1522 12012KT PROB30 TEMPO 1612/1618 SHRA
NWWW,TAF NWWW 160500Z 1606/1706 18010KT 9999 SCT045
NZAA,TAF NZAA 160504Z 1606/1712 23015KT 9999 BKN030 FM161100 28005KT 9999 BKN020 FM162300 30015KT 9999 -SHRA BKN020 TEMPO 1701/1707 5000 SHRA SCT015TCU FM170800 30005KT 9999 BKN020
NZCH,TAF NZCH 160514Z 1606/1712 06010KT 9999 FEW060 BECMG 1610/1612 27005KT TEMPO 1614/1620 BKN011 PROB40 1615/1620 0500 FG BECMG 1620/1622 21010KT FM170300 07012KT 9999 -SHRA BKN020 BECMG 1707/1709 VRB02KT
NZFX,TAF NZFX 160300Z 1603/1703 06009KT 9999 SCT020 QNH2930INS GRID23009KT BECMG 1609/1611 05009KT 9999 FEW010 SCT020 QNH2925INS GRID22009KT BECMG 1614/1616 07009KT 8000 -SN SCT010 BKN020 QNH2909INS GRID24009KT BECMG 1619/1621 03009KT 9999 NSW FEW010 SCT020 QNH2898INS GRID20009KT 
NZQN,TAF AMD NZQN 160601Z 1605/1612 27010KT 9999 FEW060 BECMG 1608/1610 03005KT
NZWN,TAF NZWN 160504Z 1606/1712 36012KT CAVOK
OBBI,TAF OBBI 160500Z 1606/1712 11007KT CAVOK
OEAB,TAF OEAB 152300Z 1600/1706 VRB03KT 7000 NSC BECMG 1610/1612 20010KT 9999 FEW020 PROB30 TEMPO 1612/1618 FEW025CB BECMG 1618/1620 VRB03KT
OEAH,TAF OEAH 152200Z 1600/1706 19006KT CAVOK TEMPO 1600/1605 4000 HZ NSC BECMG 1612/1614 VRB03KT
OEAO,TAF OEAO 152300Z 1600/1706 VRB03KT CAVOK BECMG 1606/1608 20014KT 7000 NSC BECMG 1618/1620 35008KT CAVOK
OEBA,TAF OEBA 152300Z 1600/1706 20008KT CAVOK BECMG 1606/1608 12012KT 9999 FEW030 PROB30 TEMPO 1612/1618 FEW025CB BECMG 1618/1620 20008KT
OEBH,TAF OEBH 152300Z 1600/1706 20008KT CAVOK BECMG 1608/1610 14012KT BECMG 1620/1622 19008KT
OEDF,TAF OEDF 160400Z 1606/1712 15006KT CAVOK BECMG 1612/1614 07010KT BECMG 1621/1623 VRB03KT TEMPO 1700/1706 4000 BR NSC
OEDM,TAF OEDM 160400Z 1605/1621 20012KT CAVOK BECMG 1618/1620 13008KT
OEDR,TAF OEDR 152200Z 1600/1706 VRB03KT CAVOK TEMPO 1600/1606 4000 BR NSC PROB30 TEMPO 1601/1605 0500 FG BECMG 1612/1614 09010KT
OEGN,TAF OEGN 152300Z 1600/1706 08005KT 7000 SCT030 SCT100 PROB30 TEMPO 1600/1606 4000 HZ BECMG 1606/1608 29012KT PROB30 TEMPO 1612/1620 FEW035CB BECMG 1618/1620 01005KT
OEGS,TAF OEGS 152300Z 1600/1706 20006KT CAVOK BECMG 1606/1608 19010KT BECMG 1620/1622 VRB03KT
OEGT,TAF OEGT 152300Z 1600/1706 30006KT CAVOK BECMG 1610/1612 17010KT BECMG 1618/1620 31010KT 9999 FEW040
OEHL,TAF OEHL 152300Z 1600/1706 27008KT CAVOK BECMG 1606/1608 19015KT 7000 NSC PROB30 TEMPO 1606/1616 4000 BLDU BECMG 1616/1618 26008KT CAVOK
OEJN,TAF OEJN 160500Z 1606/1712 27010KT 9999 FEW040 BECMG 1616/1618 02008KT 7000 NSC BECMG 1706/1708 28010KT 9999 FEW040
OEKJ,TAF OEKJ 152300Z 1600/1706 VRB03KT CAVOK BECMG 1609/1611 22010KT BECMG 1618/1620 19005KT
OEKM,TAF OEKM 152300Z 1600/1706 VRB03KT 7000 NSC BECMG 1610/1612 20010KT 9999 FEW020 PROB30 TEMPO 1612/1618 FEW025CB BECMG 1618/1620 VRB03KT
OEMA,TAF OEMA 160500Z 1606/1712 14010KT 9999 FEW045 BECMG 1618/1620 VRB03KT CAVOK BECMG 1708/1710 15010KT
OENG,TAF OENG 152300Z 1600/1706 VRB03KT CAVOK BECMG 1608/1610 07010KT BECMG 1618/1620 02008KT
OEPA,TAF OEPA 152200Z 1600/1706 19008KT CAVOK BECMG 1612/1614 09010KT
OEPS,TAF OEPS 160100Z 1601/1707 22003KT 9999 SKC QNH3009INS BECMG 1608/1609 16006KT 9999 SKC QNH3009INS BECMG 1621/1622 23006KT 9999 SKC QNH3013INS TX35/1611Z TN22/1603Z
OERF,TAF OERF 152300Z 1600/1706 18012KT CAVOK BECMG 1616/1618 16012KT
OERK,TAF OERK 160500Z 1606/1712 18010KT CAVOK BECMG 1618/1620 20008KT BECMG 1706/1708 18008KT
OERR,TAF OERR 152300Z 1600/1706 30006KT CAVOK BECMG 1608/1610 19008KT BECMG 1616/1618 10008KT
OESH,TAF OESH 152300Z 1600/1706 08006KT CAVOK BECMG 1608/1610 06010KT BECMG 1618/1620 07008KT
OESK,TAF OESK 152300Z 1600/1706 13006KT CAVOK BECMG 1606/1608 13010KT BECMG 1616/1618 VRB03KT
OETB,TAF OETB 152300Z 1600/1706 30005KT CAVOK BECMG 1608/1610 22010KT 9999 FEW040 BECMG 1618/1620 VRB03KT
OETF,TAF OETF 152300Z 1600/1706 17008KT 6000 NSC TEMPO 1600/1606 3000 BR BECMG 1610/1612 11012KT 9999 FEW030 PROB30 TEMPO 1612/1618 FEW025CB BECMG 1620/1622 15006KT 6000 FEW030
OETR,TAF OETR 152300Z 1600/1706 04006KT CAVOK BECMG 1606/1608 14010KT BECMG 1612/1614 20012KT 9999 FEW040 BECMG 1618/1620 VRB03KT
OEWD,TAF OEWD 152300Z 1600/1706 11008KT CAVOK BECMG 1606/1608 13010KT BECMG 1618/1620 10008KT
OEWJ,TAF OEWJ 152300Z 1600/1706 02008KT 7000 FEW040 BECMG 1606/1608 30012KT BECMG 1618/1620 01008KT CAVOK
OEYN,TAF OEYN 152300Z 1600/1706 11006KT 7000 FEW040 TEMPO 1600/1606 3000 BR BECMG 1608/1610 20012KT 9999 FEW040 BECMG 1620/1622 12006KT
OIAA,TAF AMD OIAA 152355Z 1600/1706 17008KT 0500 FG NSC TEMPO 1600/1603 0150 FG BECMG 1605/1606 3000 BR/HZ BECMG 1607/1609 7000 BECMG 1620/1622 5000 HZ TEMPO 1700/1704 3000 HZ/BR
OIAW,TAF OIAW 160530Z 1606/1712 16006KT 4000 HZ NSC BECMG 1607/1609 27006KT 7000 BECMG 1618/1620 16006KT 4000 HZ BECMG 1706/1708 27006KT 7000 TEMPO 1708/1712 FEW035TCU
OIBB,TAF OIBB 160530Z 1606/1615 35008KT 6000 NSC TEMPO 1606/1609 4000 BR/HZ TEMPO 1609/1615 27016KT
OIBK,TAF OIBK 160530Z 1606/1712 28008KT 6000 NSC TEMPO 16009/1615 24012KT BECMG 1618/1620 5000 HZ/BR TEMPO 1700/1705 2000 BR FEW030 TEMPO 1709/1712 22014KT
OIBP,TAF OIBP 160530Z 1606/1615 11006KT 6000 NSC PROB30 TEMPO 1606/1609 4000 BR/HZ TEMPO 1609/1612 27016KT
OICC,TAF OICC 160530Z 1606/1615 15008KT 7000 NSC PROB30 TEMPO 1606/1608 15012KT FEW040 SCT100 TEMPO 1608/1615 22014KT FEW035 BKN090 PROB30 TEMPO 1609/1615 4000 DU/HZ
OICI,TAF OICI 160530Z 1606/1712 22006KT 7000 NSC TEMPO 1608/1615 27018KT FEW035CB SCT100 BECMG 1618/1620 08006KT TEMPO 1708/1712 28018KT FEW35CB SCT100
OIFM,TAF OIFM 160530Z 1606/1712 28008KT 7000 NSC TEMPO 1609/1615 12014KT FEW040 TEMPO 1703/1705 5000 HZ TEMPO 1709/1712 10014KT FEW040
OIGG,TAF OIGG 160530Z 1606/1615 27008KT 7000 FEW015CB SCT025 SCT090 TEMPO 1606/1612 5000 RA/DZ BR BKN010 FEW015CB BKN080 PROB30 1607/1612 04012KT 3000 TSRA/DZ BR BKN010 FEW015CB OVC070 TEMPO 1612/1615 28012KT 4000 TSRA/DZ BR BKN010 FEW015CB OVC060 PROB30 TEMPO 1613/1615 2000 TSRA/DZ BR BKN005
OIIE,TAF OIIE 160530Z 1606/1712 32008KT 34006KT 7000 NSC TEMPO 1606/1614 14014KT BECMG 1618/1620 06006KT SCT040 BKN100 TEMPO 1703/1712 10016KT FEW035CB SCT100
OIII,TAF OIII 160530Z 1606/1712 16006KT 7000 NSC TEMPO 1610/1614 16016KT BECMG 1618/1620 06006KT SCT040 BKN100 TEMPO 1709/1712 14014KT FEW035CB SCT100
OIIP,TAF OIIP 160530Z 1606/1615 09006KT 6000 FEW040 SCT100 TEMPO 1606/1609 4000 HZ FEW035TCU SCT040 BKN100 TEMPO 1609/1615 17014KT PROB30 TEMPO 1610/1615 FEW035CB SCT040 BKN100
OIKB,TAF OIKB 160530Z 1606/1712 26008KT 6000 NSC TEMPO 1609/1615 24016KT BECMG 1621/1623 5000 HZ TEMPO 1700/1704 12008KT 3000 BR FEW030 BECMG 1705/1707 6000
OIKK,TAF OIKK 160530Z 1606/1712 35008KT 7000 NSC TEMPO 1610/1614 06012KT
OIMM,TAF OIMM 160530Z 1606/1712 14006KT 7000 NSC TEMPO 1610/1614 09018KT TEMPO 1608/1612 14016KT FEW035CB SCT100
OING,TAF OING 160530Z 1606/1615 15008KT 7000 FEW040 TEMPO 1606/1609 15012KT FEW035 SCT100 PROB30 1609/1615 FEW035TCU SCT040 SCT100
OINZ,TAF OINZ 160530Z 1606/1615 12008KT 7000 FEW040 TEMPO 1606/1609 04012KT FEW035TCU SCT040 SCT100 TEMPO 1609/1615 32014KT BKN025 FEW030CB BKN090 PROB30 TEMPO 1610/1615 5000 RA/DZ BR BKN020 FEW025CB BKN080
OISL,TAF OISL 160530Z 1606/1712 27006KT 7000 NSC
OISS,TAF OISS 160530Z 1606/1712 27006KT 7000 NSC TEMPO 1609/1614 09016KT TEMPO 1709/1712 09014KT
OITL,TAF OITL 160530Z 1606/1615 10008KT 7000 VCFG SCT007 BKN020 TEMPO 1606/1612 10012G22KT 5000 RA/DZ BR SCT007 BKN020 FEW025CB OVC090 PROB30 TEMPO 1609/1612 3000 TSRA/DZ BR BKN007 TEMPO 1612/1615 08012G22KT 4000 TSRA/DZ BR BKN005 FEW020CB OVC080 PROB30 TEMPO 1613/1615 2000
OITR,TAF OITR 160530Z 1606/1712 28006KT 7000 FEW040 BKN100 TEMPO 1609/1615 24020KT FEW035CB SCT100 BECMG 1620/1622 28006KT SCT035 BKN100 BECMG 1706/1708 FEW035CB SCT040 BKN100 TEMPO 1709/1712 34018KT FEW035CB SCT040 BKN100 PROB40 TS/SHRA
OITT,TAF OITT 160530Z 1606/1712 08006KT 7000 FEW035 BKN090 TEMPO 1606/1615 26018G28KT FEW035CB SCT040 BKN100 PROB30 TS/SHRA BECMG 1616/1618 09006KT NSC BECMG 1620/1622 09008KT SCT040 BKN090 TEMPO 1704/1712 32018KT FEW030CB SCT035 BKN100 PROB30 TS/SHRA
OIYY,TAF OIYY 160530Z 1606/1615 15008KT CAVOK PROB30 1609/1615 08014KT
OIZH,TAF OIZH 160530Z 1606/1712 05008KT 8000 NSC TEMPO 1609/1615 03018KT
OJAI,TAF OJAI 160455Z 1606/1712 09004KT 5000 HZ NSC TEMPO 1612/1618 24014KT PROB30 TEMPO 1612/1616 3000 TS FEW060CB
OJAM,TAF OJAM 160455Z 1606/1712 VRB02KT 5000 HZ NSC TEMPO 1612/1618 24012KT PROB30 TEMPO 1612/1616 3000 TS FEW060CB
OJAQ,TAF OJAQ 160455Z 1606/1712 01006KT CAVOK PROB40 TEMPO 1609/1611 20008KT
OKAS,TAF OKAS 160000Z 1600/1706 VRB06KT 9999 SKC QNH2990INS BECMG 1602/1603 VRB06KT 5000 BR SKC QNH2993INS BECMG 1604/1605 VRB06KT 8000 HZ SKC QNH2995INS BECMG 1608/1609 09009KT 9999 NSW SKC QNH2991INS BECMG 1617/1618 20009KT 9999 SKC QNH2995INS TX37/1611Z TN20/1603Z
OKBK,TAF OKBK 160500Z 1606/1712 15010KT 6000 NSC TEMPO 1618/1704 VRB03KT 2000 BR PROB30 TEMPO 1618/1702 0800 FG
OLBA,TAF OLBA 160400Z 1606/1712 33010G20KT 9999 SCT050 PROB40 TEMPO 1606/1706 -RA BKN021 BECMG 1620/1622 16008KT BECMG 1706/1709 22010KT 8000 SCT030
OMAA,TAF OMAA 160500Z 1606/1712 11006KT 8000 NSC BECMG 1606/1608 33012KT BECMG 1618/1620 04005KT BECMG 1700/1702 14005KT PROB30 1701/1704 4000 HZ BECMG 1708/1710 33012KT
OMAD,TAF OMAD 160500Z 1606/1712 VRB02KT 8000 NSC BECMG 1606/1608 34010KT BECMG 1618/1620 04005KT BECMG 1700/1702 11005KT BECMG 1708/1710 34010KT
OMAL,TAF OMAL 160500Z 1606/1712 04008KT 8000 NSC BECMG 1606/1608 33011KT BECMG 1619/1621 04005KT BECMG 1700/1702 15006KT PROB30 1701/1704 4000 HZ BECMG 1708/1710 33011KT
OMDB,TAF OMDB 160500Z 1606/1712 VRB02KT CAVOK BECMG 1607/1609 33010KT BECMG 1616/1618 11005KT PROB30 1622/1705 1500 BR BECMG 1707/1709 35010KT
OMDW,TAF OMDW 160500Z 1606/1712 07005KT 8000 NSC BECMG 1607/1609 33014KT BECMG 1616/1618 10005KT PROB30 1622/1705 0100 FG VV/// BECMG 1707/1709 34013KT
OMFJ,TAF OMFJ 160500Z 1606/1712 09008KT CAVOK BECMG 1614/1616 VRB03KT BECMG 1620/1622 29006KT BECMG 1705/1707 09008KT
OMRK,TAF OMRK 160500Z 1606/1712 33010KT CAVOK BECMG 1614/1616 VRB02KT PROB30 1622/1705 1500 BR BECMG 1707/1709 34013KT
OMSJ,TAF OMSJ 160500Z 1606/1712 VRB02KT 8000 NSC BECMG 1607/1609 33010KT BECMG 1616/1618 11005KT PROB30 1622/1705 0100 FG VV/// BECMG 1707/1709 35010KT
OODQ,TAF OODQ 160500Z 1606/1706 10010KT 8000 NSC PROB30 TEMPO 1615/1621 20005KT 4000 BR BKN010 BECMG 1620/1622 VRB02KT
OOMS,TAF OOMS 160500Z 1606/1712 02010KT 8000 NSC BECMG 1615/1617 VRB02KT BECMG 1706/1708 02010KT
OOSA,TAF OOSA 160540Z 1606/1712 VRB03KT CAVOK BECMG 1608/1609 18010KT BECMG 1613/1615 VRB03KT BECMG 1708/1709 18010KT
OOSH,TAF OOSH 160500Z 1606/1712 03010KT 8000 NSC BECMG 1615/1617 VRB02KT BECMG 1706/1708 04010KT
OPBW,TAF OPBW 160345Z 1606/1624 23010KT 5000 HZ NSC TX36/1610Z
OPDG,TAF OPDG 160345Z 1606/1624 18010KT 5000 HZ NSC TX35/1610Z
OPFA,TAF OPFA 160345Z 1606/1624 23004KT 5000 HZ NSC TX34/1610Z FM161400 VRB02KT 4000 FU NSC
OPGD,TAF OPGD 160330Z 1606/1706 26010KT 4000 HZ NSC TEMPO 1622/1704 00000KT 0800 FG NSC
OPIS,TAF OPIS 160345Z 1606/1712 23010KT 5000 HZ NSC TEMPO 1606/1610 31008G18KT BECMG 1618/1620 09008KT 4000 FU TEMPO 1623/1704 09010KT 2500 BR
OPKC,TAF OPKC 160330Z 1606/1712 29010KT 6000 NSC TEMPO 1622/1704 30008KT 2500 FU NSC
OPLA,TAF OPLA 160345Z 1606/1712 20010KT 5000 HZ NSC TX33/1610Z TN20/1701Z TEMPO 1607/1610 27015G30KT FM161600 18006KT 4000 FU NSC TEMPO 1700/1704 VRB02KT 1500 BR FM 170500 22010KT 5000 HZ NSC
OPMT,TAF OPMT 160345Z 1606/1624 23008KT 5000 HZ NSC TX35/1610Z
OPNH,TAF OPNH 160330Z 1606/1712 36005KT 4000 HZ NSC TEMPO 1622/1704 VRB03KT 3000 FU NSC
OPPS,TAF OPPS 160330Z 1606/1712 09006KT 5000 HZ NSC TEMPO 1612/1616 05010KT 4000 HZ FEW100 FM162100 23006KT 3000 BR NSC BECMG 1705/1708 13006KT 5000 HZ NSC
OPRK,TAF OPRK 160345Z 1606/1624 23008KT 5000 HZ NSC TX37/1610Z
OPSK,TAF OPSK 160330Z 1606/1706 36005KT 4000 HZ NSC TEMPO 1700/1704 36003KT 3000 FU NSC
OPST,TAF OPST 160345Z 1606/1712 13006KT 4000 FU NSC TX31/1610Z TN18/1701Z TEMPO 1700/1704 00000KT 1500 BR
ORBI,TAF ORBI 160400Z 1606/1706 14008KT CAVOK
ORER,TAF ORER 160500Z 1606/1706 13013KT 7000 NSC TEMPO 1606/1610 18010G25MPS BECMG 1610/1612 SCT040 SCT090 BECMG 1618/1620 09006KT
ORMM,TAF ORMM 152200Z 1600/1624 17004KT CAVOK 
ORNI,TAF ORNI 160400Z 1606/1706 15008KT 6000 NSC
ORSU,TAF ORSU 160500Z 1606/1706 13008KT 9999 FEW045 BKN080 BECMG 1608/1610 20015KT 8000 NSC TEMPO 1610/1614 G25KT BECMG 1616/1618 26006KT 
OSAP,OSAP 160500Z 1606/1706 06008KT 9999 FEW030 SCT100 TEMPO 1620/1706 06008KT 7000-RA SCT030 BKN080
OSDI,OSDI 160500Z 1606/1712 22010KT CAVOK TEMPO 1609/1618 25015G25KT 9999 FEW030 SCT100
OSLK,OSLK 160500Z 1606/1706 21015KT 7000 SHRA FEW025CB SCT030 BKN100 BECMG 1621/1623 14010KT 9999 SCT030
OTBD,TAF OTBD 160528Z 1606/1712 06008KT 9000 FEW040 TEMPO 1606/1611 VRB03KT TEMPO 1606/1617 13010KT PROB30 TEMPO 1610/1613 6000 FEW035TCU
OTBH,TAF OTBH 160000Z 1600/1706 VRB06KT 9999 SKC QNH2984INS BECMG 1611/1612 11009KT 9999 SKC QNH2989INS BECMG 1615/1616 VRB06KT 9999 SKC QNH2990INS TX37/1610Z TN25/1602Z
OTHH,TAF OTHH 160527Z 1606/1712 06008KT 9000 FEW040 TEMPO 1606/1611 VRB03KT TEMPO 1607/1617 13010KT PROB30 TEMPO 1610/1613 6000 FEW035TCU
PAAQ,PAAQ 160543Z 1606/1706 VRB06KT P6SM VCSH OVC050 TEMPO 1606/1610 4SM -RA BR OVC025 FM161000 VRB06KT 4SM -RA BR OVC015 FM161600 VRB06KT 2SM -RA BR OVC025 FM162100 VRB06KT P6SM -RA OVC025 FM170400 VRB06KT P6SM VCSH OVC050
PABE,PABE 160524Z 1606/1706 03010KT 5SM -SN BR SCT025 OVC030 TEMPO 1606/1607 2SM -SN BR SCT015 OVC025 FM160800 03012KT 6SM -FZRASN BR SCT007 OVC015 FM161000 04010KT 5SM -RA BR SCT007 SCT015 BKN025
PABI,TAF PABI 150600Z 1506/1612 VRB06KT 9999 SKC 510063 QNH3009INS BECMG 1509/1510 09015G25KT 9999 FEW250 530054 QNH2965INS BECMG 1512/1513 10025G35KT 9999 FEW250 530005 QNH2963INS BECMG 1521/1522 10025G35KT 8000 -SN SCT015 BKN035 620353 530004 QNH2961INS TEMPO 1522/1605 6000 -FZRASN OVC000 690001 BECMG 1604/1605 17025G35KT 8000 -RA OVC025 650404 530003 QNH2944INS TEMPO 1605/1609 18035G45KT BECMG 1611/1612 09015G25KT 9999 NSW SCT020 OVC045 620454 530053 QNH2937INS TX01/1606Z TNM09/1508Z LAST NO AMDS AFT 1506 NEXT 1714
PABR,PABR 160520Z 1606/1706 10009KT P6SM SKC FM160900 08017KT P6SM BKN030 FM161800 07025G32KT 1SM BLSN BR OVC010 FM170000 07025G35KT 1/2SM -SN BLSN OVC010
PABT,PABT 160525Z 1606/1706 05012G20KT P6SM VCSH BKN060 FM160900 01007KT 4SM -SN BR OVC020 FM162100 01003KT 1 1/2SM -SN BR OVC015
PACD,PACD 160524Z 1606/1706 35015KT P6SM -RA SCT008 BKN025 OVC035 TEMPO 1606/1607 OVC035 FM160700 32008KT 5SM -RA BR SCT015 OVC025 TEMPO 1607/1611 4SM -RA BR OVC015 FM161100 31008KT 5SM -RA BR OVC015 FM161600 30009KT 6SM -RA SCT007 OVC015
PACV,PACV 160543Z 1606/1706 11010KT 2SM RA BR SCT015 OVC025 TEMPO 1606/1610 11012G22KT 2SM -RA BR OVC015 FM161000 10010KT 4SM -RA BR OVC025 FM170300 VRB06KT 6SM -RA OVC050
PADL,PADL 160524Z 1606/1706 05012G20KT P6SM VCSH BKN015 OVC030 TEMPO 1606/1610 OVC040 FM161000 05010KT 4SM -RA BR BKN007 OVC015 TEMPO 1610/1614 OVC015 FM161800 02007KT 2SM -RA BR OVC007
PADQ,PADQ 160543Z 1606/1706 11010KT P6SM VCSH SCT015 OVC025 TEMPO 1606/1610 4SM -RA BR OVC015 FM161000 09008KT P6SM VCSH OVC015 FM161900 VRB06KT P6SM VCSH OVC025 FM162200 VRB06KT P6SM BKN050
PADU,PADU 160524Z 1606/1706 34015G25KT P6SM -RA SCT020 OVC030 TEMPO 1606/1610 BKN035 FM161000 31014G22KT P6SM SCT025 OVC050 TEMPO 1610/1614 OVC025 FM161400 31010G18KT P6SM -SHRA OVC025
PAED,TAF PAED 160505Z 1605/1711 03009KT 9999 SCT060 BKN100 QNH2940INS BECMG 1607/1608 04009KT 9000 -SHRA BR SCT015 OVC040 610509 QNH2931INS BECMG 1615/1616 35009KT 9999 NSW FEW010 BKN040 620409 QNH2931INS BECMG 1703/1704 01006KT 9999 VCSH SCT060 BKN130 QNH2929INS TX08/1700Z TN01/1615Z
PAEI,TAF COR PAEI 160635Z 1606/1712 VRB06KT 9999 SCT030 BKN100 OVC120 520104 QNH2941INS BECMG 1608/1609 VRB06KT 9000 -RASN FEW012 BKN030 BKN050 OVC080 620309 520104 QNH2933INS TEMPO 1611/1617 -FZDZ 660002 BECMG 1619/1620 VRB06KT 9999 NSW SCT060 BKN075 BKN120 QNH2926INS TX01/1622Z TNM02/1615Z LAST NO AMDS AFT 1607 NEXT 1615
PAEN,PAEN 160543Z 1606/1706 04009KT P6SM OVC050 TEMPO 1606/1610 4SM -RA BR OVC025 FM161000 VRB06KT 4SM -RA OVC025 FM162200 04010KT P6SM -RA OVC025 FM170200 04007KT P6SM -RA OVC050
PAFA,PAFA 160520Z 1606/1712 05005KT P6SM SCT035 SCT070 FM160800 03005KT P6SM VCSH BKN020 OVC050 FM161300 03005KT 5SM -SN BR OVC015 FM161600 04004KT 3SM -SNRA BR OVC015 FM162100 VRB02KT P6SM VCSH OVC025
PAFB,TAF PAFB 150600Z 1506/1612 VRB06KT 9999 FEW100 QNH2999INS BECMG 1510/1511 06009KT 9999 SKC WSCONDS 520203 QNH2988INS BECMG 1512/1513 06012G18KT 9999 SCT060 510203 QNH2948INS TEMPO 1519/1600 07015G25KT 520204 BECMG 1604/1605 05010KT 9000 -SHSN OVC020 620506 QNH2943INS TX00/1602Z TNM09/1512Z LAST NO AMDS AFT 1506 NEXT 1714
PAGA,PAGA 160520Z 1606/1706 05012KT P6SM SCT090 FM160800 08010KT P6SM VCSH BKN030 OVC050 FM170000 08008KT 6SM -SN BR OVC050 AMD LTD TO CLD VIS WX
PAGK,PAGK 160543Z 1606/1706 VRB06KT 4SM -FZRA BR SCT004 OVC025 TEMPO 1606/1610 2SM FZRA BR OVC004 FM161000 VRB06KT 4SM -FZRA BR OVC015 FM161800 VRB06KT 4SM -RA BR OVC015
PAGS,PAGS 160544Z 1606/1706 VRB03KT 1SM BR BKN001 OVC050 TEMPO 1606/1610 1/2SM FG VV001 FM161800 14007KT P6SM SCT001 BKN050 AMD LTD TO CLD VIS AND WIND
PAGY,PAGY 160544Z 1606/1706 02005KT P6SM FEW005 SCT015 BKN060 TEMPO 1606/1610 BKN015 FM161000 VRB03KT P6SM SCT005 OVC015 FM161800 21008KT P6SM SCT005 BKN015 OVC050 FM162000 21015G25KT P6SM SCT025 OVC050 AMD LTD TO CLD VIS AND WIND
PAHN,PAHN 160544Z 1606/1706 10007KT P6SM SCT015 OVC070 TEMPO 1606/1610 OVC015 FM161000 10006KT P6SM OVC015 FM162000 09010G20KT P6SM VCSH SCT015 OVC025 WS020/18030KT AMD NOT SKED
PAHO,PAHO 160543Z 1606/1706 VRB06KT P6SM VCSH OVC050 TEMPO 1606/1610 6SM -RA OVC025 FM161000 VRB06KT P6SM -RA OVC025 FM161400 VRB06KT P6SM VCSH OVC050
PAIL,PAIL 160524Z 1606/1706 11015G20KT P6SM SCT025 OVC035 FM161200 08009KT P6SM SCT015 OVC025 FM161600 08009KT 6SM -RA BR SCT007 OVC015 FM162000 09008KT 6SM -SHRA BR OVC007
PAJN,PAJN 160619Z 1606/1706 VRB03KT 5SM BR SCT001 OVC040 WS020/14030KT TEMPO 1606/1610 1/2SM FG VV001 FM161000 00000KT 1/2SM FG VV001 FM161700 VRB04KT 5SM BCFG SCT001
PAKN,PAKN 160524Z 1606/1706 14010KT P6SM VCSH SCT020 OVC040 FM160900 10008KT P6SM -SHRA SCT025 OVC040 FM161200 10006KT P6SM SCT007 OVC025 FM162000 11006KT 6SM -RA BR OVC007
PAKT,PAKT 160544Z 1606/1706 14004KT 3SM BR SCT002 TEMPO 1606/1610 00000KT 1/2SM FG OVC002 FM161800 14006KT P6SM BKN200 AMD LTD TO CLD VIS AND WIND TIL 161500
PAKW,PAKW 152338Z 1600/1624 VRB03KT P6SM FEW025 BKN200 AMD NOT SKED
PAMC,PAMC 160520Z 1606/1706 VRB03KT P6SM OVC060 FM170000 06002KT P6SM VCSH OVC035
PANC,PANC 160543Z 1606/1712 01006KT P6SM VCSH SCT025 OVC050 TEMPO 1606/1610 4SM -RA OVC025 FM161000 VRB06KT 4SM -RA BR OVC025 FM161300 VRB06KT 4SM -RA BR OVC015 FM161600 VRB06KT 2SM -RA BR OVC015 FM162200 VRB06KT P6SM -RA OVC025 FM170200 VRB06KT P6SM -RA OVC050
PAOM,PAOM 160520Z 1606/1706 04018G28KT P6SM SKC FM161200 05012KT P6SM SCT040 BKN070 FM161700 05010KT 5SM BR VCSH BKN020 OVC050 FM162100 05010KT 3SM -SN BR OVC015
PAOR,PAOR 160520Z 1606/1706 VRB04KT P6SM VCSH OVC015
PAOT,PAOT 160520Z 1606/1706 05006KT P6SM SKC FM160900 07015KT P6SM FEW100 FM162200 08017KT P6SM VCSH OVC030
PAPG,PAPG 160544Z 1606/1706 00000KT 1/2SM FG OVC002 TEMPO 1606/1610 1/4SM FG VV001 FM161800 VRB03KT P6SM SCT001 BKN150 AMD LTD TO CLD VIS AND WIND TIL 161500
PAQT,PAQT 160520Z 1606/1706 05012KT P6SM SKC FM161500 07020KT 6SM BR BKN015 OVC030 FM162100 06024G33KT 3SM BLSN BR OVC015 FM170000 07030G40KT 1/2SM -SN BLSN OVC007
PASC,PASC 160520Z 1606/1706 08016KT P6SM SKC FM161500 08025G32KT 6SM BR OVC035 FM162100 08030G40KT 3SM BLSN BR OVC015 FM170000 08030G40KT 1/2SM -SN BLSN OVC007
PASD,PASD 160524Z 1606/1706 VRB06KT P6SM -RA SCT010 BKN020 TEMPO 1606/1610 3SM -RA BR SCT008 OVC013 FM161500 33006KT 6SM -RA BR OVC007 TEMPO 1615/1619 4SM -RA BR FM161900 33008KT 4SM -RA BR SCT007 OVC015
PASI,PASI 160544Z 1606/1706 VRB05KT P6SM SCT025 BKN200 TEMPO 1606/1610 BKN025 FM161000 13005KT P6SM SCT015 OVC025
PASN,PASN 160524Z 1606/1706 34015G25KT P6SM SCT010 OVC025 FM160800 35014KT P6SM OVC035 FM161500 33013KT P6SM OVC050
PASY,TAF PASY 160600Z 1606/1712 VRB06KT 9000 -RA BKN015 QNH2977INS BECMG 1609/1610 VRB06KT 9000 -RA BKN020 QNH2977INS BECMG 1618/1619 01012KT 9999 NSW BKN040 QNH2979INS BECMG 1705/1706 30015KT 9999 FEW030 BKN045 OVC060 QNH2993INS TX07/1704Z TN04/1616Z LIMITED METWATCH 1606 TIL 1609
PATA,PATA 160520Z 1606/1706 09010KT P6SM BKN050 FM160900 08011KT P6SM VCSH OVC035 FM161800 08009KT 5SM -SN BR OVC030 AMD NOT SKED
PATK,PATK 160543Z 1606/1706 VRB06KT P6SM VCSH OVC060 TEMPO 1608/1612 4SM -RA BR OVC025 FM161200 VRB06KT 4SM -RA BR OVC025 FM162000 VRB06KT P6SM -RA OVC025 FM170400 VRB06KT P6SM VCSH OVC050
PAUN,PAUN 160520Z 1606/1706 07020G25KT 6SM -SN BR FEW030 BKN050 FM160900 08015KT 6SM -SN BR BKN020 OVC040 FM161200 08017KT 6SM -SN BR OVC015
PAVD,PAVD 160543Z 1606/1706 VRB06KT P6SM -RA SCT015 OVC050 TEMPO 1606/1610 4SM RA BR OVC025 FM161000 VRB06KT 4SM -RA BR OVC025 FM170100 VRB06KT P6SM VCSH OVC050 AMD LTD TO CLD VIS AND WIND
PAWG,PAWG 160544Z 1606/1706 VRB02KT 6SM BR BCFG SCT002 BKN150 TEMPO 1606/1610 1/2SM FG VV002 FM161800 VRB04KT P6SM BKN150 AMD LTD TO CLD VIS AND WIND TIL 161500
PAYA,PAYA 160544Z 1606/1706 12015G30KT 5SM -RA BR BKN007 OVC025 WS020/16045KT FM160800 12015G25KT 2SM RA BR OVC007 WS020/16030KT FM170000 17011KT 4SM -RA BR SCT007 OVC015 AMD LTD TO CLD VIS AND WIND
PGRO,PGRO 160520Z 1606/1706 18009KT P6SM VCSH SCT015 BKN050 OVC110 TEMPO 1606/1610 18010KT 4SM -SHRA SCT015 BKN050
PGSN,PGSN 160520Z 1606/1706 18008KT P6SM VCSH SCT015 OVC110 TEMPO 1606/1610 VRB11G20KT 3SM SHRA BKN015 OVC050
PGUA,TAF PGUA 160200Z 1602/1708 24009KT 9999 VCSH SCT014 BKN060 BKN160 QNH2982INS TEMPO 1606/1616 24012G18KT 4800 SHRA BKN014 TX28/1606Z TN24/1618Z
PGUM,PGUM 160520Z 1606/1712 18007KT P6SM VCSH SCT015 BKN050
PGWT,PGWT 160520Z 1606/1706 19008KT P6SM VCSH FEW015 SCT050 BKN120 TEMPO 1606/1610 VRB11G20KT 3SM SHRA BKN015 OVC050
PHHI,TAF PHHI 150700Z 1507/1613 VRB06KT 9999 FEW025 BKN035 QNH3002INS BECMG 1519/1520 32007KT 9999 SCT020 BKN030 QNH3003INS TEMPO 1601/1605 8000 -SHRA BKN020 BECMG 1605/1606 VRB06KT 9999 FEW025 SCT035 QNH3004INS TX30/1523Z TN21/1515Z LAST NO AMDS AFT 1507 NEXT 1715
PHJH,PHJH 152327Z 1600/1624 03016G22KT P6SM FEW025 SCT045 FM160600 04010KT P6SM FEW025 SCT045 FM162000 04014G20KT P6SM FEW025 SCT045
PHJR,PHJR 160520Z 1606/1706 04004KT P6SM FEW050 FM162000 10008KT P6SM SCT050 FM170500 06005KT P6SM FEW050
PHKO,PHKO 160520Z 1606/1706 VRB06KT P6SM SCT050 FM162000 26009KT P6SM SCT050 FM170500 VRB06KT P6SM SCT050
PHLI,PHLI 160520Z 1606/1706 04014KT P6SM FEW030 BKN045 FM161200 03010KT P6SM VCSH SCT030 BKN045 FM162000 05011KT P6SM FEW030 SCT045
PHMK,PHMK 160520Z 1606/1706 03011KT P6SM FEW025 SCT040 FM162000 04012G18KT P6SM FEW030 SCT040 FM170500 05009KT P6SM FEW025 SCT040
PHNL,PHNL 160520Z 1606/1712 04007KT P6SM FEW025 FM162000 06012G18KT P6SM FEW025 SCT050 FM170400 06007KT P6SM FEW025 SCT050
PHNY,PHNY 160520Z 1606/1706 03014KT P6SM SCT025 FM161900 16008KT P6SM BKN028 FM170000 05014KT P6SM SCT030
PHOG,PHOG 160520Z 1606/1706 04008KT P6SM FEW040 FM162000 05013KT P6SM FEW035 SCT050 FM170500 07008KT P6SM SCT050
PHTO,PHTO 160520Z 1606/1706 30005KT 6SM -SHRA BR SCT025 BKN040 FM161200 24004KT P6SM VCSH SCT025 BKN045 FM161800 24005KT P6SM SCT025 SCT045 FM162000 05008KT P6SM SCT030 BKN045
PKMJ,PKMJ 160520Z 1606/1706 12011KT P6SM VCSH FEW015 SCT050
PKWA,PKWA 160520Z 1606/1706 11011KT P6SM VCSH SCT030 BKN050 TEMPO 1606/1608 5SM SHRA SCT030 BKN050
PLCH,TAF PLCH 160519Z 1606/1706 10005KT 9999 SCT019
PMDY,PMDY 160520Z 1606/1706 17010KT P6SM FEW025 SCT100 FM161200 19013KT P6SM SCT025 BKN035 FM162100 24014KT P6SM FEW025 SCT035 FM170300 25015KT P6SM FEW030 AMD NOT SKED
PTKK,PTKK 160520Z 1606/1706 12006KT P6SM VCSH SCT014 BKN050 BKN120 TEMPO 1608/1612 6SM SHRA BKN016
PTPN,PTPN 152330Z 1600/1624 14008KT P6SM VCSH SCT018 BKN150
PTRO,PTRO 160520Z 1606/1706 19008KT P6SM VCSH SCT015 BKN110
PTSA,PTSA 152330Z 1600/1624 12005KT P6SM VCSH SCT015 BKN130
PTYA,PTYA 160520Z 1606/1706 19008KT P6SM VCSH SCT016 BKN120
PWAK,TAF PWAK 160600Z 1606/1712 12009KT 9000 -SHRA SCT025 BKN200 QNH2989INS TX30/1608Z TN23/1618Z FOR MIL USE ONLY LIMITED METWATCH 1606 TIL 1712
RCFN,TAF RCFN 160500Z 1606/1706 01005KT 8000 FEW010 BKN032 TEMPO 1606/1612 03010KT 4500 SHRA FEW010 BKN018 BKN040 TEMPO 1614/1619 5000 SHRA FEW010 BKN020 BKN040 TEMPO 1700/1706 04010KT
RCKH,TAF RCKH 160500Z 1606/1712 34005KT 7000 FEW010 BKN032 TEMPO 1606/1612 27008KT TEMPO 1614/1618 22005KT 5000 SHRA FEW010 BKN020 TEMPO 1618/1624 05005KT 4000 BR FEW010 BKN018 TEMPO 1704/1710 27008KT
RCMQ,TAF RCMQ 160500Z 1606/1706 01012KT 8000 -RA SCT006 BKN025 BKN060 TX25/1705Z TN22/1621Z BECMG 1607/1610 9999 TEMPO 1612/1617 6000 -RA SCT006 BKN020 BKN040 BECMG 1618/1621 01020KT 7000 -RA BECMG 1702/1705 01022G32KT 9999
RCNN,TAF RCNN 160500Z 1606/1706 08004KT 9999 FEW012 SCT030 BKN060 TX30/1705Z TN21/1620Z TEMPO 1608/1613 8000 -RA FEW010 SCT021 BKN050 BECMG 1618/1621 8000 -RA FEW012 BKN050 BECMG 1622/1701 01008KT 9999 FEW012 SCT030 BKN060 TEMPO 1702/1705 7000 -RA FEW012 SCT021 BKN050
RCSS,TAF AMD RCSS 160627Z 1606/1706 09008KT 6000 SCT010 BKN022 TEMPO 1606/1608 0700 +SHRA SCT003 BKN009 FEW020CB BKN030 TEMPO 1608/1612 07013KT 2800 SHRA SCT008 BKN011 BKN030 TEMPO 1612/1618 4000 RA SCT008 BKN013 BKN030 TEMPO 1618/1624 12005KT 3500 RA BR SCT008 BKN011 BKN030 TEMPO 1700/1706 5000 RA SCT010 BKN014 BKN030
RCTP,TAF AMD RCTP 160629Z 1606/1712 04018KT 6000 SCT004 BKN007 BKN015 TEMPO 1606/1608 03022G32KT 0700 +SHRA SCT002 BKN003 FEW010CB BKN015 TEMPO 1608/1612 2200 RA BR SCT002 BKN004 BKN015 TEMPO 1612/1618 4000 RA SCT003 BKN005 BKN015 TEMPO 1618/1624 07013KT 4000 RA BR SCT002 BKN004 BKN015 TEMPO 1700/1706 SCT004 BKN011 BKN030
RJAA,TAF RJAA 160505Z 1606/1712 08006KT 9999 FEW020 BECMG 1608/1610 02006KT TEMPO 1700/1703 3000 SHRA BR FEW002 BKN004 BECMG 1703/1706 18004KT TEMPO 1703/1712 4000 -SHRA BR FEW004 BKN008
RJAH,TAF RJAH 160505Z 1606/1712 08006KT 9999 FEW020 TEMPO 1700/1706 3000 SHRA BR FEW002 BKN004 TEMPO 1706/1712 3000 -SHRA BR FEW002 BKN004
RJBB,TAF RJBB 160505Z 1606/1712 22006KT 9999 FEW020 SCT040 BECMG 1612/1614 05006KT TEMPO 1617/1700 4000 SHRA BR FEW005 BKN008 BKN015 BECMG 1703/1706 33010KT TEMPO 1706/1709 4000 SHRA BR
RJCB,TAF RJCB 160506Z 1606/1712 15005KT 9999 FEW004 BKN015 TEMPO 1606/1609 FEW003 BKN006 TEMPO 1609/1612 2000 BR FEW002 BKN004 TEMPO 1612/1700 0700 FG VV001 BECMG 1706/1709 35005KT
RJCC,TAF RJCC 160505Z 1606/1712 14010KT 9999 FEW008 BKN020 TEMPO 1615/1700 2000 -SHRA BR FEW002 BKN004 BECMG 1703/1706 34013KT TEMPO 1703/1709 3000 -SHRA BR FEW003 BKN006
RJCH,TAF RJCH 160508Z 1606/1712 07006KT 9999 FEW020 BKN045 BECMG 1618/1621 32009KT
RJCK,TAF RJCK 160508Z 1606/1712 20007KT 7000 FEW003 BKN015 TEMPO 1606/1609 1500 BR FEW001 BKN003 BECMG 1608/1610 06003KT TEMPO 1609/1615 0700 FG VV001 TEMPO 1615/1700 1500 BR FEW001 BKN003 BECMG 1621/1700 19010KT
RJCM,TAF RJCM 160508Z 1606/1712 17012KT 9999 FEW030 SCT050 BECMG 1706/1709 35009KT TEMPO 1706/1712 4000 -SHRA BR FEW005 BKN008
RJEC,TAF RJEC 160508Z 1606/1712 19006KT 9999 FEW015 SCT050 BECMG 1703/1706 29012KT
RJFF,TAF RJFF 160505Z 1606/1712 32011KT 9000 -SHRA FEW010 SCT015 BKN025 BECMG 1609/1611 16006KT TEMPO 1612/1615 4000 -SHRA BR TEMPO 1615/1618 3000 SHRA BR BECMG 1700/1703 33011KT
RJFK,TAF RJFK 160512Z 1606/1712 03006KT 7000 -SHRA FEW008 SCT015 BKN020 TEMPO 1608/1613 3000 SHRA BR TEMPO 1613/1621 4000 -SHRA BR FEW005 BKN008 BKN015 TEMPO 1621/1706 3000 SHRA BR FEW005 BKN008 BKN015 TEMPO 1706/1709 4000 -SHRA BR
RJFM,TAF RJFM 160512Z 1606/1712 04005KT 9999 FEW010 SCT020 TEMPO 1610/1615 3000 SHRA BR FEW005 BKN008 BKN015 BECMG 1614/1616 29005KT TEMPO 1615/1700 FEW005 BKN008 BKN015 TEMPO 1700/1709 2000 SHRA BR FEW005 BKN008 BKN015 BECMG 1703/1706 04005KT
RJFO,TAF RJFO 160512Z 1606/1712 16008KT 9999 FEW010 SCT020 BKN030 TEMPO 1612/1621 4000 SHRA BR BECMG 1615/1617 30008KT
RJFR,TAF RJFR 160506Z 1606/1712 10007KT 9999 FEW015 BECMG 1606/1608 03004KT BECMG 1612/1614 25005KT TEMPO 1613/1621 4000 SHRA BR BECMG 1618/1621 32005KT
RJFS,TAF RJFS 160511Z 1606/1712 21009KT 8000 -SHRA FEW010 SCT015 BKN020 TEMPO 1610/1612 4000 -SHRA BR TEMPO 1612/1618 3000 SHRA BR FEW003 SCT005 BKN008 TEMPO 1618/1700 4000 SHRA BR FEW003 SCT005 BKN008
RJFT,TAF RJFT 160516Z 1606/1712 21006KT 8000 -SHRA FEW005 SCT010 BKN015 BECMG 1606/1608 08005KT TEMPO 1609/1612 4000 -SHRA BR TEMPO 1612/1621 2000 SHRA BR FEW001 SCT003 BKN005 BECMG 1621/1700 32004KT TEMPO 1621/1703 1500 SHRA BR FEW001 BKN003 BKN005
RJFU,TAF RJFU 160511Z 1606/1712 16007KT 9000 -SHRA FEW010 BKN020 TEMPO 1610/1612 4000 -SHRA BR TEMPO 1612/1615 3000 SHRA BR TEMPO 1615/1618 3000 SHRA BR FEW005 BKN008 BKN015 BECMG 1618/1621 34015KT TEMPO 1618/1700 4000 SHRA BR FEW005 BKN008 BKN015
RJGG,TAF RJGG 160505Z 1606/1712 16010KT 9999 FEW020 SCT050 BECMG 1618/1621 36006KT TEMPO 1621/1703 3000 RA BR FEW005 BKN008 BECMG 1706/1709 30012KT TEMPO 1706/1709 4000 -SHRA BR FEW005 BKN008
RJNK,TAF RJNK 160506Z 1606/1712 20004KT 9999 FEW030 BKN050 BECMG 1703/1706 29010KT TEMPO 1703/1709 4000 SHRA BR FEW005 BKN008
RJNS,TAF RJNS 160506Z 1606/1712 14006KT 9999 FEW020 BECMG 1608/1610 34004KT TEMPO 1700/1703 3000 SHRA BR FEW003 BKN005 BECMG 1706/1709 25010KT TEMPO 1706/1712 4000 -SHRA BR FEW005 BKN008
RJNT,TAF RJNT 160505Z 1606/1712 36006KT 9999 FEW020 SCT060 BECMG 1610/1612 20005KT BECMG 1703/1706 30006KT TEMPO 1703/1709 4000 -SHRA BR FEW005 BKN008
RJOA,TAF RJOA 160505Z 1606/1712 20005KT 9999 FEW025 TEMPO 1615/1700 3000 SHRA BR BCFG FEW000 SCT003 BKN008 TEMPO 1700/1706 4000 -SHRA BR
RJOB,TAF RJOB 160505Z 1606/1712 16005KT 9999 FEW030 BECMG 1612/1614 35004KT TEMPO 1616/1618 4000 -SHRA BR FEW003 BKN008 BKN015 TEMPO 1618/1700 3000 SHRA BR BCFG FEW000 SCT003 BKN005 TEMPO 1700/1703 4000 -SHRA BR FEW003 BKN008 BKN015 BECMG 1706/1709 24005KT
RJOC,TAF RJOC 160506Z 1606/1712 01006KT 9999 FEW025 SCT050 BECMG 1610/1612 17005KT BECMG 1703/1706 31010KT
RJOH,TAF RJOH 160507Z 1606/1712 07009KT 9999 FEW030 BECMG 1609/1611 18005KT BECMG 1703/1706 30010KT
RJOI,TAF RJOI 1603/1703 11006KT 9999 FEW015 SCT030 BKN040 511809 QNH2996INS FM160900 12008KT 9999 FEW015 BKN030 OVC100 QNH2997INS BECMG 1612/1615 20007KT 8000 -SHRA BR FEW010 BKN025 OVC050 651504 511809 QNH2990INS TEMPO 1615/1621 3200 SHRA BR FEW006 BKN020 OVC040 FM162100 30008KT 4800 -SHRA BR FEW008 BKN025 OVC040 651509 511809 QNH2987INS TEMPO 1621/1703 3200 SHRA BR FEW005 BKN020 OVC040 T25/1606Z T18/1621Z
RJOK,TAF RJOK 160508Z 1606/1712 19008KT 9999 FEW020 SCT035 BECMG 1608/1610 35006KT TEMPO 1700/1703 4000 SHRA BR TEMPO 1703/1706 4000 SHRA BR FEW005 BKN008 BKN015
RJOM,TAF RJOM 160507Z 1606/1712 35007KT 9999 FEW020 BKN040 BECMG 1608/1610 12005KT TEMPO 1615/1618 4000 -SHRA BR TEMPO 1618/1703 3000 SHRA BR BECMG 1700/1703 35006KT TEMPO 1703/1706 4000 -SHRA BR
RJOO,TAF RJOO 160507Z 1606/1712 24004KT 9999 FEW020 SCT040 TEMPO 1621/1700 4000 SHRA BR TEMPO 1703/1706 4000 SHRA BR
RJOT,TAF RJOT 160508Z 1606/1712 04005KT 9999 FEW020 BECMG 1614/1616 20005KT TEMPO 1621/1706 3000 SHRA BR FEW001 SCT005 BKN008
RJSA,TAF RJSA 160505Z 1606/1712 02005KT 9999 FEW030 BECMG 1607/1609 20005KT BECMG 1703/1706 27010KT TEMPO 1703/1709 4000 -SHRA BR FEW005 BKN008 BKN015
RJSF,TAF RJSF 160508Z 1606/1712 14005KT 9999 FEW020 BKN040 TEMPO 1618/1700 3000 BR FEW002 BKN005 TEMPO 1700/1709 4000 -SHRA BR FEW002 BKN005 BKN008 BECMG 1706/1709 34005KT
RJSI,TAF RJSI 160505Z 1606/1712 19008KT 9999 FEW010 BKN030 BECMG 1613/1615 01004KT TEMPO 1618/1700 4000 -SHRA BR FEW005 BKN008 BKN015 BECMG 1700/1703 19005KT BECMG 1709/1712 29005KT
RJSK,TAF AMD RJSK 160639Z 1606/1712 13004KT 9999 FEW030 TEMPO 1621/1703 1500 -SHRA BR FEW001 BKN003 BKN005 BECMG 1703/1706 27008KT
RJSN,TAF RJSN 160505Z 1606/1712 02006KT 9999 FEW030 BECMG 1700/1703 22012KT TEMPO 1700/1706 3000 SHRA BR FEW005 BKN008
RJSS,TAF RJSS 160505Z 1606/1712 14010KT 9999 FEW010 SCT020 BECMG 1611/1613 22005KT BECMG 1706/1709 02005KT
RJTT,TAF RJTT 160505Z 1606/1712 12008KT 9999 FEW020 SCT060 BECMG 1614/1616 02005KT TEMPO 1700/1703 4000 -SHRA BR FEW005 BKN008 BECMG 1703/1706 19012KT
RJTY,TAF RJTY 152100Z 1521/1703 VRB06KT 9999 BKN040 QNH3012INS BECMG 1602/1603 15006KT 9999 SCT030 QNH3009INS BECMG 1608/1609 18006KT 9000 -SHRA SCT015 OVC025 QNH3007INS TX24/1605Z TN15/1521Z
RKJB,TAF RKJB 160500Z 1606/1712 33010KT 9999 SCT035 TN14/1621Z TX16/1704Z BECMG 1620/1621 35015G25KT BECMG 1703/1704 35018G35KT BECMG 1711/1712 35015G25KT
RKNY,TAF RKNY 160500Z 1606/1712 12006KT CAVOK TN12/1621Z TX16/1704Z BECMG 1607/1608 25005KT BECMG 1613/1615 27015G25KT BECMG 1703/1705 29008KT BECMG 1707/1709 35006KT 6000 -RA FEW010 BKN025 OVC080
RKPC,TAF RKPC 160500Z 1606/1712 05010KT 9999 FEW030 BKN100 TN16/1621Z TX18/1703Z BECMG 1609/1610 35007KT BECMG 1621/1622 34015G25KT
RKPK,TAF RKPK 160500Z 1606/1712 21006KT 9999 SCT030 TN14/1621Z TX22/1706Z BECMG 1608/1609 33006KT BECMG 1700/1701 33012KT
RKSG,TAF RKSG 160300Z 1603/1709 VRB06KT 9000 BR BKN140 OVC200 QNH3004INS BECMG 1606/1607 31009KT 9999 NSW FEW018 BKN026 BKN080 QNH3004INS BECMG 1608/1609 VRB06KT 9999 FEW070 BKN100 OVC140 QNH3004INS BECMG 1700/1701 33015G20KT 9999 SKC 520053 QNH3015INS BECMG 1701/1702 33020G25KT 9999 SKC 530054 QNH3008INS TX19/1605Z TN07/1622Z
RKSI,TAF AMD RKSI 160550Z 1606/1712 33008KT CAVOK TN08/1621Z TX13/1705Z TEMPO 1606/1607 12006KT 6000 -RA SCT030 BKN100 BECMG 1612/1614 33015G25KT TEMPO 1616/1622 33018G35KT
RKSM,TAF RKSM 160500Z 1606/1712 27006KT 9999 BKN120 TN08/1621Z TX15/1706Z
RKSO,TAF RKSO 151300Z 1513/1619 32006KT 9999 BKN140 QNH3009INS BECMG 1514/1515 VRB06KT 8000 HZ BKN130 QNH3009INS BECMG 1523/1600 12006KT 9999 NSW BKN140 QNH3004INS BECMG 1614/1615 31006KT 9000 BR BKN140 QNH3007INS BECMG 1617/1618 31009KT 9999 NSW SCT210 510043 QNH3008INS TX22/1605Z TN13/1519Z LAST NO AMDS AFT 1513 NEXT 1621
RKSS,TAF RKSS 160500Z 1606/1712 27006KT CAVOK TN07/1622Z TX15/1705Z TEMPO 1606/1607 33007KT 6000 -RA FEW030 BKN100 BECMG 1615/1617 33010G20KT TEMPO 1703/1706 33015G30KT
RKTN,TAF RKTN 160500Z 1606/1712 30006KT 9999 SCT030 TX25/1606Z TN09/1712Z
RKTU,TAF RKTU 160500Z 1606/1712 33006KT CAVOK TX22/1607Z TN09/1621Z
ROAH,TAF ROAH 160505Z 1606/1712 11012KT 9999 FEW020 SCT030 BECMG 1703/1706 17014KT TEMPO 1706/1712 4000 SHRA FEW008 BKN015 FEW020CB BECMG 1709/1712 35018KT
RODN,TAF RODN 160000Z 1600/1706 10015KT 9999 SCT020 BKN120 QNH2983INS TEMPO 1600/1607 10015G23KT BKN020 BECMG 1609/1610 10013KT 9999 SCT020 BKN080 QNH2981INS TEMPO 1700/1706 9000 -SHRA BKN020 BKN050 TX31/1604Z TN26/1618Z
ROIG,TAF ROIG 160506Z 1606/1712 10012KT 9999 FEW010 BKN020 TEMPO 1703/1709 4000 SHRA FEW006 BKN008 BKN015 FEW020CB BECMG 1706/1709 03015KT TEMPO 1709/1712 03022G33KT
ROTM,TAF ROTM 1603/1703 11010KT 9999 SCT015 SCT150 QNH2983INS TEMPO 1504/1510 10012G25KT 9999 SCT015 BKN150 BECMG 1612/1614 12010KT 9999 SCT015 SCT060 BKN150 QNH2979INS TEMPO 1615/1621 9999 BKN020 BECMG 1620/1622 13015KT 9999 SCT020 BKN050 BKN150 QNH2975INS T30/1604Z T24/1618Z
RPLB,TAF RPLB 160500Z 1606/1706 26008KT 9999 FEW020 SCT080 BKN300 TX30/1606Z TN26/1621Z TEMPO 1606/1612 24012KT 8000 -TSRA FEW016CB SCT018 BKN080
RPLC,TAF RPLC 160500Z 1606/1712 18006KT 9999 SCT020 BKN300 TX34/1606Z TN24/1621Z TEMPO 1606/1612 16008KT 6000 -TSRA FEW015CB SCT020 BKN100
RPLI,TAF RPLI 160500Z 1606/1706 18014KT 6000 -RA SCT018 OVC090 TEMPO 1606/1609 20015G30KT 1000 +RA BKN017 OVC080 TEMPO 1609/1612 18012G24KT 2000 RA BKN018 OVC080
RPLL,TAF RPLL 160500Z 1606/1712 25012KT 9999 FEW025 SCT100 BKN300 TX32/1606Z TN26/1621Z TEMPO 1606/1612 24020KT -SHRA FEW022CB SCT023 BKN100 TEMPO 1612/1618 23015KT -SHRA FEW022CB SCT023 BKN100
RPMD,TAF RPMD 160500Z 1606/1706 16005KT 9999 FEW016 SCT090 BKN260 TEMPO 1606/1612 18010KT -SHRA FEW015CB SCT016 BKN090 TEMPO 1618/1623 33004KT
RPMR,TAF RPMR 160500Z 1606/1706 19006KT 9999 FEW018 SCT080 BKN250 TEMPO 1606/1612 15012KT -SHRA FEW017CB SCT018 BKN080 TEMPO 1618/1623 34003KT
RPMZ,TAF RPMZ 160500Z 1606/1706 27005KT 9999 FEW017 BKN090 TEMPO 1606/1612 26010KT -SHRA FEW016CB SCT017 BKN090
RPVD,TAF RPVD 160500Z 1606/1706 25006KT 9999 FEW015 SCT070 BKN220 TEMPO 1606/1612 25014KT -SHRA FEW014CB SCT015 BKN070
RPVM,TAF RPVM 160500Z 1606/1712 24009KT 9999 FEW020 BKN300 TEMPO 1606/1612 23015KT 8000 TSRA SCT018CB OVC090 TEMPO 1612/1618 -SHRA FEW018CB BKN100
RPVP,TAF RPVP 160500Z 1606/1706 27007KT 9999 FEW019 BKN080 TEMPO 1606/1612 24011KT -SHRA FEW017CB SCT019 OVC080
SAAR,TAF AMD SAAR 160620Z 1606/1706 14005KT 0300 FG NSC TX23/1618Z TN09/1610Z TEMPO 1606/1611 2000 BR BKN005 BECMG 1611/1613 12010KT 9999 SCT020
SABE,TAF SABE 160500Z 1606/1706 15005KT 9999 SCT020 TX18/1618Z TN12/1610Z TEMPO 1607/1611 7000 -DZ SCT015 BKN030 BECMG 1615/1617 09015G25KT CAVOK
SACO,TAF SACO 160500Z 1606/1706 30003KT 9999 OVC010 TX25/1618Z TN06/1610Z BECMG 1607/1609 4000 BR OVC004 PROB30 1609/1611 0500 FG OVC002 BECMG 1612/1614 CAVOK
SADF,TAF SADF 160500Z 1606/1706 16005KT 9999 SCT020 TX19/1618Z TN11/1610Z TEMPO 1607/1611 4000 -DZ BR SCT015 BKN030 BECMG 1615/1617 09015KT CAVOK
SAEZ,TAF SAEZ 160500Z 1606/1706 18005KT 8000 NSC TX20/1618Z TN07/1609Z BECMG 1607/1610 3000 MIFG BR PROB40 TEMPO 1608/1611 VRB03KT 0800 BCFG BECMG 1611/1613 9999 NSW SCT015 BKN025 BECMG 1614/1617 10015KT BKN030 PROB30 1700/1703 13010KT OVC015
SAME,TAF SAME 160500Z 1606/1706 VRB03KT CAVOK TX29/1620Z TN06/1611Z BECMG 1611/1613 16005KT BECMG 1704/1706 18015G30KT SCT030 
SANR,TAF SANR 152300Z 1600/1624 09008KT CAVOK TX30/1618Z TN11/1610Z BECMG 1616/1618 03015KT
SANT,TAF SANT 160500Z 1606/1706 36003KT 8000 NSC TX26/1618Z TN10/1610Z BECMG 1615/1617 02010KT SCT030 FEW040TCU
SARE,TAF SARE 160500Z 1606/1706 18005KT CAVOK TX29/1618Z TN16/1610Z PROB30 1608/1612 4000 BR NSC
SARF,TAF SARF 152300Z 1600/1624 16010KT 9999 BKN025 TX31/1618Z TN17/1610Z
SARI,TAF SARI 160500Z 1606/1706 VRB03KT 8000M BKN020 OVC100 TX28/1618Z TN18/1609Z PROB30 1607/1611 6000M -RA BKN015 OVC050 BECMG 1611/1613 9999 SCT015 BKN100 BECMG 1615/1617 CAVOK
SARP,TAF SARP 160500Z 1606/1706 09005KT 8000 SCT010 SCT100 TX27/1618Z TN18/1609Z PROB30 1608/1612 4000 BR BKN010 BECMG 1613/1615 CAVOK
SASA,TAF SASA 160500Z 1606/1706 29005KT 9999 SCT040 OVC060 TX24/1618Z TN09/1610Z BECMG 1612/1614 05015KT 
SASJ,TAF SASJ 160500Z 1606/1706 27005KT 9999 SCT040 TX25/1618Z TN13/1610Z BECMG 1614/1616 05015KT 
SAVC,TAF SAVC 160500Z 1606/1706 VRB05KT 9999 FEW030 BKN070 TX14/1618Z TN06/1609Z BECMG 1615/1617 07010KT
SAWE,TAF SAWE 160500Z 1606/1706 30015KT CAVOK TX14/1619Z TN00/1604Z BECMG 1613/1615 27015G25KT
SAWG,TAF SAWG 160500Z 1606/1706 30010KT CAVOK TX21/1619Z TN02/1610Z
SAWH,TAF SAWH 160500Z 1606/1706 26010KT CAVOK TX11/1618Z TN03/1610Z BECMG 1701/1703 34015G25KT FEW030 BON070
SAZM,TAF SAZM 160500Z 1606/1706 30005KT 3000 BR NSC TX17/1618Z TN05/1610Z TEMP0 1606/1611 VRB03KT 0600 FG BECMG 1612/1614 09010KT CAVOK
SAZN,TAF SAZN 160500Z 1606/1706 05005KT CAVOK TX25/1618Z TN09/1610Z BECMG 1610/1612 09010KT BECMG 1614/1616 08010G20KT
SAZS,TAF SAZS 160500Z 1606/1706 17005KT CAVOK TX21/1618Z TN04/1610Z BECMG 1616/1618 06010G20KT PROB30 1620/1703 9000 -SHRA BKN045 BECMG 1621/1623 09010KT
SBAF,TAF SBAF 160300Z 1606/1618 09005KT 9999 SCT025 TN19/1606Z TX28/1617Z RMK PFP
SBAN,TAF SBAN 160300Z 1606/1618 09010KT CAVOK TN20/1606Z TX32/1617Z RMK PFP
SBAR,TAF SBAR 152315Z 1606/1706 12010KT 7000 SCT017 TN25/1607Z TX29/1617Z PROB30 1606/1609 4000 RA SCT015 BECMG 1615/1617 13015KT PROB30 1617/1620 4000 RA BKN015 BECMG 1620/1622 13010KT PROB30 1703/1706 4000 RA SCT012 RMK PHN
SBAT,TAF SBAT 160045Z 1606/1618 21005KT CAVOK TN26/1608Z TX33/1617Z BECMG 1613/1615 19005KT BECMG 1616/1618 24005KT RMK PGY
SBBE,TAF SBBE 160045Z 1606/1706 10005KT CAVOK TN28/1608Z TX30/1618Z BECMG 1610/1612 06010KT BKN030 BECMG 1616/1618 02005KT SCT015 FEW020TCU PROB30 1619/1623 05010KT TS SCT030 FEW035CB RMK PGY
SBBG,TAF SBBG 160300Z 1606/1618 09005KT 9999 SCT020 TN12/1608Z TX21/1618Z PROB30 1608/1610 2000 BR BECMG 1610/1612 12005KT BECMG 1615/1617 18008KT SCT030 RMK PEH
SBBI,TAF SBBI 160300Z 1606/1618 08006KT 5000 BR BKN005 TN13/1606Z TX20/1617Z BECMG 1608/1610 3000 RA BECMG 1615/1617 5000 BR BKN012 OVC025 FEW030TCU RMK PFP
SBBR,TAF SBBR 160415Z 1606/1706 07005KT CAVOK TN19/1608Z TX31/1618Z BECMG 1614/1616 13010KT SCT040 BECMG 1616/1618 14005KT BECMG 1620/1622 CAVOK BECMG 1700/1702 VRB02KT BECMG 1703/1705 08005KT RMK PGE
SBBU,TAF SBBU 160345Z 1606/1618 13014KT 8000 FEW025 TN17/1607Z TX30/1617Z BECMG 1615/1617 09009KT RMK PGM
SBBV,TAF SBBV 160045Z 1606/1706 31005KT 9999 SCT020 TN23/1608Z TX25/1618Z BECMG 1609/1611 06005KT SCT015 BECMG 1616/1618 07010KT SCT025 FEW030TCU PROB30 1621/1623 14010KT TS FEW030 FEW035CB RMK PGY
SBBW,TAF SBBW 160415Z 1606/1618 06006KT 9999 FEW025 TN24/1609Z TX38/1617Z BECMG 1612/1614 07012KT BECMG 1616/1618 10005KT RMK PGE
SBCB,TAF SBCB 152315Z 1606/1618 05013KT 9999 SCT020 TN23/1609Z TX26/1617Z BECMG 1609/1612 SCT015 BECMG 1614/1617 08017KT FEW025 RMK PHN
SBCF,TAF SBCF 160415Z 1606/1706 09010KT 9999 FEW020 TN17/1609Z TX28/1618Z BECMG 1606/1608 BKN030 BECMG 1611/1613 07010KT SCT040 BECMG 1619/1621 09007KT CAVOK RMK PGE
SBCG,TAF SBCG 160415Z 1606/1706 10010KT CAVOK TN21/1609Z TX29/1617Z PROB30 1606/1609 SCT010 BECMG 1610/1612 10015KT FEW035 PROB30 1618/1620 23010KT 8000 TSRA SCT030 FEW045CB BECMG 1620/1622 16010KT CAVOK RMK PGE
SBCJ,TAF SBCJ 160045Z 1606/1618 02005KT 9999 BKN020 TN21/1608Z TX28/1618Z BECMG 1610/1612 05005KT 3000 BR FU BKN004 RMK PGY
SBCO,TAF SBCO 160300Z 1606/1618 09008KT 9999 SCT020 TN16/1607Z TX23/1618Z PROB30 TEMPO 1607/1611 4000 TSRA BKN020 FEW040CB BECMG 1611/1613 SCT020 FEW040TCU BECMG 1615/1617 23005KT SCT030 RMK PEH
SBCP,TAF SBCP 152315Z 1606/1618 14010KT 8000 SCT015 TN22/1609Z TX29/1617Z BECMG 1609/1612 11013KT BKN015 BECMG 1612/1614 SCT020 BECMG 1615/1618 16015KT RMK PHN
SBCR,TAF SBCR 160415Z 1606/1706 20007KT CAVOK TN23/1609Z TX33/1618Z RMK PGE
SBCT,TAF SBCT 160300Z 1606/1706 09006KT 5000 BR OVC005 TX20/1618Z TN13/1705Z BECMG 1608/1610 3000 RA BECMG 1615/1617 5000 BR BKN012 OVC025 FEW030TCU PROB30 1617/1623 4000 TSRA BKN010 OVC020 FEW030CB BECMG 1623/1701 18003KT 2000 BR OVC007 RMK PFP
SBCY,TAF SBCY 160045Z 1606/1706 19005KT 9999 FEW020 TN25/1608Z TX36/1618Z BECMG 1612/1614 21010KT BECMG 1617/1619 16005KT BECMG 1700/1702 18005KT RMK PGY
SBCZ,TAF SBCZ 160045Z 1606/1706 14005KT 9999 BKN015 TN23/1608Z TX29/1618Z BECMG 1610/1612 12005KT BKN006 TEMPO 1618/1623 6000 TS BKN020 FEW030CB BECMG 1700/1702 03005KT RMK PGY
SBDN,TAF SBDN 160345Z 1606/1618 13012KT 8000 FEW025 TN18/1608Z TX30/1617Z BECMG 1615/1617 09010KT RMK PGM
SBEG,TAF SBEG 160045Z 1606/1706 06005KT 9999 SCT020 TN24/1608Z TX27/1618Z TEMPO 1614/1617 4000 TSRA BKN017 FEW035CB BECMG 1621/1623 34005KT FEW025 FEW030TCU BECMG 1700/1702 32005KT CAVOK RMK PGY
SBFI,TAF SBFI 160300Z 1606/1706 15005KT 8000 SCT020 TX27/1616Z TN17/1705Z PROB30 1607/1611 0700 FG NSC BECMG 1613/1615 9999 SCT017 FEW025TCU PROB30 1615/1619 6000 SHRA SCT020 FEW025TCU BECMG 1621/1623 FEW020 RMK PFP
SBFL,TAF SBFL 160300Z 1606/1706 06008KT 4000 RA BKN008 TN18/1606Z TX20/1614Z PROB30 1616/1618 36010KT 3000 TSRA BKN008 FEW030CB BECMG 1618/1620 36005KT 8000 NSW SCT010 BKN025 BECMG 1702/1704 33005KT BKN010 RMK PFF
SBFN,TAF SBFN 152315Z 1606/1618 18010KT 8000 SCT017 BKN030 TN25/1609Z TX30/1617Z PROB30 1606/1608 4000 RA BKN013 BECMG 1609/1612 SCT017 RMK PHN
SBFZ,TAF SBFZ 152315Z 1606/1706 12012KT 9999 SCT025 TN25/1608Z TX31/1616Z BECMG 1613/1615 11017KT FEW020 BECMG 1620/1623 10010KT RMK PHN
SBGL,TAF SBGL 152315Z 1606/1712 10007KT 9999 SCT020 TN22/1606Z TX30/1617Z PROB40 1606/1610 4000 BR BKN015 BECMG 1610/1613 03005KT BECMG 1615/1617 16015KT BECMG 1620/1623 26007KT SCT015 PROB30 1708/1712 5000 BR BKN013 RMK PHN
SBGO,TAF SBGO 160415Z 1606/1706 00000KT CAVOK TN20/1609Z TX35/1618Z BECMG 1609/1611 10008KT BECMG 1612/1614 10013KT FEW047 BECMG 1618/1620 FEW047 BECMG 1620/1622 10008KT CAVOK RMK PGE
SBGR,TAF SBGR 160345Z 1606/1712 09006KT 8000 BKN011 TN15/1609Z TX25/1617Z TEMPO 1607/1610 2000 BR BKN004 BECMG 1611/1613 09008KT BKN015 BECMG 1615/1617 09006KT SCT020 BECMG 1618/1620 15006KT BECMG 1621/1623 SCT014 BECMG 1700/1702 16002KT BKN011 TEMPO 1705/1709 BKN006 RMK PGM
SBGW,TAF SBGW 160300Z 1606/1618 07006KT 4000 BR BKN013 TN17/1606Z TX28/1616Z BECMG 1612/1614 8000 SCT015 RMK PFP
SBIH,TAF SBIH 160045Z 1606/1618 03005KT 9999 FEW020 TN24/1608Z TX34/1617Z BECMG 1610/1612 00000KT SCT015 FEW025TCU BECMG 1613/1615 07005KT SCT020 RMK PGY
SBIL,TAF SBIL 160415Z 1606/1618 21005KT 8000 RA SCT018 FEW030TCU TN23/1609Z TX27/1618Z BECMG 1611/1613 15010KT 9999 NSW BKN025 BECMG 1616/1618 VCSH SCT020 FEW025TCU RMK PGE
SBIZ,TAF SBIZ 160045Z 1606/1618 03005KT 9999 FEW020 TN28/1608Z TX37/1618Z BECMG 1608/1610 10006KT BECMG 1614/1616 13005KT SCT035 RMK PGY
SBJE,TAF SBJE 152115Z 1600/1612 08010KT 9999 SCT020 TN25/1609Z TX30/1612Z RMK PHN
SBJP,TAF SBJP 152315Z 1606/1706 19005KT 8000 SCT020 TN22/1607Z TX30/1616Z BECMG 1610/1612 12010KT PROB30 1612/1615 4000 RA BKN015 BECMG 1615/1617 13017KT BKN025 BECMG 1620/1623 12010KT FEW020 BECMG 1703/1705 20005KT RMK PHN
SBJV,TAF SBJV 160300Z 1606/1618 03010KT 4000 RA BKN008 OVC020 TN19/1606Z TX24/1617Z BECMG 1614/1616 06010KT 8000 SCT010 BKN020 RMK PFF
SBKG,TAF SBKG 152315Z 1606/1618 11010KT 7000 SCT015 TN20/1609Z TX30/1617Z PROB40 1606/1608 4000 RA BR BKN008 BECMG 1610/1612 16010KT 9999 BKN017 BECMG 1615/1618 13015KT SCT025 RMK PHN
SBKP,TAF SBKP 160345Z 1606/1706 10010KT 9999 FEW020 TN18/1609Z TX29/1617Z BECMG 1613/1615 07007KT FEW025 BECMG 1618/1620 19005KT BECMG 1621/1623 15011KT BECMG 1702/1704 12009KT RMK PGM
SBLO,TAF SBLO 160345Z 1606/1618 15005KT 8000 FEW020 TN18/1608Z TX27/1617Z BECMG 1615/1617 12005KT FEW025 RMK PGM
SBMA,TAF SBMA 160045Z 1606/1618 02005KT CAVOK TN26/1608Z TX35/1618Z BECMG 1612/1614 05005KT SCT025 RMK PGY
SBME,TAF SBME 152315Z 1606/1618 07005KT 9999 SCT030 TN23/1609Z TX30/1617Z PROB40 1606/1609 5000 RA BR BKN015 BECMG 1610/1612 12010KT SCT015 BECMG 1612/1615 FEW025 RMK PHN
SBMN,TAF SBMN 160300Z 1606/1618 20005KT 9999 SCT020 TN25/1609Z TX30/1616Z BECMG 1610/1612 09005KT 6000 TSRA SCT020 FEW030CB BECMG 1616/1618 09005KT RMK PFF
SBMO,TAF SBMO 152315Z 1606/1706 12010KT 7000 SCT020 TN21/1607Z TX28/1616Z PROB30 1606/1610 4000 RA BR BKN013 BECMG 1610/1613 17007KT 3000 RA BR BKN010 BECMG 1613/1615 7000 NSW BKN023 BECMG 1619/1622 12005KT SCT020 PROB30 1704/1706 4000 RA BR BKN013 RMK PHN
SBMQ,TAF SBMQ 160045Z 1606/1706 02005KT 9999 FEW017 TN26/1608Z TX35/1618Z BECMG 1610/1612 06010KT BECMG 1700/1702 02005KT SCT020 RMK PGY
SBNF,TAF SBNF 160300Z 1606/1706 09005KT 8000 RA SCT010 BKN020 TN19/1606Z TX21/1618Z BECMG 1608/1610 06015KT 4000 RA BKN010 BKN020 BKN025 BECMG 1618/1620 06005KT 8000 BKN020 PROB40 TEMPO 1700/1706 09005KT 0400 FG BKN008 RMK PFF
SBNT,TAF SBNT 152315Z 1606/1618 19008KT 9999 FEW020 TN22/1609Z TX27/1617Z BECMG 1609/1612 16012KT SCT020 FEW025TCU BECMG 1615/1618 13018KT SCT025 RMK PHN
SBOI,TAF SBOI 160045Z 1606/1618 00000KT 9999 SCT020 TN23/1608Z TX34/1618Z PROB30 1610/1612 07005KT 4000 BR BKN006 BECMG 1614/1616 05005KT SCT030 FEW035TCU RMK PGY
SBPA,TAF SBPA 160300Z 1606/1706 09008KT 9999 SCT020 TN17/1607Z TX23/1618Z PROB30 TEMPO 1607/1611 4000 TSRA BKN020 FEW040CB BECMG 1611/1613 SCT020 FEW040TCU BECMG 1616/1618 18005KT SCT030 BECMG 1622/1624 21005KT RMK PEH
SBPB,TAF SBPB 152315Z 1606/1618 12015KT 9999 SCT020 TN27/1609Z TX32/1617Z BECMG 1610/1612 14018KT BECMG 1615/1618 11013KT FEW020 RMK PHN
SBPJ,TAF SBPJ 152315Z 1606/1706 11003KT 7000 NSC TN24/1607Z TX35/1616Z PROB40 1606/1612 4000 FU BECMG 1616/1618 28010KT SCT030 FEW035TCU BECMG 1620/1623 11003KT FEW040 PROB40 1703/1706 4000 FU NSC RMK PHN
SBPK,TAF SBPK 160300Z 1606/1706 06008KT 9999 SCT015 TN16/1607Z TX22/1618Z BECMG 1611/1613 24010KT SCT030 BECMG 1622/1624 10010KT 7000 BKN020 RMK PEH
SBPL,TAF SBPL 152315Z 1606/1706 17010KT CAVOK TN22/1608Z TX35/1617Z BECMG 1612/1615 17015KT BKN030 BECMG 1618/1621 19010KT FEW020 RMK PHN
SBPP,TAF SBPP 160345Z 1606/1706 03010KT 8000 FEW015 TN17/1608Z TX27/1618Z TEMPO 1611/1615 BKN015 BECMG 1619/1621 06004KT FEW018 RMK PGM
SBPS,TAF SBPS 152315Z 1606/1706 09010KT 8000 SCT020 TN22/1607Z TX27/1616Z TEMPO 1606/1611 4000 RA BR BKN015 FEW025TCU BECMG 1611/1614 13007KT SCT015 PROB40 1618/1621 4000 RA BR BKN015 BECMG 1622/1624 09010KT FEW015 TEMPO 1703/1706 5000 RA BR BKN015 FEW025TCU RMK PHN
SBPV,TAF SBPV 160045Z 1606/1706 18005KT 9999 FEW020 TN23/1608Z TX33/1618Z BECMG 1612/1614 14005KT BECMG 1619/1621 27005KT FEW030 BECMG 1700/1702 21005KT CAVOK RMK PGY
SBRB,TAF SBRB 160045Z 1606/1618 16005KT 9999 FEW018 TN23/1608Z TX31/1617Z PROB30 1610/1612 4000 BR BKN008 BECMG 1614/1616 15005KT BKN030 RMK PGY
SBRF,TAF SBRF 152315Z 1606/1706 14010KT 8000 SCT023 TN23/1607Z TX28/1616Z TEMPO 1606/1609 4000 RA BR BKN010 BECMG 1613/1616 19013KT 5000 RA BR BKN015 FEW025TCU BECMG 1616/1618 15010KT 8000 NSW SCT020 TEMPO 1703/1706 4000 RA BR BKN010 RMK PHN
SBRJ,TAF SBRJ 152315Z 1606/1618 12005KT 8000 SCT017 BKN030 TN22/1609Z TX28/1617Z BECMG 1606/1607 03005KT SCT015 PROB40 1609/1612 5000 BR SCT013 BECMG 1615/1618 17013KT SCT020 RMK PHN
SBRP,TAF SBRP 160415Z 1606/1618 12005KT CAVOK TN21/1609Z TX32/1618Z BECMG 1610/1612 07008KT BECMG 1614/1616 12005KT SCT040 RMK PGE
SBSC,TAF SBSC 160300Z 1606/1618 03004KT 9999 SCT020 TN19/1606Z TX27/1617Z RMK PFP
SBSG,TAF SBSG 152315Z 1606/1706 23005KT 9999 SCT017 TN21/1607Z TX31/1616Z BECMG 1610/1612 17010KT TEMPO 1613/1617 16015G25KT BECMG 1619/1621 FEW020 BECMG 1703/1705 24005KT RMK PHN
SBSJ,TAF SBSJ 160345Z 1606/1618 18002KT 8000 BKN015 TN15/1607Z TX28/1617Z BECMG 1611/1613 06004KT BKN022 BECMG 1615/1617 03004KT SCT025 RMK PGM
SBSL,TAF SBSL 152315Z 1606/1706 04010KT CAVOK TN27/1607Z TX33/1617Z BECMG 1610/1613 06015KT SCT030 BECMG 1620/1623 02010KT CAVOK RMK PHN
SBSM,TAF SBSM 160300Z 1606/1618 09008KT 9999 SCT015 TN15/1607Z TX23/1618Z PROB30 TEMPO 1607/1611 4000 TSRA BKN020 FEW040CB BECMG 1611/1613 SCT020 BECMG 1615/1617 18005KT RMK PEH
SBSN,TAF SBSN 160045Z 1606/1706 09010KT 9999 TS FEW020 FEW025CB TN28/1608Z TX30/1618Z BECMG 1612/1614 10013KT NSW SCT020 BECMG 1700/1702 07008KT RMK PGY
SBSP,TAF SBSP 160345Z 1606/1618 12007KT 7000 BKN011 TN17/1607Z TX25/1617Z TEMPO 1606/1610 BKN004 BECMG 1611/1613 BKN015 BECMG 1615/1617 16006KT SCT015 RMK PGM
SBSV,TAF SBSV 160415Z 1606/1706 12010KT 9999 SCT022 TN24/1608Z TX27/1617Z BECMG 1606/1608 SHRA BKN018 FEW023TCU BECMG 1612/1614 NSW TEMPO 1616/1618 VCSH SCT020 FEW022TCU BECMG 1621/1623 FEW022 PROB30 1703/1705 SHRA SCT020 RMK PGE
SBTD,TAF SBTD 160345Z 1606/1618 09008KT 8000 FEW025 TN16/1608Z TX25/1617Z RMK PGM
SBTE,TAF SBTE 152315Z 1606/1618 34005KT CAVOK TN26/1609Z TX37/1617Z BECMG 1609/1612 11010KT BECMG 1615/1618 SCT030 RMK PHN
SBTF,TAF SBTF 160045Z 1606/1618 21005KT 9999 FEW020 TN24/1608Z TX33/1617Z BECMG 1615/1617 17005KT SCT018 RMK PGY
SBTT,TAF SBTT 160045Z 1606/1706 18005KT 9999 SCT008 TN24/1608Z TX30/1618Z BECMG 1614/1616 15010KT SCT025 BECMG 1619/1621 SCT025 FEW030TCU RMK PGY
SBUG,TAF SBUG 160300Z 1606/1618 12005KT CAVOK TN16/1607Z TX26/1618Z BECMG 1612/1614 9999 SCT020 BECMG 1615/1617 16008KT RMK PEH
SBUL,TAF SBUL 160415Z 1606/1618 09010KT CAVOK TN20/1607Z TX30/1618Z BECMG 1610/1612 06015KT BECMG 1614/1616 08007KT FEW030 RMK PGE
SBUR,TAF SBUR 160415Z 1606/1618 10005KT 8000 NSC TN20/1607Z TX32/1618Z BECMG 1610/1612 06015KT BECMG 1616/1618 12008KT RMK PGE
SBVH,TAF SBVH 160045Z 1606/1618 12005KT CAVOK TN21/1608Z TX30/1617Z BECMG 1616/1618 09010KT SCT030 FEW035TCU RMK PGY
SBVT,TAF SBVT 152315Z 1606/1706 35005KT 8000 BKN025 TN21/1608Z TX28/1617Z PROB40 1606/1610 4000 RA BR BKN012 BECMG 1614/1616 06015KT SCT030 BECMG 1620/1623 03010KT BKN020 BECMG 1700/1702 35005KT PROB40 1702/1706 4000 RA BR BKN012 RMK PHN
SBYS,TAF SBYS 160300Z 1606/1618 19006KT 9999 SCT030 TN18/1607Z TX31/1617Z BECMG 1612/1614 03010KT RMK PFP
SCAR,TAF SCAR 160415Z 1606/1706 07004KT 9999 BKN020 TN12/1610Z TX19/1618Z BECMG 1614/1616 22012KT CAVOK BECMG 1622/1700 21004KT BECMG 1704/1706 BKN020
SCAT,TAF SCAT 160435Z 1606/1706 36004KT 9999 OVC012 TN12/1610Z TX19/1618Z BECMG 1614/1616 25010KT CAVOK BECMG 1700/1702 24004KT OVC010
SCBA,TAF SCBA 160400Z 1606/1706 15005KT 9999 BKN090 TN05/1609Z TX16/1619Z BECMG 1608/1610 VRB03KT FEW040 BECMG 1614/1616 04007KT BECMG 1623/1701 VRB03KT CAVOK
SCCF,TAF SCCF 160416Z 1606/1706 11015KT CAVOK TN05/1610Z TX21/1618Z BECMG 1614/1615 09004KT BECMG 1616/1618 27018KT TEMPO 1618/1621 28022G32KT BECMG 1623/1701 27007KT BECMG 1703/1705 11015KT
SCCI,TAF SCCI 160413Z 1606/1706 27009KT CAVOK TN02/1610Z TX15/1618Z BECMG 1704/1706 31015KT
SCDA,TAF SCDA 160415Z 1606/1706 14004KT CAVOK TN13/1610Z TX18/1618Z BECMG 1616/1618 22012KT BECMG 1702/1704 14004KT
SCEL,TAF SCEL 160400Z 1606/1706 15005KT CAVOK TX26/1619Z TN07/1610Z TEMPO 1608/1613 VRB02KT 6000 NSC BECMG 1615/1617 20010KT BECMG 1619/1621 16010KT BECMG 1701/1703 15005KT
SCFA,TAF SCFA 160431Z 1606/1706 36004KT 9999 BKN015 TN12/1610Z TX16/1618Z BECMG 1613/1615 20012KT CAVOK BECMG 1702/1704 19004KT BKN015
SCIE,TAF SCIE 160400Z 1606/1706 24010KT CAVOK TX15/1619Z TN09/1610Z BECMG 1607/1609 20005KT TEMPO 1610/1614 VRB02KT 4000 BR SCT007 BKN012 BECMG 1615/1617 22010KT BECMG 1701/1703 20004KT FEW003 SCT006
SCIP,TAF SCIP 151042Z 1512/1612 08008KT 9999 SCT030 TX23/1520Z TN18/1608Z BECMG 1521/1523 02012KT SCT030 TEMPO 1603/1612 02016KT 8000 -SHRA SCT015 SCT020
SCQP,TAF SCQP 160400Z 1606/1706 VRB03KT 9999 OVC005 TN07/1609Z TX19/1619Z BECMG 1611/1613 OVC020 BECMG 1614/1616 24006KT SCT035 BECMG 1700/1702 VRB03KT CAVOK
SCSE,TAF SCSE 160400Z 1606/1706 30004KT 9999 BKN012 TX14/1619Z TN10/1610Z TEMPO 1606/1610 BKN006 OVC010 BECMG 1614/1616 29008KT BECMG 1617/1619 FEW020 BECMG 1701/1703 33004KT BECMG 1702/1704 BKN012
SCTE,TAF SCTE 160400Z 1606/1706 21005KT CAVOK TN03/1609Z TX15/1619Z BECMG 1607/1609 OVC008 BECMG 1613/1615 15010KT SCT030 BECMG 1619/1621 CAVOK BECMG 1702/1704 VRB03KT
SCVM,TAF SCVM 160400Z 1606/1706 30004KT 7000 BKN008 BKN012 TX13/1619Z TN08/1610Z TEMPO 1606/1614 00000KT 0500 FG BKN003 OVC006 BECMG 1613/1615 33010KT 9999 SCT012 BKN020 BECMG 1619/1621 FEW017 SCT025 BECMG 1700/1702 30004KT 7000 BKN008 BKN012
SEGU,SEGU 160435Z 1606/1706 22012KT 9999 FEW010 SCT030 BECMG 1612/1614 SCT026 BKN100 BECMG 1618/1620 16006KT FEW026 SCT100 BECMG 1700/1702 22010KT TX28/1620Z TN20/1610Z
SELT,TAF COR SELT 160510Z 1606/1706 36005KT 9999 SCT010 BKN020 BECMG 1612/1614 18005KT SCT030 BKN080 BECMG 1618/1619 19012KT BKN030 BKN100 TEMPO 1619/1621 SHRA FEW026TCU BKN030 BECMG 1700/1702 20006KT SCT010 BKN030 TX16/1619Z TN04/1611Z
SEMT,SEMT 160435Z 1606/1706 20010KT 9999 OVC020 BECMG 1616/1618 31010KT SCT023 BECMG 1700/1702 20012KT BKN023 TX27/1620Z TN20/1610Z
SEQM,SEQM 160505Z 1606/1706 VRB03KT 3000 BR BKN005 TEMPO 1606/1609 0800 FG FM161300 VRB03KT 9999 BKN026 BKN080 BECMG 1618/1620 36010KT BECMG 1700/1702 03004KT SCT010 BKN026 TX21/1619Z TN10/1611Z
SGAS,TAF SGAS 160430Z 1606/1706 16007KT 9999 BKN030 TX28/1619Z TN18/1610Z TEMPO 1616/1620 9999 SCT033 FEW040TCU
SGCO,TAF SGCO 160430Z 1606/1706 17007KT 9999 SCT030 TX30/1619Z TN19/1610Z BECMG 1615/1619 9999 BKN027 FEW040TCU PROB40 TEMPO 1619/1622 TS SHRA BKN025 FEW040CB
SGEN,TAF SGEN 160430Z 1606/1706 05007KT 9999 BKN021 TX26/1619Z TN16/1610Z BECMG 1615/1619 9999 BKN030 FEW040TCU
SGES,TAF SGES 160430Z 1606/1706 05005KT 9000 -TSRA BKN018 FEW040CB TX28/1619Z TN18/1610Z BECMG 1607/1611 7000 RA BKN014 BECMG 1611/1615 9999 BKN020 BECMG 1615/1618 7000 SHRA BKN025 FEW040TCU PROB30 TEMPO 1618/1621 9000 -TSRA BKN021 FEW040CB
SKAR,TAF SKAR 160430Z 1606/1706 00000KT 5000 BR SCT015 SCT080 TEMPO 1609/1611 DZ SCT012 BKN080 BECMG 1613/1615 26005KT 9999 NSW SCT020 BKN090 TEMPO 1620/1624 6000 TSRA SCT015CB BKN080 BECMG 1701/1703 00000KT SCT017 TX26/1619Z TN17/1611Z
SKBG,TAF SKBG 160430Z 1606/1706 VRB02KT 9999 FEW010 BECMG 1614/1616 SCT015 32008KT TEMPO 1618/1622 DZRA SCT012TCU BECMG 1701/1703 VRB02KT TX26/1618Z TN18/1610Z
SKBO,TAF SKBO 160430Z 1606/1706 VRB02KT 9999 SCT015 BECMG 1614/1616 13010KT SCT020 BECMG 1701/1703 VRB02KT TX20/1618Z TN07/1610Z
SKBQ,TAF SKBQ 160430Z 1606/1706 17005KT 9999 FEW015 PROB40 TEMPO 1606/1609 RA SCT010CB TEMPO 1610/1614 4000 BR BKN010 TEMPO 1617/1621 5000 TSRA SCT012CB TX32/1617Z TN24/1609Z
SKCC,TAF SKCC 160430Z 1606/1706 VRB02KT 9999 SCT020 TEMPO 1610/1613 5000 BCFG SCT012 BECMG 1616/1618 35010KT BECMG 1704/1706 VRB02KT TX32/1618Z TN23/1610Z
SKCG,TAF SKCG 160430Z 1606/1706 VRB02KT 9999 FEW015 TEMPO 1608/1611 DZRA SCT015TCU BECMG 1614/1616 28008KT SCT018 TEMPO 1617/1620 RADZ SCT015CB BECMG 1702/1704 VRB02KT TX32/1619Z TN25/1610Z
SKCL,TAF SKCL 160430Z 1606/1706 VRB02KT 9999 FEW020 SCT100 TEMPO 1610/1613 5000 DZ BR SCT015 BECMG 1616/1618 32010KT SCT020 BKN090 PROB40 1621/1624 RADZ SCT015TCU BKN080 BECMG 1701/1703 04005KT FEW025 SCT120 TX30/1618Z TN19/1611Z
SKLT,TAF SKLT 160430Z 1606/1706 VRB02KT 9999 SCT012 TEMPO 1607/1610 DZRA SCT010TCU BKN080 BECMG 1614/1616 SCT017 TX32/1619Z TN23/1610Z
SKPE,TAF SKPE 160430Z 1606/1706 VRB02KT 9999 SCT017 BKN080 TEMPO 1607/1610 6000 RADZ SCT010TCU BECMG 1617/1619 13010KT SCT015 SCT080 TEMPO 1621/1624 6000 TSRA SCT015CB BKN080 BECMG 1702/1704 VRB02KT FEW017 SCT090 TX26/1618Z TN19/1611Z
SKRG,TAF SKRG 160430Z 1606/1706 VRB02KT 9999 SCT010 TEMPO 1608/1612 4000 DZ BCFG BKN005 BECMG 1613/1615 12010KT TEMPO 1619/1623 DZ SCT020TCU BECMG 1700/1702 VRB02KT PROB40 1703/1706 DZ BKN010 TX22/1619Z TN13/1611Z
SKSM,TAF SKSM 160430Z 1600/1624 08006KT 9999 FEW020 PROB40 TEMPO 1606/1609 TSRA SCT020CB TEMPO 1619/1622 TSRA SCT020CB TX34/1618Z TN24/1609Z
SKSP,TAF SKSP 160430Z 1606/1706 VRB02KT 9999 FEW015 TEMPO 1612/1615 SHRA SCT017TCU BECMG 1614/1616 08010KT SCT018 TX32/1619Z TN25/1609Z
SLAL,TAF SLAL 160400Z 1606/1706 00000KT 9999 SCT010 BKN070 TX17/1619Z TN09 /1611Z TEMPO 1609/1612 3000 BR BKN008 BECMG 1614/1616 02010KT BECMG 1621/1623 7000 RA BECMG 1702/1704 00000KT 9999 NSW
SLCB,TAF SLCB 160400Z 1606/1706 00000KT 9999 SCT030 BKN070 TX28/1619Z TN13 /1611Z BECMG 1615/1617 27010KT FEW033 SCT070 PROB30 TEMPO 1622/1700 8000 RA BECMG 1703/1705 00000KT
SLCO,TAF SLCO 160400Z 1606/1706 00000KT 9999 SCT012 SCT070 TX33/1619Z TN21 /1610Z TEMPO 1607/1611 3000 BR BKN004 BECMG 1612/1614 17009KT SCT020 SCT080
SLET,TAF SLET 160400Z 1606/1706 19004KT 9999 BKN070 TX32/1620Z TN21/1609Z TEMPO 1615/1619 18012G25KT FEW020 BKN070 BECMG 1621/1623 12006KT SCT070
SLLP,TAF SLLP 160400Z 1606/1706 07006KT 3000E BCFG FEW002 SCT070 TX15/ 1619Z TN01/1610Z BECMG 1611/1614 10010KT 9999 NSW SCT015 TEMPO 1618/ 1621 02013G23KT 5000 TSRA FEW020CB BECMG 1623/1702 08005KT
SLTJ,TAF SLTJ 160400Z 1606/1706 00000KT 9999 BKN023 BKN070 TX21/1619Z TN12 /1611Z BECMG 1615/1617 15010KT BECMG 1623/1701 00000KT
SLTR,TAF SLTR 160400Z 1606/1706 00000KT 9999 SCT011 SCT070 TX34/1619Z TN21 /1610Z BECMG 1612/1614 20011KT SCT020 SCT080
SLVR,TAF SLVR 160400Z 1606/1706 19004KT 9999 BKN070 TX32/1620Z TN21/1609Z TEMPO 1615/1619 18012G25KT FEW020 BKN070 BECMG 1621/1623 12006KT SCT070
SMJP,TAF SMJP 152300Z 1600/1624 VRB02KT 9999 SCT020 TX33/1617Z TN23/1609Z PROB40 1607/1610 VRB01KT 1500 BR SCT002
SMZO,TAF SMZO 151600Z 1518/1618 07005KT 9999 SCT018 TX33/1616Z TN24/1609Z TEMPO 1518/1520 5000 SHRA FEW015CB SCT025 PROB30 1607/1610 VRB01KT 3000 BR SCT005
SOCA,TAF SOCA 160500Z 1606/1706 VRB02KT CAVOK BECMG 1613/1615 08010KT BECMG 1622/1624 VRB02KT
SPCL,TAF SPCL 152300Z 1600/1624 VRB04KT 9999 SCT020 TX32/1619Z TN23/1611Z TEMPO 1610/1612 2000 BR BKN006 TEMPO 1619/1623 36015KT 3000 SHRA BKN010 FEW025TCU BKN080
SPEO,TAF SPEO 151710Z 1518/1618 20018KT 9999 FEW020 TX22/1519Z TN14/1611Z TEMPO 1519/1523 5000 BR SCT005 BKN080 BECMG 1601/1604 25014KT BKN010 BECMG 1608/1612 18010KT SCT030
SPGM,TAF SPGM 151700Z 1518/1618 06004KT 9999 SCT030 TX32/1519Z TN22/1611Z TEMPO 1519/1521 4900 RA SCT015 BKN070 BECMG 1612/1614 4900 BR SCT010 BKN130 BECMG 1615/1617 9999 NSW FEW020 SCT100
SPHI,TAF SPHI 151710Z 1518/1618 20012KT CAVOK TX23/1519Z TN15/1611Z TEMPO 1520/1523 7000 FEW010 SCT100 BECMG 1601/1604 23008KT 8000 OVC010 BECMG 1608/1612 16010KT 9999 BKN020
SPHO,TAF SPHO 151720Z 1518/1618 24007KT 9999 SCT040 TX24/1519Z TN10/1611Z TEMPO 1518/1520 FEW015 FEW045TCU BKN090
SPHY,TAF SPHY 151720Z 1518/1618 36010KT 9999 FEW012 TX16/1519Z TN01/1611Z BECMG 1521/1523 00000KT
SPJC,TAF SPJC 160500Z 1606/1706 19007KT 8000 BKN011 TX19/1620Z TN14/1611Z TEMPO 1609/1612 4500 BR BECMG 1615/1617 BKN015 FM161900 17013KT 9999 SCT017
SPJI,TAF SPJI 151700Z 1518/1618 00000KT 9999 SCT020 BKN100 TX24/1521Z TN19/1611Z TEMPO 1518/1520 4000 DZRA BKN010 OVC080 TEMPO 1610/1613 3000 DZ BCFG BKN010 BKN080
SPJL,TAF SPJL 151700Z 1518/1618 10012KT 9999 SCT020 TX19/1519Z TN01/1610Z TEMPO 1522/1601 TSRA SCT010 FEW020CB BKN080 FM160200 22005KT 9999 SCT015 SCT100
SPJR,TAF SPJR 151700Z 1518/1618 17010KT 9999 SCT025 BKN047 TX24/1519Z TN07/1611Z TEMPO 1519/1522 RA SCT023 BKN043 BECMG 1600/1602 VRB02KT SCT025 BKN050 BECMG 1612/1614 FEW027 SCT070 TEMPO 1616/1618 RA SCT023 BKN045
SPLO,TAF SPLO 151700Z 1518/1618 16007KT CAVOK TX21/1519Z TN14/1610Z
SPME,TAF SPME 152315Z 1600/1624 34004KT 9999 BKN015 TX26/1619Z TN20/1611Z BECMG 1601/1604 29006KT OVC005 PROB40 1608/1611 SCT030 TEMPO 1609/1613 05014KT 5000 RA BR OVC040
SPMS,TAF SPMS 151700Z 1518/1618 24005KT 9999 SCT015 BKN080 TX28/1520Z TN22/1611Z TEMPO 1520/1601 4000 DZRA BKN010 BKN080 TEMPO 1610/1613 2000 BR BKN005 BKN080
SPNC,TAF SPNC 151700Z 1518/1618 06010KT 9999 FEW030 BKN110 TX30/1519Z TN14/1611Z TEMPO 1519/1521 06015G26KT SCT030 BKN100 BECMG 1523/1601 VRB04KT FEW040 BECMG 1612/1614 RA SCT025 OVC100 BECMG 1616/1618 06010KT NSW SCT030 BKN110 
SPPY,TAF SPPY 151700Z 1518/1618 10008KT 9999 SCT010 BKN040 TX15/1521Z TN10/1611Z TEMPO 1518/1520 4000 DZ BCFG BKN010 OVC040 TEMPO 1610/1615 3000 DZ BCFG BKN008 BKN040
SPQT,TAF SPQT 160500Z 1606/1706 27004KT 9999 BKN005 BKN100 TX31/1619Z TN22/1611Z TEMPO 1608/1612 1000 BCFG BKN002 BKN080 BECMG 1613/1616 03005KT BKN020 BKN100 TEMPO 1619/1701 06015KT 3000 SHRA BKN010 FEW025TCU BKN080
SPQU,TAF COR SPQU 152300Z 1600/1624 03005KT CAVOK TX21/1618Z TN06/1610Z BECMG 1615/1617 25011KT BECMG 1622/1624 06005KT
SPRU,TAF SPRU 152315Z 1600/1624 16010KT 8000 BKN010 TX18/1619Z TN15/1611Z BECMG 1601/1604 24012KT 5000 BR OVC005 BECMG 1608/1612 16008KT 7000 NSW BKN020 PROB40 1613/1616 3000 BR OVC002
SPSO,TAF SPSO 152300Z 1600/1624 21013KT CAVOK TX21/1620Z TN13/1611Z BECMG 1603/1605 21006KT 7000 SCT015 BECMG 1606/1609 08006KT 4500 BR FU BKN011 FM161300 28008KT 7000 NSW SCT015 FM161800 23015KT CAVOK
SPST,TAF SPST 152300Z 1600/1624 VRB04KT 9999 SCT020 OVC080 TX34/1619Z TN22/1611Z TEMPO 1612/1614 4500 BR RA SCT010 OVC060 BECMG 1616/1618 03010KT SCT027 SCT060 BECMG 1621/1623 27003KT
SPTN,TAF COR SPTN 152300Z 1600/1624 27005KT 9999 FEW040 TX22/1618Z TN12/1610Z FM160500 VRB02KT 9999 BKN025 FM161200 27005KT 9999 FEW035 FM161500 21010KT CAVOK FM162300 27005KT 9999 SCT060
SPTU,TAF SPTU 151720Z 1518/1618 33005KT 9999 FEW020 TX33/1520Z TN21/1611Z BECMG 1518/1521 9999 NSW SCT020 BKN100
SPYL,TAF SPYL 152315Z 1600/1624 19014KT CAVOK TX26/1619Z TN14/1611Z BECMG 1601/1604 22012KT 9999 FEW020 SCT100 PROB40 1608/1610 SCT030 TEMPO 1610/1614 06018KT 7000 RA BKN080
SPZO,TAF SPZO 152300Z 1600/1624 09005KT 9999 FEW030 SCT080 TX22/1619Z TN09/1611Z BECMG 1617/1619 31015KT BECMG 1622/1623 03005KT
SUAA,TAF SUAA 160530Z 1606/1706 11012KT 9999 SCT010 OVC070 TX17/1618Z TN12/1609Z BECMG 1606/1609 BKN010 OVC070 TEMPO 1606/1618 5000 RA BR BKN008 OVC060 TEMPO 1617/1624 11015G25KT
SUCA,TAF SUCA 160530Z 1606/1706 13015KT 9999 BKN012 BKN070 TX17/1618Z TN13/1609Z TEMPO 1606/1618 5000 RA BR BKN008 OVC060 TEMPO 1617/1624 13017G27KT
SUDU,TAF SUDU 160530Z 1606/1706 13010KT 9999 BKN012 BKN070 TX19/1618Z TN11/1609Z TEMPO 1606/1618 5000 RA BR BKN008 OVC060 TEMPO 1607/1610 0800 BCFG BKN004 TEMPO 1619/1624 13015G25KT
SULS,TAF SULS 160530Z 1606/1706 10015KT 9999 SCT030 OVC070 TX16/1618Z TN12/1609Z BECMG 1606/1609 BKN010 OVC070 TEMPO 1606/1618 5000 RA BR BKN008 OVC060 TEMPO 1613/1624 10015G25KT
SUMU,TAF SUMU 160530Z 1606/1706 11012KT 9999 SCT010 OVC070 TX17/1618Z TN12/1609Z BECMG 1606/1609 BKN010 OVC070 TEMPO 1606/1618 5000 RA BR BKN008 OVC060 TEMPO 1617/1624 11015G25KT
SURV,TAF SURV 160530Z 1606/1706 15008KT 9999 BKN030 TX24/1618Z TN11/1609Z TEMPO 1606/1612 3000 BR BKN010 TEMPO 1607/1610 0800 BCFG BKN005
SVBC,TAF SVBC 160400Z 1606/1706 00000KT 9999 OVC010 TX33/1618Z TN22/1707Z TEMPO 1606/1610 00000KT 9000 DZ SCT100 SCT010
SVJC,TAF SVJC 160400Z 1606/1706 08004KT 9999 SCT013 TX34/1619Z TN22/1707Z TEMPO 1606/1610 02005KT 9000 DZ SCT013 BKN080
SVMC,TAF SVMC 160400Z 1606/1706 00000KT 9999 BKN013 TX33/1619Z TN22/1708Z TEMPO 1604/1609 09005KT 9000 DZ OVC013
SVMG,TAF SVMG 160400Z 1606/1706 09015KT 9999 SCT010 TX33/1618Z TN22/1708Z TEMPO 1606/1608 05007KT 9000 DZ BKN010 SCT080
SVMI,TAF SVMI 160400Z 1606/1706 00000KT 9999 BKN016 TX33/1618Z TN21/1707Z TEMPO 1606/1610 09007KT 9000 DZ SCT016 BKN070
SVPR,TAF SVPR 160400Z 1606/1706 07007KT 9999 BKN020 TX34/1618Z TN23/1707Z TEMPO 1606/1610 00000KT 9000 DZ SCT100 BKN013 
SVSA,TAF SVSA 160400Z 1606/1706 06004KT 9999 BKN017 TX31/1619Z TN19/1708Z TEMPO 1606/1610 00000K 9000 DZ SCT020
SVVA,TAF SVVA 152300Z 1600/1700 18003KT 9999 SCT016 TX30/1619 TN23/1609 TEMPO 1602/1606 27004KT BKN016 TEMPO 1606/1710 09002KT SCT016
SYCJ,TAF SYCJ 160500Z 1606/1706 VRB02KT 9999 FEW016 PROB40 TEMPO 1607/1610 0900 FG BKN008 BECMG 1612/1614 04006KT 9999 SCT019 BECMG 1700/1702 06005KT 9999 FEW017 SCT100
SYEC,TAF SYEC 160500Z 1606/1706 07004KT 9999 FEW017 SCT090 PROB40 TEMPO 1607/1611 9000 -SHRA BKN014 SCT036 BECMG 1612/1614 05008KT 9999 SCT020 BECMG 1700/1702 05006KT 9999 FEW018 SCT100
TAPA,TAF TAPA 160500Z 1606/1706 11007KT 9999 SCT018 PROB40 TEMPO 1610/1622 SHRA PROB30 TEMPO 1618/1622 FEW012CB SCT016
TBPB,TAF TBPB 160500Z 1606/1706 11012KT 9999 SCT018
TDPD,TAF TDPD 160500Z 1606/1706 11010KT 9999 SCT018
TFFF,TAF TFFF 160500Z 1606/1706 09005KT 9999 SCT025 PROB40 TEMPO 1615/1622 2000 SHRA FEW013CB BKN018TCU PROB30 TEMPO 1616/1620 1000 TSRA BKN010 BKN015CB PROB30 TEMPO 1702/1706 4000 SHRA SCT020TCU
TFFR,TAF TFFR 160500Z 1606/1706 09005KT 9999 FEW025 PROB30 TEMPO 1606/1610 4000 SHRA SCT020TCU PROB40 TEMPO 1615/1706 3200 SHRA BKN018TCU PROB30 TEMPO 1615/1621 1000 TSRA BKN010 BKN015CB
TGPY,TGPY 160404Z 1606/1706 08006KT 9999 FEW020
TIST,TIST 160539Z 1606/1706 09006KT P6SM VCSH FEW030 FM161400 12010KT P6SM VCSH SCT030 FM161600 10013KT P6SM VCTS SCT025CB SCT030 SCT060 FM162300 08005KT P6SM FEW025
TISX,TISX 160539Z 1606/1706 08005KT P6SM VCSH SCT030 FM161400 10011KT P6SM VCSH SCT028 FM161600 10013KT P6SM VCTS SCT025CB SCT030 SCT060 FM162300 VRB05KT P6SM FEW025
TJBQ,TJBQ 160539Z 1606/1706 11003KT P6SM SCT050 FM161300 07011KT P6SM SKC FM161600 05012G25KT P6SM VCTS SCT025CB SCT030 BKN080 FM162300 07005KT P6SM FEW025 SCT060 AMD NOT SKED TIL 161100
TJPS,TJPS 160539Z 1606/1706 07003KT P6SM FEW030 SCT080 FM161400 16015KT P6SM FEW035 FM161700 16016KT P6SM VCTS SCT030CB SCT060 FM162300 10005KT P6SM FEW060 AMD NOT SKED
TJSJ,TJSJ 160539Z 1606/1706 10003KT P6SM VCSH FEW030 SCT050 FM161300 07011KT P6SM FEW025 SCT040 FM161600 05012G25KT P6SM VCTS SCT025CB SCT030 BKN080 FM162300 08005KT P6SM FEW025 SCT070
TKPK,TAF TKPK 152300Z 1600/1624 09009KT 9999 SCT020
TKPN,TAF TKPN 151700Z 1518/1618 10010KT 9999 SCT020
TLPC,TAF TLPC 152300Z 1600/1624 11005KT 9999 SCT024 TEMPO 1606/1621 SHRA FEW017CB BKN022
TLPL,TAF TLPL 160500Z 1606/1706 10012KT 9999 SCT024 TEMPO 1608/1612 SHRA PROB30 TEMPO 1621/1706 SHRA FEW015CB BKN018
TNCA,TAF TNCA 160515Z 1606/1706 08014KT 9999 SCT020
TNCB,TAF TNCB 160511Z 1606/1712 09012KT 9999 SCT020 PROB30 TEMPO 1706/1712 4000 SHRA SCT015CB BKN020
TNCC,TAF TNCC 160515Z 1606/1706 09011KT 9999 SCT020
TNCM,TNCM 152200Z 1600/1624 09010KT 9999 SCT018 PROB30 TEMPO 1600/1624 5000 SHRA BKN015TCU SCT035 
TQPF,TAF TQPF 151700Z 1518/1618 10010KT 9999 SCT020
TRPG,TAF TRPG 151700Z 1518/1618 09014KT 9999 SCT020
TTCP,TAF TTCP 160400Z 1606/1706 07005KT 9999 FEW016 TEMPO 1608/1614 5000 SHRA SCT015 BECMG 1612/1614 11010KT SCT018 PROB30 TEMPO 1617/1621 5000 SHRA FEW012CB BKN016 BECMG 1623/1701 07005KT FEW016
TTPP,TAF TTPP 160400Z 1606/1706 00000KT 9999 FEW016 TEMPO 1608/1614 5000 SHRA SCT015 BECMG 1612/1614 11008KT SCT018 PROB30 TEMPO 1617/1621 5000 SHRA FEW012CB BKN016 BECMG 1623/1701 00000KT FEW016
TUPJ,TAF TUPJ 152300Z 1600/1624 09009KT 9999 SCT020
TVSA,TAF TVSA 160500Z 1606/1706 07010KT 9999 SCT018
TXKF,TAF TXKF 160544Z 1606/1706 29006KT 9999 VCSH FEW016 SCT070 BKN120 BECMG 1615/1619 34010KT FEW020 BKN250 
UAAA,TAF UAAA 160500Z 1606/1706 02003MPS 9999 FEW050 SCT100 TX24/1609Z TN08/1701Z TEMPO 1606/1612 07003G08MPS BECMG 1612/1613 16003MPS TEMPO 1612/1620 21003G08MPS 2100 FU BECMG 1703/1704 27003MPS SCT050CB BKN100 TEMPO 1703/1706 32003G08MPS
UAAH,TAF UAAH 160514Z 1606/1615 12005MPS 9999 SCT050 TEMPO 1610/1615 24005G10MPS -SHRA BKN030CB
UAAT,TAF UAAT 160501Z 1606/1615 26003G09MPS 9999 SCT100 TEMPO 1606/1609 18003MPS TEMPO 1609/1612 33003G08MPS
UACC,TAF UACC 160511Z 1606/1706 32005MPS 9999 SCT020 BKN050 TX15/1609Z TNM01/1701Z TEMPO 1606/1613 29008MPS SCT030CB BECMG 1613/1615 27004MPS BKN030CB TEMPO 1613/1620 29005MPS 3100 -SHRA SCT011 BKN020CB TEMPO 1620/1703 28005MPS 3100 -SHRA BR BKN005 SCT015CB TEMPO 1703/1706 28007MPS 3100 -SHRA BKN011 BKN020CB
UACK,TAF UACK 160503Z 1606/1615 28005MPS 9999 SCT050 TEMPO 1606/1612 30008MPS
UACP,TAF UACP 160501Z 1606/1615 23004MPS 9999 BKN020CB TEMPO 1606/1609 27005MPS 4000 -SHRA BKN011CB BECMG 1609/1610 28005MPS TEMPO 1609/1612 31005MPS 3100 -SHRA BKN011CB
UADD,TAF UADD 160500Z 1606/1615 34003G08MPS 9999 BKN100
UAII,TAF UAII 160459Z 1606/1706 26003G08MPS 8000 SCT040 TX24/1610Z TN10/1701Z TEMPO 1606/1616 32003G08MPS TEMPO 1616/1703 13003G08MPS 3100 FU SCT050CB
UAIT,TAF UAIT 160500Z 1606/1615 26003G08MPS CAVOK TEMPO 1606/1612 28003G09MPS SCT050
UAKD,TAF UAKD 160503Z 1606/1615 35004MPS 9999 SCT020 OVC050 TEMPO 1606/1612 32006MPS 5000 -SHRA FU SCT020CB TEMPO 1612/1615 32004MPS 5000 FU SCT020CB
UAKK,TAF UAKK 160500Z 1606/1706 24003MPS 9999 BKN030CB BKN100 TX15/1612Z TN03/1624Z TEMPO 1606/1612 27006MPS -SHRA BKN020CB BECMG 1615/1617 29006MPS SCT020 BKN030CB TEMPO 1620/1706 31010MPS 3100 -SHRA SCT011 BKN020CB
UAOO,TAF UAOO 160501Z 1606/1615 VRB01MPS 9999 SCT033CB
UARR,TAF UARR 160500Z 1606/1615 36005MPS 9999 SCT020 TEMPO 1606/1612 32005MPS SCT011 TEMPO 1612/1615 VRB02MPS SCT011
UASK,TAF UASK 160502Z 1606/1615 12003MPS 9999 BKN100 TEMPO 1606/1612 16004G09MPS SCT050
UASP,TAF UASP 160500Z 1606/1615 16005G10MPS 9999 BKN020CB TEMPO 1606/1612 3100 -SHRA OVC011CB
UASS,TAF UASS 160504Z 1606/1615 18005G10MPS 9999 SCT040 BKN100 TEMPO 1606/1612 13005G10MPS
UATE,TAF UATE 160500Z 1606/1706 05009G15MPS 9999 SCT040CB TX17/1609Z TN09/1702Z
UATG,TAF UATG 160501Z 1606/1706 02005MPS 9999 SCT033CB TX14/1610Z TN02/1703Z BECMG 1608/1610 02010MPS BECMG 1613/1614 36005MPS
UATT,TAF UATT 160500Z 1606/1706 34002MPS 9999 SCT050 TX12/1610Z TN00/1701Z TEMPO 1608/1614 35008MPS TEMPO 1620/1705 1000 BR BKN004
UAUU,TAF UAUU 160503Z 1606/1615 28005MPS 9999 BKN015CB TEMPO 1606/1615 29005G11MPS 3100 -SHRA BKN011CB
UBBB,TAF UBBB 160503Z 1606/1706 34016G26KT 9999 SCT012 BKN020 TX22/1610Z TN17/1702Z TEMPO 1606/1616 36022G32KT SCT008 SCT030CB OVC030 TEMPO 1618/1706 34012KT -SHRA SCT010 SCT030CB
UBBF,TAF UBBF 160500Z 1606/1615 12010KT 9999 SCT012 BKN020 TTEMPO 1606/1610 5000 -RA BR BKN004 OVC015
UBBG,TAF UBBG 160500Z 1606/1706 VRB04KT 6000 SCT020 BKN040 TX19/1612Z TN15/1702Z TEMPO 1606/1608 3000 -DZ BR OVC005 BECMG 1608/1610 11010KT TEMPO 1612/1618 -SHRA SCT010CB OVC030
UBBL,TAF UBBL 160505Z 1606/1706 29006KT 9000 -RA OVC020 TX21/1611Z TN15/1702Z BECMG 1608/1610 04008KT TEMPO 1608/1618 5000 -SHRA SCT010 SCT030CB
UBBN,TAF UBBN 160459Z 1606/1706 VRB04KT 8000 SCT040 FEW050CB BKN100 TX24/1612Z TN11/1703Z TEMPO 1606/1609 13012KT PROB40 TEMPO 1609/1615 VRB14KT -TSRA SCT036CB OVC080 TEMPO 1615/1622 26010KT TEMPO 1622/1706 08010KT
UBBQ,TAF UBBQ 160507Z 1606/1706 08006KT 9999 BKN030 BKN080 TX20/1611Z TN13/1702Z TEMPO 1606/1612 14010KT 5000 -SHRA SCT012 SCT050CB TEMPO 1618/1706 4000 -RA BR BKN006 OVC015
UBBY,TAF UBBY 160500Z 1606/1615 VRB04KT 6000 -SHRA SCT010CB OVC040 TEMPO 1609/1615 -RA OVC010
UBEE,TAF UBEE 160500Z 1606/1615 VRB04KT 9999 OVC040 TEMPO 1606/1608 3000 -DZ BR OVC005
UCFL,TAF UCFL 160454Z 1606/1706 14003G08MPS 9999 SCT030CB BKN100 BECMG 1614/1616 34003G08MPS TEMPO 1614/1624 05003G08MPS
UCFM,TAF UCFM 160448Z 1606/1706 25003G08MPS 9999 SCT050CB BKN100 TEMPO 1606/1614 32003G08MPS TEMPO 1616/1624 18003G08MPS 1500 BR FU TEMPO 1700/1703 1500 BR FU FEW004
UCFO,TAF UCFO 160446Z 1606/1706 32003MPS 9999 FEW050 SCT100 TEMPO 1606/1612 06003G08MPS FEW050CB BECMG 1612/1614 16003MPS 6000 TEMPO 1612/1618 27003G08MPS 2000 FU SCT050CB
UDSG,TAF UDSG 160500Z 1606/1706 06006KT 9999 BKN030 TEMPO 1608/1620 VRB16KT 2000 TSRA BR BKN020CB
UDYZ,TAF UDYZ 160500Z 1606/1706 VRB06KT 6000 FEW040 TEMPO 1606/1618 VRB16KT 3500 -TSRA BR BKN030CB
UEEE,TAF UEEE 160500Z 1606/1712 28003G10MPS 9999 -SHSN BKN020CB OVC070 TEMPO 1606/1615 2100 -SHSNRA SCT007 BKN020CB OVC070 TEMPO 1615/1703 VRB01MPS 0300 SHSN FZFG VV003
UERP,TAF UERP 160500Z 1606/1706 27003G08MPS 9999 BKN023 BKN100 TEMPO 1606/1612 26005G10MPS 5000 -SHSN BKN013CB BKN100 TEMPO 1612/1624 3000 -SHSN BR SCT009 BKN013CB OVC100 BECMG 1620/1622 VRB01MPS
UERR,TAF UERR 160500Z 1606/1706 26005G10MPS 9999 SCT007 BKN020CB OVC100 TEMPO 1606/1612 4000 -SHSN BKN005 OVC015CB
UGAM,TAF UGAM 160400Z 1605/1611 27007KT 9999 BKN050 TEMPO 1605/1607 4000 RA BR 
UGKO,TAF UGKO 160500Z 1606/1706 08007KT 9999 BKN050 TX24/1611Z TN13/1702Z TEMPO 1607/1614 CAVOK TEMPO 1608/1612 08017KT
UGMS,TAF UGMS 160400Z 1605/1611 VRB02KT 9999 BKN100
UGSB,TAF UGSB 160500Z 1606/1706 12010KT 9999 SCT100 TX22/1610Z TN15/1700Z BECMG 1606/1608 34007KT BECMG 1618/1620 12010KT FEW026 BKN070 TEMPO 1621/1706 RA SCT020 BKN045
UGTB,TAF UGTB 160500Z 1606/1706 VRB02KT 8000 SCT014 BKN040 TX17/1611Z TN14/1702Z TEMPO 1606/1609 3500 SHRA BR SCT010 BKN020CB TEMPO 1617/1624 3500 SHRA BR SCT014 BKN035CB TEMPO 1700/1706 2500 SHRA BR SCT009 BKN020CB PROB40 TEMPO 1702/1706 1000 RA BR SCT005 OVC010 
UHBB,TAF UHBB 160441Z 1606/1706 32003MPS 9999 SCT030CB TEMPO 1606/1621 3100 -SHRASN SCT011 BKN020CB BECMG 1611/1614 34005G10MPS
UHHH,TAF UHHH 160459Z 1606/1712 23008MPS 9999 SCT020CB TEMPO 1606/1609 25008G13MPS BKN020CB BECMG 1609/1611 23003G08MPS
UHMA,TAF UHMA 160453Z 1606/1706 35003G08MPS 9999 SCT025 TEMPO 1606/1706 32008G13MPS -SN SCT007 BKN020
UHMM,TAF UHMM 160450Z 1606/1712 35003G08MPS 9999 SCT040 FM170500 08005G10MPS 9999 -SHSN SCT011 BKN020CB
UHPP,TAF UHPP 160444Z 1606/1712 32005G15MPS 9999 SCT040CB BECMG 1608/1610 02003G08MPS FM170200 14005G15MPS 9999 BKN011 OVC025CB TEMPO 1708/1712 1000 -SHRA BR BKN003 OVC015CB
UHSS,TAF UHSS 160450Z 1606/1712 19003MPS 9999 BKN002 BKN016CB TEMPO 1606/1608 0700 FG BECMG 1608/1610 BKN020CB
UHWW,TAF UHWW 160455Z 1606/1706 24003MPS 6000 -SHRA FEW010 BKN016CB BECMG 1607/1609 35003G08MPS TEMPO 1609/1706 35008G13MPS
UIAA,TAF UIAA 160500Z 1606/1706 32005G10MPS 9999 SCT040CB TEMPO 1606/1706 26003G08MPS
UIBB,TAF UIBB 160500Z 1606/1706 15003G08MPS 9999 SCT020
UIII,TAF UIII 160500Z 1606/1706 14003MPS CAVOK
UIUU,TAF UIUU 160500Z 1606/1706 26003G08MPS 9999 SCT040CB TEMPO 1606/1612 34005MPS
ULAA,TAF ULAA 160455Z 1606/1706 17003MPS 6000 BKN007 TEMPO 1606/1609 15002MPS 1000 BR BKN004 FM160900 18003MPS 9999 BKN011 TEMPO 1609/1618 16003G08MPS 6000 -RA BKN006 TEMPO 1618/1706 1000 RA BR BKN003
ULLI,TAF ULLI 160453Z 1606/1706 17006G12MPS 9999 BKN020 TEMPO 1609/1615 5000 -SHRA BKN010 BKN016CB TEMPO 1620/1701 19008G15MPS BKN010 BKN016CB BECMG 1701/1702 23006G12MPS
ULMM,TAF ULMM 160450Z 1606/1706 17007G14MPS 6000 BKN016CB TEMPO 1606/1612 3100 -SHRA BKN006 BKN016CB BECMG 1617/1618 17002MPS
ULOO,TAF AMD ULOO 160606Z 1606/1615 17005G10MPS 6000 BKN007 TEMPO 1606/1609 BKN005 BECMG 1609/1611 BKN016
ULPB,TAF ULPB 160452Z 1606/1615 16003MPS 6000 BKN016 TEMPO 1606/1609 OVC010 BECMG 1609/1610 22005G11MPS
ULWC,TAF ULWC 160500Z 1606/1615 22003MPS 6000 BKN016 TEMPO 1606/1609 26006MPS FEW005 TEMPO 1609/1612 22004G09MPS
UMBB,TAF UMBB 160500Z 1606/1615 17004G09MPS 6000 BKN020 TEMPO 1606/1609 3100 -SHRA BKN018CB TEMPO 1609/1615 19006G11MPS
UMGG,TAF UMGG 160503Z 1606/1706 15006MPS 9999 SCT017 TEMPO 1606/1616 17006G11MPS TEMPO 1620/1706 18005G10MPS 2100 -SHRA BKN005 SCT018CB
UMII,TAF UMII 160506Z 1606/1615 17004G09MPS 9999 BKN020 TEMPO 1606/1615 19007G12MPS 3000 -SHRA BKN005 BKN025CB
UMKK,TAF UMKK 160456Z 1606/1706 18003G08MPS 6000 FEW010 BKN016 TEMPO 1606/1608 4000 BR BKN010 BECMG 1608/1610 21007G12MPS TEMPO 1608/1618 4900 -SHRA BR BKN007 BKN013CB BECMG 1618/1620 24003MPS TEMPO 1700/1706 0300 FG VV002
UMMG,TAF UMMG 160445Z 1605/1615 18004G09MPS 9999 BKN020 TEMPO 1605/1609 17005G10MPS 6000 -SHRA BKN016CB TEMPO 1609/1615 19006G12MPS -SHRA BKN016CB
UMMS,TAF UMMS 160515Z 1606/1706 18005G10MPS 9999 BKN020 TEMPO 1606/1618 15008G13MPS -SHRA BKN010CB TEMPO 1618/1706 3000 -SHRA BR SCT015CB
UMOO,TAF UMOO 160501Z 1606/1615 15004G09MPS 9999 BKN016 TEMPO 1606/1615 18005G10MPS
UNAA,TAF UNAA 160456Z 1606/1706 16003MPS CAVOK
UNBB,TAF UNBB 160500Z 1606/1706 16003G08MPS 9999 SCT040 FM162100 18003G08MPS 8000 -SHRA BKN016CB TEMPO 1700/1706 25008G13MPS
UNEE,TAF UNEE 160500Z 1606/1706 14003G08MPS 8000 SCT040 BECMG 1700/1703 -SHRA BKN016CB
UNKL,TAF UNKL 160448Z 1606/1706 14003G08MPS CAVOK
UNNT,TAF UNNT 160500Z 1606/1706 16003G08MPS 8000 SCT040CB TEMPO 1623/1706 26006G13MPS -SHRA BKN016CB
UNOO,TAF UNOO 160452Z 1606/1706 18003MPS 8000 SCT030CB BKN033 TEMPO 1606/1615 3100 -SHRA BR BKN009 BKN020CB BECMG 1616/1618 27003G08MPS
UNTT,TAF UNTT 160500Z 1606/1615 18003G08MPS 9999 SCT040
UNWW,TAF UNWW 160500Z 1606/1706 13003G08MPS 8000 SCT040 TEMPO 1621/1706 -SHRA BKN016CB BECMG 1700/1703 18003G08MPS BECMG 1704/1705 21008G15MPS
UOOO,TAF UOOO 160451Z 1606/1706 19008MPS 6000 BKN008 BKN016CB TEMPO 1606/1609 3100 -SHSN BKN005 BKN013CB BECMG 1613/1616 17003G08MPS TEMPO 1621/1706 2500 -SHSN BR BKN004 BKN011CB
URKA,TAF URKA 160456Z 1606/1706 08006G12MPS 9999 SCT030CB TEMPO 1606/1615 05010G17MPS TEMPO 1615/1706 06009G15MPS 6000 -SHRA BKN016CB
URKK,TAF URKK 160446Z 1606/1706 06007G12MPS 9999 SCT030 TEMPO 1609/1615 08010G16MPS FM161500 05005G12MPS 9999 SCT020CB TEMPO 1618/1703 6000 -SHRA BKN020CB
URMG,TAF URMG 160500Z 1606/1615 08006G14MPS 9999 BKN020 TEMPO 1606/1615 6000 -SHRA BKN011 BKN020CB
URML,TAF URML 160500Z 1606/1615 36003G08MPS 6000 -RA SCT007 OVC020 TEMPO 1606/1612 05003G08MPS 3000 -SHRA BR SCT005 BKN017 BKN033CB
URMM,TAF URMM 160500Z 1606/1706 09007G14MPS 3100 -RA BR BKN004 OVC020 TX12/1612Z TN06/1703Z TEMPO 1606/1609 0300 -RA FG BKN002 OVC020 TEMPO 1618/1706 0300 -RA FG BKN002 OVC020
URMN,TAF URMN 160500Z 1606/1615 08003G08MPS 2100 -SHRA BR SCT005 BKN016CB TEMPO 1606/1615 5000 BR SCT008 BKN020CB
URMO,TAF URMO 160500Z 1606/1615 08003G08MPS 3100 -RA BR BKN007 OVC020 TEMPO 1606/1609 0300 -RA FG BKN002 OVC020
URMT,TAF URMT 160500Z 1606/1615 09009G14MPS 9999 SCT016 BKN020 TEMPO 1606/1609 10011G17MPS 6000 BKN010 BKN020 TEMPO 1609/1615 10011G17MPS
URRP,TAF URRP 160456Z 1606/1706 08006G13MPS 9999 SCT016 TEMPO 1606/1615 10009G16MPS
URSS,TAF URSS 160455Z 1606/1706 05004G09MPS 9999 SCT100 BECMG 1608/1609 27003G08MPS SCT040 SCT100 BECMG 1614/1615 05003G08MPS SCT100
URWA,TAF URWA 160500Z 1606/1615 05005G11MPS 9999 SCT030 TEMPO 1606/1609 02003G08MPS
URWI,TAF URWI 160454Z 1606/1615 07006G12MPS 9999 SCT020 TEMPO 1606/1615 09009G14MPS
URWW,TAF URWW 160457Z 1606/1615 06003G08MPS 9999 SCT020 TEMPO 1606/1615 09005G10MPS
USCC,TAF USCC 160500Z 1606/1706 28003G10MPS 9999 SCT030CB TEMPO 1606/1618 31008G13MPS -SHRA BKN020CB
USCM,TAF USCM 160500Z 1606/1615 29003G10MPS 9999 SCT030CB TEMPO 1606/1615 32008G13MPS -SHRA BKN020CB
USDA,TAF USDA 160454Z 1606/1615 VRB01MPS 6000 BKN008 TEMPO 1606/1609 FEW003 BKN006 TEMPO 1612/1614 0600 FG VV002
USHH,TAF AMD USHH 160624Z 1606/1706 16003G08MPS 6000 FEW005 BKN016 TEMPO 1606/1703 0200 FG SCT002 OVC016 BECMG 1615/1617 32003G08MPS TEMPO 1703/1706 -SHRA BKN016CB
USNN,TAF USNN 160445Z 1606/1706 16003MPS 6000 -SHRA SCT016CB BKN030 TEMPO 1615/1706 0250 FG VV002
USPP,TAF USPP 160455Z 1606/1706 29003G12MPS 9999 BKN016
USRR,TAF USRR 160455Z 1606/1706 18003G08MPS 9999 BKN020 TEMPO 1606/1615 5000 -SHRA SCT007 BKN016CB BECMG 1615/1617 6000 FEW005 BKN016 TEMPO 1618/1703 0800 FG VV002 BECMG 1622/1624 32003MPS
USSS,TAF USSS 160458Z 1606/1706 30003G12MPS 9999 BKN016CB BECMG 1618/1620 6000 -SHRA
USTR,TAF USTR 160455Z 1606/1706 28005G12MPS 6000 FEW005 BKN020CB TEMPO 1606/1618 30004MPS 2100 -SHRA BR SCT003 BKN016CB FM161800 34006G13MPS 9999 SCT020CB
UTAA,TAF UTAA 160445Z 1606/1706 32014KT 6000 SCT050 TEMPO 1606/1608 27012KT TEMPO 1608/1612 02018KT BECMG 1614/1616 25014KT
UTAK,TAF UTAK 160430Z 1606/1706 06014KT 9999 SCT023 BKN100 TEMPO 1606/1612 35014KT BKN020 SCT040CB BKN100 BECMG 1612/1614 33014KT TEMPO 1622/1704 06014KT 6000 -SHRA BKN010 SCT040CB BKN100
UTAM,TAF UTAM 160430Z 1606/1706 VRB04KT 5000 SCT050 TEMPO 1609/1615 33014KT
UTAT,TAF UTAT 160442Z 1606/1706 09012KT 9999 SCT050 BKN100 PROB40 TEMPO 1612/1618 36014G24KT 5000 -SHRA SCT050CB
UTAV,TAF UTAV 160430Z 1606/1706 34014KT 6000 SCT070 BKN100 1606/1614 04014G24KT 3000 DRDU SCT050
UTDD,TAF UTDD 160600Z 1607/1619 VRB02MPS 8000 FEW066 SCT100 TEMPO 1607/1616 26005MPS
UTDK,TAF UTDK 160600Z 1607/1616 VRB02MPS 9999 FEW066 SCT100 TEMPO 1607/1613 21005MPS
UTDL,TAF UTDL 160600Z 1607/1619 08005MPS 7000 NSC TEMPO 1608/1610 VRB02MPS BECMG 1610/1611 24005MPS TEMPO 1616/1619 VRB02MPS
UTDT,TAF UTDT 160600Z 1607/1616 VRB02MPS 8000 FEW066 SCT100
UTFF,TAF UTFF 160600Z 1607/1616 34010KT 9999 NSC TEMPO 1607/1613 08015KT 7000
UTFN,TAF UTFN 160500Z 1606/1706 14010KT 9999 NSC TEMPO 1606/1612 36016KT 7000
UTNN,TAF UTNN 160500Z 1606/1706 05012G22KT 9999 SCT050 BKN100 TEMPO 1607/1612 09018G28KT
UTNU,TAF UTNU 160500Z 1606/1706 06012G22KT 9999 SCT050 SCT100
UTSA,TAF UTSA 160501Z 1606/1706 VRB03KT 7000 NSC TEMPO 1606/1617 02014KT 4000 FU SCT033
UTSB,TAF UTSB 160500Z 1606/1706 VRB03KT 7000 NSC TEMPO 1606/1617 36014KT SCT033
UTSK,TAF UTSK 160552Z 1607/1616 35010KT CAVOK TEMPO 1607/1614 19010G20KT
UTSS,TAF UTSS 160456Z 1606/1706 09010G20KT 9999 NSC TEMPO 1606/1614 31010KT BECMG 1616/1618 15010KT
UTST,TAF UTST 160500Z 1606/1706 VRB06KT 6000 NSC TEMPO 1606/1617 25010G20KT
UTTT,TAF UTTT 160500Z 1606/1706 VRB04KT 7000 NSC TEMPO 1608/1618 24015KT
UUBC,TAF UUBC 160448Z 1606/1615 16003G08MPS 9999 BKN030
UUBP,TAF UUBP 160440Z 1606/1615 16003G08MPS 9999 SCT017
UUBW,TAF UUBW 160451Z 1606/1706 19003G08MPS 9000 SCT030 TX11/1612Z TN01/1606Z TEMPO 1621/1706 20008G13MPS
UUDD,TAF UUDD 160453Z 1606/1712 20006MPS 9999 SCT020 TX11/1611Z TN03/1606Z TEMPO 1706/1712 22008G15MPS -SHRA FEW007 BKN016CB
UUDL,TAF UUDL 160500Z 1606/1706 20005MPS 9999 BKN040 TX11/1612Z TN04/1703Z
UUEE,TAF UUEE 160450Z 1606/1706 20005G10MPS CAVOK TX11/1612Z TN03/1606Z BECMG 1701/1703 6000 SCT006 BKN040
UUMO,TAF UUMO 160439Z 1606/1615 19003G08MPS 9999 SCT030
UUOB,TAF UUOB 160459Z 1606/1615 07003MPS 9999 SCT030
UUOK,TAF UUOK 160448Z 1606/1615 19003G08MPS 9999 BKN030
UUOL,TAF UUOL 160500Z 1606/1615 25003MPS 9999 SCT030
UUOO,TAF UUOO 160500Z 1606/1615 15003MPS CAVOK
UUWW,TAF UUWW 160450Z 1606/1706 19003G08MPS 9999 SCT030 TX11/1611Z TN02/1606Z TEMPO 1615/1706 19008G13MPS
UUYY,TAF UUYY 160500Z 1606/1706 25003G08MPS 9999 BKN004 BKN016CB TEMPO 1606/1609 0300 FG BKN002 BECMG 1609/1611 BKN011 BKN017CB TEMPO 1611/1706 6000 -SHRA FEW005 BKN016CB BECMG 1612/1614 20003G10MPS
UWGG,TAF UWGG 160450Z 1606/1706 23003MPS 9999 BKN040 TX10/1612Z TN02/1702Z
UWKD,TAF UWKD 160452Z 1606/1706 24003MPS 9999 BKN020 TX08/1611Z TNM00/1702Z TEMPO 1606/1608 2100 BR SCT005 TEMPO 1621/1703 2100 BR SCT005
UWKE,TAF UWKE 160450Z 1606/1706 25003G09MPS 9999 BKN020 TEMPO 1606/1618 29003G12MPS BKN011
UWKS,TAF UWKS 160440Z 1606/1615 25003G08MPS 9999 SCT040 TX10/1611Z TN04/1606Z
UWLL,TAF UWLL 160455Z 1606/1706 26003G09MPS 6000 BKN016 TX09/1610Z TNM03/1606Z TEMPO 1606/1613 32005MPS
UWLW,TAF UWLW 160458Z 1606/1706 29003MPS 9999 SCT033 TX10/1610Z TNM00/1701Z TEMPO 1606/1610 33003G08MPS TEMPO 1700/1704 3100 BR BKN016
UWOO,TAF AMD UWOO 160602Z 1606/1706 31003G08MPS 9999 BKN006 TX11/1610Z TN01/1702Z TEMPO 1606/1618 33005G12MPS BKN016 BECMG 1618/1620 6000 BKN010 TEMPO 1619/1705 0300 FG VV002
UWOR,TAF UWOR 160442Z 1606/1615 31003G10MPS 6000 BKN016CB TX10/1610Z TN06/1606Z TEMPO 1606/1615 33007G13MPS
UWPS,TAF UWPS 160452Z 1606/1615 26003MPS 9999 BKN040 TX09/1612Z TN01/1606Z
UWSG,TAF UWSG 160454Z 1606/1615 31003MPS 9999 BKN033 TX10/1612Z TN03/1615Z TEMPO 1606/1615 27003G08MPS
UWUU,TAF UWUU 160458Z 1606/1706 30004G09MPS 9999 BKN020 TX09/1611Z TN02/1623Z TEMPO 1606/1615 25003MPS 6000 -SHRA BKN007CB TEMPO 1615/1706 25003MPS 3500 BR BKN004
UWWW,TAF UWWW 160452Z 1606/1706 30003G09MPS 6000 BKN016 TX09/1611Z TN00/1702Z BECMG 1617/1618 24003G08MPS TEMPO 1618/1706 0300 FG VV002
VAAH,TAF VAAH 160500Z 1606/1712 09008KT 5000 FU NSC BECMG 1608/1610 05010KT 6000 BECMG 1613/1615 09005KT 4000 FU HZ BECMG 1616/1618 04004KT BECMG 1701/1703 2000 BR HZ BECMG 1704/1706 09010KT 5000 HZ FU BECMG 1706/1708 05008KT 6000
VAAU,TAF VAAU 160500Z 1606/1615 07010KT 4000 HZ SCT020 FEW025TCU BKN100 TEMPO 1609/1613 10007G17KT 2000 -TSRA SHRA SCT015 FEW030CB BKN090 BECMG 1609/1611 5000 HZ 
VABB,TAF VABB 160500Z 1606/1615 05010KT 4000 HZ FEW100 
VABJ,TAF VABJ 160500Z 1606/1615 04006KT 6000 NSC BECMG 1613/1615 VRB03KT
VABO,TAF VABO 160500Z 1606/1615 09008KT 6000 NSC BECMG 1608/1610 05006KT BECMG 1610/1612 02005KT
VABP,TAF VABP 160500Z 1606/1712 07006KT 6000 NSC BECMG 1615/1617 5000 HZ BECMG 1701/1703 02005KT 4000 HZ BECMG 1705/1707 6000
VABV,TAF VABV 160500Z 1606/1615 09008KT 5000 FU NSC BECMG 1608/1610 03010KT 6000 BECMG 1613/1615 4000 FU HZ
VADU,TAF VADU 160500Z 1606/1615 09010KT 6000 NSC BECMG 1613/1615 03006KT 4000 FU HZ
VAID,TAF VAID 160500Z 1606/1712 07006KT 6000 NSC BECMG 1615/1617 5000 HZ BECMG 1701/1703 02005KT 4000 HZ BECMG 1705/1707 6000
VAJB,TAF VAJB 160500Z 1606/1615 05005KT 6000 SCT100 BECMG 1613/1615 36005KT 5000 HZ
VAJL,TAF VAJL 160500Z 1606/1615 07010KT 4000 HZ SCT020 FEW025TCU BKN100 TEMPO 1609/1613 10007G17KT 2000 -TSRA SHRA SCT015 FEW030CB BKN090 BECMG 1609/1611 5000 HZ 
VAJM,TAF VAJM 160500Z 1606/1615 03008KT 6000 NSC
VAKE,TAF VAKE 160500Z 1606/1615 13006KT 6000 NSC BECMG 1610/1612 04008KT BECMG 1613/1615 4000 FU HZ
VAKP,TAF VAKP 160500Z 1606/1615 11010KT 4000 -RA HZ SCT018 FEW025TCU BKN090 TEMPO 1608/1612 12007G17KT 2000 -TSRA SHRA SCT015 FEW030CB BKN080 BECMG 1613/1615 07006KT 3000 -RA HZ 
VANP,TAF VANP 160500Z 1606/1615 01004KT 4000 HZ SCT018 SCT090 TEMPO 1610/1614 VRB05KT 2500 -TSRA/HZ SCT015 SCT025 FEW030CB
VAOZ,TAF VAOZ 160200Z 1603/1615 07010KT 6000 NSC BECMG 1606/1608 SCT030 TEMPO 1609/1612 SCT030 FEW030TCU
VAPO,TAF VAPO 151700Z 1518/1700 05010KT 6000 SCT025 SCT100 SCT250 BECMG 1600/1602 VRB02KT 3000 BR BECMG 1604/1605 08010KT 6000 TEMPO 1610/1613 09010G20KT 5000 -RA SCT020 FEW025TCU BKN100 TEMPO 1622/1700 5000 BR
VAPR,TAF VAPR 160500Z 1606/1615 10005KT 6000 NSC BECMG 1608/1610 21008KT BECMG 1610/1612 27010KT BECMG 1613/1615 36005KT
VARK,TAF VARK 160500Z 1606/1615 07008KT 6000 NSC
VASD,TAF VASD 160500Z 1606/1615 07010KT 4000 HZ SCT020 FEW025TCU BKN100 TEMPO 1609/1613 10007G17KT 2000 -TSRA SHRA SCT015 FEW030CB BKN090 BECMG 1609/1611 5000 HZ 
VASL,TAF VASL 160500Z 1606/1615 11010KT 4000 -RA HZ SCT018 FEW025TCU BKN090 TEMPO 1608/1612 12007G17KT 2000 -TSRA SHRA SCT015 FEW030CB BKN080 BECMG 1613/1615 07006KT 3000 -RA HZ 
VASU,TAF VASU 160500Z 1606/1615 04010KT 6000 NSC
VAUD,TAF VAUD 160500Z 1606/1712 15005KT 5000 HZ NSC BECMG 1614/1616 VRB03KT 3000 HZ BECMG 1703/1705 09005KT 5000 HZ
VCBI,TAF VCBI 160500Z 1606/1712 23010KT 9999 SCT017 TX30/1607Z TN24/1700Z PROB40 TEMPO 1607/1617 7000 -TSRA/SHRA FEW012 BKN016 FEW020CB BECMG 1613/1615 VRB05KT
VCRI,TAF VCRI 160500Z 1606/1712 26010G20KT 9999 SCT018 TX30/1607Z TN24/1700Z PROB40 TEMPO 1606/1614 7000 -TSRA/SHRA SCT016 FEW018CB BKN080 BECMG 1614/1616 25010KT
VDPP,TAF VDPP 160500Z 1606/1624 35008KT 9999 SCT017 TEMPO 1607/1612 SCT015 FEW017CB
VDSR,TAF VDSR 160500Z 1606/1624 28008KT 9999 SCT017 TEMPO 1607/1612 5000 SHRA SCT015 FEW017CB SCT040
VDSV,TAF VDSV 160500Z 1606/1624 25010KT 9999 SCT017 TEMPO 1606/1611 SCT015 FEW017CB
VEAB,TAF VEAB 160330Z 1606/1618 30010KT 6000 FEW025 SCT100
VEAN,TAF VEAN 160200Z 1603/1612 28005KT 3000 -RA BR SCT018 BKN090 BECMG 1605/1607 28006KT 5000 HZ
VEAT,TAF VEAT 160500Z 1606/1615 34003KT 5000 HZ FEW020
VEBD,TAF VEBD 160200Z 1603/1612 VRB02KT 3500 HZ SCT020 SCT100 BECMG 1607/1609 16005KT 5000 HZ
VEBI,TAF VEBI 160500Z 1606/1615 09005KT 5000 HZ FEW020 SCT100 BECMG 1613/1615 00000KT 3000 BR SCT018 BKN100
VEBN,TAF VEBN 160500Z 1606/1615 09003KT 5000 HZ SCT020 SCT100 BECMG 1613/1615 VRB02KT 3000 BR
VEBS,TAF VEBS 160500Z 1606/1712 05003KT 5000 HZ SCT018 TEMPO 1610/1612 3000 -TSRA BKN018 FEW030CB BKN100 BECMG 1616/1618 4000 HZ SCT018 BECMG 1705/1707 5000 HZ SCT018 SCT100 TEMPO 1708/1712 3000 -TSRA BKN018 FEW030CB BKN100
VEBU,TAF VEBU 160500Z 1606/1615 01004KT 4000 HZ SCT018 SCT090 TEMPO 1610/1614 VRB05KT 2500 -TSRA/HZ SCT015 SCT025 FEW030CB
VECC,TAF VECC 160500Z 1606/1615 01008KT 5000 HZ FEW020 BECMG 1613/1615 35007KT 3500 HZ
VECO,TAF VECO 160200Z 1603/1612 06005KT 3500 HZ SCT020 SCT100
VECX,TAF VECX 160330Z 1606/1618 05008KT 6000 FEW025 TEMPO 1609/1611 FEW025 FEW030TCU
VEDG,TAF VEDG 160500Z 1606/1615 01006KT 5000 HZ FEW018 BECMG 1613/1615 3200 HZ
VEDZ,TAF VEDZ 160500Z 1606/1615 30005KT 4000 -RA BR SCT018 BKN090 BECMG 1613/1615 00000KT 2500 -RA BR
VEGK,TAF VEGK 160330Z 1606/1618 27005KT 6000 FEW030 SCT100
VEGT,TAF VEGT 160500Z 1606/1712 25005KT 4000 HZ SCT018 SCT100 BECMG 1613/1615 00000KT 2500 BR BECMG 1623/1701 1500 BR FEW020 SCT100 BECMG 1703/1705 21005KT 3000 BR BECMG 1707/1709 5000 HZ SCT018 BKN100
VEGY,TAF VEGY 160500Z 1606/1615 02003KT 4000 HZ SCT018 SCT100 BECMG 1613/1615 00000KT 3000 BR 
VEIM,TAF VEIM 160500Z 1606/1615 23005KT 5000 HZ FEW020 SCT100 BECMG 1613/1615 00000KT 3000 BR
VEJH,TAF VEJH 160500Z 1606/1615 03003KT 5000 HZ SCT018 SCT100 BECMG 1613/1615 3000 HZ SCT018
VEJR,TAF VEJR 160500Z 1606/1615 01004KT 4000 HZ SCT018 SCT090 TEMPO 1610/1614 VRB05KT 2500 -TSRA/HZ SCT015 SCT025 FEW030CB
VEJS,TAF VEJS 160500Z 1606/1615 32003KT 5000 HZ SCT018 BKN100 BECMG 1613/1615 00000KT 3000 BR SCT100
VEJT,TAF VEJT 160500Z 1606/1615 23005KT 5000 HZ SCT018 SCT100 BECMG 1613/1615 00000KT 3000 BR
VEKO,TAF VEKO 160500Z 1606/1615 05010KT 5000 HZ FEW025 BECMG 1613/1615 36005KT 4000 HZ
VELP,TAF VELP 160500Z 1606/1615 17003KT 4000 HZ FEW018 SCT100 BECMG 1611/1614 00000KT 2500 BR FEW016
VELR,TAF VELR 160500Z 1606/1615 08005KT 5000 HZ FEW020 SCT100 BECMG 1613/1615 00000KT 3000 BR SCT018 SCT100
VEMN,TAF VEMN 160500Z 1606/1615 09005KT 5000 HZ FEW025 BECMG 1612/1614 00000KT 3000 BR FEW100
VEMR,TAF VEMR 160500Z 1606/1615 09005KT 5000 HZ SCT018 SCT100 BECMG 1613/1615 00000KT 3000 BR
VEPT,TAF VEPT 160500Z 1606/1615 32004KT 5000 HZ NSC BECMG 1613/1615 00000KT 4000 BR 
VEPY,TAF VEPY 160500Z 1606/1615 20005KT 5000 HZ SCT015 BECMG 1613/1615 3000 BR
VERC,TAF VERC 160500Z 1606/1615 14003KT 4000 HZ SCT018 BKN100 BECMG 1613/1615 00000KT 3000 BR SCT100
VERP,TAF VERP 160500Z 1606/1712 14006KT 5000 HZ FEW020 SCT100 BECMG 1610/1612 32010G20KT 3000 TSRA SHRA SCT020 FEW030CB BKN090 BECMG 1700/1702 VRB03KT 1500 MIFG BR FEW020 BECMG 1707/1709 08005KT 5000 HZ FEW020 SCT025 BECMG 1710/1712 32010G20KT 3000 TSRA SHRA SCT020 FEW030CB BKN090
VERU,TAF VERU 160200Z 1603/1612 25005KT 3000 -RA BR SCT018 BKN100 BECMG 1606/1608 5000 HZ
VETJ,TAF VETJ 160500Z 1606/1615 30005KT 4000 -RA BR SCT018 BKN100 BECMG 1613/1615 00000KT 2500 -RA BR
VETZ,TAF VETZ 160500Z 1606/1615 27005KT 5000 HZ SCT018 BKN100 BECMG 1613/1615 00000KT 3000 BR
VEZO,TAF VEZO 160500Z 1606/1615 23005KT 4000 -RA BR SCT018 BKN100 BECMG 1613/1615 00000KT 2500 -RA BR
VGEG,TAF VGEG 160500Z 1606/1712 12008KT 5000 SCT018 SCT120 BECMG 1611/1613 17010KT 4000 HZ SCT016 BKN110 TEMPO 1618/1700 17010KT 1500 RA/TSRA SCT007 FEW025CB OVC090 BECMG 1700/1702 16008KT 5000 HZ SCT018 SCT120 TEMPO 1706/1712 27008KT 1500 RA/TSRA SCT007 FEW025CB OVC090
VGHS,TAF VGHS 160500Z 1606/1712 33010KT 4000 HZ NSC BECMG 1620/1622 VRB03KT 3500 HZ FEW012 SCT100 BECMG 1704/1706 28006KT 4000 HZ NSC
VHHH,TAF VHHH 160500Z 1606/1712 36015KT 9999 FEW035 TX31/1606Z TX29/1706Z TN25/1622Z TEMPO 1609/1621 33015G25KT TEMPO 1621/1706 36020G30KT TEMPO 1706/1712 36022G32KT
VIAG,TAF VIAG 160500Z 1606/1712 30005KT 6000 FEW030 BECMG 1613/1614 5000 BR NSC BECMG 1620/1622 3000 BR TEMPO 1700/1702 1500 BR BECMG 1705/1706 5000 HZ FEW030
VIAR,TAF VIAR 152300Z 1600/1706 00000KT 2000 BR NSC BECMG 1605/1607 11004KT 4000 HZ BECMG 1616/1618 00000KT 3000 BR BECMG 1700/1702 1500 BR BECMG 1704/1706 VRB02KT 3500 HZ 
VIBR,TAF VIBR 152300Z 1600/1609 VRB02KT 6000 FEW030 
VIBT,TAF VIBT 160330Z 1606/1618 27005KT 6000 SKC
VIBY,TAF VIBY 160330Z 1606/1618 32005KT 6000 FEW025
VICG,TAF VICG 152300Z 1600/1706 VRB02KT 5000 BR FEW100 BECMG 1606/1608 16005KT 6000 FEW030 BECMG 1615/1616 36005KT 6000 NSC TEMPO 1700/1704 5000 BR
VIDN,TAF VIDN 152300Z 1600/1609 05003KT 3000 BR NSC BECMG 1603/1605 25004KT 6000 FEW030 
VIDP,TAF VIDP 152300Z 1600/1706 00000KT 1500 BR NSC TEMPO 1602/1603 0600 MIFG BECMG 1605/1607 16004KT 3200 HZ BECMG 1618/1620 VRB02KT 2500 BR BECMG 1700/1702 00000KT 0800 MIFG BECMG 1704/1706 23004KT 1800 BR FU 
VIGG,TAF VIGG 152300Z 1600/1609 00000KT 5000 BR NSC BECMG 1603/1605 16004KT 6000 FEW030 
VIGR,TAF VIGR 160330Z 1606/1618 13005KT 6000 SCT025 BECMG 1617/1619 05005KT 5000 HZ FEW025
VIJO,TAF VIJO 160500Z 1606/1615 35005KT 5000 HZ NSC
VIJP,TAF VIJP 160500Z 1606/1712 12005KT 4000 HZ FU NSC BECMG 1612/1614 VRB03KT 3000 HZ BECMG 1700/1702 00000KT 2000 FU BECMG 1703/1705 05005KT 5000 HZ
VIJU,TAF VIJU 160330Z 1606/1618 29005KT 6000 FEW025
VIKG,TAF VIKG 160500Z 1606/1615 07005KT 5000 HZ NSC BECMG 1612/1614 VRB03KT 3000 HZ
VIKO,TAF VIKO 152300Z 1600/1609 VRB03KT 3000 HZ NSC BECMG 1603/1605 VRB03KT 5000 HZ
VILH,TAF VILH 160330Z 1606/1618 VRB02KT 6000 FEW070 SCT100 TEMPO 1609/1612 29008KT
VILK,TAF VILK 160500 1606/1615 VRB02KT 5000 HZ FEW020 SCT025 BECMG 1613/1615 00000KT 3000 BR
VISM,TAF VISM 152300Z 1600/1609 00000KT 5000 HZ NSC BECMG 1603/1605 27004KT 7000 FEW020 
VISR,TAF VISR 152130Z 1600/1612 VRB02KT 4000 HZ FEW025 TEMPO 1601/1603 3000 BR BECMG 1604/1606 5000 HZ BECMG 1606/1607 6000
VLLB,TAF VLLB 160500Z 1606/1706 09006KT 9999 SCT017 BKN080
VLLN,TAF VLLN 160500Z 1606/1706 06004KT 9999 FEW020 SCT100
VLPS,TAF VLPS 160500Z 1606/1706 36004KT 9999 SCT016 SCT050 FEW200
VLSK,TAF VLSK 160500Z 1606/1706 04004KT 8000 SCT016 FEW050 BKN093
VLVT,TAF VLVT 160500Z 1606/1706 22004KT 8000 FEW020 BKN040 SCT093
VMMC,TAF VMMC 160500Z 1606/1712 36016KT CAVOK TEMPO 1621/1712 36025G35KT
VNKT,TAF VNKT 160500Z 1606/1706 12004KT 9999 FEW015 BECMG 1607/1608 28008KT 9999 FEW020 SCT030 BECMG 1614/1615 12003KT 7000 FEW015 BECMG 1700/1702 VRB02KT 6000 FEW010 SCT030 BKN100 BECMG 1704/1705 15003KT 8000 FEW015
VOAR,TAF VOAR 151100Z 1512/1618 08009KT 6000 FEW020 SCT100 TEMPO 1512/1517 3000 -TSRA/RA SCT016 FEW025CB BKN090 BECMG 1517/1519 VRB02KT 4500 BR BECMG 1603/1605 16010KT 6000 TEMPO 1610/1615 3400 -TSRA/RA SCT016 FEW025CB OVC090 BECMG 1615/1617 VRB02KT 4500 HZ/BR
VOAT,TAF VOAT 160200Z 1603/1612 25010KT 4000 -RA BR SCT012 FEW025CB BKN080 BECMG 1604/1605 6000 SCT015 SCT080
VOBG,TAF VOBG 160500Z 1606/1615 14010KT 6000 SCT012 SCT080 TEMPO 1609/1615 3000 TSRA RA SCT012 SCT020 FEW025CB BKN080
VOBL,TAF VOBL 160500Z 1606/1712 14010KT 6000 SCT012 SCT080 TEMPO 1609/1615 3000 TSRA RA SCT012 SCT020 FEW025CB BKN080 TEMPO 1615/1621 3000 RA DZ SCT008 SCT012 FEW025CB BKN080 BECMG 1622/1623 3000 BR SCT008 SCT012 TEMPO 1700/1703 1500 BR BECMG 1704/1705 6000 SCT012 SCT080
VOBM,TAF VOBM 160500Z 1606/1615 29010KT 6000 SCT012 SCT080 TEMPO 1609/1615 3000 TSRA RA SCT008 SCT012 FEW025CB BKN080
VOBZ,TAF VOBZ 160500Z 1606/1615 08008KT 6000 SCT015 SCT025 BKN100 TEMPO 1608/1614 080010KT 3000 .TSRA SCT010 FEW030CB BKN080
VOCB,TAF VOCB 160500Z 1606/1712 20005KT 6000 SCT015 BKN080 TEMPO 1606/1612 4000 -TSRA/RA SCT012 FEW020TCU/CB BKN080 BECMG 1609/1610 09005KT BECMG 1612/1613 20010KT BECMG 1618/1619 VRB02KT 5000 BR BECMG 1703/1704 20010KT 6000
VOCI,TAF VOCI 160500Z 1606/1712 24010KT 6000 FEW015 FEW025TCU SCT080 TEMPO 1610/1615 3000 TSRA RA FEW008 SCT012 FEW025CB BKN080 BECMG 1615/1616 VRB03KT 4000 -RA BR TEMPO 1622/1702 2000 RA BR BECMG 1703/1705 27010KT 5000 HZ SCT015 SCT080 TEMPO 1709/1712 4000 TSRA RA SCT012 FEW025CB BKN080
VOCL,TAF VOCL 160500Z 1606/1712 25010KT 6000 SCT015 FEW025CB BKN080 TEMPO 1612/1616 3000 TSRA RA FEW008 SCT012 FEW025CB BKN080 BECMG 1616/1617 VRB03KT 4000 -RA BR TEMPO 1622/1702 3000 RA BR BECMG 1703/1705 25010KT 6000 SCT015 SCT080 BECMG 1707/1708 SCT012 FEW025CB BKN080
VOCP,TAF VOCP 160500Z 1606/1615 09008KT 6000 SCT015 SCT100 TEMPO 1610/1616 3000 .TSRA BKN010 FEW030CB BKN080
VOGB,TAF VOGB 160500Z 1606/1615 09005KT 6000 SCT015 BKN080 TEMPO 1609/1615 3000 RA DZ SCT015 SCT020 FEW025CB BKN080
VOGO,TAF VOGO 160500Z 1606/1712 25007KT 6000 FEW015 SCT020 BKN090 TEMPO 1611/1615 4000 TSRA RA FEW008 SCT016 FEW025CB BKN080 TEMPO 1618/1622 4000 -RA DZ TEMPO 1700/1704 VRB02KT 2000 BR FEW008 SCT012 BKN080
VOHB,TAF VOHB 160500Z 1606/1712 29010KT 6000 SCT012 SCT080 TEMPO 1609/1615 3000 TSRA RA SCT008 SCT012 FEW025CB BKN080 TEMPO 1700/1703 3000 BR SCT008 SCT012 TEMPO 1709/1712 3000 TSRA RA SCT008 SCT012 FEW025CB BKN080
VOHS,TAF VOHS 160500Z 1606/1615 10008KT 5000 BR SCT010 SCT015 BKN100 TEMPO 1610/1615 120010KT 3000 .TSRA SCT010 FEW030CB OVC080
VOHY,TAF VOHY 160500Z 1606/1615 10008KT 5000 BR SCT010 SCT015 BKN100 TEMPO 1610/1615 120010KT 3000 .TSRA SCT010 FEW030CB OVC080
VOJV,TAF VOJV 160500Z 1606/1615 14005KT 6000 FEW008 SCT012 BKN080 TEMPO 1609/1615 3000 TSRA RA SCT015 SCT020 FEW025CB BKN080
VOKN,TAF VOKN 160500Z 1606/1712 28010KT 6000 SCT012 SCT018 TEMPO 1610/1615 3000 TSRA RA FEW008 SCT012 FEW025CB OVC080 BECMG 1616/1617 10005KT 4000 -RA BR TEMPO 1622/1702 1000 -RA FG SCT003 SCT012 FEW025CB BKN080 BECMG 1702/1703 3000 BR FEW008 SCT015 BECMG 1706/1707 28010KT 6000 SCT015 FEW025CB SCT080
VOKU,TAF VOKU 160500Z 1606/1615 09008KT 5000 BR HZ SCT015 SCT100 TEMPO 1610/1615 120010KT 3000 .TSRA SCT010 FEW030CB OVC080
VOLT,TAF VOLT 160500Z 1606/1615 11010KT 4000 -RA HZ SCT018 FEW025TCU BKN090 TEMPO 1608/1612 12007G17KT 2000 -TSRA SHRA SCT015 FEW030CB BKN080 BECMG 1613/1615 07006KT 3000 -RA HZ 
VOMD,TAF VOMD 160500Z 1606/1712 16010KT 6000 SCT020 SCT100 TEMPO 1606/1612 4000 -TSRA/RA SCT018 FEW025TCU/CB BKN080 BECMG 1618/1619 VRB02KT 5000 BR BECMG 1621/1622 34005KT BECMG 1703/1704 6000 BECMG 1706/1707 16010KT 6000
VOML,TAF VOML 160500Z 1606/1712 29010KT 6000 SCT012 SCT080 TEMPO 1609/1615 3000 TSRA RA FEW005 SCT012 FEW025CB BKN080 BECMG 1615/1616 VRB02KT BECMG 1622/1623 11005KT 3000 BR SCT005 SCT012 TEMPO 1700/1703 1500 BR SCT002 SCT012 BECMG 1704/1705 29010KT 6000 SCT012 SCT080
VOMM,TAF VOMM 160500Z 1606/1712 09010KT 6000 SCT020 SCT100 TEMPO 1609/1615 SCT020 FEW025TCU/CB BKN080 BECMG 1615/1616 5000 BR TEMPO 1618/1624 4000 -TSRA/RA SCT018 FEW025TCU/CB BKN080 BECMG 1621/1622 27005KT 3000 -DZ/BR BECMG 1703/1704 09010KT 5000 BR BECMG 1706/1707 6000
VOMY,TAF VOMY 160500Z 1606/1615 14010KT 6000 SCT012 SCT080 TEMPO 1609/1615 3000 TSRA RA SCT012 SCT020 FEW025CB BKN080
VOND,TAF VOND 160500Z 1606/1615 11010KT 4000 -RA HZ SCT018 FEW025TCU BKN090 TEMPO 1608/1612 12007G17KT 2000 -TSRA SHRA SCT015 FEW030CB BKN080 BECMG 1613/1615 07006KT 3000 -RA HZ 
VORY,TAF VORY 160500Z 1606/1615 09008KT 5000 BR SCT015 SCT025 BKN100 TEMPO 1608/1614 3000 .TSRA BKN010 FEW030CB BKN080
VOSR,TAF VOSR 160500Z 1606/1615 24006KT 5000 HZ SCT020 FEW025TCU SCT100 TEMPO 1609/1613 2000 -TSRA SHRA SCT015 FEW030CB BKN090 BECMG 1613/1615 34004KT 3000 -RA HZ FEW018 SCT025 BKN090 
VOTP,TAF VOTP 160500Z 1606/1615 04006KT 6000 SCT015 SCT025 BKN100 TEMPO 1610/1616 3000 .TSRA BKN010 FEW030CB BKN080
VOTR,TAF VOTR 160500Z 1606/1712 07010KT 5000 HZ SCT018 SCT100 TEMPO 1606/1612 4000 -TSRA/RA SCT015 FEW025TCU/CB BKN080 BECMG 1612/1613 14010KT 3000 -DZ/BR TEMPO 1618/1621 SCT016 FEW025TCU/CB BKN080 BECMG 1621/1622 VRB02KT 2000 -DZ/BR BECMG 1703/1704 34010KT 5000 HZ BECMG 1706/1707 07010KT 6000
VOTV,TAF VOTV 160500Z 1606/1712 25010KT 6000 SCT015 SCT080 TEMPO 1609/1614 4000 -TSRA RA SCT010 FEW025CB BKN080 BECMG 1617/1618 10005KT 3000 -RA BR TEMPO 1622/1702 2000 TSRA BR FEW008 SCT012 FEW025CB OVC080 BECMG 1703/1705 25010KT 6000 FEW015 SCT080 TEMPO 1709/1712 4000 TSRA RA SCT012 FEW025CB BKN080
VOVZ,TAF VOVZ 160500Z 1606/1712 10005KT 5000 BR SCT016 FEW022TCU SCT080 TEMPO 1606/1612 3500 RA DZ FEW012 FEW022TCU/CB BKN080 BECMG 1614/1616 VRB02KT 5000 BR FEW018 SCT080 TEMPO 1622/1702 3000 RA DZ BECMG 1704/1706 05005KT 5000 BR TEMPO 1708/1712 2500 -TSRA FEW012 FEW025CB BKN080
VRMG,TAF VRMG 160500Z 1606/1712 23013KT 9999 FEW018TCU TEMPO 1606/1612 FEW018CB
VRMH,TAF VRMH 160500Z 1606/1712 25013KT 9999 FEW017TCU TEMPO 1606/1612 5000 SHRA FEW017CB
VRMM,TAF VRMM 160500Z 1606/1712 25017KT 9999 FEW017TCU SCT120 1606/1612 5000 SHRA FEW017CB
VTBD,TAF VTBD 160500Z 1606/1712 01008KT 9000 FEW020 SCT080
VTBO,TAF VTBO 160500Z 1606/1706 03008KT 9000 FEW020 SCT060
VTBS,TAF VTBS 160500Z 1606/1712 02008KT 9000 FEW020 SCT080
VTBU,TAF VTBU 160500Z 1606/1706 01008KT 8000 FEW020 SCT100
VTCC,TAF VTCC 160500Z 1606/1712 36007KT 9999 SCT035 BECMG 1609/1611 25005KT BECMG 1615/1617 31005KT BECMG 1619/1621 02005KT BECMG 1704/1706 16005KT BECMG 1709/1711 27005KT
VTCH,TAF VTCH 160500Z 1606/1706 16005KT 9999 SCT025 BECMG 1620/1622 00000KT 1000 BR BECMG 1700/1702 33005KT 9999 NSW
VTCL,TAF VTCL 160500Z 1606/1706 04005KT 9999 SCT025
VTCN,TAF VTCN 160500Z 1606/1706 02005KT 9999 FEW025 BECMG 1607/1609 12005KT
VTCP,TAF VTCP 160500Z 1606/1706 03005KT 9999 FEW030
VTCT,TAF VTCT 160500Z 1606/1712 05005KT 9999 FEW030
VTPB,TAF VTPB 160500Z 1606/1706 36005KT 9999 SCT030
VTPH,TAF VTPH 160500Z 1606/1706 05008KT 9000 FEW020 SCT100 BECMG 1613/1615 35003KT BECMG 1703/1705 05008KT
VTPM,TAF VTPM 160500Z 1606/1706 09005KT 9999 FEW025
VTPO,TAF VTPO 160500Z 1606/1706 15005KT 9999 SCT020
VTPP,TAF VTPP 160500Z 1606/1706 25005KT 9999 SCT030
VTSB,TAF VTSB 160500Z 1606/1706 05006KT 9999 SCT020 SCT100 TEMPO 1606/1615 VRB15G25KT 4000 TSRA FEW016CB SCT018 BKN100 BECMG 1615/1617 21003KT BECMG 1703/1705 05006KT
VTSC,TAF VTSC 160500Z 1606/1706 28010KT 9999 SCT020 SCT100 TEMPO 1606/1615 VRB15G25KT 4000 RA BECMG 1615/1617 21003KT BECMG 1701/1703 29010KT
VTSE,TAF VTSE 160500Z 1606/1706 06008KT 9999 FEW020 BECMG 1613/1615 00000KT BECMG 1704/1706 05008KT
VTSF,TAF VTSF 160500Z 1606/1706 26006KT 9999 SCT020 SCT100 TEMPO 1606/1613 VRB15G25KT 4000 TSRA FEW016CB SCT018 BKN100 BECMG 1613/1615 00000KT BECMG 1703/1705 27006KT
VTSG,TAF VTSG 160500Z 1606/1706 26006KT 9999 SCT020 TEMPO 1606/1612 26015G25KT 3000 TSRA FEW018CB SCT020 BKN100 BECMG 1616/1618 00000KT BECMG 1700/1702 26006KT
VTSM,TAF VTSM 160500Z 1606/1706 36008KT 9999 SCT020 TEMPO 1606/1613 4000 RA BECMG 1614/1616 00000KT PROB40 TEMPO 1622/1706 4000 RA
VTSP,TAF VTSP 160500Z 1606/1712 28008KT 9999 SCT020 TEMPO 1606/1612 30015G25KT 3000 TSRA FEW018CB SCT020 BKN100 TEMPO 1612/1620 30015G25KT 3000 TSRA FEW018CB SCT020 BKN100 TEMPO 1620/1704 30015G25KT 3000 TSRA FEW018CB SCT020 BKN100
VTSR,TAF VTSR 160500Z 1606/1706 24006KT 9999 SCT020 TEMPO 1606/1612 24015G25KT 3000 TSRA FEW018CB SCT020 BKN100 BECMG 1612/1614 00000KT TEMPO 1614/1620 24015G25KT 3000 TSRA FEW018CB SCT020 BKN100 BECMG 1700/1702 24006KT
VTSS,TAF VTSS 160500Z 1606/1706 24008KT 9999 SCT020 BKN100 TEMPO 1606/1615 4000 RA BECMG 1616/1618 00000KT PROB40 TEMPO 1620/1706 4000 RA
VTST,TAF VTST 160500Z 1606/1706 24006KT 9999 SCT020 TEMPO 1606/1612 26015G25KT 3000 TSRA FEW018CB SCT020 BKN100 BECMG 1616/1618 00000KT BECMG 1700/1702 26006KT
VTUD,TAF VTUD 160500Z 1606/1706 04005KT 9999 FEW030 SCT080
VTUI,TAF VTUI 160500Z 1606/1706 06005KT 9999 FEW030 SCT080
VTUK,TAF VTUK 160500Z 1606/1706 36005KT 9000 FEW030 SCT080
VTUL,TAF VTUL 160500Z 1606/1706 09005KT 9000 SCT030 SCT080 BECMG 1621/1623 00000KT 2500 BR BECMG 1701/1703 09005KT 9000 NSW
VTUO,TAF VTUO 160500Z 1606/1706 34007KT 8000 SCT025
VTUQ,TAF VTUQ 160500Z 1606/1706 34005KT 8000 SCT025
VTUU,TAF VTUU 160500Z 1606/1706 03008KT 9000 SCT020 TEMPO 1612/1615 4000 RA
VTUV,TAF VTUV 160500Z 1606/1706 03006KT 8000 SCT025 TEMPO 1612/1616 4000 RA
VTUW,TAF VTUW 160500Z 1606/1706 05005KT 9000 FEW030 SCT080
VVCI,TAF VVCI 160500Z 1606/1706 02010KT 9999 SCT025
VVCR,TAF VVCR 160500Z 1606/1706 11010KT 9999 FEW015 TEMPO 1610/1614 4500 SHRA SCT013 FEW015CB BKN060 BECMG 1614/1615 32005KT
VVCT,TAF VVCT 160500Z 1606/1706 34006KT 9999 SCT020 TEMPO 1606/1610 TS SCT015 FEW017CB
VVDN,TAF VVDN 160500Z 1606/1706 02012KT 8000 SCT015 SCT050
VVNB,TAF VVNB 160500Z 1606/1706 35010KT 9999 SCT025
VVPB,TAF VVPB 160500Z 1606/1706 30010KT 8000 SCT013 BKN050
VVPQ,TAF VVPQ 160500Z 1606/1706 09006KT 9999 SCT015
VVTS,TAF VVTS 160500Z 1606/1712 35007KT 9999 SCT017 TEMPO 1606/1612 TS SCT015 FEW017CB BKN040 TEMPO 1706/1712 24015G28KT 3000 TSRA BKN015 SCT017CB BKN040
VYMD,TAF VYMD 152300Z 1600/1624 18000KT 7000 BKN020 FEW025CB TEMPO 1600/1606 18007KT 6000 BKN020 FEW025CB BKN100
VYNT,TAF VYNT 160500Z 1606/1706 34006KT 7000 SCT020 FEW025CB BKN120 TEMPO 1606/1612 31005KT 7000 TS BKN018 FEW022CB BKN110
VYYY,TAF VYYY 160500Z 1606/1706 14007KT 7000 BKN018 FEW022CB BKN100 BECMG 1606/1608 14007KT 5000 -TSRA/-SHRA BKN014 FEW017CB OVC090 TEMPO 1608/1612 07005KT 7000 SCT020 FEW025TCU SCT120
WAAA,TAF WAAA 160500Z 1606/1712 30010KT 9999 SCT019 TEMPO 1606/1609 5000 TSRA FEW018CB BECMG 1610/1611 10003KT
WABB,TAF WABB 160500Z 1606/1712 10008KT 9999 SCT018
WADD,TAF WADD 160500Z 1606/1706 14010KT 9999 SCT016 TEMPO 1612/1616 5000 RA FEW015CB BKN015
WADL,TAF WADL 160500Z 1606/1706 15010KT 8000 BKN016
WALL,TAF WALL 160500Z 1606/1712 20006KT 9999 FEW020
WALS,TAF WALS 160500Z 1606/1618 24006KT 9999 SCT017
WAMM,TAF WAMM 160500Z 1606/1712 15008KT 9999 SCT020 PROB40 TEMPO 1606/1609 6000 RA FEW016CB BECMG 1610/1612 VRB03KT
WAOO,TAF WAOO 160500Z 1606/1706 20006KT 9999 SCT017 TEMPO 1606/1610 4000 RA
WAPP,TAF WAPP 160500Z 1606/1706 18008KT 9999 SCT017
WAQA,TAF WAQA 160500Z 1606/1618 29003KT 8000 FEW012
WAQD,TAF WAQD 160500Z 1606/1618 18003KT 8000 FEW015
WAQJ,TAF WAQJ 160500Z 1606/1618 21005KT 8000 SCT012
WAQQ,TAF WAQQ 160500Z 1606/1618 22005KT 9999 FEW015 TEMPO 1609/1612 FEW015CB
WAQT,TAF WAQT 160500Z 1606/1618 27005KT 8000 SCT016
WARR,TAF WARR 160500Z 1606/1706 10010KT 9999 SCT020 BECMG 1612/1614 26005KT 8000 FEW020 BECMG 1616/1618 5000 HZ BECMG 1700/1702 08010KT 9999 NSW
WATT,TAF WATT 160500Z 1606/1706 11015KT 9999 FEW018 TEMPO 1609/1611 32005KT BKN015
WBGB,TAF AMD WBGB 160426Z 1606/1706 13005KT 9999 FEW016 TEMPO 1610/1614 4000 TSRA FEW015CB
WBGG,TAF WBGG 160500Z 1606/1706 16005KT 9999 SCT014 TEMPO 1606/1610 4000 TSRA FEW015CB
WBGR,TAF WBGR 160500Z 1606/1706 13005KT 9999 SCT016 TEMPO 1610/1614 4000 TSRA FEW015CB
WBGS,TAF WBGS 160500Z 1606/1706 16005KT 9999 SCT018 TEMPO 1607/1611 4000 TSRA FEW015CB
WBKK,TAF WBKK 160500Z 1606/1706 23006KT 9999 FEW014 TEMPO 1608/1612 5000 RA FEW012 FEW016CB SCT035 BECMG 1614/1616 11005KT PROB30 TEMPO 1619/1623 5000 RA FEW010 FEW015CB SCT030
WBKL,TAF WBKL 160500Z 1606/1706 VRB03KT 9999 FEW015 FEW017CB PROB30 TEMPO 1610/1614 5000 TSRA FEW010 FEW016CB SCT030
WBKS,TAF WBKS 160500Z 1606/1706 24010KT 9999 FEW015 FEW016CB TEMPO 1607/1611 27014G28KT 3000 +TSRA FEW012 FEW015CB SCT040
WBKW,TAF WBKW 160500Z 1606/1706 VRB03KT 9999 FEW016CB TEMPO 1616/1621 27012G24KT 3000 +TSRA FEW010 FEW014CB SCT025
WBSB,TAF WBSB 160450Z 1606/1712 26010KT 9999 SCT015 FEW016CB TEMPO 1608/1612 6000 -SHRA BECMG 1612/1614 22006KT SCT014 FEW015CB
WIDD,TAF WIDD 160500Z 1606/1706 25007KT 9999 SCT014
WIEE,TAF WIEE 160500Z 1606/1706 35006KT 9999 -RA BKN020 BECMG 1607/1609 NSW SCT020 TEMPO 1617/1620 3000 RA
WIHH,TAF WIHH 160500Z 1606/1706 34006KT 6000 SCT020 TEMPO 1607/1610 27008KT 4000 -TSRA FEW017CB BECMG 1612/1614 21004KT 5000 HZ
WIII,TAF WIII 160500Z 1606/1712 36010KT 8000 SCT020 TEMPO 1606/1610 4000 -TSRA FEW016CB BKN020 BECMG 1612/1614 24005KT 5000 HZ BECMG 1701/1703 8000 NSW
WIMM,TAF WIMM 160500Z 1606/1706 01010KT 9999 SCT018 TEMPO 1609/1613 5000 -TSRA FEW017CB BECMG 1613/1615 VRB05KT 5000 HZ
WIPB,TAF WIPB 160500Z 1606/1618 10005KT 9999 BKN010 TEMPO 1608/1612 5000 -RA FEW010CB BKN011
WIPP,TAF WIPP 160500Z 1606/1706 02005KT 9999 SCT010 TEMPO 1606/1610 3000 TSRA FEW010CB BKN011
WIPY,TAF WIPY 152300Z 1600/1612 16005KT 9999 SCT010 TEMPO 1600/1602 4000 BR TEMPO 1606/1610 3000 TSRA FEW009CB BKN010
WITT,TAF WITT 160500Z 1606/1706 13005KT 9999 BKN017 TEMPO 1606/1610 23006KT 4000 RA FEW015CB
WMAP,TAF WMAP 160500Z 1606/1706 22005KT 9999 FEW018 PROB30 TEMPO 1608/1612 5000 TSRA FEW017CB SCT018
WMBT,TAF WMBT 160500Z 1606/1706 VRB03KT 9999 FEW020 TEMPO 1609/1613 35008G20KT 4000 TSRA FEW017CB
WMKA,TAF WMKA 160500Z 1606/1706 28007G25KT 7000 RA SCT026 TEMPO 1608/1612 28007G25KT 3000 +TSRA FEW010 FEW017CB
WMKB,TAF WMKB 160500Z 1606/1706 VRB02KT 9000 SCT020 TEMPO 1606/1609 32005KT 6000 RA FEW017CB
WMKC,TAF WMKC 160500Z 1606/1706 32010KT 9999 FEW018 TEMPO 1606/1610 35006G25KT 4000 TSRA FEW017CB
WMKE,TAF WMKE 160500Z 1606/1706 VRB03KT 9999 FEW017 TEMPO 1607/1611 5000 TSRA FEW014CB
WMKI,TAF WMKI 160500Z 1606/1706 05005KT 9999 SCT020 TEMPO 1606/1609 23006KT 7000 RA FEW010 SCT020
WMKJ,TAF WMKJ 160500Z 1606/1706 22006KT 9999 FEW018 PROB30 TEMPO 1608/1612 5000 TSRA FEW017CB SCT018 TEMPO 1702/1706 4000 TSRA FEW017CB SCT018
WMKK,TAF WMKK 160500Z 1606/1712 26006KT 9999 FEW018 TEMPO 1616/1620 4000 TSRA FEW010 FEW017CB
WMKL,TAF WMKL 160500Z 1606/1706 VRB02KT 9999 RA FEW005 SCT025 TEMPO 1608/1612 00003G25KT 2000 +TSRA FEW010 FEW017CB
WMKM,TAF WMKM 160500Z 1606/1706 25006KT 9999 FEW020 TEMPO 1616/1620 4000 TSRA FEW010 FEW017CB
WMKN,TAF WMKN 160500Z 1606/1706 VRB03KT 9999 FEW018 TEMPO 1607/1611 5000 TSRA FEW017CB
WMKP,TAF WMKP 160500Z 1606/1706 21006G25KT 8000 RA FEW010 BECMG 1609/1613 VRB02KT NSW
WMPA,TAF WMPA 160500Z 1606/1706 VRB02KT 9000 FEW017CB TEMPO 1606/1608 7000 RA
WMSA,TAF WMSA 160500Z 1606/1706 30006KT 9999 FEW018 PROB30 TEMPO 1608/1612 5000 TSRA FEW017CB SCT018
WPDL,TAF WPDL 160428Z 1606/1618 01008KT 9999 SCT050 FM161000 16006KT 9999 FEW025 PROB30 TEMPO 1606/1610 VRB20G40KT 1000 TSRA BKN015 SCT050CB
WSAP,TAF WSAP 160500Z 1606/1712 26007KT 9999 FEW015 BKN020
WSSL,TAF WSSL 160500Z 1606/1712 26007KT 9999 FEW015 BKN020
WSSS,TAF WSSS 160500Z 1606/1712 26007KT 9999 FEW015 BKN020
YAMB,TAF YAMB 160522Z 1606/1706 07012KT 9999 -SHRA SCT045 FM161200 VRB03KT 9999 NSW BKN030 FM170100 05012KT 9999 -SHRA SCT035 INTER 1606/1609 5000 SHRA BKN015 INTER 1703/1706 4000 SHRA BKN015
YBAS,TAF AMD YBAS 160613Z 1606/1706 32010KT CAVOK FM160900 13008KT CAVOK FM161400 04010KT CAVOK FM162230 36018G28KT CAVOK FM170300 34016KT CAVOK TEMPO 1606/1610 VRB25G45KT 3000 TSRA SCT040 SCT090CB PROB30 TEMPO 1610/1618 VRB25G45KT 3000 TSRA SCT040 SCT090CB PROB30 TEMPO 1705/1706 VRB25G45KT 1000 TSRA SCT020 SCT070CB
YBBN,TAF AMD YBBN 160519Z 1606/1712 05012KT 9999 FEW030 FM161000 05005KT 9999 SCT030 FM170000 04010KT 9999 -SHRA BKN035 FM171000 06006KT 9999 NSW SCT030 INTER 1705/1709 5000 SHRA BKN015
YBCG,TAF YBCG 160524Z 1606/1706 04010KT 9999 -SHRA SCT035 FM160700 03008KT 9999 NSW SCT035 FM161500 02007KT 9999 SCT030 FM170000 02010KT 9999 -SHRA SCT030
YBCS,TAF YBCS 160505Z 1606/1706 09012KT 9999 SCT040 FM160900 16005KT 9999 SCT025 FM170200 07012KT 9999 SCT030
YBHM,TAF YBHM 160506Z 1606/1618 09012KT 9999 SCT030 FM161000 06007KT 9999 SCT020
YBLN,TAF YBLN 160525Z 1606/1706 30012KT 9999 SCT050 FM160700 26012KT 9999 -SHRA BKN035 FM161300 21007KT 9999 -SHRA SCT030 FM161800 19005KT 9999 NSW SCT030 FM170200 20012KT 9999 SCT035 INTER 1608/1618 3000 SHRA SCT015 SCT035TCU
YBMA,TAF AMD YBMA 160514Z 1606/1618 14008KT CAVOK PROB30 TEMPO 1606/1612 VRB20G40KT 1000 TSRA SCT020 SCT070CB
YBRK,TAF AMD YBRK 160525Z 1606/1706 09010KT 9999 SCT040 FM160900 03008KT 9999 SCT010 FM161400 VRB03KT 9999 -SHRA SCT008 BECMG 1622/1623 11005KT 9999 -SHRA SCT015 INTER 1606/1612 3000 SHRA BKN010 TEMPO 1609/1622 9999 BKN005 INTER 1700/1706 2000 SHRA BKN010 PROB30 TEMPO 1606/1612 VRB20G40KT 1000 TSRA BKN010 SCT040CB
YBRM,TAF YBRM 160504Z 1606/1706 26012KT CAVOK FM161200 25008KT CAVOK
YBTL,TAF YBTL 160505Z 1606/1706 06014KT 9999 FEW030 FM160800 08007KT 9999 SCT020 FM170000 03010KT 9999 FEW040
YBWW,TAF YBWW 160523Z 1606/1706 06010KT 9999 SCT030 FM160900 06008KT 9999 SCT015 FM161500 06004KT 9999 -SHRA SCT008 FM170000 36008KT 9999 -SHRA SCT030 BECMG 1622/1623 06010KT 9999 NSW SCT020 INTER 1606/1609 3000 SHRA BKN010 TEMPO 1612/1622 9999 BKN008 INTER 1615/1706 3000 SHRA BKN010
YCFS,TAF AMD YCFS 160529Z 1606/1706 05012KT 9999 -SHRA SCT035 FM160900 04008KT 9999 NSW SCT025 BKN035 FM161600 34007KT 9999 BKN020 FM170000 06012KT 9999 -SHRA SCT035 INTER 1606/1609 4000 SHRA BKN015 INTER 1700/1706 3000 SHRA BKN014 PROB40 TEMPO 1705/1706 VRB20G35KT 1000 TSRA BKN012 SCT030CB
YCIN,TAF YCIN 160125Z 1602/1614 23008KT CAVOK FM161000 30010KT CAVOK
YFRT,TAF AMD YFRT 160136Z 1602/1614 03020G30KT CAVOK FM160400 07010KT CAVOK
YGEL,TAF YGEL 160522Z 1606/1700 20017KT 9999 SCT035 FM160900 21010KT 9999 -SHRA BKN030 INTER 1609/1620 5000 -SHRA SCT018
YGLA,TAF AMD YGLA 160510Z 1605/1618 10012KT 9999 BKN022 FM161400 10006KT 9999 BKN017 INTER 1612/1618 3000 SHRA BKN010 PROB30 TEMPO 1608/1612 VRB20G40KT 1000 TSRA BKN010 SCT040CB
YHID,TAF YHID 160504Z 1606/1706 11018KT 9999 SCT025 FM160900 11014KT 9999 BKN015 FM162300 11018KT 9999 SCT025 INTER 1612/1621 9999 BKN012
YLHI,TAF YLHI 160527Z 1606/1706 18010KT 9999 SCT030 FM161800 14005KT 9999 SCT030
YMAV,TAF YMAV 160510Z 1606/1706 17012KT 9999 SCT040 FM161200 30005KT CAVOK FM162300 14010KT CAVOK
YMHB,TAF AMD YMHB 160525Z 1606/1706 16010KT 9999 -SHRA BKN045 FM160700 27008KT 9999 NSW SCT045 FM161200 33005KT CAVOK FM161800 20010KT 9999 -SHRA SCT020 BKN025 BECMG 1622/1623 22005KT 9999 NSW SCT025 BKN040 FM170300 16008KT 9999 BKN035 TEMPO 1618/1622 4000 SHRA BKN010
YMLT,TAF YMLT 160526Z 1606/1706 29010KT CAVOK FM161200 34006KT CAVOK FM162200 VRB03KT 9999 SCT015 SCT035 FM170000 16005KT 9999 SCT040
YMML,TAF YMML 160509Z 1606/1712 18012KT 9999 SCT035 FM160900 21007KT 9999 FEW035 BECMG 1613/1615 36007KT CAVOK FM162200 17010KT CAVOK
YPAD,TAF YPAD 160515Z 1606/1712 22014KT CAVOK FM160900 13010KT CAVOK FM161600 06006KT CAVOK FM170500 22010KT CAVOK
YPCC,TAF YPCC 160507Z 1606/1706 12016KT 9999 SCT020
YPDN,TAF AMD YPDN 160629Z 1606/1712 32011KT 9999 SCT030 FM161000 31006KT 9999 SCT020 FM161700 VRB05KT 9999 SCT018 FM170200 34010KT 9999 SCT030 TEMPO 1606/1609 VRB20G40KT 1000 TSRA BKN010 SCT030CB
YPEA,TAF YPEA 160525Z 1606/1700 24016KT 9999 SCT050 FM161000 24012KT 9999 -SHRA BKN035 FM161800 18005KT 9999 NSW SCT030 FM162100 01005KT 9999 FEW030 INTER 1610/1618 3000 SHRA SCT012 SCT035TCU
YPGV,TAF YPGV 160006Z 1602/1614 07011KT 9999 SCT025 FM160800 10008KT 9999 SCT018
YPJT,TAF YPJT 160524Z 1606/1700 24017KT CAVOK FM161000 24012KT 9999 -SHRA BKN035 FM161800 VRB03KT 9999 NSW SCT030 INTER 1610/1618 3000 SHRA SCT015 SCT035TCU
YPKG,TAF AMD YPKG 160521Z 1605/1706 34018G28KT CAVOK FM160800 29015G25KT CAVOK FM161500 24014KT CAVOK FM170200 22015G28KT CAVOK
YPKU,TAF YPKU 160129Z 1602/1614 35007KT CAVOK PROB30 TEMPO 1605/1612 VRB20G35KT 2000 TSRA SCT030 SCT080CB
YPLM,TAF YPLM 160508Z 1606/1706 21020KT CAVOK FM161300 19018KT CAVOK FM162200 16020KT CAVOK FM170400 16014KT CAVOK
YPPD,TAF YPPD 160508Z 1606/1706 30017KT CAVOK FM161000 29012KT CAVOK FM161600 26008KT CAVOK FM162200 19010KT CAVOK FM170400 26010KT CAVOK
YPPH,TAF YPPH 160523Z 1606/1712 24017KT 9999 SCT050 FM161000 24012KT 9999 -SHRA BKN035 FM161800 18005KT 9999 NSW SCT030 FM162100 09005KT 9999 FEW030 FM170200 21014KT 9999 SCT045 INTER 1610/1618 3000 SHRA SCT015 SCT035TCU
YPTN,TAF YPTN 160501Z 1606/1706 08010KT CAVOK FM161400 35007KT CAVOK
YPWR,TAF YPWR 160516Z 1606/1700 14010KT CAVOK FM161800 09010KT CAVOK
YPXM,TAF AMD YPXM 160630Z 1606/1706 12012KT 9999 BKN012 FM170000 13012KT 9999 BKN014 TEMPO 1606/1706 6000 SHRA BKN010
YSCB,TAF YSCB 160524Z 1606/1706 33010KT 9999 SCT040 FM160900 10008KT 9999 -SHRA SCT020 BKN040 FM162200 09008KT 9999 NSW SCT030 INTER 1612/1615 4000 SHRA BKN020 TEMPO 1615/1620 9999 BKN018
YSDU,TAF YSDU 160525Z 1606/1700 19012KT CAVOK
YSNF,TAF AMD YSNF 160528Z 1606/1706 33008KT 9999 FEW030 FM161200 34014KT 9999 SCT025 FM161900 34014KT 9999 -SHRA BKN020 FM162100 34014KT 9999 -SHRA BKN015 FM170300 30010KT 9999 -SHRA SCT020 BKN030 TEMPO 1621/1703 3000 SHRA BKN010
YSRI,TAF AMD YSRI 160512Z 1606/1706 11012KT 9999 SCT040 FM161000 20005KT 9999 SCT020 BKN030 FM161300 19010KT 9999 -SHRA SCT010 BKN020 FM170000 16010KT 9999 -SHRA SCT015 BKN025 INTER 1610/1706 3000 SHRA BKN010
YSSY,TAF YSSY 160509Z 1606/1712 09012KT 9999 SCT040 FM161100 18010KT 9999 -SHRA SCT020 BKN040 FM161500 18015G25KT 9999 -SHRA SCT010 BKN020 FM162200 15017KT 9999 -SHRA SCT015 BKN025 FM171000 12010KT 9999 -SHRA FEW015 BKN025 INTER 1609/1611 3000 SHRA BKN012 TEMPO 1611/1619 2000 SHRA BKN008 INTER 1619/1712 3000 SHRA BKN010 PROB30 TEMPO 1611/1615 VRB20G35KT 2000 TSRA BKN010 SCT030CB
YSTW,TAF YSTW 160525Z 1606/1700 27008KT CAVOK FM161000 VRB03KT CAVOK
YWLM,TAF AMD YWLM 160515Z 1606/1706 07010KT 9999 SCT040 FM161700 17010KT 9999 -SHRA SCT010 BKN020 FM170000 14012KT 9999 -SHRA SCT015 BKN025 INTER 1617/1706 3000 SHRA BKN010 PROB30 TEMPO 1617/1623 VRB20G35KT 2000 TSRA BKN010 SCT030CB
ZBAA,TAF ZBAA 160301Z 1606/1706 03006MPS CAVOK TX18/1607Z TN04/1621Z BECMG 1700/1701 33006MPS
ZBAD,TAF ZBAD 160301Z 1606/1706 03007G12MPS CAVOK TX19/1607Z TN04/1621Z BECMG 1608/1609 33004MPS
ZBHH,TAF ZBHH 160300Z 1606/1706 01004MPS CAVOK TX11/1607Z TNM02/1622Z
ZBSJ,TAF ZBSJ 160310Z 1606/1706 07004G12MPS 4000 BR NSC TX22/1607Z TN08/1621Z
ZBTJ,TAF ZBTJ 160305Z 1606/1706 35003MPS 5000 HZ NSC TX18/1607Z TN07/1621Z BECMG 1701/1702 34008G13MPS
ZBYN,TAF ZBYN 160301Z 1606/1706 36004G10MPS 6000 NSC TX21/1607Z TN01/1621Z
ZGGG,TAF ZGGG 160304Z 1606/1706 36007MPS 8000 FEW040 TX32/1607Z TN22/1622Z TEMPO 1702/1706 36008G13MPS
ZGHA,TAF ZGHA 160303Z 1606/1706 02006G11MPS 6000 NSC TX28/1607Z TN17/1622Z
ZGKL,TAF ZGKL 160306Z 1606/1706 05004MPS CAVOK TX32/1607Z TN11/1622Z
ZGNN,TAF ZGNN 160306Z 1606/1706 36004MPS 8000 SCT033 TX31/1607Z TN15/1622Z
ZGOW,TAF ZGOW 160308Z 1606/1706 01007G12MPS 6000 FEW020 BKN050 TX31/1606Z TN22/1622Z
ZGSZ,TAF ZGSZ 160306Z 1606/1706 36008G13MPS 8000 SCT040 TX31/1606Z TN24/1622Z
ZHCC,TAF ZHCC 160311Z 1606/1706 02005G12MPS 5000 HZ NSC TX22/1607Z TN10/1622Z
ZHHH,TAF ZHHH 160302Z 1606/1706 04004G09MPS 6000 NSC TX28/1607Z TN14/1621Z
ZJHK,TAF ZJHK 160301Z 1606/1706 34004MPS 5000 BR SCT020 TX29/1606Z TN19/1621Z
ZJSY,TAF ZJSY 160305Z 1606/1706 24004MPS 9999 FEW020 TX31/1606Z TN22/1621Z
ZKPY,TAF ZKPY 160330Z 1606/1706 32004MPS 4000 BR SCT020 TX18/1607Z TN06/1621Z
ZKWS,TAF ZKWS 160330Z 1606/1706 32004MPS CAVOK TX20/1607Z TN09/1621Z
ZLLL,TAF ZLLL 160301Z 1606/1706 15003MPS 6000 NSC TX16/1608Z TNM01/1623Z
ZLXY,TAF ZLXY 160302Z 1606/1706 06003MPS 6000 NSC TX24/1608Z TN08/1621Z
ZMCK,TAF ZMCK 160434Z 1606/1712 32005MPS 9999 SCT033 TX02/1607Z TNM09/1622Z BECMG 1609/1611 VRB02MPS
ZMUB,TAF ZMUB 160441Z 1606/1712 VRB02MPS 9999 SCT033 TX03/1607Z TNM16/1622Z BECMG 1623/1701 6000
ZPPP,TAF ZPPP 160307Z 1606/1706 04007MPS 9999 SCT023 TX16/1608Z TN07/1623Z
ZSAM,TAF ZSAM 160300Z 1606/1706 04007G13MPS 8000 BKN030 TX32/1606Z TN26/1624Z
ZSFZ,TAF ZSFZ 160304Z 1606/1706 03010G16MPS 6000 BKN020 TX25/1606Z TN20/1621Z TEMPO 1607/1611 SHRA
ZSHC,TAF ZSHC 160308Z 1606/1706 02003MPS 3000 BR BKN030 TX23/1606Z TN15/1621Z
ZSJN,TAF ZSJN 160325Z 1606/1706 03004G11MPS 3500 HZ NSC TX19/1606Z TN04/1621Z
ZSNB,TAF ZSNB 160305Z 1606/1706 32004MPS 5000 -SHRA BR FEW010 BKN026 TX22/1606Z TN16/1621Z BECMG 1620/1621 02007G13MPS
ZSNJ,TAF ZSNJ 160308Z 1606/1706 03004MPS 6000 NSC TX23/1606Z TN10/1621Z
ZSOF,TAF ZSOF 160308Z 1606/1706 02004MPS 5000 HZ NSC TX25/1606Z TN12/1621Z
ZSPD,TAF ZSPD 160304Z 1606/1706 03006MPS 6000 BKN015 TX23/1606Z TN16/1621Z
ZSQD,TAF ZSQD 160302Z 1606/1706 34005MPS 6000 NSC TX22/1606Z TN08/1620Z
ZSSS,TAF ZSSS 160302Z 1606/1706 03004MPS 6000 BKN015 TX23/1606Z TN17/1621Z
ZUCK,TAF ZUCK 160302Z 1606/1706 32003MPS 4000 BR SCT040 TX24/1608Z TN16/1621Z
ZUGY,TAF ZUGY 160304Z 1606/1706 02004MPS 6000 BKN033 TX21/1607Z TN14/1622Z
ZUUU,TAF ZUUU 160302Z 1606/1706 22003MPS 7000 SCT050 TX25/1607Z TN16/1622Z
ZWSH,TAF ZWSH 160305Z 1606/1706 12004MPS 6000 NSC TX21/1609Z TN11/1700Z BECMG 1616/1617 32005MPS
ZWWW,TAF ZWWW 160309Z 1606/1706 03004MPS CAVOK TX21/1609Z TN11/1623Z BECMG 1613/1614 15007G13MPS BECMG 1702/1703 03004MPS
ZYCC,TAF ZYCC 160307Z 1606/1706 27005G11MPS 6000 FEW030 TX10/1606Z TN01/1621Z
ZYHB,TAF ZYHB 160331Z 1606/1706 27008G16MPS 6000 FEW033 TX12/1606Z TN01/1622Z BECMG 1609/1610 26003MPS
ZYTL,TAF ZYTL 160303Z 1606/1706 35008G14MPS 6000 FEW033 TX14/1606Z TN11/1621Z BECMG 1608/1609 35004G09MPS
ZYTX,TAF ZYTX 160301Z 1606/1706 35004MPS 6000 NSC TX13/1606Z TN02/1621Z
