station_id,raw_text
AGGH,TAF AGGH 071115Z 0712/0812 18005KT 9999 FEW016 SCT028 FM071800 VRB03KT 9999 FEW014 T 25 24 23 24 Q 1011 1009 1008 1010 TAF3
ANYN,TAF ANYN 071502Z 0718/0818 09005KT 9999 FEW020 SCT140 T 27 28 30 29 Q 1009 1011 1010 1008
AYPY,TAF AYPY 071500Z 0718/0818 15008KT 9999 -RADZ BKN025 FM072300 16012KT 9999 SCT018 SCT140 FM080300 16015KT 9999 -SHRA SCT018 BKN120 PROB30 0719/0721 VRB03KT 0600 FG
BGBW,TAF BGBW 071735Z 0718/0803 24006KT 9999 SCT035 TEMPO 0718/0720 BKN035
BGGH,TAF BGGH 071735Z 0718/0724 01012KT 9999 FEW015 BKN035 PROB40 0718/0720 3000 -SHSN SCT008 BKN015 TEMPO 0720/0724 SCT035
BGJN,TAF BGJN 071735Z 0718/0723 23012KT 9999 FEW008 SCT018 BKN030 TEMPO 0718/0723 2000 -SHSN BKN008
BGKK,TAF BGKK 071735Z 0718/0722 07015KT 8000 -RA FEW004 SCT010 BKN015 TEMPO 0718/0722 1200 -SNRA BKN004
BGPT,TAF BGPT 071442Z 0715/0720 32018KT 9999 SCT015 TEMPO 0715/0720 BKN015
BGQQ,TAF BGQQ 071442Z 0715/0721 VRB02KT 9999 -SN FEW008 BKN040 PROB40 0715/0721 3000 BKN018
BGSF,TAF COR BGSF 071800Z 0718/0824 06010KT 9999 -SN SCT030 BKN045 TEMPO 0718/0801 24008KT 7000 BKN030 TEMPO 0801/0809 2500 BKN015 BECMG 0809/0811 SCT045 TEMPO 0811/0824 BKN035
BGSS,TAF BGSS 071756Z 0718/0723 19006KT 9999 FEW015 BKN100 TEMPO 0718/0723 4000 -SHSN BKN012 SCT035TCU
BGTL,TAF AMD BGTL 071635Z 0716/0817 VRB06KT 9999 BKN030 610303 QNH3003INS BECMG 0718/0719 15010KT 9999 BKN030 OVC050 610403 QNH3007INS BECMG 0802/0803 13015KT 9999 BKN040 OVC050 610403 QNH3009INS BECMG 0805/0806 14020G30KT 9999 FEW035 BKN050 610502 530003 QNH3002INS TX00/0721Z TNM02/0806Z LIMITED METWATCH 0716 TIL 0719
BGUK,TAF BGUK 071442Z 0715/0719 33005KT 9999 FEW018 BKN200 BECMG 0715/0717 BKN010 TEMPO 0717/0719 SCT010
BGUQ,TAF BGUQ 071442Z 0715/0719 31008KT 9999 SCT010 BKN015 TEMPO 0715/0719 1500 -SHSN BKN005 SCT015TCU
BIAR,TAF BIAR 071629Z 0718/0818 35008KT 9999 FEW040 TX14/0815Z TN07/0803Z BECMG 0720/0722 20010KT
BIBD,TAF BIBD 071601Z 0717/0719 20020G30KT 9999 -RA FEW015 BKN020 TEMPO 0717/0719 4500 RA BKN014 OVC020
BIEG,TAF BIEG 071632Z 0718/0818 16018KT 9999 BKN045 TX19/0815Z TN07/0803Z BECMG 0719/0721 17008KT
BIHN,TAF BIHN 071603Z 0717/0720 14010KT 9999 SCT025 BECMG 0718/0720 21007KT
BIIS,TAF BIIS 071600Z 0717/0719 22012KT 9999 FEW020 BKN030 BECMG 0717/0719 22022G32KT RA
BIKF,TAF BIKF 071620Z 0718/0818 19016KT 9999 BKN022 TX10/0815Z TN06/0806Z BECMG 0720/0722 4500 RA BKN010 TEMPO 0722/0818 2500 RADZ BKN006
BIRK,TAF BIRK 071626Z 0718/0818 19013KT 9999 SCT028 TX10/0815Z TN07/0806Z BECMG 0722/0800 RA BKN014 TEMPO 0800/0818 4500 RADZ BR BKN009
BIVM,TAF BIVM 071604Z 0717/0719 21008KT 9999 FEW013
BKPR,TAF BKPR 071730Z 0718/0818 VRB05KT 9999 SCT030 BKN060 TEMPO 0718/0720 VRB15G25KT 4000 TSRA SCT025CB TEMPO 0800/0807 2000 BR PROB40 0801/0806 0400 FG BKN005 TEMPO 0809/0818 VRB15G25KT 3000 TSRA SCT025CB
CBBC,TAF CBBC 071240Z 0713/0801 VRB03KT P6SM SCT200 RMK FCST BASED ON AUTO OBS. NXT FCST BY 071900Z
CWWU,TAF AMD CWWU 071610Z 0716/0812 VRB03KT P6SM OVC012 TEMPO0718/0720 SCT012 OVC025 FM072100 VRB03KT P6SM BKN007 OVC015 TEMPO0723/0802 2SM -DZ BR VV004 FM080300 VRB03KT 3SM BR VV004 FM080700 25005KT P6SM BKN006 OVC012 FM081100 25005KT P6SM SCT009 BKN020 RMK NXT FCST BY 071800Z 
CYAB,TAF CYAB 071248Z 0713/0720 25005KT P6SM SCT050 TEMPO 0713/0716 SCT020 BKN050 FM071600 36008KT P6SM SCT012 BKN040 TEMPO 0716/0720 4SM -SN BR OVC012 RMK NXT FCST BY 081300Z
CYAH,TAF CYAH 071740Z 0718/0721 06015G30KT P6SM BKN040 TEMPO 0718/0721 SCT040 RMK FCST BASED ON AUTO OBS. NXT FCST BY 081100Z
CYAM,TAF CYAM 071340Z 0714/0802 01005KT P6SM FEW160 SCT250 BECMG 0714/0716 30015KT RMK NXT FCST BY 072000Z
CYAS,TAF CYAS 071340Z 0714/0721 14008KT P6SM FEW030 BECMG 0714/0716 04008KT RMK NXT FCST BY 081400Z
CYAT,TAF CYAT 071440Z 0715/0719 05012KT P6SM FEW250 RMK FCST BASED ON AUTO OBS. CLD SENSOR INOP. NXT FCST BY 080900Z
CYAW,TAF CYAW 071740Z 0718/0806 18008KT P6SM FEW003 BKN007 OVC012 TEMPO 0718/0724 3SM -SHRA -DZ BR SCT003 OVC007 FM080000 VRB03KT 2SM BR OVC006 TEMPO 0800/0806 1/2SM -SHRA -DZ FG VV002 RMK NXT FCST BY 080000Z
CYAY,TAF AMD CYAY 071710Z 0717/0802 02015G25KT 1SM -DZ BR OVC003 TEMPO 0717/0802 3SM BR OVC006 BECMG 0722/0724 05015G25KT RMK FCST BASED ON AUTO OBS. NXT FCST BY 072000Z
CYAZ,TAF CYAZ 071440Z 0715/0801 VRB03KT P6SM FEW250 BECMG 0717/0719 18006KT RMK NXT FCST BY 071900Z
CYBB,TAF AMD CYBB 071509Z 0715/0724 12015G25KT 6SM -RA SCT015 OVC060 TEMPO 0715/0718 3SM -RA BR OVC015 FM071800 12015G25KT 6SM -RA SCT008 OVC020 TEMPO 0718/0724 2SM -RA -DZ BR OVC008 BECMG 0720/0722 09012KT RMK NXT FCST BY 071900Z
CYBC,TAF CYBC 071340Z 0714/0802 07012G22KT 1 1/2SM -RA BR BKN004 OVC012 TEMPO 0714/0720 6SM -RA BR SCT004 OVC012 BECMG 0716/0718 07020G30KT FM072000 09015G25KT 4SM -SHRA BR BKN015 OVC040 RMK FCST BASED ON AUTO OBS. NXT FCST BY 072000Z
CYBG,TAF CYBG 071740Z 0718/0818 04005KT P6SM -SHRA FEW030 OVC040 TEMPO 0718/0722 5SM -RA BR FM072200 VRB03KT P6SM OVC025 TEMPO 0722/0814 4SM -RA BR SCT008 OVC015 FM081400 09005KT P6SM OVC030 TEMPO 0814/0818 5SM -RA BR RMK NXT FCST BY 072100Z
CYBK,TAF CYBK 071740Z 0718/0806 28008KT P6SM BKN010 BECMG 0719/0721 VRB03KT SKC FM080000 12010KT P6SM SCT060 RMK NXT FCST BY 080000Z
CYBL,TAF CYBL 071440Z 0715/0803 32008KT P6SM SKC BECMG 0719/0721 08007KT RMK NXT FCST BY 071900Z
CYBR,TAF CYBR 071740Z 0718/0806 10007KT P6SM BKN110 BKN250 TEMPO 0718/0723 BKN080 FM072300 09012KT P6SM BKN080 TEMPO 0723/0803 P6SM -SHRA BKN070 PROB40 0800/0803 VRB20G30KT 5SM TSRA BKN060CB FM080300 09007KT P6SM SCT070 RMK NXT FCST BY 080000Z
CYBW,TAF CYBW 071740Z 0718/0804 35005KT P6SM FEW080 BECMG 0720/0722 12008KT RMK FCST BASED ON AUTO OBS. NXT FCST BY 080000Z
CYBX,TAF AMD CYBX 071724Z 0717/0802 06034G44KT P6SM -RA SCT008 OVC010 TEMPO 0717/0802 3SM -RA BR SCT004 OVC008 BECMG 0718/0720 07025G35KT RMK NXT FCST BY 072000Z
CYCA,TAF CYCA 071341Z 0714/0802 05012KT 1 1/2SM -RA BR OVC003 TEMPO 0714/0802 3SM -DZ BR OVC006 RMK FCST BASED ON AUTO OBS. NXT FCST BY 072000Z
CYCB,TAF CYCB 071240Z 0713/0801 04016KT 1SM -RA BR OVC002 TEMPO 0713/0801 P6SM -RA BKN008 OVC060 RMK NXT FCST BY 071900Z
CYCD,TAF CYCD 071740Z 0718/0804 05005KT P6SM FEW250 BECMG 0718/0720 04008KT RMK NXT FCST BY 080000Z
CYCG,TAF CYCG 071440Z 0715/0803 35005KT P6SM SKC RMK NXT FCST BY 071900Z
CYCO,TAF CYCO 071240Z 0713/0801 04015G25KT 1SM -RA BR OVC001 TEMPO 0713/0721 P6SM -RA OVC008 FM072100 02012KT P6SM OVC010 TEMPO 0721/0801 3SM -RA BR OVC006 RMK NXT FCST BY 071900Z
CYCX,TAF CYCX 071440Z 0715/0803 VRB03KT 5SM -DZ BR BKN006 OVC010 TEMPO 0715/0718 P6SM NSW FEW006 BKN010 OVC020 FM071800 VRB03KT P6SM FEW006 OVC030 TEMPO 0718/0801 5SM -SHRA BR SCT006 OVC020 FM080100 02005KT P6SM -SHRA BKN006 OVC010 RMK NXT FCST BY 072100Z
CYCY,TAF CYCY 071248Z 0713/0801 VRB03KT P6SM SCT030 OVC090 TEMPO 0713/0719 6SM -SN OVC030 BECMG 0714/0716 34006KT FM071900 VRB03KT P6SM SCT020 OVC050 TEMPO 0719/0801 5SM -SN BR SCT008 OVC020 BECMG 0722/0724 15006KT RMK FCST BASED ON AUTO OBS. NXT FCST BY 071900Z
CYDA,TAF CYDA 071340Z 0714/0802 10005KT P6SM FEW080 SCT210 FM072300 07005KT P6SM SCT080 TEMPO 0723/0802 P6SM -SHRA BKN080 PROB30 0800/0802 VRB15G25KT 6SM -TSRA BR SCT040 BKN060CB RMK NXT FCST BY 072100Z
CYDB,TAF CYDB 071743Z 0718/0806 11010G20KT P6SM FEW050 SCT100 BKN140 BECMG 0720/0722 13015G25KT RMK NXT FCST BY 080000Z
CYDF,TAF CYDF 071340Z 0714/0802 02010KT P6SM OVC015 TEMPO 0714/0717 4SM BR BKN007 OVC015 FM071800 05010KT P6SM OVC015 TEMPO 0718/0724 OVC025 FM080000 04012KT P6SM OVC012 TEMPO 0800/0802 3SM BR OVC007 RMK NXT FCST BY 072000Z
CYDL,TAF CYDL 071740Z 0718/0723 VRB03KT P6SM SKC BECMG 0718/0720 24008KT RMK FCST BASED ON AUTO OBS. NXT FCST BY 081200Z
CYDN,TAF CYDN 071740Z 0718/0806 VRB03KT P6SM FEW020 BECMG 0718/0720 08008KT FM080200 11010KT P6SM BKN060 TEMPO 0802/0806 P6SM -SHRA BKN040 PROB40 0802/0806 VRB20G30KT 5SM TSRA BKN040CB RMK FCST BASED ON AUTO OBS. NXT FCST BY 080000Z
CYDP,TAF AMD CYDP 071553Z 0715/0723 10007KT P6SM BKN020 BKN220 TEMPO 0715/0718 SCT020 BKN220 FM071800 08012KT P6SM FEW020 BKN150 BECMG 0719/0721 SCT150 RMK NXT FCST BY 072000Z
CYDQ,TAF CYDQ 071240Z 0713/0801 VRB03KT P6SM SKC BECMG 0713/0715 27012KT RMK FCST BASED ON AUTO OBS. NXT FCST BY 071900Z
CYED,TAF CYED 071740Z 0718/0806 20005KT P6SM FEW080 BECMG 0719/0721 30005KT RMK NXT FCST BY 080000Z
CYEG,TAF CYEG 071740Z 0718/0818 24010KT P6SM SKC BECMG 0719/0721 35010KT FM080400 10006KT P6SM SKC FM081500 10012KT P6SM FEW240 RMK NXT FCST BY 072100Z
CYEK,TAF AMD CYEK 071805Z 0718/0806 18008KT 2SM BR OVC005 TEMPO 0718/0722 6SM BR OVC010 PROB40 0718/0722 3/4SM -DZ BR OVC002 FM072200 18008KT 2SM BR BKN005 TEMPO 0722/0806 P6SM NSW SCT005 PROB30 0722/0806 3/4SM BR RMK NXT FCST BY 080000Z
CYEN,TAF CYEN 071740Z 0718/0724 35005KT P6SM SKC FM072000 VRB03KT P6SM SCT100 TEMPO 0720/0724 BKN090 RMK FCST BASED ON AUTO OBS. NXT FCST BY 081200Z
CYER,TAF CYER 071440Z 0715/0719 17012G22KT P6SM FEW250 RMK FCST BASED ON AUTO OBS. NXT FCST BY 080900Z
CYEU,TAF CYEU 071749Z 0718/0802 16015KT P6SM FEW020 SCT040 BKN200 TEMPO 0718/0802 SCT020 BKN040 RMK ADVISORY OFFSITE. NXT FCST BY 080000Z
CYEV,TAF CYEV 071240Z 0713/0801 VRB03KT P6SM SCT140 SCT240 BECMG 0717/0719 30005KT RMK NXT FCST BY 071900Z
CYFB,TAF CYFB 071740Z 0718/0818 16006KT P6SM FEW006 OVC015 PROB30 0718/0803 BKN006 FM080300 16005KT P6SM SCT006 SCT015 BKN140 TEMPO 0803/0814 4SM -RA BR BKN006 BKN015 PROB30 0803/0810 1SM BR OVC003 FM081400 16010KT P6SM SCT040 BKN080 TEMPO 0814/0818 P6SM -SHRA FEW008 BKN040 RMK NXT FCST BY 080000Z
CYFC,TAF CYFC 071740Z 0718/0806 VRB03KT P6SM FEW015 BKN040 TEMPO 0718/0724 5SM -SHRA BR BKN015 FM080000 VRB03KT 5SM -SHRA BR BKN015 TEMPO 0800/0802 P6SM NSW FEW015 BKN040 PROB30 0800/0802 3SM -RA BR BKN008 FM080200 VRB03KT 3SM -RA BR SCT008 BKN015 OVC040 PROB30 0802/0806 2SM RA BR VV006 RMK FCST BASED ON AUTO OBS. NXT FCST BY 080000Z
CYFS,TAF CYFS 071741Z 0718/0806 31010G20KT P6SM BKN012 OVC030 TEMPO 0718/0721 P6SM -RA SCT012 OVC030 FM072100 33010G20KT P6SM SCT020 BKN030 TEMPO 0721/0806 P6SM -SHRA BKN020 OVC030 BECMG 0802/0804 VRB03KT RMK NXT FCST BY 080000Z
CYGH,TAF CYGH 071740Z 0718/0723 34005KT P6SM FEW150 RMK NXT FCST BY 081400Z
CYGK,TAF CYGK 071340Z 0714/0802 33010KT 1SM FU VV020 TEMPO 0714/0716 3SM FU SCT030 FM071600 36010KT 2SM FU BKN060 TEMPO 0716/0802 6SM FU PROB30 0721/0802 1SM FU RMK NXT FCST BY 072000Z
CYGL,TAF CYGL 071743Z 0718/0818 05012G22KT P6SM SCT240 BECMG 0801/0803 09009KT RMK NXT FCST BY 080000Z
CYGP,TAF AMD CYGP 071626Z 0716/0802 09012G22KT 1SM RA BR OVC002 TEMPO 0716/0718 4SM -RA BR OVC008 FM071800 08010G20KT 1SM -RA -DZ BR OVC004 TEMPO 0718/0802 6SM -RA BR OVC008 BECMG 0720/0722 08008G18KT RMK NXT FCST BY 072000Z
CYGQ,TAF CYGQ 071340Z 0714/0802 05008KT P6SM SKC BECMG 0716/0718 05012KT BECMG 0722/0724 VRB03KT RMK FCST BASED ON AUTO OBS. NXT FCST BY 072000Z
CYGR,TAF CYGR 071340Z 0714/0802 11017G27KT P6SM FEW003 BKN025 TEMPO 0714/0716 4SM -DZ BR BKN003 OVC020 FM071700 10015G25KT P6SM FEW005 OVC030 TEMPO 0717/0724 4SM -RA -DZ BR OVC005 FM080000 08012KT 2SM -RA -DZ BR OVC003 RMK NXT FCST BY 072000Z
CYGT,TAF AMD CYGT 071712Z 0717/0720 14012KT 1/2SM FG OVC002 BECMG 0718/0720 P6SM -RA SCT002 OVC060 RMK NXT FCST BY 081100Z
CYGV,TAF CYGV 071340Z 0714/0802 06018G28KT P6SM -RA SCT008 OVC040 TEMPO 0714/0802 3SM -RA -DZ BR BKN008 OVC020 RMK FCST BASED ON AUTO OBS. NXT FCST BY 072000Z
CYGW,TAF CYGW 071743Z 0718/0806 01010G20KT P6SM SKC BECMG 0718/0720 01015G25KT BECMG 0722/0724 03012KT RMK FCST BASED ON AUTO OBS. NXT FCST BY 080000Z
CYGX,TAF CYGX 071240Z 0713/0801 18008KT P6SM FEW015 OVC025 TEMPO 0713/0719 P6SM -RA SCT008 OVC012 FM071900 18008KT P6SM SCT012 OVC025 TEMPO 0719/0801 VRB15G25KT 5SM -SHRA BR VCTS OVC012CB RMK NXT FCST BY 071900Z
CYHA,TAF CYHA 071340Z 0714/0721 15010KT P6SM BKN025 TEMPO 0714/0718 BKN020 FM071800 17012KT P6SM SCT025 RMK NXT FCST BY 081400Z
CYHD,TAF CYHD 071340Z 0714/0802 15008KT P6SM SCT040 BKN080 TEMPO 0714/0718 BKN040 OVC080 FM071800 15010KT P6SM BKN080 BECMG 0721/0723 15006KT RMK FCST BASED ON AUTO OBS. NXT FCST BY 072000Z
CYHK,TAF AMD CYHK 071803Z 0718/0806 05015KT 1/2SM RA FG OVC003 TEMPO 0718/0806 P6SM -RA OVC008 RMK NXT FCST BY 080000Z
CYHM,TAF CYHM 071740Z 0718/0818 35010KT 6SM FU FEW030 TEMPO 0718/0805 3SM FU BKN030 FM080500 VRB03KT 3SM FU BKN060 TEMPO 0805/0818 6SM FU PROB30 0805/0810 2SM FU RMK NXT FCST BY 080000Z
CYHU,TAF CYHU 071740Z 0718/0818 34010G20KT P6SM -SHRA BKN030 OVC060 TEMPO 0718/0724 P6SM NSW FM080000 34010KT P6SM SCT020 OVC040 TEMPO 0800/0804 P6SM -SHRA FM080400 VRB03KT P6SM BKN015 OVC040 TEMPO 0804/0808 SCT015 OVC040 FM080800 03008KT P6SM FEW007 OVC015 FM081400 03012KT P6SM BKN030 FM081700 03012KT P6SM -SHRA BKN040 RMK FCST BASED ON AUTO OBS. NXT FCST BY 080000Z
CYHY,TAF CYHY 071741Z 0718/0806 26012G22KT P6SM -SHRA SCT015 OVC025 TEMPO 0718/0720 4SM -SHRA BR FEW008 BKN015 OVC025 FM072000 29015G25KT P6SM SCT020 BKN030 TEMPO 0720/0801 P6SM -SHRA BKN020 OVC030 FM080100 29015G25KT P6SM BKN025 TEMPO 0801/0806 BKN020 BECMG 0804/0806 29008KT RMK NXT FCST BY 080000Z
CYHZ,TAF CYHZ 071751Z 0718/0818 18012KT 5SM -SHRA BR BKN010 OVC060 TEMPO 0718/0723 P6SM NSW SCT010 BKN060 PROB30 0718/0723 3SM -DZ BR OVC005 FM072300 16010KT P6SM SCT004 OVC010 TEMPO 0723/0803 2SM -DZ BR OVC004 FM080300 15005KT 1 1/2SM -DZ -RA BR BKN003 OVC006 TEMPO 0803/0811 6SM BR BKN006 OVC010 FM081100 16005KT 2SM -RA -DZ BR BKN006 OVC030 FM081500 18012KT P6SM -SHRA BKN025 RMK NXT FCST BY 072100Z
CYIO,TAF CYIO 071248Z 0713/0801 VRB03KT P6SM SCT012 OVC025 TEMPO 0713/0720 SCT008 BKN012 OVC025 BECMG 0716/0718 05005KT FM072000 07012KT P6SM SCT012 OVC025 TEMPO 0720/0801 OVC012 RMK FCST BASED ON AUTO OBS. NXT FCST BY 071900Z
CYIV,TAF CYIV 071240Z 0713/0801 15008KT P6SM OVC015 TEMPO 0713/0716 5SM -RA BR OVC008 FM071700 15010KT P6SM OVC025 TEMPO 0717/0801 P6SM -RA OVC020 RMK FCST BASED ON AUTO OBS. NXT FCST BY 071900Z
CYJT,TAF CYJT 071740Z 0718/0818 13012KT P6SM SCT020 BKN030 TEMPO 0718/0721 5SM -SHRA BR FEW008 OVC020 BECMG 0718/0720 26006KT FM072100 28006KT P6SM -SHRA SCT006 OVC015 TEMPO 0721/0803 3SM -SHRA BR BKN006 OVC015 PROB30 0721/0803 2 1/2SM -SHRA BR OVC005 FM080300 VRB03KT 3SM -DZ BR BKN006 OVC015 TEMPO 0803/0806 P6SM NSW OVC015 FM080600 07005KT P6SM FEW008 BKN020 BECMG 0812/0814 VRB03KT FM081500 27005KT P6SM BKN030 RMK NXT FCST BY 080000Z
CYKA,TAF CYKA 071240Z 0713/0801 VRB03KT P6SM SKC BECMG 0718/0720 08008KT RMK NXT FCST BY 071900Z
CYKF,TAF AMD CYKF 071403Z 0714/0802 34008KT P6SM SKC TEMPO 0714/0717 4SM FU BECMG 0714/0716 35010G20KT FM071700 35010G20KT P6SM FEW070 TEMPO 0717/0724 4SM FU FM080000 36010KT P6SM FEW060 TEMPO 0800/0802 4SM FU BECMG 0800/0802 33006KT RMK FCST BASED ON AUTO OBS. AUTO OBS NON-REPRESENTATIVE OF CRNT WX. NXT FCST BY 072000Z
CYKG,TAF CYKG 071340Z 0714/0721 16008KT P6SM FEW014 SCT250 TEMPO 0714/0718 BKN014 FM071800 22012KT P6SM SCT180 RMK NXT FCST BY 081400Z
CYKJ,TAF CYKJ 071240Z 0713/0724 21005KT P6SM SKC BECMG 0716/0718 21012KT RMK FCST BASED ON AUTO OBS. NXT FCST BY 071900Z
CYKL,TAF CYKL 071341Z 0714/0802 06010G20KT P6SM FEW060 SCT240 TEMPO 0714/0718 4SM HZ BKN060 BECMG 0714/0715 07015G25KT FM071800 08015G25KT P6SM BKN100 BECMG 0800/0802 08010G20KT RMK FCST BASED ON AUTO OBS. NXT FCST BY 072000Z
CYKQ,TAF CYKQ 071440Z 0715/0721 03015G25KT P6SM SKC BECMG 0719/0721 BKN080 RMK NXT FCST BY 081500Z
CYLD,TAF CYLD 071340Z 0714/0801 36008KT P6SM SKC BECMG 0716/0718 02012G22KT BECMG 0723/0801 01007KT RMK NXT FCST BY 072000Z
CYLK,TAF CYLK 071540Z 0716/0724 VRB03KT P6SM BKN070 OVC090 TEMPO 0716/0721 6SM -SHRA BR FU SCT030 OVC060 BECMG 0716/0718 23010KT FM072100 27012G22KT P6SM -RA SCT020 OVC030 TEMPO 0721/0724 5SM -SHRA BR FU OVC020 RMK NXT FCST BY 071900Z
CYLL,TAF CYLL 071740Z 0718/0806 18010KT P6SM FEW070 RMK NXT FCST BY 080000Z
CYLT,TAF CYLT 071740Z 0718/0806 01010KT P6SM FEW020 FEW220 PROB30 0720/0806 2SM BR RMK NXT FCST BY 080000Z
CYLW,TAF CYLW 071240Z 0713/0801 VRB03KT P6SM SKC BECMG 0718/0720 34008KT RMK FCST BASED ON AUTO OBS. NXT FCST BY 071900Z
CYMA,TAF CYMA 071741Z 0718/0806 VRB03KT P6SM SCT040 BKN220 TEMPO 0718/0806 P6SM -SHRA BKN040 OVC220 PROB30 0721/0803 VRB15G25KT 4SM TSRA OVC040CB RMK NXT FCST BY 080000Z
CYMH,TAF AMD CYMH 071408Z 0714/0802 03012KT 1 1/2SM -RA BR OVC007 TEMPO 0714/0802 6SM -DZ BR OVC010 RMK FCST BASED ON AUTO OBS. NXT FCST BY 072000Z
CYMJ,TAF CYMJ 071740Z 0718/0806 02010KT P6SM FEW030 BKN250 FM071900 02010KT P6SM SCT050 PROB30 0721/0801 VRB15G25KT 2SM TSRA BR BKN050CB FM080100 30008KT P6SM SCT050 BKN120 RMK NXT FCST BY 080000Z
CYMM,TAF CYMM 071240Z 0713/0801 VRB03KT P6SM SKC FM071500 24010KT P6SM SCT240 BECMG 0716/0718 25015KT RMK FCST BASED ON AUTO OBS. NXT FCST BY 071900Z
CYMO,TAF CYMO 071743Z 0718/0806 35015G25KT P6SM SKC BECMG 0722/0724 36010G20KT BECMG 0802/0804 35008KT RMK FCST BASED ON AUTO OBS. NXT FCST BY 080000Z
CYMT,TAF CYMT 071740Z 0718/0724 01012G22KT P6SM BKN040 BKN080 TEMPO 0718/0724 OVC030 RMK FCST BASED ON AUTO OBS. NXT FCST BY 081200Z
CYMX,TAF CYMX 071740Z 0718/0818 34010G20KT P6SM -SHRA BKN040 OVC090 TEMPO 0718/0724 P6SM NSW BECMG 0722/0724 33007KT FM080000 33007KT P6SM SCT020 OVC040 TEMPO 0800/0807 P6SM -SHRA FEW007 BKN020 OVC040 FM080700 VRB03KT P6SM BKN012 OVC060 PROB30 0807/0812 BKN007 FM081400 03008KT P6SM BKN030 FM081700 03008KT P6SM -SHRA BKN040 RMK NXT FCST BY 080000Z
CYNA,TAF AMD CYNA 071543Z 0715/0802 08018G28KT P6SM FEW012 OVC040 TEMPO 0716/0724 5SM -RA OVC012 FM080000 07015G25KT P6SM -RA FEW008 OVC020 RMK FCST BASED ON AUTO OBS. NXT FCST BY 072000Z
CYND,TAF CYND 071740Z 0718/0801 34010KT 3SM FU OVC040 TEMPO 0718/0724 6SM FU PROB30 0718/0720 2SM FU FM080000 33007KT P6SM BKN030 OVC060 RMK NXT FCST BY 081300Z
CYNE,TAF AMD CYNE 071306Z 0713/0801 17005KT P6SM SCT005 OVC012 TEMPO 0713/0716 2SM BR BKN005 FM071600 20008KT P6SM SCT012 BKN025 TEMPO 0716/0719 BKN012 FM071900 20008KT P6SM BKN025 TEMPO 0719/0723 VRB15G25KT P6SM VCTS BKN020CB FM072300 20006KT P6SM SCT025 TEMPO 0723/0801 BKN025 RMK FCST BASED ON AUTO OBS. NXT FCST BY 071900Z
CYOC,TAF CYOC 071440Z 0715/0801 VRB03KT P6SM FEW220 FM071900 12008KT P6SM FEW100 RMK NXT FCST BY 071900Z
CYOD,TAF CYOD 071740Z 0718/0818 20008KT P6SM FEW160 BECMG 0800/0802 VRB03KT RMK NXT FCST BY 072100Z
CYOJ,TAF CYOJ 071240Z 0713/0801 22005KT P6SM SCT180 FM071500 26012G22KT P6SM SCT060 BKN160 TEMPO 0715/0801 5SM FU BKN060 BKN160 BECMG 0720/0722 30010KT RMK FCST BASED ON AUTO OBS. NXT FCST BY 071900Z
CYOO,TAF CYOO 071340Z 0714/0802 33010KT P6SM SCT040 TEMPO 0714/0724 4SM FU BKN040 BECMG 0714/0716 33010G20KT FM080000 33008KT 6SM FU FEW070 SCT240 TEMPO 0800/0802 4SM FU RMK FCST BASED ON AUTO OBS. NXT FCST BY 072000Z
CYOW,TAF CYOW 071740Z 0718/0818 35012G22KT 4SM FU BKN040 OVC110 TEMPO 0718/0724 6SM FU FM080000 01012KT P6SM BKN040 BECMG 0800/0802 VRB03KT FM080200 VRB03KT P6SM -SHRA SCT020 OVC040 FM080500 VRB03KT P6SM BKN030 BKN110 FM080900 05008KT P6SM BKN020 OVC030 FM081400 05008KT P6SM BKN040 RMK NXT FCST BY 072100Z
CYOY,TAF AMD CYOY 071802Z 0718/0806 15005KT 6SM -RA BR FEW008 OVC015 TEMPO 0718/0722 4SM -RA BR OVC008 FM072200 VRB03KT P6SM FEW015 OVC030 TEMPO 0722/0806 5SM -RA BR FEW008 OVC015 RMK NXT FCST BY 080000Z
CYPA,TAF CYPA 071240Z 0713/0801 VRB03KT P6SM SKC RMK NXT FCST BY 071900Z
CYPC,TAF CYPC 071444Z 0715/0723 VRB03KT P6SM FEW180 BECMG 0716/0718 01012KT RMK NXT FCST BY 071900Z
CYPE,TAF AMD CYPE 071322Z 0713/0801 24008KT 4SM FU FEW250 TEMPO 0713/0716 P6SM NSW FM071600 27012KT P6SM SKC TEMPO 0716/0720 5SM FU FM072000 27015KT P6SM SKC RMK NXT FCST BY 071900Z
CYPG,TAF CYPG 071740Z 0718/0806 15012KT 3SM BR BKN040 TEMPO 0718/0724 P6SM NSW FEW120 BKN240 BECMG 0719/0721 13015KT FM080000 13010KT P6SM FEW040 SCT240 PROB30 0800/0806 2SM BR RMK NXT FCST BY 080000Z
CYPH,TAF CYPH 071743Z 0718/0806 24009KT P6SM SKC BECMG 0721/0723 30008KT BECMG 0800/0802 01005KT FM080500 05005KT P6SM SKC RMK FCST BASED ON AUTO OBS. NXT FCST BY 080000Z
CYPL,TAF CYPL 071340Z 0714/0802 15010G20KT P6SM SKC BECMG 0722/0724 14007KT RMK FCST BASED ON AUTO OBS. NXT FCST BY 072000Z
CYPQ,TAF CYPQ 071340Z 0714/0802 33012KT 6SM FU FEW025 BKN050 TEMPO 0714/0724 4SM FU FM080000 34005KT 6SM FU BKN050 BKN120 TEMPO 0800/0802 2SM FU BKN020 BKN050 RMK FCST BASED ON AUTO OBS. NXT FCST BY 072000Z
CYPR,TAF CYPR 071240Z 0713/0801 VRB03KT P6SM FEW100 SCT200 BECMG 0720/0722 28006KT RMK FCST BASED ON AUTO OBS. NXT FCST BY 071900Z
CYPX,TAF CYPX 071751Z 0718/0806 VRB03KT P6SM FEW240 BECMG 0720/0722 28008KT BECMG 0802/0804 15008KT RMK FCST BASED ON AUTO OBS. NXT FCST BY 080000Z
CYPY,TAF CYPY 071740Z 0718/0806 26015KT P6SM FEW060 TEMPO 0718/0720 5SM FU FM072000 27015KT P6SM SCT060 TEMPO 0720/0802 BKN060 FM080200 29010KT P6SM BKN060 TEMPO 0802/0806 5SM FU RMK FCST BASED ON AUTO OBS. NXT FCST BY 080000Z
CYQA,TAF AMD CYQA 071505Z 0715/0802 34015G25KT 6SM FU SKC TEMPO 0715/0723 4SM FU BECMG 0715/0717 34012KT FM072300 33008KT 6SM FU BKN060 RMK FCST BASED ON AUTO OBS. NXT FCST BY 072000Z
CYQB,TAF CYQB 071740Z 0718/0818 10008KT P6SM -SHRA SCT008 OVC025 TEMPO 0718/0724 5SM -SHRA BR BKN008 OVC025 FM080000 06010KT P6SM SCT020 OVC050 TEMPO 0800/0808 P6SM -SHRA FEW007 BKN020 OVC050 FM080800 04007KT 6SM -RA BR BKN020 PROB30 0808/0815 4SM -RA BR BKN007 OVC020 FM081500 07012KT P6SM BKN030 BKN060 RMK NXT FCST BY 080000Z
CYQD,TAF CYQD 071240Z 0713/0801 31005KT P6SM SKC FM071600 31008KT P6SM FEW040 RMK FCST BASED ON AUTO OBS. NXT FCST BY 071900Z
CYQF,TAF CYQF 071740Z 0718/0806 18010KT P6SM SKC BECMG 0719/0721 35008KT RMK FCST BASED ON AUTO OBS. NXT FCST BY 080000Z
CYQG,TAF CYQG 071740Z 0718/0818 05010G20KT P6SM SKC FM072100 04010G20KT P6SM FEW090 TEMPO 0721/0805 4SM FU BECMG 0800/0802 02010KT FM080500 31006KT 6SM FU SKC TEMPO 0805/0812 4SM FU FM081200 33006KT 6SM FU BKN070 FM081500 01005KT P6SM BKN080 RMK FCST BASED ON AUTO OBS. NXT FCST BY 080000Z
CYQH,TAF CYQH 071749Z 0718/0806 VRB03KT P6SM BKN050 OVC090 TEMPO 0718/0722 SCT050 BKN090 FM072200 27005KT P6SM BKN060 TEMPO 0722/0806 P6SM -SHRA RMK NXT FCST BY 080000Z
CYQI,TAF CYQI 071740Z 0718/0806 24010KT P6SM SCT008 BKN040 TEMPO 0718/0806 4SM -RA BR BKN008 BKN040 PROB30 0802/0806 2SM BR BKN005 RMK NXT FCST BY 080000Z
CYQK,TAF CYQK 071340Z 0714/0802 17012KT P6SM SCT060 BKN100 TEMPO 0714/0720 5SM -SHRA BR BKN030 OVC060 FM072000 16008KT P6SM BKN040 TEMPO 0720/0724 5SM -SHRA BR PROB30 0720/0722 3SM TSRA BR OVC030CB FM080000 16007KT P6SM BKN040 BKN160 RMK NXT FCST BY 072000Z
CYQL,TAF CYQL 071740Z 0718/0806 08008KT P6SM FEW050 RMK NXT FCST BY 080000Z
CYQM,TAF AMD CYQM 071752Z 0718/0818 VRB03KT 5SM -SHRA BR SCT006 BKN020 OVC040 TEMPO 0718/0802 P6SM NSW SCT020 BKN040 PROB30 0800/0802 3SM -DZ BR BKN006 OVC030 FM080200 VRB03KT 6SM -RA BR SCT004 BKN020 OVC040 PROB30 0802/0804 1/2SM -RA FG OVC006 FM080400 VRB03KT 2SM -RA BR SCT003 OVC004 PROB30 0804/0814 1/2SM RA FG VV003 FM081400 33005KT 3SM -RA BR FEW003 OVC010 RMK NXT FCST BY 080000Z
CYQQ,TAF CYQQ 071740Z 0718/0824 33005KT P6SM SKC BECMG 0723/0801 VRB03KT RMK NXT FCST BY 080000Z
CYQR,TAF CYQR 071740Z 0718/0818 04010KT P6SM FEW120 FM072000 35012KT P6SM SCT080 TEMPO 0721/0724 VRB15G25KT P6SM -SHRA VCTS BKN080CB FM080000 01008KT P6SM BKN090 TEMPO 0800/0810 VRB20G30KT P6SM -SHRA VCTS BKN060CB FM081000 26010KT P6SM BKN080 TEMPO 0810/0815 P6SM -SHRA OVC060 FM081500 18005KT P6SM BKN050 OVC110 RMK NXT FCST BY 080000Z
CYQT,TAF CYQT 071340Z 0714/0802 10008KT P6SM FEW250 BECMG 0722/0724 VRB03KT RMK NXT FCST BY 072000Z
CYQU,TAF CYQU 071240Z 0713/0801 22010KT P6SM FEW050 SCT180 BECMG 0714/0716 27012KT RMK NXT FCST BY 071900Z
CYQV,TAF CYQV 071740Z 0718/0806 02010KT P6SM SKC FM072300 04005KT P6SM SCT120 TEMPO 0723/0806 P6SM VCTS BKN080CB BECMG 0800/0802 10007KT RMK FCST BASED ON AUTO OBS. NXT FCST BY 080000Z
CYQW,TAF CYQW 071740Z 0718/0806 12006KT P6SM FEW070 RMK FCST BASED ON AUTO OBS. NXT FCST BY 080000Z
CYQX,TAF AMD CYQX 071746Z 0718/0818 06010KT P6SM OVC006 TEMPO 0718/0724 3SM BR OVC003 FM080000 09010KT 3SM BR OVC006 TEMPO 0800/0803 1SM BR OVC003 FM080300 09008KT 1/4SM -DZ FG VV002 TEMPO 0803/0810 1SM BR OVC003 FM081000 05005KT 1SM -RA BR OVC005 FM081200 06005KT 5SM -DZ BR OVC004 FM081500 34008KT 6SM -DZ BR OVC006 RMK NXT FCST BY 080000Z
CYQY,TAF CYQY 071740Z 0718/0806 14012KT 2SM -RA -DZ BR OVC003 TEMPO 0718/0722 6SM -RA BR SCT003 BKN012 OVC060 PROB30 0802/0806 1/2SM -DZ FG VV002 RMK NXT FCST BY 080000Z
CYQZ,TAF CYQZ 071140Z 0712/0724 VRB03KT P6SM SKC BECMG 0716/0718 33005KT RMK FCST BASED ON AUTO OBS. NXT FCST BY 071900Z
CYRA,TAF AMD CYRA 071608Z 0716/0724 03008KT P6SM BKN040 TEMPO 0716/0724 P6SM -SHRA BKN020 OVC040 BECMG 0721/0723 34015G25KT RMK NXT FCST BY 071900Z
CYRB,TAF CYRB 071740Z 0718/0818 04005KT P6SM FEW003 BKN007 TEMPO 0718/0721 SCT007 FM072100 05007KT P6SM SCT007 FM080600 07008KT P6SM SCT005 PROB30 0806/0814 2SM BR BKN005 FM081400 12010KT P6SM SCT007 RMK NXT FCST BY 080000Z
CYRJ,TAF CYRJ 071353Z 0714/0802 01007KT 2 1/2SM RA FU FEW006 OVC020 TEMPO 0714/0717 P6SM -SHRA OVC030 FM071700 08010KT P6SM -RA OVC040 TEMPO 0717/0723 3SM -SHRA OVC020 FM072300 01007KT 3SM -RA SCT005 OVC020 RMK NXT FCST BY 072000Z
CYRL,TAF CYRL 071340Z 0714/0802 14008KT P6SM SCT015 OVC030 TEMPO 0714/0718 4SM -SHRA BR SCT007 OVC015 PROB30 0714/0718 BKN007 OVC012 FM071800 16008G18KT 5SM -SHRA BR SCT008 OVC012 TEMPO 0718/0720 P6SM NSW SCT012 OVC025 FM072000 15008G18KT P6SM -SHRA BKN015 OVC025 FM072200 17010KT P6SM OVC030 BECMG 0723/0801 15006KT RMK NXT FCST BY 072000Z
CYRQ,TAF CYRQ 071340Z 0714/0802 35012G22KT P6SM BKN030 OVC050 TEMPO 0714/0715 P6SM -RA BKN020 FM071800 01010G20KT P6SM -RA BKN030 TEMPO 0718/0802 5SM -RA BR BKN020 BECMG 0723/0801 03005KT RMK FCST BASED ON AUTO OBS. NXT FCST BY 072000Z
CYRT,TAF CYRT 071740Z 0718/0806 16008KT 3/4SM -RA BR OVC002 TEMPO 0718/0806 4SM -RA BR OVC008 BECMG 0800/0802 10008KT RMK NXT FCST BY 080000Z
CYSB,TAF CYSB 071340Z 0714/0802 35010G20KT P6SM SKC TEMPO 0714/0718 5SM FU BECMG 0714/0716 36015G25KT RMK NXT FCST BY 072000Z
CYSC,TAF CYSC 071740Z 0718/0803 34008KT P6SM FEW020 BKN050 TEMPO 0718/0803 5SM -SHRA BR SCT010 OVC020 RMK FCST BASED ON AUTO OBS. NXT FCST BY 080000Z
CYSF,TAF CYSF 071740Z 0718/0806 20012G22KT P6SM FEW080 BECMG 0721/0723 27015KT FM080100 28010KT P6SM SCT080 RMK FCST BASED ON AUTO OBS. NXT FCST BY 080000Z
CYSJ,TAF CYSJ 071740Z 0718/0806 18005KT 5SM -SHRA BR BKN015 TEMPO 0718/0724 P6SM NSW SCT015 OVC030 BECMG 0722/0724 VRB03KT FM080000 VRB03KT P6SM FEW008 BKN050 PROB30 0800/0806 1SM -RA BR OVC004 RMK NXT FCST BY 080000Z
CYSM,TAF CYSM 071740Z 0718/0806 25015KT P6SM SCT060 BKN140 TEMPO 0718/0723 6SM FU BKN060 OVC140 FM072300 29015KT P6SM BKN050 TEMPO 0723/0803 5SM -SHRA FU OVC030 FM080300 29010KT P6SM BKN030 TEMPO 0803/0806 P6SM -SHRA RMK NXT FCST BY 080000Z
CYSN,TAF CYSN 071240Z 0713/0801 VRB03KT 6SM FU BKN030 TEMPO 0713/0715 4SM FU BKN020 FM071500 32007KT 6SM FU FEW020 TEMPO 0715/0801 4SM FU RMK NXT FCST BY 072000Z
CYSP,TAF CYSP 071340Z 0714/0721 03008KT P6SM SKC RMK NXT FCST BY 081400Z
CYSY,TAF AMD CYSY 071506Z 0715/0723 15005KT P6SM BKN110 FM071800 28010KT P6SM BKN050 BKN100 RMK NXT FCST BY 071900Z
CYTE,TAF CYTE 071248Z 0713/0801 25006KT 1/4SM -FZDZ FZFG OVC002 TEMPO 0713/0716 P6SM NSW OVC006 FM071600 21008KT 2SM BR OVC006 TEMPO 0716/0721 P6SM NSW SCT006 OVC012 FM072100 20008KT P6SM SCT006 BKN160 TEMPO 0721/0801 3SM BR BKN006 OVC160 BECMG 0722/0724 23012KT RMK FCST BASED ON AUTO OBS. NXT FCST BY 071900Z
CYTH,TAF CYTH 071240Z 0713/0801 VRB03KT P6SM OVC004 BECMG 0713/0715 BKN012 FM071500 24006KT P6SM SCT012 BKN040 TEMPO 0715/0718 BKN012 FM071900 24006KT P6SM SCT040 TEMPO 0719/0801 P6SM -SHRA VCTS BKN040CB RMK NXT FCST BY 071900Z
CYTL,TAF CYTL 071340Z 0714/0802 16012KT P6SM SKC BECMG 0722/0724 15008KT SCT240 RMK FCST BASED ON AUTO OBS. NXT FCST BY 072000Z
CYTQ,TAF CYTQ 071342Z 0714/0721 04006KT P6SM FEW040 BECMG 0714/0716 04012KT RMK NXT FCST BY 081400Z
CYTR,TAF CYTR 071742Z 0718/0818 31012KT 6SM FU BKN070 OVC240 TEMPO 0718/0721 3SM -SHRA FU BKN040 FM072100 34012KT 6SM -SHRA FU BKN040 OVC070 TEMPO 0721/0805 2SM FU FM080500 34005KT 3SM FU BKN025 PROB30 0806/0812 1/2SM FU FM081600 01008KT P6SM -SHRA BKN020 RMK NXT FCST BY 080000Z
CYTS,TAF CYTS 071340Z 0714/0802 35010KT P6SM SKC TEMPO 0714/0718 6SM FU BECMG 0716/0718 01015G25KT RMK NXT FCST BY 072000Z
CYTZ,TAF AMD CYTZ 071704Z 0717/0814 32015G25KT P6SM SKC TEMPO 0717/0803 4SM FU BECMG 0722/0724 32015KT FM080300 33012KT 4SM FU SCT070 BKN120 FM080500 34008KT 3SM FU BKN060 PROB30 0812/0814 2SM FU RMK FCST BASED ON AUTO OBS. NXT FCST BY 072000Z
CYUB,TAF CYUB 071444Z 0715/0803 12008KT P6SM FEW090 SCT250 FM071800 32008KT P6SM BKN120 RMK NXT FCST BY 071900Z
CYUL,TAF CYUL 071740Z 0718/0818 35010G20KT P6SM -SHRA BKN030 OVC050 TEMPO 0718/0724 P6SM NSW FM080000 34010KT P6SM SCT020 OVC040 TEMPO 0800/0804 P6SM -SHRA FM080400 VRB03KT P6SM BKN015 OVC040 TEMPO 0804/0808 SCT015 OVC040 FM080800 03008KT P6SM OVC015 FM081400 03012KT P6SM BKN030 FM081700 03012KT P6SM -SHRA BKN040 RMK NXT FCST BY 072100Z
CYUT,TAF AMD CYUT 071710Z 0717/0722 15020KT 6SM -RA SCT004 OVC015 TEMPO 0717/0719 3SM SHRA BR OVC004 FM071900 17012KT 6SM -RA BR SCT004 OVC012 TEMPO 0719/0722 2SM -RA -DZ BR OVC004 RMK NXT FCST BY 071900Z
CYUX,TAF CYUX 071248Z 0713/0801 16012KT P6SM SCT040 BKN150 TEMPO 0713/0719 5SM -SHSNRA BR BKN040 OVC100 FM071900 19008KT P6SM SCT012 OVC090 TEMPO 0719/0722 4SM -SHRA BR SCT008 OVC012 FM072200 09012KT P6SM -RA SCT006 OVC012 TEMPO 0722/0801 1 1/2SM -RA BR SCT003 OVC006 RMK FCST BASED ON AUTO OBS. NXT FCST BY 071900Z
CYUY,TAF CYUY 071740Z 0718/0806 02015G25KT P6SM SCT060 BKN120 TEMPO 0718/0802 BKN040 BKN080 BECMG 0800/0802 06005KT FM080200 06005KT P6SM BKN060 BKN130 TEMPO 0802/0806 5SM FU RMK NXT FCST BY 080000Z
CYVC,TAF CYVC 071240Z 0713/0801 VRB03KT P6SM SKC RMK NXT FCST BY 071900Z
CYVM,TAF CYVM 071248Z 0713/0801 20008KT P6SM SCT030 BKN080 TEMPO 0713/0720 6SM -SN BKN030 OVC080 FM072000 VRB03KT P6SM SCT020 OVC050 TEMPO 0720/0801 5SM -SN BR OVC020 RMK FCST BASED ON AUTO OBS. NXT FCST BY 071900Z
CYVO,TAF CYVO 071740Z 0718/0806 02015G30KT P6SM BKN040 BKN080 FM080000 02012G22KT P6SM BKN040 BKN100 TEMPO 0800/0803 3SM FU BECMG 0800/0802 01006KT FM080300 03006KT 2SM FU BKN050 BKN120 PROB40 0803/0806 1SM FU RMK NXT FCST BY 080000Z
CYVP,TAF CYVP 071743Z 0718/0806 06010KT P6SM FEW170 RMK NXT FCST BY 080000Z
CYVQ,TAF CYVQ 071741Z 0718/0806 28012KT P6SM FEW030 SCT150 BECMG 0800/0802 VRB03KT FM080500 12005KT P6SM BKN120 RMK NXT FCST BY 080000Z
CYVR,TAF CYVR 071740Z 0718/0824 29010KT P6SM FEW230 TEMPO 0718/0723 5SM FU FM072300 27008KT P6SM SKC BECMG 0803/0805 10008KT FM080500 10008KT P6SM SKC TEMPO 0816/0824 5SM FU RMK NXT FCST BY 072100Z
CYVT,TAF CYVT 071340Z 0714/0802 19005KT P6SM SKC TEMPO 0714/0718 5SM FU FM071800 21010KT P6SM FEW090 RMK FCST BASED ON AUTO OBS. NXT FCST BY 072100Z
CYVV,TAF CYVV 071340Z 0714/0723 01007KT P6SM FEW200 TEMPO 0714/0723 5SM FU BECMG 0719/0721 34008KT RMK NXT FCST BY 072000Z
CYWA,TAF CYWA 071740Z 0718/0818 34015G25KT 2SM FU BKN030 OVC070 TEMPO 0718/0806 5SM -SHRA BR FU OVC040 PROB30 0720/0804 3/4SM FU FM080600 VRB03KT 5SM FU BKN025 OVC040 FM081100 02005KT P6SM BKN020 BECMG 0814/0816 02010KT RMK NXT FCST BY 080000Z
CYWE,TAF CYWE 071240Z 0713/0801 12008KT P6SM FEW030 BKN050 BKN140 TEMPO 0713/0801 P6SM -SHRA BKN030 OVC080 RMK FCST BASED ON AUTO OBS. WIND SENSOR INOP. NXT FCST BY 071900Z
CYWG,TAF CYWG 071740Z 0718/0818 16010G20KT P6SM FEW012 BKN070 BKN270 TEMPO 0718/0724 BKN040 FM080000 14012G22KT P6SM BKN040 FM080700 16008KT P6SM SCT020 BKN040 TEMPO 0807/0814 BKN020 FM081400 17008KT P6SM BKN030 RMK NXT FCST BY 080000Z
CYWH,TAF CYWH 071422Z 0714/0802 VRB03KT P6SM SKC BECMG 0721/0723 22010KT RMK NXT FCST BY 072100Z
CYWJ,TAF CYWJ 071740Z 0718/0723 34005KT P6SM SCT012 BKN025 OVC060 TEMPO 0718/0719 5SM -SHRA BR OVC012 FM071900 02012KT P6SM BKN025 TEMPO 0719/0722 BKN020 FM072200 09008KT P6SM SCT030 RMK NXT FCST BY 081400Z
CYWK,TAF CYWK 071341Z 0714/0802 05015G25KT 4SM -RA BR SCT008 OVC012 TEMPO 0714/0717 6SM -RA BR SCT012 OVC025 BECMG 0714/0716 06022G32KT FM071700 06022G32KT 6SM -RA BR OVC020 TEMPO 0717/0721 OVC025 FM072100 06015G30KT P6SM -RA OVC025 TEMPO 0721/0802 OVC020 RMK NXT FCST BY 072000Z
CYWL,TAF CYWL 071240Z 0713/0801 VRB03KT P6SM FEW210 BECMG 0721/0723 08008KT RMK NXT FCST BY 071900Z
CYXC,TAF CYXC 071240Z 0713/0801 VRB03KT P6SM SCT230 RMK NXT FCST BY 071900Z
CYXE,TAF CYXE 071740Z 0718/0818 03008KT P6SM FEW100 RMK NXT FCST BY 080000Z
CYXH,TAF CYXH 071740Z 0718/0806 06005KT P6SM SCT040 TEMPO 0718/0721 BKN040 FM072100 06010KT P6SM SCT060 RMK NXT FCST BY 080000Z
CYXJ,TAF CYXJ 071240Z 0713/0801 26005KT P6SM FEW060 FEW100 BKN200 BECMG 0713/0715 27012KT BECMG 0722/0724 27008KT RMK NXT FCST BY 071900Z
CYXL,TAF CYXL 071340Z 0714/0802 15010KT P6SM SCT120 TEMPO 0714/0717 BKN100 FM071700 17012KT P6SM SKC BECMG 0722/0724 VRB03KT RMK NXT FCST BY 072000Z
CYXP,TAF AMD CYXP 071410Z 0714/0722 26010KT P6SM FEW010 BKN020 BKN080 TEMPO 0714/0717 SCT020 BKN080 FM071700 26010KT P6SM SCT020 BKN060 TEMPO 0717/0722 4SM -RASN BR FEW010 BKN020 RMK NXT FCST BY 071900Z
CYXR,TAF CYXR 071740Z 0718/0724 36015G25KT P6SM SCT060 BKN120 TEMPO 0718/0724 BKN040 BKN080 BECMG 0722/0724 25012KT RMK FCST BASED ON AUTO OBS. NXT FCST BY 081200Z
CYXS,TAF CYXS 071240Z 0713/0801 VRB03KT P6SM SKC BECMG 0717/0719 02008KT RMK FCST BASED ON AUTO OBS. NXT FCST BY 071900Z
CYXT,TAF CYXT 071240Z 0713/0801 35006KT P6SM FEW210 BECMG 0722/0724 20008KT RMK NXT FCST BY 071900Z
CYXU,TAF CYXU 071740Z 0718/0818 35012G22KT P6SM SCT240 TEMPO 0718/0805 4SM FU BECMG 0800/0802 35008KT FM080500 35005KT P6SM BKN070 BECMG 0815/0817 34010KT RMK NXT FCST BY 080000Z
CYXX,TAF CYXX 071740Z 0718/0818 23008KT P6SM SKC TEMPO 0718/0724 5SM FU BECMG 0806/0808 VRB03KT RMK NXT FCST BY 080000Z
CYXY,TAF CYXY 071746Z 0718/0818 14008KT P6SM FEW090 SCT220 BECMG 0800/0802 17010KT RMK NXT FCST BY 080000Z
CYXZ,TAF CYXZ 071240Z 0713/0724 03008KT P6SM SKC BECMG 0715/0717 02012G22KT FEW070 RMK NXT FCST BY 072000Z
CYYB,TAF CYYB 071340Z 0714/0802 36008G18KT P6SM FEW120 TEMPO 0714/0718 5SM FU BECMG 0714/0716 36015G25KT FM072000 36015G25KT P6SM BKN060 BECMG 0722/0724 01010KT RMK NXT FCST BY 072000Z
CYYC,TAF CYYC 071740Z 0718/0818 14010KT P6SM FEW080 SCT250 FM080900 33005KT P6SM SKC BECMG 0816/0818 16012KT RMK NXT FCST BY 072100Z
CYYD,TAF CYYD 071340Z 0714/0802 VRB03KT P6SM SKC TEMPO 0714/0716 2SM BR RMK FCST BASED ON AUTO OBS. NXT FCST BY 071900Z
CYYE,TAF CYYE 071240Z 0713/0801 VRB03KT P6SM BKN060 BKN090 BKN250 BECMG 0713/0715 28010KT FM072000 30010KT P6SM SCT070 TEMPO 0720/0801 BKN070 RMK NXT FCST BY 071900Z
CYYF,TAF CYYF 071240Z 0713/0801 36008KT P6SM SKC RMK NXT FCST BY 071900Z
CYYG,TAF CYYG 071740Z 0718/0806 16012G22KT P6SM SCT015 BKN040 BKN070 TEMPO 0718/0724 4SM -SHRA BR SCT008 OVC015 FM080000 13010KT 6SM -RA BR OVC015 PROB30 0803/0806 2SM -RA -DZ BR OVC007 RMK NXT FCST BY 080000Z
CYYH,TAF CYYH 071747Z 0718/0806 06020G30KT 4SM -RA BR BKN003 OVC050 TEMPO 0718/0724 P6SM -RA SCT003 BKN050 OVC100 FM080000 04018KT 4SM -RA BR BKN007 OVC050 TEMPO 0800/0806 P6SM -RA SCT007 BKN050 OVC100 PROB30 0800/0806 BKN003 RMK NXT FCST BY 080000Z
CYYJ,TAF CYYJ 071740Z 0718/0818 09008KT P6SM SKC BECMG 0802/0804 VRB03KT RMK NXT FCST BY 080000Z
CYYL,TAF CYYL 071240Z 0713/0801 29008KT P6SM SKC RMK FCST BASED ON AUTO OBS. NXT FCST BY 071900Z
CYYN,TAF CYYN 071740Z 0718/0806 05008KT P6SM SCT050 FM072000 05010KT P6SM BKN070 TEMPO 0720/0804 P6SM -SHRA PROB30 0720/0804 VRB20G30KT 3SM TSRA OVC050CB FM080400 08008KT P6SM SCT070 RMK FCST BASED ON AUTO OBS. NXT FCST BY 080000Z
CYYQ,TAF CYYQ 071740Z 0718/0818 20012KT P6SM OVC015 TEMPO 0718/0721 P6SM -RA OVC008 FM072100 18010KT P6SM -RA SCT006 OVC012 TEMPO 0721/0802 2SM -RA BR OVC006 FM080200 20005KT P6SM SCT008 TEMPO 0802/0810 5SM BR BKN006 PROB30 0802/0810 1/2SM FG VV002 FM081000 22005KT P6SM SKC BECMG 0810/0812 22008KT FM081500 23010KT P6SM SCT110 RMK NXT FCST BY 080000Z
CYYR,TAF CYYR 071740Z 0718/0824 04020G32KT 4SM -RA BR OVC008 TEMPO 0718/0808 6SM -RA BR SCT008 OVC015 BECMG 0723/0801 05015G25KT FM080800 05015G25KT P6SM SCT005 OVC008 FM081500 05015G25KT P6SM SCT008 OVC015 FM081800 05010G20KT P6SM SCT015 OVC025 RMK NXT FCST BY 080000Z
CYYT,TAF CYYT 071740Z 0718/0818 12005KT 1SM -DZ BR VV003 TEMPO 0718/0724 1/4SM FG VV001 PROB30 0718/0724 1/2SM FG FM080000 13005KT 1/4SM -DZ FG VV002 TEMPO 0800/0803 1 1/2SM BR OVC004 BECMG 0801/0803 26006KT FM080300 26006KT 3SM BR SCT004 OVC010 TEMPO 0803/0813 2SM BR OVC004 FM081300 28010KT P6SM SCT010 BKN030 FM081600 24006KT P6SM -SHRA BKN040 BECMG 0816/0818 20010KT RMK NXT FCST BY 080000Z
CYYU,TAF CYYU 071340Z 0714/0802 34010KT P6SM FEW240 BECMG 0716/0718 36015G25KT RMK NXT FCST BY 072000Z
CYYY,TAF CYYY 071347Z 0714/0802 06018G28KT 1 1/2SM -RA BR OVC004 TEMPO 0714/0719 6SM -RA BR SCT004 OVC015 FM071900 06018G28KT 6SM -RA BR SCT004 OVC040 TEMPO 0719/0802 2SM -RA BR OVC004 RMK NXT FCST BY 072000Z
CYYZ,TAF CYYZ 071740Z 0718/0824 35012G22KT P6SM FEW060 SCT140 TEMPO 0718/0802 5SM FU BECMG 0723/0801 34012KT FM080200 34012KT 6SM FU SCT050 BKN100 TEMPO 0802/0806 3SM FU FM080600 35008KT 3SM FU BKN050 OVC100 FM081400 01010KT 2SM FU OVC040 FM081700 03008KT 4SM -SHRA FU OVC040 PROB30 0817/0824 1 1/2SM FU RMK NXT FCST BY 072100Z
CYZE,TAF CYZE 071340Z 0714/0722 02012G22KT 2SM FU SKC TEMPO 0714/0720 P6SM NSW FM072000 01012KT P6SM SKC TEMPO 0720/0722 5SM FU PROB30 0720/0722 2SM FU RMK FCST BASED ON AUTO OBS. NXT FCST BY 072000Z
CYZF,TAF CYZF 071741Z 0718/0818 17008KT P6SM -SHRA FEW010 OVC040 TEMPO 0718/0720 4SM -SHRA BR FEW006 BKN010 OVC040 BECMG 0718/0720 36008KT FM072000 36008KT P6SM SCT012 OVC040 TEMPO 0720/0804 P6SM -SHRA BKN012 OVC040 FM080400 33008KT P6SM BKN025 TEMPO 0804/0814 BKN020 FM081400 32010KT P6SM BKN040 RMK NXT FCST BY 080000Z
CYZG,TAF CYZG 071340Z 0714/0721 20008KT P6SM BKN210 BECMG 0714/0716 20012KT BECMG 0718/0720 20020KT RMK NXT FCST BY 081400Z
CYZH,TAF CYZH 071240Z 0713/0801 VRB03KT P6SM SCT240 BECMG 0714/0716 28010KT RMK FCST BASED ON AUTO OBS. NXT FCST BY 071900Z
CYZP,TAF CYZP 071240Z 0713/0801 28008KT P6SM FEW210 FM071800 VRB03KT P6SM FEW100 BKN200 BECMG 0721/0723 08006KT RMK FCST BASED ON AUTO OBS. NXT FCST BY 071900Z
CYZR,TAF CYZR 071340Z 0714/0802 01012KT P6SM SKC TEMPO 0714/0724 5SM FU BECMG 0714/0716 36015KT FM080000 36010KT P6SM SKC TEMPO 0800/0802 5SM FU BECMG 0800/0802 VRB03KT RMK FCST BASED ON AUTO OBS. NXT FCST BY 072000Z
CYZS,TAF CYZS 071248Z 0713/0801 11008KT P6SM SCT025 OVC180 FM071500 16008KT P6SM BKN120 TEMPO 0715/0718 P6SM -SHRA BKN100 FM071800 19012KT P6SM SCT012 OVC080 TEMPO 0718/0723 5SM -SHRA BR SCT008 OVC012 FM072300 21012KT 2SM -RA BR SCT004 OVC008 TEMPO 0723/0801 P6SM NSW SCT008 OVC012 RMK NXT FCST BY 071900Z
CYZT,TAF AMD CYZT 071709Z 0717/0801 VRB03KT 4SM BR BKN004 BECMG 0717/0718 P6SM NSW SCT005 FM071800 08005KT P6SM SCT008 BECMG 0721/0723 35010KT RMK NXT FCST BY 071900Z
CYZU,TAF CYZU 071410Z 0714/0723 29005KT P6SM FEW200 RMK NXT FCST BY 071900Z
CYZV,TAF CYZV 071805Z 0718/0818 10012KT P6SM -SHRA FEW003 FEW015 OVC030 TEMPO 0718/0723 3SM -SHRA BR SCT003 BKN008 OVC015 PROB30 0718/0723 2SM -RA BR BKN003 FM072300 09008G18KT 3SM -RA BR SCT003 OVC008 TEMPO 0723/0802 P6SM NSW SCT003 OVC030 PROB30 0723/0802 2SM -RA BR BKN003 FM080200 06005KT P6SM -RA SCT003 OVC015 PROB30 0802/0806 2SM -RA BR BKN003 FM080600 04008KT P6SM BKN020 OVC040 FM081200 04012KT P6SM -SHRA BKN025 OVC040 FM081500 08012KT 4SM -SHRA BR FEW008 OVC020 PROB30 0815/0818 2SM -RA -DZ BR OVC005 RMK NXT FCST BY 080000Z
CYZW,TAF CYZW 071740Z 0718/0801 16008KT P6SM FEW070 RMK NXT FCST BY 081500Z
CYZX,TAF CYZX 071740Z 0718/0818 32008KT P6SM SCT015 BKN025 TEMPO 0718/0802 5SM -SHRA BR SCT010 OVC020 FM080200 VRB03KT 6SM BR BKN010 OVC060 TEMPO 0802/0812 2SM -SHRA -DZ BR OVC006 PROB30 0804/0810 1SM BR OVC003 FM081200 18005KT P6SM BKN012 OVC025 FM081500 27005KT P6SM -SHRA BKN025 OVC050 RMK NXT FCST BY 080000Z
CYZY,TAF CYZY 071444Z 0715/0803 VRB03KT P6SM SKC BECMG 0716/0718 15005KT BECMG 0722/0724 13010KT RMK FCST BASED ON AUTO OBS. NXT FCST BY 071900Z
CZBF,TAF CZBF 071342Z 0714/0802 04012G22KT 2SM -RA -DZ BR OVC004 TEMPO 0714/0802 P6SM NSW SCT004 OVC008 RMK FCST BASED ON AUTO OBS. NXT FCST BY 072000Z
CZFA,TAF CZFA 071740Z 0718/0801 26008KT P6SM FEW025 SCT110 BKN210 TEMPO 0718/0724 P6SM -SHRA BKN025 BKN080 BECMG 0719/0721 22005KT RMK NXT FCST BY 081500Z
CZFM,TAF CZFM 071444Z 0715/0723 32005KT P6SM BKN110 BECMG 0717/0719 13005KT SCT100 RMK NXT FCST BY 071900Z
CZMD,TAF CZMD 071540Z 0716/0722 17012KT P6SM SCT080 TEMPO 0716/0722 BKN080 RMK FCST BASED ON AUTO OBS. NXT FCST BY 081000Z
CZMT,TAF CZMT 071423Z 0714/0724 VRB03KT P6SM SCT120 BKN150 BECMG 0717/0719 35006KT RMK NXT FCST BY 071900Z
CZSJ,TAF CZSJ 071540Z 0716/0722 16007KT P6SM OVC040 TEMPO 0716/0722 5SM -SHRA BR RMK FCST BASED ON AUTO OBS. NXT FCST BY 081000Z
CZUM,TAF AMD CZUM 071525Z 0715/0802 05015G25KT P6SM -RA SCT020 OVC050 TEMPO 0715/0724 4SM -SHRA BR BKN020 OVC050 BECMG 0715/0717 05020G30KT FM080000 06015G25KT P6SM -RA OVC015 RMK FCST BASED ON AUTO OBS. NXT FCST BY 072000Z
CZVL,TAF CZVL 071740Z 0718/0806 VRB03KT P6SM SKC RMK FCST BASED ON AUTO OBS. NXT FCST BY 080000Z
DAAD,TAF DAAD 071700Z 0718/0803 08008KT 7000 SCT030 BKN100
DAAE,TAF DAAE 071700Z 0718/0818 09008KT 9999 SCT023 BKN090 TEMPO 0718/0806 01011KT 5000 -RA FEW023CB PROB30 TEMPO 0718/0723 5000 -TSRA FEW020CB BKN026 PROB40 TEMPO 0800/0807 4000 -TSRA FEW016CB BKN030
DAAG,TAF DAAG 071700Z 0718/0818 VRB02KT 9999 FEW023 BKN100 PROB30 TEMPO 0718/0723 FEW023CB SCT100 PROB30 TEMPO 0801/0806 3000 BR BKN014 BECMG 0809/0811 36010KT
DAAJ,TAF DAAJ 071700Z 0718/0818 22008KT 8000 NSC BECMG 0721/0723 04012KT PROB30 TEMPO 0721/0723 04015G25KT 3000 DRSA BECMG 0806/0809 22008KT
DAAP,TAF DAAP 071700Z 0718/0803 35008KT CAVOK
DAAS,TAF DAAS 071700Z 0718/0818 25009KT 9999 SCT023 BKN040 TEMPO 0718/0806 31012KT 5000 -RA FEW023CB PROB30 TEMPO 0718/0723 5000 -TSRA PROB40 TEMPO 0800/0810 5000 -TSRA FEW020CB BKN026
DAAT,TAF DAAT 071700Z 0718/0818 24008KT 9999 FEW046 BECMG 0720/0722 35010KT BECMG 0803/0805 06010KT
DAAV,TAF DAAV 071700Z 0718/0818 30008KT 9999 SCT023 BKN090 TEMPO 0718/0806 5000 -RA FEW026CB PROB30 TEMPO 0718/0723 02011KT 5000 -TSRA FEW020CB BKN026 PROB40 TEMPO 0800/0807 4000 -TSRA FEW016CB BKN030
DAAY,TAF DAAY 071700Z 0718/0803 18015G35KT 3000 DRSA FEW030 SCT100 TEMPO 0718/0724 1500 DRSA
DABB,TAF DABB 071700Z 0718/0818 33008KT 9999 FEW023 BKN100 TEMPO 0718/0803 03014KT 5000 -RA FEW023CB PROB40 TEMPO 0718/0724 4000 -TSRA FEW020CB BKN026 PROB40 TEMPO 0803/0811 5000 -RA FEW023TCU BKN030
DABC,TAF DABC 071700Z 0718/0818 35008KT 8000 FEW030 BKN030 TEMPO 0718/0806 29014KT 5000 -RA FEW026CB PROB40 0718/0724 4000 -TSRA FEW020CB BKN030 PROB40 TEMPO 0806/0818 FEW023TCU
DABS,TAF DABS 071700Z 0718/0818 28008KT 9999 SCT033 SCT100 TEMPO 0718/0803 5000 -RA FEW026CB BKN030 PROB40 0718/0723 4000 -TSRA FEW020CB BKN026 PROB40 TEMPO 0803/0812 5000 -RA FEW026TCU BKN030
DABT,TAF DABT 071700Z 0718/0818 26014KT 9999 FEW020 BKN030 TEMPO 0718/0806 FEW026CB BECMG 0721/0723 32009KT PROB40 0718/0723 4000 -TSRA FEW020CB BKN030 PROB40 TEMPO 0801/0810 25012KT 5000 -RA FEW023TCU BKN030
DAFH,TAF DAFH 071700Z 0718/0803 18008KT CAVOK
DAOB,TAF DAOB 071700Z 0718/0818 08010KT 6000 SCT030 BKN090 PROB40 TEMPO 0718/0722 24018KT 4000 DRDU BECMG 0721/0724 30011KT BECMG 0800/0804 VRB02KT BECMG 0808/0812 21011KT FEW033 SCT100 PROB40 TEMPO 0809/0815 3000 HZ
DAOF,TAF DAOF 071700Z 0718/0803 30016KT CAVOK
DAOI,TAF DAOI 071700Z 0718/0818 06010KT 8000 SCT030 BKN100 PROB30 TEMPO 0718/0723 FEW026CB SCT030 BECMG 0721/0723 VRB02KT BECMG 0810/0812 36010KT
DAON,TAF DAON 071700Z 0718/0818 34011KT 8000 SCT013 BKN020 BECMG 0720/0724 VRB02KT PROB40 0721/0806 3000 -RA BR BKN010 BECMG 0810/0814 35010KT SCT020 SCT100
DAOO,TAF DAOO 071700Z 0718/0818 35012KT 8000 SCT006 BKN010 BECMG 0720/0724 VRB02KT PROB40 TEMPO 0721/0807 3000 DZ BR OVC010 BECMG 0808/0812 04011KT SCT010 SCT020 BECMG 0812/0816 34012KT
DAOR,TAF DAOR 071700Z 0718/0803 18012KT 2000 DU NSC BECMG 0718/0720 4000
DAOV,TAF DAOV 071700Z 0718/0803 32011KT 6000 SCT030 SCT100 BECMG 0721/0724 BKN020
DATM,TAF DATM 071700Z 0718/0803 35012KT CAVOK
DAUA,TAF DAUA 071700Z 0718/0818 12010KT CAVOK BECMG 0719/0722 VRB02KT BECMG 0804/0806 13012KT
DAUB,TAF DAUB 071700Z 0718/0818 12008KT 9999 SCT033 BKN100 PROB40 TEMPO 0718/0806 18014KT FEW020CB PROB30 TEMPO 0806/0815 FEW026TCU
DAUG,TAF DAUG 071700Z 0718/0818 14008KT CAVOK
DAUH,TAF DAUH 071700Z 0718/0818 10008KT CAVOK
DAUI,TAF DAUI 071700Z 0718/0818 09014KT 8000 NSC PROB40 0803/0812 09024KT 3000 DRSA
DAUK,TAF DAUK 071700Z 0718/0803 12008KT CAVOK
DAUL,TAF DAUL 071700Z 0718/0803 20012KT 8000 FEW040
DAUO,TAF DAUO 071700Z 0718/0803 VRB02KT CAVOK BECMG 0721/0723 18010KT
DAUT,TAF DAUT 071700Z 0718/0803 12006KT 9000 NSC BECMG 0800/0802 12016KT PROB30 0800/0803 3000 DRSA
DAUU,TAF DAUU 071700Z 0718/0803 10012KT 9999 FEW046 SCT233
DAUZ,TAF DAUZ 071700Z 0718/0818 35008KT 8000 NSC BECMG 0805/0807 06010KT
DBBB,TAF DBBB 071700Z 0718/0824 22012KT 8000 -RA SCT012 PROB40 TEMPO 0718/0722 4000 RA BKN010 FEW023CB TEMPO 0722/0804 09020G35KT 2500 +TSRA BKN010 FEW023CB PROB40 0804/0810 VRB02KT
DFFD,TAF DFFD 071700Z 0718/0824 24010KT 9999 FEW026 PROB30 TEMPO 0718/0724 TS SCT026 FEW036CB
DFOO,TAF DFOO 071700Z 0718/0818 24008KT 9999 FEW023 PROB40 TEMPO 0720/0802 4000 TSRA SCT023 SCT033CB
DGAA,TAF DGAA 071700Z 0718/0824 20010KT 9999 BKN012 PROB30 TEMPO 0718/0722 8000 -RA BECMG 0802/0804 27006KT
DGLE,TAF DGLE 071128Z 0712/0812 20010KT 9999 FEW015 PROB30 TEMPO 0721/0801 7000 -TSRA BKN010 FEW030CB
DGSI,TAF DGSI 071128Z 0712/0812 20010KT 9999 SCT014 PROB30 TEMPO 0718/0722 8000 -RA BKN012 BECMG 0802/0804 BKN010
DIAP,TAF DIAP 071700Z 0718/0824 22004KT 8000 -RA SCT011 BKN030 PROB40 TEMPO 0718/0722 4000 TSRA BKN011 FEW020CB BKN030 BECMG 0723/0724 NSW BKN011 PROB30 TEMPO 0805/0808 4000 RA BKN009 BKN020
DIBK,TAF DIBK 071701Z 0718/0818 22008KT 8000 SCT012 PROB40 TEMPO 0718/0724 TS BKN012 FEW025CB PROB30 TEMPO 0719/0722 4000 TSRA BKN011 FEW023CB PROB30 0805/0808 4000 BR BKN010
DIYO,TAF DIYO 071704Z 0718/0818 22004KT 8000 SCT012 PROB40 TEMPO 0718/0722 TS BKN012 FEW025CB PROB30 TEMPO 0719/0721 4000 TSRA BKN011 FEW023CB PROB30 0805/0808 4000 BR BKN010
DNAA,TAF DNAA 071100Z 0712/0818 11010KT 9999 BKN012 TEMPO 0713/0717 08016KT 5000 -TSRA BKN008 FEW018CB BECMG 0717/0719 VRB02KT FEW009 BECMG 0809/0811 23010KT SCT011 TEMPO 0816/0818 TS SCT013 FEW020CB
DNAK,TAF DNAK 071700Z 0718/0824 VRB02KT 9999 SCT010 TEMPO 0719/0724 TS SCT010 FEW020CB PROB30 0719/0724 5000 -TSRA BKN008 FEW018CB BECMG 0808/0810 21010KT BKN013 TEMPO 0811/0816 TS BKN013 FEW020CB BECMG 0817/0819 VRB02KT SCT012
DNBE,TAF DNBE 071700Z 0718/0824 VRB02KT 9999 SCT010 TEMPO 0719/0810 5000 -TSRA BKN008 FEW018CB TEMPO 0805/0807 4000 BR BECMG 0808/0810 24010KT BKN012 FEW020CB PROB30 TEMPO 0811/0817 5000 -TSRA BKN008 FEW018CB BECMG 0818/0820 VRB02KT SCT012
DNGO,TAF DNGO 071700Z 0718/0824 25008KT CAVOK
DNIB,TAF DNIB 071700Z 0718/0824 VRB02KT 9999 SCT010 TEMPO 0719/0801 TS SCT010 FEW020CB PROB30 0720/0801 18010KT 5000 -TSRA BKN009 FEW019CB BECMG 0808/0810 24010KT BKN013 FEW020CB TEMPO 0812/0817 TS SCT013 FEW020CB PROB30 0813/0817 5000 -TSRA BKN009 FEW019CB BECMG 0818/0820 VRB02KT SCT012
DNIL,TAF DNIL 071100Z 0712/0818 19010KT SCT011 PROB30 TEMPO 0715/0720 06016G28KT 5000 -TSRA BKN008 FEW018CB BECMG 0720/0722 VRB02KT FEW010 BECMG 0809/0811 21010KT BKN010 PROB30 TEMPO 0815/0818 TS FEW020CB
DNJO,TAF DNJO 071700Z 0718/0824 22010KT 9999 SCT007 BECMG 0718/0720 VRB02KT CAVOK TEMPO 0804/0808 5000 BR BKN004 BECMG 0809/0811 24010KT BKN010 TEMPO 0814/0819 TS SCT010 FEW018CB BECMG 0819/0821 11005KT FEW008
DNKA,TAF DNKA 071100Z 0712/0818 09010KT 5000 -TSRA BKN007 FEW020CB BECMG 0716/0718 VRB02KT 9999 NSW SCT009 BECMG 0810/0813 25010KT BKN012 PROB30 TEMPO 0815/0818 TS FEW020CB
DNKN,TAF DNKN 071700Z 0718/0824 08007KT CAVOK TEMPO 0812/0816 TS SCT012 FEW020CB
DNKT,TAF DNKT 071700Z 0718/0824 21008KT 9999 FEW012
DNMA,TAF DNMA 071700Z 0718/0824 21007KT 9999 FEW012
DNMM,TAF DNMM 071700Z 0718/0824 22010KT 9999 SCT011 TEMPO 0720/0802 TS SCT011 FEW020CB PROB30 0721/0802 5000 -TSRA BKN009 FEW019CB BECMG 0802/0804 VRB02KT BECMG 0808/0810 24010KT BKN013 FEW020CB TEMPO 0812/0817 TS SCT013 FEW020CB PROB30 0813/0817 5000 -TSRA BKN009 FEW019CB BECMG 0818/0820 SCT009 BECMG 0820/0822 VRB02KT
DNSO,TAF DNSO 071700Z 0718/0824 23010KT CAVOK
DNSU,TAF DNSU 071700Z 0718/0824 VRB02KT 9999 SCT009 TEMPO 0719/0801 5000 -TSRA BKN008 FEW018CB TEMPO 0805/0807 3000 BR BECMG 0808/0810 20010KT BKN012 FEW020CB PROB30 TEMPO 0810/0816 5000 -TSRA BKN008 FEW018CB BECMG 0817/0819 VRB02KT SCT008
DNYO,TAF DNYO 071700Z 0718/0824 24006KT CAVOK
DRRN,TAF DRRN 071700Z 0718/0824 26006KT CAVOK PROB30 0815/0819 TS SCT033 FEW040CB
DRZA,TAF DRZA 071700Z 0718/0818 28008KT CAVOK TEMPO 0806/0812 2800 DU
DRZR,TAF DRZR 071700Z 0718/0818 22006KT CAVOK PROB40 TEMPO 0814/0818 VRB30KT 1200 BLDU TSRA BKN030 SCT040CB
DTKA,TAF DTKA 071500Z 0716/0801 36010KT 9999 FEW020 BECMG 0718/0720 VRB03KT
DTMB,TAF DTMB 071700Z 0718/0818 12012KT CAVOK BECMG 0722/0724 18004KT BECMG 0813/0815 14012KT
DTNH,TAF DTNH 071700Z 0718/0818 11012KT CAVOK BECMG 0719/0721 18004KT BECMG 0813/0815 12012KT
DTTA,TAF DTTA 071700Z 0718/0818 11010KT 9999 FEW023 BECMG 0719/0721 18003KT BECMG 0812/0814 12012KT
DTTB,TAF DTTB 071500Z 0716/0801 08014KT 9999 SCT020 BECMG 0722/0724 14005KT
DTTF,TAF DTTF 071500Z 0716/0801 21006KT 9999 FEW026
DTTG,TAF DTTG 071500Z 0716/0801 08010KT 9999 SCT020
DTTJ,TAF DTTJ 071700Z 0718/0818 10012KT 9999 FEW020
DTTR,TAF DTTR 071500Z 0716/0801 VRB03KT CAVOK BECMG 0719/0721 05015KT
DTTX,TAF DTTX 071700Z 0718/0818 14010KT 9999 FEW020 BECMG 0718/0720 VRB02KT BECMG 0809/0811 15010KT
DTTZ,TAF DTTZ 071700Z 0718/0818 22004KT 9999 FEW020 BECMG 0722/0724 08010KT BECMG 0807/0809 14006KT
DXNG,TAF DXNG 071700Z 0718/0818 VRB05KT 9999 FEW008 PROB30 TEMPO 0720/0724 4000 TSRA BKN006 FEW016CB
DXXX,TAF COR DXXX 071700Z 0718/0824 VRB03KT 9999 SCT012 PROB40 TEMPO 0723/0804 09015G30KT 4000 TSRA BKN010 FEW020CB BECMG 0808/0810 20010KT PROB30 TEMPO 0815/0819 TS
EBAW,TAF EBAW 071703Z 0718/0803 05008KT CAVOK
EBBR,TAF EBBR 071710Z 0718/0824 05008KT CAVOK
EBCI,TAF EBCI 071710Z 0718/0824 04009KT CAVOK PROB30 TEMPO 0802/0807 BKN006 PROB30 TEMPO 0811/0819 VRB15G25KT 4500 SHRA TSRA
EBLG,TAF EBLG 071710Z 0718/0824 04009KT CAVOK PROB30 TEMPO 0802/0807 BKN006 PROB30 TEMPO 0811/0819 VRB15G25KT 4500 SHRA TSRA
EBOS,TAF EBOS 071710Z 0718/0824 03015KT CAVOK TEMPO 0802/0808 SCT008 BKN012
EDAC,TAF EDAC 071700Z 0718/0803 VRB03KT CAVOK PROB40 TEMPO 0718/0803 SHRA BKN060CB
EDAH,TAF EDAH 071400Z 0715/0724 03009KT CAVOK BECMG 0717/0719 04004KT
EDBC,TAF EDBC 071100Z 0712/0721 03005KT CAVOK PROB30 TEMPO 0713/0719 09015G25KT TSRA BKN030CB
EDDB,TAF EDDB 071700Z 0718/0818 03007KT CAVOK
EDDC,TAF EDDC 071700Z 0718/0818 VRB03KT CAVOK PROB30 TEMPO 0800/0804 4500 BR BECMG 0808/0811 04005KT PROB30 TEMPO 0812/0815 4500 SHRA SCT045CB
EDDE,TAF EDDE 071700Z 0718/0818 07004KT CAVOK PROB40 TEMPO 0802/0806 SHRA SCT045CB PROB30 TEMPO 0813/0817 10015G30KT TSRA SCT060CB
EDDF,TAF EDDF 071700Z 0718/0824 03007KT CAVOK PROB30 TEMPO 0718/0721 -TSRA BKN035CB PROB40 TEMPO 0812/0818 TSRA BKN035CB
EDDG,TAF EDDG 071700Z 0718/0818 02006KT CAVOK
EDDH,TAF EDDH 071700Z 0718/0824 31009KT CAVOK BECMG 0719/0721 32003KT PROB30 TEMPO 0803/0805 1200 BCFG BKN002 BECMG 0809/0811 32008KT BECMG 0818/0820 04003KT
EDDK,TAF EDDK 071700Z 0718/0824 35007KT 9999 SCT035 TEMPO 0718/0720 SHRA BKN030CB BECMG 0719/0722 VRB03KT PROB30 TEMPO 0803/0806 3000 BR BECMG 0808/0811 07006KT TEMPO 0812/0820 SHRA BKN030CB PROB30 TEMPO 0813/0817 02015G25KT 4500 TSRA
EDDL,TAF EDDL 071700Z 0718/0824 03007KT 9999 SCT025 PROB30 TEMPO 0814/0817 04015G25KT TSRA BKN030CB
EDDM,TAF EDDM 071700Z 0718/0824 06003KT CAVOK TEMPO 0802/0805 1200 BCFG PROB30 TEMPO 0810/0815 27015KT 3000 TSRA SCT030CB TEMPO 0815/0818 27015G35KT 3000 TSRAGS SCT040CB PROB30 TEMPO 0818/0821 27015G35KT 3000 TSRAGS SCT040CB
EDDN,TAF EDDN 071700Z 0718/0818 06005KT CAVOK PROB30 TEMPO 0810/0812 23015G25KT TSRA SCT045CB TEMPO 0812/0818 06015G30KT 3000 TSRA BKN030CB
EDDP,TAF EDDP 071700Z 0718/0818 VRB03KT CAVOK PROB40 TEMPO 0718/0807 SHRA BKN060CB PROB30 TEMPO 0802/0806 10015KT TSRA SCT040CB BECMG 0807/0810 03005KT BECMG 0811/0814 09008KT PROB30 TEMPO 0813/0817 10015G30KT TSRA SCT060CB
EDDR,TAF COR EDDR 071747Z 0718/0818 07006KT CAVOK PROB40 TEMPO 0718/0720 -TSRA BKN035CB PROB40 TEMPO 0812/0817 -TSRA BKN030CB
EDDS,TAF EDDS 071700Z 0718/0818 35006KT CAVOK BECMG 0720/0723 VRB02KT BECMG 0807/0810 04006KT PROB30 TEMPO 0812/0818 4000 TSRA BKN040CB
EDDV,TAF EDDV 071700Z 0718/0818 01004KT CAVOK PROB30 TEMPO 0814/0818 SHRA SCT040CB
EDDW,TAF EDDW 071700Z 0718/0818 34009KT CAVOK BECMG 0720/0722 36004KT PROB30 TEMPO 0803/0805 3000 BR BKN003 BECMG 0810/0812 02009KT PROB30 TEMPO 0814/0818 SHRA SCT040CB
EDFH,TAF EDFH 071700Z 0718/0818 01006KT 9999 SCT035 PROB30 TEMPO 0718/0720 TSRA SCT015 BKN030CB PROB30 TEMPO 0803/0807 1300 BCFG BKN001 PROB40 TEMPO 0812/0818 4000 TSRA SCT010 BKN025CB
EDFM,TAF EDFM 071700Z 0718/0721 03005KT CAVOK
EDGS,TAF EDGS 071700Z 0718/0803 05006KT 9999 FEW020
EDHI,TAF EDHI 071700Z 0718/0721 31007KT CAVOK
EDHK,TAF EDHK 071400Z 0715/0719 28006KT CAVOK
EDHL,TAF EDHL 071700Z 0718/0721 01004KT CAVOK
EDJA,TAF EDJA 071700Z 0718/0803 06004KT CAVOK
EDLN,TAF EDLN 071700Z 0718/0803 01006KT 9999 FEW035
EDLP,TAF EDLP 071700Z 0718/0818 04006KT 9999 SCT040 BECMG 0718/0720 VRB02KT BECMG 0806/0809 08007KT TEMPO 0812/0818 SHRA BKN030CB PROB30 TEMPO 0813/0817 06015G25KT 4500 TSRA
EDLV,TAF EDLV 071700Z 0718/0818 03005KT CAVOK
EDLW,TAF EDLW 071700Z 0718/0818 04005KT 9999 FEW030 BECMG 0719/0721 VRB03KT BECMG 0808/0811 05007KT PROB40 TEMPO 0812/0818 SHRA BKN025CB PROB30 TEMPO 0813/0817 06015G25KT 4500 TSRA
EDMA,TAF EDMA 071700Z 0718/0803 04004KT CAVOK
EDMO,TAF EDMO 071700Z 0718/0803 34006KT CAVOK BECMG 0718/0720 04004KT
EDNY,TAF EDNY 071700Z 0718/0818 03006KT CAVOK BECMG 0810/0812 23005KT TEMPO 0810/0818 23015G35KT 3000 TSRA SCT070CB BECMG 0814/0816 03005KT
EDQM,TAF EDQM 071700Z 0718/0803 04011KT CAVOK BECMG 0718/0720 VRB03KT PROB30 TEMPO 0723/0803 SHRA BKN020CB
EDSB,TAF EDSB 071700Z 0718/0818 01006KT CAVOK PROB30 TEMPO 0812/0817 TSRA BKN035CB
EDTL,TAF EDTL 071700Z 0718/0724 01007KT CAVOK BECMG 0719/0721 VRB02KT
EDTY,TAF EDTY 071700Z 0718/0803 VRB03KT CAVOK
EDVE,TAF EDVE 071700Z 0718/0721 01003KT CAVOK
EDVK,TAF EDVK 071700Z 0718/0803 07008KT CAVOK BECMG 0718/0721 VRB03KT
EDWE,TAF EDWE 071700Z 0718/0721 01008KT CAVOK PROB30 TEMPO 0719/0721 BKN009
EDXW,TAF EDXW 071700Z 0718/0721 32010KT 9999 OVC008
EEEI,TAF EEEI 071730Z 0718/0818 29007KT CAVOK BECMG 0722/0724 VRB02KT PROB40 TEMPO 0723/0803 3000 MIFG SCT003 BECMG 0809/0811 28010KT PROB40 TEMPO 0813/0816 5000 SHRA BKN025 SCT032CB
EEKA,TAF EEKA 071200Z 0713/0719 34007KT CAVOK
EEKE,TAF EEKE 071400Z 0715/0721 16005KT CAVOK
EETN,TAF EETN 071730Z 0718/0818 27012KT CAVOK BECMG 0720/0722 VRB02KT BECMG 0810/0812 29012KT
EFHK,TAF EFHK 071732Z 0718/0818 27007KT CAVOK BECMG 0808/0810 21010KT TEMPO 0811/0813 27010KT 7000 -RA BECMG 0813/0815 33008KT
EFJY,TAF EFJY 071732Z 0718/0818 29007KT 9999 BKN045 TEMPO 0805/0810 5000 RADZ BKN009
EFKE,TAF EFKE 071738Z 0718/0803 23010KT CAVOK TEMPO 0718/0801 FEW040TCU
EFKI,TAF EFKI 071732Z 0718/0803 22004KT CAVOK
EFKK,TAF EFKK 071738Z 0718/0803 26008KT CAVOK
EFKS,TAF EFKS 071738Z 0718/0721 30004KT 9999 FEW040 TEMPO 0718/0721 SHRA FEW040CB
EFKU,TAF EFKU 071732Z 0718/0818 26008KT CAVOK TEMPO 0806/0810 6000 SHRA BKN030CB PROB40 TEMPO 0808/0810 BKN010 TEMPO 0810/0815 SHRA FEW030CB BECMG 0812/0815 32010KT
EFMA,TAF EFMA 071732Z 0718/0803 18008KT CAVOK
EFOU,TAF EFOU 071738Z 0718/0818 28009KT CAVOK TEMPO 0723/0809 FEW030TCU TEMPO 0809/0815 32015G27KT 7000 -SHRA FEW030CB
EFRO,TAF EFRO 071738Z 0718/0818 23007KT 9999 FEW040 TEMPO 0718/0721 FEW035CB PROB40 0723/0803 7000 RA BKN008 FEW035TCU PROB40 0804/0806 BKN012 TEMPO 0806/0812 BKN008 FEW020TCU BECMG 0806/0809 36010G22KT
EFSI,TAF EFSI 071732Z 0718/0803 27007KT CAVOK
EFTP,TAF EFTP 071732Z 0718/0818 28009KT CAVOK TEMPO 0803/0810 7000 RA BKN009
EFTU,TAF EFTU 071732Z 0718/0818 24007KT CAVOK TEMPO 0802/0812 SCT050CB PROB40 0808/0811 4000 -SHRA BECMG 0812/0814 33010KT
EFVA,TAF EFVA 071738Z 0718/0818 27009KT CAVOK TEMPO 0723/0804 RA BECMG 0812/0815 34010KT
EGAA,TAF EGAA 071700Z 0718/0818 08008KT 9999 FEW030 PROB30 0801/0806 7000 PROB40 TEMPO 0804/0809 BKN009
EGAC,TAF EGAC 071658Z 0718/0721 05009KT 9999 FEW030
EGAE,TAF EGAE 071658Z 0718/0721 04012KT 9999 FEW035
EGBB,TAF EGBB 071657Z 0718/0818 07009KT 9999 SCT025 PROB40 0722/0724 BKN014 TEMPO 0800/0807 BKN012 PROB30 TEMPO 0802/0807 BKN009 PROB30 TEMPO 0807/0810 BKN014
EGBJ,TAF EGBJ 071357Z 0715/0719 06007KT 9999 FEW045
EGCC,TAF EGCC 071658Z 0718/0824 09006KT 9999 SCT030 PROB30 TEMPO 0803/0808 BKN014
EGCK,TAF EGCK 071658Z 0718/0803 22008KT 9999 FEW030
EGDR,TAF EGDR 071644Z 0718/0803 09023G35KT 9999 FEW020
EGDY,TAF EGDY 071631Z 0718/0803 07008KT CAVOK PROB30 0802/0803 SCT010
EGFF,TAF EGFF 071655Z 0718/0818 06012KT 9999 FEW034 PROB30 TEMPO 0723/0810 07015G25KT PROB30 TEMPO 0803/0808 BKN010
EGGD,TAF EGGD 071655Z 0718/0818 06014KT 9999 FEW030 BECMG 0802/0805 BKN012 PROB30 TEMPO 0803/0807 BKN008 BECMG 0808/0811 FEW030
EGGP,TAF EGGP 071658Z 0718/0818 09008KT 9999 SCT030
EGGW,TAF EGGW 071655Z 0718/0818 05009KT 9999 FEW034 BECMG 0723/0802 OVC011 PROB30 TEMPO 0802/0807 BKN006 BECMG 0808/0811 FEW025
EGHH,TAF EGHH 071656Z 0718/0724 08008KT 9999 FEW045
EGHI,TAF EGHI 071656Z 0718/0722 07008KT 9999 FEW045
EGHQ,TAF EGHQ 071657Z 0718/0803 14010KT 9999 FEW045 BECMG 0718/0720 08009KT PROB30 TEMPO 0722/0724 09015G25KT TEMPO 0800/0803 09015G25KT
EGJA,TAF AMD EGJA 071735Z 0718/0803 08020KT CAVOK PROB40 TEMPO 0718/0803 08022G32KT BECMG 0800/0802 5000 HZ BKN004
EGJB,TAF EGJB 071659Z 0718/0803 06016KT CAVOK PROB40 TEMPO 0718/0803 07018G28KT PROB30 TEMPO 0801/0803 7000 BKN005
EGJJ,TAF EGJJ 071659Z 0718/0803 07018G28KT CAVOK TEMPO 0718/0803 07016KT
EGKA,TAF EGKA 071359Z 0715/0719 03013KT CAVOK
EGKB,TAF EGKB 071705Z 0718/0722 06010KT CAVOK PROB40 TEMPO 0720/0722 BKN012
EGKK,TAF EGKK 071704Z 0718/0824 06011KT CAVOK TEMPO 0722/0808 BKN011 PROB30 TEMPO 0801/0806 BKN007
EGLC,TAF EGLC 071705Z 0718/0721 09012KT CAVOK
EGLF,TAF EGLF 071705Z 0718/0721 06010KT CAVOK
EGLL,TAF EGLL 071659Z 0718/0824 07010KT 9999 FEW045 TEMPO 0801/0809 BKN014
EGMC,TAF EGMC 071705Z 0718/0720 07013KT CAVOK
EGMD,TAF EGMD 071705Z 0718/0803 04014KT CAVOK TEMPO 0722/0803 BKN011 PROB30 TEMPO 0723/0803 BKN005
EGNH,TAF EGNH 071658Z 0718/0720 13009KT 9999 FEW030
EGNJ,TAF EGNJ 071658Z 0718/0803 06007KT 9999 BKN020 TEMPO 0718/0803 BKN012
EGNM,TAF EGNM 071657Z 0718/0818 06008KT 9999 BKN020 PROB40 0722/0810 BKN008
EGNR,TAF EGNR 071658Z 0718/0720 09008KT 9999 FEW030
EGNS,TAF EGNS 071357Z 0715/0721 09012KT 9999 FEW025
EGNT,TAF EGNT 071657Z 0718/0818 09005KT 9999 BKN020 PROB30 TEMPO 0723/0810 8000 -DZ BKN014
EGNV,TAF EGNV 071658Z 0718/0721 06006KT 9999 BKN025 PROB40 TEMPO 0718/0721 BKN012
EGNX,TAF EGNX 071657Z 0718/0818 06010KT 9999 SCT025 PROB40 0721/0724 BKN012 TEMPO 0800/0808 BKN010 PROB40 TEMPO 0800/0807 BKN008 PROB30 TEMPO 0808/0812 BKN012
EGOS,TAF EGOS 071647Z 0718/0803 09008KT 9999 FEW030 BECMG 0723/0802 BKN018 PROB40 0800/0803 BKN012
EGOV,TAF EGOV 071338Z 0715/0719 07015KT CAVOK
EGPA,TAF EGPA 071656Z 0718/0803 08003KT 9999 FEW040 PROB30 TEMPO 0722/0803 BKN010
EGPB,TAF EGPB 071656Z 0718/0803 35007KT 9999 FEW025 PROB40 TEMPO 0718/0803 BKN008
EGPC,TAF EGPC 071656Z 0718/0803 12005KT 9999 BKN040
EGPD,TAF EGPD 071654Z 0718/0818 12010KT 9999 SCT018 BECMG 0720/0723 20005KT BECMG 0808/0811 11010KT
EGPE,TAF EGPE 071656Z 0718/0803 05007KT 9999 SCT040
EGPF,TAF EGPF 071654Z 0718/0818 07009KT 9999 SCT020 PROB40 TEMPO 0800/0807 BKN014
EGPH,TAF EGPH 071654Z 0718/0818 07007KT 9999 SCT016 PROB40 TEMPO 0800/0807 BKN014
EGPK,TAF EGPK 071654Z 0718/0818 05008KT 9999 FEW040 PROB30 0718/0720 27010KT
EGPL,TAF EGPL 071356Z 0715/0724 06007KT 9999 FEW035
EGPN,TAF EGPN 071656Z 0718/0721 09005KT 9999 BKN020
EGPO,TAF EGPO 071656Z 0718/0803 04009KT 9999 SCT020
EGQL,TAF EGQL 071629Z 0718/0803 11008KT 9999 FEW024 BECMG 0718/0722 BKN024 PROB30 TEMPO 0720/0803 SCT010
EGQS,TAF EGQS 071624Z 0718/0812 08015KT 9999 SCT045 BECMG 0718/0721 11011KT
EGSC,TAF EGSC 071102Z 0712/0721 05009KT 9999 FEW025
EGSH,TAF EGSH 071658Z 0718/0803 04008KT 9999 BKN020 TEMPO 0718/0803 BKN014 PROB30 TEMPO 0801/0803 BKN006
EGSS,TAF EGSS 071655Z 0718/0824 05009KT 9999 FEW037 BECMG 0722/0801 OVC011 PROB30 TEMPO 0801/0807 BKN008 BECMG 0808/0811 FEW025 PROB30 TEMPO 0822/0824 BKN010
EGSY,TAF EGSY 071656Z 0718/0803 07012KT 9999 FEW045 PROB30 TEMPO 0721/0803 06015G25KT PROB30 TEMPO 0802/0803 BKN010
EGTE,TAF EGTE 071657Z 0718/0803 14010KT 9999 FEW045 BECMG 0721/0724 03007KT
EGTK,TAF EGTK 071703Z 0718/0722 06009KT CAVOK
EGUB,TAF EGUB 071626Z 0718/0724 05010KT 9999 FEW035 PROB40 0722/0724 BKN014
EGUL,TAF EGUL 071300Z 0713/0819 03010G15KT 9999 SCT025 QNH3016INS BECMG 0721/0722 05006KT 5000 BR BKN010 QNH3015INS TEMPO 0802/0808 3200 BR BKN008 BECMG 0809/0810 07012KT 9999 NSW BKN015 QNH3010INS BECMG 0812/0813 07012G18KT 9999 SCT020 QNH3005INS TX19/0813Z TN09/0804Z
EGUN,TAF EGUN 071200Z 0712/0818 05010G15KT 9999 SCT025 SCT200 QNH3018INS BECMG 0718/0719 05010KT 9999 BKN020 QNH3017INS BECMG 0801/0803 05010KT 9999 SCT007 OVC012 QNH3017INS BECMG 0806/0808 06012KT 9999 SCT012 BKN020 QNH3014INS BECMG 0812/0813 06010G15KT 9999 SCT020 BKN060 QNH3012INS TEMPO 0813/0818 06010G20KT TX20/0714Z TN07/0804Z
EGUW,TAF EGUW 071635Z 0718/0801 05012KT 9999 FEW025 BECMG 0718/0720 BKN018 BECMG 0721/0724 BKN012
EGVA,TAF EGVA 071200Z 0712/0818 06010G15KT 9999 FEW010 SCT020 QNH3011INS BECMG 0803/0804 06009KT 9000 BCFG BKN008 OVC015 QNH3012INS BECMG 0805/0806 06012KT 9999 NSW FEW008 BKN018 QNH3011INS BECMG 0809/0810 07012G18KT 9999 SCT025 QNH3009INS TX20/0716Z TN09/0804Z
EGVN,TAF EGVN 071629Z 0718/0818 06011KT 9999 FEW025 BECMG 0723/0802 BKN015 PROB40 0723/0809 BKN008 BECMG 0810/0812 FEW025
EGVO,TAF EGVO 071628Z 0718/0806 07010KT 9999 FEW035 BECMG 0722/0801 BKN015 PROB40 0801/0806 BKN012
EGVP,TAF EGVP 071629Z 0718/0802 06010KT CAVOK PROB30 0801/0802 BKN013
EGWU,TAF EGWU 071642Z 0718/0812 06010KT 9999 FEW045 BECMG 0720/0723 BKN020 PROB30 0723/0809 BKN013 BECMG 0810/0812 FEW025
EGXC,TAF EGXC 071638Z 0718/0812 06010KT 9999 BKN025 BECMG 0718/0719 BKN020 PROB30 TEMPO 0720/0808 BKN012 PROB30 TEMPO 0810/0812 BKN025
EGXW,TAF EGXW 071640Z 0718/0812 07008KT 9999 BKN020 PROB30 TEMPO 0718/0808 BKN010 BECMG 0810/0812 SCT025
EGYM,TAF EGYM 071401Z 0715/0724 05012KT 9999 SCT026 BECMG 0717/0720 SCT012
EGYP,TAF EGYP 071618Z 0718/0812 28020KT 9999 FEW018 SCT030 PROB30 TEMPO 0718/0720 27028G38KT 7000 SHRA SCT018CB PROB30 TEMPO 0720/0724 27020G30KT -SHRA SCT018 PROB30 TEMPO 0800/0806 SCT018 BECMG 0806/0809 29010KT
EHAM,TAF EHAM 071708Z 0718/0824 04011KT CAVOK PROB30 0803/0807 SCT008 BKN012
EHBK,TAF EHBK 071724Z 0718/0824 05008KT 9999 SCT040 PROB30 TEMPO 0721/0724 -SHRA FEW060CB PROB30 TEMPO 0813/0818 06015G25KT 7000 -SHRA TSRA FEW060CB
EHEH,TAF EHEH 071753Z 0718/0824 02009KT CAVOK PROB40 TEMPO 0812/0818 07012G22KT SCT050CB
EHGG,TAF EHGG 071725Z 0718/0824 03008KT CAVOK BECMG 0723/0802 BKN009 BECMG 0805/0807 CAVOK
EHGR,TAF AMD EHGR 071117Z 0709/0721 03009KT CAVOK PROB40 TEMPO 0711/0717 SCT040CB
EHKD,TAF EHKD 071603Z 0717/0805 03012KT 9999 FEW013 PROB40 0717/0805 SCT010 BKN013 BECMG 0720/0722 03008KT
EHLE,TAF EHLE 071708Z 0718/0824 03010KT CAVOK PROB30 0803/0807 BKN008
EHLW,TAF EHLW 071607Z 0717/0805 03012KT 9999 FEW015 BECMG 0720/0722 02005KT PROB40 0722/0805 SCT010 BKN013
EHRD,TAF EHRD 071708Z 0718/0824 04010KT CAVOK
EHVK,TAF EHVK 071602Z 0717/0805 02007KT CAVOK
EHWO,TAF AMD EHWO 071122Z 0709/0721 05010KT CAVOK PROB30 TEMPO 0711/0717 SCT045CB
EICK,TAF EICK 071700Z 0718/0818 09012KT 9999 FEW020 BECMG 0720/0722 06005KT BECMG 0805/0807 08012KT TEMPO 0810/0817 08018G28KT
EIDL,TAF EIDL 071700Z 0718/0803 03015KT 9999 FEW040 BECMG 0721/0723 06005KT
EIDW,TAF EIDW 071700Z 0718/0818 08013KT 9999 FEW018 BKN020 BECMG 0718/0720 05008KT BECMG 0722/0723 VRB03KT BECMG 0806/0808 07012KT
EIKN,TAF EIKN 071700Z 0718/0818 09008KT 9999 FEW030
EIKY,TAF EIKY 071700Z 0718/0803 10010KT CAVOK BECMG 0718/0720 24010KT BECMG 0721/0723 VRB03KT
EIME,TAF EIME 071700Z 0718/0803 08012KT 9999 FEW020 BECMG 0722/0724 VRB03KT
EINN,TAF EINN 071700Z 0718/0818 08010KT 9999 FEW040 BECMG 0722/0724 05005KT BECMG 0808/0810 09010KT
EISG,TAF EISG 071700Z 0718/0803 09010KT 9999 SCT040 BECMG 0722/0724 12005KT
EIWF,TAF EIWF 071700Z 0718/0803 09008KT CAVOK
EKAH,TAF EKAH 071708Z 0718/0818 20003KT CAVOK PROB40 0800/0806 0300 FG VV002 PROB40 0806/0808 BKN004
EKBI,TAF EKBI 071708Z 0718/0818 29007KT CAVOK PROB40 0721/0723 BKN007 PROB40 0723/0806 0300 FG VV002 PROB40 0806/0808 BKN004
EKCH,TAF EKCH 071708Z 0718/0818 19010KT CAVOK BECMG 0718/0721 36005KT BECMG 0810/0813 18010KT BECMG 0816/0818 02003KT
EKEB,TAF EKEB 071425Z 0715/0721 29008KT CAVOK BECMG 0720/0721 BKN008
EKGC,TAF EKGC 071428Z 0715/0721 34018KT 9999 BKN014 BECMG 0715/0717 SCT016 TEMPO 0719/0721 BKN012
EKHD,TAF EKHD 071427Z 0715/0721 35020KT 9999 FEW016 TEMPO 0719/0721 BKN012
EKKA,TAF EKKA 071700Z 0718/0818 28005KT 9999 FEW200 TEMPO 0721/0724 5000 BR BKN008 TEMPO 0800/0806 0500 FG VV001 TEMPO 0806/0808 6000 BKN004
EKRK,TAF EKRK 071726Z 0718/0803 34005KT CAVOK
EKRN,TAF EKRN 071700Z 0718/0803 26006KT 9999 FEW200
EKSB,TAF EKSB 071755Z 0718/0722 27005KT CAVOK
EKSP,TAF EKSP 071700Z 0718/0818 27006KT 9999 FEW015 TEMPO 0721/0724 4000 BR BKN008 TEMPO 0800/0806 0100 FG VV001 TEMPO 0806/0808 6000 BKN004
EKVG,TAF EKVG 071408Z 0715/0721 31007KT 9999 FEW018 BKN035
EKYT,TAF EKYT 071700Z 0718/0818 27005KT 9999 FEW200 PROB40 0721/0724 6000 BKN010 PROB40 0800/0806 1000 BCFG VV002 TEMPO 0806/0808 BKN008
ELLX,TAF ELLX 071700Z 0718/0824 04009KT CAVOK TEMPO 0718/0719 -TSRAGR SCT050CB PROB30 TEMPO 0812/0818 04015G25KT TSRA BKN040CB
ENAL,TAF ENAL 071400Z 0715/0723 34008KT 9999 FEW012 BKN030 TEMPO 0715/0723 BKN009
ENAN,TAF ENAN 071700Z 0718/0818 04015KT 9999 -RA FEW015 BKN025 BECMG 0803/0805 34012KT TEMPO 0805/0818 SCT015TCU
ENAT,TAF ENAT 071400Z 0715/0722 34005KT 9999 SCT040 PROB30 TEMPO 0715/0717 FEW020CB
ENBL,TAF ENBL 071400Z 0715/0722 32007KT 9999 FEW035
ENBN,TAF ENBN 071700Z 0718/0803 28009KT 9999 FEW010 BKN030 TEMPO 0718/0803 SHRA FEW010CB BKN012
ENBO,TAF ENBO 071700Z 0718/0818 33008KT 9999 FEW015 BKN030 TEMPO 0718/0803 27020KT SHRA FEW010CB BKN012
ENBR,TAF ENBR 071700Z 0718/0818 34012KT CAVOK PROB30 0800/0806 BKN008
ENBS,TAF ENBS 071400Z 0715/0722 28009KT 9999 FEW015 BKN025 TEMPO 0715/0718 FEW015CB SCT020
ENBV,TAF ENBV 071400Z 0715/0723 31012KT 9999 FEW020 BKN040 TEMPO 0715/0718 FEW020CB SCT030 TEMPO 0721/0723 BKN014
ENCN,TAF ENCN 071400Z 0715/0722 20008KT 9999 FEW004 PROB40 0715/0722 2000 BCFG BKN004
ENDU,TAF ENDU 071700Z 0718/0818 30005KT 9999 -RA FEW020 BKN040 TEMPO 0804/0818 SCT020TCU BKN035
ENEV,TAF ENEV 071700Z 0718/0818 15005KT 9999 -RADZ FEW005 SCT009 BKN020 TEMPO 0718/0724 4000 RADZ BKN009 BECMG 0721/0723 36012KT TEMPO 0808/0818 FEW025TCU BKN040
ENFL,TAF ENFL 071700Z 0718/0803 33012KT 9999 FEW010 SCT040 BECMG 0722/0724 03005KT
ENGC,TAF ENGC 071700Z 0718/0818 34015KT 9999 FEW015 BKN030 PROB30 TEMPO 0718/0809 BKN012 BECMG 0803/0806 01025KT
ENGM,TAF ENGM 071700Z 0718/0818 20010KT CAVOK BECMG 0723/0801 02012KT
ENHD,TAF ENHD 071400Z 0715/0721 35022KT CAVOK
ENHE,TAF ENHE 071700Z 0718/0803 31015KT 9999 FEW015TCU BKN030
ENHF,TAF ENHF 071700Z 0718/0803 27008KT 9999 -SHRA FEW010TCU BKN020
ENHK,TAF ENHK 071100Z 0712/0719 30009KT 9999 FEW015 BKN035
ENHV,TAF ENHV 071400Z 0715/0722 31008KT 9999 FEW020 BKN030 TEMPO 0715/0718 FEW020TCU
ENKB,TAF ENKB 071400Z 0715/0721 27012KT 9999 FEW015 BKN030 PROB40 TEMPO 0715/0721 BKN009
ENKR,TAF ENKR 071700Z 0718/0803 32008KT 9999 -SHRA SCT030
ENLE,TAF ENLE 071700Z 0718/0803 35018KT 9999 FEW020 PROB30 0801/0803 BKN010
ENMH,TAF ENMH 071400Z 0715/0722 30009KT 9999 FEW015 BKN030 TEMPO 0715/0718 SCT015TCU
ENML,TAF ENML 071700Z 0718/0724 34006KT 9999 FEW015 BKN030 PROB30 TEMPO 0718/0724 BKN014
ENMS,TAF COR ENMS 071400Z 0715/0721 30008KT 9999 FEW010TCU BKN020 TEMPO 0715/0721 SHRA
ENNA,TAF ENNA 071700Z 0718/0818 01008KT 9999 FEW030 BKN060 TEMPO 0718/0806 FEW020TCU BECMG 0808/0810 33018KT
ENNM,TAF ENNM 071400Z 0715/0721 26007KT 9999 -RA FEW006 BKN018 TEMPO 0715/0721 4000 RADZ BR SCT006 BKN009
ENOA,TAF ENOA 071700Z 0718/0818 35018KT 9999 FEW015 SCT030 PROB30 TEMPO 0718/0806 BKN012 BECMG 0803/0805 01028KT
ENOL,TAF ENOL 071700Z 0718/0818 32010KT 9999 -RA FEW008 BKN020 TEMPO 0718/0724 BKN012 TEMPO 0800/0808 SCT020TCU
ENOV,TAF ENOV 071400Z 0715/0723 VRB03KT 9999 FEW020 BKN040 PROB30 0718/0723 BKN008
ENRA,TAF ENRA 071400Z 0715/0722 26008KT 9999 FEW010TCU BKN020 TEMPO 0715/0722 SHRA
ENRM,TAF ENRM 071400Z 0715/0723 27012KT 9999 -DZRA FEW006 BKN020 TEMPO 0715/0723 4000 DZRA BR SCT006 BKN009
ENRO,TAF ENRO 071100Z 0712/0719 35007KT 9999 FEW020 SCT040 PROB30 0718/0719 BKN014
ENRS,TAF AMD ENRS 071623Z 0716/0720 31012KT 9999 -SHRA SCT015 BKN020
ENRY,TAF ENRY 071700Z 0718/0818 20010KT CAVOK PROB40 0723/0804 0500 FG VV001 BECMG 0802/0804 04010KT
ENSB,TAF ENSB 071700Z 0718/0818 27008KT 9999 FEW010 TEMPO 0806/0818 25020KT
ENSD,TAF ENSD 071400Z 0715/0722 31005KT 9999 FEW020 SCT040 PROB30 0720/0722 BKN008
ENSG,TAF ENSG 071100Z 0712/0720 25005KT CAVOK
ENSH,TAF ENSH 071400Z 0715/0722 22008KT 9999 -RA FEW010 BKN020 TEMPO 0715/0722 36010KT PROB40 0715/0722 BKN008
ENSK,TAF ENSK 071100Z 0712/0720 14008KT 9999 -RA FEW015 BKN020 TEMPO 0712/0718 4000 DZRA BKN009 BECMG 0714/0716 03010KT
ENSR,TAF ENSR 071100Z 0712/0719 34008KT 9999 FEW020 SCT040
ENSS,TAF ENSS 071400Z 0715/0721 33008KT 9999 BKN020 PROB30 TEMPO 0715/0721 BKN014
ENTC,TAF ENTC 071700Z 0718/0818 03008KT 9999 -SHRA FEW010TCU BKN025 TEMPO 0803/0818 30012KT
ENTO,TAF ENTO 071700Z 0718/0818 19010KT CAVOK PROB40 0723/0804 0300 FG VV001 BECMG 0803/0805 03012KT
ENVA,TAF ENVA 071700Z 0718/0818 29012KT 9999 FEW015 BKN030 PROB40 TEMPO 0718/0806 4000 -DZ BR BKN012 BECMG 0815/0818 05005KT
ENVD,TAF AMD ENVD 071519Z 0715/0721 28009KT 9999 -SHRA FEW010 BKN040 TEMPO 0715/0720 SHRA FEW020CB SCT040
ENZV,TAF ENZV 071700Z 0718/0818 33015KT CAVOK PROB30 0800/0807 34005KT BKN008
EPBY,TAF EPBY 071730Z 0718/0818 VRB03KT CAVOK TEMPO 0718/0721 06010KT BECMG 0809/0811 08010KT
EPCE,TAF EPCE 071700Z 0718/0806 05004KT CAVOK BECMG 0718/0720 VRB02KT PROB30 0721/0805 5000 BR NSC
EPDA,TAF EPDA 071700Z 0718/0806 35006KT CAVOK TEMPO 0720/0806 VRB02KT
EPDE,TAF EPDE 071700Z 0718/0806 08004KT CAVOK PROB30 0800/0806 BKN014 BKN027
EPGD,TAF EPGD 071730Z 0718/0818 05010KT CAVOK BECMG 0718/0721 VRB02KT
EPIR,TAF EPIR 071700Z 0718/0806 05006KT CAVOK
EPKK,TAF EPKK 071730Z 0718/0818 06006KT 9999 SCT040 PROB30 TEMPO 0718/0719 -SHRA BKN030CB BECMG 0723/0801 BKN012 TEMPO 0801/0805 3000 BR OVC007 PROB40 0801/0805 1200 BR OVC004 BECMG 0806/0809 BKN025 TEMPO 0810/0818 -SHRA BKN020CB
EPKS,TAF EPKS 071700Z 0718/0806 07006KT CAVOK
EPKT,TAF EPKT 071730Z 0718/0818 10008KT 9999 SCT045 TEMPO 0718/0721 -SHRA BKN030CB PROB30 TEMPO 0718/0719 VRB15G27KT 4000 TSRA BKN014CB BECMG 0722/0801 4000 BR BKN009 TEMPO 0801/0805 1400 BR OVC004 BECMG 0805/0808 9999 BKN025 TEMPO 0810/0818 -SHRA BKN020CB
EPLB,TAF EPLB 071730Z 0718/0818 10006KT 9999 SCT030 PROB40 TEMPO 0721/0807 BKN014 BKN020 TEMPO 0812/0816 -SHRA SCT025TCU
EPLL,TAF EPLL 071730Z 0718/0818 VRB05KT CAVOK PROB40 0718/0720 SCT060CB BECMG 0807/0809 07010KT TEMPO 0809/0816 08015G25KT
EPLY,TAF EPLY 071700Z 0718/0806 08004KT CAVOK
EPMB,TAF EPMB 071700Z 0718/0806 04008KT CAVOK BECMG 0719/0721 VRB03KT
EPMI,TAF EPMI 071700Z 0718/0806 01008KT CAVOK
EPMM,TAF EPMM 071700Z 0718/0806 11006KT CAVOK
EPMO,TAF EPMO 071730Z 0718/0818 VRB05KT CAVOK BECMG 0807/0809 08010KT
EPOK,TAF EPOK 071700Z 0718/0806 01007KT CAVOK BECMG 0719/0722 VRB02KT
EPPO,TAF EPPO 071730Z 0718/0818 03007KT CAVOK
EPPR,TAF EPPR 071100Z 0712/0724 09008KT CAVOK
EPPW,TAF EPPW 071700Z 0718/0806 07006KT CAVOK
EPRA,TAF EPRA 071730Z 0718/0803 11006KT CAVOK PROB30 TEMPO 0718/0720 6000 SHRA SCT040CB
EPRZ,TAF EPRZ 071730Z 0718/0818 10007KT CAVOK PROB40 TEMPO 0718/0720 -SHRA BKN017CB BECMG 0722/0724 BKN010 TEMPO 0800/0805 3000 BR OVC006 BECMG 0806/0809 BKN025 TEMPO 0810/0818 -SHRA BKN020CB PROB40 TEMPO 0812/0818 VRB17G30KT 3000 TSRA BKN014CB
EPSC,TAF EPSC 071730Z 0718/0818 01007KT CAVOK
EPSN,TAF EPSN 071700Z 0718/0806 02006KT CAVOK
EPSY,TAF EPSY 071730Z 0718/0803 06005KT CAVOK
EPTM,TAF EPTM 071100Z 0712/0724 09010KT CAVOK TEMPO 0712/0718 -SHRA SCT050TCU PROB30 TEMPO 0714/0718 VRB12G26KT 5000 TSRA BKN040CB
EPWA,TAF EPWA 071730Z 0718/0818 VRB05KT CAVOK PROB40 0718/0720 SCT060CB BECMG 0807/0809 09010KT
EPWR,TAF EPWR 071730Z 0718/0818 31012KT CAVOK PROB30 TEMPO 0718/0720 BKN050CB BECMG 0720/0722 VRB02KT BECMG 0810/0812 07010KT TEMPO 0810/0818 VRB15G25KT -SHRA BKN040CB
EPZG,TAF EPZG 071730Z 0718/0803 25006KT CAVOK
ESDF,TAF ESDF 071430Z 0715/0719 22007KT CAVOK
ESGG,TAF ESGG 071730Z 0718/0818 25004KT CAVOK PROB40 0723/0806 0300 FG VV002 PROB40 0806/0808 BKN009
ESGJ,TAF ESGJ 071730Z 0718/0801 04005KT CAVOK
ESGP,TAF ESGP 071730Z 0718/0721 28006KT CAVOK PROB40 0720/0721 BKN004
ESKN,TAF ESKN 071730Z 0718/0818 14012KT CAVOK BECMG 0805/0807 35007KT
ESMK,TAF ESMK 071407Z 0715/0719 13008KT CAVOK
ESMQ,TAF ESMQ 071730Z 0718/0722 12006KT CAVOK
ESMS,TAF ESMS 071705Z 0718/0818 23005KT CAVOK PROB40 0800/0804 0300 BCFG BKN002
ESMT,TAF ESMT 071407Z 0715/0719 28008KT CAVOK
ESMX,TAF ESMX 071730Z 0718/0801 17005KT CAVOK
ESNG,TAF ESNG 071730Z 0718/0721 27008KT 9999 BKN030
ESNN,TAF ESNN 071730Z 0718/0801 14012KT CAVOK PROB40 0721/0801 SHRA BKN040CB BECMG 0719/0721 32007KT
ESNO,TAF ESNO 071430Z 0715/0719 28009KT CAVOK
ESNQ,TAF ESNQ 071730Z 0718/0720 26012KT 9999 SCT035 BKN050 PROB40 0718/0720 RA BKN014 BECMG 0718/0720 32008KT
ESNS,TAF ESNS 071730Z 0718/0722 28010KT CAVOK
ESNU,TAF ESNU 071730Z 0718/0803 20008KT CAVOK BECMG 0720/0722 30010KT
ESNX,TAF ESNX 071730Z 0718/0720 27010KT 9999 FEW020 BKN045 TEMPO 0718/0720 SHRA BKN025CB
ESNZ,TAF ESNZ 071730Z 0718/0722 31012KT CAVOK TEMPO 0718/0722 SCT020CB
ESOE,TAF ESOE 071730Z 0718/0801 15009KT CAVOK
ESPA,TAF ESPA 071730Z 0718/0723 20005KT 9999 SCT045 BKN070 TEMPO 0719/0723 SHRA BKN040TCU
ESSA,TAF ESSA 071730Z 0718/0818 16012KT CAVOK BECMG 0804/0806 36010KT
ESSB,TAF ESSB 071730Z 0718/0721 16010KT CAVOK
ESSV,TAF ESSV 071730Z 0718/0720 11012KT CAVOK
ESTA,TAF ESTA 071705Z 0718/0721 30006KT CAVOK
ETAD,TAF AMD ETAD 071700Z 0717/0819 02012KT 9999 SCT040 SCT100 QNH2999INS TEMPO 0717/0719 VCTS SCT040 BKN100CB BECMG 0800/0801 VRB03KT 5000 BR FEW030 QNH2998INS BECMG 0804/0805 05008KT 9999 NSW SCT035 QNH2990INS TEMPO 0812/0815 5000 -TSRA BKN030CB TX24/0813Z TN12/0805Z
ETAR,TAF ETAR 071800Z 0718/0824 03009KT 9999 SCT050 QNH3002INS BECMG 0801/0802 VRB06KT 5000 BR FEW010 QNH2999INS BECMG 0806/0807 05006KT 9999 NSW SKC QNH2998INS BECMG 0810/0811 09009KT 9999 SCT060 QNH2992INS TEMPO 0811/0816 8000 -SHRA VCTS BKN060CB TX25/0812Z TN08/0803Z
ETEB,TAF AMD ETEB 071530Z 0715/0821 09006KT 9999 SCT050 QNH3001INS BECMG 0722/0723 10006KT 9000 BR FEW050 QNH2997INS BECMG 0808/0809 VRB03KT 9999 NSW SCT050 QNH2994INS TEMPO 0812/0817 09010G35KT8000 TSRA BKN050CB BECMG 0818/0819 VRB03KT 9999 SCT050 QNH2995INS TX23/0715Z TN13/0805Z LAST NO AMDS AFT 0722 NEXT 0807
ETHA,TAF ETHA 071020Z 0711/0720 05005KT 9999 NSW FEW040
ETHB,TAF ETHB 071604Z 0717/0802 35005KT 9999 NSW BKN080 PROB30 0717/0721 03010G25KT 3000 SHRA SCT012 BKN030CB
ETHC,TAF ETHC 071320Z 0714/0723 36005KT 9999 NSW SCT050 BKN090
ETHF,TAF ETHF 071320Z 0714/0723 06005KT 9999 NSW FEW030 SCT090
ETHL,TAF ETHL 071315Z 0714/0723 05005KT 9999 NSW FEW060
ETHN,TAF ETHN 071001Z 0711/0720 09005KT 9999 NSW SCT030
ETHS,TAF ETHS 071317Z 0714/0723 35007KT 9999 NSW SCT050 BKN110
ETIC,TAF ETIC 071800Z 0718/0824 07006KT 9999 BKN050 QNH2998INS TEMPO 0718/0719 6000 -SHRA BECMG 0720/0721 07003KT 9999 FEW050 SCT080 QNH2995INS TEMPO 0723/0805 5000 BR OVC030 TEMPO 0814/0817 5000 -TSRA BKN030CB BECMG 0817/0818 07003KT 9999 SCT050 QNH2994INS TX25/0812Z TN12/0802Z
ETIK,TAF ETIK 071400Z 0714/0820 06009KT 9999 SCT060 QNH2999INS BECMG 0716/0717 VRB06KT 9999 FEW060 QNH3001INS BECMG 0802/0803 VRB04KT 5000 BR FEW015 QNH3000INS BECMG 0806/0807 VRB06KT 9999 NSW FEW015 SCT023 QNH2998INS BECMG 0810/0811 06009KT 9999 SCT050 QNH2996INS TEMPO 0814/0818 06015G25KT 6000 -TSRA BKN045CB BECMG 0818/0819 07005KT 9999 FEW045 FEW070 QNH2993INS TX25/0714Z TN12/0803Z
ETMN,TAF ETMN 071606Z 0717/0802 34010KT 9999 NSW FEW015 BECMG 0719/0721 35005KT 9999 NSW SCT012 BECMG 0723/0801 01004KT 3000 MIFG BKN008
ETND,TAF ETND 071012Z 0711/0720 35005KT 9999 NSW BKN070 PROB30 0711/0717 04015G25KT 4000 SHRA SCT020 BKN040CB BY ETGL
ETNG,TAF ETNG 071400Z 0715/0806 01005KT CAVOK TEMPO 0715/0718 03010G18KT PROB30 TEMPO 0715/0720 5000 -SHRA FEW035CB BKN080
ETNH,TAF ETNH 071322Z 0714/0723 28007KT 9999 NSW SKC TEMPO 0721/0723 VRB03KT 3000 MIFG SKC BY ETGL
ETNL,TAF ETNL 071600Z 0717/0805 36007KT 9999 NSW FEW070 TEMPO 0803/0805 VRB03KT 4000 MIFG SKC BY ETGL
ETNN,TAF ETNN 071313Z 0714/0723 35007KT 9999 NSW BKN070 TEMPO 0714/0718 02010G20KT 2000 TSRA BKN010CB BY ETGL
ETNS,TAF ETNS 071322Z 0714/0723 28007KT 9999 NSW SKC TEMPO 0721/0723 VRB03KT 3000 MIFG SKC BY ETGL
ETNW,TAF ETNW 071604Z 0717/0817 35005KT 9999 NSW SCT090 BKN120 PROB30 0717/0721 04015G25KT 4000 SHRA SCT020 BKN040CB PROB30 0809/0817 11015G25KT 4000 SHRA SCT020 BKN040CB BY ETGL
ETOU,TAF ETOU 071200Z 0712/0818 04009KT 9000 -SHRA VCTS BKN040CB QNH3001INS TEMPO 0712/0720 05015G25KT 6000 -TSRA BKN035CB BECMG 0721/0722 02006KT 9999 NSW SCT040 QNH3000INS BECMG 0808/0809 07009KT 9999 FEW015 SCT030 BKN060 QNH2993INS TEMPO 0810/0815 06010G15KT 6000 -TSRA BKN030CB TX26/0713Z TN13/0804Z
ETSH,TAF ETSH 071322Z 0714/0723 04005KT 9999 NSW SCT070 BKN100
ETSI,TAF ETSI 071310Z 0714/0723 VRB03KT 9999 NSW SCT045
ETSL,TAF ETSL 071616Z 0717/0805 03005KT 9999 NSW FEW040 PROB30 0802/0805 VRB01KT 4000 MIFG SKC BY ETGL
ETSN,TAF ETSN 071616Z 0717/0802 02003KT 9999 NSW FEW060 BY ETGL
EVGA,TAF EVGA 071703Z 0718/0818 34005KT CAVOK
EVLA,TAF EVLA 071705Z 0718/0818 35005KT CAVOK PROB40 TEMPO 0723/0803 0600 FG VV001
EVRA,TAF EVRA 071701Z 0718/0818 36005KT CAVOK
EVVA,TAF EVVA 071406Z 0715/0724 01010KT CAVOK BECMG 0716/0717 09005KT PROB40 TEMPO 0721/0724 0600 FG VV001
EYKA,TAF EYKA 071700Z 0718/0818 VRB05KT CAVOK
EYPA,TAF EYPA 071700Z 0718/0818 VRB05KT CAVOK
EYSA,TAF EYSA 071700Z 0718/0803 VRB05KT CAVOK
EYVI,TAF EYVI 071700Z 0718/0818 VRB05KT CAVOK
FABL,TAF FABL 071600Z 0718/0818 34007KT CAVOK TX19/0812Z TN02/0804Z PROB30 TEMPO 0803/0806 3000 BCFG NSC BECMG 0809/0811 27010KT
FACT,TAF AMD FACT 071800Z 0718/0824 36018KT 9999 FEW010 BKN025 TX16/0812Z TN12/0806Z PROB30 TEMPO 0718/0802 36020G30KT TEMPO 0719/0721 2000 RA BKN008 PROB40 TEMPO 0721/0812 4000 -RA BKN010 FM081200 25008KT 9999 SCT013 BKN020
FAEL,TAF FAEL 070900Z 0710/0719 35005KT CAVOK TX28/0711Z TN18/0719Z BECMG 0711/0713 24005KT
FAGG,TAF AMD FAGG 071800Z 0718/0818 VRB03KT CAVOK TX18/0812Z TN10/0806Z BECMG 0810/0812 32010KT
FALA,TAF FALA 071600Z 0718/0818 VRB03KT CAVOK TX23/0812Z TN09/0804Z PROB40 TEMPO 0801/0806 4500 BR NSC PROB30 TEMPO 0802/0805 0800 FG VV001 BECMG 0808/0810 31010KT SCT035 PROB30 TEMPO 0810/0814 31015G25KT BECMG 0812/0814 CAVOK BECMG 0814/0816 VRB03KT
FALE,TAF FALE 071600Z 0712/0818 VRB03KT CAVOK TX25/0812Z TN17/0818Z BECMG 0720/0722 33007KT BECMG 0803/0805 22010KT FM081200 16012KT 9999 SCT020
FAOR,TAF FAOR 071600Z 0718/0824 32010KT CAVOK TX21/0813Z TN11/0804Z PROB30 TEMPO 0803/0806 4000 BR NSC BECMG 0808/0810 SCT030 PROB30 TEMPO 0808/0815 31015G25KT BECMG 0813/0815 CAVOK
FAPE,TAF FAPE 071600Z 0718/0818 24015KT CAVOK TX23/0810Z TN08/0802Z BECMG 0720/0722 VRB03KT BECMG 0809/0811 30008KT PROB30 TEMPO 0816/0818 4500 -SHRA FEW045TCU
FAPM,TAF FAPM 070900Z 0710/0721 35005KT CAVOK TX27/0712Z TN15/0718Z
FAUP,TAF FAUP 071600Z 0718/0818 VRB03KT CAVOK TX18/0813Z TN06/0804Z FM072300 VRB03KT 9999 SCT020
FBKE,TAF FBKE 071200Z 0715/0724 08007KT CAVOK
FBMN,TAF FBMN 071600Z 0718/0818 05005KT CAVOK
FBPM,FBPM 071600Z 0718/0818 12010KT CAVOK
FBSK,TAF FBSK 071600Z 0718/0824 05005KT CAVOK
FCBB,TAF COR FCBB 071705Z 0718/0824 24004KT 8000 FEW016 FEW030CB BECMG 0719/0721 TS BECMG 0723/0802 NSW BKN016 PROB30 0806/0808 4000 BR
FCPP,TAF FCPP 071700Z 0718/0818 20004KT 8000 FEW016 BKN023 PROB30 0804/0807 4000 BR
FEFF,TAF FEFF 071100Z 0712/0818 28006KT 9999 BKN012 FEW040CB PROB30 TEMPO 0715/0719 4000 TSRA BECMG 0809/0911 BKN023 FEW033CB TEMPO 0814/0817 TSRA
FGBT,TAF FGBT 071700Z 0718/0818 24006KT 9999 SCT010 PROB30 TEMPO 0804/0809 4000 TSRA BKN010 FEW018CB
FGSL,TAF FGSL 071700Z 0718/0824 24008KT 9999 FEW010 FEW020CB PROB30 TEMPO 0802/0809 4000 TSRA BKN008 FEW016CB
FHAW,TAF FHAW 071557Z 0718/0812 15010KT 9999 FEW030 PROB30 TEMPO 0800/0812 SCT024
FIMP,TAF COR FIMP 071730Z 0718/0900 13007KT 9999 SCT016 TEMPO 0718/0800 7000 -SHRA FEW010 SCT015 BKN050
FIMR,TAF FIMR 071735Z 0718/0806 10015G25KT 9999 SCT017 PROB30 TEMPO 0718/0806 7000 -SHRA SCT016 BKN050
FJDG,TAF FJDG 071700Z 0717/0823 13018G25KT 9999 SCT025 QNH2982INS TX31/0808Z TN26/0720Z
FKKD,TAF FKKD 071700Z 0718/0824 VRB04KT 9999 TS BKN013 FEW016CB PROB40 TEMPO 0722/0804 2000 TSRADZ TEMPO 0805/0808 2500 BR BECMG 0808/0810 NSW BKN016 FEW020CB
FKYS,TAF FKYS 071700Z 0718/0818 23004KT 9999 BKN016 FEW020CB BECMG 0720/0722 BKN006 PROB40 0722/0802 4000 TSRA BKN010 FEW020CB BECMG 0808/0810 BKN016
FLCP,TAF FLCP 071000Z 0712/0818 09010KT 9999 FEW040 FM071600 12005KT CAVOK BECMG 0804/0806 08010KT BECMG 0810/0812 VRB03KT 9999 FEW040
FLHN,TAF FLHN 071000Z 0712/0818 09010KT CAVOK FM071900 VRB03KT BECMG 0807/0809 07010KT BECMG 0810/0812 VRB03KT 9999 SCT035
FLKK,TAF FLKK 071000Z 0712/0818 07010KT 9999 FEW040 FM071500 VRB03KT CAVOK BECMG 0720/0722 13005KT BECMG 0807/0809 09010G15KT 9999 SCT020
FLKS,TAF FLKS 071000Z 0712/0818 09010KT CAVOK BECMG 0716/0718 12005KT BECMG 0807/0809 09010KT BECMG 0812/0814 VRB03KT 9999 SCT040
FLMA,TAF FLMA 071000Z 0712/0818 09010KT CAVOK BECMG 0716/0718 VRB03KT BECMG 0720/0722 13005KT BECMG 0806/0808 09010G15KT
FLMF,TAF FLMF 071000Z 0712/0818 09010KT 9999 FEW040 FM071600 12005KT CAVOK BECMG 0804/0806 08010KT BECMG 0810/0812 VRB03KT 9999 FEW040
FLSK,TAF FLSK 071000Z 0712/0818 07005KT 8000 FU NSC FM071600 VRB03KT CAVOK BECMG 0720/0722 11005KT BECMG 0804/0806 8000 FU NSC
FLSW,TAF FLSW 071000Z 0712/0818 07005KT 8000 FU SCT040 FM071600 VRB03KT CAVOK BECMG 0807/0809 09005KT 9999 FEW020 BECMG 0810/0812 VRB03KT BKN035
FMCH,TAF FMCH 071700Z 0718/0824 11003KT 9999 FEW020 SCT025 PROB30 TEMPO 0803/0809 4500 SHRA BECMG 0806/0808 19010KT BECMG 0815/0817 09005KT
FMCZ,TAF FMCZ 071700Z 0718/0818 15008KT 9999 FEW026 PROB30 TEMPO 0804/0806 4500 SHRA SCT021TCU
FMEE,FMEE 071700Z 0718/0824 14014KT 9999 SCT025 SCT060 TEMPO 0718/0805 4500 SHRA SCT020TCU
FMEP,TAF FMEP 071100Z 0712/0721 12020G30KT 9999 FEW030
FMMI,TAF FMMI 071700Z 0718/0824 VRB04KT 9999 FEW017 BKN020
FMMS,TAF FMMS 071700Z 0718/0818 14010KT 9999 FEW007 SCT017TCU BKN033 PROB4 0 TEMPO 0719/0812 4000 SHRA
FMMT,TAF FMMT 071700Z 0718/0818 22008KT 9999 FEW007 SCT017TCU BKN033 PROB4 0 TEMPO 0718/0818 4000 SHRA
FMNA,TAF FMNA 071700Z 0718/0818 14015G30KT 9999 FEW020
FMNM,TAF FMNM 071700Z 0718/0818 14010KT 9999 FEW020 BECMG 0811/0814 32006K T
FMNN,TAF FMNN 071700Z 0718/0818 04005KT 9999 FEW007 BKN020TCU PROB30 TEMPO 0718/0805 4500 SHRA BECMG 0810/0812 24010KT
FMSD,TAF FMSD 071700Z 0718/0818 08012KT 9999 FEW020
FMST,TAF FMST 071700Z 0718/0818 14005KT 9999 FEW020 BECMG 0808/0811 26010K T
FNBG,TAF FNBG 071100Z 0712/0724 32008KT 9999 FEW018 BECMG 0719/0722 VRB03KT
FNCA,TAF FNCA 071100Z 0712/0724 20008KT 9000 SCT022 BKN040
FNCT,TAF FNCT 071100Z 0712/0724 30010KT 9999 SCT022 BECMG 0718/0720 VRB03KT
FNDU,TAF FNDU 071100Z 0712/0724 VRB03KT 9000 SCT018
FNGI,TAF FNGI 071100Z 0712/0724 15005KT 9000 NSC
FNHU,TAF FNHU 071100Z 0712/0724 06005KT CAVOK
FNKU,TAF FNKU 071100Z 0712/0724 07005KT CAVOK
FNLU,TAF COR FNLU 071722Z 0718/0912 24008KT 9000 BKN022 TEMPO 0703/0808 14005KT SCT018 BECMG 0810/0812 VRB03KT
FNMA,TAF FNMA 071100Z 0712/0724 09005KT 9000 FEW022
FNME,TAF FNME 071100Z 0712/0724 09005KT 9000 NSC
FNMO,TAF FNMO 071100Z 0712/0724 24011KT 9000 NSC
FNSA,TAF FNSA 071100Z 0712/0724 08004KT 9000 SCT022
FNSO,TAF FNSO 071100Z 0712/0724 20008KT 9000 SCT015 BKN022
FNUB,TAF FNUB 071100Z 0712/0724 05005KT CAVOK
FNUE,TAF FNUE 071100Z 0712/0724 07004KT 9000 SCT015
FOOG,TAF FOOG 071700Z 0718/0818 20010KT 9999 SCT008 BKN030 PROB30 TEMPO 0803/0807 4000 BR BKN008 BKN026
FOOL,TAF FOOL 071700Z 0718/0824 24008KT 9999 SCT010 BKN030 PROB30 TEMPO 0720/0802 BKN008 OVC026 PROB30 TEMPO 0805/0811 BKN010 BKN030
FPST,TAF FPST 071000Z 0712/0818 27012KT 9999 SCT022 BKN040 BECMG 0720/0723 SCT020
FQBR,TAF FQBR 071600Z 0718/0824 07008KT 9999 FEW020 TX32/0813Z TN21/0803Z BECMG 0801/0803 35005KT BECMG 0812/0814 10010KT
FQCH,TAF FQCH 071600Z 0718/0818 09005KT 9999 FEW015 TX29/0813Z TN17/0803Z BECMG 0721/0723 VRB02KT BECMG 0803/0805 33006KT BECMG 0810/0812 03010KT
FQIN,TAF FQIN 071600Z 0718/0818 03010KT 9999 FEW020 TX29/0813Z TN22/0803Z BECMG 0803/0805 33007KT BECMG 0812/0814 05010KT
FQLC,TAF FQLC 071600Z 0718/0818 08005KT 9999 FEW015 TX24/0813Z TN10/0803Z BECMG 0811/0813 VRB02KT BECMG 0815/0817 03005KT
FQMA,TAF FQMA 071600Z 0718/0824 03012KT CAVOK TX32/0813Z TN16/0803Z BECMG 0721/0723 33010KT
FQNC,TAF FQNC 071600Z 0718/0824 17008KT 9999 FEW020 TX31/0813Z TN21/0803Z BECMG 0721/0723 23007KT BECMG 0810/0812 16010KT
FQNP,TAF FQNP 071600Z 0718/0818 14007KT 9999 FEW010 TX30/0813Z TN22/0803Z BECMG 0722/0724 VRB02KT BECMG 0803/0805 22005KT BECMG 0810/0812 16008KT
FQPB,TAF FQPB 071600Z 0718/0818 17012KT 9999 FEW020 TX30/0813Z TN21/0803Z BECMG 0800/0802 23010KT BECMG 0810/0812 16012KT SCT020
FQQL,TAF FQQL 071600Z 0718/0818 13007KT 9999 FEW020 TX30/0813Z TN21/0803Z BECMG 0800/0802 07005KT BECMG 0805/0807 34005KT BECMG 0810/0812 13010KT
FQTT,TAF FQTT 071600Z 0718/0818 14006KT 9999 SCT020 TX34/0813Z TN24/0803Z BECMG 0721/0723 VRB02KT
FQVL,TAF FQVL 071600Z 0718/0818 05007KT 9999 FEW020 TX30/0813Z TN20/0803Z BECMG 0800/0802 35006KT
FQXA,TAF FQXA 071600Z 0718/0818 36008KT CAVOK TX28/0813Z TN19/0803Z
FSIA,TAF FSIA 071704Z 0718/0818 13013KT 9999 SCT021
FTTJ,TAF FTTJ 071700Z 0718/0824 24006KT 8000 FEW026 PROB30 TEMPO 0722/0803 VRB16G40KT 4000 TSRA TEMPO 0814/0820 VRB16G40KT 4000 TSRA
FWCL,TAF FWCL 070900Z 0712/0818 08008KT 9999 SCT025 BECMG 0714/0718 10006KT CAVOK BECMG 0808/0812 04006KT 9999 FEW025
FWKI,TAF FWKI 071500Z 0718/0824 13011KT CAVOK BECMG 0807/0809 10010KT 9999 FEW025
FYGF,TAF FYGF 071700Z 0718/0803 29003KT CAVOK
FYKM,TAF FYKM 071700Z 0718/0803 08004KT CAVOK
FYKT,TAF FYKT 071600Z 0718/0818 30012KT CAVOK BECMG 0720/0722 24005KT
FYLZ,TAF FYLZ 071700Z 0718/0803 34006KT 9999 SCT025
FYOA,TAF FYOA 071700Z 0718/0803 21004KT CAVOK
FYRU,TAF FYRU 071700Z 0718/0803 08005KT CAVOK
FYWB,TAF FYWB 071600Z 0718/0818 25010KT CAVOK
FYWE,TAF FYWE 071700Z 0718/0803 26005KT CAVOK
FYWH,TAF FYWH 071600Z 0718/0818 32005KT CAVOK BECMG 0719/0721 25005KT
FZAA,TAF FZAA 071700Z 0718/0824 27010KT 6000 SCT018 BECMG 0719/0721 20004KT TEMPO 0805/0809 4000 BR BKN016
FZIC,TAF FZIC 070500Z 0706/0812 16006KT 8000 SCT016 FEW028CB TEMPO 0709/0713 TS BECMG 0715/0717 00000KT NSC BECMG 0800/0802 3000 BR FM080600 14006KT 8000 SCT010
FZNA,TAF FZNA 071100Z 0712/0818 18010KT 7000 SCT018 FEW022CB BECMG 0714/0716 VRB06KT SCT015 BECMG 0809/0811 23010KT SCT018 FEW022CB
FZQA,TAF FZQA 070500Z 0706/0812 09008KT CAVOK BECMG 0710/0712 16010KT 9999 FEW020 BECMG 0716/0718 09006KT CAVOK
GABS,TAF COR GABS 071700Z 0718/0824 22008KT 9999 FEW030 PROB40 TEMPO 0718/0722 4500 TSRA SCT030 FEW033CB PROB30 TEMPO 0800/0808 12020G40KT 4000 TSRA SCT030 FEW033CB PROB40 TEMPO 0815/0822 VRB16G30KT 4000 TSRA SCT030 FEW033CB
GAGO,TAF GAGO 071700Z 0718/0818 35010KT 8000 NSC PROB40 TEMPO 0807/0810 4500 DU
GBYD,TAF GBYD 071700Z 0718/0824 30010KT CAVOK
GCFV,TAF GCFV 071400Z 0715/0815 24018KT 9999 SCT020 TX27/0814Z TN21/0806Z PROB40 TEMPO 0715/0720 24018G28KT BECMG 0721/0723 30008KT
GCGM,TAF GCGM 071400Z 0715/0815 29015KT 9999 BKN015 TX25/0814Z TN21/0806Z BECMG 0724/0803 30005KT
GCHI,TAF GCHI 071400Z 0715/0815 33009KT 9999 FEW020 TX26/0814Z TN21/0806Z
GCLA,TAF GCLA 071400Z 0715/0815 18007KT 9999 SCT020 TX26/0814Z TN19/0806Z PROB30 TEMPO 0715/0719 09010KT PROB30 TEMPO 0720/0723 27010KT
GCLP,TAF GCLP 071400Z 0715/0815 19020KT 9999 SCT020 TX24/0814Z TN19/0806Z TEMPO 0717/0719 19010KT BECMG 0719/0721 VRB06KT
GCRR,TAF GCRR 071400Z 0715/0815 27019KT 9999 SCT020 TX29/0814Z TN21/0806Z TEMPO 0715/0718 21013KT PROB30 TEMPO 0717/0724 27018G28KT BECMG 0724/0802 30009KT
GCTS,TAF GCTS 071400Z 0715/0815 25018KT 9999 SCT020 TX27/0814Z TN19/0806Z PROB30 TEMPO 0715/0716 BKN010 PROB30 TEMPO 0715/0718 25018G28KT BECMG 0719/0721 30008KT BECMG 0810/0813 09010KT
GCXO,TAF GCXO 071400Z 0715/0815 30010KT 9999 BKN010 TX23/0814Z TN16/0806Z TEMPO 0715/0720 0500 FG BKN001 TEMPO 0715/0809 1500 DZ BCFG BKN003 TEMPO 0807/0809 VRB03KT
GECE,TAF GECE 071400Z 0715/0815 07009KT 9999 SCT020 TX22/0814Z TN20/0805Z PROB40 TEMPO 0721/0815 BKN010 PROB30 TEMPO 0805/0815 4000 SHRA FEW035CB
GEML,TAF GEML 071700Z 0718/0818 06008KT 9999 FEW010 BKN015 TX23/0813Z TN20/0806Z TEMPO 0718/0811 BKN008 PROB40 TEMPO 0720/0806 4000 RA BKN006 PROB30 TEMPO 0800/0803 3000 TS FEW020CB
GFLL,TAF GFLL 071100Z 0712/0818 12008KT 9999 BKN012 FEW027CB TEMPO 0716/0720 24006KT 7000 TSRA BKN010 FEW026CB BECMG 0806/0808 VRB02KT 9999 BKN010 FEW027CB TEMPO 0812/0816 24005KT TS BKN012 FEW027CB
GGOV,TAF GGOV 071700Z 0718/0818 22010KT 8000 NSC BECMG 0806/0810 VRB05KT
GLRB,TAF GLRB 071100Z 0712/0812 24010KT 9999 BKN015 FEW024 CB TEMPO 0713/0717 16008KT BKN018 BECMG 0718/0720 00000KT 5000 -TSRA SCT004 BKN012 FEW023CB
GMAD,TAF GMAD 071700Z 0718/0824 18006KT 8000 SCT020 BKN080 TEMPO 0803/0812 -SHRA BKN020 SCT026TCU BECMG 0812/0814 28013KT
GMAG,TAF GMAG 071700Z 0718/0900 30005KT 8000 SCT030 SCT200 PROB30 0723/0810 BKN010 PROB30 0805/0808 2000 BR
GMFF,TAF GMFF 071700Z 0718/0824 35005KT CAVOK PROB30 TEMPO 0719/0722 30012KT TSRA FEW033CB BKN100 PROB30 TEMPO 0814/0820 31015G25KT TSRA SCT023 FEW033TCU BKN100
GMFK,TAF GMFK 071700Z 0718/0824 17008KT CAVOK
GMFM,TAF GMFM 071700Z 0718/0824 34012KT CAVOK TEMPO 0801/0806 17005KT BECMG 0809/0813 SCT016 SCT100 TEMPO 0813/0820 -TSRA SCT013 BKN016 FEW026CB
GMFO,TAF GMFO 071700Z 0718/0824 36014KT 7000 SCT010 SCT025 BKN090 PROB030 0719/0723 FEW030TCU PROB30 0802/0808 3000 BR
GMME,TAF GMME 071700Z 0718/0824 27008KT 6000 SCT023 SCT100 TEMPO 0800/0806 VRB02KT PROB30 TEMPO 0807/0813 3000 RA BKN010 BKN016
GMMH,TAF GMMH 071700Z 0718/0900 28012KT 8000 BKN003 PROB30 0800/0808 2000 BR BECMG 0808/0811 OVC008
GMMI,TAF GMMI 071700Z 0718/0900 25019KT 8000 SCT013 SCT070 BKN200 PROB30 0718/0808 BKN008 PROB30 0720/0806 2000 BR
GMML,TAF GMML 071700Z 0718/0900 24023KT 7000 NSC PROB30 0720/0806 BKN007 PROB30 0800/0806 3000 BR
GMMN,TAF GMMN 071700Z 0718/0824 32012KT 9999 BKN040 BECMG 0719/0721 18004KT TEMPO 0805/0814 24010KT 6000 RA BKN016 FEW023TCU BECMG 0814/0816 28012KT SCT020 BKN100
GMMW,TAF GMMW 071700Z 0718/0900 06012KT 8000 BKN013 BKN026 PROB30 TEMPO 0718/0806 4000 TSRA FEW030CB BECMG 0805/0807 SCT010
GMMX,TAF GMMX 071700Z 0718/0824 24006KT 8000 SCT100 TEMPO 0718/0722 34018KT
GMMZ,TAF GMMZ 071700Z 0718/0824 27014KT 9999 FEW040 TEMPO 0813/0820 26018G28KT
GMTA,TAF GMTA 071700Z 0718/0900 02008KT 8000 FEW020 BKN033 PROB30 TEMPO 0718/0806 2000 TSRA FEW030CB PROB30 0800/0808 3000 BR
GMTT,TAF GMTT 071700Z 0718/0824 10008KT 9999 SCT023 BKN200 BECMG 0801/0805 4000 RA
GOBD,TAF GOBD 071700Z 0718/0824 34015KT CAVOK
GOGS,TAF GOGS 071700Z 0718/0818 28008KT 9999 SCT013
GOOY,TAF GOOY 071700Z 0718/0824 34015KT 9999 SCT013
GOSS,TAF GOSS 071700Z 0718/0818 35012KT CAVOK
GQNO,TAF GQNO 071700Z 0718/0824 34015KT 8000 NSC PROB40 TEMPO 0800/0807 BKN010
GQPP,TAF GQPP 071700Z 0718/0818 34014KT 6000 SCT006 BECMG 0720/0724 3000 BR OVC006 PRO40 TEMPO 0803/0808 0800 FG BECMG 0809/0812 6000 NSW NSC
GUCY,TAF GUCY 071700Z 0718/0824 26006KT 9999 FEW015 SCT110 PROB30 TEMPO 0806/0812 12012KT 6000 -TSRA BKN013 FEW020CB BKN100
GVAC,TAF GVAC 071700Z 0718/0824 02008KT 9999 FEW013
GVBA,TAF GVBA 071100Z 0712/0818 02011KT 9999 SCT014
GVNP,TAF GVNP 071700Z 0718/0824 05010KT 9999 FEW018
GVSV,TAF GVSV 071700Z 0718/0824 VRB06KT 9999 FEW022 TEMPO 0721/0806 07008KT
HAAB,TAF HAAB 070330Z 0706/0812 VRB04KT 9999 -HZ FEW020 SCT070 BECMG 0708/0713 14006KT 8000 -SHRA/HZ SCT025 BKN070
HADR,TAF HADR 070330Z 0706/0812 18011KT 9999 FEW020 SCT070
HBBA,TAF HBBA 071100Z 0712/0818 18008KT 9999 FEW027 BKN090 BECMG 0723/0801 36003KT CAVOK BECMG 0807/0809 18006KT FEW025
HCMM,TAF HCMM 071100Z 0712/0818 22015KT 9999 FEW025 BECMG 0721/0800 21010KT BKN019 BECMG 0806/0809 20015KT 9999 SCT023
HDAM,TAF HDAM 071100Z 0712/0812 10010KT 9999 FEW030CB FEW266 BECMG 0715/0718 VRB03KT FEW023 FEW266 BECMG 0800/0806 00000KT SCT023
HEAL,TAF HEAL 071700Z 0718/0824 07014KT 6000 FEW020 SCT022
HEAR,TAF HEAR 071700Z 0718/0824 04010KT 9999 SCT020
HEAT,TAF HEAT 071700Z 0718/0824 35008KT 7000 SCT030 BKN090
HEAX,TAF HEAX 071700Z 0718/0824 07012KT 9999 FEW020 SCT022
HEBA,TAF HEBA 071700Z 0718/0824 02012KT 9999 FEW020 SCT022
HEBL,TAF HEBL 071700Z 0718/0824 04011KT 6000 NSC TEMPO 0718/0724 2000 SA
HECA,TAF AMD HECA 071720Z 0718/0824 07012KT 9999 SCT25 PROB40 TEMPO 0810/0816 19015G25KT 4000 -RASA BKN020 TEMPO 0810/0815 2000 BECMG 0816/0818 07012G22KT TEMPO 0816/0822 4000 SA
HEGN,TAF HEGN 071700Z 0718/0824 06010KT 9999 SCT025
HELX,TAF HELX 071700Z 0718/0824 06006KT 7000 NSC
HEMA,TAF HEMA 071700Z 0718/0824 09010KT CAVOK
HEMM,TAF HEMM 071700Z 0718/0824 07014KT 6000 FEW020 SCT022
HEOW,TAF HEOW 071700Z 0718/0824 15008KT 6000 NSC
HEPS,TAF HEPS 071700Z 0718/0824 08012KT 9999 SCT025 TEMPO 0812/0818 8000 -RA BKN020
HESC,TAF HESC 071700Z 0718/0824 04010KT 9999 SCT025
HESG,TAF HESG 071700Z 0718/0824 36007KT CAVOK
HESH,TAF HESH 071700Z 0718/0824 08010KT 9999 SCT025
HESN,TAF HESN 071700Z 0718/0824 35011KT CAVOK
HETB,TAF HETB 071700Z 0718/0824 02010KT 6000 NSC
HETR,TAF HETR 071700Z 0718/0824 26010KT 9999 SCT025
HKEL,TAF HKEL 071700Z 0718/0824 15005KT 9999 FEW017 SCT080 BECMG 0808/0811 FEW023CB SCT024 PROB40 TEMPO 0813/0817 -TSRA FEW019CB SCT020 BKN080 BECMG 0820/0823 VRB02KT NSW SCT016 BKN080
HKJK,TAF HKJK 071700Z 0718/0824 13005KT 9999 SCT021 BECMG 0800/0803 VRB02KT FEW008 BKN016 BECMG 0807/0810 12010KT SCT026 BECMG 0820/0823 VRB02KT SCT020
HKKI,TAF HKKI 071700Z 0718/0824 06005KT 9999 FEW020CB SCT021 BECMG 0808/0811 24010KT FEW025CB SCT026 PROB030 TEMPO 0813/0817 -TSRA FEW021CB SCT022 BKN080 BECMG 0820/0823 06005KT NSW FEW021 BKN080
HKML,TAF HKML 071100Z 0712/0812 18015KT 9999 FEW024 SCT090 TEMPO 0800/0804 24005KT -RA SCT020 BKN080 BECMG 0809/0812 NSW SCT026
HKMO,TAF HKMO 071100Z 0712/0818 18010KT 9999 FEW025 SCT090 TEMPO 0801/0805 24004KT -RA SCT020 BKN080 BECMG 0809/0812 NSW SCT026
HKNW,TAF HKNW 071700Z 0718/0818 14005KT 9999 SCT020 BECMG 0800/0803 VRB02KT FEW008 BKN016 BECMG 0807/0810 13010KT BKN026
HLGD,TAF HLGD 071700Z 0718/0818 36010KT 8000 SCT030
HLGT,TAF HLGT 071700Z 0718/0818 36010KT 8000 NSC PROB40 TEMPO 0712/0718 3000 HZ BECMG 0806/0808 VRB02KT
HLKF,TAF HLKF 071700Z 0718/0818 22012KT 5000 NSC BECMG 0802/0804 VRB02KT BECMG 0808/0810 30010KT
HLLB,TAF HLLB 071700Z 0718/0818 36012KT 8000 SCT030 SCT080
HLLM,TAF HLLM 071700Z 0718/0818 03010KT 7000 SCT030 SCT080 BECMG 0802/0804 VRB02KT BECMG 0808/0810 08008KT
HLLQ,TAF HLLQ 071700Z 0718/0818 11010KT 8000 SCT025 BKN070 BECMG 0721/0723 VRB02KT BECMG 0808/0810 34010KT
HLLS,TAF HLLS 071700Z 0718/0818 04010KT 7000 NSC PROB40 TEMPO 0718/0721 3000 BLSA
HLMS,TAF HLMS 071700Z 0718/0818 36010KT 7000 SCT030 FEW080
HLON,TAF HLON 071700Z 0718/0818 36015KT 7000 NSC PROB40 TEMPO 0718/0723 3000 BLSA
HLTD,TAF HLTD 071700Z 0718/0818 08008KT 6000 NSC BECMG 0721/0723 35012KT BECMG 0802/0804 06010KT
HLTQ,TAF HLTQ 071700Z 0718/0818 09010KT 8000 SCT030 BKN070
HLUB,TAF HLUB 071700Z 0718/0818 35010KT 8000 NSC BECMG 0802/0804 06012KT
HRYR,HRYR 071700Z 0718/0824 29006KT 9999 SCT026 SCT100 BECMG 0807/0810 18010KT SCT023 TEMPO 0812/0816 12010G20KT FEW023CB BKN025 BECMG 0819/0822 30006KT FEW026 SCT100
HTAR,TAF HTAR 071700Z 0718/0818 09005KT 9999 FEW025
HTDA,TAF HTDA 071700Z 0718/0824 17010KT 9999 BKN013 FEW014CB TEMPO 0722/0805 5000 RA BECMG 0813/0815 9999 NSW SCT017 FEW018CB
HTDO,TAF HTDO 071700Z 0718/0818 09010KT 9999 FEW020
HTKA,TAF HTKA 071700Z 0718/0818 00000KT 9999 FEW022 TEMPO 0805/0808 09007KT BECMG 0809/0812 21008KT
HTKJ,TAF HTKJ 071700Z 0718/0818 10010KT 9999 SCT024 BECMG 0722/0724 BKN022
HTMW,TAF HTMW 071700Z 0718/0818 00000KT 9999 FEW022 FEW023CB BECMG 0806/0808 12010KT
HTTB,TAF HTTB 071700Z 0718/0818 12010KT 9999 FEW020
HTZA,TAF HTZA 071700Z 0718/0818 21010KT 9999 SCT013 BKN070 PROB 30 TEMPO 0800/0809 5000 RA
HUEN,TAF HUEN 071700Z 0718/0824 17008KT 9999 FEW021 FEW023CB FM072100 34006KT SCT020 FEW022CB BECMG 0807/0810 9000 -RA BKN019 FEW021CB
HUSO,TAF HUSO 071100Z 0712/0812 35006KT 9999 BKN022 FEW024CB FM071500 23005KT 9000 -TSRA SCT020 FEW022CB BECMG 0802/0806 05004KT FEW019 SCT100 BECMG 0808/0812 VRB06KT BKN021 FEW023CB
KABE,KABE 071730Z 0718/0818 31011KT 2SM HZ FU SCT080 FM080000 33006KT 2SM HZ FU SCT080 FM080200 33004KT 3SM HZ SCT080 FM081400 31007KT 5SM HZ SCT080
KABI,KABI 071751Z 0718/0818 16005KT P6SM SCT050 FM080200 13005KT P6SM BKN250 FM080800 VRB05KT P6SM BKN250
KABQ,KABQ 071724Z 0718/0818 VRB05KT P6SM SKC FM071900 22010KT P6SM FEW120 FM072100 23010KT P6SM VCSH SCT110 TEMPO 0721/0724 VRB15G25KT FM080200 VRB06KT P6SM SKC
KABR,KABR 071721Z 0718/0818 10006KT P6SM VCTS SCT070CB FM080200 14006KT P6SM SCT170
KABY,KABY 071727Z 0718/0818 23009KT P6SM SCT045 FM072000 25008KT P6SM VCTS SCT040CB BKN050 FM080000 24005KT P6SM SCT040 FM080900 24003KT 6SM BR SCT008 FM081300 23009KT P6SM SCT040
KACK,KACK 071731Z 0718/0818 25011G18KT P6SM FEW040 FM072300 26005KT P6SM BKN045 FM080100 27005KT P6SM BKN045 FM081100 30008KT P6SM FEW050
KACT,KACT 071741Z 0718/0818 VRB03KT P6SM SCT120 FM071900 10005KT P6SM VCTS SCT070CB FM080000 13004KT P6SM FEW100 BKN250
KACV,KACV 071735Z 0718/0818 31006KT 6SM BR SCT008 OVC016 FM072100 29006KT 6SM HZ BKN013 OVC025 FM080000 28005KT 6SM HZ OVC009 FM080400 VRB03KT 6SM BR OVC004 FM080900 00000KT 6SM BR BKN007 OVC014 FM081500 29004KT P6SM OVC015
KACY,KACY 071730Z 0718/0818 29012KT 4SM HZ SCT080 FM072200 28010KT 2SM HZ FU SCT080 FM080100 25004KT 2SM HZ FU SCT080 FM080800 35004KT 3SM HZ SCT080 FM081400 35007KT 4SM HZ VCSH SCT080
KADF,KADF 071726Z 0718/0818 VRB05KT P6SM SCT060 SCT250 FM080200 VRB02KT P6SM SCT250 FM080900 VRB02KT 3SM HZ BKN250 FM081400 34006KT P6SM BKN250
KADW,TAF KADW 071700Z 0717/0823 29008KT 8000 HZ SCT080 QNH2963INS BECMG 0801/0802 22005KT 8000 HZ SCT050 BKN080 QNH2960INS BECMG 0808/0809 30007KT 9000 HZ FEW050 SCT060 BKN080 QNH2958INS TX25/0721Z TN15/0810Z
KAEG,KAEG 071724Z 0718/0818 20007KT P6SM SKC FM072000 20011KT P6SM FEW120 FM072100 20011KT P6SM VCSH SCT110 TEMPO 0721/0724 VRB15G25KT FM080300 VRB06KT P6SM SKC
KAEX,KAEX 071720Z 0718/0818 VRB03KT P6SM FEW250 FM071900 35004KT P6SM VCTS SCT050CB FM080200 VRB03KT P6SM SCT250
KAFF,TAF AMD KAFF 071711Z 0717/0817 14009KT 9999 VCSH SCT040 SCT065 BKN140 OVC250 QNH3002INS TS OMTNS SW-NW TEMPO 0718/0720 VRB20G30KT 8000 -TSRA SCT035 BKN060CB BKN140 OVC250 BECMG 0800/0801 VRB06KT 9999 VCSH BKN070 BKN200 QNH3003INS BECMG 0804/0805 35006KT 9999 NSW SCT070 BKN100 QNH3005INS WND 15006KT AFT 0816 TX21/0720Z TN06/0811Z
KAFW,KAFW 071741Z 0718/0818 VRB04KT P6SM BKN250 FM071900 15006KT P6SM VCTS SCT070CB FM080200 VRB04KT P6SM FEW100 BKN250 FM080900 VRB03KT P6SM VCSH BKN060 FM081100 VRB04KT P6SM SCT100 BKN250
KAGC,KAGC 071740Z 0718/0818 33010KT 5SM HZ FEW250 FM081000 29003KT P6SM SKC
KAGS,KAGS 071742Z 0718/0818 24010G15KT P6SM VCTS SCT035CB SCT150 BKN250 TEMPO 0718/0722 3SM -TSRA FM080200 VRB03KT P6SM VCSH SCT040 BKN080
KAHN,KAHN 071741Z 0718/0818 28010G20KT P6SM SCT060 FM072300 29006KT P6SM FEW050 SCT150 FM080200 VRB02KT P6SM FEW050 SCT150 FM081000 VRB03KT P6SM VCSH SCT050 SCT100 FM081500 30010KT P6SM VCSH SCT050 SCT100
KAIA,KAIA 071736Z 0718/0818 16008KT P6SM FEW060 FM071900 15011G20KT P6SM SCT060 FM080300 17007KT P6SM SKC
KALB,KALB 071730Z 0718/0818 30010KT 2SM HZ BKN060 TEMPO 0720/0724 3SM HZ FM080000 31005KT 5SM HZ BKN050 FM080800 VRB03KT 6SM HZ BKN040 PROB30 0810/0814 4SM -SHRA BR OVC025 FM081400 32004KT 5SM HZ BKN050 PROB30 0814/0818 3SM -SHRA BR OVC025
KALI,KALI 071723Z 0718/0818 VRB04KT P6SM FEW027 SCT035 FM072200 10009KT P6SM SCT050 FM080900 VRB03KT 5SM BR SCT015 BKN250 FM081400 21005KT P6SM SCT025
KALO,KALO 071720Z 0718/0818 10005KT P6SM SCT060 FM072300 06006KT P6SM BKN250 FM080600 10007KT P6SM SCT230
KALS,KALS 071734Z 0718/0818 VRB04KT P6SM SCT110 BKN200 FM072000 23012KT P6SM VCSH SCT060 BKN110 TEMPO 0720/0723 -TSRA BKN050CB FM080200 27010KT P6SM BKN060 OVC110 FM080400 VRB04KT P6SM SCT120 BKN200 FM081700 17006KT P6SM BKN200
KALW,KALW 071720Z 0718/0818 23006KT P6SM SCT200 FM072300 35005KT P6SM SCT150 BKN200 FM080400 11006KT P6SM BKN250 FM081200 18006KT P6SM BKN250
KAMA,KAMA 071720Z 0718/0818 22007KT P6SM SCT150 FM080300 30009KT 4SM TSRA BR OVC025CB FM080500 16008KT P6SM BKN130 FM081200 27005KT P6SM SCT220
KANB,KANB 071720Z 0718/0818 26008KT P6SM SCT035 FM080300 02002KT P6SM SCT035 FM081400 32004KT P6SM SHRA BKN035 PROB30 0814/0818 4SM TSRA BR OVC025CB
KAND,KAND 071730Z 0718/0818 27011KT P6SM SCT060 BKN250 FM072200 31010KT P6SM VCSH BKN060 FM080200 06004KT P6SM VCSH BKN060 FM081400 29006KT P6SM SCT045
KAOO,KAOO 071755Z 0718/0818 33008G14KT 6SM FU SCT070 FM080000 34005KT 4SM FU BKN050
KAPA,KAPA 071740Z 0718/0818 08007KT P6SM FEW070 FEW140 BKN220 FM072100 12009KT P6SM VCTS BKN070CB BKN120 TEMPO 0722/0802 VRB15G30KT -TSRA BKN060CB FM080200 15009KT P6SM VCSH SCT080 BKN120 FM080600 21006KT P6SM FEW080 SCT220 FM081500 VRB06KT P6SM FEW080 SCT220
KAPC,KAPC 071720Z 0718/0818 27008KT P6SM OVC015 FM072000 23013KT P6SM FEW020 FM080800 27006KT P6SM BKN020 FM081700 23010KT P6SM SCT020
KAPF,KAPF 071720Z 0718/0818 22008KT P6SM VCTS SCT030CB BKN050 FM072000 24010KT P6SM VCSH SCT030 SCT060 FM080100 22005KT P6SM FEW030 FM081500 23010G18KT P6SM VCTS SCT030CB BKN050
KAPN,KAPN 071735Z 0718/0818 36010G17KT 6SM FU HZ SCT030 BKN250 TEMPO 0718/0720 3SM FU HZ BKN030 FM080100 33007KT P6SM SCT250 FM081700 35009G14KT P6SM SCT110
KARA,KARA 071720Z 0718/0818 VRB06KT P6SM VCTS SCT050CB SCT250 FM080200 VRB03KT P6SM SCT250
KART,KART 071735Z 0718/0818 30010G18KT 5SM HZ SCT040 BKN060 FM072000 35004KT 6SM HZ VCSH OVC035 FM080200 00000KT P6SM VCSH OVC025 FM081500 04007KT P6SM VCSH BKN020
KASD,KASD 071743Z 0718/0818 VRB04KT P6SM SCT030 FM072100 18006KT P6SM VCTS SCT035CB FM080100 00000KT P6SM FEW250 FM081500 VRB04KT P6SM SCT030
KASE,KASE 071725Z 0718/0818 02007KT P6SM VCSH FEW080 BKN120 FM072000 32007KT P6SM VCTS BKN060CB TEMPO 0720/0724 VRB20G33KT 4SM -TSRA BR BKN050CB BKN070 FM080000 25009KT P6SM VCTS BKN045CB FM080300 13005KT P6SM VCSH OVC050 FM080600 19004KT P6SM BKN250
KASN,KASN 071720Z 0718/0818 28007KT P6SM SCT035 FM080300 36002KT P6SM SCT035 FM081400 34003KT P6SM SHRA BKN035 PROB30 0814/0818 4SM TSRA BR OVC025CB
KAST,KAST 071728Z 0718/0818 24012KT P6SM SCT015 FM080200 23006KT P6SM FEW007 BKN012 FM080600 21004KT 6SM BR FEW003 OVC007
KATL,KATL 071741Z 0718/0824 30011G22KT P6SM SCT050 FM080000 30010KT P6SM FEW060 SCT150 FM080200 33004KT P6SM FEW060 SCT100 FM081200 32007KT P6SM VCSH FEW025 BKN060 FM081500 31010KT P6SM VCSH SCT050 SCT100 FM081900 32012G22KT P6SM SCT050
KATW,KATW 071722Z 0718/0818 05012G18KT P6SM FEW250 FM080200 02005KT P6SM FEW250 FM080800 35004KT P6SM FEW250 FM081400 01008KT P6SM FEW250
KATY,KATY 071721Z 0718/0818 14008KT P6SM VCTS SCT060CB SCT200 FM080200 15006KT P6SM SCT200
KAUG,KAUG 071720Z 0718/0818 34007KT P6SM -SHRA FEW040 OVC050 FM080000 31003KT P6SM SCT025 OVC050 FM080700 04003KT P6SM BKN025 OVC040
KAUS,KAUS 071720Z 0718/0824 VRB04KT P6SM FEW050 SCT250 FM072000 15005KT P6SM VCTS SCT050CB SCT250 FM080000 VRB03KT P6SM FEW070 SCT250
KAUW,KAUW 071722Z 0718/0818 05011G17KT P6SM FEW250 FM080200 08005KT P6SM FEW250 FM080700 VRB03KT P6SM FEW250 FM081400 02006KT P6SM FEW250
KAVL,KAVL 071730Z 0718/0818 34011KT P6SM VCSH OVC060 FM080600 34004KT 5SM BR BKN045 FM080900 34005KT 2SM BR BKN005 FM081300 34011KT P6SM FEW040
KAVP,KAVP 071737Z 0718/0818 33012KT 1 1/2SM FU VV030 TEMPO 0718/0722 3/4SM FU VV025 FM080100 27004KT 6SM HZ SCT040 FM081500 32006KT 4SM FU SCT045
KAXN,KAXN 071720Z 0718/0818 12009KT P6SM BKN100 FM080700 13008KT P6SM BKN080 PROB30 0807/0813 5SM -SHRA OVC060
KAZO,KAZO 071720Z 0718/0818 01009KT P6SM FEW060 FM072100 32010G16KT P6SM FEW060 FM080100 04006KT 6SM HZ SKC FM080800 VRB03KT 6SM HZ SKC FM081500 34009KT 6SM HZ FEW060
KBAB,TAF KBAB 071100Z 0711/0817 15009KT 9999 FEW020 SCT050 QNH2984INS TEMPO 0711/0716 14010G15KT BKN020 BECMG 0800/0801 18010G15KT 9999 SCT050 SCT200 QNH2984INS BECMG 0807/0808 16009KT 9999 FEW020 FEW080 QNH2989INS TX27/0723Z TN13/0712Z
KBAD,TAF AMD KBAD 071750Z 0718/0818 27003KT 9999 VCTS BKN040CB QNH2976INS TEMPO 0718/0724 VRB20G25KT 6000 -TSRA BKN030CB BECMG 0802/0803 26003KT 9999 NSW SKC QNH2978INS TX32/0721Z TN20/0812Z
KBAF,KBAF 071731Z 0718/0818 31010KT 6SM FU BKN040 FM080200 33004KT P6SM BKN050 FM081500 32005KT P6SM VCSH OVC035
KBAM,KBAM 071720Z 0718/0818 06006KT P6SM FEW120 FM072200 07010G20KT P6SM VCTS SCT060CB BKN150 FM080400 VRB06KT P6SM FEW120 BKN150
KBBD,KBBD 071751Z 0718/0818 11005KT P6SM SCT050 FM080200 VRB04KT P6SM SCT250 FM080600 VRB04KT P6SM SCT100 BKN250
KBBG,KBBG 071720Z 0718/0818 VRB05KT P6SM FEW200 FM080900 34007KT P6SM BKN100 PROB30 0809/0815 4SM TSRA BR BKN025CB
KBCB,KBCB 071720Z 0718/0818 29005KT P6SM SCT025 OVC080 TEMPO 0718/0720 BKN025 FM072100 29006KT P6SM OVC100 FM080500 00000KT 5SM BR SKC TEMPO 0809/0812 2SM BR FM081200 31005KT P6SM SKC
KBCE,KBCE 071734Z 0718/0818 17010KT P6SM SCT150 FM080200 34007KT P6SM FEW150
KBDL,KBDL 071731Z 0718/0824 31010KT 3SM FU BKN040 FM080300 30005KT 5SM FU BKN050 FM081400 32008KT P6SM BKN050 FM081700 33008KT P6SM VCSH BKN050
KBDN,KBDN 071720Z 0718/0818 VRB05KT P6SM SCT200 FM072000 36008KT P6SM VCSH SCT120 BKN200 FM080500 26004KT P6SM BKN250 FM081100 VRB03KT P6SM BKN250
KBDR,KBDR 071737Z 0718/0818 27011G18KT 2SM FU HZ VV025 FM080000 33010KT 3SM FU HZ VV025 FM080300 36006KT 4SM FU HZ VV040 FM081500 19008KT 5SM FU HZ VV040
KBED,KBED 071731Z 0718/0818 31010G17KT P6SM VCSH OVC035 FM072300 32006KT P6SM BKN035 FM080400 00000KT P6SM SCT030 FM081400 31005KT P6SM OVC035
KBFD,KBFD 071755Z 0718/0818 31016G24KT 2SM FU BKN030 OVC035 TEMPO 0718/0721 35009G15KT 1 1/2SM FU FM072100 32010KT 2SM FU BKN035 FM080300 33003KT 3SM FU BKN040 FM080800 33003KT 4SM -SHRA HZ BKN040
KBFF,KBFF 071736Z 0718/0818 13011KT P6SM SCT070 FM080300 12006KT P6SM FEW100 FM081100 30005KT P6SM SKC FM081700 15008KT P6SM FEW080
KBFI,KBFI 071722Z 0718/0818 31005KT P6SM BKN250 FM080700 20004KT P6SM SCT250
KBFL,KBFL 071720Z 0718/0818 31002KT P6SM OVC025 FM072000 29006KT P6SM OVC035 FM072100 33006KT P6SM BKN050 OVC070 FM081200 VRB03KT P6SM OVC050 FM081700 27003KT P6SM OVC250
KBFM,KBFM 071739Z 0718/0818 14007KT P6SM VCTS BKN035CB FM080100 25003KT P6SM SCT040 BKN250 FM081500 33005KT P6SM SKC
KBGM,KBGM 071737Z 0718/0818 29010G20KT 2SM FU SCT060 TEMPO 0718/0721 1SM FU VV028 FM072100 32009KT 3SM FU SCT035 FM080900 32007KT 6SM FU BKN028 FM081500 30010KT 5SM FU BKN025
KBGR,KBGR 071739Z 0718/0818 34005KT 4SM -SHRA OVC026 FM072100 30006KT P6SM -SHRA OVC035 FM080500 VRB02KT P6SM -SHRA OVC021
KBHB,KBHB 071739Z 0718/0818 20006KT P6SM -SHRA SCT015 OVC040 FM072000 25005KT P6SM -SHRA OVC040 FM080600 VRB02KT P6SM -SHRA BKN025
KBHM,KBHM 071720Z 0718/0818 30010KT P6SM SCT035 FM080300 31002KT P6SM SCT035 FM081400 35006KT P6SM SHRA BKN035 PROB30 0814/0818 4SM TSRA BR OVC025CB
KBIF,TAF KBIF 071400Z 0714/0820 VRB06KT 9999 FEW080 QNH2997INS BECMG 0722/0723 22012G18KT 9999 SKC QNH2987INS BECMG 0802/0803 22006KT 9999 SKC QNH2987INS TX33/0722Z TN13/0812Z
KBIH,KBIH 071737Z 0718/0818 16014G22KT P6SM VCSH SCT090 BKN120 FM080200 17008KT P6SM SCT100
KBIL,KBIL 071733Z 0718/0818 23008KT P6SM FEW030 SCT090 FM072300 09008KT P6SM VCTS SCT050CB FM080000 10007KT P6SM SCT070
KBIS,KBIS 071724Z 0718/0818 VRB05KT P6SM FEW080
KBIX,TAF KBIX 071800Z 0718/0900 24008KT 9999 SCT035 SCT200 QNH2973INS BECMG 0800/0801 VRB06KT 9999 SCT200 QNH2975INS TX29/0718Z TN22/0811Z
KBJC,KBJC 071740Z 0718/0818 07007KT P6SM FEW070 FEW140 SCT220 FM072200 11009KT P6SM VCTS BKN070CB BKN120 TEMPO 0722/0802 VRB15G30KT -TSRA BKN060CB FM080200 VRB06KT P6SM VCSH SCT080 BKN120 FM080500 VRB03KT P6SM FEW080 SCT220
KBJI,KBJI 071721Z 0718/0818 13007KT P6SM SCT060 BKN120
KBKE,KBKE 071745Z 0718/0818 VRB05KT P6SM SCT100 TEMPO 0723/0803 VRB20G35KT 5SM -TSRA SCT030 BKN060CB FM080300 VRB05KT P6SM VCSH BKN100
KBKF,TAF COR KBKF 071700Z 0717/0823 VRB06KT 9999 FEW080 QNH3000INS BECMG 0720/0721 VRB06KT 9999 VCTS FEW050 SCT070 510083 QNH2997INS TEMPO 0722/0802 VRB12G25KT 8000 -TSRA FEW050 BKN060 510083 BECMG 0801/0802 VRB06KT 8000 -SHRA FEW050 510083 QNH2994INS BECMG 0803/0804 16008KT 9999 NSW FEW060 QNH2994INS BECMG 0819/0820 VRB06KT 8000 -SHRA SCT060 QNH2994INS TX21/0721Z TN11/0812Z
KBKW,KBKW 071723Z 0718/0818 31009KT P6SM BKN150 FM080000 32006KT P6SM FEW250 FM080800 00000KT P6SM FEW250 FM081400 32007KT P6SM SKC
KBLF,KBLF 071720Z 0718/0818 29008G16KT P6SM SCT008 OVC030 TEMPO 0718/0719 6SM BR OVC008 FM071900 29009G16KT P6SM VCSH OVC030 FM080000 27005KT P6SM SCT050 BKN120 FM080600 28003KT 1SM BR OVC002 FM081400 31006KT P6SM SKC
KBLH,KBLH 071720Z 0718/0818 19012G18KT P6SM FEW250 FM080300 22010KT P6SM SKC FM080900 19007KT P6SM SKC
KBLI,KBLI 071722Z 0718/0818 24006KT P6SM FEW250 FM080300 18007KT P6SM FEW250
KBLV,TAF KBLV 071600Z 0716/0822 04009KT 4800 -SHRA BR BKN050 QNH2981INS TEMPO 0716/0718 05009KT 3200 -TSRA BR BKN030CB BECMG 0718/0719 03009KT 9999 NSW SCT040 BKN100 QNH2976INS BECMG 0800/0801 02009KT 9999 FEW250 QNH2977INS TX27/0722Z TN13/0811Z
KBMG,KBMG 071740Z 0718/0818 01006KT 6SM HZ FEW020 BKN120
KBMI,KBMI 071723Z 0718/0818 04007KT P6SM SKC
KBNA,KBNA 071728Z 0718/0818 VRB04KT 6SM HZ BKN120 FM072000 01011KT 6SM HZ VCSH BKN060 FM080700 36004KT P6SM SCT100
KBNO,KBNO 071745Z 0718/0818 VRB06KT P6SM SCT060 BKN100 TEMPO 0723/0803 VRB20G35KT 5SM -TSRA SCT040 BKN070CB FM080300 VRB06KT P6SM VCSH SCT060 BKN100
KBOI,KBOI 071745Z 0718/0818 VRB06KT P6SM SCT100 BKN150 TEMPO 0722/0802 VRB20G35KT 5SM -TSRA SCT030 BKN060CB FM080300 VRB06KT P6SM VCSH SCT060 BKN100
KBOS,KBOS 071731Z 0718/0824 30010G17KT P6SM VCSH OVC035 FM072300 29006KT P6SM BKN035 FM080600 28004KT P6SM SCT030 FM081400 08005KT P6SM BKN035 FM081800 08008KT P6SM VCSH BKN040
KBPI,KBPI 071725Z 0718/0818 23007KT P6SM SCT070 BKN150 FM072030 29012KT P6SM VCTS BKN080CB FM080300 33007KT P6SM -SHRA OVC080 FM080900 VRB05KT P6SM VCSH BKN080
KBPK,KBPK 071726Z 0718/0818 32005KT P6SM SCT050 FM080100 35003KT P6SM SCT250 FM081000 VRB02KT 2SM BR BKN100 FM081300 VRB05KT 6SM HZ BKN100
KBPT,KBPT 071720Z 0718/0818 33004KT P6SM SCT250 FM071900 VRB05KT P6SM VCTS SCT050CB SCT250 FM080200 VRB03KT P6SM SCT250
KBRD,KBRD 071729Z 0718/0818 10008KT P6SM BKN190 FM080000 11008KT P6SM VCSH BKN100 FM080600 11006KT P6SM BKN080
KBRL,KBRL 071728Z 0718/0818 04007KT P6SM FEW250
KBRO,KBRO 071736Z 0718/0818 08010KT P6SM SCT040 SCT250 FM080100 11008KT P6SM FEW020 SCT250 FM080400 14006KT P6SM SCT250 FM081400 20005KT P6SM FEW035
KBTL,KBTL 071720Z 0718/0818 01009KT P6SM FEW060 FM072100 32010G16KT P6SM FEW060 FM080100 04006KT 6SM HZ SKC FM080800 VRB03KT 6SM HZ SKC FM081500 34009KT 6SM HZ FEW060
KBTM,KBTM 071721Z 0718/0818 VRB03KT P6SM SCT100 FM071900 15006KT P6SM VCSH BKN070 FM072100 02008KT P6SM VCTS BKN070CB TEMPO 0723/0802 3SM -TSRA OVC030CB FM080300 14005KT 6SM -SHRA BR BKN090
KBTR,KBTR 071743Z 0718/0818 33005KT P6SM SCT035 FM072100 31005KT P6SM VCTS SCT040CB FM080100 00000KT P6SM SCT250 FM081500 VRB04KT P6SM SCT030
KBTV,KBTV 071720Z 0718/0818 33007KT P6SM -SHRA OVC023 TEMPO 0718/0722 SCT023 OVC035 FM080300 VRB04KT P6SM VCSH SCT015 OVC023 FM081000 VRB04KT P6SM VCSH OVC017 FM081500 VRB04KT P6SM VCSH OVC025
KBUF,KBUF 071735Z 0718/0818 33013G21KT P6SM SCT040 FM072100 35008KT P6SM SCT250 FM080300 05004KT 6SM HZ FU BKN200 FM080700 00000KT 5SM HZ FU BKN045 FM081500 VRB03KT 3SM HZ FU BKN025
KBUR,KBUR 071740Z 0718/0818 VRB03KT P6SM BKN025 OVC050 FM072000 18008KT P6SM BKN050 FM072300 18008KT P6SM SCT050 FM080500 VRB03KT P6SM SKC FM081000 VRB03KT P6SM BKN050
KBVI,KBVI 071740Z 0718/0818 34010KT 5SM HZ SKC FM080000 31005KT 6SM HZ SKC
KBVO,KBVO 071721Z 0718/0818 VRB03KT P6SM FEW060 SCT120 FM080200 VRB04KT P6SM SCT250
KBWG,KBWG 071720Z 0718/0818 02005KT P6SM -SHRA OVC050 TEMPO 0719/0721 5SM -RA OVC025 FM072200 01004KT P6SM OVC060 FM080100 00000KT 6SM HZ FEW250
KBWI,KBWI 071739Z 0718/0824 33011KT 3SM HZ BKN035 FM072300 30005KT 2SM HZ FU BKN035 FM080400 04003KT 2SM HZ FU BKN030 FM081300 36006KT 3SM HZ BKN035
KBYI,KBYI 071730Z 0718/0818 07006KT P6SM VCTS BKN090CB BKN120 FM072000 21010KT P6SM VCTS SCT090CB BKN140 BKN180 TEMPO 0721/0801 VRB20G35KT 4SM TSRA BKN090CB OVC140 FM080300 06007KT P6SM BKN120 FM081600 27006KT P6SM SCT070 BKN120
KBZN,KBZN 071801Z 0718/0824 VRB03KT P6SM FEW070 FEW250 FM072000 09009KT P6SM SCT070 BKN100 TEMPO 0720/0723 VRB25G40KT 4SM TSRA SCT030CB OVC060 FM080400 00000KT P6SM FEW080 FM081800 03008KT P6SM SCT060 BKN090
KCAE,KCAE 071728Z 0718/0818 30016G24KT P6SM SCT035 SCT150 BKN250 FM080000 VRB05KT P6SM VCSH SCT040 BKN080
KCAK,KCAK 071740Z 0718/0818 35011G20KT P6SM SKC FM080000 36009KT 6SM HZ SCT250 FM081600 34010KT 4SM HZ FU SCT070
KCAR,KCAR 071739Z 0718/0818 02009G15KT 5SM -SHRA OVC017 FM072300 04008G15KT P6SM -SHRA OVC008 FM080200 04007KT P6SM -SHRA OVC016
KCBM,TAF KCBM 071700Z 0717/0823 31007KT 9999 FEW045 QNH2974INS BECMG 0719/0720 30005KT 9999 SCT050 QNH2971INS BECMG 0800/0801 29004KT 9999 SKC QNH2972INS BECMG 0805/0806 27006KT 9999 SCT080 QNH2974INS BECMG 0811/0812 36006KT 9999 BKN080 QNH2977INS BECMG 0815/0816 36008KT 9999 SCT035 BKN080 QNH2973INS TEMPO 0818/0821 8000 -SHRA VCTS BKN030CB BKN080 BECMG 0821/0822 01006KT 9999 SCT040 SCT090 QNH2977INS TX33/0721Z TN19/0811Z
KCDC,KCDC 071734Z 0718/0818 21015G25KT P6SM SCT160 FM072200 26010KT P6SM SCT160 FM080500 16007KT P6SM FEW160
KCDR,KCDR 071736Z 0718/0818 16009KT P6SM SCT070 FM080800 22005KT P6SM SCT100
KCDS,KCDS 071724Z 0718/0818 12007KT P6SM SCT040 BKN110
KCEC,KCEC 071735Z 0718/0818 22005KT 6SM BR OVC016 FM071900 20005KT 6SM HZ OVC016 FM080400 00000KT 5SM BR OVC015 FM081200 16002KT P6SM OVC007 FM081600 19005KT P6SM OVC007
KCEF,TAF KCEF 071705Z 0717/0823 31012KT 9999 SCT060 BKN080 BKN250 620803 510009 QNH2952INS TEMPO 0717/0722 34015G25KT VCSH BKN060 BKN080 OVC250 610602 620802 520004 510405 BECMG 0722/0723 35009KT 9999 SCT050 BKN100 BKN250 510405 QNH2959INS BECMG 0805/0806 VRB06KT 9999 -SHRA BKN040 OVC060 610602 620805 510603 QNH2964INS BECMG 0815/0816 33007KT 9999 VCSH BKN040 BKN090 610602 620903 QNH2965INS TEMPO 0817/0823 28010G15KT -SHRA 610608 TX20/0718Z TN08/0809Z
KCGI,KCGI 071735Z 0718/0818 01007KT P6SM -SHRA BKN100 FM072000 01008KT P6SM BKN080 FM080000 03004KT P6SM SCT080 FM080600 VRB03KT P6SM SCT200 FM081700 01007KT P6SM FEW250
KCHA,KCHA 071741Z 0718/0818 28007KT P6SM FEW070 SCT120 SCT250 FM072000 31010KT P6SM BKN150 FM072300 01009KT P6SM BKN100 FM080200 03008KT P6SM SCT070 FM080500 02005KT P6SM BKN050 PROB30 0805/0811 6SM -SHRA OVC035
KCHO,KCHO 071739Z 0718/0818 36005KT 6SM HZ SCT070 FM080000 02003KT 6SM HZ FEW070 FM080900 33004KT 3SM HZ BKN035
KCHS,KCHS 071729Z 0718/0818 26011G17KT P6SM SCT060 FM072000 23011G17KT P6SM VCTS SCT040CB BKN090 TEMPO 0723/0802 VRB15G25KT 3SM TSRA BR SCT025 BKN040CB FM080300 35005KT P6SM VCSH SCT030 BKN070 FM081200 30007KT P6SM SCT025 BKN035
KCID,KCID 071728Z 0718/0818 07007KT P6SM FEW250 FM080600 09006KT P6SM SKC
KCIU,KCIU 071735Z 0718/0818 34010G17KT P6SM SCT070 BKN240 FM080100 35005KT P6SM SCT250 FM081600 33010KT P6SM FEW200
KCKB,KCKB 071723Z 0718/0818 32007KT P6SM SCT025 FM080400 36003KT P6SM SKC
KCKV,KCKV 071728Z 0718/0818 VRB04KT 6SM HZ SCT060 FM072100 01007KT P6SM VCSH OVC040 FM080400 03004KT P6SM SCT100
KCLE,KCLE 071740Z 0718/0824 35012KT P6SM SKC FM072100 01011KT 6SM HZ SCT250 FM081200 35009KT 5SM HZ SCT100 FM082000 35007KT 3SM HZ FU BKN200
KCLL,KCLL 071720Z 0718/0818 VRB04KT P6SM SCT045 SCT250 FM072000 27005KT P6SM VCTS SCT050CB SCT250 FM080000 VRB03KT P6SM BKN250
KCLM,KCLM 071722Z 0718/0818 09008KT P6SM FEW250 FM080000 29009G16KT P6SM FEW250 FM081200 30006KT P6SM FEW250
KCLT,KCLT 071730Z 0718/0824 35008KT 6SM HZ VCSH SCT060 BKN100 FM072100 34011KT 6SM -SHRA HZ OVC060 FM080300 01004KT 6SM HZ VCSH OVC060 FM080600 28003KT 6SM HZ BKN080 FM081400 34005KT P6SM SCT060
KCMA,KCMA 071740Z 0718/0818 VRB03KT P6SM OVC040 FM071900 24010KT P6SM OVC050 FM080400 VRB03KT P6SM SCT250 FM081000 VRB03KT P6SM BKN050
KCMH,KCMH 071741Z 0718/0818 35009KT P6SM SKC FM080200 04007KT P6SM SKC FM081500 35009KT P6SM SCT100
KCMI,KCMI 071723Z 0718/0818 04007KT P6SM SKC
KCMX,KCMX 071720Z 0718/0818 09009KT P6SM FEW250 FM080000 VRB03KT P6SM FEW250 FM081500 34008KT P6SM FEW250
KCNM,KCNM 071720Z 0718/0818 16011KT P6SM SCT060
KCNU,KCNU 071720Z 0718/0818 VRB05KT P6SM FEW100 FM072100 VRB06KT P6SM SCT050
KCNY,KCNY 071725Z 0718/0818 VRB04KT P6SM FEW080 SCT120 FM071930 24009KT P6SM VCTS FEW070CB SCT130 FM072100 23010KT P6SM VCTS FEW070CB BKN100 TEMPO 0721/0724 VRB20G33KT -TSRA BKN070CB BKN100 FM080300 12006KT P6SM SCT250 FM080900 14003KT P6SM SKC
KCOD,KCOD 071725Z 0718/0818 04006KT P6SM SCT150 FM072200 29008KT P6SM VCTS SCT050 BKN080CB FM080400 VRB05KT P6SM SCT070 OVC110 FM081700 04007KT P6SM VCSH SCT070 BKN130
KCOE,KCOE 071720Z 0718/0818 05005KT P6SM FEW150 SCT250 FM072100 32006KT P6SM SCT070 BKN250 FM080600 05005KT P6SM BKN090 BKN150 FM081200 04007KT P6SM BKN090 BKN150
KCOF,TAF KCOF 071800Z 0718/0824 10012KT 9999 VCSH SCT020 BKN060 QNH2975INS BECMG 0718/0719 10012KT 8000 -SHRA VCTS SCT020CB BKN050 QNH2976INS TEMPO 0720/0722 18015G25KT 3200 -TSRA BKN050CB BECMG 0802/0803 22009KT 9999 NSW BKN040 BKN070 QNH2976INS BECMG 0810/0811 22010G15KT 9999 BKN040 BKN070 QNH2976INS BECMG 0820/0821 19012G20KT 8000 -SHRA VCTS BKN030 BKN070 QNH2976INS TX30/0718Z TN23/0810Z
KCON,KCON 071720Z 0718/0818 30010G20KT P6SM SCT040 OVC060 FM072300 VRB03KT P6SM OVC060 FM081200 32003KT P6SM BKN025 OVC050
KCOS,KCOS 071734Z 0718/0818 12006KT P6SM SCT090 SCT120 BKN250 FM072000 14008KT P6SM VCSH SCT060 BKN120 TEMPO 0721/0801 VRB15G30KT 3SM TSRA BKN030CB FM080100 04009KT P6SM VCSH BKN060 BKN200 FM080300 36007KT P6SM SCT120 BKN250 FM080900 01006KT P6SM FEW120 SCT250 FM081600 16008KT P6SM SCT040 SCT120 BKN200
KCOT,KCOT 071723Z 0718/0818 12005KT P6SM SKC FM072200 09009KT P6SM SCT050 BKN250 FM080800 VRB05KT P6SM SCT030 BKN120 PROB30 0808/0812 5SM -TSRA BKN030CB
KCOU,KCOU 071720Z 0718/0818 VRB05KT P6SM VCSH BKN080 FM080000 05007KT P6SM SCT100
KCPR,KCPR 071725Z 0718/0818 23006KT P6SM VCSH SCT080 FM071900 VRB10KT P6SM VCTS SCT070 BKN090CB TEMPO 0720/0723 VRB12G22KT 6SM -TSRA SCT040 BKN070CB FM080200 VRB06KT P6SM -SHRA SCT070 OVC090 FM080600 23008KT P6SM SCT080 BKN110
KCPS,KCPS 071720Z 0718/0818 VRB05KT 6SM -SHRA BKN080 FM072000 03007KT P6SM SCT100
KCRE,KCRE 071729Z 0718/0818 18010KT P6SM FEW250 FM072100 23010KT P6SM VCTS BKN035CB FM080200 35005KT P6SM VCTS BKN060CB FM080500 VRB03KT P6SM BKN050 FM081400 29004KT P6SM VCSH BKN050
KCRG,KCRG 071730Z 0718/0818 23010KT P6SM SCT050 BKN100 BKN200 FM071900 22010KT P6SM VCTS BKN050CB BKN100 BKN200 TEMPO 0720/0723 VRB15G25KT 3SM TSRA BKN030CB FM080000 21006KT P6SM SCT050 BKN100 BKN200 FM080900 24006KT P6SM SCT008 SCT015 SCT200 FM081500 26010KT P6SM SCT035 SCT200
KCRP,KCRP 071723Z 0718/0818 VRB05KT P6SM FEW027 SCT035 FM072000 10010KT P6SM FEW040 FM080800 18004KT P6SM FEW015 BKN250 FM081400 21005KT P6SM SCT025
KCRQ,KCRQ 071728Z 0718/0818 23006KT P6SM SCT025 OVC035 FM072000 24011KT P6SM SCT025 BKN035 FM080300 VRB04KT P6SM BKN025 FM080600 VRB03KT P6SM OVC020
KCRW,KCRW 071723Z 0718/0818 32006KT P6SM FEW060 SCT240 FM080100 03004KT P6SM FEW250 FM080900 00000KT P6SM SKC FM081700 32007KT P6SM FEW250
KCSG,KCSG 071741Z 0718/0818 28008KT P6SM -SHRA BKN050 TEMPO 0720/0723 -TSRA BKN035CB FM080000 27006KT P6SM SCT050 FM080200 VRB03KT P6SM SCT250 FM081600 30010KT P6SM SCT050
KCSM,KCSM 071720Z 0718/0818 17006KT P6SM SCT120 BKN250 FM072000 17006KT P6SM VCTS SCT060CB BKN250 FM080300 VRB05KT P6SM BKN250
KCSV,KCSV 071728Z 0718/0818 VRB03KT 6SM HZ SCT050 FM071900 35011KT 6SM -RA VCTS OVC025CB FM072300 01007KT P6SM OVC040 FM080300 36003KT 4SM BR OVC020
KCTB,KCTB 071736Z 0718/0818 VRB05KT P6SM FEW200 FM081000 VRB03KT P6SM FEW045 FEW200 FM081500 05007KT P6SM BKN045 OVC100
KCUB,KCUB 071728Z 0718/0818 30012G18KT P6SM SCT035 SCT150 BKN250 FM080000 VRB03KT P6SM VCSH SCT040 BKN080
KCVG,KCVG 071741Z 0718/0824 35005KT 6SM HZ SCT150 FM080100 01005KT P6SM SKC FM081600 01007KT P6SM SKC FM082300 34005KT P6SM FEW150
KCVS,TAF KCVS 071800Z 0718/0824 23010G15KT 9999 SCT100 BKN200 QNH3003INS BECMG 0800/0801 26015G30KT 8000 -TSRA OVC050CB QNH2993INS BECMG 0803/0804 27012KT 9999 VCSH OVC050 QNH2997INS BECMG 0804/0805 27009KT 9999 NSW SCT100 QNH2997INS TX25/0721Z TN15/0810Z
KCWA,KCWA 071722Z 0718/0818 04008G14KT P6SM FEW250 FM080200 08005KT P6SM FEW250 FM080700 VRB03KT P6SM FEW250 FM081400 02006KT P6SM FEW250
KCXO,KCXO 071720Z 0718/0818 25005KT P6SM SCT045 SCT250 FM072000 26005KT P6SM VCTS BKN050CB FM080200 VRB03KT P6SM BKN250
KCXP,KCXP 071720Z 0718/0818 08006KT P6SM SCT100 SCT200 FM071900 09011G17KT P6SM SCT080 SCT140 FM080000 30010KT P6SM VCSH SCT080 BKN120 FM080500 VRB03KT P6SM SCT100
KCYS,KCYS 071736Z 0718/0818 14012G20KT P6SM SCT040 FM080000 15011KT P6SM VCTS BKN050CB FM080300 29011KT P6SM VCTS BKN040CB OVC100 FM080600 29006KT P6SM VCSH BKN060 FM081000 30006KT P6SM FEW100 FM081500 16010KT P6SM SCT100
KDAA,TAF KDAA 071200Z 0712/0818 33009KT 9000 HZ BKN200 QNH2963INS TX26/0721Z TN13/0810Z
KDAB,KDAB 071720Z 0718/0818 22008KT P6SM VCTS SCT045CB BKN150 TEMPO 0720/0723 3SM TSRA BKN035CB FM080200 22005KT P6SM SCT050 SCT250 FM081300 25009KT P6SM SCT040 SCT120 FM081700 24009KT P6SM VCTS SCT060CB BKN250
KDAG,KDAG 071737Z 0718/0818 30012KT P6SM SCT120 FM072300 27012G22KT P6SM BKN100 FM080400 26011KT P6SM FEW100
KDAL,KDAL 071741Z 0718/0818 VRB04KT P6SM BKN250 FM071930 15006KT P6SM VCTS SCT070CB FM080200 VRB04KT P6SM FEW100 BKN250
KDAN,KDAN 071720Z 0718/0818 27008G16KT P6SM FEW025 OVC070 TEMPO 0718/0720 5SM -SHRA BR OVC025 FM072000 27008G16KT P6SM VCSH OVC080 FM080000 27004KT P6SM OVC120 FM081000 32005KT P6SM SCT250
KDAY,KDAY 071741Z 0718/0818 01008KT P6SM SKC FM080100 05006KT P6SM SKC FM081500 01008KT P6SM SCT100
KDBQ,KDBQ 071728Z 0718/0818 06008KT P6SM FEW250
KDCA,KDCA 071739Z 0718/0824 32008G16KT 3SM HZ BKN035 FM072200 33007KT 5SM HZ BKN040 FM080500 32004KT 2SM HZ FU BKN030 FM081400 01007KT 3SM HZ BKN035
KDDC,KDDC 071720Z 0718/0818 VRB06KT P6SM SCT060
KDEC,KDEC 071723Z 0718/0818 03006KT P6SM FEW240
KDEN,KDEN 071740Z 0718/0824 08007KT P6SM FEW090 FEW150 BKN250 FM072300 11009KT P6SM VCTS BKN070CB BKN120 TEMPO 0723/0803 VRB15G30KT -TSRA BKN060CB FM080300 15009KT P6SM VCSH SCT080 BKN120 FM080700 21006KT P6SM FEW080 SCT220 FM081500 VRB06KT P6SM FEW080 SCT220 FM081900 09007KT P6SM SCT080 SCT150 FM082200 12007KT P6SM VCTS SCT080 SCT150CB
KDET,KDET 071720Z 0718/0818 02010G17KT P6SM SKC FM080200 32004KT P6SM SKC FM081000 34007KT 5SM HZ SCT060 FM081600 02010G17KT P6SM BKN070
KDFW,KDFW 071741Z 0718/0824 VRB04KT P6SM SCT050 BKN250 FM071930 15006KT P6SM VCTS SCT070CB FM080200 VRB04KT P6SM FEW100 BKN250 FM080900 VRB03KT P6SM VCSH BKN060 FM081100 VRB04KT P6SM SCT100 BKN250 FM082000 24005KT P6SM VCTS SCT070CB
KDHN,KDHN 071727Z 0718/0818 24006KT P6SM VCTS SCT040CB BKN060 FM072300 24006KT P6SM SCT040 FM080900 26005KT 6SM BR SCT008 FM081300 28008KT P6SM SCT040
KDHT,KDHT 071720Z 0718/0818 21011KT P6SM SCT230 FM072300 17010KT P6SM SCT210 FM080200 29010KT 4SM TSRA BR OVC025CB FM080400 15006KT P6SM BKN120
KDIJ,KDIJ 071730Z 0718/0818 26008KT P6SM VCTS BKN070CB BKN120 FM072000 16007KT P6SM VCTS OVC080CB TEMPO 0720/0724 VRB20G35KT 6SM -TSRA OVC070CB FM080200 VRB05KT P6SM -SHRA OVC070 FM080600 VRB05KT P6SM BKN120 FM081600 21006KT P6SM VCSH SCT050 BKN090 AMD LTD TO CLD VIS AND WIND
KDIK,KDIK 071724Z 0718/0818 15010KT P6SM FEW080
KDLF,TAF AMD KDLF 071400Z 0714/0817 09006KT 9999 SCT180 QNH2990INS BECMG 0714/0715 13008KT 9999 SCT060 BKN160 QNH2973INS BECMG 0802/0803 15012KT 9999 VCTS BKN050CB QNH2979INS TEMPO 0804/0808 VRB25G40KT -TSRAGR BKN025CB BECMG 0809/0810 VRB06KT 9999 NSW SCT050 QNH2984INS BECMG 0815/0816 17008KT 9999 FEW020 BKN040 QNH2988INS TX34/0721Z TN21/0812Z
KDLH,KDLH 071729Z 0718/0818 09010KT P6SM SCT210 FM072100 08011G18KT P6SM SCT250 FM080300 08007KT P6SM SCT250
KDLS,KDLS 071720Z 0718/0818 32009KT P6SM SKC FM080000 31013G23KT P6SM BKN200 FM081200 31013KT P6SM BKN250 FM081500 31014G22KT P6SM BKN250
KDMA,TAF KDMA 071400Z 0714/0820 12009KT 9999 SKC QNH2991INS BECMG 0718/0719 23010G15KT 9999 SKC QNH2982INS BECMG 0723/0724 27012KT 9999 FEW250 QNH2982INS BECMG 0803/0804 VRB06KT 9999 SCT250 QNH2991INS BECMG 0817/0818 27012KT 9999 FEW250 QNH3000INS TX34/0722Z TN17/0811Z
KDMN,KDMN 071747Z 0718/0818 VRB05KT P6SM FEW100 FM071900 25010G20KT P6SM FEW100 FM080200 26008KT P6SM SKC
KDNL,KDNL 071742Z 0718/0818 24008G12KT P6SM VCTS SCT035CB SCT150 BKN250 TEMPO 0718/0722 3SM -TSRA FM080200 VRB05KT P6SM VCSH SCT040 BKN080
KDOV,TAF KDOV 071600Z 0716/0822 30009KT 4800 FU SCT070 QNH2964INS BECMG 0720/0721 20006KT 9000 FU SCT070 QNH2963INS BECMG 0803/0804 20006KT 9999 NSW SCT040 BKN060 QNH2963INS BECMG 0808/0809 02006KT 9999 SCT040 BKN060 QNH2965INS BECMG 0814/0815 01006KT 8000 -RA BKN060 QNH2967INS TEMPO 0815/0820 6000 -TSRA BKN060CB BECMG 0819/0820 12006KT 9999 NSW SCT050 QNH2966INS TX26/0720Z TN14/0808Z
KDPA,KDPA 071724Z 0718/0818 05009KT P6SM FEW250 FM072100 02013G21KT P6SM FEW250 FM080300 02007KT P6SM FEW250
KDRO,KDRO 071725Z 0718/0818 18007KT P6SM FEW080 SCT120 FM072000 19010KT P6SM VCTS SCT080CB BKN150 TEMPO 0721/0724 VRB20G33KT 5SM -TSRA BR BKN070CB BKN100 FM080000 36010KT P6SM VCSH SCT110 BKN200 FM080300 06005KT P6SM SCT250
KDRT,KDRT 071720Z 0718/0818 14007KT P6SM SCT250 PROB30 0804/0807 30010G25KT 4SM TSRA BKN050CB
KDSM,KDSM 071720Z 0718/0818 12005KT 5SM BR VCSH SCT015 BKN080 FM072000 08008KT P6SM SCT060 FM080200 08007KT P6SM BKN250 FM080600 08007KT P6SM SCT240
KDTW,KDTW 071720Z 0718/0824 35010G17KT P6SM SKC FM080200 34004KT P6SM SKC FM081000 34007KT 5SM HZ SCT060 FM081600 35010G17KT P6SM BKN070
KDUG,KDUG 071720Z 0718/0818 22012G22KT P6SM SKC FM080200 25008KT P6SM SCT250 FM080600 VRB04KT P6SM BKN250
KDUJ,KDUJ 071740Z 0718/0818 35007KT 3SM FU SKC TEMPO 0718/0720 5SM HZ FM080000 34004KT P6SM FEW250
KDVL,KDVL 071721Z 0718/0818 19006KT P6SM SCT090 FM080000 07009KT P6SM VCTS SCT060CB BKN100 FM080300 13009KT P6SM FEW060 BKN150 FM081300 13006KT P6SM BKN025
KDVT,KDVT 071720Z 0718/0818 19008KT P6SM FEW120 FEW250 FM072100 24011KT P6SM FEW120 FEW250 FM080400 23006KT P6SM SCT250 FM081000 10004KT P6SM SCT250
KDYS,TAF KDYS 071600Z 0716/0822 VRB06KT 9999 SCT100 QNH2980INS TEMPO 0720/0722 9000 -RA VCTS SCT060CB TEMPO 0805/0808 VRB15G25KT 9000 -TSRA BKN050CB BECMG 0818/0819 VRB06KT 9000 -TSRA BKN080CB QNH2975INS TX30/0722Z TN19/0811Z
KEAR,KEAR 071720Z 0718/0818 VRB05KT P6SM SCT080 FM080300 27005KT P6SM BKN080 FM081200 32005KT P6SM FEW080
KEAT,KEAT 071720Z 0718/0818 28009KT P6SM FEW250 FM072100 12005KT P6SM FEW150 SCT250 FM080500 31008KT P6SM SCT200 FM081200 29008KT P6SM BKN100 BKN200
KEAU,KEAU 071720Z 0718/0818 07006KT P6SM SCT120 FM081400 12005KT P6SM BKN250
KECG,KECG 071742Z 0718/0818 14004KT 3SM HZ FU BKN080 TEMPO 0718/0720 2SM HZ FU FM072200 16007KT 5SM HZ VCSH OVC080 FM080100 16004KT 4SM -SHRA HZ OVC060 FM080600 17004KT 4SM HZ SCT008 OVC012 FM081300 01005KT 6SM HZ SCT060
KECP,KECP 071727Z 0718/0818 20008KT 6SM -TSRA SCT030CB BKN045 FM071900 21006KT P6SM SCT035 FM081000 23003KT 6SM BR SCT008 BKN035 FM081400 24009KT P6SM VCTS BKN035CB
KEDW,TAF AMD KEDW 071600Z 0716/0819 22012G18KT 9999 SCT100 QNH2989INS BECMG 0719/0720 24015G25KT 9999 BKN100 510006 QNH2994INS TEMPO 0721/0801 BKN060CB VCTS BECMG 0802/0803 22010KT 9999 BKN100 QNH2995INS BECMG 0809/0810 23009KT 9999 SCT100 QNH2996INS TX24/0723Z TN11/0811Z
KEED,KEED 071737Z 0718/0818 16010KT P6SM BKN120 FM072000 19012G20KT P6SM VCSH BKN100 FM080300 23010KT P6SM SCT120
KEET,KEET 071720Z 0718/0818 30008KT P6SM SCT035 FM080300 27002KT P6SM SCT035 FM081600 32005KT P6SM SHRA BKN035 PROB30 0816/0818 4SM TSRA BR OVC025CB
KEFD,TAF KEFD 071200Z 0712/0818 VRB06KT 8000 HZ FEW030 QNH2974INS BECMG 0720/0721 VRB06KT 9999 NSW FEW055 QNH2974INS TX31/0721Z TN21/0712Z
KEFK,KEFK 071720Z 0718/0818 32006KT P6SM -SHRA SCT010 OVC021 TEMPO 0718/0721 6SM -SHRA OVC015 FM072100 32006KT P6SM -SHRA OVC015 FM080800 00000KT P6SM VCSH OVC009 FM081500 35006KT P6SM OVC025
KEGE,KEGE 071725Z 0718/0818 VRB04KT P6SM VCTS FEW080CB BKN140 TEMPO 0718/0720 VRB15G25KT -TSRA BKN070CB FM072000 25008KT P6SM VCTS BKN080CB BKN100 TEMPO 0720/0724 VRB20G33KT 4SM -TSRA BR OVC035CB FM080000 22011KT P6SM VCTS FEW030 BKN050CB FM080600 08002KT P6SM OVC100
KEGI,TAF KEGI 071700Z 0717/0823 23009KT 9999 VCTS SCT030CB QNH2972INS TEMPO 0718/0724 23012G18KT 8000 -TSRA BKN030CB BECMG 0723/0724 23009KT 9999 NSW SCT030 QNH2972INS BECMG 0804/0805 26006KT 1600 BR SCT002 QNH2972INS BECMG 0811/0812 28006KT 9999 NSW SCT120 QNH2974INS BECMG 0818/0819 23012G18KT 8000 -TSRA BKN030CB QNH2966INS TX30/0720Z TN20/0811Z
KEKN,KEKN 071723Z 0718/0818 31008KT P6SM FEW250 FM080300 00000KT P6SM FEW230 FM080900 00000KT 3/4SM BR FEW190 FM081000 00000KT 4SM BR FEW250 FM081400 28005KT P6SM SKC
KEKO,KEKO 071720Z 0718/0818 06006KT P6SM FEW120 FM072200 07010G20KT P6SM VCTS SCT060CB BKN150 FM080400 VRB06KT P6SM FEW120 BKN150
KEKS,KEKS 071801Z 0718/0818 VRB04KT P6SM SCT070 OVC110 FM072000 09009KT P6SM SCT070 BKN100 TEMPO 0720/0723 VRB25G40KT 4SM TSRA SCT030CB OVC060 FM080400 00000KT P6SM FEW080
KELD,KELD 071720Z 0718/0818 VRB04KT P6SM SCT040 FM072100 VRB04KT P6SM SCT050 SCT250 FM080200 VRB03KT P6SM FEW060 SCT250 FM081500 VRB04KT P6SM SCT030
KELM,KELM 071737Z 0718/0818 33012G20KT 1SM FU VV030 TEMPO 0718/0720 1/2SM FU VV025 FM072100 33009KT 3SM FU SCT040 FM080800 30004KT 6SM HZ BKN028 FM081100 28004KT 4SM FU BKN025
KELP,KELP 071747Z 0718/0818 17006KT P6SM FEW060 FEW130 FM072000 23009G19KT P6SM FEW130 FM080200 26008KT P6SM SKC
KELY,KELY 071720Z 0718/0818 18010KT P6SM SKC FM072100 19010G20KT P6SM SCT100 FM080200 19009KT P6SM SCT150
KEND,TAF KEND 071800Z 0718/0824 VRB06KT 9999 FEW070 SCT100 QNH2980INS BECMG 0718/0719 19006KT 9999 -SHRA VCTS SCT050CB BKN100 QNH2982INS TEMPO 0719/0724 19010G20KT 6000 -TSRA BKN050CB OVC100 BECMG 0800/0801 VRB06KT 9999 NSW FEW250 QNH2985INS BECMG 0820/0821 19006KT 9000 -SHRA BKN050 OVC070 QNH2980INS TX31/0720Z TN18/0811Z
KENV,KENV 071734Z 0718/0818 13007KT P6SM BKN150 FM080300 33010KT P6SM SCT200 FM081000 VRB04KT P6SM SCT150
KENW,KENW 071720Z 0718/0818 03012KT P6SM SCT250 TEMPO 0720/0723 03013G21KT FM080400 02007KT P6SM FEW250
KERI,KERI 071740Z 0718/0818 29011KT 5SM HZ BKN250 FM080000 31009KT 6SM HZ SCT250 FM081400 35008KT 3SM HZ FU BKN060
KEUG,KEUG 071728Z 0718/0818 21007KT P6SM FEW020 SCT120 BKN250 FM072200 24011KT P6SM SCT120 BKN250 FM081000 21007KT P6SM SCT015 BKN025
KEUL,KEUL 071745Z 0718/0818 VRB06KT P6SM SCT100 BKN150 TEMPO 0723/0802 VRB20G35KT 5SM -TSRA SCT030 BKN060CB FM080300 VRB06KT P6SM VCSH SCT060 BKN100
KEVV,KEVV 071735Z 0718/0818 36005KT 6SM -SHRA HZ SCT018 BKN035 OVC100 TEMPO 0718/0721 SCT010 BKN025 FM072100 36006KT P6SM SCT070 FM080000 35004KT P6SM SCT200 FM080300 VRB04KT P6SM FEW250
KEVW,KEVW 071734Z 0718/0818 03010KT P6SM VCSH FEW060 SCT080 OVC090 TEMPO 0718/0719 -SHRA FM072000 VRB15G25KT P6SM VCTS SCT060 BKN100CB FM080100 16007KT P6SM FEW060 SCT100 BKN120
KEWN,KEWN 071756Z 0718/0818 29007KT 5SM HZ SCT120 FM072000 33006KT 5SM HZ VCSH BKN120 FM080000 VRB03KT 5SM -SHRA HZ SCT020 BKN060 FM080400 00000KT 3SM -SHRA BR SCT007 BKN060 FM080800 00000KT 5SM BR SCT007 BKN060 FM081400 VRB04KT P6SM SCT015 BKN120
KEWR,KEWR 071737Z 0718/0824 29011G21KT 1SM FU HZ VV025 FM080000 31010KT 3SM FU HZ VV025 FM080300 35007KT 4SM FU HZ VV040 FM081600 28007KT 5SM FU HZ VV040 FM082000 20010KT 5SM FU HZ VV040
KEYW,KEYW 071737Z 0718/0818 22009KT P6SM SCT020 SCT200
KFAF,TAF AMD KFAF 071215Z 0712/0816 05006KT 6000 HZ OVC090 QNH2965INS BECMG 0721/0722 12006KT 6000 HZ -SHRA BKN035 OVC060 QNH2964INS BECMG 0804/0805 13009KT 9000 BR BKN030 OVC050 QNH2964INS TX25/0718Z TN15/0809Z
KFAR,KFAR 071721Z 0718/0818 14008KT P6SM SCT060 BKN140 FM080100 12009KT P6SM SCT060 BKN110 FM081400 15010KT P6SM BKN035
KFAT,KFAT 071720Z 0718/0818 24004KT P6SM OVC030 FM072000 27005KT P6SM OVC035 FM072100 30005KT P6SM BKN050 FM081200 31005KT P6SM OVC050 FM081700 27004KT P6SM BKN100
KFAY,KFAY 071739Z 0718/0818 32009KT P6SM SCT060 SCT250 FM072000 33011KT P6SM BKN090 FM080000 29005KT 6SM HZ BR BKN100 FM080900 25005KT P6SM BKN250 FM081500 28010KT P6SM SCT250
KFBG,TAF KFBG 071700Z 0717/0823 31010G15KT 9999 SCT070 QNH2971INS BECMG 0720/0721 30009KT 8000 -RA BKN030 QNH2968INS BECMG 0802/0803 28006KT 9999 NSW BKN030 QNH2968INS BECMG 0808/0809 28006KT 8000 BR FEW010 SCT050 BKN080 QNH2969INS BECMG 0811/0812 29006KT 9999 NSW FEW050 SCT080 QNH2970INS TX28/0718Z TN13/0811Z
KFCS,TAF KFCS 071300Z 0713/0819 15010KT 9999 SCT100 QNH3006INS BECMG 0719/0720 12010G15KT 8000 -SHRA VCTS BKN040CB QNH3003INS TEMPO 0723/0802 VRB15G25KT 8000 TSRA BKN020CB BECMG 0803/0804 33010KT 9999 VCSH SCT040 BKN070 BKN180 QNH3000INS BECMG 0808/0809 31005KT 9999 NSW SCT040 BKN180 QNH3002INS BECMG 0817/0818 17015KT 8000 -SHRA BKN040 QNH3005INS TX22/0818Z TN11/0812Z
KFDY,KFDY 071740Z 0718/0818 01008KT 6SM HZ SCT070 FM080300 06005KT 5SM HZ FEW250 FM081700 36010KT 5SM HZ FU SCT250
KFFO,TAF KFFO 071103Z 0711/0817 VRB06KT 8000 BR SCT065 BKN250 QNH2982INS BECMG 0713/0714 03012KT 9999 NSW SCT055 QNH2977INS TEMPO 0714/0724 03012G18KT BECMG 0723/0724 06009KT 9999 SCT070 SCT100 QNH2976INS WND 35009KT AFT 0808 BECMG 0814/0815 02010G15KT 9999 SKC QNH2985INS TX23/0720Z TN12/0711Z
KFHU,TAF KFHU 071400Z 0714/0820 17009KT 9999 SKC QNH3006INS BECMG 0717/0718 20010G15KT 9999 FEW280 510004 QNH2996INS TEMPO 0719/0802 23012G20KT BECMG 0801/0802 25009KT 9999 SKC QNH3000INS TX29/0721Z TN13/0811Z
KFKL,KFKL 071740Z 0718/0818 32011KT 6SM HZ SCT070 FM080000 32004KT P6SM SKC
KFLG,KFLG 071730Z 0718/0818 21011G18KT P6SM SCT250 FM071900 21013G25KT P6SM SKC FM080230 VRB05KT P6SM SKC FM081700 21010KT P6SM SKC
KFLL,KFLL 071720Z 0718/0824 17010KT P6SM VCTS SCT030CB BKN050 TEMPO 0718/0721 VRB15G25KT 4SM TSRA BKN020CB FM080000 20006KT P6SM SCT025 SCT080 FM080600 VRB04KT P6SM SCT025 SCT250 FM081500 23010KT P6SM VCTS SCT030CB BKN050
KFLO,KFLO 071729Z 0718/0818 27009KT P6SM SCT150 FM072200 36008KT P6SM VCTS BKN050CB FM080300 VRB02KT P6SM VCSH BKN070 FM081200 31004KT P6SM BKN030
KFMH,KFMH 071731Z 0718/0818 29010KT P6SM VCSH BKN035 FM072200 26005KT P6SM BKN040 FM080200 VRB03KT P6SM BKN050 FM081500 30005KT P6SM SCT050
KFMN,KFMN 071739Z 0718/0818 10009KT P6SM VCTS BKN100CB FM071830 18008KT P6SM SCT100 FM072000 26010KT P6SM SCT090 TEMPO 0721/0724 VRB18G28KT -SHRA BKN060 FM080300 09006KT P6SM FEW120
KFMY,KFMY 071739Z 0718/0818 24011KT P6SM VCSH SCT025 OVC120 TEMPO 0718/0722 5SM TSRA BKN050CB FM080100 VRB03KT P6SM BKN250 FM081300 25009KT P6SM BKN100 PROB30 0813/0816 5SM TSRA BKN040CB FM081600 25010G18KT P6SM BKN050 PROB30 0816/0818 5SM TSRA BKN040CB
KFNT,KFNT 071720Z 0718/0818 01009G16KT P6SM SKC FM080100 VRB03KT P6SM SKC FM081000 33006KT 5SM HZ BKN060 FM081600 35010G17KT P6SM BKN070
KFOD,KFOD 071720Z 0718/0818 10007KT P6SM SCT060 SCT110 FM080600 11007KT P6SM SCT140
KFOE,KFOE 071724Z 0718/0818 VRB04KT P6SM SCT060 FM080100 08006KT P6SM BKN100
KFPR,KFPR 071720Z 0718/0818 19009KT P6SM VCSH SCT040 SCT140 FM071900 16009KT P6SM VCTS SCT035CB BKN100 TEMPO 0720/0723 3SM TSRA BKN035CB FM080200 21005KT P6SM SCT050 SCT250 FM081300 24008KT P6SM SCT035 SCT130 FM081700 25009KT P6SM VCTS SCT050CB SCT150
KFRI,TAF KFRI 071200Z 0712/0818 VRB06KT 9999 SKC QNH2992INS BECMG 0804/0805 21006KT 9999 FEW080 QNH2982INS TX31/0720Z TN16/0712Z
KFSD,KFSD 071734Z 0718/0818 09007KT P6SM SCT120 BKN140 FM072100 10008KT P6SM SCT140 FM080200 10006KT P6SM SKC FM081200 14007KT P6SM SCT200
KFSM,KFSM 071721Z 0718/0818 VRB03KT P6SM SCT060 SCT120 FM080700 VRB03KT 6SM BR SCT250 FM081300 VRB03KT P6SM SCT250
KFST,KFST 071720Z 0718/0818 14008KT P6SM SCT060
KFTK,TAF AMD KFTK 071719Z 0717/0817 30006KT 3200 -SHRA BR BKN005 OVC015 QNH2978INS BECMG 0720/0721 32006KT 8000 BR VCSH SCT006 BKN015 OVC020 QNH2985INS BECMG 0801/0802 33006KT 9999 NSW SCT060 BKN080 OVC100 QNH2988INS TX20/0721Z TN15/0811Z
KFTW,KFTW 071741Z 0718/0818 VRB04KT P6SM BKN250 FM071900 15006KT P6SM VCTS SCT070CB FM080200 VRB04KT P6SM FEW100 BKN250 FM080900 VRB03KT P6SM VCSH BKN060 FM081100 VRB04KT P6SM SCT100 BKN250
KFTY,KFTY 071741Z 0718/0818 29010G20KT P6SM SCT050 FM072300 29008KT P6SM SCT060 FM080200 VRB02KT P6SM FEW050 SCT150 FM081200 31004KT P6SM VCSH SCT050 SCT100 FM081500 31010KT P6SM VCSH SCT050 SCT100
KFVE,KFVE 071739Z 0718/0818 03009G17KT P6SM -SHRA OVC014 FM080000 05009G17KT P6SM -SHRA OVC008 FM080200 05008G15KT 3SM -SHRA OVC008
KFWA,KFWA 071732Z 0718/0818 03010G18KT P6SM FEW250 FM080500 04004KT P6SM FEW060 FM081200 36006KT 6SM HZ SCT250 FM081700 34010G20KT P6SM BKN250
KFXE,KFXE 071720Z 0718/0818 18010KT P6SM VCTS SCT030CB BKN050 FM080000 20005KT P6SM SCT025 SCT080 FM081500 23010KT P6SM VCTS SCT025CB BKN050
KFYV,KFYV 071721Z 0718/0818 VRB03KT P6SM SCT060 SCT120 FM080700 VRB03KT 5SM BR SCT250 FM081300 VRB03KT P6SM SCT250
KGBD,KGBD 071720Z 0718/0818 VRB05KT P6SM FEW250
KGCC,KGCC 071720Z 0718/0818 09007KT P6SM SCT100 TEMPO 0720/0724 -TSRA BKN080CB FM080300 25010KT P6SM BKN100
KGCK,KGCK 071720Z 0718/0818 VRB06KT P6SM SCT060
KGCN,KGCN 071730Z 0718/0818 21010G18KT P6SM SCT250 FM071900 21012G22KT P6SM SKC FM080230 VRB05KT P6SM SKC FM081700 21009KT P6SM SKC
KGDV,KGDV 071720Z 0718/0818 VRB06KT P6SM SKC FM072300 16010KT P6SM FEW090 FM080200 VRB06KT P6SM FEW090 PROB30 0806/0810 6SM TSRA BR BKN080CB FM081400 VRB06KT P6SM FEW140 FM081700 06007KT P6SM FEW090
KGEG,KGEG 071720Z 0718/0818 VRB04KT P6SM FEW150 BKN250 FM072200 VRB06KT P6SM SCT070 BKN250 FM080600 VRB04KT P6SM BKN100 BKN200 FM081200 07005KT P6SM BKN100 BKN200
KGFA,TAF KGFA 071158Z 0712/0818 VRB06KT 9999 FEW030 FEW100 QNH2988INS BECMG 0720/0721 06009KT 9999 FEW030 SCT050 QNH2988INS TEMPO 0721/0800 06012G18KT VCTS SCT030CB BECMG 0809/0810 VRB06KT 9999 FEW015 SCT020 BKN030 QNH2995INS TEMPO 0812/0817 4800 BR SCT015 OVC030 BECMG 0817/0818 06010G20KT 4800 -SHRA VCTS SCT005 BKN015CB OVC030 QNH2997INS TX25/0722Z TN11/0712Z
KGFK,KGFK 071721Z 0718/0818 14012KT 5SM HZ BKN140 OVC250 FM080100 12009KT P6SM BKN100 FM081300 16011KT P6SM BKN025
KGFL,KGFL 071730Z 0718/0818 06007KT 6SM HZ BKN060 FM080500 VRB03KT 6SM BR SCT020 OVC050 PROB30 0808/0814 3SM -SHRA BR OVC025 FM081400 04006KT 6SM HZ BKN050 PROB30 0814/0818 5SM -SHRA BR BKN030
KGGG,KGGG 071720Z 0718/0818 VRB04KT P6SM VCTS SCT040CB SCT250 TEMPO 0718/0722 VRB15G30KT 3SM TSRA BR BKN030CB FM080400 VRB03KT P6SM FEW060 SCT250 TEMPO 0810/0813 5SM BR FM081500 VRB04KT P6SM SCT030
KGGW,KGGW 071720Z 0718/0818 06010KT P6SM FEW100 TEMPO 0718/0721 6SM TSRA BR BKN060CB BKN070 FM072100 05010KT P6SM SCT090 TEMPO 0721/0801 6SM TSRA BR BKN070CB BKN080 BKN090 FM080600 36010KT P6SM SCT100 PROB30 0806/0810 6SM TSRA BR BKN070CB FM081100 04010KT P6SM SCT070
KGJT,KGJT 071757Z 0718/0818 26010KT P6SM FEW110 SCT250 FM072000 26008KT P6SM VCTS FEW080CB BKN130 FM072200 21014G23KT P6SM VCTS BKN090CB FM080000 15009KT P6SM BKN130 FM080400 09010KT P6SM BKN250 FM081200 11010KT P6SM SKC
KGKY,KGKY 071741Z 0718/0818 VRB04KT P6SM BKN250 FM071930 15006KT P6SM VCTS SCT070CB FM080200 VRB04KT P6SM FEW100 BKN250 FM080900 VRB03KT P6SM VCSH BKN060 FM081100 VRB04KT P6SM SCT100 BKN250
KGLD,KGLD 071727Z 0718/0818 15011KT P6SM SCT070 FM080700 19006KT P6SM FEW250 FM081100 23005KT P6SM FEW250 FM081600 14006KT P6SM FEW250
KGLH,KGLH 071746Z 0718/0818 30006KT P6SM SCT050
KGLS,KGLS 071720Z 0718/0818 VRB05KT P6SM FEW035 SCT250 FM072000 18008KT P6SM VCTS SCT035CB SCT250 FM080000 23007KT P6SM SCT100 BKN250 FM080900 29005KT P6SM FEW020 SCT250
KGMU,KGMU 071730Z 0718/0818 32011KT P6SM SCT060 BKN250 FM072100 34011KT P6SM VCSH BKN060 FM080300 34005KT P6SM VCSH BKN060 FM080900 26003KT P6SM BKN060 FM081500 36005KT P6SM SCT035
KGNV,KGNV 071730Z 0718/0818 24010KT P6SM VCTS BKN050CB BKN100 BKN200 TEMPO 0718/0722 VRB15G25KT 3SM TSRA BKN030CB FM072300 23006KT P6SM SCT050 BKN100 BKN200 FM080800 24004KT 5SM BR SCT008 SCT015 SCT200 FM081400 26010KT P6SM SCT035 SCT200
KGON,KGON 071737Z 0718/0818 25011KT 3SM FU HZ VV030 FM072000 25011KT 2SM FU HZ VV025 FM072300 31007KT 3SM FU HZ VV025 FM080200 36005KT 4SM FU HZ VV040 FM081500 20009KT 5SM FU HZ VV040
KGPI,KGPI 071721Z 0718/0818 03007KT P6SM SCT100 FM080200 16005KT P6SM BKN100
KGPT,KGPT 071743Z 0718/0818 VRB04KT P6SM SCT035 FM072000 19007KT P6SM VCTS SCT040CB FM080100 00000KT P6SM SCT250 FM081500 VRB04KT P6SM SCT035
KGRB,KGRB 071722Z 0718/0818 05012G18KT P6SM FEW250 FM080200 02005KT P6SM FEW250 FM080800 35004KT P6SM FEW250 FM081400 01008KT P6SM FEW250
KGRF,TAF KGRF 071300Z 0713/0819 28006KT 9999 FEW150 QNH2978INS TEMPO 0812/0814 9000 BR BECMG 0814/0815 VRB06KT 9999 FEW010 QNH2983INS TX28/0723Z TN09/0811Z
KGRI,KGRI 071720Z 0718/0818 VRB05KT P6SM SCT080 FM080300 27005KT P6SM BKN080 FM081200 32005KT P6SM FEW080
KGRK,TAF KGRK 071600Z 0716/0822 VRB05KT 9999 FEW045 SCT150 BKN250 QNH2988INS BECMG 0718/0719 VRB06KT 9999 VCTS FEW045CB SCT050 BKN250 QNH2982INS TEMPO 0721/0724 VRB20G25KT 4800 -TSRA SCT045CB BKN050 BKN250 BECMG 0800/0801 14006KT 9999 NSW SCT060 BKN150 BKN250 QNH2982INS BECMG 0818/0819 VRB06KT 9999 VCTS FEW045CB SCT050 BKN250 QNH2982INS TX32/0721Z TN20/0811Z
KGRR,KGRR 071720Z 0718/0818 01009G16KT P6SM FEW060 FM080100 05009KT 6SM HZ SKC FM080600 02004KT 6SM HZ SKC FM081500 36008KT P6SM FEW060
KGSB,TAF KGSB 071200Z 0712/0818 27006KT 9000 HZ FEW050 FEW110 BKN190 QNH2970INS BECMG 0714/0715 27012KT 9999 NSW SCT030 BKN080 BKN180 QNH2965INS TEMPO 0721/0724 29011G21KT 8000 -SHRA BKN024 BECMG 0802/0803 23006KT 8000 BR BKN030 BKN180 QNH2962INS BECMG 0813/0814 30009KT 9999 NSW SCT035 SCT080 SCT180 QNH2966INS TX29/0719Z TN14/0809Z
KGSO,KGSO 071739Z 0718/0818 28007KT 3SM -RA BR SCT025 BKN035 TEMPO 0718/0722 1 1/2SM RA BR OVC025 FM072300 28006KT 5SM BR OVC050 FM080600 26003KT 4SM BR SCT250 FM081300 33007KT P6SM SKC
KGSP,KGSP 071730Z 0718/0818 32011KT P6SM SCT060 BKN250 FM072100 34011KT P6SM VCSH BKN060 FM080300 34005KT P6SM VCSH BKN060 FM080900 26003KT P6SM BKN060 FM081500 36005KT P6SM SCT035
KGTB,TAF KGTB 071700Z 0717/0823 33010G15KT 4800 HZ BKN020 QNH2960INS BECMG 0717/0718 33010G15KT 4800 -SHRA HZ BKN020 QNH2965INS BECMG 0802/0803 VRB06KT 6000 -SHRA HZ SCT008 BKN010 QNH2969INS BECMG 0811/0812 VRB06KT 6000 HZ OVC020 QNH2967INS BECMG 0816/0817 VRB06KT 6000 HZ VCSH BKN050 QNH2970INS TX20/0720Z TN10/0810Z
KGTF,KGTF 071736Z 0718/0818 VRB06KT P6SM FEW060 SCT110 FM081600 11009KT P6SM BKN080
KGTR,KGTR 071746Z 0718/0818 30005KT P6SM SCT050
KGUC,KGUC 071725Z 0718/0818 28004KT P6SM VCSH FEW070 SCT110 FM072000 30010KT P6SM VCTS SCT050CB BKN090 TEMPO 0720/0724 VRB20G33KT -TSRA BKN050CB BKN080 FM080000 30007KT P6SM VCSH SCT050 BKN100 FM080500 01003KT P6SM BKN120 FM081000 36002KT P6SM SCT250
KGUP,KGUP 071724Z 0718/0818 26005KT P6SM SKC FM071900 26011G20KT P6SM SKC FM080200 VRB06KT P6SM SKC
KGUR,TAF KGUR 071300Z 0713/0819 VRB06KT 8000 BR FEW045 FEW065 QNH2991INS BECMG 0722/0723 13012KT 9999 NSW FEW085 QNH2989INS BECMG 0810/0811 VRB06KT 9000 BR FEW035 FEW055 QNH2994INS TX28/0722Z TN12/0811Z
KGUS,TAF KGUS 071300Z 0713/0819 07009KT 9999 FEW060 SCT140 BKN250 QNH2986INS BECMG 0716/0717 36012G18KT 9999 BKN250 QNH2978INS BECMG 0723/0724 35012KT 9999 FEW250 QNH2979INS BECMG 0805/0806 VRB06KT 9999 SKC QNH2983INS TX25/0721Z TN09/0810Z
KGUY,KGUY 071720Z 0718/0818 17009KT P6SM SCT230 FM072200 15011KT P6SM SCT220 FM080400 19008KT P6SM VCTS BKN040CB FM080800 26005KT P6SM SCT230
KGWO,KGWO 071746Z 0718/0818 30005KT P6SM SCT050
KGYY,KGYY 071724Z 0718/0818 04009KT P6SM FEW250 FM072000 01014G21KT P6SM FEW250 FM080300 03007KT P6SM FEW250
KHBG,KHBG 071746Z 0718/0818 30004KT P6SM BKN040 FM072000 30004KT P6SM VCSH BKN050 FM080100 30004KT P6SM FEW040
KHCR,KHCR 071734Z 0718/0818 VRB05KT P6SM SCT070 FM072100 24011KT P6SM VCTS SCT070CB BKN100 FM072300 24009KT P6SM SCT070 SCT140 FM080200 VRB05KT P6SM SCT070 BKN090 FM080500 12005KT P6SM SCT150
KHDC,KHDC 071743Z 0718/0818 VRB04KT P6SM SCT040 FM072100 29005KT P6SM VCTS SCT040CB FM080100 00000KT P6SM SCT020 FM081500 VRB04KT P6SM SCT035
KHDN,KHDN 071725Z 0718/0818 26006KT P6SM VCTS FEW080CB SCT130 FM072000 23010KT P6SM VCTS SCT060CB BKN100 TEMPO 0720/0724 VRB20G33KT 4SM -TSRA BR OVC040CB FM080100 11011KT P6SM VCTS BKN060CB FM080600 11011KT P6SM OVC100
KHIB,KHIB 071729Z 0718/0818 13008KT P6SM SCT210
KHIE,KHIE 071720Z 0718/0818 30007KT 5SM -SHRA FEW015 OVC030 FM072300 00000KT 6SM -SHRA OVC020
KHIF,TAF KHIF 071300Z 0713/0819 11012G18KT 9999 BKN120 QNH2992INS BECMG 0718/0719 27009KT 9999 VCTS SCT060CB BKN100 QNH2997INS TEMPO 0722/0803 VRB25G35KT 4800 -TSRA BKN070CB BECMG 0802/0803 10012KT 9999 NSW SCT080 BKN100 QNH2990INS BECMG 0817/0818 24009KT 9999 VCTS SCT070CB QNH2996INS TX28/0721Z TN16/0713Z
KHIO,KHIO 071728Z 0718/0818 VRB04KT P6SM SCT250 FM080100 34008KT P6SM FEW035 SCT120 FM081200 VRB03KT P6SM FEW025 BKN035
KHKS,KHKS 071746Z 0718/0818 30005KT P6SM SCT050
KHKY,KHKY 071730Z 0718/0818 30008KT 6SM HZ OVC060 TEMPO 0718/0722 5SM -SHRA HZ FM072200 32006KT 6SM HZ VCSH OVC060 FM080200 30003KT P6SM SCT060 BKN120 FM081400 34006KT P6SM FEW060
KHLG,KHLG 071740Z 0718/0818 34005KT 6SM HZ FEW050 FM080000 33005KT 6SM HZ SKC
KHLN,KHLN 071736Z 0718/0818 VRB04KT P6SM FEW060 FEW240 FM072100 09009KT P6SM SCT070 BKN100 TEMPO 0800/0803 4SM TSRA SCT030CB OVC060 FM080300 34009KT P6SM -SHRA SCT060 BKN100 PROB30 0803/0805 4SM TSRA BKN050CB FM080700 VRB04KT P6SM BKN060
KHMN,TAF KHMN 071700Z 0717/0823 18009KT 9999 FEW080 QNH3005INS BECMG 0717/0718 21015G25KT 9999 SCT080 QNH2990INS TS OMTNS AFT 19Z TEMPO 0719/0722 VRB25G35KT 9000 -SHRA VCTS BKN080CB BECMG 0723/0724 20010G15KT 9999 FEW120 QNH2992INS BECMG 0802/0803 15009KT 9999 FEW120 QNH2994INS BECMG 0814/0815 30010G15KT 9999 FEW100 QNH2998INS TX31/0723Z TN13/0812Z
KHNB,KHNB 071720Z 0718/0818 35005KT P6SM VCSH SCT012 OVC050 TEMPO 0718/0719 5SM -SHRA OVC012 FM072000 34006KT 6SM HZ SCT070 FM080000 VRB03KT 6SM HZ FEW250
KHND,KHND 071737Z 0718/0818 17010G15KT P6SM VCSH BKN100 BKN200 FM072000 21014G22KT P6SM VCSH BKN100 BKN200 FM080200 22008KT P6SM SCT100
KHOB,KHOB 071720Z 0718/0818 18010KT P6SM SCT060 BKN250
KHON,KHON 071734Z 0718/0818 VRB04KT P6SM FEW240 FM072000 10005KT P6SM VCTS SCT090CB FM080100 09008KT P6SM SCT150 FM080300 13007KT P6SM FEW250 FM081400 15008KT P6SM FEW250
KHOP,TAF KHOP 071600Z 0716/0822 VRB06KT 9999 BKN150 QNH2976INS TEMPO 0719/0723 01009KT 9000 -SHRA BKN050 BECMG 0802/0803 VRB06KT 8000 BR FEW100 QNH2979INS BECMG 0813/0814 32010G15KT 9999 NSW SKC QNH2981INS TX28/0719Z TN14/0811Z
KHOT,KHOT 071726Z 0718/0818 27006KT P6SM SCT060 SCT250 FM080200 VRB02KT P6SM SCT250 FM080900 VRB02KT 3SM HZ BKN250 FM081400 34006KT P6SM BKN250
KHOU,KHOU 071720Z 0718/0818 27005KT P6SM SCT040 SCT250 FM072100 20006KT P6SM VCTS BKN050CB FM080000 18007KT P6SM SCT080 BKN250 FM080300 24004KT P6SM SCT250 FM081400 29005KT P6SM FEW020 SCT250
KHPN,KHPN 071737Z 0718/0818 30010KT 1SM FU HZ VV025 FM080000 33008KT 3SM FU HZ VV025 FM080600 33005KT 5SM FU HZ VV040 FM081400 30010KT 5SM FU HZ VV040 AMD NOT SKED
KHQM,KHQM 071722Z 0718/0818 26009KT P6SM FEW250 FM080300 23005KT 6SM BR OVC008 FM080800 23006KT 6SM BR OVC003
KHRF,KHRF 071721Z 0718/0818 16006KT P6SM SCT100 FM071900 35009KT P6SM VCSH BKN080 FM072200 33010KT P6SM VCTS BKN080CB TEMPO 0723/0802 6SM -TSRA BKN030CB FM080300 14005KT P6SM VCSH BKN070
KHRL,KHRL 071736Z 0718/0818 08010KT P6SM SCT040 SCT250 FM080100 11008KT P6SM FEW020 SCT250 FM080400 14006KT P6SM SCT250 FM081400 18005KT P6SM FEW035
KHRO,KHRO 071726Z 0718/0818 34006KT P6SM SCT050 FM080100 VRB05KT P6SM SCT250 FM080900 VRB03KT 4SM HZ SCT250 FM081400 30006KT P6SM BKN100
KHRT,TAF KHRT 071800Z 0718/0900 19009KT 9999 VCTS SCT030CB BKN080 QNH2982INS TEMPO 0719/0722 19012G18KT 6000 TSRA BKN020CB BECMG 0800/0801 22006KT 9999 NSW SCT080 QNH2974INS BECMG 0819/0820 21012KT 9999 VCTS BKN060 QNH2975INS TEMPO 0821/0823 21012G18KT 6000 TSRA BKN020CB TX28/0718Z TN21/0810Z
KHST,TAF AMD KHST 071542Z 0715/0817 21009KT 9999 VCTS SCT025CB SCT100 BKN250 QNH2981INS TEMPO 0715/0722 VRB12G18KT 4800 -TSRA FEW015 BKN025CB OVC050 BECMG 0723/0724 21006KT 9999 NSW FEW020 BKN025 BKN100 QNH2980INS BECMG 0806/0807 22009KT 9999 VCSH SCT020 BKN030 BKN100 QNH2980INS TEMPO 0807/0809 8000 -SHRA BR BKN025 BECMG 0815/0816 24010G15KT 9999 VCSH SCT040 SCT100 QNH2978INS TX32/0719Z TN23/0811Z
KHSV,KHSV 071725Z 0718/0818 29009KT P6SM SCT060 FM072100 31010KT P6SM SCT070 FM080000 36006KT P6SM BKN070 FM080500 04006KT P6SM BKN060 FM081600 01007KT P6SM FEW050 BKN100
KHTS,KHTS 071723Z 0718/0818 33006KT P6SM BKN060 FM072000 33007KT P6SM FEW070 SCT250 FM080200 01005KT P6SM FEW250 FM080900 00000KT P6SM SKC FM081400 34005KT P6SM SKC
KHUA,TAF KHUA 071200Z 0712/0818 VRB06KT 6000 BR BKN007 QNH2983INS BECMG 0713/0714 31012KT 9999 NSW SKC QNH2969INS TX29/0720Z TN17/0811Z
KHUF,KHUF 071740Z 0718/0818 01007KT 6SM HZ FEW040 SCT100
KHUL,KHUL 071739Z 0718/0818 01005KT 5SM -DZRA OVC020 FM072300 04004KT 5SM -DZRA OVC008 FM080400 05004KT 5SM -DZRA OVC006
KHUM,KHUM 071743Z 0718/0818 34005KT P6SM SCT030 FM071900 25006KT P6SM VCTS SCT035CB FM080200 VRB03KT P6SM SCT250 TEMPO 0809/0812 3SM BR FM081500 19005KT P6SM SCT030
KHUT,KHUT 071720Z 0718/0818 VRB05KT P6SM FEW240 FM081700 07006KT P6SM SCT230
KHVR,KHVR 071802Z 0718/0818 VRB03KT P6SM FEW060 SCT200 TEMPO 0723/0801 VRB25G40KT P6SM -TSRA SCT030CB OVC060 FM081000 VRB03KT P6SM FEW045 FEW200 FM081500 05007KT P6SM BKN045 OVC100
KHYA,KHYA 071731Z 0718/0818 31005KT P6SM VCSH BKN040 FM072200 25003KT P6SM BKN040 FM080800 00000KT P6SM SCT050 FM081600 VRB03KT P6SM SCT050
KHYR,KHYR 071729Z 0718/0818 08008KT P6SM FEW240 FM072000 05008KT P6SM FEW250
KHYS,KHYS 071720Z 0718/0818 VRB06KT P6SM SCT060
KIAB,TAF KIAB 071000Z 0710/0816 VRB06KT 9999 FEW200 QNH2980INS BECMG 0722/0723 20006KT 9999 SCT050 QNH2978INS TX30/0721Z TN16/0711Z
KIAD,KIAD 071739Z 0718/0824 35009G15KT 5SM HZ BKN040 FM072200 33006KT 3SM HZ BKN035 FM080500 32004KT 2SM HZ FU BKN030 FM081400 35007KT 3SM HZ BKN035
KIAG,KIAG 071735Z 0718/0818 34012G19KT 6SM FU SCT040 FM072000 34007KT P6SM SCT250 FM080300 06005KT 6SM HZ FU BKN060 FM080700 00000KT 5SM HZ FU BKN040 FM081400 36007KT 3SM HZ FU BKN025
KIAH,KIAH 071720Z 0718/0824 25005KT P6SM SCT040 SCT250 FM072100 27005KT P6SM VCTS BKN050CB BKN250 FM080000 VRB04KT P6SM SCT100 BKN250 FM081000 VRB03KT 6SM BR SCT250 FM081400 28005KT P6SM FEW020 SCT250
KICT,KICT 071720Z 0718/0818 VRB05KT P6SM FEW050 FEW240 FM072100 VRB06KT P6SM SCT050
KIDA,KIDA 071730Z 0718/0818 VRB06KT P6SM VCTS FEW080CB SCT120 BKN200 FM072100 16010KT P6SM VCTS SCT080CB BKN150 TEMPO 0721/0801 VRB20G35KT 4SM TSRA OVC060CB FM080400 06008KT P6SM FEW090 SCT150 FM081400 05008KT P6SM VCSH SCT070 OVC120
KIFP,KIFP 071737Z 0718/0818 20015KT P6SM BKN120 BKN200 FM072000 20015G25KT P6SM VCSH BKN100 BKN200 FM080300 19008KT P6SM SCT120 FM080800 16006KT P6SM SKC
KILG,KILG 071730Z 0718/0818 30011KT 3SM HZ SCT080 FM072000 30012KT 2SM HZ FU SCT080 FM080000 33006KT 2SM HZ FU SCT080 FM080500 35004KT 3SM HZ SCT080 FM081400 33008KT 5SM HZ SCT080
KILM,KILM 071729Z 0718/0818 28006KT P6SM SCT120 FM072100 19006KT P6SM VCTS BKN080CB FM080000 34007KT 3SM TSRA BKN030CB FM080400 32003KT P6SM VCTS BKN070CB FM080600 VRB03KT P6SM BKN060
KILN,KILN 071741Z 0718/0818 36007KT 4SM HZ FEW250 FM080100 03006KT 3SM HZ SKC FM081500 02008KT P6SM SKC
KIND,KIND 071740Z 0718/0824 03008G16KT 6SM HZ FEW040 SCT250 FM080100 02009KT P6SM FEW250
KINK,KINK 071720Z 0718/0818 17010KT P6SM SCT060
KINL,KINL 071729Z 0718/0818 14006KT P6SM BKN090 FM080500 18007KT P6SM BKN210
KINS,TAF AMD KINS 071742Z 0717/0819 21012G22KT 9000 -SHRA BKN070 BKN130 510009 QNH2991INS BECMG 0720/0721 15012G22KT 9000 -SHRA BKN070 OVC110 QNH2989INS TEMPO 0803/0805 VRB21G32KT 8000 -TSRA BKN070CB BECMG 0805/0806 17012KT 9999 NSW SCT110 QNH2993INS BECMG 0808/0809 VRB06KT 9999 SCT110 QNH2993INS BECMG 0812/0813 22012KT 9999 FEW070 BKN110 QNH2995INS TX24/0721Z TN13/0813Z
KINT,KINT 071739Z 0718/0818 VRB05KT 3SM -RA BR SCT040 OVC060 TEMPO 0718/0721 1 1/2SM -RA BR OVC040 FM072200 28006KT 5SM BR OVC050 FM080600 31003KT 4SM BR SCT250 FM081300 35007KT P6SM SKC
KINW,KINW 071730Z 0718/0818 19015G25KT P6SM SKC FM080300 23008KT P6SM SKC FM080700 14006KT P6SM SKC
KIPL,KIPL 071720Z 0718/0818 20006KT P6SM FEW250 FM080100 27010KT P6SM SKC FM081000 VRB03KT P6SM SKC
KIPT,KIPT 071755Z 0718/0818 30013G20KT 3/4SM FU BKN025 OVC030 FM072000 31010G16KT 1 1/2SM FU BKN035 FM080100 34004KT 5SM FU HZ BKN050
KISM,KISM 071742Z 0718/0818 22009KT P6SM VCTS SCT040CB BKN100 TEMPO 0718/0722 3SM TSRA BKN035CB FM072300 24006KT P6SM SCT050 SCT250 FM081300 25009KT P6SM SCT035 SCT150 FM081700 24009KT P6SM VCTS SCT060CB BKN250
KISO,KISO 071756Z 0718/0818 31010KT 5SM HZ BKN150 FM072100 30006KT 5SM HZ VCSH BKN080 FM080000 00000KT 5SM -SHRA HZ SCT015 OVC060 FM080400 00000KT 5SM -SHRA BR SCT007 OVC060 FM080700 00000KT 5SM BR SCT007 BKN060 FM081200 VRB03KT P6SM SCT015 BKN070 AMD LTD TO CLD VIS AND WIND
KISP,KISP 071737Z 0718/0818 26012G20KT 2SM FU HZ VV025 FM080000 29008KT 3SM FU HZ VV025 FM080300 33005KT 4SM FU HZ VV040 FM081500 19009KT 5SM FU HZ VV040
KITH,KITH 071737Z 0718/0818 30010KT 2SM FU VV030 TEMPO 0718/0720 3/4SM FU VV026 FM072000 32012G20KT 3SM FU SCT035 FM072300 33009KT 5SM FU SCT050 FM080800 31004KT 6SM FU BKN025 FM081400 31007KT 4SM FU BKN030
KIWA,KIWA 071720Z 0718/0818 21006KT P6SM FEW120 FEW250 FM072000 25010KT P6SM FEW120 FEW250 FM080800 12006KT P6SM SCT250
KIWD,KIWD 071720Z 0718/0818 02007KT P6SM FEW250 FM080200 00000KT P6SM FEW250 FM081500 03007KT P6SM FEW250
KIXD,KIXD 071723Z 0718/0818 31006KT P6SM FEW150 FM072100 04008KT P6SM VCTS BKN070CB BKN120 FM080000 06005KT P6SM SCT070 BKN250 FM080900 08005KT P6SM VCSH BKN100 FM081300 10008KT P6SM SCT100
KJAC,KJAC 071725Z 0718/0818 21006KT P6SM SCT080 SCT150 FM071900 21009KT P6SM VCSH BKN080 TEMPO 0721/0801 VRB14G22KT 6SM -TSRA SCT050 BKN070CB FM080100 32008KT P6SM -SHRA OVC080 FM080700 VRB04KT P6SM VCSH BKN080 FM081600 VRB06KT P6SM -SHRA SCT050 BKN070
KJAN,KJAN 071746Z 0718/0818 30005KT P6SM SCT050
KJAX,KJAX 071730Z 0718/0818 24010KT P6SM SCT050 BKN100 BKN200 FM071900 23010KT P6SM VCTS BKN050CB BKN100 BKN200 TEMPO 0721/0723 VRB15G25KT 4SM TSRA BKN030CB FM080000 21006KT P6SM SCT050 BKN100 BKN200 FM080900 24006KT P6SM SCT008 SCT015 SCT200 FM081500 26010KT P6SM SCT035 SCT200
KJBR,KJBR 071720Z 0718/0818 29007KT P6SM FEW250 FM080400 02004KT P6SM BKN250 FM081600 07004KT P6SM BKN100
KJCT,KJCT 071751Z 0718/0818 13006KT P6SM SCT050 FM080200 VRB06KT P6SM SCT250 FM080700 VRB03KT P6SM BKN250
KJEF,KJEF 071720Z 0718/0818 VRB05KT P6SM VCSH BKN080 FM080000 05007KT P6SM SCT100
KJER,KJER 071745Z 0718/0818 VRB06KT P6SM VCSH SCT100 FM072000 VRB10G20KT P6SM VCTS BKN100CB TEMPO 0720/0724 VRB25G35KT 5SM -TSRA SCT060 BKN100CB FM080400 VRB10KT P6SM VCSH BKN100 FM080700 08007KT P6SM BKN150 FM081600 VRB06KT P6SM BKN120
KJFK,KJFK 071737Z 0718/0824 30014G24KT 1 1/2SM FU HZ VV000 FM072100 24012KT 2SM FU HZ VV025 FM080200 33008KT 4SM FU HZ VV030 FM080500 36005KT 5SM FU HZ VV040 FM081600 22008KT 5SM FU HZ VV040 FM081800 18010KT 5SM FU HZ VV040
KJHW,KJHW 071735Z 0718/0818 35015G18KT 4SM FU BKN029 OVC035 FM072000 32005KT 5SM HZ FU BKN040 FM072300 36004KT P6SM SCT250 FM080600 00000KT 6SM HZ FU BKN200 FM081300 35004KT 4SM HZ FU BKN030 FM081500 34006KT 3SM HZ FU BKN035
KJKA,KJKA 071739Z 0718/0818 22011KT P6SM VCTS BKN035CB BKN060 BKN250 FM080100 23004KT P6SM SCT040 BKN250 FM081500 28005KT P6SM SKC
KJKL,KJKL 071724Z 0718/0818 29003KT P6SM VCTS BKN020CB BKN150 TEMPO 0718/0722 P6SM NSW SCT020 BKN150 FM080100 00000KT P6SM SCT050 FM080500 00000KT P6SM SKC
KJLN,KJLN 071720Z 0718/0818 31006KT P6SM FEW080 FM072300 VRB05KT P6SM VCTS FEW050CB FM080100 VRB05KT P6SM SCT200
KJMS,KJMS 071724Z 0718/0818 13008KT P6SM FEW060 FM072000 13009KT P6SM VCTS SCT060 SCT200CB FM080000 14007KT P6SM FEW060 SCT200
KJST,KJST 071755Z 0718/0818 30011G17KT 5SM FU SCT060 FM072300 33007KT 5SM FU BKN050
KJVL,KJVL 071720Z 0718/0818 04009KT P6SM SCT250 FM072000 06011KT P6SM FEW250 FM080700 03007KT P6SM FEW250
KJXN,KJXN 071720Z 0718/0818 01010KT P6SM FEW060 FM080000 04010KT 6SM HZ SKC FM080500 VRB04KT 6SM HZ SKC FM081000 35005KT 6SM HZ SKC FM081500 35009KT 6SM HZ FEW060
KJZI,KJZI 071729Z 0718/0818 21010G16KT P6SM SCT050 FM072100 21010G16KT P6SM VCTS SCT035CB BKN090 TEMPO 0723/0802 VRB15G25KT 3SM TSRA BR SCT025 BKN040CB FM080400 VRB04KT P6SM VCSH SCT025 BKN070 FM081200 27006KT P6SM SCT020 BKN035
KLAF,KLAF 071740Z 0718/0818 07010G19KT 6SM HZ FEW040 SCT250 FM080200 01006KT P6SM FEW025 FM081500 05010KT 6SM HZ FEW040 SCT250
KLAL,KLAL 071739Z 0718/0818 23006KT P6SM VCSH SCT040 TEMPO 0718/0721 5SM TSRA BKN050CB FM080200 23003KT P6SM BKN250 FM081700 25008KT P6SM SCT040 PROB30 0817/0818 5SM TSRA BKN040CB
KLAN,KLAN 071720Z 0718/0818 01009G16KT P6SM FEW060 FM072300 04012KT 6SM HZ SKC FM080300 05006KT 6SM HZ SKC FM080600 VRB04KT 6SM HZ SKC FM081500 34008KT P6SM FEW060
KLAR,KLAR 071736Z 0718/0818 07007KT P6SM SCT060 FM071900 12011KT P6SM VCTS BKN060CB BKN100 FM072200 18010KT 5SM -SHRA VCTS BKN050CB OVC080 TEMPO 0722/0724 VRB15G30KT 2SM +TSRA FM080300 16008KT P6SM VCSH SCT030 OVC050 FM080600 20005KT P6SM SCT060
KLAS,KLAS 071737Z 0718/0824 15008G15KT P6SM VCSH BKN100 BKN200 FM072000 20013G20KT P6SM VCSH BKN100 BKN200 FM080200 23006KT P6SM SCT100 FM081600 16008KT P6SM FEW100 FM082200 20010G18KT P6SM SCT120 SCT200
KLAW,KLAW 071720Z 0718/0818 15009KT P6SM SCT120 BKN250 FM080300 VRB04KT P6SM BKN120 FM081600 14005KT P6SM BKN250
KLAX,KLAX 071740Z 0718/0824 VRB03KT P6SM OVC040 FM071900 26008KT P6SM BKN050 FM072300 26012KT P6SM BKN250 FM080800 26010KT P6SM OVC035 FM082100 26012KT P6SM OVC050
KLBB,KLBB 071724Z 0718/0818 23011KT P6SM SCT040 FM080300 18011KT P6SM BKN100
KLBE,KLBE 071740Z 0718/0818 30009KT 5SM HZ FEW050 FM080000 00000KT 6SM HZ SKC
KLBF,KLBF 071720Z 0718/0818 16006KT P6SM SCT070
KLBL,KLBL 071720Z 0718/0818 VRB06KT P6SM SCT060
KLBT,KLBT 071729Z 0718/0818 32009KT P6SM SCT130 FM072100 35010KT P6SM VCTS BKN030CB FM080000 31004KT P6SM VCSH BKN070 FM081100 29005KT P6SM BKN050
KLBX,KLBX 071720Z 0718/0818 VRB05KT P6SM SCT035 SCT250 FM072000 19007KT P6SM VCTS BKN040CB FM080000 VRB04KT P6SM SCT080 BKN250 FM080900 VRB03KT 4SM BR SCT250 FM081400 30005KT P6SM FEW020 SCT250 AMD NOT SKED
KLCH,KLCH 071720Z 0718/0818 33004KT P6SM FEW250 FM071900 VRB06KT P6SM VCTS SCT050CB SCT250 FM080200 VRB03KT P6SM SCT250
KLCK,KLCK 071741Z 0718/0818 35009KT P6SM SKC FM080200 04007KT P6SM SKC FM081500 35009KT P6SM SCT100
KLEB,KLEB 071720Z 0718/0818 31007KT P6SM BKN025 OVC040 FM072200 VRB02KT P6SM -SHRA OVC025
KLEE,KLEE 071720Z 0718/0818 21008KT P6SM VCTS SCT040CB BKN110 TEMPO 0718/0721 3SM TSRA BKN035CB FM072300 22005KT P6SM SCT050 SCT250 FM081300 25007KT P6SM SCT030 SCT120 FM081700 25008KT P6SM VCTS SCT060CB BKN250
KLEX,KLEX 071720Z 0718/0818 30005KT P6SM VCSH BKN050 TEMPO 0718/0719 4SM RA OVC025 FM072100 30005KT 6SM HZ FEW070 FM080000 VRB03KT 6SM HZ FEW250 FM081200 05005KT 6SM HZ FEW250
KLFI,TAF KLFI 071700Z 0717/0823 VRB06KT 3200 HZ SCT100 BKN200 QNH2965INS BECMG 0722/0723 14009KT 8000 -SHRA SCT015 OVC035 QNH2966INS BECMG 0802/0803 16012KT 9999 NSW SCT035 OVC080 QNH2962INS BECMG 0808/0809 VRB06KT 9999 BKN010 OVC030 QNH2962INS BECMG 0817/0818 VRB06KT 9000 -SHRA SCT030 BKN045 QNH2965INS BECMG 0821/0822 VRB06KT 9999 NSW SCT050 SCT065 QNH2967INS TX23/0717Z TN16/0804Z
KLFK,KLFK 071720Z 0718/0818 VRB04KT P6SM SCT040 SCT250 FM072000 VRB04KT P6SM VCTS SCT050CB SCT150 SCT250 FM080400 VRB03KT P6SM FEW060 SCT250 FM081500 VRB04KT P6SM SCT030
KLFT,KLFT 071720Z 0718/0818 VRB06KT P6SM VCTS SCT050CB SCT250 FM080200 VRB03KT P6SM SCT250
KLGA,KLGA 071737Z 0718/0824 30012G21KT 2SM FU HZ VV025 FM080000 31012KT 3SM FU HZ VV025 FM080300 33007KT 4SM FU HZ VV040 FM080700 36005KT 5SM FU HZ VV040 FM081600 27008KT 5SM FU HZ VV040 FM082000 20010KT 5SM FU HZ VV040
KLGB,KLGB 071740Z 0718/0818 20010KT P6SM OVC040 FM080000 29010KT P6SM SCT250 FM080800 VRB03KT P6SM BKN050
KLGU,KLGU 071734Z 0718/0818 VRB03KT P6SM BKN100 FM072100 09015G25KT P6SM VCTS SCT070CB BKN090 FM080000 VRB04KT P6SM FEW070 BKN140
KLIT,KLIT 071726Z 0718/0818 31006KT P6SM SCT050 FM080200 VRB03KT P6SM SCT250 FM081000 VRB02KT 4SM HZ BKN250 FM081400 33006KT P6SM BKN250
KLLQ,KLLQ 071726Z 0718/0818 31006KT P6SM SCT060 FM080200 VRB03KT P6SM SCT250 FM081400 33006KT P6SM SCT250
KLMT,KLMT 071740Z 0718/0818 VRB02KT P6SM FEW100 FM072200 24009KT P6SM -TSRA BKN100CB FM080200 20009KT P6SM -SHRA OVC080 FM080500 VRB02KT P6SM SCT120
KLND,KLND 071725Z 0718/0818 27007KT P6SM VCSH SCT070 BKN130 TEMPO 0720/0723 VRB14G22KT 6SM -TSRA SCT050 BKN070CB FM080200 VRB06KT P6SM -SHRA OVC080 FM080700 VRB05KT P6SM VCSH SCT080 BKN110
KLNK,KLNK 071720Z 0718/0818 06005KT P6SM SCT080 SCT120 FM080300 09006KT P6SM BKN120 FM081100 12007KT P6SM SCT120
KLNS,KLNS 071755Z 0718/0818 32010G19KT 2SM FU BKN045 FM080000 34004KT 3SM FU BKN040
KLOZ,KLOZ 071724Z 0718/0818 VRB04KT 3SM SHRA BR OVC010 TEMPO 0718/0722 1SM BR BKN005 OVC010 FM072300 00000KT P6SM SCT015 SCT060 FM080700 00000KT 1/2SM FG SCT002 FM081300 00000KT 2SM BR SCT005 FM081500 36006KT P6SM SKC
KLRD,KLRD 071723Z 0718/0818 15007KT P6SM FEW090 FM080000 11010KT P6SM SCT050 BKN250 FM080900 14006KT P6SM SCT040 BKN120 PROB30 0809/0812 5SM -TSRA BKN030CB
KLRF,TAF KLRF 071500Z 0715/0821 VRB06KT 9999 FEW200 QNH2973INS BECMG 0805/0806 VRB06KT 9999 SCT080 QNH2974INS BECMG 0819/0820 06010G15KT 8000 -TSRA BKN050CB QNH2975INS TX34/0720Z TN20/0812Z
KLRU,KLRU 071747Z 0718/0818 18007KT P6SM FEW100 FM071900 24010G18KT P6SM FEW100 FM080200 27008KT P6SM SKC
KLSE,KLSE 071720Z 0718/0818 06006KT P6SM FEW100
KLSF,TAF KLSF 071300Z 0713/0819 25005KT 9999 SCT080 SCT200 QNH2978INS BECMG 0716/0717 27008KT 9999 VCSH SCT050 SCT080 QNH2973INS BECMG 0718/0719 27008KT 9999 VCTS SCT030CB BKN050 QNH2968INS TEMPO 0721/0801 VRB10G15KT 4800 -TSRA BKN025CB OVC050 BECMG 0802/0803 23005KT 9999 NSW BKN030 QNH2970INS BECMG 0812/0813 27006KT 9999 FEW030 SCT060 QNH2974INS TX32/0720Z TN18/0812Z
KLSV,TAF KLSV 071500Z 0715/0821 35009KT 9999 BKN180 QNH2981INS BECMG 0720/0721 23010G20KT 9999 BKN100 510009 QNH2993INS TS OMTNS BECMG 0807/0808 24009KT 9999 FEW180 QNH2997INS BECMG 0817/0818 18010G15KT 9999 BKN170 QNH3000INS TX29/0720Z TN22/0715Z
KLTS,TAF KLTS 071700Z 0717/0823 10009KT 9999 FEW070 SCT150 QNH2987INS BECMG 0720/0721 11008KT 9999 VCTS SCT070CB SCT150 QNH2983INS TEMPO 0721/0724 30015G25KT 8000 -TSRA BKN060CB BECMG 0800/0801 VRB06KT 9999 NSW SCT100 QNH2980INS BECMG 0804/0805 VRB06KT 9999 VCSH SCT060 SCT100 QNH2980INS TEMPO 0806/0809 25015G25KT 9000 -TSRA BKN040CB BECMG 0808/0809 VRB06KT 9999 NSW FEW060 SCT100 QNH2979INS TX31/0721Z TN17/0811Z
KLUF,TAF KLUF 071200Z 0712/0818 VRB06KT 9999 SCT240 QNH2978INS BECMG 0721/0722 23012G20KT 9999 FEW350 QNH2974INS BECMG 0805/0806 VRB06KT 9999 BKN270 QNH2983INS TX35/0722Z TN18/0712Z
KLUK,KLUK 071741Z 0718/0818 36005KT 5SM HZ SCT150 FM080100 02005KT 4SM HZ SKC TEMPO 0807/0811 00000KT 2SM BR SKC FM081700 01007KT P6SM SKC
KLVK,KLVK 071720Z 0718/0818 27008KT P6SM OVC020 FM071900 27012KT P6SM SKC FM080500 27006KT P6SM FEW010
KLVM,KLVM 071733Z 0718/0818 08010KT P6SM SCT120 FM072000 08011KT P6SM VCTS BKN050CB FM080200 24007KT P6SM SCT050
KLVS,KLVS 071724Z 0718/0818 20012KT P6SM BKN200 FM072000 24012G20KT P6SM VCSH SCT090 SCT250 FM080100 06009KT P6SM FEW110 SCT250 FM080400 04006KT P6SM FEW015
KLWB,KLWB 071720Z 0718/0818 30008KT P6SM SCT050 BKN250 TEMPO 0718/0719 BKN050 FM072300 VRB02KT P6SM SCT250 FM081000 00000KT 2SM BR SKC FM081200 32003KT P6SM SKC FM081600 31008KT P6SM SKC
KLWS,KLWS 071720Z 0718/0818 07005KT P6SM FEW080 SCT200 FM072100 34005KT P6SM SCT070 BKN150 FM080200 10005KT P6SM BKN070 BKN120 FM081200 07003KT P6SM BKN070 BKN120
KLWT,KLWT 071736Z 0718/0818 VRB04KT P6SM FEW060 SCT110 FM072100 11007KT P6SM VCTS SCT060CB BKN090 TEMPO 0721/0723 4SM TSRA BKN060CB FM072300 06007KT P6SM SCT050 OVC100
KLYH,KLYH 071720Z 0718/0818 28005KT P6SM SCT060 BKN250 FM080400 34003KT P6SM SCT250
KMAF,KMAF 071720Z 0718/0818 17010KT P6SM SCT050 BKN250
KMBG,KMBG 071721Z 0718/0818 15006KT P6SM FEW080 FM080000 12008KT P6SM FEW090 FEW200
KMBL,KMBL 071735Z 0718/0818 35010G17KT P6SM SCT250 FM080100 36005KT P6SM SCT250 FM081600 35010G15KT P6SM SKC
KMBS,KMBS 071720Z 0718/0818 06010G17KT P6SM SKC FM080100 34006KT P6SM SKC FM081000 36009KT P6SM SCT060 FM081500 04011G17KT P6SM SCT060
KMCB,KMCB 071743Z 0718/0818 33005KT P6SM SCT040 FM080100 00000KT P6SM SCT250 TEMPO 0811/0814 5SM BR FM081400 32003KT P6SM FEW250
KMCC,KMCC 071720Z 0718/0818 21011KT P6SM BKN050 FM072100 20010G20KT P6SM BKN100 FM080500 16007KT P6SM OVC050
KMCE,KMCE 071720Z 0718/0818 32006KT P6SM BKN050 FM081500 33008KT P6SM BKN100 FM081700 31006KT P6SM BKN250
KMCF,TAF KMCF 071700Z 0717/0823 23009KT 9999 FEW180 SCT200 QNH2981INS TEMPO 0717/0723 VRB12KT 6000 -SHRA VCTS BKN030CB BECMG 0800/0801 25009KT 9999 BKN090 QNH2976INS BECMG 0816/0817 28009KT 6000 -SHRA BKN025 QNH2977INS TX30/0719Z TN23/0809Z
KMCI,KMCI 071723Z 0718/0818 34006KT P6SM SCT100 BKN250 FM072100 04008KT P6SM VCTS BKN070CB BKN120 FM080000 06005KT P6SM SCT070 BKN250 FM080900 08005KT P6SM VCSH BKN100 FM081300 10008KT P6SM SCT100
KMCK,KMCK 071720Z 0718/0818 14006KT P6SM FEW060 FM080100 VRB05KT P6SM FEW250
KMCN,KMCN 071741Z 0718/0818 28010KT P6SM BKN050 FM071900 27010KT P6SM VCSH BKN050 FM080100 26004KT P6SM FEW050 FEW250 FM081600 29010KT P6SM SCT050
KMCO,KMCO 071742Z 0718/0824 23009KT P6SM VCTS SCT035CB BKN100 TEMPO 0718/0722 3SM TSRA BKN035CB FM072300 24006KT P6SM SCT050 SCT250 FM081300 24008KT P6SM SCT035 BKN250 FM081700 23009KT P6SM VCTS SCT050CB SCT140 FM082300 23006KT P6SM SCT045 SCT130
KMCW,KMCW 071720Z 0718/0818 13010G16KT P6SM SCT060 FM080000 06006KT P6SM BKN250 FM081500 16007KT P6SM SCT240
KMDT,KMDT 071755Z 0718/0818 34008KT 5SM FU BKN050 FM072000 32009G15KT 2SM FU BKN045 FM080000 34004KT 3SM FU BKN040
KMDW,KMDW 071724Z 0718/0824 05009KT P6SM FEW250 FM072000 02013G21KT P6SM FEW250 FM080300 03007KT P6SM FEW250 FM081900 04010G15KT P6SM SKC
KMEI,KMEI 071746Z 0718/0818 31005KT P6SM SCT040
KMEM,KMEM 071720Z 0718/0824 33007KT 6SM HZ SCT250 FM080200 01003KT P6SM BKN080 FM082000 05005KT P6SM BKN100
KMER,KMER 071720Z 0718/0818 31006KT P6SM BKN050 FM081500 33008KT P6SM BKN100 FM081700 31006KT P6SM BKN250
KMEV,KMEV 071720Z 0718/0818 VRB05KT P6SM FEW070 SCT100 FM072100 09011G17KT P6SM SCT080 SCT140 FM080100 30010KT P6SM VCSH SCT080 BKN120 FM080500 VRB04KT P6SM FEW070 SCT100
KMFD,KMFD 071740Z 0718/0818 36012KT 6SM HZ SCT250 FM080000 02008KT 5SM HZ SCT250 FM081400 33008KT 4SM HZ FU SCT100
KMFE,KMFE 071736Z 0718/0818 14006KT P6SM FEW040 SCT250 FM072000 10010KT P6SM SCT050 SCT250 FM080200 15007KT P6SM SCT250 FM081500 14005KT P6SM FEW040
KMFR,KMFR 071740Z 0718/0818 35004KT P6SM OVC100 FM072300 31010KT P6SM VCTS BKN070CB BKN100 FM080300 27006KT P6SM VCSH SCT060 BKN100 FM080900 VRB02KT P6SM BKN040
KMGE,TAF KMGE 071300Z 0713/0819 28009KT 9999 FEW060 SCT250 QNH2983INS BECMG 0715/0716 29010G15KT 9999 SCT060 SCT250 QNH2974INS BECMG 0720/0721 29015G20KT 9999 VCTS BKN060CB BKN250 QNH2971INS BECMG 0801/0802 32009KT 9999 NSW SCT060 BKN250 QNH2974INS BECMG 0805/0806 32009KT 9999 VCSH BKN050 OVC250 QNH2972INS BECMG 0812/0813 34010G15KT 4800 -SHRA BR VCTS OVC040CB QNH2976INS TX31/0721Z TN18/0812Z
KMGM,KMGM 071720Z 0718/0818 27007KT P6SM VCSH SCT035 FM080300 23004KT P6SM SCT035 FM081600 28007KT P6SM SCT035
KMGW,KMGW 071740Z 0718/0818 34009KT 6SM HZ FEW060 FM080800 00000KT 6SM HZ SKC
KMHK,KMHK 071724Z 0718/0818 00000KT P6SM SCT060 FM080100 08005KT P6SM SCT100
KMHR,KMHR 071720Z 0718/0818 21012KT P6SM BKN050 FM072300 21010G20KT P6SM BKN100 FM080500 16007KT P6SM OVC050
KMHT,KMHT 071720Z 0718/0818 32010KT P6SM BKN040 BKN150 FM072300 28002KT P6SM BKN060 OVC100 FM081300 35003KT P6SM BKN025 OVC050
KMIA,KMIA 071720Z 0718/0824 19010KT P6SM VCTS SCT030CB BKN050 TEMPO 0718/0721 VRB15G25KT 4SM TSRA BKN020CB FM080000 20006KT P6SM SCT025 SCT080 FM080600 VRB04KT P6SM SCT025 SCT250 FM081500 23010KT P6SM VCTS SCT030CB
KMIB,TAF KMIB 071700Z 0717/0823 20006KT 9999 FEW120 QNH2982INS BECMG 0719/0720 19009KT 8000 -SHRA VCTS BKN050CB QNH2975INS BECMG 0810/0811 VRB06KT 8000 BR SCT050 QNH2983INS BECMG 0813/0814 03009KT 9999 NSW SCT040 QNH2985INS BECMG 0818/0819 04010G20KT 4800 -SHRA VCTS BKN050CB QNH2984INS TX33/0721Z TN19/0811Z
KMIV,KMIV 071730Z 0718/0818 29010KT 4SM HZ SCT080 FM072100 28009KT 2SM HZ FU SCT080 FM080100 23005KT 2SM HZ FU SCT080 FM080800 35004KT 3SM HZ SCT080 FM081500 35007KT 4SM HZ VCSH SCT080
KMKC,KMKC 071723Z 0718/0818 34006KT P6SM SCT100 BKN250 FM072100 04008KT P6SM VCTS BKN070CB BKN120 FM080000 06005KT P6SM SCT070 BKN250 FM080900 08005KT P6SM VCSH BKN100 FM081300 10008KT P6SM SCT100
KMKE,KMKE 071720Z 0718/0824 03012KT P6SM SCT250 TEMPO 0720/0723 03013G21KT FM080400 03007KT P6SM FEW250 FM081700 04011KT P6SM SKC
KMKG,KMKG 071720Z 0718/0818 31012G20KT P6SM SKC FM080000 35009KT P6SM SKC FM080300 02005KT 6SM HZ SKC FM081000 34005KT 6SM HZ SKC FM081600 30011G18KT P6SM SKC
KMKL,KMKL 071720Z 0718/0818 26006KT P6SM SCT250 FM071900 33008KT P6SM BKN250 FM080200 01003KT 5SM BR SCT250 FM080800 02004KT P6SM VCSH BKN250
KMKT,KMKT 071720Z 0718/0818 11009KT P6SM BKN060 FM080700 13005KT P6SM BKN100 FM081500 16005KT P6SM BKN150
KMLB,KMLB 071720Z 0718/0818 18008KT P6SM VCSH SCT040 SCT130 FM071900 15009KT P6SM VCTS SCT035CB BKN100 TEMPO 0720/0723 3SM TSRA BKN035CB FM080200 23005KT P6SM SCT050 SCT250 FM081300 24009KT P6SM SCT040 SCT120 FM081700 24010KT P6SM VCTS SCT060CB BKN250
KMLC,KMLC 071721Z 0718/0818 VRB04KT P6SM SCT050 BKN120 FM072000 VRB04KT P6SM VCTS SCT050CB BKN120 FM080000 VRB04KT P6SM SCT050 SCT250
KMLI,KMLI 071728Z 0718/0818 04008KT P6SM FEW250 FM080600 VRB03KT P6SM SKC FM081400 06007KT P6SM SKC
KMLS,KMLS 071733Z 0718/0818 26006KT P6SM SCT200 FM080000 19006KT P6SM VCTS SCT070CB FM080600 24010KT P6SM SCT070
KMLU,KMLU 071720Z 0718/0818 VRB04KT P6SM SCT040 FM071900 VRB04KT P6SM VCTS SCT050CB SCT150 SCT250 FM080400 VRB03KT P6SM FEW060 SCT250 TEMPO 0810/0813 5SM BR FM081500 VRB04KT P6SM SCT030
KMMH,KMMH 071720Z 0718/0818 09009KT P6SM FEW050 BKN200 FM071900 11011G18KT P6SM VCTS SCT080CB BKN150 FM080400 30006KT P6SM BKN050 BKN180 FM081400 12005KT P6SM FEW050 FEW120
KMMT,TAF KMMT 071500Z 0715/0821 VRB06KT 9999 FEW050 QNH2973INS BECMG 0717/0718 26010G15KT 9999 SCT070 QNH2966INS BECMG 0804/0805 VRB06KT 9000 -SHRA BKN028 QNH2970INS BECMG 0814/0815 01012KT 9999 NSW FEW029 QNH2973INS TX30/0720Z TN18/0810Z
KMOB,KMOB 071739Z 0718/0818 VRB05KT P6SM VCTS BKN035CB BKN250 FM080100 22004KT P6SM SCT040 BKN250 FM081500 29005KT P6SM SKC
KMOD,KMOD 071720Z 0718/0818 34011KT P6SM BKN100
KMOT,KMOT 071724Z 0718/0818 VRB05KT P6SM SCT080
KMPV,KMPV 071720Z 0718/0818 32008KT P6SM -SHRA SCT015 OVC020 TEMPO 0718/0722 6SM -SHRA SCT009 OVC012 FM080100 VRB04KT P6SM VCSH BKN012 OVC023 FM080700 VRB03KT P6SM VCSH OVC013 FM081400 VRB03KT P6SM VCSH OVC025
KMQY,KMQY 071728Z 0718/0818 VRB04KT 6SM HZ BKN120 FM072000 36011KT 6SM HZ VCSH BKN060 FM080700 02004KT P6SM SCT100
KMRB,KMRB 071739Z 0718/0818 32008KT 6SM HZ BKN040 FM080300 35004KT 2SM HZ FU BKN030 FM081400 33005KT 3SM HZ BKN035
KMRY,KMRY 071720Z 0718/0818 VRB03KT P6SM OVC012 FM072000 24010G16KT P6SM FEW030 FM080500 23006KT P6SM SCT003 BKN008 FM081700 25010KT P6SM SCT015
KMSL,KMSL 071725Z 0718/0818 28010KT P6SM FEW070 FM072200 31010KT P6SM SCT070 FM080100 01005KT P6SM BKN070 FM080500 04006KT P6SM BKN060 FM081600 02008KT P6SM FEW050 BKN100
KMSN,KMSN 071720Z 0718/0818 04012KT P6SM SCT250 FM080200 05006KT P6SM FEW250
KMSO,KMSO 071721Z 0718/0818 11007KT P6SM SCT120 FM072200 31008KT P6SM VCTS BKN100CB FM080200 35008KT P6SM VCSH OVC100
KMSP,KMSP 071720Z 0718/0824 10008KT P6SM BKN150 FM080400 11005KT P6SM SCT120
KMSS,KMSS 071720Z 0718/0818 32006KT 4SM HZ VCSH OVC040 FM072200 33007KT P6SM VCSH OVC035 TEMPO 0722/0802 4SM -SHRA HZ OVC025 FM080300 35005KT P6SM VCSH OVC025 FM081600 02005KT P6SM VCSH SCT015 OVC021
KMSY,KMSY 071743Z 0718/0824 34005KT P6SM VCTS SCT030CB FM072300 24005KT P6SM SCT040 FM080200 VRB03KT P6SM SCT250 FM081500 34005KT P6SM SCT030
KMTC,TAF KMTC 071100Z 0711/0817 01009KT 4800 HZ SKC QNH2983INS BECMG 0714/0715 01012KT 9999 NSW SKC QNH2982INS BECMG 0716/0717 02012G18KT 9999 SKC QNH2977INS BECMG 0801/0802 36009KT 9999 SKC QNH2977INS BECMG 0808/0809 34009KT 9999 BKN070 620704 QNH2977INS TX19/0720Z TN08/0807Z
KMTH,KMTH 071737Z 0718/0818 21007KT P6SM SCT020 SCT200
KMTJ,KMTJ 071725Z 0718/0818 33006KT P6SM FEW110 SCT250 FM072030 28012KT P6SM VCTS BKN100CB FM072200 26014G22KT P6SM VCTS BKN110CB FM080200 14012KT P6SM BKN110 FM081200 14005KT P6SM SKC
KMTN,KMTN 071739Z 0718/0818 33007G15KT 4SM HZ BKN035 FM072200 32005KT 2SM HZ FU BKN035 FM080300 03003KT 2SM HZ FU BKN030 FM081200 35005KT 3SM HZ BKN030
KMTW,KMTW 071722Z 0718/0818 04010G18KT P6SM FEW250 FM080100 36006KT P6SM FEW250 FM080800 33004KT P6SM FEW250 FM081400 36009G15KT P6SM FEW250
KMUI,TAF AMD KMUI 071700Z 0717/0817 02010G16KT 2400 FU FEW075 QNH2961INS BECMG 0723/0724 33009KT 9999 NSW FEW070 SCT100 QNH2965INS TX24/0721Z TN08/0810Z
KMUO,TAF KMUO 071800Z 0718/0824 11010G15KT 9999 VCSH SCT110 BKN130 QNH2989INS BECMG 0720/0721 11015G25KT 9999 VCTS SCT100CB BKN120 510009 QNH2983INS TEMPO 0721/0803 VRB20G35KT 8000 -TSRA SCT060CB BKN090 520009 BECMG 0803/0804 12009KT 9999 VCSH SCT070 BKN140 BKN210 QNH2986INS BECMG 0807/0808 VRB06KT 9999 NSW SCT080 BKN150 QNH2986INS BECMG 0820/0821 32009KT 9999 VCTS SCT060CB BKN080 QNH2984INS TX29/0722Z TN13/0811Z
KMVN,KMVN 071735Z 0718/0818 36005KT P6SM BKN080 FM072100 03004KT P6SM SCT080 FM080100 03003KT P6SM FEW250 FM081700 01007KT P6SM SKC
KMWH,KMWH 071720Z 0718/0818 01005KT P6SM SCT250 FM072200 28006KT P6SM FEW120 SCT250 FM080900 36005KT P6SM FEW100 SCT200 FM081200 01004KT P6SM BKN100 BKN200
KMXF,TAF KMXF 071100Z 0711/0817 VRB06KT 9999 OVC140 QNH2984INS BECMG 0716/0717 VRB06KT 9000 -SHRA BKN035 QNH2968INS TX31/0721Z TN19/0811Z
KMYL,KMYL 071745Z 0718/0818 VRB04KT P6SM SKC FM072100 VRB06KT P6SM SCT060 BKN100 TEMPO 0722/0802 VRB15G30KT 5SM -TSRA SCT040 BKN080CB FM080200 VRB05KT P6SM VCSH SCT060 BKN100
KMYR,KMYR 071729Z 0718/0818 18010KT P6SM SCT150 FM072100 26007KT P6SM VCTS BKN035CB FM080500 VRB02KT P6SM BKN050 FM081400 30004KT P6SM VCSH BKN035
KNBC,TAF KNBC 0715/0815 26008KT 9999 FEW120 SCT250 QNH2969INS BECMG 0719/0721 25010G20KT 9999 VCTS SCT040CB BKN090 QNH2964INS TEMPO 0723/0803 30012G21KT 4800 TSRA BR BKN040CB FM080300 35006KT 9999 SCT030 BKN070 QNH2967INS T32/0718Z T21/0810Z
KNBG,TAF KNBG 0715/0815 VRB04KT 9999 SCT030CB SCT120 BKN250 QNH2975INS TEMPO 0717/0723 VRB25G35KT 1600 TSRA BR BKN015CB OVC050 BECMG 0723/0801 27005KT 9999 SCT030 SCT100 BKN250 QNH2976INS BECMG 0807/0809 30004KT 9999 SCT025 SCT120 BKN250 QNH2975INS BECMG 0812/0814 34005KT 9999 SCT030CB SCT120 BKN250 QNH2979INS TX30/0719Z TN21/0811Z FN20040
KNCA,TAF KNCA 0715/0815 27008G18KT 9999 BKN150 QNH2972INS BECMG 0718/0720 BKN050 QNH2967INS FM072200 36008G18KT 4800 TSRA BR OVC030 QNH2967INS BECMG 0803/0805 30006KT 6000 SHRA BR QNH2965INS FM081300 29006KT 9999 BKN050 QNH2970INS T30/0718Z T17/0808Z
KNEW,KNEW 071743Z 0718/0818 35006KT P6SM VCSH SCT030 FM071900 32005KT P6SM VCTS SCT035CB FM072300 26007KT P6SM FEW025 FM081000 31010KT P6SM SCT020
KNFG,TAF KNFG 0715/0815 VRB03KT 9999 OVC045 QNH2996INS BECMG 0721/0723 33006KT 9999 SCT050 QNH29995INS BECMG 0803/0805 VRB03KT 9999 OVC040 QNH2998INS T19/0722Z T14/0812Z
KNFL,TAF KNFL 0715/0815 VRB06KT 9999 FEW070 SCT100 SCT150 QNH2988INS FM071900 15008KT 9999 SCT060 BKN100 BKN180 QNH2982INS FM072200 17011KT 9999 SCT060CB BKN100 BKN180 QNH2982INS TEMPO 0800/0806 VRB20G35KT 8000 -SHRA BKN060 BKN100 FM080600 VRB06KT 9999 VCSH SCT060 SCT100 SCT180 QNH2988INS TEMPO 0806/0809 9000 -SHRA SCT060 BKN100 TX29/0723Z TN12/0812Z FS30003
KNFW,TAF KNFW 0715/0815 VRB06KT 9999 FEW180 SCT250 QNH2982INS FM071900 17009KT 9999 VCTS SCT060CB BKN150 BKN250 QNH2976INS WND 080V240 TEMPO 0720/0800 VRB12G18KT 9999 -TSRA SCT035CB BKN060 BKN120 FM080200 VRB06KT 9999 FEW045 SCT060 BKN180 BKN250 QNH2978INS TX31/0719Z TN22/0810Z FN20046
KNGP,TAF KNGP 0715/0815 10006KT 9999 FEW025 SCT035 SCT100 BKN300 QNH2982INS TEMPO 0715/0719 VRB04KT FM071900 10012KT 9999 VCSH SCT035 SCT100 BKN300 QNH2976INS FM072300 11010KT 9999 FEW030 FEW100 BKN300 QNH2976INS FM080400 16008KT 9999 FEW015 BKN300 QNH2978INS FM081000 VRB04KT 9999 SCT012 BKN300 QNH2979INS TX34/0720Z TN25/0812Z FN20044
KNGU,TAF KNGU 0715/0815 VRB06KT 3200 -FU SCT030 OVC090 QNH2962INS TEMPO 0717/0723 09008KT 6000 -FU BKN030 OVC090 FM072300 VRB06KT 3200 -FU BKN035 OVC090 QNH2964INS TEMPO 0801/0807 4800 SHRA BR BKN030 OVC090 FM080700 VRB06KT 9999 BKN090 QNH2970INS TX24/0719Z TN15/0808Z FN20067
KNHK,TAF KNHK 0715/0815 VRB05KT 4000 FU BKN025 BKN250 QNH2965INS BECMG 0717/0719 13008KT 4000 FU BKN030 BKN250 QNH2963INS BECMG 0722/0800 20006KT 4000 FU BKN035 BKN065 QNH2964INS TX26/0720Z TN17/0810Z FN20065
KNID,TAF KNID 0715/0815 VRB05KT 9999 VCSH SCT070 BKN100 621005 QNH2985INS TEMPO 0715/0719 9999 -SHRA FEW040 BKN050 BKN100 BECMG 0719/0721 12008KT 9999 VCSH FEW065 BKN100 BKN200 621009 510009 QNH2980INS WND 090V160 TS DSNT OMTNS BECMG 0723/0801 18013G22KT 9999 NSW SCT070 BKN120 BKN200 621009 510009 QNH2976INS BECMG 0802/0804 21009KT 9999 FEW085 SCT150 600000 500000 QNH2982INS T27/0722Z T13/0813Z
KNIP,TAF KNIP 0715/0815 23007KT 9999 FEW050 SCT150 BKN250 QNH2980INS FM071900 25012KT 9999 VCTS SCT040CB BKN150 QNH2971INS TEMPO 0719/0723 VRB15G30KT 4800 TSRA SCT010 BKN030CB OVC080 FM080100 27008KT 9999 FEW010 SCT030 BKN110 BKN250 QNH2974INS FM081300Z 31010G15KT 9999 FEW030 SCT250 QNH2970INS TX30/0720Z TN23/0811Z FN20083
KNJK,TAF KNJK 0715/0815 VRB06KT 9999 FEW110 FEW250 QNH2976INS FM072200 26015G25KT 9999 FEW110 FEW250 QNH2973INS FM080530 28009KT 9999 FEW110 SCT250 QNH2983INS TX34/0723Z TN19/0813Z FS30130
KNKT,TAF KNKT 0715/0815 VRB05KT 6000 HZ SKC QNH2968INS FM072000 VRB05KT 6000 HZ FEW040 SCT050 QNH2965INS TEMPO 0800/0806 6000 SHRA BR SCT040 BKN050 FM080700 VRB05KT 9999 SCT040 BKN050 QNH2966INS T29/0718Z T18/0807Z
KNKX,TAF KNKX 0715/0815 VRB03KT 9999 FEW020 BKN035 QNH2995INS FM071830 28008KT 9999 BKN035 QNH2994INS TEMPO 0721/0803 SCT035 BECMG 0803/0805 VRB03KT 9999 OVC025 QNH2998INS T20/0721Z T14/0814Z
KNLC,TAF KNLC 0715/0815 33008KT 9999 BKN036 OVC49 651109 QNH2990INS TEMPO 0715/0718 9999 VCSH OVC036 FM071800 VRB06KT 9999 SCT036 BKN100 BKN180 651109 QNH2983INS FM072000 VRB06KT 9999 FEW040 BKN100 BKN200 651109 QNH2980INS TEMPO 0721/0803 11010KT FEW027 BKN039 FM080900 33010G15KT 9999 SCT130 BKN220 600000 QNH2990INS TX27/0723Z TN14/0812Z FS30067
KNMM,TAF KNMM 0715/0815 28006KT SCT050 SCT250 QNH2979INS TEMPO 0720/0801 VRB10G20KT 6000 TSRA BKN025CB BKN050 FM080200 VRB05KT 9999 FEW040 SCT250 QNH2981INS TX33/0721Z TN20/0810Z FN20088
KNPA,TAF AMD KNPA 0717/0815 18010KT 9999 VCTS SCT030CB BKN120 BKN250 QNH2976INS TEMPO 0717/0720 VRB15G25KT 4800 TSRA BKN020CB TEMPO 0722/0801 VRB15G25KT 6000 TSRA BKN030CB FM080100 25005KT 9999 FEW035 SCT150 BKN250 QNH2974INS TX30/0720Z TN20/0812Z AMD 1704Z FN20033
KNQI,TAF KNQI 0715/0815 VRB05KT 9999 FEW025 SCT250 QNH2983INS FM071900 08008KT 9999 SCT040 SCT250 QNH2976INS FM072200 13012KT 9999 FEW050 SCT250 QNH2974INS FM080200 15006KT 9999 SKC QNH2979INS FM080600 VRB05KT 9999 SCT015 BKN180 OVC250 QNH2979INS FM080900 31008KT 9999 VCSH FEW015 SCT040 BKN120 OVC200 QNH2979INS TEMPO 0811/0814 VRB04KT 4800 BR TX35/0720Z TN22/0811Z FN20081
KNQX,TAF KNQX 0715/0815 20010KT 9999 SCT022 BKN250 QNH2987INS FM071700 24010KT 9999 VCTS SCT022CB BKN250 QNH2980INS TEMPO 0718/0722 VRB15KT 6000 -TSRA BKN022CB BECMG 0723/0801 26008KT 9999 VCSH SCT022 SCT250 QNH2980INS FM080400 21012KT 9999 VCTS SCT022CB SCT250 QNH2984INS TEMPO 0806/0812 VRB10G20KT 6000 -TSRA BKN022CB TX30/0719Z TN27/0811Z FN20027
KNRB,TAF KNRB 0715/0815 23010KT 9999 VCSH FEW040 SCT100 BKN250 QNH2980INS FM071800 25010G15KT 9999 VCSH SCT040CB BKN100 BKN250 QNH2971INS TEMPO 0719/0723 VRB25G35KT 4000 -TSRA BKN010 OVC030CB FM080100 23010KT 9999 VCSH FEW030 SCT100 BKN250 QNH2974INS TX32/0719Z TN23/0811Z FN20022
KNSE,TAF KNSE 0715/0815 VRB05KT 9999 SCT030 BKN120 BKN250 QNH2984INS FM071700 23008KT 9999 VCTS SCT040CB BKN120 BKN250 QNH2974INS TEMPO 0719/0723 VRB15G25KT 3200 TSRA BR SCT035CB BKN050 BKN080 FM080100 24005KT 9999 FEW030 SCT080 SCT120 BKN250 QNH2973INS FM080800 27005KT 9999 FEW080 SCT150 SCT250 QNH2974INS TX30/0718Z TN20/0811Z FN20071
KNTD,TAF KNTD 0715/0815 VRB06KT 9000 HZ BKN040 OVC050 QNH2996INS FM071700 19009KT 9999 FEW018 BKN035 OVC055 QNH2995INS TEMPO 0718/0723 23011KT FM072300 25010KT 9999 SCT035 BKN040 QNH2995INS FM080300 VRB05KT 9999 SCT025 SCT035 QNH2997INS FM081100 VRB03KT 4800 -DZ BR OVC018 QNH3000INS TX19/0721Z TN14/0812Z FS30029
KNTU,TAF COR KNTU 0716/0815 VRB06KT 3200 FU SCT030 OVC090 QNH2963INS TEMPO 0716/0721 6000 FU SCT015 BKN040 OVC090 FM072100 VRB06KT 6000 FU SCT030 SCT090 BKN200 QNH2961INS TEMPO 0721/0802 3200 FU SCT030 BKN090 OVC200 FM080200 VRB06KT 8000 -SHRA BR SCT030 BKN050 OVC100 QNH2967INS TEMPO 0802/0808 4800 -SHRA BR BKN030 OVC050 FM080800 VRB06KT 9999 SCT040 SCT100 QNH2963INS TX23/0719Z TN16/0809Z COR 1617Z FN20008
KNUC,TAF KNUC 0715/0815 VRB06KT 9999 SCT015 BKN035 QNH2992INS FM071800 VRB06KT 9999 FEW010 BKN031 QNH2990INS BECMG 0720/0721 25008KT BKN016 BKNK024 QNH2991INS FM080500 VRB06KT 9999 BKN030 QNH2996INS TEMPO 0805/0809 BKN008 TX18/0721Z TN13/0810Z FS30205
KNUW,TAF KNUW 0715/0815 VRB06KT 9999 FEW250 QNH2980INS FM071800 26008KT 9999 FEW035 SCT250 QNH2977INS FM080800 VRB06KT 9999 MIFG FEW250 QNH2978INS TX22/0723Z TN08/0713Z FS30028
KNXP,TAF AMD KNXP 0717/0815 VRB05KT 9999 VCSH BKN110 651103 QNH2993INS BECMG 0718/0720 11008G18KT 9999 SCT110 651103 QNH2989INS FM072130 22015G25KT 9999 SCT110 651103 QNH2987INS BECMG 0804/0806 28008KT 9999 FEW110 651103 QNH2995INS T29/0722Z T18/0814Z AMD 1701
KNYG,TAF KNYG 0715/0815 VRB06KT 3000 HZ BKN045 QNH2964INS BECMG 0718/0720 22008KT 8000 HZ SCT040 QNH2961INS BECMG 0804/0806 VRB06KT 3000 HZ BKN035 QNH2964INS T27/0716Z T12/0809Z
KNYL,TAF KNYL 0715/0815 19006KT 9999 SKC QNH2978INS FM072100 21007KT 9999 SKC QNH2972INS FM080700 17005KT 9999 SKC QNH2983INS T35/0800Z T17/0813Z
KNZY,TAF KNZY 0715/0815 VRB06KT 9999 SCT020 BKN040 BKN180 QNH2992INS TEMPO 0715/0719 BKN018 FM072000 26010KT 9999 SCT030 BKN040 BKN110 QNH2994INS FM080200 30008KT 9999 BKN015 OVC025 QNH2995INS FM080700 VRB06KT 9999 FEW010 BKN020 QNH3000INS TX19/0720Z TN16/0812Z FS30205
KOAJ,KOAJ 071756Z 0718/0818 31009KT 6SM HZ SCT120 FM072100 31006KT 6SM -SHRA HZ VCSH BKN080 FM072300 VRB04KT 6SM -SHRA HZ SCT020 BKN070 FM080300 VRB03KT 6SM -SHRA HZ SCT007 BKN080 FM080800 00000KT 5SM BR SCT007 BKN070 FM081400 VRB03KT P6SM SCT015 BKN070 AMD LTD TO CLD VIS AND WIND
KOAK,KOAK 071720Z 0718/0824 31008KT P6SM BKN025 FM072000 27014KT P6SM SKC FM080600 27006KT P6SM SCT020 FM081000 28005KT P6SM SCT008 BKN020 FM081700 27012KT P6SM SCT020
KOFF,TAF KOFF 071800Z 0718/0824 VRB06KT 9999 SCT060 BKN250 QNH2984INS BECMG 0723/0724 VRB06KT 9999 BKN060 QNH2981INS TEMPO 0800/0802 15010G20KT 8000 -TSRA BKN060CB BECMG 0807/0808 VRB06KT 9999 BKN030 QNH2986INS BECMG 0813/0814 12010G15KT 9999 BKN060 QNH2988INS TX32/0720Z TN18/0814Z
KOFK,KOFK 071720Z 0718/0818 07005KT P6SM SCT080 BKN120 FM080300 11006KT P6SM SCT120 FM081100 15006KT P6SM SCT120
KOGB,KOGB 071742Z 0718/0818 30012G18KT P6SM SCT035 SCT150 BKN250 FM072000 30012G18KT P6SM VCTS SCT035CB BKN250 TEMPO 0720/0724 3SM -TSRA FM080200 VRB05KT P6SM VCSH SCT040 BKN080
KOGD,KOGD 071734Z 0718/0818 07010KT P6SM FEW060 SCT100 FM072000 16007KT P6SM VCTS BKN100CB BKN150 FM072300 VRB05KT P6SM FEW100 BKN150 FM080200 09011KT P6SM FEW100 FM080800 VRB06KT P6SM FEW100
KOKC,KOKC 071720Z 0718/0818 17005KT P6SM SCT120 SCT250 FM080900 25005KT P6SM BKN250
KOLF,KOLF 071720Z 0718/0818 09010KT P6SM SKC TEMPO 0721/0724 6SM TSRA BR BKN060CB FM080000 04010KT P6SM FEW090 PROB30 0805/0807 6SM TSRA BR BKN080CB FM081000 02010KT P6SM SCT110 PROB30 0811/0812 6SM -SHRA BR BKN070 FM081500 06010KT P6SM SCT070
KOLM,KOLM 071722Z 0718/0818 21004KT P6SM BKN250 FM072200 27007KT P6SM SCT200 FM080400 22004KT P6SM SCT250 FM081500 20005KT P6SM BKN025
KOLS,KOLS 071720Z 0718/0818 22012G19KT P6SM SKC FM080200 22008KT P6SM SCT250 FM080600 VRB04KT P6SM BKN250
KOMA,KOMA 071720Z 0718/0818 09007KT P6SM SCT080 SCT120 TEMPO 0721/0723 VRB15G30KT 5SM -TSRA BKN070CB FM080300 12006KT P6SM BKN100
KONP,KONP 071728Z 0718/0818 21012KT P6SM BKN018 TEMPO 0718/0721 SCT018 FM072100 22010KT P6SM SCT007 BKN012 FM080200 19005KT 4SM BR OVC003 FM081500 20005KT 6SM BR SCT005 BKN010
KONT,KONT 071728Z 0718/0824 26005KT P6SM SCT025 BKN040 FM072100 25011G17KT P6SM SCT030 SCT040 FM080600 26007KT P6SM SCT020 BKN035 FM081200 25005KT P6SM BKN020 FM081700 VRB04KT P6SM SCT025 BKN035 FM082100 25011G17KT P6SM SCT025 SCT035
KOPF,KOPF 071720Z 0718/0818 19008KT P6SM VCTS SCT030CB BKN050 TEMPO 0718/0720 VRB10G20KT 4SM TSRA BKN025CB FM080000 20006KT P6SM SCT025 SCT080 FM081500 25010KT P6SM VCTS SCT030CB BKN050
KORD,KORD 071724Z 0718/0824 05009KT P6SM FEW250 FM072000 02013G21KT P6SM FEW250 FM080300 03007KT P6SM FEW250 FM081900 04010G15KT P6SM SKC
KORF,KORF 071742Z 0718/0818 05006KT 3SM HZ FU SCT025 BKN070 TEMPO 0718/0721 2SM HZ FU FM072200 16007KT 5SM HZ VCSH BKN060 FM080300 17004KT 5SM HZ BKN090 FM080700 18004KT 4SM HZ SCT008 BKN015 FM081300 22005KT 6SM HZ SCT015 SCT060
KORH,KORH 071731Z 0718/0818 30010KT P6SM VCSH OVC040 FM080000 32005KT P6SM BKN050 FM080700 29003KT P6SM BKN035 FM081500 30007KT P6SM VCSH OVC040
KOTH,KOTH 071740Z 0718/0818 26007KT P6SM OVC012 FM071900 27010KT P6SM BKN015 FM080200 24004KT P6SM OVC008 FM080800 VRB03KT 3SM BR OVC005 FM081600 25004KT P6SM OVC010
KOTM,KOTM 071720Z 0718/0818 07008KT 2SM RA VCTS SCT035 BKN040CB FM072000 07008KT 6SM HZ SCT040 BKN080 FM080000 05007KT P6SM BKN250
KOUN,KOUN 071720Z 0718/0818 14006KT P6SM SCT120 SCT250 FM080400 24005KT P6SM BKN150
KOWB,KOWB 071735Z 0718/0818 02007KT 6SM -SHRA HZ FEW035 SCT060 OVC100 TEMPO 0718/0721 SCT010 BKN025 FM072100 36006KT P6SM SCT070 FM080000 35004KT P6SM SCT200 FM080300 VRB04KT P6SM FEW250
KOXR,KOXR 071740Z 0718/0818 24008KT P6SM BKN025 FM072000 24008KT P6SM OVC050 FM080500 28008KT P6SM SCT250 FM080800 VRB03KT P6SM OVC050 FM081600 28008KT P6SM OVC025
KOZR,TAF KOZR 071800Z 0718/0824 VRB06KT 9999 VCTS BKN040CB QNH2970INS TEMPO 0718/0721 VRB20G30KT 4800 TSRA BKN030 BECMG 0722/0723 21006KT 9999 NSW SCT040 SCT100 QNH2970INS BECMG 0804/0805 VRB06KT 9999 SCT040 QNH2974INS TEMPO 0810/0812 4800 BR SCT005 TX31/0721Z TN19/0810Z
KPAE,KPAE 071722Z 0718/0818 31006KT P6SM BKN250 FM080200 02005KT P6SM FEW250 FM080900 17004KT P6SM SCT250
KPAH,KPAH 071735Z 0718/0818 VRB03KT P6SM -SHRA BKN110 FM072000 36007KT P6SM BKN090 FM072300 VRB04KT P6SM SCT080 FM080600 VRB03KT P6SM SCT200 FM081700 01007KT P6SM FEW250
KPAM,TAF KPAM 071100Z 0711/0817 00000KT 9999 SCT015 BKN025 QNH2985INS WND 24006KT AFT 0713 TEMPO 0711/0713 4800 BR BECMG 0714/0715 24009KT 9999 VCTS SCT015CB BKN020 QNH2986INS TEMPO 0715/0720 24012G18KT 4800 -TSRA BKN015CB BECMG 0719/0720 22012KT 9999 NSW SCT015 SCT030 QNH2978INS BECMG 0808/0809 27003KT 9999 SCT010 BKN030 QNH2974INS TEMPO 0809/0812 00000KT 4800 BR SCT005 BKN010 BECMG 0811/0812 27006KT 9999 BKN015 QNH2977INS TX29/0718Z TN23/0711Z
KPBF,KPBF 071726Z 0718/0818 31007KT P6SM SCT050 FM080200 VRB04KT P6SM SCT250 FM081000 VRB03KT 5SM HZ BKN250 FM081400 34005KT P6SM BKN250
KPBG,KPBG 071720Z 0718/0818 33008KT P6SM SHRA OVC035 TEMPO 0718/0722 6SM -SHRA OVC025 FM080600 VRB04KT P6SM VCSH OVC025 FM081100 34005KT P6SM VCSH OVC019 FM081500 05005KT P6SM VCSH OVC025
KPBI,KPBI 071757Z 0718/0818 13010KT P6SM VCTS SCT030CB BKN050 FM080000 20005KT P6SM SCT025 SCT080 FM081500 24010G18KT P6SM VCTS SCT025CB BKN050
KPDK,KPDK 071741Z 0718/0818 29010G20KT P6SM SCT050 FM072300 30008KT P6SM SCT060 FM080200 VRB02KT P6SM FEW050 SCT150 FM081200 30004KT P6SM VCSH SCT050 SCT100 FM081500 30010KT P6SM VCSH SCT050 SCT100
KPDT,KPDT 071720Z 0718/0818 34006KT P6SM SCT200 FM072200 02006KT P6SM SCT150 BKN200 FM080600 14006KT P6SM BKN250 FM081400 17006KT P6SM BKN250
KPDX,KPDX 071728Z 0718/0818 18007KT P6SM SCT120 BKN250 FM072200 30007KT P6SM FEW100 SCT250 FM080800 VRB03KT P6SM SCT035 BKN120
KPEQ,KPEQ 071720Z 0718/0818 11010KT P6SM SCT060
KPGA,KPGA 071730Z 0718/0818 VRB05KT P6SM SKC FM072200 17009G15KT P6SM SCT250 FM080200 VRB05KT P6SM SKC
KPGD,KPGD 071739Z 0718/0818 24011KT P6SM VCSH BKN250 TEMPO 0718/0721 5SM TSRA BKN050CB FM080100 23005KT P6SM BKN250 FM081300 23007KT P6SM BKN100 PROB30 0813/0816 5SM TSRA BKN040CB FM081600 25012G19KT P6SM BKN050 PROB30 0816/0818 5SM TSRA BKN040CB
KPGV,KPGV 071756Z 0718/0818 30009KT 6SM HZ VCSH BKN110 FM072100 28005KT 6SM HZ VCSH OVC080 FM080000 00000KT 6SM -SHRA HZ SCT015 OVC060 FM080300 00000KT 6SM -SHRA BR SCT007 OVC060 FM080700 00000KT 5SM BR SCT003 BKN060 FM081400 25005KT P6SM SCT015 SCT120 AMD LTD TO CLD VIS AND WIND
KPHF,KPHF 071742Z 0718/0818 05005KT 5SM HZ FU SCT025 FM072200 12006KT 5SM HZ VCSH BKN060 FM080200 15005KT 5SM HZ BKN100 FM080800 22004KT 3SM HZ SCT008 BKN012 FM081300 22005KT 6SM HZ SCT060
KPHL,KPHL 071730Z 0718/0824 31013KT 2SM HZ FU SCT080 FM080000 33006KT 2SM HZ FU SCT080 FM080400 35004KT 3SM HZ SCT080 FM081400 31007KT 5SM HZ SCT080
KPHX,KPHX 071720Z 0718/0824 18008KT P6SM FEW120 FEW250 FM072100 26012KT P6SM FEW120 FEW250 FM081000 09005KT P6SM SCT250 FM081800 18006KT P6SM FEW120 SCT250
KPIA,KPIA 071723Z 0718/0818 04007KT P6SM SKC
KPIB,KPIB 071746Z 0718/0818 30004KT P6SM BKN040 FM072000 30004KT P6SM VCSH BKN050 FM080100 30004KT P6SM FEW040
KPIE,KPIE 071739Z 0718/0818 23011KT P6SM VCSH SCT050 OVC120 FM072200 25010KT P6SM SCT050 BKN250 FM080100 23005KT P6SM BKN250
KPIH,KPIH 071730Z 0718/0818 VRB05KT P6SM VCTS FEW080CB SCT120 BKN200 FM072000 23010KT P6SM VCTS BKN080CB OVC120 TEMPO 0721/0801 VRB20G35KT 4SM TSRA OVC070CB FM080300 06008KT P6SM FEW070 SCT150 FM081400 VRB05KT P6SM VCSH FEW080 OVC160
KPIR,KPIR 071721Z 0718/0818 VRB04KT P6SM FEW080 FM072100 13006KT P6SM FEW090 FEW200
KPIT,KPIT 071740Z 0718/0824 34009KT 5SM HZ SKC FM080000 32007KT P6SM SCT100
KPKB,KPKB 071723Z 0718/0818 33007KT P6SM FEW050 FM080200 00000KT P6SM SKC FM081600 35006KT P6SM FEW250
KPLN,KPLN 071735Z 0718/0818 04010G16KT P6SM SCT070 BKN250 FM080100 34005KT P6SM SCT250 FM081700 35010G15KT P6SM FEW170
KPMD,KPMD 071740Z 0718/0818 25012KT P6SM OVC100 FM072300 25015G20KT P6SM BKN250 FM080400 22012KT P6SM SCT250
KPNA,KPNA 071725Z 0718/0818 21007KT P6SM BKN110 FM072100 28012KT P6SM VCTS BKN080CB FM080200 30007KT P6SM -SHRA SCT050 OVC070 FM080700 30005KT P6SM VCSH FEW040 SCT060 BKN080
KPNC,KPNC 071720Z 0718/0818 19006KT P6SM SCT120 SCT250 FM080600 VRB04KT P6SM BKN250
KPNE,KPNE 071730Z 0718/0818 30013KT 2SM HZ FU SCT080 FM080000 33006KT 2SM HZ FU SCT080 FM080400 34004KT 3SM HZ SCT080 FM081400 31006KT 5SM HZ SCT080
KPNS,KPNS 071739Z 0718/0818 16008KT P6SM VCTS BKN035CB BKN090 BKN250 FM080100 23005KT P6SM SCT040 BKN250 FM081500 28005KT P6SM SKC
KPOB,TAF KPOB 071700Z 0717/0823 32012G18KT 9999 FEW050 BKN080 BKN130 BKN200 QNH2966INS BECMG 0720/0721 34013G23KTKT 9999 VCSH BKN050 BKN100 OVC150 QNH2966INS BECMG 0723/0724 34009KT 6000 -SHRA FEW020 BKN040 OVC100 QNH2966INS BECMG 0805/0806 27005KT 8000 BR SCT010 SCT050 BKN100 QNH2966INS BECMG 0814/0815 27007KT 9999 NSW FEW060 SCT100 QNH2967INS TX29/0720Z TN16/0811Z
KPOE,TAF KPOE 071500Z 0715/0821 33006KT 9999 FEW025 QNH2986INS BECMG 0716/0717 35007KT 9999 SCT030 SCT040 QNH2979INS BECMG 0720/0721 33009KT 9999 VCTS BKN045CB BKN100 QNH2977INS TEMPO 0722/0801 VRB15G25KT 6000 TSRA BR BKN045CB BECMG 0800/0801 14007KT 9999 VCSH SCT065 SCT120 QNH2978INS BECMG 0802/0803 VRB03KT 9999 NSW SCT250 QNH2979INS TEMPO 0809/0813 4800 BR BECMG 0814/0815 31006KT 9999 FEW025 QNH2984INS BECMG 0816/0817 31007KT 9999 SCT030 SCT040 QNH2983INS BECMG 0818/0819 30009KT 9999 VCTS BKN045CB BKN100 QNH2977INS TEMPO 0820/0821 VRB15G25KT 6000 TSRA BR BKN045CB TX32/0721Z TN19/0811Z
KPOU,KPOU 071730Z 0718/0818 26012KT 2SM HZ SCT025 BKN035 TEMPO 0718/0722 1SM HZ BKN025 OVC035 FM080300 VRB03KT 3SM HZ BKN100 FM081400 30006KT 5SM HZ BKN060
KPQI,KPQI 071739Z 0718/0818 03007KT 5SM -SHRA OVC013 FM072300 03006KT P6SM -SHRA OVC007
KPRB,KPRB 071740Z 0718/0818 22005KT P6SM BKN017 OVC035 FM071900 21010KT P6SM BKN022 OVC045 FM072300 20012KT P6SM SCT035 OVC050 FM080300 18007KT P6SM OVC035 FM080800 VRB03KT P6SM BKN035 FM081500 VRB03KT P6SM SKC
KPRC,KPRC 071730Z 0718/0818 14012G22KT P6SM SKC FM071900 18012G20KT P6SM SKC FM080200 19006KT P6SM SKC FM081600 16008KT P6SM SKC
KPSC,KPSC 071720Z 0718/0818 35005KT P6SM SCT200 FM072300 02005KT P6SM FEW150 BKN200 FM080600 VRB03KT P6SM BKN250
KPSF,KPSF 071730Z 0718/0818 31008KT 3SM HZ BKN050 FM080600 VRB04KT 5SM HZ BKN020 PROB30 0810/0814 3SM -SHRA BR BKN008 OVC012 FM081400 VRB03KT 6SM HZ BKN030 OVC050 PROB30 0814/0818 3SM -SHRA BR BKN015 OVC030
KPSM,KPSM 071720Z 0718/0818 30010G17KT P6SM SCT040 BKN060 FM072300 26003KT P6SM OVC060 FM081400 06005KT P6SM BKN025 OVC050
KPSP,KPSP 071728Z 0718/0818 32011G17KT P6SM SCT120 SCT200 FM072200 32015G25KT P6SM SCT120 FM080700 32011KT P6SM SKC FM081000 VRB05KT P6SM SKC
KPTK,KPTK 071720Z 0718/0818 35010G17KT P6SM SKC FM080200 VRB03KT P6SM SKC FM081000 33006KT 5SM HZ BKN060 FM081600 35010G17KT P6SM BKN070
KPUB,KPUB 071734Z 0718/0818 11012KT P6SM SCT060 SCT130 FM072300 26012KT P6SM VCSH BKN060 TEMPO 0723/0802 VRB15G30KT 5SM -TSRA BKN060CB FM080400 30006KT P6SM BKN060 OVC100 FM080800 30005KT P6SM SCT020 BKN120 FM081700 12008KT P6SM SCT060 BKN200
KPUW,KPUW 071720Z 0718/0818 VRB02KT P6SM FEW090 SCT250 FM072100 33005KT P6SM SCT070 BKN150 FM080200 06003KT P6SM BKN070 BKN120 FM081200 07003KT P6SM BKN070 BKN120
KPVD,KPVD 071731Z 0718/0818 29010G17KT 6SM FU BKN040 FM072300 32005KT P6SM BKN050 FM081500 29008KT P6SM VCSH BKN035
KPVU,KPVU 071734Z 0718/0818 32010KT P6SM SCT100 BKN220 FM072100 03012G22KT P6SM VCTS SCT080CB BKN140 FM072300 33007KT P6SM FEW080 BKN140 FM080400 14005KT P6SM SCT140 FM081600 30010KT P6SM SCT100
KPVW,KPVW 071724Z 0718/0818 23010KT P6SM SCT040 FM080200 19007KT P6SM SCT100
KPWM,KPWM 071720Z 0718/0818 31007KT P6SM VCSH BKN050 OVC070 FM080000 VRB03KT P6SM SCT025 OVC060 FM081400 07005KT P6SM BKN025 OVC050
KPWT,KPWT 071722Z 0718/0818 21004KT P6SM SCT250 FM081500 21005KT P6SM SCT010 SCT250
KRAP,KRAP 071720Z 0718/0818 16011KT P6SM FEW100 FM080100 VRB06KT P6SM SCT100
KRBG,KRBG 071740Z 0718/0818 VRB03KT P6SM SCT120 OVC150 FM072200 32008KT P6SM BKN120 FM081100 36003KT P6SM OVC025 FM081700 02003KT P6SM SCT030
KRBL,KRBL 071720Z 0718/0818 17010KT P6SM BKN100 FM080000 15008G18KT P6SM VCSH OVC100 FM080800 16007KT P6SM OVC050
KRCA,TAF KRCA 071100Z 0711/0817 VRB06KT 9999 SKC QNH2986INS TX29/0720Z TN17/0711Z
KRDD,KRDD 071720Z 0718/0818 19007KT P6SM BKN100 TEMPO 0718/0720 VRB05KT OVC025 FM080000 16014KT P6SM VCSH BKN100 FM080600 17005KT P6SM OVC050
KRDG,KRDG 071730Z 0718/0818 31011KT 2SM HZ FU SCT080 FM080000 33006KT 2SM HZ FU SCT080 FM080400 33004KT 3SM HZ SCT080 FM081400 31007KT 5SM HZ SCT080
KRDM,KRDM 071720Z 0718/0818 VRB03KT P6SM SCT200 FM072000 35008KT P6SM VCSH SCT120 BKN200 FM080500 24004KT P6SM BKN250 FM081100 VRB03KT P6SM BKN250
KRDR,TAF KRDR 071800Z 0718/0824 15009KT 9000 HZ FEW055 BKN080 OVC110 QNH2977INS BECMG 0805/0806 19009KT 8000 -SHRA FEW045 SCT065 OVC090 QNH2984INS BECMG 0808/0809 VRB06KT 4800 BR FEW035 BKN055 OVC080 QNH2983INS BECMG 0822/0823 12009KT 8000 -SHRA SCT030 BKN045 QNH2986INS TEMPO 0822/0824 6000 -TSRA BKN040CB TX32/0721Z TN16/0811Z
KRDU,KRDU 071739Z 0718/0818 29008KT P6SM SCT040 OVC080 TEMPO 0718/0722 5SM -RA BR BKN040 FM072300 29005KT P6SM SCT040 BKN090 FM080600 21003KT 5SM BR BKN250 FM080900 VRB03KT 3SM BR SCT007 FM081400 32006KT P6SM SCT250
KRFD,KRFD 071724Z 0718/0818 04008KT P6SM FEW250 FM072100 06012G18KT P6SM FEW250 FM080300 04006KT P6SM FEW250
KRHI,KRHI 071722Z 0718/0818 08007G14KT P6SM FEW250 FM080200 06003KT P6SM FEW250 FM080800 00000KT P6SM FEW250 FM081400 02006KT P6SM FEW250
KRIC,KRIC 071742Z 0718/0818 16005KT 3SM HZ FU SCT050 BKN100 FM072000 22005KT 5SM HZ VCSH SCT050 BKN100 FM080200 17003KT 6SM HZ BKN100 FM080800 VRB03KT 4SM HZ SCT008 BKN012 FM081300 35005KT 6SM HZ SCT060
KRIL,KRIL 071725Z 0718/0818 30006KT P6SM VCTS FEW060CB BKN100 TEMPO 0718/0720 VRB15G25KT -TSRA BKN060CB BKN100 FM072000 28009KT P6SM VCTS SCT050CB BKN100 TEMPO 0720/0724 VRB20G33KT -TSRA BKN050CB BKN090 FM080200 21009KT P6SM BKN100 FM080500 09005KT P6SM BKN200
KRIV,TAF AMD KRIV 071310Z 0713/0818 15006KT 9999 BKN018 BKN040 BKN120 510606 QNH2994INS TEMPO 0713/0716 BKN025 BKN120 BECMG 0714/0715 17006KT 9999 BKN020 BKN120 QNH2998INS BECMG 0717/0718 22006KT 9999 BKN035 QNH2997INS BECMG 0720/0721 32009KT 9999 SCT045 510005 QNH2993INS TEMPO 0722/0802 32012G18KT BKN040 BECMG 0802/0803 30006KT 9999 BKN030 QNH2994INS BECMG 0808/0809 30004KT 9000 BR BKN015 OVC025 QNH2998INS BECMG 0815/0816 VRB04KT 9999 NSW FEW015 BKN025 QNH2998INS BECMG 0816/0817 32004KT 9999 SCT025 QNH2998INS TX24/0722Z TN13/0713Z
KRIW,KRIW 071725Z 0718/0818 VRB06KT P6SM SCT080 BKN150 FM072200 26010KT P6SM VCTS BKN080CB OVC110 FM080300 06006KT P6SM -SHRA OVC080 FM080800 VRB06KT P6SM VCSH SCT080 BKN120
KRKD,KRKD 071720Z 0718/0818 30006KT P6SM VCSH FEW025 BKN040 OVC060 FM080600 04003KT P6SM BKN025 OVC040
KRKS,KRKS 071725Z 0718/0818 22009KT P6SM SCT080 BKN150 FM071900 VRB05KT P6SM VCTS BKN090CB FM080000 VRB05KT P6SM -SHRA SCT060 OVC080 FM080800 VRB05KT P6SM VCSH SCT070 BKN100 FM081600 25007KT P6SM SCT100 SCT200
KRME,KRME 071737Z 0718/0818 29011G20KT 4SM FU SCT025 BKN040 TEMPO 0718/0720 1SM FU VV025 FM072000 32008KT 6SM FU BKN030 FM080700 27004KT 5SM FU BKN019 FM081500 31005KT P6SM BKN022
KRND,TAF KRND 071600Z 0716/0822 18008KT 9999 SCT040 SCT180 QNH2983INS BECMG 0719/0720 15009KT 9999 VCTS SCT040CB BKN100 BKN200 QNH2976INS BECMG 0723/0724 15009KT 9999 NSW FEW045 SCT200 QNH2978INS BECMG 0809/0810 21009KT 9999 VCSH SCT030 BKN060 QNH2985INS BECMG 0812/0813 23009KT 9999 NSW FEW030 SCT060 QNH2976INS TX32/0720Z TN21/0811Z
KRNH,KRNH 071720Z 0718/0818 10008KT P6SM BKN100 FM080200 08006KT P6SM BKN200 FM081000 11005KT P6SM BKN200
KRNO,KRNO 071720Z 0718/0818 10006KT P6SM FEW080 SCT100 SCT200 FM072100 08008KT P6SM VCSH SCT090 BKN250 FM080000 31010KT P6SM VCSH SCT080 BKN120 FM080800 VRB04KT P6SM FEW060 SCT120
KROA,KROA 071720Z 0718/0818 29010KT P6SM SCT050 BKN090 FM080000 30004KT P6SM BKN250 FM081500 32008KT P6SM SKC
KROC,KROC 071735Z 0718/0818 35012G21KT 5SM FU BKN040 FM071900 30006KT 6SM FU SCT040 FM072100 06004KT P6SM SCT250 FM080500 00000KT 6SM HZ FU BKN050 FM081300 32004KT 4SM HZ FU BKN035
KROG,KROG 071721Z 0718/0818 VRB03KT P6SM SCT060 SCT120 FM080700 VRB03KT 5SM BR SCT250 FM081300 VRB03KT P6SM SCT250
KROW,KROW 071724Z 0718/0818 18009KT P6SM SKC FM072200 25011G19KT P6SM VCTS SCT090CB TEMPO 0722/0801 VRB20G35KT -TSRA BKN080CB FM080100 18009KT P6SM SCT250 FM080400 VRB05KT P6SM FEW120
KRSL,KRSL 071720Z 0718/0818 VRB05KT P6SM FEW100
KRST,KRST 071720Z 0718/0818 08008KT P6SM FEW050 SCT100 FM080600 14007KT P6SM SCT250
KRSW,KRSW 071739Z 0718/0818 24011G18KT P6SM VCSH SCT025 BKN250 TEMPO 0718/0722 5SM TSRA BKN050CB FM080100 VRB03KT P6SM BKN250 FM081300 24009KT P6SM BKN100 PROB30 0813/0818 5SM TSRA BKN040CB
KRUT,KRUT 071720Z 0718/0818 33008KT P6SM VCSH OVC026 TEMPO 0718/0720 SCT025 OVC035 FM080500 00000KT P6SM VCSH OVC015 FM081100 VRB03KT P6SM VCSH OVC008 FM081500 VRB03KT P6SM VCSH OVC025
KRVS,KRVS 071721Z 0718/0818 VRB04KT P6SM FEW050 SCT120 FM080200 VRB04KT P6SM SCT250
KRWF,KRWF 071720Z 0718/0818 11009KT P6SM BKN100 FM080900 13006KT P6SM BKN080 PROB30 0809/0815 5SM -SHRA OVC060
KRWI,KRWI 071739Z 0718/0818 VRB05KT P6SM SCT060 OVC100 FM072200 29008KT P6SM OVC060 FM080200 26002KT 4SM BR OVC050 FM080400 26003KT 6SM BR BKN100 FM081000 VRB03KT 3SM BR SCT100 SCT250 FM081500 31006KT P6SM SCT250
KRWL,KRWL 071736Z 0718/0818 VRB04KT P6SM SCT080 FM072000 08010KT P6SM VCTS BKN070CB BKN100 FM072100 13010KT 5SM -SHRA VCTS SCT040 OVC050CB TEMPO 0722/0724 VRB15G30KT 2SM +TSRA FM080200 VRB06KT P6SM VCSH OVC050 FM080800 24006KT P6SM SCT100
KRYY,KRYY 071741Z 0718/0818 29010G18KT P6SM SCT050 FM072300 30008KT P6SM SCT060 FM080200 VRB02KT P6SM FEW050 SCT150 FM081000 VRB03KT P6SM VCSH SCT050 SCT100 FM081500 30010KT P6SM VCSH SCT050 SCT100
KSAC,KSAC 071720Z 0718/0818 21011KT P6SM BKN050 FM072200 21010G20KT P6SM BKN100 FM080600 21009KT P6SM OVC250
KSAF,KSAF 071724Z 0718/0818 25007KT P6SM SCT250 FM071900 23011G17KT P6SM FEW100 SCT250 FM072100 24012G18KT P6SM VCSH SCT110 TEMPO 0721/0724 VRB15G25KT FM080300 04007KT P6SM SKC
KSAN,KSAN 071728Z 0718/0824 24005KT P6SM SCT025 OVC035 FM072000 26011KT P6SM SCT025 BKN035 FM080300 29005KT P6SM SCT025 BKN035 FM080600 VRB04KT P6SM OVC022 FM081500 VRB04KT P6SM SCT022 OVC030 FM081900 28011KT P6SM SCT022 BKN030
KSAT,KSAT 071720Z 0718/0824 VRB04KT P6SM VCTS SCT050CB SCT250 FM072300 VRB03KT P6SM FEW070 SCT250
KSAV,KSAV 071759Z 0718/0818 26010G16KT P6SM VCSH SCT060 FM072000 23010KT P6SM VCTS SCT035CB BKN120 FM080500 24006KT P6SM SCT080 BKN250 FM081300 27009KT P6SM SCT040 BKN250
KSAW,KSAW 071720Z 0718/0818 02014KT P6SM FEW240 FM080100 34004KT P6SM FEW250 FM081500 02009KT P6SM FEW250
KSBA,KSBA 071740Z 0718/0818 VRB03KT P6SM OVC040 FM072000 22008KT P6SM OVC050 FM080000 26012KT P6SM BKN050 FM080300 VRB03KT P6SM SCT200 FM081000 VRB03KT P6SM BKN050
KSBD,KSBD 071728Z 0718/0818 VRB04KT P6SM SCT025 BKN035 FM072100 25011G17KT P6SM SCT030 SCT040 FM080500 25006KT P6SM SCT020 BKN035 FM080900 25005KT P6SM BKN020
KSBM,KSBM 071720Z 0718/0818 04012KT P6SM SCT250 FM080200 02008KT P6SM FEW250
KSBN,KSBN 071732Z 0718/0818 04008G16KT P6SM SKC FM080100 01005KT P6SM FEW060 FM081200 36006KT 6SM HZ SKC FM081700 34010G18KT P6SM SKC
KSBP,KSBP 071740Z 0718/0818 16004KT P6SM BKN025 OVC040 FM072000 25008KT P6SM BKN040 FM080300 VRB03KT P6SM BKN040 FM081100 VRB03KT 6SM BR OVC015 FM081600 VRB03KT P6SM SKC
KSBY,KSBY 071742Z 0718/0818 29008KT 4SM HZ FU SCT035 FM072300 19005KT 4SM HZ FU SCT250 FM080900 11003KT 4SM HZ FU BKN100 FM081300 23005KT 6SM HZ SCT060
KSCK,KSCK 071720Z 0718/0818 32011KT P6SM BKN100
KSDF,KSDF 071720Z 0718/0824 34005KT P6SM VCSH OVC050 FM072000 32006KT 6SM HZ SCT060 FM080000 02004KT 6SM HZ FEW250
KSDL,KSDL 071720Z 0718/0818 18006KT P6SM FEW120 FEW250 FM072200 24007KT P6SM FEW250 FM080400 VRB03KT P6SM SCT250
KSDY,KSDY 071720Z 0718/0818 12010KT P6SM SKC FM080600 04010KT P6SM SCT050 FM081100 VRB06KT P6SM FEW050 FM081700 07010KT P6SM FEW090
KSEA,KSEA 071722Z 0718/0824 28006KT P6SM BKN250 FM080600 21006KT P6SM SCT250
KSEZ,KSEZ 071730Z 0718/0818 17010G18KT P6SM SKC FM080230 VRB05KT P6SM SKC FM080700 03008KT P6SM SKC FM081500 VRB05KT P6SM SKC
KSFB,KSFB 071741Z 0718/0818 23008KT P6SM VCTS SCT040CB BKN100 TEMPO 0718/0722 3SM TSRA BKN035CB FM072300 24006KT P6SM SCT050 SCT250 FM081300 25009KT P6SM SCT035 SCT150 FM081700 24009KT P6SM VCTS SCT060CB BKN250
KSFF,KSFF 071720Z 0718/0818 VRB02KT P6SM FEW150 BKN250 FM072200 VRB04KT P6SM SCT070 BKN250 FM080600 VRB02KT P6SM BKN100 BKN200 FM081200 07002KT P6SM BKN100 BKN200
KSFO,KSFO 071720Z 0718/0824 20007KT P6SM BKN025 FM072000 22015KT P6SM FEW040 FM080600 27005KT P6SM SCT024 FM081800 26012KT P6SM FEW025
KSGF,KSGF 071720Z 0718/0818 33008KT P6SM FEW220 FM080200 VRB05KT P6SM BKN100 PROB30 0807/0813 4SM TSRA BR BKN025CB FM081300 VRB05KT P6SM OVC080 PROB30 0813/0818 4SM TSRA BR BKN025CB
KSGJ,KSGJ 071730Z 0718/0818 24008KT P6SM VCTS BKN050CB BKN100 BKN200 TEMPO 0718/0719 VRB10G20KT 5SM SHRA BKN030 FM071900 15011KT P6SM VCTS BKN040CB BKN100 BKN200 TEMPO 0719/0723 VRB15G25KT 3SM TSRA BKN025CB FM080100 20008KT P6SM SCT050 BKN100 BKN200 FM080900 24006KT P6SM SCT008 SCT015 SCT200 FM081500 26010KT P6SM SCT030 SCT200
KSGR,KSGR 071720Z 0718/0818 28004KT P6SM SCT040 SCT250 FM072100 27005KT P6SM VCTS BKN050CB BKN250 FM080000 VRB04KT P6SM SCT100 BKN250 FM081000 VRB03KT 4SM BR SCT250 FM081400 28005KT P6SM FEW020 SCT250
KSGU,KSGU 071734Z 0718/0818 14006KT P6SM SKC FM071900 27012G22KT P6SM FEW150 BKN200 FM080300 VRB05KT P6SM FEW150
KSHR,KSHR 071733Z 0718/0818 27006KT P6SM SCT100 FM071900 19007KT P6SM VCTS SCT050CB BKN100 FM080300 21006KT P6SM SCT070
KSHV,KSHV 071720Z 0718/0818 VRB04KT P6SM SCT040 FM071900 VRB04KT P6SM VCTS SCT050CB SCT150 SCT250 FM080400 VRB03KT P6SM FEW060 SCT250 FM081500 VRB04KT P6SM SCT030
KSJC,KSJC 071720Z 0718/0818 22008KT P6SM FEW035 TEMPO 0718/0720 FEW014 BKN030 FM072200 30012KT P6SM SKC FM080600 30006KT P6SM FEW100
KSJS,KSJS 071724Z 0718/0818 29003KT P6SM VCTS BKN020CB BKN150 TEMPO 0718/0722 P6SM NSW SCT020 BKN150 FM080100 00000KT P6SM SCT050 FM080500 00000KT P6SM SKC
KSJT,KSJT 071751Z 0718/0818 10005KT P6SM SCT050 FM080200 12005KT P6SM OVC250 FM080500 VRB06KT P6SM VCTS BKN060CB FM080800 VRB05KT P6SM BKN250
KSKA,TAF KSKA 071100Z 0711/0817 VRB05KT 9999 BKN210 QNH2978INS WND 01006KT AFT 0717 BECMG 0808/0809 02007KT 9999 VCSH BKN120 QNH2982INS TX30/0723Z TN12/0711Z
KSKF,TAF KSKF 071000Z 0710/0816 VRB06KT 9999 SCT100 SCT250 QNH2987INS TEMPO 0711/0712 9999 -SHRA BECMG 0713/0714 VRB06KT 9999 SCT040 BKN110 BKN250 QNH2983INS BECMG 0719/0720 17007KT 9999 SCT050 BKN110 BKN250 QNH2977INS TEMPO 0719/0722 VRB18G27KT 4800 -TSRA BKN050CB BKN110 BKN250 BECMG 0723/0800 11006KT 9999 FEW050 SCT110 SCT250 QNH2977INS TX31/0722Z TN20/0711Z
KSLC,KSLC 071734Z 0718/0824 20005KT P6SM SCT100 BKN220 FM072000 11009KT P6SM VCSH SCT070 SCT100 FM072200 30015G25KT P6SM VCTS SCT070 BKN100CB FM072300 03008KT P6SM VCSH SCT070 BKN100 FM080100 13006KT P6SM FEW100 FM081500 24005KT P6SM SCT140
KSLE,KSLE 071728Z 0718/0818 20007KT P6SM SCT120 BKN250 FM072300 26010KT P6SM SCT120 FM080800 18004KT P6SM SCT035 BKN050 FM081500 20005KT P6SM SCT025 BKN035
KSLI,TAF KSLI 071300Z 0713/0819 VRB06KT 8000 BR SCT017 OVC033 QNH2995INS BECMG 0722/0723 23009KT 9999 NSW SCT025 BKN040 BKN055 QNH2994INS BECMG 0803/0804 26009KT 9999 BKN025 QNH2996INS BECMG 0805/0806 VRB06KT 9999 FEW018 SCT025 QNH2999INS BECMG 0806/0807 VRB06KT 9000 BR BKN018 OVC025 QNH2998INS TX19/0800Z TN15/0714Z
KSLK,KSLK 071720Z 0718/0818 32008KT 5SM HZ VCSH OVC017 FM072200 31006KT P6SM -SHRA OVC015 TEMPO 0722/0802 5SM -SHRA HZ OVC010 FM080200 33005KT P6SM -SHRA OVC010 FM080900 VRB03KT P6SM VCSH OVC009 FM081500 02005KT P6SM VCSH OVC015
KSLN,KSLN 071720Z 0718/0818 VRB05KT P6SM FEW230
KSME,KSME 071724Z 0718/0818 VRB04KT 3SM SHRA BR OVC010 TEMPO 0718/0722 1SM BR BKN005 OVC010 FM072300 00000KT P6SM SCT015 SCT060 FM080700 00000KT 1/2SM FG SCT002 FM081300 00000KT 2SM BR SCT005 FM081500 36006KT P6SM SKC
KSMF,KSMF 071720Z 0718/0818 16010KT P6SM BKN050 FM072200 19011G19KT P6SM BKN100 FM080800 16006KT P6SM OVC250
KSMN,KSMN 071721Z 0718/0818 VRB06KT P6SM SCT110 FM072000 33008KT P6SM -SHRA VCTS BKN070CB TEMPO 0722/0801 5SM -TSRA BKN040CB FM080300 VRB03KT P6SM VCSH BKN070
KSMO,KSMO 071740Z 0718/0818 VRB03KT P6SM OVC040 FM071900 24010KT P6SM OVC050 FM080000 24010KT P6SM BKN100 FM080400 VRB03KT P6SM SCT250 FM080600 VRB03KT P6SM SCT250 FM080800 VRB03KT P6SM BKN050
KSMX,KSMX 071740Z 0718/0818 VRB03KT P6SM OVC025 FM072000 30012KT P6SM BKN035 FM080300 VRB03KT P6SM BKN035 FM080800 VRB03KT 6SM BR OVC008 FM081700 VRB03KT P6SM SCT250
KSNA,KSNA 071728Z 0718/0818 20006KT P6SM SCT025 OVC040 FM072000 21011KT P6SM SCT025 BKN035 FM080300 23005KT P6SM BKN035 FM081100 VRB04KT P6SM OVC022
KSNS,KSNS 071720Z 0718/0818 35006KT P6SM OVC025 FM071900 33014KT P6SM SKC FM080600 33006KT P6SM BKN012 FM081700 30010KT P6SM SCT012
KSNY,KSNY 071736Z 0718/0818 17010KT P6SM FEW060 FM072000 14011G18KT P6SM SCT070 FM080100 13008KT P6SM FEW100 FM080900 22005KT P6SM SKC
KSOA,KSOA 071751Z 0718/0818 VRB05KT P6SM SCT050 FM080100 VRB04KT P6SM BKN250 FM080500 VRB04KT P6SM VCTS BKN060CB FM080800 VRB02KT P6SM BKN250
KSPI,KSPI 071723Z 0718/0818 03007KT P6SM BKN150 FM080300 04007KT P6SM SKC
KSPS,KSPS 071720Z 0718/0818 14005KT P6SM SCT100 BKN250 FM080900 21008KT P6SM BKN250
KSRB,KSRB 071728Z 0718/0818 VRB05KT 6SM HZ SCT040 FM071900 35011KT 6SM -RA OVC025 FM072300 01007KT P6SM OVC040 FM080300 36004KT 3SM BR OVC015
KSRQ,KSRQ 071739Z 0718/0818 24011KT P6SM VCSH SCT050 BKN250 FM072200 25010KT P6SM SCT050 BKN250 FM080100 23006KT P6SM BKN250
KSSC,TAF KSSC 071500Z 0715/0821 28009KT 9999 FEW035 SCT220 QNH2978INS BECMG 0722/0723 01009KT 9999 VCSH BKN060 BKN200 QNH2966INS BECMG 0800/0801 03010G22KT 8000 -SHRA VCTS SCT040 OVC060CB QNH2965INS BECMG 0809/0810 02009KT 9999 NSW OVC050 QNH2972INS BECMG 0812/0813 35007KT 9999 FEW060 QNH2978INS BECMG 0818/0819 01009KT 8000 -SHRA BKN065 QNH2973INS TX33/0720Z TN17/0810Z
KSSF,KSSF 071720Z 0718/0818 VRB04KT P6SM VCTS SCT040CB SCT250 FM072300 VRB03KT P6SM FEW070 SCT250
KSSI,KSSI 071730Z 0718/0818 22011G16KT P6SM SCT040 SCT100 BKN200 FM072000 19011KT P6SM VCSH SCT040 BKN080 BKN200 FM080000 21008KT P6SM SCT050 BKN100 BKN200 FM080900 25008KT P6SM SCT010 SCT020 SCT200 FM081500 25011KT P6SM SCT030 SCT200
KSTC,KSTC 071720Z 0718/0818 09008KT P6SM BKN100 FM080900 11005KT P6SM BKN120
KSTJ,KSTJ 071723Z 0718/0818 01005KT P6SM SCT100 BKN250 FM072000 04007KT P6SM VCTS BKN070CB BKN120 FM080000 06005KT P6SM SCT070 BKN250 FM080900 08005KT P6SM VCSH BKN100 FM081300 10008KT P6SM SCT100
KSTL,KSTL 071720Z 0718/0824 VRB05KT 6SM -SHRA FEW010 SCT080 BKN100 FM072000 03007KT P6SM SCT100
KSTS,KSTS 071720Z 0718/0818 19006KT P6SM OVC018 FM072000 22011KT P6SM FEW040 FM080400 VRB06KT P6SM BKN015 FM081700 20010KT P6SM SCT025
KSUA,KSUA 071720Z 0718/0818 12012G18KT P6SM VCSH SCT040 SCT140 FM071900 15009KT P6SM VCTS SCT035CB BKN100 TEMPO 0720/0723 3SM TSRA BKN035CB FM080200 21005KT P6SM SCT050 SCT250 FM081300 26008KT P6SM SCT035 SCT130 FM081700 27009KT P6SM VCTS SCT050CB SCT140 AMD NOT SKED
KSUN,KSUN 071730Z 0718/0824 VRB06KT P6SM VCSH FEW040 OVC090 FM072000 15008KT P6SM VCTS SCT030CB BKN080 TEMPO 0722/0802 VRB20G35KT 4SM TSRA BKN030CB OVC080 FM080200 03008KT P6SM VCTS SCT080CB SCT130 BKN150 FM080500 32006KT P6SM SCT080 BKN120 FM081300 32006KT P6SM VCSH SCT080 BKN120 FM082100 13008KT P6SM VCTS SCT060CB BKN140
KSUS,KSUS 071720Z 0718/0818 VRB04KT 6SM -SHRA BKN080 FM072000 03007KT P6SM SCT100
KSUU,TAF AMD KSUU 071420Z 0714/0817 23015G25KT 9999 FEW050 QNH2987INS BECMG 0804/0805 23015G25KT 9999 SCT020 OVC060 QNH2995INS TEMPO 0805/0812 BKN007 BECMG 0811/0812 23010G15KT 9999 SCT020 QNH2994INS TX20/0721Z TN15/0714Z
KSUX,KSUX 071734Z 0718/0818 09007KT P6SM SKC FM072100 07007KT P6SM SCT140 FM080400 11007KT P6SM FEW250 FM081400 14008KT P6SM FEW250
KSVN,TAF COR KSVN 071716Z 0717/0823 23012G18KT 9999 SCT030 SCT150 QNH2968INS BECMG 0721/0722 23012G18KT 9999 VCSH SCT035 BKN050 QNH2969INS TEMPO 0722/0724 6000 -TSRA BKN020CB BECMG 0723/0724 22010G15KT 9999 NSW SCT030 BKN050 OVC060 QNH2970INS BECMG 0806/0807 29012KT 8000 BR BKN030 QNH2972INS BECMG 0812/0813 29015G25KT 8000 -SHRA BKN010 OVC020 QNH2972INS TX29/0719Z TN22/0811Z
KSWF,KSWF 071737Z 0718/0824 29012G20KT 1 1/2SM FU HZ VV015 FM080000 36004KT 3SM FU HZ VV025 FM080300 VRB03KT 4SM FU HZ VV030 FM081500 32007KT 5SM FU HZ VV040 AMD NOT SKED
KSWO,KSWO 071720Z 0718/0818 18005KT P6SM SCT120 FM080600 VRB03KT P6SM BKN250
KSYM,KSYM 071724Z 0718/0818 32004KT P6SM SCT030 BKN150 FM080100 03005KT P6SM SKC
KSYR,KSYR 071737Z 0718/0818 31012G20KT 2SM FU SCT027 SCT050 TEMPO 0718/0722 1SM FU VV025 FM072200 34008KT 4SM FU SCT030 BKN050 FM080600 30005KT 6SM HZ BKN025 FM081700 33007G12KT P6SM BKN025
KSZL,TAF KSZL 071100Z 0711/0817 28008KT 9999 BKN090 QNH2986INS BECMG 0715/0716 32009KT 9999 BKN080 OVC110 QNH2984INS BECMG 0718/0719 36010KT 8000 -SHRA OVC050 QNH2977INS TEMPO 0719/0723 02010G20KT -TSRA OVC040CB BECMG 0803/0804 06008KT 9999 NSW OVC040 QNH2983INS BECMG 0813/0814 10010G15KT 9999 OVC035 QNH2987INS TX30/0721Z TN17/0810Z
KTBN,TAF KTBN 071300Z 0713/0819 VRB06KT 9999 SCT250 QNH2989INS BECMG 0719/0720 VRB10G15KT 4800 -TSRA SCT060CB BKN100 OVC150 QNH2983INS BECMG 0801/0802 VRB06KT 8000 -SHRA FEW035 SCT050 OVC080 QNH2982INS BECMG 0808/0809 VRB06KT 4800 BR FEW020 SCT028 OVC045 QNH2983INS BECMG 0811/0814 VRB06KT 1600 BR SCT005 BKN015 OVC021 QNH2986INS BECMG 0814/0815 VRB06KT 9999 BKN021 OVC029 QNH2988INS TX29/0717Z TN15/0713Z LAST NO AMNDS AFT 07/1930Z NEXT 08/13Z
KTCC,KTCC 071724Z 0718/0818 21010KT P6SM BKN250 FM072000 21012G20KT P6SM FEW100 BKN250 FM072300 23012G18KT P6SM VCSH SCT090 SCT250 TEMPO 0723/0802 VRB20G30KT -TSRA BKN080CB FM080300 02010KT P6SM SCT120 SCT250 FM080600 VRB05KT P6SM FEW010 SCT250
KTCL,KTCL 071720Z 0718/0818 30006KT P6SM SCT035 FM080300 29003KT P6SM FEW035 FM081700 33006KT P6SM SHRA BKN035 PROB30 0817/0818 4SM TSRA BR OVC025CB
KTCM,TAF KTCM 071300Z 0713/0819 VRB05KT 9999 SKC QNH2980INS BECMG 0802/0803 25006KT 9999 SKC QNH2983INS TX30/0800Z TN09/0713Z
KTCS,KTCS 071747Z 0718/0818 18009KT P6SM FEW100 FM072000 19010G20KT P6SM FEW100 FM080200 30009KT P6SM SKC
KTEB,KTEB 071737Z 0718/0824 30010G20KT 1 1/2SM FU HZ VV005 FM080000 31009KT 3SM FU HZ VV025 FM080300 35005KT 3SM FU HZ VV040 FM081600 28005KT 5SM FU HZ VV040 FM082100 20008KT 5SM FU HZ VV040
KTEX,KTEX 071725Z 0718/0818 00000KT P6SM VCSH FEW100 SCT150 FM071930 23008KT P6SM VCTS BKN070CB TEMPO 0720/0724 VRB20G30KT 5SM -TSRA BR BKN050CB BKN080 FM080000 09008KT P6SM VCTS SCT070CB BKN150 FM080300 12003KT P6SM SCT250
KTIK,TAF KTIK 071700Z 0717/0823 VRB06KT 9999 SCT095 BKN140 QNH2985INS BECMG 0723/0800 VRB06KT 9999 BKN060 BKN130 QNH2982INS BECMG 0803/0804 VRB06KT 9999 SCT100 QNH2983INS TX31/0720Z TN19/0812Z
KTIX,KTIX 071720Z 0718/0818 18008KT P6SM VCTS SCT035CB BKN100 TEMPO 0720/0723 3SM TSRA BKN035CB FM080200 23005KT P6SM SCT050 SCT250 FM081300 26008KT P6SM SCT040 SCT120 FM081700 25008KT P6SM VCTS SCT060CB BKN250
KTLH,KTLH 071727Z 0718/0818 26008KT 6SM -TSRA SCT040CB BKN100 FM072000 22003KT P6SM SCT040 FM080900 25003KT 6SM BR SCT008 FM081300 26007KT P6SM SCT040
KTMB,KTMB 071720Z 0718/0818 20010KT P6SM VCTS SCT030CB BKN050 FM080000 21005KT P6SM SCT025 FM081500 24010KT P6SM VCTS SCT030CB BKN050
KTOI,KTOI 071720Z 0718/0818 28006KT P6SM VCSH SCT035 FM080300 22004KT P6SM SCT035 FM081700 29007KT P6SM SCT035
KTOL,KTOL 071740Z 0718/0818 36009KT 6SM HZ SCT070 FM080200 05006KT 5SM HZ SCT250 FM081400 34007KT 5SM HZ FU BKN250
KTOP,KTOP 071724Z 0718/0818 VRB03KT P6SM SCT060 FM080100 08005KT P6SM BKN100
KTPA,KTPA 071739Z 0718/0824 23011KT P6SM VCSH BKN035 BKN250 FM072300 24010KT P6SM SCT050 FM080100 23006KT P6SM BKN250
KTPH,KTPH 071720Z 0718/0818 17007KT P6SM BKN200 TEMPO 0720/0724 17015G25KT P6SM TS SCT060CB BKN200 FM080300 16011KT P6SM FEW200 FM081200 01007KT P6SM FEW100 SCT200
KTRI,KTRI 071741Z 0718/0818 21008KT 5SM SHRA BR SCT010 OVC090 TEMPO 0718/0722 3SM -RA BR BKN009 FM080300 VRB03KT 6SM BR BKN030 FM080600 00000KT 1SM BR BKN020 TEMPO 0808/0812 1/2SM FG OVC005 FM081400 32004KT P6SM SCT250
KTRK,KTRK 071720Z 0718/0818 00000KT P6SM FEW050 SCT200 FM071900 VRB06KT P6SM VCSH SCT080 SCT140 TEMPO 0721/0801 VRB15G25KT -TSRA SCT080CB SCT140 FM080100 28008KT P6SM VCTS SCT080CB BKN150 FM080600 00000KT P6SM FEW060 BKN150
KTRM,KTRM 071728Z 0718/0818 32011KT P6SM SCT120 SCT200 FM080000 33012G22KT P6SM SCT120 FM080400 33014G25KT P6SM FEW120 FM081200 32011KT P6SM SKC
KTTD,KTTD 071728Z 0718/0818 19006KT P6SM SCT120 BKN250 FM072100 24005KT P6SM SCT120 FM080800 VRB03KT P6SM SCT035 BKN120
KTTN,KTTN 071730Z 0718/0818 30011KT 2SM HZ FU SCT080 FM080000 33005KT 2SM HZ FU SCT080 FM080300 33005KT 3SM HZ SCT080 FM081400 30006KT 5SM HZ SCT080
KTUL,KTUL 071721Z 0718/0818 VRB04KT P6SM FEW050 SCT120 FM080200 VRB04KT P6SM SCT250
KTUP,KTUP 071720Z 0718/0818 29006KT P6SM FEW250 FM080200 VRB03KT P6SM FEW250 FM081600 01007KT P6SM SCT250
KTUS,KTUS 071720Z 0718/0818 21008KT P6SM SKC FM072100 25011G18KT P6SM SKC FM080200 28009KT P6SM SCT250 FM080800 14007KT P6SM BKN250
KTVC,KTVC 071735Z 0718/0818 01010G17KT P6SM BKN250 FM080100 33004KT P6SM SCT250 FM081600 36010G18KT P6SM FEW250
KTVF,KTVF 071737Z 0718/0818 11011KT P6SM -RA VCTS BKN100CB TEMPO 0718/0720 5SM -TSRA BKN040CB FM072000 14010KT P6SM FEW060 BKN150
KTVL,KTVL 071720Z 0718/0818 VRB04KT P6SM SCT060 BKN200 FM071900 04006KT P6SM VCSH SCT080 SCT140 FM080000 17011KT P6SM SCT080 BKN150 PROB30 0804/0807 P6SM -TSRA SCT080CB SCT140 FM080700 19003KT P6SM FEW060 SCT150
KTWF,KTWF 071745Z 0718/0818 VRB06KT P6SM VCSH SCT120 FM071900 VRB10G20KT P6SM -SHRA VCTS BKN100CB TEMPO 0720/0724 VRB25G35KT 5SM -TSRA SCT060 BKN100CB FM080400 20008KT P6SM BKN150 FM081600 31006KT P6SM BKN120
KTXK,KTXK 071720Z 0718/0818 VRB04KT P6SM SCT040 FM072100 VRB04KT P6SM VCTS SCT050CB SCT150 SCT250 FM080400 VRB03KT P6SM FEW060 SCT250 FM081500 VRB04KT P6SM SCT030
KTYR,KTYR 071720Z 0718/0818 VRB04KT P6SM VCTS SCT040CB SCT250 TEMPO 0718/0722 VRB15G30KT 3SM TSRA BR BKN030CB FM080400 VRB03KT P6SM FEW060 SCT250 TEMPO 0810/0813 5SM BR FM081500 VRB04KT P6SM SCT030
KTYS,KTYS 071741Z 0718/0818 VRB06KT P6SM VCSH BKN080 OVC120 TEMPO 0719/0723 5SM -SHRA BR OVC025 FM080300 VRB04KT P6SM BKN025 TEMPO 0809/0812 3SM BR BKN010 FM081400 03005KT P6SM FEW250
KUAO,KUAO 071728Z 0718/0818 21007KT P6SM SCT250 FM080800 20003KT P6SM SCT035 BKN120
KUES,KUES 071720Z 0718/0818 04011KT P6SM SCT250 FM080800 02006KT P6SM FEW250
KUIN,KUIN 071720Z 0718/0818 06007KT P6SM BKN080 FM080600 08008KT P6SM FEW250
KUKI,KUKI 071735Z 0718/0818 15007KT P6SM FEW020 FM072100 15008KT P6SM BKN035 FM080800 16005KT P6SM FEW020 OVC060 FM081200 13004KT P6SM OVC050
KUNV,KUNV 071755Z 0718/0818 33010G19KT 3SM FU SCT070 FM072100 34008G15KT 5SM FU SCT070 FM072300 34007KT 3SM FU BKN040
KUTS,KUTS 071720Z 0718/0818 VRB04KT P6SM SCT045 SCT250 FM072000 27005KT P6SM VCTS SCT050CB SCT250 FM080000 VRB03KT P6SM BKN250
KVAD,TAF KVAD 071600Z 0716/0822 24006KT 9999 SCT050 QNH2976INS BECMG 0717/0718 24010G15KT 9999 BKN050 QNH2974INS TEMPO 0718/0722 9000 -SHRA BECMG 0722/0723 24006KT 9999 SCT020 QNH2973INS BECMG 0807/0808 24006KT 9999 BKN010 QNH2978INS BECMG 0811/0812 24006KT 9999 SCT030 QNH2981INS BECMG 0815/0816 30010G15KT 9999 SCT030 QNH2986INS TX31/0720Z TN19/0810Z
KVBG,TAF KVBG 071400Z 0714/0820 VRB06KT 9999 FEW006 OVC023 QNH2996INS BECMG 0719/0720 21009KT 9999 SCT025 BKN035 QNH2998INS BECMG 0803/0804 VRB06KT 9999 OVC018 QNH2999INS BECMG 0807/0808 VRB06KT 4800 BR BKN010 OVC015 QNH2998INS BECMG 0810/0811 VRB06KT 3200 BR OVC008 QNH2998INS BECMG 0814/0815 27006KT 4800 BR OVC008 QNH2999INS BECMG 0815/0817 21009KT 9999 NSW SCT008 OVC012 QNH3000INS BECMG 0819/0820 29008KT 9999 SCT012 BKN020 QNH3001INS TX17/0721Z TN11/0813Z
KVCT,KVCT 071723Z 0718/0818 VRB03KT P6SM SCT026 FM072100 12006KT P6SM SCT050 SCT250 FM080800 VRB03KT P6SM BKN250 TEMPO 0810/0813 5SM BR
KVEL,KVEL 071725Z 0718/0818 23005KT P6SM VCSH SCT080 OVC100 FM072000 23011KT P6SM VCTS FEW080CB BKN130 TEMPO 0720/0724 VRB20G33KT -TSRA BKN060CB BKN100 FM080100 20013G21KT P6SM VCTS SCT070CB BKN130 FM080300 03009KT P6SM BKN200 FM080800 29004KT P6SM SCT250
KVGT,KVGT 071737Z 0718/0818 14011G19KT P6SM VCSH BKN100 BKN200 FM072000 22013G20KT P6SM VCTS BKN100CB BKN200 FM080200 32008KT P6SM SCT100
KVIS,KVIS 071720Z 0718/0818 20004KT P6SM OVC019 FM072000 15006KT P6SM OVC030 FM072200 28004KT P6SM OVC060 FM081200 VRB03KT P6SM BKN050
KVLD,KVLD 071727Z 0718/0818 23005KT P6SM SCT040 FM071900 23005KT P6SM VCTS SCT040CB BKN090 FM072300 20003KT P6SM BKN060 FM080900 21003KT 6SM BR SCT008 FM081300 26008KT P6SM SCT040
KVNY,KVNY 071740Z 0718/0818 VRB03KT P6SM BKN025 OVC050 FM072000 16008KT P6SM OVC050 FM080000 16008KT P6SM BKN250 FM080400 VRB03KT P6SM SCT250 FM081000 VRB03KT P6SM BKN050
KVOK,TAF KVOK 071700Z 0717/0823 06012KT 9999 SKC QNH2991INS BECMG 0810/0811 VRB06KT 9999 SKC QNH2992INS TX22/0721Z TN07/0810Z
KVPS,TAF KVPS 071700Z 0717/0823 23007KT 9999 VCTS FEW018 SCT030 BKN050CB QNH2984INS TEMPO 0718/0724 25010G15KT 6000 -TSRA BKN040CB BECMG 0802/0803 28009KT 9999 NSW SCT020 BKN100 QNH2977INS BECMG 0815/0816 23011KT 9999 FEW060 QNH2973INS TX31/0719Z TN22/0810Z
KVQQ,KVQQ 071730Z 0718/0818 24010KT P6SM SCT050 BKN100 BKN200 FM071900 24010KT P6SM VCTS BKN050CB BKN100 BKN200 TEMPO 0720/0723 VRB15G25KT 4SM TSRA BKN030CB FM080000 21004KT P6SM SCT050 BKN100 BKN200 FM080800 24004KT 4SM BR SCT008 SCT015 SCT200 FM081400 26010KT P6SM SCT035 SCT200
KVRB,KVRB 071720Z 0718/0818 17009KT P6SM VCSH SCT045 SCT140 FM071900 15009KT P6SM VCTS SCT035CB BKN100 TEMPO 0720/0723 3SM TSRA BKN035CB FM080200 22005KT P6SM SCT050 SCT250 FM081300 24009KT P6SM SCT035 SCT130 FM081700 25011KT P6SM VCTS SCT050CB SCT150
KVTN,KVTN 071720Z 0718/0818 15006KT P6SM SCT070 FM080900 24004KT P6SM FEW200
KWJF,KWJF 071740Z 0718/0818 24015KT P6SM OVC050 FM071900 25015G22KT P6SM OVC100 FM080500 25010KT P6SM SCT250
KWMC,KWMC 071720Z 0718/0818 VRB06KT P6SM FEW120 FM072100 32010KT P6SM VCTS SCT060CB BKN250 FM080300 VRB06KT P6SM FEW110
KWRB,TAF KWRB 071600Z 0716/0822 28010G15KT 9999 FEW045 FEW250 QNH2969INS TEMPO 0720/0724 26015G20KT 9000 -SHRA VCTS BKN035CB BECMG 0723/0724 25009KT 9999 SCT040 BKN100 BKN250 QNH2970INS BECMG 0817/0818 30012G18KT 9999 VCSH BKN045 BKN100 BKN250 QNH2970INS TEMPO 0820/0822 30015G20KT 6000 -TSRA BKN035CB TX33/0720Z TN19/0810Z
KWRI,TAF KWRI 071000Z 0710/0816 32008KT 6000 HZ OVC060 QNH2962INS BECMG 0715/0716 29010G15KT 9000 HZ BKN080 QNH2953INS BECMG 0723/0724 VRB04KT 6000 HZ BKN080 QNH2959INS BECMG 0813/0814 01005KT 9000 HZ SCT050 BKN080 QNH2967INS TX26/0719Z TN12/0710Z
KWRL,KWRL 071725Z 0718/0818 VRB05KT P6SM SCT090 BKN200 FM080400 VRB05KT P6SM VCSH SCT060 BKN100 FM081100 VRB03KT P6SM SCT100 BKN150
KWWR,KWWR 071720Z 0718/0818 18008KT P6SM SCT120 BKN250 FM072000 18008KT P6SM VCTS SCT060CB BKN250 FM080300 VRB05KT P6SM BKN250
KWYS,KWYS 071802Z 0718/0818 VRB03KT P6SM FEW070 SCT110 FM072000 09009KT P6SM SCT070 BKN100 TEMPO 0720/0721 VRB25G40KT 4SM TSRA SCT030CB OVC060 FM072100 09009KT P6SM SCT070 BKN100 TEMPO 0800/0802 VRB25G40KT 4SM TSRA SCT030CB OVC060 FM080700 00000KT P6SM FEW080
KXNA,KXNA 071721Z 0718/0818 VRB03KT P6SM SCT060 SCT120 FM080700 VRB03KT 5SM BR SCT250 FM081300 VRB03KT P6SM SCT250
KXWA,KXWA 071724Z 0718/0818 13007KT P6SM FEW080 FM081300 04010KT P6SM SCT070
KYIP,KYIP 071720Z 0718/0818 35010G17KT P6SM SKC FM080200 34004KT P6SM SKC FM081000 34007KT 5SM HZ SCT060 FM081600 35010G17KT P6SM BKN070
KYKM,KYKM 071720Z 0718/0818 VRB05KT P6SM FEW250 FM080400 29006KT P6SM BKN200 FM081200 29005KT P6SM BKN250
KYNG,KYNG 071740Z 0718/0818 34010G20KT P6SM FEW250 FM080100 33007KT 6SM HZ SCT250 FM081200 33006KT 5SM HZ SCT070 FM081600 33008KT 3SM HZ FU BKN070
KZZV,KZZV 071740Z 0718/0818 32003KT P6SM SKC FM081100 32004KT P6SM SKC
LAKU,TAF LAKU 071700Z 0718/0818 VRB03KT 9999 SCT080 TX25/0812Z TN15/0804Z PROB30 TEMPO 0722/0803 2500 BCFG NSC TEMPO 0811/0818 07015KT -TSRA SCT020CB BKN040
LATI,TAF LATI 071700Z 0718/0818 VRB03KT CAVOK TX29/0812Z TN18/0804Z TEMPO 0810/0816 33013KT FEW040TCU
LBBG,TAF LBBG 071700Z 0718/0818 09010KT 9999 SCT030 BECMG 0718/0720 VRB04KT TEMPO 0723/0805 4000 BR BKN010 BECMG 0805/0807 09012KT
LBGO,TAF LBGO 071700Z 0718/0818 05010KT 9999 SCT060 BECMG 0719/0721 VRB04KT
LBPD,TAF LBPD 071700Z 0718/0818 09010KT 9999 SCT060 BECMG 0720/0722 VRB04KT
LBSF,TAF LBSF 071700Z 0718/0818 09008KT 9999 SCT040 BKN080 TEMPO 0811/0817 5000 TSRA FEW030CB BKN050
LBWN,TAF LBWN 071700Z 0718/0818 10010KT 9999 SCT030 BECMG 0718/0720 VRB04KT TEMPO 0723/0805 4000 BR BKN012 BECMG 0806/0808 10012KT
LCEN,TAF LCEN 071640Z 0718/0818 28012KT 9999 FEW025
LCLK,TAF LCLK 071730Z 0718/0818 20010KT CAVOK BECMG 0718/0720 VRB02KT PROB30 TEMPO 0800/0806 1200VCFG BKN002 BECMG 0808/0810 17010KT BECMG 0816/0818 26004KT
LCPH,TAF LCPH 071730Z 0718/0818 35006KT 9999 FEW015 PROB30 TEMPO 0718/0720 BKN010 BECMG 0810/0812 27010KT BECMG 0816/0818 35006KT
LCRA,TAF LCRA 071636Z 0718/0812 26014KT 9999 FEW005 TEMPO 0718/0721 7000 HZ SCT005 BECMG 0800/0803 03005KT PROB40 0807/0812 21004KT PROB30 TEMPO 0807/0812 7000 -TSRA FEW100CB
LDDU,TAF LDDU 071725Z 0718/0818 06005KT CAVOK TX25/0812Z TN19/0803Z BECMG 0808/0810 26008KT PROB30 TEMPO 0809/0815 04010KT -TSRA FEW030CB
LDOS,TAF LDOS 071725Z 0718/0818 10005KT 9999 SCT035 TX26/0813Z TN15/0803Z PROB40 0802/0806 1000 BCFG BKN005 PROB40 TEMPO 0812/0818 30015KT 4000 TSRA SCT025CB BKN035
LDPL,TAF LDPL 071725Z 0718/0818 32006KT 9999 FEW035 TX25/0812Z TN14/0803Z BECMG 0808/0810 27010KT PROB30 TEMPO 0811/0815 -TSRA FEW030CB BKN035 BECMG 0816/0818 30005KT
LDRI,TAF LDRI 071725Z 0718/0818 VRB02KT 9999 FEW040 TX25/0812Z TN16/0803Z PROB30 TEMPO 0811/0815 32008KT -TSRA FEW040CB
LDSB,TAF LDSB 071125Z 0712/0812 22008KT CAVOK TX24/0712Z TN14/0803Z BECMG 0717/0719 33005KT BECMG 0808/0810 22008KT
LDSP,TAF LDSP 071725Z 0718/0818 32006KT CAVOK TX27/0813Z TN17/0803Z BECMG 0808/0810 23010KT PROB30 TEMPO 0811/0814 FEW035CB BECMG 0816/0818 34005KT
LDZA,TAF LDZA 071725Z 0718/0818 VRB02KT 9999 SCT040 TX25/0813Z TN15/0803Z PROB30 TEMPO 0803/0806 2000 BCFG BKN003 PROB40 TEMPO 0811/0818 32015KT 3000 TSRA SCT030CB BKN040
LDZD,TAF LDZD 071725Z 0718/0818 VRB02KT CAVOK TX27/0813Z TN14/0803Z PROB30 TEMPO 0802/0805 1200 BCFG BECMG 0809/0811 28008KT
LEAB,TAF LEAB 071700Z 0718/0818 15008KT 9999 SCT040 TX24/0815Z TN15/0806Z TEMPO 0718/0720 3000 RA BKN014 PROB40 TEMPO 0809/0818 3000 RA SHRA BKN014 SCT040TCU PROB30 TEMPO 0814/0818 VRB15G25KT 3000 TSRA SCT030CB
LEAG,TAF LEAG 071400Z 0715/0815 08008KT 9999 SCT020 TX21/0814Z TN19/0805Z PROB40 TEMPO 0720/0815 BKN010 PROB30 TEMPO 0806/0815 4000 SHRA FEW040CB
LEAL,TAF LEAL 071700Z 0718/0818 07009KT 9999 BKN050 TX26/0812Z TN17/0805Z PROB30 TEMPO 0718/0720 SHRA FEW045TCU BECMG 0718/0720 31006KT BECMG 0806/0809 09010KT
LEAM,TAF LEAM 071700Z 0718/0818 22010KT 9999 FEW040 TX27/0814Z TN22/0806Z PROB30 TEMPO 0718/0722 RA BECMG 0721/0724 33010KT
LEAO,TAF LEAO 071400Z 0715/0815 VRB05KT 9999 SCT030 TX23/0815Z TN16/0805Z TEMPO 0715/0718 4000 RA BKN013 PROB30 TEMPO 0715/0720 20010KT PROB30 TEMPO 0718/0809 3000 RA BR BKN012 PROB40 TEMPO 0809/0815 3000 RA SHRA BKN012 SCT040TCU PROB30 TEMPO 0808/0815 19010KT
LEAS,TAF AMD LEAS 071724Z 0717/0815 28009KT 9999 FEW030 SCT060 TX23/0813Z TN17/0803Z PROB30 TEMPO 0717/0719 3000 SHRA SCT030TCU TEMPO 0717/0809 3000 BR BKN002 BKN005 TEMPO 0809/0815 06010KT PROB40 TEMPO 0803/0815 3000 SHRA SCT030TCU PROB30 TEMPO 0806/0815 1500 TSRA BKN010 SCT030CB
LEBA,TAF LEBA 071400Z 0715/0815 20008KT CAVOK TX27/0715Z TN17/0805Z PROB30 TEMPO 0806/0815 4000 SHRA FEW030TCU
LEBB,TAF LEBB 071700Z 0718/0818 10009KT 9999 FEW040 TX28/0812Z TN20/0806Z TEMPO 0718/0818 18012KT PROB40 TEMPO 0812/0818 3000 SHRA SCT030TCU PROB30 TEMPO 0812/0818 19015G25KT 1500 TSRA SCT030CB
LEBG,TAF LEBG 071400Z 0715/0815 17010KT 9999 SCT040 TX22/0715Z TN14/0806Z BECMG 0720/0722 VRB05KT TEMPO 0808/0815 20012KT PROB30 TEMPO 0715/0809 3000 RA BKN014 PROB40 TEMPO 0809/0815 3000 RA SHRA BKN014 SCT040TCU
LEBL,TAF LEBL 071700Z 0718/0818 18010KT 9999 FEW020 TX25/0812Z TN20/0806Z BECMG 0718/0720 VRB04KT BECMG 0806/0808 20010KT
LEBR,TAF COR LEBR 071515Z 0715/0815 12009KT 9999 FEW040 TX29/0815Z TN18/0805Z TEMPO 0715/0812 12020KT PROB40 TEMPO 0812/0815 22010KT
LEBZ,TAF LEBZ 071400Z 0715/0815 20012KT 9999 FEW040 TX28/0715Z TN17/0803Z BECMG 0802/0804 12005KT PROB30 TEMPO 0801/0815 4000 SHRA FEW025CB
LECO,TAF COR LECO 071449Z 0715/0815 19008KT 9999 FEW025 SCT040 TX25/0812Z TN15/0806Z TEMPO 0715/0815 3000 RA PROB40 TEMPO 0715/0815 3000 SHRA SCT030TCU PROB30 TEMPO 0721/0807 3000 BR BKN010 PROB30 TEMPO 0723/0812 1500 TSRA BKN010 SCT030CB PROB40 TEMPO 0812/0815 VRB15G30KT 1500 TSRA BKN010 SCT030CB
LECV,TAF LECV 071700Z 0718/0818 VRB05KT 9999 BKN010 TX21/0815Z TN13/0806Z PROB40 TEMPO 0718/0809 2000 RA BR BKN003 PROB30 TEMPO 0718/0808 0600 FG VV002 PROB40 TEMPO 0809/0818 3000 RA SHRA BKN008 FEW030TCU PROB30 TEMPO 0808/0816 20010KT
LEEC,TAF LEEC 070800Z 0709/0809 VRB03KT 9999 FEW035 TX29/0715Z TN19/0805Z BECMG 0714/0716 23010KT BECMG 0722/0724 VRB03KT
LEGA,TAF LEGA 071100Z 0712/0812 VRB03KT 9999 SCT060 TX27/0715Z TN16/0806Z PROB40 TEMPO 0712/0718 SHRA BKN060TCU TEMPO 0720/0723 17010KT
LEGE,TAF LEGE 071700Z 0718/0818 19012KT 9999 FEW030 TX28/0813Z TN16/0805Z PROB30 TEMPO 0800/0806 0500 BCFG VV002 BECMG 0806/0808 18010KT
LEGR,TAF LEGR 071700Z 0718/0818 VRB03KT 9999 SCT060 TX26/0815Z TN16/0806Z TEMPO 0720/0808 4000 BR BECMG 0811/0813 20013KT
LEGT,TAF LEGT 071700Z 0718/0818 VRB05KT 9999 SCT040 TX24/0815Z TN16/0806Z PROB30 TEMPO 0718/0809 4000 RA BR BKN010 PROB40 TEMPO 0809/0818 3000 RA SHRA BKN012 FEW040TCU PROB30 TEMPO 0808/0816 20010KT
LEHC,TAF LEHC 071400Z 0715/0815 10009KT 9999 FEW040 TX28/0814Z TN16/0805Z PROB30 TEMPO 0715/0718 SHRA FEW050TCU BECMG 0715/0718 VRB03KT PROB30 TEMPO 0722/0806 3000 BR TEMPO 0808/0815 12010KT
LEIB,TAF LEIB 071400Z 0715/0815 11009KT 9999 FEW040 TX26/0812Z TN16/0805Z BECMG 0718/0720 VRB03KT PROB30 TEMPO 0800/0806 3000 BR BKN010 BECMG 0806/0808 10010KT
LEJR,TAF LEJR 071400Z 0715/0815 15012KT 9999 FEW040 TX28/0715Z TN18/0805Z PROB30 TEMPO 0805/0812 4000 SHRA FEW035TCU
LELC,TAF LELC 071700Z 0718/0818 02010KT 9999 SCT020 TX25/0813Z TN18/0806Z PROB30 TEMPO 0718/0721 RA BKN014 BECMG 0719/0721 31006KT BECMG 0807/0809 09010KT
LELL,TAF LELL 071400Z 0715/0815 19010KT 9999 FEW050 TX28/0813Z TN17/0805Z BECMG 0716/0719 VRB03KT BECMG 0807/0809 18010KT
LELN,TAF LELN 071400Z 0715/0815 VRB05KT 9999 SCT030 TX19/0815Z TN14/0806Z PROB40 TEMPO 0715/0717 18010KT BECMG 0808/0810 18010KT PROB40 TEMPO 0715/0815 3000 RA SHRA BKN012 SCT030TCU
LELO,TAF LELO 071400Z 0715/0815 09010KT 9999 FEW035 TX26/0715Z TN18/0805Z PROB40 TEMPO 0809/0815 3000 RA SHRA SCT040TCU
LEMD,TAF LEMD 071700Z 0718/0824 VRB05KT 9999 SCT040 TX26/0815Z TN14/0806Z PROB30 TEMPO 0718/0809 4000 RA BR BKN012 PROB40 TEMPO 0809/0824 3000 RA SHRA BKN014 FEW040TCU PROB30 TEMPO 0808/0816 20010KT
LEMG,TAF LEMG 071700Z 0718/0818 18006KT 9999 FEW060 TX22/0815Z TN19/0806Z BECMG 0801/0803 31004KT PROB30 TEMPO 0811/0818 SHRA FEW060CB BECMG 0807/0809 13006KT
LEMH,TAF LEMH 071400Z 0715/0815 11010KT 9999 BKN025 TX25/0812Z TN16/0805Z BECMG 0717/0720 VRB03KT PROB30 TEMPO 0800/0803 3000 BR BKN010 BECMG 0806/0808 10010KT
LEMO,TAF LEMO 071400Z 0715/0815 21012KT 9999 FEW030 TX27/0813Z TN17/0805Z BECMG 0722/0724 VRB03KT PROB30 TEMPO 0806/0813 4000 SHRA FEW035TCU
LEPA,TAF LEPA 071700Z 0718/0818 20010KT 9999 BKN020 TX28/0812Z TN17/0806Z BECMG 0718/0720 VRB04KT BECMG 0810/0812 22010KT
LEPP,TAF LEPP 071400Z 0715/0815 16009KT 9999 FEW040 SCT060 TX28/0815Z TN15/0805Z
LERI,TAF LERI 071700Z 0718/0818 VRB03KT 9999 FEW025 TX29/0813Z TN17/0806Z PROB30 TEMPO 0718/0720 RA BKN010 BECMG 0809/0811 13010KT
LERL,TAF LERL 071400Z 0715/0815 VRB05KT 9999 SCT030 TX23/0815Z TN16/0805Z TEMPO 0715/0718 4000 RA BKN013 PROB30 TEMPO 0715/0720 20010KT PROB30 TEMPO 0718/0809 3000 RA BR BKN012 PROB40 TEMPO 0809/0815 3000 RA SHRA BKN012 SCT040TCU PROB30 TEMPO 0808/0815 19010KT
LERS,TAF LERS 071400Z 0715/0815 19010KT 9999 FEW020 TX26/0813Z TN18/0805Z BECMG 0717/0720 VRB03KT TEMPO 0806/0815 BKN014 BECMG 0806/0809 18010KT
LERT,TAF LERT 071400Z 0715/0815 19014KT 9999 FEW040 TX25/0813Z TN20/0805Z BECMG 0720/0722 13012KT PROB30 TEMPO 0802/0812 4000 SHRA FEW035TCU
LESA,TAF LESA 071400Z 0715/0815 VRB05KT 9999 BKN040 TX21/0715Z TN15/0806Z PROB30 TEMPO 0715/0719 4000 RA BR BKN008 BKN014 PROB40 TEMPO 0806/0815 3000 RA SHRA BKN012 SCT040TCU
LESO,TAF LESO 071700Z 0718/0818 VRB05KT CAVOK TX29/0813Z TN20/0806Z PROB30 TEMPO 0718/0721 18010KT TEMPO 0806/0818 18010KT PROB30 TEMPO 0812/0815 05010KT PROB30 TEMPO 0815/0818 29010KT 3000 SHRA SCT030TCU
LEST,TAF LEST 071700Z 0718/0818 18009KT 9999 SCT020 BKN035 TX22/0812Z TN15/0806Z TEMPO 0718/0818 3000 SHRA BR BKN010 SCT030TCU PROB40 TEMPO 0721/0809 0800 BCFG BKN005 PROB30 TEMPO 0722/0812 1500 TSRA BKN010 SCT020CB PROB40 TEMPO 0812/0818 18015G29KT 1500 TSRA BKN005 BKN020CB
LESU,TAF LESU 070200Z 0703/0803 11009KT 9999 SCT040 TX26/0714Z TN16/0705Z
LETO,TAF LETO 071700Z 0718/0818 VRB05KT 9999 SCT040 TX26/0815Z TN14/0806Z PROB30 TEMPO 0718/0809 4000 RA BR BKN012 PROB40 TEMPO 0809/0818 3000 RA SHRA BKN014 FEW040TCU PROB30 TEMPO 0808/0816 20010KT
LEVC,TAF LEVC 071700Z 0718/0818 13008KT 9999 FEW030 TX26/0813Z TN17/0805Z BECMG 0718/0720 VRB03KT BECMG 0808/0810 12010KT PROB30 TEMPO 0815/0818 SHRA FEW035TCU BECMG 0816/0818 VRB03KT
LEVD,TAF LEVD 071400Z 0715/0815 VRB05KT 9999 SCT030 TX22/0715Z TN15/0806Z PROB40 TEMPO 0715/0721 3000 RA BKN010 SCT030TCU PROB30 TEMPO 0715/0723 16010KT BECMG 0809/0811 18012KT PROB40 TEMPO 0809/0815 3000 RA SHRA SCT040TCU
LEVS,TAF LEVS 071700Z 0718/0818 VRB05KT 9999 SCT040 TX24/0815Z TN15/0806Z PROB30 TEMPO 0718/0809 4000 RA BR BKN006 PROB40 TEMPO 0809/0818 3000 RA SHRA BKN012 FEW040TCU PROB30 TEMPO 0808/0816 20010KT
LEVT,TAF LEVT 071700Z 0718/0818 16009KT 9999 FEW030 SCT045 TX25/0812Z TN15/0806Z PROB40 TEMPO 0718/0721 22010KT PROB40 TEMPO 0812/0818 VRB12KT 3000 SHRA SCT030TCU PROB30 TEMPO 0813/0818 VRB15G30KT 1500 TSRA SCT030CB
LEVX,TAF LEVX 071700Z 0718/0818 20009KT 9999 FEW010 BKN020 TX23/0813Z TN15/0806Z TEMPO 0718/0818 3000 RA BR BKN010 PROB40 TEMPO 0718/0818 3000 SHRA BR BKN005 SCT030TCU TEMPO 0718/0812 0800 BCFG BKN002 PROB40 TEMPO 0718/0809 0350 RA FG VV001 PROB30 TEMPO 0721/0812 1500 TSRA BKN005 SCT025CB PROB40 TEMPO 0812/0818 19015G29KT 0800 TSRA BCFG BKN005 BKN020CB
LEXJ,TAF AMD LEXJ 071621Z 0716/0815 28008KT 9999 FEW030 SCT070 TX27/0812Z TN20/0803Z PROB40 TEMPO 0716/0719 04010KT 3000 TSRA SCT030CB PROB30 TEMPO 0716/0719 10010KT TEMPO 0718/0812 18010KT TEMPO 0803/0809 18015G25KT PROB30 TEMPO 0812/0815 03010KT 3000 SHRA SCT030TCU
LEZG,TAF LEZG 071700Z 0718/0818 17010KT 9999 SCT070 TX32/0815Z TN18/0805Z BECMG 0722/0724 VRB03KT BECMG 0806/0809 12010KT
LEZL,TAF LEZL 071400Z 0715/0815 22010KT 9999 FEW035 TX29/0715Z TN20/0805Z BECMG 0722/0724 VRB03KT PROB30 TEMPO 0808/0815 4000 SHRA FEW040TCU
LFAQ,TAF LFAQ 071400Z 0715/0724 05010KT CAVOK
LFAT,TAF LFAT 071400Z 0715/0724 05010KT CAVOK
LFBA,TAF LFBA 071400Z 0715/0724 11009KT CAVOK
LFBC,TAF LFBC 071400Z 0715/0815 10006KT CAVOK TEMPO 0804/0808 -SHRA SCT060TCU
LFBD,TAF LFBD 071700Z 0718/0824 12008KT CAVOK TX31/0814Z TN20/0806Z TEMPO 0718/0720 BKN060TCU TEMPO 0806/0814 -SHRA BKN060TCU PROB30 TEMPO 0818/0824 VRB15G25KT 3000 TSRA BKN050CB
LFBE,TAF LFBE 071100Z 0712/0812 10006KT CAVOK TEMPO 0712/0718 SCT060TCU TEMPO 0808/0812 -SHRA BKN050TCU
LFBG,TAF LFBG 071400Z 0715/0815 12007KT CAVOK
LFBH,TAF LFBH 071700Z 0718/0818 10008KT CAVOK PROB30 TEMPO 0814/0818 -SHRA BKN070CB
LFBI,TAF LFBI 071700Z 0718/0818 09007KT CAVOK PROB30 TEMPO 0814/0818 -SHRA BKN070CB
LFBL,TAF LFBL 071700Z 0718/0818 09008KT CAVOK PROB30 TEMPO 0718/0721 -TSRA BKN050CB TEMPO 0812/0818 -SHRA BKN060TCU
LFBM,TAF LFBM 071400Z 0715/0815 11005KT CAVOK PROB30 0715/0720 3000 TSRA SCT030CB TEMPO 0812/0815 3000 SHRA SCT030TCU
LFBO,TAF LFBO 071700Z 0718/0824 14010KT CAVOK PROB40 TEMPO 0801/0807 BKN020
LFBP,TAF LFBP 071700Z 0718/0818 VRB03KT 9999 SCT045 BKN100 TEMPO 0718/0720 SCT050TCU BECMG 0722/0724 CAVOK TEMPO 0812/0818 SCT045TCU
LFBT,TAF LFBT 071700Z 0718/0818 VRB04KT 9999 BKN100 TEMPO 0718/0720 SCT070TCU BECMG 0720/0722 CAVOK TEMPO 0812/0818 SCT040TCU
LFBU,TAF LFBU 071700Z 0718/0818 13008KT CAVOK TEMPO 0718/0720 SCT050CB TEMPO 0812/0818 SCT060TCU
LFBZ,TAF LFBZ 071700Z 0718/0818 14008KT CAVOK PROB30 TEMPO 0718/0720 SCT050CB TEMPO 0803/0806 -SHRA BKN070TCU PROB30 TEMPO 0816/0818 3000 TSRA BKN050CB
LFCK,TAF LFCK 071700Z 0718/0803 11015G25KT CAVOK BECMG 0718/0720 11012KT
LFCR,TAF LFCR 071700Z 0718/0818 14010KT CAVOK
LFGJ,TAF LFGJ 071400Z 0715/0724 01008KT CAVOK PROB40 TEMPO 0715/0722 FEW070CB PROB30 TEMPO 0718/0722 -SHRA
LFJL,TAF LFJL 071700Z 0718/0818 01008KT CAVOK PROB30 TEMPO 0718/0721 VRB15G25KT 4500 SHRA SCT060CB PROB30 TEMPO 0806/0809 FEW070TCU PROB40 TEMPO 0812/0818 FEW080CB PROB30 TEMPO 0814/0818 05010G20KT 4500 SHRA SCT070CB
LFKB,TAF LFKB 071400Z 0715/0815 10008KT 9999 FEW028 TX26/0811Z TN16/0804Z TEMPO 0715/0717 SCT028 FEW033CB BECMG 0717/0720 24004KT CAVOK TEMPO 0802/0808 BKN010 BECMG 0809/0811 12010KT PROB30 TEMPO 0812/0815 FEW033 FEW036CB
LFKC,TAF LFKC 071400Z 0715/0815 35008KT 9999 SCT030 TX26/0811Z TN16/0804Z TEMPO 0715/0720 BKN025 BECMG 0717/0719 18004KT BECMG 0808/0811 35008KT PROB30 TEMPO 0812/0815 FEW033 FEW036CB
LFKF,TAF LFKF 071400Z 0715/0815 24004KT 9999 FEW056 BECMG 0806/0808 07010KT PROB30 TEMPO 0812/0815 FEW033 FEW036CB
LFKJ,TAF LFKJ 071400Z 0715/0815 21008KT 9999 FEW033 TEMPO 0715/0720 BKN040 BECMG 0717/0719 05005KT BECMG 0808/0810 22010KT PROB30 TEMPO 0812/0815 FEW033 FEW036CB
LFKS,TAF LFKS 071400Z 0715/0815 14008KT 9999 -RA FEW035 SCT040 SCT045TCU FEW050CB BECMG 0717/0719 CAVOK
LFLB,TAF LFLB 071400Z 0715/0815 34004KT CAVOK PROB40 TEMPO 0715/0723 VRB10KT SHRA SCT070CB PROB30 TEMPO 0715/0718 VRB15G25KT 3000 TSRA BECMG 0718/0720 14005KT PROB30 TEMPO 0812/0815 VRB15KT TSRA SCT070CB
LFLC,TAF LFLC 071700Z 0718/0818 18006KT CAVOK PROB30 TEMPO 0718/0719 FEW070CB PROB30 TEMPO 0815/0818 VRB15G25KT 4000 TSRA SCT065CB
LFLL,TAF LFLL 071700Z 0718/0824 18008KT CAVOK PROB40 TEMPO 0805/0808 BKN012
LFLN,TAF LFLN 071700Z 0718/0803 10008KT CAVOK PROB40 TEMPO 0718/0721 FEW065CB PROB30 TEMPO 0718/0721 -SHRA
LFLP,TAF LFLP 071400Z 0715/0815 22004KT CAVOK PROB40 TEMPO 0715/0723 VRB10KT SHRA SCT070CB PROB30 TEMPO 0715/0718 VRB15G25KT 3000 TSRA PROB30 TEMPO 0812/0815 VRB15KT TSRA SCT070CB
LFLS,TAF LFLS 071400Z 0715/0815 23004KT CAVOK PROB30 TEMPO 0715/0717 VRB15KT 4000 TSRA SCT065CB PROB40 TEMPO 0802/0808 VRB02KT 4000 BR OVC010
LFLW,TAF LFLW 071400Z 0715/0724 14010KT CAVOK PROB30 TEMPO 0715/0719 VRB15KT 3000 TSRA BKN045CB
LFLX,TAF LFLX 071700Z 0718/0824 05008KT CAVOK PROB40 TEMPO 0813/0818 14015KT -SHRA SCT080TCU
LFLY,TAF LFLY 071700Z 0718/0818 18008KT CAVOK PROB40 TEMPO 0805/0808 BKN012
LFMD,TAF AMD LFMD 071551Z 0715/0815 16010KT CAVOK BECMG 0718/0720 VRB03KT PROB30 TEMPO 0803/0806 BKN012 BECMG 0807/0809 16010KT TEMPO 0811/0815 FEW040CB
LFMI,TAF LFMI 071400Z 0715/0815 19012KT CAVOK TX27/0812Z TN18/0803Z BECMG 0719/0721 05005KT BECMG 0808/0810 18010KT
LFMK,TAF LFMK 071400Z 0715/0815 09016G26KT CAVOK BECMG 0719/0721 09013KT BKN012 BECMG 0806/0808 SCT020 BECMG 0808/0810 09017G27KT BECMG 0811/0813 CAVOK
LFML,TAF LFML 071400Z 0715/0821 20012KT CAVOK TX27/0812Z TN17/0804Z BECMG 0718/0720 12005KT BECMG 0809/0811 19010KT BECMG 0818/0820 VRB04KT
LFMN,TAF LFMN 071400Z 0715/0821 18005KT 9999 FEW016 SCT140 TEMPO 0715/0717 FEW030CB BECMG 0800/0802 34010KT PROB30 TEMPO 0803/0807 BKN010 BECMG 0807/0809 12005KT
LFMO,TAF LFMO 071400Z 0715/0815 18012KT 9999 FEW050TCU SCT050 TX28/0815Z TN16/0804Z BECMG 0716/0718 CAVOK TEMPO 0801/0803 BKN010 BECMG 0803/0805 BKN012 BECMG 0806/0807 SCT018 TEMPO 0812/0815 FEW060TCU SCT060
LFMP,TAF AMD LFMP 071721Z 0717/0815 11012KT 9999 FEW033 SCT056 BKN220 TEMPO 0717/0718 18015G25KT BECMG 0718/0720 16006KT BECMG 0808/0810 13010KT BECMG 0810/0812 13018G30KT
LFMT,TAF LFMT 071400Z 0715/0815 16010KT 9999 SCT018 BECMG 0720/0722 12005KT BKN014 BKN220 TEMPO 0723/0806 OVC008 BECMG 0807/0810 12010KT FEW020 BKN250
LFMU,TAF LFMU 071400Z 0715/0815 13012KT 9999 BKN019 BKN250 BECMG 0720/0722 BKN014 BKN200 BECMG 0806/0808 FEW020 BECMG 0809/0812 12015G25KT
LFMV,TAF LFMV 071400Z 0715/0815 21010KT 9999 SCT050 TEMPO 0715/0717 FEW060TCU BECMG 0719/0721 VRB04KT BECMG 0809/0811 19010KT
LFMY,TAF LFMY 071400Z 0715/0815 19010G20KT 9999 SCT025 TX27/0812Z TN16/0804Z BECMG 0719/0721 VRB03KT BECMG 0810/0812 20010KT
LFOA,TAF LFOA 071400Z 0715/0815 07005KT CAVOK TX30/0815Z TN16/0804Z PROB30 TEMPO 0718/0722 07015G25KT PROB30 TEMPO 0814/0815 12015G25KT
LFOB,TAF LFOB 071700Z 0718/0818 06010KT CAVOK
LFOE,TAF LFOE 071400Z 0715/0815 07010KT CAVOK
LFOH,TAF LFOH 071100Z 0712/0812 06010KT 8000 NSC PROB30 0804/0808 3000 BR
LFOJ,TAF LFOJ 071400Z 0715/0815 05010KT CAVOK TX30/0814Z TN13/0805Z
LFOK,TAF LFOK 071700Z 0718/0818 04010KT CAVOK
LFOP,TAF LFOP 071400Z 0715/0724 05012KT CAVOK
LFOT,TAF LFOT 071700Z 0718/0818 05010KT CAVOK PROB30 TEMPO 0814/0818 12015KT -SHRA SCT080TCU
LFPB,TAF LFPB 071700Z 0718/0818 04010KT CAVOK
LFPG,TAF LFPG 071700Z 0718/0824 04010KT CAVOK TX29/0815Z TN15/0803Z
LFPN,TAF LFPN 071700Z 0718/0803 05010KT CAVOK
LFPO,TAF LFPO 071700Z 0718/0824 06008KT CAVOK
LFPV,TAF LFPV 071400Z 0715/0815 06010KT CAVOK TX29/0815Z TN17/0805Z PROB30 0715/0718 FEW070TCU
LFQQ,TAF LFQQ 071700Z 0718/0824 03010KT CAVOK
LFRB,TAF LFRB 071700Z 0718/0824 06010KT CAVOK BECMG 0808/0811 12010KT PROB40 TEMPO 0809/0814 SHRA BKN080TCU BECMG 0814/0816 VRB05KT TEMPO 0814/0824 4000 SHRA BKN040CB PROB40 TEMPO 0814/0824 VRB15G30KT 2000 TSRA
LFRC,TAF LFRC 071400Z 0715/0724 07014KT 7000 BKN006 TEMPO 0715/0724 07015G25KT BECMG 0715/0716 SCT012
LFRD,TAF LFRD 071700Z 0718/0818 05012KT CAVOK PROB30 TEMPO 0718/0720 05015G25KT TEMPO 0812/0818 05015G25KT PROB40 TEMPO 0812/0816 -SHRA SCT080TCU TEMPO 0816/0818 4000 SHRA BKN070CB PROB30 TEMPO 0816/0818 TSRA
LFRG,TAF LFRG 071400Z 0715/0724 04010KT 7000 NSC
LFRH,TAF LFRH 071700Z 0718/0818 10010KT CAVOK PROB40 TEMPO 0810/0812 SHRA SCT070TCU TEMPO 0811/0818 3000 BKN045CB PROB40 TEMPO 0811/0818 VRB15G25KT 2000 TSRA
LFRI,TAF LFRI 071700Z 0718/0818 09009KT CAVOK TEMPO 0812/0818 -SHRA BKN070CB
LFRJ,TAF LFRJ 071700Z 0718/0803 05010KT CAVOK
LFRK,TAF LFRK 071400Z 0715/0724 03010KT 7000 NSC
LFRL,TAF LFRL 071100Z 0712/0812 07010KT 8000 NSC TEMPO 0808/0812 10015G25KT 4000 SHRA SCT045TCU PROB40 TEMPO 0808/0812 2000 TSRA BKN040CB
LFRM,TAF LFRM 071700Z 0718/0818 08006KT CAVOK
LFRN,TAF LFRN 071700Z 0718/0818 08008KT CAVOK PROB40 TEMPO 0810/0814 -SHRA SCT080TCU TEMPO 0814/0818 4000 SHRA BKN070CB PROB40 TEMPO 0815/0818 VRB15G30KT TSRA
LFRQ,TAF LFRQ 071700Z 0718/0818 10008KT CAVOK BECMG 0718/0720 06010KT BECMG 0808/0811 13010KT PROB40 TEMPO 0808/0812 13015G25KT SHRA BKN080TCU TEMPO 0812/0818 4000 SHRA BKN040CB PROB40 TEMPO 0814/0818 VRB15G30KT 2000 TSRA
LFRS,TAF LFRS 071700Z 0718/0824 10008KT CAVOK PROB40 TEMPO 0812/0824 4000 -SHRA BKN070CB PROB30 TEMPO 0812/0815 VRB12G25KT TSRA
LFRZ,TAF LFRZ 071700Z 0718/0818 08010KT CAVOK TEMPO 0811/0818 -SHRA BKN070CB PROB30 TEMPO 0811/0815 TSRA
LFSB,TAF LFSB 071700Z 0718/0818 36008KT CAVOK PROB30 TEMPO 0718/0721 FEW070CB BECMG 0721/0723 VRB03KT TEMPO 0810/0818 FEW075CB PROB30 TEMPO 0815/0818 4500 SHRA SCT065CB
LFSL,TAF AMD LFSL 071610Z 0716/0724 13008KT CAVOK TEMPO 0716/0721 4000 SHRA BKN050TCU PROB30 TEMPO 0716/0720 TSRA BKN050CB
LFSO,TAF LFSO 071400Z 0715/0815 05010KT CAVOK TEMPO 0723/0807 VRB02KT BECMG 0807/0809 13005KT TEMPO 0811/0815 3000 SHRA SCT020 SCT060CB PROB40 TEMPO 0813/0815 1400 TSRA
LFST,TAF LFST 071700Z 0718/0818 03008KT CAVOK BECMG 0721/0724 32006KT TEMPO 0812/0818 FEW075CB BECMG 0812/0814 10008KT PROB40 TEMPO 0814/0818 VRB15G25KT 4000 SHRA SCT070CB
LFSX,TAF AMD LFSX 071545Z 0715/0815 02005KT CAVOK PROB40 TEMPO 0715/0801 4000 SHRA SCT060TCU PROB30 TEMPO 0715/0721 VRB15G25KT 2000 TSRA SCT040CB PROB30 TEMPO 0813/0815 4000 SHRA SCT050CB
LFTH,TAF LFTH 071400Z 0715/0815 22010KT CAVOK BECMG 0800/0802 VRB03KT FEW025 BECMG 0808/0811 21010KT CAVOK
LFTW,TAF LFTW 071400Z 0715/0815 20010KT 9999 SCT040 BECMG 0719/0721 12005KT PROB40 TEMPO 0800/0804 3000 BR BKN008 PROB40 TEMPO 0804/0808 BKN014 PROB40 TEMPO 0808/0811 SCT030TCU BECMG 0809/0811 18010KT
LFVP,TAF LFVP 071700Z 0718/0803 09005KT 0600 FG VV002 TEMPO 0718/0720 1000 -RA BR OVC003 TEMPO 0720/0724 1000 BR OVC003
LFYR,TAF LFYR 071400Z 0715/0815 07008KT CAVOK
LGAD,TAF LGAD 071700Z 0718/0803 30008KT 9999 FEW025 SCT080 BECMG 0718/0720 VRB03KT
LGAL,TAF LGAL 071700Z 0718/0803 04010KT 9999 FEW020
LGAV,TAF LGAV 071700Z 0718/0818 04010KT 9999 FEW030 BECMG 0719/0721 33010KT BECMG 0806/0808 02018KT BECMG 0816/0818 VRB05KT BECMG 0720/0722 FEW020 SCT070 PROB30 TEMPO 0800/0806 RA SCT018 BKN070
LGBL,TAF LGBL 071700Z 0718/0803 11012KT 9999 FEW025 TEMPO 0718/0721 FEW025 BKN080 BECMG 0718/0720 26008KT
LGEL,TAF LGEL 071700Z 0718/0818 VRB05KT 9999 FEW020 BECMG 0719/0721 35010KT FEW020 SCT070 BECMG 0811/0813 18010KT PROB30 TEMPO 0722/0806 RA SCT018 BKN070
LGHI,TAF LGHI 071700Z 0718/0803 VRB05KT 9999 FEW020
LGIO,TAF LGIO 071700Z 0718/0803 VRB03KT 9999 FEW025 SCT080 BECMG 0801/0803 FEW025
LGIR,TAF LGIR 071700Z 0718/0818 VRB05KT 9999 FEW020 SCT080 BECMG 0719/0721 18010KT BECMG 0806/0808 33010KT PROB30 TEMPO 0810/0816 5000 RA FEW018TCU SCT020 BKN080
LGKC,TAF LGKC 071700Z 0718/0803 05012KT 9999 FEW020 SCT030 BECMG 0719/0721 VRB05KT
LGKF,TAF LGKF 071700Z 0718/0803 VRB05KT 9999 FEW025 SCT080
LGKL,TAF LGKL 071700Z 0718/0803 15010KT 9999 FEW025 SCT090 BECMG 0718/0720 35008KT
LGKO,TAF LGKO 071700Z 0718/0818 33010KT 9999 SCT008 PROB30 0800/0806 5000 BR BKN006
LGKP,TAF LGKP 071700Z 0718/0803 33020KT 9999 FEW020
LGKR,TAF LGKR 071700Z 0718/0818 VRB05KT 9999 FEW020 BECMG 0812/0814 32010KT BECMG 0816/0818 VRB05KT
LGKV,TAF LGKV 071700Z 0718/0818 22012KT 9999 FEW025 BECMG 0718/0720 VRB03KT BECMG 0812/0814 22012KT
LGLM,TAF LGLM 071700Z 0718/0803 03016KT 9999 FEW015
LGLR,TAF LGLR 071700Z 0718/0803 10010KT 9999 FEW025 BECMG 0718/0720 VRB03KT FEW025 BKN090
LGMK,TAF LGMK 071700Z 0718/0803 01016KT 9999 FEW016
LGMT,TAF LGMT 071700Z 0718/0803 34010KT 9999 FEW020 BECMG 0721/0723 VRB03KT
LGPZ,TAF LGPZ 071700Z 0718/0818 27010KT 9999 FEW020 SCT080 BECMG 0718/0720 VRB05KT BECMG 0804/0806 06010KT BECMG 0807/0809 27012KT
LGRP,TAF LGRP 071700Z 0718/0818 25012KT 9999 FEW018 PROB30 TEMPO 0810/0816 5000 RA FEW018TCU BKN020
LGRX,TAF LGRX 071700Z 0718/0803 29010KT 9999 FEW025 SCT090 BECMG 0718/0720 VRB03KT
LGSA,TAF LGSA 071700Z 0718/0818 VRB05KT 9999 FEW020 BKN080 BECMG 0810/0812 03010KT BECMG 0815/0817 VRB05KT PROB30 TEMPO 0812/0816 RA FEW016TCU SCT018 BKN070
LGSK,TAF LGSK 071700Z 0718/0803 34010KT 9999 FEW020
LGSM,TAF LGSM 071700Z 0718/0803 VRB05KT 9999 FEW025
LGSR,TAF LGSR 071700Z 0718/0818 34010KT 9999 FEW025 PROB30 TEMPO 0721/0803 RA FEW018TCU BKN020
LGST,TAF LGST 071700Z 0718/0803 30012KT 9999 FEW020 SCT080
LGSY,TAF LGSY 071700Z 0718/0803 01016KT 9999 FEW020
LGTG,TAF LGTG 071700Z 0718/0803 34006KT 9999 FEW025 SCT070
LGTL,TAF LGTL 071700Z 0718/0803 01010KT 9999 FEW020 SCT080 PROB30 TEMPO 0719/0724 5000 SHRA FEW018TCU SCT020 BKN080
LGTS,TAF LGTS 071700Z 0718/0818 17014KT 9999 FEW025 BECMG 0718/0720 VRB03KT BECMG 0810/0812 17014KT
LGZA,TAF LGZA 071700Z 0718/0803 VRB05KT 9999 FEW020 SCT080
LHBP,TAF LHBP 071715Z 0718/0818 VRB03KT 9999 SCT025 BKN100 TEMPO 0718/0721 VRB12G22KT 4000 TSRA SHRA BKN008 SCT020CB BKN040 PROB40 TEMPO 0721/0806 2000 -RA BCFG BKN004 BKN060 TEMPO 0806/0810 BKN012 BKN040 TEMPO 0810/0818 VRB12G22KT 2500 TSRA SHRA BKN008 SCT020CB BKN040
LHDC,TAF LHDC 071715Z 0718/0803 12006KT 9999 SCT045 BKN100 TEMPO 0718/0803 VRB12G22KT 2500 +SHRA TSRA SCT025CB BKN035
LHKE,TAF LHKE 071715Z 0718/0803 VRB03KT 9999 FEW030TCU BKN035 PROB40 TEMPO 0718/0721 VRB12G22KT 3000 TSRA SHRA SCT025CB BKN033 BECMG 0719/0722 CAVOK TEMPO 0720/0803 5000 BR NSC PROB40 TEMPO 0800/0803 1500 BR BKN005
LHPA,TAF LHPA 071715Z 0718/0818 36005KT 9999 SCT025TCU SCT200 BECMG 0719/0722 VRB03KT 5000 BR SCT005 OVC020 TEMPO 0721/0808 3000 BR OVC005 PROB40 TEMPO 0721/0806 0350 FG OVC002 BECMG 0808/0810 8000 NSW BKN015 TEMPO 0808/0812 36005KT 6000 -SHRA SCT010 BKN020TCU BECMG 0810/0813 9999 BKN030 TEMPO 0812/0818 3000 SHRA TSRA SCT015CB BKN025TCU
LHPP,TAF LHPP 071415Z 0715/0724 30005KT 9999 BKN033 TEMPO 0715/0721 VRB15G25KT 4000 SHRA TSRA SCT025CB BKN030 PROB30 TEMPO 0715/0719 2500 +SHRA PROB30 0722/0724 4000 MIFG SCT001
LHPR,TAF LHPR 071715Z 0718/0803 VRB03KT 9999 SCT015 BKN200 PROB40 0722/0803 4000 BR MIFG SCT001 BKN250 PROB30 TEMPO 0800/0803 1200 BCFG BKN001
LHSM,TAF LHSM 071115Z 0712/0721 VRB03KT 9999 BKN030 TEMPO 0712/0718 VRB12G24KT 4000 SHRA TSRA SCT015CB BKN025 BECMG 0713/0715 35008KT
LHSN,TAF LHSN 071715Z 0718/0803 05003KT 9999 SCT030 BKN083 PROB30 TEMPO 0718/0720 9999 -SHRA SCT035TCU BKN070 BECMG 0718/0721 8000 NSC BECMG 0721/0724 16004KT 5000 BR TEMPO 0800/0803 1500 BR BKN010
LIBA,TAF LIBA 071700Z 0718/0803 09008KT 9999 FEW030 BECMG 0719/0721 VRB03KT TEMPO 0801/0803 6000 SCT005
LIBC,TAF LIBC 071100Z 0712/0812 05007KT 9999 FEW030 SCT080 PROB40 TEMPO 0714/0717 TSRA
LIBD,TAF LIBD 071700Z 0718/0818 VRB05KT 9999 FEW020 BECMG 0808/0810 01010KT BECMG 0815/0817 VRB04KT
LIBF,TAF LIBF 071700Z 0718/0818 VRB05KT 9999 SCT025 BECMG 0808/0810 10012KT TEMPO 0812/0818 4000 TSRA BECMG 0816/0818 VRB04KT
LIBG,TAF LIBG 071400Z 0715/0724 VRB05KT 9999 SCT015 TEMPO 0715/0717 4000 TSRA
LIBN,TAF LIBN 071700Z 0718/0803 VRB03KT 9999 SCT030
LIBP,TAF LIBP 071700Z 0718/0818 VRB05KT 9999 FEW030 BECMG 0808/0810 09010KT PROB40 TEMPO 0814/0818 TSRA BECMG 0815/0817 VRB05KT
LIBR,TAF LIBR 071700Z 0718/0818 01010KT 9999 FEW015 BECMG 0720/0722 29006KT BECMG 0806/0808 35011KT
LIBV,TAF LIBV 071700Z 0718/0803 VRB03KT 6000 NSC BECMG 0718/0720 2500 BR SCT008
LICA,TAF LICA 071700Z 0718/0818 VRB05KT 9999 SCT025 BKN040 BECMG 0809/0811 27013KT TEMPO 0812/0818 TSRA
LICB,TAF LICB 071700Z 0718/0818 VRB05KT 9999 SCT030 PROB30 TEMPO 0813/0817 SHRA BECMG 0807/0810 26014KT
LICC,TAF LICC 071700Z 0718/0818 VRB05KT 9999 SCT030 BECMG 0809/0811 07012KT PROB30 TEMPO 0812/0818 TSRA
LICD,TAF LICD 071700Z 0718/0818 06008KT 9999 SCT020 BECMG 0806/0808 17010KT
LICG,TAF LICG 071400Z 0715/0724 08008KT 9999 FEW020
LICJ,TAF LICJ 071700Z 0718/0818 VRB05KT 9999 SCT030 BECMG 0809/0811 04013KT
LICR,TAF LICR 071700Z 0718/0818 35013KT 9999 SCT025 TEMPO 0812/0818 TSRA
LICT,TAF LICT 071700Z 0718/0803 01006KT CAVOK
LICZ,TAF LICZ 071700Z 0718/0818 30005KT 9999 SCT030 BKN080 TEMPO 0800/0806 27005KT 2000 BR BKN008
LIEA,TAF LIEA 071700Z 0718/0818 03006KT 9999 FEW025 BECMG 0809/0811 29010KT
LIED,TAF LIED 071700Z 0718/0803 15007KT 9999 SCT030
LIEE,TAF LIEE 071700Z 0718/0818 VRB05KT 9999 SCT040 BECMG 0809/0811 15014KT
LIEO,TAF LIEO 071700Z 0718/0818 VRB05KT 9999 FEW040 BECMG 0808/0810 08013KT TEMPO 0812/0818 TSRA
LIMC,TAF LIMC 071700Z 0718/0824 VRB05KT CAVOK PROB30 TEMPO 0718/0721 4000 TSRA BKN010
LIME,TAF LIME 071700Z 0718/0818 VRB05KT 9999 SCT040 TEMPO 0718/0720 TSRA PROB30 TEMPO 0812/0816 TSRA
LIMF,TAF LIMF 071700Z 0718/0818 VRB05KT 9999 SCT040 PROB40 TEMPO 0718/0802 4000 TSRA TEMPO 0812/0818 4000 TSRA
LIMG,TAF LIMG 071100Z 0712/0812 14010KT 9999 FEW030 TEMPO 0712/0718 TSRA BKN010 BECMG 0716/0718 VRB05KT
LIMJ,TAF LIMJ 071700Z 0718/0818 VRB05KT 9999 SCT020 BECMG 0810/0812 20010KT
LIML,TAF LIML 071700Z 0718/0818 VRB05KT 9999 SCT050 BECMG 0810/0812 20010KT
LIMN,TAF LIMN 071700Z 0718/0803 VRB05KT 9999 FEW040
LIMP,TAF LIMP 071700Z 0718/0818 VRB05KT 9999 FEW020 PROB30 TEMPO 0812/0816 TSRA
LIMW,TAF LIMW 071700Z 0718/0803 10015KT 9999 SCT040
LIMZ,TAF LIMZ 071700Z 0718/0818 VRB05KT 9999 SCT040 PROB40 TEMPO 0718/0802 4000 TSRA TEMPO 0812/0818 4000 TSRA
LIPA,TAF LIPA 071700Z 0718/0803 VRB05KT 9999 FEW060
LIPB,TAF LIPB 071700Z 0718/0818 20008KT 9999 SCT050
LIPC,TAF LIPC 071700Z 0718/0803 23005KT 9999 SCT030
LIPE,TAF LIPE 071700Z 0718/0818 VRB05KT 9999 SCT030 TEMPO 0815/0818 TSRA
LIPH,TAF LIPH 071700Z 0718/0818 VRB05KT 9999 FEW020 TEMPO 0801/0805 3000 BR PROB30 TEMPO 0815/0818 TSRA
LIPI,TAF LIPI 071100Z 0712/0721 VRB05KT 9999 FEW030 PROB30 TEMPO 0714/0718 5000 TSRA FEW025CB SCT035
LIPK,TAF LIPK 071700Z 0718/0818 06007KT 9999 SCT020 TEMPO 0813/0818 TSRA
LIPL,TAF LIPL 071700Z 0718/0803 VRB03KT 9999 SHRA FEW020CB SCT030 BECMG 0718/0719 9999 SCT040
LIPO,TAF LIPO 071700Z 0718/0818 VRB05KT 9999 FEW040 TEMPO 0812/0817 TSRA
LIPQ,TAF LIPQ 071700Z 0718/0818 21006KT 9999 FEW030
LIPR,TAF LIPR 071700Z 0718/0818 VRB05KT 9999 SCT030 BECMG 0809/0811 08010KT TEMPO 0812/0817 TSRA
LIPS,TAF LIPS 071700Z 0718/0803 VRB03KT 9999 SCT025 PROB30 TEMPO 0718/0720 FEW020CB SCT030 BECMG 0800/0802 5000 BR NSC
LIPX,TAF LIPX 071700Z 0718/0818 VRB05KT 9999 FEW040 TEMPO 0812/0817 TSRA
LIPY,TAF LIPY 071700Z 0718/0818 VRB05KT 9999 FEW030 BECMG 0809/0811 04010KT BECMG 0812/0814 14010KT
LIPZ,TAF LIPZ 071700Z 0718/0824 VRB05KT 9999 FEW020 TEMPO 0801/0805 3000 BR BECMG 0810/0812 16010KT PROB40 TEMPO 0816/0818 4000 TSRA BECMG 0817/0819 VRB05KT
LIQW,TAF LIQW 071100Z 0712/0721 18005KT 9999 SCT020
LIRA,TAF LIRA 071700Z 0718/0818 VRB05KT 9999 SCT030 BECMG 0809/0811 25012KT
LIRE,TAF LIRE 071700Z 0718/0803 34004KT CAVOK
LIRF,TAF LIRF 071700Z 0718/0824 28013KT 9999 SCT040 BECMG 0718/0720 VRB05KT BECMG 0810/0812 26012KT BECMG 0818/0820 VRB05KT
LIRG,TAF LIRG 071400Z 0715/0724 26005KT 9999 SCT030 TEMPO 0715/0717 FEW020CB SCT030 PROB40 TEMPO 0715/0717 7000 TSRA
LIRH,TAF LIRH 071700Z 0718/0803 VRB03KT 9999 SCT035
LIRL,TAF LIRL 071400Z 0715/0724 VRB03KT 9999 SCT020 TEMPO 0715/0717 FEW020CB SCT030 PROB40 TEMPO 0715/0717 TSRA
LIRM,TAF LIRM 071700Z 0718/0803 34003KT 9999 SCT030
LIRN,TAF LIRN 071700Z 0718/0818 VRB05KT 9999 SCT040 BECMG 0809/0811 25012KT PROB30 TEMPO 0812/0818 TSRA
LIRP,TAF LIRP 071700Z 0718/0818 27007KT 9999 SCT025 TEMPO 0722/0806 1200 BR BKN005
LIRQ,TAF LIRQ 071700Z 0718/0818 VRB05KT 9999 SCT030 BECMG 0809/0811 25013KT PROB30 TEMPO 0812/0818 TSRA
LIRS,TAF LIRS 071700Z 0718/0803 03005KT 9999 FEW020
LIRU,TAF LIRU 071400Z 0715/0724 25010KT 9999 FEW030 BECMG 0716/0718 VRB05KT
LIRV,TAF LIRV 071700Z 0718/0803 03005KT 9999 SCT025
LIRZ,TAF LIRZ 071700Z 0718/0818 VRB05KT 9999 SCT030 PROB30 TEMPO 0812/0818 TSRA
LJCE,TAF LJCE 071700Z 0718/0803 09004KT 9999 FEW045
LJLJ,TAF LJLJ 071700Z 0718/0818 VRB02KT 9999 FEW050 PROB30 TEMPO 0718/0722 SCT050CB PROB40 TEMPO 0800/0807 FEW003 BKN012 PROB40 TEMPO 0810/0818 VRB15KT 5000 TSRA BKN040CB
LJMB,TAF LJMB 071700Z 0718/0818 VRB02KT 9999 SCT045 PROB30 TEMPO 0718/0720 SCT050CB PROB30 TEMPO 0802/0807 1500 PRFG BR BKN003 PROB30 TEMPO 0810/0812 VRB15KT 5000 TSRA BKN030CB
LJPZ,TAF LJPZ 071700Z 0718/0803 30008KT 9999 FEW035
LKCV,TAF LKCV 071700Z 0718/0818 VRB02KT CAVOK TEMPO 0718/0722 7000 SHRA BKN035TCU PROB30 TEMPO 0718/0720 04008KT 5000 TSRA BKN030CB PROB40 TEMPO 0722/0806 3000 BR SCT006 PROB40 TEMPO 0812/0818 03008KT 6000 SHRA BKN030CB
LKKB,TAF COR LKKB 071700Z 0718/0818 35004KT CAVOK TEMPO 0718/0722 02014KT 6000 SHRA SCT028TCU BKN045 BECMG 0801/0803 6000 NSC BECMG 0805/0807 CAVOK BECMG 0810/0812 07006KT SCT038 TEMPO 0811/0818 09014KT 5000 SHRA SCT028TCU BKN045 BECMG 0816/0818 VRB02KT CAVOK
LKKV,TAF LKKV 071700Z 0718/0818 05004KT 9999 SCT033 TEMPO 0718/0720 05007KT 4000 SHRA SCT015TCU BKN023 BECMG 0723/0801 VRB02KT TEMPO 0723/0805 3000 BR SCT015 BECMG 0804/0806 07006KT TEMPO 0812/0818 5000 SHRA SCT015CB BKN023
LKMT,TAF LKMT 071700Z 0718/0818 21004KT 9999 SCT033 TEMPO 0718/0721 5000 SHRA SCT020TCU BKN026 PROB30 TEMPO 0718/0721 3000 TSRA SCT015CB BKN023 TEMPO 0800/0806 2000 BR SCT010 BKN013 TEMPO 0809/0818 5000 SHRA SCT015CB BKN020
LKNA,TAF LKNA 071700Z 0718/0818 VRB02KT 9999 SCT035 PROB30 TEMPO 0722/0805 2000 BR SCT008 TEMPO 0805/0809 BKN015 PROB30 TEMPO 0809/0817 07008KT 7000 SHRA BKN020CB
LKPD,TAF LKPD 071700Z 0718/0818 VRB02KT CAVOK TEMPO 0718/0722 7000 SHRA BKN030TCU PROB40 TEMPO 0722/0807 5000 BR PROB30 TEMPO 0800/0806 1500 MIFG BR SCT002 TEMPO 0812/0818 27010KT 7000 SHRA BKN030TCU
LKPR,TAF LKPR 071700Z 0718/0900 04006KT 9999 SCT033 TEMPO 0718/0721 7000 SHRA SCT020TCU BKN030 PROB30 0718/0721 5000 TSRA SCT015CB BKN023 TEMPO 0722/0805 34003KT 2000 BR SCT010 PROB30 TEMPO 0812/0821 7000 SHRA SCT020CB BKN026
LKTB,TAF LKTB 071700Z 0718/0818 34004KT 9999 SCT036 TEMPO 0718/0721 5000 SHRA SCT020TCU BKN026 PROB30 TEMPO 0718/0721 3000 TSRA SCT015CB BKN023 TEMPO 0802/0805 3000 BR SCT010 BKN013 BECMG 0805/0807 06008KT 9999 SCT030 TEMPO 0810/0818 5000 SHRA SCT015CB BKN020
LLBG,TAF LLBG 071702Z 0718/0818 35006KT CAVOK BECMG 0720/0722 VRB04KT PROB30 TEMPO 0801/0805 04005KT 9999 SCT013 BECMG 0808/0810 33010KT BECMG 0814/0816 VRB04KT TX34/0811Z TN20/0803Z
LLER,TAF LLER 071702Z 0718/0818 36010KT CAVOK BECMG 0810/0812 32015KT PROB30 TEMPO 0812/0818 22012KT 5000 DU TX41/0813Z TN26/0803Z
LLHA,TAF LLHA 071712Z 0718/0818 32006KT 9999 FEW015 TEMPO 0718/0805 VRB04KT SCT012 BECMG 0807/0809 33010KT CAVOK BECMG 0814/0816 VRB04KT TX29/0809Z TN21/0803Z
LLHZ,TAF LLHZ 071710Z 0718/0818 VRB03KT CAVOK PROB40 TEMPO 0718/0807 04005KT 9999 SCT012 BECMG 0807/0809 33010KT BECMG 0814/0816 VRB03KT TX31/0811Z TN19/0803Z
LLIB,TAF LLIB 071110Z 0712/0812 34014KT CAVOK BECMG 0716/0718 VRB03KT BECMG 0806/0808 34012KT TX31/0712Z TN18/0804Z
LMML,TAF LMML 071700Z 0718/0818 05007KT 9999 FEW020 BECMG 0812/0815 24010KT
LOAN,TAF LOAN 071115Z 0712/0721 34006KT 9999 SCT015 BKN020 TEMPO 0712/0718 4000 SHRA FEW030CB PROB40 TEMPO 0712/0714 3000 +TSRA
LOAV,TAF LOAV 071115Z 0712/0721 VRB03KT 7000 SCT015 BKN030 TEMPO 0712/0715 4000 SHRA PROB40 TEMPO 0712/0718 3000 +TSRA FEW030CB
LOWG,TAF LOWG 071715Z 0718/0818 VRB05KT 9999 SCT040 BKN060 TX22/0811Z TN13/0803Z TEMPO 0718/0719 16007KT FEW060CB TEMPO 0723/0807 3000 BCFG BKN004 PROB30 TEMPO 0800/0805 0300 FG VV001 TEMPO 0810/0818 FEW040CB TEMPO 0812/0817 02015G25KT 4000 TSRA SCT030CB BKN040
LOWI,TAF LOWI 071715Z 0718/0818 09010KT 9999 FEW070 TX23/0812Z TN12/0804Z BECMG 0718/0720 27005KT BECMG 0809/0811 09010KT FEW060CB PROB30 TEMPO 0811/0816 TSRA
LOWK,TAF LOWK 071715Z 0718/0818 VRB04KT 9999 FEW060 TX22/0718Z TN13/0803Z TEMPO 0718/0720 FEW060CB TEMPO 0810/0818 SHRA FEW060CB TEMPO 0812/0818 VRB12KT TSRA
LOWL,TAF LOWL 071715Z 0718/0818 10004KT 9999 FEW040 TX23/0813Z TN14/0803Z TEMPO 0809/0818 08008KT TEMPO 0810/0817 FEW040CB PROB30 TEMPO 0813/0817 SHRA
LOWS,TAF LOWS 071715Z 0718/0818 32006KT 9999 FEW060 TX23/0718Z TN13/0803Z BECMG 0718/0720 15005KT CAVOK BECMG 0807/0809 34006KT 9999 FEW060 TEMPO 0813/0818 FEW050CB SCT060 PROB30 TEMPO 0815/0818 29015G25KT TSRA
LOWW,TAF LOWW 071715Z 0718/0824 VRB03KT 9999 SCT020 TX22/0814Z TN14/0803Z TEMPO 0718/0719 -SHRA FEW030CB PROB30 TEMPO 0802/0806 2500 BR BKN005 TEMPO 0807/0819 35007KT SHRA BKN020 FEW020CB PROB40 TEMPO 0810/0818 2800 +TSRA FEW025CB
LOXA,TAF LOXA 071115Z 0712/0721 04008KT 9999 FEW040 TEMPO 0712/0718 04014KT FEW040TCU SCT060 BECMG 0718/0720 VRB03KT
LOXN,TAF LOXN 071115Z 0712/0721 36008KT 9999 FEW008 BKN035 TEMPO 0712/0718 4000 TSRA FEW025CB BKN030
LOXT,TAF LOXT 071115Z 0712/0721 26006KT 9999 FEW015 BKN030 PROB40 TEMPO 0712/0717 32010KT 4000 TSRA FEW025CB BKN030
LOXZ,TAF LOXZ 071415Z 0715/0724 VRB03KT 9999 FEW050 SCT090 TEMPO 0715/0719 07008KT FEW040CB SCT050 TEMPO 0715/1717 TS FEW040CB BKN050
LPAR,TAF LPAR 071406Z 0715/0724 19015KT 9999 SCT030 TEMPO 0715/0718 20018G28KT
LPAZ,TAF LPAZ 071700Z 0718/0824 32018KT 9999 FEW008 SCT018 PROB30 TEMPO 0718/0720 32020G32KT 8000 SHRA BKN012 BECMG 0720/0723 32012KT FEW018 SCT035 TEMPO 0723/0824 SCT020
LPBJ,TAF LPBJ 071703Z 0718/0818 17015KT 9999 SCT045 TEMPO 0718/0721 18018G30KT BECMG 0720/0723 17005KT BECMG 0806/0809 17012KT FEW025 SCT040 TEMPO 0807/0812 7000 -RA SCT020 BKN040 TEMPO 0812/0818 18015G25KT 5000 SHRA BKN020 FEW035CB SCT040 PROB30 TEMPO 0815/0817 3000 TSRA SCT015 BKN018 SCT030CB
LPCS,TAF LPCS 071400Z 0715/0724 18015KT 9999 SCT012 BKN025 TEMPO 0715/0718 6000 -RA BKN008 BECMG 0718/0720 18010KT SCT008 BKN018 TEMPO 0720/0724 5000 -RADZ BR SCT004 BKN008
LPFR,TAF LPFR 071700Z 0718/0818 16012KT 9999 FEW018 BKN040 TEMPO 0718/0818 8000 -RA SCT012 BKN025 PROB30 TEMPO 0721/0810 3000 SHRA BKN012 FEW025CB BECMG 0812/0815 23013KT
LPHR,TAF LPHR 071400Z 0715/0724 01012KT 9999 SCT015 SCT035 PROB30 TEMPO 0715/0718 01018G30KT 8000 SHRA SCT012 BKN025 PROB40 0718/0721 VRB05KT
LPLA,TAF LPLA 071703Z 0718/0818 33020KT 9999 FEW015 SCT025 BECMG 0719/0722 35012KT PROB30 TEMPO 0721/0815 7000 -SHRA SCT012 BKN022
LPMA,TAF LPMA 071700Z 0718/0818 22013KT 9999 SCT015 PROB30 TEMPO 0718/0809 22018G30KT 8000 SHRA BKN013 FEW018TCU BECMG 0810/0812 VRB05KT
LPMR,TAF LPMR 071703Z 0718/0818 18012KT 9999 FEW020 SCT030 PROB40 0723/0806 4000 BR BKN004 TEMPO 0808/0818 18018G30KT 5000 SHRA BKN020 BKN030 FEW035CB PROB40 TEMPO 0810/0818 2000 TSRA SCT010 BKN018 SCT030CB
LPMT,TAF LPMT 071703Z 0718/0818 18012KT 9999 FEW020 SCT030 BECMG 0719/0722 FEW009 SCT015 PROB40 TEMPO 0721/0808 4000 -RADZ BR SCT009 BKN014 BECMG 0809/0812 FEW020 SCT030 TEMPO 0809/0818 19018G28KT 5000 SHRA SCT020 BKN030 FEW035CB PROB40 TEMPO 0812/0815 3000 TSRA SCT015 BKN018 SCT030CB
LPOV,TAF LPOV 071704Z 0718/0818 17010KT 9999 FEW020 SCT030 TEMPO 0808/0818 18015G25KT 5000 SHRA BKN020 BKN030 FEW035CB PROB40 TEMPO 0810/0818 2000 TSRA SCT010 BKN018 SCT030CB
LPPD,TAF LPPD 071700Z 0718/0818 34015KT 9999 FEW008 SCT018 PROB30 TEMPO 0718/0720 35020G32KT 8000 SHRA BKN012 BECMG 0720/0723 31012KT FEW018 SCT035 TEMPO 0723/0818 SCT020
LPPR,TAF LPPR 071700Z 0718/0818 20010KT 9999 SCT012 SCT030 TEMPO 0718/0812 8000 -RA SCT008 BKN020 PROB30 TEMPO 0718/0809 3000 -RADZ BR SCT004 BKN008 BECMG 0718/0721 15010KT BECMG 0810/0812 18013KT TEMPO 0812/0818 18018G30KT 5000 SHRA BKN015 FEW025CB
LPPS,TAF LPPS 071700Z 0718/0824 27015KT 9999 SCT015 PROB30 TEMPO 0718/0809 8000 SHRA BKN012 FEW018TCU
LPPT,TAF LPPT 071700Z 0718/0824 18017KT 9999 FEW008 BKN018 TEMPO 0718/0810 5000 -RADZ BR SCT004 BKN008 BECMG 0718/0721 18010KT BECMG 0810/0812 18017KT SCT018 BKN035 TEMPO 0812/0820 19020G32KT 8000 SHRA BKN020 FEW030TCU BECMG 0820/0823 21010KT SCT012 BKN025
LPST,TAF LPST 071404Z 0715/0724 17015KT 9999 FEW010 SCT030 TEMPO 0715/0718 18018G28KT
LQBK,TAF LQBK 071700Z 0718/0818 VRB02KT CAVOK TX25/0813Z TN14/0804Z PROB30 TEMPO 0802/0806 1200 BCFG PROB40 TEMPO 0806/0814 03010KT 5000 SHRA FEW010 FEW030TCU BKN035 TEMPO 0814/0818 22015KT 4000 TSRA FEW030CB BKN035
LQMO,TAF LQMO 071700Z 0718/0818 16005KT CAVOK TX29/0813Z TN16/0804Z PROB40 TEMPO 0810/0816 22012KT TS FEW040CB SCT050
LQSA,TAF LQSA 071700Z 0718/0818 VRB02KT 9999 SCT050 TX24/0813Z TN12/0804Z PROB30 TEMPO 0718/0720 VRB12KT 4000 TSRA FEW030CB SCT045 PROB30 0803/0807 2000 BR PROB40 TEMPO 0811/0818 VRB15KT 3000 TSRA FEW030CB BKN045
LQTZ,TAF LQTZ 071700Z 0718/0818 08005KT 9999 SCT040 TX24/0813Z TN13/0804Z PROB30 TEMPO 0718/0720 VRB15KT 4000 TSRA FEW030CB BKN040 PROB40 TEMPO 0723/0807 2000 BR BKN005 PROB30 TEMPO 0800/0806 0300 FG OVC002 PROB30 TEMPO 0809/0814 VRB15KT 4000 TSRA FEW010 FEW030CB BKN035 TEMPO 0814/0818 22015KT 4000 TSRA FEW030CB BKN035
LRAR,TAF LRAR 071700Z 0718/0803 18006KT 9999 FEW045CB BECMG 0718/0720 NSC TEMPO 0800/0803 5000 BR
LRBC,TAF LRBC 071700Z 0718/0803 16007KT CAVOK
LRBM,TAF LRBM 071400Z 0715/0800 12006KT 9999 BKN045 PROB40 TEMPO 0715/0717 5000 -TSRA SCT045CB
LRBS,TAF LRBS 071700Z 0718/0818 12010KT CAVOK BECMG 0718/0720 VRB04KT BECMG 0808/0810 09010KT BECMG 0816/0818 VRB04KT
LRCK,TAF LRCK 071700Z 0718/0818 VRB04KT CAVOK BECMG 0807/0809 09010KT
LRCL,TAF LRCL 071700Z 0718/0803 VRB04KT 9999 SCT040CB BKN060 BECMG 0718/0720 NSC TEMPO 0800/0803 3000 BR
LRCV,TAF LRCV 071700Z 0718/0803 05008KT CAVOK
LRIA,TAF LRIA 071700Z 0718/0803 15006KT CAVOK
LROD,TAF LROD 071700Z 0718/0803 VRB04KT 9999 FEW035CB TEMPO 0718/0721 VRB15KT 5000 TSRA BKN030CB BECMG 0721/0723 NSC
LROP,TAF LROP 071700Z 0718/0818 12010KT CAVOK BECMG 0718/0720 VRB04KT BECMG 0808/0810 09010KT BECMG 0816/0818 VRB04KT
LRSB,TAF LRSB 071700Z 0718/0818 VRB04KT 9999 FEW050CB BKN070 BECMG 0718/0720 NSC TEMPO 0811/0817 SCT035CB PROB40 TEMPO 0812/0816 -TSRA
LRSM,TAF LRSM 071400Z 0715/0800 08006KT 9999 BKN035 PROB40 TEMPO 0715/0717 5000 -TSRA SCT040CB
LRSV,TAF LRSV 071700Z 0718/0803 15009KT CAVOK PROB30 TEMPO 0718/0721 FEW050CB
LRTC,TAF LRTC 071400Z 0715/0800 12012KT CAVOK BECMG 0718/0720 VRB04KT
LRTM,TAF LRTM 071400Z 0715/0800 VRB04KT CAVOK
LRTR,TAF LRTR 071700Z 0718/0818 18010KT 9999 FEW050CB PROB30 TEMPO 0718/0719 -TSRA BECMG 0719/0721 VRB04KT NSC TEMPO 0723/0803 5000 BR
LSGC,TAF LSGC 071425Z 0715/0724 VRB02KT 9999 SCT045 PROB30 TEMPO 0715/0722 SCT040TCU
LSGG,TAF LSGG 071725Z 0718/0824 VRB02KT 9999 FEW045 TX27/0815Z TN13/0804Z PROB40 TEMPO 0718/0720 FEW050TCU BECMG 0811/0813 05007KT PROB40 TEMPO 0812/0818 FEW050CB
LSGS,TAF LSGS 071425Z 0715/0724 25012KT 9999 SCT120 BECMG 0719/0721 VRB02KT
LSZA,TAF LSZA 071425Z 0715/0724 19008KT 9999 FEW045 PROB40 TEMPO 0715/0724 SHRA FEW050TCU PROB30 TEMPO 0716/0724 01015G25KT TSRA SCT050CB
LSZB,TAF LSZB 071425Z 0715/0724 VRB02KT 9999 FEW070 SCT120 PROB30 TEMPO 0715/0721 SHRA FEW060TCU
LSZC,TAF LSZC 071425Z 0715/0724 04006KT 9999 FEW080TCU PROB30 TEMPO 0715/0720 SHRA FEW070CB
LSZG,TAF LSZG 071425Z 0715/0724 10006KT 9999 FEW052 PROB40 TEMPO 0715/0721 FEW060TCU PROB30 TEMPO 0715/0719 SHRA FEW060CB
LSZH,TAF LSZH 071725Z 0718/0824 03004KT 9999 FEW075 TX26/0815Z TN11/0804Z BECMG 0718/0720 CAVOK PROB30 TEMPO 0803/0809 9999 SHRA FEW080TCU BECMG 0810/0813 04006KT 9999 FEW070 PROB40 TEMPO 0812/0818 FEW070TCU PROB30 TEMPO 0813/0818 SHRA FEW070TCU BECMG 0818/0821 VRB02KT CAVOK
LSZL,TAF LSZL 071725Z 0718/0803 23009KT 9999 FEW060 TEMPO 0718/0803 SHRA FEW060TCU PROB40 TEMPO 0718/0724 09015G28KT 4000 TSRA SCT040CB
LSZR,TAF LSZR 071425Z 0715/0724 28006KT CAVOK PROB30 TEMPO 0715/0720 9999 FEW070TCU
LSZS,TAF LSZS 071425Z 0715/0724 21007KT 9999 FEW026 SCT085 BKN095 TX17/0715Z TEMPO 0715/0721 SHRA SCT070TCU PROB40 TEMPO 0715/0719 21015G25KT 4000 TSRA SCT040CB
LTAB,TAF LTAB 071640Z 0718/0803 VRB02KT CAVOK
LTAC,TAF LTAC 071640Z 0718/0818 VRB02KT CAVOK BECMG 0806/0808 SCT040 SCT100
LTAD,TAF LTAD 071640Z 0718/0803 VRB02KT CAVOK
LTAE,TAF LTAE 071640Z 0718/0803 VRB02KT CAVOK
LTAF,TAF LTAF 071640Z 0718/0818 VRB02KT CAVOK BECMG 0720/0722 SCT030 BECMG 0810/0812 21012KT BECMG 0815/0817 VRB02KT
LTAG,TAF LTAG 071640Z 0718/0818 VRB02KT CAVOK TEMPO 0800/0804 SCT025 BECMG 0806/0808 FEW035 BKN180 BECMG 0810/0812 20012KT BECMG 0816/0818 VRB02KT
LTAH,TAF LTAH 071340Z 0715/0724 VRB02KT 9999 FEW040 BECMG 0715/0718 CAVOK
LTAI,TAF LTAI 071640Z 0718/0818 34006KT CAVOK BECMG 0807/0810 16010KT SCT030
LTAJ,TAF LTAJ 071640Z 0718/0818 VRB02KT CAVOK TEMPO 0718/0721 34012KT
LTAL,TAF LTAL 071640Z 0718/0803 02005KT 9999 FEW034 BECMG 0720/0722 3200 BR
LTAN,TAF LTAN 071640Z 0718/0803 34008KT CAVOK
LTAO,TAF LTAO 071640Z 0718/0803 VRB02KT CAVOK
LTAP,TAF LTAP 071640Z 0718/0818 03012KT 9999 FEW040 BECMG 0718/0721 VRB02KT CAVOK BECMG 0809/0812 03015KT FEW040
LTAR,TAF LTAR 071640Z 0718/0803 VRB02KT CAVOK
LTAS,TAF LTAS 071340Z 0715/0724 VRB02KT CAVOK
LTAT,TAF LTAT 071640Z 0718/0818 VRB02KT CAVOK BECMG 0808/0810 FEW040 BECMG 0814/0816 CAVOK
LTAU,TAF LTAU 071640Z 0718/0818 04008KT CAVOK BECMG 0806/0808 FEW040 SCT100 BKN180
LTAV,TAF LTAV 071340Z 0715/0724 VRB02KT 9999 SCT040 BECMG 0718/0720 CAVOK
LTAW,TAF LTAW 071340Z 0715/0724 01009KT 9999 SCT040 BECMG 0719/0722 CAVOK
LTAY,TAF LTAY 071640Z 0718/0818 VRB02KT CAVOK BECMG 0808/0812 27015G25KT -SHRA SCT030 BKN090 PROB40 TEMPO 0812/0816 -TSRA FEW025CB BKN030 BECMG 0814/0818 VRB02KT
LTAZ,TAF LTAZ 071640Z 0718/0818 03012KT CAVOK TEMPO 0718/0720 03015G25KT BECMG 0720/0722 VRB02KT BECMG 0806/0809 SCT040 SCT100 BKN180 PROB30 TEMPO 0812/0816 25015G30KT -TSRA FEW030CB BKN035
LTBA,TAF LTBA 071640Z 0718/0818 04018G28KT 9999 SCT025 BECMG 0719/0722 04014KT BKN006 BKN020 BECMG 0803/0806 03016G27KT SCT040 BKN100
LTBD,TAF LTBD 071640Z 0718/0803 VRB02KT CAVOK BECMG 0800/0803 FEW035 SCT100
LTBF,TAF LTBF 071640Z 0718/0803 35005KT CAVOK BECMG 0722/0724 SCT035 BKN200
LTBG,TAF LTBG 071640Z 0718/0803 04015KT CAVOK
LTBH,TAF LTBH 071640Z 0718/0803 08013KT CAVOK
LTBI,TAF LTBI 071640Z 0718/0803 VRB02KT 9999 FEW040 BECMG 0718/0720 CAVOK
LTBJ,TAF LTBJ 071640Z 0718/0818 VRB02KT CAVOK BECMG 0803/0806 FEW030 SCT100 BKN200 PROB30 TEMPO 0809/0812 36012KT -TSRA FEW015CB BKN025 TEMPO 0812/0816 VRB13G23KT -TSRA FEW015CB BKN025
LTBK,TAF LTBK 071340Z 0715/0724 33012KT 9999 FEW030 SCT200 BECMG 0717/0720 VRB02KT CAVOK
LTBL,TAF LTBL 071640Z 0718/0803 29009KT CAVOK
LTBN,TAF LTBN 071340Z 0715/0724 VRB02KT 9999 SCT040 BECMG 0718/0720 CAVOK
LTBO,TAF LTBO 071340Z 0715/0724 VRB02KT 9999 SCT040 BECMG 0715/0719 CAVOK
LTBP,TAF LTBP 071340Z 0715/0724 VRB02KT CAVOK BECMG 0720/0724 SCT008
LTBQ,TAF LTBQ 071640Z 0718/0803 VRB02KT 8000 BKN030 BECMG 0720/0723 SCT010 BKN018
LTBR,TAF LTBR 071640Z 0718/0818 VRB02KT CAVOK PROB40 0803/0806 4000 BR FEW010 BKN030 BECMG 0806/0810 SCT035 BKN100 BECMG 0810/0812 35012KT PROB30 TEMPO 0813/0816 -TSRA FEW027CB BKN032 BECMG 0816/0818 VRB02KT
LTBS,TAF LTBS 071640Z 0718/0818 VRB02KT CAVOK BECMG 0806/0808 21012KT FEW030 BKN180 BECMG 0816/0818 VRB02KT CAVOK
LTBT,TAF LTBT 071640Z 0718/0803 36009KT CAVOK
LTBU,TAF LTBU 071640Z 0718/0818 03014KT CAVOK BECMG 0718/0721 SCT014 BECMG 0721/0724 BKN008 BKN020 BECMG 0805/0808 CAVOK
LTBV,TAF LTBV 071340Z 0715/0724 25015KT 9999 FEW035 BECMG 0715/0718 VRB02KT CAVOK
LTBX,TAF LTBX 071340Z 0715/0724 04012KT CAVOK BECMG 0717/0720 SCT012 BECMG 0721/0724 BKN008
LTBY,TAF LTBY 071640Z 0718/0803 VRB02KT 9999 FEW040 BECMG 0718/0720 CAVOK
LTBZ,TAF LTBZ 071640Z 0718/0803 VRB02KT 9999 FEW040 BECMG 0718/0720 CAVOK
LTCA,TAF LTCA 071640Z 0718/0803 24008KT CAVOK
LTCB,TAF LTCB 071640Z 0718/0803 VRB02KT CAVOK BECMG 0800/0803 SCT035
LTCC,TAF LTCC 071640Z 0718/0818 34008KT CAVOK BECMG 0810/0812 FEW040 SCT100 BECMG 0815/0818 CAVOK
LTCD,TAF LTCD 071640Z 0718/0803 VRB02KT 9999 SCT045
LTCE,TAF LTCE 071640Z 0718/0818 06012KT 9999 FEW040 BECMG 0718/0721 CAVOK BECMG 0721/0723 VRB02KT BECMG 0805/0807 06012KT FEW040 SCT080 BECMG 0812/0814 VRB02KT BECMG 0816/0818 CAVOK
LTCF,TAF LTCF 071640Z 0718/0818 09012KT 9999 FEW040 BKN100 BECMG 0721/0723 BKN040
LTCG,TAF LTCG 071640Z 0718/0818 VRB02KT 9999 SCT035 PROB40 0721/0801 3500 BR SCT003 BKN025
LTCI,TAF LTCI 071640Z 0718/0803 10009KT 9999 SCT030 SCT120
LTCJ,TAF LTCJ 071640Z 0718/0818 VRB02KT CAVOK TEMPO 0811/0815 01012KT
LTCK,TAF LTCK 071340Z 0715/0724 27009KT 9999 SCT030 TEMPO 0715/0718 15012G22KT -TSRA FEW020CB BKN030
LTCL,TAF LTCL 071340Z 0715/0724 24006KT 9999 FEW040 BECMG 0716/0718 CAVOK
LTCM,TAF LTCM 071640Z 0718/0803 13006KT 9999 FEW030
LTCN,TAF LTCN 071640Z 0718/0803 28014KT CAVOK BECMG 0719/0721 VRB02KT
LTCO,TAF LTCO 071340Z 0715/0724 VRB02KT 9999 SCT035 BKN080 TEMPO 0715/0717 20015G30KT -TSRA FEW025CB TEMPO 0717/0719 07016KT BECMG 0717/0719 CAVOK
LTCP,TAF LTCP 071340Z 0715/0724 03007KT 9999 SCT035 SCT100 BECMG 0715/0717 CAVOK
LTCR,TAF LTCR 071340Z 0715/0724 35012KT CAVOK
LTCS,TAF LTCS 071640Z 0718/0818 03012KT CAVOK BECMG 0812/0815 VRB02KT
LTCT,TAF LTCT 071640Z 0718/0803 31012KT 9999 FEW040 BKN080 TEMPO 0718/0720 05018KT TEMPO 0718/0722 -TSRA FEW035CB BKN040 BKN080 BECMG 0800/0803 CAVOK
LTCU,TAF LTCU 071340Z 0715/0724 09012KT 9999 FEW035 SCT100 BECMG 0716/0718 CAVOK
LTCV,TAF LTCV 071640Z 0718/0818 VRB02KT CAVOK TEMPO 0811/0815 33012KT
LTCW,TAF LTCW 071640Z 0718/0803 26009KT 9999 FEW040
LTDA,TAF LTDA 071640Z 0718/0803 23018KT CAVOK TEMPO 0718/0721 23018G28KT TEMPO 0721/0724 23018G28KT
LTFA,TAF LTFA 071340Z 0715/0724 29009KT 9999 FEW035 SCT200 BECMG 0715/0718 CAVOK
LTFB,TAF LTFB 071340Z 0715/0724 24012KT 9999 FEW035 SCT200 BECMG 0715/0718 VRB02KT CAVOK
LTFC,TAF LTFC 071640Z 0718/0818 36008KT CAVOK BECMG 0807/0810 16014KT SCT035 PROB40 TEMPO 0811/0815 -TSRA FEW020CB BKN030 BECMG 0815/0818 VRB02KT
LTFD,TAF LTFD 071640Z 0718/0803 08012KT CAVOK BECMG 0722/0724 FEW035 SCT200
LTFE,TAF LTFE 071640Z 0718/0818 VRB02KT CAVOK BECMG 0802/0806 FEW035 BKN200 BECMG 0806/0808 FEW020CB BKN030 BECMG 0808/0810 26012KT PROB40 TEMPO 0810/0814 -TSRA BECMG 0814/0816 VRB02KT
LTFG,TAF LTFG 071640Z 0718/0803 11006KT CAVOK
LTFH,TAF LTFH 071640Z 0718/0803 VRB02KT 9999 FEW034
LTFJ,TAF LTFJ 071640Z 0718/0818 05013KT CAVOK BECMG 0719/0723 BKN007 PROB40 0800/0804 BKN004 BECMG 0806/0809 SCT022 TEMPO 0812/0816 06018G28KT
LTFK,TAF LTFK 071340Z 0715/0724 01012KT CAVOK
LTFM,TAF LTFM 071640Z 0718/0824 04015KT 9999 BKN007 BKN022
LTFO,TAF LTFO 071640Z 0718/0803 VRB02KT 9999 SCT035 PROB30 0722/0802 SCT008 BKN025
LUBM,TAF LUBM 071113Z 0712/0721 14009KT CAVOK
LUKK,TAF LUKK 071716Z 0718/0818 VRB05KT CAVOK BECMG 0806/0808 13010KT
LWOH,TAF LWOH 071730Z 0718/0818 16006KT 9999 FEW040 SCT100 TEMPO 0812/0818 VRB15KT TSRA FEW033CB BKN040
LWSK,TAF LWSK 071730Z 0718/0818 VRB02KT 9999 FEW050 TEMPO 0812/0818 VRB15KT TSRA FEW033CB BKN040
LXGB,TAF LXGB 071616Z 0718/0722 07010KT 9999 FEW015 PROB40 TEMPO 0718/0722 SCT010
LYBE,TAF LYBE 071700Z 0718/0818 09006KT CAVOK TX26/0813Z TN16/0803Z TEMPO 0803/0806 5000 BR BKN008 TEMPO 0812/0817 25016G26KT 3000 TSRA SCT027CB BKN033
LYBT,TAF LYBT 071700Z 0718/0818 12004KT CAVOK TX25/0813Z TN15/0803Z TEMPO 0803/0806 4000 BR BKN008 TEMPO 0812/0817 VRB15G25KT 3000 TSRA SCT030CB BKN040
LYKV,TAF LYKV 071700Z 0718/0818 15007KT 9999 FEW017 SCT033 TX24/0813Z TN15/0803Z TEMPO 0802/0806 3000 BR BKN007 TEMPO 0812/0817 VRB15G25KT 4000 TSRA SCT015 SCT027TCU BKN033
LYNI,TAF COR LYNI 071700Z 0718/0818 04006KT 9999 SCT040 TX26/0812Z TN15/0803Z TEMPO 0803/0806 3000 BR BKN008 TEMPO 0812/0816 20016G26KT 4000 TSRA SCT027CB SCT030
LYPG,TAF LYPG 071700Z 0718/0818 36005KT 9999 FEW040 TX29/0813Z TN18/0803Z PROB30 TEMPO 0812/0818 TSRA FEW030CB SCT040
LYTV,TAF LYTV 071700Z 0718/0818 VRB02KT CAVOK TX27/0813Z TN14/0803Z PROB30 TEMPO 0812/0818 TSRA FEW030CB SCT040
LYVR,TAF LYVR 071700Z 0718/0818 14008KT CAVOK TX25/0813Z TN17/0803Z TEMPO 0809/0813 15018KT
LZIB,TAF LZIB 071715Z 0718/0818 07005KT 9999 FEW009 SCT014 BKN040 PROB30 TEMPO 0801/0805 2500 BR BKN005 TEMPO 0812/0817 SHRA SCT020TCU BKN035 PROB40 TEMPO 0813/0817 -TSRA SCT020CB BKN030
LZKZ,TAF LZKZ 071715Z 0718/0818 VRB02KT 9999 FEW020 BKN030 PROB30 TEMPO 0718/0721 -TSRA FEW018CB BKN025 PROB40 TEMPO 0801/0805 1500 BCFG BR BKN004 TEMPO 0812/0818 3000 SHRA FEW012 SCT020TCU BKN030 PROB40 TEMPO 0814/0818 -TSRA FEW012 SCT020CB
LZMC,TAF LZMC 071330Z 0715/0724 VRB04KT 9999 FEW005 BKN020 TEMPO 0715/0720 8000 -SHRA BKN008 TEMPO 0715/0720 VRB10G22KT 5000 TSRA FEW015CB BKN020
LZPP,TAF LZPP 071715Z 0718/0803 30004KT 9999 FEW015 SCT020 PROB30 TEMPO 0722/0803 2500 BCFG BR BKN004
LZPW,TAF LZPW 071330Z 0715/0724 16008KT 9999 FEW010 SCT035 BKN050 PROB40 TEMPO 0715/0720 4000 -SHRA SCT020TCU BKN025 PROB30 TEMPO 0715/0718 VRB16G30KT 2500 TSRA SCT015CB BKN025
LZSL,TAF LZSL 071330Z 0715/0724 VRB02KT 9999 SCT012 BKN030 PROB40 TEMPO 0715/0717 VRB10KT 4000 -SHRA SCT015TCU BKN025 BECMG 0719/0721 5000 BR BKN020
LZTT,TAF LZTT 071715Z 0718/0818 VRB02KT 9999 FEW010 SCT045 TEMPO 0723/0805 1200 BCFG BKN004 PROB40 TEMPO 0723/0805 0500 FG BKN002 TEMPO 0812/0818 3000 SHRA FEW010 SCT020TCU BKN030 PROB40 TEMPO 0812/0818 -TSRA FEW010 SCT018CB BKN025
LZZI,TAF LZZI 071715Z 0718/0803 VRB02KT 9999 FEW010 BKN030 TEMPO 0718/0719 -SHRA FEW010 SCT020TCU BKN030 TEMPO 0722/0803 1300 BCFG BR BKN003 PROB40 TEMPO 0800/0803 0500 FG BKN002
MBGT,MBGT 071630Z 0718/0818 15004KT 9999 SCT012 BKN016 PROB40 TEMPO 0802/0814 8000 SHRA SCT015CB BKN030
MBPV,MBPV 071630Z 0718/0818 15004KT 9999 SCT012 BKN016 PROB40 TEMPO 0802/0814 8000 SHRA SCT015CB BKN030
MDBH,TAF MDBH 071600Z 0718/0818 13010KT 8000 -RA FEW016CB SCT018 BKN080 PR0B30 0718/0800 8000 -RA FEW016CB BKN016 BKN070 BECMG 0805/0807 00000KT
MDCY,TAF MDCY 071600Z 0718/0818 18008KT 9999 SCT022 SCT300 BECMG 0723/0801 00000KT
MDJB,TAF MDJB 071600Z 0718/0818 08015G25KT 9999 SCT020 TEMPO 0718/0722 6000 TSRA FEW014CB BKN016 OVC070 FM 080000 00000KT 9999 BKN016 BECMG 0813/0815 12005KT
MDLR,TAF MDLR 071600Z 0718/0818 09012KT 9999 SCT020 SCT070 PROB30 0719/0801 6000 -TSRA FEW018CB BKN020 SCT070 BECMG 0800/0802 00000KT
MDPC,TAF MDPC 071600Z 0718/0818 12012KT 9999 FEW020 SCT300 BECMG 0803/0805 00000KT
MDPP,TAF MDPP 071600Z 0718/0818 12010KT 9999 FEW022 BKN300 PROB30 0718/0800 5000 RA BKN017 BKN300
MDSD,TAF MDSD 071600Z 0718/0818 15010KT 9999 FEW018CB SCT020 TEMPO 0718/0800 7000 -TSRA FEW014CB BKN014 SCT070
MDST,TAF MDST 071600Z 0718/0818 12010KT 9999 FEW020CB SCT022 BKN300 BECMG 0720/0722 VRB03KT
MGGT,MGGT 071700Z 0718/0818 18008KT 7000 SCT018 SCT090 TX28/0720Z TN17/0812Z PROB40 TEMPO 0718/0804 TSRA SCT020TCU FEW025CB BECMG 0800/0802 SCT016 PROB30 TEMPO 0804/0816 00000KT 4000 BRDZ BKN014 BECMG 0816/0818 SCT018
MGMM,MGMM 071700Z 0718/0818 05006KT 9999 SCT020 SCT090 TX38/0720Z TN23/0812Z PROB30 TEMPO 0720/0806 8000 VCSH BKN022 BECMG 0800/0802 00000KT CAVOK TEMPO 0808/0816 SCT012 BECMG 0816/0818 12006KT FEW020
MGPB,MGPB 071700Z 0718/0818 06008KT 9999 SCT018 TX32/0720Z TN22/0812Z PROB40 TEMPO 0720/0804 8000 VCTSRA SCT020TCU FEW025CB BECMG 0800/0802 00000KT SCT016 BECMG 0816/0818 06008KT SCT018
MHLC,TAF MHLC 071655Z 0718/0818 VRB05KT 9999 TS SCT034TCU FEW038CB TX32/0718Z TN23/0812Z TEMPO 0718/0723 5000 TSRA SCT038CB BKN070 FM080200 VRB02KT 9999 FEW028
MHLM,TAF MHLM 071655Z 0718/0818 VRB05KT 9999 FEW030 TX35/0719Z TN24/0812Z BECMG 0720/0721 03014KT BECMG 0800/0802 VRB04KT
MHPR,TAF MHPR 071700Z 0718/0818 18014KT 9999 SCT050 SCT052TCU TX31/0721Z TN21/0812Z TEMPO 0723/0804 7000 TSSHRA SCT048TCU FEW050CB BECMG 0805/0807 VRB05KT 9999 SCT048 BKN080
MHRO,TAF MHRO 071655Z 0718/0818 VRB05KT 9999 FEW020 TX32/0719Z TN27/0812Z BECMG 0723/0801 10012KT BECMG 0810/0812 VRB05KT
MHTG,TAF MHTG 071655Z 0718/0818 19010KT 9999 SCT030TCU TX28/0720Z TN19/0812Z TEMPO 0723/0803 5000 TSRA SCT038CB OVC080 BECMG 0803/0805 VRB03KT 7000 RA SCT032TCU OVC070 BECMG 0808/0810 4000 BR SCT008 SCT026 BECMG 0812/0814 9999 NSW SCT032
MKJP,TAF MKJP 071715Z 0718/0818 14023KT 9999 SCT018 SCT020CB TEMPO 0718/0803 4000 TSRA BKN016 BKN018CB BECMG 0802/0804 34008KT PROB40 TEMPO 0806/0812 5000 TSRA FEW018 SCT020CB BECMG 0814/0816 15026KT
MKJS,TAF MKJS 071715Z 0718/0818 06015KT 9999 SCT020 FEW022CB SCT034 TEMPO 0718/0804 2000 TSRA BKN018 BKN020CB BKN034 BECMG 0803/0805 14006KT BECMG 0812/0814 05018KT
MMAA,TAF MMAA 071728Z 0718/0818 24010KT 6SM HZ SCT015 TX33/0719Z TN26/0810Z FM080300 33004KT 5SM HZ SCT015 TEMPO 0809/0813 BKN015 FM081500 26008KT 6SM HZ SKC
MMAN,TAF MMAN 071633Z 0718/0818 12010KT P6SM SCT025 SCT080 BKN200 TEMPO 0722/0802 6SM VC RA SCT025CB BKN080 BKN220 FM080300 07004KT 6SM HZ SCT200 TEMPO 0810/0814 4SM HZ FM081600 12008KT 6SM HZ SKC
MMAS,TAF MMAS 071633Z 0718/0818 24010KT P6SM SCT050 FM080400 26005KT P6SM SKC FM081800 24010KT P6SM SCT050
MMBT,TAF MMBT 071621Z 0718/0818 20010KT 6SM HZ SCT020 BKN200 TEMPO 0722/0802 6SM -RA BKN020CB FM080400 16005KT 6SM HZ SCT020 BKN200 FM081800 20010KT 6SM HZ SCT030
MMCB,TAF MMCB 071621Z 0718/0818 16010KT 5SM HZ SCT020 SCT250 BECMG 0721/0722 BKN020CB TEMPO 0722/0802 6SM -TSRA BKN015CB FM080400 16005KT 6SM HZ SCT015 SCT100 BKN250 FM081800 24010KT 5SM HZ SCT020 SCT200
MMCE,TAF MMCE 071658Z 0718/0818 03010KT 6SM HZ SCT020 BECMG 0720/0721 03010G20KT FM080400 08010KT 4SM HZ SCT020 TEMPO 0812/0815 2SM HZ FU SCT010 FM081800 12010KT 5SM HZ SCT025
MMCL,TAF MMCL 071553Z 0718/0818 22010KT P6SM BKN020 BECMG 0719/0720 SCT025 SCT300 TEMPO 0720/0724 22015KT FM080300 20004KT P6SM SCT230 BECMG 0810/0811 4SM BR HZ SCT010 FM081600 22006KT 6SM HZ SCT300
MMCM,TAF MMCM 071658Z 0718/0818 12010KT 6SM HZ SCT020 BECMG 0721/0722 BKN020CB TEMPO 0723/0803 4SM TSRA OVC015CB FM080600 08005KT 6SM HZ SCT015 BKN100 TEMPO 0812/0815 BKN015 FM081800 13010KT 6SM HZ BKN020
MMCN,TAF MMCN 071642Z 0718/0818 20015KT P6SM SCT020 BKN200 FM080400 20005KT P6SM SCT100 BKN200 FM081800 20010KT P6SM BKN200
MMCP,TAF MMCP 071658Z 0718/0818 30010KT 6SM HZ BKN030 BECMG 0720/0721 33010G20KT SCT030 FM080300 06008KT 6SM HZ SCT020 FM081800 30010KT 6SM HZ SCT030
MMCS,TAF MMCS 071633Z 0718/0818 16008KT P6SM SCT030 SCT250 BECMG 0720/0721 24014KT FM080300 26010KT P6SM SKC FM081500 24012KT P6SM SCT250
MMCU,TAF MMCU 071633Z 0718/0818 16012KT P6SM SCT030 SCT090 BKN200 TEMPO 0800/0804 30010G20KT SCT030CB FM080500 06004KT P6SM SCT200 FM081600 12008KT P6SM SCT200
MMCV,TAF MMCV 071715Z 0718/0818 16010KT P6SM SCT030 SCT200 BECMG 0721/0722 BKN030CB TEMPO 0723/0803 5SM TSRA OVC020CB FM080500 16005KT 6SM HZ SCT020 BKN100 TEMPO 0812/0815 BKN015
MMCZ,TAF MMCZ 071724Z 0718/0818 15010KT 6SM -RA BKN015CB TX31/0718Z TN26/0810Z TEMPO 0719/0723 3SM TSRA BKN010 OVC015CB FM080300 16008KT P6SM BKN015 BKN070 TEMPO 0803/0807 6SM -RA FM080700 19010KT 6SM HZ BKN015 FM081600 20010KT P6SM BKN020
MMDO,TAF MMDO 071642Z 0718/0818 24010KT P6SM SCT200 TEMPO 0722/0802 24010G20KT FM080400 26005KT P6SM SCT200 FM081800 26010KT P6SM SCT200
MMEP,TAF MMEP 071633Z 0718/0818 33010KT P6SM SCT025 FM080400 33005KT 6SM HZ SCT020 FM080900 00000KT 5SM HZ SCT010 TEMPO 0810/0814 2SM BR BKN010 FM081800 33010KT P6SM SCT020
MMGL,TAF MMGL 071607Z 0718/0818 29008KT P6SM SCT030 TX34/0722Z TN17/0813Z TEMPO 0720/0724 29012KT BKN030 FM080300 00000KT P6SM SKC BECMG 0810/0811 6SM HZ FM081600 28006KT P6SM SKC
MMGM,TAF MMGM 071642Z 0718/0818 22010KT P6SM BKN200 FM080400 20005KT P6SM BKN200 FM081800 20010KT P6SM BKN200
MMHO,TAF MMHO 071553Z 0718/0818 23010KT P6SM BKN250 TEMPO 0721/0801 23015KT FM080300 20005KT P6SM BKN250 FM081600 17008KT P6SM BKN250
MMIA,TAF MMIA 071633Z 0718/0818 25010KT 6SM HZ SCT020 TEMPO 0722/0802 BKN020 FM080400 24005KT 5SM HZ SCT015 TEMPO 0812/0815 3SM HZ FU BKN010 FM081800 24001KT 6SM HZ SCT020
MMIO,TAF MMIO 071633Z 0718/0818 01010KT P6SM SCT030 SCT200 BECMG 0721/0722 P6SM VC RA SCT030CB TEMPO 0722/0802 VRB15G25KT 4SM TSRA BKN015CB FM080300 15005KT P6SM SCT100 FM081600 28008KT P6SM SKC
MMLM,TAF MMLM 071642Z 0718/0818 16015KT P6SM SCT020 BKN220 FM080500 24005KT P6SM SCT015 BKN200 TEMPO 0810/0814 3SM BR BKN010 FM081800 24010KT P6SM BKN200
MMLO,TAF MMLO 071633Z 0718/0818 24010KT 6SM HZ SCT030 SCT250 TEMPO 0721/0801 BKN030CB FM080400 24005KT 6SM HZ SCT250 FM081800 26010KT P6SM SKC
MMLP,TAF MMLP 071553Z 0718/0818 26012KT P6SM SCT250 TEMPO 0723/0803 23018KT FM080500 20008KT P6SM SKC FM081600 22012KT P6SM SKC
MMLT,TAF MMLT 071642Z 0718/0818 08010KT P6SM SCT240 FM080400 16005KT 6SM HZ BKN240 FM081800 08010KT P6SM BKN240
MMMA,TAF MMMA 071715Z 0718/0818 13010G20KT P6SM BKN020 FM080300 13008KT 6SM HZ SCT015 FM081500 13010KT 6SM HZ BKN020
MMMD,TAF MMMD 071724Z 0718/0818 30014KT P6SM BKN020 TX36/0719Z TN23/0811Z TEMPO 0721/0801 6SM -TSRA BKN020CB FM080200 07008KT 6SM HZ BKN015 TEMPO 0809/0813 4SM BR HZ BKN005 FM081500 25010KT P6SM SCT020 BECMG 0816/0817 30012KT
MMML,TAF MMML 071553Z 0718/0818 14008KT P6SM SKC TEMPO 0723/0803 31015KT FM080300 34005KT P6SM BKN260 FM081600 12006KT P6SM SCT260
MMMM,TAF MMMM 071607Z 0718/0818 22008KT 6SM HZ SCT030 SCT080 TX31/0721Z TN15/0812Z BECMG 0720/0721 SCT030CB TEMPO 0722/0802 6SM -TSRA BKN030CB BKN080 BKN220 FM080400 16005KT 6SM HZ SCT080 FM081600 19006KT 6SM HZ SKC
MMMT,TAF MMMT 071658Z 0718/0818 03012KT 5SM HZ BKN030 BECMG 0721/0722 SCT030 BKN070 FM080400 06005KT 6SM HZ SCT030 TEMPO 0811/0815 1SM BR HZ BKN020 FM081800 03010KT 6SM HZ SCT030
MMMV,TAF MMMV 071633Z 0718/0818 04010KT P6SM SCT030 BKN200 BECMG 0720/0721 SCT200 FM080100 15008KT P6SM SCT030CB TEMPO 0802/0806 5SM TSRA BKN030CB FM080700 06004KT P6SM SCT120 FM081600 04008KT P6SM SKC
MMMX,TAF MMMX 071728Z 0718/0818 32008KT 6SM HZ SCT025 BKN080 TX27/0721Z TN16/0811Z BECMG 0721/0722 6SM VC RA SCT025CB TEMPO 0723/0803 VRB10G25KT 5SM TSRA BKN020CB FM080400 22004KT 6SM HZ SCT200 FM081600 04005KT 6SM HZ SKC
MMMY,TAF MMMY 071633Z 0718/0818 12010KT P6SM SCT025 SCT080 BKN200 TX34/0721Z TN23/0811Z TEMPO 0722/0802 6SM VC RA SCT025CB BKN080 BKN220 FM080300 07004KT 6SM HZ SCT200 TEMPO 0810/0814 4SM HZ FM081600 12008KT 6SM HZ SKC
MMMZ,TAF MMMZ 071553Z 0718/0818 24010KT P6SM SCT020 TX30/0718Z TN22/0813Z FM080300 28004KT P6SM SCT015 TEMPO 0811/0815 BKN015 FM081600 24006KT P6SM SCT020
MMNL,TAF MMNL 071715Z 0718/0818 13010KT P6SM SCT030 FM080300 13005KT 6SM HZ SCT020 BKN200 TEMPO 0804/0808 6SM RA BKN020CB FM080900 13005KT 5SM HZ SCT020 BKN100 TEMPO 0812/0815 3SM BR HZ BKN010 FM081800 13010KT 6SM HZ SCT030 SCT200
MMOX,TAF MMOX 071621Z 0718/0818 13010KT 6SM HZ SCT020 BKN120 BECMG 0721/0722 BKN020CB TEMPO 0722/0802 5SM TSRA BKN015CB FM080300 13005KT 6SM HZ SCT015 BKN080 BKN200 FM081800 16008KT 6SM HZ BKN030
MMPA,TAF MMPA 071715Z 0718/0818 16010KT 5SM HZ BKN020 BKN280 TEMPO 0722/0802 6SM -RA BKN015CB FM080300 08005KT 4SM HZ SCT015 BKN080 TEMPO 0812/0815 3SM BR HZ BKN010
MMPB,TAF MMPB 071621Z 0718/0818 22010KT 6SM HZ SCT030 SCT200 BECMG 0721/0722 BKN030CB TEMPO 0722/0802 6SM TSRA BKN015CB FM080400 24005KT 6SM HZ SCT015 BKN200 FM081200 00000KT 6SM HZ SCT015 FM081800 20010KT 6SM HZ SCT030
MMPG,TAF MMPG 071715Z 0718/0818 12010KT 6SM HZ SCT030 BKN200 FM080400 13005KT 6SM HZ SCT020CB BKN100 BKN200 TEMPO 0805/0809 4SM TSRA OVC020CB FM081000 13005KT 6SM HZ BKN020 BKN080 TEMPO 0811/0815 3SM BR BKN010
MMPN,TAF MMPN 071633Z 0718/0818 20010KT 5SM HZ FU SCT020 FM080400 24005KT 6SM HZ SKC TEMPO 0811/0815 2SM BR BKN010 FM081800 24010KT 6SM HZ SCT020
MMPQ,TAF MMPQ 071658Z 0718/0818 03010KT 6SM HZ SCT030 TEMPO 0722/0802 6SM -RA BKN020CB FM080500 08005KT 6SM HZ SCT020 FM081800 08010KT 6SM HZ SCT020
MMPR,TAF MMPR 071607Z 0718/0818 22010KT P6SM SCT025 TX31/0718Z TN24/0812Z BECMG 0719/0720 BKN020 TEMPO 0722/0802 BKN015 OVC020 FM080300 05004KT P6SM BKN015 FM081500 24006KT P6SM SCT015
MMPS,TAF MMPS 071621Z 0718/0818 22010KT P6SM SCT020 SCT200 TEMPO 0722/0802 6SM -RA BKN015CB FM080400 22005KT 6SM HZ SCT015 BKN200 FM081800 20010KT 6SM HZ SCT020 BKN200
MMQT,TAF MMQT 071633Z 0718/0818 24010KT 6SM HZ SCT020 BECMG 0721/0722 BKN020CB TEMPO 0723/0803 5SM TSRA BKN015CB FM080500 30005KT 6SM HZ SCT020 BKN070 TEMPO 0812/0815 BKN015
MMRX,TAF MMRX 071715Z 0718/0818 13010KT 6SM HZ SCT030 BECMG 0721/0722 13015KT FM080500 13005KT 6SM HZ SCT020 BKN200 TEMPO 0812/0815 2SM BR SCT010
MMSD,TAF MMSD 071642Z 0718/0818 15010KT P6SM SCT200 FM080300 15005KT P6SM SCT200 BECMG 0806/0807 30005KT FM081800 14010KT P6SM SCT200
MMSL,TAF MMSL 071642Z 0718/0818 30010KT P6SM SCT200 FM080400 33005KT P6SM SCT200 FM081800 30010KT P6SM SKC
MMSM,TAF MMSM 071728Z 0718/0818 34010KT P6SM BKN025 BKN080 TX26/0721Z TN12/0812Z TEMPO 0722/0802 4SM TSRA BKN020CB FM080300 26004KT 6SM HZ SCT080 FM081600 04005KT 6SM HZ SKC
MMSP,TAF MMSP 071607Z 0718/0818 02008KT P6SM SCT025 SCT100 TX29/0721Z TN12/0812Z BECMG 0719/0720 03012KT FM072200 12012KT P6SM SCT025CB BKN080 BKN220 TEMPO 0722/0802 6SM -TSRA BKN020CB FM080300 15004KT P6SM SKC BECMG 0810/0811 6SM HZ TEMPO 0811/0815 4SM BR HZ FM081600 23006KT 6SM HZ SKC
MMTC,TAF MMTC 071633Z 0718/0818 35008KT P6SM SCT030 SCT100 BKN200 BECMG 0721/0722 P6SM VC RA SCT030CB TEMPO 0722/0802 VRB15G25KT 4SM BLDU FM080300 05010KT P6SM SCT200 BECMG 0805/0806 34004KT FM081600 02008KT P6SM SKC
MMTG,TAF MMTG 071724Z 0718/0818 16008KT 6SM HZ BKN025 BKN080 BECMG 0719/0720 26010KT TEMPO 0721/0801 4SM TSRA BKN025CB FM080200 30005KT 6SM HZ SCT015 SCT080 BECMG 0806/0807 3SM BR HZ BKN010 FM081400 16006KT 5SM HZ BKN015
MMTJ,TAF MMTJ 071553Z 0718/0818 25008KT P6SM BKN030 TX22/0721Z TN16/0807Z FM080300 30004KT 6SM HZ OVC030 TEMPO 0811/0815 4SM BR HZ BKN010 OVC030 FM081600 29005KT 6SM HZ BKN020
MMTM,TAF MMTM 071728Z 0718/0818 12012KT P6SM SCT015 SCT200 FM080300 13004KT 6SM HZ BKN015 TEMPO 0810/0814 4SM BR HZ FM081500 12010KT P6SM BKN020
MMTO,TAF MMTO 071728Z 0718/0818 19008KT 6SM HZ SCT020 SCT090 TX26/0721Z TN10/0811Z BECMG 0719/0720 6SM VC RA BKN020CB TEMPO 0721/0801 5SM TSRA FM080400 00000KT 5SM HZ SCT015 BKN080 TEMPO 0810/0814 2SM BR HZ BKN010 FM081500 29005KT 4SM HZ SCT020
MMTP,TAF MMTP 071724Z 0718/0818 24010KT P6SM SCT030 SCT090 BKN250 TX33/0719Z TN24/0811Z BECMG 0721/0722 P6SM VC RA SCT030CB TEMPO 0723/0803 5SM TSRA BKN030CB FM080300 02004KT 6SM -RA BKN020 BKN090 TEMPO 0807/0811 5SM TSRA BKN020CB FM081500 26006KT P6SM SCT025
MMUN,TAF MMUN 071724Z 0718/0818 15010KT 5SM -RA BKN015CB TX33/0718Z TN25/0810Z TEMPO 0719/0723 1SM TSRA BKN006 OVC010CB FM080100 19008KT 6SM -RA BKN015 BKN250 TEMPO 0810/0814 5SM -RA BKN010 FM081500 14008KT 6SM HZ BKN015
MMVA,TAF MMVA 071658Z 0718/0818 03010KT 6SM HZ SCT020 SCT100 TEMPO 0722/0802 BKN015CB FM080300 06005KT 5SM HZ SCT015 SCT070 TEMPO 0810/0814 2SM BR BKN010
MMVR,TAF MMVR 071728Z 0718/0818 07010KT 5SM HZ SCT015 TX33/0719Z TN25/0811Z FM080300 14004KT 5SM HZ SCT015 BECMG 0805/0806 3SM BR HZ BKN012 TEMPO 0811/0815 BKN012 OVC020 FM081600 09008KT 5SM HZ BKN020
MMZC,TAF MMZC 071607Z 0718/0818 32010KT P6SM SCT040 SCT120 TX27/0721Z TN14/0811Z TEMPO 0721/0801 BKN040 FM080300 23010KT P6SM SCT100 BECMG 0805/0806 20004KT FM081600 28008KT P6SM SKC
MMZH,TAF MMZH 071621Z 0718/0818 23010KT 6SM HZ SCT020 FM080100 24008KT 6SM HZ BKN020 FM081500 24005KT 6SM HZ SCT020
MMZO,TAF MMZO 071607Z 0718/0818 24012KT P6SM SCT020 TEMPO 0720/0724 25016KT FM080300 30004KT P6SM SCT015 TEMPO 0810/0814 4SM BR HZ BKN010 OVC020 FM081600 20006KT P6SM BKN020
MNBL,MNBL 071544Z 0718/0818 VRB06KT 9999/8000 -RA BKN018 BECMG 0721/0723 5000 -TSRA FEW017CB BKN020 BECMG 0803/0805 9999/8000 -RA BKN018
MNMG,MNMG 071544Z 0718/0818 VRB06KT 9999/8000 -RA/-TSRA FEW020CB BKN070 BECMG 0803/0806 6000 -TSRA BECMG 0810/0812 9999/8000 -RA SCT020 SCT070
MNPC,MNPC 071544Z 0718/0818 VRB06KT 6000 -RA/HZ BKN016TCU BECMG 0721/0723 5000 -TSRA FEW014CB BKN016 BECMG 0803/0805 7000 HZ/-RA BKN016
MPDA,TAF MPDA 071700Z 0718/0806 18005KT 9999 SCT016TCU SCT090 TEMPO 0721/0801 6000 TSRA SCT015CB BKN080 TEMPO 0802/0806 00000KT NSW
MPMG,TAF MPMG 071700Z 0718/0806 15005KT 9999 SCT016TCU PROB30 0719/0723 6000 TSRA SCT016CB BKN080 TEMPO 0802/0806 VRB02KT
MPPA,TAF MPPA 071700Z 0718/0824 18005KT 9999 SCT018TCU SCT090 PROB30 0719/0723 6000 TSRA SCT016CB BKN080 TEMPO 0802/0806 VRB02KT
MPSM,TAF MPSM 071700Z 0718/0824 19005KT 9999 SCT018TCU PROB30 0720/0724 6000 TSRA SCT016CB BKN080 TEMPO 0802/0806 VRB02KT
MPTO,TAF MPTO 071700Z 0718/0824 12005KT 9999 SCT016TCU SCT090 PROB30 0719/0723 6000 TSRA SCT016CB BKN080 TEMPO 0802/0806 VRB02KT
MRLB,MRLB 071700Z 0718/0818 14003KT 9999 SCT035 TX33/0719Z TN23/0811Z TEMPO 0719/0723 28007KT TSRA SCT020CB TEMPO 0800/0803 RA BKN030 TEMPO 0808/0814 VRB03KT BCFG SCT010 
MRLM,MRLM 071700Z 0718/0818 09007KT 9999 FEW030 SCT100 TX31/0720Z TN23/0811Z BECMG 0801/0803 23004KT BECMG 0814/0816 05006KT 
MROC,MROC 071700Z 0718/0818 24008KT 9999 SCT020 TX29/0718Z TN19/0811Z TEMPO 0719/0723 5000 TSRA SCT015CB BKN030 TEMPO 0800/0805 VRB02KT RA BCFG BKN015 BECMG 0805/0807 09006KT BECMG 0814/0816 24009KT 
MRPV,MRPV 071700Z 0718/0818 28008KT 9999 SCT030 TX28/0718Z TN18/0811Z TEMPO 0719/0722 5000 TSRA SCT015CB TEMPO 0723/0803 VRB02KT RA BCFG BKN015 BECMG 0803/0805 11005KT BECMG 0815/0817 29008KT 
MSLP,TAF MSLP 071540Z 0718/0818 22010KT 9999 SCT023 FEW037CB TX30/0719Z TN23/0811Z PROB40 TEMPO 0720/0723 7000 TSRA SCT020 SCT037CB FM080000 VRB04KT 9999 FEW020 FEW037CB SCT063 TEMPO 0808/0811 34006KT 6000 TSRA SCT020 SCT037CB SCT047 FM081100 03004KT 9999 SCT017 FM081500 17008KT 9999 FEW023
MSSS,TAF MSSS 071540Z 0718/0818 18010KT 9999 SCT020 FEW037CB TX29/0719Z TN22/0811Z TEMPO 0720/0723 21010KT 5000 TSRA SCT017 SCT033CB FM080000 21008KT 9999 SCT020 FEW037CB FM080700 03005KT 9999 SCT017 FM081500 34004KT 9999 FEW020
MTCH,TAF MTCH 071600Z 0718/0818 VRB02KT 9000 SCT024 BKN200 BECMG 0718/0720 01012KT PROB40 TEMPO 0722/0804 4800 TSRA SCT014CB BKN040 BECMG 0806/0810 VRB02KT 8000 NSW FEW018 TEMPO 0814/0818 05010KT
MTPP,TAF MTPP 071600Z 0718/0818 11014KT 8000 FEW028 OVC070 BECMG 0720/0722 30012KT PROB30 TEMPO 0723/0803 4800 SHRA SCT014CB SCT040 BECMG 0806/0810 VRB02KT 8000 NSW FEW018 SCT050 TEMPO 0812/0816 10012KT
MUCC,MUCC 071700Z 0718/0818 VRB05KT 9000 SCT020 BKN150 BECMG 0719/0721 17010KT TEMPO 0722/0803 4000 TSRA RA SCT016CB BKN020 TEMPO 0806/0814 VRB04KT PROB30 TEMPO 0815/0818 VRB10KT 4000 TSRA RA SCT015CB BKN020
MUCF,MUCF 071700Z 0718/0806 22008KT 9000 SCT020 TEMPO 0718/0722 5000 TSRA RA SCT018CB BKN025 BECMG 0723/0724 VRB04KT
MUCL,MUCL 071700Z 0718/0806 16006KT 9000 SCT020 TEMPO 0718/0722 FEW018CB TEMPO 0800/0806 7000 VCSH RA FEW018CB
MUCM,MUCM 071700Z 0718/0818 VRB05KT 9000 SCT020 BKN200 TEMPO 0718/0802 VRB10G20KT 2000 TSRA RA BKN015CB BKN020 TEMPO 0803/0806 6000 SHRA RA BKN025 TEMPO 0812/0816 6000 SHRA RA BKN025 PROB30 TEMPO 0817/0818 4000 TSRA RA SCT018CB BKN020
MUCU,MUCU 071700Z 0718/0818 VRB05KT 9000 SCT020 SCT080 TEMPO 0719/0722 FEW020CB BECMG 0723/0724 SCT020 BKN150 TEMPO 0800/0806 6000 SHRA RA SCT020CB SCT060 TEMPO 0809/0817 5000 TSRA RA SCT018CB BKN020
MUGM,TAF MUGM 0715/0815 VRB06KT 9999 FEW030 FEW060 BKN150 QNH2989INS BECMG 0716/0718 14009KT 9999 FEW030 FEW060 BKN150 QNH2985INS BECMG 0721/0723 14007KT 9999 VCSH SCT025 BKN060 BKN150 QNH2986INS FM080100 33006KT 9999 VCSH SCT025 BKN060 BKN150 QNH2991INS FM080500 32006KT 9000 -SHRA SCT020 BKN060 QNH2989INS TEMPO 0805/0809 29010G15KT 3200 TSRA FEW010 BKN020 BKN040 FM081200 33006KT 9999 FEW010 BKN040 BKN090 QNH2993INS TX31/0716Z TN23/0808Z FN20094
MUHA,MUHA 071700Z 0718/0818 19010KT 9000 SCT030 TEMPO 0722/0803 VRB12KT 4000 TSRA FEW018CB BKN025 BECMG 0804/0806 VRB03KT BECMG 0815/0817 18010KT
MUHG,MUHG 071700Z 0718/0818 VRB05KT 9000 SCT020 BKN200 TEMPO 0719/0802 VRB10G20KT 3000 TSRA RA BKN015CB BKN020 TEMPO 0803/0806 6000 SHRA RA BKN025 BECMG 0813/0815 16010KT PROB30 TEMPO 0816/0818 5000 TSRA RA SCT018CB BKN020
MUSC,MUSC 071700Z 0718/0818 VRB05KT 9000 BKN020 TEMPO 0718/0802 4000 TSRA SCT016CB BECMG 0803/0806 SCT030 BKN200 BECMG 0813/0815 BKN020 PROB30 TEMPO 0816/0818 VRB10KT 3000 TSRA RA SCT015CB
MUVR,MUVR 071700Z 0718/0818 VRB05KT 9000 SCT020 TEMPO 0719/0801 VRB10KT 4000 TSRA RA SCT018CB BKN020 PROB30 TEMPO 0816/0818 VRB10KT 4000 TSRA RA SCT018CB BKN020
MWCB,TAF MWCB 071700Z 0718/0818 15003KT 9999 SCT018 BECMG 0721/0724 16010KT 7000 SHRA SCT014 SCT030
MWCR,TAF MWCR 071700Z 0718/0818 15003KT 9999 SCT018 BECMG 0721/0724 16010KT 7000 SHRA SCT014 SCT030
MYGF,MYGF 071630Z 0718/0818 20008KT 9999 SHRA SCT015CB SCT018 BKN100 PROB40 TEMPO 0721/0805 20010G20KT 4800 TSRA BKN016CB
MYNN,MYNN 071630Z 0718/0818 20010G20KT 9000 RA FEW015CB SCT017 OVC100 PROB40 TEMPO 0800/08002 4800 TSRA SCT015CB BKN030
MZBZ,TAF MZBZ 071100Z 0712/0812 VRB02KT 9999 SCT023 BECMG 0715/0717 12005KT
NCRG,TAF NCRG 071708Z 0718/0818 12007KT 9999 SCT030
NFFN,TAF NFFN 071708Z 0718/0818 12005KT 9999 -SHRA FEW025 SCT050 BKN100 TEMPO 0718/0724 5000 SHRA BKN015 BECMG 0722/0724 36010KT PROB40 TEMPO 0800/0806 5000 TSRA FEW018CB FM080600 18005KT 9999 FEW030
NFNA,TAF NFNA 071711Z 0718/0818 VRB03KT 9999 -SHRA SCT020 SCT040 BKN100 TEMPO 0718/0806 5000 TSRA FEW018CB
NFTF,TAF NFTF 071709Z 0718/0818 03006KT 9999 -SHRA SCT016 BKN050 OVC100 TEMPO 0718/0812 3000 TSRA BKN012 FEW018CB
NFTV,TAF NFTV 071713Z 0718/0818 36006KT 9999 -SHRA SCT018 BKN035 PROB40 TEMPO 0718/0818 5000 TSRA BKN015 FEW018CB
NGFU,TAF NGFU 071713Z 0718/0818 09005KT 9999 SCT018
NGTA,TAF NGTA 071711Z 0718/0818 06008KT 9999 FEW020 PROB40 TEMPO 0718/0806 5000 TSRA FEW018CB
NIUE,TAF NIUE 071113Z 0712/0812 06009KT 9999 -SHRA SCT018 SCT030 BKN100 PROB40 TEMPO 0712/0803 5000 TSRA BKN015 FEW018CB TEMPO 0803/0812 3000 TSRA BKN015 FEW018CB
NLWF,TAF NLWF 071700Z 0718/0818 05006KT 9999 SCT020 BKN030 TEMPO 0718/0724 3500 SHRA BKN014 SCT018TCU PROB30 TEMPO 0718/0720 1200 TSRA BKN009 SCT015CB BECMG 0721/0724 18010KT BECMG 0806/0808 07005KT
NLWW,TAF NLWW 071700Z 0718/0818 VRB02KT 9999 SCT020 TEMPO 0718/0722 4000 SHRA SCT018TCU BKN020 PROB40 TEMPO 0722/0803 SHRA
NSFA,TAF NSFA 071710Z 0718/0818 06005KT 9999 SCT020 SCT050 PROB40 TEMPO 0718/0806 5000 TSRA FEW018CB
NSTU,NSTU 071739Z 0718/0818 09012KT P6SM VCSH SCT015 SCT035 BKN090 FM080500 VRB05KT P6SM SHRA SCT015 BKN040 OVC100
NTAA,TAF NTAA 071100Z 0712/0818 VRB04KT 9999 FEW025 SCT050
NVSC,TAF NVSC 071700Z 0718/0818 VRB03KT 9999 BKN020 OVC110 INTER 0718/0724 8000 SHRA SCT010 BKN018 OVC100
NVSG,TAF NVSG 071700Z 0718/0818 15005KT 9999 SCT020 BKN120 INTER 0718/0724 9000 SHRA FEW012 BKN018
NVSL,TAF NVSL 071700Z 0718/0818 VRB03KT 9999 SCT020
NVSP,TAF NVSP 071700Z 0718/0818 VRB03KT 9999 SCT020
NVSS,TAF NVSS 071700Z 0718/0818 15010KT 9999 SCT020 BKN120 INTER 0718/0724 9000 SHRA FEW012 BKN018
NVVA,TAF NVVA 071700Z 0718/0818 VRB03KT 9999 SCT020
NVVV,TAF NVVV 071700Z 0718/0818 VRB03KT 9999 SCT020
NVVW,TAF NVVW 071700Z 0718/0818 VRB03KT 9999 SCT020
NWWD,TAF NWWD 071700Z 0718/0818 07005KT 9999 FEW055 PROB30 TEMPO 0718/0720 3500 MIFG BECMG 0722/0801 17010KT BECMG 0806/0808 VRB02KT
NWWE,TAF NWWE 071700Z 0718/0818 17006KT 9999 SCT030 SCT050 PROB30 TEMPO 0718/0720 SHRA TEMPO 0805/0818 4000 SHRA
NWWK,TAF NWWK 071700Z 0718/0818 05005KT 9999 FEW065 BECMG 0722/0801 17012KT BECMG 0807/0810 11004KT
NWWL,TAF NWWL 071700Z 0718/0818 16006KT 9999 SCT025 SCT060 PROB40 TEMPO 0718/0724 3500 SHRA
NWWM,TAF NWWM 071700Z 0718/0818 33005KT 9999 FEW030 SCT065 TEMPO 0718/0720 SHRA BECMG 0722/0801 16010KT BECMG 0806/0809 VRB02KT PROB40 TEMPO 0808/0818 SHRA
NWWR,TAF NWWR 071700Z 0718/0818 VRB02KT 9999 SCT035 SCT060 PROB30 TEMPO 0718/0721 4000 SHRA BECMG 0722/0724 18010KT BECMG 0806/0808 VRB02KT
NWWU,TAF NWWU 071700Z 0718/0818 18004KT 9999 FEW055 BECMG 0722/0801 12010KT BECMG 0806/0808 19004KT
NWWW,TAF NWWW 071700Z 0718/0818 VRB02KT 9999 SCT055 PROB40 TEMPO 0718/0720 SHRA BECMG 0722/0724 17010KT BECMG 0806/0808 VRB02KT PROB30 TEMPO 0812/0818 SHRA
NZAA,TAF NZAA 071701Z 0718/0900 16010KT CAVOK
NZCH,TAF NZCH 071701Z 0718/0900 VRB02KT 9999 BKN016 FM072300 05010KT 9999 FEW018 BECMG 0807/0809 24005KT PROB40 0808/0821 0500 FG
NZQN,TAF NZQN 071701Z 0718/0812 04008KT 0500 FZFG BKN001 BECMG 0721/0723 9999 NSW SKC BECMG 0801/0803 24010KT BECMG 0805/0807 04005KT PROB40 0811/0812 0500 FG
NZWN,TAF NZWN 071701Z 0718/0900 16008KT 9999 SCT030
OBBI,TAF OBBI 071700Z 0718/0900 VRB05KT CAVOK
OEAB,TAF OEAB 071100Z 0712/0818 20006KT 9999 SCT020 TEMPO 0712/0718 4000 TSRA FEW025CB BECMG 0720/0722 35004KT FEW020 BECMG 0806/0808 02010KT
OEAH,TAF OEAH 071000Z 0712/0818 06012KT CAVOK BECMG 0718/0720 12006KT BECMG 0800/0802 24008KT
OEAO,TAF OEAO 071100Z 0712/0818 28016KT 7000 NSC TEMPO 0712/0718 3000 BLDU BECMG 0720/0722 01010KT BECMG 0808/0810 33011KT 9999 FEW040
OEBA,TAF OEBA 071100Z 0712/0818 19014KT 9999 SCT030 TEMPO 0712/0722 VRB25KT 3000 TSRA FEW025CB BKN030 BECMG 0806/0808 01012KT
OEBH,TAF OEBH 071100Z 0712/0818 36012KT 7000 SCT030 TEMPO 0712/0722 VRB25KT 3000 TSRA FEW025CB BKN030 BECMG 0722/0800 27008KT 9999 FEW030 BECMG 0806/0808 01010KT 7000 NSC
OEDF,TAF OEDF 071615Z 0718/0824 VRB03KT CAVOK BECMG 0808/0810 05013KT
OEDM,TAF OEDM 071100Z 0712/0818 27012KT 7000 FEW040 PROB30 TEMPO 0712/0720 3000 BLDU BECMG 0800/0802 36010KT
OEDR,TAF OEDR 071000Z 0712/0818 06012KT CAVOK BECMG 0718/0720 27005KT BECMG 0800/0802 26008KT
OEGN,TAF OEGN 071100Z 0712/0818 30010KT 7000 SCT030 PROB30 TEMPO 0712/0720 4000 TSRA FEW035CB BECMG 0718/0720 VRB03KT BECMG 0806/0808 324012KT
OEGS,TAF OEGS 071100Z 0712/0818 27012KT 7000 FEW040 PROB30 TEMPO 0712/0720 3000 BLDU BECMG 0720/0722 34008KT BECMG 0806/0808 30014KT 
OEGT,TAF OEGT 071100Z 0712/0818 30014KT 9999 FEW030 BECMG 0800/0802 28006KT BECMG 0808/0810 31014KT SCT040 TEMPO 0808/0818 VRB24KT 4000 BLDU FEW035CB
OEHL,TAF OEHL 071100Z 0712/0818 29014KT 8000 FEW040 BECMG 0718/0720 34008KT BECMG 0806/0808 33015KT
OEJN,TAF OEJN 071700Z 0718/0824 36005KT 7000 FEW030 BECMG 0806/0808 32014KT CAVOK BECMG 0818/0820 01006KT 7000 FEW030
OEKJ,TAF OEKJ 071100Z 0712/0818 33010KT 7000 FEW040 BECMG 0720/0722 VRB03KT CAVOK BECMG 0804/0806 19010KT 7000 FEW040 PROB30 TEMPO 0804/0812 VRB20KT 4000 BLDU FEW035CB
OEKM,TAF OEKM 071100Z 0712/0818 20006KT 9999 SCT020 TEMPO 0712/0718 4000 TSRA FEW025CB BECMG 0720/0722 35004KT FEW020 BECMG 0806/0808 02010KT
OEMA,TAF OEMA 071700Z 0718/0824 28005KT CAVOK BECMG 0806/0808 36005KT
OENG,TAF OENG 071100Z 0712/0818 03012KT 7000 NSC BECMG 0800/0802 VRB03KT CAVOK BECMG 0806/0808 06012KT
OEPA,TAF AMD OEPA 071400Z 0714/0818 24010KT CAVOK PROB30 TEMPO 0714/0800 VRB25KT 2000 TS BLDU FEW030CB BECMG 0720/0722 18008KT
OEPS,TAF OEPS 071700Z 0717/0823 VRB06KT 9999 SKC QNH2982INS BECMG 0808/0809 30010G20KT 8000 HZ SCT150 QNH2983INS BECMG 0815/0816 33009KT 9999 NSW SKC QNH2980INS TX43/0812Z TN26/0802Z
OERF,TAF OERF 071100Z 0712/0818 27016KT 7000 NSC TEMPO 0712/0802 3000 BLDU BECMG 0804/0806 31010KT
OERK,TAF OERK 071700Z 0718/0824 28006KT 7000 SCT040 TEMPO 0718/0801 VRB26KT 3000 BLDU FEW030CB BECMG 0802/0804 18008KT BECMG 0808/0810 33013KT 7000 NSC
OERR,TAF OERR 071100Z 0712/0818 27014KT 7000 SCT040 PROB40 TEMPO 0712/0722 VRB20KT 3000 BLDU TSRA FEW035CB BECMG 0800/0802 01010KT
OESH,TAF OESH 071100Z 0712/0818 01014KT 7000 NSC PROB30 TEMPO 0712/0720 3000 BLDU BECMG 0720/0722 13008KT CAVOK BECMG 0806/0808 01012KT 7000 NSC
OESK,TAF OESK 071100Z 0712/0818 28018KT 7000 NSC PROB40 TEMPO 0712/0718 3000 BLDU BECMG 0716/0718 29006KT BECMG 0806/0808 33012KT CAVOK
OETB,TAF OETB 071100Z 0712/0818 30012KT 7000 FEW040 BECMG 0720/0722 VRB03KT CAVOK BECMG 0806/0808 34010KT SCT040 PROB30 TEMPO 0812/0818 FEW035CB
OETF,TAF OETF 071100Z 0712/0818 29012KT 9999 SCT030 SCT080 TEMPO 0712/0722 VRB25KT 4000 TSRA FEW025CB BKN030 BECMG 0806/0808 04012KT
OETR,TAF OETR 071100Z 0712/0818 27010KT CAVOK BECMG 0722/0800 VRB03KT BECMG 0806/0808 27010KT 9999 FEW040
OEWD,TAF OEWD 071100Z 0712/0818 01012KT 7000 FEW040 BECMG 0721/0723 VRB03KT 9999 BECMG 0806/0808 18010KT CAVOK
OEWJ,TAF OEWJ 071100Z 0712/0818 30012KT CAVOK BECMG 0718/0720 36004KT BECMG 0806/0808 30012KT
OEYN,TAF OEYN 071100Z 0712/0818 28018KT 7000 NSC PROB30 TEMPO 0712/0718 3000 BLDU BECMG 0718/0720 36006KT BECMG 0804/0806 27016KT
OIAA,TAF OIAA 071730Z 0718/0824 07008KT 8000 NSC PROB30 TEMPO 0800/0804 5000 HZ TEMPO 0809/0815 27020KT 4000 SA FEW040 SCT100
OIAW,TAF OIAW 071730Z 0718/0824 28008KT 8000 NSC PROB30 TEMPO 0800/0804 5000 HZ BECMG 0808/0810 28014KT TEMPO 0810/0816 28016G24KT 3000 SA FEW035 SCT100 BECMG 0818/0820 32010KT
OIBB,TAF OIBB 071730Z 0718/0803 35008KT CAVOK TEMPO 0718/0721 28014KT
OIBK,TAF OIBK 071730Z 0718/0824 28008KT 4000 BR NSC TEMPO 0720/0804 2000 BR/HZ FEW025 PROB30 TEMPO 0800/0804 0700 FG BKN010 BECMG 0805/0807 28010KT 6000 TEMPO 0809/0818 25018G26KT 3000 SA
OIBP,TAF OIBP 071730Z 0718/0803 32006KT CAVOK PROB40 TEMPO 0801/0803 4000 HZ
OICC,TAF OICC 071730Z 0718/0803 26008KT CAVOK
OICI,TAF OICI 071730Z 0718/0824 04008KT 8000 NSC TEMPO 0807/0817 32020G26KT 3000 SA/DU FEW035CB SCT040 BKN100 PROB40 TEMPO 0808/0812 32028KT 3000 TS -RA SA SCT035CB SCT040 BKN090
OIFM,TAF OIFM 071730Z 0718/0824 31008KT 8000 TS SCT035CB BKN090 BECMG 0718/0720 FEW035CB SCT040 BKN100 TEMPO 0802/0805 TS SCT035CB SCT040 BKN100 PROB30 4000 -RA TEMPO 0806/0816 13020KT 3000 TSRA SCT030CB SCT035 BKN090 PROB30 TEMPO 0811/0815 26020KT 1500 TSRA SCT030CB SCT035 BKN090 BECMG 0817/0819 FEW035 BKN100
OIGG,TAF OIGG 071730Z 0718/0803 34006KT 5000 RA BR FEW020CB SCT025 BKN070 TEMPO 0718/0803 2000 TSSHRA BR BKN005 SCT015CB OVC060 PROB40 0721/0803 1000 BR OVC003
OIIE,TAF OIIE 071730Z 0718/0824 31016KT 7000 FEW035CB SCT040 BKN100 TEMPO 0718/0721 31015G25KT 4000 TSRA SCT030CB SCT035 OVC090 PROB40 0721/0803 32026KT BECMG 0802/0804 30010KT FEW035 SCT100 BECMG 0810/0811 12006KT FEW035CB SCT040 BKN100 TEMPO 0811/0815 12016G26KT 4000 TSRA SA SCT030CB SCT035 OVC100 BECMG 0815/0816 32016KT 5000 RA TEMPO 0816/0823 32020G30KT 3000 TSRA SA SCT030CB SCT035 OVC100 BECMG 0823/0824 7000
OIII,TAF OIII 071730Z 0718/0824 27010KT 7000 FEW035CB SCT040 BKN100 TEMPO 0718/0722 31015G25KT 5000 TSRA SCT030CB SCT035 OVC090 PROB40 0722/0802 5000 RA BECMG 0802/0804 09008KT FEW035 SCT100 BECMG 0808/0809 FEW035CB SCT040 BKN100 TEMPO 0809/0813 12020G30KT 3000 TSRA SA SCT030CB SCT035 BKN100 BECMG 0813/0814 5000 RA TEMPO 0814/0818 31020G30KT 3000 TSRA SA SCT030CB SCT035 BKN100 TEMPO 0818/0821 03018KT 3000 TSRA SCT030CB SCT035 BKN100
OIIP,TAF OIIP 071730Z 0718/0803 34012KT 7000 FEW035CB SCT040 BKN100 TEMPO 0718/0803 29014G24KT PROB40 TEMPO 0718/0721 4000 TSSHRA SCT020 SCT035CB OVC090
OIKB,TAF OIKB 071730Z 0718/0824 27008KT 6000 NSC BECMG 0719/0721 3000 HZ/BR BKN020 BECMG 0804/0806 01010KT 6000 TEMPO 0808/0816 20016G24KT 3000 SA TEMPO 0820/0824 3000 HZ/BR FEW035CB SCT040 BKN090
OIKK,TAF OIKK 071730Z 0718/0824 35008KT 8000 FEW035CB SCT040 BKN100 TEMPO 0718/0720 TS -RA SCT035CB SCT040 BKN100 BECMG 0722/0724 FEW040 BKN100 TEMPO 0800/0805 FEW035TCU SCT100 BECMG 0805/0807 FEW035CB SCT040 BKN100 TEMPO 0808/0816 22016KT 4000 TSRA PROB30 28020KT 4000 SA
OIMM,TAF OIMM 071730Z 0718/0824 24008KT 7000 FEW035TCU SCT100 PROB40 0721/0804 FEW035CB SCT040 BKN100 BECMG 0806/0808 09010KT FEW035CB SCT040 BKN100 TEMPO 0809/0815 09015G25KT 4000 SA TSRA SCT030CB SCT035 BKN090 BECMG 0815/0817 18008KT
OING,TAF OING 071730Z 0718/0803 26008KT 3000 RA BR BKN020 FEW025CB OVC070 PROB40 TEMPO 0718/0721 TS TEMPO 0721/0803 20014KT 1000 TSSHRA BR BKN010 SCT025CB OVC070
OINZ,TAF OINZ 071730Z 0718/0803 24006KT 3000 RA BR BKN010 FEW025CB OVC080 PROB40 TEMPO 0718/0721 TS TEMPO 0721/0803 1500 TSSHRA BR BKN005 SCT015CB OVC070
OISL,TAF OISL 071730Z 0718/0824 18008KT 8000 NSC BECMG 0808/0810 28014KT TEMPO 0810/0819 28018G28KT 4000 SA FEW035 BECMG 0820/0822 28008KT
OISS,TAF OISS 071730Z 0718/0824 32008KT 8000 FEW040 BKN100 TEMPO 0808/0818 28020G32KT 4000 SA FEW035CB SCT040 BKN090 PROB30 TS TEMPO 0818/0821 28016KT FEW040CB SCT040 BKN100
OITL,TAF OITL 071730Z 0718/0803 06012KT 6000 SCT005 FEW040CB BKN080 TEMPO 0718/0721 2000 TSSHRA BR/DZ BKN005 SCT035CB OVC080 TEMPO 0721/0803 0500 FG/DZ OVC003
OITR,TAF OITR 071730Z 0718/0824 36008KT 7000 FEW035CB SCT040 BKN100 TEMPO 0718/0724 36018KT 4000 TSRA SCT030CB SCT035 BKN090 TEMPO 0800/0804 4000 BR TEMPO 0809/0815 03018KT 5000 TSRA SCT030CB SCT035 BKN090 BECMG 0816/0818 FEW035 SCT100
OITT,TAF OITT 071730Z 0718/0824 05016KT 5000 RA FEW030CB SCT035 BKN100 TEMPO 0718/0721 05016G26KT 3000 TSRA SCT030CB SCT035 OVC090 BECMG 0721/0722 05006KT 6000 FEW030 SCT100 BECMG 0805/0806 09014KT FEW030CB SCT035 BKN100 TEMPO 0809/0814 09024KT 5000 TSRA SCT030CB SCT035 BKN090 TEMPO 0814/0818 09024KT BECMG 0818/0820 09008KT FEW030 SCT100 PROB40 0820/0824 09018KT
OIYY,TAF OIYY 071730Z 0718/0803 28008KT 5000 DU HZ FEW035CB SCT040 BKN100 TEMPO 0718/0721 16016G26KT 1500 TS SA/DU BECMG 0723/0801 7000 FEW040 SCT100
OIZH,TAF OIZH 071730Z 0718/0824 01008KT 8000 FEW040 SCT100 TEMPO 0806/0810 03016G24KT 4000 SA/DU FEW035TCU TEMPO 0810/0818 16018KT FEW035CB SCT040 BKN100 PROB40 TEMPO 0814/0818 TS -RA FEW035CB SCT040 BKN100 TEMPO 0818/0824 FEW035TCU SCT100
OJAI,TAF OJAI 071700Z 0718/0824 31012KT 5000 HZ NSC PROB40 TEMPO 0809/0818 25020KT 2000 BLDU
OJAM,TAF OJAM 071700Z 0718/0824 26010KT 5000 HZ NSC PROB40 TEMPO 0809/0818 26016KT 3000 BLDU
OJAQ,TAF OJAQ 071700Z 0718/0824 36010KT 5000 HZ NSC TEMPO 0809/0815 18012KT PROB40 0809/0818 35018KT 3000 BLDU PROB30 0815/0821 4000 -RA BKN080
OKAS,TAF OKAS 071601Z 0716/0822 22015G25KT 9999 VCTS SCT140CB QNH2960INS BECMG 0717/0718 27015KT 9999 NSW SCT150 QNH2963INS BECMG 0720/0721 VRB06KT 9999 SCT140 QNH2963INS BECMG 0805/0806 22015G25KT 6000 HZ SCT150 SCT330 QNH2967INS BECMG 0812/0813 25012KT 9999 NSW SCT160 QNH2956INS TX45/0811Z TN29/0800Z
OLBA,TAF OLBA 071600Z 0718/0824 VRB03KT 8000 NSC BECMG 0806/0808 35012KT BECMG 0820/0822 VRB03KT CAVOK
OMAA,TAF OMAA 071700Z 0718/0900 30005KT 8000 NSC BECMG 0720/0722 14006KT BECMG 0806/0808 32015KT BECMG 0818/0820 14005KT
OMAD,TAF OMAD 071700Z 0718/0900 VRB02KT 8000 NSC BECMG 0720/0722 14005KT BECMG 0806/0808 32012KT BECMG 0818/0820 14005KT
OMAL,TAF OMAL 071700Z 0718/0900 36007KT 8000 NSC BECMG 0719/0721 08005KT BECMG 0723/0801 14006KT BECMG 0806/0808 30012KT BECMG 0818/0820 08006KT
OMDB,TAF OMDB 071700Z 0718/0900 17005KT CAVOK BECMG 0805/0807 28012KT BECMG 0818/0820 VRB02KT
OMDW,TAF OMDW 071700Z 0718/0900 17005KT 7000 NSC BECMG 0805/0807 29013KT BECMG 0818/0820 VRB02KT
OMFJ,TAF OMFJ 071700Z 0718/0900 29008KT 8000 NSC BECMG 0805/0807 06010KT BECMG 0814/0816 29014KT
OMRK,TAF OMRK 071700Z 0718/0900 12005KT CAVOK BECMG 0806/0808 28012KT BECMG 0818/0820 VRB02KT
OMSJ,TAF OMSJ 071700Z 0718/0900 17005KT 8000 NSC BECMG 0806/0808 28012KT BECMG 0818/0820 VRB02KT
OODQ,TAF OODQ 071700Z 0718/0818 22018KT 7000 NSC PROB40 TEMPO 0723/0803 4000 BR BKN010 BECMG 0810/0812 14012KT BECMG 0814/0816 20020KT
OOMS,TAF OOMS 071700Z 0718/0824 VRB02KT 8000 NSC BECMG 0720/0722 21017KT BECMG 0806/0808 06012KT BECMG 0816/0818 VRB02KT
OOSA,TAF OOSA 071740Z 0718/0900 VRB03KT 9999 FEW025 BECMG 0806/0808 20012KT BECMG 0818/0820 VRB03KT
OOSH,TAF OOSH 071700Z 0718/0824 VRB02KT 8000 NSC BECMG 0804/0806 05012KT BECMG 0815/0817 VRB02KT BECMG 0821/0823 25008KT
OPFA,TAF OPFA 071700Z 0718/0824 11006KT 4000 FU NSC TX38/0810Z TN24/0800Z FM080500 15008KT 6000 NSC FM081600 09004KT 4000 FU FEW100
OPGD,TAF OPGD 071700Z 0718/0818 23010KT 6000 SCT030 TEMPO 0800/0804 VRB03KT 3000 HZ SCT030 FM080600 23008G18KT 6000 SCT030
OPIS,TAF OPIS 071720Z 0718/0824 09010KT 5000 HZ FEW040 SCT100 TEMPO 0721/0802 3000 FU NSC TEMPO 0806/0815 11015G25KT 6000 FEW040
OPKC,TAF OPKC 071700Z 0718/0824 24012KT 6000 BKN030 FM080600 25010G20KT 6000 SCT030 BECMG 0819/0821 25010KT 6000 BKN030
OPLA,TAF OPLA 071700Z 0718/0824 36005KT 6000 NSC TX38/0810Z TN23/0723Z FM072200 03005KT 4000 FU NSC TEMPO 0808/0814 33015G30KT 2000 TSRA FEW030CB SCT040 BKN100
OPMT,TAF OPMT 071700Z 0718/0824 23010KT 4000 FU SCT100 TN25/0801Z TX39/0810Z TEMPO 0800/0804 36025KT 2000 - TSRA FEW030CB SCT040 BKN100 TEMPO 0811/0815 36025G40KT 0800 DSTS/RA FEW030CB SCT040 BKN100
OPNH,TAF OPNH 071700Z 0718/0824 19010KT 5000 HZ NSC FM080600 18010G20KT 6000 NSC BECMG 0816/0818 17007KT 4000 HZ NSC
OPPS,TAF OPPS 071700Z 0718/0824 18008KT 5000 HZ NSC BECMG 0800/0802 05008KT 6000 TEMPO 0810/0815 13010G20KT FEW040TCU BECMG 0815/0817 18006KT 5000 HZ
OPSK,TAF OPSK 071700Z 0718/0818 14008KT 4000 HZ FEW030 SCT100 FM080500 18012KT 5000 HZ NSC
OPST,TAF OPST 071700Z 0718/0824 05007KT 4000 FU FEW040 TX33/0810Z TN21/0800Z PROB30 TEMPO 0802/0806 05015G25KT 2500 -TSRA FEW030CB SCT040 BKN100
ORBI,TAF ORBI 071600Z 0718/0818 20010KT 6000 -TSSHRA FEW025 CB SCT030 BECM G 0721/0723 NSC
ORER,TAF ORER 071700Z 0718/0818 25006KT 8000 NSC BECMG 0721/0723 04004KT BECMG 0802/0804 VRB02KT
ORMM,TAF ORMM 071600Z 0718/0818 32006KT 8000 NSC TEMPO 0722/0805 VRB03KT 5 000 HZ 
ORSU,TAF ORSU 071700Z 0718/0818 30006KT CAVOK BECMG 0808/0810 9999 SCT045 SCT080
OSAP,TAF OSAP 0718/0818 VRB03KT CAVOK BECMG 0806/0809 27015KT 9999 FEW030
OSDI,TAF OSDI 0718/0824 21010KT 8000 FEW030 TEMPO 0812/0818 24015G25KT 8000 FEW030
OSLK,OSLK 0718/0818 17010KT 9999 SCT030
OTBD,TAF OTBD 071705Z 0718/0824 31006KT 8000 NSC TEMPO 0719/0806 25008KT BECMG 0810/0812 07010KT BECMG 0814/0816 13010KT
OTBH,TAF OTBH 071600Z 0716/0822 34010G15KT 8000 HZ FEW250 QNH2960INS BECMG 0718/0719 VRB06KT 9999 NSW SKC QNH2960INS TEMPO 0719/0722 34010G15KT BECMG 0800/0801 26010G15KT 9999 SKC QNH2961INS TEMPO 0812/0816 10015G25KT TX43/0812Z TN26/0801Z
OTHH,TAF OTHH 071704Z 0718/0824 31006KT 8000 NSC TEMPO 0719/0806 25010KT BECMG 0810/0812 07010KT BECMG 0814/0816 13010KT
PAAQ,PAAQ 071737Z 0718/0818 VRB06KT P6SM VCSH SCT070 OVC090 FM072100 15012KT P6SM OVC080 FM080000 15012G22KT P6SM VCSH OVC070 FM080800 13010KT P6SM -RA SCT040 OVC060
PABE,PABE 071738Z 0718/0818 09010KT P6SM VCSH BKN050 FM081200 05005KT P6SM OVC050
PABI,TAF PABI 071400Z 0714/0820 VRB06KT 9999 SCT065 510032 QNH2967INS BECMG 0819/0820 18010G15KT 9999 FEW045 SCT065 BKN090 520022 QNH2967INS TX21/0801Z TN11/0812Z
PABR,PABR 071741Z 0718/0818 08010KT 1SM BR OVC003 FM071900 10010KT P6SM SCT007 BKN050 FM080800 07010KT 1/2SM FG OVC003
PABT,PABT 071741Z 0718/0818 VRB06KT P6SM BKN100 FM072000 VRB03KT P6SM -SHRA VCTS SCT050CB BKN100 FM080600 02005KT P6SM BKN100
PACD,PACD 071738Z 0718/0818 14012KT P6SM VCSH BKN006 TEMPO 0718/0722 5SM BR OVC003 FM072200 14013KT P6SM VCSH SCT006 OVC015 TEMPO 0812/0816 -RA BKN007
PACV,PACV 071737Z 0718/0818 09005KT P6SM -RA SCT015 OVC035 FM080200 11012G20KT 5SM -RA SCT015 BKN025 FM080800 10011KT 2SM -RA BR OVC015
PADL,PADL 071738Z 0718/0818 06008KT P6SM OVC050 FM081000 02005KT P6SM VCSH BKN050
PADQ,PADQ 071737Z 0718/0818 03007KT 6SM BR SCT006 OVC010 TEMPO 0718/0720 3SM -RA BR BKN006 FM080200 04010KT 5SM BR VCSH SCT006 BKN015 FM081000 36010KT 3SM -SHRA BR BKN006
PADU,PADU 071738Z 0718/0818 13005KT P6SM VCSH FEW009 OVC025 FM080300 14007KT P6SM -SHRA OVC015
PAED,TAF PAED 071300Z 0713/0819 02007KT 9999 -SHRA FEW035 BKN060 OVC100 620608 520106 QNH2978INS TEMPO 0717/0723 9000 -RA FEW020 SCT030 BKN045 BECMG 0803/0804 04007KT 9999 -SHRA FEW030 SCT045 BKN060 BKN100 620605 540408 QNH2969INS TX14/0803Z TN08/0714Z
PAEI,TAF PAEI 071400Z 0714/0820 15009KT 9999 FEW200 QNH2970INS BECMG 0723/0724 23012G18KT 9999 VCTS FEW030 SCT050CB QNH2963INS TEMPO 0804/0807 VRB20G30KT 8000 -TSRA BKN050CB BECMG 0808/0809 15009KT 9999 NSW BKN070 QNH2965INS TX25/0802Z TN06/0812Z
PAEN,PAEN 071737Z 0718/0818 03015KT P6SM -RA SCT045 OVC060 FM072200 03015KT P6SM VCSH SCT060 OVC080 FM080600 03010KT P6SM -RA SCT040 OVC060 FM080900 02015KT 6SM -RA BR SCT030 OVC040
PAFA,PAFA 071741Z 0718/0824 VRB05KT P6SM FEW080 SCT100 BKN200 FM072300 VRB05KT P6SM VCTS SCT050CB BKN100 FM080600 07002KT P6SM SCT150 FM081800 11004KT P6SM BKN100
PAFB,TAF PAFB 071400Z 0714/0820 VRB06KT 9999 SCT100 BKN200 QNH2966INS TX27/0801Z TN14/0714Z
PAGA,PAGA 071741Z 0718/0818 06006KT P6SM VCSH BKN060 BKN100 FM080000 VRB06KT P6SM VCTS BKN050CB BKN100 FM080600 VRB03KT P6SM SCT250 AMD NOT SKED
PAGK,PAGK 071737Z 0718/0818 16008KT P6SM BKN200 FM072300 16012G18KT P6SM SCT080 BKN120 FM080700 15005KT P6SM VCSH SCT040 BKN070
PAGS,PAGS 071722Z 0718/0818 VRB04KT P6SM OVC050 FM080600 32002KT P6SM SCT250 AMD LTD TO CLD VIS AND WIND
PAGY,PAGY 071722Z 0718/0818 21010KT P6SM OVC050 FM080600 21002KT P6SM BKN100 AMD LTD TO CLD VIS AND WIND
PAHN,PAHN 071722Z 0718/0818 20005KT P6SM OVC050 FM072100 13010KT P6SM BKN050 FM080900 32006KT P6SM BKN100 AMD NOT SKED
PAHO,PAHO 071737Z 0718/0818 VRB05KT P6SM -RA OVC060 FM072200 23008KT P6SM -RA OVC045 FM081100 VRB04KT 6SM -RA BR OVC035
PAIL,PAIL 071738Z 0718/0818 08006KT P6SM OVC040 FM072100 11010KT P6SM VCSH BKN050 FM081000 06004KT P6SM -SHRA BKN050
PAJN,PAJN 071722Z 0718/0818 24005KT P6SM FEW035 BKN060 BKN250 FM080600 08003KT P6SM SCT250
PAKN,PAKN 071738Z 0718/0818 10011KT P6SM BKN100 FM080000 10012G20KT P6SM OVC050 FM081500 04005KT P6SM VCSH OVC050
PAKT,PAKT 071722Z 0718/0818 30005KT P6SM SKC
PAKW,PAKW 071722Z 0718/0818 VRB04KT P6SM SCT250 AMD LTD TO CLD VIS AND WIND
PAMC,PAMC 071741Z 0718/0818 VRB06KT P6SM SCT060 BKN100
PANC,PANC 071737Z 0718/0824 VRB04KT P6SM FEW015 SCT040 BKN070 FM080100 28007KT P6SM -RA SCT030 OVC050 FM080600 VRB05KT P6SM VCSH SCT040 OVC060 FM081100 VRB04KT P6SM -RA SCT030 OVC050 FM082200 16012KT P6SM SCT030 OVC040
PAOM,PAOM 071741Z 0718/0818 VRB06KT P6SM VCSH SCT050 BKN080 FM080000 20007KT P6SM BKN050 FM080900 02004KT P6SM BKN100
PAOR,PAOR 071741Z 0718/0818 28006KT P6SM FEW050 BKN200 FM072000 VRB05KT P6SM VCTS SCT050CB BKN080 FM080600 17003KT P6SM SCT100
PAOT,PAOT 071741Z 0718/0818 VRB05KT P6SM SCT050 BKN080 FM072200 27008KT P6SM VCSH OVC050 FM080600 29007KT P6SM SCT250
PAPG,PAPG 071722Z 0718/0818 VRB05KT P6SM SCT250
PAQT,PAQT 071741Z 0718/0818 05010KT P6SM OVC006 FM072000 06013KT P6SM SCT006 BKN050 FM080800 05011KT 4SM BR OVC003
PASC,PASC 071741Z 0718/0818 04011KT P6SM SCT008 BKN100 FM080600 06012KT 4SM BR OVC004
PASD,PASD 071738Z 0718/0818 14005KT 4SM -SHRA BR SCT002 OVC015 FM080300 17005KT P6SM OVC015 FM080900 13003KT 4SM BR OVC015 TEMPO 0813/0817 -RA BR BKN007
PASI,PASI 071722Z 0718/0818 30005KT P6SM FEW030 SCT070 FM081500 VRB04KT P6SM BKN100
PASN,PASN 071743Z 0718/0818 12010KT 2SM BR OVC003 FM080400 07012KT 2SM BR OVC003 AMD LTD TO CLD AND WIND
PASY,TAF AMD PASY 071444Z 0714/0820 31015KT 8000 -RA BR OVC007 QNH2933INS TEMPO 0714/0801 4800 -RA BR OVC004 TX05/0717Z TN04/0803Z
PATA,PATA 071741Z 0718/0818 VRB03KT P6SM SCT080 FM072300 12007KT P6SM VCTS SCT050CB BKN100 FM080600 VRB03KT P6SM SCT250
PATK,PATK 071737Z 0718/0818 VRB05KT P6SM VCSH SCT030 BKN040 FM080900 VRB04KT P6SM -RA OVC035
PAUN,PAUN 071741Z 0718/0818 VRB06KT P6SM VCSH SCT050 BKN090 FM080000 32010KT P6SM VCSH OVC050 FM080600 35006KT P6SM BKN100
PAVD,PAVD 071737Z 0718/0818 VRB04KT P6SM FEW015 BKN060 FM072200 24006KT 5SM -RA BR FEW015 BKN040 FM080600 VRB03KT 3SM -RA BR BKN025
PAWG,PAWG 071722Z 0718/0818 VRB05KT P6SM SCT250
PAYA,PAYA 071722Z 0718/0818 VRB05KT P6SM OVC050 FM080600 10007KT P6SM -SHRA SCT025 OVC050 FM081500 09004KT P6SM -RA OVC025 AMD LTD TO CLD VIS AND WIND
PGRO,PGRO 070619Z 0706/0806 06014KT P6SM VCSH SCT016 SCT090
PGSN,PGSN 071724Z 0718/0818 06010KT P6SM VCSH SCT018 SCT050
PGUA,TAF PGUA 071000Z 0710/0816 35009KT 9999 SCT015 BKN200 QNH2983INS TEMPO 0714/0719 35010G15KT 6000 -SHRA BKN015 TX29/0802Z TN23/0718Z
PGUM,PGUM 071724Z 0718/0824 05008KT P6SM VCSH SCT020 SCT050
PGWT,PGWT 070524Z 0706/0806 08014KT P6SM VCSH SCT017 SCT060
PHHI,TAF PHHI 071500Z 0715/0821 VRB06KT 9999 SCT020 SCT030 QNH3008INS TEMPO 0716/0718 8000 -SHRA FEW007 SCT015 BKN020 BECMG 0719/0720 08009KT 9999 SCT025 BKN035 QNH3005INS TEMPO 0722/0803 08010G15KT 8000 -SHRA BKN020 BECMG 0805/0806 VRB06KT 9999 SCT030 QNH3003INS TX27/0723Z TN18/0715Z
PHJH,PHJH 071739Z 0718/0818 VRB05KT P6SM FEW040 FM072000 04011G18KT P6SM SCT030 BKN050 FM080700 06010KT P6SM FEW035 SCT050 FM081200 VRB06KT P6SM FEW040
PHJR,PHJR 071739Z 0718/0818 04004KT P6SM FEW030 SCT050 FM072000 13010KT P6SM SCT030 SCT045 FM080700 06005KT P6SM FEW040 FM081500 02005KT P6SM FEW050
PHKO,PHKO 071739Z 0718/0818 VRB05KT P6SM FEW030 FEW050 FM072000 26011KT P6SM SCT030 BKN060 FM080700 15007KT P6SM SCT030 SCT050 FM081500 VRB05KT P6SM SCT030 SCT050
PHLI,PHLI 071739Z 0718/0818 04009KT P6SM SCT020 SCT035 FM072100 06011KT P6SM SCT020 SCT035 BKN045 FM080300 05011KT P6SM SCT020 BKN035 FM080900 30007KT P6SM SCT015 BKN030 FM081500 VRB06KT P6SM SCT015 SCT035 BKN045
PHMK,PHMK 071739Z 0718/0818 02006KT P6SM FEW045 FM072000 04011G20KT P6SM SCT035 BKN050 FM080500 03007G18KT P6SM SCT045 FM081200 04005KT P6SM SCT040
PHNG,TAF PHNG 0715/0815 08010KT 9999 SCT020 BKN030 QNH3000INS TEMPO 0715/0721 VRB06KT 8000 -SHRA BKN025 BKN040 FM072100 06010KT 9999 SCT025 BKN035 QNH3007INS T29/0722Z T24/0814Z
PHNL,PHNL 071739Z 0718/0824 03005KT P6SM FEW025 SCT035 SCT045 FM072000 11011G18KT P6SM SCT025 SCT045 FM080700 05009KT P6SM SCT025 SCT040 FM081200 01005KT P6SM FEW025 SCT040 FM082100 10011G18KT P6SM SCT025 SCT045
PHNY,PHNY 071739Z 0718/0818 VRB06KT P6SM FEW005 SCT015 SCT030 FM072200 28009KT P6SM SCT015 BKN035 FM080400 04007KT P6SM SCT020 SCT035 FM081500 VRB03KT P6SM FEW005 SCT015 SCT030
PHOG,PHOG 071739Z 0718/0818 VRB05KT P6SM FEW040 FM072000 04017G25KT P6SM SCT030 SCT050 FM080500 05012KT P6SM FEW035 SCT050 FM081200 06005KT P6SM FEW040
PHTO,PHTO 071739Z 0718/0818 23004KT P6SM FEW030 BKN035 FM072000 10010KT P6SM SCT030 SCT050 FM080700 22004KT P6SM SCT025 BKN035 BKN045
PKMJ,PKMJ 071724Z 0718/0818 08013KT P6SM VCSH SCT015 SCT050 BKN130
PKWA,PKWA 071724Z 0718/0818 08013KT P6SM VCSH SCT018 SCT050
PLCH,TAF PLCH 071711Z 0718/0818 10007KT 9999 -SHRA SCT020 BKN040 PROB30 TEMPO 0718/0806 5000 TSRA FEW018CB
PMDY,PMDY 071739Z 0718/0818 03012KT P6SM BKN020 FM080300 06012KT P6SM SCT025 BKN045 AMD LTD TO CLD VIS AND WX
PTKK,PTKK 071724Z 0718/0818 VRB06KT P6SM VCSH SCT015 SCT050 BKN130
PTPN,PTPN 062331Z 0700/0724 09006KT P6SM BKN017
PTRO,PTRO 071724Z 0718/0818 19010KT P6SM VCSH SCT016 SCT050 BKN120 TEMPO 0718/0720 BKN015
PTSA,PTSA 070524Z 0706/0806 08010KT P6SM SCT022 TEMPO 0706/0710 BKN022
PTYA,PTYA 071724Z 0718/0818 VRB06KT P6SM VCSH SCT016 SCT050 BKN130
PWAK,TAF PWAK 071400Z 0714/0820 08015KT 9999 SCT020 BKN025 BKN035 QNH2995INS TEMPO 0804/0809 08015G20KT 9000 -SHRA SCT015 TX32/0801Z TN25/0813Z FOR MIL USE ONLY
RCFN,TAF RCFN 071700Z 0718/0818 30005KT 9999 FEW015 BKN032 BECMG 0800/0802 18010KT TEMPO 0806/0812 18005KT FEW010 FEW015TCU BKN020 BECMG 0812/0814 33005KT
RCKH,TAF RCKH 071700Z 0718/0824 18010KT 9999 FEW015 BKN032 TEMPO 0718/0724 16005KT TEMPO 0803/0809 24010KT TEMPO 0810/0816 21005KT 5000 SHRA FEW010 BKN018 BECMG 0816/0818 18005KT
RCMQ,TAF RCMQ 071700Z 0718/0818 15006KT 6000 -RA FEW008 BKN020 BKN040 TX32/0805Z TN25/0720Z TEMPO 0719/0723 8000 FEW010 BKN040 BECMG 0801/0804 23010KT 9999 FEW010 BKN060 TEMPO 0806/0811 8000 -RA FEW008 BKN040 BECMG 0812/0815 23004KT FEW010 BKN060
RCNN,TAF RCNN 071700Z 0718/0818 16004KT 9999 FEW012 SCT060 TX34/0805Z TN26/0721Z BECMG 0801/0804 24010KT FEW012 BKN060 TEMPO 0805/0810 8000 -RA FEW010 FEW012TCU BKN030 BKN060 BECMG 0814/0817 16004KT FEW012 SCT060
RCSS,TAF RCSS 071700Z 0718/0818 29005KT 9999 FEW015 BKN032 TEMPO 0718/0724 FEW010 BKN020 TEMPO 0806/0810 09008KT 4000 TSRA FEW008 FEW012CB BKN017 TEMPO 0813/0818 09005KT FEW010 BKN020
RCTP,TAF RCTP 071700Z 0718/0824 25005KT 9999 FEW015 BKN032 TEMPO 0718/0724 15005KT BECMG 0800/0802 31005KT TEMPO 0803/0809 30012KT BECMG 0812/0814 24005KT
RJAA,TAF RJAA 071705Z 0718/0900 14010KT 9999 FEW030 TEMPO 0815/0821 3000 SHRA BR FEW003 BKN005 BECMG 0821/0900 20014KT
RJAH,TAF RJAH 071705Z 0718/0900 08004KT 9999 FEW030 BECMG 0723/0801 16010KT BECMG 0812/0815 08010KT TEMPO 0815/0900 3000 SHRA BR FEW003 BKN005 BECMG 0821/0900 22010KT
RJBB,TAF RJBB 071705Z 0718/0900 02004KT 9999 FEW035 TEMPO 0809/0815 4000 SHRA BR FEW003 BKN008 BKN015 BECMG 0812/0815 27013KT
RJCB,TAF RJCB 071705Z 0718/0900 14007KT 9999 FEW015 SCT030 TEMPO 0718/0721 0700 FG VV001 TEMPO 0721/0723 1500 BR FEW001 BKN003 TEMPO 0812/0900 0700 FG VV001
RJCC,TAF RJCC 071705Z 0718/0900 18011KT 9999 FEW004 BKN015 TEMPO 0718/0721 0500 FG VV001 TEMPO 0721/0723 3000 BR FEW002 BKN004 TEMPO 0809/0812 1500 BR FEW001 BKN003 TEMPO 0812/0818 0700 FG VV001
RJCH,TAF RJCH 071709Z 0718/0900 02003KT 9999 FEW008 BECMG 0722/0800 21005KT BECMG 0803/0805 14010KT TEMPO 0809/0812 3000 BR FEW004 BKN006 TEMPO 0812/0818 1500 BR FEW003 BKN005 TEMPO 0818/0900 2000 -SHRA BR FEW003 BKN005
RJCK,TAF RJCK 071709Z 0718/0900 18010KT 9999 FEW005 BKN015 TEMPO 0718/0723 0500 FG VV001 TEMPO 0723/0801 1500 BR FEW001 BKN003 TEMPO 0806/0809 2000 BR FEW002 BKN005 TEMPO 0809/0815 0700 FG VV001 TEMPO 0815/0900 0500 FG VV001
RJCM,TAF RJCM 071709Z 0718/0900 02005KT 9999 FEW005 BKN015 TEMPO 0718/0722 0700 FG VV001 TEMPO 0722/0800 4000 BR FEW003 BKN005 TEMPO 0809/0821 1500 BR FEW002 BKN004 BECMG 0818/0821 16014KT TEMPO 0821/0900 FEW005 BKN008
RJEC,TAF RJEC 071705Z 0718/0900 33005KT 9999 FEW006 BKN015 TEMPO 0718/0722 3000 BR FEW001 BKN003 BECMG 0809/0812 18011KT TEMPO 0815/0821 FEW002 BKN005
RJFF,TAF RJFF 071706Z 0718/0900 14005KT 9999 FEW010 SCT030
RJFK,TAF RJFK 071707Z 0718/0900 11012KT 7000 -SHRA FEW005 SCT008 BKN015 TEMPO 0718/0721 1500 BR FEW003 BKN005 BKN008 TEMPO 0721/0803 3000 SHRA BR FEW003 BKN008 BKN010 TEMPO 0803/0806 1500 +TSRA BR FEW003 BKN005 BKN008 FEW025CB TEMPO 0806/0809 4000 -SHRA BR FEW003 BKN008 BKN010 BECMG 0809/0812 34005KT
RJFM,TAF RJFM 071707Z 0718/0900 31007KT 7000 -SHRA FEW005 SCT008 BKN015 TEMPO 0721/0806 3000 SHRA BR FEW003 BKN008 BKN010 BECMG 0723/0801 04010KT BECMG 0804/0806 29006KT TEMPO 0806/0809 1500 +TSRA BR FEW003 BKN005 BKN008 FEW025CB TEMPO 0809/0812 FEW003 BKN008 BKN010
RJFO,TAF RJFO 071707Z 0718/0900 19009KT 8000 -SHRA FEW010 SCT015 BKN025 TEMPO 0718/0721 FEW003 BKN008 BKN010 TEMPO 0800/0803 4000 -SHRA BR TEMPO 0803/0806 4000 SHRA BR FEW003 BKN008 BKN010 BECMG 0804/0806 29005KT
RJFR,TAF RJFR 071706Z 0718/0900 04004KT 9999 FEW010 BKN040 BECMG 0722/0800 10010KT BECMG 0815/0818 04004KT
RJFS,TAF RJFS 071710Z 0718/0900 10005KT 9000 -RA FEW010 BKN050 TEMPO 0803/0806 4000 -SHRA BR BECMG 0809/0812 35004KT TEMPO 0818/0900 FEW003 BKN008 BKN015
RJFT,TAF RJFT 071710Z 0718/0900 06008KT 8000 -RA FEW005 BKN060 TEMPO 0718/0720 4000 -SHRA BR FEW005 BKN008 BKN015 TEMPO 0800/0809 3000 SHRA BR TEMPO 0809/0812 1500 -SHRA BR FEW001 BKN003 BKN015 BECMG 0809/0812 20005KT TEMPO 0812/0821 0700 FG FEW001 BKN003 BKN005
RJFU,TAF RJFU 071710Z 0718/0900 14010KT 9000 -RA FEW010 BKN050 BECMG 0806/0809 34004KT TEMPO 0815/0900 FEW005 BKN008 BKN015
RJGG,TAF RJGG 071705Z 0718/0900 12004KT 9999 FEW030 BECMG 0803/0805 14014KT TEMPO 0809/0812 4000 SHRA BR BECMG 0812/0815 12024KT TEMPO 0812/0818 4000 SHRA BR FEW004 BKN008 BECMG 0818/0821 28014KT
RJNK,TAF RJNK 071705Z 0718/0900 16004KT 9999 FEW030 BECMG 0800/0802 35006KT TEMPO 0812/0818 3000 RA BR FEW005 BKN008 BECMG 0821/0900 26006KT
RJNS,TAF RJNS 071705Z 0718/0900 35004KT 9999 FEW010 BECMG 0800/0802 14006KT TEMPO 0812/0818 3000 SHRA BR FEW003 BKN005 BECMG 0818/0821 22020KT TEMPO 0818/0821 22022G32KT 2000 +SHRA BR FEW002 BKN003
RJNT,TAF RJNT 071707Z 0718/0900 19004KT 9999 FEW030 BECMG 0800/0802 35008KT TEMPO 0815/0821 3000 RA BR FEW002 BKN005 BECMG 0818/0821 26005KT
RJOA,TAF RJOA 071705Z 0718/0900 06005KT 9999 FEW020 TEMPO 0806/0815 3000 RA BR BCFG FEW000 SCT005 BKN008 BECMG 0812/0815 32004KT
RJOB,TAF RJOB 071705Z 0718/0900 06004KT 9999 FEW015 TEMPO 0809/0815 3000 RA BR BCFG FEW000 BKN005 BKN012
RJOC,TAF RJOC 071705Z 0718/0900 17006KT CAVOK BECMG 0723/0801 06004KT BECMG 0815/0818 18006KT
RJOH,TAF RJOH 071705Z 0718/0900 18005KT 9999 FEW025 BECMG 0723/0801 05004KT BECMG 0815/0818 18005KT
RJOI,TAF RJOI 0715/0815 31006KT 9999 FEW030 FEW180 BKN240 QNH2984INS BECMG 0716/0718 25005KT 9999 FEW030 BKN230 512107 QNH2985INS FM072000 35005KT 9999 FEW030 FEW060 BKN160 621603 612004 QNH2982INS TEMPO 0800/0806 18006KT 8000 -RA BR FEW025 SCT030 OVC120 FM080600 11008KT 6000 -RA BR FEW025 BKN035 OVC050 611404 651804 511405 QNH2971INS TEMPO 0808/0814 4800 RA BR FEW015 BKN025 OVC035 T17/0721Z T20/0808Z
RJOK,TAF RJOK 071705Z 0718/0900 35005KT 9999 FEW020 BECMG 0723/0801 12004KT TEMPO 0804/0812 3000 SHRA BR FEW003 BKN008 BKN015 BECMG 0809/0812 35005KT
RJOM,TAF RJOM 071705Z 0718/0900 12005KT 9999 FEW025 BECMG 0722/0800 01008KT TEMPO 0803/0809 4000 RA BR FEW003 BKN008 BKN015 BECMG 0812/0815 12004KT
RJOO,TAF RJOO 071705Z 0718/0900 32004KT 9999 FEW025 BECMG 0722/0800 22005KT BECMG 0809/0812 06012KT TEMPO 0809/0815 4000 RA BR BECMG 0815/0818 33007KT
RJOT,TAF RJOT 071705Z 0718/0900 15006KT 9999 FEW030 TEMPO 0806/0815 4000 RA BR FEW001 SCT003 BKN008 BECMG 0815/0818 24006KT TEMPO 0815/0821 3000 BR FEW001 SCT003 BKN008
RJSA,TAF RJSA 071706Z 0718/0900 23006KT 9999 FEW008 BECMG 0800/0802 02008KT TEMPO 0812/0818 3000 BR FEW003 BKN005 TEMPO 0818/0900 1500 -RA BR FEW001 BKN003
RJSF,TAF RJSF 071706Z 0718/0900 18012KT 9999 FEW030 BECMG 0818/0821 35008KT TEMPO 0818/0900 4000 RA BR FEW003 BKN008
RJSI,TAF RJSI 071705Z 0718/0900 02004KT 9999 FEW030 BECMG 0721/0723 18008KT TEMPO 0818/0900 4000 RA BR FEW003 BKN005
RJSK,TAF RJSK 071706Z 0718/0900 14005KT 8000 FEW008 BKN012 TEMPO 0718/0721 3000 BR FEW003 BKN008 BECMG 0803/0805 28006KT BECMG 0809/0812 12008KT TEMPO 0821/0900 4000 RA BR
RJSN,TAF RJSN 071707Z 0718/0900 14004KT 9999 FEW020 BECMG 0800/0802 35008KT BECMG 0804/0806 04005KT TEMPO 0818/0900 4000 RA BR
RJSS,TAF RJSS 071705Z 0718/0900 30004KT 9999 FEW020 SCT060 BECMG 0722/0800 12010KT TEMPO 0815/0818 4000 -RA BR FEW005 BKN008 TEMPO 0818/0900 4000 RA BR FEW003 BKN005
RJTT,TAF RJTT 071707Z 0718/0900 13005KT 9999 FEW015 BECMG 0802/0804 19012KT BECMG 0809/0812 13008KT BECMG 0818/0821 21020KT TEMPO 0818/0900 21022G32KT 4000 SHRA BR FEW005 BKN008
RJTY,TAF RJTY 071300Z 0713/0819 VRB06KT 9999 FEW015 BKN030 BKN200 QNH2986INS TEMPO 0720/0723 4800 BR SCT008 BKN015 OVC030 BECMG 0801/0802 16012KT 9999 SCT015 SCT030 OVC200 QNH2988INS BECMG 0810/0811 16012KT 8000 -SHRA FEW008 BKN015 OVC030 QNH2977INS TEMPO 0812/0819 6000 -SHRA BKN005 OVC015 TX25/0805Z TN18/0813Z LAST NO AMDS AFT 0713 NEXT 0721
RKJB,TAF RKJB 071700Z 0718/0824 18009KT 9999 BKN015 TN18/0719Z TX27/0806Z TN19/0821Z BECMG 0802/0803 17015G25KT SCT035 BECMG 0810/0811 19007KT BECMG 0813/0814 4000 BR FEW010 BKN020 TEMPO 0817/0820 2000 -DZ BKN010 BECMG 0821/0822 7000 NSW
RKJK,TAF RKJK 070800Z 0708/0814 25012KT 9999 BKN180 QNH2970INS BECMG 0714/0715 21009KT 8000 BR SCT015 BKN150 QNH2964INS BECMG 0716/0717 VRB06KT 6000 BR SCT009 BKN015 QNH2960INS TEMPO 0717/0721 BKN009 OVC015 BECMG 0723/0801 23012G18KT 9999 NSW SCT020 BKN120 QNH2959INS BECMG 0810/0811 21009KT 8000 BR SCT010 BKN080 QNH2961INS TX26/0806Z TN18/0721Z LAST NO AMDS AFT 0810 NEXT 0900
RKNN,TAF RKNN 071100Z 0712/0818 24010KT 9999 FEW040 BKN200 WND 15006KT AFT 0801 WND 24006KT AFT 0806 TN19/0721Z TX30/0806Z 
RKNW,TAF RKNW 071100Z 0712/0818 03006KT 9000 BR BKN030 BKN200 BECMG 0712/0713 03006KT 9999 NSW SCT030 BKN180 WND 24006KT AFT 0801 BECMG 0807/0808 24006KT 9999 BKN030 BKN100 WND 03006KT AFT 0813 TN15/0721Z TX29/0806Z 
RKNY,TAF RKNY 071700Z 0718/0824 27015G25KT CAVOK TN21/0720Z TX28/0804Z TN18/0820Z BECMG 0719/0721 29008KT BECMG 0803/0805 07006KT TEMPO 0809/0814 33010G25KT 4000 -SHRA FEW010CB BKN045 OVC080 BECMG 0820/0822 25010KT
RKPC,TAF RKPC 071700Z 0718/0824 10006KT 9999 FEW010 BKN030 BKN150 TN18/0720Z TX24/0805Z TN19/0820Z BECMG 0720/0721 17006KT TEMPO 0800/0805 27008KT FEW010 SCT030 BECMG 0806/0807 31006KT FEW010 SCT030 BECMG 0815/0816 19006KT
RKPK,TAF RKPK 071700Z 0718/0824 21006KT 9999 SCT030 BKN200 TN19/0721Z TX25/0806Z
RKSG,TAF RKSG 071100Z 0711/0817 VRB06KT 9999 FEW045 510013 QNH2976INS BECMG 0717/0718 VRB06KT 8000 BR BKN008 510013 QNH2972INS BECMG 0723/0724 VRB06KT 8000 BR SCT008 510013 QNH2972INS TEMPO 0801/0803 19010G15KT BECMG 0811/0812 22006KT 9999 NSW SCT022 QNH2961INS BECMG 0812/0813 21006KT 9000 BR BKN022 QNH2961INS BECMG 0814/0815 20009KT 8000 BR BKN007 510203 QNH2961INS TX25/0806Z TN17/0720Z
RKSI,TAF RKSI 071700Z 0718/0824 19012KT 6000 BKN012 TN17/0720Z TX22/0805Z TN17/0820Z TEMPO 0721/0723 4000 -DZ BKN005 BECMG 0802/0804 FEW010 SCT025 TEMPO 0805/0813 21015G25KT 4000 -RA FEW010CB BKN025 OVC060 BECMG 0814/0816 27008KT 4000 BR SCT010 BKN020 TEMPO 0820/0823 23006KT 0800 FG BKN003
RKSM,TAF RKSM 071700Z 0718/0824 24006KT 9999 BKN200 BECMG 0805/0806 24006KT 4800 -RA BR BKN030 OVC100 BECMG 0817/0818 27006KT 4800 BR SCT030 SCT200 VIS 9999 NSW AFT 0900 TN18/0721Z TX27/0806Z
RKSO,TAF RKSO 071300Z 0713/0819 VRB06KT 8000 BR BKN060 OVC210 QNH2974INS BECMG 0716/0717 VRB06KT 4800 BR SCT080 BKN200 QNH2970INS BECMG 0723/0724 17009KT 9999 NSW FEW100 SCT180 510013 QNH2964INS BECMG 0801/0802 18012G18KT 9999 FEW020 SCT110 510013 QNH2960INS BECMG 0804/0805 23012G18KT 9999 SCT020 OVC110 QNH2959INS BECMG 0807/0808 21006KT 9999 FEW010 OVC015 QNH2958INS BECMG 0809/0810 21009KT 8000 -SHRA BR SCT008 OVC010 QNH2961INS TEMPO 0811/0817 23010G20KT 6000 -TSRA BR BKN008CB OVC010 TX27/0804Z TN17/0720Z
RKSS,TAF RKSS 071700Z 0718/0824 18007KT 9999 FEW012 BKN020 TN18/0720Z TX26/0805Z TN17/0820Z BECMG 0802/0804 SCT020 BKN150 BECMG 0806/0808 21015G28KT 4000 -RA FEW012CB BKN020 OVC080 BECMG 0813/0815 26007KT 6000 NSW SCT020 BECMG 0818/0820 20005KT 4000 BR BECMG 0822/0824 6000 NSW
RKSW,TAF RKSW 071100Z 0712/0818 21006KT 9999 BKN030 BKN200 TN17/0721Z TX29/0806Z 
RKTE,TAF RKTE 071100Z 0712/0818 18006KT 9999 SCT030 BKN200 TN16/0721Z TX31/0806Z 
RKTI,TAF RKTI 071100Z 0712/0818 27006KT 9999 SCT030 BKN200 BECMG 0806/0807 27008KT 9999 SCT030 BKN100 TN15/0721Z TX29/0806Z 
RKTN,TAF RKTN 071700Z 0718/0824 21006KT CAVOK TN19/0721Z TX29/0806Z
RKTP,TAF RKTP 071100Z 0712/0818 21006KT 4800 BR BKN008 BKN200 BECMG 0723/0724 21009KT 9999 NSW BKN030 BKN120 TN17/0721Z TX24/0806Z 
RKTU,TAF RKTU 071700Z 0718/0824 24006KT 9999 SCT030 BKN200 TX28/0806Z TN18/0821Z BECMG 0814/0815 21006KT BKN030 BKN150
RKTY,TAF RKTY 071100Z 0712/0818 28006KT 9999 SCT040 BKN200 TN16/0721Z TX29/0806Z 
ROAH,TAF ROAH 071705Z 0718/0900 20014KT 9999 FEW010 BKN015 TEMPO 0815/0821 FEW006 BKN008
RODN,TAF RODN 071600Z 0716/0822 19006KT 9999 FEW015 FEW100 QNH2981INS TEMPO 0718/0720 BKN015 BECMG 0720/0721 19009KT 9999 SCT020 SCT100 QNH2978INS BECMG 0803/0804 19010G15KT 9999 BKN020 BKN100 QNH2975INS BECMG 0816/0817 19009KT 9999 BKN010 QNH2968INS TX30/0805Z TN25/0718Z
ROIG,TAF ROIG 071705Z 0718/0900 19010KT 9999 FEW010 BKN015
ROTM,TAF ROTM 0715/0815 20007KT 9999 FEW015 SCT120 QNH2984INS BECMG 0719/0721 20012G18KT 9999 FEW010 SCT120 QNH2978INS TEMPO 0801/0807 22012KT BKN020 BKN100 FM081000 19012KT 9999 SCT010 SCT100 QNH2978INS T24/0718Z T29/0803Z
RPLB,TAF RPLB 071700Z 0718/0818 08004KT 9999 FEW020 BKN300 TX31/0806Z TN25/0721Z TEMPO 0718/0724 16007KT FEW017CB FEW018 BKN080
RPLC,TAF RPLC 071700Z 0718/0824 27005KT 9999 SCT020 BKN100 TX34/0806Z TN25/0721Z TEMPO 0718/0724 SCT020 BKN300
RPLI,TAF RPLI 071700Z 0718/0818 12004KT 9999 FEW018 BKN280 BECMG 0800/0803 25007KT TEMPO 0806/0812 10008KT 5000 TSRA SCT017CB SCT018 OVC080
RPLL,TAF RPLL 071700Z 0718/0824 VRB02KT 9000 FEW023 SCT100 TX34/0806Z TN26/0721Z TEMPO 0718/0724 5000 BR SCT023 BKN090 BECMG 0803/0806 26008KT TEMPO 0808/0814 6000 -SHRA FEW022CB SCT023 BKN090
RPMD,TAF RPMD 071700Z 0718/0818 VRB02KT 9999 FEW016 SCT090 BKN260 BECMG 0801/0804 17006KT TEMPO 0807/0813 -SHRA SCT015CB BKN090
RPMR,TAF RPMR 071100Z 0712/0812 32006KT 9999 FEW018 SCT080 TEMPO 0712/0718 24005KT FEW017CB BKN080 BECMG 0802/0804 16006KT
RPMZ,TAF RPMZ 071700Z 0718/0818 26006KT 9999 FEW017 SCT090 TEMPO 0718/0724 VRB02KT TEMPO 0804/0810 27012KT SCT016CB BKN090
RPVD,TAF RPVD 071700Z 0718/0818 25005KT 9999 FEW015 SCT070 TEMPO 0718/0724 VRB02KT FEW014CB SCT070 TEMPO 0800/0806 12008KT SCT014CB TEMPO 0806/0812 VRB06KT -TSRA SCT014CB SCT070
RPVM,TAF RPVM 071700Z 0718/0824 22006KT 9999 FEW020 BKN300 TEMPO 0718/0724 26004KT 9000 -SHRA FEW018CB BKN090 TEMPO 0800/0806 FEW018CB BKN300
RPVP,TAF RPVP 071700Z 0718/0818 27005KT 9999 FEW019 SCT080 TEMPO 0718/0724 FEW017CB BKN080 BECMG 0801/0804 18006KT TEMPO 0805/0811 VRB07KT -TSRA FEW017CB SCT019 OVC080
SAAR,TAF SAAR 071700Z 0718/0818 09010KT 9999 SCT010 BKN015 TX26/0818Z TN17/0810Z TEMPO 0718/0724 7000 SCT008 BKN010 BECMG 0723/0802 3000 BR SCT008 OVC010 BECMG 0804/0807 36010KT 5000 BR SCT010 BKN015 BECMG 0809/0812 36015KT 9999 NSW SCT025 
SABE,TAF SABE 071700Z 0718/0818 12010KT 9999 BKN015 TX23/0818Z TN17/0718Z BECMG 0722/0801 09010KT 8000 BKN010 BECMG 0805/0808 36010KT 6000 -RA BR BKN010 OVC030 BECMG 0812/0815 9999 NSW SCT030 
SACO,TAF SACO 071700Z 0718/0818 VRB03KT 9999 SCT040 TX29/0818Z TN12/0810Z BECMG 0810/0813 18003KT 8000 SCT050
SADF,TAF SADF 071700Z 0718/0818 12010KT 9999 BKN015 TX24/0818Z TN15/0806Z BECMG 0723/0801 07005KT 6000 SCT015 TEMPO 0806/0812 3000 DZ BR SCT005 OVC010 BECMG 0813/0815 34010KT 9999 NSW SCT030
SAEZ,TAF SAEZ 071700Z 0718/0818 VRB05KT CAVOK TX24/0818Z TN15/0806Z BECMG 0721/0800 09005KT 9999 BKN020 PROB40 0805/0813 04005KT 5000 BR BKN010 TEMPO 0809/0813 36005KT 0500 FG BKN003 BECMG 0813/0815 33010KT 5000 BR DZ SCT020 BKN030
SAME,TAF SAME 071700Z 0718/0818 05008KT 9999 SCT040 TX19/0720Z TN07/0811Z BECMG 0801/0803 20005KT 9999 FEW040 BECMG 0810/0812 BKN045 PROB40 TEMPO 0810/0812 5000 FUHZ BECMG 0815/0817 05010KT FEW040
SANR,TAF SANR 071700Z 0718/0818 20005KT 9999 SCT015 TX30/0819Z TN18/0810Z BECMG 0812/0815 02015KT CAVOK
SANT,TAF SANT 071700Z 0718/0818 VRB05KT 5000 BR SCT020 TX23/0818Z TN15/0810Z BECMG 0806/0809 32003KT 9999 SCT050 BECMG 0814/0817 14003KT CAVOK
SARE,TAF SARE 071700Z 0718/0818 02010KT CAVOK TX28/0718Z TN17/0810Z
SARF,TAF SARF 071700Z 0718/0818 05010KT CAVOK TX28/0718Z TN17/0810Z
SARI,TAF SARI 071700Z 0718/0818 05005KT CAVOK TX26/0718Z TN15/0810Z BECMG 0802/0804 VRB03KT 6000 NSC PROB30 0808/0812 00000KT 0500 FG NSC BECMG 0812/0814 02010KT CAVOK
SARP,TAF SARP 071700Z 0718/0818 02005KT CAVOK TX28/0718Z TN17/0810Z
SASA,TAF SASA 071700Z 0718/0818 VRB03KT 9999 SCT030 TX26/0818Z TN13/0810Z BECMG 0800/0803 32005KT 9999 SCT040 BECMG 0805/0808 VRB02KT 5000 BR BKN010 BECMG 0815/0818 05005KT 9999 NSW SCT025
SASJ,TAF SASJ 071700Z 0718/0818 05010KT 9999 SCT045 TX28/0818Z TN14/0810Z BECMG 0803/0806 29005KT 9999 FEW040 BECMG 0812/0815 02010KT 9999 SCT050 TAF SANT 071700Z 0718/0818 VRB05KT 5000 BR SCT020 TX23/0818Z TN15/0810Z BECMG 0806/0809 32003KT 9999 SCT050 BECMG 0814/0817 14003KT CAVOK
SAVC,TAF SAVC 071700Z 0718/0818 30025G35KT CAVOK TX17/0818Z TN08/0721Z TEMPO 0723/0805 VRB05KT 9999 -DZ SCT030 OVC060 BECMG 0806/0808 34035G55KT 2000 BLDU NSC BECMG 0813/0815 27025G36KT 
SAVT,TAF SAVT 071700Z 0718/0818 29015G30KT CAVOK TX18/0811Z TN04/0713Z BECMG 0801/0803 32025G40KT
SAWE,TAF SAWE 071700Z 0718/0818 26015KT CAVOK TX07/0718Z TNM02/0811Z BECMG 0721/0723 29015KT BECMG 0809/0811 20005KT 
SAWG,TAF SAWG 071700Z 0718/0818 26015KT CAVOK TX05/0818Z TNM02/0811Z BECMG 0720/0722 34010KT BECMG 0806/0808 18010KT 9999 -DZ SCT035 OVC060 BECMG 0813/0815 25010KT 
SAWH,TAF SAWH 071700Z 0718/0818 27010KT 9999 SCT035 TX05/0718Z TNM05/0810Z BECMG 0723/0801 34005KT 4000 BRDZ SCT025 BECMG 0815/0817 18005KT 9999 NSW SCT030 
SAZM,TAF SAZM 071700Z 0718/0818 35010KT CAVOK TX20/0818Z TN07/0810Z BECMG 0803/0805 3000 MIFG BR SCT010 TEMPO 0808/0812 0300 FG OVC002 BECMG 0814/0815 34015KT 9999 BKN030 BKN060 
SAZN,TAF SAZN 071700Z 0718/0818 VRB03KT CAVOK TX23/0818Z TN07/0810Z BECMG 0803/0806 32010KT BECMG 0814/0817 32025G45KT 
SAZS,TAF SAZS 071700Z 0718/0818 31015KT 8000 -RA SCT020 BKN040 TX10/0818Z TN04/0718Z TEMPO 0718/0724 4000 +RA BKN010 OVC030 BECMG 0802/0805 31015G30KT 3000 SHRA BKN008 OVC020 BECMG 0808/0811 31025G45KT 
SBAC,TAF SBAC 070859Z 0712/0724 09015KT 9999 FEW025 TX34/0717Z TN27/0723Z TEMPO 0716/0719 SCT025 FEW030TCU RMK PGX
SBAF,TAF SBAF 070900Z 0712/0724 01007KT CAVOK TN20/0712Z TX25/0717Z BECMG 0714/0716 24012KT 9999 SCT030 BECMG 0721/0723 30005KT FEW030 RMK PEN
SBAN,TAF SBAN 070900Z 0712/0724 08008KT CAVOK TN20/0712Z TX26/0717Z BECMG 0713/0715 04008KT 9999 SCT040 BECMG 0721/0723 12007KT CAVOK RMK PEN
SBAR,TAF SBAR 071545Z 0718/0818 16006KT 4000 BR BKN020 TN23/0808Z TX27/0818Z BECMG 0718/0720 14005KT 7000 NSW TEMPO 0800/0806 4000 BR BKN016 BECMG 0806/0808 30005KT BECMG 0812/0814 11006KT RMK PGW
SBAT,TAF SBAT 070900Z 0712/0724 12005KT 9999 SCT030 TN28/0712Z TX35/0716Z RMK PHD
SBBE,TAF SBBE 071611Z 0718/0818 05007KT 8000 SCT030 TN25/0809Z TX32/0817Z TEMPO 0718/0722 35010KT 7000 TS SCT023 FEW030CB BECMG 0722/0724 08005KT FEW020 BECMG 0811/0814 11007KT SCT023 RMK PHC
SBBG,TAF SBBG 071500Z 0718/0806 04008KT 9999 SCT025 TX22/0718Z TN16/0806Z BECMG 0801/0803 34008KT BECMG 0804/0805 CAVOK RMK PDG
SBBI,TAF SBBI 070900Z 0712/0724 06005KT 5000 BR BKN006 TN14/0712Z TX24/0717Z BECMG 0712/0713 34005KT 8000 BKN009 BECMG 0713/0715 9999 NSW SCT030 BECMG 0721/0723 12008KT CAVOK RMK PEN
SBBR,TAF SBBR 071510Z 0718/0818 09008KT 9999 SCT045 TN13/0809Z TX26/0818Z BECMG 0719/0721 15004KT BECMG 0723/0801 00000KT CAVOK BECMG 0808/0810 09008KT BECMG 0813/0815 SCT045 RMK PGN
SBBU,TAF SBBU 070830Z 0712/0724 14010KT CAVOK TN18/0712Z TX25/0717Z BECMG 0713/0715 05005KT FEW040 BECMG 0720/0722 15005KT RMK PHH
SBBV,TAF SBBV 071611Z 0718/0818 06005KT 8000 SCT023 FEW035TCU TN24/0810Z TX31/0818Z TEMPO 0718/0723 35007KT 6000 SHRA BKN023 FEW035TCU TEMPO 0800/0805 13005KT 7000 TS SCT030 FEW035CB BECMG 0805/0807 09005KT BECMG 0812/0814 06007KT TEMPO 0815/0818 12008KT 6000 SHRA BKN023 FEW035TCU RMK PHC
SBBW,TAF SBBW 070830Z 0712/0724 00000KT CAVOK TX32/0717Z TN22/0724Z BECMG 0713/0714 10005KT BECMG 0721/0723 00000KT RMK PHG
SBCB,TAF SBCB 071545Z 0718/0806 09006KT CAVOK TX24/0718Z TN17/0806Z BECMG 0800/0802 04005KT RMK PGW
SBCF,TAF SBCF 071510Z 0718/0818 12005KT 9999 SCT040 TN11/0809Z TX24/0818Z BECMG 0719/0721 15005KT CAVOK BECMG 0803/0805 17003KT TEMPO 0809/0812 3000 BCFG BR BECMG 0812/0814 09005KT FEW045 TEMPO 0816/0818 VRB03KT RMK PGN
SBCG,TAF SBCG 071510Z 0718/0818 36005KT CAVOK TN16/0809Z TX28/0818Z BECMG 0720/0722 09005KT BECMG 0812/0814 05007KT BECMG 0815/0817 35005KT RMK PGN
SBCJ,TAF SBCJ 071611Z 0718/0806 11005KT 9999 FEW020 TX28/0718Z TN23/0806Z RMK PHC
SBCO,TAF SBCO 070900Z 0712/0724 33006KT CAVOK TN17/0712Z TX26/0718Z RMK PFP
SBCP,TAF SBCP 071545Z 0718/0806 35006KT CAVOK TX27/0718Z TN17/0806Z BECMG 0718/0720 09005KT BECMG 0800/0802 29005KT RMK PGW
SBCR,TAF SBCR 071510Z 0718/0818 08005KT CAVOK TN18/0809Z TX30/0818Z BECMG 0720/0722 12005KT BECMG 0800/0802 09005KT BECMG 0814/0816 07005KT RMK PGN
SBCT,TAF SBCT 071500Z 0718/0818 08007KT CAVOK TN11/0808Z TX23/0818Z PROB40 0802/0807 2000 BR BKN003 PROB30 0808/0811 0400 FG VV002 RMK PDG
SBCY,TAF SBCY 071611Z 0718/0818 30005KT CAVOK TX33/0718Z TN18/0809Z BECMG 0718/0720 27005KT BECMG 0721/0723 15005KT BECMG 0802/0805 30005KT BECMG 0812/0815 21005KT RMK PHC
SBCZ,TAF SBCZ 071611Z 0718/0818 12005KT 8000 SCT023 FEW030TCU TX30/0719Z TN24/0812Z BECMG 0718/0720 15005KT TEMPO 0721/0723 7000 TS BKN023 FEW030CB BECMG 0723/0801 27004KT FEW020 BECMG 0806/0808 3600 BR BKN006 TEMPO 0808/0812 0300 FG VV002 BECMG 0812/0815 15005KT BKN016 RMK PHC
SBDN,TAF SBDN 070830Z 0712/0724 11007KT CAVOK TX27/0717Z TN18/0724Z BECMG 0715/0717 07005KT BECMG 0720/0722 12007KT RMK PHH
SBEG,TAF SBEG 071611Z 0718/0818 09006KT 8000 SCT023 FEW030TCU TN24/0810Z TX31/0818Z BECMG 0718/0720 06005KT 7000 TS SCT023 FEW030CB BECMG 0720/0723 36004KT 8000 NSW FEW017 BECMG 0812/0814 09007KT BECMG 0814/0817 03006KT SCT023 FEW030TCU RMK PHC
SBFI,TAF SBFI 071500Z 0718/0818 11007KT CAVOK TX26/0718Z TN16/0809Z PROB40 0804/0806 2000 BR BKN003 RMK PDG
SBFL,TAF SBFL 071500Z 0718/0818 03007KT CAVOK TN19/0809Z TX25/0818Z PROB40 0800/0806 3000 BR RMK PDG
SBFN,TAF SBFN 071545Z 0718/0806 11006KT 9999 SCT020 TX29/0718Z TN26/0806Z TEMPO 0718/0722 13012G22KT RMK PGW
SBFZ,TAF SBFZ 071545Z 0718/0818 09006KT 9999 SCT020 TN25/0809Z TX30/0818Z TEMPO 0718/0723 11010KT 7000 BKN017 TEMPO 0803/0806 6000 BKN016 BECMG 0806/0808 16006KT TEMPO 0814/0817 13010KT RMK PGW
SBGL,TAF SBGL 071545Z 0718/0824 12005KT 9999 FEW020 TN17/0808Z TX27/0818Z BECMG 0800/0802 08005KT BECMG 0804/0806 32005KT 7000 SCT020 TEMPO 0806/0812 3600 BR BKN016 BECMG 0812/0814 08006KT BECMG 0815/0817 14006KT RMK PGW
SBGO,TAF SBGO 071510Z 0718/0818 15005KT 9999 SCT045 TN15/0809Z TX29/0818Z TEMPO 0718/0720 34005KT BECMG 0722/0724 09005KT CAVOK TEMPO 0804/0807 00000KT BECMG 0813/0815 06005KT TEMPO 0815/0818 FEW045 RMK PGN
SBGR,TAF SBGR 071500Z 0718/0824 33005KT CAVOK TX24/0718Z TN11/0809Z BECMG 0720/0723 07004KT BECMG 0804/0806 4000 BR NSC PROB30 0809/0811 BKN006 BECMG 0812/0815 35005KT CAVOK PROB40 0816/0819 33008KT BECMG 0820/0823 07004KT RMK PGH
SBGW,TAF SBGW 070900Z 0712/0724 03008KT 8000 SCT015 TN18/0712Z TX24/0717Z BECMG 0714/0716 9999 SCT030 BECMG 0722/0724 CAVOK RMK PEN
SBIH,TAF SBIH 070900Z 0712/0724 00000KT 9999 SCT010 TX34/0717Z TN27/0724Z BECMG 0714/0716 05005KT SCT020 FEW025TCU RMK PHD
SBIL,TAF SBIL 070830Z 0712/0724 20010KT 9999 BKN017 TX27/0716Z TN24/0724Z BECMG 0712/0714 17010KT SCT020 PROB30 TEMPO 0714/0718 RA BKN020 FEW023TCU RMK PHG
SBIZ,TAF SBIZ 070900Z 0712/0724 11005KT 9999 SCT025 TX34/0717Z TN27/0724Z RMK PHD
SBJE,TAF SBJE 070859Z 0712/0724 07015KT 9999 FEW025 TX34/0716Z TN27/0723Z TEMPO 0717/0721 6000 BKN020 FEW030TCU RMK PGX
SBJP,TAF SBJP 071545Z 0718/0818 11006KT 9999 SCT020 TN23/0808Z TX28/0818Z TEMPO 0718/0724 09010KT 6000 BKN016 BECMG 0800/0802 15005KT TEMPO 0802/0806 6000 BKN016 BECMG 0806/0808 20005KT BECMG 0812/0814 13006KT TEMPO 0814/0817 6000 BKN016 RMK PGW
SBJV,TAF SBJV 070900Z 0712/0724 33006KT 9999 SCT020 TN18/0712Z TX21/0717Z RMK PEB
SBKG,TAF SBKG 070859Z 0712/0724 15008KT 9999 SCT020 TX28/0717Z TN22/0723Z TEMPO 0718/0721 5000 RA BKN015 RMK PGX
SBKP,TAF SBKP 071500Z 0718/0818 33005KT CAVOK TN12/0809Z TX25/0817Z BECMG 0719/0721 21005KT BECMG 0723/0802 12007KT BECMG 0810/0812 10005KT BECMG 0813/0816 34005KT RMK PGH
SBMA,TAF SBMA 071611Z 0718/0806 07005KT 9999 FEW025 TX33/0718Z TN24/0805Z RMK PHC
SBME,TAF SBME 070859Z 0712/0724 33003KT CAVOK TX27/0716Z TN17/0723Z BECMG 0713/0715 13008KT RMK PGX
SBMN,TAF SBMN 071500Z 0718/0806 10005KT 9999 BKN020 FEW025TCU TX31/0718Z TN26/0806Z PROB40 TEMPO 0718/0721 7000 TSRA SCT020 FEW025CB RMK PDG
SBMO,TAF SBMO 071545Z 0718/0818 13006KT 4000 BR BKN020 TN22/0808Z TX28/0818Z BECMG 0718/0720 11006KT 7000 NSW BECMG 0800/0802 30005KT TEMPO 0802/0810 4000 BR BKN016 BECMG 0812/0814 13006KT RMK PGW
SBMQ,TAF SBMQ 071611Z 0718/0818 09008KT 8000 SCT023 FEW030TCU TN25/0809Z TX32/0817Z TEMPO 0718/0723 7000 TS SCT023 FEW035CB BECMG 0723/0802 06005KT SCT016 TEMPO 0806/0812 33005KT BECMG 0812/0814 09008KT RMK PHC
SBNF,TAF SBNF 071500Z 0718/0818 03005KT 9999 SCT030 TN17/0809Z TX24/0818Z PROB40 0803/0806 3000 BR BKN010 RMK PDG
SBNT,TAF SBNT 071545Z 0718/0806 09006KT 8000 BKN020 TX29/0718Z TN24/0806Z TEMPO 0718/0724 12012KT 6000 BKN020 FEW030TCU BECMG 0800/0802 16006KT RMK PGW
SBOI,TAF SBOI 071611Z 0718/0806 36005KT 8000 SCT030 TX31/0718Z TN25/0806Z TEMPO 0718/0722 07008KT 7000 SHRA BKN023 FEW030TCU RMK PHC
SBPA,TAF SBPA 071500Z 0718/0818 12006KT CAVOK TN14/0809Z TX24/0817Z BECMG 0802/0804 34005KT PROB30 0804/0806 4000 BR BKN010 BECMG 0814/0816 31007KT RMK PDG
SBPB,TAF SBPB 071545Z 0718/0806 04006KT 9999 SCT020 TX31/0718Z TN25/0806Z TEMPO 0718/0724 09010KT BKN020 FEW030TCU BECMG 0800/0802 13006KT RMK PGW
SBPJ,TAF SBPJ 071545Z 0718/0818 13005KT 9999 FEW020 TN22/0808Z TX33/0818Z BECMG 0800/0802 09005KT BECMG 0812/0814 13005KT RMK PGW
SBPK,TAF SBPK 071500Z 0718/0818 25006KT 9999 SCT020 TX22/0718Z TN14/0806Z PROB40 TEMPO 0718/0720 4000 RA BKN012 PROB40 0803/0806 3000 BR BKN010 RMK PDG
SBPL,TAF SBPL 071545Z 0718/0818 18005KT 9999 SCT020 TN22/0808Z TX30/0818Z TEMPO 0718/0722 17012KT BECMG 0800/0802 16005KT BECMG 0812/0814 18005KT RMK PGW
SBPS,TAF SBPS 071545Z 0718/0818 15006KT 7000 SCT020 TN20/0808Z TX26/0818Z BECMG 0718/0720 18006KT BECMG 0800/0802 20005KT TEMPO 0802/0806 6000 BKN016 BECMG 0810/0812 16006KT RMK PGW
SBPV,TAF SBPV 071611Z 0718/0818 34005KT 9999 FEW023 TX32/0719Z TN24/0810Z BECMG 0718/0720 27005KT TEMPO 0720/0723 21005KT 7000 SCT030 FEW035TCU BECMG 0723/0802 31004KT TEMPO 0808/0811 19004KT 3600 BR BKN002 BECMG 0812/0814 18005KT SCT023 BECMG 0815/0818 7000 SCT030 FEW035TCU RMK PHC
SBRB,TAF SBRB 071611Z 0718/0806 31005KT 8000 SCT025 FEW033TCU TX32/0718Z TN23/0805Z BECMG 0718/0720 23005KT BECMG 0722/0724 30005KT FEW023 RMK PHC
SBRF,TAF SBRF 071545Z 0718/0818 15005KT 7000 BKN020 TN24/0808Z TX28/0818Z TEMPO 0718/0724 4000 BR BKN016 BECMG 0800/0802 18005KT TEMPO 0802/0812 4000 BR BKN016 BECMG 0812/0814 14006KT RMK PGW
SBRJ,TAF SBRJ 071545Z 0718/0806 14006KT 9999 FEW020 TX24/0718Z TN19/0806Z BECMG 0800/0802 06005KT RMK PGW
SBRP,TAF SBRP 071510Z 0718/0806 05005KT CAVOK TX28/0718Z TN13/0806Z BECMG 0720/0722 12002KT RMK PGN
SBSC,TAF SBSC 070900Z 0712/0724 33008KT CAVOK TN21/0712Z TX26/0717Z BECMG 0713/0715 9999 SCT030 BECMG 0716/0718 15008KT BECMG 0721/0723 CAVOK RMK PEN
SBSG,TAF SBSG 071545Z 0718/0818 11006KT 7000 SCT018 TN23/0808Z TX30/0818Z TEMPO 0718/0724 13012KT 6000 BKN020 FEW030TCU BECMG 0800/0802 22005KT TEMPO 0806/0812 6000 BKN016 BECMG 0812/0814 16006KT TEMPO 0814/0817 13012G22KT RMK PGW
SBSL,TAF SBSL 071545Z 0718/0818 10006KT 9999 BKN020 TN26/0808Z TX31/0818Z BECMG 0718/0720 06005KT TEMPO 0720/0724 6000 BKN020 FEW030TCU BECMG 0800/0802 04005KT BECMG 0809/0811 10006KT TEMPO 0814/0817 07010KT BKN017 FEW030TCU RMK PGW
SBSM,TAF SBSM 070900Z 0712/0724 30004KT CAVOK TX26/0718Z TN18/0723Z RMK PFP
SBSN,TAF SBSN 071611Z 0718/0818 09010KT 8000 SCT023 FEW025TCU TX30/0718Z TN24/0808Z BECMG 0722/0724 14005KT FEW027 TEMPO 0801/0806 07005KT 7000 TS SCT015 FEW020CB BECMG 0808/0811 09010KT SCT017 RMK PHC
SBSV,TAF SBSV 071510Z 0718/0818 16010KT 8000 SCT020 TN23/0808Z TX27/0815Z TEMPO 0718/0722 6000 RA BKN015 FEW023TCU BECMG 0801/0803 SHRA BKN015 FEW023TCU TEMPO 0807/0814 4000 RA BR BKN005 BECMG 0815/0817 NSW BKN020 FEW023TCU RMK PGN
SBTE,TAF SBTE 071545Z 0718/0806 14005KT 9999 SCT020 TX33/0718Z TN24/0806Z BECMG 0800/0802 19005KT RMK PGW
SBTF,TAF SBTF 071611Z 0718/0806 06005KT 8000 SCT020 TX31/0718Z TN25/0806Z BECMG 0718/0720 10005KT TEMPO 0720/0723 07005KT 7000 TS SCT017 FEW025CB RMK PHC
SBTT,TAF SBTT 071611Z 0718/0818 07005KT 8000 SCT023 FEW030TCU TN23/0811Z TX29/0818Z BECMG 0718/0719 28005KT TEMPO 0719/0723 18005KT 7000 TS SCT020 FEW030CB BECMG 0723/0801 15005KT FEW017 BECMG 0807/0809 3600 BR BKN006 BECMG 0812/0815 18005KT 8000 NSW BKN016 RMK PHC
SBUG,TAF SBUG 071500Z 0718/0806 02008KT CAVOK TX26/0718Z TN18/0806Z RMK PDG
SBUL,TAF SBUL 070830Z 0712/0724 10010KT CAVOK TX25/0717Z TN16/0724Z BECMG 0714/0716 04005KT SCT040 BECMG 0722/0724 12004KT CAVOK RMK PHG
SBUR,TAF SBUR 070830Z 0712/0724 06005KT CAVOK TX26/0717Z TN15/0724Z BECMG 0715/0717 01004KT BECMG 0717/0719 34004KT BECMG 0719/0721 07004KT BECMG 0721/0723 12004KT RMK PHG
SBVH,TAF SBVH 070900Z 0712/0724 09010KT 9999 FEW030 TN22/0712Z TX29/0717Z RMK PHD
SBVT,TAF SBVT 071545Z 0718/0818 14006KT 9999 SCT020 TN16/0809Z TX26/0818Z BECMG 0718/0720 10005KT BECMG 0800/0802 29005KT TEMPO 0802/0806 6000 BKN016 BECMG 0812/0814 02006KT RMK PGW
SBYS,TAF SBYS 070900Z 0712/0724 04007KT 6000 SCT010 TN12/0712Z TX25/0717Z BECMG 0713/0715 9999 SCT030 BECMG 0721/0723 23006KT CAVOK RMK PEN
SCAR,TAF SCAR 071622Z 0718/0818 22012KT CAVOK TX21/0718Z TN19/0810Z BECMG 0723/0801 11004KT OVC025 BECMG 0814/0816 22012KT FEW022
SCAT,TAF COR SCAT 071639Z 0718/0818 33010KT 9999 BKN020 TX17/0718Z TN15/0810Z BECMG 0722/0724 OVC015 BECMG 0802/0804 33004KT OVC010 TEMPO 0809/0814 4000 BR BKN002 OVC008 BECMG 0815/0817 33010KT SCT015
SCBA,TAF SCBA 071639Z 0718/0818 29015KT 9999 BKN050 TX06/0719Z TNM02/0806Z BECMG 0720/0722 VRB02KT 5000 RASN SCT004 BKN007 OVC010 TEMPO 0722/0802 3000 SN BKN002 OVC007 BECMG 0804/0806 4000 +RA BKN004 OVC010 BECMG 0812/0814 30015KT 9999 NSW BKN020 BKN035
SCCF,TAF SCCF 071623Z 0718/0818 27018KT CAVOK TX23/0718Z TN00/0810Z BECMG 0722/0800 27008KT BECMG 0801/0802 11010KT BECMG 0803/0805 11022KT BECMG 0815/0816 11010KT BECMG 0817/0818 27015KT
SCCH,TAF AMD SCCH 071343Z 0714/0724 04004KT 2000 BR SCT004 BKN200 TX12/ 0718Z TN10/0723 TEMPO 0714/0717 0500 FG BKN002 BECMG 0717/0719 24007KT 7000 NSC
SCCI,TAF SCCI 071615Z 0718/0818 28018G28KT 9999 FEW040 TNM01/0810Z TX05/0718Z BECMG 0719/0721 27015KT BECMG 0723/0801 30010KT PROB40 TEMPO 0803/0812 FEW012 BECMG 0809/0811 27007KT SCT030
SCCY,TAF SCCY 071129Z 0712/0724 VRB02KT 9999 BKN045 TN06/0713Z TX08/0719Z BECMG 0715/0717 8000 -RA SCT020 OVC030 BECMG 0720/0724 5000 RASN SCT005 OVC010
SCDA,TAF SCDA 071622Z 0718/0818 21010KT 9999 FEW025 TX21/0718Z TN18/0810Z BECMG 0722/0800 OVC025 BECMG 0803/0805 36004KT BECMG 0816/0818 21010KT FEW025
SCEL,TAF SCEL 071600Z 0718/0818 VRB02KT 7000 FEW150 SCT180 TX21/0718Z TN08/0810Z BECMG 0801/0803 15004KT TEMPO 0808/0812 VRB02KT 3000 BR SCT005 BECMG 0815/0817 17007KT
SCFA,TAF COR SCFA 071647Z 0718/0818 20012KT 9999 FEW025 TX19/0718Z TN15/0810Z BECMG 0722/0800 20004KT OVC020 BECMG 0805/0807 03004KT BECMG 0816/0818 20010KT SCT020
SCFM,TAF SCFM 071004Z 0712/0800 29018G30KT 8000 FEW020 BKN025 TN00/0800Z TX04/0718Z PROB40 TEMPO 0712/0715 28030KT 5000 SHRASN SCT010 BKN015 BECMG 0717/0719 27010KT
SCGE,TAF AMD SCGE 071649Z 0717/0724 VRB02KT 5000 BR FEW010 BKN150 TX11/ 0718Z TN09/0723Z BECMG 0718/0720 7000 NSC BECMG 0720/0722 20008KT
SCGZ,TAF SCGZ 071004Z 0712/0800 28005KT 8000 BKN020 OVC030 TNM01/0800Z TX05/0718Z PROB40 TEMPO 0713/0716 1000 SHSN BKN008 OVC015 BECMG 0720/0722 31005KT BKN010
SCHR,TAF SCHR 071005Z 0712/0800 30005KT 7000 SCT010 BKN015 OVC025 TNM01/0800Z TX05/0718Z TEMPO 0712/0716 VRB02KT TEMPO 0713/0715 3000 RA BKN008 OVC015
SCIC,TAF AMD SCIC 071343Z 0714/0724 VRB02KT 2000 BR BKN005 TX14/0717Z TN12 /0723Z TEMPO 0714/0717 0500 FG OVC001 BECMG 0717/0719 20008KT 7000 NSC
SCIE,TAF SCIE 071600Z 0718/0818 12005KT CAVOK TX16/0718Z TN09/0810Z BECMG 0721/0723 01010KT SCT030 BKN200 BECMG 0803/0805 23008KT 4000 BR BKN005 OVC010 TEMPO 0807/0815 36012G30KT 6000 RA
SCIP,TAF SCIP 071626Z 0718/0818 18011KT 9999 SCT025 TN16/0811Z TX21/0719Z TEMPO 0718/0802 5000 -SHRA SCT015 BKN020
SCIR,TAF AMD SCIR 071649Z 0717/0724 32020KT 9999 FEW006 BKN025 TX18/0718Z TN16/0723Z TEMPO 0717/0720 32020G35KT
SCJO,TAF SCJO 071114Z 0712/0724 VRB02KT 9999 FEW002 OVC090 TN05/0713Z TX13/0719Z BECMG 0714/0716 SCT050 OVC060 BECMG 0717/0719 01010KT 9000 -RA SCT040 OVC050
SCMK,TAF SCMK 071126Z 0712/0724 35015KT 9999 FEW010 OVC015 TN09/0713Z TX12/0719Z BECMG 0713/0715 8000 -RA BECMG 0717/0719 01025G35KT TEMPO 0719/0724 5000 RA
SCNT,TAF SCNT 071003Z 0712/0800 32010KT 8000 SCT020 BKN030 TN00/0800Z TX05/0718Z TEMPO 0712/0716 4000 SHRASN BKN010 TEMPO 0712/0714 27020KT
SCPQ,TAF SCPQ 071124Z 0712/0724 36005KT 2000 DZ OVC010 TN07/0713Z TX12/0719Z BECMG 0716/0718 36015KT 8000 -RA SCT010 OVC020 TEMPO 0719/0724 5000 RA SCT005 OVC010
SCQP,TAF SCQP 071637Z 0718/0818 36004KT 9999 BKN050 TX11/0719Z TN10/0806Z BECMG 0722/0724 36014KT 7000 -SHRA BKN025 OVC040 TEMPO 0804/0814 36020G35KT 4000 RA BKN010 BKN020 BECMG 0814/0816 35018KT 4000 RA BKN010 OVC025
SCRD,TAF AMD SCRD 071341Z 0714/0724 08003KT 2000 BR BKN005 TX15/0718Z TN12 /0723Z TEMPO 0714/0717 0500 FG OVC001 BECMG 0717/0719 24010KT 7000 NSC
SCRG,TAF AMD SCRG 071648Z 0717/0724 VRB02KT 8000 BKN080 TX19/0718Z TN10/ 0712Z BECMG 0719/0721 18006KT
SCSE,TAF SCSE 071600Z 0718/0818 29007KT 9999 SCT020 BKN030 TX18/0718Z TN10/0810Z BECMG 0801/0803 29004KT 8000 SCT010 TEMPO 0806/0812 VRB02KT 4000 BR BKN002
SCSN,TAF AMD SCSN 071648Z 0717/0724 29007KT 3000 BR BKN005 TX18/0717Z TN10 /0712Z TEMPO 0717/0719 0500 FG OVC001 BECMG 0719/0721 7000 NSC
SCTB,TAF AMD SCTB 071457Z 0715/0724 VRB02KT 8000 SCT120 BKN180 TX20/0719Z TN16/0723Z BECMG 0717/0719 24008KT
SCTE,TAF SCTE 071638Z 0718/0818 01020KT 9999 SCT010 BKN25 OVC050 TX11/0719Z TN10/0806Z TEMPO 0722/0808 36020G35KT 5000 RA BKN007 OVC010 BECMG 0808/0810 35015KT 6000 RA SCT004 BKN010 OVC025 BECMG 0815/0817 27012KT 7000 -SHRA
SCTN,TAF SCTN 071119Z 0712/0724 05006KT CAVOK TN08/0713Z TX12/0719Z BECMG 0714/0716 SCT050 OVC060 BECMG 0716/0718 8000 -RA SCT030 OVC040 BECMG 0722/0724 35010KT
SCVD,TAF SCVD 071111Z 0712/0724 06004KT 0500 FG VV002 TN07/0713Z TX14/0719Z BECMG 0714/0716 9999 NSW BKN050 BECMG 0721/0723 36010KT 8000 -RA SCT025 OVC035
SCVM,TAF SCVM 071600Z 0718/0818 31007KT 8000 FEW010 SCT100 TX17/0718Z TN09/0810Z BECMG 0800/0802 VRB02KT TEMPO 0806/0812 3000 BR BKN008 BECMG 0815/0817 29007KT
SEGU,SEGU 071635Z 0718/0818 15005KT 9999 SCT023 SCT100 TEMPO 0720/0722 SHRA FEW020 BKN023 BKN100 BECMG 0800/0802 22008KT FEW010 BKN023 BKN100 BECMG 0812/0814 SCT023 BKN100 TX31/0720Z TN25/0810Z
SELT,SELT 071635Z 0718/0818 18016KT 9999 BKN030 TEMPO 0720/0722 SHRA SCT026TCU BKN030 BECMG 0800/0802 17005KT FEW010 BKN023 BECMG 0812/0814 18015KT SCT026 SCT100 TX17/0719Z TN07/0811Z
SEMT,SEMT 071635Z 0718/0818 33010KT 9999 BKN023 BECMG 0800/0802 20008KT BKN020 SCT100 BECMG 0815/0817 29010KT BKN023 TX31/0720Z TN24/0810Z
SEQM,SEQM 071635Z 0718/0818 36012KT 9999 SCT030 SCT100 TEMPO 0720/0722 SHRA SCT026TCU BKN030 BECMG 0800/0802 03004KT SCT005 BKN020 BECMG 0812/0814 24004KT SCT030 SCT100 TX22/0719Z TN11/0811Z
SGAS,TAF SGAS 071700Z 0718/0818 03010KT CAVOK TX28/0719Z TN16/0810Z
SGCO,TAF SGCO 071700Z 0718/0818 07010KT CAVOK TX29/0719Z TN16/0810Z
SGEN,TAF SGEN 071700Z 0718/0818 02010KT CAVOK TX26/0719Z TN14/0810Z
SGES,TAF SGES 071700Z 0718/0818 04010KT CAVOK TX27/0719Z TN14/0810Z
SKAR,TAF SKAR 071630Z 0718/0818 VRB03KT 9999 BKN025 TEMPO 0718/0721 SCT020TCU TEMPO 0721/0801 TSRA FEW020CB SCT025 PROB40 0811/0814 4000 BCFG BKN012 TX28/0719Z TN19/0811Z
SKBG,TAF SKBG 071630Z 0718/0818 32008KT 9999 SCT015 BECMG 0800/0802 VRB02KT SCT015 TEMPO 0804/0808 5000 TSRA BKN010CB TX27/0718Z TN19/0811Z
SKBO,TAF SKBO 071630Z 0718/0818 16010KT 9999 BKN020 TEMPO 0718/0721 DZRA BECMG 0800/0802 VRB02KT SCT015 TX20/0718Z TN10/0810Z
SKBQ,TAF SKBQ 071630Z 0718/0818 17005KT 9999 SCT015 TEMPO 0719/0721 DZ SCT010CB TEMPO 0800/0802 DZ SCT010 TX35/0719Z TN26/0810Z
SKCC,TAF SKCC 071630Z 0718/0818 18015KT 9999 SCT020 BECMG 0801/0803 VRB03KT SCT015 TX31/0718Z TN25/0810Z
SKCG,TAF SKCG 071630Z 0718/0818 33005KT 9999 SCT017 TEMPO 0719/0721 RA SCT012CB TX34/0719Z TN27/0809Z
SKCL,TAF SKCL 071630Z 0718/0818 VRB03KT 9999 SCT020 TEMPO 0719/0721 SCT020TCU TEMPO 0721/0724 32012KT SCT020CB PROB40 TEMPO 0803/0806 DZ SCT020 BKN090 TX30/0720Z TN19/0811Z
SKLT,TAF SKLT 071630Z 0718/0818 VRB02KT 9999 SCT012 TEMPO 0718/0721 RA BKN013TCU TEMPO 0810/0812 5000 BR SCT010 PROB40 TEMPO 0815/0818 TS SCT015CB TX28/0719Z TN23/0811Z
SKPE,TAF SKPE 071630Z 0718/0818 VRB04KT 9999 SCT020 TEMPO 0718/0721 SCT020TCU TEMPO 0721/0801 TSRA SCT020CB BKN080 TX28/0719Z TN19/0811Z
SKRG,TAF SKRG 071630Z 0718/0818 15010KT 9999 SCT020 TEMPO 0718/0721 SCT020TCU BECMG 0800/0801 VRB02KT BECMG 0802/0804 BKN010 PROB40 TEMPO 0808/0812 5000 RA BCFG BKN005 BECMG 0813/0815 12010KT SCT020 TX23/0719Z TN14/0810Z
SKSM,TAF SKSM 071630Z 0718/0818 33006KT 9999 FEW020 TEMPO 0719/0721 DZ SCT015CB TX34/0719Z TN25/0810Z
SKSP,TAF SKSP 071630Z 0718/0818 36006KT 9999 SCT018 TEMPO 0718/0720 5000 TSRA SCT017CB PROB40 TEMPO 0814/0817 5000 TSRA SCT017CB TX31/0719Z TN26/0810Z
SLAL,TAF SLAL 062200Z 0700/0724 35012KT 9999 FEW017 TX22/0719Z TN03/0711Z BECMG 0702/0704 00000KT BECMG 0719/0721 02010KT
SLCB,TAF SLCB 071000Z 0712/0812 00000KT 9999 FEW030 TX28/0719Z TN03/0811Z BECMG 0718/0720 28010KT TEMPO 0722/0801 13010KT BECMG 0803/0805 00000KT
SLCO,TAF SLCO 062200Z 0700/0724 VRB02KT 9999 SCT011 BKN070 TX33/0719Z TN21/0710Z TEMPO 0710/0712 4000 BR BKN003 BECMG 0713/0715 19008KT SCT017 BKN080
SLET,TAF SLET 062200Z 0700/0724 33006KT 9999 SCT023 TX30/0719Z TN20/0710Z PROB30 TEMPO 0709/0712 32012KT BKN010 BECMG 0715/0717 33015G25KT BKN020 FEW027TCU BECMG 0721/0723 32008KT SCT023 SCT070
SLLP,TAF SLLP 071000Z 0712/0812 02006KT 9999 FEW013 TX15/0719Z TNM04/0811Z BECMG 0714/0716 21010KT TEMPO 0719/0723 11010KT BECMG 0800/0802 02006KT
SLTJ,TAF SLTJ 071000Z 0712/0812 00000KT 9999 NSC TX25/0719Z TN08/0811Z BECMG 0719/0721 14010KT BECMG 0723/0801 00000KT
SLTR,TAF SLTR 071000Z 0712/0812 33006KT 9999 SCT023 TX32/0719Z TN22/0810Z BECMG 0722/0801 00000KT
SLVR,TAF SLVR 071000Z 0712/0812 34012G25KT 9999 SCT020 TX31/0719Z TN20/0810Z TEMPO 0718/0721 34010KT BKN023 BECMG 0723/0801 34006KT SCT017 SCT070 PROB30 TEMPO 0807/0811 5000 RA SCT005 BKN013 BKN070
SMJP,TAF SMJP 071600Z 0718/0818 06006KT 9999 SCT025 TX32/0816Z TN23/0809Z TEMPO 0718/0722 4000 TSRA FEW008 FEW015CB SCT020 TEMPO 0809/0812 5000 SHRA SCT010 BKN015
SMZO,TAF SMZO 071600Z 0718/0818 06007KT 9999 SCT025 TX32/0816Z TN24/0809Z TEMPO 0618/0622 4000 TSRA FEW008 FEW015CB SCT020 TEMPO 0808/0812 4000 SHRA SCT010 BKN015
SOCA,TAF SOCA 071600Z 0718/0818 09010KT 9999 BKN015 BKN150 PROB30 TEMPO 0718/0721 2000 SHRA SCT012 BKN015TCU BKN018CB PROB30 TEMPO 0718/0720 1000 TSRA BKN010CB BECMG 0721/0723 VRB02KT PROB40 TEMPO 0801/0818 2000 SHRA SCT010 BKN012CB PROB30 0807/0811 0800 FG VV/// BECMG 0813/0815 08010KT
SPCL,TAF SPCL 071700Z 0718/0818 23005KT 9999 SCT020 TX31/0719Z TN22/0811Z TEMPO 0720/0724 4000 RADZ BKN015 BKN080 TEMPO 0810/0813 2000 BR BKN005 BKN080
SPEO,TAF SPEO 071700Z 0718/0818 19016KT CAVOK TX29/0719Z TN19/0811Z BECMG 0723/0802 20006KT
SPGM,TAF SPGM 071700Z 0718/0818 03003KT 9999 SCT020 BKN100 TX27/0719Z TN20/0811Z TEMPO 0720/0723 5000 RA SCT015 BKN090 TEMPO 0810/0812 2000 RA BR BKN010
SPHI,TAF SPHI 071700Z 0718/0818 18013KT 9999 FEW020 TX30/0719Z TN21/0811Z FM072000 18017KT CAVOK FM080330 18010KT CAVOK
SPHO,SPHO 071700Z 0718/0818 VRB04KT 9999 FEW040 TX24/0720Z TN08/0811Z TEMPO 0718/0722 11010KT
SPJC,TAF SPJC 071710Z 0718/0818 23008KT 9999 BKN025 TX25/0719Z TN21/0811Z FM071930 16011KT 9999 SCT030 FM080500 10005KT 9999 OVC020 TEMPO 0811/0813 4900 BR
SPJI,TAF SPJI 071700Z 0718/0818 12005KT 9999 SCT020 TX31/0720Z TN22/0811Z TEMPO 0810/0814 2000 BCFG BKN005 BKN080
SPJJ,SPJJ 071700Z 0718/0818 18005KT 9999 FEW040 TX20/0719Z TN00/0811Z TEMPO 0718/0721 33010KT
SPJL,TAF SPJL 071700Z 0718/0818 10008KT CAVOK TX16/0719Z TNM07/0810Z FM080000 VRB02KT CAVOK
SPJR,TAF SPJR 071700Z 0718/0818 17005KT 9999 SCT030 SCT050 TX24/0719Z TN05/0811Z TEMPO 0719/0722 SCT020 BKN046 BECMG 0805/0809 VRB02KT
SPLO,TAF SPLO 071700Z 0718/0818 20010KT CAVOK TX24/0719Z TN17/0810Z FM072330 15006KT 7000 BKN020
SPME,TAF SPME 071700Z 0718/0818 30006KT 9999 SCT015 BKN025 TX29/0718Z TN24/0811Z TEMPO 0721/0722 BKN014 FM072230 26005KT 9999 BKN014
SPMS,TAF SPMS 071700Z 0718/0818 30003KT 9999 FEW015 BKN080 TX27/0720Z TN22/0811Z TEMPO 0810/0814 1000 BR BKN005 BKN080
SPNC,TAF SPNC 071700Z 0718/0818 07012KT 9999 SCT040 TX27/0719Z TN14/0811Z BECMG 0802/0806 09003KT
SPPY,TAF SPPY 071700Z 0718/0818 10008KT 9999 SCT015 BKN050 TX19/0720Z TN09/0811Z TEMPO 0718/0722 4000 DZRA BKN010 BKN040 TEMPO 0810/0814 4000 DZ BCFG BKN010 BKN040
SPQT,TAF SPQT 071700Z 0718/0818 VRB04KT 9999 SCT017 BKN100 TX30/0720Z TN22/0811Z TEMPO 0720/0724 4000 SHRA BKN010 BKN080 TEMPO 0808/0812 2000 BCFG BKN002 BKN080
SPQU,TAF SPQU 071700Z 0718/0818 26010KT CAVOK TX22/0718Z TN08/0810Z BECMG 0800/0802 05005KT FM081430 25007KT CAVOK
SPRU,TAF SPRU 071700Z 0718/0818 17010KT 8000 NSC TX27/0719Z TN21/0811Z FM080330 13005KT 6000 SCT015 TEMPO 0804/0808 4000 BR TEMPO 0810/0813 4000 BR
SPSO,TAF SPSO 071700Z 0718/0818 22007KT 9999 BKN025 TX23/0719Z TN18/0811Z FM072200 21012KT 8000 NSC BECMG 0802/0804 09005KT FM080600 VRB02KT 8000 OVC020 BECMG 0814/0816 28010KT SCT025
SPST,TAF SPST 071700Z 0718/0818 13004KT 9999 SCT015 SCT080 TX33/0719Z TN22/0811Z TEMPO 0720/0723 SCT015TCU BKN080 TEMPO 0812/0814 2000 BR BKN005
SPTN,TAF SPTN 071700Z 0718/0818 23009KT CAVOK TX21/0719Z TN15/0810Z FM080000 23003KT 8000 OVC020 FM081600 22007KT 9999 FEW030
SPTU,SPTU 071700Z 0718/0818 27003KT 9999 FEW015 TX30/0720Z TN20/0811Z
SPUR,TAF SPUR 071700Z 0718/0818 21010KT CAVOK TX32/0720Z TN22/0811Z TEMPO 0718/0720 15008KT FM080200 18006KT CAVOK
SPYL,TAF SPYL 071700Z 0718/0818 19012KT 9999 SCT040 TX30/0719Z TN20/0811Z TEMPO 0718/0720 13012KT BECMG 0806/0809 13015KT BKN030
SPZO,TAF SPZO 071700Z 0718/0818 VRB03KT 9999 FEW050 TX21/0719Z TN01/0811Z TEMPO 0718/0722 28010KT
SUAA,TAF SUAA 071730Z 0718/0818 05007KT 9999 SCT010 BKN070 TX22/0818Z TN15/0810Z TEMPO 0722/0806 3000 BR BKN010 TEMPO 0808/0814 3000 RA BR BKN008 BKN070
SUCA,TAF SUCA 071730Z 0718/0818 12010KT 9999 BKN010 BKN070 TX21/0818Z TN15/0810Z BECMG 0720/0800 04010KT PROB40 TEMPO 0720/0808 3000 RA BR BKN008 BKN070
SUDU,TAF SUDU 071730Z 0718/0818 04006KT 8000 BKN013 BKN070 TX25/0818Z TN15/0810Z TEMPO 0718/0802 3000 BR BKN008 TEMPO 0808/0812 3000 RA BR BKN008 BKN070
SULS,TAF SULS 071730Z 0718/0818 10008KT 9999 SCT010 BKN070 TX22/0818Z TN15/0810Z BECMG 0719/0721 04010KT TEMPO 0722/0806 3000 BR BKN010 TEMPO 0808/0814 3000 RA BR BKN008 BKN070
SUMU,TAF SUMU 071730Z 0718/0818 12010KT 9999 SCT010 BKN070 TX22/0818Z TN15/0810Z BECMG 0719/0721 04010KT TEMPO 0722/0806 3000 BR BKN010 TEMPO 0808/0814 3000 RA BR BKN008 BKN070
SURV,TAF SURV 071730Z 0718/0818 32008KT 9999 BKN013 TX25/0818Z TN15/0810Z PROB30 TEMPO 0718/0722 5000 RA BR BKN010 BKN070 TEMPO 0804/0812 1500 BR BKN005
SUSO,TAF SUSO 071730Z 0718/0818 03010KT 9999 SCT023 BKN070 TX26/0818Z TN17/0810Z TEMPO 0800/0810 3000 BR BKN010 BKN070
SVBC,TAF SVBC 071600Z 0718/0818 03001KT 9999 SCT010 TX36/0719Z TN23/0807Z TEMPO 0719/0723 02004KT 9000 DZ SCT020 SCT016
SVJC,TAF SVJC 071600Z 0718/0818 11002KT 9999 FEW010 TX35/0719Z TN24/0807Z TEMPO 0719/0723 15001KT 9000 DZ BKN010 SCT013 SCT080
SVMC,TAF SVMC 071600Z 0718/0818 11002KT 9000 DZ SCT020 TX34/0719Z TN22/0808Z TEMPO 0719/0723 02001KT 9000 DZ SCT020 BKN060
SVMG,TAF SVMG 071600Z 0718/0818 09004KT 9999 FEW020 TX35/0718Z TN23/0808Z TEMPO 0720/0723 03001KT 9999 SCT010
SVMI,TAF SVMI 071600Z 0718/0818 07001KT 9999 FEW016 TX34/0718Z TN22/0807Z TEMPO 0719/0723 09002KT 9999 BKN016
SVPR,TAF SVPR 071600Z 0718/0818 05002KT 9999 SCT013 TX34/0719Z TN24/0807Z TEMPO 0719/0723 08015KT 05004KT 9999 SCT013 BKN06 
SVSA,TAF SVSA 071600Z 0718/0818 04002KT 7000 TSRA OVC017 CB TX33/0718Z TN18/0808Z TEMPO 0720/0723 05001KT 9999 SCT020 BKN070
SYCJ,TAF SYCJ 071700Z 0718/0818 05010KT 9999 FEW020CB BKN022 BECMG 0800/0802 05004KT 9999 BKN017 SCT100 BECMG 0807/0810 VRB06KT 7000 SHRA VCSH FEW014CB BKN015 BKN034
SYEB,TAF SYEB 071110Z 0712/0723 09010KT 9999 BKN018 SCT036 TEMPO 0715/0718 4000 SHRA BKN017
SYEC,TAF SYEC 071700Z 0718/0818 05010KT 9999 FEW021CB BECMG 0800/0803 CAVOK BECMG 0806/0808 08006KT 060V120 5000 SHRA VCSH FEW013CB BKN014 BKN032
SYKA,TAF SYKA 071110Z 0712/0723 VRB08KT 9999 BKN018 SCT035 BECMG 0718/0720 4000 SHRA FEW010CB BKN017 BKN034
SYKM,TAF SYKM 071110Z 0712/0723 VRB08KT 9999 BKN018 SCT035 BECMG 0719/0721 4000 SHRA FEW010CB BKN017 BKN034
SYLT,TAF SYLT 071110Z 0712/0723 09012KT 9999 BKN019 SCT035 
SYMB,TAF SYMB 071110Z 0712/0723 11010KT 5000 SHRA BKN017 BKN034 TEMPO 0715/0718 VRB10KT 3000 TSRA SCT010CB OVC032
TAPA,TAF TAPA 071700Z 0718/0818 09010KT 9999 FEW022 PROB30 TEMPO 0806/0812 SHRA
TBPB,TAF TBPB 071700Z 0718/0818 10010KT 9999 SCT020
TDPD,TAF TDPD 071700Z 0718/0818 11012KT 9999 SCT018
TFFF,TAF TFFF 071700Z 0718/0818 11015KT 9999 SCT030 BECMG 0800/0802 09005KT PROB30 TEMPO 0803/0818 4000 SHRA SCT020TCU
TFFR,TAF TFFR 071700Z 0718/0818 15013KT 9999 SCT035 BECMG 0801/0804 VRB02KT PROB30 TEMPO 0806/0818 12015G25KT 4000 SHRA SCT020TCU BECMG 0813/0815 12013KT
TGPY,TGPY 071600Z 0718/0818 10018KT 9999 SCT018
TIST,TIST 071728Z 0718/0818 13011KT P6SM FEW030 FM072300 11007KT P6SM SKC FM080600 08005KT P6SM FEW025 FM081400 13012KT P6SM SCT028
TISX,TISX 071728Z 0718/0818 13013KT P6SM SCT030 FM072300 09010KT P6SM FEW023 FM081400 12013KT P6SM SCT030
TJBQ,TJBQ 071728Z 0718/0818 06011KT P6SM SCT040 BKN060 FM072300 09007KT P6SM FEW020 FM080100 00000KT P6SM FEW030 FM081400 05009KT P6SM SCT035
TJPS,TJPS 071728Z 0718/0818 13014KT P6SM FEW023 FEW070 FM072300 12007KT P6SM SKC FM080100 07004KT P6SM FEW030 FM081400 13014G20KT P6SM FEW025 FEW060
TJSJ,TJSJ 071728Z 0718/0818 17008G17KT P6SM SCT040 SCT130 FM072300 12007KT P6SM FEW040 FM080200 VRB03KT P6SM FEW030 FM081400 15008KT P6SM SCT035
TKPK,TAF TKPK 071700Z 0718/0818 09010KT 9999 FEW022
TKPN,TAF TKPN 071700Z 0718/0818 11010KT 9999 FEW022
TLPC,TAF TLPC 071700Z 0718/0818 10010KT 9999 SCT027
TLPL,TAF TLPL 071700Z 0718/0818 09017KT 9999 SCT027
TNCA,TAF TNCA 071715Z 0718/0818 10020KT 9999 FEW020
TNCB,TAF TNCB 071708Z 0718/0824 10016KT 9999 SCT018
TNCC,TAF TNCC 071715Z 0718/0818 11015KT 9999 FEW020
TNCM,TNCM 071616Z 0718/0818 11010KT 9999 FEW020 
TQPF,TAF TQPF 071700Z 0718/0818 12011KT 9999 FEW022
TRPG,TAF TRPG 071700Z 0718/0818 10012KT 9999 FEW022 PROB30 TEMPO 0806/0812 SHRA
TTCP,TAF TTCP 071600Z 0718/0818 10015KT 9999 FEW020 FM072300 07004KT 9999 FEW016 FM071300 10015KT 9999 FEW020
TTPP,TAF TTPP 071600Z 0718/0818 10015KT 9999 SCT023 FM072300 09004KT 9999 FEW016 FM071300 10015KT 9999 SCT023
TUPJ,TAF TUPJ 071700Z 0718/0818 12008KT 9999 FEW022
TVSA,TAF TVSA 071700Z 0718/0818 07012KT 9999 SCT018
TXKF,TAF TXKF 071730Z 0718/0818 22018KT 9999 SCT030 PROB40 TEMPO 0806/0818 4000 SHRA SCT008 BKN012 PROB30 TEMPO 0812/0818 2000 +SHRA SCT005 BKN008CB 
UAAA,TAF UAAA 071701Z 0718/0818 17003MPS 9999 FEW050CB SCT100 TX36/0809Z TN19/0801Z TEMPO 0718/0802 22003G08MPS BECMG 0802/0803 35003MPS TEMPO 0803/0813 04003G10MPS BECMG 0813/0814 17003MPS
UAAH,TAF UAAH 071100Z 0712/0721 20008MPS 6000 SCT040
UAAT,TAF UAAT 071102Z 0712/0721 16003G12MPS 9999 SCT050CB BKN100 TEMPO 0712/0715 21003G12MPS TEMPO 0715/0721 08003G09MPS
UACC,TAF UACC 071700Z 0718/0818 20003MPS 9999 SCT040 BKN100 TX36/0810Z TN17/0723Z TEMPO 0718/0723 23002MPS BECMG 0723/0801 28004MPS BECMG 0801/0803 30008MPS TEMPO 0805/0816 VRB20MPS 3100 -TSRAGR SQ BKN030CB
UACK,TAF UACK 071104Z 0712/0721 29007MPS 9999 SCT040 TEMPO 0712/0718 32010G16MPS 3100 -TSRA BKN020CB
UADD,TAF UADD 071700Z 0718/0803 18005MPS 9999 NSC
UAII,TAF UAII 071700Z 0718/0818 36003G08MPS 8000 NSC TX39/0810Z TN20/0801Z TEMPO 0718/0803 12003G08MPS FM080400 03005MPS 9999 SCT040 TEMPO 0804/0812 33004G09MPS TEMPO 0812/0818 01006G13MPS
UAIT,TAF UAIT 071700Z 0718/0803 08003G08MPS CAVOK TEMPO 0718/0724 04003MPS
UAKD,TAF AMD UAKD 071152Z 0712/0721 25008G13MPS 9999 SCT040 BKN100 TEMPO 0712/0718 27013G18MPS 3100 BLDU BKN040CB PROB40 TEMPO 0712/0718 VRB18MPS -TSRA SQ BKN040CB
UAKK,TAF UAKK 071701Z 0718/0818 18005MPS 9999 SCT040 BKN100 TX32/0809Z TN12/0723Z TEMPO 0718/0802 SCT030CB BECMG 0802/0804 25007MPS TEMPO 0806/0815 VRB15MPS 3100 -TSRA SQ BKN020CB BECMG 0815/0817 VRB02MPS
UAOO,TAF UAOO 071703Z 0718/0803 33004MPS 9999 SCT040CB BKN100
UARR,TAF UARR 071700Z 0718/0803 VRB02MPS CAVOK TEMPO 0718/0722 30004MPS
UASK,TAF UASK 071701Z 0718/0803 12003MPS 9999 FEW050 SCT100
UASP,TAF UASP 071700Z 0718/0803 10003MPS 9999 SCT030 TEMPO 0718/0724 3100 FU SCT011 BKN020CB TEMPO 0800/0803 16008MPS
UASS,TAF UASS 071104Z 0712/0721 22005G10MPS 9999 SCT050CB SCT100 TEMPO 0712/0718 VRB17MPS 3100 -TSRA SQ BKN030CB
UATE,TAF UATE 071702Z 0718/0818 33004G10MPS 9999 SCT033CB TX26/0810Z TN17/0803Z TEMPO 0718/0802 3100 -TSRA BR BKN005 BKN020CB BECMG 0812/0814 03006G12MPS
UATG,TAF UATG 071700Z 0718/0818 36006MPS 9999 SCT033CB TX29/0811Z TN18/0802Z TEMPO 0718/0724 VRB02MPS BECMG 0802/0804 33007MPS
UATT,TAF UATT 071700Z 0718/0818 34005MPS CAVOK TX25/0812Z TN12/0801Z BECMG 0802/0804 BKN033CB
UAUU,TAF UAUU 071700Z 0718/0803 32008G13MPS 9999 SCT040 TEMPO 0718/0723 34010G15MPS BKN030CB TEMPO 0723/0803 34006MPS
UBBB,TAF UBBB 071646Z 0718/0818 34016G26KT 9999 SCT012 SCT030 TX24/0810Z TN18/0802Z TEMPO 0718/0806 FEW050CB BECMG 0808/0810 35012KT TEMPO 0810/0816 02010KT
UBBF,TAF UBBF 071400Z 0715/0724 02008KT 9999 SCT050CB BKN080 TEMPO 0715/0720 VRB24KT -TSRA SCT012 BKN050CB TEMPO 0720/0724 VRB04KT
UBBG,TAF UBBG 071700Z 0718/0818 VRB04KT 9999 FEW040CB BKN080 TX25/0812Z TN17/0802Z PROB40 TEMPO 0718/0723 VRB18KT -TSRA SCT020CB BKN050 TEMPO 0723/0802 5000 BR SCT010 BKN050 BECMG 0802/0804 FEW040 SCT080
UBBL,TAF UBBL 071645Z 0718/0818 VRB04KT 9999 SCT030 BKN080 TX26/0810Z TN18/0802Z TEMPO 0718/0806 5000 -SHRA BR SCT010 SCT040CB BECMG 0806/0808 13010KT TEMPO 0808/0816 09008KT
UBBN,TAF UBBN 071655Z 0718/0818 13012KT 9999 SCT045CB BKN100 TX31/0812Z TN16/0802Z TEMPO 0718/0722 10012G22KT -TSRA SCT040CB OVC086 TEMPO 0722/0806 03010KT
UBBQ,TAF UBBQ 071646Z 0718/0818 28006KT 9999 FEW040CB BKN080 TX24/0811Z TN16/0802Z PROB40 TEMPO 0718/0724 VRB12KT -TSRA SCT010 SCT030CB TEMPO 0800/0806 -SHRA SCT010 SCT030CB BECMG 0806/0808 16008KT NSC
UBBY,TAF UBBY 071700Z 0718/0803 10008KT 9999 FEW050CB BKN080 PROB40 TEMPO 0718/0722 VRB16KT -TSRA SCT020CB BKN050
UBBZ,TAF UBBZ 071400Z 0715/0724 29010KT 9999 SCT040CB BKN060 TEMPO 0715/0720 VRB16KT -TSRA SCT012 BKN040CB TEMPO 0720/0724 VRB04KT
UBEE,TAF UBEE 071700Z 0718/0803 VRB04KT 9999 FEW040CB BKN080 PROB40 TEMPO 0718/0722 VRB16KT -TSRA SCT020CB BKN050
UCFL,TAF UCFL 071651Z 0718/0818 32003G08MPS 9999 SCT030CB BKN100 TEMPO 0718/0802 06007G12MPS BECMG 0802/0803 15003G08MPS TEMPO 0803/0809 06003G08MPS TEMPO 0809/0814 02003G08MPS
UCFM,TAF UCFM 071650Z 0718/0818 14003G08MPS 9999 SCT050CB TEMPO 0718/0802 VRB07G12MPS 3000 -TSRA BKN020CB BECMG 0805/0806 30003G08MPS TEMPO 0805/0814 24003G08MPS PROB40 TEMPO 0805/0814 TS
UCFO,TAF UCFO 071651Z 0718/0818 18003G08MPS 9999 FEW050CB TEMPO 0718/0724 14005G10MPS 3000 BR SCT030CB PROB40 TEMPO 0718/0724 -TSRA BECMG 0802/0804 17003G08MPS
UDSG,TAF UDSG 071658Z 0718/0818 06008KT 9999 SCT050 TEMPO 0718/0722 VRB20KT SCT040CB
UDYZ,TAF UDYZ 071700Z 0718/0818 04006KT 9999 FEW040 TEMPO 0718/0724 VRB16G26KT -TSRA SCT040CB
UEEE,TAF UEEE 071700Z 0718/0824 33005G10MPS 9999 SCT030CB
UERP,TAF UERP 071700Z 0718/0818 27004MPS 9999 SCT020CB TEMPO 0719/0802 2000 -SHRA BR BKN007 OVC017CB BECMG 0800/0802 29004G10MPS BECMG 0809/0811 VRB01MPS
UERR,TAF UERR 071700Z 0718/0818 VRB01MPS 9999 SCT023CB TEMPO 0718/0801 1000 -SHRA BR BKN003 OVC017CB
UGKO,TAF UGKO 071700Z 0718/0818 27006KT CAVOK TX31/0812Z TN14/0802Z PROB40 TEMPO 0722/0804 0300 FG VV002 BECMG 0804/0806 08010KT TEMPO 0806/0810 08016G29KT BECMG 0812/0814 25007KT
UGSB,TAF UGSB 071700Z 0718/0818 12010KT CAVOK TX23/0810Z TN18/0802Z PROB40 TEMPO 0718/0801 3500 BR SCT008 BKN025 BECMG 0803/0806 27010KT
UGTB,TAF COR UGTB 071700Z 0718/0818 04007KT 9999 SCT050CB TX25/0812Z TN15/0802Z PROB40 TEMPO 0721/0803 4000 TSRA BKN030CB BECMG 0805/0807 15013KT TEMPO 0810/0818 TSRA BKN040CB
UHBB,TAF UHBB 071645Z 0718/0818 12003G10MPS 9999 SCT030CB TEMPO 0718/0809 09006G11MPS 3100 -TSRA SCT011 BKN020CB BECMG 0811/0813 05003MPS
UHHH,TAF UHHH 071652Z 0718/0824 08003G08MPS 9999 SCT020CB FM080600 20003G08MPS 5000 -SHRA BKN020CB TEMPO 0806/0812 VRB10MPS -TSRA FM081200 10003MPS 9999 SCT020CB
UHMA,TAF UHMA 071649Z 0718/0818 08003G08MPS 9999 FEW015 BKN030 TEMPO 0718/0818 02009G14MPS 5000 -RA BR SCT002 BKN010
UHMM,TAF UHMM 071642Z 0718/0824 24003G08MPS 9999 SCT040 TEMPO 0718/0721 3100 BR SCT011
UHPP,TAF UHPP 071644Z 0718/0824 32003G12MPS 9999 BKN040CB TEMPO 0718/0721 1000 BR VV003 TEMPO 0800/0810 17005MPS
UHSS,TAF UHSS 071700Z 0718/0824 36003MPS 9999 SCT030CB TEMPO 0718/0723 1400 BR BKN004 BKN030CB
UHWW,TAF UHWW 071650Z 0718/0818 18003G08MPS 9999 BKN020CB TEMPO 0718/0818 6000 -SHRA BKN016CB
UIAA,TAF UIAA 071700Z 0718/0818 28003MPS 9999 SCT040CB TEMPO 0718/0724 0500 FG VV001 TEMPO 0800/0815 35005G10MPS
UIBB,TAF UIBB 071700Z 0718/0818 09003MPS 9999 FEW001 SCT050CB BECMG 0720/0721 0300 FG VV001 TEMPO 0721/0801 5000 BR FEW001 SCT011CB BECMG 0801/0803 9999 NSW SCT016
UIII,TAF UIII 071700Z 0718/0818 30003MPS 9999 SCT050CB
UIUU,TAF UIUU 071700Z 0718/0818 35003G08MPS 9999 NSC
ULLI,TAF ULLI 071653Z 0718/0818 31005G10MPS 9999 SCT025 BECMG 0721/0722 23003MPS BECMG 0809/0810 29005G11MPS
ULMM,TAF ULMM 071650Z 0718/0818 VRB01MPS 6000 SCT016 TEMPO 0718/0721 3100 -SHRA BKN013CB TEMPO 0721/0803 0400 FG VV002 BECMG 0806/0808 02005G10MPS BECMG 0813/0815 32003G08MPS
ULOO,TAF ULOO 071655Z 0718/0803 03003MPS 9999 SCT040 TEMPO 0801/0803 1200 BR
ULPB,TAF ULPB 071655Z 0718/0803 16003MPS 8000 BKN030 TEMPO 0720/0802 1000 BR FEW011
ULWC,TAF ULWC 071700Z 0718/0803 30002G07MPS 9999 SCT017 TEMPO 0718/0721 1000 BR MIFG FEW005 TEMPO 0721/0803 0500 FG VV003
UMBB,TAF UMBB 071103Z 0712/0721 10004MPS 9999 BKN025 TX26/0713Z TN17/0721Z TEMPO 0712/0718 12005G10MPS 4000 -SHRA SCT016CB PROB40 TEMPO 0712/0718 TS SCT016CB
UMGG,TAF UMGG 071700Z 0718/0818 25005MPS 9999 BKN030 TEMPO 0718/0805 28005G10MPS SCT032CB TEMPO 0805/0818 23006G11MPS -SHRA SCT032CB
UMII,TAF UMII 071404Z 0715/0724 25003G08MPS 9999 SCT020 TEMPO 0715/0724 27004G09MPS
UMIO,TAF UMIO 071105Z 0712/0721 26005MPS 9999 SCT030 TEMPO 0712/0716 29005G10MPS
UMKK,TAF UMKK 071655Z 0718/0818 36003G08MPS CAVOK BECMG 0721/0723 VRB01MPS TEMPO 0722/0804 0300 PRFG SCT002
UMMG,TAF UMMG 071403Z 0715/0724 VRB02MPS CAVOK TEMPO 0715/0718 15003G08MPS
UMMS,TAF AMD UMMS 071727Z 0717/0818 34006MPS 9999 BKN030 TEMPO 0717/0724 34010G15MPS 3000 -SHRA FEW005 BKN015CB FM080000 VRB02MPS 6000 BKN010 TEMPO 0800/0806 3000 BR FEW003 BECMG 0806/0807 24005G10MPS TEMPO 0808/0818 22008G13MPS 5000 -SHRA BKN015CB
UMOO,TAF UMOO 071103Z 0712/0721 24003MPS 9999 BKN025 TEMPO 0712/0721 27003G08MPS
UNAA,TAF UNAA 071654Z 0718/0818 17003MPS 7000 NSC FM080500 24003G08MPS 9999 SCT016CB TEMPO 0806/0815 34006G15MPS -TSRA
UNBB,TAF UNBB 071700Z 0718/0818 18003G08MPS 9999 BKN040CB TEMPO 0718/0803 13008MPS TEMPO 0803/0812 23008G15MPS -TSRA TEMPO 0812/0818 13008G13MPS
UNEE,TAF AMD UNEE 071739Z 0718/0818 18003G08MPS 9999 BKN040CB TEMPO 0718/0818 24007G15MPS -TSRA
UNKL,TAF UNKL 071653Z 0718/0818 VRB01MPS 4000 BR NSC TEMPO 0718/0723 0200 FG VV001 FM080000 18002G07MPS 9999 SCT017CB TEMPO 0802/0813 22007G15MPS -TSRA
UNNT,TAF UNNT 071700Z 0718/0818 20003G08MPS 8000 BKN040CB TEMPO 0804/0815 25009G18MPS -TSRA
UNOO,TAF UNOO 071650Z 0718/0818 VRB01MPS 9999 SCT030CB TEMPO 0718/0721 VRB16MPS 2000 TSRA SCT007 BKN020CB BECMG 0721/0723 33005G13MPS TEMPO 0806/0815 33009G15MPS 3100 -TSRA SCT007 BKN020CB
UNTT,TAF UNTT 071700Z 0718/0803 18003G08MPS 8000 BKN030CB TEMPO 0718/0721 14005G13MPS -TSRA
UNWW,TAF UNWW 071700Z 0718/0818 18003G08MPS 8000 SCT040CB TEMPO 0718/0818 -TSRA
UOOO,TAF UOOO 071658Z 0718/0818 17003G08MPS 6000 -SHRA BKN016CB TEMPO 0718/0721 1200 SHRA BR BKN003 BKN011CB TEMPO 0721/0803 0300 -SHRA FG VV002 BECMG 0803/0806 03008G16MPS
URKA,TAF URKA 071651Z 0718/0818 06003G08MPS CAVOK BECMG 0805/0807 08007G12MPS
URKK,TAF URKK 071656Z 0718/0818 06003G08MPS CAVOK BECMG 0803/0805 08006G13MPS BECMG 0814/0815 06003G08MPS
URMG,TAF URMG 071700Z 0718/0803 10003G08MPS 6000 BKN016 TEMPO 0718/0803 0300 FG OVC002
URML,TAF URML 071700Z 0718/0803 27003G09MPS 6000 -SHRA BKN025 SCT050CB TEMPO 0718/0723 VRB08G13MPS -TSRA BKN020 SCT040CB
URMM,TAF URMM 071700Z 0718/0818 10003G08MPS 9999 BKN016 TX23/0812Z TN14/0803Z TEMPO 0806/0818 11006G13MPS
URMN,TAF URMN 071700Z 0718/0803 25003G08MPS 9999 BKN016
URMO,TAF URMO 071700Z 0718/0803 08003G08MPS 6000 BKN016 TEMPO 0718/0803 0300 FG OVC002
URMT,TAF URMT 071700Z 0718/0803 04003G08MPS 9999 SCT030 TEMPO 0800/0803 09003G10MPS
URRP,TAF URRP 071655Z 0718/0818 05003G12MPS 9999 SCT020 TX25/0812Z TN10/0802Z TEMPO 0718/0818 13003G12MPS
URSS,TAF URSS 071655Z 0718/0818 05003G08MPS 9999 FEW030 BECMG 0806/0807 28005G10MPS BECMG 0817/0818 05003G08MPS NSC
URWA,TAF URWA 071659Z 0718/0803 20003G09MPS 9999 SCT030 TEMPO 0718/0803 25003G10MPS
URWI,TAF URWI 071057Z 0712/0721 04003G12MPS 9999 FEW020 TEMPO 0712/0721 35003G12MPS
URWW,TAF URWW 071659Z 0718/0803 28003G08MPS 9999 SCT020 TEMPO 0718/0803 32003G10MPS
USCC,TAF USCC 071658Z 0718/0818 28003G10MPS 9999 SCT020CB TEMPO 0806/0815 30008G13MPS -SHRA BKN016CB
USCM,TAF USCM 071658Z 0718/0803 32003G10MPS 6000 SCT020CB
USDA,TAF USDA 071355Z 0715/0724 25010G16MPS 6000 FEW005 BKN016CB BECMG 0719/0720 26008G14MPS TEMPO 0722/0724 26006MPS
USHH,TAF AMD USHH 071752Z 0717/0818 35003G12MPS 5000 -SHRA BKN016CB TEMPO 0717/0724 VRB17MPS 1200 TSRA BR SQ BKN004 OVC011CB FM080000 32006G14MPS 9999 BKN016 TEMPO 0800/0818 5000 -SHRA FEW007 BKN016CB
USNN,TAF USNN 071652Z 0718/0818 03003G10MPS 6000 SCT020CB TEMPO 0718/0806 VRB19MPS 1500 TSRA SQ FEW005 BKN016CB BECMG 0806/0807 28006G14MPS BECMG 0813/0815 33007G14MPS
USPP,TAF USPP 071656Z 0718/0818 28003G10MPS 6000 BKN016 BECMG 0802/0803 23003G14MPS BECMG 0803/0804 9999 TEMPO 0806/0818 -TSRA BKN016CB BECMG 0812/0813 33003G13MPS
USRR,TAF USRR 071655Z 0718/0818 04003G10MPS 6000 -SHRA FEW011 BKN017CB TEMPO 0718/0803 VRB18MPS 1500 TSRA SQ SCT005 BKN016CB BECMG 0803/0806 27005G13MPS
USSS,TAF USSS 071654Z 0718/0818 31003G11MPS 9999 BKN030CB FM072000 27003G09MPS 6000 SCT016 TEMPO 0721/0803 FEW004 BKN020 BECMG 0805/0807 9999 BKN020CB TEMPO 0806/0815 -SHRA
USTR,TAF USTR 071630Z 0718/0818 32007G14MPS 9999 BKN010 SCT020CB TEMPO 0718/0803 3100 -SHRA BKN004 BKN016CB FM080900 30003G11MPS 9999 BKN020
UTAA,TAF UTAA 071645Z 0718/0818 27018KT 6000 SCT050CB BKN050 PROB40 TEMPO 0718/0723 VRB26KT 3000 -TSRA BECMG 0800/0802 BKN030 TEMPO 0804/0812 32018G28KT 2000 BLDU PROB40 TEMPO 0806/0812 VRB28KT -TSRA
UTAK,TAF UTAK 071630Z 0718/0818 34018G28KT 6000 SCT016 BKN100 TEMPO 0718/0724 36020G30KT 3000 -SHRA BR BKN003 SCT033CB OVC100 PROB40 TEMPO 0720/0724 VRB24KT TS TEMPO 0802/0805 4000 -SHRA BKN006 SCT050CB BKN100
UTAM,TAF UTAM 071635Z 0718/0818 33016KT 5000 SCT050CB SCT050 BKN100 TEMPO 0718/0803 30012G22KT 3000 DRDU BECMG 0803/0804 33016G26KT 3000 DRDU TEMPO 0804/0814 32020G30KT 0600 DS VV007
UTAT,TAF UTAT 071638Z 0718/0818 36016KT 9999 SCT050CB OVC100 TEMPO 0718/0724 32014G24KT
UTAV,TAF UTAV 071630Z 0718/0818 36014KT 6000 SCT050CB SCT100 PROB40 TEMPO 0718/0724 VRB28KT 2000 BLDU -TSRA
UTDD,TAF UTDD 071500Z 0716/0804 VRB02MPS 9999 FEW066CB SCT100 PROB40 TEMPO 0716/0804 VRB08G13MPS TS
UTDK,TAF UTDK 071500Z 0716/0801 03005MPS 9999 FEW066 SCT100
UTDL,TAF UTDL 071500Z 0716/0804 VRB02MPS 9999 NSC BECMG 0721/0722 08005MPS
UTDT,TAF UTDT 071500Z 0716/0801 VRB02MPS 9999 FEW066 SCT100
UTFF,TAF UTFF 071500Z 0716/0801 14010KT 9999 NSC TEMPO 0716/0720 26012G22KT SCT060CB
UTFN,TAF UTFN 071700Z 0718/0818 34010KT 9999 NSC TX38/0811Z TN23/0801Z TEMPO 0718/0724 23010G20KT SCT050CB
UTNN,TAF UTNN 071700Z 0718/0818 33012G22KT 9999 SCT050 BKN100
UTNU,TAF UTNU 071700Z 0718/0818 29014G24KT 9999 BKN050CB OVC100 TX37/0810Z TN19/0801Z TEMPO 0718/0724 35018KT
UTSA,TAF UTSA 071701Z 0718/0818 VRB03KT 7000 NSC TX41/0811Z TN22/0800Z TEMPO 0718/0805 33014KT -TSRA SCT050CB
UTSB,TAF UTSB 071701Z 0718/0818 VRB03KT 7000 NSC TX41/0811Z TN23/0800Z TEMPO 0718/0805 32014KT -TSRA SCT050CB
UTSK,TAF UTSK 071455Z 0716/0801 34010KT CAVOK TX35/0716Z TN25/0722Z TEMPO 0716/0724 05010KT
UTSS,TAF UTSS 071659Z 0718/0818 06010KT 9999 NSC TX38/0810Z TN22/0801Z TEMPO 0718/0803 15012G24KT
UTST,TAF UTST 071700Z 0718/0818 VRB06KT 6000 NSC TX42/0811Z TN21/0801Z TEMPO 0718/0804 27010G20KT SCT060CB SCT100
UTTT,TAF UTTT 071700Z 0718/0818 07010KT 7000 NSC TX40/0810Z TN22/0801Z TEMPO 0718/0724 32015KT
UUBC,TAF UUBC 071640Z 0718/0803 24003G08MPS 9999 SCT040
UUBP,TAF UUBP 071350Z 0715/0724 23003G08MPS 9999 SCT030
UUBW,TAF UUBW 071657Z 0718/0818 34003MPS 9999 SCT030 TX24/0812Z TN10/0801Z PROB40 TEMPO 0721/0803 0300 FG
UUDD,TAF UUDD 071654Z 0718/0824 27005MPS 9999 SCT030 TX24/0812Z TN08/0801Z TEMPO 0718/0720 33008G15MPS PROB40 TEMPO 0718/0720 -TSRA BKN030CB BECMG 0720/0722 33003MPS PROB40 TEMPO 0722/0803 0300 FG
UUDL,TAF UUDL 071700Z 0718/0818 29003MPS 9999 SCT040 TX19/0812Z TN06/0801Z PROB40 TEMPO 0721/0803 0500 FG OVC002
UUEE,TAF UUEE 071651Z 0718/0818 26005MPS 9999 SCT040 TX23/0813Z TN10/0801Z BECMG 0720/0723 02003MPS PROB40 TEMPO 0723/0804 0300 FG BKN003
UUMO,TAF UUMO 071655Z 0718/0803 33003G08MPS 9999 SCT025 TEMPO 0718/0721 27008G13MPS BKN020
UUOB,TAF UUOB 071655Z 0718/0803 27003MPS 9999 SCT030
UUOK,TAF UUOK 071640Z 0718/0803 33003G08MPS 9999 SCT030
UUOL,TAF UUOL 071700Z 0718/0803 26003MPS CAVOK
UUOO,TAF UUOO 071700Z 0718/0803 24003MPS CAVOK
UUWW,TAF UUWW 071658Z 0718/0818 35003MPS 9999 SCT030 TX24/0812Z TN11/0801Z PROB40 TEMPO 0722/0804 0300 FG BKN003 BECMG 0802/0804 07005MPS BECMG 0811/0813 28005MPS
UUYY,TAF UUYY 071700Z 0718/0818 02003MPS 9999 SCT020CB TEMPO 0719/0803 0300 -SHRA FG FEW002 BKN016CB BECMG 0806/0808 32003G08MPS
UWGG,TAF UWGG 071650Z 0718/0818 29003G08MPS 8000 SCT030 TX21/0812Z TN08/0803Z TEMPO 0718/0724 30008G15MPS -TSRA BKN014CB
UWKD,TAF UWKD 071650Z 0718/0818 26003MPS 9999 SCT040 TX20/0812Z TN10/0801Z TEMPO 0718/0804 BKN020CB BECMG 0805/0806 30006G12MPS
UWKE,TAF UWKE 071657Z 0718/0818 25003G10MPS 9999 SCT040 TEMPO 0718/0806 34003G10MPS BKN016 BECMG 0806/0808 32008G14MPS BKN030
UWKS,TAF UWKS 071649Z 0718/0803 21003G09MPS 9999 SCT040CB TX15/0718Z TN11/0801Z
UWLL,TAF UWLL 071653Z 0718/0818 29003G08MPS 9999 SCT030 TX24/0812Z TN11/0803Z TEMPO 0718/0806 24002MPS TEMPO 0806/0816 32005G12MPS
UWLW,TAF UWLW 071652Z 0718/0818 25003MPS 9999 SCT030 TX22/0811Z TN13/0801Z BECMG 0803/0804 29003G09MPS TEMPO 0804/0816 34008G14MPS BKN016CB
UWOO,TAF UWOO 071655Z 0718/0818 32005G10MPS 9999 SCT020 TX24/0811Z TN11/0723Z TEMPO 0718/0808 30003G10MPS BECMG 0808/0810 27005G12MPS
UWOR,TAF UWOR 071652Z 0718/0803 35005G12MPS 9999 SCT016 TX15/0718Z TN10/0723Z TEMPO 0718/0803 33003G10MPS
UWPS,TAF UWPS 071656Z 0718/0803 25003G10MPS 9999 SCT040CB TX17/0718Z TN10/0802Z TEMPO 0718/0721 -TSRA
UWSG,TAF UWSG 071659Z 0718/0803 29003G08MPS CAVOK TX18/0718Z TN11/0801Z TEMPO 0718/0803 VRB01MPS
UWUU,TAF UWUU 071654Z 0718/0818 24005G12MPS 9999 BKN040 TX22/0810Z TN08/0801Z TEMPO 0718/0803 29003G08MPS TEMPO 0803/0812 21008G18MPS 6000 -TSRAGR FEW007 BKN016CB TEMPO 0812/0818 29003G18MPS 6000 -TSRAGR FEW007 BKN016CB
UWWW,TAF UWWW 071652Z 0718/0818 28005G11MPS 9999 SCT030 TX23/0811Z TN11/0802Z TEMPO 0806/0815 32009G16MPS BKN016CB
VAAH,TAF VAAH 071700Z 0718/0824 20009KT 4000 FU NSC BECMG 0719/0721 22007KT BECMG 0722/0724 26006KT BECMG 0801/0803 3000 HZ FU BECMG 0804/0806 5000 BECMG 0807/0809 23006KT 6000 BECMG 0813/0815 19010KT BECMG 0819/0821 23008KT 
VAAU,TAF VAAU 071100Z 0712/0721 32008KT 5000 HZ SCT020 BECMG 0718/0720 4000 HZ FEW100
VABB,TAF VABB 071400Z 0715/0724 24011KT 4000 HZ FU FEW020 SCT025 BECMG 0722/0724 22006KT 3000 BR -DZ FEW018 SCT025
VABJ,TAF VABJ 071700Z 0718/0803 21008KT 6000 NSC BECMG 0719/0721 24015KT BECMG 0801/0803 3000 HZ FU
VABO,TAF VABO 071700Z 0718/0803 23012KT 6000 NSC BECMG 0719/0721 20012KT BECMG 0722/0724 24011KT BECMG 0801/0803 3000 HZ FU
VABV,TAF VABV 071700Z 0718/0803 15015KT 6000 FEW025 BECMG 0719/0721 22012KT BECMG 0801/0803 3000 HZ FU
VADU,TAF VADU 071700Z 0718/0803 25009KT 6000 NSC BECMG 0719/0721 22010KT BECMG 0722/0724 19010KT BECMG 0801/0803 3000 HZ FU
VAJM,TAF VAJM 071700Z 0718/0803 22010KT 6000 FEW020 BECMG 0719/0721 19010KT BECMG 0801/0803 23010KT 3000 HZ FU
VAKE,TAF VAKE 071400Z 0715/0724 23012G22KT 4000 HZ FU FEW025 BECMG 0716/0718 23010KT SCT020 SCT080
VAKP,TAF VAKP 071100Z 0712/0721 26010KT 5000 HZ FEW020 SCT100 BECMG 0718/0720 23006KT 4000 HZ
VANP,TAF VANP 071700Z 0718/0824 34007KT 3000 HZ FEW020 SCT100 BECMG 0802/0804 34010KT 4000 HZ BECMG 0804/0806 5000 HZ SCT025 FEW030TCU SCT100 TEMPO 0809/0813 33015G25KT 1500 TSRA SCT015 FEW030CB OVC080 BECMG 0812/0814 30007KT 3000 HZ SCT020 FEW030TCU SCT100 BECMG 0818/0820 34008KT 2500 HZ BR FEW020 SCT100
VAPO,TAF VAPO 071100Z 0712/0818 27015G25KT 6000 SCT025 FEW030TCU BECMG 0715/0716 30010KT FEW030 SCT100 TEMPO 0800/0803 5000 HZ TEMPO 0810/0814 30015G25KT SCT025 FEW030TCU SCT090
VAPR,TAF VAPR 071700Z 0718/0803 21006KT 6000 NSC BECMG 0719/0721 24015KT BECMG 0801/0803 3000 HZ FU
VARK,TAF VARK 071700Z 0718/0803 23012KT 6000 NSC BECMG 0722/0724 19009KT BECMG 0801/0803 23010KT 3000 HZ FU
VASL,TAF VASL 071100Z 0712/0721 26010KT 5000 HZ FEW020 SCT100 BECMG 0718/0720 23006KT 4000 HZ
VASU,TAF VASU 071700Z 0718/0803 20010KT 6000 NSC BECMG 0719/0721 23011KT BECMG 0801/0803 19007KT 3000 HZ FU
VAUD,TAF VAUD 071100Z 0712/0721 27008KT 5000 HZ SCT035 SCT100 BECMG 0715/0717 VRB03KT 4000 HZ FEW100
VCBI,TAF VCBI 071700Z 0718/0824 25010KT 9999 FEW014 SCT016 TX32/0807Z TN26/0800Z PROB40 TEMPO 0718/0803 7000 SHRA FEW014 BKN017 PROB30 TEMPO 0809/0815 7000 -TSRA/SHRA FEW014 BKN017 FEW020CB
VCRI,TAF VCRI 071700Z 0718/0824 25010KT 9999 FEW018 TX34/0808Z TN25/0800Z BECMG 0803/0805 24015G25KT BECMG 0814/0816 25010KT 
VDPP,TAF VDPP 071700Z 0718/0812 19008KT 9999 SCT017 SCT040 TEMPO 0807/0811 5000 TSRA SCT015 FEW017CB BKN040
VDSR,TAF VDSR 071700Z 0718/0812 23007KT 9999 SCT017 SCT040 TEMPO 0807/0811 5000 TSRA SCT015 FEW017CB SCT040
VDSV,TAF VDSV 071700Z 0718/0812 27008KT 9999 SCT017 SCT040 TEMPO 0807/0811 5000 TSRA SCT015 FEW017CB SCT040
VEAB,TAF VEAB 070930Z 0712/0724 30008KT 6000 FEW030 TEMPO 0712/0714 29010KT FEW020 FEW030TCU BECMG 0720/0724 VRB02KT SKC
VEAT,TAF VEAT 071700Z 0718/0803 19005KT 3000 BR SCT018 BKN100 TEMPO 0722/0724 1500 TSRA SCT018 FEW025CB BKN100 BECMG 0801/0803 5000 BR SCT018 BKN100
VEBD,TAF VEBD 071100Z 0712/0818 12005KT 6000 FEW025 SCT090
VEBN,TAF VEBN 071700Z 0718/0824 VRB02KT 3000 HZ NSC BECMG 0806/0808 31005KT 5000 HZ FEW025 SCT100 BECMG 0814/0816 VRB02KT 3000 HZ
VEBS,TAF VEBS 071700Z 0718/0803 29004KT 3000 HZ SCT018 BKN100
VECC,TAF VECC 071700Z 0718/0824 16008KT 3200 HZ FEW020 SCT100 BECMG 0723/0801 2500 HZ BECMG 0803/0805 3500 HZ PROB40 TEMPO 0809/0813 25015G25KT 2000 TSRA SCT015 FEW025CB BKN100 BECMG 0822/0824 2800 HZ
VEGT,TAF VEGT 071700Z 0718/0803 18003KT 3000 BR SCT018 BKN100 BECMG 0801/0803 07005KT 5000 HZ
VEGY,TAF VEGY 071400Z 0715/0724 30005KT 5000 HZ FEW100 BECMG 0722/0724 00000KT 3000 HZ FEW020 SCT100
VEIM,TAF VEIM 071700Z 0718/0803 16004KT 3000 BR SCT018 BKN100 BECMG 0801/0803 5000 BR HZ FEW018 BKN100
VEJS,TAF VEJS 071100Z 0712/0721 15005KT 5000 HZ NSC BECMG 0718/0720 2800 HZ
VEMN,TAF VEMN 071700Z 0718/0803 32003KT 3000 BR SCT018 BKN100 BECMG 0801/0803 25006KT 5000 HZ
VEMR,TAF VEMR 071700Z 0718/0803 25004KT 3000 -RA BR SCT018 FEW025CB BKN100 TEMPO 0720/0721 18006KT 1500 TSRA BECMG 0801/0803 3000 -RA
VEPT,TAF VEPT 071700Z 0718/0824 27003KT 4000 HZ NSC BECMG 0800/0802 00000KT 3000 HZ FEW100 BECMG 0806/0808 6000 FEW020 SCT100 BECMG 0815/0817 4000 HZ NSC BECMG 0821/0823 00000KT 3000 HZ
VERC,TAF VERC 071700Z 0718/0803 31004KT 4000 HZ SCT100
VETZ,TAF VETZ 071530Z 0718/0806 20005KT 6000 FEW020TCU SCT030 SCT090 TEMPO 0800/0806 4000 -TSRABR SCT015 FEW030CB BKN080
VGEG,TAF VGEG 071700Z 0718/0824 23012KT 5000 HZ SCT017 SCT100 BECMG 0800/0802 10010KT 4500 HZ SCT016 SCT100 TEMPO 0812/0816 09025G35KT 1500 RA/TSRA SCT008 FEW026CB BKN090 BECMG 0817/0819 12012KT 4500 HZ SCT018 SCT100
VGHS,TAF VGHS 071700Z 0718/0824 20006KT 4000 HZ SCT015 BKN100 BECMG 0722/0724 16005KT 3500 HZ SCT012 BKN100 TEMPO 0800/0806 24020G30KT 2000 RA/TSRA BKN008 FEW025CB OVC090 BECMG 0806/0808 12006KT 4000 HZ SCT015 BKN100
VHHH,TAF VHHH 071700Z 0718/0824 15010KT 9999 FEW015 SCT025 TX32/0806Z TN28/0723Z TN28/0823Z TEMPO 0720/0804 4000 SHRA FEW010CB SCT020
VIAG,TAF VIAG 071700Z 0718/0900 30005KT 6000 NSC TEMPO 0800/0804 VRB02KT 5000 DU BECMG 0805/0806 SCT030 TEMPO 0807/0811 30015G25KT 5000 BLDU SCT025 FEW030TCU SCT250
VIAR,TAF VIAR 071700Z 0718/0803 VRB02KT 4000 HZ BR FEW100 TEMPO 0800/0803 FEW040CB SCT100
VICG,TAF VICG 071700Z 0718/0900 30005KT 6000 FEW030 SCT100 TEMPO 0810/0815 29010G20KT 6000 FEW025 FEW030TCU SCT100 TEMPO 0821/0900 29015G25KT 5000 TSRA SCT025 FEW030CB SCT100
VIDN,TAF VIDN 071100Z 0712/0721 29010KT 5000 HZ FEW030 SCT060 TEMPO 0712/0715 2000 -TSRA SCT030 FEW035CB BKN060 BECMG 0716/0718 05006KT 3500 HZ FEW030 SCT060
VIDP,TAF VIDP 071700Z 0718/0803 29005KT 3500 HZ NSC BECMG 0800/0802 1800 HZ
VIJP,TAF VIJP 071700Z 0718/0824 05005KT 4000 HZ FEW100 BECMG 0804/0806 27010KT 5000 HZ SCT030 SCT100
VIJU,TAF VIJU 070930Z 0718/0812 01005KT 6000 FEW025 SCT200 TEMPO 0808/0812 FEW030TCU/CB
VILH,TAF VILH 070930Z 0718/0812 30010KT 6000 SCT070 BKN120 TEMPO 0720/0800 5000 RA SCT050 BKN100 TEMPO 0807/0811 29020G30KT 4000 RA BLDU SCT050 FEW040TCU BKN100
VILK,TAF VILK 071700Z 0718/0824 VRB02KT 5000 HZ NSC BECMG 0800/0802 VRB02KT 3000 HZ BECMG 0804/0806 33005KT 5000 HZ BECMG 0822/0824 VRB02KT 3000 HZ
VIPT,TAF VIPT 071100Z 0712/0721 29008KT 5000 HZ FEW035 SCT080 BECMG 0718/0720 05006KT 3500 HZ
VISR,TAF VISR 071530Z 0718/0806 VRB02KT 6000 SCT100 BECMG 0722/0724 SCT025 FEW025CB BKN100
VLLB,TAF VLLB 071700Z 0718/0818 27004KT 5000 RA SCT013 BKN060
VLLN,TAF VLLN 071700Z 0718/0818 24004KT 5000 RA SCT016 SCT040 BKN083
VLPS,TAF VLPS 071700Z 0718/0818 14004KT 5000 RA SCT016 BKN040 SCT100
VLSK,TAF VLSK 071700Z 0718/0818 22004KT 4000 TSRA SCT013 FEW023CB BKN083
VLVT,TAF VLVT 071700Z 0718/0818 22004KT 4000 RA SCT013 BKN040 SCT083
VMMC,TAF VMMC 071700Z 0718/0824 16010KT 9999 FEW012 SCT020 TEMPO 0721/0724 VRB15G25KT 2500 +TSRA FEW008 SCT012CB TEMPO 0800/0804 4500 SHRA FEW010CB SCT015
VNKT,TAF VNKT 071700Z 0718/0818 12003KT 7000 FEW015 BECMG 0804/0805 25006KT 8000 FEW015 BECMG 0807/0809 28010KT 9999 FEW020 SCT030 PROB30 0808/0812 VRB15KT BECMG 0814/0815 20005KT 7000 FEW015
VOAR,TAF VOAR 071100Z 0712/0818 27010KT 6000 FEW020 BKN090 TEMPO 0712/0714 33015G25KT 4500 -TSRA/RA SCT016 FEW025TCU/CB BKN090 BECMG 0714/0715 4500 HZ BR BECMG 0804/0805 6000 TEMPO 0810/0814 30015G25KT 4500 -TSRA RA SCT016 FEW025TCU/CB BKN090 BECMG 0814/0815 4500 HZ BR
VOBG,TAF VOBG 071700Z 0718/0803 25005KT 6000 SCT012 TEMPO 0718/0721 3000 TSRA RA SCT010 SCT015 FEW025CB BKN080
VOBL,TAF VOBL 071700Z 0718/0824 25005KT 6000 SCT012 TEMPO 0718/0721 3000 TSRA RA SCT010 SCT015 FEW025CB BKN080 TEMPO 0809/0815 3000 TSRA RA SCT012 SCT020 FEW025CB BKN080
VOBM,TAF VOBM 071700Z 0718/0803 27010KT 6000 SCT015
VOBZ,TAF VOBZ 071700Z 0718/0824 23007KT 5000 HZ SCT015 TEMPO 0723/0803 VRB03KT 3000 BR SCT015 BECMG 0804/0806 23008KT 6000 SCT015 SCT025 BECMG 0817/0819 29007KT 5000 HZ SCT015 TEMPO 0822/0824 VRB03KT 3000 BR SCT015
VOCB,TAF VOCB 071700Z 0718/0824 20010KT 5000 BR FEW015 SCT080 TEMPO 0718/0724 SCT015 FEW020TCU/CB SCT080 BECMG 0803/0804 6000 TEMPO 0809/0815 SCT015 FEW020TCU/CB SCT080 BECMG 0818/0819 5000 BR
VOCI,TAF VOCI 071700Z 0718/0824 02007KT 2500 +RA SCT008 SCT012 FEW025CB BKN080 TEMPO 0722/0802 12010KT 2500 -TSRA BR SCT015 FEW025CB BKN080 BECMG 0803/0805 25005KT 5000 HZ SCT015 SCT080 TEMPO 0808/0812 28010G25KT 3000 -TSRA RA SCT012 FEW025CB BKN080 BECMG 0814/0816 26008KT 3000 -RA BR SCT012 FEW025CB OVC080 TEMPO 0820/0824 33010KT 2000 TSRA SHRA FEW008 SCT012 FEW025CB BKN080
VOCL,TAF VOCL 071700Z 0718/0824 04007KT 3000 BR FEW003 SCT012 FEW025CB BKN080 TEMPO 0722/0802 05005KT 3000 -TSRA BR SCT012 FEW025CB BKN080 BECMG 0803/0804 08005KT 6000 SCT015 SCT080 TEMPO 0809/0812 28010G20KT 2500 -TSRA RA SCT012 FEW025CB BKN080 BECMG 0814/0816 26008KT 4000 -RA BR SCT012 FEW025CB OVC080 TEMPO 0821/0824 33010KT 2000 TSRA SHRA FEW008 SCT012 FEW025CB BKN080
VOGO,TAF VOGO 071700Z 0718/0803 26005KT 6000 SCT020 FEW080 TEMPO 0720/0724 4500 -TSRA /RA FEW015 FEW022TCU/CB SCT080 BECMG 0800/0802 02005KT
VOHB,TAF VOHB 071700Z 0718/0824 27010KT 6000 SCT015 TEMPO 0809/0815 SCT012 SCT020 FEW025CB
VOHS,TAF VOHS 071700Z 0718/0824 27007KT 5000 HZ FEW015 SCT100 TEMPO 0723/0803 VRB03KT 3000 BR SCT015 SCT100 BECMG 0804/0806 33008KT 6000 SCT015 SCT025 BECMG 0817/0819 29007KT 5000 HZ SCT015 TEMPO 0822/0824 VRB03KT 3000 BR SCT015 SCT100
VOHY,TAF VOHY 071400Z 0715/0724 27008KT 4000 -TSRA SCT015 FEW030CB SCT100 BECMG 0718/0720 28007KT 3000 TSRA SCT020 FEW030CB BKN100
VOKN,TAF VOKN 071700Z 0718/0824 12004KT 5000 BR SCT012 FEW025CB TEMPO 0722/0802 10010KT 2500 -TSRA BR FEW004 SCT012 FEW025CB BKN080 BECMG 0803/0805 10010KT 6000 SCT012 SCT080 TEMPO 0808/0812 27010G25KT 2000 -TSRA RA SCT012 FEW025CB BKN080 BECMG 0814/0816 26008KT 4000 -RA BR SCT012 FEW025CB OVC080 TEMPO 0821/0824 33010KT 1800 TSRA SHRA FEW004 SCT012 FEW025CB BKN080
VOLT,TAF VOLT 071100Z 0712/0721 26010KT 5000 HZ FEW020 SCT100 BECMG 0718/0720 23006KT 4000 HZ
VOMD,TAF VOMD 071700Z 0718/0824 27010KT 6000 SCT020 SCT100 BECMG 0721/0722 5000 HZ BECMG 0803/0804 6000 BECMG 0809/0815 SCT018 FEW025TCU/CB SCT100 BECMG 0821/0822 5000 HZ
VOML,TAF VOML 071700Z 0718/0824 09005KT 6000 SCT012 TEMPO 0718/0721 3000 TSRA RA SCT010 SCT015 FEW025CB BKN080 TEMPO 0800/0803 3000 DZ BR SCT005 SCT012 FEW025CB BKN080 BECMG 0806/0807 27010KT TEMPO 0809/0815 3000 TSRA RA SCT012 SCT020 FEW025CB BKN080
VOMM,TAF VOMM 071700Z 0718/0824 27010KT 5000 BR SCT020 SCT100 TEMPO 0718/0724 4000 -TSRA/RA SCT015 FEW025TCU/CB SCT080 BECMG 0806/0807 6000 TEMPO 0809/0815 SCT018 FEW025TCU/CB SCT100 BECMG 0815/0816 20010KT BECMG 0818/0819 5000 BR
VOND,TAF VOND 071100Z 0712/0721 32008KT 5000 HZ SCT020 BECMG 0718/0720 4000 HZ FEW100
VOPB,TAF VOPB 071400Z 0715/0724 24006KT 5000 RA DZ SCT012 BKN080 TEMPO 0715/0721 28010G20KT 2000 TSRA RA SCT010 FEW022TCU/CB OVC080
VORY,TAF VORY 071700Z 0718/0824 19007KT 5000 HZ SCT015 TEMPO 0723/0803 VRB03KT 3000 BR SCT015 BECMG 0804/0806 27008KT 6000 SCT015 SCT025 BECMG 0817/0819 29007KT 5000 HZ SCT015 TEMPO 0822/0824 VRB03KT 3000 BR SCT015
VOSR,TAF VOSR 071100Z 0712/0721 28008KT 4000 HZ FU FEW020 SCT025 TEMPO 0712/0718 27008G18KT 2000 -TSRA -SHRA FEW018 FEW030TCU/CB SCT100 BECMG 0718/0720 18005KT 3000 -DZ HZ FEW018 SCT100
VOTP,TAF VOTP 071700Z 0718/0824 26007KT 5000 HZ SCT020 TEMPO 0723/0803 VRB03KT 3000 BR SCT015 BECMG 0804/0806 24008KT 6000 SCT015 SCT025 BECMG 0817/0819 29007KT 5000 HZ SCT015 TEMPO 0822/0824 VRB03KT 3000 BR SCT015
VOTR,TAF VOTR 071700Z 0718/0824 27010KT 4000 HZ SCT020 SCT100 TEMPO 0718/0724 SCT018 FEW025TCU/CB SCT100 BECMG 0803/0804 27015KT 6000 BECMG 0809/0810 27010KT TEMPO 0809/0815 SCT018 FEW025TCU/CB SCT100 BECMG 0818/0819 5000 HZ
VOTV,TAF VOTV 071700Z 0718/0824 36006KT 3000 BR SCT012 FEW025CB BKN080 TEMPO 0722/0802 30010G25KT 2000 -TSRA BR FEW010 SCT012 FEW025CB BKN080 BECMG 0803/0805 30010KT 4000 -RA BR SCT012 FEW025CB BKN080 TEMPO 0808/0812 34010G20KT 2000 -TSRA RA FEW010 SCT012 FEW025CB OVC080 BECMG 0814/0816 26008KT 3000 -RA BR SCT012 FEW025CB OVC080 TEMPO 0820/0824 33010KT 2000 TSRA SHRA FEW008 SCT012 FEW025CB BKN080
VOVZ,TAF VOVZ 071400Z 0715/0724 20012KT 4000 BR HZ SCT016 BKN070 TEMPO 0715/0718 30010G20KT 3000 TSRA FEW016 FEW025CB OVC070
VRMG,TAF VRMG 071700Z 0718/0824 14008KT 9999 FEW018TCU BKN120 TEMPO 0721/0803 5000 TSRA FEW017CB
VRMH,TAF VRMH 071700Z 0718/0824 25012KT 9999 FEW017TCU BKN120 TEMPO 0718/0724 4000 SHRA FEW017CB
VRMM,TAF VRMM 071700Z 0718/0824 23011KT 9999 FEW018TCU BKN120 TEMPO 0719/0801 5000 SHRA FEW017CB
VTBD,TAF VTBD 071700Z 0718/0824 10005KT 9999 FEW020 SCT040 BECMG 0720/0722 20008KT TEMPO 0808/0814 VRB15G30KT 3000 TSRA FEW018CB SCT030 BKN100
VTBO,TAF VTBO 071700Z 0718/0818 21008KT 8000 SCT020 BKN100 TEMPO 0720/0802 VRB15G30KT 3000 TSRA FEW018CB SCT030 BKN100 TEMPO 0810/0816 VRB10G25KT 4000 TSRA FEW018CB SCT030 BKN100
VTBS,TAF VTBS 071700Z 0718/0824 21008KT 9999 FEW020 SCT040 TEMPO 0808/0814 VRB15G30KT 3000 TSRA FEW018CB SCT030 BKN100
VTBU,TAF VTBU 071700Z 0718/0818 23007KT 9999 FEW020 TEMPO 0721/0801 20015KT 3500 TSRA FEW018CB SCT035 BKN100 BECMG 0805/0807 18012KT BECMG 0814/0816 24012KT 
VTCC,TAF VTCC 071700Z 0718/0824 36005KT 9999 SCT035 TEMPO 0718/0722 -TSRA FEW025CB SCT035 BECMG 0722/0724 16005KT BECMG 0802/0804 22005KT TEMPO 0808/0814 18010G25KT 4000 TSRA FEW025CB BKN035 BECMG 0811/0813 28005KT
VTCH,TAF VTCH 071700Z 0718/0818 33005KT 9999 SCT025 TEMPO 0804/0810 21010G25KT 4000 TSRA FEW020CB BKN025 TEMPO 0812/0816 -TSRA FEW020CB BKN025
VTCL,TAF VTCL 071700Z 0718/0818 20005KT 9999 SCT025 TEMPO 0806/0812 24010G25KT 4000 TSRA FEW020CB BKN025
VTCN,TAF VTCN 071700Z 0718/0818 03005KT 9999 SCT030 BECMG 0801/0803 16005KT BECMG 0804/0806 24005KT TEMPO 0808/0814 16010G25KT 4000 TSRA FEW020CB BKN030
VTCP,TAF VTCP 071700Z 0718/0818 22005KT 9999 SCT030 TEMPO 0806/0812 23010G25KT 4000 TSRA FEW025CB BKN030
VTCT,TAF VTCT 071700Z 0718/0824 03005KT 9999 SCT035 BECMG 0804/0806 20005KT TEMPO 0806/0812 22010G25KT 4000 TSRA FEW020CB BKN030 TEMPO 0814/0818 -TSRA FEW018CB SCT030
VTPB,TAF VTPB 071700Z 0718/0818 18005KT 9999 SCT030 TEMPO 0718/0722 -TSRA FEW020CB BKN025 TEMPO 0808/0814 25015G25KT 4000 TSRA FEW020CB BKN025
VTPH,TAF VTPH 071700Z 0718/0818 00000KT 9999 FEW020 BECMG 0803/0805 23008KT BECMG 0813/0815 00000KT
VTPM,TAF VTPM 071700Z 0718/0818 24005KT 9999 SCT030 TEMPO 0806/0812 4000 RA TEMPO 0814/0818 3000 RA BECMG 0816/0818 33005KT
VTPO,TAF VTPO 071700Z 0718/0818 16005KT 9999 SCT030 BECMG 0801/0803 22005KT TEMPO 0806/0812 25010G25KT 4000 TSRA FEW018CB BKN030 BECMG 0808/0810 16005KT
VTPP,TAF VTPP 071700Z 0718/0818 15005KT 9999 SCT030 TEMPO 0718/0722 -TSRA FEW020CB BKN030 TEMPO 0810/0816 25010G25KT 4000 TSRA FEW020CB BKN030
VTPT,TAF VTPT 071700Z 0718/0818 16005KT 9999 SCT026 BECMG 0804/0806 22005KT TEMPO 0805/0811 24010G25KT 4000 TSRA FEW020CB BKN026 BECMG 0810/0812 28005KT
VTSB,TAF VTSB 071700Z 0718/0818 19005KT 9999 FEW020 TEMPO 0805/0812 25015G25KT 3000 TSRA FEW016CB SCT018 BKN100
VTSC,TAF VTSC 071700Z 0718/0818 20004KT 9999 FEW020 BECMG 0804/0806 04008KT BECMG 0816/0818 20004KT
VTSE,TAF VTSE 071700Z 0718/0818 25005KT 9999 FEW020 BKN100 TEMPO 0718/0806 27015G25KT 4000 RA TEMPO 0806/0818 27015G25KT 4000 RA
VTSF,TAF VTSF 071700Z 0718/0818 21003KT 9999 FEW020 TEMPO 0805/0812 21015G25KT 3000 TSRA FEW016CB SCT018 BKN100
VTSG,TAF VTSG 071700Z 0718/0818 22005KT 9999 SCT020 TEMPO 0802/0810 -TSRA FEW018CB SCT020 BKN100
VTSM,TAF VTSM 071700Z 0718/0818 27005KT 9999 FEW020 TEMPO 0805/0812 27015G25KT 3000 TSRA FEW016CB SCT018 BKN100
VTSP,TAF VTSP 071700Z 0718/0824 26008KT 9999 SCT020 TEMPO 0722/0806 -TSRA FEW018CB SCT020 BKN100
VTSR,TAF VTSR 071700Z 0718/0818 19005KT 9999 SCT020 TEMPO 0720/0804 -TSRA FEW018CB SCT020 BKN100
VTSS,TAF VTSS 071700Z 0718/0818 12003KT 9999 FEW020 BKN100 BECMG 0721/0723 3000 BR BKN005 BECMG 0801/0803 25010KT 9999 NSW FEW020 PROB40 TEMPO 0806/0812 25015G25KT 4000 TSRA FEW016CB SCT018 BKN100 BECMG 0813/0815 12003KT
VTST,TAF VTST 071700Z 0718/0818 18005KT 9999 SCT025 TEMPO 0804/0812 -TSRA FEW018CB SCT020 BKN100
VTSY,TAF VTSY 071700Z 0718/0818 00000KT 8000 FEW020 BECMG 0721/0723 3000 BR BKN005 BECMG 0804/0806 23008KT 9999 NSW FEW020 BECMG 0813/0815 00000KT
VTUD,TAF VTUD 071700Z 0718/0818 20005KT 8000 SCT025 TEMPO 0806/0814 VRB15KT 4000 TSRA FEW018CB BKN025 BKN080
VTUI,TAF VTUI 071700Z 0718/0818 20005KT 8000 SCT025 TEMPO 0808/0816 VRB15KT 4000 TSRA FEW018CB BKN025 BKN080
VTUK,TAF VTUK 071700Z 0718/0818 20005KT 8000 SCT025 TEMPO 0806/0814 VRB15KT 4000 TSRA FEW018CB BKN025 BKN080
VTUL,TAF VTUL 071700Z 0718/0818 20005KT 8000 SCT025 TEMPO 0807/0815 VRB15KT 4000 TSRA FEW018CB BKN025 BKN080
VTUO,TAF VTUO 071700Z 0718/0818 21007KT 9000 SCT030 TEMPO 0810/0814 VRB15KT 4000 TSRA FEW020CB BKN025
VTUQ,TAF VTUQ 071700Z 0718/0818 22005KT 9000 SCT030 TEMPO 0810/0814 VRB15KT 4000 TSRA FEW020CB BKN025
VTUU,TAF VTUU 071700Z 0718/0818 20005KT 9000 SCT045 TEMPO 0809/0812 VRB15KT 4000 TSRA FEW020CB BKN025
VTUV,TAF VTUV 071700Z 0718/0818 23005KT 9000 SCT030 TEMPO 0810/0814 VRB15KT 4000 TSRA FEW020CB BKN025
VTUW,TAF VTUW 071700Z 0718/0818 17005KT 8000 SCT025 TEMPO 0808/0816 VRB15KT 4000 TSRA FEW018CB BKN025 BKN080
VVCI,TAF VVCI 071700Z 0718/0818 16006KT 9999 SCT020 TEMPO 0721/0803 4000 TSRA SCT010 FEW027CB TEMPO 0810/0815 3500 +TSRA BKN015 FEW027CB
VVCR,TAF VVCR 071700Z 0718/0818 32004KT 9999 FEW015 BECMG 0803/0804 10010KT TEMPO 0808/0812 TS SCT013 FEW017CB SCT060 BECMG 0812/0813 32004KT
VVCT,TAF VVCT 071700Z 0718/0818 VRB03KT 9999 SCT015 SCT040 BECMG 0801/0802 25010KT TEMPO 0802/0808 3000 TSRA BKN015 SCT017CB
VVDN,TAF VVDN 071700Z 0718/0818 22004KT 8000 SCT015 SCT060 BECMG 0803/0804 04010KT TEMPO 0809/0813 4500 TSRA SCT013 FEW017CB BKN050 BECMG 0813/0814 22004KT
VVNB,TAF VVNB 071700Z 0718/0818 15010KT 9999 SCT025 TEMPO 0723/0802 4000 TSRA SCT010 FEW027CB TEMPO 0812/0816 3200 +TSRA BKN010 FEW027CB
VVPB,TAF VVPB 071700Z 0718/0818 20003KT 8000 FEW015 SCT060 BECMG 0803/0804 08010KT TEMPO 0808/0812 4000 TSRA SCT012 FEW015CB BKN050 BECMG 0812/0813 20003KT
VVPQ,TAF VVPQ 071700Z 0718/0818 VRB03KT 9999 SCT017 SCT040 TEMPO 0722/0802 24015G26KT 3000 TSRA BKN015 SCT017CB BECMG 0801/0802 26010KT
VVTS,TAF VVTS 071700Z 0718/0824 24008KT 9999 SCT015 BKN040 TEMPO 0805/0810 25015G29KT 3500 TSRA BKN015 SCT017CB BKN040
VVVD,TAF VVVD 071700Z 0718/0818 18005KT 9999 SCT020 TEMPO 0721/0803 4000 TSRA SCT010 FEW027CB TEMPO 0812/0816 4000 TSRA BKN015 FEW030CB
VYMD,TAF VYMD 071700Z 0718/0818 18005KT 6000 BKN020 FEW025CB TEMPO 0718/0724 18007KT 4000 -TSRA BKN018 FEW020CB BKN100
VYNT,TAF VYNT 071700Z 0718/0818 26008KT 7000 SCT020 SCT120 TEMPO 0718/0724 29006KT 6000 SCT020 SCT120
VYYY,TAF VYYY 071700Z 0718/0818 15007KT 7000 SCT018 FEW020CB BKN100 TEMPO 0718/0724 4000 RA BKN016 FEW018CB OVC090
WAAA,TAF WAAA 071700Z 0718/0824 15004KT 8000 FEW019 BECMG 0804/0805 29010KT
WABB,TAF WABB 071700Z 0718/0900 00000KT 9999 SCT018 BECMG 0721/0723 11004KT
WADD,TAF WADD 071700Z 0718/0818 11010KT 9999 SCT017
WADL,TAF WADL 071700Z 0718/0818 11006KT 7000 SCT016
WALL,TAF WALL 071100Z 0712/0818 23003KT 9000 FEW020 BECMG 0712/0714 FEW015TCU
WALS,TAF WALS 071100Z 0712/0724 VRB02KT 8000 SCT016 TEMPO 0722/0724 3000 BR
WAMM,TAF WAMM 071700Z 0718/0824 VRB03KT 9999 SCT020 BECMG 0800/0802 16009KT
WAOO,TAF WAOO 071700Z 0718/0818 10005KT 9000 FEW020
WAPP,TAF WAPP 071700Z 0718/0818 31006KT 9999 SCT017
WAQA,TAF WAQA 071100Z 0712/0724 12004KT 8000 SCT012
WAQD,TAF WAQD 071100Z 0712/0724 00000KT 8000 SCT015
WAQJ,TAF WAQJ 071100Z 0712/0724 00000KT 6000 SCT017 BECMG 0720/0721 1000 BR BKN006
WAQQ,TAF WAQQ 071100Z 0712/0724 00000KT 8000 SCT015
WAQT,TAF WAQT 071100Z 0712/0724 07004KT 8000 BKN016 TEMPO 0722/0724 3000 BR
WARR,TAF WARR 071700Z 0718/0818 11005KT 8000 FEW020 TEMPO 0720/0800 25005KT 4000 HZ BECMG 0800/0802 11010KT 9999
WATT,TAF WATT 071700Z 0718/0818 13006KT 8000 FEW018
WBGB,TAF WBGB 071700Z 0718/0818 21005KT 9999 FEW016 TEMPO 0807/0811 35005KT 5000 RA SCT016
WBGG,TAF WBGG 071700Z 0718/0818 VRB03KT 9999 FEW020 TEMPO 0807/0811 33010KT 3000 TSRA FEW015CB SCT020
WBGR,TAF WBGR 071700Z 0718/0818 VRB03KT 9999 FEW016 TEMPO 0719/0722 5000 RA FEW005 SCT016 TEMPO 0808/0812 33010KT 3000 TSRA FEW015CB SCT016
WBGS,TAF WBGS 071700Z 0718/0818 VRB03KT 9999 SCT016 TEMPO 0807/0811 05010KT 3000 TSRA FEW015CB SCT016
WBKK,TAF WBKK 071700Z 0718/0818 12005KT 9999 FEW014 BECMG 0800/0802 28006KT BECMG 0810/0812 11005KT
WBKL,TAF WBKL 071700Z 0718/0818 VRB03KT 9999 FEW014
WBKS,TAF WBKS 071700Z 0718/0818 22006KT 9999 FEW016 PROB30 TEMPO 0808/0812 5000 TSRA FEW010 FEW016CB SCT040
WBKW,TAF WBKW 071700Z 0718/0818 VRB03KT 9999 FEW016 BECMG 0802/0804 15006KT
WBSB,TAF WBSB 071700Z 0718/0900 14004KT 9999 FEW014 FEW015CB BECMG 0803/0805 30008KT FEW016 FEW017CB PROB30 TEMPO 0806/0810 6000 -SHRA
WIDD,TAF WIDD 071700Z 0718/0818 16003KT 9999 FEW014
WIEE,TAF WIEE 071700Z 0718/0818 13002KT 9999 FEW020
WIHH,TAF WIHH 071700Z 0718/0818 12004KT 5000 HZ FEW020 BECMG 0801/0803 06012KT 7000 NSW SCT020
WIII,TAF WIII 071700Z 0718/0824 20006KT 4000 BR SCT020 BECMG 0800/0802 9999 NSW
WIMM,TAF WIMM 071700Z 0718/0818 VRB05KT 4000 HZ SCT017 BECMG 0802/0804 07010KT 9000 NSW
WIPP,TAF WIPP 071700Z 0718/0818 14006KT 9999 FEW010 TEMPO 0718/0722 4000 RA
WITT,TAF WITT 071700Z 0718/0818 03003KT 9999 FEW290 BKN310 PROB30 TEMPO 0720/0722 5000 -RA FEW016CB
WMAP,TAF WMAP 071700Z 0718/0818 VRB02KT 9999 FEW020 PROB30 TEMPO 0808/0812 5000 TSRA FEW017CB
WMBT,TAF WMBT 071700Z 0718/0818 VRB02KT 9999 FEW025
WMKA,TAF WMKA 071700Z 0718/0818 VRB02KT 9999 FEW030 BECMG 0804/0806 26006KT FEW020 BECMG 0810/0812 VRB03KT FEW030
WMKB,TAF WMKB 071700Z 0718/0818 VRB02KT 9000 FEW024 BECMG 0804/0806 30008KT 8000 FEW020
WMKC,TAF WMKC 071700Z 0718/0818 VRB03KT 9999 FEW020 TEMPO 0809/0813 7000 -TSRA FEW017CB
WMKE,TAF WMKE 071700Z 0718/0818 VRB02KT 9999 FEW020 TEMPO 0809/0813 7000 -TSRA FEW014CB
WMKI,TAF WMKI 071700Z 0718/0818 VRB02KT 8000 FEW005 TEMPO 0808/0812 21007KT 6000 TSRA FEW017CB
WMKJ,TAF WMKJ 071700Z 0718/0818 VRB02KT 9999 FEW022 PROB30 TEMPO 0723/0803 5000 TSRA FEW017CB
WMKK,TAF WMKK 071700Z 0718/0900 VRB03KT 9999 FEW017CB TEMPO 0718/0722 16006KT 5000 TSRA FEW008 FEW017CB
WMKL,TAF WMKL 071700Z 0718/0818 VRB02KT 9999 FEW026
WMKM,TAF WMKM 071700Z 0718/0818 VRB03KT 9999 FEW020 PROB30 TEMPO 0718/0722 25006KT 5000 TSRA FEW010 FEW017CB
WMKN,TAF WMKN 071700Z 0718/0818 VRB03KT 9999 FEW022 TEMPO 0808/0812 7000 -TSRA FEW017CB
WMKP,TAF WMKP 071700Z 0718/0818 VRB02KT 8000 FEW025 BECMG 0804/0806 23008KT 9999 FEW020 BECMG 0810/0812 00000KT 8000 FEW025
WMPA,TAF WMPA 070500Z 0706/0806 VRB02KT 9999 FEW021
WMSA,TAF WMSA 071700Z 0718/0818 VRB03KT 9999 FEW107CB
WPDL,TAF WPDL 071704Z 0718/0806 16006KT 9999 FEW025 FM080000 01008KT 9999 FEW035 FM080400 31008KT 9999 FEW025 SCT045 PROB30 TEMPO 0805/0806 VRB15G30KT 1000 TSRA SCT020 SCT045CB
WSAP,TAF WSAP 071700Z 0718/0900 16010KT 9999 FEW015 SCT020 TEMPO 0804/0807 3000 TSRA FEW012CB BKN015
WSSL,TAF WSSL 071700Z 0718/0900 16010KT 9999 FEW015 SCT020 TEMPO 0804/0807 3000 TSRA FEW012CB BKN015
WSSS,TAF WSSS 071700Z 0718/0900 16010KT 9999 FEW015 SCT020 TEMPO 0804/0807 3000 TSRA FEW012CB BKN015
YAMB,TAF YAMB 071627Z 0718/0818 VRB02KT 9999 MIFG FEW002 BKN045 FM072200 32006KT 9999 NSW SCT030 FM080600 04008KT 9999 SCT035 BKN045 FM081200 29005KT 9999 -SHRA SCT040 FM081600 29005KT 9999 MIFG FEW002 PROB40 0718/0721 0600 FG BKN002 PROB40 0816/0818 0600 FG BKN002
YBAS,TAF YBAS 071714Z 0718/0818 23005KT CAVOK FM071900 17005KT CAVOK FM080000 14012KT CAVOK FM080900 12005KT CAVOK
YBBN,TAF YBBN 071703Z 0718/0900 19006KT 9999 -SHRA BKN040 FM080300 04008KT 9999 FEW040 FM081200 26005KT 9999 -SHRA FEW050 FM081800 26005KT CAVOK
YBCG,TAF YBCG 071726Z 0718/0818 20004KT 9999 SCT025 BKN040 FM080100 01010KT 9999 FEW030 SCT045 FM080800 34012KT 9999 FEW035 SCT050
YBCS,TAF YBCS 071706Z 0718/0818 16008KT 9999 -SHRA SCT020 BKN030 FM080000 13013KT 9999 NSW SCT030 FM080800 16007KT 9999 SCT030 INTER 0718/0800 13015G25KT 4000 SHRA SCT015
YBHM,TAF AMD YBHM 071706Z 0717/0806 17014KT 9999 SCT015 FM080500 13014KT 9999 SCT020
YBLN,TAF AMD YBLN 071707Z 0718/0818 23008KT 9999 -SHRA SCT025 BKN035 FM080200 22008KT 9999 -SHRA FEW020 BKN030 FM080700 18009KT 9999 -SHRA BKN035 BKN050 FM081200 12004KT 9999 -SHRA SCT030 SCT050 INTER 0718/0802 4000 SHRA SCT010 BKN015 INTER 0802/0807 5000 SHRA SCT015 BKN025
YBMA,TAF YBMA 071706Z 0718/0806 VRB04KT CAVOK FM072300 17012KT CAVOK
YBRK,TAF YBRK 071715Z 0718/0818 13006KT 9999 SCT020 BKN040 FM080100 10005KT 9999 -SHRA SCT030 FM080400 04008KT 9999 NSW FEW030 SCT040 FM080900 19003KT CAVOK PROB30 0812/0818 0500 FG
YBRM,TAF YBRM 071639Z 0718/0818 18005KT CAVOK FM080100 12011KT CAVOK FM081200 17008KT CAVOK
YBSU,TAF AMD YBSU 071725Z 0718/0818 23005KT 9999 SCT030 BKN040 FM080100 12006KT 9999 -SHRA SCT035 BKN050 FM080800 30008KT 9999 NSW FEW015 SCT040 INTER 0718/0806 3000 SHRA SCT015 BKN030
YBTL,TAF YBTL 071706Z 0718/0818 20005KT 9999 SCT020 FM080000 13009KT 9999 SCT025 FM080300 06013KT 9999 FEW030 FM081000 18004KT 9999 SCT020
YBWW,TAF AMD YBWW 071708Z 0717/0818 06008KT 9999 SCT014 BECMG 0721/0723 35010KT 9999 FEW025 SCT040 FM081000 26012KT 9999 SCT030 BKN050 FM081200 22008KT 9999 -DZ BKN006 TEMPO 0717/0722 9999 BKN010 TEMPO 0812/0818 2000 DZ OVC002
YCFS,TAF YCFS 071705Z 0718/0818 02005KT 9999 SCT030 FM080100 01014KT 9999 FEW040 FM080800 34007KT 9999 -RA NSC FM081200 25006KT CAVOK
YCIN,TAF YCIN 071323Z 0714/0802 17008KT 9999 FEW050
YFRT,TAF YFRT 071308Z 0714/0802 29012KT CAVOK
YGEL,TAF YGEL 071704Z 0718/0812 03007KT 9999 SCT050 FM080600 12010KT 9999 BKN050
YGLA,TAF YGLA 071716Z 0718/0806 20005KT 9999 FEW025 BKN035 FM080000 04008KT 9999 SCT030 SCT040 INTER 0718/0802 08010KT 5000 SHRA SCT015 BKN025
YHID,TAF YHID 071706Z 0718/0818 13014KT 9999 -SHRA BKN016 BECMG 0723/0800 13019G29KT 9999 NSW SCT022 FM080800 13013KT 9999 SCT022 INTER 0718/0723 13020G30KT 4000 SHRA BKN010
YLHI,TAF YLHI 071720Z 0718/0818 10008KT 9999 FEW025 SCT035 FM080300 04008KT 9999 SCT035 FM081500 01012KT 9999 -SHRA SCT025
YMAV,TAF AMD YMAV 071740Z 0718/0818 30010KT 9999 FEW015 SCT030 FM080300 33015G25KT 9999 -SHRA SCT030 FM081400 30015G25KT 9999 -SHRA SCT030 INTER 0811/0815 32020G35KT 4000 SHRA BKN015 FEW025TCU
YMHB,TAF AMD YMHB 071720Z 0718/0818 01008KT 9999 -RA SCT035 BKN050 FM072000 36010KT 9999 -RA SCT020 BKN030 FM080100 34006KT CAVOK FM081500 35014KT CAVOK INTER 0721/0800 6000 RA SCT030
YMLT,TAF AMD YMLT 071719Z 0718/0818 36014KT 9999 -RA SCT008 BKN012 FM072000 34010KT 9999 -SHRA SCT008 BKN012 BECMG 0802/0803 35012KT 9999 -SHRA SCT015 BKN025 FM081500 34015KT 9999 -SHRA SCT010 BKN020 TEMPO 0718/0800 3000 SHRA BKN008 INTER 0800/0806 5000 SHRA BKN015 INTER 0814/0818 VRB20G32KT 4000 SHRA BKN010
YMML,TAF AMD YMML 071726Z 0718/0900 33010KT 9999 FEW015 SCT025 FM080300 34016G26KT 9999 -SHRA SCT030 FM081500 31014KT 9999 -SHRA SCT030 FM082000 31014KT 9999 NSW SCT040 INTER 0812/0815 32020G35KT 4000 SHRA BKN015 FEW025TCU
YPAD,TAF YPAD 071733Z 0718/0900 30020G30KT 9999 -SHRA SCT030 FM081000 25015G25KT 9999 -SHRA SCT020 SCT040 FM081300 25015G25KT 9999 NSW SCT045 INTER 0718/0723 VRB20G35KT 3000 SHRA SCT015 BKN025 INTER 0809/0812 VRB25G40KT 3000 SHRA SCT010 BKN020
YPCC,TAF YPCC 071651Z 0718/0818 10020KT 9999 -SHRA SCT020 INTER 0718/0803 08015G25KT 2000 SHRA BKN010
YPDN,TAF YPDN 071708Z 0718/0900 15005KT 9999 FEW020 SCT040 FM072300 11008KT 9999 SCT040 FM080500 02008KT 9999 SCT050 FM081100 06005KT CAVOK FM081500 12005KT 9999 FEW010 SCT040
YPEA,TAF YPEA 071734Z 0718/0812 35005KT 9999 -SHRA BKN030 FM080300 29010KT 9999 -SHRA SCT015 BKN025 FM080900 04005KT 9999 -SHRA FEW020 BKN030 INTER 0721/0803 5000 SHRA SCT015 BKN020 TEMPO 0803/0809 3000 SHRA SCT008 BKN012
YPGV,TAF AMD YPGV 071313Z 0714/0802 15008KT 9999 SCT020 FM080000 10017KT 9999 SCT025 INTER 0718/0802 11017G27KT 3000 SHRA BKN010 BKN020
YPJT,TAF YPJT 071732Z 0718/0812 03005KT 9999 -SHRA SCT015 BKN020 BECMG 0802/0803 35010KT 9999 -SHRA SCT018 BKN025 FM080900 04005KT 9999 -SHRA FEW020 BKN030 INTER 0721/0802 4000 SHRA BKN010 INTER 0802/0809 3000 SHRA SCT010 BKN015
YPKG,TAF YPKG 071703Z 0718/0818 29007KT 9999 FEW010 SCT040 FM080200 24010KT 9999 FEW010 SCT050 FM080600 22009KT 9999 BKN035
YPKU,TAF YPKU 071326Z 0714/0802 18005KT CAVOK
YPLM,TAF YPLM 071658Z 0718/0818 21008KT 9999 SCT050 FM080100 13012KT CAVOK FM080300 08012KT CAVOK FM081200 20008KT CAVOK
YPPD,TAF YPPD 071702Z 0718/0818 19008KT CAVOK FM080100 11017KT CAVOK FM080600 01008KT CAVOK FM080900 27008KT CAVOK
YPPH,TAF AMD YPPH 071731Z 0718/0900 04005KT 9999 -SHRA SCT015 BKN020 BECMG 0802/0803 01007KT 9999 -SHRA SCT018 BKN025 FM080900 04005KT 9999 -SHRA FEW020 BKN030 FM081500 02005KT 9999 -SHRA FEW010 BKN020 INTER 0721/0802 4000 SHRA BKN010 INTER 0802/0809 3000 SHRA SCT010 BKN015 TEMPO 0818/0900 3000 SHRA BKN010
YPTN,TAF YPTN 071706Z 0718/0818 09007KT CAVOK FM072100 11005KT 9999 FEW010 FM080000 10012KT CAVOK FM080900 09005KT CAVOK
YPWR,TAF YPWR 071726Z 0718/0812 27014KT CAVOK
YPXM,TAF AMD YPXM 071707Z 0718/0818 13014KT 9999 BKN015 FM081200 13014KT 9999 BKN012 TEMPO 0718/0802 9999 BKN010 TEMPO 0812/0818 9999 BKN010
YSCB,TAF YSCB 071730Z 0718/0818 VRB03KT CAVOK FM072100 35014KT 9999 -RA SCT010 BKN025 FM080600 32012KT 9999 -SHRA SCT010 BKN030 FM080900 30010KT 9999 NSW SCT040 FM081500 30010KT 9999 SCT020 INTER 0722/0800 5000 RA BKN012 TEMPO 0800/0806 4000 RA BKN008 INTER 0806/0809 VRB15G25KT 3000 SHRA BKN008 SCT020TCU
YSDU,TAF AMD YSDU 071707Z 0718/0812 05008KT CAVOK FM072100 36014KT 9999 -RA BKN018 FM080800 26006KT CAVOK TEMPO 0722/0806 3000 RA BKN008 PROB30 INTER 0802/0808 VRB25G35KT 2000 TSRA BKN010 FEW040CB
YSNF,TAF YSNF 071719Z 0718/0818 14016KT 9999 -SHRA SCT025 BKN035 FM072100 17012KT 9999 NSW SCT040
YSRI,TAF AMD YSRI 071706Z 0718/0818 VRB03KT 0300 FG NSC FM080000 35010KT 9999 NSW FEW010 FM080400 35010KT 9999 -RA FEW030 FM080800 30008KT CAVOK INTER 0803/0808 4000 SHRA SCT020 PROB30 0800/0801 0300 FG
YSSY,TAF AMD YSSY 071709Z 0718/0900 34006KT CAVOK FM080000 01016KT 9999 FEW040 FM080400 36017KT 9999 -RA SCT020 BKN050 FM080900 29010KT CAVOK INTER 0804/0809 4000 SHRA SCT015
YSTW,TAF YSTW 071711Z 0718/0812 VRB03KT CAVOK FM080100 35012KT 9999 SCT040 FM080400 34012KT 9999 -RA BKN040 FM080900 32008KT 9999 -SHRA SCT008 BKN020 INTER 0806/0809 3000 RA BKN008 BKN020 PROB30 0718/0720 2000 BR
YWLM,TAF AMD YWLM 071708Z 0718/0818 30006KT 9999 FEW020 FM080100 02010KT 9999 FEW030 FM080500 32010KT 9999 -RA SCT030 FM081000 29008KT CAVOK INTER 0805/0809 4000 SHRA BKN030 PROB30 0718/0723 0300 FG
ZBAA,TAF ZBAA 071506Z 0718/0818 34004MPS CAVOK TX36/0807Z TN20/0721Z
ZBAD,TAF ZBAD 071502Z 0718/0818 36004G10MPS 5000 BR NSC TX34/0807Z TN20/0721Z
ZBHH,TAF ZBHH 071503Z 0718/0818 06004MPS 9999 FEW040 TX28/0807Z TN13/0722Z BECMG 0804/0806 32008G15MPS BECMG 0811/0813 36003MPS
ZBSJ,TAF ZBSJ 071508Z 0718/0818 30004MPS CAVOK TX35/0806Z TN21/0721Z
ZBTJ,TAF ZBTJ 071506Z 0718/0818 03003MPS 5000 HZ NSC TX34/0806Z TN22/0721Z
ZBYN,TAF ZBYN 071503Z 0718/0818 09003MPS 5000 HZ NSC TX30/0807Z TN15/0721Z BECMG 0804/0805 31008G14MPS BECMG 0810/0811 09003MPS
ZGGG,TAF ZGGG 071513Z 0718/0818 10003MPS 8000 BKN033 TX32/0807Z TN26/0722Z TEMPO 0722/0804 3000 SHRA FEW030CB BKN033 TEMPO 0804/0810 TSRA SCT030CB BKN033
ZGHA,TAF ZGHA 071506Z 0718/0818 35004MPS 4000 BR SCT050 TX29/0807Z TN24/0722Z TEMPO 0721/0801 SHRA SCT008 FEW040CB BKN040
ZGKL,TAF ZGKL 071508Z 0718/0818 18003MPS 5000 BR SCT033 BKN060 TX33/0807Z TN24/0722Z TEMPO 0721/0802 3000 -TSRA BR FEW020 SCT033 FEW033CB BKN050 TEMPO 0806/0812 3000 TSRA BR FEW020 SCT033 FEW033CB BKN050
ZGNN,TAF ZGNN 071510Z 0718/0818 07003MPS 6000 BKN030 TX30/0807Z TN24/0722Z TEMPO 0720/0802 TSRA SCT010 FEW026CB BKN030 TEMPO 0805/0811 TSRA SCT010 FEW026CB BKN030
ZGOW,TAF ZGOW 071507Z 0718/0818 18003MPS 5000 BR FEW020 SCT040 TX33/0806Z TN26/0722Z TEMPO 0722/0804 3000 SHRA FEW015 FEW026CB BKN033 TEMPO 0804/0810 2000 +TSRA SCT011 SCT026CB BKN033
ZGSZ,TAF ZGSZ 071505Z 0718/0818 10004MPS 8000 SCT023 TX32/0806Z TN27/0722Z TEMPO 0800/0806 TSRA SCT020 FEW020CB BKN030 BECMG 0801/0802 18004MPS
ZHCC,TAF ZHCC 071510Z 0718/0818 01004MPS 5000 HZ NSC TX34/0807Z TN23/0722Z
ZHHH,TAF ZHHH 071502Z 0718/0818 26003MPS 6000 NSC TX34/0807Z TN22/0722Z
ZJHK,TAF ZJHK 071503Z 0718/0818 04003MPS 9999 SCT020 TX33/0806Z TN26/0721Z BECMG 0804/0805 SCT020 FEW026CB TEMPO 0805/0810 2500 TSRA BECMG 0810/0811 SCT020
ZJSY,TAF ZJSY 071506Z 0718/0818 03004MPS 9999 FEW018 TX32/0806Z TN26/0721Z TEMPO 0718/0724 -TSRA SCT016 FEW025CB TEMPO 0806/0812 SCT018 FEW026CB
ZKPY,TAF ZKPY 070400Z 0706/0806 16003MPS 9999 SCT020 TX28/0706Z TN19/0721Z BECMG 0710/0712 BKN023 TEMPO 0717/0721 21003MPS 4000 RA FEW017CB BKN020
ZKWS,TAF ZKWS 070400Z 0706/0806 17003MPS CAVOK TX28/0706Z TN20/0721Z TEMPO 0716/0722 21003MPS 8000 BKN030
ZLLL,TAF ZLLL 071502Z 0718/0818 33003MPS 6000 NSC TX27/0808Z TN09/0722Z
ZLXY,TAF ZLXY 071502Z 0718/0818 24003MPS 6000 NSC TX34/0808Z TN19/0722Z
ZMCK,TAF ZMCK 071633Z 0718/0824 VRB02MPS CAVOK TN05/0722Z TX21/0807Z BECMG 0801/0803 32010MPS SCT033 BECMG 0810/0812 VRB02MPS
ZMUB,TAF ZMUB 071634Z 0718/0824 VRB02MPS CAVOK TN07/0722Z TX21/0807Z BECMG 0802/0804 34009MPS SCT033 BECMG 0810/0812 VRB02MPS
ZPPP,TAF ZPPP 071508Z 0718/0818 16004MPS 9999 SCT020 BKN033 TX25/0808Z TN15/0723Z BECMG 0801/0802 04005MPS
ZSAM,TAF ZSAM 071511Z 0718/0818 19004MPS 6000 BKN030 TX34/0806Z TN27/0721Z TEMPO 0805/0811 TSRA FEW026CB BKN030
ZSFZ,TAF ZSFZ 071515Z 0718/0818 19004MPS 6000 BKN020 TX32/0806Z TN25/0721Z TEMPO 0806/0812 TSRA FEW025CB
ZSHC,TAF ZSHC 071501Z 0718/0818 24003MPS 3000 BR BKN020 TX28/0806Z TN22/0721Z TEMPO 0720/0724 SHRA
ZSJN,TAF ZSJN 071504Z 0718/0818 35003MPS 5000 BR NSC TX30/0806Z TN22/0721Z
ZSNB,TAF ZSNB 071512Z 0718/0818 16004MPS 3000 BR SCT030 TX27/0806Z TN22/0721Z TEMPO 0719/0801 SHRA FEW006 BKN020 FEW030CB
ZSNJ,TAF ZSNJ 071503Z 0718/0818 23003MPS 3000 BR NSC TX31/0806Z TN21/0721Z
ZSOF,TAF ZSOF 071501Z 0718/0818 27003MPS 3500 BR NSC TX32/0806Z TN20/0721Z
ZSPD,TAF ZSPD 071503Z 0718/0818 18004MPS 6000 BKN011 TX29/0806Z TN22/0721Z TEMPO 0718/0724 TSRA BKN007 SCT030CB
ZSQD,TAF ZSQD 071507Z 0718/0818 18004MPS 5000 BR NSC TX32/0806Z TN21/0720Z TEMPO 0718/0721 32008G17MPS TSRA BKN020 SCT030CB BECMG 0804/0805 33005MPS
ZSSS,TAF ZSSS 071503Z 0718/0818 18004MPS 6000 BKN015 TX30/0806Z TN23/0721Z TEMPO 0718/0724 TSRA BKN008 SCT030CB
ZUCK,TAF ZUCK 071503Z 0718/0818 15003MPS 6000 SCT050 TX28/0808Z TN22/0722Z
ZUGY,TAF ZUGY 071532Z 0718/0818 02003MPS 6000 BKN015 OVC033 TX25/0807Z TN18/0722Z
ZUUU,TAF ZUUU 071504Z 0718/0818 20003MPS 6000 SCT050 TX32/0807Z TN23/0721Z
ZWSH,TAF ZWSH 071516Z 0718/0818 30006MPS 6000 FEW033CB TX33/0809Z TN21/0800Z BECMG 0804/0805 12004MPS BECMG 0814/0815 30005MPS
ZWWW,TAF ZWWW 071503Z 0718/0818 16004MPS CAVOK TX37/0809Z TN27/0723Z BECMG 0803/0804 33004G10MPS BECMG 0807/0808 9999 FEW040CB BECMG 0814/0815 16004MPS CAVOK
ZYCC,TAF ZYCC 071500Z 0718/0818 22004MPS 6000 FEW030 TX24/0806Z TN13/0722Z
ZYHB,TAF ZYHB 071502Z 0718/0818 22004MPS 6000 SCT030 TX24/0806Z TN15/0721Z
ZYTL,TAF ZYTL 071505Z 0718/0818 13004MPS 6000 NSC TX29/0806Z TN20/0721Z TEMPO 0718/0724 34005MPS
ZYTX,TAF ZYTX 071501Z 0718/0818 30004MPS 6000 NSC TX27/0806Z TN15/0721Z
