{"station_id": ["AGGA", "AGGC", "AGGH", "AGGK", "AGGL", "AGGM", "AGGN", "AGGR", "ANYN", "AYPY", "BGAA", "BGBW", "BGCO", "BGGH", "BGJN", "BGKK", "BGMQ", "BGQQ", "BGSF", "BGSS", "BGTL", "BGUK", "BIAR", "BIEG", "BIIS", "BIKF", "BIRK", "BIVM", "BKPR", "CWSA", "CWWU", "CYAH", "CYAM", "CYAT", "CYAY", "CYBC", "CYBG", "CYBK", "CYBR", "CYBX", "CYCA", "CYCB", "CYCO", "CYCY", "CYDB", "CYDF", "CYDN", "CYDP", "CYEG", "CYEK", "CYER", "CYEU", "CYEV", "CYFB", "CYFC", "CYFS", "CYGL", "CYGP", "CYGQ", "CYGR", "CYGV", "CYGW", "CYGX", "CYHD", "CYHK", "CYHM", "CYHU", "CYHY", "CYHZ", "CYIO", "CYIV", "CYJT", "CYKA", "CYKF", "CYKJ", "CYKL", "CYLL", "CYLW", "CYMA", "CYMH", "CYMJ", "CYMM", "CYMO", "CYMX", "CYNA", "CYNE", "CYOD", "CYOJ", "CYOO", "CYOW", "CYPA", "CYPE", "CYPH", "CYPL", "CYPQ", "CYPR", "CYPX", "CYQB", "CYQD", "CYQF", "CYQG", "CYQH", "CYQI", "CYQK", "CYQL", "CYQM", "CYQQ", "CYQR", "CYQT", "CYQU", "CYQW", "CYQX", "CYQY", "CYRB", "CYRL", "CYRQ", "CYRT", "CYSB", "CYSC", "CYSF", "CYSJ", "CYSM", "CYTE", "CYTH", "CYTL", "CYTR", "CYTS", "CYTZ", "CYUL", "CYUX", "CYUY", "CYVC", "CYVM", "CYVO", "CYVP", "CYVQ", "CYVR", "CYVV", "CYWA", "CYWG", "CYWK", "CYWL", "CYXC", "CYXE", "CYXH", "CYXJ", "CYXL", "CYXS", "CYXT", "CYXU", "CYXX", "CYXY", "CYYB", "CYYC", "CYYE", "CYYF", "CYYG", "CYYH", "CYYJ", "CYYL", "CYYN", "CYYQ", "CYYR", "CYYT", "CYYU", "CYYY", "CYYZ", "CYZE", "CYZF", "CYZH", "CYZP", "CYZR", "CYZS", "CYZT", "CYZV", "CYZX", "CZBF", "CZMD", "CZSJ", "CZUM", "CZVL", "DAAD", "DAAE", "DAAG", "DAAJ", "DAAP", "DAAS", "DAAT", "DAAV", "DAAY", "DABB", "DABC", "DABS", "DABT", "DAFH", "DAOB", "DAOF", "DAOI", "DAON", "DAOO", "DAOR", "DAOV", "DATM", "DAUA", "DAUB", "DAUG", "DAUH", "DAUI", "DAUK", "DAUL", "DAUO", "DAUT", "DAUU", "DAUZ", "DBBB", "DFFD", "DFOO", "DGAA", "DGLE", "DGSI", "DIAP", "DIBK", "DIYO", "DNAA", "DNAK", "DNBE", "DNGO", "DNIB", "DNIL", "DNJO", "DNKA", "DNKN", "DNKT", "DNMA", "DNMM", "DNSO", "DNSU", "DNYO", "DRRN", "DRZA", "DRZR", "DTKA", "DTMB", "DTNH", "DTTA", "DTTB", "DTTF", "DTTG", "DTTJ", "DTTR", "DTTX", "DTTZ", "DXNG", "DXXX", "EBAW", "EBBL", "EBBR", "EBCI", "EBFN", "EBLG", "EBOS", "EDAC", "EDAH", "EDDB", "EDDC", "EDDE", "EDDF", "EDDG", "EDDH", "EDDK", "EDDL", "EDDM", "EDDN", "EDDP", "EDDR", "EDDS", "EDDV", "EDDW", "EDFH", "EDGS", "EDHK", "EDHL", "EDJA", "EDLN", "EDLP", "EDLV", "EDLW", "EDMA", "EDNY", "EDQM", "EDSB", "EDTL", "EDTY", "EDVE", "EDVK", "EDWE", "EDXW", "EEEI", "EEKE", "EETN", "EFHK", "EFIV", "EFJO", "EFJY", "EFKI", "EFKT", "EFKU", "EFMA", "EFOU", "EFRO", "EFSI", "EFTP", "EFTU", "EFVA", "EGAA", "EGAC", "EGAE", "EGBB", "EGBJ", "EGCC", "EGCK", "EGEO", "EGFF", "EGGD", "EGGP", "EGGW", "EGHC", "EGHE", "EGHH", "EGHI", "EGHQ", "EGJA", "EGJB", "EGJJ", "EGKA", "EGKB", "EGKK", "EGLC", "EGLF", "EGLL", "EGMC", "EGMD", "EGNH", "EGNJ", "EGNM", "EGNR", "EGNS", "EGNT", "EGNV", "EGNX", "EGPA", "EGPB", "EGPC", "EGPD", "EGPE", "EGPF", "EGPH", "EGPI", "EGPK", "EGPL", "EGPN", "EGPO", "EGPU", "EGQL", "EGQS", "EGSH", "EGSS", "EGSY", "EGTC", "EGTE", "EGTK", "EGUL", "EGUN", "EGVA", "EGVN", "EGWU", "EGXC", "EGYP", "EHAM", "EHBK", "EHEH", "EHGG", "EHKD", "EHLE", "EHLW", "EHRD", "EHVK", "EICK", "EIDL", "EIDW", "EIKN", "EIKY", "EIME", "EINN", "EISG", "EIWF", "EKAH", "EKBI", "EKCH", "EKEB", "EKGC", "EKHD", "EKKA", "EKOD", "EKRK", "EKRN", "EKSP", "EKVD", "EKVG", "EKYT", "ELLX", "ENAL", "ENAN", "ENAT", "ENBN", "ENBO", "ENBR", "ENCN", "ENDU", "ENEV", "ENFL", "ENGC", "ENGM", "ENHD", "ENHE", "ENHF", "ENKB", "ENKR", "ENLE", "ENML", "ENMS", "ENNA", "ENNE", "ENOA", "ENOL", "ENOV", "ENRA", "ENRY", "ENSB", "ENSD", "ENSH", "ENTC", "ENTO", "ENVA", "ENVD", "ENZV", "EPBY", "EPCE", "EPDA", "EPDE", "EPGD", "EPKK", "EPKS", "EPKT", "EPLB", "EPLK", "EPLL", "EPLY", "EPMB", "EPMI", "EPMM", "EPMO", "EPOK", "EPPO", "EPPW", "EPRZ", "EPSC", "EPSN", "EPSY", "EPWA", "EPWR", "EPZG", "ESDF", "ESGG", "ESGP", "ESKN", "ESMS", "ESNN", "ESNS", "ESNU", "ESPA", "ESSA", "ESSB", "ESSV", "ESTA", "ETAD", "ETAR", "ETEB", "ETIC", "ETIK", "ETNL", "ETNW", "ETOU", "ETSN", "EVGA", "EVLA", "EVRA", "EYKA", "EYPA", "EYSA", "EYVI", "FABL", "FACT", "FAEL", "FAGG", "FAHS", "FAKM", "FAKN", "FALA", "FALE", "FAMM", "FAOR", "FAPE", "FAPM", "FAPP", "FARB", "FAUP", "FAUT", "FAWB", "FBKE", "FBSK", "FCBB", "FCPP", "FDMS", "FDSK", "FEFF", "FGBT", "FGSL", "FHAW", "FIMP", "FIMR", "FJDG", "FKKD", "FKKL", "FKKR", "FKYS", "FLCP", "FLHN", "FLKK", "FLKS", "FLMA", "FLMF", "FLSK", "FLSW", "FMCH", "FMCZ", "FMEE", "FMEP", "FMMI", "FMMS", "FMMT", "FMNA", "FMNM", "FMNN", "FMSD", "FMST", "FNBG", "FNCA", "FNCT", "FNDU", "FNGI", "FNHU", "FNKU", "FNLU", "FNMA", "FNME", "FNMO", "FNSA", "FNSO", "FNUB", "FNUE", "FOOG", "FOOL", "FQBR", "FQCH", "FQIN", "FQLC", "FQMA", "FQNC", "FQNP", "FQPB", "FQQL", "FQTT", "FQVL", "FQXA", "FSIA", "FTTJ", "FVJN", "FVRG", "FWCL", "FWKI", "FYGF", "FYKM", "FYLZ", "FYRU", "FYWB", "FYWE", "FYWH", "FZAA", "FZIC", "FZNA", "FZQA", "GABS", "GAGO", "GBYD", "GCFV", "GCGM", "GCHI", "GCLA", "GCLP", "GCRR", "GCTS", "GCXO", "GECE", "GEML", "GFLL", "GGOV", "GMAD", "GMAG", "GMFF", "GMFK", "GMFM", "GMFO", "GMME", "GMMH", "GMMI", "GMML", "GMMN", "GMMW", "GMMX", "GMMZ", "GMTA", "GMTT", "GOBD", "GOGS", "GOOY", "GOSS", "GQNO", "GQPP", "GUCY", "GVAC", "GVBA", "GVNP", "GVSV", "HAAB", "HADR", "HBBA", "HCMM", "HDAM", "HEAL", "HEAR", "HEAT", "HEAX", "HEBA", "HEBL", "HECA", "HEGN", "HELX", "HEMA", "HEMM", "HEOW", "HEPS", "HESC", "HESG", "HESH", "HESN", "HETB", "HETR", "HKEL", "HKJK", "HKKI", "HKML", "HKMO", "HKNW", "HLGD", "HLGT", "HLKF", "HLLB", "HLLM", "HLLQ", "HLLS", "HLMS", "HLON", "HLTD", "HLTQ", "HLUB", "HRYR", "HRZA", "HSPN", "HSSJ", "HTAR", "HTDA", "HTDO", "HTKA", "HTKJ", "HTMW", "HTTB", "HTZA", "HUEN", "HUSO", "KABE", "KABI", "KABQ", "KABR", "KABY", "KACK", "KACT", "KACV", "KACY", "KADF", "KADW", "KAEG", "KAEX", "KAFF", "KAFW", "KAGC", "KAGS", "KAHN", "KAIA", "KALB", "KALI", "KALO", "KALS", "KALW", "KAMA", "KANB", "KAND", "KAOO", "KAPA", "KAPC", "KAPF", "KAPN", "KARA", "KART", "KASD", "KASE", "KASN", "KAST", "KATL", "KATW", "KATY", "KAUG", "KAUS", "KAUW", "KAVL", "KAVP", "KAXN", "KAZO", "KBAB", "KBAD", "KBAF", "KBAM", "KBBD", "KBBG", "KBCB", "KBCE", "KBDL", "KBDN", "KBDR", "KBED", "KBFD", "KBFF", "KBFI", "KBFL", "KBFM", "KBGM", "KBGR", "KBHB", "KBHM", "KBIF", "KBIH", "KBIL", "KBIS", "KBIX", "KBJC", "KBJI", "KBKE", "KBKF", "KBKW", "KBLF", "KBLH", "KBLI", "KBLV", "KBMG", "KBMI", "KBNA", "KBNO", "KBOI", "KBOS", "KBPI", "KBPK", "KBPT", "KBRD", "KBRL", "KBRO", "KBTL", "KBTM", "KBTR", "KBTV", "KBUF", "KBUR", "KBVI", "KBVO", "KBWG", "KBWI", "KBYI", "KBZN", "KCAE", "KCAK", "KCAR", "KCBM", "KCDC", "KCDR", "KCDS", "KCEC", "KCEF", "KCGI", "KCHA", "KCHO", "KCHS", "KCID", "KCIU", "KCKB", "KCKV", "KCLE", "KCLL", "KCLM", "KCLT", "KCMA", "KCMH", "KCMI", "KCMX", "KCNM", "KCNU", "KCNY", "KCOD", "KCOE", "KCOF", "KCON", "KCOS", "KCOT", "KCOU", "KCPR", "KCPS", "KCRE", "KCRG", "KCRP", "KCRQ", "KCRW", "KCSG", "KCSM", "KCSV", "KCTB", "KCUB", "KCVG", "KCVS", "KCWA", "KCXO", "KCXP", "KCYS", "KDAA", "KDAB", "KDAG", "KDAL", "KDAN", "KDAY", "KDBQ", "KDCA", "KDDC", "KDEC", "KDEN", "KDET", "KDFW", "KDHN", "KDHT", "KDIJ", "KDIK", "KDLF", "KDLH", "KDLS", "KDMA", "KDMN", "KDNL", "KDOV", "KDPA", "KDRO", "KDRT", "KDSM", "KDTW", "KDUG", "KDUJ", "KDVL", "KDVT", "KDYS", "KEAR", "KEAT", "KEAU", "KECG", "KECP", "KEDW", "KEED", "KEET", "KEFD", "KEFK", "KEGE", "KEGI", "KEKN", "KEKO", "KEKS", "KELD", "KELM", "KELP", "KELY", "KEND", "KENV", "KENW", "KERI", "KEUG", "KEUL", "KEVV", "KEVW", "KEWN", "KEWR", "KEYW", "KFAF", "KFAR", "KFAT", "KFAY", "KFBG", "KFCS", "KFDY", "KFFO", "KFHU", "KFKL", "KFLG", "KFLL", "KFLO", "KFMH", "KFMN", "KFMY", "KFNT", "KFOD", "KFOE", "KFPR", "KFRI", "KFSD", "KFSM", "KFST", "KFTK", "KFTW", "KFTY", "KFVE", "KFWA", "KFXE", "KFYV", "KGBD", "KGCC", "KGCK", "KGCN", "KGDV", "KGEG", "KGFA", "KGFK", "KGFL", "KGGG", "KGGW", "KGJT", "KGKY", "KGLD", "KGLH", "KGLS", "KGMU", "KGNV", "KGON", "KGPI", "KGPT", "KGRB", "KGRF", "KGRI", "KGRK", "KGRR", "KGSB", "KGSO", "KGSP", "KGTB", "KGTF", "KGTR", "KGUC", "KGUP", "KGUR", "KGUS", "KGUY", "KGWO", "KGYY", "KHBG", "KHCR", "KHDC", "KHDN", "KHIB", "KHIE", "KHIF", "KHIO", "KHKS", "KHKY", "KHLG", "KHLN", "KHMN", "KHNB", "KHND", "KHOB", "KHON", "KHOP", "KHOT", "KHOU", "KHPN", "KHQM", "KHRF", "KHRL", "KHRO", "KHRT", "KHST", "KHSV", "KHTS", "KHUA", "KHUF", "KHUL", "KHUM", "KHUT", "KHVR", "KHYA", "KHYR", "KHYS", "KIAB", "KIAD", "KIAG", "KIAH", "KICT", "KIDA", "KIFP", "KILG", "KILM", "KILN", "KIND", "KINK", "KINL", "KINS", "KINT", "KINW", "KIPL", "KIPT", "KISM", "KISO", "KISP", "KITH", "KIWA", "KIWD", "KIXD", "KJAC", "KJAN", "KJAX", "KJBR", "KJCT", "KJEF", "KJER", "KJFK", "KJHW", "KJKA", "KJKL", "KJLN", "KJMS", "KJST", "KJVL", "KJXN", "KJZI", "KLAF", "KLAL", "KLAN", "KLAR", "KLAS", "KLAW", "KLAX", "KLBB", "KLBE", "KLBF", "KLBL", "KLBT", "KLBX", "KLCH", "KLCK", "KLEB", "KLEE", "KLEX", "KLFI", "KLFK", "KLFT", "KLGA", "KLGB", "KLGU", "KLIT", "KLLQ", "KLMT", "KLND", "KLNK", "KLNS", "KLOZ", "KLRD", "KLRF", "KLRU", "KLSE", "KLSF", "KLSV", "KLTS", "KLUF", "KLUK", "KLVK", "KLVM", "KLVS", "KLWB", "KLWS", "KLWT", "KLYH", "KMAF", "KMBG", "KMBL", "KMBS", "KMCB", "KMCC", "KMCE", "KMCF", "KMCI", "KMCK", "KMCN", "KMCO", "KMCW", "KMDT", "KMDW", "KMEI", "KMEM", "KMER", "KMEV", "KMFD", "KMFE", "KMFR", "KMGE", "KMGM", "KMGW", "KMHK", "KMHR", "KMHT", "KMIA", "KMIB", "KMIV", "KMKC", "KMKE", "KMKG", "KMKL", "KMKT", "KMLB", "KMLC", "KMLI", "KMLS", "KMLU", "KMMH", "KMMT", "KMOB", "KMOD", "KMOT", "KMPV", "KMQY", "KMRB", "KMRY", "KMSL", "KMSN", "KMSO", "KMSP", "KMSS", "KMSY", "KMTC", "KMTH", "KMTJ", "KMTN", "KMTW", "KMUI", "KMUO", "KMVN", "KMWH", "KMXF", "KMYL", "KMYR", "KNBC", "KNBG", "KNCA", "KNEW", "KNFG", "KNFL", "KNFW", "KNGP", "KNGU", "KNHK", "KNIP", "KNJK", "KNKT", "KNKX", "KNLC", "KNMM", "KNPA", "KNQI", "KNQX", "KNRB", "KNSE", "KNTD", "KNTU", "KNUC", "KNUW", "KNXP", "KNYG", "KNYL", "KNZY", "KOAJ", "KOAK", "KOFF", "KOFK", "KOGB", "KOGD", "KOKC", "KOLF", "KOLM", "KOLS", "KOMA", "KONP", "KONT", "KOPF", "KORD", "KORF", "KORH", "KOTH", "KOTM", "KOUN", "KOWB", "KOXR", "KOZR", "KPAE", "KPAH", "KPAM", "KPBF", "KPBG", "KPBI", "KPDK", "KPDT", "KPDX", "KPEQ", "KPGA", "KPGD", "KPGV", "KPHF", "KPHL", "KPHX", "KPIA", "KPIB", "KPIE", "KPIH", "KPIR", "KPIT", "KPKB", "KPLN", "KPMD", "KPNA", "KPNC", "KPNE", "KPNS", "KPOB", "KPOE", "KPOU", "KPQI", "KPRB", "KPRC", "KPSC", "KPSF", "KPSM", "KPSP", "KPTK", "KPUB", "KPUW", "KPVD", "KPVU", "KPVW", "KPWM", "KPWT", "KRAP", "KRBG", "KRBL", "KRCA", "KRDD", "KRDG", "KRDM", "KRDR", "KRDU", "KRFD", "KRHI", "KRIC", "KRIL", "KRIV", "KRIW", "KRKD", "KRKS", "KRME", "KRND", "KRNH", "KRNO", "KROA", "KROC", "KROG", "KROW", "KRSL", "KRST", "KRSW", "KRUT", "KRVS", "KRWF", "KRWI", "KRWL", "KRYY", "KSAC", "KSAF", "KSAN", "KSAT", "KSAV", "KSAW", "KSBA", "KSBD", "KSBM", "KSBN", "KSBP", "KSBY", "KSCK", "KSDF", "KSDL", "KSDY", "KSEA", "KSEZ", "KSFB", "KSFF", "KSFO", "KSGF", "KSGJ", "KSGR", "KSGU", "KSHR", "KSHV", "KSJC", "KSJS", "KSJT", "KSKA", "KSKF", "KSLC", "KSLE", "KSLI", "KSLK", "KSLN", "KSME", "KSMF", "KSMN", "KSMO", "KSMX", "KSNA", "KSNS", "KSNY", "KSOA", "KSPI", "KSPS", "KSRQ", "KSSC", "KSSF", "KSSI", "KSTC", "KSTJ", "KSTL", "KSTS", "KSUA", "KSUN", "KSUS", "KSUU", "KSUX", "KSVN", "KSWF", "KSWO", "KSYM", "KSYR", "KSZL", "KTBN", "KTCC", "KTCL", "KTCM", "KTCS", "KTEB", "KTEX", "KTIK", "KTIX", "KTLH", "KTMB", "KTOI", "KTOL", "KTOP", "KTPA", "KTPH", "KTRI", "KTRK", "KTRM", "KTTD", "KTTN", "KTUL", "KTUP", "KTUS", "KTVC", "KTVF", "KTVL", "KTWF", "KTXK", "KTYR", "KTYS", "KUAO", "KUES", "KUIN", "KUKI", "KUNV", "KUTS", "KVAD", "KVBG", "KVCT", "KVEL", "KVGT", "KVIS", "KVLD", "KVNY", "KVOK", "KVPS", "KVQQ", "KVRB", "KVTN", "KWJF", "KWMC", "KWRB", "KWRI", "KWRL", "KWWR", "KXNA", "KXWA", "KYIP", "KYKM", "KYNG", "KZZV", "LAKU", "LATI", "LBBG", "LBGO", "LBPD", "LBSF", "LBWN", "LCEN", "LCLK", "LCPH", "LCRA", "LDDU", "LDLO", "LDOS", "LDPL", "LDRI", "LDSB", "LDSP", "LDZA", "LDZD", "LEAB", "LEAG", "LEAL", "LEAM", "LEAO", "LEAS", "LEBA", "LEBB", "LEBG", "LEBL", "LEBR", "LEBZ", "LECO", "LECV", "LEGA", "LEGE", "LEGR", "LEGT", "LEHC", "LEIB", "LEJR", "LELC", "LELL", "LELN", "LELO", "LEMD", "LEMG", "LEMH", "LEMO", "LEPA", "LEPP", "LERI", "LERL", "LERS", "LERT", "LESA", "LESO", "LEST", "LESU", "LETO", "LEVC", "LEVD", "LEVS", "LEVT", "LEVX", "LEXJ", "LEZG", "LEZL", "LFAQ", "LFAT", "LFBA", "LFBC", "LFBD", "LFBE", "LFBG", "LFBH", "LFBI", "LFBL", "LFBM", "LFBO", "LFBP", "LFBT", "LFBU", "LFBZ", "LFCK", "LFCR", "LFGJ", "LFJL", "LFKB", "LFKC", "LFKF", "LFKJ", "LFLB", "LFLC", "LFLL", "LFLN", "LFLP", "LFLS", "LFLW", "LFLX", "LFLY", "LFMD", "LFMI", "LFMK", "LFML", "LFMN", "LFMO", "LFMP", "LFMT", "LFMU", "LFMV", "LFOA", "LFOB", "LFOE", "LFOH", "LFOJ", "LFOK", "LFOP", "LFOT", "LFPB", "LFPG", "LFPN", "LFPO", "LFPV", "LFQQ", "LFRB", "LFRC", "LFRD", "LFRG", "LFRH", "LFRI", "LFRJ", "LFRK", "LFRM", "LFRN", "LFRQ", "LFRS", "LFRZ", "LFSB", "LFSI", "LFSL", "LFSO", "LFST", "LFSX", "LFTH", "LFTW", "LFVP", "LGAD", "LGAL", "LGAV", "LGBL", "LGEL", "LGHI", "LGIO", "LGIR", "LGKC", "LGKF", "LGKL", "LGKO", "LGKP", "LGKR", "LGKV", "LGLM", "LGLR", "LGMK", "LGMT", "LGPZ", "LGRP", "LGRX", "LGSA", "LGSK", "LGSM", "LGSR", "LGST", "LGSY", "LGTG", "LGTL", "LGTS", "LGZA", "LHBP", "LHDC", "LHKE", "LHPA", "LHPP", "LHPR", "LHSM", "LHSN", "LIBA", "LIBC", "LIBD", "LIBF", "LIBG", "LIBP", "LIBR", "LIBV", "LICA", "LICB", "LICC", "LICD", "LICG", "LICJ", "LICR", "LICT", "LICZ", "LIEA", "LIED", "LIEE", "LIEO", "LIMC", "LIME", "LIMF", "LIMG", "LIMJ", "LIML", "LIMP", "LIMW", "LIMZ", "LIPA", "LIPB", "LIPC", "LIPE", "LIPH", "LIPK", "LIPL", "LIPO", "LIPQ", "LIPR", "LIPS", "LIPX", "LIPY", "LIPZ", "LIRA", "LIRE", "LIRF", "LIRM", "LIRN", "LIRP", "LIRQ", "LIRS", "LIRU", "LIRV", "LIRZ", "LJCE", "LJLJ", "LJMB", "LJPZ", "LKCV", "LKKB", "LKKV", "LKMT", "LKNA", "LKPR", "LKTB", "LLBG", "LLER", "LLHA", "LLHZ", "LLIB", "LMML", "LOAN", "LOAV", "LOWG", "LOWI", "LOWK", "LOWL", "LOWS", "LOWW", "LOXZ", "LPAZ", "LPBJ", "LPCS", "LPFR", "LPHR", "LPLA", "LPMA", "LPMR", "LPMT", "LPOV", "LPPD", "LPPR", "LPPS", "LPPT", "LQBK", "LQMO", "LQSA", "LQTZ", "LRAR", "LRBC", "LRBS", "LRCK", "LRCL", "LRCV", "LRIA", "LROD", "LROP", "LRSB", "LRSM", "LRSV", "LRTC", "LRTM", "LRTR", "LSGC", "LSGG", "LSGS", "LSZA", "LSZB", "LSZG", "LSZH", "LSZL", "LSZR", "LSZS", "LTAB", "LTAC", "LTAD", "LTAE", "LTAF", "LTAG", "LTAH", "LTAI", "LTAJ", "LTAL", "LTAN", "LTAO", "LTAP", "LTAR", "LTAS", "LTAT", "LTAU", "LTAV", "LTAW", "LTAY", "LTAZ", "LTBA", "LTBD", "LTBF", "LTBG", "LTBH", "LTBI", "LTBJ", "LTBK", "LTBL", "LTBN", "LTBO", "LTBP", "LTBQ", "LTBR", "LTBS", "LTBT", "LTBU", "LTBV", "LTBX", "LTBY", "LTBZ", "LTCA", "LTCB", "LTCC", "LTCD", "LTCE", "LTCF", "LTCG", "LTCI", "LTCJ", "LTCK", "LTCL", "LTCM", "LTCN", "LTCO", "LTCP", "LTCR", "LTCS", "LTCT", "LTCU", "LTCV", "LTCW", "LTDA", "LTFA", "LTFB", "LTFC", "LTFD", "LTFE", "LTFG", "LTFH", "LTFJ", "LTFK", "LTFM", "LTFO", "LUKK", "LWOH", "LWSK", "LXGB", "LYBE", "LYBT", "LYKV", "LYNI", "LYPG", "LYTV", "LYVR", "LZIB", "LZKZ", "LZMC", "LZPP", "LZPW", "LZSL", "LZTT", "LZZI", "MBGT", "MBPV", "MDBH", "MDCY", "MDJB", "MDLR", "MDPC", "MDPP", "MDSD", "MDST", "MGGT", "MGMM", "MGPB", "MHLC", "MHLM", "MHPR", "MHRO", "MHTG", "MKJP", "MKJS", "MMAA", "MMAN", "MMAS", "MMBT", "MMCB", "MMCE", "MMCL", "MMCM", "MMCN", "MMCP", "MMCS", "MMCU", "MMCV", "MMCZ", "MMDO", "MMEP", "MMGL", "MMGM", "MMHO", "MMIA", "MMIO", "MMLM", "MMLO", "MMLP", "MMLT", "MMMA", "MMMD", "MMML", "MMMM", "MMMT", "MMMV", "MMMX", "MMMY", "MMMZ", "MMNL", "MMOX", "MMPA", "MMPB", "MMPG", "MMPN", "MMPQ", "MMPR", "MMPS", "MMQT", "MMRX", "MMSD", "MMSL", "MMSM", "MMSP", "MMTC", "MMTG", "MMTJ", "MMTM", "MMTO", "MMTP", "MMUN", "MMVA", "MMVR", "MMZC", "MMZH", "MMZO", "MNBL", "MNMG", "MNPC", "MPDA", "MPMG", "MPPA", "MPSM", "MPTO", "MRLB", "MRLM", "MROC", "MRPV", "MSLP", "MSSS", "MTCH", "MTPP", "MUCC", "MUCF", "MUCL", "MUCM", "MUCU", "MUGM", "MUHA", "MUHG", "MUSC", "MUVR", "MWCB", "MWCR", "MYGF", "MYNN", "MZBZ", "NCRG", "NFFN", "NFNA", "NFTF", "NFTV", "NGFU", "NGTA", "NIUE", "NLWF", "NLWW", "NSFA", "NSTU", "NTAA", "NVSC", "NVSG", "NVSL", "NVSP", "NVSS", "NVVA", "NVVV", "NVVW", "NWWD", "NWWE", "NWWK", "NWWL", "NWWM", "NWWR", "NWWU", "NWWW", "NZAA", "NZCH", "NZQN", "NZWN", "OBBI", "OEAB", "OEAH", "OEAO", "OEBA", "OEBH", "OEDF", "OEDM", "OEDR", "OEGN", "OEGS", "OEGT", "OEHL", "OEJN", "OEKJ", "OEKM", "OEMA", "OENG", "OEPA", "OEPS", "OERF", "OERK", "OERR", "OESH", "OESK", "OETB", "OETF", "OETR", "OEWD", "OEWJ", "OEYN", "OIAA", "OIAW", "OIBB", "OIBK", "OIBP", "OICC", "OICI", "OIFM", "OIGG", "OIIE", "OIII", "OIIP", "OIKB", "OIKK", "OIMM", "OING", "OINZ", "OISL", "OISS", "OITL", "OITR", "OITT", "OIYY", "OIZH", "OJAI", "OJAM", "OJAQ", "OKAS", "OLBA", "OMAA", "OMAD", "OMAL", "OMDB", "OMDW", "OMFJ", "OMRK", "OMSJ", "OODQ", "OOMS", "OOSA", "OOSH", "OPBW", "OPDG", "OPFA", "OPGD", "OPIS", "OPKC", "OPLA", "OPMT", "OPNH", "OPPS", "OPRK", "OPSK", "OPST", "ORBI", "ORER", "ORMM", "ORSU", "OSAP", "OSDI", "OSLK", "OTBD", "OTBH", "OTHH", "OYAA", "PAAQ", "PABE", "PABI", "PABR", "PABT", "PACD", "PACV", "PADL", "PADQ", "PADU", "PAED", "PAEI", "PAEN", "PAFA", "PAFB", "PAGA", "PAGK", "PAGS", "PAGY", "PAHN", "PAHO", "PAIL", "PAJN", "PAKN", "PAKT", "PAKW", "PAMC", "PANC", "PAOM", "PAOR", "PAOT", "PAPG", "PAQT", "PASC", "PASD", "PASI", "PASN", "PASY", "PATA", "PATK", "PAUN", "PAVD", "PAWG", "PAYA", "PGRO", "PGSN", "PGUA", "PGUM", "PGWT", "PHHI", "PHJH", "PHJR", "PHKO", "PHLI", "PHMK", "PHNG", "PHNL", "PHNY", "PHOG", "PHTO", "PKMJ", "PKWA", "PLCH", "PMDY", "PTKK", "PTPN", "PTRO", "PTSA", "PTYA", "PWAK", "RCFN", "RCKH", "RCMQ", "RCNN", "RCSS", "RCTP", "RJAA", "RJAH", "RJBB", "RJCB", "RJCC", "RJCH", "RJCK", "RJCM", "RJEC", "RJFF", "RJFK", "RJFM", "RJFO", "RJFR", "RJFS", "RJFT", "RJFU", "RJGG", "RJNK", "RJNS", "RJNT", "RJOA", "RJOB", "RJOC", "RJOH", "RJOI", "RJOK", "RJOM", "RJOO", "RJOT", "RJSA", "RJSF", "RJSI", "RJSK", "RJSN", "RJSS", "RJTT", "RJTY", "RKJB", "RKNN", "RKNW", "RKNY", "RKPC", "RKPK", "RKSG", "RKSI", "RKSM", "RKSO", "RKSS", "RKSW", "RKTE", "RKTI", "RKTN", "RKTP", "RKTU", "RKTY", "ROAH", "RODN", "ROIG", "RPLB", "RPLC", "RPLI", "RPLL", "RPMD", "RPMR", "RPMZ", "RPVD", "RPVM", "RPVP", "SAAR", "SABE", "SACO", "SADF", "SAEZ", "SAME", "SANR", "SANT", "SARE", "SARF", "SARI", "SARP", "SASA", "SASJ", "SAVC", "SAVT", "SAWE", "SAWG", "SAWH", "SAZM", "SAZN", "SAZS", "SBAC", "SBAF", "SBAN", "SBAR", "SBAT", "SBBE", "SBBG", "SBBI", "SBBR", "SBBU", "SBBV", "SBBW", "SBCB", "SBCF", "SBCG", "SBCJ", "SBCO", "SBCP", "SBCR", "SBCT", "SBCY", "SBCZ", "SBDN", "SBEG", "SBFI", "SBFL", "SBFN", "SBFZ", "SBGL", "SBGO", "SBGR", "SBIH", "SBIL", "SBIZ", "SBJE", "SBJP", "SBJV", "SBKG", "SBKP", "SBLO", "SBMA", "SBME", "SBMN", "SBMO", "SBMQ", "SBNF", "SBNT", "SBOI", "SBPA", "SBPB", "SBPJ", "SBPK", "SBPL", "SBPP", "SBPS", "SBPV", "SBRB", "SBRF", "SBRJ", "SBRP", "SBSC", "SBSG", "SBSJ", "SBSL", "SBSM", "SBSN", "SBSP", "SBSV", "SBTD", "SBTE", "SBTF", "SBTT", "SBUG", "SBUL", "SBUR", "SBVH", "SBVT", "SBYS", "SCAR", "SCAT", "SCBA", "SCCF", "SCCH", "SCCI", "SCCY", "SCDA", "SCEL", "SCFA", "SCFM", "SCGE", "SCGZ", "SCIC", "SCIE", "SCIP", "SCIR", "SCJO", "SCMK", "SCNT", "SCPQ", "SCQP", "SCRD", "SCRG", "SCSE", "SCSN", "SCTB", "SCTE", "SCTN", "SCVD", "SCVM", "SEGU", "SELT", "SEMT", "SEQM", "SGAS", "SGCO", "SGEN", "SGES", "SKAR", "SKBG", "SKBO", "SKBQ", "SKCC", "SKCG", "SKCL", "SKLT", "SKPE", "SKRG", "SKSM", "SKSP", "SLAL", "SLCB", "SLCO", "SLET", "SLLP", "SLOR", "SLRQ", "SLTJ", "SLTR", "SLVR", "SLYA", "SMJP", "SMZO", "SOCA", "SPCL", "SPEO", "SPGM", "SPHI", "SPHO", "SPJC", "SPJI", "SPJR", "SPLO", "SPME", "SPMS", "SPNC", "SPPY", "SPQT", "SPQU", "SPRU", "SPSO", "SPST", "SPTN", "SPTU", "SPUR", "SPYL", "SPZO", "SUAA", "SUCA", "SUDU", "SULS", "SUMU", "SURV", "SUSO", "SVBC", "SVJC", "SVMC", "SVMG", "SVMI", "SVPR", "SVSA", "SVVA", "SYCJ", "SYEB", "SYEC", "SYKA", "SYKM", "SYLT", "SYMB", "TAPA", "TBPB", "TDPD", "TFFF", "TFFR", "TGPY", "TIST", "TISX", "TJBQ", "TJPS", "TJSJ", "TKPK", "TKPN", "TLPC", "TLPL", "TNCA", "TNCB", "TNCC", "TNCM", "TQPF", "TRPG", "TTCP", "TTPP", "TUPJ", "TVSA", "TXKF", "UAAA", "UAAH", "UAAT", "UACC", "UACK", "UACP", "UADD", "UAII", "UAIT", "UAKD", "UAKK", "UAOO", "UARR", "UASK", "UASP", "UASS", "UATE", "UATG", "UATT", "UAUU", "UBBB", "UBBF", "UBBG", "UBBL", "UBBN", "UBBQ", "UBBY", "UBBZ", "UBEE", "UCFL", "UCFM", "UCFO", "UDSG", "UDYZ", "UEEE", "UERP", "UERR", "UGAM", "UGKO", "UGMS", "UGSB", "UGTB", "UHBB", "UHHH", "UHMA", "UHMM", "UHPP", "UHSS", "UHWW", "UIAA", "UIBB", "UIII", "UIUU", "ULAA", "ULLI", "ULMM", "ULOO", "ULPB", "ULWC", "UMBB", "UMGG", "UMII", "UMKK", "UMMG", "UMMS", "UMOO", "UNAA", "UNBB", "UNEE", "UNKL", "UNNT", "UNOO", "UNTT", "UNWW", "UOOO", "URKA", "URKK", "URMG", "URML", "URMM", "URMN", "URMO", "URMT", "URRP", "URSS", "URWA", "URWI", "URWW", "USCC", "USCM", "USDA", "USHH", "USNN", "USPP", "USRR", "USSS", "USTR", "UTAA", "UTAK", "UTAM", "UTAT", "UTAV", "UTDD", "UTDK", "UTDL", "UTDT", "UTFF", "UTFN", "UTNN", "UTNU", "UTSA", "UTSB", "UTSK", "UTSS", "UTST", "UTTT", "UUBC", "UUBP", "UUBW", "UUDD", "UUDL", "UUEE", "UUMO", "UUOB", "UUOK", "UUOL", "UUOO", "UUWW", "UUYY", "UWGG", "UWKD", "UWKE", "UWKS", "UWLL", "UWLW", "UWOO", "UWOR", "UWPS", "UWSG", "UWUU", "UWWW", "VAAH", "VAAU", "VABB", "VABJ", "VABO", "VABV", "VADU", "VAJL", "VAJM", "VAKE", "VAKP", "VANP", "VAOZ", "VAPO", "VAPR", "VARK", "VASD", "VASL", "VASU", "VAUD", "VCBI", "VCRI", "VDPP", "VDSR", "VDSV", "VEAB", "VEAN", "VEAT", "VEBD", "VEBI", "VEBN", "VEBS", "VEBU", "VECC", "VECO", "VECX", "VEDG", "VEDO", "VEDZ", "VEGK", "VEGT", "VEGY", "VEIM", "VEJH", "VEJR", "VEJS", "VEJT", "VEKI", "VEKU", "VELP", "VELR", "VEMN", "VEMR", "VEPT", "VEPY", "VERC", "VERK", "VERP", "VERU", "VETJ", "VETZ", "VEZO", "VGEG", "VGHS", "VHHH", "VIAG", "VIAR", "VIBR", "VIBT", "VIBY", "VICG", "VIDN", "VIDP", "VIGG", "VIGR", "VIJO", "VIJP", "VIJR", "VILH", "VILK", "VIPT", "VISM", "VISP", "VISR", "VIUT", "VLLB", "VLLN", "VLPS", "VLSK", "VLVT", "VMMC", "VNKT", "VOAR", "VOAT", "VOBG", "VOBL", "VOBM", "VOBZ", "VOCB", "VOCI", "VOCL", "VOCP", "VOGB", "VOGO", "VOHB", "VOHS", "VOHY", "VOJV", "VOKN", "VOKU", "VOLT", "VOMD", "VOML", "VOMM", "VOMY", "VOND", "VOPB", "VORY", "VOSR", "VOTP", "VOTR", "VOTV", "VOVZ", "VRMG", "VRMH", "VRMM", "VTBD", "VTBO", "VTBS", "VTBU", "VTCC", "VTCH", "VTCL", "VTCN", "VTCP", "VTCT", "VTPB", "VTPH", "VTPM", "VTPO", "VTPP", "VTPT", "VTSB", "VTSC", "VTSE", "VTSF", "VTSG", "VTSM", "VTSP", "VTSR", "VTSS", "VTST", "VTSY", "VTUD", "VTUI", "VTUK", "VTUL", "VTUO", "VTUQ", "VTUU", "VTUV", "VTUW", "VVCI", "VVCR", "VVCT", "VVDN", "VVNB", "VVPB", "VVPQ", "VVTS", "VVVD", "VYMD", "VYNT", "VYYY", "WAAA", "WABB", "WADD", "WADL", "WALL", "WALS", "WAMM", "WAOO", "WAPP", "WAQA", "WAQD", "WAQJ", "WAQQ", "WAQT", "WARR", "WATT", "WBGB", "WBGG", "WBGR", "WBGS", "WBKK", "WBKL", "WBKS", "WBKW", "WBSB", "WIDD", "WIEE", "WIHH", "WIII", "WIMM", "WIPB", "WIPP", "WIPY", "WITT", "WMAP", "WMBT", "WMKA", "WMKB", "WMKC", "WMKE", "WMKI", "WMKJ", "WMKK", "WMKL", "WMKM", "WMKN", "WMKP", "WMPA", "WMSA", "WPDL", "WSAP", "WSSL", "WSSS", "YAMB", "YBAS", "YBBN", "YBCG", "YBCS", "YBHM", "YBLN", "YBMA", "YBRK", "YBRM", "YBSU", "YBTL", "YBWW", "YCFS", "YCIN", "YFRT", "YGEL", "YGLA", "YHID", "YLHI", "YMAV", "YMHB", "YMLT", "YMML", "YPAD", "YPCC", "YPDN", "YPEA", "YPGV", "YPJT", "YPKG", "YPKU", "YPLM", "YPPD", "YPPH", "YPTN", "YPWR", "YPXM", "YSCB", "YSDU", "YSNF", "YSRI", "YSSY", "YSTW", "YWLM", "ZBAA", "ZBAD", "ZBHH", "ZBSJ", "ZBTJ", "ZBYN", "ZGGG", "ZGHA", "ZGKL", "ZGNN", "ZGOW", "ZGSZ", "ZHCC", "ZHHH", "ZJHK", "ZJSY", "ZKPY", "ZKWS", "ZLLL", "ZLXY", "ZMCK", "ZMUB", "ZPPP", "ZSAM", "ZSFZ", "ZSHC", "ZSJN", "ZSNB", "ZSNJ", "ZSOF", "ZSPD", "ZSQD", "ZSSS", "ZUCK", "ZUGY", "ZUUU", "ZWSH", "ZWWW", "ZYCC", "ZYHB", "ZYTL", "ZYTX"], "raw_text": ["TAF AGGA 312310Z 0100/0124 18008KT 9999 SCT020 PROB30 INTER 0102/0107 8000 TSRA SCT015 FEW016CB BKN028 Q 1008 1006 1005 1007", "TAF AGGC 312310Z 0100/0124 06010KT 9999 FEW020 SCT028 Q 1010 1008 1007 1009", "TAF AGGH 011110Z 0112/0212 20004KT 9999 FEW015 BKN090 T 25 24 24 27 Q 1009 1007 1007 1009", "TAF AGGK 312310Z 0100/0124 11010KT 9999 SCT020 PROB30 INTER 0102/0107 8000 TSRA SCT015 FEW016CB BKN028", "TAF AGGL 312310Z 0100/0124 11010KT 9999 SCT020 Q 1009 1007 1006 1008", "TAF AGGM 011110Z 0112/0212 VRB03KT 9999 FEW015 BKN090 PROB40 INTER 0114/0117 5000 TSRA SCT015 FEW016CB Q 1008 1006 1006 1008", "TAF AGGN 011110Z 0112/0212 VRB03KT 9999 FEW015 BKN090 Q 1008 1006 1006 1008", "TAF AGGR 312310Z 0100/0124 11010KT 9999 SCT020 Q 1010 1008 1007 1009", "TAF ANYN 011003Z 0112/0212 04007KT 9999 SCT020 T 27 27 29 30 Q 1008 1006 1007 1009", "TAF AYPY 312203Z 0100/0124 12005KT 9999 SCT018 SCT130 FM010200 24005KT 9999 -SHRA SCT016 BKN030 INTER 0103/0109 4000 +TSRA BKN008 FEW016CB", "TAF BGAA 011005Z 0110/0118 06008KT 9999 FEW010 BECMG 0116/0118 28008KT", "TAF BGBW 011101Z 0112/0121 24008KT 9999 FEW015 TEMPO 0112/0121 BKN015", "TAF BGCO 010918Z 0109/0116 01017KT 5000 -SN DRSN SCT015 BKN025 TEMPO 0109/0116 0800 SN BLSN BKN010", "TAF BGGH 011101Z 0112/0121 06008KT 9999 FEW200 BECMG 0115/0118 17015KT", "TAF BGJN 011101Z 0112/0121 VRB03KT 9999 FEW025 BECMG 0113/0116 02010KT", "TAF BGKK 011101Z 0112/0121 22008KT 9999 SCT025 BKN070 TEMPO 0112/0121 2000 -SN BKN012", "TAF BGMQ 011104Z 0111/0118 VRB02KT 9999 FEW200", "TAF BGQQ 011007Z 0110/0118 VRB02KT 9999 FEW200", "TAF BGSF 011101Z 0112/0201 04005KT 9999 FEW180 BECMG 0112/0114 23010KT BECMG 0118/0119 04008KT", "TAF BGSS 011018Z 0110/0118 10004KT 9999 FEW200", "TAF BGTL 311900Z 3119/0201 11006KT 9999 SKC QNH3018INS TXM19/3120Z TNM01/0109Z LAST NO AMDS AFT 3119 NEXT 0311", "TAF BGUK 011103Z 0111/0118 02005KT 9999 FEW200", "TAF BIAR 011044Z 0112/0212 16008KT 9999 SCT050 TX06/0115Z TN00/0206Z BECMG 0117/0119 21020G33KT", "TAF BIEG 011046Z 0112/0212 20007KT 9999 SCT015 BKN030 TX07/0115Z TNM02/0206Z", "TAF BIIS 011007Z 0110/0116 18005KT 9999 SCT020 BKN025 TEMPO 0110/0116 18015KT", "TAF BIKF 011039Z 0112/0212 18015KT 9999 -SHRA SCT018 BKN030 TX05/0113Z TN02/0203Z TEMPO 0112/0116 3000 SHRASN BKN012CB BECMG 0115/0117 22020G30KT BECMG 0122/0200 22017KT BECMG 0206/0208 22007KT", "TAF BIRK 011042Z 0112/0212 18010KT 9999 -SHRA SCT018 BKN035 TX06/0212Z TN02/0124Z TEMPO 0112/0116 4000 SHRA BKN014 BECMG 0116/0118 22015G25KT BECMG 0121/0123 21010KT", "TAF BIVM 011009Z 0111/0118 21018G28KT 9999 -SHRA FEW015 BKN025 TEMPO 0111/0118 4500 SHRA BKN014", "TAF BKPR 011130Z 0112/0212 27008KT 9999 SCT030 BKN050 TEMPO 0112/0118 22018G28KT 4000 SHRA PROB30 TEMPO 0113/0117 2500 TSRA SCT030CB", "TAF CWSA 010740Z 0108/0120 22007KT P6SM SCT012 BKN100 TEMPO 0108/0114 BKN012 BECMG 0110/0112 20010G20KT FM011400 18012G22KT 3SM -RASN OVC010 FM011700 13020G30KT 3/4SM -RA -DZ BR OVC005 BECMG 0118/0120 17025G40KT RMK FCST BASED ON AUTO OBS. NXT FCST BY 011400Z", "TAF CWWU 010830Z 0108/0206 18004KT P6SM SKC FM011600 28009KT P6SM SCT050 FM012000 25011KT P6SM BKN020 FM020100 18013G24KT 5SM -SN OVC007 FM020300 15024G32KT 1SM SN OVC007 RMK NXT FCST BY 011200Z", "TAF CYAH 011040Z 0111/0121 VRB03KT P6SM BKN040 TEMPO 0111/0121 5SM -SN BKN020 RMK FCST BASED ON AUTO OBS. NXT FCST BY 011800Z", "TAF AMD CYAM 010750Z 0108/0120 06015G25KT 1SM -SNPL SCT003 OVC006 TEMPO 0108/0113 1/4SM +SN BLSN OVC003 FM011300 02015G25KT 1 1/2SM -SN OVC006 TEMPO 0113/0115 3SM -SN OVC012 FM011500 02015G25KT P6SM OVC025 TEMPO 0115/0118 6SM -SHSN OVC020 FM011800 35015G25KT P6SM SCT030 BKN200 RMK NXT FCST BY 011400Z", "TAF CYAT 010841Z 0109/0119 VRB03KT 1 1/2SM -SN BR OVC002 TEMPO 0109/0111 6SM BR OVC008 BECMG 0111/0113 P6SM NSW SCT002 FM011300 36007KT P6SM FEW030 RMK FCST BASED ON AUTO OBS. NXT FCST BY 011500Z", "TAF AMD CYAY 011123Z 0111/0120 13006KT 5SM -SN BR OVC009 TEMPO 0111/0113 P6SM NSW SCT009 BKN020 OVC030 BECMG 0111/0113 24012G22KT FM011300 24015G25KT P6SM BKN015 TEMPO 0113/0120 BKN025 RMK FCST BASED ON AUTO OBS. NXT FCST BY 011400Z", "TAF CYBC 010740Z 0108/0120 05007KT P6SM BKN150 FM011100 VRB03KT P6SM -SN OVC030 TEMPO 0111/0117 2SM -SN OVC015 BECMG 0113/0115 12010KT FM011700 08010G20KT 1SM -SN OVC007 RMK FCST BASED ON AUTO OBS. NXT FCST BY 011400Z", "TAF CYBG 010540Z 0106/0206 VRB03KT P6SM BKN060 OVC150 FM010800 10005KT P6SM SCT030 BKN050 TEMPO 0108/0110 P6SM -SN BKN030 OVC050 FM011000 09010KT 6SM -SN SCT020 OVC030 TEMPO 0110/0114 5SM -SN BKN020 OVC030 FM011400 09010G20KT 3SM -SN BKN012 OVC020 PROB30 0114/0117 3/4SM -SHSN FM011700 09010G20KT 3/4SM -SN VV008 FM012200 09010KT 2SM -SN OVC008 FM020400 29015G30KT P6SM -SN BKN010 OVC040 RMK NXT FCST BY 011200Z", "TAF CYBK 010540Z 0106/0118 35015KT P6SM FEW025 BKN050 TEMPO 0106/0118 2 1/2SM -SN BLSN BKN020 RMK NXT FCST BY 011200Z", "TAF CYBR 010541Z 0106/0118 VRB03KT P6SM SKC FM011100 VRB03KT WS005/22020KT P6SM FEW080 FM011700 VRB03KT P6SM SCT008 RMK NXT FCST BY 011200Z", "TAF CYBX 010740Z 0108/0120 24005KT 3/4SM BR OVC002 TEMPO 0108/0111 3SM -SN -FZDZ BR SCT002 OVC010 BECMG 0109/0111 23012G22KT FM011100 23015G25KT 3/4SM BR OVC002 TEMPO 0111/0114 3SM -SN BR SCT002 OVC010 FM011400 24012G22KT P6SM BKN015 TEMPO 0114/0120 SCT015 RMK NXT FCST BY 011400Z", "TAF AMD CYCA 010853Z 0108/0120 21005KT P6SM BKN030 TEMPO 0108/0120 5SM -SN BKN015 BECMG 0115/0117 26008KT RMK FCST BASED ON AUTO OBS. NXT FCST BY 011400Z", "TAF CYCB 010640Z 0107/0119 08006KT P6SM FEW070 TEMPO 0107/0119 5SM IC RMK NXT FCST BY 011300Z", "TAF CYCO 010640Z 0107/0119 12008KT P6SM SKC RMK NXT FCST BY 011300Z", "TAF CYCY 010640Z 0107/0119 32015KT P6SM FEW010 BKN050 TEMPO 0107/0119 3SM IC RMK FCST BASED ON AUTO OBS. NXT FCST BY 011300Z", "TAF CYDB 010540Z 0106/0118 30008KT P6SM -SN SCT020 BKN030 TEMPO 0106/0118 2SM -SHSN BKN020 OVC040 RMK FCST BASED ON AUTO OBS. NXT FCST BY 011200Z", "TAF CYDF 010740Z 0108/0120 25005KT P6SM SCT020 BKN050 TEMPO 0108/0112 BKN020 BKN050 PROB30 0108/0112 2SM BR BKN008 FM011400 24012KT P6SM BKN025 TEMPO 0114/0120 5SM -SHSN BKN015 BECMG 0114/0116 24010G20KT RMK NXT FCST BY 011400Z", "TAF CYDN 010541Z 0106/0118 21008KT P6SM SKC FM011100 VRB03KT WS005/21020KT P6SM FEW080 FM011700 22005KT P6SM FEW012 RMK FCST BASED ON AUTO OBS. NXT FCST BY 011200Z", "TAF CYDP 010940Z 0110/0122 32005KT 6SM BR FEW003 BKN030 TEMPO 0110/0114 3/4SM BR BKN003 BKN030 FM011400 06012KT 6SM -SN SCT015 OVC030 TEMPO 0114/0118 3SM -SN BKN015 OVC030 PROB40 0114/0118 2SM -SN FM011800 09012G22KT 6SM -SN SCT015 OVC030 TEMPO 0118/0122 3SM -SN BKN015 OVC030 PROB40 0118/0122 2SM -SN RMK NXT FCST BY 011400Z", "TAF AMD CYEG 011109Z 0111/0206 VRB03KT 6SM BR SCT004 BKN060 TEMPO 0111/0115 1SM BR BKN004 PROB30 0111/0115 1/2SM FZFG VV001 FM011500 VRB03KT P6SM FEW020 TEMPO 0115/0118 3SM BR FM011800 36005KT P6SM SKC BECMG 0119/0121 06007KT FM020300 06005KT P6SM SCT012 RMK NXT FCST BY 011200Z", "TAF CYEK 010540Z 0106/0118 32018KT 6SM IC SKC TEMPO 0106/0110 1 1/2SM IC BLSN SCT020 FM011000 31016KT 1SM IC BLSN BKN020 BKN120 TEMPO 0110/0118 3SM IC BKN050 PROB40 0110/0118 3/4SM IC BLSN RMK FCST BASED ON AUTO OBS. NXT FCST BY 011200Z", "TAF CYER 010840Z 0109/0119 27006KT P6SM SCT240 RMK FCST BASED ON AUTO OBS. NXT FCST BY 011500Z", "TAF CYEU 011040Z 0111/0123 VRB03KT P6SM SKC RMK ADVISORY OFFSITE. NXT FCST BY 011800Z", "TAF CYEV 010640Z 0107/0119 07008KT P6SM FEW070 FM011000 07008KT P6SM SCT020 BKN050 TEMPO 0110/0119 5SM -SN BKN020 OVC050 RMK NXT FCST BY 011300Z", "TAF CYFB 010540Z 0106/0206 12010KT P6SM -SN OVC030 TEMPO 0106/0112 5SM -SN SCT006 OVC020 PROB30 0106/0112 2SM -SN BR BKN006 FM011200 08006KT P6SM BKN025 FM011500 16008KT P6SM SCT030 FM020100 36006KT P6SM FEW030 RMK NXT FCST BY 011200Z", "TAF AMD CYFC 010738Z 0107/0118 VRB03KT P6SM -SN OVC030 TEMPO 0107/0112 1 1/2SM -SN OVC015 FM011200 15010G20KT 3SM -SNRA BR OVC015 TEMPO 0112/0114 1SM -SN OVC007 FM011400 13010G20KT 3SM -RASN BR OVC012 TEMPO 0114/0118 1 1/2SM -RA BR OVC005 RMK FCST BASED ON AUTO OBS. NXT FCST BY 011200Z", "TAF AMD CYFS 011125Z 0111/0118 VRB03KT 6SM -SN SCT015 BKN050 TEMPO 0111/0115 1SM -SHSN VV015 FM011500 36005KT P6SM SCT020 BKN050 TEMPO 0115/0118 3SM -SN BKN020 OVC050 RMK NXT FCST BY 011200Z", "TAF CYGL 010540Z 0106/0206 03005KT P6SM BKN040 TEMPO 0106/0111 SCT040 FM011100 35007KT P6SM FEW040 BECMG 0116/0118 33012KT RMK NXT FCST BY 011200Z", "TAF CYGP 010740Z 0108/0120 VRB03KT 6SM BR FEW003 TEMPO 0108/0111 4SM BR PROB30 0108/0111 1SM BR BKN003 FM011100 21007KT P6SM BKN060 BECMG 0112/0114 17010G20KT FM011700 16010G20KT 2SM -RASN BR OVC012 FM011900 11010G20KT 1SM -SN OVC008 RMK NXT FCST BY 011400Z", "TAF CYGQ 010740Z 0108/0120 05010KT P6SM SKC RMK FCST BASED ON AUTO OBS. NXT FCST BY 011400Z", "TAF CYGR 011040Z 0111/0123 20010G20KT P6SM BKN070 FM011700 17020G30KT P6SM -RASN OVC030 FM012000 14020G30KT 3/4SM -SN BR OVC005 RMK NXT FCST BY 011400Z", "TAF AMD CYGV 011103Z 0111/0120 VRB03KT P6SM OVC008 TEMPO 0111/0115 FEW008 BKN070 OVC100 FM011500 09010KT P6SM BKN050 RMK FCST BASED ON AUTO OBS. NXT FCST BY 011400Z", "TAF CYGW 010540Z 0106/0118 VRB03KT P6SM OVC012 TEMPO 0106/0110 5SM -SN OVC008 PROB30 0106/0110 OVC006 FM011000 VRB03KT P6SM SCT015 TEMPO 0110/0115 BKN015 FM011500 30008KT P6SM BKN015 TEMPO 0115/0118 BKN025 RMK FCST BASED ON AUTO OBS. NXT FCST BY 011200Z", "TAF CYGX 010640Z 0107/0119 VRB03KT P6SM SKC RMK NXT FCST BY 011300Z", "TAF CYHD 010740Z 0108/0120 04007KT P6SM SKC BECMG 0116/0118 18010KT RMK FCST BASED ON AUTO OBS. NXT FCST BY 011400Z", "TAF AMD CYHK 011117Z 0111/0118 03015KT 6SM IC HZ FEW020 BKN180 TEMPO 0111/0118 2SM -SN BLSN BKN020 RMK FCST BASED ON AUTO OBS. NXT FCST BY 011200Z", "TAF AMD CYHM 010922Z 0109/0206 21010KT P6SM SCT012 BKN100 TEMPO 0109/0112 P6SM -SHRA BKN012 BKN100 FM011200 24015G25KT P6SM SCT070 FM011800 24015G30KT 4SM SHRA BR OVC020 TEMPO 0118/0120 P6SM -SHRA SCT020 OVC030 PROB30 0118/0120 VRB25G35KT 2SM +TSRA BR BKN008 OVC020CB FM012000 28015G25KT 5SM -SHRA BR BKN020 OVC040 BECMG 0122/0124 32012G22KT FM020000 32012G22KT P6SM -SHRASN BKN020 BKN040 FM020200 32012G22KT P6SM BKN030 RMK NXT FCST BY 011200Z", "TAF AMD CYHU 010845Z 0108/0206 03008KT 6SM -RA BR SCT005 OVC010 TEMPO 0108/0113 2SM -RA BR BKN005 OVC010 FM011300 10010KT 1 1/2SM RA BR OVC003 TEMPO 0113/0115 3SM -RA BR OVC006 FM011500 11010KT 2 1/2SM -RA BR OVC007 TEMPO 0115/0118 6SM -RA BR OVC015 FM011800 25015G25KT P6SM BKN020 OVC030 BECMG 0118/0120 30010KT FM020000 34012KT P6SM SCT015 BKN030 BECMG 0200/0202 34012G22KT RMK FCST BASED ON AUTO OBS. NXT FCST BY 011200Z", "TAF AMD CYHY 011036Z 0110/0118 11012G22KT 6SM -SN SCT020 BKN040 TEMPO 0110/0118 3/4SM -SHSN SCT010 OVC020 RMK NXT FCST BY 011200Z", "TAF AMD CYHZ 010936Z 0109/0206 17010KT 3SM -SN OVC015 TEMPO 0109/0111 1 1/2SM -SN BKN006 OVC015 FM011100 17010G20KT 1SM -SN BKN006 OVC012 TEMPO 0111/0115 3SM -SN OVC012 FM011500 15012G22KT 2SM -RASN BR OVC006 FM011700 15012G22KT 1SM -RA BR OVC003 FM012000 14015G25KT 3/4SM -RA BR OVC002 BECMG 0122/0124 22012KT FM020300 23010KT 6SM BR SCT007 BKN080 TEMPO 0203/0206 4SM BR BKN007 RMK NXT FCST BY 011200Z", "TAF CYIO 010640Z 0107/0119 VRB03KT P6SM FEW040 TEMPO 0107/0119 5SM IC BR RMK FCST BASED ON AUTO OBS. NXT FCST BY 011300Z", "TAF CYIV 010640Z 0107/0119 VRB03KT P6SM FEW040 BKN080 TEMPO 0107/0119 6SM -SN BKN040 BECMG 0113/0115 08008KT RMK FCST BASED ON AUTO OBS. NXT FCST BY 011300Z", "TAF CYJT 010540Z 0106/0206 VRB03KT P6SM FEW020 TEMPO 0106/0112 BKN020 PROB30 0106/0112 2SM BR BKN008 FM011200 22012KT P6SM SCT015 OVC050 TEMPO 0112/0121 5SM -SHSN BKN015 OVC050 PROB30 0112/0114 BKN008 FM012100 16015G25KT P6SM SCT020 BKN040 TEMPO 0121/0123 5SM -SHSN BKN020 BKN040 FM012300 12015G25KT 3/4SM -SN BLSN VV006 BECMG 0201/0203 11025G35KT RMK NXT FCST BY 011200Z", "TAF CYKA 010640Z 0107/0119 10012KT P6SM FEW050 SCT120 TEMPO 0107/0119 P6SM -SHRASN SCT030 BKN050 BECMG 0116/0118 25012KT RMK NXT FCST BY 011300Z", "TAF CYKF 010740Z 0108/0120 11012G22KT 2SM -SHRA BR OVC003 TEMPO 0108/0109 6SM -SHRA BR SCT003 OVC040 BECMG 0108/0109 16012G22KT FM010900 16012G22KT 2SM -SHRA BR BKN003 BKN020 OVC080 TEMPO 0109/0110 P6SM NSW SCT003 OVC080 BECMG 0109/0110 24015G25KT FM011000 24015G25KT P6SM SCT040 BKN110 TEMPO 0110/0112 P6SM -SHRA BKN020 OVC040 FM011200 24017G27KT P6SM SCT040 FM011700 24017G27KT 5SM -SHRA BR BKN020 OVC040 PROB30 0117/0119 2SM TSRA BR OVC020CB FM011900 31018G28KT P6SM -SHRA BKN025 OVC040 RMK FCST BASED ON AUTO OBS. NXT FCST BY 011400Z", "TAF CYKJ 010940Z 0110/0122 09010KT P6SM SCT012 OVC040 TEMPO 0110/0113 3SM -SN BKN012 OVC030 FM011300 09012KT 6SM -SN OVC025 TEMPO 0113/0122 2SM -SN OVC012 RMK FCST BASED ON AUTO OBS. NXT FCST BY 011300Z", "TAF CYKL 010740Z 0108/0120 19005KT P6SM SCT015 TEMPO 0108/0112 2SM BR BKN015 BECMG 0108/0110 24008KT FM011200 23010KT P6SM FEW010 BECMG 0116/0118 20005KT RMK FCST BASED ON AUTO OBS. NXT FCST BY 011400Z", "TAF AMD CYLL 010918Z 0109/0118 10007KT 1/2SM FZFG VV002 TEMPO 0109/0114 2SM BR BKN008 FM011400 10007KT 3SM BR BKN008 TEMPO 0114/0116 P6SM NSW SCT008 FM011600 11007KT P6SM FEW015 RMK FCST BASED ON AUTO OBS. AUTO OBS REP NON-REPRESENTATIVE PCPN. NXT FCST BY 011200Z", "TAF CYLW 010640Z 0107/0119 VRB03KT P6SM SCT080 TEMPO 0107/0119 5SM -SHRASN BR BKN040 OVC080 BECMG 0116/0118 22010G20KT RMK FCST BASED ON AUTO OBS. NXT FCST BY 011300Z", "TAF CYMA 010540Z 0106/0118 36008KT P6SM SCT020 BKN050 TEMPO 0106/0118 2SM -SHSN BKN020 OVC050 RMK NXT FCST BY 011200Z", "TAF AMD CYMH 010937Z 0109/0121 25008KT P6SM SCT008 BKN030 TEMPO 0109/0114 5SM -SHSN BKN008 BKN030 FM011400 24012KT P6SM FEW020 BKN060 TEMPO 0114/0117 5SM -SHSN BKN020 BKN060 FM011700 27012KT P6SM BKN030 TEMPO 0117/0121 1 1/2SM -SHSN BKN020 RMK FCST BASED ON AUTO OBS. NXT FCST BY 011400Z", "TAF CYMJ 312340Z 0100/0112 18015KT P6SM FEW070 SCT240 FM010300 18010KT P6SM FEW010 SCT070 BECMG 0109/0111 23015KT RMK NXT FCST BY 010600Z", "TAF CYMM 010640Z 0107/0119 10008KT P6SM SCT060 BKN150 TEMPO 0107/0113 BKN060 OVC150 FM011300 11012KT P6SM -SN SCT012 BKN060 OVC120 TEMPO 0113/0119 3SM -SN BR BKN012 OVC060 RMK FCST BASED ON AUTO OBS. NXT FCST BY 011300Z", "TAF AMD CYMO 010847Z 0108/0118 35005KT P6SM FEW003 TEMPO 0108/0114 BKN003 BECMG 0110/0112 36008KT FM011400 36012KT P6SM SCT020 RMK FCST BASED ON AUTO OBS. NXT FCST BY 011200Z", "TAF AMD CYMX 010911Z 0109/0206 06008KT 1SM -DZ BR OVC002 TEMPO 0109/0110 2SM -RASN BR OVC004 PROB30 0109/0110 2SM -FZRA BR FM011000 06012KT 3SM -RA BR OVC006 TEMPO 0110/0113 2SM -RA BR OVC003 FM011300 07010G20KT 2SM -RA BR OVC006 TEMPO 0113/0115 1SM RA BR OVC003 FM011500 07015KT 2SM -RA BR OVC004 TEMPO 0115/0118 4SM -RA BR OVC008 FM011800 02006KT P6SM OVC012 TEMPO 0118/0120 3SM -DZ BR OVC008 FM012100 VRB03KT P6SM SCT020 BKN070 TEMPO 0121/0124 6SM -SHRA BR FM020000 32010KT P6SM SCT030 BKN060 RMK NXT FCST BY 011200Z", "TAF CYNA 010740Z 0108/0120 26007KT P6SM BKN030 TEMPO 0108/0118 BKN010 BECMG 0116/0118 16012KT FM011900 15010G20KT P6SM BKN050 RMK FCST BASED ON AUTO OBS. NXT FCST BY 011400Z", "TAF CYNE 010640Z 0107/0119 VRB03KT P6SM SCT060 BKN120 TEMPO 0107/0113 SCT030 BKN060 FM011300 07008KT P6SM SCT030 BKN050 RMK FCST BASED ON AUTO OBS. NXT FCST BY 011300Z", "TAF CYOD 010540Z 0106/0206 VRB03KT P6SM FEW008 PROB30 0107/0113 3/4SM BR OVC002 FM011300 09005KT P6SM BKN008 OVC080 PROB30 0113/0118 1SM -SN BR OVC003 FM011800 09008KT P6SM -SN BKN015 OVC040 FM012100 09008KT 3SM -SN SCT008 OVC012 RMK NXT FCST BY 011200Z", "TAF CYOJ 010640Z 0107/0119 13012G22KT P6SM FEW020 SCT060 TEMPO 0107/0109 6SM -SN SCT020 BKN060 FM010900 12010G20KT 6SM -SN OVC050 TEMPO 0109/0113 2SM -SN BR VV015 FM011300 11010G20KT 6SM -SN BR SCT006 OVC012 TEMPO 0113/0119 1 1/2SM BR OVC006 RMK FCST BASED ON AUTO OBS. NXT FCST BY 011300Z", "TAF AMD CYOO 011032Z 0110/0120 10010KT 2SM -SHRA BR OVC002 TEMPO 0110/0112 P6SM NSW SCT002 OVC070 BECMG 0110/0112 24015G25KT FM011200 23015G25KT P6SM -SHRA BKN012 BKN070 TEMPO 0112/0114 P6SM NSW SCT070 FM011400 24015G30KT P6SM SCT070 FM011800 27015G25KT 4SM -SHRA BR OVC040 PROB30 0118/0120 2SM SHRA BR BKN008 OVC020 RMK FCST BASED ON AUTO OBS. NXT FCST BY 011400Z", "TAF CYOW 010840Z 0109/0206 06012KT 1 1/2SM -FZRA BR OVC002 TEMPO 0109/0112 3SM -RASN BR OVC004 FM011200 08012KT 1 1/2SM -RA BR OVC003 TEMPO 0112/0114 3SM -RASN BR OVC006 PROB30 0112/0114 2SM -FZRA BR FM011400 12006KT 3SM -RA -DZ BR OVC006 TEMPO 0114/0116 6SM -RA BR OVC012 FM011600 17012KT P6SM BKN015 OVC040 TEMPO 0116/0118 6SM -SHRA BR BECMG 0116/0118 25015G25KT FM011800 25015G25KT P6SM BKN060 FM020000 33015G25KT P6SM SCT015 BKN040 BECMG 0200/0202 33020G30KT RMK NXT FCST BY 011200Z", "TAF AMD CYPA 010956Z 0109/0119 09006KT P6SM SKC TEMPO 0109/0114 3SM BR FEW002 PROB30 0109/0114 1/2SM FZFG VV002 FM011400 09010KT P6SM SCT006 FM011700 09012KT P6SM BKN012 RMK NXT FCST BY 011300Z", "TAF CYPE 010640Z 0107/0119 VRB03KT P6SM FEW060 SCT120 BKN210 TEMPO 0107/0109 SCT060 BKN120 OVC210 FM010900 VRB03KT P6SM SCT015 OVC050 TEMPO 0109/0113 5SM -SHSN BR BKN015 OVC030 FM011300 VRB03KT P6SM FEW050 SCT120 BECMG 0116/0118 26007KT RMK NXT FCST BY 011300Z", "TAF CYPH 010540Z 0106/0118 27008KT P6SM OVC012 TEMPO 0106/0114 P6SM -SN OVC008 PROB30 0106/0114 OVC006 FM011400 VRB03KT P6SM BKN015 TEMPO 0114/0118 BKN025 BECMG 0116/0118 33010KT RMK FCST BASED ON AUTO OBS. NXT FCST BY 011200Z", "TAF CYPL 010740Z 0108/0120 VRB03KT P6SM SKC FM011500 24008KT P6SM SCT040 BKN080 RMK FCST BASED ON AUTO OBS. NXT FCST BY 011400Z", "TAF CYPQ 010940Z 0110/0122 06010KT 2SM -SHRA BR OVC003 TEMPO 0110/0111 6SM BR OVC008 FM011100 06010KT 2SM -SHRA BR OVC003 TEMPO 0111/0113 P6SM NSW SCT003 OVC080 BECMG 0111/0113 24015G25KT FM011300 24015G25KT P6SM OVC080 TEMPO 0113/0115 P6SM -SHRA FM011500 24015G25KT P6SM SCT080 FM011900 27015G30KT P6SM -SHRA BKN050 BKN180 FM012000 29017G30KT 5SM -SHRA BR BKN030 OVC140 RMK FCST BASED ON AUTO OBS. NXT FCST BY 011400Z", "TAF CYPR 010640Z 0107/0119 19006KT P6SM SCT020 BKN040 TEMPO 0107/0116 2SM -SHRA BR BKN008 OVC020 FM011600 15008KT P6SM SCT020 BKN040 TEMPO 0116/0119 4SM -SHRA BR BKN020 OVC040 RMK FCST BASED ON AUTO OBS. NXT FCST BY 011300Z", "TAF CYPX 010541Z 0106/0118 27010KT P6SM FEW015 TEMPO 0106/0118 2SM -SN BKN015 RMK FCST BASED ON AUTO OBS. NXT FCST BY 011200Z", "TAF AMD CYQB 011015Z 0110/0206 08015KT P6SM OVC025 TEMPO 0110/0112 5SM -SN OVC015 FM011200 07012KT 6SM -SN OVC015 TEMPO 0112/0113 3SM -SN BKN007 OVC015 PROB30 0112/0113 1 1/2SM -SN -FZDZ BR OVC006 FM011300 07012G22KT 3/4SM -SN VV003 TEMPO 0113/0116 1 1/2SM -SN OVC006 FM011600 07015G25KT 1SM -SNRA OVC006 TEMPO 0116/0119 2 1/2SM -RASN BR OVC010 FM011900 07015G25KT 2SM -RASN BR OVC006 TEMPO 0119/0122 4SM -RA BR OVC012 BECMG 0119/0121 06008KT FM012200 VRB03KT 2 1/2SM -DZ BR BKN008 OVC015 BECMG 0122/0124 25006KT FM020300 30012KT P6SM FEW020 BKN030 RMK NXT FCST BY 011200Z", "TAF CYQD 010640Z 0107/0119 VRB03KT P6SM FEW020 SCT050 TEMPO 0107/0113 BKN020 FM011300 09008KT P6SM SCT008 BKN020 TEMPO 0113/0119 OVC008 RMK FCST BASED ON AUTO OBS. NXT FCST BY 011300Z", "TAF CYQF 010540Z 0106/0118 VRB03KT P6SM BKN200 FM011500 22005KT P6SM SKC RMK FCST BASED ON AUTO OBS. NXT FCST BY 011200Z", "TAF AMD CYQG 010634Z 0106/0206 26018G28KT P6SM BKN080 OVC100 TEMPO 0106/0110 P6SM -SHRA FM011000 24015G25KT P6SM SCT040 TEMPO 0110/0112 P6SM -SHRA BKN040 FM011500 24028G38KT 3SM SHRA BR OVC015 PROB30 0115/0117 VRB35G45KT 2SM +TSRA BR BKN008 OVC025CB FM011700 24022G32KT P6SM -SHRA BKN030 FM012000 28010G20KT P6SM -SHRA BKN040 BECMG 0122/0124 36015G25KT FM020000 35015G25KT P6SM -SHRASN BKN020 BKN040 FM020200 35012KT P6SM BKN030 RMK FCST BASED ON AUTO OBS. NXT FCST BY 011200Z", "TAF CYQH 010540Z 0106/0118 10008KT P6SM SCT120 BECMG 0106/0108 SCT040 BKN100 FM011000 11008KT P6SM SCT020 BKN040 TEMPO 0110/0118 3SM -SN BKN020 OVC040 PROB30 0110/0118 2SM -SHSN RMK NXT FCST BY 011200Z", "TAF AMD CYQI 011016Z 0110/0118 12010G20KT 3SM -RA BR OVC008 TEMPO 0110/0112 1SM -SNRA BR OVC004 FM011200 13015G25KT 1SM -RA BR OVC003 TEMPO 0112/0117 5SM -RA BR OVC010 FM011700 14015G30KT 3/4SM -RA -DZ BR OVC003 RMK NXT FCST BY 011200Z", "TAF CYQK 010740Z 0108/0120 03005KT P6SM SKC BECMG 0116/0118 19010KT RMK NXT FCST BY 011400Z", "TAF AMD CYQL 010708Z 0107/0118 23015G25KT P6SM SCT120 SCT230 TEMPO 0107/0112 BKN120 BKN230 BECMG 0110/0112 24012KT FM011200 24012KT P6SM FEW100 SCT230 RMK FCST BASED ON AUTO OBS. NXT FCST BY 011200Z", "TAF AMD CYQM 010831Z 0108/0206 18005KT P6SM -SN OVC030 TEMPO 0108/0115 3SM -SN OVC020 BECMG 0109/0111 17010G20KT FM011500 15010G20KT 4SM -RASN BR OVC015 TEMPO 0115/0118 6SM -RA BR OVC030 FM011800 12010G20KT 2SM -RA BR SCT007 OVC015 FM012000 12010G20KT 1SM -RA BR OVC005 FM020000 17007KT 2SM BR BKN010 FM020200 26012KT P6SM BKN015 RMK NXT FCST BY 011200Z", "TAF CYQQ 010540Z 0106/0206 24005KT P6SM FEW040 FEW080 FM011500 VRB03KT P6SM FEW040 BKN080 FM012000 VRB03KT P6SM -SHRA BKN050 FM012200 13008KT 3SM -SHRA SCT010 BKN020 FM020200 VRB03KT P6SM FEW010 BKN050 RMK NXT FCST BY 011200Z", "TAF CYQR 010541Z 0106/0206 14012KT P6SM SKC FM011000 14010KT WS005/22020KT P6SM SKC FM011500 20012KT P6SM SKC BECMG 0202/0204 14010KT SCT200 RMK NXT FCST BY 011200Z", "TAF CYQT 010740Z 0108/0120 04012G22KT P6SM FEW250 BECMG 0113/0115 03008KT BECMG 0118/0120 20008KT RMK NXT FCST BY 011400Z", "TAF CYQU 010640Z 0107/0119 VRB03KT P6SM BKN060 OVC110 TEMPO 0107/0113 SCT060 BKN110 FM011300 VRB03KT P6SM FEW060 SCT110 RMK NXT FCST BY 011300Z", "TAF AMD CYQW 010636Z 0106/0118 11008KT 1/2SM FZFG VV002 TEMPO 0106/0115 1SM BR SCT003 FM011500 11010KT P6SM SCT008 TEMPO 0115/0117 3SM BR BKN006 RMK FCST BASED ON AUTO OBS. NXT FCST BY 011200Z", "TAF AMD CYQX 010932Z 0109/0206 04005KT 1/2SM FZFG VV001 TEMPO 0109/0112 6SM BR SCT001 PROB30 0109/0112 2SM -FZDZ BR FM011200 25008KT P6SM FEW003 FM011500 25010G20KT P6SM SCT020 FM011700 25012G22KT P6SM BKN040 BECMG 0120/0122 24010KT FM012300 19012KT P6SM BKN080 FM020200 14012G22KT 5SM -SN OVC020 FM020300 14015G25KT 3/4SM -SN BLSN VV006 FM020500 11020G30KT 3/8SM SN BLSN VV003 RMK NXT FCST BY 011200Z", "TAF AMD CYQY 011111Z 0111/0118 20008KT P6SM BKN150 FM011500 18010G20KT P6SM BKN015 TEMPO 0115/0118 4SM -RASN BR BKN008 OVC015 RMK NXT FCST BY 011200Z", "TAF CYRB 010540Z 0106/0206 35008KT P6SM FEW020 TEMPO 0106/0118 4SM -SN OVC015 FM011800 VRB03KT P6SM FEW015 RMK NXT FCST BY 011200Z", "TAF CYRL 011040Z 0111/0123 VRB03KT P6SM FEW030 SCT240 BECMG 0116/0118 20008KT RMK NXT FCST BY 011400Z", "TAF CYRQ 010740Z 0108/0120 06008KT 6SM BR OVC015 TEMPO 0108/0110 2SM -SN BR OVC006 FM011000 08006KT 6SM BR OVC012 TEMPO 0110/0113 3SM -RASN BR BKN006 OVC012 PROB30 0110/0113 2SM -FZRA BR FM011300 10010G20KT 3SM -RASN BR OVC008 TEMPO 0113/0115 1 1/2SM RA BR OVC004 FM011500 07010KT 1SM -RA BR OVC003 TEMPO 0115/0118 2 1/2SM -RA BR OVC006 FM011800 06006KT 3SM -DZ BR BKN007 OVC015 BECMG 0118/0120 20010KT RMK FCST BASED ON AUTO OBS. NXT FCST BY 011400Z", "TAF CYRT 010540Z 0106/0118 02015KT 6SM BLSN SCT015 SCT030 TEMPO 0106/0118 2SM -SN BLSN OVC015 RMK NXT FCST BY 011200Z", "TAF CYSB 010740Z 0108/0120 05015KT 1SM -SN OVC003 TEMPO 0108/0109 3SM -SNPL OVC006 FM010900 05018G28KT 1/2SM SN BLSN VV004 TEMPO 0109/0111 3SM -SNPL OVC010 FM011100 05020G30KT 1/4SM +SN BLSN VV003 TEMPO 0111/0115 1SM -SN BLSN VV006 BECMG 0113/0115 02020G30KT FM011500 02020G30KT 1SM -SN BLSN VV007 TEMPO 0115/0118 3SM -SN OVC012 FM011800 01018G30KT 4SM -SN BLSN BKN020 OVC040 TEMPO 0118/0120 P6SM NSW FEW040 SCT080 RMK NXT FCST BY 011400Z", "TAF AMD CYSC 011110Z 0111/0123 04005KT P6SM OVC025 TEMPO 0111/0112 2SM -RASN BR OVC007 FM011200 04005KT 3SM -SN BR OVC015 TEMPO 0112/0114 2SM -RASN BR OVC007 FM011400 13010G20KT 3SM -RA BR OVC012 TEMPO 0114/0118 1SM -RA BR OVC005 FM011800 18010G20KT 3SM -RA BR OVC010 FM012000 24012G22KT P6SM BKN040 RMK FCST BASED ON AUTO OBS. NXT FCST BY 011800Z", "TAF CYSF 010540Z 0106/0118 08007KT P6SM SCT240 FM010900 08007KT P6SM FEW012 SCT120 BKN240 FM011500 09010KT P6SM SCT012 BKN120 OVC240 RMK FCST BASED ON AUTO OBS. NXT FCST BY 011200Z", "TAF AMD CYSJ 010633Z 0106/0118 20005KT 4SM -SN OVC015 TEMPO 0106/0109 1 1/2SM -SN BR BKN005 OVC015 FM010900 20010G20KT 6SM -RASN OVC010 TEMPO 0109/0117 2SM -RASN BR OVC005 BECMG 0111/0113 12010G20KT FM011700 10012G22KT 3/4SM -RA BR OVC005 RMK NXT FCST BY 011200Z", "TAF CYSM 010540Z 0106/0118 10007KT P6SM SCT030 BKN070 TEMPO 0106/0109 5SM -SN BR BKN030 FM010900 10010KT 2SM -SN VV012 TEMPO 0109/0118 6SM -SN SCT015 OVC030 RMK NXT FCST BY 011200Z", "TAF AMD CYTE 011018Z 0110/0119 07010KT 3/4SM -SN OVC005 TEMPO 0110/0119 P6SM NSW SCT005 BKN025 RMK FCST BASED ON AUTO OBS. NXT FCST BY 011300Z", "TAF AMD CYTH 010803Z 0108/0119 06005KT P6SM SCT030 BKN070 TEMPO 0108/0113 5SM -SN BKN030 FM011300 06008KT P6SM FEW070 RMK NXT FCST BY 011300Z", "TAF CYTL 010740Z 0108/0120 VRB03KT 5SM -SN BKN080 TEMPO 0108/0112 P6SM NSW SCT080 FM011200 VRB03KT P6SM SCT020 BKN030 TEMPO 0112/0116 6SM -SN BKN020 BKN030 FM011600 35005KT P6SM FEW040 RMK FCST BASED ON AUTO OBS. NXT FCST BY 011400Z", "TAF AMD CYTR 011122Z 0111/0206 01005KT 4SM BR OVC005 TEMPO 0111/0113 2SM -SHRA BR OVC003 FM011300 21015G25KT P6SM SCT006 BKN010 OVC030 TEMPO 0113/0115 2SM -SHRA BR BKN006 OVC010 FM011500 24020G30KT P6SM BKN030 FM011800 24015G25KT 6SM -SHRA BR SCT010 OVC025 PROB30 0120/0123 VRB20G35KT 2SM TSRA BR BKN010 OVC025CB FM012300 32015G25KT P6SM BKN030 RMK NXT FCST BY 011200Z", "TAF AMD CYTS 011013Z 0110/0120 02012G22KT P6SM SCT020 OVC050 TEMPO 0110/0112 5SM -SN OVC020 PROB30 0110/0112 2 1/2SM -SN OVC007 FM011200 01012G22KT 6SM -SN OVC012 TEMPO 0112/0114 5SM -SN OVC006 FM011400 01015G25KT P6SM BKN015 TEMPO 0114/0116 BKN030 FM011600 01015G25KT P6SM SCT030 BKN180 BECMG 0116/0118 36018G28KT RMK NXT FCST BY 011400Z", "TAF AMD CYTZ 011046Z 0110/0208 21005KT 3/4SM -RA BR VV002 TEMPO 0110/0112 P6SM NSW SCT003 OVC080 BECMG 0110/0112 23012G22KT FM011200 23012G22KT 2SM -SHRA BR BKN004 BKN080 TEMPO 0112/0113 P6SM NSW SCT004 BKN080 BECMG 0112/0113 24015G30KT FM011300 24015G30KT P6SM FEW080 FM011700 24015G30KT 4SM -SHRA BR BKN020 OVC040 PROB30 0117/0120 VRB30G40KT 2SM TSRA BR BKN008 OVC015CB FM012000 29015G25KT P6SM -SHRA BKN030 BKN080 FM020000 30020KT P6SM -SHRASN BKN030 BKN060 FM020200 21012KT P6SM BKN030 RMK FCST BASED ON AUTO OBS. NXT FCST BY 011400Z", "TAF CYUL 010840Z 0109/0206 06008KT 6SM -RA BR SCT003 OVC005 TEMPO 0109/0113 2 1/2SM -RA BR BKN003 OVC005 PROB30 0111/0113 1SM RA BR FM011300 09012KT 3SM -RA BR OVC006 TEMPO 0113/0116 1SM RA BR BKN003 OVC006 FM011600 16010KT 2 1/2SM -RA BR BKN007 OVC015 TEMPO 0116/0118 6SM -RA BR OVC015 BECMG 0116/0118 28010G20KT FM011800 28010G20KT 5SM -SHRA BR OVC015 TEMPO 0118/0121 P6SM NSW BKN030 FM012100 30006KT P6SM SCT015 BKN030 FM012200 31015KT P6SM BKN025 BECMG 0200/0202 34015KT RMK NXT FCST BY 011200Z", "TAF CYUX 010640Z 0107/0119 03012KT P6SM FEW012 BKN160 TEMPO 0107/0119 2SM IC HZ BKN012 RMK FCST BASED ON AUTO OBS. NXT FCST BY 011300Z", "TAF AMD CYUY 011017Z 0110/0118 05010KT P6SM -SN SCT007 OVC015 TEMPO 0110/0112 2SM -SN BKN007 OVC015 PROB30 0110/0112 1 1/2SM -SN FM011200 05012G22KT 1 1/2SM -SN VV005 TEMPO 0112/0114 3SM -SN OVC010 BECMG 0112/0114 04015G25KT FM011400 04015G25KT 3/4SM -SN VV004 TEMPO 0114/0116 2 1/2SM -SN OVC008 FM011600 01018G28KT 2 1/2SM -SN OVC008 TEMPO 0116/0118 6SM -SN OVC030 RMK NXT FCST BY 011200Z", "TAF CYVC 010640Z 0107/0119 08006KT P6SM FEW020 BKN060 TEMPO 0107/0110 SCT060 FM011000 08012KT P6SM SCT015 TEMPO 0110/0119 5SM -SN BR BKN012 BECMG 0117/0119 08018G28KT RMK NXT FCST BY 011300Z", "TAF AMD CYVM 011020Z 0110/0119 VRB03KT P6SM -SN FEW010 OVC030 TEMPO 0110/0115 5SM -SN BKN008 OVC030 RMK FCST BASED ON AUTO OBS. NXT FCST BY 011300Z", "TAF AMD CYVO 011004Z 0110/0118 05010KT P6SM OVC010 TEMPO 0110/0112 4SM -SN OVC006 FM011200 05010G20KT 3SM -SN OVC008 TEMPO 0112/0113 1 1/2SM -SN VV005 FM011300 03015G25KT 3/4SM -SN VV004 TEMPO 0113/0118 2SM -SN OVC010 RMK FCST BASED ON AUTO OBS. NXT FCST BY 011200Z", "TAF CYVP 010540Z 0106/0118 VRB03KT P6SM SCT015 BKN040 TEMPO 0106/0114 4SM -SN SCT007 BKN015 OVC040 PROB30 0106/0112 2SM -SN BKN007 OVC015 FM011400 VRB03KT P6SM SCT020 BKN040 TEMPO 0114/0118 P6SM -SN BKN020 BKN040 RMK NXT FCST BY 011200Z", "TAF CYVQ 010540Z 0106/0118 12010KT P6SM SCT020 BKN060 TEMPO 0106/0118 3SM -SHSN BKN020 OVC040 RMK NXT FCST BY 011200Z", "TAF CYVR 010840Z 0109/0212 VRB03KT P6SM FEW040 SCT080 TEMPO 0109/0115 P6SM -SHRA SCT040 BKN080 FM011500 18008KT P6SM SCT025 BKN060 TEMPO 0115/0212 5SM -SHRA BR BKN025 OVC060 BECMG 0206/0208 12006KT RMK NXT FCST BY 011200Z", "TAF AMD CYVV 011044Z 0111/0123 VRB03KT WS010/23030KT 2SM BR BKN005 OVC015 TEMPO 0111/0113 P6SM NSW OVC015 BECMG 0111/0113 23020G32KT FM011300 23020G32KT P6SM OVC015 BECMG 0116/0118 35010G20KT FM012000 36015G25KT P6SM -SN OVC012 TEMPO 0121/0123 BKN025 RMK NXT FCST BY 011400Z", "TAF AMD CYWA 311936Z 3119/0118 13008KT 3/4SM -SN BKN006 OVC012 TEMPO 3119/0104 3SM -SN SCT006 OVC012 FM010400 13008KT 4SM -SNRA BR SCT003 OVC006 PROB30 0104/0108 2SM -FZRA BR OVC003 FM010800 13008KT 1SM -RA BR OVC003 BECMG 0113/0115 VRB03KT FM011600 VRB03KT P6SM SCT003 BKN050 BECMG 0116/0118 33008KT RMK NXT FCST BY 010000Z", "TAF CYWG 010541Z 0106/0206 VRB03KT P6SM SKC BECMG 0113/0115 16008KT BECMG 0116/0118 18015G25KT FM012000 18020G30KT P6SM BKN080 FM020000 18015G25KT P6SM SCT080 RMK NXT FCST BY 011200Z", "TAF AMD CYWK 011004Z 0110/0120 18005KT 6SM BR SCT002 TEMPO 0110/0114 1/2SM FZFG VV002 FM011400 13006KT P6SM FEW050 BECMG 0115/0117 11012KT RMK FCST BASED ON AUTO OBS. NXT FCST BY 011400Z", "TAF CYWL 010640Z 0107/0119 12008KT P6SM FEW060 TEMPO 0107/0119 P6SM -SHSN BKN060 BECMG 0116/0118 27010KT RMK NXT FCST BY 011300Z", "TAF CYXC 010640Z 0107/0119 18010KT P6SM SCT050 TEMPO 0107/0112 P6SM -SHSNRA BKN050 FM011200 15010G20KT P6SM -SN SCT030 BKN060 TEMPO 0112/0119 2SM -SHSNRA BR BKN030 OVC060 RMK NXT FCST BY 011300Z", "TAF CYXE 010541Z 0106/0206 14008KT P6SM SCT260 FM010800 14008KT P6SM SKC TEMPO 0108/0116 2SM BR FEW003 PROB30 0108/0116 1/2SM FZFG BKN002 FM011600 18008KT P6SM FEW100 SCT220 BECMG 0122/0124 07008KT RMK NXT FCST BY 011200Z", "TAF CYXH 010540Z 0106/0118 20012KT P6SM SKC FM010900 22015KT P6SM FEW080 SCT240 RMK FCST BASED ON AUTO OBS. NXT FCST BY 011200Z", "TAF CYXJ 010640Z 0107/0119 22010KT P6SM FEW150 BKN210 FM010900 20007KT P6SM SCT080 SCT140 FM011300 16007KT P6SM BKN040 TEMPO 0113/0119 3SM -SN BKN020 OVC040 RMK NXT FCST BY 011300Z", "TAF CYXL 010740Z 0108/0120 05005KT P6SM SKC BECMG 0116/0118 20008KT RMK NXT FCST BY 011400Z", "TAF CYXS 010640Z 0107/0119 18010KT P6SM BKN060 FM011000 20010KT P6SM SCT030 BKN060 TEMPO 0110/0116 5SM -SHSN BKN030 RMK FCST BASED ON AUTO OBS. NXT FCST BY 011300Z", "TAF CYXT 010641Z 0107/0119 17012G22KT P6SM FEW008 SCT030 OVC060 TEMPO 0107/0119 3SM -SHRA BR FEW005 BKN008 OVC030 PROB30 0107/0114 1SM -SHSNRA BR BKN005 OVC008 RMK NXT FCST BY 011300Z", "TAF CYXU 010540Z 0106/0206 17010KT 1SM TSRA BR BKN003 OVC012CB TEMPO 0106/0107 3SM -SHRA BR OVC007 FM010630 18015G30KT 1SM SHRA BR OVC003 TEMPO 0106/0108 3SM -SHRA BR OVC007 PROB40 0106/0107 3/4SM +TSRA BR BKN003 OVC020CB FM010800 23015G30KT 2SM -SHRA BR BKN006 BKN015 OVC040 TEMPO 0108/0109 P6SM NSW SCT015 BKN040 OVC100 FM010900 23015G30KT P6SM SCT015 OVC100 TEMPO 0109/0112 BKN015 BKN030 OVC100 FM011200 25015G30KT P6SM SCT040 TEMPO 0112/0115 P6SM -SHRA BKN040 FM011500 23015G30KT 4SM SHRA BR OVC020 PROB30 0115/0117 VRB20G35KT 2SM +TSRA BR BKN020 OVC030CB FM011800 27025G35KT 5SM -SHRA BR BKN020 OVC040 FM012100 30012G22KT P6SM -SHRA BKN020 OVC040 FM012300 30015G25KT 3SM -SHSNRA BKN020 FM020100 32015G25KT P6SM BKN030 RMK NXT FCST BY 011200Z", "TAF AMD CYXX 010737Z 0107/0206 19010G20KT P6SM SCT008 BKN030 TEMPO 0107/0110 3SM -SHRA BR BKN008 OVC020 FM011000 19010KT P6SM SCT020 BKN040 TEMPO 0110/0202 5SM -SHRA BR BKN020 OVC040 FM020200 19010KT P6SM SCT030 BKN060 TEMPO 0202/0206 P6SM -SHRA BKN030 OVC060 RMK NXT FCST BY 011200Z", "TAF CYXY 010540Z 0106/0118 18007KT P6SM FEW040 BKN120 OVC200 TEMPO 0106/0112 3SM -SHSN BKN040 OVC120 PROB30 0106/0112 2SM -SHSN FM011200 33005KT P6SM -SN SCT020 BKN040 TEMPO 0112/0118 2SM -SHSN BKN020 OVC040 RMK NXT FCST BY 011200Z", "TAF AMD CYYB 011116Z 0111/0120 06015G25KT 6SM BR OVC025 TEMPO 0111/0114 1 1/2SM -FZRA -PL OVC008 FM011400 05015G25KT 2SM -SN OVC008 TEMPO 0114/0116 3/4SM -SN BLSN VV004 FM011600 03015G28KT 1SM -SN BLSN VV007 TEMPO 0116/0120 5SM -SN OVC020 RMK FCST BASED ON AUTO OBS. NXT FCST BY 011400Z", "TAF CYYC 010840Z 0109/0206 24007KT P6SM BKN090 BKN260 TEMPO 0109/0118 SCT090 BKN260 FM011800 20010KT P6SM BKN100 FM012200 14010KT P6SM SCT050 BKN100 TEMPO 0122/0203 5SM -SHRAGS BR BKN050 OVC100 BECMG 0201/0203 31012G22KT FM020300 31012G22KT P6SM OVC040 TEMPO 0203/0206 2SM -SHSN VV015 PROB30 0203/0206 3/4SM -SHSN VV006 RMK NXT FCST BY 011200Z", "TAF AMD CYYE 010907Z 0109/0119 30005KT P6SM SCT020 BKN060 TEMPO 0109/0112 5SM -SN BKN020 FM011200 30005KT 6SM BR SCT008 OVC020 TEMPO 0112/0119 1 1/2SM -SN BR OVC008 RMK NXT FCST BY 011300Z", "TAF AMD CYYF 010833Z 0108/0119 17015G30KT P6SM FEW040 SCT070 TEMPO 0108/0119 P6SM -SHRA BKN040 RMK NXT FCST BY 011300Z", "TAF CYYG 010540Z 0106/0118 19007KT P6SM SCT007 BKN150 FM010800 18010KT P6SM BKN050 FM011400 15012G22KT P6SM -SN OVC030 TEMPO 0114/0118 2SM -SN OVC007 BECMG 0116/0118 12017G30KT RMK NXT FCST BY 011200Z", "TAF CYYH 010541Z 0106/0118 02010KT P6SM FEW040 FEW120 TEMPO 0106/0118 5SM IC RMK NXT FCST BY 011200Z", "TAF CYYJ 010540Z 0106/0206 22010G20KT P6SM SCT030 TEMPO 0106/0203 P6SM -SHRA BKN030 BECMG 0112/0114 22008KT FM020300 24012G22KT P6SM SCT030 RMK NXT FCST BY 011200Z", "TAF CYYL 010640Z 0107/0119 07008KT P6SM BKN080 FM011100 07008KT P6SM SCT080 RMK FCST BASED ON AUTO OBS. NXT FCST BY 011300Z", "TAF CYYN 010541Z 0106/0118 22015G25KT P6SM SKC FM011500 25018G28KT P6SM FEW070 RMK FCST BASED ON AUTO OBS. NXT FCST BY 011200Z", "TAF CYYQ 010541Z 0106/0206 29010KT P6SM SKC FM011500 31012KT P6SM SKC PROB30 0115/0118 2SM IC BR FM011800 34012KT P6SM SCT025 RMK NXT FCST BY 011200Z", "TAF AMD CYYR 010927Z 0109/0206 26012KT 1SM -SHSN BKN010 OVC015 BECMG 0109/0111 P6SM NSW FEW025 FM011100 25012KT P6SM FEW025 FM011300 25012KT P6SM SKC FM011800 24008KT P6SM SCT040 FM012300 06005KT P6SM BKN040 OVC200 FM020300 06010KT 6SM -SN SCT020 BKN040 OVC080 RMK NXT FCST BY 011200Z", "TAF CYYT 010540Z 0106/0206 29010KT 6SM BR FEW003 TEMPO 0106/0108 1/2SM FZFG BKN003 FM010800 30010KT P6SM FEW003 PROB30 0108/0112 1/2SM FZFG BKN003 FM011200 31010KT P6SM FEW050 FM011500 29012G22KT P6SM SCT040 FM011800 29012G22KT P6SM BKN040 FM012100 24012G22KT P6SM FEW040 SCT100 FM020000 20012G22KT P6SM BKN100 FM020300 16015G25KT 3/4SM -SN BLSN VV006 FM020500 14025G35KT 3/8SM SN BLSN VV003 RMK NXT FCST BY 011200Z", "TAF CYYU 010740Z 0108/0120 02010KT P6SM FEW012 TEMPO 0108/0114 BKN012 FM011400 01012G22KT P6SM FEW020 BECMG 0114/0116 36015G25KT RMK NXT FCST BY 011400Z", "TAF CYYY 010740Z 0108/0120 16007KT P6SM BKN050 FM011100 17010G20KT P6SM -SN OVC040 TEMPO 0111/0117 4SM -SNRA BR OVC020 FM011700 07010G20KT 2SM -SNRA BR OVC007 PROB30 0117/0120 3/4SM -SN BR OVC005 RMK NXT FCST BY 011400Z", "TAF AMD CYYZ 011114Z 0111/0212 21012KT 3/4SM BR VV002 TEMPO 0111/0112 23017G30KT 6SM BR SCT012 FM011200 25017G30KT 2SM BR BKN007 TEMPO 0112/0113 P6SM NSW SCT012 FM011300 25017G30KT P6SM SCT040 FM011800 25020G35KT 4SM SHRA BR OVC020 PROB30 0118/0120 2SM TSRA BR BKN008 OVC012CB FM012000 28017G27KT P6SM -SHRA BKN030 FM012200 33017G27KT P6SM BKN030 FM020000 33015G25KT P6SM -SHSN OVC030 FM020400 32010G20KT P6SM FEW030 FM020700 34010KT P6SM SKC RMK NXT FCST BY 011200Z", "TAF CYZE 010940Z 0110/0122 05020G30KT 5SM -FZRA BR OVC007 TEMPO 0110/0112 3/4SM -SN VV004 FM011200 04020G30KT 3/4SM -SN VV004 TEMPO 0112/0116 2SM -SN OVC010 BECMG 0113/0115 01020G30KT FM011600 01020G30KT 1 1/2SM -SN BLSN VV007 TEMPO 0116/0118 P6SM NSW BKN025 OVC050 FM011800 01020G30KT 5SM BLSN BKN020 BKN050 BECMG 0118/0120 P6SM NSW FEW050 RMK FCST BASED ON AUTO OBS. NXT FCST BY 011400Z", "TAF CYZF 010540Z 0106/0206 08015G25KT P6SM BKN080 FM010900 08020G30KT P6SM SCT050 OVC080 TEMPO 0109/0112 3SM -SN OVC050 FM011200 08020G30KT P6SM -SN SCT020 BKN050 TEMPO 0112/0203 2SM -SHSN BKN020 OVC050 BECMG 0122/0124 07015G25KT FM020300 07012G22KT P6SM SCT020 BKN050 RMK NXT FCST BY 011200Z", "TAF CYZH 010640Z 0107/0119 11005KT P6SM BKN070 OVC090 FM010900 10005KT P6SM SCT020 BKN060 TEMPO 0109/0113 4SM BR BKN020 BKN060 FM011300 10007KT P6SM FEW020 SCT060 BECMG 0116/0118 VRB03KT RMK FCST BASED ON AUTO OBS. NXT FCST BY 011300Z", "TAF CYZP 010640Z 0107/0119 24010G20KT P6SM FEW040 SCT100 TEMPO 0107/0119 P6SM -SHRA BKN040 RMK FCST BASED ON AUTO OBS. NXT FCST BY 011300Z", "TAF CYZR 010740Z 0108/0120 23012G22KT P6SM FEW012 BKN080 TEMPO 0108/0109 P6SM -SHRA FM011100 23012G22KT P6SM FEW040 FM011500 23012G22KT 5SM -SHRA BR BKN020 OVC040 TEMPO 0115/0117 P6SM -SHRA SCT020 OVC040 PROB30 0115/0117 2SM TSRA BR BKN008 OVC020CB FM011700 32017G27KT P6SM -SHRA BKN020 OVC040 RMK FCST BASED ON AUTO OBS. NXT FCST BY 011400Z", "TAF AMD CYZS 011019Z 0110/0119 06015KT 4SM -SN OVC015 TEMPO 0110/0119 P6SM -SN SCT015 OVC030 PROB30 0110/0119 1SM -SN BR OVC006 RMK NXT FCST BY 011300Z", "TAF CYZT 010640Z 0107/0119 23006KT P6SM SCT020 BKN050 TEMPO 0107/0119 5SM -SHRA BR SCT008 BKN020 BECMG 0116/0118 15006KT RMK NXT FCST BY 011300Z", "TAF CYZV 010540Z 0106/0206 VRB03KT P6SM BKN070 FM010900 04005KT P6SM SCT007 BKN050 TEMPO 0109/0112 BKN007 FM011200 09010G20KT P6SM BKN050 FM011500 09010G20KT P6SM -SN OVC040 FM012000 08015G25KT 1 1/2SM -SN BLSN VV007 BECMG 0121/0123 09020G30KT FM020500 04010G20KT 3SM -SN BLSN OVC015 RMK NXT FCST BY 011200Z", "TAF AMD CYZX 011107Z 0111/0206 06008KT 1SM -SN VV012 TEMPO 0111/0112 4SM -SN SCT015 OVC025 FM011200 17007KT 3SM -SN OVC015 TEMPO 0112/0115 6SM -SN SCT015 OVC025 BECMG 0112/0114 16008G18KT FM011500 15015G25KT 5SM -RA -DZ BR OVC020 FM011800 14016G28KT 4SM -RA BR SCT010 OVC015 BECMG 0119/0121 18012G22KT FM012300 22008G18KT 4SM -RA BR SCT006 OVC012 FM020300 25006KT 4SM -DZ BR OVC006 FM020500 VRB03KT 1SM -DZ BR OVC004 RMK NXT FCST BY 011200Z", "TAF CZBF 010840Z 0109/0121 VRB03KT P6SM BKN060 BECMG 0110/0112 17010G20KT FM011400 17010G20KT P6SM -RASN OVC030 TEMPO 0114/0117 3SM -RASN OVC020 FM011700 13010G20KT 2SM -RASN BR OVC007 FM012000 10012G22KT 1 1/2SM -SN BR OVC005 RMK FCST BASED ON AUTO OBS. NXT FCST BY 011400Z", "TAF CZMD 010941Z 0110/0122 VRB03KT P6SM SCT020 OVC080 TEMPO 0110/0114 2 1/2SM -SHSN BKN020 OVC040 PROB30 0110/0114 1 1/2SM -SHSN FM011400 VRB03KT P6SM SCT020 BKN030 TEMPO 0114/0122 4SM -SN BKN020 BKN030 RMK FCST BASED ON AUTO OBS. NXT FCST BY 011600Z", "TAF CZSJ 010941Z 0110/0122 VRB03KT P6SM -SN SCT020 OVC080 TEMPO 0110/0114 2 1/2SM -SHSN BKN020 OVC040 PROB30 0110/0114 1 1/2SM -SHSN FM011400 VRB03KT P6SM SCT020 BKN030 TEMPO 0114/0122 4SM -SN BKN020 BKN030 RMK FCST BASED ON AUTO OBS. NXT FCST BY 011600Z", "TAF AMD CZUM 010929Z 0109/0120 VRB03KT 6SM BR SCT001 TEMPO 0109/0114 3/4SM BR BKN001 FM011400 25008KT P6SM SKC BECMG 0114/0116 VRB03KT RMK FCST BASED ON AUTO OBS. NXT FCST BY 011400Z", "TAF AMD CZVL 011123Z 0111/0118 VRB03KT 1/2SM FZFG VV001 TEMPO 0111/0115 3SM BR SCT008 BKN090 PROB30 0111/0115 1/4SM FZFG FM011500 VRB03KT P6SM FEW020 BKN100 TEMPO 0115/0118 3SM BR RMK FCST BASED ON AUTO OBS. NXT FCST BY 011200Z", "TAF DAAD 010800Z 0109/0118 30010KT 9999 FEW030 BKN200 PROB40 TEMPO 0111/0118 30015G25KT 3000 DRSA FEW030TCU", "TAF DAAE 010500Z 0106/0206 26008KT CAVOK PROB40 TEMPO 0112/0124 29014KT 8000 FEW023TCU BECMG 0200/0203 32016KT TEMPO 0200/0206 31020G30KT 3000 -TSRA FEW020CB BKN030", "TAF DAAG 010500Z 0106/0206 24010KT CAVOK PROB30 TEMPO 0106/0112 FEW023TCU BECMG 0107/0109 31015KT PROB40 TEMPO 0108/0114 32015G25KT BECMG 0117/0119 VRB02KT PROB40 TEMPO 0202/0206 VRB15G25KT -TSRA FEW026CB SCT044", "TAF DAAJ 010500Z 0106/0206 VRB02KT CAVOK BECMG 0113/0115 06010KT", "TAF DAAP 010800Z 0109/0118 20006KT CAVOK", "TAF DAAS 010500Z 0106/0206 27008KT CAVOK TEMPO 0112/0120 34013KT TEMPO 0200/0206 FEW026CB BKN030 PROB40 TEMPO 0202/0206 35013KT 3000 -TSRA", "TAF DAAT 010500Z 0106/0206 VRB02KT CAVOK BECMG 0112/0115 26010KT PROB30 TEMPO 0113/0116 26015G25KT BECMG 0117/0119 32010KT BECMG 0120/0122 06010KT", "TAF DAAV 010500Z 0106/0206 21008KT CAVOK TEMPO 0112/0124 35014KT 8000 FEW023CB BECMG 0200/0203 32016KT TEMPO 0200/0206 31020G30KT 3000 -TSRA FEW020CB BKN030", "TAF DAAY 010800Z 0109/0118 26010KT CAVOK BECMG 0110/0114 32015G25KT 8000 NSC PROB40 TEMPO 0110/0116 3000 DRSA", "TAF DABB 010500Z 0106/0206 19008KT 9999 FEW030 SCT100 PROB40 TEMPO 0112/0120 27014KT FEW023TCU TEMPO 0200/0206 FEW020CB BKN030 PROB40 TEMPO 0202/0206 3000 -TSRA", "TAF DABC 010500Z 0106/0206 15008KT CAVOK TEMPO 0112/0120 35013KT FEW026TCU SCT100 TEMPO 0200/0206 FEW026CB BKN030 PROB40 TEMPO 0202/0206 3000 -TSRA", "TAF DABS 010500Z 0106/0206 32008KT CAVOK PROB40 TEMPO 0112/0120 26013KT FEW026TCU PROB40 TEMPO 0200/0206 FEW023CB", "TAF DABT 010500Z 0106/0206 33008KT CAVOK TEMPO 0115/0121 27010KT FEW023TCU PROB40 TEMPO 0200/0206 26013KT FEW023CB", "TAF AMD DAFH 011020Z 0110/0118 32015KT 7000 DRSA NSC PROB40 TEMPO 0112/0115 32015G25KT 3000 BECMG 0114/0117 NSW", "TAF DAOB 010500Z 0106/0206 22008KT CAVOK BECMG 0110/0115 32014G24KT 8000 FEW030 BECMG 0121/0124 24012KT CAVOK", "TAF DAOF 010800Z 0109/0118 VRB02KT CAVOK", "TAF DAOI 010500Z 0106/0206 VRB02KT CAVOK BECMG 0110/0112 28010KT BECMG 0119/0121 22008KT PROB30 TEMPO 0201/0206 FEW026TCU BECMG 0204/0206 02010KT", "TAF DAON 010500Z 0106/0206 VRB02KT CAVOK BECMG 0111/0115 28014G24KT BECMG 0121/0124 22010KT", "TAF DAOO 010500Z 0106/0206 20010G20KT CAVOK TEMPO 0110/0118 26022G35KT 8000 NSC", "TAF DAOR 010800Z 0109/0118 36010KT CAVOK", "TAF DAOV 010800Z 0109/0118 23011KT CAVOK BECMG 0110/0114 29015G25KT 8000 SCT030", "TAF DATM 010800Z 0109/0118 36006KT CAVOK BECMG 0109/0111 10010KT", "TAF DAUA 010500Z 0106/0206 04010KT CAVOK", "TAF DAUB 010500Z 0106/0206 35008KT CAVOK TEMPO 0106/0118 29014KT PROB40 TEMPO 0200/0206 28014KT FEW023TCU", "TAF DAUG 010500Z 0106/0206 30014KT CAVOK PROB30 TEMPO 0110/0117 30015G25KT 4000 DRSA", "TAF DAUH 010500Z 0106/0206 VRB02KT CAVOK BECMG 0107/0109 26010KT BECMG 0200/0202 35012KT", "TAF DAUI 010500Z 0106/0206 04012KT CAVOK", "TAF DAUK 010800Z 0109/0118 34010KT CAVOK PROB30 TEMPO 0111/0118 34015G25KT 3000 DRSA", "TAF AMD DAUL 011020Z 0110/0118 32020KT 6000 DRSA NSC PROB40 TEMPO 0112/0114 32020G30KT 3000 BECMG 0114/0117 32010KT NSW", "TAF DAUO 010800Z 0109/0118 25006KT CAVOK BECMG 0109/0111 34010KT PROB40 TEMPO 0113/0118 34015G25KT 3000 DRSA", "TAF DAUT 010800Z 0109/0118 04008KT CAVOK", "TAF DAUU 010800Z 0109/0118 32006KT CAVOK PROB30 0112/0118 3000 SA", "TAF DAUZ 010500Z 0106/0206 08008KT CAVOK BECMG 0108/0110 22010KT", "TAF DBBB 011100Z 0112/0218 20010KT 9999 SCT012 TEMPO 0113/0119 TS BKN012 FEW023CB", "TAF DFFD 010500Z 0106/0212 04012KT 6000 NSC TEMPO 0106/0112 3500 DU TEMPO 0117/0120 4000 DU TEMPO 0206/0211 3500 DU", "TAF DFOO 010500Z 0106/0206 08008KT 6000 NSC TEMPO 0106/0111 3500 DU", "TAF DGAA 010500Z 0106/0212 27006KT 9999 FEW012 BECMG 0110/0114 19012KT 9999 SCT015 TEMPO 0114/0118 FEW030CB BECMG 0200/0202 27008KT CAVOK", "TAF COR DGLE 010500Z 0106/0206 20010KT 9999 SCT012 BECMG 0120/0122 CAVOK", "TAF DGSI 010500Z 0106/0206 23010KT 9999 BKN012 BECMG 0110/0112 SCT015 PROB30 TEMPO 0116/0120 8000 -TSRA BKN010 FEW028CB", "TAF DIAP 011120Z 0112/0218 20012KT 9999 SCT012 PROB30 TEMPO 0115/0120 BKN012 FEW020CB TEMPO 0200/0206 TS BKN012 FEW020CB PROB30 TEMPO 0215/0218 BKN012 FEW020CB", "TAF DIBK 011122Z 0112/0212 20010KT 9999 SCT013 TEMPO 0115/0118 BKN013 PROB30 TEMPO 0118/0124 BKN013 FEW030CB", "TAF DIYO 010558Z 0106/0206 VRB02KT 4000 BR FEW013 BECMG 0107/0108 8000 NSW BECMG 0110/0112 25010KT PROB30 TEMPO 0116/0122 TS BKN013 FEW025CB", "TAF DNAA 010500Z 0106/0212 VRB02KT CAVOK TEMPO 0106/0112 5000 HZ BECMG 0112/0114 BKN011 PROB30 TEMPO 0116/0121 TS FEW014 FEW020CB BECMG 0121/0123 VRB02KT", "TAF DNAK 010500Z 0106/0212 VRB02KT 9999 SCT011 BECMG 0108/0110 24010KT BKN013 TEMPO 0113/0118 SCT013 FEW020CB PROB30 0115/0118 TS BECMG 0118/0120 VRB02KT FEW011 BECMG 0208/0210 23010KT BKN013", "TAF DNBE 010500Z 0106/0212 VRB02KT 9999 SCT009 TEMPO 0106/0108 5000 BR 0108/0110 22010KT BKN013 TEMPO 0112/0118 SCT013 FEW020CB PROB30 0113/0118 5000 -TSRA BKN008 FEW018CB BECMG 0117/0119 VRB02KT SCT011 BECMG 0208/0210 22010KT BKN012", "TAF DNGO 010500Z 0106/0212 08010KT 5000 HZ NSC TEMPO 0109/0114 1500", "TAF DNIB 010500Z 0106/0212 VRB02KT 9999 SCT011 BECMG 0109/0111 25010KT BKN013 TEMPO 0112/0118 SCT013 FEW020CB PROB30 TEMPO 0114/0118 TS BECMG 0118/0120 VRB02KT FEW011 BECMG 0209/0211 24010KT BKN013", "TAF DNIL 010500Z 0106/0212 17006KT CAVOK BECMG 0108/0110 22010KT BKN010 PROB30 TEMPO 0115/0120 TS SCT013 FEW020CB", "TAF DNJO 010500Z 0106/0212 06003KT 3000 HZ NSC PROB30 TEMPO 0106/0112 0800 DU BECMG 0112/0114 16010KT 1500", "TAF DNKA 010500Z 0106/0212 03005KT 0800 DU NSC BECMG 0110/0112 5000 HZ", "TAF DNKN 010500Z 0106/0212 05010KT 5000 HZ NSC TEMPO 0108/0114 0800 DU", "TAF DNKT 010500Z 0106/0212 03010KT 5000 HZ NSC TEMPO 0108/0114 0800 DU", "TAF DNMA 010500Z 0106/0212 04010KT 6000 NSC TEMPO 0106/0112 0800 DU", "TAF DNMM 010500Z 0106/0212 VRB02KT 9999 SCT010 BECMG 0108/0110 23010KT BKN013 TEMPO 0113/0119 TS SCT011 FEW020CB PROB30 0115/0119 5000 -TSRA BKN009 FEW019CB BECMG 0120/0122 VRB02KT FEW011 BECMG 0209/0211 22010KT BKN013", "TAF DNSO 010500Z 0106/0212 07010KT 5000 HZ NSC TEMPO 0111/0117 1500", "TAF DNSU 010500Z 0106/0212 VRB02KT 9999 SCT009 TEMPO 0106/0108 3000 BR 0108/0110 21010KT BKN013 TEMPO 0112/0118 SCT013 FEW020CB PROB30 0113/0118 5000 -TSRA BKN008 FEW018CB BECMG 0118/0120 VRB02KT SCT011 BECMG 0208/0210 21010KT BKN012", "TAF DNYO 010500Z 0106/0212 06010KT 7000 NSW", "TAF DRRN 010500Z 0106/0212 04008KT 6000 NSC TEMPO 0107/0111 08018KT 2500 BLDU", "TAF DRZA 010500Z 0106/0206 10010KT 6000 NSC TEMPO 0108/0112 12022KT 2500 BLDU", "TAF DRZR 010500Z 0106/0206 02006KT 0600 DU NSC TEMPO 0108/0112 06016KT 1200 BLDU BECMG 0114/0116 2800", "TAF DTKA 010900Z 0110/0119 30005KT 9999 FEW020", "TAF DTMB 010500Z 0106/0206 VRB04KT CAVOK BECMG 0110/0112 06010KT BECMG 0119/0121 36015KT PROB30 TEMPO 0121/0201 36022G35KT BECMG 0201/0203 35005KT", "TAF DTNH 010500Z 0106/0206 VRB04KT CAVOK BECMG 0110/0112 09010KT BECMG 0119/0121 35013KT BECMG 0201/0203 VRB03KT", "TAF DTTA 010500Z 0106/0206 VRB04KT 9999 FEW030 BECMG 0109/0111 33010KT BECMG 0201/0203 20005KT", "TAF DTTB 010900Z 0110/0119 29007KT 8000 SCT020", "TAF DTTF 010900Z 0110/0119 07005KT 9999 FEW033 BECMG 0110/0112 16010KT BECMG 0116/0118 24008KT", "TAF DTTG 010900Z 0110/0119 VRB03KT CAVOK BECMG 0116/0118 08015KT", "TAF DTTJ 010500Z 0106/0206 27010KT CAVOK BECMG 0107/0109 VRB03KT BECMG 0113/0115 09012KT", "TAF DTTR 010900Z 0110/0119 17006KT CAVOK BECMG 0110/0112 23010KT", "TAF DTTX 010500Z 0106/0206 30006KT 8000 NSC BECMG 0107/0109 04010KT TEMPO 0110/0118 10010KT", "TAF DTTZ 312300Z 0100/0124 21012KT CAVOK TEMPO 0100/0113 VRB03KT BECMG 0116/0118 31010KT BECMG 0122/0124 09013KT", "TAF DXNG 010500Z 0106/0206 VRB03KT 9999 FEW006 PROB30 TEMPO 0115/0120 TS", "TAF DXXX 010500Z 0106/0212 VRB03KT 9999 FEW012 BECMG 0109/0111 20010KT PROB30 TEMPO 0115/0121 TS BECMG 0200/0202 26005KT PROB30 0203/0209 4000 TSRA BKN010 FEW020CB", "TAF EBAW 011100Z 0112/0121 28012KT 7000 -RA BKN012 TEMPO 0112/0121 3500 RA -RADZ BKN006 PROB30 TEMPO 0112/0121 2000 RADZ BKN004", "TAF EBBL 010841Z 0110/0119 26013G25KT 6000 BKN007 BKN010 TEMPO 0110/0119 4000 -RA -RADZ BKN005 BKN007 TEMPO 0110/0119 2000 RA SHRA SCT002 BKN004", "TAF EBBR 011100Z 0112/0218 28012KT 7000 -RA BKN012 TEMPO 0112/0205 3500 RA -RADZ BKN006 PROB30 TEMPO 0112/0204 2000 RADZ BKN004 BECMG 0121/0123 02010KT BECMG 0207/0209 BKN018", "TAF EBCI 011100Z 0112/0218 28012KT 7000 -RA BKN011 TEMPO 0112/0208 3500 RA -RADZ BKN006 PROB30 TEMPO 0112/0207 2000 RADZ BKN004 BECMG 0122/0124 01010KT BECMG 0209/0211 BKN018", "TAF EBFN 0110/0119 30013KT 9999 BKN009 BKN015 TEMPO 0110/0119 27015G28KT 4000 SHRA SCT006 BKN008 BKN015 BY EBWM", "TAF EBLG 011100Z 0112/0218 27012KT 7000 -RA BKN011 TEMPO 0112/0208 3500 RA -RADZ BKN006 PROB30 TEMPO 0112/0207 2000 RADZ BKN004 BECMG 0121/0123 01010KT BECMG 0208/0210 BKN018", "TAF EBOS 011100Z 0112/0218 31018KT 8000 -RA BKN012 TEMPO 0112/0201 3500 RA -RADZ BKN006 BECMG 0120/0122 02016G28KT BECMG 0202/0204 BKN020", "TAF EDAC 011100Z 0112/0121 22012KT 9999 BKN030 PROB30 TEMPO 0112/0118 SHRA BKN025TCU BECMG 0114/0117 22004KT", "TAF EDAH 011100Z 0112/0121 05013KT 6000 BKN012 TEMPO 0112/0121 05015G30KT TEMPO 0112/0115 BKN007 BECMG 0114/0117 BKN015 TEMPO 0117/0121 BKN012", "TAF EDDB 011100Z 0112/0212 04011KT 8000 BKN010 TEMPO 0112/0117 3000 SHRA BKN005 BKN012CB TEMPO 0117/0123 2500 -DZRA BKN005 BECMG 0120/0123 BKN015 PROB30 TEMPO 0120/0202 04015G25KT TEMPO 0123/0208 BKN012 PROB30 TEMPO 0208/0212 04015G25KT", "TAF EDDC 011100Z 0112/0212 27010KT 9999 BKN025 PROB30 TEMPO 0112/0118 SHRA BKN020CB BECMG 0113/0116 27005KT BECMG 0116/0119 04005KT BECMG 0120/0123 BKN008 TEMPO 0121/0205 1200 RADZ BKN002 BECMG 0200/0203 04010KT PROB30 TEMPO 0200/0206 04015G25KT BECMG 0205/0208 BKN015", "TAF EDDE 011100Z 0112/0212 20012KT 9999 SCT040 TEMPO 0112/0121 4000 SHRA BKN012 BKN035CB BECMG 0115/0118 22004KT BECMG 0120/0123 05012KT BKN007 TEMPO 0122/0208 0700 -RADZ FG OVC002", "TAF EDDF 011100Z 0112/0218 21015G25KT 9999 FEW015 BKN025 TEMPO 0112/0118 RA BKN014 BECMG 0116/0118 20010KT TEMPO 0121/0212 3500 -RADZ BR BKN009 BECMG 0200/0203 27005KT BKN012 PROB40 TEMPO 0203/0208 2000 DZ BKN004 BECMG 0205/0207 03005KT BECMG 0207/0209 03012KT BECMG 0209/0212 BKN025", "TAF EDDG 011100Z 0112/0212 VRB03KT 9999 BKN012 TEMPO 0112/0124 4000 RA BKN006 PROB30 TEMPO 0112/0115 SCT013 BKN015 BECMG 0115/0118 03012KT PROB30 TEMPO 0117/0204 2000 -RADZ BKN004 PROB30 TEMPO 0118/0124 04015G25KT BECMG 0204/0207 BKN020", "TAF EDDH 011100Z 0112/0218 07015G25KT 9999 BKN012 PROB30 TEMPO 0112/0114 BKN009 TEMPO 0112/0118 06020G30KT BECMG 0118/0120 BKN015 BECMG 0120/0122 05012KT TEMPO 0210/0216 04015G25KT", "TAF EDDK 011100Z 0112/0218 26014KT 9999 BKN012 TEMPO 0112/0209 4000 RA BKN008 PROB30 TEMPO 0112/0115 SCT013 BKN015 BECMG 0115/0118 28009KT PROB30 TEMPO 0118/0124 VRB03KT BECMG 0200/0203 36009KT PROB30 TEMPO 0200/0209 2000 -RADZ BKN004 BECMG 0210/0213 BKN020", "TAF EDDL 011100Z 0112/0218 28009KT 9999 BKN012 TEMPO 0112/0206 4000 RA BKN007 PROB30 TEMPO 0112/0115 SCT013 BKN015 PROB30 TEMPO 0117/0122 VRB03KT BKN004 BECMG 0122/0201 02010KT PROB30 TEMPO 0200/0207 2000 -RADZ BKN004 PROB30 TEMPO 0206/0216 04015KT BECMG 0207/0211 BKN030", "TAF EDDM 011100Z 0112/0218 25025G35KT 9999 BKN040 PROB30 TEMPO 0112/0116 RA BECMG 0115/0117 24015G25KT BECMG 0118/0120 24012KT BECMG 0209/0211 29007KT PROB40 TEMPO 0210/0215 SHRA BKN012TCU BECMG 0214/0216 01007KT", "TAF EDDN 011100Z 0112/0212 22010KT 9999 BKN030 TEMPO 0112/0115 23015G25KT PROB30 TEMPO 0112/0118 RA BECMG 0123/0201 25005KT PROB30 TEMPO 0203/0212 RA BKN010", "TAF EDDP 011100Z 0112/0212 20009KT 9999 SCT040 PROB30 TEMPO 0112/0117 4000 SHRA BKN012 BKN035CB BECMG 0112/0115 22004KT BECMG 0117/0120 05012KT BKN012 TEMPO 0117/0208 2500 -RADZ BKN006 BECMG 0208/0211 BKN015", "TAF EDDR 011100Z 0112/0212 23015G25KT 9999 SCT010 BKN015 TEMPO 0112/0115 24020G30KT TEMPO 0112/0118 4000 RADZ BKN008 BECMG 0117/0120 25010KT TEMPO 0118/0209 2500 RADZ BR BKN005 PROB40 TEMPO 0200/0207 BKN003 BECMG 0202/0205 24005KT BECMG 0208/0211 04008KT", "TAF EDDS 011100Z 0112/0212 21014KT 9999 SCT020 BKN025 TEMPO 0112/0118 23015G30KT TEMPO 0112/0115 RA BECMG 0118/0121 20008KT PROB40 TEMPO 0121/0212 4000 RADZ BR BKN012 BECMG 0204/0206 VRB03KT", "TAF EDDV 011100Z 0112/0212 11006KT 9999 BKN020 PROB30 TEMPO 0112/0116 SHRA BKN020TCU BECMG 0114/0116 06013KT BKN012 PROB40 TEMPO 0116/0201 06015G25KT BKN008 BECMG 0200/0202 BKN015", "TAF EDDW 011100Z 0112/0212 11013G25KT 9999 BKN012 BKN020 PROB30 TEMPO 0112/0116 BKN007 BKN020 BECMG 0121/0123 07013KT BECMG 0122/0124 BKN015", "TAF EDFH 011100Z 0112/0212 24015G25KT 9999 SCT006 BKN012 TEMPO 0112/0114 24020G30KT TEMPO 0112/0118 3500 RA BKN004 BECMG 0116/0119 27010KT BECMG 0118/0120 SCT003 BKN006 TEMPO 0118/0210 2500 RADZ BKN003 PROB40 TEMPO 0202/0206 0800 RADZ FG BKN001 BECMG 0204/0207 02008KT BECMG 0210/0212 SCT006 BKN010", "TAF EDGS 011100Z 0112/0121 22011KT 7000 BKN005 BECMG 0112/0115 28008KT TEMPO 0112/0121 3000 RADZ BKN002 TEMPO 0117/0121 VRB03KT PROB30 TEMPO 0118/0121 1200 RADZ BR BKN001", "TAF EDHK 011100Z 0112/0119 08015G25KT 9999 BKN012 TEMPO 0112/0116 BKN008 TEMPO 0112/0119 17020G30KT BECMG 0116/0118 BKN015", "TAF EDHL 011100Z 0112/0121 07012KT 9999 OVC007 TEMPO 0112/0117 06015G30KT BECMG 0112/0114 BKN010 BECMG 0117/0118 SCT020", "TAF EDJA 011100Z 0112/0121 23020G35KT 9999 SCT020 BKN035 BECMG 0115/0117 23013KT", "TAF EDLN 011100Z 0112/0121 28009KT 8000 BKN009 TEMPO 0112/0121 3500 RA PROB30 TEMPO 0113/0115 SCT009 BKN012 PROB30 TEMPO 0116/0121 VRB03KT PROB30 TEMPO 0116/0121 2000 RADZ BKN004 BECMG 0118/0121 34008KT", "TAF EDLP 011100Z 0112/0212 20008KT 9999 BKN020 BECMG 0113/0116 VRB03KT TEMPO 0113/0203 4000 RA BKN004 BECMG 0116/0119 BKN012 PROB30 TEMPO 0118/0209 2000 RADZ BKN001 BECMG 0119/0121 BKN007 BECMG 0120/0123 04010KT BECMG 0206/0209 BKN012 BECMG 0209/0212 BKN020", "TAF EDLV 011100Z 0112/0212 29012KT 7000 BKN007 TEMPO 0112/0202 3500 RA BKN004 BECMG 0114/0118 30004KT BECMG 0118/0121 02010KT TEMPO 0202/0206 2000 -RADZ BKN004 BECMG 0206/0209 BKN020", "TAF EDLW 011100Z 0112/0212 21013KT 9999 BKN009 BECMG 0112/0114 24008KT PROB40 TEMPO 0112/0203 4000 RA BKN004 TEMPO 0117/0122 VRB03KT PROB30 TEMPO 0120/0208 2000 RADZ BKN001 BECMG 0121/0124 03010KT BECMG 0208/0211 BKN030", "TAF EDMA 011100Z 0112/0121 24020G35KT 9999 BKN030 TEMPO 0112/0115 RA BECMG 0116/0118 23012KT", "TAF EDNY 011100Z 0112/0212 24013KT 9999 BKN030 TEMPO 0112/0117 24020G30KT PROB30 TEMPO 0112/0117 RA BECMG 0117/0119 23006KT", "TAF EDQM 011100Z 0112/0121 21015G25KT 9999 SCT010 BKN015 TEMPO 0112/0116 4000 RA BKN010 BECMG 0116/0118 OVC008 TEMPO 0116/0121 3000 RADZ BKN004", "TAF EDSB 011100Z 0112/0212 20015G25KT 9999 SCT020 BKN030 TEMPO 0112/0121 RA BECMG 0117/0119 21012KT TEMPO 0121/0212 3500 RADZ BR BKN012 PROB40 TEMPO 0202/0206 BKN008 BECMG 0203/0206 20007KT", "TAF EDTL 011100Z 0112/0121 21015G25KT 9999 SCT020 BKN030 TEMPO 0112/0115 RA BECMG 0116/0118 20009KT", "TAF EDTY 011100Z 0112/0121 23015G30KT 9999 SCT015 BKN025 BECMG 0116/0118 22009KT", "TAF EDVE 011100Z 0112/0121 14004KT 9999 SCT040 TEMPO 0112/0115 4500 SHRA BKN020CB BECMG 0113/0116 06011KT BKN012 TEMPO 0115/0121 3000 -RADZ BKN008 PROB40 TEMPO 0119/0121 06015G25KT", "TAF EDVK 011100Z 0112/0121 19009KT 9999 SCT015 BKN025 TEMPO 0112/0121 3500 RADZ BR BKN010 BECMG 0119/0121 03007KT", "TAF EDWE 011100Z 0112/0121 05015G25KT 9999 OVC005 TEMPO 0112/0118 06020G35KT BECMG 0113/0116 BKN010 BECMG 0119/0121 SCT015", "TAF EDXW 011100Z 0112/0121 07020KT 9999 BKN012 TEMPO 0112/0116 07025G35KT BECMG 0113/0115 SCT020", "TAF EEEI 010530Z 0106/0206 04012KT 9999 FEW020 TEMPO 0107/0113 05015G25KT", "TAF EEKE 010600Z 0107/0113 02014KT 9999 SCT020 TEMPO 0107/0113 02016G26KT PROB30 TEMPO 0107/0110 BKN015", "TAF EETN 010530Z 0106/0206 04012KT 9999 SCT025 PROB40 TEMPO 0106/0112 05015G25KT", "TAF EFHK 010823Z 0109/0209 02010KT CAVOK", "TAF EFIV 010836Z 0109/0118 32011KT CAVOK TEMPO 0109/0118 3000 -SHSN SCT025TCU", "TAF EFJO 010827Z 0109/0115 32007KT 9999 BKN045", "TAF EFJY 010827Z 0109/0209 36009KT CAVOK", "TAF EFKI 010824Z 0109/0115 30007KT CAVOK", "TAF EFKT 010836Z 0109/0118 33007KT CAVOK TEMPO 0111/0115 5000 -SHSN FEW035TCU", "TAF EFKU 010827Z 0109/0209 34009KT CAVOK", "TAF EFMA 010824Z 0109/0118 01011KT CAVOK", "TAF EFOU 010836Z 0109/0209 35009KT CAVOK", "TAF EFRO 010836Z 0109/0209 35008KT CAVOK", "TAF EFSI 010824Z 0109/0118 35008KT CAVOK", "TAF EFTP 010827Z 0109/0209 02008KT CAVOK", "TAF EFTU 010823Z 0109/0209 02010KT CAVOK", "TAF EFVA 010824Z 0109/0209 01008KT CAVOK PROB30 0118/0123 7000 -SN", "TAF EGAA 011100Z 0112/0212 34005KT 9999 SCT012 BKN025 TEMPO 0112/0120 6000 RA -RADZ BKN008 PROB40 TEMPO 0112/0119 3000 RADZ BKN004 TEMPO 0120/0211 6000 RA -RADZ BKN012 PROB40 TEMPO 0120/0208 4000 RADZ BKN006", "TAF EGAC 011056Z 0112/0121 VRB03KT 9999 SCT012 BKN020 TEMPO 0112/0121 6000 RA -RADZ BKN012 PROB30 TEMPO 0112/0121 3000 RADZ BKN008 BECMG 0115/0118 34010KT", "TAF EGAE 011056Z 0112/0115 VRB03KT 9999 SCT008 BKN025 BECMG 0112/0115 34010KT TEMPO 0112/0115 6000 RA -RADZ BKN008 PROB40 TEMPO 0112/0115 3000 RADZ BR BKN004", "TAF EGBB 011104Z 0112/0212 36008KT 9999 SCT018 PROB30 TEMPO 0116/0118 BKN014 TEMPO 0118/0205 6000 -RADZ BKN014 PROB30 TEMPO 0120/0204 BKN009 PROB40 TEMPO 0205/0208 BKN014", "TAF EGBJ 011105Z 0112/0119 04007KT 9999 SCT016 BECMG 0112/0114 34010KT", "TAF EGCC 011101Z 0112/0218 01010KT 9999 SCT020 TEMPO 0116/0206 BKN014 PROB30 TEMPO 0116/0202 8000 -RADZ BKN008 BECMG 0203/0206 07006KT", "TAF EGCK 011102Z 0112/0121 01010KT 9999 SCT020", "TAF EGEO 011100Z 0112/0117 10009KT 9999 BKN025 BECMG 0112/0115 21010KT PROB40 TEMPO 0112/0117 7000 -RA BKN010", "TAF EGFF 011104Z 0112/0212 30012KT 9999 SCT007 BECMG 0112/0114 36006KT TEMPO 0112/0114 8000 -RADZ BKN007 PROB30 TEMPO 0200/0206 BKN014 TEMPO 0206/0212 BKN010 PROB30 TEMPO 0206/0212 8000 -RADZ BKN008", "TAF EGGD 011104Z 0112/0212 36010KT 9999 SCT004 BKN008 TEMPO 0112/0114 8000 -RADZ PROB30 TEMPO 0112/0113 4000 RADZ BKN004 BECMG 0113/0116 SCT030 TEMPO 0121/0124 BKN010 BECMG 0200/0203 BKN007 TEMPO 0202/0209 5000 -RADZ BKN004 BECMG 0209/0212 SCT025", "TAF EGGP 011101Z 0112/0212 02010KT 9999 SCT030 PROB30 TEMPO 0117/0205 8000 -RADZ BKN014 BECMG 0204/0207 08007KT", "TAF EGGW 011105Z 0112/0212 35012KT 9999 BKN008 BECMG 0112/0114 SCT020 BECMG 0115/0118 OVC005 TEMPO 0118/0203 7000 -RADZ OVC003 PROB30 TEMPO 0122/0202 3500 RADZ BECMG 0203/0206 SCT018", "TAF EGHC 011104Z 0112/0118 32010KT 9999 SCT017 TEMPO 0112/0118 34020G30KT 6000 SHRA RA BKN010 PROB30 TEMPO 0112/0115 +RA +SHRA BKN009 BKN011CB", "TAF EGHE 011104Z 0112/0118 33017KT 9999 SCT020 PROB40 TEMPO 0112/0118 34020G32KT PROB30 TEMPO 0112/0118 6000 RA SHRA BKN010", "TAF EGHH 011105Z 0112/0121 28010KT 9999 SCT025 BECMG 0112/0114 34010KT TEMPO 0112/0114 6000 RA BKN014 TEMPO 0114/0116 BKN014", "TAF EGHI 011105Z 0112/0121 27006KT 9999 SCT020 BECMG 0112/0115 34010KT TEMPO 0112/0113 6000 RA BKN014 TEMPO 0113/0115 BKN014", "TAF EGHQ 011104Z 0112/0121 33014KT 9999 SCT030 TEMPO 0112/0118 6000 SHRA RA BKN007 PROB40 TEMPO 0112/0117 34017G27KT PROB30 TEMPO 0112/0114 3000 +RA +SHRA", "TAF EGJA 011057Z 0112/0121 28015KT 9999 FEW010 SCT018 TEMPO 0112/0114 28016G26KT PROB30 TEMPO 0112/0118 6000 SHRA FEW007 BKN011CB BECMG 0118/0120 34011KT", "TAF EGJB 011057Z 0112/0121 28015KT 9999 FEW012 SCT018 TEMPO 0112/0114 28016G26KT PROB30 TEMPO 0112/0118 6000 SHRA FEW007 BKN011CB BECMG 0118/0120 34011KT", "TAF EGJJ 011057Z 0112/0121 28015KT 9999 FEW012 SCT018 TEMPO 0112/0115 28016G26KT PROB30 TEMPO 0112/0118 6000 SHRA FEW007 BKN011CB BECMG 0118/0120 34011KT", "TAF EGKA 011057Z 0112/0119 33010KT 9999 SCT018 TEMPO 0112/0116 BKN014 PROB30 TEMPO 0112/0113 8000 -RA BKN008", "TAF EGKB 011057Z 0112/0121 34009KT 9999 BKN009 BECMG 0112/0115 SCT015 TEMPO 0117/0121 7000 -RADZ BKN007", "TAF EGKK 011055Z 0112/0218 33008KT 9999 BKN012 BECMG 0112/0115 SCT018 TEMPO 0118/0206 6000 -RADZ BKN008 BECMG 0203/0206 03010KT", "TAF EGLC 010804Z 0109/0112 33008KT 9999 BKN010 BECMG 0109/0112 SCT018 PROB30 TEMPO 0109/0110 BKN009", "TAF EGLF 011057Z 0112/0119 35007KT 9999 BKN009 BECMG 0112/0115 SCT015", "TAF EGLL 011057Z 0112/0218 33010KT 9999 BKN012 BECMG 0112/0115 BKN020 PROB40 TEMPO 0118/0206 RADZ BKN010 BECMG 0203/0206 03010KT", "TAF EGMC 011057Z 0112/0121 33012KT 9999 BKN016 TEMPO 0112/0121 BKN012 PROB30 TEMPO 0112/0121 6000 RA -RADZ BKN008", "TAF EGMD 011057Z 0112/0121 33012KT 9999 SCT015 TEMPO 0112/0121 BKN012 PROB30 TEMPO 0112/0121 6000 -RADZ BKN008", "TAF EGNH 011102Z 0112/0120 01007KT 9999 SCT030", "TAF EGNJ 011102Z 0112/0121 02010KT 9999 BKN015 TEMPO 0112/0121 8000 -RADZ BKN008 PROB30 TEMPO 0112/0121 4000 RADZ BR BKN002", "TAF EGNM 011100Z 0112/0212 01010KT 9999 SCT020 BECMG 0112/0115 BKN014 TEMPO 0115/0202 7000 -RADZ BKN008 PROB30 TEMPO 0115/0124 3000 RADZ BKN003 BECMG 0202/0205 FEW030 BECMG 0209/0212 07007KT", "TAF EGNR 011102Z 0112/0118 34009KT 9999 SCT020", "TAF EGNS 011100Z 0112/0121 05010KT 9999 FEW025", "TAF EGNT 011100Z 0112/0212 04007KT 9999 BKN012 TEMPO 0112/0123 6000 -RADZ BKN006 PROB40 TEMPO 0112/0122 2000 RADZ BR BKN003 BECMG 0122/0201 FEW030", "TAF EGNV 011102Z 0112/0121 02009KT 9999 SCT020 TEMPO 0112/0121 6000 -RADZ BKN008 PROB30 TEMPO 0112/0121 1400 RADZ BR BKN002", "TAF EGNX 011104Z 0112/0212 35010KT 9999 SCT018 TEMPO 0115/0204 BKN010 PROB40 TEMPO 0115/0203 6000 -RADZ BKN007 BECMG 0209/0212 05010KT", "TAF EGPA 011100Z 0112/0121 16009KT 9999 FEW015 SCT035", "TAF EGPB 011100Z 0112/0121 17009KT 9999 FEW015 SCT035", "TAF EGPC 011100Z 0112/0121 14009KT 9999 FEW015 SCT035", "TAF EGPD 011057Z 0112/0212 08009KT 9999 SCT018 BKN025 PROB40 TEMPO 0112/0115 7000 -RADZ BKN012 BECMG 0122/0201 17010KT", "TAF EGPE 011100Z 0112/0121 07007KT 9999 FEW015 SCT030", "TAF EGPF 011057Z 0112/0212 07009KT 9999 FEW018 BKN025 PROB30 TEMPO 0115/0122 BKN014", "TAF EGPH 011057Z 0112/0212 05009KT 9999 SCT012 BKN020 TEMPO 0112/0121 6000 -DZRA BKN009 PROB30 TEMPO 0113/0119 3000 DZRA BR BKN004", "TAF EGPI 011100Z 0112/0118 12009KT 9999 FEW012 BKN025 BECMG 0112/0114 18010KT TEMPO 0112/0118 7000 -RA BKN012 PROB30 TEMPO 0112/0118 4000 RA BKN007", "TAF EGPK 011057Z 0112/0212 07009KT 9999 FEW018 BKN025", "TAF EGPL 011100Z 0112/0118 19008KT 9999 SCT010 BKN016 BECMG 0112/0115 33013KT TEMPO 0112/0118 6000 -RA BKN008 PROB40 TEMPO 0112/0118 3000 RADZ BKN004", "TAF EGPN 011100Z 0112/0121 05009KT 9999 SCT015 BKN025 TEMPO 0112/0115 7000 -DZRA BKN012 PROB40 TEMPO 0112/0115 3000 DZRA BKN008", "TAF EGPO 011100Z 0112/0121 16009KT 9999 SCT025 TEMPO 0112/0121 7000 -RA BKN014 PROB30 TEMPO 0112/0121 4000 RA BKN008 BECMG 0118/0121 30010KT", "TAF EGPU 011100Z 0112/0118 15014KT 9999 FEW015 BKN020 BECMG 0112/0115 26010KT TEMPO 0112/0118 6000 -RA BKN008 PROB40 TEMPO 0112/0118 3000 RA RADZ BKN004", "TAF EGQL 011004Z 0112/0121 05012KT 9999 BKN018 TEMPO 0112/0118 4000 -DZ SCT010 PROB30 TEMPO 0112/0115 3000 DZ SCT005 BKN010 BECMG 0116/0119 BKN025", "TAF EGQS 011003Z 0112/0206 12012KT 9999 SCT028 PROB30 TEMPO 0112/0116 SCT024 TEMPO 0202/0206 5000 -RADZ BKN020 PROB30 TEMPO 0203/0206 4000 RADZ SCT014 BKN020", "TAF EGSH 011101Z 0112/0121 01011KT 9999 BKN009 TEMPO 0112/0121 6000 -RADZ BKN006 PROB30 TEMPO 0112/0121 4000 RADZ BR BKN003", "TAF EGSS 011105Z 0112/0218 34012KT 9999 BKN006 BECMG 0112/0114 SCT018 PROB30 TEMPO 0112/0117 8000 -SHRA BECMG 0114/0117 OVC005 TEMPO 0117/0202 7000 -RADZ OVC003 PROB30 TEMPO 0121/0201 4000 RADZ BECMG 0202/0205 SCT018 BECMG 0207/0210 04010KT", "TAF EGSY 011105Z 0112/0121 29009KT 9999 SCT012 PROB40 TEMPO 0112/0114 BKN014", "TAF EGTC 011059Z 0112/0117 35009KT 9999 BKN010 BECMG 0112/0114 SCT020 PROB40 TEMPO 0116/0117 8000 -RA BKN010", "TAF EGTE 011104Z 0112/0118 32010KT 9999 SCT017 TEMPO 0112/0115 6000 RA SHRA BKN010 PROB30 TEMPO 0112/0115 3000 +RA +SHRA BKN007 BKN012CB PROB30 TEMPO 0115/0118 7000 SHRA BKN014", "TAF EGTK 011059Z 0112/0121 36007KT 9999 BKN012 BECMG 0112/0114 SCT020 TEMPO 0118/0121 BKN014 PROB30 TEMPO 0119/0121 8000 -RA BKN009", "TAF AMD EGUL 311440Z 3114/0119 VRB06KT 9999 BKN025 QNH2902INS TEMPO 3114/3115 8000 -SHRA SCT009 BKN015 BECMG 3114/3115 34012G18KT 6000 -SHRA BKN009 QNH2906INS TEMPO 3115/3120 3200 SHRA BKN005 BECMG 3121/3122 21012G18KT 5000 BR BKN005 QNH2929INS BECMG 0106/0107 34012G18KT 9999 NSW BKN010 QNH2953INS BECMG 0110/0111 35012G18KT 8000 -SHRA SCT007 BKN010 QNH2964INS TX14/3114Z TN07/0106Z LAST NO AMDS AFT 3114 NEXT 0305", "TAF AMD EGUN 011025Z 0110/0210 34010G15KT 9999 OVC008 600507 QNH2966INS TEMPO 0110/0117 34012G22KT 9000 -RA BR BKN012 BKN025 BECMG 0116/0117 01012G18KT 8000 -RA BR SCT005 BKN007 OVC012 620456 QNH2980INS BECMG 0200/0201 02012KT 9999 NSW SCT018 BKN025 OVC030 620252 QNH3007INS BECMG 0203/0204 02012KT 9999 BKN030 QNH3016INS BECMG 0206/0207 03012KT 9999 SCT035 QNH3025INS BECMG 0208/0209 04012G18KT 9999 SCT035 QNH3030INS TX11/0114Z TN04/0204Z", "TAF AMD EGVA 311201Z 3112/0118 26015G25KT 8000 -RA SCT008 OVC012 QNH2909INS BECMG 3114/3115 26012G18KT 9000 -RA BKN008 OVC012 QNH2918INS BECMG 3123/3124 30012KT 8000 -RA BR BKN003 OVC010 510033 QNH2945INS BECMG 0108/0109 34015G20KT 9999 NSW BKN005 OVC012 510053 QNH2974INS BECMG 0112/0113 36010G15KT 9000 BR OVC012 QNH2971INS TX11/3113Z TN07/0107Z LAST NO AMDS AFT 3117 NEXT 0304", "TAF EGVN 011035Z 0112/0212 35010KT 9999 BKN014 BECMG 0112/0115 BKN030 BECMG 0118/0121 BKN020 PROB30 TEMPO 0118/0124 5000 -RADZ BKN012 BECMG 0200/0203 BKN008 PROB30 TEMPO 0200/0206 5000 -RADZ BKN006 BECMG 0206/0209 SCT025", "TAF EGWU 011050Z 0112/0206 35008KT 9999 BKN015 BECMG 0112/0115 BKN027 BECMG 0116/0119 BKN010 PROB30 TEMPO 0119/0204 6000 -DZ SCT006 BECMG 0204/0206 SCT024", "TAF EGXC 011043Z 0112/0206 35012KT 9999 BKN012 TEMPO 0112/0113 BKN018 TEMPO 0113/0123 BKN006 PROB30 TEMPO 0114/0122 3000 -RADZ SCT004 BECMG 0200/0203 BKN030", "TAF EGYP 011015Z 0112/0206 35025G35KT 9999 FEW020 520003 BECMG 0112/0115 SCT018 BKN040 PROB40 TEMPO 0112/0117 36030G45KT 530003 PROB30 TEMPO 0112/0117 VRB07KT SCT010 560003 BECMG 0115/0118 35025G35KT 50//// PROB30 TEMPO 0115/0117 5000 RA TEMPO 0117/0124 5000 RA FEW006 BKN008 BECMG 0120/0123 34015G25KT BECMG 0200/0203 27018G28KT PROB40 TEMPO 0200/0206 5000 RA BKN008", "TAF COR EHAM 011118Z 0112/0218 34010KT 6000 -RADZ BKN007 BECMG 0112/0115 03015KT 9999 NSW PROB30 TEMPO 0112/0114 BKN012 PROB40 TEMPO 0115/0120 6000 -RADZ BECMG 0118/0121 BKN012 BECMG 0201/0204 SCT030", "TAF EHBK 011108Z 0112/0218 26014KT 6000 -RADZ BKN008 TEMPO 0112/0119 3500 RADZ DZ BR BKN004 BECMG 0119/0122 3500 RADZ DZ BR BKN003 BECMG 0120/0123 36006KT 1200 DZRA BR BKN001 BECMG 0203/0206 04012KT 7000 -DZ BKN008 BECMG 0206/0209 9999 NSW BKN012 BECMG 0209/0212 BKN020", "TAF EHEH 010506Z 0106/0212 25013KT 4000 DZRA BR SCT005 OVC008 PROB40 TEMPO 0106/0119 2000 DZ SCT002 OVC004 BECMG 0119/0121 04014KT 9999 NSW SCT008 BKN010 PROB40 TEMPO 0119/0202 4500 -RADZ SCT006 BKN008 BECMG 0200/0203 BKN012 BECMG 0204/0206 SCT020 BKN030 BECMG 0207/0210 CAVOK", "TAF EHGG 011108Z 0112/0218 06015KT 7000 RADZ BKN006 TEMPO 0112/0115 9999 NSW BKN012 BECMG 0115/0118 9999 NSW OVC012 BECMG 0118/0121 BKN025", "TAF EHKD 010840Z 0109/0121 02010KT 6000 BKN006 OVC008 TEMPO 0109/0116 2000 DZRA SCT002 OVC004 PROB30 TEMPO 0109/0112 1200 DZRA BR BECMG 0110/0113 04017G28KT BECMG 0115/0118 OVC012", "TAF EHLE 011110Z 0112/0218 36010KT 9999 BKN007 TEMPO 0112/0115 4000 -DZRA BKN012 BECMG 0113/0116 04015KT PROB40 TEMPO 0115/0121 6000 -RADZ BECMG 0119/0122 BKN012 BECMG 0200/0203 SCT030", "TAF EHLW 010840Z 0109/0121 06015G27KT 6000 BKN006 OVC008 TEMPO 0109/0114 2500 RADZ SHRA SCT003 OVC005 SCT020CB PROB30 TEMPO 0109/0111 1200 DZRA BR SCT001 BKN002 BECMG 0114/0116 OVC012 BECMG 0117/0120 BKN018", "TAF EHRD 011111Z 0112/0218 32010KT 6000 -RADZ BKN004 BECMG 0112/0115 BKN007 TEMPO 0112/0116 4000 -DZRA BECMG 0115/0118 03014KT 9999 NSW PROB40 TEMPO 0118/0122 6000 -RADZ BECMG 0121/0124 BKN012 BECMG 0203/0206 SCT030", "TAF EHVK 010841Z 0109/0121 25012KT 7000 SCT006 OVC008 TEMPO 0109/0121 2500 DZRA SCT003 OVC004 PROB40 TEMPO 0110/0121 2000 RADZ SHRA SCT003 OVC004 SCT020CB PROB30 0117/0121 1200 DZRA BR SCT001 BKN002 OVC003", "TAF EICK 011100Z 0112/0212 33018KT 9999 BKN018 TEMPO 0112/0118 33020G30KT BECMG 0121/0123 31006KT", "TAF AMD EIDL 010604Z 0106/0115 32015KT 9999 FEW012 BKN025 TEMPO 0106/0109 3000 RA BR BKN008 TEMPO 0107/0115 33020G30KT TEMPO 0109/0111 4000 SHRA BKN012 PROB40 TEMPO 0111/0113 -SHRA BKN012", "TAF EIDW 011100Z 0112/0212 36008KT 9999 SCT007 BKN020 TEMPO 0112/0114 -RA BKN007 TEMPO 0114/0120 -RA BKN010 BECMG 0114/0116 32012KT PROB30 TEMPO 0117/0120 35008KT TEMPO 0123/0203 -RA BKN010 BECMG 0201/0203 32005KT BECMG 0207/0209 05005KT", "TAF EIKN 011100Z 0112/0212 32015KT 9999 FEW008 BKN018 TEMPO 0112/0113 BKN014 TEMPO 0112/0118 33017G28KT BECMG 0119/0121 32005KT", "TAF EIKY 010500Z 0106/0115 32013KT 9999 FEW018 BKN030 TEMPO 0106/0108 -SHRA SCT009 SCT018CB PROB30 TEMPO 0106/0108 32015G25KT 4000 SHRA BKN009 TEMPO 0108/0115 32017G28KT", "TAF EIME 010500Z 0106/0115 28009KT 9999 -RA FEW007 BKN030 TEMPO 0106/0110 4000 BKN007 PROB40 TEMPO 0106/0110 2500 RADZ BKN004 BECMG 0108/0110 31010KT BECMG 0110/0112 35005KT TEMPO 0110/0115 6000 -RADZ BKN010", "TAF EINN 011100Z 0112/0212 32012KT 9999 FEW018 BKN030 TEMPO 0112/0117 31015G25KT BECMG 0121/0123 VRB03KT PROB30 TEMPO 0205/0207 3000 BR", "TAF EISG 010500Z 0106/0115 31016KT 9999 FEW012 BKN025 TEMPO 0106/0115 32018G30KT PROB40 TEMPO 0106/0111 -SHRA BKN012", "TAF EIWF 010500Z 0106/0115 29009KT 9999 SCT018 BKN030 BECMG 0106/0108 32014KT PROB30 TEMPO 0106/0110 4000 -RA BKN012 TEMPO 0108/0115 33015G26KT", "TAF EKAH 011101Z 0112/0212 07016KT CAVOK", "TAF EKBI 011101Z 0112/0212 06015KT 9999 FEW020 TEMPO 0112/0116 07018G28KT", "TAF EKCH 011102Z 0112/0212 06014KT CAVOK", "TAF EKEB 011120Z 0112/0121 06020KT 9999 SCT020", "TAF EKGC 010802Z 0109/0118 06035KT 9999 BKN010 BECMG 0109/0111 SCT020", "TAF EKHD 010802Z 0109/0118 06035KT 9999 BKN013 BECMG 0109/0110 SCT020", "TAF EKKA 011110Z 0112/0212 07018KT 9999 FEW200 TEMPO 0112/0116 07020G30KT BECMG 0116/0119 04005KT BECMG 0208/0210 05012KT", "TAF EKOD 010802Z 0109/0115 07016KT 9999 BKN013 BECMG 0109/0111 SCT020", "TAF EKRK 011102Z 0112/0121 07012KT CAVOK", "TAF EKRN 011109Z 0112/0121 05020KT 9999 SCT020 TEMPO 0112/0118 05022G32KT", "TAF EKSP 011110Z 0112/0212 07015KT 9999 BKN012 BECMG 0112/0113 SCT020 TEMPO 0112/0116 07015G28KT BECMG 0116/0119 04005KT BECMG 0208/0210 05012KT", "TAF AMD EKVD 011103Z 0111/0115 07015G25KT 9999 BKN012 BECMG 0111/0113 06015KT SCT020 TEMPO 0113/0115 07018G28KT", "TAF EKVG 011116Z 0112/0121 13015KT 9999 -DZ FEW008 BKN018 TEMPO 0112/0116 3500 -RADZ BR OVC006 BECMG 0116/0118 4500 RADZ OVC008", "TAF EKYT 011105Z 0112/0212 06015KT 9999 FEW200 TEMPO 0112/0116 05015G25KT BECMG 0119/0122 04005KT", "TAF ELLX 011100Z 0112/0218 24010G20KT 9999 -RA SCT005 BKN010 TEMPO 0112/0118 23015G30KT 3500 RADZ BKN005 TEMPO 0121/0209 2000 RADZ BR BKN003 BECMG 0209/0212 02015KT SCT015 PROB40 TEMPO 0212/0218 SHRA SCT020TCU", "TAF ENAL 010800Z 0109/0118 06008KT CAVOK", "TAF AMD ENAN 010750Z 0107/0206 03022KT 9999 FEW020 BKN025 TEMPO 0107/0110 30020G30KT 2000 SHSNRA VV008 TEMPO 0107/0112 FEW015CB BKN030 BECMG 0108/0111 03012KT BECMG 0123/0202 20008KT", "TAF ENAT 010500Z 0106/0114 34015KT 9999 FEW005 BKN020 TEMPO 0106/0114 35015G25KT 2000 SHSN DRSN BKN008 FEW020CB", "TAF ENBN 010800Z 0109/0118 06008KT CAVOK BECMG 0112/0115 36010KT", "TAF ENBO 010500Z 0106/0206 31008KT 9999 FEW020 BKN040 PROB40 TEMPO 0106/0109 4000 -SHSN BKN014 FEW020CB", "TAF ENBR 010500Z 0106/0206 VRB05KT CAVOK PROB40 0111/0118 32010KT", "TAF ENCN 010800Z 0109/0118 04012KT CAVOK TEMPO 0109/0113 06015G28KT", "TAF ENDU 010500Z 0106/0206 30009KT 9999 FEW020 BKN040 TEMPO 0106/0111 SCT020CB TEMPO 0106/0111 0500 +SHSN VV004", "TAF AMD ENEV 010735Z 0107/0206 34009KT 9999 FEW025 BKN040 TEMPO 0107/0111 SCT020CB TEMPO 0107/0111 1200 SHSN VV009", "TAF ENFL 010800Z 0109/0118 09008KT CAVOK", "TAF ENGC 010800Z 0109/0209 12005KT CAVOK BECMG 0112/0115 28010KT", "TAF ENGM 010500Z 0106/0206 02008KT CAVOK", "TAF ENHD 010800Z 0109/0118 09005KT CAVOK BECMG 0111/0114 34012KT", "TAF ENHE 010800Z 0109/0118 06022KT 9999 SCT035", "TAF ENHF 010800Z 0109/0115 35015KT 9999 FEW012 BKN025 TEMPO 0109/0114 36018G28KT 1200 SHSN DRSN VV008 TEMPO 0109/0114 FEW025CB", "TAF ENKB 010800Z 0109/0118 07009KT CAVOK", "TAF ENKR 010800Z 0109/0118 33020KT 9999 BKN025 TEMPO 0109/0112 3000 -SHSN DRSN BKN014 FEW020CB PROB40 TEMPO 0112/0115 34020G35KT 0800 SHSN BLSN VV008 TEMPO 0112/0116 SCT020CB BKN025", "TAF ENLE 010800Z 0109/0118 06032KT 9999 BKN012 BECMG 0109/0112 SCT012", "TAF ENML 010800Z 0109/0118 06009KT CAVOK", "TAF ENMS 010800Z 0109/0115 34006KT 9999 FEW035 TEMPO 0111/0114 3000 -SHSNRA BKN012 FEW015CB", "TAF ENNA 010500Z 0106/0206 34018KT 9999 -SHSN BKN040 TEMPO 0106/0203 SCT020CB TEMPO 0106/0115 1200 SHSN DRSN VV009 BECMG 0200/0202 27009KT", "TAF ENNE 010800Z 0109/0117 04018KT 9999 FEW020 SCT035 TEMPO 0109/0115 FEW020CB SCT035", "TAF ENOA 010800Z 0109/0209 19015KT 9999 FEW040 BECMG 0111/0113 28015KT", "TAF ENOL 010500Z 0106/0206 09008KT CAVOK", "TAF ENOV 010800Z 0109/0115 VRB03KT CAVOK", "TAF ENRA 010800Z 0109/0114 34006KT 9999 SCT045 TEMPO 0110/0113 3000 -SHSN BKN012 FEW020CB", "TAF ENRY 010500Z 0106/0206 02008KT CAVOK", "TAF ENSB 010500Z 0106/0206 12009KT 9999 FEW015 BKN025 PROB40 TEMPO 0106/0109 4000 -SN BKN014", "TAF ENSD 010800Z 0109/0117 VRB03KT CAVOK", "TAF ENSH 010800Z 0109/0113 36008KT 9999 -SHSN FEW008 BKN035 TEMPO 0110/0113 2000 SHSN VV008 TEMPO 0110/0113 FEW020CB", "TAF ENTC 010500Z 0106/0206 36008KT 9999 FEW010 BKN025 TEMPO 0106/0109 1000 SHSN BKN008 SCT014CB TEMPO 0109/0206 FEW015TCU", "TAF ENTO 010500Z 0106/0206 01008KT CAVOK", "TAF ENVA 010500Z 0106/0206 12008KT CAVOK", "TAF ENVD 010800Z 0109/0114 34018KT 9999 FEW008 SCT020 PROB40 TEMPO 0109/0114 34025G35KT 1200 SHSN DRSN BKN008 FEW015CB", "TAF ENZV 010500Z 0106/0206 VRB05KT CAVOK PROB40 0110/0119 34010KT", "TAF AMD EPBY 011055Z 0110/0206 03012KT 9999 BKN011 BKN020 PROB40 0116/0121 4000 BR BKN005 TEMPO 0204/0206 02015G25KT 4000 -SHSN SCT012CB", "TAF EPCE 011100Z 0112/0124 02012KT 9999 SCT008 OVC015 TEMPO 0112/0118 02012G22KT 7000 -RA DZ BKN005 OVC012 BECMG 0119/0122 BKN020", "TAF EPDA 011100Z 0112/0124 04015KT 9999 OVC012 BECMG 0115/0118 BKN017", "TAF EPDE 011100Z 0112/0124 24008KT 9999 BKN026 BKN100 PROB30 TEMPO 0112/0115 6000 SHRA BKN015CB BKN020 BECMG 0115/0117 29006KT 7000 RADZ BKN006 OVC013", "TAF AMD EPGD 010801Z 0108/0206 02012KT 2000 -DZ BR BKN001 BECMG 0108/0111 6000 BKN007 TEMPO 0109/0118 02015G28KT SHRA BKN012TCU PROB40 TEMPO 0112/0117 3000 SHSNRA BKN007CB", "TAF EPKK 010830Z 0109/0209 25010KT 9999 BKN040 TEMPO 0109/0118 4000 SHRA BKN030CB BECMG 0118/0120 BKN014 TEMPO 0118/0209 3000 SHRA BKN020CB PROB40 TEMPO 0120/0206 BKN008 BECMG 0121/0124 33005KT", "TAF EPKS 011100Z 0112/0124 03008KT 9999 BKN007 OVC013 PROB30 TEMPO 0112/0114 5000 -RADZ BKN005 BECMG 0115/0117 BKN015", "TAF AMD EPKT 010827Z 0108/0206 24010KT 9999 BKN012 TEMPO 0108/0120 4000 SHRA BKN008 BKN012CB BECMG 0120/0122 36010KT TEMPO 0120/0206 3500 SHRA BKN004 BKN010CB", "TAF EPLB 010530Z 0106/0206 25006KT 9999 BKN030 TEMPO 0106/0108 4500 -RA BR BKN012 TEMPO 0108/0206 SHRA BKN030CB PROB40 TEMPO 0111/0116 3000 TSRA BKN012CB BECMG 0122/0124 35010KT", "TAF EPLK 011100Z 0112/0124 29010KT 9999 BKN015 OVC020 TEMPO 0112/0116 5000 RA SCT005 BKN010 BECMG 0116/0118 35008KT", "TAF AMD EPLL 010840Z 0108/0206 22008KT 9999 BKN007 TEMPO 0108/0110 2500 -RADZ BR BKN003 TEMPO 0110/0116 4000 SHRA BKN012 BKN015CB BECMG 0114/0116 36010KT TEMPO 0116/0205 2000 -RADZ BR BKN002 PROB30 TEMPO 0120/0205 0700 FG OVC001", "TAF AMD EPLY 010345Z 0100/0112 24006KT 9999 BKN030 TEMPO 0103/0112 5000 -RA SHRA BR BKN010 BKN015CB", "TAF EPMB 011100Z 0112/0124 35012KT 6000 BKN004 OVC007 TEMPO 0112/0114 3000 BR OVC003 PROB30 TEMPO 0112/0114 2000 -DZ BR OVC002 BECMG 0115/0117 BKN010", "TAF EPMI 011100Z 0112/0124 03012KT 9999 BKN007 BECMG 0113/0115 BKN013", "TAF EPMM 011100Z 0112/0124 27006KT 9999 SCT010 BKN020 TEMPO 0112/0120 8000 SHRA SCT008 BKN015CB BECMG 0114/0117 36010KT PROB30 TEMPO 0114/0117 5000 TSRA BKN012CB", "TAF EPMO 010530Z 0106/0206 23004KT 9999 BKN020 TEMPO 0106/0109 3000 -RA BR BKN004 BKN008 TEMPO 0109/0121 4000 SHRA BKN012 BKN020CB PROB40 0112/0118 TSRA BKN008 BKN012CB BECMG 0114/0117 01010KT BKN012 TEMPO 0121/0206 -RA BKN008", "TAF EPOK 011100Z 0112/0124 02010KT 7000 -RA BKN007 TEMPO 0112/0122 02015G25KT 3000 -DZRA BR BKN004 PROB30 TEMPO 0117/0122 0800 SNRA BKN003 BECMG 0122/0124 9999 BKN017", "TAF AMD EPPO 011111Z 0111/0206 02008KT 9999 BKN004 BECMG 0112/0115 BKN014 TEMPO 0115/0206 BKN020", "TAF EPPW 011100Z 0112/0124 01010KT 9999 BKN008 PROB30 0112/0114 -RADZ BKN006 BECMG 0114/0116 BKN013", "TAF EPRZ 010530Z 0106/0206 27010KT 9999 BKN030 TEMPO 0110/0203 4000 SHRA BKN020CB BECMG 0203/0205 35010KT BKN014 TEMPO 0203/0206 4000 SHRA BKN012CB", "TAF EPSC 010530Z 0106/0206 03012KT 6000 OVC002 BECMG 0107/0109 BKN006 BECMG 0110/0112 03015G26KT BKN016 BECMG 0120/0122 03010KT", "TAF COR EPSN 011100Z 0112/0124 03012G24KT 9999 BKN012 TEMPO 0112/0115 BKN007", "TAF EPSY 010830Z 0109/0118 01010KT 8000 -RA BKN005 PROB40 0110/0114 BKN012", "TAF EPWA 010830Z 0109/0209 25008KT 9999 BKN025 TEMPO 0109/0116 3000 SHRA SCT008 BKN014CB PROB40 TEMPO 0111/0116 TSRA BECMG 0114/0116 36010KT TEMPO 0116/0209 4000 DZ BR BKN007 BKN012", "TAF EPWR 010830Z 0109/0209 28010KT 9999 BKN015 TEMPO 0109/0124 4000 SHRA BKN008 BKN012CB PROB30 TEMPO 0113/0116 2000 TSRA BECMG 0117/0120 02010KT TEMPO 0200/0209 -RA BKN006 BKN014", "TAF EPZG 010830Z 0109/0118 27005KT 9999 BKN014 BECMG 0109/0111 04010KT TEMPO 0109/0118 3000 -SHRA BR BKN007 BKN012CB", "TAF ESDF 010830Z 0109/0115 04014G24KT 9999 FEW035", "TAF ESGG 011130Z 0112/0212 05016KT CAVOK BECMG 0117/0119 05005KT", "TAF ESGP 010830Z 0109/0118 04011KT CAVOK", "TAF ESKN 011130Z 0112/0212 02012KT CAVOK", "TAF ESMS 011102Z 0112/0212 06015KT CAVOK BECMG 0117/0120 04005KT", "TAF ESNN 010830Z 0109/0113 32009KT CAVOK", "TAF ESNS 010830Z 0109/0114 28008KT CAVOK TEMPO 0113/0114 34012KT SCT035TCU", "TAF ESNU 010830Z 0109/0118 32008KT CAVOK", "TAF ESPA 010830Z 0109/0118 33009KT CAVOK TEMPO 0111/0115 SCT035TCU", "TAF ESSA 011130Z 0112/0212 02014KT CAVOK TEMPO 0112/0115 04015G25KT", "TAF ESSB 010830Z 0109/0116 02012KT CAVOK", "TAF ESSV 010830Z 0109/0115 03018KT 9999 FEW030", "TAF ESTA 010804Z 0109/0115 08012KT CAVOK", "TAF AMD ETAD 010625Z 0106/0211 23012G20KT 8000 -SHRA OVC015 520005 QNH2940INS TEMPO 0106/0109 BKN007 BECMG 0108/0109 26012G20KT 8000 -RA OVC015 520005 QNH2944INS BECMG 0116/0117 27012G20KT 8000 -RA OVC010 520005 QNH2955INS BECMG 0122/0123 26010G15KT 8000 -RA OVC010 QNH2964INS BECMG 0202/0203 35010G15KT 9999 NSW BKN020 QNH2969INS TX10/0112Z TN05/0205Z", "TAF ETAR 011000Z 0110/0216 24015G25KT 8000 -RA BR BKN015 520005 QNH2947INS BECMG 0111/0112 24015G25KT 9000 -RA BR BKN025 520005 QNH2953INS BECMG 0116/0117 24010G20KT 9999 NSW BKN015 BKN020 510005 QNH2958INS BECMG 0121/0122 24010G15KT 9000 -RA BKN010 QNH2964INS BECMG 0206/0207 04010G15KT 9999 NSW BKN007 BKN015 QNH2985INS BECMG 0209/0210 04015G25KT 9999 BKN015 510005 QNH2995INS TX11/0113Z TN07/0206Z", "TAF ETEB 311500Z 3115/0121 26015G35KT 9999 FEW030 BKN035 BKN040 620402 520006 QNH2953INS BECMG 3117/3118 25010G30KT 5000 -SHRA FEW030 BKN040 640402 520006 QNH2953INS BECMG 0101/0102 25015G30KT 9999 NSW SCT025 BKN035 620402 520006 QNH2951INS BECMG 0107/0108 25015G30KT 5000 -SHRA FEW020 OVC030 640307 520007 QNH2952INS TX12/3115Z TN07/0106Z LAST NO AMDS AFT 3122 NEXT 0307", "TAF ETIC 311800Z 3118/0124 24012KT 9999 SCT025 BKN050 620505 510159 QNH2949INS TEMPO 3118/3124 6000 -SHRA BKN020 BECMG 0107/0108 24012KT 6000 -SHRA BKN020 610208 510159 QNH2950INS TEMPO 0112/0118 24012G20KT BKN010 620109 TX09/0112Z TN06/0106Z LAST NO AMDS AFT 3121 NEXT 0220", "TAF AMD ETIK 312100Z 3121/0120 24015KT 9999 SCT100 520006 QNH2952INS BECMG 0100/0101 25015G25KT 9999 BKN020 OVC030 520006 QNH2947INS BECMG 0103/0104 24020G35KT 9999 BKN020 OVC030 520006 QNH2946INS BECMG 0107/0108 24020G35KT 8000 -SHRA BKN015 OVC030 520006 QNH2947INS TX12/0114Z TN07/0103Z LAST NO AMDS AFT 3122 NEXT 0306", "TAF ETNL 011003Z 0111/0123 08012G22KT 8000 -RA BKN008 TEMPO 0111/0115 08020G30KT 3000 RADZ BKN004 BECMG 0116/0118 07012G22KT 9999 NSW BKN015 TEMPO 0118/0123 07015G30KT 9999 NSW SCT015 BY ETGL", "TAF ETNW 011006Z 0111/0211 15008KT 9999 NSW BKN015 TEMPO 0111/0113 12010KT 4000 RA BKN010 BECMG 0113/0115 05010G20KT 8000 -RA BKN012 TEMPO 0115/0203 04015G25KT 3000 RADZ BKN005 BECMG 0203/0205 05010G20KT 8000 NSW FEW005 BKN015 BY ETGL", "TAF AMD ETOU 311830Z 3118/0118 22015G20KT 8000 -SHRA BKN020 QNH2942INS BECMG 3121/3122 22015G25KT 9999 NSW BKN020 QNH2941INS BECMG 0101/0102 23015G20KT 8000 -SHRA BKN015 QNH2951INS TX11/0112Z TN09/0105Z LAST NO AMDS AFT 3118 NEXT 0204", "TAF ETSN 011003Z 0111/0120 24012KT 9999 NSW FEW020 BKN040 TEMPO 0111/0120 25012G25KT 6000 -RA SCT015 BKN020 PROB30 0111/0117 25020G30KT 4000 SHRA BKN015 BKN020TCU BY ETGL", "TAF EVGA 011103Z 0112/0212 01010KT 9999 OVC010 TEMPO 0112/0114 BKN007 BECMG 0114/0116 BKN015 TEMPO 0116/0124 BKN010", "TAF EVLA 011105Z 0112/0212 03012KT 9999 BKN015 TEMPO 0209/0212 04015G27KT", "TAF EVRA 011101Z 0112/0212 01012KT 9999 OVC007 BECMG 0112/0114 BKN012 BECMG 0115/0117 BKN015 TEMPO 0117/0122 BKN010 TEMPO 0209/0212 36015G28KT", "TAF EYKA 011100Z 0112/0212 01010KT 5000 BR OVC005 TEMPO 0112/0123 OVC010 TEMPO 0123/0207 3000 RASN BKN002 OVC010 BECMG 0207/0208 8000 NSW BKN015 TEMPO 0209/0212 02015G25KT", "TAF EYPA 011100Z 0112/0212 03012KT 6000 OVC010 TEMPO 0112/0115 03015G25KT OVC015 BECMG 0115/0116 SCT010 OVC015 BECMG 0118/0119 BKN015 TEMPO 0121/0203 SCT015 BECMG 0203/0205 CAVOK TEMPO 0206/0212 03015G26KT", "TAF EYSA 011112Z 0112/0121 02012KT 6000 OVC005 TEMPO 0112/0115 OVC002", "TAF EYVI 011110Z 0112/0212 VRB03KT 5000 RA BR OVC010 TEMPO 0112/0114 01013KT 3000 OVC005 BECMG 0114/0115 01013KT OVC005 TEMPO 0115/0118 VRB03KT 1500 OVC002 BECMG 0118/0119 1500 TEMPO 0119/0124 0500 DZ FG OVC001 BECMG 0200/0203 5000 BECMG 0206/0208 01015G25KT SNRA", "TAF FABL 011000Z 0112/0212 34005KT 9999 SCT025 FEW025TCU TX25/0112Z TN10/0203Z TEMPO 0118/0121 TSRA FEW030CB BECMG 0121/0123 VRB03KT CAVOK PROB30 TEMPO 0203/0206 0900 FG NSC", "TAF FACT 011000Z 0112/0218 19010KT CAVOK TX27/0112Z TN15/0204Z PROB30 TEMPO 0122/0205 2000 BR NSC FM021600 20005KT 9999 BKN008 TEMPO 0216/0218 2000 BR BKN004", "TAF FAEL 010900Z 0110/0119 10010KT CAVOK TX25/0110Z TN20/0119Z BECMG 0116/0118 04012KT BKN020", "TAF FAGG 011000Z 0112/0212 12012KT CAVOK TX24/0212Z TN11/0204Z FM011800 VRB02KT 9999 SCT010 PROB40 TEMPO 0122/0205 0800 FG BKN004 FM020700 22005KT 9999 FEW010", "TAF FAHS 010900Z 0110/0118 VRB03KT 9999 SCT030 TX30/0113Z TN22/0118Z PROB30 TEMPO 0114/0118 FEW040TCU", "TAF FAKM 010900Z 0110/0118 35010KT 9999 SCT040 FEW040TCU TX29/0112Z TN21/0118Z", "TAF FAKN 010900Z 0110/0118 VRB03KT CAVOK TX26/0113Z TN19/0118Z PROB30 TEMPO 0114/0118 FEW040TCU", "TAF FALA 011000Z 0112/0212 32008KT CAVOK TX24/0212Z TN14/0204Z BECMG 0115/0117 VRB03KT BECMG 0202/0204 SCT012 PROB30 TEMPO 0203/0206 5000 BR BKN008 BECMG 0207/0209 32008KT BKN025", "TAF FALE 011000Z 0112/0218 10008KT 9999 SCT015 TX28/0212Z TN18/0203Z PROB30 TEMPO 0117/0121 5000 -RA BKN015 BECMG 0118/0120 VRB03KT FM020800 04010KT CAVOK", "TAF FAMM 010600Z 0107/0118 03010KT CAVOK TX26/0113Z TN19/0118Z PROB30 TEMPO 0114/0118 FEW040TCU", "TAF FAOR 011000Z 0112/0218 32008KT CAVOK TX23/0213Z TN13/0204Z PROB30 TEMPO 0116/0119 TS FEW045CB FM020200 04008KT 9999 SCT010 PROB30 TEMPO 0204/0207 4000 BR BKN004 BECMG 0206/0208 34010KT FM020900 28008KT 9999 SCT030 BECMG 0214/0216 VRB03KT", "TAF FAPE 011000Z 0112/0212 11010KT CAVOK TX28/0211Z TN16/0202Z BECMG 0118/0120 05010KT PROB30 TEMPO 0202/0206 3000 BR BKN005", "TAF FAPM 010900Z 0110/0121 06005KT 9999 SCT015 TX25/0112Z TN16/0121Z PROB30 TEMPO 0115/0118 5000 -RA BKN015", "TAF FAPP 010900Z 0110/0118 VRB03KT 9999 SCT030 TX26/0114Z TN18/0118Z PROB30 TEMPO 0114/0118 FEW040TCU", "TAF FARB 010900Z 0110/0118 10008KT 9999 SCT020 TX29/0112Z TN21/0118Z PROB30 TEMPO 0115/0118 5000 SHRA BKN015 FEW035TCU", "TAF FAUP 011000Z 0112/0212 34008KT CAVOK TX35/0112Z TN16/0204Z BECMG 0116/0118 VRB03KT", "TAF FAUT 010900Z 0110/0118 VRB02KT 9999 BKN020 TX24/0111Z TN16/0118Z BECMG 0111/0113 10010KT BKN012 PROB40 TEMPO 0115/0118 4000 -DZ BR BKN009", "TAF FAWB 010900Z 0110/0118 VRB03KT 9999 SCT030 TX24/0114Z TN19/0118Z PROB30 TEMPO 0114/0118 -TSRA FEW040CB", "TAF FBKE 010900Z 0112/0121 07008KT 9999 FEW035CB PROB30 TEMPO 0115/0120 TSRA", "TAF FBSK 011000Z 0112/0218 09010KT 9999 FEW035CB BECMG 0118/0120 CAVOK BECMG 0210/0212 FEW035CB", "TAF FCBB 011100Z 0112/0218 26006KT 9999 FEW015 BECMG 0113/0115 SCT020 FEW030CB PROB30 0116/0120 TS BECMG 0120/0122 SCT016 BECMG 0212/0214 FEW018 FEW030CB", "TAF FCPP 011100Z 0112/0212 28006KT 9999 FEW015 BKN023 FEW030CB PROB30 0115/0119 TS BECMG 0119/0121 SCT013", "TAF FDMS 011000Z 0112/0118 VRB03KT SCT035 FEW040CB PROB30 TEMPO 0113/0116 04007KT -TSRA FEW040CB", "TAF FDSK 011000Z 0112/0118 17005KT 9999 SCT035 BECMG 0110/0112 03007KT", "TAF FEFF 010500Z 0106/0212 VRB03KT 9999 FEW010 BECMG 0109/0110 BKN013 BECMG 0111/0113 SCT023 FEW040CB PROB30 TEMPO 0114/0119 08012G30KT 4000 TSRA", "TAF FGBT 312300Z 0100/0124 22005KT 9999 SCT010 PROB30 TEMPO 0100/0106 2000 +TSRA BKN010 FEW020CB PROB40 TEMPO 0116/0122 TS BKN010 FEW020CB", "TAF FGSL 312300Z 0100/0206 23008KT 9999 FEW010 PROB40 TEMPO 0103/0108 TS BKN010 FEW020CB TEMPO 0111/0117 3000 TSRA BKN010 FEW020CB", "TAF FHAW 011030Z 0112/0206 14013KT 9999 FEW018 PROB30 TEMPO 0112/0206 7000 -SHRA SCT016", "TAF FIMP 011110Z 0112/0218 08010KT 9999 SCT017 PROB30 TEMPO 0208/0218 7000 -SHRA BKN016", "TAF COR FIMR 010515Z 0106/0200 09012G25KT 9999 SCT018 TEMPO 0109/0118 7000 -SHRA FEW010 SCT016 BKN050", "TAF FJDG 010900Z 0109/0215 VRB06KT 9999 SCT040 QNH2977INS TX33/0115Z TN23/0123Z FOR MIL USE ONLY", "TAF FKKD 010500Z 0106/0212 VRB02KT 9999 TS BKN013 FEW016CB TEMPO 0106/0108 4000 TSRA BECMG 0108/0110 NSW BKN016 FEW020CB TEMPO 0115/0120 TS BECMG 0121/0123 BKN013 FEW016CB", "TAF FKKL 010500Z 0106/0118 VRB05KT 3000 DU NSC BECMG 0110/0112 8000 NSW", "TAF FKKR 010500Z 0106/0118 VRB05KT 4000 DU NSC BECMG 0110/0112 8000 NSW", "TAF FKYS 010500Z 0106/0206 26005KT 9999 SCT003 BKN006 BECMG 0108/0110 BKN016 TEMPO 0114/0119 TS BKN014 FEW023CB BECMG 0121/0123 BKN006", "TAF FLCP 011000Z 0112/0218 15005KT 9999 FEW035CB SCT040 BKN090 PROB30 TEMPO 0112/0114 9000 -TSRA BECMG 0202/0204 15010KT 9999 BKN007 PROB30 TEMPO 0206/0208 15005KT 9000 -RA BKN015", "TAF FLHN 011000Z 0112/0218 09010KT 9999 FEW035CB SCT040 FM011600 13005KT CAVOK BECMG 0208/0210 09010KT 9999 SCT020 BECMG 0212/0214 FEW040CB", "TAF FLKK 011000Z 0112/0218 09010KT 9999 FEW030CB BKN035 PROB30 TEMPO 0112/0116 9000 -TSRA BECMG 0116/0120 9999 FEW///CB BECMG 0122/0200 VRB03KT CAVOK", "TAF FLKS 011000Z 0112/0218 15005KT 9999 FEW030CB BKN035 PROB30 TEMPO 0112/0114 9000 -TSRA BECMG 0116/0120 VRB03KT FEW///CB BKN090 PROB30 TEMPO 0122/0202 -RA SCT005 OVC090", "TAF FLMA 011000Z 0112/0218 VRB03KT 9999 FEW030CB BKN035 PROB40 TEMPO 0112/0114 9000 -TSRA BECMG 0116/0120 9999 FEW///CB BECMG 0202/0204 BKN007", "TAF FLMF 011000Z 0112/0218 15005KT 9999 FEW035CB SCT040 BKN090 PROB30 TEMPO 0112/0114 9000 -TSRA BECMG 0202/0204 15010KT 9999 BKN007 PROB30 TEMPO 0206/0208 15005KT 9000 -RA BKN015", "TAF FLSK 011000Z 0112/0218 09005KT 9999 FEW035CB BKN040 BKN090 PROB30 TEMPO 0112/0114 9000 -TSRA BECMG 0116/0120 VRB03KT FEW///CB BKN090 BECMG 0122/0202 CAVOK", "TAF FLSW 011000Z 0112/0218 06005KT 9999 FEW030CB BKN035 PROB30 TEMPO 0112/0114 9000 -TSRA BECMG 0116/0120 VRB03KT FEW///CB BKN090 PROB30 TEMPO 0122/0202 9000 -RA SCT005 OVC090", "TAF FMCH 011100Z 0112/0218 22015KT 9999 FEWO20 PROB40 TEMPO 0112/0116 4500 TSRA SHRA FEWO20CB BKN030 BECMG 0115/0117 09005KT BECMG 0205/0207 22014KT TEMPO 0208/0215 4500 TSRA SHRA FEW020CB BKN030", "TAF FMCZ 010500Z 0106/0206 19012KT 9999 SCT020 TEMPO 0108/0111 4500 SHRA SCT020TCU TEMPO 0202/0206 2400 TSRA FEW018CB BKN020TCU", "TAF FMEE 011100Z 0112/0218 09010KT 9999 SCT030 SCT080 PROB30 TEMPO 0112/0114 SCT010TCU PROB30 TEMPO 0117/0202 4500 SHRA", "TAF FMEP 011100Z 0112/0121 30008KT 9999 FEW035 SCT060 BKN080 PROB30 TEMPO 0112/0113 4500 SHRA", "TAF FMMI 011100Z 0112/0218 10008KT 9999 FEW023 BECMG 0112/0115 FEW020CB SCT023 BECMG 0118/0120 FEW017 SCT020 BECMG 0210/0212 SCT020CB PROB30 TEMPO 0214/0218 4000 TSRA", "TAF FMMS 011100Z 0112/0212 16010KT 9999 SCT017 SCT033 BECMG 0112/0114 SCT017CB BKN033 PROB40 TEMPO 0114/0210 4000 TSRA", "TAF FMMT 011100Z 0112/0212 16010KT 9999 SCT017TCU SCT033 BECMG 0112/0114 SCT017CB BKN033 PROB40 TEMPO 0116/0212 4000 TSRA BECMG 0118/0120 22006KT", "TAF FMNA 011100Z 0112/0212 14008KT 9999 BKN020CB TEMPO 0112/0204 4000 TSRA", "TAF FMNM 011100Z 0112/0212 14008KT 9999 FEW020 BECMG 0112/0115 24010KT BECMG 0115/0118 FEW020CB BECMG 0122/0124 09006KT", "TAF FMNN 011100Z 0112/0212 VRB05KT 9999 BKN020CB PROB40 TEMPO 0112/0120 VRB15KT 4000 TSRA PROB30 TEMPO 0202/0208 4500 TSRA", "TAF FMSD 011100Z 0112/0212 12010KT 9999 SCT020CB BKN033 PROB40 TEMPO 0112/0212 4000 TSRA", "TAF FMST 011100Z 0112/0212 22015KT 9999 SCT020CB SCT033 PROB30 TEMPO 0113/0118 4500 TSRA BECMG 0118/0120 13008KT SCT020", "TAF FNBG 011100Z 0112/0124 31010KT 9999 SCT020 BECMG 0122/0124 23005KT", "TAF FNCA 011100Z 0112/0124 27008KT 7000 SCT014 BKN040 PROB30 TEMPO 0112/0117 TS -RA FEW018CB", "TAF FNCT 011100Z 0112/0124 32010KT 9999 FEW015 BKN040 BECMG 0120/0122 21005KT", "TAF FNDU 011100Z 0112/0124 28005KT 8000 FEW015 BKN025 TEMPO 0114/0118 TS FEW030CB", "TAF FNGI 011100Z 0112/0124 VRB02KT 7000 FEW020 BKN050 TEMPO 0113/0117 FEW028CB", "TAF FNHU 011100Z 0112/0124 17005KT 9999 SCT016 BKN050 TEMPO 0113/0119 4000 -TSRA SCT010 FEW022CB", "TAF FNKU 011100Z 0112/0124 12006KT 9999 SCT015 BKN030 TEMPO 0116/0120 4500 -TSRA FEW022CB", "TAF FNLU 011100Z 0112/0218 28010KT 7000 SCT020 FEW023CB TEMPO 0112/0116 DZ BECMG 0119/0121 21006KT PROB30 TEMPO 0204/0209 -RA BECMG 0210/0212 27010KT", "TAF FNMA 011100Z 0112/0124 27008KT 8000 SCT020 PROB30 TEMPO 0113/0117 TS FEW023CB", "TAF FNME 011100Z 0112/0124 16009KT 8000 SCT015 BKN025 TEMPO 0113/0117 TS FEW030CB", "TAF FNMO 011100Z 0112/0124 28012KT 9999 SCT020 BECMG 0118/0120 21006KT", "TAF FNSA 011100Z 0112/0124 25006KT 9999 SCT013 BKN030 PROB40 TEMPO 0112/0117 4900 TS -RA FEW023CB", "TAF FNSO 011100Z 0112/0124 26008KT 8000 SCT015 BKN050 TEMPO 0113/0117 TS FEW022CB", "TAF FNUB 011100Z 0112/0124 33010KT 9999 SCT014 BKN040 PROB40 TEMPO 0113/0118 4000 TS -RA FEW025CB", "TAF FNUE 011100Z 0112/0124 14007KT 9000 SCT012 BKN025 TEMPO 0114/0119 4000 TS -RA FEW030CB", "TAF FOOG 011100Z 0112/0212 25004KT 9999 BKN010 FEW020CB BECMG 0113/0115 SCT010", "TAF FOOL 011100Z 0112/0218 18007KT 9999 SCT010 BKN030 TEMPO 0112/0118 TS BKN012 FEW020CB", "TAF FQBR 011000Z 0112/0218 19007KT 9999 BKN018 TX30/0113Z TN22/0203Z BECMG 0118/0120 13012KT PROB30 TEMPO 0209/0215 5000 -RADZ SCT015", "TAF FQCH 011000Z 0112/0212 09012KT 9999 BKN020 TX26/0113Z TN17/0203Z BECMG 0118/0120 15008KT BECMG 0200/0202 09008KT BECMG 0206/0208 VRB02KT", "TAF FQIN 011000Z 0112/0212 08010KT 9999 SCT020 TX30/0113Z TN23/0203Z BECMG 0118/0120 16008KT", "TAF FQLC 011000Z 0112/0212 11006KT 9999 DZ FEW013 BKN016 FEW022CB BKN070 TX24/0113Z TN12/0203Z PROB30 TEMPO 0112/0118 5000 -TSRA SCT010 FEW015CB BECMG 0118/0120 VRB03KT", "TAF FQMA 011000Z 0112/0218 13007KT 9999 SCT020TCU TX31/0113Z TN21/0203Z BECMG 0118/0120 VRB03KT BKN020 PROB30 TEMPO 0121/0203 5000 -RADZ SCT015 BECMG 0206/0208 35008KT BECMG 0212/0214 05008KT", "TAF FQNC 011000Z 0112/0218 16010KT 9999 BKN020 TX27/0113Z TN21/0203Z BECMG 0118/0120 22010KT PROB30 TEMPO 0209/0215 5000 -TSRA SCT015 FEW020CB ", "TAF FQNP 011000Z 0112/0212 18007KT 9999 FEW010 BKN020 TX27/0113Z TN21/0203Z PROB30 TEMPO 0112/0118 5000 -TSRA SCT015 FEW020CB BECMG 0118/0120 VRB03KT BECMG 0206/0208 21008KT", "TAF FQPB 011000Z 0112/0212 16010KT 9999 SCT020 TX30/0113Z TN23/0203Z PROB30 TEMPO 0112/0118 5000 -TSRA SCT015 FEW020CB BECMG 0118/0120 VRB03KT BECMG 0200/0202 27008KT BECMG 0206/0208 21008KT", "TAF FQQL 011000Z 0112/0212 17005KT 9999 BKN018 BKN090 TX29/0113Z TN22/0203Z BECMG 0118/0120 23010KT PROB30 TEMPO 0209/0212 5000 -RADZ SCT015", "TAF FQTT 011000Z 0112/0212 19007KT 9999 BKN020 SCT090 TX31/0113Z TN22/0203Z BECMG 0118/0120 VRB03KT BECMG 0206/0208 15008KT", "TAF FQVL 011000Z 0112/0212 08010KT 9999 BKN020 TX30/0113Z TN21/0203Z BECMG 0118/0120 14008KT ", "TAF FQXA 011000Z 0112/0212 VRB02KT 9999 SCT020 BKN070 TX28/0113Z TN22/0203Z BECMG 0118/0120 11008KT PROB30 TEMPO 0200/0206 5000 -RADZ SCT015 BECMG 0206/0208 VRB03KT", "TAF FSIA 011107Z 0112/0212 VRB03KT 9999 SCT022", "TAF FTTJ 010500Z 0106/0212 02006KT 7000 NSC TEMPO 0106/0109 4000 DU BECMG 0110/0112 02016KT TEMPO 0114/0118 3000 BLDU", "TAF FVJN 011000Z 0112/0218 10008KT 9999 SCT040TCU PROB30 TEMPO 0112/0118 8000 -TSRA FEW040CB SCT045 BKN090 BECMG 0120/0122 CAVOK BECMG 0206/0208 SCT030 BECMG 0210/0212 CAVOK", "TAF FVRG 011000Z 0112/0218 10008KT CAVOK", "TAF FWCL 010900Z 0112/0208 11005KT 9999 FEW009 SCT025 BECMG 0112/0114 17008KT 8000 -TSRA FEW020CB SCT025 BKN080 FM011500 16008KT 9999 FEW020CB BKN080 FM020600 13008KT 9999 FEW015 BKN080", "TAF FWKI 011000Z 0112/0218 07010KT 9999 FEW010 BKN030 BKN090 TEMPO 0119/0200 15008KT 8000 -RA FEW006 BKN015", "TAF FYGF 011100Z 0112/0121 32005KT 9999 FEW030CB SCT035TCU TEMPO 0113/0121 -TSRA FEW030CB BKN035TCU", "TAF FYKM 011100Z 0112/0121 09004KT 9999 SCT035TCU BECMG 0112/0114 FEW035CB SCT040TCU PROB30 TEMPO 0114/0121 -TSRA", "TAF FYLZ 011100Z 0112/0121 32003KT 9999 BKN025 BECMG 0112/0114 25007KT CAVOK", "TAF FYRU 011100Z 0112/0121 10006KT 9999 SCT040TCU BECMG 0112/0114 FEW035CB SCT040TCU PROB30 TEMPO 0114/0121 -TSRA", "TAF FYWB 011000Z 0112/0212 32004KT 9999 BKN015 BECMG 0112/0114 23009KT CAVOK", "TAF FYWE 011100Z 0112/0121 28007KT CAVOK BECMG 0113/0115 9999 SCT050", "TAF FYWH 011000Z 0112/0212 24003KT CAVOK BECMG 0113/0115 24015KT", "TAF FZAA 010500Z 0106/0212 20004KT 7000 SCT016 FEW028CB PROB30 TEMPO 0107/0111 -TSRA BECMG 0112/0114 31012KT FEW022 FEW030CB TEMPO 0115/0119 TS BECMG 0120/0122 18004KT FEW018", "TAF FZIC 311100Z 3112/0124 12006KT 8000 BKN018 FEW026CB BECMG 3115/3117 NSC FM010100 00000KT 0800 FG OVC002 FM010700 18006KT NSW BKN014 BECMG 0109/0112 SCT028 FEW034CB", "TAF FZNA 311100Z 3112/0118 04006KT 6000 -TSRA SCT016 FEW020CB BECMG 3114/3116 NSW SCT014 BECMG 0108/0110 22010KT SCT018 FEW022CB TEMPO 0111/0116 TS", "TAF FZQA 311100Z 3112/0118 30010KT 6000 -TSSHRA BKN014 FEW026CB BECMG 3114/3116 09005KT NSW SCT012 BECMG 3122/0100 SCT008 FEW026CB TEMPO 0102/0105 4000 TSRA BKN005 SCT025CB", "TAF GABS 010530Z 0106/0212 06010G20KT 8000 NSC", "TAF GAGO 010530Z 0106/0206 07012G22KT 8000 NSC PROB40 TEMPO 0108/0112 4000 DU", "TAF GBYD 010500Z 0106/0212 30008KT 7000 NSC", "TAF GCFV 010800Z 0109/0209 04017KT CAVOK TX25/0114Z TN18/0206Z", "TAF GCGM 010800Z 0109/0209 22007KT CAVOK TX29/0114Z TN20/0206Z", "TAF AMD GCHI 011119Z 0111/0209 35014KT CAVOK TX24/0114Z TN19/0206Z TEMPO 0111/0209 36015G28KT PROB30 TEMPO 0121/0209 BKN010", "TAF GCLA 010800Z 0109/0209 03012KT CAVOK TX27/0114Z TN19/0206Z PROB30 TEMPO 0109/0110 33006KT TEMPO 0120/0209 33008KT", "TAF GCLP 010800Z 0109/0209 02023KT CAVOK TX26/0114Z TN19/0206Z PROB30 TEMPO 0109/0111 01013KT PROB30 TEMPO 0112/0209 01022G33KT", "TAF GCRR 010800Z 0109/0209 03020KT CAVOK TX28/0114Z TN19/0206Z PROB40 TEMPO 0109/0209 04022G32KT", "TAF GCTS 010800Z 0109/0209 07026KT CAVOK TX30/0114Z TN21/0206Z PROB40 TEMPO 0109/0209 07024G35KT TEMPO 0119/0209 05014KT", "TAF GCXO 010800Z 0109/0209 12007KT CAVOK TX26/0114Z TN17/0206Z", "TAF GECE 010800Z 0109/0209 27011KT CAVOK TX23/0115Z TN17/0206Z PROB40 TEMPO 0113/0123 28015G25KT", "TAF GEML 011100Z 0112/0212 28018KT CAVOK TX25/0113Z TN18/0206Z TEMPO 0112/0206 27020G30KT PROB40 TEMPO 0112/0115 27025G40KT BECMG 0206/0208 28008KT", "TAF GFLL 011052Z 0112/0218 25006KT 9999 BKN012 FEW027CB BECMG 0112/0114 27010KT BKN013 TEMPO 0115/0119 24010KT BKN011 PROB30 TEMPO0121/0201 21006KT BKN10 FEW026CB", "TAF GGOV 011100Z 0112/0212 24005KT 7000 NSC PROB30 TEMPO 0206/0209 2000 BR", "TAF GMAD 011100Z 0112/0218 28012KT CAVOK BECMG 0119/0122 10006KT", "TAF GMAG 011100Z 0112/0218 32006KT 6000 FEW010 PROB30 0203/0208 3000 BR BKN008", "TAF GMFF 010500Z 0106/0212 20009KT CAVOK BECMG 0111/0113 32015KT FEW033 SCT200", "TAF GMFK 011100Z 0112/0218 05003KT CAVOK", "TAF GMFM 011100Z 0112/0218 32008KT CAVOK TEMPO 0204/0206 16008KT", "TAF GMFO 010500Z 0106/0212 20007KT CAVOK TEMPO 0111/0118 33016KT", "TAF GMME 011100Z 0112/0218 36010KT 5000 SCT015 TEMPO 0112/0118 36014KT 7000 NSC TEMPO 0118/0124 18004KT", "TAF GMMH 011100Z 0112/0218 06016KT 6000 NSC PROB30 TEMPO 0112/0116 4000 SA", "TAF GMMI 011100Z 0112/0218 06012G22KT 8000 NSC PROB30 TEMPO 0112/0118 06020G30KT PROB30 TEMPO 0212/0218 06022G32KT", "TAF GMML 011100Z 0112/0218 04016KT 8000 NSC PROB30 0206/0208 4000 BR BKN010", "TAF GMMN 011100Z 0112/0218 04012KT 9999 SCT016 BECMG 0112/0114 36016KT CAVOK BECMG 0118/0120 04006KT SCT010 PROB40 TEMPO 0202/0206 2000 BR BKN006 BECMG 0210/0214 36016KT CAVOK", "TAF GMMW 011100Z 0112/0218 32012KT CAVOK PROB30 TEMPO 0112/0118 30018G28KT", "TAF GMMX 010500Z 0106/0212 08006KT CAVOK TEMPO 0115/0122 34017KT", "TAF GMMZ 011100Z 0112/0218 09004KT CAVOK TEMPO 0117/0123 35015G25KT", "TAF GMTA 011100Z 0112/0218 32012KT CAVOK", "TAF GMTT 010500Z 0106/0212 VRB02KT 4000 BR NSC BECMG 0106/0109 8000 NSW PROB30 TEMPO 0201/0207 3000 BR", "TAF GOBD 010500Z 0106/0212 02012KT 6000 NSC BECMG 0108/0110 4000 DU", "TAF GOGS 010500Z 0106/0206 28008KT CAVOK", "TAF GOOY 010500Z 0106/0212 36010KT 6000 NSC BECMG 0110/0112 4000 DU", "TAF GOSS 010500Z 0106/0206 04012KT 6000 NSC", "TAF GQNO 010500Z 0106/0212 08012KT 6000 NSC PROB40 TEMPO 0110/0118 4000 BLDU BECMG 0119/0121 02008KT BECMG 0208/0210 09012KT", "TAF GQPP 010500Z 0106/0206 04012KT 6000 NSC", "TAF COR GUCY 011100Z 0112/0218 28008KT 9999 FEW020 SCT0120 PROB30 TEMPO 0204/0208 VRB02KT", "TAF GVAC 011100Z 0112/0218 05015KT 4000 HZ NSC TEMPO 0122/0208 03005KT BECMG 0209/0212 7000 NSW", "TAF GVBA 011100Z 0112/0218 05014KT 4000 HZ NSC BECMG 0121/0123 03004KT BECMG 0208/0211 02015KT 7000 NSW", "TAF GVNP 011100Z 0112/0218 02015KT 7000 NSC TEMPO 0114/0122 4500 HZ", "TAF GVSV 011100Z 0112/0218 06020KT 7000 NSC TEMPO 0114/0122 4500 HZ", "TAF HAAB 010930Z 0112/0218 14006KT 9999 SCT030 SCT090 BECMG 0112/0114 17010KT 8000 RA BKN020", "TAF HADR 010930Z 0112/0218 12007KT 9999 SCT030 SCT090 BECMG 0112/0114 14008KT 8000 RA BKN020", "TAF HBBA 010500Z 0106/0212 36004KT 9999 FEW030 BKN100 BECMG0 108/0110 180008G20KT PROB40 TEMPO0113/0118 09012G25KT 09012G25KT FEW025CB BKN090 BECMG0 202/0204 36003KT 9999 FEW025 SCT080 BECMG0 207/0209 18008G20KT 9999 FEW030 SCT100", "TAF HCMM 010500Z 0106/0212 15008KT 9999 SCT022 BECMG 0200/0203 BKN020", "TAF HDAM 010430Z 0106/0206 08010G15KT 9000 -SHRA/HZ SCT020 SCT030 BECMG 0115/0121 VRB05KT FEW020 FEW266 BECMG 0200/0206 07010KT 8000 SHRA SCT020 FEW030CB BKN133", "TAF HEAL 011100Z 0112/0218 20008KT 9999 FEW020", "TAF HEAR 011100Z 0112/0218 32008KT 6000 SCT025", "TAF HEAT 011100Z 0112/0218 36013KT CAVOK", "TAF HEAX 011100Z 0112/0218 27008KT 9999 FEW020", "TAF HEBA 011100Z 0112/0218 27008KT 9999 FEW020", "TAF HEBL 011100Z 0112/0218 02011KT CAVOK", "TAF HECA 011100Z 0112/0218 05007KT 9999 SCT025 BECMG 0116/0118 7000 NSC TEMPO 0118/0208 VRB02KT 4000 HZ", "TAF HEGN 011100Z 0112/0218 35015KT CAVOK", "TAF HELX 011100Z 0112/0218 34008KT 7000 NSC", "TAF HEMA 011100Z 0112/0218 36012G22KT CAVOK", "TAF HEMM 011100Z 0112/0218 20008KT 9999 FEW020", "TAF HEOW 011100Z 0112/0218 02010KT 6000 NSC", "TAF HEPS 011100Z 0112/0218 07008KT 9999 SCT020", "TAF HESC 011100Z 0112/0218 02008KT CAVOK", "TAF HESG 011100Z 0112/0218 33011KT CAVOK", "TAF HESH 011100Z 0112/0218 01015KT CAVOK", "TAF HESN 011100Z 0112/0218 34010KT CAVOK", "TAF HETB 011100Z 0112/0218 36015KT CAVOK", "TAF HETR 011100Z 0112/0218 30015G25KT 6000 NSC", "TAF HKEL 010500Z 0106/0212 12010KT 9999 FEW022CB SCT023 TEMPO 0114/0118 VRB10KT -TSRA FEW018CB SCT019 BKN080 BECMG 0120/0123 15005KT NSW FEW016 BKN080 BECMG 0206/0210 12010KT FEW022CB BKN023", "TAF HKJK 010500Z 0106/0212 06010KT 9999 BKN026 BECMG 0117/0121 -SHRA FEW023CB BKN080 BECMG 0200/0204 02005KT NSW SCT016 BKN080 BECMG 0207/0210 07010KT FEW025CB BKN070", "TAF HKKI 011100Z 0112/0218 22010KT 9999 FEW024CB SCT025 BKN080 TEMPO 0112/0116 -TSRA BECMG 0120/0123 06005KT NSW FEW018 BKN080 BECMG 0208/0210 22010KT FEW025CB SCT026 BKN080 TEMPO 0212/0216 -TSRA", "TAF HKML 011100Z 0112/0212 16015KT 9999 FEW023CB BECMG 0200/0203 00000KT FEW020 TEMPO 0203/0207 16010KT -SHRA FEW021CB BKN022 BECMG 0210/0214 FEW022CB SCT023", "TAF HKMO 011100Z 0112/0218 13015KT 9999 FEW027CB BECMG 0200/0203 21005KT FEW022 TEMPO 0206/0209 13015KT -SHRA FEW024CB BKN025 BECMG 0213/0216 FEW026", "TAF HKNW 011100Z 0112/0212 08010KT 9999 FEW026CB SCT027 BECMG 0120/0123 01005KT SCT020 BECMG 0208/0210 08010KT SCT026", "TAF HLGD 011100Z 0112/0212 VRB02KT 8000 NSC BECMG 0206/0208 18010KT", "TAF HLGT 011100Z 0112/0212 08010KT CAVOK BECMG 0122/0124 VRB02KT", "TAF HLKF 011100Z 0112/0212 02010KT CAVOK", "TAF HLLB 011100Z 0112/0212 VRB02KT 8000 NSC BECMG 0116/0118 27010KT", "TAF HLLM 011100Z 0112/0212 27014KT 8000 NSC BECMG 0122/0124 14010KT BECMG 0204/0206 05010KT", "TAF HLLQ 011100Z 0112/0212 23012KT 8000 NSC BECMG 0202/0204 18010G20KT", "TAF HLLS 011100Z 0112/0212 VRB02KT CAVOK BECMG 0116/0118 18008KT", "TAF HLMS 011100Z 0112/0212 VRB02KT 8000 NSC BECMG 0204/0206 02010KT", "TAF HLON 011100Z 0112/0212 23012KT 8000 NSC", "TAF HLTD 011100Z 0112/0212 26008KT CAVOK", "TAF HLTQ 011100Z 0112/0212 20012KT 8000 NSC", "TAF HLUB 011100Z 0112/0212 VRB02KT CAVOK", "HRYR 011100Z 0112/0218 10008KT 9999 FEW022CB SCT023 TEMPO 0115/0119 04012KT -TSRA FEW023CB BKN024 BECMG 0123/0203 30004KT NSW SCT025 SCT100 FM020700 19007KT BKN023 BECMG 0213/0216 12010G20KT TSRA FEW023CB BKN025", "HRZA 011100Z 0112/0218 22004KT 9999 TS FEW022CB BKN025 TEMPO 0112/0116 18006KT -TSRA BECMG 0120/0122 00000KT BKN025 TEMPO 0202/0206 08004KT 9000 BECMG 0208/0210 VRB03KT 9999 SCT025 BKN100 BECMG 0212/0214 17008KT -TSRA FEW023CB BKN025", "TAF HSPN 010500Z 0106/0212 34008KT CAVOK BECMG 0109/0111 05008KT", "TAF HSSJ 011100Z 0112/0218 12005KT 9999 FEW040 SCT140 TEMPO 0115/0121 1605G15KT 6000 -SHRA FEW040 SCT030 BKN090 TEMPO 0121/0203 17005KT 9999 FEW030 SCT120 BECMG 0203/0206 18007KT 9999 FEW040 SCT040", "TAF HTAR 011100Z 0112/0212 35005KT 9999 BKN028 FEW030CB BECMG 0114/0118 12010KT SCT34", "TAF HTDA 011100Z 0112/0218 14010KT 9999 SCT025 FEW026CB TEMPO 0112/0116 TSRA BKN022 FEW024CB BECMG 0117/0120 SCT015", "TAF HTDO 011100Z 0112/0212 00000KT 9999 BKN032 FEW034CB PROB30 TEMPO 0118/0123 TS/SHRA", "TAF HTKA 011100Z 0112/0212 30010KT 9999 SCT024 FEW025CB BECMG 0115/0119 00000KT PROB30 TEMPO 0120/0122 -TSRA BECMG 0123/0200 NSW BECMG 0201/0205 12008KT TSRA SCT018 FEW019CB BKN080", "TAF HTKJ 011100Z 0112/0212 09010KT 9999 FEW033CB SCT034 BECMG 0120/0123 BKN024", "TAF HTMW 011100Z 0112/0212 33010KT 9999 FEW024 FEW025CB BECMG 0120/0122 13010KT FEW020 FEW021CB BKN080 BECMG 0203/0205 TS", "TAF HTTB 011100Z 0112/0212 13005KT 9999 SCT020 FEW021CB BKN070 BECMG 0116/0120 TSRA", "TAF HTZA 011100Z 0112/0212 15015KT 9999 SCT020 FEW022CB BECMG 0119/0121 00000KT FEW018 BECMG 0200/0202 24010KT BKN016 FEW018CB BKN070 PROB 30 TEMPO 0203/0210 5000 TSRA", "TAF HUEN 010500Z 0106/0212 18010KT 9999 FEW022 FEW024CB TEMPO0106/0109 8000 -RA SCT020 FEW022CBBKN110 BECMG 0202/006 VRB15KT 6000 TSRA BKN100 TEMPO 0207/0209 9000 -RA SCT020 FEW022CB", "TAF HUSO 010500Z 0106/0206 20004KT 9999 FEW019 BKN100 FM 010900 VRB07KT 9000 TSRA BKN020 FEW022CB BECMG 0202/0206 18004KT 9999 FEW018 BKN100", "KABE 011121Z 0112/0212 20015KT P6SM -SHRA OVC015 FM011500 23018G27KT P6SM BKN045 FM012100 26020G32KT P6SM -SHRA VCTS SCT025CB OVC070 FM020100 29017G25KT P6SM BKN050", "KABI 011120Z 0112/0212 VRB04KT P6SM FEW250 FM011600 06010KT P6SM FEW250 FM012000 14010KT P6SM SCT250", "KABQ 010526Z 0106/0206 VRB05KT P6SM SKC FM011200 04007KT P6SM SKC FM012000 26008KT P6SM FEW250 FM020100 22007KT P6SM FEW250", "KABR 011122Z 0112/0212 33007KT P6SM SKC FM011500 22004KT P6SM FEW250 FM011700 18007KT P6SM FEW250 FM012100 18013KT P6SM FEW250 FM020200 16014G25KT P6SM FEW250 FM021000 19012G23KT P6SM SCT200", "KABY 011120Z 0112/0212 22008KT P6SM SCT006 OVC010 FM011400 22011KT P6SM SCT012 BKN020 OVC200 FM011600 23015G22KT P6SM VCSH SCT025 BKN035 OVC090 TEMPO 0117/0121 4SM TSRA BR BKN025CB OVC030 FM020100 28003KT P6SM SCT250", "KACK 011120Z 0112/0212 20017KT 1/2SM -RA FG OVC003 WS020/23055KT FM011300 21020KT 3/4SM -RA BR OVC003 WS020/23060KT FM012300 22020KT 3/4SM -SHRA BR OVC003 WS020/24055KT FM020000 21017KT 2SM BR OVC003 WS020/24055KT FM020400 23018KT 3SM BR OVC010 FM020600 25018G25KT 5SM BR VCSH BKN025", "KACT 011120Z 0112/0212 24006KT P6SM SCT250 FM011400 35011KT P6SM SCT250 FM011600 03011KT P6SM SCT250 FM020600 11004KT P6SM BKN250", "KACV 010542Z 0106/0206 15015KT 6SM BR VCSH OVC050 WS020/17036KT FM010900 16012G25KT 5SM -RA SCT025 BKN035 OVC050 WS020/20040KT FM011600 20005KT 6SM -SHRA BKN015 OVC025 FM011900 28006KT 6SM -SHRA BKN015 OVC025 FM012200 28005KT P6SM VCSH SCT020 BKN070 FM020200 32004KT P6SM VCSH BKN025 OVC050", "KACY 011121Z 0112/0212 20012KT P6SM VCSH SCT020 OVC050 FM011300 21016G23KT 5SM -SHRA BR OVC015 FM011800 22025G38KT P6SM VCSH SCT010 FM012000 21020G32KT P6SM SCT020 BKN050", "KADF 010528Z 0106/0206 28009KT P6SM SCT250 WS020/28040KT FM011200 32010KT P6SM SCT250 FM020100 VRB04KT P6SM SKC", "TAF AMD KADW 011020Z 0110/0215 22015G25KT 9999 BKN020 530006 QNH2969INS TEMPO 0110/0112 23025G35KT VCTS BECMG 0111/0112 22025G35KT 8000 -SHRA BR BKN015 OVC020 530007 QNH2963INS BECMG 0114/0115 23025G35KT 9999 NSW SCT020 BKN110 530005 QNH2951INS BECMG 0117/0118 31025G40KT 9999 SCT080 BKN110 530005 QNH2937INS BECMG 0201/0202 30025G35KT 9999 SCT100 530056 QNH2963INS BECMG 0206/0207 30015G25KT 9999 SCT030 510102 QNH2976INS BECMG 0211/0212 31012G18KT 9999 SKC 510102 QNH2996INS TX23/0121Z TN08/0205Z", "KAEG 010526Z 0106/0206 VRB06KT P6SM FEW250 FM012100 24007KT P6SM FEW250 FM020100 31006KT P6SM FEW250", "KAEX 010520Z 0106/0206 22012KT P6SM VCSH BKN025 FM010900 26006KT P6SM OVC035 FM011400 30008KT P6SM SKC", "TAF KAFF 311111Z 3111/0117 26025G35KT 9999 FEW120 SCT250 560009 QNH2953INS BECMG 3113/3114 29035G50KT 9999 FEW100 SCT250 570009 QNH2958INS BECMG 0100/0101 32025G35KT 9999 FEW120 SCT250 530002 560207 QNH2984INS BECMG 0102/0103 33015G25KT 9999 FEW120 SCT250 520002 530207 QNH2995INS BECMG 0104/0105 01009KT 9999 FEW120 SCT250 530207 QNH3002INS BECMG 0111/0112 15010KT 9999 FEW120 SCT250 520207 QNH3007INS TX08/3122Z TNM02/3112Z LAST NO AMDS AFT 3111 NEXT 0311", "KAFW 011120Z 0112/0212 30012KT P6SM SCT250 FM011500 01012KT P6SM FEW250 FM020100 09004KT P6SM SCT250 FM021100 14008KT P6SM BKN110", "KAGC 010747Z 0108/0206 23015G25KT P6SM -SHRA BKN035 FM011100 23016G26KT P6SM BKN070 FM012100 27024G37KT 6SM -TSRA OVC025CB FM020200 28015G29KT P6SM BKN017", "KAGS 011120Z 0112/0212 21014G21KT P6SM SCT020 BKN050 TEMPO 0112/0115 BKN020 FM011600 24016G25KT P6SM VCTS SCT025 BKN035CB TEMPO 0116/0119 BKN025CB FM011900 25017G26KT P6SM SCT040 BKN100 FM020100 26015G25KT P6SM SKC FM020700 29005KT P6SM SKC", "KAHN 011120Z 0112/0212 22010G22KT P6SM VCSH BKN020 TEMPO 0113/0115 4SM TSRA BR SCT008 OVC015CB FM011600 26018G28KT P6SM FEW035 FEW250 FM020500 31010KT P6SM SKC", "KAIA 010520Z 0106/0206 32010KT P6SM SCT040 FM011200 27012KT P6SM SKC FM011800 25015G25KT P6SM SCT250 FM012300 22010KT P6SM BKN250", "KALB 011120Z 0112/0212 17010KT 4SM -SHRA BR OVC035 WS020/22040KT TEMPO 0112/0114 2SM -SHRA BR OVC025 FM011500 20013G23KT P6SM VCSH BKN025 FM011700 24014G26KT P6SM SCT050 SCT250 FM012100 23012G22KT P6SM SCT035 BKN100 BKN250 FM012300 28014G24KT 3SM -SHRA BR BKN035 PROB30 0123/0201 28020G40KT 2SM -TSRA BKN025CB OVC035 FM020200 29015G25KT P6SM VCSH BKN025 OVC050 FM020500 31017G30KT P6SM BKN050", "KALI 011127Z 0112/0212 15006KT 1/2SM FG BKN007 TEMPO 0112/0114 1/4SM FG VV002 FM011500 06008KT 5SM BR BKN020 OVC180 FM012000 13012KT P6SM SCT035 OVC150 FM020700 13008KT 3SM BR OVC007 FM020900 04007KT 1 1/2SM BR OVC007", "KALO 011125Z 0112/0212 32023G35KT P6SM BKN015 FM011700 33015G23KT P6SM SCT050 FM020100 VRB03KT P6SM SKC FM020700 15011G20KT P6SM BKN250", "KALS 011128Z 0112/0212 VRB04KT P6SM SKC FM011500 19007KT P6SM SKC FM011900 24015G25KT P6SM FEW200 FM020500 18006KT P6SM SKC", "KALW 011126Z 0112/0212 21009KT P6SM -RA OVC030 TEMPO 0112/0115 -RA OVC025 FM011500 22015G25KT 5SM -RA OVC050 FM012000 22022G32KT P6SM BKN050 BKN100 FM020200 22014G24KT P6SM BKN050 BKN100 FM020600 20012KT P6SM OVC100", "KAMA 011120Z 0112/0212 VRB06KT P6SM FEW250 FM011900 19017G25KT P6SM FEW250", "KANB 011120Z 0112/0212 23010G20KT 5SM TSRA BR OVC018CB FM011500 25011KT P6SM BKN025 FM011700 27012G20KT P6SM SCT050 BKN070 FM011900 27016G27KT P6SM FEW250 FM020100 29010G19KT P6SM FEW250 FM020900 01005KT P6SM FEW250", "KAND 010922Z 0109/0206 21015G24KT P6SM SCT025 BKN060 FM011000 20016G24KT P6SM BKN025 FM011200 22019G31KT P6SM -SHRA OVC014 TEMPO 0112/0115 3SM -TSRA BR OVC008CB FM011500 25016G26KT P6SM VCSH OVC026 FM011700 25017G28KT P6SM SCT100", "KAOO 011125Z 0111/0206 30018G22KT 1 1/2SM +RA BR VCSH FEW010 BKN035 FM011200 23015G24KT P6SM SKC FM011800 24021G42KT P6SM BKN060 FM012000 26022G42KT P6SM VCTS BKN050CB FM012100 30023G42KT P6SM BKN040", "KAPA 011121Z 0112/0212 16008KT P6SM FEW090 FM011300 19007KT P6SM FEW100 FM011700 24010KT P6SM FEW220 FM012100 28012G24KT P6SM SCT220 FM020300 20010KT P6SM FEW220 FM020600 18009KT P6SM FEW220", "KAPC 011125Z 0112/0212 VRB03KT P6SM SCT008 BKN015 BKN250 FM011730 21005KT P6SM BKN020 BKN250 FM012000 20010KT P6SM BKN030 OVC250 FM020000 23013KT P6SM VCSH SCT015 OVC030 FM020600 26008KT P6SM SCT030", "KAPF 011120Z 0112/0212 10007KT P6SM FEW250 FM011400 14010KT P6SM FEW040 FM011600 17011KT P6SM SCT040 FM011800 22012KT P6SM SCT040 FM020100 VRB05KT P6SM FEW250", "KAPN 011127Z 0112/0212 36008KT P6SM OVC010 TEMPO 0112/0116 3SM -SN BR BKN008 FM011600 01020G35KT 4SM -SN BLSN OVC010 FM012100 35015G35KT 6SM BLSN BKN030 FM020200 33005KT P6SM FEW030", "KARA 010520Z 0106/0206 20008KT P6SM BKN010 TEMPO 0110/0114 4SM BR BKN007 FM011500 30007KT P6SM BKN025 BKN150 FM011600 32009KT P6SM SCT100", "KART 011120Z 0112/0212 16008KT P6SM BKN040 FM011400 22022G40KT P6SM SCT250 FM012000 25015G25KT 6SM -SHRA BKN050 FM012300 25015G25KT 6SM -SHRA BR OVC015 FM020300 31017G27KT P6SM BKN025 FM020900 34012G20KT P6SM SCT060", "KASD 010828Z 0108/0206 18008KT P6SM SCT006 BKN015 FM011500 26010KT P6SM BKN025 FM011700 27009KT P6SM FEW110", "KASE 011120Z 0112/0212 20005KT P6SM BKN070 FM011500 20005KT P6SM SCT070 FM012000 24010G22KT P6SM FEW100 FM020300 19009KT P6SM SCT100", "KASN 011120Z 0112/0212 23010G20KT 6SM TSRA BR OVC018CB FM011500 25011KT P6SM BKN025 FM011700 27012G20KT P6SM SCT050 BKN070 FM011900 27016G28KT P6SM FEW250 FM020100 29010G19KT P6SM FEW250 FM020900 01005KT P6SM FEW250", "KAST 010521Z 0105/0206 27008KT P6SM VCSH FEW015 SCT040 OVC070 FM010900 26009KT P6SM -SHRA SCT020 OVC040 FM011100 25009KT P6SM -SHRA BKN019 OVC035 PROB30 0200/0203 4SM TSRAGR BR OVC025CB FM020500 24011KT P6SM -SHRA OVC028", "KATL 011120Z 0112/0218 22018G30KT P6SM -SHRA BKN020 TEMPO 0112/0115 4SM TSRA BR SCT008 OVC015CB FM011600 26020G30KT P6SM FEW035 FEW250 FM020300 30012G20KT P6SM SKC FM021100 32007KT P6SM FEW250", "KATW 011129Z 0112/0212 35010G20KT 3SM -SN OVC012 TEMPO 0112/0114 1 1/2SM -SN OVC005 FM011400 36018G32KT 4SM -SN OVC010 FM011600 01020G33KT P6SM BKN012 FM011900 36017G25KT P6SM SCT022 FM012000 36012G19KT P6SM SCT250 FM020000 09004KT P6SM SKC", "KATY 011122Z 0112/0212 34011KT P6SM SKC FM011800 21005KT P6SM SKC FM012200 18010KT P6SM FEW250 FM020300 16015G21KT P6SM FEW250 FM020700 17022G34KT 6SM BLSN BKN110 WS020/20040KT FM021100 19018G33KT 6SM BLSN SCT200 WS020/23040KT", "KAUG 010909Z 0109/0206 VRB04KT 3/4SM BR OVC002 FM011300 11005KT 1SM -RA BR OVC003 FM012000 VRB04KT 3SM BR BKN003 FM020100 22005KT 1SM BR BKN003", "KAUS 011120Z 0112/0218 30004KT P6SM SCT250 FM011600 04012KT P6SM FEW060 BKN250 FM012200 06004KT P6SM BKN250", "KAUW 011129Z 0112/0212 36014G27KT 1 1/2SM -SN BLSN SCT008 OVC018 TEMPO 0112/0113 3/4SM -SN BKN008 FM011300 01020G39KT 5SM -SN BKN016 FM011500 36019G34KT P6SM BKN022 FM011700 36013G23KT P6SM SCT025 FM012100 07004KT P6SM SKC", "KAVL 010921Z 0109/0206 19014G24KT P6SM FEW025 BKN040 WS020/21040KT FM011000 19017G27KT P6SM VCSH OVC024 TEMPO 0110/0113 4SM -SHRA BR OVC014 FM011300 24011G19KT P6SM VCSH OVC045 FM011600 27018G30KT P6SM SCT220 FM011900 25023G38KT P6SM FEW250 FM012200 32019G29KT P6SM FEW250", "KAVP 011120Z 0112/0212 20012G23KT 5SM -SHRA BR OVC015 WS020/22045KT FM011400 23015G29KT P6SM BKN025 FM011600 24016G30KT P6SM SCT140 TEMPO 0121/0123 26020G38KT 3SM TSRA OVC015CB FM012300 29015G25KT P6SM BKN020 FM020900 31021G29KT P6SM OVC050", "KAXN 010858Z 0109/0206 34010KT P6SM SKC FM011900 23003KT P6SM SKC", "KAZO 011118Z 0112/0212 21012G18KT P6SM BKN035 FM011500 29020G27KT 5SM -SHRA BR BKN015 FM012000 30015G29KT P6SM VCSH OVC005 FM012300 33014G24KT P6SM BKN015 FM020600 33006KT P6SM FEW250", "TAF AMD KBAB 312300Z 3123/0201 18009KT 9999 SCT040 QNH3020INS BECMG 0102/0103 VRB06KT 9999 BKN040 QNH3020INS BECMG 0117/0118 16010G15KT 9999 OVC050 QNH3015INS TX16/3123Z TN06/0113Z LAST NO AMDS AFT 3123 NEXT 0312", "TAF AMD KBAD 010200Z 0102/0202 21010G15KT 9999 BKN070 QNH2984INS TEMPO 0102/0104 VCTS BKN050CB BECMG 0103/0104 24007KT 9999 BKN100 QNH2993INS BECMG 0114/0115 32010KT 9999 FEW250 QNH3002INS TX23/0102Z TN13/0112Z LAST NO AMDS AFT 0102 NEXT 0212", "KBAF 011120Z 0112/0212 18004KT 4SM -RA BR OVC003 WS020/21040KT FM011300 20005KT 2SM -RA BR OVC003 WS020/22040KT FM011500 21008KT 1 1/2SM BR VCSH OVC008 WS020/23040KT FM011600 22009KT 3SM BR VCSH OVC010 FM020000 23010KT 6SM -SHRA BR BKN040 FM020200 28010KT P6SM VCSH OVC045", "KBAM 011120Z 0112/0212 VRB06KT P6SM BKN250 FM011900 24020G30KT P6SM BKN100 FM020200 24010G20KT P6SM SCT060 BKN100 FM020500 24010KT P6SM SCT020 BKN060", "KBBD 011120Z 0112/0212 VRB05KT P6SM SCT250 FM011800 06007KT P6SM BKN250 FM020000 11008KT P6SM BKN250 FM021100 14011KT P6SM BKN035", "KBBG 011120Z 0112/0212 29015G25KT P6SM SKC FM011800 31015KT P6SM SKC FM012100 31012KT P6SM SKC FM020000 VRB04KT P6SM SKC", "KBCB 011024Z 0110/0206 20007G17KT 6SM SHRA BR OVC015 WS020/22045KT TEMPO 0111/0113 27017G27KT 3SM SHRA OVC008 FM011400 25013G28KT P6SM BKN040 FM011800 24021G35KT P6SM SKC FM012000 26022G39KT P6SM SKC FM012300 28022G38KT P6SM SCT045 FM020500 30021G35KT P6SM SCT045", "KBCE 010520Z 0106/0206 29006KT P6SM SKC FM011700 17012KT P6SM SKC FM012100 24014G24KT P6SM SKC FM020100 25009KT P6SM SKC", "KBDL 011120Z 0112/0218 19005KT 4SM -RA BR OVC008 WS020/21040KT FM011400 20008KT 2SM -RA BR OVC008 WS020/22040KT FM011600 21011G20KT 3SM BR VCSH OVC010 FM011800 21012G19KT 6SM BR BKN050 FM020200 26010KT P6SM VCSH OVC050 FM020700 30012G22KT P6SM BKN060", "KBDN 011126Z 0112/0212 21012G22KT P6SM -RA BKN040 TEMPO 0112/0115 -RA BKN015 FM011800 30017G27KT 5SM -RA BKN040 BKN070 FM012200 29017G27KT P6SM BKN040 FM020400 30010G20KT P6SM BKN040 FM020600 26010KT P6SM OVC050", "KBDR 010848Z 0109/0206 20009KT 5SM -SHRA BR SCT010 OVC025 FM011000 20014KT 3SM SHRA BR OVC009 FM011100 21016G25KT 3SM SHRA BR OVC009 WS020/22040KT FM012000 21020G31KT P6SM SCT008 SCT050 FM020000 23018G28KT 5SM -SHRA BR SCT010 SCT030 BKN050 PROB30 0200/0202 25022G35KT 3SM TSRA BKN010CB FM020400 29019G30KT P6SM VCSH OVC040", "KBED 011120Z 0112/0212 15003KT 1/2SM -RA FG OVC003 FM011400 21006KT 2SM -RA BR OVC003 FM011600 22009KT 2SM -RA BR OVC008 FM011800 23010G20KT 3SM BR VCSH OVC015 FM020100 21007KT 5SM BR VCSH BKN020 FM020700 29013G21KT P6SM BKN050", "KBFD 011029Z 0110/0206 27012G22KT P6SM -SHRA FEW009 OVC045 WS015/23047KT FM011200 23012G22KT P6SM SKC FM011700 25012G27KT P6SM BKN060 FM011900 26024G44KT P6SM VCTS BKN045CB FM012000 27018G36KT P6SM OVC020 FM012300 29017G32KT 3SM -SHSN OVC015", "KBFF 010520Z 0106/0206 31015G25KT P6SM BKN100 FM011200 30010KT P6SM SCT100 FM011700 28015G25KT P6SM SCT250 FM020100 24012KT P6SM BKN250", "KBFI 010540Z 0106/0206 17010KT P6SM -SHRA SCT022 BKN035 OVC050 FM011300 17010KT P6SM -SHRA BKN022 OVC035 FM011900 20012G20KT P6SM -SHRA SCT025 BKN035 BKN050", "KBFL 011120Z 0112/0212 03005KT P6SM SKC", "KBFM 010540Z 0106/0206 17005KT 6SM BR OVC006 FM011400 22007KT P6SM OVC013 FM011800 26010KT P6SM BKN035 OVC250 FM020100 32004KT P6SM SCT250", "KBGM 011120Z 0112/0212 19012G21KT 5SM -SHRA BR OVC007 WS020/21040KT FM011400 21015G24KT P6SM SCT200 TEMPO 0121/0123 26020G40KT 2SM TSRA OVC015CB FM012300 26017G30KT 5SM -SHRA BR OVC025 FM020300 29018G30KT 5SM BR OVC013", "KBGR 011120Z 0112/0212 11008KT 3SM BR VCSH OVC008 FM011800 18007KT 6SM BR VCSH OVC005 FM012200 22007KT P6SM BKN016 FM020500 31005KT 6SM BR VCSH OVC008 WS003/31030KT FM020600 32007KT 6SM BR VCSH OVC010 FM020900 32017G31KT 6SM BR VCSH OVC021", "KBHB 011120Z 0112/0212 12009KT 3SM BR VCSH OVC004 FM011800 19009KT 4SM -RA BR OVC003 FM012100 23008KT P6SM BKN010 FM020500 26004KT 6SM BR VCSH OVC004 FM020700 33008KT 6SM BR VCSH OVC012 FM021000 33018G35KT 6SM BR VCSH BKN024", "KBHM 011120Z 0112/0212 23011KT 4SM SHRA VCTS OVC025CB TEMPO 0112/0113 4SM TSRA SCT015CB OVC025 FM011600 27013G22KT P6SM SCT050 BKN070 FM012300 29012KT P6SM FEW250 FM020200 32009KT P6SM FEW250 FM020600 VRB04KT P6SM FEW250", "TAF KBIF 010600Z 0106/0212 27009KT 9999 FEW250 QNH3012INS BECMG 0120/0121 22010G15KT 9999 SKC QNH2996INS BECMG 0201/0202 27009KT 9999 SKC QNH2995INS TX27/0123Z TN06/0112Z", "KBIH 011122Z 0112/0212 VRB05KT P6SM FEW250 FM011700 17011KT P6SM SCT250 FM012300 25009KT P6SM SCT250 FM020300 34008KT P6SM FEW250", "KBIL 011120Z 0112/0212 23011KT P6SM FEW060 OVC080 FM012000 27017G24KT P6SM SCT060 BKN100", "KBIS 010546Z 0106/0206 VRB05KT P6SM VCFG SCT100 FM011500 18012KT P6SM FEW250 FM020400 16010KT P6SM BKN150", "TAF KBIX 010200Z 0102/0208 18009KT 8000 BR BKN007 BKN025 QNH3001INS TEMPO 0108/0114 OVC005 BECMG 0114/0115 23012G18KT 8000 -SHRA SCT005 BKN012 QNH2996INS TEMPO 0115/0118 26018G25KT 4800 -TSRA BKN012CB OVC019 BECMG 0118/0119 24009KT 9000 BR FEW020 BKN200 QNH3002INS TX28/0120Z TN20/0112Z LAST NO AMDS AFT 0104 NEXT 0112", "KBJC 011121Z 0112/0212 VRB06KT P6SM SCT080 FM011500 24009KT P6SM FEW080 FM011700 27010G18KT P6SM FEW220 FM012000 27013G25KT P6SM SCT220 FM020300 22009KT P6SM FEW220 FM020700 25008KT P6SM FEW220", "KBJI 011120Z 0112/0212 34005KT P6SM FEW250 FM011900 20005KT P6SM FEW250 FM012100 20008KT P6SM SKC FM020400 18011KT P6SM SCT250 FM020800 17014G21KT P6SM BKN200", "KBKE 011126Z 0112/0212 13008KT 4SM -SHRASN BR OVC020 FM011700 28015G25KT 4SM -SHRASN BR OVC020 FM012000 32012KT P6SM VCSH OVC050 FM020300 VRB06KT P6SM SCT040 BKN080", "TAF KBKF 010900Z 0109/0215 VRB06KT 9999 SKC 520053 QNH2992INS BECMG 0122/0123 24010G15KT 9999 SKC 520073 QNH2985INS BECMG 0201/0202 VRB06KT 9999 SKC 520063 QNH2984INS BECMG 0202/0203 VRB06KT 9999 SKC 530054 QNH2979INS BECMG 0208/0209 VRB06KT 9999 SKC 510063 QNH2973INS BECMG 0212/0213 VRB06KT 9999 SKC 530065 QNH2974INS BECMG 0214/0215 VRB06KT 9999 SKC 510053 QNH2978INS TX14/0122Z TNM02/0111Z", "KBKW 011120Z 0112/0212 28015G20KT P6SM BKN030 OVC050 TEMPO 0112/0114 3SM -SHRA BR OVC025 FM011400 30018G30KT P6SM VCSH SCT110 FM011600 28027G51KT P6SM SKC FM012300 28023G42KT P6SM SCT040 FM020200 29020G38KT P6SM BKN021 FM020700 30019G30KT P6SM BKN016", "KBLF 010906Z 0109/0206 19010G20KT P6SM -SHRA SCT030 OVC060 TEMPO 0109/0111 27021G35KT 3SM TSRA OVC015CB FM011200 24013G28KT P6SM OVC040 FM011900 27024G43KT P6SM SCT050 FM012300 29023G40KT P6SM BKN045 FM020100 29022G37KT P6SM BKN025", "KBLH 010520Z 0106/0206 33004KT P6SM FEW200 SCT250 FM011700 03004KT P6SM FEW200 FM012300 VRB05KT P6SM SKC", "KBLI 010540Z 0106/0206 18012G20KT P6SM BKN022 BKN040 FM011000 18012KT P6SM SCT025 BKN045 FM011900 18014G24KT P6SM -SHRA SCT025 BKN035 BKN050", "TAF AMD KBLV 010840Z 0108/0214 22015G25KT 9999 SKC QNH2948INS BECMG 0110/0111 27030G40KT 9999 SCT040 520003 QNH2964INS BECMG 0116/0117 29025G35KT 9999 BKN040 510003 QNH2987INS BECMG 0117/0118 30020G30KT 9999 BKN040 QNH2990INS BECMG 0120/0121 31012G20KT 9999 SCT030 QNH2997INS BECMG 0200/0201 VRB06KT 9999 SKC QNH3003INS TX16/0122Z TN02/0208Z", "KBMG 011120Z 0112/0212 17010G20KT P6SM SKC FM011400 27026G40KT P6SM BKN022 FM012000 30016G26KT P6SM BKN025 FM020100 31012KT P6SM BKN040", "KBMI 010520Z 0106/0206 27011KT P6SM SKC FM010800 26015G25KT P6SM BKN050 FM011000 26020G30KT P6SM BKN050 FM011200 26026G42KT P6SM VCSH OVC015 FM011800 31022G32KT P6SM OVC023 FM012100 33016G26KT P6SM BKN040 FM020100 33008KT P6SM SKC", "KBNA 010919Z 0109/0206 23005KT P6SM SCT070 FM011500 29020G31KT P6SM SKC FM020200 33008KT P6SM SKC", "KBNO 011126Z 0112/0212 21008KT 1SM -SN BR OVC015 FM011600 24015G25KT 2SM -SN BR OVC025 TEMPO 0118/0120 1SM -SNRA BR OVC010 FM012100 26015G25KT P6SM OVC040 FM020200 25008KT P6SM BKN050", "KBOI 011126Z 0112/0212 VRB06KT 6SM -RA BR OVC035 TEMPO 0114/0117 3SM -RA BR OVC025 FM011800 31012G22KT 6SM -SHRA BR OVC035 TEMPO 0120/0124 2SM -SHRASN BR OVC015 FM020100 32006KT P6SM VCSH SCT040 OVC080 PROB30 0208/0212 2SM -SHSN BR OVC015", "KBOS 011120Z 0112/0218 17005KT 1/2SM -RA FG OVC003 FM011400 21009KT 2SM -RA BR OVC003 WS020/22040KT FM011800 23014G22KT 3SM BR VCSH OVC010 FM020100 22010KT 6SM BR BKN020 FM020400 26011KT P6SM OVC045 FM020800 30017G25KT P6SM BKN050", "KBPI 011120Z 0112/0212 07006KT P6SM OVC050 FM011700 17010KT P6SM SCT035 BKN050 FM012100 25015G25KT P6SM VCSH SCT025 OVC040 FM020200 28012G20KT 2SM -SN SCT012 OVC020", "KBPK 010528Z 0106/0206 24009KT P6SM SCT060 WS020/26045KT FM011000 28010KT P6SM SKC FM011700 31013G22KT P6SM SKC FM020100 VRB04KT P6SM SKC", "KBPT 010520Z 0106/0206 21008KT 5SM BR VCSH OVC007 TEMPO 0108/0112 4SM BR BKN003 FM011400 32008KT P6SM SCT150 FM012300 VRB04KT P6SM SCT250", "KBRD 011124Z 0112/0212 35009KT P6SM FEW250 TEMPO 0112/0114 35011G15KT FM020800 17011G17KT P6SM BKN200 FM021000 16012G18KT P6SM BKN100 WS020/19040KT", "KBRL 011129Z 0112/0212 26020G33KT 5SM -RASN OVC025 FM011300 30022G37KT P6SM OVC015 FM011800 32018G29KT P6SM BKN040 FM020000 32008KT P6SM SKC FM020800 14005KT P6SM SKC", "KBRO 011120Z 0112/0212 14009KT 6SM BR BKN020 FM011400 13008KT 6SM BR HZ BKN025 FM011700 14009KT P6SM BKN035 BKN250 FM020300 10011KT P6SM BKN015", "KBTL 011118Z 0112/0212 23012G18KT P6SM BKN035 FM011300 24008KT P6SM -RA OVC040 FM011400 26011G25KT P6SM -RA BKN024 FM011500 27013G28KT 4SM BR VCSH BKN012 FM020100 34013KT P6SM BKN021 FM020500 33008KT P6SM SCT025", "KBTM 011120Z 0112/0212 19005KT P6SM SCT050 BKN070 FM011700 22018G26KT P6SM SCT070 OVC120 FM012200 27020G28KT 4SM -SN OVC025 TEMPO 0122/0124 1SM -SN BR OVC015 FM020200 32020G28KT P6SM -SN OVC050 FM020400 27011KT P6SM OVC050", "KBTR 011001Z 0110/0206 24010KT P6SM SCT015 OVC025 TEMPO 0110/0114 3SM SHRA OVC012 FM011600 28008KT P6SM SCT025 BKN050", "KBTV 011126Z 0112/0212 20004KT 5SM RA BR OVC009 FM011300 17012G18KT 6SM -SHRA BR OVC015 FM011500 18012G21KT P6SM VCSH OVC016 WS020/22040KT FM011700 20014G24KT P6SM SCT070 FM012300 26008KT 5SM BR VCSH OVC040 FM020200 32010G19KT P6SM OVC025 FM020800 33017G25KT P6SM BKN025", "KBUF 011120Z 0112/0212 23025G40KT P6SM SKC FM011800 25020G35KT 6SM -SHRA OVC050 TEMPO 0119/0121 3SM TSRA BKN035CB FM012200 27022G32KT P6SM VCSH BKN007 FM020300 32018G28KT P6SM BKN015 FM020800 33012G22KT P6SM SCT040 SCT250", "KBUR 011120Z 0112/0212 VRB03KT P6SM BKN200 FM012100 17008KT P6SM BKN200 FM020400 VRB03KT P6SM BKN200 FM021000 VRB03KT P6SM BKN015", "KBVI 010835Z 0109/0206 23010G25KT 6SM -SHRA OVC016 FM011100 23016G26KT P6SM BKN070 FM012100 27024G37KT 6SM -TSRA OVC025CB FM020200 28015G29KT P6SM BKN017", "KBVO 011120Z 0112/0212 VRB03KT P6SM SKC FM011400 32011G20KT P6SM SKC FM012000 33011KT P6SM FEW250 FM020100 VRB03KT P6SM FEW250", "KBWG 011120Z 0112/0212 25017G27KT P6SM FEW050 WS020/24050KT FM011400 26024G34KT P6SM FEW040 FM011700 28018G29KT P6SM SCT040 FM012200 30015G21KT P6SM BKN040 FM020100 29007KT P6SM FEW040 FM020400 VRB03KT P6SM SKC", "KBWI 011126Z 0112/0218 21020G34KT 6SM SHRA BR BKN020 OVC030 WS020/21055KT FM011600 22018G31KT P6SM BKN035 FM012200 25024G44KT 6SM SHRA BR SCT050 BKN120 FM020000 27025G48KT P6SM BKN120 FM020300 29025G40KT P6SM SCT150 FM020900 31018G32KT P6SM SCT150 FM021400 31015G24KT P6SM SCT150", "KBYI 011120Z 0112/0212 19015G25KT P6SM BKN100 FM011800 23020G30KT P6SM -SHRA SCT020 OVC050 FM020100 26020G30KT 6SM -RASN SCT015 OVC040 FM020400 27016KT P6SM VCSH SCT025 OVC035", "KBZN 010541Z 0106/0212 15007G11KT P6SM BKN050 FM020000 24029G46KT 5SM -SHRASN BR BKN050 FM020300 23018G31KT 6SM -SHSN BLSN OVC050", "KCAE 011120Z 0112/0212 22013G20KT P6SM SCT025 BKN050 TEMPO 0112/0115 BKN020 FM011600 22016G25KT P6SM VCTS SCT025 BKN035CB TEMPO 0116/0119 BKN020CB FM011900 24019G28KT P6SM SCT040 BKN100 FM020100 27014G22KT P6SM SKC FM020600 29005KT P6SM SKC", "KCAK 010907Z 0109/0206 22010KT P6SM OVC100 FM011100 22012G20KT P6SM SCT035 FM011600 25023G41KT P6SM -SHRA VCTS SCT025 BKN050CB TEMPO 0117/0118 2SM TSRA OVC025CB FM012000 27023G37KT P6SM -SHRA OVC025 FM020200 32013G23KT P6SM OVC015", "KCAR 011120Z 0112/0212 15011G20KT P6SM OVC012 FM011300 14012G22KT 2SM -SN BR OVC007 FM012200 17006KT 6SM BR VCSH OVC003 FM020400 26010G19KT P6SM BKN009 FM020700 30013G24KT P6SM BKN015 FM021000 31020G35KT P6SM BKN029", "TAF AMD KCBM 312130Z 3121/0123 17010G15KT 9999 OVC030 QNH2984INS BECMG 0100/0101 19010G15KT 4800 SHRA VCTS OVC020CB WS020/20045KT 651404 QNH2978INS TEMPO 0101/0105 24020G30KT 0400 +TSRA OVC010CB BECMG 0104/0105 24010G15KT 4800 SHRA VCTS OVC020CB WS020/24045KT 651404 QNH2976INS TEMPO 0106/0108 27025G35KT 0200 +TSRA OVC010CB BECMG 0108/0109 24009KT 9999 NSW SCT030 QNH2983INS BECMG 0114/0115 28015G25KT 9999 SKC QNH2992INS BECMG 0121/0122 32012KT 9999 SKC QNH2994INS TX27/3121Z TN15/0111Z LAST NO AMDS AFT 3121 NEXT 0215", "KCDC 010520Z 0106/0206 19004KT P6SM SKC FM011800 22012G22KT P6SM SKC FM020100 19008KT P6SM SKC", "KCDR 010520Z 0106/0206 27003KT P6SM SCT020 BKN050 FM011200 26010KT P6SM SCT250 FM020100 22007KT P6SM BKN250", "KCDS 011120Z 0112/0212 31010KT P6SM FEW250 FM011800 16010KT P6SM FEW250", "KCEC 011005Z 0110/0206 17023G35KT 4SM -RA FEW017 BKN025 OVC030 WS020/19045KT TEMPO 0110/0113 2SM -RA FEW009 BKN025 FM011300 20008KT 5SM -SHRA BKN020 OVC035 FM011700 20005KT 5SM HZ VCSH SCT020 BKN050 OVC080 FM012000 24009KT 5SM HZ VCSH SCT025 BKN045 OVC060 FM020200 18007KT 5SM -SHRA SCT015 BKN025 OVC045", "TAF KCEF 010015Z 0100/0206 VRB03KT 4800 -RA SCT005 SCT015 OVC025 WS017/18034KT 620807 520055 QNH2992INS TEMPO 0100/0103 SCT005 OVC015 BECMG 0102/0103 00000KT 1600 BR OVC005 WS020/23030KT 620903 520104 QNH2967INS BECMG 0109/0110 18007KT 1600 -RA BR OVC005 WS013/20036KT 520055 QNH2953INS BECMG 0112/0113 17010G16KT 1600 -RA BR OVC005 WS012/22032KT 520055 QNH2938INS BECMG 0116/0117 22010G18KT 9999 NSW SCT010 SCT040 520105 QNH2925INS BECMG 0122/0123 22010G15KT 9999 FEW010 SCT050 520055 QNH2922INS TEMPO 0123/0201 24030G50KT 0800 +TSRAGR BKN010CB OVC040 BECMG 0200/0201 27010G15KT 9000 -SHRA SCT050 BKN080 QNH2923INS BECMG 0202/0203 29010G18KT 9999 NSW BKN030 520055 QNH2924INS BECMG 0204/0205 29012G22KT 9999 BKN018 OVC040 520055 QNH2926INS TX17/0121Z TN03/0101Z LAST NO AMDS AFT 0103 NEXT 0112", "KCGI 011120Z 0112/0212 25022G37KT P6SM FEW060 FM011400 28020G34KT P6SM SKC FM011700 30017G29KT P6SM FEW060 FM012100 31015KT P6SM FEW060 FM020000 32008KT P6SM SKC", "KCHA 011120Z 0112/0212 20009KT P6SM SCT060 FM011500 23015G30KT P6SM SKC FM011700 25020G35KT P6SM SKC FM012300 29015G30KT P6SM SKC FM020200 32012KT P6SM SKC FM020400 35008KT P6SM SKC", "KCHO 011126Z 0112/0212 21017G30KT 6SM SHRA BR OVC020 WS020/21055KT FM011600 22017G34KT P6SM BKN050 FM012200 25021G42KT P6SM SCT050 SCT200 FM020300 28015G30KT P6SM FEW200 FM021000 31010G18KT P6SM FEW200", "KCHS 011125Z 0112/0212 21015G23KT P6SM FEW015 BKN200 FM011430 22019G28KT P6SM FEW040 BKN150 FM011700 22021G30KT P6SM FEW040 SCT100 FM011900 22022G30KT P6SM VCSH SCT040 BKN080 TEMPO 0120/0122 3SM TSRA BR SCT040CB OVC060 FM012200 24016G24KT P6SM SCT040 OVC080 FM020200 24011KT P6SM SCT250 FM020700 28009KT P6SM FEW250", "KCID 011129Z 0112/0212 27019G27KT P6SM BKN009 OVC015 FM011400 32023G37KT P6SM OVC020 FM011700 32021G34KT P6SM BKN070 FM012300 32011KT P6SM SKC FM020500 09005KT P6SM SKC", "KCIU 011127Z 0112/0212 06011G19KT 1SM -SN OVC005 TEMPO 0112/0116 1/4SM +SN BLSN OVC003 FM011600 36025G35KT 3SM -SN BLSN BKN025 FM011900 35020G35KT 6SM BLSN FEW030 FM020100 31005KT P6SM SKC", "KCKB 011120Z 0112/0212 28012G28KT 6SM -SHRA BKN060 OVC090 WS020/23050KT TEMPO 0112/0114 4SM -SHRA BR OVC025 FM011700 25024G46KT P6SM SKC FM012300 27020G39KT P6SM SCT035 FM020500 29013G28KT P6SM BKN040 FM020900 31012G19KT P6SM BKN015", "KCKV 010943Z 0110/0206 23009KT P6SM SKC FM011600 29022G32KT P6SM SKC FM020200 33007KT P6SM SKC", "KCLE 010907Z 0109/0212 23012G20KT P6SM SCT050 FM011500 22022G40KT P6SM -SHRA VCTS SCT025 OVC050CB TEMPO 0116/0117 2SM TSRA OVC025CB FM011900 27023G37KT P6SM -SHRA OVC025 FM020100 31016G27KT P6SM BKN015 FM020800 34011G19KT P6SM SCT035", "KCLL 011120Z 0112/0212 VRB04KT 5SM BR SCT020 BKN250 TEMPO 0112/0113 1/2SM FG FM011500 01009KT P6SM SCT250 FM020100 04005KT P6SM BKN250 FM020600 07006KT P6SM BKN200", "KCLM 010540Z 0106/0206 VRB03KT P6SM SCT006 BKN045 FM011100 29008KT P6SM BKN045 FM012200 29008KT P6SM -SHRA BKN035 BKN050", "KCLT 011012Z 0110/0212 19012G18KT P6SM BKN021 OVC080 FM011300 22015G25KT 6SM -SHRA BR BKN020 TEMPO 0113/0116 3SM TSRA BR SCT007 OVC017CB FM011600 22018G29KT P6SM VCSH BKN023 FM011700 23018G29KT P6SM BKN035 FM012100 25022G35KT P6SM FEW060 FM020300 29009KT P6SM SKC", "KCMA 011120Z 0112/0212 VRB03KT P6SM BKN200 FM012000 23008KT P6SM BKN200 FM020300 VRB03KT P6SM BKN200", "KCMH 011120Z 0112/0212 19010KT P6SM FEW120 FM011400 22022G36KT P6SM SKC FM011600 24027G45KT P6SM SCT050 FM011800 27027G45KT P6SM VCSH BKN035 FM012000 26023G34KT 6SM -SHRA BKN025 FM012300 28018G28KT P6SM VCSH BKN015 FM020200 29016G24KT P6SM VCSH BKN015 FM020500 33010KT P6SM BKN015", "KCMI 010520Z 0106/0206 27012KT P6SM SKC FM011000 25020G30KT P6SM SCT060 FM011200 26025G40KT P6SM SCT040 FM011400 27028G42KT P6SM VCSH BKN018 FM011900 31025G36KT P6SM BKN019 FM012300 32015G25KT P6SM BKN035 FM020300 33011KT P6SM BKN035", "KCMX 011120Z 0112/0212 03016G40KT P6SM SCT100 FM011600 02017G31KT P6SM FEW220 FM011900 02012G21KT P6SM SKC FM012100 02008KT P6SM SKC FM020000 VRB04KT P6SM SKC FM021000 19007KT P6SM FEW230", "KCNM 011120Z 0112/0212 34006KT P6SM BKN250 FM012100 16011G20KT P6SM BKN250", "KCNU 011120Z 0112/0212 30017G25KT P6SM SKC FM011600 31012KT P6SM SKC FM012300 05008KT P6SM SKC FM020300 15004KT P6SM SKC", "KCNY 011120Z 0112/0212 15008KT P6SM SKC FM012000 22014G23KT P6SM SKC FM020500 21010KT P6SM SKC", "KCOD 011120Z 0112/0212 24012G20KT P6SM SCT120 BKN200 FM011700 24015G25KT P6SM FEW100 BKN120 FM012100 23020G35KT P6SM FEW060 BKN100 FM020300 25012G20KT 3SM -SN SCT018 OVC030 FM020600 30025G35KT P6SM SCT040 SCT090", "KCOE 010520Z 0106/0206 21011KT P6SM VCSH BKN025 FM010800 19012KT 5SM -RA BR OVC015 TEMPO 0113/0116 2SM -RASN BR OVC010 FM011600 23017G26KT 3SM -RASN BR OVC015 FM012000 24017G26KT P6SM VCSH BKN040 OVC070", "TAF KCOF 010200Z 0102/0208 16012KT 9999 FEW030 SCT150 QNH3012INS BECMG 0109/0110 18008KT 9999 FEW030 SCT150 QNH3006INS BECMG 0119/0120 22010KT 9999 VCSH SCT020 BKN100 QNH3003INS BECMG 0121/0122 25010KT 9999 VCSH SCT020 BKN100 QNH3003INS TEMPO 0122/0200 25010G15KT 3600 -SHRA BKN015 BKN100 BECMG 0200/0201 26010KT 9999 NSW BKN030 QNH3003INS TX29/0118Z TN21/0109Z LAST NO AMDS AFT 0104 NEXT 0310", "KCON 010909Z 0109/0206 VRB03KT 3SM BR OVC003 FM011000 06006KT 1/2SM -RA FG OVC003 FM011300 VRB03KT 2SM -RA BR OVC008 FM011900 23010KT 5SM BR SCT015 BKN030 FM020000 25009KT P6SM VCSH SCT025 BKN035 TEMPO 0201/0203 2SM TSRA OVC025CB", "KCOS 011128Z 0112/0212 05005KT P6SM SKC FM011500 16009KT P6SM SKC FM011900 19015G28KT P6SM SKC FM020400 03008KT P6SM SKC", "KCOT 011128Z 0111/0212 VRB06KT P6SM OVC003 TEMPO 0112/0115 1SM BR OVC003 FM011500 09010KT P6SM VCSH BKN050 FM011900 11007KT P6SM BKN250 FM020800 12008KT 6SM BR OVC015", "KCOU 010901Z 0109/0206 29025G40KT P6SM BKN035 FM011700 30018G28KT P6SM SCT100 FM020100 VRB04KT P6SM SKC", "KCPR 011120Z 0112/0212 22018G26KT P6SM FEW100 BKN200 FM011700 23030G45KT P6SM FEW100 BKN150 FM021000 25020G32KT P6SM FEW080 SCT120", "KCPS 010520Z 0106/0206 24012G22KT P6SM SKC FM011000 27022G35KT P6SM SKC FM011400 28028G41KT P6SM SCT045 FM011800 31018G30KT P6SM BKN035 FM020000 34008KT P6SM SKC FM020400 VRB04KT P6SM SKC", "KCRE 011120Z 0112/0212 21015G24KT P6SM BKN035 FM011600 21023G36KT P6SM BKN040 FM012000 22019G30KT P6SM VCSH BKN030 FM012300 22017G25KT P6SM SCT060 FM020400 25013G20KT P6SM SKC FM020700 31010KT P6SM SKC", "KCRG 010523Z 0106/0206 19008KT P6SM SCT250 FM011400 22012G18KT P6SM FEW030 BKN250 FM011700 23017G26KT P6SM SCT050 BKN250", "KCRP 011127Z 0112/0212 VRB05KT 5SM BR OVC005 TEMPO 0112/0113 1SM BR FM011600 07008KT P6SM BKN030 FM011900 12012KT P6SM BKN070 FM020500 13009KT P6SM BKN050 FM020700 14011KT 4SM BR OVC007", "KCRQ 011127Z 0112/0212 VRB04KT P6SM FEW012 SCT200 TEMPO 0112/0114 BKN012 FM012000 26009KT P6SM FEW200 FM020200 VRB04KT P6SM FEW200 FM021000 VRB04KT P6SM BKN012", "KCRW 011120Z 0112/0212 31008KT P6SM VCSH SCT110 WS020/23050KT FM011500 29021G36KT P6SM SKC FM011700 28026G48KT P6SM FEW210 FM012200 27021G41KT P6SM BKN045 FM020500 28012G27KT P6SM BKN050 FM020700 29012G19KT P6SM BKN024", "KCSG 011120Z 0112/0212 22010G20KT P6SM VCSH FEW008 OVC015 FM011400 24015G25KT P6SM SHRA BKN015 TEMPO 0115/0117 4SM TSRA BR SCT008 OVC015CB FM011800 27015G23KT P6SM FEW035 FEW250 FM012300 31009KT P6SM FEW250", "KCSM 011120Z 0112/0212 02012KT P6SM SCT250 FM011900 12009KT P6SM BKN250 FM020700 16013KT P6SM SKC", "KCSV 010745Z 0108/0206 19013G28KT P6SM SCT030 TEMPO 0108/0109 19025G35KT 2SM +TSRA OVC015CB FM010900 25010G18KT P6SM BKN040 FM020400 32010KT P6SM SKC", "KCTB 010541Z 0106/0206 22014G23KT P6SM BKN250 FM011900 24021G32KT P6SM SCT090 PROB30 0121/0122 4SM -SHSNRA BR OVC025 FM012300 25030G44KT P6SM FEW130 FM020500 26020G33KT P6SM SCT250", "KCUB 011120Z 0112/0212 22012G20KT P6SM SCT025 BKN050 TEMPO 0112/0115 BKN020 FM011600 22013G22KT P6SM VCTS SCT025 BKN035CB TEMPO 0116/0119 BKN020CB FM011900 24018G26KT P6SM SCT040 BKN100 FM020100 27014G22KT P6SM SKC FM020600 29005KT P6SM SKC", "KCVG 011120Z 0112/0218 21014KT P6SM SKC WS020/23050KT FM011300 22018G28KT P6SM SKC WS020/23050KT FM011500 24022G40KT P6SM SCT050 FM011700 26022G40KT P6SM BKN040 FM012000 27022G32KT P6SM VCSH BKN025 FM012300 29015G25KT P6SM VCSH BKN025 FM020400 31012KT P6SM BKN025 FM020600 32008KT P6SM BKN035", "TAF AMD KCVS 010600Z 0106/0208 28012KT 9999 SKC QNH3001INS BECMG 0111/0112 26009KT 9999 SKC QNH3017INS BECMG 0117/0118 23010G20KT 9999 SKC QNH3004INS BECMG 0201/0202 21009KT 9999 SKC QN2995INS TX21/0121Z TNM01/0113Z LAST NO AMDS AFT 0106Z NEXT 0118Z", "KCWA 011129Z 0112/0212 36010G24KT 1 1/2SM -SN BLSN SCT008 OVC018 TEMPO 0112/0113 3/4SM -SN BKN008 FM011300 01020G39KT 5SM -SN BKN016 FM011500 36019G34KT P6SM BKN022 FM011700 36013G23KT P6SM SCT025 FM012100 07004KT P6SM SKC", "KCXO 011120Z 0112/0212 VRB03KT 4SM BR FEW025 TEMPO 0112/0113 1/2SM FG FM011500 35006KT P6SM BKN250 FM011800 01009KT P6SM SCT250 FM020200 VRB04KT P6SM BKN250", "KCXP 011120Z 0112/0212 24009KT P6SM BKN220 WS005/24035KT FM011900 23012G21KT P6SM FEW060 BKN220 FM020000 26011G18KT P6SM BKN050", "KCYS 010520Z 0106/0206 30015G25KT P6SM SKC FM010800 30025G35KT P6SM SCT150 FM011400 25020G30KT P6SM SCT250 FM011700 25025G35KT P6SM SCT150", "TAF KDAA 312000Z 3120/0202 20010G15KT 9999 OVC070 QNH3001INS BECMG 0100/0101 21009KT 9999 BKN015 OVC025 WS020/22045KT 520203 QNH3001INS BECMG 0109/0110 20012KT 9000 -SHRA OVC015 530204 QNH2963INS BECMG 0114/0115 21010G20KT 9999 NSW SCT020 SCT085 OVC120 520203 QNH2961INS BECMG 0116/0117 22015G25KT 9999 FEW110 520062 QNH2939INS BECMG 0121/0122 21012KT 9999 FEW100 530054 QNH2934INS BECMG 0200/0201 30020KT 9000 -SHRA FEW050 BKN075 OVC100 530054 QNH2953INS TX23/0120Z TN16/0110Z LAST NO AMDS AFT 0101 NEXT 0312", "KDAB 011127Z 0112/0212 21005KT P6SM BKN250 FM011500 21010G18KT P6SM SCT040 BKN250 FM020100 23008KT P6SM FEW060 BKN250 FM020800 27004KT P6SM OVC015", "KDAG 011122Z 0112/0212 30007KT P6SM SCT250 FM012200 27012KT P6SM FEW250 FM020300 25016G25KT P6SM SKC", "KDAL 011120Z 0112/0212 30012KT P6SM SCT250 FM011500 01012KT P6SM FEW250 FM020100 09004KT P6SM SCT250 FM021100 13008KT P6SM BKN110", "KDAN 010856Z 0109/0206 21010G20KT P6SM OVC045 FM011000 23015G28KT P6SM VCSH OVC035 TEMPO 0113/0115 4SM SHRA OVC025 FM011700 23016G30KT P6SM BKN035 FM020000 27024G43KT P6SM SCT050 FM020300 29018G30KT P6SM SKC", "KDAY 011120Z 0112/0212 20013KT P6SM SKC WS020/22050KT FM011300 24022G32KT P6SM SKC WS020/22050KT FM011500 26026G42KT P6SM BKN045 FM011700 26026G42KT P6SM VCSH OVC025 FM012000 26022G34KT 6SM -SHRA BKN015 FM012300 29020G30KT P6SM VCSH BKN015 FM020300 30012KT P6SM BKN015 FM020500 33008KT P6SM BKN015", "KDBQ 011129Z 0112/0212 24016KT 2SM -SN BR OVC006 FM011300 36025G42KT P6SM OVC018 FM011800 34021G34KT P6SM BKN050 FM012300 33011KT P6SM SKC FM020600 13005KT P6SM SKC", "KDCA 011126Z 0112/0218 20020G34KT 6SM SHRA BR BKN025 OVC100 WS020/21055KT FM011500 22018G31KT P6SM BKN050 FM011900 22025G38KT P6SM SCT050 BKN100 FM012100 27027G48KT 6SM SHRA BR SCT050 BKN100 FM012300 27027G52KT P6SM BKN100 FM020200 29021G40KT P6SM FEW100 FM020600 31016G30KT P6SM SCT150 FM021200 32015G25KT P6SM SCT150", "KDDC 011120Z 0112/0212 32006KT P6SM SKC FM012000 23009KT P6SM SKC FM020000 17014KT P6SM FEW250 FM020300 15015G23KT P6SM SKC", "KDEC 010520Z 0106/0206 25007KT P6SM SKC FM011000 25015G25KT P6SM SCT060 FM011200 26020G30KT P6SM BKN040 FM011400 26025G42KT P6SM BKN022 FM011900 30022G32KT P6SM OVC018 FM012200 32015G25KT P6SM SCT050 FM020200 33006KT P6SM SKC", "KDEN 011121Z 0112/0218 22009KT P6SM FEW100 FM011800 25010G18KT P6SM FEW220 FM012100 28012G22KT P6SM SCT220 FM020200 22010KT P6SM FEW220 FM020600 19008KT P6SM FEW220 FM021600 24010KT P6SM SCT220", "KDET 011126Z 0112/0212 24018G28KT P6SM SKC FM011400 22014G22KT 2SM -SHRA OVC020 TEMPO 0114/0116 27020G35KT 2SM -TSRA OVC020CB FM011600 29018G32KT P6SM BKN025 OVC050 FM012300 33014G24KT P6SM BKN030 FM020600 35007KT P6SM SKC", "KDFW 011120Z 0112/0218 30012KT P6SM SCT250 FM011500 01012KT P6SM FEW250 FM020100 09004KT P6SM SCT250 FM021100 13008KT P6SM BKN100 FM021600 16015KT P6SM BKN060", "KDHN 011120Z 0112/0212 21008KT P6SM VCSH SCT007 OVC012 FM011600 25016G25KT P6SM VCSH SCT020 BKN035 OVC070 TEMPO 0118/0121 4SM TSRA BR OVC020CB FM012100 27015KT P6SM SCT030 BKN045 BKN250 FM020200 29007KT P6SM BKN250", "KDHT 011120Z 0112/0212 VRB06KT P6SM SKC FM011900 20015G24KT P6SM FEW250", "KDIJ 011120Z 0112/0212 15011KT 2SM -SN BKN018 OVC025 FM011700 20015G25KT 6SM -SN SCT015 OVC025 FM012100 22022G32KT 2SM -SN SCT008 OVC015 FM020500 19018KT P6SM VCSH SCT015 BKN025 OVC035 AMD LTD TO CLD VIS AND WIND", "KDIK 010546Z 0106/0206 19007KT P6SM FEW150 FM011600 22011KT P6SM FEW150 FM020000 18014KT P6SM BKN080", "TAF AMD KDLF 312230Z 3122/0124 33012G18KT 9999 FEW200 QNH2984INS BECMG 0100/0101 35006KT 9999 SKC QNH2986INS BECMG 0116/0117 13009KT 9999 FEW080 BKN160 QNH2994INS TX32/3123Z TN12/0112Z LAST NO AMDS AFT 3123 NEXT 0218", "KDLH 011124Z 0112/0212 36009G18KT P6SM SCT120 FM011600 03009KT P6SM SKC", "KDLS 011126Z 0112/0212 30007KT P6SM -RA OVC050 FM011500 30012KT P6SM BKN050 BKN100 TEMPO 0115/0119 5SM -RA OVC050 FM011900 30016G26KT P6SM BKN050 BKN100 FM020600 29008KT P6SM OVC050", "TAF KDMA 010605Z 0106/0212 14009KT 9999 SCT200 QNH3009INS BECMG 0115/0116 VRB06KT 9999 SKC QNH3003INS BECMG 0119/0120 25012KT 9999 SKC QNH2993INS TX28/0122Z TN06/0113Z", "KDMN 011125Z 0112/0212 VRB05KT P6SM SKC FM011900 22010KT P6SM FEW250", "KDNL 011120Z 0112/0212 21013G20KT P6SM SCT020 BKN050 TEMPO 0112/0115 BKN020 FM011600 23016G25KT P6SM VCTS SCT025 BKN035CB TEMPO 0116/0119 BKN025CB FM011900 24015G25KT P6SM SCT040 BKN100 FM020100 26012G20KT P6SM SKC FM020700 29005KT P6SM SKC", "TAF AMD KDOV 011124Z 0111/0214 24020G35KT 9999 -RA BKN015 651204 530009 QNH2953INS TEMPO 0112/0114 8000 -TSRA OVC015CB BECMG 0118/0119 24020G35KT 8000 -SHRA OVC030 530009 QNH2941INS TEMPO 0122/0201 28025G45KT -TSRA OVC030CB BECMG 0201/0202 31020G30KT 9999 NSW SCT030 530009 QNH2958INS TX22/0121Z TN08/0207Z", "KDPA 011120Z 0112/0212 26021G32KT P6SM VCSH BKN012 OVC020 FM011500 33022G35KT P6SM VCSH OVC012 TEMPO 0115/0118 3SM -SHRASN BR FM011800 34018G30KT P6SM BKN020 FM020100 36005KT P6SM FEW025 FM020400 VRB03KT P6SM FEW250", "KDRO 011120Z 0112/0212 10004KT P6SM SKC FM011900 25008KT P6SM FEW200 FM020200 VRB04KT P6SM SKC", "KDRT 011120Z 0112/0212 01005KT P6SM SCT250 FM011800 13011KT P6SM FEW060 BKN250 FM020000 12007KT P6SM BKN250 FM021100 11010KT P6SM OVC015", "KDSM 011125Z 0112/0212 31021G35KT P6SM OVC016 TEMPO 0112/0113 -SN FM011800 33015G23KT P6SM SCT050 FM020200 VRB03KT P6SM SKC FM020800 15011G20KT P6SM BKN250", "KDTW 011126Z 0112/0218 23018G28KT P6SM SKC FM011400 22014G22KT 2SM -SHRA OVC020 TEMPO 0114/0116 27020G35KT 2SM -TSRA OVC020CB FM011600 29018G32KT P6SM BKN025 OVC050 FM012300 33014G24KT P6SM BKN030 FM020600 35007KT P6SM SKC", "KDUG 011120Z 0112/0212 09005KT P6SM BKN250 FM011800 17010KT P6SM SKC FM012200 24015G24KT P6SM SKC FM020200 35007KT P6SM SKC", "KDUJ 010520Z 0106/0206 20026G40KT P6SM VCTS OVC025CB FM011100 23016G26KT P6SM BKN070 FM012100 27024G37KT 6SM -TSRA OVC025CB FM020200 28015G29KT P6SM BKN017", "KDVL 011120Z 0112/0212 29005KT P6SM SCT250 FM011600 19011KT P6SM SCT200 FM011900 18019G29KT 5SM BLSN SCT200 FM020400 17015G23KT 5SM BLSN BKN200", "KDVT 010520Z 0106/0206 04004KT P6SM FEW100 SCT250 FM012200 23005KT P6SM FEW150", "TAF AMD KDYS 010104Z 0101/0206 28012KT 9999 SKC QNH2989INS BECMG 0115/0116 02009KT 9999 SKC QNH3020INS BECMG 0118/0119 VRB06KT 9999 SKC QNH3004INS TX27/0123Z TN08/0112Z LAST NO AMDS AFT 0105 NEXT 0112", "KEAR 011120Z 0112/0212 31013KT P6SM FEW150 FM011400 30008KT P6SM SKC FM011800 24011G19KT P6SM FEW060 FM020000 16012KT P6SM SKC FM020500 18015G21KT P6SM FEW250 WS010/21045KT", "KEAT 010520Z 0106/0206 15010KT P6SM VCSH BKN050 FM010800 18009KT P6SM BKN045 FM011300 26014KT P6SM BKN070 FM012200 27021G32KT P6SM FEW100 FM020200 28014KT P6SM FEW120", "KEAU 010910Z 0109/0206 01013G26KT 3SM -SN BLSN SCT008 BKN018 TEMPO 0109/0112 1SM -SN BLSN BKN008 FM011200 36018G32KT P6SM SCT025 FM011500 35012G20KT P6SM SKC FM011800 34009KT P6SM SKC", "KECG 011120Z 0112/0212 21019G27KT P6SM BKN080 WS020/22050KT FM011600 22024G36KT 6SM SHRA BR VCTS BKN060CB FM020000 25020G29KT P6SM FEW150 FM020800 31013KT P6SM SKC", "KECP 011120Z 0112/0212 18007KT 6SM BR VCSH BKN006 OVC012 FM011400 19014G22KT P6SM VCSH SCT006 OVC012 FM011600 22015G23KT P6SM VCSH SCT010 BKN018 OVC070 TEMPO 0120/0123 4SM TSRA BR SCT010CB BKN018 OVC070 FM020000 22008KT P6SM SCT008 BKN200 FM020600 30004KT P6SM BKN200", "TAF AMD KEDW 010150Z 0102/0203 24012KT 9999 BKN220 QNH3010INS BECMG 0104/0105 25005KT 9999 BKN220 QNH3011INS BECMG 0120/0121 25010G20KT 9999 SCT220 510003 QNH3010INS BECMG 0122/0123 26015G25KT 9999 FEW220 520003 QNH3005INS TX18/0122Z TN02/0113Z LAST NO AMDS AFT 0102 NEXT 0413", "KEED 011122Z 0112/0212 VRB06KT P6SM FEW200 FM011700 02006KT P6SM SCT200 FM020100 24008KT P6SM FEW250 FM021000 VRB05KT P6SM SKC", "KEET 011120Z 0112/0212 23008KT P6SM VCSH OVC023 FM011300 24010KT P6SM VCTS BKN024CB FM011500 25010KT P6SM BKN025 FM011700 27012G20KT P6SM SCT050 BKN070 FM020000 30008KT P6SM FEW250 FM020600 01005KT P6SM FEW250", "TAF AMD KEFD 011010Z 0110/0210 20006KT 8000 BR BKN020 QNH2990INS BECMG 0117/0118 01010G15KT 9999 NSW FEW210 QNH2995INS BECMG 0123/0124 VRB06KT 9999 FEW160 QNH2993INS TX28/0121Z TN19/0110Z", "KEFK 011126Z 0112/0212 16008KT 4SM RAPL OVC012 FM011400 16010G19KT 4SM -RA BR OVC009 FM011500 18012G23KT P6SM VCSH OVC024 WS020/22040KT FM011800 20012G21KT P6SM SCT080 WS020/26045KT FM020000 VRB04KT 5SM BR VCSH BKN100 FM020200 30005KT P6SM VCSH OVC015 FM020900 30018G26KT P6SM BKN025", "KEGE 011120Z 0112/0212 10005KT P6SM SCT050 BKN070 FM011900 24012G23KT P6SM FEW100 FM020300 16008KT P6SM SCT120", "TAF AMD KEGI 010500Z 0105/0207 17010KT 9999 BKN007 QNH3008INS BECMG 0105/0106 19012KT 9999 VCSH BKN009 QNH3004INS BECMG 0112/0113 23015G25KT 8000 -SHRA VCTS BKN006CB OVC015 QNH3001INS BECMG 0121/0122 25012KT 9999 NSW SCT020 QNH3002INS TX26/0118Z TN16/0122Z LAST NO AMDS AFT 0105 NEXT 0112", "KEKN 011120Z 0112/0212 31007G18KT P6SM BKN035 OVC110 WS020/25050KT TEMPO 0112/0114 30012G20KT 2SM -SHRA BR OVC025 FM011600 28024G48KT P6SM SKC FM012300 27019G39KT P6SM BKN022 FM020600 29016G31KT P6SM OVC010 FM021000 30013G19KT P6SM BKN012", "KEKO 011120Z 0112/0212 VRB06KT P6SM BKN150 FM012000 25020G30KT P6SM BKN110 FM020400 26010G20KT P6SM FEW020 SCT060 BKN200 FM021000 23010KT 6SM -SHRASN BKN020 OVC050", "KEKS 010541Z 0106/0206 16016G25KT P6SM BKN050 FM011600 18027G41KT P6SM BKN050 PROB30 0120/0123 4SM -SHSN BR OVC025 FM020000 22026G43KT 5SM -SHSN BR BKN090 WS020/26035KT", "KELD 010540Z 0106/0206 23004KT P6SM BKN250 FM011500 31009KT P6SM SCT250 FM020000 VRB03KT P6SM FEW250", "KELM 011120Z 0112/0212 21013G23KT 4SM -SHRA BR BKN020 WS020/23040KT FM011330 22014G25KT P6SM SCT200 TEMPO 0120/0122 26020G40KT 2SM TSRA OVC015CB FM012200 28019G32KT 5SM -SHRA BR OVC018 FM020300 29017G28KT P6SM OVC020", "KELP 011125Z 0112/0212 VRB05KT P6SM SKC FM011800 25008KT P6SM FEW250", "KELY 011120Z 0112/0212 19015KT P6SM SCT250 FM011900 20012G22KT P6SM SCT250 FM020200 19008KT P6SM SCT050", "TAF AMD KEND 010156Z 0101/0124 21012KT 9999 SKC QNH2973INS BECMG 0105/0106 29015KT 9999 SKC QNH2990INS BECMG 0120/0121 06009KT 9999 FEW100 QNH3000INS TX25/0118Z TN08/0112Z LAST NO AMDS AFT 0101 NEXT 0215", "KENV 010520Z 0106/0206 VRB04KT P6SM FEW150 FM011600 12005KT P6SM SCT150 FM011900 26020G30KT P6SM SCT120 BKN150 FM020100 31015G25KT P6SM SCT080 BKN100 FM020400 32009KT P6SM SCT080 BKN100", "KENW 011120Z 0112/0212 25015KT P6SM SCT030 FM011400 28016G26KT 3SM -SN BR OVC012 FM011600 33019G30KT P6SM VCSH OVC013 FM012200 35014G22KT P6SM BKN021 FM012300 35012KT P6SM SCT029 FM020300 VRB04KT P6SM FEW250", "KERI 010908Z 0109/0206 21012KT P6SM OVC070 FM011100 22019G29KT P6SM SCT040 FM011600 25023G41KT P6SM -SHRA VCTS SCT025 BKN050CB TEMPO 0117/0119 2SM TSRA OVC025CB FM012100 27023G37KT P6SM -SHRA OVC025 FM020000 28020G31KT P6SM OVC025 FM020300 32017G25KT P6SM BKN015", "KEUG 010921Z 0109/0206 27008KT P6SM -RA SCT015 BKN025 OVC035 TEMPO 0109/0112 5SM RA BR FEW009 BKN015 OVC025 FM011200 19012KT P6SM -SHRA OVC025 FM011600 22010KT P6SM -SHRA SCT025 OVC035 FM012100 24012KT P6SM -SHRA OVC050", "KEUL 011126Z 0112/0212 VRB06KT 6SM -RA BR OVC035 TEMPO 0114/0117 3SM -RA BR OVC025 FM011800 31015G25KT 6SM -SHRA OVC035 TEMPO 0120/0124 2SM -SHRASN BR OVC015 FM020000 31008KT P6SM VCSH SCT050 OVC100 PROB30 0208/0212 2SM -SHSN BR OVC015", "KEVV 011120Z 0112/0212 24014G24KT P6SM FEW050 FM011300 27022G37KT P6SM FEW050 FM011900 29018G31KT P6SM BKN040 FM012200 30015G24KT P6SM BKN035 FM020100 31009KT P6SM BKN035 FM020600 35005KT P6SM FEW060", "KEVW 010520Z 0106/0206 24010KT P6SM SCT060 SCT100 FM011700 24018G28KT P6SM FEW100 SCT150 FM012000 24025G35KT P6SM FEW100 BKN150 FM020500 25010KT P6SM VCSH SCT030 BKN060", "KEWN 011127Z 0112/0212 21014G27KT P6SM SCT020 BKN035 FM011800 22022G35KT P6SM SCT025 BKN080 FM020000 23016G28KT P6SM FEW200 FM020400 26013G24KT P6SM FEW230 FM021100 32011KT P6SM SKC", "KEWR 010848Z 0109/0212 20008KT 5SM -SHRA BR SCT010 OVC020 FM011000 20009KT 3SM SHRA BR OVC009 WS020/24050KT FM011400 21016G26KT 5SM -SHRA BR SCT012 OVC020 WS020/24050KT FM011800 20018G30KT P6SM SCT050 SCT250 FM012300 23016G28KT 5SM -SHRA BR SCT030 BKN050 BKN100 PROB30 0123/0201 25018G33KT 3SM TSRA BKN010CB FM020200 29022G35KT P6SM VCSH OVC040 FM020400 31020G33KT P6SM SCT040 BKN250", "KEYW 011120Z 0112/0212 13011KT P6SM SCT025 FM012300 12005KT P6SM FEW025", "TAF KFAF 010200Z 0102/0208 20009KT 8000 -SHRA BKN085 QNH3007INS BECMG 0104/0105 20012KT 9999 NSW BKN012 OVC025 QNH2995INS BECMG 0111/0112 20015G25KT 9000 -SHRA BKN025 OVC080 QNH2971INS BECMG 0116/0117 22020G30KT 8000 -SHRA OVC025 QNH2966INS BECMG 0119/0120 22020G25KT 9999 NSW BKN025 OVC095 QNH2951INS BECMG 0201/0202 25012KT 9999 FEW060 QNH2953INS TX24/0121Z TN15/0102Z LAST NO AMDS AFT 0102 NEXT 0310", "KFAR 011120Z 0112/0212 34012KT P6SM SCT250 FM011900 19008KT P6SM FEW250 FM012200 18012KT P6SM FEW250 FM020400 17016G24KT 5SM BLSN SCT250 FM020800 16017G26KT 5SM BLSN OVC200", "KFAT 011120Z 0112/0212 30006KT P6SM SKC", "KFAY 011120Z 0112/0212 21017G30KT P6SM OVC015 WS020/22050KT FM011600 21018G34KT P6SM VCSH BKN100 WS020/22040KT TEMPO 0117/0119 4SM -SHRA BKN025 FM012000 23020G35KT P6SM SCT100 FM020300 26015G25KT P6SM SKC FM020900 30008G15KT P6SM SKC", "TAF KFBG 010900Z 0109/0215 18015G20KT 9999 OVC015 QNH2992INS BECMG 0111/0112 20020G30KT 9999 SCT010 BKN015 QNH2969INS TEMPO 0114/0117 23020G37KT VCSH BECMG 0119/0120 22020G30KT 9999 NSW SCT150 QNH2973INS BECMG 0202/0203 25010KT 9999 SKC QNH2978INS TX25/0120Z TN09/0110Z", "TAF COR KFCS 011155Z 0105/0211 30010KT 9999 SKC 510003 560309 QNH3000INS WND 300V090 BECMG 0113/0114 36005KT 9999 SKC 510003 530309 QNH3012INS BECMG 0117/0118 23015G25KT 9999 SKC 520009 QNH2991INS BECMG 0200/0201 25010G20KT 9999 FEW220 510003 520309 QNH2989INS BECMG 0204/0205 25010KT 9999 SCT220 QNH2981INS TX18/0122Z TNM04/0112Z LAST NO AMDS AFT 0105 NEXT 0313", "KFDY 010546Z 0106/0206 18025G40KT P6SM -SHRA VCTS SCT015 OVC025CB TEMPO 0106/0107 3SM -TSRA OVC015CB FM010800 23017G29KT P6SM SCT050 FM011400 23023G39KT P6SM VCSH SCT025 BKN060 TEMPO 0115/0118 4SM -SHRA OVC025 FM011800 26025G38KT P6SM BKN025 FM020300 34013KT P6SM BKN035", "TAF KFFO 011100Z 0111/0217 19010G15KT 9999 SCT050 SCT090 530073 QNH2943INS TEMPO 0111/0113 20015G25KT BECMG 0112/0113 24025G35KT 9999 BKN040 BKN110 650406 530003 QNH2943INS WND 200V300 TEMPO 0114/0118 26030G45KT 530005 BECMG 0117/0119 27015G25KT 9999 VCSH OVC030 640309 520052 QNH2964INS BECMG 0121/0122 28015G25KT 9999 VCSH OVC015 610155 510052 QNH2976INS BECMG 0201/0203 30012KT 9999 NSW BKN010 620102 QNH2998INS BECMG 0207/0208 VRB06KT 8000 BR SCT015 QNH3002INS BECMG 0213/0215 18008KT 9999 NSW FEW030 QNH3007INS TX13/0117Z TNM01/0211Z", "TAF KFHU 010600Z 0106/0212 VRB06KT 9999 SCT240 QNH3016INS BECMG 0117/0118 20014G20KT 9999 SKC 520007 QNH3007INS BECMG 0120/0121 24015G24KT 9999 SKC 520007 QNH3004INS BECMG 0201/0202 23009KT 9999 SKC QNH3006INS TX24/0120Z TN05/0111Z LAST NO AMDS AFT 0106 NEXT 0114", "KFKL 010520Z 0106/0206 20026G40KT P6SM VCTS OVC025CB FM011100 23016G26KT P6SM BKN070 FM012100 27024G37KT 6SM -TSRA OVC025CB FM020200 28015G29KT P6SM BKN017", "KFLG 011120Z 0112/0212 VRB04KT P6SM SCT120 FM011900 21008G15KT P6SM SCT110", "KFLL 011120Z 0112/0218 14008KT P6SM FEW025 SCT040 FM011400 15011KT P6SM SCT030 SCT050 FM011900 17012KT P6SM VCSH SCT025 BKN050 FM020200 20006KT P6SM FEW025 SCT050 BKN150 FM021400 30007KT P6SM FEW030 SCT050 FM021700 10010KT P6SM SCT030 SCT050", "KFLO 011120Z 0112/0212 21015G24KT P6SM SCT020 FM011400 22022G29KT P6SM SCT040 FM011700 23021G32KT P6SM VCTS BKN040CB FM020200 25015G24KT P6SM SKC WS003/26040KT FM020500 29011G19KT P6SM SKC FM021100 35007KT P6SM SKC", "KFMH 011120Z 0112/0212 20011G18KT 1/2SM -RA FG OVC003 WS020/23045KT FM011500 22020G29KT 1/2SM -RA FG OVC003 WS020/23060KT FM011700 22021G31KT 1 1/2SM -RA BR OVC003 WS020/23055KT FM012300 22014G21KT 1SM BR VCSH BKN003 WS020/24045KT FM020400 25012KT 4SM BR VCSH OVC010 FM020900 28014G24KT P6SM BKN035", "KFMN 010526Z 0106/0206 VRB05KT P6SM SKC FM012100 26008KT P6SM SCT200 FM020100 VRB05KT P6SM FEW250", "KFMY 011120Z 0112/0212 13004KT P6SM BKN250 FM011400 19009KT P6SM SCT040 BKN250 FM011700 24012G18KT P6SM SCT050 BKN250 FM020100 29004KT P6SM SCT250", "KFNT 011126Z 0112/0212 24018G28KT P6SM SKC FM011400 22014G22KT 6SM -SHRA BKN024 OVC045 FM011800 29018G32KT P6SM BKN030 OVC050 FM012200 33014G24KT P6SM SCT035 FM020600 35007KT P6SM SKC", "KFOD 011125Z 0112/0212 34018G29KT P6SM OVC013 FM011700 33015G23KT P6SM SCT050 FM020100 VRB03KT P6SM SKC FM020700 15011G20KT P6SM BKN250", "KFOE 011123Z 0112/0212 31017G28KT P6SM FEW035 FM011900 29008KT P6SM SKC FM020200 18007KT P6SM SKC FM020600 17014KT P6SM SKC", "KFPR 011127Z 0112/0212 20004KT P6SM VCSH SCT025 BKN250 FM011400 19010KT P6SM VCSH SCT030 BKN250 FM011800 14017G24KT P6SM SCT050 BKN250 FM020000 20008KT P6SM FEW060 BKN250", "TAF AMD KFRI 312022Z 3120/0202 26015G25KT 9999 FEW200 520005 QNH2951INS TEMPO 3120/3121 26015G25KT 9999 -RA BECMG 3120/3121 25025G35KT 9999 FEW150 520005 QNH2958INS BECMG 0100/0101 25015G20KT 9999 FEW150 520005 QNH2960INS BECMG 0104/0105 31030G40KT 9999 SCT120 530005 QNH2973INS BECMG 0109/0110 29010G20KT 9999 SKC QNH2993INS BECMG 0119/0120 VRB06KT 9999 SKC QNH3011INS TX22/3121Z TN02/0112Z LAST NO AMNDS 3120Z NEXT 0312Z", "KFSD 011120Z 0112/0212 32012G22KT P6SM SCT250 FM011400 32012KT P6SM SCT250 FM011800 29005KT P6SM FEW240 FM020300 14011G17KT P6SM FEW250 FM020600 16016G29KT P6SM SCT130 WS010/20040KT FM021100 18015G26KT P6SM BKN180 WS010/23045KT", "KFSM 011120Z 0112/0212 28009KT P6SM SKC WS020/30030KT FM011500 29012KT P6SM SKC FM020100 VRB03KT P6SM FEW250", "KFST 011120Z 0112/0212 20006KT P6SM BKN250 FM012100 14013G22KT P6SM BKN250", "TAF KFTK 311900Z 3119/0201 18015G25KT 9999 VCSH SCT015 BKN035 BKN070 510005 QNH2978INS TEMPO 3119/3122 21020G30KT 4800 TSRA OVC025CB BECMG 3121/3122 18018G25KT 9000 -SHRA SCT020 BKN030 BKN050 510005 QNH2964INS TEMPO 3122/0103 24022G32KT 4800 TSRA OVC020CB BECMG 0102/0103 20018G25KT 6000 TSRA SCT010 BKN015CB OVC030 QNH2961INS TEMPO 0104/0106 23025G35KT 3200 +TSRA OVC010CB BECMG 0106/0107 21012G18KT 9999 NSW SCT030 BKN150 510005 QNH2960INS TEMPO 0108/0114 23015G25KT BECMG 0114/0115 25025G38KT 9999 SKC 530005 QNH2964INS BECMG 0117/0118 26025G35KT 9999 BKN035 530005 QNH2974INS BECMG 0122/0123 27012G20KT 9999 OVC035 510005 QNH2990INS TX19/0100Z TN10/0112Z LAST NO AMDS AFT 0103 NEXT 0311", "KFTW 011120Z 0112/0212 30012KT P6SM SCT250 FM011500 01012KT P6SM FEW250 FM020100 09004KT P6SM SCT250 FM021100 14008KT P6SM BKN110", "KFTY 011120Z 0112/0212 22010G22KT P6SM -SHRA BKN020 TEMPO 0112/0115 4SM TSRA BR SCT008 OVC015CB FM011600 26020G28KT P6SM FEW035 FEW250 FM020300 32012KT P6SM SKC", "KFVE 011120Z 0112/0212 14010G19KT P6SM OVC011 FM011600 13014G26KT 1 1/2SM -SN BR OVC007 FM012100 14010G19KT 6SM BR VCSH OVC003 FM020500 29013G24KT P6SM BKN010 FM021000 31020G35KT P6SM BKN023", "KFWA 011121Z 0112/0212 19005KT P6SM VCSH BKN160 FM011330 25016G25KT P6SM VCSH BKN025 FM011500 26025G42KT P6SM VCSH BKN025 FM011800 29024G38KT P6SM VCSH BKN015 FM020400 32012KT P6SM BKN020 FM021100 00000KT P6SM FEW190", "KFXE 011120Z 0112/0212 14007KT P6SM SCT025 SCT040 FM011400 16011KT P6SM SCT030 SCT050 FM011900 17012KT P6SM VCSH SCT025 BKN050 FM020200 20006KT P6SM FEW025 SCT050 BKN150", "KFYV 011120Z 0112/0212 30010G20KT P6SM SKC FM011400 32012G20KT P6SM SKC FM012100 32011KT P6SM FEW250 FM020100 VRB03KT P6SM FEW250", "KGBD 011120Z 0112/0212 30011KT P6SM SKC FM012100 21008KT P6SM SKC FM020100 17012KT P6SM SKC FM020900 18019G27KT P6SM FEW250 WS020/21055KT", "KGCC 010520Z 0106/0206 23015KT P6SM BKN100 FM011800 23015G25KT P6SM BKN250", "KGCK 011120Z 0112/0212 29006KT P6SM SKC FM011900 24010KT P6SM SKC FM012300 18015G23KT P6SM FEW250", "KGCN 011120Z 0112/0212 VRB04KT P6SM SCT120 FM011800 22009KT P6SM FEW110 FM020200 VRB06KT P6SM FEW120", "KGDV 011120Z 0112/0212 22007KT P6SM SKC FM020400 26011KT P6SM BKN070 WS003/24055KT FM020700 27016G27KT P6SM SCT050 FM021100 26020G33KT P6SM SKC", "KGEG 010520Z 0106/0206 20015G22KT 6SM -RA BKN025 OVC035 FM010800 21014G23KT 5SM -RA BR BKN010 OVC015 FM011000 21015G24KT 3SM -RA BR OVC009 TEMPO 0110/0114 1SM -RASN BR OVC005 FM011400 21014KT 6SM -RASN OVC015 FM011600 22015KT P6SM OVC035 FM012100 24015G25KT P6SM VCSH BKN035 OVC070", "TAF AMD KGFA 311846Z 3119/0118 24012G18KT 9999 FEW050 BKN100 510032 QNH2969INS BECMG 3122/3123 24020G25KT 9999 SCT050 OVC070 520053 QNH2976INS BECMG 0102/0103 23012KT 9999 FEW040 FEW060 530054 QNH2960INS TX08/3121Z TN00/0106Z LAST NO AMDS AFT 3119 NEXT 0312", "KGFK 011120Z 0112/0212 33006KT P6SM FEW250 FM011900 18011KT P6SM FEW250 FM012100 18015G23KT 5SM BLSN FEW250 FM020400 18020G30KT 5SM BLSN SCT200 FM020800 17016G24KT 5SM BLSN OVC200", "KGFL 011120Z 0112/0212 VRB03KT 4SM -SHRA BR SCT005 OVC015 WS020/22030KT TEMPO 0112/0114 2SM -SHRA BR BKN005 OVC015 FM011500 20010KT P6SM VCSH BKN025 FM011700 22012G22KT P6SM SCT050 SCT250 FM012100 21010KT P6SM SCT035 BKN100 BKN250 FM012300 26010G20KT 3SM -SHRA BR BKN035 PROB30 0123/0201 26020G40KT 2SM -TSRA BKN025CB OVC035 FM020200 29012G22KT P6SM VCSH BKN025 OVC050 FM020500 33013G23KT P6SM BKN050", "KGGG 010540Z 0106/0206 25006KT P6SM BKN250 FM011500 34010KT P6SM SCT250 FM020000 VRB03KT P6SM FEW250", "KGGW 011120Z 0112/0212 VRB05KT 6SM BR FEW002 FEW070 FM011400 VRB05KT 1SM BR BKN003 BKN120 FM011600 VRB05KT P6SM SCT090 PROB30 0201/0202 6SM -SHRA BR OVC060 FM020600 28017G26KT P6SM OVC027 FM020900 26019G32KT P6SM SKC", "KGJT 011120Z 0112/0212 12009KT P6SM SKC FM011900 23012G20KT P6SM SKC FM020200 11008KT P6SM SCT150", "KGKY 011120Z 0112/0212 30012KT P6SM SCT250 FM011500 01012KT P6SM FEW250 FM020100 09004KT P6SM SCT250 FM021100 13008KT P6SM BKN110", "KGLD 011120Z 0112/0212 26010KT P6SM SKC FM011700 22016KT P6SM SKC TEMPO 0120/0124 22018G26KT FM020000 17015KT P6SM SKC FM020800 27012KT P6SM SKC", "KGLH 011129Z 0112/0212 23009KT P6SM FEW025 BKN120 FM011500 30012G24KT P6SM SKC FM012300 33008KT P6SM SKC", "KGLS 011120Z 0112/0212 VRB04KT 4SM BR SCT005 OVC010 TEMPO 0112/0113 1SM BR BKN005 FM011600 01008KT P6SM SCT015 BKN025 FM011800 04008KT P6SM BKN250 FM020100 12006KT P6SM BKN150 FM020600 13008KT 6SM BR BKN030", "KGMU 010920Z 0109/0206 21012G18KT P6SM SCT023 BKN070 FM011000 21019G30KT P6SM VCSH OVC023 FM011200 23017G28KT 5SM -SHRA BR SCT008 OVC018 TEMPO 0112/0115 2SM -TSRA BR OVC008CB FM011500 24017G28KT P6SM BKN028 FM011800 24021G35KT P6SM FEW240", "KGNV 010523Z 0106/0206 VRB03KT P6SM SCT250 FM011400 22010G17KT P6SM SCT030 BKN250 FM011700 23015G25KT P6SM SCT050 BKN250", "KGON 010848Z 0109/0206 21005KT 5SM SHRA BR BKN012 OVC020 FM011100 21010KT 4SM SHRA BR OVC005 FM011200 22019G31KT 3SM SHRA BR OVC006 WS020/23055KT FM012000 21020G31KT P6SM SCT008 BKN015 FM020100 23018G28KT 5SM -SHRA BR SCT010 BKN030 BKN050 PROB30 0201/0203 25022G35KT 3SM TSRA BKN010CB FM020300 24020G30KT 4SM -SHRA BKN010 OVC030 FM020400 29019G29KT P6SM VCSH OVC035", "KGPI 011120Z 0112/0212 19004KT P6SM OVC060 FM011700 19010G20KT 6SM -RASN BKN025 OVC040 FM011900 23016G25KT P6SM -SHRASN OVC050 FM020300 21008KT P6SM OVC050", "KGPT 011006Z 0110/0206 26006KT P6SM OVC006 FM011500 27009KT P6SM SCT025 BKN050", "KGRB 011129Z 0112/0212 35010G20KT 3SM -SN OVC011 TEMPO 0112/0114 1 1/2SM -SN FM011400 36018G32KT 4SM -SN OVC012 FM011600 01020G33KT P6SM BKN015 FM011900 36017G25KT P6SM SCT022 FM012000 36012G19KT P6SM SCT250 FM020000 09004KT P6SM SKC", "TAF KGRF 010500Z 0105/0211 18009KT 9000 -RA OVC015 640209 QNH2977INS BECMG 0107/0108 21009KT 9000 BR SCT015 OVC020 610209 QNH2978INS BECMG 0108/0109 22006KT 9999 NSW SCT020 SCT025 BKN040 QNH2981INS BECMG 0117/0118 22012G25KT 9000 -SHRA BKN020 OVC030 610209 520053 QNH2987INS BECMG 0201/0202 25015G20KT 9000 -SHRA SCT035 OVC050 610209 520053 QNH2989INS BECMG 0202/0203 24006KT 9999 NSW FEW030 SCT040 BKN055 QNH2990INS TX08/0123Z TN04/0111Z", "KGRI 011120Z 0112/0212 31014G17KT P6SM FEW150 FM011400 30008KT P6SM SKC FM011800 24011G17KT P6SM FEW060 FM020000 16012KT P6SM SKC FM020500 18015G21KT P6SM FEW250 WS010/21045KT", "TAF KGRK 010800Z 0108/0214 VRB06KT 9999 SKC QNH3005INS BECMG 0116/0117 01010G15KT 9999 SKC QNH3008INS BECMG 0205/0206 11006KT 9999 SCT045 QNH2998INS BECMG 0213/0214 16010G15KT 9999 BKN030 QNH3008INS TX24/0121Z TN11/0112Z", "KGRR 011118Z 0112/0212 24012G20KT P6SM BKN035 FM011500 29020G27KT P6SM VCSH BKN025 FM011800 27011G22KT 5SM -SHRASN BR BKN012 FM012100 31014G29KT P6SM OVC015 FM020000 35012G22KT P6SM BKN025", "TAF AMD KGSB 011000Z 0110/0210 20015G25KT 9999 SCT018 BKN020 BKN060 OVC150 510003 QNH2985INS BECMG 0114/0115 21020G35KT 8000 -SHRA BKN015 OVC040 510003 QNH2964INS TEMPO 0118/0121 VRB25G40KT 3200 TSRA SCT010CB BKN015 OVC060 BECMG 0121/0122 22015G30KT 9999 NSW SCT018 BKN035 510002 QNH2964INS BECMG 0201/0202 24012G22KT 9999 SCT050 QNH2965INS TX25/0117Z TN19/0110Z", "KGSO 011120Z 0112/0212 21015G25KT P6SM -SHRA OVC015 WS020/22060KT TEMPO 0114/0116 2SM RA BR BKN009 FM011800 23020G35KT P6SM SCT250 FM020000 27015G30KT P6SM SKC FM020600 30010G20KT P6SM SKC", "KGSP 010919Z 0109/0206 20016KT P6SM SCT025 BKN050 FM011000 21019G30KT P6SM VCSH OVC025 FM011200 23017G28KT 5SM -SHRA BR SCT008 OVC018 TEMPO 0112/0115 2SM -TSRA BR OVC008CB FM011500 24017G28KT P6SM BKN028 FM011800 24021G35KT P6SM FEW240", "TAF AMD KGTB 010321Z 0103/0207 17010KT 8000 -RA BKN005 OVC009 QNH2971INS BECMG 0104/0105 17010KT 6000 -RA OVC006 QNH2946INS BECMG 0110/0111 18015G25KT 4800 -RA FEW008 BKN015 OVC025 QNH2930INS TEMPO 0111/0113 18025G40KT 4800 TSRA OVC008CB BECMG 0112/0113 23025G38KT 9999 NSW BKN020 OVC080 530003 QNH2920INS BECMG 0120/0121 25015KT 8000 -RA BKN012 OVC020 QNH2920INS BECMG 0200/0201 30008KT 6000 -RA OVC006 610208 QNH2930INS BECMG 0202/0203 34010G25KT 6000 -SN OVC006 QNH2947INS TX13/0115Z TN03/0104Z LAST NO AMDS AFT 0104 NEXT 0401", "KGTF 010541Z 0106/0206 22013G24KT P6SM SCT250 FM011700 22021G30KT P6SM SCT250 PROB30 0120/0123 4SM -SHRA BR BKN090 FM012300 24022G33KT P6SM BKN050 PROB30 0123/0124 4SM -SHRA BR OVC025 FM020500 23017G26KT P6SM FEW250", "KGTR 011129Z 0112/0212 24006KT P6SM SCT045 FM011600 28012G22KT P6SM SKC FM012300 31010KT P6SM SKC", "KGUC 011120Z 0112/0212 27005KT P6SM SKC FM012000 25008G18KT P6SM SKC FM020300 31005KT P6SM FEW150", "KGUP 010526Z 0106/0206 VRB03KT P6SM FEW250 FM011900 25011G20KT P6SM SCT250 FM020100 23006KT P6SM FEW250", "TAF AMD KGUR 010427Z 0104/0203 33015KT 9999 SCT027 BKN040 OVC060 510032 QNH2987INS BECMG 0115/0116 26020G25KT 9999 FEW090 510042 QNH2999INS BECMG 0116/0117 26025G35KT 9999 SKC 510042 QNH2980INS BECMG 0200/0201 24020G25KT 9999 FEW170 BKN230 510023 QNH2978INS BECMG 0201/0202 24012KT 9999 FEW220 510052 QNH2977INS TX12/0119Z TNM05/0106Z LAST NO AMDS AFT 0104 NEXT 0305", "TAF AMD KGUS 312305Z 3123/0203 20025G35KT 6000 -SHRA OVC025 530005 QNH2939INS TEMPO 3123/0102 VRB25G35KT 4800 TSRAGR OVC025CB TEMPO 0102/0104 VRB40G50KT 1600 +TSRAGR OVC015CB BECMG 0104/0105 24015G25KT 9999 NSW BKN020 OVC030 QNH2936INS BECMG 0112/0113 24025G35KT 9999 OVC030 520005 QNH2939INS BECMG 0113/0114 24025G35KT 9000 -RA OVC025 620258 520005 QNH2945INS WND 33025G35KT AFT 0119 BECMG 0120/0121 33025G35KT 9999 NSW BKN030 OVC050 620307 520005 QNH2979INS BECMG 0123/0124 33015G25KT 9999 SCT050 QNH2993INS TX17/3123Z TN03/0121Z LAST NO AMDS AFT 0103 NEXT 0113", "KGUY 011120Z 0112/0212 VRB06KT P6SM SKC FM012000 20018G25KT P6SM FEW250", "KGWO 011129Z 0112/0212 24006KT P6SM FEW007 BKN120 FM011600 30012G18KT P6SM SKC FM012300 35010KT P6SM SKC", "KGYY 011120Z 0112/0212 26018G28KT P6SM VCSH BKN012 OVC020 TEMPO 0112/0113 5SM -SHRA OVC012 FM011500 33022G35KT P6SM VCSH OVC012 TEMPO 0115/0119 3SM -SHRASN BR FM011900 34018G30KT P6SM BKN020 FM020100 36005KT P6SM FEW025 FM020400 VRB03KT P6SM FEW250", "KHBG 011129Z 0112/0212 23011KT P6SM VCTS BKN025CB BKN060 FM011500 26011KT P6SM SCT030 BKN120 FM011700 27012G18KT P6SM SCT120 FM012200 28008KT P6SM SKC", "KHCR 010520Z 0106/0206 VRB04KT P6SM FEW150 FM011900 23015G25KT P6SM FEW120 SCT150 FM020100 22006KT P6SM SCT070 BKN100", "KHDC 010829Z 0108/0206 21008KT P6SM VCSH OVC012 FM011500 26009KT P6SM SCT015 BKN020 FM011700 29008KT P6SM SCT015 BKN050", "KHDN 011120Z 0112/0212 12006KT P6SM BKN050 FM011700 25015G26KT P6SM SCT080 FM020300 23007KT P6SM BKN120 WS020/24050KT FM020600 12005KT P6SM BKN100", "KHIB 011124Z 0112/0212 36008KT P6SM FEW250 TEMPO 0112/0114 36010G15KT FM011500 02009KT P6SM SKC FM020900 18010G15KT P6SM FEW002 BKN200", "KHIE 011001Z 0110/0206 00000KT 5SM BR OVC020 FM011100 13007KT 2SM -RA BR OVC008 FM011500 15008KT 2SM -RA BR OVC015 FM011800 23008KT P6SM BKN025 FM012100 23009KT P6SM BKN050 FM020000 VRB05KT 3SM -SHRA BR SCT008 BKN015", "TAF KHIF 010500Z 0105/0211 11009KT 9999 FEW060 QNH3009INS BECMG 0111/0112 16015G25KT 9999 FEW060 SCT100 510009 QNH2999INS BECMG 0120/0121 18012KT 9999 BKN100 QNH2988INS BECMG 0203/0204 25012KT 8000 -RA BKN020 OVC040 QNH2989INS TX07/0121Z TN01/0106Z LAST NO AMDS AFT 0106 NEXT 0113", "KHIO 010813Z 0108/0206 22007KT P6SM -SHRA SCT020 OVC050 FM011600 23010KT 6SM -SHRA BR SCT015 OVC025 FM012000 25014G21KT 6SM -SHRA SCT025 OVC040", "KHKS 011129Z 0112/0212 25005KT P6SM BKN070 FM011600 29012G18KT P6SM SKC FM012300 32010KT P6SM SKC", "KHKY 010921Z 0109/0206 20013G21KT P6SM SCT030 BKN100 WS020/21040KT FM011000 20018G28KT P6SM VCSH BKN030 FM011200 22015G25KT 6SM -SHRA BR VCTS OVC014CB TEMPO 0112/0115 4SM -SHRA BR OVC008 FM011600 23015G25KT P6SM BKN140 FM011900 25021G35KT P6SM FEW250 FM020000 27018G28KT P6SM SKC", "KHLG 010748Z 0108/0206 20026G40KT P6SM -SHRA VCTS OVC025CB FM011100 23016G26KT P6SM BKN070 FM012100 27024G37KT 6SM -TSRA OVC025CB FM020200 28015G29KT P6SM BKN017", "KHLN 010541Z 0106/0206 20007KT P6SM BKN130 PROB30 0119/0120 4SM -SHRA BR OVC025 FM012000 21018G29KT P6SM BKN050 PROB30 0120/0201 4SM -SHRA BR OVC025", "TAF AMD KHMN 312310Z 3123/0123 VRB06KT 9999 FEW240 QNH3005INS TX18/3123Z TN00/0112Z LAST NO AMDS AFT 3123 NEXT 0212", "KHNB 011120Z 0112/0212 22019G26KT P6SM SCT040 WS020/25050KT FM011300 25023G33KT P6SM SCT040 FM011500 27023G33KT P6SM BKN030 FM012000 29018G27KT P6SM BKN030 FM020100 29008KT P6SM SCT030 BKN040 FM020500 VRB04KT P6SM SKC", "KHND 011122Z 0112/0212 VRB06KT P6SM SCT250 FM012200 21012G20KT P6SM FEW150 FM020400 19009KT P6SM FEW250", "KHOB 011120Z 0112/0212 02007KT P6SM BKN250 FM011800 16010KT P6SM BKN250", "KHON 011120Z 0112/0212 31011G17KT P6SM SCT250 FM011600 29005KT P6SM FEW240 FM012000 17009KT P6SM SKC FM020200 14013G21KT P6SM SCT250 FM020600 16017G29KT P6SM BKN110 WS010/20040KT FM021000 19014G24KT P6SM SCT250 WS010/25045KT", "TAF KHOP 010800Z 0108/0214 23015G25KT 9999 SCT080 530009 QNH2974INS TEMPO 0113/0118 26030G40KT BECMG 0120/0121 30007KT 9999 SKC QNH3015INS TX14/0115Z TN05/0112Z", "KHOT 010528Z 0106/0206 27009KT P6SM SCT250 FM011200 29008KT P6SM SCT250 FM011500 32012G20KT P6SM SKC FM020100 VRB04KT P6SM SKC", "KHOU 011120Z 0112/0212 VRB04KT 5SM BR FEW020 BKN050 TEMPO 0112/0113 1SM BR BKN020 FM011400 26006KT P6SM BKN250 FM011700 02008KT P6SM BKN250 FM011800 02006KT P6SM BKN250 FM020100 VRB03KT P6SM BKN250 FM020800 VRB05KT P6SM BKN040", "KHPN 010848Z 0109/0206 18006KT 5SM -SHRA BR SCT010 OVC020 FM011000 19009KT 3SM SHRA BR OVC007 FM011500 21013G22KT 5SM -SHRA BR SCT015 OVC025 FM011800 21015G29KT P6SM SCT050 SCT250 FM012300 23014G25KT 5SM -SHRA BR SCT030 BKN050 BKN100 PROB30 0123/0201 25018G33KT 3SM TSRA BKN010CB FM020200 29019G30KT P6SM VCSH OVC040 FM020500 30017G28KT P6SM SCT040 BKN250 AMD NOT SKED", "KHQM 010540Z 0106/0206 29008KT P6SM BKN045 FM011800 23016G26KT P6SM -SHRA BKN035 BKN050", "KHRF 011120Z 0112/0212 19008KT P6SM BKN025 OVC030 FM011600 19017G25KT P6SM VCSH OVC050 FM012000 26018G25KT 5SM -SHRA SCT025 OVC040 FM012100 27010G20KT P6SM -SHRASN OVC050 FM020200 24010KT P6SM OVC050", "KHRL 011120Z 0112/0212 14011KT P6SM BKN020 FM011400 14007KT P6SM BKN025 FM011600 14009KT P6SM BKN035 BKN250 FM020300 10011KT P6SM BKN015", "KHRO 010528Z 0106/0206 24008G16KT P6SM SKC WS020/26045KT FM010900 28010G18KT P6SM SKC FM011700 01013G18KT P6SM SKC FM020100 30007KT P6SM SKC", "TAF AMD KHRT 010415Z 0104/0208 13006KT 9999 OVC008 QNH3010INS BECMG 0106/0107 20009KT 9999 SCT010 BKN015 QNH3005INS TEMPO 0114/0117 8000 -SHRA BKN008 BECMG 0116/0117 22011KT 9999 FEW020 BKN030 QNH3009INS BECMG 0201/0202 27008KT 9999 FEW150 SCT200 QNH3003INS TX24/0117Z TN16/0208Z LAST NO AMDS AFT 0104 NEXT 0310", "TAF KHST 011100Z 0111/0217 11008KT 9999 FEW020 FEW040 QNH3013INS TEMPO 0111/0113 BKN025 BECMG 0113/0114 14012KT 9999 FEW025 SCT035 QNH3010INS BECMG 0119/0120 16012KT 9999 VCSH SCT035 BKN050 QNH3008INS BECMG 0123/0124 VRB06KT 9999 NSW SCT025 SCT040 QNH3005INS BECMG 0213/0214 32009KT 9999 SCT025 QNH3007INS TX30/0119Z TN20/0211Z", "KHSV 011128Z 0112/0212 23008G20KT P6SM BKN080 FM011600 26025G38KT P6SM FEW250 FM012300 30012G20KT P6SM SKC", "KHTS 011120Z 0112/0212 30010G21KT P6SM SCT070 BKN100 WS020/23050KT FM011500 23021G39KT P6SM SKC FM011800 25024G46KT P6SM FEW190 FM020200 28013G30KT P6SM BKN030 FM020500 29010G22KT P6SM BKN045 FM021000 31005KT P6SM SCT030", "TAF AMD KHUA 312000Z 3120/0120 21012G18KT 8000 -SHRA SCT015 BKN055 WS020/20040KT QNH2998INS BECMG 3121/3122 18009KT 9999 NSW BKN020 WS020/20040KT QNH2990INS BECMG 0107/0108 22015KT 8000 -SHRA OVC010 QNH2985INS TEMPO 0110/0115 24020G30KT 8000 -TSRA OVC010CB BECMG 0114/0115 23009KT 9999 NSW SCT010 QNH2987INS BECMG 0116/0117 25015G25KT 9999 SKC QNH2994INS TX25/3120Z TN15/0115Z", "KHUF 011120Z 0112/0212 30025G35KT P6SM BKN035 FM011800 33020G30KT P6SM BKN025 FM020000 34009KT P6SM SCT045", "KHUL 011120Z 0112/0212 14009KT 6SM BR OVC008 FM011500 13014G25KT 2SM -RASN BR OVC005 FM012000 14009KT 6SM BR VCSH OVC004 FM020500 27007KT 6SM BR VCSH BKN008 FM020800 32010G21KT 6SM BR VCSH BKN022 WS003/33045KT FM021100 32019G34KT P6SM BKN035 WS003/32055KT", "KHUM 011007Z 0110/0206 25006KT 5SM BR SCT007 FM011500 26009KT P6SM BKN025 FM011700 29008KT P6SM FEW025 SCT110", "KHUT 011120Z 0112/0212 31014KT P6SM SKC FM012300 19008KT P6SM SKC FM021100 18016G24KT P6SM FEW250 WS020/21055KT", "KHVR 010541Z 0106/0206 22013KT P6SM FEW130 FM011100 22016G26KT P6SM BKN250 FM012100 24016G24KT P6SM SCT130 PROB30 0123/0124 4SM -SHRA BR OVC025 FM020300 24019G31KT P6SM SCT090", "KHYA 011120Z 0112/0212 20012KT 3/4SM -RA BR OVC003 WS020/23045KT FM011400 21016G25KT 1/2SM -RA FG OVC003 WS020/23055KT FM011800 22022G32KT 1 1/2SM -RA BR OVC003 WS020/24055KT FM020100 22013KT 2SM BR BKN003 WS020/24045KT FM020800 27015G22KT P6SM VCSH BKN030 FM021100 32019G31KT P6SM VCSH SCT080", "KHYR 011124Z 0112/0212 01016G24KT 6SM BLSN VCSH BKN035 TEMPO 0112/0113 01020G31KT BKN030 FM011700 02010G17KT P6SM FEW250 FM011900 01008KT P6SM FEW250 FM020900 17011G17KT P6SM FEW002 BKN110", "KHYS 011120Z 0112/0212 28013KT P6SM SKC FM012000 25009KT P6SM SKC FM012300 19011KT P6SM SKC", "TAF KIAB 011000Z 0110/0216 32015G25KT 9999 SKC QNH2999INS BECMG 0114/0115 34012G22KT 9999 SKC QNH3017INS BECMG 0117/0118 34012KT 9999 SKC QNH3005INS BECMG 0200/0201 VRB06KT 9999 SKC QNH2988INS BECMG 0209/0210 17012KT 9999 SKC WS020/20045KT QNH2982INS TX17/0121Z TN03/0112Z", "KIAD 011126Z 0112/0218 20020G33KT 6SM SHRA BR BKN020 OVC150 WS020/21055KT FM011500 22017G30KT P6SM BKN050 FM011900 22023G38KT P6SM SCT050 SCT250 FM012100 27025G48KT 6SM SHRA BR SCT050 SCT150 FM012300 28029G52KT P6SM BKN100 FM020200 29021G40KT P6SM FEW200 FM020500 29018G31KT P6SM SCT120 FM021200 32018G27KT P6SM FEW250", "KIAG 011120Z 0112/0212 23025G40KT P6SM SKC FM011800 25020G35KT 6SM -SHRA OVC050 FM012100 27020G32KT P6SM VCSH BKN007 FM020300 32020G32KT P6SM BKN015 FM020600 33015G25KT P6SM SCT050", "KIAH 011120Z 0112/0218 VRB04KT 5SM BR FEW020 BKN250 TEMPO 0112/0113 3SM BR BKN020 FM011500 36006KT P6SM BKN250 FM011700 01009KT P6SM BKN250 FM020100 VRB04KT P6SM BKN100 FM021400 12010KT P6SM BKN040", "KICT 011120Z 0112/0212 31013KT P6SM SKC FM012300 20009KT P6SM SKC FM021100 18015G23KT P6SM FEW250 WS020/20050KT", "KIDA 011120Z 0112/0212 19012KT P6SM SCT035 OVC060 FM011700 20020G30KT P6SM SCT025 OVC040 FM012000 22026G36KT 6SM -RASN SCT010 BKN025 OVC050 FM012200 22022G32KT 3SM -SN SCT009 BKN012 OVC025 FM020400 21020KT P6SM VCSH SCT015 OVC025", "KIFP 011122Z 0112/0212 VRB05KT P6SM SCT200 FM011600 36006KT P6SM FEW200 FM012000 19007KT P6SM FEW250 FM020200 15006KT P6SM FEW250", "KILG 011122Z 0112/0212 21015G21KT 5SM -SHRA VCTS BKN015CB OVC030 FM011800 23019G32KT P6SM BKN150 FM020100 29020G29KT P6SM VCSH BKN070 FM020600 29017G26KT P6SM OVC050", "KILM 011120Z 0112/0212 21014G22KT P6SM SCT035 BKN060 FM011400 22020G30KT P6SM SCT030 BKN150 FM012100 22024G32KT P6SM VCSH BKN040 FM020000 24015G24KT P6SM FEW250 FM020700 28012KT P6SM SKC", "KILN 011120Z 0112/0212 20013KT P6SM SKC WS020/22050KT FM011300 24022G32KT P6SM SKC WS020/22050KT FM011500 26026G42KT P6SM BKN045 FM011700 26026G42KT P6SM VCSH OVC025 FM012000 26022G34KT P6SM BKN015 FM012300 29020G30KT P6SM VCSH BKN015 FM020300 30012KT P6SM BKN015 FM020500 33008KT P6SM BKN015", "KIND 011120Z 0112/0218 19015G25KT P6SM SKC FM011300 23020G35KT P6SM BKN035 FM011400 27026G40KT P6SM BKN025 FM012100 30021G33KT P6SM SCT025 FM020000 34011KT P6SM BKN050", "KINK 011120Z 0112/0212 03006KT P6SM BKN250 FM011800 14009KT P6SM BKN250", "KINL 011124Z 0112/0212 03006KT P6SM FEW250 FM020600 18010G16KT P6SM BKN090", "TAF KINS 010445Z 0105/0211 VRB06KT 9999 FEW250 QNH3006INS BECMG 0119/0120 10008KT 9999 FEW250 QNH2996INS BECMG 0123/0124 21010G18KT 9999 FEW250 QNH2995INS WND 120V210 BECMG 0202/0203 22007KT 9999 FEW250 QNH2991INS TX20/0121Z TN01/0112Z LAST NO AMDS AFT 0105 NEXT 0305", "KINT 011120Z 0112/0212 21012G20KT P6SM -SHRA OVC015 WS020/22055KT TEMPO 0113/0115 2SM RA BR BKN009 FM011700 23020G35KT P6SM SCT250 FM020000 27015G30KT P6SM SKC FM020600 30010G20KT P6SM SKC", "KINW 011120Z 0112/0212 13006KT P6SM SCT120 FM012000 22011KT P6SM SCT150", "KIPL 010520Z 0106/0206 33003KT P6SM SCT200 FM010800 28004KT P6SM SCT200 FM011700 35005KT P6SM FEW150 FM020300 26007KT P6SM SKC", "KIPT 010926Z 0109/0206 10006KT 5SM SHRA BR BKN015 OVC030 WS018/21040KT FM011300 22008G15KT P6SM SCT025 FM011600 23013G23KT P6SM SKC FM011900 24017G35KT P6SM BKN060 FM012100 24018G36KT P6SM VCTS BKN050CB FM012200 27022G40KT P6SM BKN045 FM020400 28018G26KT P6SM OVC050", "KISM 011127Z 0112/0212 22004KT P6SM BKN250 FM011500 20010KT P6SM SCT040 BKN250 FM011800 23014G22KT P6SM SCT060 BKN250 FM020100 27007KT P6SM FEW060 BKN250 FM021000 29003KT P6SM OVC012", "KISO 011127Z 0112/0212 21016G27KT P6SM BKN035 TEMPO 0112/0113 21016G25KT P6SM BKN025 FM011700 22024G38KT P6SM VCSH SCT025 BKN100 FM020000 23018G30KT P6SM FEW220 FM020200 25017G27KT P6SM SKC FM021000 32011KT P6SM SKC AMD LTD TO CLD VIS AND WIND", "KISP 010848Z 0109/0206 20014KT 5SM -SHRA BR OVC005 FM011100 21018G29KT 3SM SHRA BR OVC006 WS020/22055KT FM011900 21020G31KT P6SM SCT008 SCT050 SCT250 FM020000 23018G28KT 5SM -SHRA BR SCT010 SCT030 BKN050 PROB30 0200/0202 25022G35KT 3SM TSRA BKN010CB FM020400 29019G30KT P6SM VCSH OVC040", "KITH 011120Z 0112/0212 19015G25KT P6SM -SHRA OVC020 WS020/23040KT FM011400 22015G28KT P6SM FEW150 TEMPO 0120/0122 26020G38KT 2SM TSRA OVC015CB FM012200 28017G28KT 4SM -SHRA BR OVC015 FM020600 32015G25KT P6SM BKN026", "KIWA 010520Z 0106/0206 02004KT P6SM FEW100 SCT250 FM010700 11005KT P6SM FEW100 SCT250 FM012000 26005KT P6SM FEW150 AMD LTD TO CLD VIS AND WIND TIL 011200", "KIWD 011120Z 0112/0212 02016G30KT P6SM BKN018 FM011300 02017G29KT P6SM BKN025 FM011700 02013KT P6SM FEW140 FM012100 01006KT P6SM FEW250 FM020000 00000KT P6SM FEW240 FM020700 18005KT P6SM FEW250", "KIXD 011120Z 0112/0212 30020G35KT P6SM SCT030 SCT100 FM011500 30015KT P6SM FEW230 FM012100 30008KT P6SM SKC FM020000 18011KT P6SM SKC", "KJAC 011120Z 0112/0212 20012G20KT 2SM -SN BR BKN018 OVC030 FM011500 20015G25KT 5SM -SN SCT025 OVC035 FM012000 22025G35KT 1 1/2SM -SN SCT012 OVC020 FM020500 23015G25KT 3SM -SN SCT018 OVC030", "KJAN 011129Z 0112/0212 25005KT P6SM BKN070 FM011600 29012G18KT P6SM SKC FM012300 32010KT P6SM SKC", "KJAX 010523Z 0106/0206 18007KT P6SM SCT250 FM011400 22010G18KT P6SM FEW030 BKN250 FM011700 23017G25KT P6SM SCT050 BKN250", "KJBR 011120Z 0112/0212 25011G18KT P6SM FEW250 FM011400 29020G28KT P6SM FEW250 FM012100 31010G17KT P6SM SKC FM020100 29003KT P6SM SKC", "KJCT 011120Z 0112/0212 VRB04KT P6SM SCT250 FM011700 11008KT P6SM BKN250 FM021100 16006KT P6SM BKN020", "KJEF 010900Z 0109/0206 28024G36KT P6SM FEW250 FM011100 29025G40KT P6SM BKN035 FM011700 30018G28KT P6SM SCT100 FM020100 VRB04KT P6SM SKC", "KJER 011126Z 0112/0212 19008KT P6SM VCSH OVC100 FM011600 24015G25KT P6SM VCSH OVC050 FM011900 26025G35KT 5SM -RA BR OVC025 FM020000 25011KT 2SM -SHSN OVC015 TEMPO 0200/0203 1SM -SNRA BR OVC010", "KJFK 010848Z 0109/0212 20012KT 5SM -SHRA BR SCT015 OVC025 FM011000 20013KT 4SM SHRA BR OVC007 WS020/23050KT FM011400 22017G28KT 5SM -SHRA BR SCT015 OVC025 WS020/23050KT FM011800 21019G30KT P6SM SCT050 SCT250 FM012300 22017G27KT 5SM -SHRA BR SCT030 BKN050 BKN100 PROB30 0123/0201 25015G30KT 3SM TSRA BKN015CB FM020200 28023G35KT P6SM VCSH OVC040 FM020400 30021G32KT P6SM SCT040 BKN250", "KJHW 011120Z 0112/0212 22015G25KT P6SM SCT250 FM011700 24022G38KT 6SM -SHRA BKN040 TEMPO 0118/0120 2SM TSRA BR BKN025CB FM012000 25025G40KT 6SM -SHRA BR OVC025 FM012200 27022G38KT 6SM -SHRA BR OVC007 FM020300 31018G30KT P6SM VCSH OVC007 FM020800 32012G22KT P6SM SCT025 SCT250", "KJKA 011058Z 0111/0206 22007KT 1 1/2SM BR OVC002 FM011400 23010KT 6SM BR BKN008 FM011600 24012KT P6SM BKN013 FM011900 26010KT P6SM BKN035 OVC250 FM020100 32005KT P6SM SCT250", "KJKL 010540Z 0106/0206 21019G33KT P6SM VCTS OVC070CB WS020/22055KT FM010700 23020G34KT 4SM +SHRA BR VCTS OVC030CB WS020/21050KT TEMPO 0107/0109 1SM TSRA OVC005CB FM010930 24013G25KT P6SM VCSH OVC050 FM011600 24025G43KT P6SM FEW080 FEW250 FM012200 28020G36KT P6SM SCT030 BKN050 FM020500 30009KT P6SM BKN035", "KJLN 011120Z 0112/0212 29016G24KT P6SM SKC FM011900 31012KT P6SM SKC FM012300 VRB04KT P6SM SKC FM020700 17008KT P6SM SKC", "KJMS 010546Z 0106/0206 34015KT P6SM SCT150 FM010900 32008KT P6SM FEW150 FM011800 19012KT P6SM SKC FM012000 19016G25KT 6SM BLSN FEW150", "KJST 010926Z 0109/0206 21015G22KT 5SM -RA SCT018 BKN030 OVC045 WS015/22050KT FM011200 23016G26KT P6SM SKC FM011800 24019G40KT P6SM BKN060 FM012000 26020G42KT 6SM -SHRA VCTS BKN035CB FM012100 28022G42KT 5SM -SHRA OVC025 FM020000 30027G37KT 4SM -SHSN OVC013", "KJVL 011120Z 0112/0212 26014KT P6SM OVC012 FM011300 28013KT 3SM -SN BR OVC011 FM011500 34019G31KT P6SM OVC012 FM011900 34018G30KT P6SM BKN021 FM012100 35012KT P6SM SCT050 FM020100 VRB04KT P6SM SKC", "KJXN 011118Z 0112/0212 24018G25KT P6SM SKC FM011400 27011G22KT P6SM VCSH OVC035 FM011500 29013G26KT 6SM BR VCSH BKN021 FM011700 27014G26KT P6SM VCSH BKN016 FM020200 34012G20KT P6SM BKN020 FM020800 35006KT P6SM FEW250", "KJZI 011125Z 0112/0212 21013G20KT P6SM FEW015 BKN200 FM011430 22018G27KT P6SM FEW040 BKN150 FM011700 22021G30KT P6SM FEW040 SCT100 FM011900 22022G30KT P6SM VCSH SCT040 BKN080 TEMPO 0120/0122 3SM TSRA BR SCT040CB OVC060 FM012200 24016G24KT P6SM SCT040 OVC080 FM020200 24011KT P6SM SCT250 FM020700 28010KT P6SM FEW250", "KLAF 011120Z 0112/0212 31027G38KT P6SM BKN035 FM011500 32020G32KT P6SM BKN025 FM020000 33013G22KT P6SM BKN035", "KLAL 011120Z 0112/0212 14004KT P6SM BKN250 FM011400 21008KT P6SM SCT030 BKN250 FM011800 25013G20KT P6SM SCT050 BKN250 FM020100 VRB04KT P6SM SCT250", "KLAN 011118Z 0112/0212 24018G25KT P6SM BKN035 FM011500 27011G25KT P6SM VCSH BKN025 FM020000 35013G22KT P6SM BKN020 FM020200 33012KT P6SM BKN060 FM021000 00000KT P6SM FEW250", "KLAR 010520Z 0106/0206 27015G25KT P6SM SKC FM011000 25022G32KT P6SM SCT100 FM011700 23028G40KT P6SM SCT250 FM020200 24018G28KT P6SM BKN250", "KLAS 011122Z 0112/0218 VRB05KT P6SM FEW250 FM011900 15006KT P6SM FEW150 FM012200 20012G20KT P6SM FEW150 FM020300 22009KT P6SM FEW250 FM021400 VRB05KT P6SM SKC", "KLAW 011120Z 0112/0212 02010KT P6SM SCT250 FM012100 12007KT P6SM SKC FM020900 16010KT P6SM SCT050 BKN180", "KLAX 011120Z 0112/0218 VRB03KT P6SM BKN200 FM011900 26008KT P6SM BKN200 FM012200 26015KT P6SM BKN200 FM020300 26008KT P6SM BKN200 FM020900 VRB03KT P6SM BKN015", "KLBB 011120Z 0112/0212 30010KT P6SM FEW250 FM011800 20010KT P6SM SCT250 FM012300 17015KT P6SM SCT250", "KLBE 010836Z 0109/0206 24014G25KT P6SM -RA OVC035 FM011100 23016G26KT P6SM BKN070 FM012100 27024G37KT 6SM -TSRA OVC025CB FM020200 28015G29KT P6SM BKN017", "KLBF 011123Z 0112/0212 29005KT P6SM SKC FM011900 26013KT P6SM FEW250 FM020100 18009KT P6SM FEW250 FM020800 24007KT P6SM FEW250", "KLBL 011120Z 0112/0212 33007KT P6SM SKC FM012000 17012KT P6SM SKC FM012200 18015KT P6SM FEW250", "KLBT 011120Z 0112/0212 20016G26KT P6SM SCT040 FM011500 22022G29KT P6SM SCT035 FM011700 23018G30KT P6SM VCSH BKN050 FM020100 24017G26KT P6SM SKC WS005/26040KT FM020500 29013G21KT P6SM SKC FM020800 33010KT P6SM SKC", "KLBX 011120Z 0112/0212 VRB03KT 5SM BR SCT007 OVC010 TEMPO 0112/0113 1SM BR BKN007 FM011500 02006KT P6SM SCT015 BKN025 FM011800 05007KT P6SM BKN250 FM020100 VRB03KT P6SM BKN250 FM020700 VRB05KT P6SM BKN030", "KLCH 010742Z 0108/0206 20009KT 5SM BR VCSH FEW007 BKN020 TEMPO 0110/0114 2SM BR BKN003 FM011500 32007KT P6SM SCT250 FM012300 VRB04KT P6SM SCT250", "KLCK 011120Z 0112/0212 19010KT P6SM FEW120 FM011400 22022G36KT P6SM SKC FM011600 24027G45KT P6SM SCT050 FM011800 27027G45KT P6SM VCSH BKN035 FM012000 26023G34KT 6SM -SHRA BKN025 FM012300 28018G28KT P6SM VCSH BKN015 FM020200 29016G24KT P6SM VCSH BKN015 FM020500 33010KT P6SM BKN015", "KLEB 011018Z 0110/0206 VRB05KT 1SM -RA BR OVC008 FM011700 23011KT 3SM BR SCT008 BKN012 FM011900 24011G15KT P6SM SCT030 BKN050 FM020000 25009KT 3SM -SHRA BR SCT020 BKN030 TEMPO 0200/0202 2SM TSRA OVC025CB", "KLEE 011127Z 0112/0212 19006KT P6SM BKN250 FM011500 20008KT P6SM SCT040 BKN250 FM011800 24012G20KT P6SM SCT060 BKN250 FM020100 25006KT P6SM FEW060 BKN250 FM020800 29003KT P6SM OVC015", "KLEX 011120Z 0112/0212 21011G16KT P6SM FEW050 SCT150 WS020/25045KT FM011330 24024G35KT P6SM SCT040 FM011500 24029G41KT P6SM SCT040 FM011900 27025G36KT P6SM BKN040 FM012200 28022G30KT P6SM BKN040 FM020100 28015G24KT P6SM BKN040 FM020300 28011KT P6SM BKN040 FM020600 29005KT P6SM SCT040", "TAF KLFI 010900Z 0109/0215 19020G30KT 9999 FEW005 BKN015 OVC110 520203 530507 QNH2976INS TEMPO 0109/0112 8000 -SHRA BKN010 OVC090 BECMG 0115/0116 20025G35KT 8000 -RA FEW020 BKN030 OVC080 530203 QNH2960INS TEMPO 0117/0120 26030G40KT 3200 TSRA FEW015CB OVC030 BECMG 0119/0120 22020G30KT 9999 NSW FEW020 SCT100 520203 QNH2953INS BECMG 0123/0124 21015G25KT 9999 FEW060 SCT120 QNH2957INS BECMG 0204/0205 29015KT 9999 FEW040 QNH2977INS TX25/0119Z TN10/0205Z", "KLFK 010944Z 0110/0206 VRB03KT 1/4SM FG VV001 TEMPO 0110/0112 1SM BR VV005 FM011200 VRB03KT P6SM SCT250 FM011500 34007KT P6SM BKN250 FM020000 VRB03KT P6SM FEW250", "KLFT 010520Z 0106/0206 20007KT P6SM BKN014 TEMPO 0110/0114 4SM BR BKN007 FM011500 30007KT P6SM BKN025 BKN150 FM011600 32009KT P6SM SCT100", "KLGA 010848Z 0109/0212 20010KT 5SM -SHRA BR SCT015 OVC025 FM011000 20012KT 3SM SHRA BR OVC009 WS020/23050KT FM011400 21017G27KT 5SM -SHRA BR SCT015 OVC025 WS020/23050KT FM011800 21018G30KT P6SM SCT050 SCT250 FM012300 23016G26KT 5SM -SHRA BR SCT030 BKN050 BKN100 PROB30 0123/0201 25015G30KT 3SM TSRA BKN015CB FM020200 28023G35KT P6SM VCSH OVC040 FM020400 30021G32KT P6SM SCT040 BKN250", "KLGB 011120Z 0112/0212 VRB03KT P6SM BKN200 FM012000 20008KT P6SM BKN200 FM020100 29008KT P6SM BKN200 FM020500 VRB03KT P6SM BKN200 FM020900 VRB03KT P6SM OVC015", "KLGU 010647Z 0107/0206 VRB04KT P6SM FEW050 BKN100 TEMPO 0107/0109 1/4SM FG VV001 FM011900 22010KT P6SM SCT060 OVC090 FM020000 33006KT P6SM VCSH SCT030 OVC060", "KLIT 010528Z 0106/0206 27008KT P6SM SCT250 WS020/27035KT FM011400 29012G20KT P6SM SCT250 FM020100 30005KT P6SM SKC", "KLLQ 010528Z 0106/0206 24008KT P6SM SCT060 WS020/28035KT FM010900 25009KT P6SM BKN250 FM011200 28010G15KT P6SM SCT250 FM020100 VRB03KT P6SM SKC", "KLMT 010539Z 0106/0206 19010G20KT P6SM OVC050 FM011000 21014KT P6SM -RASN OVC015 FM011300 20012KT 4SM -SN OVC015 FM011900 23017G30KT 2SM -RASN BR SCT012 OVC020 FM012100 27015G20KT 5SM -RASN OVC025", "KLND 011120Z 0112/0212 VRB06KT P6SM FEW080 SCT120 FM011700 23012G25KT P6SM FEW100 BKN150 FM012000 25025G40KT P6SM FEW080 BKN120 FM020100 26012KT P6SM VCSH SCT040 BKN070", "KLNK 011120Z 0112/0212 32019G33KT P6SM SCT150 FM011700 30010KT P6SM SKC FM020000 17010KT P6SM SKC FM020500 17017G30KT P6SM BKN250 WS020/20050KT", "KLNS 010926Z 0109/0206 20010KT P6SM VCSH SCT008 OVC013 WS020/22050KT FM011100 20015G25KT 4SM SHRA BR OVC020 FM011500 24012G24KT P6SM SKC FM011900 24017G33KT P6SM BKN080 FM012200 24017G38KT P6SM VCSH BKN070 FM012330 28024G44KT P6SM SCT045 FM020300 31027G37KT P6SM BKN050", "KLOZ 010540Z 0106/0206 20021G36KT P6SM SHRA VCTS OVC035CB WS020/22050KT FM010700 23020G34KT 4SM +SHRA BR VCTS OVC030CB WS020/21050KT TEMPO 0107/0109 1SM TSRA OVC005CB FM010900 24015G25KT P6SM VCSH OVC060 FM011600 24025G42KT P6SM SKC FM012000 27021G35KT P6SM FEW060 SCT090 FM020000 29015G26KT P6SM BKN040", "KLRD 011127Z 0112/0212 05009KT P6SM VCSH OVC010 FM011900 14008KT P6SM SCT035 OVC150 FM020000 01009KT P6SM OVC250 FM021000 13008KT P6SM OVC015", "TAF KLRF 010700Z 0107/0213 25009KT 9999 SKC QNH2984INS BECMG 0114/0115 30012KT 9999 SKC QNH3002INS TX20/0121Z TN09/0207Z", "KLRU 011125Z 0112/0212 VRB05KT P6SM SKC FM011900 23008KT P6SM FEW250", "KLSE 011120Z 0112/0212 35017G26KT 4SM -SN OVC015 FM011400 34018G28KT P6SM BKN022 FM011600 34014G20KT P6SM SCT040 FM012000 30008KT P6SM SKC FM020600 16005KT P6SM FEW100", "TAF KLSF 312100Z 3121/0203 17012G18KT 9999 FEW030 SCT250 510105 QNH3004INS BECMG 0100/0101 19009KT 9999 FEW010 SCT030 BKN120 WSCONDS QNH3007INS BECMG 0105/0106 20010G15KT 9999 BKN010 OVC030 WSCONDS 510105 QNH3000INS BECMG 0109/0110 21012G18KT 9999 VCSH BKN009 OVC030 540109 QNH2999INS BECMG 0114/0115 26012G22KT 8000 -SHRA VCTS BKN015 OVC030 540109 QNH2996INS TEMPO 0115/0119 VRB18G28KT 4800 -TSRA BKN009CB OVC015 BECMG 0121/0122 29015G25KT 9999 NSW FEW015 SCT030 BKN060 520105 QNH2995INS TX27/3121Z TN18/0111Z LAST NO AMDS AFT 3102 NEXT 0313", "TAF KLSV 010700Z 0107/0213 03008KT 9999 SCT250 QNH3013INS BECMG 0113/0114 08009KT 9999 FEW250 QNH3012INS BECMG 0122/0123 17012G18KT 9999 FEW250 QNH3005INS BECMG 0205/0206 20010G15KT 9999 FEW250 QNH2996INS TX24/0122Z TN07/0112Z", "TAF AMD KLTS 010600Z 0106/0207 25009KT 9999 SKC 510102 QNH2978INS BECMG 0109/0110 VRB06KT 9999 SKC QNH3001INS BECMG 0114/0115 01010G15KT 9999 SKC QNH3005INS BECMG 0123/0124 VRB06KT 9999 SKC QNH2996INS TX21/0121Z TN04/0112Z LAST NO AMDS AFT 0106 NEXT 0309", "TAF KLUF 312000Z 3120/0202 VRB06KT 9999 FEW060 SCT200 QNH3008INS BECMG 0104/0105 VRB06KT 9999 BKN200 QNH3004INS BECMG 0119/0120 22012KT 9999 SKC QNH2993INS TX26/3123Z TN09/0113Z LAST NO AMDS AFT 0100 NEXT 0312", "KLUK 011120Z 0112/0212 21010KT P6SM SKC WS020/23050KT FM011300 22018G28KT P6SM SKC WS020/23050KT FM011500 24022G40KT P6SM SCT050 FM011700 26022G40KT P6SM BKN040 FM012000 27022G32KT P6SM VCSH BKN028 FM012300 29015G25KT P6SM VCSH BKN028 FM020400 31012KT P6SM BKN028 FM020600 32008KT P6SM BKN040", "KLVK 011124Z 0112/0212 29004KT P6SM FEW035 SCT250 FM012100 25008KT P6SM FEW040 SCT250 FM020300 27007KT P6SM VCSH SCT015 BKN030 FM021100 27008KT P6SM SCT030", "KLVM 011120Z 0112/0212 23036G45KT P6SM OVC070 FM012300 24035G45KT P6SM VCSH BKN040 OVC100 FM020100 24031G44KT 1SM -SN BR OVC030 FM020800 24019G27KT P6SM SCT060", "KLVS 010526Z 0106/0206 32006KT P6SM SKC FM010800 VRB06KT P6SM FEW250 WS020/29040KT FM011200 VRB06KT P6SM FEW250 FM011600 20008KT P6SM FEW250 FM011900 22015G24KT P6SM FEW250 FM020200 22009KT P6SM FEW250", "KLWB 010852Z 0109/0206 02007KT 5SM -RA BR SCT030 OVC070 WS020/21040KT FM011000 23010G21KT 4SM SHRA OVC015 TEMPO 0110/0112 27018G35KT 3SM TSRA OVC020CB FM011300 25011G23KT P6SM -SHRA OVC060 FM011800 26022G37KT P6SM SCT050 FM020200 29021G34KT P6SM BKN030", "KLWS 010520Z 0106/0206 18007KT 6SM -RA OVC020 TEMPO 0112/0116 4SM -RA BR OVC015 FM011600 25012KT P6SM -RA OVC025 FM011800 27015G25KT P6SM BKN040", "KLWT 010541Z 0106/0206 23011G20KT P6SM FEW250 FM011100 22014G25KT P6SM BKN130 FM011600 23018G31KT P6SM SCT250 PROB30 0123/0124 4SM -SHRA BR OVC025 FM020000 25018G28KT P6SM -SHSN BKN050 PROB30 0200/0206 4SM -SHSNRA BR OVC025", "KLYH 010840Z 0109/0206 20007KT P6SM VCSH SCT025 OVC150 TEMPO 0112/0114 21021G31KT 5SM SHRA OVC035 FM011600 23014G30KT P6SM BKN060 FM012300 27020G35KT P6SM SKC FM020200 29017G29KT P6SM SKC", "KMAF 011120Z 0112/0212 35006KT P6SM BKN250 FM011800 15010KT P6SM BKN250", "KMBG 011122Z 0112/0212 23003KT P6SM SKC FM011500 16009KT P6SM FEW250 FM020900 21006KT P6SM BKN100 WS020/28030KT FM021000 24008KT P6SM BKN080 FM021100 27010G25KT P6SM SCT060", "KMBL 011127Z 0112/0212 23010G20KT P6SM -DZ VCSH OVC008 FM011600 36010G20KT 3SM -SN BR BLSN BKN005 OVC010 FM011800 36020G35KT 4SM -SN BLSN OVC025 FM012200 35015G30KT 6SM BLSN SCT030 FM020300 14005KT P6SM FEW020", "KMBS 011126Z 0112/0212 24018G28KT P6SM SKC FM011400 22014G22KT 6SM -SHRA BKN024 OVC045 FM011800 29018G32KT P6SM BKN030 OVC050 FM012200 33014G24KT P6SM SCT035 FM020600 35007KT P6SM SKC", "KMCB 011005Z 0110/0206 22005KT 6SM BR VCSH OVC015 FM011400 27010KT P6SM VCSH SCT015 OVC025 FM011600 30010KT P6SM SCT025", "KMCC 011120Z 0112/0212 16008KT P6SM SCT050 BKN150", "KMCE 011120Z 0112/0212 00000KT P6SM SKC", "TAF KMCF 010900Z 0109/0215 16009KT 9999 SKC QNH3009INS BECMG 0114/0115 23010G15KT 9999 SCT080 QNH3014INS BECMG 0200/0201 26006KT 9999 SCT025 QNH3005INS TX30/0119Z TN20/0110Z", "KMCI 011120Z 0112/0212 30020G35KT P6SM SCT030 SCT100 FM011500 30015KT P6SM FEW230 FM012100 30008KT P6SM SKC FM020000 18011KT P6SM SKC", "KMCK 011120Z 0112/0212 28008KT P6SM SKC FM011700 26012KT P6SM SKC FM011930 23016KT P6SM SKC TEMPO 0120/0124 23016G25KT FM020000 18015KT P6SM SKC FM020700 VRB06KT P6SM SKC", "KMCN 011120Z 0112/0212 22010G20KT P6SM FEW008 OVC015 FM011500 23015G25KT P6SM SHRA SCT008 BKN015 TEMPO 0115/0117 4SM TSRA BR SCT008 OVC015CB FM011800 26015G23KT P6SM FEW035 FEW250 FM020000 30009KT P6SM FEW250", "KMCO 011127Z 0112/0218 19005KT P6SM BKN250 FM011500 20010KT P6SM SCT040 BKN250 FM011800 23014G20KT P6SM SCT060 BKN250 FM020100 25007KT P6SM FEW060 BKN250 FM021000 29003KT P6SM OVC012 FM021500 32007KT P6SM SCT030 BKN250", "KMCW 011125Z 0112/0212 33029G38KT P6SM OVC014 FM011700 33015G23KT P6SM SCT050 FM020100 VRB03KT P6SM SKC FM020700 15011G20KT P6SM BKN250", "KMDT 010940Z 0110/0206 18010G20KT P6SM BKN015 OVC035 WS020/22045KT FM011100 18015G25KT 4SM SHRA BR OVC020 FM011400 24012G21KT P6SM SKC FM011900 24015G33KT P6SM BKN080 FM012100 24017G38KT P6SM VCSH BKN070 FM012230 28024G44KT P6SM SCT045 FM020300 31027G37KT P6SM BKN050", "KMDW 011120Z 0112/0218 26021G32KT P6SM VCSH BKN012 OVC020 FM011500 33022G35KT P6SM VCSH OVC012 TEMPO 0115/0118 3SM -SHRASN BR FM011800 34018G30KT P6SM BKN020 FM020100 36005KT P6SM FEW025 FM020400 06003KT P6SM FEW250 FM021000 17008KT P6SM FEW150 FM021600 19012G18KT P6SM SCT150", "KMEI 011129Z 0112/0212 24010KT P6SM SCT030 BKN060 FM011600 30012G18KT P6SM SKC FM012300 33010KT P6SM SKC", "KMEM 011120Z 0112/0218 24011G18KT P6SM SCT250 FM011500 31016G23KT P6SM SCT250 FM012300 33009KT P6SM SKC FM020100 VRB03KT P6SM SKC FM021500 16007KT P6SM SCT250", "KMER 011120Z 0112/0212 00000KT P6SM SKC", "KMEV 011120Z 0112/0212 16008KT P6SM BKN220 WS005/24035KT FM011900 26014G22KT P6SM FEW060 BKN220 FM020000 27010G18KT P6SM BKN050", "KMFD 010710Z 0107/0206 26012G25KT P6SM -SHRA OVC045 FM010800 22021G29KT P6SM SCT045 FM011500 21023G43KT P6SM -SHRA SCT025 OVC050 FM011900 25025G41KT P6SM BKN025 FM012200 27019G29KT P6SM BKN015 FM020200 32012G20KT P6SM BKN015", "KMFE 011120Z 0112/0212 12008KT 4SM BR BKN020 FM011500 13008KT P6SM BKN025 FM011700 12008KT P6SM SCT035 BKN250 FM020400 11011KT P6SM BKN015", "KMFR 010539Z 0106/0206 VRB05KT P6SM -RA OVC050 FM010900 13007KT P6SM -RA OVC050 FM011100 VRB05KT 6SM -RA BR BKN020 OVC030 FM012200 32008KT P6SM -RA OVC040", "TAF COR KMGE 011115Z 0111/0203 20010G20KT 4800 -TSRAGR BKN010CB OVC025 510006 QNH2990INS BECMG 0114/0115 25015G25KT 9999 NSW FEW025 510006 QNH2992INS BECMG 0201/0202 29012KT 9999 SKC QNH2994INS TX25/0120Z TN15/0112Z", "KMGM 011120Z 0112/0212 22012G24KT 6SM -SHRA VCTS OVC022CB TEMPO 0114/0117 4SM TSRA BR OVC015CB FM011900 28012G20KT P6SM SCT035 BKN100 FM020300 27009KT P6SM SKC FM020500 30006KT P6SM SKC", "KMGW 010749Z 0108/0206 20015G26KT P6SM VCTS OVC025CB FM011100 23016G26KT P6SM BKN070 FM012100 27024G37KT 6SM -TSRA OVC025CB FM020200 28015G29KT P6SM BKN017", "KMHK 011123Z 0112/0212 31012G23KT P6SM SKC FM011800 28007KT P6SM SKC FM020000 18005KT P6SM SKC FM020600 18013KT P6SM SKC", "KMHR 011120Z 0112/0212 VRB05KT P6SM SCT050 BKN150", "KMHT 010909Z 0109/0206 00000KT 3/4SM -RA BR OVC003 FM011400 VRB03KT 1SM -RA BR OVC004 FM011700 VRB05KT 3SM BR OVC008 FM011900 23010KT P6SM SCT015 BKN035 FM020000 25009KT P6SM VCSH SCT025 BKN035 TEMPO 0201/0203 2SM TSRA OVC025CB", "KMIA 011120Z 0112/0218 13008KT P6SM FEW025 SCT040 FM011400 15011KT P6SM SCT030 SCT050 FM011900 17012KT P6SM VCSH SCT025 BKN050 FM020200 20006KT P6SM FEW025 SCT050 BKN150 FM021400 30007KT P6SM FEW030 SCT050 FM021700 10010KT P6SM SCT030 SCT050", "TAF AMD KMIB 311800Z 3118/0123 33009KT 9999 FEW070 QNH2984INS BECMG 3121/3122 31009KT 9999 SCT030 QNH2986INS BECMG 0101/0102 VRB06KT 4800 BR FEW050 QNH2987INS BECMG 0106/0107 28009KT 8000 BR FEW030 QNH2986INS BECMG 0114/0115 20009KT 9999 NSW FEW050 SCT080 QNH2962INS TXM01/3122Z TNM15/0104Z LAST NO AMDS AFT 3123 NEXT 0309", "KMIV 011121Z 0112/0212 21008KT 6SM -RA BR OVC015 FM011300 21016G23KT 5SM -SHRA BR OVC015 FM011600 22023G35KT P6SM VCSH SCT020 FM011900 22020G32KT P6SM SCT050 BKN100 FM020400 29012G20KT P6SM BKN100", "KMKC 011120Z 0112/0212 30020G35KT P6SM SCT030 SCT100 FM011500 30015KT P6SM FEW230 FM012100 30008KT P6SM SKC FM020000 18011KT P6SM SKC", "KMKE 011120Z 0112/0218 25014G24KT P6SM SCT024 FM011300 27014G24KT 3SM -SN BR OVC015 FM011600 33020G33KT P6SM OVC012 FM012100 35017G25KT P6SM BKN021 FM012300 35012KT P6SM SCT045 FM020400 VRB04KT P6SM FEW250 FM021400 18012KT P6SM SCT170", "KMKG 011118Z 0112/0212 22012G20KT P6SM VCSH SCT025 BKN050 FM011800 32018G27KT P6SM -SHRASN BKN015 FM012100 35023G31KT P6SM OVC020 FM012200 35017G30KT P6SM BKN040", "KMKL 011120Z 0112/0212 27011G17KT P6SM FEW250 FM011400 29016G29KT P6SM SCT250 FM012200 32010G18KT P6SM SKC FM020200 VRB03KT P6SM SKC", "KMKT 011037Z 0111/0206 33018G30KT P6SM OVC050 FM011400 33014G21KT P6SM SCT050 FM012100 30005KT P6SM SCT250", "KMLB 011127Z 0112/0212 21005KT P6SM SCT030 BKN250 FM011400 20010KT P6SM VCSH SCT035 BKN250 FM011900 15016G23KT P6SM SCT050 BKN250 FM020100 23011KT P6SM FEW060 BKN250", "KMLC 011120Z 0112/0212 34011KT P6SM SCT250 FM011500 34010KT P6SM FEW250 FM020100 VRB03KT P6SM FEW250", "KMLI 011129Z 0112/0212 25024G32KT 5SM -RASN BKN020 OVC028 FM011300 30022G37KT P6SM OVC011 FM011700 32021G34KT P6SM BKN020 FM012000 32016G26KT P6SM BKN090 FM020800 12004KT P6SM SKC", "KMLS 011120Z 0112/0212 16008KT P6SM SCT100 FM011900 22015KT P6SM SCT100 FM020500 28011KT P6SM BKN100", "KMLU 011124Z 0111/0206 21005KT 4SM BR SCT015 TEMPO 0111/0113 2SM BR BKN015 FM011500 31010KT P6SM SCT250 FM020000 VRB03KT P6SM FEW250", "KMMH 011120Z 0112/0212 VRB04KT P6SM FEW200 FM012100 26012G20KT P6SM FEW120 BKN200", "TAF KMMT 010700Z 0107/0213 19009KT 9999 SCT016 WS020/21041KT QNH3000INS BECMG 0114/0115 21012KT 9000 BR SCT008 BKN016 WS020/23038KT 510203 QNH2993INS BECMG 0116/0117 22014KT 8000 -SHRA BKN015 WS020/23038KT 510203 QNH2991INS TEMPO 0117/0119 25020G25KT 6000 -TSRA BKN015CB OVC022 BECMG 0120/0121 24025G35KT 9999 NSW FEW045 WS020/25033KT QNH2982INS BECMG 0122/0123 24012KT 9999 SKC WS020/25034KT QNH2981INS BECMG 0205/0206 29009KT 9999 SKC QNH2994INS TX25/0121Z TN13/0207Z", "KMOB 010540Z 0106/0206 19011KT 6SM BR OVC008 FM011400 23009KT P6SM OVC013 FM011800 27010KT P6SM BKN035 OVC250 FM020100 32004KT P6SM SCT250", "KMOD 011120Z 0112/0212 32007KT P6SM BKN250", "KMOT 010546Z 0106/0206 VRB05KT P6SM VCFG FEW150 FM010900 20013KT P6SM FEW200 FM011800 21016G24KT P6SM FEW120", "KMPV 011126Z 0112/0212 16007KT 3SM RA BR OVC007 FM011400 17010G19KT P6SM VCSH OVC018 WS020/23050KT FM011800 21011G23KT P6SM SCT090 WS020/26040KT FM020000 23006KT 5SM -SHRA BR BKN090 FM020400 30008G16KT 6SM BR OVC015 FM021000 30021G28KT P6SM BKN025", "KMQY 010941Z 0110/0206 18004KT P6SM FEW110 FM011600 29018G31KT P6SM SKC FM020200 33008KT P6SM SKC", "KMRB 011126Z 0112/0212 19017G28KT 6SM SHRA BR BKN070 OVC110 WS020/21055KT FM011500 22020G40KT P6SM SCT050 FM011700 23023G40KT P6SM FEW250 FM012100 25027G49KT 5SM SHRA SCT050 BKN250 FM012300 27030G53KT P6SM SCT050 BKN100 FM020200 29023G38KT P6SM SCT080 FM020800 32020G34KT P6SM SCT080", "KMRY 011124Z 0112/0212 07004KT P6SM SCT020 SCT250 FM011830 29008KT P6SM FEW030 SCT250 FM020300 23004KT P6SM VCSH SCT009 BKN015", "KMSL 011128Z 0112/0212 24010G20KT P6SM BKN080 FM011600 30022G37KT P6SM FEW250 FM012300 32010G18KT P6SM SKC", "KMSN 011120Z 0112/0212 29012KT 2SM -SN BR OVC007 FM011500 34018G28KT P6SM OVC015 FM011900 34017G26KT P6SM BKN050 FM012200 35011KT P6SM FEW230 FM020100 VRB04KT P6SM SKC", "KMSO 011120Z 0112/0212 13004KT P6SM OVC040 FM011500 22010G16KT P6SM VCSH OVC040 FM011700 27017G26KT 5SM -RA BKN025 OVC040 FM012000 29020G30KT P6SM -SHRASN OVC040 FM020200 29011KT P6SM -SHRASN OVC040 FM020800 29008KT P6SM OVC050", "KMSP 011034Z 0111/0212 36016G27KT P6SM SCT030 OVC050 FM011200 33019G30KT P6SM SCT050 FM011400 34012KT P6SM SKC FM012200 23004KT P6SM SCT250", "KMSS 011126Z 0112/0212 07006KT 5SM RA BR OVC003 FM011400 20012KT 6SM BR VCSH OVC012 WS020/24040KT FM011500 20015KT P6SM BKN015 WS020/24050KT FM011700 23016G26KT P6SM SCT150 FM012300 28010G17KT P6SM -SHRA OVC015 FM020300 33015G25KT 6SM BR BKN025", "KMSY 010825Z 0108/0212 19009KT P6SM SCT030 FM011100 20007KT 5SM BR BKN007 FM011600 25011KT P6SM BKN050 FM012100 32007KT P6SM FEW110 SCT250", "TAF KMTC 011100Z 0111/0217 23015KT 8000 -SHRA BKN025 QNH2930INS TEMPO 0114/0118 24010G35KT 2400 -TSRA OVC020CB BECMG 0117/0118 28015G30KT 8000 -SHRA BKN025 OVC040 610603 510003 QNH2935INS BECMG 0202/0203 35015G20KT 9999 NSW SCT025 510003 QNH2993INS BECMG 0206/0207 34009KT 9999 FEW030 QNH3006INS BECMG 0212/0213 18006KT 9999 FEW030 QNH3012INS TX12/0111Z TNM03/0209Z", "KMTH 011126Z 0111/0212 13009G15KT P6SM VCSH SCT025 FM011300 13005KT P6SM FEW025", "KMTJ 011120Z 0112/0212 VRB04KT P6SM SKC FM011900 26012KT P6SM SKC FM020200 17008KT P6SM SCT150", "KMTN 011126Z 0112/0212 19021G32KT 6SM SHRA BR OVC025 WS020/21055KT FM011600 22018G31KT P6SM BKN035 BKN100 FM012200 27025G48KT 6SM SHRA BR SCT050 BKN100 FM020000 29025G50KT P6SM SCT100 FM020300 29022G36KT P6SM BKN100 FM020900 32019G32KT P6SM SCT150", "KMTW 011129Z 0112/0212 35010G20KT 4SM -SN OVC006 TEMPO 0112/0115 2SM -SN FM011500 36020G30KT P6SM BKN013 FM012000 36019G26KT P6SM SCT022 FM012300 35011G17KT P6SM SKC FM020000 03004KT P6SM SKC", "TAF KMUI 010300Z 0103/0209 VRB06KT 9000 -SHRA FEW025 OVC070 QNH2935INS TEMPO 0107/0115 20015G25KT 2400 TSRA OVC005CB BECMG 0122/0123 26009KT 9000 -SHRA FEW060 BKN085 OVC120 520053 QNH2931INS BECMG 0200/0201 28015KT 9000 -SHRA BKN023 OVC035 520053 QNH2946INS BECMG 0201/0202 28015KT 9999 NSW BKN023 OVC035 520053 QNH2949INS BECMG 0204/0205 28012KT 9999 FEW023 BKN035 OVC050 520053 QNH2957INS TX21/0120Z TN07/0203Z LAST NO AMDS AFT 0104 NEXT 0311", "TAF AMD KMUO 010050Z 0100/0124 09006KT 9999 SCT030 BKN050 620505 QNH3000INS BECMG 0105/0106 12009KT 9999 VCSH SCT030 BKN050 610505 QNH2994INS BECMG 0111/0112 12009KT 8000 -SHRA SCT020 OVC030 610307 QNH2988INS BECMG 0120/0121 30015G25KT 6000 -SHRA BKN020 OVC030 610208 510009 QNH2986INS TEMPO 0121/0124 VCTS BKN010CB TX09/0101Z TN02/0112Z LAST NO AMDS AFT 0100 NEXT 0310", "KMVN 011120Z 0112/0212 26022G35KT P6SM FEW050 FM011600 28019G32KT P6SM BKN035 FM011900 30017G27KT P6SM BKN035 FM012200 31014G22KT P6SM SCT060 FM020100 32006KT P6SM SKC FM020400 VRB03KT P6SM SKC", "KMWH 010520Z 0106/0206 19018G29KT P6SM VCSH OVC070 FM010900 21016G26KT P6SM VCSH OVC045 FM011100 23015G24KT P6SM OVC120 FM012000 25018G31KT P6SM SCT100", "TAF KMXF 311900Z 3119/0201 17010G20KT 9999 FEW040 BKN190 510003 QNH3002INS BECMG 3122/3123 19009KT 9999 BKN025 WS020/20035KT QNH3002INS BECMG 0102/0103 17009KT 9999 BKN015 WS020/20035KT QNH2999INS BECMG 0106/0107 19012KT 8000 -SHRA OVC007 WS020/20035KT QNH2992INS BECMG 0114/0115 24009KT 8000 -SHRA OVC010 QNH2998INS TEMPO 0114/0116 VRB25G35KT 4800 -TSRA SCT010CB OVC015 BECMG 0116/0117 26015G25KT 9999 NSW SKC 510003 QNH2993INS BECMG 0122/0123 28012KT 9999 SKC QNH2993INS TX27/0118Z TN19/0102Z LAST NO AMDS AFT 0103 NEXT 0119", "KMYL 011126Z 0112/0212 16010KT 1SM -SN BR OVC007 FM011700 20012G22KT 1SM -SN BR OVC010 TEMPO 0119/0121 1/2SM SN FZFG OVC004 FM012300 VRB05KT P6SM VCSH OVC035", "KMYR 011120Z 0112/0212 21013G21KT P6SM BKN030 FM011700 21020G33KT P6SM BKN035 FM012000 23019G29KT P6SM VCSH BKN035 FM020300 25013G21KT P6SM FEW250 FM020700 29010KT P6SM SKC", "TAF KNBC 3121/0121 18015G25KT 9999 SCT030 SCT150 QNH3000INS BECMG 0116/0118 21015G25KT 6000 TSRA BKN005 BKN010 OVC030 QNH2988INS T19/0111Z T28/0118Z LAST NO AMDS AFT 3123 NEXT 0116", "TAF KNBG 0107/0207 22009KT 4800 BR FEW012 SCT250 540000 QNH2997INS BECMG 0109/0111 22009KT 4800 BR BKN012 BKN250 540000 QNH2997INS TEMPO 0109/0112 25010KT 4000 BR OVC007 BECMG 0112/0114 26010G17KT 9999 VCSH SCT020 BKN035 BKN120 BKN250 QNH3000INS TEMPO 0115/0118 27015KT 4800 SHRA BR BKN020 OVC030 BECMG 0118/0120 27010G18KT 9999 NSW BKN030 BKN120 BKN250 QNH2998INS BECMG 0123/0201 27016KT 9999 SCT200 QNH3000INS AUTOMATED SENSOR METWATCH 0107 TIL 0412 TX28/0120Z TN20/0112Z FN00264", "TAF KNCA 0109/0209 20015G25KT 9999 FEW030 QNH2994INS FM011300 20015G30KT 9999 SCT030 BKN100 QNH2971INS BECMG 0122/0200 21015G25KT 9999 FEW200 QNH2973INS BECMG 0203/0205 29010G20KT 9999 SKC QNH2981INS T23/0117Z T13/0209Z", "KNEW 011007Z 0110/0206 24011KT P6SM BKN009 FM011600 28009KT P6SM SCT025 BKN050", "TAF KNFG 0109/0209 VRB05KT 9999 BKN200 522509 523405 QNH3008INS FM011530 VRB05KT 9999 FEW200 500000 QNH3007INS FM012200 26010KT 9999 SKC QNH3005INS BECMG 0204/0206 9999 BKN030 QNH3008INS T05/0114Z T19/0121Z", "TAF KNFL 0107/0207 VRB06KT 9999 SKC QNH3006INS FM011800 20012G19KT 9999 SCT150 SCT220 510009 QNH3001INS FM012100 27019G29KT 9999 BKN040 640305 520004 540409 QNH2999INS FM020300 20007KT 9999 BKN045 640305 500000 QNH2998INS AUTOMATED SENSOR METWATCH 0107 TIL 0115 TX15/0123Z TN00/0113Z FS30171", "TAF KNFW 0107/0207 VRB06KT 9999 FEW250 QNH2988INS AUTOMATED SENSOR METWATCH 0107 TIL 0111 TX27/0123Z TN11/0113Z FN00264", "TAF KNGP 0107/0207 17012KT 6000 BR BKN005 OVC012 QNH2990INS TEMPO 0106/0112 0800 FG OVC003 FM011500 12007KT 9999 BKN020 BKN150 OVC250 611507 QNH3001INS FM011700 12011KT 9999 FEW030 BKN250 600000 QNH2993INS BECMG 0204/0206 9999 SCT010 BKN100 QNH2995INS AUTOMATED SENSOR METWATCH 0107 TIL 0223 TX28/0123Z TN20/0112Z FN00264", "TAF KNGU 0107/0207 22020G30KT 9999 VCSH FEW015 BKN020 OVC060 WS020/23050KT 641209 642103 540009 540901 QNH2983INS TEMPO 0107/0112 21017G24KT 8000 -SHRA BR SCT010 OVC025 FM011200 21020G35KT 9999 VCSH BKN025 OVC080 WS020/22050KT 641209 642103 540009 540901 542709 523605 QNH2953INS TEMPO 0115/0121 23025G35KT 4800 SHRA BR BKN020CB OVC050 BECMG 0200/0202 30025G35KT 9999 NSW SCT020 OVC060 WS020/22050KT 600000 540009 540901 542709 523605 QNH2949INS TX24/0121Z TN13/0207Z FN00235", "TAF KNHK 0107/0207 21015G30KT 9999 VCSH FEW009 BKN100 WS020/22057KT 530001 550109 QNH2962INS TEMPO 0107/0112 6000 SHRA BR BKN008 OVC015 BECMG 0112/0114 21022G30KT 6000 SHRA BR BKN005 OVC015 WS020/22050KT 530001 550109 QNH2956INS BECMG 0118/0120 21022G30KT 9999 VCSH SCT008 BKN015 OVC030 WS020/21040KT 530001 550109 QNH2949INS TEMPO 0120/0122 8000 -SHRA BR BKN008 OVC015 BECMG 0201/0203 30020G30KT 9999 NSW FEW020 SCT060 BKN120 WS020/28055KT 530001 550109 QNH2945INS TX22/0121Z TN10/0207Z FN00235", "TAF KNIP 0107/0207 19008KT 9999 FEW030 BKN250 QNH3008INS FM011000 22010KT 9999 SCT035 BKN250 QNH3010INS FM011400 24015G24KT 9999 SCT050 SCT150 BKN250 QNH2997INS BECMG 0116/0118 24018G28KT 9999 SCT050 BKN250 QNH2997INS AUTOMATED SENSOR METWATCH 0107 TIL 0109 TX31/0120Z TN20/0112Z FN00235", "TAF KNJK 0107/0207 28007KT 9999 FEW050 QNH3004INS BECMG 0115/0116 33007KT 9999 FEW050 FEW080 QNH2997INS BECMG 0201/0202 27010KT 9999 FEW050 FEW080 BKN250 QNH2998INS AUTOMATED SENSOR METWATCH 0107 TIL 0113 TX25/0200Z TN09/0112Z FS30207", "TAF KNKT 0109/0209 20015G25KT 9999 FEW030 QNH2994INS FM011300 20015G30KT 9999 SCT030 BKN100 QNH2971INS BECMG 0122/0200 21015G25KT 9999 FEW200 QNH2973INS BECMG 0203/0205 29010G20KT 9999 SKC QNH2981INS T23/0117Z T13/0209Z", "TAF KNKX 0109/0209 VRB05KT 9999 BKN200 522509 523405 QNH3007INS FM011330 VRB05KT 9999 FEW200 500000 QNH3006INS FM012200 26010KT 9999 SKC QNH3004INS BECMG 0203/0205 9999 BKN030 QNH3007INS T06/0114Z T20/0121Z", "TAF KNLC 0107/0207 VRB06KT 9999 SKC QNH3015INS FM011500 33012KT 9999 SCT030 BKN280 QNH3010INS FM020500 35006KT 9999 FEW030 QNH3010INS AUTOMATED SENSOR METWATCH 0107 TIL 0115 TX18/0123Z TN07/0114Z FS30171", "TAF AMD KNMM 3123/0115 17013G25KT 9999 VCSH SCT015 BKN030 BKN250 540109 QNH2992INS FM010100 19015G30KT 9999 VCSH SCT020 BKN040 BKN280 540109 QNH2987INS TEMPO 0101/0106 6000 SHRA BR BKN015 OVC030 FM010600 23013G25KT 9999 VCTS FEW015 SCT035CB BKN280 540109 QNH2991INS TEMPO 0107/0113 4800 TSRA BKN010 OVC025CB LAST NO AMDS AFT 3123/ NEXT 0215 AUTOMATED SENSOR METWATCH 3123 TIL 0220 TX25/3123Z TN18/0112Z AMD 2300 FN20088", "TAF KNPA 3123/0123 15012KT 9999 FEW009 SCT020 BKN150 BKN250 QNH3002INS TEMPO 3123/0105 SCT009 BKN015 FM010500 17011KT 8000 BR BKN009 OVC015 QNH3003INS FM011200 20008KT 9999 VCSH SCT007 BKN015 BKN050 QNH3005INS TEMPO 0112/0116 8000 SHRA BKN007 OVC015 FM011800 22012G20KT 9999 VCTS SCT015 BKN025CB BKN120 OVC250 QNH2998INS LAST NO AMDS AFT 3123 NEXT 0307 AUTOMATED SENSOR METWATCH 0103 TIL 0114 TX24/0119Z TN19/0111Z FN20034", "TAF KNQI 3123/0123 14013KT 9999 FEW040 FEW180 BKN250 QNH2981INS FM010700 VRB06KT 8000 BR FEW006 BKN015 BKN160 QNH2988INS TEMPO 0109/0115 3200 BR BKN006 OVC012 FM011500 08008KT 8000 BR BKN012 BKN020 QNH2999INS TEMPO 0115/0120 SCT012 BKN025 FM012000 08012KT 9999 SCT030 SCT120 BKN250 QNH3002INS LAST NO AMDS AFT 3123 NEXT 0207 TX32/0121Z TN19/0113Z FN20085", "TAF AMD KNQX 0108/0207 12012KT 9999 SCT025 QNH3010INS BECMG 0118/0120 VRB06KT 9999 FEW025 QNH3007INS AUTOMATED SENSOR METWATCH 0107 TIL 0110 TX29/0119Z TN25/0111Z AMD 0805 FN00264", "TAF KNRB 3115/0115 17015G20KT 9999 SCT035 BKN250 QNH3017INS FM010100 16010KT 9999 SCT030 BKN250 QNH3014INS FM010800 21008KT 9999 BKN030 QNH3010INS LAST NO AMD AFT 0123 NEXT 0307 AUTOMATED SENSOR METWATCH 3123 TIL 0309 TX28/3120Z TN20/0111Z FN20022", "TAF KNSE 0107/0207 18011KT 8000 BR BKN010 OVC020 QNH2999INS FM011100 25010KT 9999 VCSH BKN005 OVC015 QNH3000INS TEMPO 0113/0119 VRB12G20KT 8000 SHRA SCT005 OVC020 FM012000 26014G25KT 9999 FEW015 SCT060 BKN200 QNH2999INS BECMG 0122/0200 VRB06KT FEW060 QNH3000INS AUTOMATED SENSOR METWATCH 0107 TIL 0222 TX23/0120Z TN19/0112Z FN00264", "TAF KNTD 0107/0207 28009KT 9999 FEW060 SCT150 BKN260 QNH3012INS TEMPO 0108/0114 8000 BR FM011800 27009KT 9999 FEW015 SCT060 SCT150 BKN260 QNH3011INS FM020300 VRB06KT 9999 FEW015 SCT060 SCT150 BKN260 QNH3005INS AUTOMATED SENSOR METWATCH 0107 TIL 0113 TX17/0121Z TN09/0112Z FS30207", "TAF KNTU 0107/0207 22018G30KT 6000 -SHRA BR BKN030 OVC060 WS020/20055KT 641309 530008 QNH2983INS FM011100 22020G35KT 9999 VCSH BKN020 OVC060 WS020/22050KT 641309 530008 QNH2965INS TEMPO 0111/0116 6000 -SHRA BR BKN020 OVC040 FM011600 22020G40KT 4800 SHRA BKN020 OVC040 WS020/24045KT 641309 530008 QNH2945INS BECMG 0201/0203 30020G30KT 9999 NSW FEW025 SCT040 SCT200 530008 QNH2949INS TX26/0120Z TN13/0207Z FN00235", "TAF COR KNUC 3123/0123 31007KT 9999 FEW020 BKN250 QNH3008INS FM011100 32015G20KT 9999 FEW020 FEW120 QNH3008INS FM011900 29015G20KT 9999 FEW020 FEW120 QNH3010INS TX14/0100Z TN12/0112Z LAST NO AMDS AFT 3123 NEXT 0315 COR 2323 FS30209", "TAF KNUW 0107/0207 27012KT 9999 VCSH SCT018 BKN055 BKN070 640309 641209 550309 QNH2975INS TEMPO 0107/0113 8000 SHRA BR SCT025 BKN021 BKN028 OVC055 FM011400 16008KT 9999 VCSH SCT015 BKN050 BKN110 BKN250 640309 641209 550309 QNH2982INS FM011600 16008KT 9999 VCTS SCT012 BKN025CB OVC045 640309 641209 550309 QNH2979INS TEMPO 0116/0122 VRB25G35KT 4000 -TSRA BKN015CB OVC050 FM012200 25012KT 9999 VCSH SCT025 BKN045 OVC080 640309 641209 500000 QNH2982INS TX09/0123Z TN04/0115Z FS30171", "TAF KNXP 0109/0209 24006KT 9999 SCT250 521807 542505 523008 QNH3011INS FM010630 28005KT 9999 FEW250 521807 542505 523008 QNH3013INS T19/3121Z T06/0115Z", "TAF KNYG 3121/0121 21009KT 9999 BKN055 OVC080 QNH3000INS BECMG 3123/0101 21012KT 8000 -SHRA BR BKN010 OVC015 WS020/22045KT 520203 QNH2994INS BECMG 0116/0118 23025G35KT 9999 NSW SKC QNH2955INS LAST NO AMDS AFT 3121 NEXT 0115 AUTOMATED SENSOR METWATCH 3121 TIL 3118 T14/0102Z T24/0120Z", "TAF KNYL 0109/0209 30008KT 9999 FEW200 521804 542005 522509 523405 QNH3000INS FM011500 32010KT 9999 SKC 521809 522709 523603 QNH2998INS FM011900 27007KT 9999 FEW120 500000 QNH2995INS AUTOMATED SENSOR METWATCH 0105 TIL 0315 T10/0114Z T27/0122Z", "TAF COR KNZY 0103/0123 34010KT 9999 FEW018 FEW150 SCT200 QNH3011INS FM010600 35006KT 9999 FEW015 SCT120 BKN200 QNH3008INS FM011000 VRB04KT 9999 SCT009 SCT012 BKN180 QNH3009INS TEMPO 0110/0116 8000 BR BKN009 BKN012 FM011800 29011KT 9999 FEW015 SCT150 QNH3010INS TX17/0121Z TN10/0114Z COR 0230 FS30196", "KOAJ 011127Z 0112/0212 21014G27KT P6SM SCT025 BKN035 FM011800 22022G36KT P6SM SCT025 BKN070 FM020000 23016G29KT P6SM FEW200 FM020500 30012G22KT P6SM SKC FM021100 33011KT P6SM SKC AMD LTD TO CLD VIS AND WIND", "KOAK 011124Z 0112/0218 16006KT P6SM SCT025 SCT250 FM012000 27011KT P6SM SCT035 SCT250 FM020300 25006KT P6SM VCSH BKN030 BKN250 FM020500 27010KT P6SM VCSH SCT015 OVC030 FM020900 29010KT P6SM SCT030", "TAF AMD KOFF 011014Z 0110/0216 30025G35KT 9999 OVC020 600202 QNH2981INS BECMG 0113/0114 32012G18KT 9999 SCT030 QNH3001INS BECMG 0119/0120 20006KT 9999 SKC QNH2996INS BECMG 0205/0206 16009KT 9999 SKC QNH2977INS BECMG 0207/0208 16009KT 9999 SKC WS020/19045KT QNH2977INS TX12/0122Z TN01/0111Z", "KOFK 011120Z 0112/0212 32018G30KT P6SM SCT150 FM011600 32009KT P6SM SKC FM012000 21007KT P6SM SKC FM020100 16012KT P6SM FEW150 FM020300 18017G33KT P6SM BKN250 WS020/21050KT", "KOGB 011120Z 0112/0212 21012G20KT P6SM SCT025 BKN050 FM011700 23016G27KT P6SM VCTS BKN035CB TEMPO 0117/0120 BKN025CB FM012100 25018G27KT P6SM SCT040 BKN100 FM020100 26013G22KT P6SM SKC FM020700 29005KT P6SM SKC", "KOGD 010520Z 0106/0206 17010KT P6SM SCT150 FM011700 18015G25KT P6SM FEW100 BKN150 FM012000 24010KT P6SM FEW080 BKN120 FM020100 VRB04KT P6SM SCT080 BKN100", "KOKC 011120Z 0112/0212 35012G20KT P6SM SCT250 FM011900 01008KT P6SM SKC FM020000 13006KT P6SM SCT250", "KOLF 011120Z 0112/0212 VRB06KT 6SM BR FEW002 FEW080 FM011300 VRB05KT 2SM BR BKN003 FM011500 VRB06KT P6SM BKN100 PROB30 0201/0203 6SM -SHRA BR OVC060 FM020600 27014G22KT P6SM OVC035 PROB30 0206/0209 5SM -FZRASN BR OVC021", "KOLM 010540Z 0106/0206 21012G20KT 4SM -RA BKN011 OVC020 FM010900 21012KT P6SM -SHRA SCT011 BKN020 OVC040 FM011700 21012KT P6SM -SHRA SCT020 BKN035 FM012300 21012G22KT P6SM SCT025 BKN045", "KOLS 011120Z 0112/0212 VRB03KT P6SM BKN250 FM011700 17010KT P6SM SKC FM012000 22014G22KT P6SM SKC FM020200 20008KT P6SM SKC", "KOMA 011120Z 0112/0212 32021G30KT P6SM BKN060 FM011700 31011KT P6SM SKC FM020000 15007KT P6SM SKC FM020400 16015G27KT P6SM BKN250 WS020/20050KT", "KONP 010717Z 0107/0206 26009KT P6SM -SHRA SCT020 BKN035 OVC050 TEMPO 0108/0112 6SM -SHRA SCT015 OVC025 FM011200 25011KT P6SM -SHRA BKN015 OVC025 FM011600 24015G23KT 5SM -SHRA BR SCT015 OVC025 FM020000 24012G20KT 5SM -SHRA BR SCT020 OVC030", "KONT 011127Z 0112/0218 VRB05KT P6SM SCT200 FM012100 25011G17KT P6SM FEW200 FM020500 VRB04KT P6SM FEW200", "KOPF 011120Z 0112/0212 13007KT P6SM FEW025 FEW040 FM011400 15011KT P6SM SCT030 SCT050 FM011900 17012KT P6SM VCSH SCT025 BKN050 FM020200 20006KT P6SM FEW025 SCT050 BKN150", "KORD 011120Z 0112/0218 26021G32KT P6SM VCSH BKN012 OVC020 FM011500 33022G35KT P6SM VCSH OVC012 TEMPO 0115/0118 3SM -SHRASN BR FM011800 34018G30KT P6SM BKN020 FM020100 36005KT P6SM FEW025 FM020400 06003KT P6SM FEW250 FM021000 17008KT P6SM FEW150 FM021600 19012G18KT P6SM SCT150", "KORF 011120Z 0112/0212 21023G31KT P6SM BKN025 WS020/22050KT FM011600 22022G34KT 6SM -SHRA BR VCTS BKN060CB FM012200 26019G29KT P6SM SCT200 FM020700 31017G26KT P6SM SKC", "KORH 011120Z 0112/0212 21009KT 1/2SM -RA FG OVC003 WS020/22040KT FM011400 22010G19KT 1 1/2SM -RA BR OVC003 WS020/22040KT FM011700 24012G21KT 2SM BR VCSH OVC008 FM020200 26010KT 3SM -SHRA BR OVC035 FM020600 28014G22KT P6SM BKN040", "KOTH 010539Z 0106/0206 19015G25KT 6SM -RA BR OVC015 WS020/20050KT TEMPO 0107/0109 4SM RA BR OVC008 FM010900 23012G20KT P6SM -RA OVC010 FM011500 22011KT P6SM OVC015", "KOTM 011125Z 0112/0212 28021G35KT P6SM SCT015 OVC025 TEMPO 0112/0115 6SM -SN FM011900 33015G23KT P6SM SCT050 FM020300 VRB03KT P6SM SKC FM020900 15011G20KT P6SM BKN250", "KOUN 011120Z 0112/0212 34012G20KT P6SM SCT250 FM011900 01008KT P6SM SKC FM020000 13006KT P6SM SCT250", "KOWB 011120Z 0112/0212 24016G27KT P6SM SCT050 FM011300 25019G34KT P6SM FEW050 FM011400 27024G37KT P6SM SCT050 FM011700 29020G31KT P6SM SCT050 FM012000 29017G26KT P6SM BKN040 FM020000 31013KT P6SM BKN040 FM020400 33005KT P6SM SCT060", "KOXR 011120Z 0112/0212 VRB03KT P6SM BKN200 FM012000 25010KT P6SM BKN200 FM020400 VRB03KT P6SM BKN200", "TAF KOZR 010200Z 0102/0208 18010KT 9999 SCT020 QNH3004INS BECMG 0104/0105 18010KT 9999 SCT005 BKN008 OVC015 QNH3000INS BECMG 0113/0114 22012G18KT 6000 SHRA VCTS SCT008 BKN012 OVC020CB 510006 QNH3002INS TEMPO 0114/0117 VRB20G28KT 1600 +TSRA SCT005 BKN008 OVC012CB BECMG 0117/0118 27012G18KT 9999 NSW SCT015 BKN030 BKN200 QNH3000INS BECMG 0122/0123 29010KT 9999 SCT030 BKN250 QNH3000INS TX26/0121Z TN18/0202Z LAST NO AMDS AFT 0106 NEXT 0310", "KPAE 010540Z 0106/0206 18012G20KT P6SM -SHRA BKN015 OVC030 FM010900 20008KT P6SM -SHRA SCT020 BKN030 OVC050 FM011800 20012G20KT P6SM -SHRA SCT030 BKN045 FM012300 20012KT 4SM -SHRA BKN011 OVC020", "KPAH 011120Z 0112/0212 24014G24KT P6SM FEW050 FM011300 27022G37KT P6SM SKC FM011600 28018G34KT P6SM SCT050 FM012000 30014G25KT P6SM SCT050 FM020000 32011KT P6SM SKC FM020400 VRB03KT P6SM SKC", "TAF KPAM 011100Z 0111/0217 20009KT 9999 BKN010 QNH3006INS BECMG 0112/0113 21012G18KT 9999 BKN012 QNH3011INS TEMPO 0117/0121 24015G26KT 6000 SHRA VCTS BKN007CB BECMG 0204/0205 33009KT 9999 SCT020 QNH3006INS TX25/0118Z TN21/0111Z", "KPBF 010528Z 0106/0206 24010KT P6SM BKN250 FM011000 29012KT P6SM SCT250 WS020/27035KT FM011200 30010G18KT P6SM SCT250 FM020100 VRB03KT P6SM SKC", "KPBG 011126Z 0112/0212 15010G17KT 3SM RA BR OVC004 FM011400 17011G18KT P6SM VCSH OVC016 FM011700 20013G23KT P6SM SCT150 FM012200 27007KT 5SM -SHRA BR OVC050 FM020200 31010G18KT P6SM VCSH OVC015 FM020800 33017G25KT P6SM BKN025", "KPBI 011120Z 0112/0212 14007KT P6SM SCT025 SCT040 FM011400 16011KT P6SM SCT030 SCT050 FM011900 17012KT P6SM VCSH SCT025 BKN050 FM020300 20006KT P6SM FEW025 SCT050 BKN150", "KPDK 011120Z 0112/0212 22015G28KT 5SM TSRA BKN020CB FM011500 26020G30KT P6SM FEW035 FEW250 FM020500 31015G20KT P6SM SKC", "KPDT 011126Z 0112/0212 15008KT P6SM -RA OVC040 FM011400 25015G25KT 5SM -RA OVC035 FM012000 25022G32KT P6SM BKN050 BKN080 FM020200 25014G24KT P6SM BKN050 BKN100 FM020800 24012KT P6SM OVC100", "KPDX 010809Z 0108/0206 25008KT P6SM -RA SCT015 BKN035 OVC050 FM011000 22010KT P6SM -SHRA SCT015 OVC024 FM012000 24012G20KT P6SM -SHRA SCT025 OVC040 PROB30 0200/0203 4SM TSRAGR BR OVC035CB FM020400 22011G22KT P6SM -SHRA OVC035", "KPEQ 011120Z 0112/0212 35006KT P6SM BKN250 FM011800 11008KT P6SM BKN250", "KPGA 011120Z 0112/0212 VRB06KT P6SM FEW140", "KPGD 011120Z 0112/0212 14005KT P6SM BKN250 FM011400 20009KT P6SM SCT040 BKN250 FM011700 24014G20KT P6SM SCT050 BKN250 FM020100 29005KT P6SM SCT250", "KPGV 011127Z 0112/0212 21016G27KT P6SM SCT025 BKN100 FM011500 21017G35KT P6SM SCT025 BKN070 FM011800 23023G36KT P6SM VCSH SCT025 BKN050 FM020100 24017G28KT P6SM FEW240 FM020500 30013G26KT P6SM SKC AMD LTD TO CLD VIS AND WIND", "KPHF 011120Z 0112/0212 21023G32KT P6SM VCSH OVC025 WS020/22050KT FM011400 22022G31KT P6SM VCSH BKN040 FM011700 23023G35KT P6SM SCT040 FM020100 27016G24KT P6SM SCT150 FM020800 31015G22KT P6SM FEW200", "KPHL 011121Z 0112/0218 21021G25KT P6SM SHRA VCTS BKN015CB OVC025 FM011400 22022G32KT 5SM -SHRA BR OVC010 FM011700 23020G30KT P6SM SCT025 BKN150 FM012300 28022G32KT 6SM -SHRA VCTS SCT040CB FM020200 29017G28KT P6SM FEW030", "KPHX 010834Z 0109/0212 09005KT P6SM FEW150 SCT250 FM012100 26006KT P6SM FEW150 FM020800 10005KT P6SM SKC", "KPIA 010520Z 0106/0206 27010KT P6SM SKC FM010800 26015G25KT P6SM BKN050 FM011000 26020G30KT P6SM BKN050 FM011200 26024G40KT P6SM VCSH OVC015 FM011800 31020G30KT P6SM OVC023 FM012100 33015G25KT P6SM BKN040 FM020000 33006KT P6SM SKC", "KPIB 011129Z 0112/0212 23011KT P6SM VCTS BKN015CB BKN035 FM011500 26011KT P6SM SCT030 BKN120 FM011700 27012G18KT P6SM SCT120 FM012200 28008KT P6SM SKC", "KPIE 011120Z 0112/0212 15007KT P6SM BKN250 FM011400 19012KT P6SM FEW040 BKN250 FM011700 23014G22KT P6SM SCT050 BKN250 FM020000 28006KT P6SM SCT250", "KPIH 011120Z 0112/0212 19015G25KT P6SM SCT050 BKN070 OVC090 FM011700 20020G30KT P6SM SCT030 BKN050 OVC070 FM012100 21025G35KT P6SM -SHRA SCT015 BKN030 OVC050 FM020200 22020G30KT 5SM -RASN SCT015 BKN025 OVC040 FM020400 20020KT P6SM VCSH SCT020 OVC035", "KPIR 011122Z 0112/0212 29006KT P6SM SKC FM011800 15008KT P6SM FEW250 FM020300 12009KT P6SM BKN200 FM020600 19008KT P6SM BKN200 WS020/24035KT FM020800 23011G26KT P6SM BKN250 WS020/26045KT FM021000 26012G28KT P6SM SCT250 WS020/28040KT", "KPIT 010834Z 0109/0212 23015G24KT P6SM -SHRA BKN035 FM011100 23016G26KT P6SM BKN070 FM012100 27024G37KT 6SM -TSRA OVC025CB FM020200 28015G29KT P6SM BKN017", "KPKB 011120Z 0112/0212 24008KT 6SM -SHRA BKN050 OVC110 WS020/23050KT TEMPO 0112/0115 27010G25KT FM011500 28016G29KT P6SM SKC FM011700 27022G38KT P6SM FEW028 FM020100 26015G30KT P6SM BKN035 FM020500 29010G22KT P6SM BKN025 FM020800 32010KT P6SM BKN019", "KPLN 011127Z 0112/0212 04015G25KT 6SM -RASN BR OVC008 TEMPO 0112/0116 3SM -SN BKN003 OVC005 FM011600 03020G35KT 4SM -SN BLSN OVC010 FM011800 02020G35KT 4SM -SN BLSN BKN025 FM012000 36025G35KT 6SM BLSN SCT030 FM020200 34005KT P6SM FEW030", "KPMD 011120Z 0112/0212 VRB03KT P6SM BKN200 FM012100 27010KT P6SM BKN200 FM020000 26015KT P6SM BKN200", "KPNA 011120Z 0112/0212 VRB05KT P6SM OVC050 FM011700 24012G20KT P6SM SCT030 BKN050 FM012300 28015G25KT P6SM VCSH SCT025 BKN040 FM020300 29012KT 2SM -SN SCT012 OVC020", "KPNC 011120Z 0112/0212 33012G22KT P6SM SKC FM012000 30008KT P6SM SCT250 FM020100 16006KT P6SM SKC", "KPNE 011121Z 0112/0212 21015G21KT 6SM SHRA VCTS OVC013CB FM011600 22020G32KT P6SM VCTS SCT035CB FM011800 22020G32KT P6SM BKN150 FM012200 28022G34KT 6SM -SHRA VCTS SCT040CB", "KPNS 011057Z 0111/0206 22009KT 4SM BR OVC002 FM011300 22011KT 6SM BR OVC006 FM011500 23012KT P6SM OVC013 FM011900 26013KT P6SM BKN035 OVC250 FM020100 31005KT P6SM SCT250", "TAF KPOB 010100Z 0101/0207 20012KT 9000 -SHRA BKN030 BKN100 OVC200 510102 QNH3008INS BECMG 0103/0104 21015G22KT 9999 NSW SCT012 BKN025 OVC100 540103 QNH2986INS BECMG 0114/0115 23023G39KT 8000 -SHRA FEW015 BKN025 OVC100 540104 QNH2968INS TEMPO 0115/0120 4800 SHRA VCTS SCT015 BKN025CB BECMG 0120/0121 24020G37KT 9999 NSW FEW030 FEW250 540104 QNH2965INS BECMG 0205/0206 27015KT 9999 FEW250 520005 QNH2967INS TX22/0121Z TN18/0111Z LAST NO AMDS AFT 0102 NEXT 0317", "TAF KPOE 312300Z 3123/0205 20015G25KT 9999 BKN025 OVC030 QNH2988INS BECMG 0101/0102 20012G22KT 9000 -SHRA BKN015 OVC030 QNH2993INS TEMPO 0102/0104 VRB18G30KT 6000 -TSRA SCT008 BKN015CB OVC025 BECMG 0107/0108 24008KT 9000 BR OVC008 QNH3000INS BECMG 0111/0112 30009KT 9999 NSW BKN012 QNH3004INS BECMG 0113/0114 32010KT 9999 FEW250 QNH3009INS BECMG 0121/0122 35006KT 9999 FEW200 QNH3008INS TX27/0121Z TN18/0109Z LAST NO AMDS AFT 0105 NEXT 0115", "KPOU 011120Z 0112/0212 18006KT 6SM -SHRA BR OVC035 WS020/23040KT TEMPO 0112/0114 2SM -SHRA BR OVC025 FM011500 22012G22KT P6SM VCSH BKN025 FM011700 23014G24KT P6SM SCT050 SCT250 FM012100 21012G22KT P6SM SCT035 BKN100 BKN250 FM012300 24014G24KT 3SM -SHRA BR BKN035 PROB30 0123/0201 26020G40KT 2SM -TSRA BKN025CB OVC035 FM020200 28013G23KT P6SM VCSH SCT025 OVC050 FM020500 30013G23KT P6SM BKN050", "KPQI 011120Z 0112/0212 15011G20KT P6SM OVC011 FM011800 13013G23KT 2SM -RASN BR OVC007 FM012000 15011G21KT 6SM BR VCSH OVC004 FM020200 20007KT P6SM BKN008 WS002/23035KT FM020700 30011G22KT P6SM BKN018 FM021000 31019G31KT P6SM BKN035", "KPRB 011120Z 0112/0212 VRB03KT P6SM SCT200 FM012200 23008KT P6SM BKN200 FM020000 27008KT P6SM BKN200 FM020200 33008KT P6SM BKN200 FM020900 VRB03KT P6SM BKN200", "KPRC 011120Z 0112/0212 20008KT P6SM BKN120", "KPSC 011126Z 0112/0212 20010KT P6SM BKN080 BKN100 FM011800 25016G26KT P6SM SCT080 BKN100 FM020600 24011KT P6SM OVC100", "KPSF 011120Z 0112/0212 VRB04KT 4SM -SHRA BR SCT005 OVC015 WS020/22035KT TEMPO 0112/0116 1 1/2SM SHRA BR OVC005 FM011600 22012G22KT P6SM VCSH BKN025 FM011800 23013G23KT P6SM SCT050 SCT250 FM012200 24012G22KT P6SM SCT035 BKN100 BKN250 FM020000 24012G22KT 3SM -SHRA BR BKN035 PROB30 0200/0202 27020G40KT 2SM -TSRA BKN025CB OVC035 FM020300 29014G24KT P6SM VCSH BKN025 OVC050 FM020600 31017G30KT P6SM BKN050", "KPSM 010909Z 0109/0206 VRB03KT 1/2SM -RA FG OVC002 FM011600 22006KT 2SM -RA BR SCT003 OVC006 FM011800 28007KT 3SM BR OVC008 FM012000 23007KT P6SM SCT015 BKN035 FM020100 24010KT P6SM VCSH SCT025 BKN030", "KPSP 011127Z 0112/0212 34006KT P6SM FEW200 FM012100 05008KT P6SM SKC FM020200 34010KT P6SM SKC FM020800 VRB04KT P6SM SKC", "KPTK 011126Z 0112/0212 25018G28KT P6SM SKC FM011400 22014G22KT 2SM -SHRA BKN024 OVC045 FM011800 29018G32KT P6SM BKN030 OVC050 FM012300 33014G24KT P6SM SCT035 FM020600 35007KT P6SM SKC", "KPUB 011128Z 0112/0212 VRB04KT P6SM SKC FM011600 14007KT P6SM SKC FM012100 20012G22KT P6SM SKC FM020300 26007KT P6SM SKC", "KPUW 010520Z 0106/0206 19008KT P6SM VCSH OVC035 FM010700 20008KT P6SM -RASN OVC025 FM010900 21010G18KT 4SM BR OVC015 TEMPO 0109/0113 1SM RASN BR OVC007 FM011300 22013G21KT 1 1/2SM -SN BR OVC010 FM011600 24017G28KT 6SM BR OVC015 FM020000 25022G30KT P6SM VCSH BKN040 OVC050", "KPVD 011120Z 0112/0212 19008KT 3SM -RA BR OVC003 WS020/22040KT FM011500 22015G26KT 1 1/2SM -RA BR OVC003 WS020/23050KT FM011800 22014G25KT 3SM BR VCSH OVC008 WS020/24045KT FM020200 24008KT 4SM -SHRA BR BKN015 FM020300 27007KT P6SM VCSH OVC030 FM021000 31015G24KT P6SM SCT110", "KPVU 010520Z 0106/0206 VRB04KT P6SM FEW150 FM012000 21010KT P6SM SCT150 FM020300 VRB04KT P6SM SCT080 BKN100", "KPVW 011120Z 0112/0212 29010KT P6SM FEW250 FM011800 21010KT P6SM SKC FM012300 19015KT P6SM SCT250", "KPWM 010909Z 0109/0206 07007KT 1SM BR OVC003 FM011000 06006KT 1/2SM -RA FG OVC003 FM011800 24007KT 3SM BR SCT005 OVC015 FM020100 23009KT 2SM BR VCSH OVC008", "KPWT 010930Z 0110/0206 25008KT P6SM SCT007 BKN070 FM011300 19008KT P6SM -SHRA SCT003 BKN008 OVC015 FM011800 19012KT P6SM -SHRA SCT015 BKN022 OVC035 FM012000 19014G24KT P6SM -SHRA BKN035 BKN050", "KRAP 010928Z 0109/0206 VRB05KT P6SM FEW200 TEMPO 0109/0111 1/4SM FZFG FM011800 17010KT P6SM BKN250", "KRBG 010539Z 0106/0206 19008KT P6SM -RA OVC060 FM010900 VRB04KT 5SM -RA BR OVC020 FM011200 VRB04KT 3SM RA BR OVC015 FM011600 22007KT 5SM -RA BR OVC020 FM011900 25007KT P6SM -SHRA OVC050", "KRBL 011120Z 0112/0212 16014KT P6SM SCT050 BKN090", "TAF AMD KRCA 311330Z 3113/0117 34012KT 1600 -SN BR OVC010 620107 QNH2952INS TEMPO 3113/3116 33512G20KT 0200 SN BLSN VV001 620019 BECMG 3115/3116 34020G30KT 0200 SN BLSN VV001 620019 520003 QNH2953INS BECMG 3117/3118 34020G35KT 0200 +SN BLSN VV001 620019 520003 QNH2953INS BECMG 3122/3123 34015G25KT 6000 -SN BLSN OVC008 620106 QNH2960INS BECMG 0103/0104 32012G18KT 9000 DRSN SCT010 BKN020 620204 QNH2985INS BECMG 0106/0107 23009KT 9000 BR SCT015 QNH2993INS BECMG 0108/0109 20012KT 9999 NSW SKC QNH2991INS TXM03/3121Z TNM09/0106Z LAST NO AMDS AFT 3113 NEXT 0311", "KRDD 011120Z 0112/0212 18013KT P6SM OVC050 TEMPO 0122/0202 -SHRA BKN025", "KRDG 011121Z 0112/0212 20010KT 6SM -SHRA OVC015 FM011400 22010G22KT P6SM SCT035 FM012100 23020G32KT P6SM VCTS SCT025CB OVC070 FM020100 29017G25KT P6SM BKN050", "KRDM 011126Z 0112/0212 22012KT P6SM -RA SCT015 BKN040 TEMPO 0112/0115 -RA OVC015 FM011800 30017G27KT 5SM -RA BKN040 BKN070 FM012200 29017G27KT P6SM BKN040 FM020400 30010G20KT P6SM BKN040 FM020600 26010KT P6SM OVC050", "TAF AMD KRDR 312301Z 3123/0124 02015G25KT 9999 SCT100 QNH2981INS BECMG 0104/0105 34009KT 9999 FEW100 QNH2987INS BECMG 0118/0119 18012KT 9999 FEW060 QNH2995INS TX00/0118Z TNM14/0111Z LAST NO AMDS AFT 3123 NEXT 0117", "KRDU 011120Z 0112/0212 21015G30KT P6SM BKN025 WS020/22045KT FM011500 23020G35KT P6SM -SHRA BKN030 WS020/22045KT TEMPO 0116/0118 3SM -RA BR BKN015 FM011900 23020G35KT P6SM SCT250 FM020200 27015G30KT P6SM SKC FM020600 30010G20KT P6SM SKC", "KRFD 011120Z 0112/0212 26021G32KT P6SM VCSH BKN012 OVC020 FM011400 33022G35KT 3SM -SHRASN BR OVC012 FM011700 34016G25KT P6SM BKN020 FM012200 35012G20KT P6SM SCT025 FM020100 36005KT P6SM FEW025 FM020700 15006KT P6SM FEW250", "KRHI 011129Z 0112/0212 01014G27KT 1SM -SN OVC005 FM011300 01018G36KT P6SM BKN006 FM011500 01019G35KT P6SM BKN013 FM011700 01018G32KT P6SM SCT022 FM012100 14003KT P6SM SKC", "KRIC 011120Z 0112/0212 20022G30KT P6SM -SHRA SCT020 OVC050 WS020/22050KT FM011500 22019G29KT 6SM -SHRA BR OVC020 FM011800 23028G40KT P6SM SCT040 FM020100 28020G29KT P6SM SCT150", "KRIL 011120Z 0112/0212 20005KT P6SM SCT080 FM012000 25012G23KT P6SM FEW100 FM020200 21008KT P6SM SCT120", "TAF KRIV 010410Z 0104/0210 VRB05KT 9999 FEW150 SCT200 QNH3012INS BECMG 0108/0109 14004KT 9999 FEW200 QNH3008INS BECMG 0118/0119 32009KT 9999 SKC 510005 QNH3006INS TEMPO 0121/0202 32012G18KT BECMG 0204/0205 VRB04KT 9999 SKC QNH3005INS TX21/0121Z TN02/0113Z", "KRIW 011120Z 0112/0212 VRB06KT P6SM FEW080 BKN120 FM011800 24011KT P6SM SCT080 BKN120 FM012200 25018G26KT P6SM SCT060 BKN120 FM020500 29025G35KT P6SM SCT050 BKN120 FM020900 33012KT P6SM SCT200", "KRKD 010909Z 0109/0206 11010KT 5SM -RAPL BR OVC003 FM011100 12011KT 1/2SM -RA FG OVC003 FM011900 21008KT 1SM BR OVC005 FM020100 22011KT 1/2SM FG OVC003", "KRKS 011120Z 0112/0212 22009KT P6SM SCT050 BKN090 FM011700 23013KT P6SM FEW080 BKN120 FM020100 24020G30KT P6SM SCT080 BKN120", "KRME 011120Z 0112/0212 15010G17KT 5SM BR BKN035 WS020/24040KT FM011600 22012G22KT P6SM SCT100 TEMPO 0121/0123 26018G33KT 2SM TSRA OVC015CB FM012300 31015G26KT 5SM BR OVC015 FM020300 29013G22KT 4SM BR OVC012 FM020500 31013G24KT 6SM BR OVC023", "TAF AMD KRND 311650Z 3116/0122 18012G18KT 9999 BKN017 QNH2989INS BECMG 3117/3118 22014KT 9999 BKN020 QNH2986INS BECMG 3118/3119 27014KT 9999 SCT030 QNH2982INS BECMG 3123/3124 33010KT 9999 SKC QNH2989INS TX30/3121Z TN11/0112Z LAST NO AMDS 3124 NEXT 0218", "KRNH 010909Z 0109/0206 36015G23KT 2SM -SN BLSN SCT005 OVC013 TEMPO 0109/0112 1/2SM SN BLSN VV005 FM011200 34017G27KT P6SM SCT025 FM011400 34009KT P6SM SKC", "KRNO 011120Z 0112/0212 22009KT P6SM BKN220 WS005/24035KT FM011900 25014G22KT P6SM FEW070 BKN220 FM020000 27012G20KT P6SM BKN060", "KROA 010849Z 0109/0206 21005KT P6SM VCSH OVC035 WS020/21045KT FM011200 22013G28KT P6SM VCSH OVC025 TEMPO 0112/0114 27021G35KT 3SM SHRA OVC015 FM011400 23013G30KT P6SM BKN035 FM011700 24022G39KT P6SM SKC FM012200 26026G44KT P6SM SKC FM020400 30029G39KT P6SM SCT050", "KROC 011120Z 0112/0212 21015G25KT P6SM SCT040 SCT250 FM011400 24021G42KT P6SM SKC FM011900 24018G38KT 6SM -SHRA BKN040 TEMPO 0119/0121 3SM TSRA BKN025CB FM012200 27020G30KT P6SM VCSH OVC007 FM020400 32020G30KT P6SM OVC015 FM020800 32015G25KT P6SM SCT040 SCT250", "KROG 011120Z 0112/0212 31015G24KT P6SM SKC FM011400 31016G23KT P6SM SKC FM012100 31011KT P6SM FEW250 FM020100 VRB03KT P6SM FEW250", "KROW 010526Z 0106/0206 VRB06KT P6SM FEW250 FM011800 18011KT P6SM SKC FM012100 17014G22KT P6SM SCT250 FM020100 20006KT P6SM FEW250", "KRSL 011120Z 0112/0212 30011KT P6SM SKC FM012100 22008KT P6SM SKC FM020200 16012KT P6SM SKC FM020600 17020KT P6SM SKC WS020/20050KT", "KRST 011120Z 0112/0212 35023G30KT 5SM -SN BKN010 FM011300 35022G28KT P6SM BKN015 FM011500 34015G20KT P6SM SCT035 FM012000 30008KT P6SM SKC FM020200 17006KT P6SM FEW100", "KRSW 011120Z 0112/0212 VRB03KT P6SM BKN250 FM011400 18009KT P6SM SCT040 BKN250 FM011700 23013G20KT P6SM SCT050 BKN250 FM020000 29004KT P6SM SCT250", "KRUT 011126Z 0112/0212 15010G17KT 4SM RA BR BKN017 OVC026 WS020/21030KT FM011400 16010G19KT P6SM OVC016 WS020/24040KT FM011600 19011G22KT P6SM VCSH BKN040 WS020/25045KT FM020100 25006KT 6SM -SHRA BR OVC030 FM020400 26008G16KT P6SM VCSH OVC012 FM020900 31014G25KT P6SM BKN025", "KRVS 011120Z 0112/0212 32007KT P6SM SKC FM011400 32010G18KT P6SM SKC FM012000 33010KT P6SM FEW250 FM020100 VRB03KT P6SM FEW250", "KRWF 010858Z 0109/0206 33022G35KT P6SM BKN040 FM011100 33017G27KT P6SM SKC FM011300 32010KT P6SM SKC FM011800 31006KT P6SM SKC", "KRWI 011120Z 0112/0212 21020G35KT P6SM OVC025 WS020/22050KT FM011600 21020G35KT P6SM -SHRA BKN040 WS020/22045KT TEMPO 0117/0119 4SM -RA BR BKN025 FM012000 23020G38KT P6SM SCT100 FM020200 27018G30KT P6SM SKC FM020900 30010G20KT P6SM SKC", "KRWL 010520Z 0106/0206 26025G35KT P6SM BKN100 FM011500 24032G45KT P6SM BKN250 FM020200 24028G38KT P6SM BKN250", "KRYY 011120Z 0112/0212 23010G22KT 5SM TSRA BKN020CB FM011500 26020G28KT P6SM FEW035 FEW250 FM020300 32012KT P6SM SKC", "KSAC 011120Z 0112/0212 18005KT P6SM SCT050 BKN150 AMD NOT SKED", "KSAF 010526Z 0106/0206 33006KT P6SM SKC FM011200 36007KT P6SM SKC FM011900 25012KT P6SM SKC FM020200 24006KT P6SM FEW250", "KSAN 011127Z 0112/0218 VRB04KT P6SM FEW015 BKN200 TEMPO 0112/0116 BKN015 FM012000 29011KT P6SM FEW200 FM020300 VRB04KT P6SM FEW200 FM021000 VRB04KT P6SM BKN015 FM021400 VRB04KT P6SM SCT015", "KSAT 011120Z 0112/0218 32004KT P6SM FEW050 SCT250 FM011600 07011KT P6SM FEW060 BKN150 FM020000 10005KT P6SM FEW050 BKN150 FM020800 12006KT P6SM OVC015", "KSAV 011125Z 0112/0212 20012G17KT P6SM SCT250 FM011500 22017G27KT P6SM SCT030 BKN150 FM011700 22019G29KT P6SM SCT040 BKN100 FM011900 23019G29KT P6SM SCT040 BKN080 TEMPO 0120/0122 3SM TSRA BR SCT040CB OVC060 FM012200 26014G22KT P6SM SCT040 OVC080 FM020200 23010KT P6SM SCT250 FM020700 29009KT P6SM FEW250", "KSAW 011120Z 0112/0212 02021G38KT 1/4SM SN BLSN OVC007 FM011300 02022G39KT 3SM -SN BLSN OVC009 FM011400 02022G37KT P6SM BKN011 FM011600 01021G34KT P6SM SCT050 FM012300 01010KT P6SM SKC FM020400 00000KT P6SM FEW240", "KSBA 011120Z 0112/0212 VRB03KT P6SM BKN200 FM012000 23008KT P6SM BKN200 FM020200 VRB03KT P6SM BKN200 FM020600 35006KT P6SM BKN200", "KSBD 011127Z 0112/0212 VRB04KT P6SM FEW200 FM012100 25008KT P6SM FEW200 FM020400 VRB04KT P6SM FEW200", "KSBM 011120Z 0112/0212 28014KT 5SM -RASN BR OVC006 FM011300 34020G32KT 2SM -SN BR OVC006 FM011600 35024G39KT P6SM OVC009 FM012000 35020G30KT P6SM BKN030 FM012200 35013KT P6SM SCT080 FM020300 VRB04KT P6SM FEW250", "KSBN 011121Z 0112/0212 24014G22KT 6SM -SHRA BR SCT020 BKN035 FM011330 25022G36KT 6SM -SHRA BR BKN021 FM011700 29023G37KT P6SM VCSH OVC015 FM020000 33019G31KT P6SM BKN020 FM020200 34014G22KT P6SM SCT020 BKN050 FM020500 36011KT P6SM SCT050", "KSBP 011120Z 0112/0212 32005KT P6SM SCT200 FM012000 30010KT P6SM BKN200 FM012200 31015KT P6SM BKN200 FM020300 32006KT P6SM BKN200 FM020900 VRB03KT P6SM BKN200", "KSBY 011120Z 0112/0212 21019G28KT P6SM -SHRA OVC015 WS020/22055KT FM011500 21023G34KT 4SM -SHRA BR OVC025 WS020/23050KT FM012200 23015G25KT P6SM VCTS BKN045CB FM020300 30012G22KT P6SM SCT080", "KSCK 011120Z 0112/0212 31007KT P6SM FEW100 BKN200", "KSDF 011120Z 0112/0218 21015G23KT P6SM SCT050 WS020/24045KT FM011400 25025G37KT P6SM SCT040 FM011900 28024G34KT P6SM BKN040 FM012200 29021G29KT P6SM BKN040 FM020200 30013KT P6SM BKN040 FM020500 31006KT P6SM FEW040 FM021000 VRB04KT P6SM SKC", "KSDL 010520Z 0106/0206 VRB03KT P6SM FEW100 SCT250 FM012200 24004KT P6SM FEW150", "KSDY 011120Z 0112/0212 20008KT P6SM FEW070 PROB30 0203/0205 6SM -SHRA BR OVC060 FM020500 25009KT P6SM OVC027 WS003/26035KT FM020600 26012G21KT P6SM BKN070 WS003/27055KT PROB30 0206/0208 6SM -SHRA BR OVC050 FM021100 26022G35KT P6SM FEW080", "KSEA 010917Z 0109/0212 21015G20KT P6SM VCSH SCT015 BKN035 BKN200 FM011300 18010KT P6SM -SHRA BKN022 OVC035 FM011900 22015G25KT P6SM -SHRA SCT025 BKN035 BKN050 FM020900 20008KT P6SM -SHRA BKN022 OVC035", "KSEZ 011120Z 0112/0212 04012KT P6SM FEW120 FM011900 20009KT P6SM SCT130 FM020300 04008KT P6SM FEW140", "KSFB 011127Z 0112/0212 21005KT P6SM BKN250 FM011500 20010KT P6SM SCT040 BKN250 FM011800 23014G22KT P6SM SCT060 BKN250 FM020100 25008KT P6SM FEW060 BKN250 FM020900 29003KT P6SM OVC012", "KSFF 010520Z 0106/0206 21012G19KT P6SM BKN020 OVC030 FM010800 22011G19KT 6SM -RA OVC020 FM011000 21013G24KT 4SM -RA BR OVC010 TEMPO 0110/0114 2SM -RASN BR OVC006 FM011500 21010G17KT 6SM -RA OVC030 FM011600 23014G24KT P6SM VCSH BKN040 OVC070", "KSFO 011124Z 0112/0218 17004KT P6SM SCT025 SCT250 FM012100 26008KT P6SM FEW025 SCT250 FM020300 27012KT P6SM VCSH SCT025 BKN250 FM020500 27010KT P6SM VCSH SCT015 OVC030 FM020900 29010KT P6SM SCT030", "KSGF 011120Z 0112/0212 29022G35KT P6SM SKC FM011500 31018G27KT P6SM SKC FM012000 30012KT P6SM SKC FM012200 30009KT P6SM SKC FM020000 VRB04KT P6SM SKC", "KSGJ 010523Z 0106/0206 19008KT P6SM SCT250 FM011400 21012G18KT P6SM FEW030 BKN250 FM011700 22014G24KT P6SM SCT040 BKN250", "KSGR 011120Z 0112/0212 VRB04KT 5SM BR BKN020 TEMPO 0112/0113 1/2SM FG FM011400 VRB04KT P6SM SCT025 FM011800 03007KT P6SM BKN250 FM020300 09005KT P6SM BKN250 FM020800 12006KT P6SM BKN040", "KSGU 010520Z 0106/0206 VRB04KT P6SM SKC FM012100 25005KT P6SM SKC FM020300 VRB04KT P6SM SKC", "KSHR 011120Z 0112/0212 VRB03KT P6SM SCT200 FM020400 29010KT P6SM SCT100 WS003/30040KT FM020800 29013KT P6SM BKN100", "KSHV 010540Z 0106/0206 24005KT P6SM BKN250 FM011500 34010KT P6SM SCT250 FM020000 VRB03KT P6SM FEW250", "KSJC 011124Z 0112/0212 16003KT P6SM FEW040 SCT250 FM011900 25005KT P6SM SCT040 BKN250 FM020500 32010KT P6SM VCSH SCT020 OVC040", "KSJS 010927Z 0109/0206 21020G26KT P6SM SHRA VCTS OVC035CB WS020/22055KT FM011000 24013G23KT P6SM VCSH OVC050 FM011700 24025G50KT P6SM FEW070 FEW250 FM020500 29010G18KT P6SM BKN030", "KSJT 011120Z 0112/0212 28005KT P6SM FEW250 FM011600 07009KT P6SM FEW250 FM020300 14010KT P6SM BKN250", "TAF AMD KSKA 010530Z 0105/0209 20010G15KT 8000 -RA BKN008 OVC040 620089 QNH2966INS TEMPO 0106/0112 20012G18KT BKN015 OVC030 620159 BECMG 0112/0113 22012G18KT 6000 -RASN BKN008 OVC030 620159 QNH2965INS TEMPO 0113/0117 BKN005 OVC010 620059 BECMG 0117/0119 24015G25KT 8000 -RA BKN025 BKN045 620259 QNH2970INS BECMG 0202/0203 24010G15KT 9999 VCSH SCT025 BKN045 610459 QNH2972INS TX06/0123Z TN01/0111Z", "TAF KSKF 011000Z 0110/0216 02006KT 9999 SKC QNH3002INS BECMG 0116/0117 07012KT 9999 FEW160 QNH3003INS BECMG 0205/0206 09006KT 9999 FEW050 FEW160 QNH2995INS BECMG 0210/0211 10006KT 9999 BKN015 OVC025 QNH2991INS BECMG 0213/0214 17006KT 9999 OVC015 QNH2997INS TX30/0120Z TN12/0111Z", "KSLC 010856Z 0109/0212 15011KT P6SM SCT150 FM011600 18015G25KT P6SM FEW120 SCT150 FM020000 22010KT P6SM FEW080 BKN120 FM020600 33006KT P6SM SCT060 OVC080", "KSLE 010725Z 0107/0206 19012G20KT P6SM -RA SCT025 OVC035 TEMPO 0107/0109 5SM RA BR SCT015 OVC025 FM010900 20011KT 6SM -SHRA SCT015 OVC025 FM012000 22011G19KT 5SM -SHRA BR SCT025 OVC040 FM020300 21011KT P6SM -SHRA OVC045", "TAF KSLI 010500Z 0105/0211 VRB06KT 9999 SCT180 QNH3007INS BECMG 0210/0211 VRB06KT 8000 BR BKN011 BKN018 QNH3007INS TX19/0123Z TN08/0114Z", "KSLK 011126Z 0112/0212 18009G17KT 6SM -RA BR OVC012 WS020/22040KT FM011400 21014G25KT P6SM VCSH OVC023 WS020/24050KT FM011700 24016G30KT P6SM SCT150 WS020/26045KT FM020100 26010KT 3SM -SHRA BR OVC007 FM020900 26014G21KT P6SM OVC025", "KSLN 011120Z 0112/0212 30015KT P6SM SKC FM012000 25008KT P6SM SKC FM012300 18008KT P6SM SKC FM020900 17017KT P6SM SKC WS020/20050KT", "KSME 010804Z 0108/0206 23020G28KT P6SM SHRA VCTS OVC035CB WS020/21050KT FM010900 24015G25KT P6SM VCSH OVC060 FM011700 25024G41KT P6SM FEW060 FEW250 FM012200 28018G31KT P6SM BKN060 FM020500 VRB05KT P6SM BKN040", "KSMF 011120Z 0112/0212 16008KT P6SM SCT050 BKN150", "KSMN 011120Z 0112/0212 16004KT P6SM OVC060 FM011700 21017G25KT P6SM -SHRA OVC060 FM012200 26020G28KT 5SM -SHRASN OVC025 FM020000 31020G28KT P6SM -SN OVC050 FM020300 30010KT P6SM OVC050", "KSMO 011120Z 0112/0212 VRB03KT P6SM BKN200 FM011900 23008KT P6SM BKN200 FM020400 VRB03KT P6SM BKN200 FM020900 VRB03KT P6SM OVC015", "KSMX 011120Z 0112/0212 VRB03KT P6SM SCT200 FM012000 30010KT P6SM BKN200 FM012200 31015KT P6SM BKN200 FM020400 32006KT P6SM BKN200 FM020500 VRB03KT P6SM FEW200", "KSNA 011127Z 0112/0212 VRB04KT P6SM SCT200 FM012000 22009KT P6SM FEW200 FM020300 VRB04KT P6SM FEW200 FM020900 VRB04KT P6SM BKN012", "KSNS 011124Z 0112/0212 14006KT P6SM FEW020 SCT250 FM011900 29008KT P6SM FEW030 SCT250 FM020300 27008KT P6SM VCSH BKN015 BKN030", "KSNY 010520Z 0106/0206 34013KT P6SM BKN050 FM011200 27012G18KT P6SM SKC FM011700 25018G28KT P6SM SCT250 FM020100 20010KT P6SM BKN250", "KSOA 011120Z 0112/0212 00000KT P6SM SKC FM011800 11008KT P6SM BKN250 FM021000 16008KT P6SM BKN015", "KSPI 010520Z 0106/0206 25008KT P6SM SKC FM010900 25015G25KT P6SM SCT060 FM011100 26020G30KT P6SM BKN040 FM011300 26025G42KT P6SM BKN022 FM011800 30022G32KT P6SM OVC018 FM012100 32015G25KT P6SM SCT050 FM020100 33006KT P6SM SKC", "KSPS 011120Z 0112/0212 01010KT P6SM SCT250 FM012100 12007KT P6SM SKC FM020900 16010KT P6SM SCT050 BKN180", "KSRQ 011120Z 0112/0212 14007KT P6SM BKN250 FM011400 19009KT P6SM SCT040 BKN250 FM011700 24013KT P6SM SCT050 BKN250 FM020000 28005KT P6SM SCT250", "TAF KSSC 010700Z 0107/0213 18010G15KT 9999 SCT050 QNH3000INS BECMG 0111/0112 20012G18KT 9999 SCT030 BKN200 QNH2997INS BECMG 0114/0115 20015G25KT 9999 VCSH BKN015 QNH2982INS TEMPO 0116/0120 23025G31KT 4800 TSRA BKN015CB OVC035 BECMG 0121/0122 24015G25KT 9999 NSW FEW050 QNH2979INS BECMG 0200/0201 27009KT 9999 SKC QNH2980INS TX25/0121Z TN17/0112Z LAST NO AMDS AFT 0107 NEXT 0115", "KSSF 011120Z 0112/0212 32004KT P6SM FEW050 SCT250 FM011600 07011KT P6SM FEW060 BKN150 FM020000 10005KT P6SM FEW050 BKN150 FM020800 12006KT P6SM OVC015", "KSSI 010523Z 0106/0206 20008G18KT P6SM SCT250 FM011800 23015G25KT P6SM VCTS SCT040CB BKN250 PROB30 0121/0124 VRB20G30KT 3SM TSRA BKN035CB", "KSTC 010859Z 0109/0206 35011G20KT P6SM SKC FM011300 34010KT P6SM SKC FM012100 25003KT P6SM SKC", "KSTJ 011120Z 0112/0212 30020G35KT P6SM SCT030 SCT100 FM011500 30015KT P6SM FEW230 FM012100 30008KT P6SM SKC FM020000 18011KT P6SM SKC", "KSTL 010858Z 0109/0212 27025G40KT P6SM SKC FM011200 28028G41KT P6SM SCT030 FM011800 31018G30KT P6SM BKN035 FM020000 34008KT P6SM SKC FM020400 VRB04KT P6SM SKC", "KSTS 011124Z 0112/0212 19004KT P6SM SCT250 TEMPO 0112/0114 4SM BR SCT005 BKN020 FM011400 VRB03KT 4SM BR SCT005 BKN012 OVC250 FM011700 19004KT 5SM BR BKN020 BKN250 FM011830 21005KT 5SM -RA BKN009 OVC015 FM020300 VRB03KT 5SM BR BKN009 OVC011 FM020500 26008KT 5SM BR SCT011 BKN015", "KSUA 011127Z 0112/0212 14005KT P6SM VCSH SCT025 BKN250 FM011400 18010KT P6SM SCT030 BKN250 FM011800 13016G23KT P6SM SCT050 BKN250 FM020000 19008KT P6SM FEW060 BKN250 AMD NOT SKED", "KSUN 011120Z 0112/0218 VRB05KT 6SM -SN SCT020 OVC040 FM011600 17012G22KT 2SM -SN BKN015 OVC030 FM020200 33011KT P6SM VCSH SCT020 BKN060 FM020500 32007KT P6SM BKN080 AMD LTD TO CLD VIS AND WIND TIL 011400", "KSUS 010903Z 0109/0206 27025G37KT P6SM SKC FM011200 29028G41KT P6SM SCT035 FM011800 31018G30KT P6SM BKN035 FM020000 34008KT P6SM SKC FM020400 VRB04KT P6SM SKC", "TAF KSUU 011055Z 0111/0217 VRB06KT 9999 FEW100 QNH3020INS TEMPO 0114/0116 6000 BR SCT010 BECMG 0115/0116 24009KT 9999 FEW080 SCT120 QNH3019INS BECMG 0120/0121 25010G15KT 9999 SCT050 BKN100 QNH3015INS TX17/0122Z TN04/0114Z", "KSUX 011120Z 0112/0212 32020G28KT P6SM BKN160 FM011500 32015G22KT P6SM SCT230 FM011800 32009KT P6SM FEW250 FM012300 17005KT P6SM SKC FM020300 13011G16KT P6SM FEW250 FM020600 15015G28KT P6SM FEW250 WS010/19040KT", "TAF COR KSVN 010218Z 0102/0207 18007KT 9999 FEW030 SCT150 QNH3014INS BECMG 0114/0115 22015G25KT 9999 SCT020 BKN040 QNH2989INS BECMG 0119/0120 24015G25KT 6000 -SHRA VCTS BKN020CB BKN030 QNH2987INS TEMPO 0121/0203 25020G30KT 3200 TSRA BKN015CB BECMG 0203/0204 27008KT 9999 NSW SKC QNH3012INS TX27/0117Z TN18/0109Z LAST NO AMDS AFT 0102 NEXT 0301", "KSWF 010848Z 0109/0212 19005KT 5SM -SHRA BR SCT012 OVC025 FM011000 23010KT 3SM SHRA BR OVC008 FM011200 24015G25KT 5SM -SHRA BR SCT015 OVC025 FM011900 22014G28KT P6SM SCT050 SCT250 FM012300 25013G25KT 5SM -SHRA BR BKN050 BKN100 PROB30 0123/0201 25018G33KT 3SM TSRA BKN010CB FM020200 28020G32KT P6SM VCSH OVC035 FM020400 30018G30KT P6SM SCT040 BKN250 AMD NOT SKED", "KSWO 011120Z 0112/0212 33012G22KT P6SM SKC FM012000 30008KT P6SM SCT250 FM020100 16006KT P6SM SKC", "KSYM 010740Z 0108/0206 24017G27KT P6SM VCSH BKN040 WS020/25045KT FM011300 22019G46KT P6SM SKC FM020000 27017G29KT P6SM BKN030 FM020200 29013G21KT P6SM BKN035", "KSYR 011120Z 0112/0212 19013G25KT P6SM BKN035 WS020/24040KT FM011500 24018G31KT P6SM FEW200 TEMPO 0121/0123 26018G35KT 2SM TSRA OVC015CB FM012300 29017G28KT 4SM -SHRA BR OVC015 FM020500 32015G24KT P6SM BKN026", "TAF KSZL 011100Z 0111/0217 29020G35KT 9999 BKN040 520005 QNH2987INS BECMG 0117/0118 30012G20KT 9999 SKC 510005 QNH3009INS BECMG 0121/0122 30010G15KT 9999 SKC QNH3007INS BECMG 0200/0201 VRB06KT 9999 SKC QNH2993INS BECMG 0214/0215 17015G25KT 9999 FEW140 510013 QNH2984INS TX14/0121Z TN03/0112Z", "TAF KTBN 312100Z 3121/0203 21025G35KT 4800 -TSRAGR BKN030CB QNH2942INS BECMG 3122/3123 24030G40KT 9999 SCT030 530054 QNH2947INS BECMG 0102/0103 28015KT 9999 FEW030 530055 QNH2974INS BECMG 0113/0114 28025G35KT 9999 SKC 530054 QNH2989INS BECMG 0121/0122 31015G20KT 9999 SKC QNH3007INS BECMG 0200/0201 VRB06KT 9999 SKC QNH3009INS TX26/3121Z TN03/0113Z LAST NO AMNDS AFT 01/03Z NEXT 01/12Z", "KTCC 010526Z 0106/0206 26013KT P6SM SKC FM010900 27008KT P6SM SKC FM011900 23015G24KT P6SM FEW250 FM020200 23007KT P6SM FEW250", "KTCL 011120Z 0112/0212 23010KT 4SM -SHRA VCTS BKN025CB FM011300 24010KT P6SM SCT045 FM011600 27012G20KT P6SM FEW110 FM020100 32008KT P6SM FEW250 FM020700 VRB04KT P6SM FEW250", "TAF KTCM 010500Z 0105/0211 18009KT 9000 -RA BKN025 OVC035 620304 QNH2976INS BECMG 0107/0108 20009KT 9999 NSW OVC025 620305 QNH2978INS BECMG 0118/0119 22012G18KT 9000 -SHRA BKN020 OVC040 610209 QNH2988INS BECMG 0121/0122 24012G20KT 9000 -SHRA BKN040 OVC060 610407 QNH2987INS BECMG 0202/0203 23006KT 9000 -SHRA SCT035 BKN050 OVC070 610507 QNH2990INS BECMG 0204/0205 VRB06KT 9999 NSW BKN030 OVC040 620309 QNH2987INS TX08/0123Z TN03/0113Z", "KTCS 011125Z 0112/0212 33007KT P6SM FEW250 FM011900 19010KT P6SM FEW250", "KTEB 010848Z 0109/0212 18008KT 5SM -SHRA BR SCT010 OVC020 FM011000 19009KT 3SM SHRA BR OVC007 WS020/24045KT FM011400 21014G24KT 5SM -SHRA BR SCT012 OVC020 WS020/24045KT FM011800 21017G29KT P6SM SCT050 SCT250 FM012300 23015G27KT 5SM -SHRA BR SCT030 BKN050 BKN100 PROB30 0123/0201 25018G33KT 3SM TSRA BKN010CB FM020200 29020G33KT P6SM VCSH OVC040 FM020400 31018G31KT P6SM SCT040 BKN250", "KTEX 011120Z 0112/0212 14007KT P6SM SKC FM011900 22010G18KT P6SM SKC FM020300 13010KT P6SM SCT100 WS020/24040KT", "TAF KTIK 010900Z 0109/0215 33012G22KT 9999 SKC 510051 QNH2999INS BECMG 0114/0115 35012G18KT 9999 SKC 510002 QNH3018INS BECMG 0117/0118 VRB06KT 9999 SKC 510012 QNH3008INS BECMG 0203/0204 17012G18KT 9999 SKC QNH2992INS TX20/0122Z TN09/0112Z", "KTIX 011127Z 0112/0212 21004KT P6SM BKN250 FM011500 20014G22KT P6SM SCT040 BKN250 FM020100 25008KT P6SM FEW060 BKN250 FM020800 29003KT P6SM OVC012", "KTLH 011120Z 0112/0212 14003KT 1SM BR OVC002 FM011400 17007KT P6SM VCSH SCT008 OVC015 FM011600 22010G18KT P6SM SCT020 BKN035 TEMPO 0120/0123 4SM TSRA BR BKN020CB OVC035 FM020400 27004KT 6SM BR SCT008 BKN250 FM020900 32003KT P6SM BKN250", "KTMB 011120Z 0112/0212 13007KT P6SM FEW025 SCT040 FM011400 15011KT P6SM FEW030 SCT050 FM011900 17012KT P6SM VCSH SCT025 BKN050 FM020200 20006KT P6SM FEW025 SCT050 BKN150", "KTOI 011120Z 0112/0212 19012G18KT P6SM BKN015 FM011300 22012G24KT 6SM -SHRA VCTS OVC022CB TEMPO 0115/0118 4SM TSRA BR OVC015CB FM012000 28012G20KT P6SM SCT035 BKN100 FM020300 27008KT P6SM SKC FM020500 30006KT P6SM SKC", "KTOL 010546Z 0106/0206 21020G30KT P6SM VCTS SCT015 OVC025CB FM010700 24019G27KT P6SM SCT060 FM011400 24020G36KT P6SM VCSH SCT025 BKN060 TEMPO 0115/0118 4SM -SHRA OVC025 FM011800 26019G32KT P6SM BKN025 FM020300 34010KT P6SM BKN035", "KTOP 011123Z 0112/0212 31015G25KT P6SM FEW035 FM011900 29006KT P6SM SKC FM020200 18005KT P6SM SKC FM020600 17012KT P6SM SKC", "KTPA 011120Z 0112/0218 18008KT P6SM SCT040 BKN250 FM011600 22012KT P6SM SCT050 BKN250 FM020000 25007KT P6SM SCT250 FM020900 29005KT P6SM SCT025 SCT250 FM021400 31007KT P6SM SCT040 SCT250", "KTPH 011120Z 0112/0212 VRB06KT P6SM FEW250 FM012200 25011KT P6SM FEW250 FM020500 VRB06KT P6SM SCT250", "KTRI 011120Z 0112/0212 23015G25KT P6SM BKN050 TEMPO 0112/0114 5SM -TSRA BKN020CB FM011600 24025G40KT P6SM SKC FM011900 26030G45KT P6SM SKC FM020200 27015G35KT P6SM SCT045 FM020900 27009KT P6SM BKN045", "KTRK 011120Z 0112/0212 17007KT P6SM BKN200 WS005/23040KT FM011700 23011G20KT P6SM SCT050 OVC200 FM020000 21010G15KT P6SM VCSH BKN040 FM020500 20015G28KT P6SM VCSH BKN040 WS005/23045KT", "KTRM 011127Z 0112/0212 VRB04KT P6SM FEW200 FM012000 14007KT P6SM SKC FM020300 33009KT P6SM SKC", "KTTD 010806Z 0108/0206 22010KT P6SM -SHRA SCT015 OVC040 FM011000 22010KT P6SM SHRA SCT015 OVC026 FM011500 22011KT P6SM -SHRA OVC014 FM012000 24014KT P6SM -SHRA SCT025 OVC040 PROB30 0200/0203 4SM TSRAGR BR OVC025CB", "KTTN 011121Z 0112/0212 21015G24KT 4SM -SHRA BR OVC010 FM011700 22022G32KT P6SM SCT035 BKN070 FM012200 28022G34KT 6SM -SHRA VCTS SCT040CB FM020200 29010G19KT P6SM OVC050", "KTUL 011120Z 0112/0212 31010KT P6SM SKC FM011400 32013G21KT P6SM SKC FM012000 33011KT P6SM FEW250 FM020100 VRB04KT P6SM FEW250", "KTUP 011120Z 0112/0212 22008KT P6SM SCT080 FM011400 28012G19KT P6SM SCT250 FM011700 33016G24KT P6SM SCT250 FM020000 36010KT P6SM FEW250 FM020300 VRB02KT P6SM SKC", "KTUS 011120Z 0112/0212 14007KT P6SM BKN250 FM011800 21007KT P6SM SKC FM012200 26011G18KT P6SM SKC FM020200 20005KT P6SM SKC", "KTVC 011127Z 0112/0212 21010G20KT P6SM VCSH OVC012 FM011500 07015G25KT 4SM -SN BLSN OVC010 FM011800 01020G35KT 4SM -SN BLSN BKN025 FM012000 35020G35KT 6SM BLSN SCT030 FM020200 35005KT P6SM FEW030", "KTVF 011120Z 0112/0212 02006KT P6SM SKC FM011900 20009KT P6SM SKC FM012100 19012KT P6SM FEW250 FM020400 18017G26KT 5SM BLSN SCT200 FM020800 17016G24KT 5SM BLSN BKN200", "KTVL 011120Z 0112/0212 20010G14KT P6SM BKN200 WS005/23040KT FM011800 20013G22KT P6SM SCT050 BKN200 FM020000 19011G18KT P6SM BKN050 FM020300 20014G22KT P6SM BKN050 WS005/23045KT", "KTWF 011126Z 0112/0212 20011KT P6SM VCSH OVC100 FM011600 24015G25KT P6SM VCSH OVC050 FM011900 27025G35KT 5SM -RA BR OVC025 FM020000 23010KT 2SM -SHSN BR OVC015 TEMPO 0200/0203 1SM -SNRA BR OVC010", "KTXK 010540Z 0106/0206 26008KT P6SM BKN250 FM011500 33010KT P6SM SCT250 FM020000 VRB03KT P6SM FEW250", "KTYR 010540Z 0106/0206 25006KT P6SM BKN250 FM011500 36010KT P6SM SCT250 FM020000 VRB04KT P6SM FEW250", "KTYS 011120Z 0112/0212 23015G25KT P6SM BKN060 FM011500 24020G35KT P6SM SKC FM011800 25030G45KT P6SM SKC FM012300 27020G35KT P6SM SKC FM020200 30010G20KT P6SM SKC FM020500 35005KT P6SM SKC", "KUAO 010811Z 0108/0206 20010KT P6SM -RA SCT020 BKN035 OVC050 FM011300 20010G17KT 6SM -SHRA OVC025 FM012000 21012G21KT P6SM -SHRA OVC035", "KUES 011120Z 0112/0212 26014G24KT 3SM -SN BR OVC012 FM011600 34020G33KT P6SM OVC013 FM012000 35016G24KT P6SM BKN022 FM012200 34010KT P6SM SCT060 FM020200 VRB04KT P6SM SKC", "KUIN 010756Z 0108/0206 27020G35KT P6SM BKN050 FM011000 27027G43KT P6SM OVC025 FM011600 31024G37KT P6SM OVC024 FM011900 32020G30KT P6SM SCT050 FM020000 35007KT P6SM SKC", "KUKI 010542Z 0106/0206 VRB02KT P6SM BKN070 FM011200 VRB02KT 6SM BR BKN020 OVC045 FM011600 14004KT 5SM -SHRA BKN020 OVC040 FM012000 20003KT P6SM -SHRA BKN025 OVC050 FM020000 32004KT P6SM VCSH BKN015 OVC025", "KUNV 010926Z 0109/0206 25003KT 5SM -SHRA OVC030 WS020/21040KT FM011000 25009KT 6SM -SHRA BR BKN030 BKN040 WS020/23040KT FM011100 24009KT 5SM -SHRA BKN015 BKN040 WS020/23040KT FM011200 24012G22KT P6SM SKC FM011800 24020G41KT P6SM BKN060 FM012000 25021G41KT P6SM VCTS BKN050CB FM012100 27021G43KT P6SM BKN040 FM020500 30022G30KT P6SM OVC050", "KUTS 011120Z 0112/0212 VRB03KT 5SM BR SCT015 SCT250 TEMPO 0112/0113 1/2SM FG FM011400 VRB05KT P6SM SCT250 FM011700 01008KT P6SM BKN250 FM020010 VRB03KT P6SM BKN250", "TAF KVAD 311600Z 3116/0122 18010G25KT 9999 SKC QNH3024INS BECMG 3121/3122 20006KT 9999 SKC QNH3009INS BECMG 0103/0105 20006KT 9999 BKN005 QNH3019INS BECMG 0113/0114 20015G25KT 9999 OVC010 QNH3009INS TEMPO 0118/0119 6000 -TSRA OVC010CB TX28/3120Z TN17/0108Z", "TAF KVBG 312200Z 3122/0204 30009KT 9999 SCT015 SCT250 QNH3020INS TEMPO 3122/0102 BKN015 BECMG 0101/0102 35009KT 9999 BKN012 BKN200 QNH3022INS BECMG 0103/0104 33009KT 9999 BKN008 BKN200 QNH3018INS BECMG 0118/0119 32015G22KT 9999 FEW012 510006 QNH3016INS TX16/0120Z TN06/0113Z LAST NO AMDS AFT 0100 NEXT 0213", "KVCT 011127Z 0112/0212 VRB06KT 5SM BR OVC007 TEMPO 0112/0113 2SM BR OVC007 FM011500 04007KT P6SM BKN013 FM011800 08008KT P6SM SCT020 BKN050 FM020700 10008KT 4SM BR OVC007", "KVEL 011120Z 0112/0212 33005KT P6SM FEW120 FM012000 21008KT P6SM SCT120 FM020200 22012G20KT P6SM BKN120", "KVGT 011122Z 0112/0212 VRB05KT P6SM SCT250 FM011800 13007KT P6SM FEW150 FM012000 23011G19KT P6SM FEW250 FM020600 33006KT P6SM SKC", "KVIS 011120Z 0112/0212 33004KT P6SM SKC", "KVLD 011120Z 0112/0212 18004KT P6SM BKN010 FM011400 21008KT P6SM SCT008 BKN015 OVC200 FM011600 22011KT P6SM VCSH SCT025 BKN035 TEMPO 0122/0201 4SM TSRA BR BKN025CB OVC035 FM020100 25005KT P6SM BKN018 BKN250 FM020400 00000KT 5SM BR SCT005 FM020900 34003KT P6SM BKN250", "KVNY 011120Z 0112/0212 VRB03KT P6SM BKN200 FM012100 17008KT P6SM BKN200 FM020400 VRB03KT P6SM BKN200 FM021000 VRB03KT P6SM BKN015", "TAF AMD KVOK 011025Z 0110/0215 30009KT 4800 -SN OVC005 620159 QNH2922INS TEMPO 0110/0116 36025G35KT 3200 -SN OVC009 620099 510004 BECMG 0115/0116 36015G30KT 4800 -SN BKN020 620205 510004 QNH2968INS BECMG 0117/0118 35015G25KT 9999 NSW FEW030 FEW250 QNH2986INS BECMG 0121/0122 35009KT 9999 SKC QNH2996INS BECMG 0200/0201 VRB06KT 9999 SKC QNH3005INS TX06/0121Z TNM03/0209Z", "TAF KVPS 010900Z 0109/0215 21012KT 9999 BKN006 QNH3003INS BECMG 0115/0116 23015G25KT 8000 -SHRA VCTS BKN004CB OVC015 QNH3004INS BECMG 0120/0121 26010KT 9999 NSW BKN040 QNH3003INS BECMG 0204/0205 30006KT 9999 FEW200 QNH3008INS TX23/0116Z TN15/0209Z", "KVQQ 010523Z 0106/0206 19004KT P6SM FEW050 SCT250 FM011400 22012G18KT P6SM FEW030 BKN250 FM011700 23016G26KT P6SM SCT050 BKN250", "KVRB 011127Z 0112/0212 21004KT P6SM VCSH SCT030 BKN250 FM011400 18012KT P6SM VCSH SCT040 BKN250 FM011800 14017G24KT P6SM SCT050 BKN250 FM020100 23011KT P6SM FEW060 BKN250", "KVTN 011123Z 0112/0212 25006KT P6SM FEW250 FM011700 21009KT P6SM SCT250 FM020400 22012KT P6SM SCT250", "KWJF 011120Z 0112/0212 VRB03KT P6SM BKN200 FM012000 26012G20KT P6SM BKN200 FM012300 26018G28KT P6SM BKN200", "KWMC 011120Z 0112/0212 VRB06KT P6SM BKN150 FM011800 22022G32KT P6SM BKN100 FM020200 25010G20KT P6SM FEW020 BKN050 FM020500 25011KT P6SM SCT020 BKN050 FM020900 26008KT 6SM -SHRASN BKN020 OVC050", "TAF KWRB 010800Z 0108/0214 25010KT 9999 SCT035 BKN150 QNH3001INS BECMG 0109/0110 25010G15KT 9999 BKN015 QNH3000INS BECMG 0112/0113 26015G20KT 8000 -SHRA VCTS SCT010 BKN020CB QNH2995INS TEMPO 0114/0118 26015G30KT 6000 -TSRA BKN010CB BECMG 0117/0118 27015G25KT 9999 NSW SCT025 BKN065 BKN200 QNH2990INS BECMG 0122/0123 30008KT 9999 SKC QNH2992INS BECMG 0213/0214 32010G15KT 9999 SKC QNH3013INS TX27/0121Z TN12/0208Z", "TAF KWRI 011000Z 0110/0216 22015G25KT 6000 -SHRA BR OVC012 QNH2948INS TEMPO 0112/0116 3200 TSRA BR BKN008CB BECMG 0117/0118 22020G32KT 9999 VCSH BKN020 BKN100 QNH2932INS TEMPO 0123/0201 26020G35KT 3200 TSRA BKN030CB BECMG 0202/0203 29020G32KT 9999 NSW SCT030 BKN080 QNH2934INS BECMG 0212/0213 28015G25KT 9999 FEW100 QNH2979INS TX22/0120Z TN05/0210Z", "KWRL 011120Z 0112/0212 16006KT P6SM FEW100 SCT150 FM011800 19012KT P6SM FEW100 SCT120 FM012100 23015G25KT P6SM FEW100 BKN120 FM020200 24010KT P6SM SCT080 BKN120 FM020500 34012KT P6SM VCSH SCT020 BKN030", "KWWR 011120Z 0112/0212 34012KT P6SM SKC FM012000 20011G19KT P6SM BKN250 FM020400 15017G23KT P6SM SKC", "KXNA 011120Z 0112/0212 30010KT P6SM SKC FM011400 31012G20KT P6SM SKC FM012100 32011KT P6SM FEW250 FM020100 VRB03KT P6SM FEW250", "KXWA 010546Z 0106/0206 19010KT P6SM SCT150 FM011400 22010KT P6SM FEW150 FM020000 21007KT P6SM BKN060 FM020300 15007KT P6SM BKN050", "KYIP 011126Z 0112/0212 21018G28KT P6SM SKC FM011400 22014G22KT 2SM -SHRA OVC020 TEMPO 0114/0116 27020G35KT 2SM -TSRA OVC020CB FM011600 29018G32KT P6SM BKN025 OVC050 FM012300 33014G24KT P6SM BKN030 FM020600 35007KT P6SM SKC", "KYKM 011126Z 0112/0212 25008KT P6SM BKN050 BKN080 FM011500 25015G25KT P6SM BKN050 BKN100 FM020200 25012G22KT P6SM BKN070 BKN100 FM020600 27005KT P6SM OVC100", "KYNG 010908Z 0109/0206 22007KT P6SM OVC060 FM011100 22011G20KT P6SM SCT035 FM011600 25023G41KT P6SM -SHRA VCTS SCT025 BKN050CB TEMPO 0117/0119 2SM TSRA OVC025CB FM012100 27023G37KT P6SM -SHRA OVC025 FM020300 32013G23KT P6SM OVC015", "KZZV 010749Z 0108/0206 20016G26KT P6SM BKN025 FM011100 23016G26KT P6SM BKN070 FM012000 27024G37KT 6SM -TSRA OVC025CB FM020200 28015G29KT P6SM BKN017", "TAF LAKU 011100Z 0112/0212 18014KT 9999 SCT030 BKN070 TX14/0212Z TN06/0204Z TEMPO 0112/0116 VRB12G25KT 4000 TSRA SCT025CB BKN040 BECMG 0123/0201 VRB05KT", "TAF LATI 011100Z 0112/0212 22016KT 9999 SCT030 BKN080 TX19/0112Z TN06/0204Z PROB30 TEMPO 0112/0115 5000 -TSRA FEW020CB BKN050 BECMG 0117/0119 VRB05KT", "TAF LBBG 011100Z 0112/0212 22012KT 9999 SCT045 PROB40 TEMPO 0112/0118 4000 TSRA FEW030CB BKN045 BECMG 0120/0122 26014KT", "TAF LBGO 011100Z 0112/0212 04010KT 9999 SCT050 BKN070 BECMG 0112/0114 28010KT TEMPO 0114/0120 28016G26KT 5000 SHRA SCT030CB BKN050 PROB30 0114/0116 28020G30KT 3000 TSRA SCT030CB OVC040 BECMG 0120/0122 28020KT", "TAF LBPD 011100Z 0112/0212 08010KT 9999 BKN070 BECMG 0112/0113 28014KT TEMPO 0113/0118 28016G26KT 5000 SHRA SCT030CB OVC050 PROB30 0113/0115 28020G30KT 3000 TSRA SCT030CB OVC050", "TAF LBSF 011100Z 0112/0212 10010KT 9999 SCT050 OVC070 TEMPO 0112/0115 5000 SHRA FEW030CB OVC050 PROB30 0112/0114 VRB16G30KT 3000 TSRA SCT010 SCT030CB OVC040 BECMG 0115/0117 33014KT SCT015 BKN040 PROB30 TEMPO 0117/0119 5000 SHRA FEW030CB OVC040 BECMG 0200/0202 27010KT", "TAF LBWN 011100Z 0112/0212 19012KT 9999 SCT045 TEMPO 0114/0120 5000 SHRA FEW030CB BKN045 PROB40 0115/0118 VRB18KT 3000 TSRA SCT015 SCT030CB BKN045 BECMG 0120/0122 27016KT TEMPO 0122/0204 30020G30KT", "TAF LCEN 011040Z 0112/0212 29015KT 9999 FEW020 SCT025 PROB30 TEMPO 0112/0116 -SHRA FEW020 BKN025", "TAF LCLK 011130Z 0112/0212 20017KT 9999 FEW025 BECMG 0119/0123 27005KT PROB30 TEMPO 0120/0203 5000 BR BKN006 BECMG 0207/0211 20013KT", "TAF LCPH 011130Z 0112/0212 26010KT 9999 SCT012 SCT030 PROB30 0115/0207 BKN009 BECMG 0119/0122 07007KT BECMG 0206/0209 16010KT BECMG 0210/0212 22010KT", "TAF LCRA 011018Z 0112/0206 26012KT 9999 SCT030 TEMPO 0118/0206 BKN020", "TAF LDDU 011127Z 0112/0212 28009KT 9999 FEW040 TX15/0113Z TN10/0204Z BECMG 0117/0119 05006KT BECMG 0207/0209 16010KT PROB30 TEMPO 0207/0212 SHRA FEW020TCU SCT030", "TAF LDLO 011125Z 0112/0212 27008KT 9999 FEW015 TX16/0113Z TN10/0204Z BECMG 0116/0118 16008KT", "TAF LDOS 011125Z 0112/0212 29012KT 9999 OVC030 TX12/0114Z TN04/0205Z PROB30 0112/0114 4000 -RA BKN010 PROB30 TEMPO 0112/0116 SHRA FEW020TCU OVC030 PROB40 TEMPO 0114/0120 24008KT BECMG 0200/0202 30004KT", "TAF LDPL 011125Z 0112/0212 23006KT 9999 SCT015 TX17/0113Z TN07/0204Z PROB30 TEMPO 0118/0208 BKN007 BECMG 0120/0122 09008KT", "TAF LDRI 011125Z 0112/0212 VRB02KT 9999 SCT035 TX17/0113Z TN08/0204Z PROB40 TEMPO 0112/0116 32007KT PROB30 TEMPO 0210/0212 FEW035CB SCT040", "TAF LDSB 011125Z 0112/0212 32008KT 9999 SCT030 TX15/0113Z TN07/0205Z BECMG 0118/0120 04006KT PROB30 TEMPO 0206/0212 20008KT SHRA SCT015TCU BKN020", "TAF LDSP 011125Z 0112/0212 31008KT CAVOK TX18/0113Z TN09/0205Z PROB30 TEMPO 0208/0212 TSRA FEW025CB SCT030", "TAF LDZA 011125Z 0112/0212 22006KT CAVOK TX18/0113Z TN05/0205Z PROB30 TEMPO 0113/0117 30015KT TSRA FEW035CB BECMG 0115/0117 VRB02KT PROB30 TEMPO 0203/0207 1200 BCFG PROB30 TEMPO 0210/0212 TSRA FEW030CB", "TAF LDZD 011125Z 0112/0212 30008KT 9999 SCT030 TX17/0113Z TN06/0204Z BECMG 0117/0119 13005KT PROB30 TEMPO 0208/0212 22008KT SHRA SCT030TCU", "TAF LEAB 011100Z 0112/0212 29012KT CAVOK TX22/0116Z TN07/0207Z PROB40 TEMPO 0113/0120 30018G30KT PROB30 TEMPO 0120/0124 31015G25KT", "TAF LEAG 311400Z 3115/0115 26010KT CAVOK TX26/3115Z TN15/0106Z", "TAF LEAL 011100Z 0112/0212 10008KT CAVOK TX24/0112Z TN11/0206Z BECMG 0113/0115 18010KT BECMG 0117/0120 32005KT PROB40 TEMPO 0122/0202 04015G30KT", "TAF LEAM 011100Z 0112/0212 22010KT CAVOK TX22/0113Z TN17/0122Z BECMG 0116/0118 VRB02KT BECMG 0121/0124 34020KT PROB40 TEMPO 0200/0205 34025G35KT BECMG 0205/0207 09012KT BECMG 0209/0211 20010KT", "TAF LEAO 010800Z 0109/0209 28012KT 9999 FEW035 TX21/0115Z TN06/0206Z PROB40 TEMPO 0111/0121 28017G30KT BECMG 0200/0202 02007KT", "TAF LEAS 010800Z 0109/0209 25009KT 9999 FEW030 BKN040 TX13/0115Z TN08/0203Z PROB40 TEMPO 0109/0115 3000 RA BKN010 FEW025TCU PROB40 TEMPO 0109/0111 31018KT BECMG 0111/0113 31012KT PROB40 TEMPO 0111/0119 30017G30KT TEMPO 0200/0209 VRB03KT", "TAF LEBA 010800Z 0109/0209 VRB02KT CAVOK TX27/0115Z TN08/0206Z BECMG 0111/0114 27010KT BECMG 0119/0122 21003KT", "TAF LEBB 011100Z 0112/0212 31009KT 9999 SCT030 BKN050 TX15/0112Z TN11/0206Z TEMPO 0112/0209 3000 RA BKN010 FEW020TCU PROB40 TEMPO 0112/0121 3000 SHRA SCT020TCU PROB30 TEMPO 0114/0119 1500 TSRA FEW020CB TEMPO 0112/0206 30016G30KT", "TAF LEBG 010800Z 0109/0209 26012KT 9999 SCT040 TX14/0115Z TN02/0206Z PROB40 TEMPO 0110/0118 25015G27KT PROB30 TEMPO 0115/0118 RA BKN020 BECMG 0116/0118 02012KT PROB30 TEMPO 0122/0208 BKN012", "TAF LEBL 011100Z 0112/0212 22010KT 9999 FEW030 TX20/0212Z TN09/0206Z TEMPO 0115/0118 28016G26KT PROB40 TEMPO 0118/0122 10015G25KT 3000 TSRA FEW020CB TEMPO 0121/0124 18008KT BECMG 0200/0202 33012KT TEMPO 0203/0210 33015G25KT", "TAF LEBR 312000Z 3121/0121 32009KT 9999 SCT045 TX19/0114Z TN11/0106Z BECMG 0109/0113 32019KT PROB40 TEMPO 0113/0118 32022G32KT 4000 SHRA FEW020TCU", "TAF LEBZ 010800Z 0109/0209 27009KT 9999 FEW025 SCT045 TX23/0115Z TN09/0206Z PROB30 TEMPO 0200/0206 4000 BR BKN010", "TAF LECO 010800Z 0109/0209 25009KT 9999 SCT035 TX14/0112Z TN03/0206Z PROB30 TEMPO 0109/0115 3000 RA BKN010 FEW020TCU BECMG 0111/0113 33010KT TEMPO 0120/0209 VRB02KT PROB30 TEMPO 0200/0207 1500 BCFG BKN010", "TAF LECV 011100Z 0112/0212 VRB05KT 9999 SCT030 TX17/0116Z TN03/0207Z TEMPO 0112/0121 27010KT PROB30 TEMPO 0113/0120 29015G28KT PROB40 TEMPO 0121/0210 03010KT BECMG 0210/0212 35010KT", "TAF LEGA 311100Z 3112/0112 32010KT CAVOK TX26/3115Z TN08/0106Z BECMG 3118/3120 02004KT", "TAF LEGE 011100Z 0112/0212 14010KT 9999 FEW020 TX20/0113Z TN06/0206Z TEMPO 0116/0121 3000 TSRA BKN012 FEW040CB TEMPO 0117/0121 VRB15G25KT BECMG 0119/0121 VRB05KT PROB30 TEMPO 0123/0204 2000 BR", "TAF LEGR 011100Z 0112/0212 30010KT CAVOK TX24/0115Z TN07/0206Z BECMG 0119/0121 VRB02KT", "TAF LEGT 011100Z 0112/0212 30010KT 9999 SCT040 TX19/0116Z TN04/0207Z TEMPO 0112/0120 31018G32KT BECMG 0122/0124 VRB05KT", "TAF LEHC 010800Z 0109/0209 30010KT 9999 FEW040 TX17/0114Z TN06/0206Z TEMPO 0109/0118 30018G30KT", "TAF LEIB 010800Z 0109/0209 10007KT 9999 FEW050 TX21/0112Z TN09/0206Z BECMG 0114/0116 20014KT TEMPO 0121/0201 34025G40KT TEMPO 0201/0208 34017G30KT", "TAF LEJR 010800Z 0109/0209 35005KT CAVOK TX25/0114Z TN10/0206Z BECMG 0111/0114 29011KT BECMG 0120/0123 35005KT", "TAF LELC 011100Z 0112/0212 13010KT CAVOK TX25/0113Z TN15/0206Z BECMG 0115/0117 22013KT BECMG 0119/0122 28008KT BECMG 0123/0201 05012KT BECMG 0203/0205 31006KT", "TAF LELL 010800Z 0109/0209 26006KT 9999 FEW050 TX24/0113Z TN06/0206Z TEMPO 0115/0120 VRB15G30KT BECMG 0119/0122 29008KT TEMPO 0118/0121 TSRA FEW030CB", "TAF LELN 010800Z 0109/0209 27012KT 9999 SCT040 TX14/0115Z TN01/0206Z PROB40 TEMPO 0110/0119 27020G30KT BECMG 0118/0120 35008KT", "TAF LELO 010800Z 0109/0209 28008KT 9999 SCT040 TX17/0115Z TN07/0206Z BECMG 0109/0110 28012KT PROB40 TEMPO 0110/0122 28020G34KT TEMPO 0109/0118 4000 RA BKN025 PROB40 TEMPO 0122/0209 28015G25KT", "TAF LEMD 011100Z 0112/0218 29010KT 9999 SCT045 TX20/0116Z TN04/0207Z TEMPO 0112/0119 29018G32KT BECMG 0120/0122 VRB05KT TEMPO 0122/0207 02010KT BECMG 0207/0209 35010KT PROB30 TEMPO 0214/0218 35015G25KT", "TAF LEMG 011100Z 0112/0212 30014KT CAVOK TX29/0115Z TN16/0206Z PROB40 TEMPO 0112/0117 30016G26KT BECMG 0209/0211 12007KT", "TAF LEMH 010800Z 0109/0209 08007KT 9999 FEW050 TX17/0112Z TN06/0206Z BECMG 0109/0111 24012KT TEMPO 0120/0201 VRB20G30KT TEMPO 0120/0205 TSRA FEW020CB BKN040", "TAF LEMO 010800Z 0109/0209 VRB02KT CAVOK TX28/0115Z TN10/0206Z BECMG 0113/0116 30010KT BECMG 0122/0201 36003KT", "TAF LEPA 011100Z 0112/0212 22012KT 9999 FEW020 TX20/0112Z TN09/0206Z TEMPO 0112/0116 31012KT TEMPO 0122/0124 34020G30KT 1500 TSRAGR SCT040CB TEMPO 0200/0202 32010KT 3000 TSRAGR FEW040CB BECMG 0203/0205 VRB05KT BECMG 0207/0209 32010KT", "TAF LEPP 010800Z 0109/0209 33009KT 9999 SCT030 TX14/0115Z TN05/0124Z TEMPO 0111/0120 34015G30KT PROB30 TEMPO 0112/0118 3000 SHRA BKN010 FEW025TCU PROB40 TEMPO 0118/0209 3000 SHRA BKN010 SCT025TCU PROB30 TEMPO 0203/0209 34015G25KT", "TAF LERI 011100Z 0112/0212 30008KT CAVOK TX27/0114Z TN15/0206Z PROB30 TEMPO 0112/0115 30012G22KT BECMG 0114/0117 23010KT TEMPO 0115/0119 23012G22KT BECMG 0121/0123 33010KT", "TAF LERL 010800Z 0109/0209 28012KT 9999 SCT035 TX21/0115Z TN07/0206Z PROB40 TEMPO 0111/0121 28017G30KT BECMG 0200/0202 02007KT", "TAF LERS 010800Z 0109/0209 29012KT 9999 FEW050 TX23/0113Z TN08/0206Z PROB40 TEMPO 0109/0115 29015G30KT TEMPO 0119/0121 RA FEW030CB TEMPO 0114/0123 28015G30KT", "TAF LERT 010800Z 0109/0209 34009KT CAVOK TX23/0113Z TN13/0206Z BECMG 0111/0114 28013KT BECMG 0120/0123 35009KT", "TAF LESA 010800Z 0109/0209 27012KT 9999 SCT040 TX15/0115Z TN02/0206Z PROB30 TEMPO 0112/0119 27014G25KT BECMG 0121/0123 05007KT", "TAF LESO 011100Z 0112/0212 27009KT 9999 SCT020 BKN030 TX12/0112Z TN10/0206Z TEMPO 0112/0212 3000 RA BKN010 PROB40 TEMPO 0112/0212 3000 SHRA BKN010 SCT020TCU TEMPO 0112/0212 29017G33KT PROB30 TEMPO 0115/0120 29025G43KT 1500 TSRA SCT020CB", "TAF LEST 011100Z 0112/0212 28006KT 9999 SCT020 BKN035 TX13/0114Z TN09/0206Z BECMG 0112/0114 35010KT PROB30 TEMPO 0112/0115 BKN010 PROB30 TEMPO 0121/0208 VRB03KT 3000 BR BKN010 PROB30 TEMPO 0204/0208 0800 BCFG BKN002 TEMPO 0208/0212 05010KT", "TAF LESU 010800Z 0109/0209 30006KT 9999 FEW040 TX19/0114Z TN01/0206Z TEMPO 0115/0120 VRB15G33KT TS BKN060 FEW080CB", "TAF LETO 011100Z 0112/0212 29010KT 9999 SCT045 TX20/0116Z TN03/0207Z TEMPO 0112/0119 29017G32KT BECMG 0120/0122 VRB05KT TEMPO 0122/0207 02010KT BECMG 0207/0209 35010KT", "TAF LEVC 011100Z 0112/0212 12009KT CAVOK TX25/0112Z TN11/0206Z PROB40 TEMPO 0112/0115 13015G25KT BECMG 0115/0117 04006KT BECMG 0118/0120 04012KT TEMPO 0119/0123 04015G25KT", "TAF LEVD 010800Z 0109/0209 27012KT 9999 SCT040 TX15/0115Z TN02/0206Z PROB40 TEMPO 0112/0120 26015G25KT BECMG 0120/0121 01008KT", "TAF LEVS 011100Z 0112/0212 30010KT 9999 SCT040 TX18/0116Z TN05/0207Z TEMPO 0112/0120 30018G32KT BECMG 0122/0124 VRB05KT", "TAF LEVT 011100Z 0112/0212 34008KT 9999 SCT020 BKN040 TX13/0113Z TN05/0206Z TEMPO 0114/0120 32018G30KT PROB40 TEMPO 0112/0206 3000 RA BKN010", "TAF LEVX 011100Z 0112/0212 25008KT 9999 SCT020 TX14/0115Z TN03/0206Z PROB30 TEMPO 0112/0114 BKN010 PROB40 TEMPO 0114/0118 31010KT PROB30 TEMPO 0112/0118 3000 RADZ BKN010 TEMPO 0118/0212 36010KT", "TAF LEXJ 010800Z 0109/0209 27009KT 9999 FEW030 BKN045 TX14/0112Z TN09/0206Z PROB40 TEMPO 0109/0209 3000 RA BKN010 FEW025TCU TEMPO 0110/0204 30018G28KT PROB30 TEMPO 0112/0118 31025G38KT 3000 SHRA SCT020TCU", "TAF LEZG 011100Z 0112/0212 30014KT 9999 SCT025 TX22/0114Z TN08/0206Z TEMPO 0116/0123 34018G30KT PROB40 TEMPO 0116/0120 4000 SHRA FEW040TCU TEMPO 0207/0212 33016G30KT", "TAF LEZL 010800Z 0109/0209 36003KT CAVOK TX28/0115Z TN12/0206Z BECMG 0113/0116 31013KT BECMG 0121/0124 32003KT", "TAF LFAQ 010800Z 0109/0118 28017G27KT 9999 RA OVC008 OVC012CB", "TAF AMD LFAT 010959Z 0109/0118 31010KT 9999 BKN016 OVC020 TEMPO 0110/0118 4000 RA BKN011 OVC030TCU", "TAF LFBA 010800Z 0109/0118 27012KT 9999 SCT030TCU BKN040 TEMPO 0109/0118 29020G32KT 4000 SHRA SCT040CB PROB30 TEMPO 0115/0118 32025G40KT 3000 -TSRA BKN025 SCT040CB", "TAF LFBC 010800Z 0109/0209 28010KT 9999 FEW020 BKN030 TEMPO 0109/0121 28015G30KT 4000 SHRA SCT015 BKN025TCU PROB30 TEMPO 0113/0116 28020G40KT 2500 TSRA SCT015 BKN025CB PROB40 TEMPO 0121/0124 28015G25KT 4000 SHRA BKN015TCU TEMPO 0200/0209 28015G25KT 4000 SHRA BKN015TCU", "TAF AMD LFBD 011128Z 0112/0218 27015G25KT 9999 BKN030 TX15/0112Z TN09/0206Z TEMPO 0112/0118 28020G30KT 3000 SHRA BKN020TCU SCT025CB PROB40 TEMPO 0112/0114 TSRA BKN020CB PROB30 TEMPO 0112/0116 30025G40KT TSRA BKN015CB BECMG 0120/0122 28010KT TEMPO 0200/0206 -RA BKN012 BECMG 0206/0208 34010KT TEMPO 0210/0218 4000 -SHRA BKN025TCU", "TAF LFBE 011100Z 0112/0212 26015G25KT 9999 BKN030 TEMPO 0112/0118 26020G30KT 3000 SHRA BKN020TCU PROB30 TEMPO 0112/0116 29020G40KT TSRA BKN015CB BECMG 0122/0124 30008KT TEMPO 0202/0208 4000 -RA BKN005 TEMPO 0210/0212 4000 SHRA BKN030TCU", "TAF AMD LFBG 010530Z 0105/0203 25015G27KT 9999 BKN025 TEMPO 0105/0120 3000 SHRA BKN020CB PROB40 TEMPO 0111/0120 25020G40KT 2000 TSRA BKN012 BKN020CB", "TAF LFBH 010500Z 0106/0206 26017KT 9999 BKN020 TEMPO 0106/0118 27018G36KT 4000 SHRA SCT012 BKN018CB PROB40 TEMPO 0110/0118 TSRA BECMG 0121/0124 32010KT TEMPO 0200/0206 -RA BKN008 BKN030", "TAF LFBI 010500Z 0106/0206 26010KT 9999 BKN020 TEMPO 0106/0118 26016G32KT 4000 SHRA BKN018CB PROB40 TEMPO 0112/0118 TSRA BECMG 0200/0202 32007KT TEMPO 0200/0206 3000 -RA BKN006 BKN025", "TAF LFBL 011100Z 0112/0212 26015KT 9999 BKN015 TEMPO 0112/0118 26020G30KT 3000 SHRA BKN015TCU PROB30 TEMPO 0112/0116 29020G40KT TSRA BKN008 BKN015CB BECMG 0120/0122 30010KT BKN010 TEMPO 0200/0210 3000 -RA BKN002", "TAF LFBM 010800Z 0109/0209 26010KT 9999 BKN025 TEMPO 0109/0120 25015G25KT 4000 -SHRA BKN020TCU PROB30 TEMPO 0109/0120 2000 TSRA BKN020CB BECMG 0120/0122 4000 SHRA BKN010 OVC015", "TAF LFBO 010500Z 0106/0212 26012KT CAVOK BECMG 0107/0109 SCT025TCU BKN050 TEMPO 0108/0120 28017G27KT 4000 SHRA SCT025CB PROB30 TEMPO 0111/0118 30020G38KT 2000 -TSRA BKN025CB BECMG 0120/0122 BKN040 PROB40 TEMPO 0120/0212 -SHRA PROB30 TEMPO 0208/0211 BKN013", "TAF LFBP 010500Z 0106/0206 25010KT 9999 BKN030 TEMPO 0106/0122 28015G30KT 4000 SHRA SCT020TCU PROB30 TEMPO 0109/0122 28020G38KT 3000 -TSRA SCT020CB TEMPO 0122/0206 4000 RA BKN013", "TAF LFBT 010500Z 0106/0206 26012KT 9999 BKN040 TEMPO 0106/0122 28015G27KT 4000 SHRA SCT018TCU PROB30 TEMPO 0110/0122 29020G35KT 3000 -TSRA SCT015CB TEMPO 0122/0206 4000 RA BKN013", "TAF LFBU 011100Z 0112/0212 27015G25KT 9999 BKN030 TEMPO 0112/0119 27020G30KT 3000 SHRA BKN020TCU PROB30 TEMPO 0112/0117 27020G40KT TSRA BKN010 BKN015CB BECMG 0122/0124 30007KT PROB40 TEMPO 0200/0209 4000 -RA BKN005", "TAF LFBZ 010500Z 0106/0206 28010KT 9999 BKN030 TEMPO 0110/0124 28020G30KT 3000 SHRA BKN020TCU PROB30 TEMPO 0110/0115 30020G40KT 1200 TSRA BKN010 BKN015CB PROB30 TEMPO 0120/0123 30020G40KT 1500 TSRA BKN020CB BECMG 0200/0202 32020G30KT TEMPO 0202/0206 4000 -SHRA BKN020TCU", "TAF LFCK 010800Z 0109/0118 28018G28KT 9999 SCT025TCU BKN040 TEMPO 0109/0118 28025G40KT 3000 SHRA SCT018CB BKN030 PROB30 TEMPO 0115/0118 -TSRA BKN025 SCT040CB", "TAF AMD LFCR 010906Z 0109/0206 27013KT 9999 SCT015 SCT025TCU TEMPO 0109/0118 28017G30KT 4000 SHRA BKN013 SCT020CB PROB30 TEMPO 0113/0118 30020G45KT 1200 TSRA BKN012CB BECMG 0118/0120 BKN012 PROB40 TEMPO 0120/0124 -RA BKN005", "TAF LFGJ 011100Z 0112/0121 24015KT 9999 SCT030 BKN050 TEMPO 0112/0118 25015G25KT 4000 SHRA SCT030TCU PROB40 TEMPO 0112/0118 30020G35KT 2500 TSRA BKN013 SCT025CB TEMPO 0118/0121 -SHRA FEW040TCU", "TAF LFJL 011100Z 0112/0212 26015KT 9999 BKN020 TEMPO 0112/0117 27018G30KT 4000 SHRA BKN013 FEW025TCU PROB30 TEMPO 0113/0116 2500 TSRA BKN013 FEW025CB BECMG 0120/0122 25005KT TEMPO 0122/0210 -RA BKN013 PROB40 TEMPO 0205/0210 BKN008 BECMG 0210/0212 09006KT", "TAF AMD LFKB 011055Z 0110/0209 32015KT CAVOK TX21/0112Z TN09/0203Z TEMPO 0110/0112 31020G30KT BECMG 0112/0114 14010KT BECMG 0119/0121 24008KT BECMG 0205/0206 02015G25KT FEW030CB BKN035 TEMPO 0206/0209 3000 SHRA SCT015CB BKN025 PROB30 TEMPO 0206/0209 2000 TSRA", "TAF LFKC 010800Z 0109/0209 21015G28KT 9999 FEW040 TX18/0112Z TN09/0203Z BECMG 0122/0124 20010KT TEMPO 0208/0209 02015G25KT SHRA FEW030CB", "TAF LFKF 010800Z 0109/0209 28020G35KT 9999 FEW025 TEMPO 0109/0202 28025G40KT BECMG 0202/0204 27015G25KT TEMPO 0205/0208 VRB05KT SHRA FEW030TCU", "TAF LFKJ 010800Z 0109/0209 29012KT 9999 SCT035 BKN220 TEMPO 0118/0203 BKN030 FEW040CB BKN160 TEMPO 0205/0208 SHRA FEW025TCU BKN030", "TAF LFLB 010800Z 0109/0209 18010KT 9999 BKN045 TEMPO 0109/0111 VRB10KT 4000 -SHRA SCT035TCU BKN040 TEMPO 0111/0120 3500 SHRA SCT035CB BKN040 PROB40 TEMPO 0111/0118 VRB15G30KT 2000 TSRAGS BKN035CB TEMPO 0120/0209 -RA BKN012 BECMG 0123/0201 VRB03KT", "TAF LFLC 010500Z 0106/0206 19005KT 9999 BKN030 BECMG 0106/0109 26010KT TEMPO 0110/0118 27015G25KT SHRA FEW033CB SCT035TCU BKN040 PROB30 TEMPO 0111/0117 3000 TSRAGS BECMG 0118/0121 32010KT PROB30 TEMPO 0203/0206 -RA BKN014", "TAF LFLL 011100Z 0112/0218 22007KT 9999 BKN040 TEMPO 0112/0119 VRB15KT 4000 SHRA SCT035TCU PROB40 TEMPO 0112/0118 VRB15G30KT 2000 TSRAGS SCT030CB BKN035TCU FM011900 VRB03KT 9999 BKN025 PROB40 TEMPO 0119/0122 -SHRA FEW020TCU PROB40 TEMPO 0200/0208 4000 -RA BKN014 BECMG 0208/0210 35008KT PROB40 TEMPO 0208/0218 -SHRA BKN014 FEW020TCU ", "TAF LFLN 011100Z 0112/0121 28012KT 9999 SCT025 BKN060 TEMPO 0112/0118 28015G25KT 4000 SHRA SCT025TCU PROB40 TEMPO 0112/0118 30020G35KT 2000 TSRA BKN013 SCT020CB TEMPO 0118/0121 -SHRA BKN013 FEW020TCU", "TAF LFLP 010800Z 0109/0209 20008KT 9999 BKN035 TEMPO 0109/0111 4000 -SHRA SCT025TCU BKN030 TEMPO 0111/0120 3500 SHRA SCT025CB BKN030 PROB40 TEMPO 0111/0118 VRB15G30KT 2000 TSRAGS BKN025CB TEMPO 0120/0209 VRB02KT -RA BKN009 OVC030", "TAF AMD LFLS 011036Z 0110/0209 VRB03KT 9999 BKN050 TEMPO 0110/0119 27010KT 4000 SHRA FEW028CB SCT030TCU BKN040 PROB40 TEMPO 0112/0119 27015G25KT 1500 TSRAGS BKN020CB PROB40 TEMPO 0119/0124 -RA BKN014 TEMPO 0200/0209 36010KT 4000 -RA BKN012", "TAF AMD LFLW 011058Z 0110/0118 27012KT 9999 BKN020 TEMPO 0111/0118 27020G30KT 3500 SHRA FEW013CB BKN014TCU PROB30 TEMPO 0111/0116 1800 TSRAGS BKN012CB", "TAF LFLX 011100Z 0112/0218 26013KT 9999 BKN025 PROB40 TEMPO 0112/0118 4000 SHRA SCT020TCU PROB40 TEMPO 0112/0116 24017G30KT 2500 -TSRA SCT030CB BECMG 0123/0201 SCT012 BKN020 PROB30 TEMPO 0200/0207 BKN009 BECMG 0207/0210 32010KT PROB40 TEMPO 0210/0218 -RA BKN012", "TAF LFLY 011100Z 0112/0212 22007KT 9999 BKN040 TEMPO 0112/0119 VRB15KT 4000 SHRA SCT035TCU PROB40 TEMPO 0112/0118 VRB15G30KT 2000 TSRAGS SCT030CB BKN035TCU FM011900 VRB03KT 9999 BKN025 PROB40 TEMPO 0119/0122 -SHRA FEW020TCU PROB40 TEMPO 0200/0208 4000 -RA BKN014 BECMG 0208/0210 35008KT PROB40 TEMPO 0208/0212 -SHRA BKN014 FEW020TCU ", "TAF LFMD 010800Z 0109/0209 29013KT CAVOK PROB40 TEMPO 0111/0120 28020G30KT BECMG 0122/0124 04008KT PROB40 TEMPO 0123/0208 SHRA SCT040CB", "TAF LFMI 010800Z 0109/0209 29017KT CAVOK TX19/0114Z TN09/0203Z TEMPO 0113/0120 29020G30KT BECMG 0204/0206 30025G35KT", "TAF LFMK 010800Z 0109/0209 28020G30KT 9999 SCT040 TEMPO 0111/0121 3000 SHRA SCT018CB BKN035 PROB30 TEMPO 0116/0119 28025G40KT PROB40 TEMPO 0121/0203 4000 -RA BKN030", "TAF LFML 010800Z 0109/0215 31017G27KT CAVOK TX18/0114Z TN10/0204Z BECMG 0204/0206 32025G35KT", "TAF LFMN 010800Z 0109/0215 28012KT CAVOK TEMPO 0110/0120 09010KT BECMG 0120/0123 04010KT PROB30 TEMPO 0123/0208 SHRA SCT045CB BECMG 0200/0202 34010KT BECMG 0208/0210 18008KT", "TAF LFMO 010800Z 0109/0209 25015G25KT CAVOK TX19/0114Z TN09/0203Z PROB40 TEMPO 0114/0118 28025G40KT 4000 SHRA SCT055TCU BKN070 BECMG 0205/0207 33025G40KT", "TAF LFMP 010800Z 0109/0209 30015G25KT CAVOK TEMPO 0114/0209 31030G45KT TEMPO 0114/0204 SHRA FEW045CB BKN100 BKN150", "TAF LFMT 010800Z 0109/0209 29015G25KT CAVOK TEMPO 0114/0119 27020G38KT FEW045CB BKN100 BECMG 0119/0121 30010KT", "TAF LFMU 010800Z 0109/0209 28015G25KT 9999 BKN045 TEMPO 0113/0119 27020G38KT FEW045CB BKN100 BECMG 0119/0121 30010KT", "TAF LFMV 010800Z 0109/0209 28010KT CAVOK TEMPO 0113/0120 30015G25KT BECMG 0120/0122 34012KT BECMG 0207/0209 34025G35KT", "TAF LFOA 010800Z 0109/0209 25015G25KT 9999 SCT013 BKN020 TX14/0114Z TN08/0200Z TEMPO 0109/0120 4000 SHRA BKN020TCU PROB30 TEMPO 0110/0118 28020G40KT 2000 TSRA SCT010 BKN020CB BECMG 0120/0122 26010KT BKN007 TEMPO 0123/0209 4000 RADZ", "TAF AMD LFOB 010945Z 0109/0206 27015G25KT 9999 BKN016 TEMPO 0109/0116 4000 SHRA BKN009 BKN012CB OVC020 BECMG 0116/0118 33010KT TEMPO 0118/0201 4000 RA BKN009 BKN012 OVC020", "TAF LFOE 010800Z 0109/0209 28015G25KT 9999 BKN025 OVC039 TEMPO 0109/0118 4000 -SHRA BKN025 BKN030CB BECMG 0116/0118 30012KT BECMG 0119/0121 BKN015 TEMPO 0119/0205 4500 -RA BKN008 OVC015 TEMPO 0205/0209 30010G20KT BKN008", "TAF LFOH 010500Z 0106/0206 26017G27KT 9999 OVC016 TEMPO 0106/0115 4000 SHRA BKN014 OVC030CB BECMG 0115/0118 32010KT BECMG 0203/0205 BKN008 OVC020", "TAF LFOJ 010800Z 0109/0209 27018KT 9999 BKN025 TX13/0115Z TN07/0206Z TEMPO 0109/0122 29018G28KT 4000 -SHRA SCT025TCU BKN035 PROB30 TEMPO 0112/0118 2000 TSRAGS BKN025CB TEMPO 0122/0209 4000 -RA BKN012 BECMG 0202/0204 33012KT", "TAF LFOK 010500Z 0106/0206 25022G35KT 9999 BKN016 TEMPO 0106/0112 4000 RA BKN009 BKN012 OVC020 BECMG 0110/0112 26015G25KT TEMPO 0112/0124 4000 SHRA BKN012TCU OVC020 BECMG 0116/0118 28012KT", "TAF AMD LFOP 010925Z 0109/0118 27015G25KT 9999 OVC016 TEMPO 0109/0118 4000 RA BKN009 OVC020CB", "TAF LFOT 011100Z 0112/0212 27013KT 9999 BKN025 PROB40 TEMPO 0112/0118 4000 SHRA SCT020TCU PROB40 TEMPO 0112/0115 25015G30KT 2500 -TSRA SCT030CB BECMG 0122/0124 SCT012 BKN020 PROB30 TEMPO 0123/0205 BKN009 BECMG 0206/0209 33010KT PROB40 TEMPO 0209/0212 -RA BKN012", "TAF LFPB 011100Z 0112/0212 26015G25KT 9999 BKN033 PROB30 TEMPO 0117/0119 4000 -SHRA FEW013TCU BKN025 BECMG 0120/0122 33012KT BKN008 TEMPO 0122/0201 3000 -RA PROB30 TEMPO 0207/0212 BKN004 BECMG 0210/0212 36015G25KT BKN020", "TAF LFPG 011100Z 0112/0218 26015G25KT 9999 BKN033 TX12/0114Z TN07/0206Z PROB30 TEMPO 0117/0119 4000 -SHRA FEW013TCU BKN025 BECMG 0120/0122 33012KT BKN008 TEMPO 0122/0201 3000 -RA PROB30 TEMPO 0207/0212 BKN004 BECMG 0210/0212 36015G25KT BKN020", "TAF LFPN 011100Z 0112/0121 24013KT 9999 BKN025 PROB40 TEMPO 0112/0116 27015G27KT 4000 SHRA BKN020TCU PROB30 TEMPO 0112/0114 2500 TSRA SCT025CB PROB30 TEMPO 0116/0121 30012KT -SHRA SCT012 BKN020TCU", "TAF LFPO 011100Z 0112/0218 28012G25KT 9999 BKN030 PROB40 TEMPO 0112/0118 4000 SHRA BKN015TCU PROB30 TEMPO 0113/0115 2500 TSRA SCT025CB BECMG 0118/0121 BKN012 PROB40 TEMPO 0118/0121 4000 -RA PROB30 TEMPO 0121/0210 -RA BKN008", "TAF LFPV 010800Z 0109/0209 26015KT 9999 OVC040 TX13/0113Z TN06/0109Z TEMPO 0109/0124 27020G30KT 4500 SHRA BKN020TCU PROB40 TEMPO 0112/0115 2000 TSRA BKN020CB BECMG 0200/0202 BKN005 OVC014", "TAF LFQQ 010500Z 0106/0212 27015KT 9999 BKN013 OVC020 TEMPO 0106/0207 4000 RA OVC009 BKN020TCU BECMG 0121/0123 35012KT", "TAF LFRB 011100Z 0112/0218 30010KT 9999 BKN030 TEMPO 0112/0114 30015G30KT PROB40 TEMPO 0112/0121 3000 SHRA BKN012 BKN020CB BECMG 0114/0116 32015G30KT TEMPO 0118/0210 BKN012 PROB40 TEMPO 0118/0208 BKN008 BECMG 0122/0124 32010KT BECMG 0208/0210 02010KT", "TAF LFRC 011100Z 0112/0121 29015G25KT 9999 BKN030 PROB40 TEMPO 0112/0121 3000 SHRA BKN012 BKN020CB BECMG 0116/0118 32010KT TEMPO 0116/0121 BKN008", "TAF LFRD 011100Z 0112/0212 30010KT 9999 BKN030 TEMPO 0112/0120 30015G30KT 3000 SHRA BKN020CB TEMPO 0118/0208 BKN008 PROB30 TEMPO 0120/0210 4000 SHRA BKN020TCU BECMG 0206/0208 36010KT TEMPO 0208/0212 BKN012", "TAF LFRG 011100Z 0112/0121 27015G30KT 9999 BKN030 PROB40 TEMPO 0112/0121 3000 SHRA BKN012 BKN020CB BECMG 0116/0118 31010KT TEMPO 0116/0121 BKN008", "TAF LFRH 010500Z 0106/0206 28010KT 9999 SCT019 BKN025 TEMPO 0106/0118 28010G25KT 4000 SHRA BKN019CB PROB40 TEMPO 0109/0115 VRB15G35KT 3000 TSRA BKN019CB TEMPO 0118/0120 SHRA SCT014 BKN016CB BECMG 0118/0120 33010KT PROB40 0120/0121 32015G25KT", "TAF AMD LFRI 010828Z 0108/0206 26013KT 9999 BKN020 TEMPO 0108/0121 SHRA BKN012 BKN018CB PROB40 TEMPO 0112/0118 27018G32KT 3000 TSRA BKN016CB BECMG 0121/0124 34010KT TEMPO 0200/0206 -SHRA BKN010 BKN030TCU", "TAF AMD LFRJ 010830Z 0109/0118 29012KT 9999 BKN020 BKN040 TEMPO 0109/0118 29015G25KT 4000 SHRA BKN010CB PROB30 TEMPO 0109/0115 2000 TSRA", "TAF LFRK 011100Z 0112/0121 28015G30KT 9999 BKN030 PROB40 TEMPO 0112/0121 3000 SHRA BKN012 BKN020CB BECMG 0116/0118 32010KT TEMPO 0116/0121 BKN008", "TAF LFRM 010500Z 0106/0206 25010KT 9999 BKN020 TEMPO 0106/0120 26016G30KT 4000 SHRA BKN018CB PROB40 TEMPO 0112/0118 TSRA BECMG 0122/0124 34008KT TEMPO 0203/0206 -RA BKN013 BKN020", "TAF LFRN 011100Z 0112/0212 30010KT 9999 BKN030 TEMPO 0112/0120 4000 SHRA BKN020CB PROB40 TEMPO 0112/0116 30015G30KT 2000 TSRA TEMPO 0118/0208 BKN008 PROB30 TEMPO 0120/0210 4000 SHRA BKN020TCU BECMG 0208/0210 36010KT TEMPO 0208/0212 BKN012", "TAF LFRQ 011100Z 0112/0212 30010KT 9999 BKN030 TEMPO 0112/0116 30015G30KT PROB40 TEMPO 0112/0121 3000 SHRA BKN012 BKN020CB BECMG 0116/0118 32015G30KT TEMPO 0118/0210 BKN012 PROB40 TEMPO 0118/0208 BKN008 BECMG 0122/0124 32010KT BECMG 0210/0212 02010KT", "TAF AMD LFRS 010844Z 0108/0212 26015KT 9999 BKN020 TEMPO 0108/0124 SHRA SCT013 BKN018CB PROB40 TEMPO 0111/0118 27020G32KT 3000 TSRA BKN016CB BECMG 0122/0124 33010KT TEMPO 0200/0212 -SHRA BKN010 BKN030TCU", "TAF LFRZ 010500Z 0106/0206 27015KT 9999 BKN020 TEMPO 0106/0124 SHRA SCT013 BKN018CB PROB40 TEMPO 0110/0118 27020G35KT 3000 TSRA BECMG 0121/0124 33010KT TEMPO 0200/0206 -SHRA BKN010 BKN030TCU", "TAF LFSB 010500Z 0106/0206 24012KT 9999 FEW030 BKN050 TEMPO 0106/0121 4000 SHRA SCT030CB PROB40 TEMPO 0106/0114 24015G30KT PROB40 TEMPO 0112/0118 2000 TSRA PROB40 TEMPO 0121/0124 -SHRA FEW030CB BECMG 0200/0203 21005KT PROB40 TEMPO 0200/0206 -RA PROB30 TEMPO 0203/0206 BKN012", "TAF LFSI 311400Z 3115/0115 23015G30KT 9999 BKN035TCU TEMPO 3115/3121 23025G40KT 2000 TSRA BKN020 BKN035CB TEMPO 0110/0115 4000 SHRA BKN015 BKN025CB", "TAF LFSL 011100Z 0112/0121 26015KT 9999 BKN025 TEMPO 0112/0118 27020G30KT 3000 SHRA BKN020TCU PROB30 TEMPO 0112/0117 TSRA BKN010 BKN015CB", "TAF LFSO 311400Z 3115/0115 24020KT 9999 SCT025 BKN045 TEMPO 3115/3124 24025G35KT 4000 -SHRA BKN020CB BKN030 PROB30 TEMPO 3115/3124 1500 -TSRA TEMPO 3118/3120 26030G45KT TEMPO 0100/0113 25020G35KT 4000 -RA BKN014 OVC020", "TAF LFST 011100Z 0112/0212 24012KT 9999 FEW030 BKN060 TEMPO 0112/0118 25015G28KT -SHRA FEW030TCU BECMG 0122/0124 18006KT PROB30 TEMPO 0206/0209 -RA BKN008 BECMG 0210/0212 FEW030TCU", "TAF LFSX 010800Z 0109/0209 24015G25KT 9999 BKN025 TEMPO 0109/0121 4000 SHRA BKN015TCU PROB40 TEMPO 0112/0121 2000 TSRA BKN015CB BECMG 0121/0122 24008KT 4000 SHRA OVC007", "TAF LFTH 010800Z 0109/0209 28020G30KT CAVOK PROB30 TEMPO 0109/0117 29025G35KT PROB40 TEMPO 0117/0203 31010KT PROB40 TEMPO 0201/0205 -SHRA SCT030TCU BECMG 0207/0209 08012KT", "TAF LFTW 010800Z 0109/0209 28012KT CAVOK TEMPO 0115/0121 32020G30KT", "TAF LFVP 011100Z 0112/0121 26010KT CAVOK BECMG 0116/0118 20012KT BECMG 0118/0120 BKN015", "TAF LGAD 011100Z 0112/0121 18014KT 9999 FEW012 SCT025", "TAF LGAL 011100Z 0112/0121 19015KT 9999 FEW025", "TAF LGAV 011100Z 0112/0212 22014KT 9999 FEW025 TEMPO 0206/0212 VRB05KT TEMPO 0122/0212 BKN070", "TAF LGBL 011100Z 0112/0121 27012KT 9999 FEW025 SCT080 TEMPO 0112/0118 27017G27KT", "TAF LGEL 011100Z 0112/0212 26010KT 9999 FEW025 TEMPO 0206/0212 VRB05KT TEMPO 0122/0212 BKN070", "TAF LGHI 011100Z 0112/0121 19015KT 9999 FEW018 SCT025 TEMPO 0112/0120 19016G26KT", "TAF LGIO 011100Z 0112/0121 VRB03KT 9999 SCT025 BKN080 PROB40 TEMPO 0112/0118 5000 SHRA FEW018TCU BKN020 OVC070 PROB30 TEMPO 0112/0115 3000 TSRA FEW018CB BKN020 OVC070", "TAF LGIR 011100Z 0112/0212 15010KT 9999 FEW020 BECMG 0200/0202 FEW018 BKN070", "TAF LGKC 011100Z 0112/0121 24015KT TEMPO 0112/0118 24016G29KT 9999 FEW008 SCT012", "TAF LGKF 011100Z 0112/0121 16012KT 9999 FEW018 BECMG 0112/0114 27010KT", "TAF LGKL 011100Z 0112/0121 16012KT 9999 SCT025 BECMG 0116/0118 34006KT", "TAF LGKO 011100Z 0112/0212 17016KT 9999 FEW018", "TAF LGKP 011100Z 0112/0121 20018G28KT 9999 SCT018", "TAF LGKR 011100Z 0112/0212 26008KT 9999 SCT015 SCT025 BKN080 BECMG 0116/0118 VRB05KT PROB30 TEMPO 0112/0115 5000 RA SCT012 FEW018TCU BKN025", "TAF LGKV 011100Z 0112/0212 20013KT 9999 SCT025 BKN080 PROB40 TEMPO 0112/0118 5000 RA PROB30 TEMPO 0113/0117 3000 TSRA FEW008 FEW018CB SCT020 BKN070 BECMG 0118/0120 VRB03KT FEW025 SCT080 PROB30 TEMPO 0210/0212 5000 SHRA FEW018TCU SCT020 BKN070", "TAF LGLM 011100Z 0112/0121 18018KT 9999 FEW020 TEMPO 0112/0119 18022G32KT BECMG 0119/0121 26016KT", "TAF LGLR 011100Z 0112/0121 25012KT 9999 FEW025 SCT080 TEMPO 0112/0117 25017G27KT", "TAF LGMK 011100Z 0112/0121 21022KT 9999 FEW020 TEMPO 0112/0121 21023G33KT", "TAF LGMT 011100Z 0112/0121 20018KT 9999 SCT025 TEMPO 0112/0120 20020G30KT", "TAF LGPZ 011100Z 0112/0212 24014KT 9999 SCT018 BKN025 BKN080 TEMPO 0112/0115 24012G22KT BECMG 0121/0123 VRB05KT PROB30 TEMPO 0112/0115 5000 RA SCT015 FEW018TCU BKN020 PROB40 TEMPO 0205/0212 5000 RA SCT015 FEW018TCU BKN025", "TAF LGRP 011100Z 0112/0212 14010KT 9999 FEW018 SCT025", "TAF LGRX 011100Z 0112/0121 19014KT 9999 FEW012 SCT025", "TAF LGSA 011100Z 0112/0212 27013KT 9999 FEW018 TEMPO 0112/0118 25012G22KT BECMG 0123/0201 VRB05KT FEW018 BKN080", "TAF LGSK 011100Z 0112/0121 18010KT 9999 FEW020 BECMG 0118/0120 27016KT", "TAF LGSM 011100Z 0112/0121 19015KT 9999 FEW018 SCT025 TEMPO 0112/0121 19015G25KT", "TAF LGSR 011100Z 0112/0212 22018KT 9999 FEW020 TEMPO 0112/0122 24018G28KT BECMG 0208/0210 15010KT", "TAF LGST 011100Z 0112/0121 18012KT 9999 FEW025 TEMPO 0112/0117 21014G25KT TEMPO 0117/0121 BKN080", "TAF LGSY 011100Z 0112/0121 19016KT 9999 FEW020 TEMPO 0112/0118 19017G27KT BECMG 0118/0120 26017KT", "TAF LGTG 011100Z 0112/0121 25012KT 9999 FEW025 SCT070 TEMPO 0112/0120 25017G27KT", "TAF LGTL 011100Z 0112/0121 18014KT 9999 SCT020 TEMPO 0112/0121 18014G24KT", "TAF LGTS 011100Z 0112/0212 14013KT 9999 SCT025 PROB40 TEMPO 0112/0117 5000 RA PROB30 TEMPO 0113/0116 4000 TSRA FEW010 FEW018CB BKN020 BECMG 0116/0118 31013KT BECMG 0200/0202 VRB03KT", "TAF LGZA 011100Z 0112/0121 19012KT 9999 FEW018 BECMG 0112/0114 25010KT", "TAF LHBP 011115Z 0112/0212 31013KT 9999 BKN037 BKN055 TEMPO 0112/0118 -SHRA BECMG 0115/0118 28008KT CAVOK BECMG 0207/0211 32009KT SCT035 BKN055 TEMPO 0211/0212 VRB15G25KT 4000 TSRA SCT020CB OVC050", "TAF LHDC 011115Z 0112/0121 26009KT 9999 SCT030 BKN100 PROB40 TEMPO 0112/0118 VRB15G25KT 4000 TSRA SHRA BKN030CB OVC070 BECMG 0118/0121 30008KT CAVOK", "TAF LHKE 011115Z 0112/0121 30011KT CAVOK TEMPO 0112/0116 31014G25KT 9999 SCT035 BKN100 BECMG 0117/0120 28006KT", "TAF LHPA 011115Z 0112/0212 31012KT CAVOK TEMPO 0112/0117 31015G25KT 6000 SHRA SCT030TCU BKN035 BKN200 BECMG 0117/0120 30008KT BECMG 0122/0201 9999 BKN040 BKN080 TEMPO 0122/0206 VRB03KT TEMPO 0209/0212 32010G20KT 8000 SHRA BKN025TCU OVC040", "TAF LHPP 011115Z 0112/0121 27012KT 9999 SCT008 BKN070 PROB40 TEMPO 0112/0118 VRB15G25KT 4000 TSRAGS SHRA BKN008 SCT020CB BKN050 BECMG 0118/0121 30007KT", "TAF LHPR 011115Z 0112/0121 31015G25KT 9999 BKN045 PROB40 TEMPO 0112/0118 6000 SHRA BKN030TCU BKN100 BECMG 0115/0118 30008KT", "TAF LHSM 011115Z 0112/0121 29008KT 9999 SCT035 BKN075 PROB40 TEMPO 0112/0118 VRB15G25KT 4000 TSRA SHRA BKN040CB BKN080 BECMG 0118/0121 VRB03KT CAVOK", "TAF LHSN 011115Z 0112/0121 30012KT 9999 SCT033 SCT083 BKN200 TEMPO 0112/0116 30014G24KT BECMG 0117/0120 28007KT CAVOK", "TAF LIBA 011100Z 0112/0121 30015KT 9999 SCT030 SCT060 TEMPO 0112/0115 31015G25KT", "TAF LIBC 011100Z 0112/0212 23020G35KT CAVOK BECMG 0116/0118 23013KT", "TAF LIBD 011100Z 0112/0212 30012KT 9999 FEW040 BECMG 0112/0114 02010KT BECMG 0116/0118 25007KT BECMG 0209/0211 01010KT", "TAF LIBF 011100Z 0112/0212 31011KT 9999 FEW040 BECMG 0115/0117 24008KT", "TAF LIBG 011100Z 0112/0121 26012KT 9999 FEW040 BECMG 0115/0117 VRB05KT", "TAF LIBP 011100Z 0112/0212 07012KT 9999 FEW040 PROB40 TEMPO 0113/0117 SHRA BECMG 0116/0118 23007KT BECMG 0209/0211 07010KT", "TAF LIBR 011100Z 0112/0212 02010KT 9999 FEW040 BECMG 0115/0117 VRB05KT BECMG 0208/0210 04010KT", "TAF LIBV 011100Z 0112/0121 27015KT 9999 SCT025 SCT040 TEMPO 0112/0115 27018G28KT", "TAF LICA 011100Z 0112/0212 27018KT 9999 FEW030 TEMPO 0112/0116 27018G28KT BECMG 0118/0120 27008KT", "TAF LICB 011100Z 0112/0212 26012KT CAVOK BECMG 0116/0118 VRB05KT BECMG 0209/0211 26010KT", "TAF LICC 011100Z 0112/0212 26015KT 9999 SCT100 BECMG 0115/0117 10010KT BECMG 0117/0119 26008KT BECMG 0209/0211 09012KT", "TAF LICD 011100Z 0112/0212 35010KT 9999 FEW015", "TAF LICG 011100Z 0112/0121 32013KT 9999 FEW010", "TAF LICJ 011100Z 0112/0212 25013KT 9999 FEW070", "TAF LICR 011100Z 0112/0212 34017KT 9999 FEW080 TEMPO 0112/0117 34017G27KT BECMG 0200/0202 01007KT", "TAF LICT 011100Z 0112/0121 26008KT 9999 FEW020 SCT050 TEMPO 0114/0117 36011KT FEW020 SCT050 BECMG 0118/0120 VRB05KT", "TAF LICZ 011100Z 0112/0212 29015KT 9999 SCT100 BECMG 0114/0116 26008KT BKN080 BECMG 0122/0124 VRB05KT", "TAF LIEA 011100Z 0112/0212 29014KT 9999 FEW030 TEMPO 0206/0212 SHRA", "TAF LIED 010800Z 0109/0118 30015KT FEW025 TEMPO 0112/0118 30015G27KT", "TAF LIEE 011100Z 0112/0212 34016KT 9999 FEW040 BECMG 0118/0120 32006KT TEMPO 0203/0212 4000 SHRA BECMG 0203/0205 32016KT", "TAF LIEO 011100Z 0112/0212 28015G30KT 9999 FEW050 BECMG 0122/0124 26008KT BECMG 0206/0208 27018KT", "TAF LIMC 011100Z 0112/0218 35007KT CAVOK", "TAF LIME 011100Z 0112/0212 34008KT CAVOK", "TAF LIMF 011100Z 0112/0212 31010KT CAVOK TEMPO 0112/0118 31015G25KT BECMG 0118/0120 VRB05KT", "TAF LIMG 011100Z 0112/0212 06008KT 9999 SCT020", "TAF LIMJ 011100Z 0112/0212 17010KT 9999 SCT020 BECMG 0116/0118 VRB05KT BECMG 0208/0210 01010KT", "TAF LIML 011100Z 0112/0212 24010KT CAVOK BECMG 0115/0117 36007KT PROB30 TEMPO 0202/0206 2000 BCFG", "TAF LIMP 011100Z 0112/0212 30012KT CAVOK BECMG 0116/0118 VRB05KT TEMPO 0202/0206 2000 BCFG TEMPO 0206/0212 03013KT 4000 TSRA", "TAF LIMW 011100Z 0112/0121 26016KT 9999 BKN060 TEMPO 0112/0120 26018G28KT 4000 SHRA", "TAF LIMZ 011100Z 0112/0212 30013KT CAVOK BECMG 0116/0118 VRB05KT BECMG 0208/0210 08010KT", "TAF LIPA 011100Z 0112/0121 VRB03KT 9999 FEW030 SCT070 TEMPO 0118/0121 SCT020TCU BKN030", "TAF LIPB 011100Z 0112/0212 VRB05KT 9999 FEW040", "TAF LIPC 011100Z 0112/0121 07008KT CAVOK TEMPO 0112/0115 9999 SCT040", "TAF LIPE 011100Z 0112/0212 30010KT CAVOK BECMG 0116/0118 20007KT TEMPO 0205/0212 4000 SHRA", "TAF LIPH 011100Z 0112/0212 VRB05KT 9999 FEW050 PROB40 TEMPO 0113/0117 TSRA BECMG 0118/0120 05010KT TEMPO 0121/0205 SHRA", "TAF LIPK 011100Z 0112/0212 30010KT 9999 FEW040 BECMG 0114/0116 24008KT", "TAF LIPL 011100Z 0112/0121 29008KT CAVOK", "TAF LIPO 011100Z 0112/0212 28013KT CAVOK BECMG 0118/0120 03008KT TEMPO 0200/0212 4000 TSRA", "TAF LIPQ 011100Z 0112/0212 19010KT 9999 FEW050 BECMG 0115/0117 VRB05KT PROB40 TEMPO 0116/0120 SHRA", "TAF LIPR 011100Z 0112/0212 07010KT 9999 SCT050 TEMPO 0112/0116 TSRA BECMG 0114/0116 20007KT TEMPO 0204/0210 TSRA BECMG 0208/0210 34010KT", "TAF LIPS 011100Z 0112/0121 18005KT 9999 SCT025 BKN090 TEMPO 0118/0121 SCT020TCU BKN030", "TAF LIPX 011100Z 0112/0212 26007KT CAVOK BECMG 0118/0120 03010KT TEMPO 0200/0212 4000 TSRA", "TAF LIPY 011100Z 0112/0212 03010KT 9999 SCT040 TEMPO 0112/0118 TSRA BECMG 0116/0118 20007KT BECMG 0209/0211 02010KT", "TAF LIPZ 011100Z 0112/0218 15010KT 9999 FEW050 BECMG 0118/0120 04010KT TEMPO 0121/0205 SHRA", "TAF LIRA 011100Z 0112/0212 27013KT 9999 FEW030 BECMG 0116/0118 VRB04KT BECMG 0210/0212 24010KT", "TAF LIRE 011100Z 0112/0121 29012KT 9999 FEW020 BECMG 0115/0117 26005KT", "TAF LIRF 011100Z 0112/0218 25013KT CAVOK BECMG 0117/0119 VRB05KT BECMG 0206/0208 16010KT BECMG 0210/0212 26010KT BECMG 0216/0218 02012KT TEMPO 0216/0218 TSRA", "TAF LIRM 011100Z 0112/0121 23017KT 9999 SCT030 BKN080 BECMG 0117/0119 26005KT", "TAF LIRN 011100Z 0112/0212 26013KT 9999 FEW040 BECMG 0116/0118 VRB06KT BECMG 0210/0212 19010KT", "TAF LIRP 011100Z 0112/0212 27010KT 9999 FEW025 BECMG 0118/0120 12005KT 9999 SCT020 SCT060 PROB40 0206/0212 SHRA", "TAF LIRQ 011100Z 0112/0212 24010KT 9999 SCT040 BECMG 0117/0119 VRB04KT TEMPO 0202/0206 SHRA", "TAF LIRS 011100Z 0112/0121 30015KT 9999 SCT030", "TAF LIRU 011100Z 0112/0121 26011KT 9999 FEW030 BECMG 0116/0118 VRB05KT", "TAF LIRV 011100Z 0112/0121 24008KT 9999 SCT030", "TAF LIRZ 011100Z 0112/0212 24010KT 9999 SCT030 TEMPO 0113/0116 SHRA BECMG 0117/0119 VRB05KT", "TAF LJCE 011100Z 0112/0121 25005KT 9999 FEW030 PROB40 TEMPO 0112/0121 SHRA SCT035TCU BKN050 PROB30 TEMPO 0113/0121 34010KT TSRA SCT035CB", "TAF LJLJ 011100Z 0112/0212 30005KT 9999 SCT040 TEMPO 0112/0123 SHRA SCT035TCU BKN045 PROB30 TEMPO 0112/0120 5000 TSRA SCT030CB PROB40 TEMPO 0210/0212 SHRA SCT035TCU BKN070", "TAF LJMB 011100Z 0112/0212 17005KT 9999 FEW045 TEMPO 0112/0123 SHRA SCT035TCU BKN040 PROB30 TEMPO 0115/0121 23015KT 5000 TSRA SCT030CB BECMG 0210/0212 01010KT PROB40 TEMPO 0210/0212 SHRA SCT035TCU", "TAF LJPZ 011100Z 0112/0121 30005KT 9999 FEW040 PROB40 TEMPO 0112/0116 23010KT PROB30 TEMPO 0113/0116 FEW040TCU", "TAF LKCV 010500Z 0106/0206 24009KT 9999 BKN038 TEMPO 0106/0109 24013KT 8000 RA BKN025 PROB30 TEMPO 0109/0115 26016KT 7000 SHRA BKN020TCU BECMG 0120/0123 21005KT 7000 RA BKN020 TEMPO 0200/0206 4000 RA BR BKN014 OVC020", "TAF LKKB 010500Z 0106/0206 23010KT 9999 BKN035 TEMPO 0106/0123 23012G22KT 7000 SHRA OVC025 PROB30 TEMPO 0111/0118 5000 SHRA BKN020TCU BECMG 0200/0204 VRB02KT TEMPO 0200/0206 4000 RA BR BKN010 OVC020", "TAF LKKV 011100Z 0112/0212 24010KT 9999 BKN020 TEMPO 0112/0210 6000 -SHRA BKN010 PROB30 TEMPO 0112/0116 26011G22KT 3000 SHRA BKN009TCU PROB30 TEMPO 0119/0209 1300 RA BR OVC001 BECMG 0121/0123 28005KT BECMG 0204/0206 02014KT", "TAF LKMT 011100Z 0112/0212 23012KT 9999 SCT025 BKN033 TEMPO 0112/0123 9000 -SHRA BKN020 PROB30 TEMPO 0112/0123 4000 SHRA BKN015TCU BECMG 0117/0119 24003KT BECMG 0123/0202 36010KT 6000 -RA BKN013 TEMPO 0202/0211 2500 RA BR OVC008 TEMPO 0205/0212 01014G26KT", "TAF LKNA 010500Z 0106/0206 27012KT 9999 BKN030 PROB40 TEMPO 0109/0118 30018G28KT 7000 SHRA BKN020TCU BECMG 0118/0120 28006KT TEMPO 0118/0206 29016KT 5000 RA BKN015", "TAF LKPR 011100Z 0112/0218 25012KT 9999 SCT025 BKN040 TEMPO 0112/0118 24016G26KT TEMPO 0112/0200 9000 -SHRA BKN020 PROB30 TEMPO 0112/0117 5000 SHRA BKN015TCU BECMG 0200/0202 33005KT 3000 -RA BR OVC010 TEMPO 0202/0209 2000 RA BR OVC004 BECMG 0203/0205 36012KT TEMPO 0205/0218 01016G28KT BECMG 0209/0211 9999 SCT025", "TAF LKTB 011100Z 0112/0212 31014KT 9999 BKN035 PROB30 TEMPO 0112/0117 4000 SHRA BKN025TCU BECMG 0116/0118 30005KT BECMG 0205/0207 03014KT 6000 -RA OVC014 TEMPO 0207/0211 5000 RA BR OVC009", "TAF LLBG 011104Z 0112/0212 30010KT 9999 SCT045 BECMG 0115/0117 VRB04KT FEW025 BECMG 0208/0210 32008KT CAVOK TX20/0112Z TN09/0204Z", "TAF LLER 011103Z 0112/0212 01016KT CAVOK PROB40 TEMPO 0115/0119 32015KT BECMG 0119/0121 36010KT BECMG 0206/0208 01015KT TX23/0113Z TN13/0204Z", "TAF LLHA 011105Z 0112/0212 29010KT 9999 SCT045 BECMG 0116/0118 VRB04KT SCT030 BECMG 0207/0209 30010KT FEW030 TX19/0112Z TN11/0204Z", "TAF LLHZ 011104Z 0112/0212 28008KT 9999 SCT040 BECMG 0115/0117 VRB03KT FEW025 BECMG 0207/0209 30010KT CAVOK TX19/0112Z TN10/0204Z", "TAF LLIB 011106Z 0112/0212 32010KT 9999 SCT040 PROB40 0112/0113 15005KT BECMG 0116/0118 VRB03KT FEW025 BECMG 0206/0208 17006KT SCT035 TX19/0112Z TN08/0204Z", "TAF LMML 011100Z 0112/0212 30008KT CAVOK PROB40 TEMPO 0200/0206 8000 RA PROB30 TEMPO 0200/0206 VRB20G30KT 4000 TSRA FEW010 BKN070CB", "TAF LOAN 011125Z 0112/0121 29015G25KT 9999 SCT040 BECMG 0115/0117 28012KT", "TAF LOAV 011125Z 0112/0121 28017G27KT 9999 BKN040 BECMG 0116/0118 28013KT", "TAF LOWG 011115Z 0112/0212 VRB04KT 9999 FEW050 SCT070 TX15/0113Z TN04/0205Z TEMPO 0114/0122 -SHRA SCT050 PROB40 TEMPO 0117/0123 4000 SHRA FEW040CB PROB30 TEMPO 0201/0207 0500 BCFG", "TAF LOWI 011115Z 0112/0212 08005KT 9999 SCT050 BKN070 TX14/0112Z TN05/0205Z TEMPO 0112/0118 27015KT -SHRA PROB40 TEMPO 0202/0207 FEW004 BKN008 TEMPO 0209/0212 -SHRA", "TAF LOWK 011115Z 0112/0212 VRB04KT 9999 FEW015 TX13/0114Z TN04/0205Z TEMPO 0112/0118 SHRA FEW050CB SCT060 PROB40 TEMPO 0123/0207 1200 BCFG BKN005", "TAF LOWL 011115Z 0112/0212 27015G25KT 9999 SCT050 FEW050TCU TX12/0112Z TN07/0205Z TEMPO 0112/0115 27020G30KT SHRA FM011500 26010KT 9999 BKN040 TEMPO 0115/0209 SHRA FM020900 29015KT 9999 -RA OVC030 TEMPO 0209/0212 RA", "TAF LOWS 011115Z 0112/0212 28006KT 9999 SCT040 BKN070 TX12/0112Z TN06/0205Z TEMPO 0112/0117 30015G30KT SHRA TEMPO 0118/0212 -SHRA BECMG 0118/0120 16005KT PROB30 0200/0212 SHRA BECMG 0207/0209 28007KT", "TAF LOWW 011115Z 0112/0218 29017G27KT 9999 SCT040 TX16/0114Z TN09/0203Z BECMG 0117/0119 29010KT TEMPO 0209/0215 SHRA", "TAF LOXZ 010815Z 0109/0118 VRB03KT 9999 SCT050 BKN160 TEMPO 0109/0115 29010KT PROB40 TEMPO 0115/0118 7000 SHRA FEW015 FEW030TCU BKN040", "TAF LPAZ 011100Z 0112/0218 16015KT 9999 SCT015 TEMPO 0118/0124 16020G30KT BECMG 0200/0203 21020KT SCT006 BKN012 TEMPO 0203/0210 3000 DZ BR SCT002 BKN004 BECMG 0210/0212 28015KT SCT025", "TAF LPBJ 011101Z 0112/0212 33012KT CAVOK BECMG 0121/0123 VRB02KT SCT012 BKN025 PROB40 TEMPO 0200/0206 2500 -DZ BR SCT003 BKN006", "TAF LPCS 011100Z 0112/0121 32010KT 9999 SCT030 TEMPO 0112/0121 5000 -RA SCT008 BKN015", "TAF LPFR 011100Z 0112/0212 25015KT 9999 FEW035 BECMG 0115/0117 31013KT SCT035 PROB30 TEMPO 0117/0120 31017G27KT BECMG 0201/0204 31005KT SCT015 TEMPO 0203/0206 5000 BR BKN004 BECMG 0206/0209 VRB02KT FEW020", "TAF LPHR 011100Z 0112/0121 19013KT 9999 SCT005 BKN014 BECMG 0113/0115 SCT016", "TAF LPLA 011101Z 0112/0212 19015KT 9999 FEW010 SCT025 TEMPO 0112/0206 19018G30KT PROB40 TEMPO 0120/0124 7000 -RA BKN018", "TAF LPMA 011100Z 0112/0212 03012KT 9999 SCT016", "TAF LPMR 011101Z 0112/0212 32010KT SCT012 SCT025 PROB40 TEMPO 0112/0118 3000 -DZRA BR SCT003 BKN006 TEMPO 0118/0124 3000 -DZRA BR SCT004 BKN009 PROB30 0202/0206 VRB02KT 2000 BR SCT004", "TAF LPMT 011101Z 0112/0212 30010KT 9999 SCT020 BKN030 PROB30 TEMPO 0120/0124 4000 -DZ BR SCT004 BKN008", "TAF LPOV 011100Z 0112/0212 19006KT 9999 SCT012 SCT025 TEMPO 0112/0120 2500 DZRA BR SCT003 BKN009 BECMG 0118/0121 36008KT SCT020 PROB40 0202/0206 0200 FG BKN002", "TAF LPPD 011100Z 0112/0212 13015KT 9999 SCT015 BECMG 0123/0202 21017KT SCT006 BKN012 TEMPO 0202/0209 3000 DZ BR SCT002 BKN004 BECMG 0209/0212 29015KT SCT020", "TAF LPPR 011100Z 0112/0212 24005KT 9999 SCT012 BKN035 TEMPO 0112/0115 5000 -RADZ BR SCT004 BKN008 BECMG 0115/0118 36010KT CAVOK BECMG 0202/0204 06005KT BECMG 0209/0212 35010KT", "TAF LPPS 011100Z 0112/0218 09012KT 9999 SCT014", "TAF LPPT 011100Z 0112/0218 32010KT 9999 BKN035 PROB30 TEMPO 0112/0118 8000 -RA SCT012 BKN025 BECMG 0118/0121 35010KT SCT005 BKN010 TEMPO 0118/0203 4000 -RADZ BR SCT002 BKN005 BECMG 0203/0206 CAVOK", "TAF LQBK 011100Z 0112/0212 20006KT 9999 SCT043 TN15/0212Z TN04/0205Z PROB30 TEMPO 0112/0116 FEW035TCU BKN040 PROB30 TEMPO 0202/0207 3000 BR", "TAF LQMO 011100Z 0112/0212 35006KT 9999 SCT050 TN18/0114Z TN06/0205Z PROB30 TEMPO 0115/0118 VRB12KT SHRA FEW040TCU SCT050", "TAF LQSA 011100Z 0112/0212 VRB03KT 9999 SCT050 TX12/0212Z TN02/0205Z PROB30 TEMPO 0112/0116 02010KT SHRA FEW013 FEW030TCU BKN040 PROB40 0200/0206 2000 BR TEMPO 0209/0212 31012KT 4000 SHRA SCT010 FEW035TCU BKN045", "TAF LQTZ 011100Z 0112/0212 27005KT 9999 SCT043 TN15/0212Z TN03/0205Z PROB30 TEMPO 0112/0116 36010KT FEW035TCU BKN040 PROB40 TEMPO 0202/0207 2000 BR", "TAF LRAR 010800Z 0109/0118 VRB04KT 9999 BKN035 TEMPO 0109/0114 5000 SHRA BKN010 SCT035CB OVC040 BECMG 0112/0114 30010KT", "TAF LRBC 010800Z 0109/0118 16010KT CAVOK BECMG 0109/0111 5000 -RA BKN015 OVC045 TEMPO 0112/0115 3000 SHRA BKN010 SCT040CB OVC045 PROB40 TEMPO 0113/0115 TSRA", "TAF LRBS 010500Z 0106/0206 VRB04KT CAVOK BECMG 0108/0110 25010KT TEMPO 0110/0115 5000 SHRA BKN015 SCT030CB BECMG 0115/0117 3000 -RA BR BKN010 OVC030 BECMG 0202/0204 9999 NSW BKN020", "TAF LRCK 010500Z 0106/0206 VRB04KT 1500 BR NSC BECMG 0106/0108 16010KT 9999 NSW BECMG 0110/0112 5000 RA BKN015 OVC040 TEMPO 0112/0117 23012KT 3000 SHRA SCT010 SCT030CB BKN035 TEMPO 0120/0200 VRB20KT TSRA BECMG 0200/0202 29014KT 9999 NSW SCT035", "TAF LRCL 010800Z 0109/0118 VRB04KT 9999 BKN045 TEMPO 0109/0111 5000 -RA BR BKN010 OVC030 TEMPO 0111/0115 3000 -SHRA BKN010 SCT025CB BKN035", "TAF LRCV 010800Z 0109/0118 VRB04KT 9999 BKN045 TEMPO 0109/0111 5000 -RA BR BKN010 OVC030 TEMPO 0111/0116 3000 -SHRA BKN010 BKN025CB BKN035 PROB30 0111/0115 -TSRA", "TAF LRIA 010800Z 0109/0118 12010KT CAVOK BECMG 0110/0112 5000 -RA BKN015 OVC040 TEMPO 0112/0115 3000 RA BKN010 OVC035", "TAF LROD 010800Z 0109/0118 24008KT 9999 OVC035 TEMPO 0109/0114 5000 SHRA BKN010 SCT030CB OVC035", "TAF LROP 010500Z 0106/0206 VRB04KT CAVOK BECMG 0108/0110 25010KT TEMPO 0110/0115 5000 SHRA BKN015 SCT030CB BECMG 0115/0117 3000 -RA BR BKN010 OVC030 BECMG 0202/0204 9999 NSW BKN020", "TAF LRSB 010500Z 0106/0206 VRB04KT 9999 BKN065 TEMPO 0107/0111 5000 -RA SCT015 OVC050 TEMPO 0110/0116 3000 SHRA BKN010 BKN040CB OVC050 PROB30 0111/0115 -TSRA BECMG 0116/0118 3000 -RA BR BKN010 OVC040 BECMG 0203/0205 31010KT 9999 NSW BKN020", "TAF LRSM 010800Z 0109/0118 23008KT 9999 BKN040 PROB30 TEMPO 0110/0115 5000 SHRA BKN010 SCT030CB OVC035", "TAF LRSV 010800Z 0109/0118 22008KT CAVOK BECMG 0111/0113 5000 SHRA BKN010 SCT035CB OVC040 TEMPO 0113/0116 3000 TSRA BKN005 BKN030CB OVC040", "TAF LRTC 010800Z 0109/0118 14012KT CAVOK BECMG 0112/0114 5000 RA BKN015 OVC040 TEMPO 0114/0117 3000 SHRA BKN010 SCT035CB OVC040", "TAF LRTM 010800Z 0109/0118 VRB04KT 9999 BKN045 TEMPO 0109/0111 5000 -RA BR BKN010 OVC030 TEMPO 0111/0115 3000 -SHRA BKN010 SCT025CB BKN035", "TAF LRTR 010500Z 0106/0206 26008KT 9999 -RA BKN035 TEMPO 0106/0109 5000 RA BKN010 OVC030 TEMPO 0109/0112 32015G25KT 3000 SHRA BKN010 SCT030CB OVC035 BECMG 0114/0116 NSW", "TAF LSGC 010825Z 0109/0118 23010G20KT 9999 -SHRA SCT015 BKN025 TEMPO 0109/0112 SHRA BKN006 PROB30 TEMPO 0110/0112 4000 TSRA SCT012CB", "TAF LSGG 010825Z 0109/0215 22012KT 9999 -SHRA FEW005 BKN025 TX13/0114Z TN04/0206Z TX12/0215Z PROB40 TEMPO 0109/0213 SHRA PROB40 TEMPO 0110/0124 TSRA FEW040CB BECMG 0115/0117 VRB02KT", "TAF LSGS 010825Z 0109/0118 VRB02KT 9999 -SHRA FEW010 SCT030 OVC060 PROB40 TEMPO 0109/0112 23010KT SHRA FEW020TCU", "TAF LSZA 010825Z 0109/0118 VRB01KT CAVOK PROB30 TEMPO 0111/0118 9999 FEW120", "TAF LSZB 010825Z 0109/0118 22011KT 9999 FEW030 SCT040 BKN120 TEMPO 0109/0118 25015G28KT SHRA SCT025TCU PROB30 0114/0118 4000 TSGS FEW040CB", "TAF LSZG 010825Z 0109/0118 25016KT 8000 SCT009 BKN011 BKN013 TEMPO 0109/0118 25015G25KT SHRA SCT011 BKN025TCU TEMPO 0109/0116 26020G35KT PROB40 TEMPO 0109/0118 4000 +SHGS FEW020CB", "TAF LSZH 010825Z 0109/0215 24014KT 9999 FEW018 SCT025 BKN045 TX11/0113Z TN06/0206Z TX11/0215Z TEMPO 0109/0117 24015G25KT SHRA BKN025TCU PROB40 TEMPO 0109/0117 26020G35KT 4000 +SHGS BECMG 0117/0120 21007KT PROB30 TEMPO 0117/0208 SHRA TEMPO 0208/0215 SHRA", "TAF LSZL 010525Z 0106/0115 06003KT CAVOK BECMG 0109/0112 9999 SCT090", "TAF LSZR 010825Z 0109/0118 24008KT 9999 FEW040 SCT070 TEMPO 0109/0115 25017G30KT TEMPO 0109/0118 SHRA SCT025TCU PROB30 TEMPO 0112/0117 4000 TSGS FEW030CB", "TAF LSZS 010825Z 0109/0118 VRB02KT 9999 BKN048 BKN055 TX04/0115Z TEMPO 0109/0112 -SN PROB40 TEMPO 0110/0117 22010KT PROB40 TEMPO 0112/0118 4000 -SN BKN014 PROB30 TEMPO 0114/0118 1500 SN VV006", "TAF LTAB 011040Z 0112/0121 23008KT 9999 SCT040 SCT100", "TAF LTAC 011040Z 0112/0212 VRB02KT 9999 SCT040 SCT100 BECMG 0120/0123 21015KT", "TAF LTAD 011040Z 0112/0121 24008KT 9999 SCT040 SCT100", "TAF LTAE 011040Z 0112/0121 21008KT 9999 SCT040 SCT100", "TAF LTAF 011040Z 0112/0212 VRB02KT CAVOK BECMG 0116/0118 SCT035 TEMPO 0120/0124 BKN035 PROB30 TEMPO 0203/0206 -SHRA BKN030", "TAF LTAG 011040Z 0112/0212 VRB02KT CAVOK TEMPO 0112/0115 19012KT BECMG 0115/0117 SCT035 TEMPO 0118/0121 -SHRA BKN030", "TAF LTAH 011040Z 0112/0121 19012G22KT 9999 SCT035 BKN100", "TAF LTAI 011040Z 0112/0212 18010KT 9999 FEW030 SCT100 BECMG 0112/0115 BKN030 PROB40 TEMPO 0115/0117 -SHRA FEW020CB BKN025 BECMG 0117/0120 09008KT BECMG 0121/0123 -SHRA FEW020CB BKN025 BECMG 0206/0209 18010KT", "TAF LTAJ 011040Z 0112/0212 27007KT CAVOK BECMG 0121/0124 4000 BR SCT009 BKN020 PROB30 TEMPO 0201/0205 1200 BCFG BECMG 0208/0210 BKN030 TEMPO 0208/0212 -SHRA", "TAF LTAL 011040Z 0112/0121 16012KT 9999 SCT030 SCT100", "TAF LTAN 011040Z 0112/0121 28009KT 9999 SCT040 SCT100", "TAF LTAO 011040Z 0112/0121 24008KT 9999 SCT035 BECMG 0115/0118 CAVOK", "TAF LTAP 011040Z 0112/0212 19008KT 9999 SCT040", "TAF LTAR 011040Z 0112/0121 24012KT 9999 SCT015 BKN030 BECMG 0113/0115 SCT035 BECMG 0116/0118 16008KT", "TAF LTAS 011040Z 0112/0121 21008KT 9999 SCT040 SCT100", "TAF LTAT 011040Z 0112/0212 30008KT 9999 FEW035 BECMG 0115/0118 CAVOK PROB30 TEMPO 0203/0207 4000 BR", "TAF LTAU 011040Z 0112/0212 VRB02KT 9999 SCT040 BECMG 0118/0121 CAVOK BECMG 0207/0210 25012KT SCT040 BKN100", "TAF LTAV 011040Z 0112/0121 24013KT CAVOK", "TAF LTAW 011040Z 0112/0121 VRB02KT 9999 SCT035 BKN080", "TAF LTAY 011040Z 0112/0212 24012G22KT CAVOK BECMG 0113/0115 FEW035 SCT100 BECMG 0117/0119 VRB02KT CAVOK BECMG 0202/0204 SCT035 BKN100 BECMG 0206/0208 24012KT", "TAF LTAZ 011040Z 0112/0212 24010KT 9999 SCT040 BECMG 0118/0121 13008KT CAVOK BECMG 0206/0208 24013KT SCT040 BKN100", "TAF LTBA 011040Z 0112/0212 22012KT CAVOK BECMG 0115/0118 SCT025 BKN090 TEMPO 0121/0201 20018G32KT -SHRA", "TAF LTBD 011040Z 0112/0121 20013G25KT 9999 SCT030 BKN100 TEMPO 0112/0115 -SHRA BKN030 BECMG 0115/0118 05008KT", "TAF LTBF 011040Z 0112/0121 21015KT 9999 FEW035 SCT100", "TAF LTBG 011040Z 0112/0121 22018G28KT CAVOK", "TAF LTBH 011040Z 0112/0121 20017G27KT CAVOK", "TAF LTBI 011040Z 0112/0121 24013KT CAVOK", "TAF LTBJ 011040Z 0112/0212 18020G35KT 9999 SCT030 BKN100 BECMG 0117/0119 16015G25KT BECMG 0200/0203 16012KT PROB30 0201/0205 -SHRA", "TAF LTBK 011040Z 0112/0121 18018G35KT 9999 SCT030 BKN100 BECMG 0117/0119 16015G25KT", "TAF LTBL 011040Z 0112/0121 13016G28KT 9999 FEW040 SCT200 BECMG 0118/0120 14012KT", "TAF LTBN 011040Z 0112/0121 20015KT CAVOK", "TAF LTBO 011040Z 0112/0121 22012G22KT 9999 SCT035 BKN100", "TAF LTBP 011040Z 0112/0121 22013KT CAVOK BECMG 0115/0118 SCT035 BKN100 BECMG 0118/0121 24016G26KT -SHRA BKN030 BKN090", "TAF LTBQ 011040Z 0112/0121 21008KT CAVOK TEMPO 0118/0121 SCT030 BKN080", "TAF LTBR 011040Z 0112/0212 16012KT CAVOK TEMPO 0112/0116 18015G25KT FEW040 SCT100 BKN180 BECMG 0119/0122 VRB02KT SCT035 BKN090 PROB40 TEMPO 0202/0206 -SHRA BKN027 BKN080 PROB40 TEMPO 0208/0212 26012KT -SHRA", "TAF LTBS 011040Z 0112/0212 21012KT 9999 SCT030 BKN120 BECMG 0114/0116 VRB02KT BECMG 0207/0209 21012KT", "TAF LTBT 011040Z 0112/0121 15012KT 9999 FEW040 SCT200", "TAF LTBU 011040Z 0112/0212 20012KT CAVOK BECMG 0113/0116 SCT040 BKN100 TEMPO 0119/0123 20015G30KT -SHRA BECMG 0123/0202 26007KT CAVOK BECMG 0209/0212 20010KT SCT040 BKN100", "TAF LTBV 011040Z 0112/0121 18013KT 9999 SCT035 BKN100 BECMG 0116/0118 VRB02KT", "TAF LTBX 011040Z 0112/0121 22013KT CAVOK BECMG 0116/0118 SCT035 BKN100 BECMG 0118/0121 24018G28KT -SHRA BKN030 BKN090", "TAF LTBY 011040Z 0112/0121 24013KT CAVOK", "TAF LTBZ 011040Z 0112/0121 20015KT CAVOK", "TAF LTCA 011040Z 0112/0121 33008KT CAVOK TEMPO 0112/0116 FEW035", "TAF LTCB 011040Z 0112/0121 06008KT CAVOK PROB30 0119/0121 3500 BR", "TAF LTCC 011040Z 0112/0212 VRB02KT CAVOK BECMG 0118/0120 FEW040", "TAF LTCD 011040Z 0112/0121 VRB02KT CAVOK", "TAF LTCE 011040Z 0112/0212 26012KT CAVOK BECMG 0116/0118 VRB02KT BECMG 0202/0204 SCT035 BKN070 BECMG 0206/0208 26012KT", "TAF LTCF 011040Z 0112/0212 30008KT 9999 FEW040 SCT080 BECMG 0115/0118 CAVOK", "TAF LTCG 011040Z 0112/0212 09008KT CAVOK BECMG 0116/0120 21010KT", "TAF LTCI 011040Z 0112/0121 28009KT 9999 FEW030 SCT070 BECMG 0116/0118 09010KT", "TAF LTCJ 011040Z 0112/0212 VRB02KT 9999 FEW040", "TAF LTCK 011040Z 0112/0121 VRB02KT 9999 FEW030 BECMG 0119/0121 4000 BR", "TAF LTCL 011040Z 0112/0121 VRB02KT 9999 FEW015 SCT040 BECMG 0118/0120 CAVOK", "TAF LTCM 011040Z 0112/0121 13012KT 9999 FEW030 BKN100", "TAF LTCN 011040Z 0112/0121 22008KT 9999 FEW040 SCT100 BECMG 0115/0118 CAVOK", "TAF LTCO 011040Z 0112/0121 24012KT 9999 SCT040 BKN080 BECMG 0117/0119 VRB02KT BECMG 0119/0121 CAVOK", "TAF LTCP 011040Z 0112/0121 18008KT CAVOK TEMPO 0112/0116 FEW035", "TAF LTCR 011040Z 0112/0121 VRB02KT CAVOK", "TAF LTCS 011040Z 0112/0212 VRB02KT CAVOK", "TAF LTCT 011040Z 0112/0121 VRB02KT 9999 SCT040 BKN070 TEMPO 0114/0116 10015KT", "TAF LTCU 011040Z 0112/0121 22008KT CAVOK TEMPO 0112/0116 FEW035", "TAF LTCV 010440Z 0106/0206 VRB02KT 9999 FEW015 SCT040", "TAF LTCW 011040Z 0112/0121 09007KT 9999 SCT030 BKN100 BECMG 0120/0121 4500 BR", "TAF LTDA 011040Z 0112/0121 23018KT 9999 SCT040 TEMPO 0113/0116 23018G28KT BECMG 0117/0119 22008KT TEMPO 0118/0121 -SHRA BKN030", "TAF LTFA 011040Z 0112/0121 13016G28KT 9999 FEW040 SCT200 BECMG 0118/0120 14012KT", "TAF LTFB 011040Z 0112/0121 23014G25KT 9999 SCT030 BKN100 TEMPO 0112/0115 -SHRA", "TAF LTFC 011040Z 0112/0212 18015KT 9999 SCT035 BKN100 BECMG 0116/0119 04008KT BECMG 0203/0206 BKN035 BECMG 0207/0210 19010KT -SHRA FEW020CB BKN030", "TAF LTFD 011040Z 0112/0121 26015KT 9999 SCT035 BKN100 TEMPO 0116/0119 -SHRA", "TAF LTFE 011040Z 0112/0212 17013KT 9999 SCT035 BKN100 BECMG 0116/0119 VRB02KT BECMG 0206/0208 17013KT", "TAF LTFG 011040Z 0112/0121 24010KT 9999 SCT030 PROB40 TEMPO 0116/0119 -SHRA FEW020CB BKN030", "TAF LTFH 011040Z 0112/0121 09008KT CAVOK", "TAF LTFJ 011040Z 0112/0212 22013KT CAVOK BECMG 0116/0118 SCT035 BKN100 BECMG 0118/0122 24018G28KT -SHRA BKN030 BKN090 TEMPO 0122/0202 4000 SHRA BKN025 BKN080 PROB30 TEMPO 0208/0212 -TSRA FEW020CB BKN025", "TAF LTFK 011040Z 0112/0121 20017G27KT CAVOK", "TAF LTFM 011040Z 0112/0218 20023G35KT CAVOK TEMPO 0113/0115 -SHRA SCT040 BKN110 BECMG 0115/0118 SCT035 BKN100 TEMPO 0121/0201 -SHRA BECMG 0200/0203 22013KT BECMG 0203/0205 CAVOK BECMG 0215/0218 -SHRA SCT040 BKN100", "TAF LTFO 011040Z 0112/0121 VRB02KT CAVOK", "TAF LUKK 011119Z 0112/0212 15010KT 9999 BKN045 TEMPO 0113/0118 4000 SHRA BKN015 SCT025CB BECMG 0118/0120 VRB05KT 5000 RA BR BKN006 TEMPO 0122/0205 0800 RA FG BKN001 BECMG 0206/0208 35008KT", "TAF LWOH 011125Z 0112/0212 16012KT 9999 -RA SCT020 BKN060 PROB40 TEMPO 0112/0115 VRB15G25KT TSRA FEW020 SCT033CB OVC040 BECMG 0115/0117 NSW SCT050 ", "TAF LWSK 011125Z 0112/0212 30010KT 9999 BKN070 TEMPO 0112/0118 34015G30KT TEMPO 0112/0117 VRB020KT TSRA FEW033CB BKN050", "TAF LXGB 010934Z 0112/0121 27012KT CAVOK PROB30 TEMPO 0112/0118 20014KT 520002", "TAF LYBE 011100Z 0112/0212 33010KT 9999 BKN040 TX16/0212Z TN05/0204Z TEMPO 0112/0115 33015G25KT 5000 SHRA SCT010 SCT030TCU BKN040 BECMG 0116/0118 24005KT TEMPO 0203/0206 5000 BR", "TAF LYBT 011100Z 0112/0212 33010KT 9999 BKN040 TX16/0212Z TN05/0205Z TEMPO 0112/0115 34018G28KT 4000 SHRA SCT012 SCT030TCU BKN035 BECMG 0116/0118 25006KT TEMPO 0203/0206 5000 BR", "TAF LYKV 011100Z 0112/0212 32010KT 9999 BKN035 TX16/0212Z TN04/0204Z TEMPO 0112/0115 32018G28KT 3000 TSRA SCT010 SCT027CB BKN030 BECMG 0116/0118 25004KT TEMPO 0203/0206 2000 BR", "TAF LYNI 011100Z 0112/0212 33012KT 9999 BKN040 TX16/0212Z TN05/0204Z TEMPO 0112/0115 33018G28KT 3000 TSRA SCT013 SCT030CB BKN040 TEMPO 0115/0118 33015G25KT 5000 SHRA SCT015 SCT030TCU BKN040 BECMG 0118/0120 24005KT", "TAF LYPG 011100Z 0112/0212 19010KT 9999 FEW030 SCT040 TX20/0113Z TN07/0205Z PROB30 TEMPO 0112/0115 SHRA FEW020 SCT030TCU BECMG 0115/0117 36004KT BECMG 0118/0120 2000 BR PROB40 TEMPO 0120/0206 0500 FG BECMG 0205/0207 9999 NSW", "TAF LYTV 011100Z 0112/0212 17010KT 9999 SCT040 BKN083 TX17/0113Z TN08/0205Z PROB30 TEMPO 0112/0115 5000 SHRA SCT027TCU BKN033 BECMG 0113/0115 26008KT TEMPO 0209/0212 5000 SHRA FEW030TCU BKN040", "TAF LYVR 011100Z 0112/0212 32010KT 9999 BKN040 TX16/0212Z TN04/0204Z TEMPO 0112/0116 33015G25KT 5000 SHRA SCT010 SCT030TCU BKN033 BECMG 0117/0119 24005KT TEMPO 0203/0206 4000 BR", "TAF LZIB 011115Z 0112/0212 29013KT 9999 FEW045 TEMPO 0112/0118 30017G27KT 9999 -SHRA FEW040TCU BECMG 0122/0200 BKN025 TEMPO 0203/0209 9999 -RA BKN013 BECMG 0209/0211 03010KT TEMPO 0209/0212 -SHRA FEW030TCU", "TAF LZKZ 011115Z 0112/0212 34004KT CAVOK TEMPO 0112/0118 VRB15KT 2500 TSRA FEW010 SCT020CB BKN038 BECMG 0118/0120 VRB02KT FEW010 BKN022 TEMPO 0118/0207 BKN013 BECMG 0207/0209 03005KT TEMPO 0210/0212 -SHRA FEW020TCU", "TAF LZMC 011030Z 0112/0121 28006KT 9999 SCT040 BKN080 TEMPO 0112/0116 30010G20KT", "TAF LZPP 011115Z 0112/0121 28010KT 9999 BKN033 PROB40 TEMPO 0112/0118 31015G25KT -SHRA FEW025CB BKN040 BECMG 0117/0119 VRB02KT", "TAF LZPW 011030Z 0112/0121 20004KT 9999 SCT030 BKN100 TEMPO 0112/0116 4000 -SHRA SCT025TCU BKN035 TEMPO 0114/0121 4000 -RA BKN005 OVC020", "TAF LZSL 011030Z 0112/0121 30010KT 9999 SCT030 BKN040 BECMG 0116/0118 VRB03KT SCT035 PROB40 TEMPO 0112/0116 33010KT -SHRA FEW025TCU BKN030", "TAF LZTT 011115Z 0112/0212 25013KT 9999 FEW030 SCT060 TEMPO 0112/0118 VRB15KT -TSRA FEW023CB BKN035 BECMG 0120/0122 VRB02KT TEMPO 0121/0207 1300 BCFG BR FEW002 BECMG 0207/0209 06005KT 6000 BKN020 TEMPO 0209/0212 -TSRA FEW025CB BKN035", "TAF LZZI 011115Z 0112/0121 24010KT 9999 FEW019 BKN026 TEMPO 0112/0118 -SHRA FEW017TCU BECMG 0118/0120 21004KT", "MBGT 011030Z 0112/0212 09010G20KT 9999 FEW030", "MBPV 011030Z 0112/0212 09010G20KT 9999 FEW030", "TAF MDBH 011000Z 0112/0212 00000KT 9999 FEW016 PROB30 0201/0205 7000-SHRA BKN016 BECMG 0114/0116 11008KT", "TAF MDCY 011000Z 0112/0212 00000KT 9999 FEW018 BECMG 0113/0115 09006KT", "TAF MDJB 011000Z 0112/0212 36005KT 9999 FEW018 BECMG 0114/0116 09008KT", "TAF MDLR 011000Z 0112/0212 00000KT 9999 FEW018 TEMPO 0115/0117 8000-SH BKN016 BECMG 0113/0115 08010KT", "TAF MDPC 011000Z 0112/0212 08014KT 9999 FEW022 BECMG 0115/0117 SCT024", "TAF MDPP 011000Z 0112/0212 00000KT 9999 SCT018 PROB30 0118/0200 8000-SHRA BKN016 BECMG 0113/0115 09015KT", "TAF MDSD 011000Z 0112/0212 02006KT 9999 FEW018 BECMG 0114/0116 08010KT", "TAF MDST 011000Z 0112/0212 11006KT 9999 BKN022 PROB30 0112/0118 5000 RA BKN016", "MGGT 010500Z 0106/0206 01014KT 9999 FEW016 TX26/0120Z TN14/0112Z PROB30 TEMPO 0108/0116 03008KT 8000 SCT012 BECMG 0116/0118 SCT018 TEMPO 0118/0200 04008KT SCT020TCU BECMG 0200/0202 FEW016", "MGMM 010500Z 0106/0206 00000KT CAVOK TX36/0120Z TN18/0112Z TEMPO 0106/0116 SCT012 BECMG 0116/0118 09008KT FEW020 TEMPO 0118/0200 SCT022 BECMG 0200/0202 00000KT SCT018", "MGPB 010500Z 0106/0206 00000KT 9999 SCT016 SCT080 TX31/0120Z TN22/0112Z PROB30 TEMPO 0106/0118 8000 VCSH BKN016 BECMG 0116/0118 06008KT SCT018 PROB40 TEMPO 0118/0200 SCT020TCU BECMG 0200/0202 00000KT SCT016", "TAF MHLC 011100Z 0112/0212 VRB03KT 9999 FEW030 TX31/0119Z TN22/0212Z BECMG 0117/0119 04014KT BECMG 0201/0203 VRB03KT", "TAF MHLM 011100Z 0112/0212 24004KT 9999 FEW030 TX33/0120Z TN22/0212Z BECMG 0119/0121 05014KT BECMG 0201/0203 02007KT", "TAF MHPR 011100Z 0112/0212 VRB05KT 9999 FEW046 TX32/0120Z TN19/0211Z BECMG 0116/0118 03016KT BECMG 0200/0202 VRB02KT", "TAF MHRO 011100Z 0112/0212 09023KT 9999 FEW022 TX30/0120 TN26/0212Z", "TAF MHTG 011100Z 0112/0212 06006KT 9999 FEW032 TX29/0120Z TN18/0212Z BECMG 0113/0115 08014KT BECMG 0201/0203 04008KT", "TAF MKJP 011115Z 0112/0212 36005KT 9999 FEW022 BECMG 0114/0116 14020KT BECMG 0201/0203 36005KT", "TAF MKJS 011115Z 0112/0212 14004KT 9999 FEW024 BECMG 0114/0116 06020KT FEW022 SCT034 BECMG 0201/0203 VRB04KT", "TAF MMAA 011048Z 0112/0212 08005KT 5SM HZ SKC TX31/0120Z TN22/0112Z FM011800 24010KT P6SM SCT300 FM020600 00000KT P6SM SCT300", "TAF MMAN 010500Z 0106/0206 00000KT P6SM SKC FM011200 12005KT 3SM BR BKN015 TEMPO 0112/0115 2SM BR BKN010 FM011600 13010KT 5SM HZ BKN040 PROB40 0118/0121 6SM -RA BKN030 BKN070 FM020000 14005KT 5SM HZ BKN030", "TAF MMAS 010229Z 0106/0206 23005KT P6SM SCT250 FM011800 24010KT P6SM SCT040 BKN250 FM020500 23005KT P6SM SCT250", "TAF MMBT 010235Z 0106/0206 00000KT P6SM SCT100 FM011800 18010KT P6SM SCT020 BKN100 FM020500 00000KT P6SM SKC", "TAF MMCB 010235Z 0106/0206 00000KT P6SM SCT250 FM011800 13007KT P6SM SCT030 SCT250 FM020500 00000KT P6SM SKC", "TAF MMCE 010448Z 0106/0206 11010KT P6SM SKC FM011800 13016KT P6SM SCT020 FM020500 13010KT P6SM SKC", "TAF MMCL 010437Z 0106/0206 00000KT P6SM OVC250 FM011800 26015KT P6SM BKN250 FM020300 32010KT P6SM SCT100 BKN250", "TAF MMCM 010448Z 0106/0206 10005KT P6SM SCT020 FM011800 12015KT P6SM SCT020 BKN250 FM020500 09006KT P6SM SCT020", "TAF MMCN 010247Z 0106/0206 25006KT P6SM SCT250 FM011800 24010KT P6SM BKN250 FM020500 24006KT P6SM SCT250", "TAF MMCP 010448Z 0106/0206 12007KT P6SM SKC FM011800 12010G22KT P6SM SCT030 BKN250 FM020500 12010KT P6SM SKC", "TAF MMCS 010500Z 0106/0206 00000KT P6SM SKC FM011800 28010KT P6SM SCT200 FM020300 320005KT P6SM BKN200", "TAF MMCU 010500Z 0106/0206 34005KT P6SM SCT200 FM011600 02010KT P6SM BKN200 FM020300 34005KT P6SM SCT200", "TAF MMCV 010517Z 0106/0206 02009KT P6SM SCT080 SCT250 TEMPO 0111/0115 4SM HZ BKN010 FM011800 15016KT P6SM SCT030 SCT080 BKN250 TEMPO 0123/0203 BKN020 FM020500 09007KT P6SM SCT020 SCT250", "TAF MMCZ 011025Z 0112/0212 12005KT P6SM SKC FM011800 13015KT P6SM BKN015 BKN070 TEMPO 0122/0201 5SM -RA BKN015CB FM020600 12015KT P6SM SCT015", "TAF MMDO 010247Z 0106/0206 23005KT P6SM BKN250 FM011800 14008KT P6SM SCT080 BKN250 FM020500 22005KT P6SM BKN250", "TAF MMEP 010229Z 0106/0206 00000KT P6SM SCT250 FM011800 36012KT P6SM BKN250 FM020500 00000KT P6SM SCT250", "TAF MMGL 011033Z 0112/0212 00000KT P6SM SCT300 TX30/0121Z TN15/0112Z FM011800 30010KT P6SM BKN300 FM020600 00000KT P6SM SCT300", "TAF MMGM 010247Z 0106/0206 20005KT P6SM SCT250 FM011800 22016KT P6SM SCT100 BKN250 FM020500 20005KT P6SM BKN250", "TAF MMHO 010437Z 0106/0206 24005KT P6SM SCT200 FM011800 24010KT P6SM SKC FM020300 24005KT P6SM SCT200", "TAF MMIA 010229Z 0106/0206 24006KT 6SM HZ SKC FM011800 23016KT 6SM HZ BKN250 FM020500 24006KT 6SM HZ SCT250", "TAF MMIO 010500Z 0106/0206 00000KT P6SM SKC FM011600 00000KT P6SM SCT120 FM020300 34005KT P6SM SCT040 SCT120", "TAF MMLM 010247Z 0106/0206 30007KT P6SM BKN250 FM011800 30018KT P6SM SCT100 BKN250 FM020500 30006KT P6SM SCT250", "TAF MMLO 010229Z 0106/0206 00000KT P6SM SCT250 FM011800 15008KT P6SM SCT030 BKN250 FM020500 16005KT P6SM SCT250", "TAF MMLP 010437Z 0106/0206 20010KT P6SM SCT100 BKN200 FM011800 34012KT P6SM BKN200 FM020300 20008KT P6SM SCT100 SCT200", "TAF MMLT 010247Z 0106/0206 34006KT P6SM SCT250 FM011800 04018KT P6SM BKN250 FM020500 34005KT P6SM SCT250", "TAF MMMA 010517Z 0106/0206 13010KT P6SM SCT080 SCT250 FM010800 12008KT 6SM HZ BKN015 TEMPO 0111/0115 3SM BR HZ BKN008 FM011800 16016KT P6SM BKN020 BKN250 FM020500 12010KT P6SM SCT015 SCT080", "TAF MMMD 011025Z 0112/0212 14015KT P6SM SKC TX35/0121Z TN21/0112Z TEMPO 0112/0115 3SM HZ BKN015 FM011600 13015KT P6SM BKN250 FM012100 12010G22KT P6SM SCT030 BKN250 FM020600 14015KT P6SM SKC", "TAF MMML 010437Z 0106/0206 33005KT P6SM SCT200 FM011800 30010KT P6SM BKN200 FM020300 00000KT P6SM SCT200", "TAF MMMM 011033Z 0112/0212 00000KT P6SM SKC FM011800 32005KT P6SM SCT300 FM020000 24005KT P6SM BKN300 FM020600 00000KT P6SM SCT300", "TAF MMMT 010448Z 0106/0206 36005KT 5SM HZ SCT020 TEMPO 0111/0115 3SM BR HZ BKN015 FM011800 36010KT P6SM BKN020 BKN080 FM020500 36005KT 5SM HZ SCT020", "TAF MMMV 311715Z 3118/0118 04010KT P6SM BKN150 BECMG 0103/0104 33005KT TEMPO 0110/0114 3SM BR FM011700 36005KT P6SM BKN250", "TAF MMMX 011048Z 0112/0212 06005KT P6SM SCT250 TX27/0121Z TN14/0112Z FM011800 06010KT P6SM SCT030 SCT100 BECMG 0121/0122 BKN030CB TEMPO 0123/0202 5SM TSRA FM020600 00000KT P6SM SCT030 SCT080", "TAF MMMY 011015Z 0112/0212 12005KT 5SM HZ SCT030 TX28/0121Z TN21/0112Z TEMPO 0112/0115 2SM BR BKN015 FM011600 13010KT 5SM HZ SCT025 SCT100 TEMPO 0118/0121 6SM -RA BKN020 BKN090 FM020000 12005KT 5SM HZ BKN020 BECMG 0203/0204 3SM BR BKN015 TEMPO 0206/0210 1SM BR", "TAF MMMZ 011027Z 0112/0212 00000KT P6SM OVC250 TX31/0119Z TN13/0112Z FM011800 24010KT P6SM BKN250 FM020600 32005KT P6SM SCT250", "TAF MMNL 010517Z 0106/0206 00000KT P6SM SKC TEMPO 0111/0115 4SM HZ BKN012 FM011800 12014KT P6SM SCT030 BKN250 FM020500 12005KT P6SM SCT015", "TAF MMOX 010235Z 0106/0206 15006KT P6SM SCT030 FM011800 02010KT P6SM SCT030 BKN250 FM020500 34005KT P6SM SCT030", "TAF MMPA 010517Z 0106/0206 09006KT 5SM HZ SKC TEMPO 0111/0115 2SM BR HZ BKN010 FM011800 03010KT 5SM HZ SCT020 BKN250 FM020500 08007KT 5SM HZ SCT020", "TAF MMPB 010235Z 0106/0206 21005KT P6SM SKC FM011800 09012KT P6SM SCT250 FM020500 09005KT P6SM SKC", "TAF MMPG 010517Z 0106/0206 33005KT P6SM SCT020 SCT250 TEMPO 0111/0115 4SM HZ BKN010 FM011800 13012KT P6SM SCT020 BKN250 FM020500 12005KT P6SM SCT015 SCT250", "TAF MMPN 010229Z 0106/0206 00000KT P6SM SCT250 FM011800 22010KT P6SM SCT120 BKN250 FM020500 00000KT P6SM SCT250", "TAF MMPQ 010448Z 0106/0206 09010KT P6SM SCT080 FM011800 09020KT P6SM SCT030 SCT080 FM020500 09008KT P6SM SCT040", "TAF MMPR 011033Z 0112/0212 00000KT P6SM BKN220 TX26/0120Z TN14/0112Z FM011800 22015KT P6SM SCT250 FM020600 22008KT P6SM BKN220", "TAF MMPS 010235Z 0106/0206 00000KT P6SM SCT070 FM011800 21010KT P6SM SCT080 SCT250 FM020500 00000KT P6SM SCT250", "TAF MMQT 010229Z 0106/0206 04007KT P6SM SCT020 TEMPO 0111/0115 BKN020 FM011800 13012KT P6SM SCT020 BKN250 TEMPO 0202/0206 BKN020", "TAF MMRX 010517Z 0106/0206 15010KT 6SM HZ SCT012 FM010800 12008KT 5SM HZ BKN010 TEMPO 0111/0115 2SM BR HZ BKN008 FM011800 16016KT P6SM SCT020 BKN090 BKN250 FM020500 12010KT P6SM SCT012 SCT080", "TAF MMSD 010247Z 0106/0206 35010KT P6SM SCT250 FM011800 16015KT P6SM BKN250 FM020500 34010KT P6SM SCT250", "TAF MMSL 010247Z 0106/0206 30006KT P6SM SCT250 FM011800 18010KT P6SM BKN250 FM020500 32005KT P6SM SCT250", "TAF MMSM 011048Z 0112/0212 00000KT P6SM SKC FM011800 06010KT P6SM SCT020 TEMPO 0122/0202 P6SM TSRA BKN020CB FM020600 00000KT P6SM SCT020 SCT080", "TAF MMSP 011033Z 0112/0212 12005KT 6SM HZ SCT020 TX30/0121Z TN10/0112Z TEMPO 0112/0115 3SM BR BKN010 FM011600 13005KT 5SM HZ SCT020 FM012100 15010KT P6SM SCT030 BKN230 TEMPO 0122/0202 5SM -TSRA BKN025CB FM020600 00000KT 6SM HZ SCT030 SCT230", "TAF MMTC 010500Z 0106/0206 00000KT P6SM SCT110 FM011800 04005KT P6SM BKN200 FM020300 26005KT P6SM SCT100 SCT200", "TAF MMTG 010427Z 0106/0206 33010KT P6SM SCT015 FM011500 33010KT P6SM SCT030 FM012100 34010G28KT P6SM SCT035 SCT300 FM020300 34012KT P6SM SCT035", "TAF MMTJ 011027Z 0112/0212 00000KT P6SM P6SM SKC TX18/0121Z TN08/0112Z FM011600 32005KT P6SM SCT200 FM020600 32010KT P6SM SCT200", "TAF MMTM 010511Z 0106/0206 06005KT P6SM SCT010 FM011000 12010KT 6SM HZ BKN020 BKN200 TEMPO 0111/0115 5SM RA FM011600 07012KT 5SM HZ SCT020 BKN200 FM020300 14010KT P6SM BKN015", "TAF MMTO 011048Z 0112/0212 00000KT P6SM SKC TX25/0121Z TN12/0112Z FM011800 06010KT P6SM SCT020 SCT200 PROB40 0123/0201 6SM -RA SCT020CB FM020600 00000KT P6SM SCT020 SCT200", "TAF MMTP 011025Z 0112/0212 00000KT P6SM SKC FM011800 24010KT P6SM SCT030 PROB40 0122/0202 5SM RA BKN020CB FM020600 00000KT P6SM SCT020 SCT080", "TAF MMUN 011025Z 0112/0212 12005KT P6SM SCT015 TX30/0119Z TN25/0112Z FM011600 12012KT P6SM BKN015 FM012200 14015KT P6SM SCT015 FM020600 13010KT P6SM SCT015", "TAF MMVA 010448Z 0106/0206 08008KT P6SM SKC FM011800 07015KT P6SM SCT030 SCT080 FM020500 08008KT P6SM SKC", "TAF MMVR 010511Z 0106/0206 00000KT P6SM SKC TX31/0121Z TN24/0112Z TEMPO 0112/0115 BKN015 FM011600 04010KT P6SM SKC FM020300 04005KT P6SM SCT020 SCT250", "TAF MMZC 011033Z 0112/0212 00000KT P6SM BKN100 TX26/0121Z TN14/0112Z FM011800 24010KT P6SM SCT100 SCT200 FM020300 00000KT P6SM BKN200 FM021000 00000KT P6SM SCT100 BKN200", "TAF MMZH 010235Z 0106/0206 00000KT P6SM SKC FM011800 23010KT P6SM SCT090 SCT250 FM020500 00000KT P6SM SKC", "TAF MMZO 010447Z 0106/0206 00000KT P6SM SCT210 FM011800 24010KT P6SM SCT030 FM020300 00000KT P6SM SCT210", "MNBL 312050Z 3100/0124 04010G20KT 9999 BKN017 BECMG 0106/0110 05008KT 8000 VCRA/-DZ TEMPO 0112/0118 07012G25KT 9999 SCT018", "MNMG 011044Z 0112/0212 14006KT 9999 FEW022 BECMG 0114/0116 09014KT SCT022 TEMPO 0115/0122 08014G28KT", "MNPC 312050Z 3100/0124 03008G16KT 7000 HZ SCT016 BECMG 0107/0111 05006KT 6000 VCRA/-DZ BKN016TCU TEMPO 0114/0120 09010G25KT 7000 HZ SCT016", "TAF MPDA 011100Z 0112/0124 19007KT 9999 FEW020 TEMPO 0112/0114 VRB02KT TEMPO 0118/0122 20012KT", "TAF MPMG 011100Z 0112/0124 34008KT 9999 FEW020 TEMPO 0113/0115 29007KT TEMPO 0118/0122 35016KT", "TAF MPPA 011100Z 0112/0218 35008KT 9999 FEW020 TEMPO 0118/0122 01016KT", "TAF MPSM 011100Z 0112/0218 34008KT 9999 FEW020 TEMPO 0113/0115 17006KT TEMPO 0118/0122 04014KT", "TAF MPTO 011100Z 0112/0218 36008KT 9999 FEW020 TEMPO 0112/0114 29007KT TEMPO 0118/0122 35016KT TEMPO 0206/0210 VRB02KT CAVOK", "MRLB 010500Z 0106/0206 08017KT 9999 FEW040 TX35/0120Z TN23/0111Z TEMPO 0110/0114 06007KT ", "MRLM 010500Z 0106/0206 24005KT 9999 FEW030 TX30/0121Z TN22/0111Z TEMPO 0109/0113 DZ BKN020 BECMG 0115/0118 06007KT BECMG 0200/0203 23005KT ", "MROC 010500Z 0106/0206 10014KT 9999 FEW030 TX29/0119Z TN19/0111Z TEMPO 0116/0124 10016G26KT ", "MRPV 010500Z 0106/0206 10015KT 9999 FEW030 TX28/0119Z TN18/0111Z TEMPO 0116/0124 10016G26KT ", "TAF MSLP 010925Z 0112/0212 03006KT 9999 FEW070 TX34/0119Z TN23/0210Z FM011700 21003G13KT 9999 FEW043 FM020100 VRB04KT 9999 FEW060 FM020500 03005KT CAVOK", "TAF MSSS 010925Z 0112/0212 34003KT CAVOK TX33/0118Z TN19/0212Z FM011900 19004KT 9999 FEW050 FM020000 18004KT 9999 FEW043 FM020400 03002KT CAVOK", "TAF MTCH 011100Z 0112/0212 10008KT 9000 FEW022 TEMPO 0113/0201 04017KT", "TAF MTPP 011120Z 0112/0212 10014KT 9000 FEW020 BECMG 0118/0122 28012G22KT PROB30 TEMPO 0123/0203 4800 -SHRA SCT024CB FM020500 15005KT 8000 NSC", "MUCC 011100Z 0112/0212 10012KT 9000 SCT020", "MUCF 011100Z 0112/0124 VRB03KT 9000 FEW030 BECMG 0117/0118 22012KT", "MUCL 011100Z 0112/0124 12012KT 9000 SCT020 BECMG 0122/0123 VRB03KT", "MUCM 011100Z 0112/0212 05008KT 9000 FEW020 BECMG 0113/0114 07012KT SCT030 TEMPO 0117/0120 BKN020 BECMG 0200/0201 VRB04KT FEW020", "MUCU 011100Z 0112/0212 VRB03KT 9000 FEW020 BECMG 0115/0117 15012KT SCT020 TEMPO 0118/0121 FEW020CB BECMG 0200/0201 VRB04KT FEW020", "TAF MUGM 0107/0207 31006KT 9999 FEW030 QNH3005INS FM011500 10018G25KT 9999 FEW030 QNH3000INS FM012200 08015KT 9999 FEW030 QNH3000INS BECMG 0203/0205 01005KT 9999 FEW030 QNH2998INS TX28/0117Z TN22/0111Z FN00264", "MUHA 011100Z 0112/0212 VRB03KT 9000 SCT030 BECMG 0114/0116 12010KT", "MUHG 011100Z 0112/0212 07006KT 9000 FEW030 BECMG 0113/0114 08013KT SCT020 BECMG 0202/0204 08006KT", "MUSC 011100Z 0112/0212 11005KT 9000 FEW030 TEMPO 0114/0118 BKN020 BECMG 0119/0120 07010KT BECMG 0200/0201 VRB03KT", "MUVR 011100Z 0112/0212 11005KT 9000 FEW020 BECMG 0119/0120 03010KT SCT020 BECMG 0122/0123 VRB04KT FEW020", "TAF MWCB 011100Z 0112/0212 08012KT 9999 VCSH SCT018", "TAF MWCR 312300Z 0100/0124 10012KT 9999 FEW018", "MYGF 011030Z 0112/0212 12010G202KT 9999 SCT030 PROB40 TEMPO 0202/0207 8000 SHRA FEW015CB SCT018 BKN030", "MYNN 011030Z 0112/0212 12010G20KT 9999 FEW020 SCT030 BECMG 0118/0120 12015KT", "TAF MZBZ 011105Z 0112/0212 11010KT 9999 SCT024", "TAF NCRG 011106Z 0112/0212 12005KT 9999 FEW035 SCT045 PROB40 TEMPO 0112/0212 5000 TSRA BKN015 FEW018CB PROB40 TEMPO 0118/0212 13015G25KT", "TAF NFFN 011106Z 0112/0212 11005KT 9999 FEW030 BECMG 0122/0124 30010KT PROB30 TEMPO 0203/0206 8000 -SHRA BKN015 BECMG 0206/0208 10005KT", "TAF NFNA 011106Z 0112/0212 09005KT 9999 SCT024 PROB30 TEMPO 0112/0115 5000 SHRA BKN015", "TAF NFTF 011106Z 0112/0212 12009KT 9999 FEW016 PROB30 TEMPO 0118/0216 5000 SHRA BKN015", "TAF NFTV 011107Z 0112/0212 13008KT 9999 FEW017 PROB40 TEMPO 0206/0212 5000 SHRA BKN015", "TAF NGFU 011107Z 0112/0212 09005KT 9999 SCT020 PROB40 TEMPO 0112/0212 5000 TSRA BKN015 FEW018CB", "TAF NGTA 011107Z 0112/0212 07005KT 9999 FEW019 SCT100", "TAF NIUE 011107Z 0112/0212 14009KT 9999 FEW017 PROB40 TEMPO 0118/0212 5000 TSRA BKN015 FEW016CB", "TAF NLWF 010500Z 0106/0206 11012KT 9999 SCT025 TEMPO 0106/0206 SHRA FEW020TCU PROB30 TEMPO 0115/0120 2900 SHRA BKN012 FEW020CB", "TAF NLWW 010500Z 0106/0206 11008KT 9999 SCT020 TEMPO 0106/0206 4000 SHRA BKN014 FEW020TCU PROB30 TEMPO 0115/0122 2500 SHRA BKN010 FEW018CB", "TAF NSFA 011106Z 0112/0212 17005KT 9999 FEW022 PROB40 TEMPO 0112/0206 5000 TSRA FEW018CB", "NSTU 010539Z 0106/0206 VRB05KT P6SM VCSH SCT015 BKN040", "TAF NTAA 011100Z 0112/0218 VRB05KT 9999 FEW023 BECMG 0118/0119 03006KT BECMG 0204/0206 VRB04KT", "TAF NVSC 011100Z 0112/0212 VRB02KT 9999 SCT020 BKN040 INTER 0112/0118 8000 -TSRA FEW010 BKN018 FEW025CB", "TAF NVSG 011100Z 0112/0212 VRB02KT 9999 SCT020 BKN045 INTER 0112/0118 8000 -TSRA FEW008 BKN018 FEW025CB", "TAF NVSL 011100Z 0112/0212 VRB04KT 9999 SCT020 INTER 0112/0118 9000 SHRA BKN018", "TAF NVSP 011100Z 0112/0212 VRB04KT 9999 SCT020 INTER 0112/0118 8000 -TSRA FEW008 BKN015 FEW022CB", "TAF NVSS 011100Z 0112/0212 VRB04KT 9999 SCT020 INTER 0112/0118 9000 SHRA FEW010 BKN018", "TAF NVVA 011100Z 0112/0212 VRB04KT 9999 SCT020", "TAF NVVV 011100Z 0112/0212 VRB04KT 9999 FEW010 BKN020 OVC100 INTER 0112/0118 8000 TSRA FEW008 BKN016 FEW022CB", "TAF NVVW 011100Z 0112/0212 VRB02KT 9999 SCT020", "TAF NWWD 010500Z 0106/0206 25010KT 9999 SCT020 BKN040 BECMG 0106/0108 VRB03KT PROB40 TEMPO 0106/0112 4000 SHRA BKN014 FEW018TCU FM011200 VRB03KT 9999 FEW030 PROB30 TEMPO 0115/0120 4000 BR BECMG 0200/0202 24010KT TEMPO 0201/0206 4000 SHRA FEW018TCU", "TAF NWWE 311700Z 3118/0118 05008KT 9999 SCT014 PROB30 TEMPO 3118/3120 BKN014 PROB40 TEMPO 0112/0116 SHRA BKN014", "TAF NWWK 010500Z 0106/0206 24010KT 9999 FEW040 BECMG 0106/0108 VRB03KT BECMG 0123/0202 24010KT", "TAF NWWL 311700Z 3118/0118 06008KT 9999 FEW018 PROB30 TEMPO 3118/3120 2800 BR", "TAF AMD NWWM 010828Z 0108/0206 20005KT 9999 FEW035 TEMPO 0108/0112 SHRA FEW020TCU PROB40 TEMPO 0108/0112 2400 SHRA BKN009 SCT018CB", "TAF NWWR 311700Z 3118/0118 06005KT 9999 SCT018 PROB30 TEMPO 3118/3120 0700 FG BKN014", "TAF NWWU 311700Z 3118/0118 06005KT 9999 SCT018 PROB40 TEMPO 3118/3121 4500 SHRA BKN014 FEW020TCU PROB40 TEMPO 0109/0118 SHRA", "TAF AMD NWWW 010823Z 0108/0206 VRB03KT 9999 SCT030 BKN045 PROB40 TEMPO 0108/0118 4000 SHRA BKN014 FEW018TCU PROB30 TEMPO 0108/0112 1200 SHRA BKN009 SCT016CB BECMG 0123/0201 21010KT PROB40 TEMPO 0200/0206 4000 SHRA BKN014 FEW018TCU", "TAF NZAA 011110Z 0112/0218 34005KT 9999 FEW011 BKN025 TEMPO 0112/0116 BKN011 PROB40 0116/0121 0500 FG FM020000 23010KT 9999 FEW030", "TAF NZCH 011110Z 0112/0218 06005KT CAVOK BECMG 0122/0200 30015KT FM020300 19012KT 9999 -RA SCT012 BKN040 TEMPO 0205/0214 5000 SHRA BKN011 FEW020TCU BECMG 0210/0212 25005KT", "TAF NZQN 011110Z 0112/0206 02005KT 9999 SKC FM011800 19010KT 9999 -RA SCT040 TEMPO 0118/0203 7000 RA BECMG 0122/0200 25010KT", "TAF NZWN 011110Z 0112/0218 36020G30KT 9999 FEW013 BKN020 TEMPO 0116/0118 7000 SHRA BKN014 FM012100 36015KT 9999 FEW030 BECMG 0208/0210 34005KT FM021300 18015KT 9999 FEW015 BKN025 TEMPO 0215/0218 6000 SHRA BKN012", "TAF OBBI 011100Z 0112/0218 34022KT CAVOK TEMPO 0112/0118 34023G33KT", "TAF OEAB 312300Z 0100/0206 19008KT 7000 SCT020 PROB30 TEMPO 0100/0105 2000 BR BECMG 0106/0108 20018KT TEMPO 0108/0120 TSRA FEW025CB", "TAF OEAH 010930Z 0112/0218 34014KT 6000 NSC TEMPO 0112/0118 36020G30KT 3000 BLDU TEMPO 0206/0215 36020G30KT 3000", "TAF OEAO 312300Z 0100/0206 35006KT CAVOK BECMG 0106/0108 36016KT 7000 NSC BECMG 0116/0118 35006KT", "TAF OEBA 312300Z 0100/0206 VRB03KT 7000 FEW030 BECMG 0106/0108 22014KT TEMPO 0108/0120 FEW025CB SCT030 BECMG 0118/0120 VRB03KT PROB30 TEMPO 0120/0204 3000 BR", "TAF OEBH 312300Z 0100/0206 VRB03KT 9999 FEW040 BECMG 0106/0108 03010KT 7000 TEMPO 0112/0120 3000 DU FEW030CB SCT040 BECMG 0118/0120 33007KT", "TAF OEDF 010400Z 0106/0212 35018G30KT CAVOK TEMPO 0106/0116 5000 BLDU NSC PROB30 TEMPO 0108/0112 2000 BECMG 0118/0120 32010KT", "TAF OEDM 011100Z 0112/0218 04012KT CAVOK BECMG 0120/0122 10014KT BECMG 0206/0208 05012KT", "TAF OEDR 010930Z 0112/0218 34014KT 6000 NSC TEMPO 0112/0118 36020G30KT 3000 BLDU TEMPO 0206/0215 36020G30KT 3000", "TAF OEGN 312300Z 0100/0206 27007KT 7000 SCT030 BECMG 0108/0110 23010KT TEMPO 0108/0116 4000 TSRA BKN030 FEW035CB BECMG 0120/0122 30007KT", "TAF OEGS 011100Z 0112/0218 04010KT CAVOK BECMG 0118/0120 VRB03KT BECMG 0206/0208 06010KT", "TAF OEGT 011100Z 0112/0218 32012KT 9999 FEW030 BECMG 0120/0122 VRB03KT BECMG 0208/0210 10010KT", "TAF OEHL 011100Z 0112/0218 01012KT CAVOK BECMG 0118/0120 VRB03KT BECMG 0208/0210 04010KT", "TAF OEJN 010500Z 0106/0212 32014KT 9999 FEW040 BECMG 0118/0120 VRB03KT 7000 BECMG 0206/0208 34014KT", "TAF OEKJ 011100Z 0112/0218 01016KT 7000 NSC PROB30 TEMPO 0112/0118 3000 BLDU BECMG 0118/0120 04006KT BECMG 0206/0208 02012KT", "TAF OEKM 312300Z 0100/0206 19008KT 7000 SCT020 PROB30 TEMPO 0100/0105 2000 BR BECMG 0106/0108 20018KT TEMPO 0108/0120 TSRA FEW025CB", "TAF OEMA 010500Z 0106/0212 12012KT CAVOK BECMG 0118/0120 06006KT BECMG 0206/0208 12010KT", "TAF OENG 312300Z 0100/0206 VRB03KT 6000 NSC TEMPO 0100/0115 4000 DU BLDU BECMG 0106/0108 04015KT PROB30 TEMPO 0108/0118 FEW025CB SCT030 BECMG 0122/0200 VRB03KT", "TAF OEPA 010930Z 0112/0218 33010KT 7000 NSC BECMG 0116/0118 03008KT BECMG 0204/0206 33010KT", "TAF OEPS 010900Z 0109/0215 01015G25KT 6000 BLDU SKC QNH3000INS TEMPO 0110/0116 3200 BLDU BECMG 0115/0116 02012G18KT 8000 HZ SKC QNH3011INS BECMG 0117/0118 01009KT 9999 NSW FEW110 QNH3006INS BECMG 0205/0206 02012G18KT 8000 HZ BKN110 QNH3007INS BECMG 0214/0215 03012KT 9999 NSW SCT110 QNH3008INS TX25/0111Z TN12/0203Z", "TAF OERF 011100Z 0112/0218 02010KT 7000 NSC TEMPO 0112/0120 3500 DU BECMG 0120/0122 18006KT BECMG 0206/0208 33010KT", "TAF OERK 010500Z 0106/0212 02014KT 7000 NSC PROB30 TEMPO 0106/0116 4000 BLDU BECMG 0120/0122 04006KT BECMG 0206/0208 02012KT", "TAF OERR 011100Z 0112/0218 25010KT CAVOK BECMG 0120/0120 30006KT BECMG 0206/0208 01010KT", "TAF OESH 312300Z 0100/0206 22005KT 7000 FEW040 TEMPO 0100/0115 3000 DU BLDU PROB30 TEMPO 0100/0104 FEW035CB BECMG 0106/0108 35016KT BECMG 0118/0120 06018KT TEMPO 0118/0200 2000 BLDU", "TAF OESK 011100Z 0112/0218 29010KT CAVOK BECMG 0120/0122 VRB03KT BECMG 0210/0212 17010KT", "TAF OETB 011100Z 0112/0218 02012KT CAVOK BECMG 0118/0120 VRB03KT BECMG 0206/0208 11010KT", "TAF OETF 312300Z 0100/0206 16006KT CAVOK BECMG 0108/0110 33012KT 9999 FEW030 PROB30 TEMPO 0110/0116 FEW035CB BECMG 0118/0120 18007KT PROB30 TEMPO 0122/0204 3500 BR", "TAF OETR 011100Z 0112/0218 32010KT CAVOK BECMG 0118/0120 VRB03KT BECMG 0206/0208 25012KT", "TAF OEWD 312300Z 0100/0206 35006KT 7000 FEW040 PROB30 TEMPO 0100/0115 3000 DU BLDU BECMG 0106/0108 08015KT", "TAF OEWJ 312300Z 0100/0206 04010KT CAVOK BECMG 0106/0108 34017KT 7000 NSC PROB30 TEMPO 0108/0116 3000 BLDU BECMG 0118/0120 36008KT", "TAF OEYN 312300Z 0100/0206 VRB03KT CAVOK BECMG 0106/0108 32015KT 7000 NSC BECMG 0120/0122 VRB03KT", "TAF OIAA 011100Z 0112/0218 32014KT 7000 NSC TEMPO 0112/0114 32020G30KT 2000 DU/SA BECMG 0118/0120 30006KT BECMG 0204/0206 32014KT TEMPO 0206/0214 32020G30KT 2000 DU/SA", "TAF OIAW 011100Z 0112/0218 30014KT 7000 NSC TEMPO 0112/0114 30016G26KT 4000 DU/SA BECMG 0118/0120 30006KT BECMG 0204/0206 30010KT TEMPO 0208/0214 30012G24KT 4000 DU/SA", "TAF OIBB 011110Z 0112/0121 33027G37KT 8000 NSC PROB30 TEMPO 0113/0121 2000 SA FEW035", "TAF OIBK 011100Z 0112/0218 28016KT 6000 NSC TEMPO 0112/0118 34028KT TEMPO 0203/0212 30028KT", "TAF OIBP 011110Z 0112/0121 29008KT 8000 NSC TEMPO 0112/0115 29018G30KT 4000 SA PROB30 TEMPO 0113/0115 2000 SA FEW035 TEMPO 0115/0121 27020G32KT 4000 SA PROB30 TEMPO 0117/0121 2000 SA", "TAF OICC 011110Z 0112/0121 29008KT 8000 FEW050 TEMPO 0112/0116 29018G28KT 4000 SA TEMPO 0116/0121 27016G27KT 4000 SA", "TAF OICI 011100Z 0112/0218 27008KT 7000 NSC TEMPO 0112/0114 27018KT BECMG 0116/0118 06006KT TEMPO 0208/0214 30018KT", "TAF OIFM 011100Z 0112/0218 24014KT CAVOK TEMPO 0112/0116 30016G28KT 3000 SA/DU SCT040 BKN100 PROB40 TEMPO 0112/0114 1500 SA BECMG 0117/0119 35008KT 7000 NSC TEMPO 0209/0215 28016KT", "TAF OIGG 011110Z 0112/0121 02008KT 8000 FEW018CB SCT020 BKN070 TEMPO 0112/0115 33016KT 4000 SHRA/DZ BR PROB30 TEMPO 0113/0115 2000 SHRA/DZ BR BKN010 TEMPO 0115/0121 08016KT 3000 DZ BR BKN010", "TAF OIIE 011100Z 0112/0218 30014KT 7000 FEW035 SCT100 TEMPO 0112/0115 30020G30KT 3000 SA FEW035CB SCT040 BKN100 TEMPO 0115/0121 30022KT BECMG 0121/0123 30010KT TEMPO 0206/0214 27016G26KT FEW035CB SCT040 SCT100", "TAF OIII 011100Z 0112/0218 30012KT 7000 FEW035 SCT100 TEMPO 0112/0115 30018G28KT 4000 SA FEW035CB SCT040 BKN100 PROB40 TS/SHRA TEMPO 0115/0121 30020KT BECMG 0121/0123 30006KT TEMPO 0208/0214 27014G24KT FEW035CB SCT040 SCT100", "TAF OIIP 011110Z 0112/0121 32008KT 8000 FEW030 OVC100 TEMPO 0112/0115 32018G28KT 4000 SA FEW030CB SCT040 PROB30 TEMPO 0113/0115 2000 SA TS/SHRA TEMPO 0115/0121 34012G22KT 4000 SA FEW030CB SCT040 PROB30 TEMPO TS/SHRA", "TAF OIKB 011100Z 0112/0218 20010KT 6000 FEW030 TEMPO 0112/0117 24014G24KT 3000 SA BECMG 0119/0121 26012KT TEMPO 0206/0215 20016G26KT 3000 SA", "TAF OIKK 011100Z 0112/0218 20016KT 8000 FEW040 TEMPO 0112/0115 26018G28KT 3000 SA FEW035CB SCT040 SCT100 BECMG 0117/0119 26008KT TEMPO 0208/0215 20016KT", "TAF OIMM 011100Z 0112/0218 24006KT 7000 FEW035 BKN100 TEMPO 0112/0115 24024KT FEW035CB SCT040 BKN100 BECMG 0116/0118 16008KT TEMPO 0118/0203 16026KT 3000 SHRA BR SCT030CB SCT035 OVC090 TEMPO 0206/0214 16014G28KT FEW035CB SCT040 BKN100 PROB40 4000 SHRA SA", "TAF OING 011110Z 0112/0121 32008KT 3000 RA/DZ BR SCT006 SCT015 OVC060 TEMPO 0112/0116 32018KT 1500 RA/DZ BR BKN006 FEW015CB PROB30 TEMPO 0113/0116 26018KT 0800 RA/DZ BR OVC005 TEMPO 0116/0121 26014KT 1000 RA/DZ BR OVC005 FEW015CB PROB30 TEMPO 0119/0121 0500 RA/DZ FG", "TAF OINZ 011110Z 0112/0121 35008KT 3000 RA/DZ BR BKN007 FEW020CB OVC080 TEMPO 0112/0116 35018KT 1500 RA/DZ BR BKN005 PROB30 TEMPO 0113/0116 26018KT 0800 RA/DZ FG OVC005 FEW015CB TEMPO 0116/0121 23014KT 1500 RA/DZ BR BKN005 FEW015CB OVC070 PROB30 TEMPO 0119/0121 0800 RA/DZ FG OVC005", "TAF OISL 011100Z 0112/0218 26006KT 7000 NSC TEMPO 0112/0115 26012G24KT TEMPO 0209/0215 27012G24KT", "TAF OISS 011100Z 0112/0218 26006KT 7000 FEW035 TEMPO 0112/0114 26010G20KT TEMPO 0289/0214 27010G20KT", "TAF OITL 011110Z 0112/0121 28008KT 8000 FEW030 FEW040 BKN100 TEMPO 0112/0115 26012G22KT FEW030 FEW040CB PROB30 TEMPO 0113/0115 3000 SNRA BR SCT025 FEW035CB BKN090 TEMPO 0115/0121 09012G22KT PROB30 TEMPO 0116/0121 2000 SNRA BR BKN020 FEW030CB BKN090", "TAF OITR 011100Z 0112/0218 27006KT 7000 FEW035 BKN100 TEMPO 0112/0114 09020KT FEW030CB SCT035 BKN100 TEMPO 0116/0222 27016KT TEMPO 0209/0215 12018KT FEW030CB SCT035 BKN100", "TAF OITT 011100Z 0112/0218 27006KT 7000 FEW030TCU SCT100 TEMPO 0112/0115 30020KT 4000 SNRA BR SCT030CB SCT035 OVC090 TEMPO 0120/0124 30016KT BECMG 0204/0206 27010KT TEMPO 0206/0215 27018G28KT 4000 SA", "TAF OIYY 011110Z 0112/0121 25008KT 8000 FEW035 SCT100 TEMPO 0112/0115 25018G28KT 4000 SA PROB30 TEMPO 0113/0115 2000 SA FEW035CB SCT040 SCT100", "TAF OIZH 011100Z 0112/0218 24012KT 8000 FEW040 SCT100 TEMPO 0112/0118 24016G26KT 4000 SA FEW035CB SCT040 BKN100 TEMPO 0203/0212 26016G28KT PROB40 TEMPO 0206/0215 3000 SA", "TAF OJAI 011056Z 0112/0218 27012KT 6000 FEW035 PROB30 TEMPO 0112/0118 4000 HZ BECMG 0118/0120 VRB02KT 5000 HZ NSC PROB30 0200/0206 4000 BR", "TAF OJAM 011056Z 0112/0218 26012KT 6000 FEW035 PROB30 TEMPO 0112/0118 4000 HZ BECMG 0118/0120 VRB02KT 5000 HZ NSC PROB30 0200/0206 4000 BR", "TAF OJAQ 011056Z 0112/0218 35012KT CAVOK PROB30 TEMPO 0112/0118 35016KT 5000 HZ", "TAF OKAS 010800Z 0108/0214 33012G20KT 8000 BLDU SKC QNH3007INS TEMPO 0110/0114 33015G25KT 6000 BLDU BECMG 0115/0116 35010G15KT 9000 BLDU SKC QNH3003INS BECMG 0117/0118 31012KT 9999 NSW SKC QNH3005INS BECMG 0205/0206 32012G20KT 8000 BLDU SKC QNH3009INS BECMG 0207/0208 33015G25KT 6000 BLDU SKC QNH3008INS TEMPO 0209/0214 34020G30KT 4000 BLDU TX22/0111Z TN09/0201Z", "TAF OLBA 011000Z 0112/0218 24015KT 9999 FEW026 BECMG 0118/0120 15004KT BECMG 0206/0208 23013KT", "TAF OMAA 011100Z 0112/0218 33015KT 8000 NSC", "TAF OMAD 011100Z 0112/0218 32014KT 8000 NSC", "TAF OMAL 011100Z 0112/0218 31012KT 8000 NSC", "TAF OMDB 011100Z 0112/0218 29013KT 8000 NSC BECMG 0117/0119 21007KT PROB40 0119/0204 28010KT BECMG 0204/0206 27015KT PROB30 TEMPO 0207/0214 27018G28KT", "TAF OMDW 011100Z 0112/0218 30014KT 8000 NSC PROB30 TEMPO 0112/0114 30017G27KT 4000 BLDU BECMG 0117/0119 22007KT PROB30 0119/0204 28010KT BECMG 0204/0206 29015KT PROB30 TEMPO 0207/0214 27018G28KT 4000 BLDU", "TAF OMFJ 011100Z 0112/0218 09007KT 7000 NSC BECMG 0114/0116 29014KT PROB30 0118/0218 30018G28KT 4000 BLDU", "TAF OMRK 011100Z 0112/0218 30013KT 8000 NSC BECMG 0116/0118 21005KT PROB30 0121/0205 3000 BR BECMG 0204/0206 27014KT BECMG 0216/0218 21007KT", "TAF OMSJ 011100Z 0112/0218 29013KT 8000 NSC BECMG 0116/0118 21007KT PROB30 0118/0204 28010KT PROB30 0122/0204 4000 HZ BECMG 0204/0206 27015KT PROB30 TEMPO 0207/0214 27018G28KT", "TAF OODQ 010500Z 0106/0206 19013KT 8000 NSC PROB30 TEMPO 0121/0204 4000 BR BKN010", "TAF OOMS 011100Z 0112/0218 05010KT 8000 NSC BECMG 0116/0118 24008KT BECMG 0206/0208 33010KT SCT050 BECMG 0212/0214 06008KT BECMG 0216/0218 VRB02KT", "TAF OOSA 011140Z 0112/0218 19015KT 9999 BKN025 BECMG 0120/0122 VRB03KT BECMG 0204/0206 20015KT FEW025", "TAF OOSH 011100Z 0112/0218 07010KT 8000 NSC BECMG 0115/0117 VRB02KT BECMG 0206/0208 08010KT SCT050 BECMG 0213/0215 24010KT", "TAF OPBW 010945Z 0112/0206 05010KT 4000 FU SCT100 TN17/0201Z PROB30 TEMPO 0101/0105 00000KT 1500 BR FEW100", "TAF OPDG 010945Z 0112/0206 05010KT 5000 FU SCT100 TN17/0201Z PROB30 TEMPO 0200/0204 27020KT 2000 TSRA FEW030CB SCT040 OVC100", "TAF OPFA 010945Z 0112/0218 05004KT 4000 FU FEW040 SCT100 TX26/0209Z TN18/0201Z TEMPO 0200/0204 00000KT 1500 BR BECMG 0204/0207 36004KT 3000 FU SCT100 FM020700 05004KT 4000 FU SCT100", "TAF OPGD 010930Z 0112/0212 24010KT 5000 HZ SCT030 BECMG 0118/0120 27005KT 3000 FU SCT025 TEMPO 0200/0204 VRB03KT 2000 BR SCT020 FM020600 25010G20KT 6000 SCT030", "TAF OPIS 010945Z 0112/0218 31010KT 6000 FEW040 SCT100 TEMPO 0112/0115 12015G25KT 4000 -TSRA FEW030CB SCT040 BKN100 TEMPO 0200/0204 09006KT 2000 BR TEMPO 0206/0212 31008G18KT", "TAF OPKC 010930Z 0112/0218 25008G18KT 6000 SCT030 TEMPO 0201/0205 26008KT 4000 FU SCT020FM020600 25012G22KT 6000 FEW030", "TAF OPLA 011100Z 0112/0218 07010KT 4000 FU SCT040 BKN100 TX23/0210Z TN12/0201Z TEMPO 0112/0116 33015G35KT 2000 TSRA FEW030CB SCT040 BKN100 FM011800 05006KT 3000 FU FEW040 SCT100 TEMPO 0200/0204 VRB03KT 1500 BR FM020600 05010KT 4000 FU FEW040 SCT100", "TAF OPMT 010945Z 0112/0206 05010KT 4000 FU SCT100 TN16/0201Z PROB30 TEMPO 0200/0204 31020KT 2000 -TSRA FEW030CB SCT040 OVC100", "TAF OPNH 010930Z 0112/0218 18010KT 5000 HZ FEW030 SCT100 TEMPO 0201/0205 18005KT 3000 FU NSC FM020600 21010G20KT 6000 NSC", "TAF OPPS 010930Z 0112/0218 13008KT 5000 HZ SCT040 BKN100 TEMPO 0121/0124 18008KT 4000 VCTS FEW035CB BECMG 0204/0206 05006KT 5000 HZ FEW040 SCT060 BKN100 TEMPO 0214/0218 13008KT 4000 TSRA FEW035CB", "TAF OPRK 010945Z 0112/0206 05010KT 5000 FU SCT100 TN17/0201Z", "TAF OPSK 010930Z 0112/0212 14005KT 4000 HZ FEW030 SCT100 TEMPO 0201/0205 00000KT 3000 HZ NSC FM020600 27008KT 5000 HZ NSC", "TAF OPST 010945Z 0112/0218 05008KT 4000 FU SCT040 SCT100 TX19/0210Z TN14/0201Z TEMPO 0112/0118 05015G25KT 2500 TSRA FEW030CB SCT040 BKN100", "TAF ORBI 011100Z 0112/0212 32010KT CAVOK", "TAF ORER 011100Z 0112/0212 24007KT 7000 SCT035 SCT090 BECMG 0116/0118 03004KT NSC BECMG 0121/0123 VRB02KT", "TAF ORMM 011000Z 0112/0212 28015KT 8000 NSC TEMPO 0112/0118 30020G30KT 5000 BLDU TEMPO 0202/0210 28008KT 6000 ", "TAF ORSU 011100Z 0112/0212 25012KT 8000 BKN040 BECMG 0116/0118 30005KT NSC PROB30 0200/0203 VRB02KT 2000 BR BECMG 0206/0208 26015KT 9999 SCT045 SCT100", "OSAP 011100Z 0112/0212 33012KT 9999 SCT030 BECMG 0121/0124 03010KT CAVOK BECMG 0206/0208 33010KT 9999 FEW030", "OSDI 011100Z 0112/0218 20015G25KT 9999 FEW030 BECMG 0120/0122 26015KT CAVOK PROB30 TEMPO 0201/0206 VRB03KT 3000 BR", "OSLK 011100Z 0112/0212 25012KT 9999 SCT030 TEMPO 0120/0206 20012G25KT 7000 TSSHRA FEW026 SCT030 BKN100", "TAF OTBD 011102Z 0112/0218 33018KT 9000", "TAF OTBH 010800Z 0108/0214 33020G30KT 8000 BLDU FEW250 510002 QNH2988INS BECMG 0109/0110 34025G35KT 5000 BLDU FEW250 510003 QNH2986INS BECMG 0115/0116 34015G25KT 8000 BLDU FEW250 QNH2989INS BECMG 0118/0119 34010G20KT 8000 BLDU FEW250 QNH2991INS BECMG 0203/0204 34015G25KT 8000 BLDU SKC QNH2990INS BECMG 0205/0206 34020G30KT 8000 BLDU SKC 510002 QNH2986INS TX28/0110Z TN17/0203Z", "TAF OTHH 010500Z 0106/0212 33021KT CAVOK PROB30 TEMPO 0109/0115 6000 NSC PROB30 TEMPO 0206/0212 7000 NSC", "TAF OYAA 0106/0212 13015KT 9999 SCT020 TEMPO 0111/0116 FEW035CB SCT100 BECMG 0118/0120 07010KT BECMG 0206/0208 13015KT", "PAAQ 011124Z 0112/0212 03004KT P6SM FEW100", "PABE 011126Z 0112/0212 24009KT P6SM SCT015 OVC025 FM012100 21018G28KT P6SM OVC030 FM020300 22020G30KT 2SM -SN BR BKN007 OVC015", "TAF AMD PABI 010609Z 0106/0212 28012KT 9000 -SN BKN020 620206 QNH2956INS BECMG 0123/0124 29009KT 9999 NSW BKN030 620302 QNH2988INS BECMG 0202/0203 VRB06KT 9999 SCT030 QNH2987INS TXM07/0203Z TNM15/0206Z LAST NO AMDS AFT 0106 NEXT 0314", "PABR 011126Z 0112/0212 VRB03KT 3SM BR OVC003 FM012100 12004KT 6SM BR OVC007 FM020300 11004KT P6SM OVC015", "PABT 011126Z 0112/0212 15005KT P6SM FEW035 SCT050 BKN100 FM011500 VRB04KT P6SM SCT035 OVC050 FM020300 VRB04KT P6SM VCSH BKN035 OVC050 FM020600 VRB04KT P6SM -SHSN SCT015 BKN025 OVC035", "PACD 011124Z 0112/0212 30011KT P6SM SCT025 OVC035 TEMPO 0112/0115 OVC025 FM011500 29009KT P6SM BKN050 FM020000 16011KT P6SM SCT080 FM021000 17012KT 5SM -RASN BR SCT015 OVC025", "PACV 011120Z 0112/0212 VRB03KT P6SM FEW100 BKN200", "PADL 011126Z 0112/0212 29007KT P6SM SKC FM020000 20012KT P6SM BKN025", "PADQ 011120Z 0112/0212 30018G35KT P6SM SKC FM020200 28014G22KT P6SM SKC FM020700 27010KT P6SM SKC", "PADU 011124Z 0112/0212 17006KT P6SM SCT025 OVC040 FM020100 12012KT 6SM -RA BR SCT015 OVC025 FM020400 14014G22KT 3SM -RA BR SCT007 OVC015 FM020800 14015G25KT 3SM -RA BR OVC007", "TAF PAED 010500Z 0105/0211 VRB06KT 9999 SCT060 BKN100 BKN180 QNH2944INS BECMG 0113/0114 01009KT 9999 FEW060 SCT180 510204 QNH2963INS BECMG 0121/0122 24009KT 9999 SKC QNH2985INS BECMG 0205/0206 VRB06KT 9999 SCT150 QNH2997INS TX02/0200Z TNM04/0115Z", "TAF PAEI 010600Z 0106/0212 VRB06KT 8000 -SN BKN020 OVC040 620207 QNH2962INS BECMG 0111/0112 VRB06KT 9999 NSW SCT020 BKN040 QNH2971INS BECMG 0119/0120 27012KT 9999 BKN040 OVC100 QNH2987INS BECMG 0202/0203 17008KT 9000 -SN BR BKN020 620207 QNH2993INS TXM10/0106Z TNM13/0115Z", "PAEN 011124Z 0112/0212 36010KT P6SM OVC080 FM020500 19006KT P6SM SKC", "PAFA 011126Z 0112/0218 VRB04KT P6SM FEW050 SCT100 BKN200 FM020000 VRB04KT P6SM FEW035 SCT050 OVC100 FM020600 VRB04KT P6SM VCSH BKN035 BKN050 OVC100 FM021200 VRB04KT 4SM -SN BKN025 OVC035", "TAF PAFB 010600Z 0106/0212 25005KT 9999 BKN040 BKN080 620406 QNH2964INS BECMG 0111/0112 25009KT 9999 FEW030 BKN080 620802 QNH2974INS BECMG 0121/0122 VRB06KT 9999 SCT030 QNH2993INS BECMG 0205/0206 14005KT 9999 SCT025 BKN050 620505 QNH2992INS BECMG 0209/0210 14005KT 6000 -SN BKN025 OVC050 620258 QNH2991INS TXM03/0200Z TNM11/0115Z", "PAGA 011126Z 0112/0212 VRB04KT P6SM FEW050 SCT100 BKN200 FM011500 18010KT P6SM SCT035 BKN050 OVC100 FM011800 18012G18KT P6SM BKN035 OVC050 FM020000 18012G18KT 6SM -SN OVC025 FM020300 21012KT P6SM VCSH OVC025 AMD NOT SKED", "PAGK 011120Z 0112/0212 31007KT P6SM SCT070 BKN150", "PAGS 010521Z 0106/0206 13010KT P6SM -SHRA SCT025 BKN035 OVC050 TEMPO 0110/0114 14014G20KT 5SM -SHRA OVC025 FM012000 25005KT P6SM VCSH BKN050 AMD LTD TO CLD VIS AND WIND", "PAGY 010804Z 0108/0206 03004KT P6SM VCSH BKN009 OVC070 FM011200 03004KT P6SM VCSH SCT009 OVC060 FM011800 21008KT P6SM VCSH OVC060 FM012100 21012KT P6SM OVC060 FM020400 03003KT P6SM BKN060 AMD LTD TO CLD VIS AND WIND", "PAHN 010808Z 0108/0206 11007KT P6SM -SHRA SCT005 OVC015 TEMPO 0108/0112 6SM -SHRA BR OVC005 FM011500 12009KT P6SM VCSH SCT010 BKN025 OVC040 FM012000 14008KT P6SM OVC060 FM020400 32005KT P6SM BKN060 AMD LTD TO CLD VIS AND WIND", "PAHO 011124Z 0112/0212 35007KT P6SM FEW060 BKN080 FM020200 27010KT P6SM SKC FM020500 26015KT P6SM SKC", "PAIL 011126Z 0112/0212 30012G20KT P6SM FEW050 FM011800 29009KT P6SM SKC FM020400 22011KT 4SM -SN BR OVC025", "PAJN 010521Z 0106/0206 11014KT P6SM -SHRA FEW020 BKN035 OVC050 FM011200 11010KT P6SM -SHRA BKN035 OVC050 TEMPO 0112/0116 5SM -SHRA OVC025 FM011800 12007KT P6SM VCSH OVC050", "PAKN 011126Z 0112/0212 29011KT P6SM SCT060 FM020200 22010KT P6SM OVC025", "PAKT 010604Z 0106/0206 14008KT 6SM -SHRA SCT010 BKN020 OVC035 TEMPO 0106/0110 5SM -SHRA BR BKN006 OVC015 FM011800 14006KT P6SM VCSH SCT020 OVC040 AMD LTD TO CLD VIS AND WIND 0106/0115", "PAKW 010618Z 0106/0206 16008KT 6SM -SHRA BR SCT010 OVC035 TEMPO 0106/0110 16010G18KT 5SM -SHRA BKN010 OVC020 FM011600 17003KT P6SM VCSH SCT025 OVC050 AMD LTD TO CLD VIS AND WIND", "PAMC 011126Z 0112/0212 VRB06KT P6SM VCSH BKN035 OVC050 FM020300 21010KT 4SM -SHSN BKN015 OVC025 FM020600 21010KT 6SM -SHSN BKN015 OVC025", "PANC 011124Z 0112/0218 36011KT P6SM BKN110 FM011500 36009KT P6SM SCT110 FM012000 36008KT P6SM SKC", "PAOM 011126Z 0112/0212 VRB06KT 6SM -SN BR SCT010 OVC025 FM011500 18020KT 4SM -SN BR BKN015 OVC025 FM011800 21020G30KT 1 1/2SM -SHSN BLSN OVC015 FM020000 24020G28KT 4SM -SHSN BLSN OVC015 FM020300 24020KT 6SM -SHSN BLSN OVC015", "PAOR 011126Z 0112/0212 32006KT P6SM VCSH BKN035 OVC050", "PAOT 011126Z 0112/0212 12010KT P6SM VCSH OVC003 FM012100 12018KT 1 1/2SM -SN BR BKN015 OVC025 FM020000 15018KT 4SM -SN BR BKN015 FM020300 18012KT P6SM -SHSN BKN025 BKN035 OVC050 FM020600 21012KT P6SM VCSH BKN035 BKN050 OVC100", "PAPG 010521Z 0106/0206 VRB04KT 6SM -SHRA BR SCT015 BKN025 OVC035 TEMPO 0106/0110 5SM -SHRA BKN015 OVC025 FM011200 VRB03KT P6SM VCSH SCT025 OVC050 AMD LTD TO CLD VIS AND WIND 0106/0115", "PAQT 011126Z 0112/0212 24010KT 1/4SM FZFG VV003 FM011800 21006KT 1 1/2SM HZ OVC005 FM012100 09009KT P6SM OVC100", "PASC 011126Z 0112/0212 24010KT P6SM VCFG OVC003 FM011500 21005KT 6SM BR OVC025 FM012100 09010KT P6SM OVC100", "PASD 011124Z 0112/0212 32011KT P6SM VCSH SCT020 BKN035 FM011600 32010KT P6SM BKN050 FM021000 19007KT P6SM VCSH SCT025 BKN040", "PASI 010542Z 0106/0206 19009KT 6SM -SHRA SCT015 BKN020 OVC035 TEMPO 0106/0110 22014G24KT 4SM -SHRA BKN015 OVC025 FM011800 13007KT P6SM VCSH BKN050", "PASN 011124Z 0112/0212 22011KT P6SM OVC035 FM012100 19011KT P6SM SCT015 OVC025 FM020700 15007KT P6SM SCT007 OVC015", "TAF AMD PASY 011031Z 0110/0212 06030G40KT 5000 -RA OVC009 620099 520006 QNH2963INS TEMPO 0110/0114 3200 RA OVC012 BECMG 0122/0123 06025G35KT 8000 -RA OVC015 620153 520003 QNH2955INS BECMG 0205/0206 08015G25KT 9000 -RA OVC015 620153 QNH2954INS TX04/0200Z TN01/0113Z", "PATA 011126Z 0112/0212 32006KT P6SM SCT035 BKN050 OVC100 FM020000 VRB04KT P6SM VCSH BKN035 OVC050 FM020300 VRB04KT P6SM -SHSN SCT015 BKN025 OVC035", "PATK 011124Z 0112/0212 34006KT P6SM FEW100", "PAUN 011126Z 0112/0212 21015KT 6SM -SN BR BKN012 OVC018 FM011800 18018KT 4SM -SN BR BKN012 OVC018 FM012100 21020KT 1 1/2SM -SN BR OVC015 FM020300 24018KT 6SM -SN BR OVC015", "PAVD 011120Z 0112/0212 04008G16KT P6SM FEW100 BKN200 FM011900 06014G26KT P6SM BKN200 FM020400 09006KT P6SM SKC AMD LTD TO CLD VIS AND WIND TIL 011800", "PAWG 010521Z 0106/0206 14007KT 6SM -SHRA SCT025 OVC035 TEMPO 0106/0110 5SM -SHRA BR SCT015 BKN025 OVC035 FM011800 13005KT P6SM VCSH SCT025 OVC050 AMD LTD TO CLD VIS AND WIND 0106/0115", "PAYA 010521Z 0106/0206 VRB05KT P6SM VCSH BKN050 AMD NOT SKED", "PGRO 010536Z 0106/0206 09011KT P6SM VCSH SCT015 SCT060 TEMPO 0106/0109 BKN015", "PGSN 010536Z 0106/0206 11012G18KT P6SM VCSH SCT020 SCT060 TEMPO 0106/0109 BKN018 FM011000 09007KT P6SM VCSH SCT020 SCT060 FM012200 09012G18KT P6SM VCSH SCT020 SCT060", "TAF PGUA 011000Z 0110/0216 12009KT 9999 SCT014 QNH2980INS TEMPO 0116/0202 12010G15KT 6000 -SHRA BKN014 TX29/0202Z TN25/0118Z", "PGUM 010536Z 0106/0212 09012G18KT P6SM VCSH SCT020 SCT050 FM011000 09006KT P6SM VCSH SCT022 SCT050 FM012200 10012G17KT P6SM VCSH SCT022 SCT050", "PGWT 010536Z 0106/0206 10012KT P6SM VCSH SCT018 SCT060 TEMPO 0106/0109 BKN018", "TAF PHHI 010700Z 0107/0213 15009KT 9999 FEW015 SCT025 SCT040 BKN060 QNH3000INS TEMPO 0108/0110 6000 -SHRA SCT010 BKN015 BKN025 TEMPO 0110/0114 3200 -TSRA SCT007 BKN010CB BKN020 BECMG 0120/0121 09012KT 9999 SCT025 SCT035 SCT060 QNH3003INS TEMPO 0123/0204 10012G18KT 4800 -TSRA SCT007 BKN015CB BKN030 TX25/0123Z TN19/0115Z LAST NO AMDS AFT 0107 NEXT 0315", "PHJH 312344Z 0100/0124 27006KT P6SM FEW030 BKN045 FM010500 VRB05KT P6SM FEW030 FEW050 FM012100 07010KT P6SM FEW030 SCT045", "PHJR 010539Z 0106/0206 03003KT P6SM VCSH SCT025 BKN035 FM012100 12010KT P6SM VCSH SCT035 BKN045 FM020500 08005KT P6SM VCSH SCT025 BKN035", "PHKO 010539Z 0106/0206 09005KT P6SM FEW035 SCT050 FM012100 22010KT P6SM VCSH SCT030 BKN050 FM020500 11007KT P6SM FEW035 SCT050", "PHLI 011110Z 0111/0206 VRB05KT P6SM VCSH SCT015 BKN025 TEMPO 0111/0115 3SM SHRA OVC010 FM012100 12010KT P6SM VCSH SCT025 BKN045 FM020500 VRB05KT P6SM VCSH SCT020 BKN035", "PHMK 010539Z 0106/0206 VRB04KT P6SM SCT030 FM012100 06010KT P6SM FEW030 BKN045 FM020500 VRB04KT P6SM FEW035", "TAF PHNG 3121/0121 11010KT 9999 FEW030 QNH2988INS TEMPO 3121/0103 10008G18KT 8000 -SHRA SCT025 BKN045 FM010600 VRB06KT 9999 SCT030 BKN045 QNH2990INS T29/3123Z T22/0115Z", "PHNL 010842Z 0109/0212 05004KT P6SM VCSH FEW020 SCT050 FM012200 12009KT P6SM VCSH SCT025 BKN050 FM020600 04006KT P6SM VCSH SCT025 BKN045", "PHNY 010539Z 0106/0206 09003KT P6SM FEW020 FM012200 25009KT P6SM VCSH SCT025 BKN035 FM020500 09003KT P6SM FEW020 AMD NOT SKED", "PHOG 010539Z 0106/0206 11005KT P6SM FEW030 FM012100 06012KT P6SM FEW030 SCT045 FM020500 08008KT P6SM FEW030", "PHTO 010539Z 0106/0206 24005KT P6SM VCSH SCT020 BKN035 FM012000 12010KT P6SM VCSH FEW025 BKN050 FM020500 24005KT P6SM VCSH SCT020 BKN035", "PKMJ 010536Z 0106/0206 11008KT 6SM -SHRA VCTS SCT015CB SCT025 BKN045 TEMPO 0106/0109 VRB15G23KT 3SM TSRA SCT010 BKN015CB FM011200 11008KT P6SM VCSH SCT015 SCT045", "PKWA 010536Z 0106/0206 08011KT P6SM VCSH SCT015 SCT025 BKN045 TEMPO 0106/0109 VRB14G20KT 4SM -TSRA SCT010 BKN015CB", "TAF PLCH 011107Z 0112/0212 10008KT 9999 FEW020 PROB40 TEMPO 0118/0206 5000 SHRA BKN016", "PMDY 010539Z 0106/0206 34012KT P6SM FEW030 SCT035 FM011200 VRB05KT P6SM FEW020 SCT030 AMD NOT SKED", "PTKK 010716Z 0107/0206 10008KT P6SM VCSH SCT015 SCT060 BKN120 TEMPO 0109/0112 5SM -TSRA BKN015CB", "PTPN 010910Z 0109/0206 10008KT P6SM VCSH SCT015 SCT060 BKN120 TEMPO 0109/0112 5SM -TSRA BKN015CB", "PTRO 010536Z 0106/0206 VRB06KT 6SM -SHRA VCTS SCT015CB BKN060 BKN120 TEMPO 0106/0109 VRB10G18KT 4SM -TSRA BKN015CB", "PTSA 010536Z 0106/0206 05008KT P6SM VCSH SCT020 SCT060 BKN120 TEMPO 0106/0109 5SM -TSRA BKN020CB", "PTYA 010536Z 0106/0206 07007KT P6SM VCSH SCT015 SCT060 BKN120", "TAF PWAK 010600Z 0106/0212 05006KT 9999 SCT040 QNH2976INS TX31/0206Z TN22/0116Z FOR MIL USE ONLY", "TAF RCFN 011100Z 0112/0212 36005KT 9999 FEW015 BKN032 TEMPO 0112/0114 5000 RA FEW006 BKN018 TEMPO 0122/0204 01010KT 5000 RA FEW006 BKN016 TEMPO 0206/0212 02013KT", "TAF RCKH 011100Z 0112/0218 03005KT 9999 FEW015 BKN032 TEMPO 0118/0124 5000 HZ BECMG 0200/0202 33008KT BECMG 0212/0214 03005KT", "TAF RCMQ 011100Z 0112/0212 34004KT 2400 BR FEW006 BKN030 TX26/0205Z TN18/0120Z BECMG 0113/0116 5000 BR TEMPO 0118/0123 7000 FEW010 BKN060 BECMG 0200/0203 35010KT 9999 FEW010 BKN060 TEMPO 0205/0210 FEW010 SCT060", "TAF RCNN 011100Z 0112/0212 02008KT 9999 FEW010 SCT025 BKN050 TX30/0205Z TN19/0120Z BECMG 0113/0116 34004KT TEMPO 0118/0123 6000 BECMG 0201/0204 02008KT FEW012 BKN060 TEMPO 0206/0211 FEW012 SCT080", "TAF RCSS 011100Z 0112/0212 10005KT 9999 FEW010 BKN025 TEMPO 0112/0118 5000 RA SCT006 BKN012 BECMG 0200/0202 FEW015 BKN032 TEMPO 0203/0209 09013KT FEW010 BKN018", "TAF RCTP 011100Z 0112/0218 02005KT 9999 FEW006 BKN012 TEMPO 0112/0118 5000 RA FEW010 BKN025 TEMPO 0120/0124 10005KT 4000 BR FEW005 BKN009 BECMG 0202/0204 03010KT FEW015 BKN032 TEMPO 0206/0212 04018KT FEW010 BKN020", "TAF RJAA 011105Z 0112/0218 01006KT 9999 FEW020 BECMG 0203/0206 04016KT", "TAF RJAH 011105Z 0112/0218 02005KT 9999 FEW030 BECMG 0122/0200 05018KT BECMG 0212/0215 02008KT", "TAF RJBB 011105Z 0112/0218 05010KT 9999 FEW025", "TAF RJCB 011105Z 0112/0218 01005KT 9999 FEW010 BKN020 BECMG 0203/0206 24005KT BECMG 0212/0215 32005KT", "TAF RJCC 011105Z 0112/0218 35014KT 9999 FEW008 BKN015 BECMG 0209/0212 10005KT BECMG 0215/0218 36005KT", "TAF RJCH 011108Z 0112/0218 30006KT 9999 FEW040 BECMG 0116/0118 02005KT BECMG 0200/0203 12010KT BECMG 0209/0212 04005KT", "TAF RJCK 011108Z 0112/0218 36010KT 9999 FEW008 BKN015", "TAF RJCM 011108Z 0112/0218 36007KT 9999 FEW005 BKN015 TEMPO 0112/0118 FEW003 BKN005 TEMPO 0118/0121 FEW004 BKN008 BECMG 0212/0215 20004KT TEMPO 0215/0218 2000 BR", "TAF RJEC 011105Z 0112/0218 33005KT 9999 FEW006 BKN015 TEMPO 0112/0115 FEW005 BKN008 TEMPO 0115/0200 3000 BR FEW003 BKN006 BECMG 0209/0212 17005KT", "TAF RJFF 011105Z 0112/0218 15004KT 9999 FEW040 BECMG 0122/0200 36012KT BECMG 0212/0215 15004KT", "TAF RJFK 011107Z 0112/0218 09005KT 9999 FEW020 BECMG 0114/0116 33006KT BECMG 0200/0203 10010KT BECMG 0209/0212 35006KT", "TAF RJFM 011107Z 0112/0218 01008KT 9999 FEW020 SCT040 BECMG 0112/0114 32005KT BECMG 0121/0123 03012KT BECMG 0212/0215 32005KT", "TAF RJFO 011107Z 0112/0218 26004KT CAVOK BECMG 0120/0122 01008KT", "TAF RJFR 011105Z 0112/0218 34007KT 9999 FEW030 BECMG 0118/0120 11005KT BECMG 0203/0206 36013KT", "TAF RJFS 011106Z 0112/0218 03007KT CAVOK BECMG 0203/0206 35012KT BECMG 0209/0212 02007KT", "TAF RJFT 011106Z 0112/0218 06006KT CAVOK BECMG 0200/0203 06017KT BECMG 0209/0212 06006KT", "TAF RJFU 011106Z 0112/0218 35008KT CAVOK BECMG 0112/0114 14004KT BECMG 0119/0121 34006KT BECMG 0203/0206 34017KT BECMG 0212/0215 02007KT", "TAF RJGG 011105Z 0112/0218 12008KT 9999 FEW020 BKN030 BECMG 0113/0115 01005KT BECMG 0200/0203 23008KT", "TAF RJNK 011107Z 0112/0218 05008KT 9999 FEW030", "TAF RJNS 011107Z 0112/0218 04005KT 9999 FEW020 BECMG 0113/0115 36004KT BECMG 0120/0122 06010KT", "TAF RJNT 011105Z 0112/0218 22005KT 9999 FEW030 BECMG 0122/0200 01014KT BECMG 0212/0215 20004KT", "TAF RJOA 011105Z 0112/0218 06006KT CAVOK BECMG 0116/0118 32004KT BECMG 0122/0200 12007KT BECMG 0206/0209 02010KT", "TAF RJOB 011105Z 0112/0218 01005KT 9999 FEW035", "TAF RJOC 011105Z 0112/0218 07014KT 9999 FEW025", "TAF RJOH 011105Z 0112/0218 07013KT 9999 FEW025", "TAF AMD RJOI 0105/0203 16006KT 9999 BKN200 QNH2995INS FM010600 16008KT 9999 BKN200 QNH2989INS FM010900 02006KT 9999 BKN180 QNH2987INS BECMG 0115/0116 34006KT 9999 BKN160 QNH2992INS FM012100 35006KT 9999 FEW250 QNH2994INS T20/0106Z T13/0121Z AMD 0550", "TAF RJOK 011105Z 0112/0218 35008KT 9999 FEW035 BECMG 0200/0203 19006KT BECMG 0206/0209 36012KT", "TAF RJOM 011105Z 0112/0218 12005KT CAVOK BECMG 0122/0200 36014KT BECMG 0206/0209 06008KT", "TAF RJOO 011105Z 0112/0218 34008KT 9999 FEW030", "TAF RJOT 011105Z 0112/0218 15006KT CAVOK BECMG 0203/0206 06010KT BECMG 0212/0215 15007KT", "TAF RJSA 011105Z 0112/0218 21004KT 9999 FEW010 SCT020 BECMG 0121/0123 04005KT BECMG 0212/0215 21005KT", "TAF RJSF 011105Z 0112/0218 14005KT 9999 FEW020 BECMG 0112/0114 36010KT", "TAF RJSI 011112Z 0112/0218 01004KT 9999 FEW030 BECMG 0209/0212 19010KT BECMG 0215/0218 01004KT", "TAF RJSK 011105Z 0112/0218 31008KT 6000 FEW010 BECMG 0113/0115 14004KT TEMPO 0115/0122 1500 BR FEW001 BKN003 BECMG 0203/0206 29010KT BECMG 0209/0212 14005KT", "TAF RJSN 011105Z 0112/0218 01012KT 9999 FEW030 BECMG 0116/0118 08004KT BECMG 0200/0203 01012KT BECMG 0209/0212 10006KT", "TAF RJSS 011112Z 0112/0218 10008KT 9999 FEW030 BECMG 0113/0115 34004KT BECMG 0200/0203 10010KT BECMG 0212/0215 34004KT", "TAF RJTT 011105Z 0112/0218 01008KT 9999 FEW020 BKN030 BECMG 0206/0209 02018KT", "TAF RJTY 010500Z 0105/0211 VRB06KT 9999 FEW200 QNH2999INS TEMPO 0105/0108 05010G15KT SCT040 BECMG 0108/0109 VRB06KT 9999 SCT030 QNH3000INS BECMG 0202/0203 05010G15KT 9999 BKN030 QNH3004INS TX21/0105Z TN08/0118Z", "TAF RKJB 011100Z 0112/0218 11005KT 6000 NSC TN06/0121Z TX21/0205Z TEMPO 0115/0121 4000 BR BECMG 0202/0203 33007KT CAVOK BECMG 0211/0212 11005KT 6000 NSC", "TAF RKNN 011100Z 0112/0218 24006KT 9999 FEW040 SCT250 WND 09008KT 0200/0210 TN06/0121Z TX16/0206Z ", "TAF RKNW 011100Z 0112/0218 03006KT 9999 SCT200 TN01/0121Z TX26/0206Z ", "TAF RKNY 011100Z 0112/0218 14006KT 6000 NSC TN08/0120Z TX16/0205Z BECMG 0117/0118 33006KT 3000 BR SCT005 BECMG 0123/0201 03006KT 6000 NSW NSC BECMG 0203/0205 10010KT BECMG 0208/0210 16007KT BECMG 0216/0218 33007KT", "TAF RKPC 011100Z 0112/0218 09009KT 7000 NSC TN12/0120Z TX17/0205Z BECMG 0117/0118 FEW030 BKN090 BECMG 0200/0201 07017G28KT CAVOK", "TAF RKPK 011100Z 0112/0218 06006KT CAVOK TN08/0121Z TX21/0206Z BECMG 0200/0201 06010KT", "TAF RKSG 011100Z 0111/0217 VRB06KT 9999 FEW090 QNH2998INS BECMG 0201/0202 10010G15KT 9999 SKC 510053 QNH3015INS BECMG 0214/0215 VRB06KT 9999 SKC QNH3022INS TX22/0206Z TN08/0120Z", "TAF RKSI 011100Z 0112/0218 32008KT 6000 NSC TN09/0121Z TX23/0205Z BECMG 0114/0116 13006KT BECMG 0202/0204 25007KT BECMG 0206/0208 31010KT BECMG 0210/0212 15007KT", "TAF RKSM 011100Z 0112/0218 18006KT 9999 SCT200 TN07/0122Z TX25/0206Z ", "TAF RKSO 010500Z 0105/0211 VRB06KT 8000 HZ SKC QNH2995INS BECMG 0201/0202 09012G18KT 9999 NSW SKC QNH3008INS BECMG 0209/0210 VRB06KT 9999 SKC QNH3010INS TX23/0106Z TN07/0121Z", "TAF RKSS 011100Z 0112/0218 30005KT 6000 NSC TN07/0121Z TX26/0205Z BECMG 0115/0117 10005KT", "TAF RKSW 011100Z 0112/0218 15006KT 9999 SCT200 TN06/0121Z TX23/0206Z ", "TAF RKTE 011100Z 0112/0218 18006KT 9999 SCT200 WND 09006KT 0201/0212 TN05/0121Z TX24/0206Z ", "TAF RKTI 011100Z 0112/0218 27006KT 9999 FEW030 SCT120 TN03/0121Z TX24/0206Z ", "TAF RKTN 011100Z 0112/0218 12006KT CAVOK TN05/0121Z TX23/0206Z", "TAF RKTP 011100Z 0112/0218 09006KT 9999 SCT030 TN04/0121Z TX26/0206Z ", "TAF RKTU 011100Z 0112/0218 27006KT CAVOK TN06/0121Z TX26/0206Z", "TAF RKTY 011100Z 0112/0218 10006KT 9999 SCT030 TN03/0121Z TX23/0206Z ", "TAF ROAH 011110Z 0112/0218 30015KT 9999 FEW020 SCT030 BECMG 0122/0200 36018KT", "TAF RODN 010800Z 0108/0214 28010G15KT 9999 SCT015 BKN030 BKN150 QNH2978INS TEMPO 0108/0113 8000 -SHRA BR BKN015 BECMG 0112/0113 28009KT 9999 BKN030 BKN150 QNH2976INS BECMG 0119/0120 35012G18KT 9999 SCT030 QNH2980INS TX23/0203Z TN18/0121Z", "TAF ROIG 011110Z 0112/0218 36005KT 9999 FEW010 BKN020", "TAF RPLB 011100Z 0112/0212 09005KT 9999 FEW020 TX35/0206Z TN224/0121Z TEMPO 0112/0118 22010KT SCT020", "TAF RPLC 011100Z 0112/0218 09006KT 9999 SCT020 BK300 TX36/0206Z TN25/0121Z TEMPO 0112/0118 25008KT SCT020 BKN100", "TAF RPLI 011100Z 0112/0212 35008KT 9999 FEW018 TEMPO 0115/0121 19007KT TEMPO 0203/0209 35020KT", "TAF RPLL 011100Z 0112/0218 10008KT 9999 FEW025 TX35/0205Z TN27/0121Z TEMPO 0112/0118 13015KT TEMPO 0118/0124 04004KT TEMPO 0209/0215 VCSH FEW023CB SCT100", "TAF RPMD 011100Z 0112/0212 36010KT 9999 FEW016 BKN090 TEMPO 0112/0118 6000 -TSRA FEW015CB SCT016 OVC080 TEMPO 0206/0212 -SHRA SCT015CB BKN090", "TAF RPMR 011100Z 0112/0212 35010KT 9999 FEW018 BKN080 TEMPO 0112/0118 6000 -TSRA SCT017CB OVC080 TEMPO 0206/0212 19006KT -SHRA SCT017CB BKN080", "TAF RPMZ 011100Z 0112/0212 27007KT 9999 FEW017 BKN090 TEMPO 0112/0118 VRB05KT -TSRA FEW016CB SCT017 OVC090 TEMPO 0203/0209 6000 -TSRA SCT016CB OVC080", "TAF RPVD 011100Z 0112/0212 04010KT 9999 FEW015 SCT070 TEMPO 0112/0118 33005KT VCSH FEW014CB SCT015 BKN070", "TAF RPVM 011100Z 0112/0218 04007KT 9999 FEW020 BKN300 TEMPO 0112/0118 8000 -SHRA FEW018CB BKN100 TEMPO 0118/0124 34005KT FEW020 BKN100", "TAF RPVP 011100Z 0112/0212 09010KT 9999 FEW019 BKN080 TEMPO 0112/0118 VCSH FEW017CB SCT019 OVC080 TEMPO 0118/0124 30008KT", "TAF SAAR 011100Z 0112/0212 09010KT CAVOK TX23/0119Z TN11/0112Z BECMG 0113/0116 05010KT BECMG 0201/0204 9999 BKN025 ", "TAF SABE 011100Z 0112/0212 19010KT CAVOK TX21/0212Z TN13/0112Z BECMG 0113/0116 07010KT BECMG 0203/0206 36010KT 9999 SCT030 ", "TAF SACO 011100Z 0112/0212 02010KT CAVOK TX24/0118Z TN15/0210Z TEMPO 0115/0118 02015KT BECMG 0121/0123 36005KT 9999 BKN035", "TAF SADF 011100Z 0112/0212 18010KT CAVOK TX22/0118Z TN14/0210Z BECMG 0112/0114 9999 SCT030 BECMG 0114/0116 05010KT BECMG 0205/0207 36005KT", "TAF SAEZ 011100Z 0112/0212 VRB03KT CAVOK TX21/0118Z TN09/0112Z BECMG 0115/0118 36005KT", "TAF SAME 011100Z 0112/0212 VRB03KT CAVOK TX25/0119Z TN09/0209Z BECMG 0114/0116 05010KT BECMG 0118/0120 VRB03KT BECMG 0202/0204 20005KT", "TAF SANR 312300Z 0100/0124 11005KT 9999 BKN025 TX24/0116Z TN15/0110Z BECMG 0106/0109 BKN040 BECMG 0113/0116 BKN020", "TAF SANT 011100Z 0112/0212 20005KT 7000 BKN005 OVC020 TX23/0118Z TN16/0210Z BECMG 0115/0118 9999 NSW BKN020", "TAF COR SARE 011100Z 0112/0212 14010KT 9999 SCT020 TX28/0118Z TN15/0209Z BECMG 0120/0122 CAVOK PROB40 0208/0211 1500 BR NSC", "TAF COR SARF 011100Z 0112/0212 16010KT 9999 BKN020 TX28/0118Z TN16/0209Z PROB30 TEMPO 8000 RA BECMG 0120/0122 CAVOK PROB40 0208/0211 1500 BR NSC", "TAF COR SARI 011100Z 0112/0212 18005KT CAVOK TX27/0118Z TN17/0209Z PROB40 0208/0212 0500 FG NSC", "TAF COR SARP 011100Z 0112/0212 14010KT CAVOK TX27/0118Z TN16/0209Z PROB30 0208/0211 1500 BR NSC", "TAF SASA 011100Z 0112/0212 VRB03KT 9999 OVC020 TX23/0118Z TN17/0210Z TEMPO 0116/0119 05010KT 9999 BKN025 BECMG 0120/0123 07005KT 5000 -RA DZ OVC007", "TAF SASJ 011100Z 0112/0212 VRB03KT 5000 RADZ BKN015 OVC025 TX24/0118Z TN19/0210Z BECMG 0114/0117 8000 OVC025 BECMG 0201/0204 OVC010", "TAF SAVC 010500Z 0106/0206 34020KT CAVOK TX24/0120Z TN10/0206Z TEMPO 0108/0115 29030G45KT BLDU BECMG 0117/0119 25025KT BECMG 0202/0204 27010KT", "TAF SAVT 010500Z 0106/0206 36025G35KT CAVOK TX28/0120Z TN12/0110Z BECMG 0112/0114 28020KT BECMG 0122/0124 23015KT", "TAF SAWE 010500Z 0106/0206 VRB05KT 9999 SCT030 BKN040 TX12/0119Z TN03/0110Z BECMG 0108/0110 BKN020 BKN030 TEMPO 0110/0115 SHRA BECMG 0116/0118 25020KT SCT020 SCT040 BECMG 0123/0201 VRB05KT", "TAF SAWG 010500Z 0106/0206 07010KT 9999 SCT030 BKN060 TX17/0119Z TN05/0110Z BECMG 0108/0110 27010KT BKN020 BKN030 TEMPO 0108/0113 7000 -SHRA BECMG 0114/0116 27020G35KT SCT030 SCT040 BECMG 0122/0124 27015KT", "TAF SAWH 010500Z 0106/0206 VRB05KT 9999 BKN030 BKN040 TX10/0118Z TN03/0205Z TEMPO 0106/0112 34018KT BKN025 OVC040 BECMG 0116/0118 23015KT BKN020", "TAF SAZM 011100Z 0112/0212 27010KT CAVOK TX20/0118Z TN11/0210Z BECMG 0115/0117 05015KT 9999 SCT020 SCT100 PROB30 TEMPO 0119/0201 05015G25KT BECMG 0203/0205 34015KT", "TAF SAZN 011100Z 0112/0212 VRB03KT CAVOK TX26/0119Z TN06/0112Z BECMG 0116/0119 23010KT 9999 SCT040 BECMG 0206/0208 VRB03KT ", "TAF SAZS 011100Z 0112/0212 31015G30KT 9999 SCT035 SCT045 TX17/0119Z TN04/0209Z BECMG 0121/0124 VRB03KT 9999 SCT020 BKN030 BECMG 0204/0207 5000 BR FEW010 SCT015 BKN025 ", "TAF SBAC 010900Z 0112/0124 14010KT 9999 BKN020 TX29/0116Z TN26/0121Z BECMG 0115/0117 07010KT RMK PHD", "TAF SBAF 312100Z 0100/0112 25004KT 9999 SCT025 TN23/0106Z TX27/0112Z PROB40 0100/0103 8000 RA BECMG 0104/0106 SCT008 BECMG 0110/0112 CAVOK RMK PFP", "TAF SBAN 312100Z 0100/0112 15005KT 9999 SCT030 FEW040TCU TN19/0105Z TX24/0112Z BECMG 0103/0105 SCT004 RMK PFP", "TAF SBAR 010900Z 0112/0212 10010KT 9999 SCT023 TX30/0115Z TN26/0207Z RMK PHD", "TAF SBAT 312147Z 0100/0112 34005KT 8000 SCT023 TN22/0109Z TX26/0112Z BECMG 0106/0108 01005KT TEMPO 0108/0111 BKN010 RMK PHC", "TAF SBBE 010820Z 0112/0212 08007KT 8000 SCT017 BKN040 TX30/0116Z TN24/0209Z BECMG 0115/0117 36010KT BKN020 FEW030TCU TEMPO 0118/0122 04015KT 4000 TSRA BKN015 FEW025CB BECMG 0123/0201 08007KT 9999 SCT015 BKN040 BECMG 0204/0206 7000 DZ BKN015 PROB40 0207/0211 11010KT 4000 RA BR SCT010 OVC017 RMK PGB", "TAF SBBG 010900Z 0112/0124 20010KT CAVOK TX22/0115Z TN14/0123Z BECMG 0122/0124 09005KT RMK PEW", "TAF SBBI 312100Z 0100/0112 26005KT 9999 SCT006 SCT030 TX21/0100Z TN16/0107Z PROB40 0104/0110 1500 BR BKN004 RMK PFP", "TAF SBBR 010810Z 0112/0212 15007KT 9999 FEW045 TX31/0117Z TN18/0209Z BECMG 0113/0115 05005KT SCT045 TEMPO 0117/0122 25005KT TS SCT040 FEW045CB BECMG 0122/0124 00000KT CAVOK BECMG 0206/0208 20005KT PROB30 0209/0212 7000 RA BKN012 RMK PGN", "TAF SBBU 311730Z 0100/0112 23005KT 9999 FEW040 TN22/0108Z TX26/0111Z RMK PGL", "TAF SBBV 010820Z 0112/0212 09015KT CAVOK TX35/0119Z TN25/0209Z BECMG 0115/0117 11015KT 8000 SCT025 FEW040TCU BECMG 0120/0122 11010KT 9999 FEW035 BECMG 0200/0202 08010KT BECMG 0205/0207 06015KT CAVOK BECMG 0210/0212 10015KT RMK PGB", "TAF SBBW 312015Z 0100/0112 00000KT CAVOK TN23/0108Z TX28/0112Z RMK PGH", "TAF SBCB 010900Z 0112/0124 22010KT 9999 SCT020 TX29/0116Z TN25/0122Z RMK PHD", "TAF SBCF 010810Z 0112/0212 05005KT 9999 FEW020 TX31/0117Z TN18/0209Z BECMG 0113/0115 33005KT SCT040 TEMPO 0117/0122 25005KT TSRA BKN030 FEW040CB BECMG 0122/0124 18005KT FEW030 BECMG 0201/0203 15005KT CAVOK RMK PGN", "TAF SBCG 010810Z 0112/0212 15005KT 9999 FEW035 TX32/0117Z TN21/0209Z BECMG 0117/0119 SCT035 FEW045TCU PROB30 0119/0124 VCTS FEW035 FEW045CB BECMG 0200/0202 CAVOK BECMG 0203/0205 12005KT BECMG 0206/0208 09005KT RMK PGN", "TAF SBCJ 010820Z 0112/0124 06005KT 4000 DZ BR BKN007 OVC013 TN22/0112Z TX28/0118Z BECMG 0114/0116 09010KT 8000 NSW SCT020 FEW030TCU BECMG 0120/0122 03010KT 9999 FEW025 RMK PGB", "TAF SBCO 312100Z 0100/0112 20015KT 9999 SCT035 FEW040TCU TX23/0100Z TN14/0108Z PROB30 0100/0104 7000 SHRA BECMG 0106/0110 CAVOK RMK PFP", "TAF SBCP 010900Z 0112/0124 23010KT 9999 SCT020 TX33/0116Z TN25/0124Z BECMG 0114/0116 18010KT BECMG 0117/0119 15010KT RMK PHD", "TAF SBCR 010810Z 0112/0212 18005KT 9999 FEW020 TX34/0116Z TN23/0208Z BECMG 0114/0116 SCT025 PROB30 0117/0121 35005KT VCSH SCT030 FEW040TCU BECMG 0122/0124 00000KT CAVOK RMK PGN", "TAF SBCT 010900Z 0112/0212 25007KT 8000 SCT010 TX25/0118Z TN13/0209Z TEMPO 0116/0119 -RA SCT010 BKN025 BECMG 0120/0121 09008KT BKN008 BECMG 0123/0124 09010KT BKN004 BECMG 0203/0204 BKN008 BECMG 0207/0209 10006KT BKN015 RMK PFQ", "TAF SBCY 010820Z 0112/0212 14010KT 9999 FEW020 TX34/0117Z TN23/0209Z BECMG 0115/0117 17010KT CAVOK BECMG 0120/0122 22017KT 6000 TS BKN025 FEW030CB BECMG 0200/0201 18010KT 9999 NSW FEW025 BECMG 0205/0207 28007KT CAVOK BECMG 0209/0211 31007KT 8000 BKN020 RMK PGB", "TAF SBCZ 312147Z 0100/0124 21005KT 8000 SCT017 TN23/0110Z TX30/0118Z BECMG 0100/0102 18005KT BECMG 0106/0108 33005KT TEMPO 0108/0112 3600 BR BKN005 BECMG 0112/0115 BKN023 BECMG 0117/0119 SCT030 FEW035TCU TEMPO 0120/0123 24008KT TS BKN023 FEW030CB RMK PHC", "TAF SBDN 311730Z 0100/0112 20005KT CAVOK TN21/0108Z TX25/0111Z RMK PGL", "TAF SBEG 010820Z 0112/0212 08010KT 6000 TS BKN012 FEW023CB TX31/0117Z TN23/0209Z BECMG 0113/0115 05010KT 8000 NSW BKN020 FEW030TCU TEMPO 0117/0122 02010KT 5000 TSRA BKN017 FEW030CB BECMG 0123/0201 15007KT 9999 SCT020 FEW035TCU BECMG 0205/0207 7000 SCT015 PROB40 0208/0212 04010KT 4000 SHRA BKN013 FEW023TCU RMK PGB", "TAF SBFI 010900Z 0112/0212 18007KT 9999 SCT030 TX30/0116Z TN16/0209Z BECMG 0119/0121 CAVOK BECMG 0200/0201 15004KT RMK PFQ", "TAF SBFL 010900Z 0112/0212 18010G25KT 9999 SCT020 BKN040 TX24/0115Z TN18/0210Z BECMG 0114/0116 CAVOK BECMG 0200/0202 25005KT BECMG 0210/0212 12010KT RMK PFF", "TAF SBFN 010900Z 0112/0124 13005KT 9999 SCT020 TX30/0116Z TN25/0122Z RMK PHD", "TAF SBFZ 010900Z 0112/0212 11010KT 9999 SCT025 TX31/0117Z TN24/0207Z BECMG 0203/0205 19005KT FEW020 BECMG 0210/0212 14005KT SCT020 RMK PHD", "TAF SBGL 010900Z 0112/0218 27005KT 9999 FEW020 TX31/0116Z TN21/0207Z BECMG 0114/0116 20010KT SCT015 PROB30 0121/0123 TS SCT015 FEW025CB TEMPO 0200/0208 25005KT 5000 RA BR SCT010 BKN015 BECMG 0209/0211 27005KT SCT010 BECMG 0214/0216 20010KT SCT020 RMK PHD", "TAF SBGO 010810Z 0112/0212 00000KT CAVOK TX32/0117Z TN19/0209Z BECMG 0113/0115 17005KT FEW040 BECMG 0116/0118 19005KT PROB30 0119/0122 TSRA SCT040 FEW045CB BECMG 0122/0124 00000KT CAVOK BECMG 0206/0208 12005KT RMK PGN", "TAF SBGR 010845Z 0112/0218 30007KT CAVOK TX28/0117Z TN17/0209Z BECMG 0116/0118 16012KT SCT030 PROB30 0118/0121 7000 TSRA BKN020 FEW035CB BECMG 0121/0123 5000 DZ BKN009 BECMG 0204/0206 16005KT 8000 NSW PROB30 0207/0211 5000 BR OVC005 BECMG 0212/0214 9999 BKN030 RMK PGG", "TAF SBIH 312147Z 0100/0112 03005KT 8000 SCT017 TN24/0109Z TX26/0112Z PROB40 0100/0103 TS SCT017 FEW023CB TEMPO 0109/0111 SCT010 RMK PHC", "TAF SBIL 312015Z 0100/0112 12005KT 9999 FEW025 TN23/0108Z TX28/0112Z BECMG 0101/0103 26003KT BECMG 0106/0109 VCSH SCT020 FEW027TCU RMK PGH", "TAF SBIZ 312147Z 0100/0112 10005KT 7000 TS BKN017 FEW020CB TN24/0109Z TX26/0112Z BECMG 0100/0103 07005KT 8000 NSW SCT016 TEMPO 0106/0111 BKN010 RMK PHC", "TAF SBJE 010900Z 0112/0124 06005KT 9999 BKN015 TX30/0116Z TN26/0121Z RMK PHD", "TAF SBJP 010900Z 0112/0212 13010KT 9999 SCT025 TX30/0116Z TN24/0207Z BECMG 0201/0203 19005KT SCT020 BECMG 0210/0212 14005KT RMK PHD", "TAF SBJV 312100Z 0100/0112 03004KT 9999 SCT030 TN21/0106Z TX26/0112Z BECMG 0102/0104 27002KT RMK PFP", "TAF SBKG 312145Z 0100/0112 12007KT 9999 FEW015 TN21/0109Z TX24/0112Z RMK PHI", "TAF SBKP 010845Z 0112/0212 30005KT CAVOK TX30/0118Z TN18/0209Z BECMG 0113/0115 SCT040 BECMG 0115/0117 24010KT PROB30 0118/0121 TS SCT040 FEW045CB BECMG 0121/0123 15015KT CAVOK RMK PGG", "TAF SBLO 010845Z 0112/0124 21005KT CAVOK TN24/0112Z TX31/0118Z BECMG 0114/0116 SCT040 BECMG 0120/0122 CAVOK RMK PGG", "TAF SBMA 010820Z 0112/0124 34005KT 5000 BR SCT010 OVC017 TX33/0117Z TN25/0123Z BECMG 0114/0116 31010KT 8000 NSW SCT025 FEW035TCU PROB40 0118/0121 35010KT 5000 TSRA BKN015 FEW025CB BECMG 0121/0123 03007KT 9999 FEW025 RMK PGB", "TAF SBME 312145Z 0100/0112 00000KT 9999 FEW020 TN23/0109Z TX28/0112Z BECMG 0100/0102 31005KT BECMG 0110/0112 23005KT RMK PHI", "TAF SBMN 010900Z 0112/0124 09005KT 9999 SCT025 FEW030TCU TN23/0112Z TX28/0118Z PROB30 TEMPO 0112/0118 09010KT 4000 TSRA BKN010 FEW035CB PROB30 TEMPO 0118/0124 06005KT 8000 TSRA SCT020 FEW035CB RMK PFF", "TAF SBMO 010900Z 0112/0212 11010KT 9999 BKN023 TX30/0115Z TN23/0207Z BECMG 0200/0202 34005KT SCT020 BECMG 0203/0205 29005KT BECMG 0210/0212 10010KT SCT025 RMK PHD", "TAF SBMQ 010820Z 0112/0212 02010KT 8000 SCT015 BKN040 TX29/0117Z TN23/0209Z BECMG 0115/0117 08010KT BKN020 FEW035TCU TEMPO 0118/0122 6000 TS BKN017 FEW025CB BECMG 0123/0201 36005KT CAVOK BECMG 0208/0211 02010KT 9999 FEW020 RMK PGB", "TAF SBNF 010900Z 0112/0212 12015KT 9999 BKN025 TX25/0115Z TN16/0208Z BECMG 0116/0118 12010G25KT CAVOK BECMG 0122/0124 25005KT RMK PFF", "TAF SBNT 010900Z 0112/0124 13010KT 9999 SCT025 TX30/0116Z TN25/0124Z RMK PHD", "TAF SBOI 010820Z 0112/0124 03010KT 9999 FEW020 TN25/0112Z TX30/0117Z BECMG 0115/0117 BKN020 FEW035TCU PROB30 0118/0120 6000 TS BKN017 FEW030CB BECMG 0122/0124 01007KT FEW030 RMK PGB", "TAF SBPA 010900Z 0112/0212 24005KT 9999 SCT020 TX23/0117Z TN16/0208Z BECMG 0113/0115 21010KT 9999 SCT030 BECMG 0122/0124 20005KT CAVOK BECMG 0204/0206 9999 SCT010 PROB30 0207/0210 4000 BR RMK PEW", "TAF SBPB 010900Z 0112/0124 09010KT 9999 BKN020 TX31/0116Z TN26/0121Z PROB30 0116/0119 04010KT TS BKN015 FEW025CB RMK PHD", "TAF SBPJ 010900Z 0112/0212 27010KT 9999 SCT025 TX31/0118Z TN23/0207Z PROB30 0119/0122 TS SCT015 FEW030CB BECMG 0123/0201 10005KT FEW015 RMK PHD", "TAF SBPK 010900Z 0112/0212 25013KT CAVOK TX24/0117Z TN14/0208Z BECMG 0122/0124 18005KT RMK PEW", "TAF SBPL 010900Z 0112/0212 17010KT 9999 SCT025 TX33/0117Z TN23/0207Z RMK PHD", "TAF SBPP 010845Z 0112/0212 18010KT CAVOK TX31/0118Z TN20/0210Z BECMG 0114/0116 SCT025 BECMG 0120/0122 CAVOK BECMG 0202/0204 12005KT RMK PGG", "TAF SBPS 010900Z 0112/0212 06005KT 9999 SCT025 TX30/0116Z TN22/0207Z BECMG 0203/0205 26005KT SCT020 RMK PHD", "TAF SBPV 010820Z 0112/0212 15010KT 4500 SHRA BKN010 FEW020TCU TX31/0117Z TN24/0209Z BECMG 0114/0116 12010KT 7000 NSW BKN020 FEW035TCU TEMPO 0118/0122 20007KT 5000 TSRA BKN020 FEW030CB BECMG 0123/0201 09007KT 9999 SCT025 BECMG 0204/0206 33007KT 7000 BKN012 BECMG 0208/0210 17007KT 4000 DZ BR BKN007 OVC015 RMK PGB", "TAF SBRB 010820Z 0112/0124 13010KT 4000 TSRA BKN012 FEW020CB TX31/0118Z TN23/0123Z BECMG 0114/0116 16010KT 7000 NSW BKN020 FEW035TCU BECMG 0118/0120 20010KT BECMG 0122/0124 09007KT 9999 SCT025 RMK PGB", "TAF SBRF 010900Z 0112/0212 15010KT 9999 SCT025 TX30/0115Z TN24/0207Z BECMG 0203/0205 23005KT BECMG 0210/0212 12010KT RMK PHD", "TAF SBRJ 010900Z 0112/0124 27005KT 9999 FEW020 TX29/0116Z TN25/0124Z BECMG 0114/0116 20010KT SCT020 FEW025TCU PROB30 0121/0123 TS SCT015 FEW025CB RMK PHD", "TAF SBRP 010810Z 0112/0124 00000KT CAVOK TX32/0117Z TN25/0124Z BECMG 0113/0115 23005KT SCT035 TEMPO 0118/0121 18005KT TS BKN040 FEW045CB BECMG 0121/0123 00000KT CAVOK RMK PGN", "TAF SBSC 312100Z 0100/0112 35006KT 9999 SCT030 FEW040TCU TN23/0105Z TX27/0112Z BECMG 0101/0103 SCT015 BECMG 0106/0108 4000 BR SCT006 BECMG 0110/0111 CAVOK RMK PFP", "TAF SBSG 010900Z 0112/0212 18010KT 9999 BKN025 TX30/0115Z TN23/0207Z BECMG 0200/0202 23005KT SCT020 RMK PHD", "TAF SBSJ 010845Z 0112/0124 23005KT 8000 SCT008 TX29/0117Z TN20/0123Z BECMG 0114/0116 17010KT 9999 SCT030 PROB30 0118/0120 TSRA SCT025 FEW040CB BECMG 0120/0122 8000 RA BKN015 RMK PGG", "TAF SBSL 010900Z 0112/0212 18005KT 9999 SCT020 TX31/0116Z TN26/0207Z BECMG 0115/0117 29005KT BKN020 FEW025TCU PROB30 0118/0121 TS BKN015 FEW025CB BECMG 0200/0202 02005KT BKN020 BECMG 0205/0207 22005KT BECMG 0209/0211 19005KT FEW020 RMK PHD", "TAF SBSM 312100Z 0100/0112 25008KT 8000 SCT030 TX22/0100Z TN12/0108Z BECMG 0103/0105 18012KT CAVOK RMK PFP", "TAF SBSN 010820Z 0112/0212 07010KT 6000 RA BKN010 FEW020TCU TX30/0119Z TN24/0209Z BECMG 0115/0117 8000 NSW SCT020 FEW030TCU BECMG 0120/0122 13007KT 9999 SCT023 BECMG 0200/0202 7000 BKN017 FEW025TCU TEMPO 0202/0208 06015KT 3500 TSRA BKN012 FEW020CB BECMG 0209/0211 06010KT DZ SCT010 BKN025 RMK PGB", "TAF SBSP 010845Z 0112/0124 30010KT CAVOK TX28/0116Z TN20/0123Z BECMG 0115/0117 16012KT BKN030 BECMG 0120/0122 5000 DZ BR BKN007 RMK PGG", "TAF SBSV 010810Z 0112/0212 17007KT 9999 SCT020 TX30/0116Z TN25/0209Z TEMPO 0112/0115 VCSH SCT020 FEW023TCU BECMG 0116/0118 13013KT FEW023 BECMG 0122/0124 09007KT BECMG 0203/0205 05005KT RMK PGN", "TAF SBTD 010845Z 0112/0124 19010KT CAVOK TX29/0118Z TN23/0123Z RMK PGG", "TAF SBTE 010900Z 0112/0124 11010KT 9999 BKN015 TN23/0112Z TX29/0116Z PROB30 0119/0122 26005KT TS BKN015 FEW025CB RMK PHD", "TAF SBTF 010820Z 0112/0124 15007KT 5000 SHRA BKN010 FEW020TCU TN24/0112Z TX30/0118Z BECMG 0114/0116 13010KT 7000 NSW BKN020 FEW030TCU TEMPO 0118/0121 08010KT 4000 TSRA BKN013 FEW025CB BECMG 0122/0124 11007KT 9999 SCT025 RMK PGB", "TAF SBTT 010820Z 0112/0212 16007KT 5000 DZ BR BKN012 TX29/0118Z TN23/0211Z BECMG 0114/0115 30005KT 7000 NSW BKN017 FEW025TCU TEMPO 0117/0121 33010KT 4000 TSRA BKN013 FEW025CB BECMG 0122/0124 34007KT 8000 BKN020 BECMG 0210/0212 13007KT 4500 DZ BR BKN010 OVC015 RMK PGB", "TAF SBUG 010900Z 0112/0124 11010KT CAVOK TX24/0116Z TN17/0123Z RMK PEW", "TAF SBUL 312015Z 0100/0112 24005KT 9999 FEW045 TN21/0108Z TX26/0112Z BECMG 0100/0102 16004KT BECMG 0103/0106 CAVOK BECMG 0106/0108 08004KT PROB30 0108/0110 8000 SCT015 BECMG 0110/0112 FEW030 RMK PGH", "TAF SBUR 312015Z 0100/0112 18005KT 9999 SCT040 TN22/0108Z TX25/0112Z BECMG 0103/0105 07004KT CAVOK PROB30 0108/0110 5000 BR SCT002 BECMG 0110/0112 03004KT FEW045 RMK PGH", "TAF SBVH 312147Z 0100/0112 36005KT 7000 SCT016 TN21/0110Z TX25/0112Z BECMG 0106/0108 06005KT RMK PHC", "TAF SBVT 010900Z 0112/0212 36010KT 9999 FEW030 TX34/0116Z TN23/0208Z BECMG 0200/0202 30005KT FEW015 BECMG 0203/0205 22010KT FEW020 PROB30 0206/0209 4000 RA BR BKN012 RMK PHD", "TAF SBYS 312100Z 0100/0112 33006KT 8000 SCT040 TN20/0105Z TX26/0112Z PROB40 0104/0108 2000 BR SCT008 SCT025 BECMG 0110/0112 01002KT SCT010 RMK PFP", "TAF SCAR 011026Z 0112/0212 33004KT CAVOK TX27/0118Z TN20/0210Z BECMG 0115/0117 22014KT BECMG 0123/0201 22004KT", "TAF SCAT 011026Z 0112/0212 24004KT 9999 OVC015 TX24/0118Z TN17/0210Z BECMG 0114/0116 36008KT SCT020 BECMG 0116/0118 25010KT CAVOK BECMG 0123/0201 25004KT OVC012 BECMG 0205/0207 OVC007", "TAF SCBA 011055Z 0112/0212 29030G40KT 9999 SCT010 BKN030 TN08/0112Z TX12/0118Z BECMG 0115/0117 SCT050 BECMG 0200/0202 30015KT", "TAF SCCF 011026Z 0112/0212 11012KT CAVOK TX26/0119Z TN09/0210Z BECMG 0116/0118 27022KT BECMG 0205/0207 11012KT", "TAF SCCH 011022Z 0112/0124 20004KT CAVOK TX28/0119Z TN08/0112Z BECMG 0116/0118 20012KT", "TAF SCCI 011007Z 0112/0212 VRB05KT 8000 FEW030 BKN045 TX11/0118Z TN05/0212Z TEMPO 0112/0115 17007KT 5000 -RADZ FEW009 BKN012 BECMG 0116/0118 27017KT SCT035 BECMG 0204/0206 29015G25KT BECMG 0210/0212 35016G26KT", "TAF SCCY 011055Z 0112/0124 VRB03KT 9000 RA SCT010 OVC040 TN07/0112Z TX14/0119Z BECMG 0115/0117 29012KT 9999 NSW BKN050", "TAF SCDA 011026Z 0112/0212 21004KT CAVOK TX27/0118Z TN21/0210Z BECMG 0115/0117 21015KT BECMG 0202/0204 05004KT", "TAF SCEL 011018Z 0112/0212 VRB02KT 8000 NSC TX32/0119Z TN11/0210Z BECMG 0115/0117 18008KT CAVOK BECMG 0119/0121 21015KT BECMG 0202/0204 15004KT", "TAF SCFA 011026Z 0112/0212 03004KT CAVOK TX24/0118Z TN19/0210Z BECMG 0115/0117 20014KT TEMPO 0122/0201 SCT015 BECMG 0204/0206 03004KT", "TAF SCFM 011007Z 0112/0200 19007KT 8000 BKN020 TX12/0118Z TN05/0200Z TEMPO 0112/0115 VRB05KT BECMG 0116/0118 26013KT FEW015 SCT035 BECMG 0122/0200 35007KT BKN030", "TAF SCGE 011023Z 0112/0124 20005KT CAVOK TX26/0119Z TN12/0112Z BECMG 0116/0118 18015KT", "TAF SCGZ 011007Z 0112/0200 21007KT 8000 FEW030 BKN060 TX11/0118Z TN05/0200Z TEMPO 0112/0115 31009KT SCT010 BKN021 BECMG 0115/0117 26010KT FEW015 BKN036 BECMG 0122/0200 29005KT", "TAF SCIC 011022Z 0112/0124 21007KT CAVOK TX28/0119Z TN12/0112Z BECMG 0116/0118 20012KT", "TAF SCIE 011018Z 0112/0212 22010KT CAVOK TX21/0119Z TN11/0210Z TEMPO 0116/0120 22013G23KT BECMG 0201/0203 15004KT FEW008 TEMPO 0203/0208 4000 BR BKN003", "TAF SCIP 011051Z 0112/0212 09012KT 9999 SCT025 TN21/0210Z TX26/0119Z TEMPO 0113/0117 5000 -SHRA SCT020 BKN025 SCSC BESR 4107", "TAF SCIR 011058Z 0112/0124 17005KT 9999 SCT010 BKN020 TX22/3119Z TN19/3112Z", "TAF SCJO 011053Z 0112/0124 01008KT 9999 BKN020 OVC030 TN10/0112Z TX19/0118Z BECMG 0114/0116 8000 RA BKN015 OVC030 BECMG 0118/0120 19008KT", "TAF SCMK 011054Z 0112/0124 24011KT 9999 SCT015 BKN020 OVC030 TN12/0112Z TX13/0119Z BECMG 0117/0119 BKN020 OVC040", "TAF SCNT 011007Z 0112/0200 VRB05KT 8000 SCT010 BKN020 TX10/0118Z TN04/0200Z TEMPO 0112/0115 07009KT 5000 -RA DZ SCT005 BKN009 BECMG 0116/0118 28012G23KT", "TAF SCPQ 011054Z 0112/0124 35008KT 5000 RA BKN010 OVC015 TN13/0112Z TX15/0119Z BECMG 0113/0115 18006KT 9999 NSW BECMG 0115/0117 8000 RA BKN020 OVC030 BECMG 0119/0121 09006KT", "TAF SCQP 011052Z 0112/0212 VRB02KT 9999 OVC020 TN06/0112Z TX21/0119Z BECMG 0117/0120 24006KT BKN030", "TAF SCRD 011019Z 0112/0124 14004KT CAVOK TX24/3119Z TN14/0112Z BECMG 0114/0116 30012KT", "TAF SCRG 011021Z 0112/0124 21004KT CAVOK TX31/0119Z TN14/0112Z BECMG 0116/0118 21012KT", "TAF SCSE 011017Z 0112/0212 14004KT 9999 BKN008 OVC010 TX20/0118Z TN12/0210Z TEMPO 0112/0114 3000 BR OVC005 BECMG 0115/0117 29012KT FEW012 SCT015 BECMG 0118/0120 FEW015 BECMG 0201/0203 20004KT SCT010 BKN012", "TAF SCSN 011019Z 0112/0200 VRB02KT CAVOK TX21/3117Z TN12/0112Z BECMG 0115/0117 25012KT", "TAF SCTB 011020Z 0112/0124 VRB02KT CAVOK TX31/3119Z TN12/0112Z BECMG 0116/0118 24008KT", "TAF SCTE 011053Z 0112/0212 02011KT 7000 -RA BKN015 OVC020 TN12/0112Z TX16/0119Z BECMG 0115/0117 24008KT 9999 NSW BKN020 OVC035", "TAF SCTN 011053Z 0112/0124 36010KT 5000 RA BKN010 OVC020 TN13/0112Z TX14/0119Z BECMG 0117/0119 26006KT 9999 NSW BKN020 OVC035", "TAF SCVD 011052Z 0112/0124 VRB02KT 9999 BKN020 OVC030 TN09/0112Z TX19/0119Z BECMG 0116/0118 28006KT OVC020 TEMPO 0116/0120 8000 RA", "TAF SCVM 011018Z 0112/0212 00000KT CAVOK TX21/0117Z TN10/0210Z BECMG 0116/0118 30010KT BECMG 0201/0203 02002KT", "SEGU 011055Z 0112/0212 05005KT 9999 SCT026 SCT100 BECMG 0118/0120 32006KT BKN026 BKN100 TEMPO 0122/0201 8000 TSRA FEW016CB BKN020 BKN100 BECMG 0202/0204 22006KT BKN020 BKN100 BECMG 0206/0208 SCT010 BKN020 BKN100 TX32/0120Z TN24/0210Z", "SELT 011055Z 0112/0212 19006KT 9999 SCT030 SCT090 BECMG 0117/0118 18014KT TEMPO 0119/0122 BKN030 BECMG 0123/0201 16004KT FEW015 BKN026 BECMG 0206/0208 6000 SCT010 BKN023 TX18/0119Z TN08/0211Z", "SEMT 011055Z 0112/0212 12004KT 9999 SCT020 BECMG 0115/0117 31005KT BECMG 0200/0202 22007KT BKN020 TEMPO 0204/0206 8000 RA BKN016 TX30/0120Z TN24/0210Z", "SEQM 011055Z 0112/0212 VRB03KT 9999 SCT026 SCT100 BECMG 0116/0118 36012KT TEMPO 0120/0122 SHRA FEW023TCU BKN030 BECMG 0123/0201 04004KT SCT020 BKN020 TEMPO 0206/0209 6000 BKN005 TX22/0119Z TN11/0211Z", "TAF SGAS 011025Z 0112/0212 17005KT 9999 SCT027 TX33/0119Z TN20/0210Z BECMG 0116/0119 18012KT 9999 BKN033 BECMG 0202/0205 09005KT CAVOK", "TAF SGCO 011025Z 0112/0212 16008KT CAVOK TX34/0119Z TN23/0210Z BECMG 0114/0117 18012KT 9999 BKN033 BECMG 0120/0123 CAVOK", "TAF SGEN 011025Z 0112/0212 18007KT CAVOK TX30/0119Z TN16/0210Z BECMG 0114/0117 9999 BKN030 BECMG 0122/0201 CAVOK", "TAF SGES 011025Z 0112/0212 22005KT 9999 SCT033 TX32/0119 TN18/0210Z BECMG 0115/0118 19010KT 9999 BKN033 BECMG 0122/0201 13005KT CAVOK", "TAF SKAR 011030Z 0112/0212 00000KT 3000 DZ BR BKN010 BECMG 0114/0116 9999 NSW SCT020 BECMG 0118/0119 SCT020TCU TEMPO 0120/0124 TSRA SCT018CB BECMG 0201/0203 SCT018 TX27/0119Z TN18/0211Z", "TAF SKBG 011030Z 0112/0212 18005KT 9999 SCT015 SCT070 BECMG 0116/0118 32008KT SCT017 TEMPO 0121/0202 5000 TSRA SCT010CB BKN080 TX27/0119Z TN19/0211Z", "TAF SKBO 011030Z 0112/0212 05005KT 9999 FEW015 SCT070 BECMG 0114/0116 12010KT SCT020 PROB40 0120/0123 DZRA SCT017TCU BECMG 0200/0202 VRB02KT FEW015 TX21/0118Z TN09/0211Z", "TAF SKBQ 011030Z 0112/0212 02004KT CAVOK BECMG 0113/0115 04012KT TEMPO 0200/0203 03015G25KT TX32/0118Z TN24/0209Z", "TAF SKCC 011030Z 0112/0212 01008KT 9999 SCT015 BKN090 BECMG 0115/0117 SCT020 PROB40 TEMPO 0118/0121 TS SCT018CB BECMG 0200/0202 VRB02KT SCT015 TX30/0119Z TN23/0211Z", "TAF SKCG 011030Z 0112/0212 05002KT 9999 FEW015 BECMG 0116/0118 34012KT TEMPO 0116/0119 FEW017TCU TX33/0118Z TN24/0209Z", "TAF SKCL 011030Z 0112/0212 VRB02KT 9999 SCT020 TEMPO 0112/0114 4000 BR BKN010 BECMG 0118/0119 32012KT SCT023TCU TEMPO 0120/0124 TS SCT020CB BECMG 0201/0203 SCT020 BECMG 0203/0205 VRB02KT TX31/0119Z TN19/0210Z", "TAF SKLT 011035Z 0112/0212 VRB02KT 9999 SCT010 BKN080 TEMPO 0116/0122 25006KT 5000 TSRA SCT012CB BKN080 TX28/0118Z TN23/0211Z", "TAF SKPE 011030Z 0112/0212 VRB02KT 4000 DZ BR BKN010 BECMG 0114/0116 9999 NSW SCT023 BECMG 0118/0119 SCT020TCU TEMPO 0120/0124 TSRA SCT018CB BECMG 0201/0203 SCT018 TX27/0119Z TN19/0211Z", "TAF SKRG 011030Z 0112/0212 VRB02KT 5000 BR BKN006 BECMG 0113/0115 10010KT 9999 NSW SCT015 TEMPO 0120/0123 DZ SCT020TCU BECMG 0200/0202 VRB02KT BECMG 0203/0205 BKN010 TEMPO 0208/0212 4000 BR BKN006 TX22/0119Z TN13/0211Z", "TAF SKSM 011030Z 0112/0212 VRB02KT 9999 FEW020 BECMG 0118/0120 02016KT TX36/0119Z TN24/0210Z", "TAF SKSP 011030Z 0112/0212 07012KT 9999 FEW018 TX32/0119Z TN26/0210Z", "TAF SLAL 011000Z 0112/0212 00000KT 9999 SCT010 TX19/0119Z TN08/0210Z BECMG 0114/0116 02012KT SCT020 FEW030CB BECMG 0203/0205 00000KT SCT012", "TAF SLCB 011000Z 0112/0212 00000KT 9999 FEW030 SCT070 TX27/0119Z TN11/0210Z BECMG 0116/0118 24010KT SCT033 FEW036CB TEMPO 0120/0123 12015KT BECMG 0203/0205 00000KT FEW030 SCT070", "TAF SLCO 011000Z 0112/0212 15005KT 9999 BKN010 FEW020CB BKN080 TX29/0120Z TN22/0210Z PROB30 TEMPO 0116/0120 4000 TSRA BECMG 0121/0201 00000KT NSW SCT017 SCT080", "TAF SLET 011000Z 0112/0212 17008KT 9999 FEW020 FEW030CB SCT070 TX32/0119Z TN22/0209Z TEMPO 0114/0118 18015KT SCT023 SCT080 PROB30 TEMPO 0205/0209 VRB02KT 8000 RA FEW030CB BKN070 BECMG 0210/0212 33010KT SCT015", "TAF SLLP 011000Z 0112/0212 13010KT 9999 SCT015 TX14/0119Z TN02/0210Z BECMG 0202/0204 07008KT 3000E BCFG BKN010", "TAF SLOR 011000Z 0112/0212 13010KT 9999 SCT015 TX20/0119Z // END PART 01 // ", "TAF SLRQ 011000Z 0112/0212 00000KT 9999 BKN013 TX32/0119Z TN22/0210Z BECMG 0114/0116 32008KT BKN017 FEW020CB TEMPO 0120/0123 12008KT TSRA BECMG 0200/0202 00000KT BKN015 SCT070", "TAF SLTJ 011000Z 0112/0212 00000KT 9999 SCT030 SCT070 TX29/0119Z TN12/0210Z BECMG 0114/0116 13010KT SCT040 FEW043CB BKN070 BECMG 0123/0201 00000KT SCT027 BKN070", "TAF SLTR 011000Z 0112/0212 15006KT 9999 FEW020 SCT080 TX33/0119Z TN23/0210Z PROB30 TEMPO 0117/0121 7000 SHRA FEW023CB BECMG 0122/0201 00000KT", "TAF SLVR 011000Z 0112/0212 25008KT 9999 FEW020 FEW030CB SCT070 TX32/0119Z TN22/0209Z TEMPO 0114/0118 18015KT SCT023 SCT080 PROB30 TEMPO 0205/0209 VRB02KT 8000 RA FEW030CB BKN070 BECMG 0210/0212 34010KT SCT015", "TAF SLYA 011000Z 0112/0212 00000KT 9999 SCT020 SCT070 TX27/0119Z TN21/0210Z BECMG 0114/0116 21010KT BECMG 0122/0200 00000KT FEW020 BKN070", "TAF SMJP 011000Z 0112/0212 05010KT 9999 FEW010 SCT020 TX32/0116Z TN22/0207Z TEMPO 0116/0120 VRB10G22KT", "TAF SMZO 011000Z 0112/0212 06011KT 9999 FEW012 SCT020 TX31/0117Z TN23/0208Z TEMPO 0116/0120 VRB13G23KT 3000 SHRA FEW015TCU SCT025", "TAF SOCA 010500Z 0106/0206 VRB02KT 9999 FEW020 PROB30 TEMPO 0109/0121 3000 SHRA BKN015TCU BECMG 0110/0112 07012KT BECMG 0122/0124 VRB02KT", "TAF SPCL 010030Z 0100/0124 18005KT 9999 BKN012 BKN080 TX33/0119Z TN22/0111Z TEMPO 0100/0103 12012G22KT 3000 TSRA BKN010 FEW025CB BKN080 TEMPO 0103/0106 RA TEMPO 0110/0113 4000 RA BKN005 BKN080 TEMPO 0119/0123 07012KT 2000 SHRA BKN010 FEW025CB BKN080", "TAF SPEO 311700Z 3118/0118 19017KT 9999 FEW050 TX33/3119Z TN24/0111Z BECMG 0102/0106 19007KT", "TAF COR SPGM 311900Z 3118/0118 09005KT 9999 FEW040 BKN100 TX32/3119Z TN22/0111Z TEMPO 3121/3123 RA SCT015 BKN060 TEMPO 0112/0114 3000 BR RA BKN010 OVC080", "TAF SPHI 010515Z 0106/0206 14005KT 9999 SCT020 TX30/0119Z TN24/0111Z BECMG 0116/0118 20012KT BECMG 0200/0203 13005KT", "TAF SPHO 311700Z 3118/0118 15005KT 9999 FEW020 SCT030 BKN090 TX24/3120Z TN12/0111Z TEMPO 3118/3123 14015KT FEW020 SCT030TCU BKN080", "TAF SPJC 010500Z 0106/0206 16008KT CAVOK TX29/0119Z TN23/0111Z TEMPO 0108/0110 BKN010 BECMG 0115/0117 18015KT FM020400 16006KT 9999 SCT012 SCT100", "TAF SPJI 311700Z 3118/0118 VRB02KT 9999 SCT020 BKN080 TX28/3120Z TN22/0111Z TEMPO 3120/3123 4000 RADZ BKN010 OVC070 TEMPO 0110/0113 2000 DZ BCFG BKN00817:01 31/03/2023 OVC050", "SPJR 311700Z 3118/0118 16008KT 9999 SCT025 BKN050 TX20/1019Z TN09/1111Z TEMPO 3119/3121 17010KT RA FEW020 BKN046 TEMPO 0109/0112 VRB02KT 5000 BR SCT015 BKN043", "TAF SPLO 311700Z 3118/0118 18012KT CAVOK TX28/3119Z TN21/0110Z", "TAF SPME 312316Z 0100/0124 VRB04KT 9999 BKN014 TX30/0119Z TN24/0111Z TEMPO 0100/0103 4000 DZ BKN010 FM011330 35004KT 9999 SCT010 BKN015", "TAF SPMS 311700Z 3118/0118 11005KT 9999 SCT015 BKN100 TX30/3119Z TN21/0111Z TEMPO 3123/0103 4000 DZRA BKN010 OVC070 TEMPO 0110/0113 4000 BR BKN005 BKN080", "TAF COR SPNC 311930Z 3118/0118 08008KT 9999 FEW027 BKN110 TX28/3119Z TN15/0111Z TEMPO 3121/3123 SCT030TCU BKN080 TEMPO 0112/0114 5000 BR RA SCT030 OVC070", "TAF SPPY 311700Z 3118/0118 10008KT 9999 SCT012 BKN050 TX19/3119Z TN10/0111Z TEMPO 3120/3121 10015KT 5000 DZRA BKN012 SCT025TCU TEMPO 0110/0113 VRB02KT 4000 BCFG BKN010 BKN040", "TAF SPQT 010500Z 0106/0206 12004KT 9999 SCT005 BKN080 TX31/0119Z TN22/0111Z TEMPO 0108/0113 3000 RA BKN005 FEW025TCU BKN080 BECMG 0113/0116 06005KT BKN015 BKN080 TEMPO 0119/0123 03025KT 3000 SHRA BKN012 FEW025CB BKN100", "TAF COR SPQU 312307Z 0100/0124 27007KT 8000 BKN005 BKN008 TX20/0117Z TN10/0110Z TEMPO 0100/0102 4000 BR BKN003 BKN005 FM010230 VRB03KT 9999 BKN015 BKN040 FM011200 28006KT 9999 FEW080 BECMG 3122/3124 BKN010 BKN018", "TAF SPRU 010515Z 0106/0206 14005KT 5000 BR NSC TX30/0120Z TN22/0111Z BECMG 0109/0112 NSW TEMPO 0119/0122 20012KT", "TAF SPSO 010500Z 0106/0206 20007KT CAVOK TX28/0119Z TN22/0111Z TEMPO 0110/0112 4500 BR BKN007 BECMG 0114/0116 29010KT BECMG 0119/0121 22015KT", "TAF SPST 312300Z 0100/0124 16003KT 9999 SCT020 SCT080 TX32/0119Z TN21/0111Z TEMPO 0106/0109 7000 RA SCT012 BKN070 TEMPO 0112/0114 3000 RA BR BKN008 BKN040 BECMG 0116/0118 33007KT 8000 SCT015 BKN070", "TAF COR SPTN 312307Z 0100/0124 28005KT 9999 SCT080 TX30/0118Z TN20/0110Z BECMG 0116/0116 22010KT", "TAF SPTU 311700Z 3118/0118 18005KT 9999 FEW020 BKN100 TX27/3119Z TN19/0111Z", "TAF SPUR 010515Z 0106/0206 25006KT 8000 OVC020 TX33/0120Z TN24/0111Z TEMPO 0106/0108 RA BKN010 BECMG 0120/0122 22010KT BECMG 0200/0204 16007KT", "TAF AMD SPYL 312300Z 3123/0118 26009KT 9999 SCT020 BKN080 TX31/3119Z TN23/0111Z TEMPO 3123/0102 3000 RA BKN015 BKN070 FM010130 14005KT 9999 SCT020 SCT090 FM011700 22008KT CAVOK", "SPZO 312305Z 0100/0124 10005KT 9999 SCT050 TX20/0119Z TN08/0111Z TEMPO 0118/0121 02015KT FEW040TCU SCT050 BKN080", "TAF SUAA 011130Z 0112/0212 19012KT 9999 SCT025 TX21/0118Z TN13/0210Z BECMG 0121/0123 10005KT", "TAF SUCA 011130Z 0112/0212 16012KT CAVOK TX21/0118Z TN13/0210Z BECMG 0200/0202 03010KT", "TAF SUDU 011130Z 0112/0212 16010KT 9999 SCT025 TX22/0118Z TN10/0210Z BECMG 0200/0202 08010KT", "TAF SULS 011130Z 0112/0212 20015KT 9999 SCT025 TX21/0118Z TN14/0210Z BECMG 0122/0124 10005KT PROB40 TEMPO 0208/0211 3000 BR SCT010", "TAF SUMU 011130Z 0112/0212 19012KT 9999 SCT025 TX21/0118Z TN13/0210Z BECMG 0121/0123 10005KT", "TAF SURV 011130Z 0112/0212 15010KT CAVOK TX23/0118Z TN10/0210Z PROB40 TEMPO 0208/0211 3000 BR NSC", "TAF SUSO 011130Z 0112/0212 15005KT CAVOK TX24/0118Z TN10/0210Z", "TAF SVBC 011000Z 0112/0212 00000KT 9999 BKN010 TX33/0118Z TN23/0207Z BECMG 0115/0121 07010KT SCT010 SCT070 FM012200 07005KT 9999 SCT010", "TAF SVJC 011000Z 0112/0212 09003KT 9999 SCT013 TX33/0119Z TN24/0207Z BECMG 0118/0122 09015G18KT SCT013 SCT090 FM012300 09005KT 9999 SCT013", "TAF SVMC 011000Z 0112/0212 00000KT 9999 SCT013 TX34/0119Z TN24/0208Z BECMG 0116/0122 09010KT SCT013 SCT060 FM012300 17005KT 9999 SCT013", "TAF SVMG 011000Z 0112/0212 10003KT 9999 FEW010 TX33/0118Z TN23/0208Z BECMG 0118/0122 12015G18KT SCT020 SCT080 FM020000 09008KT 9999 FEW010", "TAF SVMI 011000Z 0112/0212 00000KT 9999 BKN016 TX33/0118Z TN22/0207Z BECMG 0116/0122 11010KT SCT016 SCT080 FM012300 09005KT 9999 FEW016", "TAF SVPR 011000Z 0112/0212 00000KT 9999 SCT013 TX33/0119Z TN22/0207Z BECMG 0118/0122 06010KT SCT013 SCT080 FM012300 07005KT 9999 SCT013", "TAF SVSA 011000Z 0112/0212 00000KT 8000 HZ SCT020 TX31/0119Z TN20/0208Z TEMPO 0114/0118 16006KT 9000 DZ BKN020 FM011900 18010KT 9999 SCT020 SCT090", "TAF SVVA 311000Z 3112/0112 02005KT 9999 FEW016 TX31/3119 TN21/0109 TEMPO 3116/3120 21003KT 9999 FEW016 TEMPO 3123/0103 11006KT 9999 SCT016", "TAF SYCJ 011100Z 0112/0212 06012KT 9999 SCT021 BECMG 0123/0201 06006KT 9999 FEW018", "TAF SYEB 011100Z 0112/0123 07014KT 9999 SCT022 SCT100 PROB30 TEMPO 0118/0123 9000 -SHRA FEW019CB BKN020", "TAF SYEC 011100Z 0112/0212 07014KT 9999 SCT023 BECMG 0200/0202 05008KT 9999 FEW020", "TAF SYKA 011100Z 0112/0123 07012KT 9999 SCT022 PROB30 TEMPO 0118/0123 9000 -SHRA FEW019CB BKN020", "TAF SYKM 011100Z 0112/0123 08012KT 9999 SCT022 PROB30 TEMPO 0118/0123 9000 -SHRA FEW019CB BKN020", "TAF SYLT 011100Z 0112/0123 08014KT 9999 SCT022 PROB30 TEMPO 0118/0123 9000 -SHRA FEW019CB BKN020", "TAF SYMB 011100Z 0112/0123 08012KT 9999 SCT022 SCT100", "TAF TAPA 011100Z 0112/0212 08012KT 9999 SCT020 PROB30 TEMPO 0112/0124 SHRA", "TAF TBPB 011100Z 0112/0212 09017KT 9999 SCT016 SCT036 PROB40 TEMPO 0112/0121 09017G27KT SHRA BKN014 BKN036", "TAF TDPD 011100Z 0112/0212 11012KT 9999 SCT020", "TAF TFFF 010500Z 0106/0206 08010KT 9999 SCT035 PROB30 TEMPO 0106/0112 4500 SHRA SCT020TCU BECMG 0112/0115 08020KT TEMPO 0115/0121 10020G30KT BECMG 0122/0124 08010KT", "TAF TFFR 010500Z 0106/0206 10005KT 9999 SCT030 PROB30 TEMPO 0106/0124 4000 SHRA BKN020TCU BECMG 0112/0115 08015KT", "TGPY 011000Z 0112/0212 08018G28KT 9999 FEW018 SCT035", "TIST 011120Z 0112/0212 07015KT P6SM FEW025 SCT050 FM011400 08017G26KT P6SM FEW030 FM012200 06012KT P6SM VCSH FEW025 SCT050", "TISX 011120Z 0112/0212 08010KT P6SM VCSH SCT025 BKN050 FM011400 10017G26KT P6SM SCT025 FM012200 07012KT P6SM VCSH FEW025 SCT050", "TJBQ 011120Z 0112/0212 09012KT P6SM VCSH SCT030 FM011300 08020G30KT P6SM FEW025 SCT050 FM012200 10013KT P6SM FEW035 AMD NOT SKED 0202/0211", "TJPS 011120Z 0112/0212 VRB03KT P6SM VCSH SCT030 BKN050 FM011400 11012G20KT P6SM FEW030 SCT050 FM011700 14020G30KT P6SM VCSH FEW030 SCT050 FM012200 08010KT P6SM FEW035", "TJSJ 011120Z 0112/0212 08013G19KT P6SM VCSH SCT030 BKN050 FM011400 07020G30KT P6SM VCSH SCT025 SCT040 FM012200 08010KT P6SM VCSH FEW030 SCT050", "TAF TKPK 011100Z 0112/0212 08013KT 9999 SCT020 PROB30 TEMPO 0112/0124 SHRA", "TAF TKPN 011100Z 0112/0212 08013KT 9999 SCT020 PROB30 TEMPO 0112/0124 SHRA", "TAF TLPC 011100Z 0112/0212 09010KT 9999 SCT025 TEMPO 0118/0212 SHRA BKN015 BKN040", "TAF TLPL 011100Z 0112/0212 08020KT 9999 SCT025 TEMPO 0118/0212 SHRA BKN015 BKN040", "TAF TNCA 011117Z 0112/0212 09020KT 9999 SCT020 SCT030 PROB30 TEMPO 0112/0121 08020G30KT 5000 SHRA SCT015 BKN025", "TAF TNCB 010442Z 0106/0212 08018KT 9999 SCT018 PROB30 TEMPO 0109/0121 6000 SHRA FEW018CB BKN022", "TAF TNCC 011115Z 0112/0212 08015KT 9999 SCT020 SCT030 PROB30 TEMPO 0112/0119 08015G25KT 6000 SHRA SCT015 BKN025", "TNCM 011000 0112/0212 06014KT 9999 SCT018 PROB40 TEMPO 0116/0122 07016G28KT TEMPO 0203/0210 7000 SHRA BKN015 ", "TAF TQPF 011100Z 0112/0212 08014KT 9999 SCT020 PROB30 TEMPO 0112/0124 SHRA", "TAF TRPG 011100Z 0112/0212 09015KT 9999 SCT020 PROB30 TEMPO 0112/0124 SHRA", "TAF TTCP 011000Z 0112/0212 10012KT 9999 SCT016 TEMPO 0112/0117 10015G25KT SHRA BKN015 BECMG 0200/0202 06005KT FEW016", "TAF TTPP 011000Z 0112/0212 10012KT 9999 SCT016 TEMPO 0112/0117 10015G25KT SHRA BKN015 BECMG 0123/0201 09005KT FEW016", "TAF TUPJ 011100Z 0112/0212 09012KT 9999 SCT020 PROB30 TEMPO 0112/0124 SHRA", "TAF TVSA 011100Z 0112/0212 04016KT 9999 SCT016 TEMPO 0117/0121 09016G26KT SHRA BKN014 SCT036", "TAF TXKF 010531Z 0106/0206 VRB03KT 9999 SCT040 BKN300 BECMG 0112/0115 18012KT BECMG 0203/0206 21022KT BKN030 ", "TAF UAAA 011102Z 0112/0212 25003MPS 9999 SCT100 TX10/0209Z TNM04/0201Z TEMPO 0114/0202 22003G08MPS 3100 BR FU TEMPO 0202/0212 28003G08MPS", "TAF UAAH 011100Z 0112/0121 08010G15MPS CAVOK", "TAF UAAT 011100Z 0112/0121 02012MPS 9999 NSC TEMPO 0112/0115 03010G18MPS", "TAF UACC 011107Z 0112/0212 13007MPS CAVOK TX10/0210Z TNM05/0201Z BECMG 0114/0116 13005MPS BECMG 0204/0206 12006MPS TEMPO 0204/0212 11009MPS", "TAF UACK 010801Z 0109/0118 16007MPS CAVOK TEMPO 0109/0115 18007G12MPS", "TAF UACP 010800Z 0109/0118 14009MPS CAVOK TEMPO 0109/0112 16009G14MPS", "TAF UADD 011101Z 0112/0121 05008G13MPS 9999 NSC TEMPO 0115/0121 22004MPS", "TAF UAII 011102Z 0112/0212 05007G13MPS 7000 NSC TX22/0210Z TN11/0201Z TEMPO 0112/0120 08015G22MPS 3100 BLDU TEMPO 0200/0212 16004G09MPS -TSRA BKN033CB", "TAF UAIT 011100Z 0112/0121 07020G25MPS CAVOK TEMPO 0112/0118 08022G27MPS", "TAF UAKD 011102Z 0112/0121 09012G17MPS 9999 SCT040 BKN100 TEMPO 0112/0115 10015G20MPS 5000 BLDU BECMG 0115/0117 09010G15MPS", "TAF UAKK 011102Z 0112/0212 09009MPS 9999 SCT020 BKN100 TX05/0209Z TNM08/0201Z TEMPO 0112/0118 08013MPS", "TAF UAOO 011100Z 0112/0121 08015G20MPS 5000 BLDU NSC", "TAF UARR 011100Z 0112/0121 02004MPS 9999 -SHRA BKN011 BKN033CB TEMPO 0112/0117 VRB02MPS TEMPO 0117/0121 3100 BR", "TAF UASK 011100Z 0112/0121 33010G15MPS 9999 NSC TEMPO 0112/0118 35013G18MPS", "TAF UASP 011100Z 0112/0121 09007G13MPS CAVOK", "TAF UASS 011101Z 0112/0121 05010G15MPS CAVOK TEMPO 0112/0118 36010G15MPS", "TAF UATE 011101Z 0112/0212 33010G16MPS 5000 -SHRA BKN011 BKN033CB TX13/0210Z TN04/0203Z TEMPO 0115/0201 30007MPS 0200 -DZ FG VV001 BECMG 0201/0204 VRB03MPS 3100 BR OVC011 TEMPO 0201/0206 0200 -DZ FG VV001", "TAF UATG 011100Z 0112/0212 36013G18MPS 9999 BKN030CB TX18/0211Z TN06/0203Z BECMG 0118/0120 03009G14MPS SCT033CB BECMG 0204/0206 08010MPS", "TAF UATT 011100Z 0112/0212 11005MPS 9999 SCT033 TX16/0112Z TN02/0203Z TEMPO 0112/0116 12010MPS TEMPO 0203/0212 11013MPS", "TAF UAUU 011101Z 0112/0121 10009MPS CAVOK TEMPO 0112/0115 11009G14MPS TEMPO 0115/0121 11006MPS", "TAF UBBB 011046Z 0112/0212 33020G30KT 8000 SCT012 FEW030CB BKN030 TX07/0112Z TN04/0202Z TEMPO 0112/0118 5000 -SHRA BR SCT007 SCT020CB OVC020 BECMG 0118/0120 34014G24KT TEMPO 0120/0208 30008KT -SHRA BKN040CB", "TAF UBBF 011100Z 0112/0121 08005KT 9999 SCT012 BKN030 BECMG 0114/0116 VRB04KT TEMPO 0116/0121 5000 BR BKN006 OVC016", "TAF UBBG 011100Z 0112/0212 31016KT 9999 SCT020 BKN040 TX10/0112Z TN04/0202Z TEMPO 0112/0118 29010KT BECMG 0118/0120 VRB04KT TEMPO 0121/0203 25008KT", "TAF UBBL 011043Z 0112/0212 14010KT 8000 OVC020 TX11/0112Z TN05/0202Z TEMPO 0112/0120 17016KT SCT012 BKN030 TEMPO 0120/0206 VRB04KT", "TAF UBBN 011048Z 0112/0212 VRB04KT 8000 SCT040CB BKN080 TX05/0112Z TNM01/0203Z TEMPO 0112/0118 22010KT -RA OVC020 TEMPO 0122/0204 03006KT SCT040 BKN100", "TAF UBBQ 011046Z 0112/0212 12006KT 9999 OVC020 TX07/0112Z TN02/0202Z TEMPO 0112/0115 16006KT -RA OVC015 TEMPO 0120/0204 3000 -RA BR BKN007", "TAF UBBY 011100Z 0112/0121 VRB04KT 8000 SCT007 OVC020 TEMPO 0115/0121 -RA", "TAF UBBZ 011050Z 0112/0121 09005KT 9999 SCT020 BKN030 TEMPO 0114/0121 VRB04KT 6000 BKN006 BKN016", "TAF UBEE 011100Z 0112/0121 VRB04KT 9999 SCT015 BKN030 TEMPO 0112/0118 33008KT", "TAF UCFL 011043Z 0112/0212 35003G08MPS 9999 SCT030CB BECMG 0205/0207 14003G08MPS", "TAF UCFM 011051Z 0112/0212 05007G12MPS 6000 SCT050 TEMPO 0112/0118 06017G22MPS 2000 BLDU TEMPO 0118/0124 06012G17MPS 2000 BLDU", "TAF UCFO 011044Z 0112/0212 18003G08MPS 9999 SCT050CB TEMPO 0112/0118 VRB07G12MPS 2000 TSRA DU BKN020CB PROB40 TEMPO 0118/0124 VRB15MPS -TSRA BKN030CB BECMG 0202/0204 32003G08MPS", "TAF UDSG 011100Z 0112/0212 33008KT 9999 SCT040 TEMPO 0112/0120 VRB18KT SCT030CB BKN040", "TAF UDYZ 011100Z 0112/0212 03006KT 9999 BKN030 TEMPO 0112/0121 06016KT -RA SCT010", "TAF UEEE 011100Z 0112/0218 30005G10MPS CAVOK TEMPO 0112/0124 2100 -SHSN DRSN SCT020CB BECMG 0202/0204 21003G08MPS", "TAF UERP 011100Z 0112/0212 22004G09MPS 9999 BKN020 OVC100 TEMPO 0200/0210 26006G13MPS 3000 -SN DRSN", "TAF UERR 011100Z 0112/0212 33003MPS CAVOK BECMG 0116/0118 25005G10MPS", "TAF UGAM 011000Z 0111/0117 27007KT 9999 OVC050", "TAF UGKO 011100Z 0112/0212 08010KT CAVOK TX19/0211Z TN02/0203Z TEMPO 0112/0117 VRB02KT BECMG 0210/0212 27012KT", "TAF UGMS 011000Z 0111/0117 VRB02KT 9999 SCT090", "TAF UGSB 011100Z 0112/0212 35010KT CAVOK TX21/0211Z TN06/0203Z BECMG 0114/0117 12012KT TEMPO 0119/0207 12022KT BECMG 0208/0210 01010KT SCT100", "TAF UGTB 011100Z 0112/0212 31015KT 9999 SCT040 BKN070 TX16/0212Z TN03/0202Z BECMG 0117/0119 SCT065 BECMG 0208/0210 32025KT", "TAF UHBB 011052Z 0112/0212 14003G08MPS 9999 SCT033CB TEMPO 0120/0204 3100 -SHRA SCT020CB BECMG 0200/0202 36003G08MPS", "TAF UHHH 011051Z 0112/0218 07003MPS 9999 SCT020", "TAF UHMA 011059Z 0112/0212 31014G19MPS 1500 BLSN FEW015 SCT025 TEMPO 0112/0206 28019G24MPS 0400 BLSN SCT002 TEMPO 0206/0209 32010G15MPS 9999 DRSN TEMPO 0209/0212 33006G11MPS 9999 DRSN", "TAF UHMM 011046Z 0112/0218 24003G08MPS 3100 BR BKN010 OVC020 TEMPO 0112/0218 0500 -SN FZFG VV004", "TAF UHPP 011046Z 0112/0218 36003G08MPS 2000 BR OVC010 TEMPO 0112/0122 0700 FZFG VV002 BECMG 0122/0124 9999 NSW SCT030 TEMPO 0200/0209 17005MPS", "TAF UHSS 011055Z 0112/0218 01004MPS 9999 BKN006 BKN016CB TEMPO 0112/0123 1400 BR BECMG 0123/0124 BKN030CB BECMG 0200/0202 18003MPS", "TAF UHWW 011050Z 0112/0212 25003MPS 6000 NSC BECMG 0118/0120 0300 FZFG VV002 BECMG 0122/0123 9999 NSW BKN016 BECMG 0200/0202 24003G08MPS SCT020 TEMPO 0202/0210 25012MPS", "TAF UIAA 011100Z 0112/0212 30005G10MPS 9999 BKN030CB TEMPO 0112/0212 36010G17MPS 3100 -SHSN OVC014CB", "TAF UIBB 011100Z 0112/0212 33003G08MPS 9999 FEW001 SCT020CB", "TAF UIII 011100Z 0112/0212 32008G13MPS 9999 SCT040CB BECMG 0114/0116 32003G08MPS", "TAF UIUU 011100Z 0112/0212 34005G10MPS 9999 BKN040CB TEMPO 0112/0212 04003G08MPS", "TAF ULAA 011100Z 0112/0212 28003MPS 9999 BKN020 TEMPO 0112/0115 32003MPS -SHSN BKN017CB TEMPO 0115/0206 0400 FZFG FEW002", "TAF ULLI 011057Z 0112/0212 03004MPS 3000 -SN BKN007 OVC016 TEMPO 0112/0119 1500 SHSN BKN005 BKN016CB FM011900 01005G11MPS 9999 BKN016 TEMPO 0119/0121 BKN010", "TAF ULMM 011050Z 0112/0212 31005G11MPS 6000 -SHSN DRSN BKN016CB TEMPO 0112/0118 35008G16MPS 0300 +SHSN BLSN VV003 BECMG 0119/0120 33005G15MPS", "TAF ULOO 011057Z 0112/0121 05003G08MPS 6000 -RA BKN007 OVC016 TEMPO 0112/0116 4000 -SHRASN BKN005 BKN015CB TEMPO 0116/0121 04008G13MPS 1200 SHSNRA BR BKN004 BKN016CB", "TAF ULPB 011058Z 0112/0121 36003MPS 6000 BKN016 TEMPO 0117/0121 4000 -SN BR BKN010", "TAF ULWC 011100Z 0112/0121 05003MPS 9999 BKN020 TEMPO 0116/0121 BKN010", "TAF UMBB 011118Z 0112/0121 23004MPS 6000 BKN020 TEMPO 0112/0118 3100 -SHRA BR BKN011 BKN016CB TEMPO 0118/0121 33003MPS 2100 -SHRA BR BKN006 BKN014CB", "TAF UMGG 011105Z 0112/0212 17007MPS 6000 BKN010 TEMPO 0112/0117 20009G14MPS 2000 SHRA BKN005 BKN020CB TEMPO 0117/0204 15006MPS 1200 SHRA BR BKN004 BKN015CB TEMPO 0204/0212 16006G11MPS 2000 SHRA BR BKN005 BKN020CB", "TAF UMII 011112Z 0112/0121 17003G08MPS 5000 BR OVC005 TEMPO 0112/0121 13003G08MPS 1000 SHRA BR BKN003 BKN010CB", "TAF UMKK 011058Z 0112/0212 01005G10MPS 6000 -DZ BKN004 TEMPO 0112/0124 4000 BR BKN003 BECMG 0200/0202 FEW011 BKN017 BECMG 0206/0208 02007G15MPS", "TAF UMMG 011104Z 0112/0121 02003MPS 2500 -RA BR OVC004 TEMPO 0112/0115 03003MPS 0700 -DZ FG VV002 TEMPO 0115/0121 36003MPS 1400 SHRA BR BKN003CB", "TAF UMMS 011100Z 0112/0212 14005G10MPS 1200 -RA BR BKN002 TEMPO 0112/0114 0300 -TSRA FG BKN001 BKN012CB TEMPO 0114/0207 0300 -SHRA FG BKN001 BKN012CB BECMG 0207/0208 01005G10MPS 6000 NSW BKN005 TEMPO 0208/0212 03008G13MPS 3000 -SHRA BKN003 BKN015CB", "TAF UMOO 011105Z 0112/0121 14003G08MPS 4000 BR BKN006 TEMPO 0112/0121 19004G09MPS 1200 SHRA BR BKN004 BKN016CB", "TAF UNAA 011051Z 0112/0212 34003G08MPS 9999 SCT035CB", "TAF UNBB 011100Z 0112/0212 09003G08MPS 9999 SCT040 TEMPO 0112/0124 04005MPS", "TAF UNEE 011100Z 0112/0212 30003G08MPS 8000 SCT040CB BECMG 0202/0205 16003G08MPS", "TAF UNKL 011041Z 0112/0212 23003G08MPS 9999 SCT017CB", "TAF UNNT 011100Z 0112/0212 31005G12MPS 8000 SCT040 BECMG 0113/0117 18003G08MPS", "TAF UNOO 011050Z 0112/0212 15006G13MPS 9999 NSC BECMG 0114/0115 15003G08MPS", "TAF UNTT 011100Z 0112/0121 VRB01MPS CAVOK", "TAF UNWW 011100Z 0112/0212 04003G08MPS 8000 BKN040", "TAF UOOO 011059Z 0112/0212 19012G22MPS 0500 SN BLSN OVC016 TEMPO 0112/0212 1100 SN BLSN BKN006 OVC016", "TAF URKA 011058Z 0112/0212 16010G18MPS 9999 SCT020 BECMG 0113/0115 13006G12MPS TEMPO 0206/0212 17006G12MPS", "TAF URKK 011046Z 0112/0212 17003G08MPS 9999 SCT020 BECMG 0121/0123 13003G08MPS BECMG 0203/0205 17003G08MPS", "TAF URMG 011100Z 0112/0121 12003G08MPS 9999 BKN016", "TAF URML 011100Z 0112/0121 34007G13MPS 9999 BKN017 TEMPO 0112/0118 02003G10MPS 6000 -RA OVC016", "TAF URMM 011100Z 0112/0212 09006G13MPS 9999 BKN040 TX14/0211Z TN01/0202Z BECMG 0115/0117 10003G08MPS BKN016 BECMG 0205/0207 10006G13MPS", "TAF URMN 011100Z 0112/0121 12003G08MPS 9999 SCT030", "TAF URMO 011100Z 0112/0121 06003G08MPS 9999 BKN020", "TAF URMT 011100Z 0112/0121 13003G09MPS 9999 SCT030 TEMPO 0112/0115 13006G12MPS", "TAF URRP 011056Z 0112/0212 17003G12MPS 9999 SCT016 SCT030CB TEMPO 0112/0118 14003G12MPS BECMG 0118/0122 12003G12MPS", "TAF URSS 011055Z 0112/0212 18005G10MPS 9999 FEW050 BECMG 0117/0118 05003G08MPS SCT100 BECMG 0120/0122 04007MPS BECMG 0205/0207 16003G08MPS BKN100", "TAF URWA 011100Z 0112/0121 36006G13MPS 6000 SCT016 TEMPO 0112/0115 32008G15MPS -SHRA FEW007 BKN016CB TEMPO 0115/0118 -RA BKN016", "TAF URWI 011055Z 0112/0121 01003G10MPS 9999 SCT016 TEMPO 0112/0121 05003G08MPS", "TAF URWW 011058Z 0112/0121 25006G14MPS 9999 BKN016 SCT020CB TEMPO 0112/0121 28003G10MPS", "TAF USCC 011100Z 0112/0212 18005G14MPS 9999 SCT040 TEMPO 0112/0118 17010G18MPS -SHRA BKN020CB", "TAF USCM 011100Z 0112/0121 16003G12MPS 9999 BKN040 TEMPO 0112/0118 15008G16MPS -SHRA BKN020CB", "TAF USDA 011051Z 0112/0121 26004MPS 6000 FEW011 SCT016 BECMG 0114/0115 27002MPS TEMPO 0118/0121 02004MPS", "TAF USHH 011032Z 0112/0212 19005G13MPS 9999 BKN020 TEMPO 0112/0118 20007G16MPS 5000 -SHRA FEW005 BKN016CB BECMG 0118/0120 22006G15MPS TEMPO 0118/0203 5000 -SHSNRA SCT005 BKN016CB", "TAF USNN 011053Z 0112/0212 20006G13MPS 9999 SCT016 BKN030CB TEMPO 0112/0121 19008G16MPS BECMG 0202/0204 24007G17MPS", "TAF USPP 011057Z 0112/0212 19005G14MPS 8000 -RA BKN016 TEMPO 0112/0115 -SHRA BKN011CB BECMG 0122/0123 21003G09MPS BECMG 0204/0205 9999 NSW SCT030", "TAF USRR 011055Z 0112/0212 20007G14MPS 9999 BKN020 TEMPO 0112/0203 19012G20MPS 5000 -SHSNRA FEW007 BKN016CB", "TAF USSS 011046Z 0112/0212 16007G18MPS 9999 BKN020 BECMG 0113/0116 18005G16MPS FM012100 16003G12MPS 6000 SCT020 BECMG 0204/0206 9999", "TAF USTR 011048Z 0112/0212 18009G14MPS 9999 SCT030 TEMPO 0112/0115 17017MPS BECMG 0200/0202 20006G12MPS", "TAF UTAA 011045Z 0111/0212 32010G20KT 6000 SCT030CB BKN030 TEMPO 0111/0115 27016G26KT 2000 TSSHRA BN015 BECMG 0116/0118 27018KT TEMPO 0118/0124 23012KT 2000 -RA BKN010 BECMG 0200/0202 02014KT", "TAF UTAK 011030Z 0112/0212 32018G28KT 5000 -RA BKN005 OVC100 TEMPO 0112/0115 32024KT 2500 -SHRA BR BKN003 SCT026CB OVC100 PROB40 TEMPO 0113/0115 VRB26KT TS TEMPO 0115/0120 1000 RA BR BKN001 OVC070", "TAF UTAM 011035Z 0112/0212 29016G26KT 3000 DRDU BKN030 SCT050CB TEMPO 0112/0120 32022G32KT 0600 DS -TSSHRA VV007 BECMG 0120/0121 3000 BR -RA BKN015 TEMPO 0121/0206 1500 BR TSRA BKN007", "TAF UTAT 011040Z 0112/0212 13016G26KT 6000 SCT050 BKN100 TEMPO 0112/0113 17016G26KT BECMG 0113/0114 21016G26KT PROB40 TEMPO 0113/0115 25018G28KT 5000 -TSRA BLDU SCT050CB BECMG 0115/0117 30018G28KT 3000 -SHRA BLDU SCT050CB OVC050 PROB40 TEMPO 0115/0203 33024G34KT 1000 TSRA DS SCT030CB", "TAF UTAV 011030Z 0111/0212 36014KT 6000 BKN030 SCT050CB TEMPO 0111/0118 30016G26KT 2000 BLDU PROB40 TEMPO 0111/0120 VRB34KT 0500 DS -TSRA VV004", "TAF UTDD 010900Z 0110/0122 VRB02MPS 7000 SCT050CB BKN100 TEMPO 0110/0122 VRB08MPS -TSRA", "TAF UTDK 010900Z 0110/0119 VRB02MPS 7000 SCT050CB BKN080 TEMPO 0110/0119 VRB08MPS -TSRA", "TAF UTDL 010900Z 0110/0122 VRB02MPS 9999 SCT080 TEMPO 0110/0118 24006MPS -TSRA SCT050CB", "TAF UTDT 010900Z 0110/0119 VRB02MPS 7000 SCT040CB BKN100 TEMPO 0110/0119 VRB08MPS -TSRA", "TAF UTFF 010900Z 0110/0119 34010KT 7000 NSC TEMPO 0112/0119 26014KT FEW060CB", "TAF UTFN 011100Z 0112/0212 34010KT 7000 NSC TEMPO 0112/0119 21014KT TS SCT050CB", "TAF COR UTNN 011100Z 0112/0212 08012G22KT 9999 SCT040 BKN100 BECMG 0119/0121 25010KT", "TAF UTNU 011100Z 0112/0212 07012G22KT 9999 SCT040 BKN100 BECMG 0118/0120 25010G20KT", "TAF UTSA 011101Z 0112/0212 VRB03KT 7000 NSC TEMPO 0112/0123 26016G26KT 2500 -TSRA -DS SCT010 BKN040CB", "TAF UTSB 011101Z 0112/0212 VRB03KT 7000 SCT033 TEMPO 0112/0123 29016G26KT 2500 -TSRA -DS SCT010 BKN040CB", "TAF UTSK 010851Z 0110/0119 34010KT CAVOK TEMPO 0110/0119 25010KT 9999 SCT050CB", "TAF UTSS 011101Z 0112/0212 30012KT 9999 SCT066CB BKN100 TEMPO 0112/0118 25014G24KT 3500 -TSRA DU BKN050CB TEMPO 0118/0203 VRB20G30KT 2000 TSRA BKN033CB", "TAF UTST 0106/0206 VRB06KT 6000 SCT060CB SCT100 TEMPO 0106/0111 10012G22KT BKN040 TEMPO 0111/0121 VRB19G21KT 3000 -TSRA SQ -DS BKN040CB BKN100", "TAF UTTT 011100Z 0112/0212 04010KT 7000 NSC TEMPO 0112/0120 27010KT FEW060CB PROB40 TEMPO 0112/0120 VRB10G20KT -TSRA SCT050CB", "TAF UUBC 011057Z 0112/0121 15003G08MPS 9999 BKN016", "TAF UUBP 011056Z 0112/0121 17005G10MPS 9999 FEW007 BKN016 TEMPO 0112/0116 3000 -SHRA BKN005 BKN016CB TEMPO 0116/0121 BKN007", "TAF UUBW 011051Z 0112/0212 18003MPS 9999 BKN016 TX10/0212Z TN04/0204Z BECMG 0115/0116 2500 BR OVC005 TEMPO 0116/0206 0200 FG OVC002 BECMG 0206/0208 6000 NSW FEW005 BKN011", "TAF UUDD 011056Z 0112/0218 19006MPS 8000 BKN016 TX11/0212Z TN04/0202Z TEMPO 0118/0206 BKN004 PROB40 TEMPO 0120/0206 0300 FG", "TAF UUDL 011057Z 0112/0212 18003MPS 8000 OVC011 TX08/0212Z TN02/0203Z TEMPO 0112/0206 3000 -RA BR OVC005", "TAF UUEE 011055Z 0112/0212 18003G08MPS 9999 BKN025 TX08/0112Z TN03/0201Z BECMG 0118/0122 BKN009 BECMG 0122/0124 5000 -RA BR TEMPO 0123/0209 1200 DZ BR OVC003", "TAF UUMO 011055Z 0112/0121 20003G08MPS 9999 FEW007 BKN016 TEMPO 0116/0121 2000 BR BKN004", "TAF UUOB 011055Z 0112/0121 17006MPS 6000 BKN016", "TAF UUOK 011057Z 0112/0121 19004G09MPS 9999 BKN008 TEMPO 0115/0121 2000 DZ BR OVC003", "TAF UUOL 011100Z 0112/0121 19003G08MPS 9999 BKN016", "TAF UUOO 011100Z 0112/0121 18003G08MPS 9999 BKN016", "TAF UUWW 011055Z 0112/0212 19003MPS 9999 BKN016 TX10/0209Z TN05/0203Z TEMPO 0116/0206 1000 BR BKN004", "TAF UUYY 011100Z 0112/0212 20006G14MPS 6000 -SHRASN FEW011 BKN017CB TEMPO 0112/0118 1000 SHSNRA BKN005 BKN016CB BECMG 0118/0119 21003G08MPS", "TAF UWGG 011055Z 0112/0212 19003G08MPS 8000 SCT016 OVC025 TX09/0209Z TN03/0121Z TEMPO 0112/0209 BKN011CB", "TAF UWKD 011057Z 0112/0212 21005G12MPS 9999 BKN016 TX06/0112Z TN02/0203Z TEMPO 0112/0115 6000 -SHRA BKN020CB BECMG 0115/0117 14003MPS", "TAF UWKE 011050Z 0112/0212 22008G13MPS 9999 BKN020 TEMPO 0112/0118 17010G15MPS BKN011 BECMG 0118/0119 18003G08MPS BECMG 0206/0207 11003G09MPS TEMPO 0206/0212 -RA BKN016", "TAF UWKS 011055Z 0112/0121 23008G15MPS 9999 -SHRA BKN020CB TX06/0113Z TN02/0121Z BECMG 0117/0119 17003G08MPS", "TAF UWLL 011055Z 0112/0212 20006G13MPS 9999 BKN016 TX12/0112Z TN01/0203Z TEMPO 0112/0115 24012G19MPS BKN010CB BECMG 0118/0119 16003MPS BECMG 0203/0204 09003G08MPS", "TAF UWLW 011054Z 0112/0212 21007G15MPS 9999 BKN016 TX12/0112Z TN01/0203Z BECMG 0115/0117 16003MPS", "TAF UWOO 011048Z 0112/0212 15005G12MPS 6000 BKN016 TX16/0210Z TN02/0201Z TEMPO 0112/0116 13003G10MPS BECMG 0116/0118 10005G12MPS TEMPO 0205/0212 12007G14MPS", "TAF UWOR 011051Z 0112/0121 12010G15MPS 9999 BKN016 TX12/0112Z TN02/0121Z TEMPO 0112/0116 14013G19MPS BECMG 0116/0118 11005G14MPS", "TAF UWPS 011055Z 0112/0121 21006G13MPS 9999 BKN030 TX08/0112Z TN04/0121Z", "TAF UWSG 011100Z 0112/0121 18003G09MPS CAVOK TX12/0112Z TN04/0121Z TEMPO 0112/0115 16008MPS SCT020", "TAF UWUU 011059Z 0112/0212 VRB01MPS 8000 BKN025 TX13/0212Z TN01/0202Z TEMPO 0112/0115 23003MPS 3500 -RA OVC010 TEMPO 0115/0206 10003MPS 0300 FG VV003", "TAF UWWW 011050Z 0112/0212 19007G14MPS 9999 BKN016 TX12/0211Z TN03/0203Z BECMG 0115/0117 14003G10MPS BECMG 0122/0124 08003G10MPS TEMPO 0206/0212 12006G13MPS", "TAF VAAH 010800Z 0109/0118 31004KT 6000 FEW020 BECMG 0110/0112 29003KT BECMG 0113/0115 33006KT 4000 FU NSC BECMG 0116/0118 31003KT", "TAF VAAU 010800Z 0109/0118 21005KT 5000 FU NSC BECMG 0115/0117 27004KT 4000 HZ FU FEW100", "TAF VABB 011100Z 0112/0218 29010KT 5000 FU FEW020 BECMG 0114/0116 30008KT 4000 HZ FU FEW020 SCT100 BECMG 0120/0122 01005KT 3000 BR HZ TEMPO 0120/0204 2000 BR HZ BECMG 0201/0203 07007KT 2500 BR HZ SCT018 SCT025 BKN090 BECMG 0204/0206 32008KT 3000 HZ FU FEW020 BECMG 0207/0209 28012KT 5000 FU FEW020 BECMG 0207/0212 28012KT 5000 FU TEMPO 0207/0212 28012G22KT 6000 BECMG BECMG 0214/0216 29008KT 4000 HZ FU", "TAF VABJ 010930Z 0112/0124 24010KT 6000 FEW030 BECMG 0117/0119 VRB02KT NSC", "TAF VABO 010800Z 0109/0118 27003KT 6000 FEW020 SCT025 BECMG 0110/0112 33003KT BECMG 0113/0115 27005KT 4000 FU NSC BECMG 0116/0118 23003KT", "TAF VABV 010800Z 0109/0118 07003KT 6000 NSC BECMG 0110/0112 12006KT BECMG 0113/0115 21009KT 4000 FU BECMG 0116/0118 23006KT", "TAF VADU 010800Z 0109/0118 21006KT 6000 FEW020 BECMG 0113/0115 29005KT 4000 FU BECMG 0116/0118 33006KT", "TAF VAJL 010500Z 0106/0115 27009KT 4000 FU FEW020 BECMG 0109/0111 21005KT 5000 FU SCT020", "TAF VAJM 010930Z 0112/0124 27010KT 6000 FEW025 BECMG 0120/0122 VRB02KT 4000 BR FEW015", "TAF VAKE 010800Z 0109/0118 23008KT 5000 FU FEW020 BECMG 0113/0115 27008KT 4000 FU BECMG 0116/0118 29006KT", "TAF VAKP 010800Z 0109/0118 32010KT 5000 FU FEW020 BECMG 0112/0114 4000 FU FEW100", "TAF VANP 011100Z 0112/0121 29005 4000 HZ SCT020 BECMG 0115/0117 00000KT 3000 HZ FEW100", "TAF VAOZ 010800Z 0109/0121 30010KT 6000 FEW030", "TAF VAPO 010500Z 0106/0212 29010KT 6000 NSC TEMPO 0111/0113 30015G25KT TEMPO 0201/0204 5000 HAZE TEMPO 0210/0212 28015G25KT FEW030 FEW030TCU", "TAF VAPR 110500Z 0109/0118 29008KT 6000 FEW020 SCT025 BECMG 0113/0115 33006KT 4000 FU BECMG 0116/0118 31004KT", "TAF VARK 010800Z 0109/0118 31004KT 6000 NSC BECMG 0110/0112 35005KT BECMG 0113/0115 33008KT 4000 FU BECMG 0116/0118 27006KT", "TAF VASD 010800Z 0109/0118 21005KT 5000 FU NSC BECMG 0115/0117 27004KT 4000 HZ FU FEW100", "TAF VASL 010800Z 0109/0118 32010KT 5000 FU NSC BECMG 0115/0117 4000 FU", "TAF VASU 010800Z 0109/0118 29004KT 6000 NSC BECMG 0110/0112 25005KT FEW020 BECMG 0113/0115 4000 FU NSC BECMG 0116/0118 27004KT", "TAF VAUD 011100Z 0112/0121 27005KT 6000 SCT030 BECMG 0114/0116 VRB03KT 4000 HZ", "TAF VCBI 011100Z 0112/0218 26008KT 9999 SCT018 TX33/0207Z TN24/0200Z PROB30 TEMPO 0112/0115 -TSRA/SHRA SCT016 FEW020CB BECMG 0115/0117 VRB05KT", "TAF VCRI 010500Z 0106/0212 VRB05KT 9999 FEW018 TX33/0108Z TN23/0200Z PROB30 TEMPO 0108/0115 7000 -TSRA/SHRA SCT018 FEW020CB BKN080", "TAF VDPP 010500Z 0106/0124 16008KT 9999 SCT017 TEMPO 0107/0111 SCT015 FEW017CB SCT040", "TAF VDSR 010500Z 0106/0124 18008KT 9999 SCT017 TEMPO 0108/0112 SCT015 FEW017CB SCT040", "TAF VDSV 010500Z 0106/0124 20010KT 9999 SCT017 TEMPO 0106/0111 SCT015 FEW017CB SCT040", "TAF VEAB 010930Z 0112/0124 32005KT 6000 FEW025 SCT100 TEMPO 0112/0115 30015G25KT 4000 TSRA SCT020 FEW030CB BKN090", "TAF VEAN 010500Z 0106/0115 02005KT 4000 -RA HZ FEW008 SCT018 BKN090 BECMG 0113/0115 2500 -RA BR", "TAF VEAT 011100Z 0112/0121 21003KT 4000 BR SCT018 BKN100 TEMPO 0118/0121 30010G20KT 2000 -TSRA SCT018 FEW030CB BKN100", "TAF VEBD 010500Z 0106/0212 27005KT 5000 HZ SCT030 BKN090 BECMG 0108/0110 SCT030 BKN090 FEW030CB TEMPO 0110/0114 2000 TSRA BECMG 0203/0205 5000 HZ SCT030 SCT080 TEMPO 2709/2712 SCT030 BKN090 FEW030CB", "TAF VEBI 010800Z 0109/0118 12007KT 3500 -RA HZ FEW008 SCT018 BKN090 TEMPO 0111/0113 1500 -TSRA FEW008 SCT018 FEW025CB OVC080", "TAF VEBN 011100Z 0112/0121 VRB02KT 4000 HZ SCT020 SCT100 BECMG 0116/0118 3000 HZ", "TAF VEBS 011100Z 0112/0218 23004KT 5000 HZ SCT018 BKN100 BECMG 0113/0115 4000 HZ SCT018 BECMG 0123/0201 2500 BR SCT018 SCT100 BECMG 0204/0206 4000 HZ SCT018 SCT100 TEMPO 0208/0212 2000 -TSRA BKN018 FEW030CB OVC090 BECMG 0214/0216 3000 HZ SCT018 SCT100", "TAF VEBU 010500Z 0106/0115 22003KT 5000 HZ FEW020 BKN100 TEMPO 0108/0112 32010G15KT 2000 -TSRA SCT020 FEW030CB BKN100 BECMG 0110/0112 32004KT 4000 HZ", "TAF VECC 011100Z 0112/0121 14005KT 3200 HZ SCT018 BKN100 TEMPO 0114/0118 30015G25KT 1500 TSRA SCT015 FEW025CB OVC090", "TAF VECO 010200Z 0103/0112 07005KT 2000 -RA HZ FEW010 SCT018 OVC090 TEMPO 0103/0107 1400 TSRA FEW010 SCT015 FEW025CB OVC090 BECMG 0108/0110 24005KT 3200 -RA HZ SCT018 BKN090", "TAF VECX 010930Z 0112/0124 27005KT 6000 SCT030 SCT100 BECMG 0114/0116 SCT025 FEW030CB SCT100 BECMG 0122/0124 VRB02KT 5000 HZ SCT100", "TAF VEDG 011100Z 0112/0121 16005KT 3000 HZ SCT018 BKN100 TEMPO 0112/0116 28015G25KT 1500 TSRA SCT015 FEW025CB OVC090", "TAF VEDO 010500Z 0106/0115 29004KT 4000 HZ FEW020 BECMG 0108/0110 5000 HZ FEW020 SCT025", "TAF VEDZ 010500Z 0106/0115 32005KT 4000 -RA HZ FEW008 SCT018 BKN090 BECMG 0113/0115 2500 -RA BR", "TAF VEGK 010330Z 0106/0118 29005KT 5000 -RABR FEW020 SCT080 BECMG 0107/0109 6000 SCT030 BKN100 TEMPO 0110/0112 28010G20KT 4000 TSRA SCT020 FEW030CB BKN090", "TAF VEGT 011100Z 0112/0121 00000KT 3000 -RA BR SCT018 BKN100 TEMPO 0116/0119 1500 TSRA FEW010 SCT016 FEW025CB OVC090", "TAF VEGY 011100Z 0112/0218 30005KT 5000 -RA HZ SCT018 SCT100 BECMG 0114/0116 00000KT 3000 -RA HZ BECMG 0124/0201 1500 BR HZ FEW100 BECMG 0202/0204 30006KT 3000 HZ BECMG 0205/0207 5000 HZ FEW020 SCT025 BECMG 0214/0216 00000KT 3000 HZ FEW100", "TAF VEIM 011100Z 0112/0121 00000KT 3500 -RA BR SCT018 BKN100 TEMPO 0115/0119 1500 TSRA FEW010 SCT015 FEW025CB OVC090", "TAF VEJH 010800Z 0109/0118 23005KT 4000 HZ SCT020 SCT100 BECMG 0113/0115 3000 HZ SCT018", "TAF VEJR 010500Z 0106/0115 20003KT 5000 HZ FEW020 BKN100 TEMPO 0108/0112 32010G15KT 2000 -TSRA SCT020 FEW030CB BKN100 BECMG 0110/0112 31004KT 4000 HZ", "TAF VEJS 011100Z 0112/0121 15005KT 5000 HZ FEW020 SCT100 BECMG 0114/0116 3000 HZ FEW100", "TAF VEJT 010930Z 0112/0124 04010KT 1500 TSRABR SCT008 BKN010 FEW030CB BKN090 BECMG 0114/0116 30005KT 3000 RABR SCT010 BKN015 BKN090 BECMG 0116/0118 24010KT 1500 TSRABR SCT008 SCT010 BKN015 FEW030CB BKN080 BECMG 0122/0124 800 RABR SCT010 SCT020 FEW030CB BKN080", "TAF VEKI 312300Z 0100/0206 VRB02KT 1500 BR SCT020 BKN100 BECMG 0104/0106 2000 BR BECMG 0107/0109 27004KT 3000 HZ BECMG 0116/0118 VRB02KT 2000 BR BECMG 0200/0202 1000 MIFG BECMG 0204/0206 VRB02KT 1500 BR", "TAF VEKU 010930Z 0112/0124 09005KT 4000 BR SCT025 BKN090 TEMPO 0122/0124 21010G15KT 2000 TSRA", "TAF VELP 010800Z 0109/0118 33005KT 4000 BR SCT016 SCT025 BKN100 TEMPO 0114/0118 2000 -TSRA SCT008 SCT016 FEW030CB BKN090", "TAF VELR 010800Z 0109/0118 09007KT 3500 -RA HZ SCT018 BKN090 TEMPO 0115/0117 1500 -TSRA FEW008 SCT018 FEW025CB OVC080", "TAF VEMN 011100Z 0112/0121 09005KT 2000 -RA SCT008 SCT018 FEW025CB OVC090 TEMPO 0118/0120 14010KT 0800 -TSRA", "TAF VEMR 010800Z 0109/0118 05007KT 3500 -RA HZ SCT018 BKN100 TEMPO 0113/0115 1500 -TSRA FEW008 SCT018 FEW025CB OVC090", "TAF VEPT 011100Z 0112/0218 30005KT 5000 -RA HZ SCT018 SCT100 BECMG 0113/0115 16003KT 3000 -RA HZ BECMG 0123/0200 00000KT 1500 BR HZ FEW100 BECMG 0201/0203 30006KT 3000 HZ BECMG 0205/0207 5000 HZ FEW020 SCT025 BECMG 0213/0215 00000KT 3000 HZ FEW100", "TAF VEPY 010800Z 0109/0118 20005KT 2000 -RA BR FEW008 SCT015 OVC090 BECMG 0113/0115 00000KT 1400 -RA BR", "TAF VERC 011100Z 0112/0218 14007KT 2000 -TSRA HZ SCT018 FEW030CB BKN090 BECMG 0113/0115 00000KT 2500 -RA BR SCT018 SCT100 BECMG 0204/0206 23005KT 5000 -RA HZ FEW020 SCT025 BECMG 0208/0210 SCT020 FEW030CB SCT100 BECMG 0214/0216 00000KT 3000 HZ FEW100", "TAF VERK 010800Z 0109/0118 23005KT 4000 HZ SCT018 SCT100 BECMG 0113/0115 3000 HZ SCT018", "TAF VERP 011100Z 0112/0121 32005KT 5000 HZ NSC BECMG 0114/0116 VRB03KT 3000HZ", "TAF VERU 010800Z 0109/0118 14007KT 4000 -RA HZ SCT018 BKN100 TEMPO 0114/0117 1500 -TSRA FEW010 SCT018 FEW025CB OVC090", "TAF VETJ 010500Z 0106/0115 24005KT 4000 -RA HZ FEW008 SCT018 BKN090 BECMG 0113/0115 2500 -RA BR", "TAF VETZ 010930Z 0112/0124 20010KT 5000 RA SCT015 BKN080 FEW030TCU TEMPO 0114/0120 3000 TSRABR SCT010 BKN080 FEW030CB", "TAF VEZO 010500Z 0106/0115 32005KT 4000 -RA HZ FEW008 SCT018 BKN090 BECMG 0113/0115 2500 -RA BR", "TAF VGEG 010500Z 0106/0212 24010KT 4000 HZ SCT016 SCT100 TEMPO 0111/0114 18020G40KT 1900 RA/TSRA SCT007 FEW025CB OVC090 BECMG 0115/0117 32010KT 3800 HZ SCT016 TEMPO 0200/0203 17020G40KT 1800 RA/TSRA SCT008 FEW025CB OVC090 BECMG 0204/0206 20010KT 3100 HZ SCT016 SCT100", "TAF VGHS 010500Z 0106/0212 21008KT 4000 HZ FEW015 SCT100 TEMPO 0106/0112 28025KT 2000 RA/TSRA BKN008 FEW025CB OVC090 BECMG 0115/0117 18006KT 3500 HZ SCT012 BKN100 TEMPO 0115/0121 30025G35KT 2000 RA/TSRA BKN008 FEW025CB OVC090", "TAF VHHH 011100Z 0112/0218 09010KT 9000 FEW010 SCT020 TX24/0206Z TN21/0123Z", "TAF VIAG 010500Z 0106/0212 30007KT 6000 SCT030 TEMPO 0109/0113 30010G20KT SCT020 FEW030TCU SCT100 BECMG 0120/0121 5000 BR FEW250 TEMPO 0201/0203 VRB02KT 3000 BR BECMG 0206/0207 SCT030 SCT250", "TAF VIAR 011101Z 0112/0218 04004KT 4000 BR SCT030 OVC090 TEMPO 0112/0115 FEW035CB BECMG 0115/0117 11004KT 3000 HZ BR FEW100 BECMG 0200/0202 04003KT 2000 BR BECMG 0204/0206 24005KT 3500 HZ BR FEW030 SCT080 BECMG 0207/0209 32008KT 5000 HZ FEW030 SCT080 TEMPO 0209/0212 FEW035CB BECMG 0215/0217 VRB02KT 3500 HZ BR", "TAF VIBR 010500Z 0106/0115 00000KT 6000 SCT008 BKN025 OVC080", "TAF VIBT 010930Z 0112/0124 27007KT 6000 FEW015 SCT025 SCT100 TEMPO 0112/0114 25010G20KT 6000 TS SCT015 SCT025 FEW030CB BKN090 BECMG0116/0118 4000 BR BECMG 0119/0122 VRB02KT 2000 BR BECMG 0123/0124 1000 BR SCT015 SCT025", "TAF VIBY 010930Z 0112/0124 04006KT 6000 SCT025 SCT090 BECMG 0122/0124 VRB02KT 4000 BR FEW025 SCT250", "TAF VICG 010500Z 0106/0212 16010KT 6000 SCT020 BKN090 TEMPO 0109/0113 16010G20KT 4000 TSRA SCT020 FEW030CB OVC090 BECMG 0114/0115 16010KT 5000 -RABR SCT020 BKN090 BECMG 0117/0118 VRB02KT 6000 FEW020 SCT100 TEMPO 0201/0203 4000 BR BECMG 0205/0206 29010KT 6000 FEW030 SCT100", "TAF VIDN 011100Z 0112/0121 24006KT 4500 BR -RA SCT030 BKN080 TEMPO 0112/0115 FEW030CB BECMG 0115/0117 04004KT 3000 BR FEW100", "TAF VIDP 011101Z 0112/0218 32006KT 3500 HZ SCT030 BKN090 TEMPO 0112/0115 35015G30KT 1500 TSRA FEW040CB OVC080 BECMG 0115/0117 07006KT 2800 HZ BR FEW100 BECMG 0200/0202 13004KT 1500 BR BECMG 0204/0206 26006KT 2500 BR HZ NSC BECMG 0208/0210 32008G18KT 4000 HZ FEW030 SCT100 TEMPO 0210/0214 FEW040CB BECMG 0215/0217 VRB02KT 3000 HZ BR", "TAF VIGG 010500Z 0106/0115 00000KT 6000 FEW015 SCT030 FEW035CB OVC080 TEMPO 0110/0114 28010KT 2000 -TSRA FEW035CB OVC090", "TAF VIGR 010930Z 0112/0124 29010KT 6000 SCT030 BECMG 0122/0124 VRB02KT 4000 BR FEW100", "TAF VIJO 010930Z 0112/0124 32010KT 6000 FEW030 SCT250 TEMPO 0113/0114 FEW030CB", "TAF VIJP 011100Z 0112/0218 27006KT 5000 HZ SCT040 BECMG 0114/0116 VRB03KT 3000 HZ FEW040 SCT100 BECMG 0205/0207 23004KT 5000 HZ FEW100 ", "TAF VIJR 010930Z 0112/0124 24010KT 6000 FEW030 SCT100 BECMG 0118/0120 VRB02KT NSC", "TAF VILH 010330Z 0106/0118 27010KT 6000 FEW030 SCT060 BKN100 TEMPO 0110/0113 30015G25KT 5000 BLDU SCT060 BKN100 BECMG 0116/0118 VRB02KT FEW060 SCT100", "TAF VILK 011100Z 0112/0218 27005KT 5000 HZ SCT020 SCT100 BECMG 0116/0118 VRB02KT 3000 HZ BECMG 0204/0206 27006KT 5000 HZ BECMG 0216/0218 3000 HZ", "TAF VIPT 011100Z 0112/0121 VRB02KT 5000 HZ SCT030 SCT100 TEMPO 0112/0115 FEW035CB BECMG 0115/0117 35004KT 3000 HZ BR FEW100", "TAF VISM 010500Z 0106/0115 00000KT 5000 -DZ SCT030 OVC060 TEMPO 0110/0114 27010KT 2000 -TSRA FEW035CB BKN090", "TAF VISP 010930Z 0112/0124 11005KT 6000 SCT030 BECMG 0120/0121 5000 BR BECMG 0123/0124 3000 BR TEMPO 0112/0114 23010G20KT TS SCT025 FEW030CB SCT090", "TAF VISR 010930Z 0112/0124 VRB02KT 6000 TSRA SCT010 FEW020CB BKN080 BECMG 0122/0124 RA SCT010 BKN080", "TAF VIUT 010930Z 0112/0124 26010KT 6000 SCT030 FEW030TCU SCT250 BECMG 0115/0116 27008KT 6000 FEW030", "TAF VLLB 010500Z 0106/0206 27004KT 3000 FU SCT020 FEW060", "TAF VLLN 010500Z 0106/0206 32004KT 4000 FU SCT020 FEW100", "TAF VLPS 010500Z 0106/0206 14006KT 5000 HZ SCT020 SCT050", "TAF VLSK 010500Z 0106/0206 22004KT 8000 SCT020 BKN100", "TAF VLVT 010500Z 0106/0206 27004KT 7000 SCT020 FEW050", "TAF VMMC 011100Z 0112/0218 10008KT 9999 FEW010 SCT020 TEMPO 0121/0202 4000 -RA BR", "TAF VNKT 010500Z 0106/0206 23004KT 7000 FEW015 SCT250 BECMG 0107/0108 22011KT 6000 FEW015 SCT030 BKN100 PROB40 0108/0112 VRB14KT 4000 -TSRA FEW025CB OVC090 BECMG 0114/0115 09004KT 6000 FEW015 SCT100 BECMG 0201/0202 3000 BR FEW010 BECMG 0204/0205 15003KT 6000 FEW015 SCT100", "TAF VOAR 010500Z 0106/0212 21010KT 6000 FEW018 BKN090 BECMG 0107/0109 14010KT TEMPO 0110/0113 SCT018 FEW022(TCU) BKN080 BECMG 0113/0114 4500 HZ BECMG 0116/0118 VRB02KT BECMG 0202/0204 20010KT BECMG 0204/0206 6000", "TAF VOAT 010200Z 0103/0112 34005KT 5000 HZ FEW015 BECMG 0103/0104 32005KT 6000 SCT015", "TAF VOBG 011100Z 0112/0121 VRB02KT 6000 SCT012 SCT020 TEMPO 0112/0115 3000 TSRA RA SCT010 SCT020 FEW025CB BKN080", "TAF VOBL 011100Z 0112/0218 VRB02KT 6000 SCT012 SCT020 TEMPO 0112/0115 3000 TSRA RA SCT010 SCT020 FEW025CB BKN080 TEMPO 0200/0203 3000 BR SCT008 SCT012 TEMPO 0209/0215 SCT015 SCT020 FEW025CB", "TAF VOBM 011100Z 0112/0121 29008KT 6000 FEW015 TEMPO 0112/0115 SCT012 FEW025CB", "TAF VOBZ 011100Z 0112/0121 11008KT 6000 SCT015 SCT025 FEW030CB BECMG 0118/0120 16005KT 5000 HZ SCT015 SCT100", "TAF VOCB 011100Z 0112/0218 20010KT 5000 HZ SCT015 SCT080 TEMPO 0112/0118 4000 -TSRA/RA SCT012 FEW020TCU/CB BKN080 BECMG 0121/0122 VRB02KT 3000 BR BECMG 0203/0204 5000 HZ BECMG 0206/0207 20010KT 6000 BECMG 0212/0213 5000 HZ", "TAF VOCI 011100Z 0112/0218 28010KT 4000 -TSRA RA SCT012 FEW025CB BKN080 BECMG 0115/0116 12005KT 4000 -RA BR SCT015 BKN080 TEMPO 0122/0202 VRB03KT 3000 BR FEW015 SCT080 BECMG 0203/0205 09005KT 5000 HZ FEW015 BECMG 0206/0207 28010KT 6000 FEW015 FEW025TCU SCT080 TEMPO 0210/0215 28010KT 4000 -TSRA RA SCT012 FEW025CB BKN080 BECMG 0215/0216 VRB03KT 4000 -RA BR SCT015 BKN080", "TAF VOCL 011100Z 0112/0218 28010KT 5000 TS HZ SCT012 FEW025CB SCT080 BECMG 0116/0118 VRB03KT 4000 BR FEW012 SCT080 BECMG 0203/0205 29010KT 6000 FEW015 TEMPO 0212/0216 27010KT 5000 TS BR SCT012 FEW025CB SCT080 BECMG 0216/0217 VRB03KT 4000 BR FEW012 SCT080", "TAF VOCP 010800Z 0109/0118 15010KT 6000 FEW015 TEMPO 0109/0115 FEW030CB", "TAF VOGB 010800Z 0109/0118 35008KT 6000 SCT015 TEMPO 0109/0115 SCT012 FEW025CB", "TAF VOGO 010500Z 0106/0212 30010KT 6000 NSC TEMPO 0108/0112 32010G20KT FEW030 BECMG 0118/0120 35007KT FEW090 TEMPO 0200/0204 08007KT FEW090 BECMG 0205/0207 28010KT TEMPO 0209/0212 31010G20KT FEW090", "TAF VOHB 011100Z 0112/0218 29008KT 6000 FEW015 TEMPO 0112/0115 SCT012 FEW025CB TEMPO 0200/0203 3000 BR SCT010", "TAF VOHS 011100Z 0112/0121 29010KT 6000 SCT015 SCT025 TEMPO 0112/0118 VRB04KT 5000 HZ SCT020", "TAF VOHY 011100Z 0112/0121 23010KT 6000 SCT015 SCT025 TEMPO 0112/0118 VRB04KT 5000 HZ SCT020", "TAF VOJV 010800Z 0109/0118 35008KT 6000 FEW015 TEMPO 0109/0115 SCT012 FEW025CB", "TAF VOKN 011100Z 0112/0218 32010KT 5000 HZ FEW012 BECMG 0115/0116 30005KT 4000 BR FEW012 SCT080 TEMPO 0122/0202 VRB03KT 3000 BR FEW012 BECMG 0203/0205 10005KT 6000 FEW015 BECMG 0206/0207 30010KT 6000 SCT015 FEW025TCU SCT080 BECMG 0214/0216 VRB03KT 4000 BR FEW012 SCT080", "TAF VOKU 010800Z 0109/0118 18008KT 6000 SCT015 SCT025 TEMPO 0109/0115 FEW030CB", "TAF VOLT 010800Z 0109/0118 32010KT 5000 FU NSC BECMG 0115/0117 4000 FU", "TAF COR VOMD 011100Z 0112/0218 14010KT 6000 FEW020 SCT100 TEMPO 0112/0118 4000 -TSRA/RA SCT015 FEW025TCU/CB BKN080 BECMG 0121/0122 VRB02KT 5000 HZ BECMG 0203/0204 16010KT 6000 TEMPO 0212/0218 SCT018 FEW025TCU/CB BKN100", "TAF VOML 011100Z 0112/0218 29010KT 6000 FEW015 TEMPO 0112/0115 SCT012 FEW025CB BECMG 0118/0119 09005KT TEMPO 0200/0203 3000 BR SCT010 BECMG 0206/0207 29010KT", "TAF VOMM 011100Z 0112/0218 16010KT 6000 SCT020 SCT100 TEMPO 0112/0118 SCT018 FEW025TCU/CB BKN100 BECMG 0121/0122 25005KT 5000 BR BECMG 0203/0204 6000 BECMG 0206/0207 16010KT TEMPO 0212/0218 SCT018 FEW025TCU/CB BKN100", "TAF VOMY 010800Z 0109/0118 VRB02KT 6000 SCT015 TEMPO 0109/0115 3000 RA DZ SCT012 SCT020 FEW025CB BKN080", "TAF VOND 010800Z 0109/0118 21005KT 5000 FU NSC BECMG 0115/0117 27004KT 4000 HZ FU FEW100", "TAF VOPB 010800Z 0109/0118 06008KT 6000 FEW014 SCT220 BECMG 0112/0113 VRB02KT 5000 BR/HZ", "TAF VORY 011100Z 0112/0121 16008KT 6000 SCT015 SCT025 BECMG 0118/0120 16005KT 5000 HZ SCT015 SCT100", "TAF VOSR 010800Z 0109/0118 32010KT 5000 FU FEW020 BECMG 0112/0114 4000 FU FEW100", "TAF VOTP 011100Z 0112/0121 28008KT 6000 SCT015 SCT025 FEW030CB BECMG 0118/0120 31005KT 5000 -DZ HZ SCT015 FEW030CB SCT100", "TAF VOTR 011100Z 0112/0218 09010KT 5000 HZ SCT018 SCT100 TEMPO 0112/0118 4000 -TSRA/RA SCT015 FEW025TCU/CB BKN080 BECMG 0118/0119 16005KT 3000 BR BECMG 0203/0204 5000 HZ BECMG 0206/0207 12010KT 6000 BECMG 0212/0213 5000 HZ", "TAF VOTV 011100Z 0112/0218 29010KT 4000 -TSRA RA SCT012 FEW025CB BKN080 BECMG 0115/0116 30005KT 3000 -RA BR SCT015 BKN080 TEMPO 0122/0202 VRB03KT 2500 BR FEW015 SCT080 BECMG 0203/0205 30010KT 6000 FEW015 TEMPO 0210/0215 28010KT 4000 -TSRA RA SCT012 FEW025CB BKN080 BECMG 0215/0216 VRB03KT 4000 -RA BR SCT015 BKN080", "TAF VOVZ 011100Z 0112/0121 25010KT 5000 BR HZ SCT016 SCT080 TEMPO 0112/0116 22008G18KT 3000 RA SCT016 FEW022TCU/CB BKN080 BECMG 0116/0118 VRB02KT 4000 BR", "TAF VRMG 011100Z 0112/0218 34006KT 9999 FEW018TCU TEMPO 0112/0118 5000 TSRA FEW017CB", "TAF VRMH 011100Z 0112/0218 33008KT 9999 FEW019", "TAF VRMM 011100Z 0112/0218 36007KT 9999 FEW018TCU TEMPO 0112/0118 5000 5000 SHRA FEW017CB", "TAF VTBD 010500Z 0106/0212 18008KT 9000 FEW020 SCT080 TEMPO 0106/0110 12010G25KT 4000 TSRA FEW018CB SCT035", "TAF VTBO 010500Z 0106/0206 22008KT 8000 FEW020 SCT060 TEMPO 0106/0110 14010G25KT 4000 TSRA FEW018CB SCT030", "TAF VTBS 010500Z 0106/0212 18008KT 9000 FEW020 SCT080 TEMPO 0106/0110 12010G25KT 4000 TSRA FEW018CB SCT035", "TAF VTBU 010500Z 0106/0206 18010KT 9999 FEW020", "TAF VTCC 010500Z 0106/0212 16005KT 4000 HZ SCT035 BECMG 0108/0110 6000 NSW BECMG 0111/0113 24005KT BECMG 0200/0202 17005KT 2000 HZ BECMG 0207/0209 6000 NSW", "TAF VTCH 010500Z 0106/0206 22005KT 3000 HZ FEW025 BECMG 0120/0122 00000KT 1000 BR BECMG 0203/0205 20005KT 3000 HZ", "TAF VTCL 010500Z 0106/0206 24005KT 6000 FEW035", "TAF VTCN 010500Z 0106/0206 19005KT 5000 HZ FEW030", "TAF VTCP 010500Z 0106/0206 22005KT 6000 FEW045 BECMG 0121/0123 00000KT 2000 BR BECMG 0203/0205 20005KT 8000 NSW", "TAF VTCT 010500Z 0106/0212 10005KT 2000 HZ FEW030 BECMG 0110/0112 24005KT BECMG 0116/0118 32005KT BECMG 0200/0202 10005KT", "TAF VTPB 010500Z 0106/0206 15005KT 8000 FEW030", "TAF VTPH 010500Z 0106/0206 15013KT 9999 FEW020 BECMG 0116/0118 24003KT BECMG 0203/0205 15013KT", "TAF VTPM 010500Z 0106/0206 20005KT 7000 FEW030", "TAF VTPO 010500Z 0106/0206 17005KT 8000 FEW030", "TAF VTPP 010500Z 0106/0206 17005KT 8000 FEW025", "TAF VTPT 010500Z 0106/0206 20005KT 7000 FEW026", "TAF VTSB 010500Z 0106/0206 05008KT 9999 SCT020 BECMG 0113/0115 33003KT BECMG 0204/0206 05008KT", "TAF VTSC 010500Z 0106/0206 08010KT 9999 FEW020 BECMG 0116/0118 19004KT BECMG 0203/0205 06008KT", "TAF VTSE 010500Z 0106/0206 14008KT 9999 SCT020 BECMG 0113/0115 29003KT BECMG 0204/0206 14008KT", "TAF VTSF 010500Z 0106/0206 09010KT 9999 SCT020 BECMG 0113/0115 15003KT BECMG 0204/0206 07008KT", "TAF VTSG 010500Z 0106/0206 06006KT 9999 SCT020 BECMG 0108/0110 20006KT BECMG 0116/0118 06006KT", "TAF VTSM 010500Z 0106/0206 15012KT 9999 FEW020", "TAF VTSP 010500Z 0106/0212 30007KT 9999 SCT020 TEMPO 0118/0124 -TSRA FEW018CB SCT020 BKN100", "TAF VTSR 010500Z 0106/0206 32006KT 9999 SCT020 TEMPO 0108/0112 -TSRA FEW018CB SCT020 BKN100 BECMG 0112/0114 06005KT", "TAF VTSS 010500Z 0106/0206 06010KT 9999 FEW020 BECMG 0113/0115 30003KT BECMG 0204/0206 06008KT", "TAF VTST 010500Z 0106/0206 06006KT 9999 SCT030 BECMG 0108/0110 18006KT BECMG 0116/0118 06006KT", "TAF VTSY 010500Z 0106/0206 01006KT 9999 SCT020 BECMG 0113/0115 00000KT BECMG 0121/0123 1500 BR BKN005 BECMG 0201/0203 9999 NSW SCT020 BECMG 0204/0206 27006KT", "TAF VTUD 010500Z 0106/0206 17005KT 8000 FEW030", "TAF VTUI 010500Z 0106/0206 17005KT 7000 FEW030 TEMPO 0107/0112 VRB15KT 4000 TSRA FEW018CB BKN030 TEMPO 0116/0124 VRB15KT 4000 TSRA FEW018CB BKN030", "TAF VTUK 010500Z 0106/0206 18005KT 8000 FEW030", "TAF VTUL 010500Z 0106/0206 15005KT 5000 BR FEW030", "TAF VTUO 010500Z 0106/0206 20005KT 8000 FEW040", "TAF VTUQ 010500Z 0106/0206 20005KT 9000 FEW030", "TAF VTUU 010500Z 0106/0206 18005KT 9000 FEW030", "TAF VTUV 010500Z 0106/0206 19005KT 9000 FEW040", "TAF VTUW 010500Z 0106/0206 16005KT 7000 FEW030 TEMPO 0107/0112 VRB15KT 4000 TSRA FEW018CB BKN030 TEMPO 0116/0124 VRB15KT 4000 TSRA FEW018CB BKN030", "TAF VVCI 010500Z 0106/0206 08005KT 7000 SCT008 BKN020 TEMPO 0106/0112 2500 -DZ BR BKN004 OVC012 BECMG 0113/0115 3500 -DZ BR BKN004 OVC010 TEMPO 0118/0201 1300 +DZ BR BKN003 OVC008 BECMG 0203/0204 6000 NSW SCT008 BKN025", "TAF VVCR 010500Z 0106/0206 10010KT 9999 FEW015 BECMG 0113/0114 34005KT BECMG 0202/0203 10010KT", "TAF VVCT 010500Z 0106/0206 11006KT 9999 SCT015", "TAF VVDN 010500Z 0106/0206 10010KT 8000 SCT015 BECMG 0111/0112 20005KT BECMG 0121/0122 4000 BR BECMG 0200/0201 8000 NSW", "TAF VVNB 010500Z 0106/0206 08005KT 4000 BR SCT005 BKN020 BECMG 0110/0112 2500 -DZ BR BKN004 OVC015 BECMG 0115/0116 1400 DZ BR BKN003 OVC010 TEMPO 0118/0201 0800 +DZ FG BKN002 OVC008 BECMG 0203/0204 3200 BR SCT004 BKN015", "TAF VVPB 010500Z 0106/0206 06008KT 7000 SCT015 SCT040 BECMG 0117/0118 3000 BR BECMG 0200/0201 7000 NSW", "TAF VVPQ 010500Z 0106/0206 12006KT 9999 SCT015", "TAF VVTS 010500Z 0106/0212 15010KT 9999 SCT017 TEMPO 0207/0212 TS SCT015 FEW017CB", "TAF VVVD 010500Z 0106/0206 05005KT 4000 -DZ BR SCT005 BKN020 TEMPO 0106/0112 2500 -DZ BR BKN004 OVC015 BECMG 0115/0116 2000 DZ BR BKN003 OVC010 TEMPO 0118/0201 1200 +DZ BR BKN003 OVC008 BECMG 0203/0204 6000 NSW SCT008 BKN025", "TAF VYMD 010500Z 0106/0206 34005KT 7000 SCT025 TEMPO 0106/0112 36007KT 6000 HZ SCT020 SCT120", "TAF VYNT 010500Z 0106/0206 17008KT 7000 FEW020 FEW120 TEMPO 0106/0112 21010KT 7000 SCT020 FEW025TCU", "TAF VYYY 010500Z 0106/0206 29008KT 8000 FEW020 TX38/0109 TN24/0123 PROB40 BECMG 0108/0111 19012KT 190V280 7000 HZ FEW020", "TAF WAAA 011100Z 0112/0218 10004KT 8000 SCT019 TEMPO 0114/0116 5000 RA FEW018CB BECMG 0201/0203 30010KT", "TAF WABB 011100Z 0112/0218 03004KT 9999 SCT018 BECMG 0112/0115 00000KT PROB30 0117/0119 5000 RA", "TAF WADD 011100Z 0112/0212 27008KT 9999 SCT016 TEMPO 0119/0123 5000 RA FEW014CB BKN014", "TAF WADL 011100Z 0112/0212 20004KT 7000 BKN016 TEMPO 0206/0209 4000 RA FEW015CB", "TAF WALL 011100Z 0112/0218 11002KT 9999 FEW020", "TAF WALS 011100Z 0112/0124 18004KT 9999 FEW020", "TAF WAMM 011100Z 0112/0218 VRB03KT 9999 SCT020 TEMPO 0112/0114 6000 RA FEW017CB BECMG 0201/0202 32008KT", "TAF WAOO 011100Z 0112/0212 08006KT 9999 SCT018 PROB40 TEMPO 0116/0120 6000 RA", "TAF WAPP 011100Z 0112/0212 35006KT 9999 SCT018", "TAF WAQA 011100Z 0112/0124 11006KT 8000 SCT012", "TAF WAQD 011100Z 0112/0124 00000KT 8000 SCT015", "TAF WAQJ 011100Z 0112/0124 22007KT 9999 FEW017", "TAF WAQQ 011100Z 0112/0124 06003KT 9999 FEW015", "TAF WAQT 011100Z 0112/0124 21006KT 8000 SCT020", "TAF WARR 011100Z 0112/0212 25006KT 9999 FEW020 TEMPO 0113/0117 4000 TSRA SCT018CB BECMG 0119/0121 4000 BR BECMG 0200/0202 9999 NSW", "TAF WATT 011100Z 0112/0212 13005KT 8000 BKN016", "TAF WBGB 011100Z 0112/0212 VRB03KT 9999 FEW016 TEMPO 0112/0115 5000 RA FEW005", "TAF WBGG 011100Z 0112/0212 VRB03KT 9999 SCT020 TEMPO 0112/0115 5000 RA FEW015CB", "TAF WBGR 011100Z 0112/0212 30005KT 9999 SCT016 TEMPO 0112/0115 5000 RA FEW015CB", "TAF WBGS 011100Z 0112/0212 VRB03KT 9999 SCT018", "TAF WBKK 011100Z 0112/0212 11005KT 9999 FEW014 TEMPO 0112/0115 5000 RA FEW013 SCT035 BECMG 0200/0202 32005KT PROB40 TEMPO 0207/0211 5000 TSRA FEW013 FEW016CB SCT035", "TAF WBKL 011100Z 0112/0212 VRB03KT 9999 FEW015 PROB30 TEMPO 0112/0115 5000 RA FEW010 SCT030", "TAF WBKS 011100Z 0112/0212 32006KT 9999 FEW016 TEMPO 0112/0114 6000 TSRA FEW010 FEW016CB SCT035 PROB40 TEMPO 0207/0212 5000 TSRA FEW010 FEW016CB SCT035", "TAF WBKW 011100Z 0112/0212 03006KT 9999 FEW016 BECMG 0122/0124 20006KT", "TAF WBSB 011100Z 0112/0218 34003KT 9999 FEW014 FEW015CB TEMPO 0112/0116 5000 SHRA SCT014 FEW015CB BECMG 0118/0120 07004KT FEW004", "TAF WIDD 011100Z 0112/0212 04006KT 9000 SCT014 TEMPO 0112/0114 RA BKN014", "TAF WIEE 011100Z 0112/0212 04005KT 9999 SCT020 TEMPO 0113/0115 3000 RA BKN015", "TAF WIHH 011100Z 0112/0212 23005KT 6000 SCT018 BECMG 0114/0116 27003KT 5000 HZ FEW020", "TAF WIII 011100Z 0112/0218 26010KT 7000 SCT020 TEMPO 0113/0115 5000 RA BKN020 TEMPO 0209/0212 5000 TSRA FEW018CB BKN019", "TAF WIMM 011100Z 0112/0212 VRB05KT 5000 HZ SCT017 BECMG 0202/0204 35010KT 9999 NSW", "TAF WIPB 312300Z 0100/0112 01007KT 9999 SCT010 TEMPO 0100/0102 5000 HZ TEMPO 0107/0111 3000 TSRA FEW010CB BKN010", "TAF WIPP 011100Z 0112/0212 36007KT 9999 SCT010 TEMPO 0121/0124 3000 BR", "TAF WIPY 010500Z 0106/0118 27007KT 9999 SCT010 TEMPO 0107/0111 3000 TSRA FEW009CB BKN010", "TAF WITT 011100Z 0112/0212 17005KT 9999 SCT018 BECMG 0114/0116 14004KT BECMG 0206/0208 03006KT", "TAF WMAP 011100Z 0112/0212 VRB03KT 8000 FEW010 TEMPO 0121/0124 5000 TSRA FEW017CB SCT018", "TAF WMBT 011100Z 0112/0212 02005KT 9999 FEW025", "TAF WMKA 011100Z 0112/0212 VRB03KT 9999 FEW030", "TAF WMKB 011100Z 0112/0212 VRB02KT 9000 FEW025", "TAF WMKC 011100Z 0112/0212 09005KT 9999 FEW020", "TAF WMKE 011100Z 0112/0212 VRB01KT 9999 FEW022", "TAF WMKI 011100Z 0112/0212 04005KT 9000 FEW025 TEMPO 0112/0114 6000 RA FEW017CB", "TAF WMKJ 011100Z 0112/0212 VRB03KT 8000 FEW022 TEMPO 0121/0200 23007KT 5000 TSRA FEW017CB SCT018", "TAF WMKK 011100Z 0112/0218 VRB03KT 9000 FEW017CB TEMPO 0112/0114 5000 TSRA FEW017CB SCT020 TEMPO 0117/0122 26010KT 4000 TSRA FEW010 FEW017CB SCT018", "TAF WMKL 011100Z 0112/0212 VRB03KT 9999 FEW026", "TAF WMKM 011100Z 0112/0212 VRB03KT 8000 TS FEW017CB TEMPO 0114/0118 23008KT 3000 TSRA FEW010 FEW017CB SCT024 BECMG 0202/0204 20005KT 9999 FEW020", "TAF WMKN 011100Z 0112/0212 VRB02KT 9999 FEW022", "TAF WMKP 011100Z 0112/0212 00000KT 8000 FEW025 BECMG 0204/0206 24010KT 9000 FEW020", "TAF WMPA 010500Z 0106/0206 VRB02KT 9000 FEW021", "TAF WMSA 011100Z 0112/0212 VRB03KT 9999 FEW017CB TEMPO 0112/0114 5000 TSRA FEW017CB SCT018 TEMPO 0118/0121 4000 TSRA FEW017CB SCT018", "TAF WPDL 010409Z 0106/0118 36008KT 9999 SCT030 FM011000 15006KT 9999 SCT025 PROB30 TEMPO 0106/0110 VRB20G35KT 1000 TSRA BKN010 SCT025CB", "TAF WSAP 011100Z 0112/0218 33007KT 9999 FEW015 SCT020 TEMPO 0121/0201 3000 TSRA FEW012CB BKN015", "TAF WSSL 011100Z 0112/0218 33007KT 9999 FEW015 SCT020 TEMPO 0121/0201 3000 TSRA FEW012CB BKN015", "TAF WSSS 011100Z 0112/0218 33007KT 9999 FEW015 SCT020 TEMPO 0121/0201 3000 TSRA FEW012CB BKN015", "TAF AMD YAMB 010804Z 0108/0206 21005KT CAVOK FM011800 21004KT 9999 SCT025 FM020000 12006KT 9999 -SHRA SCT035 INTER 0202/0206 3000 SHRA BKN012", "TAF AMD YBAS 011107Z 0111/0212 12005KT 9999 -SHRA BKN020 FM020000 09008KT 9999 -SHRA BKN040", "TAF AMD YBBN 010803Z 0109/0212 21005KT 9999 FEW030 FM011900 21005KT 9999 -SHRA SCT020 FM012300 14012KT 9999 -SHRA SCT025 FM020300 10012KT 9999 -SHRA SCT030 FM020800 17007KT 9999 -SHRA SCT020 INTER 0122/0204 3000 SHRA BKN012", "TAF YBCG 010804Z 0109/0206 10008KT 9999 SCT045 FM011000 20005KT 9999 SCT040 FM011800 20005KT 9999 -SHRA SCT025 FM020000 15011KT 9999 -SHRA SCT030 INTER 0203/0206 4000 SHRA SCT010 BKN020", "TAF YBCS 010807Z 0109/0206 26004KT 9999 SCT018 FM012300 01009KT 9999 FEW018 SCT030", "TAF YBHM 011113Z 0112/0200 34014KT 9999 SCT020 FM011600 16014KT 9999 -SHRA SCT018 SCT025 INTER 0114/0200 4000 SHRA BKN015", "TAF YBLN 010516Z 0106/0206 08010KT 9999 BKN045 FM011200 13010KT 9999 FEW045", "TAF YBMA 011101Z 0112/0200 17007KT CAVOK", "TAF AMD YBRK 011046Z 0110/0212 13008KT 9999 -SHRA SCT010 BKN040 FM020000 11008KT 9999 -SHRA SCT020 BKN040 FM020600 12008KT 9999 NSW SCT035 TEMPO 0110/0115 3000 SHRA BKN005 TEMPO 0115/0123 9999 NSW BKN005 INTER 0200/0206 3000 SHRA BKN015", "TAF AMD YBRM 011104Z 0112/0212 25006KT CAVOK FM012100 18008KT 9999 SCT020 FM020200 26010KT CAVOK PROB30 TEMPO 0205/0212 VRB20G35KT 1000 TSRA BKN010 SCT050CB", "TAF YBSU 010513Z 0106/0206 18005KT 9999 SCT025 FM010900 24005KT CAVOK FM012000 20005KT 9999 -SHRA SCT025 FM012300 13008KT 9999 -SHRA SCT030", "TAF AMD YBTL 011127Z 0112/0212 35006KT 9999 BKN020 FM011600 25005KT 9999 BKN020 FM012300 34007KT 9999 SCT020 FM020100 03012KT 9999 SCT020 FM020900 02006KT 9999 BKN020 PROB30 TEMPO 0205/0208 VRB20G35KT 1000 TSRA BKN010 SCT020CB", "TAF YBWW 010509Z 0106/0206 27008KT CAVOK FM010800 18005KT CAVOK FM011200 14005KT CAVOK FM011800 10005KT 9999 FEW015 FM020000 07008KT CAVOK", "TAF YCFS 010501Z 0106/0206 10010KT 9999 FEW040 FM010900 20008KT 9999 -SHRA SCT020 SCT040 FM012200 19018KT 9999 SCT025 INTER 0109/0122 20015G25KT 3000 SHRA BKN012", "TAF YCIN 010656Z 0108/0120 27006KT CAVOK", "TAF AMD YFRT 011041Z 0110/0120 12014KT CAVOK FM011800 09012KT CAVOK", "TAF AMD YGEL 011015Z 0110/0200 17010KT 9999 SCT015 BECMG 0116/0118 14006KT 9999 BKN008 PROB30 0118/0123 0300 FG", "TAF AMD YGLA 010901Z 0109/0118 10010KT 9999 -SHRA SCT030 FM011200 10006KT 9999 NSW SCT025 FM011400 20005KT 9999 SCT020 INTER 0109/0112 4000 SHRA BKN015", "TAF YHID 010502Z 0105/0206 07009KT 9999 FEW018 FM011000 16005KT 9999 SCT015 FM020000 10008KT 9999 SCT020 FM020300 07008KT 9999 SCT020", "TAF YLHI 010502Z 0106/0206 22006KT 9999 SCT035 FM011000 17005KT 9999 -SHRA BKN030 INTER 0202/0206 3000 SHRA BKN020", "TAF YMAV 010502Z 0106/0206 19013KT 9999 BKN040 FM011300 28006KT 9999 BKN040 FM020200 14006KT 9999 BKN035", "TAF YMHB 010802Z 0109/0206 27009KT 9999 BKN050 FM011400 33007KT 9999 FEW035 FM020300 27010KT 9999 BKN040", "TAF YMLT 010505Z 0106/0206 19005KT CAVOK FM011000 26006KT CAVOK FM020300 31010KT 9999 BKN040", "TAF YMML 010802Z 0109/0212 19010KT 9999 FEW030 BKN040 FM011500 35005KT 9999 SCT030 FM020000 17008KT 9999 FEW045", "TAF YPAD 010821Z 0109/0212 15010KT 9999 BKN050 FM011200 14008KT CAVOK FM011800 10006KT CAVOK FM020100 24010KT CAVOK FM020700 18010KT CAVOK", "TAF YPCC 010517Z 0106/0206 15008KT 9999 SCT025 INTER 0118/0200 2000 SHRA BKN010 SCT020TCU", "TAF AMD YPDN 010809Z 0109/0212 02008KT 9999 SCT040 FM011800 11005KT 9999 SCT020 FM020300 02012KT 9999 SCT035 FM021000 02005KT 9999 FEW030 PROB30 TEMPO 0204/0210 VRB20G35KT 1000 TSRA BKN010 SCT035CB", "TAF YPEA 010500Z 0106/0200 11012KT 9999 BKN025 FM011000 09010KT 9999 SCT030 FM011600 17006KT 9999 SCT018", "TAF YPGV 010654Z 0108/0120 09010KT 9999 FEW030 FM010900 13005KT 9999 SCT020", "TAF YPJT 010500Z 0106/0200 11012KT 9999 SCT025 BKN035 FM011000 09010KT 9999 SCT030 FM011600 11008KT 9999 SCT020", "TAF AMD YPKG 010517Z 0105/0206 09012KT 9999 BKN014 BECMG 0105/0107 09010KT 9999 BKN030", "TAF YPKU 010657Z 0108/0120 06008KT CAVOK FM011000 VRB03KT CAVOK", "TAF AMD YPLM 011105Z 0112/0212 23004KT 9999 SCT025 FM011800 13005KT 9999 SCT020 FM020300 03010KT 9999 FEW025", "TAF YPPD 010517Z 0106/0206 33012KT CAVOK FM011100 27006KT CAVOK FM011700 20006KT 9999 FEW020 FM020300 34012KT CAVOK", "TAF YPPH 010806Z 0109/0212 08012KT 9999 SCT035 BKN050 FM011000 09010KT 9999 SCT030 FM011600 11008KT 9999 SCT020 FM020400 21010KT CAVOK", "TAF YPTN 010501Z 0106/0206 09010KT CAVOK FM011000 09005KT CAVOK FM012300 34005KT CAVOK FM020300 07008KT CAVOK", "TAF YPWR 010515Z 0106/0200 16012KT CAVOK FM012100 12008KT CAVOK", "TAF YPXM 010517Z 0106/0206 21008KT 9999 SCT012 SCT020", "TAF AMD YSCB 011107Z 0112/0212 13004KT 9999 FEW020 FM020000 11008KT 9999 SCT025 FM020200 06010KT 9999 -SHRA SCT040 TEMPO 0115/0121 12005KT 9999 BKN020", "TAF YSDU 010455Z 0106/0200 19010KT CAVOK FM010900 20006KT CAVOK FM011500 17005KT 9999 FEW020 FM012200 11010KT CAVOK", "TAF AMD YSNF 011105Z 0112/0212 14008KT 9999 -SHRA SCT015 BKN030 FM012000 14014KT 9999 -SHRA FEW008 SCT015 FM020600 12012KT 9999 -SHRA SCT015 INTER 0112/0120 3000 SHRA BKN008 TEMPO 0120/0206 2000 SHRA BKN008", "TAF AMD YSRI 010521Z 0106/0206 16010KT 9999 -SHRA SCT030 FM010900 23009KT 9999 NSW SCT025 BKN040 FM011800 23008KT 9999 BKN020 FM020000 18010KT 9999 -SHRA BKN020 INTER 0203/0206 3000 SHRA BKN010", "TAF AMD YSSY 011109Z 0112/0218 23009KT 9999 -SHRA SCT020 BKN030 FM020000 15013KT 9999 -SHRA SCT020 BKN040 FM020900 10009KT 9999 -SHRA SCT030 BKN040 INTER 0114/0206 3000 SHRA BKN010 PROB30 TEMPO 0116/0200 VRB20G35KT 2000 TSRA BKN010 SCT030CB", "TAF YSTW 010455Z 0106/0200 20005KT CAVOK FM011500 14006KT 9999 SCT045", "TAF AMD YWLM 010824Z 0108/0206 24010KT 9999 -SHRA SCT020 BKN030 FM011800 27008KT 9999 -SHRA SCT010 BKN020 FM020100 13014KT 9999 -SHRA SCT015 BKN025 INTER 0108/0119 3000 SHRA BKN010 INTER 0201/0206 3000 SHRA BKN012", "TAF ZBAA 010901Z 0112/0212 18004MPS 5000 BR NSC TX22/0206Z TN10/0121Z", "TAF ZBAD 010901Z 0112/0212 15004MPS 3000 BR NSC TX23/0207Z TN09/0121Z", "TAF ZBHH 010900Z 0112/0212 12004MPS 9999 FEW040 TX12/0112Z TN04/0122Z BECMG 0122/0124 2200 -RA TEMPO 0206/0212 36008MPS 1400 SHRA SCT030 FEW030CB", "TAF ZBSJ 010905Z 0112/0212 18004MPS 4000 HZ NSC TX22/0207Z TN10/0122Z", "TAF ZBTJ 010903Z 0112/0212 15003MPS 3000 HZ NSC TX23/0207Z TN11/0122Z BECMG 0205/0206 14008MPS", "TAF ZBYN 010903Z 0112/0212 20004MPS 5000 HZ NSC TX22/0207Z TN10/0122Z", "TAF ZGGG 010912Z 0112/0212 15004MPS 6000 SCT011 OVC026 TX22/0207Z TN17/0122Z TEMPO 0121/0203 1200 +TSRA SCT003 SCT020CB BKN026", "TAF ZGHA 010903Z 0112/0212 18004MPS 4000 BR SCT050 TX27/0207Z TN16/0122Z TEMPO 0206/0212 TSRA BKN011 FEW040CB BKN040", "TAF ZGKL 010917Z 0112/0212 18003MPS 5000 BR SCT026 OVC046 TX24/0207Z TN19/0122Z BECMG 0120/0122 2800 -SHRA BR FEW004 SCT008 BKN012 FEW033CB TEMPO 0200/0206 TSRA", "TAF ZGNN 010908Z 0112/0212 13003MPS 2000 -RA BR FEW002 SCT004 BKN013 TX24/0207Z TN17/0122Z TEMPO 0112/0118 1200 TEMPO 0118/0124 0500 FG FEW001 SCT003 OVC026 BECMG 0203/0204 3200 SCT010 BKN030", "TAF ZGOW 010912Z 0112/0212 11003MPS 5000 BR SCT015 BKN033 TX23/0206Z TN16/0122Z TEMPO 0121/0201 2500 SCT008 BKN011 BKN030", "TAF ZGSZ 010917Z 0112/0212 11004MPS 5000 BR FEW015 SCT023 TX25/0206Z TN20/0122Z BECMG 0203/0204 20004MPS BECMG 0209/0210 12004MPS", "TAF ZHCC 010904Z 0112/0212 14004MPS 4000 HZ NSC TX25/0207Z TN13/0122Z", "TAF ZHHH 010910Z 0112/0212 14004MPS 6000 NSC TX26/0207Z TN14/0122Z", "TAF ZJHK 010904Z 0112/0212 16003MPS 5000 BR SCT020 TX32/0206Z TN22/0121Z", "TAF ZJSY 010901Z 0112/0212 09004MPS 9999 SCT050 TX31/0206Z TN25/0121Z", "TAF ZKPY 010400Z 0106/0206 32003MPS CAVOK TX24/0106Z TN06/0121Z BECMG 0115/0117 05003MPS 6000 NSC TEMPO 0200/0206 13003MPS CAVOK", "TAF ZKWS 010400Z 0106/0206 15003MPS CAVOK TX17/0106Z TN07/0121Z TEMPO 0115/0121 2000 BR OVC013 BECMG 0201/0203 7000 NSC", "TAF ZLLL 010905Z 0112/0212 36012G17MPS 0800 SS SCT040 TX15/0112Z TN04/0123Z BECMG 0112/0113 2000 SA BECMG 0116/0117 01006MPS 4000 TEMPO 0121/0203 -SHRA FEW033CB BKN040", "TAF ZLXY 010906Z 0112/0212 06006G11MPS 3000 HZ NSC TX19/0203Z TN14/0212Z BECMG 0121/0122 -RA TEMPO 0200/0206 SHRA FEW010 FEW040CB OVC050 BECMG 0208/0209 23004MPS", "TAF ZMCK 011108Z 0112/0218 34006MPS 4000 SN FEW023 BKN030 BKN080 TNM12/0123Z TXM06/0207Z TEMPO 0112/0124 1000 BECMG 0200/0202 33012G17MPS 9999 NSW SCT033 SCT100 TEMPO 0200/0206 6000 SN BLSN FEW023 SCT030 SCT080 BECMG 0212/0214 31007MPS", "TAF ZMUB 011108Z 0112/0218 36007MPS 6000 SN FEW023 BKN030 BKN080 TNM13/0123Z TXM06/0207Z TEMPO 0112/0124 2000 BECMG 0200/0202 35010G15MPS 9999 NSW SCT033 SCT100 TEMPO 0200/0206 6000 SN BLSN FEW023 SCT030 SCT080 BECMG 0210/0212 36005MPS", "TAF ZPPP 010905Z 0112/0212 23006MPS 9999 SCT026 TX22/0208Z TN11/0123Z BECMG 0202/0203 23012G20MPS", "TAF ZSAM 010901Z 0112/0212 09004MPS 6000 BKN030 TX23/0206Z TN16/0121Z", "TAF ZSFZ 010911Z 0112/0212 04003MPS 5000 BR BKN020 TX21/0206Z TN14/0121Z", "TAF ZSHC 010910Z 0112/0212 09004MPS 3000 BR NSC TX23/0206Z TN11/0121Z", "TAF ZSJN 010903Z 0112/0212 21003MPS 3500 BR NSC TX26/0206Z TN09/0121Z", "TAF ZSNB 010907Z 0112/0212 06004MPS 6000 NSC TX23/0206Z TN09/0121Z", "TAF ZSNJ 010902Z 0112/0212 10003MPS 3000 BR NSC TX22/0206Z TN12/0121Z", "TAF ZSOF 010903Z 0112/0212 12004MPS 3000 HZ NSC TX25/0206Z TN11/0122Z", "TAF ZSPD 010904Z 0112/0212 05004MPS 6000 BKN015 TX21/0206Z TN09/0121Z", "TAF ZSQD 010900Z 0112/0212 16004MPS 6000 NSC TX21/0206Z TN04/0121Z", "TAF ZSSS 010904Z 0112/0212 06004MPS 6000 BKN016 TX22/0206Z TN10/0121Z", "TAF ZUCK 010906Z 0112/0212 03003MPS 6000 SCT050 TX27/0207Z TN18/0121Z TEMPO 0117/0122 -SHRA FEW030CB SCT050", "TAF ZUGY 010901Z 0112/0212 18006MPS 6000 BKN033 TX29/0207Z TN14/0122Z", "TAF AMD ZUUU 011038Z 0112/0212 02003MPS 6000 SCT050 TX24/0207Z TN16/0123Z TEMPO 0114/0116 -TSRA FEW030CB SCT040", "TAF ZWSH 010907Z 0112/0212 11005MPS 6000 FEW040 TX20/0209Z TN12/0200Z BECMG 0117/0118 35005MPS BECMG 0205/0206 10004MPS", "TAF ZWWW 010903Z 0112/0212 35004MPS CAVOK TX05/0209Z TNM01/0123Z BECMG 0113/0114 18004MPS BECMG 0203/0204 36004MPS", "TAF ZYCC 010907Z 0112/0212 22007G12MPS 6000 NSC TX21/0206Z TN07/0120Z", "TAF ZYHB 010905Z 0112/0212 20006MPS 6000 FEW033 TX22/0206Z TN09/0121Z", "TAF ZYTL 010904Z 0112/0212 13004MPS 5000 HZ FEW030 TX17/0206Z TN08/0122Z", "TAF ZYTX 010902Z 0112/0212 20004MPS 6000 NSC TX24/0206Z TN05/0121Z"]}