station_id, observation_time,raw_text
AGGH,2023-04-05T21:00:00Z,AGGH 052100Z 20003KT 9999 FEW019 BKN300 28/26 Q1009
AGGM,2023-04-05T21:00:00Z,AGGM 052100Z 00000KT 9999 FEW016 BKN300 27/26 Q1008
ANYN,2023-04-05T21:00:00Z,ANYN 052100Z 07004KT 9999 SCT020 BKN300 29/24 Q1009
AYMH,2023-04-05T20:00:00Z,AYMH 052000Z VRB03KT 9999 SCT020 -/- Q1020
AYNZ,2023-04-05T20:00:00Z,AYNZ 052000Z VRB003KT 9999 HZ SCT025 BKN070 24/22 Q1008
AYPY,2023-04-05T20:00:00Z,AYPY 052000Z VRB03KT 9999 FEW030 24/23 Q1006
BGBW,2023-04-05T20:50:00Z,BGBW 052050Z AUTO 25004KT 7000NDV -SHRASN SCT025/// BKN034/// BKN044/// 01/00 Q0996
BGGH,2023-04-05T20:50:00Z,BGGH 052050Z 01033KT 9999 NSC M01/M08 Q0997
BGJN,2023-04-05T20:50:00Z,BGJN 052050Z 02013KT 9999 FEW018 M12/M18 Q1016
BGKK,2023-04-05T20:50:00Z,BGKK 052050Z AUTO 07019KT 7000NDV -SN BKN021/// M04/M07 Q1000
BGSF,2023-04-05T20:50:00Z,BGSF 052050Z AUTO 06008KT 9999NDV NCD M10/M17 Q1015
BGTL,2023-04-05T20:55:00Z,BGTL 052055Z 12004KT 9999 CLR M22/M26 A3008 RMK SLP179 T12211265 52008 TSNO $
BIAR,2023-04-05T21:00:00Z,BIAR 052100Z 33006KT 9999 BKN009 OVC011 00/M01 Q1001
BIEG,2023-04-05T21:00:00Z,BIEG 052100Z 01003KT 9999 SCT050 BKN120 01/00 Q1000
BIKF,2023-04-05T21:00:00Z,BIKF 052100Z 24005KT 200V260 9999 FEW020TCU FEW034 SCT094 03/01 Q1000
BIRK,2023-04-05T21:00:00Z,BIRK 052100Z 20005KT 9999 VCSH FEW020CB SCT045 BKN091 04/02 Q1000
BKPR,2023-04-05T21:00:00Z,BKPR 052100Z 03007KT 9999 BKN025 01/M03 Q1016 NOSIG
CAHR,2023-04-05T21:00:00Z,CAHR 052100Z AUTO 06003KT M03/M08 RMK AO1 SOG 19 8007 SLP309 T10251084
CBAR,2023-04-05T21:00:00Z,CBAR 052100Z AUTO 30004KT ////SM NCD M09/M14 A2981
CBBC,2023-04-05T21:00:00Z,CBBC 052100Z AUTO 15009G15KT 9SM -RA OVC044 09/02 A2986 RMK SLP116
CERM,2023-04-05T21:00:00Z,CERM 052100Z AUTO 18004KT M00/M12 RMK AO1 SOG 82 6017 SLP296 T10011116
CMFM,2023-04-05T21:00:00Z,CMFM 052100Z AUTO 12007KT M07/M09 RMK AO1 7PAST HR SOG 126 5019 SLP270 P0007 T10691094 50052
CMGB,2023-04-05T21:00:00Z,CMGB 052100Z AUTO 05001KT 04/03 RMK AO1 4PAST HR 8024 SLP178 P0009 T00360028 50130
CPBT,2023-04-05T21:00:00Z,CPBT 052100Z AUTO 36004KT 04/M11 RMK AO1 T00401110
CPEH,2023-04-05T21:00:00Z,CPEH 052100Z AUTO 00000KT 03/M05 RMK AO1 T00321051
CPFI,2023-04-05T21:00:00Z,CPFI 052100Z AUTO 19004KT 02/M04 RMK AO1 T00241039
CPIN,2023-04-05T21:00:00Z,CPIN 052100Z AUTO 14006KT ////SM ////// ///// A////
CPIR,2023-04-05T21:00:00Z,CPIR 052100Z AUTO 35002KT 04/M04 RMK AO1 T00391037
CPRO,2023-04-05T21:00:00Z,CPRO 052100Z AUTO 11006KT 01/M03 RMK AO1 T00061029
CPRY,2023-04-05T21:00:00Z,CPRY 052100Z AUTO 25011KT 04/M06 RMK AO1 PK WND 27022/2059 T00351064
CPST,2023-04-05T21:00:00Z,CPST 052100Z AUTO 13006KT M00/M03 RMK AO1 T10031034
CPSV,2023-04-05T21:00:00Z,CPSV 052100Z AUTO 19006KT 01/M05 RMK AO1 T00071052
CTCK,2023-04-05T21:00:00Z,CTCK 052100Z AUTO 00000KT 01/M00 RMK AO1 5PAST HR SOG 23 6037 SLP155 P0021 T00061001 50149
CTNK,2023-04-05T21:00:00Z,CTNK 052100Z AUTO 00032KT 01/M00 RMK AO1 3PAST HR SOG 50 3004 SLP125 P0005 T00051001 50082
CTRA,2023-04-05T20:00:00Z,CTRA 052000Z AUTO 07005KT M06/M08 RMK AO1 7PAST HR SOG 49 5012 SLP983 P0003 T10621082 50011
CWAE,2023-04-05T21:00:00Z,CWAE 052100Z 23002KT 15SM OVC053 05/M05 A3006 RMK SC8 WIND EST SLP199
CWAF,2023-04-05T21:00:00Z,CWAF 052100Z AUTO 05010KT M02/M11 RMK AO1 T10191109
CWAJ,2023-04-05T21:00:00Z,CWAJ 052100Z AUTO 13005KT RMK AO1 50011
CWAQ,2023-04-05T21:00:00Z,CWAQ 052100Z AUTO 31009KT M05/M13 RMK AO1 SLP221 T10481133 58001
CWAR,2023-04-05T21:00:00Z,CWAR 052100Z AUTO 28016KT 02/M07 RMK AO1 PK WND 28025/2045 SLP200 T00211072 51045
CWAV,2023-04-05T21:00:00Z,CWAV 052100Z AUTO 08008KT 03/M13 RMK AO1 SOG 12 6008 SLP159 T00251126
CWBA,2023-04-05T21:00:00Z,CWBA 052100Z AUTO 06003KT M00/M02 RMK AO1 SOG 58 T10031017 50006
CWBK,2023-04-05T21:00:00Z,CWBK 052100Z AUTO 29009KT 01/M05 RMK AO1 T00051051
CWBO,2023-04-05T21:00:00Z,CWBO 052100Z AUTO 13004KT 04/M04 RMK AO1 SLP181 T00421043 56010
CWBS,2023-04-05T21:00:00Z,CWBS 052100Z AUTO 06021KT M01/M02 RMK AO1 PK WND 05028/2028 T10121019
CWBT,2023-04-05T21:00:00Z,CWBT 052100Z AUTO 31005KT 01/M14 RMK AO1 SLP278 T00121135 56009
CWBU,2023-04-05T21:00:00Z,CWBU 052100Z AUTO 00000KT M01/M18 RMK AO1 SOG 27 6012 SLP209 T10101181
CWBV,2023-04-05T21:00:00Z,CWBV 052100Z AUTO 21011KT 02/M04 RMK AO1 SLP291 T00211040 53002
CWBY,2023-04-05T21:00:00Z,CWBY 052100Z AUTO 26014G22KT M03/M12 RMK AO1 SOG 26 5014 PK WND 25022/2030 SLP285 T10311123
CWBZ,2023-04-05T21:00:00Z,CWBZ 052100Z AUTO 00000KT M00/M00 RMK AO1 0PAST HR 6018 SLP155 P0023 T10041002 50218
CWCF,2023-04-05T21:00:00Z,CWCF 052100Z AUTO 03011G24KT M06/M08 RMK AO1 0PAST HR SOG 08 6012 PK WND 02024/2051 SLP104 P0004 T10551078 50014
CWCI,2023-04-05T20:00:00Z,CWCI 052000Z AUTO 13025G34KT 02/01 RMK AO1 2PAST HR 6042 PK WND 12034/1955 SLP971 P0001 T00200010 50058
CWCJ,2023-04-05T21:00:00Z,CWCJ 052100Z AUTO 07004KT M01/M02 RMK AO1 6PAST HR SOG 76 6038 SLP966 P0010 T10071016 50045
CWCO,2023-04-05T21:00:00Z,CWCO 052100Z AUTO 17008KT 08/07 RMK AO1 2PAST HR 8020 SLP072 P0001 T00820066 50035
CWCT,2023-04-05T21:00:00Z,CWCT 052100Z AUTO 18011KT M05/M09 RMK AO1 SOG 23 6007 SLP210 T10521086
CWDA,2023-04-05T21:00:00Z,CWDA 052100Z AUTO 00030KT M02/ RMK AO1 T1023
CWDC,2023-04-05T21:00:00Z,CWDC 052100Z AUTO 15005KT 01/M10 RMK AO1 SOG 63 7012 SLP203 T00111101
CWDJ,2023-04-05T21:00:00Z,CWDJ 052100Z AUTO 31014KT M08/M14 RMK AO1 SOG 07 6003 SLP223 T10801141
CWDK,2023-04-05T21:00:00Z,CWDK 052100Z AUTO 09005KT 06/M06 RMK AO1 SOG 01 6009 SLP167 T00561060
CWDM,2023-04-05T21:00:00Z,CWDM 052100Z AUTO 30011KT M00/M12 RMK AO1 PK WND 31020/2023 SLP225 T10021123 50008
CWDO,2023-04-05T21:00:00Z,CWDO 052100Z AUTO 28017G24KT M04/M09 RMK AO1 PK WND 29025/2043 SLP181 T10401093 52027
CWDQ,2023-04-05T21:00:00Z,CWDQ 052100Z AUTO 18001KT M03/M05 RMK AO1 5PAST HR SOG 58 8030 SLP244 P0006 T10341050 50058
CWDV,2023-04-05T21:00:00Z,CWDV 052100Z AUTO 06004KT M02/M03 RMK AO1 4PAST HR SOG 70 6022 SLP946 P0002 T10221033 50010
CWDZ,2023-04-05T21:00:00Z,CWDZ 052100Z AUTO 18006KT 03/M05 RMK AO1 SLP176 T00291046 56010
CWEB,2023-04-05T21:00:00Z,CWEB 052100Z AUTO 00013KT 05/04 RMK AO1 7007 SLP168 T00540040 50003
CWEE,2023-04-05T20:00:00Z,CWEE 052000Z AUTO M02/M15 RMK AO1 SLP266 T10151146 56032
CWEF,2023-04-05T21:00:00Z,CWEF 052100Z AUTO 32027G33KT M03/M07 RMK AO1 PK WND 32033/2051 SLP262 T10281068 50015
CWEH,2023-04-05T21:00:00Z,CWEH 052100Z AUTO 25006KT M07/M09 RMK AO1 SOG 48 6007 SLP205 T10691087
CWEL,2023-04-05T21:00:00Z,CWEL 052100Z AUTO 11014KT 08/04 RMK AO1 PK WND 10017/2034 SLP202 T00770035 57009
CWEP,2023-04-05T21:00:00Z,CWEP 052100Z AUTO 31010KT M02/M07 RMK AO1 SOG 09 8004 SLP311 T10231071
CWEQ,2023-04-05T21:00:00Z,CWEQ 052100Z AUTO 03012KT M02/M12 RMK AO1 SOG 40 6010 PK WND 03017/2012 SLP170 T10231117
CWER,2023-04-05T21:00:00Z,CWER 052100Z AUTO 05024KT RMK AO1 PK WND 05028/2043
CWEU,2023-04-05T21:00:00Z,CWEU 052100Z 11009KT 15SM SKC M30/M34 A3022 RMK SLP254
CWEW,2023-04-05T21:00:00Z,CWEW 052100Z AUTO 00000KT M00/M01 RMK AO1 9PAST HR 6023 PK WND 06049/2009 SLP202 P0004 T10011008 50064
CWEZ,2023-04-05T20:00:00Z,CWEZ 052000Z AUTO 17014KT 09/02 RMK AO1 PK WND 16018/1949 SLP203 T00870021 58009
CWFD,2023-04-05T21:00:00Z,CWFD 052100Z AUTO ///// ////SM ////// M17/M25 A2993
CWFF,2023-04-05T21:00:00Z,CWFF 052100Z AUTO 28003KT M05/M18 RMK AO1 SOG 23 6007 SLP217 T10481175
CWFJ,2023-04-05T21:00:00Z,CWFJ 052100Z AUTO 30011G18KT 04/M13 RMK AO1 PK WND 25019/2008 T00351126
CWFQ,2023-04-05T21:00:00Z,CWFQ 052100Z AUTO 15009G17KT 03/03 RMK AO1 5PAST HR 8025 PK WND 16019/2024 SLP170 P0025 T00300026 50202
CWGB,2023-04-05T21:00:00Z,CWGB 052100Z AUTO 10021KT 08/ RMK AO1 PK WND 11026/2003 SLP194 T0075 58010
CWGD,2023-04-05T21:00:00Z,CWGD 052100Z AUTO 15010KT 15/14 RMK AO1 4PAST HR 6015 SLP059 P0002 T01520140 50034
CWGH,2023-04-05T21:00:00Z,CWGH 052100Z AUTO 06005KT 01/01 RMK AO1 4PAST HR 8009 SLP135 P0013 T00120007 50120
CWGL,2023-04-05T21:00:00Z,CWGL 052100Z AUTO 13011KT 03/03 RMK AO1 PRESFR SLP065 T00310028 58029
CWGM,2023-04-05T21:00:00Z,CWGM 052100Z AUTO 25013G23KT 04/M13 RMK AO1 SOG 01 7008 PK WND 25026/2038 SLP168 T00361130
CWGR,2023-04-05T21:00:00Z,CWGR 052100Z AUTO 30013G19KT M02/M08 RMK AO1 PK WND 30021/2004 SLP296 T10151075 58001
CWGT,2023-04-05T21:00:00Z,CWGT 052100Z AUTO 11028KT 07/03 RMK AO1 PK WND 11032/2042 SLP191 T00740029 56011
CWGW,2023-04-05T21:00:00Z,CWGW 052100Z AUTO 10004KT 05/M13 RMK AO1 SOG 01 6009 SLP171 T00471133
CWGY,2023-04-05T21:00:00Z,CWGY 052100Z AUTO 13005KT M07/M10 RMK AO1 SOG 27 6011 SLP220 T10681100
CWGZ,2023-04-05T21:00:00Z,CWGZ 052100Z 00000KT 7SM FEW070 M28/M31 A3022 RMK AS1 AS TR SLP245
CWHI,2023-04-05T21:00:00Z,CWHI 052100Z AUTO 12003KT M01/M04 RMK AO1 T10141036
CWHL,2023-04-05T21:00:00Z,CWHL 052100Z AUTO 15025G30KT 07/02 RMK AO1 2PAST HR 8011 PK WND 15040/2048 SLP072 P0001 T00740021 50002
CWHO,2023-04-05T21:00:00Z,CWHO 052100Z AUTO 00030KT M04/M15 RMK AO1 SLP209 T10391147 51010
CWHP,2023-04-05T20:00:00Z,CWHP 052000Z AUTO 33013KT M01/M12 RMK AO1 PK WND 34018/1934 SLP267 T10131116 53003
CWHQ,2023-04-05T21:00:00Z,CWHQ 052100Z AUTO 07011G21KT M03/M06 RMK AO1 9PAST HR M PK WND 08021/2015 P0004 T10331058 50042
CWHT,2023-04-05T21:00:00Z,CWHT 052100Z AUTO 25003KT 03/M06 RMK AO1 SOG 42 8022 SLP018 T00271056
CWHV,2023-04-05T21:00:00Z,CWHV 052100Z AUTO 12009KT M03/M05 RMK AO1 0PAST HR 6032 PK WND 12018/2041 SLP251 P0008 T10341049 50061
CWID,2023-04-05T21:00:00Z,CWID 052100Z AUTO 14007G15KT 05/M08 RMK AO1 PK WND 14018/2016 SLP115 T00461080 56014
CWIG,2023-04-05T21:00:00Z,CWIG 052100Z AUTO 02016KT RMK AO1 PK WND 03020/2052
CWII,2023-04-05T21:00:00Z,CWII 052100Z AUTO 01011G16KT M05/M08 RMK AO1 PK WND 02021/2008 SLP040 T10501078 55003
CWIJ,2023-04-05T20:00:00Z,CWIJ 052000Z AUTO 17009KT M14/M16 RMK AO1 T11421161
CWIK,2023-04-05T21:00:00Z,CWIK 052100Z AUTO 33015G20KT M04/M14 RMK AO1 SOG 09 6001 PK WND 34022/2033 SLP178 T10441138
CWIL,2023-04-05T21:00:00Z,CWIL 052100Z AUTO ///// ////SM ////// M22/M24 A3011
CWIP,2023-04-05T21:00:00Z,CWIP 052100Z AUTO 20013G19KT M02/M11 RMK AO1 PK WND 20020/2031 T10231106
CWIS,2023-04-05T21:00:00Z,CWIS 052100Z AUTO 06005KT M08/M09 RMK AO1 4PAST HR SOG 154 6023 SLP280 P0009 T10811093 50063
CWIT,2023-04-05T21:00:00Z,CWIT 052100Z AUTO 07004KT 01/01 RMK AO1 7PAST HR SOG 03 8014 SLP163 P0014 T00130008 50214
CWIW,2023-04-05T21:00:00Z,CWIW 052100Z AUTO 30008KT M07/M16 RMK AO1 SOG 18 8007 SLP224 T10651156
CWIZ,2023-04-05T21:00:00Z,CWIZ 052100Z AUTO 04004KT 01/01 RMK AO1 2PAST HR M P0012 T00110009 50181
CWJB,2023-04-05T21:00:00Z,CWJB 052100Z AUTO M04/M04 RMK AO1 2PAST HR SOG 78 M P0005 T10371041 50062
CWJC,2023-04-05T21:00:00Z,CWJC 052100Z AUTO 16008KT M11/M14 RMK AO1 SOG 03 6004 SLP263 T11081137
CWJD,2023-04-05T21:00:00Z,CWJD 052100Z AUTO 01010G18KT 01/M13 RMK AO1 SOG 54 6012 PK WND 02018/2045 SLP160 T00051129
CWJH,2023-04-05T21:00:00Z,CWJH 052100Z AUTO 04004KT 01/M15 RMK AO1 SOG 69 6011 SLP214 T00101147
CWJI,2023-04-05T21:00:00Z,CWJI 052100Z AUTO 29007KT M09/M15 RMK AO1 SOG 17 7003 SLP230 T10921147
CWJO,2023-04-05T20:00:00Z,CWJO 052000Z AUTO 11006KT 00/M13 RMK AO1 SLP276 T00001134 56039
CWJR,2023-04-05T21:00:00Z,CWJR 052100Z AUTO 16005KT 08/M03 RMK AO1 SLP192 T00841029 56018
CWJT,2023-04-05T21:00:00Z,CWJT 052100Z AUTO 07004KT M00/M02 RMK AO1 0PAST HR 5016 SLP176 P0004 T10011015 50070
CWJU,2023-04-05T21:00:00Z,CWJU 052100Z AUTO 11010G16KT 07/06 RMK AO1 PK WND 12018/2030 SLP016 T00710061 56007
CWJV,2023-04-05T21:00:00Z,CWJV 052100Z AUTO 30004KT 12/M09 RMK AO1 SLP175 T01151092 56020
CWJW,2023-04-05T21:00:00Z,CWJW 052100Z AUTO 13006KT 08/M13 RMK AO1 SOG 01 6020 SLP144 T00781134
CWJX,2023-04-05T21:00:00Z,CWJX 052100Z AUTO 10005KT M06/M08 RMK AO1 SOG 34 6010 SLP224 T10551082
CWKD,2023-04-05T20:00:00Z,CWKD 052000Z AUTO M04/M14 RMK AO1 SLP300 T10351141 56036
CWKG,2023-04-05T21:00:00Z,CWKG 052100Z AUTO 11005KT 05/M14 RMK AO1 SLP295 T00481135 56011
CWKH,2023-04-05T21:00:00Z,CWKH 052100Z AUTO 06/02 RMK AO1 SLP190 T00640016 56008
CWKM,2023-04-05T21:00:00Z,CWKM 052100Z AUTO 27007KT ////SM FEW025 M19/M24 A2994
CWKO,2023-04-05T21:00:00Z,CWKO 052100Z AUTO 31008KT M06/M20 RMK AO1 SOG 13 4000 SLP222 T10641199
CWKX,2023-04-05T21:00:00Z,CWKX 052100Z AUTO 19007KT 03/M04 RMK AO1 SOG 45 5007 SLP081 T00251037
CWLB,2023-04-05T21:00:00Z,CWLB 052100Z AUTO 14005KT 02/M07 RMK AO1 SOG 20 8008 SLP165 T00211074
CWLC,2023-04-05T21:00:00Z,CWLC 052100Z AUTO 13031G38KT 07/02 RMK AO1 PK WND 13038/2055 T00670022
CWLE,2023-04-05T21:00:00Z,CWLE 052100Z AUTO 25005KT M08/M16 RMK AO1 SOG 25 7006 SLP238 T10831162
CWLM,2023-04-05T21:00:00Z,CWLM 052100Z AUTO 11004KT 09/M00 RMK AO1 SLP200 T00911001 56010
CWLP,2023-04-05T21:00:00Z,CWLP 052100Z AUTO 12038G44KT 06/03 RMK AO1 PK WND 11048/2035 SLP126 T00600028 58011
CWLS,2023-04-05T21:00:00Z,CWLS 052100Z AUTO 17008KT 10/09 RMK AO1 4PAST HR 0000 PK WND 15017/2010 SLP087 P0002 T00970089 50103
CWLX,2023-04-05T21:00:00Z,CWLX 052100Z AUTO ///// ////SM ////// M18/M24 A3014
CWLY,2023-04-05T21:00:00Z,CWLY 052100Z AUTO 19018G29KT 160V230 9SM CLR 11/M06 A3000 RMK SLP164
CWME,2023-04-05T20:00:00Z,CWME 052000Z AUTO 06010KT 09/M01 RMK AO1 SLP119 T00891009 56015
CWMJ,2023-04-05T21:00:00Z,CWMJ 052100Z AUTO 00000KT M00/M00 RMK AO1 6PAST HR SOG 37 8013 SLP159 P0006 T10021002 50033
CWMM,2023-04-05T21:00:00Z,CWMM 052100Z AUTO 02004KT 10/M00 RMK AO1 SLP213 T00961002 56013
CWMQ,2023-04-05T21:00:00Z,CWMQ 052100Z AUTO 11002KT 01/M07 RMK AO1 SLP196 T00141071 58012
CWMT,2023-04-05T21:00:00Z,CWMT 052100Z AUTO 15015G21KT M01/M10 RMK AO1 SOG 36 6013 PK WND 17021/2015 SLP118 T10071100
CWNC,2023-04-05T21:00:00Z,CWNC 052100Z AUTO 01007G15KT 06/05 RMK AO1 2PAST HR PRESRR 3010 PK WND 32023/2046 SLP123 P0005 T00580047 50049
CWND,2023-04-05T20:00:00Z,CWND 052000Z AUTO 34011KT M17/M21 RMK AO1 SLP092 T11741207 53001
CWNE,2023-04-05T21:00:00Z,CWNE 052100Z AUTO 13002KT M02/M10 RMK AO1 SLP302 T10221095 58011
CWNH,2023-04-05T21:00:00Z,CWNH 052100Z AUTO 36004KT M03/M12 RMK AO1 SOG 59 6025 SLP294 T10331121
CWNK,2023-04-05T21:00:00Z,CWNK 052100Z AUTO 33016G22KT M06/M08 RMK AO1 3007 PK WND 34027/2037 SLP054 T10561082 50005
CWNM,2023-04-05T21:00:00Z,CWNM 052100Z AUTO 26008KT 10/M07 RMK AO1 SLP185 T00991066 56016
CWNP,2023-04-05T21:00:00Z,CWNP 052100Z AUTO 28002KT 08/M04 RMK AO1 SOG 03 6020 SLP183 T00781037
CWNQ,2023-04-05T21:00:00Z,CWNQ 052100Z AUTO 05009KT M02/M03 RMK AO1 8PAST HR 8036 SLP212 P0003 T10171030 50051
CWNZ,2023-04-05T21:00:00Z,CWNZ 052100Z AUTO 10019G29KT M04/M07 RMK AO1 PRESFR SOG 78 8073 PK WND 10030/2027 SLP027 T10381066
CWOB,2023-04-05T21:00:00Z,CWOB 052100Z AUTO 04004KT ////SM ////// M12/M14 A3011
CWOC,2023-04-05T21:00:00Z,CWOC 052100Z AUTO 26006KT M00/M10 RMK AO1 SOG 54 7010 SLP290 T10041098
CWOD,2023-04-05T21:00:00Z,CWOD 052100Z AUTO 35002KT M04/M13 RMK AO1 SOG 48 6028 SLP275 T10371126
CWOE,2023-04-05T21:00:00Z,CWOE 052100Z AUTO 06010KT M03/M06 RMK AO1 SOG 24 7011 SLP193 T10301060
CWOY,2023-04-05T21:00:00Z,CWOY 052100Z AUTO 30007KT M06/M14 RMK AO1 SLP213 T10571140 56005
CWPD,2023-04-05T21:00:00Z,CWPD 052100Z AUTO 06003KT M08/M10 RMK AO1 0PAST HR 5021 SLP274 P0008 T10801102 50040
CWPE,2023-04-05T21:00:00Z,CWPE 052100Z AUTO 10001KT 01/M10 RMK AO1 SLP312 T00131097 55002
CWPF,2023-04-05T21:00:00Z,CWPF 052100Z AUTO 17005KT 08/02 RMK AO1 SLP199 T00750021 57011
CWPK,2023-04-05T21:00:00Z,CWPK 052100Z AUTO 09006KT M06/M07 RMK AO1 PRESFR SOG 93 8029 SLP218 T10571074 50008
CWPO,2023-04-05T21:00:00Z,CWPO 052100Z AUTO 34017G26KT M07/M09 RMK AO1 SOG 45 3010 PK WND 32027/2041 SLP084 T10661088
CWPR,2023-04-05T21:00:00Z,CWPR 052100Z AUTO 15004KT 11/M09 RMK AO1 SLP171 T01081090 56023
CWPZ,2023-04-05T21:00:00Z,CWPZ 052100Z AUTO 15007KT 06/M04 RMK AO1 SOG 30 6009 SLP122 T00571040
CWQH,2023-04-05T21:00:00Z,CWQH 052100Z AUTO 13001KT M00/M01 RMK AO1 6PAST HR 6036 SLP214 P0026 T10041006 50103
CWQK,2023-04-05T21:00:00Z,CWQK 052100Z AUTO 08006KT 07/02 RMK AO1 SLP200 T00740015 58010
CWQO,2023-04-05T21:00:00Z,CWQO 052100Z AUTO 07004KT M02/M13 RMK AO1 T10151133
CWQP,2023-04-05T21:00:00Z,CWQP 052100Z AUTO 07017G23KT 03/02 RMK AO1 9PAST HR 8011 PK WND 07023/2056 SLP107 P0007 T00300024 50178
CWQR,2023-04-05T21:00:00Z,CWQR 052100Z AUTO 25015KT M01/M08 RMK AO1 PK WND 25027/2003 T10061081
CWQS,2023-04-05T20:00:00Z,CWQS 052000Z AUTO 14030G41KT 08/04 RMK AO1 PK WND 14041/1913 SLP016 T00810035 56008
CWQV,2023-04-05T21:00:00Z,CWQV 052100Z AUTO 09015KT M02/ RMK AO1 PK WND 08018/2029 T1019
CWRA,2023-04-05T21:00:00Z,CWRA 052100Z AUTO 02/M04 RMK AO1 SLP187 T00171044 53041
CWRJ,2023-04-05T21:00:00Z,CWRJ 052100Z AUTO 27003KT M10/M13 RMK AO1 SOG 03 6006 SLP236 T10981134
CWRK,2023-04-05T21:00:00Z,CWRK 052100Z AUTO M00/M00 RMK AO1 8PAST HR SOG 19 3004 SLP126 P0003 T10041004 50086
CWRM,2023-04-05T21:00:00Z,CWRM 052100Z AUTO 15008KT 03/M10 RMK AO1 SOG 23 6012 SLP130 T00271096
CWRN,2023-04-05T21:00:00Z,CWRN 052100Z AUTO 30015KT M00/M06 RMK AO1 PK WND 29023/2003 SLP310 T10021055 51011
CWRO,2023-04-05T21:00:00Z,CWRO 052100Z AUTO 15034G45KT 05/ RMK AO1 PK WND 16050/2020 SLP048 T0051 56009
CWRT,2023-04-05T21:00:00Z,CWRT 052100Z AUTO 29011G20KT 03/M12 RMK AO1 PK WND 30020/2058 SLP175 T00301116 58009
CWRU,2023-04-05T20:00:00Z,CWRU 052000Z AUTO 12056G68KT 05/ RMK AO1 2PAST HR 8021 PK WND 12071/1938 SLP081 P0005 T0052 50030
CWRY,2023-04-05T21:00:00Z,CWRY 052100Z AUTO 28014KT 04/M09 RMK AO1 SOG 16 6006 PK WND 32022/2002 SLP170 T00391086
CWRZ,2023-04-05T21:00:00Z,CWRZ 052100Z AUTO 14009KT M02/M08 RMK AO1 SLP293 T10181076 57006
CWSA,2023-04-05T21:00:00Z,CWSA 052100Z AUTO 35014KT 9SM OVC086 01/M05 A3045 RMK SLP312
CWSD,2023-04-05T21:00:00Z,CWSD 052100Z AUTO 07007KT M01/M08 RMK AO1 SOG 02 8007 SLP309 T10121076
CWSF,2023-04-05T21:00:00Z,CWSF 052100Z AUTO 29008KT M03/M13 RMK AO1 SOG 20 8024 PK WND 27017/2044 SLP295 T10311130
CWSG,2023-04-05T21:00:00Z,CWSG 052100Z AUTO 36001KT M03/M12 RMK AO1 SLP309 T10321119 55020
CWSK,2023-04-05T21:00:00Z,CWSK 052100Z AUTO 16006KT 10/M01 RMK AO1 SLP203 T00961013 56015
CWSL,2023-04-05T21:00:00Z,CWSL 052100Z AUTO 35004KT 10/M03 RMK AO1 SLP180 T00951027 56021
CWSP,2023-04-05T21:00:00Z,CWSP 052100Z AUTO 13009KT 07/04 RMK AO1 SLP200 T00690036 56010
CWSR,2023-04-05T21:00:00Z,CWSR 052100Z AUTO 02002KT M02/M12 RMK AO1 SOG 13 6007 SLP212 T10161115
CWSS,2023-04-05T21:00:00Z,CWSS 052100Z AUTO 07004KT 01/M06 RMK AO1 SLP289 T00051059 58027
CWST,2023-04-05T21:00:00Z,CWST 052100Z AUTO 03004KT M05/M06 RMK AO1 6PAST HR SOG 21 6026 SLP292 P0002 T10461061 50019
CWSW,2023-04-05T21:00:00Z,CWSW 052100Z 16005KT 20SM BKN055 BKN230 05/M13 A2993 RMK SC7CI1 CI TR SLP175
CWTA,2023-04-05T21:00:00Z,CWTA 052100Z AUTO 00035KT M00/01 RMK AO1 6PAST HR SOG 38 5009 SLP191 P0002 T10010005 50089
CWTG,2023-04-05T21:00:00Z,CWTG 052100Z AUTO 22008KT M04/M10 RMK AO1 SLP312 T10361095 55013
CWTN,2023-04-05T21:00:00Z,CWTN 052100Z AUTO 03009KT M02/M06 RMK AO1 0PAST HR 6034 PK WND 02018/2008 SLP285 P0004 T10191063 50043
CWTT,2023-04-05T21:00:00Z,CWTT 052100Z AUTO 13005KT 01/01 RMK AO1 T00050005
CWTY,2023-04-05T21:00:00Z,CWTY 052100Z AUTO 06019G26KT M01/M03 RMK AO1 PK WND 05026/2053 SLP227 T10141031 57038
CWUS,2023-04-05T21:00:00Z,CWUS 052100Z AUTO 14015G22KT 10/M11 RMK AO1 PK WND 13022/2054 SLP174 T00991110 56023
CWUW,2023-04-05T21:00:00Z,CWUW 052100Z AUTO 27002KT ////SM NCD M11/M26 A3001
CWUX,2023-04-05T21:00:00Z,CWUX 052100Z AUTO 14012G20KT M02/M12 RMK AO1 PK WND 12021/2049 SLP280 T10181115 56020
CWVF,2023-04-05T21:00:00Z,CWVF 052100Z AUTO 14013KT 08/02 RMK AO1 PK WND 14017/2029 T00820022
CWVI,2023-04-05T21:00:00Z,CWVI 052100Z AUTO 19008KT M02/M06 RMK AO1 SOG 20 6006 SLP184 T10161056
CWVN,2023-04-05T21:00:00Z,CWVN 052100Z AUTO 23001KT M08/M14 RMK AO1 SOG 19 6007 SLP235 T10821137
CWVP,2023-04-05T21:00:00Z,CWVP 052100Z AUTO 21006KT M07/M09 RMK AO1 SOG 42 8006 SLP191 T10711092
CWVQ,2023-04-05T21:00:00Z,CWVQ 052100Z AUTO 04001KT M00/M01 RMK AO1 4PAST HR 5011 SLP185 P0002 T10021009 50090
CWVT,2023-04-05T21:00:00Z,CWVT 052100Z AUTO 11006KT 02/M10 RMK AO1 SOG 42 6011 SLP202 T00211096
CWVU,2023-04-05T21:00:00Z,CWVU 052100Z AUTO 36013G18KT 03/M03 RMK AO1 PK WND 35018/2051 SLP294 T00271030 55009
CWWA,2023-04-05T21:00:00Z,CWWA 052100Z AUTO 15001KT 09/M01 RMK AO1 SLP211 T00861008 56009
CWWB,2023-04-05T21:00:00Z,CWWB 052100Z AUTO 07006KT 04/03 RMK AO1 PK WND 01017/2004 SLP117 T00380034 50003
CWWE,2023-04-05T21:00:00Z,CWWE 052100Z AUTO 13008KT 03/M05 RMK AO1 SLP302 T00311053 56009
CWWF,2023-04-05T21:00:00Z,CWWF 052100Z AUTO 33018KT M09/M12 RMK AO1 SOG 21 3001 PK WND 32022/2032 SLP208 T10881115
CWWK,2023-04-05T21:00:00Z,CWWK 052100Z AUTO 16004KT 11/M00 RMK AO1 SLP216 T01061001 56010
CWWL,2023-04-05T20:00:00Z,CWWL 052000Z AUTO 15041G52KT 05/04 RMK AO1 6PAST HR 6012 PK WND 15052/1957 SLP073 P0002 T00510036 50016
CWWS,2023-04-05T20:00:00Z,CWWS 052000Z AUTO 03024G30KT M03/M12 RMK AO1 SOG 74 6013 PK WND 03030/1959 SLP127 T10331115
CWWU,2023-04-05T20:35:00Z,CWWU 052035Z 32013KT 15SM BKN033 M00/M04 A3008 RMK SC5 CF ASOCTD SLP188
CWWZ,2023-04-05T21:00:00Z,CWWZ 052100Z AUTO 02010KT 04/04 RMK AO1 9PAST HR 3018 PK WND 32022/2008 SLP121 P0015 T00430038 50046
CWXA,2023-04-05T21:00:00Z,CWXA 052100Z AUTO 00025KT 03/M16 RMK AO1 SLP173 T00291156 56009
CWXC,2023-04-05T20:00:00Z,CWXC 052000Z AUTO 09003KT 01/M17 RMK AO1 SLP278 T00111166 56032
CWXI,2023-04-05T21:00:00Z,CWXI 052100Z AUTO 25018KT M02/M09 RMK AO1 PK WND 28024/2000 SLP186 T10231087 51013
CWXL,2023-04-05T21:00:00Z,CWXL 052100Z AUTO 15009KT M01/M04 RMK AO1 SLP193 T10061036 56009
CWYJ,2023-04-05T21:00:00Z,CWYJ 052100Z AUTO 08003KT 09/02 RMK AO1 SLP202 T00880016 56010
CWYL,2023-04-05T21:00:00Z,CWYL 052100Z AUTO 25013G20KT M00/M11 RMK AO1 SOG 95 6005 PK WND 24021/2049 SLP180 T10011109
CWYY,2023-04-05T21:00:00Z,CWYY 052100Z AUTO 17010G17KT 12/M07 RMK AO1 PK WND 17017/2059 SLP186 T01161069 56022
CWZA,2023-04-05T21:00:00Z,CWZA 052100Z AUTO 18003KT 11/M01 RMK AO1 SLP204 T01141011 56017
CWZG,2023-04-05T21:00:00Z,CWZG 052100Z AUTO 21011G19KT 02/M13 RMK AO1 SOG 17 6011 PK WND 23019/2052 SLP156 T00151132
CWZL,2023-04-05T20:00:00Z,CWZL 052000Z AUTO 15037G46KT 07/06 RMK AO1 PK WND 15050/1901 SLP054 T00660058 55002
CWZN,2023-04-05T21:00:00Z,CWZN 052100Z AUTO 30032KT M01/M10 RMK AO1 PK WND 31038/2015 SLP216 T10081102 53032
CWZO,2023-04-05T21:00:00Z,CWZO 052100Z AUTO 16019KT RMK AO1 PK WND 16024/2003
CWZQ,2023-04-05T21:00:00Z,CWZQ 052100Z AUTO 31010KT M02/M06 RMK AO1 PK WND 32017/2008 SLP309 T10241055 50005
CWZW,2023-04-05T21:00:00Z,CWZW 052100Z AUTO 15001KT 02/M05 RMK AO1 SOG 62 7008 SLP053 T00231049
CWZZ,2023-04-05T21:00:00Z,CWZZ 052100Z AUTO 01016KT ////SM ////// ///// A3000
CXAF,2023-04-05T21:00:00Z,CXAF 052100Z AUTO 15007KT M02/M04 RMK AO1 T10151043
CXAG,2023-04-05T21:00:00Z,CXAG 052100Z AUTO 15008KT M03/M06 RMK AO1 T10291064
CXAJ,2023-04-05T21:00:00Z,CXAJ 052100Z AUTO 21004KT 03/M04 RMK AO1 SOG 41 T00291043
CXAK,2023-04-05T21:00:00Z,CXAK 052100Z AUTO 18007KT M00/M04 RMK AO1 T10041037
CXAT,2023-04-05T21:00:00Z,CXAT 052100Z AUTO 33001KT M26/M35 RMK AO1 SOG 08 5000 SLP260 T12611349
CXBA,2023-04-05T21:00:00Z,CXBA 052100Z AUTO 19007KT M07/M10 RMK AO1 T10661095
CXBI,2023-04-05T21:00:00Z,CXBI 052100Z AUTO 16009G15KT 03/02 RMK AO1 8PAST HR 8022 SLP098 P0003 T00280024 50084
CXBK,2023-04-05T21:00:00Z,CXBK 052100Z AUTO 29014KT M10/M13 RMK AO1 SOG 26 6001 PK WND 29017/2043 SLP230 T10981134
CXBO,2023-04-05T21:00:00Z,CXBO 052100Z AUTO 06018G28KT M03/M04 RMK AO1 4PAST HR M PK WND 06028/2057 P0005 T10261035 50049
CXBR,2023-04-05T21:00:00Z,CXBR 052100Z AUTO 26016KT RMK AO1 PK WND 27024/2020
CXBW,2023-04-05T21:00:00Z,CXBW 052100Z AUTO 17003KT 04/M02 RMK AO1 T00401016
CXCA,2023-04-05T21:00:00Z,CXCA 052100Z AUTO 04006KT M03/M04 RMK AO1 2PAST HR SOG 44 6032 PK WND 06080/2015 SLP971 P0005 T10291038 50025
CXCD,2023-04-05T21:00:00Z,CXCD 052100Z AUTO 18004KT 05/M07 RMK AO1 T00451071
CXCK,2023-04-05T21:00:00Z,CXCK 052100Z AUTO 10005KT 03/M06 RMK AO1 SOG 62 7016 SLP018 T00331058
CXCP,2023-04-05T21:00:00Z,CXCP 052100Z AUTO 34005KT 04/M09 RMK AO1 T00431090
CXCS,2023-04-05T21:00:00Z,CXCS 052100Z AUTO 08004KT M08/M11 RMK AO1 T10831108
CXDB,2023-04-05T21:00:00Z,CXDB 052100Z AUTO 28017KT 02/M09 RMK AO1 PK WND 27025/2025 T00171090
CXDE,2023-04-05T21:00:00Z,CXDE 052100Z AUTO 11006KT M05/M14 RMK AO1 SOG 27 7004 SLP079 T10541143
CXDI,2023-04-05T21:00:00Z,CXDI 052100Z AUTO 21004KT 15/15 RMK AO1 9PAST HR 3034 PK WND 18032/2032 SLP118 P0031 T01520146 50098
CXDK,2023-04-05T20:00:00Z,CXDK 052000Z AUTO 06/M09 RMK AO1 SOG 36 7021 SLP059 T00601092
CXDW,2023-04-05T21:00:00Z,CXDW 052100Z AUTO 33024G29KT M06/M08 RMK AO1 2PAST HR SOG 44 3007 PK WND 33031/2014 SLP061 P0001 T10641083 50007
CXEA,2023-04-05T21:00:00Z,CXEA 052100Z AUTO 08012G20KT M08/M11 RMK AO1 2PAST HR SOG 65 6018 PK WND 06022/2024 SLP994 P0001 T10781110 50010
CXEC,2023-04-05T21:00:00Z,CXEC 052100Z AUTO 21003KT 05/M08 RMK AO1 SLP150 T00481077 56010
CXEG,2023-04-05T21:00:00Z,CXEG 052100Z AUTO 21004KT 04/M08 RMK AO1 SLP154 T00431075 57009
CXET,2023-04-05T21:00:00Z,CXET 052100Z AUTO 17006KT 05/04 RMK AO1 8PAST HR PRESFR 6029 PK WND 11017/2041 SLP094 P0003 T00490043 50037
CXFM,2023-04-05T21:00:00Z,CXFM 052100Z AUTO 27007KT 01/M05 RMK AO1 T00051054
CXFR,2023-04-05T21:00:00Z,CXFR 052100Z AUTO 10005KT 03/M04 RMK AO1 T00341035
CXGH,2023-04-05T21:00:00Z,CXGH 052100Z AUTO 01018KT M06/M08 RMK AO1 PK WND 02024/2007 SLP045 T10571075 55003
CXHA,2023-04-05T21:00:00Z,CXHA 052100Z AUTO 19007KT 15/13 RMK AO1 6006 SLP078 T01470132 50034
CXHD,2023-04-05T21:00:00Z,CXHD 052100Z AUTO 17007KT 00/M04 RMK AO1 T00001042
CXHM,2023-04-05T21:00:00Z,CXHM 052100Z AUTO 08005KT 05/04 RMK AO1 8PAST HR 0008 SLP112 P0003 T00470036 50089
CXHP,2023-04-05T21:00:00Z,CXHP 052100Z AUTO 05003KT 05/M09 RMK AO1 T00531086
CXHR,2023-04-05T21:00:00Z,CXHR 052100Z AUTO 17010KT M03/M03 RMK AO1 T10311031
CXIB,2023-04-05T21:00:00Z,CXIB 052100Z AUTO 33003KT M02/M09 RMK AO1 SOG 32 1012 SLP291 T10171087
CXKA,2023-04-05T21:00:00Z,CXKA 052100Z AUTO 11014G21KT M03/M06 RMK AO1 SOG 83 6069 PK WND 12028/2028 SLP079 T10311064
CXKE,2023-04-05T21:00:00Z,CXKE 052100Z AUTO M00/M00 RMK AO1 4PAST HR 6031 SLP141 P0037 T10021001 50236
CXKI,2023-04-05T21:00:00Z,CXKI 052100Z AUTO 11007KT M03/M05 RMK AO1 SOG 73 8068 PK WND 11023/2028 SLP092 T10251053
CXKM,2023-04-05T21:00:00Z,CXKM 052100Z AUTO 19008KT 01/M04 RMK AO1 T00061039
CXKT,2023-04-05T21:00:00Z,CXKT 052100Z AUTO 09002KT 04/M14 RMK AO1 SLP300 T00361138 57008
CXLB,2023-04-05T21:00:00Z,CXLB 052100Z AUTO 16002KT 04/M09 RMK AO1 SLP302 T00391086 58005
CXLL,2023-04-05T20:00:00Z,CXLL 052000Z AUTO 04/M09 RMK AO1 SOG 62 8020 SLP071 T00441089
CXMD,2023-04-05T21:00:00Z,CXMD 052100Z AUTO 34016G23KT M06/M08 RMK AO1 4PAST HR SOG 30 3009 PK WND 01028/2002 SLP051 P0002 T10581080 50013
CXMG,2023-04-05T21:00:00Z,CXMG 052100Z AUTO 10003KT 03/M04 RMK AO1 T00311035
CXMI,2023-04-05T21:00:00Z,CXMI 052100Z AUTO 17009KT 03/M04 RMK AO1 SLP294 T00341040 56013
CXMM,2023-04-05T21:00:00Z,CXMM 052100Z AUTO 13008KT 03/M05 RMK AO1 SOG 32 6009 SLP162 T00331048
CXMO,2023-04-05T21:00:00Z,CXMO 052100Z AUTO 21007KT M00/M01 RMK AO1 T10021014
CXMY,2023-04-05T21:00:00Z,CXMY 052100Z AUTO 04/M11 RMK AO1 T00391107
CXNM,2023-04-05T21:00:00Z,CXNM 052100Z AUTO 30010G16KT M07/M08 RMK AO1 SOG 143 PK WND 30025/2004 T10671083
CXNP,2023-04-05T21:00:00Z,CXNP 052100Z AUTO 06007KT 03/M11 RMK AO1 SLP301 T00291112 55003
CXOL,2023-04-05T21:00:00Z,CXOL 052100Z AUTO 11007KT M00/M04 RMK AO1 T10031038
CXOX,2023-04-05T21:00:00Z,CXOX 052100Z AUTO 05008KT 01/M17 RMK AO1 SOG 42 6010 SLP205 T00071167
CXOY,2023-04-05T21:00:00Z,CXOY 052100Z AUTO 15007KT M06/M09 RMK AO1 T10581088
CXPA,2023-04-05T21:00:00Z,CXPA 052100Z AUTO 06004KT 05/M03 RMK AO1 T00531026
CXPC,2023-04-05T21:00:00Z,CXPC 052100Z AUTO 05/05 RMK AO1 3009 SLP096 T00510047 50091
CXPL,2023-04-05T21:00:00Z,CXPL 052100Z AUTO 11006KT M02/M02 RMK AO1 T10241024
CXRB,2023-04-05T21:00:00Z,CXRB 052100Z AUTO 13004KT M26/M30 RMK AO1 SLP244 T12631298 53001
CXRH,2023-04-05T21:00:00Z,CXRH 052100Z AUTO 30009G15KT M03/M12 RMK AO1 SOG 13 0017 PK WND 28019/2006 SLP241 T10251118
CXRL,2023-04-05T21:00:00Z,CXRL 052100Z AUTO 16008KT M00/M07 RMK AO1 T10021067
CXSC,2023-04-05T21:00:00Z,CXSC 052100Z AUTO 09006KT M01/M05 RMK AO1 T10111052
CXSE,2023-04-05T20:00:00Z,CXSE 052000Z AUTO 12013KT M26/M29 RMK AO1 SOG 25 5004 SLP211 T12601292
CXSH,2023-04-05T21:00:00Z,CXSH 052100Z AUTO 07011G17KT M04/M05 RMK AO1 PK WND 08020/2010 SLP226 T10351052 58035
CXSL,2023-04-05T21:00:00Z,CXSL 052100Z AUTO 22005KT M01/M05 RMK AO1 T10051051
CXSP,2023-04-05T21:00:00Z,CXSP 052100Z AUTO 13008KT M01/M08 RMK AO1 T10141075
CXTD,2023-04-05T21:00:00Z,CXTD 052100Z AUTO 02009KT M02/M06 RMK AO1 SLP323 T10181055 50002
CXTH,2023-04-05T21:00:00Z,CXTH 052100Z AUTO 15011KT M01/M04 RMK AO1 T10091044
CXTN,2023-04-05T20:00:00Z,CXTN 052000Z AUTO 21012KT M08/M14 RMK AO1 SOG 41 0001 SLP095 T10771138
CXTO,2023-04-05T21:00:00Z,CXTO 052100Z AUTO 08/06 RMK AO1 4PAST HR 0012 SLP107 P0013 T00770062 50070
CXTP,2023-04-05T21:00:00Z,CXTP 052100Z AUTO 32005KT M01/M09 RMK AO1 PK WND 32017/2012 SLP180 T10091086 53035
CXTV,2023-04-05T20:00:00Z,CXTV 052000Z AUTO 34009KT M16/M19 RMK AO1 SOG 45 1001 SLP116 T11621193
CXVM,2023-04-05T21:00:00Z,CXVM 052100Z AUTO 15008KT M02/M04 RMK AO1 T10161039
CXVN,2023-04-05T21:00:00Z,CXVN 052100Z AUTO 04005KT 04/04 RMK AO1 7PAST HR SOG 01 3014 PK WND 33039/2006 SLP122 P0014 T00440038 50049
CXVW,2023-04-05T21:00:00Z,CXVW 052100Z AUTO 25006KT 07/M10 RMK AO1 SLP119 T00671104 56010
CXWB,2023-04-05T20:00:00Z,CXWB 052000Z AUTO 19004KT M16/M22 RMK AO1 SOG 15 0000 SLP283 T11641219
CXWM,2023-04-05T21:00:00Z,CXWM 052100Z AUTO 33008KT 02/M03 RMK AO1 T00231034
CXWN,2023-04-05T21:00:00Z,CXWN 052100Z AUTO 36009G20KT M05/M07 RMK AO1 PK WND 35020/2053 SLP038 T10451074 53006
CXYH,2023-04-05T20:00:00Z,CXYH 052000Z AUTO 22004KT 06/M10 RMK AO1 SLP050 T00551103 56016
CXZC,2023-04-05T21:00:00Z,CXZC 052100Z AUTO 07009G17KT M05/M11 RMK AO1 PRESFR SOG 55 8070 PK WND 05019/2018 SLP166 T10471107
CXZV,2023-04-05T21:00:00Z,CXZV 052100Z AUTO 24006KT M03/M11 RMK AO1 SOG 77 5017 SLP291 T10301107
CYAH,2023-04-05T21:00:00Z,CYAH 052100Z AUTO 07007KT 9SM CLR M06/M18 A3039 RMK SLP325
CYAM,2023-04-05T21:08:00Z,CYAM 052108Z 10012G22KT 3SM BR BKN004 BKN005 OVC006 02/02 A2952 RMK ST5ST2SC1 SLP008
CYAS,2023-04-05T21:00:00Z,CYAS 052100Z 29018KT 15SM FEW100 M12/M16 A3040 RMK AC2 LAST STFD OBS/NEXT 061200 SLP310
CYAT,2023-04-05T21:00:00Z,CYAT 052100Z AUTO 07018G24KT 9SM OVC120 M08/M13 A3013 RMK PRESFR SLP205
CYAY,2023-04-05T21:00:00Z,CYAY 052100Z AUTO 27018G23KT 9SM CLR M03/M09 A3006 RMK SLP182
CYAZ,2023-04-05T21:00:00Z,CYAZ 052100Z 13013G20KT 3SM -RA BR SCT014 BKN024 OVC030 06/05 A3007 RMK SC3SC3SC2 SLP186
CYBB,2023-04-05T21:00:00Z,CYBB 052100Z 18005KT 15SM SKC M19/M22 A3029 RMK SLP262
CYBC,2023-04-05T21:00:00Z,CYBC 052100Z AUTO 22010KT 9SM CLR M04/M10 A3043 RMK SLP308
CYBD,2023-04-05T21:00:00Z,CYBD 052100Z VRB03KT 15SM SCT078 BKN084 13/M03 A2987 RMK AC3AC4 SLP117
CYBG,2023-04-05T21:00:00Z,CYBG 052100Z 14014KT 25SM OVC050 M01/M12 A3031 RMK SC8 DENSITY ALT -1823FT SLP277
CYBK,2023-04-05T21:00:00Z,CYBK 052100Z 10004KT 15SM SKC M23/M26 A3033 RMK SLP275
CYBL,2023-04-05T21:00:00Z,CYBL 052100Z 15014KT 20SM -SHRA FEW001 SCT025 OVC060 07/01 A3008 RMK CU2CU2SC4 SLP190
CYBQ,2023-04-05T21:00:00Z,CYBQ 052100Z AUTO 05007KT 9SM OVC066 M03/M10 A3016 RMK SLP241
CYBR,2023-04-05T21:00:00Z,CYBR 052100Z 34022G27KT 15SM FEW030 OVC100 M03/M09 A2978 RMK SC2AC6 SLP112
CYBU,2023-04-05T21:00:00Z,CYBU 052100Z AUTO 00000KT 9SM CLR M02/M17 A3007 RMK SLP215
CYBV,2023-04-05T21:00:00Z,CYBV 052100Z 03009G27KT 360V060 1/2SM -SN DRSN VV010 M06/M07 A2978 RMK SN8 BLSN SNW CVR/ONE LOOSE LAST STFD OBS/NEXT 061300UTC SLP103
CYBW,2023-04-05T21:00:00Z,CYBW 052100Z AUTO 27009G15KT 9SM CLR 04/M12 A2985 RMK SLP165
CYBX,2023-04-05T21:00:00Z,CYBX 052100Z 28013KT 15SM FEW080 M01/M10 A3008 RMK AC1 SLP190
CYCA,2023-04-05T21:00:00Z,CYCA 052100Z AUTO 32018G26KT 9SM CLR M04/M13 A3006 RMK SLP184
CYCB,2023-04-05T21:00:00Z,CYCB 052100Z 10009KT 12SM IC FEW009 SCT025 SCT100 BKN240 M22/M25 A3006 RMK SC1SC2AC1CI2 SLP187
CYCD,2023-04-05T21:00:00Z,CYCD 052100Z 09010KT 050V170 25SM SCT035 BKN070 OVC250 08/01 A3013 RMK SC4AC2CI2 SLP204
CYCG,2023-04-05T21:00:00Z,CYCG 052100Z 18009G15KT 160V220 15SM BKN085 BKN230 10/M07 A3004 RMK CU5CI2 SLP189
CYCK,2023-04-05T21:00:00Z,CYCK 052100Z AUTO 13010KT 9SM BKN019 OVC026 15/15 A2978 RMK PRESFR SLP088 DENSITY ALT 1100FT
CYCO,2023-04-05T21:00:00Z,CYCO 052100Z 20014KT 15SM FEW280 SCT350 M06/M11 A2988 RMK CC1CI2 SLP122
CYCP,2023-04-05T21:00:00Z,CYCP 052100Z VRB04KT 15SM SCT076 BKN150 BKN280 08/M09 A2995 RMK AC4AS1CS1 SLP174
CYCQ,2023-04-05T21:00:00Z,CYCQ 052100Z 23011G18KT 35SM FEW050 BKN130 OVC200 07/M06 A2978 RMK CU1AS4CS3 SUN DIMLY VISBL HALO SLP114
CYCS,2023-04-05T21:00:00Z,CYCS 052100Z 33004KT 15SM IC FEW015 M22/M25 A3039 RMK SF1 SF TR SLP296
CYCX,2023-04-05T20:00:00Z,CYCX 052000Z CCA 26005KT 15SM -RA FEW022 OVC050 03/M12 A3043 RMK SC2SC6 DENSITY ALT -1844FT LAST OBS /NEXT 061200 UTC SLP307
CYCY,2023-04-05T21:00:00Z,CYCY 052100Z AUTO 00000KT 9SM CLR M21/M24 A3021 RMK SLP238
CYDA,2023-04-05T21:00:00Z,CYDA 052100Z 04006KT 15SM FEW037 BKN047 OVC052 01/M05 A2954 RMK CU1SC4SC3 VCSH SLP028
CYDB,2023-04-05T21:00:00Z,CYDB 052100Z 12007KT 15SM SCT036 BKN100 BKN200 M01/M08 A2943 RMK SC4AC1CI1 SLP019
CYDC,2023-04-05T21:00:00Z,CYDC 052100Z VRB06KT 25SM FEW130 SCT150 BKN260 10/M10 A2999 RMK AC2AC2CI2 LENT/CONTRAILS SLP175
CYDF,2023-04-05T21:00:00Z,CYDF 052100Z 26016G23KT 15SM SCT035 M03/M12 A3022 RMK SC4 SLP238
CYDL,2023-04-05T21:04:00Z,CYDL 052104Z AUTO 17006KT 150V230 9SM -RA OVC041 03/M03 A2965 RMK SLP060
CYDN,2023-04-05T21:00:00Z,CYDN 052100Z AUTO 01019G28KT 9SM FEW043 M02/M12 A2987 RMK SLP139
CYDP,2023-04-05T21:00:00Z,CYDP 052100Z 29019G26KT 15SM SKC M06/M14 A3017 RMK SLP219
CYDQ,2023-04-05T21:00:00Z,CYDQ 052100Z AUTO 25016G26KT 9SM OVC066 07/M07 A2977 RMK SLP112
CYED,2023-04-05T21:00:00Z,CYED 052100Z 12008KT 12SM HZ FEW015 SCT070 03/M03 A2991 RMK CU1AC3 DENSITY ALT 1356FT SLP159
CYEG,2023-04-05T21:00:00Z,CYEG 052100Z 18005KT 170V270 20SM SCT044 BKN086 BKN250 04/M07 A2989 RMK CU3AC4CI1 CI TR VIRGA PTCHS SLP157
CYEK,2023-04-05T21:00:00Z,CYEK 052100Z 02007KT 15SM SKC M16/M18 A3037 RMK SLP286
CYEN,2023-04-05T21:00:00Z,CYEN 052100Z AUTO 30020G26KT 9SM -SN CLR M08/M12 A2999 RMK SLP201
CYER,2023-04-05T21:00:00Z,CYER 052100Z AUTO 10016KT 9SM OVC150 M11/M13 A3030 RMK SLP265
CYET,2023-04-05T21:00:00Z,CYET 052100Z AUTO 22003KT 180V330 9SM CLR 05/M12 A2982 RMK SLP139
CYEV,2023-04-05T21:00:00Z,CYEV 052100Z 36008KT 4SM -SN FEW015 SCT038 BKN120 BKN210 M14/M18 A2983 RMK SC1SC2AC2CI2 VIS SW 2 SLP114
CYFB,2023-04-05T21:00:00Z,CYFB 052100Z 33018KT 30SM DRSN FEW150 BKN250 M15/M19 A3033 RMK AS1CI6 AS TR SLP276
CYFC,2023-04-05T21:05:00Z,CYFC 052105Z AUTO 19005KT 9SM BKN044 OVC076 01/M10 A3042 RMK PRESFR SLP303
CYFO,2023-04-05T21:00:00Z,CYFO 052100Z 01006KT 15SM SCT250 01/M16 A3005 RMK CI4 SLP203
CYFR,2023-04-05T21:00:00Z,CYFR 052100Z 15009G15KT 15SM FEW040 02/M08 A2994 RMK SC1 SC TR SLP154
CYFS,2023-04-05T21:00:00Z,CYFS 052100Z 13005KT 070V150 15SM FEW080 SCT250 02/M09 A2973 RMK AC1CI3 AC TR SLP083
CYFT,2023-04-05T20:00:00Z,CYFT 052000Z 30027G36KT 15SM FEW230 M05/M14 A3010 RMK CI1 CI TR LAST STFD OBS/NEXT060900Z SLP200
CYGE,2023-04-05T21:00:00Z,CYGE 052100Z 14011KT 20SM BKN085 BKN220 05/M09 A2999 RMK CU6CC1 VIRGA N+S SLP190
CYGH,2023-04-05T21:00:00Z,CYGH 052100Z 25006KT 25SM FEW093 SCT230 M08/M14 A2973 RMK AS2CI2 SLP079
CYGK,2023-04-05T21:00:00Z,CYGK 052100Z 05012KT 15SM BKN005 OVC050 02/01 A2987 RMK SF6SC2 CVCTV CLD EMBD SLP121
CYGL,2023-04-05T21:00:00Z,CYGL 052100Z 07013G20KT 15SM FEW120 BKN200 M07/M15 A3031 RMK AC2CI5 SLP289
CYGP,2023-04-05T21:00:00Z,CYGP 052100Z 34008KT 15SM BKN230 BKN250 M01/M15 A3037 RMK CS6CC1 SLP288
CYGR,2023-04-05T21:00:00Z,CYGR 052100Z 30012G19KT 20SM FEW022 OVC210 M03/M07 A3040 RMK SC2CI6 SLP297
CYGT,2023-04-05T20:00:00Z,CYGT 052000Z 32007KT 15SM SCT160 M23/M26 A3025 RMK AS3 LAST STFD OBS/NXT/060900Z SLP255
CYGV,2023-04-05T21:00:00Z,CYGV 052100Z AUTO 32015G20KT 9SM CLR M00/M14 A3030 RMK SLP266
CYGW,2023-04-05T21:00:00Z,CYGW 052100Z AUTO 02008KT 9SM CLR M09/M14 A3043 RMK SLP308
CYGX,2023-04-05T21:00:00Z,CYGX 052100Z 06007KT 030V120 15SM OVC200 M03/M15 A3017 RMK CS8 SLP232
CYHA,2023-04-05T21:00:00Z,CYHA 052100Z 32014G20KT 15SM -SN DRSN SCT001 BKN130 OVC250 M12/M15 A3040 RMK SC3AC2CI3 LAST OBS/NEXT 061200 UTC SLP299
CYHD,2023-04-05T21:00:00Z,CYHD 052100Z AUTO 05013G20KT 1 1/4SM -SN OVC015 M07/M09 A2937 RMK SLP977
CYHE,2023-04-05T21:00:00Z,CYHE 052100Z AUTO 29006G15KT 260V340 9SM CLR 12/M02 A3011 RMK SLP199
CYHI,2023-04-05T21:00:00Z,CYHI 052100Z 10019KT 15SM DRSN SCT220 M13/M18 A2988 RMK CI3 LST STFD OBS/NXT 06/1400Z SLP125
CYHK,2023-04-05T21:00:00Z,CYHK 052100Z 18009KT 8SM IC FEW013 FEW140 FEW230 M23/M25 A3021 RMK SF1AS1CI1 CI TR SLP240
CYHM,2023-04-05T20:18:00Z,CYHM 052018Z 06010KT 3SM -RA BR BKN003 OVC065 06/06 A2987 RMK SF5SC3 SLP122
CYHU,2023-04-05T21:00:00Z,CYHU 052100Z AUTO 02007G17KT 9SM -RA OVC006 00/M01 A3007 RMK PCPN 1.8MM PAST HR SLP188
CYHY,2023-04-05T21:00:00Z,CYHY 052100Z 16010KT 15SM FEW180 FEW230 04/M10 A2989 RMK AC1CI1 SLP137
CYHZ,2023-04-05T21:00:00Z,CYHZ 052100Z 04006KT 15SM BKN070 OVC100 04/M13 A3038 RMK AC7AC1 SLP298
CYIN,2023-04-05T21:00:00Z,CYIN 052100Z AUTO 10009KT 9SM CLR 04/M09 A2988 RMK SLP164
CYIO,2023-04-05T21:00:00Z,CYIO 052100Z 23004KT 40SM FEW046 FEW120 M27/M29 A3023 RMK SC1AC1 LAST STFD OBS/NEXT 061500Z SLP250
CYIV,2023-04-05T21:00:00Z,CYIV 052100Z AUTO 03013G27KT 360V090 9SM OVC066 M06/M18 A2991 RMK SLP151
CYJF,2023-04-05T21:00:00Z,CYJF 052100Z VRB02KT 15SM FEW230 08/M09 A2968 RMK CI1 CI TR SLP065
CYJT,2023-04-05T21:00:00Z,CYJT 052100Z 32014G22KT 15SM -SHSN BKN036 M04/M11 A3030 RMK SC7 CVCTV CLD EMBD SLP264
CYKA,2023-04-05T21:00:00Z,CYKA 052100Z 09011G16KT 070V150 40SM FEW100 SCT210 12/M06 A2998 RMK CU1CI3 CU TR SLP164
CYKF,2023-04-05T21:01:00Z,CYKF 052101Z AUTO 14009KT 090V160 1 3/4SM RA BR BKN004 BKN049 BKN076 OVC110 09/09 A2981 RMK VIS VRB 1 1/4-3 SLP103
CYKG,2023-04-05T21:00:00Z,CYKG 052100Z 36013KT 15SM FEW055 FEW130 M14/M18 A3035 RMK SC1AS2 SC TR LST OBS/ NEXT 061200UTC SLP300
CYKJ,2023-04-05T21:00:00Z,CYKJ 052100Z AUTO 16010KT 090V190 9SM BKN042 01/M08 A3003 RMK SLP208
CYKL,2023-04-05T21:00:00Z,CYKL 052100Z AUTO 33012KT 9SM FEW240 M09/M19 A3031 RMK SLP317
CYKO,2023-04-05T21:00:00Z,CYKO 052100Z 21007KT 8SM BKN011 M16/M19 A3053 RMK SC6 INTMT -SN LAST STFD OBS/NXT 061200UTC SLP343
CYKP,2023-04-05T21:06:00Z,CYKP 052106Z AUTO 07023G33KT 1 1/4SM -SN SCT026 OVC038 M08/M12 A2965 RMK VIS VRB 5/8-3 PRESFR SLP060
CYKQ,2023-04-05T21:00:00Z,CYKQ 052100Z 09015G22KT 15SM OVC084 M02/M14 A3012 RMK AC8 LAST STFD OBS/NEXT 061300UTC SLP205
CYKY,2023-04-05T21:00:00Z,CYKY 052100Z 19003KT 15SM FEW100 FEW240 M08/M09 A3003 RMK AC1CI1 AC TR SLP229
CYLA,2023-04-05T21:00:00Z,CYLA 052100Z 31011KT 15SM FEW090 M12/M17 A3045 RMK AC2 LAST OBS/NEXT 061200UTC SLP319
CYLC,2023-04-05T20:00:00Z,CYLC 052000Z 33012KT 15SM FEW015 SCT150 BKN250 M13/M18 A3036 RMK SC2AS1CC2 LASTSTFD OBS/NXT 061200Z SLP288
CYLD,2023-04-05T21:00:00Z,CYLD 052100Z 13012G21KT 15SM OVC010 M01/M03 A2954 RMK SC8 PRESFR SLP031
CYLH,2023-04-05T21:00:00Z,CYLH 052100Z AUTO 06020G32KT 5/8SM -SN BKN025 BKN100 BKN120 OVC140 M10/M12 A2972 RMK SLP088
CYLJ,2023-04-05T21:00:00Z,CYLJ 052100Z 30008KT 15SM SCT200 M00/M11 A3002 RMK CI3 SLP201
CYLK,2023-04-05T21:00:00Z,CYLK 052100Z 13009KT 090V170 25SM FEW050 02/M10 A3003 RMK SC1 SC TR SLP189
CYLL,2023-04-05T21:00:00Z,CYLL 052100Z 18012KT 15SM SCT260 M04/M09 A2999 RMK CI3 SLP205
CYLT,2023-04-05T20:00:00Z,CYLT 052000Z 28004KT 7SM -SN BKN035 M28/M31 A3028 RMK SC5 LAST OBS /NEXT 061000 UTC SLP261
CYLU,2023-04-05T21:00:00Z,CYLU 052100Z 31009KT 260V320 2SM -SN DRSN OVC014 M12/M16 A3042 RMK SN1SC7 LAST STFTD OBS/NEXT 061200Z SLP312
CYLW,2023-04-05T21:00:00Z,CYLW 052100Z AUTO 25013G19KT 9SM FEW140 11/M09 A3002 RMK SLP180
CYMA,2023-04-05T21:00:00Z,CYMA 052100Z 09005KT 060V150 20SM FEW035 OVC066TCU 01/M07 A2954 RMK CF1TCU7 SLP037
CYMH,2023-04-05T21:00:00Z,CYMH 052100Z AUTO 32019G27KT 9SM FEW060 M04/M14 A3003 RMK SLP173
CYMJ,2023-04-05T21:00:00Z,CYMJ 052100Z 29011KT 12SM FEW280 M08/M13 A3007 RMK CI1 SLP232
CYMM,2023-04-05T21:00:00Z,CYMM 052100Z AUTO 13009KT 9SM BKN071 03/M05 A2994 RMK SLP164
CYMO,2023-04-05T21:00:00Z,CYMO 052100Z AUTO 07021G26KT 9SM OVC071 M06/M10 A3000 RMK SLP163
CYMT,2023-04-05T21:00:00Z,CYMT 052100Z AUTO 09012G22KT 9SM OVC066 M03/M16 A3017 RMK SLP252
CYMX,2023-04-05T21:00:00Z,CYMX 052100Z 05009G17KT 360V090 4SM -FZRA BR BKN006 OVC012 M02/M02 A3009 RMK ST7SC1 SLP195
CYNA,2023-04-05T21:00:00Z,CYNA 052100Z AUTO 31010G18KT 9SM CLR M00/M13 A3027 RMK SLP252
CYND,2023-04-05T21:00:00Z,CYND 052100Z 08013KT 5SM -RA BR OVC007 00/M00 A2998 RMK SF8 SLP158
CYNE,2023-04-05T21:00:00Z,CYNE 052100Z AUTO 04008G21KT 350V080 9SM FEW100 M01/M17 A2997 RMK SLP168
CYNM,2023-04-05T21:00:00Z,CYNM 052100Z AUTO /////KT 9SM OVC041 M04/M11 A3003 RMK SLP194
CYOD,2023-04-05T21:00:00Z,CYOD 052100Z 21008KT 15SM FEW080 01/M09 A2999 RMK AC2 SLP187
CYOJ,2023-04-05T21:00:00Z,CYOJ 052100Z 15008KT 15SM FEW011 BKN250 M01/M04 A2987 RMK SC1CS6 SC TR CONTRAILS SLP140
CYOO,2023-04-05T21:00:00Z,CYOO 052100Z AUTO VRB02KT 9SM -RA FEW003 SCT066 SCT090 OVC110 06/06 A2988 RMK PCPN 4.0MM PAST HR SLP123
CYOW,2023-04-05T21:00:00Z,CYOW 052100Z CCA 09014G22KT 4SM -FZRA BR OVC005 M00/M01 A2993 RMK SC8 /R12/ PRESFR SLP142
CYPA,2023-04-05T21:00:00Z,CYPA 052100Z 19005KT 15SM FEW250 M03/M12 A3009 RMK CI1 SLP226
CYPC,2023-04-05T21:00:00Z,CYPC 052100Z 31003KT 270V330 15SM FEW100 BKN210 M12/M15 A2984 RMK AC1CI4 SLP107
CYPD,2023-04-05T21:00:00Z,CYPD 052100Z AUTO 32008KT 300V010 9SM CLR M02/M09 A3040 RMK SLP304
CYPE,2023-04-05T21:00:00Z,CYPE 052100Z 16005KT 15SM FEW040 BKN210 03/M06 A2982 RMK CU1CI5 CU TR SLP133
CYPH,2023-04-05T21:00:00Z,CYPH 052100Z AUTO 26003KT 170V280 9SM OVC011 M15/M18 A3054 RMK SLP347
CYPL,2023-04-05T21:00:00Z,CYPL 052100Z AUTO 07017G26KT 1/8SM +SN VV005 M11/M13 A2958 RMK PCPN 1.5MM PAST HR SLP051
CYPO,2023-04-05T21:00:00Z,CYPO 052100Z AUTO 08012G21KT 9SM BKN140 OVC160 M11/M16 A3025 RMK SLP253
CYPQ,2023-04-05T21:09:00Z,CYPQ 052109Z AUTO 00000KT 9SM -RA -UP BKN004 BKN091 BKN110 OVC130 03/03 A2988 RMK SLP127
CYPR,2023-04-05T21:00:00Z,CYPR 052100Z AUTO 14015G23KT 9SM SCT049 OVC055 07/01 A2974 RMK SLP075
CYPW,2023-04-05T21:00:00Z,CYPW 052100Z 11013G18KT 050V130 20SM FEW027 SCT081 OVC110 09/02 A3010 RMK CU1AC3AS4 SLP200
CYPX,2023-04-05T21:00:00Z,CYPX 052100Z AUTO 26007KT 9SM OVC012 M16/M19 A3055 RMK SLP350
CYPY,2023-04-05T21:00:00Z,CYPY 052100Z AUTO 11009KT 9SM CLR 02/M07 A2997 RMK SLP167
CYQA,2023-04-05T21:05:00Z,CYQA 052105Z AUTO 13011G21KT 9SM OVC003 04/04 A2974 RMK PRESRR SLP081
CYQB,2023-04-05T21:00:00Z,CYQB 052100Z 06017G26KT 6SM -PL BKN010 OVC020 M04/M05 A3029 RMK SC5SC3 /S02/ SLP265
CYQD,2023-04-05T21:00:00Z,CYQD 052100Z AUTO 36006KT 9SM FEW200 00/M13 A3004 RMK SLP195
CYQF,2023-04-05T21:00:00Z,CYQF 052100Z AUTO 15007KT 9SM CLR 02/M05 A2990 RMK SLP172
CYQG,2023-04-05T21:05:00Z,CYQG 052105Z AUTO 16013G18KT 9SM -RA FEW009 OVC110 17/17 A2976 RMK PRESRR SLP078 DENSITY ALT 1300FT
CYQH,2023-04-05T21:00:00Z,CYQH 052100Z 21005KT 120V240 30SM BKN080 05/M06 A2961 RMK AC7 SLP061
CYQI,2023-04-05T21:00:00Z,CYQI 052100Z 17008KT 15SM OVC048 04/M02 A3038 RMK SC8 SLP291
CYQK,2023-04-05T21:00:00Z,CYQK 052100Z 03008KT 1SM -SN DRSN OVC018 M06/M09 A2944 RMK SN6SC2 SLP996
CYQL,2023-04-05T21:00:00Z,CYQL 052100Z 22007KT 210V290 60SM SCT065 BKN085 06/M09 A2991 RMK SC4AC2 SLP172
CYQM,2023-04-05T21:00:00Z,CYQM 052100Z 05007KT 15SM FEW055 BKN080 OVC200 00/M09 A3041 RMK SC1AC6CI1 VIRGA SLP304
CYQQ,2023-04-05T21:00:00Z,CYQQ 052100Z 14019KT 20SM FEW020 OVC050 08/03 A3010 RMK SC2SC6 SLP194
CYQR,2023-04-05T21:00:00Z,CYQR 052100Z 32014KT 15SM FEW200 BKN260 M08/M13 A3005 RMK CI2CI4 SLP226
CYQT,2023-04-05T21:00:00Z,CYQT 052100Z 07010G17KT 1 1/2SM -SN BR BKN004 OVC008 00/M01 A2933 RMK SF6SF2 VIS VRB 1-2 CIG RAG SLP946
CYQU,2023-04-05T21:00:00Z,CYQU 052100Z VRB05KT 25SM BKN240 07/M08 A2979 RMK CI5 SLP122
CYQV,2023-04-05T21:00:00Z,CYQV 052100Z AUTO 33016G22KT 9SM CLR M03/M13 A2995 RMK SLP182
CYQW,2023-04-05T21:00:00Z,CYQW 052100Z AUTO 25003KT 9SM CLR M05/M14 A3008 RMK SLP223
CYQX,2023-04-05T21:00:00Z,CYQX 052100Z 33015G22KT 20SM FEW040 M01/M11 A3007 RMK SC1 CU ASOCTD SLP193
CYQY,2023-04-05T21:00:00Z,CYQY 052100Z 33012G21KT 15SM FEW030 OVC220 M01/M09 A3039 RMK CU1CS7 SLP297
CYQZ,2023-04-05T21:00:00Z,CYQZ 052100Z AUTO 17012G17KT 120V190 9SM CLR 08/M09 A2989 RMK SLP149
CYRA,2023-04-05T21:00:00Z,CYRA 052100Z 15012G18KT 15SM BKN240 M02/M11 A2982 RMK CS5 SLP120
CYRB,2023-04-05T21:00:00Z,CYRB 052100Z 14005KT 25SM SKC M26/M29 A3022 RMK SLP247
CYRJ,2023-04-05T21:00:00Z,CYRJ 052100Z VRB02KT 40SM BKN060 M05/M14 A3028 RMK NS7 PRESFR SLP272
CYRL,2023-04-05T21:00:00Z,CYRL 052100Z 05007G20KT 020V090 3/4SM -SN BLSN VV011 M07/M11 A2951 RMK SN8 VIS VRB 1/2-1 SLP023
CYRQ,2023-04-05T21:00:00Z,CYRQ 052100Z AUTO 06017KT 4SM -SN BKN010 OVC023 M03/M03 A3016 RMK ICE PRESFR PCPN 1.0MM PAST HR SLP217
CYRT,2023-04-05T21:00:00Z,CYRT 052100Z 00000KT 15SM IC FEW004 M21/M24 A3037 RMK ST1 ST TR SLP292
CYRV,2023-04-05T21:00:00Z,CYRV 052100Z AUTO 00000KT 9SM OVC160 06/M06 A3003 RMK SLP190
CYSB,2023-04-05T21:00:00Z,CYSB 052100Z 13012G18KT 6SM BR OVC004 M00/M01 A2972 RMK ST8 REFZRA PRESRR SLP086
CYSC,2023-04-05T21:09:00Z,CYSC 052109Z AUTO 12007KT 090V160 3SM -SN -FZUP FEW014 BKN027 BKN033 00/M01 A3013 RMK ICE PCPN 0.8MM PAST HR SLP216
CYSF,2023-04-05T21:00:00Z,CYSF 052100Z AUTO 15005KT 070V200 9SM CLR 01/M10 A3010 RMK SLP217
CYSJ,2023-04-05T21:00:00Z,CYSJ 052100Z 20003KT 15SM OVC066 01/M11 A3043 RMK AC8 SLP311
CYSK,2023-04-05T21:00:00Z,CYSK 052100Z 08014KT 15SM BKN015 M13/M17 A3049 RMK SC5 SLP331
CYSM,2023-04-05T21:00:00Z,CYSM 052100Z 13007KT 090V160 15SM BKN040 02/M07 A2996 RMK SC6 CVCTV CLD EMBD LENT SLP164
CYSN,2023-04-05T21:00:00Z,CYSN 052100Z 36004KT 6SM -SHRA FEW002 OVC041 05/05 A2988 RMK SF3CU6 SLP123
CYSY,2023-04-05T21:00:00Z,CYSY 052100Z 17013G18KT 1SM -SN BR FEW007 BKN020 OVC030 M13/M15 A2979 RMK FG1ST1SC4SC2 SLP101
CYTE,2023-04-05T21:00:00Z,CYTE 052100Z 26017G29KT 15SM DRSN OVC018 M15/M18 A3033 RMK SC8 LAST STFD OB/NXT 061100Z SLP279
CYTH,2023-04-05T21:00:00Z,CYTH 052100Z 07010G19KT 15SM BKN160 00/M17 A3010 RMK AC7 SLP216
CYTL,2023-04-05T21:00:00Z,CYTL 052100Z AUTO 08013G25KT 050V110 9SM OVC071 M08/M17 A2998 RMK SLP176
CYTQ,2023-04-05T21:00:00Z,CYTQ 052100Z 29020KT 15SM DRSN FEW093 M14/M18 A3047 RMK AC1 AC TR LAST OBS/NEXT 061200UTC SLP326
CYTR,2023-04-05T21:09:00Z,CYTR 052109Z 05005KT 6SM -SHRA BR OVC006 03/03 A2988 RMK ST8 DENSITY ALT -927FT SLP120
CYTS,2023-04-05T21:00:00Z,CYTS 052100Z 11014G25KT 6SM DRSN OVC011 M04/M06 A2972 RMK SC8 PRESFR SLP087
CYTZ,2023-04-05T21:00:00Z,CYTZ 052100Z AUTO 13009KT 060V140 5SM -RA BR FEW043 BKN081 OVC100 06/06 A2985 RMK PCPN 1.5MM PAST HR SLP112
CYUA,2023-04-05T21:00:00Z,CYUA 052100Z AUTO 29011KT ////SM SCT003 M18/M22 A2987
CYUB,2023-04-05T21:00:00Z,CYUB 052100Z 33010KT 6SM -SN BKN037 OVC250 M16/M19 A2986 RMK SC5CI3 SLP115
CYUL,2023-04-05T21:10:00Z,CYUL 052110Z 03017KT 2 1/2SM -FZRA BR FEW008 SCT012 OVC016 M00/M01 A3006 RMK SF1SC2SC5 SLP184
CYUT,2023-04-05T21:00:00Z,CYUT 052100Z 21005KT 140V230 15SM BKN015 M19/M22 A3035 RMK SC6 SLP282
CYUX,2023-04-05T21:00:00Z,CYUX 052100Z 32006KT 10SM FEW210 M22/M25 A3029 RMK CI2 SLP260
CYUY,2023-04-05T21:00:00Z,CYUY 052100Z 11024G30KT 4SM -FZDZ -SN BKN009 OVC033 M04/M05 A2983 RMK SF7SC1 -FZDZ INTMT PRESFR SLP125
CYVC,2023-04-05T21:00:00Z,CYVC 052100Z 04009KT 15SM FEW050 01/M13 A3008 RMK SC1 SLP213
CYVL,2023-04-05T21:00:00Z,CYVL 052100Z AUTO 36004KT 9SM CLR M10/M13 A2968 RMK SLP083
CYVM,2023-04-05T21:00:00Z,CYVM 052100Z AUTO 00000KT 9SM CLR M21/M24 A3026 RMK SLP249
CYVO,2023-04-05T21:00:00Z,CYVO 052100Z 11012G17KT 2 1/2SM -FZDZ -SN OVC009 M03/M04 A2996 RMK NS8 ICE ON INDICATOR PRESFR SLP173
CYVP,2023-04-05T21:00:00Z,CYVP 052100Z 25008KT 230V300 15SM FEW110 M10/M19 A3048 RMK AC1 AC TR SLP327
CYVQ,2023-04-05T21:00:00Z,CYVQ 052100Z 22004KT 30SM FEW160 BKN250 M03/M10 A2971 RMK AC1CI7 AC TR SLP070
CYVR,2023-04-05T21:00:00Z,CYVR 052100Z 13013G18KT 30SM FEW045 SCT050 BKN100 BKN220 10/00 A3014 RMK CU2SC1AC2CI2 SLP210
CYVT,2023-04-05T21:00:00Z,CYVT 052100Z AUTO 11006KT 9SM CLR 02/M09 A3000 RMK SLP188
CYVV,2023-04-05T21:00:00Z,CYVV 052100Z 18010KT 15SM FEW080 BKN120 OVC250 15/13 A2969 RMK AC2AS5CI1 SLP060 DENSITY ALT 1200FT
CYWE,2023-04-05T21:00:00Z,CYWE 052100Z AUTO 16011G16KT 9SM CLR M03/M09 A2989 RMK ICE MISG SLP160
CYWG,2023-04-05T21:00:00Z,CYWG 052100Z 36018KT 4SM -SGSN BLSN BKN010 BKN020 OVC025 M06/M08 A2960 RMK CF5ST1SC2 VIS VRB 3-5 SLP041
CYWH,2023-04-05T21:00:00Z,CYWH 052100Z 21005KT 15SM FEW030 BKN090 08/01 A3013 RMK CU1AC6 SLP204
CYWJ,2023-04-05T21:00:00Z,CYWJ 052100Z 10007KT 15SM BKN110 M05/M14 A2970 RMK AC7 SLP077
CYWK,2023-04-05T21:00:00Z,CYWK 052100Z 01010KT 15SM SKC M07/M18 A3030 RMK SLP312
CYWL,2023-04-05T21:00:00Z,CYWL 052100Z 09009KT 15SM FEW120 FEW230 04/M09 A2989 RMK AC1CI1 SLP159
CYWY,2023-04-05T21:00:00Z,CYWY 052100Z 15008KT 15SM FEW120 FEW160 BKN250 M01/M11 A2971 RMK AC1AC1CI5 AC TR AC TR SLP074
CYXC,2023-04-05T21:00:00Z,CYXC 052100Z 27010G20KT 200V300 25SM SCT060 BKN083 BKN250 08/M13 A2997 RMK SC3AC3CI1 WSHFT 2053 SLP176
CYXE,2023-04-05T21:00:00Z,CYXE 052100Z 22008KT 15SM SKC M07/M12 A3007 RMK SLP229
CYXH,2023-04-05T21:00:00Z,CYXH 052100Z VRB02KT 30SM SCT031 SCT270 02/M05 A2997 RMK CU3CI1 SLP185
CYXJ,2023-04-05T21:00:00Z,CYXJ 052100Z 22014G22KT 60SM BKN090 BKN200 06/M07 A2975 RMK AC6CI1 SLP108
CYXL,2023-04-05T21:00:00Z,CYXL 052100Z 07009G15KT 020V110 1 1/4SM -SN DRSN VV011 M07/M10 A2942 RMK SN8 VIS VRB 1-11/2 SLP991
CYXN,2023-04-05T21:00:00Z,CYXN 052100Z 02005KT 15SM SKC M21/M23 A3038 RMK SLP290
CYXP,2023-04-05T21:00:00Z,CYXP 052100Z 25006KT 15SM SCT210 M19/M23 A3027 RMK CI3 SLP254
CYXQ,2023-04-05T21:00:00Z,CYXQ 052100Z 08004KT 020V100 30SM SCT080 OVC250 01/M10 A2946 RMK AC4CI4 SLP015
CYXR,2023-04-05T21:00:00Z,CYXR 052100Z AUTO 11022G31KT 9SM OVC010 M04/M05 A2976 RMK ICE PAST HR PRESRR SLP096
CYXS,2023-04-05T21:00:00Z,CYXS 052100Z AUTO 17014KT 9SM CLR 05/M07 A2986 RMK SLP145
CYXT,2023-04-05T21:00:00Z,CYXT 052100Z 17005KT 100V200 20SM VCSH FEW020 BKN040 OVC060 06/M01 A2984 RMK SC1SC5SC2 SLP116
CYXU,2023-04-05T21:00:00Z,CYXU 052100Z 16011KT 4SM SHRA OVC052 15/15 A2983 RMK SC8 PRESRR SLP106 DENSITY ALT 1300FT
CYXX,2023-04-05T20:00:00Z,CYXX 052000Z 18004KT 170V260 30SM BKN060TCU BKN160 BKN210 09/M01 A3014 RMK TCU5AC1CI1 SLP210
CYXY,2023-04-05T21:00:00Z,CYXY 052100Z 15012G19KT 40SM FEW048 BKN085 BKN200 03/M05 A2949 RMK SC2AC3CI2 SLP022
CYXZ,2023-04-05T21:00:00Z,CYXZ 052100Z 08006KT 050V120 15SM OVC016 02/M02 A2946 RMK SC8 SLP992
CYYB,2023-04-05T21:00:00Z,CYYB 052100Z 07019G25KT 4SM -FZRA -SN OVC007 M00/M01 A2976 RMK SC8 PRESFR SLP097
CYYC,2023-04-05T21:00:00Z,CYYC 052100Z 13014KT 40SM FEW074 04/M07 A2987 RMK AC2 SLP165
CYYD,2023-04-05T21:00:00Z,CYYD 052100Z 14006KT 120V190 15SM VCSH BKN035 OVC043 04/00 A2982 RMK SC6SC2 SLP117
CYYE,2023-04-05T21:00:00Z,CYYE 052100Z VRB02KT 15SM FEW250 06/M08 A2972 RMK CI1 SLP086
CYYF,2023-04-05T21:00:00Z,CYYF 052100Z 17013G19KT 15SM FEW050 BKN140 BKN230 11/M06 A3003 RMK SC1AC5CI1 SC TR SLP183
CYYG,2023-04-05T21:00:00Z,CYYG 052100Z 02004KT 15SM OVC150 M02/M09 A3043 RMK AS8 SLP308
CYYH,2023-04-05T21:00:00Z,CYYH 052100Z VRB02KT 15SM -SN BKN015 M20/M22 A3025 RMK SC7 SLP250
CYYJ,2023-04-05T21:00:00Z,CYYJ 052100Z 13010G16KT 30SM FEW025 FEW035 FEW110 BKN250 09/04 A3013 RMK CU1SC1AC1CI5 CU TR SLP204
CYYL,2023-04-05T21:00:00Z,CYYL 052100Z AUTO 06004KT 020V150 9SM CLR 01/M18 A3009 RMK SLP219
CYYN,2023-04-05T21:00:00Z,CYYN 052100Z AUTO 20003KT 9SM CLR M08/M10 A3001 RMK ICE MISG SLP228
CYYQ,2023-04-05T21:00:00Z,CYYQ 052100Z 03006KT 15SM IC FEW004 SCT120 M11/M13 A3031 RMK SC1AC3 SLP269
CYYR,2023-04-05T21:00:00Z,CYYR 052100Z 29015KT 15SM SKC M03/M14 A3022 RMK SLP236
CYYT,2023-04-05T21:08:00Z,CYYT 052108Z 35009G17KT 15SM BKN031 M02/M06 A3005 RMK SC5 SLP184
CYYU,2023-04-05T21:00:00Z,CYYU 052100Z 11029KT 3/4SM -SN BLSN OVC016 M03/M06 A2971 RMK BLSN6SC2 SLP077
CYYW,2023-04-05T21:00:00Z,CYYW 052100Z AUTO 04005KT 320V110 1/8SM +SN VV004 M08/M09 A2947 RMK PRESFR PCPN 4.5MM PAST HR SLP012
CYYY,2023-04-05T21:00:00Z,CYYY 052100Z 08003KT 30SM OVC100 M03/M15 A3043 RMK AC8 SLP309
CYYZ,2023-04-05T21:00:00Z,CYYZ 052100Z 11006KT 12SM VCSH FEW011 SCT025 BKN087 OVC120 07/07 A2981 RMK CF1SC3AC3AC2 CF TR PRESFR SLP102
CYZE,2023-04-05T21:11:00Z,CYZE 052111Z AUTO 08014G19KT 4SM BR OVC002 03/02 A2959 RMK PRESFR SLP030
CYZF,2023-04-05T21:00:00Z,CYZF 052100Z CCA 15013KT 15SM FEW060 SCT240 M02/M07 A2995 RMK SC1CI2 SLP164
CYZG,2023-04-05T21:00:00Z,CYZG 052100Z 25014KT 15SM DRSN FEW011 SCT024 M17/M21 A3039 RMK SF1SC3 SNW CVR/MEDIUMPACK/ LAST STFD OBS/ NEXT061200 UTC SLP323
CYZH,2023-04-05T21:00:00Z,CYZH 052100Z AUTO 08005KT 050V130 9SM CLR 05/M02 A2985 RMK SLP134
CYZP,2023-04-05T21:00:00Z,CYZP 052100Z AUTO 15031G41KT 4SM BR FEW011 BKN017 OVC027 07/05 A2964 RMK SLP040
CYZR,2023-04-05T21:00:00Z,CYZR 052100Z AUTO 17013G18KT 9SM FEW037 BKN160 17/16 A2971 RMK PRESRR PCPN 0.5MM PAST HR SLP063 DENSITY ALT 1200FT
CYZS,2023-04-05T21:00:00Z,CYZS 052100Z 22006KT 15SM -SN BKN017 M16/M21 A3035 RMK SC6 SLP291
CYZT,2023-04-05T21:00:00Z,CYZT 052100Z 11020G29KT 12SM -RA BKN032 OVC048 07/03 A2993 RMK SC6SC2 SLP139
CYZU,2023-04-05T21:00:00Z,CYZU 052100Z 22006KT 210V310 15SM FEW063 SCT240 05/M07 A2985 RMK SC2CI1 SLP141
CYZV,2023-04-05T21:00:00Z,CYZV 052100Z 23012KT 30SM SCT180 BKN230 BKN240 M03/M11 A3038 RMK AC3CI4CI1 CI TR SLP293
CYZW,2023-04-05T21:00:00Z,CYZW 052100Z VRB02KT 30SM FEW035 OVC056 02/M05 A2957 RMK SC1SC7 SLP052
CYZX,2023-04-05T21:00:00Z,CYZX 052100Z CCA 08005KT 15SM OVC070 04/M14 A3042 RMK AC8 DENSITY ALT -1787FT SLP302
CYZY,2023-04-05T21:00:00Z,CYZY 052100Z AUTO 18008KT 9SM BKN044 BKN055 OVC068 03/M05 A2985 RMK SLP142
CZBF,2023-04-05T21:00:00Z,CZBF 052100Z AUTO 09006KT 9SM SCT110 00/M09 A3040 RMK ICE MISG SLP299
CZCR,2023-04-05T21:00:00Z,CZCR 052100Z AUTO 26004KT 01/M11 RMK AO1 SOG 51 6013 SLP294 T00061114
CZDB,2023-04-05T21:00:00Z,CZDB 052100Z AUTO 04005KT 03/M14 RMK AO1 SLP304 T00301140 58004
CZEL,2023-04-05T21:00:00Z,CZEL 052100Z AUTO 10008KT 07/06 RMK AO1 3PAST HR 8001 SLP103 P0001 T00710064 50060
CZEM,2023-04-05T20:00:00Z,CZEM 052000Z 09017G25KT 15SM BKN130 M03/M14 A3026 RMK AC7 LAST STFD OBS/NEXT 061300 UTC PRESFR SLP250
CZEV,2023-04-05T21:00:00Z,CZEV 052100Z AUTO 01008KT M15/M19 RMK AO1 SOG 47 6001 SLP117 T11471194
CZFA,2023-04-05T21:00:00Z,CZFA 052100Z 12005KT 070V160 30SM BKN055 OVC080 02/M06 A2953 RMK SC6AC2 SLP038
CZFM,2023-04-05T21:00:00Z,CZFM 052100Z 34005KT 230V040 7SM -SN OVC018 M12/M18 A2984 RMK SC8 SLP112
CZFN,2023-04-05T21:00:00Z,CZFN 052100Z 05009KT 20SM BKN220 M02/M11 A2970 RMK CC5 CS ASOCTD SLP068
CZFS,2023-04-05T21:00:00Z,CZFS 052100Z AUTO 10006KT 02/M10 RMK AO1 SOG 44 8015 SLP082 T00171097
CZHY,2023-04-05T21:00:00Z,CZHY 052100Z AUTO 16010KT 04/M10 RMK AO1 SOG 21 6012 SLP133 T00391101
CZMD,2023-04-05T21:00:00Z,CZMD 052100Z AUTO 05021G29KT 3/4SM -SN VV018 M08/M13 A2984 RMK SLP132
CZMJ,2023-04-05T21:00:00Z,CZMJ 052100Z AUTO 29011KT M09/M13 RMK AO1 SOG 02 8004 SLP241 T10881130
CZMT,2023-04-05T21:00:00Z,CZMT 052100Z 16023G44KT 8SM -RA OVC012TCU 06/05 A2963 RMK TCU8 SLP034
CZOL,2023-04-05T21:00:00Z,CZOL 052100Z AUTO 10003KT 03/M04 RMK AO1 T00311035
CZPC,2023-04-05T21:00:00Z,CZPC 052100Z AUTO /////KT 9SM FEW066 03/M10 A2990 RMK SLP171
CZPS,2023-04-05T20:00:00Z,CZPS 052000Z AUTO 19004KT 01/M06 RMK AO1 T00081058
CZSM,2023-04-05T21:00:00Z,CZSM 052100Z AUTO 13007KT 04/M08 RMK AO1 SOG 39 6011 SLP165 T00351079
CZSP,2023-04-05T21:00:00Z,CZSP 052100Z AUTO 32005KT M03/M08 RMK AO1 SOG 01 8005 SLP310 T10261075
CZST,2023-04-05T21:00:00Z,CZST 052100Z 18003KT 8SM -RA SCT018 OVC035 04/02 A2983 RMK SC4SC4 SLP102
CZTB,2023-04-05T20:00:00Z,CZTB 052000Z AUTO 09010KT M00/M01 RMK AO1 8PAST HR SOG 38 6032 PK WND 11019/1903 SLP959 P0003 T10021006 50008
CZUM,2023-04-05T21:00:00Z,CZUM 052100Z AUTO 31011G18KT 9SM CLR M08/M18 A3027 RMK SLP294
CZVL,2023-04-05T21:00:00Z,CZVL 052100Z AUTO 20008KT 160V230 9SM BKN045 BKN055 BKN068 04/M05 A2989 RMK SLP153
CZZJ,2023-04-05T21:00:00Z,CZZJ 052100Z AUTO 27004KT 06/M12 RMK AO1 SOG 09 6015 SLP138 T00561121
DAAG,2023-04-05T21:00:00Z,DAAG 052100Z 06009KT CAVOK 10/03 Q1019
DAAS,2023-04-05T21:00:00Z,DAAS 052100Z 09007KT CAVOK 05/M06 Q1019
DAAT,2023-04-05T21:00:00Z,DAAT 052100Z 24004KT 8000 NSC 23/// Q1018
DABB,2023-04-05T21:00:00Z,DABB 052100Z 21006KT 9999 FEW023 09/05 Q1019
DABC,2023-04-05T21:00:00Z,DABC 052100Z 19003KT CAVOK 06/02 Q1020
DABS,2023-04-05T21:00:00Z,DABS 052100Z 25004KT 9999 FEW033 07/00 Q1019
DAOB,2023-04-05T21:00:00Z,DAOB 052100Z 07009KT CAVOK 09/M10 Q1017
DAOI,2023-04-05T21:00:00Z,DAOI 052100Z 06010KT CAVOK 15/M08 Q1017
DAON,2023-04-05T21:00:00Z,DAON 052100Z 04004KT CAVOK 15/03 Q1014
DAOO,2023-04-05T21:00:00Z,DAOO 052100Z 03010KT 360V060 9999 FEW033 BKN233 16/08 Q1014
DAUA,2023-04-05T21:00:00Z,DAUA 052100Z 18009KT 5000 NSC 23/M10 Q1005
DAUB,2023-04-05T21:00:00Z,DAUB 052100Z 07007KT CAVOK 18/M04 Q1014
DAUG,2023-04-05T21:00:00Z,DAUG 052100Z 04011KT CAVOK 18/M03 Q1014
DAUH,2023-04-05T21:00:00Z,DAUH 052100Z 05011G21KT 020V090 5000 NSC 22/03 Q1011
DBBB,2023-04-05T20:00:00Z,DBBB 052000Z 22011KT 9999 FEW012 29/24 Q1008 NOSIG
DFFD,2023-04-05T20:00:00Z,DFFD 052000Z 21004KT 170V230 CAVOK 34/18 Q1007 NOSIG
DFOO,2023-04-05T20:00:00Z,DFOO 052000Z 05004KT 340V110 8000 TS FEW026 FEW040CB 32/17 Q1009
DIAP,2023-04-05T21:00:00Z,DIAP 052100Z 23008KT 9999 FEW011 29/27 Q1009 NOSIG
DIBK,2023-04-05T20:00:00Z,DIBK 052000Z 18004KT 8000 NSC 29/22 Q1010 NOSIG
DIYO,2023-04-05T20:00:00Z,DIYO 052000Z 20006KT 8000 FEW013 29/23 Q1009 NOSIG
DNAA,2023-04-05T20:00:00Z,DNAA 052000Z 19006KT CAVOK 34/19 Q1008 NOSIG
DNIL,2023-04-05T20:00:00Z,DNIL 052000Z 15007KT 9999 TS FEW012 FEW020CB 31/23 Q1009
DNKT,2023-04-05T20:00:00Z,DNKT 052000Z 03004KT CAVOK 30/09 Q1010
DNMN,2023-04-05T20:00:00Z,DNMN 052000Z 28005KT CAVOK 34/17 Q1007
DRRN,2023-04-05T20:00:00Z,DRRN 052000Z 05005KT 7000 NSC 37/M01 Q1006 NOSIG
DRRT,2023-04-05T20:00:00Z,DRRT 052000Z 04004KT CAVOK 34/02 Q1009
DTKA,2023-04-05T21:00:00Z,DTKA 052100Z 29011KT 9999 SCT020 SCT030 13/06 Q1019 NOSIG
DTMB,2023-04-05T21:00:00Z,DTMB 052100Z 34014KT 8000 FEW020 14/05 Q1018
DTNH,2023-04-05T21:00:00Z,DTNH 052100Z 34006KT 9999 SCT026 11/04 Q1018
DTTA,2023-04-05T21:00:00Z,DTTA 052100Z 27004KT 8000 SCT020TCU SCT033 11/07 Q1018
DTTB,2023-04-05T21:00:00Z,DTTB 052100Z 28005KT 250V330 9999 SCT020 SCT030 10/07 Q1018
DTTD,2023-04-05T21:00:00Z,DTTD 052100Z AUTO 06009KT 020V100 NCD 15/11 Q1016
DTTF,2023-04-05T21:00:00Z,DTTF 052100Z 07010KT 9999 FEW033 14/05 Q1017
DTTG,2023-04-05T21:00:00Z,DTTG 052100Z 06016KT 8000 BKN030 15/11 Q1017 NOSIG
DTTJ,2023-04-05T21:00:00Z,DTTJ 052100Z 03020KT 9999 SCT020 16/10 Q1017 NOSIG
DTTK,2023-04-05T21:00:00Z,DTTK 052100Z 36008KT 9999 FEW023 14/03 Q1018
DTTL,2023-04-05T21:00:00Z,DTTL 052100Z 28004KT 200V350 9999 FEW020 11/07 Q1018
DTTN,2023-04-05T21:00:00Z,DTTN 052100Z ///04KT 8000 SCT020 09/05 Q1019
DTTX,2023-04-05T21:00:00Z,DTTX 052100Z 02009KT 9999 FEW020 15/06 Q1018
DTTZ,2023-04-05T21:00:00Z,DTTZ 052100Z 06012KT CAVOK 18/08 Q1015
DXXX,2023-04-05T20:00:00Z,DXXX 052000Z 21010KT 9999 FEW013 29/24 Q1009 NOSIG
EBAW,2023-04-05T20:50:00Z,EBAW 052050Z VRB02KT CAVOK 06/M00 Q1019 NOSIG
EBBE,2023-04-05T20:55:00Z,EBBE 052055Z AUTO 16003KT 9999 NCD 07/M02 Q1019 BLU
EBBL,2023-04-05T20:55:00Z,EBBL 052055Z AUTO VRB01KT 9999 NCD 03/M03 Q1019 BLU
EBBR,2023-04-05T20:50:00Z,EBBR 052050Z 17004KT CAVOK 04/M01 Q1019 NOSIG
EBCI,2023-04-05T20:50:00Z,EBCI 052050Z 11003KT 070V150 CAVOK 06/M05 Q1019 NOSIG
EBCV,2023-04-05T20:55:00Z,EBCV 052055Z AUTO 18003KT 9999 OVC140/// 07/01 Q1019 BLU
EBDT,2023-04-05T20:55:00Z,EBDT 052055Z AUTO VRB02KT 9999 NCD 07/M02 Q1019 BLU
EBFN,2023-04-05T20:55:00Z,EBFN 052055Z AUTO 12003KT 9000 OVC130/// 07/03 Q1019 BLU
EBFS,2023-04-05T20:55:00Z,EBFS 052055Z AUTO VRB01KT 9999 BKN200/// 06/M04 Q1019 BLU
EBLB,2023-04-05T20:55:00Z,EBLB 052055Z AUTO VRB01KT 9999 NCD M02/M05 Q1018 BLU
EBLG,2023-04-05T20:50:00Z,EBLG 052050Z VRB02KT CAVOK 07/M06 Q1019 NOSIG
EBOS,2023-04-05T20:50:00Z,EBOS 052050Z 11004KT 9000 NSC 07/01 Q1019 NOSIG
EDAC,2023-04-05T20:50:00Z,EDAC 052050Z AUTO 12003KT 9999 // OVC073/// 01/M04 Q1021
EDAH,2023-04-05T20:50:00Z,EDAH 052050Z AUTO 09006KT 9999 // BKN057/// BKN200/// 01/M04 Q1022
EDBC,2023-04-05T20:50:00Z,EDBC 052050Z AUTO 17007KT 9999 // FEW065/// 02/M04 Q1021
EDDB,2023-04-05T20:50:00Z,EDDB 052050Z AUTO 15003KT CAVOK 04/M01 Q1021 NOSIG
EDDC,2023-04-05T20:50:00Z,EDDC 052050Z AUTO 13003KT CAVOK 03/M03 Q1021
EDDE,2023-04-05T20:50:00Z,EDDE 052050Z AUTO 16004KT 9999 FEW049 03/M06 Q1020
EDDF,2023-04-05T20:50:00Z,EDDF 052050Z AUTO VRB02KT CAVOK 02/M06 Q1020 NOSIG
EDDG,2023-04-05T20:50:00Z,EDDG 052050Z AUTO 07003KT 030V100 CAVOK 03/M03 Q1020 NOSIG
EDDH,2023-04-05T20:50:00Z,EDDH 052050Z AUTO VRB01KT CAVOK 03/M01 Q1021 NOSIG
EDDK,2023-04-05T20:50:00Z,EDDK 052050Z AUTO VRB01KT CAVOK 03/M03 Q1019 NOSIG
EDDL,2023-04-05T20:50:00Z,EDDL 052050Z AUTO 06004KT CAVOK 03/M03 Q1019 NOSIG
EDDM,2023-04-05T20:50:00Z,EDDM 052050Z AUTO 00000KT CAVOK M02/M06 Q1020 NOSIG
EDDN,2023-04-05T20:50:00Z,EDDN 052050Z AUTO 10003KT CAVOK M01/M06 Q1020
EDDP,2023-04-05T20:50:00Z,EDDP 052050Z AUTO 12004KT CAVOK 02/M04 Q1021 NOSIG
EDDR,2023-04-05T20:50:00Z,EDDR 052050Z AUTO 10004KT CAVOK 04/M04 Q1019
EDDS,2023-04-05T20:50:00Z,EDDS 052050Z AUTO 27003KT 180V290 CAVOK 04/M05 Q1019
EDDV,2023-04-05T20:50:00Z,EDDV 052050Z AUTO VRB01KT CAVOK 03/M05 Q1021 NOSIG
EDDW,2023-04-05T20:50:00Z,EDDW 052050Z AUTO 05005KT CAVOK 03/M02 Q1021 NOSIG
EDFH,2023-04-05T20:50:00Z,EDFH 052050Z 15007KT CAVOK 03/M04 Q1019
EDFM,2023-04-05T20:50:00Z,EDFM 052050Z AUTO 00000KT 9999 // SCT077/// 04/M03 Q1020
EDGS,2023-04-05T20:50:00Z,EDGS 052050Z AUTO 19005KT 9999 // NCD 03/M07 Q1018
EDHI,2023-04-05T20:50:00Z,EDHI 052050Z AUTO 06003KT 9999 // FEW180/// 05/M02 Q1021
EDHK,2023-04-05T20:50:00Z,EDHK 052050Z AUTO 17003KT 9999 // BKN140/// 04/M02 Q1021
EDHL,2023-04-05T20:50:00Z,EDHL 052050Z AUTO 00000KT 9999 // BKN140/// OVC170/// 02/M02 Q1021
EDJA,2023-04-05T20:50:00Z,EDJA 052050Z 12002KT CAVOK M01/M05 Q1019
EDLN,2023-04-05T20:50:00Z,EDLN 052050Z AUTO VRB01KT 9999 // NCD 02/M02 Q1019
EDLP,2023-04-05T20:50:00Z,EDLP 052050Z 12005KT CAVOK 03/M06 Q1019
EDLV,2023-04-05T20:50:00Z,EDLV 052050Z VRB02KT CAVOK 03/M04 Q1019
EDLW,2023-04-05T20:50:00Z,EDLW 052050Z 11003KT CAVOK 06/M04 Q1019
EDMA,2023-04-05T20:50:00Z,EDMA 052050Z AUTO 10002KT 9999 // NCD M02/M05 Q1019
EDMO,2023-04-05T20:50:00Z,EDMO 052050Z AUTO 15003KT 9999 // NCD M03/M06 Q1019
EDNY,2023-04-05T20:50:00Z,EDNY 052050Z AUTO VRB02KT CAVOK 01/M05 Q1019
EDQM,2023-04-05T20:50:00Z,EDQM 052050Z AUTO VRB01KT 9999 // OVC056/// 01/M05 Q1019
EDSB,2023-04-05T20:50:00Z,EDSB 052050Z VRB01KT CAVOK 03/M04 Q1019
EDTL,2023-04-05T20:50:00Z,EDTL 052050Z AUTO 00000KT 9999 // NCD 02/M03 Q1020
EDTY,2023-04-05T20:50:00Z,EDTY 052050Z AUTO 09005KT 9999 // NCD M00/M04 Q1019
EDVE,2023-04-05T20:50:00Z,EDVE 052050Z AUTO 09002KT 9999 NCD 02/M05 Q1021
EDVK,2023-04-05T20:50:00Z,EDVK 052050Z 14005KT CAVOK 02/M04 Q1020
EDWE,2023-04-05T20:50:00Z,EDWE 052050Z AUTO 08004KT 9999 // NCD 03/M02 Q1020
EDXW,2023-04-05T20:50:00Z,EDXW 052050Z AUTO /////KT ///V/// 9999 // NCD 02/00 Q1021
EEEI,2023-04-05T20:56:00Z,EEEI 052056Z AUTO 34001KT 4500 RA BR BKN002/// BKN004/// OVC010/// 02/02 Q1026
EEKE,2023-04-05T20:50:00Z,EEKE 052050Z AUTO 09003KT 060V120 9999NDV BKN006 01/00 Q1026
EEPU,2023-04-05T20:50:00Z,EEPU 052050Z AUTO 36003KT 9999 -RA FEW032/// BKN048/// OVC054/// 01/01 Q1025
EETN,2023-04-05T20:50:00Z,EETN 052050Z 06003KT 9999 -RA BKN030 02/02 Q1026 TEMPO 3000 RADZ
EETU,2023-04-05T20:50:00Z,EETU 052050Z AUTO VRB02KT 0400 R08/1300U FEW110/// OVC130/// 01/01 Q1024
EFET,2023-04-05T20:50:00Z,EFET 052050Z AUTO 18006KT 140V220 CAVOK 01/M05 Q1025
EFHA,2023-04-05T20:50:00Z,EFHA 052050Z AUTO 11005KT CAVOK 01/M04 Q1028
EFHK,2023-04-05T20:50:00Z,EFHK 052050Z 07008KT CAVOK 03/M00 Q1027 NOSIG
EFIV,2023-04-05T20:50:00Z,EFIV 052050Z AUTO 22004KT CAVOK 00/M05 Q1027
EFJO,2023-04-05T20:50:00Z,EFJO 052050Z AUTO 09005KT CAVOK M00/M10 Q1030
EFJY,2023-04-05T20:50:00Z,EFJY 052050Z AUTO 31001KT CAVOK M03/M08 Q1029
EFKE,2023-04-05T20:50:00Z,EFKE 052050Z AUTO 36003KT CAVOK M07/M08 Q1030
EFKI,2023-04-05T20:50:00Z,EFKI 052050Z AUTO 08002KT CAVOK M06/M08 Q1030
EFKK,2023-04-05T20:50:00Z,EFKK 052050Z AUTO VRB02KT CAVOK M06/M08 Q1029
EFKS,2023-04-05T20:50:00Z,EFKS 052050Z AUTO VRB02KT CAVOK M05/M08 Q1030
EFKT,2023-04-05T20:50:00Z,EFKT 052050Z AUTO 18006KT CAVOK M01/M05 Q1027
EFKU,2023-04-05T20:50:00Z,EFKU 052050Z AUTO VRB01KT CAVOK M02/M09 Q1030
EFLP,2023-04-05T20:50:00Z,EFLP 052050Z AUTO 08008KT CAVOK 01/M03 Q1029
EFMA,2023-04-05T20:50:00Z,EFMA 052050Z AUTO 09004KT 9999 -SNRA OVC004 01/00 Q1026
EFMI,2023-04-05T20:50:00Z,EFMI 052050Z AUTO 00000KT CAVOK M03/M04 Q1029
EFOU,2023-04-05T20:50:00Z,EFOU 052050Z AUTO 13003KT CAVOK M03/M06 Q1030
EFPO,2023-04-05T20:50:00Z,EFPO 052050Z AUTO 11004KT 9999 -RA BKN041 04/M02 Q1027
EFRO,2023-04-05T20:50:00Z,EFRO 052050Z AUTO 20005KT CAVOK M00/M06 Q1029
EFSA,2023-04-05T20:50:00Z,EFSA 052050Z AUTO 16001KT CAVOK M04/M05 Q1030
EFSI,2023-04-05T20:50:00Z,EFSI 052050Z AUTO 12004KT CAVOK 00/M11 Q1028
EFTP,2023-04-05T20:50:00Z,EFTP 052050Z AUTO 07006KT CAVOK 03/M04 Q1027
EFTU,2023-04-05T20:50:00Z,EFTU 052050Z AUTO 08004KT 9999 -RA OVC014 02/01 Q1027
EFUT,2023-04-05T20:50:00Z,EFUT 052050Z AUTO 09009KT CAVOK 01/M02 Q1028
EFVA,2023-04-05T20:50:00Z,EFVA 052050Z AUTO VRB01KT CAVOK M03/M06 Q1028
EGAA,2023-04-05T20:50:00Z,EGAA 052050Z AUTO 26006KT 7000 -DZ FEW031 OVC037 09/08 Q1013 REDZ
EGAC,2023-04-05T20:50:00Z,EGAC 052050Z AUTO VRB01KT 9999 FEW021 OVC035 11/08 Q1012
EGBB,2023-04-05T20:50:00Z,EGBB 052050Z 19005KT 5000 -RA OVC006 09/08 Q1015 RERA
EGCC,2023-04-05T20:50:00Z,EGCC 052050Z AUTO 17003KT 110V230 6000 -RA SCT007/// BKN014/// //////TCU 09/09 Q1014 RESHRA TEMPO 4000 RA BKN008
EGCK,2023-04-05T20:50:00Z,EGCK 052050Z AUTO 21008KT 180V240 5000 BR OVC001/// 10/09 Q1014
EGDM,2023-04-05T20:50:00Z,EGDM 052050Z AUTO 20007KT 6000 -RA OVC002/// 08/08 Q1017
EGDR,2023-04-05T20:50:00Z,EGDR 052050Z AUTO 23009KT 0100 FG OVC001/// 11/10 Q1017
EGDY,2023-04-05T20:50:00Z,EGDY 052050Z 20008KT 6000 -RA FEW006 SCT008 OVC035 10/09 Q1016 TEMPO 3000 RADZ SCT006 RMK GRN TEMPO YLO1
EGFF,2023-04-05T20:50:00Z,EGFF 052050Z AUTO 18003KT 150V210 8000 -RA BKN008 OVC011 09/09 Q1016 RERA REDZ
EGGD,2023-04-05T20:50:00Z,EGGD 052050Z AUTO 19008KT 170V250 9999 BKN003 OVC007 08/08 Q1016
EGGP,2023-04-05T20:50:00Z,EGGP 052050Z 16005KT 130V210 9999 BKN017 10/09 Q1014
EGGW,2023-04-05T20:50:00Z,EGGW 052050Z AUTO 20006KT 160V230 3600 BR BKN004 OVC016 08/07 Q1016
EGHH,2023-04-05T20:50:00Z,EGHH 052050Z 22008KT 200V260 6000 -DZ SCT007 BKN010 09/08 Q1017
EGHQ,2023-04-05T20:50:00Z,EGHQ 052050Z AUTO 23009KT 1300 DZ VV/// 11/11 Q1017
EGJB,2023-04-05T20:50:00Z,EGJB 052050Z 23011KT 9999 -RA FEW009 BKN035 08/07 Q1019
EGJJ,2023-04-05T20:50:00Z,EGJJ 052050Z AUTO 24011KT 9999 RA FEW014/// SCT018/// BKN021/// 07/06 Q1020 RESHSN
EGKB,2023-04-05T20:50:00Z,EGKB 052050Z 20009KT 5000 -RA BKN007 07/07 Q1017
EGKK,2023-04-05T20:50:00Z,EGKK 052050Z 20005KT 150V230 7000 -RA BKN012 09/07 Q1018
EGLC,2023-04-05T20:50:00Z,EGLC 052050Z AUTO 21007KT 8000 -RA BKN016 OVC029 09/08 Q1018
EGLF,2023-04-05T20:50:00Z,EGLF 052050Z 20006KT 9000 -DZ BKN012 09/07 Q1017
EGLL,2023-04-05T20:50:00Z,EGLL 052050Z AUTO 21007KT 9999 -RA BKN011 OVC016 09/07 Q1017 TEMPO BKN006
EGMD,2023-04-05T20:50:00Z,EGMD 052050Z AUTO 25009KT 9999 -RA FEW049/// 09/07 Q1019
EGNJ,2023-04-05T20:50:00Z,EGNJ 052050Z AUTO 19009KT 3900 -RADZ BKN003/// OVC007/// 10/09 Q1015 RERA
EGNM,2023-04-05T20:50:00Z,EGNM 052050Z 24007KT 9999 -DZ SCT004 BKN007 09/08 Q1013
EGNS,2023-04-05T20:50:00Z,EGNS 052050Z 33002KT 9999 SCT016 BKN042 09/09 Q1012 NOSIG
EGNT,2023-04-05T20:50:00Z,EGNT 052050Z 19003KT 160V230 9999 SCT020 10/09 Q1012
EGNV,2023-04-05T20:50:00Z,EGNV 052050Z 18010KT 3000 -RADZ BR BKN005 09/08 Q1013
EGNX,2023-04-05T20:50:00Z,EGNX 052050Z 20009KT 7000 -RA SCT005 BKN015 09/08 Q1015
EGOM,2023-04-05T20:50:00Z,EGOM 052050Z AUTO 27005KT 5000 -RA OVC008/// 08/08 Q1011
EGOP,2023-04-05T20:50:00Z,EGOP 052050Z AUTO 23007KT 0250 OVC002/// 10/10 Q1015
EGOS,2023-04-05T20:50:00Z,EGOS 052050Z 17004KT 9999 BKN018 10/09 Q1014 TEMPO 6000 RA RMK WHT TEMPO WHT
EGOV,2023-04-05T20:50:00Z,EGOV 052050Z AUTO 17008KT 0600 FG OVC002/// 10/09 Q1013
EGPA,2023-04-05T20:50:00Z,EGPA 052050Z AUTO 30005KT 9999 FEW012/// BKN045/// 08/07 Q1010
EGPB,2023-04-05T20:50:00Z,EGPB 052050Z AUTO 19012KT 1700 BR OVC002/// 08/07 Q1011
EGPC,2023-04-05T20:50:00Z,EGPC 052050Z AUTO 35006KT 9999 NCD 08/07 Q1010
EGPD,2023-04-05T20:50:00Z,EGPD 052050Z AUTO 10005KT 040V170 7000 NCD 08/08 Q1011 TEMPO 4000 BR
EGPE,2023-04-05T20:50:00Z,EGPE 052050Z 20003KT 9999 FEW025 10/07 Q1011
EGPF,2023-04-05T20:50:00Z,EGPF 052050Z AUTO 21003KT 160V230 8000 -RA FEW022 SCT034 BKN041 10/09 Q1012
EGPH,2023-04-05T20:50:00Z,EGPH 052050Z 25005KT 9999 -RA BKN013 11/09 Q1011
EGPI,2023-04-05T20:50:00Z,EGPI 052050Z AUTO 27005KT 9999 FEW015/// OVC047/// 09/08 Q1012
EGPK,2023-04-05T20:50:00Z,EGPK 052050Z VRB02KT 9999 -RA FEW014 SCT020 BKN029 10/09 Q1012
EGPL,2023-04-05T20:50:00Z,EGPL 052050Z 20009KT 9999 FEW014 BKN025 09/08 Q1010
EGPN,2023-04-05T20:20:00Z,EGPN 052020Z 07001KT 9999 FEW012 BKN040 10/10 Q1011
EGPO,2023-04-05T20:50:00Z,EGPO 052050Z 23002KT 9999 FEW020 08/07 Q1009
EGQA,2023-04-05T20:50:00Z,EGQA 052050Z AUTO 25004KT 9999 SCT220/// 09/05 Q1010
EGQK,2023-04-05T20:50:00Z,EGQK 052050Z AUTO 22007KT 9999 FEW051/// BKN150/// 11/07 Q1010
EGQL,2023-04-05T20:50:00Z,EGQL 052050Z 27001KT 9999 BKN035 11/10 Q1011 RMK BLU
EGQM,2023-04-05T20:50:00Z,EGQM 052050Z AUTO 18005KT 7000 // SCT031/// BKN070/// 09/09 Q1012
EGQS,2023-04-05T20:50:00Z,EGQS 052050Z 28006KT CAVOK 11/07 Q1010 NOSIG RMK BLU BLU
EGSH,2023-04-05T20:50:00Z,EGSH 052050Z 18007KT 9000 -DZ SCT035 BKN049 08/06 Q1017 TEMPO RA BKN014
EGSS,2023-04-05T20:50:00Z,EGSS 052050Z AUTO 19007KT 3800 -DZ BKN014 BKN024 OVC029 08/08 Q1017
EGSY,2023-04-05T20:50:00Z,EGSY 052050Z AUTO VRB02KT 9999 RA OVC007/// 10/09 Q1016
EGTE,2023-04-05T20:20:00Z,EGTE 052020Z 17006KT 9000 -RA FEW016 BKN025 10/09 Q1017
EGTK,2023-04-05T20:50:00Z,EGTK 052050Z 20006KT 5000 -DZ SCT005 BKN008 08/08 Q1016
EGUB,2023-04-05T20:50:00Z,EGUB 052050Z AUTO 18007KT 4200 -RA OVC009/// 09/08 Q1016
EGUL,2023-04-05T21:05:00Z,EGUL 052105Z AUTO 16004KT 9999 -RA OVC013 09/08 A3000 RMK AO2 CIG 012V017 SLP163 $
EGUN,2023-04-05T20:55:00Z,EGUN 052055Z 17004KT 8000 -RA BR SCT012 BKN017 OVC022 09/09 A3001 RMK AO2A SLP166 P0003 60004 T00870087 58004 $
EGUW,2023-04-05T21:01:00Z,EGUW 052101Z 20004KT 5000 -RA SCT017 BKN035 OVC050 08/06 Q1016 TEMPO 3000 RADZ BKN007 RMK WHT TEMPO GRN
EGVA,2023-04-05T20:55:00Z,EGVA 052055Z AUTO 22007KT 9999 -RA OVC007 09/08 A2998 RMK AO2 OVC V BKN SLP157 P0002 60008 T00860084 57009 FZRANO $
EGVN,2023-04-05T20:50:00Z,EGVN 052050Z 20004KT 4500 -RADZ OVC006 09/08 Q1016 TEMPO 3000 RADZ RMK YLO1 TEMPO YLO1
EGVO,2023-04-05T20:50:00Z,EGVO 052050Z AUTO 20008KT 5000 -RA OVC006/// 08/07 Q1017
EGVP,2023-04-05T20:50:00Z,EGVP 052050Z AUTO 20005KT 7000 -RA OVC004/// 09/08 Q1017
EGWU,2023-04-05T20:50:00Z,EGWU 052050Z AUTO 21005KT 4100 DZ OVC010/// 09/08 Q1017
EGXC,2023-04-05T20:50:00Z,EGXC 052050Z 19008KT 2500 -RA OVC004 09/08 Q1015 RMK YLO2
EGXE,2023-04-05T20:50:00Z,EGXE 052050Z AUTO 14006KT 2300 -RA OVC002/// 09/09 Q1013
EGXS,2023-04-05T20:50:00Z,EGXS 052050Z AUTO 17007KT 3000 -RA SCT003/// BKN008/// BKN028/// 09/08 Q1015
EGXT,2023-04-05T20:50:00Z,EGXT 052050Z AUTO 19006KT 3100 -RA OVC006/// 08/08 Q1015
EGXV,2023-04-05T20:50:00Z,EGXV 052050Z AUTO 19005KT 2600 -RA OVC004/// 09/09 Q1014
EGXW,2023-04-05T20:50:00Z,EGXW 052050Z AUTO 20010KT 2400 -RA OVC003/// 09/08 Q1015
EGXZ,2023-04-05T20:50:00Z,EGXZ 052050Z AUTO 14006KT 2700 -RA OVC003/// 09/09 Q1013
EGYD,2023-04-05T20:50:00Z,EGYD 052050Z AUTO 19007KT 4000 OVC004/// 09/08 Q1015
EGYE,2023-04-05T20:50:00Z,EGYE 052050Z AUTO 20007KT //// VV/// ///// Q////
EGYH,2023-04-05T20:50:00Z,EGYH 052050Z AUTO 20009KT 1600 -RA FEW004/// OVC014/// 09/08 Q1015
EGYM,2023-04-05T20:50:00Z,EGYM 052050Z 19007KT 4000 RA BKN015 OVC020 09/08 Q1016 RMK GRN
EGYP,2023-04-05T20:50:00Z,EGYP 052050Z 36034G46KT 9999 FEW020 SCT090 BKN200 13/08 Q1005
EHAK,2023-04-05T20:55:00Z,EHAK 052055Z AUTO 16020KT 9999 NSC 06/01 Q1018
EHAM,2023-04-05T20:55:00Z,EHAM 052055Z 05002KT CAVOK 06/01 Q1019 NOSIG
EHBK,2023-04-05T20:55:00Z,EHBK 052055Z AUTO 15003KT 9999 NSC 05/M02 Q1019 NOSIG
EHDL,2023-04-05T20:55:00Z,EHDL 052055Z AUTO 10003KT 9999 NCD 01/M03 Q1019 BLU
EHDV,2023-04-05T20:55:00Z,EHDV 052055Z AUTO 15020KT 9999 SCT047/// 07/// Q1017
EHEH,2023-04-05T21:02:00Z,EHEH 052102Z AUTO VRB02KT 9999 SCT320 04/M03 Q1019 BLU
EHFD,2023-04-05T20:55:00Z,EHFD 052055Z AUTO 14018KT 9999 NSC 06/01 Q1019
EHFS,2023-04-05T20:55:00Z,EHFS 052055Z AUTO 07004KT 9000 NSC 08/03 Q1018
EHGG,2023-04-05T20:55:00Z,EHGG 052055Z AUTO 10003KT 9999 NCD 03/M01 Q1020 NOSIG
EHGR,2023-04-05T20:55:00Z,EHGR 052055Z AUTO 11003KT 9999 BKN300 04/M02 Q1019 BLU
EHHW,2023-04-05T20:55:00Z,EHHW 052055Z AUTO 12012KT 070V170 //// // NCD 07/M01 Q1019 RE//
EHJA,2023-04-05T20:55:00Z,EHJA 052055Z AUTO 16014KT 9999 NSC 07/04 Q1017
EHJR,2023-04-05T20:55:00Z,EHJR 052055Z AUTO 17012KT //// // ///////// 08/03 Q1018 RE// W08/H5
EHKD,2023-04-05T20:55:00Z,EHKD 052055Z AUTO 16004KT 9999 NCD 05/01 Q1019 BLU NOSIG
EHKV,2023-04-05T20:55:00Z,EHKV 052055Z AUTO 16009KT 9999 NSC 07/03 Q1018
EHLE,2023-04-05T20:55:00Z,EHLE 052055Z AUTO 11005KT 9999 NCD 04/M02 Q1019
EHLW,2023-04-05T20:55:00Z,EHLW 052055Z AUTO 09004KT 040V130 9999 NCD 02/M01 Q1019 BLU
EHMG,2023-04-05T20:55:00Z,EHMG 052055Z AUTO 13011KT 9999 NSC 08/03 Q1020
EHPG,2023-04-05T20:55:00Z,EHPG 052055Z AUTO 15010KT 9999 NSC 08/01 Q1018
EHRD,2023-04-05T20:55:00Z,EHRD 052055Z AUTO 10003KT 9999 NSC 05/02 Q1019 NOSIG
EHSA,2023-04-05T20:55:00Z,EHSA 052055Z AUTO 13009KT 9999 ///////// 08/01 Q1018 W07/H2
EHSC,2023-04-05T20:55:00Z,EHSC 052055Z AUTO 16006KT 9999 ///////// 09/00 Q1019 W09/H3
EHVK,2023-04-05T20:55:00Z,EHVK 052055Z AUTO 06002KT 9999 BKN320 03/00 Q1019 BLU
EHVL,2023-04-05T20:55:00Z,EHVL 052055Z AUTO 12009KT 9999 NCD 03/01 Q1019 BLU
EHWO,2023-04-05T20:55:00Z,EHWO 052055Z AUTO 07003KT 9999 OVC110 04/M00 Q1019 BLU
EICK,2023-04-05T21:00:00Z,EICK 052100Z 26009KT 9999 FEW017 SCT050 BKN240 10/07 Q1015 NOSIG
EIDW,2023-04-05T21:00:00Z,EIDW 052100Z 28009KT 9999 FEW010 SCT022 BKN035 10/08 Q1013 NOSIG
EIKY,2023-04-05T20:00:00Z,EIKY 052000Z 17002KT 9999 FEW012 SCT023 09/07 Q1015
EIME,2023-04-05T21:00:00Z,EIME 052100Z 24006KT 9999 FEW018 BKN032 10/08 Q1013
EINN,2023-04-05T21:00:00Z,EINN 052100Z 28001KT 9999 SCT045 BKN060 09/07 Q1015 NOSIG
EKAH,2023-04-05T20:50:00Z,EKAH 052050Z AUTO 11006KT 080V140 9999 OVC091/// 04/M01 Q1021
EKBI,2023-04-05T20:50:00Z,EKBI 052050Z AUTO 05004KT 9999 BKN068/// 04/M01 Q1020
EKCH,2023-04-05T20:50:00Z,EKCH 052050Z AUTO 34004KT 260V060 9999 BKN024/// OVC054/// 05/M00 Q1020 NOSIG
EKEB,2023-04-05T20:50:00Z,EKEB 052050Z AUTO 28004KT 9999 FEW066/// 01/M00 Q1020
EKKA,2023-04-05T20:50:00Z,EKKA 052050Z AUTO 11002KT 9999 FEW052/// BKN065/// 04/M02 Q1020
EKRK,2023-04-05T20:50:00Z,EKRK 052050Z AUTO 22002KT 9999 BKN062/// BKN180/// 02/M01 Q1020
EKRN,2023-04-05T20:50:00Z,EKRN 052050Z AUTO 17012KT 9999 FEW043/// BKN059/// OVC091/// 03/M02 Q1022
EKRS,2023-04-05T20:50:00Z,EKRS 052050Z AUTO VRB00KT 9999 NCD 02/02 Q1020
EKSB,2023-04-05T20:50:00Z,EKSB 052050Z AUTO 22005KT 9999 OVC054/// 05/00 Q1020
EKSP,2023-04-05T20:50:00Z,EKSP 052050Z 21003KT 9999 FEW036 BKN070 02/M01 Q1020
EKVD,2023-04-05T20:50:00Z,EKVD 052050Z AUTO 26004KT //// ///////// 05/00 Q1020
EKVG,2023-04-05T20:50:00Z,EKVG 052050Z AUTO 25002KT 1100 R12/P1500N R30/P1500D BR OVC001/// 07/07 Q1006 REDZ RMK BKN003/// BKN031/// WIND SKEID 25006KT
EKYT,2023-04-05T20:50:00Z,EKYT 052050Z AUTO 01003KT 9999 OVC091/// 04/M02 Q1020
ELLX,2023-04-05T20:50:00Z,ELLX 052050Z 22008KT CAVOK 05/M03 Q1018 NOSIG
ENAL,2023-04-05T20:50:00Z,ENAL 052050Z 07005KT CAVOK 04/02 Q1018
ENAN,2023-04-05T20:50:00Z,ENAN 052050Z 17010KT CAVOK 02/M02 Q1021
ENAT,2023-04-05T20:50:00Z,ENAT 052050Z AUTO 15005KT 120V180 9999 BKN160/// ///// Q1024 RMK WIND 700FT 19018KT
ENBL,2023-04-05T20:50:00Z,ENBL 052050Z VRB02KT CAVOK 03/M06 Q1019
ENBN,2023-04-05T20:50:00Z,ENBN 052050Z 14015KT CAVOK 08/M03 Q1021
ENBO,2023-04-05T20:50:00Z,ENBO 052050Z 12010KT CAVOK 05/M03 Q1022 NOSIG
ENBR,2023-04-05T20:50:00Z,ENBR 052050Z 15008KT CAVOK 05/M02 Q1020 RMK WIND 1200FT 14017KT
ENBS,2023-04-05T20:50:00Z,ENBS 052050Z 19011KT 9999 BKN047 01/M03 Q1025
ENBV,2023-04-05T20:50:00Z,ENBV 052050Z 23013KT 9999 FEW049 SCT065 03/M03 Q1025
ENCN,2023-04-05T20:50:00Z,ENCN 052050Z 05005KT CAVOK M00/M03 Q1021
ENDR,2023-04-05T20:50:00Z,ENDR 052050Z AUTO 23004KT 9999NDV NCD 05/01 Q1019 W///S4
ENDU,2023-04-05T20:50:00Z,ENDU 052050Z VRB02KT CAVOK M01/M03 Q1022 RMK WIND 1100FT 15009KT WIND 2200FT 15014KT
ENEV,2023-04-05T20:50:00Z,ENEV 052050Z 21006KT 170V240 CAVOK 03/M03 Q1022 RMK WIND 1400FT 16014KT
ENFB,2023-04-05T20:50:00Z,ENFB 052050Z AUTO 18041KT 9999NDV BKN015/// ///// Q//// W///S5
ENFL,2023-04-05T20:50:00Z,ENFL 052050Z 18012KT CAVOK 06/01 Q1019
ENGC,2023-04-05T20:50:00Z,ENGC 052050Z 18036KT 9999 BKN015 06/03 Q1014 W06/S6
ENGM,2023-04-05T20:50:00Z,ENGM 052050Z 02005KT CAVOK 03/M04 Q1022 NOSIG
ENHD,2023-04-05T20:50:00Z,ENHD 052050Z AUTO 15010KT 9999 NCD 04/M04 Q1020
ENHE,2023-04-05T20:50:00Z,ENHE 052050Z 19017KT CAVOK 06/02 Q1018 W///S5
ENHF,2023-04-05T20:50:00Z,ENHF 052050Z VRB02KT CAVOK 04/M02 Q1022 RMK WIND 1254FT 19012KT
ENHK,2023-04-05T20:50:00Z,ENHK 052050Z AUTO 10010KT 9999 SCT127/// 04/M01 Q1022
ENHM,2023-04-05T20:50:00Z,ENHM 052050Z AUTO 16032KT //// FEW018/// BKN021/// BKN024/// 06/06 Q1016 W08/S/
ENHV,2023-04-05T20:50:00Z,ENHV 052050Z 20020KT CAVOK 03/M01 Q1023
ENJS,2023-04-05T20:50:00Z,ENJS 052050Z 17033KT 9999 SCT016 BKN093 06/02 Q1017 W07/S/
ENKB,2023-04-05T20:50:00Z,ENKB 052050Z 00000KT CAVOK 04/02 Q1018 RMK WIND 745FT 14011KT
ENKR,2023-04-05T20:50:00Z,ENKR 052050Z 17009KT CAVOK 01/M04 Q1027 RMK WIND 731FT 21018KT
ENLA,2023-04-05T20:50:00Z,ENLA 052050Z AUTO 15022KT 9999NDV FEW110/// 06/01 Q1016 W///S4
ENLE,2023-04-05T20:50:00Z,ENLE 052050Z 14025KT 9999 FEW025 BKN120 05/M01 Q1017 W07/S4
ENLK,2023-04-05T20:50:00Z,ENLK 052050Z 20005KT CAVOK 04/00 Q1021
ENMH,2023-04-05T20:50:00Z,ENMH 052050Z 18009KT CAVOK 01/M02 Q1024
ENML,2023-04-05T20:50:00Z,ENML 052050Z 03007KT CAVOK 03/M02 Q1019
ENMS,2023-04-05T20:50:00Z,ENMS 052050Z 15004KT 120V170 CAVOK 04/M03 Q1023 RMK WIND 412FT 14006KT
ENNA,2023-04-05T20:50:00Z,ENNA 052050Z AUTO 15011KT 9999 FEW098/// 02/M02 Q1024 RMK WIND 1800FT 23027KT
ENNE,2023-04-05T20:50:00Z,ENNE 052050Z AUTO 16019KT 9999NDV NCD 07/04 Q1018 W///S5
ENNM,2023-04-05T20:50:00Z,ENNM 052050Z AUTO 08004KT 9999 NCD 03/M03 Q1022
ENOA,2023-04-05T20:50:00Z,ENOA 052050Z 18033KT 9999 BKN020 BKN100 06/03 Q1016 W///S5
ENOL,2023-04-05T20:50:00Z,ENOL 052050Z 11009KT CAVOK 06/M02 Q1019 NOSIG
ENOV,2023-04-05T20:50:00Z,ENOV 052050Z AUTO 00000KT 9999 NCD 03/M04 Q1018 RMK WIND RWY24 00000KT WIND 2090FT 14021KT
ENQA,2023-04-05T20:50:00Z,ENQA 052050Z AUTO 17030KT 9999NDV FEW016/// 05/02 Q1018 W11/S5
ENQC,2023-04-05T20:50:00Z,ENQC 052050Z AUTO 16030KT 9999NDV SCT016/// 06/02 Q1017 W///S5
ENQR,2023-04-05T20:50:00Z,ENQR 052050Z AUTO 16037KT 9999NDV OVC015/// 07/04 Q1014 W08/S6
ENRA,2023-04-05T20:50:00Z,ENRA 052050Z VRB03KT CAVOK M01/M04 Q1023
ENRM,2023-04-05T20:50:00Z,ENRM 052050Z AUTO 12010KT 070V160 9999 NCD 07/M02 Q1021
ENRO,2023-04-05T20:50:00Z,ENRO 052050Z AUTO 00000KT 9999 NCD M02/M07 Q1021
ENRS,2023-04-05T20:50:00Z,ENRS 052050Z AUTO 17011KT 9999 NCD 05/02 Q1020
ENRY,2023-04-05T20:50:00Z,ENRY 052050Z 11016KT CAVOK 04/M03 Q1022
ENSB,2023-04-05T20:50:00Z,ENSB 052050Z 12021KT 1100 -SN DRSN VV015 M04/M06 Q1012 RMK WIND 1400FT 16010G27KT
ENSD,2023-04-05T20:50:00Z,ENSD 052050Z AUTO VRB02KT 9999 NCD 05/M05 Q1019 RMK WIND RWY26 19003KT WIND 1140FT 00000KT
ENSE,2023-04-05T20:50:00Z,ENSE 052050Z AUTO 18036KT //// OVC015/// 07/04 Q1015 W///S/
ENSF,2023-04-05T20:50:00Z,ENSF 052050Z AUTO 18039KT 9999NDV BKN014/// ///// Q//// W///S5
ENSG,2023-04-05T20:50:00Z,ENSG 052050Z AUTO VRB02KT 9999 NCD 00/M08 Q1020 RMK WIND 3806FT 11016KT
ENSH,2023-04-05T20:50:00Z,ENSH 052050Z 00000KT CAVOK 06/M02 Q1022 RMK WIND 0150FT 18003KT
ENSK,2023-04-05T20:50:00Z,ENSK 052050Z AUTO VRB02KT 9999 NCD 05/M01 Q1021
ENSL,2023-04-05T20:50:00Z,ENSL 052050Z AUTO 17031KT 9999NDV BKN014/// BKN087/// 06/03 Q1015 W04/S4
ENSR,2023-04-05T20:50:00Z,ENSR 052050Z AUTO 16006KT 130V190 9999 OVC140/// 05/M03 Q1023 RMK WIND RWY32 15006KT WIND 1118FT 14015KT
ENSS,2023-04-05T20:50:00Z,ENSS 052050Z AUTO 21009KT 9999 FEW053/// SCT062/// 02/M00 Q1027 RMK WIND 0500FT 21015KT
ENST,2023-04-05T20:50:00Z,ENST 052050Z VRB02KT CAVOK 07/M05 Q1021 RMK WIND 300FT 18009KT
ENTC,2023-04-05T20:50:00Z,ENTC 052050Z 08003KT CAVOK 02/M02 Q1022 NOSIG NOSIG RMK WIND 2600FT 18016KT
ENTO,2023-04-05T20:50:00Z,ENTO 052050Z 12010KT 090V150 CAVOK 04/M02 Q1021 NOSIG
ENUG,2023-04-05T20:50:00Z,ENUG 052050Z AUTO 18012KT 9999NDV BKN130/// 06/02 Q1021 W///S4
ENUN,2023-04-05T20:20:00Z,ENUN 052020Z AUTO 20030KT 9999NDV OVC070/// 07/02 Q1015 W07/S5
ENVA,2023-04-05T20:50:00Z,ENVA 052050Z 10007KT 080V160 CAVOK 08/M04 Q1021 RMK WIND 670FT 15018KT
ENVD,2023-04-05T20:50:00Z,ENVD 052050Z VRB02KT CAVOK M02/M04 Q1027
ENWV,2023-04-05T20:50:00Z,ENWV 052050Z AUTO 15027KT 9999NDV OVC120/// 05/00 Q1017 W///S4
ENZV,2023-04-05T20:50:00Z,ENZV 052050Z 14004KT CAVOK 04/M02 Q1021
EPBY,2023-04-05T21:00:00Z,EPBY 052100Z VRB01KT CAVOK M00/M05 Q1023
EPGD,2023-04-05T21:00:00Z,EPGD 052100Z VRB01KT CAVOK M02/M04 Q1023
EPKK,2023-04-05T21:00:00Z,EPKK 052100Z 02008KT 9999 BKN053 02/M06 Q1020
EPKT,2023-04-05T21:00:00Z,EPKT 052100Z 36002KT CAVOK M04/M07 Q1020
EPLB,2023-04-05T21:00:00Z,EPLB 052100Z 33006KT 9999 OVC045 00/M05 Q1021
EPLL,2023-04-05T21:00:00Z,EPLL 052100Z 08003KT CAVOK M00/M06 Q1022
EPMO,2023-04-05T21:00:00Z,EPMO 052100Z 01002KT 9999 BKN038 01/M04 Q1023
EPPO,2023-04-05T21:00:00Z,EPPO 052100Z 08006KT CAVOK M01/M06 Q1022
EPRZ,2023-04-05T21:00:00Z,EPRZ 052100Z 02006KT 340V040 9999 SCT046 M00/M06 Q1020
EPSC,2023-04-05T21:00:00Z,EPSC 052100Z 07005KT CAVOK M00/M04 Q1022
EPSY,2023-04-05T21:00:00Z,EPSY 052100Z VRB01KT 9999 OVC040 00/M03 Q1023
EPWA,2023-04-05T21:00:00Z,EPWA 052100Z 05007KT 010V080 9999 BKN040 02/M07 Q1022 NOSIG
EPWR,2023-04-05T21:00:00Z,EPWR 052100Z VRB01KT 9999 MIFG NSC M01/M03 Q1022
EPZG,2023-04-05T20:00:00Z,EPZG 052000Z 23002KT CAVOK M01/M05 Q1022
ESCF,2023-04-05T20:50:00Z,ESCF 052050Z AUTO 05005KT 9999 BKN007/// OVC012/// M00/M00 Q1022
ESCM,2023-04-05T20:50:00Z,ESCM 052050Z AUTO 05004KT 0200 0150// R03/0450V0900D R21/0500N FZFG SCT003/// M02/M02 Q1026
ESDF,2023-04-05T20:50:00Z,ESDF 052050Z AUTO 12009KT 4600 -SN OVC005/// M00/M00 Q1021
ESGG,2023-04-05T20:50:00Z,ESGG 052050Z 05005KT 4400 -SN FEW006 SCT017 BKN024 M01/M02 Q1020
ESGJ,2023-04-05T20:50:00Z,ESGJ 052050Z 07003KT 9999 -SN SCT012 BKN025 M02/M02 Q1020 RESN
ESGP,2023-04-05T20:50:00Z,ESGP 052050Z AUTO 06004KT 9000 -SN SCT016/// BKN029/// OVC047/// 00/M01 Q1021
ESGT,2023-04-05T20:50:00Z,ESGT 052050Z AUTO 05009KT 9000 R15///// R33///// -RASN BKN013/// BKN049/// OVC096/// M00/M01 Q1022 RESN
ESIA,2023-04-05T20:50:00Z,ESIA 052050Z AUTO 06013KT 9999 -SN BKN008/// OVC013/// 00/00 Q1022
ESIB,2023-04-05T20:50:00Z,ESIB 052050Z AUTO 07007KT 9999 -SN BKN015/// OVC066/// M00/M00 Q1022
ESKM,2023-04-05T20:50:00Z,ESKM 052050Z AUTO 11004KT 9999 OVC029/// 01/M07 Q1025
ESKN,2023-04-05T20:50:00Z,ESKN 052050Z 08007KT 9999 FEW012 BKN018 00/M01 Q1023
ESKS,2023-04-05T20:50:00Z,ESKS 052050Z AUTO 09010KT 9999 SCT024/// BKN054/// 01/M11 Q1022
ESMK,2023-04-05T20:50:00Z,ESMK 052050Z AUTO 34003KT 1500 -SN BKN004/// OVC009/// 00/00 Q1020
ESMQ,2023-04-05T20:50:00Z,ESMQ 052050Z AUTO VRB01KT 9999 SCT004/// BKN068/// M01/M01 Q1023
ESMS,2023-04-05T20:50:00Z,ESMS 052050Z 22010KT CAVOK 04/M02 Q1020
ESMT,2023-04-05T20:50:00Z,ESMT 052050Z AUTO 05005KT 9999 -SN SCT089/// 00/M02 Q1021
ESMX,2023-04-05T20:50:00Z,ESMX 052050Z AUTO 10004KT 2000 -SN BKN002/// BKN005/// OVC024/// M01/M01 Q1020
ESND,2023-04-05T20:50:00Z,ESND 052050Z AUTO 09005KT 9999 NCD M01/M11 Q1025
ESNG,2023-04-05T20:50:00Z,ESNG 052050Z AUTO 14002KT 9999 NCD ///// Q1026
ESNK,2023-04-05T20:50:00Z,ESNK 052050Z AUTO 36002KT 9999 NCD ///// Q1028
ESNL,2023-04-05T20:50:00Z,ESNL 052050Z AUTO 14005KT 9999 NCD M05/M08 Q1028
ESNN,2023-04-05T20:50:00Z,ESNN 052050Z 34005KT CAVOK M02/M07 Q1028
ESNO,2023-04-05T20:50:00Z,ESNO 052050Z AUTO 35003KT 9999 NCD M04/M09 Q1028
ESNQ,2023-04-05T20:50:00Z,ESNQ 052050Z AUTO 19012KT 9999 NCD 00/M05 Q1023
ESNS,2023-04-05T20:50:00Z,ESNS 052050Z 28003KT CAVOK M06/M07 Q1029
ESNU,2023-04-05T20:50:00Z,ESNU 052050Z 32003KT CAVOK M04/M10 Q1029
ESNV,2023-04-05T20:50:00Z,ESNV 052050Z AUTO 07001KT 9999 NCD M05/M07 Q1026
ESNX,2023-04-05T20:50:00Z,ESNX 052050Z AUTO 14006KT 9999 NCD M01/M06 Q1026
ESNZ,2023-04-05T20:50:00Z,ESNZ 052050Z 13015KT CAVOK 01/M08 Q1024
ESOE,2023-04-05T20:50:00Z,ESOE 052050Z 06009KT 9999 OVC008 01/M01 Q1024
ESOH,2023-04-05T20:50:00Z,ESOH 052050Z AUTO 07005KT 030V150 9999 BKN024/// OVC034/// 01/M04 Q1024
ESOK,2023-04-05T20:50:00Z,ESOK 052050Z AUTO 06009KT 9999 BKN016/// M00/M03 Q1023 RESHUP
ESOW,2023-04-05T20:50:00Z,ESOW 052050Z AUTO 04006KT 9999 SCT009/// BKN013/// BKN016/// 00/M01 Q1025
ESPA,2023-04-05T20:50:00Z,ESPA 052050Z 16002KT CAVOK M06/M08 Q1030
ESPE,2023-04-05T20:50:00Z,ESPE 052050Z AUTO 12004KT 090V160 9999 NCD 00/M05 Q1027
ESSA,2023-04-05T20:50:00Z,ESSA 052050Z 07006KT 9999 FEW012 SCT035 M01/M01 Q1025 NOSIG
ESSB,2023-04-05T20:50:00Z,ESSB 052050Z AUTO 10007KT 060V120 9999 FEW010/// OVC036/// 01/M01 Q1025
ESSD,2023-04-05T20:50:00Z,ESSD 052050Z AUTO 06003KT 9999 SG OVC007/// M01/M02 Q1025
ESSL,2023-04-05T20:50:00Z,ESSL 052050Z 06006KT 9999 BKN010 BKN030 M00/M01 Q1022
ESSP,2023-04-05T20:50:00Z,ESSP 052050Z AUTO 06007KT 9999 BKN013/// OVC027/// 00/M00 Q1023
ESST,2023-04-05T20:50:00Z,ESST 052050Z AUTO 11007KT 070V140 9999 OVC053/// 02/M06 Q1024
ESSV,2023-04-05T20:50:00Z,ESSV 052050Z AUTO 13005KT 9999 OVC018/// 00/M01 Q1023
ESTA,2023-04-05T20:50:00Z,ESTA 052050Z AUTO 09004KT 3000 -SN FEW005/// BKN019/// OVC034/// 00/M00 Q1020
ESTL,2023-04-05T20:50:00Z,ESTL 052050Z AUTO 08005KT 9999 SCT029/// 01/M02 Q1020
ESUP,2023-04-05T20:50:00Z,ESUP 052050Z AUTO 18006KT 150V230 9999 // NCD 00/M05 Q1027
ESUT,2023-04-05T20:50:00Z,ESUT 052050Z AUTO 13006KT 9999 NCD 02/M06 Q1024
ETAD,2023-04-05T20:55:00Z,ETAD 052055Z AUTO 09003KT 9999 CLR 04/M05 A3006 RMK AO2 SLP179 T00421048 50006
ETAR,2023-04-05T20:55:00Z,ETAR 052055Z AUTO 06004KT 9999 CLR 01/M04 A3010 RMK AO2 SLP203 T00121043 50007
ETEB,2023-04-05T20:55:00Z,ETEB 052055Z AUTO 00000KT 9999 CLR 01/M06 A3009 RMK AO2 SLP218 T00071062 50003 $
ETGG,2023-04-05T20:20:00Z,ETGG 052020Z AUTO 24006KT 9999 // ////// 05/M02 Q1021 ///
ETHA,2023-04-05T20:20:00Z,ETHA 052020Z AUTO 26002KT 9999 // ////// M01/M06 Q1019 ///
ETHB,2023-04-05T20:20:00Z,ETHB 052020Z 00000KT 9999 05/M06 Q1020 BLU+
ETHC,2023-04-05T20:20:00Z,ETHC 052020Z 14001KT 9999 FEW064 02/M04 Q1021 BLU+
ETHF,2023-04-05T20:20:00Z,ETHF 052020Z 30003KT 9999 FEW060 01/M03 Q1020 BLU+BLU+
ETHL,2023-04-05T20:20:00Z,ETHL 052020Z 10004KT 9999 02/M06 Q1019 BLU+BLU+
ETHN,2023-04-05T20:20:00Z,ETHN 052020Z 09005KT 9999 00/M05 Q1019 BLU+BLU+
ETHS,2023-04-05T20:20:00Z,ETHS 052020Z 00000KT 9999 BKN060 02/M04 Q1020 BLACKBLU BLU
ETIC,2023-04-05T20:55:00Z,ETIC 052055Z AUTO 00000KT 9999 CLR M01/M05 A3010 RMK AO2 SLP210 T10091051 51005 $
ETIK,2023-04-05T20:55:00Z,ETIK 052055Z 00000KT 9999 CLR M02/M04 A3012 RMK AO2A SLP213 T10211041 50005 FZRANO
ETMN,2023-04-05T20:20:00Z,ETMN 052020Z 07005KT 9999 FEW060 04/02 Q1021 BLU+BLU+
ETNG,2023-04-05T20:50:00Z,ETNG 052050Z 15003KT CAVOK 04/M02 Q1019
ETNH,2023-04-05T20:20:00Z,ETNH 052020Z 17003KT 9999 SCT050 01/M02 Q1021 BLU+
ETNL,2023-04-05T20:20:00Z,ETNL 052020Z 06004KT 9999 FEW170 01/M01 Q1021 BLU+
ETNN,2023-04-05T20:20:00Z,ETNN 052020Z 00000KT 9999 FEW300 03/M04 Q1019 BLU+
ETNS,2023-04-05T20:20:00Z,ETNS 052020Z AUTO 18004KT 9999 // ////// 03/M03 Q1021 ///
ETNT,2023-04-05T20:20:00Z,ETNT 052020Z 10003KT 9999 02/M00 Q1021 BLACKBLU+
ETNW,2023-04-05T21:00:00Z,ETNW 052100Z 13003KT 9999 04/M04 Q1020 BLU+FCST CNL
ETOU,2023-04-05T20:55:00Z,ETOU 052055Z 34003KT 9999 SCT070 03/M05 A3013 RMK AO2A SLP210 T00291185 51006
ETSB,2023-04-05T20:20:00Z,ETSB 052020Z AUTO 13003KT //// // ////// 05/M04 Q1018 ///
ETSH,2023-04-05T20:20:00Z,ETSH 052020Z 10001KT 9999 FEW060 SCT090 01/M02 Q1022 BLU+
ETSI,2023-04-05T20:20:00Z,ETSI 052020Z AUTO 18002KT 9000 // ////// M00/M04 Q1020 ///
ETSL,2023-04-05T20:20:00Z,ETSL 052020Z 12002KT 9999 M00/M07 Q1019 BLU+
ETSN,2023-04-05T20:20:00Z,ETSN 052020Z 00000KT 9999 FEW060 01/M04 Q1020 BLU+
ETWM,2023-04-05T20:20:00Z,ETWM 052020Z AUTO VRB01KT //// // ////// 02/M04 Q1020 ///
EVGA,2023-04-05T20:50:00Z,EVGA 052050Z 34006KT 9999 SCT010 BKN018 01/M01 Q1024 NOSIG
EVLA,2023-04-05T20:50:00Z,EVLA 052050Z AUTO 10002KT 9999 FEW040/// M03/M03 Q1024
EVRA,2023-04-05T20:50:00Z,EVRA 052050Z 35003KT 9999 OVC022 01/M02 Q1025 NOSIG
EVVA,2023-04-05T20:50:00Z,EVVA 052050Z AUTO 08003KT CAVOK 00/M03 Q1025
EYKA,2023-04-05T20:50:00Z,EYKA 052050Z 36002KT CAVOK M00/M04 Q1023
EYPA,2023-04-05T20:50:00Z,EYPA 052050Z 09001KT CAVOK M03/M04 Q1025
EYSA,2023-04-05T20:50:00Z,EYSA 052050Z 35003KT 9999 FEW035 M02/M04 Q1024 NOSIG
EYVI,2023-04-05T20:50:00Z,EYVI 052050Z 36010KT 9999 -RASN BKN048 00/M03 Q1021 NOSIG
FABL,2023-04-05T21:00:00Z,FABL 052100Z AUTO 18002KT //// R02///// // ///////// 13/10 Q1024
FACT,2023-04-05T21:00:00Z,FACT 052100Z 11004KT CAVOK 17/16 Q1012 NOSIG
FAGG,2023-04-05T21:00:00Z,FAGG 052100Z AUTO 31004KT 9999 R29///// // ////// 17/14 Q1014
FAHS,2023-04-05T21:00:00Z,FAHS 052100Z AUTO 18004KT //// // ////// 18/17 Q1021
FAJB,2023-04-05T21:00:00Z,FAJB 052100Z AUTO 18001KT //// // ////// 12/06 Q1025
FAKM,2023-04-05T21:00:00Z,FAKM 052100Z AUTO 04005KT //// // ////// 15/09 Q1022
FAKN,2023-04-05T20:00:00Z,FAKN 052000Z AUTO 07004KT //// // ////// 17/13 Q1024
FALA,2023-04-05T21:00:00Z,FALA 052100Z AUTO 22005KT //// // ////// 15/10 Q1025
FALE,2023-04-05T21:00:00Z,FALE 052100Z 25006KT 9999 FEW020 BKN024 19/16 Q1021 NOSIG
FALW,2023-04-05T21:00:00Z,FALW 052100Z AUTO 20004KT //// // ////// 19/06 Q1010
FAMM,2023-04-05T21:00:00Z,FAMM 052100Z AUTO 04005KT //// // ////// 14/11 Q1023
FAOR,2023-04-05T21:00:00Z,FAOR 052100Z 11006KT 070V130 CAVOK 14/04 Q1026 NOSIG
FAPE,2023-04-05T21:00:00Z,FAPE 052100Z 06010KT CAVOK 19/16 Q1016 NOSIG
FAPP,2023-04-05T21:00:00Z,FAPP 052100Z AUTO 00000KT //// // ////// 13/12 Q1026
FASI,2023-04-05T21:00:00Z,FASI 052100Z AUTO 17003KT //// // ////// 13/07 Q1029
FAUP,2023-04-05T21:00:00Z,FAUP 052100Z AUTO 08001KT //// // ////// 17/01 Q1018
FAVV,2023-04-05T21:00:00Z,FAVV 052100Z AUTO 11001KT //// // ////// 12/08 Q1026
FAWB,2023-04-05T21:00:00Z,FAWB 052100Z AUTO 00000KT //// // ////// 14/12 Q1022
FBMN,2023-04-05T21:00:00Z,FBMN 052100Z 12005KT CAVOK 23/14 Q1018
FBPM,2023-04-05T21:00:00Z,FBPM 052100Z 10004KT CAVOK 18/15 Q1022
FBSK,2023-04-05T21:00:00Z,FBSK 052100Z 00000KT CAVOK 17/13 Q1021 NOSIG
FDBB,2023-04-05T20:00:00Z,FDBB 052000Z AUTO 34002KT //// // ////// 19/17 Q1020
FDMY,2023-04-05T20:00:00Z,FDMY 052000Z AUTO 00000KT //// // ////// 17/15 Q1032
FDPP,2023-04-05T20:00:00Z,FDPP 052000Z AUTO 16003KT //// // ////// ///// Q1028
FDST,2023-04-05T20:00:00Z,FDST 052000Z AUTO 02007KT //// // ////// 17/16 Q1020
FGSL,2023-04-05T20:00:00Z,FGSL 052000Z 26007KT 9999 FEW012 28/26 Q1009 NOSIG
FIMP,2023-04-05T21:00:00Z,FIMP 052100Z 31003KT 9999 SCT017 23/22 Q1014
FMCZ,2023-04-05T21:00:00Z,FMCZ 052100Z AUTO 26005KT CAVOK 26/25 Q1012 TEMPO VRB15G30KT 4500 SHRA FEW020CB
FMEE,2023-04-05T21:00:00Z,FMEE 052100Z AUTO 17004KT 9999 NCD 25/21 Q1013 NOSIG
FMEP,2023-04-05T21:00:00Z,FMEP 052100Z AUTO 05005KT 010V070 9999 FEW024/// OVC140/// ///CB 24/19 Q1013
FMMI,2023-04-05T21:00:00Z,FMMI 052100Z 17004KT 130V200 9999 -RA FEW010 BKN020 19/19 Q1020 RETS WS ALL RWY NOSIG
FMMT,2023-04-05T21:00:00Z,FMMT 052100Z 16004KT 9999 VCSH SCT017TCU BKN033 25/24 Q1013
FMNM,2023-04-05T20:00:00Z,FMNM 052000Z 22005KT 160V280 9999 FEW017CB 25/23 Q1011
FMSD,2023-04-05T21:00:00Z,FMSD 052100Z 08008KT 9999 SCT016CB BKN020 25/23 Q1014
FNLU,2023-04-05T21:00:00Z,FNLU 052100Z 16006KT 9999 FEW020 27/24 Q1009 NOSIG
FOOG,2023-04-05T21:00:00Z,FOOG 052100Z 21010KT 9999 FEW013 28/25 Q1009
FOOL,2023-04-05T20:00:00Z,FOOL 052000Z 23006KT 200V260 9999 FEW013 29/23 Q1008 NOSIG
FQBR,2023-04-05T21:00:00Z,FQBR 052100Z 18009KT 9999 FEW018 26/22 Q1016
FQMA,2023-04-05T21:00:00Z,FQMA 052100Z 22008KT 9999 SCT020 21/18 Q1019 NOSIG
FQNP,2023-04-05T21:00:00Z,FQNP 052100Z 20007KT 9999 FEW010 BKN100 21/19 Q1016
FQPB,2023-04-05T20:00:00Z,FQPB 052000Z 24006KT 9999 FEW020 25/23 Q1013
FQQL,2023-04-05T21:00:00Z,FQQL 052100Z VRB02KT 9999 SCT018 26/23 Q1015
FQTT,2023-04-05T21:00:00Z,FQTT 052100Z 13010KT 9999 SCT020 25/20 Q1016
FQXA,2023-04-05T21:00:00Z,FQXA 052100Z 17006KT 9999 FEW020 22/19 Q1018
FSIA,2023-04-05T21:00:00Z,FSIA 052100Z 26002KT 9999 FEW025 27/23 Q1009 NOSIG
FTTA,2023-04-05T20:00:00Z,FTTA 052000Z 00000KT CAVOK 30/17 Q1007
FTTJ,2023-04-05T20:00:00Z,FTTJ 052000Z 01005KT 8000 NSC 34/00 Q1006 NOSIG
FVRG,2023-04-05T21:00:00Z,FVRG 052100Z 13008KT 080V150 CAVOK 18/14 Q1024 NOSIG
FYGF,2023-04-05T21:00:00Z,FYGF 052100Z AUTO 28003KT //// // ////// 15/11 Q1022
FYKM,2023-04-05T21:00:00Z,FYKM 052100Z AUTO 06001KT //// // ////// 20/16 Q1017
FYLZ,2023-04-05T21:00:00Z,FYLZ 052100Z AUTO 11001KT //// // ////// 27/08 Q1010
FYWW,2023-04-05T21:00:00Z,FYWW 052100Z AUTO 18001KT //// // ////// 22/05 Q1024
GABS,2023-04-05T21:00:00Z,GABS 052100Z 17005KT 9999 FEW030 34/14 Q1008 NOSIG
GAKD,2023-04-05T21:00:00Z,GAKD 052100Z 06004KT 7000 NSC 32/08 Q1007
GAMB,2023-04-05T21:00:00Z,GAMB 052100Z 34002KT CAVOK 33/05 Q1007
GANR,2023-04-05T21:00:00Z,GANR 052100Z 36004KT CAVOK 32/04 Q1008
GBYD,2023-04-05T21:00:00Z,GBYD 052100Z 26008KT 9000 NSC 25/20 Q1008
GCFV,2023-04-05T21:00:00Z,GCFV 052100Z 34014KT 9999 FEW030 19/13 Q1014
GCGM,2023-04-05T21:00:00Z,GCGM 052100Z AUTO VRB06G17KT CAVOK 20/09 Q1016 RMK R09/32010G22KT 240V030 ARP/VRB08G21KT
GCHI,2023-04-05T21:00:00Z,GCHI 052100Z AUTO 36017KT 330V040 9999 FEW024 19/14 Q1017
GCLA,2023-04-05T21:00:00Z,GCLA 052100Z AUTO 02013KT 350V070 CAVOK 20/15 Q1017
GCLP,2023-04-05T21:00:00Z,GCLP 052100Z 35022KT 9999 FEW035 19/12 Q1015 NOSIG
GCRR,2023-04-05T21:00:00Z,GCRR 052100Z 35016KT 9999 FEW020 SCT030 19/14 Q1013
GCTS,2023-04-05T21:00:00Z,GCTS 052100Z 28004KT 260V330 CAVOK 20/14 Q1016 NOSIG
GCXO,2023-04-05T21:00:00Z,GCXO 052100Z 31025KT 9999 FEW007 14/12 Q1017 NOSIG
GECE,2023-04-05T21:00:00Z,GECE 052100Z AUTO VRB10KT CAVOK 17/11 Q1015
GEML,2023-04-05T21:00:00Z,GEML 052100Z AUTO 10009KT 060V130 CAVOK 17/10 Q1016
GGOV,2023-04-05T21:00:00Z,GGOV 052100Z 27005KT 240V320 8000 NSC 26/23 Q1008 NOSIG
GLRB,2023-04-05T20:30:00Z,GLRB 052030Z 00000KT 9999 RETS FEW018 FEW026CB 28/25 Q1009 NOSIG RMK CB-N
GMAD,2023-04-05T21:00:00Z,GMAD 052100Z 18008KT 9999 BKN016 16/12 Q1007 NOSIG
GMFF,2023-04-05T21:00:00Z,GMFF 052100Z 08013KT CAVOK 16/01 Q1009 NOSIG
GMFK,2023-04-05T21:00:00Z,GMFK 052100Z 09009KT 050V170 CAVOK 21/M12 Q1007 NOSIG
GMFM,2023-04-05T21:00:00Z,GMFM 052100Z 07025KT 6000 NSC 17/04 Q1007 NOSIG
GMFO,2023-04-05T21:00:00Z,GMFO 052100Z 04011KT 9999 FEW040 BKN200 15/M01 Q1014 NOSIG
GMMB,2023-04-05T21:00:00Z,GMMB 052100Z AUTO 01009KT 9999 NSC 18/13 Q1005 NOSIG
GMME,2023-04-05T21:00:00Z,GMME 052100Z 06010KT 5000 SCT016 22/05 Q1004 NOSIG
GMMH,2023-04-05T21:00:00Z,GMMH 052100Z 01014KT 6000 NSC 19/15 Q1015 NOSIG
GMMI,2023-04-05T21:00:00Z,GMMI 052100Z AUTO 03003KT 5000 FEW020 BKN033 16/00 Q1008 NOSIG
GMML,2023-04-05T21:00:00Z,GMML 052100Z 35014KT 8000 NSC 18/18 Q1014 NOSIG
GMMN,2023-04-05T21:00:00Z,GMMN 052100Z 01013KT CAVOK 18/12 Q1005 NOSIG
GMMW,2023-04-05T21:00:00Z,GMMW 052100Z 05012KT 8000 SCT019 SCT190 15/08 Q1015 NOSIG
GMMX,2023-04-05T21:00:00Z,GMMX 052100Z 24005KT 9999 SCT020 BKN040 16/12 Q1007 NOSIG
GMMZ,2023-04-05T21:00:00Z,GMMZ 052100Z 12003KT 5000 FEW030 SCT200 18/M06 Q1005 NOSIG
GMTA,2023-04-05T21:00:00Z,GMTA 052100Z 07005KT 9999 FEW030 BKN200 16/09 Q1015 NOSIG
GMTN,2023-04-05T21:00:00Z,GMTN 052100Z 11015KT 9999 FEW023 SCT200 16/10 Q1015 NOSIG
GMTT,2023-04-05T21:00:00Z,GMTT 052100Z 09033G44KT CAVOK 18/03 Q1010 NOSIG
GOBD,2023-04-05T21:00:00Z,GOBD 052100Z 36016KT 7000 NSC 24/17 Q1009 NOSIG
GOGG,2023-04-05T21:00:00Z,GOGG 052100Z 28006KT CAVOK 26/23 Q1009
GOGS,2023-04-05T21:00:00Z,GOGS 052100Z 32004KT CAVOK 24/22 Q1009
GOOK,2023-04-05T21:00:00Z,GOOK 052100Z 28010KT CAVOK 33/10 Q1007
GOOY,2023-04-05T21:00:00Z,GOOY 052100Z 36006KT CAVOK 23/19 Q1009
GOSS,2023-04-05T21:00:00Z,GOSS 052100Z 36010KT 310V050 CAVOK 24/15 Q1010
GOTK,2023-04-05T21:00:00Z,GOTK 052100Z 28004KT CAVOK 35/12 Q1006
GOTT,2023-04-05T21:00:00Z,GOTT 052100Z 24004KT CAVOK 36/10 Q1006
GQNO,2023-04-05T21:00:00Z,GQNO 052100Z 33013KT 6000 NSC 22/17 Q1010 NOSIG
GQPP,2023-04-05T21:00:00Z,GQPP 052100Z 36014KT 7000 DRSA NSC 19/14 Q1014 NOSIG
GUCY,2023-04-05T21:00:00Z,GUCY 052100Z 27006KT 4000 HZ NSC 28/19 Q1008 NOSIG
GUNZ,2023-04-05T20:00:00Z,GUNZ 052000Z 28008KT 4000 HZ NSC 28/17 Q1008 NOSIG
GVAC,2023-04-05T21:00:00Z,GVAC 052100Z 06017KT 9999 BKN014 BKN090 22/17 Q1013 NOSIG
GVNP,2023-04-05T21:00:00Z,GVNP 052100Z 02020KT 9999 FEW014 23/18 Q1012 NOSIG
GVSV,2023-04-05T21:00:00Z,GVSV 052100Z 05021KT 9999 SCT020 BKN200 23/17 Q1012 NOSIG
HAAB,2023-04-05T21:00:00Z,HAAB 052100Z 07006KT 9999 BKN025 15/12 Q1027 NOSIG
HDAM,2023-04-05T20:00:00Z,HDAM 052000Z 160/04KT 9999 FEW020 28/22 Q1012
HEAT,2023-04-05T20:00:00Z,HEAT 052000Z 36007KT CAVOK 19/04 Q1017 NOSIG
HEBA,2023-04-05T20:00:00Z,HEBA 052000Z 36003KT CAVOK 13/09 Q1018 NOSIG
HEBL,2023-04-05T20:00:00Z,HEBL 052000Z 01008KT CAVOK 20/01 Q1012 NOSIG
HECA,2023-04-05T21:00:00Z,HECA 052100Z 06007KT CAVOK 18/11 Q1018 NOSIG
HEGN,2023-04-05T20:00:00Z,HEGN 052000Z 34012KT 6000 NSC 24/M03 Q1013 NOSIG
HELX,2023-04-05T20:00:00Z,HELX 052000Z 22006KT CAVOK 22/03 Q1014 NOSIG
HEMA,2023-04-05T20:00:00Z,HEMA 052000Z 32012KT CAVOK 23/04 Q1013 NOSIG
HEMM,2023-04-05T20:00:00Z,HEMM 052000Z 33006KT CAVOK 17/11 Q1018 NOSIG
HEPS,2023-04-05T20:00:00Z,HEPS 052000Z 35007KT CAVOK 18/14 Q1018 NOSIG
HESG,2023-04-05T20:00:00Z,HESG 052000Z 30012KT CAVOK 23/01 Q1013 NOSIG
HESH,2023-04-05T20:00:00Z,HESH 052000Z 33014KT CAVOK 29/06 Q1012 NOSIG
HESN,2023-04-05T20:00:00Z,HESN 052000Z 01008KT CAVOK 25/M01 Q1013 NOSIG
HESW,2023-04-05T21:00:00Z,HESW 052100Z 27006KT CAVOK 17/M02 Q1018
HETR,2023-04-05T21:00:00Z,HETR 052100Z 31011KT CAVOK 23/06 Q1013
HKJK,2023-04-05T20:30:00Z,HKJK 052030Z 02008KT 9999 BKN022 18/15 Q1021 NOSIG
HKKI,2023-04-05T20:30:00Z,HKKI 052030Z 32003KT 9999 FEW020 BKN080 20/19 Q1017
HKKT,2023-04-05T20:00:00Z,HKKT 052000Z 05004KT CAVOK 16/15
HKLO,2023-04-05T20:00:00Z,HKLO 052000Z 05006KT 9999 FEW025CB BKN090 28/20 Q1009
HKME,2023-04-05T20:00:00Z,HKME 052000Z 12003KT 9999 FEW016 FEW022CB BKN230 18/15
HKML,2023-04-05T20:00:00Z,HKML 052000Z 00000KT 9999 SCT021 29/24 Q1011
HKMO,2023-04-05T20:30:00Z,HKMO 052030Z 19004KT 9999 FEW023 28/24 Q1011 NOSIG
HKNI,2023-04-05T20:00:00Z,HKNI 052000Z 25002KT 9999 FEW019 SCT080 16/14
HKNK,2023-04-05T20:00:00Z,HKNK 052000Z 00000KT 9999 BKN018 18/14
HRYR,2023-04-05T21:00:00Z,HRYR 052100Z VRB02KT 9999 FEW025 17/17 Q1020 NOSIG
HSDN,2023-04-05T20:00:00Z,HSDN 052000Z 35010KT CAVOK 28/M01 Q1010
HSPN,2023-04-05T20:00:00Z,HSPN 052000Z 32006KT CAVOK 24/16 Q1012
HSSK,2023-04-05T21:00:00Z,HSSK 052100Z 01009KT CAVOK 31/M09 Q1009 NOSIG
HTAR,2023-04-05T20:00:00Z,HTAR 052000Z 14015KT 9999 BKN027 20/17 Q1021 NOSIG
HTBU,2023-04-05T20:00:00Z,HTBU 052000Z 00000KT 9999 FEW018 FEW020CB 19/17 Q1016 NOSIG
HTDA,2023-04-05T20:00:00Z,HTDA 052000Z 14005KT 9999 FEW012 FEW015CB 25/24 Q1013 NOSIG
HTDO,2023-04-05T20:00:00Z,HTDO 052000Z 11007KT 9999 FEW027 FEW028CB 22/18 Q1016 NOSIG
HTIB,2023-04-05T20:00:00Z,HTIB 052000Z 00000KT 9999 FEW019 FEW020CB BKN090 21/19 Q1016
HTIR,2023-04-05T20:00:00Z,HTIR 052000Z 00000KT 9999 SCT022 18/16 Q1020
HTKA,2023-04-05T20:00:00Z,HTKA 052000Z 00000KT 9999 -SHRA FEW017 FEW018CB BKN080 20/19 Q1016 NOSIG
HTKJ,2023-04-05T20:00:00Z,HTKJ 052000Z 15005KT 9999 FEW024CB BKN025 22/19 Q1017 NOSIG
HTMG,2023-04-05T20:00:00Z,HTMG 052000Z 00000KT 9999 BKN022 FEW023CB 23/22 Q1015
HTMT,2023-04-05T20:00:00Z,HTMT 052000Z 18010KT 9999 FEW020 FEW021CB 25/24 Q1013 NOSIG
HTMU,2023-04-05T20:00:00Z,HTMU 052000Z 00000KT 9999 SCT018 FFEW020CB BKN090 23/20 Q1017
HTSO,2023-04-05T20:00:00Z,HTSO 052000Z 00000KT 9999 SCT018 FEW019CB 20/19 Q1019
HTSU,2023-04-05T20:00:00Z,HTSU 052000Z 00000KT 9999 FEW017 FEW019CB 16/15 Q1023
HTTB,2023-04-05T20:00:00Z,HTTB 052000Z 26010KT 9999 TS SCT020 FEW021CB BKN070 20/19 Q1019
HTZA,2023-04-05T20:00:00Z,HTZA 052000Z 00000KT 9999 FEW016 27/25 Q1012 NOSIG
HUEN,2023-04-05T20:30:00Z,HUEN 052030Z 23005KT 9999 FEW023 FEW025CB 22/19 Q1016 NOSIG
K04V,2023-04-05T20:49:00Z,K04V 052049Z AUTO 31009G16KT 10SM 00/M17 A3001 RMK AO2
K04W,2023-04-05T20:55:00Z,K04W 052055Z AUTO 24018G24KT 10SM BKN028 OVC034 M02/M06 A2963 RMK AO2
K05U,2023-04-05T20:50:00Z,K05U 052050Z AUTO 04007KT 10SM BKN055 OVC065 A3016 RMK A01
K06C,2023-04-05T20:55:00Z,K06C 052055Z AUTO 25021G29KT 10SM BKN025 09/05 A2980 RMK AO2 T00880050
K06D,2023-04-05T20:55:00Z,K06D 052055Z AUTO 32038G48KT M1/4SM -SN VV000 M06/M08 A2968 RMK AO2
K08D,2023-04-05T20:55:00Z,K08D 052055Z AUTO 31025KT 10SM CLR M06/M11 A2995 RMK AO2
K0A0,2023-04-05T20:55:00Z,K0A0 052055Z AUTO VRB04G12KT 10SM CLR 13/M22 A3007 RMK AO2
K0A9,2023-04-05T20:55:00Z,K0A9 052055Z AUTO 21007KT 190V250 10SM BKN075 OVC085 29/14 A3003 RMK AO2
K0CO,2023-04-05T20:55:00Z,K0CO 052055Z AUTO 31015G25KT BKN004 OVC007 M17/M19 A2985 RMK AO2 PWINO
K0E0,2023-04-05T20:55:00Z,K0E0 052055Z AUTO 22009G15KT 10SM CLR 07/M20 A3007 RMK AO2 T00721200
K0F2,2023-04-05T20:55:00Z,K0F2 052055Z AUTO 10SM CLR 15/M02 A3009 RMK AO2 T01501017
K0J4,2023-04-05T19:58:00Z,K0J4 051958Z AUTO 19015G23KT 10SM FEW044 30/17 A3009 RMK AO2 PK WND 18027/1908 SLP186 T03000167 $
K0R0,2023-04-05T20:55:00Z,K0R0 052055Z AUTO 18013G18KT 150V220 10SM FEW040 FEW046 31/20 A3001 RMK AO2
K0R4,2023-04-05T20:55:00Z,K0R4 052055Z AUTO 16012KT 10SM 31/20 A2993 RMK AO2 LTG DSNT N AND NW T03090195
K0S9,2023-04-05T20:55:00Z,K0S9 052055Z AUTO 16010G19KT 10SM CLR 11/01 A3011 RMK AO2
K0V4,2023-04-05T20:55:00Z,K0V4 052055Z AUTO 19019G27KT 10SM SCT050 BKN065 BKN075 30/17 A3006 RMK AO1
K0VG,2023-04-05T20:55:00Z,K0VG 052055Z AUTO 24013G19KT 10SM FEW080 30/12 A3003 RMK AO2
K10G,2023-04-05T20:55:00Z,K10G 052055Z AUTO 31008KT 10SM -RA SCT036 SCT050 BKN075 18/17 A2988 RMK AO2 P0009
K12N,2023-04-05T20:54:00Z,K12N 052054Z AUTO 00000KT 12/09 A3015 RMK AO1 SLP210 T01170089 56014
K13K,2023-04-05T20:55:00Z,K13K 052055Z AUTO 30010G15KT 10SM CLR 11/M06 A3011 RMK AO2 T01151055
K14Y,2023-04-05T20:55:00Z,K14Y 052055Z AUTO 00000KT 7SM -SN SCT019 OVC023 M04/M08 A2969 RMK AO2
K15M,2023-04-05T20:55:00Z,K15M 052055Z AUTO VRB04KT 8SM SCT055 25/20 A2998 RMK AO2 T02470197 $
K17J,2023-04-05T20:55:00Z,K17J 052055Z AUTO 20006KT 10SM SCT048 SCT055 BKN085 30/19 A3007 RMK AO2 T03020188
K18A,2023-04-05T20:55:00Z,K18A 052055Z AUTO 20010G15KT 10SM SCT060 SCT075 30/16 A3015 RMK AO2 T02980164
K19S,2023-04-05T20:55:00Z,K19S 052055Z AUTO 36013G20KT 10SM CLR 10/M12 A3011 RMK AO2 T00991124
K1A6,2023-04-05T20:55:00Z,K1A6 052055Z AUTO 26009G18KT 10SM CLR 30/13 A3001 RMK AO2 T03020128
K1A9,2023-04-05T20:55:00Z,K1A9 052055Z AUTO 18008KT 10SM BKN070 BKN080 31/16 A3004 RMK AO2 T03100163
K1AM,2023-04-05T20:55:00Z,K1AM 052055Z AUTO 25017G24KT 10SM FEW095 SCT120 OVC150 04/M10 A2994 RMK AO2 SLP179 T00381103 56005 $
K1AN,2023-04-05T21:06:00Z,K1AN 052106Z AUTO 32027G32KT 2 3/4SM -SN CLR M05/M08 A2981 RMK AO2 VIS 2 1/2V3 SNB05 SLP142 $
K1BM,2023-04-05T20:55:00Z,K1BM 052055Z AUTO 27016G19KT 10SM BKN070 OVC085 04/M13 A2993 RMK AO2 SLP181 T00391130 57009 $
K1BN,2023-04-05T20:55:00Z,K1BN 052055Z AUTO 32023G35KT 7SM SCT050 M05/M11 A2983 RMK AO2 PK WND 32035/49 SLP138 60000 T10521112 52013 $
K1BW,2023-04-05T20:55:00Z,K1BW 052055Z AUTO 30007KT 10SM CLR M06/M10 A3006 RMK AO2 SLP254 T10571098 52006 $
K1CM,2023-04-05T20:55:00Z,K1CM 052055Z AUTO 30012G22KT 10SM FEW055 BKN075 14/M04 A2991 RMK AO2 SLP150 T01361037 57009 $
K1CN,2023-04-05T21:06:00Z,K1CN 052106Z AUTO 32030G33KT 7/8SM HZ FEW001 M06/M09 A2986 RMK AO2 VIS 7/8V1 3/8 SNB05E06 SLP149 RVRNO $
K1CW,2023-04-05T20:55:00Z,K1CW 052055Z AUTO 33011KT 10SM CLR M02/M07 A3006 RMK AO2 SLP223 T10191074 53005 $
K1D1,2023-04-05T20:55:00Z,K1D1 052055Z AUTO 28026G33KT 4SM UP BR FEW017 SCT022 BKN070 M04/M05 A2982 RMK AO2
K1DM,2023-04-05T20:55:00Z,K1DM 052055Z AUTO 31008KT 10SM FEW036 SCT048 OVC070 03/M10 A2994 RMK AO2 SLP179 T00331100 57010 $
K1DW,2023-04-05T20:55:00Z,K1DW 052055Z AUTO 32011KT 10SM CLR M02/M08 A3003 RMK AO2 SLP233 T10161077 53005 $
K1EM,2023-04-05T20:55:00Z,K1EM 052055Z AUTO 01005G17KT 10SM FEW170 03/M10 A2993 RMK AO2 SLP174 T00291100 57012 $
K1EN,2023-04-05T20:55:00Z,K1EN 052055Z AUTO 31027KT 6SM BR CLR M06/M06 A2967 RMK AO2 PK WND 31033/04 SLP095 T10631064 52013 $
K1EW,2023-04-05T20:55:00Z,K1EW 052055Z AUTO 14015G22KT 10SM CLR 00/M08 A3000 RMK AO2 SLP216 T00021078 53002 $
K1F0,2023-04-05T20:55:00Z,K1F0 052055Z AUTO 35010G18KT 310V030 10SM CLR 16/M02 A3007 RMK AO2 T01641016
K1FW,2023-04-05T20:55:00Z,K1FW 052055Z AUTO 33014KT 10SM CLR M01/M06 A3002 RMK AO2 SLP203 T10091061 52005 $
K1GM,2023-04-05T20:55:00Z,K1GM 052055Z AUTO 27019G24KT 10SM CLR 04/M08 M RMK AO2 SLPNO T00441080 $
K1GN,2023-04-05T20:55:00Z,K1GN 052055Z AUTO 32026G30KT 10SM M M06/M11 A2990 RMK AO2 PK WND 32033/13 SLP176 T10591107 52013 $
K1H2,2023-04-05T20:55:00Z,K1H2 052055Z AUTO 27016G22KT 10SM BKN019 OVC032 12/09 A2996 RMK AO2 60001 T01220092
K1HM,2023-04-05T20:55:00Z,K1HM 052055Z AUTO 26015KT 10SM BKN085 BKN110 06/M15 A2990 RMK AO2 SLP166 T00591148 57007 $
K1HN,2023-04-05T20:55:00Z,K1HN 052055Z AUTO 28020G26KT 10SM CLR M04/M12 A2995 RMK AO2 PK WND 30030/1959 SLP181 T10451122 53006 $
K1HW,2023-04-05T20:55:00Z,K1HW 052055Z AUTO 30019G23KT 10SM CLR 01/M05 A3003 RMK AO2 SLP206 T00081054 52008 $
K1IM,2023-04-05T20:55:00Z,K1IM 052055Z AUTO 25010KT 10SM -PL FEW017 FEW029 SCT040 BKN060 OVC075 03/M08 A2993 RMK AO2 RAB43E46PLB46 SLP181 P0000 60000 T00301084 55007 $
K1IN,2023-04-05T20:55:00Z,K1IN 052055Z AUTO 31021G27KT 10SM CLR M07/M11 A2992 RMK AO2 PK WND 32028/06 SLP178 T10691115 53008 $
K1IW,2023-04-05T20:55:00Z,K1IW 052055Z AUTO 33014G26KT 10SM M 02/M07 A3002 RMK AO2 PK WND 33026/51 SLP202 T00191069 52003 $
K1JM,2023-04-05T20:55:00Z,K1JM 052055Z AUTO 28004KT 10SM FEW055 FEW070 SCT130 04/M10 A2992 RMK AO2 SLP178 60000 T00381103 57007 $
K1JN,2023-04-05T21:06:00Z,K1JN 052106Z AUTO 31017G26KT 2 1/2SM -PL CLR M06/M09 A2987 RMK AO2 FZRAE03PLB03 SLP159 $
K1JW,2023-04-05T20:55:00Z,K1JW 052055Z AUTO 30017G25KT 10SM CLR 02/M09 M RMK AO2 PK WND 32027/02 SLPNO T00211086 $
K1KM,2023-04-05T20:55:00Z,K1KM 052055Z AUTO 26022G28KT 10SM SCT140 01/M08 A2995 RMK AO2 PK WND 27032/06 SLP198 T00121078 55005 $
K1KN,2023-04-05T20:56:00Z,K1KN 052056Z AUTO 31023KT 8SM -SN M M07/M08 A2991 RMK AO2 SNB55 SLP173 $
K1LN,2023-04-05T20:55:00Z,K1LN 052055Z AUTO 32023KT 9SM CLR M07/M10 A2994 RMK AO2 PK WND 32027/1955 SLP179 T10671097 50008 $
K1LW,2023-04-05T20:55:00Z,K1LW 052055Z AUTO 29013KT 10SM CLR 02/M08 A3001 RMK AO2 SLP212 T00211078 55000 $
K1M4,2023-04-05T20:56:00Z,K1M4 052056Z AUTO 21012KT 10SM FEW046 BKN055 BKN070 28/18 A3004 RMK AO2 SLP154 T02780183 58008
K1M5,2023-04-05T20:55:00Z,K1M5 052055Z AUTO 22011KT 10SM OVC060 27/17 A2995 RMK A01
K1MN,2023-04-05T20:55:00Z,K1MN 052055Z AUTO 31027G32KT 10SM FEW050 SCT060 M07/M09 A2990 RMK AO2 PK WND 32033/1959 SLP164 T10691092 53009 $
K1MW,2023-04-05T20:55:00Z,K1MW 052055Z AUTO 31013G18KT 10SM FEW055 05/M10 A3002 RMK AO2 SLP192 T00481101 55002 $
K1NN,2023-04-05T20:55:00Z,K1NN 052055Z AUTO 31021KT 10SM CLR M A2991 RMK AO2 PK WND 31034/23 SLPNO ALSTG ESTMD 53010 $
K1NW,2023-04-05T20:55:00Z,K1NW 052055Z AUTO 30011G16KT 10SM FEW055 03/M10 A3001 RMK AO2 SLP190 T00341099 55003 $
K1OM,2023-04-05T20:55:00Z,K1OM 052055Z AUTO 00000KT 10SM CLR 03/M12 A2994 RMK AO2 SLP179 T00301121 57012 $
K1ON,2023-04-05T20:55:00Z,K1ON 052055Z AUTO 34022KT 3SM HZ OVC065 M05/M10 M RMK AO2 PK WND 33032/37 SLPNO T10531097 $
K1OW,2023-04-05T20:55:00Z,K1OW 052055Z AUTO 32014G20KT 10SM FEW042 01/M08 A3012 RMK AO2 SLP253 T00111082 53001 $
K1R7,2023-04-05T20:55:00Z,K1R7 052055Z AUTO 15009KT 10SM BKN041 BKN048 BKN060 29/26 A2998 RMK AO2 PWINO
K1R8,2023-04-05T20:55:00Z,K1R8 052055Z AUTO 15007G15KT 120V190 10SM BKN033 BKN039 29/20 A3005 RMK AO2
K1S3,2023-04-05T21:00:00Z,K1S3 052100Z AUTO 27009G16KT 10SM 02/M10 A3004 
K1S5,2023-04-05T20:55:00Z,K1S5 052055Z AUTO 17008G26KT 10SM SCT003 SCT070 13/M05 A3014 RMK AO2 T01341053
K1U7,2023-04-05T20:55:00Z,K1U7 052055Z AUTO 15003KT 10SM FEW035 BKN042 BKN049 M03/M07 A3010 RMK A01
K1V4,2023-04-05T20:54:00Z,K1V4 052054Z AUTO 02/M01 A3016 RMK AO1 SLP223 P0012 60012 T00221011 56020
K1V6,2023-04-05T20:55:00Z,K1V6 052055Z AUTO 11008KT 10SM SCT080 SCT110 08/M15 A2996 RMK AO2
K1YT,2023-04-05T20:58:00Z,K1YT 052058Z AUTO 17011G15KT 10SM CLR 11/M07 A3006 RMK AO2 WSHFT 56 SLP192 $
K20U,2023-04-05T20:55:00Z,K20U 052055Z AUTO 31017KT 10SM CLR M04/M13 A3002 RMK AO2
K20V,2023-04-05T20:55:00Z,K20V 052055Z AUTO 27009KT 10SM BKN030 BKN046 OVC060 M03/M11 A3002 RMK AO2
K21D,2023-04-05T20:55:00Z,K21D 052055Z AUTO 25023G30KT 10SM OVC032 M01/M07 A2975 RMK AO2
K22N,2023-04-05T20:55:00Z,K22N 052055Z AUTO 08005KT 10SM OVC011 13/10 A3012 RMK AO2
K24A,2023-04-05T21:05:00Z,K24A 052105Z AUTO 18012G19KT 10SM BKN050 BKN065 OVC075 25/13 A3017 RMK AO2 LTG DSNT NW T02450133
K24J,2023-04-05T20:55:00Z,K24J 052055Z AUTO 00000KT 10SM FEW070 OVC080 31/16 A3008 RMK A01
K28J,2023-04-05T20:55:00Z,K28J 052055Z AUTO 11012KT 10SM FEW075 BKN090 29/16 A3010 RMK AO2
K2A0,2023-04-05T20:55:00Z,K2A0 052055Z AUTO 21017G23KT 10SM CLR 31/14 A3001 RMK A01
K2D5,2023-04-05T20:55:00Z,K2D5 052055Z AUTO 30027G35KT 1/2SM +UP BKN020 M06/M06 A2979 RMK AO2
K2DP,2023-04-05T20:55:00Z,K2DP 052055Z AUTO 18014KT 10SM CLR 25/21 A3014 RMK AO2 SLPNO T02510212 58008 $
K2G2,2023-04-05T20:50:00Z,K2G2 052050Z AUTO 23012G25KT 10SM CLR 27/11 A2988 RMK A01
K2G4,2023-04-05T21:05:00Z,K2G4 052105Z AUTO 24008G13KT 200V280 10SM CLR 26/12 A3003 RMK AO2
K2G9,2023-04-05T20:55:00Z,K2G9 052055Z AUTO 22010G19KT 10SM CLR 27/11 A2997 RMK AO2
K2I0,2023-04-05T20:55:00Z,K2I0 052055Z AUTO 21008KT 10SM -RA OVC100 18/16 A2998 RMK AO2 P0016 60024 T01800160
K2IS,2023-04-05T20:55:00Z,K2IS 052055Z AUTO 09013G19KT 10SM CLR 31/16 A3007 RMK AO2 T03060157
K2J3,2023-04-05T20:55:00Z,K2J3 052055Z AUTO 17009KT 10SM SCT070 30/15 A3011 RMK AO2 T03000152
K2J5,2023-04-05T20:55:00Z,K2J5 052055Z AUTO 14008KT 10SM SCT065 31/15 A3012 RMK AO2 T03110154
K2J9,2023-04-05T20:55:00Z,K2J9 052055Z AUTO 17011KT 10SM CLR 31/20 A3010 RMK AO2
K2M2,2023-04-05T20:55:00Z,K2M2 052055Z AUTO 20012KT 170V240 10SM FEW055 FEW065 27/17 A2998 RMK A01
K2P2,2023-04-05T20:55:00Z,K2P2 052055Z AUTO 24011G19KT 10SM OVC018 05/05 A2950 RMK AO2 T00480048
K2R9,2023-04-05T20:55:00Z,K2R9 052055Z AUTO 01018G24KT 10SM SCT049 OVC070 A2992 RMK AO2
K2V5,2023-04-05T20:55:00Z,K2V5 052055Z AUTO 32018G30KT 10SM SCT060 08/M11 A3007 RMK AO2
K2V6,2023-04-05T20:59:00Z,K2V6 052059Z AUTO 30013G16KT 10SM SCT060 BKN070 06/M12 A3005 RMK AO2
K2W6,2023-04-05T21:09:00Z,K2W6 052109Z AUTO 14008G15KT 10SM CLR 26/16 A3006 RMK AO1
K2WX,2023-04-05T20:56:00Z,K2WX 052056Z AUTO 30021G30KT 00/M11 A2995 RMK AO1 PK WND 32033/2028 SLP182 T00001106 58001
K33N,2023-04-05T20:55:00Z,K33N 052055Z AUTO 20013G21KT 10SM CLR 28/15 A3004 RMK A01
K33V,2023-04-05T20:55:00Z,K33V 052055Z AUTO 31013G16KT 4SM SCT012 BKN026 OVC035 M06/M12 A2999 RMK AO1
K35A,2023-04-05T20:55:00Z,K35A 052055Z AUTO 19004KT 10SM SCT050 SCT075 BKN090 29/17 A3014 RMK A02 T02890168
K36K,2023-04-05T20:55:00Z,K36K 052055Z AUTO 35010KT 10SM CLR 09/M14 A3013 RMK AO2
K38S,2023-04-05T21:00:00Z,K38S 052100Z AUTO 00000KT 10SM 01/M09 A3006 
K3AU,2023-04-05T20:55:00Z,K3AU 052055Z AUTO 30011G16KT 10SM CLR 12/M11 A3010 RMK AO2
K3D2,2023-04-05T20:55:00Z,K3D2 052055Z AUTO 25011G20KT 10SM 07/04 A2952 RMK AO2 T00720042
K3F3,2023-04-05T20:55:00Z,K3F3 052055Z AUTO 06006KT 10SM SCT055 BKN120 20/19 A2999 RMK AO2 LTG DSNT E THRU S 60004 T01960185
K3J7,2023-04-05T20:55:00Z,K3J7 052055Z AUTO 00000KT 10SM CLR 30/15 A3009 RMK AO2
K3K3,2023-04-05T20:55:00Z,K3K3 052055Z AUTO 34005KT 10SM BKN090 OVC110 09/M13 A3010 RMK AO2
K3N8,2023-04-05T20:55:00Z,K3N8 052055Z AUTO 27022KT 1 1/4SM -SN OVC019 M06/M08 A2960 RMK AO2 T10561084
K3R7,2023-04-05T20:55:00Z,K3R7 052055Z AUTO 17010KT 10SM BKN025 BKN035 BKN085 27/22 A2994 RMK AO2 LTG DSNT W AND NW T02700216
K3S8,2023-04-05T20:55:00Z,K3S8 052055Z AUTO VRB05KT 10SM BKN065 BKN075 12/M00 A3019 RMK AO2
K3T5,2023-04-05T20:55:00Z,K3T5 052055Z AUTO 36007KT 10SM OVC055 20/07 A2996 RMK AO2 T02010073
K3U3,2023-04-05T21:00:00Z,K3U3 052100Z AUTO 25015G20KT 10SM 01/M11 A3002 
K40B,2023-04-05T20:16:00Z,K40B 052016Z AUTO VRB06G13KT M04/M05 A3032 RMK AO1 SLP297 T10431048 58029 P0010
K40U,2023-04-05T20:55:00Z,K40U 052055Z AUTO 32010KT 10SM BKN100 M02/M11 A3010 RMK AO2 T10171107
K41U,2023-04-05T20:55:00Z,K41U 052055Z AUTO 05010KT 10SM SCT035 BKN041 M01/M05 A3015 RMK AO1 T10081053
K42J,2023-04-05T20:55:00Z,K42J 052055Z AUTO 10009KT 070V130 10SM CLR 32/13 A3008 RMK A01
K46D,2023-04-05T20:55:00Z,K46D 052055Z AUTO 31031G37KT 1/4SM -SN OVC001 M05/M06 A2975 RMK AO2
K46U,2023-04-05T20:55:00Z,K46U 052055Z AUTO 02004KT 2SM BR CLR M03/M05 A3009 RMK A01 P0002
K48A,2023-04-05T20:55:00Z,K48A 052055Z AUTO 19008KT 10SM SCT060 30/17 A3010 RMK AO2 T03040169
K49A,2023-04-05T20:55:00Z,K49A 052055Z AUTO 20011G20KT 10SM FEW060 BKN080 28/15 A3010 RMK AO2
K4A6,2023-04-05T20:55:00Z,K4A6 052055Z AUTO 21010G20KT 180V240 10SM FEW075 FEW085 31/16 A3003 RMK AO2
K4A9,2023-04-05T20:55:00Z,K4A9 052055Z AUTO 24012KT 10SM CLR 30/12 A3004 RMK AO2 T03030122
K4BM,2023-04-05T20:55:00Z,K4BM 052055Z AUTO 17009G16KT 10SM BKN050 BKN080 OVC100 M07/M24 A2992 RMK AO2
K4M9,2023-04-05T20:55:00Z,K4M9 052055Z AUTO 28009KT 10SM FEW013 SCT020 18/17 A2995 RMK AO2 PWINO
K4MR,2023-04-05T20:55:00Z,K4MR 052055Z AUTO 32007KT 10SM CLR 12/M16 A3000 RMK AO2 SLP126 T01201156 57012 $
K4O4,2023-04-05T20:55:00Z,K4O4 052055Z AUTO 31008G15KT 9SM CLR 18/06 A3001 RMK AO2
K4R5,2023-04-05T20:55:00Z,K4R5 052055Z AUTO 24019G28KT 10SM OVC032 01/M05 A2948 RMK AO2 T00081048
K4S1,2023-04-05T20:55:00Z,K4S1 052055Z AUTO 20017G22KT 5SM HZ CLR 08/05 A3021 RMK AO2
K4S2,2023-04-05T20:55:00Z,K4S2 052055Z AUTO 31004KT 10SM BKN060 11/M01 A3016 RMK AO2
K4U6,2023-04-05T20:55:00Z,K4U6 052055Z AUTO 32011KT 10SM M03/M10 A3005 RMK A01 Circle 
K4V0,2023-04-05T20:55:00Z,K4V0 052055Z AUTO 31006KT 10SM CLR 03/M07 A3008 RMK AO2 T00341074
K4V1,2023-04-05T20:55:00Z,K4V1 052055Z AUTO 22008KT 10SM SCT110 08/M16 A2997 RMK AO2 T00781164
K54A,2023-04-05T20:55:00Z,K54A 052055Z AUTO 23007G13KT 10SM BKN065 BKN080 29/21 A3006 RMK AO2
K54J,2023-04-05T20:55:00Z,K54J 052055Z AUTO 19009G15KT 10SM CLR 27/19 A3010 RMK AO2 T02720185
K57C,2023-04-05T20:55:00Z,K57C 052055Z AUTO 27022G31KT 10SM SCT028 08/02 A2973 RMK AO2 T00810015
K5A6,2023-04-05T20:55:00Z,K5A6 052055Z AUTO 04006KT 2SM -VCTSRA 18/17 A3002 RMK AO2 LTG DSNT ALQS T01820171
K5C1,2023-04-05T20:55:00Z,K5C1 052055Z AUTO 02011G19KT 10SM OVC055 21/M03 A2999 RMK AO1
K5H4,2023-04-05T20:55:00Z,K5H4 052055Z AUTO 31030KT 1/4SM -SN BKN031 OVC037 M06/M17 A2981 RMK AO2
K5R8,2023-04-05T20:55:00Z,K5R8 052055Z AUTO 17008G16KT 10SM BKN026 BKN036 27/22 A2992 RMK AO2 P0001 60011 T02710218
K5SM,2023-04-05T20:55:00Z,K5SM 052055Z AUTO 25007KT 10SM M08/M13 A3000 RMK AO2
K5T9,2023-04-05T20:55:00Z,K5T9 052055Z AUTO 35012KT 10SM CLR 28/M10 A2992 RMK A01
K63S,2023-04-05T20:55:00Z,K63S 052055Z AUTO 19010G17KT 10SM BKN070 10/M08 A3008 RMK A01
K65S,2023-04-05T20:55:00Z,K65S 052055Z AUTO 00000G11KT 10SM SCT060 BKN070 07/M06 A3005 RMK AO2
K66R,2023-04-05T20:55:00Z,K66R 052055Z AUTO 36006KT 10SM OVC043 18/11 A2997 RMK AO2 LTG DSNT NE AND E 60004 T01780110
K6A1,2023-04-05T20:55:00Z,K6A1 052055Z AUTO 33006G14KT 10SM SCT060 SCT080 31/15 A3010 RMK AO2 T03080153
K6A2,2023-04-05T20:55:00Z,K6A2 052055Z AUTO 18007KT 10SM SCT055 BKN085 28/16 A3009 RMK AO2
K6B0,2023-04-05T20:55:00Z,K6B0 052055Z AUTO 15008G15KT 110V180 10SM OVC028 07/03 A3007 RMK AO2 60001 T00710031 P0001
K6B9,2023-04-05T20:55:00Z,K6B9 052055Z AUTO 22013G28KT 190V250 2 1/2SM -DZ FEW004 SCT035 BKN055 19/17 A2992 RMK AO2 P0009
K6I2,2023-04-05T20:55:00Z,K6I2 052055Z AUTO 21020G28KT 10SM BKN070 28/15 A2993 RMK AO2
K6P9,2023-04-05T20:55:00Z,K6P9 052055Z AUTO 35008G16KT 10SM CLR 16/M02 A3010 RMK AO2 T01601025
K6R3,2023-04-05T20:55:00Z,K6R3 052055Z AUTO OVC009 20/18 A2996 RMK AO2 P0001 60067 T01950184 PWINO TSNO
K6R6,2023-04-05T20:51:00Z,K6R6 052051Z AUTO 02009G16KT 22/M15 A3007 RMK AO1 SLP155 T02221150 56016
K6S0,2023-04-05T20:55:00Z,K6S0 052055Z AUTO 26021KT 10SM CLR 00/M08 A3001 RMK A01
K6S2,2023-04-05T20:55:00Z,K6S2 052055Z AUTO 19010KT 9SM -RA BKN027 BKN033 09/09 A3017 RMK AO2 P0002
K6S8,2023-04-05T20:55:00Z,K6S8 052055Z AUTO 24012KT 10SM 06/M09 A3001 RMK A01 LAUREL
K74V,2023-04-05T20:55:00Z,K74V 052055Z AUTO 23011G16KT 10SM 05/M12 A3009 RMK AO2
K79J,2023-04-05T20:56:00Z,K79J 052056Z AUTO 20006KT 10SM FEW050 32/18 A3007 RMK AO2 SLP178 T03170178 51003
K7BM,2023-04-05T20:55:00Z,K7BM 052055Z AUTO 24013G21KT 210V280 10SM SCT034 SCT043 BKN050 M05/M21 A2993 RMK AO2
K7L2,2023-04-05T20:55:00Z,K7L2 052055Z AUTO 30024G33KT 1 1/2SM -UP VV007 M06/M07 A2993 RMK AO2 VIS 3/4V3
K7W4,2023-04-05T20:55:00Z,K7W4 052055Z AUTO 10SM SCT055 SCT070 30/17 A3003 RMK AO1 T02970167
K7W6,2023-04-05T21:10:00Z,K7W6 052110Z AUTO 17009KT 10SM CLR 24/20 A3016 RMK AO2 T02420196
K81R,2023-04-05T20:55:00Z,K81R 052055Z AUTO 35012G18KT 10SM OVC100 21/M03 A3006 RMK AO2 T02081028
K82C,2023-04-05T20:55:00Z,K82C 052055Z AUTO 25015G29KT 10SM OVC033 05/M02 A2973 RMK AO2 T00461019
K8A0,2023-04-05T20:55:00Z,K8A0 052055Z AUTO 24014G17KT 10SM CLR 29/14 A3006 RMK AO2
K8A3,2023-04-05T20:55:00Z,K8A3 052055Z AUTO 22011G23KT 10SM FEW060 SCT075 27/14 A3000 RMK A01
K8B0,2023-04-05T20:55:00Z,K8B0 052055Z AUTO 14005KT 2SM -SN CLR M04/M06 A3027 RMK AO2 P0015
K8D3,2023-04-05T20:56:00Z,K8D3 052056Z AUTO 30024G35KT M04/M08 A2980 RMK AO1 PK WND 30038/2038 SLP116 T10391083 53023
K8T6,2023-04-05T20:55:00Z,K8T6 052055Z AUTO 02014G23KT 10SM OVC044 25/M01 A2989 RMK AO2
K96D,2023-04-05T20:55:00Z,K96D 052055Z AUTO 33023KT 1SM +UP FEW016 SCT030 SCT037 M06/M06 A2963 RMK AO2
K9D7,2023-04-05T20:55:00Z,K9D7 052055Z AUTO 32032G39KT M1/4SM -SN OVC023 M06/M06 A2972 RMK AO2 TSNO
K9L2,2023-04-05T20:55:00Z,K9L2 052055Z AUTO 04005KT 9SM CLR 14/M12 A3014 RMK AO2 SLP208 T01381116 57015
K9MN,2023-04-05T20:55:00Z,K9MN 052055Z AUTO 26023G37KT 230V290 10SM BKN028 OVC033 00/M07 A2978 RMK AO1 T10011074
K9V9,2023-04-05T20:55:00Z,K9V9 052055Z AUTO 30018G27KT 10SM SCT028 M03/M10 A3006 RMK AO2 T10351098
KA39,2023-04-05T20:55:00Z,KA39 052055Z AUTO 34006KT 10SM BKN100 BKN120 18/M14 A3010 RMK AO2
KAAA,2023-04-05T20:58:00Z,KAAA 052058Z AUTO 29011G19KT 10SM SCT025 10/03 A2994 RMK AO2
KAAF,2023-04-05T20:53:00Z,KAAF 052053Z AUTO 16010KT 10SM CLR 26/22 A3010 RMK AO2 SLP191 T02610222 55008
KAAO,2023-04-05T20:54:00Z,KAAO 052054Z AUTO 31015G19KT 10SM CLR 12/M08 A3010 RMK AO2 SLP198 T01171078 51006
KAAS,2023-04-05T20:55:00Z,KAAS 052055Z AUTO 22024G29KT 10SM BKN060 OVC070 27/15 A2999 RMK AO1
KAAT,2023-04-05T20:55:00Z,KAAT 052055Z AUTO VRB04KT 10SM SCT050 07/M06 A3012 RMK AO2 SLP209 T00671061 58009
KABE,2023-04-05T20:51:00Z,KABE 052051Z AUTO 11012KT 10SM OVC009 12/09 A3011 RMK AO2 SLP198 T01170089 56010
KABH,2023-04-05T20:55:00Z,KABH 052055Z AUTO 00000KT 10SM CLR 03/M17 A3000 RMK AO2 SLP202 T00341175 55003
KABI,2023-04-05T20:52:00Z,KABI 052052Z 02017KT 10SM CLR 16/M05 A3010 RMK AO2 SLP179 T01611050 55005
KABQ,2023-04-05T20:52:00Z,KABQ 052052Z VRB06KT 10SM FEW250 07/M16 A3007 RMK AO2 SLP182 T00721161 56010
KABR,2023-04-05T21:03:00Z,KABR 052103Z AUTO 29022G36KT 2 1/2SM BLSN FEW002 M04/M08 A2990 RMK AO2 PK WND 29036/2101 VIS 1 3/4V4 UPE03 P0000 T10391083
KABY,2023-04-05T20:53:00Z,KABY 052053Z 19009KT 10SM FEW055 SCT070 SCT090 31/18 A3009 RMK AO2 SLP187 T03060183 56010
KACB,2023-04-05T20:55:00Z,KACB 052055Z AUTO 24008G21KT 10SM SCT031 SCT037 OVC044 17/11 A2951 RMK AO2 T01730114
KACK,2023-04-05T20:53:00Z,KACK 052053Z 08010G18KT 4SM -RA BR OVC004 07/06 A3026 RMK AO2 RAB50 SLP248 P0000 60000 T00720061 56018
KACP,2023-04-05T20:55:00Z,KACP 052055Z AUTO 19008G14KT 160V220 7SM SCT030 BKN042 BKN047 28/21 A2992 RMK AO2 LTG DSNT W AND NW
KACQ,2023-04-05T20:55:00Z,KACQ 052055Z AUTO 27025G31KT 10SM OVC027 M01/M05 A2986 RMK AO2
KACT,2023-04-05T20:51:00Z,KACT 052051Z 34014KT 10SM OVC090 19/01 A3004 RMK AO2 SLP166 T01890006 58001
KACV,2023-04-05T20:53:00Z,KACV 052053Z AUTO 26006KT 10SM BKN095 10/04 A3023 RMK AO2 SLP246 T01000044 56004
KACY,2023-04-05T20:54:00Z,KACY 052054Z 15010G17KT 10SM CLR 18/14 A3011 RMK AO2 SLP197 T01830144 58018
KACZ,2023-04-05T21:05:00Z,KACZ 052105Z AUTO 20008KT 10SM CLR 30/16 A3013 RMK AO2 T02950157
KADC,2023-04-05T21:07:00Z,KADC 052107Z AUTO 27013G22KT 1 1/2SM RA SCT011 OVC019 M04/M08 A2964 RMK AO2 TSNO
KADF,2023-04-05T21:08:00Z,KADF 052108Z AUTO 32005KT 10SM BKN030 18/16 A2998 RMK AO2 PRESRR
KADG,2023-04-05T20:53:00Z,KADG 052053Z AUTO 21016G24KT 10SM CLR 20/15 A2975 RMK AO2 SLP076 60035 T02000150 53007
KADH,2023-04-05T20:50:00Z,KADH 052050Z AUTO 36012G18KT 10SM CLR 15/M02 A3009 RMK AO2
KADM,2023-04-05T20:50:00Z,KADM 052050Z 31011KT 10SM CLR 16/M01 A3007
KADS,2023-04-05T20:47:00Z,KADS 052047Z 35011G17KT 13SM SCT150 19/00 A3007
KADT,2023-04-05T20:55:00Z,KADT 052055Z AUTO 31014G27KT 10SM CLR 08/M10 A3013 RMK AO2 T00761104
KADU,2023-04-05T20:55:00Z,KADU 052055Z AUTO 29009G17KT 10SM SCT030 BKN060 OVC090 06/M09 A2998 RMK AO2
KADW,2023-04-05T20:55:00Z,KADW 052055Z AUTO 19015G24KT 10SM FEW170 29/16 A2999 RMK AO2 SLP161 T02890157 56016 $
KAEG,2023-04-05T20:47:00Z,KAEG 052047Z 22009KT 10SM CLR 07/M18 A3007
KAEJ,2023-04-05T20:55:00Z,KAEJ 052055Z AUTO 22015G24KT 10SM SCT090 01/M23 A2995 RMK AO2 T00121231
KAEL,2023-04-05T20:55:00Z,KAEL 052055Z AUTO 27013G21KT 250V310 10SM OVC027 M01/M04 A2985 RMK AO2
KAEX,2023-04-05T21:05:00Z,KAEX 052105Z 33013G17KT 9SM -RA BKN021 BKN039 OVC048 22/19 A2993 RMK AO2 LTG DSNT W-NE RAB05 P0000 T02220189
KAFF,2023-04-05T20:55:00Z,KAFF 052055Z 19014G18KT 10SM VCSH OVC065 02/M14 A2996 RMK AO2A SLP188 T00171140 53001
KAFJ,2023-04-05T20:56:00Z,KAFJ 052056Z AUTO 22015G22KT 10SM CLR 29/11 A2992 RMK AO2 SLP123 T02890111 56010
KAFK,2023-04-05T20:55:00Z,KAFK 052055Z AUTO 31019G24KT 10SM CLR 09/M08 A3003 RMK AO2 T00931081
KAFN,2023-04-05T20:52:00Z,KAFN 052052Z AUTO VRB04KT 10SM OVC017 03/M02 A3028 RMK AO2 SLP267 T00331017 56009
KAFO,2023-04-05T20:55:00Z,KAFO 052055Z AUTO 22005KT 10SM OVC036 M02/M08 A3007 RMK AO2
KAFP,2023-04-05T21:09:00Z,KAFP 052109Z AUTO 18009KT 10SM CLR 28/15 A3010 RMK AO2 T02840150
KAFW,2023-04-05T20:53:00Z,KAFW 052053Z 33011G19KT 10SM FEW180 SCT300 18/00 A3006 RMK AO2 SLP171 T01780000 51004
KAGC,2023-04-05T20:53:00Z,KAGC 052053Z 22019G28KT 10SM FEW075 30/09 A2988 RMK AO2 PK WND 22029/1955 SLP113 T03000094 56015
KAGI,2023-04-05T20:55:00Z,KAGI 052055Z AUTO 13019KT 10SM CLR 30/22 A2991 RMK AO2 T03010223
KAGO,2023-04-05T20:55:00Z,KAGO 052055Z AUTO 27004KT 10SM FEW008 SCT021 OVC080 20/17 A2995 RMK A01 P0005
KAGS,2023-04-05T20:53:00Z,KAGS 052053Z 20009G16KT 10SM SCT070 31/13 A3008 RMK AO2 SLP185 T03060133 56012
KAHN,2023-04-05T20:51:00Z,KAHN 052051Z 22007KT 190V250 10SM FEW060 30/16 A3008 RMK AO2 SLP178 T03000161 58015
KAHQ,2023-04-05T20:55:00Z,KAHQ 052055Z AUTO 28019G23KT 10SM CLR 07/M08 A3005 RMK AO2 T00681084
KAIA,2023-04-05T20:53:00Z,KAIA 052053Z AUTO 31019G30KT 10SM CLR 00/M07 A3004 RMK AO2 PK WND 30032/2025 SLP207 T00001067 53008
KAIG,2023-04-05T20:55:00Z,KAIG 052055Z AUTO 24019G26KT 10SM OVC024 01/M03 A2958 RMK AO2 T00141030
KAIK,2023-04-05T20:55:00Z,KAIK 052055Z AUTO 19008KT 10SM SCT065 BKN080 BKN090 30/16 A3011 RMK AO2 T03000162
KAIO,2023-04-05T20:55:00Z,KAIO 052055Z AUTO 30016G25KT 10SM CLR 06/M07 A2999 RMK AO2
KAIT,2023-04-05T20:55:00Z,KAIT 052055Z AUTO 24013G22KT 7SM -SN SCT018 BKN029 OVC036 M03/M08 A2958 RMK AO2
KAIZ,2023-04-05T20:56:00Z,KAIZ 052056Z AUTO 27011G14KT 10SM FEW002 11/00 RMK AO2 SLPNO T01110000 $
KAJG,2023-04-05T20:55:00Z,KAJG 052055Z AUTO 24012G15KT 10SM -RA SCT012 BKN032 OVC070 18/17 A2990 RMK AO2 T01800167
KAJR,2023-04-05T20:55:00Z,KAJR 052055Z AUTO 18011G15KT 10SM BKN055 OVC080 29/15 A3011 RMK AO2 T02920148
KAJZ,2023-04-05T20:55:00Z,KAJZ 052055Z AUTO 23012G15KT 10SM CLR 06/M10 A3009 RMK AO2 T00561103
KAKH,2023-04-05T20:54:00Z,KAKH 052054Z AUTO 22007KT 190V260 10SM FEW060 BKN080 28/16 A3010 RMK AO2 SLP186 T02780161 56016
KAKO,2023-04-05T20:53:00Z,KAKO 052053Z AUTO 32011G23KT 10SM FEW060 03/M12 A3003 RMK AO2 SLP197 T00331122 55001
KAKQ,2023-04-05T20:54:00Z,KAKQ 052054Z AUTO 20009G17KT 170V230 10SM -RA CLR 29/14 A3009 RMK AO2 RAB1955 SLP187 P0000 60000 T02940139 55013
KAKR,2023-04-05T20:54:00Z,KAKR 052054Z AUTO 22008KT 4SM RA FEW065 BKN090 OVC110 21/17 A2986 RMK AO2 SLP106 P0003 60012 T02060167 50001
KALB,2023-04-05T20:51:00Z,KALB 052051Z 14011G20KT 10SM OVC027 13/03 A3010 RMK AO2 SLP195 T01280033 56017
KALI,2023-04-05T20:53:00Z,KALI 052053Z AUTO 05010KT 10SM OVC026 21/14 A2987 RMK AO2 PK WND 03026/1957 RAB32E43 SLP111 P0000 60000 T02060139 53006
KALK,2023-04-05T20:56:00Z,KALK 052056Z AUTO 04007KT 10SM CLR 15/M19 A3005 RMK AO2 SLP129 T01501194 $
KALM,2023-04-05T20:55:00Z,KALM 052055Z AUTO VRB05G12KT 10SM CLR 13/M24 A3008 RMK AO2
KALN,2023-04-05T20:50:00Z,KALN 052050Z 27014KT 10SM CLR 11/05 A2998
KALO,2023-04-05T20:54:00Z,KALO 052054Z 28018G28KT 10SM OVC036 04/M06 A2992 RMK AO2 PK WND 27031/2027 SLP138 T00391056 53033
KALS,2023-04-05T20:52:00Z,KALS 052052Z AUTO 28011G17KT 10SM OVC090 03/M19 A2997 RMK AO2 SLP160 T00281189 56009
KALW,2023-04-05T20:53:00Z,KALW 052053Z 24012G20KT 10SM CLR 11/M04 A3015 RMK AO2 SLP218 T01061039 56016
KAMA,2023-04-05T20:53:00Z,KAMA 052053Z 05003KT 10SM CLR 12/M09 A3008 RMK AO2 SLP182 T01171094 55003
KAMG,2023-04-05T20:53:00Z,KAMG 052053Z AUTO 20007KT 10SM FEW085 32/16 A3010 RMK AO2 SLP188 T03220161 56011
KAMN,2023-04-05T20:55:00Z,KAMN 052055Z AUTO 18012G17KT 10SM SCT049 21/15 A2962 RMK AO2 T02110154
KAMW,2023-04-05T20:53:00Z,KAMW 052053Z AUTO 29017G33KT 10SM FEW045 07/M06 A2997 RMK AO2 PK WND 27033/2045 SLP151 T00671056 53028
KANB,2023-04-05T20:53:00Z,KANB 052053Z AUTO 24011KT 10SM CLR 31/13 A3005 RMK AO2 SLP167 T03060128 58003
KAND,2023-04-05T20:56:00Z,KAND 052056Z AUTO 18010KT 10SM FEW060 29/17 A3008 RMK AO2 SLP177 T02940167 58016
KANE,2023-04-05T20:54:00Z,KANE 052054Z 25016G27KT 10SM OVC033 M01/M07 A2973
KANJ,2023-04-05T20:55:00Z,KANJ 052055Z AUTO 11013G27KT 10SM OVC006 03/02 A2951 RMK AO2 PK WND 12033/2029 SLP999 T00280022 56023
KANK,2023-04-05T20:50:00Z,KANK 052050Z AUTO 29012G20KT 240V310 10SM SCT095 03/M28 A3004 RMK AO1 T00341279
KANQ,2023-04-05T20:55:00Z,KANQ 052055Z AUTO 23025G32KT 10SM BKN035 BKN041 20/13 A2975 RMK AO2
KANW,2023-04-05T20:55:00Z,KANW 052055Z AUTO 31017G27KT 10SM SCT034 SCT040 M01/M10 A3005 RMK AO2 T10111104
KAOH,2023-04-05T20:53:00Z,KAOH 052053Z AUTO 21013G19KT 8SM -RA SCT080 OVC095 17/15 A2987 RMK AO2 RAB05 PRESRR SLP109 P0011 60029 T01720150 53015
KAOO,2023-04-05T20:53:00Z,KAOO 052053Z AUTO 16011KT 10SM FEW075 SCT100 26/14 A2995 RMK AO2 RAB08E17 SLP135 P0000 60000 T02610144 56013
KAPA,2023-04-05T20:53:00Z,KAPA 052053Z 35012KT 10SM FEW030 SCT075 BKN110 BKN200 02/M11 A2998 RMK AO2 SLP198 VIRGA DSNT NW-N T00221106 53002
KAPC,2023-04-05T20:54:00Z,KAPC 052054Z 22008KT 10SM CLR 14/04 A3022 RMK AO2 SLP225 T01440044 58007
KAPF,2023-04-05T20:53:00Z,KAPF 052053Z 20011KT 10SM SCT070 32/20 A3003 RMK AO2 SLP167 T03170200 56017
KAPG,2023-04-05T20:55:00Z,KAPG 052055Z 17010KT 10SM BKN060 BKN200 28/16 A3002 RMK AO2A LAST AO2A SLP168
KAPN,2023-04-05T20:54:00Z,KAPN 052054Z AUTO 11007KT 1/2SM FG OVC002 06/06 A2956 RMK AO2 SLP015 T00610061 56026
KAPS,2023-04-05T21:02:00Z,KAPS 052102Z AUTO 18017G21KT 10SM SCT032 SCT041 29/21 A2997 RMK AO2
KAPY,2023-04-05T20:55:00Z,KAPY 052055Z AUTO 36011G21KT 10SM SCT030 SCT035 SCT044 27/09 A2987 RMK AO2 60001 T02660089 TSNO
KAQO,2023-04-05T20:55:00Z,KAQO 052055Z AUTO 36010G16KT 10SM FEW095 22/M06 A3003 RMK AO2
KAQP,2023-04-05T20:53:00Z,KAQP 052053Z AUTO 00000KT 10SM M03/M07 A2982 RMK AO2
KAQV,2023-04-05T21:05:00Z,KAQV 052105Z AUTO VRB03KT 3/4SM +TSRA BR FEW029 OVC038 18/17 A2995 RMK AO2 P0015 T01780167
KAQW,2023-04-05T20:52:00Z,KAQW 052052Z AUTO 10SM OVC025 A3019 RMK AO2 SLPNO 57010 TSNO $
KAQX,2023-04-05T20:55:00Z,KAQX 052055Z AUTO VRB05G10KT 10SM SCT060 SCT075 31/16 A3010 RMK AO2
KARA,2023-04-05T20:53:00Z,KARA 052053Z 18015G26KT 10SM SCT023 SCT031 28/21 A2995 RMK AO2 PK WND 17026/2046 SLP141 T02780211 55000
KARB,2023-04-05T20:53:00Z,KARB 052053Z 20008KT 10SM FEW044 FEW070 SCT110 18/16 A2974 RMK AO2 RAB42E51 SLP070 P0000 60007 T01830156 53001
KARG,2023-04-05T20:56:00Z,KARG 052056Z AUTO 28013KT 10SM SCT017 17/14 A2995 RMK AO2 RAE34 SLP142 P0000 60018 T01670139 55003
KARM,2023-04-05T20:55:00Z,KARM 052055Z AUTO 36015G22KT 7SM RA BKN023 OVC030 17/17 A2993 RMK AO2 T01710171 TSNO
KARR,2023-04-05T20:52:00Z,KARR 052052Z 27025G35KT 10SM BKN026 08/03 A2982 RMK AO2 PK WND 26036/2020 SLP096 T00780033 51052
KART,2023-04-05T21:08:00Z,KART 052108Z AUTO 10003KT 1 1/2SM +RA BR BKN039 BKN050 OVC065 04/03 A2990 RMK AO2 P0008 T00390033
KARV,2023-04-05T20:55:00Z,KARV 052055Z AUTO 23020G29KT 10SM BKN026 OVC034 00/M04 A2951 RMK AO2 T00041045
KARW,2023-04-05T20:55:00Z,KARW 052055Z AUTO 18009KT 10SM SCT018 26/21 A3014 RMK AO2
KASD,2023-04-05T20:53:00Z,KASD 052053Z AUTO 16012G22KT 10SM FEW023 29/23 A2998 RMK AO2 SLP153 T02890233 58017
KASE,2023-04-05T21:00:00Z,KASE 052100Z 34006KT 9SM UP OVC036 M03/M14 A3001 RMK AO2 UPB2059SNE2059 P0000 T10331139
KASG,2023-04-05T20:48:00Z,KASG 052048Z 3008G15KT 10SM CLR 11/03 A3007
KASH,2023-04-05T20:56:00Z,KASH 052056Z 12008KT 10SM OVC019 04/01 A3034 RMK AO2 SLP281 T00390006 56017
KASJ,2023-04-05T21:05:00Z,KASJ 052105Z AUTO 23008G14KT 10SM CLR 29/15 A3011 RMK AO2 T02850147
KASL,2023-04-05T20:55:00Z,KASL 052055Z AUTO 31009KT 10SM FEW340 18/13 A2996 RMK AO2 T01800131 $
KASN,2023-04-05T20:55:00Z,KASN 052055Z AUTO 21010G17KT 10SM CLR 30/13 A3007 RMK AO2 LTG DSNT N T03010129
KAST,2023-04-05T20:55:00Z,KAST 052055Z AUTO 20005KT 9SM -RA FEW029 OVC043 09/06 A3013 RMK AO2 SLP204 P0000 60000 T00890061 58007
KASW,2023-04-05T20:55:00Z,KASW 052055Z AUTO 23010G26KT 10SM OVC024 17/13 A2977 RMK AO2 T01800135
KASX,2023-04-05T21:02:00Z,KASX 052102Z AUTO 22028G39KT 10SM FEW026 OVC034 00/M06 A2951 RMK AO2 PK WND 22039/2102 T00001061
KATA,2023-04-05T20:55:00Z,KATA 052055Z AUTO 29009KT 10SM SCT100 BKN170 17/11 A2999 RMK AO2 SLP054 T01750114 $
KATL,2023-04-05T20:52:00Z,KATL 052052Z 21009KT 10SM SCT055 BKN075 BKN200 BKN250 29/16 A3009 RMK AO2 SLP179 MDT CU NE E-S-SW T02940161 56010
KATP,2023-04-05T20:55:00Z,KATP 052055Z AUTO 15014KT 3SM HZ CLR 26/23 A2996 RMK A01
KATS,2023-04-05T20:55:00Z,KATS 052055Z AUTO 02005KT 10SM CLR 15/M17 A3006 RMK AO2
KATT,2023-04-05T20:51:00Z,KATT 052051Z AUTO 01009G24KT 10SM BKN070 BKN100 22/ A3001 RMK AO2 PK WND 02026/2039 SLP152 T0222 56002 $
KATW,2023-04-05T20:45:00Z,KATW 052045Z 27022G28KT 10SM BKN032 08/01 A2961
KATY,2023-04-05T21:01:00Z,KATY 052101Z AUTO 27026G36KT 2SM -SN SCT017 OVC026 M05/M08 A2985 RMK AO2 PK WND 28036/2100 P0000 T10501083
KAUG,2023-04-05T20:53:00Z,KAUG 052053Z AUTO 15007KT 10SM OVC045 03/M13 A3037 RMK AO2 SLP287 T00281133 58017
KAUH,2023-04-05T20:55:00Z,KAUH 052055Z AUTO 30019G28KT 10SM CLR 06/M10 A3007 RMK AO2 T00551097
KAUM,2023-04-05T20:55:00Z,KAUM 052055Z AUTO 27020G27KT 10SM OVC029 01/M05 A2984 RMK AO2
KAUN,2023-04-05T20:55:00Z,KAUN 052055Z AUTO 26008KT 10SM CLR 13/M01 A3019 RMK A01
KAUO,2023-04-05T20:53:00Z,KAUO 052053Z AUTO 19013KT 10SM SCT065 BKN080 29/19 A3010 RMK AO2 SLP182 T02940189 55006
KAUS,2023-04-05T20:53:00Z,KAUS 052053Z 02020G25KT 10SM BKN065 OVC100 22/01 A2998 RMK AO2 PK WND 36028/2021 SLP145 T02170006 50000 $
KAUW,2023-04-05T20:54:00Z,KAUW 052054Z AUTO 23020G34KT 10SM OVC033 03/M04 A2962 RMK AO2 PK WND 26037/2026 SLP044 T00331044 51048
KAVC,2023-04-05T20:55:00Z,KAVC 052055Z AUTO 18011G17KT 10SM SCT050 29/18 A3014 RMK AO2 T02900180
KAVK,2023-04-05T21:00:00Z,KAVK 052100Z AUTO 33012G19KT 10SM CLR 14/M10 A3010 RMK AO2 PWINO
KAVL,2023-04-05T20:54:00Z,KAVL 052054Z 18009G24KT 10SM FEW050 26/14 A3014 RMK AO2 SLP182 T02610139 57009
KAVP,2023-04-05T20:54:00Z,KAVP 052054Z 00000KT 8SM BKN018 18/13 A3006 RMK AO2 SLP177 T01780128 58006
KAVQ,2023-04-05T20:55:00Z,KAVQ 052055Z AUTO 33007KT 10SM 19/M18 A3003 RMK AO2 T01921177
KAVX,2023-04-05T20:51:00Z,KAVX 052051Z AUTO 01005KT 10SM CLR 14/02 A3012 RMK AO2 SLP196 T01390017 58005
KAWG,2023-04-05T20:55:00Z,KAWG 052055Z AUTO 28017G27KT 10SM FEW038 07/M00 A2995 RMK AO2
KAWM,2023-04-05T20:53:00Z,KAWM 052053Z AUTO 18005KT 6SM -RA BR FEW065 SCT075 OVC100 19/17 A2998 RMK AO2 SLP150 P0001 60016 T01890172 51027
KAWO,2023-04-05T20:56:00Z,KAWO 052056Z AUTO 16009G16KT 10SM CLR 11/M01 A3015 RMK AO2 SLP216 T01061011 56016
KAXA,2023-04-05T20:55:00Z,KAXA 052055Z AUTO 29023G32KT 10SM 01/M04 A2991 RMK A01
KAXH,2023-04-05T20:55:00Z,KAXH 052055Z AUTO 35012G17KT 7SM RA OVC018 20/19 A2991 RMK AO2 LTG DSNT N AND NE 60001 T01960188
KAXN,2023-04-05T21:05:00Z,KAXN 052105Z AUTO 27026G36KT 3SM -SN BKN018 OVC025 M06/M09 A2971 RMK AO2 PK WND 27036/2104 P0000 T10561094
KAXS,2023-04-05T20:55:00Z,KAXS 052055Z AUTO 02008G14KT 10SM CLR 15/M07 A3012 RMK AO2 T01521066
KAXV,2023-04-05T20:55:00Z,KAXV 052055Z AUTO 18011G16KT 7SM -RA SCT075 OVC090 16/15 A2988 RMK AO2
KAXX,2023-04-05T20:55:00Z,KAXX 052055Z AUTO 22009KT 10SM CLR 01/M14 A3000 RMK AO2 T00061144
KAYS,2023-04-05T20:55:00Z,KAYS 052055Z AUTO 25006KT 10SM CLR 33/14 A3010 RMK AO2 T03260144
KAZC,2023-04-05T20:55:00Z,KAZC 052055Z AUTO 02006KT 10SM CLR 06/M13 A3016 RMK AO2
KAZE,2023-04-05T20:55:00Z,KAZE 052055Z AUTO 00000KT 10SM 30/16 A3009 RMK AO2 T02990158
KAZO,2023-04-05T20:53:00Z,KAZO 052053Z 23016G25KT 10SM FEW035 BKN045 21/13 A2969 RMK AO2 PK WND 22034/2011 SLP050 60000 T02110133 53024
KBAB,2023-04-05T20:55:00Z,KBAB 052055Z 25005KT 10SM CLR 15/01 A3020 RMK AO2A SLP230 T01490011 57011 $
KBAC,2023-04-05T20:55:00Z,KBAC 052055Z AUTO 29027G33KT M1/4SM +SN FZFG OVC017 M06/M06 A2973 RMK AO2
KBAD,2023-04-05T21:05:00Z,KBAD 052105Z AUTO 30010KT 10SM BKN014 OVC025 20/17 A2995 RMK AO2 SLP145
KBAF,2023-04-05T20:53:00Z,KBAF 052053Z 08006KT 10SM OVC025 09/02 A3024 RMK AO2 SLP245 T00890022 56013
KBAK,2023-04-05T20:45:00Z,KBAK 052045Z 20007KT 7SM -RA SCT026 BKN050 OVC090 15/14 A2990
KBAM,2023-04-05T20:55:00Z,KBAM 052055Z AUTO 21003KT 10SM SCT048 BKN060 BKN075 03/M07 A3019 RMK AO1
KBAN,2023-04-05T20:52:00Z,KBAN 052052Z AUTO 00000KT 10SM CLR 01/M14 A3009 RMK AO2 SLP221 T00061139 55000 $
KBAX,2023-04-05T20:55:00Z,KBAX 052055Z AUTO 18010G17KT 10SM CLR 20/17 A2963 RMK AO2 T01950169
KBAZ,2023-04-05T20:51:00Z,KBAZ 052051Z 02020G29KT 10SM FEW055 BKN095 22/01 A2994 RMK AO2 PK WND 02029/2046 SLP130 T02220006 58011
KBBB,2023-04-05T20:56:00Z,KBBB 052056Z AUTO 32013KT 10SM SCT023 OVC030 M04/M08 A2980 RMK AO2
KBBD,2023-04-05T20:55:00Z,KBBD 052055Z AUTO 01011G19KT 330V040 10SM CLR 19/M06 A3006 RMK AO2
KBBG,2023-04-05T20:45:00Z,KBBG 052045Z 28005KT 10SM CLR 11/02 A3005
KBBP,2023-04-05T20:55:00Z,KBBP 052055Z AUTO 18008KT 10SM SCT055 30/17 A3011 RMK AO2
KBBW,2023-04-05T20:53:00Z,KBBW 052053Z AUTO 31020G27KT 10SM FEW047 04/M10 A3005 RMK AO2 PK WND 30029/2000 SLP200 T00391100 53010
KBCB,2023-04-05T20:55:00Z,KBCB 052055Z AUTO 20010G19KT 140V250 10SM BKN049 26/15 A3012 RMK AO2 T02560150
KBCE,2023-04-05T20:53:00Z,KBCE 052053Z AUTO 31008KT 270V360 10SM BKN065 M03/M13 A3007 RMK AO2 SLP218 60000 T10331133 53002
KBCK,2023-04-05T20:55:00Z,KBCK 052055Z AUTO 25013G24KT 10SM OVC030 03/M07 A2976 RMK AO2 T00261066
KBCR,2023-04-05T20:58:00Z,KBCR 052058Z AUTO 19009KT 10SM CLR 30/19 A3008 RMK AO2 SLP145 T03000194 55000
KBCT,2023-04-05T20:53:00Z,KBCT 052053Z 13012G18KT 10SM SCT030 29/21 A3010
KBDE,2023-04-05T21:04:00Z,KBDE 052104Z AUTO 32011KT 2 1/2SM -SN SCT017 OVC032 M04/M08 A2945 RMK AO2 P0000 T10391078
KBDG,2023-04-05T20:55:00Z,KBDG 052055Z AUTO 22007KT 10SM 04/M16 A3015 RMK AO1 T00401156
KBDH,2023-04-05T20:55:00Z,KBDH 052055Z AUTO 27023G28KT 7SM -SN SCT025 OVC032 M03/M07 A2982 RMK AO2
KBDL,2023-04-05T20:51:00Z,KBDL 052051Z 11007KT 10SM OVC023 10/04 A3025 RMK AO2 SLP243 T01000039 56013
KBDN,2023-04-05T20:55:00Z,KBDN 052055Z AUTO 19007G12KT 10SM CLR 08/M10 A3009 RMK AO2
KBDR,2023-04-05T20:52:00Z,KBDR 052052Z 09018KT 5SM -RA BR OVC006 07/06 A3023 RMK AO2 PK WND 09026/1955 RAB49 SLP235 P0000 60000 T00720056 58016
KBDU,2023-04-05T20:55:00Z,KBDU 052055Z AUTO 36009KT 10SM SCT080 SCT090 02/M06 A3001 RMK AO2
KBEC,2023-04-05T20:55:00Z,KBEC 052055Z AUTO 31011G15KT 10SM CLR 11/M08 A3010 RMK AO2 T01111080
KBED,2023-04-05T20:51:00Z,KBED 052051Z 08012KT 7SM OVC019 05/00 A3032 RMK AO2 SLP282 T00500000 56018
KBEH,2023-04-05T20:53:00Z,KBEH 052053Z AUTO 26021G32KT 10SM BKN050 11/08 A2976 RMK AO2 PK WND 25041/2001 SLP075 T01110078 53050
KBFD,2023-04-05T20:53:00Z,KBFD 052053Z AUTO 21009G20KT 10SM SCT070 BKN085 27/11 A2990 RMK AO2 SLP114 T02720111 55003
KBFF,2023-04-05T20:53:00Z,KBFF 052053Z AUTO 30017G22KT 10SM CLR 02/M09 A3007 RMK AO2 PK WND 31026/2010 SLP211 T00221094 53003
KBFI,2023-04-05T20:53:00Z,KBFI 052053Z 21005KT 10SM SCT060 10/01 A3015 RMK AO2 SLP210 T01000006 56013
KBFL,2023-04-05T20:54:00Z,KBFL 052054Z 35008G17KT 10SM CLR 17/01 A3016 RMK AO2 SLP211 T01670006 58016
KBFM,2023-04-05T20:53:00Z,KBFM 052053Z 16010KT 10SM BKN010 BKN020 26/22 A3007 RMK AO2 SLP180 T02560222 58004
KBFR,2023-04-05T20:55:00Z,KBFR 052055Z AUTO 26008KT 7SM TSRA SCT021 BKN039 OVC050 16/13 A2990 RMK AO2 P0023 LTG DSNT ALQS
KBGD,2023-04-05T20:51:00Z,KBGD 052051Z AUTO 35007G16KT 320V050 10SM CLR 13/M11 A3011 RMK AO2 SLP190 T01281106 55008 $
KBGE,2023-04-05T20:55:00Z,KBGE 052055Z AUTO 15009KT 10SM BKN050 BKN075 BKN095 31/21 A3008 RMK AO2 T03080209
KBGF,2023-04-05T20:55:00Z,KBGF 052055Z AUTO 23020KT 10SM SCT065 BKN075 BKN090 29/14 A3001 RMK A01
KBGM,2023-04-05T20:53:00Z,KBGM 052053Z 18015G25KT 10SM FEW100 19/13 A2995 RMK AO2 PK WND 18028/2033 RAE01 SLP140 P0000 60000 T01890128 58022
KBGR,2023-04-05T20:53:00Z,KBGR 052053Z 07004KT 10SM -RA OVC050 01/M07 A3037 RMK AO2 RAE03B47PLE1959 SLP288 P0000 60000 T00111072 58022
KBHB,2023-04-05T20:56:00Z,KBHB 052056Z AUTO VRB05KT 10SM OVC050 02/M11 A3040 RMK AO2 SLP297 T00171106 56019 FZRANO
KBHC,2023-04-05T20:55:00Z,KBHC 052055Z AUTO 17004KT 10SM SCT070 SCT090 30/15 A3010 RMK AO2
KBHK,2023-04-05T20:51:00Z,KBHK 052051Z AUTO 31014G22KT 10SM CLR M02/M12 A3001 RMK AO2 PK WND 32027/1956 SLP200 T10171117 58003
KBHM,2023-04-05T20:53:00Z,KBHM 052053Z 21012G19KT 10SM SCT070 BKN250 30/16 A3007 RMK AO2 SLP173 T03000161 58000
KBID,2023-04-05T20:56:00Z,KBID 052056Z AUTO 07011G19KT 8SM OVC007 06/04 A3027 RMK AO2 SLP252 T00560039 57013
KBIE,2023-04-05T20:55:00Z,KBIE 052055Z AUTO 30018G27KT 10SM CLR 09/M08 A3005 RMK AO2 T00921084
KBIF,2023-04-05T20:55:00Z,KBIF 052055Z AUTO 05005KT 10SM FEW350 13/M15 A3005 RMK AO2 SLP149 T01341155 $
KBIH,2023-04-05T20:56:00Z,KBIH 052056Z AUTO VRB06KT 10SM CLR 11/M12 A3011 RMK AO2 SLP191 T01111117 58015
KBIL,2023-04-05T20:53:00Z,KBIL 052053Z 26006G17KT 10SM SCT060 BKN150 06/M13 A3000 RMK AO2 SLP186 T00561128 56013
KBIS,2023-04-05T20:52:00Z,KBIS 052052Z 30023G39KT 10SM CLR M04/M11 A2992 RMK AO2 PK WND 29041/2022 UPE04B18E47SNB26E35 SLP160 P0004 60010 T10391106 53017
KBIV,2023-04-05T20:53:00Z,KBIV 052053Z AUTO 26021G35KT 10SM FEW017 BKN023 OVC035 12/09 A2971 RMK AO2 PK WND 23041/1957 SLP061 T01220089 53041
KBIX,2023-04-05T20:55:00Z,KBIX 052055Z 15009KT 10SM SCT014 26/23 A3000 RMK AO2A SLP162 T02610227 58007
KBJC,2023-04-05T20:48:00Z,KBJC 052048Z 34013KT 10SM FEW120 SCT200 04/M06 A2999
KBJI,2023-04-05T20:55:00Z,KBJI 052055Z AUTO 27020G24KT 3SM -SN SCT024 BKN030 OVC038 M05/M09 A2953 RMK AO2 T10541089
KBJJ,2023-04-05T20:56:00Z,KBJJ 052056Z AUTO 25009KT 5SM -RA BR FEW050 OVC095 19/18 A2988 RMK AO2 SLP115 P0007 60019 T01890178 50004
KBKB,2023-04-05T20:52:00Z,KBKB 052052Z AUTO VRB05KT 10SM SCT030 SCT035 BKN044 27/21 A2990 RMK AO2 SLP148 60005 T02670211 58005
KBKD,2023-04-05T20:55:00Z,KBKD 052055Z AUTO 36006G14KT 10SM CLR 16/M02 A3011 RMK AO2 T01621024
KBKE,2023-04-05T20:53:00Z,KBKE 052053Z AUTO 12010G17KT 10SM CLR 07/M10 A3013 RMK AO2 SLP223 T00671100 56010
KBKF,2023-04-05T20:58:00Z,KBKF 052058Z 30009KT 10SM FEW035 SCT060 BKN140 BKN200 03/M14 A2997 RMK AO2A SLP179 T00331139 55000
KBKL,2023-04-05T20:53:00Z,KBKL 052053Z 20015G29KT 7SM -RA FEW037 SCT050 OVC080 21/17 A2983 RMK AO2 PK WND 21029/2047 RAE30B48 SLP099 P0001 60003 T02110172 51012
KBKN,2023-04-05T20:55:00Z,KBKN 052055Z AUTO 34013KT CLR 13/M07 A3012 RMK AO2
KBKS,2023-04-05T20:55:00Z,KBKS 052055Z AUTO 02016G27KT 6SM -RA BR FEW006 BKN021 OVC026 18/18 A2984 RMK AO2 SLP065 P0000 T01780178 $
KBKT,2023-04-05T20:55:00Z,KBKT 052055Z AUTO 20013G18KT 10SM SCT055 29/16 A3007 RMK AO1 T02900158
KBKV,2023-04-05T20:53:00Z,KBKV 052053Z 12009G15KT 10SM SCT070 33/16 A3007 RMK AO2 SLP180 T03280161 56016
KBKW,2023-04-05T20:51:00Z,KBKW 052051Z AUTO 20015G21KT 180V240 10SM SCT075 27/12 A3004 RMK AO2 SLP137 T02720117 56014
KBKX,2023-04-05T20:56:00Z,KBKX 052056Z AUTO 29024G39KT 9SM -SN BKN018 OVC025 M04/M08 A2989 RMK AO2 PK WND 28039/2047 SLPNO P0000 60000 T10441078 53025 FZRANO
KBLF,2023-04-05T20:52:00Z,KBLF 052052Z AUTO 17009G17KT 10SM FEW060 25/13 A3009 RMK AO2 SLP154 T02500133 56014
KBLI,2023-04-05T20:53:00Z,KBLI 052053Z 18010G16KT 10SM BKN045 BKN120 10/02 A3014 RMK AO2 SLP214 T01000022 56010
KBLM,2023-04-05T20:56:00Z,KBLM 052056Z AUTO 05011KT 1/2SM UP OVC003 A3017 RMK AO2 SLPNO P0000 60000 56020 FZRANO RVRNO $
KBLU,2023-04-05T20:52:00Z,KBLU 052052Z AUTO 10SM CLR 05/M08 A3014 RMK AO2 SLP213 T00501083 50001
KBLV,2023-04-05T20:55:00Z,KBLV 052055Z 29013KT 10SM SCT015 OVC200 12/06 A2997 RMK AO2A SLP150 T01160059 52047 $
KBMC,2023-04-05T20:55:00Z,KBMC 052055Z AUTO 17013G17KT 10SM OVC048 02/M07 A3018 RMK AO1 T00201069
KBMG,2023-04-05T21:06:00Z,KBMG 052106Z VRB05KT 8SM -RA BKN009 BKN090 OVC110 17/15 A2989 RMK AO2 LTG DSNT ALQDS P0001 T01670150
KBMI,2023-04-05T20:56:00Z,KBMI 052056Z 27015G25KT 10SM SCT022 09/03 A2992 RMK AO2 PK WND 29027/2002 SLP128 60001 T00890033 53051
KBML,2023-04-05T20:52:00Z,KBML 052052Z AUTO 13014G18KT 3SM -FZRA OVC031 01/M05 A3023 RMK AO2 RAB32E42FZRAB42 SLP251 P0004 60004 I1002 I3002 T00061050 56029
KBMQ,2023-04-05T20:53:00Z,KBMQ 052053Z AUTO 01012G24KT 10SM BKN080 21/M03 A3004 RMK AO2 SLP157 T02111028 58006
KBMT,2023-04-05T20:55:00Z,KBMT 052055Z AUTO 18010G15KT 10SM SCT024 SCT029 SCT037 27/24 A2989 RMK AO2 LTG DSNT NW THRU NE T02660237
KBNA,2023-04-05T20:53:00Z,KBNA 052053Z 21011G26KT 10SM SCT070 BKN095 OVC250 28/15 A2996 RMK AO2 PK WND 21030/1956 LTG DSNT SW-NW SLP139 T02830150 58003
KBNL,2023-04-05T20:55:00Z,KBNL 052055Z AUTO VRB06G12KT 10SM BKN065 BKN075 32/16 A3011 RMK AO2
KBNO,2023-04-05T20:53:00Z,KBNO 052053Z AUTO 14004KT 10SM OVC055 03/M06 A3016 RMK AO2 SLP241 T00281056 56007
KBNW,2023-04-05T20:55:00Z,KBNW 052055Z AUTO 29019G26KT 10SM SCT043 05/M06 A2998 RMK AO2
KBOI,2023-04-05T20:53:00Z,KBOI 052053Z 10SM FEW065 09/M10 A3018 RMK AO2 SLP232 T00891100 56004
KBOK,2023-04-05T20:56:00Z,KBOK 052056Z AUTO 14008KT 10SM BKN014 BKN050 OVC060 08/05 A3024 RMK AO2 RAE00 SLP241 P0000 6//// T00830050 58001
KBOS,2023-04-05T20:54:00Z,KBOS 052054Z 08010KT 10SM OVC016 05/02 A3035 RMK AO2 SLP275 T00500017 55017
KBOW,2023-04-05T20:45:00Z,KBOW 052045Z 10010G19KT 10SM FEW065 32/16 A3008
KBPC,2023-04-05T20:55:00Z,KBPC 052055Z AUTO 02012G18KT 10SM CLR 12/M11 A3011 RMK AO2
KBPG,2023-04-05T20:55:00Z,KBPG 052055Z AUTO 31010G15KT 10SM CLR 19/M17 A3005 RMK AO2 T01911173
KBPI,2023-04-05T20:53:00Z,KBPI 052053Z AUTO 19008KT 10SM FEW039 BKN049 OVC060 M06/M10 A3003 RMK AO2 SLP218 T10611100 53003
KBPK,2023-04-05T20:53:00Z,KBPK 052053Z AUTO 36008KT 10SM CLR 13/03 A3001 RMK AO2 SLP156 T01280033 50018
KBPT,2023-04-05T20:53:00Z,KBPT 052053Z 18013G18KT 9SM BKN023 BKN031 OVC039 27/23 A2990 RMK AO2 LTG DSNT N AND NW SLP124 T02720228 58008
KBQK,2023-04-05T20:55:00Z,KBQK 052055Z AUTO 15013G20KT 10SM CLR 28/19 A3013 RMK AO2 T02790194
KBQP,2023-04-05T20:55:00Z,KBQP 052055Z AUTO 11006KT 4SM VCTSRA SCT065 BKN075 OVC090 18/18 A2998 RMK AO2 LTG DSNT ALQDS 6//// T01780175
KBQX,2023-04-05T20:55:00Z,KBQX 052055Z AUTO 18007KT 2SM BR BKN070 24/23 A2987 RMK A01
KBRD,2023-04-05T21:04:00Z,KBRD 052104Z AUTO 26018G29KT 2SM -SN FEW023 BKN031 OVC040 M03/M08 A2961 RMK AO2 PK WND 27029/2104 VIS 1 1/4V4 P0000 T10331083
KBRG,2023-04-05T20:55:00Z,KBRG 052055Z AUTO 36003KT 10SM CLR 10/M21 A3007 RMK AO2 T00951206
KBRL,2023-04-05T20:53:00Z,KBRL 052053Z AUTO 29010G18KT 10SM SCT038 09/01 A2994 RMK AO2 SLP138 T00890006 51033
KBRO,2023-04-05T20:53:00Z,KBRO 052053Z 16012KT 10SM OVC031 29/23 A2979 RMK AO2 SLP085 T02890228 58004
KBRY,2023-04-05T20:55:00Z,KBRY 052055Z AUTO 24010G19KT 10SM OVC065 28/15 A2989 RMK AO2 T02750152
KBTA,2023-04-05T20:55:00Z,KBTA 052055Z AUTO 28018G26KT 10SM CLR 06/M08 A3002 RMK AO2 T00571079
KBTL,2023-04-05T20:53:00Z,KBTL 052053Z 23015G26KT 10SM BKN041 BKN050 21/13 A2969 RMK AO2 PK WND 21030/2000 SLP050 60000 T02110133 53002
KBTM,2023-04-05T20:53:00Z,KBTM 052053Z AUTO 31008KT 10SM SCT070 00/M12 A3001 RMK AO2 UPB43E53 SLP227 P0000 60000 T00001117 57007
KBTN,2023-04-05T20:55:00Z,KBTN 052055Z AUTO 29028G35KT 3/4SM UP BR OVC021 M06/M06 A2982 RMK AO2 VIS 1/2V1 1/2
KBTP,2023-04-05T20:56:00Z,KBTP 052056Z AUTO 21010G17KT 10SM CLR 27/12 A2990 RMK AO2 SLP121 T02720122 56010 TSNO $
KBTR,2023-04-05T20:53:00Z,KBTR 052053Z 18015G24KT 10SM FEW040 30/21 A2995 RMK AO2 PK WND 16027/2040 SLP139 T03000206 58008
KBTV,2023-04-05T21:09:00Z,KBTV 052109Z 14010KT 5SM RA BR OVC031 06/03 A3008 RMK AO2 TSE09 P0003 T00560033
KBUF,2023-04-05T20:54:00Z,KBUF 052054Z 32015G31KT 10SM -RA FEW020 BKN060 BKN070 OVC130 15/13 A2987 RMK AO2 PK WND 33031/2049 RAB49 SLP115 P0000 60006 T01500128 53016
KBUR,2023-04-05T20:53:00Z,KBUR 052053Z VRB03KT 10SM CLR 18/M04 A3009 RMK AO2 SLP181 T01781039 58014
KBUU,2023-04-05T20:55:00Z,KBUU 052055Z AUTO 26014G27KT 10SM CLR 08/02 A2974 RMK AO2 T00830020 PWINO
KBUY,2023-04-05T20:54:00Z,KBUY 052054Z AUTO 18012G18KT 10SM CLR 29/16 A3009 RMK AO2 SLP183 T02940156 56014
KBVI,2023-04-05T20:55:00Z,KBVI 052055Z AUTO 25006KT 10SM CLR 27/10 A2990 RMK AO2 T02650096
KBVN,2023-04-05T20:55:00Z,KBVN 052055Z AUTO 31022G30KT CLR 04/M11 A3005 RMK AO2 6//// T00381108
KBVO,2023-04-05T20:53:00Z,KBVO 052053Z AUTO VRB03G14KT 10SM CLR 14/M04 A3012 RMK AO2 SLP196 T01441039 50004
KBVS,2023-04-05T20:55:00Z,KBVS 052055Z AUTO 15011G18KT 10SM BKN046 11/M00 A3015 RMK A01
KBVU,2023-04-05T20:55:00Z,KBVU 052055Z AUTO 06008G17KT 10SM CLR 13/M17 A3016 RMK AO2
KBVX,2023-04-05T21:05:00Z,KBVX 052105Z AUTO VRB06KT 10SM BKN015 15/13 A2998 RMK AO2
KBVY,2023-04-05T20:53:00Z,KBVY 052053Z 08005KT 10SM OVC019 04/M01 A3034 RMK AO2 SLP270 T00391006 55017
KBWD,2023-04-05T20:55:00Z,KBWD 052055Z AUTO 01008G15KT 10SM CLR 19/M04 A3008 RMK AO1
KBWG,2023-04-05T21:02:00Z,KBWG 052102Z AUTO 26015G41KT 220V280 1 3/4SM +TSRA FEW035 BKN060 OVC090 23/17 A2998 RMK AO2 PK WND 27040/2056 LTG DSNT SW-N RAB2056 PRESRR P0010 T02280172
KBWI,2023-04-05T20:54:00Z,KBWI 052054Z 13010G17KT 10SM FEW070 FEW170 BKN250 27/17 A3000 RMK AO2 SLP158 T02720167 55013
KBWP,2023-04-05T20:55:00Z,KBWP 052055Z AUTO 28017G25KT 1SM UP BR SCT025 BKN032 OVC075 M05/M07 A2975 RMK AO2
KBWW,2023-04-05T20:55:00Z,KBWW 052055Z AUTO 32020G26KT 10SM CLR M03/M13 A2998 RMK AO2
KBXA,2023-04-05T20:55:00Z,KBXA 052055Z AUTO 18010G15KT 10SM BKN032 BKN042 BKN050 30/21 A2999 RMK AO2 T03020213
KBXK,2023-04-05T20:55:00Z,KBXK 052055Z AUTO VRB03KT 10SM CLR 19/M14 A3009 RMK A01
KBYG,2023-04-05T20:53:00Z,KBYG 052053Z AUTO 20003KT 10SM CLR M04/M10 A2999 RMK AO2 SLP203 T10441100 58000
KBYH,2023-04-05T20:50:00Z,KBYH 052050Z 23009KT 10SM SCT080 BKN110 OVC150 22/19 A2997 RMK LAST
KBYI,2023-04-05T20:53:00Z,KBYI 052053Z AUTO 28009G19KT 10SM OVC060 03/M08 A3014 RMK AO2 SLP221 T00331078 53000
KBYL,2023-04-05T20:55:00Z,KBYL 052055Z AUTO 22009G19KT 200V290 10SM FEW075 SCT085 30/13 A2999 RMK AO1
KBYS,2023-04-05T20:55:00Z,KBYS 052055Z AUTO 31006KT 10SM CLR 13/M15 A3011 RMK AO2 SLP196 T01311147 57015 $
KBYY,2023-04-05T20:55:00Z,KBYY 052055Z AUTO 36007KT 3SM DZ 18/17 A2990 RMK AO2 P0001 T01900180
KBZN,2023-04-05T20:56:00Z,KBZN 052056Z 08006KT 10SM CLR 00/M09 A3004 RMK AO2 SLP220 T00001089 58009
KC09,2023-04-05T20:55:00Z,KC09 052055Z AUTO 28019G26KT 10SM BKN022 09/04 A2985 RMK AO2 T00880036
KC29,2023-04-05T20:55:00Z,KC29 052055Z AUTO 26018G28KT 10SM BKN031 08/01 A2975 RMK AO1 T00780014
KC35,2023-04-05T20:55:00Z,KC35 052055Z AUTO 25019G23KT 10SM OVC033 06/M02 A2975 RMK AO2 T00591019 PWINO
KC62,2023-04-05T20:55:00Z,KC62 052055Z AUTO 23017G26KT 10SM -RA BKN034 OVC039 18/13 A2976 RMK AO2 T01900141
KC65,2023-04-05T20:55:00Z,KC65 052055Z AUTO 27014G27KT 10SM FEW018 SCT024 BKN031 18/14 A2976 RMK A01
KC75,2023-04-05T20:55:00Z,KC75 052055Z AUTO 30015G25KT 10SM SCT029 08/03 A2991 RMK AO2 T00800025
KC83,2023-04-05T20:55:00Z,KC83 052055Z AUTO 25004KT 10SM CLR 16/04 A3022 RMK AO2
KC99,2023-04-05T20:55:00Z,KC99 052055Z AUTO 30011G21KT 260V340 BKN010 OVC016 M12/M13 A2989 RMK AO2
KCAD,2023-04-05T20:55:00Z,KCAD 052055Z AUTO 23017G27KT 10SM BKN028 OVC037 18/11 A2954 RMK AO2 T01760113
KCAE,2023-04-05T20:56:00Z,KCAE 052056Z 17012KT 10SM SCT039 BKN048 31/16 A3010 RMK AO2 WSHFT 1943 SLP188 FROPA T03110156 56014
KCAG,2023-04-05T20:53:00Z,KCAG 052053Z AUTO 27007KT 9SM SCT031 M03/M07 A3009 RMK AO2 UPB24E31B48E50SNB31E48 SLP244 P0000 60000 T10281072 53005
KCAK,2023-04-05T20:51:00Z,KCAK 052051Z 26004KT 4SM RA BR SCT075 OVC100 18/17 A2988 RMK AO2 SLP114 P0017 60022 T01830172 50002
KCAO,2023-04-05T20:55:00Z,KCAO 052055Z AUTO 12005G15KT 10SM OVC070 07/M12 A3004 RMK AO2 SLP184 T00671117 55006
KCAR,2023-04-05T20:54:00Z,KCAR 052054Z AUTO 12003KT 1/2SM SN FZFG VV008 M03/M05 A3038 RMK AO2 SLP303 P0004 60004 T10331050 58014
KCAV,2023-04-05T20:55:00Z,KCAV 052055Z AUTO 29022G30KT 10SM OVC029 02/M03 A2994 RMK A01
KCBE,2023-04-05T21:05:00Z,KCBE 052105Z AUTO 16008KT 130V190 10SM SCT110 32/13 A2993 RMK AO2 T03170125
KCBF,2023-04-05T20:55:00Z,KCBF 052055Z AUTO 29018G26KT 260V330 10SM CLR 07/M11 A2999 RMK AO2
KCBG,2023-04-05T20:55:00Z,KCBG 052055Z AUTO 24015G23KT 7SM -SN BKN031 OVC040 M02/M10 A2969 RMK AO2
KCBK,2023-04-05T20:55:00Z,KCBK 052055Z AUTO 33013G22KT 10SM CLR 08/M12 A3009 RMK AO2 T00781117
KCBM,2023-04-05T20:55:00Z,KCBM 052055Z 18011KT 10SM BKN065 28/16 A2994 RMK AO2A SLP141 ALSTG/SLP ESTMD 58013 $
KCCA,2023-04-05T20:55:00Z,KCCA 052055Z AUTO 34006G15KT 10SM CLR 17/10 A2996 RMK AO2
KCCB,2023-04-05T20:55:00Z,KCCB 052055Z AUTO VRB06G12KT 10SM CLR 18/M09 A3008 RMK AO2
KCCO,2023-04-05T20:55:00Z,KCCO 052055Z AUTO 19005KT 10SM SCT060 OVC085 29/15 A3009 RMK AO2 T02890152
KCCR,2023-04-05T20:53:00Z,KCCR 052053Z 00000KT 10SM FEW050 16/03 A3021 RMK AO2 SLP216 T01560033 58008
KCCY,2023-04-05T20:55:00Z,KCCY 052055Z AUTO 29021G29KT 10SM BKN030 OVC035 02/M03 A2988 RMK AO2
KCDA,2023-04-05T20:55:00Z,KCDA 052055Z AUTO 11004KT 4SM -RA 01/M01 A3018 RMK AO2 T00121008
KCDC,2023-04-05T20:53:00Z,KCDC 052053Z AUTO 36005KT 10SM CLR 00/M12 A3014 RMK AO2 SLP236 T00001117 56001
KCDD,2023-04-05T20:53:00Z,KCDD 052053Z AUTO 29004KT 1 3/4SM -SN SCT009 BKN013 OVC025 M02/M04 A2938 RMK AO2 TSNO
KCDI,2023-04-05T20:55:00Z,KCDI 052055Z AUTO 18011G22KT 10SM SCT065 SCT085 29/15 A2984 RMK AO2 T02850150
KCDJ,2023-04-05T20:51:00Z,KCDJ 052051Z AUTO 27007G20KT 240V320 10/M02 A3005 RMK AO1 SLP180 T01001022 51025
KCDN,2023-04-05T20:55:00Z,KCDN 052055Z AUTO 18008G15KT 130V200 10SM FEW060 30/16 A3012 RMK AO2
KCDR,2023-04-05T20:53:00Z,KCDR 052053Z AUTO 29018G31KT 9SM CLR M02/M07 A3008 RMK AO2 PK WND 28031/2046 SLP235 T10221072 53006
KCDS,2023-04-05T20:53:00Z,KCDS 052053Z AUTO 03007G19KT 350V060 10SM CLR 15/M09 A3011 RMK AO2 SLP192 T01501089 56006
KCDW,2023-04-05T21:05:00Z,KCDW 052105Z 10007KT 2SM BR OVC006 09/08 A3018 RMK AO2 T00940078
KCEC,2023-04-05T20:56:00Z,KCEC 052056Z AUTO 20009KT 6SM HZ OVC070 09/06 A3024 RMK AO2 SLP241 T00940056 58003
KCEF,2023-04-05T20:55:00Z,KCEF 052055Z 09007KT 10SM OVC021 07/01 A3024 RMK AO2A SLP248 T00730012 56010
KCEU,2023-04-05T20:54:00Z,KCEU 052054Z AUTO 23007KT 180V270 10SM FEW065 29/16 A3008 RMK AO2 SLP177 T02890156 57020
KCEW,2023-04-05T20:53:00Z,KCEW 052053Z AUTO 10SM FEW034 29/21 A3010 RMK AO2 SLP189 T02940206 55002
KCEY,2023-04-05T20:55:00Z,KCEY 052055Z AUTO 19011G19KT 10SM FEW080 19/18 A2997 RMK A01 P0001
KCEZ,2023-04-05T20:53:00Z,KCEZ 052053Z AUTO 25005KT 10SM FEW060 OVC080 02/M13 A3009 RMK AO2 SLP214 T00171133 56005
KCFD,2023-04-05T20:55:00Z,KCFD 052055Z AUTO 01008KT 10SM OVC060 19/10 A3001 RMK AO2 P0001 60001 T01850102
KCFE,2023-04-05T20:55:00Z,KCFE 052055Z AUTO 26019G31KT 9SM UP BKN027 OVC034 M03/M08 A2975 RMK AO2
KCFJ,2023-04-05T20:55:00Z,KCFJ 052055Z AUTO 23013G20KT 10SM BKN014 OVC019 15/11 A2986 RMK AO2 60009 T01500113
KCFO,2023-04-05T20:47:00Z,KCFO 052047Z 32013G18KT 10SM SKC 06/M15 A2999
KCFS,2023-04-05T20:55:00Z,KCFS 052055Z AUTO 17010G19KT 10SM CLR 22/13 A2962 RMK AO2 T02150134
KCFV,2023-04-05T20:52:00Z,KCFV 052052Z AUTO 31007G19KT 10SM CLR 13/M02 A3010 RMK AO2 SLP193 T01281022 51008
KCGC,2023-04-05T20:55:00Z,KCGC 052055Z AUTO 29006KT 10SM BKN075 BKN090 A3008 RMK AO2
KCGE,2023-04-05T21:05:00Z,KCGE 052105Z AUTO 16011G19KT 10SM CLR 27/17 A3006 RMK A01
KCGF,2023-04-05T20:45:00Z,KCGF 052045Z 22013G27KT 10SM BKN030 BKN040 OVC100 22/17 A2985
KCGI,2023-04-05T20:53:00Z,KCGI 052053Z 24010KT 10SM CLR 18/17 A2991 RMK AO2 RAE01 SLP126 P0000 60029 T01830172 51019
KCGS,2023-04-05T21:10:00Z,KCGS 052110Z AUTO 20008G19KT 170V230 10SM SCT075 30/15 A3000 RMK AO2 T03030148
KCGZ,2023-04-05T20:56:00Z,KCGZ 052056Z AUTO 10SM CLR 18/M13 A3008 RMK AO2 SLP185 6//// T01781133 57020 PNO $
KCHA,2023-04-05T20:53:00Z,KCHA 052053Z 20014G23KT 10SM SCT060 SCT250 32/12 A3002 RMK AO2 PK WND 18027/2007 SLP157 T03170122 58009
KCHD,2023-04-05T20:47:00Z,KCHD 052047Z 32007KT 10SM CLR 19/M15 A3007
KCHK,2023-04-05T20:55:00Z,KCHK 052055Z AUTO 01009G18KT 10SM CLR 13/M03 A3009 RMK AO2 T01351034
KCHO,2023-04-05T20:53:00Z,KCHO 052053Z 21015G21KT 10SM FEW055 BKN080 29/16 A3001 RMK AO2 SLP154 T02940161 56015
KCHS,2023-04-05T20:56:00Z,KCHS 052056Z 18012KT 10SM SCT035 SCT250 29/19 A3015 RMK AO2 SLP208 T02890189 56008
KCIC,2023-04-05T20:47:00Z,KCIC 052047Z 00000KT 10SM CLR 15/M02 A3020
KCID,2023-04-05T20:52:00Z,KCID 052052Z 27020G31KT 10SM BKN033 06/M03 A2992 RMK AO2 PK WND 28035/2035 SLP136 T00561028 51035
KCIN,2023-04-05T20:55:00Z,KCIN 052055Z AUTO 28019G26KT 10SM SCT044 05/M07 A2997 RMK AO2
KCIR,2023-04-05T20:55:00Z,KCIR 052055Z AUTO 23009KT 10SM SCT008 SCT037 OVC110 18/17 A2994 RMK AO2 P0007 60019 T01820174
KCJR,2023-04-05T20:55:00Z,KCJR 052055Z AUTO 20010G19KT 10SM SCT055 30/15 A3001 RMK AO2 T03010149
KCKB,2023-04-05T20:53:00Z,KCKB 052053Z 21010G20KT 10SM CLR 32/14 A2991 RMK AO2 SLP113 T03170139 58025
KCKC,2023-04-05T20:57:00Z,KCKC 052057Z AUTO 19010G16KT 1/4SM -DZ OVC002 M01/M01 A2929 RMK AO2
KCKF,2023-04-05T20:55:00Z,KCKF 052055Z AUTO 19009KT 10SM SCT050 31/16 A3010 RMK AO2 T03110161
KCKI,2023-04-05T20:55:00Z,KCKI 052055Z AUTO 21006KT 10SM SCT060 SCT070 30/15 A3012 RMK AO2
KCKM,2023-04-05T20:55:00Z,KCKM 052055Z AUTO 00000KT 7SM CLR 19/19 A2997 RMK A01 P0002
KCKN,2023-04-05T20:55:00Z,KCKN 052055Z AUTO 30022KT 1SM -SN BKN007 BKN014 OVC022 M03/M06 A2961 RMK AO2
KCKP,2023-04-05T20:55:00Z,KCKP 052055Z AUTO 30017G25KT 10SM OVC032 01/M06 A2999 RMK AO2 T00091061
KCKV,2023-04-05T20:52:00Z,KCKV 052052Z AUTO 22005KT 10SM -RA FEW060 BKN090 OVC110 19/16 A3000 RMK AO2 PK WND 28043/2013 WSHFT 2002 LTG DSNT NE-S TSB14E35 SLP154 P0026 60027 T01890156 53029
KCKZ,2023-04-05T20:55:00Z,KCKZ 052055Z AUTO 06011G14KT 10SM OVC005 10/10 A3012 RMK AO2
KCLE,2023-04-05T20:51:00Z,KCLE 052051Z 21015KT 3SM +RA FEW038 BKN047 OVC080 20/17 A2983 RMK AO2 PK WND 21027/2023 RAB03 SLP113 P0004 60006 T02000172 51009
KCLI,2023-04-05T20:55:00Z,KCLI 052055Z AUTO 26020G30KT 10SM BKN032 07/M01 A2963 RMK AO2 T00671008
KCLL,2023-04-05T21:07:00Z,KCLL 052107Z 01011G18KT 10SM VCTS OVC070 19/09 A2999 RMK AO2 LTG DSNT NE AND E TSE01 T01940089
KCLM,2023-04-05T20:53:00Z,KCLM 052053Z AUTO 36005KT 10SM CLR 08/02 A3013 RMK AO2 SLP205 T00830017 56008
KCLS,2023-04-05T20:55:00Z,KCLS 052055Z AUTO 20012G18KT 10SM BKN038 BKN044 OVC055 10/03 A3015 RMK AO2
KCLT,2023-04-05T20:52:00Z,KCLT 052052Z 20012G21KT 10SM SCT060 BKN085 BKN250 29/14 A3010 RMK AO2 SLP199 T02940144 56017
KCLW,2023-04-05T20:55:00Z,KCLW 052055Z AUTO 24004KT 10SM CLR 29/20 A3006 RMK AO2
KCMA,2023-04-05T20:55:00Z,KCMA 052055Z 26013KT 10SM CLR 18/00 A3011 RMK AO2 PK WND 27030/2013 WSHFT 1942 SLP207 6//// T01780000 56007
KCMD,2023-04-05T20:55:00Z,KCMD 052055Z AUTO 21012G26KT 180V240 10SM CLR 28/16 A3005 RMK AO2
KCMH,2023-04-05T20:51:00Z,KCMH 052051Z 00000KT 8SM BKN065 OVC080 20/19 A2985 RMK AO2 RAE32 SLP102 P0021 60022 T02000189 56012
KCMI,2023-04-05T21:03:00Z,KCMI 052103Z 29019KT 10SM BKN015 OVC019 09/06 A2992 RMK AO2 T00940061
KCMR,2023-04-05T20:55:00Z,KCMR 052055Z AUTO 31014G20KT 10SM CLR 05/M17 A3008 RMK AO2
KCMX,2023-04-05T20:53:00Z,KCMX 052053Z AUTO 25012G20KT 4SM -RA BR BKN005 OVC010 03/01 A2938 RMK AO2 UPB17E32RAB32 SLP960 P0001 60001 I1000 I3000 T00280006 55002
KCMY,2023-04-05T20:55:00Z,KCMY 052055Z AUTO 26015G25KT 10SM OVC033 03/M05 A2977 RMK AO2 PK WND 26030/31 SLP090 T00301047 52048 FZRANO $
KCNB,2023-04-05T20:55:00Z,KCNB 052055Z AUTO 00000KT 10SM SCT023 BKN029 M03/M06 A2987 RMK AO2 T10281065
KCNC,2023-04-05T20:55:00Z,KCNC 052055Z AUTO 28016G25KT 10SM FEW047 07/M04 A2999 RMK AO2
KCNI,2023-04-05T20:55:00Z,KCNI 052055Z AUTO 20009KT 10SM BKN055 BKN080 29/15 A3010 RMK AO2 T02860148
KCNK,2023-04-05T20:55:00Z,KCNK 052055Z AUTO 29013G22KT 10SM CLR 11/M09 A3007 RMK AO2 PK WND 30028/2005 SLP189 T01061094 53005
KCNM,2023-04-05T20:53:00Z,KCNM 052053Z AUTO 12009KT 10SM CLR 16/M16 A3003 RMK AO2 SLP145 T01611161 56020
KCNO,2023-04-05T20:53:00Z,KCNO 052053Z 09009KT 10SM FEW060 FEW250 21/M01 A3008 RMK AO2 SLP186 T02111011 57019
KCNU,2023-04-05T20:52:00Z,KCNU 052052Z AUTO VRB06G17KT 10SM CLR 12/M03 A3010 RMK AO2 SLP193 T01221028 51013
KCNW,2023-04-05T20:55:00Z,KCNW 052055Z 34015G20KT 10SM BKN090 20/01 A3003
KCNY,2023-04-05T20:53:00Z,KCNY 052053Z AUTO 10SM BKN080 BKN095 06/M13 A3007 RMK AO2 SLP193 T00561133 58006
KCOD,2023-04-05T20:56:00Z,KCOD 052056Z AUTO 13011KT 10SM CLR M01/M10 A3001 RMK AO2 SLP203 T10111100 56003 FZRANO
KCOE,2023-04-05T20:56:00Z,KCOE 052056Z AUTO 24010KT 10SM BKN060 BKN080 07/M06 A3012 RMK AO2 SLP238 6//// T00671056 56008 PNO $
KCOF,2023-04-05T20:55:00Z,KCOF 052055Z AUTO 11012KT 10SM CLR 28/20 A3010 RMK AO2 SLP197 T02810196 56013 $
KCOM,2023-04-05T20:55:00Z,KCOM 052055Z AUTO 01009G15KT 10SM CLR 19/M04 A3009 RMK AO2 T01851040
KCON,2023-04-05T20:51:00Z,KCON 052051Z AUTO 09006KT 10SM OVC027 03/M03 A3034 RMK AO2 SLP277 T00281028 55012
KCOQ,2023-04-05T20:55:00Z,KCOQ 052055Z AUTO 23017G31KT 7SM -SN SCT024 BKN030 OVC037 M03/M08 A2949 RMK AO2 TSNO
KCOS,2023-04-05T20:54:00Z,KCOS 052054Z 18005KT 9SM SCT060 BKN075 BKN090 02/M14 A3000 RMK AO2 SNB27E49 SLP200 P0000 60000 T00221139 53000
KCOT,2023-04-05T20:53:00Z,KCOT 052053Z AUTO 01014G25KT 10SM BKN047 BKN065 27/M02 A2992 RMK AO2 PK WND 02026/2031 SLP122 T02671022 58016
KCOU,2023-04-05T20:54:00Z,KCOU 052054Z 26011KT 10SM CLR 12/01 A3003 RMK AO2 SLP165 T01170011 51020
KCPC,2023-04-05T21:10:00Z,KCPC 052110Z AUTO 18008G14KT 10SM CLR 28/17 A3016 RMK AO2 T02830166
KCPF,2023-04-05T20:55:00Z,KCPF 052055Z AUTO 21017G24KT 10SM SCT090 30/08 A2998 RMK AO2
KCPR,2023-04-05T20:53:00Z,KCPR 052053Z 24014KT 10SM CLR M05/M10 A3002 RMK AO2 SLP222 T10501100 53004
KCPS,2023-04-05T20:53:00Z,KCPS 052053Z 29011G18KT 10SM SCT024 12/05 A2999 RMK AO2 SLP153 T01170050 51044
KCPT,2023-04-05T20:55:00Z,KCPT 052055Z AUTO 33013G20KT 10SM FEW110 18/M00 A3007 RMK A01
KCPW,2023-04-05T20:55:00Z,KCPW 052055Z AUTO 24013G23KT M13/M15 A2999 RMK AO2 PWINO
KCQB,2023-04-05T20:55:00Z,KCQB 052055Z AUTO 33014KT 10SM CLR 13/M04 A3011 RMK AO2 T01331040
KCQC,2023-04-05T20:53:00Z,KCQC 052053Z AUTO 27016G29KT 10SM CLR 06/M21 A3004 RMK AO2 PK WND 26029/2046 SLP182 T00561206 56004
KCQF,2023-04-05T20:55:00Z,KCQF 052055Z AUTO 10010G17KT 10SM BKN013 BKN020 25/21 A3006 RMK AO2
KCQM,2023-04-05T20:57:00Z,KCQM 052057Z AUTO 28014G23KT 1 1/2SM -SN BKN014 BKN019 OVC024 M02/M04 A2938 RMK AO2
KCQT,2023-04-05T20:47:00Z,KCQT 052047Z AUTO 27006KT 10SM CLR 19/02 A3010 RMK AO2 SLP192 T01890017 56015
KCQW,2023-04-05T20:55:00Z,KCQW 052055Z AUTO 20007G13KT 10SM FEW060 30/16 A3010 RMK AO2
KCQX,2023-04-05T20:52:00Z,KCQX 052052Z AUTO 10007KT 4SM BR OVC008 08/06 A3029 RMK AO2 SLP258 T00780056 58019
KCRE,2023-04-05T20:53:00Z,KCRE 052053Z 17008KT 10SM CLR 24/21 A3017 RMK AO1 SLP215 T02390206 58007
KCRG,2023-04-05T20:53:00Z,KCRG 052053Z 12010KT 10SM CLR 29/22 A3012 RMK AO2 SLP200 T02890217 58005 $
KCRP,2023-04-05T20:51:00Z,KCRP 052051Z 02021KT 8SM -RA FEW005 SCT009 OVC015 17/16 A2986 RMK AO2 PK WND 03031/2039 SLP111 P0011 60011 T01720156 53006 $
KCRQ,2023-04-05T20:53:00Z,KCRQ 052053Z 27008KT 10SM CLR 15/04 A3009 RMK AO2 SLP188 T01500044 56011
KCRS,2023-04-05T20:53:00Z,KCRS 052053Z AUTO 34012G17KT 10SM BKN110 21/03 A3002 RMK AO2 SLP161 T02060033 58006
KCRW,2023-04-05T20:54:00Z,KCRW 052054Z 22010KT 10SM FEW045 SCT120 BKN200 31/12 A2992 RMK AO2 SLP121 T03060122 56023
KCRX,2023-04-05T20:55:00Z,KCRX 052055Z AUTO 30008KT 2 1/2SM TSRA FEW003 BKN036 OVC070 19/15 A3004 RMK AO2 LTG DSNT ALQDS P0004 VIS 1 3/4V4
KCSG,2023-04-05T20:51:00Z,KCSG 052051Z 23012G25KT 10SM FEW060 FEW075 31/17 A3007 RMK AO2 SLP176 T03110167 56008
KCSM,2023-04-05T20:53:00Z,KCSM 052053Z 03011KT 10SM CLR 14/M06 A3010 RMK AO2 SLP194 T01391056 56006
KCSQ,2023-04-05T20:55:00Z,KCSQ 052055Z AUTO 30019KT 10SM CLR 06/M05 A2999 RMK AO2
KCSV,2023-04-05T20:53:00Z,KCSV 052053Z AUTO 22014G26KT 160V250 10SM BKN070 BKN090 27/13 A3005 RMK AO2 PK WND 24033/1959 SLP155 T02670128 58005
KCTB,2023-04-05T20:56:00Z,KCTB 052056Z AUTO 28018G24KT 10SM BKN075 05/M12 A2991 RMK AO2 PK WND 26027/2034 SLP163 T00501122 56007
KCTJ,2023-04-05T20:55:00Z,KCTJ 052055Z AUTO 18005KT 10SM SCT055 SCT080 28/14 A3012 RMK AO2 T02820144
KCTY,2023-04-05T20:55:00Z,KCTY 052055Z AUTO 23008KT 10SM SCT085 31/19 A3009 RMK AO2
KCTZ,2023-04-05T21:05:00Z,KCTZ 052105Z AUTO 17007KT 10SM CLR 30/13 A3013 RMK AO2 T03020130
KCUB,2023-04-05T20:53:00Z,KCUB 052053Z AUTO 19009KT 10SM FEW070 FEW085 30/14 A3011 RMK AO2 SLP194 T03000144 56014
KCUH,2023-04-05T20:55:00Z,KCUH 052055Z AUTO 34010G18KT 10SM CLR 14/M06 A3011 RMK AO2 T01381061
KCUL,2023-04-05T20:59:00Z,KCUL 052059Z AUTO 23003KT 10SM BKN013 OVC029 19/17 A2986 RMK AO2
KCUT,2023-04-05T20:53:00Z,KCUT 052053Z AUTO 28010G20KT 10SM SCT031 M04/M12 A2991 RMK AO2 SLP191 T10441122 51010
KCVC,2023-04-05T20:55:00Z,KCVC 052055Z AUTO 00000KT 7SM SCT055 SCT075 BKN085 29/17 A3008 RMK AO2
KCVG,2023-04-05T21:08:00Z,KCVG 052108Z 26007KT 2SM VCTS +RA BR SCT041 OVC055 16/16 A2996 RMK AO2 LTG DSNT ALQDS CB DSNT SW-NW P0008 T01560156
KCVH,2023-04-05T20:55:00Z,KCVH 052055Z AUTO 00000KT 10SM CLR 15/03 A3022 RMK A01
KCVN,2023-04-05T20:56:00Z,KCVN 052056Z AUTO VRB03KT 10SM CLR 12/M16 A3007 RMK AO2 SLP183 T01221161 58007
KCVO,2023-04-05T20:56:00Z,KCVO 052056Z AUTO 17011KT 10SM -RA BKN036 OVC044 09/05 A3018 RMK AO2 RAB38 SLP221 P0000 60000 T00940050 58014
KCVS,2023-04-05T20:55:00Z,KCVS 052055Z AUTO 18004KT 10SM CLR 13/M18 A3004 RMK AO2 SLP161 T01261183 57005 $
KCVX,2023-04-05T20:55:00Z,KCVX 052055Z AUTO 24014G23KT 10SM SCT008 BKN017 OVC027 10/08 A2952 RMK AO2 T01020076
KCWA,2023-04-05T20:47:00Z,KCWA 052047Z 25023G30KT 7SM OVC026 02/M03 A2964
KCWC,2023-04-05T20:55:00Z,KCWC 052055Z AUTO 01012G19KT 10SM CLR 14/M03 A3012 RMK AO2 T01401029
KCWF,2023-04-05T20:45:00Z,KCWF 052045Z 20011KT 10SM BKN022 OVC028 27/22 A2994
KCWI,2023-04-05T20:56:00Z,KCWI 052056Z AUTO 27025G31KT 10SM OVC025 04/00 A2990 RMK AO2 PK WND 28033/2010 SLP130 T00440000 53044
KCWN,2023-04-05T20:55:00Z,KCWN 052055Z AUTO 15007KT 10SM OVC055 00/M13 A2996 RMK AO2 SNE01PLB01E05UPB13E15PLB15E17SNB17E28PLB28E32 SLP098 P0000 60000 T00001133 53004 $
KCWV,2023-04-05T20:55:00Z,KCWV 052055Z AUTO 22006KT 7SM CLR 31/15 A3011 RMK AO2 T03080151
KCXE,2023-04-05T20:55:00Z,KCXE 052055Z AUTO 16009G19KT 10SM SCT050 BKN060 29/17 A3007 RMK AO1 T02890165
KCXO,2023-04-05T21:01:00Z,KCXO 052101Z 33010KT 10SM VCTS -RA BKN038 OVC046 17/16 A2994 RMK AO2 LTG DSNT ALQDS TSE2055 P0000 T01670156
KCXP,2023-04-05T20:55:00Z,KCXP 052055Z AUTO 05007KT 10SM CLR 08/M11 A3014 RMK AO2
KCXU,2023-04-05T20:55:00Z,KCXU 052055Z AUTO 19006KT 10SM SCT050 SCT090 26/13 A3008 RMK AO1 T02550130
KCXW,2023-04-05T20:55:00Z,KCXW 052055Z AUTO 32012G17KT 9SM BKN012 14/11 A2997 RMK A01
KCXY,2023-04-05T20:56:00Z,KCXY 052056Z 08009KT 6SM HZ FEW060 26/16 A2998 RMK AO2 SLP151 T02610156 56024
KCYD,2023-04-05T20:55:00Z,KCYD 052055Z AUTO 12013KT 5SM BR CLR 25/23 A3002 RMK A02 T02490230
KCYS,2023-04-05T20:53:00Z,KCYS 052053Z AUTO 25006KT 9SM OVC033 M02/M08 A2999 RMK AO2 SNB37E50 SLP216 P0000 60000 T10221083 53007
KCZT,2023-04-05T20:55:00Z,KCZT 052055Z AUTO 10SM SCT065 BKN070 28/M04 A2990 RMK AO2
KD07,2023-04-05T20:56:00Z,KD07 052056Z AUTO 31018KT M03/M11 A2999 RMK AO1 PK WND 31029/2035 SLP201 T10331111 51014
KD25,2023-04-05T20:55:00Z,KD25 052055Z AUTO 22021G28KT 10SM OVC024 00/M04 A2949 RMK AO2 T00001045
KD39,2023-04-05T20:55:00Z,KD39 052055Z AUTO 26020G25KT 1SM -SN BKN012 OVC018 M05/M07 A2971 RMK AO2 T10511070
KD55,2023-04-05T20:55:00Z,KD55 052055Z AUTO 33023G28KT 1/4SM -SN BKN003 OVC025 M07/M07 A2963 RMK AO2
KD57,2023-04-05T20:55:00Z,KD57 052055Z AUTO 31027G33KT 6SM HZ CLR M05/M12 A2994 RMK AO2
KD60,2023-04-05T20:55:00Z,KD60 052055Z AUTO 31021G26KT 10SM CLR M07/M11 A2999 RMK AO2
KD73,2023-04-05T20:55:00Z,KD73 052055Z AUTO 34012KT 10SM BKN065 BKN075 30/16 A3009 RMK AO2 T02980163
KD95,2023-04-05T20:55:00Z,KD95 052055Z AUTO 17011G21KT 10SM CLR 20/15 A2967 RMK AO2 60002 T01950146 P0001
KDAA,2023-04-05T20:55:00Z,KDAA 052055Z AUTO 17011G18KT 10SM CLR 30/15 A2998 RMK AO2 SLP155 T02950152 56013
KDAB,2023-04-05T20:53:00Z,KDAB 052053Z 10009G18KT 10SM FEW035 BKN250 28/18 A3013 RMK AO2 SLP201 FU PLUME NW T02830178 55010
KDAG,2023-04-05T20:50:00Z,KDAG 052050Z AUTO 08004KT 10SM CLR 14/M14 A3014 RMK AO2 SLP200 T01441139 58018
KDAL,2023-04-05T20:53:00Z,KDAL 052053Z 31011G20KT 10SM BKN130 BKN250 19/01 A3006 RMK AO2 PK WND 02028/2040 SLP172 ACC DSNT W-NW T01890011 53001
KDAN,2023-04-05T20:53:00Z,KDAN 052053Z AUTO VRB06KT 10SM BKN042 BKN048 OVC065 28/16 A3007 RMK AO2 SLP171 T02830156 56017
KDAW,2023-04-05T20:51:00Z,KDAW 052051Z AUTO 07007KT 10SM FEW021 OVC032 03/M03 A3035 RMK AO2 SLP278 T00281028 56016
KDAY,2023-04-05T20:56:00Z,KDAY 052056Z 23011KT 4SM -TSRA BKN050CB BKN065 OVC080 17/14 A2994 RMK AO2 LTG DSNT ALQDS TSB32 SLP134 OCNL LTGICCC SW-W TS SW-W MOV N-NE P0018 60031 T01670144 53026 VISNO RWY 6L $
KDBN,2023-04-05T20:30:00Z,KDBN 052030Z AUTO 19005KT 10SM SCT060 32/14 A3012 RMK AO2
KDBQ,2023-04-05T20:53:00Z,KDBQ 052053Z 28020G31KT 10SM OVC025 04/M02 A2986 RMK AO2 PK WND 28033/2029 SLP117 T00391017 52043
KDCA,2023-04-05T20:52:00Z,KDCA 052052Z 21018G25KT 10SM FEW075 SCT085 BKN250 30/15 A3000 RMK AO2 PK WND 19027/2016 SLP158 T03000150 56015
KDCM,2023-04-05T20:35:00Z,KDCM 052035Z AUTO 17006KT 10SM SCT060 SCT075 SCT085 28/15 A3012 RMK AO2
KDCU,2023-04-05T20:53:00Z,KDCU 052053Z AUTO 18020G28KT 10SM SCT070 31/16 A3000 RMK AO2 PK WND 18028/2052 SLP153 T03110161 58009
KDCY,2023-04-05T20:55:00Z,KDCY 052055Z AUTO 24010KT 7SM -RA BKN010 BKN050 OVC100 17/17 A2991 RMK AO2 LTG DSNT E AND SE P0007 60035 T01660165
KDDC,2023-04-05T20:52:00Z,KDDC 052052Z AUTO 35013G23KT 10SM CLR 11/M12 A3009 RMK AO2 PK WND 32028/2007 SLP200 T01061117 55001
KDDH,2023-04-05T20:54:00Z,KDDH 052054Z AUTO 14008G16KT 100V180 10SM OVC022 11/02 A3012 RMK AO2 SLP202 T01060022 58012
KDEC,2023-04-05T20:54:00Z,KDEC 052054Z 30014G22KT 10SM BKN022 10/06 A2993 RMK AO2 PK WND 28027/2000 SLP134 T01000061 51037
KDED,2023-04-05T20:50:00Z,KDED 052050Z AUTO 08014G20KT 10SM CLR 30/18 A3011 RMK AO2 T03030181
KDEH,2023-04-05T20:55:00Z,KDEH 052055Z AUTO 28010G22KT 250V310 10SM OVC031 02/M03 A2984 RMK AO2
KDEN,2023-04-05T20:53:00Z,KDEN 052053Z 32012G23KT 10SM SCT060 SCT120 BKN200 06/M13 A2998 RMK AO2 SLP168 T00561133 55002
KDEQ,2023-04-05T20:53:00Z,KDEQ 052053Z AUTO 10SM CLR 20/07 A2997 RMK AO2 SLP143 T02000072 57001
KDET,2023-04-05T20:53:00Z,KDET 052053Z 15010G15KT 10SM FEW006 SCT090 BKN110 19/16 A2972 RMK AO2 RAB04E22B42E52 SLP064 P0000 60017 T01890161 58016
KDEW,2023-04-05T20:53:00Z,KDEW 052053Z AUTO 23013G19KT 10SM FEW033 FEW055 BKN080 09/M04 A3011 RMK AO2 SLP212 T00941039 56013
KDFI,2023-04-05T20:53:00Z,KDFI 052053Z AUTO 20018G31KT 10SM -RA FEW040 FEW075 BKN110 20/15 A2978 RMK AO2 PK WND 20031/2049 RAB29 SLP080 P0000 60004 T02000150 55008
KDFW,2023-04-05T20:53:00Z,KDFW 052053Z 32010G19KT 10SM BKN130 BKN180 BKN250 19/M01 A3005 RMK AO2 SLP170 T01891006 50001
KDGW,2023-04-05T20:53:00Z,KDGW 052053Z AUTO 30018KT 10SM CLR M03/M09 A3002 RMK AO2 SLP216 T10331089 56001
KDHN,2023-04-05T20:53:00Z,KDHN 052053Z 20009G16KT 10SM CLR 30/19 A3010 RMK AO2 SLP188 T03000189 56009
KDHT,2023-04-05T20:53:00Z,KDHT 052053Z AUTO VRB03KT 10SM CLR 09/M09 A3009 RMK AO2 SLP185 T00941094 55006
KDIJ,2023-04-05T20:56:00Z,KDIJ 052056Z AUTO 02006KT 10SM FEW033 OVC055 M03/M11 A3008 RMK AO2 SLP246 T10331106 53003
KDIK,2023-04-05T20:56:00Z,KDIK 052056Z AUTO 30023G28KT 10SM CLR M04/M12 A2994 RMK AO2 PK WND 31030/2016 SLP180 60000 T10391117 52005
KDKK,2023-04-05T20:53:00Z,KDKK 052053Z AUTO 23009KT 10SM BKN060 OVC090 26/16 A2984 RMK AO2 RAB30E46 SLP104 P0001 60003 T02560156 53014
KDKR,2023-04-05T20:55:00Z,KDKR 052055Z AUTO 32005KT 10SM 18/13 A3000 RMK AO2 LTG DSNT E AND S
KDKX,2023-04-05T20:55:00Z,KDKX 052055Z AUTO 26013G20KT 10SM SCT070 30/15 A3000 RMK A01
KDLF,2023-04-05T20:55:00Z,KDLF 052055Z AUTO 35013KT 10SM FEW150 FEW190 26/M12 A2994 RMK AO2 SLP129 T02601125 57021 $
KDLH,2023-04-05T20:55:00Z,KDLH 052055Z 26022G36KT 1 3/4SM -SN OVC025 M03/M07 A2947 RMK AO2 PK WND 25037/2035 TWR VIS 2 1/2 SLP001 P0000 60001 T10281072 53038
KDLL,2023-04-05T20:55:00Z,KDLL 052055Z AUTO 27018G26KT 10SM BKN031 07/00 A2972 RMK AO2 T00710002
KDLN,2023-04-05T20:53:00Z,KDLN 052053Z AUTO 24018G24KT 10SM FEW049 OVC065 01/M08 A3001 RMK AO2 PK WND 24027/2015 SLP208 T00061078 56004
KDLO,2023-04-05T20:55:00Z,KDLO 052055Z AUTO 30005KT 10SM CLR 14/M03 A3019 RMK AO2 T01361026
KDLP,2023-04-05T20:55:00Z,KDLP 052055Z AUTO 15010KT 10SM CLR 25/23 A2991 RMK A01
KDLS,2023-04-05T20:53:00Z,KDLS 052053Z AUTO VRB05KT 10SM CLR 12/M02 A3016 RMK AO2 SLP215 T01221022 58021
KDLZ,2023-04-05T20:55:00Z,KDLZ 052055Z AUTO 27010G15KT 5SM -RA SCT010 BKN036 OVC048 17/15 A2990 RMK AO2 LTG DSNT SE THRU W P0003
KDMA,2023-04-05T20:55:00Z,KDMA 052055Z AUTO 31009KT 10SM CLR 17/M19 A3002 RMK AO2 SLP155 T01711191 57018 $
KDMH,2023-04-05T20:54:00Z,KDMH 052054Z AUTO 27/16 A3002 RMK AO1 SLP164 T02720161 55014
KDMN,2023-04-05T20:53:00Z,KDMN 052053Z AUTO 19006KT 10SM CLR 13/M18 A3006 RMK AO2 SLP156 T01331183 58020
KDMO,2023-04-05T20:53:00Z,KDMO 052053Z AUTO 29014G20KT 10SM CLR 11/02 A3005 RMK AO2 SLP177 T01110017 51014
KDMW,2023-04-05T21:05:00Z,KDMW 052105Z AUTO 17013G19KT 10SM CLR 31/15 A3000 RMK AO2
KDNA,2023-04-05T20:55:00Z,KDNA 052055Z AUTO 00000KT 10SM CLR 14/M19 A3007 RMK AO2
KDNL,2023-04-05T20:53:00Z,KDNL 052053Z AUTO 17009KT 10SM SCT070 31/14 A3011 RMK AO2 SLP190 T03110144 56012
KDNN,2023-04-05T20:55:00Z,KDNN 052055Z AUTO 19008G16KT 140V240 10SM FEW070 31/14 A3005 RMK AO2 T03060141
KDNV,2023-04-05T20:55:00Z,KDNV 052055Z AUTO 28019G30KT 7SM OVC009 11/09 A2990 RMK AO2 60001 T01090091
KDOV,2023-04-05T20:55:00Z,KDOV 052055Z AUTO 10008KT 10SM CLR 28/14 A3003 RMK AO2 SLP173 T02810136 57017
KDPA,2023-04-05T20:52:00Z,KDPA 052052Z 27019G33KT 10SM BKN024 09/03 A2981 RMK AO2 PK WND 27038/1958 SLP092 T00890028 53054
KDPG,2023-04-05T21:00:00Z,KDPG 052100Z 29004KT 45SM SCT050 04/M10 A3022 RMK SH DSNT E/SE SLP237 T00371097 50000
KDPL,2023-04-05T21:05:00Z,KDPL 052105Z AUTO 20007KT 7SM CLR 29/16 A3013 RMK AO2
KDQH,2023-04-05T20:55:00Z,KDQH 052055Z AUTO 18003KT 10SM SCT060 SCT090 31/16 A3011 RMK AO2 T03080163
KDRA,2023-04-05T20:53:00Z,KDRA 052053Z AUTO VRB03G15KT 10SM CLR 11/M14 A3015 RMK AO2 SLP201 T01061144 58013
KDRI,2023-04-05T20:55:00Z,KDRI 052055Z AUTO 34010G19KT 10SM VCTS BKN024 BKN038 21/19 A2996 RMK AO2 CIG 019V027 T02110195 $
KDRM,2023-04-05T20:55:00Z,KDRM 052055Z AUTO 11005KT 3/4SM BR OVC002 03/03 A2955 RMK AO2 T00320027
KDRO,2023-04-05T20:53:00Z,KDRO 052053Z AUTO 19004KT 10SM FEW055 BKN065 OVC085 00/M13 A3006 RMK AO2 SLP218 60000 T00001128 58001
KDRT,2023-04-05T20:53:00Z,KDRT 052053Z AUTO 34008G19KT 10SM CLR 27/M11 A2997 RMK AO2 SLP139 T02671106 58022
KDSF,2023-04-05T20:40:00Z,KDSF 052040Z AUTO 09016KT 4SM HZ CLR 25/23 A3001 RMK A01
KDSM,2023-04-05T20:54:00Z,KDSM 052054Z 28013G25KT 10SM FEW050 FEW250 08/M04 A2999 RMK AO2 PK WND 29030/1955 SLP161 T00781044 53024
KDSV,2023-04-05T21:02:00Z,KDSV 052102Z AUTO 29013G30KT 1 1/2SM TSRA FEW019 SCT036 BKN085 21/17 A2987 RMK AO2 PK WND 31030/2056 LTG DSNT NE RAB2059 TSB2059 P0014 T02110167
KDTA,2023-04-05T20:55:00Z,KDTA 052055Z AUTO 13003KT 10SM CLR 01/M08 A3019 RMK AO1
KDTL,2023-04-05T20:55:00Z,KDTL 052055Z AUTO 28018G26KT 4SM -SN HZ SCT018 BKN024 OVC055 M06/M09 A2963 RMK AO2
KDTN,2023-04-05T20:55:00Z,KDTN 052055Z 30006KT 10SM FEW020 BKN075 BKN090 21/17 A2996 RMK AO2 T02060172
KDTO,2023-04-05T20:53:00Z,KDTO 052053Z 33008G20KT 10SM CLR 18/02 A3007 RMK AO2 SLP177 T01780022 53005
KDTS,2023-04-05T20:53:00Z,KDTS 052053Z 13009KT 10SM CLR 26/21 A3009 RMK AO2 SLP187 T02610211 55002
KDTW,2023-04-05T20:53:00Z,KDTW 052053Z 17009KT 8SM -RA FEW020 BKN100 OVC130 18/17 A2974 RMK AO2 RAB46 PRESRR SLP072 P0000 60035 T01830172 58005
KDUA,2023-04-05T20:55:00Z,KDUA 052055Z AUTO 34009KT 10SM CLR 18/M01 A3006 RMK AO2
KDUB,2023-04-05T20:59:00Z,KDUB 052059Z AUTO 34013G17KT 10SM BKN065 M02/M17 A2993 RMK AO2
KDUC,2023-04-05T20:55:00Z,KDUC 052055Z AUTO 34013G18KT 10SM CLR 13/M03 A3012 RMK AO2 T01351030
KDUG,2023-04-05T20:56:00Z,KDUG 052056Z AUTO 10SM CLR 16/M19 A3003 RMK AO2 SLP151 T01561194 56024 TSNO
KDUH,2023-04-05T20:55:00Z,KDUH 052055Z AUTO 18013KT 10SM BKN110 19/16 A2976 RMK AO2 T01910156
KDUJ,2023-04-05T20:53:00Z,KDUJ 052053Z AUTO 22016G31KT 10SM FEW080 28/10 A2991 RMK AO2 PK WND 22031/2046 SLP114 T02830100 58007
KDUX,2023-04-05T20:55:00Z,KDUX 052055Z AUTO 35005KT 10SM CLR 10/M11 A3009 RMK AO2 T00971109
KDVK,2023-04-05T20:50:00Z,KDVK 052050Z AUTO 24021G30KT 10SM BKN075 30/12 A2994 RMK AO2
KDVL,2023-04-05T20:56:00Z,KDVL 052056Z AUTO 32028G31KT 3/4SM -SN BR BKN013 OVC018 M05/M07 A2969 RMK AO2 PK WND 31037/2010 SLP093 P0000 60000 T10501072 51010 FZRANO
KDVN,2023-04-05T20:52:00Z,KDVN 052052Z AUTO 27021G31KT 10SM BKN029 06/M01 A2994 RMK AO2 PK WND 26033/2000 SLP133 T00561011 51042
KDVO,2023-04-05T20:55:00Z,KDVO 052055Z AUTO 12007KT 090V150 10SM CLR 16/02 A3022 RMK AO2
KDVP,2023-04-05T20:53:00Z,KDVP 052053Z AUTO 27027G32KT 10SM OVC022 M04/M07 A2989 RMK AO2 T10391074
KDVT,2023-04-05T20:53:00Z,KDVT 052053Z VRB06G14KT 10SM CLR 18/M14 A3006 RMK AO2 SLP171 T01781139 58022
KDWA,2023-04-05T20:55:00Z,KDWA 052055Z AUTO 00000KT 10SM 16/M00 A3023 RMK AO2
KDWH,2023-04-05T20:53:00Z,KDWH 052053Z VRB05G15KT 10SM -RA OVC034 18/14 A2994 RMK AO2 LTG DSNT ALQDS TSB12E36 SLP136 P0006 60009 T01780144 51007
KDWU,2023-04-05T20:56:00Z,KDWU 052056Z AUTO 21011G24KT 190V260 10SM FEW100 32/13 A2988 RMK AO2 SLP113 T03170128 56015
KDWX,2023-04-05T20:55:00Z,KDWX 052055Z AUTO 19009KT 7SM SCT004 SCT009 BKN017 M02/M06 A3009 RMK AO2 T10251063
KDXR,2023-04-05T20:53:00Z,KDXR 052053Z 11009KT 3SM HZ OVC007 09/06 A3021 RMK AO2 SLP230 T00890061 56018
KDXX,2023-04-05T20:55:00Z,KDXX 052055Z AUTO 28008KT 10SM BKN025 BKN031 M02/M06 A2986 RMK AO2
KDYB,2023-04-05T20:55:00Z,KDYB 052055Z AUTO VRB06KT 9SM CLR 30/19 A3012 RMK AO2
KDYL,2023-04-05T20:54:00Z,KDYL 052054Z AUTO VRB05KT 10SM OVC009 13/09 A3012 RMK AO2 SLP199 T01280089 56013
KDYR,2023-04-05T20:56:00Z,KDYR 052056Z AUTO 15006KT 10SM -RA OVC100 18/ A2997 RMK AO2 SLP152 P0002 60022 T0178 50010
KDYS,2023-04-05T20:55:00Z,KDYS 052055Z AUTO 36008KT 10SM FEW170 FEW200 16/M07 A3007 RMK AO2 SLP163 T01621075 56008
KDYT,2023-04-05T20:55:00Z,KDYT 052055Z AUTO 24028G33KT 7SM UP OVC031 M01/M06 A2952 RMK AO2
KDZB,2023-04-05T20:55:00Z,KDZB 052055Z AUTO 35010KT 7SM BKN080 22/M03 A3003 RMK AO2 T02151027
KDZJ,2023-04-05T20:55:00Z,KDZJ 052055Z AUTO 16009KT 10SM BKN060 OVC065 26/15 A3013 RMK AO2 T02610152
KE11,2023-04-05T20:55:00Z,KE11 052055Z AUTO 33008KT 10SM CLR 18/M16 A3006 RMK AO2 T01821161
KE16,2023-04-05T20:55:00Z,KE16 052055Z AUTO 20003KT 10SM CLR 15/00 A3022 RMK AO2
KE38,2023-04-05T20:55:00Z,KE38 052055Z AUTO 02005KT 10SM CLR 18/M13 A3011 RMK AO2 T01781135
KE41,2023-04-05T20:55:00Z,KE41 052055Z AUTO 02006KT 10SM CLR 18/M16 A3007 RMK AO2 T01821162
KE42,2023-04-05T20:55:00Z,KE42 052055Z AUTO 03006KT 10SM CLR 10/M12 A3011 RMK AO2 T01051121
KEAN,2023-04-05T20:50:00Z,KEAN 052050Z AUTO 10003KT 10SM CLR M01/M09 A3004 RMK AO2 T10071086
KEAR,2023-04-05T20:56:00Z,KEAR 052056Z AUTO 31013G17KT 10SM FEW060 06/M09 A3008 RMK AO2 SLP200 T00561094 53012
KEAT,2023-04-05T20:55:00Z,KEAT 052055Z AUTO 14015G23KT 10SM CLR 12/M09 A3006 RMK AO2 SLP185 T01221094 $
KEAU,2023-04-05T20:56:00Z,KEAU 052056Z 25023G34KT 10SM OVC034 01/M07 A2972 RMK AO2 PK WND 25036/2001 SLP071 T00061072 53023
KEBA,2023-04-05T20:55:00Z,KEBA 052055Z AUTO 23009G16KT 10SM CLR 29/16 A3008 RMK AO2 T02950161
KEBG,2023-04-05T20:55:00Z,KEBG 052055Z AUTO 32007KT 3SM BR SCT005 SCT013 OVC021 25/25 A2980 RMK AO2 T02500245
KEBS,2023-04-05T20:55:00Z,KEBS 052055Z AUTO 27023G29KT 10SM SCT037 04/M07 A2994 RMK AO2
KECG,2023-04-05T20:54:00Z,KECG 052054Z 17011G18KT 10SM CLR 27/18 A3013 RMK AO2 SLP201 T02720178 56014
KECP,2023-04-05T20:53:00Z,KECP 052053Z 15013KT 10SM CLR 28/21 A3009 RMK AO1 SLP199 T02830206 58002
KECS,2023-04-05T20:55:00Z,KECS 052055Z AUTO 31015G19KT 10SM OVC029 M03/M10 A3004 RMK AO2
KECU,2023-04-05T20:55:00Z,KECU 052055Z AUTO 02009G17KT 10SM CLR 22/M15 A3005 RMK AO2
KEDC,2023-04-05T20:55:00Z,KEDC 052055Z AUTO 03018G22KT 10SM BKN070 OVC100 22/M04 A2999 RMK AO2
KEDE,2023-04-05T21:10:00Z,KEDE 052110Z AUTO 18010KT 10SM CLR 29/21 A3014 RMK AO2 T02860209
KEDJ,2023-04-05T20:55:00Z,KEDJ 052055Z AUTO 25011KT 4SM BR 17/16 A2992 RMK A01 P0012
KEDN,2023-04-05T20:55:00Z,KEDN 052055Z AUTO 20012G15KT 10SM CLR 29/18 A3007 RMK AO2 T02920177 PWINO
KEDU,2023-04-05T20:55:00Z,KEDU 052055Z AUTO 18004KT 10SM CLR 15/00 A3022 RMK AO1
KEDW,2023-04-05T20:55:00Z,KEDW 052055Z 10005KT 90SM FEW220 14/M09 A3012 RMK AO2A SLP200 T01411092 57014
KEED,2023-04-05T20:56:00Z,KEED 052056Z AUTO 03008G23KT 010V080 10SM CLR 18/M13 A3014 RMK AO2 SLP193 T01781128 56021
KEEN,2023-04-05T20:56:00Z,KEEN 052056Z AUTO 16010G15KT 10SM OVC024 04/M01 RMK AO2 SLPNO T00441006 $
KEEO,2023-04-05T21:03:00Z,KEEO 052103Z AUTO 17006KT 9SM FEW022 SCT031 BKN050 M02/M06 A3006 RMK AO2 SNE00 P0000 T10221061
KEET,2023-04-05T20:53:00Z,KEET 052053Z AUTO VRB06KT 10SM FEW055 SCT075 BKN100 29/17 A3005 RMK AO2 SLP170 6//// T02890167 50003
KEFK,2023-04-05T20:55:00Z,KEFK 052055Z AUTO 16008KT 1 1/4SM -RA SCT014 OVC026 02/01 A3016 RMK AO2 T00190006
KEFT,2023-04-05T20:55:00Z,KEFT 052055Z AUTO 26025G36KT 10SM OVC025 06/00 A2979 RMK AO2 T00571005
KEGE,2023-04-05T20:56:00Z,KEGE 052056Z 31010KT 10SM SCT065 BKN090 OVC110 M01/M11 A3006 RMK AO2 WSHFT 2028 SLP091 6//// T10061111 53008 PNO $
KEGI,2023-04-05T20:55:00Z,KEGI 052055Z AUTO 17015KT 10SM CLR 27/20 A3008 RMK AO2 SLP185 T02730201 56004 $
KEGT,2023-04-05T20:55:00Z,KEGT 052055Z AUTO 33011G15KT 10SM CLR 12/M06 A3011 RMK AO2 T01231065
KEGV,2023-04-05T20:55:00Z,KEGV 052055Z AUTO 25025G30KT 10SM BKN024 OVC031 02/M04 A2950 RMK AO2 T00161036
KEHA,2023-04-05T20:55:00Z,KEHA 052055Z AUTO 01013KT 10SM CLR 09/M12 A3012 RMK AO2 T00901124
KEHR,2023-04-05T20:56:00Z,KEHR 052056Z AUTO 23013KT 10SM BKN022 OVC110 18/16 A2993 RMK AO2 TSB02E30RAE36 SLPNO P0001 6//// T01780161
KEIK,2023-04-05T20:55:00Z,KEIK 052055Z AUTO 34008KT 10SM CLR 05/M08 A3000 RMK AO2 T00491078
KEKE,2023-04-05T20:55:00Z,KEKE 052055Z AUTO 11018KT 3SM BR CLR 25/23 A2987 RMK A01
KEKM,2023-04-05T20:55:00Z,KEKM 052055Z 22016G22KT 8SM BKN029 BKN034 BKN045 19/16 A2974 RMK AO2 T01950164 $
KEKN,2023-04-05T20:51:00Z,KEKN 052051Z AUTO 21010G17KT 10SM BKN090 29/11 A2998 RMK AO2 SLP144 T02940106 56022
KEKO,2023-04-05T20:56:00Z,KEKO 052056Z AUTO 23004KT 9SM OVC065 01/M11 A3017 RMK AO2 SLP246 T00061106 55001
KEKQ,2023-04-05T20:56:00Z,KEKQ 052056Z AUTO 24021G26KT 10SM FEW075 28/14 A2999 RMK AO2 PK WND 23029/2021 SLP143 T02780144 53000
KEKS,2023-04-05T20:55:00Z,KEKS 052055Z AUTO 00000KT 3SM -SN FEW021 SCT025 SCT032 M02/M08 A3007 RMK AO2
KEKX,2023-04-05T20:55:00Z,KEKX 052055Z AUTO 24009KT 10SM VCTS SCT060 SCT075 OVC090 22/17 A2993 RMK AO2 LTG DSNT SW THRU N P0001 60001 T02150171
KEKY,2023-04-05T20:56:00Z,KEKY 052056Z AUTO 22010G15KT 10SM FEW060 29/18 A3006 RMK AO2 SLP025 T02940178 50000
KELA,2023-04-05T20:55:00Z,KELA 052055Z AUTO 01011G17KT 10SM OVC033 18/13 A2995 RMK AO2 T01840126
KELD,2023-04-05T21:02:00Z,KELD 052102Z AUTO 21003KT 10SM -RA SCT006 BKN024 OVC100 18/18 A2997 RMK AO2 LTG DSNT NE AND SW P0000 T01830178
KELK,2023-04-05T20:55:00Z,KELK 052055Z AUTO 36006G15KT 10SM CLR 13/M09 A3010 RMK AO2 SLP475 T01331087 $
KELM,2023-04-05T20:53:00Z,KELM 052053Z AUTO VRB03KT 10SM -RA FEW025 SCT090 BKN110 23/15 A2990 RMK AO2 LTG DSNT N RAB39 SLP124 P0000 60000 T02280150 55013
KELN,2023-04-05T20:53:00Z,KELN 052053Z AUTO 14009G17KT 10SM CLR 11/M06 A3008 RMK AO2 SLP197 T01061061 56016
KELO,2023-04-05T20:55:00Z,KELO 052055Z AUTO 23014G27KT 5SM -SN SCT004 SCT008 OVC016 M01/M03 A2933 RMK AO2
KELP,2023-04-05T20:51:00Z,KELP 052051Z VRB06KT 10SM FEW220 BKN250 14/M16 A3005 RMK AO2 SLP145 T01441156 57020
KELY,2023-04-05T20:53:00Z,KELY 052053Z AUTO 05005KT 10SM FEW048 BKN065 M01/M12 A3014 RMK AO2 SLP251 T10061122 55001 $
KELZ,2023-04-05T20:56:00Z,KELZ 052056Z AUTO 20011G22KT 170V230 10SM BKN080 BKN110 24/14 A2990 RMK AO2 LTG DSNT N RAE1957 SLP119 P0000 60002 T02440139 56003
KEMM,2023-04-05T20:55:00Z,KEMM 052055Z AUTO 27010G16KT 10SM CLR M02/M09 A3005 RMK AO2 TSNO
KEMP,2023-04-05T20:53:00Z,KEMP 052053Z AUTO 31009G21KT 280V350 10SM CLR 11/M06 A3008 RMK AO2 SLP194 T01111056 51012
KEMT,2023-04-05T20:48:00Z,KEMT 052048Z 12007KT 10SM CLR 20/M05 A3009
KEMV,2023-04-05T20:55:00Z,KEMV 052055Z AUTO 18010G15KT 10SM CLR 29/16 A3011 RMK AO2 T02900160 TSNO
KEND,2023-04-05T20:55:00Z,KEND 052055Z AUTO 32010G17KT 10SM CLR 13/M07 A3008 RMK AO2 SLP191 T01341073 58001 $
KENL,2023-04-05T20:55:00Z,KENL 052055Z AUTO 30014G28KT 10SM SCT018 SCT032 12/09 A2997 RMK AO2 T01200091
KENV,2023-04-05T20:56:00Z,KENV 052056Z AUTO VRB05G15KT 10SM SCT075 06/M12 A3018 RMK AO2 SLP240 6//// T00561117 53000 PNO $
KENW,2023-04-05T20:53:00Z,KENW 052053Z 27019G32KT 10SM CLR 11/03 A2974 RMK AO2 PK WND 27039/2021 SLP070 T01060033 53061 $
KEOE,2023-04-05T20:35:00Z,KEOE 052035Z AUTO 21009KT 180V240 10SM CLR 30/15 A3013 RMK AO2
KEOK,2023-04-05T20:55:00Z,KEOK 052055Z AUTO 27015G21KT 10SM CLR 09/01 A2997 RMK A01
KEPH,2023-04-05T20:53:00Z,KEPH 052053Z AUTO 18014G21KT 10SM CLR 12/M07 A3010 RMK AO2 SLP202 T01221067 58016
KEQA,2023-04-05T20:55:00Z,KEQA 052055Z AUTO 31010G16KT 10SM CLR 12/M07 A3009 RMK AO2
KEQY,2023-04-05T20:53:00Z,KEQY 052053Z AUTO VRB04KT 10SM SCT065 BKN080 29/15 A3010 RMK AO2 SLP192 T02890150 56014
KERI,2023-04-05T20:51:00Z,KERI 052051Z 19010KT 10SM BKN085 OVC110 22/17 A2984 RMK AO2 PK WND 24028/1956 RAE41 SLP103 P0001 60001 T02170172 51018
KERV,2023-04-05T20:55:00Z,KERV 052055Z AUTO 35012G19KT 10SM BKN070 OVC090 22/M05 A3000 RMK AO2 T02211048
KERY,2023-04-05T20:55:00Z,KERY 052055Z AUTO 15012G17KT 1 1/2SM -RA OVC004 03/03 A2947 RMK AO2 T00310027
KESC,2023-04-05T20:56:00Z,KESC 052056Z AUTO 25014G21KT 10SM OVC020 08/04 A2948 RMK AO2 PK WND 26026/2015 SLP989 60000 T00780044 53008
KESF,2023-04-05T21:09:00Z,KESF 052109Z AUTO 20006KT 10SM -TSRA FEW037 SCT048 BKN060 27/22 A2991 RMK AO2 LTG DSNT N AND NW RAB00 TSB03 P0000 T02670222
KESN,2023-04-05T20:50:00Z,KESN 052050Z 17014G21KT 10SM SCT080 28/18 A3009
KEST,2023-04-05T20:52:00Z,KEST 052052Z AUTO 29024G37KT 10SM OVC024 M01/M06 A2991 RMK AO2 PK WND 27037/2047 SLP142 T10061061 51031
KETB,2023-04-05T20:55:00Z,KETB 052055Z AUTO 27023G29KT 10SM SCT031 09/02 A2965 RMK AO2
KETC,2023-04-05T21:00:00Z,KETC 052100Z AUTO 18006KT 7SM HZ SCT060 30/16 A3011 RMK AO2 T02970157
KETN,2023-04-05T20:50:00Z,KETN 052050Z AUTO 31008KT 10SM CLR 15/M02 A3010 RMK AO2 T01541020
KEUF,2023-04-05T20:58:00Z,KEUF 052058Z AUTO 18006KT 10SM CLR 32/19 A3008 RMK AO2 SLP181 T03170194 56007
KEUG,2023-04-05T20:54:00Z,KEUG 052054Z 20008KT 10SM FEW034 BKN047 OVC070 12/03 A3016 RMK AO2 SLP215 T01170033 56016
KEUL,2023-04-05T20:56:00Z,KEUL 052056Z AUTO VRB03KT 10SM OVC070 08/M08 A3019 RMK AO2 SLP239 T00831078 56008
KEVB,2023-04-05T20:50:00Z,KEVB 052050Z 14015KT 10SM CLR 28/21 A3013
KEVM,2023-04-05T21:02:00Z,KEVM 052102Z AUTO 25018G28KT 1SM -SN OVC013 M03/M05 A2943 RMK AO2
KEVU,2023-04-05T20:55:00Z,KEVU 052055Z AUTO 31014G21KT 10SM CLR 10/M04 A3003 RMK AO2 T01001043
KEVV,2023-04-05T20:54:00Z,KEVV 052054Z 23013KT 10SM BKN110 18/16 A2992 RMK AO2 PK WND 23026/1956 RAE46 TSB06E21 SLP128 P0004 60057 T01780156
KEVW,2023-04-05T20:53:00Z,KEVW 052053Z AUTO 25015KT 10SM CLR M05/M09 A3007 RMK AO2 SLP224 T10501094 53006
KEWB,2023-04-05T20:53:00Z,KEWB 052053Z 06007KT 3SM BR OVC014 06/03 A3028 RMK AO2 SLP253 60000 T00560033 58015
KEWK,2023-04-05T20:56:00Z,KEWK 052056Z AUTO 34009KT 10SM CLR 12/M08 A3010 RMK AO2 SLP197 T01171083 53005
KEWN,2023-04-05T20:54:00Z,KEWN 052054Z 21011KT 10SM CLR 28/15 A3015 RMK AO2 SLP210 T02830150 55008
KEWR,2023-04-05T20:54:00Z,KEWR 052054Z 08006KT 1SM R04R/5500VP6000FT -DZ BR OVC004 11/09 A3018 RMK AO2 SFC VIS 1 1/2 P0000 T01060094
KEXX,2023-04-05T21:10:00Z,KEXX 052110Z AUTO 18009KT 10SM SCT065 SCT080 29/17 A3010 RMK AO2 T02850167
KEYE,2023-04-05T21:03:00Z,KEYE 052103Z AUTO 16006KT 2 1/2SM +RA BR SCT013 BKN055 OVC090 16/15 A2981 RMK AO2 PRESFR P0005 T01610150
KEYF,2023-04-05T21:10:00Z,KEYF 052110Z AUTO 19008KT 10SM CLR 30/14 A3014 RMK AO2 T02960135
KEYW,2023-04-05T20:53:00Z,KEYW 052053Z 11016G28KT 10SM FEW027 SCT041 BKN050 28/21 A3004 RMK AO2 PK WND 12028/2046 SLP177 60000 T02780211 58017 $
KEZF,2023-04-05T20:55:00Z,KEZF 052055Z AUTO 19013G19KT 10SM CLR 30/15 A3000 RMK AO2 T03010148
KEZM,2023-04-05T20:55:00Z,KEZM 052055Z AUTO 19009KT 10SM CLR 31/17 A3010 RMK AO2
KEZP,2023-04-05T21:05:00Z,KEZP 052105Z AUTO 18011G17KT 160V220 7SM CLR 27/23 A2991 RMK A01
KEZS,2023-04-05T20:55:00Z,KEZS 052055Z AUTO 26018G26KT 7SM BKN030 BKN037 08/02 A2959 RMK AO2 T00830015
KEZZ,2023-04-05T20:55:00Z,KEZZ 052055Z AUTO 29015G22KT 10SM SCT050 09/M04 A3006 RMK AO2 T00851039
KF00,2023-04-05T20:55:00Z,KF00 052055Z AUTO 35008G16KT 320V020 10SM CLR 17/03 A3006 RMK AO2 T01700025
KF05,2023-04-05T21:00:00Z,KF05 052100Z AUTO 10SM CLR 16/M06 A3012 RMK AO2 T01601058
KF17,2023-04-05T20:55:00Z,KF17 052055Z AUTO 31006KT 10SM SCT022 OVC050 20/16 A2997 RMK AO2
KF44,2023-04-05T20:55:00Z,KF44 052055Z AUTO 34007KT 300V360 10SM BKN095 19/06 A3001 RMK AO2
KF46,2023-04-05T20:55:00Z,KF46 052055Z AUTO 34009G16KT 10SM SCT110 18/04 A3005 RMK AO2 T01820038
KF70,2023-04-05T20:55:00Z,KF70 052055Z AUTO 00000KT 10SM CLR 18/M04 A3007 RMK AO2
KFAF,2023-04-05T20:55:00Z,KFAF 052055Z AUTO 20010KT 10SM CLR 29/15 A3006 RMK AO2 SLP183 T02890147 56014 $
KFAM,2023-04-05T20:56:00Z,KFAM 052056Z AUTO 31011KT 10SM CLR 11/07 A3000 RMK AO2 SLP166 T01110067 51045
KFAR,2023-04-05T21:00:00Z,KFAR 052100Z 29022G28KT 8SM BLSN SCT022 SCT026 OVC036 M03/M07 A2970 RMK AO2 PK WND 29028/2059 T10281067
KFAT,2023-04-05T20:53:00Z,KFAT 052053Z 24004KT 10SM FEW060 SCT250 17/M02 A3020 RMK AO2 SLP225 T01671022 58013
KFAY,2023-04-05T20:53:00Z,KFAY 052053Z 18009KT 10SM CLR 31/16 A3011 RMK AO2 SLP190 T03060156 56016
KFBG,2023-04-05T20:55:00Z,KFBG 052055Z AUTO 23010KT 10SM FEW060 30/15 A3010 RMK AO2 SLP194 T03030148 56017 $
KFBL,2023-04-05T20:55:00Z,KFBL 052055Z AUTO 25017G25KT 10SM OVC032 M01/M06 A2982 RMK AO2
KFCI,2023-04-05T20:56:00Z,KFCI 052056Z AUTO 20013G16KT 10SM BKN060 BKN075 29/17 RMK AO2 SLPNO 6//// T02940167 $
KFCM,2023-04-05T20:53:00Z,KFCM 052053Z 26021G34KT 220V280 10SM OVC029 M03/M08 A2976 RMK AO2 PK WND 27037/2001 SLP089 T10331078 51020
KFCS,2023-04-05T20:55:00Z,KFCS 052055Z 18008KT 10SM FEW040 SCT050 BKN060 03/M14 A2998 RMK AO2A SLP202 T00301142 53003 $
KFDK,2023-04-05T20:47:00Z,KFDK 052047Z 20015G21KT 10SM CLR 31/15 A2997
KFDR,2023-04-05T20:53:00Z,KFDR 052053Z AUTO 36009G18KT 10SM CLR 16/M03 A3008 RMK AO2 SLP181 T01561033 58004
KFDW,2023-04-05T20:55:00Z,KFDW 052055Z AUTO 18006KT 10SM SCT060 BKN070 28/15 A3011 RMK AO1
KFDY,2023-04-05T20:53:00Z,KFDY 052053Z AUTO 19015KT 4SM -RA BKN070 OVC090 18/15 A2982 RMK AO2 RAB01E10B35 SLP092 P0003 60018 T01780150 53008
KFEP,2023-04-05T20:55:00Z,KFEP 052055Z AUTO 27020G27KT 10SM BKN029 07/03 A2984 RMK AO2 T00690027
KFET,2023-04-05T20:55:00Z,KFET 052055Z AUTO 27018G26KT 10SM SCT050 06/M07 A3004 RMK AO2 T00581073
KFEW,2023-04-05T20:59:00Z,KFEW 052059Z 26006KT 3 -SN BKN020 M02/M08 A2998 RMK SLPNO RVRNO PWINO WIND DATA ESTMD ALSTG SLP ESTMD $
KFFA,2023-04-05T21:10:00Z,KFFA 052110Z AUTO 17007G15KT 130V190 10SM CLR 24/18 A3015 RMK AO2 T02410180
KFFC,2023-04-05T20:53:00Z,KFFC 052053Z AUTO VRB05KT 10SM BKN060 BKN080 29/16 A3009 RMK AO2 SLP182 T02890156 56009
KFFL,2023-04-05T20:55:00Z,KFFL 052055Z AUTO 27014G23KT 10SM FEW038 08/M04 A2996 RMK A01
KFFM,2023-04-05T20:55:00Z,KFFM 052055Z AUTO 28024G30KT 2SM UP BKN021 OVC026 M05/M08 A2971 RMK AO2 VI
KFFO,2023-04-05T21:00:00Z,KFFO 052100Z 20009KT 5SM -RA BR FEW050 OVC065 16/15 A2992 RMK AO2A LTG DSNT E SLP131
KFFT,2023-04-05T20:53:00Z,KFFT 052053Z AUTO 21017G26KT 10SM BKN075 OVC090 28/14 A2989 RMK AO2 PK WND 20033/1955 SLP114 T02780139 53002
KFFX,2023-04-05T20:55:00Z,KFFX 052055Z AUTO 26014G22KT 10SM OVC018 14/09 A2964 RMK AO2 T01400090
KFFZ,2023-04-05T20:54:00Z,KFFZ 052054Z 23005KT 10SM CLR 18/M13 A3006 RMK AO2 SLP167 T01831128 56021
KFGN,2023-04-05T20:55:00Z,KFGN 052055Z AUTO 01006KT 1SM -SN BKN007 OVC012 M06/M08 A2947 RMK AO2
KFGX,2023-04-05T20:55:00Z,KFGX 052055Z AUTO 28021G28KT 240V350 10SM SCT075 29/13 A2992 RMK AO2 T02850128
KFHB,2023-04-05T20:55:00Z,KFHB 052055Z AUTO 14012KT 10SM CLR 26/25 A3013 RMK AO2
KFHR,2023-04-05T20:53:00Z,KFHR 052053Z AUTO 14013KT 10SM CLR 11/02 A3014 RMK AO2 SLP207 6//// T01060017 56008
KFHU,2023-04-05T20:55:00Z,KFHU 052055Z AUTO 01007KT 10SM CLR 15/M20 A3004 RMK AO2 SLP159 T01531204 57021
KFIG,2023-04-05T20:54:00Z,KFIG 052054Z AUTO 20011G17KT 10SM CLR 28/12 A2989 RMK AO2 PK WND 20027/2027 SLP116 T02830117 58021 $
KFIN,2023-04-05T20:50:00Z,KFIN 052050Z 12015G20KT 10SM CLR 27/19 A3013
KFIT,2023-04-05T20:52:00Z,KFIT 052052Z AUTO 12009KT 10SM OVC020 04/M01 A3032 RMK AO2 SLP270 T00441011 56016
KFKA,2023-04-05T20:55:00Z,KFKA 052055Z AUTO 28019G29KT 7SM OVC028 00/M05 A2983 RMK AO2 T00001050
KFKL,2023-04-05T20:56:00Z,KFKL 052056Z AUTO 25009G20KT 10SM FEW034 24/13 A2991 RMK AO2 PK WND 26029/2024 RAB21E46 SLP122 P0000 60000 T02390133 53002
KFKN,2023-04-05T20:55:00Z,KFKN 052055Z AUTO 20012G15KT 10SM CLR 30/13 A3010 RMK AO2 T02970127
KFKR,2023-04-05T20:55:00Z,KFKR 052055Z AUTO 21012G22KT 10SM 17/15 A2980 RMK AO2
KFKS,2023-04-05T20:55:00Z,KFKS 052055Z AUTO 24006KT 10SM BKN006 OVC015 08/07 A2958 RMK AO2 T00800066
KFLD,2023-04-05T20:53:00Z,KFLD 052053Z AUTO 26017G30KT 10SM CLR 09/ A2964 RMK AO2 PK WND 25036/1954 SLP042 T0094 53028
KFLG,2023-04-05T20:57:00Z,KFLG 052057Z 30007KT 260V330 10SM CLR 05/M14 A3007 RMK AO2 SLP191 T00501139 58005
KFLL,2023-04-05T20:53:00Z,KFLL 052053Z AUTO 11015G22KT 10SM FEW025 29/21 A3007 RMK AO2 SLP183 T02890211 56012 PWINO
KFLO,2023-04-05T20:53:00Z,KFLO 052053Z 20007KT 160V230 10SM CLR 31/16 A3012 RMK AO2 SLP196 T03060161 56015
KFLP,2023-04-05T20:56:00Z,KFLP 052056Z AUTO 32008G16KT 270V360 10SM CLR 13/04 A3003 RMK AO2 SLP166 T01330039 50017
KFLY,2023-04-05T20:55:00Z,KFLY 052055Z AUTO 18009KT 10SM SCT042 SCT055 BKN080 02/M15 A3000 RMK AO2 T00201150
KFME,2023-04-05T21:09:00Z,KFME 052109Z AUTO 13009KT 10SM SCT070 27/12 A3002 RMK AO1
KFMH,2023-04-05T20:45:00Z,KFMH 052045Z 05014KT 6SM BR OVC013 06/03 A3028
KFMM,2023-04-05T20:55:00Z,KFMM 052055Z AUTO 29008G16KT 10SM CLR 04/M11 A3004 RMK AO2
KFMN,2023-04-05T20:53:00Z,KFMN 052053Z 00000KT 10SM CLR 04/M21 A3008 RMK AO2 SLP202 T00441211 55006
KFMY,2023-04-05T20:53:00Z,KFMY 052053Z AUTO 13013G21KT 10SM CLR 33/14 A3003 RMK AO2 SLP169 T03330144 56018
KFNB,2023-04-05T20:53:00Z,KFNB 052053Z AUTO 31013G21KT 10SM CLR 11/M07 A3004 RMK AO2 SLP176 T01061067 53012
KFNL,2023-04-05T20:56:00Z,KFNL 052056Z 07003KT 10SM CLR 04/M07 A3003 RMK AO2 SLP193 T00441067 55002
KFNT,2023-04-05T20:53:00Z,KFNT 052053Z AUTO 19013G21KT 10SM CLR 20/14 A2966 RMK AO2 SLP042 60000 T02000144 58011
KFOA,2023-04-05T20:55:00Z,KFOA 052055Z AUTO 28020G28KT 10SM -RA BKN012 OVC019 14/12 A2995 RMK AO2
KFOD,2023-04-05T20:56:00Z,KFOD 052056Z AUTO 27017G24KT 10SM BKN033 03/M06 A2996 RMK AO2 PK WND 29026/2017 SLP170 T00281061 53020
KFOE,2023-04-05T20:53:00Z,KFOE 052053Z 29009G20KT 10SM CLR 11/M04 A3007 RMK AO2 SLP186 T01061044 51013 $
KFOK,2023-04-05T20:53:00Z,KFOK 052053Z 08011G18KT 4SM -RA BR OVC004 07/07 A3023 RMK AO2 RAB35 SLP236 P0000 60000 T00720067 56015
KFOZ,2023-04-05T20:53:00Z,KFOZ 052053Z AUTO 28009KT 2 1/2SM SCT003 BKN010 OVC016 M02/M06 A2950 RMK AO2
KFPK,2023-04-05T20:55:00Z,KFPK 052055Z AUTO 23019G26KT 10SM SCT050 21/13 A2966 RMK AO2 T02090125
KFPR,2023-04-05T20:53:00Z,KFPR 052053Z 10014KT 10SM FEW029 28/20 A3010 RMK AO2 SLP193 T02780200 56014
KFPY,2023-04-05T20:55:00Z,KFPY 052055Z AUTO 24009KT 10SM CLR 30/16 A3010 RMK AO2 T02970156
KFQD,2023-04-05T21:10:00Z,KFQD 052110Z AUTO 21009G18KT 10SM SCT055 BKN085 27/16 A3011 RMK AO2
KFRG,2023-04-05T20:53:00Z,KFRG 052053Z 09009KT 1SM BR OVC004 09/08 A3020 RMK AO2 SFC VIS 1 1/2 SLP225 60000 T00940083 56009
KFRH,2023-04-05T20:55:00Z,KFRH 052055Z AUTO 24006G14KT 7SM BKN006 BKN044 OVC070 16/15 A2992 RMK AO1
KFRI,2023-04-05T20:55:00Z,KFRI 052055Z AUTO 31014G18KT 10SM CLR 11/M08 A3008 RMK AO2 SLP190 T01141085 53002 $
KFRM,2023-04-05T20:56:00Z,KFRM 052056Z AUTO 29025G30KT 10SM OVC026 M02/M06 A2989 RMK AO2 PK WND 29034/2035 SLP139 T10171061 53029 FZRANO
KFSD,2023-04-05T20:56:00Z,KFSD 052056Z 29022G33KT 9SM -SN OVC024 M02/M08 A2996 RMK AO2 PK WND 28042/1957 SLP163 P0000 60000 T10171083 51028
KFSE,2023-04-05T20:55:00Z,KFSE 052055Z AUTO 27014G21KT 3/4SM -SN BKN003 BKN013 OVC017 M06/M08 A2957 RMK AO2
KFSI,2023-04-05T20:55:00Z,KFSI 052055Z AUTO 03013G17KT 10SM CLR 15/M05 A3008 RMK AO2 SLP184 T01471046 56005 FZRANO $
KFSK,2023-04-05T20:55:00Z,KFSK 052055Z AUTO 28011KT 10SM CLR 12/M02 A3009 RMK AO2 T01221019
KFSM,2023-04-05T20:53:00Z,KFSM 052053Z 35008G15KT 10SM CLR 16/02 A3004 RMK AO2 SLP169 T01610022 58001
KFSO,2023-04-05T20:55:00Z,KFSO 052055Z AUTO 14011KT 7SM -RA SCT025 BKN055 OVC065 05/05 A3003 RMK AO2 T00530047
KFST,2023-04-05T20:53:00Z,KFST 052053Z AUTO VRB04KT 10SM CLR 18/M14 A3006 RMK AO2 SLP149 T01781139 57022 $
KFSW,2023-04-05T20:55:00Z,KFSW 052055Z AUTO 26011G18KT 10SM 09/02 A2995 RMK AO2
KFTK,2023-04-05T21:04:00Z,KFTK 052104Z AUTO 26016G22KT M +RA M M A2998 RMK AO2 RAE01RAB01E02RAB04 TSE02 SLPNO ALSTG ESTMD RVRNO TSNO $
KFTN,2023-04-05T20:55:00Z,KFTN 052055Z AUTO 02014G19KT 10SM BKN060 28/M09 A2992 RMK A01
KFTW,2023-04-05T20:53:00Z,KFTW 052053Z 34008G18KT 10SM CLR 17/00 A3007 RMK AO2 SLP176 T01720000 51003
KFTY,2023-04-05T20:53:00Z,KFTY 052053Z 20008KT 10SM FEW060 SCT070 BKN090 29/17 A3007 RMK AO2 SLP175 T02940167 56009
KFUL,2023-04-05T20:53:00Z,KFUL 052053Z VRB03KT 10SM CLR 22/M02 A3008 RMK AO2 SLP183 T02221017 57018
KFVE,2023-04-05T20:53:00Z,KFVE 052053Z AUTO 19007KT 5SM -SN BKN028 OVC034 M03/M09 A3035 RMK AO2 SNB30 SLP292 P0000 60000 T10281089 56011
KFVX,2023-04-05T20:55:00Z,KFVX 052055Z AUTO 21009G15KT 10SM SCT055 30/16 A3004 RMK AO2 T02950158
KFWA,2023-04-05T20:54:00Z,KFWA 052054Z 19013KT 10SM -RA SCT050 BKN100 OVC200 17/15 A2977 RMK AO2 PK WND 22029/1957 SLP078 P0006 60006 T01720150 56005 $
KFWB,2023-04-05T20:55:00Z,KFWB 052055Z AUTO 35010G17KT 290V010 10SM CLR 11/01 A3006 RMK AO2
KFWC,2023-04-05T20:55:00Z,KFWC 052055Z AUTO 29010G19KT 7SM SCT009 BKN017 OVC110 14/14 A2993 RMK AO1 P0001 60040 T01430139
KFWN,2023-04-05T20:53:00Z,KFWN 052053Z AUTO 12006KT 10SM OVC013 12/09 A3016 RMK AO2 SLP213 T01220089 56013
KFWS,2023-04-05T20:50:00Z,KFWS 052050Z 32011KT 10SM SCT120 18/00 A3008
KFXE,2023-04-05T20:53:00Z,KFXE 052053Z 10013KT 10SM FEW023 FEW029 SCT046 28/21 A3008 RMK AO2 SLP189 T02830211 56012
KFXY,2023-04-05T20:55:00Z,KFXY 052055Z AUTO 27016G25KT 10SM OVC026 00/M05 A2989 RMK AO2
KFYE,2023-04-05T20:55:00Z,KFYE 052055Z AUTO 00000KT 10SM SCT085 18/18 A2997 RMK A01 P0007
KFYG,2023-04-05T20:55:00Z,KFYG 052055Z AUTO 24011G19KT 10SM CLR 11/04 A3001 RMK AO2
KFYJ,2023-04-05T20:55:00Z,KFYJ 052055Z AUTO 19010G17KT 10SM SCT070 29/15 A3007 RMK AO1 T02880145
KFYM,2023-04-05T20:55:00Z,KFYM 052055Z AUTO 21014G21KT 10SM CLR 29/16 A3002 RMK A01
KFYV,2023-04-05T20:53:00Z,KFYV 052053Z 34011G15KT 10SM CLR 13/02 A3006 RMK AO2 SLP170 T01330017 50004
KFZG,2023-04-05T20:55:00Z,KFZG 052055Z AUTO 18003KT 10SM SCT080 31/17 A3010 RMK AO2 T03100171
KFZY,2023-04-05T21:09:00Z,KFZY 052109Z AUTO 06004KT SCT030 BKN070 OVC110 12/12 A2988 RMK AO2 LTG DSNT E AND SE RAE06 TSE2055 P0000 T01220117 $
KGAD,2023-04-05T20:56:00Z,KGAD 052056Z AUTO 22009G20KT 10SM CLR 30/14 A3006 RMK AO2 SLP175 6//// T03000144 58002 PNO $
KGAF,2023-04-05T20:55:00Z,KGAF 052055Z AUTO 31021KT 1 1/2SM BR BKN011 OVC018 M05/M06 A2963 RMK AO2
KGAG,2023-04-05T20:53:00Z,KGAG 052053Z AUTO 35011G22KT 10SM CLR 14/M12 A3010 RMK AO2 SLP193 T01391117 55006
KGAI,2023-04-05T20:56:00Z,KGAI 052056Z AUTO 17011KT 10SM BKN065 BKN080 29/16 A3001 RMK AO2 SLP172 T02940161 56014
KGAO,2023-04-05T20:55:00Z,KGAO 052055Z AUTO 14009KT 10SM BKN014 BKN021 BKN026 30/24 A2999 RMK AO2 T02950240
KGBD,2023-04-05T20:56:00Z,KGBD 052056Z AUTO 31017G21KT 10SM CLR 11/M09 A3009 RMK AO2 SLP201 T01111089 56003
KGBG,2023-04-05T20:55:00Z,KGBG 052055Z AUTO 28018G24KT 10SM SCT032 08/02 A2995 RMK AO2 T00790022 TSNO
KGCC,2023-04-05T20:53:00Z,KGCC 052053Z AUTO 30012KT 10SM CLR M03/M08 A3001 RMK AO2 SLP208 60000 T10281083 55000
KGCD,2023-04-05T20:55:00Z,KGCD 052055Z AUTO 19007G15KT 10SM SCT060 07/M07 A3012 RMK AO2 T00701074
KGCK,2023-04-05T20:54:00Z,KGCK 052054Z 33014KT 10SM CLR 09/M11 A3010 RMK AO2 PK WND 34026/2016 SLP204 T00891111 56003
KGCM,2023-04-05T20:55:00Z,KGCM 052055Z AUTO 34008G15KT 10SM CLR 14/M02 A3010 RMK AO2
KGCN,2023-04-05T20:54:00Z,KGCN 052054Z 31009G14KT 10SM CLR 04/M11 A3009 RMK AO2 SLP202 T00391111 56003
KGCY,2023-04-05T20:55:00Z,KGCY 052055Z AUTO 27007G12KT 10SM OVC075 29/12 A3003 RMK A01
KGDA,2023-04-05T20:55:00Z,KGDA 052055Z AUTO 18003KT 10SM SCT013 BKN019 OVC120 18/16 A2993 RMK AO2 T01770156 PWINO
KGDB,2023-04-05T20:55:00Z,KGDB 052055Z AUTO 27028G35KT 10SM BKN030 OVC035 M02/M06 A2987 RMK AO2 T10191062
KGDJ,2023-04-05T20:55:00Z,KGDJ 052055Z AUTO 32006G15KT 10SM CLR 18/00 A3010 RMK AO2 T01751002
KGDV,2023-04-05T20:56:00Z,KGDV 052056Z AUTO 32016G22KT 10SM CLR M02/M10 A3004 RMK AO2 SLP210 T10221100 58002 FZRANO TSNO
KGED,2023-04-05T20:54:00Z,KGED 052054Z AUTO 19013KT 10SM CLR 27/16 A3008 RMK AO2 SLP184 T02720156 55012 $
KGEG,2023-04-05T20:53:00Z,KGEG 052053Z 20015KT 10SM SCT045 08/M05 A3011 RMK AO2 SLP210 T00831050 58009
KGEU,2023-04-05T20:50:00Z,KGEU 052050Z 29006KT 10SM FEW250 18/M14 A3007
KGEV,2023-04-05T21:10:00Z,KGEV 052110Z AUTO 17009G17KT 10SM SCT041 BKN048 BKN060 22/13 A3017 RMK AO2 T02240131
KGEY,2023-04-05T20:53:00Z,KGEY 052053Z AUTO VRB06KT CLR 13/M13 A3003 RMK AO2 SLP174 T01331133 58007
KGEZ,2023-04-05T21:01:00Z,KGEZ 052101Z AUTO 18008KT 6SM RA FEW017 SCT070 OVC100 18/15 A2989 RMK AO2 P0001 T01780150
KGFA,2023-04-05T20:55:00Z,KGFA 052055Z AUTO 22017KT 10SM BKN065 BKN110 OVC150 05/M06 A2995 RMK AO2 SLP183 T00481064 57009 $
KGFK,2023-04-05T21:07:00Z,KGFK 052107Z 30022KT 1SM R35L/P6000FT -SN BLSN BKN015 OVC020 M04/M08 A2964 RMK AO2 PK WND 30027/2106 TWR VIS 1 1/2 P0000 T10441078
KGFL,2023-04-05T20:53:00Z,KGFL 052053Z AUTO 16010KT 10SM OVC031 11/04 A3008 RMK AO2 SLP191 T01110044 58019
KGGE,2023-04-05T20:55:00Z,KGGE 052055Z AUTO 16007KT 10SM SCT028 27/20 A3016 RMK AO2
KGGF,2023-04-05T20:55:00Z,KGGF 052055Z AUTO 32023KT 10SM BKN048 04/M08 A3006 RMK AO2
KGGG,2023-04-05T20:53:00Z,KGGG 052053Z AUTO 34012KT 10SM FEW110 19/10 A2998 RMK AO2 SLP147 T01940100 53005
KGGI,2023-04-05T20:55:00Z,KGGI 052055Z AUTO 27018G25KT 10SM SCT042 07/M02 A2998 RMK AO2 T00661016
KGGP,2023-04-05T20:55:00Z,KGGP 052055Z AUTO 22014G21KT 10SM BKN017 BKN022 OVC080 17/14 A2982 RMK AO2
KGGW,2023-04-05T20:53:00Z,KGGW 052053Z AUTO 33009KT 10SM CLR M07/M12 A3008 RMK AO2 SLP233 T10721117 56005
KGHG,2023-04-05T20:55:00Z,KGHG 052055Z AUTO 08010KT 10SM OVC016 06/02 A3032 RMK AO2
KGHW,2023-04-05T20:55:00Z,KGHW 052055Z AUTO 26008KT 2SM -SN BKN018 OVC025 M05/M08 A2973 RMK AO2 VIS 1 1/2V3
KGIC,2023-04-05T20:55:00Z,KGIC 052055Z AUTO 23008KT 10SM SCT060 04/M05 A3013 RMK AO1
KGIF,2023-04-05T20:53:00Z,KGIF 052053Z AUTO 12012G21KT 10SM CLR 32/16 A3009 RMK AO2 SLP186 T03220156 56016
KGJT,2023-04-05T20:53:00Z,KGJT 052053Z 32016G27KT 10SM OVC060 03/M06 A3009 RMK AO2 PK WND 29031/2034 SLP204 T00331061 55002
KGKJ,2023-04-05T20:53:00Z,KGKJ 052053Z AUTO 20004KT 10SM -RA FEW045 FEW090 OVC110 20/17 A2989 RMK AO2 PK WND 25030/2008 LTG DSNT E SLP114 P0012 60012 T02000172 50009
KGKT,2023-04-05T20:55:00Z,KGKT 052055Z AUTO 22013G20KT 10SM SCT080 BKN090 31/14 A3001 RMK A01
KGKY,2023-04-05T20:53:00Z,KGKY 052053Z 30013G17KT 10SM BKN120 19/M02 A3005 RMK AO2 SLP169 T01891017 56003
KGLD,2023-04-05T20:53:00Z,KGLD 052053Z AUTO 35022G30KT 10SM CLR 08/M12 A3005 RMK AO2 PK WND 32032/1956 SLP194 T00781117 56001
KGLE,2023-04-05T20:55:00Z,KGLE 052055Z AUTO 35011G16KT 10SM CLR 17/M01 A3009 RMK AO2 T01701010
KGLH,2023-04-05T20:53:00Z,KGLH 052053Z AUTO 10003KT 6SM -RA BR SCT047 BKN080 OVC110 19/17 A2997 RMK AO2 LTG DSNT SE RAB1954E19B23 TSE08B15E30 SLP154 P0003 60003 T01940172 50003
KGLR,2023-04-05T20:53:00Z,KGLR 052053Z AUTO 18010KT 10SM OVC043 14/11 A2950 RMK AO2 SLP995 T01440106 58017
KGLS,2023-04-05T21:09:00Z,KGLS 052109Z 15007KT 4SM BR SCT021 BKN044 OVC060 26/23 A2989 RMK AO2 T02560233
KGLW,2023-04-05T20:55:00Z,KGLW 052055Z AUTO 23018G27KT 10SM SCT075 BKN100 28/16 A2994 RMK AO2 LTG DSNT N AND NW T02770157
KGLY,2023-04-05T20:55:00Z,KGLY 052055Z AUTO 30010KT 9SM CLR 12/M00 A3006 RMK AO2
KGMJ,2023-04-05T20:55:00Z,KGMJ 052055Z AUTO 33009KT 10SM CLR 12/00 A3009 RMK AO2
KGMU,2023-04-05T20:53:00Z,KGMU 052053Z 20010KT 10SM SCT055 BKN080 29/17 A3010 RMK AO2 SLP184 T02890167 57015
KGNA,2023-04-05T20:56:00Z,KGNA 052056Z AUTO 24028G39KT 02/M02 A2936 RMK AO1 PK WND 25039/2056 SLP952 60005 T00171017 55005
KGNB,2023-04-05T20:55:00Z,KGNB 052055Z AUTO 22008KT 7SM -SN SCT012 BKN039 OVC050 M06/M11 A3000 RMK AO2 T10621115
KGNC,2023-04-05T20:50:00Z,KGNC 052050Z AUTO 09004KT 10SM CLR 17/M17 A3010 RMK AO2 T01661166
KGNG,2023-04-05T21:00:00Z,KGNG 052100Z AUTO 26014G22KT 10SM CLR 06/M10 A3018 RMK AO2
KGNR,2023-04-05T20:56:00Z,KGNR 052056Z AUTO 14010G16KT M04/M06 A3030 RMK AO1 SLP284 P0011 60037 T10391056 55034
KGNT,2023-04-05T20:55:00Z,KGNT 052055Z AUTO 26007G14KT 10SM CLR 07/M24 A3006 RMK AO2 T00741238
KGNV,2023-04-05T20:53:00Z,KGNV 052053Z 12004KT 10SM SCT095 31/16 A3010 RMK AO2 SLP190 T03110161 56018
KGOK,2023-04-05T20:53:00Z,KGOK 052053Z AUTO VRB05G15KT 10SM CLR 12/M06 A3010 RMK AO2 SLP195 T01221061 56005
KGON,2023-04-05T21:06:00Z,KGON 052106Z 08008KT 10SM OVC008 09/06 A3025 RMK AO2 T00940056
KGOO,2023-04-05T20:55:00Z,KGOO 052055Z AUTO VRB05G13KT 10SM CLR 10/M04 A3015 RMK A01
KGOP,2023-04-05T20:55:00Z,KGOP 052055Z AUTO 10SM FEW060 FEW070 SCT090 A3007 RMK AO2
KGOV,2023-04-05T20:55:00Z,KGOV 052055Z AUTO 20006KT 9SM OVC038 16/14 A2952 RMK AO2 SLP006 T01570135 57014 $
KGPC,2023-04-05T20:55:00Z,KGPC 052055Z AUTO 22012KT 10SM -RA SCT009 BKN026 OVC100 16/15 A2989 RMK AO2 P0016 T01590151 60034
KGPI,2023-04-05T20:55:00Z,KGPI 052055Z 15014KT 10SM FEW044 FEW055 SCT080 05/M04 A3001 RMK AO2 SLP189 T00501044 56016 $
KGPT,2023-04-05T20:53:00Z,KGPT 052053Z 16011KT 10SM OVC011 27/23 A3002 RMK AO2 SLP164 T02670233 58007
KGPZ,2023-04-05T21:05:00Z,KGPZ 052105Z AUTO 28009G22KT 1 1/4SM -SN FEW010 BKN016 OVC023 M03/M06 A2952 RMK AO2 VIS 3/4V2 P0000 FZRANO
KGRB,2023-04-05T20:53:00Z,KGRB 052053Z 25015G27KT 10SM BKN032 09/02 A2960 RMK AO2 PK WND 26032/2020 SLP028 T00890022 51023
KGRD,2023-04-05T20:56:00Z,KGRD 052056Z AUTO 19011KT 10SM FEW060 29/16 A3011 RMK AO2 SLP190 T02940156 56014
KGRF,2023-04-05T20:55:00Z,KGRF 052055Z 13009KT 10SM BKN050 BKN065 BKN160 11/M01 A3011 RMK AO2A SLP202 T01121006 57014 $
KGRI,2023-04-05T20:53:00Z,KGRI 052053Z 30016G27KT 10SM CLR 07/M10 A3007 RMK AO2 PK WND 32033/1955 SLP201 T00671100 53014
KGRK,2023-04-05T20:55:00Z,KGRK 052055Z AUTO 03011KT 10SM SCT080 19/M01 A3002 RMK AO2 SLP158 T01941006 57006
KGRN,2023-04-05T20:55:00Z,KGRN 052055Z AUTO 28015G22KT 10SM OVC023 M02/M08 A3003 RMK AO2 T10201078
KGRR,2023-04-05T20:53:00Z,KGRR 052053Z 24030G41KT 10SM BKN030 BKN050 OVC160 19/13 A2966 RMK AO2 PK WND 25041/2052 SLP044 60000 T01940128 53021
KGRY,2023-04-05T20:55:00Z,KGRY 052055Z AUTO 17008KT 10SM CLR 25/23 A2998 RMK A01
KGSB,2023-04-05T20:55:00Z,KGSB 052055Z 21007KT 10SM SCT060 BKN250 30/16 A3009 RMK AO2A SLP192 T02970161 56013 $
KGSH,2023-04-05T20:53:00Z,KGSH 052053Z AUTO 23022G35KT 10SM BKN029 OVC039 19/14 A2975 RMK AO2 PK WND 23042/2008 SLP069 60000 T01940139 53020
KGSO,2023-04-05T20:54:00Z,KGSO 052054Z 20015G20KT 10SM SCT055 BKN085 BKN250 28/16 A3009 RMK AO2 SLP178 T02830156 56013
KGSP,2023-04-05T20:53:00Z,KGSP 052053Z 21011KT 10SM SCT055 SCT085 29/16 A3009 RMK AO2 SLP181 T02940161 56017
KGTB,2023-04-05T21:06:00Z,KGTB 052106Z AUTO 32003KT 2 1/4SM BR BKN002 OVC070 07/07 A2988 RMK AO2 VIS 1 3/4V3 SLP123
KGTF,2023-04-05T20:53:00Z,KGTF 052053Z 24016G23KT 10SM FEW090 BKN110 03/M08 A2995 RMK AO2 PK WND 25028/2038 SLP192 T00281078 56009
KGTR,2023-04-05T20:56:00Z,KGTR 052056Z 18011KT 10SM 31/18 A2998 RMK AO2 LTG DSNT W AND NW SLP157 T03060183 58012
KGTU,2023-04-05T20:56:00Z,KGTU 052056Z 36011KT 10SM OVC075 22/01 A3003 RMK AO2 SLP165 T02170006 58007 $
KGUC,2023-04-05T20:56:00Z,KGUC 052056Z AUTO 36010KT 10SM FEW037 M03/M11 A3002 RMK AO2 SLP215 60000 T10331106 56004 FZRANO
KGUL,2023-04-05T21:00:00Z,KGUL 052100Z AUTO 17006KT 2 1/2SM HZ CLR 26/23 A2988 RMK A01
KGUP,2023-04-05T20:53:00Z,KGUP 052053Z AUTO 20007G16KT 170V250 10SM CLR 05/M14 A3007 RMK AO2 SLP203 T00501144 56010
KGUR,2023-04-05T20:55:00Z,KGUR 052055Z AUTO 30004KT 10SM CLR M02/M09 A3005 RMK AO2 SLP238 T10251094 53003
KGUS,2023-04-05T20:55:00Z,KGUS 052055Z AUTO 23018G26KT 10SM OVC017 17/15 A2981 RMK AO2 PK WND 24026/45 RAE12 OVC V BKN PRESRR SLP094 P0001 60005 T01690147 53015 $
KGUY,2023-04-05T20:53:00Z,KGUY 052053Z AUTO 01012G17KT 10SM CLR 11/M11 A3009 RMK AO2 SLP188 T01061111 57007
KGVE,2023-04-05T20:55:00Z,KGVE 052055Z AUTO 21014G23KT 10SM SCT055 SCT065 BKN090 30/16 A3001 RMK AO1 T02950163
KGVL,2023-04-05T20:53:00Z,KGVL 052053Z AUTO 22010G20KT 190V250 10SM FEW060 BKN080 28/15 A3011 RMK AO2 SLP182 T02830150 56010
KGVQ,2023-04-05T20:56:00Z,KGVQ 052056Z AUTO 00000KT 5SM BR BKN065 BKN085 OVC110 12/12 A2984 RMK AO2 TSE06RAE26 SLP106 P0002 60034 T01220117 50003
KGVT,2023-04-05T20:55:00Z,KGVT 052055Z AUTO 31011G16KT 10SM BKN110 17/05 A3004 RMK AO2 TSNO T01720048
KGVW,2023-04-05T20:55:00Z,KGVW 052055Z AUTO 10005KT 2 1/2SM BR 23/22 A2989 RMK A01
KGWB,2023-04-05T20:55:00Z,KGWB 052055Z AUTO 22012G21KT 10SM -RA SCT028 SCT038 BKN046 17/14 A2977 RMK AO2
KGWO,2023-04-05T20:53:00Z,KGWO 052053Z AUTO 23006KT 10SM VCTS OVC075 20/18 A3002 RMK AO2 LTG DSNT E-SW RAB1957E46 SLP164 P0010 60010 T02000178 53011
KGWR,2023-04-05T20:55:00Z,KGWR 052055Z AUTO 30025G34KT 1SM BR BKN015 OVC021 M05/M05 A2978 RMK A01
KGXA,2023-04-05T20:55:00Z,KGXA 052055Z AUTO VRB06KT 10SM CLR 13/M11 A3010 RMK AO2 SLP191 WND DATA ESTMD T01261112 57014
KGXF,2023-04-05T20:55:00Z,KGXF 052055Z 02008KT 10SM SCT250 19/M18 A3008 RMK AO2A SLP183 T01851180 57017 FZRANO $
KGXY,2023-04-05T20:56:00Z,KGXY 052056Z VRB04KT 10SM CLR 04/M12 A3003 RMK AO2 SLP210 T00391117 56005
KGYB,2023-04-05T20:55:00Z,KGYB 052055Z AUTO 36010G16KT 10SM OVC055 20/06 A2999 RMK AO2 T02000060
KGYF,2023-04-05T20:55:00Z,KGYF 052055Z AUTO 14019KT 10SM CLR 25/23 A2983 RMK AO2
KGYH,2023-04-05T20:47:00Z,KGYH 052047Z 20014KT 10SM SCT060 SCT080 28/16 A3010
KGYI,2023-04-05T20:50:00Z,KGYI 052050Z 34009KT 10SM CLR 17/02 A3007
KGYL,2023-04-05T20:55:00Z,KGYL 052055Z AUTO 27017G30KT 10SM -SN SCT027 OVC035 M02/M07 A2980 RMK AO2 T10251070
KGYR,2023-04-05T20:47:00Z,KGYR 052047Z 36007G15KT 10SM FEW250 19/M13 A3009
KGYY,2023-04-05T20:45:00Z,KGYY 052045Z 25020G39KT 10SM SCT019 SCT110 10/04 A2981
KGZH,2023-04-05T20:53:00Z,KGZH 052053Z AUTO 20010G17KT 10SM SCT040 BKN047 BKN055 29/19 A3006 RMK AO2 SLP175 T02890189 58000
KGZL,2023-04-05T20:55:00Z,KGZL 052055Z AUTO 34011KT 10SM CLR 15/01 A3006 RMK AO2
KGZN,2023-04-05T20:40:00Z,KGZN 052040Z AUTO 36005G15KT 10SM CLR 15/M04 A3008 RMK AO2
KGZS,2023-04-05T20:55:00Z,KGZS 052055Z AUTO 19014KT 10SM SCT055 BKN065 OVC110 28/17 A2997 RMK A01
KH71,2023-04-05T20:55:00Z,KH71 052055Z AUTO VRB05G12KT 10SM CLR 13/M01 A3009 RMK AO2
KHAE,2023-04-05T20:55:00Z,KHAE 052055Z AUTO 28013G23KT 10SM CLR 11/00 A2998 RMK AO2
KHAF,2023-04-05T20:55:00Z,KHAF 052055Z AUTO 29007G14KT 9SM FEW018 11/06 A3026 RMK AO2
KHAI,2023-04-05T20:55:00Z,KHAI 052055Z AUTO 23015G27KT 10SM SCT036 OVC044 21/12 A2972 RMK AO2 T02050121
KHAO,2023-04-05T21:08:00Z,KHAO 052108Z AUTO 25003KT 1SM VCTS +RA BR BKN047 OVC070 16/15 A2996 RMK AO2 LTG DSNT ALQDS TSE02 P0009 T01560150
KHBG,2023-04-05T20:53:00Z,KHBG 052053Z AUTO 18011KT 10SM FEW041 30/20 A3001 RMK AO2 SLP158 T03000200 58009
KHBI,2023-04-05T21:05:00Z,KHBI 052105Z AUTO 22010G15KT 10SM BKN065 BKN090 29/13 A3012 RMK AO2 T02930134
KHBR,2023-04-05T20:53:00Z,KHBR 052053Z AUTO 04008G19KT 360V080 10SM CLR 14/M06 A3010 RMK AO2 SLP194 T01441056 58008
KHBV,2023-04-05T20:55:00Z,KHBV 052055Z AUTO 02016G20KT 10SM OVC027 24/08 A2988 RMK AO2 T02440082
KHCD,2023-04-05T20:55:00Z,KHCD 052055Z AUTO 25025G30KT 7SM -SN SCT022 OVC032 M02/M07 A2979 RMK AO2 T10251068
KHCO,2023-04-05T20:55:00Z,KHCO 052055Z AUTO 32014KT 1 1/4SM -SN BKN007 OVC012 M04/M06 A2957 RMK AO2
KHCR,2023-04-05T20:55:00Z,KHCR 052055Z AUTO 34005KT 10SM SCT019 BKN029 BKN039 00/M08 A3012 RMK AO2
KHDC,2023-04-05T20:55:00Z,KHDC 052055Z AUTO 17013G17KT 10SM SCT027 BKN034 29/22 A2997 RMK AO2 T02850223
KHDE,2023-04-05T20:55:00Z,KHDE 052055Z AUTO 32014G19KT 10SM CLR 06/M10 A3006 RMK AO2 T00551102
KHDL,2023-04-05T20:55:00Z,KHDL 052055Z AUTO 16006KT 10SM SCT055 SCT065 BKN085 30/21 A3007 RMK AO2
KHDN,2023-04-05T20:56:00Z,KHDN 052056Z AUTO 29009G15KT 10SM CLR M03/M08 A3008 RMK AO2 SLP239 60000 T10331078 53004 FZRANO
KHDO,2023-04-05T20:51:00Z,KHDO 052051Z AUTO 03013KT 10SM OVC060 24/11 A2995 RMK AO2 PK WND 02026/1954 SLP128 60000 T02440106 58008
KHEF,2023-04-05T20:56:00Z,KHEF 052056Z 22014G19KT 10SM FEW080 29/16 A3000 RMK AO2 SLP163 T02940161 56012
KHEG,2023-04-05T20:55:00Z,KHEG 052055Z AUTO 10010G17KT 080V140 10SM FEW090 30/19 A3012 RMK AO2
KHEI,2023-04-05T20:53:00Z,KHEI 052053Z AUTO 31022G31KT 10SM CLR M02/M12 A2998 RMK AO2 PK WND 29034/2029 SLP191 T10221117 53005
KHEQ,2023-04-05T20:55:00Z,KHEQ 052055Z AUTO 33015G25KT 10SM CLR 06/M08 A3007 RMK AO2
KHEY,2023-04-05T20:55:00Z,KHEY 052055Z AUTO 21009KT 10SM CLR 30/18 A3005 RMK AO2 SLP175 T03010178 55005
KHEZ,2023-04-05T20:56:00Z,KHEZ 052056Z AUTO 21007KT 10SM FEW075 SCT090 31/21 A2995 RMK AO2 LTG DSNT W AND NW SLP140 T03060211 58010
KHFD,2023-04-05T20:53:00Z,KHFD 052053Z 09005KT 10SM OVC022 10/04 A3025 RMK AO2 SLP242 T01000044 56013
KHFF,2023-04-05T20:55:00Z,KHFF 052055Z AUTO 22009KT 10SM CLR 30/16 A3009 RMK AO2 SLP190 T03020158 57015 $
KHFJ,2023-04-05T20:55:00Z,KHFJ 052055Z AUTO 31007KT 10SM CLR 10/01 A3008 RMK AO2
KHFY,2023-04-05T20:55:00Z,KHFY 052055Z AUTO 23008G14KT 10SM 17/16 A2989 RMK AO2 T01700162
KHGR,2023-04-05T20:53:00Z,KHGR 052053Z 18016KT 10SM CLR 29/15 A2995 RMK AO2 SLP148 T02940150 56020
KHHF,2023-04-05T20:55:00Z,KHHF 052055Z AUTO 34010G17KT 10SM CLR 14/M11 A3011 RMK AO2 T01361107
KHHG,2023-04-05T20:55:00Z,KHHG 052055Z AUTO 21011G16KT 10SM SCT033 SCT055 BKN090 17/16 A2982 RMK AO2 P0009 60009 T01660160
KHHR,2023-04-05T20:53:00Z,KHHR 052053Z 25011KT 10SM CLR 20/03 A3011 RMK AO2 SLP196 T02000033 56012
KHHW,2023-04-05T20:38:00Z,KHHW 052038Z AUTO 33009G16KT 10SM CLR 16/02 A3003 RMK AO2
KHIB,2023-04-05T21:06:00Z,KHIB 052106Z AUTO 25014G25KT 1/2SM SN FEW014 OVC019 M03/M07 A2945 RMK AO2 P0000 T10331072
KHIE,2023-04-05T20:52:00Z,KHIE 052052Z AUTO VRB05KT 10SM -RA OVC030 03/M02 A3017 RMK AO2 RAB24 SLP231 P0002 60002 T00281017 56021
KHIF,2023-04-05T20:55:00Z,KHIF 052055Z 21003KT 10SM BKN038 01/M08 A3016 RMK AO2A SLP229 P0000 60000 T00051085 51005
KHII,2023-04-05T20:55:00Z,KHII 052055Z AUTO 31012G22KT 10SM CLR 19/M13 A3012 RMK AO2
KHIO,2023-04-05T20:53:00Z,KHIO 052053Z 19006KT 10SM BKN025 OVC031 09/03 A3017 RMK AO2 RAB07E33 SLP218 P0000 60000 T00940033 58011
KHJH,2023-04-05T20:55:00Z,KHJH 052055Z AUTO 30015G22KT 10SM CLR 09/M09 A3007 RMK AO2 T00851090
KHJO,2023-04-05T20:53:00Z,KHJO 052053Z AUTO 10SM CLR 18/00 A3020 RMK AO2 SLP228 T01780000 58015
KHKA,2023-04-05T20:53:00Z,KHKA 052053Z AUTO 22008KT 10SM -RA FEW080 BKN100 19/17 A2997 RMK AO2 SLP146 P0001 60031 T01890172 $
KHKS,2023-04-05T21:02:00Z,KHKS 052102Z 28007KT 8SM -TSRA FEW050 FEW070 BKN110 28/20 A2996 RMK AO2 LTG DSNT NE AND SW TSB2058 P0000 T02780200
KHKY,2023-04-05T20:53:00Z,KHKY 052053Z 19010KT 10SM OVC080 27/17 A3010 RMK AO2 SLP171 T02670167 56016
KHLB,2023-04-05T20:55:00Z,KHLB 052055Z AUTO VRB06KT 2 1/2SM BR FEW033 SCT060 BKN070 15/15 A2993 RMK A01 P0018 VIS 2V4
KHLC,2023-04-05T20:53:00Z,KHLC 052053Z AUTO 32015G28KT 10SM CLR 11/M11 A3009 RMK AO2 PK WND 33030/2014 SLP203 T01061111 53003
KHLG,2023-04-05T20:53:00Z,KHLG 052053Z 21014G23KT 10SM FEW075 29/11 A2989 RMK AO2 PK WND 21028/2040 SLP113 T02890111 56011
KHLN,2023-04-05T20:53:00Z,KHLN 052053Z AUTO 27012G23KT 10SM FEW070 06/M09 A3000 RMK AO2 PK WND 27027/2003 SLP206 T00561094 56015
KHLR,2023-04-05T20:55:00Z,KHLR 052055Z AUTO 01013G19KT 10SM OVC085 19/M01 A3004 RMK AO2 SLP165 T01941006 55003
KHLX,2023-04-05T20:55:00Z,KHLX 052055Z AUTO 20011G26KT 10SM SCT040 SCT050 OVC060 23/14 A3013 RMK AO2 T02270136
KHMN,2023-04-05T20:55:00Z,KHMN 052055Z 29005KT 10SM FEW190 FEW230 13/M21 A3010 RMK AO2A SLP173 T01271208 57013 $
KHMP,2023-04-05T20:55:00Z,KHMP 052055Z AUTO 20009KT 10SM BKN085 30/17 A3012 RMK AO2 T02950175
KHMT,2023-04-05T20:55:00Z,KHMT 052055Z AUTO 30005KT 10SM CLR 18/M02 A3006 RMK AO2 T01831020
KHMZ,2023-04-05T20:55:00Z,KHMZ 052055Z AUTO 15006G16KT 10SM SCT080 27/13 A2993 RMK AO2 T02710134
KHNB,2023-04-05T20:56:00Z,KHNB 052056Z AUTO 21012KT 10SM -RA SCT075 BKN090 OVC110 17/16 A2993 RMK AO2 PK WND 23032/2000 WSHFT 1953 LTG DSNT SE TSE32 SLP133 P0017 60055 T01720156 53031
KHND,2023-04-05T20:56:00Z,KHND 052056Z 01011G17KT 10SM CLR 13/M17 A3018 RMK AO2 SLP237 T01281167 58017
KHNR,2023-04-05T20:55:00Z,KHNR 052055Z AUTO 30022G30KT 10SM FEW050 06/M07 A3000 RMK A01
KHOB,2023-04-05T20:50:00Z,KHOB 052050Z 33004G10KT 10SM SKC 16/M24 A3005
KHOE,2023-04-05T20:55:00Z,KHOE 052055Z AUTO 15004KT 10SM SCT090 31/15 A3010 RMK AO2 T03160154
KHON,2023-04-05T20:55:00Z,KHON 052055Z AUTO 29024G38KT 10SM CLR M03/M08 A2998 RMK AO2 PK WND 28040/1957 SLP171 60000 T10281083 53020
KHOP,2023-04-05T20:55:00Z,KHOP 052055Z AUTO 25009KT 10SM -RA FEW002 BKN031 18/17 A2997 RMK AO2 PK WND 29031/03 DZE1955DZB02E04RAB04E47DZB47E50RAB53 TSB01E41 SLP147 P0027 60029 T01760174 53024
KHOT,2023-04-05T20:53:00Z,KHOT 052053Z AUTO 31006KT 10SM CLR 14/11 A2997 RMK AO2 LTG DSNT SE SLP143 6//// T01390111 51004 PNO
KHOU,2023-04-05T20:53:00Z,KHOU 052053Z 36016G23KT 10SM -RA SCT007 BKN018 OVC024 21/18 A2990 RMK AO2 RAB1954 SLP129 OCNL LTGIC DSNT N CB DSNT N MOV NE P0008 60022 T02060183 53004
KHPN,2023-04-05T20:56:00Z,KHPN 052056Z 10010G17KT 3/4SM R16/4500V5500FT BR VV003 07/06 A3018 RMK AO2 SLP225 T00720061 56018
KHPT,2023-04-05T20:55:00Z,KHPT 052055Z AUTO 28019G26KT 10SM OVC030 03/M04 A2991 RMK AO2
KHQG,2023-04-05T20:55:00Z,KHQG 052055Z AUTO 35010G15KT 10SM CLR 09/M14 A3011 RMK AO2 T00901137
KHQG,2023-04-05T20:55:00Z,KHQG 052055Z AUTO 35010G15KT 10SM CLR 09/M14 A3011 RMK AO2 T00901137
KHQM,2023-04-05T20:53:00Z,KHQM 052053Z AUTO 14008KT 10SM -RA BKN030 OVC037 09/04 A3014 RMK AO2 RAB23 SLP208 P0000 60000 T00940044 56006
KHQU,2023-04-05T20:55:00Z,KHQU 052055Z AUTO 18005G15KT 10SM SCT060 SCT070 31/16 A3010 RMK AO2 T03100160
KHQZ,2023-04-05T20:50:00Z,KHQZ 052050Z 31008KT 10SM CLR 19/02 A3005
KHRF,2023-04-05T21:00:00Z,KHRF 052100Z AUTO 18008KT 150V210 10SM FEW065 FEW120 05/M07 A3008 RMK AO2 Hamilton 
KHRI,2023-04-05T20:53:00Z,KHRI 052053Z AUTO 10SM SCT065 13/M02 A3016 RMK AO2 SLP214 T01281022 $
KHRJ,2023-04-05T21:05:00Z,KHRJ 052105Z AUTO 18007G15KT 150V210 10SM SCT060 30/16 A3012 RMK AO2 T03010160
KHRL,2023-04-05T20:52:00Z,KHRL 052052Z 16012KT 10SM SCT035 SCT044 32/23 A2977 RMK AO2 SLP080 T03170233 58009
KHRO,2023-04-05T20:53:00Z,KHRO 052053Z AUTO 31012G19KT 10SM CLR 13/02 A3003 RMK AO2 SLP160 T01280022 50013
KHRT,2023-04-05T20:55:00Z,KHRT 052055Z COR 14011KT 10SM SCT020 26/22 A3007 RMK AO2A SLP184 T02580218 56002 $ COR 2056
KHRX,2023-04-05T20:55:00Z,KHRX 052055Z AUTO 06005KT 10SM CLR 13/M10 A3009 RMK AO2 T01271105
KHSA,2023-04-05T20:50:00Z,KHSA 052050Z 16013G18KT 10SM BKN015 BKN020 27/23 A3000
KHSB,2023-04-05T20:55:00Z,KHSB 052055Z AUTO 00000KT 10SM -RA SCT013 BKN070 OVC090 18/18 A2986 RMK AO2 P0001 60021 T01800180
KHSD,2023-04-05T20:55:00Z,KHSD 052055Z AUTO 33010G15KT 10SM CLR 13/M06 A3011 RMK A01
KHSE,2023-04-05T20:51:00Z,KHSE 052051Z AUTO VRB04KT 10SM CLR 23/21 A3018 RMK AO2 SLP218 T02330211 56008
KHSG,2023-04-05T20:50:00Z,KHSG 052050Z AUTO 00000KT 10SM CLR 00/M09 A3004 RMK AO2 T10011087
KHSI,2023-04-05T20:53:00Z,KHSI 052053Z AUTO 31019G27KT 10SM CLR 07/M09 A3008 RMK AO2 PK WND 30032/2014 SLP201 T00671089 53015
KHSP,2023-04-05T20:55:00Z,KHSP 052055Z AUTO 16009G19KT 10SM SCT034 SCT043 SCT050 23/13 A3015 RMK AO2 T02310133
KHST,2023-04-05T20:55:00Z,KHST 052055Z AUTO 08012KT 10SM SCT026 SCT075 28/21 A3007 RMK AO2 SLP186 T02800210 57012
KHSV,2023-04-05T20:53:00Z,KHSV 052053Z 21015G22KT 10SM FEW065 FEW080 BKN250 30/17 A3000 RMK AO2 SLP152 T03000167 58005
KHTH,2023-04-05T20:55:00Z,KHTH 052055Z AUTO VRB04KT 10SM CLR 08/M13 A3015 RMK A01
KHTL,2023-04-05T20:53:00Z,KHTL 052053Z AUTO 21010G19KT 10SM BKN043 OVC050 18/13 A2953 RMK AO2 SLP003 T01830133 56013
KHTS,2023-04-05T20:51:00Z,KHTS 052051Z 19011G20KT 160V230 10SM SCT080 31/13 A2989 RMK AO2 SLP114 T03110128 56019
KHUA,2023-04-05T20:55:00Z,KHUA 052055Z AUTO 24013G20KT 10SM FEW060 SCT080 BKN190 30/17 A2999 RMK AO2 SLP150 T03010165 58007
KHUF,2023-04-05T20:53:00Z,KHUF 052053Z 23009KT 10SM -RA FEW019 SCT100 BKN120 17/16 A2988 RMK AO2 RAE30B47 TSE12 SLP115 P0006 60020 T01670156 51026
KHUL,2023-04-05T21:09:00Z,KHUL 052109Z AUTO 02004KT 1 1/2SM UP BR SCT026 BKN060 OVC075 M03/M05 A3038 RMK AO2 UPB04SNE04 P0002 T10281050
KHUM,2023-04-05T20:50:00Z,KHUM 052050Z 18014KT 7SM BKN025 28/23 A2998
KHUT,2023-04-05T20:52:00Z,KHUT 052052Z 29010G21KT 10SM CLR 12/M09 A3009 RMK AO2 SLP190 T01171094 53005
KHVE,2023-04-05T20:55:00Z,KHVE 052055Z AUTO 18007KT 10SM SCT085 07/M17 A3012 RMK AO2
KHVN,2023-04-05T20:53:00Z,KHVN 052053Z 09013G24KT 4SM HZ OVC009 09/06 A3023 RMK AO2 SLP236 T00890061 58014
KHVR,2023-04-05T20:53:00Z,KHVR 052053Z AUTO 09007KT 10SM CLR 00/M05 A3001 RMK AO2 SLP197 T00001050 58013
KHVS,2023-04-05T20:55:00Z,KHVS 052055Z AUTO 19008G15KT 160V220 10SM SCT060 30/15 A3012 RMK AO2
KHWD,2023-04-05T20:54:00Z,KHWD 052054Z 28008KT 10SM CLR 14/07 A3022 RMK AO2 SLP245 T01440067 58005
KHWO,2023-04-05T20:53:00Z,KHWO 052053Z 09015KT 10SM SCT028 BKN080 28/20 A3009 RMK AO2 SLP189 60000 T02780200 $
KHWV,2023-04-05T20:56:00Z,KHWV 052056Z AUTO VRB05KT 6SM BR OVC004 08/06 A3021 RMK AO2 SLP230 60000 T00830061 56015
KHWY,2023-04-05T20:55:00Z,KHWY 052055Z AUTO 21009G19KT 10SM BKN060 31/13 A3001 RMK AO2 T03050134
KHXD,2023-04-05T20:50:00Z,KHXD 052050Z 14006KT 10SM CLR 26/22 A3016
KHYA,2023-04-05T20:56:00Z,KHYA 052056Z 10005KT 5SM BR OVC008 06/04 A3026 RMK AO2 SLP247 T00610044 58021
KHYI,2023-04-05T20:56:00Z,KHYI 052056Z 02017G26KT 10SM BKN060 BKN095 23/M02 A2999 RMK AO2 PK WND 01026/2053 SLP146 T02281022 58002
KHYR,2023-04-05T21:09:00Z,KHYR 052109Z AUTO 24015G31KT 10SM UP OVC030 M02/M08 A2959 RMK AO2 PK WND 22034/2057 UPB2056 P0000 T10171078
KHYS,2023-04-05T20:56:00Z,KHYS 052056Z AUTO 33015G23KT 10SM CLR 10/M11 A3010 RMK AO2 SLP204 T01001111 55002 $
KHYW,2023-04-05T20:55:00Z,KHYW 052055Z AUTO 17004KT 10SM CLR 27/20 A3015 RMK AO2
KHYX,2023-04-05T20:55:00Z,KHYX 052055Z AUTO 20014G18KT 10SM CLR 22/17 A2962 RMK AO2 T02160169
KHZD,2023-04-05T20:55:00Z,KHZD 052055Z AUTO 22007KT 9SM FEW055 OVC070 18/17 A3001 RMK A01 P0001
KHZE,2023-04-05T20:55:00Z,KHZE 052055Z AUTO 31020G30KT 10SM CLR M04/M10 A2997 RMK AO2
KHZL,2023-04-05T20:55:00Z,KHZL 052055Z AUTO 13008G15KT 7SM OVC004 13/11 A3010 RMK AO2
KHZR,2023-04-05T20:55:00Z,KHZR 052055Z AUTO 20010G16KT 10SM CLR 30/19 A2995 RMK AO2 T02970193
KHZX,2023-04-05T20:55:00Z,KHZX 052055Z AUTO 25017G22KT 7SM SCT023 OVC031 M02/M07 A2957 RMK AO2
KHZY,2023-04-05T20:53:00Z,KHZY 052053Z AUTO 20007KT 10SM FEW043 BKN100 BKN120 22/17 A2987 RMK AO2 PK WND 22027/1955 RAE47 SLP108 P0000 60001 T02170172 50011
KI19,2023-04-05T20:55:00Z,KI19 052055Z AUTO 26007G14KT 230V290 3SM -TSRA BR FEW003 SCT031 BKN080 16/16 A2995 RMK AO2 LTG DSNT ALQDS P0033
KI23,2023-04-05T20:55:00Z,KI23 052055Z AUTO 26034G41KT 5SM SCT019 SCT060 BKN085 19/16 A2995 RMK AO1 P0004
KI35,2023-04-05T21:00:00Z,KI35 052100Z AUTO 25010G19KT 200V290 10SM SCT080 31/12 A3002 RMK AO2 T03080122
KI63,2023-04-05T20:55:00Z,KI63 052055Z AUTO 27012G17KT 10SM CLR 10/01 A2996 RMK AO2 T00950013
KI67,2023-04-05T20:55:00Z,KI67 052055Z AUTO 18003KT 2 1/2SM SCT010 BKN030 OVC048 16/15 A2995 RMK AO1 VIS 1 1/4V5 P0033
KI69,2023-04-05T20:55:00Z,KI69 052055Z AUTO 31011G20KT 7SM RA SCT020 BKN065 OVC095 17/15 A2997 RMK AO2 60006 T01670149 P0006
KI74,2023-04-05T20:55:00Z,KI74 052055Z AUTO 27008G15KT 7SM -RA SCT021 BKN046 OVC060 16/15 A2992 RMK AO2 P0012
KI75,2023-04-05T20:55:00Z,KI75 052055Z AUTO 28013G22KT 10SM SCT048 SCT055 08/M03 A3000 RMK AO2 T00761029
KIAB,2023-04-05T20:55:00Z,KIAB 052055Z AUTO 31008G17KT 10SM CLR 12/M07 A3007 RMK AO2 SLP190 T01171072 50004 $
KIAD,2023-04-05T20:52:00Z,KIAD 052052Z 19015G25KT 10SM FEW070 BKN200 30/16 A2998 RMK AO2 PK WND 20028/2032 SLP151 T03000156 56014
KIAG,2023-04-05T21:02:00Z,KIAG 052102Z 32009KT 4SM -RA BR FEW004 SCT050 OVC060 09/08 A2987 RMK AO2 RAB2055 P0001 T00890078
KIAH,2023-04-05T20:53:00Z,KIAH 052053Z 35014G20KT 10SM FEW009 BKN030 OVC065 19/17 A2992 RMK AO2 LTG DSNT W-NE RAE39 TSE41 SLP133 CB DSNT W-N-NE MOV NE P0000 60068 T01890172 51008
KIBM,2023-04-05T20:55:00Z,KIBM 052055Z AUTO 31017G23KT 10SM CLR 00/M08 A3003 RMK AO2 T00031079
KICR,2023-04-05T20:53:00Z,KICR 052053Z AUTO 30021G29KT 10SM UP CLR M02/M09 A3005 RMK AO2 PK WND 30033/2015 SLP205 P0000 60000 T10221089 51016
KICT,2023-04-05T20:53:00Z,KICT 052053Z 31007KT 240V360 10SM FEW250 12/M07 A3009 RMK AO2 SLP194 T01221067 50003
KIDA,2023-04-05T20:53:00Z,KIDA 052053Z 20015KT 10SM FEW032 01/M06 A3013 RMK AO2 SLP234 60000 T00111056 53002
KIDI,2023-04-05T20:55:00Z,KIDI 052055Z AUTO 25011G20KT 10SM CLR 28/14 A2993 RMK A01
KIDP,2023-04-05T20:55:00Z,KIDP 052055Z AUTO 35011G16KT 10SM CLR 12/M04 A3011 RMK AO2 T01251036
KIEN,2023-04-05T20:52:00Z,KIEN 052052Z AUTO 27014G24KT 10SM CLR M02/M07 A3004 RMK AO2 SLP214 T10221072 53008
KIER,2023-04-05T20:55:00Z,KIER 052055Z AUTO 00000KT 7SM -VCTSRA SCT005 SCT044 OVC070 18/18 A2996 RMK AO2 LTG DSNT ALQS P0012 60022 T01810180
KIFA,2023-04-05T20:55:00Z,KIFA 052055Z AUTO 28020G29KT 10SM BKN032 03/M03 A2995 RMK AO2 T00331026
KIFP,2023-04-05T20:51:00Z,KIFP 052051Z 34018KT 10SM CLR 17/M17 A3013
KIGM,2023-04-05T20:51:00Z,KIGM 052051Z AUTO 10SM CLR 12/M13 A3014 RMK AO2 SLP183 T01221128 58014
KIGQ,2023-04-05T20:55:00Z,KIGQ 052055Z AUTO 27017G25KT 10SM BKN020 BKN028 10/05 A2982 RMK AO2 T00960051
KIIB,2023-04-05T20:55:00Z,KIIB 052055Z AUTO 27021G27KT 10SM OVC034 03/M03 A2993 RMK AO2 T00351033
KIIY,2023-04-05T20:55:00Z,KIIY 052055Z AUTO 15007KT 10SM BKN060 BKN080 30/16 A3010 RMK AO2 T03020163
KIJD,2023-04-05T20:52:00Z,KIJD 052052Z AUTO 07007KT 8SM OVC018 08/04 A3026 RMK AO2 SLP246 T00780039 56016
KIJX,2023-04-05T20:55:00Z,KIJX 052055Z AUTO 27014G20KT 10SM CLR 10/02 A2997 RMK AO2 T00950024
KIKG,2023-04-05T20:55:00Z,KIKG 052055Z AUTO 01013G18KT 10SM -RA OVC021 17/14 A2987 RMK AO2 P0001 60003 T01670143
KIKK,2023-04-05T20:55:00Z,KIKK 052055Z AUTO 28020G26KT 10SM BKN021 09/05 A2988 RMK AO2 T00920046
KIKT,2023-04-05T21:00:00Z,KIKT 052100Z AUTO 14015KT 3SM BR CLR 25/24 A3002 RMK A01
KIKV,2023-04-05T20:55:00Z,KIKV 052055Z AUTO 27017KT 10SM FEW049 07/M05 A2999 RMK AO2
KIKW,2023-04-05T20:55:00Z,KIKW 052055Z AUTO 20013G21KT 10SM CLR 21/15 A2959 RMK AO2 T02130146
KILE,2023-04-05T20:56:00Z,KILE 052056Z AUTO 35013G18KT 10SM SCT080 19/M01 A3003 RMK AO2 SLP163 T01941011 58004
KILG,2023-04-05T20:51:00Z,KILG 052051Z 16013KT 10SM CLR 24/16 A3006 RMK AO2 SLP177 T02390156 56019
KILM,2023-04-05T20:53:00Z,KILM 052053Z 17010KT 10SM CLR 29/17 A3015 RMK AO2 SLP209 T02940167 56009
KILN,2023-04-05T21:09:00Z,KILN 052109Z AUTO 29012G23KT 5SM -RA BR FEW046 BKN055 OVC070 17/15 A2996 RMK AO2 LTG DSNT ALQDS TSE00 P0003 T01670150
KIML,2023-04-05T20:53:00Z,KIML 052053Z AUTO 31016G30KT 10SM FEW050 05/M09 A3007 RMK AO2 PK WND 30034/2008 SLP207 T00501094 51006
KIMM,2023-04-05T20:55:00Z,KIMM 052055Z AUTO 10012G18KT 10SM CLR A3004 RMK AO2
KIMS,2023-04-05T20:55:00Z,KIMS 052055Z AUTO 28012G18KT 7SM -RA SCT009 BKN017 OVC033 16/16 A2997 RMK AO2 P0044
KIMT,2023-04-05T21:01:00Z,KIMT 052101Z AUTO 23016G27KT 10SM BKN027 06/01 A2946 RMK AO2 PK WND 23026/2101 T00560011 $
KIND,2023-04-05T20:54:00Z,KIND 052054Z 22013KT 4SM TSRA BR BKN015CB OVC050 16/15 A2987 RMK AO2 LTG DSNT E TSE1957B03E18B34 SLP109 OCNL LTGICCG OHD TS OHD MOV NE P0015 60032 T01610150 51013 $
KINF,2023-04-05T20:55:00Z,KINF 052055Z AUTO 11005KT 5SM HZ CLR 32/18 A3008 RMK AO2
KINJ,2023-04-05T20:55:00Z,KINJ 052055Z AUTO 36012KT 10SM BKN110 18/01 A3004 RMK AO2 T01800011
KINK,2023-04-05T20:53:00Z,KINK 052053Z AUTO 01006KT 10SM CLR 18/M21 A3004 RMK AO2 SLP151 T01831206 56017 $
KINL,2023-04-05T21:07:00Z,KINL 052107Z AUTO 29010KT 2SM -SN FEW013 BKN026 OVC032 M03/M06 A2940 RMK AO2 P0000 T10331061
KINS,2023-04-05T20:55:00Z,KINS 052055Z 29004KT 10SM CLR 12/M15 A3018 RMK SLPNO WND DATA ESTMD ALSTG ESTMD
KINT,2023-04-05T20:54:00Z,KINT 052054Z VRB05G17KT 10SM SCT055 BKN070 OVC090 29/16 A3010 RMK AO2 SLP181 T02890156 56014
KINW,2023-04-05T20:56:00Z,KINW 052056Z AUTO VRB04KT 10SM CLR 09/M16 A3009 RMK AO2 SLP197 T00891161 57014
KIOB,2023-04-05T20:55:00Z,KIOB 052055Z AUTO 25019G26KT 10SM CLR 30/12 A2994 RMK AO2 PWINO
KIOW,2023-04-05T20:52:00Z,KIOW 052052Z AUTO 29017G29KT 10SM SCT034 06/M03 A2996 RMK AO2 PK WND 27031/2007 SLP148 T00611028 51036
KIPJ,2023-04-05T21:10:00Z,KIPJ 052110Z AUTO 21005G15KT 10SM SCT055 BKN075 BKN090 28/16 A3010 RMK AO2 T02820161
KIPL,2023-04-05T20:53:00Z,KIPL 052053Z AUTO VRB06KT 10SM CLR 21/M09 A3009 RMK AO2 SLP188 T02111094 58018
KIPT,2023-04-05T20:54:00Z,KIPT 052054Z 10008KT 8SM BKN110 20/14 A2999 RMK AO2 SLP154 T02000144 58007
KIRK,2023-04-05T20:55:00Z,KIRK 052055Z AUTO 27013G26KT 10SM CLR 09/M02 A3000 RMK AO2 PK WND 29027/2016 SLP165 T00941022 51030
KIRS,2023-04-05T20:55:00Z,KIRS 052055Z AUTO 24020G28KT 10SM OVC032 19/12 A2973 RMK AO2 T01870116
KISM,2023-04-05T20:56:00Z,KISM 052056Z 10010KT 10SM CLR 31/18 A3010 RMK AO2 SLP193 6//// T03060178 56014 PNO $
KISO,2023-04-05T20:56:00Z,KISO 052056Z 19010G16KT 10SM SCT060 31/16 A3014
KISP,2023-04-05T20:56:00Z,KISP 052056Z 08009KT 3SM -DZ BR OVC004 08/08 A3020 RMK AO2 SLP227 P0000 60000 T00830078 56013
KISQ,2023-04-05T20:55:00Z,KISQ 052055Z AUTO 18007KT 1/2SM FG OVC003 04/04 A2945 RMK AO2 T00380036
KISW,2023-04-05T20:54:00Z,KISW 052054Z AUTO 25015G33KT 10SM OVC034 04/M04 A2970 RMK AO2 PK WND 25033/2015 SLP065 T00391044 52046
KITH,2023-04-05T20:56:00Z,KITH 052056Z 17021G27KT 10SM -RA SCT070 21/13 A2990 RMK AO2 PK WND 16031/2009 LTG DSNT W RAB52 SLP126 P0000 60000 T02060133 55013
KITR,2023-04-05T20:53:00Z,KITR 052053Z AUTO 31009G23KT 10SM SCT080 07/M13 A3005 RMK AO2 PK WND 32027/2015 SLP185 T00671133 56003
KIWA,2023-04-05T20:47:00Z,KIWA 052047Z 03007G13KT 10SM CLR 17/M12 A3008
KIWI,2023-04-05T20:53:00Z,KIWI 052053Z AUTO 10008KT 10SM OVC044 02/M08 A3039 RMK AO2 PRESFR SLP289 T00221083 58021
KIXA,2023-04-05T21:10:00Z,KIXA 052110Z AUTO 21013G20KT 10SM CLR 27/20 A3011 RMK AO2
KIXD,2023-04-05T20:53:00Z,KIXD 052053Z 30014G21KT 10SM CLR 11/M02 A3007 RMK AO2 SLP187 T01061022 51016
KIYA,2023-04-05T20:55:00Z,KIYA 052055Z AUTO 17011G17KT 7SM BKN023 OVC028 28/21 A2996 RMK AO2 T02820207
KIZA,2023-04-05T20:55:00Z,KIZA 052055Z AUTO 29009KT 10SM CLR 16/M00 A3013 RMK AO2
KIZG,2023-04-05T20:54:00Z,KIZG 052054Z AUTO 16003KT 10SM OVC041 02/M11 A3034 RMK AO2 SLP280 T00221106 56018
KJAC,2023-04-05T20:56:00Z,KJAC 052056Z 22013G17KT 10SM BKN060 M01/M13 A3001 RMK AO2 SLP226 T10111133 55003
KJAN,2023-04-05T21:04:00Z,KJAN 052104Z 00000KT 10SM VCTS BKN050 30/19 A2995 RMK AO2 LTG DSNT SW-N T03000194
KJAQ,2023-04-05T20:55:00Z,KJAQ 052055Z AUTO 29004KT 10SM CLR 12/01 A3019 RMK AO1 T01160005
KJAS,2023-04-05T20:55:00Z,KJAS 052055Z AUTO VRB05KT 5SM -TSRA BR FEW004 SCT020 BKN035 18/18 A2992 RMK AO2 LTG DSNT ALQDS P0026
KJAU,2023-04-05T20:50:00Z,KJAU 052050Z AUTO 21013G28KT 10SM CLR 30/13 A3004 RMK A01
KJAX,2023-04-05T20:56:00Z,KJAX 052056Z 11014KT 10SM FEW040 SCT085 BKN250 29/19 A3010 RMK AO2 SLP193 T02940194 58008 $
KJBR,2023-04-05T21:09:00Z,KJBR 052109Z AUTO 25009KT 10SM BKN021 BKN028 OVC110 19/17 A2996 RMK AO2 RAE09 PRESRR P0000 T01940172 $
KJCA,2023-04-05T20:55:00Z,KJCA 052055Z AUTO 22006KT 10SM SCT060 SCT080 29/16 A3009 RMK AO2 T02950162
KJCT,2023-04-05T20:51:00Z,KJCT 052051Z AUTO 35012G21KT 10SM CLR 24/M11 A3003 RMK AO2 SLP133 T02391106 58008
KJDD,2023-04-05T20:55:00Z,KJDD 052055Z AUTO 29006KT 10SM SCT095 19/08 A3003 RMK AO2
KJDN,2023-04-05T20:48:00Z,KJDN 052048Z AUTO VRB04KT 02/M08 A3003 RMK AO1 SLP204 T00171078 56010
KJEF,2023-04-05T20:53:00Z,KJEF 052053Z 28016G24KT 10SM CLR 12/01 A3003 RMK AO2 SLP156 T01170006 51017 $
KJER,2023-04-05T20:53:00Z,KJER 052053Z AUTO 28015G22KT 10SM BKN055 BKN070 04/M08 A3015 RMK AO2 SLP228 T00441078 57001
KJES,2023-04-05T20:50:00Z,KJES 052050Z AUTO 12005KT 10SM BKN065 BKN075 OVC085 31/17 A3013 RMK AO2
KJFK,2023-04-05T20:51:00Z,KJFK 052051Z COR 08011KT 1 1/4SM R04R/4500V6000FT -DZ BR OVC005 09/09 A3020 RMK AO2 TWR VIS 1 1/2 SLP225 T00890089 56018
KJFX,2023-04-05T20:55:00Z,KJFX 052055Z AUTO 16009G14KT 100V220 10SM FEW055 FEW075 29/18 A3003 RMK AO2
KJFZ,2023-04-05T20:55:00Z,KJFZ 052055Z AUTO 19008G15KT 150V220 10SM BKN060 BKN070 A3008 RMK AO2
KJHN,2023-04-05T20:55:00Z,KJHN 052055Z AUTO 32006KT 10SM CLR 09/M14 A3010 RMK AO2 T00861142
KJHW,2023-04-05T20:56:00Z,KJHW 052056Z AUTO 27023G29KT 8SM RA FEW028 SCT049 OVC060 22/14 A2992 RMK AO2 PK WND 28029/2056 RAB22 PRESRR SLP132 6//// T02170144 53019 PNO $
KJKA,2023-04-05T20:55:00Z,KJKA 052055Z 15013G18KT 10SM FEW011 26/23 A3006
KJKJ,2023-04-05T20:55:00Z,KJKJ 052055Z AUTO 28023G31KT 1 1/2SM HZ BKN022 BKN029 OVC037 M05/M08 A2971 RMK AO2 VIS 1V2 1/2 TSNO
KJKL,2023-04-05T20:53:00Z,KJKL 052053Z AUTO 21008G21KT 160V240 10SM SCT090 31/11 A2995 RMK AO2 SLP126 T03060106 56013
KJLN,2023-04-05T20:53:00Z,KJLN 052053Z COR 29006G12KT 10SM CLR 11/01 A3009 RMK AO2 SLPNO $
KJMR,2023-04-05T20:55:00Z,KJMR 052055Z AUTO 24019G25KT 10SM -SN OVC030 M02/M08 A2968 RMK AO2
KJMS,2023-04-05T20:56:00Z,KJMS 052056Z AUTO 30024G35KT 1 1/4SM -SN FEW013 BKN028 OVC037 M04/M08 A2976 RMK AO2 PK WND 31040/2002 SLP100 P0001 60002 T10441083 53020
KJNX,2023-04-05T21:10:00Z,KJNX 052110Z AUTO 19007KT 10SM SCT070 29/16 A3011 RMK AO2
KJOT,2023-04-05T20:55:00Z,KJOT 052055Z AUTO 28017G24KT 10SM BKN025 10/03 A2986 RMK AO2 T00960033
KJPX,2023-04-05T20:55:00Z,KJPX 052055Z AUTO 07010G15KT 5SM BR OVC007 06/06 A3025 RMK AO2 T00630055 FZRANO
KJQF,2023-04-05T20:50:00Z,KJQF 052050Z 19012G20KT 10SM SCT070 BKN085 30/14 A3013
KJRB,2023-04-05T20:04:00Z,KJRB 052004Z AUTO 05011KT 2SM BR OVC004 09/08 A3020 RMK AO2
KJRO,2023-04-05T20:55:00Z,KJRO 052055Z AUTO 21015G24KT 10SM CLR 31/11 A2988 RMK AO2
KJST,2023-04-05T20:54:00Z,KJST 052054Z AUTO 18010G19KT 10SM FEW085 SCT110 27/11 A2995 RMK AO2 PRESFR SLP126 T02670111 58020
KJSV,2023-04-05T20:55:00Z,KJSV 052055Z AUTO 33013KT 310V010 10SM CLR 15/01 A3004 RMK AO2
KJSY,2023-04-05T20:55:00Z,KJSY 052055Z AUTO 21004KT 10SM CLR 05/M07 A3012 RMK AO2 T00451075 TSNO
KJTC,2023-04-05T20:55:00Z,KJTC 052055Z AUTO 31010G16KT 280V350 10SM CLR 07/M20 A3006 RMK AO2
KJVW,2023-04-05T20:35:00Z,KJVW 052035Z AUTO 19006KT VCTS DZ SCT095 BKN110 29/21 A2996 RMK AO2 LTG DSNT N AND NW
KJVY,2023-04-05T20:55:00Z,KJVY 052055Z AUTO 01016G22KT 10SM -VCTSRA SCT004 SCT010 BKN055 17/17 A2988 RMK AO2 LTG DSNT N THRU E P0009
KJWG,2023-04-05T20:55:00Z,KJWG 052055Z AUTO 03012KT 10SM CLR 13/M08 A3013 RMK AO2 T01301078
KJWN,2023-04-05T21:05:00Z,KJWN 052105Z 27040G56KT 1 1/2SM +RA BKN003 BKN032 OVC060 24/16 A3001
KJWY,2023-04-05T20:55:00Z,KJWY 052055Z AUTO 33008KT 10SM SCT100 BKN120 19/02 A3007 RMK AO2 T01930022
KJXN,2023-04-05T20:56:00Z,KJXN 052056Z 19011G23KT 10SM CLR 21/13 A2971 RMK AO2 PK WND 21029/2007 SLP057 60002 T02110133 55002
KJYG,2023-04-05T20:57:00Z,KJYG 052057Z AUTO 27022G31KT 10SM M02/M06 A2988 RMK AO2
KJYL,2023-04-05T20:55:00Z,KJYL 052055Z AUTO 19007KT 10SM BKN060 BKN075 32/16 A3012 RMK AO2 T03210161
KJYM,2023-04-05T20:55:00Z,KJYM 052055Z AUTO 21018G28KT 10SM SCT041 20/12 A2975 RMK AO2 60005 T02000123
KJYO,2023-04-05T20:55:00Z,KJYO 052055Z AUTO 21020G27KT 10SM CLR 30/17 A2999 RMK AO2
KJYR,2023-04-05T20:55:00Z,KJYR 052055Z AUTO 31021G28KT 10SM CLR 06/M10 A3005 RMK AO2
KJZI,2023-04-05T20:55:00Z,KJZI 052055Z AUTO 17009KT 10SM CLR 26/22 A3016 RMK AO2
KJZP,2023-04-05T20:55:00Z,KJZP 052055Z AUTO 27005KT 10SM SCT060 SCT075 29/15 A3014 RMK AO2 T02850151
KK62,2023-04-05T20:55:00Z,KK62 052055Z AUTO 32018G27KT 280V340 10SM SCT042 SCT050 OVC070 18/13 A2996 RMK AO2
KK70,2023-04-05T20:55:00Z,KK70 052055Z AUTO 08010G15KT 040V120 10SM BKN060 OVC065 28/24 A3006 RMK AO2
KK82,2023-04-05T20:55:00Z,KK82 052055Z AUTO 32013G19KT 10SM CLR 09/M10 A3008 RMK AO2 T00931099
KK88,2023-04-05T20:55:00Z,KK88 052055Z AUTO 31010G15KT 10SM 11/M03 A3011 RMK AO1 T01111028
KKLS,2023-04-05T20:56:00Z,KKLS 052056Z AUTO 18011G18KT SCT033 OVC060 11/02 A3018 RMK AO2 SLP223 T01060022 58010 PWINO $
KKNB,2023-04-05T20:55:00Z,KKNB 052055Z AUTO 26008G15KT 10SM CLR 08/M16 A3016 RMK A01
KKY8,2023-04-05T20:55:00Z,KKY8 052055Z AUTO 22008G15KT 7SM FEW034 SCT055 BKN090 17/17 A2994 RMK A01 P0023
KL08,2023-04-05T20:55:00Z,KL08 052055Z AUTO 11009KT 10SM CLR 20/M14 A3010 RMK AO2
KL18,2023-04-05T20:55:00Z,KL18 052055Z AUTO 25009G14KT 10SM CLR 18/03 A3009 RMK AO2
KL35,2023-04-05T20:55:00Z,KL35 052055Z AUTO 08007KT 044V124 10SM CLR 04/M10 A3010 RMK AO2
KL52,2023-04-05T20:55:00Z,KL52 052055Z AUTO 28014G20KT 3SM HZ 13/07 A3016 RMK A01
KLAA,2023-04-05T20:53:00Z,KLAA 052053Z AUTO 08004KT 10SM CLR 07/M09 A3007 RMK AO2 SLP190 T00721094 56007
KLAF,2023-04-05T21:01:00Z,KLAF 052101Z 27021G30KT 6SM BR BKN009 BKN017 14/12 A2984 RMK AO2 PK WND 28030/2100 WSHFT 2041 CIG 008V012 PRESRR T01390117
KLAL,2023-04-05T20:50:00Z,KLAL 052050Z 10011G19KT 10SM SCT060 BKN085 31/16 A3007
KLAM,2023-04-05T20:55:00Z,KLAM 052055Z AUTO 15008KT 130V200 8SM CLR 05/M16 A3002 RMK AO2 T00511162 $
KLAN,2023-04-05T20:53:00Z,KLAN 052053Z 21020G28KT 10SM CLR 22/13 A2966 RMK AO2 PK WND 23031/2031 SLP041 60001 T02170133 53001
KLAR,2023-04-05T20:53:00Z,KLAR 052053Z AUTO 26007KT 10SM OVC060 M03/M11 A2995 RMK AO2 SLP196 60000 T10331111 53006
KLAS,2023-04-05T20:56:00Z,KLAS 052056Z 10006KT 10SM FEW250 12/M17 A3016 RMK AO2 SLP213 T01221167 58018
KLAW,2023-04-05T20:53:00Z,KLAW 052053Z 34008KT 10SM CLR 15/M03 A3011 RMK AO2 SLP194 T01501033 56006
KLAX,2023-04-05T20:53:00Z,KLAX 052053Z 25013KT 10SM SCT050 SCT140 16/06 A3012 RMK AO2 SLP197 T01610061 56008 $
KLBB,2023-04-05T20:53:00Z,KLBB 052053Z COR 10SM 00000KT BKN250 15/M13 A3007 RMK AO2 SLP163 T01501128 58006
KLBE,2023-04-05T20:47:00Z,KLBE 052047Z 20016KT 10SM FEW030 BKN100 28/13 A2989
KLBF,2023-04-05T20:53:00Z,KLBF 052053Z AUTO 31016G29KT 10SM CLR 06/M10 A3007 RMK AO2 PK WND 30032/2028 SLP203 T00561100 53007
KLBL,2023-04-05T20:56:00Z,KLBL 052056Z AUTO 34014G20KT 10SM CLR 11/M13 A3011 RMK AO2 PK WND 33027/1958 SLP205 T01111128 58005
KLBO,2023-04-05T20:55:00Z,KLBO 052055Z AUTO 28013G18KT 10SM CLR 11/01 A3006 RMK AO2
KLBT,2023-04-05T20:56:00Z,KLBT 052056Z AUTO VRB05KT 10SM SCT065 29/17 A3012 RMK AO2 SLP198 T02940172 56013
KLBX,2023-04-05T20:53:00Z,KLBX 052053Z AUTO 21009KT 8SM BKN026 BKN031 OVC050 27/22 A2986 RMK AO2 SLP111 T02720222 58015
KLCG,2023-04-05T20:55:00Z,KLCG 052055Z AUTO 30022G29KT 10SM SCT037 03/M08 A3003 RMK AO2 T00311077
KLCH,2023-04-05T20:53:00Z,KLCH 052053Z 20010KT 7SM BKN018 OVC025 26/22 A2994 RMK AO2 SLP146 T02560217 55002
KLCI,2023-04-05T20:56:00Z,KLCI 052056Z AUTO 09007KT 10SM OVC031 02/M05 A3033 RMK AO2 SLP275 T00171050 56010 FZRANO $
KLCK,2023-04-05T20:55:00Z,KLCK 052055Z AUTO 28004KT 10SM OVC070 21/18 A2985 RMK AO2 LTG DSNT SW AND W T02080180
KLCQ,2023-04-05T20:55:00Z,KLCQ 052055Z AUTO 11004KT 10SM SCT070 BKN090 30/16 A3009 RMK AO2
KLDM,2023-04-05T20:55:00Z,KLDM 052055Z AUTO 24009KT 10SM OVC011 10/06 A2962 RMK AO2 T00980059
KLEB,2023-04-05T20:53:00Z,KLEB 052053Z VRB06KT 10SM OVC024 04/M03 A3024 RMK AO2 SLP244 T00441033 58017
KLEE,2023-04-05T20:53:00Z,KLEE 052053Z 12008KT 10SM SCT060 BKN085 31/17 A3009 RMK AO2 SLP189 T03110172 56015
KLEW,2023-04-05T20:56:00Z,KLEW 052056Z AUTO 17006KT 10SM OVC044 02/M10 A3037 RMK AO2 SLP294 T00221100 56012 FZRANO
KLEX,2023-04-05T20:54:00Z,KLEX 052054Z 22017G28KT 10SM FEW070 BKN090 29/13 A2991 RMK AO2 PK WND 23032/2008 SLP117 T02890133 55002 $
KLFI,2023-04-05T20:55:00Z,KLFI 052055Z 21011KT 10SM FEW080 SCT150 29/17 A3008 RMK AO2A SLP192 T02910169 56014 $
KLFK,2023-04-05T20:53:00Z,KLFK 052053Z AUTO 34006KT 10SM OVC043 21/16 A2996 RMK AO2 SLP142 60001 T02060161 56004
KLFT,2023-04-05T20:53:00Z,KLFT 052053Z 18011G21KT 10SM FEW027 BKN035 BKN042 29/22 A2995 RMK AO2 PK WND 18026/2027 SLP142 T02940222 51002
KLGA,2023-04-05T20:51:00Z,KLGA 052051Z 04014KT 3/4SM R04/4500V6000FT -DZ BR OVC003 08/06 A3020 RMK AO2 SFC VIS 1 1/2 SLP225 P0000 60000 T00780056 56016
KLGB,2023-04-05T20:53:00Z,KLGB 052053Z 18007KT 10SM CLR 21/03 A3010 RMK AO2 SLP190 T02110033 58016
KLGC,2023-04-05T20:55:00Z,KLGC 052055Z AUTO 21005KT 10SM SCT060 BKN085 29/17 A3008 RMK AO2 T02910167
KLGD,2023-04-05T20:56:00Z,KLGD 052056Z AUTO VRB04KT 10SM CLR 07/M07 A3014 RMK AO2 SLP228 T00721072 56016
KLGF,2023-04-05T20:55:00Z,KLGF 052055Z AUTO 00000KT M M CLR 20/M15 A3007 RMK AO2 SLP183 T02041150 57021 RVRNO PWINO TSNO $
KLGU,2023-04-05T20:51:00Z,KLGU 052051Z AUTO 07003KT 10SM SCT041 OVC060 02/M05 A3017 RMK AO2 SNB08E31B35E45 SLP232 P0000 60000 T00221050 51005
KLHB,2023-04-05T20:55:00Z,KLHB 052055Z AUTO 34011G16KT 10SM OVC070 20/07 A3000 RMK AO2 LTG DSNT E AND SE T01990071
KLHM,2023-04-05T20:55:00Z,KLHM 052055Z AUTO 26006KT 10SM CLR 14/01 A3021 RMK AO1
KLHQ,2023-04-05T20:53:00Z,KLHQ 052053Z AUTO 31005KT 10SM BKN070 OVC080 22/17 A2986 RMK AO2 WSHFT 2024 SLP106 T02220172 55010
KLHW,2023-04-05T20:55:00Z,KLHW 052055Z AUTO 11010KT 10SM CLR 31/18 A3008 RMK AO2 SLP189 T03080175 56012 $
KLHX,2023-04-05T20:53:00Z,KLHX 052053Z AUTO A3005 RMK AO2 SLPNO 56012 PWINO FZRANO $
KLIC,2023-04-05T20:55:00Z,KLIC 052055Z AUTO 31005G15KT 10SM FEW080 BKN095 06/M18 A2999 RMK AO2 SLP167 T00611178 56003
KLIT,2023-04-05T21:09:00Z,KLIT 052109Z 35009KT 10SM BKN010 BKN032 16/13 A2997 RMK AO2 T01610128
KLJF,2023-04-05T20:55:00Z,KLJF 052055Z AUTO 27016G25KT 10SM -SN SCT015 BKN030 OVC035 M03/M08 A2976 RMK AO2
KLKR,2023-04-05T20:55:00Z,KLKR 052055Z AUTO 18008KT 10SM FEW075 29/16 A3011 RMK AO2
KLKU,2023-04-05T20:55:00Z,KLKU 052055Z AUTO 20012G18KT 160V220 10SM SCT060 SCT070 30/15 A3003 RMK AO2 T02990151
KLKV,2023-04-05T20:53:00Z,KLKV 052053Z AUTO 21009KT 10SM OVC039 05/M06 A3013 RMK AO2 SLP240 T00501056 58007
KLLJ,2023-04-05T20:55:00Z,KLLJ 052055Z AUTO 18011KT 10SM FEW110 02/M08 A3005 RMK AO2 SLP200 T00171078 55004
KLLN,2023-04-05T20:55:00Z,KLLN 052055Z AUTO 03006G11KT 10SM CLR 15/M17 A3007 RMK AO2
KLLQ,2023-04-05T20:53:00Z,KLLQ 052053Z AUTO 19004KT 10SM -RA FEW080 OVC110 20/18 A2998 RMK AO2 LTG DSNT S RAE06B29 SLP150 P0001 60009 T02000183 55002
KLMO,2023-04-05T20:55:00Z,KLMO 052055Z AUTO 32005KT 10SM SCT048 SCT060 BKN070 04/M08 A3003 RMK AO2 T00401078
KLMS,2023-04-05T20:55:00Z,KLMS 052055Z AUTO 19009G14KT 10SM SCT060 BKN070 BKN095 29/18 A3001 RMK AO2
KLMT,2023-04-05T20:53:00Z,KLMT 052053Z 16006KT 10SM CLR 07/M06 A3011 RMK AO2 SLP204 T00671061 58010
KLNA,2023-04-05T20:55:00Z,KLNA 052055Z AUTO 10013G16KT 10SM CLR 29/21 A3011 RMK AO2 T02860210
KLNC,2023-04-05T20:55:00Z,KLNC 052055Z AUTO 33009G17KT 10SM BKN120 20/M01 A3005 RMK AO2 T01991014
KLND,2023-04-05T20:53:00Z,KLND 052053Z AUTO 00000KT 10SM FEW090 M06/M11 A3002 RMK AO2 SLP223 T10561106 53005
KLNK,2023-04-05T20:54:00Z,KLNK 052054Z 31019G31KT 270V330 10SM CLR 08/M08 A3006 RMK AO2 PK WND 32031/2054 SLP187 T00831083 53017
KLNL,2023-04-05T20:55:00Z,KLNL 052055Z AUTO 25018G28KT 10SM BKN019 OVC028 03/M02 A2948 RMK AO2 60003 T00271024
KLNN,2023-04-05T20:55:00Z,KLNN 052055Z AUTO 23016G22KT 10SM BKN034 OVC040 22/16 A2983 RMK AO1 T02200155
KLNQ,2023-04-05T20:55:00Z,KLNQ 052055Z AUTO 15010KT 10SM CLR 30/23 A3002 RMK AO2 T02980230
KLNR,2023-04-05T20:56:00Z,KLNR 052056Z AUTO 28021G32KT 10SM SCT033 06/M03 A2980 RMK AO2 PK WND 28032/2050 SLP088 T00611028 53041
KLNS,2023-04-05T20:53:00Z,KLNS 052053Z 16012G20KT 10SM CLR 28/16 A3001 RMK AO2 SLP158 T02830156 56021
KLOL,2023-04-05T20:53:00Z,KLOL 052053Z AUTO VRB03KT 10SM BKN065 06/M09 A3017 RMK AO2 SLP233 T00611089 58006
KLOM,2023-04-05T20:55:00Z,KLOM 052055Z AUTO 07011KT 10SM CLR 16/12 A3010 RMK AO2 T01650121
KLOR,2023-04-05T20:55:00Z,KLOR 052055Z AUTO 22010G16KT 9SM FEW050 31/18 A3007 RMK AO2 SLP164 T03050179 55005
KLOT,2023-04-05T20:45:00Z,KLOT 052045Z 26023G31KT 10SM BKN024 09/05 A2983
KLOU,2023-04-05T20:53:00Z,KLOU 052053Z 25005KT 10SM BKN070 OVC090 25/16 A2987 RMK AO2 PK WND 22037/2013 LTG DSNT ALQDS RAB15E43 SLP109 P0000 60000 T02500161 53003
KLOZ,2023-04-05T20:53:00Z,KLOZ 052053Z AUTO 21015G27KT 10SM FEW090 29/12 A2997 RMK AO2 PK WND 21032/2020 SLP135 T02940122 56008
KLPR,2023-04-05T20:53:00Z,KLPR 052053Z AUTO 20011KT 10SM BKN039 OVC050 20/18 A2983 RMK AO2 RAE50 SLP098 P0012 60016 T02000178 50003
KLQK,2023-04-05T20:55:00Z,KLQK 052055Z AUTO 19009G16KT 10SM SCT055 29/17 A3009 RMK AO2 T02870166
KLRD,2023-04-05T20:56:00Z,KLRD 052056Z 01020G25KT 10SM OVC036 24/M01 A2989 RMK AO2 PK WND 01027/1958 SLP118 60000 T02441011 55004
KLRF,2023-04-05T20:55:00Z,KLRF 052055Z 30006KT 10SM OVC008 15/15 A2994 RMK AO2A LTG DSNT SW SLP140 60025 T01480146 50002
KLRJ,2023-04-05T20:55:00Z,KLRJ 052055Z AUTO 29022G30KT 10SM OVC029 00/M07 A2999 RMK AO2
KLRO,2023-04-05T20:55:00Z,KLRO 052055Z AUTO 17008KT 8SM BKN023 BKN029 27/21 A3016 RMK AO2
KLRU,2023-04-05T20:55:00Z,KLRU 052055Z AUTO 00000KT 10SM CLR 15/M15 A3007 RMK AO2 T01511148
KLRY,2023-04-05T20:55:00Z,KLRY 052055Z AUTO 31008KT 296V356 10SM CLR 12/M02 A3010 RMK AO2
KLSE,2023-04-05T20:53:00Z,KLSE 052053Z 27015G29KT 10SM OVC037 04/M05 A2981 RMK AO2 PK WND 27033/2034 SLP103 T00391050 51046
KLSF,2023-04-05T20:55:00Z,KLSF 052055Z AUTO 16009G14KT 10SM CLR 31/18 A3004 RMK AO2 SLP176 T03130176 56008 $
KLSV,2023-04-05T20:55:00Z,KLSV 052055Z AUTO 06007G15KT 10SM FEW180 FEW210 15/M15 A3015 RMK AO2 SLP207 T01531150 57017 $
KLTS,2023-04-05T20:59:00Z,KLTS 052059Z 01016G24KT 10SM CLR 15/M06 A3007 RMK AO2A WSHFT 57 SLP181 $
KLUA,2023-04-05T20:55:00Z,KLUA 052055Z AUTO 17009G18KT 10SM 29/13 A2998 RMK AO2
KLUD,2023-04-05T20:55:00Z,KLUD 052055Z AUTO 34011G16KT 300V020 10SM CLR 16/M02 A3008 RMK AO2 T01601020
KLUF,2023-04-05T20:55:00Z,KLUF 052055Z AUTO 00000KT 10SM FEW170 FEW200 18/M15 A3006 RMK AO2 SLP178 T01821152 57023 $
KLUG,2023-04-05T20:55:00Z,KLUG 052055Z AUTO 21013G19KT 180V240 10SM SCT060 BKN070 28/16 A2997 RMK A01
KLUK,2023-04-05T21:08:00Z,KLUK 052108Z 24008KT 2 1/2SM +TSRA BR BKN055CB OVC070 17/16 A2999 RMK AO2 LTG DSNT S-NW TSB06 OCNL LTGCC OHD TS OHD MOV E P0009 T01670156
KLUL,2023-04-05T20:55:00Z,KLUL 052055Z AUTO 19013G18KT 10SM SCT042 BKN049 29/19 A3000 RMK A02 T02910185
KLUM,2023-04-05T20:55:00Z,KLUM 052055Z 24025G31KT 10SM OVC032 01/M08 A2972 RMK AO2 T00101078 PWINO
KLUV,2023-04-05T20:55:00Z,KLUV 052055Z AUTO 09004KT 10SM CLR 17/M15 A3006 RMK AO2
KLUX,2023-04-05T20:55:00Z,KLUX 052055Z AUTO 19008G14KT 10SM SCT050 29/16 A3010 RMK AO2
KLVJ,2023-04-05T20:53:00Z,KLVJ 052053Z AUTO 35015G24KT 8SM BKN008 OVC024 23/20 A2989 RMK AO2 SLP120 60000 T02330200 55004
KLVK,2023-04-05T20:53:00Z,KLVK 052053Z 00000KT 10SM SCT050 16/02 A3020 RMK AO2 SLP226 T01560017 58008
KLVL,2023-04-05T20:55:00Z,KLVL 052055Z AUTO 20010G15KT 160V230 10SM SCT060 SCT070 30/17 A3009 RMK AO1 T03030167
KLVM,2023-04-05T20:53:00Z,KLVM 052053Z AUTO 25013KT 10SM FEW049 01/M09 A3000 RMK AO2 SLP205 T00061089 58004
KLVN,2023-04-05T20:55:00Z,KLVN 052055Z AUTO 27015G27KT 10SM OVC032 M02/M08 A2979 RMK AO2
KLVS,2023-04-05T20:53:00Z,KLVS 052053Z AUTO 20019G28KT 10SM CLR 07/M17 A2998 RMK AO2 PK WND 17028/2035 SLP140 T00671172 56007
KLWA,2023-04-05T20:55:00Z,KLWA 052055Z AUTO 25017G26KT 10SM SCT018 SCT028 BKN049 11/08 A2974 RMK AO2 T01100081
KLWB,2023-04-05T20:50:00Z,KLWB 052050Z 23014KT 10SM SCT050 27/15 A3005
KLWC,2023-04-05T20:52:00Z,KLWC 052052Z AUTO 31009G19KT 9SM CLR 12/M04 A3008 RMK AO1 SLP188 T01171044 51015
KLWD,2023-04-05T20:53:00Z,KLWD 052053Z AUTO 26012G23KT 10SM FEW049 07/M05 A3001 RMK AO2 PK WND 29026/2025 SLP169 T00721050 51021
KLWM,2023-04-05T20:54:00Z,KLWM 052054Z 10008KT 10SM OVC020 04/M01 A3035 RMK AO2 SLP279 T00441006 56019
KLWS,2023-04-05T20:56:00Z,KLWS 052056Z 22005KT 10SM CLR 12/M06 A3015 RMK AO2 SLP217 T01171056 56014
KLWT,2023-04-05T20:54:00Z,KLWT 052054Z AUTO VRB03KT 10SM FEW065 04/M11 A2994 RMK AO2 SLP172 T00391111 58013
KLWV,2023-04-05T20:53:00Z,KLWV 052053Z AUTO 25011KT 10SM -RA SCT016 BKN080 OVC100 17/16 A2990 RMK AO2 SLP122 P0008 60044 T01720161 53018
KLXL,2023-04-05T20:55:00Z,KLXL 052055Z AUTO 27014G22KT 7SM -SN BKN025 OVC034 M03/M08 A2966 RMK AO2
KLXN,2023-04-05T20:55:00Z,KLXN 052055Z AUTO 32015G23KT 10SM SCT055 06/M11 A3007 RMK AO2 T00551110
KLXT,2023-04-05T20:53:00Z,KLXT 052053Z AUTO 28006G19KT CLR 10/M03 A3006 RMK AO2 SLP183 T01001033 51017 $
KLXV,2023-04-05T20:53:00Z,KLXV 052053Z AUTO 31008G20KT 10SM BKN047 M07/M21 A2993 RMK AO2 UPB28E33SNB1957E28 SLP151 P0000 60000 T10671211 53005
KLXY,2023-04-05T20:55:00Z,KLXY 052055Z AUTO 35007G18KT 320V020 10SM SCT085 BKN100 20/04 A3002 RMK AO2 LTG DSNT SE T01980040
KLYH,2023-04-05T20:54:00Z,KLYH 052054Z 20014G19KT 10SM FEW055 28/16 A3006 RMK AO2 SLP170 T02830161 58015
KLYO,2023-04-05T20:55:00Z,KLYO 052055Z AUTO 29016G20KT 10SM CLR 11/M10 A3010 RMK AO2 T01101098
KLYV,2023-04-05T20:55:00Z,KLYV 052055Z AUTO 29025G30KT 10SM OVC023 M03/M07 A2996 RMK AO2
KLZU,2023-04-05T20:56:00Z,KLZU 052056Z 21007KT 10SM FEW060 SCT075 29/17 A3009 RMK AO2 SLP191 T02940167 56012
KLZZ,2023-04-05T20:55:00Z,KLZZ 052055Z AUTO 03009G14KT 10SM BKN085 BKN120 19/00 A3002 RMK AO2 T01901005
KM01,2023-04-05T20:55:00Z,KM01 052055Z AUTO 18004KT 3SM -RA BR SCT070 BKN100 19/18 A2998 RMK AO2 P0000 T01880182 $
KM02,2023-04-05T20:55:00Z,KM02 052055Z AUTO 31007G16KT 5SM BR FEW004 SCT032 BKN055 17/16 A3001 RMK A01 P0017
KM08,2023-04-05T20:55:00Z,KM08 052055Z AUTO 00000KT 10SM FEW075 18/17 A3000 RMK A01 P0009
KM19,2023-04-05T21:00:00Z,KM19 052100Z AUTO 30004KT 10SM FEW008 BKN015 OVC023 18/17 A2996 RMK AO2 PRESRR PNO $
KM21,2023-04-05T20:55:00Z,KM21 052055Z AUTO 21008KT 7SM RA BKN075 OVC090 17/16 A3000 RMK AO2 T01650155
KM30,2023-04-05T20:55:00Z,KM30 052055Z AUTO 21006KT 10SM -RA SCT012 BKN038 OVC110 19/18 A2994 RMK AO2 P0007 60058 T01850177
KM40,2023-04-05T20:55:00Z,KM40 052055Z AUTO 20009G14KT 10SM FEW060 BKN080 30/18 A2998 RMK AO2
KM75,2023-04-05T20:55:00Z,KM75 052055Z AUTO 00000KT 10SM CLR M05/M08 A3006 RMK A01
KM91,2023-04-05T20:50:00Z,KM91 052050Z AUTO 30019G45KT 1SM HZ SCT008 BKN028 OVC065 19/17 A3000 RMK A01 VIS 1/4V5
KMAF,2023-04-05T20:53:00Z,KMAF 052053Z VRB04KT 8SM CLR 17/M16 A3005 RMK AO2 SLP153 T01721156 57018 $
KMAI,2023-04-05T20:53:00Z,KMAI 052053Z AUTO 10SM CLR 31/19 A3006 RMK AO1 SLP178 T03060194 55007
KMAN,2023-04-05T20:55:00Z,KMAN 052055Z AUTO 21004G10KT 10SM SCT065 SCT075 07/M08 A3019 RMK A01
KMAO,2023-04-05T20:55:00Z,KMAO 052055Z AUTO 19009KT 10SM SCT060 28/11 A3013 RMK AO2
KMAW,2023-04-05T20:55:00Z,KMAW 052055Z AUTO 23013G20KT 10SM SCT041 BKN095 BKN120 19/17 A2998 RMK AO1
KMBG,2023-04-05T20:52:00Z,KMBG 052052Z AUTO 30023G33KT 6SM HZ CLR M03/M11 A2994 RMK AO2 PK WND 31033/2018 SLP165 60000 T10331106 52018
KMBL,2023-04-05T20:56:00Z,KMBL 052056Z AUTO 24007KT 10SM OVC014 09/08 A2960 RMK AO2 PRESRR SLP025 T00940078 53041
KMBS,2023-04-05T20:53:00Z,KMBS 052053Z 20015G27KT 10SM CLR 21/14 A2961 RMK AO2 PK WND 19027/2047 SLP027 T02110139 51001
KMBT,2023-04-05T20:55:00Z,KMBT 052055Z AUTO 20015G21KT 10SM FEW085 29/15 A2996 RMK A01
KMBY,2023-04-05T20:55:00Z,KMBY 052055Z AUTO 27017G21KT 10SM CLR 11/M01 A3002 RMK AO2
KMCB,2023-04-05T20:53:00Z,KMCB 052053Z AUTO 18013G20KT 10SM FEW041 BKN060 29/21 A2996 RMK AO2 PK WND 16026/1959 SLP140 T02890206 58007
KMCC,2023-04-05T20:55:00Z,KMCC 052055Z AUTO VRB03KT 10SM CLR 15/M01 A3021 RMK AO2
KMCD,2023-04-05T20:55:00Z,KMCD 052055Z AUTO 11013G23KT 090V160 1/4SM FG OVC001 02/02 A2950 RMK AO2 T00210021
KMCE,2023-04-05T20:53:00Z,KMCE 052053Z AUTO 00000KT 10SM CLR 16/00 A3020 RMK AO2 SLP226 T01560000 58011
KMCF,2023-04-05T20:56:00Z,KMCF 052056Z AUTO 19011KT 10SM FEW150 FEW210 29/21 A3001 RMK AO2 WSHFT 54 SLP165 FZRANO $
KMCI,2023-04-05T20:53:00Z,KMCI 052053Z 30011G19KT 10SM SCT035 10/M03 A3006 RMK AO2 SLP181 T01001033 51018
KMCJ,2023-04-05T20:55:00Z,KMCJ 052055Z AUTO 36012G24KT 320V020 6SM VCTS BR OVC024 19/17 A2989 RMK A01 LTG DSNT ALQDS
KMCK,2023-04-05T20:53:00Z,KMCK 052053Z AUTO 32023G33KT 10SM CLR 07/M10 A3007 RMK AO2 PK WND 33034/2017 SLP203 T00721100 53006
KMCN,2023-04-05T20:53:00Z,KMCN 052053Z 19009G17KT 10SM CLR 32/18 A3008 RMK AO2 SLP180 T03170183 56013
KMCO,2023-04-05T20:53:00Z,KMCO 052053Z 11015G21KT 10SM FEW045 SCT250 31/18 A3009 RMK AO2 SLP188 T03110178 56014
KMCW,2023-04-05T20:53:00Z,KMCW 052053Z AUTO 27026G34KT 10SM OVC028 01/M06 A2990 RMK AO2 PK WND 29040/2006 SLP131 T00061056 51023
KMCX,2023-04-05T20:55:00Z,KMCX 052055Z AUTO 28015G27KT 7SM BKN010 BKN018 OVC030 13/12 A2981 RMK AO2 60002 T01320124
KMCZ,2023-04-05T21:05:00Z,KMCZ 052105Z AUTO 21010G15KT 10SM CLR 29/16 A3012 RMK AO2 T02940157
KMDD,2023-04-05T20:55:00Z,KMDD 052055Z AUTO 36005KT 10SM CLR 18/M17 A3006 RMK AO2 T01821175
KMDH,2023-04-05T20:52:00Z,KMDH 052052Z 32014G22KT 8SM BKN009 BKN016 14/13 A2992 RMK AO2 PK WND 32028/2027 RAE24 CIG 007V012 SLP129 P0001 60016 T01440128 50034
KMDQ,2023-04-05T20:55:00Z,KMDQ 052055Z AUTO 10SM SCT060 SCT075 29/15 A3002 RMK A02 T02930145
KMDS,2023-04-05T20:55:00Z,KMDS 052055Z AUTO 28023G32KT 10SM UP BKN020 OVC024 M04/M04 A2992 RMK AO2
KMDT,2023-04-05T20:56:00Z,KMDT 052056Z 04005KT 10SM BKN060 BKN120 BKN250 23/16 A2998 RMK AO2 SLP152 T02330156 56020
KMDW,2023-04-05T20:53:00Z,KMDW 052053Z 27017G35KT 10SM FEW019 SCT025 OVC200 10/03 A2980 RMK AO2 PK WND 27035/2044 SLP089 T01000033 51048
KMDZ,2023-04-05T20:55:00Z,KMDZ 052055Z AUTO 24015KT 00/M05 A2963 RMK AO2 6//// T10051054 PWINO
KMEB,2023-04-05T20:52:00Z,KMEB 052052Z AUTO 21012KT 10SM FEW060 31/15 A3012 RMK AO2 SLP196 T03110150 56016
KMEH,2023-04-05T21:06:00Z,KMEH 052106Z AUTO VRB04KT 10SM SCT023 SCT028 05/M07 A3010 RMK AO2 T00501072
KMEI,2023-04-05T20:58:00Z,KMEI 052058Z AUTO 17016G21KT 10SM SCT050 29/19 A3000 RMK AO2 SLP156 I1000 I3/// T02940189 58005
KMEM,2023-04-05T20:54:00Z,KMEM 052054Z 21005KT 10SM -RA FEW047 BKN100 OVC250 19/17 A3001 RMK AO2 RAE22B54 TSE13 SLP158 P0000 60010 T01890172 51023
KMER,2023-04-05T20:53:00Z,KMER 052053Z 30005KT 10SM CLR 18/01 A3021
KMEV,2023-04-05T20:55:00Z,KMEV 052055Z AUTO VRB04G10KT 10SM CLR 07/M10 A3013 RMK AO2
KMEZ,2023-04-05T20:55:00Z,KMEZ 052055Z AUTO 35009KT 10SM CLR 15/07 A3001 RMK AO2 T01520071
KMFD,2023-04-05T20:52:00Z,KMFD 052052Z 19014KT 10SM BKN044 BKN050 OVC065 19/17 A2986 RMK AO2 RAE43 SLP106 P0027 60053 T01890172 58004
KMFE,2023-04-05T21:05:00Z,KMFE 052105Z 33010KT 5SM HZ OVC030 27/24 A2979 RMK AO2 RAB2056E04 P0000 T02720244
KMFI,2023-04-05T20:54:00Z,KMFI 052054Z AUTO 27016G32KT 10SM OVC028 02/M03 A2966 RMK AO2 PK WND 26036/2001 SLP058 T00171033 51046
KMFR,2023-04-05T20:53:00Z,KMFR 052053Z VRB04KT 10SM SCT085 12/01 A3015 RMK AO2 SLP211 T01220011 57018
KMGC,2023-04-05T20:15:00Z,KMGC 052015Z AUTO 27010G22KT 10SM BKN024 OVC029 15/11 A2974 RMK AO2
KMGE,2023-04-05T20:55:00Z,KMGE 052055Z 18008KT 10SM SCT055 BKN250 29/16 A3007 RMK AO2A SLP175 T02860158 57007 $
KMGG,2023-04-05T20:55:00Z,KMGG 052055Z AUTO 24014G25KT 4SM -SN BKN024 BKN029 OVC035 M02/M07 A2975 RMK AO2 T10211073
KMGJ,2023-04-05T20:54:00Z,KMGJ 052054Z AUTO 09007KT 10SM OVC016 10/07 A3016 RMK AO2 SLP212 T01000067 56013
KMGM,2023-04-05T20:53:00Z,KMGM 052053Z AUTO 20010G16KT 10SM SCT075 32/17 A3005 RMK AO2 SLP171 T03170167 58003
KMGN,2023-04-05T20:55:00Z,KMGN 052055Z AUTO 26009G15KT 220V290 10SM SCT024 SCT031 OVC038 11/09 A2951 RMK AO2 T01180094
KMGW,2023-04-05T20:53:00Z,KMGW 052053Z 19007G15KT 10SM CLR 30/13 A2992 RMK AO2 SLP120 T03000133 58021
KMGY,2023-04-05T20:53:00Z,KMGY 052053Z AUTO 25006KT 4SM VCTS RA BR SCT047 BKN070 OVC090 17/14 A2992 RMK AO2 WSHFT 1942 LTG DSNT ALQDS RAB1955 TSB19E47 SLP127 P0031 60066 T01670144 53015
KMHE,2023-04-05T20:53:00Z,KMHE 052053Z AUTO 30023G33KT 10SM FEW036 M01/M09 A3002 RMK AO2 PK WND 30036/2023 SLP184 T10061094 53020 $
KMHK,2023-04-05T20:52:00Z,KMHK 052052Z 27011G19KT 250V310 10SM CLR 12/M09 A3008 RMK AO2 SLP192 T01171089 53006
KMHL,2023-04-05T20:55:00Z,KMHL 052055Z AUTO 29012G20KT 10SM CLR 10/00 A3005 RMK AO2
KMHP,2023-04-05T20:55:00Z,KMHP 052055Z AUTO 17006KT 10SM SCT065 SCT080 30/16 A3011 RMK AO2 T03010160
KMHS,2023-04-05T20:56:00Z,KMHS 052056Z AUTO 00000KT 10SM CLR 10/M06 A3011 RMK AO2 SLP225 T01001056 56009
KMHT,2023-04-05T20:53:00Z,KMHT 052053Z VRB04KT 10SM OVC018 04/M01 A3033 RMK AO2 SLP287 T00391011 55017
KMHV,2023-04-05T21:00:00Z,KMHV 052100Z AUTO VRB06KT 10SM CLR 12/M10 A3015 RMK AO2
KMIA,2023-04-05T20:53:00Z,KMIA 052053Z 10015KT 10SM BKN032 BKN250 29/21 A3008 RMK AO2 SLP185 T02890211 58012
KMIB,2023-04-05T20:50:00Z,KMIB 052050Z 32026G33KT 10SM FEW050 M06/M09 A2986 RMK AO2A SLP146 $
KMIC,2023-04-05T20:53:00Z,KMIC 052053Z 26022G43KT 10SM SCT030 OVC036 M02/M08 A2974 RMK AO2 PK WND 28043/2048 SLP079 T10171083 51033
KMIE,2023-04-05T20:53:00Z,KMIE 052053Z 21008G17KT 3SM RA SCT075 OVC095 17/14 A2984 RMK AO2 SLP095 P0012 60015 T01720139 53001
KMIV,2023-04-05T20:54:00Z,KMIV 052054Z AUTO 16010G17KT 10SM CLR 22/15 A3008 RMK AO2 SLP186 T02220150 56013
KMIW,2023-04-05T20:53:00Z,KMIW 052053Z AUTO 28018G27KT 10SM SCT040 06/M04 A2995 RMK AO2 PK WND 28033/2006 SLP147 T00561039 53029
KMJD,2023-04-05T20:55:00Z,KMJD 052055Z AUTO 16013KT 10SM SCT023 SCT028 BKN032 28/24 A2998 RMK AO2
KMJQ,2023-04-05T20:55:00Z,KMJQ 052055Z AUTO 28021G33KT 10SM OVC023 M02/M07 A2990 RMK AO2
KMKC,2023-04-05T20:54:00Z,KMKC 052054Z 28011G20KT 10SM CLR 11/M03 A3007 RMK AO2 SLP182 T01061033 51018
KMKE,2023-04-05T20:52:00Z,KMKE 052052Z 27014G31KT 10SM FEW028 BKN250 11/02 A2969 RMK AO2 PK WND 27036/2013 SLP057 T01060022 51060
KMKG,2023-04-05T20:55:00Z,KMKG 052055Z 25015G27KT 9SM SCT025 BKN045 12/07 A2968 RMK AO2 PK WND 22031/2000 PRESRR SLP051 T01170072 53039
KMKJ,2023-04-05T20:55:00Z,KMKJ 052055Z AUTO 20008G16KT 150V230 10SM BKN055 BKN065 25/14 A3011 RMK AO2 T02530137
KMKL,2023-04-05T20:53:00Z,KMKL 052053Z 22004KT 4SM -RA BR BKN065 OVC080 17/16 A3002 RMK AO2 LTG DSNT NE SLP162 P0009 60032 T01720161 51017
KMKN,2023-04-05T20:55:00Z,KMKN 052055Z AUTO 36010KT 10SM 19/00 A3008 RMK AO2 T01940001
KMKO,2023-04-05T20:53:00Z,KMKO 052053Z AUTO 33010KT 10SM CLR 14/00 A3010 RMK AO2 SLP187 T01440000 50000
KMKS,2023-04-05T20:55:00Z,KMKS 052055Z AUTO 16008KT 10SM CLR 28/18 A3013 RMK AO2
KMKT,2023-04-05T20:56:00Z,KMKT 052056Z AUTO 27021G31KT 9SM -SN OVC027 M02/M07 A2984 RMK AO2 PK WND 29033/2031 SLP117 P0000 60000 T10171067 53029 FZRANO
KMKY,2023-04-05T20:56:00Z,KMKY 052056Z AUTO 15009KT 10SM CLR 30/20 A3005 RMK AO2 SLP176 6//// T03000200 56014 TSNO PNO $
KMLB,2023-04-05T20:53:00Z,KMLB 052053Z 09013KT 10SM CLR 28/19 A3010 RMK AO2 SLP192 T02780194 56013
KMLC,2023-04-05T20:53:00Z,KMLC 052053Z AUTO 01013G18KT 10SM CLR 17/01 A3006 RMK AO2 SLP172 T01670006 58004
KMLE,2023-04-05T20:55:00Z,KMLE 052055Z AUTO 30020G24KT 10SM CLR 06/M08 A3004 RMK AO2 T00641081
KMLF,2023-04-05T20:52:00Z,KMLF 052052Z AUTO 05006KT 9SM -SN CLR 01/M07 A3017 RMK AO2 SNB00 SLP247 P0000 60000 T00061067 56000
KMLI,2023-04-05T20:52:00Z,KMLI 052052Z 27021G28KT 10SM SCT030 08/00 A2991 RMK AO2 PK WND 28034/2022 SLP129 T00780000 51040
KMLJ,2023-04-05T20:55:00Z,KMLJ 052055Z AUTO VRB04G14KT 10SM FEW065 FEW080 SCT085 31/17 A3008 RMK AO2
KMLP,2023-04-05T21:04:00Z,KMLP 052104Z AUTO 1/4SM SN FZFG SCT003 BKN011 OVC032 M05/M07 A3001 RMK AO2 P0001 T10501067
KMLS,2023-04-05T20:53:00Z,KMLS 052053Z AUTO 29015G18KT 10SM SCT046 02/M09 A3003 RMK AO2 SLP200 T00171094 56009
KMLT,2023-04-05T21:05:00Z,KMLT 052105Z AUTO 11004KT 3SM FZRA BR OVC045 M02/M04 A3041 RMK AO2 P0002 I1002 T10221039
KMLU,2023-04-05T21:07:00Z,KMLU 052107Z VRB05KT 10SM VCTS -RA FEW046 SCT100 BKN120 19/18 A2999 RMK AO2 LTG DSNT ALQDS P0000 T01890178
KMMH,2023-04-05T20:55:00Z,KMMH 052055Z AUTO 15003KT 10SM CLR M01/M09 A3014 RMK AO2 T10081092
KMMI,2023-04-05T20:55:00Z,KMMI 052055Z AUTO 22013G20KT 180V250 10SM CLR 30/14 A3005 RMK A01
KMMK,2023-04-05T20:53:00Z,KMMK 052053Z AUTO 10006KT 10SM OVC019 10/06 A3023 RMK AO2 SLP238 T01000056 56012
KMML,2023-04-05T20:56:00Z,KMML 052056Z AUTO 27029G38KT 9SM -SN OVC026 M03/M07 A2987 RMK AO2 PK WND 26038/2048 UPB33E36SNE00B23E33B39 SLP133 P0000 60000 T10281072 51028 FZRANO
KMMT,2023-04-05T20:55:00Z,KMMT 052055Z 16007KT 10SM FEW060 SCT080 30/16 A3009 RMK AO2A SLP191 T03010157 57015 $
KMMU,2023-04-05T20:45:00Z,KMMU 052045Z COR 08008KT 3SM BR OVC005 10/10 A3018
KMMV,2023-04-05T20:53:00Z,KMMV 052053Z AUTO 15005KT 10SM BKN025 OVC032 09/04 A3017 RMK AO2 RAB12E48 SLP216 P0000 60000 T00890044 58014
KMNE,2023-04-05T21:01:00Z,KMNE 052101Z AUTO 00000KT 10SM BKN006 BKN009 OVC080 19/19 A2997 RMK AO2 LTG DSNT E THRU S
KMNH,2023-04-05T20:55:00Z,KMNH 052055Z AUTO 24009KT 10SM OVC060 00/M12 A2999 RMK AO2
KMNI,2023-04-05T20:55:00Z,KMNI 052055Z AUTO 21009G14KT 10SM CLR 29/17 A3012 RMK AO2
KMNM,2023-04-05T20:57:00Z,KMNM 052057Z AUTO 10SM SCT027 08/04 A2953 RMK AO2 SLP022 6//// T00830039 51023 PNO $
KMNN,2023-04-05T20:53:00Z,KMNN 052053Z AUTO 27007KT 4SM -RA BR FEW011 BKN034 OVC044 19/17 A2987 RMK AO2 RAB35 SLP112 P0002 60024 T01940172 53002
KMNV,2023-04-05T20:55:00Z,KMNV 052055Z AUTO 23015G24KT 10SM 29/14 A3003 RMK A01
KMNZ,2023-04-05T20:55:00Z,KMNZ 052055Z AUTO 36010G18KT 10SM SCT100 19/M01 A3007 RMK AO2 T01911011
KMOB,2023-04-05T20:56:00Z,KMOB 052056Z VRB04KT 7SM BKN025 BKN250 28/20 A3005 RMK AO2 SLP173 T02780200
KMOD,2023-04-05T20:53:00Z,KMOD 052053Z 00000KT 10SM CLR 16/02 A3020 RMK AO2 SLP226 T01560022 58010
KMOP,2023-04-05T20:55:00Z,KMOP 052055Z AUTO 22026G34KT 10SM BKN046 OVC060 21/12 A2959 RMK AO2 T02130119
KMOR,2023-04-05T20:55:00Z,KMOR 052055Z AUTO 26011G16KT 10SM BKN080 BKN090 30/14 A3001 RMK A01
KMOT,2023-04-05T20:54:00Z,KMOT 052054Z 29024G35KT 10SM CLR M04/M11 A2987 RMK AO2 PK WND 29040/2015 SLP147 T10441106 52009
KMOX,2023-04-05T20:55:00Z,KMOX 052055Z AUTO 29010KT 1 3/4SM -SN BKN001 M05/M08 A2978 RMK AO2
KMPO,2023-04-05T20:53:00Z,KMPO 052053Z AUTO 11010KT M1/4SM FG VV001 09/09 A3010 RMK AO2 SLP199 T00940094 57013
KMPR,2023-04-05T20:55:00Z,KMPR 052055Z AUTO 34014G19KT 10SM CLR 10/M09 A3010 RMK AO2 T01031087
KMPV,2023-04-05T20:51:00Z,KMPV 052051Z AUTO 17012G19KT 10SM -RA OVC024 02/M02 A3018 RMK AO2 LTG DSNT N SLP235 P0002 60004 T00221022 57018
KMPZ,2023-04-05T20:55:00Z,KMPZ 052055Z AUTO 29017G22KT 10SM CLR 08/02 A2997 RMK AO2
KMQB,2023-04-05T20:55:00Z,KMQB 052055Z AUTO 27017KT 10SM BKN033 09/03 A2997 RMK AO2 T00920026
KMQI,2023-04-05T21:10:00Z,KMQI 052110Z AUTO 19012KT 10SM CLR 23/19 A3017 RMK AO2 T02310186
KMQJ,2023-04-05T20:55:00Z,KMQJ 052055Z AUTO 20013G18KT 10SM SCT015 SCT065 OVC110 15/15 A2988 RMK AO1
KMQS,2023-04-05T20:55:00Z,KMQS 052055Z AUTO 14008KT 10SM CLR 25/17 A3006 RMK AO2
KMQW,2023-04-05T20:55:00Z,KMQW 052055Z AUTO 19008KT 150V220 10SM SCT065 BKN075 32/16 A3009 RMK AO2 T03180165
KMQY,2023-04-05T20:56:00Z,KMQY 052056Z 19010G19KT 10SM BKN065 27/17 A2998 RMK AO2 LTG DSNT W AND NW SLP153 T02720167 58002
KMRB,2023-04-05T20:53:00Z,KMRB 052053Z 16013G19KT 10SM CLR 28/16 A2994 RMK AO2 SLP134 T02780156 56019
KMRC,2023-04-05T20:55:00Z,KMRC 052055Z AUTO 23018KT 10SM SCT060 BKN075 27/16 A2995 RMK A01
KMRF,2023-04-05T20:56:00Z,KMRF 052056Z AUTO 25005KT 10SM CLR 19/M14 A3006 RMK AO2 SLP137 T01891139 58017
KMRH,2023-04-05T20:58:00Z,KMRH 052058Z AUTO 18008KT 10SM CLR 24/21 A3017 RMK AO2 SLP216 I1000 I3/// T02390206 55007
KMRJ,2023-04-05T20:55:00Z,KMRJ 052055Z AUTO 26022G29KT 10SM BKN028 05/M01 A2982 RMK AO2 PWINO
KMRN,2023-04-05T21:05:00Z,KMRN 052105Z AUTO 19006KT 10SM SCT080 28/17 A3013 RMK AO2 T02800167
KMRT,2023-04-05T20:59:00Z,KMRT 052059Z AUTO 27013KT 4SM SCT035 OVC042 17/14 A2991 RMK AO1 P0005
KMRY,2023-04-05T20:54:00Z,KMRY 052054Z 31010KT 10SM CLR 12/06 A3024 RMK AO2 SLP254 T01170056 58004
KMSL,2023-04-05T20:53:00Z,KMSL 052053Z AUTO 22013KT 10SM SCT100 28/18 A2998 RMK AO2 LTG DSNT NW RAB36E47 SLP144 P0002 60002 T02830183 58012
KMSN,2023-04-05T20:53:00Z,KMSN 052053Z COR 27013G23KT 10SM BKN035 BKN250 07/M01 A2976 RMK AO2 PK WND 26028/1955 SLP082 T00721006 51046
KMSO,2023-04-05T20:53:00Z,KMSO 052053Z 36010G17KT 10SM SCT050 07/M05 A3007 RMK AO2 SLP202 60000 T00671050 56007
KMSP,2023-04-05T21:05:00Z,KMSP 052105Z 27021G40KT 10SM BKN029 OVC036 M02/M09 A2977 RMK AO2 PK WND 27040/2103 T10171089
KMSS,2023-04-05T20:53:00Z,KMSS 052053Z AUTO 07009KT 3SM RA BR BKN005 OVC012 01/M01 A2998 RMK AO2 UPE27RAB27 SLP155 P0026 60089 I3007 T00061006 58018
KMSV,2023-04-05T20:56:00Z,KMSV 052056Z AUTO 13009KT 10SM OVC012 11/08 A3013 RMK AO2 SLP207 T01060083 56013
KMSY,2023-04-05T20:53:00Z,KMSY 052053Z 15014G24KT 10SM SCT017 SCT022 BKN250 28/23 A2998 RMK AO2 SLP154 T02830228 58015
KMTC,2023-04-05T20:56:00Z,KMTC 052056Z 13013KT 10SM VCSH FEW035 BKN070 OVC100 15/15 A2968 RMK AO2A RAB10E32 SLP056 P0000 60008 T01530147 55022
KMTH,2023-04-05T20:53:00Z,KMTH 052053Z AUTO 11011G19KT 10SM CLR 30/21 A3004 RMK AO2 SLP172 T03000206 56014
KMTJ,2023-04-05T20:53:00Z,KMTJ 052053Z AUTO 23006KT 10SM FEW050 BKN070 BKN090 02/M11 A3008 RMK AO2 SLP188 T00171111 53001
KMTK,2023-04-05T20:55:00Z,KMTK 052055Z AUTO 13012KT 10SM CLR 25/23 A3000 RMK A01
KMTN,2023-04-05T20:53:00Z,KMTN 052053Z 15017KT 10SM CLR 23/16 A3004
KMTO,2023-04-05T20:53:00Z,KMTO 052053Z AUTO 29018KT 10SM OVC015 11/08 A2992 RMK AO2 PK WND 27034/2029 SLP129 60001 T01110083 53060
KMTP,2023-04-05T20:54:00Z,KMTP 052054Z AUTO 06011G20KT 07/05 A3025 RMK AO1 SLP244 T00720050 58011
KMTV,2023-04-05T20:55:00Z,KMTV 052055Z AUTO 21005KT 10SM SCT070 SCT090 28/14 A3010 RMK AO2 T02750140
KMTW,2023-04-05T20:56:00Z,KMTW 052056Z AUTO 27019G27KT 10SM SCT031 11/04 A2960 RMK AO2 PK WND 25033/1958 SLP026 60000 T01060039 53037
KMUI,2023-04-05T20:55:00Z,KMUI 052055Z COR 10012G20KT 10SM SCT045 BKN120 BKN250 19/16 A3004 RMK SLPNO WND DATA ESTMD ALSTG ESTMD 56024 COR 2056
KMUO,2023-04-05T20:55:00Z,KMUO 052055Z 33006KT 10SM FEW050 SCT070 07/M10 A3016 RMK AO2A SLP228 T00681100 58005
KMUT,2023-04-05T20:55:00Z,KMUT 052055Z AUTO 28019G27KT 10SM 07/M02 A2997 RMK AO2
KMVE,2023-04-05T20:55:00Z,KMVE 052055Z AUTO 28000KT 10SM SCT026 OVC033 M03/M04 A2983 RMK AO2
KMVH,2023-04-05T21:00:00Z,KMVH 052100Z AUTO 34009KT 10SM CLR 02/M15 A2996 RMK AO2 PWINO
KMVL,2023-04-05T21:04:00Z,KMVL 052104Z AUTO 20005KT 2 1/2SM RA BR OVC025 03/01 A3016 RMK AO2 P0002 T00280011
KMVY,2023-04-05T20:53:00Z,KMVY 052053Z 08012KT 2 1/2SM BR OVC006 07/06 A3027 RMK AO2 RAB13E36 SLP249 P0000 60000 T00720056 56018
KMWA,2023-04-05T20:45:00Z,KMWA 052045Z 30008KT 10SM OVC007 18/18 A2989
KMWC,2023-04-05T20:45:00Z,KMWC 052045Z 26023G33KT 10SM SCT028 09/02 A2968
KMWH,2023-04-05T20:52:00Z,KMWH 052052Z 21011KT 10SM CLR 12/M07 A3013 RMK AO2 SLP210 T01171067 58013
KMWK,2023-04-05T21:05:00Z,KMWK 052105Z AUTO 20010G16KT 10SM SCT065 BKN080 27/16 A3011 RMK AO2 T02660160
KMWL,2023-04-05T20:53:00Z,KMWL 052053Z AUTO 33013KT 10SM CLR 17/M02 A3008 RMK AO2 SLP176 T01721017 55001
KMWM,2023-04-05T20:55:00Z,KMWM 052055Z AUTO 26025G33KT 10SM OVC024 M03/M07 A2986 RMK AO2
KMWN,2023-04-05T20:53:00Z,KMWN 052053Z 22039G56KT 0SM -RA FG VV000 00/00 RMK FZRAE05RAB30
KMWO,2023-04-05T20:55:00Z,KMWO 052055Z AUTO 19010KT 5SM VCTSRA SCT049 SCT065 OVC095 16/ A2995 RMK AO2 LTG DSNT E AND SW P0028 T0161//// 60040
KMWT,2023-04-05T20:53:00Z,KMWT 052053Z AUTO 31007G14KT 10SM CLR 15/06 A2997 RMK AO2 SLP143 60000 T01500061 55010 $
KMXF,2023-04-05T20:55:00Z,KMXF 052055Z AUTO 18011KT 10SM BKN075 31/13 A3003 RMK AO2 SLP170 T03120125 55004
KMYF,2023-04-05T20:53:00Z,KMYF 052053Z 30011KT 10SM CLR 18/01 A3009 RMK AO2 SLP187 T01780011 56012
KMYJ,2023-04-05T20:55:00Z,KMYJ 052055Z AUTO 29011G22KT 10SM CLR 10/01 A3001 RMK AO2
KMYL,2023-04-05T20:51:00Z,KMYL 052051Z AUTO 18008KT 10SM CLR M01/M10 A3008 RMK AO2 SLP230 T10061100 56002
KMYR,2023-04-05T20:56:00Z,KMYR 052056Z 15010KT 10SM CLR 24/22 A3017 RMK AO2 SLP216 T02440222 56010
KMYV,2023-04-05T20:53:00Z,KMYV 052053Z AUTO 00000KT 10SM CLR 17/M01 A3021 RMK AO2 SLP233 T01671011 58011
KMYZ,2023-04-05T20:55:00Z,KMYZ 052055Z AUTO 30014G21KT 10SM CLR 10/M08 A3007 RMK AO2
KMZH,2023-04-05T20:55:00Z,KMZH 052055Z AUTO 26011G24KT 10SM OVC028 M01/M07 A2957 RMK AO2
KMZZ,2023-04-05T20:55:00Z,KMZZ 052055Z AUTO 21016G24KT 7SM -RA SCT026 BKN080 OVC100 16/15 A2981 RMK AO2 P0009 60013 T01640149
KN03,2023-04-05T20:55:00Z,KN03 052055Z AUTO 19018G24KT 10SM SCT110 20/12 A2992 RMK AO2
KN38,2023-04-05T20:55:00Z,KN38 052055Z AUTO 17022G29KT 10SM CLR 20/14 A2992 RMK AO2
KN60,2023-04-05T20:52:00Z,KN60 052052Z AUTO 30033G44KT M06/M11 A2990 RMK AO1 PK WND 30044/2022 SLP160 T10561106 53012
KN79,2023-04-05T20:55:00Z,KN79 052055Z AUTO 13008G20KT 10SM SCT140 18/15 A3001 RMK AO2 T01780153
KNAK,2023-04-05T20:54:00Z,KNAK 052054Z AUTO 17014G22KT 10SM CLR 23/17 A3002 RMK AO2 PK WND 16026/1956 SLP169 T02330167 55014
KNBC,2023-04-05T20:56:00Z,KNBC 052056Z 16011KT 10SM CLR 28/22 A3014 RMK AO2 SLP207 T02780217 56008
KNBG,2023-04-05T20:55:00Z,KNBG 052055Z 18015G20KT 10SM FEW020 SCT026 SCT036 OVC250 28/23 A2999 RMK AO2 SLP154 T02780233 58010 $
KNCA,2023-04-05T20:56:00Z,KNCA 052056Z 17012G18KT 10SM SCT200 27/14 A3015 RMK AO2 SLP213 T02670144 $
KNDZ,2023-04-05T20:56:00Z,KNDZ 052056Z 21007G17KT 10SM BKN022 BKN250 27/21 A3008 RMK AO2 SLP170 BKN022 V SCT T02670206 50001 $
KNEL,2023-04-05T21:07:00Z,KNEL 052107Z 08007KT OVC004 11/10 A3014 RMK AO2 T01110100
KNEW,2023-04-05T20:53:00Z,KNEW 052053Z 16017G22KT 10SM FEW027 FEW033 SCT045 29/22 A2999 RMK AO2 SLP149 T02890222 58011
KNFE,2023-04-05T20:56:00Z,KNFE 052056Z AUTO 17010KT 10SM CLR 29/17 A3010 RMK AO2 SLP195 T02890172 56015
KNFG,2023-04-05T20:52:00Z,KNFG 052052Z 28007KT 10SM FEW050 FEW200 19/06 A3009 RMK AO2 SLP189 T01890056 56012
KNFL,2023-04-05T20:56:00Z,KNFL 052056Z VRB03KT 10SM SCT060 SCT200 08/M11 A3017 RMK AO2 SLP179 T00781106 58006
KNFW,2023-04-05T20:52:00Z,KNFW 052052Z AUTO 33012KT CLR 18/M01 A3008 RMK AO2 SLP170 T01781006 51003 TSNO CHINO S VISNO S $
KNGP,2023-04-05T20:56:00Z,KNGP 052056Z 01025G35KT 4SM RA BR SCT007 BKN011 OVC049 21/19 A2984 RMK AO2 PK WND 01035/2048 WSHFT 2033 RAE22B46 SLP104 P0002 60005 T02060189 53003
KNGU,2023-04-05T20:59:00Z,KNGU 052059Z 22010G17KT 10SM FEW060 BKN250 30/16 A3010 RMK AO2 SLP193 T03000161 56014
KNHK,2023-04-05T20:52:00Z,KNHK 052052Z 14014G22KT 10SM BKN280 24/16 A3004 RMK AO2 SLP174 T02440156 56014
KNID,2023-04-05T20:56:00Z,KNID 052056Z 02004KT 10SM FEW250 14/M11 A3014 RMK AO2 SLP213 T01441111 58016 $
KNIP,2023-04-05T20:53:00Z,KNIP 052053Z 13013KT 10SM FEW045 SCT090 BKN250 29/21 A3011 RMK AO2 SLP193 T02940206 56009
KNJK,2023-04-05T20:56:00Z,KNJK 052056Z COR VRB05KT 10SM CLR 21/M08 A3011 RMK AO2 SLP211 T02111078 58018 $
KNJM,2023-04-05T20:57:00Z,KNJM 052057Z AUTO 16006KT 8SM CLR 26/20 A3018 RMK AO2 SLP222 T02560200 55008
KNJW,2023-04-05T20:57:00Z,KNJW 052057Z AUTO 14008KT 10SM BKN060 30/18 A3002 RMK AO2 SLP079 T03000178 56006
KNKT,2023-04-05T20:56:00Z,KNKT 052056Z 22010G18KT 10SM CLR 27/18 A3017 RMK AO2 SLP212 T02670183 55006
KNKX,2023-04-05T20:55:00Z,KNKX 052055Z 28010KT 10SM CLR 16/05 A3009 RMK AO2 SLP185 T01610050 56012
KNLC,2023-04-05T20:56:00Z,KNLC 052056Z VRB03KT 10SM FEW032 BKN220 17/01 A3020 RMK AO2 SLP228 RH/35 T01670011 58014
KNMM,2023-04-05T20:56:00Z,KNMM 052056Z 17009G16KT 10SM BKN055 BKN250 29/18 A3001 RMK AO2 SLP168 T02890178 58007 $
KNOG,2023-04-05T20:56:00Z,KNOG 052056Z AUTO 01014G23KT 10SM OVC031 23/09 A2988 RMK AO2 PK WND 01029/2011 SLP099 6//// T02330089 51003 TSNO PNO $
KNOW,2023-04-05T20:55:00Z,KNOW 052055Z AUTO 00000KT 10SM SCT110 07/03 A3013 RMK AO2 T00730027
KNOZ,2023-04-05T20:59:00Z,KNOZ 052059Z AUTO 24003KT 10SM CLR 21/M14 A3009 RMK AO2 SLP139 T02061139 58016 $
KNPA,2023-04-05T20:56:00Z,KNPA 052056Z 15011KT 10SM SCT012 BKN250 26/22 A3007 RMK AO2 SLP182 T02610222 58001 $
KNQA,2023-04-05T20:50:00Z,KNQA 052050Z 18003KT 10SM BKN100 19/18 A2998
KNQI,2023-04-05T20:56:00Z,KNQI 052056Z 02021G33KT 7SM -RA OVC014 16/16 A2987 RMK AO2 PK WND 03033/2056 WSHFT 1954 SLP110 T2 SET P0010 60010 T01610161 53012 $
KNQX,2023-04-05T20:53:00Z,KNQX 052053Z 10017KT 10SM FEW024 OVC250 28/22 A3004 RMK AO2 SLP169 T02830217 56014
KNRB,2023-04-05T20:52:00Z,KNRB 052052Z 14012G20KT 10SM FEW025 BKN250 28/23 A3013 RMK AO2 SLP201 T02780228 58009 $
KNRN,2023-04-05T20:55:00Z,KNRN 052055Z AUTO 35018G26KT 10SM CLR 09/M10 A3011 RMK AO2
KNRS,2023-04-05T20:53:00Z,KNRS 052053Z 29012KT 10SM CLR 15/08 A3011 RMK AO2 SLP196 T01500083 56008
KNSE,2023-04-05T20:56:00Z,KNSE 052056Z 19012KT 10SM SCT022 BKN250 27/21 A3008 RMK AO2 SLP171 T02670206 50001 $
KNSI,2023-04-05T20:53:00Z,KNSI 052053Z 33012KT 10SM SCT270 14/07 A3014 RMK AO2 SLP202 T01390072 58005 $
KNTD,2023-04-05T20:55:00Z,KNTD 052055Z 26011KT 10SM SCT300 16/05 A3014 RMK AO2 SLP206 T01560050 58004 $
KNTU,2023-04-05T20:56:00Z,KNTU 052056Z 16014G23KT 10SM FEW040 BKN300 26/17 A3010 RMK AO2 SLP195 T02610172 56013
KNUC,2023-04-05T20:56:00Z,KNUC 052056Z 32011KT 10SM FEW028 FEW250 14/00 A3014 RMK AO2 SLP205 T01440000 56008 $
KNUI,2023-04-05T20:53:00Z,KNUI 052053Z AUTO 15012G21KT 10SM CLR 24/17 A3004 RMK AO2 SLP173 T02440167 56014
KNUQ,2023-04-05T20:55:00Z,KNUQ 052055Z AUTO 35012KT 10SM CLR 14/05 A3022 RMK AO2
KNUW,2023-04-05T20:53:00Z,KNUW 052053Z 14016G24KT 10SM SCT035 BKN150 OVC220 12/01 A3014 RMK AO2 SLP211 T01170006 56010 VISNO $
KNXF,2023-04-05T20:56:00Z,KNXF 052056Z AUTO 29010KT 10SM CLR 16/09 A3010 RMK AO2 SLP278 T01560089 58012
KNXP,2023-04-05T20:56:00Z,KNXP 052056Z AUTO 00000KT 10SM CLR 16/M09 A3019 RMK AO2 SLP204 T01561094 56020
KNY0,2023-04-05T20:57:00Z,KNY0 052057Z AUTO 15013G17KT 10SM OVC030 12/06 A3004 RMK AO2
KNYC,2023-04-05T20:51:00Z,KNYC 052051Z AUTO 07008KT 030V090 1 3/4SM BR OVC004 09/07 A3021 RMK AO2 SLP223 T00890072 56017 $
KNYG,2023-04-05T20:56:00Z,KNYG 052056Z 19017G25KT 7SM FEW070 27/16 A3001 RMK AO2 PK WND 21028/2030 SLP163 T02720161 56016 $
KNYL,2023-04-05T20:57:00Z,KNYL 052057Z 36006KT 7SM FEW250 21/M13 A3009 RMK AO2 SLP187 T02111133 58018 $
KNZY,2023-04-05T20:52:00Z,KNZY 052052Z 29012KT 10SM CLR 16/06 A3009 RMK AO2 SLP189 T01610061 56011 $
KO05,2023-04-05T20:50:00Z,KO05 052050Z AUTO 00000KT 10SM CLR 03/M10 A3016 RMK A01
KO22,2023-04-05T20:55:00Z,KO22 052055Z AUTO 20005G11KT 10SM CLR 13/M04 A3017 RMK A01
KO32,2023-04-05T20:55:00Z,KO32 052055Z AUTO 00000KT 10SM CLR 15/01 A3018 RMK AO2 T01540007 $
KO69,2023-04-05T20:55:00Z,KO69 052055Z AUTO VRB04KT 10SM CLR 15/01 A3022 RMK A01
KO86,2023-04-05T20:55:00Z,KO86 052055Z AUTO 15008KT 10SM 12/M05 A3014 RMK A01
KOAJ,2023-04-05T20:56:00Z,KOAJ 052056Z 19008KT 10SM CLR 28/16 A3015 RMK AO2 SLP212 T02830161 55007
KOAK,2023-04-05T20:53:00Z,KOAK 052053Z 26006KT 10SM FEW040 BKN200 13/06 A3024 RMK AO2 SLP238 T01280061 58005
KOBE,2023-04-05T20:55:00Z,KOBE 052055Z AUTO 11007KT 10SM SCT050 30/19 A3007 RMK AO2
KOCF,2023-04-05T20:51:00Z,KOCF 052051Z 14007KT 10SM FEW070 32/17 A3008 RMK AO2 SLP186 6//// T03170172 56016 PNO $
KOCH,2023-04-05T20:56:00Z,KOCH 052056Z AUTO 33012KT 10SM OVC060 19/17 A2997 RMK AO2 SLP151 T01940172 56002 PWINO $
KOCQ,2023-04-05T20:55:00Z,KOCQ 052055Z AUTO 26014G21KT 10SM SCT020 OVC029 08/03 A2956 RMK AO1 T00810031
KOCW,2023-04-05T21:05:00Z,KOCW 052105Z AUTO 16004KT 10SM SCT065 30/16 A3014 RMK AO2 T02950161
KODO,2023-04-05T20:53:00Z,KODO 052053Z AUTO 15003KT 10SM CLR 19/M16 A3006 RMK AO2 SLP152 T01891156 56018
KODX,2023-04-05T20:53:00Z,KODX 052053Z AUTO 30018G30KT 10SM CLR 05/M10 A3005 RMK AO2 PK WND 29033/2016 SLP195 T00501100 51014
KOEB,2023-04-05T20:55:00Z,KOEB 052055Z AUTO 23019G28KT 10SM BKN041 BKN055 BKN070 20/13 A2973 RMK AO2 T01980127
KOEL,2023-04-05T20:55:00Z,KOEL 052055Z AUTO 34013G30KT 10SM CLR 09/M14 A3008 RMK AO1 T00901142
KOEO,2023-04-05T20:55:00Z,KOEO 052055Z AUTO 24025G29KT 10SM OVC033 M01/M05 A2975 RMK AO2 T10111050
KOFF,2023-04-05T20:55:00Z,KOFF 052055Z 30019KT 10SM FEW050 08/M10 A3005 RMK AO2A PK WND 32029/17 SLP188 T00811098 50017 PWINO PNO FZRANO TSNO $
KOFK,2023-04-05T20:56:00Z,KOFK 052056Z AUTO 30018G31KT 10SM FEW043 04/M09 A3003 RMK AO2 PK WND 29036/2026 SLP185 T00391089 53019
KOFP,2023-04-05T20:54:00Z,KOFP 052054Z AUTO 19014G22KT 6SM HZ FEW065 31/16 A3005 RMK AO2 SLP175 T03060161 56015
KOGA,2023-04-05T20:55:00Z,KOGA 052055Z AUTO 31023G32KT 10SM BKN049 05/M09 A3007 RMK AO2 T00481088
KOGB,2023-04-05T20:53:00Z,KOGB 052053Z AUTO 20010KT 10SM CLR 31/16 A3011 RMK AO2 SLP194 T03060161 56014
KOGD,2023-04-05T20:53:00Z,KOGD 052053Z 22009KT 10SM SCT045 BKN055 02/M08 A3018 RMK AO2 RAB08E09 SLP230 P0000 60000 T00171078 50003
KOGS,2023-04-05T20:55:00Z,KOGS 052055Z AUTO 4SM -RA OVC005 00/00 A2990 RMK AO2 P0025
KOIC,2023-04-05T20:55:00Z,KOIC 052055Z AUTO 18017G23KT 10SM SCT021 16/11 A2998 RMK AO2 T01570113
KOIN,2023-04-05T20:55:00Z,KOIN 052055Z AUTO 32016G22KT 7SM CLR 08/M09 A3013 RMK AO1 T00751095
KOJA,2023-04-05T20:55:00Z,KOJA 052055Z AUTO 34012G19KT 10SM CLR 14/M07 A3011 RMK AO2 T01371072
KOJC,2023-04-05T20:53:00Z,KOJC 052053Z 30010G17KT 10SM CLR 11/M03 A3006 RMK AO2 SLP182 T01061028 51016
KOKB,2023-04-05T20:52:00Z,KOKB 052052Z AUTO 27010KT 10SM CLR 17/06 A3009 RMK AO2 SLP189 T01670061 56012
KOKC,2023-04-05T20:52:00Z,KOKC 052052Z 03007G18KT 10SM FEW150 FEW250 13/M04 A3010 RMK AO2 WSHFT 1942 SLP194 T01281044 58002
KOKK,2023-04-05T20:56:00Z,KOKK 052056Z AUTO 22021G25KT 10SM OVC018 17/16 A2984 RMK AO2 RAE18 SLP102 6//// T01720161 53013 PNO $
KOKM,2023-04-05T20:55:00Z,KOKM 052055Z AUTO 32012G18KT 10SM CLR 15/M04 A3008 RMK AO2 T01491039
KOKV,2023-04-05T20:55:00Z,KOKV 052055Z AUTO 16014G22KT 10SM SCT070 28/16 A2995 RMK AO2
KOKZ,2023-04-05T20:55:00Z,KOKZ 052055Z AUTO 21006KT 10SM SCT085 30/16 A3010 RMK AO2 T02960162
KOLE,2023-04-05T20:55:00Z,KOLE 052055Z AUTO 22008G20KT 10SM SCT041 BKN065 OVC075 25/11 A2988 RMK AO2 LTG DSNT NE
KOLF,2023-04-05T20:53:00Z,KOLF 052053Z AUTO 25013KT 10SM CLR M06/M09 A3010 RMK AO2 SLP228 T10561094 58002
KOLG,2023-04-05T20:55:00Z,KOLG 052055Z AUTO 24018G27KT 10SM OVC026 M02/M08 A2955 RMK AO1
KOLM,2023-04-05T20:54:00Z,KOLM 052054Z 20007KT 10SM BKN045 OVC055 10/01 A3014 RMK AO2 SLP209 T01000006 58014
KOLS,2023-04-05T20:54:00Z,KOLS 052054Z AUTO 10SM CLR 18/M18 A3000 RMK AO2 SLP131 T01831183 58017
KOLU,2023-04-05T20:56:00Z,KOLU 052056Z AUTO 30016G26KT 10SM SCT050 06/M09 A3006 RMK AO2 PK WND 27029/2006 SLP196 60000 T00561089 53020
KOLV,2023-04-05T20:50:00Z,KOLV 052050Z 19006KT 8SM -RA BKN100 18/18 A3002
KOLY,2023-04-05T20:55:00Z,KOLY 052055Z AUTO 28014G19KT 7SM OVC012 15/13 A2989 RMK AO2 60012 T01470131 PWINO
KOLZ,2023-04-05T20:55:00Z,KOLZ 052055Z AUTO 28021G28KT 10SM OVC032 03/M03 A2989 RMK A01
KOMA,2023-04-05T20:52:00Z,KOMA 052052Z 32018G26KT 10SM SCT055 08/M07 A3002 RMK AO2 PK WND 28031/2039 SLP173 T00781072 53016
KOMH,2023-04-05T20:55:00Z,KOMH 052055Z AUTO 19009G20KT 10SM BKN055 BKN075 28/16 A3002 RMK AO2
KOMK,2023-04-05T20:53:00Z,KOMK 052053Z AUTO 20014G21KT 10SM CLR 12/M06 A3007 RMK AO2 SLP191 T01221056 58019
KOMN,2023-04-05T20:50:00Z,KOMN 052050Z 13010G18KT 7SM CLR 27/19 A3013
KONA,2023-04-05T20:55:00Z,KONA 052055Z AUTO 27011G24KT 10SM BKN034 OVC040 01/M06 A2982 RMK AO2
KONL,2023-04-05T20:55:00Z,KONL 052055Z AUTO 30021G29KT 10SM CLR 00/M11 A3005 RMK AO2 T00001107
KONM,2023-04-05T20:55:00Z,KONM 052055Z AUTO 00000KT 10SM CLR 11/M20 A3006 RMK AO2 T01071196
KONO,2023-04-05T20:53:00Z,KONO 052053Z AUTO 10SM CLR 10/M09 A3020 RMK AO2 SLP239 T01001094 57009
KONP,2023-04-05T20:55:00Z,KONP 052055Z AUTO 20013G18KT 10SM -DZ SCT016 BKN021 OVC049 08/06 RMK AO2 P0001
KONT,2023-04-05T20:53:00Z,KONT 052053Z VRB03KT 10SM SCT270 19/M03 A3007 RMK AO2 SLP180 T01891033 57018
KONX,2023-04-05T21:05:00Z,KONX 052105Z AUTO 13009KT 10SM CLR 26/15 A3013 RMK AO2 T02580150
KONZ,2023-04-05T20:55:00Z,KONZ 052055Z AUTO 17013G17KT 10SM -RA SCT001 OVC110 14/13 A2974 RMK AO2 60061 T01350131 P0014
KOOA,2023-04-05T20:55:00Z,KOOA 052055Z AUTO 29017G28KT 10SM SCT040 09/M03 A2999 RMK AO2 T00901026
KOPF,2023-04-05T20:53:00Z,KOPF 052053Z 11014KT 10SM SCT027 BKN037 BKN050 27/21 A3008 RMK AO2 RAB28E41 SLP187 P0000 60000 T02720211 57012
KOPL,2023-04-05T20:55:00Z,KOPL 052055Z AUTO 20011G18KT 10SM SCT034 SCT048 BKN085 29/21 A2995 RMK AO2 LTG DSNT W T02870207
KOPN,2023-04-05T20:55:00Z,KOPN 052055Z AUTO 18011G15KT 10SM SCT055 BKN080 29/13 A3011 RMK AO2
KOQN,2023-04-05T20:55:00Z,KOQN 052055Z AUTO 08010G14KT 10SM CLR 22/13 A3007 RMK AO2
KOQT,2023-04-05T20:53:00Z,KOQT 052053Z AUTO 21008G20KT 10SM CLR 31/13 A3002 RMK AO2 PK WND 20026/1957 SLP148 T03060128 58008
KORB,2023-04-05T20:53:00Z,KORB 052053Z AUTO 29013G19KT 2SM -SN SCT012 BKN016 OVC021 M02/M04 A2935 RMK AO2 P0002
KORD,2023-04-05T20:51:00Z,KORD 052051Z 25019G30KT 10SM BKN025 OVC240 09/03 A2978 RMK AO2 PK WND 27031/2028 SLP085 T00940033 51068 $
KORE,2023-04-05T20:52:00Z,KORE 052052Z AUTO 12009KT 10SM OVC019 05/00 A3029 RMK AO2 SLP260 T00500000 56009
KORF,2023-04-05T20:51:00Z,KORF 052051Z 22015KT 10SM CLR 29/16 A3008 RMK AO2 SLP186 T02890161 56018
KORG,2023-04-05T20:55:00Z,KORG 052055Z AUTO 19009G16KT 5SM VCTS HZ BKN028 BKN036 OVC041 28/22 A2993 RMK AO2 LTG DSNT W THRU N T02780224
KORH,2023-04-05T20:54:00Z,KORH 052054Z 08009KT 6SM HZ OVC008 03/01 A3027 RMK AO2 RAB17E26 SLP258 P0000 60000 T00330006 55006
KORK,2023-04-05T20:55:00Z,KORK 052055Z AUTO 29006G14KT 9SM SCT007 13/13 A2996 RMK AO2
KORL,2023-04-05T20:53:00Z,KORL 052053Z 12014KT 10SM CLR 31/17 A3010 RMK AO2 SLP194 T03110167 56013
KORS,2023-04-05T20:55:00Z,KORS 052055Z AUTO 17011KT 10SM BKN039 10/01 A3013 RMK AO2
KOSA,2023-04-05T20:55:00Z,KOSA 052055Z AUTO 28006G16KT 10SM SCT100 18/09 A3003 RMK AO2 T01790086
KOSC,2023-04-05T20:55:00Z,KOSC 052055Z AUTO 17012G17KT 10SM CLR 17/15 A2958 RMK AO2 60001 T01690147 P0001
KOSH,2023-04-05T20:53:00Z,KOSH 052053Z 25014G30KT 10SM FEW036 09/02 A2963 RMK AO2 PK WND 25032/1956 SLP040 T00890017 53040
KOSU,2023-04-05T20:53:00Z,KOSU 052053Z 24012G19KT 10SM -RA FEW044 SCT050 OVC070 21/18 A2987 RMK AO2 WSHFT 1957 SLP108 P0036 60061 T02060178 $
KOTG,2023-04-05T20:56:00Z,KOTG 052056Z AUTO 27030G35KT 9SM -SN OVC022 M03/M07 A2991 RMK AO2 PK WND 28038/2045 SLP150 6//// T10331072 53030 FZRANO PNO $
KOTH,2023-04-05T20:56:00Z,KOTH 052056Z 23012KT 10SM -RA FEW025 BKN037 OVC048 10/07 A3018 RMK AO2 SLP221 P0000 60000 T01000067 55007
KOTM,2023-04-05T20:53:00Z,KOTM 052053Z AUTO 29015G22KT 10SM FEW044 08/M02 A2997 RMK AO2 PK WND 29027/2027 SLP152 T00781017 51031
KOUN,2023-04-05T20:48:00Z,KOUN 052048Z 35013G18KT 10SM CLR 13/M04 A3009
KOVE,2023-04-05T20:53:00Z,KOVE 052053Z AUTO 00000KT 10SM CLR 16/M01 A3021 RMK AO2 SLP232 T01561006 58011
KOVL,2023-04-05T20:55:00Z,KOVL 052055Z AUTO 30027G31KT 10SM -SN SCT024 OVC031 M03/M07 A2981 RMK AO2
KOVS,2023-04-05T20:53:00Z,KOVS 052053Z AUTO 28018G29KT 10SM BKN034 06/M04 A2983 RMK AO2 PK WND 25029/2052 SLP105 T00561039 53029
KOWA,2023-04-05T20:53:00Z,KOWA 052053Z AUTO 26025G33KT 10SM OVC032 M01/M06 A2983 RMK AO2
KOWB,2023-04-05T20:56:00Z,KOWB 052056Z 25010KT 10SM -RA OVC110 17/16 A2994 RMK AO2 PK WND 27028/2000 TSE47 SLP138 P0005 60031 T01720156 53030
KOWD,2023-04-05T20:53:00Z,KOWD 052053Z 07009KT 10SM OVC019 07/01 A3032 RMK AO2 SLP267 T00670011 56013
KOWI,2023-04-05T20:55:00Z,KOWI 052055Z AUTO 29012G17KT 10SM CLR 13/M04 A3007 RMK AO2
KOWP,2023-04-05T20:55:00Z,KOWP 052055Z AUTO 35006KT 10SM CLR 16/M05 A3012 RMK AO2 T01551048
KOWX,2023-04-05T20:55:00Z,KOWX 052055Z AUTO 19011KT 10SM SCT085 OVC100 18/15 A2986 RMK AO1
KOXC,2023-04-05T20:51:00Z,KOXC 052051Z 12006KT 4SM -DZ BR OVC008 09/08 A3021 RMK AO2 SLP246 P0000 60000 T00890078 56015
KOXD,2023-04-05T20:55:00Z,KOXD 052055Z AUTO 00000KT 5SM TSRA SCT012 BKN055 OVC090 18/16 A2995 RMK AO2 LTG DSNT S AND SW 60029 T01760163 P0012
KOXI,2023-04-05T20:55:00Z,KOXI 052055Z AUTO 27023G29KT 10SM OVC019 13/12 A2979 RMK AO1
KOXR,2023-04-05T20:51:00Z,KOXR 052051Z 26015KT 10SM CLR 15/03 A3012 RMK AO2 SLP200 T01500033 58006
KOXV,2023-04-05T20:55:00Z,KOXV 052055Z AUTO 28017G23KT 10SM BKN045 07/M05 A2998 RMK AO2
KOYM,2023-04-05T20:55:00Z,KOYM 052055Z AUTO 23012G21KT 10SM CLR 27/11 A2994 RMK AO2
KOZA,2023-04-05T20:55:00Z,KOZA 052055Z AUTO 33008G15KT 310V010 10SM CLR 21/M13 A3007 RMK AO2
KOZR,2023-04-05T20:55:00Z,KOZR 052055Z AUTO 20010KT 10SM FEW049 31/18 A3006 RMK AO2 SLP179 T03050179 56006
KOZS,2023-04-05T20:55:00Z,KOZS 052055Z AUTO 31010G19KT 10SM CLR 10/00 A3006 RMK AO2
KOZW,2023-04-05T20:55:00Z,KOZW 052055Z AUTO 17013G17KT 10SM CLR 20/16 A2969 RMK AO2 60001 T01970155
KP08,2023-04-05T20:55:00Z,KP08 052055Z AUTO 32011KT 10SM CLR 18/M14 A3006 RMK AO2
KP28,2023-04-05T20:56:00Z,KP28 052056Z AUTO 30011G25KT 13/M09 A3009 RMK AO1 SLP196 T01331089 56001
KP52,2023-04-05T20:55:00Z,KP52 052055Z AUTO VRB06G18KT 9SM -RA CLR 13/M16 A3007 RMK AO2
KP53,2023-04-05T20:56:00Z,KP53 052056Z AUTO 21007KT 07/05 A2942 RMK AO1 SLP968 P0001 60001 T00670050 53006 $
KP58,2023-04-05T20:55:00Z,KP58 052055Z AUTO 16012G18KT 19/15 A2961 RMK AO1 SLP026 P0002 60004 T01940150 58008 $
KP59,2023-04-05T20:51:00Z,KP59 052051Z AUTO VRB05KT 02/01 A2938 RMK AO1 SLP958 P0001 60003 T00220011 55010
KP60,2023-04-05T20:56:00Z,KP60 052056Z AUTO VRB04KT M05/M19 A2995 RMK AO1 SLP223 T10501189 56006
KP68,2023-04-05T20:53:00Z,KP68 052053Z AUTO 04005KT 01/M11 A3014 RMK AO1 SLP227 T00061106 58001
KP69,2023-04-05T20:52:00Z,KP69 052052Z AUTO 17006KT 09/M04 A3018 RMK AO1 SLP232 T00891039 55012
KP92,2023-04-05T20:59:00Z,KP92 052059Z AUTO VRB06G17KT 26/23 A2994 RMK AO1 SLP137 T02610228 56010
KPAE,2023-04-05T20:53:00Z,KPAE 052053Z VRB04KT 10SM FEW048 10/M02 A3014 RMK AO2 SLP210 T01001017 56013
KPAH,2023-04-05T20:53:00Z,KPAH 052053Z 22007KT 10SM -RA FEW013 SCT080 OVC110 19/17 A2993 RMK AO2 RAE16B36 PRESRR SLP130 P0000 60044 T01890167 51025
KPAM,2023-04-05T20:55:00Z,KPAM 052055Z AUTO 17013KT 10SM CLR 28/21 A3008 RMK AO2 SLP189 T02750205 55004 $
KPAN,2023-04-05T20:55:00Z,KPAN 052055Z AUTO 30014G23KT 10SM CLR 10/M17 A3008 RMK AO2 PWINO TSNO
KPBF,2023-04-05T20:53:00Z,KPBF 052053Z AUTO 17008KT 10SM -RA BKN110 20/18 A2996 RMK AO2 SLP142 P0003 60008 T02000178 57003
KPBG,2023-04-05T21:07:00Z,KPBG 052107Z AUTO 17010G19KT 2SM RA BR BKN033 OVC055 06/04 A3005 RMK AO2 LTG DSNT SW P0008 T00610039
KPBH,2023-04-05T20:55:00Z,KPBH 052055Z AUTO 23018G28KT 10SM BKN027 OVC033 M01/M06 A2956 RMK AO2 T10071057
KPBI,2023-04-05T20:53:00Z,KPBI 052053Z 12013G23KT 10SM SCT029 SCT250 29/19 A3010 RMK AO2 SLP193 T02890194 56013
KPBX,2023-04-05T20:55:00Z,KPBX 052055Z AUTO 20006KT 150V240 10SM SCT075 30/12 A2998 RMK AO2 T03040118
KPCD,2023-04-05T20:55:00Z,KPCD 052055Z AUTO 31016G20KT 10SM SCT022 SCT027 13/10 A2998 RMK AO2 T01250101
KPCM,2023-04-05T20:55:00Z,KPCM 052055Z AUTO 10006KT 10SM BKN060 BKN070 BKN090 34/15 A3008 RMK AO2
KPCW,2023-04-05T20:55:00Z,KPCW 052055Z AUTO 21010KT 5SM -RA FEW048 FEW070 BKN090 18/18 A2978 RMK AO2 P0004
KPCZ,2023-04-05T20:55:00Z,KPCZ 052055Z AUTO 25020G31KT 10SM SCT034 08/00 A2965 RMK AO2 T00771004
KPDC,2023-04-05T20:55:00Z,KPDC 052055Z AUTO 26014G22KT 10SM OVC034 05/M03 A2985 RMK AO2 T00461032
KPDK,2023-04-05T20:53:00Z,KPDK 052053Z 19005KT 10SM FEW060 BKN090 28/17 A3008 RMK AO2 SLP172 T02780172 56010
KPDT,2023-04-05T20:53:00Z,KPDT 052053Z COR 28009KT 10SM CLR 12/M03 A3014 RMK AO2 SLP208 P0000 60000 T01171033 56016
KPDX,2023-04-05T20:53:00Z,KPDX 052053Z 18007KT 10SM FEW040 SCT055 BKN070 OVC250 11/03 A3018 RMK AO2 SLP221 T01110028 58010
KPEA,2023-04-05T20:50:00Z,KPEA 052050Z AUTO 27015G24KT 10SM SCT045 07/M05 A2999 RMK AO2 T00661052
KPEO,2023-04-05T20:53:00Z,KPEO 052053Z AUTO 19009KT 10SM FEW022 FEW046 SCT075 22/16 A2986 RMK AO2 PK WND 18030/1958 LTG DSNT ALQDS RAB14E48 SLP109 P0001 60001 T02170156 55003
KPEQ,2023-04-05T20:55:00Z,KPEQ 052055Z AUTO 00000KT 10SM CLR 17/M15 A3006 RMK AO2 T01741155
KPEX,2023-04-05T20:55:00Z,KPEX 052055Z AUTO 27018G22KT 5SM -SN SCT021 OVC027 M05/M08 A2975 RMK AO2
KPEZ,2023-04-05T20:55:00Z,KPEZ 052055Z AUTO 02011G19KT 10SM BKN050 BKN085 26/00 A2994 RMK AO2 T02551003
KPGA,2023-04-05T20:53:00Z,KPGA 052053Z AUTO 10SM CLR 09/M19 A3010 RMK AO2 SLP186 T00891189 56009
KPGD,2023-04-05T20:53:00Z,KPGD 052053Z 13012KT 10SM SCT075 SCT090 32/16 A3005 RMK AO2 SLP175 T03170161 56017
KPGV,2023-04-05T21:05:00Z,KPGV 052105Z AUTO 21007KT 10SM SCT060 30/16 A3012 RMK AO2
KPHD,2023-04-05T20:53:00Z,KPHD 052053Z AUTO 18003KT 10SM CLR 26/13 A2984 RMK AO2 SLP099 T02610133 58015
KPHF,2023-04-05T20:54:00Z,KPHF 052054Z 20012G18KT 10SM CLR 29/15 A3009 RMK AO2 SLP188 T02890150 56013
KPHL,2023-04-05T20:54:00Z,KPHL 052054Z 03012KT 10SM SCT055 BKN210 BKN260 21/13 A3008 RMK AO2 SLP185 T02060133 55013
KPHN,2023-04-05T20:55:00Z,KPHN 052055Z AUTO 15008KT 10SM CLR 17/15 A2972 RMK AO2
KPHP,2023-04-05T20:55:00Z,KPHP 052055Z AUTO 30018G27KT 10SM CLR M02/M08 A3004 RMK AO2 PK WND 30030/2006 SLP201 T10171078 51005
KPHT,2023-04-05T20:55:00Z,KPHT 052055Z AUTO 23009KT 10SM BKN075 18/17 A3000 RMK A01
KPHX,2023-04-05T20:51:00Z,KPHX 052051Z 32008KT 10SM FEW250 19/M16 A3006 RMK AO2 SLP170 T01891156 58023
KPIA,2023-04-05T20:54:00Z,KPIA 052054Z 29011G23KT 10SM FEW030 09/02 A2992 RMK AO2 PK WND 29028/2016 SLP131 T00890022 51042
KPIB,2023-04-05T20:56:00Z,KPIB 052056Z AUTO 17010G17KT 10SM SCT044 SCT055 29/21 A3001 RMK AO2 SLP159 T02890206 58007
KPIE,2023-04-05T20:53:00Z,KPIE 052053Z 23008KT 10SM SCT070 29/20 A3005 RMK AO2 SLP177 T02940200 56015
KPIH,2023-04-05T20:53:00Z,KPIH 052053Z 21014KT 10SM BKN020 M01/M04 A3016 RMK AO2 UPB11E21B46E48 SLP241 P0000 60000 T10111044 51003 $
KPIL,2023-04-05T20:53:00Z,KPIL 052053Z AUTO 15011KT 10SM OVC030 29/23 A2979 RMK AO2 SLP086 T02940233 58005
KPIM,2023-04-05T20:55:00Z,KPIM 052055Z AUTO 22007G16KT 10SM SCT060 SCT075 30/15 A3010 RMK AO2 T02960153
KPIR,2023-04-05T20:53:00Z,KPIR 052053Z AUTO 31023G32KT 8SM CLR M03/M09 A3001 RMK AO2 PK WND 30041/2019 SLP187 T10281094 51013
KPIT,2023-04-05T20:51:00Z,KPIT 052051Z 21015G27KT 10SM FEW080 SCT150 OVC220 28/08 A2988 RMK AO2 PK WND 20027/2043 SLP119 T02830083 56011
KPJC,2023-04-05T20:55:00Z,KPJC 052055Z AUTO 22005KT 10SM CLR 27/10 A2987 RMK AO2
KPKB,2023-04-05T20:53:00Z,KPKB 052053Z 20017G28KT 10SM SCT085 29/12 A2989 RMK AO2 PK WND 19030/2024 SLP112 T02940122 56015
KPKD,2023-04-05T21:08:00Z,KPKD 052108Z AUTO 27025G32KT 1/2SM SN FEW021 BKN028 OVC043 M06/M08 A2958 RMK AO2 PK WND 27032/2107 P0000 T10561083
KPKV,2023-04-05T20:55:00Z,KPKV 052055Z AUTO 01017G24KT 10SM -RA OVC017 18/14 A2990 RMK AO2 60006 T01790144
KPLN,2023-04-05T20:54:00Z,KPLN 052054Z AUTO 11004KT 10SM BKN007 OVC038 09/07 A2949 RMK AO2 SLP992 T00940072 56026
KPLR,2023-04-05T20:55:00Z,KPLR 052055Z AUTO 22011KT 10SM CLR 31/14 A3006 RMK A01
KPLU,2023-04-05T20:55:00Z,KPLU 052055Z AUTO VRB06G14KT 10SM SCT055 12/M04 A3014 RMK AO2
KPMD,2023-04-05T20:53:00Z,KPMD 052053Z 01008G20KT 10SM CLR 14/M09 A3013 RMK AO2 SLP200 T01391089 57015
KPMH,2023-04-05T20:55:00Z,KPMH 052055Z AUTO 21006KT 10SM SCT090 32/08 A2987 RMK AO2 T03190083
KPMP,2023-04-05T20:53:00Z,KPMP 052053Z 09010KT 10SM SCT028 BKN070 28/21 A3009 RMK AO2 RAB03E13 SLP189 P0000 60000 T02830206 57012
KPMU,2023-04-05T20:55:00Z,KPMU 052055Z AUTO VRB04G13KT 5SM -RA 18/17 A3003 RMK AO2 P0002
KPMV,2023-04-05T20:55:00Z,KPMV 052055Z AUTO 30019G25KT 10SM CLR 08/M09 A3002 RMK AO2 T00781087
KPNA,2023-04-05T20:55:00Z,KPNA 052055Z AUTO 12005KT 10SM CLR M06/M11 A3003 RMK AO2
KPNC,2023-04-05T20:53:00Z,KPNC 052053Z AUTO 32007KT 280V360 10SM CLR 13/M05 A3011 RMK AO2 SLP195 T01331050 50002
KPNE,2023-04-05T20:54:00Z,KPNE 052054Z 07013KT 10SM CLR 16/12 A3013 RMK AO2 SLP202 T01560117 55014
KPNM,2023-04-05T20:55:00Z,KPNM 052055Z AUTO 26010G19KT 5SM SCT024 SCT032 BKN040 M02/M07 A2970 RMK AO
KPNS,2023-04-05T20:53:00Z,KPNS 052053Z 17010KT 10SM OVC013 26/22 A3007 RMK AO2 SLP183 T02610222 58000
KPO1,2023-04-05T21:00:00Z,KPO1 052100Z AUTO 27010KT 7SM CLR M04/M14 A3009 RMK AO2
KPOB,2023-04-05T20:55:00Z,KPOB 052055Z AUTO 21010KT 10SM FEW060 30/16 A3010 RMK AO2 SLP194 T02980158 56016 $
KPOC,2023-04-05T20:47:00Z,KPOC 052047Z 15004KT 10SM CLR 18/M02 A3009
KPOE,2023-04-05T20:55:00Z,KPOE 052055Z 33012KT 10SM TS FEW013 OVC023 20/19 A2994 RMK AO2A RAB06E19 TSB35 SLP139 P0000 60000 T02000185 53002
KPOF,2023-04-05T20:53:00Z,KPOF 052053Z AUTO 20007KT 10SM FEW100 18/17 A2994 RMK AO2 SLP136 60022 T01830167 53018
KPOU,2023-04-05T20:53:00Z,KPOU 052053Z VRB05KT 10SM OVC014 11/07 A3017 RMK AO2 SLP212 T01060072 56006
KPOV,2023-04-05T20:55:00Z,KPOV 052055Z AUTO 22003KT 5SM SCT034 BKN047 BKN055 19/17 A2986 RMK AO2 T01850166 PWINO P0005
KPOY,2023-04-05T20:55:00Z,KPOY 052055Z AUTO 22005KT 10SM CLR 01/M15 A2998 RMK AO2
KPPA,2023-04-05T20:55:00Z,KPPA 052055Z AUTO 34008G19KT 10SM 12/M08 A3011 RMK AO2 T01241081
KPPF,2023-04-05T20:52:00Z,KPPF 052052Z AUTO 34007KT 10SM CLR 13/M02 A3011 RMK AO2 SLP196 T01281022 51011
KPPO,2023-04-05T20:55:00Z,KPPO 052055Z AUTO 25020G30KT 10SM SCT019 SCT025 BKN037 14/12 A2979 RMK AO2 T01430121
KPPQ,2023-04-05T20:55:00Z,KPPQ 052055Z AUTO 27009G21KT 10SM CLR 11/02 A2999 RMK AO2 T01060019
KPQI,2023-04-05T20:56:00Z,KPQI 052056Z AUTO 00000KT 1/2SM SN FZFG OVC008 M03/M04 A3040 RMK AO2 CIG 007V011 SLP331 P0000 60000 T10281044 58015 RVRNO
KPQL,2023-04-05T20:53:00Z,KPQL 052053Z 15011KT 10SM OVC017 27/23 A3003 RMK AO2 SLP169 T02670228 58005
KPRB,2023-04-05T20:53:00Z,KPRB 052053Z AUTO 08003KT 10SM CLR 15/01 A3017 RMK AO2 SLP215 T01500006 58014
KPRC,2023-04-05T20:53:00Z,KPRC 052053Z 29006G16KT 10SM CLR 09/M15 A3009 RMK AO2 SLP177 T00941150 58013
KPRG,2023-04-05T20:55:00Z,KPRG 052055Z AUTO 30020G28KT 7SM OVC013 13/12 A2991 RMK AO2 60001 T01260119
KPRN,2023-04-05T20:58:00Z,KPRN 052058Z AUTO 18014G20KT 10SM -RA FEW060 SCT075 28/17 A3005 RMK AO2 RAE07B29 SLP121 P0000 60000 T02830167 58002
KPRO,2023-04-05T20:55:00Z,KPRO 052055Z AUTO 29019G25KT 10SM SCT049 07/M06 A2998 RMK AO2 T00651061
KPRS,2023-04-05T20:55:00Z,KPRS 052055Z AUTO 19003KT 10SM CLR 22/M05 A3000 RMK AO2 T02211052
KPRX,2023-04-05T20:56:00Z,KPRX 052056Z AUTO 33012G19KT 10SM CLR 17/04 A3004 RMK AO2 SLP167 T01720044 53004
KPSC,2023-04-05T20:53:00Z,KPSC 052053Z 19006KT 10SM CLR 12/M03 A3018 RMK AO2 SLP221 T01221028 58015
KPSF,2023-04-05T20:54:00Z,KPSF 052054Z AUTO 12010G16KT 10SM OVC019 07/02 A3017 RMK AO2 SLP212 T00720017 56012
KPSK,2023-04-05T20:55:00Z,KPSK 052055Z AUTO 18015G19KT 10SM BKN060 26/16 A3008 RMK AO2 T02550160
KPSM,2023-04-05T20:55:00Z,KPSM 052055Z 10009KT 10SM BKN020 OVC030 03/M02 A3035 RMK AO2A SLP281 T00311020 55018
KPSN,2023-04-05T20:55:00Z,KPSN 052055Z AUTO 36012KT 10SM BKN080 BKN110 19/08 A2999 RMK AO2
KPSO,2023-04-05T20:55:00Z,KPSO 052055Z AUTO 10SM SCT070 SCT085 M01/M11 A3005 RMK AO2 T10141112
KPSP,2023-04-05T20:53:00Z,KPSP 052053Z 08005KT 10SM CLR 21/M08 A3011 RMK AO2 SLP195 T02111078 58021
KPSX,2023-04-05T20:53:00Z,KPSX 052053Z AUTO 36010KT 6SM -RA BR OVC017 18/17 A2989 RMK AO2 PK WND 35028/1957 RAB08 SLP122 P0016 60016 T01780172 53002
KPTB,2023-04-05T20:55:00Z,KPTB 052055Z AUTO 00000KT 10SM SCT060 SCT070 29/15 A3007 RMK AO2 T02910146
KPTD,2023-04-05T20:55:00Z,KPTD 052055Z AUTO 07006KT 3SM +RA SCT023 BKN030 BKN038 01/00 A2990 RMK AO2 P0023
KPTK,2023-04-05T20:53:00Z,KPTK 052053Z 16009KT 10SM FEW080 OVC150 17/16 A2971 RMK AO2 SLP060 60007 T01720156 55006
KPTS,2023-04-05T20:55:00Z,KPTS 052055Z AUTO 30007KT 10SM CLR 11/02 A3008 RMK AO2 T01130018 PWINO
KPTT,2023-04-05T20:55:00Z,KPTT 052055Z AUTO 29008G18KT 10SM CLR 12/M10 A3010 RMK AO2 T01171099
KPTV,2023-04-05T20:56:00Z,KPTV 052056Z AUTO 00000KT 10SM CLR 16/01 A3020 RMK AO2 SLP226 T01610006 58014
KPTW,2023-04-05T20:54:00Z,KPTW 052054Z AUTO 07011KT 10SM CLR 16/11 A3009 RMK AO2 SLP187 T01560111 56017
KPUB,2023-04-05T20:53:00Z,KPUB 052053Z 09005KT 10SM CLR 08/M14 A2999 RMK AO2 SLP157 T00781139 56012
KPUC,2023-04-05T20:53:00Z,KPUC 052053Z AUTO 34007KT 10SM BKN065 OVC080 02/M15 A3007 RMK AO2 SLP218 T00171150 53001
KPUJ,2023-04-05T20:55:00Z,KPUJ 052055Z AUTO 20007G18KT 160V230 SCT060 SCT075 28/14 A3010 RMK AO2 PWINO
KPUW,2023-04-05T20:53:00Z,KPUW 052053Z AUTO 00000KT 10SM FEW055 BKN075 07/M03 A3015 RMK AO2 SLP231 6//// T00671028 56008
KPVB,2023-04-05T20:35:00Z,KPVB 052035Z AUTO 27021G29KT 10SM BKN027 BKN034 04/M02 A2983 RMK AO1 T00421023
KPVC,2023-04-05T20:56:00Z,KPVC 052056Z AUTO 09010KT 9SM OVC010 06/04 A3030 RMK AO2 SLP259 T00610039 58024
KPVD,2023-04-05T20:51:00Z,KPVD 052051Z 05009KT 10SM OVC016 07/03 A3029 RMK AO2 SLP257 T00670033 57015
KPVF,2023-04-05T20:55:00Z,KPVF 052055Z AUTO 31006KT 10SM CLR 11/M07 A3018 RMK AO1
KPVG,2023-04-05T20:56:00Z,KPVG 052056Z AUTO 10SM CLR 30/16 A3010 RMK AO2 SLP195 T03000161 56013 $
KPVJ,2023-04-05T20:55:00Z,KPVJ 052055Z AUTO 33009G19KT 300V360 10SM CLR 14/M04 A3009 RMK AO2 T01401037
KPVU,2023-04-05T20:56:00Z,KPVU 052056Z 29012KT 10SM SCT030 BKN045 02/M06 A3020 RMK AO2 SLP245 T00221056 51002
KPVW,2023-04-05T20:55:00Z,KPVW 052055Z AUTO 36006KT 10SM CLR 12/M12 A3008 RMK AO2 T01181122
KPWA,2023-04-05T20:53:00Z,KPWA 052053Z 02010G15KT 350V050 10SM CLR 13/M05 A3011 RMK AO2 PK WND 36026/2010 SLP196 T01331050 58000
KPWC,2023-04-05T20:55:00Z,KPWC 052055Z AUTO 25009G18KT 7SM -SN SCT022 SCT027 OVC035 M03/M08 A2962 RMK AO2
KPWD,2023-04-05T20:50:00Z,KPWD 052050Z AUTO 33016KT 10SM CLR M05/M13 A3003 RMK AO2
KPWG,2023-04-05T20:56:00Z,KPWG 052056Z AUTO 35013KT 10SM BKN090 20/M01 A3005 RMK AO2 SLP172 T02001011 51001
KPWK,2023-04-05T20:52:00Z,KPWK 052052Z 28019G30KT 10SM FEW025 11/03 A2978 RMK AO2 PK WND 25032/2038 SLP083 T01110028 51065
KPWM,2023-04-05T20:51:00Z,KPWM 052051Z 09011KT 10SM OVC042 02/M04 A3038 RMK AO2 SLP289 T00171039 56018
KPWT,2023-04-05T20:56:00Z,KPWT 052056Z AUTO 21010G18KT 10SM BKN038 BKN050 10/00 A3015 RMK AO2 SLP215 T01000000 58013
KPXE,2023-04-05T20:55:00Z,KPXE 052055Z AUTO 19010KT 10SM SCT050 SCT085 30/19 A3009 RMK AO2
KPYM,2023-04-05T20:52:00Z,KPYM 052052Z AUTO 10007KT 10SM OVC014 06/02 A3030 RMK AO2 SLP262 T00610022 55013
KPYX,2023-04-05T20:55:00Z,KPYX 052055Z AUTO 35015KT 10SM CLR 09/M13 A3010 RMK AO2 T00911135
KPZQ,2023-04-05T20:55:00Z,KPZQ 052055Z AUTO 13005KT 1/2SM FG OVC002 05/04 A2955 RMK AO2 T00460043
KQBL,2023-04-05T20:55:00Z,KQBL 052055Z AUTO VRB03KT 10SM CLR 26/23 A3009 RMK AO2 SLP195 WND DATA ESTMD T02600225 56002
KQD3,2023-04-05T20:55:00Z,KQD3 052055Z AUTO 00000KT 9999 CLR 28/23 A2986 RMK AO2 SLP096 WND DATA ESTMD T02750231
KQDG,2023-04-05T20:55:00Z,KQDG 052055Z AUTO 00000KT 9999 OVC100 09/07 A2995 RMK AO2 SLP144 T00900071 57010 $
KQEI,2023-04-05T21:10:00Z,KQEI 052110Z AUTO 25001KT 9999 OVC011 08/07 A2981 RMK A02 TSNO
KQEJ,2023-04-05T21:10:00Z,KQEJ 052110Z AUTO 17001KT 9999 OVC017 08/06 A2979 RMK A02 TSNO
KQEN,2023-04-05T21:10:00Z,KQEN 052110Z AUTO 25013G24KT 9999 OVC003 04/03 A2971 RMK A02 TSNO
KQEP,2023-04-05T21:10:00Z,KQEP 052110Z AUTO 12002KT 2400 BR OVC007 08/08 A2985 RMK A02 TSNO
KQEQ,2023-04-05T21:10:00Z,KQEQ 052110Z AUTO 21002KT 1600 BR OVC005 14/14 / RMK A02 TSNO
KQER,2023-04-05T21:00:00Z,KQER 052100Z AUTO 18001KT 3200 BR BKN003 OVC015 07/07 A2977 RMK A02 TSNO
KQES,2023-04-05T21:00:00Z,KQES 052100Z AUTO 26002KT 2000 -DZ BR CLR 09/08 A2990 RMK A02 TSNO
KQEV,2023-04-05T21:10:00Z,KQEV 052110Z AUTO 24003KT 3200 BR OVC007 09/08 A2981 RMK A02 TSNO
KQEW,2023-04-05T21:10:00Z,KQEW 052110Z AUTO 21002KT 9999 OVC018 09/06 A2983 RMK A02 TSNO
KQEX,2023-04-05T21:10:00Z,KQEX 052110Z AUTO 21001KT 9999 /CLR 12/09 / RMK A02 TSNO
KQEY,2023-04-05T21:00:00Z,KQEY 052100Z AUTO 21005G10KT 9999 OVC015 09/06 A2956 RMK A02 TSNO
KQFB,2023-04-05T21:10:00Z,KQFB 052110Z AUTO 10003KT M0400 -DZ OVC018 12/08 A2989 RMK A02 TSNO
KQFT,2023-04-05T21:10:00Z,KQFT 052110Z AUTO 00000KT 1600 BR OVC003 09/08 A2981 RMK A02 TSNO
KQFU,2023-04-05T21:00:00Z,KQFU 052100Z AUTO 16003KT 4000 -SHRA BR OVC008 08/08 A2985 RMK A02 TSNO
KQFV,2023-04-05T21:10:00Z,KQFV 052110Z AUTO 12001KT 9999 OVC019 08/09 / RMK A02 TSNO
KQFW,2023-04-05T21:00:00Z,KQFW 052100Z AUTO 22002KT 3200 BR OVC013 08/08 A2966 RMK A02 TSNO
KQFX,2023-04-05T21:10:00Z,KQFX 052110Z AUTO 25001KT 4800 OVC012 09/08 A2982 RMK A02 TSNO
KQHY,2023-04-05T20:55:00Z,KQHY 052055Z AUTO 14004KT 10SM CLR 26/22 A3009 RMK AO2 SLP196 T02620224 56002
KQN3,2023-04-05T20:55:00Z,KQN3 052055Z 00000KT 6000 DU CLR 36/01 A2976 RMK SLP065 WND DATA ESTMD T03630011
KQRH,2023-04-05T20:55:00Z,KQRH 052055Z AUTO 00000KT 9999 CLR 28/23 A2981 RMK AO2 SLP097 WND DATA ESTMD T02790230 403230279 50000
KQTB,2023-04-05T20:55:00Z,KQTB 052055Z VRB02KT 10SM SKC 10/M16 A3016 RMK SLP202 WND DATA ESTMD 57010
KQTZ,2023-04-05T20:55:00Z,KQTZ 052055Z 01002KT 9999 SKC 22/08 A2981 RMK SLP091 56002
KQVF,2023-04-05T20:55:00Z,KQVF 052055Z AUTO VRB03KT 9999 CLR 28/24 A2988 RMK AO2 SLP121 WND DATA ESTMD T02790243 403310247 50003
KRAC,2023-04-05T20:53:00Z,KRAC 052053Z AUTO 26013G34KT 10SM CLR 11/03 A2973 RMK AO2 PK WND 26038/2002 SLP065 T01060028 52063
KRAL,2023-04-05T20:53:00Z,KRAL 052053Z 04007KT 10SM CLR 20/M03 A3007 RMK AO2 SLP173 T02001033 58017
KRAP,2023-04-05T20:52:00Z,KRAP 052052Z 20007KT 10SM CLR M03/M07 A3002 RMK AO2 UPB1958E07 SLP211 P0000 60000 T10281072 51010
KRAS,2023-04-05T20:55:00Z,KRAS 052055Z AUTO 35020G28KT 10SM BKN009 OVC022 19/17 A2987 RMK AO2 T01910173
KRAW,2023-04-05T20:55:00Z,KRAW 052055Z AUTO 31010G18KT 10SM CLR 11/M01 A3006 RMK AO2
KRBD,2023-04-05T20:53:00Z,KRBD 052053Z 32010G17KT 10SM FEW120 18/03 A3004 RMK AO2 SLP166 T01830028 56002
KRBG,2023-04-05T20:53:00Z,KRBG 052053Z AUTO 20008KT 150V220 10SM FEW044 BKN080 12/02 A3015 RMK AO2 SLP213 T01220022 58018
KRBL,2023-04-05T20:54:00Z,KRBL 052054Z AUTO 18005KT 10SM CLR 16/M02 A3019 RMK AO2 SLP224 T01561017 58012
KRBO,2023-04-05T20:55:00Z,KRBO 052055Z AUTO 03012G25KT 7SM -DZ OVC018 16/14 A2988 RMK AO2 60001 T01570140
KRBW,2023-04-05T20:55:00Z,KRBW 052055Z AUTO 16010G16KT 10SM CLR 28/18 A3014 RMK AO2
KRCA,2023-04-05T20:55:00Z,KRCA 052055Z AUTO 32020KT 10SM CLR M01/M08 A2997 RMK AO2 SLP193 T10131085 52006 CHINO RWY13 $
KRCE,2023-04-05T20:55:00Z,KRCE 052055Z AUTO 01008G17KT 10SM CLR 13/M05 A3011 RMK AO2
KRCM,2023-04-05T20:55:00Z,KRCM 052055Z AUTO 28008G16KT 244V304 10SM CLR 11/M03 A3006 RMK AO2
KRCR,2023-04-05T20:55:00Z,KRCR 052055Z AUTO 23010G18KT 10SM SCT022 BKN034 OVC040 18/16 A2978 RMK AO2
KRCV,2023-04-05T20:55:00Z,KRCV 052055Z AUTO 23006KT 10SM CLR 01/M22 A2998 RMK AO2 T00101218
KRCX,2023-04-05T20:55:00Z,KRCX 052055Z AUTO 24021G31KT 10SM OVC032 00/M04 A2965 RMK AO2 T00001043
KRDD,2023-04-05T20:53:00Z,KRDD 052053Z 18007KT 10SM CLR 16/M01 A3017 RMK AO2 SLP217 T01561011 58011
KRDG,2023-04-05T20:54:00Z,KRDG 052054Z 09008KT 10SM CLR 20/13 A3006 RMK AO2 SLP182 T02000133 55016
KRDK,2023-04-05T20:55:00Z,KRDK 052055Z AUTO 29010G19KT 10SM CLR 09/M08 A3001 RMK AO2
KRDM,2023-04-05T21:08:00Z,KRDM 052108Z 12005G12KT 10SM CLR 09/M09 A3009 RMK AO2 T00891089
KRDR,2023-04-05T20:56:00Z,KRDR 052056Z 31021G25KT 6SM BLSN FEW021 BKN030 M05/M08 A2963 RMK PK WND 30030/23 SLP054 T10491085 52018 $
KRDU,2023-04-05T20:51:00Z,KRDU 052051Z 23014KT 10SM FEW040 BKN250 30/17 A3010 RMK AO2 SLP189 T03000167 56019
KREG,2023-04-05T20:55:00Z,KREG 052055Z AUTO 19015G19KT 10SM SCT043 31/19 A2995 RMK AO2 T03130194
KREO,2023-04-05T20:52:00Z,KREO 052052Z AUTO 00000KT 05/M12 A3014 RMK AO1 SLP228 T00501117 56006
KRFD,2023-04-05T20:54:00Z,KRFD 052054Z 26018G34KT 10SM BKN029 BKN250 08/01 A2983 RMK AO2 PK WND 26035/2016 SLP102 T00780011 53047
KRFI,2023-04-05T20:55:00Z,KRFI 052055Z AUTO 32005KT 10SM OVC090 20/08 A3000 RMK AO2 T02020081
KRGA,2023-04-05T20:55:00Z,KRGA 052055Z AUTO 23022G32KT 10SM SCT080 29/11 A2996 RMK AO2
KRGK,2023-04-05T20:55:00Z,KRGK 052055Z AUTO 27021G29KT 10SM BKN035 00/M08 A2978 RMK AO2
KRHI,2023-04-05T20:53:00Z,KRHI 052053Z AUTO 24021G32KT 10SM BKN025 OVC030 01/M05 A2954 RMK AO2 PK WND 26038/2018 SLP020 T00111050 51040
KRHV,2023-04-05T20:49:00Z,KRHV 052049Z 26003KT 10SM FEW100 16/03 A3021
KRIC,2023-04-05T20:54:00Z,KRIC 052054Z 20016KT 10SM SCT055 BKN300 29/16 A3005 RMK AO2 SLP179 T02940156 56015
KRIL,2023-04-05T20:53:00Z,KRIL 052053Z AUTO 36012KT 10SM FEW060 BKN090 OVC110 01/M07 A3008 RMK AO2 RAB11E22 SLP208 P0000 60000 T00111067 55003
KRIV,2023-04-05T20:55:00Z,KRIV 052055Z AUTO 00000KT 10SM CLR 18/M03 A3007 RMK AO2 SLP181 T01821027 57016
KRIW,2023-04-05T20:53:00Z,KRIW 052053Z AUTO 09003KT 10SM CLR M04/M10 A3003 RMK AO2 SLP220 T10441100 52003
KRKD,2023-04-05T20:56:00Z,KRKD 052056Z AUTO 09010KT 10SM OVC048 02/M06 A3039 RMK AO2 SLP291 T00171061 56020 FZRANO
KRKP,2023-04-05T20:53:00Z,KRKP 052053Z AUTO 02019G29KT 3SM -RA BR OVC015 17/16 A2987 RMK AO2 PK WND 36035/2006 RAB06 SLP115 P0000 60000 T01670156 53003
KRKR,2023-04-05T20:55:00Z,KRKR 052055Z AUTO 36009KT 343V043 10SM CLR 13/01 A3006 RMK AO2
KRKS,2023-04-05T20:54:00Z,KRKS 052054Z AUTO 26017KT 10SM FEW018 M04/M08 A3005 RMK AO2 SLP230 T10391078 51008
KRKW,2023-04-05T20:50:00Z,KRKW 052050Z AUTO 21016G26KT 10SM CLR 29/12 A3004 RMK A01
KRLD,2023-04-05T20:55:00Z,KRLD 052055Z AUTO 20012G16KT 10SM CLR 13/M03 A3017 RMK AO2 T01321026
KRME,2023-04-05T20:53:00Z,KRME 052053Z 17008KT 130V210 10SM FEW095 SCT120 19/12 A2990 RMK AO2 PK WND 14028/2031 RAB07E43 SLP125 P0000 60000 T01890117 56025
KRMG,2023-04-05T20:53:00Z,KRMG 052053Z AUTO 24008G16KT 10SM SCT080 31/13 A3004 RMK AO2 SLP162 T03110133 56008
KRMN,2023-04-05T20:55:00Z,KRMN 052055Z AUTO 20017G24KT 10SM CLR 34/15 A3001 RMK AO2 T03350153
KRMY,2023-04-05T20:55:00Z,KRMY 052055Z AUTO 23018G29KT 10SM SCT042 SCT050 21/13 A2970 RMK AO2 60001 T02050126
KRNC,2023-04-05T20:55:00Z,KRNC 052055Z AUTO 24010G20KT 10SM SCT065 SCT075 SCT085 28/15 A3000 RMK A01
KRND,2023-04-05T20:55:00Z,KRND 052055Z AUTO 01015KT 10SM SCT085 BKN210 23/M03 A2993 RMK AO2 SLP129 T02271029 58003
KRNH,2023-04-05T20:55:00Z,KRNH 052055Z AUTO 26017G28KT 10SM OVC036 M01/M04 A2972 RMK AO2 T10131045
KRNM,2023-04-05T20:53:00Z,KRNM 052053Z 29008KT 270V330 10SM CLR 18/02 A3006 RMK AO2 SLP178 T01830017 58012
KRNO,2023-04-05T20:55:00Z,KRNO 052055Z 00000KT 10SM CLR 09/M11 A3014 RMK AO2 SLP201 60000 T00941106 56007
KRNP,2023-04-05T20:55:00Z,KRNP 052055Z AUTO 22013G28KT 10SM CLR 23/12 A2964 RMK AO2 T02260117
KRNT,2023-04-05T20:53:00Z,KRNT 052053Z 20005G15KT 10SM CLR 12/M01 A3015 RMK AO2 SLP213 T01171011 56015
KROA,2023-04-05T20:54:00Z,KROA 052054Z 17012KT 10SM SCT055 29/16 A3005 RMK AO2 SLP165 T02890161 58014
KROC,2023-04-05T20:54:00Z,KROC 052054Z 16006G15KT 9SM SCT003 BKN036 OVC080 09/08 A2984 RMK AO2 LTG DSNT E AND SE RAE45 TSB12E45 SLP111 P0012 60026 T00890083 50017 $
KROG,2023-04-05T20:58:00Z,KROG 052058Z 35009KT 10SM CLR 12/M01 A3007 RMK AO2 SLP175 T01171006 50007
KROS,2023-04-05T20:55:00Z,KROS 052055Z AUTO 25016G24KT 220V280 10SM OVC031 00/M06 A2968 RMK AO2 T00001064
KROW,2023-04-05T20:51:00Z,KROW 052051Z AUTO 10SM CLR 16/M18 A3003 RMK AO2 SLP141 T01611178 56013
KROX,2023-04-05T20:55:00Z,KROX 052055Z AUTO 28012G16KT 2 1/2SM -SN SCT009 BKN036 OVC041 M04/M07 A2949 RMK AO2
KRPD,2023-04-05T20:55:00Z,KRPD 052055Z AUTO 24016G27KT 10SM OVC031 M01/M05 A2968 RMK AO2 T10081051
KRPH,2023-04-05T20:55:00Z,KRPH 052055Z AUTO 01011KT 10SM CLR 15/M02 A3009 RMK AO2 T01531016 $
KRPJ,2023-04-05T20:55:00Z,KRPJ 052055Z AUTO 27021G29KT 10SM BKN025 07/03 A2985 RMK AO2 T00670029 TSNO
KRPX,2023-04-05T20:46:00Z,KRPX 052046Z AUTO 10SM 05/M13 A2989 RMK Roundup 
KRQB,2023-04-05T20:55:00Z,KRQB 052055Z AUTO 24021G30KT 10SM OVC031 18/12 A2959 RMK AO2 T01780118
KRQE,2023-04-05T20:53:00Z,KRQE 052053Z AUTO 28009G17KT 230V310 10SM CLR 03/M16 A3006 RMK AO2 SLP176 T00331161 56007 $
KRQO,2023-04-05T20:55:00Z,KRQO 052055Z AUTO 35015KT CLR 13/M05 A3013 RMK AO2 PWINO T01321050
KRRT,2023-04-05T20:55:00Z,KRRT 052055Z AUTO 31008KT 3SM -SN SCT016 BKN026 OVC041 M04/M07 A2948 RMK AO2
KRSL,2023-04-05T20:53:00Z,KRSL 052053Z AUTO 32015G27KT 10SM CLR 11/M09 A3007 RMK AO2 PK WND 32027/2049 SLP196 T01061094 55002
KRSN,2023-04-05T20:55:00Z,KRSN 052055Z AUTO 00000KT 9SM FEW050 SCT080 BKN100 19/19 A2996 RMK AO2 LTG DSNT E - S T01880188 $
KRSP,2023-04-05T20:54:00Z,KRSP 052054Z AUTO 14014G24KT 100V190 10SM CLR A3003 RMK AO2 PK WND 17028/2019 SLPNO 56013 $
KRST,2023-04-05T20:54:00Z,KRST 052054Z 27026G36KT 10SM OVC028 M01/M04 A2980 RMK AO2 PK WND 26039/2021 SLP103 T10061044 53031 $
KRSW,2023-04-05T20:53:00Z,KRSW 052053Z 12013G22KT 10SM CLR 32/15 A3003 RMK AO2 SLP167 T03220150 56019
KRTN,2023-04-05T20:53:00Z,KRTN 052053Z AUTO 19014G26KT 10SM CLR 08/M19 A2996 RMK AO2 PK WND 18026/2051 SLP141 T00831194 56005
KRTS,2023-04-05T20:55:00Z,KRTS 052055Z AUTO VRB06KT 10SM CLR 06/M11 A3014 RMK AO2
KRUE,2023-04-05T20:53:00Z,KRUE 052053Z AUTO 29008G17KT 10SM CLR 16/08 A2998 RMK AO2 SLP147 T01560083 58011
KRUG,2023-04-05T20:55:00Z,KRUG 052055Z AUTO 31028G36KT 1/2SM BR VV005 M06/M08 A2978 RMK AO2
KRUQ,2023-04-05T21:05:00Z,KRUQ 052105Z AUTO 20011G15KT 10SM SCT070 SCT090 28/15 A3010 RMK AO2 T02840151
KRUT,2023-04-05T20:56:00Z,KRUT 052056Z AUTO 16016G29KT 10SM OVC023 06/01 A3013 RMK AO2 PK WND 13032/2037 SLP204 T00560006 56011 $
KRVF,2023-04-05T20:55:00Z,KRVF 052055Z AUTO 09009KT 10SM FEW055 SCT070 01/M06 A3006 RMK AO2
KRVJ,2023-04-05T20:55:00Z,KRVJ 052055Z AUTO 18007KT 10SM CLR 32/15 A3010 RMK AO2 T03160146
KRVL,2023-04-05T20:55:00Z,KRVL 052055Z AUTO 00000KT 4SM HZ FEW001 FEW008 SCT075 23/17 A2996 RMK AO2
KRVS,2023-04-05T20:53:00Z,KRVS 052053Z 35006KT 10SM CLR 15/M04 A3009 RMK AO2 SLP192 T01501044 50000
KRWF,2023-04-05T20:53:00Z,KRWF 052053Z AUTO 27025G37KT 7SM -SN FEW024 OVC034 M03/M08 A2984 RMK AO2 PK WND 28037/2032 SNB19 SLP116 P0000 60000 T10281078 51028
KRWI,2023-04-05T20:53:00Z,KRWI 052053Z AUTO 20011G22KT 10SM CLR 30/15 A3012 RMK AO2 SLP196 T03000150 56015
KRWL,2023-04-05T20:53:00Z,KRWL 052053Z AUTO 27016KT 7SM -SN OVC015 M05/M10 A3003 RMK AO2 SLP228 P0060 60180 T10501100 51008
KRWV,2023-04-05T20:55:00Z,KRWV 052055Z AUTO 01008KT 10SM OVC065 19/07 A3000 RMK AO2 LTG DSNT E T01860074
KRXE,2023-04-05T20:53:00Z,KRXE 052053Z AUTO 23010G16KT 10SM CLR 01/M09 A3011 RMK AO2 SLP229 T00111089 53001
KRYM,2023-04-05T20:55:00Z,KRYM 052055Z AUTO 27009KT 9SM -SN SCT028 OVC034 M03/M09 A2964 RMK AO2 SLP056 P0000 60000 T10341087 52030 $
KRYW,2023-04-05T20:55:00Z,KRYW 052055Z AUTO 01009G17KT 10SM OVC065 20/00 A3002 RMK AO2 T01951005
KRYY,2023-04-05T20:50:00Z,KRYY 052050Z 23012KT 10SM BKN065 BKN080 29/16 A3009 RMK AO2 SLP176 T02940156 56008 $
KRZL,2023-04-05T20:55:00Z,KRZL 052055Z AUTO 26021G28KT 10SM SCT014 BKN026 OVC040 10/07 A2985 RMK AO2
KRZN,2023-04-05T20:55:00Z,KRZN 052055Z AUTO 26019G29KT 10SM BKN030 BKN036 M02/M08 A2965 RMK AO2 T10201079
KRZR,2023-04-05T20:55:00Z,KRZR 052055Z AUTO 19010G16KT 10SM FEW070 30/14 A3001 RMK A01
KRZT,2023-04-05T20:55:00Z,KRZT 052055Z AUTO 20016G23KT 10SM SCT075 BKN085 27/10 A2986 RMK AO2 PWINO
KS21,2023-04-05T20:55:00Z,KS21 052055Z AUTO VRB06KT 10SM CLR 05/M08 A3012 RMK AO2
KS24,2023-04-05T20:55:00Z,KS24 052055Z AUTO 19009KT 8SM -RA FEW065 SCT075 SCT090 17/17 A2982 RMK AO2 P0007
KS25,2023-04-05T20:55:00Z,KS25 052055Z AUTO 33018G25KT 4SM HZ CLR M04/M13 A3002 RMK AO2
KS32,2023-04-05T20:55:00Z,KS32 052055Z AUTO 30030G40KT M1/4SM -SN OVC028 M05/M05 A2968 RMK AO2 TSNO
KS33,2023-04-05T20:55:00Z,KS33 052055Z AUTO 16005KT 10SM SCT050 A3014 RMK AO2
KS34,2023-04-05T20:55:00Z,KS34 052055Z AUTO 00000KT 10SM 06/M48 A3009 RMK Plains 
KS39,2023-04-05T20:55:00Z,KS39 052055Z AUTO 16007KT 130V190 10SM CLR 07/M08 A3011 RMK AO2
KS52,2023-04-05T20:55:00Z,KS52 052055Z AUTO 16011G18KT 10SM OVC100 10/M06 A3007 RMK AO2 T00961062
KS59,2023-04-05T21:00:00Z,KS59 052100Z AUTO 11005KT 10SM 07/M11 A3004 
KS71,2023-04-05T21:00:00Z,KS71 052100Z AUTO 00000KT 10SM M03/M07 A3006 
KS85,2023-04-05T20:55:00Z,KS85 052055Z AUTO 30013KT 10SM CLR M03/M12 A3005 RMK A01 Culbertson 
KSAA,2023-04-05T20:55:00Z,KSAA 052055Z AUTO 25017KT 10SM CLR M06/M10 A3003 RMK AO2
KSAC,2023-04-05T20:53:00Z,KSAC 052053Z 13003KT 10SM CLR 15/02 A3021 RMK AO2 SLP230 T01500022 58008
KSAD,2023-04-05T20:51:00Z,KSAD 052051Z AUTO VRB03KT 10SM CLR 14/M18 A3003 RMK AO2 SLP159 T01441178 58025
KSAF,2023-04-05T20:53:00Z,KSAF 052053Z 23008G20KT 190V290 10SM CLR 06/M18 A3003 RMK AO2 SLP162 T00561183 56006
KSAN,2023-04-05T20:51:00Z,KSAN 052051Z 32012KT 10SM CLR 17/04 A3011 RMK AO2 SLP196 T01720039 56011
KSAR,2023-04-05T20:55:00Z,KSAR 052055Z AUTO 29012G18KT 10SM SCT017 11/08 A2999 RMK AO2 T01100080
KSAT,2023-04-05T20:51:00Z,KSAT 052051Z 02016G22KT 10SM BKN060 OVC250 25/M02 A2996 RMK AO2 SLP128 T02501017 58004
KSAV,2023-04-05T20:53:00Z,KSAV 052053Z 17013KT 10SM FEW045 SCT220 29/16 A3012 RMK AO2 SLP200 T02940161 56010
KSAW,2023-04-05T20:46:00Z,KSAW 052046Z 22012G18KT 8SM OVC003 03/03 A2942
KSAZ,2023-04-05T20:55:00Z,KSAZ 052055Z AUTO 26021G27KT 3/4SM -SN BKN007 BKN013 OVC018 M04/M07 A2964 RMK AO2
KSBA,2023-04-05T20:53:00Z,KSBA 052053Z 24009KT 10SM CLR 17/01 A3014 RMK AO2 SLP205 T01670011 58006 $
KSBD,2023-04-05T20:51:00Z,KSBD 052051Z 00000KT 10SM CLR 19/M07 A3008
KSBM,2023-04-05T20:53:00Z,KSBM 052053Z AUTO 25022G33KT 10SM FEW035 12/04 A2962 RMK AO2 PK WND 26034/2035 SLP033 T01170044 53044
KSBN,2023-04-05T21:04:00Z,KSBN 052104Z 26023G33KT 10SM BKN025 BKN032 OVC047 17/12 A2977 RMK AO2 PK WND 26033/2058 PRESRR T01720122
KSBO,2023-04-05T20:55:00Z,KSBO 052055Z AUTO 17005KT 10SM CLR 31/14 A3012 RMK AO2
KSBP,2023-04-05T20:56:00Z,KSBP 052056Z 31019G24KT 10SM CLR 16/05 A3015 RMK AO2 SLP209 T01610050 56012
KSBS,2023-04-05T20:55:00Z,KSBS 052055Z AUTO 24010KT 10SM OVC029 M02/M10 A3003 RMK AO1 T10211105
KSBY,2023-04-05T20:54:00Z,KSBY 052054Z 18013KT 10SM CLR 27/16 A3009 RMK AO2 SLP190 T02670161 56011
KSCD,2023-04-05T20:55:00Z,KSCD 052055Z AUTO 22007G14KT 10SM SCT070 SCT080 30/16 A3007 RMK AO2 T03010155
KSCK,2023-04-05T20:55:00Z,KSCK 052055Z 28007KT 10SM CLR 16/03 A3021 RMK AO2 SLP228 T01610028 58009
KSCR,2023-04-05T21:05:00Z,KSCR 052105Z AUTO 20007KT 10SM SCT075 SCT085 29/16 A3011 RMK AO2 T02870157
KSCX,2023-04-05T20:55:00Z,KSCX 052055Z AUTO 20017G27KT 10SM SCT070 BKN090 28/12 A3001 RMK A01
KSDA,2023-04-05T20:55:00Z,KSDA 052055Z AUTO 30015G22KT 10SM CLR 10/M08 A3002 RMK AO2
KSDC,2023-04-05T20:55:00Z,KSDC 052055Z AUTO 11007KT 1/2SM +RA OVC002 07/05 A2986 RMK AO2 P0006
KSDF,2023-04-05T21:07:00Z,KSDF 052107Z 26035G68KT 1/4SM +TSRA SQ BKN025CB BKN060 OVC080 23/16 A2994 RMK AO2 PK WND 24068/2104 LTG DSNT ALQDS RAB07 TSB07 PRESRR OCNL LTGIC ALQDS TS ALQDS MOV E P0000 T02280161 RVRNO
KSDL,2023-04-05T20:53:00Z,KSDL 052053Z 35008KT 10SM CLR 19/M14 A3007 RMK AO2 SLP175 T01891139 58022
KSDM,2023-04-05T20:53:00Z,KSDM 052053Z 27011G14KT 10SM CLR 17/05 A3008 RMK AO2 SLP184 T01670050 58011
KSDY,2023-04-05T20:56:00Z,KSDY 052056Z AUTO 31011G19KT 10SM CLR M02/M11 A3006 RMK AO2 SLP217 T10221111 51001 FZRANO
KSEA,2023-04-05T20:53:00Z,KSEA 052053Z 26006KT 10SM SCT040 OVC200 10/M01 A3015 RMK AO2 SLP217 T01001006 56012
KSEE,2023-04-05T20:47:00Z,KSEE 052047Z 28010KT 10SM SKC 19/02 A3008
KSEF,2023-04-05T20:55:00Z,KSEF 052055Z AUTO 10011KT 10SM SCT060 SCT070 31/16 A3008 RMK AO2 T03110162
KSEG,2023-04-05T20:53:00Z,KSEG 052053Z AUTO 11006KT 9SM CLR 21/15 A3000 RMK AO2 SLP158 T02060150 56021 $
KSEM,2023-04-05T20:55:00Z,KSEM 052055Z AUTO 22010G15KT 10SM CLR 31/16 A3004 RMK AO2
KSEP,2023-04-05T20:55:00Z,KSEP 052055Z AUTO 01007KT 10SM CLR 18/M02 A3010 RMK AO2 T01751020
KSEQ,2023-04-05T20:55:00Z,KSEQ 052055Z AUTO 03018G25KT 10SM SCT055 BKN200 BKN250 23/M00 A2993 RMK AO2 SLP132 T02301005 58009
KSET,2023-04-05T20:54:00Z,KSET 052054Z AUTO 30014G22KT 10SM CLR 11/03 A2998 RMK AO2 PK WND 29026/2044 SLP150 T01110033 51042
KSEZ,2023-04-05T20:55:00Z,KSEZ 052055Z AUTO 16005KT 10SM CLR 10/M13 A3009 RMK AO2
KSFB,2023-04-05T20:53:00Z,KSFB 052053Z 11014G20KT 10SM FEW050 31/17 A3010 RMK AO2 SLP192 T03060172 56012
KSFF,2023-04-05T20:53:00Z,KSFF 052053Z 19013G19KT 10SM BKN060 BKN080 09/M04 A3012 RMK AO2 SLP212 T00941044 58012
KSFM,2023-04-05T20:56:00Z,KSFM 052056Z AUTO 10008KT 10SM FEW024 OVC035 02/M03 A3037 RMK AO2 SLP288 T00221028 56020 FZRANO
KSFO,2023-04-05T20:56:00Z,KSFO 052056Z 26015KT 10SM FEW018 FEW040 BKN250 14/04 A3023 RMK AO2 SLP236 T01440039 58003
KSFQ,2023-04-05T20:55:00Z,KSFQ 052055Z AUTO 22010G15KT 10SM SCT060 30/15 A3011 RMK AO2 T02950152
KSFZ,2023-04-05T20:56:00Z,KSFZ 052056Z AUTO 09006KT 10SM OVC014 05/02 A3030 RMK AO2 SLP262 T00500022 55011
KSGF,2023-04-05T20:52:00Z,KSGF 052052Z 28010KT 10SM CLR 11/02 A3006 RMK AO2 SLP173 T01110022 53013
KSGH,2023-04-05T20:56:00Z,KSGH 052056Z AUTO 25010G17KT 5SM TSRA BR BKN043 OVC050 16/16 A2996 RMK AO2 PK WND 28033/2001 WSHFT 1958 LTG DSNT ALQDS TSB44 SLP143 P0021 60078 T01560156 53028
KSGJ,2023-04-05T20:56:00Z,KSGJ 052056Z 14015KT 10SM 27/22 A3014 RMK AO2 SLP205 T02670217 56010 $
KSGR,2023-04-05T20:53:00Z,KSGR 052053Z 36012KT 10SM -RA FEW014 OVC026 19/17 A2991 RMK AO2 LTG DSNT N AND NW RAE24B42 SLP129 P0001 60016 T01940167 50005
KSGS,2023-04-05T20:55:00Z,KSGS 052055Z AUTO 26017G24KT 10SM OVC030 M01/M07 A2977 RMK AO2 T10101075
KSGT,2023-04-05T20:56:00Z,KSGT 052056Z AUTO 14006KT 10SM FEW060 SCT100 SCT120 19/18 A2995 RMK AO2 RAE50 PRESRR SLP140 P0004 60005 T01940178 58004
KSGU,2023-04-05T20:56:00Z,KSGU 052056Z AUTO VRB03KT 10SM CLR 10/M14 A3017 RMK AO2 SLP220 T01001144 58014
KSHD,2023-04-05T20:55:00Z,KSHD 052055Z AUTO 19011G20KT 10SM SCT060 BKN075 27/15 A3005 RMK AO2 T02670152
KSHL,2023-04-05T20:55:00Z,KSHL 052055Z AUTO 29024G35KT 10SM BKN026 OVC032 M01/M06 A2993 RMK AO2
KSHM,2023-04-05T20:55:00Z,KSHM 052055Z AUTO 17003KT 10SM OVC070 03/M15 A2997 RMK AO2 SLP196 T00261155 53001 $
KSHN,2023-04-05T20:53:00Z,KSHN 052053Z AUTO 23005KT 10SM BKN041 OVC049 09/01 A3013 RMK AO2 SLP208 T00890006 56011
KSHR,2023-04-05T20:53:00Z,KSHR 052053Z AUTO 23004KT 10SM CLR M02/M09 A3003 RMK AO2 SLP215 T10221089 56003
KSHV,2023-04-05T20:56:00Z,KSHV 052056Z 32009KT 10SM FEW014 SCT060 OVC080 21/18 A2996 RMK SLPNO
KSIF,2023-04-05T21:05:00Z,KSIF 052105Z AUTO 21010G19KT 10SM BKN090 29/16 A3007 RMK AO2 T02890156
KSIK,2023-04-05T20:55:00Z,KSIK 052055Z AUTO 00000KT 10SM UP SCT020 18/17 A2990 RMK AO2 P0001
KSIY,2023-04-05T20:53:00Z,KSIY 052053Z AUTO 00000KT 10SM FEW070 11/M03 A3014 RMK AO2 SLP225 T01061033 56016
KSJC,2023-04-05T20:53:00Z,KSJC 052053Z 32006KT 10SM FEW049 FEW180 OVC250 17/03 A3021 RMK AO2 SLP228 T01670033 58010
KSJS,2023-04-05T20:55:00Z,KSJS 052055Z AUTO 23012G17KT 10SM BKN085 30/12 A2996 RMK AO2 T03020121
KSJT,2023-04-05T20:51:00Z,KSJT 052051Z AUTO 02010KT 10SM CLR 22/M12 A3004 RMK AO2 SLP159 T02221117 56011
KSJX,2023-04-05T20:55:00Z,KSJX 052055Z AUTO 22011G15KT 4SM BR OVC002 08/07 A2950 RMK AO2 T00750070
KSKA,2023-04-05T20:55:00Z,KSKA 052055Z 21014KT 10SM FEW060 08/M06 A3009 RMK AO2A SLP206 T00771061 57009
KSKF,2023-04-05T20:56:00Z,KSKF 052056Z 02015G21KT 10SM OVC050 22/M02 A2992 RMK SLP126 T02241017 58007
KSKX,2023-04-05T20:56:00Z,KSKX 052056Z AUTO 25016G22KT 10SM FEW080 04/M17 A3003 RMK AO2 SLP189 T00391172 55006
KSLB,2023-04-05T20:55:00Z,KSLB 052055Z AUTO 30026G35KT 10SM 01/M07 A2996 RMK AO2
KSLC,2023-04-05T20:54:00Z,KSLC 052054Z 36006KT 10SM FEW050 SCT070 SCT200 04/M07 A3020 RMK AO2 SLP233 VIRGA TCU DSNT S SH DSNT SE AND NW T00391067 51004
KSLE,2023-04-05T20:56:00Z,KSLE 052056Z 16011KT 10SM SCT028 BKN034 OVC042 09/03 A3016 RMK AO2 SLP215 T00940033 58013
KSLG,2023-04-05T20:56:00Z,KSLG 052056Z AUTO 31007G15KT 290V360 10SM CLR 12/01 A3009 RMK AO2 SLP179 T01170011 50008
KSLH,2023-04-05T20:55:00Z,KSLH 052055Z AUTO 06007KT 10SM OVC003 06/05 A2950 RMK AO2
KSLI,2023-04-05T20:55:00Z,KSLI 052055Z 23011KT 10SM FEW035 18/06 A3007 RMK AO2A SLP186 T01830062 57015
KSLK,2023-04-05T21:03:00Z,KSLK 052103Z AUTO VRB04KT 3SM RA BR FEW022 BKN050 OVC095 06/06 A2996 RMK AO2 LTG DSNT E TSE2055 P0001 T00610056
KSLN,2023-04-05T20:53:00Z,KSLN 052053Z 32013G20KT 10SM CLR 11/M08 A3010 RMK AO2 SLP199 T01111083 53003
KSLR,2023-04-05T20:55:00Z,KSLR 052055Z AUTO 32008KT 10SM CLR 17/07 A3006 RMK AO2 T01700068
KSMD,2023-04-05T20:55:00Z,KSMD 052055Z AUTO 19012G23KT 5SM BR FEW045 SCT055 SCT065 18/16 A2976 RMK A01 P0005
KSME,2023-04-05T20:55:00Z,KSME 052055Z AUTO 25023G30KT 10SM CLR 29/14 A2994 RMK AO2
KSMF,2023-04-05T20:53:00Z,KSMF 052053Z VRB04KT 10SM BKN250 16/01 A3021 RMK AO2 SLP230 T01610011 58008
KSMN,2023-04-05T20:56:00Z,KSMN 052056Z AUTO 02006KT 10SM SCT065 OVC080 03/M09 A3010 RMK AO2 SLP884 T00331089 58012
KSMO,2023-04-05T20:51:00Z,KSMO 052051Z 26009KT 10SM CLR 16/03 A3011 RMK AO2 SLP196 T01560033 56010
KSMP,2023-04-05T20:56:00Z,KSMP 052056Z AUTO 00000KT 10SM BKN033 06/M04 A3004 RMK AO2 SLP193 T00561044 56006
KSMQ,2023-04-05T20:53:00Z,KSMQ 052053Z AUTO 11008KT 5SM BR OVC007 11/10 A3015 RMK AO2 SLP209 T01110100 56014
KSMS,2023-04-05T20:55:00Z,KSMS 052055Z AUTO 16009KT 10SM 30/17 A3012 RMK AO2
KSMX,2023-04-05T20:51:00Z,KSMX 052051Z 28017KT 10SM CLR 14/04 A3016 RMK AO2 SLP217 T01440044 58007
KSNA,2023-04-05T20:53:00Z,KSNA 052053Z 23006KT 10SM CLR 18/06 A3009 RMK AO2 SLP190 T01830056 57014
KSNC,2023-04-05T20:55:00Z,KSNC 052055Z AUTO 07009KT 020V090 8SM OVC009 09/07 A3023 RMK AO2
KSNH,2023-04-05T20:50:00Z,KSNH 052050Z AUTO 31014G28KT 280V340 8SM SCT028 BKN042 OVC095 19/17 A3003 RMK A01
KSNK,2023-04-05T20:55:00Z,KSNK 052055Z AUTO 00000KT 10SM CLR 15/M13 A3009 RMK AO2 T01541129
KSNL,2023-04-05T20:55:00Z,KSNL 052055Z AUTO 01010G20KT 10SM CLR 13/M08 A3011 RMK AO2 T01281077
KSNS,2023-04-05T20:53:00Z,KSNS 052053Z 31007G16KT 280V350 10SM CLR 15/04 A3022 RMK AO2 SLP241 T01500039 56009
KSNT,2023-04-05T20:51:00Z,KSNT 052051Z AUTO VRB06G17KT 00/M14 A3004 RMK AO1 SLP174 T00001144 56003
KSNY,2023-04-05T20:53:00Z,KSNY 052053Z AUTO 32023G30KT 10SM CLR 02/M07 A3004 RMK AO2 PK WND 30031/2010 SLP206 T00171072 53004 $
KSOA,2023-04-05T20:55:00Z,KSOA 052055Z AUTO 36008KT 320V020 10SM CLR 21/M14 A3008 RMK AO2
KSOW,2023-04-05T20:55:00Z,KSOW 052055Z AUTO VRB04G10KT 10SM CLR 06/M19 A3009 RMK AO2
KSPA,2023-04-05T20:55:00Z,KSPA 052055Z AUTO 20006G15KT 10SM SCT070 SCT080 28/15 A3010 RMK AO2
KSPB,2023-04-05T21:09:00Z,KSPB 052109Z AUTO VRB05KT 10SM BKN032 OVC070 10/03 A3018 RMK AO2 T01000033
KSPD,2023-04-05T20:56:00Z,KSPD 052056Z AUTO 00000KT 07/M13 A3006 RMK AO1 SLP178 T00721128 58005
KSPF,2023-04-05T20:55:00Z,KSPF 052055Z AUTO 30015G22KT 10SM CLR M04/M10 A3000 RMK AO2
KSPG,2023-04-05T20:53:00Z,KSPG 052053Z 26006KT 10SM CLR 28/21 A3004 RMK AO2 SLP171 T02780206 56015
KSPI,2023-04-05T20:52:00Z,KSPI 052052Z 29016G24KT 10SM CLR 10/04 A2995 RMK AO2 PK WND 28027/1954 SLP140 T01000039 51047
KSPK,2023-04-05T20:55:00Z,KSPK 052055Z AUTO 23003KT 02/M08 A3019 RMK AO2 PWINO
KSPS,2023-04-05T20:52:00Z,KSPS 052052Z 01008KT 10SM CLR 15/M02 A3010 RMK AO2 SLP190 T01501022 58007 $
KSPW,2023-04-05T20:53:00Z,KSPW 052053Z AUTO 27028G35KT 10SM OVC029 02/M07 A2993 RMK AO2 PK WND 28041/2037 SLP149 T00171072 51030
KSQI,2023-04-05T20:56:00Z,KSQI 052056Z AUTO 28023G31KT 10SM BKN028 07/02 A2987 RMK AO2 PK WND 27033/2025 SLP980 T00720017 53045
KSQL,2023-04-05T20:47:00Z,KSQL 052047Z 24015KT 10SM FEW040 14/04 A3024
KSRB,2023-04-05T20:55:00Z,KSRB 052055Z AUTO 22014G21KT 10SM FEW065 SCT075 BKN085 28/15 A3000 RMK AO2
KSRC,2023-04-05T20:56:00Z,KSRC 052056Z AUTO 27004KT 10SM OVC009 17/16 A2996 RMK AO2 RAE11 CIG 007V012 SLP144 P0000 60009 T01720156 51029
KSRE,2023-04-05T20:55:00Z,KSRE 052055Z AUTO 35013KT 10SM CLR 14/M06 A3010 RMK AO2
KSRQ,2023-04-05T20:53:00Z,KSRQ 052053Z 25008KT 10SM FEW075 28/21 A3004 RMK AO2 SLP170 T02780206 56014
KSRR,2023-04-05T20:55:00Z,KSRR 052055Z AUTO 31007KT 10SM 10/M22 A3007 RMK AO2
KSSC,2023-04-05T20:55:00Z,KSSC 052055Z 17007KT 10SM SCT060 SCT250 30/17 A3010 RMK AO2A SLP193 T03010172 57014 $
KSSF,2023-04-05T20:53:00Z,KSSF 052053Z 03015G24KT 10SM FEW070 BKN090 24/M01 A2993 RMK AO2 PK WND 04026/2043 SLP125 60000 T02391006 58002
KSSI,2023-04-05T20:53:00Z,KSSI 052053Z AUTO 13011KT 10SM CLR 27/22 A3013 RMK AO2 SLP205 T02720217 58010
KSTC,2023-04-05T20:53:00Z,KSTC 052053Z 27018G29KT 9SM FEW024 BKN030 OVC038 M03/M08 A2970 RMK AO2 PK WND 26039/2011 SNE47 SLP079 P0000 60000 T10281083 53018
KSTE,2023-04-05T20:55:00Z,KSTE 052055Z AUTO 26013G25KT 10SM OVC029 05/M04 A2966 RMK AO2 T00471044
KSTF,2023-04-05T20:55:00Z,KSTF 052055Z AUTO 17012KT 10SM SCT060 30/19 A2996 RMK AO2 LTG DSNT N AND NW
KSTJ,2023-04-05T20:53:00Z,KSTJ 052053Z 28010KT 10SM CLR 10/M04 A3006 RMK AO2 PK WND 26027/2008 SLP180 T01001044 51012
KSTK,2023-04-05T20:55:00Z,KSTK 052055Z AUTO 28014G20KT 10SM CLR 06/M08 A3004 RMK AO2
KSTL,2023-04-05T20:51:00Z,KSTL 052051Z 30012KT 10SM FEW025 SCT130 BKN220 12/03 A2999 RMK AO2 PK WND 28026/2009 SLP147 T01170033 51039 $
KSTP,2023-04-05T20:53:00Z,KSTP 052053Z 27020G29KT 10SM OVC038 M01/M08 A2977 RMK AO2 PK WND 27036/2015 SLP087 T10061078 51037
KSTS,2023-04-05T20:53:00Z,KSTS 052053Z 19007KT 10SM CLR 16/02 A3021 RMK AO2 SLP225 6//// T01560022
KSUA,2023-04-05T20:47:00Z,KSUA 052047Z 14012KT 7SM VCSH SCT0014 BKN022 26/19 A3013
KSUE,2023-04-05T20:56:00Z,KSUE 052056Z AUTO 26021G26KT 10SM BKN015 09/03 A2956 RMK AO2 PK WND 25028/2043 PRESRR SLP013 T00890033 51033
KSUN,2023-04-05T20:52:00Z,KSUN 052052Z 15010KT 10SM SCT022 SCT030 BKN110 M01/M06 A3013
KSUS,2023-04-05T20:54:00Z,KSUS 052054Z 28013KT 10SM CLR 11/02 A2999 RMK AO2 SLP151 T01110022 51036
KSUT,2023-04-05T21:10:00Z,KSUT 052110Z AUTO 19005KT 10SM CLR 27/20 A3018 RMK AO2 T02660199
KSUU,2023-04-05T20:55:00Z,KSUU 052055Z AUTO 11003KT 10SM CLR 18/03 A3020 RMK AO2 SLP233 T01790026 57007
KSUW,2023-04-05T20:55:00Z,KSUW 052055Z AUTO 24019G27KT 10SM OVC028 M01/M07 A2953 RMK AO2 60001 T10091067
KSUX,2023-04-05T20:52:00Z,KSUX 052052Z 30021G32KT 10SM SCT035 04/M07 A3002 RMK AO2 PK WND 29033/2042 SLP175 T00391067 52025
KSUZ,2023-04-05T20:55:00Z,KSUZ 052055Z AUTO 01007KT 8SM SCT009 OVC027 17/17 A2994 RMK A01
KSVC,2023-04-05T20:55:00Z,KSVC 052055Z AUTO 16006KT 10SM CLR 14/M17 A3005 RMK AO2 T01401166
KSVE,2023-04-05T20:55:00Z,KSVE 052055Z AUTO 08005KT 10SM CLR 07/M07 A3015 RMK AO2
KSVH,2023-04-05T21:05:00Z,KSVH 052105Z AUTO 17009KT 140V200 10SM SCT050 SCT070 BKN080 29/17 A3009 RMK AO2 T02860169
KSVN,2023-04-05T20:55:00Z,KSVN 052055Z 14012KT 10SM CLR 28/21 A3011 RMK AO2A SLP199 T02771096 57008 $
KSWF,2023-04-05T20:45:00Z,KSWF 052045Z 13010KT 7SM OVC010 /07 A3016
KSWO,2023-04-05T20:53:00Z,KSWO 052053Z 32007KT 10SM CLR 14/M06 A3011 RMK AO2 SLP194 T01441056 58002
KSWW,2023-04-05T20:55:00Z,KSWW 052055Z AUTO 04005KT 10SM CLR 18/M09 A3011 RMK AO2 T01771090
KSXK,2023-04-05T20:55:00Z,KSXK 052055Z AUTO 29026G33KT 10SM OVC027 M01/M06 A2997 RMK AO2
KSXS,2023-04-05T20:55:00Z,KSXS 052055Z AUTO 21005KT 10SM FEW050 30/18 A3006 RMK AO2 SLP178 T02990180 55005
KSXU,2023-04-05T20:55:00Z,KSXU 052055Z AUTO 20008G16KT 10SM CLR 12/M18 A3002 RMK AO2 T01211179
KSYF,2023-04-05T20:55:00Z,KSYF 052055Z AUTO 31016G25KT 10SM CLR 07/M12 A3007 RMK AO2 T00721121 PWINO
KSYI,2023-04-05T20:55:00Z,KSYI 052055Z AUTO 20019G25KT 10SM CLR 28/16 A2998 RMK A01
KSYM,2023-04-05T20:55:00Z,KSYM 052055Z AUTO 23011G21KT 200V280 10SM CLR 31/10 A2992 RMK AO2
KSYN,2023-04-05T20:55:00Z,KSYN 052055Z AUTO 26020G29KT 10SM OVC031 00/M06 A2980 RMK AO2 T10051064
KSYR,2023-04-05T21:01:00Z,KSYR 052101Z 27015G22KT 3SM -TSRA SCT040CB SCT085 OVC120 21/13 A2991 RMK AO2 WSHFT 2047 PRESRR OCNL LTGCCCG SW-OHD-NE TS SW-OHD-NE MOV NE P0000 T02060128
KSZL,2023-04-05T20:55:00Z,KSZL 052055Z 28012G19KT 10SM FEW250 11/M02 A3003 RMK AO2A SLP173 T01131018 $
KSZT,2023-04-05T20:55:00Z,KSZT 052055Z AUTO 22012G17KT 10SM BKN075 BKN080 08/M07 A3009 RMK AO2
KSZY,2023-04-05T20:55:00Z,KSZY 052055Z AUTO VRB05G12KT 9SM 17/16 A3003 RMK A01 P0009
KT20,2023-04-05T20:55:00Z,KT20 052055Z AUTO 01012G27KT 10SM SCT060 BKN075 OVC090 22/03 A2994 RMK AO2 T02200027
KT35,2023-04-05T20:55:00Z,KT35 052055Z AUTO 35012G17KT 10SM OVC075 20/05 A3001 RMK AO2 T01980054
KT41,2023-04-05T20:55:00Z,KT41 052055Z AUTO 34014G18KT 10SM BKN009 OVC025 21/19 A2989 RMK AO2 LTG DSNT NW THRU NE T02090191
KT69,2023-04-05T20:55:00Z,KT69 052055Z AUTO 03008KT 5SM BR OVC023 16/14 A2989 RMK A01
KT70,2023-04-05T20:55:00Z,KT70 052055Z AUTO 01009G19KT 10SM CLR 28/M08 A2993 RMK AO2 SLP123 T02771081 57019 $
KT74,2023-04-05T20:55:00Z,KT74 052055Z AUTO 01019G26KT 10SM SCT070 SCT080 BKN110 21/M01 A3001 RMK AO2 T02151008
KT78,2023-04-05T20:55:00Z,KT78 052055Z AUTO 34010KT 4SM -RA BR FEW007 OVC021 19/18 A2991 RMK AO2 LTG DSNT W-NE
KT82,2023-04-05T20:55:00Z,KT82 052055Z AUTO 01015KT 10SM SCT070 BKN090 21/M04 A3002 RMK AO2 T02101041
KT89,2023-04-05T20:55:00Z,KT89 052055Z AUTO 03009KT 10SM CLR 25/M14 A2995 RMK A01
KTAD,2023-04-05T20:54:00Z,KTAD 052054Z AUTO 13008G16KT 080V180 10SM SCT110 07/M14 A2998 RMK AO2 SLP153 T00721144 56009
KTAN,2023-04-05T20:52:00Z,KTAN 052052Z AUTO A3030 RMK AO2 SLPNO 6//// 58014 PWINO FZRANO TSNO PNO $
KTAZ,2023-04-05T20:55:00Z,KTAZ 052055Z AUTO 27014G20KT 10SM BKN020 09/05 A2996 RMK AO2 T00920051 PWINO
KTBN,2023-04-05T20:55:00Z,KTBN 052055Z AUTO 31009KT 10SM CLR 11/01 A3003 RMK AO2 SLP167 T01070012 FZRANO $
KTBR,2023-04-05T20:55:00Z,KTBR 052055Z AUTO 16007KT 10SM SCT080 31/14 A3012 RMK AO2 T03050141
KTCC,2023-04-05T20:53:00Z,KTCC 052053Z AUTO 20005KT 10SM CLR 10/M13 A3004 RMK AO2 SLP161 T01001128 56011 $
KTCL,2023-04-05T20:53:00Z,KTCL 052053Z 19008G17KT 10SM FEW050 30/18 A3002 RMK AO2 SLP163 T03000183 58006
KTCM,2023-04-05T20:55:00Z,KTCM 052055Z AUTO 22010KT 10SM BKN055 12/M01 A3013 RMK AO2 SLP209 T01211014 57013 $
KTCS,2023-04-05T20:53:00Z,KTCS 052053Z AUTO 19010G16KT 10SM CLR 11/M19 A3004 RMK AO2 SLP151 T01111194 58018
KTCY,2023-04-05T20:55:00Z,KTCY 052055Z AUTO VRB05G12KT 10SM CLR 15/03 A3021 RMK A01
KTDF,2023-04-05T21:05:00Z,KTDF 052105Z AUTO 18009G15KT 10SM SCT050 SCT085 27/16 A3012 RMK AO2
KTDR,2023-04-05T20:55:00Z,KTDR 052055Z AUTO 18014KT 10SM CLR 29/22 A3005 RMK AO2 SLP179 T02870217 55004 $
KTDZ,2023-04-05T20:53:00Z,KTDZ 052053Z AUTO 18013KT 10SM BKN095 OVC110 19/16 A2979 RMK AO2 SLP084 60016 T01940156 51007
KTEB,2023-04-05T20:51:00Z,KTEB 052051Z 07006KT 4SM BR OVC006 08/07 A3018 RMK AO2 SLP220 T00830067 56018
KTEW,2023-04-05T20:55:00Z,KTEW 052055Z AUTO 22014G25KT 190V250 10SM CLR 22/12 A2967 RMK AO2 T02170119
KTEX,2023-04-05T20:55:00Z,KTEX 052055Z AUTO 26007KT 10SM SCT044 OVC050 M05/M16 A3002 RMK AO2 P0001
KTFP,2023-04-05T20:15:00Z,KTFP 052015Z AUTO 05022G25KT 10SM BKN006 OVC012 18/16 A2986 RMK AO2 T01800163
KTHA,2023-04-05T20:55:00Z,KTHA 052055Z AUTO 22013G23KT 10SM BKN060 BKN080 29/15 A3001 RMK A01
KTHV,2023-04-05T20:53:00Z,KTHV 052053Z AUTO 15009G19KT 10SM CLR 27/16 A2998 RMK AO2 SLP152 T02720161 56018
KTIF,2023-04-05T20:55:00Z,KTIF 052055Z AUTO 32015G23KT 10SM CLR 01/M10 A3007 RMK AO2 T00051099
KTIK,2023-04-05T20:55:00Z,KTIK 052055Z AUTO 35010G18KT 10SM CLR 14/M06 A3007 RMK AO2 SLP190 T01351056 58002
KTIP,2023-04-05T20:55:00Z,KTIP 052055Z AUTO 27016G23KT 10SM OVC016 09/06 A2991 RMK AO2 T00900056
KTIW,2023-04-05T20:53:00Z,KTIW 052053Z 22007KT 10SM BKN055 10/01 A3015 RMK AO2 SLP210 T01000006 58014 $
KTIX,2023-04-05T20:50:00Z,KTIX 052050Z 14010KT 7SM SCT030 30/19 A3014
KTKC,2023-04-05T20:55:00Z,KTKC 052055Z AUTO 28030G37KT 10SM OVC024 M03/M07 A2985 RMK AO2
KTKI,2023-04-05T20:53:00Z,KTKI 052053Z 32008G15KT 10SM CLR 17/02 A3005 RMK AO2 SLP175 T01720017 55001
KTKV,2023-04-05T20:55:00Z,KTKV 052055Z AUTO 25012G20KT 10SM OVC031 02/M05 A2958 RMK AO2 T00151054 PWINO
KTKX,2023-04-05T20:55:00Z,KTKX 052055Z AUTO 22010G17KT 6SM BR 19/19 A2992 RMK AO2
KTLH,2023-04-05T20:53:00Z,KTLH 052053Z 17010KT 10SM FEW000 FEW033 29/20 A3009 RMK AO2 SLP190 FU FEW000 T02940200 56006
KTMA,2023-04-05T20:55:00Z,KTMA 052055Z AUTO 16005KT 10SM CLR 31/18 A3010 RMK AO2 T03060180 $
KTMB,2023-04-05T20:53:00Z,KTMB 052053Z 12013KT 10SM FEW031 FEW065 29/21 A3007 RMK AO2 SLP182 T02940206 56012
KTMK,2023-04-05T20:50:00Z,KTMK 052050Z AUTO 15008KT 10SM OVC030 09/04 A3017 RMK AO2
KTMT,2023-04-05T20:55:00Z,KTMT 052055Z AUTO 11006KT 10SM OVC055 01/M10 A3016 RMK AO2 T00091102
KTNB,2023-04-05T20:55:00Z,KTNB 052055Z AUTO 17007KT 110V220 10SM SCT036 BKN045 BKN060 22/13 A3019 RMK AO2 T02220132 TSNO
KTNU,2023-04-05T20:55:00Z,KTNU 052055Z AUTO 29015G23KT 10SM BKN044 05/M03 A2997 RMK A01
KTOA,2023-04-05T20:47:00Z,KTOA 052047Z 26010KT 10SM SKC 19/03 A3011
KTOB,2023-04-05T20:55:00Z,KTOB 052055Z AUTO 26024G31KT 10SM OVC032 M01/M06 A2980 RMK AO2
KTOC,2023-04-05T20:55:00Z,KTOC 052055Z AUTO 18009KT 140V220 10SM SCT060 BKN080 29/15 A3009 RMK AO2 T02890153
KTOI,2023-04-05T20:53:00Z,KTOI 052053Z AUTO 21009G17KT 10SM SCT060 32/18 A3008 RMK AO2 SLP178 T03220178 58001
KTOL,2023-04-05T20:52:00Z,KTOL 052052Z 19011G19KT 10SM BKN110 19/15 A2977 RMK AO2 PRESRR SLP081 60010 T01940150 55005
KTOP,2023-04-05T20:53:00Z,KTOP 052053Z 31010G16KT 10SM CLR 12/M05 A3007 RMK AO2 SLP184 T01221050 51011
KTOR,2023-04-05T20:53:00Z,KTOR 052053Z AUTO 27007KT 10SM CLR 11/M08 A3006 RMK AO2 SLP194 T01061078 53004
KTPA,2023-04-05T20:53:00Z,KTPA 052053Z 14007KT 10SM SCT055 SCT100 BKN250 32/16 A3005 RMK AO2 SLP176 T03220161 56017
KTPH,2023-04-05T20:56:00Z,KTPH 052056Z AUTO 26008G18KT 10SM CLR 05/M13 A3013 RMK AO2 SLP217 T00501133 56008
KTPL,2023-04-05T20:51:00Z,KTPL 052051Z AUTO 34014KT OVC080 19/02 A3004 RMK AO2 SLP163 T01890017 51002 PWINO RVRNO $
KTQE,2023-04-05T20:54:00Z,KTQE 052054Z AUTO 30014G27KT 10SM FEW050 07/M08 A3003 RMK AO2 PK WND 29029/2007 SLP174 T00671078 53022 $
KTQH,2023-04-05T20:55:00Z,KTQH 052055Z AUTO 34011G14KT 10SM CLR 15/M02 A3009 RMK AO2
KTQK,2023-04-05T20:55:00Z,KTQK 052055Z AUTO 31012G18KT 10SM CLR 10/M13 A3010 RMK AO2 T00991126
KTQV,2023-04-05T20:55:00Z,KTQV 052055Z AUTO 19016KT 10SM FEW075 FEW085 28/16 A3009 RMK A01
KTRI,2023-04-05T20:53:00Z,KTRI 052053Z 25009KT 10SM SCT070 BKN090 BKN250 29/15 A3003 RMK AO2 SLP145 T02890150 55008
KTRK,2023-04-05T20:47:00Z,KTRK 052047Z 00000KT 10SM CLR 03/M12 A3012
KTRL,2023-04-05T20:53:00Z,KTRL 052053Z AUTO 34009KT 10SM BKN100 19/01 A3004 RMK AO2 SLP166 T01890011 58001
KTRM,2023-04-05T20:52:00Z,KTRM 052052Z AUTO 00000KT 10SM CLR 21/M09 A3009 RMK AO2 SLP189 T02061094 58021
KTSP,2023-04-05T20:55:00Z,KTSP 052055Z AUTO 14008KT 9SM CLR 09/M09 A3015 RMK AO2
KTTA,2023-04-05T21:05:00Z,KTTA 052105Z AUTO 19008G14KT 10SM SCT060 29/15 A3010 RMK AO2 T02940151
KTTD,2023-04-05T20:53:00Z,KTTD 052053Z 00000KT 10SM OVC047 12/02 A3018 RMK AO2 SLP220 T01170017 56012
KTTF,2023-04-05T20:55:00Z,KTTF 052055Z AUTO 18009KT 10SM OVC100 18/15 A2974 RMK AO2 60036 T01780149
KTTN,2023-04-05T20:53:00Z,KTTN 052053Z 10012KT 9SM OVC005 11/09 A3013 RMK AO2 SLP197 T01060094 56015
KTTS,2023-04-05T20:55:00Z,KTTS 052055Z AUTO 12010KT 10SM FEW029 27/19 A3011 RMK AO2 SLP200 T02730193 55010 $
KTUL,2023-04-05T20:53:00Z,KTUL 052053Z 31006G19KT 10SM FEW250 14/M04 A3009 RMK AO2 SLP189 T01441039 51002
KTUP,2023-04-05T21:07:00Z,KTUP 052107Z 31006G16KT 3/4SM TS BR BKN018 BKN033 OVC041 18/17 A3005 RMK AO2 LTG DSNT ALQDS RAEMM P0029 T01830167 $
KTUS,2023-04-05T20:53:00Z,KTUS 052053Z VRB03KT 10SM CLR 18/M19 A3005 RMK AO2 SLP156 T01831189 56019
KTVC,2023-04-05T20:53:00Z,KTVC 052053Z 25015G25KT 10SM BKN016 BKN027 BKN036 OVC200 14/10 A2952 RMK AO2 PK WND 26040/2019 RAB23E40 PRESRR SLP999 P0001 60001 T01390100 53019
KTVF,2023-04-05T20:56:00Z,KTVF 052056Z AUTO 29022G26KT 6SM -SN BKN018 OVC025 M04/M08 A2956 RMK AO2 PK WND 29026/2055 SLP032 P0000 60000 T10441078 53015 FZRANO
KTVI,2023-04-05T20:55:00Z,KTVI 052055Z AUTO 21011KT 10SM SCT042 SCT095 29/18 A3011 RMK AO2
KTVK,2023-04-05T20:55:00Z,KTVK 052055Z AUTO 24013G19KT 10SM FEW042 FEW100 08/M03 A3000 RMK AO2
KTVL,2023-04-05T20:53:00Z,KTVL 052053Z AUTO 03008KT 10SM CLR 03/M11 A3011 RMK AO2 SLP212 T00281111 51002
KTVR,2023-04-05T20:53:00Z,KTVR 052053Z AUTO 36011G17KT 10SM FEW025 BKN039 OVC047 19/18 A3000 RMK AO2 PK WND 28028/2024 LTG DSNT N AND SE RAB07E17B26E50 TSB13E28 SLP163 P0001 60001 T01940183 53003
KTVY,2023-04-05T20:55:00Z,KTVY 052055Z AUTO 11005KT 10SM CLR 04/M12 A3020 RMK AO2
KTWF,2023-04-05T20:53:00Z,KTWF 052053Z 25012KT 10SM SCT060 OVC075 04/M09 A3016 RMK AO2 SLP214 T00441089 53001
KTWM,2023-04-05T20:55:00Z,KTWM 052055Z AUTO 23017G28KT 10SM -SN OVC024 M02/M04 A2944 RMK AO2
KTWT,2023-04-05T20:55:00Z,KTWT 052055Z AUTO 21010G15KT 10SM SCT015 OVC110 18/16 A2993 RMK AO2
KTXK,2023-04-05T20:53:00Z,KTXK 052053Z 30006KT 10SM CLR 19/12 A2998 RMK AO2 SLP148 60000 T01940122 53010
KTXW,2023-04-05T20:55:00Z,KTXW 052055Z AUTO 18006KT 10SM BKN028 OVC035 29/23 A2978 RMK AO2 T02900228
KTYL,2023-04-05T20:55:00Z,KTYL 052055Z AUTO 32005KT 10SM CLR 07/M19 A3009 RMK AO2
KTYQ,2023-04-05T20:55:00Z,KTYQ 052055Z AUTO 23011KT 5SM +RA OVC011 16/15 A2986 RMK AO2 P0008 60024 T01560147
KTYR,2023-04-05T20:53:00Z,KTYR 052053Z 34006KT 10SM SCT085 BKN100 19/09 A3001 RMK AO2 SLP156 T01940089 55002
KTYS,2023-04-05T20:53:00Z,KTYS 052053Z 22017G23KT 10SM FEW075 30/14 A3001 RMK AO2 PK WND 22028/2026 SLP151 T03000144 58003
KTZR,2023-04-05T21:06:00Z,KTZR 052106Z 30015G23KT 3SM +RA SCT011 BKN030 OVC070 18/16 A2990
KU42,2023-04-05T20:55:00Z,KU42 052055Z AUTO 33008KT 10SM SCT046 03/M08 A3020 RMK AO1 T00291081
KU55,2023-04-05T20:50:00Z,KU55 052050Z AUTO 36004G10KT 10SM OVC065 M01/M15 A3011 RMK A01
KU64,2023-04-05T20:55:00Z,KU64 052055Z AUTO 30005KT 9SM UP FEW008 SCT035 BKN042 BKN060 OVC080 M03/M09 A3008 RMK AO2 P0000 T10281087 $
KU68,2023-04-05T20:55:00Z,KU68 052055Z AUTO 18007KT 10SM SCT060 03/M13 A3003 RMK AO2
KU69,2023-04-05T20:55:00Z,KU69 052055Z AUTO 28017KT 10SM CLR 02/M11 A3007 RMK A01
KUAO,2023-04-05T20:53:00Z,KUAO 052053Z 19009KT 10SM OVC032 10/03 A3018 RMK AO2 SLP220 T01000033 58013
KUBE,2023-04-05T20:55:00Z,KUBE 052055Z AUTO 25026G31KT 10SM OVC029 M01/M04 A2964 RMK AO2
KUCP,2023-04-05T20:56:00Z,KUCP 052056Z AUTO 26003KT 10SM FEW060 BKN075 BKN100 24/14 A2990 RMK AO2 RAE28 SLP132 P0000 60000 T02390144 53004
KUCY,2023-04-05T20:50:00Z,KUCY 052050Z AUTO 19009KT 10SM BKN090 18/18 A2995 RMK A01
KUDG,2023-04-05T20:56:00Z,KUDG 052056Z AUTO 20011KT 10SM FEW055 31/17 A3012 RMK AO2 SLP200 T03060172 56015
KUES,2023-04-05T20:45:00Z,KUES 052045Z 25020G30KT 10SM SCT029 08/02 A2971
KUGN,2023-04-05T20:51:00Z,KUGN 052051Z 26022G33KT 10SM FEW026 10/03 A2973 RMK AO2 PK WND 26034/2037 PRESRR SLP062 T01000033 51062
KUIL,2023-04-05T20:53:00Z,KUIL 052053Z AUTO 16007G16KT 130V210 10SM OVC039 09/02 A3009 RMK AO2 SLP192 T00940017 56007
KUIN,2023-04-05T20:54:00Z,KUIN 052054Z AUTO 27016G22KT 10SM CLR 10/01 A2997 RMK AO2 PK WND 29029/2018 SLP144 T01000006 51030
KUKF,2023-04-05T21:05:00Z,KUKF 052105Z AUTO 23011G17KT 10SM SCT048 SCT060 SCT075 27/16 A3014 RMK AO2
KUKI,2023-04-05T20:56:00Z,KUKI 052056Z AUTO 35004KT 10SM CLR 16/02 A3019 RMK AO2 SLP219 T01610022 56013
KUKL,2023-04-05T20:55:00Z,KUKL 052055Z AUTO 30010G18KT 10SM CLR 11/M07 A3009 RMK AO2 T01111072
KUKT,2023-04-05T20:55:00Z,KUKT 052055Z AUTO 10008G13KT 9SM OVC006 11/11 A3011 RMK A01
KULM,2023-04-05T20:55:00Z,KULM 052055Z AUTO 28020G29KT 10SM SCT023 SCT028 OVC037 M02/M07 A2984 RMK AO2
KULS,2023-04-05T20:50:00Z,KULS 052050Z AUTO 34011G15KT 10SM CLR 08/M13 A3009 RMK AO2
KUNI,2023-04-05T20:55:00Z,KUNI 052055Z AUTO 22017G28KT 10SM CLR 31/08 A2986 RMK AO2 T03090078
KUNO,2023-04-05T20:53:00Z,KUNO 052053Z AUTO 32008KT 10SM CLR 11/04 A3002 RMK AO2 SLP157 T01110039 51030
KUNU,2023-04-05T20:55:00Z,KUNU 052055Z AUTO 25023G30KT 10SM SCT030 08/01 A2971 RMK AO2 T00750006
KUNV,2023-04-05T20:53:00Z,KUNV 052053Z 14009G15KT 110V190 10SM SCT070 26/15 A2995
KUOX,2023-04-05T20:55:00Z,KUOX 052055Z AUTO 00000KT 3SM -RA FEW002 FEW032 SCT100 17/17 A3007 RMK AO2 LTG DSNT ALQDS
KUSE,2023-04-05T20:55:00Z,KUSE 052055Z AUTO 19016KT 10SM CLR 19/19 A2977 RMK AO2
KUTA,2023-04-05T20:55:00Z,KUTA 052055Z AUTO 00000KT 7SM -RA FEW070 BKN090 OVC110 19/19 A2998 RMK AO2 PRESFR P0000 T01900190 $
KUTS,2023-04-05T20:53:00Z,KUTS 052053Z AUTO 35008KT 10SM BKN055 OVC075 18/12 A2997 RMK AO2 LTG DSNT SE-W RAB28E37 SLP144 P0000 60000 T01830117 58001
KUUU,2023-04-05T20:53:00Z,KUUU 052053Z AUTO 06007KT 6SM BR OVC009 06/04 A3027 RMK AO2 RAE01 SLP249 P0000 60000 T00610044 56014
KUUV,2023-04-05T20:55:00Z,KUUV 052055Z AUTO 28008KT 10SM CLR 10/03 A3004 RMK AO2
KUVA,2023-04-05T20:55:00Z,KUVA 052055Z AUTO 04008G15KT 10SM BKN080 27/M08 A2996 RMK AO2 T02731078
KUXL,2023-04-05T20:55:00Z,KUXL 052055Z AUTO 18012G15KT 10SM BKN018 OVC024 A2994 RMK AO2
KUYF,2023-04-05T20:55:00Z,KUYF 052055Z AUTO 28018G25KT 5SM VCTSRA SCT013 BKN039 OVC050 16/15 A2993 RMK AO2 LTG DSNT SW AND NW P0018
KUZA,2023-04-05T20:54:00Z,KUZA 052054Z AUTO 18008G17KT 10SM FEW060 29/17 A3011 RMK AO2 SLP183 T02890167 56015
KVAD,2023-04-05T20:55:00Z,KVAD 052055Z AUTO 20005KT 10SM CLR 32/15 A3007 RMK AO2 SLP183 T03150150 57012 $
KVAF,2023-04-05T20:55:00Z,KVAF 052055Z AUTO 15016KT 2 1/2SM HZ CLR 27/22 A2988 RMK A01
KVAY,2023-04-05T20:54:00Z,KVAY 052054Z AUTO 08007KT 10SM CLR 18/13 A3011 RMK AO2 SLP194 T01830128 56014
KVBG,2023-04-05T20:55:00Z,KVBG 052055Z 34016KT 20SM BKN350 14/04 A3019 RMK AO2A SLP227 T01350044 56002
KVBT,2023-04-05T20:56:00Z,KVBT 052056Z AUTO 30009KT 10SM CLR 12/02 A3008 RMK AO2 SLP183 T01220022 50006
KVBW,2023-04-05T20:55:00Z,KVBW 052055Z AUTO 17012G19KT 10SM SCT065 BKN070 BKN085 28/16 A3000 RMK AO1 T02810160
KVCB,2023-04-05T20:53:00Z,KVCB 052053Z AUTO VRB05KT 10SM CLR 16/01 A3022 RMK AO2 SLP233 T01610011 58008
KVCT,2023-04-05T20:59:00Z,KVCT 052059Z 02009G20KT 10SM OVC030 18/11 A2992 RMK AO2 T01830106
KVCV,2023-04-05T20:55:00Z,KVCV 052055Z 36006G13KT 10SM CLR 13/M12 A3015 RMK AO2
KVDF,2023-04-05T20:55:00Z,KVDF 052055Z AUTO 13008KT 10SM CLR 32/19 A3006 RMK AO2
KVDI,2023-04-05T20:55:00Z,KVDI 052055Z AUTO 17007KT 10SM SCT085 31/16 A3011 RMK AO2
KVEL,2023-04-05T20:53:00Z,KVEL 052053Z AUTO 02009KT 10SM BKN038 OVC055 01/M06 A3009 RMK AO2 SLP215 T00111061 55001
KVER,2023-04-05T20:55:00Z,KVER 052055Z AUTO 28011G17KT 10SM CLR 12/01 A3004 RMK AO2 T01190008
KVES,2023-04-05T20:50:00Z,KVES 052050Z AUTO 22009KT 7SM RA SCT060 OVC080 16/16 A2990 RMK AO2 LTG DSNT E S AND NW P0009
KVGC,2023-04-05T20:55:00Z,KVGC 052055Z AUTO 16015G25KT 10SM CLR 16/10 A2993 RMK AO2
KVGT,2023-04-05T20:53:00Z,KVGT 052053Z VRB03KT 10SM CLR 13/M16 A3016 RMK AO2 SLP230 T01281156 58017
KVHN,2023-04-05T20:55:00Z,KVHN 052055Z AUTO 17006KT 10SM CLR 18/M16 A3008 RMK AO2 T01781162
KVIH,2023-04-05T20:53:00Z,KVIH 052053Z AUTO 29014G26KT 10SM CLR 11/02 A3003 RMK AO2 PK WND 28026/2045 SLPNO T01060022 51025
KVIS,2023-04-05T20:56:00Z,KVIS 052056Z AUTO VRB03KT 10SM CLR 16/01 A3020 RMK AO2 SLP236 T01560006 58015
KVJI,2023-04-05T20:55:00Z,KVJI 052055Z AUTO 25012G17KT 10SM BKN065 BKN075 BKN085 28/13 A3006 RMK AO2 T02750126
KVKS,2023-04-05T20:55:00Z,KVKS 052055Z AUTO 35013G19KT 10SM BKN042 BKN050 21/19 A2996 RMK A01
KVKY,2023-04-05T20:55:00Z,KVKY 052055Z AUTO VRB04KT 10SM CLR A3005 RMK A01
KVLD,2023-04-05T20:53:00Z,KVLD 052053Z 22009G16KT 10SM FEW060 31/18 A3009 RMK AO1 SLP193 T03110178 55011
KVLL,2023-04-05T20:55:00Z,KVLL 052055Z AUTO 16007KT 7SM SCT120 18/17 A2975 RMK AO2 T01800166
KVNC,2023-04-05T20:55:00Z,KVNC 052055Z AUTO 25007KT 10SM SCT070 SCT085 28/21 A3005 RMK AO2
KVNW,2023-04-05T20:55:00Z,KVNW 052055Z AUTO 21012KT 10SM RA SCT032 BKN050 OVC110 18/15 A2985 RMK AO2 P0002
KVNY,2023-04-05T20:51:00Z,KVNY 052051Z 17006KT 10SM CLR 21/M02 A3008 RMK AO2 SLP182 T02061017 58012
KVOA,2023-04-05T21:05:00Z,KVOA 052105Z AUTO 14011KT 6SM HZ CLR 26/23 A3005 RMK A01
KVOK,2023-04-05T20:55:00Z,KVOK 052055Z 26023G30KT 10SM BKN034 04/M04 A2972 RMK AO2A PK WND 26034/35 SLP074 52047
KVPC,2023-04-05T20:55:00Z,KVPC 052055Z AUTO 19007KT SCT065 SCT075 30/15 A3007 RMK AO2 PWINO
KVPS,2023-04-05T20:55:00Z,KVPS 052055Z AUTO 15011KT 10SM SCT015 27/22 A3008 RMK AO2 SLP192 T02690216 56003 $
KVPZ,2023-04-05T21:07:00Z,KVPZ 052107Z AUTO 28021G28KT 10SM BKN018 BKN050 12/07 A2982 RMK AO2 PK WND 29028/2105 T01170072
KVQQ,2023-04-05T20:50:00Z,KVQQ 052050Z 15007G17KT 10SM SCT047 32/21 A3010
KVRB,2023-04-05T20:53:00Z,KVRB 052053Z 10012KT 10SM CLR 28/19 A3011 RMK AO2 SLP195 T02830189 58014
KVSF,2023-04-05T20:54:00Z,KVSF 052054Z AUTO 14010G15KT 10SM OVC025 05/M01 A3025 RMK AO2 SLP251 T00501011 56014
KVTA,2023-04-05T20:54:00Z,KVTA 052054Z AUTO 32007KT 10SM -RA OVC070 21/17 A2986 RMK AO2 PK WND 31026/2033 LTG DSNT NE RAB36 SLP105 P0000 60000 T02060172 55009
KVTI,2023-04-05T20:55:00Z,KVTI 052055Z AUTO 28019G28KT 10SM OVC036 06/M03 A2993 RMK AO2 T00551029
KVTN,2023-04-05T20:52:00Z,KVTN 052052Z AUTO 30020G27KT 10SM SCT032 M02/M09 A3006 RMK AO2 PK WND 28028/2031 SLP214 T10171089 53014
KVUJ,2023-04-05T21:05:00Z,KVUJ 052105Z AUTO 19013G19KT 10SM BKN065 BKN075 29/16 A3014 RMK AO2 T02940157
KVUO,2023-04-05T20:53:00Z,KVUO 052053Z AUTO 17010KT 140V220 10SM FEW033 SCT045 OVC070 11/03 A3020 RMK AO2 SLP226 60000 T01060028 58010
KVVS,2023-04-05T20:55:00Z,KVVS 052055Z AUTO 22013G19KT 10SM CLR 29/13 A2992 RMK AO2 T02900133
KVVV,2023-04-05T20:55:00Z,KVVV 052055Z AUTO 28014G20KT 10SM BKN025 BKN031 M04/M07 A2982 RMK AO2
KVWU,2023-04-05T20:55:00Z,KVWU 052055Z AUTO 26013G17KT 10SM SCT025 BKN041 OVC050 M03/M07 A2947 RMK AO2
KVYS,2023-04-05T20:55:00Z,KVYS 052055Z AUTO 27015G25KT 10SM SCT027 08/02 A2988 RMK AO2 T00800022
KW22,2023-04-05T20:55:00Z,KW22 052055Z AUTO 19009G14KT 160V220 10SM FEW070 30/13 A2994 RMK AO2
KW29,2023-04-05T21:05:00Z,KW29 052105Z AUTO 17013G17KT 10SM CLR 26/17 A3003 RMK AO2 T02550174
KW40,2023-04-05T21:05:00Z,KW40 052105Z AUTO 17008KT 10SM SCT060 28/17 A3013 RMK AO2 T02840169
KW43,2023-04-05T20:55:00Z,KW43 052055Z AUTO 29009KT 10SM OVC026 M03/M10 A3002 RMK AO2
KW75,2023-04-05T20:55:00Z,KW75 052055Z AUTO 17007KT 10SM SCT065 28/17 A3008 RMK AO1 T02810168
KW78,2023-04-05T20:55:00Z,KW78 052055Z AUTO 19013G17KT 10SM SCT060 30/15 A3007 RMK AO1 T02950151
KW81,2023-04-05T20:55:00Z,KW81 052055Z AUTO 20006G14KT 10SM SCT060 SCT070 28/13 A3006 RMK AO1 T02840128
KW99,2023-04-05T21:03:00Z,KW99 052103Z AUTO 22009G16KT 10SM CLR 32/15 A2994 RMK AO2
KWAL,2023-04-05T20:54:00Z,KWAL 052054Z 18014KT 10SM CLR 20/16 A3013 RMK AO2 SLP199 T02000156 56012
KWDG,2023-04-05T20:45:00Z,KWDG 052045Z 33009G18KT 10SM SKC 13/M07 A3012
KWDR,2023-04-05T20:55:00Z,KWDR 052055Z AUTO 19004KT 10SM SCT060 SCT075 SCT080 29/15 A3010 RMK AO2
KWHP,2023-04-05T20:53:00Z,KWHP 052053Z 24005KT 10SM SKC 18/M05 A3012
KWJF,2023-04-05T20:56:00Z,KWJF 052056Z 04010G25KT 10SM CLR 15/M09 A3014 RMK AO2 SLP210 T01501089 58015
KWLD,2023-04-05T20:54:00Z,KWLD 052054Z AUTO 31009KT 10SM CLR 13/M05 A3011 RMK AO2 SLP198 T01281050 50001
KWMC,2023-04-05T20:56:00Z,KWMC 052056Z AUTO 21009KT 10SM BKN049 BKN065 06/M07 A3018 RMK AO2 SLP230 T00561067 56005
KWRB,2023-04-05T20:55:00Z,KWRB 052055Z 17009KT 10SM SCT050 SCT250 30/20 A3007 RMK AO2A SLP183 T03020195 57013
KWRI,2023-04-05T21:05:00Z,KWRI 052105Z 07010KT 10SM OVC006 13/11 A3013 RMK AO2A CIG 005 RWY24 SLP203
KWRL,2023-04-05T20:53:00Z,KWRL 052053Z AUTO VRB03KT 10SM FEW048 01/M09 A3005 RMK AO2 SLP214 T00061094 58004
KWST,2023-04-05T20:53:00Z,KWST 052053Z AUTO 07011KT 10SM OVC011 08/05 A3026 RMK AO2 SLP247 60000 T00780050 58012
KWVI,2023-04-05T20:53:00Z,KWVI 052053Z AUTO 24008KT 10SM CLR 14/05 A3023 RMK AO2 SLP236 T01390050 58007
KWVL,2023-04-05T20:56:00Z,KWVL 052056Z AUTO 09003KT 10SM OVC048 01/M10 A3034 RMK AO2 SLP306 60000 T00111100 58019 FZRANO
KWWD,2023-04-05T20:56:00Z,KWWD 052056Z AUTO 17015G25KT 10SM CLR 19/16 A3011 RMK AO2 SLP198 T01940156 56017 $
KWWR,2023-04-05T20:55:00Z,KWWR 052055Z AUTO 33011G20KT 10SM CLR 12/M09 A3012 RMK AO2
KX26,2023-04-05T20:55:00Z,KX26 052055Z AUTO 09013KT 10SM CLR 28/19 A3012 RMK AO2 TSNO
KX60,2023-04-05T20:55:00Z,KX60 052055Z AUTO 17007KT 10SM CLR 32/15 A3007 RMK AO2 T03180146
KXBP,2023-04-05T20:55:00Z,KXBP 052055Z AUTO 34011G15KT 10SM CLR 16/00 A3010 RMK AO2 T01561005
KXER,2023-04-05T20:50:00Z,KXER 052050Z AUTO 13007KT 5SM BR CLR 25/23 A2998 RMK A01
KXLL,2023-04-05T20:55:00Z,KXLL 052055Z AUTO 10007KT 10SM OVC008 12/10 A3013 RMK AO2
KXMR,2023-04-05T20:55:00Z,KXMR 052055Z AUTO 13013KT 10SM CLR 28/20 A3011 RMK AO2 SLP199 T02810196 55010 $
KXNA,2023-04-05T20:53:00Z,KXNA 052053Z 31010KT 10SM CLR 12/01 A3007 RMK AO2 SLP174 T01220006 50008
KXNO,2023-04-05T20:55:00Z,KXNO 052055Z AUTO 19010KT 10SM CLR 31/25 A3012 RMK AO2 SLP200 T03060249 56013 $
KXNX,2023-04-05T20:55:00Z,KXNX 052055Z AUTO 21009G22KT 10SM BKN060 BKN100 28/15 A2998 RMK A01
KXSA,2023-04-05T20:55:00Z,KXSA 052055Z AUTO 18012G17KT 150V210 10SM SCT070 A3006 RMK AO2
KXVG,2023-04-05T20:53:00Z,KXVG 052053Z AUTO 26012G17KT 3SM -SN SCT022 OVC030 M04/M08 A2955 RMK AO2
KXWA,2023-04-05T20:51:00Z,KXWA 052051Z AUTO 32019KT 10SM CLR M06/M12 A3002 RMK AO2 SLP218 T10561117 53005
KY19,2023-04-05T20:55:00Z,KY19 052055Z AUTO 30030G39KT 1 1/4SM -DZ VV007 M06/M08 A2990 RMK AO2 VIS 3/4V2
KY23,2023-04-05T20:55:00Z,KY23 052055Z AUTO 25012G22KT 220V280 10SM OVC033 01/M05 A2967 RMK AO2 T00071052
KY31,2023-04-05T20:55:00Z,KY31 052055Z AUTO 21015G23KT 10SM CLR 21/13 A2954 RMK AO2 60001 T02080128 P0001
KY49,2023-04-05T20:55:00Z,KY49 052055Z AUTO 26012G18KT 10SM -SN BKN024 OVC030 M05/M09 A2954 RMK AO2 T10501090
KY50,2023-04-05T20:56:00Z,KY50 052056Z AUTO 28021G27KT 10SM OVC036 07/M01 A2968 RMK AO2 PK WND 26028/2031 SLP056 6//// T00671006 51046 $
KY51,2023-04-05T20:55:00Z,KY51 052055Z AUTO 28014G26KT 10SM OVC028 02/M02 A2978 RMK AO1 T00241018
KY63,2023-04-05T20:55:00Z,KY63 052055Z AUTO 28012G16KT 1 1/2SM HZ M04/M07 A2975 RMK AO2 T10361074
KY70,2023-04-05T20:55:00Z,KY70 052055Z AUTO 24025G29KT 10SM BKN043 OVC050 21/12 A2964 RMK AO2 T02130121
KYIP,2023-04-05T20:53:00Z,KYIP 052053Z 15008KT 10SM -RA FEW038 OVC110 18/16 A2973 RMK AO2 RAE13B36 SLP064 P0001 60010 T01830161 58003
KYKM,2023-04-05T20:53:00Z,KYKM 052053Z AUTO 22008G19KT 10SM CLR 11/M05 A3012 RMK AO2 SLP205 T01111050 57015
KYKN,2023-04-05T21:09:00Z,KYKN 052109Z AUTO 28023G32KT 10SM OVC031 01/M08 A3004 RMK AO2 PK WND 29032/2103 FZRANO
KYNG,2023-04-05T20:51:00Z,KYNG 052051Z 20005KT 8SM -RA SCT047 OVC110 21/17 A2989 RMK AO2 SLP115 P0001 60002 T02110167 50006
KZER,2023-04-05T20:55:00Z,KZER 052055Z AUTO 12016KT 7SM CLR 14/13 A3005 RMK AO2
KZPH,2023-04-05T20:55:00Z,KZPH 052055Z AUTO 11012G17KT 10SM CLR 32/16 A3008 RMK A02 T03190163
KZZV,2023-04-05T20:53:00Z,KZZV 052053Z AUTO 21019G28KT 10SM BKN090 29/12 A2984 RMK AO2 PK WND 20028/2052 LTG DSNT NW SLP096 T02940117 58016
LATI,2023-04-05T20:50:00Z,LATI 052050Z 16002KT 9999 FEW060 05/03 Q1014 NOSIG
LBBG,2023-04-05T21:00:00Z,LBBG 052100Z AUTO 23003KT 9999 -RA OVC034/// 07/06 Q1013 NOSIG
LBGO,2023-04-05T21:00:00Z,LBGO 052100Z AUTO 29007KT 9999 OVC037/// 05/00 Q1015
LBIA,2023-04-05T21:00:00Z,LBIA 052100Z 22002KT 9999 OVC040 07/07 Q1013
LBPD,2023-04-05T21:00:00Z,LBPD 052100Z AUTO 28019KT 9999 FEW058/// SCT100/// 04/M02 Q1014
LBPG,2023-04-05T21:00:00Z,LBPG 052100Z 24014KT 9999 FEW060 BKN100 02/M03 Q1014
LBPL,2023-04-05T21:00:00Z,LBPL 052100Z 27012KT 6000 BKN046 05/00 Q1014
LBSF,2023-04-05T21:00:00Z,LBSF 052100Z AUTO 28011KT 9999 FEW028/// M00/M04 Q1015 NOSIG
LBWN,2023-04-05T21:00:00Z,LBWN 052100Z AUTO 27007KT 9999 NSC 07/03 Q1012 NOSIG
LCEN,2023-04-05T20:50:00Z,LCEN 052050Z 31007KT 9999 FEW025 13/09 Q1014 NOSIG RMK RWY11 32007KT
LCLK,2023-04-05T20:30:00Z,LCLK 052030Z 23004KT 200V270 CAVOK 14/10 Q1014 NOSIG
LCPH,2023-04-05T20:30:00Z,LCPH 052030Z 31010KT 250V320 9999 SCT025 17/11 Q1015 NOSIG
LCRA,2023-04-05T20:50:00Z,LCRA 052050Z 26012KT 9999 FEW026 16/11 Q1015 NOSIG
LDDU,2023-04-05T21:00:00Z,LDDU 052100Z 03016KT 320V100 9999 BKN070 08/M04 Q1014 NOSIG
LDOS,2023-04-05T21:00:00Z,LDOS 052100Z 24007KT CAVOK 03/M02 Q1018
LDPL,2023-04-05T21:00:00Z,LDPL 052100Z 03006KT CAVOK 03/M06 Q1018
LDRI,2023-04-05T21:00:00Z,LDRI 052100Z 04006KT CAVOK 07/M08 Q1019
LDSP,2023-04-05T21:00:00Z,LDSP 052100Z 03014KT CAVOK 07/M05 Q1016 NOSIG
LDZA,2023-04-05T21:00:00Z,LDZA 052100Z 01002KT CAVOK 02/M05 Q1020 NOSIG
LDZD,2023-04-05T21:00:00Z,LDZD 052100Z 06011KT CAVOK 06/M07 Q1017 NOSIG
LEAB,2023-04-05T21:00:00Z,LEAB 052100Z 16008KT 130V200 CAVOK 11/04 Q1018 NOSIG
LEAG,2023-04-05T21:00:00Z,LEAG 052100Z AUTO 09015G25KT 060V130 CAVOK 17/10 Q1015
LEAL,2023-04-05T21:00:00Z,LEAL 052100Z 00000KT CAVOK 13/07 Q1019 NOSIG
LEAM,2023-04-05T21:00:00Z,LEAM 052100Z AUTO 05006KT 290V080 CAVOK 15/07 Q1017
LEAO,2023-04-05T21:00:00Z,LEAO 052100Z 10006KT CAVOK 11/M08 Q1016
LEAS,2023-04-05T21:00:00Z,LEAS 052100Z 14003KT 100V160 CAVOK 10/07 Q1021 NOSIG
LEBA,2023-04-05T21:00:00Z,LEBA 052100Z AUTO 28005KT CAVOK 14/01 Q1015
LEBB,2023-04-05T21:00:00Z,LEBB 052100Z VRB01KT CAVOK 10/06 Q1021 NOSIG
LEBG,2023-04-05T21:00:00Z,LEBG 052100Z AUTO 05006KT CAVOK 07/M03 Q1020
LEBL,2023-04-05T21:00:00Z,LEBL 052100Z 23004KT 9999 FEW020 12/09 Q1019 NOSIG
LEBR,2023-04-05T21:00:00Z,LEBR 052100Z AUTO 32006KT 290V350 9999 NSC 12/02 Q1018
LEBT,2023-04-05T21:00:00Z,LEBT 052100Z AUTO 36004KT 330V030 CAVOK 10/06 Q1019
LECH,2023-04-05T21:00:00Z,LECH 052100Z AUTO 20004KT CAVOK 10/08 Q1019
LECO,2023-04-05T21:00:00Z,LECO 052100Z 33004KT 290V360 CAVOK 11/08 Q1020 NOSIG
LEDA,2023-04-05T21:00:00Z,LEDA 052100Z AUTO 11009KT 080V140 CAVOK 11/M01 Q1017
LEGE,2023-04-05T21:00:00Z,LEGE 052100Z 00000KT CAVOK 07/04 Q1019
LEGR,2023-04-05T21:00:00Z,LEGR 052100Z 00000KT CAVOK 13/04 Q1016
LEHC,2023-04-05T21:00:00Z,LEHC 052100Z AUTO VRB03KT CAVOK 08/M03 Q1017
LEIB,2023-04-05T21:00:00Z,LEIB 052100Z 15004KT CAVOK 13/06 Q1019 NOSIG
LEJR,2023-04-05T21:00:00Z,LEJR 052100Z 11006KT 070V160 CAVOK 17/M07 Q1014
LELC,2023-04-05T21:00:00Z,LELC 052100Z 06005KT 030V100 CAVOK 15/09 Q1019 NOSIG
LELL,2023-04-05T21:00:00Z,LELL 052100Z AUTO 30003KT CAVOK 10/07 Q1019
LELN,2023-04-05T21:00:00Z,LELN 052100Z AUTO 34005KT CAVOK 09/M07 Q1019
LELO,2023-04-05T21:00:00Z,LELO 052100Z AUTO 16003KT 120V190 CAVOK 09/M03 Q1019
LEMD,2023-04-05T21:00:00Z,LEMD 052100Z 34007KT 310V010 CAVOK 14/M05 Q1017 NOSIG
LEMG,2023-04-05T21:00:00Z,LEMG 052100Z 29002KT CAVOK 14/10 Q1016 NOSIG
LEMH,2023-04-05T21:00:00Z,LEMH 052100Z VRB02KT 9999 FEW035 12/06 Q1020
LEMI,2023-04-05T21:00:00Z,LEMI 052100Z AUTO 36005KT CAVOK 12/06 Q1019
LEMO,2023-04-05T21:00:00Z,LEMO 052100Z 13009KT CAVOK 17/M05 Q1014 NOSIG
LEPA,2023-04-05T21:00:00Z,LEPA 052100Z VRB01KT 9999 FEW025 10/07 Q1020 NOSIG
LEPP,2023-04-05T21:00:00Z,LEPP 052100Z 30004KT CAVOK 09/03 Q1019
LERS,2023-04-05T21:00:00Z,LERS 052100Z 03004KT 9999 SCT015 11/10 Q1019
LERT,2023-04-05T21:00:00Z,LERT 052100Z 10012KT CAVOK 18/M08 Q1013 NOSIG
LESA,2023-04-05T21:00:00Z,LESA 052100Z AUTO 24001KT 9000 NCD 09/M08 Q1018
LESB,2023-04-05T21:00:00Z,LESB 052100Z AUTO 01003KT 9999 SCT030/// 12/08 Q1020
LESO,2023-04-05T21:00:00Z,LESO 052100Z AUTO 20003KT CAVOK 10/06 Q1021
LEST,2023-04-05T21:00:00Z,LEST 052100Z 32004KT 290V360 CAVOK 10/07 Q1020 NOSIG
LETL,2023-04-05T21:00:00Z,LETL 052100Z AUTO 22004KT 190V260 CAVOK 06/M06 Q1019
LETO,2023-04-05T21:00:00Z,LETO 052100Z 01008KT CAVOK 12/M10 Q1016 NOSIG
LETU,2023-04-05T21:00:00Z,LETU 052100Z AUTO 26007KT 9999 NSC 13/M02 Q1018
LEVC,2023-04-05T21:00:00Z,LEVC 052100Z 01006KT CAVOK 14/10 Q1019 NOSIG
LEVD,2023-04-05T21:00:00Z,LEVD 052100Z AUTO 02008KT CAVOK 06/M06 Q1018
LEVS,2023-04-05T21:00:00Z,LEVS 052100Z AUTO VRB02KT CAVOK 15/M08 Q1017
LEVT,2023-04-05T21:00:00Z,LEVT 052100Z 04004KT CAVOK 06/02 Q1020
LEVX,2023-04-05T21:00:00Z,LEVX 052100Z 01005KT 340V040 CAVOK 14/04 Q1018 NOSIG
LEXJ,2023-04-05T21:00:00Z,LEXJ 052100Z 07002KT CAVOK 10/07 Q1021
LEZG,2023-04-05T21:00:00Z,LEZG 052100Z 28011KT CAVOK 14/M02 Q1017
LEZL,2023-04-05T21:00:00Z,LEZL 052100Z 14006KT CAVOK 18/01 Q1014 NOSIG
LFAC,2023-04-05T20:00:00Z,LFAC 052000Z AUTO 22004KT CAVOK 08/03 Q1019
LFAQ,2023-04-05T21:00:00Z,LFAQ 052100Z AUTO 28004KT 190V300 CAVOK 08/02 Q1019
LFAT,2023-04-05T21:00:00Z,LFAT 052100Z AUTO 22003KT CAVOK 08/05 Q1019
LFBA,2023-04-05T21:00:00Z,LFBA 052100Z AUTO 00000KT CAVOK 06/00 Q1020
LFBC,2023-04-05T21:00:00Z,LFBC 052100Z AUTO 36004KT CAVOK 09/06 Q1021
LFBD,2023-04-05T21:00:00Z,LFBD 052100Z AUTO 34006KT 330V030 CAVOK 11/03 Q1021 NOSIG
LFBE,2023-04-05T21:00:00Z,LFBE 052100Z AUTO 23003KT CAVOK 07/M00 Q1020
LFBG,2023-04-05T21:00:00Z,LFBG 052100Z AUTO 34003KT CAVOK 11/04 Q1021
LFBH,2023-04-05T21:00:00Z,LFBH 052100Z AUTO 32009KT CAVOK 10/05 Q1021 NOSIG
LFBI,2023-04-05T21:00:00Z,LFBI 052100Z AUTO 30003KT 270V340 CAVOK 09/03 Q1021 NOSIG
LFBL,2023-04-05T21:00:00Z,LFBL 052100Z AUTO 01004KT CAVOK 09/M04 Q1020 NOSIG
LFBM,2023-04-05T21:00:00Z,LFBM 052100Z AUTO 29003KT CAVOK 09/03 Q1021 NOSIG
LFBO,2023-04-05T21:00:00Z,LFBO 052100Z AUTO 22004KT CAVOK 10/M02 Q1020 NOSIG
LFBP,2023-04-05T21:00:00Z,LFBP 052100Z AUTO 27004KT CAVOK 09/04 Q1020 NOSIG
LFBT,2023-04-05T21:00:00Z,LFBT 052100Z AUTO 17006KT CAVOK 06/02 Q1020 NOSIG
LFBU,2023-04-05T21:00:00Z,LFBU 052100Z AUTO 36004KT CAVOK 10/01 Q1021 NOSIG
LFBX,2023-04-05T21:00:00Z,LFBX 052100Z AUTO 00000KT CAVOK 07/01 Q1020
LFBY,2023-04-05T21:00:00Z,LFBY 052100Z AUTO 27003KT 9999 // ////// 10/04 Q1021
LFBZ,2023-04-05T21:00:00Z,LFBZ 052100Z AUTO 18002KT CAVOK 10/05 Q1021 NOSIG
LFCK,2023-04-05T21:00:00Z,LFCK 052100Z AUTO 08002KT CAVOK 07/M01 Q1020 NOSIG
LFCR,2023-04-05T21:00:00Z,LFCR 052100Z AUTO 32006KT CAVOK 07/M04 Q1019 NOSIG
LFGA,2023-04-05T21:00:00Z,LFGA 052100Z AUTO 27007KT CAVOK 05/M04 Q1020
LFGJ,2023-04-05T21:00:00Z,LFGJ 052100Z AUTO 04003KT CAVOK 04/M01 Q1020
LFJL,2023-04-05T21:00:00Z,LFJL 052100Z AUTO 16008KT CAVOK 04/M03 Q1019 NOSIG
LFJR,2023-04-05T21:00:00Z,LFJR 052100Z AUTO 00000KT CAVOK 08/04 Q1020
LFKB,2023-04-05T21:00:00Z,LFKB 052100Z AUTO 24003KT CAVOK 05/M02 Q1017 NOSIG
LFKC,2023-04-05T21:00:00Z,LFKC 052100Z AUTO 16007KT CAVOK 04/M02 Q1018
LFKF,2023-04-05T21:00:00Z,LFKF 052100Z AUTO 05004KT CAVOK 01/M00 Q1017 NOSIG
LFKJ,2023-04-05T21:00:00Z,LFKJ 052100Z AUTO 08006KT CAVOK 07/01 Q1017 NOSIG
LFKS,2023-04-05T21:00:00Z,LFKS 052100Z AUTO 26006KT 230V290 CAVOK 08/00 Q1017
LFLB,2023-04-05T21:00:00Z,LFLB 052100Z AUTO VRB02KT CAVOK 04/00 Q1019
LFLC,2023-04-05T21:00:00Z,LFLC 052100Z AUTO 24003KT CAVOK 04/M03 Q1020 NOSIG
LFLL,2023-04-05T21:00:00Z,LFLL 052100Z 29005KT 270V330 CAVOK 06/M03 Q1020 NOSIG
LFLN,2023-04-05T21:00:00Z,LFLN 052100Z AUTO VRB02KT CAVOK 03/M02 Q1020
LFLP,2023-04-05T21:00:00Z,LFLP 052100Z AUTO VRB02KT CAVOK 05/M02 Q1019
LFLS,2023-04-05T21:00:00Z,LFLS 052100Z AUTO 13004KT 100V160 CAVOK 04/M03 Q1019
LFLW,2023-04-05T21:00:00Z,LFLW 052100Z AUTO 11004KT 090V150 CAVOK 04/M04 Q1019 NOSIG
LFLX,2023-04-05T21:00:00Z,LFLX 052100Z AUTO 25001KT CAVOK 07/02 Q1020 NOSIG
LFLY,2023-04-05T21:00:00Z,LFLY 052100Z AUTO VRB02KT CAVOK 05/M02 Q1020 NOSIG
LFMC,2023-04-05T21:00:00Z,LFMC 052100Z AUTO VRB01KT 9999 ////// 08/06 Q1017
LFMD,2023-04-05T21:00:00Z,LFMD 052100Z AUTO VRB02KT 9999 BKN100 09/05 Q1017 NOSIG
LFMH,2023-04-05T21:00:00Z,LFMH 052100Z AUTO VRB03KT CAVOK 02/M02 Q1020
LFMI,2023-04-05T21:00:00Z,LFMI 052100Z AUTO 01019KT CAVOK 13/M07 Q1017 BECMG 35015G25KT
LFMK,2023-04-05T21:00:00Z,LFMK 052100Z AUTO 28003KT CAVOK 09/M01 Q1019
LFML,2023-04-05T21:00:00Z,LFML 052100Z AUTO 34020KT 9999 FEW019 13/M05 Q1017 BECMG 34005KT
LFMN,2023-04-05T21:00:00Z,LFMN 052100Z 32008KT 300V360 9999 BKN083 10/07 Q1017 NOSIG
LFMO,2023-04-05T21:00:00Z,LFMO 052100Z AUTO 35013KT CAVOK 11/M06 Q1018 BECMG 35015G25KT
LFMP,2023-04-05T21:00:00Z,LFMP 052100Z AUTO 30007KT CAVOK 14/M04 Q1019 NOSIG
LFMT,2023-04-05T21:00:00Z,LFMT 052100Z AUTO 04008KT CAVOK 10/M03 Q1019 NOSIG
LFMU,2023-04-05T21:00:00Z,LFMU 052100Z AUTO 01005KT CAVOK 12/M02 Q1019
LFMV,2023-04-05T21:00:00Z,LFMV 052100Z AUTO 35010KT CAVOK 10/M06 Q1018
LFMY,2023-04-05T21:00:00Z,LFMY 052100Z AUTO 34013KT 300V360 CAVOK 12/M09 Q1017
LFOA,2023-04-05T21:00:00Z,LFOA 052100Z AUTO 16002KT CAVOK 08/01 Q1020 NOSIG
LFOB,2023-04-05T21:00:00Z,LFOB 052100Z AUTO 35004KT CAVOK 08/04 Q1019 NOSIG
LFOE,2023-04-05T21:00:00Z,LFOE 052100Z AUTO 31004KT CAVOK 09/03 Q1019 NOSIG
LFOH,2023-04-05T21:00:00Z,LFOH 052100Z AUTO 26003KT CAVOK 08/04 Q1020
LFOJ,2023-04-05T21:00:00Z,LFOJ 052100Z AUTO 24004KT CAVOK 09/02 Q1019 NOSIG
LFOK,2023-04-05T21:00:00Z,LFOK 052100Z AUTO 16005KT CAVOK 05/01 Q1020 NOSIG
LFOP,2023-04-05T21:00:00Z,LFOP 052100Z AUTO 32004KT CAVOK 09/01 Q1019
LFOT,2023-04-05T21:00:00Z,LFOT 052100Z AUTO 29002KT CAVOK 11/01 Q1020 NOSIG
LFOV,2023-04-05T21:00:00Z,LFOV 052100Z AUTO 23005KT CAVOK 10/04 Q1020
LFOZ,2023-04-05T21:00:00Z,LFOZ 052100Z AUTO 17001KT CAVOK 07/03 Q1020
LFPB,2023-04-05T21:00:00Z,LFPB 052100Z AUTO 10003KT CAVOK 11/M01 Q1019 NOSIG
LFPG,2023-04-05T21:00:00Z,LFPG 052100Z 13005KT CAVOK 12/M01 Q1019 NOSIG
LFPM,2023-04-05T21:00:00Z,LFPM 052100Z AUTO 12005KT CAVOK 08/02 Q1019
LFPN,2023-04-05T21:00:00Z,LFPN 052100Z AUTO 23004KT CAVOK 09/M01 Q1019
LFPO,2023-04-05T21:00:00Z,LFPO 052100Z 26003KT CAVOK 11/M02 Q1019 NOSIG
LFPT,2023-04-05T21:00:00Z,LFPT 052100Z AUTO 31004KT CAVOK 09/03 Q1019
LFPV,2023-04-05T21:00:00Z,LFPV 052100Z AUTO 00000KT CAVOK 10/01 Q1019 NOSIG
LFQA,2023-04-05T21:00:00Z,LFQA 052100Z AUTO 08005KT CAVOK 06/02 Q1019
LFQB,2023-04-05T21:00:00Z,LFQB 052100Z AUTO 20006KT CAVOK 03/01 Q1020
LFQQ,2023-04-05T21:00:00Z,LFQQ 052100Z AUTO 16001KT CAVOK 09/03 Q1019 NOSIG
LFRB,2023-04-05T21:00:00Z,LFRB 052100Z AUTO 21011KT 9999 BKN011 BKN035 BKN042 10/08 Q1020 TEMPO 3000 RADZ BKN008
LFRC,2023-04-05T21:00:00Z,LFRC 052100Z AUTO 23007KT 9999 -RA FEW020 BKN025 BKN049 07/06 Q1019
LFRD,2023-04-05T21:00:00Z,LFRD 052100Z AUTO 32003KT 9000 -RA BKN014/// BKN049/// OVC078/// //////TCU 08/07 Q1021 TEMPO BKN010 BECMG 21010KT
LFRG,2023-04-05T21:00:00Z,LFRG 052100Z AUTO 29003KT CAVOK 08/04 Q1020
LFRH,2023-04-05T21:00:00Z,LFRH 052100Z AUTO 30004KT 9999 -RA SCT018/// BKN066/// BKN084/// //////TCU 09/07 Q1021 BECMG NSC
LFRI,2023-04-05T21:00:00Z,LFRI 052100Z AUTO 29004KT CAVOK 07/04 Q1021 NOSIG
LFRJ,2023-04-05T21:00:00Z,LFRJ 052100Z AUTO 21009KT 9999 BKN035 OVC043 09/08 Q1020
LFRK,2023-04-05T21:00:00Z,LFRK 052100Z AUTO 27005KT 9999 -DZ SCT045 BKN060 OVC076 09/06 Q1020
LFRL,2023-04-05T21:00:00Z,LFRL 052100Z AUTO 21007KT 9999 FEW015 BKN042 BKN054 09/08 Q1020 TEMPO BKN008 BKN012
LFRM,2023-04-05T21:00:00Z,LFRM 052100Z AUTO 21001KT CAVOK 10/04 Q1020 NOSIG
LFRN,2023-04-05T21:00:00Z,LFRN 052100Z AUTO 31005KT 9999 -RA OVC047 09/07 Q1021 NOSIG
LFRO,2023-04-05T21:00:00Z,LFRO 052100Z AUTO 18006KT 9999 FEW038 BKN074 BKN086 07/06 Q1020
LFRQ,2023-04-05T21:00:00Z,LFRQ 052100Z AUTO 17003KT 9999 FEW019 SCT050 BKN092 07/06 Q1021 TEMPO 4000 -RA BECMG BKN012
LFRS,2023-04-05T21:00:00Z,LFRS 052100Z AUTO 27005KT CAVOK 09/06 Q1021 NOSIG
LFRT,2023-04-05T21:00:00Z,LFRT 052100Z AUTO 22005KT 9999 -RADZ OVC044/// //////TCU 08/05 Q1020
LFRU,2023-04-05T20:00:00Z,LFRU 052000Z AUTO 18004KT 140V230 9999 DZ FEW021 SCT054 OVC070 08/06 Q1020
LFRV,2023-04-05T21:00:00Z,LFRV 052100Z AUTO 28006KT 9999 -RA BKN045 BKN062 BKN074 09/06 Q1021
LFRZ,2023-04-05T21:00:00Z,LFRZ 052100Z AUTO 27005KT CAVOK 10/07 Q1021 NOSIG
LFSB,2023-04-05T21:00:00Z,LFSB 052100Z AUTO VRB02KT 9999 FEW015 01/M01 Q1020 NOSIG
LFSD,2023-04-05T21:00:00Z,LFSD 052100Z AUTO 31004KT CAVOK 04/M02 Q1020
LFSG,2023-04-05T21:00:00Z,LFSG 052100Z AUTO 25004KT CAVOK 01/M03 Q1020
LFSI,2023-04-05T21:00:00Z,LFSI 052100Z AUTO 10004KT CAVOK 03/M01 Q1020
LFSL,2023-04-05T21:00:00Z,LFSL 052100Z AUTO 34004KT CAVOK 08/M02 Q1020
LFSN,2023-04-05T21:00:00Z,LFSN 052100Z AUTO 13002KT CAVOK 02/M01 Q1020
LFSO,2023-04-05T21:00:00Z,LFSO 052100Z AUTO 22004KT CAVOK 04/M03 Q1020
LFST,2023-04-05T21:00:00Z,LFST 052100Z AUTO 28003KT CAVOK 03/M03 Q1020 NOSIG
LFSX,2023-04-05T21:00:00Z,LFSX 052100Z AUTO VRB02KT CAVOK 02/M03 Q1020
LFTH,2023-04-05T21:00:00Z,LFTH 052100Z AUTO 02005KT CAVOK 07/06 Q1017 NOSIG
LFTW,2023-04-05T21:00:00Z,LFTW 052100Z AUTO 01009KT CAVOK 11/M03 Q1018
LFVP,2023-04-05T21:00:00Z,LFVP 052100Z AUTO 30029G40KT CAVOK M01/M08 Q1024
LFYR,2023-04-05T21:00:00Z,LFYR 052100Z AUTO 00000KT CAVOK 07/04 Q1020
LGAD,2023-04-05T20:50:00Z,LGAD 052050Z VRB03KT 9999 FEW018 SCT080 10/09 Q1014
LGAL,2023-04-05T20:50:00Z,LGAL 052050Z 00000KT 9999 FEW015 BKN030 08/07 Q1014
LGAV,2023-04-05T20:50:00Z,LGAV 052050Z 25005KT 200V280 CAVOK 11/07 Q1014 NOSIG
LGBL,2023-04-05T20:50:00Z,LGBL 052050Z 00000KT 9999 SCT030 SCT070 10/07 Q1013
LGEL,2023-04-05T20:50:00Z,LGEL 052050Z 00000KT 9999 BKN025 13/03 Q1013
LGHI,2023-04-05T20:50:00Z,LGHI 052050Z 21002KT 9999 FEW014 09/07 Q1013
LGIO,2023-04-05T20:50:00Z,LGIO 052050Z AUTO VRB02KT //// // ////// 07/06 Q1013 RERA
LGIR,2023-04-05T20:50:00Z,LGIR 052050Z 18007KT 9999 FEW025 12/09 Q1016 NOSIG
LGKL,2023-04-05T20:50:00Z,LGKL 052050Z 18004KT 9999 FEW030TCU BKN080 09/08 Q1015
LGKO,2023-04-05T20:50:00Z,LGKO 052050Z /////KT 9999 FEW018 15/08 Q1014
LGKP,2023-04-05T21:00:00Z,LGKP 052100Z AUTO VRB03KT //// -RA ////// 14/10 Q1016 RE//
LGKR,2023-04-05T20:50:00Z,LGKR 052050Z 00000KT 9999 FEW030 SCT080 11/06 Q1013 NOSIG
LGKZ,2023-04-05T20:50:00Z,LGKZ 052050Z AUTO 35008KT 290V020 //// // ////// 05/M02 Q1013 RE//
LGLM,2023-04-05T20:50:00Z,LGLM 052050Z 00000KT 9999 SCT018 06/05 Q1013
LGMK,2023-04-05T20:20:00Z,LGMK 052020Z 20004KT 9999 FEW020 14/09 Q1014
LGMT,2023-04-05T20:50:00Z,LGMT 052050Z 00000KT 9999 SCT025 12/07 Q1013
LGPZ,2023-04-05T20:50:00Z,LGPZ 052050Z 00000KT 9999 DZ SCT020 SCT030 BKN080 11/08 Q1013
LGRP,2023-04-05T20:50:00Z,LGRP 052050Z 27009KT 9999 FEW018 15/09 Q1014 NOSIG
LGSA,2023-04-05T20:50:00Z,LGSA 052050Z 26004KT 9999 FEW020 13/10 Q1014
LGSM,2023-04-05T20:50:00Z,LGSM 052050Z 00000KT 9999 FEW020 12/09 Q1014
LGSO,2023-04-05T20:50:00Z,LGSO 052050Z AUTO 21006KT //// // ////// 14/10 Q1014 RE//
LGSR,2023-04-05T20:50:00Z,LGSR 052050Z 26013KT 9999 FEW025 15/09 Q1015 RMK FEW080 BLU
LGTS,2023-04-05T20:50:00Z,LGTS 052050Z 35008KT 9999 FEW025 11/M00 Q1014 NOSIG
LHBP,2023-04-05T21:00:00Z,LHBP 052100Z 11009KT CAVOK 02/M07 Q1018 NOSIG
LHDC,2023-04-05T20:45:00Z,LHDC 052045Z AUTO 36012KT 330V030 CAVOK 04/M07 Q1017 NOSIG
LHKE,2023-04-05T20:45:00Z,LHKE 052045Z 08004KT CAVOK 02/M07 Q1018 NOSIG RMK BLU
LHPA,2023-04-05T20:45:00Z,LHPA 052045Z 32008KT CAVOK M00/M06 Q1020 NOSIG RMK BLU
LHPP,2023-04-05T20:45:00Z,LHPP 052045Z AUTO 24001KT 9999 ////// 03/M06 Q1018
LHPR,2023-04-05T20:45:00Z,LHPR 052045Z AUTO 31008KT CAVOK M00/M08 Q1020
LHSM,2023-04-05T20:45:00Z,LHSM 052045Z AUTO 34008KT CAVOK 01/M06 Q1020
LHSN,2023-04-05T20:45:00Z,LHSN 052045Z 04010KT CAVOK 02/M06 Q1018 NOSIG RMK BLU
LIBA,2023-04-05T20:55:00Z,LIBA 052055Z 30005KT 9999 SCT030 BKN050 09/02 Q1015 RMK OVC VIS MIN 9999 WIND THR11 31005KT WIND THR29 /////KT BLU
LIBD,2023-04-05T20:50:00Z,LIBD 052050Z 36004KT 320V040 9999 -RA BKN040 09/03 Q1015
LIBF,2023-04-05T20:50:00Z,LIBF 052050Z 32008KT 9999 BKN040 08/02 Q1016
LIBN,2023-04-05T20:55:00Z,LIBN 052055Z 07002KT 6000 -RA OVC030 09/09 Q1013 RMK OVC VIS MIN 6000 WIND THR14 06001KT WIND THR32 08002KT WHT
LIBP,2023-04-05T20:50:00Z,LIBP 052050Z AUTO 23005KT 9999 OVC052/// 07/03 Q1018
LIBQ,2023-04-05T20:55:00Z,LIBQ 052055Z AUTO 26006KT //// M00/M01 Q1009
LIBR,2023-04-05T20:50:00Z,LIBR 052050Z 20004KT 8000 SHRA BKN035 10/07 Q1013
LIBV,2023-04-05T20:55:00Z,LIBV 052055Z 34009KT 7000 -RA SCT025 BKN040 06/05 Q1013
LICA,2023-04-05T20:50:00Z,LICA 052050Z AUTO 23003KT 170V290 9999 -RA BKN033/// 09/09 Q1013
LICB,2023-04-05T20:50:00Z,LICB 052050Z AUTO 29009KT 9999 -RA BKN050/// 10/07 Q1015
LICC,2023-04-05T20:50:00Z,LICC 052050Z 26010KT CAVOK 11/05 Q1014
LICD,2023-04-05T20:50:00Z,LICD 052050Z AUTO 34008KT 9999 FEW024/// SCT080/// 14/08 Q1017
LICJ,2023-04-05T20:50:00Z,LICJ 052050Z 27019KT 9999 FEW060 13/05 Q1016
LICR,2023-04-05T20:50:00Z,LICR 052050Z AUTO 36007KT 330V030 9999 FEW053/// BKN110/// 11/05 Q1014
LICT,2023-04-05T20:55:00Z,LICT 052055Z 31012KT 9999 FEW020 11/06 Q1016 RMK FEW VIS MIN 9999 WIND THR13 32017KT BLU
LICZ,2023-04-05T20:55:00Z,LICZ 052055Z /////KT 9999 FEW050 SCT070 10/06 Q1013 RMK BKN VIS MIN 9999 WIND THR28 28014KT WIND THR10 28012KT A2994 BLU
LIEA,2023-04-05T20:50:00Z,LIEA 052050Z 24003KT 9999 -SHRA SCT035 09/07 Q1017
LIEB,2023-04-05T20:55:00Z,LIEB 052055Z 28010KT CAVOK 07/04 Q1015 RMK SKC QUK / QUL / VIS MAR 30 KM MON INVIS VIS MIN 9999
LIED,2023-04-05T20:55:00Z,LIED 052055Z 12004KT 9999 FEW020 09/08 Q1017 RMK FEW VIS MIN 9999 WIND THR35 /////KT WIND THR17 11003KT BLU
LIEE,2023-04-05T20:50:00Z,LIEE 052050Z 04004KT CAVOK 09/05 Q1018
LIEO,2023-04-05T20:50:00Z,LIEO 052050Z 24004KT CAVOK 05/02 Q1018
LIMC,2023-04-05T20:50:00Z,LIMC 052050Z 13003KT 080V250 CAVOK 06/M03 Q1018 NOSIG
LIME,2023-04-05T20:50:00Z,LIME 052050Z 06002KT CAVOK 06/M03 Q1018 NOSIG
LIMF,2023-04-05T20:50:00Z,LIMF 052050Z 36006KT CAVOK 06/M03 Q1017
LIMH,2023-04-05T20:55:00Z,LIMH 052055Z AUTO 05022KT //// M16/M18 Q1009
LIMJ,2023-04-05T20:50:00Z,LIMJ 052050Z 04008KT CAVOK 11/M03 Q1017
LIML,2023-04-05T20:50:00Z,LIML 052050Z 15004KT 120V180 CAVOK 08/M03 Q1018 NOSIG
LIMP,2023-04-05T20:50:00Z,LIMP 052050Z 13007KT CAVOK 06/M06 Q1018
LIMZ,2023-04-05T20:50:00Z,LIMZ 052050Z AUTO 23003KT 200V260 9999 NCD 03/M01 Q1017
LIPB,2023-04-05T20:50:00Z,LIPB 052050Z 17005KT 9999 FEW100 08/M03 Q1017
LIPC,2023-04-05T20:55:00Z,LIPC 052055Z 28003KT CAVOK 02/M01 Q1018 RMK SKC VIS MIN 9999 WIND THR11 27003KT WIND THR29 29004KT BLU
LIPE,2023-04-05T20:50:00Z,LIPE 052050Z VRB02KT CAVOK 04/M05 Q1019
LIPH,2023-04-05T20:50:00Z,LIPH 052050Z VRB02KT CAVOK 06/M04 Q1019
LIPI,2023-04-05T20:55:00Z,LIPI 052055Z 08008KT CAVOK 05/M01 Q1018
LIPK,2023-04-05T20:50:00Z,LIPK 052050Z VRB01KT CAVOK 01/M06 Q1019
LIPL,2023-04-05T20:55:00Z,LIPL 052055Z 07004KT CAVOK 07/02 Q1017
LIPO,2023-04-05T20:50:00Z,LIPO 052050Z AUTO 11005KT 9999 BKN100/// 07/M04 Q1019
LIPQ,2023-04-05T20:50:00Z,LIPQ 052050Z AUTO 13006KT 9999 NCD 05/M06 Q1019
LIPR,2023-04-05T20:50:00Z,LIPR 052050Z AUTO VRB02KT 9999 NCD 04/M02 Q1018
LIPS,2023-04-05T20:55:00Z,LIPS 052055Z /////KT CAVOK 06/M02 Q1018 RMK SKC VIS MIN 9999 WIND THR26 00000KT WIND THR08 00000KT BLU
LIPX,2023-04-05T20:50:00Z,LIPX 052050Z 07003KT CAVOK 05/M06 Q1019
LIPY,2023-04-05T20:50:00Z,LIPY 052050Z AUTO 19003KT 9999 FEW230/// 04/02 Q1018
LIPZ,2023-04-05T20:50:00Z,LIPZ 052050Z 25005KT CAVOK 06/M04 Q1019 NOSIG
LIRA,2023-04-05T20:50:00Z,LIRA 052050Z 06003KT 9999 BKN060 08/06 Q1015
LIRE,2023-04-05T20:55:00Z,LIRE 052055Z 03004KT 9999 SCT040 SCT070 09/07 Q1015
LIRF,2023-04-05T20:50:00Z,LIRF 052050Z 33004KT 300V360 9999 FEW050 07/05 Q1015 NOSIG
LIRK,2023-04-05T20:55:00Z,LIRK 052055Z AUTO /////KT //// ///// Q////
LIRM,2023-04-05T20:55:00Z,LIRM 052055Z 33005KT 9999 BKN070 05/03 Q1015
LIRN,2023-04-05T20:50:00Z,LIRN 052050Z 07007KT 9999 SCT050 08/01 Q1014 NOSIG
LIRP,2023-04-05T20:45:00Z,LIRP 052045Z 13010KT CAVOK 05/00 Q1016 NOSIG
LIRQ,2023-04-05T20:50:00Z,LIRQ 052050Z VRB02KT CAVOK 06/M05 Q1018
LIRZ,2023-04-05T20:50:00Z,LIRZ 052050Z AUTO 01007KT 9999 NCD 04/M01 Q1016
LIVC,2023-04-05T20:55:00Z,LIVC 052055Z AUTO /////KT //// M09/M22 Q1012
LIVD,2023-04-05T20:55:00Z,LIVD 052055Z AUTO 34002KT //// M00/M10 Q1016
LIVE,2023-04-05T20:55:00Z,LIVE 052055Z 02004KT CAVOK 00/M10 Q1014 RMK SKC VIS MIN 9999
LIVF,2023-04-05T20:55:00Z,LIVF 052055Z 05005KT 9999 BKN028 02/M03 Q1015
LIVM,2023-04-05T20:55:00Z,LIVM 052055Z AUTO /////KT //// ///// Q////
LIVP,2023-04-05T20:55:00Z,LIVP 052055Z VRB03KT CAVOK M05/M09 Q1011
LIVT,2023-04-05T20:55:00Z,LIVT 052055Z AUTO 06008KT 360V110 //// 08/M07 Q1019
LJCE,2023-04-05T21:00:00Z,LJCE 052100Z AUTO 00000KT 9999 NSC 00/M05 Q1020
LJLJ,2023-04-05T21:00:00Z,LJLJ 052100Z 13007KT 9999 FEW070 01/M06 Q1019 NOSIG
LJMB,2023-04-05T21:00:00Z,LJMB 052100Z AUTO 32003KT 9999 NSC 01/M06 Q1020
LJPZ,2023-04-05T21:00:00Z,LJPZ 052100Z AUTO 12005KT 9999 NCD 02/M03 Q1019
LKCV,2023-04-05T21:00:00Z,LKCV 052100Z 25005KT CAVOK 00/M03 Q1021 NOSIG RMK BLU BLU
LKKB,2023-04-05T21:00:00Z,LKKB 052100Z 03003KT CAVOK 02/M05 Q1021
LKKU,2023-04-05T20:00:00Z,LKKU 052000Z 01004KT CAVOK 00/M06 Q1021
LKKV,2023-04-05T21:00:00Z,LKKV 052100Z 13004KT CAVOK M00/M05 Q1020
LKLN,2023-04-05T21:00:00Z,LKLN 052100Z AUTO VRB02KT CAVOK M01/M06 Q1021
LKMT,2023-04-05T21:00:00Z,LKMT 052100Z 07001KT CAVOK M00/M06 Q1020 NOSIG
LKNA,2023-04-05T21:00:00Z,LKNA 052100Z 32005KT CAVOK 00/M07 Q1020 RMK BLU
LKPD,2023-04-05T21:00:00Z,LKPD 052100Z VRB02KT CAVOK 02/M04 Q1021 RMK BLACK
LKPR,2023-04-05T21:00:00Z,LKPR 052100Z 36003KT 310V030 9999 FEW042 02/M05 Q1021 NOSIG
LKTB,2023-04-05T21:00:00Z,LKTB 052100Z 03004KT CAVOK 00/M07 Q1021 NOSIG
LLBG,2023-04-05T20:50:00Z,LLBG 052050Z VRB03KT 9999 FEW025 16/12 Q1017 NOSIG
LMML,2023-04-05T20:45:00Z,LMML 052045Z 31008KT 9999 FEW020 12/08 Q1016 NOSIG
LOWG,2023-04-05T20:50:00Z,LOWG 052050Z 23002KT CAVOK 02/M08 Q1020 NOSIG
LOWI,2023-04-05T20:50:00Z,LOWI 052050Z AUTO VRB01KT 9999 BKN060 03/M05 Q1018
LOWK,2023-04-05T20:50:00Z,LOWK 052050Z AUTO 08007KT CAVOK 04/M08 Q1019 NOSIG
LOWL,2023-04-05T20:50:00Z,LOWL 052050Z AUTO 04006KT 9999 FEW060 01/M05 Q1021 NOSIG
LOWS,2023-04-05T20:50:00Z,LOWS 052050Z VRB02KT 9999 FEW120 M00/M04 Q1020 NOSIG
LOWW,2023-04-05T20:50:00Z,LOWW 052050Z 34006KT CAVOK 02/M06 Q1021 NOSIG
LOXZ,2023-04-05T20:50:00Z,LOXZ 052050Z 32001KT 9999 FEW060 SCT300 M02/M07 Q1018
LPAZ,2023-04-05T21:00:00Z,LPAZ 052100Z 05008KT 9999 FEW016 BKN042 15/12 Q1027
LPBJ,2023-04-05T21:00:00Z,LPBJ 052100Z 01009KT CAVOK 17/M03 Q1014
LPCS,2023-04-05T21:00:00Z,LPCS 052100Z 36016KT CAVOK 16/03 Q1016
LPFL,2023-04-05T20:00:00Z,LPFL 052000Z VRB02KT 9999 FEW010 SCT018 BKN040 17/12 Q1027
LPFR,2023-04-05T21:00:00Z,LPFR 052100Z 02005KT CAVOK 17/07 Q1014
LPHR,2023-04-05T21:00:00Z,LPHR 052100Z 31006KT 9999 FEW013 15/13 Q1028
LPLA,2023-04-05T21:00:00Z,LPLA 052100Z /////KT 9999 FEW018 SCT025 16/15 Q1028
LPMA,2023-04-05T21:00:00Z,LPMA 052100Z 35017KT 9999 FEW016 17/10 Q1018
LPMR,2023-04-05T21:00:00Z,LPMR 052100Z 35005KT CAVOK 14/10 Q1017
LPMT,2023-04-05T21:00:00Z,LPMT 052100Z 35009KT CAVOK 17/05 Q1015
LPPD,2023-04-05T21:00:00Z,LPPD 052100Z VRB02KT 9999 FEW008 SCT014 BKN030 15/13 Q1028
LPPR,2023-04-05T21:00:00Z,LPPR 052100Z 36005KT CAVOK 13/08 Q1017
LPPS,2023-04-05T21:00:00Z,LPPS 052100Z 01018KT 9999 SCT014 17/12 Q1018
LPPT,2023-04-05T21:00:00Z,LPPT 052100Z 33014KT 290V350 CAVOK 18/M01 Q1015
LQBK,2023-04-05T21:00:00Z,LQBK 052100Z 16005KT CAVOK 02/M01 Q1019 NOSIG
LQMO,2023-04-05T21:00:00Z,LQMO 052100Z 30005KT 230V040 9999 FEW050 SCT070 07/M05 Q1015
LQSA,2023-04-05T21:00:00Z,LQSA 052100Z 31005KT 9999 BKN040 BKN050 01/M04 Q1017
LQTZ,2023-04-05T21:00:00Z,LQTZ 052100Z 34003KT 280V010 9999 BKN040 02/01 Q1019
LRAR,2023-04-05T21:00:00Z,LRAR 052100Z 31005KT CAVOK 04/M00 Q1017
LRBC,2023-04-05T21:00:00Z,LRBC 052100Z 33011KT 3000 -SN BLSN BR SCT011 BKN015 00/M00 Q1012 RESN
LRBM,2023-04-05T21:00:00Z,LRBM 052100Z AUTO 28006KT 9999 BKN080/// 05/M02 Q1014
LRBS,2023-04-05T21:00:00Z,LRBS 052100Z 27008KT 230V310 9999 -RA BKN045 05/03 Q1012 NOSIG
LRCK,2023-04-05T21:00:00Z,LRCK 052100Z 28008KT 9999 OVC030 03/M01 Q1012 NOSIG
LRCL,2023-04-05T21:00:00Z,LRCL 052100Z 26005KT 9999 SCT054 04/M01 Q1014
LRCV,2023-04-05T21:00:00Z,LRCV 052100Z 27013KT 9999 -RA OVC039 03/01 Q1012
LRIA,2023-04-05T21:00:00Z,LRIA 052100Z 30014KT 1500 -SN OVC005 M00/M00 Q1010 RESN
LROD,2023-04-05T21:00:00Z,LROD 052100Z AUTO 36010KT 9999 BKN080/// 04/M05 Q1017
LROP,2023-04-05T21:00:00Z,LROP 052100Z 26010KT 9999 -RA SCT017 OVC036 05/05 Q1012 NOSIG
LRSB,2023-04-05T21:00:00Z,LRSB 052100Z 28004KT 6000 FEW007 BKN012 OVC028 02/01 Q1014
LRSM,2023-04-05T21:00:00Z,LRSM 052100Z AUTO 34009KT 9999 NCD 05/M00 Q1015
LRSV,2023-04-05T21:00:00Z,LRSV 052100Z 32023KT 0600 R34/1400D SN BLSN BKN010 00/M01 Q1011
LRTC,2023-04-05T21:00:00Z,LRTC 052100Z AUTO 31026KT 9999 FEW090/// BKN150/// 02/M02 Q1010 REUP
LRTM,2023-04-05T21:00:00Z,LRTM 052100Z AUTO 26006KT 9999 BKN045/// 04/00 Q1013
LRTR,2023-04-05T21:00:00Z,LRTR 052100Z 30007KT CAVOK 04/01 Q1017
LSGC,2023-04-05T20:50:00Z,LSGC 052050Z AUTO 00000KT CAVOK M02/M05 Q1018
LSGG,2023-04-05T20:50:00Z,LSGG 052050Z 06004KT CAVOK 07/M04 Q1019 NOSIG
LSGS,2023-04-05T20:50:00Z,LSGS 052050Z AUTO VRB02KT CAVOK 07/M07 Q1018
LSMA,2023-04-05T20:50:00Z,LSMA 052050Z AUTO 21004KT 160V250 9999NDV NCD 02/M03 Q1020 RMK
LSMD,2023-04-05T20:50:00Z,LSMD 052050Z AUTO 14003KT 9999NDV FEW091 03/M04 Q1019 RMK
LSME,2023-04-05T20:50:00Z,LSME 052050Z AUTO 00000KT 9999NDV NCD 01/M03 Q1019 RMK
LSMM,2023-04-05T20:50:00Z,LSMM 052050Z AUTO 11005KT 070V140 9999NDV NCD 02/M04 Q1019 RMK
LSMP,2023-04-05T20:50:00Z,LSMP 052050Z AUTO VRB01KT 9999NDV NCD 02/M02 Q1019 RMK
LSZA,2023-04-05T20:50:00Z,LSZA 052050Z AUTO VRB02KT CAVOK 05/M01 Q1018
LSZB,2023-04-05T20:50:00Z,LSZB 052050Z AUTO 11002KT CAVOK M01/M03 Q1019
LSZC,2023-04-05T20:50:00Z,LSZC 052050Z AUTO VRB03KT CAVOK 03/M04 Q1020
LSZG,2023-04-05T20:50:00Z,LSZG 052050Z AUTO VRB01KT CAVOK 02/M03 Q1019
LSZH,2023-04-05T20:50:00Z,LSZH 052050Z 00000KT 9999 SCT055 03/M03 Q1019 NOSIG
LSZL,2023-04-05T20:50:00Z,LSZL 052050Z AUTO 03003KT 340V060 9999NDV NCD 09/M03 Q1017 RMK
LSZR,2023-04-05T20:50:00Z,LSZR 052050Z AUTO VRB03KT CAVOK 01/M03 Q1019
LSZS,2023-04-05T20:50:00Z,LSZS 052050Z AUTO VRB02KT CAVOK M04/M13 Q1015
LTAC,2023-04-05T20:50:00Z,LTAC 052050Z 21005KT 9999 SCT026 BKN100 07/05 Q1011 NOSIG RMK RWY21L 19008KT RWY03L 20005KT RWY21R 22008KT
LTAE,2023-04-05T20:50:00Z,LTAE 052050Z 18004KT 150V210 9999 SCT040 BKN100 06/05 Q1011 NOSIG RMK RWY21 19004KT 160V220
LTAF,2023-04-05T20:50:00Z,LTAF 052050Z 15006KT 9999 SCT030 16/12 Q1010 NOSIG RMK RWY23 14006KT 3CU030
LTAG,2023-04-05T20:50:00Z,LTAG 052050Z 13007KT 9999 FEW030 SCT090 15/11 Q1010 NOSIG RMK 2CU030 4AC090
LTAI,2023-04-05T20:50:00Z,LTAI 052050Z 01011KT 9999 -SHRA FEW020CB BKN030 14/12 Q1013 RETSRA NOSIG RMK RWY18C 35011KT 330V030 RWY36R 35010KT RWY18L 35009KT
LTAJ,2023-04-05T20:50:00Z,LTAJ 052050Z 27006KT 9999 SCT013 SCT040 11/09 Q1013 NOSIG RMK RWY10 26004KT 230V290
LTAN,2023-04-05T20:50:00Z,LTAN 052050Z 35008KT 9999 -SHRA SCT035 BKN090 07/05 Q1013 NOSIG
LTAP,2023-04-05T20:50:00Z,LTAP 052050Z 29006KT 9999 SCT040 BKN100 07/07 Q1010 NOSIG RMK RWY23 31006KT
LTAR,2023-04-05T20:50:00Z,LTAR 052050Z 09003KT 070V200 9999 SCT030 BKN080 01/00 Q1012
LTAT,2023-04-05T20:50:00Z,LTAT 052050Z 02006KT 280V080 9999 -SHRA SCT040 BKN100 10/05 Q1012 NOSIG RMK RWY03 32005KT 260V340
LTAU,2023-04-05T20:50:00Z,LTAU 052050Z 28006KT 250V310 9999 -SHRA BKN030 BKN080 07/05 Q1012 NOSIG RMK RWY07 24008KT 190V260
LTAY,2023-04-05T20:50:00Z,LTAY 052050Z 27006KT 9999 SCT035 BKN100 07/05 Q1014 NOSIG
LTAZ,2023-04-05T20:50:00Z,LTAZ 052050Z 15007KT 9999 BKN025 BKN080 07/06 Q1012 RESHRA RMK RWY29 20005KT
LTBA,2023-04-05T20:50:00Z,LTBA 052050Z 07005KT 9999 SCT028 08/03 Q1014 RMK RWY23 08005KT 050V130
LTBD,2023-04-05T20:50:00Z,LTBD 052050Z 28004KT 9999 SCT040 BKN100 10/08 Q1015
LTBF,2023-04-05T20:50:00Z,LTBF 052050Z 23002KT 9999 FEW012 SCT035 07/07 Q1014 NOSIG
LTBH,2023-04-05T20:50:00Z,LTBH 052050Z 08003KT 9999 SCT035 08/07 Q1014
LTBJ,2023-04-05T20:50:00Z,LTBJ 052050Z 15003KT 9999 SCT030 08/07 Q1014 NOSIG RMK RWY16 13003KT
LTBQ,2023-04-05T20:50:00Z,LTBQ 052050Z 03005KT 9999 SCT010 OVC018 07/05 Q1015 NOSIG
LTBR,2023-04-05T20:50:00Z,LTBR 052050Z 11003KT 7000 FEW010 BKN025 BKN080 08/08 Q1013 NOSIG RMK RWY07 VRB02KT
LTBS,2023-04-05T20:50:00Z,LTBS 052050Z 02005KT 9999 FEW025 09/08 Q1014 NOSIG RMK RWY19 34004KT 1CU025
LTBU,2023-04-05T20:50:00Z,LTBU 052050Z 04004KT 9999 BKN021 06/05 Q1013 RMK RWY22 /////KT
LTBY,2023-04-05T20:50:00Z,LTBY 052050Z 25008KT 9999 BKN035 07/04 Q1012 RESHRA
LTCA,2023-04-05T20:50:00Z,LTCA 052050Z 28007KT 250V310 9999 SCT035 BKN100 12/03 Q1011 NOSIG
LTCB,2023-04-05T20:50:00Z,LTCB 052050Z 25008KT 210V300 9999 BKN008 BKN033 11/10 Q1013 RESHRA NOSIG
LTCC,2023-04-05T20:50:00Z,LTCC 052050Z 30010KT CAVOK 12/06 Q1011 NOSIG RMK RWY16 26012KT SKC
LTCD,2023-04-05T20:50:00Z,LTCD 052050Z 28010KT 9999 SCT045 BKN080 10/02 Q1012 NOSIG
LTCE,2023-04-05T20:50:00Z,LTCE 052050Z VRB02KT 9999 BKN035 BKN070 02/M05 Q1012 NOSIG RMK RWY08R 35004KT RWY26R VRB01KT RWY08L 36004KT 5SC035 7AC070
LTCF,2023-04-05T20:50:00Z,LTCF 052050Z 24004KT 9999 FEW040 SCT080 05/01 Q1012 NOSIG
LTCG,2023-04-05T20:50:00Z,LTCG 052050Z 28008KT 250V310 9999 SCT011 BKN028 12/10 Q1012 TEMPO FM2200 3500 SHRA BKN006 FEW020CB BKN025
LTCI,2023-04-05T20:50:00Z,LTCI 052050Z 34012KT 9999 SCT030 BKN070 08/05 Q1015 BECMG TL2150 09009KT
LTCJ,2023-04-05T20:50:00Z,LTCJ 052050Z 05002KT 9999 FEW040 08/05 Q1011 NOSIG RMK RWY20 VRB02KT 1CU040
LTCN,2023-04-05T20:50:00Z,LTCN 052050Z 00000KT 9999 -SHRA SCT030 BKN090 10/10 Q1013
LTCS,2023-04-05T20:50:00Z,LTCS 052050Z 28009KT 9999 FEW040 09/06 Q1012 RMK RWY22 24012KT 2CU040 2AC100
LTCT,2023-04-05T20:50:00Z,LTCT 052050Z 25006KT 9999 FEW040 BKN100 14/03 Q1010
LTCV,2023-04-05T20:50:00Z,LTCV 052050Z 26006KT CAVOK 10/06 Q1012
LTCW,2023-04-05T20:50:00Z,LTCW 052050Z VRB08KT 9999 -SHRA SCT030 BKN080 11/01 Q1013
LTDA,2023-04-05T20:50:00Z,LTDA 052050Z 21010KT 9999 SCT035 16/10 Q1013 NOSIG
LTFC,2023-04-05T20:50:00Z,LTFC 052050Z 34005KT 9999 BKN030 08/06 Q1014 RMK RWY23 28004KT
LTFD,2023-04-05T20:50:00Z,LTFD 052050Z 23005KT 9999 SCT035 09/06 Q1014
LTFE,2023-04-05T20:50:00Z,LTFE 052050Z 11004KT 090V160 9999 FEW035 SCT100 09/08 Q1015 NOSIG RMK RWY10 14004KT 110V180
LTFG,2023-04-05T20:50:00Z,LTFG 052050Z 10003KT 9999 FEW020CB BKN030 15/11 Q1014
LTFH,2023-04-05T20:50:00Z,LTFH 052050Z 06004KT 020V090 6000 -SHRA SCT004 FEW020CB BKN025 10/09 Q1013 TEMPO 3800 SHRA BR
LTFJ,2023-04-05T20:50:00Z,LTFJ 052050Z 05006KT 9999 FEW018 BKN030 07/05 Q1014 NOSIG RMK RWY24 06003KT 020V100
LTFM,2023-04-05T20:50:00Z,LTFM 052050Z 16006KT 9999 BKN029 07/04 Q1014 NOSIG RMK RWY17L 14006KT RWY34L 14006KT RWY16R 13007KT RWY36 15006KT RWY18 15006KT
LTFO,2023-04-05T20:50:00Z,LTFO 052050Z 22017KT 9999 BKN100 13/09 Q1011
LUKK,2023-04-05T21:00:00Z,LUKK 052100Z 34015KT 7000 -RA OVC007 02/01 Q1005 TEMPO 34018G28KT 3000 RA OVC006
LWSK,2023-04-05T21:00:00Z,LWSK 052100Z 02012KT 9999 BKN040 OVC080 03/M02 Q1017 NOSIG
LXGB,2023-04-05T20:50:00Z,LXGB 052050Z AUTO 08021KT 9999 NCD 17/12 Q1015
LYBE,2023-04-05T21:00:00Z,LYBE 052100Z 25008KT CAVOK 03/M02 Q1019 NOSIG
LYBT,2023-04-05T21:00:00Z,LYBT 052100Z 25006KT CAVOK 02/M01 Q1019 NOSIG
LYKV,2023-04-05T21:00:00Z,LYKV 052100Z VRB01KT 9999 BKN050 01/01 Q1019 NOSIG
LYNI,2023-04-05T21:00:00Z,LYNI 052100Z 35004KT 9999 SCT020 BKN030 01/M00 Q1018 NOSIG
LYPG,2023-04-05T21:00:00Z,LYPG 052100Z 36010KT 9999 FEW040 BKN070 09/M05 Q1015 NOSIG
LYTV,2023-04-05T21:00:00Z,LYTV 052100Z AUTO 14001KT CAVOK 06/02 Q1015
LYVR,2023-04-05T21:00:00Z,LYVR 052100Z AUTO 27005KT 240V310 9999 OVC042/// 03/01 Q1018
LZIB,2023-04-05T21:00:00Z,LZIB 052100Z 33007KT CAVOK 03/M07 Q1020 NOSIG
LZKZ,2023-04-05T21:00:00Z,LZKZ 052100Z 02012KT CAVOK 02/M08 Q1018 NOSIG
LZPP,2023-04-05T21:00:00Z,LZPP 052100Z AUTO VRB02KT 9999 NCD M02/M08 Q1020
LZTT,2023-04-05T21:00:00Z,LZTT 052100Z 25004KT 9999 FEW043 M06/M09 Q1017
LZZI,2023-04-05T21:00:00Z,LZZI 052100Z VRB02KT CAVOK M02/M08 Q1020
MBPV,2023-04-05T21:00:00Z,MBPV 052100Z 08011KT 9999 SCT012 28/19 Q1015
MDAB,2023-04-05T21:00:00Z,MDAB 052100Z 09011KT 9999 SCT020 27/23 Q1015
MDBH,2023-04-05T21:00:00Z,MDBH 052100Z 13020KT 9999 FEW018CB SCT020 SCT080 27/21 Q1014 CB/W/NW/N
MDCY,2023-04-05T21:00:00Z,MDCY 052100Z 09010KT 9999 SCT018 27/22 Q1014
MDJB,2023-04-05T21:00:00Z,MDJB 052100Z 12007KT 9999 SCT018 28/22 Q1014
MDLR,2023-04-05T21:00:00Z,MDLR 052100Z 06011KT 9999 SCT018 SCT300 28/21 Q1013
MDPC,2023-04-05T21:00:00Z,MDPC 052100Z 06014KT 9999 FEW018 SCT070 27/22 Q1015
MDPP,2023-04-05T21:00:00Z,MDPP 052100Z 09018KT 9999 FEW023 28/21 Q1015
MDSD,2023-04-05T21:00:00Z,MDSD 052100Z 09008KT 8000 VCSH FEW016CB BKN018 30/21 Q1014 CB/NE/SE/S/NW
MDST,2023-04-05T21:00:00Z,MDST 052100Z 08009KT 040V130 9999 FEW023CB FEW025 30/19 Q1014 CB/E/S/SW
MGCB,2023-04-05T21:00:00Z,MGCB 052100Z 02008KT 9999 FEW018 27/20 QFE 867.7
MGES,2023-04-05T21:00:00Z,MGES 052100Z 00000KT 9999 SCT020 34/13 QFE 905.9
MGGT,2023-04-05T21:00:00Z,MGGT 052100Z 21014KT 7000 BKN020 27/17 Q1017 A3003 HZ
MGHT,2023-04-05T21:00:00Z,MGHT 052100Z 03006KT CAVOK 31/00
MGMM,2023-04-05T21:00:00Z,MGMM 052100Z 06006KT 9999 FEW020 37/22 Q1008 A2977
MGMT,2023-04-05T21:00:00Z,MGMT 052100Z 18004KT CAVOK 33/24
MGPB,2023-04-05T21:00:00Z,MGPB 052100Z 36008KT 6000 FEW022 FEW025CB SCT200 32/// Q1008 A2977 HZ CB S
MGQZ,2023-04-05T21:00:00Z,MGQZ 052100Z 14008KT 8000 SCT020 22/12 QFE 770/5 HZ
MGRT,2023-04-05T21:00:00Z,MGRT 052100Z 23012KT 8000 BKN020 35/21 Q1010 A2983 HZ VOL. STA. MARIA Y SANTIAGUITO EN ACTIVIDAD
MGTU,2023-04-05T21:00:00Z,MGTU 052100Z 18004KT CAVOK 36/19
MGZA,2023-04-05T21:00:00Z,MGZA 052100Z 08010KT 9999 FEW030 37/17 QFE 908/8
MHCA,2023-04-05T21:00:00Z,MHCA 052100Z 05006KT 9999 SCT030 32/17 Q1012
MHCH,2023-04-05T21:00:00Z,MHCH 052100Z 01007KT 9999 FEW034 39/21
MHGS,2023-04-05T21:00:00Z,MHGS 052100Z 36004KT 9999 FEW042 34/20
MHLC,2023-04-05T21:00:00Z,MHLC 052100Z 06015KT 9999 FEW025 30/23 Q1008 A2977 NOSIG
MHLE,2023-04-05T21:00:00Z,MHLE 052100Z 08008KT 9999 FEW026 28/09
MHLM,2023-04-05T21:00:00Z,MHLM 052100Z 06016KT 9999 5000SW FU FEW030 31/22 Q1007 A2974 NOSIG
MHNO,2023-04-05T21:00:00Z,MHNO 052100Z 18004KT 9999 FEW040 35/17
MHPL,2023-04-05T21:00:00Z,MHPL 052100Z 06010KT 9999 SCT026TCU 31/24 Q1012
MHPR,2023-04-05T21:00:00Z,MHPR 052100Z 35010KT 8000 4000S FU FEW050 35/10 Q1011 A2987 NOSIG
MHRO,2023-04-05T21:00:00Z,MHRO 052100Z 08024G35KT CAVOK 29/23 Q1009 A2980 NOSIG
MHSR,2023-04-05T21:00:00Z,MHSR 052100Z 02006KT 9999 FEW040 34/11
MHTE,2023-04-05T21:00:00Z,MHTE 052100Z 02006KT 8000 NSC 32/22 Q1007
MHTG,2023-04-05T21:00:00Z,MHTG 052100Z 14013KT CAVOK 31/08 Q1014 A2994 NOSIG
MHTR,2023-04-05T21:00:00Z,MHTR 052100Z 08015KT 9999 FEW028 30/23
MHYR,2023-04-05T21:00:00Z,MHYR 052100Z 04006KT 9999 SCT025TCU 33/16
MKJP,2023-04-05T21:00:00Z,MKJP 052100Z 14024KT 9999 FEW020 29/22 Q1012
MKJS,2023-04-05T21:00:00Z,MKJS 052100Z 07017KT 9999 FEW022 29/22 Q1012
MMAA,2023-04-05T20:45:00Z,MMAA 052045Z 25004KT 7SM SKC 31/23 A2977 RMK SLP083 57023 912 HZY
MMAN,2023-04-05T20:40:00Z,MMAN 052040Z 01016KT 8SM FEW070 31/M01 A2984 RMK SLP/// 5//// 9// 8/070 HZY
MMAS,2023-04-05T20:49:00Z,MMAS 052049Z 18010KT 9SM SCT040 SCT200 27/M08 A3005 RMK 8/102 HZY
MMBT,2023-04-05T20:44:00Z,MMBT 052044Z 25010KT 8SM SKC 33/21 A2980
MMCB,2023-04-05T20:45:00Z,MMCB 052045Z 18007KT 7SM SKC 34/07 A2991 RMK ISOL CU HZY
MMCE,2023-04-05T20:44:00Z,MMCE 052044Z 15010KT 6SM SKC 34/21 A2972 RMK SLP061 57030 907
MMCL,2023-04-05T20:47:00Z,MMCL 052047Z 28009KT 10SM BKN230 29/10 A2984 RMK SLP104 57017 953 8/008 HZY
MMCM,2023-04-05T20:45:00Z,MMCM 052045Z 11016KT 7SM SCT020 30/23 A2986 RMK SLP113 5//// 910 8/500
MMCN,2023-04-05T20:40:00Z,MMCN 052040Z 25010KT 8SM BKN200 25/M07 A2987 RMK SLP116 8/008 ISOL AC HZY
MMCP,2023-04-05T20:40:00Z,MMCP 052040Z 15010G22KT 7SM FEW030 FEW300 39/17 A2974 RMK SLP060 57031 910 8/101 HZY
MMCS,2023-04-05T20:54:00Z,MMCS 052054Z 00000KT 10SM BKN100 OVC200 14/M16 A3008 RMK SLP147 57020 911 8/027
MMCT,2023-04-05T20:50:00Z,MMCT 052050Z 12018KT 7SM SCT025 BKN250 34/17 A2983 RMK 8/108
MMCU,2023-04-05T20:41:00Z,MMCU 052041Z 02004KT 10SM OVC200 19/M15 A3004 RMK SLP130 57020 943 8/002
MMCV,2023-04-05T20:40:00Z,MMCV 052040Z 02012KT 5SM SCT100 35/17 A2973 RMK SLP/// 57016 941 8/030 HZ
MMCZ,2023-04-05T20:45:00Z,MMCZ 052045Z 14016KT 8SM SCT015TCU 29/22 A2991 RMK SLP134 57016 911 8/200
MMDO,2023-04-05T20:45:00Z,MMDO 052045Z 14008KT 10SM SCT035 SCT070 28/M07 A3001 RMK SLP018 57032 952 8/140
MMEP,2023-04-05T20:42:00Z,MMEP 052042Z 34012KT 12SM SCT100 31/12 A2994 RMK SLP122 57011 957 8/030
MMGL,2023-04-05T20:43:00Z,MMGL 052043Z 01006KT 7SM SCT090 31/M03 A2999 RMK SLP018 57026 959 8/080 HZY CU
MMGM,2023-04-05T20:50:00Z,MMGM 052050Z 27017KT 10SM BKN200 23/03 A2988 RMK 8/008
MMHO,2023-04-05T20:42:00Z,MMHO 052042Z 25010KT 10SM BKN200 28/M25 A2993 RMK SLP137 57022 955 8/008 HZY
MMIA,2023-04-05T20:55:00Z,MMIA 052055Z 25015KT 6SM BKN180 27/22 A2989 RMK 8/002
MMIO,2023-04-05T20:51:00Z,MMIO 052051Z 36015KT 10SM SCT200 29/08 A3005 RMK 8/008 SC
MMLM,2023-04-05T20:40:00Z,MMLM 052040Z 31019KT 10SM OVC220 22/04 A2991 RMK SLP129 8/007 HZY
MMLO,2023-04-05T20:40:00Z,MMLO 052040Z 08004KT 10SM FEW120 BKN250 28/02 A3011 RMK SLP053 57017 901 8/058
MMLP,2023-04-05T20:42:00Z,MMLP 052042Z 36011KT 10SM BKN200 22/04 A2995 RMK SLP139 57015 906 8/008 ISOL AC
MMLT,2023-04-05T20:48:00Z,MMLT 052048Z 04025KT 10SM BKN240 22/07 A2991 RMK SLP129 8/001
MMMA,2023-04-05T20:40:00Z,MMMA 052040Z 16009KT 8SM OVC025 29/23 A2979 RMK SLP086 57007 942 8/5// HZY BINOVC
MMMD,2023-04-05T20:41:00Z,MMMD 052041Z 12016G26KT 7SM BKN300 37/17 A2978 RMK SLP105 57020 906 8/008
MMML,2023-04-05T20:44:00Z,MMML 052044Z 00000KT 10SM SKC 21/M17 A3010 RMK SLP193 57017 910 ISOL CI
MMMM,2023-04-05T20:43:00Z,MMMM 052043Z 17010KT 7SM BKN300 30/01 A3005 RMK SLP021 57026 900 8/008 HZY
MMMT,2023-04-05T20:40:00Z,MMMT 052040Z 09015KT 7SM SKC 34/21 A2962 RMK SLP030 57033 900 VCHZ
MMMX,2023-04-05T20:51:00Z,MMMX 052051Z 12015KT 6SM FEW020TCU 30/M12 A3011 NOSIG RMK SLP997 57028 956 8/200 ISOL AC CI HZY
MMMY,2023-04-05T20:40:00Z,MMMY 052040Z 34010G29KT 6SM SCT070 31/03 A2980 RMK SLP/// 5//// 9// 8/070 HZY
MMMZ,2023-04-05T20:40:00Z,MMMZ 052040Z 30013KT 15SM SKC 27/13 A2983 RMK SLP118 57017 910 DSNT CI 4TH QUAD
MMNL,2023-04-05T20:44:00Z,MMNL 052044Z 03015KT 6SM OVC025 25/M02 A2990 RMK SLP113 57001 946 8/5// HZ
MMOX,2023-04-05T20:49:00Z,MMOX 052049Z 17010KT 10SM SCT030TCU 33/01 A2996 RMK SLP042 57010 904 8/200 FUHZ
MMPA,2023-04-05T20:44:00Z,MMPA 052044Z 06008KT 4SM SKC 37/26 A2964 RMK SLP005 57033 904 HZY
MMPB,2023-04-05T20:42:00Z,MMPB 052042Z 20011G21KT 9SM FEW025 SCT230 28/03 A3014 RMK 8/104 HZY
MMPG,2023-04-05T20:40:00Z,MMPG 052040Z 36016KT 10SM SKC 27/M05 A2997
MMPN,2023-04-05T20:43:00Z,MMPN 052043Z 00000KT 9SM BKN150 OVC250 25/12 A3005 RMK SLP/// 5//// 9// 8/022 BINOVC HZY MSGTX MMMX
MMPQ,2023-04-05T20:40:00Z,MMPQ 052040Z 09010KT 6SM FEW040 35/23 A2961 RMK 8/100 HZY
MMPR,2023-04-05T20:40:00Z,MMPR 052040Z 22011KT 15SM SCT200 26/19 A2983 RMK SLP100 57004 959 8/009 FULYR AL S
MMPS,2023-04-05T20:40:00Z,MMPS 052040Z 26010KT 12SM SKC 31/24 A2980 RMK HZY
MMQT,2023-04-05T20:49:00Z,MMQT 052049Z 29008KT 8SM SCT030 BKN250 30/00 A3008 RMK 8/108
MMRX,2023-04-05T20:50:00Z,MMRX 052050Z 33007KT 5SM BKN015 OVC030 27/22 A2979 RMK SLP134 57003 943 8/5// HZY OCNL DROPS PCPN S
MMSD,2023-04-05T20:40:00Z,MMSD 052040Z 15014KT 10SM FEW250 24/11 A2992 RMK SLP120 57007 914 8/005
MMSL,2023-04-05T20:50:00Z,MMSL 052050Z 20010KT 10SM FEW230 22/15 A2994 RMK 8/001
MMSM,2023-04-05T20:44:00Z,MMSM 052044Z 20007KT 120V270 7SM FEW020 SCT200 29/M02 A3011 RMK 8/202 HZY TCU 2ND QUAD
MMSP,2023-04-05T20:44:00Z,MMSP 052044Z 07005KT 12SM BKN080 BKN210 30/M07 A3001 RMK SLP004 57013 905 8/038 ISOL CU
MMTC,2023-04-05T20:40:00Z,MMTC 052040Z 05004KT 10SM SCT200 30/M05 A2990 RMK SLP036 57007 941 8/002
MMTG,2023-04-05T20:41:00Z,MMTG 052041Z 13003KT 7SM SKC 37/11 A2974 RMK SLP030 56038 900 HZY / FIRE AND FU 3RD QUAD
MMTJ,2023-04-05T20:41:00Z,MMTJ 052041Z 27012KT 10SM SKC 16/06 A3011 RMK SLP206 57005 965 HZY
MMTM,2023-04-05T20:40:00Z,MMTM 052040Z E06016KT 4SM SCT010 BKN200 29/24 A2968 RMK SLP052 57011 929 8/108 HZ
MMTO,2023-04-05T20:43:00Z,MMTO 052043Z 18020KT 6SM FEW020 FEW200 27/M03 A3020 RMK SLP018 57025 922 8/108 HZY
MMTP,2023-04-05T20:42:00Z,MMTP 052042Z 23010KT 8SM FEW030 34/22 A2975 RMK SLP097 57027 900 8/100 HZY
MMUN,2023-04-05T20:40:00Z,MMUN 052040Z 12014KT 7SM BKN015TCU 29/22 A2993 RMK SLP139 57013 915 8/200 CU
MMVA,2023-04-05T20:44:00Z,MMVA 052044Z 09009KT 7SM SKC 34/23 A2972 RMK SLP063 57030 904 HZY
MMVR,2023-04-05T20:45:00Z,MMVR 052045Z 06014KT 5SM SKC 31/23 A2965 RMK SLP027 57022 902 HZY MSGTX MMMX
MMZC,2023-04-05T20:40:00Z,MMZC 052040Z E18010KT 10SM SCT100 26/M06 A3008 RMK 8/030
MMZH,2023-04-05T20:45:00Z,MMZH 052045Z 22011KT 7SM SKC 30/23 A2979 RMK SLP079 57020 954 HZY ISOL SC/AC
MMZO,2023-04-05T20:40:00Z,MMZO 052040Z 24008KT 10SM SCT030 BKN120 BKN210 27/26 A2979 RMK 8/136
MNBL,2023-04-05T21:00:00Z,MNBL 052100Z 10006KT 9999 SCT018 30/23 Q1010
MNCH,2023-04-05T21:00:00Z,MNCH 052100Z 36006KT CAVOK 37/16 Q1006
MNJG,2023-04-05T21:00:00Z,MNJG 052100Z 36004KT 9999 SCT020 27/14 Q1010
MNJU,2023-04-05T21:00:00Z,MNJU 052100Z 09004KT 9999 SCT025 34/21 Q1008
MNMG,2023-04-05T21:00:00Z,MNMG 052100Z 07014KT 9999 FEW025 35/16 Q1006 A2972 NOSIG
MNPC,2023-04-05T21:00:00Z,MNPC 052100Z 09008KT 6000 VCRA BKN016TCU 29/26 Q1010 TCURA/E/SE
MNRS,2023-04-05T21:00:00Z,MNRS 052100Z 12004KT CAVOK 31/21 Q1007
MPBO,2023-04-05T21:00:00Z,MPBO 052100Z 36004KT 9000 SCT020 28/25 Q1009
MPDA,2023-04-05T21:00:00Z,MPDA 052100Z 20009KT 170V230 9999 FEW018TCU 33/23 Q1005
MPMG,2023-04-05T21:00:00Z,MPMG 052100Z 34014KT 9999 FEW020 33/21 Q1006 NOSIG
MPPA,2023-04-05T21:00:00Z,MPPA 052100Z 01015KT 9999 FEW018 34/21 Q1005
MPSM,2023-04-05T21:00:00Z,MPSM 052100Z 35014KT 8000 FEW030 34/19 Q1005
MPTO,2023-04-05T21:00:00Z,MPTO 052100Z 34015KT 9999 SCT020 34/20 Q1006 NOSIG
MRLB,2023-04-05T21:00:00Z,MRLB 052100Z 08019KT CAVOK 35/19 A2969
MRLM,2023-04-05T21:00:00Z,MRLM 052100Z 07006KT 9999 FEW025 BKN240 29/23 A2983
MROC,2023-04-05T21:00:00Z,MROC 052100Z 07014G24KT 9999 FEW040 SCT080 BKN200 28/17 A2988 NOSIG
MRPV,2023-04-05T21:00:00Z,MRPV 052100Z 08015KT 9999 FEW030 BKN200 25/17 A2994 NOSIG
MSAC,2023-04-05T20:50:00Z,MSAC 052050Z 21010KT 9999 FEW033 34/22 Q1006 A2972
MSLP,2023-04-05T20:50:00Z,MSLP 052050Z 19007KT 140V240 9999 FEW067 32/19 Q1007 A2976 NOSIG
MSSA,2023-04-05T20:50:00Z,MSSA 052050Z 00000KT CAVOK 37/8 Q1013 A2991
MSSM,2023-04-05T20:50:00Z,MSSM 052050Z 13004KT CAVOK 39/13 Q1005 A2970
MSSS,2023-04-05T20:50:00Z,MSSS 052050Z 19009KT 9999 FEW027 30/21 Q1011 A2987
MTPP,2023-04-05T21:00:00Z,MTPP 052100Z 30010KT 280V350 9999 SCT027CB 30/21 Q1012 A2988 RMK/CB/N/NE/SE
MUCC,2023-04-05T20:50:00Z,MUCC 052050Z 10014KT 9000 SCT020 29/22 Q1016
MUCF,2023-04-05T20:50:00Z,MUCF 052050Z 22011KT 9999 FEW025 30/21 Q1015
MUCL,2023-04-05T20:50:00Z,MUCL 052050Z 12014KT 9000 NSC 29/21 Q1015
MUCM,2023-04-05T20:51:00Z,MUCM 052051Z 04019G30KT 010V070 9000 SCT038 31/19 Q1015
MUCU,2023-04-05T20:50:00Z,MUCU 052050Z 13016KT 100V180 9000 SCT020 28/22 Q1013
MUGM,2023-04-05T20:51:00Z,MUGM 052051Z 10018G29KT 10SM FEW050 SCT090 31/21 A2995 RMK AO2 PK WND 09029/1956 SLP142 T03060211 56020 $
MUHA,2023-04-05T20:50:00Z,MUHA 052050Z 07013KT 030V090 9000 BKN030 30/20 Q1015
MUHG,2023-04-05T20:50:00Z,MUHG 052050Z 05017G28KT 9000 FEW030 31/17 Q1014
MUSC,2023-04-05T20:50:00Z,MUSC 052050Z 09018KT 9000 SCT018 30/20 Q1016
MUVR,2023-04-05T20:50:00Z,MUVR 052050Z 06015KT 9000 FEW025 29/21 Q1016
MWCB,2023-04-05T20:00:00Z,MWCB 052000Z 05006KT 9999 VCSH SCT016CB 29/23 Q1014
MWCR,2023-04-05T21:00:00Z,MWCR 052100Z 09010KT 9999 FEW018 SCT030 30/20 Q1013
MYCB,2023-04-05T21:00:00Z,MYCB 052100Z AUTO 08015KT //// R09///// // FEW021 27/21 A3007
MYEM,2023-04-05T21:00:00Z,MYEM 052100Z AUTO 07012KT 9999 SCT017 26/22 Q1018 A3008
MYGF,2023-04-05T21:00:00Z,MYGF 052100Z 12011KT 090V160 9999 FEW030 28/19 A3010
MYNN,2023-04-05T21:00:00Z,MYNN 052100Z 13013KT 9999 SCT025 28/20 A3009
MYSM,2023-04-05T21:00:00Z,MYSM 052100Z AUTO 09013KT 9999 SCT022/// BKN026/// 27/22 A3007
MZBZ,2023-04-05T21:00:00Z,MZBZ 052100Z 10010KT 9999 FEW030 30/23 A2984 Q1010 NOSIG
NCAI,2023-04-05T21:00:00Z,NCAI 052100Z AUTO 06002KT //// ////// 30/24 Q1012
NCAT,2023-04-05T21:00:00Z,NCAT 052100Z AUTO 20001KT //// ////// ///// Q////
NCMG,2023-04-05T21:00:00Z,NCMG 052100Z AUTO 12002KT //// ////// ///// Q////
NCMH,2023-04-05T21:00:00Z,NCMH 052100Z AUTO 11003KT //// ////// ///// Q1011
NCMK,2023-04-05T21:00:00Z,NCMK 052100Z AUTO NIL
NCMR,2023-04-05T21:00:00Z,NCMR 052100Z AUTO 24003KT //// ////// ///// Q1011
NCNS,2023-04-05T21:00:00Z,NCNS 052100Z AUTO 05004KT //// ////// 32/25 Q1012
NCPK,2023-04-05T21:00:00Z,NCPK 052100Z AUTO NIL
NCPL,2023-04-05T21:00:00Z,NCPL 052100Z AUTO 08003KT ///// ////// 29/21 Q1012 DAIR59%
NCPY,2023-04-05T21:00:00Z,NCPY 052100Z AUTO 10008KT //// ////// 30/23 Q1011
NCRG,2023-04-05T21:00:00Z,NCRG 052100Z AUTO 02002KT 9999 NCD 27/21 Q1013
NCRK,2023-04-05T21:00:00Z,NCRK 052100Z AUTO 12003KT //// ////// 31/24 Q1011
NCSW,2023-04-05T21:00:00Z,NCSW 052100Z AUTO 09002KT //// ////// 31/24 Q1012
NFFN,2023-04-05T21:00:00Z,NFFN 052100Z 07005KT 9999 FEW030 SCT300 29/22 Q1010 NOSIG
NFNA,2023-04-05T21:00:00Z,NFNA 052100Z 34005KT 300V020 9999 FEW025 27/23 Q1011
NFTF,2023-04-05T21:00:00Z,NFTF 052100Z 06011KT 9999 SCT016 27/23 Q1013
NFTL,2023-04-05T21:00:00Z,NFTL 052100Z 09009KT 9999 FEW017 29/23 Q1012
NFTV,2023-04-05T21:00:00Z,NFTV 052100Z 09012KT 9999 FEW016 27/24 Q1012
NGFU,2023-04-05T21:00:00Z,NGFU 052100Z 01007KT 9999 FEW016CB FEW018TCU BKN300 30/27 Q1009
NGTA,2023-04-05T20:00:00Z,NGTA 052000Z 06009KT 9999 VCSH SCT018TCU SCT040 OVC100 27/26 Q1 008
NIUE,2023-04-05T21:00:00Z,NIUE 052100Z 06006KT 030V110 9999 BKN018 29/24 Q1012
NLWW,2023-04-05T21:00:00Z,NLWW 052100Z 07005KT 040V140 9999 SCT022 31/25 Q1010 TEMPO 4000 SHRA FEW020CB
NSFA,2023-04-05T21:00:00Z,NSFA 052100Z 05011KT 360V080 9999 SCT025 BKN290 30/25 Q1011
NSTU,2023-04-05T20:50:00Z,NSTU 052050Z 06007KT 12SM FEW022 SCT220 31/27 A2986 RMK SLP112 8/101 T03050266 52012
NTAA,2023-04-05T21:00:00Z,NTAA 052100Z 06010KT 9999 FEW026 BKN260 31/23 Q1013 WS ALL RWY NOSIG
NVSS,2023-04-05T20:00:00Z,NVSS 052000Z 34003KT 9999 SCT020 BKN110 25/24 Q1008
NVVV,2023-04-05T21:00:00Z,NVVV 052100Z 24003KT 9999 FEW020 29/24 Q1008
NWWW,2023-04-05T21:00:00Z,NWWW 052100Z AUTO VRB02KT 9999 OVC034 25/23 Q1006 TEMPO 3000 SHRA BKN014 FEW015CB SCT020TCU BECMG 30015KT
NZAA,2023-04-05T21:00:00Z,NZAA 052100Z AUTO 14004KT 9999 NCD 14/13 Q1009
NZCH,2023-04-05T21:00:00Z,NZCH 052100Z AUTO 31004KT 270V340 9999 BKN016/// OVC034/// 13/11 Q1002
NZCM,2023-04-05T20:55:00Z,NZCM 052055Z AUTO 07007KT 040V100 9999 CLR M22/M31 A2933 RMK AO2 SLP940 T12221312 53019
NZWN,2023-04-05T21:00:00Z,NZWN 052100Z AUTO 32027G42KT 9999 NCD 18/13 Q1003
OBBI,2023-04-05T21:00:00Z,OBBI 052100Z 21003KT 170V270 CAVOK 22/10 Q1012 NOSIG
OEAB,2023-04-05T21:00:00Z,OEAB 052100Z 21008KT CAVOK 16/12 Q1023 NOSIG
OEAH,2023-04-05T21:00:00Z,OEAH 052100Z 19004KT CAVOK 18/08 Q1012 NOSIG
OEAO,2023-04-05T21:00:00Z,OEAO 052100Z 26004KT CAVOK 26/M10 Q1014 NOSIG
OEBA,2023-04-05T21:00:00Z,OEBA 052100Z 22004KT CAVOK 19/12 Q1019 NOSIG
OEBH,2023-04-05T21:00:00Z,OEBH 052100Z 29004KT 9999 SCT030 25/18 Q1015 NOSIG
OEDF,2023-04-05T21:00:00Z,OEDF 052100Z 21006KT CAVOK 19/11 Q1012 NOSIG
OEDM,2023-04-05T21:00:00Z,OEDM 052100Z 10012KT 9999 SCT040 22/M07 Q1014
OEDR,2023-04-05T21:00:00Z,OEDR 052100Z 26004KT CAVOK 17/11 Q1010
OEGN,2023-04-05T21:00:00Z,OEGN 052100Z 29003KT CAVOK 30/25 Q1009 NOSIG
OEGS,2023-04-05T21:00:00Z,OEGS 052100Z 12005KT 9999 FEW040 23/05 Q1012
OEGT,2023-04-05T21:00:00Z,OEGT 052100Z 32008KT CAVOK 13/01 Q1016 NOSIG
OEHL,2023-04-05T21:00:00Z,OEHL 052100Z 21002KT 9999 BKN040 24/04 Q1014
OEJB,2023-04-05T21:00:00Z,OEJB 052100Z AUTO 33010KT CAVOK 18/11 Q1012 NOSIG
OEJN,2023-04-05T21:00:00Z,OEJN 052100Z 32005KT 9999 FEW040 27/12 Q1009 NOSIG
OEKJ,2023-04-05T21:00:00Z,OEKJ 052100Z 19008KT CAVOK 23/M04 Q1016
OEKM,2023-04-05T21:00:00Z,OEKM 052100Z 19007KT CAVOK 17/11 Q1023 NOSIG
OEMA,2023-04-05T21:00:00Z,OEMA 052100Z 19007KT CAVOK 27/06 Q1013 NOSIG
OEMN,2023-04-05T21:00:00Z,OEMN 052100Z 02002KT CAVOK 30/14 Q1012
OENG,2023-04-05T21:00:00Z,OENG 052100Z 11004KT CAVOK 24/06 Q1017 NOSIG
OEPA,2023-04-05T21:00:00Z,OEPA 052100Z 16006KT CAVOK 23/07 Q1012 NOSIG
OEPS,2023-04-05T20:55:00Z,OEPS 052055Z 18003KT 9999 CLR 23/M01 A3001 RMK AO2A SLP146 WND DATA ESTMD T02281013 58005
OERF,2023-04-05T21:00:00Z,OERF 052100Z 14005KT CAVOK 21/M06 Q1010 NOSIG
OERK,2023-04-05T21:00:00Z,OERK 052100Z 09003KT CAVOK 20/03 Q1015 NOSIG
OERR,2023-04-05T21:00:00Z,OERR 052100Z 33015KT CAVOK 21/M03 Q1012 NOSIG
OESH,2023-04-05T21:00:00Z,OESH 052100Z 07011KT 9999 FEW040 25/06 Q1014 NOSIG
OESK,2023-04-05T21:00:00Z,OESK 052100Z 36005KT CAVOK 20/M04 Q1016 NOSIG
OETB,2023-04-05T21:00:00Z,OETB 052100Z 35010KT CAVOK 20/M02 Q1015 NOSIG
OETF,2023-04-05T21:00:00Z,OETF 052100Z 34003KT 8000 NSC 18/15 Q1019 NOSIG
OETR,2023-04-05T21:00:00Z,OETR 052100Z 34006KT CAVOK 13/01 Q1016 NOSIG
OEWD,2023-04-05T21:00:00Z,OEWD 052100Z 11012KT 9999 FEW040 SCT080 25/M03 Q1013
OEWJ,2023-04-05T21:00:00Z,OEWJ 052100Z 32006KT CAVOK 22/15 Q1010 NOSIG
OEYN,2023-04-05T21:00:00Z,OEYN 052100Z 00000KT CAVOK 25/16 Q1007 NOSIG
OIAA,2023-04-05T21:00:00Z,OIAA 052100Z 00000KT CAVOK 21/12 Q1010
OIAH,2023-04-05T21:00:00Z,OIAH 052100Z 00000KT CAVOK 13/10 Q1015
OIAM,2023-04-05T21:00:00Z,OIAM 052100Z 00000KT CAVOK 22/12 Q1010
OIAW,2023-04-05T21:00:00Z,OIAW 052100Z 06002KT CAVOK 20/10 Q1009
OIBB,2023-04-05T21:00:00Z,OIBB 052100Z 00000KT 8000 NSC 17/12 Q1010 A2985
OIBK,2023-04-05T21:00:00Z,OIBK 052100Z 28004KT 7000 NSC 20/18 Q1010
OIBL,2023-04-05T21:00:00Z,OIBL 052100Z 31004KT 6000 NSC 20/19 Q1010
OIBP,2023-04-05T21:00:00Z,OIBP 052100Z 00000KT CAVOK 17/15 Q1010 A2983
OICC,2023-04-05T21:00:00Z,OICC 052100Z 29004KT 9999 SCT080 14/M02 Q1015 A2998
OICI,2023-04-05T21:00:00Z,OICI 052100Z 05004KT 9999 SCT045 13/01 Q1017 A3005
OICK,2023-04-05T21:00:00Z,OICK 052100Z 11004KT CAVOK 10/06 Q1015
OICS,2023-04-05T21:00:00Z,OICS 052100Z 04004KT CAVOK 11/M01 Q1014 A2996
OIFK,2023-04-05T20:00:00Z,OIFK 052000Z 21004KT CAVOK 18/M05 Q1012 A2988
OIFM,2023-04-05T21:00:00Z,OIFM 052100Z 00000KT CAVOK 07/M08 Q1017 A3004
OIFS,2023-04-05T21:00:00Z,OIFS 052100Z 29004KT CAVOK 03/M05 Q1019
OIGG,2023-04-05T21:00:00Z,OIGG 052100Z 32004KT 6000 OVC008 13/13 Q1005
OIHH,2023-04-05T21:00:00Z,OIHH 052100Z 03006KT 9999 FEW040 09/M03 Q1016 A3002
OIHM,2023-04-05T21:00:00Z,OIHM 052100Z 12004KT CAVOK 11/M02 Q1017
OIIE,2023-04-05T21:00:00Z,OIIE 052100Z 24010KT CAVOK 17/M05 Q1012
OIII,2023-04-05T21:00:00Z,OIII 052100Z 30004KT 9999 FEW100 16/M07 Q1013 A2992 NOSIG
OIIK,2023-04-05T20:00:00Z,OIIK 052000Z 02004KT CAVOK 13/01 Q1012
OIIP,2023-04-05T21:00:00Z,OIIP 052100Z 00000KT CAVOK 13/M02 Q1011 A2988
OIKB,2023-04-05T21:00:00Z,OIKB 052100Z 00000KT 6000 NSC 20/17 Q1010 A2984
OIKK,2023-04-05T21:00:00Z,OIKK 052100Z 09004KT CAVOK 09/M07 Q1017 A3006
OIKO,2023-04-05T20:00:00Z,OIKO 052000Z AUTO 00000KT //// // ////// 20/18 Q1011
OIKQ,2023-04-05T21:00:00Z,OIKQ 052100Z 23010KT 6000 NSC 22/20 Q1009
OIMB,2023-04-05T21:00:00Z,OIMB 052100Z 12004KT CAVOK 07/M09 Q1016 A3001
OIMJ,2023-04-05T21:00:00Z,OIMJ 052100Z AUTO 04003KT //// // ////// 08/M03 Q1012
OIMM,2023-04-05T21:00:00Z,OIMM 052100Z 04004KT CAVOK 10/01 Q1011 A2988
OIMN,2023-04-05T21:00:00Z,OIMN 052100Z 33004KT CAVOK 06/M01 Q1012
OIMT,2023-04-05T21:00:00Z,OIMT 052100Z 06004KT CAVOK 17/M04 Q1011
OINB,2023-04-05T20:00:00Z,OINB 052000Z 18004KT CAVOK 16/12 Q1005
OINE,2023-04-05T21:00:00Z,OINE 052100Z 00000KT CAVOK 13/05 Q1007
OING,2023-04-05T21:00:00Z,OING 052100Z 00000KT CAVOK 11/09 Q1006
OINK,2023-04-05T20:00:00Z,OINK 052000Z AUTO 05005KT //// // ////// 14/05 Q1005
OINN,2023-04-05T21:00:00Z,OINN 052100Z 26010KT 9999 FEW025 14/12 Q1004
OINR,2023-04-05T21:00:00Z,OINR 052100Z 00000KT CAVOK 13/12 Q1004
OINZ,2023-04-05T20:00:00Z,OINZ 052000Z 10004KT CAVOK 13/09 Q1005
OISA,2023-04-05T20:00:00Z,OISA 052000Z 33002KT CAVOK 11/M04 Q1019 A3010
OISF,2023-04-05T21:00:00Z,OISF 052100Z 33004KT CAVOK 09/01 Q1016 A3002
OISL,2023-04-05T21:00:00Z,OISL 052100Z 00000KT CAVOK 18/08 Q1012 A2990
OISS,2023-04-05T21:00:00Z,OISS 052100Z 20004KT CAVOK 13/02 Q1017 A3005
OISY,2023-04-05T21:00:00Z,OISY 052100Z 00000KT CAVOK 08/01 Q1022
OITL,2023-04-05T21:00:00Z,OITL 052100Z 18016KT 9999 FEW040 13/M02 Q1009
OITM,2023-04-05T21:00:00Z,OITM 052100Z 10002KT CAVOK 10/M02 Q1012
OITP,2023-04-05T21:00:00Z,OITP 052100Z 07004KT 9999 BKN020 11/11 Q1007
OITR,2023-04-05T21:00:00Z,OITR 052100Z 23017G29KT 9000 -SHRA SCT030CB SCT035 14/03 Q1011 A2986
OITT,2023-04-05T21:00:00Z,OITT 052100Z 00000KT CAVOK 12/M01 Q1012 A2990
OIYY,2023-04-05T21:00:00Z,OIYY 052100Z 12004KT CAVOK 17/M06 Q1014
OIZB,2023-04-05T21:00:00Z,OIZB 052100Z 32008KT CAVOK 15/M08 Q1014
OIZH,2023-04-05T21:00:00Z,OIZH 052100Z 18008KT CAVOK 12/M05 Q1017 A3005
OIZI,2023-04-05T21:00:00Z,OIZI 052100Z 00000KT CAVOK 23/M02 Q1012
OIZJ,2023-04-05T21:00:00Z,OIZJ 052100Z 34006KT 6000 NSC 24/18 Q1008
OJAI,2023-04-05T21:00:00Z,OJAI 052100Z 27011KT 5000 HZ NSC 08/03 Q1019 NOSIG
OJAM,2023-04-05T21:00:00Z,OJAM 052100Z 25008KT 5000 HZ NSC 12/02 Q1018 NOSIG
OJAQ,2023-04-05T21:00:00Z,OJAQ 052100Z 35015KT 4000 BLDU 20/06 Q1015 NOSIG
OKAS,2023-04-05T20:55:00Z,OKAS 052055Z AUTO 21007KT 9999 CLR 21/05 A2987 RMK AO2 SLP111 T02130048 403280156 58004 FZRANO $
OKKK,2023-04-05T21:00:00Z,OKKK 052100Z 17006KT CAVOK 18/05 Q1011 NOSIG
OLBA,2023-04-05T21:00:00Z,OLBA 052100Z 23008KT 200V260 8000 BKN024 17/12 Q1018 NOSIG
OMAA,2023-04-05T21:00:00Z,OMAA 052100Z 21001KT CAVOK 21/17 Q1011 NOSIG
OMAD,2023-04-05T21:00:00Z,OMAD 052100Z 00000KT CAVOK 21/16 Q1011 NOSIG
OMAL,2023-04-05T21:00:00Z,OMAL 052100Z 31004KT 8000 NSC 19/16 Q1012 NOSIG
OMDB,2023-04-05T21:00:00Z,OMDB 052100Z 19006KT CAVOK 22/18 Q1011 NOSIG
OMDW,2023-04-05T21:00:00Z,OMDW 052100Z 18004KT CAVOK 20/17 Q1012 NOSIG
OMFJ,2023-04-05T21:00:00Z,OMFJ 052100Z 21002KT CAVOK 22/18 Q1010 A2983
OMRK,2023-04-05T21:00:00Z,OMRK 052100Z 21004KT 7000 NSC 17/15 Q1011 A2988
OMSJ,2023-04-05T21:00:00Z,OMSJ 052100Z 19003KT 160V250 CAVOK 21/17 Q1011 NOSIG
OOAD,2023-04-05T20:50:00Z,OOAD 052050Z AUTO 07010KT 9999 R31///// // NCD 21/04 Q1012 NOSIG
OODQ,2023-04-05T20:50:00Z,OODQ 052050Z AUTO 22008KT CAVOK ////// 24/18 Q1011 NOSIG
OOKB,2023-04-05T20:50:00Z,OOKB 052050Z AUTO 00000KT //// R01///// // NCD 24/16 Q1010 NOSIG
OOMS,2023-04-05T20:50:00Z,OOMS 052050Z 27001KT CAVOK 22/14 Q1010 NOSIG
OOSA,2023-04-05T20:50:00Z,OOSA 052050Z VRB02KT CAVOK 27/18 Q1012 NOSIG
OOSH,2023-04-05T20:50:00Z,OOSH 052050Z AUTO VRB01KT //// ////// 23/18 Q1009
OPFA,2023-04-05T20:55:00Z,OPFA 052055Z 31002KT 4000 FU SCT100 16/12 Q1013 NOSIG
OPIS,2023-04-05T21:00:00Z,OPIS 052100Z 05005KT 6000 FEW040 SCT100 15/09 Q1013 NOSIG
OPKC,2023-04-05T21:00:00Z,OPKC 052100Z 27006KT 7000 NSC 23/17 Q1011 NOSIG
OPLA,2023-04-05T20:55:00Z,OPLA 052055Z 00000KT 5000 FU SCT100 17/12 Q1012 NOSIG RMK QFE987 A29.88
OPMT,2023-04-05T21:00:00Z,OPMT 052100Z 00000KT 4000 FU NSC 17/14 Q1010 NOSIG
OPNH,2023-04-05T21:00:00Z,OPNH 052100Z 36004KT 4000 HZ NSC 23/16 Q1007
OPPS,2023-04-05T21:00:00Z,OPPS 052100Z 18004KT 4000 BR FEW040 BKN100 15/12 Q1014
OPSK,2023-04-05T21:00:00Z,OPSK 052100Z 00000KT 4000 HZ NSC 24/14 Q1008 NOSIG
OPST,2023-04-05T20:00:00Z,OPST 052000Z 31006KT 4000 VCTS FEW030CB SCT040 SCT100 20/15 Q1013 TEMPO 31015G25KT 2000 -TSRA 77%
ORBI,2023-04-05T21:00:00Z,ORBI 052100Z 36005KT CAVOK 21/09 Q1009 NOSIG
ORER,2023-04-05T20:00:00Z,ORER 052000Z 28010KT CAVOK 18/06 Q1012
ORMM,2023-04-05T20:00:00Z,ORMM 052000Z 00000KT CAVOK 24/09 Q1011 NOSIG
ORNI,2023-04-05T21:00:00Z,ORNI 052100Z 19007KT 8000 FEW040 24/04 Q1008
ORSU,2023-04-05T20:00:00Z,ORSU 052000Z 29006KT CAVOK 11/10 Q1014
OSAP,2023-04-05T21:00:00Z,OSAP 052100Z 26004KT CAVOK 12/11 Q1015
OSDI,2023-04-05T21:00:00Z,OSDI 052100Z 21010KT CAVOK 10/03 Q1016
OSKL,2023-04-05T21:00:00Z,OSKL 052100Z 27006KT CAVOK 11/06 Q1011
OSLK,2023-04-05T21:00:00Z,OSLK 052100Z 22010G20KT 9999 SCT026 BKN030 17/12 Q1015
OTBD,2023-04-05T21:00:00Z,OTBD 052100Z VRB01KT CAVOK 22/14 Q1012 NOSIG
OTBH,2023-04-05T20:55:00Z,OTBH 052055Z 25005KT 9999 FEW200 19/12 A2987 Q1011 RMK AO2A SLP116 T01890119 403180163 58003 FZRANO $
OTHH,2023-04-05T21:00:00Z,OTHH 052100Z 27003KT 210V310 CAVOK 19/14 Q1011 NOSIG
PAAD,2023-04-05T20:55:00Z,PAAD 052055Z AUTO 25012KT 10SM CLR M24/M28 A2990 RMK AO2 T12451282
PAAK,2023-04-05T21:10:00Z,PAAK 052110Z AUTO 10SM SCT013 OVC019 A2994 RMK AO2 P0033 FZRANO $
PAAQ,2023-04-05T20:53:00Z,PAAQ 052053Z 17003KT 10SM OVC055 03/M02 A2956 RMK AO2 SLP015 T00281022 58011
PABA,2023-04-05T20:52:00Z,PABA 052052Z AUTO 24006KT 10SM CLR M21/M25 A2993 RMK AO2 SLP144 6//// T12061250 56002 FZRANO PNO $
PABE,2023-04-05T20:53:00Z,PABE 052053Z 30009KT 10SM CLR M15/M19 A2991 RMK AO2 SLP132 T11501189 51007
PABI,2023-04-05T20:53:00Z,PABI 052053Z 30008KT 10SM FEW065 SCT110 SCT200 M02/M07 A2953 RMK AO2 SLP024 ACSL DSNT SE-S T10171072 58005
PABL,2023-04-05T20:56:00Z,PABL 052056Z AUTO 29015G19KT 10SM CLR M19/M24 A2993 RMK AO2 SLP137 T11941239 56003 FZRANO
PABR,2023-04-05T20:53:00Z,PABR 052053Z 30009KT 7SM OVC013 M21/M24 A2980 RMK AO2 SLP094 60000 T12111244 53003
PABT,2023-04-05T20:53:00Z,PABT 052053Z 16005KT 10SM FEW019 FEW220 M17/M23 A2969 RMK AO2 SLP077 T11671228 55000 PNO
PABV,2023-04-05T20:56:00Z,PABV 052056Z AUTO 31003KT 10SM BKN032 OVC055 02/00 A2960 RMK AO2 SLP028 60000 T00220000 58010 FZRANO
PACD,2023-04-05T20:53:00Z,PACD 052053Z 34010KT 10SM OVC020 00/M05 A2995 RMK AO2 SLP143 T00001050 50003
PACM,2023-04-05T20:56:00Z,PACM 052056Z AUTO 25009KT CLR M12/M16 A3000 RMK AO2 SLP155 T11171156 58000 PWINO FZRANO $
PACV,2023-04-05T20:53:00Z,PACV 052053Z 09003KT 9SM -RA FEW009 BKN025 OVC033 03/01 A2952 RMK AO2 SLP996 P0001 60002 T00280011 58009
PACZ,2023-04-05T20:55:00Z,PACZ 052055Z AUTO 03015KT 010V190 10SM CLR M16/M23 A2990 RMK AO2 SLP145 T11561227 50003
PADG,2023-04-05T20:57:00Z,PADG 052057Z 08005KT 15SM SKC M20/M24 A2979
PADK,2023-04-05T20:56:00Z,PADK 052056Z AUTO 14007KT OVC019 03/00 A2987 RMK AO2 SLP114 T00330000 58022 PWINO $
PADL,2023-04-05T20:56:00Z,PADL 052056Z 03006KT 10SM BKN023 01/M06 A2977 RMK AO2 SLP084 T00061056 51010
PADM,2023-04-05T20:56:00Z,PADM 052056Z AUTO 00000KT 10SM CLR M03/M17 A2994 RMK AO2 SLP146 T10331172 52004 FZRANO
PADQ,2023-04-05T20:53:00Z,PADQ 052053Z 28009KT 10SM BKN055 05/00 A2963 RMK AO2 SLP035 60000 T00500000 58001
PADU,2023-04-05T20:56:00Z,PADU 052056Z 00000KT 10SM BKN016 BKN030 03/M01 A2997 RMK AO2 SLP155 60000 T00281006 56002
PAED,2023-04-05T20:55:00Z,PAED 052055Z 26004KT 10SM SCT007 BKN020 01/M00 A2957 RMK AO2A SCT007 V BKN SLP011 T00141001 57010 $
PAEG,2023-04-05T20:53:00Z,PAEG 052053Z AUTO VRB05KT 10SM OVC065 03/M07 A2951 RMK AO2 SLP003 T00331067 58011 TSNO
PAEH,2023-04-05T20:55:00Z,PAEH 052055Z AUTO 35016KT 10SM CLR M11/M14 A2990 RMK AO2 SLP141 T11071141 52003
PAEI,2023-04-05T20:55:00Z,PAEI 052055Z 22009KT 2 1/2SM -SN BR SCT007 OVC012 M04/M07 A2958 RMK AO2A SLP028 T10411072 53002
PAEL,2023-04-05T20:50:00Z,PAEL 052050Z 09011KT 15SM OVC012 04/02 A2955 RMK NOSPECI
PAEN,2023-04-05T20:53:00Z,PAEN 052053Z 00000KT 10SM BKN014 OVC022 00/M01 A2960 RMK AO2 SLP026 60000 T00001011 58009
PAFA,2023-04-05T20:53:00Z,PAFA 052053Z 28007KT 5SM -SN BR FEW035 BKN050 OVC075 M02/M09 A2960 RMK AO2 SNB18 SLP032 P0000 60000 T10221089 52004
PAFB,2023-04-05T20:55:00Z,PAFB 052055Z 22007KT 1 1/2SM -SN BR BKN026 OVC039 M04/M07 A2959 RMK AO2A SNE1955SNB01E23SNB36 SLP032 P0000 60000 T10431071 51002
PAFE,2023-04-05T20:56:00Z,PAFE 052056Z AUTO 10009G21KT 7SM RA BKN019 OVC026 03/02 A2966 RMK AO2 SLP057 P0005 60019 T00280017 56016
PAFM,2023-04-05T20:56:00Z,PAFM 052056Z AUTO 17003KT 10SM CLR M19/M26 A2984 RMK AO2 SLP118 T11891256 51001 FZRANO
PAFR,2023-04-05T21:05:00Z,PAFR 052105Z AUTO 00000KT 9SM BKN021 OVC047 02/M01 A2957 RMK AO2 CIG 021V047 SLP022 $
PAFS,2023-04-05T21:01:00Z,PAFS 052101Z AUTO 27009KT 10SM CLR M09/M15 A2972 RMK AO2 SLP076 60000 T10891150 53002 FZRANO
PAGK,2023-04-05T20:53:00Z,PAGK 052053Z AUTO 00000KT 8SM -SN BKN017 BKN036 OVC045 M01/M04 A2953 RMK AO2 SNB52 SLP028 P0000 60001 T10061044 56007 TSNO $
PAGL,2023-04-05T20:56:00Z,PAGL 052056Z AUTO 00000KT 10SM CLR M19/M26 A2996 RMK AO2 SLP140 T11941256 55000 FZRANO
PAGN,2023-04-05T20:56:00Z,PAGN 052056Z AUTO 10009KT 10SM -RA BKN032 OVC040 04/02 A2965 RMK AO2 SLP031 P0000 60001 T00440022 58015
PAGS,2023-04-05T20:56:00Z,PAGS 052056Z AUTO 32004KT 10SM -RA BKN033 OVC042 04/03 A2964 RMK AO2 RAE25B43 SLP035 P0001 60002 T00440033 58014
PAGY,2023-04-05T20:53:00Z,PAGY 052053Z AUTO 00000KT 10SM BKN020 BKN034 OVC060 03/02 A2967 RMK AO2 SLP047 T00330017 58001 TSNO
PAHL,2023-04-05T20:56:00Z,PAHL 052056Z AUTO 20003KT 10SM CLR M14/M23 A2982 RMK AO2 SLP105 T11441228 50000 FZRANO
PAHN,2023-04-05T20:54:00Z,PAHN 052054Z AUTO 26003KT 4SM BR FEW006 BKN017 OVC048 02/01 A2966 RMK AO2 SLP045 60001 T00220011 58013 TSNO
PAHO,2023-04-05T20:53:00Z,PAHO 052053Z 25009KT 10SM BKN023 BKN055 02/M01 A2961 RMK AO2 SLP027 T00221011 56007
PAHX,2023-04-05T21:02:00Z,PAHX 052102Z AUTO 35005KT 10SM CLR M09/M18 A2986 RMK AO2 SLP114 T10891183 50001 FZRANO
PAHY,2023-04-05T20:56:00Z,PAHY 052056Z AUTO 09012G26KT 050V110 6SM RA BR OVC015 05/03 A2965 RMK AO2 PK WND 11032/2012 SLP037 P0014 60028 T00500028 55007 $
PAIG,2023-04-05T20:56:00Z,PAIG 052056Z AUTO 32005KT 10SM UP OVC026 01/M03 A2971 RMK AO2 UPB15E27B47SNE15 SLP071 P0000 60000 T00061028 51012 FZRANO $
PAIK,2023-04-05T20:56:00Z,PAIK 052056Z AUTO VRB03KT 10SM CLR M19/M26 A2988 RMK AO2 SLP123 T11941256 58003 FZRANO
PAIM,2023-04-05T20:55:00Z,PAIM 052055Z AUTO 12002KT 10SM CLR M16/M22 A2964 RMK AO2 SLP083 T11631220 54001
PAIW,2023-04-05T20:56:00Z,PAIW 052056Z AUTO 05014KT 10SM CLR M21/M23 A3001 RMK AO2 SLP163 T12061233 50000 FZRANO
PAJC,2023-04-05T20:57:00Z,PAJC 052057Z AUTO 25014G23KT 10SM CLR M01/M06 A2988 RMK AO2 SLP119 6//// T10111061 53007 FZRANO PNO $
PAJN,2023-04-05T20:53:00Z,PAJN 052053Z 10013KT 10SM -RA FEW003 BKN042 OVC060 04/02 A2965 RMK AO2 SLP040 P0000 60002 T00390022 58015
PAJZ,2023-04-05T20:56:00Z,PAJZ 052056Z AUTO 02013KT 8SM BKN033 M03/M08 A2980 RMK AO2 SLP097 60000 T10281078 51006 FZRANO $
PAKF,2023-04-05T21:08:00Z,PAKF 052108Z AUTO 36007KT 10SM BKN022 A2995 RMK AO2 FZRANO $
PAKH,2023-04-05T20:56:00Z,PAKH 052056Z AUTO 10SM -RA SCT016 BKN021 OVC055 A2970 RMK AO2 RAB45 SLPNO P0000 60000 54000 FZRANO TSNO $
PAKI,2023-04-05T20:56:00Z,PAKI 052056Z AUTO 10SM CLR A2996 RMK AO2 SLPNO 6//// 58003 FZRANO $
PAKN,2023-04-05T20:54:00Z,PAKN 052054Z COR 01010KT 10SM SCT011 BKN026 BKN065 M01/M03 A2971 RMK AO2 SNE44 SLP060 P0000 60000 T10111028 51012
PAKP,2023-04-05T20:56:00Z,PAKP 052056Z AUTO 04010KT 10SM CLR M21/M26 A2958 RMK AO2 SLP106 T12061256 56005 FZRANO
PAKT,2023-04-05T20:53:00Z,PAKT 052053Z 14017G21KT 8SM -RA SCT010 OVC022 04/02 A2972 RMK AO2 SLP066 HARBOR WIND 12020KT P0006 60014 T00440022 58012
PAKU,2023-04-05T20:45:00Z,PAKU 052045Z 25015KT 3SM R24/P6000FT DRSN BR FEW026 SCT050 M25/M28 A2988
PAKV,2023-04-05T20:53:00Z,PAKV 052053Z AUTO 11005KT 10SM OVC100 M11/M22 A2985 RMK AO2 SLP113 T11111217 58006 TSNO
PAKW,2023-04-05T21:07:00Z,PAKW 052107Z AUTO VRB05KT 5SM -RA FEW022 BKN027 OVC035 06/03 A2961 RMK AO2 P0001 T00560028 TSNO
PAKX,2023-04-05T20:55:00Z,PAKX 052055Z AUTO 25007KT 3SM -SN SCT009 BKN012 OVC021 00/00 A2963 RMK AO2
PALG,2023-04-05T20:56:00Z,PALG 052056Z AUTO VRB03KT 9SM -SN SCT015 OVC021 M10/M15 A2987 RMK AO2 SLP118 P0000 60000 T11001150 51010 FZRANO
PALH,2023-04-05T21:03:00Z,PALH 052103Z 31006KT 5SM BR OVC009 00/M01 A2959 RMK AO2 CIG 006V011 T00001006
PALU,2023-04-05T21:08:00Z,PALU 052108Z AUTO 30012KT 10SM CLR M20/M23 A3000 RMK AO2 SLP158
PAMB,2023-04-05T20:56:00Z,PAMB 052056Z AUTO 00000KT 8SM OVC019 01/M05 A2977 RMK AO2 SLP086 T00061050 51010 FZRANO $
PAMC,2023-04-05T20:53:00Z,PAMC 052053Z AUTO 01004KT 10SM CLR M09/M17 A2975 RMK AO2 SLP083 T10941172 58001 TSNO
PAMK,2023-04-05T20:56:00Z,PAMK 052056Z AUTO 02005KT 10SM CLR M11/M18 A2995 RMK AO2 SLP143 T11061183 53002 FZRANO
PAMM,2023-04-05T20:56:00Z,PAMM 052056Z AUTO 12008G20KT 10SM RA OVC026 05/02 A2975 RMK AO2 SLP169 P0006 60016 T00500022 56011 $
PAMO,2023-04-05T20:56:00Z,PAMO 052056Z AUTO 33010KT 10SM CLR M16/M18 A2992 RMK AO2 SLP143 60000 T11611183 50002 FZRANO
PAMR,2023-04-05T20:53:00Z,PAMR 052053Z 31004KT 10SM SCT008 OVC013 01/M01 A2958 RMK AO2 SLP019 6//// T00111011 58010 $
PAMY,2023-04-05T20:56:00Z,PAMY 052056Z AUTO 27006KT 9SM -SN CLR M11/M13 A3031 RMK AO2 SLP265 P0000 60000 T11061128 53377 FZRANO
PANA,2023-04-05T20:56:00Z,PANA 052056Z AUTO 31009KT 10SM CLR M13/M18 A2992 RMK AO2 SLP131 T11281178 51006 FZRANO TSNO $
PANC,2023-04-05T20:53:00Z,PANC 052053Z 28003KT 7SM -SN OVC005 00/M01 A2958 RMK AO2 SNB13 SLP019 P0000 60001 T00001011 58009
PANI,2023-04-05T20:56:00Z,PANI 052056Z AUTO 32007KT 9SM SCT021 M12/M16 A2990 RMK AO2 SNE55 SLP119 P0000 60000 T11171161 53006 FZRANO $
PANV,2023-04-05T20:56:00Z,PANV 052056Z AUTO 26004KT 10SM CLR M06/M18 A2982 RMK AO2 SLP221 T10611178 58001 FZRANO TSNO
PANW,2023-04-05T20:56:00Z,PANW 052056Z AUTO 03011KT 10SM BKN030 M02/M07 A2975 RMK AO2 SNE1959 SLP084 P0000 60000 T10221067 51008 FZRANO
PAOH,2023-04-05T20:56:00Z,PAOH 052056Z AUTO 07009KT 10SM -RA 03/02 A2962 RMK AO2 SLP029 P0000 60002 T00330022 58015 $
PAOM,2023-04-05T20:53:00Z,PAOM 052053Z 00000KT 10SM CLR M18/M23 A2995 RMK AO2 SLP142 T11781233 55000
PAOO,2023-04-05T20:56:00Z,PAOO 052056Z AUTO CLR M13/M16 A2998 RMK AO2 SLP158 T11281161 58002 PWINO FZRANO TSNO $
PAOR,2023-04-05T20:53:00Z,PAOR 052053Z 13006KT 10SM CLR 00/M09 A2948 RMK AO2 SLP013 T00001094 56012 PNO
PAOT,2023-04-05T20:53:00Z,PAOT 052053Z 29011KT 10SM CLR M21/M23 A2989 RMK AO2 SLP121 T12111233 57005
PAOU,2023-04-05T20:56:00Z,PAOU 052056Z AUTO 32011KT 10SM OVC020 M03/M06 A2995 RMK AO2 SLP143 6//// T10281061 51007 FZRANO PNO $
PAPB,2023-04-05T20:53:00Z,PAPB 052053Z AUTO 16008KT 10SM OVC020 00/M04 A2991 RMK AO2 SLP117 T00001039 55010 TSNO $
PAPG,2023-04-05T21:08:00Z,PAPG 052108Z VRB04KT 6SM -RA BR FEW024 OVC030 04/02 A2971 RMK AO2 P0000
PAPH,2023-04-05T20:56:00Z,PAPH 052056Z AUTO 28016G21KT 10SM SCT020 M01/M06 A2989 RMK AO2 SLP122 T10111061 51013 FZRANO
PAPM,2023-04-05T20:56:00Z,PAPM 052056Z AUTO 34018KT 10SM CLR M09/M16 A2992 RMK AO2 SLPNO 6//// T10941156 FZRANO
PAPN,2023-04-05T20:56:00Z,PAPN 052056Z AUTO 26015KT 7SM OVC016 M01/M04 A2980 RMK AO2 SLP094 T10111039 51010 FZRANO
PAPO,2023-04-05T20:56:00Z,PAPO 052056Z AUTO 34006KT 8SM FEW006 M20/M23 A3002 RMK AO2 SLP164 T12001228 56003 FZRANO
PAPT,2023-04-05T20:57:00Z,PAPT 052057Z 34005KT 25SM SCT020 BRK070 M01/M01 A2948 RMK NO SPECI FIRST
PAQT,2023-04-05T20:53:00Z,PAQT 052053Z AUTO 22011KT 10SM FEW055 M24/M28 A2989 RMK AO2 SLP121 T12441278 50000 TSNO PNO
PARC,2023-04-05T20:56:00Z,PARC 052056Z AUTO 36007KT 5SM HZ OVC044 M11/M17 A2948 RMK AO2 SLP053 60000 T11111167 58003 FZRANO
PART,2023-04-05T20:10:00Z,PART 1 OF 2 METAR 
PARY,2023-04-05T20:56:00Z,PARY 052056Z AUTO 26006G14KT 10SM CLR M12/M21 A2972 RMK AO2 SLP085 T11171211 58002 FZRANO
PASA,2023-04-05T20:56:00Z,PASA 052056Z AUTO 09007KT 7SM BKN029 OVC035 M12/M14 A2998 RMK AO2 SNE38 SLP152 P0000 60000 T11171144 55000 FZRANO
PASC,2023-04-05T20:53:00Z,PASC 052053Z 24013KT 10SM FEW050 FEW240 M25/M29 A2988 RMK AO2 SLP122 T12501289 56001
PASD,2023-04-05T20:56:00Z,PASD 052056Z 33015KT 10SM FEW030 FEW080 01/M06 A2990 RMK AO2 SLP127 6//// T00061061 50005 PNO $
PASI,2023-04-05T20:53:00Z,PASI 052053Z 10018G25KT 3SM -RA SCT010 OVC023 04/01 A2952 RMK AO2 PK WND 10026/2041 SLP996 P0004 60004 T00440006 56014
PASK,2023-04-05T20:56:00Z,PASK 052056Z AUTO 24013KT 10SM CLR M21/M25 A2988 RMK AO2 SLP116 60000 T12111250 58005 FZRANO
PASL,2023-04-05T20:56:00Z,PASL 052056Z AUTO VRB04KT 10SM BKN036 M04/M11 A2980 RMK AO2 SLP083 T10391111 58004 FZRANO
PASM,2023-04-05T20:56:00Z,PASM 052056Z AUTO 30004KT 10SM CLR M16/M20 A2992 RMK AO2 SLP148 T11561200 50003 FZRANO
PASN,2023-04-05T20:53:00Z,PASN 052053Z AUTO 12009KT 10SM OVC026 M01/M05 A2991 RMK AO2 SLP129 T10111050 58008 TSNO $
PASO,2023-04-05T20:53:00Z,PASO 052053Z AUTO 02004KT 9SM BKN008 OVC021 03/02 A2961 RMK AO2 RAE40 SLP028 P0000 60000 T00280022 58006 TSNO
PASV,2023-04-05T21:04:00Z,PASV 052104Z AUTO 34010G17KT 310V040 10SM FEW017 OVC070 M09/M14 A2963 RMK AO2 SLP066
PASX,2023-04-05T21:08:00Z,PASX 052108Z AUTO 27005KT 4SM -RA BR OVC010 01/00 A2962 RMK AO2 P0000 FZRANO
PASY,2023-04-05T20:59:00Z,PASY 052059Z 22009KT 10SM FEW018 SCT028 BKN240 03/M00 A2977 RMK AO2A SLP084 T00271005 58010 RVRNO PNO $
PATA,2023-04-05T20:52:00Z,PATA 052052Z 35010KT 10SM CLR M09/M19 A2970 RMK AO2 SLP066 T10941189 58001
PATC,2023-04-05T20:55:00Z,PATC 052055Z AUTO 03014KT 10SM CLR M20/M25 A2994 RMK AO2 SLP153 T12001247 50001
PATG,2023-04-05T20:56:00Z,PATG 052056Z AUTO 30015KT 10SM CLR M06/M14 A2983 RMK AO2 SLP101 T10561139 51005 FZRANO
PATK,2023-04-05T21:03:00Z,PATK 052103Z 00000KT 8SM SCT006 OVC027 01/M01 A2957 RMK AO2 T00111011
PATL,2023-04-05T20:55:00Z,PATL 052055Z AUTO 00000KT 10SM CLR M09/M19 A2972 RMK AO2 SLP090 T10951189 54001 TSNO $
PATO,2023-04-05T20:53:00Z,PATO 052053Z AUTO 28006KT 10SM OVC050 03/M03 A2957 RMK AO2 SLP014 T00331033 58011 TSNO
PATQ,2023-04-05T21:05:00Z,PATQ 052105Z AUTO 27014KT 1 3/4SM -SN OVC015 M21/M23 A2984 RMK AO2 VIS 1 1/4V2 1/2 P0000 FZRANO TSNO
PAUN,2023-04-05T20:56:00Z,PAUN 052056Z AUTO 32011KT 10SM CLR M16/M21 A2992 RMK AO2 SLP135 T11561206 55002 FZRANO
PAVC,2023-04-05T20:56:00Z,PAVC 052056Z AUTO 30010KT 10SM CLR 02/M05 A2993 RMK AO2 SLP136 T00171050 51008 FZRANO
PAVD,2023-04-05T20:56:00Z,PAVD 052056Z 22003KT 10SM FEW027 SCT044 SCT060 03/M02 A2961 RMK AO2 SLP025 60006 T00331017 58016 $
PAVL,2023-04-05T20:53:00Z,PAVL 052053Z AUTO 32012KT 10SM CLR M22/M26 A2994 RMK AO2 SLP138 T12171256 58001 TSNO
PAWD,2023-04-05T20:53:00Z,PAWD 052053Z AUTO VRB06KT 10SM FEW038 SCT046 06/M04 A2955 RMK AO2 SLP006 T00561044 58014 TSNO
PAWG,2023-04-05T20:56:00Z,PAWG 052056Z 12006KT 10SM -RA FEW005 SCT020 OVC040 05/03 A2975
PAWI,2023-04-05T20:53:00Z,PAWI 052053Z AUTO 28012KT 4SM UP OVC016 M19/M23 A2983 RMK AO2 UPB1957 SLP104 T11941233 52000 TSNO
PAWM,2023-04-05T20:56:00Z,PAWM 052056Z AUTO 31007KT 9SM CLR M13/M23 A2991 RMK AO2 SLP139 T11331233 58002 FZRANO
PAWN,2023-04-05T20:56:00Z,PAWN 052056Z AUTO 00000KT 10SM CLR M23/M28 RMK AO2 SLPNO 6//// T12331278 FZRANO $
PAWS,2023-04-05T20:56:00Z,PAWS 052056Z AUTO 00000KT 10SM BKN016 OVC032 02/M02 A2958 RMK AO2 SLP024 60000 T00221017 56008 FZRANO
PAYA,2023-04-05T21:09:00Z,PAYA 052109Z AUTO 07006KT 5SM -RA BR FEW017 BKN027 OVC036 03/02 A2953 RMK AO2 P0000 T00330022 TSNO
PAZK,2023-04-05T20:56:00Z,PAZK 052056Z AUTO 33003KT 10SM FEW016 M02/M08 A2942 RMK AO2 SLP018 T10221078 56009 FZRANO
PFCL,2023-04-05T20:56:00Z,PFCL 052056Z AUTO 02004KT 10SM BKN018 OVC024 00/M04 A2977 RMK AO2 SLP075 60000 T00001039 51011 FZRANO TSNO
PFEL,2023-04-05T20:56:00Z,PFEL 052056Z AUTO 15005KT 10SM CLR M17/M23 A2992 RMK AO2 SLP138 T11671228 56002 FZRANO
PFKT,2023-04-05T20:56:00Z,PFKT 052056Z AUTO 02005KT 10SM CLR M14/M22 A2999 RMK AO2 SLPNO T11441222 58003 FZRANO
PFNO,2023-04-05T20:56:00Z,PFNO 052056Z AUTO 15003KT 10SM CLR M23/M27 A2988 RMK AO2 SLP208 T12281272 58003 FZRANO $
PFSH,2023-04-05T20:56:00Z,PFSH 052056Z AUTO 02005KT 10SM SCT110 M18/M23 A2995 RMK AO2 SLP142 T11831233 51001 FZRANO
PFWS,2023-04-05T20:56:00Z,PFWS 052056Z AUTO 02013KT 10SM OVC026 M02/M04 A2976 RMK AO2 SNE26 SLP121 P0000 60000 T10171044 51012 FZRANO
PFYU,2023-04-05T20:56:00Z,PFYU 052056Z 25004KT 2SM -SN FEW014 OVC032 M03/M08 A2960 RMK AO2 SLP039 P0000 60000 T10331083 51001
PGRO,2023-04-05T20:55:00Z,PGRO 052055Z 05013G18KT 7SM -RA BKN013 OVC080 24/22 A2982
PGSN,2023-04-05T20:54:00Z,PGSN 052054Z 04015G22KT 10SM SCT029 BKN065 26/21 A2985 RMK AO2 SLP131 T02560206 53009
PGUA,2023-04-05T21:02:00Z,PGUA 052102Z AUTO 36018G24KT 10SM FEW013 OVC020 25/20 A2984 RMK AO2 RAE02 SLP095 $
PGUM,2023-04-05T20:54:00Z,PGUM 052054Z COR 01010G20KT 5SM BR FEW012 BKN022 OVC035 24/22 A2985 RMK AO2 RAE01B14E54 SLP100 P0001 60001 T02390222 53010
PHBK,2023-04-05T21:09:00Z,PHBK 052109Z AUTO 30005KT 10SM BKN055 26/18 A3012 RMK AO2 T02560178
PHHI,2023-04-05T20:55:00Z,PHHI 052055Z AUTO 06004KT 10SM BKN030 OVC038 25/17 A3016 RMK AO2 RAB18E19DZB19E27RAB27E28 SLP204 P0000 60000 T02470174 50006 $
PHJR,2023-04-05T20:53:00Z,PHJR 052053Z 02009G17KT 350V050 10SM SCT041 27/17 A3013 RMK AO2 SLP210 T02720167 50006 $
PHKO,2023-04-05T20:53:00Z,PHKO 052053Z 24005KT 10SM SCT028 OVC055 26/19 A3010 RMK AO2 SLP190 T02560194 50005
PHLI,2023-04-05T20:53:00Z,PHLI 052053Z 06014KT 10SM FEW023 BKN038 26/20 A3017 RMK AO2 SLP215 T02610200 50007
PHMK,2023-04-05T20:54:00Z,PHMK 052054Z 03014G24KT 10SM CLR 26/18 A3014 RMK AO2 PK WND 06026/2018 SLP209 T02560178 50006
PHNG,2023-04-05T20:57:00Z,PHNG 052057Z 08011G18KT 10SM SCT027 SCT044 28/21 A3013 RMK AO2 SLP197 T02830211 50009
PHNL,2023-04-05T20:53:00Z,PHNL 052053Z 06017KT 10SM FEW025 SCT037 SCT200 28/19 A3013 RMK AO2 PK WND 07027/2026 SLP202 T02830189 50006
PHNY,2023-04-05T20:56:00Z,PHNY 052056Z AUTO 28004KT 10SM 22/18 A3018 RMK AO2 SLP201 T02170178 51009 $
PHOG,2023-04-05T20:54:00Z,PHOG 052054Z 04020G26KT 10SM FEW040 28/16 A3012 RMK AO2 PK WND 04026/2046 SLP206 T02780156 50004
PHSF,2023-04-05T20:55:00Z,PHSF 052055Z AUTO 14010KT 10SM CLR 19/11 A3040 RMK AO2 SLP186 T01870105 50004 $
PHTO,2023-04-05T20:53:00Z,PHTO 052053Z 28005KT 10SM BKN023 BKN029 OVC055 25/19 A3014 RMK AO2 SLP203 60005 T02500194 50001
PKMJ,2023-04-05T20:55:00Z,PKMJ 052055Z 06018KT 15SM FEW015 SCT050 BKN300 29/25 A2982 
PKMR,2023-04-05T20:55:00Z,PKMR 052055Z 07011KT 20SM FEW016 SCT300 29/24 A2981 RMK SLP097 8/101 T02920244 52022
PKWA,2023-04-05T21:00:00Z,PKWA 052100Z AUTO 07017KT 10SM SCT018 SCT033 SCT044 28/25 A2985 RMK AO2 T02840245 TSNO
PLCH,2023-04-05T20:00:00Z,PLCH 052000Z 06006KT 9999 SCT019 31/26 Q1010
PMDY,2023-04-05T20:56:00Z,PMDY 052056Z AUTO 10SM SCT009 OVC042 23/21 A3022 RMK AO2 SLP233 T02280206 50003 TSNO $
PPIZ,2023-04-05T20:56:00Z,PPIZ 052056Z AUTO 26009KT 10SM FEW010 M23/M26 A2994 RMK AO2 SNE25 SLP144 P0000 60000 T12331256 51002 FZRANO
PTKK,2023-04-05T20:52:00Z,PTKK 052052Z VRB04KT 15SM FEW014 SCT120 BKN280 28/25 A2981 RMK SLP096 8/171 T02780250 52017
PTTP,2023-04-05T20:50:00Z,PTTP 052050Z 08005KT 15SM FEW018 BKN300 28/25 A2985 RMK SLP107 8/101 T02830247 52017
PTYA,2023-04-05T20:52:00Z,PTYA 052052Z VRB03KT 12SM FEW016 SCT130 OVC300 26/25 A2978 RMK SLP084 8/178 T02630247 52008
PWAK,2023-04-05T20:55:00Z,PWAK 052055Z AUTO 14008KT 9SM CLR 27/24 A2993 RMK AO2 LTG DSNT W SLP141 T02690235 51015
RCKH,2023-04-05T21:00:00Z,RCKH 052100Z 17010KT 140V200 9999 FEW016 SCT060 BKN100 26/22 Q1010 NOSIG RMK A2985
RCMQ,2023-04-05T21:00:00Z,RCMQ 052100Z 24004KT 9999 FEW010 BKN040 22/20 Q1012 NOSIG RMK A2990
RCNN,2023-04-05T21:00:00Z,RCNN 052100Z 18006KT 9999 FEW012 BKN040 25/21 Q1011 NOSIG RMK A2987
RCSS,2023-04-05T21:00:00Z,RCSS 052100Z VRB02KT 9999 FEW012 BKN040 BKN060 21/20 Q1012 NOSIG RMK A2989
RCTP,2023-04-05T21:00:00Z,RCTP 052100Z 06005KT 7000 -RA FEW010 SCT035 BKN045 22/21 Q1012 NOSIG RMK A2989
RJAA,2023-04-05T21:00:00Z,RJAA 052100Z 18008KT 9999 FEW030 BKN050 BKN/// 15/10 Q1018 NOSIG
RJAH,2023-04-05T21:00:00Z,RJAH 052100Z 17010KT 9999 FEW030 BKN130 BKN250 15/08 Q1017
RJAW,2023-04-05T21:00:00Z,RJAW 052100Z 10011KT 9999 FEW025 SCT050 19/11 Q1019 RMK 1CU025 3SC050 A3010 WIND BY EQPT/25
RJBB,2023-04-05T21:00:00Z,RJBB 052100Z 17010KT 9999 -SHRA FEW020 BKN040 BKN100 16/14 Q1016 NOSIG
RJCC,2023-04-05T21:00:00Z,RJCC 052100Z 18003KT 120V230 9999 -SHRA FEW025 SCT060 BKN080 07/04 Q1015 RMK 1CU025 3CU060 7AC080 A3000
RJDB,2023-04-05T21:00:00Z,RJDB 052100Z AUTO 26007KT 210V300 2100 BR FEW005 BKN007 BKN009 15/14 Q1011
RJFF,2023-04-05T21:00:00Z,RJFF 052100Z 15011KT 9999 -SHRA FEW008 SCT015 BKN020 17/15 Q1011 BECMG 29007KT TEMPO FEW005 BKN008 BKN015
RJFK,2023-04-05T21:00:00Z,RJFK 052100Z 11005KT 3500 -SHRA BCFG BR FEW003 BKN006 BKN010 15/15 Q1014 RMK 1ST003 5ST006 7CU010 A2997 FG ALL QUAD
RJFM,2023-04-05T21:00:00Z,RJFM 052100Z AUTO 28006KT 250V340 9000 FEW006 BKN010 BKN012 16/15 Q1014
RJFR,2023-04-05T21:00:00Z,RJFR 052100Z 11008KT 9999 FEW010 BKN035 16/14 Q1011
RJFY,2023-04-05T20:41:00Z,RJFY 052041Z VRB02KT 3100 SHRA BR FEW003 BKN015 OVC025 17/16 Q1014 RMK 2ST003 5CU015 8CU025 A2996
RJGG,2023-04-05T21:00:00Z,RJGG 052100Z 12008KT 9999 -RA FEW020 SCT030 OVC070 15/14 Q1018 NOSIG
RJKA,2023-04-05T21:00:00Z,RJKA 052100Z AUTO 17016KT 9999 NSC 21/18 Q1015
RJKI,2023-04-05T21:00:00Z,RJKI 052100Z AUTO 16012KT 130V200 9999 FEW017 OVC050 21/17 Q1015
RJNG,2023-04-05T20:46:00Z,RJNG 052046Z 08007KT 4500 -RA BR FEW010 SCT015 BKN020 14/13 Q1018 RMK 1SC010 4SC015 5SC020 A3009
RJNK,2023-04-05T21:00:00Z,RJNK 052100Z 17014KT 9999 SCT030 BKN060 BKN080 17/11 Q1012
RJNY,2023-04-05T20:43:00Z,RJNY 052043Z 34002KT 9999 FEW015 SCT030 BKN060 15/13 Q1019 RMK 1CU015 4CU030 6SC060 A3011
RJOF,2023-04-05T20:46:00Z,RJOF 052046Z 11012KT 9999 FEW005 SCT030 BKN045 16/14 Q1012 RMK 1ST005 4CU030 7SC045 A2991
RJOH,2023-04-05T21:00:00Z,RJOH 052100Z 18017G28KT 9999 FEW020 BKN060 18/12 Q1009
RJOI,2023-04-05T20:56:00Z,RJOI 052056Z 14008KT 2 1/2SM -RA BR SCT008 BKN015 OVC030 16/13 A2995 RMK AO2 SLP140 P0004 60011 T01610133 56006
RJOK,2023-04-05T21:00:00Z,RJOK 052100Z AUTO 15009KT 4100 -RA BR FEW014 SCT026 BKN031 17/14 Q1017
RJOO,2023-04-05T21:00:00Z,RJOO 052100Z AUTO 08003KT 040V100 9999 -RA OVC032 15/12 Q1017 RMK A3003
RJOS,2023-04-05T21:00:00Z,RJOS 052100Z 16017KT 9999 FEW025 SCT050 BKN100 16/13 Q1015
RJSM,2023-04-05T21:00:00Z,RJSM 052100Z 32004KT 8000 FEW050 BKN100 BKN150 09/07 Q1015
RJTT,2023-04-05T21:00:00Z,RJTT 052100Z 21019KT 9999 FEW020 SCT050 BKN150 18/13 Q1018 TEMPO 21020G30KT RMK 1CU020 3SC050 7AC150 A3006
RJTY,2023-04-05T20:55:00Z,RJTY 052055Z 19008KT 9SM -DZ FEW030 SCT140 BKN200 14/11 A3006 RMK AO2A RAB10E13 SLP182 P0000 60000 T01440108 55002 $
RKJB,2023-04-05T21:00:00Z,RKJB 052100Z 26008KT 220V340 1500 -DZ BKN004 OVC021 09/08 Q1013 NOSIG
RKJK,2023-04-05T21:05:00Z,RKJK 052105Z AUTO 24011KT 2 3/4SM -DZ BR BKN005 OVC011 09/09 A2985 RMK AO2 VIS 2 1/4 RWY36 RAE2057DZB2057 SLP113 $
RKNY,2023-04-05T21:00:00Z,RKNY 052100Z AUTO 25014KT 220V290 9999 NCD 11/05 Q1006
RKPC,2023-04-05T21:00:00Z,RKPC 052100Z 27007KT 220V290 9999 SCT015 BKN030 11/08 Q1014 NOSIG
RKPK,2023-04-05T21:00:00Z,RKPK 052100Z 23007KT 9999 BKN025 12/08 Q1011
RKSG,2023-04-05T20:55:00Z,RKSG 052055Z 22005KT 3SM BR OVC009 09/09 A2981 RMK AO2A SLP098 60001 T00910089 55002 $
RKSI,2023-04-05T21:00:00Z,RKSI 052100Z 19009KT 1500 -DZ BR BKN002 BKN020 08/08 Q1009 NOSIG
RKSM,2023-04-05T20:00:00Z,RKSM 052000Z 17005KT 3200 -RA BR SCT005 BKN010 OVC015 09/08 A2982
RKSO,2023-04-05T20:55:00Z,RKSO 052055Z 23004KT 2SM BR OVC006 09/09 A2982 RMK AO2A SLP102 P0001 60002 T00910091 55001 $
RKSS,2023-04-05T21:00:00Z,RKSS 052100Z 16004KT 130V190 2500 -DZ BR SCT005 BKN020 09/09 Q1010 NOSIG
RKTI,2023-04-05T20:46:00Z,RKTI 052046Z 04001KT 3200 -DZ BR SCT006 BKN010 OVC015 08/08 A2983 RMK CIG010
RKTN,2023-04-05T21:00:00Z,RKTN 052100Z 31007KT 9999 FEW020 BKN030 12/08 Q1010
RKTP,2023-04-05T20:21:00Z,RKTP 052021Z 22014KT 200 R03/200 -DZ FG FEW000 BKN002 OVC003 08/08 A2984 RMK CIG002 FG FEW000 WR24
RKTU,2023-04-05T21:00:00Z,RKTU 052100Z 21006KT 8000 -DZ SCT010 OVC015 09/08 Q1010
ROAH,2023-04-05T21:00:00Z,ROAH 052100Z 16017KT 9999 FEW015 SCT020 BKN120 22/19 Q1014 RMK 1CU015 3CU020 7AC120 A2995
RODE,2023-04-05T20:59:00Z,RODE 052059Z AUTO 18013G21KT FEW031 22/19 A2996 RMK AO2 SLP185 T02170194 53002 $
RODN,2023-04-05T20:55:00Z,RODN 052055Z AUTO 14010KT 10SM FEW021 SCT034 22/18 A2993 RMK AO2 SLP141 60000 T02150179 55006 $
ROIG,2023-04-05T21:00:00Z,ROIG 052100Z AUTO 18006KT 9999 FEW018 SCT027 BKN033 23/20 Q1013
ROMD,2023-04-05T21:00:00Z,ROMD 052100Z AUTO 14010KT 110V180 9999 NCD 21/18 Q1016
ROMY,2023-04-05T21:00:00Z,ROMY 052100Z AUTO 18006KT 9999 BKN021 BKN032 OVC050 23/19 Q1013
RORK,2023-04-05T21:00:00Z,RORK 052100Z AUTO 13018KT 9999 BKN023 BKN031 22/18 Q1016
RORS,2023-04-05T21:00:00Z,RORS 052100Z AUTO 18010KT 9999 FEW021 SCT170 23/19 Q1013
RORT,2023-04-05T21:00:00Z,RORT 052100Z AUTO 17011KT 9999 SCT018 SCT026 BKN029 23/20 Q1013
RORY,2023-04-05T21:00:00Z,RORY 052100Z AUTO 17011KT 9999 SCT021 BKN031 OVC240 22/19 Q1014
ROTM,2023-04-05T20:56:00Z,ROTM 052056Z 16009G18KT 9999 BKN020 BKN030 BKN120 21/19 A2997 RMK SLP135 T02110194 55007
ROYN,2023-04-05T21:00:00Z,ROYN 052100Z AUTO 16014KT 9999 SCT013 BKN016 BKN036 //////TCU 24/21 Q1011
RPLB,2023-04-05T21:00:00Z,RPLB 052100Z 07004KT 030V100 9999 FEW020 25/19 Q1011 NOSIG RMK A2985
RPLC,2023-04-05T21:00:00Z,RPLC 052100Z 36002KT 8000 SCT020 BKN100 25/21 Q1011 NOSIG RMK A2985
RPLI,2023-04-05T21:00:00Z,RPLI 052100Z 07003KT 8000 FEW018 BKN290 24/21 Q1010 NOSIG RMK A2983
RPLL,2023-04-05T21:00:00Z,RPLL 052100Z 11003KT 060V140 9999 SCT023 BKN100 26/21 Q1010 NOSIG RMK A2983
RPMD,2023-04-05T21:00:00Z,RPMD 052100Z 36005KT 300V040 9999 FEW016 BKN090 BKN260 26/23 Q1009 RMK A2980
RPMZ,2023-04-05T21:00:00Z,RPMZ 052100Z VRB01KT 9999 FEW017 BKN090 23/22 Q1009 RMK A2980
RPVD,2023-04-05T21:00:00Z,RPVD 052100Z 32006KT 9999 FEW015 BKN220 26/21 Q1010 RMK A2983
RPVM,2023-04-05T21:00:00Z,RPVM 052100Z 33007KT 9999 FEW020 25/21 Q1011 NOSIG RMK A2985
RPVP,2023-04-05T21:00:00Z,RPVP 052100Z 27006KT 9999 FEW019 SCT250 27/23 Q1010 RMK A2983
SAAR,2023-04-05T21:00:00Z,SAAR 052100Z 08006KT CAVOK 24/17 Q1014 RMK PP000
SABE,2023-04-05T21:00:00Z,SABE 052100Z 11016KT CAVOK 22/16 Q1017 NOSIG RMK PP000
SACO,2023-04-05T21:00:00Z,SACO 052100Z 05008KT 9999 SCT035 BKN050 23/16 Q1014 NOSIG RMK PP000
SADF,2023-04-05T21:00:00Z,SADF 052100Z 11011KT CAVOK 23/15 Q1016 RMK PP000
SAEZ,2023-04-05T21:00:00Z,SAEZ 052100Z 09011KT 9999 FEW047 24/13 Q1017 NOSIG RMK PP000
SAME,2023-04-05T21:00:00Z,SAME 052100Z 36005KT 300V080 9999 FEW040 SCT100 27/13 Q1010
SANT,2023-04-05T21:00:00Z,SANT 052100Z 09005KT 050V120 9999 SCT020 BKN045 22/18 Q1013 RMK PP///
SAOC,2023-04-05T21:00:00Z,SAOC 052100Z 36015KT 9999 FEW035 23/15 Q1013
SARC,2023-04-05T21:00:00Z,SARC 052100Z 13004KT 9000 -RA FEW015 OVC050 23/21 Q1012
SARE,2023-04-05T21:00:00Z,SARE 052100Z 10004KT CAVOK 24/20 Q1012 RMK PP///
SARF,2023-04-05T21:00:00Z,SARF 052100Z 11005KT 9999 FEW025 OVC100 25/21 Q1011
SARI,2023-04-05T21:00:00Z,SARI 052100Z 18006KT 150V230 9999 FEW030 BKN100 21/20 Q1013 RMK PP000
SARL,2023-04-05T21:00:00Z,SARL 052100Z 14007KT 8000 FEW020 BKN100 BKN200 27/18 Q1013
SARP,2023-04-05T21:00:00Z,SARP 052100Z 16004KT 5000 -DZ BR BKN035 OVC100 23/22 Q1014
SASA,2023-04-05T21:00:00Z,SASA 052100Z 08010KT 9999 SCT040 FEW060CB SCT200 20/15 Q1015 RMK PP000 CB OBS TO NW
SASJ,2023-04-05T21:00:00Z,SASJ 052100Z 10003KT 9999 SCT030 FEW040TCU 25/17 Q1013 RMK PP///
SAVC,2023-04-05T21:00:00Z,SAVC 052100Z 29016KT 260V320 CAVOK 24/06 Q1003 RMK PP000
SAVT,2023-04-05T20:15:00Z,SAVT 052015Z 28016KT CAVOK 28/07 Q1006
SAWE,2023-04-05T21:00:00Z,SAWE 052100Z 25021KT CAVOK 12/M03 Q0996 RMK PP000
SAWG,2023-04-05T21:00:00Z,SAWG 052100Z 23023G33KT CAVOK 13/M06 Q1000
SAWH,2023-04-05T21:00:00Z,SAWH 052100Z 23019G29KT CAVOK 11/M01 Q0992 RMK PP000
SAZM,2023-04-05T21:00:00Z,SAZM 052100Z 06016G26KT CAVOK 20/16 Q1019 RMK PP///
SAZN,2023-04-05T21:00:00Z,SAZN 052100Z 00000KT CAVOK 25/15 Q1009
SAZS,2023-04-05T21:00:00Z,SAZS 052100Z 29013KT 6000 SHRA SCT046 BKN060 13/09 Q1012 RMK PP///
SBAF,2023-04-05T21:00:00Z,SBAF 052100Z 23011KT 9999 BKN040 25/24 Q1013
SBAN,2023-04-05T21:00:00Z,SBAN 052100Z 04009KT 9999 2500SW RA SCT030 FEW035TCU BKN080 25/18 Q1015
SBAR,2023-04-05T21:00:00Z,SBAR 052100Z 11008KT 9999 FEW030 28/23 Q1010
SBAT,2023-04-05T20:00:00Z,SBAT 052000Z 09003KT 9999 FEW030 32/22 Q1006
SBAU,2023-04-05T21:00:00Z,SBAU 052100Z 17006KT 9999 FEW030TCU SCT070 27/12 Q1011
SBAX,2023-04-05T21:00:00Z,SBAX 052100Z 25004KT 9999 SCT030 21/18 Q1016
SBBE,2023-04-05T21:00:00Z,SBBE 052100Z 03006KT 9999 -RA BKN040 BKN080 24/23 Q1008 RETS
SBBG,2023-04-05T21:00:00Z,SBBG 052100Z AUTO 10014KT CAVOK 24/15 Q1016
SBBH,2023-04-05T21:00:00Z,SBBH 052100Z 12006KT 9999 SCT049 FEW049TCU 26/14 Q1015
SBBI,2023-04-05T21:00:00Z,SBBI 052100Z 10007KT 9999 SCT025 19/16 Q1018
SBBQ,2023-04-05T20:00:00Z,SBBQ 052000Z 07007KT CAVOK 23/16 Q1019
SBBR,2023-04-05T21:00:00Z,SBBR 052100Z 30002KT 9999 VCSH SCT030 FEW035TCU SCT080 20/17 Q1015 RETS
SBBU,2023-04-05T21:00:00Z,SBBU 052100Z 17004KT 9999 FEW040 29/15 Q1012
SBBV,2023-04-05T21:00:00Z,SBBV 052100Z 09009KT 9999 SCT040 FEW045TCU BKN100 33/18 Q1006
SBBW,2023-04-05T21:00:00Z,SBBW 052100Z 09003KT 9999 FEW020 SCT090 28/22 Q1009
SBCA,2023-04-05T21:00:00Z,SBCA 052100Z 19011KT 9999 TS VCSH FEW010 SCT040 FEW050CB BKN100 22/20 Q1015
SBCB,2023-04-05T21:00:00Z,SBCB 052100Z 10009KT 9999 FEW030 26/22 Q1013
SBCC,2023-04-05T20:00:00Z,SBCC 052000Z 14002KT 9999 SCT035 FEW040TCU 25/21 Q1008
SBCF,2023-04-05T21:00:00Z,SBCF 052100Z 07007KT 9999 FEW045 27/15 Q1015
SBCG,2023-04-05T21:00:00Z,SBCG 052100Z 18007KT 150V210 9999 SCT020 FEW045TCU BKN100 23/21 Q1011
SBCH,2023-04-05T21:00:00Z,SBCH 052100Z 05013KT 5000 TSRA FEW008 SCT020 FEW040CB OVC100 19/19 Q1015
SBCJ,2023-04-05T21:00:00Z,SBCJ 052100Z 00000KT 9999 FEW030 25/22 Q1012
SBCO,2023-04-05T21:00:00Z,SBCO 052100Z 12013KT 9999 BKN040 24/16 Q1016
SBCP,2023-04-05T21:00:00Z,SBCP 052100Z 06012KT 9999 FEW020 26/22 Q1013
SBCR,2023-04-05T21:00:00Z,SBCR 052100Z 27006KT 230V300 9999 FEW015 BKN080 25/22 Q1009
SBCT,2023-04-05T21:00:00Z,SBCT 052100Z 12012KT 9999 SCT013 18/16 Q1018
SBCX,2023-04-05T20:00:00Z,SBCX 052000Z 18006KT 9999 FEW010 BKN015 BKN080 20/17 Q1018
SBCY,2023-04-05T21:00:00Z,SBCY 052100Z 19008KT 9999 SCT020 BKN100 25/23 Q1009 RETS
SBCZ,2023-04-05T21:00:00Z,SBCZ 052100Z 06004KT 9999 SCT030 28/// Q1007
SBDN,2023-04-05T21:00:00Z,SBDN 052100Z 09003KT CAVOK 29/18 Q1011
SBEG,2023-04-05T21:00:00Z,SBEG 052100Z 14001KT 9999 FEW025 FEW030TCU BKN090 27/24 Q1006
SBES,2023-04-05T21:00:00Z,SBES 052100Z 09008KT 060V120 9999 FEW030 SCT040 26/22 Q1013
SBFI,2023-04-05T21:00:00Z,SBFI 052100Z 17005KT 9999 FEW020 SCT100 22/20 Q1013
SBFL,2023-04-05T21:00:00Z,SBFL 052100Z 18008KT 9999 SCT026 BKN040 OVC060 23/21 Q1015
SBFN,2023-04-05T21:00:00Z,SBFN 052100Z AUTO VRB02KT 9999 FEW018 SCT024 25/24 Q1009
SBFS,2023-04-05T21:00:00Z,SBFS 052100Z 07007KT CAVOK 26/21 Q1013
SBFZ,2023-04-05T21:00:00Z,SBFZ 052100Z 12009KT 9999 FEW025 BKN100 27/23 Q1008
SBGL,2023-04-05T21:00:00Z,SBGL 052100Z 14008KT 9999 FEW020 26/20 Q1013
SBGO,2023-04-05T21:00:00Z,SBGO 052100Z 13006KT 9999 FEW035 SCT040TCU 26/19 Q1012
SBGR,2023-04-05T21:00:00Z,SBGR 052100Z 16009KT 9999 BKN019 BKN046 21/17 Q1017
SBGW,2023-04-05T21:00:00Z,SBGW 052100Z 16009G19KT 080V210 9999 TS VCSH BKN040 FEW045CB 23/18 Q1015
SBHT,2023-04-05T21:00:00Z,SBHT 052100Z 10009KT 1000 TSRA BKN015 FEW020CB 26/24 Q1008
SBIH,2023-04-05T21:00:00Z,SBIH 052100Z 27004KT 9999 FEW025TCU OVC100 29/25 Q1006
SBIL,2023-04-05T21:00:00Z,SBIL 052100Z 14008KT 9999 SCT024 SCT060 28/25 Q1011
SBIP,2023-04-05T21:00:00Z,SBIP 052100Z AUTO VRB01KT CAVOK 26/16 Q1012
SBIZ,2023-04-05T20:00:00Z,SBIZ 052000Z 11002KT 9999 FEW040 31/24 Q1006
SBJE,2023-04-05T21:00:00Z,SBJE 052100Z 00000KT 9999 FEW010 BKN015 OVC070 28/23 Q1008
SBJP,2023-04-05T21:00:00Z,SBJP 052100Z 10002KT 9999 BKN020 25/24 Q1010
SBJR,2023-04-05T21:00:00Z,SBJR 052100Z 16005KT 9999 BKN015 BKN040 26/24 Q1013
SBJU,2023-04-05T21:00:00Z,SBJU 052100Z 32003KT 9999 BKN017 23/23 Q1013
SBJV,2023-04-05T21:00:00Z,SBJV 052100Z 14007KT 9999 SCT020 BKN040 25/21 Q1015
SBKG,2023-04-05T21:00:00Z,SBKG 052100Z 09006KT 9999 FEW023 25/21 Q1012
SBKP,2023-04-05T21:00:00Z,SBKP 052100Z 16013KT 9999 FEW045 26/16 Q1014
SBLB,2023-04-05T21:00:00Z,SBLB 052100Z AUTO 11004KT 9999 BKN042 26/22 Q1013 W///S4
SBLE,2023-04-05T21:00:00Z,SBLE 052100Z AUTO 09013KT 4600 +RA BKN032 BKN039 22/21 Q1013
SBLO,2023-04-05T21:00:00Z,SBLO 052100Z 10005KT CAVOK 29/16 Q1013
SBLS,2023-04-05T21:00:00Z,SBLS 052100Z 13005KT CAVOK 26/14 Q1015
SBMA,2023-04-05T21:00:00Z,SBMA 052100Z 35003KT 9999 FEW023 FEW025TCU 28/25 Q1007
SBME,2023-04-05T21:00:00Z,SBME 052100Z 11006KT 9999 FEW025 27/23 Q1013
SBMG,2023-04-05T21:00:00Z,SBMG 052100Z 03004KT 9999 FEW040 FEW040TCU 28/16 Q1012
SBMK,2023-04-05T21:00:00Z,SBMK 052100Z 15004KT 9999 FEW048 SCT080 27/16 Q1012
SBMN,2023-04-05T21:00:00Z,SBMN 052100Z VRB01KT 9999 FEW010 BKN100 26/24 Q1006
SBMO,2023-04-05T21:00:00Z,SBMO 052100Z 10006KT 9999 FEW025 SCT080 26/23 Q1010
SBMQ,2023-04-05T21:00:00Z,SBMQ 052100Z 01005KT 9999 SCT023 FEW035TCU OVC100 27/25 Q1008
SBMS,2023-04-05T21:00:00Z,SBMS 052100Z 00000KT 9999 BKN018 BKN090 25/24 Q1008
SBMT,2023-04-05T21:00:00Z,SBMT 052100Z 17009KT 9999 SCT040 BKN045 21/17 Q1017
SBMY,2023-04-05T20:00:00Z,SBMY 052000Z AUTO VRB02KT CAVOK 30/24 Q1005
SBNF,2023-04-05T21:00:00Z,SBNF 052100Z 13010KT 9999 SCT020 BKN040 23/19 Q1015
SBNT,2023-04-05T21:00:00Z,SBNT 052100Z 10006KT 9999 FEW012 SCT050 BKN100 25/23 Q1009
SBOI,2023-04-05T21:00:00Z,SBOI 052100Z 03012KT 9999 FEW029TCU 27/22 Q1009
SBPA,2023-04-05T21:00:00Z,SBPA 052100Z 11015KT 9999 BKN040 24/16 Q1016
SBPB,2023-04-05T21:00:00Z,SBPB 052100Z 06005KT 9999 FEW020 BKN100 ///// Q1006
SBPF,2023-04-05T21:00:00Z,SBPF 052100Z 15004KT CAVOK 23/17 Q1016
SBPG,2023-04-05T20:00:00Z,SBPG 052000Z 09010KT 9999 FEW040 25/16 Q1015
SBPJ,2023-04-05T21:00:00Z,SBPJ 052100Z 34005KT 9999 VCSH VCTS FEW018 FEW027CB SCT050 25/24 Q1009 RETS
SBPK,2023-04-05T21:00:00Z,SBPK 052100Z 12010KT 9999 BKN030 23/16 Q1018
SBPL,2023-04-05T21:00:00Z,SBPL 052100Z 18004KT 9999 FEW030 30/18 Q1009
SBPP,2023-04-05T21:00:00Z,SBPP 052100Z 00000KT 9999 FEW018 SCT080 21/19 Q1013
SBPS,2023-04-05T21:00:00Z,SBPS 052100Z 12005KT 080V170 9999 FEW030 25/23 Q1012
SBPV,2023-04-05T21:00:00Z,SBPV 052100Z 25002KT 9999 VCSH FEW045 FEW050TCU 27/24 Q1005
SBRB,2023-04-05T21:00:00Z,SBRB 052100Z 29005KT 9999 VCSH FEW010 SCT025 FEW030TCU BKN100 24/24 Q1007
SBRF,2023-04-05T21:00:00Z,SBRF 052100Z 11005KT 9999 FEW025 28/21 Q1009
SBRJ,2023-04-05T21:00:00Z,SBRJ 052100Z 16014KT 9999 FEW015 FEW030TCU SCT040 25/22 Q1012
SBRP,2023-04-05T21:00:00Z,SBRP 052100Z 13004KT 9999 FEW040 BKN100 25/17 Q1012
SBSC,2023-04-05T21:00:00Z,SBSC 052100Z 14007KT 8000 BKN011 BKN030 26/23 Q1013
SBSG,2023-04-05T21:00:00Z,SBSG 052100Z 13008KT 9999 SCT013 BKN025 FEW030TCU BKN090 26/24 Q1009
SBSJ,2023-04-05T21:00:00Z,SBSJ 052100Z 18009KT 9999 FEW036 FEW045TCU SCT100 22/18 Q1016
SBSL,2023-04-05T21:00:00Z,SBSL 052100Z 02007KT 9999 BKN017 FEW020TCU 29/25 Q1008
SBSM,2023-04-05T21:00:00Z,SBSM 052100Z 10009KT 9999 FEW035 SCT100 25/17 Q1014
SBSN,2023-04-05T21:00:00Z,SBSN 052100Z 07005KT 9999 FEW016 FEW020TCU 29/25 Q1006 RETS
SBSP,2023-04-05T21:00:00Z,SBSP 052100Z 16013KT 9999 FEW015 BKN023 21/17 Q1018
SBSR,2023-04-05T21:00:00Z,SBSR 052100Z 21006KT 9999 VCSH SCT035 FEW040TCU SCT090 26/17 Q1012
SBST,2023-04-05T21:00:00Z,SBST 052100Z 14007KT 8000 BKN011 26/23 Q1013
SBSV,2023-04-05T21:00:00Z,SBSV 052100Z 12005KT 9999 SCT019 BKN060 27/23 Q1010
SBTA,2023-04-05T21:00:00Z,SBTA 052100Z VRB04KT 9000 3000N -TSRA SCT035 FEW040CB BKN060 23/18 Q1015
SBTE,2023-04-05T21:00:00Z,SBTE 052100Z 29003KT 9999 FEW040 BKN100 26/24 Q1008
SBTF,2023-04-05T21:00:00Z,SBTF 052100Z 26002KT 9999 SCT016 FEW025TCU 27/25 Q1005
SBTT,2023-04-05T21:00:00Z,SBTT 052100Z 18003KT 9999 FEW012 25/23 Q1006
SBTU,2023-04-05T21:00:00Z,SBTU 052100Z AUTO 19005KT //// // NCD 26/23 Q1009
SBUL,2023-04-05T21:00:00Z,SBUL 052100Z 11004KT 9999 VCSH FEW035 FEW040TCU 24/15 Q1015 RETS
SBUR,2023-04-05T21:00:00Z,SBUR 052100Z 10007KT 9999 FEW040 SCT100 23/17 Q1015
SBUY,2023-04-05T21:00:00Z,SBUY 052100Z 00000KT 9999 SCT030 BKN100 28/25 Q1004
SBVH,2023-04-05T21:00:00Z,SBVH 052100Z 09008KT 9999 TS VCSH BKN030 FEW035CB BKN100 24/22 Q1010
SBVT,2023-04-05T21:00:00Z,SBVT 052100Z 17008KT 8000 -RA BKN015 BKN025 25/23 Q1013
SBYS,2023-04-05T21:00:00Z,SBYS 052100Z 06011KT 9999 TS VCSH BKN045 FEW050CB BKN100 26/17 Q1013
SCAP,2023-04-05T21:00:00Z,SCAP 052100Z 21010KT 180V240 CAVOK 18/08 Q1011
SCAR,2023-04-05T21:00:00Z,SCAR 052100Z 23008KT CAVOK 24/18 Q1009
SCAS,2023-04-05T21:00:00Z,SCAS 052100Z 26013KT 9999 BKN036 13/09 Q1009
SCAT,2023-04-05T21:00:00Z,SCAT 052100Z 25013KT 9999 FEW020 20/14 Q1012
SCBA,2023-04-05T21:00:00Z,SCBA 052100Z 29022KT 9999 FEW040 15/08 Q1004
SCCC,2023-04-05T21:00:00Z,SCCC 052100Z 29016KT 9999 FEW043 20/03 Q1003
SCCF,2023-04-05T21:00:00Z,SCCF 052100Z 28017KT 9999 SCT060 22/M01 Q1023
SCCH,2023-04-05T21:00:00Z,SCCH 052100Z 29007KT 9999 BKN100 23/07 Q1014
SCCI,2023-04-05T21:00:00Z,SCCI 052100Z 26019KT CAVOK 10/M02 Q0999 NOSIG
SCCY,2023-04-05T21:00:00Z,SCCY 052100Z VRB03KT 9999 SCT030 16/08 Q1006
SCDA,2023-04-05T21:00:00Z,SCDA 052100Z 21016KT CAVOK 25/17 Q1009
SCEL,2023-04-05T21:00:00Z,SCEL 052100Z 21011KT 9999 SCT150 BKN170 25/05 Q1013 NOSIG
SCFA,2023-04-05T21:00:00Z,SCFA 052100Z 19013KT 9999 SCT023 22/17 Q1011 NOSIG RMK TCU AL NE STN
SCFM,2023-04-05T20:00:00Z,SCFM 052000Z 27027G37KT 9999 FEW040 10/M01 Q0997
SCFT,2023-04-05T21:00:00Z,SCFT 052100Z 28012KT 9999 BKN040 18/10 Q1009
SCGE,2023-04-05T21:00:00Z,SCGE 052100Z 32007KT 9999 SCT025 BKN060 22/07 Q1014
SCGZ,2023-04-05T20:00:00Z,SCGZ 052000Z 27021KT 9999 FEW043 14/01 Q0989
SCHR,2023-04-05T21:00:00Z,SCHR 052100Z VRB02KT 9999 SCT045 16/08 Q1001
SCIC,2023-04-05T21:00:00Z,SCIC 052100Z 22006KT CAVOK 25/02 Q1013
SCIE,2023-04-05T21:00:00Z,SCIE 052100Z 03011KT 9999 4000NW BR BKN006 BKN200 14/13 Q1014
SCIP,2023-04-05T21:00:00Z,SCIP 052100Z 26007KT 210V320 9999 SCT020 26/21 Q1014 NOSIG
SCIR,2023-04-05T21:00:00Z,SCIR 052100Z 32010KT 0100 FG VV001 19/18 Q////
SCJO,2023-04-05T21:00:00Z,SCJO 052100Z 06006KT 040V100 9999 SCT012 OVC030 14/13 Q1012
SCMK,2023-04-05T21:00:00Z,SCMK 052100Z 19009KT 9999 BKN030 12/07 Q1012
SCNT,2023-04-05T21:00:00Z,SCNT 052100Z 24014KT 9999 FEW050 10/M04 Q1001 RMK AC LENT AL NW
SCON,2023-04-05T21:00:00Z,SCON 052100Z 27005KT 230V320 8000 -DZ OVC020 13/10 Q1012
SCPD,2023-04-05T21:00:00Z,SCPD 052100Z 17008KT 9999 BKN160 26/06 Q1014
SCPQ,2023-04-05T21:00:00Z,SCPQ 052100Z 18009KT 2500 DZ BR BKN005 OVC020 11/09 Q1011
SCQP,2023-04-05T21:00:00Z,SCQP 052100Z 27007KT 8000 -RA SCT026 OVC060 18/13 Q1012
SCRD,2023-04-05T21:00:00Z,SCRD 052100Z 01005KT CAVOK 19/09 Q1014
SCRG,2023-04-05T21:00:00Z,SCRG 052100Z 16007KT CAVOK 24/06 Q1013
SCRM,2023-04-05T21:00:00Z,SCRM 052100Z 03032G45KT 5000 -SHRA OVC040 03/02 Q0984 NOSIG
SCSE,2023-04-05T21:00:00Z,SCSE 052100Z 27009KT 9999 FEW020 18/13 Q1014
SCSN,2023-04-05T21:00:00Z,SCSN 052100Z 25009KT 9999 FEW008 BKN180 16/13 Q1015
SCTB,2023-04-05T21:00:00Z,SCTB 052100Z 23006KT CAVOK 26/05 Q1014
SCTE,2023-04-05T21:00:00Z,SCTE 052100Z 03012KT 5000 -DZ BKN004 OVC023 13/13 Q1011 NOSIG
SCTN,2023-04-05T21:00:00Z,SCTN 052100Z 33007KT 300V010 2000 RA SCT004 OVC008 13/13 Q1012
SCVD,2023-04-05T21:00:00Z,SCVD 052100Z 31009KT 5000 -RA OVC030 16/15 Q1012
SCVM,2023-04-05T21:00:00Z,SCVM 052100Z 31005KT 9999 BKN090 17/10 Q1014
SECA,2023-04-05T21:00:00Z,SECA 052100Z 28013KT 9999 SCT040 BKN100 25/16 Q1012 RMK A2990
SECO,2023-04-05T21:00:00Z,SECO 052100Z 10004KT 9999 FEW020 BKN100 31/23 Q1006 RMK A2972
SECU,2023-04-05T21:00:00Z,SECU 052100Z 06006KT 8000 -RA FEW005 BKN026 OVC090 13/13 Q1021 RETS
SEGS,2023-04-05T21:00:00Z,SEGS 052100Z 27006KT 220V340 9999 SCT026 BKN300 30/23 Q1009 RMK A2979
SEGU,2023-04-05T21:00:00Z,SEGU 052100Z 19006KT 9999 VCSH SCT023 BKN090 31/24 Q1004 NOSIG RMK A2966
SEGZ,2023-04-05T20:00:00Z,SEGZ 052000Z 15002KT 9999 VCSH SCT026 BKN100 27/23 Q1011
SEJD,2023-04-05T21:00:00Z,SEJD 052100Z 15002KT 9999 SCT040 OVC100 27/24 Q1007 RMK A2975
SELT,2023-04-05T21:00:00Z,SELT 052100Z 31003KT 9999 VCSH SCT033 OVC300 16/08 Q1024 RETS
SEMC,2023-04-05T21:00:00Z,SEMC 052100Z 02008KT 9999 3000S TS VCSH FEW023CB BKN030 BKN100 24/18 Q1012 RMK A2989
SEMT,2023-04-05T21:00:00Z,SEMT 052100Z 28008KT 9999 SCT023 BKN200 31/25 Q1005 RMK A2969
SENL,2023-04-05T21:00:00Z,SENL 052100Z 01005KT 9999 FEW020 30/24 Q1007 RMK A2976
SEQM,2023-04-05T21:00:00Z,SEQM 052100Z 36013KT 9999 SCT023 SCT080 BKN200 19/12 Q1020 NOSIG RMK A3013
SERB,2023-04-05T21:00:00Z,SERB 052100Z 27010KT 9999 -RA BKN033 OVC100 15/11 Q1024
SESA,2023-04-05T21:00:00Z,SESA 052100Z 22011KT 9999 SCT016 SCT200 29/25 Q1006 RMK A2970
SESM,2023-04-05T21:00:00Z,SESM 052100Z 23002KT 9999 SCT023 BKN100 23/20 Q1011 RMK A2988
SEST,2023-04-05T21:00:00Z,SEST 052100Z 15003KT 9999 SCT020 SCT200 30/25 Q1006 RMK A2971
SETN,2023-04-05T21:00:00Z,SETN 052100Z 29009KT 240V340 9999 FEW026 BKN300 30/26 Q1005 RMK A2968
SETU,2023-04-05T21:00:00Z,SETU 052100Z 05005KT 9999 VCSH BKN020 13/10 Q1027 RETS
SGAS,2023-04-05T21:00:00Z,SGAS 052100Z 14006KT 050V150 9999 SCT015 BKN030 BKN070 24/22 Q1011
SGEN,2023-04-05T21:00:00Z,SGEN 052100Z 00000KT 9000 OVC010 22/18Q1013
SGES,2023-04-05T21:00:00Z,SGES 052100Z 18008KT 9999 BKN020 OVC070 22/20 Q1012
SKAR,2023-04-05T20:00:00Z,SKAR 052000Z VRB03KT 9999 VCSH FEW023CB SCT025 29/19 Q1010 RMK CB VCSH/NE/SE A2985
SKBG,2023-04-05T21:00:00Z,SKBG 052100Z 32006KT 9999 SCT017 26/20 Q1010 RMK A2985
SKBO,2023-04-05T21:00:00Z,SKBO 052100Z 29012KT 9999 VCSH FEW020TCU SCT023 19/13 Q1022 NOSIG RMK TCU VCSH/SE A3018
SKBQ,2023-04-05T21:00:00Z,SKBQ 052100Z 04017KT CAVOK 29/23 Q1005 NOSIG RMK A2970
SKCC,2023-04-05T21:00:00Z,SKCC 052100Z 02009KT 9000 SCT017 30/22 Q1009 RMK HZ A2979
SKCG,2023-04-05T21:00:00Z,SKCG 052100Z 36011KT 340V040 9999 FEW017 32/23 Q1005 RMK A2968
SKCL,2023-04-05T21:00:00Z,SKCL 052100Z 32014KT 9999 SCT025CB 31/19 Q1008 NOSIG RMK CB/NE A2978
SKEJ,2023-04-05T20:00:00Z,SKEJ 052000Z 35004KT 9999 FEW015 33/22 Q1004 RMK A2966
SKIB,2023-04-05T20:00:00Z,SKIB 052000Z VRB04KT 9999 SCT030 28/20 Q1013 RMK A2992
SKIP,2023-04-05T20:00:00Z,SKIP 052000Z 31008KT 280V350 9999 TS FEW014CB BKN016 14/11 Q1025 CB VCSH/NW RMK A3028
SKLC,2023-04-05T20:00:00Z,SKLC 052000Z 36016KT 320V020 9999 FW025 31/24 Q1005 R4MK A2970
SKLT,2023-04-05T21:00:00Z,SKLT 052100Z 00000KT 9999 SCT015 BKN080 26/23 Q1005 RMK A2968
SKMD,2023-04-05T20:00:00Z,SKMD 052000Z 02010KT 9999 VCSH SCT035TCU SCT090 29/15 Q1013 RMK TCUVCSH//SE/NW A2993
SKMR,2023-04-05T20:00:00Z,SKMR 052000Z 31010KT 9999 SCT020 35/23 Q1005 RMK A2966
SKMZ,2023-04-05T20:00:00Z,SKMZ 052000Z 29010KT 9000 BKN080 23/14 Q1021 RMK A3016
SKNV,2023-04-05T20:00:00Z,SKNV 052000Z 25005KT 9999 FEW035 SCT200 34/19 Q1004 RMK A2967
SKPC,2023-04-05T20:00:00Z,SKPC 052000Z 01007KT 9999 FEW023 35/19 Q1004 RMK A2967
SKPE,2023-04-05T21:00:00Z,SKPE 052100Z 23005KT 190V290 TS SCT020CB SCT080 29/17 Q1012 RMK CB/NE/E A2986
SKPS,2023-04-05T20:00:00Z,SKPS 052000Z VRB05KT 9999 BKN020 21/16 Q1016 RMK A3000
SKPV,2023-04-05T20:00:00Z,SKPV 052000Z 09010KT 060V130 9999 SCT017 31/25 Q1011 RMK A2987
SKRG,2023-04-05T21:00:00Z,SKRG 052100Z 08010KT 9999 SCT020TCU 22/15 Q1020 NOSIG RMK TCU/SW/N A3013
SKRH,2023-04-05T20:00:00Z,SKRH 052000Z 04012KT 010V070 9999 BKN018 28/23 Q1007 RMK A2976
SKSM,2023-04-05T21:00:00Z,SKSM 052100Z 02015KT 9999 FEW020 34/21 Q1005 RMK A2970
SKSP,2023-04-05T21:00:00Z,SKSP 052100Z 06008KT 040V130 9999 FEW016 OVC080 25/23 Q1010 REDZ RMK A2984
SKUC,2023-04-05T20:00:00Z,SKUC 052000Z VRB05KT 9999 SCT030 34/21 Q1007 RMK A2973
SKUI,2023-04-05T20:00:00Z,SKUI 052000Z 01008KT 9999 FEW025CB SCT030 BKN200 31/25 Q1004 RMK CB SW A2967
SKVP,2023-04-05T20:00:00Z,SKVP 052000Z 05013KT 9999 FEW020 SCT200 33/20 Q1007 RMK A2975
SKVV,2023-04-05T20:00:00Z,SKVV 052000Z 05005KT 9999 FEW023 31/20 Q1009 RMK A2979
SLAL,2023-04-05T21:00:00Z,SLAL 052100Z 02010KT 9999 TS SCT020 FEW030CB 14/09 Q1024
SLCA,2023-04-05T21:00:00Z,SLCA 052100Z 00000KT 9999 SCT025 BKN080 23/20 Q1014
SLCB,2023-04-05T21:00:00Z,SLCB 052100Z 27005KT 9999 FEW030 FEW033CB SCT070 BKN200 25/05 Q1016
SLCO,2023-04-05T21:00:00Z,SLCO 052100Z 35006KT 9999 FEW006 OVC080 25/24 Q1006
SLCP,2023-04-05T21:00:00Z,SLCP 052100Z 00000KT 7000 -RA SCT013 OVC070 22/22 Q1013
SLET,2023-04-05T21:00:00Z,SLET 052100Z 16012G23KT 8000 VCSH FEW017 BKN070 BKN200 24/20 Q1010
SLJE,2023-04-05T20:00:00Z,SLJE 052000Z 00000KT 9999 BKN013 26/23 Q1012
SLJO,2023-04-05T21:00:00Z,SLJO 052100Z 18005KT 4000 -TSRA BKN010 FEW023CB OVC070 24/24 Q1007
SLLP,2023-04-05T21:00:00Z,SLLP 052100Z 27011KT 9999 FEW017 FEW020CB BKN200 13/M04 Q1031
SLMG,2023-04-05T21:00:00Z,SLMG 052100Z 16004KT 8000 -TSRA SCT008 FEW023CB BKN070 OVC200 25/24 Q1011
SLOR,2023-04-05T20:00:00Z,SLOR 052000Z 18005KT 9999 SCT023 17/04 Q1030
SLPS,2023-04-05T21:00:00Z,SLPS 052100Z 00000KT 9999 BKN070 30/22 Q1012
SLRB,2023-04-05T20:00:00Z,SLRB 052000Z 00000KT 9999 OVC006 22/22 Q1011
SLRI,2023-04-05T21:00:00Z,SLRI 052100Z 34004KT 7000 VCSH SCT015 FEW020CB BKN070 BKN200 26/24 Q1006
SLRQ,2023-04-05T20:00:00Z,SLRQ 052000Z 34004KT 9999 SCT017 BKN200 27/24 Q1003
SLRY,2023-04-05T20:00:00Z,SLRY 052000Z 00000KT 9999 FEW015 BKN080 28/24 Q1004
SLSA,2023-04-05T21:00:00Z,SLSA 052100Z 13004KT 7000 VCSH SCT007 FEW023CB BKN070 BKN200 23/23 Q1007
SLSV,2023-04-05T21:00:00Z,SLSV 052100Z 00000KT 8000 -RA BKN015 FEW027CB OVC070 25/24 Q1008
SLTJ,2023-04-05T21:00:00Z,SLTJ 052100Z 13007KT 9999 SCT027 FEW030CB 20/14 Q1016
SLTR,2023-04-05T21:00:00Z,SLTR 052100Z 07004KT 9999 -RA SCT005 FEW023CB OVC070 23/23 Q1008
SLVR,2023-04-05T21:00:00Z,SLVR 052100Z 16006KT 9999 FEW017 BKN070 BKN200 25/21 Q1009
SLYA,2023-04-05T20:00:00Z,SLYA 052000Z 20005KT 9999 BKN018 22/18 Q1011
SMJP,2023-04-05T21:00:00Z,SMJP 052100Z 04013KT 9999 FEW018 30/21 Q1008 NOSIG
SMZO,2023-04-05T21:00:00Z,SMZO 052100Z 02012KT 8000 NSC 29/21 Q1009 NOSIG
SOCA,2023-04-05T21:00:00Z,SOCA 052100Z AUTO 05010KT 9999 FEW033 SCT066 BKN082 27/21 Q1009 NOSIG
SPCL,2023-04-05T21:00:00Z,SPCL 052100Z 01004KT 9999 SCT020 30/24 Q1006 RMK BIRD HAZARD RWY 02/20 PP000
SPEO,2023-04-05T21:00:00Z,SPEO 052100Z 20017KT 9999 FEW050 SCT100 28/23 Q1006 RMK PP000
SPHI,2023-04-05T21:00:00Z,SPHI 052100Z 21010KT 180V250 9999 FEW015 31/23 Q1006 RMK BIRD HAZARD RWY 19/01 PP000
SPHO,2023-04-05T21:00:00Z,SPHO 052100Z VRB02KT 9999 FEW040 23/03 Q1019 RMK PP000
SPJC,2023-04-05T21:00:00Z,SPJC 052100Z 18009KT 160V220 CAVOK 29/21 Q1007 NOSIG RMK PP000
SPJE,2023-04-05T21:00:00Z,SPJE 052100Z 30004KT 9999 SCT040 30/22 Q1009 RMK BIRD HAZARD RWY 16/34 TX31.0 PP000
SPJJ,2023-04-05T21:00:00Z,SPJJ 052100Z 28003KT 9999 FEW040 19/// Q1024 RMK PP000
SPJR,2023-04-05T21:00:00Z,SPJR 052100Z VRB02KT 9999 -RA SCT023 OVC050 16/11 Q1023 RMK SH S PPTRZ
SPLO,2023-04-05T21:00:00Z,SPLO 052100Z 15011KT CAVOK 26/19 Q1009 RMK TX29.0 PP000
SPME,2023-04-05T21:00:00Z,SPME 052100Z 25008KT 9999 VCSH SCT014 SCT100 30/24 Q1006 RMK BIRD HAZARD RWY 32/14 PP000
SPMS,2023-04-05T21:00:00Z,SPMS 052100Z 03004KT 9999 SCT020 SCT100 31/22 Q1006 RMK BIRD HAZARD RWY 09/27 PP000
SPNC,2023-04-05T21:00:00Z,SPNC 052100Z 07014KT 9999 FEW040 27/12 Q1013 RMK PP000
SPPY,2023-04-05T21:00:00Z,SPPY 052100Z 33009KT 9999 SCT020 20/12 Q1022 RMK TX21.8 PP000
SPQT,2023-04-05T21:00:00Z,SPQT 052100Z VRB03KT 9999 SCT017 SCT100 30/25 Q1005 NOSIG RMK PP000
SPQU,2023-04-05T21:00:00Z,SPQU 052100Z 27008KT 230V300 9999 -RA SCT020 SCT025 15/13 Q1023 NOSIG RMK PP054
SPRU,2023-04-05T21:00:00Z,SPRU 052100Z 19006KT 160V220 9000 BKN120 30/24 Q1007 RMK PP000
SPSO,2023-04-05T21:00:00Z,SPSO 052100Z 23012KT CAVOK 29/21 Q1007 RMK BIRD HAZARD RWY 22/04 PP000
SPST,2023-04-05T21:00:00Z,SPST 052100Z 06008KT 9999 FEW025 SCT080 33/31 Q1004 RMK PP000
SPTN,2023-04-05T21:00:00Z,SPTN 052100Z 23010KT CAVOK 26/16 Q1011 RMK PP000
SPTU,2023-04-05T21:00:00Z,SPTU 052100Z 31006KT 280V340 9999 FEW012 BKN100 26/23 Q1004 RMK BIRD HAZARD RWY 01/19 PP000
SPUR,2023-04-05T21:00:00Z,SPUR 052100Z 23012KT 9999 BKN020 SCT080 31/24 Q1006 RMK CB QUAD E/S BIRD HAZARD RWY 19/01 PP000
SPYL,2023-04-05T21:00:00Z,SPYL 052100Z 24010KT CAVOK 30/25 Q1007 RMK BIRD HAZARD RWY 17/35 PP000
SPZO,2023-04-05T21:00:00Z,SPZO 052100Z 26006KT 220V290 9999 SCT050 SCT100 19/M00 Q1024 NOSIG RMK BIRD HAZARD RWY 10/28 PP000
SUAA,2023-04-05T21:00:00Z,SUAA 052100Z 11013KT 9999 FEW023 SCT070 21/15 Q1018
SUCA,2023-04-05T21:00:00Z,SUCA 052100Z 12013KT 9999 FEW033 21/16 Q1017
SULS,2023-04-05T21:00:00Z,SULS 052100Z 10010KT 070V130 9999 FEW030 21/13 Q1019
SUMU,2023-04-05T21:00:00Z,SUMU 052100Z 12016KT 9999 SCT046 BKN070 21/15 Q1018 NOSIG
SUSO,2023-04-05T21:00:00Z,SUSO 052100Z 13008KT 9999 FEW023 SCT067 BKN200 25/17 Q1014
SVBC,2023-04-05T20:00:00Z,SVBC 052000Z 04010KT 9999 SCT016 34/// Q1008
SVBM,2023-04-05T20:00:00Z,SVBM 052000Z 09006KT 9999 SCT016 30/19 Q1014
SVMG,2023-04-05T21:00:00Z,SVMG 052100Z 09015KT 9999 FEW020 ///// Q1009
SVMI,2023-04-05T21:00:00Z,SVMI 052100Z 09007KT 9999 FEW016 30/23 Q1010
SVVA,2023-04-05T21:00:00Z,SVVA 052100Z /////KT 9999 SCT016 33/18 Q1009
SYCJ,2023-04-05T21:00:00Z,SYCJ 052100Z 05018KT 9999 SCT020 29/21 Q1009 NOSIG
SYLT,2023-04-05T21:00:00Z,SYLT 052100Z 06014KT 9999 FEW016CB 34/23 Q//// NOSIG RMK CB S
SYMB,2023-04-05T21:00:00Z,SYMB 052100Z 13006KT 9999 SCT020 28/23 Q//// NOSIG
TAPA,2023-04-05T21:00:00Z,TAPA 052100Z 07010KT 030V110 9999 FEW018 26/21 Q1014 TEMPO SHRA
TBPB,2023-04-05T21:00:00Z,TBPB 052100Z 11013KT 9999 FEW020 28/21 Q1011 NOSIG
TDCF,2023-04-05T20:00:00Z,TDCF 052000Z 12009G20KT 9999 FEW021 28/16 Q1011
TDPD,2023-04-05T21:00:00Z,TDPD 052100Z 12006KT 9999 SCT017 27/22 Q1014
TFFF,2023-04-05T21:00:00Z,TFFF 052100Z AUTO 11015KT 9999 SCT029 SCT035 28/21 Q1012 NOSIG
TFFR,2023-04-05T21:00:00Z,TFFR 052100Z AUTO 12010KT 9999 FEW042 27/19 Q1013 TEMPO 3000 SHRA BKN018TCU
TGPY,2023-04-05T21:00:00Z,TGPY 052100Z 10025KT 9999 FEW022 28/22 Q1011 NOSIG
TIST,2023-04-05T20:53:00Z,TIST 052053Z 06013G20KT 10SM SCT030 27/21 A2996 RMK AO2 PK WND 04026/2036 SLP145 T02720206 56012
TISX,2023-04-05T20:53:00Z,TISX 052053Z 07016G22KT 10SM -RA FEW024 SCT031 BKN046 27/21 A2996 RMK AO2 RAB48 SLP143 P0000 60000 T02670206 56012
TJBQ,2023-04-05T20:50:00Z,TJBQ 052050Z 09015G20KT 10SM SCT020 27/20 A2997
TJIG,2023-04-05T20:52:00Z,TJIG 052052Z 10011KT 10SM SCT030 BKN060 26/22 A2998
TJNR,2023-04-05T20:53:00Z,TJNR 052053Z AUTO 04012KT 10SM SCT024 BKN030 27/21 A2999 RMK AO2 SLP155 T02670211 55013
TJPS,2023-04-05T20:55:00Z,TJPS 052055Z AUTO 13011KT 10SM FEW050 28/21 A2992 RMK AO2 TSNO
TJSJ,2023-04-05T20:56:00Z,TJSJ 052056Z 07010KT 10SM SCT025 SCT070 BKN100 26/21 A2998 RMK AO2 SLP151 VCSH N SE NW T02610211 55012
TKPK,2023-04-05T21:00:00Z,TKPK 052100Z 04011KT 9999 SCT015 26/22 Q1014
TKPN,2023-04-05T20:00:00Z,TKPN 052000Z 07010KT 9999 SCT017 SCT045 26/23 Q1014
TLPC,2023-04-05T21:00:00Z,TLPC 052100Z 08008KT 9999 SCT024 28/22 Q1012 NOSIG
TLPL,2023-04-05T21:00:00Z,TLPL 052100Z 09016KT 9999 FEW027 27/21 Q1012 NOSIG
TNCA,2023-04-05T21:00:00Z,TNCA 052100Z 08020KT 9999 FEW025 29/22 Q1010 NOSIG
TNCB,2023-04-05T20:55:00Z,TNCB 052055Z 08015KT 050V120 9999 FEW019 SCT024 29/21 Q1010
TNCC,2023-04-05T21:00:00Z,TNCC 052100Z 10011KT 9999 FEW023 29/22 Q1010 NOSIG
TNCE,2023-04-05T20:55:00Z,TNCE 052055Z AUTO 05011KT //// // ///////// 26/21 Q1014 RE//
TNCM,2023-04-05T21:00:00Z,TNCM 052100Z 04018KT 9999 VCSH SCT016TCU 25/21 Q1016 TEMPO SHRA RMK TCU/VCSH ENE+ESE
TQPF,2023-04-05T21:00:00Z,TQPF 052100Z 07015KT 9999 -SHRA SCT016 BKN032 22/21 Q1015
TRPG,2023-04-05T21:00:00Z,TRPG 052100Z 08010KT 9999 BKN018 26/22 Q1015
TTCP,2023-04-05T21:00:00Z,TTCP 052100Z 10012KT 9999 FEW018 28/22 Q1010 NOSIG
TTPP,2023-04-05T21:00:00Z,TTPP 052100Z 10010KT 9999 FEW020 30/20 Q1010 NOSIG
TUPJ,2023-04-05T21:00:00Z,TUPJ 052100Z 08007KT 10SM VCSH SCT019 23/21 A2998 RMK Q1015 VIS 16KM
TVSA,2023-04-05T21:00:00Z,TVSA 052100Z 07007KT 020V110 9999 BKN018 25/23 Q1012 
TXKF,2023-04-05T20:55:00Z,TXKF 052055Z 11013KT 9999 FEW010 22/19 Q1024 
UAAA,2023-04-05T21:00:00Z,UAAA 052100Z 19002MPS 9999 SCT200 06/M01 Q1012 NOSIG
UACC,2023-04-05T21:00:00Z,UACC 052100Z 10003MPS CAVOK M01/M05 Q1017 NOSIG RMK QFE732/0976
UADD,2023-04-05T21:00:00Z,UADD 052100Z 24008MPS 9999 SCT050 OVC100 09/05 Q1013 NOSIG RMK QFE703/0938
UAII,2023-04-05T21:00:00Z,UAII 052100Z 12004MPS 9999 BKN050CB 09/06 Q1016 NOSIG RMK QFE727/0969
UAIT,2023-04-05T21:00:00Z,UAIT 052100Z 05004MPS 9999 -SHRA BKN043CB 10/08 Q1015 NOSIG RMK QFE735/0980
UAKK,2023-04-05T21:00:00Z,UAKK 052100Z 09002MPS CAVOK M03/M06 Q1018 NOSIG RMK QFE716/0955
UAOO,2023-04-05T21:00:00Z,UAOO 052100Z 12003MPS CAVOK 11/05 Q1014 NOSIG RMK QFE749/0999
UARR,2023-04-05T21:00:00Z,UARR 052100Z 33003MPS CAVOK 03/01 Q1013 NOSIG RMK QFE756/1009
UASK,2023-04-05T21:00:00Z,UASK 052100Z 08001MPS 5000 BR NSC M03/M04 Q1021 NOSIG RMK QFE740/0987
UASP,2023-04-05T21:00:00Z,UASP 052100Z 14005MPS CAVOK 01/M04 Q1021 NOSIG RMK QFE754/1006
UATE,2023-04-05T21:00:00Z,UATE 052100Z 03003MPS CAVOK 07/05 Q1011 NOSIG RMK QFE756/1009
UATG,2023-04-05T21:00:00Z,UATG 052100Z 31003MPS 5000 BR NSC 07/04 Q1011 NOSIG RMK QFE760/1014
UATT,2023-04-05T21:00:00Z,UATT 052100Z 00000MPS CAVOK 03/00 Q1013 NOSIG RMK QFE740/0987
UAUU,2023-04-05T21:00:00Z,UAUU 052100Z 15002MPS CAVOK 02/01 Q1013 NOSIG RMK QFE743/0991
UBBB,2023-04-05T21:00:00Z,UBBB 052100Z 10006KT CAVOK 11/09 Q1008 NOSIG
UBBF,2023-04-05T21:00:00Z,UBBF 052100Z AUTO 35010KT 9999 // ///////// 11/10 Q1008
UBBG,2023-04-05T21:00:00Z,UBBG 052100Z 24004KT 9999 BKN100 14/11 Q1008 NOSIG
UBBL,2023-04-05T21:00:00Z,UBBL 052100Z 00000KT 5000 BR OVC010 12/12 Q1008 NOSIG RMK MT OBSC
UBBN,2023-04-05T21:00:00Z,UBBN 052100Z 27008KT 9999 FEW046 SCT100 17/02 Q1007 NOSIG RMK MT OP QFE681
UBBQ,2023-04-05T21:00:00Z,UBBQ 052100Z 35006KT 5000 BR SCT024 SCT118 10/09 Q1008 NOSIG RMK MT OBSC
UBBY,2023-04-05T21:00:00Z,UBBY 052100Z 13006KT 9999 BKN100 12/10 Q1011 NOSIG RMK MT OP
UBBZ,2023-04-05T21:00:00Z,UBBZ 052100Z AUTO 10002KT 040V160 9999 // ///////// 12/08 Q1009
UBEE,2023-04-05T20:00:00Z,UBEE 052000Z 00000KT 9999 FEW033 BKN080 13/11 Q1008 NOSIG
UCFL,2023-04-05T21:00:00Z,UCFL 052100Z 34003MPS 9999 SCT030CB 04/M12 Q1013
UCFM,2023-04-05T21:00:00Z,UCFM 052100Z VRB01MPS 9999 BKN066CB 08/M01 Q1012 NOSIG
UCFO,2023-04-05T21:00:00Z,UCFO 052100Z 22002MPS 9999 FEW016 BKN040CB 10/05 Q1014 TEMPO 28007G12MPS
UDSG,2023-04-05T21:00:00Z,UDSG 052100Z 08003KT 050V120 9999 FEW049 05/03 Q1012 NOSIG
UDYZ,2023-04-05T21:00:00Z,UDYZ 052100Z 15003KT 110V180 9999 SCT040CB 15/02 Q1009 NOSIG
UEEE,2023-04-05T21:00:00Z,UEEE 052100Z 27005MPS CAVOK M19/M24 Q1013 R23L/490139 NOSIG RMK QFE751
UERP,2023-04-05T21:00:00Z,UERP 052100Z 17003MPS CAVOK M18/M22 Q1003 R35/850350 NOSIG RMK QFE708
UERR,2023-04-05T21:00:00Z,UERR 052100Z 20003MPS 9999 -SN NSC M22/M27 Q1013 R25/820445 NOSIG RMK QFE729/0972
UGAM,2023-04-05T21:00:00Z,UGAM 052100Z AUTO 27006KT //// ////// 09/09 Q1011
UGKO,2023-04-05T21:00:00Z,UGKO 052100Z VRB03KT 9999 BKN070 09/08 Q1010 NOSIG
UGMS,2023-04-05T21:00:00Z,UGMS 052100Z AUTO VRB01KT //// ////// 04/04 Q1013
UGSB,2023-04-05T21:00:00Z,UGSB 052100Z 22013KT CAVOK 13/09 Q1011 NOSIG
UGTB,2023-04-05T21:00:00Z,UGTB 052100Z 31021KT CAVOK 12/07 Q1009 NOSIG
UHBB,2023-04-05T21:00:00Z,UHBB 052100Z 09002MPS 9999 FEW033 M05/M09 Q1010 R36/090060 NOSIG RMK QFE740/0986
UHHH,2023-04-05T21:00:00Z,UHHH 052100Z 08002MPS CAVOK M02/M08 Q1012 R88/090060 NOSIG RMK QFE753/1004
UHMA,2023-04-05T21:00:00Z,UHMA 052100Z 01003MPS 8000 -SN FEW015 BKN033 OVC046 M14/M17 Q1013 R01/490356 NOSIG RMK MID 36003MPS END R01/34002MPS QFE756/1008
UHMD,2023-04-05T21:00:00Z,UHMD 052100Z 35005MPS 9999 FEW020 BKN040 M14/M19 Q1014 RMK QBB600 QFE760/1013
UHMM,2023-04-05T21:00:00Z,UHMM 052100Z 11002MPS 3400 -SN FEW033 M18/M20 Q1002 R10/490245 NOSIG RMK QFE737 R28/09003MPS
UHPP,2023-04-05T21:00:00Z,UHPP 052100Z 30006MPS 270V340 9999 FEW050 00/M09 Q1012 R34L/CLRD65 NOSIG RMK QFE755/1007
UHSS,2023-04-05T21:00:00Z,UHSS 052100Z 00000MPS 9999 SCT015 02/00 Q1016 R19/70D NOSIG RMK MT OBSC QFE761/1014
UHWW,2023-04-05T21:00:00Z,UHWW 052100Z 33005MPS 6000 -SHRA BKN020CB 04/03 Q1004 WS R25L R25L/290160 NOSIG RMK QFE752
UIAA,2023-04-05T21:00:00Z,UIAA 052100Z 33008G16MPS 300V010 9999 FEW050CB M08/M19 Q1018 R29/590150 NOSIG RMK QFE704/0939
UIBB,2023-04-05T21:00:00Z,UIBB 052100Z 22002MPS 9999 NSC M12/M17 Q1024 R30/810255 NOSIG RMK QFE725/0967
UIII,2023-04-05T21:00:00Z,UIII 052100Z 08003MPS CAVOK M11/M13 Q1028 R12/CLRD60 NOSIG RMK QFE728/0971
UIUU,2023-04-05T21:00:00Z,UIUU 052100Z 31004MPS 9999 NSC M10/M16 Q1027 R26/CLRD60 NOSIG RMK QFE726/0968
ULAA,2023-04-05T21:00:00Z,ULAA 052100Z 06002MPS 9999 FEW033 M01/M06 Q1033 R26/910560 NOSIG RMK QFE773/1031
ULLI,2023-04-05T21:00:00Z,ULLI 052100Z 12003MPS CAVOK 03/01 Q1028 R10R/290050 NOSIG
ULMM,2023-04-05T21:00:00Z,ULMM 052100Z 15002MPS CAVOK M02/M04 Q1030 R13/250060 NOSIG RMK QFE765
ULOO,2023-04-05T21:00:00Z,ULOO 052100Z 07005MPS 030V110 CAVOK 07/03 Q1023 R01/190050 NOSIG RMK QFE763
ULPB,2023-04-05T21:00:00Z,ULPB 052100Z AUTO VRB01MPS 9999 // NCD M04/M08 Q1031 RMK QFE770/1026
ULWC,2023-04-05T20:00:00Z,ULWC 052000Z 02003MPS 9999 FEW026 01/M00 Q1028 R03/190067 NOSIG RMK QFE761/1015
UMGG,2023-04-05T21:00:00Z,UMGG 052100Z 01004MPS 1000 R28/P2000 BR NSC 06/05 Q1015 TEMPO 0800 FG
UMIO,2023-04-05T21:00:00Z,UMIO 052100Z 06003MPS 7000 NSC 05/04 Q1018 NOSIG RMK QFE746/0994
UMKK,2023-04-05T21:00:00Z,UMKK 052100Z 00000MPS 9999 BKN028 02/M01 Q1024 R24/19//95 NOSIG RMK QFE767/1023
UMMS,2023-04-05T21:00:00Z,UMMS 052100Z 36006MPS 9999 BKN005 BKN036 02/02 Q1018 NOSIG RMK QBB150
UNAA,2023-04-05T21:00:00Z,UNAA 052100Z 24001MPS 6000 NSC M08/M13 Q1025 R20/CLRD67 NOSIG RMK QFE746
UNBB,2023-04-05T21:00:00Z,UNBB 052100Z 01001MPS CAVOK 01/M07 Q1022 R06/CLRD60 NOSIG RMK QFE744
UNEE,2023-04-05T21:00:00Z,UNEE 052100Z 17002MPS CAVOK M01/M08 Q1022 R23/CLRD60 NOSIG RMK QFE743
UNKL,2023-04-05T21:00:00Z,UNKL 052100Z 00000MPS CAVOK M07/M10 Q1022 R29/CLRD65 NOSIG RMK QFE741
UNNT,2023-04-05T21:00:00Z,UNNT 052100Z 13001MPS CAVOK M03/M09 Q1022 R25/120060 R34/////// NOSIG RMK QFE757/1009
UNOO,2023-04-05T21:00:00Z,UNOO 052100Z 18003MPS CAVOK 04/M05 Q1017 R25/CLRD60 NOSIG RMK QFE754
UNTT,2023-04-05T21:00:00Z,UNTT 052100Z 22004MPS CAVOK M03/M09 Q1020 R21/////// NOSIG RMK QFE750
UNWW,2023-04-05T21:00:00Z,UNWW 052100Z 00000MPS CAVOK M03/M06 Q1022 R19/09//55 NOSIG RMK QFE740
UOOO,2023-04-05T21:00:00Z,UOOO 052100Z 01006MPS 4200 BLSN NSC M28/M31 Q1006 R01/493052 NOSIG RMK QFE740/0987
URKA,2023-04-05T21:00:00Z,URKA 052100Z 22006MPS 5000 -SHRA BR BKN004 BKN///CB 10/09 Q1010 R22/010070 TEMPO 0500 -SHRA FG BKN001 BKN016CB RMK QFE752/1003
URKK,2023-04-05T21:00:00Z,URKK 052100Z 24004MPS CAVOK 11/08 Q1010 R23L/CLRD70 TEMPO 2000 TSRA SCT008 BKN020CB RMK QFE754
URMG,2023-04-05T21:00:00Z,URMG 052100Z 36001MPS 6000 BKN015 OVC022 09/08 Q1010 R26/090070 TEMPO 0300 FG BKN002 RMK QFE743/0990
URML,2023-04-05T21:00:00Z,URML 052100Z 15003MPS 2400 BR BKN001 OVC007 08/08 Q1009 R14/290060 TEMPO 0200 -DZ FG RMK QBB050 MT OBSC QFE757/1009
URMM,2023-04-05T21:00:00Z,URMM 052100Z 36002MPS 9999 -SHRA BKN///CB 09/05 Q1011 R30/090070 TEMPO 0500 +SHRA BKN002 BKN020CB RMK QFE730/0973
URMN,2023-04-05T21:00:00Z,URMN 052100Z 29001MPS 9999 BKN026 10/07 Q1009 R24/////// NOSIG RMK QFE720
URMO,2023-04-05T21:00:00Z,URMO 052100Z AUTO 27004MPS 9999 // ///015/// 09/07 Q1010 RMK QFE714/0952
URMT,2023-04-05T21:00:00Z,URMT 052100Z 02002MPS CAVOK 10/07 Q1011 R07/010070 TEMPO 1000 BR BKN003 RMK QFE718
URRP,2023-04-05T21:00:00Z,URRP 052100Z 11006MPS CAVOK 13/06 Q1010 R05/CLRD70 NOSIG RMK QFE753/1004
URSS,2023-04-05T21:00:00Z,URSS 052100Z 05002MPS 9999 FEW033CB BKN100 10/09 Q1011 R02/010070 R06/010070 NOSIG RMK R06/29001G04MPS MT OBSC QFE757
URWA,2023-04-05T21:00:00Z,URWA 052100Z VRB01MPS CAVOK 08/04 Q1012 R27/010070 NOSIG RMK QFE761/1015
URWI,2023-04-05T21:00:00Z,URWI 052100Z AUTO 10002MPS 9999 // ///////// 08/M00 Q1012
URWW,2023-04-05T21:00:00Z,URWW 052100Z 08004MPS CAVOK 09/06 Q1014 R06/010070 NOSIG
USCC,2023-04-05T21:00:00Z,USCC 052100Z 19004MPS CAVOK 09/M02 Q1010 R09/000060 NOSIG RMK QFE737
USCM,2023-04-05T21:00:00Z,USCM 052100Z 22004MPS 6000 FEW040 03/M03 Q1012 R36/090060 NOSIG RMK QFE721
USDA,2023-04-05T21:00:00Z,USDA 052100Z AUTO 32007MPS 3900 // NCD M28/M31 Q1022 RMK QFE765/1020
USHH,2023-04-05T21:00:00Z,USHH 052100Z 30001MPS CAVOK 01/M02 Q1009 R24/010060 NOSIG
USNN,2023-04-05T21:00:00Z,USNN 052100Z 25003MPS CAVOK 01/M03 Q1007 R21/0///65 NOSIG RMK QFE751
USPP,2023-04-05T21:00:00Z,USPP 052100Z 34001MPS CAVOK 08/M01 Q1014 R21/090060 TEMPO 1100 FU RMK QFE750
USRR,2023-04-05T21:00:00Z,USRR 052100Z 28003MPS CAVOK M01/M03 Q1008 R25/CLRD60 NOSIG RMK QFE751
USSS,2023-04-05T21:00:00Z,USSS 052100Z 32002MPS 8000 NSC 04/M03 Q1011 R26L/010060 NOSIG RMK QFE737/0983
USTR,2023-04-05T21:00:00Z,USTR 052100Z 20005MPS CAVOK 08/M02 Q1010 R21/090065 R12/////99 NOSIG
UTAA,2023-04-05T21:00:00Z,UTAA 052100Z VRB02KT 9999 NSC 11/03 Q1009 R88/70D NOSIG
UTAK,2023-04-05T21:00:00Z,UTAK 052100Z 09006KT CAVOK 13/03 Q1008 R16R/CLRD70 NOSIG
UTAM,2023-04-05T21:00:00Z,UTAM 052100Z 11008KT 6000 BKN230 11/04 Q1013 R88/CLRD70 NOSIG
UTAT,2023-04-05T21:00:00Z,UTAT 052100Z 16008KT CAVOK 10/07 Q1012 R26/CLRD70 NOSIG
UTAV,2023-04-05T21:00:00Z,UTAV 052100Z 08006KT 9000 NSC 10/07 Q1013 R13/CLRD70 NOSIG
UTDD,2023-04-05T21:00:00Z,UTDD 052100Z 08003MPS 7000 FEW066CB 06/05 Q1019 R09/29//50 TEMPO TS RMK QFE695/0927
UTDK,2023-04-05T21:00:00Z,UTDK 052100Z VRB01MPS 9999 FEW035CB BKN073 11/11 Q1018 R01/29//50 RMK QFE706/0942
UTDL,2023-04-05T21:00:00Z,UTDL 052100Z 24004MPS 9999 FEW066CB BKN086 09/05 Q1015 R26/CLRD70 NOSIG RMK QFE724/0965
UTDT,2023-04-05T21:00:00Z,UTDT 052100Z 00000MPS 9999 FEW046CB BKN120 11/10 Q1017 R35/29//50 RMK QFE723/0964
UTFF,2023-04-05T21:00:00Z,UTFF 052100Z 14006KT 6000 BKN060CB 11/08 Q1014 R18/CLRD70
UTFN,2023-04-05T21:00:00Z,UTFN 052100Z 07004KT 9999 SCT050CB 11/06 Q1013 R28/CLRD70 NOSIG
UTNN,2023-04-05T21:00:00Z,UTNN 052100Z 13004KT CAVOK 09/07 Q1012 R33/CLRD60 NOSIG
UTNU,2023-04-05T21:00:00Z,UTNU 052100Z VRB02KT CAVOK 09/07 Q1012 R13/CLRD70 NOSIG
UTSA,2023-04-05T21:00:00Z,UTSA 052100Z 11006KT 9999 NSC 08/05 Q1015 R07/CLRD70 NOSIG
UTSB,2023-04-05T21:00:00Z,UTSB 052100Z 08004KT CAVOK 09/06 Q1014 R01/CLRD70 NOSIG
UTSK,2023-04-05T21:00:00Z,UTSK 052100Z VRB02KT CAVOK 09/04 Q1014 R16/CLRD70
UTSS,2023-04-05T21:00:00Z,UTSS 052100Z 20002KT 9999 NSC 06/05 Q1014 R09/19//65 NOSIG
UTST,2023-04-05T21:00:00Z,UTST 052100Z 06004KT 9999 FEW066CB 11/10 Q1016 R25/CLRD70 NOSIG
UTTT,2023-04-05T21:00:00Z,UTTT 052100Z 27006KT 9999 SCT053CB 10/07 Q1016 R08L/29//50 NOSIG
UUBC,2023-04-05T21:00:00Z,UUBC 052100Z 06005MPS CAVOK 10/03 Q1020 R13/CLRD60 NOSIG RMK QFE747/0996
UUBP,2023-04-05T21:00:00Z,UUBP 052100Z AUTO 05003MPS 9999 NCD 11/04 Q1017 NOSIG RMK QFE745/0993
UUBW,2023-04-05T21:00:00Z,UUBW 052100Z 03005MPS CAVOK 06/02 Q1022 R30/010060 NOSIG
UUDD,2023-04-05T21:00:00Z,UUDD 052100Z 04005MPS CAVOK 06/02 Q1022 R32L/CLRD60 NOSIG
UUDL,2023-04-05T21:00:00Z,UUDL 052100Z 04003MPS CAVOK 03/03 Q1025 R23/010060 NOSIG RMK QFE760
UUEE,2023-04-05T21:00:00Z,UUEE 052100Z 02005MPS CAVOK 05/02 Q1023 R06R/CLRD62 R06C/CLRD62 NOSIG
UUMO,2023-04-05T21:00:00Z,UUMO 052100Z 06005MPS CAVOK 06/02 Q1022 R07/CLRD60 NOSIG RMK QFE752/1003
UUOB,2023-04-05T21:00:00Z,UUOB 052100Z 05005MPS CAVOK 10/05 Q1013 R11/010070 NOSIG
UUOK,2023-04-05T21:00:00Z,UUOK 052100Z AUTO 09005MPS 9999 // NSC 11/05 Q1015 RMK QFE743/0991
UUOL,2023-04-05T21:00:00Z,UUOL 052100Z 04003MPS CAVOK 10/07 Q1017 R15/////// NOSIG
UUOO,2023-04-05T21:00:00Z,UUOO 052100Z 06002MPS CAVOK 10/05 Q1016 R12/010060 NOSIG RMK QFE748
UUWW,2023-04-05T21:00:00Z,UUWW 052100Z 05007MPS CAVOK 07/02 Q1022 R06/000070 NOSIG
UUYY,2023-04-05T21:00:00Z,UUYY 052100Z 01004MPS CAVOK 00/M06 Q1024 R36/61D NOSIG RMK QFE759/1012
UWGG,2023-04-05T21:00:00Z,UWGG 052100Z 00000MPS CAVOK 06/01 Q1021 R36R/090070 NOSIG
UWKD,2023-04-05T21:00:00Z,UWKD 052100Z 34003MPS CAVOK 08/01 Q1017 R29/70D NOSIG RMK QFE752/1002
UWKE,2023-04-05T21:00:00Z,UWKE 052100Z 36004MPS CAVOK 08/M00 Q1015 R03/090070 NOSIG RMK QFE744/0993
UWKS,2023-04-05T21:00:00Z,UWKS 052100Z 01003MPS CAVOK 08/01 Q1019 R06/010060 NOSIG RMK QFE749
UWLL,2023-04-05T21:00:00Z,UWLL 052100Z 30003MPS CAVOK 04/02 Q1016 R02/090065 NOSIG RMK QFE750/1000
UWLW,2023-04-05T21:00:00Z,UWLW 052100Z 36001MPS 6000 NSC 06/03 Q1016 R20/CLRD60 NOSIG RMK QFE757/1009
UWOO,2023-04-05T21:00:00Z,UWOO 052100Z VRB01MPS CAVOK 04/M00 Q1013 R08/60D NOSIG RMK QFE749/0999
UWOR,2023-04-05T21:00:00Z,UWOR 052100Z 02002MPS CAVOK 04/M00 Q1013 R25/CLRD60 NOSIG RMK QFE736/0982
UWPS,2023-04-05T21:00:00Z,UWPS 052100Z 03003MPS CAVOK 12/03 Q1017 R02/CLRD60 NOSIG RMK QFE744
UWSG,2023-04-05T21:00:00Z,UWSG 052100Z 29003MPS CAVOK 10/07 Q1015 R26/CLRD70 NOSIG RMK QFE758/1011
UWUU,2023-04-05T21:00:00Z,UWUU 052100Z 22003MPS 200V310 CAVOK 06/M02 Q1012 R32L/0///60 NOSIG
UWWW,2023-04-05T21:00:00Z,UWWW 052100Z VRB01MPS 8000 FEW033 11/02 Q1015 R33/CLRD60 NOSIG RMK QFE750/1000
VAAH,2023-04-05T21:00:00Z,VAAH 052100Z 29005KT 4000 FU NSC 27/09 Q1009 NOSIG
VABB,2023-04-05T21:00:00Z,VABB 052100Z 00000KT 3000 HZ SCT020 27/24 Q1010 NOSIG
VABP,2023-04-05T21:00:00Z,VABP 052100Z 29003KT 6000 FEW100 23/07 Q1011 NOSIG
VANP,2023-04-05T21:00:00Z,VANP 052100Z 35002KT 4000 HZ FEW020 SCT100 26/13 Q1010 NOSIG
VCBI,2023-04-05T20:10:00Z,VCBI 052010Z VRB02KT 9999 FEW017 BKN080 26/23 Q1010 NOSIG
VDPP,2023-04-05T21:00:00Z,VDPP 052100Z 17003KT 9000 FEW015 28/25 Q1007
VDSR,2023-04-05T21:00:00Z,VDSR 052100Z VRB01KT 9000 FEW015 27/24 Q1007
VDSV,2023-04-05T21:00:00Z,VDSV 052100Z 06002KT 9000 SCT015 25/24 Q1007
VEBN,2023-04-05T21:00:00Z,VEBN 052100Z 00000KT 3000 HZ NSC 20/13 Q1009 NOSIG
VEBS,2023-04-05T21:00:00Z,VEBS 052100Z 14002KT 4000 HZ FEW018 SCT100 26/26 Q1009 NOSIG
VECC,2023-04-05T21:00:00Z,VECC 052100Z 27004KT 3200 HZ FEW100 28/23 Q1008 NOSIG
VEGY,2023-04-05T21:00:00Z,VEGY 052100Z 00000KT 4000 HZ NSC 23/11 Q1009
VEPT,2023-04-05T20:30:00Z,VEPT 052030Z 27003KT 3000 HZ NSC 24/11 Q1008 NOSIG
VERC,2023-04-05T21:00:00Z,VERC 052100Z 00000KT 3000 HZ NSC 23/13 Q1012 NOSIG
VGHS,2023-04-05T21:00:00Z,VGHS 052100Z 23006KT 3500 HZ FEW015 SCT100 27/22 Q1008 NOSIG
VHHH,2023-04-05T21:00:00Z,VHHH 052100Z 19008KT 9999 FEW010 SCT045 26/23 Q1009 NOSIG
VIAR,2023-04-05T20:30:00Z,VIAR 052030Z VRB02KT 4000 BR SCT030 SCT100 16/14 Q1013 NOSIG
VIDP,2023-04-05T21:00:00Z,VIDP 052100Z 27007KT 3000 HZ SCT035 BKN100 21/11 Q1013 NOSIG
VIJP,2023-04-05T21:00:00Z,VIJP 052100Z 05010KT 3500 HZ FEW035 SCT100 23/11 Q1012 NOSIG
VILK,2023-04-05T21:00:00Z,VILK 052100Z VRB02KT 4000 HZ NSC 23/13 Q1009 NOSIG
VMMC,2023-04-05T21:00:00Z,VMMC 052100Z 17009KT 5000 BR FEW010 SCT030 24/23 Q1009 NOSIG
VNKT,2023-04-05T21:00:00Z,VNKT 052100Z 21003KT 7000 FEW015 13/09 Q1015 NOSIG
VOBL,2023-04-05T21:00:00Z,VOBL 052100Z 14004KT 6000 FEW015 23/18 Q1014 NOSIG
VOCB,2023-04-05T21:00:00Z,VOCB 052100Z 23004KT 5000 BR FEW012 26/22 Q1011 NOSIG
VOCI,2023-04-05T21:00:00Z,VOCI 052100Z 04002KT 4000 BR SCT015 27/25 Q1009 NOSIG
VOCL,2023-04-05T21:00:00Z,VOCL 052100Z 34003KT 6000 FEW015 26/23 Q1009 NOSIG
VOGA,2023-04-05T20:30:00Z,VOGA 052030Z 34002KT 4000 BR NSC 24/21 Q1010 NOSIG
VOHS,2023-04-05T21:00:00Z,VOHS 052100Z 14007KT 5000 HZ SCT015 SCT080 26/21 Q1012 NOSIG
VOKN,2023-04-05T21:00:00Z,VOKN 052100Z VRB02KT 5000 BR FEW012 SCT090 27/24 Q1009 NOSIG
VOMD,2023-04-05T20:00:00Z,VOMD 052000Z 00000KT 6000 FEW020 28/22 Q1010 NOSIG
VOML,2023-04-05T21:00:00Z,VOML 052100Z 09003KT 6000 FEW015 26/23 Q1010 NOSIG
VOMM,2023-04-05T21:00:00Z,VOMM 052100Z 24003KT 6000 SCT020 29/26 Q1008 NOSIG
VOPB,2023-04-05T21:00:00Z,VOPB 052100Z 00000KT 5000 BR SCT014 25/23 Q1009 NOSIG
VOTR,2023-04-05T21:00:00Z,VOTR 052100Z 16003KT 3000 BR FEW016 SCT100 27/24 Q1010 NOSIG
VOTV,2023-04-05T21:00:00Z,VOTV 052100Z 00000KT 3000 BR FEW015 SCT080 29/24 Q1009 NOSIG
VOVZ,2023-04-05T20:00:00Z,VOVZ 052000Z 24003KT 4000 BR SCT018 SCT080 28/27 Q1009 NOSIG
VRMG,2023-04-05T21:00:00Z,VRMG 052100Z 32004KT 9999 FEW018TCU SCT270 28/25 Q1010 TEMPO FEW018CB
VRMH,2023-04-05T21:00:00Z,VRMH 052100Z 02003KT 9999 SCT018TCU 27/24 Q1009
VRMM,2023-04-05T21:00:00Z,VRMM 052100Z VRB01KT 9999 FEW018 28/25 Q1009 NOSIG
VTBD,2023-04-05T21:00:00Z,VTBD 052100Z 18005KT 9999 FEW030 29/25 Q1007 NOSIG
VTBS,2023-04-05T21:00:00Z,VTBS 052100Z 18008KT 9000 FEW020 29/24 Q1007 NOSIG
VTBU,2023-04-05T21:00:00Z,VTBU 052100Z 18006KT 8000 FEW020 28/25 Q1007 NOSIG
VTCC,2023-04-05T21:00:00Z,VTCC 052100Z 30003KT 260V350 6000 FEW035 23/16 Q1008 NOSIG
VTCT,2023-04-05T21:00:00Z,VTCT 052100Z 00000KT 4000 FU NSC 19/19 Q1008 NOSIG
VTSG,2023-04-05T21:00:00Z,VTSG 052100Z 02003KT 350V060 7000 FEW020 24/23 Q1008 NOSIG
VTSP,2023-04-05T21:00:00Z,VTSP 052100Z 27004KT 240V310 9999 FEW020 27/23 Q1007 NOSIG
VTSS,2023-04-05T21:00:00Z,VTSS 052100Z 00000KT 9999 FEW020 BKN100 23/22 Q1007 NOSIG
VTUD,2023-04-05T20:00:00Z,VTUD 052000Z 00000KT 9000 FEW035 27/15 Q1006 NOSIG
VTUK,2023-04-05T21:00:00Z,VTUK 052100Z 14003KT 8000 NSC 26/18 Q1007 NOSIG
VTUU,2023-04-05T21:00:00Z,VTUU 052100Z VRB02KT 7000 NSC 28/23 Q1007 NOSIG
VVCI,2023-04-05T21:00:00Z,VVCI 052100Z 08004KT 9000 BKN009 BKN014 25/25 Q1006 NOSIG
VVCR,2023-04-05T21:00:00Z,VVCR 052100Z 00000KT CAVOK 25/23 Q1009 NOSIG
VVCT,2023-04-05T21:00:00Z,VVCT 052100Z 00000KT 8000 FEW015 24/24 Q1008 NOSIG
VVDN,2023-04-05T21:00:00Z,VVDN 052100Z 20004KT 7000 FEW015 27/23 Q1006 NOSIG
VVNB,2023-04-05T21:00:00Z,VVNB 052100Z 10005KT 6000 BKN010 OVC014 26/24 Q1006 NOSIG
VVPB,2023-04-05T21:00:00Z,VVPB 052100Z 14003KT 9999 FEW015 SCT080 28/26 Q1006 NOSIG
VVPQ,2023-04-05T21:00:00Z,VVPQ 052100Z 11002KT 9999 FEW015 26/24 Q1007 NOSIG
VVTS,2023-04-05T21:00:00Z,VVTS 052100Z VRB03KT 9999 FEW017 SCT050 27/26 Q1008 NOSIG
VVVD,2023-04-05T21:00:00Z,VVVD 052100Z AUTO 18003KT 9999 NCD 26/25 Q1007 NOSIG
VYYY,2023-04-05T21:00:00Z,VYYY 052100Z 25002KT 7000 NSC 26/25 Q1007 NOSIG
WAAA,2023-04-05T21:00:00Z,WAAA 052100Z 00000KT 8000 FEW019 23/20 Q1009 NOSIG
WABB,2023-04-05T21:00:00Z,WABB 052100Z 33004KT 140V330 8000 -RA FEW018CB BKN018 BKN100 24/23 Q1009 NOSIG RMK CB AT N
WADD,2023-04-05T21:00:00Z,WADD 052100Z VRB02KT 9999 FEW017 26/25 Q1009 NOSIG
WADL,2023-04-05T21:00:00Z,WADL 052100Z 00000KT 7000 SCT016 24/24 Q1010 NOSIG
WAHS,2023-04-05T21:00:00Z,WAHS 052100Z 14002KT 5000 HZ FEW014 26/24 Q1009
WAJJ,2023-04-05T21:00:00Z,WAJJ 052100Z 29002KT 9999 FEW011 25/22 Q1008 NOSIG
WAKK,2023-04-05T21:00:00Z,WAKK 052100Z 04002KT 9000 FEW013CB BKN016 26/26 Q1007
WALL,2023-04-05T21:00:00Z,WALL 052100Z 02002KT 5000 BR FEW020 24/24 Q1009
WAMM,2023-04-05T21:00:00Z,WAMM 052100Z VRB01KT 9999 FEW019 24/23 Q1009 NOSIG
WAOO,2023-04-05T21:00:00Z,WAOO 052100Z AUTO 08002KT 4700 VCTS BR BKN025 OVC031 24/24 Q1009
WAPP,2023-04-05T21:00:00Z,WAPP 052100Z 03004KT 8000 -RA SCT017 24/23 Q1008 NOSIG
WAQQ,2023-04-05T21:00:00Z,WAQQ 052100Z 31004KT 8000 SCT014 25/23 Q1009 NOSIG
WARR,2023-04-05T21:00:00Z,WARR 052100Z 22002KT 3000 HZ FEW020 25/24 Q1008 NOSIG 
WATT,2023-04-05T21:00:00Z,WATT 052100Z 30002KT 7000 SCT017 23/23 Q1010 NOSIG
WAYY,2023-04-05T21:00:00Z,WAYY 052100Z 00000KT 9999 FEW015 24/24 Q1008 NOSIG
WBGB,2023-04-05T21:00:00Z,WBGB 052100Z VRB02KT 9999 -RA FEW015CB SCT016 23/23 Q1009
WBGG,2023-04-05T21:00:00Z,WBGG 052100Z VRB02KT 6000 FEW002 SCT020 23/23 Q1010 NOSIG
WBGR,2023-04-05T21:00:00Z,WBGR 052100Z VRB02KT 9999 SCT016 25/24 Q1009
WBGS,2023-04-05T21:00:00Z,WBGS 052100Z 15004KT 090V210 9999 FEW015CB SCT016 24/23 Q1009
WBGY,2023-04-05T21:00:00Z,WBGY 052100Z AUTO 00000KT //// // ////// 24/24 Q1010
WBKK,2023-04-05T21:00:00Z,WBKK 052100Z 11005KT 9999 FEW015 24/21 Q1009 NOSIG
WBKL,2023-04-05T21:00:00Z,WBKL 052100Z VRB02KT 9999 FEW015 26/24 Q1008
WBKS,2023-04-05T21:00:00Z,WBKS 052100Z VRB02KT 9999 FEW015 25/23 Q1009
WBKT,2023-04-05T21:00:00Z,WBKT 052100Z VRB02KT 9999 FEW014 23/23 Q1009
WBKW,2023-04-05T21:00:00Z,WBKW 052100Z VRB02KT 9999 FEW016 SCT027 23/22 Q1009
WBSB,2023-04-05T21:00:00Z,WBSB 052100Z 06001KT 9999 FEW005 FEW015CB BKN280 26/26 Q1009 NOSIG
WIBB,2023-04-05T21:00:00Z,WIBB 052100Z 23004KT 7000 SCT013 23/23 Q1008
WIDD,2023-04-05T21:00:00Z,WIDD 052100Z 22003KT 9000 BKN014 25/24 Q1010 NOSIG
WIEE,2023-04-05T21:00:00Z,WIEE 052100Z 03003KT 9999 SCT020 24/24 Q1010 NOSIG
WIHH,2023-04-05T21:00:00Z,WIHH 052100Z 21003KT 6000 FEW020 26/23 Q1009 NOSIG METAR 
WIII,2023-04-05T21:00:00Z,WIII 052100Z 26004KT 8000 FEW020 25/23 Q1010 NOSIG
WIMM,2023-04-05T21:00:00Z,WIMM 052100Z 24003KT 6000 FEW016CB SCT017 23/22 Q1008 NOSIG
WIOO,2023-04-05T21:00:00Z,WIOO 052100Z AUTO VRB01KT 6000 FEW090 SCT130 24/24 Q1009
WIPP,2023-04-05T21:00:00Z,WIPP 052100Z 01003KT 5000 BR BKN010 22/21 Q1010 NOSIG
WMAU,2023-04-05T21:00:00Z,WMAU 052100Z 23004KT 6000 FEW002 22/22 Q1008
WMBA,2023-04-05T21:00:00Z,WMBA 052100Z VRB01KT 9000 FEW031 23/22 Q1008
WMKA,2023-04-05T21:00:00Z,WMKA 052100Z VRB03KT 9999 FEW012 22/21 Q1008
WMKB,2023-04-05T21:00:00Z,WMKB 052100Z VRB02KT 8000 FEW025 23/22 Q1008 NOSIG
WMKC,2023-04-05T21:00:00Z,WMKC 052100Z 21004KT 160V260 9999 FEW020 24/22 Q1008
WMKD,2023-04-05T21:00:00Z,WMKD 052100Z VRB01KT 6000 FEW000 24/23 Q1008 NOSIG
WMKE,2023-04-05T21:00:00Z,WMKE 052100Z AUTO 00000KT //// // ////// 22/22 Q1008
WMKJ,2023-04-05T21:00:00Z,WMKJ 052100Z 00000KT 9000 FEW022 24/23 Q1008
WMKK,2023-04-05T21:00:00Z,WMKK 052100Z 00000KT 8000 FEW008 FEW017CB 24/23 Q1009 NOSIG
WMKL,2023-04-05T21:00:00Z,WMKL 052100Z VRB03KT 9999 FEW026 25/23 Q1008
WMKM,2023-04-05T21:00:00Z,WMKM 052100Z 00000KT 3000 BR FEW005 FEW017CB 24/23 Q1009
WMKN,2023-04-05T21:00:00Z,WMKN 052100Z 21004KT 160V240 9999 FEW022 24/23 Q1008
WMKP,2023-04-05T21:00:00Z,WMKP 052100Z VRB01KT 8000 FEW025 25/23 Q1008 NOSIG
WMSA,2023-04-05T21:00:00Z,WMSA 052100Z 00000KT 9999 FEW026 25/23 Q1009
WSAP,2023-04-05T21:00:00Z,WSAP 052100Z 03002KT 9999 FEW016CB SCT160 BKN300 25/24 Q1009
WSSL,2023-04-05T21:00:00Z,WSSL 052100Z 19001KT 9999 FEW018 BKN300 25/24 Q1008
WSSS,2023-04-05T21:00:00Z,WSSS 052100Z 00000KT 6000 FEW016 SCT160 BKN300 25/24 Q1009 NOSIG
YAMB,2023-04-05T21:00:00Z,YAMB 052100Z 00000KT 9999 FEW031 SCT300 16/16 Q1013 RF00.0/000.0 HAZE
YBAS,2023-04-05T21:00:00Z,YBAS 052100Z AUTO 28004KT 9999 // NCD 21/19 Q1011 RF00.0/000.0
YBBN,2023-04-05T21:00:00Z,YBBN 052100Z 21006KT CAVOK 20/15 Q1013
YBCG,2023-04-05T21:00:00Z,YBCG 052100Z AUTO 19006KT 9999 // SCT034 SCT039 BKN092 20/15 Q1012
YBCS,2023-04-05T21:00:00Z,YBCS 052100Z AUTO 17002KT 9999 // SCT021 25/24 Q1009 RF00.0/000.0
YBHM,2023-04-05T21:00:00Z,YBHM 052100Z AUTO 03005KT 9999 // SCT115 27/23 Q1010 RF00.0////./
YBLN,2023-04-05T21:03:00Z,YBLN 052103Z AUTO 17004KT 6000 // SCT002 07/07 Q1017 RF00.0/000.2
YBMA,2023-04-05T21:00:00Z,YBMA 052100Z AUTO 00000KT 9999 // NCD 16/12 Q1010 RF00.0/000.0
YBRK,2023-04-05T21:00:00Z,YBRK 052100Z AUTO 14003KT 9999 // BKN017 22/20 Q1011 RF00.0/000.0
YBRM,2023-04-05T21:00:00Z,YBRM 052100Z AUTO 23007KT 9999 // SCT023 SCT029 29/25 Q1009
YBSU,2023-04-05T21:00:00Z,YBSU 052100Z AUTO 22007KT 9999 // NCD 21/16 Q1012 RF00.0/000.0
YBTL,2023-04-05T21:00:00Z,YBTL 052100Z AUTO 13007KT 9999 // SCT038 SCT043 26/24 Q1009
YBWW,2023-04-05T21:00:00Z,YBWW 052100Z AUTO /////KT 9999 // NCD 14/13 Q1013 RF00.0/000.0
YCFS,2023-04-05T21:00:00Z,YCFS 052100Z AUTO 23008KT 9999 // BKN100 19/15 Q1013 RF00.0/000.0
YCIN,2023-04-05T21:00:00Z,YCIN 052100Z AUTO 10006KT 9999 VCTS BKN009 OVC017 26/25 Q1009
YFRT,2023-04-05T21:00:00Z,YFRT 052100Z AUTO 29010KT 9999 // NCD 14/11 Q1010 RF00.0/000.0
YGEL,2023-04-05T21:00:00Z,YGEL 052100Z AUTO 11010KT 9999 // NCD 15/12 Q1014 RF00.0/000.0
YGLA,2023-04-05T21:00:00Z,YGLA 052100Z AUTO 22003KT 9999 // SCT023 21/19 Q1011 RF00.0/000.0
YHID,2023-04-05T21:00:00Z,YHID 052100Z AUTO 10005KT 9999 // SCT016 28/26 Q1008 RF00.0/000.0
YLHI,2023-04-05T21:08:00Z,YLHI 052108Z AUTO 11015G27KT 9999 // OVC024 OVC029 21/16 Q1008 RESHRA
YMAV,2023-04-05T21:00:00Z,YMAV 052100Z AUTO 01006KT 9999 // OVC013 14/12 Q1012 RF00.0/000.0
YMHB,2023-04-05T20:30:00Z,YMHB 052030Z 33003KT 9999 BKN022 12/09 Q1015
YMLT,2023-04-05T21:00:00Z,YMLT 052100Z AUTO 00000KT 9999 // SCT046 09/07 Q1015 RF00.0/000.2
YMML,2023-04-05T21:00:00Z,YMML 052100Z 04008KT 5000 BR BKN005 BKN250 13/12 Q1012 RF00/0/000/0
YPAD,2023-04-05T21:00:00Z,YPAD 052100Z 06007KT CAVOK 18/07 Q1007 SCT110 BKN150
YPCC,2023-04-05T21:00:00Z,YPCC 052100Z AUTO 18005KT 9999 // NCD 26/23 Q1009 RF00.0/000.0
YPDN,2023-04-05T21:00:00Z,YPDN 052100Z AUTO 16005KT 9999 // NCD 26/25 Q1007 RF00.0/000.0
YPEA,2023-04-05T21:00:00Z,YPEA 052100Z AUTO 05011KT 9999 // NCD 15/10 Q1016 RF00.0/000.0
YPGV,2023-04-05T21:00:00Z,YPGV 052100Z AUTO 12008KT 8000 // SCT035 BKN055 BKN073 25/24 Q1008
YPJT,2023-04-05T21:00:00Z,YPJT 052100Z AUTO 09009KT 9999 // NCD 14/11 Q1016 RF00.0/000.0
YPKG,2023-04-05T21:00:00Z,YPKG 052100Z AUTO 22006KT 9999 // NCD 13/10 Q1015 RF00.0/000.0
YPKU,2023-04-05T21:00:00Z,YPKU 052100Z AUTO 21003KT 9999 // NCD 25/24 Q1008 RF00.0/000.0
YPLM,2023-04-05T21:00:00Z,YPLM 052100Z AUTO 21011KT 9999 // NCD 22/15 Q1010 RF00.0/000.0
YPPD,2023-04-05T21:00:00Z,YPPD 052100Z AUTO 28005KT 9999 // NCD 27/24 Q1009 RF00.0/000.0
YPPH,2023-04-05T21:00:00Z,YPPH 052100Z 09007KT CAVOK 15/11 Q1016
YPTN,2023-04-05T21:00:00Z,YPTN 052100Z AUTO 13003KT 9999 // NCD 20/18 Q1008 RF00.0/000.0
YPWR,2023-04-05T21:00:00Z,YPWR 052100Z AUTO 01003KT 9999 // BKN065 18/05 Q1008 RF00.0/000.0 DL-S
YPXM,2023-04-05T21:00:00Z,YPXM 052100Z AUTO 31003KT 9999 // SCT064 22/21 Q1011 RF00.0/000.0
YSCB,2023-04-05T21:00:00Z,YSCB 052100Z AUTO 11005KT 9999 // NCD 10/09 Q1017 RF00.0/000.0
YSDU,2023-04-05T21:00:00Z,YSDU 052100Z AUTO 14006KT 9999 // NCD 15/12 Q1014 RF00.0/000.0
YSNF,2023-04-05T21:05:00Z,YSNF 052105Z AUTO 01007KT 9999 // BKN009 23/21 Q1000 RF00/0//////
YSRI,2023-04-05T21:00:00Z,YSRI 052100Z AUTO 00000KT 0150 // OVC001 14/14 Q1015 RF00.0/000.0
YSSY,2023-04-05T20:30:00Z,YSSY 052030Z 28007KT 9999 VCSH FEW035 18/15 Q1014 RF00.0/000.0
YSTW,2023-04-05T21:00:00Z,YSTW 052100Z AUTO 16008KT 9999 // NCD 14/12 Q1014 RF00.0/000.0
YWLM,2023-04-05T20:30:00Z,YWLM 052030Z AUTO 27006KT 9999 // SCT030 16/15 Q1014 RF00.0/006.8
ZBAA,2023-04-05T21:00:00Z,ZBAA 052100Z 31002MPS 280V030 CAVOK 12/M02 Q1013 NOSIG
ZBAD,2023-04-05T21:00:00Z,ZBAD 052100Z 34001MPS 9999 -RA NSC 10/08 Q1013 NOSIG
ZBHH,2023-04-05T21:00:00Z,ZBHH 052100Z 21003MPS 9999 FEW040 M00/M01 Q1018 NOSIG
ZBSJ,2023-04-05T21:00:00Z,ZBSJ 052100Z 31007MPS 5000 -RA BR OVC040 10/09 Q1015 NOSIG
ZBTJ,2023-04-05T21:00:00Z,ZBTJ 052100Z 26003MPS 7000 NSC 11/08 Q1012 NOSIG
ZBYN,2023-04-05T21:00:00Z,ZBYN 052100Z 30006MPS CAVOK 04/M07 Q1018 NOSIG
ZGGG,2023-04-05T21:00:00Z,ZGGG 052100Z 06003MPS 9999 -SHRA SCT007 OVC026 23/22 Q1009 NOSIG
ZGHA,2023-04-05T21:00:00Z,ZGHA 052100Z 36004MPS 4600 -SHRA BR SCT016 12/11 Q1015 RESHRA NOSIG
ZGKL,2023-04-05T21:00:00Z,ZGKL 052100Z 04002MPS 360V080 9999 SCT030 OVC053 15/11 Q1012 NOSIG
ZGNN,2023-04-05T21:00:00Z,ZGNN 052100Z 08004MPS 9999 SCT013 23/20 Q1007 NOSIG
ZGOW,2023-04-05T21:00:00Z,ZGOW 052100Z 07003MPS 3000 BR SCT004 BKN007 BKN020 21/21 Q1011 BECMG AT2230 2100 BKN004 BKN009 OVC020
ZGSZ,2023-04-05T21:00:00Z,ZGSZ 052100Z 19003MPS 7000 SCT015 BKN050 24/23 Q1009 NOSIG
ZHCC,2023-04-05T21:00:00Z,ZHCC 052100Z 28006MPS CAVOK 13/05 Q1016 NOSIG
ZHHH,2023-04-05T21:00:00Z,ZHHH 052100Z 33002MPS 290V020 8000 NSC 12/10 Q1017 NOSIG
ZJHK,2023-04-05T21:00:00Z,ZJHK 052100Z 15002MPS 120V190 CAVOK 25/23 Q1006 NOSIG
ZJSY,2023-04-05T21:00:00Z,ZJSY 052100Z 11002MPS 080V150 9999 FEW020 BKN033 28/24 Q1008 NOSIG
ZLLL,2023-04-05T21:00:00Z,ZLLL 052100Z VRB01MPS CAVOK M06/M10 Q1023 NOSIG
ZLXY,2023-04-05T21:00:00Z,ZLXY 052100Z 21001MPS 8000 NSC 05/00 Q1025 NOSIG
ZMCK,2023-04-05T21:00:00Z,ZMCK 052100Z 30004MPS CAVOK M11/M16 Q1022 NOSIG RMK QFE650.7 60
ZMUB,2023-04-05T21:00:00Z,ZMUB 052100Z 33005MPS CAVOK M11/M17 Q1023 NOSIG RMK QFE659.2 61
ZPPP,2023-04-05T21:00:00Z,ZPPP 052100Z 22006MPS CAVOK 12/05 Q1019 NOSIG
ZSAM,2023-04-05T21:00:00Z,ZSAM 052100Z 10002MPS 070V130 3500 BR SCT011 OVC020 21/20 Q1011 NOSIG
ZSFZ,2023-04-05T21:00:00Z,ZSFZ 052100Z 03007MPS 4000 -SHRA BR BKN004 OVC015 14/14 Q1014 NOSIG
ZSHC,2023-04-05T21:00:00Z,ZSHC 052100Z 35003MPS 310V010 9999 BKN030 12/07 Q1016 NOSIG
ZSNB,2023-04-05T21:00:00Z,ZSNB 052100Z 34002MPS 7000 BKN020 12/09 Q1016 NOSIG
ZSNJ,2023-04-05T21:00:00Z,ZSNJ 052100Z VRB01MPS 6000 FEW033 10/09 Q1016 NOSIG
ZSOF,2023-04-05T21:00:00Z,ZSOF 052100Z 29002MPS 8000 -RA NSC 11/09 Q1017 NOSIG
ZSPD,2023-04-05T21:00:00Z,ZSPD 052100Z 30003MPS 250V340 9999 BKN026 12/06 Q1016 NOSIG
ZSQD,2023-04-05T21:00:00Z,ZSQD 052100Z 29003MPS 3000 BR NSC 05/04 Q1014 NOSIG
ZSSS,2023-04-05T21:00:00Z,ZSSS 052100Z 30003MPS 9999 BKN030 12/06 Q1016 NOSIG
ZUCK,2023-04-05T21:00:00Z,ZUCK 052100Z 01008MPS 9999 -RA NSC 11/09 Q1019 NOSIG
ZUGY,2023-04-05T21:00:00Z,ZUGY 052100Z 04004MPS 9999 -DZ FEW005 SCT015 OVC033 10/09 Q1018 NOSIG
ZUTF,2023-04-05T21:00:00Z,ZUTF 052100Z 28002MPS 9999 SCT040 10/09 Q1023 NOSIG
ZUUU,2023-04-05T21:00:00Z,ZUUU 052100Z 26002MPS CAVOK 11/08 Q1023 NOSIG
ZWSH,2023-04-05T21:00:00Z,ZWSH 052100Z 25003MPS 2000 DU NSC 05/M14 Q1020 NOSIG
ZWWW,2023-04-05T21:00:00Z,ZWWW 052100Z 17002MPS 140V200 CAVOK 04/M14 Q1020 NOSIG
ZYCC,2023-04-05T21:00:00Z,ZYCC 052100Z 26003MPS 1600 R06/1400U FU SCT020 M00/M10 Q1009 BECMG TL2230 3000
ZYHB,2023-04-05T21:00:00Z,ZYHB 052100Z 26002MPS 7000 NSC 01/M08 Q1009 NOSIG
ZYTL,2023-04-05T21:00:00Z,ZYTL 052100Z 28004MPS CAVOK 05/M00 Q1013 NOSIG
ZYTX,2023-04-05T21:00:00Z,ZYTX 052100Z VRB01MPS CAVOK 01/M03 Q1011 NOSIG
