station_id,raw_text
AGGA,TAF AGGA 112310Z 1200/1224 18007KT 9999 FEW020
AGGC,TAF AGGC 112310Z 1200/1224 05007KT 9999 FEW020
AGGH,TAF AGGH 112310Z 1200/1224 05010KT 9999 FEW020 T 30 32 31 28 Q 1008 1006 1005 1007
AGGK,TAF AGGK 112310Z 1200/1224 05010KT 9999 FEW020
AGGL,TAF AGGL 112310Z 1200/1224 05010KT 9999 FEW020
AGGM,TAF AGGM 112310Z 1200/1224 09008KT 9999 FEW020 Q 1008 1006 1005 1007
AGGN,TAF AGGN 112310Z 1200/1224 05010KT 9999 FEW020 Q 1008 1006 1005 1007
AGGR,TAF AGGR 112310Z 1200/1224 09012KT 9999 FEW020
ANYN,TAF ANYN 112152Z 1200/1300 10008KT 9999 FEW020 T 30 29 28 27 Q 1009 1007 1008 1010
AYPY,TAF AYPY 112150Z 1200/1300 24008KT 9999 SCT018 SCT140 FM121000 17010KT 9999 SCT040 FM120400 22012KT 9999 -SHRA SCT018 BKN030 PROB30 INTER 1205/1209 5000 TSRA BKN010 FEW018CB
BGGH,TAF BGGH 112013Z 1121/1201 VRB06KT 9999 -SHSN FEW006 BKN090 TEMPO 1121/1122 1400 SHSN BKN006 SCT014TCU
BGSF,TAF AMD BGSF 112000Z 1120/1202 23018KT 9999 FEW020 BKN050 BECMG 1120/1122 23012KT TEMPO 1120/1202 4000 -SHSN BKN020
BGTL,TAF BGTL 111900Z 1119/1301 VRB06KT 9999 SKC QNH2950INS TXM06/1119Z TNM15/1202Z LAST NO AMDS AFT 1119 NEXT 1203
BIAR,TAF BIAR 112205Z 1200/1300 19008KT 9999 BKN035 TX04/1200Z TN00/1208Z PROB40 TEMPO 1200/1205 23018G28KT BECMG 1200/1202 FEW028 SCT050
BIEG,TAF BIEG 112206Z 1200/1300 17015KT 9999 FEW035 BKN045 TX07/1200Z TNM01/1224Z PROB40 TEMPO 1200/1206 27015G25KT BECMG 1209/1211 CAVOK BECMG 1216/1218 20005KT
BIKF,TAF BIKF 112202Z 1200/1300 25016KT 9999 -SHRA SCT015 BKN030 TX08/1215Z TN02/1221Z BECMG 1216/1218 18006KT BECMG 1218/1220 14016KT TEMPO 1220/1223 3000 RADZ BR OVC007 BECMG 1222/1300 22007KT
BIRK,TAF BIRK 112204Z 1200/1300 26015KT 9999 -SHRA SCT018 BKN030 TX08/1215Z TN03/1224Z BECMG 1215/1217 19008KT BECMG 1218/1220 13012KT TEMPO 1220/1300 3500 RADZ BR BECMG 1223/1300 22007KT
BKPR,TAF BKPR 112330Z 1200/1224 VRB03KT 9999 SCT020 BKN050 BECMG 1222/1224 5000 BR
CBBC,TAF CBBC 111840Z 1119/1205 VRB03KT P6SM SCT040 BKN080 TEMPO 1119/1122 FEW005 BKN040 FM112200 VRB03KT P6SM FEW020 RMK FCST BASED ON AUTO OBS. NXT FCST BY 120100Z
CWSA,TAF CWSA 111940Z 1120/1124 19010KT P6SM SCT040 BECMG 1120/1122 24015G25KT RMK FCST BASED ON AUTO OBS. NXT FCST BY 120800Z
CYAM,TAF CYAM 111940Z 1120/1208 22008KT P6SM SCT240 FM120000 12008KT P6SM BKN060 FM120400 18010KT P6SM -SHRA OVC025 TEMPO 1204/1206 3SM -SHRA BR OVC010 FM120600 18012G22KT 6SM -SHRA BR OVC010 TEMPO 1206/1208 2SM -SHRA BR OVC005 RMK NXT FCST BY 120200Z
CYAW,TAF CYAW 111740Z 1118/1206 24012KT P6SM FEW040 BECMG 1122/1124 25006KT RMK NXT FCST BY 120000Z
CYAY,TAF CYAY 111940Z 1120/1208 21018G28KT 5SM -RA BR FEW008 OVC015 TEMPO 1120/1124 P6SM -SHRA SCT015 OVC025 PROB30 1120/1124 22025G35KT 2SM SHRA OVC008 FM120000 24018G28KT P6SM -SHRA FEW010 BKN020 TEMPO 1200/1206 P6SM NSW FEW015 BKN025 BECMG 1204/1206 27012KT FM120600 27012KT P6SM FEW020 RMK FCST BASED ON AUTO OBS. NXT FCST BY 120200Z
CYAZ,TAF CYAZ 111840Z 1119/1201 VRB03KT P6SM FEW020 RMK NXT FCST BY 121500Z
CYBB,TAF AMD CYBB 112211Z 1122/1124 05010KT P6SM FEW010 TEMPO 1122/1124 3SM -SN BR BKN010 RMK NXT FCST BY 121400Z
CYBC,TAF CYBC 111940Z 1120/1208 23018G28KT P6SM FEW040 BKN120 BKN180 BECMG 1121/1123 24012KT FM120000 25008KT P6SM BKN180 FM120400 27005KT P6SM SKC RMK FCST BASED ON AUTO OBS. NXT FCST BY 120200Z
CYBG,TAF CYBG 112340Z 1200/1224 25008KT P6SM FEW160 BKN220 FM120300 22005KT P6SM FEW040 FEW250 BECMG 1204/1206 VRB03KT FM120900 10005KT P6SM FEW006 SCT030 FM121600 09010KT P6SM FEW150 BKN240 FM122200 10006KT P6SM SCT040 BKN120 RMK NXT FCST BY 120300Z
CYBK,TAF CYBK 112340Z 1200/1212 11025G35KT P6SM -RA OVC020 TEMPO 1200/1204 2 1/2SM -RASN OVC008 FM120400 11025G40KT 2SM -SN OVC006 TEMPO 1204/1212 6SM -RASN OVC012 RMK NXT FCST BY 120600Z
CYBL,TAF CYBL 111840Z 1119/1204 VRB03KT P6SM FEW030 BECMG 1119/1121 06005KT RMK NXT FCST BY 120100Z
CYBR,TAF CYBR 112340Z 1200/1212 30022G32KT P6SM SCT130 FM120300 29015KT P6SM BKN050 TEMPO 1209/1212 P6SM -SHRA SCT020 OVC050 RMK NXT FCST BY 120600Z
CYBW,TAF CYBW 112343Z 1200/1204 04012KT P6SM FEW100 BECMG 1202/1204 01008KT RMK FCST BASED ON AUTO OBS. NXT FCST BY 121200Z
CYBX,TAF CYBX 111940Z 1120/1208 24030G40KT P6SM -RA SCT012 OVC025 TEMPO 1120/1124 4SM -SHRA BR FEW007 OVC012 FM120000 26017G27KT P6SM -SHRA SCT010 BKN020 TEMPO 1200/1203 P6SM NSW FEW015 BKN025 FM120300 32012G22KT P6SM SCT020 TEMPO 1203/1206 BKN020 FM120600 33008G18KT P6SM FEW020 RMK NXT FCST BY 120200Z
CYCA,TAF AMD CYCA 112344Z 1123/1208 33012G22KT 5SM -RA BR BKN007 OVC020 TEMPO 1123/1203 P6SM -RA SCT007 OVC015 FM120300 31012G22KT P6SM SCT020 BKN025 TEMPO 1203/1208 3SM -SHRASN BR BKN020 RMK FCST BASED ON AUTO OBS. NXT FCST BY 120200Z
CYCB,TAF CYCB 111840Z 1119/1207 11020G30KT P6SM SCT006 BKN020 BKN080 TEMPO 1119/1121 3SM -SN BR BKN006 OVC020 PROB30 1119/1121 1SM -FZDZ BR BKN003 FM112100 11020G30KT 2SM -SN BKN006 OVC020 TEMPO 1121/1124 6SM -SN SCT006 OVC020 FM120000 12020G30KT 3/4SM -SN BR OVC005 TEMPO 1200/1207 2SM -SN BR OVC010 RMK NXT FCST BY 120100Z
CYCD,TAF CYCD 112340Z 1200/1204 01007KT P6SM SKC BECMG 1202/1204 VRB03KT RMK NXT FCST BY 121500Z
CYCG,TAF CYCG 111840Z 1119/1204 02007KT P6SM SKC BECMG 1119/1121 33010G20KT FM112200 33010G20KT P6SM SCT080 TEMPO 1122/1204 BKN080 BECMG 1202/1204 VRB03KT RMK NXT FCST BY 120100Z
CYCO,TAF CYCO 111840Z 1119/1207 36015KT 4SM -RASN OVC005 TEMPO 1119/1122 3/4SM -SN OVC003 FM112200 33020G30KT 6SM -SN BKN015 OVC025 TEMPO 1122/1207 2SM -SN BKN007 OVC015 BECMG 1122/1124 33025G35KT RMK NXT FCST BY 120100Z
CYCX,TAF CYCX 112040Z 1121/1209 24010G20KT P6SM FEW120 SCT230 BECMG 1121/1123 23008KT RMK NXT FCST BY 120300Z
CYCY,TAF CYCY 111840Z 1119/1207 28012KT P6SM FEW010 BKN050 TEMPO 1119/1121 P6SM -SN BKN010 OVC040 FM112100 28015KT P6SM SCT025 OVC040 TEMPO 1121/1204 5SM -SHSN OVC020 FM120400 28018G28KT P6SM -SN OVC025 TEMPO 1204/1207 2SM -SHSN BLSN OVC012 RMK FCST BASED ON AUTO OBS. NXT FCST BY 120100Z
CYDB,TAF CYDB 112340Z 1200/1212 30010KT P6SM OVC020 TEMPO 1200/1209 SCT020 BKN250 FM120900 30008KT P6SM OVC020 TEMPO 1209/1212 5SM -SN BR OVC008 RMK FCST BASED ON AUTO OBS. NXT FCST BY 120600Z
CYDF,TAF CYDF 111940Z 1120/1208 22018G28KT P6SM BKN040 TEMPO 1120/1124 BKN030 FM120000 23015G25KT P6SM BKN030 BKN120 TEMPO 1200/1208 P6SM -SHRA FEW009 BKN020 BKN120 BECMG 1203/1205 23008KT RMK NXT FCST BY 120200Z
CYDL,TAF AMD CYDL 112102Z 1121/1124 20005KT P6SM BKN060 TEMPO 1121/1124 24012G22KT P6SM -SHRA BKN040 RMK FCST BASED ON AUTO OBS. NXT FCST BY 121300Z
CYDN,TAF CYDN 112340Z 1200/1212 28022G32KT P6SM SCT020 BKN060 TEMPO 1200/1203 P6SM -SHRA BKN020 OVC060 FM120300 28015G25KT P6SM SCT060 TEMPO 1203/1212 BKN060 RMK FCST BASED ON AUTO OBS. NXT FCST BY 120600Z
CYDQ,TAF CYDQ 111840Z 1119/1205 27020G30KT P6SM SCT080 BECMG 1200/1202 26012G22KT RMK FCST BASED ON AUTO OBS. NXT FCST BY 120100Z
CYED,TAF CYED 112340Z 1200/1212 31015G25KT P6SM BKN070 BKN090 FM120300 30012G22KT P6SM SCT060 BECMG 1206/1208 32012KT RMK NXT FCST BY 120600Z
CYEG,TAF CYEG 112340Z 1200/1224 30018G32KT P6SM FEW050 SCT100 BECMG 1202/1204 30012KT FM120400 30012KT P6SM FEW080 FM121600 30015G25KT P6SM SKC RMK NXT FCST BY 120300Z
CYEK,TAF AMD CYEK 112020Z 1120/1206 14025G40KT 3SM -RA BR OVC005 TEMPO 1120/1204 P6SM -RA OVC010 FM120400 12025G35KT 5SM -RA BR SCT005 OVC012 TEMPO 1204/1206 P6SM NSW SCT012 OVC025 RMK NXT FCST BY 120000Z
CYEN,TAF CYEN 111740Z 1118/1124 30023G33KT P6SM SCT020 BKN060 TEMPO 1118/1120 BKN020 OVC060 RMK FCST BASED ON AUTO OBS. NXT FCST BY 121200Z
CYEU,TAF CYEU 112340Z 1200/1202 10010KT 1/2SM IC FG BKN002 OVC150 TEMPO 1200/1202 3SM BR FEW002 RMK ADVISORY OFFSITE. NXT FCST BY 121100Z
CYEV,TAF CYEV 111840Z 1119/1207 28005KT P6SM SCT008 BKN050 OVC080 TEMPO 1119/1207 5SM -SN FEW004 BKN008 OVC050 RMK NXT FCST BY 120100Z
CYFB,TAF CYFB 112340Z 1200/1224 34005KT 5SM -SHSN SCT008 OVC020 TEMPO 1200/1218 P6SM -SN SCT020 OVC040 BECMG 1216/1218 33015KT FM121800 33015KT P6SM -SN BKN020 RMK NXT FCST BY 120600Z
CYFC,TAF CYFC 112340Z 1200/1212 20005KT P6SM SKC RMK FCST BASED ON AUTO OBS. NXT FCST BY 120600Z
CYFS,TAF CYFS 112340Z 1200/1212 32015G30KT P6SM FEW040 SCT100 BECMG 1200/1202 32010G20KT BECMG 1202/1204 32005KT RMK NXT FCST BY 120600Z
CYGK,TAF CYGK 111940Z 1120/1203 19010KT P6SM FEW240 BECMG 1123/1201 22008KT RMK NXT FCST BY 121200Z
CYGL,TAF CYGL 112340Z 1200/1224 16010KT P6SM BKN180 BECMG 1212/1214 17010G20KT FM121600 17012G22KT P6SM SCT030 BECMG 1220/1222 BKN030 RMK NXT FCST BY 120600Z
CYGP,TAF CYGP 111940Z 1120/1208 26010G20KT P6SM BKN090 BKN200 BECMG 1120/1122 26008KT FM112300 27005KT P6SM BKN060 BKN200 FM120600 VRB03KT P6SM BKN220 RMK NXT FCST BY 120200Z
CYGQ,TAF CYGQ 111940Z 1120/1208 18012G22KT P6SM SKC FM120000 18012G22KT P6SM FEW040 SCT160 FM120600 18012G22KT P6SM SCT020 BKN060 RMK FCST BASED ON AUTO OBS. NXT FCST BY 120200Z
CYGR,TAF CYGR 111940Z 1120/1202 24020G32KT P6SM FEW270 BECMG 1123/1201 25015G25KT RMK NXT FCST BY 121100Z
CYGV,TAF CYGV 111940Z 1120/1208 26018G30KT P6SM BKN060 OVC100 TEMPO 1120/1122 P6SM -SHRA FM112300 27015G25KT P6SM SCT060 BKN100 BKN160 BECMG 1123/1201 28010KT FM120300 31005KT P6SM FEW050 BKN080 BKN160 RMK FCST BASED ON AUTO OBS. NXT FCST BY 120200Z
CYGW,TAF CYGW 112340Z 1200/1212 11010KT P6SM BKN100 BECMG 1200/1202 FEW100 RMK FCST BASED ON AUTO OBS. NXT FCST BY 120600Z
CYGX,TAF CYGX 111840Z 1119/1207 18010KT P6SM SCT280 BECMG 1203/1205 32012G22KT FM120500 32012G22KT P6SM SCT012 BKN025 TEMPO 1205/1207 3SM -SHRA BR FEW006 BKN012 RMK NXT FCST BY 120100Z
CYHD,TAF CYHD 111940Z 1120/1208 18015G25KT P6SM FEW200 BECMG 1122/1124 19010G20KT FM120200 19010G20KT P6SM FEW040 BKN160 TEMPO 1202/1206 BKN040 BKN160 BECMG 1202/1204 24010G20KT FM120600 26010G20KT P6SM -SHRA BKN020 BKN030 RMK FCST BASED ON AUTO OBS. NXT FCST BY 120200Z
CYHI,TAF CYHI 111840Z 1119/1124 02020G30KT 3/4SM -SN VV010 TEMPO 1119/1124 4SM -SN VV020 RMK NXT FCST BY 121600Z
CYHK,TAF CYHK 112340Z 1200/1212 14015KT P6SM FEW008 TEMPO 1200/1204 P6SM -SN BKN008 BECMG 1202/1204 14020G30KT FM120400 14020G30KT P6SM -SN BKN008 TEMPO 1204/1212 P6SM NSW SCT008 RMK FCST BASED ON AUTO OBS. NXT FCST BY 120600Z
CYHM,TAF CYHM 112340Z 1200/1224 22010KT P6SM SKC FM120800 20010KT P6SM BKN080 OVC200 BECMG 1213/1215 20012G22KT FM121700 20015G25KT P6SM FEW050 OVC120 BECMG 1222/1224 18012KT RMK NXT FCST BY 120600Z
CYHU,TAF CYHU 112340Z 1200/1224 19006KT P6SM SKC FM120600 19005KT P6SM SCT070 TEMPO 1206/1213 4SM BR FEW004 BKN070 PROB30 1206/1213 1SM BR FM121300 18008KT P6SM FEW070 FM121800 18015KT P6SM BKN140 RMK FCST BASED ON AUTO OBS. NXT FCST BY 120600Z
CYHY,TAF CYHY 112340Z 1200/1212 30025G45KT P6SM SCT020 BKN040 BECMG 1200/1202 30020G40KT FM120200 30020G40KT P6SM FEW040 BECMG 1204/1206 30015G30KT RMK NXT FCST BY 120600Z
CYHZ,TAF CYHZ 112340Z 1200/1224 27007KT P6SM SKC FM121500 23010KT P6SM SKC RMK NXT FCST BY 120300Z
CYIO,TAF AMD CYIO 112122Z 1121/1207 VRB03KT P6SM -SN OVC025 TEMPO 1121/1124 1 1/2SM -SN OVC015 FM120000 VRB03KT P6SM -SN OVC025 TEMPO 1200/1202 2 1/2SM -SN OVC015 FM120200 16005KT 5SM -SN OVC020 TEMPO 1202/1207 P6SM NSW OVC025 RMK NXT FCST BY 120100Z
CYIV,TAF CYIV 111840Z 1119/1207 15010G20KT P6SM SKC BECMG 1203/1205 21010G25KT FM120500 24010G25KT P6SM -RA SCT008 OVC015 TEMPO 1205/1207 P6SM NSW SCT015 OVC030 RMK FCST BASED ON AUTO OBS. NXT FCST BY 120100Z
CYJT,TAF CYJT 112341Z 1200/1224 25020G30KT P6SM FEW020 BKN030 BKN150 TEMPO 1200/1205 5SM -SHRA BR BKN020 BKN100 BECMG 1203/1205 28010G20KT FM120500 27010G20KT P6SM FEW020 SCT040 TEMPO 1205/1212 P6SM -SHRA BKN020 FM121200 25008G18KT P6SM FEW025 SCT060 FM122200 24012KT P6SM FEW010 FEW060 RMK NXT FCST BY 120600Z
CYKA,TAF CYKA 111840Z 1119/1207 VRB03KT P6SM BKN070 BECMG 1119/1121 27010KT FM112100 27010KT P6SM SCT100 TEMPO 1121/1202 BKN100 FM120500 VRB03KT P6SM FEW100 RMK NXT FCST BY 120100Z
CYKF,TAF CYKF 111940Z 1120/1208 23012KT P6SM SKC BECMG 1123/1201 19008KT FM120600 19008KT P6SM FEW080 BKN140 RMK FCST BASED ON AUTO OBS. NXT FCST BY 120200Z
CYKJ,TAF CYKJ 111840Z 1119/1124 31015G28KT P6SM SKC FM112000 31015G30KT P6SM OVC040 TEMPO 1120/1124 P6SM -SHRA RMK FCST BASED ON AUTO OBS. NXT FCST BY 121000Z
CYKL,TAF CYKL 111940Z 1120/1208 32008KT P6SM BKN030 TEMPO 1120/1124 5SM -SHSNRA OVC020 PROB30 1120/1124 2SM -SHSN OVC008 FM120000 28004KT P6SM SCT020 TEMPO 1200/1208 FEW005 BKN020 PROB30 1203/1208 1SM -FZDZ BR BKN005 RMK FCST BASED ON AUTO OBS. NXT FCST BY 120200Z
CYLD,TAF CYLD 111940Z 1120/1201 20012G22KT P6SM FEW240 FM112300 20012KT P6SM FEW040 RMK NXT FCST BY 121200Z
CYLK,TAF AMD CYLK 112339Z 1123/1124 29020G30KT P6SM -RA OVC015 TEMPO 1123/1124 P6SM NSW SCT015 OVC030 RMK NXT FCST BY 121600Z
CYLL,TAF CYLL 112340Z 1200/1212 30022G35KT P6SM BKN070 BECMG 1202/1204 31015G25KT FM120400 31015G25KT P6SM FEW060 RMK NXT FCST BY 120600Z
CYLT,TAF CYLT 111740Z 1118/1206 VRB03KT P6SM SCT010 OVC025 TEMPO 1118/1124 5SM -SN BKN010 OVC020 FM120000 VRB03KT P6SM SCT015 BKN030 PROB30 1200/1206 2SM BR BKN008 RMK NXT FCST BY 120000Z
CYLW,TAF CYLW 111840Z 1119/1207 VRB03KT P6SM BKN070 BECMG 1120/1122 35010KT FM112200 35010KT P6SM SCT100 TEMPO 1122/1204 BKN100 FM120500 36005KT P6SM FEW100 RMK FCST BASED ON AUTO OBS. NXT FCST BY 120100Z
CYMA,TAF CYMA 112340Z 1200/1212 VRB03KT 6SM -SN SCT015 OVC040 TEMPO 1200/1212 2SM -SHSN SCT008 BKN015 OVC030 PROB30 1203/1210 1SM -SN BR RMK NXT FCST BY 120600Z
CYMH,TAF CYMH 111940Z 1120/1203 22015G25KT P6SM BKN030 OVC070 TEMPO 1120/1123 5SM -RA BR OVC020 FM112300 25015G25KT P6SM SCT020 BKN040 TEMPO 1123/1202 P6SM -SHRA FM120200 30012G28KT P6SM FEW020 TEMPO 1202/1203 BKN020 RMK FCST BASED ON AUTO OBS. NXT FCST BY 120900Z
CYMJ,TAF CYMJ 111740Z 1118/1206 30025G35KT P6SM FEW025 BKN140 FM112100 30022G32KT P6SM SCT060 BKN120 FM120200 30015G25KT P6SM BKN120 RMK NXT FCST BY 120000Z
CYMM,TAF CYMM 111840Z 1119/1207 30018G28KT P6SM BKN070 FM112200 31020G34KT P6SM BKN080 FM120200 31018G28KT P6SM FEW080 RMK FCST BASED ON AUTO OBS. NXT FCST BY 120100Z
CYMO,TAF CYMO 112340Z 1200/1212 21010KT P6SM SKC RMK FCST BASED ON AUTO OBS. NXT FCST BY 120600Z
CYMT,TAF CYMT 111740Z 1118/1124 20010G20KT P6SM FEW140 BKN200 BECMG 1122/1124 21008KT RMK FCST BASED ON AUTO OBS. NXT FCST BY 121200Z
CYMX,TAF CYMX 112340Z 1200/1224 VRB03KT P6SM FEW240 FM120500 VRB03KT P6SM SCT070 TEMPO 1205/1214 3SM BR FEW003 BKN070 PROB30 1205/1213 1/2SM FG VV002 FM121400 VRB03KT P6SM FEW060 SCT150 FM121800 19012KT P6SM BKN170 RMK NXT FCST BY 120600Z
CYNA,TAF CYNA 111940Z 1120/1208 26015G30KT P6SM BKN050 OVC100 TEMPO 1120/1123 P6SM -SHRA FM112300 27015G25KT P6SM FEW050 BKN100 BECMG 1200/1202 28010KT FM120400 34005KT P6SM BKN080 BKN160 RMK FCST BASED ON AUTO OBS. NXT FCST BY 120200Z
CYND,TAF CYND 111740Z 1118/1201 VRB03KT P6SM FEW240 BECMG 1118/1120 21008KT BECMG 1123/1201 VRB03KT RMK NXT FCST BY 121300Z
CYNE,TAF CYNE 111840Z 1119/1207 18015G25KT P6SM FEW210 FM112100 30012G22KT P6SM -RA SCT015 OVC060 TEMPO 1121/1203 4SM -SHRA BR SCT008 OVC015 FM120300 31012G22KT P6SM -RA OVC015 TEMPO 1203/1207 P6SM NSW SCT015 OVC030 RMK FCST BASED ON AUTO OBS. NXT FCST BY 120100Z
CYOC,TAF CYOC 111840Z 1119/1201 25010KT P6SM FEW020 SCT030 BKN080 TEMPO 1119/1201 5SM -SN BKN020 BECMG 1119/1121 25012G22KT RMK NXT FCST BY 121500Z
CYOD,TAF CYOD 112340Z 1200/1224 31015G25KT P6SM SCT080 BKN150 FM120200 31015G25KT P6SM SCT060 FM121500 31012G22KT P6SM FEW180 BECMG 1215/1217 31018G28KT SKC RMK NXT FCST BY 120300Z
CYOJ,TAF CYOJ 111840Z 1119/1207 30012G22KT P6SM FEW050 SCT120 FM112300 35010G20KT P6SM SCT080 RMK NXT FCST BY 120100Z
CYOO,TAF CYOO 111940Z 1120/1208 18008KT P6SM SKC BECMG 1123/1201 24006KT RMK FCST BASED ON AUTO OBS. NXT FCST BY 120200Z
CYOW,TAF CYOW 112340Z 1200/1224 19005KT P6SM FEW250 FM120600 21006KT P6SM SCT070 TEMPO 1206/1212 BKN060 FM121200 19008KT P6SM SCT180 BECMG 1212/1214 20012G22KT BKN120 FM121800 20012G22KT P6SM OVC080 BECMG 1220/1222 18012KT RMK NXT FCST BY 120300Z
CYOY,TAF CYOY 112340Z 1200/1212 VRB03KT P6SM SCT250 FM120900 VRB03KT 6SM BR SCT003 PROB30 1209/1212 3/4SM BR BKN003 RMK NXT FCST BY 120600Z
CYPA,TAF AMD CYPA 112306Z 1123/1207 32012G22KT P6SM FEW060 BKN090 TEMPO 1123/1205 BKN060 OVC090 RMK NXT FCST BY 120100Z
CYPE,TAF CYPE 111840Z 1119/1207 27015G28KT P6SM BKN100 BECMG 1202/1204 29014KT RMK NXT FCST BY 120100Z
CYPG,TAF CYPG 112340Z 1200/1212 31025G35KT P6SM FEW030 BKN060 BECMG 1201/1203 30018G28KT BECMG 1203/1205 29015KT FM120900 28015KT P6SM -SHRA FEW030 BKN060 BKN150 RMK NXT FCST BY 120600Z
CYPH,TAF CYPH 112340Z 1200/1212 11010KT P6SM BKN160 BECMG 1202/1204 11012G22KT FM120600 11015G25KT P6SM FEW015 BKN120 BECMG 1207/1209 11018G28KT RMK FCST BASED ON AUTO OBS. NXT FCST BY 120600Z
CYPL,TAF CYPL 111940Z 1120/1208 18015G25KT P6SM SKC FM120000 19012G22KT P6SM FEW040 SCT160 FM120600 19012KT P6SM SCT020 BKN030 RMK FCST BASED ON AUTO OBS. NXT FCST BY 120200Z
CYPQ,TAF CYPQ 111940Z 1120/1202 20008KT P6SM SKC BECMG 1123/1201 22006KT RMK FCST BASED ON AUTO OBS. NXT FCST BY 121000Z
CYPR,TAF CYPR 111840Z 1119/1207 VRB03KT P6SM SCT012 BKN025 OVC040 TEMPO 1119/1122 5SM -RA BR FEW004 BKN012 FM112200 22005KT P6SM SCT030 BKN080 TEMPO 1122/1207 P6SM -RA BKN030 RMK FCST BASED ON AUTO OBS. NXT FCST BY 120100Z
CYPX,TAF CYPX 112340Z 1200/1212 09010KT P6SM BKN015 TEMPO 1200/1212 SCT015 BECMG 1210/1212 09020G30KT RMK FCST BASED ON AUTO OBS. NXT FCST BY 120600Z
CYPY,TAF CYPY 112346Z 1200/1206 31018G32KT P6SM -RASN BKN030 OVC050 TEMPO 1200/1206 2SM -SHSN BR BKN020 OVC040 RMK FCST BASED ON AUTO OBS. NXT FCST BY 121200Z
CYQA,TAF CYQA 111940Z 1120/1202 20007KT P6SM SKC RMK FCST BASED ON AUTO OBS. NXT FCST BY 121200Z
CYQB,TAF CYQB 112340Z 1200/1224 VRB03KT P6SM FEW150 SCT230 FM120600 VRB03KT P6SM FEW003 TEMPO 1206/1214 4SM BR PROB30 1209/1214 1/2SM FG BKN002 FM121400 24010KT P6SM SCT015 TEMPO 1214/1216 BKN015 FM121600 26010KT P6SM SCT050 BKN180 FM122200 05008KT P6SM BKN120 RMK NXT FCST BY 120600Z
CYQD,TAF AMD CYQD 112304Z 1123/1207 30020G30KT P6SM SCT020 BKN030 TEMPO 1123/1202 3SM -RA BR BKN020 OVC030 BECMG 1200/1202 30015G30KT FM120200 30015G30KT P6SM SCT050 TEMPO 1202/1207 BKN050 RMK FCST BASED ON AUTO OBS. NXT FCST BY 120100Z
CYQF,TAF CYQF 112340Z 1200/1212 33015G25KT P6SM BKN080 FM120600 34010KT P6SM FEW090 RMK FCST BASED ON AUTO OBS. NXT FCST BY 120600Z
CYQG,TAF CYQG 112340Z 1200/1224 20015KT P6SM BKN080 FM120300 20010KT P6SM OVC080 FM121500 20012G22KT P6SM BKN080 OVC160 BECMG 1215/1217 20017G27KT FM121900 19018G28KT P6SM BKN080 RMK FCST BASED ON AUTO OBS. NXT FCST BY 120600Z
CYQH,TAF CYQH 112340Z 1200/1212 30010KT P6SM BKN080 TEMPO 1200/1201 BKN060 FM120400 24007KT P6SM SCT060 BKN220 RMK NXT FCST BY 120600Z
CYQI,TAF CYQI 112340Z 1200/1212 23005KT P6SM FEW025 RMK NXT FCST BY 120600Z
CYQK,TAF CYQK 111940Z 1120/1208 19012G22KT P6SM SCT250 FM120000 24010G20KT P6SM FEW030 BKN100 TEMPO 1200/1203 BKN030 BKN100 BECMG 1200/1202 27010G20KT FM120300 27010G20KT P6SM SCT020 BKN030 RMK NXT FCST BY 120200Z
CYQL,TAF CYQL 112343Z 1200/1212 26025G38KT P6SM SKC BECMG 1201/1203 26010KT RMK NXT FCST BY 120600Z
CYQM,TAF CYQM 112340Z 1200/1224 20010KT P6SM FEW220 BECMG 1214/1216 21010G20KT BECMG 1221/1223 21008KT RMK NXT FCST BY 120600Z
CYQQ,TAF CYQQ 112340Z 1200/1224 36005KT P6SM SKC BECMG 1202/1204 VRB03KT FM121200 VRB03KT P6SM SCT010 SCT250 FM121800 34005KT P6SM FEW250 RMK NXT FCST BY 120600Z
CYQR,TAF CYQR 112340Z 1200/1224 31020G30KT P6SM BKN080 FM120800 31018G28KT P6SM SCT060 TEMPO 1208/1216 BKN060 BECMG 1213/1215 31025G35KT FM122000 32030G40KT P6SM SKC RMK NXT FCST BY 120600Z
CYQT,TAF CYQT 111940Z 1120/1208 19012KT P6SM FEW100 BKN250 FM120000 18008KT P6SM SCT040 BKN120 TEMPO 1200/1204 BKN040 BKN120 FM120400 18008KT P6SM SCT020 BKN030 TEMPO 1204/1208 P6SM -SHRA BKN020 BKN030 PROB30 1207/1208 2SM TSRA BR BKN012 BKN030CB RMK NXT FCST BY 120200Z
CYQU,TAF CYQU 111840Z 1119/1207 29020G34KT P6SM SCT080 FM120000 29018G28KT P6SM BKN080 RMK NXT FCST BY 120100Z
CYQV,TAF CYQV 112340Z 1200/1206 30020G30KT P6SM SCT040 TEMPO 1200/1206 BKN040 BECMG 1202/1204 29012G22KT RMK FCST BASED ON AUTO OBS. NXT FCST BY 121200Z
CYQW,TAF CYQW 112340Z 1200/1212 30022G32KT P6SM BKN080 FM120300 31022G32KT P6SM SCT080 TEMPO 1203/1212 BKN080 BECMG 1203/1205 31018G35KT RMK FCST BASED ON AUTO OBS. NXT FCST BY 120600Z
CYQX,TAF CYQX 112341Z 1200/1224 23012G22KT P6SM FEW050 FEW190 FM120300 25015G25KT P6SM BKN030 BKN100 TEMPO 1203/1206 P6SM -SHRA FM120600 26015G25KT P6SM SCT020 BKN030 TEMPO 1206/1209 P6SM -SHRA BKN020 BECMG 1207/1209 29010KT FM120900 29010KT P6SM SCT020 TEMPO 1209/1215 BKN020 FM121500 31010KT P6SM BKN040 FM122200 22008KT P6SM FEW010 BKN050 RMK NXT FCST BY 120600Z
CYQY,TAF CYQY 112340Z 1200/1212 20007KT P6SM FEW250 RMK NXT FCST BY 120600Z
CYQZ,TAF CYQZ 111840Z 1119/1206 19005KT P6SM SCT060 TEMPO 1119/1206 BKN060 BECMG 1120/1122 33008KT RMK FCST BASED ON AUTO OBS. NXT FCST BY 120100Z
CYRA,TAF CYRA 111840Z 1119/1124 30020G40KT P6SM -SN OVC030 TEMPO 1119/1124 5SM -SN OVC020 PROB30 1119/1124 32025G45KT 2SM -SN BLSN RMK NXT FCST BY 121600Z
CYRB,TAF CYRB 112340Z 1200/1224 10008KT 5SM -SN SCT006 OVC012 TEMPO 1200/1211 P6SM -SN SCT012 OVC030 BECMG 1209/1211 14020KT FM121100 14020KT 3SM -SN BR BKN006 OVC015 TEMPO 1211/1224 P6SM NSW SCT006 OVC020 RMK NXT FCST BY 120600Z
CYRJ,TAF CYRJ 111940Z 1120/1202 23010G22KT P6SM FEW130 BKN220 BECMG 1122/1124 23008KT SKC RMK NXT FCST BY 121200Z
CYRL,TAF CYRL 111940Z 1120/1202 18008G18KT P6SM FEW240 FM120000 20008G18KT P6SM FEW020 BKN120 TEMPO 1200/1202 BKN020 BKN120 BECMG 1200/1202 24008KT RMK NXT FCST BY 121100Z
CYRQ,TAF CYRQ 111940Z 1120/1208 21012G22KT P6SM SKC BECMG 1122/1124 20010KT FM120400 19005KT P6SM FEW004 PROB30 1204/1208 1SM BR BKN004 RMK FCST BASED ON AUTO OBS. NXT FCST BY 120200Z
CYRT,TAF CYRT 112340Z 1200/1212 11030G40KT P6SM OVC015 TEMPO 1200/1202 3SM -RASN BR OVC008 FM120200 11030G40KT 2SM -RASN BR OVC008 TEMPO 1202/1212 P6SM -RA SCT008 OVC012 RMK NXT FCST BY 120600Z
CYSB,TAF CYSB 111940Z 1120/1208 20012KT P6SM SKC BECMG 1123/1201 18008KT FM120600 19012KT P6SM FEW005 BKN060 TEMPO 1206/1208 5SM -RA BR BKN005 OVC040 RMK NXT FCST BY 120200Z
CYSC,TAF CYSC 112340Z 1200/1203 21005KT P6SM SKC RMK FCST BASED ON AUTO OBS. NXT FCST BY 121100Z
CYSF,TAF CYSF 112351Z 1200/1212 29015G28KT P6SM BKN040 OVC080 TEMPO 1200/1206 P6SM -SHRA BKN020 OVC050 PROB30 1203/1206 2SM -SHSN FM120600 26018G32KT 1 1/2SM -SHSN VV015 TEMPO 1206/1212 6SM -RASN BR OVC020 RMK FCST BASED ON AUTO OBS. NXT FCST BY 120600Z
CYSJ,TAF CYSJ 112340Z 1200/1212 23007KT P6SM SCT250 RMK NXT FCST BY 120600Z
CYSM,TAF CYSM 112348Z 1200/1212 28018G30KT 2SM -SHSN VV009 TEMPO 1200/1206 6SM -RASN BR OVC020 PROB40 1200/1206 3/4SM -SHSN FM120600 30015G30KT P6SM -SHSN BKN030 OVC050 TEMPO 1206/1210 2SM -SHSN OVC020 FM121000 31015G30KT P6SM BKN030 OVC050 TEMPO 1210/1212 5SM -SHSN RMK NXT FCST BY 120600Z
CYSN,TAF CYSN 111940Z 1120/1201 22015G25KT P6SM SKC BECMG 1121/1123 21012KT RMK NXT FCST BY 121300Z
CYTE,TAF CYTE 111840Z 1119/1207 VRB03KT P6SM -SN BKN008 OVC025 TEMPO 1119/1122 P6SM NSW SCT008 BKN030 FM112200 32008KT P6SM -SN BKN020 TEMPO 1122/1207 P6SM NSW SCT020 RMK NXT FCST BY 120100Z
CYTH,TAF CYTH 111840Z 1119/1207 20008KT P6SM BKN220 BECMG 1119/1121 28010G20KT FM112200 30012G22KT 4SM -RA BR FEW008 OVC015 TEMPO 1122/1204 P6SM -RA SCT015 OVC040 BECMG 1201/1203 32015G30KT FM120400 32015G30KT P6SM SCT015 OVC025 TEMPO 1204/1207 5SM -RA BR OVC015 RMK NXT FCST BY 120100Z
CYTL,TAF CYTL 111940Z 1120/1208 18012KT P6SM SKC FM120600 20008KT P6SM FEW120 RMK FCST BASED ON AUTO OBS. NXT FCST BY 120200Z
CYTR,TAF CYTR 112340Z 1200/1224 19005KT P6SM FEW080 FM120300 20005KT P6SM SCT250 FM120900 19005KT P6SM BKN200 FM121300 19008KT P6SM BKN100 FM121600 19010G20KT P6SM BKN090 OVC180 RMK NXT FCST BY 120600Z
CYTS,TAF CYTS 111940Z 1120/1208 20010G20KT P6SM FEW240 BECMG 1122/1124 20010KT FM120600 18008KT P6SM SCT060 TEMPO 1206/1208 BKN060 RMK NXT FCST BY 120200Z
CYTZ,TAF CYTZ 111940Z 1120/1220 08012KT P6SM SKC BECMG 1123/1201 22008KT FM120900 17007KT P6SM BKN090 OVC200 FM121500 16010KT P6SM OVC080 RMK FCST BASED ON AUTO OBS. NXT FCST BY 120200Z
CYUB,TAF AMD CYUB 112325Z 1123/1205 31015KT P6SM -SN SCT006 OVC040 TEMPO 1123/1201 2SM -SHSN BR OVC006 FM120100 31012KT P6SM SCT008 BKN040 BKN080 TEMPO 1201/1205 5SM -SN BR BKN008 OVC040 PROB30 1201/1203 2SM -SHSN BR BKN006 RMK NXT FCST BY 120100Z
CYUL,TAF CYUL 112340Z 1200/1224 22007KT P6SM SCT250 FM120600 16005KT P6SM SCT070 TEMPO 1206/1213 4SM BR FEW003 BKN070 PROB30 1206/1213 1SM BR SCT003 FM121300 19008KT P6SM FEW070 FM121800 16012KT P6SM BKN120 RMK NXT FCST BY 120300Z
CYUX,TAF CYUX 111840Z 1119/1207 34012KT P6SM -SN OVC020 TEMPO 1119/1207 P6SM NSW SCT020 BECMG 1202/1204 31010KT RMK NXT FCST BY 120100Z
CYUY,TAF CYUY 112340Z 1200/1212 20008KT P6SM FEW150 FEW240 FM120900 19008KT P6SM SCT060 FM121100 18012KT P6SM -SHRA SCT020 OVC040 RMK NXT FCST BY 120600Z
CYVC,TAF AMD CYVC 112308Z 1123/1207 32018G28KT P6SM BKN060 TEMPO 1123/1203 3SM FU BECMG 1203/1205 31012G25KT RMK NXT FCST BY 120100Z
CYVM,TAF CYVM 111840Z 1119/1207 VRB03KT P6SM FEW007 SCT060 TEMPO 1119/1202 5SM -SHSN OVC050 FM120200 19007KT P6SM BKN050 TEMPO 1202/1207 5SM -SHSN BKN020 OVC040 RMK NXT FCST BY 120100Z
CYVO,TAF CYVO 112340Z 1200/1212 19008KT P6SM SKC FM121100 17012KT P6SM BKN040 RMK NXT FCST BY 120600Z
CYVP,TAF CYVP 112340Z 1200/1212 04010KT P6SM BKN030 TEMPO 1200/1206 BKN020 FM120600 34005KT P6SM BKN015 BKN030 TEMPO 1206/1212 SCT015 BKN030 RMK NXT FCST BY 120600Z
CYVQ,TAF CYVQ 112340Z 1200/1212 29010G20KT P6SM FEW010 BKN060 FM120200 29010KT P6SM FEW010 FM120600 28005KT P6SM SKC PROB30 1206/1212 1/2SM FZFG RMK NXT FCST BY 120600Z
CYVR,TAF CYVR 112340Z 1200/1306 28008KT P6SM SKC BECMG 1204/1206 09006KT FM121200 VRB03KT P6SM FEW008 FM121700 29010KT P6SM SKC BECMG 1304/1306 VRB03KT RMK NXT FCST BY 120300Z
CYVT,TAF CYVT 112050Z 1121/1204 31015G28KT P6SM SCT050 BKN080 TEMPO 1121/1204 P6SM -SHRA BKN050 RMK FCST BASED ON AUTO OBS. NXT FCST BY 121400Z
CYWA,TAF CYWA 112340Z 1200/1224 VRB03KT P6SM SKC FM120300 VRB03KT P6SM SCT250 PROB30 1204/1210 3/4SM BR FM121000 14005KT P6SM SCT070 BKN130 OVC250 FM121400 14008KT P6SM -SHRA BKN060 OVC080 BECMG 1216/1218 15010G20KT RMK NXT FCST BY 120600Z
CYWE,TAF AMD CYWE 112250Z 1122/1201 32020G35KT P6SM -RASN SCT020 BKN040 TEMPO 1122/1201 2 1/2SM -SN SCT010 BKN020 RMK FCST BASED ON AUTO OBS. NXT FCST BY 121300Z
CYWG,TAF CYWG 112340Z 1200/1224 28020G30KT P6SM FEW040 BKN110 TEMPO 1200/1202 P6SM -SHRA BKN040 OVC090 FM120200 30020G30KT P6SM BKN040 BECMG 1204/1206 28010KT FM121500 32020G30KT P6SM -SHRA SCT020 BKN040 FM122000 33020G30KT P6SM BKN040 FM122300 33020G30KT P6SM FEW040 RMK NXT FCST BY 120600Z
CYWH,TAF CYWH 112040Z 1121/1204 VRB03KT P6SM SKC BECMG 1121/1123 15006KT RMK NXT FCST BY 121400Z
CYWK,TAF AMD CYWK 112007Z 1120/1208 VRB03KT P6SM SCT015 BKN030 TEMPO 1120/1203 5SM -RASN -DZ BR BKN015 PROB30 1200/1203 1SM -FZDZ BR OVC006 FM120300 14004KT 6SM BR OVC010 PROB30 1203/1206 1SM -FZDZ BR OVC000 FM120600 18005KT 3SM -SNRA OVC005 RMK NXT FCST BY 120200Z
CYWL,TAF CYWL 111840Z 1119/1207 12005KT P6SM FEW060 SCT100 BKN220 TEMPO 1119/1203 BKN060 FM120300 09005KT P6SM FEW060 RMK NXT FCST BY 120100Z
CYXC,TAF CYXC 111840Z 1119/1207 07005KT P6SM FEW050 BECMG 1119/1121 24012G22KT FM112200 26012G22KT P6SM SCT080 RMK NXT FCST BY 120100Z
CYXE,TAF CYXE 112340Z 1200/1224 30015G25KT P6SM BKN070 FM120400 30015G25KT P6SM SCT070 TEMPO 1204/1212 BKN070 FM121400 30018G28KT P6SM SKC BECMG 1214/1216 31020G35KT RMK NXT FCST BY 120600Z
CYXH,TAF CYXH 112345Z 1200/1212 30015G28KT P6SM FEW100 BECMG 1201/1203 34014G24KT FM120400 33014G24KT P6SM BKN100 RMK NXT FCST BY 120600Z
CYXJ,TAF CYXJ 111840Z 1119/1207 26020KT P6SM SCT090 BECMG 1201/1203 25012KT RMK NXT FCST BY 120100Z
CYXL,TAF CYXL 111940Z 1120/1208 19012G22KT P6SM FEW170 FM120200 19010G20KT P6SM FEW040 BKN160 TEMPO 1202/1206 BKN040 BKN160 BECMG 1202/1204 24008G18KT FM120600 27008G18KT P6SM -SHRA BKN020 BKN030 RMK NXT FCST BY 120200Z
CYXR,TAF CYXR 111740Z 1118/1124 19012G22KT P6SM SKC BECMG 1122/1124 19012KT RMK FCST BASED ON AUTO OBS. NXT FCST BY 121200Z
CYXS,TAF CYXS 111840Z 1119/1207 20010KT P6SM SCT060 TEMPO 1119/1202 BKN060 BECMG 1119/1121 27010G20KT FM120200 26006KT P6SM SCT060 BECMG 1203/1205 19006KT RMK FCST BASED ON AUTO OBS. NXT FCST BY 120100Z
CYXT,TAF CYXT 111840Z 1119/1207 17015G25KT P6SM FEW030 BKN060 TEMPO 1119/1207 P6SM -RA FEW006 BKN015 OVC060 BECMG 1202/1204 18010KT RMK NXT FCST BY 120100Z
CYXU,TAF CYXU 112340Z 1200/1224 20012KT P6SM SKC FM120500 19010KT P6SM BKN080 OVC180 BECMG 1213/1215 19015G25KT FM121900 18018G28KT P6SM BKN080 FM122300 18015KT P6SM BKN060 RMK NXT FCST BY 120600Z
CYXX,TAF CYXX 112340Z 1200/1224 21007KT P6SM SKC FM121200 VRB03KT P6SM FEW006 PROB30 1212/1217 3/4SM BR SCT002 FM121900 23008KT P6SM SKC RMK NXT FCST BY 120600Z
CYXY,TAF CYXY 112340Z 1200/1212 21010G20KT P6SM SCT060 BKN220 TEMPO 1200/1209 BKN060 FM120900 19010G20KT P6SM BKN060 OVC140 TEMPO 1209/1212 P6SM -SHRA OVC040 RMK NXT FCST BY 120600Z
CYXZ,TAF CYXZ 111940Z 1120/1124 VRB03KT P6SM SCT240 BECMG 1120/1122 18010KT RMK NXT FCST BY 121300Z
CYYB,TAF CYYB 111940Z 1120/1208 21010KT P6SM SKC BECMG 1123/1201 20007KT FM120600 20010KT P6SM SCT060 BKN200 RMK NXT FCST BY 120200Z
CYYC,TAF CYYC 112340Z 1200/1224 04010KT P6SM FEW100 FM120300 02010KT P6SM SCT090 BECMG 1206/1208 VRB03KT FM121300 31009KT P6SM SKC FM121600 36008G18KT P6SM SKC RMK NXT FCST BY 120300Z
CYYD,TAF CYYD 111840Z 1119/1206 VRB03KT P6SM SCT040 BKN070 BECMG 1119/1121 33010G20KT FM120200 32008KT P6SM SCT060 RMK NXT FCST BY 120100Z
CYYE,TAF CYYE 111840Z 1119/1207 28015G25KT P6SM SCT090 FM120200 28008KT P6SM BKN090 RMK NXT FCST BY 120100Z
CYYF,TAF CYYF 111840Z 1119/1207 VRB03KT P6SM SCT080 BECMG 1119/1121 36012G22KT BECMG 1201/1203 36005KT RMK NXT FCST BY 120100Z
CYYG,TAF AMD CYYG 112342Z 1200/1212 24010KT P6SM SKC RMK NXT FCST BY 120600Z
CYYH,TAF CYYH 112340Z 1200/1212 10008KT P6SM FEW012 TEMPO 1200/1205 BKN012 BECMG 1203/1205 13012KT FM120500 13012KT P6SM -SN BKN010 TEMPO 1205/1212 P6SM NSW SCT010 RMK NXT FCST BY 120600Z
CYYJ,TAF CYYJ 112340Z 1200/1224 08005KT P6SM SKC FM121000 VRB03KT P6SM FEW010 FM121800 05006KT P6SM SKC RMK NXT FCST BY 120600Z
CYYL,TAF AMD CYYL 112142Z 1121/1207 33012G22KT P6SM SCT015 OVC025 TEMPO 1121/1201 3SM -RA BR OVC015 FM120100 32010G25KT P6SM BKN030 TEMPO 1204/1207 P6SM -SHRA BKN020 RMK FCST BASED ON AUTO OBS. NXT FCST BY 120100Z
CYYN,TAF CYYN 112340Z 1200/1212 30020G30KT P6SM SCT070 TEMPO 1200/1206 BKN070 BECMG 1202/1204 32018G28KT RMK FCST BASED ON AUTO OBS. NXT FCST BY 120600Z
CYYQ,TAF CYYQ 112340Z 1200/1224 10010KT P6SM FEW180 BKN250 FM120300 10010KT P6SM SCT100 TEMPO 1203/1213 BKN100 BECMG 1211/1213 24010KT FM121300 24010KT 2SM -RA BR SCT004 OVC008 FM122000 30014KT 3SM -RA BR SCT006 BKN012 RMK NXT FCST BY 120600Z
CYYR,TAF CYYR 112340Z 1200/1224 26007KT P6SM SCT030 FM121000 24005KT P6SM SCT020 FM121600 24008KT P6SM BKN070 FM122000 25005KT P6SM BKN030 FM122300 25004KT P6SM BKN020 RMK NXT FCST BY 120600Z
CYYT,TAF CYYT 112341Z 1200/1224 25015G25KT P6SM BKN030 TEMPO 1200/1206 FEW008 BKN020 FM120600 28015G25KT P6SM SCT020 BKN030 BKN120 TEMPO 1206/1210 P6SM -SHRA BKN020 FM121000 29015G25KT P6SM FEW030 SCT100 BECMG 1210/1212 FEW030 FM121500 30012G22KT P6SM SCT030 FM122200 25008KT P6SM FEW010 BKN040 RMK NXT FCST BY 120600Z
CYYU,TAF CYYU 111940Z 1120/1208 22010G20KT P6SM FEW240 BECMG 1122/1124 20012KT FM120400 19012KT P6SM SCT040 RMK NXT FCST BY 120200Z
CYYY,TAF CYYY 111940Z 1120/1208 23015G25KT P6SM BKN100 BKN200 BECMG 1121/1123 23012KT FM120300 21010KT P6SM SKC RMK NXT FCST BY 120200Z
CYYZ,TAF CYYZ 112344Z 1200/1306 22012KT P6SM FEW080 FM120900 18010KT P6SM BKN080 OVC200 BECMG 1214/1216 18010G20KT FM121700 18015G25KT P6SM FEW050 BKN120 FM130500 18015G25KT P6SM OVC030 RMK NXT FCST BY 120300Z
CYZF,TAF CYZF 112340Z 1200/1224 30025G40KT 1SM -SN BLSN SCT008 OVC015 TEMPO 1200/1203 P6SM -RASN SCT015 OVC030 FM120300 31020G35KT P6SM BKN030 TEMPO 1203/1216 BKN020 BECMG 1214/1216 31015G30KT FM121600 31015G30KT P6SM SCT030 BECMG 1218/1220 32015KT BECMG 1222/1224 32010KT RMK NXT FCST BY 120600Z
CYZH,TAF CYZH 111840Z 1119/1207 29020G34KT P6SM BKN070 BECMG 1202/1204 29014G24KT RMK FCST BASED ON AUTO OBS. NXT FCST BY 120100Z
CYZP,TAF CYZP 111840Z 1119/1207 24008KT P6SM FEW025 SCT040 TEMPO 1119/1207 SCT025 BKN040 RMK FCST BASED ON AUTO OBS. NXT FCST BY 120100Z
CYZR,TAF CYZR 111940Z 1120/1202 22012G22KT P6SM FEW080 FM120100 22012KT P6SM BKN080 RMK FCST BASED ON AUTO OBS. NXT FCST BY 120800Z
CYZS,TAF CYZS 111840Z 1119/1207 36010KT 3/4SM BR BKN002 TEMPO 1119/1121 P6SM NSW SCT002 BECMG 1119/1121 09008KT FM112100 09008KT P6SM SCT008 TEMPO 1121/1207 5SM -SN BR BKN008 RMK NXT FCST BY 120100Z
CYZT,TAF CYZT 111840Z 1119/1207 VRB03KT P6SM FEW200 BECMG 1119/1121 32010KT RMK NXT FCST BY 120100Z
CYZV,TAF CYZV 112340Z 1200/1224 VRB03KT P6SM BKN050 FM121200 VRB03KT P6SM FEW050 FM121600 18008KT P6SM SKC RMK NXT FCST BY 120600Z
CYZW,TAF CYZW 111740Z 1118/1124 VRB03KT P6SM BKN050 TEMPO 1118/1124 25012G22KT RMK NXT FCST BY 121800Z
CYZX,TAF CYZX 112340Z 1200/1224 23005KT P6SM FEW250 TEMPO 1208/1212 2SM BR SCT002 PROB30 1208/1212 1/2SM FG FM121500 25012KT P6SM FEW030 RMK NXT FCST BY 120600Z
CYZY,TAF CYZY 111840Z 1119/1207 15008KT P6SM FEW040 SCT100 TEMPO 1119/1202 BKN040 BECMG 1119/1121 25012G22KT FM120200 24010KT P6SM BKN060 TEMPO 1202/1207 SCT060 BECMG 1203/1205 18005KT RMK FCST BASED ON AUTO OBS. NXT FCST BY 120100Z
CZBF,TAF CZBF 111940Z 1120/1203 25010G20KT P6SM BKN150 BKN240 BECMG 1121/1123 25006KT RMK FCST BASED ON AUTO OBS. NXT FCST BY 120900Z
CZMT,TAF CZMT 111840Z 1119/1201 21007KT P6SM SCT030 BKN050 RMK NXT FCST BY 121500Z
CZUM,TAF CZUM 111940Z 1120/1208 35012KT 3SM -SHRASN BKN015 TEMPO 1120/1124 P6SM NSW SCT015 OVC025 FM120000 32006KT P6SM SCT020 TEMPO 1200/1208 BKN020 PROB30 1203/1208 1SM -FZDZ BR BKN005 RMK FCST BASED ON AUTO OBS. NXT FCST BY 120200Z
CZVL,TAF CZVL 112340Z 1200/1212 30018G32KT P6SM SCT080 BECMG 1202/1204 30012KT FM120400 30012KT P6SM SKC RMK FCST BASED ON AUTO OBS. NXT FCST BY 120600Z
DAAD,TAF DAAD 111700Z 1118/1203 03008KT 8000 FEW026 SCT200 PROB40 TEMPO 1118/1122 VRB15G25KT 3000 DRSA FEW030CB PROB30 TEMPO 1119/1121 VRB15G25KT 4000 -TSRA FEW026CB
DAAE,TAF DAAE 112300Z 1200/1224 19008KT 8000 FEW020 SCT100 TEMPO 1200/1206 FEW030CB PROB40 TEMPO 1214/1224 VRB15G25KT 4000 -TSRA FEW020CB BKN030
DAAG,TAF DAAG 112300Z 1200/1224 VRB02KT 9999 FEW020 FEW026CB BKN0120 PROB30 TEMPO 1200/1206 BKN013 BECMG 1204/1208 FEW023 SCT100 BECMG 1209/1212 34010KT PROB40 TEMPO 1209/1218 4000 -TSRA FEW033CB
DAAJ,TAF DAAJ 112300Z 1200/1224 12010KT CAVOK BECMG 1210/1212 22010KT
DAAP,TAF DAAP 112300Z 1200/1209 12010KT CAVOK
DAAS,TAF DAAS 112300Z 1200/1224 23008KT 9999 SCT026 SCT100 TEMPO 1200/1206 FEW030CB PROB40 TEMPO 1214/1224 VRB15G25KT 4000 -TSRA FEW020CB BKN030
DAAT,TAF DAAT 112300Z 1200/1224 28010KT CAVOK BECMG 1210/1212 18010KT
DAAV,TAF DAAV 112300Z 1200/1224 32008KT 9999 FEW020 SCT100 TEMPO 1200/1206 FEW030CB PROB40 TEMPO 1214/1224 VRB15G25KT 4000 -TSRA FEW020CB BKN030
DAAY,TAF DAAY 112300Z 1200/1209 18010KT 8000 FEW026CB BKN030 TEMPO 1200/1206 34015G25KT 5000 TSRA
DABB,TAF DABB 112300Z 1200/1224 24008KT 8000 FEW016 BKN100 TEMPO 1200/1206 FEW026CB PROB40 1214/1224 4000 -TSRA BECMG 1120/1122 16008KT
DABC,TAF DABC 112300Z 1200/1224 17008KT 9999 FEW033 SCT100 TEMPO 1200/1206 FEW030CB PROB40 TEMPO 1214/1224 VRB15G25KT 4000 -TSRA FEW020CB BKN030
DABS,TAF DABS 112300Z 1200/1224 16008KT 9999 SCT033 SCT100 TEMPO 1200/1206 FEW030CB PROB40 TEMPO 1214/1224 VRB15G25KT 4000 -TSRA FEW020CB BKN030
DABT,TAF DABT 112300Z 1200/1224 03008KT 9999 SCT023 SCT100 TEMPO 1200/1206 FEW030CB PROB40 TEMPO 1214/1224 VRB15G25KT 4000 -TSRA FEW020CB BKN030
DAFH,TAF DAFH 111700Z 1118/1203 36008KT 8000 FEW030 SCT080 TEMPO 1118/1202 FEW033CB PROB30 TEMPO 1118/1121 VRB20G30KT 2000 DRSA FEW030CB PROB40 TEMPO 1119/1123 VRB15G25KT 4000 -TSRA FEW030CB
DAOB,TAF DAOB 112300Z 1200/1224 VRB02KT 9999 SCT026CB SCT200 PROB40 TEMPO 1200/1204 4000 -TSRA BECMG 1204/1207 FEW023 SCT100
DAOF,TAF DAOF 112300Z 1200/1209 28015KT 9999 FEW046
DAOI,TAF DAOI 112300Z 1200/1224 VRB02KT 9999 FEW026 BECMG 1203/1207 SCT023 BKN100 TEMPO 1203/1209 6000 RA PROB40 TEMPO 1209/1218 5000 TSRA FEW026CB
DAON,TAF DAON 112300Z 1200/1224 VRB02KT 9999 SCT026 BKN100 PROB40 TEMPO 1200/1206 RA SCT026TCU PROB40 TEMPO 1203/1215 5000 TSRA FEW026CB
DAOO,TAF DAOO 112300Z 1200/1224 VRB02KT 8000 SCT023 BKN100 PROB40 TEMPO 1200/1203 3000 -RA BR BKN013 PROB40 TEMPO 1203/1215 5000 TSRA FEW023CB
DAOR,TAF DAOR 112300Z 1200/1209 14010KT 6000 FEW033 PROB30 TEMPO 1200/1204 3000 DU
DAOV,TAF DAOV 112300Z 1200/1209 VRB02KT 9999 SCT026 SCT030 TEMPO 1200/1206 6000 RA PROB40 TEMPO 1200/1206 VRB15G30KT 5000 TSRA FEW026CB
DATM,TAF DATM 111700Z 1118/1203 10009KT CAVOK
DAUA,TAF DAUA 112300Z 1200/1224 22018KT 2000 BLSA FEW046 SCT133 PROB40 TEMPO 1200/1206 2000 BLSA BECMG 1204/1207 08010KT
DAUB,TAF DAUB 112300Z 1200/1224 36008KT 9999 SCT040 SCT100 TEMPO 1212/1222 24014KT FEW033CB PROB30 1214/1221 VRB15G25KT 4000 -TSRA FEW030CB
DAUG,TAF DAUG 112300Z 1200/1224 08009KT 9999 SCT040 SCT090 PROB30 TEMPO 1200/1204 4000 DRSA
DAUH,TAF DAUH 112300Z 1200/1224 07010KT 9999 SCT040
DAUI,TAF DAUI 112300Z 1200/1224 VRB02KT CAVOK PROB30 TEMPO 1200/1204 4000 SA BECMG 1204/1206 06010KT
DAUK,TAF DAUK 112300Z 1200/1209 05008KT CAVOK
DAUL,TAF DAUL 112300Z 1200/1209 VRB02KT 8000 FEW030TCU BKN033 TEMPO 1200/1203 TS FEW033CB BECMG 1204/1207 FEW023 SCT100
DAUO,TAF DAUO 112300Z 1200/1209 04008KT CAVOK
DAUT,TAF DAUT 112300Z 1200/1209 20011KT CAVOK
DAUU,TAF DAUU 112300Z 1200/1209 05012KT 9999 FEW046
DAUZ,TAF DAUZ 112300Z 1200/1224 12012KT CAVOK
DBBB,TAF DBBB 112300Z 1200/1306 22008KT 9999 SCT012 PROB30 TEMPO 1204/1209 TS BKN010 FEW023CB
DFFD,TAF DFFD 112300Z 1200/1306 20008KT 9999 FEW026
DFOO,TAF DFOO 112300Z 1200/1224 18008KT 9999 FEW020 PROB30 TEMPO 1217/1224 TS FEW020 FEW033CB
DGAA,TAF DGAA 112300Z 1200/1306 27005KT 9999 FEW010 PROB30 1205/1209 BKN010 BECMG 1212/1214 18010KT PROB30 TEMPO 1218/1222 8000 -TSRA BKN012 FEW030CB
DGLE,TAF DGLE 111100Z 1112/1212 23010KT 9999 FEW014 BECMG 1118/1120 CAVOK
DGSI,TAF DGSI 111100Z 1112/1212 23010KT 9999 SCT012 BECMG 1123/1201 CAVOK
DIAP,TAF DIAP 111721Z 1118/1224 20008KT 8000 SCT012 PROB30 TEMPO 1205/1209 4000 RA BKN010 BKN030
DIBK,TAF DIBK 111725Z 1118/1218 19007KT 8000 BKN013 FEW020CB PROB30 TEMPO 1119/1122 TS BKN011 FEW020CB BECMG 1122/1123 FEW012 PROB40 TEMPO 1205/1208 4000 BR BKN010 PROB40 1208/1214 BKN012
DIYO,TAF DIYO 111726Z 1118/1218 21006KT 8000 TS BKN013 FEW020CB PROB30 TEMPO 1120/1122 4000 TSRA BKN010 FEW020CB BECMG 1122/1123 NSW FEW012 PROB40 TEMPO 1205/1208 4000 BR BKN010 PROB40 1208/1214 BKN011
DNAA,TAF DNAA 111700Z 1118/1224 11007KT 5000 -TSRA BKN006 FEW018CB BECMG 1119/1121 CAVOK TEMPO 1200/1205 -TSRA BKN006 FEW017CB BECMG 1205/1207 VRB02KT FEW008 TEMPO 1210/1212 23010KT BKN010
DNAK,TAF DNAK 112300Z 1200/1306 VRB02KT 9999 SCT011 BECMG 1207/1209 23010KT BKN013 TEMPO 1209/1214 TS SCT013 FEW020CB BECMG 1217/1219 VRB02KT SCT010
DNBE,TAF DNBE 112300Z 1200/1306 VRB02KT 8000 SCT010 TEMPO 1205/1207 4000 BR TEMPO 1207/1212 5000 -TSRA BKN008 FEW018CB BECMG 1212/1214 22010KT BKN012 FEW020CB BECMG 1216/1218 VRB02KT SCT009
DNGO,TAF DNGO 112300Z 1200/1306 22008KT 9999 TS FEW012 FEW019CB BECMG 1205/1207 CAVOK
DNIB,TAF DNIB 112300Z 1200/1306 VRB02KT 8000 SCT011 BECMG 1208/1210 24010KT BKN013 TEMPO 1213/1218 SCT013 FEW020CB BECMG 1218/1220 VRB02KT SCT010 PROB30 TEMPO 1220/1301 TS SCT010 FEW020CB
DNIL,TAF DNIL 111700Z 1118/1224 31004KT 9999 SCT012 TEMPO 1123/1204 03018KT 5000 -TSRA FEW018CB BECMG 1204/1206 VRB02KT SCT008 BECMG 1210/1212 21010KT BKN011
DNJO,TAF DNJO 111700Z 1118/1224 07010KT CAVOK TEMPO 1119/1124 TS SCT010 FEW018CB BECMG 1208/1210 23010KT BKN008 TEMPO 1214/1218 TS FEW019CB
DNKA,TAF DNKA 111700Z 1118/1224 03008KT 9999 SCT013 TEMPO 1119/1124 TS FEW020CB BECMG 1200/1204 14006KT CAVOK BECMG 1209/1211 23011KT BKN012 TEMPO 1216/1220 TS SCT010 FEW020CB
DNKN,TAF DNKN 112300Z 1200/1306 07005KT CAVOK TEMPO 1206/1212 5000 HZ
DNKT,TAF DNKT 112300Z 1200/1306 06005KT CAVOK TEMPO 1205/1210 5000 HZ
DNMA,TAF DNMA 112300Z 1200/1306 08006KT FEW011 TEMPO 1205/1210 5000 HZ
DNMM,TAF DNMM 112300Z 1200/1306 VRB02KT 9999 SCT011 BECMG 1208/1210 22010KT BKN013 TEMPO 1212/1217 SCT013 FEW020CB BECMG 1218/1220 VRB02KT SCT010 PROB30 TEMPO 1219/1224 TS SCT010 FEW020CB
DNSO,TAF DNSO 112300Z 1200/1306 06008KT 7000 NSC TEMPO 1205/1210 3000 HZ
DNSU,TAF DNSU 112300Z 1200/1306 VRB02KT 8000 SCT010 TEMPO 1205/1207 3000 BR TEMPO 1207/1212 5000 -TSRA BKN008 FEW018CB BECMG 1212/1214 20010KT BKN012 FEW020CB BECMG 1216/1218 VRB02KT SCT009
DNYO,TAF DNYO 112300Z 1200/1306 20006KT 9999 TS SCT010 FEW019CB BECMG 1204/1206 FEW011
DRRN,TAF DRRN 112300Z 1200/1306 18008KT 6000 NSC TEMPO 1207/1210 3500 DU TEMPO 1217/1221 4500 DU
DRZA,TAF DRZA 112300Z 1200/1224 10010KT 8000 NSC TEMPO 1208/1212 12020KT 3500 BLDU
DRZR,TAF DRZR 112300Z 1200/1224 06006KT 4000 DU NSC BECMG 1102/1104 2500
DTKA,TAF DTKA 112100Z 1122/1207 12010KT 9999 SCT020 TEMPO 1204/1207 TSRA FEW026CB
DTMB,TAF DTMB 112300Z 1200/1224 VRB02KT 7000 BKN016 PROB30 TEMPO 1201/1205 TSRA FEW026CB BECMG 1210/1212 13012KT PROB40 TEMPO 1213/1224 TSRA FEW026CB
DTNH,TAF DTNH 112300Z 1200/1224 VRB02KT 7000 SCT020 PROB30 TEMPO 1201/1205 TSRA FEW026CB BECMG 1207/1209 19010KT TEMPO 1209/1213 TSRA FEW026CB BECMG 1213/1215 13007KT TEMPO 1213/1224 VRB17G30KT 4000 TS SHRA FEW026CB
DTTA,TAF DTTA 112300Z 1200/1224 12008KT 9999 SCT020 PROB40 TEMPO 1205/1212 TSRA FEW026CB BECMG 1210/1212 19010KT BECMG 1213/1215 VRB05KT TEMPO 1215/1224 VRB20G32KT 3000 TS SHRA SCT020CB
DTTB,TAF DTTB 112100Z 1122/1207 07010KT 9999 SCT020 BECMG 1122/1124 13010KT TEMPO 1204/1207 TSRA FEW026CB
DTTF,TAF DTTF 112100Z 1122/1207 VRB03KT 9999 FEW033
DTTG,TAF DTTG 112100Z 1122/1207 08010KT 9999 FEW030
DTTJ,TAF DTTJ 112300Z 1200/1224 36006KT 9999 FEW040 BECMG 1200/1202 09010KT
DTTR,TAF DTTR 112100Z 1122/1207 VRB02KT 9999 FEW026
DTTX,TAF DTTX 112300Z 1200/1224 VRB02KT 9999 SCT020 BECMG 1210/1212 11010KT
DTTZ,TAF DTTZ 112300Z 1200/1224 08010KT 9999 SCT033
DXNG,TAF DXNG 112300Z 1200/1224 VRB05KT 8000 TS BKN006 FEW016CB BECMG 1201/1203 NSW SCT006
DXXX,TAF DXXX 112300Z 1200/1306 VRB03KT 9999 SCT010 BECMG 1208/1210 20010KT TEMPO 1215/1222 TS BKN010 FEW020CB PROB30 4000 TSRA BECMG 1222/1224 VRB03KT
EBAW,TAF EBAW 112302Z 1200/1209 VRB02KT 6000 NSC TEMPO 1200/1208 3000 BR PROB30 TEMPO 1203/1207 0200 FG
EBBE,TAF EBBE 111541Z 1119/1207 VRB03KT 8000 FEW250 TEMPO 1122/1207 VRB01KT 4000 BR FEW003 SCT200 PROB30 TEMPO 1201/1207 0500 FG SCT001 SCT150
EBBL,TAF EBBL 111541Z 1119/1207 12005KT 9999 SCT040 TEMPO 1122/1207 5000 BR TEMPO 1200/1207 2000 BR TEMPO 1203/1207 0500 FG
EBBR,TAF EBBR 112304Z 1200/1306 VRB02KT CAVOK PROB40 TEMPO 1202/1208 4000 BR PROB30 TEMPO 1204/1207 1200 BCFG TEMPO 1304/1306 4000 RA SHRA BKN012
EBCI,TAF EBCI 112304Z 1200/1306 VRB02KT CAVOK PROB30 TEMPO 1202/1208 3000 BR TEMPO 1305/1306 4000 RA SHRA BKN008
EBCV,TAF EBCV 111541Z 1119/1207 07005KT 9999 FEW022 BECMG 1119/1121 11004KT 8000 FEW230 BECMG 1200/1202 VRB03KT 1600 BR TEMPO 1202/1207 0500 FG SCT001 BY EBWM
EBFN,TAF EBFN 111541Z 1119/1207 04005KT 9999 FEW027 BECMG 1200/1202 15004KT FEW250 BECMG 1202/1204 5000 BR BECMG 1203/1205 4000 BR TEMPO 1204/1207 2000 BR PROB40 TEMPO 1204/1207 0500 FG
EBFS,TAF EBFS 111541Z 1119/1207 07005KT 9999 FEW150 BECMG 1122/1124 VRB03KT 5000 BR TEMPO 1200/1207 2000 BR SCT005 SCT020 PROB30 TEMPO 1202/1207 0500 FG BKN001 BKN020
EBLG,TAF EBLG 112304Z 1200/1306 VRB02KT CAVOK PROB30 TEMPO 1202/1208 3000 BR
EBOS,TAF EBOS 112304Z 1200/1306 13003KT CAVOK TEMPO 1202/1209 3000 BR PROB30 TEMPO 1204/1207 1200 BCFG TEMPO 1302/1306 4000 RA SHRA BKN012
EDAC,TAF EDAC 111700Z 1118/1203 VRB03KT 9999 SCT035 BECMG 1122/1124 3500 BR PROB30 TEMPO 1200/1203 1000 BCFG
EDAH,TAF EDAH 111700Z 1118/1203 VRB03KT CAVOK PROB30 TEMPO 1200/1203 0700 FG
EDDB,TAF EDDB 112300Z 1200/1224 VRB02KT CAVOK PROB30 TEMPO 1203/1207 1200 BCFG BECMG 1209/1211 13005KT
EDDC,TAF EDDC 112300Z 1200/1224 15003KT CAVOK PROB30 TEMPO 1203/1207 1500 BCFG
EDDE,TAF EDDE 112300Z 1200/1224 VRB03KT CAVOK PROB40 TEMPO 1202/1207 1200 BCFG
EDDF,TAF EDDF 112300Z 1200/1306 04005KT 9999 FEW035 BECMG 1211/1213 19004KT PROB30 TEMPO 1302/1306 0600 FG OVC001
EDDG,TAF EDDG 112300Z 1200/1224 VRB01KT CAVOK TEMPO 1200/1208 0500 FG BKN001 TEMPO 1210/1215 17005KT TEMPO 1220/1224 2000 BCFG
EDDH,TAF EDDH 112300Z 1200/1306 VRB02KT 9999 FEW040 TEMPO 1200/1207 1200 BCFG PROB30 TEMPO 1200/1208 0500 FG BECMG 1207/1209 19005KT
EDDK,TAF EDDK 112300Z 1200/1306 VRB03KT CAVOK TEMPO 1208/1215 15005KT
EDDL,TAF EDDL 112300Z 1200/1306 VRB02KT CAVOK BECMG 1207/1209 18005KT
EDDM,TAF EDDM 112300Z 1200/1306 VRB02KT 9999 FEW015 BECMG 1200/1202 BKN012 TEMPO 1200/1207 3000 BR BKN004 PROB30 TEMPO 1200/1206 0800 FG BECMG 1208/1210 SCT015 BECMG 1221/1224 2000 BCFG TEMPO 1223/1306 0700 FG PROB40 TEMPO 1301/1306 0300 FG BKN001
EDDN,TAF EDDN 112300Z 1200/1224 VRB02KT 9999 SCT035 TEMPO 1200/1206 1200 BCFG BECMG 1218/1220 12005KT PROB30 TEMPO 1221/1224 2000 BCFG
EDDP,TAF EDDP 112300Z 1200/1224 13003KT CAVOK PROB30 TEMPO 1203/1206 1200 BCFG
EDDR,TAF EDDR 112300Z 1200/1224 06005KT 9999 FEW025 PROB30 TEMPO 1204/1208 3000 BR BECMG 1211/1213 25004KT BECMG 1223/1224 4000 BR
EDDS,TAF EDDS 112300Z 1200/1224 VRB03KT 9000 BKN030 TEMPO 1201/1208 3000 BR PROB30 TEMPO 1202/1208 0400 FG OVC001
EDDV,TAF EDDV 112300Z 1200/1224 VRB02KT CAVOK TEMPO 1200/1207 0600 FG BECMG 1207/1209 15005KT
EDDW,TAF EDDW 112300Z 1200/1224 VRB02KT 9999 FEW030 TEMPO 1200/1208 0600 FG PROB30 TEMPO 1200/1207 0300 FG BKN001 BECMG 1207/1209 15006KT BECMG 1217/1219 VRB02KT
EDFH,TAF EDFH 112300Z 1200/1224 10005KT CAVOK BECMG 1211/1213 24004KT
EDGS,TAF EDGS 111700Z 1118/1203 07003KT CAVOK
EDJA,TAF EDJA 111700Z 1118/1203 05004KT 9999 FEW020 SCT030 TEMPO 1121/1123 4000 BR BKN006 BECMG 1123/1201 3000 BR BKN004 PROB30 TEMPO 1201/1203 0800 FG
EDLN,TAF EDLN 111700Z 1118/1203 VRB01KT CAVOK BECMG 1120/1123 1500 BCFG BECMG 1123/1201 0800 FG TEMPO 1123/1203 0300 FG BKN001
EDLP,TAF EDLP 112300Z 1200/1224 15005KT CAVOK
EDLV,TAF EDLV 111700Z 1118/1218 VRB01KT CAVOK PROB30 TEMPO 1201/1207 2500 BR TEMPO 1210/1215 18005KT
EDLW,TAF EDLW 111700Z 1118/1218 VRB02KT CAVOK BECMG 1119/1121 15006KT
EDMA,TAF EDMA 111700Z 1118/1203 05003KT 9999 FEW020 SCT035 TEMPO 1122/1203 3000 BR BKN006 PROB30 TEMPO 1201/1203 1000 BR BKN004
EDMO,TAF COR EDMO 111753Z 1118/1203 06004KT 9999 FEW020 SCT030 TEMPO 1121/1123 4000 BR BKN006 BECMG 1123/1201 3000 BR BKN004 PROB30 TEMPO 1201/1203 0800 FG
EDNY,TAF COR EDNY 112335Z 1200/1224 VRB03KT 9999 SCT020 PROB40 TEMPO 1200/1209 BKN008 PROB30 TEMPO 1202/1207 3000 BR PROB30 TEMPO 1222/1224 1200 BCFG
EDQM,TAF EDQM 111700Z 1118/1203 VRB03KT CAVOK TEMPO 1122/1203 2000 BR BKN005
EDSB,TAF EDSB 112300Z 1200/1224 03006KT CAVOK PROB30 TEMPO 1203/1210 2500 BR BKN004 BECMG 1211/1213 VRB03KT
EDTL,TAF EDTL 111700Z 1118/1124 35003KT 9999 SCT030 PROB30 TEMPO 1120/1124 4000 BR BKN008
EDTY,TAF EDTY 111700Z 1118/1203 VRB03KT 9999 SCT035 PROB40 TEMPO 1201/1203 3000 BR BKN004 PROB30 TEMPO 1201/1203 0800 FG
EDVK,TAF EDVK 111700Z 1118/1203 VRB02KT 9999 FEW040 PROB30 TEMPO 1123/1203 2500 BCFG
EEEI,TAF EEEI 112330Z 1200/1224 24005KT 9999 FEW025 TEMPO 1200/1206 2000 MIFG BKN005 TEMPO 1220/1224 3000 MIFG BR BKN005
EETN,TAF EETN 112330Z 1200/1224 25008KT 9999 FEW030 PROB30 TEMPO 1204/1209 SCT015 FEW025CB BECMG 1208/1210 31012KT
EFHK,TAF EFHK 112331Z 1200/1224 23006KT 9999 MIFG NSC PROB30 TEMPO 1200/1205 3000 BR BECMG 1208/1210 29010KT
EFJY,TAF EFJY 112331Z 1200/1224 24008KT CAVOK PROB30 1221/1224 3000 BR
EFKU,TAF EFKU 112326Z 1200/1224 24009KT 9999 SCT012 BKN040 TEMPO 1200/1209 BKN013
EFMA,TAF EFMA 112331Z 1200/1209 VRB02KT CAVOK BECMG 1208/1209 28010KT
EFOU,TAF EFOU 112335Z 1200/1224 27008KT CAVOK
EFPO,TAF EFPO 112331Z 1200/1209 29009KT 9999 FEW030
EFRO,TAF EFRO 112335Z 1200/1224 25005KT 9999 BKN030 TEMPO 1200/1201 BKN002
EFSI,TAF EFSI 112331Z 1200/1209 22006KT CAVOK
EFTP,TAF EFTP 112331Z 1200/1224 24009KT CAVOK
EFTU,TAF EFTU 112331Z 1200/1224 25005KT CAVOK
EFVA,TAF EFVA 112335Z 1200/1224 27008KT CAVOK
EGAA,TAF EGAA 112254Z 1200/1224 19012KT 9999 FEW015 SCT030 BECMG 1200/1203 19015G25KT BKN008 TEMPO 1200/1208 7000 RA -RADZ PROB30 TEMPO 1200/1203 4000 +RA RADZ PROB40 TEMPO 1203/1208 3000 +RA RADZ BKN003 BECMG 1206/1209 29008KT BECMG 1208/1210 FEW015 BKN025
EGBB,TAF EGBB 112258Z 1200/1224 20006KT 9999 FEW040 TEMPO 1210/1218 8000 -RADZ PROB30 TEMPO 1212/1218 4000 RA BKN012 PROB40 TEMPO 1218/1221 4000 -RADZ BKN008
EGCC,TAF EGCC 112301Z 1200/1306 18002KT 9999 SCT045 PROB40 TEMPO 1204/1209 8000 -RA BECMG 1206/1209 18012KT TEMPO 1209/1216 8000 -RA BKN012 PROB30 TEMPO 1209/1216 20015G25KT 4000 RA BKN007 BECMG 1215/1218 27004KT PROB40 TEMPO 1216/1224 7000 SHRA BKN009 BECMG 1300/1303 4000 BR PROB40 1302/1306 0300 FG BKN001
EGCK,TAF EGCK 112303Z 1200/1209 19012KT 9999 FEW045 TEMPO 1200/1209 22015G25KT PROB40 TEMPO 1200/1206 8000 -RA TEMPO 1206/1209 8000 -RA BKN014 PROB30 TEMPO 1206/1209 4000 RA BKN009
EGCN,TAF EGCN 112300Z 1200/1224 18002KT 9999 FEW045 BECMG 1208/1211 20012KT PROB40 TEMPO 1212/1215 8000 -RA TEMPO 1215/1218 8000 -RA BKN014 PROB40 TEMPO 1215/1218 4000 RA BKN009 BECMG 1216/1219 27004KT PROB30 TEMPO 1218/1224 9000 -RA
EGDR,TAF EGDR 111401Z 1115/1124 16005KT 9999 FEW022 SCT030 TEMPO 1115/1122 SCT022 BECMG 1120/1122 SCT020 BECMG 1122/1124 23010KT
EGDY,TAF EGDY 111704Z 1118/1203 VRB03KT 9999 SCT030
EGFF,TAF EGFF 112257Z 1200/1224 20008KT 9999 SCT040 PROB30 TEMPO 1212/1215 6000 RA TEMPO 1215/1218 6000 -RA BKN010 PROB30 TEMPO 1215/1218 4000 RADZ BKN006 PROB30 1218/1221 6000 BKN004
EGGD,TAF EGGD 112257Z 1200/1224 15005KT 9999 SCT040 BECMG 1206/1209 21010KT PROB30 TEMPO 1212/1215 6000 RA TEMPO 1215/1220 6000 -RA BKN010 PROB40 TEMPO 1216/1220 4000 RADZ BKN004 BECMG 1220/1223 28004KT PROB40 1220/1224 3000 BR BKN003
EGGP,TAF EGGP 112301Z 1200/1224 18010KT 9999 SCT045 PROB40 TEMPO 1204/1208 8000 -RA TEMPO 1208/1215 8000 -RA BKN014 PROB30 TEMPO 1208/1215 20015G25KT 4000 RA BKN009 BECMG 1214/1217 27005KT PROB40 TEMPO 1215/1224 7000 SHRA BKN012
EGGW,TAF EGGW 112256Z 1200/1224 18005KT 9999 FEW040 PROB30 1200/1208 8000 TEMPO 1219/1224 6000 -RA BKN010 PROB30 TEMPO 1221/1224 4000 RADZ BKN006
EGHH,TAF EGHH 111959Z 1121/1124 VRB03KT 9999 FEW045
EGHQ,TAF EGHQ 112304Z 1200/1209 18007KT 9999 SCT030
EGJA,TAF EGJA 111358Z 1115/1200 11006KT 9999 FEW025
EGJB,TAF EGJB 112304Z 1200/1209 15007KT 9999 FEW026 BECMG 1206/1209 23010KT
EGJJ,TAF EGJJ 112304Z 1200/1209 14007KT 9999 FEW026 BECMG 1206/1209 22010KT
EGKK,TAF EGKK 112258Z 1200/1306 07003KT 9999 SCT045 TEMPO 1200/1209 9000 BECMG 1209/1212 21010KT TEMPO 1219/1303 7000 -RADZ BKN010 BECMG 1300/1303 VRB02KT PROB30 TEMPO 1301/1303 4000 SHRA BKN003 PROB30 1303/1306 0300 FG VV///
EGLL,TAF EGLL 112258Z 1200/1306 16002KT 9999 SCT045 BECMG 1209/1212 22010KT TEMPO 1219/1302 8000 -RA BKN012 PROB30 TEMPO 1222/1302 3000 DZ BKN006 PROB30 1302/1305 8000 BKN004 BECMG 1303/1306 28003KT PROB30 1305/1306 0300 FG VV///
EGMC,TAF EGMC 112258Z 1200/1209 20003KT 9999 SCT030 PROB30 TEMPO 1200/1208 8000
EGMD,TAF EGMD 112258Z 1200/1209 07003KT 9999 SCT030 PROB30 TEMPO 1200/1208 8000
EGNJ,TAF EGNJ 112303Z 1200/1209 20006KT 9999 SCT045
EGNM,TAF EGNM 112300Z 1200/1224 20002KT 9999 SCT040 PROB40 TEMPO 1205/1209 8000 -RA BKN012 BECMG 1209/1212 20012KT TEMPO 1209/1216 8000 -RA BKN012 PROB40 TEMPO 1212/1216 23015G25KT 4000 RA BKN008 BECMG 1215/1218 27005KT PROB40 TEMPO 1216/1220 8000 -RA -SHRA BKN012
EGNT,TAF EGNT 112300Z 1200/1224 18002KT 9999 SCT040 BECMG 1207/1210 20012KT PROB40 TEMPO 1210/1212 23015G25KT 8000 -RA BKN014 TEMPO 1212/1216 8000 -RA PROB40 TEMPO 1212/1216 23015G25KT 4000 RA BKN014 BECMG 1215/1218 27005KT
EGNX,TAF EGNX 112258Z 1200/1224 21009KT 9999 FEW045 TEMPO 1211/1218 8000 -RADZ PROB30 TEMPO 1212/1218 4000 RA BKN014 PROB30 TEMPO 1218/1220 4000 -RADZ BKN010
EGPA,TAF EGPA 112300Z 1200/1209 18013KT 9999 FEW010 BKN025 TEMPO 1200/1209 19016G27KT 7000 -RA PROB30 TEMPO 1200/1209 4000 RA BKN010
EGPB,TAF EGPB 112300Z 1200/1209 20014KT 9999 SCT015 BKN025 TEMPO 1200/1209 22018G28KT 7000 -RA BKN010 PROB40 TEMPO 1200/1209 4000 RA BKN006
EGPC,TAF EGPC 112300Z 1200/1209 18013KT 9999 FEW010 BKN025 TEMPO 1200/1209 19015G25KT 7000 -RA PROB30 TEMPO 1200/1202 4000 RA BKN009 PROB30 TEMPO 1204/1206 4000 RA BKN009
EGPD,TAF EGPD 112259Z 1200/1224 20010KT 9999 FEW040 TEMPO 1203/1215 7000 RA -RADZ BKN014 PROB30 TEMPO 1204/1213 20015G25KT 4000 +RA RADZ BKN009 BECMG 1212/1215 29006KT
EGPE,TAF EGPE 112300Z 1200/1209 23009KT 9999 FEW015 SCT035 PROB40 TEMPO 1200/1209 7000 -RA
EGPF,TAF EGPF 112259Z 1200/1224 20012KT 9999 SCT020 BKN040 TEMPO 1200/1211 6000 RA BKN010 PROB40 TEMPO 1202/1211 21015G25KT 3000 +RA RADZ BKN006 BECMG 1208/1211 27006KT
EGPH,TAF EGPH 112259Z 1200/1224 22012KT 9999 SCT030 TEMPO 1202/1214 6000 RA -RADZ BKN012 PROB40 TEMPO 1203/1212 21018G28KT 4000 +RA RADZ BKN009 BECMG 1211/1214 28006KT
EGPK,TAF EGPK 112259Z 1200/1224 20012KT 9999 SCT020 BKN040 TEMPO 1200/1213 6000 RA BKN010 PROB40 TEMPO 1202/1211 22015G25KT 3000 +RA RADZ BKN005 BECMG 1208/1211 29006KT
EGPO,TAF EGPO 112300Z 1200/1209 20020KT 9999 BKN014 TEMPO 1200/1207 21025G35KT 6000 -RA -RADZ BKN010 PROB40 TEMPO 1200/1206 4000 RA RADZ BKN004
EGQL,TAF EGQL 112228Z 1200/1209 22010KT 9999 FEW030 TEMPO 1204/1209 7000 -RA SCT020 PROB40 TEMPO 1206/1209 4000 RA SCT010 BKN015
EGQS,TAF EGQS 112218Z 1200/1218 18010KT 9999 SCT045 PROB40 TEMPO 1207/1212 -RA SCT024 BECMG 1208/1211 28015KT PROB30 TEMPO 1209/1212 29015G26KT 5000 RA -RADZ SCT014 BKN024
EGSH,TAF EGSH 112302Z 1200/1209 18003KT CAVOK PROB30 1200/1207 8000
EGSS,TAF EGSS 112256Z 1200/1306 15005KT 9999 FEW040 PROB40 1200/1208 6000 BECMG 1209/1212 21010KT TEMPO 1220/1301 6000 -RA BKN010 PROB30 TEMPO 1222/1301 4000 RADZ BKN008 BECMG 1301/1304 28004KT PROB30 1301/1304 3000 BR BKN002
EGSY,TAF EGSY 112303Z 1200/1209 22009KT 9999 SCT040
EGTE,TAF EGTE 112304Z 1200/1203 VRB03KT 9999 FEW030
EGUB,TAF EGUB 111642Z 1118/1124 12003KT CAVOK
EGUL,TAF AMD EGUL 111531Z 1115/1219 27006KT 9999 SCT030 QNH3028INS BECMG 1116/1117 20006KT 9999 BKN030 BKN200 QNH3019INS BECMG 1205/1206 18012KT 9999 BKN025 BKN150 QNH3016INS BECMG 1210/1211 19010G15KT 9999 BKN030 OVC080 QNH3007INS TX15/1115Z TN06/1203Z LAST NO AMDS AFT 1115 NEXT 1205
EGUN,TAF EGUN 112000Z 1120/1302 18009KT 9999 FEW040 FEW190 QNH3018INS TEMPO 1202/1206 8000 BR FEW020 SCT034 BECMG 1208/1209 19010G15KT 9999 BKN035 BKN090 620903 QNH3007INS TEMPO 1213/1216 21012G20KT BKN035 BKN060 BECMG 1218/1219 23010G15KT 9999 BKN026 OVC050 620903 QNH3006INS BECMG 1221/1222 23009KT 8000 -SHRA BR SCT008 BKN019 QNH3006INS BECMG 1300/1301 25009KT 6000 -RA BR BKN008 OVC035 QNH3005INS TX16/1215Z TN08/1204Z
EGUW,TAF EGUW 111945Z 1121/1201 17005KT CAVOK
EGVA,TAF AMD EGVA 111640Z 1116/1218 22006KT 9999 FEW030 SCT180 QNH3025INS BECMG 1122/1123 21006KT 9999 VCSH FEW015 BKN030 QNH3018INS BECMG 1203/1204 21009KT 9999 NSW SCT010 BKN025 QNH3016INS BECMG 1209/1210 22012G18KT 9999 SCT010 BKN020 QNH3009INS BECMG 1214/1215 27006KT 9999 BKN010 OVC020 QNH3000INS TX14/1117Z TN06/1205Z LAST NO AMDS AFT 1117 NEXT 1204
EGVN,TAF EGVN 112238Z 1200/1224 VRB03KT 9999 FEW045 PROB30 1203/1208 5000 BR TEMPO 1216/1221 -RA BKN020 PROB40 TEMPO 1218/1221 SCT014 PROB30 TEMPO 1221/1224 SCT012
EGVO,TAF EGVO 112248Z 1200/1212 18003KT 9999 SCT035
EGVP,TAF EGVP 111917Z 1121/1124 18003KT 9999 FEW040
EGWU,TAF EGWU 111931Z 1121/1215 VRB03KT CAVOK PROB40 1121/1208 5000 HZ
EGXC,TAF EGXC 112222Z 1200/1218 18005KT 9999 FEW035 PROB30 TEMPO 1215/1218 7000 -RA SCT018
EGXW,TAF EGXW 111933Z 1121/1215 20005KT 9999 FEW045 TEMPO 1213/1215 SCT020
EGYP,TAF EGYP 112243Z 1200/1218 36015G25KT 9999 FEW008 520003 PROB40 TEMPO 1200/1205 35025G35KT PROB30 TEMPO 1200/1205 VRB07KT SCT008 560003 BECMG 1203/1206 34014KT 50//// TEMPO 1206/1214 -RA BKN010 PROB40 TEMPO 1208/1214 4000 -RADZ PROB30 TEMPO 1209/1214 2500 RADZ BKN005 BKN008CB TEMPO 1214/1218 4000 -SHRASN BKN014CB PROB30 TEMPO 1215/1218 2000 SHRASN SHGS BKN006
EHAM,TAF EHAM 112321Z 1200/1306 15003KT 9999 FEW040 PROB30 TEMPO 1200/1207 6000 MIFG BECMG 1208/1211 18008KT TEMPO 1303/1306 6000 RA SCT012 BKN030
EHBK,TAF EHBK 112320Z 1200/1306 16004KT CAVOK PROB30 TEMPO 1305/1306 7000 RA
EHEH,TAF EHEH 112335Z 1200/1306 VRB02KT 9000 NSC TEMPO 1200/1207 1200 BCFG BECMG 1206/1208 18005KT TEMPO 1303/1306 BKN014
EHGG,TAF EHGG 112320Z 1200/1306 18003KT 9999 BKN040 PROB40 TEMPO 1203/1207 1200 BCFG PROB40 TEMPO 1304/1306 7000 RA
EHGR,TAF EHGR 111642Z 1117/1205 06003KT CAVOK BECMG 1123/1201 VRB02KT 4500 BR MIFG PROB40 TEMPO 1201/1205 0800 BCFG
EHKD,TAF EHKD 111635Z 1117/1205 17005KT CAVOK PROB30 TEMPO 1202/1205 4000 BR MIFG
EHLE,TAF EHLE 112321Z 1200/1306 17003KT 9999 SCT035 TEMPO 1200/1207 6000 MIFG PROB30 TEMPO 1200/1207 1400 BCFG TEMPO 1304/1306 6000 RA SCT012 BKN030
EHLW,TAF EHLW 112027Z 1121/1209 17004KT CAVOK TEMPO 1122/1207 3000 BR MIFG PROB30 TEMPO 1200/1207 0800 BCFG
EHRD,TAF EHRD 112321Z 1200/1306 15005KT 6000 MIFG NSC PROB40 TEMPO 1200/1207 1400 BCFG BECMG 1206/1208 9999 NSW TEMPO 1303/1306 6000 RA SCT008 BKN012
EHVK,TAF EHVK 112024Z 1121/1209 VRB02KT CAVOK BECMG 1122/1201 4000 BR MIFG PROB40 TEMPO 1121/1207 0800 BCFG BECMG 1206/1208 13005KT 9999 NSW
EICK,TAF EICK 112300Z 1200/1224 21015G25KT 9999 BKN008 TEMPO 1200/1207 4000 -RADZ BKN004 BECMG 1203/1205 25005KT PROB40 TEMPO 1203/1207 0800 RADZ FG BKN001 BECMG 1206/1208 28010KT SCT010 BKN020
EIDL,TAF EIDL 111700Z 1118/1203 20015KT 9999 SCT020 BKN040 TEMPO 1118/1121 20017G28KT -RA
EIDW,TAF EIDW 112300Z 1200/1224 20010KT 9999 FEW012 BKN020 BECMG 1201/1203 23015G26KT PROB30 TEMPO 1203/1209 4000 -RA BKN012 BECMG 1208/1210 23010KT BECMG 1210/1212 27010KT BECMG 1217/1219 27005KT
EIKN,TAF EIKN 112300Z 1200/1224 18016G26KT 3000 -RA BKN005 TEMPO 1200/1205 2000 -RADZ BKN002 PROB40 TEMPO 1200/1204 0800 FG BKN001 BECMG 1201/1203 24010KT BECMG 1203/1205 28010KT 8000 NSW SCT006 BKN012 BECMG 1206/1208 9999 SCT010 BKN020 BECMG 1217/1219 VRB03KT
EIKY,TAF EIKY 111700Z 1118/1203 18013KT 9999 BKN035 TEMPO 1120/1121 19015G25KT -RA BKN014
EIME,TAF EIME 112300Z 1200/1209 20015G26KT 9999 SCT015 BKN040 TEMPO 1200/1206 21020G34KT PROB30 TEMPO 1206/1209 4000 -RADZ BKN008
EINN,TAF EINN 112300Z 1200/1224 16010KT 9999 BKN020 TEMPO 1200/1206 4000 -RA BKN009 BECMG 1201/1203 21010KT PROB30 TEMPO 1204/1206 2500 RADZ BKN004 BECMG 1205/1207 27010KT BECMG 1216/1218 VRB03KT
EISG,TAF EISG 112300Z 1200/1209 15015KT 9999 SCT010 BKN015 TEMPO 1200/1204 16018G30KT 4000 -RA BKN008 BECMG 1203/1205 27010KT
EIWF,TAF EIWF 112300Z 1200/1209 23016G27KT 9999 SCT010 BKN020 TEMPO 1200/1206 -RA BKN008 PROB40 TEMPO 1204/1207 2500 -RADZ BKN004 BECMG 1206/1208 26010KT
EKAH,TAF EKAH 112306Z 1200/1224 24008KT 9999 SCT035
EKBI,TAF EKBI 112306Z 1200/1224 16005KT 9999 BKN035 PROB40 1200/1206 3000 BR
EKCH,TAF EKCH 112306Z 1200/1224 26006KT 9999 FEW035 BECMG 1210/1213 20010KT
EKKA,TAF EKKA 112006Z 1121/1221 21006KT 9999 SCT030 BKN060 TEMPO 1121/1221 4500 -SHRA FEW020TCU
EKRK,TAF EKRK 112323Z 1200/1209 23005KT 9999 FEW030 PROB40 1201/1206 3000 BR
EKRN,TAF EKRN 112300Z 1200/1209 28012KT 9999 SCT025
EKSP,TAF EKSP 112300Z 1200/1224 20006KT 9999 SCT025 SCT050
EKVG,TAF EKVG 111829Z 1118/1124 17014KT 6000 -RADZ BKN010 OVC015 TEMPO 1118/1121 16018G28KT 2000 DZ BR BKN005 OVC008 BECMG 1120/1122 18015KT 1500 DZ BR OVC005 TEMPO 1121/1124 0600 RADZ FG OVC002
EKYT,TAF EKYT 112300Z 1200/1224 20008KT 9999 SCT030 BKN060 TEMPO 1200/1224 4500 -SHRA FEW020TCU
ELLX,TAF ELLX 112300Z 1200/1306 04006KT CAVOK PROB30 TEMPO 1203/1208 3000 BR SCT005 BECMG 1208/1212 22005KT TEMPO 1220/1304 VRB02KT
ENAN,ENAN 1200/1224 24025KT 9999 -SHRA FEW020 BKN030 TEMPO 1200/1218 24025G35KT SHRA BKN014 SCT020CB BECMG 1215/1218 20009KT BECMG 1222/1224 14018KT
ENBN,TAF ENBN 112300Z 1200/1209 27012KT 9999 -SHRA FEW012 SCT035 BKN050 TEMPO 1200/1203 28015G25KT TEMPO 1200/1209 SHRA SCT014CB BECMG 1207/1209 19009KT
ENBO,ENBO 1200/1224 26020KT 9999 -SHRA FEW015 SCT035 BKN050 TEMPO 1200/1209 28025G35KT SHRA SCT014CB BECMG 1210/1212 20008KT BECMG 1214/1216 10010KT TEMPO 1216/1222 RA BECMG 1220/1222 21020G30KT
ENBR,ENBR 1200/1224 14008KT 9999 BKN020 BECMG 1200/1203 BKN012 TEMPO 1203/1218 SHRA BKN008 SCT020TCU BECMG 1207/1209 14018KT TEMPO 1207/1224 14018G28KT TEMPO 1218/1224 4000 RA BKN008
ENDU,ENDU 1200/1224 23008KT 9999 -SHRA FEW020 BKN035 TEMPO 1200/1212 23015G25KT SHRA SCT025CB TEMPO 1212/1214 FEW025TCU
ENEV,ENEV 1200/1224 23012KT 9999 -SHRA FEW015 BKN025 TEMPO 1200/1206 23018G32KT SHRA SCT020CB PROB40 TEMPO 1202/1206 BKN014 TEMPO 1208/1212 SCT025TCU BECMG 1214/1216 17008KT TEMPO 1221/1224 RA BKN014
ENFL,TAF ENFL 112300Z 1200/1209 16015KT 9999 -RA SCT014 BKN025 TEMPO 1200/1209 SHRA BKN014 SCT020TCU
ENGC,ENGC 1200/1224 19025KT 9999 -RA BKN015 PROB40 1200/1215 BKN010 BECMG 1205/1207 19035KT BECMG 1215/1218 4000 RA BKN006 BECMG 1218/1220 28025KT 9999 NSW FEW015 BKN030
ENGM,ENGM 1200/1224 VRB03KT CAVOK BECMG 1209/1211 17010KT BECMG 1214/1216 BKN008
ENHE,TAF ENHE 112300Z 1200/1209 27025KT 9999 -SHRA FEW025 BKN040 BECMG 1204/1206 19018KT BECMG 1207/1209 17028KT TEMPO 1208/1209 RA BKN010
ENHF,TAF ENHF 112300Z 1200/1209 23008KT 9999 FEW020 SCT025 BKN040 BECMG 1204/1206 25018KT TEMPO 1205/1209 SHRA BKN012 SCT020CB
ENKR,TAF ENKR 112300Z 1200/1209 19008KT 9999 -RA FEW010 BKN025 TEMPO 1200/1206 BKN012 BECMG 1203/1205 26010KT
ENLE,TAF ENLE 112300Z 1200/1209 22022KT 9999 FEW020 BKN080
ENNA,ENNA 1200/1224 18008KT 9999 FEW030 SCT060 TEMPO 1209/1222 27015G25KT TEMPO 1209/1215 SHRA SCT030CB
ENOA,ENOA 1200/1224 19025KT 9999 -RA BKN015 PROB40 1200/1215 BKN014 BECMG 1206/1209 19035KT BECMG 1215/1217 4000 RA BKN006 BECMG 1218/1221 30018KT 9999 NSW FEW015 BKN030
ENOL,ENOL 1200/1224 27020KT 9999 -SHRA FEW015TCU SCT030 BECMG 1200/1202 24010KT BECMG 1203/1206 13015KT -RA BKN040 PROB40 TEMPO 1205/1215 RA
ENRY,ENRY 1200/1224 26005KT CAVOK PROB30 1203/1208 1200 BCFG BKN002 TEMPO 1209/1224 4000 -SHRA BKN008 FEW015TCU BECMG 1212/1214 19010KT
ENSB,ENSB 1200/1224 11015KT 9999 SCT035 PROB40 TEMPO 1200/1206 12025KT BECMG 1208/1210 14005KT BECMG 1219/1221 35010KT
ENTC,ENTC 1200/1224 23018KT 9999 -SHRA FEW015 SCT020 BKN030 PROB40 TEMPO 1200/1204 21020G30KT TEMPO 1200/1215 SHRA SCT020CB TEMPO 1204/1215 26018G28KT BKN014 BECMG 1214/1216 21008KT
ENTO,ENTO 1200/1224 25005KT CAVOK TEMPO 1209/1224 4000 -SHRA BKN008 FEW015TCU BECMG 1212/1214 19010KT
ENVA,ENVA 1200/1224 20008KT 9999 -SHRA SCT030 BKN040
ENZV,ENZV 1200/1224 14010KT 9999 -RA SCT014 BKN025 TEMPO 1200/1221 BKN014 PROB40 TEMPO 1200/1215 SHRA BKN008 SCT014TCU PROB40 TEMPO 1210/1224 16015G25KT TEMPO 1218/1224 4000 RA BKN008
EPBY,TAF EPBY 112330Z 1200/1224 24004KT CAVOK PROB30 TEMPO 1202/1206 VRB02KT SCT005 BECMG 1208/1211 27006KT BKN020
EPCE,TAF EPCE 112000Z 1121/1206 24005KT 5000 BR BKN006 BKN020 TEMPO 1121/1203 6000 SHRA BKN006 BKN017TCU PROB30 TEMPO 1200/1206 24004KT 1500 BR BKN004
EPDA,TAF EPDA 112300Z 1200/1209 27008KT 9999 BKN030 TEMPO 1200/1209 8000 SHRA BKN020TCU PROB30 1200/1206 5000 BR BKN005
EPDE,TAF EPDE 112300Z 1200/1209 26003KT 2500 BR NSC PROB30 1201/1205 0400 FG BKN002 BECMG 1206/1208 9999 SCT015 BKN022
EPGD,TAF EPGD 112330Z 1200/1224 24008KT 9999 SCT030 PROB40 1202/1207 3000 BR BKN004 PROB40 TEMPO 1210/1216 -SHRA BKN025TCU
EPIR,TAF EPIR 112000Z 1121/1206 25008KT CAVOK PROB30 1121/1124 5000 BR
EPKK,TAF EPKK 112330Z 1200/1224 05002KT 5000 BR NSC BECMG 1200/1203 0600 FG BECMG 1203/1204 0300 FG BKN002 BECMG 1206/1208 4000 BR BKN005 BECMG 1208/1209 CAVOK
EPKS,TAF EPKS 112300Z 1200/1209 VRB02KT CAVOK TEMPO 1200/1206 3000 BR PROB30 1203/1206 1500 MIFG BR
EPKT,TAF EPKT 112330Z 1200/1224 07002KT 5000 BR NSC BECMG 1200/1203 0600 FG PROB30 TEMPO 1203/1206 0200 FG BKN002 BECMG 1206/1208 CAVOK
EPLB,TAF EPLB 112330Z 1200/1224 VRB03KT 4000 BR NSC BECMG 1200/1203 1500 BR PROB40 1203/1207 0600 FG BKN001 BECMG 1206/1208 CAVOK
EPLK,TAF EPLK 112300Z 1200/1209 VRB02KT 6000 MIFG NSC TEMPO 1200/1207 4000 MIFG BR PROB40 1203/1207 0600 FG
EPLL,TAF EPLL 112330Z 1200/1224 VRB03KT 6000 NSC BECMG 1201/1203 3000 BR PROB40 1203/1206 0600 FG BKN001 BECMG 1206/1207 CAVOK
EPLY,TAF EPLY 112000Z 1121/1206 VRB02KT CAVOK PROB30 1123/1206 5000 MIFG BR
EPMB,TAF EPMB 112300Z 1200/1209 24008KT CAVOK PROB30 TEMPO 1203/1206 6000 RA BKN030
EPMI,TAF EPMI 112300Z 1200/1209 24006KT 9999 BKN030 PROB30 TEMPO 1200/1207 4000 BR BKN005
EPMM,TAF EPMM 112300Z 1200/1209 27003KT 5000 BR NSC PROB30 1203/1206 2000 MIFG BR BECMG 1206/1208 9999 SCT015 BKN030
EPMO,TAF EPMO 112330Z 1200/1224 27005KT 7000 NSC BECMG 1201/1203 3000 BR PROB40 1204/1206 0800 FG BKN001 BECMG 1206/1207 CAVOK
EPOK,TAF EPOK 112300Z 1200/1209 25006KT 9999 SCT030 PROB30 TEMPO 1201/1208 4000 BR SCT007 BKN015
EPPO,TAF EPPO 112330Z 1200/1224 VRB02KT 7000 NSC TEMPO 1200/1207 4000 BR PROB30 1202/1207 1200 BR BECMG 1215/1217 15010KT
EPPR,TAF EPPR 111700Z 1118/1203 24002KT CAVOK PROB30 TEMPO 1121/1124 5000 BR
EPPW,TAF EPPW 112300Z 1200/1209 VRB02KT CAVOK PROB30 1200/1206 4000 MIFG BR BECMG 1207/1209 BKN016
EPRA,TAF EPRA 112000Z 1121/1206 24005KT CAVOK TEMPO 1200/1206 3000 BR NSC PROB30 1203/1206 0600 FG BKN002
EPRZ,TAF EPRZ 112330Z 1200/1224 VRB02KT 3000 BR NSC TEMPO 1200/1207 0500 FG PROB40 TEMPO 1203/1207 0300 FG BKN002 BECMG 1207/1208 CAVOK
EPSC,TAF EPSC 112330Z 1200/1224 VRB03KT 9999 SCT030 BECMG 1200/1203 3000 BR PROB40 1200/1208 1000 BR BKN002 BECMG 1208/1210 9999 PROB40 TEMPO 1209/1215 SCT030TCU
EPSN,TAF EPSN 112300Z 1200/1209 26005KT CAVOK TEMPO 1203/1206 5000 MIFG BR BECMG 1207/1209 SCT030
EPSY,TAF EPSY 112330Z 1200/1209 21005KT CAVOK PROB30 TEMPO 1200/1206 3000 BR
EPTM,TAF EPTM 112000Z 1121/1206 VRB03KT 8000 NSC PROB30 1122/1206 5000 BR
EPWA,TAF EPWA 112330Z 1200/1224 VRB03KT 8000 NSC BECMG 1201/1203 4000 BR PROB40 1204/1206 0800 FG BKN001 BECMG 1206/1207 CAVOK
EPWR,TAF EPWR 112330Z 1200/1224 VRB02KT 4000 BR NSC TEMPO 1200/1208 1400 BR PROB40 1200/1207 0300 FG BKN003 BECMG 1208/1210 CAVOK BECMG 1214/1217 12010KT
EPZG,TAF EPZG 112030Z 1121/1206 VRB02KT CAVOK PROB40 1121/1206 2000 BR
ESGG,TAF ESGG 112330Z 1200/1224 22006KT 9999 SCT030 PROB40 1207/1211 RADZ BKN009 PROB40 1215/1224 DZRA BKN012
ESGJ,TAF ESGJ 112030Z 1121/1201 24006KT CAVOK
ESKN,TAF ESKN 112330Z 1200/1224 25008KT CAVOK PROB40 1203/1207 4000 BCFG
ESMS,TAF ESMS 112307Z 1200/1224 26005KT 9999 FEW040 PROB40 1201/1206 3000 BR
ESMX,TAF ESMX 112030Z 1121/1201 24006KT CAVOK
ESNN,TAF ESNN 112030Z 1121/1201 28012G22KT CAVOK
ESNU,TAF ESNU 112330Z 1200/1209 27009KT CAVOK
ESOE,TAF ESOE 112030Z 1121/1201 26005KT CAVOK
ESSA,TAF ESSA 112330Z 1200/1224 26008KT CAVOK
ETAD,TAF ETAD 112000Z 1120/1302 07005KT 9999 SKC QNH3020INS BECMG 1205/1206 VRB06KT 5000 BR FEW005 FEW180 QNH3019INS TEMPO 1206/1209 3200 BR BKN005 BECMG 1208/1209 20007KT 9999 NSW BKN015 QNH3015INS BECMG 1220/1221 24005KT 8000 -DZ BKN010 QNH3013INS TX16/1214Z TN02/1205Z
ETAR,TAF ETAR 111800Z 1118/1224 VRB06KT 9999 SCT030 QNH3024INS TEMPO 1202/1207 5000 BR OVC010 BECMG 1208/1209 VRB06KT 9999 BKN020 QNH3020INS BECMG 1219/1220 VRB06KT 6000 BR OVC010 QNH3018INS TX15/1214Z TN06/1203Z
ETEB,TAF ETEB 111500Z 1115/1221 02009KT 9999 BKN020 QNH3026INS BECMG 1117/1118 03006KT 9999 FEW060 QNH3026INS BECMG 1201/1202 08006KT 6000 BR FEW005 SCT010 QNH3024INS BECMG 1203/1204 08006KT 0800 FG FEW005 SCT010 QNH3024INS BECMG 1206/1207 VRB06KT 9999 NSW FEW005 SCT010 QNH3026INS BECMG 1210/1211 VRB03KT 9999 SCT020 BKN030 QNH3027INS TX14/1213Z TN10/1201Z LAST NO AMDS AFT 1115 NEXT 1207
ETHB,TAF ETHB 111900Z 1120/1205 17005KT 9999 NSW FEW030 SCT200 PROB30 1120/1205 VRB03KT 4000 BR FEW050
ETHC,TAF ETHC 111630Z 1117/1202 26005KT 9999 NSW FEW050 SCT250 PROB30 1119/1122 VRB01KT 5000 MIFG FEW250 PROB30 1122/1202 00000KT 0500 FG SCT001
ETHN,TAF ETHN 111600Z 1117/1202 09003KT 9999 NSW BKN020 TEMPO 1118/1202 07003KT 9999 NSW SCT020 BKN210
ETHS,TAF ETHS 111915Z 1120/1205 23003KT 9999 NSW SCT055 TEMPO 1120/1202 21002KT 5000 MIFG SCT050 BECMG 1122/1124 VRB01KT 0500 FG FEW050
ETIC,TAF ETIC 111800Z 1118/1224 VRB06KT 8000 BR SCT015 BKN035 QNH3028INS BECMG 1119/1120 VRB06KT 5000 BR SCT025 QNH3029INS BECMG 1123/1124 VRB06KT 1600 BR SCT005 SCT015 QNH3028INS BECMG 1207/1208 08006KT 8000 BR SCT015 BKN035 QNH3029INS BECMG 1217/1218 VRB06KT 5000 BR SCT025 QNH3025INS BECMG 1222/1223 VRB03KT 1600 BR SCT005 SCT015 QNH3023INS TX13/1215Z TN08/1205Z
ETIK,TAF ETIK 112200Z 1122/1304 VRB06KT 9999 OVC020 QNH3024INS BECMG 1201/1202 VRB06KT 4800 BR BKN010 OVC035 QNH3026INS BECMG 1207/1208 VRB06KT 8000 BR BKN015 OVC025 QNH3028INS BECMG 1209/1210 VRB06KT 9999 NSW BKN020 QNH3028INS BECMG 1213/1214 VRB06KT 9999 BKN030 OVC045 QNH3026INS BECMG 1302/1303 VRB06KT 8000 BR BKN030 QNH3019INS TX15/1214Z TN07/1204Z LAST NO AMDS AFT 1122 NEXT 1206
ETMN,TAF AMD ETMN 112121Z 1121/1202 23005KT 9999 NSW FEW030 BKN050 TEMPO 1121/1202 VRB02KT 0500 FG FEW040 BY ETGG
ETNG,TAF ETNG 112300Z 1200/1215 VRB02KT CAVOK TEMPO 1204/1207 4500 MIFG BR BECMG 1208/1210 24005KT
ETNL,TAF AMD ETNL 112338Z 1123/1211 20003KT 9999 NSW BKN060 TEMPO 1200/1207 23003KT 3000 MIFG FEW005 SCT060 PROB30 1200/1207 VRB02KT 0500 FG VV001 FEW060 BY ETGL
ETNN,TAF ETNN 111602Z 1117/1202 16003KT 9999 NSW FEW035 PROB30 1122/1202 VRB01KT 0500 FG VV000 BY ETGL
ETNW,TAF ETNW 112230Z 1123/1223 VRB02KT 9999 NSW SCT270 TEMPO 1201/1207 VRB01KT 2000 BR SCT250 PROB30 1201/1207 VRB01KT 0500 FG VV000 BECMG 1208/1210 15006KT 9999 NSW FEW030 BKN180 BECMG 1219/1221 21004KT 9999 NSW FEW030 BKN150 BY ETGL
ETOU,TAF ETOU 112145Z 1121/1302 03006KT 9999 SCT045 QNH3027INS BECMG 1201/1202 VRB06KT 9999 BKN025 QNH3021INS TEMPO 1203/1206 8000 BR BKN012 BECMG 1222/1223 20004KT 9999 SCT010 BKN015 QNH3019INS TX16/1215Z TN04/1204Z LAST NO AMDS AFT 1121 NEXT 1204
ETSL,TAF ETSL 111925Z 1120/1205 05005KT 9999 NSW BKN040 BKN140 BECMG 1123/1201 VRB03KT 3000 BR FEW040 SCT140 TEMPO 1201/1205 VRB02KT 0500 FG VV001 BY ETGL
ETSN,TAF ETSN 112200Z 1123/1208 VRB03KT 9999 NSW BKN050 BKN200 BECMG 1201/1203 06003KT 3000 BR FEW050 SCT200 TEMPO 1203/1205 00000KT 0500 FG VV001 BY ETGL
EVGA,TAF EVGA 112302Z 1200/1224 23005KT CAVOK TEMPO 1206/1217 SCT025CB TEMPO 1218/1224 3000 BR
EVLA,TAF EVLA 112304Z 1200/1224 28007KT 9999 SCT030
EVRA,TAF EVRA 112300Z 1200/1224 23005KT 9999 SCT040 TEMPO 1209/1216 SCT025CB
EYKA,TAF EYKA 112300Z 1200/1224 24006KT 5000 BR SCT015 TEMPO 1200/1203 SCT005 BKN015 BECMG 1203/1204 BKN005 BECMG 1208/1209 9000 NSW BKN015 TEMPO 1211/1216 5000 SHRA BKN015CB BECMG 1221/1222 BKN005
EYPA,TAF EYPA 112300Z 1200/1224 28008KT 6000 SCT015 TEMPO 1200/1206 BKN015 BECMG 1206/1207 BKN020 TEMPO 1218/1224 5000 RA BR BKN010 OVC015
EYSA,TAF EYSA 112300Z 1200/1209 VRB05KT 5000 BR NSC TEMPO 1200/1203 SCT005 BKN015CB TEMPO 1203/1206 1500 SCT005 BECMG 1206/1207 9000 NSW BKN015
EYVI,TAF EYVI 112300Z 1200/1224 VRB05KT 5000 BR SCT002 BKN005 TEMPO 1200/1207 0300 FG VV002 BECMG 1207/1208 9000 NSW BKN010 BECMG 1208/1209 BKN015 TEMPO 1209/1216 5000 SHRA BKN015CB BECMG 1218/1219 5000 BR BKN005
FABL,TAF FABL 112200Z 1200/1224 32008KT CAVOK TX33/1212Z TN14/1204Z
FACT,TAF FACT 112200Z 1200/1306 18010KT 9999 BKN008 TX24/1212Z TN13/1204Z PROB40 TEMPO 1200/1205 3000 BCFG BKN004 BECMG 1206/1208 FEW020 PROB30 TEMPO 1300/1306 1500 BCFG BKN003
FAGG,TAF FAGG 112200Z 1200/1224 VRB03KT 9999 BKN008 TX23/1212Z TN14/1204Z TEMPO 1200/1206 0800 FG OVC002 FM120700 14008KT 9999 FEW015 BKN030 PROB40 TEMPO 1221/1224 1500 BCFG BKN003
FALA,TAF FALA 112200Z 1200/1224 VRB03KT CAVOK TX32/1214Z TN16/1204Z PROB30 TEMPO 1214/1219 TS FEW050CB
FALE,TAF FALE 112200Z 1200/1306 19013KT 9999 SCT025 TX26/1212Z TN19/1203Z BECMG 1210/1212 13011KT BECMG 1217/1219 02005KT PROB30 TEMPO 1221/1302 4000 BR NSC
FAOR,TAF FAOR 112200Z 1200/1306 VRB03KT CAVOK TX29/1213Z TN16/1204Z BECMG 1212/1214 31009KT SCT049 PROB30 TEMPO 1214/1219 -TSRA FEW045CB BECMG 1219/1221 07010KT CAVOK
FAPE,TAF FAPE 112200Z 1200/1224 25015KT 9999 BKN015 TX23/1212Z TN16/1204Z TEMPO 1200/1209 SCT005 BKN008 PROB30 TEMPO 1201/1207 3000 BR BKN005 BECMG 1204/1206 VRB03KT BECMG 1210/1212 12010KT SCT015
FAPM,TAF FAPM 111800Z 1119/1206 30008KT CAVOK TX29/1119Z TN17/1204Z PROB30 TEMPO 1119/1122 5000 TSRA BKN015 FEW035CB BECMG 1200/1202 VRB02KT
FAUP,TAF FAUP 112200Z 1200/1224 34012KT CAVOK TX37/1212Z TN17/1204Z
FBKE,FBKE 111200Z 1115/1124 07007KT CAVOK
FBMN,FBMN 112200Z 1200/1224 09010KT CAVOK
FBPM,FBPM 112200Z 1200/1224 08011KT CAVOK
FBSK,FBSK 112200Z 1200/1306 04010KT CAVOK
FCBB,TAF FCBB 112300Z 1200/1306 26004KT 8000 FEW020 FEW030CB BECMG 1201/1203 FEW018 PROB30 1217/1221 FEW020 FEW030CB
FCPP,TAF FCPP 112300Z 1200/1224 20005KT 8000 SCT020
FEFF,TAF FEFF 110500Z 1106/1212 18003KT 9999 FEW010 BECMG 1107/1109 BKN013 BECMG 1110/1112 BKN023 FEW033CB PROB30 TEMPO 1113/1117 VRB15KT 4000 TSRA TEMPO 1117/1120 TS BKN012 FEW033CB
FGBT,FGBT 111700Z 1118/1218 25006KT 9999 SCT010 PROB40 TEMPO 1212/1216 4000 TSRA BKN010 FEW020CB
FGSL,TAF FGSL 111700Z 1118/1224 25006KT 9999 SCT010 PROB30 TEMPO 1204/1208 4000 RADZ BKN008 PROB40 TEMPO 1211/1215 4000 TSRADZ 
FHAW,TAF FHAW 110730Z 1109/1203 14013KT 9999 FEW018 PROB30 TEMPO 1109/1111 SCT016 PROB40 TEMPO 1120/1203 7000 -SHRA SCT016
FIMP,TAF COR FIMP 112330Z 1200/1306 12010KT 9999 SCT017 TEMPO 1208/1216 5000 -SHRA FEW008 BKN015
FIMR,TAF FIMR 112330Z 1200/1218 11022G35KT 9999 SCT017 PROB30 TEMPO 1200/1206 7000 -SHRA BKN016
FJDG,TAF FJDG 111700Z 1117/1223 16009KT 9999 FEW030 SCT110 BKN230 QNH2980INS TX30/1212Z TN26/1217Z FOR MIL USE ONLY
FKKD,TAF FKKD 112300Z 1200/1306 VRB03KT 9999 TS BKN013 FEW016CB BECMG 1200/1202 NSW BECMG 1208/1210 BKN016 FEW020CB PROB30 1217/1219 TS BECMG 1218/1220 BKN013 FEW016CB
FKYS,TAF FKYS 112300Z 1200/1224 VRB04KT 9999 BKN006 BECMG 1208/1210 BKN016 TEMPO 1214/1218 4000 TSRA BKN016 FEW023CB BECMG 1220/1222 BKN006
FLCP,TAF FLCP 111600Z 1118/1224 10010G15KT CAVOK BECMG 1200/1203 07005KT 9999 SCT010 BECMG 1204/1208 09010G15KT 9000 HZ NSC BECMG 1210/1214 09010KT
FLHN,TAF FLHN 111600Z 1118/1224 09010KT CAVOK BECMG 1120/1122 07005KT BECMG 1204/1206 09010KT
FLKK,TAF FLKK 111600Z 1118/1224 10010KT CAVOK BECMG 1204/1208 09010G15KT 8000 HZ NSC BECMG 1210/1214 FEW035
FLKS,TAF FLKS 111600Z 1118/1224 16010KT CAVOK BECMG 1205/1209 09010KT BECMG 1214/1218 13010KT
FLMA,TAF FLMA 111600Z 1118/1224 09005KT CAVOK BECMG 1204/1206 09010KT BECMG 1207/1211 09010G15KT
FLMF,TAF FLMF 111600Z 1118/1224 10010G15KT CAVOK BECMG 1200/1203 07005KT 9999 SCT010 BECMG 1204/1208 09010G15KT 9000 HZ NSC BECMG 1210/1214 09010KT
FLSK,TAF FLSK 111600Z 1118/1224 16005KT CAVOK BECMG 1204/1208 10010KT 8000 FU NSC BECMG 1209/1211 FEW030
FLSW,TAF FLSW 111600Z 1118/1224 16005KT CAVOK BECMG 1204/1208 09010KT BECMG 1210/1212 09005KT 9999 FEW035
FMCH,TAF FMCH 111100Z 1112/1218 24010KT 9999 SCT020 BKN030 PROB40 TEMPO 1112/1115 4500 SHRA BECMG 1116/1118 10003KT BECMG 1204/1207 24010KT
FMCZ,TAF FMCZ 111700Z 1118/1218 VRB02KT 9999 NSC
FMEE,TAF FMEE 111700Z 1118/1224 14008KT 9999 NSC BECMG 1204/1206 10015G30KT BECMG 1210/1212 10014KT
FMMI,TAF FMMI 112300Z 1200/1306 10002KT 9999 FEW017 PROB30 1200/1205 0800 FG BKN004 BECMG 1206/1208 10012KT BECMG 1220/1222 16006KT
FMMS,TAF FMMS 112300Z 1200/1224 16010KT 9999 FEW017 SCT033 PROB40 TEMPO 1210/1218 4500 SHRA
FMMT,TAF FMMT 112300Z 1200/1224 00000KT 9999 FEW017 SCT033 PROB40 TEMPO 1200/1210 4500 SHRA SCT017TCU BECMG 1210/1212 16010KT PROB40 TEMPO 1220/1224 4500 SHRA
FMNA,TAF FMNA 112300Z 1200/1224 14012KT 9999 SCT020 PROB40 TEMPO 1209/1216 14022G35KT 4500 SHRA
FMNM,TAF FMNM 112300Z 1200/1224 VRB02KT 9999 FEW040 BECMG 1202/1204 10012KT BECMG 1209/1211 32012KT BECMG 1218/1220 08004KT
FMNN,TAF FMNN 112300Z 1200/1224 22004KT 9999 FEW020 BECMG 1208/1210 28010KT BECMG 1214/1216 22004KT
FMSD,TAF FMSD 112300Z 1200/1224 08022G35KT 9999 FEW016 SCT033
FMST,TAF FMST 112300Z 1200/1224 00000KT 9999 FEW023 BECMG 1208/1210 30010KT BECMG 1218/1220 06004KT
FNBG,TAF FNBG 112300Z 1200/1212 VRB02KT 9000 BKN020 BECMG 1210/1212 32006KT
FNCA,TAF FNCA 112300Z 1200/1212 VRB02KT 9999 SCT012 TEMPO 1207/1212 20004KT 6000 DZ
FNCT,TAF FNCT 112300Z 1200/1212 22005KT 9000 BKN023
FNDU,TAF FNDU 112300Z 1200/1212 VRB02KT 9000 SCT022
FNGI,TAF FNGI 112300Z 1200/1212 VRB03KT 9999 FEW020
FNHU,TAF FNHU 112300Z 1200/1212 VRB03KT 8000 NSC
FNKU,TAF FNKU 112300Z 1200/1212 VRB02KT 8000 NSC
FNLU,TAF FNLU 112300Z 1200/1306 20006KT 9000 FEW0205 TEMPO 1203/1207 BNK010 OVC020 BECMG 1210/1212 VRB02KT
FNMA,TAF FNMA 112300Z 1200/1212 29006KT 8000 BKN018
FNME,TAF FNME 112300Z 1200/1212 09008KT CAVOK
FNMO,TAF FNMO 112300Z 1200/1212 VRB03KT 9999 SCT014 BKN025
FNSA,TAF FNSA 112300Z 1200/1212 VRB02KT 9000 SCT025
FNSO,TAF FNSO 112300Z 1200/1212 VRB02KT 9999 SCT020 OVC025 PROB40 TEMPO 1207/1212 19004KT 6000 DZ BKN015
FNUB,TAF FNUB 112300Z 1200/1212 VRB03KT 9000 FEW024
FNUE,TAF FNUE 112300Z 1200/1212 VRB03KT 9999 FEW030
FOOG,TAF FOOG 111700Z 1118/1218 21010KT 9999 SCT010 BKN030 PROB30 TEMPO 1213/1218 BKN010 FEW020CB
FOOL,TAF FOOL 111700Z 1118/1224 24008KT 9999 SCT012 TEMPO 1200/1207 3000 RA BKN010 OVC026 TEMPO 1213/1219 TS BKN012 FEW020CB
FQBR,TAF FQBR 111600Z 1118/1224 09008KT 9999 FEW020 TX31/1213Z TN21/1203Z BECMG 1200/1202 VRB03KT BECMG 1207/1209 09008KT
FQCH,TAF FQCH 111600Z 1118/1218 11010KT 9999 BKN015 TX34/1213Z TN24/1203Z BECMG 1200/1202 05006KT FEW020 BECMG 1207/1209 11010KT
FQIN,TAF FQIN 111600Z 1118/1218 09010KT 9999 BKN020 TX31/1213Z TN23/1203Z BECMG 1200/1202 VRB03KT FEW025 BECMG 1209/1211 09015KT
FQLC,TAF FQLC 111600Z 1118/1218 15008KT 9999 SCT020 TX28/1213Z TN12/1203Z BECMG 1201/1203 VRB03KT BECMG 1207/1209 07009KT
FQMA,TAF FQMA 111600Z 1118/1224 17012KT 9999 FEW025 TX33/1213Z TN21/1203Z BECMG 1200/1202 VRB02KT BECMG 1206/1208 35006KT BECMG 1212/1214 12012G22KT
FQNC,TAF FQNC 111600Z 1118/1224 09010KT 9999 FEW020 TX31/1213Z TN22/1203Z BECMG 1200/1202 VRB02KT BKN018 BECMG 1206/1208 10008KT
FQNP,TAF FQNP 111600Z 1118/1218 17007KT 9999 FEW020 TX33/1213Z TN19/1203Z BECMG 1200/1202 VRB02KT BKN018 BECMG 1206/1208 09009KT
FQPB,TAF FQPB 111600Z 1118/1218 08008KT 9999 FEW020 TX30/1213Z TN20/1203Z BECMG 1200/1202 VRB02KT SCT018 BECMG 1207/1209 09010KT
FQQL,TAF FQQL 111600Z 1118/1218 09008KT 9999 FEW020 TX32/1213Z TN21/1203Z BECMG 1201/1203 01004KT BECMG 1207/1209 15009KT
FQTT,TAF FQTT 111600Z 1118/1218 14010KT 9999 FEW020 TX40/1213Z TN24/1203Z BECMG 1201/1203 23006KT BECMG 1206/1208 10009KT
FQVL,TAF FQVL 111600Z 1118/1218 07010KT 9999 BKN020 TX30/1213Z TN21/1203Z BECMG 1200/1202 VRB03KT FEW025 BECMG 1209/1211 07010KT
FQXA,TAF FQXA 111600Z 1118/1218 14010G20KT 9999 FEW025 TX31/1213Z TN20/1203Z BECMG 1200/1202 VRB02KT BECMG 1206/1208 08009KT
FSIA,TAF FSIA 112303Z 1200/1224 13013KT 9999 SCT022
FTTJ,TAF FTTJ 112300Z 1200/1306 14006KT 8000 NSC PROB30 TEMPO 1214/1220 TS TEMPO 1216/1220 4000 DU
FVJN,TAF FVJN 111600Z 1118/1224 12010KT CAVOK
FVRG,TAF FVRG 112200Z 1200/1306 07011KT CAVOK
FWCL,TAF FWCL 110900Z 1112/1218 07012KT 8000 HZ SKC BECMG 1114/1118 08008KT CAVOK
FWKI,TAF FWKI 111430Z 1118/1224 12016KT CAVOK BECMG 1207/1209 9999 FEW027 FM121000 10014KT CAVOK
FYGF,TAF FYGF 112300Z 1200/1209 08004KT CAVOK
FYLZ,TAF FYLZ 112300Z 1200/1209 17009KT 9999 BKN020
FYRU,TAF FYRU 112300Z 1200/1209 08004KT CAVOK
FYWB,TAF FYWB 112200Z 1200/1300 33005KT 9999 OVC005 BECMG 1209/1211 05004KT BKN014
FYWE,TAF FYWE 112300Z 1200/1209 00000KT CAVOK BECMG 1203/1205 05003KT
FYWH,TAF FYWH 112200Z 1200/1300 22003KT CAVOK
FZAA,TAF COR FZAA 111100Z 1112/1218 32012KT 7000 SCT022 FEW030CB PROB30 TEMPO 1115/1119 TS BECMG 1120/1122 20004KT BKN016 BECMG 1210/1212 34010KT SCT023 FEW030CB
FZQA,TAF FZQA 111100Z 1112/1218 09012KT CAVOK BECMG 1115/1117 16006KT
GABS,TAF GABS 112300Z 1200/1306 18006KT 9999 FEW016 PROB30 TEMPO 1200/1206 -TSRA SCT016 FEW030CB
GAGO,TAF GAGO 112300Z 1200/1224 24008KT 9999 FEW030
GBYD,TAF GBYD 112300Z 1200/1306 VRB02KT 9999 SCT012 PROB40 TEMPO 1200/1204 4500 TSRA BKN011 FEW018CB
GCFV,TAF GCFV 112000Z 1121/1221 34010KT 9999 SCT020 TX27/1214Z TN20/1206Z BECMG 1209/1211 04014KT
GCGM,TAF GCGM 112000Z 1121/1221 23006KT 9999 SCT025 TX26/1214Z TN21/1206Z PROB40 TEMPO 1200/1221 35010KT PROB30 TEMPO 1122/1221 VRB15G25KT
GCHI,TAF GCHI 112000Z 1121/1221 01012KT 9999 SCT025 TX25/1214Z TN22/1206Z
GCLA,TAF GCLA 112000Z 1121/1221 01010KT 9999 FEW015 BKN025 TX26/1214Z TN21/1206Z PROB30 TEMPO 1202/1212 13006KT PROB40 TEMPO 1211/1221 RADZ
GCLP,TAF GCLP 112000Z 1121/1221 01018KT 9999 SCT025 TX26/1214Z TN21/1206Z PROB30 TEMPO 1209/1220 01016G28KT
GCRR,TAF GCRR 112000Z 1121/1221 01012KT 9999 SCT025 TX28/1214Z TN20/1206Z PROB30 TEMPO 1212/1216 01015G25KT
GCTS,TAF GCTS 112000Z 1121/1221 03010KT 9999 SCT025 TX28/1214Z TN20/1206Z PROB30 TEMPO 1121/1123 09015KT TEMPO 1206/1213 27006KT BECMG 1211/1213 09018KT PROB40 TEMPO 1212/1217 08018G28KT BECMG 1218/1220 03008KT
GCXO,TAF GCXO 112000Z 1121/1221 32012KT 9999 BKN010 TX21/1214Z TN16/1206Z PROB40 TEMPO 1121/1221 SCT016 PROB30 TEMPO 1121/1203 3000 BCFG BKN004 PROB30 TEMPO 1210/1221 2500 RA BCFG BKN002
GECE,TAF GECE 111400Z 1115/1215 VRB03KT 9999 SCT020 BKN030 TX22/1215Z TN19/1206Z PROB40 TEMPO 1115/1206 4000 RA SHRA BKN012 FEW030CB PROB40 TEMPO 1115/1119 01012KT 2000 +TSRA SCT020CB BKN030 BECMG 1121/1124 07010KT
GEML,TAF GEML 112300Z 1200/1224 VRB02KT 9999 SCT015 TX24/1213Z TN19/1206Z PROB30 TEMPO 1200/1218 4000 -RA SHRA FEW025CB TEMPO 1200/1212 BKN010 BECMG 1207/1210 07010KT PROB30 TEMPO 1209/1215 3000 TSRA SCT020CB PROB30 TEMPO 1212/1224 BKN014
GFLL,TAF GFLL 110500Z 1106/1212 VRB02KT 9999 BKN008 FEW027CB TEMPO 1115/1120 24005KT TS BKN011 FEW026CB TEMPO 1202/1207 06005KT 7000 TSRA BKN008 FEW026CB PROB30 BECMG 1212/1214 16006KT 9999 BKN011
GGOV,TAF GGOV 112300Z 1200/1224 VRB05KT 4000 TSRA BKN010 FEW015CB BECMG 1202/1204 5000 RA BKN010 BECMG 1206/1208 6000 NSW SCT010
GMAD,TAF GMAD 112300Z 1200/1306 06008KT 8000 SCT020 TEMPO 1204/1210 2000 BR BKN003
GMAG,TAF GMAG 112300Z 1200/1306 28016KT 8000 BKN016
GMFF,TAF GMFF 112300Z 1200/1306 30010KT 5000 -SHRA SCT010 SCT020 SCT030CB TEMPO 1202/1208 30016KT 2000 TSRA BKN006 SCT020 SCT030CB BECMG 1210/1212 RA BKN026
GMFK,TAF GMFK 112300Z 1200/1306 36009KT CAVOK
GMFM,TAF GMFM 111700Z 1118/1224 32006KT 6000 FEW013 BKN016 FEW023CB TEMPO 1120/1206 -TSRA
GMFO,TAF GMFO 111700Z 1118/1224 02012KT 9999 SCT025 FEW030TCU BKN090 PROB30 1120/1203 3000 TSRA FEW035CB
GMME,TAF GMME 112300Z 1200/1306 VRB02KT 6000 SCT00 BKN020 BKN060 PROB30 TEMPO 1200/1206 08007KT 3000 TSRA BKN014 BKN020 FEW023CB TEMPO 1208/1212 36010KT 5000 NSW NSC PROB40 TEMPO 1221/1223 22005KT RA SCT010 BKN016
GMMH,TAF GMMH 112300Z 1200/1306 36018KT 8000 NSC
GMMI,TAF GMMI 112300Z 1200/1306 30007KT 8000 NSC PROB40 1200/1207 3000 BR
GMML,TAF GMML 112300Z 1200/1306 05013KT 8000 NSC
GMMN,TAF GMMN 112300Z 1200/1306 20004KT 9999 SCT013 PROB30 TEMPO 1202/1206 2000 BR SCT005 BECMG 1210/1212 36012KT 9999 SCT026 TEMPO 1214/1224 5000 RA BKN016 FEW026TCU
GMMW,TAF GMMW 112300Z 1200/1306 02006KT 7000 SCT015 SCT020 BECMG 1200/1204 8000 NSC
GMMX,TAF GMMX 112300Z 1200/1306 28012KT 8000 BKN023 FEW030CB TEMPO 1200/1209 5000 TSRA SCT030CB
GMMZ,TAF GMMZ 112300Z 1200/1306 26012KT 9999 FEW030 TEMPO 1217/1301 28013G23KT
GMTA,TAF GMTA 112300Z 1200/1306 12006KT 8000 -RA FEW010 SCT036 BKN040 BECMG 1201/1205 NSW NSC
GMTT,TAF GMTT 112300Z 1200/1306 07004KT 9999 FEW010 SCT066 BECMG 1208/1211 08015KT
GOBD,TAF GOBD 112300Z 1200/1306 32007KT 9999 SCT012
GOGS,TAF GOGS 112300Z 1200/1224 30006KT 9999 SCT013 PROB40 TEMPO 1200/1204 4500 TSRA BKN012 FEW030CB
GOOY,TAF GOOY 112300Z 1200/1306 32007KT 9999 SCT013
GOSS,TAF GOSS 112300Z 1200/1224 32006KT 9999 SCT010
GQNO,TAF GQNO 112300Z 1200/1306 34010KT 8000 NSC BECMG 1209/1211 06010KT BECMG 1219/1221 32010KT
GQPP,TAF GQPP 112300Z 1200/1224 01012KT 7000 NSC
GUCY,TAF GUCY 112300Z 1200/1206 27008KT 9999 SCT013 BKN100 PROB30 TEMPO 1200/1206 30012KT 5000 -TSRA BKN012 FEW020CB OVC090 BECMG 1206/1210 05004KT SCT013 BKN100
GVAC,TAF GVAC 112300Z 1200/1306 05010KT 9999 SCT014 TEMPO 1200/1208 SCT012 BKN014
GVBA,TAF GVBA 112300Z 1200/1306 04006KT 9999 SCT014 TEMPO 1200/1208 BKN014 BECMG 1210/1213 04016KT
GVNP,TAF GVNP 112300Z 1200/1306 03010KT 9999 SCT015 PROB40 TEMPO 1200/1207 4500 RADZ SCT010 BKN014
GVSV,TAF GVSV 112300Z 1200/1306 06016KT 9999 SCT018
HAAB,TAF HAAB 112130Z 1200/1306 09006KT 9999 SCT027 SCT090 TEMPO 1211/1215 8000M -RA BKN026
HADR,TAF HADR 112130Z 1200/1306 32006KT 9999 SCT027
HBBA,TAF HBBA 111700Z 1118/1224 00000KT 9999 FEW030 SCT100 BECMG 1202/1204 36003KT BECMG 1207/1209 18010KT BECMG 1216/1218 00000KT CAVOK
HCMM,TAF HCMM 111100Z 1112/1218 19018KT 9999 SCT024 TEMPO 1123/1203 18010KT 9000 -RA BKN019 BECMG 1209/1212 20015KT NSW SCT024
HDAM,HDAM 112300Z 1200/1224 10010KT 9000 HZ SCT020 SCT133 BECMG 1206/1212 08010G15KT SCT023 SCT133 BECMG 1215/1221 VRB05KT FEW023 FEW133
HEAL,TAF HEAL 112300Z 1200/1306 35008KT 9999 SCT020
HEAR,TAF HEAR 112300Z 1200/1306 21008KT 9999 SCT025
HEAT,TAF HEAT 112300Z 1200/1306 35014KT CAVOK
HEAX,TAF HEAX 112300Z 1200/1306 35008KT 9999 SCT020
HEBA,TAF HEBA 112300Z 1200/1306 35008KT 9999 SCT020
HEBL,TAF HEBL 112300Z 1200/1306 35010KT CAVOK
HECA,TAF HECA 112300Z 1200/1306 01011KT 9999 SCT025 TEMPO 1200/1207 VRB02KT 4000 BR PROB30 TEMPO 1202/1206 2000
HEGN,TAF HEGN 112300Z 1200/1306 28010KT CAVOK
HELX,TAF HELX 112300Z 1200/1306 28008KT CAVOK TEMPO 1204/1208 VRB03KT 6000 NSC
HEMA,TAF HEMA 112300Z 1200/1306 26010KT CAVOK
HEMM,TAF HEMM 112300Z 1200/1306 35008KT 9999 SCT020
HEOW,TAF HEOW 112300Z 1200/1306 02005G15KT 6000 NSC
HEPS,TAF HEPS 112300Z 1200/1306 36011KT 9999 SCT025
HESC,TAF HESC 112300Z 1200/1306 29010KT CAVOK
HESG,TAF HESG 112300Z 1200/1306 32012KT CAVOK
HESH,TAF HESH 112300Z 1200/1306 34010KT CAVOK
HESN,TAF HESN 112300Z 1200/1306 01010KT CAVOK
HETB,TAF HETB 112300Z 1200/1306 35010KT CAVOK
HETR,TAF HETR 112300Z 1200/1306 30015KT CAVOK
HKEL,TAF HKEL 111700Z 1118/1224 18005KT 9999 FEW017CB BKN018 BKN080 BECMG 1120/1123 VRB03KT SCT016 BKN080 BECMG 1207/1211 FEW022CB BKN023 TEMPO 1212/1216 VRB10KT -TSRA FEW019CB SCT020 BKN080 BECMG 1220/1223 VRB03KT NSW SCT016 BKN080
HKJK,TAF HKJK 111700Z 1118/1224 09010KT 9999 SCT026 BECMG 1120/1123 VRB03KT SCT018 BECMG 1207/1210 09010KT BKN026 BECMG 1220/1223 VRB03KT SCT018
HKKI,TAF HKKI 111700Z 1118/1224 35010KT 9999 BKN020 BECMG 1120/1123 VRB02KT SCT018 BECMG 1209/1212 22010KT FEW025CB BKN080 TEMPO 1212/1216 -TSRA FEW022CB BKN023 BKN080 BECMG 1220/1223 VRB02KT NSW SCT018
HKML,TAF HKML 112300Z 1200/1224 21005KT 9999 FEW019 BECMG 1209/1212 18015KT FEW025
HKMO,TAF HKMO 112300Z 1200/1306 21005KT 9999 FEW020 BECMG 1209/1212 15015KT FEW026
HKNW,TAF HKNW 111700Z 1118/1218 09010KT 9999 BKN026 BECMG 1120/1123 VRB03KT SCT018 BECMG 1208/1211 09010KT BKN025
HLGD,TAF HLGD 112300Z 1200/1224 18010KT 8000 NSC BECMG1208/1210 24010KT BECMG1218/1220 VRB02KT
HLGT,TAF HLGT 112300Z 1200/1224 VRB02KT 8000 NSC
HLKF,TAF HLKF 112300Z 1200/1224 36005KT CAVOK
HLLB,TAF HLLB 112300Z 1200/1224 VRB02KT 8000 FEW025 BECMG1203/1205 14010KT BECMG1212/1214 22010KT BECMG1218/1220 VRB02KT
HLLM,TAF HLLM 112300Z 1200/1224 VRB02KT 8000 NSC BECMG 1214/1216 07010KT
HLLQ,TAF HLLQ 112300Z 1200/1224 VRB02KT 8000 NSC
HLLS,TAF HLLS 112300Z 1200/1224 VRB02KT CAVOK
HLMS,TAF HLMS 112300Z 1200/1224 VRB02KT 8000 NSC BECMG 1214/1216 04010KT
HLTD,TAF HLTD 112300Z 1200/1224 VRB02KT 8000 NSC BECMG1212/1214 16010KT
HLTQ,TAF HLTQ 112300Z 1200/1224 VRB02KT 8000 FEW025
HLUB,TAF HLUB 112300Z 1200/1224 VRB02KT 8000 NSC
HRYR,HRYR 112300Z 1200/1306 35004KT 9999 SCT026 SCT100 BECMG 1205/1208 16008KT BKN023 TEMPO 1211/1215 08014G28KT TSRA FEW022CB BKN025 BECMG 1219/1222 34008KT NSW SCT026 SCT100 BECMG 1302/1305 26004KT
HSKA,TAF HSKA 112300Z 1200/1306 18006KT CAVOK TEMPO 1212/1217 VRB03KT 9999 SCT140
HSOB,TAF HSOB 112300Z 1200/1306 21010G20KT 9999 FEW040 SCT140
HSPN,TAF HSPN 112300Z 1200/1306 30008KT CAVOK BECMG 1205/1207 05010G20KT 9999 SCT140
HSSK,TAF HSSK 112300Z 1200/1306 24008G18KT CAVOK TEMPO 1211/1216 9999 FEW040 SCT140
HTAR,HTAR 111100Z 1112/1212 13010KT 9999 FEW035
HTDA,HTDA 111100Z 1112/1218 14015KT 9999 SCT040 BECMG 1118/1121 16005KT BECMG 1208/1211 15015KT
HTDO,HTDO 110500Z 1106/1206 08012KT 9999 FEW019
HTKA,HTKA 111100Z 1112/1212 18008KT 9999 FEW020 TEMPO 1112/1116 28012KT
HTKJ,HTKJ 111100Z 1112/1212 08010KT 9999 SCT035
HTMW,HTMW 110500Z 1106/1206 10010KT 9999 TS SCT025 FEW026CB BECMG 1111/1113 29010KT NSW
HTTB,HTTB 110500Z 1106/1206 15010KT 9999 SCT022
HTZA,HTZA 111100Z 1112/1212 13020KT 9999 FEW022 BECMG 1118/1120 13005KT BECMG 1203/05 20010KT SCT016
HUEN,TAF HUEN 111100Z 1112/1218 35007KT 9999 FEW024 FEW026CB BECCMG 1123/1303 19011KT SCT020 FEW022CB BECMG 1205/1208 VRB09KT 9000 -DZ SCT020 FEW022CB
HUSO,TAF HUSO 110500Z 1106/1206 02006KT 9999 FEW019 BKN100 BECMG 1109/1112 14008KT SCT021 FEW023CB FM 111500 27009KT -TSRA BKN019 FEW021CB BECMG 1203/1206 36005KT FEW018 BKN100
KABE,KABE 112325Z 1200/1224 23005KT P6SM SKC FM120200 VRB02KT P6SM SKC FM121400 18005KT P6SM SCT250 FM121600 17010KT P6SM BKN250 FM122200 14005KT P6SM BKN200
KABI,KABI 112320Z 1200/1224 20013G21KT P6SM FEW060 FM120300 20012KT P6SM SKC FM121400 27013KT P6SM SKC FM121500 34015G23KT P6SM SKC
KABQ,KABQ 112323Z 1200/1224 26010G18KT P6SM SCT100 FM120200 VRB06KT P6SM SKC FM122200 28010KT P6SM SKC
KABR,KABR 112325Z 1200/1224 32015G25KT P6SM OVC150 FM120400 27009KT P6SM SCT250 FM121500 32019G35KT P6SM BKN250
KABY,KABY 112320Z 1200/1224 13006KT P6SM SCT100 FM120800 09002KT 5SM BR OVC006 FM121800 12004KT P6SM BKN035
KACK,KACK 112329Z 1200/1224 25006KT P6SM SKC FM121500 23010KT P6SM FEW250 FM122300 21008KT P6SM FEW240
KACT,KACT 112321Z 1200/1224 17011KT P6SM SCT150 FM121500 22012KT P6SM SCT250 FM122100 30013KT P6SM FEW040 SCT250
KACV,KACV 112351Z 1200/1224 VRB05KT 1SM BR BKN002 TEMPO 1200/1202 1/2SM FG VV002 FM120200 14003KT 1/2SM FG OVC002 FM121800 23004KT 6SM BR SCT005
KACY,KACY 112325Z 1200/1224 20005KT P6SM SKC FM120100 VRB03KT P6SM SKC FM121400 19005KT P6SM SCT250 FM121600 16010KT P6SM SCT250 FM122000 15008KT P6SM BKN250
KADF,KADF 112335Z 1200/1224 18006KT P6SM VCSH BKN100 TEMPO 1200/1202 -RA FM120200 VRB04KT P6SM SCT100 BKN250 FM121500 21008KT P6SM VCSH SCT040 OVC100 FM122100 25012KT P6SM VCTS SCT050CB BKN120 PROB30 1221/1224 4SM -TSRA BR BKN030CB
KADW,TAF KADW 111700Z 1117/1223 23005KT 9999 SKC QNH3029INS BECMG 1121/1122 18005KT 9999 SKC QNH3019INS BECMG 1214/1215 19010G18KT 9999 FEW030 BKN150 QNH3008INS BECMG 1220/1221 17010KT 9999 OVC030 QNH3008INS TX22/1119Z TN08/1210Z
KAEG,KAEG 112323Z 1200/1224 28013KT P6SM SCT100 FM120200 VRB06KT P6SM SKC FM122200 30010KT P6SM SKC
KAEX,KAEX 112329Z 1200/1224 15005KT P6SM SCT100 BKN200 FM121200 17005KT P6SM OVC025 FM121600 20007KT P6SM VCSH FEW023 OVC050 FM121900 19008KT P6SM BKN200
KAFF,TAF KAFF 111900Z 1119/1301 30012G18KT 9999 FEW100 FEW250 520006 QNH2990INS WND 240V360 TEMPO 1119/1201 30015G25KT BECMG 1200/1201 35012KT 9999 SCT180 530109 QNH2994INS TEMPO 1201/1204 35018G28KT BECMG 1208/1209 VRB06KT 9999 SKC 520205 QNH3010INS ROTOR CONDS EXIST BECMG 1213/1214 15009KT 9999 SKC QNH3011INS BECMG 1219/1220 01012G18KT 9999 FEW080 QNH3012INS WND 330V070 TEMPO 1222/1301 36015G25KT 520009 TX23/1121Z TN00/1213Z LAST NO AMDS AFT 1200 NEXT 1211
KAFW,KAFW 112321Z 1200/1224 17011KT P6SM SCT070 BKN150 FM121400 22015KT P6SM SCT250 FM121900 31013KT P6SM FEW050 SCT250 FM122200 35014KT P6SM FEW250
KAGC,KAGC 112322Z 1200/1224 16003KT P6SM SKC FM122100 18007KT P6SM VCSH OVC100
KAGS,KAGS 112340Z 1200/1224 VRB04KT P6SM BKN040 FM121100 11005KT P6SM SCT010 BKN025 FM122000 13006KT P6SM VCSH SCT018 BKN025
KAHN,KAHN 112336Z 1200/1224 10004KT P6SM SCT050 FM120600 12005KT P6SM BKN020 FM120900 11004KT P6SM OVC010 TEMPO 1211/1215 -DZ BKN005 FM121600 15006KT P6SM VCSH BKN012 PROB30 1218/1222 5SM SHRA BKN025 FM122300 18007KT 5SM -SHRA BR BKN015
KAIA,KAIA 112334Z 1200/1224 33020G30KT P6SM VCSH SCT120 FM120200 30010KT P6SM BKN250 FM120800 27008KT P6SM FEW250 FM121600 33015G25KT P6SM FEW250
KALB,KALB 112337Z 1200/1224 13003KT P6SM SKC FM121500 17009KT P6SM SCT200
KALI,KALI 112330Z 1200/1224 13009KT P6SM SCT040 FM120900 VRB03KT 4SM BR SCT015 BKN100 TEMPO 1209/1213 1/2SM FG VV003 FM121500 18007KT P6SM FEW025 SCT050
KALO,KALO 112339Z 1200/1224 18015G23KT P6SM SCT035 FM120600 20013G23KT P6SM SCT070 BKN250 WS020/22045KT FM120900 29012KT P6SM VCSH BKN070 FM121300 28010KT P6SM SCT250 FM121700 29018G28KT P6SM BKN110
KALS,KALS 112331Z 1200/1224 29013KT P6SM BKN110 TEMPO 1200/1202 24015G25KT FM120200 31009KT P6SM SCT110 FM120400 VRB06KT P6SM SKC
KALW,KALW 112320Z 1200/1224 22006KT P6SM SKC FM120200 12007KT P6SM SKC FM121800 24006KT P6SM SKC
KAMA,KAMA 112337Z 1200/1224 21017KT P6SM SKC FM120800 33017KT P6SM SKC WS020/01040KT FM121300 36015KT P6SM SKC FM122100 21008KT P6SM SKC
KANB,KANB 112340Z 1200/1224 09003KT P6SM FEW250 FM121500 16009KT P6SM BKN040 PROB30 1215/1217 4SM SHRA BR OVC025 FM121700 18010G21KT P6SM BKN022 PROB30 1217/1218 4SM SHRA BR OVC015 FM121900 20010KT 6SM SHRA BR VCTS BKN030CB FM122300 20008KT 6SM SHRA BR VCTS SCT023CB
KAND,KAND 112330Z 1200/1224 08006KT P6SM BKN045 FM120600 06005KT P6SM OVC025 FM121000 06004KT P6SM OVC015 FM121400 10005KT P6SM VCSH OVC008 FM121800 08007KT P6SM OVC007 PROB30 1218/1224 4SM -SHRA BR OVC004
KAOO,KAOO 112320Z 1200/1224 17005KT P6SM SKC FM120200 VRB02KT P6SM SCT250 FM121500 18008G15KT P6SM BKN120 OVC200
KAPA,KAPA 112335Z 1200/1224 VRB06KT P6SM SCT090 BKN140 BKN220 FM120100 02014G26KT P6SM VCSH SCT100 BKN140 BKN220 FM120300 01010KT P6SM FEW100 SCT140 BKN220 FM120500 VRB05KT P6SM FEW220 FM120700 19007KT P6SM SKC FM121500 VRB06KT P6SM SKC FM121800 33010KT P6SM FEW100 FM122200 01012KT P6SM FEW100
KAPC,KAPC 112320Z 1200/1224 19012KT P6SM SKC FM120500 VRB04KT P6SM SKC FM120900 VRB03KT 2SM BR BKN004 FM121700 VRB05KT P6SM SKC FM122000 22012KT P6SM SKC
KAPF,KAPF 112338Z 1200/1224 09007KT P6SM VCTS SCT030CB BKN050 FM120300 VRB05KT P6SM FEW030 SCT250 FM121500 13008KT P6SM VCSH SCT025 BKN050 FM121800 22010KT P6SM VCTS BKN025CB BKN040 AMD NOT SKED
KAPN,KAPN 112320Z 1200/1224 18008G16KT P6SM SCT070 FM120500 19011G19KT P6SM -SHRA OVC035 FM120600 19012G21KT P6SM -SHRA OVC015 FM121100 19011G21KT P6SM VCSH OVC030 FM121400 19012G22KT P6SM VCSH BKN035
KARA,KARA 112329Z 1200/1224 VRB05KT P6SM BKN050 FM121000 14004KT P6SM VCSH SCT030 BKN050 TEMPO 1211/1214 5SM BR BKN015 FM121600 20009KT P6SM VCSH SCT050 BKN150 PROB30 1217/1220 4SM SHRA BR BKN050 FM122100 21008KT P6SM SCT250
KART,KART 112336Z 1200/1224 00000KT P6SM SKC FM120200 19007KT P6SM FEW250 FM121200 17008KT P6SM SCT250 FM121400 18011G18KT P6SM SCT250 FM121500 19012G20KT P6SM BKN250 FM122100 18012KT P6SM BKN250
KASD,KASD 112327Z 1200/1224 VRB03KT P6SM SCT050 BKN250 FM121200 00000KT 6SM -SHRA BR BKN015 OVC050 FM121500 18006KT P6SM -SHRA VCTS BKN020CB BKN050
KASE,KASE 112320Z 1200/1224 33020G30KT P6SM FEW250 FM120200 27009KT P6SM SCT250 FM120500 20004KT P6SM FEW250
KASN,KASN 112340Z 1200/1224 10004KT P6SM FEW250 FM121400 16006KT P6SM BKN045 PROB30 1215/1216 4SM SHRA BR OVC025 FM121600 18009KT P6SM BKN045 PROB30 1216/1217 4SM SHRA BR OVC025 FM121700 19010KT P6SM BKN022 PROB30 1217/1218 4SM SHRA BR OVC015 FM121800 19010KT 6SM SHRA BR VCTS BKN030CB FM122300 20007KT 6SM SHRA BR VCTS SCT025CB
KAST,KAST 112323Z 1200/1224 02004KT P6SM SKC
KATL,KATL 112336Z 1200/1306 14008KT P6SM FEW050 FM120600 12007KT P6SM BKN020 FM120900 11007KT P6SM OVC010 TEMPO 1211/1215 -DZ BKN005 FM121600 15006KT P6SM VCSH BKN012 PROB30 1218/1222 5SM SHRA BKN025 FM122300 18007KT 5SM -SHRA BR BKN015 FM130300 18005KT 6SM -SHRA BKN009
KATW,KATW 112338Z 1200/1224 20015G25KT P6SM OVC015 TEMPO 1200/1202 -SHRA FM120600 20015G26KT P6SM OVC014 WS020/22040KT FM121000 20014G24KT P6SM -SHRA OVC014 WS020/22045KT TEMPO 1210/1214 5SM TSRA BKN012 OVC035CB FM121400 24014G24KT 5SM -SHRA OVC012 WS020/22045KT FM121900 26013G23KT P6SM SCT035 BKN070
KATY,KATY 112325Z 1200/1224 32015G25KT P6SM OVC250 FM120700 28011KT P6SM SCT250 FM121500 31024G35KT P6SM BKN250
KAUG,KAUG 112323Z 1200/1224 VRB03KT P6SM SKC FM121700 21005KT P6SM SKC
KAUS,KAUS 112323Z 1200/1306 18009KT P6SM SCT070 FM120800 21005KT P6SM BKN014 FM121600 22007KT P6SM SCT060 FM130200 36005KT P6SM SCT060
KAUW,KAUW 112338Z 1200/1224 18014G24KT P6SM BKN025 OVC040 FM120400 20012G22KT P6SM OVC013 WS020/21035KT FM120800 22011G19KT P6SM -SHRA OVC013 TEMPO 1208/1212 5SM TSRA SCT015 OVC035CB FM121200 26012G20KT 5SM -SHRA OVC013 TEMPO 1216/1217 P6SM BKN025 FM121700 27014G25KT P6SM SCT035 BKN070 TEMPO 1222/1224 -SHRA
KAVL,KAVL 112330Z 1200/1224 16006KT P6SM BKN050 FM120800 16003KT P6SM BKN025 FM121000 16003KT 5SM BR OVC015 FM121400 16005KT P6SM OVC015 FM121800 17007KT P6SM OVC010 PROB30 1218/1224 4SM -SHRA BR OVC007
KAVP,KAVP 111720Z 1118/1218 24006G12KT P6SM SKC FM121400 20007G13KT P6SM FEW250
KAXN,KAXN 112320Z 1200/1224 30017G28KT P6SM BKN250 TEMPO 1204/1206 -SHRA BKN090 FM120600 29012KT P6SM SCT100 FM121500 30019G31KT P6SM BKN060 PROB30 1216/1221 -SHRA BKN040
KAZO,KAZO 112348Z 1200/1224 18012G20KT P6SM -SHRA BKN025 OVC050 TEMPO 1200/1203 3SM SHRA BR BKN015 OVC025 FM120300 19014G21KT P6SM -SHRA OVC035 WS020/21050KT FM121600 19018G38KT P6SM -SHRA OVC035 FM122000 23013G22KT 4SM SHRA BR BKN015 FM122300 23010KT P6SM VCSH BKN035
KBAB,TAF KBAB 111900Z 1119/1301 29006KT 9999 SKC QNH2989INS WND VRB06KT AFT 1202 BECMG 1217/1218 27006KT 9999 SKC QNH2995INS TX32/1123Z TN13/1214Z
KBAD,TAF KBAD 112000Z 1120/1302 17012G18KT 9999 FEW150 QNH3004INS BECMG 1201/1202 15005KT 9999 SKC QNH3002INS BECMG 1214/1215 23014G22KT 9999 SCT020 QNH2990INS BECMG 1300/1301 24010KT 9999 VCTS BKN050CB QNH2994INS TX30/1121Z TN13/1212Z
KBAF,KBAF 112329Z 1200/1224 00000KT P6SM SKC FM121500 19008KT P6SM SCT200
KBAM,KBAM 112320Z 1200/1224 33010KT P6SM SKC FM120200 VRB06KT P6SM SKC
KBBD,KBBD 112320Z 1200/1224 21012KT P6SM FEW060 FM120100 18007KT P6SM SKC FM121500 26011KT P6SM SKC FM121730 33013G21KT P6SM SKC
KBBG,KBBG 112329Z 1200/1224 18007KT P6SM BKN220 FM121100 21009KT P6SM FEW250 WS020/23045KT TEMPO 1212/1215 VRB15G30KT 3SM TSRA BR OVC030CB FM121500 24010G21KT P6SM BKN150 PROB30 1215/1216 4SM TSRA BR OVC025CB FM121600 27010G19KT P6SM OVC070 FM121700 29010KT P6SM BKN070 FM122100 32010KT P6SM FEW220
KBCB,KBCB 112321Z 1200/1224 07005KT P6SM SCT250 FM120900 VRB02KT 3SM BR BKN250 FM121100 00000KT 1SM BR SCT050 BKN100 FM121300 00000KT P6SM BKN100 FM121600 18007KT P6SM BKN090
KBCE,KBCE 112340Z 1200/1224 31012G22KT P6SM FEW200 FM120300 29009KT P6SM SKC
KBDL,KBDL 112329Z 1200/1306 19003KT P6SM SKC FM121600 20008KT P6SM FEW230 FM121900 20010G18KT P6SM SCT200 FM122300 18006KT P6SM SCT200
KBDN,KBDN 112320Z 1200/1224 35007KT P6SM SKC FM120200 VRB05KT P6SM SKC FM120500 20005KT P6SM SKC FM122100 36006KT P6SM SKC
KBDR,KBDR 112334Z 1200/1224 21007KT P6SM SKC FM120200 23005KT P6SM SKC FM120400 VRB03KT P6SM SKC FM121400 23005KT P6SM FEW250 FM121600 21008KT P6SM FEW250 FM122000 19010KT P6SM SCT250
KBED,KBED 112329Z 1200/1224 00000KT P6SM SKC FM121500 21008KT P6SM FEW250
KBFD,KBFD 112320Z 1200/1224 VRB03KT P6SM SCT250 FM121500 18009G16KT P6SM BKN120 OVC250 FM122200 18009KT P6SM VCSH BKN050
KBFF,KBFF 112334Z 1200/1224 32020G30KT P6SM VCSH SCT110 FM120200 32010KT P6SM SCT200 FM120500 VRB06KT P6SM FEW250 FM121600 33015G25KT P6SM FEW250
KBFI,KBFI 112320Z 1200/1224 33005KT P6SM SKC FM120400 01003KT P6SM SKC FM121500 VRB02KT P6SM SKC FM121900 33003KT P6SM SKC
KBFL,KBFL 112320Z 1200/1224 32007KT P6SM FEW100 FM120600 12003KT P6SM SKC
KBFM,KBFM 112344Z 1200/1224 16007KT P6SM VCSH FEW020 SCT050 FM120600 VRB03KT P6SM VCSH SCT015 BKN030 FM121000 12005KT 6SM -RA VCTS BKN020CB FM121500 18009KT 6SM TSRA BKN030CB
KBGM,KBGM 111720Z 1118/1218 23006G12KT P6SM SKC FM112300 20005KT P6SM SKC FM121400 18010G18KT P6SM SCT200
KBGR,KBGR 112320Z 1200/1224 VRB02KT P6SM SCT250 TEMPO 1207/1211 1SM BR SCT002 FM121500 21005KT P6SM FEW040 SCT250
KBHB,KBHB 112320Z 1200/1224 VRB02KT P6SM SCT250 FM120700 VRB02KT 1/2SM FG BKN002 FM121200 00000KT P6SM FEW002 SCT035 FM121300 23004KT P6SM FEW040 SCT250
KBHM,KBHM 112340Z 1200/1224 13004KT P6SM FEW070 SCT250 FM121400 16006KT P6SM BKN012 FM121500 16008KT P6SM BKN018 PROB30 1215/1216 4SM SHRA BR BKN025 FM121600 18008KT P6SM BKN020 PROB30 1216/1218 4SM SHRA BR OVC030 FM121900 19011KT 6SM SHRA BR VCTS BKN035CB PROB30 1221/1222 4SM TSRA BR OVC012CB FM122200 19009KT P6SM SCT026 SCT040 PROB30 1222/1224 4SM TSRA BR BKN026CB BKN035
KBIF,TAF KBIF 112200Z 1122/1304 27009KT 9999 FEW070 QNH3003INS TX28/1222Z TN12/1213Z
KBIH,KBIH 112320Z 1200/1224 VRB06KT P6SM FEW250 FM120400 34007KT P6SM SKC FM121800 VRB06KT P6SM SKC
KBIL,KBIL 112340Z 1200/1224 25008KT P6SM SCT090 FM120900 34008KT P6SM FEW100 FM121500 01009KT P6SM BKN080
KBIS,KBIS 112320Z 1200/1224 30016G24KT P6SM FEW150 FM120300 28009KT P6SM FEW250 FM121200 29015G23KT P6SM SCT150 FM121700 32025G38KT P6SM FEW250
KBIX,TAF KBIX 111800Z 1118/1224 14009KT 9999 SCT200 QNH3007INS BECMG 1123/1124 VRB06KT 9999 SCT020 BKN040 QNH3000INS TEMPO 1209/1212 17009KT 8000 -SHRA BKN015 BECMG 1211/1212 15009KT 9999 VCSH BKN015 OVC065 QNH2993INS TEMPO 1216/1224 VRB15G25KT 4800 -TSRA BKN010 OVC030CB TX28/1120Z TN13/1212Z
KBJC,KBJC 112335Z 1200/1224 27018G30KT P6SM SCT090 BKN140 BKN220 FM120020 02014G28KT P6SM VCSH SCT100 BKN140 BKN220 FM120200 03008KT P6SM FEW100 SCT140 BKN220 FM120400 VRB05KT P6SM FEW220 FM121600 34007KT P6SM FEW100 FM122000 35010KT P6SM FEW100
KBJI,KBJI 112331Z 1200/1224 29010KT P6SM BKN220 FM120400 30008KT P6SM VCSH OVC080 FM120600 VRB04KT P6SM OVC110 FM121400 28008KT P6SM SCT120 FM121600 29011KT P6SM BKN100 FM121800 30015G20KT P6SM BKN050
KBKE,KBKE 112320Z 1200/1224 33011KT P6SM SKC FM120300 VRB04KT P6SM SKC
KBKF,TAF KBKF 111700Z 1117/1223 VRB06KT 9999 SKC 520053 QNH2996INS BECMG 1118/1119 29020G25KT 9999 SKC 520073 QNH2986INS BECMG 1123/1124 29006KT 9999 SCT110 BKN170 BKN230 520053 QNH2988INS TX23/1120Z TN06/1206Z
KBKW,KBKW 112320Z 1200/1224 14005KT P6SM BKN230 FM121400 18007KT P6SM BKN160 FM122200 18009G16KT P6SM BKN070
KBLF,KBLF 112321Z 1200/1224 07005KT P6SM SCT250 FM121700 18007KT P6SM BKN090 FM122100 18010KT P6SM OVC050
KBLH,KBLH 112344Z 1200/1224 11010KT P6SM VCSH SCT100 BKN150 FM120200 25005KT P6SM FEW150 FM120900 35005KT P6SM SKC FM121900 16005KT P6SM FEW100
KBLI,KBLI 112320Z 1200/1224 22005KT P6SM SKC FM120400 00000KT P6SM SKC FM121200 02003KT P6SM SKC FM121800 36004KT 6SM BR HZ SKC
KBLV,TAF KBLV 120000Z 1200/1306 16006KT 9999 FEW060 BKN100 QNH2983INS BECMG 1214/1215 18015G20KT 9000 -SHRA FEW030 OVC050 QNH2977INS BECMG 1217/1218 23015G20KT 9000 -SHRA FEW020 OVC030 QNH2975INS BECMG 1220/1221 30018KT 9999 NSW SKC 510053 QNH2978INS BECMG 1223/1224 VRB06KT 9999 SKC QNH2984INS TX22/1201Z TN11/1305Z
KBMG,KBMG 112338Z 1200/1224 17008KT P6SM BKN220 FM121100 19009KT P6SM BKN090 FM121500 20013G25KT P6SM VCSH BKN120 FM121800 21014G25KT P6SM -SHRA BKN090 FM122100 23013G26KT P6SM -SHRA OVC040 FM122300 23012G24KT P6SM -SHRA OVC030 AMD LTD TO CLD VIS AND WIND 1201/1213
KBMI,KBMI 112335Z 1200/1224 17014KT P6SM VCSH SCT030 BKN050 FM120100 18013G18KT P6SM VCSH BKN040 WS020/22045KT FM121300 20014G22KT P6SM VCSH BKN040 OVC080 TEMPO 1213/1216 4SM -SHRA BKN025 FM121800 24015G24KT P6SM -SHRA OVC015 FM122000 27014G23KT P6SM -SHRA BKN045
KBNA,KBNA 112320Z 1200/1224 15006KT P6SM SCT200 SCT250 FM121600 19014G22KT P6SM SCT180 FM122300 20010G15KT P6SM VCTS SCT050CB BKN100
KBNO,KBNO 112320Z 1200/1224 VRB05KT P6SM SKC TEMPO 1202/1206 31007KT
KBOI,KBOI 112320Z 1200/1224 32015G22KT P6SM SKC FM120100 32011KT P6SM SKC FM120400 16005KT P6SM SKC FM121800 31007KT P6SM SKC
KBOS,KBOS 112329Z 1200/1306 23006KT P6SM SKC FM121500 23010KT P6SM SKC FM121700 20010G18KT P6SM FEW250 FM130000 20008KT P6SM SCT250
KBPI,KBPI 112328Z 1200/1224 34020G30KT P6SM SKC FM120200 34010KT P6SM SCT200 FM120900 VRB06KT P6SM SKC FM121700 29015G30KT P6SM SKC
KBPK,KBPK 112335Z 1200/1224 18008KT P6SM BKN120 FM120900 17006KT P6SM SCT100 BKN250 WS020/23040KT FM121600 24010G18KT 6SM -SHRA VCTS SCT050CB BKN100 PROB30 1216/1220 3SM TSRA BR OVC025CB FM122000 30008G16KT P6SM VCSH BKN100
KBPT,KBPT 112329Z 1200/1224 15005KT P6SM SCT250 FM120900 14003KT P6SM VCSH SCT017 BKN050 FM121900 19010KT P6SM FEW090 SCT250
KBRD,KBRD 112320Z 1200/1224 20012G20KT P6SM SCT150 FM120300 28012G19KT P6SM VCSH SCT060 BKN110 FM120900 29008KT P6SM SCT100 FM121600 29014G22KT P6SM VCSH SCT025 BKN050 FM121900 30016G25KT P6SM VCSH BKN030
KBRL,KBRL 112338Z 1200/1224 18013G29KT P6SM SCT025 WS020/21040KT TEMPO 1204/1207 5SM -SHRA BR FM121000 22011G21KT 6SM -SHRA VCTS OVC020CB FM121200 25010KT P6SM VCSH BKN015 FM121700 29012KT P6SM SCT035
KBRO,KBRO 112320Z 1200/1224 09010KT P6SM FEW030 FM120900 00000KT P6SM SCT110 FM121300 VRB03KT 5SM BR BKN006 FM121400 VRB03KT P6SM SCT035 FM122000 10008KT P6SM BKN060
KBTL,KBTL 112348Z 1200/1224 18012G20KT P6SM -SHRA BKN025 OVC050 TEMPO 1200/1203 3SM SHRA BR BKN015 OVC025 FM120300 19014G21KT P6SM -SHRA OVC035 WS020/21050KT FM121600 19018G38KT P6SM -SHRA OVC035 FM122000 23013G22KT 4SM SHRA BR BKN015
KBTM,KBTM 112327Z 1200/1224 30015G26KT P6SM SKC FM120100 30010G18KT P6SM SKC FM120400 32008KT P6SM SKC FM122100 30010G12KT P6SM SKC
KBTR,KBTR 112327Z 1200/1224 VRB03KT P6SM BKN250 FM121100 VRB04KT 6SM BR VCSH BKN020 BKN060 FM121600 VRB04KT P6SM -SHRA BKN020 BKN050 FM121900 21008KT P6SM -SHRA VCTS BKN025CB BKN050
KBTV,KBTV 112320Z 1200/1224 17004KT P6SM SKC FM121300 18007KT P6SM SCT250 FM121700 18012G18KT P6SM BKN200
KBUF,KBUF 112336Z 1200/1224 20006KT P6SM FEW060 FEW100 FM120200 19007KT P6SM FEW250 FM121200 18008KT P6SM BKN100 FM121400 19011G18KT P6SM BKN100 FM121700 20013G22KT P6SM BKN100 FM122200 19012G19KT P6SM BKN100
KBUR,KBUR 112349Z 1200/1224 17006KT P6SM -TSRA SCT100CB FM120400 VRB03KT P6SM SCT250 FM120700 VRB03KT P6SM OVC012 FM121500 VRB03KT P6SM OVC015
KBVI,KBVI 112322Z 1200/1224 20005KT P6SM SKC FM122100 18007KT P6SM VCSH OVC100 AMD LTD TO WIND VIS AND WX
KBVO,KBVO 112337Z 1200/1224 18012G23KT P6SM FEW060 FM120200 18010KT P6SM FEW040 FEW090 WS020/21045KT FM121100 VRB05KT P6SM SCT030 BKN090 WS020/21040KT PROB30 1211/1214 -RA BKN035 FM121400 35011KT P6SM FEW150
KBWG,KBWG 112329Z 1200/1224 19010KT P6SM BKN080
KBWI,KBWI 112322Z 1200/1306 15005KT P6SM FEW250 FM120300 00000KT P6SM FEW250 FM121400 19004KT P6SM FEW250 FM121700 18007KT P6SM BKN250 FM122300 15005KT P6SM SCT250
KBYI,KBYI 112320Z 1200/1224 28015G25KT P6SM SKC FM120200 22010KT P6SM SKC FM121200 VRB03KT P6SM SKC FM121900 28006KT P6SM SKC
KBZN,KBZN 112333Z 1200/1306 30012KT P6SM SKC FM120300 23009KT P6SM SKC FM121800 29008KT P6SM FEW250 FM130400 22007KT P6SM FEW250
KCAE,KCAE 112340Z 1200/1224 VRB04KT P6SM BKN040 FM121100 08005KT P6SM SCT015 BKN035 FM122200 13005KT P6SM VCSH SCT018 BKN030
KCAK,KCAK 112337Z 1200/1224 19012KT P6SM SCT250 FM120700 17007KT P6SM BKN250 FM121400 19011KT P6SM BKN250 FM122000 18015G25KT P6SM VCSH BKN100
KCAR,KCAR 112320Z 1200/1224 VRB03KT P6SM SKC FM121500 20007KT P6SM SCT200
KCBM,TAF KCBM 111700Z 1117/1223 13006KT 9999 FEW150 SCT250 QNH3015INS BECMG 1122/1123 15006KT 9999 BKN140 QNH3011INS BECMG 1205/1206 15005KT 9999 VCSH SCT006 BKN020 OVC120 QNH3008INS BECMG 1210/1211 16003KT 8000 BR SCT005 BKN020 OVC120 QNH3010INS TEMPO 1211/1214 BKN005 OVC020 BECMG 1213/1214 15006KT 9999 VCSH SCT008 BKN015 OVC120 QNH3006INS TEMPO 1214/1216 VRB12G20KT 6000 -SHRA VCTS BKN007 OVC012CB BECMG 1215/1216 16007KT 9999 VCSH SCT008 OVC012 QNH3001INS BECMG 1217/1218 18007KT 9999 NSW FEW012 OVC025 QNH2998INS TX27/1121Z TN14/1211Z
KCDC,KCDC 112340Z 1200/1224 30011KT P6SM SKC FM120200 13007KT P6SM SKC FM121800 35005KT P6SM SKC
KCDR,KCDR 112334Z 1200/1224 31012G22KT P6SM VCSH OVC100 FM120200 27006KT P6SM SCT250 FM120800 25008KT P6SM FEW250 FM121400 32015G25KT P6SM FEW250
KCDS,KCDS 112338Z 1200/1224 19015KT P6SM SKC FM120800 25015KT P6SM SKC FM121000 01020G30KT P6SM SKC FM121900 02009KT P6SM SKC
KCEC,KCEC 112321Z 1200/1224 18006KT 5SM HZ OVC006 FM120500 17005KT 1/2SM FG OVC002 FM121700 19005KT 5SM HZ BKN005
KCEF,TAF KCEF 111800Z 1118/1224 25007KT 9999 FEW055 FEW250 QNH3021INS BECMG 1121/1122 22004KT 9999 SKC QNH3022INS BECMG 1208/1209 VRB03KT 4000 BR SCT003 QNH3021INS TEMPO 1209/1213 2400 BR BKN003 BECMG 1212/1213 21005KT 9999 NSW FEW015 QNH3015INS BECMG 1216/1217 20010G16KT 9999 FEW045 FEW250 510053 QNH3010INS BECMG 1221/1222 18009KT 9999 FEW180 SCT250 510053 QNH3011INS TX20/1120Z TN05/1211Z
KCGI,KCGI 112320Z 1200/1224 18007KT P6SM SCT100 BKN250 FM121300 20011G20KT P6SM VCSH SCT100 BKN250 PROB30 1216/1220 3SM TSRA BKN050CB FM122100 25015G21KT P6SM BKN060
KCHA,KCHA 112327Z 1200/1224 VRB03KT P6SM FEW050 SCT250 FM120700 VRB03KT P6SM BKN050 FM120900 19004KT P6SM OVC025 FM121100 00000KT P6SM OVC015 FM121600 17008KT P6SM OVC020 FM122100 19010G17KT P6SM -SHRA OVC025 PROB30 1221/1224 4SM TSRA BR OVC008CB
KCHO,KCHO 112322Z 1200/1224 16003KT P6SM FEW250 FM120200 00000KT P6SM SCT250 FM121400 19006KT P6SM SCT250 FM121800 16006KT P6SM SCT250
KCHS,KCHS 112320Z 1200/1224 06009KT P6SM SCT035 BKN070 FM121400 10009KT P6SM BKN040 FM121900 13009KT P6SM VCSH SCT025 OVC040
KCID,KCID 112338Z 1200/1224 17013G27KT P6SM FEW020 BKN040 FM120200 20014G30KT P6SM SCT100 WS020/22040KT FM120800 22013G27KT P6SM VCTS BKN040CB BKN100 TEMPO 1209/1212 5SM -TSRA BR FM121400 30010G19KT P6SM SCT050 FM121600 27015G25KT P6SM SCT030
KCIU,KCIU 112320Z 1200/1224 14010G16KT P6SM FEW210 FM120400 17010G16KT P6SM OVC030 FM120500 18010G15KT P6SM OVC020 FM121400 18013G23KT P6SM -SHRA OVC011
KCKB,KCKB 112320Z 1200/1224 VRB03KT P6SM SCT250 FM121300 17004KT P6SM BKN220 FM121500 20007KT P6SM BKN150 FM122000 19009G17KT P6SM BKN090 FM122300 17006KT P6SM SCT100 WS015/19030KT
KCKV,KCKV 112320Z 1200/1224 17004KT P6SM SKC FM121500 19012G20KT P6SM SCT220 FM122300 22007KT 6SM -SHRA VCTS SCT035CB OVC070
KCLE,KCLE 112337Z 1200/1306 18009KT P6SM BKN250 FM121700 19010G20KT P6SM OVC100 FM130300 20010G20KT 5SM -SHRA BR OVC015 FM130500 24010KT 5SM -SHRA BR OVC025
KCLL,KCLL 112323Z 1200/1224 18011KT P6SM FEW060 FM120200 18005KT P6SM FEW250 FM120900 VRB02KT 5SM BR FEW008 BKN014 FM121400 20005KT P6SM SCT014 FM121900 23007KT P6SM FEW025 FEW100
KCLM,KCLM 112320Z 1200/1224 07004KT P6SM SKC FM120400 24003KT P6SM SKC FM121200 19003KT P6SM BKN250 FM121800 VRB03KT P6SM SKC
KCLT,KCLT 112330Z 1200/1306 12006KT P6SM BKN060 FM120600 08003KT P6SM OVC045 FM121600 15005KT P6SM BKN030 FM122000 14007KT P6SM BKN035 PROB30 1220/1224 4SM -SHRA BR OVC025 FM130000 15007KT 6SM -SHRA BR OVC017 FM130300 15008KT 6SM -SHRA BR OVC007
KCMA,KCMA 112349Z 1200/1224 24008KT P6SM SCT020 FM120300 VRB03KT P6SM OVC015 FM120800 VRB03KT 5SM BR OVC008 FM121000 VRB03KT P6SM OVC013 FM121800 26005KT 6SM HZ VCSH BKN015 FM122100 27010KT P6SM OVC025
KCMH,KCMH 112340Z 1200/1224 16004KT P6SM SCT250 FM121100 17005KT P6SM SCT050 OVC100 FM121500 18011G21KT P6SM SCT025 BKN100 FM122000 19015G25KT P6SM VCSH SCT030 OVC070
KCMI,KCMI 112335Z 1200/1224 14007KT P6SM VCSH SCT040 BKN060 FM120400 18013G18KT P6SM VCSH BKN040 WS020/22045KT FM121500 21016G26KT P6SM VCSH BKN040 OVC080 TEMPO 1215/1218 4SM -SHRA BKN025 FM121900 25015G25KT P6SM -SHRA BKN025 FM122200 27009KT P6SM BKN070
KCMX,KCMX 112342Z 1200/1224 17010KT P6SM SCT130 WS020/20042KT FM120900 18009KT P6SM VCSH BKN030 FM121100 21008KT 6SM -SHRA BR VCTS OVC010CB FM121300 28022G34KT 4SM -SHRA BR OVC012 FM121700 28018G27KT P6SM VCSH OVC012 FM122000 28015G24KT P6SM VCSH SCT027 BKN050
KCNM,KCNM 112320Z 1200/1224 25014KT P6SM SCT150 FM120900 28007KT P6SM FEW150
KCNU,KCNU 112320Z 1200/1224 19019G27KT P6SM SCT080 FM120500 20014KT P6SM FEW250 FM121100 24010KT P6SM VCTS BKN050CB FM121300 34014KT P6SM FEW110
KCNY,KCNY 112320Z 1200/1224 28011G20KT P6SM FEW250 FM120100 29008KT P6SM FEW250 FM120700 01004KT P6SM FEW250 FM121200 29003KT P6SM SKC
KCOD,KCOD 112328Z 1200/1224 VRB06KT P6SM FEW090 FM121700 01008KT P6SM SKC
KCOE,KCOE 112320Z 1200/1224 29011G16KT P6SM SKC FM120100 22006KT P6SM SKC FM120600 14003KT P6SM SKC FM121400 07005KT P6SM SKC FM121900 22005KT P6SM SKC
KCOF,TAF KCOF 111800Z 1118/1300 05010KT 9999 SCT030 BKN100 QNH3007INS BECMG 1123/1200 09010KT 9999 BKN030 BKN100 QNH3005INS BECMG 1214/1215 12010KT 9000 -SHRA SCT019 BKN030 BKN100 QNH2997INS TX29/1119Z TN25/1210Z
KCON,KCON 112323Z 1200/1224 VRB02KT P6SM SKC FM121800 19006KT P6SM SKC
KCOS,KCOS 112331Z 1200/1224 29015G25KT P6SM FEW100 SCT140 BKN250 FM120100 34018G28KT P6SM FEW150 SCT250 FM120300 01020G30KT P6SM FEW250 FM120500 36010KT P6SM SKC FM120900 03006KT P6SM SKC FM121500 17007KT P6SM SKC FM122100 35012KT P6SM SKC
KCOT,KCOT 112330Z 1200/1224 16007KT P6SM SCT050 TEMPO 1210/1214 3SM BR BKN020
KCOU,KCOU 112322Z 1200/1224 19013G23KT P6SM BKN070 TEMPO 1200/1201 6SM -SHRA BR FM121000 21009KT 5SM -SHRA BR VCTS BKN060CB FM121400 25009KT P6SM OVC035 FM121700 29010G18KT P6SM SCT040
KCPR,KCPR 112328Z 1200/1224 VRB06KT P6SM SKC FM120400 24010G20KT P6SM SKC FM121700 30010G20KT P6SM SKC
KCPS,KCPS 112322Z 1200/1224 18008KT P6SM BKN080 FM121300 19010G17KT 5SM -SHRA BR VCTS BKN050CB FM121600 23011G20KT P6SM OVC035 FM122100 28011G17KT P6SM SCT035
KCRE,KCRE 112323Z 1200/1224 09009KT P6SM SCT150 FM120700 06005KT P6SM SCT100 FM121700 11009KT P6SM BKN150
KCRG,KCRG 112015Z 1120/1218 03010G15KT P6SM VCSH SCT015 BKN035 BKN250 TEMPO 1120/1124 -SHRA BKN015 FM120000 06007KT P6SM VCSH BKN015 BKN070 BKN120 FM121200 04004KT P6SM SCT015 BKN070 OVC120 PROB30 1212/1218 5SM SHRA BR SCT010 BKN020
KCRP,KCRP 112330Z 1200/1224 11012G18KT P6SM SCT040 FM120100 13006KT P6SM SCT015 BKN100 TEMPO 1209/1213 4SM BR BKN015 FM121400 17009KT P6SM SCT030 BKN250
KCRQ,KCRQ 112322Z 1200/1224 VRB04KT P6SM SCT018 FM120200 VRB04KT P6SM OVC012 FM121900 26007KT P6SM SCT015
KCRW,KCRW 112320Z 1200/1224 VRB04KT P6SM BKN240 FM121300 17004KT P6SM BKN100 FM121700 20007KT P6SM BKN100
KCSG,KCSG 112336Z 1200/1224 12004KT P6SM SKC FM120600 12005KT P6SM BKN020 FM120900 11004KT P6SM OVC010 FM121600 15006KT P6SM VCSH BKN012 TEMPO 1218/1222 5SM SHRA BKN025 FM122300 18007KT 5SM -SHRA BR BKN015
KCSM,KCSM 112325Z 1200/1224 18020G30KT P6SM FEW120 FM120500 18016G24KT P6SM SCT150 WS020/21040KT FM121000 29013G23KT P6SM SKC FM121100 34017G27KT P6SM FEW250 FM121500 36020G32KT P6SM SKC FM122200 36010G15KT P6SM SKC
KCSV,KCSV 112320Z 1200/1224 00000KT P6SM SKC FM121500 18010G15KT P6SM BKN040 FM122100 19009G15KT P6SM VCTS BKN040CB
KCTB,KCTB 112333Z 1200/1224 27018G30KT P6SM SKC FM120500 30015G25KT P6SM FEW250 FM120900 33009KT P6SM FEW250
KCUB,KCUB 112340Z 1200/1224 VRB03KT P6SM BKN040 FM121100 08005KT P6SM SCT015 BKN035 FM122200 13005KT P6SM VCSH SCT018 BKN030
KCVG,KCVG 112340Z 1200/1306 17005KT P6SM SCT250 FM121300 18009KT P6SM BKN120 FM121500 19010G18KT P6SM SCT050 BKN120 FM121800 20015G25KT P6SM VCSH SCT025 BKN150 FM122200 21013KT P6SM VCTS SCT015CB BKN025 FM130200 23010KT P6SM VCSH BKN040
KCVS,TAF KCVS 111800Z 1118/1224 23015G25KT 9999 FEW080 QNH2993INS BECMG 1200/1201 24008KT 9999 FEW070 QNH2993INS BECMG 1206/1207 VRB06KT 9999 FEW070 QNH3000INS BECMG 1215/1216 12010KT 9999 FEW080 QNH2997INS
KCWA,KCWA 112338Z 1200/1224 18015G24KT P6SM BKN025 OVC040 FM120400 20012G22KT P6SM OVC013 WS020/21035KT FM120800 22011G19KT P6SM -SHRA OVC013 TEMPO 1208/1212 5SM TSRA SCT015 OVC035CB FM121200 26012G20KT 5SM -SHRA OVC013 TEMPO 1216/1217 P6SM BKN025 FM121700 27014G25KT P6SM SCT035 BKN070 TEMPO 1222/1224 -SHRA
KCXO,KCXO 112323Z 1200/1224 13007KT P6SM FEW060 FM120500 VRB03KT P6SM FEW015 FEW050 FM121000 00000KT 5SM BR BKN014 FM121500 19006KT P6SM FEW014 SCT035 FM121900 22010KT P6SM FEW050
KCXP,KCXP 112320Z 1200/1224 10006KT P6SM FEW090 SCT250 FM120300 VRB03KT P6SM SKC FM122000 06009KT P6SM FEW100
KCYS,KCYS 112334Z 1200/1224 36015G25KT P6SM VCSH SCT060 BKN070 FM120300 33010KT P6SM FEW250 FM120700 27008KT P6SM SKC FM121500 32015G25KT P6SM SKC
KDAA,TAF KDAA 112000Z 1120/1302 22006KT 9999 FEW200 QNH3030INS BECMG 1122/1123 VRB05KT 9999 SKC QNH3020INS BECMG 1212/1213 19005KT 9999 FEW040 SCT250 QNH3010INS BECMG 1216/1217 18007KT 9999 SCT030 BKN150 QNH3008INS BECMG 1220/1221 17009KT 9999 BKN030 OVC060 QNH3005INS TX23/1220Z TN08/1210Z LAST NO AMDS AFT 1201 NEXT 1212
KDAB,KDAB 112336Z 1200/1224 04004KT P6SM SCT025 SCT250 FM121400 07005KT P6SM SCT025 BKN150 FM121800 07006KT P6SM VCSH SCT035 BKN150 FM122000 06007KT P6SM VCTS SCT040CB BKN150
KDAG,KDAG 112320Z 1200/1224 08008KT P6SM SCT120 FM120300 28009KT P6SM SKC FM121800 07008KT P6SM FEW120
KDAL,KDAL 112321Z 1200/1224 17011KT P6SM SCT070 BKN150 FM121400 22015KT P6SM SCT250 FM121900 31013KT P6SM FEW050 SCT250 FM122200 35014KT P6SM FEW250
KDAN,KDAN 112321Z 1200/1224 11005KT P6SM BKN250 FM121500 VRB04KT P6SM BKN100 FM121900 18007KT P6SM BKN050
KDAY,KDAY 112340Z 1200/1224 18006KT P6SM BKN100 FM121200 18010KT P6SM BKN120 FM121400 19010G18KT P6SM BKN150 FM121700 20015G27KT P6SM SCT050 BKN100 FM122100 21016KT P6SM VCSH OVC100
KDBQ,KDBQ 112338Z 1200/1224 19015G29KT 4SM BR OVC008 FM120300 19015G33KT P6SM BKN015 WS020/21045KT FM120900 21017G33KT 6SM BR VCTS BKN035CB BKN100 TEMPO 1209/1211 5SM -TSRA BR FM121100 23014G25KT P6SM VCSH BKN025 FM121600 30013KT P6SM SCT027
KDCA,KDCA 112322Z 1200/1306 18005KT P6SM SKC FM120400 00000KT P6SM SKC FM121300 18003KT P6SM FEW250 FM121800 17008KT P6SM BKN250 FM130200 14006KT P6SM BKN150
KDDC,KDDC 112336Z 1200/1224 18013KT P6SM FEW250 FM120500 36026G43KT 5SM BLDU BKN080 WS020/36050KT FM120630 36020G35KT P6SM BKN070 FM120800 36012KT P6SM SCT100 FM121100 34007KT P6SM SKC
KDEC,KDEC 112335Z 1200/1224 16008KT P6SM VCSH SCT040 BKN080 FM120300 18011KT P6SM VCSH BKN040 WS020/22045KT FM121500 21015G24KT P6SM VCSH BKN040 OVC080 TEMPO 1215/1218 4SM -SHRA BKN025 FM121900 26015G24KT P6SM -SHRA BKN025 FM122200 27007KT P6SM SCT100
KDEN,KDEN 112335Z 1200/1306 30018KT P6SM SCT090 BKN140 BKN220 FM120010 02016G32KT P6SM VCSH SCT100 BKN140 BKN220 FM120200 01012KT P6SM FEW100 SCT140 BKN220 FM120500 VRB05KT P6SM FEW220 FM120700 21009KT P6SM SKC FM121500 VRB06KT P6SM SKC FM121800 34010KT P6SM FEW100 FM122200 01012KT P6SM FEW100 FM130100 13007KT P6SM FEW100
KDET,KDET 112342Z 1200/1224 18010KT P6SM -SHRA SCT045 OVC080 FM121400 21013G20KT P6SM SCT035 OVC080 FM121700 21018G30KT P6SM SCT045 BKN100 OVC250 PROB30 1222/1224 25025G40KT 2SM SHRA SCT015 OVC025
KDFW,KDFW 112321Z 1200/1306 17011KT P6SM SCT070 BKN150 FM121400 22015KT P6SM SCT250 FM121900 31013KT P6SM FEW050 SCT250 FM122200 35014KT P6SM FEW250
KDHN,KDHN 112320Z 1200/1224 06006KT P6SM SCT100 FM121200 10003KT 5SM BR OVC005 FM121500 12005KT P6SM BKN025 FM122100 09006KT 6SM BR VCTS BKN025CB
KDHT,KDHT 112337Z 1200/1224 23012KT P6SM FEW300 FM120500 34017G27KT P6SM SKC FM120900 36013KT P6SM SKC FM121800 21009KT P6SM SKC
KDIJ,KDIJ 112320Z 1200/1224 31010G20KT P6SM FEW040 FM120100 VRB04KT P6SM SKC FM120700 15006KT P6SM SKC FM121200 10008KT P6SM FEW025 FM121900 32010KT P6SM FEW030 AMD LTD TO CLD VIS AND WIND
KDIK,KDIK 112320Z 1200/1224 30016G26KT P6SM FEW080 FM120300 27011KT P6SM FEW250 FM120800 29017G25KT P6SM SCT200 FM121800 31029G42KT P6SM FEW250
KDLF,TAF AMD KDLF 112341Z 1123/1301 14012KT 9999 FEW060 FEW250 QNH2994INS TEMPO 1211/1214 BKN030 BECMG 1214/1215 14006KT 9999 FEW030 QNH3000INS TX29/1123Z TN19/1211Z LAST NO AMDS AFT 1123 NEXT 1211
KDLH,KDLH 112320Z 1200/1224 19013G24KT P6SM SCT050 BKN150 WS020/19040KT FM120200 20011G20KT P6SM VCTS SCT045CB BKN100 WS020/20040KT FM120400 20010G18KT P6SM VCTS SCT040CB BKN080 TEMPO 1204/1206 5SM TSRA BKN030CB FM120600 29011G20KT P6SM VCSH SCT030 BKN060 FM120900 30010G18KT P6SM BKN045 FM121900 29015G23KT P6SM SHRA BKN045
KDLS,KDLS 112320Z 1200/1224 31006KT P6SM SKC FM120600 VRB04KT P6SM SKC
KDMA,TAF KDMA 112200Z 1122/1304 32009KT 9999 SCT100 QNH2996INS BECMG 1205/1206 14009KT 9999 SKC QNH3002INS BECMG 1217/1218 09009KT 9999 FEW100 QNH3005INS TX31/1221Z TN17/1212Z
KDMN,KDMN 112320Z 1200/1224 26009KT P6SM FEW250 FM120400 29006KT P6SM FEW250 FM121200 VRB04KT P6SM SKC
KDNL,KDNL 112340Z 1200/1224 VRB05KT P6SM BKN040 FM121100 11005KT P6SM SCT010 BKN025 FM122000 13006KT P6SM VCSH SCT018 BKN025
KDOV,TAF KDOV 111600Z 1116/1222 24006KT 9999 FEW050 QNH3031INS WND 21006KT AFT 1120 BECMG 1123/1124 18006KT 9999 FEW040 QNH3030INS BECMG 1203/1204 21006KT 9999 SKC QNH3027INS BECMG 1211/1212 18006KT 9999 SCT200 QNH3013INS BECMG 1219/1220 15006KT 9999 SCT040 BKN150 510103 QNH3010INS TX21/1120Z TN10/1210Z
KDPA,KDPA 112320Z 1200/1224 18015G25KT 6SM -SHRA BKN007 OVC050 FM120100 19015G25KT P6SM VCSH SCT020 BKN050 WS020/20045KT TEMPO 1205/1209 5SM -SHRA BR BKN020 FM120900 20016G28KT 5SM SHRA BR BKN015 PROB30 1209/1212 25020G35KT 2SM TSRA BR BKN008CB FM122100 27012G20KT P6SM SCT100
KDRO,KDRO 112320Z 1200/1224 26020G29KT P6SM SKC FM120200 31006KT P6SM SKC FM120600 02004KT P6SM SKC
KDRT,KDRT 112323Z 1200/1224 14012KT P6SM FEW060 FM120200 11005KT P6SM SKC FM121400 VRB05KT P6SM FEW060
KDSM,KDSM 112339Z 1200/1224 19013G19KT P6SM SCT050 FM120500 24012G19KT P6SM VCSH BKN050 FM120800 30010KT P6SM BKN090 FM121200 29008KT P6SM FEW250 FM121600 30017G27KT P6SM SCT120
KDTW,KDTW 112342Z 1200/1306 18010KT P6SM -SHRA SCT045 OVC080 FM121400 21013G20KT P6SM SCT035 OVC080 FM121700 21018G30KT P6SM SCT045 BKN100 OVC250 PROB30 1222/1302 25025G40KT 2SM SHRA SCT015 OVC025 FM130200 30013G20KT P6SM SCT100 BKN250
KDUJ,KDUJ 112322Z 1200/1224 19003KT P6SM SKC FM121600 18011G18KT P6SM OVC100
KDVL,KDVL 112331Z 1200/1224 29018G28KT P6SM SCT250 FM120400 28012KT P6SM FEW250 FM121200 29015G25KT P6SM BKN080 FM121500 31020G29KT P6SM BKN100 FM121800 31024G34KT P6SM BKN100 FM122100 31020G25KT P6SM BKN100
KDVT,KDVT 112320Z 1200/1224 22006KT P6SM FEW100 FEW250 FM120500 05004KT P6SM SKC FM121900 20006KT P6SM FEW120
KDYS,TAF KDYS 111600Z 1116/1222 19015G25KT 9999 SCT060 QNH3002INS BECMG 1118/1119 22012G18KT 9999 SCT050 QNH2992INS BECMG 1200/1201 19012KT 9999 FEW050 QNH2992INS BECMG 1204/1205 21012G18KT 9999 FEW050 QNH2993INS BECMG 1215/1216 26015G20KT 9999 FEW080 QNH2996INS TX27/1121Z TN19/1213Z
KEAR,KEAR 112320Z 1200/1224 21015KT P6SM FEW250 FM120100 33018G33KT P6SM VCSH SCT250 FM120300 35015G27KT P6SM VCSH BKN080 FM120600 30012KT P6SM FEW250 FM121600 30017G28KT P6SM FEW120
KEAT,KEAT 112320Z 1200/1224 10005KT P6SM SKC FM120600 30005KT 6SM FU HZ SKC FM121400 28004KT 5SM FU HZ SKC FM122000 15004KT P6SM SKC
KEAU,KEAU 112320Z 1200/1224 17014G22KT P6SM SCT045 TEMPO 1205/1207 5SM -TSRA BR BKN028CB FM120700 25011KT P6SM BKN035 TEMPO 1210/1214 -SHRA FM121400 27008KT P6SM SCT100 FM121800 28014G22KT P6SM BKN060 PROB30 1220/1224 -SHRA BKN040
KECG,KECG 112323Z 1200/1224 10005KT P6SM FEW250 FM120600 VRB03KT P6SM FEW250 FM121500 14007KT P6SM SCT250
KECP,KECP 112320Z 1200/1224 18006KT P6SM SCT100 FM121800 17008KT P6SM BKN060 FM122100 20006KT P6SM VCTS BKN025CB
KEDW,TAF COR KEDW 112220Z 1121/1303 VRB06KT 9999 FEW060 FEW120 SCT250 QNH2993INS TEMPO 1121/1124 23012G18KT 9999 VCTS SCT060CB BKN120 BECMG 1200/1201 VRB06KT 9999 NSW FEW150 QNH2992INS TEMPO 1221/1224 VRB12G18KT 9999 VCTS SCT060CB BKN120 TX31/1123Z TN14/1213Z
KEED,KEED 112320Z 1200/1224 12008KT P6SM FEW120 FM120200 23007KT P6SM SKC FM121000 VRB06KT P6SM SKC FM121600 36006KT P6SM SKC
KEET,KEET 112340Z 1200/1224 VRB03KT P6SM FEW080 SCT250 FM121200 14004KT P6SM BKN012 PROB30 1212/1215 4SM SHRA BR OVC009 FM121500 16008KT P6SM BKN024 PROB30 1215/1216 4SM SHRA BR OVC015 FM121600 18008KT P6SM BKN035 PROB30 1218/1223 4SM TSRA BR OVC025CB FM122300 18005KT P6SM SCT035 PROB30 1223/1224 4SM TSRA BR BKN035CB
KEFD,TAF KEFD 112000Z 1120/1302 13012KT 9999 FEW050 FEW110 QNH3002INS BECMG 1201/1202 VRB06KT 9999 BKN026 QNH3001INS BECMG 1207/1208 VRB06KT 8000 BR FEW018 QNH2996INS BECMG 1213/1214 VRB06KT 8000 BR BKN004 QNH2997INS BECMG 1214/1215 VRB06KT 8000 BR SCT004 QNH2999INS TX30/1122Z TN21/1212Z
KEFK,KEFK 112320Z 1200/1224 17004KT P6SM FEW250 FM121400 20005KT P6SM FEW220
KEGE,KEGE 112320Z 1200/1224 24022G30KT P6SM SCT250 FM120100 26016KT P6SM SCT250 FM120500 13006KT P6SM FEW250 FM120900 10003KT P6SM FEW250
KEGI,TAF AMD KEGI 112045Z 1120/1223 18010G15KT 9999 SCT050 QNH3018INS BECMG 1210/1211 11006KT 9999 VCSH BKN030 QNH3006INS TEMPO 1212/1216 8000 -SHRA BECMG 1217/1218 15009KT 9999 VCTS BKN010CB QNH2997INS TEMPO 1218/1223 15012KT 6000 -TSRA BKN010CB OVC030 TX29/1120Z TN20/1208Z
KEKN,KEKN 112320Z 1200/1224 00000KT P6SM FEW250 FM121400 18004KT P6SM BKN220 FM121800 21007KT P6SM BKN110 AMD NOT SKED
KEKO,KEKO 112320Z 1200/1224 29008G18KT P6SM SCT250 FM120200 VRB05KT P6SM SKC
KEKS,KEKS 112333Z 1200/1224 32012KT P6SM SKC FM120200 11009KT P6SM FEW250 FM120500 16008KT P6SM FEW250 FM121900 27008KT P6SM FEW250
KELD,KELD 112339Z 1200/1224 17004KT P6SM VCSH BKN120 BKN200 FM120200 18003KT P6SM SCT200 FM121100 21007KT P6SM FEW120 SCT150
KELM,KELM 111720Z 1118/1218 24009KT P6SM SKC FM112200 22005KT P6SM SKC FM121400 18007G15KT P6SM SCT180
KELP,KELP 112320Z 1200/1224 24009KT P6SM SCT070 SCT250 FM120300 30005KT P6SM FEW250 FM121200 VRB04KT P6SM SKC
KELY,KELY 112320Z 1200/1224 32010G18KT P6SM FEW100 FM120200 18010KT P6SM SKC AMD NOT SKED
KEND,TAF AMD KEND 111900Z 1119/1224 19025G35KT 9999 SCT030 BKN100 QNH2981INS BECMG 1123/1124 19015G25KT 9999 FEW100 QNH2976INS BECMG 1209/1210 34015G25KT 9999 SCT150 QNH2978INS TX29/1121Z TN15/1212Z
KENV,KENV 112340Z 1200/1224 32012G21KT P6SM SKC FM120400 32007KT P6SM SKC FM121800 11005KT P6SM SKC
KENW,KENW 112320Z 1200/1224 18013G25KT 3SM SHRA BR OVC011 TEMPO 1200/1203 OVC009 FM120300 19016G27KT P6SM OVC035 WS020/21045KT FM120600 20016G30KT 6SM -SHRA BR VCTS BKN060CB WS020/21050KT FM121500 22016G26KT 6SM -SHRA BR VCTS OVC030CB FM121700 25015G23KT 6SM -SHRA BR VCTS OVC021CB FM121800 25014G22KT 5SM -SHRA BR OVC017 FM122000 26014KT P6SM BKN035
KERI,KERI 112337Z 1200/1224 19008KT P6SM FEW250 FM120800 17012KT P6SM BKN250 FM121100 18015G25KT P6SM BKN250 FM122000 18015G25KT P6SM VCSH BKN100
KEUG,KEUG 112330Z 1200/1224 36004KT P6SM SKC
KEUL,KEUL 112320Z 1200/1224 28012KT P6SM SKC FM120200 27007KT P6SM SKC FM120500 VRB04KT P6SM SKC
KEVV,KEVV 112320Z 1200/1224 17007KT P6SM SCT100 BKN250 FM121200 20012G22KT P6SM VCSH BKN100 PROB30 1217/1221 3SM TSRA BKN050CB FM122200 26015G21KT P6SM BKN060
KEVW,KEVW 112340Z 1200/1224 29014G26KT P6SM SKC FM120400 22008KT P6SM SKC FM121900 27007KT P6SM SKC
KEWN,KEWN 112337Z 1200/1224 VRB03KT P6SM FEW250 TEMPO 1209/1212 5SM BR
KEWR,KEWR 112334Z 1200/1306 24008KT P6SM SKC FM120100 23005KT P6SM SKC FM121500 20006KT P6SM FEW250 FM121800 18009KT P6SM SCT250 FM130300 16006KT P6SM FEW020 SCT100 OVC250
KEYW,KEYW 112324Z 1200/1224 11011KT P6SM SCT025
KFAF,TAF KFAF 111800Z 1118/1224 VRB06KT 9999 SKC QNH3009INS TX22/1218Z TN11/1208Z
KFAR,KFAR 112331Z 1200/1224 30017G24KT P6SM VCSH OVC130 FM120300 29011KT P6SM OVC210 FM120900 26009KT P6SM FEW250 FM121400 29012KT P6SM BKN100 FM121600 30017KT P6SM BKN080 FM122200 32019G27KT P6SM BKN080
KFAT,KFAT 112320Z 1200/1224 30008KT P6SM FEW100 FEW200 FM120600 32004KT P6SM SKC
KFAY,KFAY 112340Z 1200/1224 09003KT P6SM BKN060 BKN250 FM121500 14006KT P6SM BKN050 BKN200
KFBG,TAF KFBG 111703Z 1117/1223 06006KT 9999 FEW070 QNH3033INS BECMG 1200/1201 04004KT 9999 BKN030 QNH3029INS TEMPO 1218/1223 08008G16KT 8000 -SHRA TX22/1120Z TN14/1209Z
KFCS,TAF KFCS 112100Z 1121/1303 31015G30KT 9999 FEW130 530009 QNH3001INS BECMG 1121/1122 33020G30KT 9999 SCT120 530009 QNH3000INS BECMG 1205/1206 34012G20KT 9999 SKC 510009 QNH2993INS BECMG 1206/1207 34010KT 9999 SKC QNH2993INS TX24/1121Z TN04/1210Z
KFDY,KFDY 112337Z 1200/1224 19008KT P6SM BKN080 TEMPO 1206/1209 -SHRA FM121300 19015G25KT P6SM VCSH OVC100 FM122300 21015G25KT 6SM -SHRA BR BKN050
KFFO,TAF KFFO 111900Z 1119/1301 19012KT 9999 FEW080 SCT200 QNH3011INS BECMG 1122/1123 17009KT 9999 SCT075 BKN200 510102 QNH3006INS BECMG 1209/1210 18012KT 9999 VCSH BKN075 BKN200 510102 QNH2993INS TEMPO 1215/1217 19015G25KT 9000 -RA FEW040 BKN075 OVC200 BECMG 1216/1217 20015G25KT 9999 VCSH SCT040 OVC070 520103 QNH2976INS TEMPO 1219/1222 21015G25KT 6000 -SHRA SCT020 OVC040 BECMG 1221/1222 20010G15KT 9999 NSW BKN030 OVC070 520103 QNH2975INS TEMPO 1222/1301 20015G25KT BECMG 1300/1301 24025G35KT 4800 TSRA FEW010 OVC030CB QNH2975INS TX24/1120Z TN11/1208Z
KFHU,TAF KFHU 112200Z 1122/1304 13009KT 9999 SCT080 QNH3010INS WND 33009KT AFT 1204 TEMPO 1122/1202 BKN080 620802 BECMG 1219/1220 08009KT 9999 FEW080 BKN230 QNH3018INS TX24/1122Z TN13/1213Z
KFKL,KFKL 112322Z 1200/1224 16003KT P6SM SKC FM121600 18010G18KT P6SM OVC100
KFLG,KFLG 112320Z 1200/1224 21006KT P6SM SCT100 FM120100 VRB03KT P6SM SKC FM121900 09007KT P6SM SKC
KFLL,KFLL 112338Z 1200/1306 07007KT P6SM SCT025 BKN250 FM121200 10008KT P6SM SCT050 SCT250 FM121500 11010KT P6SM VCTS SCT025CB BKN040 FM122200 10006KT P6SM VCSH SCT030 BKN050 FM130300 VRB04KT P6SM SCT040 BKN050 BKN250
KFLO,KFLO 112323Z 1200/1224 VRB03KT P6SM BKN070 FM121400 10005KT P6SM BKN080 FM122000 14008KT P6SM BKN080
KFMH,KFMH 112329Z 1200/1224 24004KT P6SM SKC FM121500 22010KT P6SM FEW200 FM122300 21008KT P6SM FEW220
KFMN,KFMN 112323Z 1200/1224 28012G21KT P6SM FEW110 FM120200 29009KT P6SM FEW120 FM120600 VRB06KT P6SM SKC FM122100 28013KT P6SM SKC
KFMY,KFMY 112322Z 1200/1224 06006KT P6SM FEW040 BKN250 FM121800 15007KT P6SM BKN100 FM122100 23007KT P6SM VCTS BKN100CB
KFNT,KFNT 112342Z 1200/1224 20013KT 6SM -SHRA OVC045 FM121400 21013G20KT P6SM SCT035 OVC080 FM121700 21018G30KT P6SM SCT045 BKN100 OVC250 PROB30 1221/1224 25025G40KT 2SM SHRA SCT015 OVC025
KFOD,KFOD 112339Z 1200/1224 20012G20KT P6SM SKC FM120400 24012G20KT P6SM BKN250 FM120800 31010KT P6SM VCSH OVC050 FM121100 29012KT P6SM SCT200 FM121600 27015G23KT P6SM BKN110
KFOE,KFOE 112330Z 1200/1224 18016G26KT P6SM FEW060 FM120730 22016G28KT P6SM VCTS BKN040CB FM120800 26012G24KT 4SM TSRA BR OVC025CB FM120900 32014G26KT 6SM SHRA BR OVC035 FM121100 31009KT P6SM BKN080
KFPR,KFPR 112336Z 1200/1224 08004KT P6SM SCT025 BKN035 FM121400 13006KT P6SM SCT030 BKN200 FM121700 11008KT P6SM VCSH SCT035 BKN150 FM122100 11007KT P6SM VCTS SCT035CB BKN150
KFRI,TAF KFRI 112003Z 1120/1302 20020G30KT 9999 FEW060 510003 QNH2968INS BECMG 1205/1206 33010G20KT 8000 -TSRA OVC100CB 500003 QNH2970INS TEMPO 1206/1209 VRB20G40KT 6000 TSRA BKN040 OVC100CB 520003 BECMG 1214/1215 29015G25KT 9999 NSW FEW130 500003 QNH2987INS BECMG 1223/1224 29012KT 9999 BKN140 QNH2987INS TX30/1121Z TN12/1212Z
KFSD,KFSD 112333Z 1200/1224 30015G23KT P6SM FEW250 FM120300 32018G26KT P6SM BKN250 TEMPO 1204/1207 -SHRA BKN070 FM120700 32011G16KT P6SM BKN110 FM121300 27010G16KT P6SM FEW250 FM121600 30017G33KT P6SM SCT100
KFSM,KFSM 112337Z 1200/1224 19010KT P6SM VCSH BKN100 FM120100 VRB06KT P6SM BKN080 WS020/23035KT FM121500 25008KT P6SM SCT025 SCT040 BKN090 PROB30 1215/1218 -RA BKN025 FM121800 28010KT P6SM FEW025 SCT040 FM122200 31010KT P6SM FEW150
KFST,KFST 112320Z 1200/1224 17010KT P6SM SCT150 FM121800 34008KT P6SM SKC
KFTK,TAF KFTK 111900Z 1119/1301 15010KT 9999 FEW070 SCT200 QNH3010INS BECMG 1203/1204 17006KT 9999 FEW050 BKN120 QNH3003INS BECMG 1208/1209 19010KT 9999 VCSH BKN015 OVC080 QNH2996INS BECMG 1215/1216 19015G25KT 9999 VCSH BKN015 OVC080 520009 QNH2978INS TEMPO 1217/1223 8000 -SHRA VCTS BKN035CB OVC100 TX26/1219Z TN13/1211Z LAST NO AMDS AFT 1203 NEXT 1211
KFTW,KFTW 112321Z 1200/1224 17011KT P6SM SCT060 BKN150 FM121400 22015KT P6SM SCT250 FM121900 31013KT P6SM FEW050 SCT250 FM122200 35014KT P6SM FEW250
KFTY,KFTY 112336Z 1200/1224 12004KT P6SM FEW060 FM120600 12005KT P6SM BKN020 FM120900 11004KT P6SM OVC010 TEMPO 1211/1215 -DZ BKN005 FM121600 15006KT P6SM VCSH BKN012 PROB30 1218/1222 5SM SHRA BKN025 FM122300 18007KT 5SM -SHRA BR BKN015
KFVE,KFVE 112320Z 1200/1224 24004KT P6SM SCT250
KFWA,KFWA 112320Z 1200/1224 16005KT P6SM BKN080 FM120500 18015KT P6SM VCSH OVC080 FM121500 20015G25KT P6SM OVC050 FM122100 23017G27KT 6SM -SHRA BR BKN035 OVC050 TEMPO 1222/1224 4SM SHRA BR BKN020 OVC035
KFXE,KFXE 112338Z 1200/1224 08010KT P6SM SCT025 BKN250 FM121200 10007KT P6SM SCT050 SCT250 FM121600 10010KT P6SM VCTS SCT025CB BKN040 FM122200 10006KT P6SM VCSH SCT030 BKN050
KFYV,KFYV 112337Z 1200/1224 18010G18KT P6SM BKN100 FM120100 19010KT P6SM FEW040 SCT070 WS020/23040KT FM121400 25010KT P6SM SCT020 SCT040 BKN090 PROB30 1214/1217 -RA BKN020 FM121700 31011KT P6SM SCT025 SCT040 FM122100 33011KT P6SM FEW150
KGBD,KGBD 112320Z 1200/1224 19014KT P6SM FEW240 FM120600 36020G30KT P6SM VCTS BKN100CB FM120900 36012KT P6SM FEW250 FM121900 29015G23KT P6SM SKC
KGCC,KGCC 112320Z 1200/1224 31011KT P6SM SCT100 FM120200 26009KT P6SM SKC FM121100 32015G25KT P6SM FEW250 FM121700 33020G35KT P6SM BKN050 FM122200 30017G27KT P6SM BKN100
KGCK,KGCK 112336Z 1200/1224 19012KT P6SM FEW250 FM120400 36026G43KT 5SM BLDU BKN080 WS020/36050KT FM120530 36020G35KT P6SM BKN070 FM120700 36012KT P6SM SCT100 FM121000 34007KT P6SM SKC
KGCN,KGCN 112320Z 1200/1224 VRB05KT P6SM FEW100 FM122000 28007KT P6SM SKC
KGDV,KGDV 112320Z 1200/1224 29014G23KT P6SM SKC FM120200 28010G18KT P6SM FEW100 FM120700 29014G23KT P6SM BKN090 FM121300 30016G27KT P6SM SKC FM121600 31022G32KT P6SM SCT050
KGEG,KGEG 112320Z 1200/1224 30010KT P6SM SKC FM120100 23005KT P6SM SKC FM120600 18004KT P6SM SKC FM121300 08003KT P6SM SKC FM121900 27005KT P6SM FEW250
KGFA,TAF KGFA 112002Z 1120/1302 25009KT 9999 SKC QNH2991INS TEMPO 1122/1201 25012G18KT 510002 BECMG 1208/1209 VRB06KT 9999 SCT080 QNH3009INS TX17/1123Z TN06/1212Z
KGFK,KGFK 112331Z 1200/1224 30020G27KT P6SM OVC100 FM120100 29015G24KT P6SM OVC190 FM120300 29013KT P6SM BKN230 FM120500 27009KT P6SM SCT240 FM121500 30016G20KT P6SM BKN070 FM121600 31018G27KT P6SM BKN060
KGFL,KGFL 112337Z 1200/1224 20007KT P6SM SKC TEMPO 1203/1207 2SM BR FEW003 FM120700 00000KT 1SM BR SCT002 FM121300 18005KT P6SM SCT200
KGGG,KGGG 112339Z 1200/1224 17008KT P6SM SCT120 SCT250 FM120300 19006KT P6SM FEW200 FM121000 19006KT P6SM BKN015 FM121400 22013G22KT P6SM SCT015 SCT080 FM121900 22013G22KT P6SM SCT050
KGGW,KGGW 112320Z 1200/1224 30019KT P6SM FEW090 FM120500 31016G24KT P6SM BKN090 FM122000 31025G34KT P6SM FEW080
KGJT,KGJT 112320Z 1200/1224 28015G23KT P6SM FEW250 FM120100 32010KT P6SM FEW250 FM120300 03004KT P6SM FEW250 FM120800 11006KT P6SM FEW250
KGKY,KGKY 112321Z 1200/1224 17011KT P6SM SCT060 BKN150 FM121400 22015KT P6SM SCT250 FM121900 31013KT P6SM FEW050 SCT250 FM122200 35014KT P6SM FEW250
KGLD,KGLD 112332Z 1200/1224 34016G24KT P6SM SCT200 TEMPO 1201/1203 36030G45KT 4SM BLDU SCT025 FM120400 36020G30KT P6SM BKN110 FM120700 35014G23KT P6SM SKC FM121000 29009KT P6SM SKC FM121800 30013G22KT P6SM SKC
KGLH,KGLH 112340Z 1200/1224 17009KT P6SM FEW250 FM122000 22012G18KT P6SM SCT250
KGLS,KGLS 112323Z 1200/1224 10010KT P6SM FEW040 FM120300 14005KT P6SM FEW050 FM121500 18007KT P6SM FEW030 FEW100 FM121800 21011KT P6SM SCT030
KGMU,KGMU 112330Z 1200/1224 10004KT P6SM BKN060 FM120700 05004KT P6SM OVC025 FM121200 05003KT P6SM OVC015 FM121600 10005KT P6SM OVC009 PROB30 1216/1222 4SM -SHRA BR OVC005
KGNV,KGNV 111721Z 1118/1218 VRB03KT P6SM SCT025 BKN250 FM120600 VRB02KT P6SM SCT015 BKN250 FM120900 00000KT 5SM BR OVC004 TEMPO 1209/1213 1/2SM FG OVC002 FM121500 08004KT P6SM OVC250
KGON,KGON 112334Z 1200/1224 23005KT P6SM SKC FM120400 VRB03KT P6SM SKC FM121300 26005KT P6SM FEW250 FM121600 23008KT P6SM FEW250 FM121900 20010KT P6SM SCT250
KGPI,KGPI 112327Z 1200/1224 27010G15KT P6SM SKC FM120100 26009KT P6SM SKC FM120500 16004KT P6SM SKC FM120900 03005KT P6SM SKC FM122000 21005KT P6SM SKC
KGPT,KGPT 112327Z 1200/1224 12005KT P6SM SCT050 BKN250 FM120900 VRB04KT P6SM VCSH BKN020 BKN050 FM121700 15007KT P6SM -SHRA VCTS BKN025CB BKN090
KGRB,KGRB 112338Z 1200/1224 19014G24KT P6SM VCSH BKN022 FM120200 19015G25KT P6SM OVC014 FM120600 20014G26KT P6SM BKN014 WS020/22040KT FM121000 21014G24KT P6SM -SHRA OVC015 WS020/22045KT TEMPO 1210/1214 5SM TSRA BKN015 OVC035CB FM121400 24015G25KT 5SM -SHRA OVC012 FM121900 26014G24KT P6SM SCT035 BKN070
KGRF,TAF KGRF 112100Z 1121/1303 32009KT 9999 SKC QNH3017INS BECMG 1213/1214 17003KT 9000 BR SKC QNH3021INS BECMG 1216/1217 33006KT 9999 NSW SKC QNH3022INS TX19/1123Z TN07/1213Z
KGRI,KGRI 112320Z 1200/1224 21012KT P6SM FEW250 FM120200 33018G33KT P6SM VCSH SCT250 FM120400 35015G27KT P6SM VCSH BKN080 FM120600 30009KT P6SM FEW250 FM121600 30017G28KT P6SM FEW120
KGRK,TAF KGRK 111600Z 1116/1222 16010G20KT 9999 SCT035 BKN100 QNH3003INS BECMG 1118/1119 17012G25KT 9999 SCT070 QNH2996INS BECMG 1122/1123 18010KT 9999 SCT070 QNH2996INS BECMG 1217/1218 17010G15KT 9999 FEW100 QNH2985INS TX31/1121Z TN18/1212Z
KGRR,KGRR 112348Z 1200/1224 19012G20KT P6SM -SHRA BKN025 OVC050 TEMPO 1200/1204 3SM SHRA BR BKN015 OVC025 FM120400 19015G22KT P6SM -SHRA OVC035 WS020/21050KT FM121600 19018G38KT P6SM -SHRA OVC035 FM122000 23013G22KT 4SM SHRA BR BKN015 FM122300 23010KT P6SM VCSH BKN035
KGSB,TAF KGSB 112000Z 1120/1302 02005KT 9999 SCT050 QNH3025INS BECMG 1203/1204 10010KT 9999 SCT045 BKN050 QNH3024INS BECMG 1223/1224 17012G18KT 9999 SCT040 BKN045 QNH3000INS TX23/1120Z TN11/1208Z
KGSO,KGSO 112340Z 1200/1224 12002KT P6SM BKN050 BKN250 FM121300 18006KT P6SM BKN035 OVC120
KGSP,KGSP 112330Z 1200/1224 11004KT P6SM BKN060 FM120700 06003KT P6SM BKN030 FM121200 06003KT P6SM OVC015 FM121600 10005KT P6SM OVC009 PROB30 1216/1222 4SM -SHRA BR OVC005
KGTB,TAF KGTB 111700Z 1117/1223 25009KT 9999 FEW030 QNH3011INS BECMG 1122/1123 VRB06KT 9999 SKC QNH3007INS BECMG 1215/1216 18012G20KT 9999 SCT130 SCT180 BKN250 QNH2997INS BECMG 1220/1221 17009KT 9999 FEW150 SCT210 QNH2991INS TX19/1119Z TN10/1211Z
KGTF,KGTF 112333Z 1200/1224 27011G19KT P6SM SKC FM120200 26010KT P6SM FEW250 FM121600 01007KT P6SM FEW250
KGTR,KGTR 112340Z 1200/1224 16006KT P6SM FEW250 FM121300 18009KT P6SM OVC030 FM121900 19009KT P6SM OVC050
KGUC,KGUC 112320Z 1200/1224 26022G32KT P6SM FEW250 FM120100 28016G24KT P6SM FEW250 FM120400 27010KT P6SM FEW250 FM120700 29004KT P6SM FEW250
KGUP,KGUP 112323Z 1200/1224 26011G19KT P6SM SCT120 FM120200 VRB04KT P6SM FEW120 FM122000 27010KT P6SM SKC
KGUR,TAF AMD KGUR 112222Z 1122/1303 35025G35KT 9999 FEW065 BKN095 OVC120 510033 QNH2985INS BECMG 1200/1201 35009KT 9999 FEW075 BKN100 510043 QNH2994INS BECMG 1216/1217 33020G30KT 9999 SCT055 510053 QNH3014INS BECMG 1220/1221 30020G30KT 9999 SCT065 510063 QNH3013INS BECMG 1222/1223 34020KT 9999 FEW065 510063 QNH3014INS BECMG 1302/1303 34009KT 9999 SKC 510063 QNH3021INS TX16/1221Z TN00/1211Z
KGUS,TAF KGUS 112100Z 1121/1303 20010KT 9999 SCT050 OVC065 QNH3008INS BECMG 1123/1124 15009KT 9000 -RA BKN040 BKN055 OVC080 QNH3006INS BECMG 1202/1203 16012KT 9000 -DZ FEW045 BKN065 OVC090 QNH2997INS BECMG 1208/1209 20012G18KT 9000 DZ FEW055 OVC080 QNH2986INS BECMG 1214/1215 21025G30KT 9999 NSW FEW055 OVC080 520013 QNH2983INS BECMG 1217/1218 20020G30KT 9000 -SHRA FEW035 BKN055 OVC080 QNH2977INS BECMG 1220/1221 22025G35KT 9000 -SHRA BKN035 OVC050 520005 QNH2970INS BECMG 1223/1224 29012G18KT 9999 NSW SCT015 OVC023 QNH2978INS BECMG 1302/1303 VRB06KT 8000 BR FEW240 QNH2978INS TX21/1121Z TN13/1211Z LAST NO AMDS AFT 1203 NEXT 1213
KGUY,KGUY 112337Z 1200/1224 22013KT P6SM FEW300 FM120500 36019G29KT P6SM FEW300 FM121100 34012KT P6SM SKC FM122000 23008KT P6SM SKC
KGWO,KGWO 112340Z 1200/1224 12004KT P6SM SKC FM121700 21011G17KT P6SM OVC100
KGYY,KGYY 112320Z 1200/1224 16014G25KT 6SM SHRA BR OVC008 FM120100 19010KT P6SM VCSH SCT020 BKN050 WS020/20045KT TEMPO 1206/1210 5SM -SHRA BR BKN020 FM121000 20016G28KT 5SM SHRA BR BKN015 PROB30 1210/1212 25018G30KT 3SM TSRA BR BKN008CB FM122100 27010KT P6SM SCT030
KHBG,KHBG 112340Z 1200/1224 00000KT P6SM SKC FM120600 17001KT 5SM BR OVC004 FM120800 00000KT 1/4SM FG OVC003 PROB30 1209/1213 1/2SM -RA FG OVC100 FM121300 17001KT 4SM BR OVC007 PROB30 1213/1215 4SM -SHRA BR OVC100 FM122000 21007KT P6SM BKN100
KHCR,KHCR 112340Z 1200/1224 29008KT P6SM SKC FM120200 VRB04KT P6SM SKC
KHDC,KHDC 112327Z 1200/1224 VRB04KT P6SM SCT050 BKN250 FM121000 VRB03KT 6SM BR VCSH BKN015 BKN050 FM121600 VRB03KT P6SM -SHRA VCTS BKN020CB BKN050
KHDN,KHDN 112320Z 1200/1224 27025G34KT P6SM FEW250 FM120100 29015G23KT P6SM FEW250 FM120300 26005KT P6SM FEW250 FM120900 11005KT P6SM FEW250
KHIB,KHIB 112320Z 1200/1224 18007G17KT P6SM VCSH SCT100 BKN150 WS020/20040KT FM120300 22007KT P6SM VCSH SCT060 BKN100 FM120500 30010G17KT P6SM VCSH BKN060 FM121200 30008G16KT P6SM SCT030 BKN060 FM121700 30013G20KT P6SM VCSH SCT025 BKN060
KHIE,KHIE 112323Z 1200/1224 00000KT P6SM SKC TEMPO 1209/1211 2SM BR FM121600 21005KT P6SM SKC
KHIF,TAF KHIF 112100Z 1121/1303 29012KT 9999 SCT200 QNH3006INS BECMG 1201/1202 11012KT 9999 SKC QNH3012INS BECMG 1217/1218 25006KT 9999 SKC QNH3030INS TX21/1123Z TN08/1214Z
KHIO,KHIO 112320Z 1200/1224 00000KT 6SM BR SKC FM121500 00000KT 2SM BR SCT001 FM121700 00000KT P6SM SKC
KHKS,KHKS 112340Z 1200/1224 14005KT P6SM SKC FM121100 19005KT P6SM OVC025 PROB30 1215/1218 P6SM -SHRA OVC025 FM121900 21008KT P6SM OVC050
KHKY,KHKY 112330Z 1200/1224 VRB02KT P6SM BKN050 FM120900 VRB02KT P6SM OVC030 FM121400 16004KT P6SM OVC015 FM121800 17006KT P6SM OVC010 PROB30 1218/1224 4SM -SHRA BR OVC007
KHLG,KHLG 112322Z 1200/1224 19004KT P6SM SKC FM122000 18007KT P6SM VCSH OVC100
KHLN,KHLN 112333Z 1200/1224 29015G27KT P6SM SKC FM120200 27013G27KT P6SM FEW250 WS020/28040KT FM121000 29009KT P6SM FEW250
KHMN,TAF KHMN 111700Z 1117/1223 24009KT 9999 FEW060 QNH3005INS BECMG 1200/1201 VRB06KT 9999 SKC QNH3006INS BECMG 1218/1219 33009KT 9999 FEW070 QNH3014INS TX26/1122Z TN10/1212Z
KHNB,KHNB 112329Z 1200/1224 15007KT P6SM BKN250 FM121200 19014KT P6SM BKN140 FM121800 20014KT P6SM BKN090 PROB30 1218/1220 20015G25KT 4SM -SHRA BR OVC025
KHND,KHND 112320Z 1200/1224 VRB05KT P6SM FEW120 FM120200 19007KT P6SM SKC FM121300 VRB06KT P6SM SKC FM121700 03007KT P6SM FEW120
KHOB,KHOB 112320Z 1200/1224 23017KT P6SM SCT080 FM120200 23007KT P6SM FEW100
KHON,KHON 112333Z 1200/1224 32026G36KT P6SM OVC180 TEMPO 1201/1204 -SHRA BKN070 FM120400 32013G21KT P6SM BKN210 FM121300 28012G23KT P6SM SCT220 FM121500 30017G31KT P6SM SCT180 FM121800 31024G37KT P6SM SCT100
KHOP,TAF KHOP 111600Z 1116/1222 17010G15KT 9999 SCT250 QNH3005INS BECMG 1208/1209 26004KT 6000 SHRA BKN030 QNH2990INS BECMG 1217/1218 VRB06KT 9999 NSW BKN050 QNH2986INS TX25/1120Z TN13/1212Z
KHOT,KHOT 112335Z 1200/1224 19009KT P6SM VCSH BKN100 TEMPO 1200/1202 -RA FM120200 VRB04KT P6SM SCT100 BKN250 FM121500 21008KT P6SM VCSH SCT040 OVC100 FM122000 25012KT P6SM VCTS SCT050CB BKN120 PROB30 1220/1224 4SM -TSRA BR BKN030CB
KHOU,KHOU 112323Z 1200/1224 10012KT P6SM SCT030 SCT150 BKN250 FM120200 VRB04KT P6SM FEW030 FM121000 00000KT 6SM BR BKN011 FM121500 18005KT P6SM SCT011 SCT030 FM122000 21009KT P6SM SCT035
KHPN,KHPN 112334Z 1200/1224 VRB03KT P6SM SKC FM121500 20007KT P6SM FEW250 FM122000 17006KT P6SM SCT250 AMD NOT SKED
KHQM,KHQM 112320Z 1200/1224 23008KT P6SM SKC FM120600 04005KT P6SM SKC FM121200 07005KT 6SM BR BKN250 FM121800 09008KT P6SM SKC
KHRL,KHRL 112320Z 1200/1224 08011KT P6SM SKC FM120300 VRB04KT P6SM FEW250 FM121000 00000KT 5SM BR SCT027 FM121700 12005KT P6SM SCT045 FM122000 09007KT P6SM SCT060
KHRO,KHRO 112335Z 1200/1224 17010KT P6SM BKN120 FM120900 18008G16KT P6SM SCT100 BKN250 WS020/23045KT FM121500 24012G20KT 6SM -SHRA VCTS SCT050CB BKN100 PROB30 1215/1219 3SM TSRA BR OVC025CB FM121900 30010G18KT P6SM VCSH BKN100
KHRT,TAF KHRT 111800Z 1118/1224 15012KT 9999 FEW170 QNH3015INS BECMG 1122/1123 20008KT 9999 SCT030 BKN160 QNH3008INS BECMG 1205/1206 01007KT 9999 SCT030 SCT270 QNH3005INS TEMPO 1216/1218 21010KT 4800 TSRA BKN025CB TX28/1121Z TN13/1211Z
KHST,TAF KHST 111900Z 1119/1301 08010KT 9999 FEW025 SCT045 BKN250 QNH2995INS TX31/1119Z TN27/1210Z
KHSV,KHSV 112320Z 1200/1224 12006KT P6SM FEW250 FM121500 17012G20KT P6SM SCT050 FM121800 20013G21KT P6SM BKN035
KHTS,KHTS 112320Z 1200/1224 VRB03KT P6SM SCT240 FM121500 20007KT P6SM BKN090
KHUA,TAF KHUA 112000Z 1120/1302 VRB06KT 9999 SCT035 QNH3011INS BECMG 1205/1206 VRB06KT 9999 SCT030 520102 QNH3000INS BECMG 1208/1209 15006KT 8000 BR BKN006 520102 QNH3000INS BECMG 1214/1215 16012KT 9999 NSW SCT010 BKN020 520102 QNH3000INS BECMG 1218/1219 18012KT 9999 VCTS BKN025CB QNH3000INS BECMG 1223/1224 18009KT 9999 NSW BKN015 520102 QNH2991INS TX26/1120Z TN16/1211Z LAST NO AMDS AFT 1200 NEXT 1212
KHUF,KHUF 112338Z 1200/1224 16009KT P6SM BKN110 FM121100 19011G21KT P6SM VCSH BKN100 WS020/21040KT FM121500 20015G29KT P6SM -SHRA BKN090 FM122000 22017G28KT P6SM -SHRA OVC040 FM122300 25011G19KT P6SM SHRA BKN045
KHUL,KHUL 112320Z 1200/1224 VRB02KT P6SM SKC TEMPO 1209/1212 2SM BR FEW002 FM121500 21007KT P6SM SCT200
KHUM,KHUM 112327Z 1200/1224 VRB04KT P6SM SCT040 BKN250 FM121200 00000KT 4SM -SHRA BR BKN015 BKN040 FM121500 16008KT P6SM -SHRA VCTS BKN020CB BKN090
KHUT,KHUT 112320Z 1200/1224 19019G27KT P6SM FEW200 FM120700 27014KT P6SM VCTS SCT060CB FM120900 36014KT P6SM BKN100 FM121200 34014KT P6SM SCT200
KHVR,KHVR 112333Z 1200/1224 28014KT P6SM SKC FM120200 27008KT P6SM SCT250 FM121500 29015G23KT P6SM BKN090
KHYA,KHYA 112329Z 1200/1224 22003KT P6SM SKC FM121500 22010KT P6SM FEW250 FM122300 21007KT P6SM SCT220
KHYR,KHYR 112320Z 1200/1224 18011G17KT P6SM BKN110 WS020/19045KT FM120500 19009KT P6SM VCTS SCT020CB BKN035 FM120800 28007G16KT P6SM VCSH BKN019 FM121000 29007G16KT P6SM BKN035 FM121900 28013G23KT P6SM VCSH BKN045
KHYS,KHYS 112336Z 1200/1224 19012KT P6SM SKC FM120400 35028G46KT P6SM VCSH BKN070 WS020/36050KT FM120530 36020G35KT P6SM BKN070 FM120700 36012KT P6SM SCT100 FM121000 34007KT P6SM SKC
KIAB,TAF AMD KIAB 111932Z 1119/1224 20015G25KT 9999 FEW060 QNH2981INS TEMPO 1119/1121 22025G35KT BECMG 1123/1124 20010G15KT 9999 SKC QNH2982INS BECMG 1205/1206 23010G15KT 9000 -SHRA VCTS BKN030CB OVC100 QNH2984INS BECMG 1209/1210 01009KT 9999 NSW SKC QNH2990INS BECMG 1214/1215 34012G18KT 9999 SKC QNH2998INS TX28/1121Z TN13/1212Z
KIAD,KIAD 112322Z 1200/1306 16004KT P6SM SKC FM120300 00000KT P6SM FEW250 FM121300 19004KT P6SM FEW250 FM121600 18008KT P6SM BKN250 FM130200 15007KT P6SM BKN150
KIAG,KIAG 112336Z 1200/1224 22006KT P6SM FEW100 FM120200 19008KT P6SM FEW250 FM121300 18010G16KT P6SM BKN100 FM121700 20014G23KT P6SM BKN100 FM122000 19013G21KT P6SM BKN100 FM122300 18013KT P6SM BKN090
KIAH,KIAH 112323Z 1200/1306 15010KT P6SM FEW050 SCT170 SCT250 FM120200 VRB04KT P6SM FEW015 FM121000 VRB02KT 6SM BR BKN012 FM121400 19005KT P6SM SCT015 FM121800 21008KT P6SM SCT030 SCT100 FM130200 VRB03KT P6SM SCT040
KICT,KICT 112320Z 1200/1224 19020G28KT P6SM FEW045 FM120800 27014KT P6SM VCTS SCT060CB FM121000 36014KT P6SM BKN100 FM121300 34014KT P6SM SCT200
KIDA,KIDA 112320Z 1200/1224 31010KT P6SM SKC FM120300 35015KT P6SM SKC FM120600 22010KT P6SM SKC FM121900 24010KT P6SM SKC FM122100 28010KT P6SM SKC
KIFP,KIFP 112320Z 1200/1224 18008KT P6SM FEW200 FM120300 16007KT P6SM SKC FM121200 VRB06KT P6SM SKC FM121800 35008KT P6SM SKC
KILG,KILG 112325Z 1200/1224 21005KT P6SM SKC FM120200 VRB02KT P6SM SKC FM121400 18007KT P6SM SCT250 FM121700 16010KT P6SM BKN250 FM122300 15005KT P6SM BKN200
KILM,KILM 112323Z 1200/1224 09005KT P6SM FEW250 FM122100 12007KT P6SM BKN200
KILN,KILN 112340Z 1200/1224 17005KT P6SM SCT250 FM121200 19010KT P6SM BKN100 FM121500 20012G20KT P6SM SCT050 BKN100 FM121700 20015G26KT P6SM SCT025 BKN070 FM122100 19013KT P6SM VCSH SCT025 OVC070
KIND,KIND 112338Z 1200/1306 16009KT P6SM BKN100 FM121300 20015G28KT P6SM VCSH BKN090 FM121900 22017G29KT P6SM -SHRA BKN060 FM122300 23014G26KT P6SM -SHRA OVC028 FM130000 25011G19KT 6SM -SHRA BR OVC013 FM130300 27009KT P6SM -SHRA BKN090
KINK,KINK 112320Z 1200/1224 18011KT P6SM SCT150 FM121500 35008KT P6SM SKC
KINL,KINL 112320Z 1200/1224 20012G25KT P6SM SCT150 FM120200 28010G19KT P6SM VCSH SCT040 BKN110 FM121000 27009G16KT P6SM SCT018 BKN070 FM121400 19010G18KT P6SM VCSH SCT015 BKN040 FM121800 29013G23KT 5SM -SHRA BKN020
KINS,TAF AMD KINS 112216Z 1122/1303 33007KT 9999 FEW110 QNH2997INS WND 330V040 BECMG 1203/1204 22008KT 9999 SKC QNH3004INS BECMG 1207/1208 VRB06KT 9999 SKC QNH3008INS BECMG 1218/1219 06007KT 9999 SKC QNH3007INS BECMG 1221/1222 06010G17KT 9999 SKC QNH3004INS TX30/1122Z TN13/1212Z
KINT,KINT 112340Z 1200/1224 14002KT P6SM BKN050 BKN250 FM121200 18005KT P6SM BKN035 OVC120
KINW,KINW 112320Z 1200/1224 VRB06KT P6SM FEW120
KIPL,KIPL 112320Z 1200/1224 13006KT P6SM FEW100 FM120200 26006KT P6SM SKC FM121500 VRB04KT P6SM SKC
KIPT,KIPT 112320Z 1200/1224 16004KT P6SM SKC FM120200 VRB02KT P6SM SCT250 FM121600 14008G15KT P6SM BKN120 OVC200
KISM,KISM 112336Z 1200/1224 07004KT P6SM SCT035 BKN050 FM121400 11004KT P6SM SCT025 BKN150 FM121700 13005KT P6SM VCSH SCT030 BKN050 FM122000 14005KT P6SM VCTS SCT030CB BKN150
KISO,KISO 112337Z 1200/1224 VRB03KT P6SM FEW250 AMD LTD TO CLD VIS AND WIND
KISP,KISP 112334Z 1200/1224 VRB03KT P6SM SKC FM121300 23006KT P6SM FEW250 FM121600 21009KT P6SM FEW250 FM122000 19011KT P6SM SCT250
KITH,KITH 111720Z 1118/1218 23007G13KT P6SM SKC FM112200 18004KT P6SM SKC FM121400 18009G17KT P6SM SCT210
KIWA,KIWA 112320Z 1200/1224 27006KT P6SM FEW100 FEW250 FM120500 12005KT P6SM SKC FM121900 26005KT P6SM FEW120
KIWD,KIWD 112342Z 1200/1224 18014G24KT P6SM SCT050 WS020/20048KT FM120800 20013G21KT 6SM SHRA VCTS SCT015 BKN020CB FM121100 27010G20KT P6SM -SHRA OVC026 FM121500 27014G24KT P6SM VCSH SCT030 BKN050
KIXD,KIXD 112328Z 1200/1224 19016G24KT P6SM SCT030 SCT100 FM120100 19015KT P6SM SCT030 FM120900 22012G23KT 6SM -TSRA SCT050CB FM121100 32008KT P6SM OVC070 FM121500 32012G19KT P6SM FEW250
KJAC,KJAC 112328Z 1200/1224 29015G25KT P6SM FEW080 FM120300 18007KT P6SM SKC FM122000 29010G20KT P6SM SKC
KJAN,KJAN 112340Z 1200/1224 14005KT P6SM SKC FM121500 19008KT P6SM OVC025 PROB30 1215/1218 P6SM -SHRA OVC025 FM121900 21008KT P6SM OVC050
KJAX,KJAX 112028Z 1120/1218 05010G15KT P6SM VCSH SCT025 BKN050 BKN250 FM120000 06005KT P6SM VCSH SCT020 BKN070 BKN120 PROB30 1208/1212 5SM SHRA BR BKN015 OVC030 FM121400 08008KT P6SM VCSH BKN020 BKN070 OVC120
KJBR,KJBR 112328Z 1200/1224 16009KT P6SM OVC250 FM120800 19011KT P6SM VCSH OVC100 FM121200 22013G20KT P6SM BKN250 FM121600 21014G20KT P6SM VCSH OVC100 TEMPO 1220/1224 4SM TSRA OVC020CB
KJCT,KJCT 112320Z 1200/1224 17010G17KT P6SM FEW060 FM120030 18006KT P6SM SKC FM120300 19003KT P6SM SKC TEMPO 1212/1215 SCT020 FM121500 23007KT P6SM SKC FM121730 26009KT P6SM SKC FM121930 33011G18KT P6SM SKC
KJEF,KJEF 112322Z 1200/1224 19008KT P6SM BKN070 TEMPO 1200/1201 5SM -SHRA BR FM121100 21009KT 5SM -SHRA BR VCTS BKN060CB FM121500 25009KT P6SM OVC035 FM121700 29010G18KT P6SM SCT040
KJER,KJER 112320Z 1200/1224 27020G30KT P6SM SCT250 FM120100 25014G24KT P6SM SKC FM120300 22009KT P6SM SKC FM120800 VRB06KT P6SM SKC FM121700 25009KT P6SM SKC
KJFK,KJFK 112334Z 1200/1306 19008KT P6SM SKC FM120100 20006KT P6SM SKC FM120300 23005KT P6SM SKC FM121400 21007KT P6SM FEW250 FM121700 19012KT P6SM SCT250 FM130300 18011KT P6SM FEW020 SCT100 OVC250
KJHW,KJHW 112336Z 1200/1224 20006KT P6SM FEW250 FM120400 17007KT P6SM SCT250 FM121300 18009KT P6SM BKN250 FM121500 19011G20KT P6SM BKN250 FM122000 18014G22KT P6SM BKN100 FM122300 17013G19KT P6SM BKN080
KJKA,KJKA 112345Z 1200/1224 10007KT P6SM SCT020 BKN040 FM120600 VRB03KT P6SM VCSH SCT015 BKN030 FM121300 12004KT P6SM VCTS SCT020CB BKN060 FM121700 16008KT 6SM TSRA SCT030CB BKN050
KJKL,KJKL 112340Z 1200/1224 VRB03KT P6SM FEW250 FM121500 20008KT P6SM BKN200
KJLN,KJLN 112329Z 1200/1224 18013KT P6SM SCT250 FM121000 20015G25KT P6SM FEW240 WS020/22045KT TEMPO 1210/1213 VRB15G30KT 2SM TSRA BR OVC025CB FM121300 23012G22KT 6SM -SHRA BR OVC070 PROB30 1213/1215 4SM TSRA BR OVC025CB FM121500 27009KT P6SM OVC050 FM121700 32011KT P6SM SCT120
KJMS,KJMS 112320Z 1200/1224 30013G24KT P6SM SCT045 FM120300 28009KT P6SM SCT250 FM121200 29014G25KT P6SM SCT090 FM121700 31024G35KT P6SM SCT120
KJST,KJST 112320Z 1200/1224 16006KT P6SM SCT250 FM121500 18008G15KT P6SM BKN120 OVC200
KJVL,KJVL 112320Z 1200/1224 19014G24KT 4SM -SHRA BR VCTS OVC009CB FM120300 19015G26KT P6SM BKN021 FM120700 19016G27KT 6SM -SHRA BR VCTS BKN030CB FM121200 22014G24KT 6SM -SHRA BR VCTS OVC017CB FM121400 25015G23KT 6SM -SHRA BR VCTS OVC012CB FM121700 25013KT 6SM -SHRA BR BKN017 FM121900 26013G21KT P6SM FEW090
KJXN,KJXN 112348Z 1200/1224 19012G21KT P6SM -SHRA OVC070 TEMPO 1201/1205 5SM -SHRA BR BKN035 FM120500 19012G21KT P6SM -SHRA OVC050 WS020/21050KT FM121600 19017G35KT P6SM -SHRA OVC035 FM122200 23013G22KT 4SM SHRA BR BKN015
KJZI,KJZI 112320Z 1200/1224 06009KT P6SM SCT030 BKN070 FM121400 09009KT P6SM BKN035 FM121900 11009KT P6SM VCSH SCT020 OVC035
KLAF,KLAF 112338Z 1200/1224 18010KT P6SM VCSH OVC080 FM121300 20015G28KT P6SM VCSH BKN080 WS020/21045KT FM121800 21020G31KT P6SM SHRA OVC070 FM122000 23018G27KT P6SM SHRA BKN040 FM122200 25013G21KT P6SM SHRA BKN050 AMD LTD TO CLD VIS AND WIND 1201/1213
KLAL,KLAL 112322Z 1200/1224 07006KT P6SM BKN100 FM121100 07002KT 6SM BR BKN050 FM121800 10002KT P6SM OVC100 FM122100 13003KT P6SM VCTS OVC100CB AMD NOT SKED 1202/1211
KLAN,KLAN 112348Z 1200/1224 19012G21KT P6SM -SHRA OVC050 TEMPO 1201/1205 5SM -SHRA BR BKN025 FM120500 19012G21KT P6SM -SHRA OVC050 WS020/21050KT FM121600 19017G35KT P6SM -SHRA OVC035 FM122100 23013G22KT 4SM SHRA BR BKN015
KLAR,KLAR 112334Z 1200/1224 32020G30KT P6SM VCSH SCT040 BKN060 FM120200 30010KT P6SM SCT200 FM120700 26008KT P6SM FEW250 FM121600 30015G25KT P6SM SKC
KLAS,KLAS 112320Z 1200/1306 VRB05KT P6SM FEW120 FM120300 21007KT P6SM SKC FM121200 VRB05KT P6SM SKC FM121900 06006KT P6SM FEW120 FM130300 24006KT P6SM SKC
KLAW,KLAW 112325Z 1200/1224 17014G23KT P6SM SCT120 FM120500 17009G14KT P6SM SKC WS020/21040KT FM121100 22010KT P6SM FEW150 FM121300 35018G26KT P6SM SKC FM122300 01008KT P6SM SKC
KLAX,KLAX 112349Z 1200/1306 25005KT P6SM FEW017 SCT024 SCT050 FM120300 26008KT P6SM BKN015 FM121100 VRB03KT P6SM OVC012 FM121700 27005KT P6SM VCSH OVC020 FM122100 26010KT P6SM SCT021 FM130300 26008KT P6SM BKN015
KLBB,KLBB 112338Z 1200/1224 23015KT P6SM SKC FM120600 26015KT P6SM SKC FM121100 01015G25KT P6SM SKC FM121900 04009KT P6SM SKC
KLBE,KLBE 112322Z 1200/1224 21004KT P6SM SKC FM122100 18007KT P6SM VCSH OVC100
KLBF,KLBF 112332Z 1200/1224 35019G34KT P6SM BKN200 FM120300 34020G30KT P6SM OVC150 FM120500 33012G20KT P6SM FEW250 FM120900 29006KT P6SM SKC FM121500 28012G21KT P6SM SKC FM121700 30019G27KT P6SM FEW250 FM121900 32023G34KT P6SM FEW250 FM122200 32021G29KT P6SM FEW250
KLBL,KLBL 112336Z 1200/1224 20012KT P6SM FEW250 FM120530 36023G35KT 5SM BLDU BKN080 WS020/36050KT FM120700 36020G35KT P6SM BKN070 FM120900 36012KT P6SM SCT100 FM121200 34007KT P6SM SKC
KLBT,KLBT 112323Z 1200/1224 VRB03KT P6SM SCT150 FM121600 10006KT P6SM SCT070 FM122100 14007KT P6SM BKN150 AMD NOT SKED
KLBX,KLBX 112323Z 1200/1224 12008KT P6SM BKN035 BKN045 FM120300 VRB04KT P6SM FEW035 FM121000 VRB02KT 5SM BR FEW005 BKN013 FM121500 18006KT P6SM SCT015 FM121900 21007KT P6SM SCT035
KLCH,KLCH 112329Z 1200/1224 17005KT P6SM SCT250 FM120900 12003KT 6SM BR VCSH SCT018 BKN050 TEMPO 1211/1213 5SM BR OVC004 FM121500 20008KT P6SM VCSH SCT018 BKN050 FM122200 21006KT P6SM SCT250
KLCK,KLCK 112340Z 1200/1224 15003KT P6SM SCT250 FM121100 17005KT P6SM SCT050 OVC100 FM121500 18011G21KT P6SM SCT025 BKN100 FM122000 19015G25KT P6SM VCSH SCT030 OVC070
KLEB,KLEB 112323Z 1200/1224 VRB03KT P6SM SKC FM120900 00000KT 1/2SM FG VV002 FM121300 00000KT P6SM SKC
KLEE,KLEE 112336Z 1200/1224 06004KT P6SM SCT050 BKN080 FM121400 12004KT P6SM SCT020 BKN120 FM121800 13004KT P6SM VCSH SCT030 BKN150 FM122000 08004KT P6SM VCTS SCT030CB BKN150
KLEX,KLEX 112329Z 1200/1224 18013KT P6SM BKN100
KLFI,TAF KLFI 111700Z 1117/1223 VRB06KT 9999 FEW320 QNH3010INS TX20/1220Z TN10/1211Z
KLFK,KLFK 112339Z 1200/1224 13006KT P6SM SCT250 FM120900 18004KT P6SM BKN010 FM121500 20007KT P6SM SCT010 SCT120 FM121900 23007KT P6SM SCT040
KLFT,KLFT 112329Z 1200/1224 17004KT P6SM BKN050 FM121000 VRB03KT P6SM VCSH SCT030 BKN050 TEMPO 1211/1214 5SM BR BKN009 FM121700 20007KT P6SM VCSH SCT050 BKN100 PROB30 1217/1220 4SM SHRA BR BKN200 FM122100 21008KT P6SM SCT250
KLGA,KLGA 112334Z 1200/1306 20008KT P6SM FEW050 FM120200 24005KT P6SM SKC FM121400 22007KT P6SM FEW250 FM121800 18010KT P6SM SCT250 FM130300 18008KT P6SM FEW020 SCT100 OVC250
KLGB,KLGB 112349Z 1200/1224 30008KT P6SM BKN250 FM120700 VRB03KT P6SM OVC015 FM121500 VRB03KT P6SM OVC019
KLGU,KLGU 112340Z 1200/1224 33010KT P6SM FEW250 FM120300 VRB04KT P6SM SKC FM121800 29005KT P6SM SKC
KLIT,KLIT 112335Z 1200/1224 18008KT P6SM VCSH BKN100 TEMPO 1200/1203 -RA FM120300 VRB05KT P6SM SCT100 BKN250 FM121500 22008KT P6SM VCSH SCT040 BKN100 FM122000 24012KT P6SM VCTS SCT050CB BKN120 PROB30 1220/1224 4SM -TSRA BR BKN030CB
KLLQ,KLLQ 112335Z 1200/1224 16006KT P6SM SCT100 BKN250 FM121500 21010KT P6SM VCSH SCT040 OVC100 FM122200 24012KT P6SM VCTS SCT050CB BKN120 PROB30 1222/1224 5SM -TSRA BR BKN030CB AMD NOT SKED
KLMT,KLMT 112337Z 1200/1224 36005KT P6SM SKC
KLND,KLND 112328Z 1200/1224 VRB06KT P6SM FEW080 FM120100 VRB06KT P6SM FEW250
KLNK,KLNK 112324Z 1200/1224 21012G19KT P6SM SCT250 TEMPO 1203/1205 29015G25KT 5SM -TSRA BKN070CB FM120500 34014KT P6SM -SHRA SCT070 BKN090 FM120900 30007KT P6SM SCT250 FM121700 31018G28KT P6SM SKC
KLNS,KLNS 112320Z 1200/1224 18004KT P6SM FEW070 FM120200 VRB02KT P6SM SCT250 FM121600 18008G15KT P6SM BKN200
KLOZ,KLOZ 112340Z 1200/1224 VRB04KT P6SM FEW250 FM121300 17007KT P6SM BKN250 FM121500 20012G21KT P6SM SCT100 FM122300 19009KT P6SM -SHRA SCT050 BKN120
KLRD,KLRD 112330Z 1200/1224 16007KT P6SM SCT040 BKN250
KLRF,TAF KLRF 112300Z 1123/1305 VRB06KT 9999 BKN120 QNH2993INS BECMG 1211/1212 18009KT 9999 SCT060 BKN100 QNH2990INS BECMG 1216/1217 22012G18KT 9999 FEW050 SCT080 QNH2980INS BECMG 1220/1221 25015G25KT 8000 -SHRA BKN050 QNH2978INS TEMPO 1220/1223 25020G35KT 4800 TSRA BKN040CB BECMG 1301/1302 VRB06KT 9999 NSW SCT080 QNH2985INS TX29/1221Z TN15/1211Z
KLRU,KLRU 112320Z 1200/1224 23006KT P6SM FEW250 FM120300 27006KT P6SM FEW250 FM121200 VRB04KT P6SM SKC
KLSE,KLSE 112320Z 1200/1224 17015G24KT P6SM OVC035 FM120500 19012G22KT P6SM VCSH BKN025 FM120800 22013KT P6SM BKN025 FM121200 26013KT P6SM VCSH BKN050 FM121600 27012G22KT P6SM BKN100
KLSF,TAF KLSF 112122Z 1121/1303 11007KT 9999 FEW035 SCT120 QNH3011INS BECMG 1123/1200 11002KT 9999 SCT160 QNH3013INS BECMG 1207/1208 11003KT 9999 FEW006 BKN010 QNH3010INS TEMPO 1210/1215 8000 BR OVC006 BECMG 1215/1216 14006KT 9999 VCSH FEW010 BKN020 BKN035 OVC100 QNH2998INS TEMPO 1216/1218 9999 -SHRA SCT020 BKN045 TEMPO 1218/1220 16010G15KT 8000 -TSRA BKN025CB BECMG 1220/1221 07006KT 9999 VCSH SCT012 BKN020 OVC120 QNH2993INS BECMG 1223/1300 11004KT 9999 NSW FEW006 BKN012 BKN100 QNH2990INS TX23/1217Z TN16/1213Z LAST NO AMDS AFT 1203 NEXT 1213
KLSV,TAF KLSV 112300Z 1123/1305 15005KT 9999 FEW160 QNH2991INS BECMG 1202/1203 35008KT 9999 FEW150 QNH2993INS BECMG 1218/1219 08006KT 9999 FEW150 QNH3000INS BECMG 1303/1304 35005KT 9999 SKC QNH3003INS TX33/1222Z TN18/1211Z
KLTS,TAF KLTS 111701Z 1117/1223 20015G25KT 9999 FEW030 QNH2981INS BECMG 1123/1124 19009KT 9999 SKC 510102 QNH2981INS BECMG 1206/1207 21009KT 9999 FEW050 WS015/24040KT QNH2978INS BECMG 1213/1214 01015G25KT 9999 SKC 510002 QNH2989INS TEMPO 1214/1217 01020G35KT BECMG 1217/1218 02010G15KT 9999 SKC QNH2994INS TX28/1121Z TN16/1212Z
KLUF,TAF KLUF 112000Z 1120/1302 23009KT 9999 FEW120 QNH2990INS BECMG 1202/1203 VRB06KT 9999 FEW150 SCT250 QNH2993INS TX33/1123Z TN19/1213Z
KLUK,KLUK 112340Z 1200/1224 16003KT P6SM SCT250 FM121200 19005KT P6SM BKN120 FM121600 20010G18KT P6SM SCT050 BKN120 FM121800 20012G22KT P6SM VCSH SCT050 BKN100 FM122100 21012KT P6SM VCTS SCT015CB BKN025
KLVK,KLVK 112320Z 1200/1224 28010KT P6SM SKC FM120300 VRB03KT P6SM SKC FM122000 27009KT P6SM SKC
KLVM,KLVM 112340Z 1200/1224 28012G20KT P6SM FEW090 FM120400 25018G28KT P6SM FEW100 FM121400 32010KT P6SM FEW100
KLVS,KLVS 112323Z 1200/1224 28010KT P6SM FEW100 FM120600 VRB04KT P6SM SKC FM121900 20011G20KT P6SM SKC
KLWB,KLWB 112321Z 1200/1224 19007KT P6SM SCT250 FM120800 VRB04KT 4SM BR BKN250 FM121000 00000KT 2SM BR OVC002 TEMPO 1210/1212 1/4SM FG FM121300 00000KT P6SM BKN100 FM121700 18007KT P6SM SCT040 BKN080
KLWS,KLWS 112320Z 1200/1224 31008KT P6SM SKC FM120200 14003KT P6SM SKC FM121800 29003KT P6SM SKC
KLWT,KLWT 112333Z 1200/1224 28013KT P6SM SKC FM120700 29014G27KT P6SM FEW250 WS020/31040KT FM121600 31012G20KT P6SM BKN050
KLYH,KLYH 112321Z 1200/1224 16005KT P6SM SCT250 FM121400 VRB04KT P6SM BKN250 FM121600 20006KT P6SM BKN100 FM122000 20008KT P6SM OVC040
KMAF,KMAF 112320Z 1200/1224 20011KT P6SM FEW150 FM121200 25009KT P6SM SKC
KMBG,KMBG 112325Z 1200/1224 32016G26KT P6SM BKN250 FM120200 29010KT P6SM SCT250 FM121500 31026G41KT P6SM SCT250
KMBL,KMBL 112320Z 1200/1224 19012G23KT P6SM OVC040 FM120200 19010G16KT P6SM OVC022 FM120400 19012G21KT 6SM -SHRA BR OVC012 WS020/21045KT FM121200 19012G23KT 6SM -SHRA BR OVC018 FM121700 22017G30KT 6SM -SHRA BR OVC027 FM122000 26015G28KT 6SM -SHRA BR OVC050 FM122300 25009G18KT P6SM SCT120
KMBS,KMBS 112342Z 1200/1224 21013KT 6SM -SHRA OVC045 TEMPO 1201/1205 4SM RA OVC030 FM121400 21013G20KT P6SM SCT035 OVC080 FM121700 21018G30KT P6SM SCT045 BKN100 OVC250 PROB30 1220/1224 25025G40KT 2SM SHRA SCT015 OVC025
KMCB,KMCB 112327Z 1200/1224 00000KT P6SM SCT050 BKN250 FM121000 00000KT 6SM BR VCSH BKN015 OVC050 FM121600 21005KT P6SM -SHRA VCTS BKN020CB BKN060
KMCC,KMCC 112320Z 1200/1224 VRB05KT P6SM SKC
KMCE,KMCE 112320Z 1200/1224 30009KT P6SM SKC FM120600 32004KT P6SM SKC
KMCF,TAF AMD KMCF 112200Z 1122/1223 06006KT 9999 FEW070 BKN220 QNH3001INS TEMPO 1122/1201 VRB10G15KT 8000 -TSRA BKN090CB BECMG 1202/1203 06006KT 9999 BKN030 QNH3007INS TX30/1122Z TN21/1211Z
KMCI,KMCI 112328Z 1200/1224 20016G28KT P6SM SCT025 FM120100 20015KT P6SM SCT030 FM120900 31012G19KT P6SM -TSRA BKN045CB FM121100 31007KT P6SM BKN110 FM121400 29013G20KT P6SM SKC
KMCK,KMCK 112332Z 1200/1224 30018G25KT P6SM SCT200 TEMPO 1201/1203 35027G40KT 4SM BLDU BKN025 FM120400 35013G24KT P6SM BKN110 FM120900 27008KT P6SM SKC FM121800 30015G26KT P6SM SKC
KMCN,KMCN 112336Z 1200/1224 06006KT P6SM SKC FM120600 12005KT P6SM BKN020 FM120900 11004KT P6SM OVC010 FM121600 15006KT P6SM VCSH BKN012 TEMPO 1218/1222 5SM SHRA BKN025 FM122300 18007KT 5SM -SHRA BR BKN015
KMCO,KMCO 112336Z 1200/1306 05005KT P6SM SCT035 SCT060 BKN200 FM121400 12005KT P6SM SCT025 BKN150 FM121700 11006KT P6SM VCSH SCT030 BKN050 FM122000 08006KT P6SM VCTS SCT030CB BKN150 FM130100 11005KT P6SM VCSH SCT035 BKN150
KMCW,KMCW 112339Z 1200/1224 19014G22KT P6SM SKC FM120500 24013G21KT P6SM BKN250 FM120900 30012KT P6SM VCSH BKN050 FM121200 29007KT P6SM SCT250 FM121600 29021G31KT P6SM BKN100
KMDT,KMDT 112320Z 1200/1224 23004KT P6SM FEW070 FM120200 VRB02KT P6SM SCT250 FM121600 17008G15KT P6SM BKN200
KMDW,KMDW 112320Z 1200/1306 18015G25KT 6SM -SHRA BKN007 OVC050 FM120100 19015G25KT P6SM VCSH SCT020 BKN050 WS020/20045KT TEMPO 1205/1209 5SM -SHRA BR BKN020 FM120900 20016G28KT 5SM SHRA BR BKN015 PROB30 1209/1212 25020G35KT 2SM TSRA BR BKN008CB FM122100 27012G20KT P6SM SCT250 FM130000 24007KT P6SM SCT100
KMEI,KMEI 112340Z 1200/1224 00000KT P6SM FEW250 FM120900 00000KT P6SM OVC020 FM121000 18003KT P6SM OVC004 FM121300 VRB03KT 1 1/2SM BR VCTS OVC005CB FM121900 17007KT 6SM BR VCSH BKN050 FM122000 18008KT P6SM VCSH BKN013
KMEM,KMEM 112328Z 1200/1306 20003KT P6SM BKN150 FM121000 19006KT P6SM VCSH OVC100 FM121500 22014G22KT P6SM OVC100 FM121900 24013G20KT P6SM VCSH BKN100 TEMPO 1221/1301 4SM TSRA OVC020CB FM130300 32009KT P6SM BKN100
KMER,KMER 112320Z 1200/1224 30010KT P6SM SKC FM120600 32004KT P6SM SKC
KMEV,KMEV 112320Z 1200/1224 33008KT P6SM FEW090 SCT250 FM120300 12006KT P6SM SKC FM121500 VRB04KT P6SM FEW250 FM122000 36005KT P6SM FEW100
KMFD,KMFD 112337Z 1200/1224 17009KT P6SM SCT250 FM121300 19011KT P6SM BKN110 FM121900 19015G25KT P6SM VCSH BKN100
KMFE,KMFE 112320Z 1200/1224 09009KT P6SM FEW050 BKN080 FM120400 11005KT P6SM FEW250 FM120700 00000KT P6SM FEW250 FM121200 00000KT 5SM BR BKN006 FM121500 VRB03KT P6SM BKN035
KMFR,KMFR 112337Z 1200/1224 VRB03KT P6SM SKC
KMGE,TAF KMGE 112100Z 1121/1303 12009KT 9999 SCT045 QNH3019INS BECMG 1123/1124 11006KT 9999 FEW025 QNH3018INS BECMG 1206/1207 11006KT 9999 BKN012 QNH3016INS BECMG 1208/1209 11006KT 3200 -DZ OVC005 QNH3015INS BECMG 1215/1216 12006KT 8000 BR BKN012 OVC020 QNH3010INS BECMG 1217/1218 14009KT 9999 NSW BKN025 BKN200 QNH2999INS BECMG 1221/1222 16009KT 9000 -SHRA BKN025 BKN120 QNH2998INS BECMG 1301/1302 13006KT 9999 NSW BKN020 BKN100 QNH2997INS TX24/1122Z TN14/1211Z LAST NO AMDS AFT 1203 NEXT 1211
KMGM,KMGM 112340Z 1200/1224 07005KT P6SM SCT250 PROB30 1212/1213 4SM SHRA BR OVC025 FM121300 11005KT P6SM BKN014 PROB30 1213/1214 4SM SHRA BR OVC008 FM121400 11006KT P6SM BKN070 PROB30 1214/1215 4SM SHRA BR OVC025 FM121800 18007KT 6SM SHRA BR VCTS BKN035CB
KMGW,KMGW 112322Z 1200/1224 20003KT P6SM SKC FM121900 18007KT P6SM VCSH OVC100
KMHK,KMHK 112330Z 1200/1224 20015G23KT P6SM SKC FM120630 24016G24KT P6SM VCTS SCT040CB FM120700 27014G23KT 4SM TSRA BR BKN030CB FM120800 33013G25KT P6SM SHRA BKN040 FM120900 36010G21KT P6SM BKN090
KMHR,KMHR 112320Z 1200/1224 VRB05KT P6SM SKC
KMHT,KMHT 112323Z 1200/1224 VRB03KT P6SM SKC FM121700 20007KT P6SM SKC
KMIA,KMIA 112338Z 1200/1306 10010KT P6SM SCT025 BKN250 FM120600 VRB04KT P6SM SCT050 SCT250 FM121500 11010KT P6SM VCTS SCT025CB BKN040 FM122200 10006KT P6SM VCSH SCT030 BKN050 FM130300 VRB03KT P6SM SCT040 BKN050 BKN250
KMIB,TAF KMIB 111700Z 1117/1223 32025G35KT 9999 BKN030 BKN070 BKN150 510008 QNH2950INS TEMPO 1118/1120 8000 -SHRA BKN020 BKN070 BECMG 1120/1121 32025G35KT 9999 SCT070 BKN150 510006 QNH2957INS BECMG 1123/1124 31015G25KT 9999 SCT070 SCT150 510105 QNH2961INS BECMG 1207/1208 29012G18KT 9999 BKN060 510204 QNH2965INS BECMG 1214/1215 31015G25KT 9999 SCT050 BKN070 510105 QNH2976INS BECMG 1216/1217 31025G35KT 9999 SCT080 510009 QNH2979INS TX15/1121Z TN06/1212Z
KMIV,KMIV 112325Z 1200/1224 00000KT P6SM SKC FM121300 VRB03KT P6SM SCT250 FM121600 18008KT P6SM SCT250 FM121900 15008KT P6SM BKN250
KMKC,KMKC 112328Z 1200/1224 20015G28KT P6SM SCT030 FM120100 21015KT P6SM SCT030 FM120900 27009KT 6SM -TSRA BKN050CB FM121100 31006KT P6SM BKN090 FM121500 30012G18KT P6SM SKC
KMKE,KMKE 112320Z 1200/1306 18014G23KT 5SM -SHRA BR OVC011 TEMPO 1200/1203 OVC009 FM120300 19016G27KT P6SM OVC026 WS020/22045KT FM120700 20015G29KT 6SM -SHRA BR VCTS BKN035CB WS020/22045KT FM121300 23016G25KT 6SM -SHRA BR VCTS OVC028CB FM121800 25014G23KT 5SM -SHRA BR OVC017 FM122000 25014G22KT P6SM BKN040
KMKG,KMKG 112348Z 1200/1224 19018G30KT P6SM -SHRA BKN025 OVC050 TEMPO 1200/1204 3SM SHRA BR BKN015 OVC025 FM120500 19018G30KT P6SM -SHRA OVC035 WS020/21050KT FM121500 19018G40KT P6SM -SHRA SCT015 OVC025 FM121900 23012G21KT 4SM SHRA BR BKN015 FM122200 23010KT P6SM VCSH BKN035
KMKL,KMKL 112328Z 1200/1224 16004KT P6SM SCT250 FM121000 18007KT P6SM VCSH OVC100 FM121500 20011G20KT P6SM OVC100 FM121900 24013G21KT P6SM VCSH OVC100 TEMPO 1222/1224 4SM TSRA OVC020CB
KMKT,KMKT 112320Z 1200/1224 19017G27KT P6SM SCT070 TEMPO 1202/1204 5SM -TSRA BR BKN050CB FM120400 30016G25KT P6SM BKN070 TEMPO 1208/1210 -SHRA FM121000 28010KT P6SM SCT100 FM121700 30017G28KT P6SM BKN070 PROB30 1218/1222 -SHRA BKN050
KMLB,KMLB 112336Z 1200/1224 06007KT P6SM SCT035 SCT200 FM120400 07004KT P6SM SCT035 SCT060 FM121400 12006KT P6SM SCT030 SCT060 FM121600 11007KT P6SM VCSH SCT030 SCT150 FM122000 10008KT P6SM VCTS SCT035CB BKN150
KMLC,KMLC 112337Z 1200/1224 18010G20KT P6SM SCT060 SCT100 FM120100 17008KT P6SM SCT070 WS020/21040KT FM121400 25011KT P6SM SCT025 SCT035 SCT120 FM121700 34011KT P6SM FEW150
KMLI,KMLI 112338Z 1200/1224 18013G29KT P6SM SCT015 BKN025 FM120200 19016G31KT P6SM VCSH SCT050 WS020/21040KT FM121100 22015G30KT P6SM -SHRA VCTS BKN040CB BKN100 FM121300 22012G24KT P6SM VCSH BKN015 FM121700 29012KT P6SM SCT025
KMLS,KMLS 112340Z 1200/1224 31011G19KT P6SM FEW080 FM120100 30010KT P6SM FEW100 FM120600 31011KT P6SM VCSH BKN060 FM121500 31016G23KT P6SM SCT060 FM121800 32015G37KT P6SM SCT070
KMLU,KMLU 112339Z 1200/1224 18006KT P6SM BKN250 FM121500 20007KT P6SM SCT060 BKN250
KMMH,KMMH 112320Z 1200/1224 13008KT P6SM FEW090 SCT250 FM120300 25004KT P6SM SKC FM121800 14008G16KT P6SM FEW100 SCT250
KMMT,TAF KMMT 112300Z 1123/1305 VRB06KT 9999 SCT026 QNH3021INS BECMG 1205/1206 VRB06KT 9999 BKN026 QNH3012INS BECMG 1219/1220 14012KT 9000 -SHRA BKN024 QNH3007INS TEMPO 1221/1300 22020G30KT 9000 -TSRA BKN024CB OVC040 BECMG 1300/1301 14009KT 9000 BR SCT016 510023 QNH3002INS BECMG 1303/1304 15006KT 8000 BR BKN008 510013 QNH3001INS TEMPO 1304/1305 23020G25KT 8000 -TSRA BKN008CB OVC016 TX24/1219Z TN16/1211Z
KMOB,KMOB 112344Z 1200/1224 15006KT P6SM VCSH FEW020 SCT050 FM120500 VRB03KT P6SM VCSH SCT005 BKN012 TEMPO 1206/1210 4SM BR BKN005 FM121000 12004KT 6SM -RA VCTS BKN020CB FM121400 16008KT 6SM TSRA BKN030CB
KMOD,KMOD 112320Z 1200/1224 33007KT P6SM SKC
KMOT,KMOT 112320Z 1200/1224 29019G28KT P6SM SKC FM120300 28010KT P6SM FEW250 FM120900 29013G23KT P6SM BKN100 FM121500 31022G37KT P6SM FEW250
KMPV,KMPV 112320Z 1200/1224 VRB03KT P6SM SKC TEMPO 1208/1212 3SM BR SCT001 FM121700 17008G14KT P6SM BKN220
KMQY,KMQY 112320Z 1200/1224 14005KT P6SM SKC FM121600 19013G20KT P6SM SCT220 FM122200 20011G17KT P6SM VCTS SCT040CB SCT080
KMRB,KMRB 112322Z 1200/1224 13003KT P6SM FEW250 FM120100 00000KT P6SM FEW250 FM121600 17005KT P6SM BKN250
KMRY,KMRY 112320Z 1200/1224 VRB04KT 6SM BR BKN009 FM120400 VRB03KT 3SM BR OVC003 FM121100 VRB03KT 1SM BR OVC002 FM121600 VRB03KT 6SM BR SCT005 BKN010 FM121800 28007KT P6SM FEW010
KMSL,KMSL 112320Z 1200/1224 14005KT P6SM SCT230 FM121500 18011G18KT P6SM SCT110 FM121800 20013G21KT P6SM BKN045 PROB30 1220/1224 4SM TSRA OVC025CB
KMSN,KMSN 112320Z 1200/1224 18014G25KT P6SM OVC014 TEMPO 1200/1202 OVC009 FM120300 19015G26KT P6SM BKN016 WS020/21045KT FM120500 19015G28KT P6SM SCT022 WS020/21040KT FM120900 21014G25KT 6SM -SHRA BR VCTS BKN016CB FM121400 27014G23KT 6SM -SHRA BR VCTS OVC010CB FM121700 26013G22KT P6SM VCSH BKN021 FM121800 25013G22KT P6SM SCT035
KMSO,KMSO 112327Z 1200/1224 28015G22KT P6SM SKC FM120100 30014KT P6SM SKC FM120200 32005KT P6SM SKC FM121200 VRB03KT P6SM SKC FM122100 30012G19KT P6SM SKC
KMSP,KMSP 112320Z 1200/1306 18016G26KT P6SM SCT070 TEMPO 1203/1205 3SM TSRA BR BKN035CB FM120500 30014G23KT P6SM BKN070 TEMPO 1208/1211 -SHRA FM121100 28008KT P6SM SCT100 FM121700 29018G28KT P6SM BKN060 PROB30 1219/1223 -SHRA BKN040
KMSS,KMSS 112320Z 1200/1224 24009KT P6SM SKC FM120100 VRB03KT P6SM SKC FM121500 20009G18KT P6SM BKN180
KMSY,KMSY 112327Z 1200/1306 13006KT P6SM SCT050 BKN250 FM120300 VRB04KT P6SM SCT040 BKN250 FM121100 13005KT P6SM VCSH SCT025 BKN100 FM121500 18010KT P6SM -SHRA VCTS BKN025CB BKN080 FM130000 21005KT P6SM SCT025 BKN150
KMTC,TAF AMD KMTC 111735Z 1117/1217 21009KT 9999 FEW060 WS020/26030KT 510203 QNH3013INS TEMPO 1117/1120 22015G25KT BECMG 1123/1124 19012KT 9999 BKN050 OVC070 QNH3003INS BECMG 1207/1208 20012KT 9000 -RA SCT020 BKN030 OVC050 QNH2998INS BECMG 1215/1216 19012KT 9000 -RA SCT010 BKN020 OVC040 QNH2976INS TX23/1120Z TN08/1204Z
KMTH,KMTH 112324Z 1200/1224 08011KT P6SM SCT025
KMTJ,KMTJ 112320Z 1200/1224 30015G24KT P6SM FEW250 FM120100 27013KT P6SM FEW250 FM120300 15010KT P6SM FEW250 FM120600 14006KT P6SM FEW250
KMTN,KMTN 112322Z 1200/1224 17004KT P6SM SKC FM120300 00000KT P6SM FEW250 FM121400 19004KT P6SM FEW250 FM121600 16006KT P6SM SCT250 AMD NOT SKED AFT 120200
KMTW,KMTW 112338Z 1200/1224 19014G22KT P6SM VCSH SCT015 OVC025 TEMPO 1202/1204 BKN015 FM120400 20015G27KT P6SM OVC013 WS020/22040KT FM121100 20016G28KT P6SM -SHRA OVC015 WS020/22045KT TEMPO 1211/1215 5SM TSRA SCT015 OVC035CB FM121500 22016G27KT 5SM -SHRA OVC012 WS020/22045KT FM122000 26013G24KT P6SM SCT035 BKN070
KMUI,TAF KMUI 111914Z 1119/1301 VRB06KT 9999 SKC QNH3022INS BECMG 1214/1215 17012KT 9999 FEW150 QNH3006INS BECMG 1223/1224 15007KT 9999 BKN025 OVC140 QNH3005INS TX24/1219Z TN04/1211Z LAST NO AMDS AFT 1203 NEXT 1211
KMUO,TAF KMUO 111800Z 1118/1224 32012G20KT 9999 FEW120 SCT180 QNH3002INS TEMPO 1118/1201 32020G30KT 510009 BECMG 1200/1201 32010G15KT 9999 FEW120 FEW200 QNH3004INS BECMG 1202/1203 31009KT 9999 FEW100 FEW180 QNH3006INS BECMG 1208/1209 VRB06KT 9999 FEW200 QNH3009INS BECMG 1219/1220 32012KT 9999 FEW060 FEW100 QNH3010INS TX22/1123Z TN04/1213Z
KMVN,KMVN 112320Z 1200/1224 18008KT P6SM BKN070 OVC100 FM121100 21013G22KT P6SM VCSH OVC100 PROB30 1215/1219 3SM TSRA BKN050CB FM122000 25015G21KT P6SM BKN060
KMWH,KMWH 112320Z 1200/1224 23007KT P6SM SKC FM120400 35005KT P6SM SKC FM122000 VRB04KT P6SM SCT250
KMXF,TAF AMD KMXF 112015Z 1120/1217 VRB06KT 9999 SCT035 SCT050 QNH3011INS BECMG 1211/1212 VRB06KT 4800 BR OVC003 QNH3005INS BECMG 1216/1217 16012KT 8000 -SHRA OVC003 QNH3003INS TX28/1121Z TN11/1211Z LAST NO AMDS AFT 1203 NEXT 1211
KMYL,KMYL 112320Z 1200/1224 36008KT P6SM SKC FM120300 VRB05KT P6SM SKC
KMYR,KMYR 112323Z 1200/1224 09008KT P6SM SCT090 FM120800 07005KT P6SM FEW090 FM121800 11010KT P6SM BKN150
KNBC,TAF KNBC 1121/1221 09010KT 9999 SCT020 BKN030 BKN050 QNH3013INS TEMPO 1121/1203 08010G20KT BKN020 FM120300 07010KT 9999 BKN030 BKN050 QNH2998INS TEMPO 1215/1221 4800 SHRA BR BKN020 T19/1211Z T25/1217Z RTD 2125
KNBG,TAF KNBG 1123/1223 10008KT 9999 FEW030 SCT250 QNH3002INS FM120200 09006KT 6000 BR FEW010 SCT030 BKN080 BKN250 QNH2997INS TEMPO 1206/1209 VRB05KT 1600 BR BKN007 BKN035 OVC120 BECMG 1209/1211 12007KT 4800 BR VCSH BKN013CB BKN035 BKN120 OVC250 QNH3005INS TEMPO 1211/1217 VRB25G35KT 1600 +TSRA BR OVC008CB TEMPO 1217/1223 VRB25G35KT 1600 +TSRA BR OVC008CB AUTOMATED SENSOR METWATCH 1204 TIL 1211 T22/1211Z T28/1220Z FN00071
KNCA,TAF KNCA 1121/1221 VRB06KT 9999 FEW050 QNH3022INS FM121300 VRB06KT 9999 SKC QNH3008INS T12/1209Z T26/1219Z
KNEW,KNEW 112327Z 1200/1224 12010KT P6SM SCT040 BKN250 FM121300 14005KT P6SM -SHRA BKN020 BKN090 FM121700 18008KT P6SM -SHRA VCTS BKN025CB BKN090
KNFG,TAF KNFG 1121/1221 24010KT 9999 FEW015 SCT100 QNH2994INS TEMPO 1121/1200 25007G17KT BECMG 1202/1204 VRB05KT 9999 BKN012 QNH2997INS FM121830 22008KT 9999 FEW020 QNH3003INS T17/1214Z T25/1221Z
KNFL,TAF KNFL 1123/1223 VRB06KT 9999 SCT250 QNH3004INS TEMPO 1123/1205 02008KT FM120600 VRB06KT 9999 FEW250 QNH3008INS T07/1213Z T28/1223Z FS30123
KNFW,TAF KNFW 1123/1223 18015G22KT 9999 SCT075 BKN250 QNH2987INS FM120100 18012KT 9999 FEW070 SCT250 QNH2988INS BECMG 1215/1217 34015G24KT 9999 FEW250 QNH2985INS AUTOMATED SENSOR METWATCH 1204 TIL 1211 T19/1212Z T31/1222Z FN20048
KNGP,TAF KNGP 1123/1223 13012KT 9999 FEW025 FEW200 SCT250 QNH2994INS BECMG 1205/1207 VRB05KT 9999 VCSH SCT020 SCT250 QNH2995INS TEMPO 1208/1212 -RA BKN020 BKN250 FM121400 21007KT 9999 SCT025 SCT250 QNH2999INS FM121900 13010KT 9999 FEW035 SCT25 QNH2988INS AUTOMATED SENSOR METWATCH 1204 TIL 1211 T24/1212Z T32/1220Z FN20042
KNGU,TAF KNGU 1123/1223 VRB06KT 9999 SCT250 QNH3020INS FM121700 10008KT 9999 FEW030 SCT250 QNH3008INS T11/1210Z T24/1219Z FN20067
KNHK,TAF KNHK 1123/1223 19005KT 9999 FEW280 QNH3014INS BECMG 1215/1217 14009KT 9999 FEW050 SCT220 BKN280 QNH3002INS AUTOMATED SENSOR METWATCH 1203 TIL 1208 T12/1211Z T22/1220Z FN20066
KNID,TAF KNID 1123/1223 VRB05KT 9999 FEW080 QNH2992INS BECMG 1201/1203 21006KT 9999 SKC QNH2997INS WND VRB05KT AFT 1215 LAST NO AMDS AFT 1205 NEXT 1215 T14/1214Z T33/1222Z
KNIP,TAF KNIP 1123/1223 04010KT 9999 SCT030 BKN250 QNH3011INS FM120200 03005KT 9999 SCT025 BKN250 QNH3009INS TEMPO 1210/1213 4800 BR BKN007 BKN015 FM121300 04008KT 9999 FEW015 BKN030 BKN250 QNH3005INS FM121800 12009KT 9999 VCSH SCT025 BKN035 BKN250 QNH2998INS T21/1211Z T29/1219Z FN20083
KNJK,TAF KNJK 1123/1223 15006KT 9999 FEW100 SCT250 QNH2979INS FM120200 24006KT 9999 FEW100 FEW250 QNH2978INS FM120700 VRB04KT 9999 FEW100 QNH2985INS FM121700 15006KT 9999 FEW100 QNH2981INS AUTOMATED SENSOR METWATCH 1206 TIL 1213 T37/1123Z T23/1213Z FS30152
KNKT,TAF KNKT 1121/1221 07008KT 9999 FEW040 SCT220 QNH3025INS BECMG 1201/1203 06005KT 9999 SCT050 QNH3024INS FM120500 VRB06KT 9999 FEW030 QNH3010INS T14/1204Z T22/1216Z
KNKX,TAF KNKX 1121/1221 28008KT 9999 SCT020 SCT120 QNH2994INS BECMG 1203/1205 VRB05KT 9999 OVC012 QNH2999INS BECMG 1217/1219 28008KT 9999 SCT020 QNH3004INS T23/1121Z T17/1213Z
KNLC,TAF KNLC 1123/1223 35009KT 9999 FEW080 QNH2984INS TEMPO 1123/1203 VRB06KT FEW080 FEW220 FM120500 31007KT 9999 FEW160 FEW220 QNH2986INS T13/1212Z T34/1223Z FS30067
KNMM,TAF AMD KNMM 1120/1215 13009KT 9999 SCT200 QNH3007INS FM120000 VRB05KT 9999 SCT050 BKN180 QNH3004INS FM121000 16006KT 9999 VCSH SCT015 BKN030 BKN180 QNH3000INS T28/1121Z T16/1211Z AMD 2024 FN20082
KNPA,TAF KNPA 1123/1223 11008KT 9999 BKN015 BKN250 QNH3005INS TEMPO 1202/1206 SCT020 BKN040 FM120600 11006KT 9999 VCSH SCT020 BKN040 BKN120 QNH3003INS FM120900 13006KT 9999 VCTS BKN020CB BKN040 OVC100 QNH3004INS TEMPO 1210/1214 8000 SHRA BR FEW010 BKN015 FM121700 16008KT 9999 VCTS SCT025CB SCT050 BKN080 BKN250 QNH2999INS TEMPO 1220/1223 VRB15G25KT 4800 TSRA BR FEW007 BKN020CB OVC050 AUTOMATED SENSOR METWATCH 1203 TIL 1211 T21/1212Z T28/1218Z FN20053
KNQI,TAF KNQI 1123/1223 13011KT 9999 FEW050 FEW250 QNH2994INS BECMG 1201/1203 VRB05KT 9999 FEW020 QNH2996INS TEMPO 1208/1213 4800 BR SCT006 BKN012 BECMG 1215/1217 VRB05KT 9999 SCT040 BKN250 QNH2989INS AUTOMATED SENSOR METWATCH 1205 TIL 1212 T21/1212Z T35/1220Z FN20058
KNQX,TAF KNQX 1123/1223 09012KT 9999 FEW020 BKN250 QNH3000INS AUTOMATED SENSOR METWATCH 1202 TIL 1210 T28/1211Z T32/1219Z FN20073
KNRB,TAF KNRB 1123/1223 03015KT 9999 VCSH SCT015 BKN035 BKN250 QNH3010INS FM120100 04008KT 9999 BKN010 BKN020 BKN250 QNH3012INS TEMPO 1205/1209 BKN008 OVC030 FM121400 11010G15KT 9999 VCSH SCT020 BKN040 BKN250 QNH3008INS TEMPO 1216/1220 8000 -SHRA BKN020 OVC040 AUTOMATED SENSOR METWATCH 1204 TIL 1209 T23/1211Z T27/1219Z FN20098
KNSE,TAF KNSE 1123/1223 18007KT 9999 FEW020 SCT035 BKN250 QNH3006INS BECMG 1205/1207 11006KT 8000 BR SCT003 BKN200 QNH3000INS TEMPO 1207/1212 3200 BR OVC003 FM121200 12008KT 9999 VCSH BKN020CB BKN110 OVC200 QNH2996INS FM121500 14010KT 9999 VCSH SCT020CB BKN035 BKN200 QNH2993INS TEMPO 1216/1220 VRB15G25KT 4800 TSRA BKN015 BKN030CB OVC100 FM122100 VRB05KT 9999 VCSH SCT015 BKN035CB BKN150 QNH2990INS AUTOMATED SENSOR METWATCH 1204 TIL 1211 T20/1212Z T26/1216Z FN20029
KNTD,TAF KNTD 1123/1223 25010KT 9999 SCT012 BKN060CB QNH2993INS FM120100 28008KT 9999 VCSH FEW010 BKN055CB BKN120 QNH2992INS TEMPO 1201/1207 VRB06KT 9000 -TSRA BKN010 BKN055CB FM120700 VRB03KT 9000 BR FEW009 SCT050CB OVC100 QNH2994INS FM120900 VRB03KT 6000 BR OVC008 QNH2997INS FM121800 24008KT 9999 FEW008 SCT060 QNH2999INS AUTOMATED SENSOR METWATCH 1206 TIL 1213 T16/1210Z T22/1222Z FS30029
KNTU,TAF KNTU 1123/1223 VRB04KT 9999 SCT300 QNH3022INS FM121300 14006KT 9999 BKN300 QNH3015INS FM121800 14012KT 9999 BKN050 BKN150 OVC300 QNH3005INS T12/1210Z T21/1219Z FN20051
KNUC,TAF KNUC 1123/1223 29008KT 9999 VCTS BKN015CB QNH2994INS TEMPO 1123/1205 SCT015CB LAST NO AMDS AFT 1123 NEXT 1215 T21/1123Z T16/1212Z FS30197
KNUW,TAF KNUW 1123/1223 VRB06KT 9999 FEW250 QNH3019INS FM121000 VRB05KT 9000 BR BCFG FEW002 FEW050 SCT250 QNH3023INS FM121700 29008KT 9999 FEW050 SCT250 QNH3018INS T18/1123Z T06/1215Z FS30046
KNXP,TAF KNXP 1121/1221 VRB05KT 9999 FEW120 QNH2998INS FM120630 29006KT 9999 FEW120 QNH3008INS FM121830 14005KT 9999 FEW120 QNH3012INS T31/1121Z T18/1213Z
KNYG,TAF KNYG 1121/1221 16007KT 9999 SKC QNH3028INS BECMG 1208/1210 19006KT 9999 SCT250 QNH3015INS BECMG 1217/1219 19010KT 9999 OVC050 QNH3007INS LAST NO AMDS AFT 1121/ NEXT 1209 AUTOMATED SENSOR METWATCH 1123 TIL 1211 T09/1209Z T20/1221Z
KNYL,TAF KNYL 1121/1221 VRB06KT 9999 SCT080 QNH2980INS BECMG 1202/1204 VRB06KT 9999 SCT100 QNH2982INS FM121830 VRB06KT 9999 SKC QNH2988INS T34/1121Z T22/1214Z
KNZY,TAF AMD KNZY 1123/1223 28008KT 9999 VCTS FEW020 FEW050CB BKN110 QNH2992INS TEMPO 1123/1202 VRB15G25KT 6000 TSRA BKN020 BKN045CB FM120200 31004KT 9999 VCTS SCT015 BKN050CB BKN110 QNH2995INS TEMPO 1202/1206 VRB15G25KT 8000 TSRA BKN020 BKN050CB FM120600 VRB04KT 9999 OVC015 QNH2999INS FM121900 29011KT 9999 BKN020 BKN050 BKN100 QNH2998INS TEMPO 1219/1223 SCT020 T19/1214Z T22/1221Z AMD 2335 FS30139
KOAJ,KOAJ 112337Z 1200/1224 VRB03KT P6SM FEW250 AMD LTD TO CLD VIS AND WIND
KOAK,KOAK 112320Z 1200/1306 28010KT P6SM SKC FM120300 30006KT P6SM FEW008 FM120800 VRB04KT P6SM BKN007 FM121700 VRB04KT P6SM SKC FM122100 29010KT P6SM SKC FM130500 27005KT P6SM SCT007
KOFF,TAF KOFF 111800Z 1118/1224 20015G25KT 9999 FEW030 QNH2961INS BECMG 1201/1202 22009KT 9999 SCT050 WS020/23035KT QNH2963INS BECMG 1205/1206 33015G25KT 8000 -SHRA BKN100 WS020/34040KT QNH2975INS BECMG 1211/1212 33009KT 9999 NSW SKC QNH2978INS BECMG 1215/1216 33015G25KT 9999 SKC QNH2985INS BECMG 1217/1218 33025G35KT 9999 SKC QNH2981INS BECMG 1223/1224 33012G18KT 9999 BKN100 QNH2990INS TX29/1122Z TN11/1212Z
KOFK,KOFK 112324Z 1200/1224 24017G26KT P6SM SCT150 FM120100 30018G28KT P6SM BKN150 TEMPO 1201/1202 -SHRA BKN100 FM120400 32018G28KT P6SM -SHRA SCT060 BKN090 FM120700 31012KT P6SM SCT250 FM120900 30007KT P6SM SKC FM121600 31019G29KT P6SM SKC
KOGB,KOGB 112340Z 1200/1224 VRB03KT P6SM BKN040 FM121100 08005KT P6SM SCT015 BKN035 FM122200 13005KT P6SM VCSH SCT018 BKN035
KOGD,KOGD 112340Z 1200/1224 32009KT P6SM SKC FM120600 17007KT P6SM SKC FM121900 29004KT P6SM SKC
KOKC,KOKC 112325Z 1200/1224 18020G30KT P6SM SCT040 BKN060 FM120300 19013G21KT P6SM FEW150 SCT250 WS015/20045KT FM121100 22010KT P6SM FEW250 FM121300 35017G25KT P6SM FEW250 FM122300 35008KT P6SM SKC
KOLF,KOLF 112320Z 1200/1224 30018G26KT P6SM SCT090 FM120100 29014KT P6SM SCT090 FM121200 30016G25KT P6SM SKC
KOLM,KOLM 112320Z 1200/1224 35009KT P6SM SKC FM120300 00000KT P6SM SKC FM121100 04002KT 5SM BR SKC FM121500 VRB02KT 1/4SM FG SKC FM121800 03003KT P6SM SKC
KOLS,KOLS 112320Z 1200/1224 23005KT P6SM FEW080 SCT250 FM120300 VRB04KT P6SM SKC FM121800 09005KT P6SM SCT250
KOMA,KOMA 112324Z 1200/1224 19012G22KT P6SM SCT250 TEMPO 1203/1205 29015G25KT 5SM -TSRA BKN070CB FM120500 32013KT P6SM -SHRA SCT070 BKN090 FM121000 30007KT P6SM SCT250 FM121700 31018G28KT P6SM SKC
KONP,KONP 112323Z 1200/1224 03005KT P6SM SKC FM121800 04009KT P6SM SKC FM122100 35011KT P6SM SKC
KONT,KONT 112322Z 1200/1306 25005KT P6SM VCTS BKN100CB FM120100 VRB05KT P6SM SCT100 FM121000 VRB04KT 5SM BR OVC009 FM121600 VRB04KT 6SM HZ SCT012 SCT100 FM122000 26010KT P6SM SCT100
KOPF,KOPF 112338Z 1200/1224 10008KT P6SM SCT050 SCT250 FM120600 VRB04KT P6SM FEW040 SCT250 FM121500 12010KT P6SM VCTS SCT025CB BKN040 FM122200 10006KT P6SM VCSH SCT030 BKN050
KORD,KORD 112320Z 1200/1306 18015G25KT 6SM -SHRA BKN007 OVC050 FM120100 19015G25KT P6SM VCSH SCT020 BKN050 WS020/20045KT TEMPO 1205/1209 5SM -SHRA BR BKN020 FM120900 20016G28KT 5SM SHRA BR BKN015 PROB30 1209/1212 25020G35KT 2SM TSRA BR BKN008CB FM122100 27012G20KT P6SM SCT250 FM130000 24007KT P6SM SCT100
KORF,KORF 112323Z 1200/1224 14004KT P6SM BKN250 FM120600 17002KT 5SM BR SCT250 FM121400 16007KT P6SM SCT250
KORH,KORH 112329Z 1200/1224 25006KT P6SM SKC FM121600 22011KT P6SM FEW250 FM121800 21010G18KT P6SM FEW200
KOTH,KOTH 112337Z 1200/1224 36017G26KT P6SM SKC FM120400 05004KT P6SM SKC FM121100 VRB03KT 6SM BR BCFG FEW001 FM121700 35004KT P6SM SKC FM122000 34012KT P6SM SKC
KOTM,KOTM 112339Z 1200/1224 18013G19KT P6SM SCT050 FM120600 20014G24KT P6SM VCSH SCT100 FM120900 24011G20KT P6SM -SHRA BKN040 FM121300 30009KT P6SM BKN110 FM121700 29017G26KT P6SM FEW150
KOUN,KOUN 112325Z 1200/1224 17015G23KT P6SM SCT040 BKN060 FM120300 20011G17KT P6SM FEW250 WS015/20045KT FM121100 22010KT P6SM FEW250 FM121300 35016G25KT P6SM FEW250 FM122300 35009G14KT P6SM SKC
KOWB,KOWB 112320Z 1200/1224 17007KT P6SM SCT100 BKN250 FM121300 20012G21KT P6SM VCSH BKN100 PROB30 1218/1222 3SM TSRA BKN050CB FM122200 26015G21KT P6SM BKN060
KOXR,KOXR 112349Z 1200/1224 27010KT P6SM FEW018 FM120300 VRB03KT P6SM OVC015 FM120600 VRB03KT 6SM BR OVC010 FM121000 VRB03KT 4SM BR OVC008 FM121800 26005KT 6SM HZ VCSH BKN015 FM122100 27010KT P6SM OVC025
KOZR,TAF KOZR 111600Z 1116/1222 10008KT 9999 SCT030 SCT200 QNH3010INS BECMG 1202/1203 VRB06KT 9999 FEW015 SCT030 BKN050 BKN200 QNH3015INS BECMG 1205/1206 VRB04KT 9999 BKN015 BKN050 OVC200 QNH3012INS BECMG 1208/1209 09006KT 9999 SCT004 BKN008 BKN050 BKN120 QNH3006INS TEMPO 1209/1214 BKN004 BECMG 1214/1215 19008KT 6000 SHRA VCTS SCT008 BKN015CB OVC040 QNH2994INS TEMPO 1217/1222 VRB12G18KT 3200 TSRA BKN008CB TX30/1120Z TN17/1210Z
KPAE,KPAE 112320Z 1200/1224 33005KT P6SM SKC FM120400 00000KT P6SM SKC FM121200 VRB03KT P6SM SKC FM121900 34004KT P6SM SKC
KPAH,KPAH 112320Z 1200/1224 18007KT P6SM SCT150 SCT250 FM121400 20012G21KT P6SM VCSH BKN100 PROB30 1216/1220 3SM TSRA BKN050CB FM122100 25015G21KT P6SM BKN060
KPAM,TAF KPAM 111900Z 1119/1301 13009KT 9999 FEW200 QNH3003INS BECMG 1211/1212 07006KT 9999 BKN050 QNH2998INS TEMPO 1219/1221 9000 -SHRA BKN020 BECMG 1220/1221 17009KT 9999 SCT040 QNH2996INS TX29/1119Z TN23/1211Z
KPBF,KPBF 112335Z 1200/1224 16006KT P6SM SCT100 BKN250 FM121500 21010KT P6SM VCSH SCT040 OVC100 FM122200 24012KT P6SM VCTS SCT050CB BKN120 PROB30 1222/1224 5SM -TSRA BR BKN030CB
KPBG,KPBG 112320Z 1200/1224 16004KT P6SM SKC FM121400 15007KT P6SM SCT250 FM121800 16012G18KT P6SM BKN200
KPBI,KPBI 112338Z 1200/1224 08007KT P6SM SCT030 BKN250 FM121200 10007KT P6SM SCT050 SCT250 FM121600 11010KT P6SM VCTS SCT025CB BKN040 FM122200 10096KT P6SM VCSH SCT030 BKN050
KPDK,KPDK 112336Z 1200/1224 10004KT P6SM FEW060 FM120600 12005KT P6SM BKN020 FM120900 11004KT P6SM OVC010 TEMPO 1211/1215 -DZ BKN005 FM121600 15006KT P6SM VCSH BKN012 PROB30 1218/1222 5SM SHRA BKN025 FM122300 18007KT 5SM -SHRA BR BKN015
KPDT,KPDT 112320Z 1200/1224 31005KT P6SM SKC FM120300 12005KT P6SM SKC FM122100 24006KT P6SM SKC
KPDX,KPDX 112324Z 1200/1224 32003KT P6SM SKC
KPEQ,KPEQ 112320Z 1200/1224 23008KT P6SM SCT080 FM121800 34007KT P6SM SKC
KPGA,KPGA 112320Z 1200/1224 VRB06KT P6SM FEW140
KPGD,KPGD 112322Z 1200/1224 06006KT P6SM FEW040 BKN250 FM121500 12007KT P6SM BKN200 FM122100 27006KT P6SM VCTS BKN100CB
KPGV,KPGV 112337Z 1200/1224 00000KT P6SM FEW250 FM120500 00000KT 5SM BR FEW250 FM121200 12005KT P6SM FEW250 AMD LTD TO CLD VIS AND WIND
KPHF,KPHF 112323Z 1200/1224 11004KT P6SM BKN250 FM120600 VRB03KT P6SM SCT250 TEMPO 1207/1211 3SM BR FM121500 18008KT P6SM SCT250
KPHL,KPHL 112325Z 1200/1306 22006KT P6SM FEW050 FM120300 VRB03KT P6SM SKC FM121400 19007KT P6SM SCT250 FM121700 19010KT P6SM BKN250 FM122300 16007KT P6SM BKN200
KPHX,KPHX 112320Z 1200/1306 26006KT P6SM FEW100 FEW250 FM120600 10005KT P6SM SKC FM122000 25006KT P6SM FEW120
KPIA,KPIA 112335Z 1200/1224 17014KT P6SM VCSH SCT015 BKN040 FM120100 18013G18KT P6SM VCSH BKN040 WS020/22045KT FM121200 20014G22KT P6SM VCSH BKN040 OVC080 TEMPO 1213/1216 4SM -SHRA BKN025 FM121700 26012G20KT P6SM -SHRA BKN014 FM121900 28012KT P6SM BKN040
KPIB,KPIB 112340Z 1200/1224 15004KT P6SM SKC FM120700 18003KT P6SM OVC007 FM120900 00000KT 4SM -SHRA BR OVC003 FM121300 00000KT 4SM -SHRA BR OVC007 FM121800 20006KT P6SM OVC050 PROB30 1218/1220 P6SM -SHRA OVC100
KPIE,KPIE 112322Z 1200/1224 03006KT P6SM SCT080 BKN200 FM121200 09004KT P6SM FEW035 BKN200 FM121600 11004KT P6SM BKN200 FM122000 30004KT P6SM VCTS SCT040 OVC100CB
KPIH,KPIH 112320Z 1200/1224 26015KT P6SM FEW060 FM120200 21010KT P6SM SKC FM121200 VRB04KT P6SM SKC FM121600 24006KT P6SM SKC FM121900 31006KT P6SM SKC
KPIR,KPIR 112325Z 1200/1224 33016G26KT P6SM OVC100 FM120200 28011KT P6SM SCT250 FM121500 31028G40KT P6SM BKN250
KPIT,KPIT 112322Z 1200/1306 18004KT P6SM SKC FM120300 15004KT P6SM SCT250 FM122100 18007KT P6SM VCSH OVC100 FM130300 18008KT P6SM -SHRA OVC025
KPKB,KPKB 112320Z 1200/1224 VRB04KT P6SM SCT250 FM121500 19007KT P6SM BKN110
KPLN,KPLN 112320Z 1200/1224 18009G17KT P6SM SCT070 FM121400 19013G24KT 6SM -SHRA BR OVC018 FM122000 24016G26KT 6SM -SHRA BR OVC018 FM122300 26011G19KT P6SM SHRA BKN027
KPMD,KPMD 112349Z 1200/1224 22008KT P6SM VCTS SCT080CB FM120600 18005KT P6SM VCSH BKN100
KPNA,KPNA 112328Z 1200/1224 30015G25KT P6SM SKC FM120300 30008KT P6SM FEW250 FM121600 30020G30KT P6SM SKC
KPNC,KPNC 112325Z 1200/1224 19016G25KT P6SM SCT120 FM120300 19012G16KT P6SM SCT250 WS020/20045KT FM121200 35017G25KT P6SM SCT150 FM122100 33012G18KT P6SM SKC
KPNE,KPNE 112325Z 1200/1224 24005KT P6SM FEW060 FM120200 VRB02KT P6SM SKC FM121400 19005KT P6SM SCT250 FM121700 19008KT P6SM BKN250 FM122300 16005KT P6SM BKN200
KPNS,KPNS 112344Z 1200/1224 16007KT P6SM SCT020 SCT050 FM120800 VRB03KT P6SM VCSH SCT020 BKN040 FM121300 10006KT P6SM VCTS SCT025CB BKN060 FM121700 16009KT 6SM TSRA SCT030CB BKN050
KPOB,TAF KPOB 111700Z 1117/1223 06008KT 9999 FEW050 SCT200 QNH3027INS BECMG 1202/1203 12005KT 9999 SCT040 SCT080 QNH3023INS BECMG 1212/1213 13007KT 9999 FEW020 SCT040 BKN080 QNH3010INS BECMG 1218/1219 14010KT 9999 SCT020 BKN030 OVC080 QNH3006INS BECMG 1221/1222 18010G15KT 9999 BKN020 OVC030 QNH3005INS TX24/1120Z TN13/1210Z LAST NO AMDS AFT 1122 NEXT 1217
KPOE,TAF KPOE 112300Z 1123/1305 15007KT 9999 FEW040 SCT150 QNH3003INS BECMG 1205/1206 VRB06KT 9999 SCT015 SCT100 QNH3003INS BECMG 1209/1210 VRB06KT 9999 VCSH BKN010 QNH2999INS BECMG 1214/1215 19009KT 9999 VCSH BKN012 QNH2999INS BECMG 1217/1218 20012KT 9999 SCT020 QNH2995INS BECMG 1223/1224 VRB06KT 9999 SCT040 QNH2986INS TX27/1123Z TN19/1203Z LAST NO AMDS AFT 1205 NEXT 1215
KPOU,KPOU 112337Z 1200/1224 00000KT P6SM SKC FM121600 20005KT P6SM SCT200
KPQI,KPQI 112320Z 1200/1224 00000KT P6SM SKC TEMPO 1210/1212 2SM BR FEW002 FM121500 21007KT P6SM SCT200
KPRB,KPRB 112349Z 1200/1224 19012KT P6SM SKC FM120200 23006KT P6SM SKC FM120600 VRB03KT P6SM SKC FM121700 18006KT P6SM SKC FM122300 32008KT P6SM SKC
KPRC,KPRC 112320Z 1200/1224 32007KT P6SM VCSH SCT080 FM120100 20007KT P6SM SKC FM121500 VRB06KT P6SM SKC
KPSC,KPSC 112320Z 1200/1224 VRB05KT P6SM SKC
KPSF,KPSF 112337Z 1200/1224 31003KT P6SM SKC TEMPO 1206/1208 2SM BR FEW003 FM120800 00000KT 1SM BR SCT002 FM121300 19008KT P6SM SCT200
KPSM,KPSM 112323Z 1200/1224 VRB03KT P6SM FEW250 FM121700 19007KT P6SM SCT250
KPSP,KPSP 112322Z 1200/1224 30005KT P6SM VCTS BKN100CB FM120200 33007KT P6SM SCT100 FM120600 VRB04KT P6SM SCT100 FM121900 10009KT P6SM SCT100
KPTK,KPTK 112342Z 1200/1224 18010KT P6SM -SHRA SCT045 OVC080 FM121400 21013G20KT P6SM SCT035 OVC080 FM121700 21018G30KT P6SM SCT045 BKN100 OVC250 PROB30 1221/1224 25025G40KT 2SM SHRA SCT015 OVC025
KPUB,KPUB 112331Z 1200/1224 30018G28KT P6SM SCT100 BKN250 FM120100 33020G30KT P6SM FEW110 SCT250 FM120400 36025G35KT P6SM FEW250 FM120600 35010KT P6SM SKC FM120900 VRB05KT P6SM SKC FM122100 06013KT P6SM SKC
KPUW,KPUW 112320Z 1200/1224 27009G14KT P6SM SKC FM120100 VRB02KT P6SM SKC
KPVD,KPVD 112329Z 1200/1224 24003KT P6SM SKC FM121600 21010KT P6SM FEW200
KPVU,KPVU 112340Z 1200/1224 34012G20KT P6SM SKC FM120200 33008KT P6SM SKC FM120500 VRB05KT P6SM SKC FM121800 27005KT P6SM SKC
KPVW,KPVW 112338Z 1200/1224 22011KT P6SM SKC FM120600 26015KT P6SM SKC FM121000 36015G25KT P6SM SKC FM121800 04009KT P6SM SKC
KPWM,KPWM 112323Z 1200/1224 VRB03KT P6SM SKC FM121700 18007KT P6SM SKC
KPWT,KPWT 112320Z 1200/1224 03006KT P6SM SKC FM120400 00000KT P6SM SKC FM121200 03002KT 6SM BR FEW250 FM121800 03003KT P6SM SKC
KRAP,KRAP 112320Z 1200/1224 33015G25KT P6SM SCT120 FM120200 30011KT P6SM SCT100 FM121400 32020G32KT P6SM SCT250 FM121700 32030G50KT P6SM SCT250
KRBG,KRBG 112337Z 1200/1224 36008KT P6SM SKC FM120300 VRB02KT P6SM SKC FM121300 03002KT 6SM BR BCFG FEW002 FM121700 03003KT P6SM SKC
KRBL,KRBL 112320Z 1200/1224 VRB05KT P6SM SKC
KRCA,TAF KRCA 111845Z 1119/1301 36025G43KT 9999 SCT080 BKN260 520001 QNH2968INS TEMPO 1119/1122 9000 -SHRA BKN080 BECMG 1123/1124 33015G25KT 9999 FEW200 530053 QNH2983INS BECMG 1203/1204 33012KT 9999 FEW100 SCT150 QNH2993INS BECMG 1214/1215 34030G52KT 9999 FEW100 SCT150 530002 QNH3002INS BECMG 1222/1223 34015G30KT 9999 FEW100 SCT150 520002 QNH3008INS TX15/1120Z TN05/1210Z
KRDD,KRDD 112320Z 1200/1224 VRB05KT P6SM SKC
KRDG,KRDG 112325Z 1200/1224 VRB02KT P6SM SKC FM121400 19005KT P6SM SCT250 FM121600 18010KT P6SM BKN250 FM122200 15005KT P6SM BKN200
KRDM,KRDM 112320Z 1200/1224 34007KT P6SM SKC FM120400 16004KT P6SM SKC FM122100 35006KT P6SM SKC
KRDR,TAF AMD KRDR 111859Z 1119/1224 25012KT 9999 SCT110 QNH2935INS TEMPO 1121/1201 26015G25KT BKN050 520003 BECMG 1201/1202 28012KT 9999 BKN050 620805 QNH2954INS TEMPO 1213/1217 30010G20KT 9000 -SHRA BECMG 1218/1219 31020G30KT 9999 SKC 520003 QNH2960INS TX25/1119Z TN06/1213Z
KRDU,KRDU 112340Z 1200/1224 00000KT P6SM FEW060 BKN250 FM120900 17005KT P6SM BKN050 BKN200
KRFD,KRFD 112320Z 1200/1224 19015G25KT 4SM -SHRA BKN008 BKN050 FM120100 19015G25KT 4SM -SHRA BKN008 BKN050 WS020/20045KT FM120700 20017G29KT 5SM TSRA BR BKN015CB TEMPO 1207/1209 25020G37KT 1SM TSRA BR BKN008CB FM120900 21016G25KT P6SM VCSH BKN020 FM121800 27012G20KT P6SM SCT100
KRHI,KRHI 112338Z 1200/1224 19012G26KT P6SM SCT025 BKN040 WS020/20035KT TEMPO 1202/1204 BKN025 FM120400 20013G23KT P6SM OVC014 WS020/21040KT FM120800 22009G17KT P6SM -SHRA OVC012 TEMPO 1208/1212 4SM TSRA SCT012 OVC035CB FM121200 26010G17KT 5SM -SHRA OVC007 FM121600 26012G24KT P6SM -SHRA BKN012 FM121800 27012G24KT P6SM VCSH BKN035 BKN060
KRIC,KRIC 112323Z 1200/1224 15004KT P6SM BKN250 FM120800 VRB02KT 5SM BR SCT250 FM121400 19007KT P6SM BKN250
KRIL,KRIL 112320Z 1200/1224 28022G32KT P6SM FEW250 FM120200 29010KT P6SM FEW250 FM120500 26006KT P6SM FEW250
KRIV,TAF KRIV 112000Z 1120/1302 32009KT 9999 FEW100 SCT120 BKN250 QNH2999INS BECMG 1121/1122 32009KT 9999 VCTS SCT090CB BKN120 BKN250 510005 QNH2996INS TEMPO 1122/1202 VRB15G25KT 8000 -TSRA BKN090CB BKN200 BECMG 1201/1202 32009KT 9999 VCSH FEW090 BKN120 BKN200 QNH2999INS BECMG 1206/1207 32006KT 9000 HZ BKN120 QNH3006INS BECMG 1207/1208 30004KT 4800 BR OVC005 QNH3005INS BECMG 1215/1216 VRB04KT 6000 BR OVC008 QNH3010INS BECMG 1216/1217 32006KT 8000 HZ BKN010 QNH3010INS BECMG 1217/1218 32006KT 9999 NSW SCT012 SCT100 QNH3009INS BECMG 1219/1220 32006KT 9999 SCT100 BKN250 510005 QNH3001INS TS OMTNS NE-SE TEMPO 1220/1302 32012G20KT 9000 VCTS SCT100CB BKN250 TX28/1121Z TN17/1214Z
KRIW,KRIW 112328Z 1200/1224 03010KT P6SM FEW100 FM120300 VRB06KT P6SM SKC
KRKD,KRKD 112323Z 1200/1224 VRB03KT P6SM SKC FM121700 20005KT P6SM SKC
KRKS,KRKS 112328Z 1200/1224 28025G35KT P6SM FEW100 FM120100 27015G25KT P6SM SKC FM120600 23010G20KT P6SM SKC FM121700 28015G25KT P6SM SKC
KRME,KRME 111720Z 1118/1218 VRB03KT P6SM SKC FM121400 16006G14KT P6SM SCT200
KRND,TAF KRND 111530Z 1116/1222 15010G15KT 9999 SCT030 SCT050 QNH2996INS BECMG 1200/1201 15008KT 9999 FEW055 QNH2996INS BECMG 1211/1212 VRB06KT 8000 BR FEW003 BKN007 BKN018 QNH2998INS BECMG 1215/1216 VRB06KT 9999 NSW SCT018 SCT110 QNH2987INS TX32/1122Z TN20/1212Z LAST NO AMDS AFT 1200 NEXT 1210
KRNH,KRNH 112320Z 1200/1224 17014G22KT P6SM SCT050 TEMPO 1204/1206 3SM TSRA BR BKN035CB FM120600 30013G21KT P6SM BKN070 TEMPO 1209/1212 -SHRA FM121200 28008KT P6SM SCT100 FM121700 29015G25KT P6SM BKN060 PROB30 1219/1224 -SHRA BKN040
KRNO,KRNO 112320Z 1200/1224 35007KT P6SM FEW090 SCT250 FM120300 VRB04KT P6SM SKC FM122000 07007KT P6SM FEW100
KROA,KROA 112321Z 1200/1224 14007KT P6SM BKN250 FM121200 VRB02KT P6SM SCT250 FM121600 16006KT P6SM BKN100 FM121900 17008G16KT P6SM BKN050 FM122300 18008KT P6SM BKN025
KROC,KROC 112336Z 1200/1224 25004KT P6SM FEW040 FM120100 21006KT P6SM FEW250 FM120200 20007KT P6SM FEW250 FM121400 19010G17KT P6SM BKN250 FM121700 19012G22KT P6SM BKN200 FM122000 19011G19KT P6SM BKN100
KROG,KROG 112337Z 1200/1224 19012KT P6SM SCT100 FM120100 17011KT P6SM SCT080 WS020/23040KT FM121300 23010KT P6SM SCT015 SCT030 BKN090 PROB30 1213/1216 -TSRA BKN015CB FM121600 29012KT P6SM SCT020 SCT035 FM122000 32011KT P6SM FEW150
KROW,KROW 112323Z 1200/1224 23009KT P6SM FEW100 FM120600 VRB06KT P6SM SKC
KRSL,KRSL 112320Z 1200/1224 19014KT P6SM FEW250 FM120500 36020G30KT P6SM VCSH SCT110 FM120800 36012KT P6SM FEW250 FM121900 29015G23KT P6SM SKC
KRST,KRST 112320Z 1200/1224 19020G30KT P6SM BKN040 FM120400 20015G27KT P6SM VCTS SCT020CB BKN050 FM120700 23012G21KT P6SM VCSH BKN060 FM121300 28012KT P6SM FEW150 FM121500 28015G28KT P6SM SCT150
KRSW,KRSW 112322Z 1200/1224 06006KT P6SM VCTS BKN200CB FM121500 12007KT P6SM SCT200 FM122100 21007KT P6SM VCTS BKN100CB
KRUT,KRUT 112320Z 1200/1224 12005KT P6SM SKC FM121300 20006KT P6SM FEW240 FM121800 19010G16KT P6SM BKN220
KRVS,KRVS 112337Z 1200/1224 18014G25KT P6SM FEW070 FM120200 18011KT P6SM FEW040 FEW090 WS020/21045KT FM121200 VRB06KT P6SM SCT030 BKN090 WS020/21040KT PROB30 1212/1215 -RA BKN035 FM121500 35011KT P6SM FEW150
KRWF,KRWF 112320Z 1200/1224 19015G25KT P6SM SCT150 FM120100 30015G23KT P6SM BKN120 TEMPO 1205/1208 -SHRA BKN090 FM120800 28008KT P6SM FEW100 FM121600 30020G32KT P6SM BKN070 PROB30 1216/1221 -SHRA BKN040
KRWI,KRWI 112340Z 1200/1224 00000KT P6SM FEW060 BKN250 TEMPO 1209/1213 3SM BR FM121400 16005KT P6SM BKN060 BKN200
KRWL,KRWL 112334Z 1200/1224 33012KT P6SM SCT120 FM120600 26008KT P6SM FEW250 FM121600 28015G25KT P6SM SKC
KRYY,KRYY 112336Z 1200/1224 12006KT P6SM FEW050 FM120600 12005KT P6SM BKN020 FM120900 11004KT P6SM OVC010 TEMPO 1211/1215 -DZ BKN005 FM121600 15006KT P6SM VCSH BKN012 PROB30 1218/1222 5SM SHRA BKN025 FM122300 18007KT 5SM -SHRA BR BKN015
KSAC,KSAC 112320Z 1200/1224 VRB05KT P6SM SKC
KSAF,KSAF 112323Z 1200/1224 31012G19KT P6SM SCT090 FM120200 32009KT P6SM FEW100 FM120500 VRB06KT P6SM SKC FM122000 29011KT P6SM SKC
KSAN,KSAN 112322Z 1200/1306 28008KT P6SM VCSH SCT020 SCT050 FM120200 30005KT P6SM SCT017 BKN090 FM120400 VRB04KT P6SM OVC017 FM121900 29009KT P6SM SCT020 SCT100 FM130200 30004KT P6SM OVC017
KSAT,KSAT 112323Z 1200/1306 15008KT P6SM SCT060 SCT250 FM120700 21004KT P6SM SCT007 BKN010 FM121600 22007KT P6SM SCT060 FM130500 36005KT P6SM SCT060
KSAV,KSAV 112320Z 1200/1224 07010KT P6SM BKN015 FM120200 06007KT P6SM SCT015 BKN035 FM121600 10009KT P6SM VCSH SCT025 OVC040 TEMPO 1219/1223 4SM SHRA BKN025
KSAW,KSAW 112342Z 1200/1224 18014G22KT P6SM SCT050 WS020/20042KT FM120500 19012G20KT P6SM BKN019 WS020/21042KT FM121000 19011G21KT 6SM BR VCSH BKN005 FM121400 20011G21KT 6SM SHRA OVC005 FM121600 27015G23KT 6SM -SHRA BR OVC009 FM122100 28010G18KT P6SM SCT025 BKN040
KSBA,KSBA 112349Z 1200/1224 25008KT P6SM SCT016 FM120300 VRB03KT 6SM BR BKN010 FM120800 VRB03KT 2SM BR OVC005 FM121800 VRB03KT 6SM HZ BKN008 FM122000 22005KT P6SM OVC250
KSBD,KSBD 112322Z 1200/1224 22007KT 3SM HZ SCT110 FM120400 26006KT P6SM SCT100 FM121200 VRB04KT 5SM BR BKN009 FM121600 VRB04KT 5SM HZ SCT010
KSBM,KSBM 112320Z 1200/1224 19014G25KT P6SM OVC022 FM120400 19015G25KT P6SM OVC011 FM120700 19015G27KT P6SM VCTS BKN027CB WS020/22040KT FM121100 20015G27KT P6SM VCTS BKN019CB WS020/22040KT FM121400 23017G26KT 6SM -SHRA BR VCTS OVC019CB FM121900 26014G25KT P6SM BKN035
KSBN,KSBN 112320Z 1200/1224 18015KT P6SM -SHRA BKN050 OVC080 FM120400 18015KT P6SM OVC080 WS020/21050KT FM121400 21017G26KT P6SM VCSH OVC050 FM121900 24014G25KT 5SM -SHRA BR BKN025 OVC040 TEMPO 1220/1223 3SM SHRA BR BKN015 OVC025
KSBP,KSBP 112349Z 1200/1224 30010KT P6SM SKC FM120300 VRB03KT P6SM OVC010 FM120600 VRB03KT P6SM OVC008 FM121000 VRB03KT 2SM BR OVC005 FM121700 VRB03KT 5SM BR SCT008 FM122100 30010KT P6SM SCT250
KSBY,KSBY 112323Z 1200/1224 20004KT P6SM FEW250 FM120800 VRB02KT 5SM BR SCT250 FM121500 17008KT P6SM SCT250
KSCK,KSCK 112320Z 1200/1224 30006KT P6SM SKC
KSDF,KSDF 112329Z 1200/1306 13005KT P6SM FEW200 FM120700 17010KT P6SM OVC080 FM121500 21014G25KT P6SM OVC080 FM130000 23010KT 6SM -SHRA BR OVC060
KSDL,KSDL 112320Z 1200/1224 21005KT P6SM FEW100 FEW250 FM120300 VRB03KT P6SM SKC FM122000 20004KT P6SM FEW120
KSDY,KSDY 112320Z 1200/1224 29015G23KT P6SM FEW080 FM120200 28011KT P6SM FEW090 FM121500 30020G29KT P6SM SKC FM121700 31024G34KT P6SM SCT050
KSEA,KSEA 112320Z 1200/1306 01007KT P6SM SKC FM120300 02004KT P6SM SKC TEMPO 1212/1215 2SM BR BKN004 FM121600 02002KT P6SM SKC FM121900 34004KT P6SM SKC
KSEZ,KSEZ 112320Z 1200/1224 08006KT P6SM SCT120 FM120300 04009KT P6SM SKC FM122000 19005KT P6SM SKC
KSFB,KSFB 112336Z 1200/1224 04004KT P6SM SCT030 SCT050 SCT220 FM121400 11005KT P6SM SCT025 BKN150 FM121700 09005KT P6SM VCSH SCT025 BKN120 FM122000 07006KT P6SM VCTS SCT035CB BKN150
KSFF,KSFF 112320Z 1200/1224 30008KT P6SM SKC FM120200 VRB02KT P6SM SKC FM122000 26005KT P6SM FEW250
KSFO,KSFO 112320Z 1200/1306 30018KT P6SM FEW006 FM120300 28011KT P6SM FEW006 FM121200 29008KT P6SM BKN006 FM121700 29008KT P6SM SKC FM122100 28018KT P6SM SKC
KSGF,KSGF 112329Z 1200/1224 18010G20KT P6SM BKN130 FM120600 17015G24KT P6SM SCT190 FM121100 20012G20KT P6SM SCT030 BKN220 WS020/23045KT TEMPO 1211/1214 VRB15G30KT 2SM TSRA BR OVC025CB FM121400 24010KT P6SM OVC070 PROB30 1214/1216 4SM TSRA BR OVC025CB FM121600 29012KT P6SM OVC025 FM121800 31012KT P6SM BKN080
KSGJ,KSGJ 112025Z 1120/1218 03011G16KT P6SM SCT025 SCT070 BKN250 FM120200 04008KT P6SM VCSH BKN020 OVC070 PROB30 1207/1211 5SM SHRA BR BKN015 OVC030 FM121400 07011G16KT P6SM VCSH BKN020 OVC050
KSGR,KSGR 112323Z 1200/1224 13009KT P6SM FEW050 FM120300 VRB02KT P6SM FEW050 FM120900 00000KT 6SM BR FEW006 BKN011 FM121400 19005KT P6SM SCT015 FM121900 21007KT P6SM SCT045
KSGU,KSGU 112340Z 1200/1224 25009KT P6SM SKC FM120200 VRB04KT P6SM SKC FM121000 12005KT P6SM SKC FM121800 27005KT P6SM SKC
KSHR,KSHR 112340Z 1200/1224 VRB04KT P6SM FEW100 FM121100 31009KT P6SM FEW090 FM121700 32017G25KT P6SM BKN070
KSHV,KSHV 112339Z 1200/1224 14007KT P6SM SCT120 BKN180 BKN250 FM120300 18005KT P6SM SKC FM121500 21007KT P6SM SCT120 SCT250
KSJC,KSJC 112320Z 1200/1224 33008KT P6SM SKC FM120400 VRB04KT P6SM SKC FM121000 VRB03KT P6SM BKN009 FM121700 VRB05KT P6SM FEW011 FM122000 32010KT P6SM SKC
KSJS,KSJS 112340Z 1200/1224 VRB03KT P6SM FEW250 FM121600 19007KT P6SM BKN150 FM121800 20009KT P6SM BKN120 FM122200 19007KT P6SM SCT100
KSJT,KSJT 112320Z 1200/1224 20011KT P6SM SKC FM120600 20008KT P6SM SKC FM121200 23008KT P6SM SKC FM121530 26010KT P6SM SKC FM121700 34014G22KT P6SM SKC
KSKA,TAF KSKA 111900Z 1119/1301 32012KT 9999 FEW220 QNH3013INS BECMG 1200/1201 23009KT 9999 SKC QNH3014INS WND VRB06KT AFT 1206 TX22/1123Z TN07/1211Z
KSKF,TAF KSKF 111800Z 1118/1300 17011KT 9999 SCT050 QNH2990INS BECMG 1208/1209 VRB03KT 9999 BKN007 QNH2998INS BECMG 1210/1211 VRB03KT 4800 BR OVC005 QNH2999INS BECMG 1213/1214 24005KT 8000 BR BKN007 QNH2999INS BECMG 1214/1215 24005KT 9999 NSW BKN012 QNH2997INS BECMG 1216/1217 26009KT 9999 FEW050 QNH2984INS TX31/1120Z TN19/1209Z
KSLC,KSLC 112340Z 1200/1306 33012G21KT P6SM FEW150 SCT250 FM120100 33007KT P6SM SKC FM120500 15005KT P6SM SKC FM121700 33006KT P6SM SKC
KSLE,KSLE 112330Z 1200/1224 36002KT P6SM SKC
KSLI,TAF KSLI 112100Z 1121/1303 VRB06KT 9000 BR FEW018 FEW090 SCT130 QNH2994INS BECMG 1207/1208 VRB06KT 8000 BR BKN011 BKN018 BKN110 QNH3002INS BECMG 1208/1209 VRB06KT 8000 BR SCT011 SCT090 BKN130 QNH3002INS BECMG 1209/1210 VRB06KT 8000 BR SCT004 OVC011 QNH3002INS BECMG 1210/1211 VRB06KT 8000 BR BKN004 OVC011 QNH3001INS BECMG 1219/1220 VRB06KT 8000 BR SCT011 QNH2999INS TX23/1300Z TN18/1215Z
KSLK,KSLK 112320Z 1200/1224 00000KT P6SM SKC FM121400 21007KT P6SM FEW200 FM121800 20012G18KT P6SM BKN200
KSLN,KSLN 112320Z 1200/1224 19017G26KT P6SM FEW240 FM120700 28016G24KT P6SM VCTS BKN100CB FM120900 36015KT P6SM BKN110 FM121200 30011KT P6SM SKC
KSME,KSME 112340Z 1200/1224 VRB03KT P6SM FEW250 FM121200 18006KT P6SM BKN200 FM121600 20012G21KT P6SM BKN070 FM122300 19008KT P6SM SCT100
KSMF,KSMF 112320Z 1200/1224 VRB05KT P6SM SKC
KSMN,KSMN 112327Z 1200/1224 30009KT P6SM SKC FM120700 VRB03KT P6SM SKC FM121700 35008KT P6SM SKC
KSMO,KSMO 112349Z 1200/1224 23012KT P6SM SCT025 FM120300 VRB03KT P6SM BKN015 FM121500 VRB03KT P6SM VCSH OVC019 FM122100 23008KT P6SM BKN025
KSMX,KSMX 112349Z 1200/1224 31010KT P6SM FEW012 FM120200 VRB03KT 6SM BR OVC012 FM120400 VRB03KT 4SM BR OVC006 FM121000 VRB03KT 2SM BR OVC003 FM121800 VRB03KT 4SM HZ BKN006 FM122000 31008KT P6SM BKN250
KSNA,KSNA 112322Z 1200/1224 23007KT P6SM SCT021 BKN100 FM120500 VRB04KT P6SM OVC015 FM121900 24007KT P6SM SCT018
KSNS,KSNS 112320Z 1200/1224 29012KT P6SM BKN010 FM120200 32006KT 6SM BR OVC006 FM120800 VRB04KT 2SM BR OVC003 FM121700 31010KT P6SM FEW010
KSNY,KSNY 112334Z 1200/1224 35020G30KT P6SM VCSH BKN150 FM120300 32012KT P6SM FEW250 FM120900 25008KT P6SM FEW250 FM121600 34015G25KT P6SM SKC
KSOA,KSOA 112320Z 1200/1224 18007KT P6SM SKC FM120300 19003KT P6SM SKC FM121500 23007KT P6SM SKC FM121730 26009KT P6SM SKC FM121900 33011G18KT P6SM SKC
KSPI,KSPI 112335Z 1200/1224 15006KT P6SM -SHRA SCT040 BKN070 FM120100 17011KT 6SM -SHRA BKN040 WS020/22045KT FM121400 20014G22KT P6SM VCSH BKN040 OVC080 TEMPO 1214/1217 4SM -SHRA BKN025 FM121800 26013G21KT P6SM OVC018 FM122100 29013KT P6SM SCT110
KSPS,KSPS 112325Z 1200/1224 19015G20KT P6SM BKN040 FM120300 18013G20KT P6SM SCT250 WS015/20045KT FM121100 22011KT P6SM SCT150 FM121400 35017G25KT P6SM FEW150 FM122300 36009G15KT P6SM SKC
KSRQ,KSRQ 112322Z 1200/1224 04005KT P6SM BKN070 FM121100 08005KT 6SM BR FEW035 BKN200 FM121400 11007KT P6SM BKN060 FM121700 16007KT P6SM BKN110 FM122100 27005KT P6SM VCTS OVC100CB
KSSC,TAF KSSC 112300Z 1123/1305 11007KT 9999 OVC040 QNH3023INS BECMG 1213/1214 09006KT 9999 VCSH BKN050 QNH3018INS BECMG 1223/1224 14010KT 8000 -SHRA BKN040 QNH3010INS TEMPO 1303/1305 16010G15KT 6000 -TSRA OVC016CB TX26/1219Z TN17/1209Z
KSSF,KSSF 112323Z 1200/1224 14008KT P6SM SCT070 FM120800 VRB03KT P6SM SCT007 BKN010 FM121600 22005KT P6SM SCT060
KSSI,KSSI 112319Z 1123/1218 06011G16KT P6SM VCSH SCT010 BKN030 BKN250 TEMPO 1123/1201 BKN010 FM120100 05008KT P6SM VCSH SCT015 BKN030 BKN070 FM121300 08011G16KT P6SM VCSH SCT015 BKN030 OVC070 PROB30 1213/1217 5SM SHRA BR SCT010 BKN020 OVC050
KSTC,KSTC 112320Z 1200/1224 18014G22KT P6SM BKN070 TEMPO 1201/1203 4SM TSRA BR BKN040CB FM120300 30015G24KT P6SM BKN100 TEMPO 1206/1208 -SHRA BKN080 FM120900 29008KT P6SM SCT100 FM121600 29018G30KT P6SM BKN060 PROB30 1218/1222 -SHRA BKN035
KSTJ,KSTJ 112328Z 1200/1224 20016G28KT P6SM SCT030 FM120100 20015KT P6SM SCT035 FM120800 31012G19KT P6SM -TSRA BKN045CB FM121000 31007KT P6SM BKN110 FM121400 29012G19KT P6SM SKC
KSTL,KSTL 112322Z 1200/1306 13008KT P6SM BKN080 FM120400 18010G18KT P6SM OVC100 FM121300 19010G17KT 5SM -SHRA BR VCTS BKN050CB FM121600 23011G20KT P6SM OVC035 FM122000 28011G17KT P6SM SCT035
KSTS,KSTS 112320Z 1200/1224 19009KT P6SM SKC FM120400 15005KT P6SM SKC FM120600 VRB03KT 2SM BR OVC003 FM121700 18007KT P6SM SKC
KSUA,KSUA 112336Z 1200/1224 09004KT P6SM SCT025 SCT150 FM121400 11007KT P6SM SCT025 SCT120 FM121700 10008KT P6SM VCSH SCT030 SCT150 AMD NOT SKED
KSUN,KSUN 112320Z 1200/1306 32010G20KT P6SM SKC FM120100 32010KT P6SM SKC FM120600 VRB03KT P6SM SKC FM121800 16008KT P6SM SKC FM122200 24010KT P6SM SKC FM130200 31006KT P6SM SKC AMD LTD TO CLD VIS AND WIND 1206/1214
KSUS,KSUS 112322Z 1200/1224 18006KT P6SM BKN080 FM121300 19010G17KT 5SM -SHRA BR VCTS BKN050CB FM121600 23011G20KT P6SM OVC035 FM122000 28011G17KT P6SM SCT035
KSUU,TAF AMD KSUU 112338Z 1123/1301 23010G15KT 9999 SKC QNH2990INS TX30/1123Z TN10/1214Z
KSUX,KSUX 112333Z 1200/1224 21017G24KT P6SM SKC FM120100 25013G20KT P6SM FEW250 FM120200 30017G25KT P6SM BKN200 TEMPO 1205/1208 -SHRA BKN070 FM120800 31009G20KT P6SM SCT100 FM121600 29016G28KT P6SM SCT100 FM121900 31023G37KT P6SM SCT100
KSVN,TAF KSVN 111955Z 1120/1302 06010G18KT 9999 BKN020 QNH3016INS BECMG 1200/1201 06009KT 9999 BKN020 QNH3012INS BECMG 1217/1218 12009KT 8000 -SHRA BKN020 QNH3002INS BECMG 1301/1302 VRB06KT 6000 BR SCT005 BKN020 QNH2999INS TX25/1217Z TN21/1210Z
KSWF,KSWF 112334Z 1200/1306 VRB03KT P6SM SKC FM121300 24006KT P6SM SKC FM121700 22010KT P6SM FEW250 FM122200 20008KT P6SM SCT250 FM130300 19006KT P6SM FEW020 SCT100 OVC250 AMD NOT SKED
KSWO,KSWO 112325Z 1200/1224 18015G25KT P6SM SCT120 FM120300 19013G18KT P6SM SCT250 WS020/20045KT FM121300 35017G25KT P6SM SCT150 FM122300 34006KT P6SM SKC
KSYM,KSYM 112340Z 1200/1224 VRB03KT P6SM SCT250 FM121400 19007KT P6SM BKN200
KSYR,KSYR 111720Z 1118/1218 23006G12KT P6SM SKC FM121400 18009G15KT P6SM SCT210
KSZL,TAF AMD KSZL 112010Z 1120/1301 21015G25KT 9999 BKN060 621107 QNH2982INS TEMPO 1120/1123 21025G35KT BECMG 1123/1124 22009KT 9999 SCT060 WS010/22035KT QNH2974INS BECMG 1209/1210 22010G15KT 8000 -TSRA OVC030CB QNH2975INS TEMPO 1210/1213 27025G35KT 3200 -TSRA OVC020CB BECMG 1213/1215 31015G20KT 9999 NSW FEW060 SCT120 QNH2985INS TX25/1121Z TN15/1211Z
KTBN,TAF KTBN 112100Z 1121/1303 20020G25KT 9999 BKN060 QNH2995INS BECMG 1123/1124 19010KT 9000 -SHRA SCT070 OVC100 QNH2983INS BECMG 1214/1215 23012G18KT 8000 -SHRA SCT015 BKN020 QNH2985INS BECMG 1217/1218 30012G18KT 9999 VCTS SCT030CB QNH2985INS BECMG 1222/1223 VRB06KT 9999 SKC QNH2989INS TX26/1122Z TN15/1212Z
KTCC,KTCC 112323Z 1200/1224 25015G24KT P6SM SKC FM120200 28011KT P6SM SKC FM120800 VRB06KT P6SM SKC
KTCL,KTCL 112340Z 1200/1224 VRB03KT P6SM FEW250 FM121200 VRB03KT P6SM BKN012 PROB30 1212/1213 4SM SHRA BR OVC008 FM121300 14005KT P6SM BKN009 PROB30 1213/1215 4SM SHRA BR OVC004 FM121600 18008KT 6SM SHRA BR BKN025 FM121800 19008KT 6SM SHRA BR VCTS BKN035CB FM122100 20009KT P6SM SCT014 PROB30 1221/1224 4SM TSRA BR BKN014CB OVC025
KTCM,TAF KTCM 112103Z 1121/1303 34006KT 9999 SKC QNH3016INS BECMG 1203/1204 VRB06KT 9999 SCT250 QNH3018INS BECMG 1217/1218 02009KT SKC QNH3017INS TX20/1123Z TN05/1213Z
KTCS,KTCS 112320Z 1200/1224 16009KT P6SM FEW250 FM120400 29007KT P6SM FEW250 FM121200 VRB05KT P6SM SKC
KTEB,KTEB 112334Z 1200/1306 VRB03KT P6SM SKC FM121300 21005KT P6SM FEW250 FM121700 19008KT P6SM FEW250 FM122200 17006KT P6SM SCT250 FM130300 17005KT P6SM FEW020 SCT100 OVC250
KTEX,KTEX 112320Z 1200/1224 27017G25KT P6SM FEW250 FM120100 25006KT P6SM FEW250 FM120400 15004KT P6SM FEW250
KTIK,TAF KTIK 111700Z 1117/1223 20015G25KT 9999 BKN060 QNH2995INS BECMG 1119/1120 20020G30KT 9999 SCT060 QNH2987INS BECMG 1123/1124 20012KT 9999 FEW040 QNH2981INS BECMG 1214/1215 36012G20KT 9999 SKC QNH2993INS TX26/1121Z TN19/1212Z
KTIX,KTIX 112336Z 1200/1224 06004KT P6SM SCT030 BKN200 FM121400 12006KT P6SM SCT030 BKN150 FM121600 10008KT P6SM VCSH SCT035 BKN150 FM122000 08008KT P6SM VCTS SCT040CB BKN150 AMD NOT SKED 1201/1211
KTLH,KTLH 112320Z 1200/1224 13005KT P6SM SCT100 FM120900 09002KT 5SM BR OVC007 FM121600 13004KT P6SM BKN070 FM122100 19005KT P6SM VCTS BKN025CB
KTMB,KTMB 112338Z 1200/1224 10010KT P6SM SCT025 BKN250 FM120600 VRB04KT P6SM SCT050 SCT250 FM121500 11008KT P6SM VCTS SCT025CB BKN040 FM122200 10006KT P6SM VCSH SCT030 BKN050
KTOI,KTOI 112340Z 1200/1224 VRB03KT P6SM FEW250 FM121100 VRB03KT P6SM BKN003 PROB30 1212/1213 4SM SHRA BR OVC002 FM121300 VRB04KT P6SM BKN009 PROB30 1213/1214 4SM SHRA BR OVC005 FM121400 13005KT P6SM BKN025 PROB30 1214/1215 4SM SHRA BR OVC015 FM121500 14007KT P6SM BKN017 PROB30 1215/1217 4SM SHRA BR OVC025 FM121700 16007KT P6SM BKN060 PROB30 1217/1218 4SM SHRA BR OVC025
KTOL,KTOL 112337Z 1200/1224 18006KT P6SM OVC060 TEMPO 1200/1204 -SHRA FM121400 20012G20KT P6SM VCSH OVC100 FM122000 20015G28KT P6SM BKN100 FM122300 22015G25KT 6SM -SHRA BR OVC050
KTOP,KTOP 112330Z 1200/1224 18014G26KT P6SM FEW050 FM120730 23014G24KT P6SM VCTS BKN040CB FM120800 26011G23KT 4SM TSRA BR OVC030CB FM120900 32012G25KT 6SM SHRA BR OVC040 FM121100 31009KT P6SM BKN090
KTPA,KTPA 112322Z 1200/1306 07005KT P6SM FEW035 BKN150 FM121200 10003KT P6SM FEW040 BKN200 FM121600 20005KT P6SM SCT040 BKN150 FM122200 27006KT P6SM VCTS BKN035 OVC100CB
KTPH,KTPH 112320Z 1200/1224 33010G20KT P6SM SKC FM120400 34008KT P6SM SKC
KTRI,KTRI 112327Z 1200/1224 00000KT P6SM SCT250 FM121200 00000KT P6SM BKN060 FM121600 19007KT P6SM SCT040 OVC120 FM121800 20006KT P6SM OVC100 FM122200 19005KT P6SM OVC050 PROB30 1222/1224 P6SM -RA OVC050
KTRK,KTRK 112320Z 1200/1224 28007G13KT P6SM FEW090 SCT250 FM120200 VRB04KT P6SM SKC
KTRM,KTRM 112322Z 1200/1224 14005KT P6SM SCT100 FM120300 33005KT P6SM SCT100 SCT150 FM121800 10007KT P6SM SCT100
KTTD,KTTD 112320Z 1200/1224 VRB05KT P6SM SKC FM121400 08005KT P6SM SKC
KTTN,KTTN 112325Z 1200/1224 VRB03KT P6SM SKC FM121400 21006KT P6SM SKC FM121600 20010KT P6SM SCT250 FM122200 17006KT P6SM BKN250
KTUL,KTUL 112337Z 1200/1224 19016G26KT P6SM FEW070 FM120200 17012KT P6SM FEW040 FEW090 WS020/21045KT FM121200 VRB06KT P6SM SCT030 BKN090 WS020/21040KT PROB30 1212/1215 -RA BKN035 FM121500 34012KT P6SM FEW150
KTUP,KTUP 112328Z 1200/1224 15004KT P6SM FEW250 FM121000 19008KT P6SM VCSH OVC100 FM121400 20011KT P6SM BKN100 FM121800 21012G20KT P6SM SCT070 FM122100 20013G20KT P6SM VCSH BKN070 TEMPO 1223/1224 4SM TSRA OVC020CB
KTUS,KTUS 112320Z 1200/1224 33007KT P6SM SCT100 SCT200 FM120400 15007KT P6SM SKC FM121800 28006KT P6SM SCT200
KTVC,KTVC 112320Z 1200/1224 19012G20KT P6SM BKN110 FM120200 19011G22KT P6SM OVC026 FM120600 19013G24KT 6SM -SHRA BR OVC013 WS020/21040KT FM121200 19013G26KT P6SM VCSH OVC025 FM121600 20014G28KT 6SM -SHRA BR BKN022 FM122000 24013G21KT P6SM OVC045
KTVF,KTVF 112331Z 1200/1224 29015G25KT P6SM VCSH BKN110 FM120300 29012KT P6SM BKN200 FM120900 27008KT P6SM FEW200 FM121500 30014G20KT P6SM BKN080 FM122000 32018G27KT P6SM BKN050 FM122300 30017KT P6SM BKN060
KTVL,KTVL 112320Z 1200/1224 04005KT P6SM FEW090 SCT250 FM120300 18004KT P6SM SKC FM121800 03004KT P6SM FEW250
KTWF,KTWF 112320Z 1200/1224 28020G30KT P6SM SCT250 FM120100 26014G20KT P6SM SKC FM120300 22012KT P6SM SKC FM121600 28010KT P6SM SKC
KTXK,KTXK 112339Z 1200/1224 14006KT P6SM FEW080 SCT120 BKN250 FM121100 20008KT P6SM SCT060 SCT250 FM122200 25007KT P6SM SCT040
KTYR,KTYR 112339Z 1200/1224 13008KT P6SM SCT120 SCT250 FM120200 19007KT P6SM FEW200 FM121000 18007KT P6SM BKN015 FM121400 21012G22KT P6SM SCT015 SCT080 FM121800 22013G22KT P6SM SCT050
KTYS,KTYS 112327Z 1200/1224 VRB04KT P6SM FEW060 SCT250 FM121200 VRB03KT P6SM BKN120 FM121600 21006KT P6SM SCT040 BKN120 FM121800 22008KT P6SM OVC050 FM122300 21008KT P6SM -SHRA BKN050 OVC100
KUAO,KUAO 112320Z 1200/1224 01002KT P6SM SKC
KUES,KUES 112320Z 1200/1224 18013G24KT 4SM -SHRA BR OVC011 TEMPO 1200/1204 OVC008 FM120400 19015G26KT P6SM OVC021 WS020/22045KT FM120600 20015G27KT 6SM -SHRA BR VCTS BKN040CB WS020/21045KT FM121000 21015G29KT 6SM -SHRA BR VCTS BKN035CB WS020/21045KT FM121300 22015G27KT 6SM -SHRA BR VCTS BKN025CB FM121500 24016G25KT 6SM -SHRA BR VCTS OVC015CB FM121900 25013G21KT P6SM BKN040
KUIN,KUIN 112322Z 1200/1224 18011G24KT P6SM OVC250 FM121000 21012G20KT 5SM SHRA BR VCTS BKN060CB FM121500 24010G16KT P6SM OVC035 FM121700 29012G20KT P6SM SCT060
KUKI,KUKI 112321Z 1200/1224 15006KT P6SM SKC FM120600 VRB03KT P6SM SKC FM122200 27005KT P6SM SKC
KUNV,KUNV 112320Z 1200/1224 20005KT P6SM SKC FM120200 VRB02KT P6SM SCT250 FM121500 18008G15KT P6SM BKN120 OVC200
KUTS,KUTS 112323Z 1200/1224 VRB05KT P6SM SKC FM121000 VRB03KT 6SM BR FEW008 BKN012 FM121500 19006KT P6SM FEW015 SCT030 FM121800 22009KT P6SM FEW040 FEW100
KVAD,TAF KVAD 111600Z 1116/1222 06009KT 9999 OVC010 QNH3022INS BECMG 1116/1117 06009KT 9999 SCT030 QNH3015INS BECMG 1204/1205 06006KT 9999 BKN015 QNH3017INS BECMG 1207/1208 06006KT 0800 FG OVC005 QNH3013INS BECMG 1211/1212 06009KT 9999 NSW BKN010 QNH3012INS BECMG 1215/1216 06009KT 9999 SCT030 QNH2999INS TEMPO 1218/1222 09010G20KT 4000 TSRA BKN030CB TX27/1120Z TN21/1208Z
KVBG,TAF KVBG 112203Z 1122/1304 30009KT 9999 BKN007 BKN020 QNH3000INS BECMG 1123/1124 33009KT 9999 BKN005 QNH3000INS BECMG 1201/1202 VRB06KT 4800 BR OVC003 QNH3001INS BECMG 1204/1205 VRB06KT 1600 BR OVC002 QNH3003INS BECMG 1206/1207 VRB06KT 0400 FG VV001 QNH3005INS TEMPO 1210/1212 -SHRA BECMG 1215/1216 VRB06KT 3200 BR OVC003 QNH3006INS BECMG 1216/1217 34006KT 9999 NSW OVC005 QNH3011INS BECMG 1219/1220 32009KT 9999 VCSH BKN007 BKN100 QNH3007INS TEMPO 1222/1303 6000 -SHRA BKN006 BECMG 1303/1304 VRB06KT 4800 BR OVC004 QNH3009INS TX17/1221Z TN13/1214Z
KVCT,KVCT 112330Z 1200/1224 13012KT P6SM SCT050 FM120100 12009KT P6SM FEW050 FM120800 VRB03KT 3SM BR FEW015 SCT250 TEMPO 1209/1213 1/2SM FG VV002 FM121500 18009KT P6SM FEW025 SCT050
KVEL,KVEL 112320Z 1200/1224 28014G23KT P6SM FEW250 FM120300 30008KT P6SM FEW250 FM120800 29003KT P6SM FEW250
KVGT,KVGT 112320Z 1200/1224 12006KT P6SM FEW120 FM120300 31006KT P6SM SKC FM121800 08007KT P6SM FEW120
KVIS,KVIS 112320Z 1200/1224 31008KT P6SM FEW100 FEW200 FM120600 32004KT P6SM SKC
KVLD,KVLD 112320Z 1200/1224 13003KT P6SM SCT100 FM120600 08003KT 4SM BR OVC025 TEMPO 1211/1213 2SM BR OVC003 FM121600 12005KT P6SM BKN035
KVNY,KVNY 112349Z 1200/1224 15006KT P6SM VCTS SCT100CB FM120400 VRB03KT P6SM SCT250 FM120800 VRB03KT P6SM OVC012 FM121500 VRB03KT P6SM OVC015
KVOK,TAF KVOK 111700Z 1117/1223 19012G18KT 9999 FEW030 BKN060 QNH2986INS BECMG 1121/1122 19012G18KT 9999 BKN015 OVC025 QNH2978INS BECMG 1201/1202 20012KT 9999 BKN010 QNH2975INS TEMPO 1202/1204 OVC007 BECMG 1207/1208 20012KT 9999 VCTS OVC010CB QNH2968INS BECMG 1212/1213 22009KT 9000 -SHRA OVC020 QNH2959INS BECMG 1217/1218 26012G18KT 9999 NSW FEW012 FEW050 SCT070 QNH2959INS TX22/1119Z TN12/1215Z LAST NO AMDS AFT 1202 NEXT 1209
KVPS,TAF KVPS 111700Z 1117/1223 11009KT 9999 SCT040 QNH3010INS BECMG 1209/1210 11006KT 9999 VCSH BKN015 QNH3004INS TEMPO 1212/1218 6000 -SHRA SCT015 BKN030 BECMG 1217/1218 14009KT 9999 VCTS SCT015CB BKN020 QNH2998INS TEMPO 1218/1223 17012G18KT 4800 -TSRA BKN010CB OVC020 TX28/1119Z TN20/1207Z
KVQQ,KVQQ 112108Z 1121/1218 07008KT P6SM SCT025 BKN035 BKN250 FM120700 00000KT 3SM BR SCT004 BKN015 OVC050 TEMPO 1208/1211 1SM BR OVC003 FM121300 06005KT P6SM VCSH SCT009 BKN020 BKN070 PROB30 1213/1217 5SM SHRA BR BKN015 OVC025
KVRB,KVRB 112336Z 1200/1224 07004KT P6SM SCT030 SCT250 FM121400 12006KT P6SM SCT030 BKN200 FM121700 09007KT P6SM VCSH SCT035 BKN150 FM122100 10007KT P6SM VCTS SCT035CB BKN150
KVTN,KVTN 112332Z 1200/1224 33021G30KT P6SM OVC200 TEMPO 1200/1202 6SM -RA OVC100 FM120400 30012KT P6SM FEW250 FM120600 29010KT P6SM SKC FM121000 26010KT P6SM SCT080 FM121500 30016G24KT P6SM OVC060 FM121700 31023G34KT P6SM SCT150 FM121900 31027G38KT P6SM FEW250 FM122300 31025G35KT P6SM FEW250
KWJF,KWJF 112349Z 1200/1224 22008KT P6SM VCTS SCT080CB FM120600 18005KT P6SM VCSH BKN100
KWMC,KWMC 112320Z 1200/1224 30010KT P6SM SKC FM120200 VRB05KT P6SM SKC
KWRB,TAF KWRB 111600Z 1116/1222 05009KT 9999 SCT030 QNH3020INS BECMG 1208/1209 VRB06KT 8000 BR SCT007 BKN025 QNH3015INS BECMG 1211/1212 VRB06KT 9999 NSW BKN010 OVC020 QNH3013INS BECMG 1220/1221 11009KT 8000 -SHRA SCT030 BKN120 QNH3007INS TX28/1120Z TN16/1210Z
KWRI,TAF KWRI 111800Z 1118/1224 25005KT 9999 FEW250 QNH3011INS BECMG 1221/1222 21008KT 9999 SCT200 QNH3011INS TX24/1118Z TN07/1210Z
KWRL,KWRL 112328Z 1200/1224 VRB06KT P6SM FEW100 FM120300 VRB06KT P6SM SKC
KWWR,KWWR 112325Z 1200/1224 20018G27KT P6SM FEW250 FM120900 35020G30KT P6SM FEW150 FM121100 34011G18KT P6SM FEW240
KWYS,KWYS 112333Z 1200/1224 29011KT P6SM SKC FM120200 VRB06KT P6SM FEW250
KXNA,KXNA 112337Z 1200/1224 18011KT P6SM FEW040 SCT080 WS020/22040KT FM121300 23010KT P6SM SCT018 SCT030 BKN090 PROB30 1213/1216 -TSRA BKN015CB FM121600 30011KT P6SM SCT020 SCT035 FM122000 33011KT P6SM FEW150
KXWA,KXWA 112320Z 1200/1224 31018G31KT P6SM FEW090 FM120300 29013KT P6SM SCT200 FM120900 31019G28KT P6SM FEW250 FM121700 31026G40KT P6SM FEW250
KYIP,KYIP 112342Z 1200/1224 18010KT P6SM -SHRA SCT045 OVC080 FM121400 21013G20KT P6SM SCT035 OVC080 FM121700 21018G30KT P6SM SCT045 BKN100 OVC250 PROB30 1222/1224 25025G40KT 2SM SHRA SCT015 OVC025
KYKM,KYKM 112320Z 1200/1224 VRB05KT P6SM SKC FM120300 28006KT P6SM SKC FM122100 13005KT P6SM SKC
KYNG,KYNG 112337Z 1200/1224 20006KT P6SM FEW250 FM120900 16007KT P6SM BKN250 FM121400 19010G20KT P6SM BKN045 FM122300 17010KT P6SM VCSH BKN100
KZZV,KZZV 112322Z 1200/1224 18004KT P6SM SKC FM121500 19010KT P6SM OVC100
LATI,TAF LATI 112300Z 1200/1224 VRB05KT 9999 SCT030 BKN050 TX21/1212Z TN16/1204Z TEMPO 1201/1211 5000 RA BR
LBBG,TAF LBBG 112300Z 1200/1224 02008KT 9999 SCT033 BECMG 1208/1210 08010KT BECMG 1218/1220 VRB04KT
LBGO,TAF LBGO 112300Z 1200/1224 VRB04KT 9999 SCT030 BKN060 PROB30 TEMPO 1200/1206 5000 RA SCT020 OVC040 BECMG 1208/1210 03010KT BECMG 1216/1218 VRB04KT
LBPD,TAF LBPD 112300Z 1200/1224 VRB04KT 9999 OVC070 TEMPO 1200/1203 5000 RA SCT010 OVC040 BECMG 1208/1210 11010KT
LBSF,TAF LBSF 112300Z 1200/1224 VRB04KT 6000 SCT030 BKN070 TEMPO 1201/1206 1200 DZ BR SCT007 BKN015 BECMG 1209/1211 10010KT BECMG 1217/1219 VRB04KT
LBWN,TAF LBWN 112300Z 1200/1224 VRB04KT 9999 SCT040 BECMG 1208/1210 09010KT BECMG 1218/1220 VRB04KT
LCEN,TAF LCEN 112240Z 1200/1224 28015KT 9999 FEW025
LCLK,TAF LCLK 112330Z 1200/1224 31008KT 9999 FEW030 BECMG 1209/1212 19012KT BECMG 1217/1220 31008KT
LCPH,TAF LCPH 112330Z 1200/1224 02007KT 9999 FEW025 BECMG 1207/1210 28012KT BECMG 1217/1220 35008KT
LCRA,TAF LCRA 112203Z 1200/1218 30008KT CAVOK PROB30 TEMPO 1200/1205 02005KT BECMG 1209/1212 26015KT
LDDU,TAF LDDU 112325Z 1200/1300 08005KT 9999 SCT050 TX22/1211Z TN16/1205Z BECMG 1210/1212 29007KT BECMG 1215/1217 08005KT
LDOS,TAF LDOS 112325Z 1200/1300 30005KT CAVOK TX19/1214Z TN10/1204Z PROB40 1200/1208 2000 BR PROB30 1203/1207 0400 FG VV002 PROB30 TEMPO 1211/1216 SHRA FEW040TCU
LDPL,TAF LDPL 112325Z 1200/1300 06010KT CAVOK TX22/1214Z TN13/1204Z BECMG 1214/1216 06006KT
LDRI,TAF LDRI 112325Z 1200/1300 04008KT CAVOK TX23/1213Z TN15/1204Z
LDSB,TAF LDSB 111125Z 1112/1212 02009KT CAVOK TX21/1113Z TN13/1205Z PROB40 TEMPO 1118/1202 02020KT BECMG 1206/1208 VRB02KT
LDSP,TAF LDSP 112325Z 1200/1300 05006KT CAVOK TX25/1213Z TN16/1205Z BECMG 1210/1212 23008KT BECMG 1215/1217 VRB02KT
LDZA,TAF LDZA 112325Z 1200/1300 VRB02KT CAVOK TX19/1213Z TN09/1204Z PROB30 1203/1207 1500 BCFG PROB40 TEMPO 1212/1217 04008KT
LDZD,TAF LDZD 112325Z 1200/1300 06006KT CAVOK TX23/1213Z TN11/1205Z BECMG 1210/1212 31008KT BECMG 1216/1218 05006KT
LEAB,TAF LEAB 112300Z 1200/1224 08005KT CAVOK TX21/1215Z TN10/1206Z PROB30 TEMPO 1202/1210 0400 FG OVC004
LEAG,TAF LEAG 111400Z 1115/1215 06007KT 9999 SCT020 SCT040 TX23/1215Z TN19/1206Z PROB40 TEMPO 1115/1124 4000 RA SHRA BKN014 FEW030CB PROB30 TEMPO 1115/1118 36012KT 2000 +TSRA SCT020CB BKN030 PROB40 TEMPO 1200/1207 BKN012
LEAL,TAF LEAL 112300Z 1200/1224 33007KT 9999 FEW020 TX26/1212Z TN17/1205Z BECMG 1212/1214 09010KT BECMG 1220/1222 30005KT
LEAM,TAF LEAM 112300Z 1200/1224 34007KT 9999 FEW045 TX28/1214Z TN19/1206Z BECMG 1208/1211 08015KT BECMG 1220/1222 34009KT
LEAO,TAF LEAO 112000Z 1121/1221 06007KT 9999 SCT035 TX24/1215Z TN11/1206Z
LEAS,TAF LEAS 112000Z 1121/1221 VRB05KT 9999 FEW015 SCT025 TX19/1213Z TN12/1205Z PROB30 TEMPO 1122/1206 3000 BR BKN010 PROB30 TEMPO 1121/1209 3000 SHRA BKN010 SCT025TCU TEMPO 1210/1218 06010KT
LEBA,TAF LEBA 111400Z 1115/1215 24006KT 9999 FEW040 TX29/1215Z TN15/1206Z PROB30 TEMPO 1115/1118 TSRA FEW030CB SCT040 BECMG 1207/1210 07010KT
LEBB,TAF LEBB 112300Z 1200/1224 VRB05KT 9999 SCT015 BKN030 TX19/1214Z TN13/1206Z TEMPO 1200/1218 3000 SHRA BKN010 SCT025TCU PROB30 TEMPO 1200/1207 3000 BR BKN010 TEMPO 1211/1218 33010KT
LEBG,TAF LEBG 112000Z 1121/1221 06008KT CAVOK TX20/1215Z TN12/1206Z PROB40 TEMPO 1121/1210 0600 FG OVC006
LEBL,TAF LEBL 112300Z 1200/1224 34005KT 9999 FEW025 TX24/1212Z TN18/1205Z BECMG 1209/1211 09010KT BECMG 1218/1221 33006KT
LEBR,TAF LEBR 112000Z 1121/1221 33007KT 9999 FEW020 SCT040 TX21/1215Z TN13/1205Z PROB30 TEMPO 1122/1207 3000 BR BKN010
LEBZ,TAF LEBZ 112000Z 1121/1221 VRB03KT 9999 FEW045 TX29/1215Z TN14/1206Z PROB30 TEMPO 1121/1122 22010KT SHRA FEW030CB SCT040
LECO,TAF LECO 112000Z 1121/1221 36009KT 8000 SCT030 TX19/1213Z TN12/1205Z PROB30 TEMPO 1122/1207 3000 BR BKN005 BKN010 PROB30 TEMPO 1211/1218 02015G25KT
LECV,TAF LECV 112300Z 1200/1224 05006KT CAVOK TX20/1216Z TN10/1207Z
LEEC,TAF LEEC 110800Z 1109/1209 11004KT 9999 SCT040 TX25/1115Z TN16/1206Z PROB40 TEMPO 1109/1118 23010KT 4000 SHRA FEW025CB SCT040 PROB30 TEMPO 1109/1116 3000 TSRA SCT025CB BKN040
LEGA,TAF LEGA 111100Z 1112/1212 17006KT 9999 FEW040 SCT070 TX24/1115Z TN12/1206Z PROB30 TEMPO 1113/1120 4000 SHRA FEW035CB SCT045 PROB30 TEMPO 1115/1118 26010KT
LEGE,TAF LEGE 112300Z 1200/1224 VRB05KT 9999 FEW020 TX25/1213Z TN14/1205Z PROB40 TEMPO 1200/1206 3000 BR BKN010 BECMG 1208/1210 02010KT
LEGR,TAF LEGR 112300Z 1200/1224 VRB02KT 9999 FEW045 TX26/1215Z TN11/1206Z BECMG 1215/1217 23010KT BECMG 1218/1220 VRB02KT
LEGT,TAF LEGT 112300Z 1200/1224 07006KT CAVOK TX25/1215Z TN12/1207Z
LEHC,TAF LEHC 111400Z 1115/1215 VRB04KT 9999 FEW020 TX23/1213Z TN12/1205Z PROB40 TEMPO 1115/1119 4000 SHRA FEW020TCU PROB30 TEMPO 1121/1206 3000 BR BKN010
LEIB,TAF LEIB 112000Z 1121/1221 03009KT 9999 SCT020 TX24/1212Z TN17/1205Z TEMPO 1121/1215 4000 SHRA FEW020CB PROB40 TEMPO 1121/1209 3000 TSRA FEW020CB PROB30 TEMPO 1121/1124 1000 TS +SHRA SCT020CB
LEJR,TAF LEJR 112000Z 1121/1221 VRB02KT 9999 FEW045 TX29/1214Z TN14/1206Z PROB30 TEMPO 1202/1208 1500 BR BKN003 BECMG 1213/1215 18010KT BECMG 1219/1221 VRB02KT
LELC,TAF LELC 112300Z 1200/1224 33007KT 9999 SCT025 TX25/1213Z TN17/1206Z BECMG 1209/1211 06015KT BECMG 1222/1224 35009KT
LELL,TAF LELL 111400Z 1115/1215 12009KT 9999 FEW020 SCT025 TX24/1213Z TN13/1205Z BECMG 1117/1119 VRB04KT BECMG 1213/1215 14010KT
LELN,TAF LELN 112000Z 1121/1221 02007KT 9999 BKN040 TX21/1216Z TN07/1207Z
LELO,TAF LELO 112000Z 1121/1221 VRB04KT 9999 FEW025 TX24/1216Z TN13/1221Z
LEMD,TAF LEMD 112300Z 1200/1306 02006KT 9999 SCT040 TX25/1215Z TN12/1207Z
LEMG,TAF LEMG 112300Z 1200/1224 28006KT 9999 SCT025 TX25/1213Z TN17/1206Z PROB30 TEMPO 1200/1207 BKN014 BECMG 1209/1211 13007KT BECMG 1217/1219 VRB02KT BECMG 1221/1223 28006KT
LEMH,TAF LEMH 112000Z 1121/1221 08009KT 9999 SCT020 TX22/1212Z TN16/1205Z TEMPO 1121/1215 4000 SHRA FEW020TCU PROB40 TEMPO 1121/1213 3000 TSRA FEW020CB PROB30 TEMPO 1200/1209 1000 TS +SHRA SCT020CB BECMG 1207/1209 03010KT
LEMO,TAF LEMO 112000Z 1121/1221 VRB02KT 9999 FEW045 TX28/1215Z TN15/1206Z PROB40 TEMPO 1121/1123 26010KT PROB30 TEMPO 1203/1208 1500 BR BKN004 BECMG 1212/1214 06010KT BECMG 1217/1219 24010KT
LEPA,TAF LEPA 112300Z 1200/1224 VRB03KT 9999 FEW025 TX26/1212Z TN18/1206Z PROB40 TEMPO 1200/1212 4000 SHRA SCT020TCU PROB30 TEMPO 1200/1206 TS SCT020CB BECMG 1206/1209 05012KT BECMG 1218/1220 VRB03KT
LEPP,TAF LEPP 112000Z 1121/1221 36008KT 9999 FEW015 SCT030 TX18/1215Z TN11/1205Z PROB30 TEMPO 1121/1209 3000 SHRA BKN010 SCT025TCU PROB40 TEMPO 1122/1207 3000 BR BKN005 BKN010
LERI,TAF LERI 111700Z 1118/1218 VRB03KT 9999 SCT040 TX26/1214Z TN15/1206Z PROB30 TEMPO 1118/1122 TS SHRA FEW025CB SCT035 BECMG 1214/1216 07010KT
LERL,TAF LERL 111400Z 1115/1215 07007KT 9999 SCT035 TX25/1115Z TN11/1206Z PROB30 TEMPO 1115/1121 3000 SHRA SCT035TCU FEW040CB
LERS,TAF LERS 112000Z 1121/1221 VRB04KT 9999 FEW020 TX25/1212Z TN15/1205Z BECMG 1212/1214 18008KT BECMG 1217/1219 VRB04KT
LERT,TAF LERT 112000Z 1121/1221 VRB02KT 9999 FEW045 TX27/1213Z TN17/1206Z PROB30 TEMPO 1203/1208 1500 BR BKN003 BECMG 1208/1210 06010KT BECMG 1213/1215 25010KT BECMG 1219/1221 VRB02KT
LESA,TAF LESA 112000Z 1121/1221 04006KT 9999 FEW047 TX23/1215Z TN08/1206Z PROB30 TEMPO 1202/1210 0300 FG VV002
LESO,TAF LESO 112300Z 1200/1224 VRB05KT 9999 SCT015 BKN035 TX19/1213Z TN15/1206Z TEMPO 1200/1217 3000 SHRA BKN010 SCT025TCU PROB40 TEMPO 1200/1207 3000 BR BKN010 PROB40 TEMPO 1212/1218 28010KT
LEST,TAF LEST 112300Z 1200/1224 02009KT 9999 SCT015 TX20/1214Z TN10/1206Z PROB40 TEMPO 1200/1207 3000 BR BCFG BKN010 PROB30 TEMPO 1200/1207 0800 BCFG BKN002 BKN005
LETO,TAF LETO 112300Z 1200/1224 03007KT CAVOK TX25/1215Z TN11/1207Z
LEVC,TAF LEVC 112300Z 1200/1224 30007KT 9999 SCT020 TX24/1212Z TN16/1205Z BECMG 1210/1212 07012KT PROB30 TEMPO 1213/1218 SHRA FEW020TCU BECMG 1218/1220 30005KT
LEVD,TAF LEVD 112000Z 1121/1221 05008KT CAVOK TX23/1215Z TN10/1207Z PROB30 TEMPO 1203/1210 0500 FG VV003
LEVS,TAF LEVS 112300Z 1200/1224 05006KT CAVOK TX23/1215Z TN12/1207Z
LEVT,TAF LEVT 112300Z 1200/1224 01009KT 9999 SCT015 BKN025 TX17/1214Z TN11/1206Z TEMPO 1200/1215 SCT025TCU PROB40 TEMPO 1200/1215 3000 SHRA BKN010 SCT025TCU PROB40 TEMPO 1200/1207 3000 BR BKN005 BKN010
LEVX,TAF LEVX 112300Z 1200/1224 VRB05KT 9999 FEW015 TX24/1214Z TN12/1206Z PROB30 TEMPO 1203/1207 3000 BR BKN010 PROB30 TEMPO 1200/1207 0800 BCFG BKN002 BKN005 PROB30 TEMPO 1212/1218 31010KT
LEXJ,TAF LEXJ 112000Z 1121/1221 VRB05KT 9999 FEW015 SCT030 TX19/1215Z TN14/1206Z PROB30 TEMPO 1122/1206 3000 BR BKN010 PROB40 TEMPO 1121/1210 3000 SHRA BKN010 SCT025TCU PROB30 TEMPO 1210/1217 03010KT
LEZG,TAF LEZG 112300Z 1200/1224 30009KT 9999 FEW020 TX24/1213Z TN15/1205Z PROB30 TEMPO 1200/1206 SHRA FEW020TCU
LEZL,TAF LEZL 112000Z 1121/1221 VRB02KT 9999 FEW045 TX29/1215Z TN17/1206Z PROB40 TEMPO 1121/1123 23010KT PROB30 TEMPO 1204/1208 1500 BR BKN004 BECMG 1212/1214 07010KT BECMG 1216/1219 22010KT
LFAQ,TAF LFAQ 111400Z 1115/1124 04005KT CAVOK
LFAT,TAF LFAT 111400Z 1115/1124 33005KT CAVOK
LFBA,TAF LFBA 111400Z 1115/1124 VRB02KT 9999 SCT040 BKN120 TEMPO 1115/1120 35010KT TEMPO 1118/1124 -SHRA SCT035TCU BKN060
LFBC,TAF LFBC 112000Z 1121/1221 VRB03KT CAVOK BECMG 1121/1123 4000 BR NSC BECMG 1203/1204 0500 FG VV/// BECMG 1208/1210 9999 NSW SCT014
LFBD,TAF LFBD 112300Z 1200/1306 05005KT 9999 SCT040 TX21/1214Z TN12/1301Z BECMG 1200/1202 3000 BR PROB40 1202/1208 0300 FG VV/// BECMG 1208/1210 9999 NSW SCT010 BKN040 BECMG 1220/1222 VRB02KT BECMG 1222/1224 3000 BR PROB40 1300/1306 0400 FG VV///
LFBE,TAF LFBE 112300Z 1200/1224 VRB02KT CAVOK BECMG 1200/1202 3000 BR BECMG 1202/1204 0300 FG VV/// BECMG 1209/1211 27005KT 9999 NSW SCT005 BECMG 1222/1224 VRB02KT 3000 BR
LFBG,TAF LFBG 112000Z 1121/1221 02005KT CAVOK BECMG 1121/1123 3000 BR BKN004 PROB30 TEMPO 1201/1208 0500 FG VV/// BECMG 1209/1211 9999 NSW BKN012 BECMG 1211/1213 SCT020
LFBH,TAF LFBH 112300Z 1200/1224 04004KT CAVOK TEMPO 1204/1208 3000 BR PROB30 TEMPO 1206/1208 0500 FG VV///
LFBI,TAF LFBI 112300Z 1200/1224 VRB02KT 4700 BR SCT025 TEMPO 1200/1204 1500 BR BECMG 1204/1206 0500 FG VV/// BECMG 1207/1209 9999 NSW
LFBL,TAF LFBL 112300Z 1200/1224 02005KT 8000 NSC BECMG 1200/1202 3000 BR PROB40 1202/1209 0300 FG VV/// BECMG 1209/1211 9999 NSW BKN005 BECMG 1212/1214 CAVOK PROB40 1221/1224 2000 BR
LFBM,TAF LFBM 112000Z 1121/1221 VRB03KT CAVOK BECMG 1121/1123 BKN007 BECMG 1202/1204 0600 FG VV/// BECMG 1208/1210 9999 NSW BKN005 BECMG 1210/1211 SCT020
LFBO,TAF LFBO 112300Z 1200/1306 VRB03KT 9999 SCT045 BECMG 1203/1205 28006KT BKN012 PROB30 TEMPO 1205/1210 -SHRA BKN008 SCT030TCU BECMG 1210/1212 BKN030 BECMG 1213/1215 CAVOK BECMG 1222/1224 VRB03KT BKN025 PROB30 TEMPO 1301/1306 4000 BR NSC
LFBP,TAF LFBP 112300Z 1200/1224 27005KT 9999 SCT011 BKN020 TEMPO 1200/1212 BKN008 PROB40 TEMPO 1200/1212 4000 SHRA BKN004 SCT025TCU FEW040CB BECMG 1212/1214 SCT025 PROB30 TEMPO 1214/1219 4000 SHRA SCT030TCU BECMG 1219/1221 BKN012
LFBT,TAF LFBT 112300Z 1200/1224 27005KT 9999 SCT012 BKN025 TEMPO 1200/1212 BKN008 PROB40 TEMPO 1200/1210 4000 SHRA BKN004 SCT020TCU FEW030CB BECMG 1212/1214 SCT030 PROB30 TEMPO 1214/1220 4000 SHRA SCT025TCU BECMG 1220/1222 BKN010
LFBU,TAF LFBU 111700Z 1118/1218 04008KT 9999 BKN030 TEMPO 1118/1120 BKN010 TEMPO 1122/1202 1500 MIFG BECMG 1202/1204 0300 FG VV/// BECMG 1208/1210 7000 NSW BKN010 BECMG 1210/1212 BKN020
LFBZ,TAF LFBZ 112300Z 1200/1224 30005KT 9999 BKN020 TEMPO 1200/1218 4000 SHRA BKN005 BKN030TCU PROB30 TEMPO 1205/1209 2000 -TSRA BKN003 BKN020CB TEMPO 1223/1224 BKN008
LFCK,TAF LFCK 111700Z 1118/1203 VRB03KT 9999 SCT045 PROB40 TEMPO 1121/1203 -SHRA SCT040TCU BKN050
LFCR,TAF LFCR 112300Z 1200/1224 VRB03KT CAVOK PROB30 TEMPO 1200/1207 4000 SHRA SCT025TCU FEW050CB BECMG 1210/1212 30006KT FEW030TCU PROB30 TEMPO 1213/1219 4000 SHRA FEW050CB BECMG 1219/1221 VRB03KT CAVOK
LFGJ,TAF LFGJ 111400Z 1115/1124 01008KT 9999 FEW030 PROB30 TEMPO 1115/1118 FEW030TCU
LFJL,TAF LFJL 112300Z 1200/1224 03005KT CAVOK PROB30 TEMPO 1203/1209 BKN013
LFKB,TAF LFKB 112000Z 1121/1221 24005KT 9999 SCT025 TX23/1211Z TN14/1203Z BECMG 1208/1210 10010KT TEMPO 1213/1217 FEW030CB BECMG 1218/1221 24004KT
LFKC,TAF LFKC 111400Z 1115/1215 35010KT CAVOK TX23/1211Z TN13/1203Z TEMPO 1115/1117 BKN025 FEW040CB BKN090 PROB40 TEMPO 1115/1116 TS BECMG 1117/1119 17004KT BECMG 1208/1210 35010KT TEMPO 1212/1215 FEW030CB
LFKF,TAF LFKF 111400Z 1115/1215 06010KT CAVOK TEMPO 1115/1117 12010KT SCT030 FEW040CB BKN090 TEMPO 1117/1124 BKN012 TEMPO 1210/1215 FEW030CB
LFKJ,TAF LFKJ 112000Z 1121/1221 04005KT CAVOK PROB40 TEMPO 1210/1215 32010KT SHRA FEW030CB
LFKS,TAF LFKS 111400Z 1115/1215 13010KT 9999 FEW030 BKN100 BECMG 1118/1120 27005KT CAVOK BECMG 1209/1211 12010KT
LFLB,TAF LFLB 111400Z 1115/1215 36005KT CAVOK PROB30 TEMPO 1115/1120 FEW050TCU BECMG 1120/1123 BKN020 PROB30 TEMPO 1202/1208 -RA BKN014 BECMG 1210/1213 NSC PROB30 TEMPO 1212/1215 -SHRA FEW025 SCT060TCU
LFLC,TAF LFLC 112300Z 1200/1224 VRB03KT 9999 BKN015 TEMPO 1200/1202 3000 RA BKN008 PROB40 TEMPO 1202/1211 0600 FG VV/// BECMG 1211/1214 SCT030 TEMPO 1214/1217 CAVOK PROB30 TEMPO 1222/1224 3000 BR BKN014
LFLL,TAF LFLL 112300Z 1200/1306 35004KT CAVOK PROB40 TEMPO 1203/1209 -RA BKN008 PROB30 TEMPO 1203/1208 3000 BR OVC005 BECMG 1220/1222 14004KT TEMPO 1300/1306 4000 BR PROB30 TEMPO 1302/1306 0400 FG VV///
LFLN,TAF LFLN 111700Z 1118/1203 35005KT 9999 FEW030 BKN090 PROB40 TEMPO 1118/1121 -SHRA FEW030TCU TEMPO 1121/1203 4000 BR NSC PROB40 TEMPO 1200/1203 0400 FG VV///
LFLP,TAF LFLP 111400Z 1115/1215 VRB03KT CAVOK PROB30 TEMPO 1115/1118 FEW050TCU BECMG 1120/1123 BKN020 PROB30 TEMPO 1202/1209 -RA BKN014 PROB30 TEMPO 1212/1215 -SHRA BKN020 SCT060TCU
LFLS,TAF LFLS 111400Z 1115/1215 04005KT CAVOK PROB30 TEMPO 1115/1118 FEW050TCU BECMG 1118/1120 BKN013 TEMPO 1121/1209 2500 BR BKN006 PROB40 TEMPO 1200/1208 0500 FG VV/// BECMG 1210/1212 BKN020 PROB30 TEMPO 1212/1215 -SHRA BKN020 SCT060TCU
LFLW,TAF LFLW 111400Z 1115/1124 VRB03KT CAVOK TEMPO 1115/1121 33010KT SHRA SCT045TCU BKN050 PROB30 TEMPO 1115/1121 VRB15KT 4000 TSRA SCT040CB TEMPO 1121/1124 4000 SHRA BKN014 SCT040TCU
LFLX,TAF LFLX 112300Z 1200/1306 02005KT 9999 BKN020 PROB40 TEMPO 1200/1209 3000 BR BKN005 PROB30 TEMPO 1202/1209 0400 FG VV/// PROB40 TEMPO 1209/1211 BKN012 BECMG 1222/1224 3000 BR TEMPO 1302/1306 0400 FG VV///
LFLY,TAF LFLY 112300Z 1200/1224 35004KT CAVOK PROB40 TEMPO 1203/1209 -RA BKN010 PROB30 TEMPO 1203/1208 4500 BR OVC007 BECMG 1220/1222 14004KT
LFMD,TAF LFMD 111400Z 1115/1215 16010KT CAVOK BECMG 1116/1119 36005KT PROB40 TEMPO 1212/1215 15010KT FEW030CB
LFMI,TAF LFMI 112000Z 1121/1221 VRB03KT CAVOK TX25/1214Z TN13/1205Z PROB40 TEMPO 1214/1217 32010KT
LFMK,TAF LFMK 111400Z 1115/1215 09010KT 9999 SCT040 BECMG 1119/1121 VRB03KT BECMG 1206/1208 SCT040TCU BKN060 TEMPO 1208/1212 -SHRA BKN010 SCT035CB
LFML,TAF LFML 112000Z 1121/1303 VRB03KT CAVOK TX24/1214Z TN13/1303Z TEMPO 1211/1217 29010KT FEW040TCU
LFMN,TAF LFMN 112000Z 1121/1303 34010KT 9999 FEW060 BKN250 BECMG 1208/1210 10010KT PROB30 TEMPO 1214/1217 FEW040CB BECMG 1218/1220 34010KT NSC
LFMO,TAF LFMO 112000Z 1121/1221 VRB03KT CAVOK TX24/1215Z TN13/1205Z PROB30 TEMPO 1203/1207 4000 BR PROB30 TEMPO 1208/1212 SCT060TCU
LFMP,TAF LFMP 111400Z 1115/1215 09010KT 9999 FEW015 BKN025 BECMG 1117/1119 VRB03KT BECMG 1210/1212 09010KT
LFMT,TAF LFMT 112000Z 1121/1221 VRB05KT CAVOK BECMG 1210/1212 02007KT BECMG 1216/1219 24006KT
LFMU,TAF LFMU 111400Z 1115/1215 18010KT CAVOK BECMG 1117/1119 VRB03KT BECMG 1210/1212 18010KT
LFMV,TAF LFMV 111400Z 1115/1215 26004KT CAVOK PROB40 TEMPO 1204/1207 0600 FG
LFMY,TAF LFMY 111400Z 1115/1215 VRB03KT CAVOK TX24/1213Z TN12/1205Z
LFOA,TAF LFOA 112000Z 1121/1221 04004KT 9999 FEW020 TX19/1214Z TN11/1206Z TEMPO 1121/1208 3000 BR PROB30 TEMPO 1201/1208 0200 FG BKN002 TEMPO 1208/1210 SCT010
LFOB,TAF LFOB 112300Z 1200/1224 VRB02KT CAVOK BECMG 1211/1214 24010KT BECMG 1216/1218 VRB02KT
LFOE,TAF LFOE 112000Z 1121/1221 05005KT CAVOK BECMG 1210/1212 23006KT SCT025
LFOH,TAF LFOH 111100Z 1112/1212 09007KT CAVOK
LFOJ,TAF LFOJ 112000Z 1121/1221 03004KT 9999 BKN032 TX19/1215Z TN09/1205Z
LFOK,TAF LFOK 112300Z 1200/1224 VRB03KT CAVOK
LFOP,TAF LFOP 111700Z 1118/1218 VRB03KT CAVOK BECMG 1211/1214 26010KT BECMG 1216/1218 VRB03KT
LFOT,TAF LFOT 112300Z 1200/1224 05003KT 9999 SCT030 PROB30 TEMPO 1202/1207 4000 BR
LFPB,TAF LFPB 112300Z 1200/1224 02005KT CAVOK PROB30 TEMPO 1204/1206 4000 BR
LFPG,TAF LFPG 112300Z 1200/1306 02005KT CAVOK TX19/1215Z TN05/1206Z PROB30 TEMPO 1204/1206 4000 BR
LFPN,TAF LFPN 111700Z 1118/1203 03004KT 9999 FEW030
LFPO,TAF LFPO 112300Z 1200/1306 VRB03KT CAVOK PROB30 TEMPO 1203/1206 3000 BR BECMG 1211/1213 23008KT PROB30 TEMPO 1304/1306 -RA SCT030 BKN080
LFPV,TAF LFPV 112000Z 1121/1221 03004KT CAVOK TX19/1215Z TN09/1205Z
LFQQ,TAF LFQQ 112300Z 1200/1306 VRB03KT CAVOK PROB30 1202/1207 2000 BCFG BECMG 1211/1214 24010KT BECMG 1216/1218 VRB03KT BECMG 1300/1304 21010KT RA BKN013 OVC070 TEMPO 1304/1306 3000 BKN007 OVC013
LFRB,TAF LFRB 112300Z 1200/1306 VRB05KT CAVOK TEMPO 1200/1208 3000 BR PROB40 TEMPO 1202/1207 0500 FG BECMG 1210/1212 24010KT BECMG 1216/1218 BKN015 PROB40 TEMPO 1218/1223 5000 RA BKN010 BECMG 1223/1301 5000 RA BKN010 TEMPO 1301/1306 3000 RA BKN004
LFRC,TAF LFRC 111400Z 1115/1124 10006KT 9999 SCT025 BECMG 1118/1121 VRB05KT PROB30 TEMPO 1121/1124 3000 BR
LFRD,TAF LFRD 112300Z 1200/1224 VRB03KT CAVOK PROB40 TEMPO 1200/1208 3000 BR PROB30 TEMPO 1202/1207 0500 FG TEMPO 1213/1217 34010KT
LFRG,TAF LFRG 111400Z 1115/1124 05006KT 9999 SCT030
LFRH,TAF LFRH 112300Z 1200/1224 VRB03KT 9999 FEW030 PROB30 TEMPO 1204/1210 3000 BR BKN012 BECMG 1210/1212 25010KT
LFRI,TAF LFRI 111700Z 1118/1218 04005KT CAVOK PROB30 TEMPO 1204/1208 3000 BR BECMG 1214/1216 30010KT
LFRJ,TAF AMD LFRJ 111939Z 1119/1203 12006KT CAVOK
LFRK,TAF LFRK 111400Z 1115/1124 04008KT 9999 SCT030 BECMG 1118/1121 VRB05KT PROB40 TEMPO 1120/1124 3000 BR PROB30 TEMPO 1122/1124 0500 FG 
LFRL,TAF LFRL 111100Z 1112/1212 08005KT 9999 SCT025 PROB30 TEMPO 1200/1207 4000 BR PROB30 TEMPO 1204/1207 BKN007
LFRM,TAF LFRM 111700Z 1118/1218 VRB03KT CAVOK
LFRN,TAF AMD LFRN 112328Z 1200/1224 VRB03KT CAVOK TEMPO 1200/1208 3000 BR PROB40 TEMPO 1200/1203 0500 FG VV/// TEMPO 1213/1218 24010KT
LFRQ,TAF LFRQ 111700Z 1118/1218 VRB05KT CAVOK TEMPO 1202/1208 3000 BR PROB40 TEMPO 1203/1208 0500 FG BECMG 1212/1214 25008KT
LFRS,TAF LFRS 112300Z 1200/1306 VRB03KT CAVOK PROB30 TEMPO 1205/1207 0500 FG VV/// BECMG 1214/1216 26010KT BECMG 1300/1302 19004KT
LFRZ,TAF LFRZ 112300Z 1200/1224 VRB02KT CAVOK BECMG 1211/1213 22010KT BECMG 1217/1219 28004KT
LFSB,TAF LFSB 112300Z 1200/1224 33005KT 9999 BKN020 TEMPO 1200/1209 BKN013 PROB40 1203/1208 OVC006 BECMG 1209/1211 VRB03KT
LFSI,TAF LFSI 112000Z 1121/1221 VRB03KT CAVOK TEMPO 1202/1206 4000 BR
LFSL,TAF LFSL 111400Z 1115/1124 34008KT 9999 BKN040 TEMPO 1115/1124 SHRA BKN025TCU PROB30 TEMPO 1115/1120 3000 SHRA BKN005 BKN030CB
LFSO,TAF LFSO 112000Z 1121/1221 01003KT CAVOK
LFST,TAF LFST 112300Z 1200/1224 36005KT 9999 FEW025 BKN045 PROB40 TEMPO 1205/1210 BKN013 BECMG 1210/1212 VRB03KT
LFSX,TAF LFSX 112000Z 1121/1221 VRB03KT 9999 BKN030 BECMG 1123/1201 3500 BR PROB40 TEMPO 1201/1207 0400 FG OVC001 BECMG 1207/1209 9999 NSW BKN006 BECMG 1209/1211 BKN025
LFTH,TAF LFTH 112000Z 1121/1221 35005KT CAVOK BECMG 1209/1211 09010KT PROB30 TEMPO 1214/1218 FEW040TCU BECMG 1217/1219 VRB03KT
LFTW,TAF LFTW 111400Z 1115/1215 VRB04KT CAVOK
LFVP,TAF LFVP 111700Z 1118/1203 26020KT 9999 SCT035 BECMG 1121/1124 25020G30KT
LFYR,TAF LFYR 111400Z 1115/1215 09006KT 9999 OVC014 BECMG 1115/1117 SCT017 TEMPO 1123/1210 VRB02KT 2000 BR PROB30 TEMPO 1200/1208 0600 FG VV///
LGAD,TAF LGAD 112300Z 1200/1209 VRB03KT 9999 SCT025 BKN080 BECMG 1206/1208 SCT020
LGAL,TAF LGAL 112300Z 1200/1209 05012KT 9999 FEW018 SCT060 PROB30 TEMPO 1200/1203 5000 RA FEW018TCU SCT020 BKN060
LGAV,TAF LGAV 112300Z 1200/1224 VRB05KT 9999 FEW020 SCT070 BECMG 1201/1203 02012KT TEMPO 1209/1215 02012G22KT
LGBL,TAF LGBL 112300Z 1200/1209 28008KT 9999 SCT025 BKN080 PROB30 TEMPO 1200/1209 5000 RA BKN020 BKN080 BECMG 1207/1209 11010KT
LGEL,TAF LGEL 112300Z 1200/1224 35008KT 9999 FEW025 SCT070 TEMPO 1210/1216 18010KT PROB30 TEMPO 1209/1215 5000 RA FEW018TCU SCT025 BKN070
LGHI,TAF LGHI 112300Z 1200/1209 VRB05KT 9999 FEW020 BECMG 1203/1205 01010KT
LGIO,TAF LGIO 112300Z 1200/1209 VRB03KT 9999 SCT025 BKN080 TEMPO 1200/1209 5000 RA FEW010 BKN025 OVC080
LGIR,TAF LGIR 112300Z 1200/1224 18008KT 9999 SCT025 BECMG 1206/1208 31012KT PROB30 TEMPO 1209/1215 5000 RA FEW018TCU SCT025 BKN080
LGKC,TAF LGKC 112300Z 1200/1209 27010KT 9999 FEW018 PROB30 TEMPO 1200/1206 5000 RA FEW018TCU BKN025 BECMG 1203/1205 04010KT
LGKF,TAF LGKF 112300Z 1200/1209 VRB05KT 9999 FEW015 PROB30 TEMPO 1200/1206 5000 RA FEW016TCU SCT018 BKN070
LGKL,TAF LGKL 112300Z 1200/1209 35008KT 9999 SCT025 SCT080 PROB30 TEMPO 1204/1206 3000 BR SCT008 BECMG 1207/1209 16010KT
LGKO,TAF LGKO 112300Z 1200/1224 31012KT 9999 FEW018 BECMG 1212/1214 31015G25KT
LGKP,TAF LGKP 112300Z 1200/1209 32018KT 9999 SCT018
LGKR,TAF LGKR 112300Z 1200/1224 VRB05KT 9999 FEW018 SCT025 PROB40 TEMPO 1200/1206 5000 RA SCT008 FEW016TCU BKN020 PROB30 TEMPO 1200/1203 3000 TSRA SCT004 FEW016CB BKN020 BKN070 TEMPO 1212/1218 30010KT
LGKV,TAF LGKV 112300Z 1200/1224 06010KT 9999 FEW025 BKN080 PROB40 TEMPO 1200/1202 5000 RA SCT025 OVC070 BECMG 1204/1206 FEW025 BECMG 1212/1214 FEW025 SCT080
LGLM,TAF LGLM 112300Z 1200/1209 05016KT 9999 FEW015 SCT025
LGLR,TAF LGLR 112300Z 1200/1209 VRB03KT 9999 SCT025 BKN080 PROB30 TEMPO 1200/1209 5000 RA BKN020 BKN080
LGMK,TAF LGMK 112300Z 1200/1209 35012KT 9999 FEW018
LGMT,TAF LGMT 112300Z 1200/1209 VRB05KT 9999 FEW020 BECMG 1201/1203 35008KT
LGPZ,TAF LGPZ 112300Z 1200/1224 10010KT 9999 SCT018 SCT025 PROB30 TEMPO 1206/1212 5000 RA FEW018TCU BKN025 BKN070 BECMG 1210/1212 27010KT
LGRP,TAF LGRP 112300Z 1200/1224 25014KT 9999 FEW018 TEMPO 1212/1221 26016G26KT
LGRX,TAF LGRX 112300Z 1200/1209 05008KT 9999 SCT025 BKN080 BECMG 1206/1208 SCT020
LGSA,TAF LGSA 112300Z 1200/1224 VRB05KT 9999 SCT020 SCT080 TEMPO 1203/1212 28010KT PROB40 TEMPO 1206/1215 5000 RA FEW018TCU SCT025 BKN070 PROB30 TEMPO 1209/1212 4000 TSRA FEW016CB BKN025 BKN070
LGSK,TAF LGSK 112300Z 1200/1209 03010KT 9000 FEW015 SCT025 PROB30 TEMPO 1203/1206 5000 RA FEW010 FEW018TCU BKN025
LGSM,TAF LGSM 112300Z 1200/1209 VRB05KT 9999 FEW025 BECMG 1203/1205 35010KT
LGSR,TAF LGSR 112300Z 1200/1224 VRB05KT 9999 FEW020 BECMG 1204/1206 33012KT
LGST,TAF LGST 112300Z 1200/1209 30012KT 9999 FEW020
LGSY,TAF LGSY 112300Z 1200/1209 01015KT 9999 FEW015 SCT020
LGTG,TAF LGTG 112300Z 1200/1209 36008KT 9999 SCT020 BKN070 PROB30 TEMPO 1206/1209 5000 RA BKN020 BKN070
LGTL,TAF LGTL 112300Z 1200/1209 01010KT 9999 SCT020 SCT080 TEMPO 1200/1203 SCT020 BKN080
LGTS,TAF LGTS 112300Z 1200/1224 VRB03KT 9999 SCT025 PROB30 TEMPO 1210/1215 7000 RA FEW010 SCT020
LGZA,TAF LGZA 112300Z 1200/1209 VRB05KT 9999 FEW016 PROB30 TEMPO 1200/1203 5000 RA FEW018TCU SCT020 BKN070
LHBP,TAF LHBP 112315Z 1200/1224 10006KT 9999 BKN040 BKN070 BECMG 1201/1204 36003KT BECMG 1207/1210 09004KT BECMG 1212/1215 CAVOK BECMG 1221/1224 03003KT
LHDC,TAF LHDC 112315Z 1200/1209 03009KT CAVOK
LHKE,TAF LHKE 112015Z 1121/1206 03005KT CAVOK TEMPO 1202/1206 8000 BKN035
LHPA,TAF LHPA 112315Z 1200/1224 VRB03KT 5000 BR NSC BECMG 1200/1203 3000 BR MIFG TEMPO 1200/1206 0300 FG BKN003 BECMG 1206/1209 9999 SCT025 BKN080 BKN200 BECMG 1215/1218 13004KT CAVOK TEMPO 1222/1224 5000 BR
LHPP,TAF LHPP 111415Z 1115/1124 VRB03KT 9999 OVC040 BECMG 1118/1121 CAVOK
LHPR,TAF LHPR 111715Z 1118/1203 VRB02KT CAVOK
LHSN,TAF LHSN 112015Z 1121/1206 03004KT CAVOK TEMPO 1204/1206 8000 MIFG NSC
LIBA,TAF LIBA 112300Z 1200/1209 28010KT 9999 FEW030 BECMG 1200/1201 7000 FEW015 TEMPO 1203/12006 5000 BR FEW005
LIBC,TAF LIBC 111100Z 1112/1212 VRB05KT CAVOK BECMG 1112/1114 01010KT BECMG 1116/1118 VRB05KT
LIBD,TAF LIBD 112300Z 1200/1224 VRB05KT 9999 SCT020 BECMG 1209/1211 35012KT BECMG 1216/1218 VRB05KT
LIBF,TAF LIBF 111700Z 1118/1218 34008KT 9999 FEW030
LIBG,TAF LIBG 111400Z 1115/1124 34010KT 9999 SCT020 BECMG 1118/1120 VRB05KT
LIBN,TAF LIBN 111400Z 1115/1124 30012KT 9999 SCT020 BKN040 TEMPO 1115/1124 6000 RA BKN022
LIBP,TAF LIBP 112300Z 1200/1224 VRB05KT 9999 SCT020 TEMPO 1200/1206 3000 BR BECMG 1210/1212 05010KT BECMG 1216/1218 VRB05KT
LIBR,TAF LIBR 112300Z 1200/1224 32012KT 9999 SCT020 TEMPO 1203/1213 SHRA
LIBV,TAF LIBV 112300Z 1200/1209 33005KT 8000 SCT010 TEMPO 1200/1204 5000 BR SCT006
LICA,TAF LICA 112300Z 1200/1224 VRB05KT 9999 SCT020
LICB,TAF LICB 112300Z 1200/1224 VRB05KT 9999 SCT030 BECMG 1209/1211 26010KT TEMPO 1215/1218 SHRA BECMG 1216/1218 VRB05KT
LICC,TAF LICC 112300Z 1200/1224 VRB05KT 9999 SCT030 BECMG 1209/1211 08010KT TEMPO 1215/1218 SHRA BECMG 1216/1218 VRB05KT
LICD,TAF LICD 112300Z 1200/1224 10010KT 9999 SCT020 TEMPO 1212/1215 TSRA
LICG,TAF LICG 111400Z 1115/1124 12010KT 9999 SCT020 BECMG 1116/1118 VRB05KT
LICJ,TAF LICJ 112300Z 1200/1224 VRB05KT 9999 SCT030 BECMG 1212/1214 36010KT TEMPO 1214/1218 4000 TSRA BECMG 1215/1217 06008KT
LICR,TAF LICR 112300Z 1200/1224 VRB05KT 9999 SCT030 BECMG 1208/1210 20010KT BECMG 1216/1218 VRB05KT
LICT,TAF LICT 112300Z 1200/1209 10005KT CAVOK BECMG 1208/1209 17012KT
LICZ,TAF LICZ 112300Z 1200/1224 28005KT 9999 FEW030 TEMPO 1200/1205 5000 BR SCT010 BECMG 1208/1210 09010KT SCT030
LIEA,TAF LIEA 112300Z 1200/1224 VRB06KT 9999 SCT025 TEMPO 1204/1210 RA TEMPO 1210/1218 TSRA
LIED,TAF LIED 112300Z 1200/1209 VRB05KT 9999 SCT020 SCT060 BECMG 1205/1207 5000 RA FEW015CB SCT020 BKN040
LIEE,TAF LIEE 112300Z 1200/1224 VRB05KT 9999 SCT030 TEMPO 1205/1212 SHRA BECMG 1208/1210 16012KT
LIEO,TAF LIEO 112300Z 1200/1224 VRB05KT 9999 SCT030 TEMPO 1206/1212 RA BECMG 1208/1210 08011KT TEMPO 1212/1218 TSRA
LIMC,TAF LIMC 112300Z 1200/1306 VRB05KT 9999 FEW040 TEMPO 1200/1206 3000 BCFG TEMPO 1222/1306 3000 BCFG
LIME,TAF LIME 112300Z 1200/1224 VRB05KT 9999 SCT040
LIMF,TAF LIMF 112300Z 1200/1224 VRB05KT 8000 SCT040 TEMPO 1200/1206 4000 BR
LIMG,TAF LIMG 111100Z 1112/1212 13010KT 9999 FEW030 BECMG 1116/1118 29007KT BECMG 1206/1209 06010KT
LIMJ,TAF LIMJ 112300Z 1200/1224 02008KT 9999 FEW040
LIML,TAF LIML 112300Z 1200/1224 VRB05KT 8000 FEW040 TEMPO 1200/1206 4000 BR
LIMN,TAF LIMN 111700Z 1118/1203 VRB03KT CAVOK TEMPO 1200/1203 3000 MIFG
LIMP,TAF LIMP 111700Z 1118/1218 VRB05KT 9999 FEW040 TEMPO 1123/1206 3000 BR
LIMW,TAF LIMW 111400Z 1115/1124 08008KT 9999 FEW070
LIMZ,TAF LIMZ 112300Z 1200/1224 VRB05KT 7000 SCT020
LIPA,TAF LIPA 112000Z 1121/1206 VRB03KT CAVOK
LIPB,TAF LIPB 111700Z 1118/1218 VRB05KT CAVOK
LIPC,TAF LIPC 112300Z 1200/1209 29007KT CAVOK TEMPO 1203/1206 3000 BR SCT008
LIPE,TAF LIPE 112300Z 1200/1224 VRB05KT CAVOK
LIPH,TAF LIPH 112300Z 1200/1224 VRB05KT CAVOK
LIPK,TAF LIPK 111700Z 1118/1218 VRB06KT CAVOK TEMPO 1200/1208 3000 BR
LIPL,TAF LIPL 112300Z 1200/1209 06005KT CAVOK PROB30 TEMPO 1203/1206 1500 MIFG SCT008
LIPO,TAF LIPO 112300Z 1200/1224 VRB05KT 7000 FEW040
LIPQ,TAF LIPQ 112300Z 1200/1224 VRB05KT CAVOK
LIPR,TAF LIPR 112300Z 1200/1224 VRB05KT 9999 FEW020 SCT030 BECMG 1208/1210 34010KT BECMG 1216/1218 VRB05KT
LIPS,TAF COR LIPS 112303Z 1200/1209 04005KT CAVOK PROB30 TEMPO 1203/1206 3000 BR NSC
LIPX,TAF LIPX 112300Z 1200/1224 VRB05KT 9999 FEW040
LIPY,TAF LIPY 112300Z 1200/1224 VRB05KT 9999 SCT030 TEMPO 1200/1206 3000 BR BECMG 1208/1210 35010KT BECMG 1216/1218 VRB05KT
LIPZ,TAF LIPZ 111700Z 1118/1224 03006KT CAVOK BECMG 1210/1212 10010KT BECMG 1216/1218 03006KT
LIQW,TAF LIQW 112000Z 1121/1206 30005KT CAVOK
LIRA,TAF LIRA 112300Z 1200/1224 VRB05KT 9999 SCT040 BECMG 1209/1211 20010KT TEMPO 1212/1218 SHRA BKN014 BECMG 1216/1218 VRB05KT
LIRE,TAF LIRE 112300Z 1200/1209 05004KT 9999 FEW040
LIRF,TAF LIRF 112300Z 1200/1306 08006KT 9999 SCT030 PROB40 TEMPO 1200/1204 3000 BR BKN008 BECMG 1210/1212 19010KT BECMG 1216/1218 VRB05KT PROB30 TEMPO 1221/1306 4000 RA BKN014
LIRG,TAF AMD LIRG 111527Z 1115/1124 10006KT 9999 FEW020 TEMPO 1115/1118 TSRA FEW015CB
LIRH,TAF LIRH 111400Z 1115/1124 16006KT 9999 SCT035 TEMPO 1115/1117 FEW025CB BKN030
LIRL,TAF AMD LIRL 111527Z 1115/1124 19007KT 9999 FEW020 SCT035
LIRM,TAF LIRM 112300Z 1200/1209 01005KT 9999 SCT040
LIRN,TAF LIRN 112300Z 1200/1224 VRB05KT 9999 SCT040 BECMG 1211/1213 21010KT BECMG 1216/1218 VRB05KT TEMPO 1216/1218 SHRA
LIRP,TAF LIRP 112300Z 1200/1224 VRB03KT CAVOK PROB30 TEMPO 1202/1206 5000 MIFG BECMG 1208/1210 12008KT
LIRQ,TAF LIRQ 112300Z 1200/1224 VRB05KT 9999 FEW050 BECMG 1210/1212 05010KT BECMG 1216/1218 VRB05KT
LIRS,TAF LIRS 112300Z 1200/1209 05006KT 9999 SCT050
LIRU,TAF LIRU 111400Z 1115/1124 24010KT 9999 SCT030 BECMG 1117/1119 VRB05KT
LIRV,TAF LIRV 111700Z 1118/1203 02006KT 9999 SCT020
LIRZ,TAF LIRZ 112300Z 1200/1224 VRB05KT 9999 SCT030
LJCE,TAF LJCE 112300Z 1200/1209 VRB02KT CAVOK PROB30 TEMPO 1203/1206 3000 BR BKN003
LJLJ,TAF LJLJ 112300Z 1200/1300 VRB02KT 9999 FEW040 PROB30 1204/1208 0300 FG VV001
LJMB,TAF LJMB 112300Z 1200/1300 VRB02KT CAVOK PROB40 1204/1208 5000 BR
LJPZ,TAF LJPZ 112300Z 1200/1209 12005KT CAVOK
LKKB,TAF LKKB 111700Z 1118/1218 02004KT CAVOK TEMPO 1204/1208 SCT015 BECMG 1208/1210 09004KT BKN025 BECMG 1214/1216 CAVOK
LKKV,TAF LKKV 112300Z 1200/1306 VRB02KT 9999 BKN025 TEMPO 1200/1207 BKN012 PROB30 TEMPO 1201/1206 5000 MIFG SCT009 BECMG 1212/1214 16004KT CAVOK BECMG 1218/1220 3500 BR SCT010 TEMPO 1220/1306 1200 MIFG SCT002
LKMT,TAF LKMT 112300Z 1200/1306 05004KT CAVOK BECMG 1200/1202 3000 BR SCT003 TEMPO 1202/1207 1200 MIFG BKN003 PROB30 TEMPO 1204/1207 0500 FG VV002 BECMG 1207/1209 CAVOK TEMPO 1219/1306 VRB02KT BECMG 1223/1301 5000 BR NSC TEMPO 1301/1306 2000 MIFG SCT004 PROB30 TEMPO 1303/1306 0700 FG VV002
LKNA,TAF LKNA 111700Z 1118/1218 33006KT CAVOK TEMPO 1119/1208 BKN035 TEMPO 1201/1210 03004KT BECMG 1214/1216 12005KT 9999 SCT040
LKPD,TAF LKPD 111700Z 1118/1218 28005KT CAVOK BECMG 1118/1120 06004KT TEMPO 1208/1214 BKN030
LKPR,TAF LKPR 112300Z 1200/1306 04004KT 9999 SCT040 BECMG 1200/1202 BKN025 BECMG 1211/1213 9999 SCT025 BECMG 1220/1222 22004KT 5000 BR SCT004 TEMPO 1300/1306 3500 BR SCT002
LKTB,TAF LKTB 112300Z 1200/1306 06008KT CAVOK TEMPO 1204/1214 9999 BKN030 TEMPO 1302/1306 BKN025
LLBG,TAF LLBG 112310Z 1200/1224 VRB04KT 9999 SCT030 TEMPO 1200/1205 14005KT BKN025 BECMG 1207/1209 32012KT FEW035 BECMG 1216/1218 VRB04KT SCT030 TEMPO 1221/1224 14005KT BKN030 TX28/1211Z TN20/1204Z
LLER,TAF LLER 112309Z 1200/1224 36010KT CAVOK BECMG 1204/1206 02016KT PROB30 TEMPO 1206/1212 02020G30KT BECMG 1219/1221 36010KT TX32/1212Z TN22/1204Z
LLHA,TAF LLHA 112313Z 1200/1224 VRB04KT 9999 SCT025 TEMPO 1200/1205 13005KT BKN025 BECMG 1207/1209 33012KT SCT030 BECMG 1216/1218 34006KT TEMPO 1220/1224 VRB04KT BKN025 TX28/1210Z TN21/1203Z
LLHZ,TAF LLHZ 112311Z 1200/1224 VRB03KT 9999 SCT030 TEMPO 1200/1205 BKN025 BECMG 1206/1208 32008KT BECMG 1215/1217 VRB03KT TEMPO 1220/1224 BKN025 TX28/1211Z TN19/1203Z
LLIB,TAF LLIB 111103Z 1112/1212 33010KT CAVOK BECMG 1115/1117 VRB04KT BECMG 1207/1209 18006KT 9999 SCT035 TX31/1112Z TN16/1204Z
LMML,TAF LMML 112300Z 1200/1224 07010KT 9999 FEW013 PROB40 TEMPO 1200/1224 BKN012 BECMG 1221/1224 14010KT
LOWG,TAF LOWG 112315Z 1200/1224 VRB04KT 9999 SCT040 TX16/1214Z TN08/1224Z TEMPO 1200/1207 0500 BCFG PROB30 TEMPO 1202/1205 0300 FG BKN002 TEMPO 1222/1224 0700 BCFG
LOWI,TAF LOWI 112315Z 1200/1224 VRB03KT 9999 FEW060 TX18/1213Z TN08/1224Z PROB30 TEMPO 1200/1208 BKN010 BECMG 1209/1211 07007KT
LOWK,TAF LOWK 112315Z 1200/1224 VRB04KT 9999 FEW050 SCT100 TX16/1214Z TN10/1224Z PROB30 TEMPO 1203/1207 0700 BCFG BKN004
LOWL,TAF LOWL 112315Z 1200/1224 09005KT 9999 BKN030 TX14/1214Z TN08/1224Z PROB40 TEMPO 1202/1208 0800 BCFG BKN002
LOWS,TAF LOWS 112315Z 1200/1224 15004KT 9999 FEW030 BKN090 TX15/1214Z TN10/1203Z TEMPO 1202/1208 1200 BCFG BKN012 TEMPO 1204/1207 -SHRA BECMG 1208/1210 34005KT BECMG 1218/1220 15004KT
LOWW,TAF LOWW 112315Z 1200/1306 03005KT 9999 SCT050 TX15/1214Z TN09/1302Z PROB30 TEMPO 1200/1206 2500 BCFG BECMG 1223/1302 2500 BCFG TEMPO 1300/1306 1200 PRFG PROB30 TEMPO 1302/1306 0400 FG BKN002
LOXA,TAF LOXA 111415Z 1115/1124 VRB03KT 9999 FEW025 SCT070 PROB30 TEMPO 1115/1117 04008KT SHRA FEW020 FEW050TCU BKN060 PROB30 TEMPO 1120/1124 0700 BCFG
LOXT,TAF LOXT 111415Z 1115/1124 VRB03KT 9999 FEW040 BKN070
LOXZ,TAF LOXZ 111715Z 1118/1203 VRB03KT 9999 SCT060 BKN100 PROB30 TEMPO 1120/1203 0800 BCFG VV008
LPAR,TAF LPAR 111402Z 1115/1124 06008KT 9999 FEW025
LPAZ,TAF LPAZ 112300Z 1200/1306 VRB05KT 9999 FEW020 BKN030 TEMPO 1200/1306 SCT025 PROB30 TEMPO 1200/1218 09007KT
LPBJ,TAF LPBJ 112301Z 1200/1224 VRB02KT CAVOK PROB30 1204/1208 3000 BCFG SCT006 BECMG 1210/1212 02007KT
LPCS,TAF LPCS 111400Z 1115/1124 VRB05KT 9999 FEW018 BECMG 1115/1118 35013KT
LPFR,TAF LPFR 112300Z 1200/1224 VRB02KT CAVOK BECMG 1210/1212 17007KT BECMG 1214/1216 25007KT BECMG 1219/1221 31005KT
LPHR,TAF LPHR 111400Z 1115/1124 VRB05KT 9999 SCT013 PROB40 TEMPO 1115/1118 14007KT
LPLA,TAF LPLA 112301Z 1200/1224 VRB05KT 9999 SCT020 PROB30 TEMPO 1212/1218 7000 -SHRA SCT012 BKN018 BECMG 1210/1212 19008KT
LPMA,TAF LPMA 112300Z 1200/1224 01012KT 9999 SCT015 PROB30 TEMPO 1200/1218 01018G28KT 6000 -RA SCT008 BKN013
LPMR,TAF LPMR 112301Z 1200/1224 VRB02KT 0100 FG BKN002 BECMG 1209/1211 34008KT 9999 NSW FEW020 BECMG 1220/1222 VRB02KT SCT012
LPMT,TAF LPMT 112301Z 1200/1224 34007KT CAVOK
LPOV,TAF LPOV 111702Z 1118/1218 34008KT 9999 FEW025 PROB40 1203/1210 VRB02KT 5000 BR SCT004
LPPD,TAF LPPD 112300Z 1200/1224 VRB05KT 9999 FEW018 BKN030 TEMPO 1200/1224 SCT020
LPPR,TAF LPPR 112300Z 1200/1224 VRB02KT CAVOK BECMG 1212/1215 32008KT BECMG 1218/1221 VRB02KT
LPPS,TAF LPPS 112300Z 1200/1306 35012KT 9999 SCT015 SCT030 PROB30 TEMPO 1200/1218 5000 -RA BR SCT006 BKN012
LPPT,TAF LPPT 112300Z 1200/1306 33010KT CAVOK BECMG 1203/1206 34005KT 9999 FEW015 BECMG 1208/1211 04007KT CAVOK BECMG 1215/1217 34012KT BECMG 1222/1301 33007KT
LPST,TAF AMD LPST 111517Z 1115/1124 30008KT 3000 BR BKN004 PROB40 1117/1124 0800 FG BKN002
LQBK,TAF LQBK 112300Z 1200/1224 VRB02KT 4000 BR FEW015 BKN045 TX18/1213Z TN10/1204Z PROB30 TEMPO 1203/1208 1200 BR BKN004 BECMG 1209/1211 7000 NSW BECMG 1219/1222 2000 BR BKN005
LQMO,TAF LQMO 112300Z 1200/1224 32007KT 9999 FEW045 TX23/1213Z TN12/1204Z
LQSA,TAF LQSA 112300Z 1200/1224 30005KT 9999 BKN030 TX16/1213Z TN10/1204Z PROB40 TEMPO 1201/1209 3000 BR BKN010 PROB30 1204/1207 0800 FG BKN001 BECMG 1220/1222 3000 BR BKN007
LQTZ,TAF LQTZ 112300Z 1200/1224 VRB02KT 1500 BR BKN005 OVC015 TX17/1213Z TN10/1204Z BECMG 1209/1211 6000 NSW SCT007 SCT025 BECMG 1218/1220 1500 BR PROB40 1221/1224 0200 FG BKN002
LRAR,TAF LRAR 112300Z 1200/1209 VRB04KT CAVOK TEMPO 1200/1205 3000 BR
LRBC,TAF LRBC 112300Z 1200/1209 VRB04KT CAVOK
LRBM,TAF LRBM 111400Z 1115/1200 VRB04KT CAVOK BECMG 1122/1200 5000 BR
LRBO,TAF LRBO 112300Z 1200/1300 04008KT 9999 BKN150 BECMG 1211/1213 SCT200
LRBS,TAF LRBS 112300Z 1200/1300 07005KT CAVOK
LRCK,TAF LRCK 112300Z 1200/1300 VRB04KT CAVOK
LRCL,TAF LRCL 112300Z 1200/1209 VRB04KT CAVOK TEMPO 1200/1205 3000 BR
LRCT,TAF LRCT 112300Z 1200/1300 VRB03KT 9999 BKN200 PROB30 TEMPO 1203/1207 1000 BCFG BECMG 1209/1211 VRB05KT 9999 BKN100 PROB40 TEMPO 1219/1223 8000 SHRA SCT040CB OVC100
LRCV,TAF LRCV 112300Z 1200/1209 VRB04KT CAVOK
LRFT,TAF LRFT 112300Z 1200/1300 13007KT 9999 BKN100 PROB30 TEMPO 1203/1207 5000 BR BECMG 1210/1212 SCT100 BKN200
LRIA,TAF LRIA 112300Z 1200/1209 VRB04KT CAVOK
LROD,TAF LROD 111700Z 1118/1203 VRB04KT CAVOK BECMG 1122/1200 5000 BR
LROP,TAF LROP 112300Z 1200/1300 07005KT CAVOK
LRSB,TAF LRSB 112300Z 1200/1300 VRB04KT 5000 BR SCT055 TEMPO 1200/1205 1500 BR BKN005 BECMG 1205/1207 9999 NSW TEMPO 1214/1220 SCT045CB PROB30 TEMPO 1215/1219 5000 -SHRA BKN040CB
LRSM,TAF LRSM 111400Z 1115/1200 VRB04KT CAVOK BECMG 1122/1200 5000 BR
LRSV,TAF LRSV 112300Z 1200/1209 33006KT CAVOK
LRTC,TAF LRTC 111400Z 1115/1200 VRB04KT CAVOK
LRTM,TAF LRTM 111400Z 1115/1200 VRB04KT CAVOK
LRTR,TAF LRTR 112300Z 1200/1300 VRB04KT CAVOK TEMPO 1200/1206 3000 BR BKN010 TEMPO 1211/1216 5000 -SHRA SCT040CB PROB30 TEMPO 1212/1215 TSRA BKN015 BKN030CB BECMG 1218/1220 3000 BR
LRTZ,TAF LRTZ 112300Z 1200/1300 VRB03KT 9999 OVC120 BECMG 1203/1205 03006KT BKN120 TEMPO 1207/1215 SCT040 BKN090
LSGC,TAF AMD LSGC 111558Z 1115/1124 VRB02KT 9999 SCT020 TEMPO 1115/1117 SHRA BKN014TCU
LSGG,TAF LSGG 112325Z 1200/1306 VRB02KT 9999 FEW045 TX19/1215Z TN12/1205Z TN09/1305Z PROB30 TEMPO 1200/1205 SHRA PROB30 1205/1209 BKN014
LSGS,TAF LSGS 111425Z 1115/1124 25010KT 9999 FEW100 BECMG 1116/1118 VRB02KT
LSZA,TAF LSZA 111425Z 1115/1124 19004KT 9999 FEW045 PROB40 1115/1124 CAVOK
LSZB,TAF LSZB 111425Z 1115/1124 33005KT 9999 FEW030 BKN130 PROB40 1115/1122 CAVOK
LSZC,TAF LSZC 111425Z 1115/1124 VRB02KT 9999 SCT030 PROB30 TEMPO 1116/1121 SHRA FEW040TCU PROB40 1123/1124 BKN014
LSZG,TAF LSZG 111425Z 1115/1124 07007KT 9999 FEW030 PROB30 TEMPO 1115/1117 SHRA FEW030TCU
LSZH,TAF LSZH 112325Z 1200/1306 VRB02KT 9999 BKN014 TX18/1214Z TN10/1205Z TN07/1303Z BECMG 1202/1205 BKN009 PROB40 1203/1208 4000 BR BECMG 1209/1211 SCT020 BECMG 1222/1224 4500 BR NSC BECMG 1300/1302 2000 BCFG BKN004 BECMG 1302/1305 0800 PRFG VV003
LSZL,TAF LSZL 111725Z 1118/1203 VRB02KT CAVOK BECMG 1119/1122 4500 BR SCT040 PROB30 1122/1203 1500 MIFG SCT030
LSZR,TAF LSZR 111425Z 1115/1124 VRB02KT CAVOK TEMPO 1115/1121 9999 FEW030 BECMG 1121/1124 8000 BKN014
LSZS,TAF LSZS 111425Z 1115/1124 23010KT 9999 SCT080 TX14/1115Z BECMG 1115/1117 VRB02KT PROB40 TEMPO 1115/1121 SHRA FEW040TCU
LTAB,TAF LTAB 112240Z 1200/1209 VRB02KT CAVOK
LTAC,TAF LTAC 112240Z 1200/1224 VRB02KT CAVOK BECMG 1206/1208 SCT040 BKN100 BECMG 1218/1221 CAVOK
LTAD,TAF LTAD 112240Z 1200/1209 VRB02KT CAVOK
LTAE,TAF LTAE 112240Z 1200/1209 VRB02KT CAVOK
LTAF,TAF LTAF 112240Z 1200/1224 VRB02KT CAVOK
LTAG,TAF LTAG 112240Z 1200/1224 VRB02KT CAVOK TEMPO 1212/1216 20012KT
LTAH,TAF LTAH 111340Z 1115/1124 VRB02KT CAVOK
LTAI,TAF LTAI 112240Z 1200/1224 34006KT CAVOK BECMG 1206/1209 17010KT FEW030 SCT100 BECMG 1209/1212 SCT025TCU BECMG 1216/1219 34006KT CAVOK
LTAJ,TAF LTAJ 112240Z 1200/1224 VRB02KT CAVOK
LTAL,TAF LTAL 111340Z 1115/1124 06007KT 9999 FEW033
LTAN,TAF LTAN 112240Z 1200/1209 VRB02KT CAVOK
LTAO,TAF LTAO 112240Z 1200/1209 18007KT CAVOK
LTAP,TAF LTAP 112240Z 1200/1224 VRB02KT 9999 FEW040 SCT180 BECMG 1209/1212 03015KT
LTAR,TAF LTAR 112240Z 1200/1209 VRB02KT CAVOK
LTAS,TAF LTAS 111340Z 1115/1124 VRB02KT 9999 FEW040 SCT200 BECMG 1115/1117 CAVOK
LTAT,TAF LTAT 112240Z 1200/1224 21007KT CAVOK BECMG 1205/1207 08011KT BECMG 1216/1218 21007KT
LTAU,TAF LTAU 112240Z 1200/1224 04008KT CAVOK BECMG 1207/1210 FEW040 SCT120 BKN180
LTAV,TAF LTAV 111340Z 1115/1124 VRB02KT CAVOK
LTAW,TAF LTAW 111340Z 1115/1124 VRB02KT 9999 FEW040 SCT180
LTAY,TAF LTAY 112240Z 1200/1209 VRB02KT CAVOK BECMG 1207/1209 28012KT
LTAZ,TAF LTAZ 112240Z 1200/1224 VRB02KT CAVOK BECMG 1207/1210 FEW040 SCT120 BKN180 TEMPO 1215/1219 02012KT
LTBA,TAF LTBA 112240Z 1200/1224 05008KT CAVOK BECMG 1201/1204 FEW030 BKN170 BECMG 1207/1211 05018KT BECMG 1217/1220 03008KT TEMPO 1222/1224 -SHRA FEW016 BKN022
LTBD,TAF LTBD 111340Z 1115/1124 27012KT 9999 FEW035 BKN180 BECMG 1118/1120 VRB02KT
LTBF,TAF LTBF 112240Z 1200/1209 VRB02KT CAVOK BECMG 1200/1203 SCT035 SCT100
LTBG,TAF LTBG 112240Z 1200/1209 05012KT 9999 FEW015 SCT035
LTBH,TAF LTBH 112240Z 1200/1209 06008KT 9999 SCT035
LTBI,TAF LTBI 112240Z 1200/1209 VRB02KT CAVOK
LTBJ,TAF LTBJ 112240Z 1200/1224 VRB02KT CAVOK BECMG 1207/1210 35015G25KT BECMG 1216/1219 35009KT
LTBK,TAF LTBK 111340Z 1115/1124 VRB02KT 9999 FEW030 BKN200
LTBL,TAF LTBL 112240Z 1200/1209 VRB02KT CAVOK BECMG 1205/1207 FEW035
LTBN,TAF LTBN 111340Z 1115/1124 VRB02KT CAVOK
LTBO,TAF LTBO 111640Z 1118/1203 VRB02KT 9999 FEW040 SCT100 BKN200
LTBP,TAF LTBP 111340Z 1115/1124 07012KT CAVOK
LTBQ,TAF LTBQ 112240Z 1200/1209 VRB02KT 8000 SCT028 BKN180 BECMG 1201/1203 4000 BR BKN020 BECMG 1205/1207 8000 SCT030
LTBR,TAF LTBR 112240Z 1200/1224 VRB02KT CAVOK BECMG 1200/1203 3500 BR PROB40 1203/1206 1200 BCFG SCT003 BECMG 1206/1209 9999 NSW SCT035 BECMG 1209/1212 35012KT BECMG 1216/1218 VRB02KT
LTBS,TAF LTBS 112240Z 1200/1224 VRB02KT 9999 FEW030 BKN180 BECMG 1207/1209 22012KT BECMG 1215/1217 VRB02KT CAVOK
LTBT,TAF LTBT 111340Z 1115/1124 VRB02KT 9999 FEW040 SCT100 BKN200 BECMG 1115/1118 CAVOK
LTBU,TAF LTBU 112240Z 1200/1224 03012KT CAVOK BECMG 1202/1204 SCT035 BKN100
LTBV,TAF LTBV 111340Z 1115/1124 28012KT 9999 FEW035 SCT200 BECMG 1115/1117 VRB02KT
LTBX,TAF LTBX 111340Z 1115/1124 05015KT CAVOK BECMG 1116/1119 04005KT
LTBY,TAF LTBY 112240Z 1200/1209 VRB02KT CAVOK
LTBZ,TAF LTBZ 112240Z 1200/1209 VRB02KT CAVOK
LTCA,TAF LTCA 112240Z 1200/1209 24008KT CAVOK
LTCB,TAF LTCB 112240Z 1200/1209 VRB02KT 9999 SCT035
LTCC,TAF LTCC 112240Z 1200/1224 VRB02KT CAVOK
LTCD,TAF LTCD 112240Z 1200/1209 VRB02KT CAVOK
LTCE,TAF LTCE 112240Z 1200/1224 VRB02KT CAVOK BECMG 1204/1206 SCT035 BKN070
LTCF,TAF LTCF 112240Z 1200/1209 VRB02KT CAVOK BECMG 1206/1208 FEW040
LTCG,TAF LTCG 112240Z 1200/1224 VRB02KT 9999 SCT035 PROB40 1208/1212 09012KT PROB30 1212/1214 -SHRA SCT012 BKN028 PROB30 1214/1218 -SHRA SCT012 BKN028
LTCI,TAF LTCI 112240Z 1200/1209 10008KT 9999 FEW040 BECMG 1204/1206 28010KT
LTCJ,TAF LTCJ 112240Z 1200/1224 VRB02KT CAVOK
LTCK,TAF LTCK 111340Z 1115/1124 VRB02KT 9999 FEW040
LTCL,TAF LTCL 111340Z 1115/1124 VRB02KT CAVOK
LTCN,TAF LTCN 112240Z 1200/1209 VRB02KT CAVOK BECMG 1207/1209 FEW040
LTCO,TAF LTCO 111340Z 1115/1124 VRB02KT 9999 SCT040 BECMG 1116/1118 CAVOK
LTCP,TAF LTCP 111340Z 1115/1124 35007KT CAVOK
LTCR,TAF LTCR 111340Z 1115/1124 25006KT CAVOK BECMG 1117/1120 34012KT
LTCS,TAF LTCS 112240Z 1200/1224 03010KT CAVOK BECMG 1210/1212 29007KT
LTCT,TAF LTCT 112240Z 1200/1209 28012KT CAVOK BECMG 1205/1207 04005KT SCT100
LTCV,TAF LTCV 112240Z 1200/1224 24006KT CAVOK
LTCW,TAF LTCW 112240Z 1200/1209 06008KT 9999 FEW040
LTDA,TAF LTDA 112240Z 1200/1209 VRB02KT CAVOK
LTFA,TAF LTFA 111340Z 1115/1124 VRB02KT 9999 FEW040 SCT100 BKN200 BECMG 1115/1118 CAVOK
LTFB,TAF LTFB 111340Z 1115/1124 26012KT CAVOK BECMG 1115/1118 VRB02KT
LTFC,TAF LTFC 112240Z 1200/1224 VRB02KT CAVOK BECMG 1206/1209 FEW035 SCT100 BECMG 1211/1214 34012KT FEW020CB SCT035 PROB40 TEMPO 1214/1217 VRB15G25KT -TSRA FEW020CB BKN030 BECMG 1218/1221 VRB02KT SCT030
LTFD,TAF LTFD 112240Z 1200/1209 07008KT CAVOK BECMG 1203/1206 SCT035
LTFE,TAF LTFE 112240Z 1200/1224 VRB02KT CAVOK BECMG 1203/1206 FEW035 SCT100 BECMG 1208/1210 26012KT BECMG 1215/1218 VRB02KT CAVOK
LTFG,TAF LTFG 112240Z 1200/1209 11006KT CAVOK BECMG 1206/1209 24010KT FEW030 SCT100
LTFH,TAF LTFH 112240Z 1200/1209 VRB02KT 8000 SCT030 BKN100 BECMG 1207/1209 06012KT
LTFJ,TAF LTFJ 112240Z 1200/1224 04012KT CAVOK BECMG 1201/1204 SCT035 BKN100 BECMG 1213/1216 CAVOK
LTFK,TAF LTFK 111340Z 1115/1124 04012KT CAVOK
LTFM,TAF LTFM 112240Z 1200/1306 05015KT 9999 SCT025 BKN100 PROB40 TEMPO 1222/1301 -SHRA FEW012 BKN022
LTFO,TAF LTFO 112240Z 1200/1209 VRB02KT 9999 SCT035
LUKK,TAF LUKK 112320Z 1200/1224 VRB02KT CAVOK BECMG 1209/1211 35006KT
LWOH,TAF LWOH 112330Z 1200/1224 34008KT 9999 BKN030 OVC070
LWSK,TAF LWSK 112330Z 1200/1224 VRB02KT 9999 SCT040 BKN080 PROB30 TEMPO 1204/1208 2000 BR OVC015
LYBE,TAF LYBE 112300Z 1200/1224 20004KT 3000 BR SCT040 TX19/1213Z TN12/1205Z TEMPO 1200/1206 0500 FG BKN002 BECMG 1207/1209 9999 NSW TEMPO 1207/1209 BKN010
LYBT,TAF LYBT 112300Z 1200/1224 VRB02KT 1500 BR SCT040 TX19/1213Z TN09/1205Z TEMPO 1200/1206 0500 FG TEMPO 1206/1208 3000 BKN015 BECMG 1208/1209 9999 NSW
LYKV,TAF LYKV 112300Z 1200/1224 VRB02KT 3000 BR SCT013 BKN035 TX18/1213Z TN11/1204Z TEMPO 1202/1206 0500 FG BKN005 BKN025 BECMG 1207/1209 9999 NSW BECMG 1221/1223 3000 BR
LYNI,TAF LYNI 112300Z 1200/1224 36005KT 9999 SCT040 TX19/1213Z TN11/1204Z TEMPO 1203/1206 5000 BR TEMPO 1211/1215 SHRA FEW030TCU BKN040
LYPG,TAF LYPG 112300Z 1200/1224 VRB02KT 7000 FEW010 SCT040 BKN090 TX23/1213Z TN13/1205Z PROB40 TEMPO 1202/1207 2000 BR
LYTV,TAF LYTV 112300Z 1200/1224 VRB02KT CAVOK TX22/1213Z TN13/1205Z PROB40 TEMPO 1203/1207 2000 BR
LYVR,TAF LYVR 112300Z 1200/1224 18004KT 9999 BKN040 TX20/1213Z TN10/1205Z TEMPO 1202/1206 2000 BR
LZIB,TAF LZIB 112315Z 1200/1300 02005KT CAVOK BECMG 1207/1209 9999 FEW030
LZKZ,TAF LZKZ 112315Z 1200/1300 02009KT CAVOK TEMPO 1200/1215 01020KT BECMG 1207/1209 9999 FEW030
LZMC,TAF LZMC 111930Z 1121/1206 VRB02KT CAVOK TEMPO 1122/1206 5000 BR
LZPP,TAF LZPP 111715Z 1118/1203 35006KT CAVOK
LZPW,TAF LZPW 111930Z 1121/1206 VRB04KT CAVOK TEMPO 1202/1206 0500 FG OVC002
LZSL,TAF LZSL 111930Z 1121/1206 VRB02KT 9999 FEW040 TEMPO 1202/1206 1500 BR BCFG FEW001 PROB40 TEMPO 1203/1206 0500 FG BKN001
LZTT,TAF LZTT 112315Z 1200/1300 09004KT 9999 FEW005 BKN017 TEMPO 1200/1208 BKN009 PROB30 TEMPO 1200/1204 2000 BR BKN002
LZZI,TAF LZZI 112315Z 1200/1209 09004KT 6000 FEW005 TEMPO 1200/1207 3000 BR BKN003 PROB30 TEMPO 1201/1205 1500 BR BKN001 BECMG 1207/1209 9999 SCT030
MBGT,MBGT 112230Z 1200/1224 09010G20KT 9999 SCT018
MBPV,MBPV 112230Z 1200/1224 09010G20KT 9999 SCT018
MDBH,TAF MDBH 112200Z 1200/1224 13010KT 9999 FEW018CB SCT018 SCT080 PROB30 1203/1209 7000 -TSRA FEW014CB BKN014 OVC070 BECMG 1208/1210 27006KT
MDCY,TAF MDCY 112200Z 1200/1224 09009KT 9999 FEW017CB FEW017 PROB40 1201/1207 8000 -TSSH FEW016CB SCT016 SCT070
MDJB,TAF MDJB 112200Z 1200/1224 09010KT 9999 SCT016 PROB30 1202/1208 8000 -TSRA FEW014CB BKN016 SCT300
MDLR,TAF MDLR 112200Z 1200/1224 00000KT 9999 SCT018 SCT300 PROB30 1200/1206 6000 -TSRA FEW016CB BKN018 BECMG 1213/1215 09010KT
MDPC,TAF MDPC 112200Z 1200/1224 06008KT 9999 SCT020 PROB30 1200/1206 8000 -TSRA FEW017CB BKN018 SCT070
MDPP,TAF MDPP 112200Z 1200/1224 09013KT 9999 FW023 PROB30 1200/1206 00000KT 8000 -RA BKN018 SCT070
MDSD,TAF MDSD 112200Z 1200/1224 02004KT 9999 SCT018 PROB30 1203/1209 7000 -TSRA FEW014CB BKN016 BKN300 BECMG 1216/1218 14008KT
MDST,TAF MDST 112200Z 1200/1224 11006KT 9999 SCT020 PROB30 1200/1206 7000 -SHRA SCT016 SCT080 BECMG 1202/1204 00000KT
MGGT,MGGT 112300Z 1200/1224 23006KT 9999 SCT016 BKN080 TX23/1220Z TN14/1212Z PROB40 TEMPO 1206/1214 VRB03KT 5000 BR DZ BKN014 BECMG 1214/1216 18008KT SCT018 PROB30 TEMPO 1221/1224 8000 TSRA FEW025CB
MGMM,MGMM 112300Z 1200/1224 00000KT 9999 FEW016 SCT080 TX29/1120Z TN20/1212Z BECMG 1208/1210 BKN012 BECMG 1214/1216 09008KT SCT018 TEMPO 1221/1224 80000 TSRA SCT020TCU FEW025CB
MGPB,MGPB 112300Z 1200/1224 00000KT 9999 FEW016 TX28/1220Z TN20/1212Z BECMG 1214/1216 33008KT FEW018 PROB30 TEMPO 1220/1224 8000 VCTSRA SC020TCU FEW025CB
MGSJ,MGSJ 112300Z 1200/1224 00000KT 9999 FEW016 BKN080 TX27/1120Z TN20/1212Z BECMG 1214/1216 18008KT FEW018 PROB30 TEMPO 1220/1224 8000 VCTSRA SCT020TCU FEW025CB
MHLC,TAF MHLC 112300Z 1200/1224 VRB05KT 9999 SCT026 TX31/1218Z TN23/1212Z BECMG 1215/1217 02010KT SCT030TCU FEW025CB TEMPO 1221/1224 8000 VCSH
MHLM,TAF MHLM 112300Z 1200/1224 22003KT 9999 SCT026 TX34/1221Z TN22/1212Z BECMG 1218/1220 02010KT SCT030TCU FEW035CB TEMPO 1221/1224 8000 VCSH
MHPR,TAF MHPR 112301Z 1200/1224 VRB05KT 9999 SCT048 BKN060 TX30/1219Z TN20/1209Z FM122000 27012KT 9999 SCT048TCU TEMPO 1221/1224 7000 SHRA
MHRO,TAF MHRO 112300Z 1200/1224 09020KT 9999 FEW025 TX31/1219Z TN27/1212Z TEMPO 1222/1224 8000 VCSH SCT020TCU
MHTG,TAF MHTG 112300Z 1200/1224 VRB02KT 9999 SCT028 TX29/1220Z TN17/1211Z FM121700 04010KT 9999 SCT032TCU TEMPO 1221/1224 8000 VCSH
MKJP,TAF MKJP 112315Z 1200/1224 36007KT 9999 FEW022 BECMG 1214/1216 14018KT FEW020 FEW022CB
MKJS,TAF MKJS 112315Z 1200/1224 14005KT 9999 FEW022 BECMG 1214/1216 06015KT PROB40 TEMPO 1219/1224 TS SCT018 FEW020CB
MMAA,TAF MMAA 112337Z 1200/1306 13010G20KT 4SM -TSRA BKN015CB BKN100 OVC300 TN25/1208Z TX31/1217Z FM120100 09006KT 5SM HZ BKN015CB BKN100 TEMPO 1201/1204 5SM RA FM120500 00000KT 5SM HZ SCT015 BKN100 FM121900 20010KT P6SM SCT020 BKN300 PROB40 1300/1304 5SM RA SCT020CB
MMAN,TAF MMAN 111653Z 1118/1218 00000KT 6SM HZ BKN020 FM120400 13005KT 5SM HZ SCT015 TEMPO 1212/1215 2SM BR OVC010 FM121700 13005KT 6SM HZ SCT020
MMAS,TAF MMAS 110433Z 1106/1206 11010KT P6SM SCT100 FM111200 12005KT P6SM SKC FM111800 04012KT P6SM SKC FM120300 12005KT P6SM SCT100
MMBT,TAF MMBT 111701Z 1118/1218 09015KT 5SM RA BKN020 OVC120 TEMPO 1120/1124 2SM +RA FM120600 16015KT P6SM SCT020 BKN080 PROB40 1212/1216 5SM RA BKN020
MMCB,TAF MMCB 111701Z 1118/1218 16012KT P6SM SCT025 BKN250 PROB40 1200/1204 5SM RA BKN025 FM120600 02010KT P6SM BKN080 BKN250 TEMPO 1214/1218 BKN020
MMCE,TAF MMCE 111722Z 1118/1218 23012KT P6SM BKN015 FM112000 20015KT 5SM RA BKN015 OVC080 TEMPO 1123/1202 2SM +RA BKN010CB FM120600 14012KT P6SM BKN015 BKN080 PROB40 1212/1216 3SM RA BKN010CB
MMCL,TAF MMCL 111644Z 1118/1218 24010KT P6SM SKC FM120400 24005KT P6SM SKC FM121800 24010KT P6SM SKC
MMCM,TAF MMCM 111722Z 1118/1218 12015KT P6SM SCT015 BKN080 FM120300 12010KT P6SM SCT015 BKN100
MMCN,TAF MMCN 111646Z 1118/1218 24015KT P6SM SKC FM120300 34010KT P6SM SKC
MMCP,TAF MMCP 111722Z 1118/1218 13010G20KT P6SM BKN015 TEMPO 1120/1124 2SM TSRA OVC010CB FM120000 14015KT 5SM RA BKN020 OVC080 FM120600 13012KT P6SM SCT015 BKN080 TEMPO 1212/1216 BKN015
MMCS,TAF MMCS 111653Z 1118/1218 24010KT P6SM SCT250 FM120400 24005KT P6SM SKC FM121800 24010KT P6SM SKC
MMCU,TAF MMCU 111653Z 1118/1218 14010KT P6SM SCT030 FM120400 16005KT 6SM HZ SCT080 FM121800 14010KT P6SM SCT030
MMCV,TAF MMCV 111635Z 1118/1218 04010KT P6SM SCT025 BKN250 FM120600 00000KT P6SM SCT020 BKN250 FM121200 34010KT P6SM BKN020 OVC070 PROB40 1214/1218 3SM RA
MMCZ,TAF MMCZ 111720Z 1118/1224 12015KT P6SM BKN020 TEMPO 1121/1201 6SM -RA BKN015CB FM120300 13010KT 6SM HZ SCT015 BKN080 FM121800 13015KT P6SM BKN020
MMDO,TAF MMDO 111646Z 1118/1218 24012KT P6SM SCT025 FM120200 00000KT P6SM SKC
MMEP,TAF MMEP 111712Z 1118/1218 09012KT P6SM SKC FM120300 00000KT P6SM SCT200
MMGL,TAF MMGL 112346Z 1200/1306 06010KT P6SM SCT030 TX28/1221Z TN13/1212Z FM120300 00000KT P6SM SKC FM121800 07010KT P6SM SCT030 BECMG 1220/1222 34012KT FM130300 12005KT P6SM
MMGM,TAF MMGM 111646Z 1118/1218 23012KT P6SM SKC FM120300 34010KT P6SM SKC
MMHO,TAF MMHO 111644Z 1118/1218 24010KT P6SM SKC FM120300 24005KT P6SM SKC FM121800 24010KT P6SM SKC
MMIA,TAF MMIA 111712Z 1118/1218 05012KT P6SM SCT250 FM112100 24010KT P6SM SCT020 TEMPO 1123/1203 6SM TSRA SCT015CB FM120600 04012KT P6SM BKN200
MMIO,TAF MMIO 111653Z 1118/1218 02005KT 5SM HZ SCT015 FM111900 02010KT 6SM HZ SCT030 FM120300 03005KT 6SM HZ SCT015 FM121000 03005KT 3SM BR BKN010 TEMPO 1211/1215 1SM BR OVC005 FM121600 03005KT 6SM HZ SCT015
MMLM,TAF MMLM 111646Z 1118/1218 28015KT P6SM SKC FM120300 34010KT P6SM SKC
MMLO,TAF MMLO 111712Z 1118/1218 12015KT P6SM BKN250 FM120300 09010KT P6SM SCT030 TEMPO 1214/1218 BKN030
MMLP,TAF MMLP 111644Z 1118/1218 33010KT P6SM SCT030 FM120300 16005KT P6SM SKC FM121800 33010KT P6SM SKC
MMLT,TAF MMLT 111646Z 1118/1218 02015KT P6SM SKC FM120300 06010KT P6SM SKC
MMMA,TAF MMMA 111635Z 1118/1218 06010KT P6SM BKN025 TEMPO 1118/1121 3SM RA BKN015CB FM120000 06010KT P6SM SCT020 BKN100 FM121200 12010KT P6SM BKN020 PROB40 1214/1218 5SM RA OVC020
MMMD,TAF MMMD 111720Z 1118/1224 12010G20KT 6SM HZ BKN020 BKN070 BKN300 TX31/1119Z TN24/1212Z TEMPO 1122/1202 5SM -TSRA BKN020CB FM120500 13008KT 6SM HZ SCT020 BKN080 BKN300 TEMPO 1211/1215 5SM -RA BKN005 BKN010 FM121600 13010KT 6SM HZ SCT015 BKN080
MMML,TAF MMML 111644Z 1118/1218 14010KT P6SM SCT050 FM120400 13005KT P6SM SKC FM121800 14010KT P6SM SCT030
MMMM,TAF MMMM 112346Z 1200/1306 05010KT P6SM SCT030 BKN280 FM120300 02006KT 6SM HZ SCT020 TEMPO 1210/1214 3SM BR BKN010 FM121500 04006KT P6SM SCT020 BECMG 1220/1222 02012KT BKN020 PROB40 1222/1302 6SM -RA BKN020CB
MMMT,TAF MMMT 111722Z 1118/1218 24020KT 2SM +RA OVC010 TEMPO 1118/1122 1/2SM +RA OVC006CB FM112200 23015KT 5SM RA BKN015 OVC080 TEMPO 1122/1201 3SM RA BKN010CB FM120300 23012KT P6SM BKN020 BKN080 PROB40 1203/1207 4SM RA BKN010CB FM121200 23012KT 3SM BR OVC010 FM121500 23012KT 5SM HZ OVC020
MMMV,TAF MMMV 111653Z 1118/1218 09010KT P6SM SCT050 TEMPO 1119/1123 BKN050 FM120400 06005KT P6SM SCT020 TEMPO 1212/1216 BKN020 FM121800 08005KT 6SM HZ SCT050
MMMX,TAF MMMX 112337Z 1200/1306 32006KT P6SM SCT025 SCT080 BKN250 TN12/1212Z TX21/1221Z FM120200 00000KT P6SM SCT020 BKN080 TEMPO 1212/1216 3SM BR BKN010 FM121600 03006KT P6SM SCT020 BKN080 FM122000 03010KT P6SM BKN020 BKN080 PROB40 1300/1304 5SM RA
MMMY,TAF MMMY 111653Z 1118/1224 14010KT 6SM HZ BKN030 TX30/1121Z TN20/1212Z FM120300 13005KT 6SM HZ SCT020 TEMPO 1211/1215 2SM BR OVC010 FM121600 13005KT 6SM HZ BKN020
MMMZ,TAF MMMZ 112345Z 1200/1306 31010KT P6SM SKC TN22/1213Z TX33/1218Z BECMG 1202/1203 00000KT FM121800 28010KT P6SM SCT250 BECMG 1302/1303 00000KT
MMNL,TAF MMNL 111635Z 1118/1218 14010KT P6SM SCT025 TEMPO 1120/1124 BKN025 FM120100 13010KT P6SM SCT080 FM121400 12010KT P6SM BKN025
MMOX,TAF MMOX 111701Z 1118/1218 34015KT P6SM BKN030 OVC080 TEMPO 1119/1123 5SM RA FM120000 04012KT 5SM RA BKN020 OVC080 FM121300 20010KT P6SM SCT020 BKN080 PROB40 1214/1218 6SM RA BKN020
MMPA,TAF MMPA 111635Z 1118/1218 30015KT 4SM RA BKN020 OVC070 TEMPO 1120/1124 2SM RA BKN010CB FM120300 28012KT 3SM RA BKN010 OVC030 TEMPO 1214/1218 30020KT 1SM +RA OVC008CB
MMPB,TAF MMPB 111701Z 1118/1218 36020KT P6SM BKN025 BKN120 PROB40 1200/1204 5SM TSRA BKN020CB FM120600 04015KT P6SM SCT020 BKN080 PROB40 1214/1218 5SM RA BKN020
MMPG,TAF MMPG 111635Z 1118/1218 12012KT P6SM SCT030 FM120300 00000KT P6SM SCT100 FM121300 12010KT P6SM BKN020
MMPN,TAF MMPN 111712Z 1118/1218 18010KT P6SM SCT030 TEMPO 1120/1124 6SM TSRA SCT030CB BKN100 FM120300 00000KT P6SM BKN250
MMPQ,TAF MMPQ 111722Z 1118/1218 20012KT 4SM RA OVC030 FM120000 13010KT 5SM HZ BKN020 BKN080 PROB40 1200/1204 3SM RA FM121200 09010KT 4SM HZ BKN015
MMPR,TAF MMPR 112346Z 1200/1306 21010KT P6SM SKC TX31/1221Z TN24/1212Z FM120300 04005KT P6SM SKC FM121800 24012KT P6SM SKC FM130300 03005KT P6SM SKC
MMPS,TAF MMPS 111701Z 1118/1218 14015KT 6SM RA BKN010 OVC030 TEMPO 1119/1123 2SM +RA OVC010CB FM120000 09015KT 5SM RA BKN020 OVC080 PROB40 1212/1216 3SM RA BKN010CB
MMQT,TAF MMQT 111712Z 1118/1218 12015KT P6SM BKN020 FM121200 09012KT 5SM HZ OVC020 PROB40 1214/1218 5SM RA
MMRX,TAF MMRX 111635Z 1118/1218 06010KT P6SM SCT030 TEMPO 1120/1124 BKN030 FM120300 12010KT P6SM BKN200 FM121200 12010KT 5SM HZ OVC020
MMSD,TAF MMSD 111646Z 1118/1218 14015KT P6SM SKC FM120300 34008KT P6SM SKC
MMSL,TAF MMSL 111646Z 1118/1218 30012KT P6SM SKC FM120600 12010KT P6SM SKC TEMPO 1212/1216 SCT020
MMSM,TAF MMSM 112337Z 1200/1306 32010KT P6SM SCT020CB SCT070 BKN200 FM120200 00000KT 5SM HZ BKN015 BKN070 BECMG 1208/1209 3SM BR BKN010 TEMPO 1211/1215 1/2SM FG VV003 FM121600 02006KT 5SM HZ BKN020 BKN080 FM130200 34005KT P6SM SCT020 BKN080
MMSP,TAF MMSP 112346Z 1200/1306 07010KT P6SM SCT025 TX23/1221Z TN11/1212Z FM120600 10005KT P6SM SCT020 BECMG 1207/1209 BKN015 TEMPO 1210/1214 3SM BR FM121500 02005KT 6SM HZ SCT010 BECMG 1220/1222 09015KT P6SM FM130300 10010KT P6SM SCT020
MMTC,TAF MMTC 111653Z 1118/1218 08010KT P6SM SCT020 FM120400 06005KT 6SM HZ SKC FM121800 08005KT P6SM SKC
MMTG,TAF MMTG 111720Z 1118/1218 33010KT 6SM HZ BKN020 BKN090 BKN200 TEMPO 1122/1202 5SM TSRA BKN015CB FM120300 33005KT 5SM -RA BKN015 OVC070 TEMPO 1212/1215 2SM -RA BR BKN010 FM121800 33010KT 6SM HZ BKN020 BKN090
MMTJ,TAF MMTJ 112345Z 1200/1306 29012KT 5SM RA SCT020 BKN070 TN18/1209Z TX22/1219Z FM120100 30005KT P6SM SCT020 BECMG 1203/1203 5SM HZ BKN015 FM120800 00000KT 2SM BR OVC004 FM121600 28006KT 6SM HZ BKN015 FM121800 28010KT P6SM SCT020 BECMG 1301/1302 30005KT
MMTM,TAF MMTM 111707Z 1118/1218 03010KT P6SM SCT030 SCT080 BKN200 TEMPO 1122/1202 6SM TSRA BKN015CB FM120200 03005KT 6SM HZ BKN015 BKN080 TEMPO 1206/1210 5SM TSRA BKN010CB FM121200 03005KT 5SM HZ BKN015 BKN070 TEMPO 1212/1215 4SM -RA FM121800 03010KT 6SM HZ SCT020 BKN200
MMTO,TAF MMTO 112337Z 1200/1306 05010KT P6SM SCT020CB SCT080 BKN200 TN07/1212Z TX21/1221Z FM120200 03005KT P6SM SCT020 BKN080 TEMPO 1211/1215 3SM BR BKN010 FM121900 03010KT P6SM SCT020 PROB40 1222/1302 5SM RA SCT020CB BKN080
MMTP,TAF COR MMTP 111840Z 1118/1224 13015KT P6SM SCT030 BKN100 BKN200 TEMPO 1122/1202 6SM TSRA BKN020CB FM120400 13005KT 6SM HZ SCT015 BKN100 BKN200 FM121600 13010KT P6SM SCT030 BKN100
MMUN,TAF MMUN 111720Z 1118/1224 12010KT 6SM HZ SCT020 SCT100 BKN250 TX31/1119Z TN26/1212Z TEMPO 1122/1202 6SM TSRA BKN015CB FM120300 13005KT 6SM HZ SCT015 BKN100 BKN250 TEMPO 1212/1215 6SM -RA BKN015 FM121600 13010KT 6SM HZ BKN020
MMVA,TAF MMVA 111722Z 1118/1218 23010KT P6SM BKN015 BKN070 TEMPO 1120/1124 3SM RA BKN010CB FM120100 09010KT 5SM RA BKN015 OVC080 FM120600 09010KT P6SM SCT015 BKN080 PROB40 1212/1216 3SM RA BKN010CB
MMVR,TAF MMVR 111707Z 1118/1218 03010KT 6SM HZ BKN020 BKN040 OVC070 TX30/1121Z TN22/1212Z TEMPO 1122/1202 5SM TSRA BKN015CB FM120300 06008KT 5SM HZ BKN020 BKN080 TEMPO 1206/1210 5SM TSRA BKN010CB FM121000 03005KT 4SM HZ BKN015 BKN080 TEMPO 1212/1215 3SM BR -RA BKN010 FM121600 06010KT 5SM HZ BKN010 BKN080 OVC200
MMZC,TAF MMZC 112346Z 1200/1306 12010KT P6SM SCT030 TX23/1221Z TN08/1212Z FM120300 00000KT P6SM BKN030 FM121800 04010KT P6SM SCT030 BECMG 1220/1222 06015KT FM130300 04010KT P6SM BKN030
MMZH,TAF MMZH 110423Z 1106/1206 04005KT P6SM SCT090 SCT250 FM111200 04005KT P6SM SCT020 SCT250 FM111800 24012KT P6SM SKC FM112100 24010KT P6SM SCT020CB BKN250 TEMPO 1122/1202 5SM TSRA BKN020CB
MMZO,TAF MMZO 111637Z 1118/1218 24010KT P6SM SCT030 FM120400 24005KT P6SM SCT200 FM121800 24001KT P6SM SCT020
MNBL,MNBL 112050Z 1200/1224 VRB04KT 9000/8000 -RA BKN018 BECMG 1207/1209 5000 RA/TSRA FEW016CB BKN018 BECMG 1216/1218 07008KT 7000 -RA BKN019
MNMG,MNMG 112050Z 1200/1224 06008KT 8000 -RA/-TSRA FEW020CB SCT070 BECMG 1204/1206 VRB04KT 9999/9000 -DZ SCT020 TEMPO 1215/1217 07010KT SCT022TCU BECMG 1221/1222 7000 VCRA/-TSRA FEW020CB SCT070
MNPC,MNPC 112050Z 1200/1224 VRB06KT 7000 HZ/VCRA BKN016 BECMG 1208/1211 5000 RA/TSRA FEW014CB BKN016 BECMG 1216/1218 06010KT 7000 -RA/HZ BKN016TCU
MPDA,TAF MPDA 112300Z 1200/1212 22008KT 9999 SCT018 TEMPO 1209/1212 03006KT
MPMG,TAF MPMG 112300Z 1200/1212 32006KT 9999 SCT018 TEMPO 1206/1210 VRB02KT
MPPA,TAF MPPA 112300Z 1200/1306 18006KT 9999 SCT018 TEMPO 1206/1210 00000KT TEMPO 1217/1221 6000 TSRA SCT015CB BKN080 TEMPO 1222/1301 9999 NSW
MPSM,TAF MPSM 111700Z 1118/1224 34006KT 9999 SCT018 PROB30 1118/1122 16008KT 7000 TSRA SCT016CB BKN090
MPTO,TAF MPTO 112300Z 1200/1306 26006KT 9999 SCT018 TEMPO 1206/1210 VRB02KT TEMPO 1217/1221 18008KT 6000 TSRA SCT015CB BKN080 TEMPO 1222/1301 9999 NSW
MRLB,MRLB 112300Z 1200/1224 28005KT 9999 SCT040 TX30/1219Z TN21/1211Z BECMG 1203/1206 07006KT TEMPO 1208/1213 VRB02KT 3000 BR BKN010 TEMPO 1218/1223 27005KT TSRA FEW020CB 
MRLM,MRLM 112300Z 1200/1224 04005KT 9999 SCT020 TX31/1220Z TN21/1211Z BECMG 1200/1203 27005KT BECMG 1215/1218 05006KT 
MROC,MROC 112300Z 1200/1224 25005KT 9999 SCT010 TX29/1218Z TN18/1210Z TEMPO 1200/1206 VRB02KT 5000 BR BKN010 BECMG 1206/1209 07005KT BECMG 1215/1217 24007KT TEMPO 1220/1224 RA BKN020 
MRPV,TAF MRPV 112315Z 1200/1224 10007KT 9999 SCT045 BKN120 TX28/1218Z TN19/1210Z TEMPO 1200/1202 VRB02KT BCFG BKN015 TEMPO 1220/1223 29008KT SHRA BKN010TCU
MSLP,TAF MSLP 112125Z 1200/1224 VRB02KT 9999 FEW023 SCT070 TX32/1218Z TN23/1210Z FM120400 04005KT CAVOK FM121700 22010KT 9999 FEW020 FEW040CB
MSSS,TAF MSSS 112125Z 1200/1224 34005KT 9999 FEW027 TX29/1220Z TN21/1212Z FM120400 02005KT CAVOK FM121700 13008KT 9999 SCT027 FEW040CB
MTCH,TAF MTCH 111700Z 1118/1218 04014KT 9999 SCT026 PROB30 TEMPO 1202/1206 4000 TSRA SCT022CB BKN030 BECMG 1202/1206 36010KT TEMPO 1208/1212 VRB02KT
MTPP,TAF MTPP 111700Z 1118/1218 12010KT 9000 FEW020 FM111800 30012KT 9999 SCT026TCU SCT040 PROB30 TEMPO 1200/1206 4000 TSRA SCT022CB BKN030 BECMG 1206/1210 VRB02KT 9000 NSW FEW020
MUCC,MUCC 112300Z 1200/1224 08010KT 9000 SCT020 BECMG 1201/1203 VRB03KT BECMG 1214/1216 09012KT
MUCF,MUCF 111700Z 1118/1206 VRB03KT 9000 SCT020 TEMPO 1119/1124 VRB10KT 5000 TSRA SCT018CB BKN020
MUCL,MUCL 111700Z 1118/1206 10010KT 9000 SCT020 TEMPO 1119/1124 VRB10KT 5000 TSRA SCT018CB BKN020
MUCM,MUCM 112300Z 1200/1224 03010KT 9000 SCT020 TEMPO 1200/1203 VRB10KT 5000 TSRA SCT018CB BKN020 BECMG 1204/1205 VRB03KT BECMG 1214/1216 07010KT
MUCU,MUCU 112300Z 1200/1224 16008KT 9000 SCT020 TEMPO 1200/1203 VRB10KT 5000 TSRA SCT018CB BKN020 BECMG 1204/1205 VRB03KT BECMG 1214/1216 15008KT
MUGM,TAF MUGM 1123/1223 10008KT 9999 SCT030 SCT050 BKN250 QNH2997INS BECMG 1200/1202 33008KT 9999 FEW030 FEW250 QNH2994INS BECMG 1214/1216 13010KT 9999 FEW030 FEW080 SCT250 QNH2988INS T24/1211Z T31/1217Z FN20097
MUHA,MUHA 112300Z 1200/1224 VRB03KT 9000 SCT030 BECMG 1213/1215 12009KT TEMPO 1219/1224 VRB10KT 3000 TSRA FEW020CB BKN030
MUHG,MUHG 112300Z 1200/1224 VRB03KT 9000 SCT020 TEMPO 1200/1203 VRB10KT 5000 TSRA SCT018CB BKN020 BECMG 1214/1216 08008KT
MUSC,MUSC 112300Z 1200/1224 08012KT 9000 SCT020 TEMPO 1200/1203 VRB10KT 5000 TSRA SCT018CB BKN020 BECMG 1204/1205 VRB03KT BECMG 1214/1216 09010KT
MUVR,MUVR 112300Z 1200/1224 05010KT 9000 SCT020 TEMPO 1200/1203 VRB10KT 5000 TSRA SCT018CB BKN020 BECMG 1204/1205 VRB03KT BECMG 1214/1216 05010KT
MWCB,TAF MWCB 111700Z 1100/1124 11014KT 9999 VCSH SCT018
MWCR,TAF MWCR 112300Z 1200/1224 11014KT 9999 VCSH SCT018
MYGF,MYGF 112230Z 1200/1224 10005KT 9999 SCT020
MYNN,MYNN 112230Z 1200/1224 09008KT 9999 SCT025
MZBZ,TAF MZBZ 112205Z 1200/1224 11008KT 9999 SCT023
NCRG,TAF NCRG 112309Z 1200/1224 06020KT 9999 -SHRA SCT006 BKN016 BKN035 TEMPO 1200/1206 08020G30KT 5000 SHRA BKN015
NFFN,TAF NFFN 112305Z 1200/1224 29010KT 9999 FEW030 BECMG 1204/1206 10005KT BECMG 1222/1224 31010KT
NFNA,TAF NFNA 112310Z 1200/1224 11006KT 9999 SCT020
NFTF,TAF NFTF 112309Z 1200/1224 22012KT 9999 FEW010 SCT015
NFTV,TAF NFTV 112311Z 1200/1224 28007KT 9999 SCT016
NGFU,TAF NGFU 112311Z 1200/1224 08010KT 9999 FEW020
NGTA,TAF NGTA 112310Z 1200/1224 09013KT 9999 -SHRA SCT019 SCT040 TEMPO 1200/1203 5000 TSRA BKN015 FEW018CB PROB40 TEMPO 1203/1209 5000 SHRA BKN018
NIUE,TAF NIUE 112311Z 1200/1224 35010KT 9999 -SHRA SCT018 BKN030 BKN100 PROB4O TEMPO 1200/1206 35015G25KT 5000 TSRA BKN015 SCT018CB
NLWF,TAF NLWF 112300Z 1200/1224 04008KT 9999 FEW015 SCT025 TEMPO 1200/1224 4500 SHRA SCT020TCU PROB30 TEMPO 1206/1221 2800 +SHRA BKN012 FEW020CB
NLWW,TAF NLWW 112300Z 1200/1224 05008KT 9999 FEW020 TEMPO 1200/1224 SHRA FEW020TCU PROB40 TEMPO 1215/1224 3000 +SHRA BKN009 FEW020CB
NSFA,TAF NSFA 112310Z 1200/1224 03009KT 9999 SCT018 BKN037 PROB40 TEMPO 1200/1206 5000 TSRA FEW018CB
NSTU,NSTU 112341Z 1200/1224 01007G20KT P6SM FEW021 SCT040 SCT100
NTAA,TAF NTAA 112300Z 1200/1306 VRB05KT 9999 FEW025 SCT045 PROB30 TEMPO 1200/1203 4000 SHRA SCT020 BKN040 PROB30 TEMPO 1223/1303 4000 SHRA SCT020 BKN040
NVSC,TAF NVSC 112300Z 1200/1224 VRB04KT 9999 SCT020
NVSG,TAF NVSG 112300Z 1200/1224 VRB04KT 9999 SCT020 BKN110 INTER 1200/1206 9000 SHRA FEW010 BKN018
NVSL,TAF NVSL 112300Z 1200/1224 09015KT 9999 BKN020 OVC040 INTER 1200/1206 9000 SHRA FEW010 BKN018
NVSP,TAF NVSP 112300Z 1200/1224 10010KT 9999 BKN020 OVC040 INTER 1200/1206 9000 -SHRA BKN018
NVSS,TAF NVSS 112300Z 1200/1224 10010KT 9999 SCT020 BKN040 INTER 1200/1206 9000 -SHRA BKN018
NVVA,TAF NVVA 112300Z 1200/1224 10010KT 9999 BKN020 INTER 1200/1206 8000 SHRA FEW010 BKN018 OVC100
NVVV,TAF NVVV 112300Z 1200/1224 09015KT 9999 BKN020 INTER 1200/1206 8000 SHRA FEW010 BKN018 OVC100
NVVW,TAF NVVW 112300Z 1200/1224 09010KT 9999 BKN020 INTER 1200/1206 8000 SHRA FEW010 BKN018 OVC100
NWWD,TAF NWWD 112300Z 1200/1224 06008KT 9999 SCT030 TEMPO 1200/1209 20010KT 4500 SHRA FEW020CB PROB40 TEMPO 1203/1207 2000 TSRA SCT018CB
NWWE,TAF NWWE 111700Z 1118/1218 08007KT 9999 SCT020 PROB40 TEMPO 1206/1215 VRB20KT 2500 +SHRA BKN007 SCT018CB PROB40 TEMPO 1215/1218 4000 SHRA BKN010 FEW020TCU
NWWK,TAF NWWK 112300Z 1200/1224 17010KT 9999 SCT030 TEMPO 1201/1209 4500 SHRA FEW020CB PROB40 TEMPO 1203/1207 2000 TSRA SCT018CB BECMG 1206/1208 VRB02KT BECMG 1221/1223 15018KT
NWWL,TAF NWWL 111700Z 1118/1218 12008KT 9999 BKN020 SCT035 PROB30 TEMPO 1118/1120 SHRA TEMPO 1203/1218 4500 SHRA BKN014 FEW020TCU
NWWM,TAF NWWM 111700Z 1118/1218 08010KT 9999 FEW025 PROB40 TEMPO 1202/1206 4000 SHRA SCT020TCU BECMG 1207/1209 VRB02KT PROB40 TEMPO 1210/1218 4800 SHRA BKN014 FEW020TCU
NWWR,TAF NWWR 111700Z 1118/1218 11005KT 9999 FEW025 PROB40 TEMPO 1204/1218 4500 SHRA FEW020TCU
NWWU,TAF NWWU 111700Z 1118/1218 15008KT 9999 SCT025 BKN040 PROB40 TEMPO 1118/1121 SHRA FEW020TCU PROB40 TEMPO 1202/1206 SHRA FEW020CB
NWWW,TAF NWWW 112300Z 1200/1224 20012KT 9999 FEW050 SCT130 TEMPO 1200/1209 SHRA SCT020TCU PROB40 TEMPO 1203/1209 VRB15G25KT 4000 TSRA FEW020CB BECMG 1206/1208 VRB02KT PROB30 TEMPO 1220/1224 SHRA SCT020TCU BECMG 1222/1224 16015KT
NZAA,TAF NZAA 112318Z 1200/1306 VRB02KT 9999 -SHRA BKN025 BECMG 1200/1202 02010KT BECMG 1206/1208 08005KT FM121900 02010KT 9999 SCT025 BKN040
NZCH,TAF NZCH 112307Z 1200/1306 07012KT 9999 BKN040 PROB30 TEMPO 1206/1212 4000 DZ BKN010 BECMG 1211/1213 VRB02KT TEMPO 1218/1304 4000 RADZ BKN010 BECMG 1301/1303 08010KT
NZFX,TAF NZFX 112056Z 1121/1221 16015G30KT 9999 FEW180 QNH2879INS WND VRB06KT AFT 1200 GRID33015G30KT TEMPO 1204/1207 04015G25KT GRID21015G25KT BECMG 1219/1221 15015G25KT 9999 FEW100 QNH2980INS GRID32015G25KT 
NZQN,TAF AMD NZQN 112027Z 1120/1212 16005KT 9999 FEW025 SCT050 BECMG 1123/1201 24010KT BECMG 1202/1204 16012KT
NZWN,TAF NZWN 112318Z 1200/1306 16015KT 9999 BKN030 BECMG 1206/1208 02008KT FM121400 15015KT 9999 -SHRA SCT020 BKN030 TEMPO 1216/1219 7000 SHRA
OBBI,TAF OBBI 112300Z 1200/1306 27005KT CAVOK BECMG 1206/1209 33012KT
OEAB,TAF OEAB 112300Z 1200/1306 VRB03KT 7000 NSC BECMG 1206/1208 06010KT 9999 FEW020 PROB30 TEMPO 1212/1218 SCT020 FEW025CB BECMG 1218/1220 VRB03KT
OEAH,TAF OEAH 112200Z 1200/1306 30007KT CAVOK BECMG 1208/1210 01015KT BECMG 1215/1217 30005KT TEMPO 1220/1304 4000 BR NSC
OEAO,TAF OEAO 112300Z 1200/1306 VRB03KT CAVOK BECMG 1208/1210 26010KT BECMG 1217/1219 01008KT
OEBA,TAF OEBA 112300Z 1200/1306 20008KT CAVOK BECMG 1206/1208 10010KT 9999 FEW030 PROB30 TEMPO 1212/1218 FEW025CB SCT030 BECMG 1218/1220 20006KT
OEBH,TAF OEBH 112300Z 1200/1306 21008KT CAVOK BECMG 1208/1210 09008KT BECMG 1218/1220 22008KT
OEDF,TAF OEDF 112200Z 1200/1306 30007KT CAVOK TEMPO 1200/1203 5000 HZ NSC BECMG 1207/1209 01015KT BECMG 1215/1217 30007KT
OEDR,TAF OEDR 112200Z 1200/1306 30007KT CAVOK TEMPO 1200/1203 5000 HZ NSC BECMG 1207/1209 01015KT BECMG 1215/1217 30007KT
OEGN,TAF OEGN 112300Z 1200/1306 09006KT 7000 SCT030 SCT100 PROB30 TEMPO 1200/1206 4000 HZ BECMG 1206/1208 27012KT TEMPO 1212/1220 TS FEW035CB BECMG 1218/1220 VRB03KT
OEGS,TAF OEGS 112300Z 1200/1306 VRB03KT CAVOK BECMG 1206/1208 20010KT BECMG 1215/1217 12006KT
OEGT,TAF OEGT 112300Z 1200/1306 32012KT 7000 FEW040 BECMG 1206/1208 33006KT CAVOK BECMG 1218/1220 31013KT 7000 NSC
OEHL,TAF OEHL 112300Z 1200/1306 26008KT CAVOK BECMG 1206/1208 19010KT BECMG 1216/1218 27006KT
OEJN,TAF OEJN 112300Z 1200/1306 VRB03KT 7000 NSC PROB30 TEMPO 1200/1206 3500 HZ FEW020 BECMG 1206/1208 27010KT 9999 FEW040 BECMG 1218/1220 VRB03KT 7000 NSC
OEKJ,TAF OEKJ 112300Z 1200/1306 30006KT CAVOK BECMG 1209/1211 08010KT BECMG 1218/1220 VRB03KT
OEKM,TAF OEKM 112300Z 1200/1306 VRB03KT 7000 NSC BECMG 1206/1208 06010KT 9999 FEW020 PROB30 TEMPO 1212/1218 SCT020 FEW025CB BECMG 1218/1220 VRB03KT
OEMA,TAF OEMA 112300Z 1200/1306 VRB03KT CAVOK BECMG 1208/1210 21008KT BECMG 1218/1220 VRB03KT
OENG,TAF OENG 112300Z 1200/1306 VRB03KT 9999 FEW030 BECMG 1206/1208 01010KT BECMG 1222/1300 VRB03KT
OEPA,TAF OEPA 112200Z 1200/1306 03010KT CAVOK BECMG 1220/1222 12005KT
OEPS,TAF OEPS 111700Z 1117/1223 VRB03KT 9999 FEW150 QNH3002INS BECMG 1118/1119 01009KT 9999 FEW190 QNH3001INS BECMG 1120/1121 VRB04KT 9999 SKC QNH3000INS BECMG 1207/1208 03010G15KT 9999 SKC QNH2999INS BECMG 1213/1214 05008KT 9999 SKC QNH3000INS BECMG 1216/1217 VRB06KT 9999 FEW200 QNH3003INS TX37/1211Z TN18/1203Z
OERF,TAF OERF 112300Z 1200/1306 05006KT CAVOK BECMG 1206/1208 12010KT
OERK,TAF OERK 112300Z 1200/1306 35005KT CAVOK BECMG 1206/1208 07012KT BECMG 1218/1220 VRB03KT
OERR,TAF OERR 112300Z 1200/1306 06006KT CAVOK BECMG 1206/1208 12010KT BECMG 1218/1220 VRB03KT
OESH,TAF OESH 112300Z 1200/1306 17006KT 9999 FEW040 BECMG 1207/1209 04010KT BECMG 1300/1302 VRB03KT
OESK,TAF OESK 112300Z 1200/1306 03006KT CAVOK BECMG 1206/1208 10010KT BECMG 1220/1222 VRB03KT
OETB,TAF OETB 112300Z 1200/1306 VRB03KT CAVOK BECMG 1209/1211 23010KT BECMG 1218/1220 31007KT
OETF,TAF OETF 112300Z 1200/1306 VRB03KT 9999 FEW030 BECMG 1206/1208 11010KT PROB30 TEMPO 1214/1220 FEW025CB SCT030 BECMG 1216/1218 30008KT
OETR,TAF OETR 112300Z 1200/1306 13010KT CAVOK BECMG 1207/1209 17010KT BECMG 1220/1222 10008KT
OEWD,TAF OEWD 112300Z 1200/1306 12008KT CAVOK BECMG 1205/1207 27008KT BECMG 1218/1220 18007KT
OEWJ,TAF OEWJ 112300Z 1200/1306 36008KT 7000 FEW040 PROB30 TEMPO 1200/1206 4000 HZ BECMG 1208/1210 35018KT CAVOK BECMG 1220/1222 36010KT
OEYN,TAF OEYN 112300Z 1200/1306 14006KT 6000 FEW040 TEMPO 1200/1206 2000 BR PROB30 TEMPO 1201/1205 0500 FG BECMG 1206/1208 28014KT BECMG 1218/1220 VRB03KT
OIAA,TAF OIAA 112310Z 1200/1306 32010KT 8000 NSC TEMPO 1123/1205 3000 HZ TEMPO 1209/1215 33018KT 3000 SA NSC TEMPO 1222/1304 3000 HZ
OIAW,TAF OIAW 112310Z 1200/1306 31008KT 7000 NSC TEMPO 1200/1204 3000 HZ TEMPO 1206/1215 33018KT PROB40 3000 SA TEMPO 1222/1304 5000 HZ
OIBB,TAF OIBB 112310Z 1200/1209 15004KT 7000 NSC PROB40 TEMPO 1201/1205 5000 BR BECMG 1204/1206 33008KT TEMPO 1206/1209 33012KT
OIBK,TAF OIBK 112310Z 1200/1306 10008KT 3000 BR NSC TEMPO 1200/1205 1500 BR BECMG 1205/1207 7000 TEMPO 1207/1210 16010KT
OIBP,TAF OIBP 112310Z 1200/1209 12004KT 7000 NSC TEMPO 1201/1205 4000 BR
OICC,TAF OICC 112310Z 1200/1209 09004KT CAVOK BECMG 1205/1207 30008KT
OICI,TAF OICI 112310Z 1200/1306 07008KT 8000 NSC TEMPO 1212/1215 29016KT
OIFM,TAF OIFM 112310Z 1200/1306 28006KT 8000 NSC TEMPO 1202/1207 4000 HZ TEMPO 1208/1215 26010KT
OIGG,TAF OIGG 112310Z 1200/1209 30004KT 6000 FEW025 SCT030 TEMPO 1200/1204 1500 BR SCT015 TEMPO 1206/1209 35008KT 4000 RA BR FEW025CB SCT030 BKN080
OIIE,TAF OIIE 112310Z 1200/1306 31008KT 7000 FEW040 TEMPO 1121/1204 33016KT BECMG 1206/1208 13008KT TEMPO 1221/1224 33016KT
OIII,TAF OIII 112310Z 1200/1306 29006KT 8000 NSC TEMPO 1218/1224 28016KT
OIIP,TAF OIIP 112310Z 1200/1209 32012KT CAVOK
OIKB,TAF OIKB 112310Z 1200/1306 06006KT 7000 NSC TEMPO 1200/1206 5000 HZ BECMG 1207/1209 22010KT BECMG 1218/1220 04006KT TEMPO 1222/1305 5000 HZ
OIKK,TAF OIKK 112310Z 1200/1306 12006KT 8000 NSC TEMPO 1210/1215 06012KT
OIMM,TAF OIMM 112310Z 1200/1306 16008KT 8000 NSC TEMPO 1209/1212 08016KT
OING,TAF OING 112310Z 1200/1209 22004KT 9999 SCT030 OVC080 PROB40 TEMPO 1201/1204 3000 BR SCT015 TEMPO 1205/1209 24012KT FEW025CB SCT030 BKN080
OINZ,TAF OINZ 112310Z 1200/1209 22006KT 7000 SCT030 BKN090 BECMG 1201/1203 FEW025CB SCT030 OVC080
OISL,TAF OISL 112310Z 1200/1306 16008KT 8000 NSC TEMPO 1200/1204 4000 HZ
OISS,TAF OISS 112310Z 1200/1306 29006KT 6000 NSC TEMPO 1201/1206 5000 HZ BECMG 1210/1212 8000 NSC
OITL,TAF OITL 112310Z 1200/1209 12004KT 7000 NSC TEMPO 1200/1203 0800 FG BKN002 BECMG 1207/1209 07016KT FEW045 SCT090
OITR,TAF OITR 112310Z 1200/1306 28008KT 7000 FEW035 TEMPO 1200/1203 29008KT TEMPO 1218/1222 09018KT FEW040 SCT100 BECMG 1222/1224 09012KT SCT040 SCT100
OITT,TAF OITT 112310Z 1200/1306 06008KT 8000 NSC TEMPO 1218/1222 09018KT FEW040 SCT100 BECMG 1222/1224 09012KT SCT040 BKN100
OIYY,TAF OIYY 112310Z 1200/1209 14006KT CAVOK
OIZH,TAF OIZH 112310Z 1200/1306 18008KT 8000 NSC BECMG 1206/1208 02010KT BECMG 1215/1217 18006KT
OJAI,TAF OJAI 112256Z 1200/1306 28010KT 6000 NSC PROB30 1202/1206 VRB02KT 4000 BR
OJAM,TAF OJAM 112256Z 1200/1306 VRB01KT 7000 NSC PROB30 1202/1206 3000 FU FEW030 BECMG 1206/1208 29008KT 5000 HZ FEW035
OJAQ,TAF OJAQ 112256Z 1200/1306 36012KT CAVOK
OKAS,TAF OKAS 111600Z 1116/1222 34009KT 9999 SKC QNH2985INS BECMG 1205/1206 34012G20KT 9999 SKC QNH2986INS BECMG 1213/1214 34009KT 9999 SKC QNH2987INS TX38/1211Z TN23/1202Z
OKBK,TAF OKBK 112300Z 1200/1306 34008G18KT 7000 NSC
OLBA,TAF OLBA 112200Z 1200/1306 10006KT 8000 NSC BECMG 1206/1209 02008KT BECMG 1209/1212 32010KT FEW026 SCT080 BECMG 1300/1303 04008KT
OMAA,TAF OMAA 112300Z 1200/1306 12005KT 6000 NSC PROB30 1202/1205 0500 FG VV001 BECMG 1207/1209 30012KT BECMG 1217/1219 05005KT PROB30 1300/1304 3000 BR BECMG 1303/1305 16010KT
OMAD,TAF OMAD 111700Z 1118/1300 04005KT 8000 NSC BECMG 1200/1202 12005KT 4000 HZ PROB30 1202/1205 0800 FG VV001 BECMG 1206/1208 33010KT 8000 NSW BECMG 1217/1219 05005KT
OMAL,TAF OMAL 112300Z 1200/1306 12005KT 7000 NSC PROB30 1200/1204 3000 BR BECMG 1210/1212 33010KT BECMG 1218/1220 06005KT BECMG 1302/1304 16010KT
OMDB,TAF OMDB 112300Z 1200/1306 10005KT 6000 NSC PROB30 1200/1204 1500 BR BKN005 BECMG 1208/1210 34012KT BECMG 1216/1218 09005KT PROB40 1222/1305 4000 HZ PROB30 1300/1304 3000 BR BKN005
OMDW,TAF OMDW 112300Z 1200/1306 10005KT 6000 NSC PROB30 1200/1205 0100 FG VV/// BECMG 1208/1210 34014KT BECMG 1216/1218 09005KT PROB40 1220/1305 4000 HZ PROB30 1222/1304 1500 BR BKN005
OMFJ,TAF OMFJ 112300Z 1200/1306 29005KT 8000 NSC PROB30 1200/1204 5000 HZ BECMG 1206/1208 09008KT BECMG 1214/1216 VRB03KT BECMG 1221/1223 29006KT
OMRK,TAF OMRK 112300Z 1200/1306 VRB02KT 6000 NSC PROB30 1200/1205 0100 FG VV/// BECMG 1207/1209 34010KT BECMG 1215/1217 VRB02KT PROB40 1221/1305 4000 HZ PROB30 1223/1304 1500 BR BKN005
OMSJ,TAF OMSJ 112300Z 1200/1306 11005KT 4000 HZ NSC PROB30 1200/1204 0100 FG VV/// BECMG 1205/1207 8000 NSW BECMG 1208/1210 34013KT BECMG 1216/1218 09005KT PROB40 1221/1305 4000 HZ PROB30 1300/1304 1500 BR BKN005
OODQ,TAF OODQ 111700Z 1118/1218 21012KT 8000 NSC PROB30 TEMPO 1118/1203 4000 BR SCT020 BECMG 1207/1209 12012KT BECMG 1215/1217 20012KT
OOMS,TAF OOMS 112300Z 1200/1306 25005KT 8000 NSC BECMG 1206/1208 01012KT BECMG 1218/1220 25003KT
OOSA,TAF OOSA 112340Z 1200/1306 VRB03KT 9999 SCT025 BECMG 1207/1209 19010KT BECMG 1215/1217 VRB03KT
OOSH,TAF OOSH 112300Z 1200/1306 VRB02KT 8000 NSC BECMG 1206/1208 04012KT BECMG 1215/1217 VRB02KT
OPBW,TAF OPBW 112145Z 1200/1218 18010KT 4000 FU FEW100 TN21/1201Z TX34/1210Z PROB30 TEMPO 1200/1204 00000KT 2000 BR NSC
OPDG,TAF OPDG 112145Z 1200/1218 13010KT 4000 FU FEW100 TN20/1201Z TX35/1210Z
OPFA,TAF OPFA 112145Z 1200/1218 18004KT 5000 FU NSC TX32/1210Z TN191201Z TEMPO 1200/1206 18002KT 1500 BR SCT100
OPGD,TAF OPGD 112130Z 1200/1224 31008KT 5000 NSC TEMPO 1212/1216 26008KT 3000 FU NSC FM121800 24005KT 4000 FU NSC
OPIS,TAF OPIS 112145Z 1200/1306 23010KT 5000 HZ FEW040 SCT100 BECMG 1200/1202 09010KT 2000 BR SCT040 BKN100 TEMPO 1204/1210 31010G20KT 6000 BECMG 1218/1220 09010KT 3000 FU TEMPO 1300/1304 12008KT 2000 BR
OPKC,TAF OPKC 112130Z 1200/1306 33012KT 6000 NSC TEMPO 1212/1216 27006KT 4000 HZ NSC TEMPO 1223/1303 29008KT 4000 HZ NSC
OPLA,TAF OPLA 112145Z 1200/1306 VRB02KT 3000 FU NSC TX30/1210Z TN17/1201Z TEMPO 1201/1204 1500 BR BECMG 1206/1208 32005KT 5000 FU SCT040 BECMG 1215/1218 34004KT 4000 FU NSC TEMPO 1300/1304 VRBO2KT 1500 BR NSC
OPMT,TAF OPMT 112145Z 1200/1218 13010KT 4000 FU FEW100 TN23/1201Z TX34/1210Z PROB30 TEMPO 1201/1204 00000KT 2500 FU NSC 
OPNH,TAF OPNH 112130Z 1200/1306 20010KT 5000 HZ NSC TEMPO 1212/1216 20003KT 3000 FU NSC TEMPO 1223/1303 23005KT 3000 FU NSC
OPPS,TAF OPPS 112130Z 1200/1306 23006KT 4000 FU FEW100 BECMG 1203/1206 18006K 5000 HZ FEW080 PROB30 TEMPO 1209/1214 23010G25KT -TSRA FEW035CB SCT100 BECMG 1215/1219 31006KT 4000 FU FEW080 BECMG 1303/1306 5000 HZ FEW100
OPRK,TAF OPRK 112145Z 1200/1218 23010KT 4000 FU FEW100 TN21/1201Z TX35/1210Z
OPSK,TAF OPSK 112130Z 1200/1224 04008KT 5000 HZ NSC TEMPO 1212/1216 28008KT 3000 FU NSC FM121800 29008KT 4000 FU NSC
OPST,TAF OPST 112145Z 1200/1306 23006KT 4000 FU SCT100 TX32/1210Z TN20/1201Z TEMPO 1200/1205 00000KT 1500 BR
ORBI,TAF ORBI 112200Z 1200/1224 35006KT CAVOK
ORER,TAF ORER 112300Z 1200/1224 04004KT 7000 NSC BECMG 1207/1209 24010KT
ORMM,TAF ORMM 112200Z 1200/1224 30010KT CAVOK 
ORNI,TAF ORNI 112200Z 1200/1224 34008KT 7000 NSC
ORSU,TAF ORSU 112300Z 1200/1224 30006KT CAVOK
OSAP,OSAP 112200Z 1200/1224 31008KT CAVOK BECMG 1206/1208 29008KT 9999 FEW030
OSDI,OSDI 112200Z 1200/1306 22010KT CAVOK
OSLK,OSLK 112200Z 1200/1224 05005KT CAVOK TEMPO 1206/1218 32012KT
OTBD,TAF OTBD 112306Z 1200/1306 28005KT 8000 NSC PROB30 TEMPO 1200/1204 5000 HZ BECMG 1208/1210 05010KT BECMG 1217/1219 34006KT
OTBH,TAF OTBH 111735Z 1117/1222 VRB06KT 9999 SKC QNH2979INS BECMG 1117/1118 VRB06KT 8000 HZ SKC QNH2982INS BECMG 1204/1205 30009KT 9999 NSW SKC QNH2978INS BECMG 1212/1213 32012KT 9999 SKC QNH2982INS TX39/1211Z TN25/1201Z
OTHH,TAF OTHH 111700Z 1118/1224 29006KT 8000 NSC TEMPO 1118/1123 35005KT TEMPO 1118/1200 VRB03KT PROB30 TEMPO 1202/1206 4900 HZ BECMG 1205/1207 06008KT BECMG 1213/1215 36007KT
PAAQ,PAAQ 112341Z 1200/1224 VRB04KT P6SM SCT050 FM122200 05005KT 6SM -SN OVC050
PABE,PABE 112320Z 1200/1224 19008KT P6SM FEW015 BKN035 FM120900 18011KT 6SM BR VCSH OVC015 FM121200 18008KT 6SM BR SCT003 OVC007
PABI,TAF PABI 112200Z 1122/1304 VRB05KT 9999 SCT045 OVC055 620553 QNH3005INS BECMG 1202/1203 VRB05KT 8000 -SN BKN030 620305 QNH3005INS BECMG 1211/1212 VRB05KT 9999 NSW SCT040 QNH3007INS TXM01/1200Z TNM09/1216Z
PABR,PABR 112320Z 1200/1224 23020G28KT P6SM VCSH BKN013 OVC025 TEMPO 1200/1203 23030G35KT 1SM -SHSN BR BLSN OVC006 FM121200 24020G35KT 1 1/2SM -SN BR BLSN BKN009 OVC015
PABT,PABT 112320Z 1200/1224 19004KT P6SM VCSH FEW012 FEW050 OVC080 FM120600 VRB03KT P6SM -SHSN BKN025 OVC040 FM121400 VRB03KT P6SM SCT025 OVC050
PACD,PACD 112320Z 1200/1224 VRB06KT P6SM FEW050 SCT250
PACV,PACV 112341Z 1200/1224 VRB05KT P6SM -SHRA FEW015 BKN035 FM121200 05005KT 6SM -RA BR OVC025
PADL,PADL 112320Z 1200/1224 VRB06KT P6SM FEW250
PADQ,PADQ 112341Z 1200/1224 34008KT P6SM SKC FM121100 34010KT 6SM -RASN BKN020 OVC040 FM121800 35018G25KT 5SM -RASN BKN010 OVC020 FM122300 33020G27KT P6SM BKN035
PADU,PADU 112320Z 1200/1224 23011KT P6SM BKN040
PAED,TAF PAED 111800Z 1118/1224 03009KT 9999 SCT050 SCT210 QNH3002INS BECMG 1121/1122 03009KT 9999 FEW030 BKN050 BKN210 QNH3006INS BECMG 1206/1207 VRB06KT 9999 FEW060 SCT210 QNH3007INS BECMG 1212/1213 02008KT 9999 VCFG BKN002 BKN160 QNH2981INS BECMG 1220/1221 36010KT 9999 NSW FEW004 BKN060 BKN100 QNH2969INS BECMG 1222/1223 35010G15KT 9999 VCSH FEW025 BKN050 OVC090 620507 QNH2964INS TX04/1200Z TNM03/1213Z
PAEI,TAF PAEI 112200Z 1122/1304 22009KT 9999 -SN FEW018 BKN050 620505 QNH3007INS TEMPO 1122/1124 4800 -SN BKN015 620188 BECMG 1206/1207 VRB06KT 9999 -SN BKN015 620156 QNH3013INS TEMPO 1207/1215 8000 -SN BKN010 620107 BECMG 1217/1218 VRB06KT 9999 -SN BKN015 620156 QNH2990INS TX00/1123Z TNM04/1213Z
PAEN,PAEN 112341Z 1200/1224 05004KT P6SM BKN070 FM121300 01013KT P6SM OVC050
PAFA,PAFA 112320Z 1200/1306 23007KT P6SM VCSH SCT015 BKN025 OVC045 FM120300 VRB04KT P6SM FEW025 BKN050
PAFB,TAF PAFB 112200Z 1122/1304 22006KT 9999 VCSH FEW015 SCT030 BKN045 620454 QNH3007INS BECMG 1203/1204 25006KT 9000 -SHSN BKN015 OVC060 620156 QNH3008INS TEMPO 1204/1207 6000 -SN BECMG 1213/1214 25006KT 6000 -SHSN BKN010 OVC020 620106 QNH3007INS BECMG 1221/1222 28006KT 9999 NSW SCT020 BKN030 620303 QNH2985INS TX00/1201Z TNM03/1214Z
PAGA,PAGA 112320Z 1200/1224 VRB04KT P6SM BKN060 FM120400 VRB04KT P6SM BKN040 OVC080 FM121000 11006KT P6SM VCSH BKN035 OVC080 AMD LTD TO CLD VIS WX
PAGK,PAGK 112341Z 1200/1224 31004KT 6SM -SHSN BR BKN010 OVC020 FM121200 VRB03KT P6SM OVC020 FM122100 33005KT 3SM -SN OVC008
PAGY,PAGY 112324Z 1200/1224 21016G25KT P6SM VCSH BKN050 OVC090 FM120700 21012KT P6SM -RA BKN035 OVC060 FM121700 21015G28KT 4SM -RA BR SCT010 BKN015 OVC030 AMD LTD TO CLD VIS AND WIND
PAHN,PAHN 112324Z 1200/1224 11010G17KT P6SM VCSH BKN050 BKN090 FM120700 08012KT P6SM -RA BKN035 OVC060 FM121700 15012G21KT 4SM -RA BR SCT010 BKN015 OVC030 AMD LTD TO CLD VIS AND WIND
PAHO,PAHO 112341Z 1200/1224 30005KT P6SM BKN050 FM121200 05005KT 6SM -SN OVC040 FM122300 34010KT P6SM BKN060
PAIL,PAIL 112320Z 1200/1224 31009KT P6SM SCT050 FM121200 VRB06KT P6SM VCFG SCT003
PAJN,PAJN 112324Z 1200/1224 09010KT P6SM VCSH FEW006 BKN035 OVC050 FM121200 11015KT 6SM -RA SCT015 OVC030 FM121700 11017G22KT 4SM -RA BR SCT010 OVC025
PAKN,PAKN 112320Z 1200/1224 VRB06KT P6SM FEW050 SCT250 FM120900 VRB06KT P6SM VCFG SCT003
PAKT,PAKT 112324Z 1200/1224 12009KT P6SM SCT015 BKN025 TEMPO 1200/1204 BKN015 OVC030 FM121600 16009KT P6SM SCT015 OVC035 AMD LTD TO CLD VIS AND WIND 1206/1215
PAKW,PAKW 112324Z 1200/1224 21005KT 6SM -RA BR BKN011 OVC020 TEMPO 1200/1204 3SM -RA BR BKN008 OVC015 FM120400 05004KT P6SM VCSH BKN015 OVC030 FM121500 06006KT P6SM -RA SCT015 OVC030
PAMC,PAMC 112320Z 1200/1224 23005KT P6SM VCSH BKN040 OVC050 FM120600 VRB03KT P6SM SCT050 BKN100
PANC,PANC 112341Z 1200/1306 35004KT P6SM FEW070 BKN200 FM121500 36008KT P6SM SCT050 BKN120 FM121800 34006KT 6SM -SN BKN040 OVC050 FM130500 33005KT P6SM BKN060
PAOM,PAOM 112320Z 1200/1224 04004KT P6SM VCSH FEW005 BKN050 OVC060 FM120900 VRB04KT P6SM BKN050 BKN100
PAOR,PAOR 112320Z 1200/1224 31008KT P6SM -SN SCT017 BKN040 OVC060 FM120200 30010KT P6SM -SHSN SCT025 OVC050 FM120800 31004KT P6SM VCSH BKN035 OVC060
PAOT,PAOT 112320Z 1200/1224 23015KT P6SM VCSH FEW030 FM120300 25010KT P6SM VCSH SCT025 BKN060 FM121200 25006KT P6SM BKN050 BKN100
PAPG,PAPG 112324Z 1200/1224 VRB04KT P6SM VCSH SCT025 OVC035 FM120600 VRB03KT P6SM VCFG SCT005 BKN025 FM121600 VRB03KT P6SM VCSH SCT006 BKN025 FM122000 08009KT P6SM -RA SCT015 BKN025 AMD LTD TO CLD VIS AND WIND 1206/1215
PAQT,PAQT 112320Z 1200/1224 22012KT P6SM FEW040 SCT050 OVC100 FM120500 23020KT P6SM VCSH BKN040 OVC100 FM121000 21018G25KT P6SM VCSH BKN035 OVC080
PASC,PASC 112320Z 1200/1224 23016KT P6SM BKN070 FM121200 23020G28KT P6SM VCSH BKN035 OVC080
PASD,PASD 112320Z 1200/1224 36006KT P6SM FEW025 SCT050
PASI,PASI 112324Z 1200/1224 17006KT P6SM SCT025 OVC050 FM121200 12010G16KT 5SM -RA SCT025 OVC050 FM121800 12015G23KT 3SM RA SCT005 OVC015
PASN,PASN 112320Z 1200/1224 33011KT P6SM SCT025 BKN050
PASY,TAF PASY 112200Z 1122/1304 18020KT 9999 SCT020 BKN090 QNH3030INS BECMG 1123/1124 18025G30KT 9999 BKN020 OVC050 520003 QNH3019INS BECMG 1200/1201 18025G30KT 9999 SCT010 OVC020 520003 QNH3015INS BECMG 1204/1205 15025KT 9999 OVC003 QNH2989INS BECMG 1223/1224 23020KT 9999 SCT004 OVC010 QNH2925INS BECMG 1302/1303 24020KT 9999 BKN010 OVC025 QNH2916INS TX08/1213Z TN06/1203Z
PATA,PATA 112320Z 1200/1224 VRB03KT P6SM VCSH FEW016 BKN027 OVC045 FM121200 07003KT P6SM OVC035
PATK,PATK 112341Z 1200/1224 VRB04KT P6SM BKN070
PAUN,PAUN 112320Z 1200/1224 22015KT P6SM -RA FEW005 BKN012 OVC030 FM121500 09008KT 4SM -SN BR OVC015
PAVD,PAVD 112341Z 1200/1224 VRB03KT 6SM -SHRA SCT005 BKN035 OVC050 FM120700 04010KT P6SM OVC025 FM121800 05013KT 3SM -SN BR SCT003 OVC008
PAWG,PAWG 112324Z 1200/1224 VRB04KT P6SM -RA SCT005 OVC020 FM120600 12006KT P6SM VCSH SCT004 BKN025 TEMPO 1206/1210 BKN005 OVC015 FM121600 12005KT P6SM VCSH SCT006 BKN025 FM122000 08009KT P6SM -RA SCT015 BKN035 AMD NOT SKED 1206/1215
PAYA,PAYA 112324Z 1200/1224 19006KT P6SM VCSH SCT007 BKN015 BKN030 TEMPO 1200/1203 SCT007 BKN025 OVC035 FM120300 21005KT P6SM SCT020 OVC050 FM120900 12005KT P6SM -RA SCT025 OVC050 FM121300 08010G15KT 5SM -RA BR SCT015 OVC030 FM121600 08010G15KT 3SM RA BR SCT005 OVC015 WS020/10040KT AMD LTD TO CLD VIS AND WIND
PGRO,PGRO 112342Z 1200/1224 18016KT P6SM VCSH SCT020 SCT120
PGSN,PGSN 112342Z 1200/1224 16011KT P6SM VCSH FEW020 FEW050 BKN120 TEMPO 1200/1204 18016G24KT 4SM SHRA SCT020 BKN050
PGUA,TAF PGUA 111800Z 1118/1224 22015KT 9999 VCSH SCT014 BKN045 QNH2969INS TEMPO 1118/1204 19015G22KT 8000 -SHRA BKN009 BKN012 TX27/1206Z TN23/1118Z
PGUM,PGUM 112342Z 1200/1306 19011KT P6SM VCSH FEW020 SCT050 SCT120 TEMPO 1200/1202 20011G22KT 4SM SHRA BKN020 OVC120 FM120300 20011KT P6SM SCT018 SCT050 BKN110 TEMPO 1203/1206 20011G22KT 3SM SHRA BKN018 BKN050 OVC110
PGWT,PGWT 112342Z 1200/1224 18013KT P6SM VCSH FEW020 FEW050 BKN100
PHHI,TAF PHHI 112300Z 1123/1305 34009KT 9999 SCT020 BKN030 BKN045 QNH2992INS TEMPO 1123/1205 1600 -TSRA BKN006 BKN010CB OVC035 BECMG 1211/1212 VRB06KT 9999 FEW025 SCT035 QNH2996INS BECMG 1219/1220 02009KT 9999 SCT025 BKN035 QNH3002INS TX28/1123Z TN20/1215Z
PHJH,PHJH 112341Z 1200/1224 36010KT P6SM VCSH SCT035 FM120600 02005KT P6SM FEW025
PHJR,PHJR 112341Z 1200/1224 19008KT P6SM VCSH SCT035 BKN050 FM120600 VRB05KT P6SM VCSH SCT020 BKN040 FM122000 19008KT P6SM VCSH SCT035 BKN050
PHKO,PHKO 112341Z 1200/1224 30012KT P6SM VCSH SCT035 BKN050 FM120600 VRB06KT P6SM VCSH SCT020 BKN035 FM122000 27010KT P6SM VCSH SCT035 BKN050
PHLI,PHLI 112341Z 1200/1224 06008KT P6SM VCSH SCT025 BKN035 TEMPO 1200/1204 3SM SHRA BKN020 FM120900 28006KT P6SM FEW020 SCT030
PHMK,PHMK 112341Z 1200/1224 02006KT P6SM VCSH SCT035 BKN045 TEMPO 1200/1202 5SM SHRA BKN020 FM120600 VRB04KT P6SM VCSH SCT025 BKN035
PHNG,TAF PHNG 1121/1221 VRB05KT 9999 FEW040 SCT070 QNH2990INS TEMPO 1121/1203 SCT040 BKN070 T29/1122Z T24/1215Z
PHNL,PHNL 112341Z 1200/1306 21010KT P6SM VCTS SCT025CB BKN035 TEMPO 1200/1204 5SM SHRA BKN025 FM120600 35005KT P6SM VCSH SCT025 BKN040 FM122000 20008KT P6SM VCSH SCT025 BKN045
PHNY,PHNY 112341Z 1200/1224 28008KT P6SM VCSH BKN015 FM120600 VRB03KT P6SM VCSH SCT010 FM122000 27008KT P6SM VCSH BKN015
PHOG,PHOG 112341Z 1200/1224 03013KT P6SM SCT030 FM120500 VRB05KT P6SM FEW025 SCT045 FM122000 02010KT P6SM SCT030
PHTO,PHTO 112341Z 1200/1224 07009KT P6SM VCSH SCT030 FM120600 22005KT P6SM VCSH SCT025 BKN040 FM122000 07009KT P6SM VCSH SCT030
PKMJ,PKMJ 112350Z 1200/1224 11013KT P6SM VCSH FEW014 SCT050 SCT120
PKWA,TAF COR PKWA 112346Z 1200/1224 12010KT P6SM VCSH FEW020 SCT030 TEMPO 1200/1204 4SM SHRA SCT020 BKN030
PLCH,TAF PLCH 112310Z 1200/1224 10008KT 9999 FEW020
PMDY,PMDY 112341Z 1200/1224 07011KT P6SM VCSH SCT015 BKN025 AMD NOT SKED
PTKK,PTKK 112342Z 1200/1224 VRB06KT P6SM VCSH SCT014 BKN120 TEMPO 1200/1204 03011KT 3SM SHRA BKN014 OVC090
PTPN,PTPN 112342Z 1200/1224 11009KT P6SM VCSH SCT020 BKN120 TEMPO 1200/1204 4SM SHRA BKN014 BKN045
PTRO,PTRO 112342Z 1200/1224 26013KT P6SM VCTS SCT015CB BKN120 TEMPO 1200/1203 26013G23KT 4SM TSRA BKN014CB OVC110 FM120400 26013KT P6SM VCSH SCT015 BKN120
PTSA,PTSA 112342Z 1200/1224 11008KT P6SM VCSH FEW020 BKN130
PTYA,PTYA 112342Z 1200/1224 25015KT P6SM -SHRA BKN016 BKN120 TEMPO 1200/1204 26015G25KT 4SM SHRA BKN014 OVC110 FM120500 25015KT P6SM VCSH SCT016 SCT130
PWAK,TAF AMD PWAK 112326Z 1123/1304 06018G24KT 8000 -SHRA SCT017 SCT060 BKN290 QNH2980INS TEMPO 1123/1202 08012KT TX29/1222Z TN24/1204Z FOR MIL USE ONLY
RCFN,TAF RCFN 112300Z 1200/1224 03010KT 9999 FEW012 BKN032 TEMPO 1203/1209 04012G22KT TEMPO 1218/1224 35005KT
RCKH,TAF RCKH 112300Z 1200/1306 06005KT 9999 FEW012 BECMG 1202/1204 26008KT BECMG 1210/1212 35005KT TEMPO 1218/1224 06005KT BECMG 1302/1304 26008KT
RCMQ,TAF RCMQ 112300Z 1200/1224 04008KT 9999 FEW012 BKN200 TX24/1205Z TN19/1221Z BECMG 1202/1205 01016G26KT TEMPO 1206/1211 FEW012 SCT200 BECMG 1212/1215 01012KT TEMPO 1218/1223 8000 FEW010 BKN050
RCNN,TAF RCNN 112300Z 1200/1224 36008KT 9999 FEW012 SCT100 TX30/1205Z TN21/1220Z BECMG 1204/1207 FEW012 SCT025 BKN080 BECMG 1209/1212 FEW012 SCT080 BECMG 1214/1217 04004KT FEW012 BECMG 1220/1223 7000 FEW012 BKN060
RCSS,TAF RCSS 112300Z 1200/1224 08010KT 9999 FEW012 BKN032 TEMPO 1203/1209 10013G25KT SCT010 BKN020 BKN040 TEMPO 1218/1224 09005KT SCT010 BKN020 BKN040
RCTP,TAF RCTP 112300Z 1200/1306 06015KT 9999 FEW012 BKN032 TEMPO 1203/1209 05020G30KT SCT010 BKN020 BKN040 TEMPO 1218/1224 08010KT SCT010 BKN020 BKN040
RJAA,TAF RJAA 112305Z 1200/1306 04012KT 9999 FEW020 BKN040 TEMPO 1218/1300 3000 RA BR FEW003 BKN005 TEMPO 1300/1306 4000 -RA BR FEW005 BKN008
RJAH,TAF RJAH 112305Z 1200/1306 06010KT 9999 FEW020 SCT045
RJBB,TAF RJBB 112305Z 1200/1306 04014KT 9999 FEW020 SCT050
RJCB,TAF RJCB 112308Z 1200/1306 16004KT 9999 FEW010 SCT030 BECMG 1200/1202 33010KT BECMG 1300/1303 14007KT
RJCC,TAF RJCC 112305Z 1200/1306 35013KT 9999 FEW015 SCT030 BECMG 1300/1303 16006KT
RJCH,TAF RJCH 112305Z 1200/1306 36008KT 9999 FEW030 BECMG 1202/1204 29013KT BECMG 1212/1215 15008KT
RJCK,TAF RJCK 112305Z 1200/1306 27007KT 9999 FEW030 BECMG 1300/1303 17007KT
RJCM,TAF RJCM 112306Z 1200/1306 32007KT 9999 FEW030 SCT050 BECMG 1208/1210 20005KT
RJEC,TAF RJEC 112310Z 1200/1306 30010KT 9999 FEW010 BKN040 BECMG 1208/1210 17006KT BECMG 1303/1306 32003KT
RJFF,TAF RJFF 112310Z 1200/1306 05010KT 9999 FEW030 BECMG 1212/1215 14004KT BECMG 1300/1303 04008KT
RJFK,TAF RJFK 112315Z 1200/1306 02004KT 9999 FEW030 BECMG 1200/1202 09007KT BECMG 1209/1211 03005KT BECMG 1300/1303 09008KT
RJFM,TAF RJFM 112312Z 1200/1306 04016KT 9999 FEW020 SCT035 BKN050 BECMG 1212/1215 32005KT BECMG 1221/1300 03018KT
RJFO,TAF RJFO 112308Z 1200/1306 04014KT 9999 FEW030
RJFR,TAF RJFR 112311Z 1200/1306 05010KT 9999 FEW030 BECMG 1201/1203 11006KT BECMG 1207/1209 01010KT BECMG 1300/1303 16004KT
RJFS,TAF RJFS 112310Z 1200/1306 36006KT 9999 FEW045 BECMG 1201/1203 04011KT
RJFT,TAF RJFT 112312Z 1200/1306 14004KT 9999 FEW035 BECMG 1200/1202 06011KT
RJFU,TAF RJFU 112307Z 1200/1306 08004KT 9999 FEW035 BECMG 1200/1202 03011KT BECMG 1218/1221 14005KT BECMG 1300/1303 03012KT
RJGG,TAF RJGG 112305Z 1200/1306 34010KT 9999 FEW020 SCT040
RJNK,TAF RJNK 112306Z 1200/1306 04015KT 9999 FEW030
RJNS,TAF RJNS 112313Z 1200/1306 07006KT 9999 FEW020 SCT040
RJNT,TAF RJNT 112305Z 1200/1306 36010KT 9999 FEW020 SCT030 BECMG 1210/1212 16004KT BECMG 1300/1303 33005KT
RJOA,TAF RJOA 112305Z 1200/1306 07008KT 9999 FEW025
RJOB,TAF RJOB 112306Z 1200/1306 05010KT 9999 FEW025 SCT040
RJOC,TAF RJOC 112305Z 1200/1306 19005KT 9999 FEW025 BKN050 BECMG 1200/1202 07018KT BECMG 1215/1218 17007KT BECMG 1221/1300 07014KT
RJOH,TAF RJOH 112305Z 1200/1306 20004KT 9999 FEW030 BKN060 BECMG 1200/1202 05018KT BECMG 1215/1218 18005KT BECMG 1221/1300 06016KT
RJOI,TAF AMD RJOI 1122/1221 02018KT 9999 FEW030 BKN220 622204 522109 QNH3019INS BECMG 1205/1206 12009KT 9999 FEW030 SCT050 SCT220 600000 522109 QNH3018INS FM120900 06016KT 9999 FEW030 SCT050 522006 QNH3018INS FM121700 03010KT 9999 FEW030 SCT050 500000 QNH3016INS T17/1122Z T22/1206Z AMD 2244
RJOK,TAF RJOK 112306Z 1200/1306 35010KT 9999 FEW030 BECMG 1300/1303 20006KT
RJOM,TAF RJOM 112306Z 1200/1306 03011KT 9999 FEW025 BECMG 1210/1212 06006KT BECMG 1221/1300 01007KT
RJOO,TAF RJOO 112306Z 1200/1306 36010KT 9999 FEW025 SCT045 BECMG 1300/1303 07006KT
RJOT,TAF RJOT 112307Z 1200/1306 06008KT 9999 FEW025
RJSA,TAF RJSA 112305Z 1200/1306 27013KT 9999 FEW030 SCT040 BECMG 1209/1211 21004KT BECMG 1300/1303 02008KT
RJSF,TAF RJSF 112306Z 1200/1306 34010KT 9999 FEW030
RJSI,TAF RJSI 112305Z 1200/1306 01004KT 9999 FEW030 BECMG 1200/1202 27008KT BECMG 1209/1211 01005KT BECMG 1300/1303 19004KT
RJSK,TAF RJSK 112308Z 1200/1306 12004KT 9999 FEW030 SCT040 BECMG 1200/1202 30012KT BECMG 1210/1212 12004KT
RJSN,TAF RJSN 112305Z 1200/1306 33010KT 9999 FEW030 SCT040 BECMG 1206/1208 02010KT BECMG 1215/1218 16004KT
RJSS,TAF RJSS 112312Z 1200/1306 34004KT 9999 FEW030 BECMG 1200/1202 12008KT BECMG 1209/1211 34004KT BECMG 1300/1303 04008KT
RJTT,TAF RJTT 112305Z 1200/1306 04010KT 9999 FEW020 SCT040 TEMPO 1300/1306 FEW005 BKN008
RJTY,TAF RJTY 112100Z 1121/1303 02006KT 9999 FEW040 SCT050 QNH3020INS BECMG 1200/1201 05009KT 9999 FEW030 SCT040 BKN050 QNH3023INS BECMG 1208/1209 02006KT 9999 SCT030 BKN040 OVC090 QNH3029INS BECMG 1211/1212 35006KT 9999 SCT035 BKN045 QNH3029INS TX21/1205Z TN14/1220Z
RKJB,TAF RKJB 112300Z 1200/1306 11005KT CAVOK TX20/1205Z TN10/1221Z TX22/1305Z BECMG 1201/1202 36007KT BECMG 1211/1212 11005KT BECMG 1301/1302 36007KT
RKJK,TAF AMD RKJK 112045Z 1120/1222 10006KT 6000 BR SKC QNH3025INS TEMPO 1120/1123 1600 BR BECMG 1200/1201 35009KT 9999 NSW SKC QNH3033INS TX18/1206Z TN08/1122Z
RKNY,TAF RKNY 112300Z 1200/1306 25006KT CAVOK TX18/1205Z TN11/1221Z TX19/1305Z BECMG 1201/1203 10006KT BECMG 1207/1209 25006KT BECMG 1223/1301 11005KT
RKPC,TAF RKPC 112300Z 1200/1306 07008KT 9999 SCT030 TX19/1204Z TN17/1219Z TX21/1304Z BECMG 1202/1203 06015G25KT BECMG 1208/1209 09012KT BECMG 1220/1221 07017G30KT BKN035
RKPK,TAF RKPK 112300Z 1200/1306 33006KT 9999 SCT030 TX23/1206Z TN10/1221Z BECMG 1202/1203 03006KT TEMPO 1206/1209 BKN030
RKSG,TAF RKSG 111900Z 1119/1301 VRB06KT 9999 SKC QNH3026INS TX18/1207Z TN05/1121Z
RKSI,TAF RKSI 112300Z 1200/1306 07006KT CAVOK TX18/1205Z TN13/1221Z TX20/1305Z BECMG 1205/1207 35006KT BECMG 1215/1217 09006KT BECMG 1304/1306 30007KT
RKSM,TAF RKSM 112300Z 1200/1306 24006KT 9999 SCT030 TX20/1206Z TN06/1221Z
RKSO,TAF RKSO 112100Z 1121/1303 VRB06KT 9000 BR SKC QNH3029INS BECMG 1122/1123 07006KT 9999 NSW SKC QNH3030INS TX20/1206Z TN05/1121Z
RKSS,TAF RKSS 112300Z 1200/1306 06005KT CAVOK TX21/1205Z TN09/1221Z TX23/1305Z BECMG 1206/1208 33005KT BECMG 1214/1216 08005KT
RKTN,TAF RKTN 112300Z 1200/1306 12006KT 9999 SCT030 TX22/1206Z TN07/1221Z TEMPO 1206/1209 BKN030
RKTU,TAF RKTU 112300Z 1200/1306 09006KT 0800 FG SCT040 TX21/1206Z TN06/1221Z FM120030 09006KT 1600 BR SCT040 BECMG 1201/1202 4800 BECMG 1203/1204 9999 NSW
ROAH,TAF ROAH 112305Z 1200/1306 04018KT 9999 FEW025 SCT040
RODN,TAF RODN 111600Z 1116/1222 01015KT 9999 FEW030 OVC050 QNH2996INS BECMG 1200/1201 03015G22KT 9999 SCT030 OVC050 QNH2995INS BECMG 1207/1208 03015KT 9999 OVC030 QNH2996INS TX26/1203Z TN22/1118Z
ROIG,TAF ROIG 112306Z 1200/1306 04020KT 9999 FEW015 BKN030
ROTM,TAF AMD ROTM 1122/1221 04010G15KT 9999 SCT050 SCT100 510505 QNH2995INS TEMPO 1122/1203 04014G24KT BECMG 1203/1205 04012G20KT 9999 FEW020 SCT080 510505 QNH2993INS FM120800 02010KT 9999 SCT025 BKN050 510505 QNH2988INS TEMPO 1215/1221 03014G22KT BKN030 T26/1205Z T21/1218Z AMD 2245
RPLB,TAF RPLB 112300Z 1200/1224 18007KT 9999 FEW020 BKN080 TX30/1205Z TN24/1221Z TEMPO 1200/1206 22010KT 9000 -TSRA FEW016CB SCT018 BKN080
RPLC,TAF RPLC 112300Z 1200/1306 35006KT 9999 SCT020 BKN300 TX34/1206Z TN25/1221Z TEMPO 1200/1206 09008KT 7000 -TSRA FEW015CB SCT020 BKN100
RPLI,TAF RPLI 112300Z 1200/1224 02012KT 8000 VCSH FEW018 BKN100 OVC240 TEMPO 1200/1206 36012G26KT 6000 TS SHRA FEW017CB SCT018 OVC090 TEMPO 1206/1212 36010G20KT 6000 RA SCT018 OVC080
RPLL,TAF RPLL 112300Z 1200/1306 24007KT 9999 SCT023 SCT100 BKN300 TX32/1205Z TN26/1220Z TEMPO 1200/1205 VRB05KT VCSH SCT023 BKN100 TEMPO 1206/1212 25013KT 7000 -SHRA FEW022CB SCT023 BKN090 BECMG 1212/1214 10004KT
RPMD,TAF RPMD 112300Z 1200/1224 18006KT 9999 FEW016 SCT090 BKN290 TEMPO 1200/1203 VRB05KT TEMPO 1206/1212 -SHRA FEW015CB SCT016 BKN090 BECMG 1212/1214 34004KT
RPMR,TAF RPMR 112300Z 1200/1224 20008KT 9999 FEW018 SCT250 TEMPO 1200/1206 12010KT TEMPO 1206/1212 VCSH SCT017CB BKN080 BECMG 1212/1214 29004KT
RPMZ,TAF RPMZ 112300Z 1200/1224 27006KT 9999 FEW017 SCT090 BKN300 TEMPO 1200/1206 27013KT -SHRA SCT016CB BKN090 TEMPO 1206/1212 -SHRA SCT016CB BKN090 BECMG 1212/12124 VRB02KT
RPVD,TAF RPVD 112300Z 1200/1224 24006KT 9999 FEW015 SCT220 TEMPO 1200/1205 14008KT TEMPO 1206/1212 -SHRA FEW014CB SCT015 BKN070
RPVM,TAF RPVM 112300Z 1200/1306 24007KT 9999 FEW020 BKN300 TEMPO 1200/1206 22010KT FEW020 BKN250 TEMPO 1206/1212 25008KT -SHRA FEW018CB BKN100
RPVP,TAF RPVP 112300Z 1200/1224 18006KT 9999 FEW019 SCT240 TEMPO 1206/1212 VRB06KT SCT017CB BKN080 BECMG 1212/1214 27005KT
SAAR,TAF SAAR 112300Z 1200/1224 VRB03KT CAVOK TX30/1218Z TN09/1210Z BECMG 1209/1211 34010KT
SABE,TAF SABE 112300Z 1200/1224 09010KT CAVOK TX26/1218Z TN12/1210Z BECMG 1205/1207 34010KT BECMG 1212/1214 32015KT
SACO,TAF SACO 112300Z 1200/1224 05010KT CAVOK TX26/1218Z TN07/1210Z BECMG 1202/1204 34005KT BECMG 1212/1215 18010KT
SADF,TAF SADF 112300Z 1200/1224 06010KT CAVOK TX28/1218Z TN12/1209Z BECMG 1204/1206 34005KT TEMPO 1212/1214 32015KT
SAEZ,TAF SAEZ 112300Z 1200/1224 05010KT CAVOK TX26/1218Z TN09/1210Z BECMG 1202/1204 36005KT BECMG 1212/1214 34015G25KT
SAME,TAF SAME 112300Z 1200/1224 36005KT CAVOK TX30/1220Z TN06/1211Z TEMPO 1205/1214 VRB03KT
SANR,TAF SANR 111700Z 1118/1218 25010KT CAVOK TX29/1218Z TN10/1210Z BECMG 1119/1122 07010KT BECMG 1213/1215 02010KT
SANT,TAF SANT 112300Z 1200/1224 09005KT CAVOK TX29/1218Z TN11/1210Z BECMG 1210/1213 VRB05KT 7000 NSC
SARE,TAF SARE 112300Z 1200/1224 12005KT CAVOK TX27/1218Z TN11/1210Z PROB40 1206/1212 2000 BR NSC
SARF,TAF SARF 112300Z 1200/1224 09005KT CAVOK TX27/1218Z TN11/1210Z BECMG 1202/1204 CAVOK PROB40 1208/1211 1500 BR NSC
SARI,TAF SARI 112300Z 1200/1224 05005KT 3000 BR FEW002 BKN008 TX20/1218Z TN12/1209Z PROB30 TEMPO 1201/1211 0700 FG OVC007
SARP,TAF SARP 112300Z 1200/1224 27005KT 9999 BKN015 TX25/1218Z TN12/1209Z BECMG 1201/1204 3000 BR BKN010 PROB30 1206/1212 0700 FG OVC007
SASA,TAF SASA 112300Z 1200/1224 05010KT 5000 DU NSC TX24/1218Z TN08/1210Z BECMG 1213/1216 05015KT
SASJ,TAF SASJ 112300Z 1200/1224 05005KT CAVOK TX25/1218Z TN07/1210Z BECMG 1215/1218 09010KT
SAVC,TAF SAVC 112300Z 1200/1224 29030G45KT CAVOK TX12/1218Z TN09/1210Z PROB40 TEMPO 1204/1207 27020G30KT BECMG 1208/1210 25025G40KT BECMG 1214/1216 23025G35KT 9999 BKN030 BKN090
SAWE,TAF SAWE 112300Z 1200/1224 29020G30KT CAVOK TX07/1218Z TN02/1210Z BECMG 1210/1212 25025G40KT 9999 SCT025 SCT090 BECMG 1222/1224 25020KT CAVOK
SAWG,TAF SAWG 112300Z 1200/1224 27020G30KT 9999 SCT030 SCT090 TX06/1218Z TN02/1210Z BECMG 1206/1208 27025G40KT BECMG 1212/1214 23030G42KT 9999 BKN025
SAWH,TAF SAWH 112300Z 1200/1224 32010KT 9999 SCT035 SCT090 TX04/1218Z TNM01/1210Z PROB40 TEMPO 1202/1205 30015G25KT BECMG 1206/1208 SHSNRA SCT020 BKN030 BECMG 1211/1213 23025G45KT 5000 +SHSNRA SCT015 OVC025
SAZM,TAF SAZM 112300Z 1200/1224 05010KT CAVOK TX22/1218Z TN09/1209Z PROB30 TEMPO 1204/1209 5000 BR NSC BECMG 1209/1211 29015KT 9999 SCT020 BKN100 BECMG 1214/1216 20015G25KT
SAZN,TAF SAZN 112300Z 1200/1224 26010G20KT 9999 CAVOK TX20/1218Z TN09/1210Z BECMG 1202/1204 27010KT BECMG 1212/1214 25020G35KT
SAZS,TAF SAZS 112300Z 1200/1224 29020KT 9999 SCT025 BKN030 TX09/1218Z TN02/1209Z TEMPO 1201/1206 29020KT 7000 SHRA SCT015 FEW040TCU OVC040 BECMG 1207/1209 29015G30KT 8000 DZ BKN020 BKN040 BECMG 1220/1222 29010KT 9999 BKN025 
SBAC,TAF SBAC 110800Z 1112/1124 04010KT 9999 FEW030 TX31/1116Z TN27/1121Z RMK PHI
SBAF,TAF SBAF 111500Z 1118/1206 11005KT CAVOK TX31/1118Z TN21/1206Z BECMG 1119/1121 25005KT 9999 SCT015 BECMG 1201/1203 00000KT RMK PDY
SBAN,TAF SBAN 111500Z 1118/1206 05007KT 9999 SCT045 TX31/1118Z TN18/1206Z BECMG 1119/1121 CAVOK BECMG 1201/1203 12005KT RMK PDY
SBAR,TAF SBAR 112145Z 1200/1224 15010KT 4000 BR BKN020 TN24/1208Z TX27/1215Z BECMG 1200/1202 13010KT 7000 NSW TEMPO 1212/1220 17012G22KT RMK PGW
SBAT,TAF SBAT 111500Z 1118/1206 36005KT 9999 SCT035 FEW040TCU TX35/1118Z TN23/1206Z PROB30 1119/1121 TS SCT035 FEW040CB RMK PHD
SBBE,TAF SBBE 112221Z 1200/1224 05010KT CAVOK TN24/1208Z TX32/1217Z BECMG 1207/1209 08005KT BECMG 1210/1213 07013KT SCT025 BECMG 1215/1217 36010KT BKN035 FEW040TCU PROB30 1218/1221 TS BKN020 FEW025CB BECMG 1222/1224 05010KT FEW030 RMK PGA
SBBG,TAF SBBG 112100Z 1200/1212 22008KT 9999 BKN010 TN11/1206Z TX16/1212Z BECMG 1201/1203 CAVOK BECMG 1209/1211 9999 BKN008 RMK PDY
SBBI,TAF SBBI 111500Z 1118/1206 03007KT 9999 SCT020 TX23/1118Z TN14/1206Z BECMG 1119/1121 33005KT 5000 RA SCT005 BKN040 RMK PDY
SBBR,TAF SBBR 112100Z 1200/1224 00000KT CAVOK TN21/1209Z TX32/1218Z BECMG 1207/1209 07010KT BECMG 1213/1215 SCT040 BECMG 1219/1221 15005KT FEW045 RMK PGF
SBBU,TAF SBBU 111545Z 1118/1206 06005KT 8000 FEW025 TX30/1118Z TN19/1205Z BECMG 1121/1123 09004KT BECMG 1200/1202 13006KT RMK PGM
SBBV,TAF SBBV 112221Z 1200/1224 27005KT 9999 SCT040 FEW045TCU TN22/1209Z TX32/1218Z BECMG 1205/1207 07005KT PROB30 1216/1223 36005KT SCT040 FEW045TCU RMK PGA
SBBW,TAF SBBW 111500Z 1118/1206 02007KT 9999 FEW020 TX35/1118Z TN25/1206Z PROB30 1121/1202 24005KT TSRA SCT020 FEW025CB RMK PGN
SBCB,TAF SBCB 112145Z 1200/1212 03006KT 9999 FEW020 TN21/1208Z TX27/1212Z TEMPO 1209/1212 05016G26KT RMK PGW
SBCF,TAF SBCF 112005Z 1200/1224 11007KT CAVOK TN17/1209Z TX31/1218Z BECMG 1212/1214 05010KT BECMG 1220/1222 12005KT RMK PGN
SBCG,TAF SBCG 112100Z 1200/1224 15005KT 9999 FEW040 TN20/1209Z TX26/1218Z TEMPO 1200/1205 23007KT TS SCT040 FEW050CB TEMPO 1209/1215 4000 TSRA BR BKN010 FEW040CB BECMG 1215/1217 03008KT TEMPO 1218/1223 6000 TSRA SCT010 BKN030 FEW045CB RMK PGF
SBCJ,TAF SBCJ 112221Z 1200/1212 00000KT 7000 NSC TN24/1209Z TX27/1212Z BECMG 1210/1212 05005KT FEW020 RMK PGA
SBCO,TAF SBCO 111500Z 1118/1206 07008KT 7000 SCT010 BKN045 TX20/1118Z TN14/1206Z BECMG 1119/1121 33005KT BECMG 1201/1203 9999 BKN010 RMK PDY
SBCP,TAF SBCP 112145Z 1200/1212 07006KT 9999 FEW020 TN22/1208Z TX27/1212Z TEMPO 1209/1212 05015G25KT RMK PGW
SBCR,TAF SBCR 112100Z 1200/1224 19005KT 9999 SCT025 TN19/1209Z TX28/1218Z TEMPO 1200/1206 4000 TSRA BR BKN008 FEW030CB TEMPO 1212/1220 7000 TSRA BKN015 FEW040CB RMK PGF
SBCT,TAF SBCT 112100Z 1200/1224 34008KT 7000 BKN005 TN14/1207Z TX23/1216Z BECMG 1203/1205 3000 TSRA BKN005 FEW040CB BECMG 1209/1211 9999 NSW BKN005 BECMG 1213/1214 BKN010 BECMG 1216/1217 02007KT 4000 TSRA BKN005 FEW040CB BECMG 1219/1221 09005KT 9999 NSW BKN003 RMK PDY
SBCY,TAF SBCY 112221Z 1200/1224 16005KT 9999 SCT020 FEW025TCU TN24/1209Z TX29/1218Z TEMPO 1204/1208 4500 TSRA SCT015 FEW025CB PROB30 1218/1221 TS SCT025 FEW030CB BECMG 1222/1224 10005KT FEW030 RMK PGA
SBCZ,TAF SBCZ 112221Z 1200/1224 36005KT 9999 SCT035 TN24/1206Z TX35/1219Z BECMG 1203/1205 00000KT CAVOK BECMG 1214/1216 33007KT RMK PGA
SBDN,TAF SBDN 111545Z 1118/1206 35008KT 8000 FEW025 TX29/1118Z TN20/1205Z BECMG 1121/1123 06006KT BECMG 1200/1202 10005KT FEW015 RMK PGM
SBEG,TAF SBEG 112221Z 1200/1224 07005KT 9999 FEW025 TN24/1210Z TX33/1218Z PROB30 1209/1212 TS SCT025 FEW030CB BECMG 1213/1216 36010KT SCT030 PROB30 1217/1219 TS SCT020 FEW025CB BECMG 1221/1223 36005KT FEW025 RMK PGA
SBFI,TAF SBFI 112100Z 1200/1224 18005KT 5000 RA BKN005 TN13/1209Z TX23/1217Z BECMG 1201/1203 5000 BR BKN005 BECMG 1207/1209 9999 NSW SCT010 BECMG 1213/1215 22007KT SCT030 BECMG 1219/1221 18005KT CAVOK RMK PDY
SBFL,TAF SBFL 112100Z 1200/1224 01007KT 9999 BKN020 TN16/1209Z TX23/1217Z BECMG 1207/1209 4000 RA BKN010 BECMG 1211/1213 15008KT 9999 NSW BKN015 BECMG 1215/1217 BKN035 BECMG 1219/1221 18005KT 8000 BKN012 RMK PDY
SBFN,TAF SBFN 112145Z 1200/1212 12006KT 4000 BR BKN017 TN25/1208Z TX28/1212Z BECMG 1200/1203 14010KT 7000 NSW TEMPO 1206/1211 4000 BR RMK PGW
SBFZ,TAF SBFZ 112145Z 1200/1224 09012KT 9999 SCT020 TN24/1209Z TX32/1216Z BECMG 1209/1211 13012KT TEMPO 1212/1218 09016G26KT BECMG 1218/1220 10010KT RMK PGW
SBGL,TAF SBGL 112145Z 1200/1306 17006KT 7000 SCT020 TN22/1208Z TX32/1217Z BECMG 1200/1203 22005KT BECMG 1206/1208 07005KT TEMPO 1208/1212 4000 BR BKN016 BECMG 1212/1215 11006KT BECMG 1218/1220 16006KT BECMG 1221/1223 28005KT RMK PGW
SBGO,TAF SBGO 112100Z 1200/1224 14005KT CAVOK TN21/1209Z TX34/1218Z BECMG 1211/1213 04010KT BECMG 1215/1217 SCT040 FEW045TCU BECMG 1219/1221 13005KT FEW045 RMK PGF
SBGR,TAF SBGR 112100Z 1200/1306 07005KT 8000 NSC TN17/1209Z TX28/1218Z BECMG 1205/1207 4000 BR BKN006 PROB30 1207/1210 0800 FG BKN002 BECMG 1211/1213 8000 NSW SCT025 BECMG 1214/1216 31007KT BKN030 PROB30 1217/1219 17008KT 6000 TSRA BKN030 FEW045CB BECMG 1221/1223 13005KT BECMG 1223/1301 BKN011 RMK PGF
SBGW,TAF SBGW 111500Z 1118/1206 04007KT 9999 FEW030 TX29/1118Z TN18/1206Z BECMG 1119/1121 33005KT BECMG 1203/1205 2000 BR BKN007 RMK PDY
SBIH,TAF SBIH 111500Z 1118/1206 29005KT 9999 SCT020 FEW025TCU TX36/1118Z TN25/1206Z RMK PHD
SBIL,TAF SBIL 111500Z 1118/1206 15012KT 9999 FEW025 TX28/1118Z TN23/1206Z TEMPO 1201/1205 7000 SHRA SCT020 FEW030TCU RMK PGN
SBIZ,TAF SBIZ 111500Z 1118/1206 10005KT 9999 SCT030 TX35/1118Z TN26/1206Z BECMG 1204/1206 00000KT CAVOK RMK PHD
SBJE,TAF SBJE 112145Z 1200/1212 08008KT 9999 SCT020 TN25/1208Z TX30/1212Z BECMG 1200/1203 11012KT RMK PGW
SBJP,TAF SBJP 112145Z 1200/1224 13006KT 7000 BKN020 TN23/1208Z TX30/1216Z BECMG 1200/1203 18005KT BECMG 1206/1208 21006KT TEMPO 1212/1220 13015G25KT BECMG 1220/1222 11006KT RMK PGW
SBJV,TAF SBJV 111500Z 1118/1206 11005KT 9999 BKN030 TX23/1118Z TN16/1206Z BECMG 1119/1121 15005KT BKN015 BECMG 1201/1203 09007KT 4000 TSRA BKN010 FEW030CB RMK PDY
SBKG,TAF SBKG 111450Z 1118/1206 13017KT 9999 BKN025 TX30/1118Z TN21/1206Z RMK PGU
SBKP,TAF SBKP 112100Z 1200/1224 10007KT CAVOK TN19/1209Z TX30/1218Z BECMG 1210/1212 05010KT BECMG 1217/1219 21008KT BECMG 1221/1223 14008KT RMK PGF
SBLO,TAF SBLO 112100Z 1200/1212 07005KT 9999 SCT040 TX21/1200Z TN19/1209Z PROB30 1200/1204 30005KT 7000 TSRA FEW006 BKN030 FEW040CB TEMPO 1204/1212 26005KT 6000 RA BKN002 RMK PGF
SBMA,TAF SBMA 112221Z 1200/1212 00000KT CAVOK TN24/1206Z TX29/1212Z PROB30 1203/1208 4000 FU NSC BECMG 1210/1212 36007KT FEW030 RMK PGA
SBME,TAF SBME 111450Z 1118/1206 07015KT 9999 SCT020 TX30/1118Z TN23/1206Z PROB40 1118/1120 11015G25KT BECMG 1120/1122 04013KT RMK PGU
SBMN,TAF SBMN 112100Z 1200/1212 07005KT CAVOK TN24/1206Z TX26/1212Z BECMG 1201/1203 00000KT BECMG 1209/1211 07007KT RMK PDY
SBMO,TAF SBMO 112145Z 1200/1224 15006KT 7000 BKN020 TN23/1208Z TX28/1215Z BECMG 1203/1206 13006KT TEMPO 1211/1217 12010G20KT BECMG 1218/1220 15006KT RMK PGW
SBMQ,TAF SBMQ 112221Z 1200/1224 06010KT 9999 FEW020 TN26/1207Z TX36/1218Z BECMG 1204/1206 36005KT BECMG 1211/1213 07005KT SCT020 PROB30 1217/1221 SCT020 FEW030TCU BECMG 1222/1224 04005KT FEW020 RMK PGA
SBNF,TAF SBNF 112100Z 1200/1224 15007KT 9999 FEW015 BKN045 TN17/1209Z TX24/1217Z BECMG 1201/1202 33005KT BKN010 BECMG 1204/1205 25007KT 7000 TSRA BKN012 FEW025CB BECMG 1209/1211 03007KT 9999 NSW SCT025 BECMG 1213/1214 09007KT BKN040 BECMG 1216/1217 7000 BKN020 BECMG 1219/1221 15007KT 9999 BKN010 RMK PDY
SBNT,TAF SBNT 112145Z 1200/1212 14006KT 8000 SCT020 TN23/1208Z TX28/1212Z BECMG 1200/1203 16006KT BECMG 1206/1208 18006KT RMK PGW
SBOI,TAF SBOI 112221Z 1200/1212 07007KT 9999 SCT040 TN24/1209Z TX29/1212Z PROB30 1207/1211 4000 BR FEW010 SCT020 RMK PGA
SBPA,TAF SBPA 112100Z 1200/1224 32007KT 7000 BKN008 TN15/1208Z TX22/1217Z BECMG 1201/1203 9999 BKN008 BECMG 1209/1211 27005KT BKN025 BECMG 1215/1217 21008KT BECMG 1219/1221 15007KT FEW040 RMK PDY
SBPB,TAF SBPB 112145Z 1200/1212 05006KT 9999 SCT025 TN26/1208Z TX32/1212Z BECMG 1210/1212 13013KT RMK PGW
SBPJ,TAF SBPJ 112145Z 1200/1224 02005KT 7000 NSC TN24/1208Z TX35/1217Z BECMG 1200/1202 14005KT BECMG 1206/1208 11005KT BECMG 1212/1214 23006KT BECMG 1221/1223 33005KT RMK PGW
SBPK,TAF SBPK 111500Z 1118/1218 10010KT 5000 RA BKN005 TN14/1209Z TX23/1217Z BECMG 1119/1121 9999 NSW BKN010 BECMG 1213/1215 SCT040 RMK PDY
SBPL,TAF SBPL 112145Z 1200/1224 16010KT 9999 SCT025 TN23/1208Z TX34/1218Z RMK PGW
SBPP,TAF SBPP 112100Z 1200/1224 00000KT 8000 RA BKN015 TN16/1209Z TX21/1218Z TEMPO 1200/1206 3000 TSRA BR BKN002 FEW030CB TEMPO 1206/1213 4000 RA BR BKN010 BECMG 1213/1215 23004KT TEMPO 1215/1223 2000 TSRA BR BKN004 FEW030CB RMK PGF
SBPS,TAF SBPS 112145Z 1200/1224 11005KT 7000 BKN017 TN22/1208Z TX28/1216Z BECMG 1206/1208 09006KT TEMPO 1212/1220 11010G20KT RMK PGW
SBPV,TAF SBPV 112221Z 1200/1224 33005KT 7000 SCT040 TN24/1208Z TX30/1217Z PROB30 1205/1211 3000 BR SCT010 BKN030 BECMG 1211/1213 09005KT BKN010 FEW035TCU TEMPO 1215/1221 02005KT TSRA BKN035 FEW045CB BECMG 1222/1224 34005KT FEW040 FEW045TCU RMK PGA
SBRB,TAF SBRB 112221Z 1200/1212 30005KT 9999 FEW025 TN22/1209Z TX26/1212Z RMK PGA
SBRF,TAF SBRF 112145Z 1200/1224 16006KT 7000 BKN017 TN25/1208Z TX29/1216Z BECMG 1200/1203 14006KT TEMPO 1212/1220 16015G25KT BECMG 1220/1222 13006KT RMK PGW
SBRJ,TAF SBRJ 112145Z 1200/1212 14005KT 7000 SCT020 TN22/1209Z TX27/1212Z BECMG 1204/1206 04005KT TEMPO 1206/1212 4000 BR BKN016 RMK PGW
SBRP,TAF SBRP 112100Z 1200/1212 11004KT CAVOK TN20/1209Z TX25/1211Z RMK PGF
SBSC,TAF SBSC 111500Z 1118/1206 33008KT CAVOK TX33/1118Z TN21/1206Z BECMG 1119/1121 15005KT 9999 SCT010 BECMG 1201/1203 36005KT SCT010 BKN015 RMK PDY
SBSG,TAF SBSG 112145Z 1200/1224 17006KT 9999 SCT020 TN22/1208Z TX30/1217Z BECMG 1200/1203 23006KT TEMPO 1212/1220 18015G25KT BECMG 1220/1222 18006KT RMK PGW
SBSJ,TAF SBSJ 112100Z 1200/1212 06004KT CAVOK TN18/1209Z TX23/1211Z RMK PGF
SBSL,TAF SBSL 112145Z 1200/1224 05010KT 9999 SCT020 TN26/1208Z TX33/1216Z BECMG 1212/1214 07012KT TEMPO 1218/1224 04015G25KT RMK PGW
SBSM,TAF SBSM 111500Z 1118/1206 27005KT 7000 BKN010 TX18/1118Z TN12/1206Z BECMG 1119/1121 7000 SCT007 BKN035 BECMG 1201/1203 9999 BKN006 RMK PDY
SBSN,TAF SBSN 112221Z 1200/1224 12007KT 9999 FEW020 TN24/1209Z TX33/1218Z BECMG 1208/1210 SCT015 FEW020TCU PROB30 1211/1213 TS FEW015 FEW020CB BECMG 1213/1215 FEW020 RMK PGA
SBSP,TAF SBSP 112100Z 1200/1212 07005KT 8000 NSC TN18/1209Z TX23/1211Z PROB30 1209/1212 33005KT RMK PGF
SBSV,TAF SBSV 112005Z 1200/1224 15012KT 9999 SCT020 TN24/1208Z TX27/1216Z BECMG 1206/1208 SCT020 FEW025TCU TEMPO 1209/1213 VCSH SCT020 FEW023TCU BECMG 1214/1216 SCT020 RMK PGN
SBTD,TAF SBTD 112100Z 1200/1212 21005KT 4000 RA BR BKN006 TN16/1209Z TX18/1211Z TEMPO 1200/1205 2000 TSRA BR BKN004 FEW030CB RMK PGF
SBTE,TAF SBTE 112145Z 1200/1212 06005KT 9999 FEW020 TN25/1208Z TX30/1212Z BECMG 1202/1204 36005KT BECMG 1206/1208 06005KT RMK PGW
SBTF,TAF SBTF 112221Z 1200/1212 30005KT 9999 SCT020 FEW025TCU TN24/1209Z TX26/1212Z RMK PGA
SBTT,TAF SBTT 112221Z 1200/1224 36005KT 8000 SCT025 TX33/1218Z TN27/1223Z BECMG 1211/1213 31005KT SCT017 PROB30 1218/1221 TS SCT025 FEW030CB RMK PGA
SBUG,TAF SBUG 111500Z 1118/1206 22005KT 9999 SCT020 TX20/1118Z TN11/1206Z BECMG 1119/1121 CAVOK BECMG 1201/1203 09007KT RMK PDY
SBUL,TAF SBUL 111500Z 1118/1206 03015KT 9999 FEW035 TX31/1118Z TN21/1206Z PROB30 1119/1124 18012KT TS BKN030 FEW040CB BECMG 1200/1202 15007KT CAVOK RMK PGN
SBUR,TAF SBUR 111500Z 1118/1206 02015KT 7000 FEW035 TX32/1118Z TN21/1206Z PROB30 1119/1124 15012KT TS BKN030 FEW040CB BECMG 1200/1202 02007KT CAVOK RMK PGN
SBVH,TAF SBVH 111500Z 1118/1206 33005KT 9999 SCT030 FEW035TCU TX30/1118Z TN25/1123Z PROB30 1118/1120 TS SCT030 FEW035CB RMK PHD
SBVT,TAF SBVT 112145Z 1200/1224 36006KT 9999 SCT020 TN22/1209Z TX29/1216Z BECMG 1209/1211 03006KT TEMPO 1212/1224 05015G25KT RMK PGW
SBYS,TAF SBYS 111500Z 1118/1206 03005KT CAVOK TX29/1118Z TN18/1206Z BECMG 1119/1121 19005KT BECMG 1201/1203 00000KT RMK PDY
SCAR,TAF SCAR 112220Z 1200/1224 21004KT 9999 OVC025 TN15/1210Z TX18/1218Z BECMG 1216/1218 23012KT CAVOK BECMG 1223/1224 19004KT OVC025
SCAT,TAF SCAT 112220Z 1200/1224 24008KT 9999 OVC015 TN09/1210Z TX17/1218Z BECMG 1206/1208 02004KT 8000 OVC007 BECMG 1214/1216 30010KT 9999 BKN018 BECMG 1222/1224 OVC012
SCBA,TAF SCBA 112210Z 1200/1224 29035G45KT 9999 SCT050 TN02/1210Z TX09/1219Z TEMPO 1205/1210 29015KT 7000 -SHRASN SCT010 BKN020 OVC040 BECMG 1210/1212 29020G35KT FEW040
SCCF,TAF SCCF 112220Z 1200/1224 28012KT CAVOK TNM01/1210Z TX23/1218Z BECMG 1204/1206 11015KT BECMG 1215/1217 27020KT TEMPO 1217/1221 28022G32KT BECMG 1223/1224 28012KT
SCCI,TAF SCCI 112211Z 1200/1300 28027G37KT 8000 BKN030 TN00/1211Z TX04/1218Z TEMPO 1200/1203 28020KT TEMPO 1203/1210 3000 SHRA SHRASN SCT015 BKN020 TEMPO 1207/1213 26039KT BECMG 1214/1216 24028G39KT BECMG 1222/1300 24020G30KT 9999 NSW SCT040
SCCY,TAF SCCY 111019Z 1112/1200 03006KT 7000 -RA SCT020 BKN035 TN08/1112Z TX11/1118Z BECMG 1118/1120 26010G22KT 9999 NSW SCT040
SCDA,TAF SCDA 112220Z 1200/1224 22014KT CAVOK TN13/1210Z TX17/1218Z BECMG 1201/1203 OVC025 BECMG 1204/1206 17004KT BECMG 1215/1217 21014KT BKN030 BECMG 1222/1224 OVC025
SCEL,TAF SCEL 112200Z 1200/1224 21010KT CAVOK TX24/1218Z TN07/1210Z BECMG 1201/1203 15005KT TEMPO 1206/1210 VRB02KT 7000 NSC BECMG 1214/1216 17006KT BECMG 1218/1220 22015KT
SCFA,TAF SCFA 112220Z 1200/1224 20014KT 9999 OVC017 TN13/1210Z TX15/1216Z BECMG 1203/1205 19004KT BECMG 1215/1217 22012KT SCT020 BECMG 1220/1222 OVC020
SCIE,TAF SCIE 112200Z 1200/1224 23013KT 9999 FEW035 TX15/1219Z TN09/1210Z BECMG 1202/1204 21006KT SCT012 BKN025 TEMPO 1206/1212 5000 BR BKN005 BKN010 BECMG 1214/1216 SCT010 BKN020 BECMG 1216/1218 24015KT BKN025 TEMPO 1219/1223 23015G25KT FEW030
SCIP,TAF SCIP 112139Z 1200/1300 07012KT 9999 SCT025 TX23/1220Z TN17/1209Z TEMPO 1206/1216 VRB04KT 4000 SHRA SCT012 BKN025
SCJO,TAF SCJO 111014Z 1112/1200 01007KT 9999 SCT030 BKN060 TN06/1112Z TX11/1118Z TEMPO 1114/1118 7000 -RA OVC030
SCNT,TAF SCNT 111020Z 1112/1200 13008KT 9999 SHRA SCT020 BKN045 TN07/1112Z TX09/1118Z BECMG 1112/1114 29018G34KT TEMPO 1114/1118 SCT025 BKN060
SCQP,TAF SCQP 112208Z 1200/1224 33004KT 4000 DZ FEW004 BKN010 OVC020 TN08/1210Z TX12/1219Z BECMG 1206/1208 27010KT 9999 NSW TEMPO 1210/1219 25010G25KT 7000 -SHRA SCT020 BKN050 BECMG 1220/1222 FEW040
SCSE,TAF SCSE 112200Z 1200/1224 29012KT CAVOK TX18/1219Z TN08/1210Z BECMG 1200/1202 11004KT TEMPO 1206/1212 SCT010 BKN015 BECMG 1214/1216 29012KT
SCTE,TAF SCTE 112206Z 1200/1224 27008KT 6000 -SHRA FEW004 BKN014 OVC025 TN07/1210Z TX10/1219Z BECMG 1201/1203 9999 NSW SCT016 BKN040 TEMPO 1210/1214 27010G30KT 7000 -SHRA BKN020 BECMG 1215/1217 25015G30KT FEW040 BECMG 1221/1223 19004KT
SCVM,TAF SCVM 112200Z 1200/1224 20012KT 9999 SCT030 TX19/1219Z TN08/1210Z BECMG 1201/1203 15004KT CAVOK TEMPO 1207/1212 BKN012 BECMG 1214/1216 21010KT BECMG 1218/1220 22016KT
SEGU,SEGU 112215Z 1200/1224 22010KT 9999 FEW023 SCT100 BECMG 1204/1206 FEW010 BKN026 BKN100 BECMG 1213/1215 16006KT FEW023 SCT100 TX31/1220Z TN21/1210Z
SELT,SELT 112215Z 1200/1224 17006KT 9999 SCT033 BECMG 1204/1206 VRB03KT FEW010 BKN030 BECMG 1212/1214 18006KT SCT033 BECMG 1216/1218 17016KT BKN030 TX17/1219Z TN06/1211Z
SEMT,SEMT 112215Z 1200/1224 21007KT 9999 OVC020 BECMG 1214/1216 27010KT SCT023 TX26/1220Z TN21/1210Z
SEQM,SEQM 112215Z 1200/1224 03005KT 9999 SCT030 BECMG 1204/1206 VRB03KT FEW010 SCT023 BECMG 1211/1213 FEW033 SCT100 BECMG 1216/1218 36010KT BKN033 SCT100 TX24/1219Z TN09/1211Z
SGAS,TAF SGAS 112105Z 1200/1300 20004KT 8000 BKN020 TX25/1219Z TN12/1210Z TEMPO 1206/1212 5000 BR SCT015 BECMG 1213/1215 9999 SCT033
SGCO,TAF SGCO 112105Z 1200/1300 15006KT 9999 SCT030 TX23/1219Z TN15/1210Z BECMG 1208/1210 8000 BKN027 TEMPO 1212/1218 8000 -TSRA BKN015 FEW040CB
SGEN,TAF SGEN 112105Z 1200/1300 20005KT 8000 BKN020 TX24/1219Z TN11/1210Z TEMPO 1206/1212 2000 BR BKN015 BECMG 1214/1216 CAVOK
SGES,TAF SGES 112105Z 1200/1300 23005KT 7000 BKN020 TX24/1219Z TN15/1210Z TEMPO 1206/1212 2000 BR BKN015 BECMG 1213/1215 9999 SCT030
SKAR,TAF SKAR 112230Z 1200/1224 00000KT 9999 SCT020 SCT090 TEMPO 1211/1214 6000 VCFG SCT012 BECMG 1215/1217 22007KT PROB40 1220/1222 RADZ SCT012TCU BKN080 TX28/1219Z TN17/1211Z
SKBG,TAF SKBG 112230Z 1200/1224 VRB02KT 9999 SCT010 BKN070 TEMPO 1200/1204 4000 TSRA BKN010CB PROB40 TEMPO 1210/1212 2000 BCFG BKN006 BECMG 1216/1218 32008KT SCT015 TX26/1218Z TN18/1210Z
SKBO,TAF SKBO 112230Z 1200/1224 VRB02KT 9999 FEW015 BKN070 TEMPO 1200/1203 DZRA SCT015 BECMG 1214/1216 16010KT BKN020 PROB40 TEMPO 1219/1224 5000 RADZ BKN017 TX20/1218Z TN08/1210Z
SKBQ,TAF SKBQ 112230Z 1200/1224 03004KT 9999 FEW015 TEMPO 1211/1213 3000 BR BKN010 PROB30 TEMPO 1218/1221 TSRA SCT015CB TX32/1217Z TN24/1210Z
SKCC,TAF SKCC 112230Z 1200/1224 VRB02KT 9999 SCT018 SCT090 BECMG 1213/1215 15020KT SCT023 PROB40 TEMPO 1220/1224 4000 TSRA SCT015CB BKN080 TX32/1218Z TN23/1210Z
SKCG,TAF SKCG 112230Z 1200/1224 VRB02KT 9999 SCT016 TEMPO 1200/1203 TS SCT015CB BECMG 1214/1216 21010KT SCT018 PROB40 TEMPO 1218/1222 5000 TSRA SCT017CB TX31/1218Z TN26/1210Z
SKCL,TAF SKCL 112230Z 1200/1224 31007KT 9999 SCT025 SCT090 BECMG 1204/1206 03006KT BECMG 1216/1218 30010KT TEMPO 1221/1224 6000 TSRA SCT017CB BKN080 TX31/1218Z TN19/1211Z
SKLT,TAF SKLT 112230Z 1200/1224 VRB02KT 9999 FEW015 TEMPO 1200/1203 DZ SCT015 PROB40 TEMPO 1220/1224 5000 TSRA SCT012CB TX32/1219Z TN22/1210Z
SKPE,TAF SKPE 112230Z 1200/1224 10006KT 9999 FEW020 SCT090 PROB40 TEMPO 1209/1213 4000 BR SCT010 BECMG 1214/1216 32007KT SCT017 TEMPO 1220/1222 RA SCT015TCU BKN080 TX28/1218Z TN19/1211Z
SKRG,TAF SKRG 112230Z 1200/1224 VRB02KT 9999 SCT015 TEMPO 1203/1207 BKN010 TEMPO 1208/1212 4000 BCFG BKN006 BECMG 1213/1215 11010KT TEMPO 1219/1223 DZ SCT017CB TX22/1220Z TN13/1211Z
SKSM,TAF SKSM 112230Z 1200/1224 18004KT 9999 FEW020 PROB40 TEMPO 1200/1203 RA SCT020CB TEMPO 1219/1222 TSRA SCT020CB TX34/1219Z TN24/1210Z
SKSP,TAF SKSP 112230Z 1200/1224 06008KT 9999 SCT017 SCT080 PROB40 TEMPO 1208/1212 5000 TSRA SCT015CB TX31/1218Z TN22/1209Z
SLAL,TAF SLAL 112200Z 1200/1224 01012KT 9999 FEW020 TX23/1219Z TN06/1211Z BECMG 1203/1205 00000KT TEMPO 1210/1212 34008KT BECMG 1216/1218 01015KT FEW023 TEMPO 1222/1224 FEW017 SCT070
SLCB,TAF SLCB 112200Z 1200/1224 12010KT 9999 NSC TX30/1219Z TN07/1211Z BECMG 1202/1204 00000KT BECMG 1215/1217 28012KT FEW036 TEMPO 1218/1221 30012G25KT
SLCO,TAF COR SLCO 101000Z 1112/1212 33006KT 9999 SCT017 FEW020CB SCT070 TX36/1119Z TN23/1210Z TEMPO 1114/1117 7000 SHRA BKN080 BECMG 1122/ 1201 00000KT
SLET,TAF SLET 112200Z 1200/1224 13005KT 9999 SCT025 BKN070 TX25/1220Z TN16/1210Z TEMPO 1204/1207 17012KT 8000 SHRA BKN025 FEW027TCU BKN080 BECMG 1215/1218 VRB02KT FEW025 BKN070
SLLP,TAF SLLP 112200Z 1200/1224 27012KT 9999 FEW017 TX17/1219Z TNM04/1210Z BECMG 1204/1205 01005KT BECMG 1211/1213 28010KT TEMPO 1218/1222 26010G20KT
SLTJ,TAF SLTJ 112200Z 1200/1224 00000KT 9999 NSC TX27/1219Z TN04/1211Z BECMG 1215/1217 15012KT BECMG 1220/1222 FEW027 SCT070
SLTR,TAF SLTR 1200/1224 00000KT 9999 FEW017 BKN070 TX30/1219Z TN18/1210Z BECMG 1212/1215 15008KT
SLVR,TAF SLVR 112200Z 1200/1224 16005KT 9999 SCT025 BKN070 TX26/1220Z TN15/1210Z TEMPO 1204/1207 17012KT 8000 SHRA BKN025 FEW027TCU BKN080 BECMG 1215/1218 VRB02KT FEW025 BKN070
SMJP,TAF SMJP 112200Z 1200/1224 VRB01KT 9999 SCT025 TX33/1217Z TN23/1209Z PROB40 1208/1211 VRB02KT 2000 BR SCT002 FM121200KT 09006KT 9999 SCT012 PROB40 TEMPO 1218/1221 VRB06G16KT 5000 TSRA FEW015CB SCT020
SMZO,TAF SMZO 112200Z 1200/1224 VRB02KT 9999 SCT030 TX33/1217Z TN24/1209Z PROB30 1208/1211 VRB02KT 4000 BR SCT005 FM121200 10006KT 9999 FEW012 PROB30 TEMPO 1218/1220 VRB06G16KT 5000 TSRA FEW015CB SCT020
SOCA,TAF SOCA 111600Z 1118/1218 08012KT 9999 BKN030 BECMG 1121/1123 VRB02KT PROB40 TEMPO 1123/1202 2000 SHRA SCT012 BKN015CB PROB40 TEMPO 1206/1211 2000 SHRA SCT010 BKN012CB BECMG 1214/1215 06010KT PROB40 TEMPO 1216/1218 4000 SHRA SCT020CB
SPCL,TAF SPCL 112300Z 1200/1224 03005KT 9999 SCT020 TX33/1218Z TN23/1211Z TEMPO 1218/1222 09015KT 3000 DZRA BKN010 FEW025CB BKN110
SPEO,TAF SPEO 111705Z 1118/1218 20018KT 9999 FEW020 TX20/1119Z TN13/1211Z BECMG 1202/1204 24010KT BKN012 TEMPO 1210/1213 18004KT BKN008
SPGM,TAF SPGM 111700Z 1118/1218 03007KT 9999 SCT040 SCT110 TX31/1120Z TN21/1211Z BECMG 1123/1201 VRB02KT SCT025 BKN100
SPHI,TAF SPHI 111705Z 1118/1218 19016KT CAVOK TX22/1119Z TN15/1211Z FM120400 22010KT 9999 SCTC012 FM120700 18007KT 9999 BKN010
SPHO,TAF SPHO 111700Z 1118/1218 17013KT 9999 FEW040 TX26/1119Z TN12/1211Z TEMPO 1119/1123 18015G25KT
SPHY,TAF SPHY 111700Z 1118/1218 16005KT 9999 SCT015 TX18/1119Z TN01/1211Z
SPJC,TAF SPJC 112310Z 1200/1224 17016KT 9999 SCT015 TX18/1219Z TN14/1211Z BECMG 1202/1204 17006KT BECMG 1210/1212 BKN013 BECMG 1214/1216 BKN017 BECMG 1218/1220 18016KT
SPJI,TAF SPJI 111700Z 1118/1218 12005KT 9999 SCT020 TX35/1120Z TN20/1211Z TEMPO 1212/1214 2000 BCFG BKN010
SPJL,TAF COR SPJL 111740Z 1118/1218 28008KT CAVOK TX21/1118Z TNM06/1211Z BECMG 1118/1120 22015KT BECMG 1202/1204 30006KT
SPJR,TAF SPJR 111700Z 1118/1218 10007KT 9999 SCT027 SCT130 TX23/1119Z TN08/1211Z BECMG 1120/1122 30010KT BECMG 1122/1201 VRB03KT SCT025 BKN060
SPLO,TAF COR SPLO 111740Z 1118/1218 20012KT CAVOK TX21/1119Z TN15/1211Z FM120030 14007KT 9999 BKN030 FM121500 20010KT CAVOK
SPME,TAF SPME 112310Z 1200/1224 27007KT 9999 BKN020 TX26/1219Z TN20/1211Z BECMG 1205/1207 BKN013 BECMG 1216/1218 34010KT SCT020 BECMG 1221/1223 28007KT
SPMS,TAF SPMS 111700Z 1118/1218 36005KT 9999 SCT020 TX35/1120Z TN23/1211Z TEMPO 1122/1202 06015KT 3000 SHRA BKN010 FEW025TCU TEMPO 1210/1214 2000 BR BKN005
SPNC,TAF SPNC 111700Z 1118/1218 03012KT 9999 SCT033 BKN120 TX27/1120Z TN15/1211Z TEMPO 1118/1122 05016KT SCT025 BKN100 BECMG 1202/1204 VRB03KT SCT030 SCT150
SPPY,TAF SPPY 111700Z 1118/1218 06008KT 9999 SCT020 SCT050 TX22/1120Z TN11/1211Z TEMPO 1120/1124 4000 SHRA SCT010 FEW025TCU BKN050 TEMPO 1212/1215 3000 BCFG SCT010 SCT050
SPQT,TAF SPQT 112300Z 1200/1224 03005KT 9999 SCT020 BKN100 TX32/1219Z TN22/1211Z TEMPO 1202/1206 06012KT 3000 DZRA BKN010 FEW025CB BKN100 TEMPO 1210/1212 2000 BCFG BKN005 BKN080 TEMPO 1219/1223 12010KT 2000 SHRA BKN011 FEW025CB BKN110
SPQU,TAF SPQU 112300Z 1200/1224 05007KT CAVOK TX21/1217Z TN08/1210Z FM121500 25008KT CAVOK FM122400 01006KT CAVOK
SPRU,TAF SPRU 112305Z 1200/1224 15007KT 5000 BR OVC005 TX20/1219Z TN15/1211Z FM121500 17012KT 7000 OVC008
SPSO,TAF SPSO 112310Z 1200/1224 22016KT CAVOK TX22/1219Z TN11/1211Z BECMG 1202/1204 20008KT TEMPO 1210/1212 BKN014 BECMG 1215/2217 28010KT BECMG 1218/1220 22017KT
SPST,TAF SPST 112305Z 1200/1224 05008KT 9999 SCT025 TX36/1120Z TN20/1211Z TEMPO 1211/1212 VRB02KT 5000 BR SCT010 SCT100
SPTN,TAF SPTN 112300Z 1200/1224 22005KT 8000 OVC022 TX21/1219Z TN11/1210Z TEMPO 1211/1214 OVC012 FM121530 20008KT CAVOK FM122400 22003KT 9999 SCT020
SPTU,TAF SPTU 111700Z 1118/1218 12005KT 9999 SCT050 TX31/1120Z TN21/1211Z
SPYL,TAF SPYL 112310Z 1200/1224 20012KT CAVOK TX27/1219Z TN13/1211Z BECMG 1204/1206 14018KT BECMG 1216/1218 22014KT
SPZO,TAF SPZO 112300Z 1200/1224 VRB05KT 9999 NSC TX24/1219Z TN06/1211Z BECMG 1217/1218 29012KT TEMPO 1220/1222 36012KT BECMG 1223/1224 VRB04KT
SUAA,TAF SUAA 112330Z 1200/1224 12005KT 9999 BKN010 TX256/1218Z TN06/1210Z TEMPO 1202/1211 3000 BR BKN008 TEMPO 1203/1210 0800 BCFG BKN005 BECMG 1210/1213 30012KT CAVOK
SUCA,TAF SUCA 112330Z 1200/1224 09008KT CAVOK TX26/1218Z TN06/1210Z BECMG 1210/1213 31012KT
SUDU,TAF SUDU 112330Z 1200/1224 11005KT CAVOK TX27/1218Z TN06/1210Z TEMPO 1204/1211 3000 BR NSC TEMPO 1205/1210 0800 FG BKN005 BECMG 1210/1213 31010KT
SULS,TAF SULS 112330Z 1200/1224 15008KT 3000 DZBR BKN005 TX23/1218Z TN07/1210Z TEMPO 1203/1210 0800 FG OVC003 BECMG 1210/1213 30012KT CAVOK
SUMU,TAF SUMU 112330Z 1200/1224 12005KT 9999 BKN010 TX25/1218Z TN06/1210Z TEMPO 1202/1211 3000 BR BKN008 TEMPO 1203/1210 0800 BCFG BKN005 BECMG 1210/1213 30012KT CAVOK
SURV,TAF SURV 112330Z 1200/1224 19005KT 9999 BKN010 TX23/1218Z TN07/1210Z TEMPO 1206/1211 3000 BR BKN008 TEMPO 1207/1210 0800 BCFG OVC003
SUSO,TAF SUSO 112330Z 1200/1224 VRB03KT CAVOK TX26/1218Z TN07/1210Z PROB40 TEMPO 1208/1210 0800 BCFG NSC
SVBC,TAF SVBC 112200Z 1200/1300 05008KT 9000 D SCT016 TX33/1118Z TN22/1107Z BECMG 1122/1104 07012KT 9000 DZ FEW013 SCT070
SVJC,TAF SVJC 112200Z 1200/1300 05007KT 9999 BKN016 TX33/1119Z TN23/1107Z BECMG 1119/1123 06005KT 9000 DZ SCT020 
SVMC,TAF SVMC 112200Z 1200/1300 12002KT 9000 DZ BKN016 TX33/1119Z TN22/1108Z TEMPO 1201/1308 02005KT 9000 DZ SCT010
SVMG,TAF SVMG 112200Z 1200/1300 02003KT 9999 SCT016 TX33/1118Z TN22/1108Z TEMPO 1203/1306 05002KT 9000 -DZ SCT010 BKN100
SVMI,TAF SVMI 112200Z 1200/1300 09005KT 9999 SCT016 TX32/1118Z TN21/1107Z TEMPO 1202/1318 06002KT 9000 DZ BKN080
SVPR,TAF SVPR 112200Z 1200/1300 03002KT 9999 BKN016 TX33/1118Z TN23/1108Z BECMG 1120/1100 03003KT 9000 DZ SCT020 BKN080
SVSA,TAF SVSA 111600Z 1118/1218 07008KT 9999 SCT013 TX31/1119Z TN23/1108Z BECMG 1120/1100 08011KT 9999 FEW013 SCT070
SVVA,TAF SVVA 112200Z 1200/1300 09005KT 9999 BKN016 TX30/1219 TN23/1209 TEMPO 1204/1208 16003KT DZ 9000 BKN016 TEMPO 1212/1216 24002KT 9999 SCT016 BKN100
SYCJ,TAF SYCJ 112300Z 1200/1224 VRB02KT 9999 FEW016CB SCT017 BKN036 PROB040 TEMPO 1206/1210 4000 TS SHRA FEW015CB BKN016
SYEC,TAF SYEC 112300Z 1200/1224 08010KT 9999 SCT017 SCT080 TEMPO 1206/1210 VRB10KT 5000 TS SHRA FEW014CB SCT016 BKN032
TAPA,TAF TAPA 111700Z 1118/1218 10011KT 9999 SCT018 PROB40 TEMPO 1118/1122 4800 SHRA FEW014CB
TBPB,TAF TBPB 112300Z 1200/1224 09014KT 9999 SCT016 TEMPO 1202/1204 5000 SHRA BKN014 FEW015CB
TDPD,TAF TDPD 112300Z 1200/1224 10007KT 9999 SCT016
TFFF,TAF AMD TFFF 111837Z 1118/1218 10010KT 9999 SCT025 SCT045 TEMPO 1118/1124 3000 SHRA SCT008 FEW012CB BKN018TCU BKN020 PROB30 TEMPO 1118/1119 VRB15G25KT 1200 -TSRA BKN008 BKN012CB PROB30 TEMPO 1200/1209 4500 -SHRA BKN020TCU
TFFR,TAF TFFR 111700Z 1118/1218 10010KT 9999 SCT025 SCT050 TEMPO 1118/1124 3000 SHRA SCT008 FEW012CB BKN018TCU PROB30 TEMPO 1118/1121 VRB15G25KT 1200 TSRA BKN008 BKN012CB BECMG 1122/1124 VRB02KT PROB30 TEMPO 1200/1218 4500 -SHRA BKN020TCU BECMG 1212/1214 12012KT
TGPY,TGPY 112200Z 1200/1224 06012KT 9999 FEW015CB SCT017 BKN045 PROB40 TEMPO 1206/1209 5000 TSRA FEW012CB BKN016 BKN035 BECMG 1210/1212 11016G26KT BECMG 1218/1220 FEWO12CB SCT018
TIST,TIST 112339Z 1200/1224 08009KT P6SM FEW030 FM120400 07005KT P6SM VCSH SCT025 SCT035 FM121400 12012KT P6SM SCT035 FM122200 08006KT P6SM FEW035
TISX,TISX 112339Z 1200/1224 06003KT P6SM VCSH FEW025 SCT030 FM120400 05003KT P6SM VCSH SCT025 SCT040 FM121400 10012KT P6SM SCT035 FM122200 08006KT P6SM FEW035
TJBQ,TJBQ 112339Z 1200/1224 10005KT P6SM VCSH SCT020 BKN040 BKN060 TEMPO 1200/1201 5SM SHRA BKN020 OVC040 FM120200 00000KT P6SM FEW025 FM121400 07015KT P6SM SCT030 AMD NOT SKED 1202/1211
TJPS,TJPS 112339Z 1200/1224 00000KT P6SM VCSH FEW028 FM120200 00000KT P6SM FEW030 FM121400 15014KT P6SM SCT030 FM121800 16015KT P6SM VCSH SCT035 SCT070 FM122230 10007KT P6SM FEW030 SCT080 AMD NOT SKED
TJSJ,TJSJ 112339Z 1200/1224 08010KT P6SM FEW020 SCT060 SCT080 FM120800 VRB03KT P6SM VCSH SCT028 SCT035 FM121400 06015KT P6SM FEW030 SCT060 FM121700 06015KT P6SM VCSH SCT035 SCT060 FM122300 09007KT P6SM FEW030 SCT080
TKPK,TAF TKPK 111700Z 1118/1218 09012KT 9999 SCT018 PROB40 TEMPO 1118/1203 4800 SHRA FEW012CB
TKPN,TAF TKPN 111700Z 1118/1218 09013KT 9999 SCT018 PROB40 TEMPO 1118/1203 4800 SHRA FEW012CB
TLPC,TAF TLPC 112300Z 1200/1224 09019KT 9999 SCT020 TEMPO 1200/1212 5000 SHRA FEW015CB BKN018 BKN038 PROB30 TEMPO 1200/1206 TSRA FEW008 SCT012CB
TLPL,TAF TLPL 112300Z 1200/1224 08015KT 9999 SCT020 TEMPO 1200/1212 5000 SHRA FEW015CB BKN018 BKN038 PROB30 TEMPO 1200/1206 TSRA FEW008 SCT012CB
TNCA,TAF TNCA 112315Z 1200/1224 08015KT 9999 SCT016 TEMPO 1204/1224 6000 SHRA FEW012CB BKN015 PROB40 TEMPO 1209/1220 09015G25KT 3000 TSRA SCT010CB BKN014
TNCB,TAF TNCB 112321Z 1200/1306 09014KT 9999 SCT018 PROB40 TEMPO 1200/1220 4000 SHRA SCT018CB BKN022 PROB40 TEMPO 1304/1306 4000 SHRA SCT018CB BKN022
TNCC,TAF COR TNCC 112315Z 1200/1224 08012KT 9999 SCT016 TEMPO 6000 SHRA FEW012CB BKN015 PROB40 TEMPO 1208/1218 09015G25KT 3000 TSRA SCT010CB BKN014
TNCM,TNCM 112200Z 1200/1224 07007KT 9999 SCT018 PROB4O TEMPO 1206/1212 7000 SHRA BKN016 
TQPF,TAF TQPF 111700Z 1118/1218 10013KT 9999 SCT020
TRPG,TAF TRPG 111700Z 1118/1218 10014KT 9999 SCT018 PROB30 TEMPO 1121/1203 4800 SHRA FEW014CB
TTCP,TAF TTCP 112200Z 1200/1224 05005KT 9999 FEW016 PROB40 TEMPO 1204/1209 8000 SHRA FEW010CB SCT014 BECMG 1212/1214 09010KT SCT018
TTPP,TAF TTPP 112200Z 1200/1224 00000KT 9999 FEW016 PROB40 TEMPO 1204/1209 6000 SHRA -RA FEW010CB SCT014 BECMG 1212/1214 11010KT SCT018
TUPJ,TAF TUPJ 111700Z 1118/1218 10011KT 9999 SCT020
TVSA,TAF TVSA 112300Z 1200/1224 07009KT 9999 SCT016 TEMPO 1200/1204 5000 SHRA BKN014 FEW015CB
TXKF,TAF TXKF 112332Z 1200/1224 03010KT 9999 VCSH SCT014 BKN300 
UAAA,TAF UAAA 112301Z 1200/1224 34003MPS 9999 FEW050 SCT100 TX20/1209Z TN00/1201Z TEMPO 1200/1203 22003MPS TEMPO 1203/1212 03003G08MPS BECMG 1212/1213 21003MPS TEMPO 1212/1224 16003MPS 3100 FU
UACC,TAF UACC 112300Z 1200/1224 20003MPS 6000 SCT011 BKN020 TX16/1209Z TNM02/1201Z TEMPO 1200/1203 VRB02MPS 1000 BR BKN005 FM120400 VRB02MPS 9999 SCT040 SCT100 BECMG 1210/1212 08003MPS BECMG 1214/1216 10003MPS
UADD,TAF UADD 112000Z 1121/1206 18003G08MPS 9999 NSC
UAII,TAF UAII 112300Z 1200/1224 12003G08MPS 7000 NSC TX25/1210Z TN08/1201Z TEMPO 1200/1204 17003MPS 4000 FU BECMG 1204/1206 28003G08MPS TEMPO 1206/1215 33004G09MPS
UAIT,TAF UAIT 112303Z 1200/1209 05003G08MPS CAVOK TEMPO 1200/1203 09005G10MPS TEMPO 1204/1209 21003G08MPS
UAKK,TAF UAKK 112301Z 1200/1224 VRB02MPS 3100 BR SCT005 BKN011 TX16/1209Z TNM07/1124Z TEMPO 1200/1203 0300 FZFG VV002 BECMG 1203/1205 9999 NSW SCT020 BKN100 TEMPO 1203/1212 04005MPS
UAOO,TAF UAOO 112300Z 1200/1209 VRB01MPS CAVOK
UARR,TAF UARR 112302Z 1200/1209 13004MPS 3100 BR BKN011 BKN030CB TEMPO 1200/1205 0400 FG VV002 BECMG 1205/1206 15005G12MPS -SHRA
UASK,TAF UASK 112302Z 1200/1209 12003MPS 9999 NSC TEMPO 1200/1203 VRB01MPS 0200 FZFG BKN002
UASP,TAF UASP 112300Z 1200/1209 22005MPS 2000 BR FU BKN011 TEMPO 1200/1203 17003MPS 0400 FZFG VV001 FM120300 25005MPS 9999 SCT020 TEMPO 1203/1209 30005G10MPS
UASS,TAF UASS 112303Z 1200/1209 15003MPS 9999 SCT040 SCT100 TEMPO 1200/1203 VRB01MPS 0200 FZFG VV002
UATE,TAF UATE 112302Z 1200/1224 36006MPS 9999 SCT040CB TX21/1209Z TN12/1202Z TEMPO 1200/1203 3100 -SHRA BR SCT011CB BECMG 1203/1205 30005G11MPS
UATG,TAF UATG 112302Z 1200/1224 23006MPS 4000 BR BKN033CB TX17/1210Z TN07/1203Z BECMG 1203/1204 9999 NSW BECMG 1205/1207 24007G12MPS BECMG 1214/1215 24007MPS SCT033CB
UATT,TAF UATT 112300Z 1200/1224 13003MPS 9999 SCT040 TX18/1212Z TN05/1202Z TEMPO 1204/1212 15008MPS SCT033CB TEMPO 1218/1224 19003MPS
UAUU,TAF UAUU 112303Z 1200/1209 16003MPS CAVOK TEMPO 1200/1205 VRB02MPS 3100 BR
UBBB,TAF UBBB 112258Z 1200/1224 33014KT 9999 BKN030 TX22/1209Z TN16/1201Z TEMPO 1200/1204 SCT010 BECMG 1204/1206 02012KT FEW040CB TEMPO 1206/1218 05014KT -SHRA SCT008 SCT025CB OVC025
UBBF,TAF UBBF 111350Z 1115/1124 04006KT 9999 FEW040 SCT100 BECMG 1117/1119 32006KT TEMPO 1119/1124 VRB04KT
UBBG,TAF UBBG 112300Z 1200/1224 28010KT 9999 FEW040 SCT100 TX21/1212Z TN12/1203Z TEMPO 1202/1206 VRB04KT BECMG 1206/1208 VRB04KT BECMG 1211/1213 08010KT
UBBL,TAF UBBL 112257Z 1200/1224 03006KT 9999 SCT080 TX23/1210Z TN14/1202Z TEMPO 1200/1204 VRB04KT 4000 BR BCFG SCT007 TEMPO 1206/1224 05012KT -SHRA BKN012 SCT030CB BKN030
UBBN,TAF UBBN 112253Z 1200/1224 VRB04KT 9999 FEW050 SCT100 TX26/1212Z TN09/1202Z TEMPO 1200/1206 08012KT TEMPO 1207/1217 24010KT
UBBQ,TAF UBBQ 112258Z 1200/1224 28006KT 9999 SCT030 SCT100 TX25/1210Z TN13/1202Z TEMPO 1200/1206 VRB04KT BECMG 1206/1208 12008KT FEW040CB TEMPO 1208/1224 15010KT -SHRA SCT025CB OVC025
UBBY,TAF UBBY 112300Z 1200/1209 VRB04KT 9999 FEW050 SCT100 TEMPO 1200/1204 10010KT
UBEE,TAF UBEE 111700Z 1118/1203 30010KT CAVOK
UCFL,TAF UCFL 112234Z 1200/1224 34003G08MPS 9999 SCT030CB TEMPO 1200/1206 32007G12MPS BECMG 1206/1207 14003G08MPS BECMG 1214/1216 35003G08MPS
UCFM,TAF UCFM 112236Z 1200/1224 12003G08MPS 9999 SCT050 TEMPO 1200/1204 16003G08MPS 1200 BR FU FEW005 BECMG 1204/1206 32003G08MPS
UCFO,TAF UCFO 112242Z 1200/1224 29003G08MPS 9999 NSC TEMPO 1200/1206 15003G08MPS FEW050 BECMG 1212/1214 17003G08MPS
UDSG,TAF UDSG 112258Z 1200/1224 VRB06KT 9999 FEW050 TEMPO 1200/1206 5000 BR
UDYZ,TAF UDYZ 112300Z 1200/1224 VRB06KT CAVOK
UEEE,TAF UEEE 112300Z 1200/1306 32003G08MPS 9999 SCT020CB TEMPO 1200/1203 VRB01MPS 0300 SHSN FZFG VV002 TEMPO 1203/1212 2100 -SHSNRA SCT010 BKN020CB
UERP,TAF UERP 112300Z 1200/1224 13003MPS 6000 BKN014CB OVC100 TEMPO 1200/1206 2100 -SHSN BR BKN008 OVC013CB TEMPO 1206/1210 2500 -SHSNRA BR BKN007 OVC013CB BECMG 1214/1216 08003MPS
UERR,TAF UERR 112300Z 1200/1224 21003MPS 9999 -SHSNRA BKN005 OVC020CB TEMPO 1200/1203 0300 SHSNRA FZFG VV001 TEMPO 1203/1209 2000 SHSNRA BR BKN003 OVC015CB
UGKO,TAF UGKO 112300Z 1200/1224 08007KT 9999 BKN050 TX20/1211Z TN10/1202Z PROB40 TEMPO 1200/1205 0500 FG VV002 TEMPO 1204/1209 CAVOK TEMPO 1210/1216 25010KT
UGSB,TAF UGSB 112300Z 1200/1224 12014KT CAVOK TX19/1210Z TN13/1200Z TEMPO 1200/1207 12024KT BECMG 1207/1209 36007KT FEW035 BECMG 1216/1219 12012KT
UGTB,TAF UGTB 112300Z 1200/1224 31018KT CAVOK TX21/1212Z TN10/1202Z TEMPO 1202/1208 31008KT BECMG 1214/1217 31008KT SCT060
UHBB,TAF UHBB 112250Z 1200/1224 17003G08MPS 9999 SCT030 TEMPO 1202/1208 15005G11MPS BECMG 1215/1218 22003MPS
UHHH,TAF UHHH 112250Z 1200/1306 24007MPS 9999 SCT025CB BECMG 1207/1209 20003MPS
UHMA,TAF UHMA 112246Z 1200/1224 32003G08MPS 9999 SCT033 TEMPO 1200/1224 35008G13MPS
UHMD,TAF UHMD 112249Z 1200/1206 28003MPS 9999 SCT030 TEMPO 1200/1206 25008MPS 5000 -SN BKN015
UHMM,TAF UHMM 112238Z 1200/1306 36003G10MPS 9999 SCT040CB BKN070 TEMPO 1200/1210 06005G12MPS TEMPO 1210/1306 5000 -SHSN BKN020CB
UHPP,TAF UHPP 112255Z 1200/1306 32005G15MPS 6000 -SHRA BKN010 OVC025CB TEMPO 1200/1212 22007G15MPS 2000 -SHRA BR VV005 TEMPO 1212/1220 02003G12MPS 1000 SHRA BR VV003 BECMG 1220/1222 9999 NSW BKN030CB TEMPO 1222/1306 29010G18MPS
UHSS,TAF UHSS 112300Z 1200/1306 30003G08MPS 9999 SCT030CB BECMG 1300/1302 20003MPS
UHWW,TAF UHWW 112300Z 1200/1224 34003MPS 9999 NSC BECMG 1202/1204 22003G08MPS BECMG 1210/1212 12003MPS BECMG 1218/1220 BKN030
UIAA,TAF UIAA 112300Z 1200/1224 28006G12MPS 9999 SCT040CB TEMPO 1200/1212 22003G08MPS BECMG 1212/1214 22003G08MPS
UIBB,TAF UIBB 112300Z 1200/1224 24007G15MPS 9999 -SHRA BKN007 BKN016CB TEMPO 1200/1212 2900 -SHRASN BECMG 1212/1213 BKN016CB
UIII,TAF UIII 112300Z 1200/1224 15003MPS CAVOK
UIUU,TAF UIUU 112300Z 1200/1224 26003MPS 0300 FZFG VV001 BECMG 1201/1203 9999 NSW SCT030CB
ULAA,TAF ULAA 112300Z 1200/1224 18003MPS 9999 BKN016 TEMPO 1200/1203 19004G11MPS TEMPO 1203/1215 19005G13MPS 6000 -SHRA FEW006 BKN016CB
ULLI,TAF ULLI 112257Z 1200/1224 21003MPS 6000 BKN016 TEMPO 1200/1204 BKN010 TEMPO 1204/1207 BKN006 BECMG 1209/1210 27005G10MPS BECMG 1221/1223 20003MPS
ULMM,TAF ULMM 112250Z 1200/1224 17003G08MPS 6000 BKN016CB TEMPO 1200/1206 4000 -SHRA BKN011CB BECMG 1206/1208 24005G10MPS
ULOO,TAF ULOO 112254Z 1200/1209 20003MPS 1000 BR BKN002 TEMPO 1200/1205 0400 FG VV001 BECMG 1205/1207 6000 NSW SCT003
ULPB,TAF ULPB 112254Z 1200/1209 20004G09MPS 6000 BKN016 TEMPO 1200/1206 2000 -SHRA BR SCT010 BKN016CB BECMG 1206/1208 24005MPS
ULWC,TAF ULWC 112300Z 1200/1209 20003MPS 6000 SCT017 TEMPO 1200/1203 0500 FZFG BKN003 TEMPO 1203/1206 22003MPS 2000 BR SCT005 BKN015
UMBB,TAF UMBB 111400Z 1115/1124 25005G10MPS 6000 SCT020 TEMPO 1115/1121 BKN012
UMGG,TAF UMGG 112303Z 1200/1224 26005MPS 9999 SCT015 TEMPO 1200/1206 28003MPS 1200 BR BKN004 TEMPO 1206/1216 30006G11MPS TEMPO 1218/1224 1200 BR BKN004
UMII,TAF UMII 112310Z 1200/1209 29003MPS 6000 BKN015 TEMPO 1200/1209 27003G08MPS 2000 BCFG BR BKN005
UMKK,TAF UMKK 112254Z 1200/1224 23005MPS 6000 FEW010 SCT017CB TEMPO 1200/1215 28010MPS 2100 -SHRA BR BKN006 BKN014CB BECMG 1218/1220 20003G08MPS TEMPO 1218/1224 1200 -SHRA BR BKN004 BKN013CB
UMMS,TAF UMMS 112310Z 1200/1224 VRB02MPS 5000 BR SCT010 TEMPO 1200/1206 0300 FG SCT002 BECMG 1206/1207 27006G11MPS 9999 NSW SCT020 BECMG 1217/1219 VRB02MPS 8000 FEW030
UNAA,TAF UNAA 112253Z 1200/1224 22007G16MPS 7000 -SHRA SCT030CB BECMG 1217/1220 29003G08MPS
UNBB,TAF UNBB 112300Z 1200/1224 24006G13MPS 8000 -SHRA BKN030CB TEMPO 1200/1215 BKN010CB BECMG 1213/1215 32003G08MPS
UNEE,TAF UNEE 112300Z 1200/1224 23005G12MPS 8000 BKN030CB TEMPO 1207/1213 28008G16MPS BKN016CB BECMG 1213/1215 32003G08MPS
UNKL,TAF UNKL 112250Z 1200/1224 25005G12MPS 8000 -SHRA BKN016CB BECMG 1211/1213 30003G08MPS
UNNT,TAF UNNT 112300Z 1200/1224 25003G08MPS 8000 BKN030CB TEMPO 1203/1215 30007G14MPS
UNOO,TAF UNOO 112250Z 1200/1224 26003MPS 9999 SCT030CB BKN033 TEMPO 1200/1207 3100 -SHRA BR BKN020CB BKN030 BECMG 1202/1203 34003G10MPS BECMG 1212/1214 VRB01MPS
UNTT,TAF UNTT 112300Z 1200/1209 24003G08MPS 8000 -SHRA BKN016CB TEMPO 1200/1202 BKN005 BKN016CB BECMG 1202/1205 28005G12MPS
UNWW,TAF UNWW 112300Z 1200/1224 23007G15MPS 8000 -SHRA BKN033CB TEMPO 1200/1215 SCT011CB BECMG 1212/1215 32003G08MPS
UOOO,TAF UOOO 112247Z 1200/1224 30003G08MPS 0300 FZFG VV002 BECMG 1205/1207 6000 NSW SCT011 BKN016CB TEMPO 1207/1211 2500 -SHSN BR SCT006 BKN014CB BECMG 1211/1213 0500 FZFG VV003
URKA,TAF URKA 112253Z 1200/1224 29003MPS 9999 SCT030 TEMPO 1200/1203 25003G08MPS BECMG 1203/1205 30005G10MPS
URKK,TAF URKK 112250Z 1200/1224 23003G08MPS 9999 SCT020 BECMG 1205/1207 31003G08MPS
URMG,TAF URMG 112300Z 1200/1209 29003G08MPS 6000 BKN016
URML,TAF URML 112300Z 1200/1209 26003G08MPS 6000 BKN025 TEMPO 1200/1203 32003G08MPS SCT010 BKN020 BKN033CB
URMM,TAF URMM 112300Z 1200/1224 27006G14MPS 9999 BKN030 TX17/1212Z TN08/1203Z TEMPO 1200/1215 26008G18MPS BECMG 1215/1217 28003G08MPS
URMN,TAF URMN 112300Z 1200/1209 25003G08MPS 9999 BKN016
URMO,TAF URMO 111400Z 1115/1124 10003G08MPS 9999 BKN030
URMT,TAF URMT 112300Z 1200/1209 28007G13MPS 9999 SCT020 TEMPO 1200/1203 29010G17MPS
URRP,TAF URRP 112255Z 1200/1224 29006G12MPS 9999 SCT016 BECMG 1206/1208 32003G10MPS
URSS,TAF URSS 112255Z 1200/1224 04006MPS 9999 SCT030 BECMG 1209/1210 27003G08MPS SCT030 SCT100 BECMG 1215/1216 05003G08MPS
URWA,TAF URWA 112259Z 1200/1209 22006G13MPS 9999 SCT016 SCT030CB BECMG 1206/1208 25009G15MPS
URWW,TAF URWW 112259Z 1200/1209 27006G11MPS 6000 -SHRA BKN006 BKN020CB TEMPO 1200/1206 30008G13MPS BKN003 BKN020CB BECMG 1206/1208 30009G15MPS BKN016 BKN020CB
USCC,TAF USCC 112300Z 1200/1224 12003G08MPS 6000 SCT016 TEMPO 1200/1204 03003MPS 0300 FG VV002 BECMG 1204/1206 9999 SCT030
USCM,TAF USCM 112300Z 1200/1209 16003G08MPS 6000 SCT020 TEMPO 1200/1209 23008G13MPS -RA
USDA,TAF USDA 112259Z 1200/1209 31006MPS 6000 BKN016 TEMPO 1207/1209 34003MPS
USHH,TAF USHH 112253Z 1200/1224 28003G10MPS 9999 BKN017 TEMPO 1200/1204 1200 BR SCT003 BKN016 BECMG 1213/1215 22003G08MPS TEMPO 1215/1224 1200 BR SCT003 BKN016
USNN,TAF USNN 112245Z 1200/1224 27003G08MPS 9999 SCT016CB BKN040 TEMPO 1200/1203 -SHRASN FEW007 BKN016CB BECMG 1203/1204 30005G10MPS BECMG 1215/1216 28003MPS
USPP,TAF USPP 112258Z 1200/1224 11003G10MPS 2200 -RA BR BKN003 TEMPO 1200/1205 0300 -DZ FG OVC001 BECMG 1205/1206 6000 -RA BKN016 BECMG 1209/1210 9999 NSW BKN020
USRR,TAF USRR 112240Z 1200/1224 29006G13MPS 9999 SCT016 TEMPO 1200/1206 -SHRA SCT007 BKN015CB BECMG 1210/1212 26003MPS
USSS,TAF USSS 112256Z 1200/1224 10003G08MPS 6000 -SHRA BKN020CB BECMG 1204/1206 9999 NSW BECMG 1206/1208 12003G13MPS BECMG 1215/1218 6000
USTR,TAF USTR 112238Z 1200/1224 VRB01MPS 0300 FG VV002 TEMPO 1200/1204 0100 FG VV001 BECMG 1204/1205 2100 BR SCT005 FM120600 12003MPS 9999 SCT020 TEMPO 1206/1209 SCT004 SCT020 BECMG 1209/1210 16003MPS
UTAA,TAF UTAA 112245Z 1200/1224 08016KT 6000 SCT050 TEMPO 1200/1202 27010KT 2000 HZ BECMG 1202/1204 34016KT TEMPO 1205/1212 09014G24KT 3000 DRDU BECMG 1215/1217 13014KT
UTAK,TAF UTAK 112230Z 1200/1224 32012G22KT 2500 BR BKN003 BKN100 TEMPO 1200/1204 36010KT 0300 FG VV001 BECMG 1205/1206 6000 NSW SCT014 SCT033CB BKN100
UTAM,TAF UTAM 112235Z 1200/1224 09014KT 5000 SCT050 SCT100 TEMPO 1200/1206 VRB04KT 2000 HZ FU BECMG 1206/1207 32016KT CAVOK
UTAT,TAF UTAT 112233Z 1200/1224 11016KT 9999 SCT050 BKN100 TEMPO 1200/1206 06016KT
UTAV,TAF UTAV 112230Z 1200/1224 34014KT 6000 SCT070 TEMPO 1200/1206 04012G22KT 3000 DRDU SCT050
UTDD,TAF UTDD 112100Z 1122/1210 VRB02MPS 8000 FEW066 SCT100
UTDK,TAF UTDK 112100Z 1122/1207 03005MPS 8000 FEW066 SCT100
UTDL,TAF UTDL 112100Z 1122/1210 VRB02MPS 9999 NSC BECMG 1203/1204 08005MPS
UTDT,TAF UTDT 112100Z 1122/1207 VRB02MPS 8000 FEW066 SCT100
UTFA,TAF UTFA 112100Z 1122/1207 04010KT 7000 NSC
UTFF,TAF UTFF 112100Z 1122/1207 14010KT 7000 NSC
UTFN,TAF UTFN 112300Z 1200/1224 14010KT 7000 NSC
UTNN,TAF UTNN 112300Z 1200/1224 VRB04KT CAVOK TEMPO 1204/1211 12008G18KT
UTNU,TAF UTNU 112300Z 1200/1224 VRB04KT CAVOK TEMPO 1204/1212 11008G18KT
UTSA,TAF UTSA 112301Z 1200/1224 VRB03KT 7000 NSC TEMPO 1200/1211 06012KT 4000 FU
UTSB,TAF UTSB 112300Z 1200/1224 VRB03KT 7000 NSC TEMPO 1200/1211 02012KT
UTSK,TAF UTSK 112101Z 1122/1207 07010KT CAVOK
UTSS,TAF UTSS 112303Z 1200/1224 12010KT 9999 NSC TEMPO 1200/1206 15012G22KT TEMPO 1206/1215 30014G24KT
UTST,TAF UTST 112300Z 1200/1224 VRB06KT 6000 NSC TEMPO 1200/1211 25008G18KT
UTTT,TAF UTTT 112300Z 1200/1224 06010KT 7000 NSC TEMPO 1206/1216 30015KT
UUBC,TAF UUBC 111645Z 1118/1203 VRB01MPS 6000 SCT007 PROB40 TEMPO 1121/1203 0800 FZFG BKN002
UUBP,TAF UUBP 111357Z 1115/1124 VRB01MPS CAVOK
UUBW,TAF UUBW 112255Z 1200/1224 VRB01MPS 6000 SCT020 TX11/1212Z TNM01/1202Z TEMPO 1200/1207 0300 FZFG BKN002 BECMG 1207/1209 30005MPS
UUDD,TAF UUDD 112253Z 1200/1306 VRB01MPS 6000 SCT016 TX11/1211Z TNM02/1202Z TEMPO 1200/1206 0300 FZFG FEW002 BECMG 1206/1208 31005MPS
UUDL,TAF UUDL 112300Z 1200/1224 VRB01MPS 8000 SCT040 TX11/1212Z TNM02/1203Z TEMPO 1200/1209 0500 FZFG VV002
UUEE,TAF UUEE 112251Z 1200/1224 30003MPS 6000 SCT016 TX11/1212Z TN00/1203Z PROB40 TEMPO 1200/1204 0300 FG BKN002
UUMO,TAF UUMO 112257Z 1200/1209 VRB01MPS 6000 SCT040 BECMG 1206/1208 29006MPS
UUOB,TAF UUOB 112259Z 1200/1209 31003MPS 9999 BKN016
UUOK,TAF UUOK 111646Z 1118/1203 33003MPS 8000 BKN017 PROB40 TEMPO 1121/1203 0500 FG BKN002
UUOL,TAF UUOL 112300Z 1200/1209 33003G08MPS 6000 BKN016
UUOO,TAF UUOO 112300Z 1200/1209 30004MPS 9999 BKN020
UUWW,TAF UUWW 112252Z 1200/1224 VRB01MPS 6000 SCT016 TX11/1212Z TNM01/1202Z TEMPO 1200/1206 0300 FZFG OVC002 BECMG 1206/1208 30006MPS
UUYY,TAF UUYY 112300Z 1200/1224 17003G08MPS 6000 BKN002 BKN016CB TEMPO 1200/1208 0300 FG BKN004 FM120800 16003MPS 9999 FEW011 BKN017CB
UWGG,TAF UWGG 112250Z 1200/1224 01003MPS 9999 BKN016 TX09/1212Z TN04/1203Z TEMPO 1200/1212 3000 -RA BR BKN010
UWKD,TAF UWKD 112257Z 1200/1224 06005MPS 6000 -RA BKN016 TX12/1211Z TN08/1203Z TEMPO 1200/1206 2100 -SHRA BR BKN005 BKN020CB BECMG 1204/1206 12003MPS BECMG 1215/1217 01002MPS TEMPO 1218/1224 3100 -SHRA BR BKN006 BKN013CB
UWKE,TAF UWKE 112250Z 1200/1224 10003G09MPS 6000 -RA BKN016 TEMPO 1200/1206 14003G12MPS 0700 SHRA FG BKN003 SCT020CB TEMPO 1206/1221 14003G12MPS
UWKS,TAF UWKS 112300Z 1200/1209 07003G08MPS 7000 -RA BKN005 TX10/1209Z TN07/1202Z TEMPO 1200/1208 OVC003
UWLL,TAF UWLL 112259Z 1200/1224 10003G08MPS 6000 -RA BKN016 TX12/1212Z TN07/1203Z TEMPO 1200/1204 04005MPS 0300 FG OVC002 TEMPO 1204/1209 BKN004 TEMPO 1209/1224 03005MPS
UWLW,TAF UWLW 112253Z 1200/1224 03003MPS 6000 -RA OVC016 TX12/1211Z TN07/1202Z TEMPO 1200/1206 08005G10MPS 0300 FG VV002 TEMPO 1206/1218 08005G10MPS 2100 -SHRA BR OVC007 BKN012CB
UWOO,TAF UWOO 112244Z 1200/1224 13003G10MPS 9999 SCT020CB TX16/1210Z TN04/1201Z TEMPO 1200/1224 15005G12MPS -SHRA BKN016CB
UWOR,TAF UWOR 112245Z 1200/1209 15003G10MPS 9999 SCT020 TX14/1209Z TN02/1203Z TEMPO 1200/1209 14005G14MPS -SHRA BKN016CB
UWPS,TAF UWPS 112250Z 1200/1209 03003MPS 6000 -RA OVC004 TX10/1209Z TN08/1203Z TEMPO 1200/1206 2800 BR OVC001 TEMPO 1206/1209 BKN010
UWSG,TAF UWSG 112300Z 1200/1209 03003MPS 6000 -RA OVC004 TX11/1206Z TN08/1203Z TEMPO 1200/1203 0200 -RA FG VV002 TEMPO 1203/1209 2100 -SHRA BR BKN003 BKN016CB
UWUU,TAF UWUU 112253Z 1200/1224 12003G12MPS 9999 OVC030 TX14/1211Z TN05/1201Z TEMPO 1200/1224 07003MPS 6000 -SHRA FEW007 BKN016CB
UWWW,TAF UWWW 112252Z 1200/1224 15003MPS 0800 FG OVC004 TX13/1211Z TN07/1202Z TEMPO 1200/1206 0300 FG VV002 FM120600 09003G09MPS 6000 BKN016 TEMPO 1206/1224 1000 RA BR OVC003
VAAH,TAF VAAH 112300Z 1200/1306 00000KT 4000 HZ FEW080 BECMG 1201/1203 2000 BR BECMG 1204/1206 07005KT 5000 HZ FU FEW025 BECMG 1213/1215 VRB02KT 4000 FU NSC BECMG 1219/1221 07005KT BR HZ BECMG 1301/1303 2000 BR BECMG 1304/1306 6000 FEW025
VAAU,TAF VAAU 112300Z 1200/1209 VRB03KT 3000 HZ FEW020 SCT025 BKN100 BECMG 1203/1205 07005KT 4000 HZ
VABB,TAF VABB 112300Z 1200/1306 11004KT 2500 -SHRA RA SCT018 FEW025TCU BKN090 BECMG 1204/1206 23006KT TEMPO 1208/1212 27012KT 1500 -TSRA SHRA SCT015 FEW030CB OVC080 BECMG 1213/1215 05004KT 2500 HZ BECMG 1222/1224 2000 -SHRA RA SCT015 SCT025 BKN080 BECMG 1301/1303 11004KT 2500 -RA HZ
VABJ,TAF VABJ 112300Z 1200/1209 VRB02KT 6000 NSC BECMG 1201/1203 5000 BR BECMG 1204/1206 01005KT 6000 FEW025 BECMG 1207/1209 VRB02KT
VABO,TAF VABO 112300Z 1200/1209 00000KT 4000 DZ HZ SCT020 SCT080 BECMG 1201/1203 2000 BR BECMG 1204/1206 VRB02KT 6000 FEW020 SCT080 BECMG 1207/1209 36005KT FEW025
VABP,TAF VABP 112000Z 1121/1206 16008KT 4000 HZ FEW020 SCT100 BECMG 1201/1203 20005KT 2000 BR HZ FEW010 SCT025 BECMG 1204/1206 25008KT 4000 HZ FEW020 SCT025
VABV,TAF VABV 112300Z 1200/1209 27004KT 5000 BR HZ SCT020 SCT080 BECMG 1201/1203 00000KT 2000 BR BECMG 1204/1206 09005KT 5000 HZ FU FEW025 SCT080
VADU,TAF VADU 112300Z 1200/1209 30004KT 5000 DZ HZ FEW020 BKN080 BECMG 1201/1203 00000KT 2000 BR BECMG 1204/1206 14005KT 5000 HZ FEW025 SCT080 BECMG 1207/1209 19005KT FEW025
VAID,TAF VAID 112000Z 1121/1206 16008KT 4000 HZ FEW020 SCT100 BECMG 1201/1203 20005KT 2000 BR HZ FEW010 SCT025 BECMG 1204/1206 25008KT 4000 HZ FEW020 SCT025
VAJB,TAF VAJB 112000Z 1121/1206 18005KT 4000 HZ FEW020 BECMG 1201/1203 20008KT 2000 BR HZ FEW012 SCT025 BECMG 1204/1206 25008KT 3000 -RA HZ SCT020 SCT100
VAJM,TAF VAJM 112300Z 1200/1209 VRB02KT 4000 BR FEW020 BECMG 1201/1203 1500 BR NSC BECMG 1204/1206 36006KT 6000 FEW025 BECMG 1207/1209 32008KT
VAKP,TAF VAKP 112300Z 1200/1209 VRB02KT 3000 BR HZ SCT020 SCT100 BECMG 1203/1205 23008KT 5000 HZ TEMPO 1203/1209 2000 -TSRA SHRA SCT018 FEW030TCU/CB BKN100
VANP,TAF VANP 112300Z 1200/1306 18003KT 3000 HZ -RA FEW010 SCT020 SCT090 BECMG 1202/1204 33005KT 5000 HZ -RA SCT020 SCT025 BECMG 1213/1215 36003KT 3000 HZ FEW020 SCT100 BECMG 1302/1304 36005KT 5000 HZ SCT020 SCT025 TEMPO 1208/1212 33010KT 1500 -TSRA SCT020 FEWCB030 OVC080
VAOZ,TAF COR VAOZ 111400Z 1115/1203 06010KT 6000 SCT030 SCT100 BKN300 TEMPO 1115/1119 3000 TSRA SCT030 FEW030CB SCT100 BKN300 TEMPO 1119/1123 4000 RA SCT020 BKN080 BKN300 TEMPO 1200/1203 1500 RABR SCT015 SCT030 BKN080
VAPO,TAF VAPO 111700Z 1118/1300 11010KT 6000 SCT020 BKN090 TEMPO 1118/1122 4000 -RA FEW010 SCT020 BKN090 TEMPO 1201/1203 4000 -RA TEMPO 1209/1212 08010G20KT 3000 TSRA SCT020 FEW030CB BKN080
VAPR,TAF VAPR 112300Z 1200/1209 28005KT 6000 FEW020 BECMG 1122/1124 34004KT BECMG 1201/1203 4000 BR NSC BECMG 1204/1206 27006KT 6000 FEW025 BECMG 1207/1209 26008KT
VARK,TAF VARK 112300Z 1200/1209 18005KT 6000 SCT020 SCT080 BECMG 1201/1203 24003KT 4000 BR FEW020 BECMG 1204/1206 09006KT 6000
VASD,TAF VASD 112300Z 1200/1209 VRB03KT 3000 HZ FEW020 SCT025 BKN100 BECMG 1203/1205 07005KT 4000 HZ
VASL,TAF VASL 112300Z 1200/1209 VRB02KT 3000 BR HZ SCT020 SCT100 BECMG 1203/1205 23008KT 5000 HZ TEMPO 1203/1209 2000 -TSRA SHRA SCT018 FEW030TCU/CB BKN100
VASU,TAF VASU 112300Z 1200/1209 00000KT 4000 DZ BR FEW012 SCT020 BKN080 BECMG 1201/1203 11005KT 2000 BR SCT020 BKN080 BECMG 1204/1206 6000 FEW025 SCT080 BECMG 1207/1209 28008KT TEMPO 1207/1209 2000 -TSRA -RA SCT020 FEW030CB BKN080
VAUD,TAF VAUD 112300Z 1200/1306 VRB03KT 3000 HZ FEW100 BECMG 1203/1205 03005KT 5000 HZ SCT030 BECMG 1212/1214 VRB03KT 3000 HZ FEW100
VCBI,TAF VCBI 112300Z 1200/1306 VRB05KT 9999 SCT017 TX31/1207Z TN25/1300Z PROB30 TEMPO 1200/1205 1212/1215 8000 -SHRA FEW012 BKN016 BECMG 1202/1204 25010KT BECMG 1214/1216 VRB05KT
VCRI,TAF VCRI 112300Z 1200/1306 VRB05KT 9999 FEW018 TX32/1207Z TN24/1300Z BECMG 1203/1205 23010KT PROB40 TEMPO 1208/1214 7000 -TSRA/SHRA SCT016 FEW018CB BKN080
VDPP,TAF VDPP 112300Z 1200/1218 04010KT 9999 SCT017 SCT040
VDSR,TAF VDSR 112300Z 1200/1218 35008KT 9999 SCT017 SCT040
VDSV,TAF VDSV 112300Z 1200/1218 03008KT 9999 SCT017 SCT040
VEAB,TAF VEAB 111530Z 1200/1212 06005KT 5000 BR SCT020 BKN090 BECMG 1202/1207 12005KT 6000 SCT020 BKN090 TEMPO 1207/1212 14010KT 5000 TSRA SCT020 FEW030CB BKN090
VEAT,TAF VEAT 112000Z 1121/1206 00000KT 3000 -RA BR SCT018 BKN100 BECMG 1203/1205 27005KT 5000 HZ
VEBD,TAF VEBD 112300Z 1200/1209 VRB02KT 3000 -RA HZ SCT018 BKN100 TEMPO 1200/1204 1500 TSRA SCT015 FEW025CB OVC090 BECMG 1204/1206 07005KT 5000 -RA HZ
VEBI,TAF VEBI 112300Z 1200/1209 00000KT 3000 -RA BR SCT018 BKN100 BECMG 1204/1206 25005KT 5000 HZ
VEBN,TAF VEBN 112300Z 1200/1306 00000KT 2000 BR SCT020 BKN100 TEMPO 1200/1204 1500 -TSRA -RA FEW030CB OVC090 BECMG 1205/1207 12005KT 4000 BR HZ SCT020 SCT025 BKN100 BECMG 1216/1218 VRB02KT 2500 BR SCT020 SCT100 BECMG 1304/1306 12005KT 4000 BR HZ SCT020 BKN100
VEBS,TAF VEBS 112300Z 1200/1306 00000KT 2000 BR SCT016 BECMG 1203/1205 18005KT 4000 HZ SCT018 SCT100 TEMPO 1209/1213 2000 -TSRA BKN016 FEW030CB OVC090 BECMG 1217/1219 00000KT 2000 BR SCT016 BECMG 1303/1305 16005KT 4000 HZ SCT018 SCT100
VECC,TAF VECC 112300Z 1200/1306 00000KT 2500 -RA HZ FEW018 SCT100 BECMG 1203/1205 18007KT 3500 -RA HZ SCT018 SCT025 TEMPO 1205/1209 1500 TSRA SCT015 FEW025CB OVC090 BECMG 1222/1224 00000KT 2500 -RA HZ FEW018 SCT100 BECMG 1303/1305 20007KT 3500 -RA HZ
VECO,TAF VECO 112300Z 1200/1209 00000KT 2400 -RA HZ SCT018 BKN100 TEMPO 1200/1204 1500 TSRA SCT015 FEW025CB OVC090 BECMG 1204/1206 07005KT 3500 -RA HZ
VECX,TAF VECX 110930Z 1112/1124 27010KT 5000 TSRA FEW025 FEW030CB SCT090 BECMG 1114/1116 6000 SCT020 SCT030 BECMG 1118/1120 5000 BR BECMG 1122/1124 3000 BR
VEDG,TAF VEDG 112300Z 1200/1306 00000KT 3200 -RA HZ SCT018 BKN100 BECMG 1203/1205 24007KT 4000 -RA HZ SCT018 SCT025 TEMPO 1207/1211 1500 TSRA SCT015 FEW025CB OVC090 TEMPO 1211/1215 2000 TSRA SCT015 FEW025CB OVC090 BECMG 1218/1220 00000KT 2500 -RA BR SCT018 BKN100 BECMG 1303/1305 21005KT 3500 -RA HZ
VEDZ,TAF VEDZ 112300Z 1200/1209 00000KT 3000 -RA BR SCT018 FEW025CB BKN090 BECMG 1204/1206 33006KT 5000 BR HZ SCT018 BKN100
VEGK,TAF VEGK 111530Z 1200/1212 VRB02KT 2000 RABR SCT008 FEW030TCU BKN080 BECMG 1204/1205 6000 SCT015 FEW030CB OVC080 TEMPO 1208/1211 27015G25KT 1500 TSRA BKN005 FEW030CB OVC080
VEGT,TAF VEGT 112300Z 1200/1209 00000KT 3000 -RA BR SCT018 BKN100 BECMG 1205/1207 27005KT 5000 HZ
VEGY,TAF VEGY 112300Z 1200/1306 00000KT 2500 BR SCT018 BKN100 BECMG 1203/1205 26005KT 3000 -TSRA BR SCT018 FEW030CB BKN100 BECMG 1208/1210 5000 -RA HZ FEW010 SCT018 BKN100 BECMG 1216/1218 00000KT 2500 -RA BR TEMPO 1221/1223 2000 -TSRA SCT018 FEW030CB BKN100 B CMG 1304/1306 3500 -RA BR SCT018 BKN100
VEIM,TAF VEIM 112300Z 1200/1209 00000KT 3000 BR SCT018 BKN100 BECMG 1204/1206 17005KT 5000 HZ
VEJH,TAF VEJH 112300Z 1200/1209 23005KT 4000 HZ SCT018 BKN100 TEMPO 1205/1209 2000 -TSRA BKN016 FEW030CB OVC090
VEJS,TAF VEJS 112300Z 1200/1209 00000KT 2500 BR FEW018 SCT100 BECMG 1207/1209 4000 -TSRA HZ SCT015 FEW030CB BKN100 
VEJT,TAF VEJT 112300Z 1200/1209 00000KT 3000 -RA BR SCT018 BKN100 BECMG 1204/1206 25005KT 5000 HZ
VEKO,TAF VEKO 112000Z 1121/1206 18005KT 4000 HZ FEW020 BECMG 1201/1203 20008KT 2000 BR HZ FEW012 SCT025 BECMG 1204/1206 25008KT 3000 -RA HZ SCT020 SCT100
VELR,TAF VELR 112300Z 1200/1209 17005KT 3000 -RA BR SCT018 BKN100 BECMG 1204/1206 5000 HZ
VEMN,TAF VEMN 112300Z 1200/1209 00000KT 2500 -RA BR SCT018 BKN100 BECMG 1204/1206 29005KT 4000 HZ
VEMR,TAF VEMR 112300Z 1200/1209 00000KT 3000 BR SCT018 BKN100 BECMG 1205/1207 23005KT 5000 HZ
VEPT,TAF VEPT 112300Z 1200/1306 00000KT 2500 BR FEW018 SCT100 BECMG 1204/1206 27005KT 3500 HZ BECMG 1207/1209 5000 -TSRA HZ SCT018 FEW030CB BKN100 BECMG 1218/1220 00000KT 2800 -RA BR SCT018 SCT100 BECMG 1304/1306 18005KT 3500 -RA BR FEW010 SCT018 BKN100
VERC,TAF VERC 112300Z 1200/1306 00000KT 2500 BR SCT018 BKN100 BECMG 1204/1206 4000 HZ SCT015 BKN100 BECMG 1207/1209 5000 -TSRA HZ SCT015 FEW030CB BKN100 BECMG 1216/1218 3000 HZ SCT018 BKN100 BECMG 1303/1305 23005KT -RA HZ
VERP,TAF VERP 112300Z 1200/1306 24003KT 3000 HZ -RA FEW010 SCT020 SCT090 BECMG 1202/1204 5000 HZ -RA SCT020 SCT025 BECMG 1213/1215 3000 HZ FEW020 SCT100 BECMG 1302/1304 5000 HZ SCT020 SCT025 TEMPO 1208/1212 33010KT 1500 -TSRA SCT020 FEWCB030 OVC080
VERU,TAF VERU 112300Z 1200/1209 00000KT 2500 -RA BR SCT018 BKN100 BECMG 1205/1207 13005KT 4000 HZ
VETJ,TAF VETJ 112300Z 1200/1209 20005KT 3000 -RA BR SCT018 FEW025CB BKN090 BECMG 1204/1206 5000 HZ
VETZ,TAF VETZ 112300Z 1200/1209 00000KT 3000 -RA BR SCT018 BKN100 BECMG 1204/1206 22005KT 5000 HZ
VEZO,TAF VEZO 112300Z 1200/1209 03005KT 2500 -RA BR SCT018 FEW025CB BKN090 BECMG 1204/1206 23005KT 4000 HZ
VGEG,TAF VGEG 112300Z 1200/1305 17005KT 4000 SCT015 BKN100 BECMG 1212/1214 24008KT 5000 SCT015 BKN100 BECMG 1220/1222 17005KT 5000 SCT018 SCT100 BECMG 1302/1304 17005KT 4000 SCT015 BKN100
VGHS,TAF VGHS 112300Z 1200/1306 20008KT 3500 HZ SCT012 BKN100 TEMPO 1200/1204 18015KT 2000 RA/TSRA SCT008 FEW025CB OVC090 BECMG 1205/1207 20006KT 4000 HZ SCT012 BKN100 TEMPO 1207/1210 18015KT 2000 RA/TSRA SCT008 FEW025CB BKN090 BECMG 1210/1212 20006KT 3500HZ SCT012 BKN100
VHHH,TAF VHHH 112300Z 1200/1306 08010KT 9999 FEW040 TX29/1206Z TX29/1306Z TN22/1222Z TEMPO 1203/1209 30010KT TEMPO 1303/1306 30010KT
VIAG,TAF VIAG 111700Z 1118/1300 34005KT 6000 SCT025 BECMG 1122/1123 3000 BR BECMG 1200/1203 1500 BR BECMG 1204/1205 3000 BR BECMG 1206/1207 5000 HZ TEMPO 1208/1210 32008KT 3000 TSRA SCT015 FEW025CB BKN090
VIAR,TAF VIAR 112000Z 1121/1206 29004KT 4000 BR FEW030 SCT090 BECMG 1200/1202 VRB02KT 2000 BR BECMG 1204/1206 32004KT 3500 BR HZ SCT030
VIBT,TAF VIBT 111530Z 1200/1212 11010KT 6000 SCT025 TEMPO 1200/1202 VRB02KT 1500 BR SCT015 TEMPO 1210/1212 09010KT 6000 SCT025 FEW030CB
VIBY,TAF VIBY 111530Z 1200/1212 VRB02KT 1500 BR SCT020 SCT100 BECMG 1203/1204 26005KT 3000 BR SCT012 SCT015 SCT100 BECMG 1205/1206 5000 HZ SCT025 SCT100 BECMG 1207 26008KT 6KM SCT025 SCT100
VICG,TAF VICG 111700Z 1118/1300 VRB02KT 5000 BR FEW020 SCT090 TEMPO 1120/1122 34010KT 4000 TSRA SCT015 SCT020 FEW030CB BKN090 TEMPO 1122/1200 VRB02KT 2000 BR SCT020 SCT090 BECMG 1201/1203 34010KT 6000 FEW020 SCT090 TEMPO 1208/1210 34010G20KT 4000 TSRA SCT020 FEW030CB BKN090 BECMG 1212/1215 VRB02KT 5000 BR SCT090 TEMPO 1222/1300 VRB02KT 3000 BR FEW030 SCT090
VIDP,TAF VIDP 112301Z 1200/1209 25003KT 0800 MIFG FEW100 BECMG 1203/1205 1800 BR FEW035 SCT100 BECMG 1206/1208 32006KT 3500 HZ SCT035 
VIGR,TAF VIGR 111530Z 1200/1212 VRB02KT 4000 BR SCT025 TEMPO 1201/1203 01005KT 2000 BR SCT010 SCT020 BECMG 1204/1205 35005KT 5000 BR FEW020 SCT100 BECMG 1208/1210 34008KT 6000 SCT020 FEW030CB SCT100
VIJO,TAF VIJO 112300Z 1200/1209 09005KT 3000 HZ NSC BECMG 1203/1205 07005KT 5000 HZ FEW030
VIJP,TAF VIJP 112300Z 1200/1306 VRB03KT 2000 FU BR FEW100 BECMG 1203/1205 03008KT 5000 HZ SCT030 BECMG 1212/1214 07005KT 3000 HZ FEW100
VIJU,TAF VIJU 110930Z 1118/1212 18005KT 6000 SCT025 SCT090 TEMPO 1201/1205 VRB02KT 4000 BR
VIKO,TAF VIKO 112300Z 1200/1209 VRB03KT 3000 HZ FEW100 BECMG 1203/1205 32005KT 5000 HZ SCT030
VILH,TAF VILH 110930Z 1118/1212 29010KT 6000 SCT070 BKN100 TEMPO 1123/1203 29015G25KT 4000 RAHZ FEW040 SCT050 BKN100 TEMPO 1208/1212 29020G30KT 5000 BLDU
VILK,TAF VILK 112300Z 1200/1306 00000KT 2000 BR SCT020 BKN100 BECMG 1203/1205 10005KT 4000 BR HZ TEMPO 1205/1209 2000 -TSRA -RA FEW030CB OVC090 BECMG 1216/1218 VRB02KT 3000 BR SCT020 BKN100 BECMG 1300/1302 00000KT 1500 BR BECMG 1304/1306 11005KT 4000 BR HZ SCT020 SCT025 BKN100
VISR,TAF VISR 111530Z 1118/1206 24005KT 6000 SCT020 BKN100 BECMG FM 1123/1200 VRB02KT FEW020 SCT100 TEMPO 1201/1202 2500 BR TEMPO 1202/1203 4000 HZ
VLLB,TAF VLLB 112300Z 1200/1224 36004KT 9999 SCT020 SCT060
VLLN,TAF VLLN 112300Z 1200/1224 34004KT 8000 SCT020 BKN100
VLPS,TAF VLPS 112300Z 1200/1224 14004KT 9999 SCT020 SCT050
VLSK,TAF VLSK 112300Z 1200/1224 09004KT 8000 SCT020 SCT100
VLVT,TAF VLVT 112300Z 1200/1224 09004KT 8000 SCT020 SCT050
VMMC,TAF VMMC 112300Z 1200/1306 02013KT 9999 FEW040
VNKT,TAF VNKT 112300Z 1200/1224 VRB02KT 6000 BR FEW010 SCT030 BECMG 1204/1205 12004KT 8000 FEW015 SCT030 BECMG 1207/1209 26010KT 9999 FEW020 SCT100 PROB30 1208/1214 VRB07KT 5000 -TSRA FEW025CB BKN100 BECMG 1214/1215 12004KT 7000 FEW015 SCT100
VOAR,TAF VOAR 111100Z 1112/1218 14010KT 4500 VCSH FEW018 FEW025TCU SCT090 TEMPO 1112/1117 3000 -TSRA/RA SCT016 FEW025CB BKN090 BECMG 1118/1120 VRB02KT 4500 BR FEW018 SCT090 TEMPO 1123/1202 2500 BR BECMG 1202/1204 16010KT BECMG 1205/1207 6000 TEMPO 1211/1216 4500 -TSRA/RA SCT018 FEW025CB BKN090
VOBG,TAF VOBG 112300Z 1200/1209 15008KT 6000 SCT012 SCT080 TEMPO 1200/1203 3000 DZ BR BKN008 SCT012 BKN080
VOBL,TAF VOBL 112300Z 1200/1306 15008KT 6000 SCT012 SCT080 TEMPO 1200/1203 3000 DZ BR BKN008 SCT012 BKN080 TEMPO 1209/1215 3000 RA DZ SCT008 SCT012 FEW025CB BKN080 TEMPO 1222/1303 3000 DZ BR SCT008 SCT012 BKN080
VOBM,TAF VOBM 112300Z 1200/1209 VRB03KT 6000 SCT012 SCT080 TEMPO 1200/1203 24005KT 2000 DZ BR SCT008 SCT012 BKN080
VOBZ,TAF VOBZ 112300Z 1200/1306 14005KT 4000 BR HZ SCT015 SCT100 TEMPO 1200/1203 VRB04KT 3000 TSRA BR SCT010 FEW030CB BKN080 BECMG 1204/1206 30010KT 5000 HZ BR SCT015 SCT025 TEMPO 1209/1214 3000 RA TSRA SCT010 FEW030CB OVC080 BECMG 1216/1218 02005KT 5000 BR SCT010 SCT015 BKN100 TEMPO 1223/1303 VRB04KT 3000 TSRA BR SCT010 SCT015 FEW030CB OVC080 BECMG 1304/1306 33010KT 6000 SCT015 SCT025 BKN100
VOCB,TAF VOCB 112300Z 1200/1306 21005KT 3000 -RA/BR SCT012 BKN080 BECMG 1206/1207 5000 HZ BECMG 1300/1301 3000 BR BECMG 1303/1304 5000 HZ
VOCI,TAF VOCI 112300Z 1200/1306 VRB03KT 3000 BR SCT015 SCT080 BECMG 1203/1205 27010KT 6000 FEW015 SCT080 TEMPO 1210/1215 3000 TSRA RA SCT012 FEW025CB BKN080 BECMG 1215/1216 VRB03KT 4000 BR SCT015 FEW025CB SCT080 TEMPO 1222/1302 2500 -RA BR SCT012 BKN080 BECMG 1303/1304 27010KT 5000 HZ SCT015
VOCL,TAF VOCL 112300Z 1200/1306 VRB03KT 3000 BR SCT015 SCT080 BECMG 1203/1205 30010KT 6000 TEMPO 1210/1215 3000 TSRA SCT012 FEW025CB BKN080 BECMG 1215/1216 5000 HZ SCT015 SCT080 BECMG 1220/1221 4000 BR FEW008 SCT015 BECMG 1303/1304 30005KT 6000 SCT015
VOCP,TAF VOCP 112300Z 1200/1209 01005KT 5000 BR HZ SCT015 SCT100 TEMPO 1200/1204 VRB04KT 3000 TSRA RA SCT010 FEW030CB BKN080 BECMG 1204/1206 26010KT 6000 SCT015 SCT025
VOGB,TAF VOGB 112300Z 1200/1209 VRB03KT 6000 SCT012 SCT080 TEMPO 1206/1209 3000 TSRA RA SCT010 SCT015 FEW025CB BKN080
VOGO,TAF VOGO 111700Z 1118/1203 08003KT 6000 FEW010 SCT016 BKN080 TEMPO 1200/1203 VRB02KT 2000 BR SCT006 SCT020 BKN080
VOHB,TAF VOHB 112300Z 1200/1306 VRB03KT 6000 SCT012 SCT080 TEMPO 1200/1203 24005KT 2000 DZ BR SCT008 SCT012 BKN080 TEMPO 1209/1215 23010KT 3000 RA DZ SCT008 SCT012 FEW025CB BKN080 TEMPO 1300/1303 3000 BR SCT008 SCT012
VOHS,TAF VOHS 112300Z 1200/1306 14005KT 5000 DZ BR BKN010 SCT015 BKN100 TEMPO 1200/1203 VRB04KT 3000 TSRA BR BKN010 FEW030CB OVC080 BECMG 1204/1206 32010KT 6000 SCT015 SCT025 BKN100 TEMPO 1209/1215 FEW030CB BECMG 1216/1218 29005KT 5000 BR SCT010 SCT015 BKN100 TEMPO 1223/1303 VRB04KT 3000 TSRA BR SCT010 FEW030CB OVC080 BECMG 1304/1306 02010KT 6000 SCT015 SCT025
VOHY,TAF VOHY 112300Z 1200/1209 14005KT 5000 DZ BR SCT010 SCT015 BKN100 TEMPO 1200/1203 VRB04KT 3000 TSRA BR BKN010 FEW030CB OVC080 BECMG 1204/1206 32010KT 6000 SCT015 SCT025 BKN100
VOJV,TAF VOJV 112300Z 1200/1209 VRB02KT 6000 SCT012 SCT080 TEMPO 1206/1209 3000 TSRA RA SCT010 SCT015 FEW025CB BKN080
VOKN,TAF VOKN 112300Z 1200/1306 VRB02KT 0800 -RA FG SCT003 SCT012 BECMG 1202/1203 3000 BR FEW008 SCT012 BECMG 1204/1205 30010KT 6000 FEW012 SCT080 TEMPO 1210/1215 4000 -TSRA SCT012 FEW025CB BKN080 BECMG 1215/1216 VRB03KT 3000 BR FEW012 BKN080 TEMPO 1221/1302 0800 -RA FG SCT003 SCT012 BKN080 BECMG 1302/1304 30005KT 4000 BR FEW008 SCT015
VOKU,TAF VOKU 112300Z 1200/1209 12005KT 5000 DZ BR SCT010 SCT015 BKN100 TEMPO 1200/1204 VRB04KT 3000 TSRA BR SCT010 FEW030CB OVC080 BECMG 1204/1206 32010KT 6000 SCT015 SCT025 BKN100
VOLT,TAF VOLT 112300Z 1200/1209 VRB02KT 3000 BR HZ SCT020 SCT100 BECMG 1203/1205 23008KT 5000 HZ TEMPO 1203/1209 2000 -TSRA SHRA SCT018 FEW030TCU/CB BKN100
VOMD,TAF VOMD 112300Z 1200/1306 02005KT 5000 -DZ/BR SCT018 BKN080 BECMG 1206/1207 11005KT BECMG 1218/1219 02005KT BECMG 1300/1301 3000 BR BECMG 1303/1304 5000 HZ
VOML,TAF VOML 112300Z 1200/1306 VRB03KT 3000 BR SCT008 SCT012 TEMPO 1200/1203 0800 FG SCT005 SCT012 BKN080 BECMG 1206/1207 29010KT 6000 SCT012 SCT080 TEMPO 1212/1218 5000 RA DZ SCT010 SCT012 FEW025CB BKN080 BECMG 1219/1220 VRB03KT BECMG 1222/1223 3000 BR SCT008 SCT012 TEMPO 1300/1303 1000 MIFG BR SCT005 SCT012
VOMM,TAF VOMM 112300Z 1200/1306 23005KT 3000 DZ/BR SCT012 BKN080 PROB30 TEMPO 1200/1204 3000 TSRA/RA SCT015 FEW025CB BKN080 BECMG 1206/1207 5000 HZ BECMG 1212/1213 14010KT BECMG 1218/1219 23005KT BECMG 1300/1301 3000 BR BECMG 1303/1304 5000 HZ
VOMY,TAF VOMY 112300Z 1200/1209 15008KT 6000 SCT012 SCT080 TEMPO 1200/1203 3000 DZ BR BKN008 SCT012 BKN080
VOND,TAF VOND 112300Z 1200/1209 VRB03KT 3000 HZ FEW020 SCT025 BKN100 BECMG 1203/1205 07005KT 4000 HZ
VOPB,TAF VOPB 111800Z 1121/1206 VRB02KT 5000 BR SCT014 BKN080 TEMPO 1121/1201 3000 RA SCT012 FEW022TCU BKN080 BECMG 1200/1201 22005KT 6000
VORY,TAF VORY 112300Z 1200/1306 05010KT 4000 BR HZ SCT015 BKN100 TEMPO 1200/1203 VRB04KT 3000 TSRA BR SCT010 FEW030CB BKN080 BECMG 1204/1206 26010KT 6000 SCT015 BKN100 TEMPO 1208/1214 3000 RA TSRA SCT010 FEW030CB OVC080 BECMG 1216/1218 25005KT 5000 BR SCT010 SCT015 BKN100 TEMPO 1223/1303 VRB04KT 3000 BR RA SCT010 SCT015 FEW030CB OVC080 BECMG 1304/1306 28010KT 6000 SCT015 SCT025 BKN100
VOTP,TAF VOTP 112300Z 1200/1306 12005KT 5000 BR HZ SCT015 SCT100 TEMPO 1200/1203 VRB04KT 3000 TSRA BR SCT010 FEW030CB BKN080 BECMG 1204/1206 26010KT 6000 SCT015 SCT025 TEMPO 1209/1215 FEW030CB BECMG 1214/1216 28005KT 5000 BR SCT010 SCT015 BKN100 TEMPO 1223/1303 00000KT 3000 TSRA SCT010 FEW030CB OVC080 BECMG 1304/1306 26010KT 6000 SCT015 SCT025 BKN100
VOTR,TAF VOTR 112300Z 1200/1306 27005KT 3000 +DZ/BR SCT015 BKN080 BECMG 1206/1207 5000 BR BECMG 1300/1301 3000 BR BECMG 1303/1304 5000 HZ
VOTV,TAF VOTV 112300Z 1200/1306 VRB03KT 2500 BR SCT012 FEW025CB BECMG 1203/1205 25010KT 6000 SCT015 FEW025TCU TEMPO 1209/1214 20010G20KT 4000 TSRA RA SCT012 FEW025CB BKN080 BECMG 1214/1216 VRB03KT 3000 -RA BR SCT012 BKN080 BECMG 1220/1221 2500 BR FEW012 FEW025CB SCT080 BECMG 1303/1304 25010KT 6000 SCT015 FEW025TCU
VOVZ,TAF VOVZ 112000Z 1121/1206 VRB02KT 4500 BR SCT06 BKN080 TEMPO 1122/1202 3000 DZ BR SCT016 FEW022TCU BKN080 BECMG 1204/1206 07008KT 5000 BR SCT016 BKN080
VRMG,TAF VRMG 112300Z 1200/1306 27015KT 9000 FEW017TCU BKN120 TEMPO 1200/1206 28018G30KT 4000 SHRA FEW017CB
VRMH,TAF VRMH 112300Z 1200/1306 23015KT 8000 -RA SCT017TCU BKN110 TEMPO 1200/1206 24020G35KT 2000 +TSRA SCT017CB
VRMM,TAF VRMM 112300Z 1200/1306 25015KT 9000 SCT017TCU BKN100 TEMPO 1200/1206 30018G32KT 3000 SHRA SCT017CB
VTBD,TAF VTBD 112300Z 1200/1306 06008KT 9999 FEW020
VTBO,TAF VTBO 112300Z 1200/1224 00000KT 9999 -RA FEW020 SCT100 BECMG 1202/1204 06008KT NSW
VTBS,TAF VTBS 112300Z 1200/1306 08008KT 9999 FEW020
VTBU,TAF VTBU 112300Z 1200/1224 01007KT 9999 FEW020
VTCC,TAF VTCC 112300Z 1200/1306 16005KT 9999 SCT035 BECMG 1208/1210 24005KT BECMG 1215/1217 36005KT
VTCH,TAF VTCH 112300Z 1200/1224 00000KT 2000 BR SCT025 BECMG 1200/1202 25005KT 9999 NSW
VTCL,TAF VTCL 112300Z 1200/1224 20005KT 9999 SCT025
VTCN,TAF VTCN 112300Z 1200/1224 18005KT 9999 SCT025
VTCP,TAF VTCP 112300Z 1200/1224 35005KT 9999 SCT035 BECMG 1205/1207 13005KT
VTCT,TAF VTCT 112300Z 1200/1306 04005KT 9999 SCT035 BECMG 1214/1216 24005KT
VTPB,TAF VTPB 112300Z 1200/1224 36005KT 9999 FEW030
VTPH,TAF VTPH 112300Z 1200/1224 03006KT 9999 FEW020 SCT100 PROB40 TEMPO 1200/1204 VRB15G25KT 4000 TSRA FEW016CB SCT018 BKN100
VTPM,TAF VTPM 112300Z 1200/1224 07005KT 9999 FEW025
VTPO,TAF VTPO 112300Z 1200/1224 16005KT 9999 FEW020
VTPP,TAF VTPP 112300Z 1200/1224 17005KT 9999 FEW035
VTSB,TAF VTSB 112300Z 1200/1224 00000KT 8000 FEW020 SCT100 BECMG 1203/1205 05008KT TEMPO 1207/1212 VRB15G25KT 4000 TSRA FEW016CB SCT018 BKN100 BECMG 1213/1215 00000KT
VTSC,TAF VTSC 112300Z 1200/1224 22003KT 9999 FEW020 BKN100 BECMG 1204/1206 36010KT BECMG 1213/1215 19003KT
VTSE,TAF VTSE 112300Z 1200/1224 00000KT 8000 FEW020 BKN100 BECMG 1201/1203 04006KT TEMPO 1203/1212 VRB15G25KT 4000 TSRA FEW016CB SCT018 BKN100 BECMG 1213/1215 00000KT
VTSF,TAF VTSF 112300Z 1200/1224 30003KT 9999 FEW020 SCT100 BECMG 1201/1203 03008KT TEMPO 1203/1213 VRB15G25KT 4000 TSRA FEW016CB SCT018 BKN100 BECMG 1213/1215 33003KT
VTSG,TAF VTSG 112300Z 1200/1224 00000KT 9999 SCT020 BECMG 1204/1206 10006KT TEMPO 1206/1212 10015G25KT 3000 TSRA FEW018CB SCT020 BKN100
VTSM,TAF VTSM 112300Z 1200/1224 33006KT 9999 FEW020 PROB40 TEMPO 1200/1206 VRB15G25KT 4000 TSRA FEW016CB SCT018 BKN100 TEMPO 1214/1220 4000 RA
VTSP,TAF VTSP 112300Z 1200/1306 00000KT 9999 SCT020 BECMG 1204/1206 28006KT BECMG 1212/1214 00000KT
VTSR,TAF VTSR 112300Z 1200/1224 00000KT 9999 SCT020 BECMG 1204/1206 30006KT BECMG 1212/1214 00000KT
VTSS,TAF VTSS 112300Z 1200/1224 00000KT 3000 BR FEW020 BKN100 BECMG 1201/1203 9999 NSW BECMG 1203/1205 03006KT TEMPO 1206/1213 VRB15G25KT 4000 TSRA FEW016CB SCT018 BKN100 BECMG 1213/1215 00000KT
VTST,TAF VTST 112300Z 1200/1224 00000KT 9999 SCT020 BECMG 1204/1206 26006KT TEMPO 1206/1212 26015G25KT 3000 TSRA FEW018CB SCT020 BKN100
VTUD,TAF VTUD 112300Z 1200/1224 07008KT 9000 FEW030
VTUI,TAF VTUI 112300Z 1200/1224 06008KT 9000 FEW030
VTUK,TAF VTUK 112300Z 1200/1224 07008KT 9000 FEW030
VTUL,TAF VTUL 112300Z 1200/1224 07008KT 9000 FEW030
VTUO,TAF VTUO 112300Z 1200/1224 06007KT CAVOK
VTUQ,TAF VTUQ 112300Z 1200/1224 07005KT CAVOK
VTUU,TAF VTUU 112300Z 1200/1224 03008KT CAVOK
VTUV,TAF VTUV 112300Z 1200/1224 05007KT CAVOK
VTUW,TAF VTUW 112300Z 1200/1224 06008KT 9000 FEW030
VVCI,TAF VVCI 112300Z 1200/1224 05006KT 8000 NSC
VVCR,TAF VVCR 112300Z 1200/1224 03008KT 8000 FEW013 BKN050 TEMPO 1200/1203 4000 SHRA SCT010 FEW015CB BKN050 TEMPO 1208/1212 TS SCT013 FEW015CB BKN050
VVCT,TAF VVCT 112300Z 1200/1224 VRB03KT 9999 SCT013 SCT040 TEMPO 1206/1209 5000 SHRA BKN015 FEW017CB BKN040
VVDN,TAF VVDN 112300Z 1200/1224 03008KT 7000 SCT013 BKN050 TEMPO 1200/1202 4500 SHRA SCT013 FEW015CB BKN050 TEMPO 1210/1215 4500 RA
VVNB,TAF VVNB 112300Z 1200/1224 09003KT 6000 NSC BECMG 1221/1222 3000 BR
VVPB,TAF VVPB 112300Z 1200/1224 28006KT 7000 SCT013 BKN050 TEMPO 1200/1203 4000 SHRA SCT013 FEW015CB BKN050 TEMPO 1211/1216 4000 RA BECMG 1221/1222 4000 BR
VVPQ,TAF VVPQ 112300Z 1200/1224 VRB03KT 9999 SCT015
VVTS,TAF VVTS 112300Z 1200/1306 VRB02KT 9999 SCT015 SCT050 BECMG 1201/1202 35010KT TEMPO 1206/1211 3000 TSRA SCT013 SCT015CB BKN050
VYMD,TAF VYMD 112300Z 1200/1224 36005KT 7000 BKN020 TEMPO 1200/1206 23009KT 6000 BKN020 FEW025CB
VYNT,TAF VYNT 111700Z 1118/1218 16008KT 7000 SCT020 FEW025CB BKN120 TEMPO 1118/1124 13007KT 4000 -TSRA BKN015 FEW020CB BKN100
VYYY,TAF VYYY 112300Z 1200/1224 15008KT 7000 BKN016 FEW020CB BKN110 TEMPO 1204/1210 17010KT 140V230 4000 -TSRA/-RA BKN012 FEW016CB BECMG 1211/1212 14007KT 5000 DZ
WAAA,TAF WAAA 112300Z 1200/1306 09005KT 9999 SCT018 BECMG 1201/1203 27010KT TEMPO 1207/1211 4000 TSRA FEW017CB BECMG 1211/1213 10005KT
WABB,TAF WABB 112300Z 1200/1306 04005KT 9999 SCT018 TEMPO 1202/1205 5000 RA BKN016 BECMG 1206/1208 32005KT
WADD,TAF WADD 112300Z 1200/1300 VRB05KT 9999 SCT016 BECMG 1202/1204 16010KT
WADL,TAF WADL 112300Z 1200/1224 15010KT 8000 BKN016
WALL,TAF WALL 112300Z 1200/1306 27003KT 9000 -RA SCT018 BECMG 1200/1202 9999 NSW TEMPO 1204/1207 FEW017CB SCT018
WALS,TAF WALS 112300Z 1200/1212 VRB02KT 5000 BR SCT017 BECMG 1200/1202 9999 NSW
WAMM,TAF WAMM 112300Z 1200/1306 21009KT 9999 SCT020 BECMG 1211/1212 VRB03KT
WAOO,TAF WAOO 112300Z 1200/1224 04005KT 9000 SCT017 BECMG 1205/1207 20010KT PROB40 TEMPO 1206/1209 3000 RA
WAPP,TAF WAPP 112300Z 1200/1224 20010KT 9999 SCT017 TEMPO 1200/1204 5000 RA
WAQA,TAF WAQA 112300Z 1200/1212 14003KT 7000 -RA FEW012CB SCT012 BECMG 1200/1202 9999 NSW SCT012
WAQD,TAF WAQD 112300Z 1200/1212 00000KT 7000 FEW014CB FEW015 BECMG 1200/1202 9999 SCT015
WAQJ,TAF WAQJ 112300Z 1200/1212 00000KT 4000 BR BKN015 BECMG 1200/1202 9999 NSW
WAQQ,TAF WAQQ 112300Z 1200/1212 00000KT 8000 FEW015
WAQT,TAF WAQT 112300Z 1200/1212 VRB02KT 6000 BKN012 BECMG 1200/1202 9999 SCT015
WARR,TAF WARR 112300Z 1200/1300 26005KT 5000 HZ SCT020 BECMG 1201/1203 08010KT 9999 NSW PROB40 TEMPO 1207/1211 4000 TSRA SCT020CB BECMG 1216/1218 25005KT 4000 HZ
WATT,TAF WATT 112300Z 1200/1224 08008KT 9999 FEW017 BECMG 1201/1202 33012KT PROB40 TEMPO 1205/1209 5000 RA FEW015CB BKN015
WBGB,TAF WBGB 112300Z 1200/1300 10005KT 9999 FEW016 TEMPO 1200/1205 5000 RA FEW005 SCT014 TEMPO 1214/1218 28010G25KT 3000 TSRA FEW015CB SCT016
WBGG,TAF WBGG 112300Z 1200/1300 15005KT 9999 FEW020 TEMPO 1204/1208 35006KT 3000 TSRA FEW015CB SCT020
WBGR,TAF WBGR 112300Z 1200/1300 11005KT 9999 FEW016 TEMPO 1202/1206 3000 TSRA SCT014 FEW015CB TEMPO 1206/1212 5000 RA FEW005 SCT014
WBGS,TAF WBGS 112300Z 1200/1300 12005KT 9999 FEW018 TEMPO 1205/1209 29006KT 3000 TSRA FEW015CB SCT016 TEMPO 1209/1213 4000 RA SCT016
WBKK,TAF WBKK 112300Z 1200/1300 26005KT 9999 FEW014 FEW016CB TEMPO 1204/1208 3000 +RA FEW013 FEW016CB SCT035 BECMG 1210/1212 14005KT
WBKL,TAF WBKL 112300Z 1200/1224 VRB03KT 9999 FEW014 TEMPO 1208/1212 3000 +RA FEW010 SCT030
WBKS,TAF WBKS 112300Z 1200/1224 05005KT 9999 FEW015 PROB30 TEMPO 1212/1216 4000 TSRA FEW009 FEW016CB SCT035
WBKW,TAF WBKW 112300Z 1200/1224 18005KT 9999 FEW016 TEMPO 1200/1204 5000 TSRA FEW008 FEW016CB SCT027
WBSB,TAF WBSB 112300Z 1200/1306 22008KT 9999 FEW014 FEW015CB TEMPO 1203/1208 5000 SHRA BECMG 1204/1206 22012KT SCT014 FEW015CB
WIDD,TAF WIDD 112300Z 1200/1224 27010KT 9999 FEW014 PROB30 TEMPO 1202/1205 5000 TSRA FEW013CB
WIEE,TAF WIEE 112300Z 1200/1224 22006KT 9999 FEW020
WIHH,TAF WIHH 112300Z 1200/1300 15006KT 5000 HZ SCT018 TEMPO 1207/1211 24010KT 3000 -TSRA FEW017CB BKN018 BECMG 1213/1215 33004KT 4000 SCT020
WIII,TAF WIII 112300Z 1200/1306 VRB05KT 8000 SCT020 BECMG 1202/1204 36011KT TEMPO 1207/1211 5000 -TSRA FEW016CB BECMG 1212/1214 22005KT 3000 BR BECMG 1300/1302 VRB05KT 8000 NSW
WIMM,TAF WIMM 112300Z 1200/1300 20005KT 5000 -RA SCT018 BECMG 1202/1204 04010KT 9999 TEMPO 1214/1218 VRB05KT 5000 -TSRA FEW016CB BKN017
WIPB,TAF WIPB 112300Z 1200/1212 12005KT 9999 SCT010 TEMPO 1200/1202 5000 HZ TEMPO 1209/1212 5000 -RA FEW010CB BKN011
WIPP,TAF WIPP 111200Z 1200/1224 15007KT 9999 SCT010 TEMPO 1209/1212 5000 -TSRA BKN009 FEW010CB TEMPO 1221/1224 3000 BR
WITT,TAF WITT 111700Z 1118/1218 19006KT 9999 SCT018 TEMPO 1120/1122 -RA 15004KT
WMAP,TAF WMAP 112300Z 1200/1224 VRB02KT 9999 FEW018 TEMPO 1200/1204 4000 TSRA FEW017CB
WMBT,TAF WMBT 112300Z 1200/1224 VRB02KT 9999 FEW020 TEMPO 1200/1204 5000 TSRA FEW017CB
WMKA,TAF WMKA 112300Z 1200/1224 VRB02KT 9999 FEW028 BECMG 1205/1207 28010KT SCT020 TEMPO 1207/1211 5000 TSRA FEW017
WMKB,TAF WMKB 112300Z 1200/1224 VRB02KT 9000 FEW020 TEMPO 1200/1202 6000 TSRA FEW017CB BECMG 1206/1208 30006KT 9999 FEW020
WMKC,TAF WMKC 112300Z 1200/1224 34006KT 9999 FEW018
WMKE,TAF WMKE 112300Z 1200/1224 05006KT 9999 FEW017
WMKI,TAF WMKI 112300Z 1200/1224 05005KT 9999 FEW020 TEMPO 1206/1210 22006KT 6000 TSRA FEW017CB
WMKJ,TAF WMKJ 112300Z 1200/1300 VRB02KT 9999 FEW018 TEMPO 1200/1204 4000 TSRA FEW017CB
WMKK,TAF WMKK 112300Z 1200/1306 VRB02KT 9999 FEW018 PROB30 TEMPO 1200/1204 4000 TSRA FEW017CB TEMPO 1218/1223 4000 TSRA FEW017CB
WMKL,TAF WMKL 112300Z 1200/1224 VRB02KT 9999 SCT020 BECMG 1203/1205 24007KT
WMKM,TAF WMKM 112300Z 1200/1224 VRB02KT 9999 FEW018 PROB30 TEMPO 1200/1204 4000 TSRA FEW017CB TEMPO 1218/1223 4000 TSRA FEW017CB
WMKN,TAF WMKN 112300Z 1200/1224 36006KT 9999 FEW022 TEMPO 1200/1202 7000 -TSRA FEW017CB
WMKP,TAF WMKP 112300Z 1200/1300 00000KT 9000 FEW025 BECMG 1204/1206 22008KT FEW020 TEMPO 1208/1212 6000 TSRA FEW020
WMPA,TAF WMPA 112300Z 1200/1224 VRB02KT 9999 FEW021 TEMPO 1200/1203 30008KT 5000 TSRA FEW017CB
WMSA,TAF WMSA 112300Z 1200/1300 VRB02KT 9999 FEW018 PROB30 TEMPO 1200/1204 4000 TSRA FEW017CB TEMPO 1218/1223 4000 TSRA FEW017CB
WPDL,TAF AMD WPDL 112242Z 1200/1212 35008KT 9999 SCT035 FM121100 16006KT CAVOK PROB30 TEMPO 1205/1211 VRB20G35KT 1000 TSRA BKN010 SCT030CB
WSAP,TAF WSAP 112300Z 1200/1306 26008KT 9999 FEW015 BKN020 TEMPO 1220/1300 3000 TSRA FEW012CB BKN015
WSSL,TAF WSSL 112300Z 1200/1306 26008KT 9999 FEW015 BKN020 TEMPO 1220/1300 3000 TSRA FEW012CB BKN015
WSSS,TAF WSSS 112300Z 1200/1306 26008KT 9999 FEW015 BKN020 TEMPO 1220/1300 3000 TSRA FEW012CB BKN015
YAMB,TAF YAMB 112317Z 1123/1218 14010KT 9999 SCT040 FM120200 10012KT 9999 SCT045 FM121000 18006KT 9999 SCT040
YBAS,TAF AMD YBAS 112318Z 1123/1300 34020G30KT CAVOK FM120400 32017KT CAVOK FM120900 32010KT CAVOK BECMG 1212/1213 18014KT 9999 SCT020
YBBN,TAF YBBN 112303Z 1200/1306 13014KT 9999 SCT040 FM121000 20006KT 9999 FEW030 SCT050 FM121800 20007KT 9999 -SHRA FEW020 SCT030 FM122200 13008KT 9999 NSW SCT035 FM130100 07010KT 9999 SCT030
YBCG,TAF YBCG 112322Z 1200/1300 14017KT 9999 SCT030 FM121100 20008KT 9999 SCT025
YBCS,TAF YBCS 112303Z 1200/1300 12014KT 9999 -SHRA SCT030 FM120900 16008KT 9999 -SHRA SCT015 SCT025 INTER 1212/1300 4000 SHRA BKN012
YBHM,TAF YBHM 112200Z 1200/1212 13022KT 9999 BKN025
YBLN,TAF YBLN 112305Z 1200/1300 17008KT 9999 FEW040 BKN050 FM120500 19015G25KT 9999 SCT050 FM121000 18012KT 9999 SCT030 FM121500 VRB03KT 9999 SCT030
YBMA,TAF YBMA 112200Z 1200/1212 36012KT CAVOK
YBRK,TAF YBRK 112325Z 1200/1300 09012KT 9999 FEW040 FM120900 12008KT 9999 SCT020 FM121400 12008KT 9999 SCT015
YBRM,TAF YBRM 112307Z 1200/1300 28014KT CAVOK FM121000 29008KT CAVOK FM121700 22007KT 9999 SCT025 FM122000 14014KT 9999 SCT025
YBTL,TAF YBTL 112214Z 1123/1218 11013KT 9999 SCT025 FM120100 08017KT 9999 SCT030 FM120800 11012KT 9999 SCT025
YBWW,TAF YBWW 112329Z 1200/1300 10014KT 9999 SCT030 FM121000 10005KT 9999 SCT020
YCFS,TAF YCFS 112316Z 1123/1300 20010KT 9999 FEW010 SCT025 FM120000 20010KT 9999 SCT025 BKN045 FM120200 13010KT 9999 SCT045 FM121400 30005KT 9999 SCT045
YCIN,TAF AMD YCIN 112010Z 1120/1208 29005KT 9999 FU HZ FEW015 FM120000 27010KT CAVOK FM120500 30012KT CAVOK PROB30 1120/1122 1000 BR
YFRT,TAF AMD YFRT 112013Z 1120/1208 20005KT CAVOK FM120300 26010KT CAVOK
YGEL,TAF YGEL 112240Z 1200/1218 12008KT CAVOK FM120100 15012KT CAVOK FM120300 18016G26KT CAVOK FM121200 15012KT CAVOK
YGLA,TAF YGLA 112336Z 1200/1212 12014KT 9999 FEW045
YHID,TAF YHID 112303Z 1200/1300 11018KT 9999 SCT020 FM120900 12014KT 9999 -SHRA BKN018 INTER 1200/1202 3000 SHRA BKN010 INTER 1218/1300 3000 SHRA BKN010
YLHI,TAF AMD YLHI 112321Z 1200/1300 12014KT 9999 -SHRA SCT015 INTER 1200/1221 4000 SHRA BKN010
YMAV,TAF YMAV 112327Z 1200/1300 03017G30KT 9999 -SHRA SCT040 FM120600 04010KT 9999 -RA SCT020 BKN040 INTER 1206/1300 6000 RA SCT015 BKN025
YMHB,TAF YMHB 112316Z 1200/1300 03014KT 9999 SCT025 FM120300 04017G27KT 9999 SCT025 FM120900 04014KT 9999 SCT025 FM121400 04015G30KT 9999 -RA BKN025
YMLT,TAF AMD YMLT 112315Z 1200/1300 06008KT 9999 SCT035 FM120200 03015G25KT 9999 -SHRA SCT035 BECMG 1208/1209 03014KT 9999 -RA BKN035 BECMG 1219/1221 02015G25KT 9999 -RA BKN035 INTER 1215/1300 5000 RA BKN020
YMML,TAF AMD YMML 112324Z 1200/1306 01020KT 9999 -SHRA SCT020 BKN040 FM122100 01025G35KT 9999 -RA SCT020 BKN040 FM130300 01015KT 9999 -RA SCT020 BKN030 TEMPO 1218/1306 01020G30KT 4000 RA BKN020
YPAD,TAF YPAD 112325Z 1200/1306 25004KT 9999 -RA SCT015 FM120200 30008KT 9999 -RA SCT018 BKN025 BECMG 1210/1212 35005KT 9999 NSW BKN015 BKN020 FM121800 29005KT 9999 SCT025 BECMG 1303/1304 30015KT 9999 -SHRA SCT035 INTER 1200/1202 6000 -RA BKN012 TEMPO 1202/1207 4000 -RA BKN012
YPCC,TAF YPCC 112308Z 1200/1300 07010KT 9999 -SHRA SCT012 BKN030 INTER 1200/1300 3000 SHRA BKN008 SCT020TCU
YPDN,TAF AMD YPDN 112324Z 1200/1306 30005KT 9999 SCT025 FM120300 29012KT 9999 FEW030 FM121700 35005KT 9999 -SHRA SCT020 FM130300 30010KT 9999 NSW FEW030 PROB30 TEMPO 1200/1204 VRB20G35KT 1000 TSRA BKN010 SCT025CB PROB30 TEMPO 1220/1301 VRB20G35KT 1000 TSRA BKN010 SCT025CB
YPEA,TAF YPEA 112331Z 1200/1218 16005KT 9999 FEW040 FM120200 18010KT CAVOK FM120500 22015G25KT CAVOK FM121000 20010KT CAVOK
YPGV,TAF AMD YPGV 112227Z 1122/1208 08005KT 9999 SCT012 FM120000 04005KT 9999 -SHRA SCT015 INTER 1200/1208 3000 SHRA BKN014
YPJT,TAF YPJT 112256Z 1200/1218 VRB03KT 9999 FEW045 FM120100 18007KT 9999 SCT050 FM120400 22015G25KT CAVOK FM121100 18010KT CAVOK
YPKG,TAF YPKG 112304Z 1200/1300 20012KT CAVOK FM121200 17008KT CAVOK FM122000 19008KT 9999 BKN020
YPKU,TAF YPKU 111805Z 1120/1208 VRB04KT CAVOK FM120000 28007KT CAVOK FM120300 34010KT CAVOK
YPLM,TAF YPLM 112309Z 1200/1300 18020KT CAVOK FM121000 18014KT CAVOK FM121800 14014KT CAVOK
YPPD,TAF YPPD 112309Z 1200/1300 25014KT CAVOK FM120400 30020KT CAVOK FM121000 29014KT CAVOK FM121300 17014KT CAVOK FM121600 13016KT CAVOK
YPPH,TAF YPPH 112307Z 1200/1306 18007KT 9999 SCT050 FM120500 22015G25KT CAVOK FM121100 18010KT CAVOK FM121600 VRB03KT CAVOK FM130300 23008KT CAVOK
YPTN,TAF YPTN 112319Z 1200/1300 34005KT 9999 FEW020 FM120200 34005KT CAVOK FM121500 36005KT 9999 SCT030
YPWR,TAF YPWR 112317Z 1200/1218 20008KT 9999 -RA FEW015 BKN040 FM120200 20014KT 9999 -SHRA FEW025 BKN045 FM120900 18006KT 9999 -RA FEW035 FM121200 20012KT 9999 -RA NSC TEMPO 1200/1202 6000 RA BKN010 INTER 1202/1204 6000 RA BKN015
YPXM,TAF YPXM 112309Z 1200/1300 13012KT 9999 BKN008
YSCB,TAF AMD YSCB 112319Z 1200/1300 05012KT 9999 SCT030 FM120300 04010KT 9999 SCT050 FM121000 07008KT 9999 SCT025 BECMG 1211/1212 06008KT 9999 BKN018 FM122200 05008KT 9999 SCT025
YSDU,TAF YSDU 112319Z 1200/1218 07012KT 9999 SCT040
YSNF,TAF AMD YSNF 112333Z 1123/1300 09012KT 9999 -SHRA SCT012 BKN025 FM120900 12010KT 9999 -SHRA BKN015 BECMG 1218/1220 14014KT 9999 -SHRA SCT020 TEMPO 1123/1220 3000 SHRA BKN010 TEMPO 1220/1300 5000 SHRA BKN020
YSRI,TAF YSRI 112309Z 1200/1300 06008KT 9999 -SHRA SCT035 BKN045 FM121000 VRB03KT 9999 NSW SCT025 BKN035
YSSY,TAF YSSY 112326Z 1200/1306 02010KT 9999 -SHRA SCT030 BKN045 FM120200 06016KT 9999 NSW SCT035 FM121200 04008KT 9999 BKN035 FM122300 04018KT 9999 SCT030 INTER 1200/1202 5000 SHRA SCT015
YSTW,TAF YSTW 112319Z 1200/1218 09008KT CAVOK
YWLM,TAF YWLM 112207Z 1123/1218 06010KT 9999 SCT025 FM120100 08016KT 9999 SCT035 FM120900 06006KT 9999 FEW030
ZBAA,TAF ZBAA 112103Z 1200/1224 18003MPS CAVOK TX19/1207Z TN05/1221Z
ZBAD,TAF ZBAD 112103Z 1200/1224 20004MPS CAVOK TX18/1207Z TN08/1221Z
ZBHH,TAF ZBHH 112100Z 1200/1224 24004MPS CAVOK TX15/1207Z TNM03/1222Z
ZBSJ,TAF ZBSJ 112116Z 1200/1224 16004MPS 4000 BR NSC TX19/1207Z TN06/1221Z
ZBTJ,TAF ZBTJ 112110Z 1200/1224 21003MPS 5000 HZ NSC TX22/1206Z TN09/1221Z
ZBYN,TAF ZBYN 112101Z 1200/1224 21004MPS 5000 HZ NSC TX16/1207Z TN04/1221Z
ZGGG,TAF ZGGG 112101Z 1200/1224 02003MPS CAVOK TX29/1207Z TN21/1222Z
ZGHA,TAF ZGHA 112101Z 1200/1224 36004MPS 6000 NSC TX25/1207Z TN11/1222Z
ZGKL,TAF ZGKL 112105Z 1200/1224 05003MPS CAVOK TX29/1207Z TN16/1222Z
ZGNN,TAF ZGNN 112106Z 1200/1224 01003MPS CAVOK TX28/1207Z TN18/1222Z
ZGOW,TAF ZGOW 112101Z 1200/1224 12003MPS 6000 SCT050 TX29/1206Z TN18/1222Z
ZGSZ,TAF ZGSZ 112124Z 1200/1224 05004MPS 8000 FEW040 TX29/1206Z TN21/1222Z TEMPO 1202/1207 30004MPS
ZHCC,TAF ZHCC 112109Z 1200/1224 18003MPS 5000 HZ NSC TX19/1207Z TN07/1222Z
ZHHH,TAF ZHHH 112101Z 1200/1224 08003MPS 6000 NSC TX23/1207Z TN11/1221Z
ZJHK,TAF ZJHK 112107Z 1200/1224 05004MPS 9999 SCT020 TX28/1206Z TN22/1221Z
ZJSY,TAF ZJSY 112102Z 1200/1224 03004MPS 9999 FEW020 TX30/1206Z TN23/1221Z
ZKPY,TAF ZKPY 112245Z 1200/1224 24004MPS CAVOK TX18/1206Z TN05/1221Z
ZKWS,TAF ZKWS 112245Z 1200/1224 19004MPS CAVOK TX20/1206Z TN08/1221Z
ZLLL,TAF ZLLL 112108Z 1200/1224 04003MPS 6000 SCT040 TX14/1208Z TN06/1223Z TEMPO 1220/1224 4000 -RA
ZLXY,TAF ZLXY 112106Z 1200/1224 06003MPS 4000 HZ NSC TX17/1208Z TN10/1200Z
ZMCK,TAF ZMCK 112241Z 1200/1306 VRB02MPS 9999 SCT033 SCT100 TX07/1207Z TNM09/1222Z BECMG 1203/1205 29006MPS BECMG 1210/1212 VRB02MPS SCT100
ZMUB,TAF ZMUB 112241Z 1200/1306 VRB02MPS 9999 SCT033 SCT100 TX07/1207Z TNM11/1222Z
ZPPP,TAF ZPPP 112109Z 1200/1224 22004MPS 4000 BR SCT020 BKN033 TX18/1208Z TN11/1223Z
ZSAM,TAF ZSAM 112103Z 1200/1224 04007G13MPS 8000 BKN030 TX25/1206Z TN19/1221Z
ZSFZ,TAF ZSFZ 112115Z 1200/1224 03008G13MPS 6000 BKN020 TX23/1206Z TN18/1221Z BECMG 1201/1202 04012G18MPS BECMG 1212/1213 03008G13MPS
ZSHC,TAF ZSHC 112100Z 1200/1224 06003MPS 6000 NSC TX22/1206Z TN13/1221Z
ZSJN,TAF ZSJN 112104Z 1200/1224 22003MPS 5000 BR NSC TX21/1206Z TN04/1221Z
ZSNB,TAF ZSNB 112107Z 1200/1224 02004MPS 6000 SCT040 TX22/1206Z TN14/1221Z
ZSNJ,TAF ZSNJ 112102Z 1200/1224 08003MPS 3000 HZ NSC TX21/1206Z TN08/1221Z
ZSOF,TAF ZSOF 112101Z 1200/1224 11003MPS 3000 HZ NSC TX22/1207Z TN11/1222Z
ZSPD,TAF ZSPD 112105Z 1200/1224 02004MPS 6000 SCT033 TX20/1206Z TN16/1221Z
ZSQD,TAF ZSQD 112102Z 1200/1224 18003MPS 6000 NSC TX20/1206Z TN07/1221Z
ZSSS,TAF ZSSS 112105Z 1200/1224 02004MPS 6000 BKN033 TX21/1206Z TN17/1221Z
ZUCK,TAF ZUCK 112102Z 1200/1224 02003MPS 6000 FEW050 TX19/1208Z TN16/1222Z
ZUGY,TAF ZUGY 112103Z 1200/1224 03003MPS 6000 OVC033 TX17/1207Z TN11/1222Z
ZUUU,TAF ZUUU 112103Z 1200/1224 02003MPS 6000 SCT030 TX17/1207Z TN14/1221Z
ZWSH,TAF ZWSH 112103Z 1200/1224 33005MPS 8000 FEW040 TX20/1209Z TN12/1200Z BECMG 1205/1206 16004MPS BECMG 1217/1218 33005MPS
ZWWW,TAF ZWWW 112105Z 1200/1224 18004MPS CAVOK TX16/1209Z TN08/1223Z BECMG 1203/1204 36004MPS BECMG 1213/1214 18004MPS
ZYCC,TAF ZYCC 112112Z 1200/1224 19004MPS 6000 FEW030 TX16/1206Z TN07/1200Z
ZYHB,TAF ZYHB 112102Z 1200/1224 19004MPS 6000 FEW030 TX15/1206Z TN06/1221Z
ZYTL,TAF ZYTL 112102Z 1200/1224 23004MPS 6000 FEW033 TX18/1206Z TN07/1221Z
ZYTX,TAF ZYTX 112102Z 1200/1224 16003MPS CAVOK TX20/1206Z TN09/1221Z BECMG 1201/1202 22007MPS BECMG 1209/1210 16004MPS
