station_id,raw_text
AGGA,TAF AGGA 032310Z 0400/0424 VRB03KT 9999 FEW019 SCT030 PROB40 INTER 0400/0406 5000 TSRA BKN015 FEW016CB Q 1008 1006 1005 1007
AGGC,TAF AGGC 032310Z 0400/0424 05007KT 9999 FEW018 SCT030 PROB40 INTER 0400/0406 5000 TSRA BKN015 FEW016CB Q 1009 1007 1006 1008
AGGH,TAF AGGH 041110Z 0412/0512 VRB05KT 9999 FEW015 SCT028 T 24 23 25 27 Q 1009 1007 1006 1008
AGGK,TAF AGGK 032310Z 0400/0424 07007KT 9999 FEW019 SCT030 PROB40 INTER 0400/0406 5000 TSRA BKN015 FEW016CB
AGGL,TAF AGGL 032310Z 0400/0424 09007KT 9999 FEW018 SCT030 PROB40 INTER 0400/0406 5000 TSRA BKN015 FEW016CB Q 1010 1008 1007 1009
AGGM,TAF AGGM 041110Z 0412/0512 05010KT 9999 SCT016 BKN028 PROB40 INTER 0412/0419 5000 TSRA SCT015 FEW016CB Q 1008 1006 1005 1007
AGGN,TAF AGGN 041110Z 0412/0512 05010KT 9999 SCT016 BKN028 PROB40 INTER 0412/0419 5000 TSRA SCT015 FEW016CB Q 1008 1006 1005 1007
AGGR,TAF AGGR 032310Z 0400/0424 10015KT 9999 FEW018 SCT030 PROB40 INTER 0400/0406 5000 TSRA BKN015 FEW016CB Q 1011 1009 1008 1010
ANYN,TAF ANYN 040850Z 0412/0512 08010KT 9999 -RADZ SCT040 SCT140 T 26 25 25 29 Q 1008 1006 1007 1009
AYPY,TAF AYPY 040800Z 0412/0512 34010KT 9999 -RADZ SCCT030 BKN130 FM041400 31005KT 9999 SCT040 SCT140 PROB30 0419/0421 VRB03KT 0500 FG
BGAA,TAF AMD BGAA 041129Z 0411/0418 11005KT 9999 FEW010 BKN020 TEMPO 0411/0418 -SN BKN012
BGBW,TAF BGBW 041111Z 0412/0421 22006KT 9999 BKN100 TEMPO 0412/0415 BKN080 TEMPO 0415/0421 BKN030 PROB40 0418/0421 6000 -SN
BGCO,TAF AMD BGCO 040955Z 0409/0418 35028KT 0500 SN BLSN SCT007 BKN020 TEMPO 0409/0417 2000 -SN DRSN VV007
BGGH,TAF BGGH 041111Z 0412/0421 02014KT 9999 FEW200
BGJN,TAF BGJN 041111Z 0412/0421 04005KT 9999 FEW020 BECMG 0412/0415 02012KT
BGKK,TAF BGKK 041111Z 0412/0419 VRB05KT 9999 FEW010 SCT015 BKN030 BECMG 0412/0414 08024KT FEW015 SCT030 BKN070 TEMPO 0412/0414 4000 -SN BLSN DRSN TEMPO 0414/0419 08025G35KT 4000 BLSN DRSN SCT070 BKN120
BGMQ,TAF BGMQ 040855Z 0409/0418 02010KT 9999 FEW200 BECMG 0410/0412 25005KT
BGPT,TAF BGPT 040956Z 0410/0418 VRB02KT 9999 SCT100 TEMPO 0410/0418 BKN080 BECMG 0413/0415 15010KT
BGQQ,TAF BGQQ 040956Z 0410/0418 VRB02KT 9999 FEW200
BGSF,TAF BGSF 041100Z 0412/0424 04005KT 9999 FEW018 TEMPO 0412/0424 BKN018
BGSS,TAF BGSS 040956Z 0410/0418 10003KT 9999 FEW200 BECMG 0410/0412 33012KT
BGTL,TAF BGTL 041100Z 0411/0517 11008KT 9999 SKC QNH2994INS TXM21/0419Z TNM30/0502Z
BGUK,TAF BGUK 040956Z 0410/0418 06005KT 9999 FEW006 TEMPO 0412/0418 BKN006
BGUQ,TAF BGUQ 040855Z 0409/0418 25005KT 9999 FEW010
BIAR,TAF BIAR 041044Z 0412/0512 16015KT 9999 BKN040 TX10/0415Z TNM00/0506Z BECMG 0417/0419 35008KT TEMPO 0503/0512 3000 SN BKN008 OVC020
BIBD,TAF BIBD 041014Z 0411/0416 07008KT 9999 -RADZ SCT015 BKN022 TEMPO 0411/0416 12015G25KT 3000 RADZ BR BKN012 OVC020
BIEG,TAF BIEG 041044Z 0412/0512 16018KT 9999 BKN040 TX08/0415Z TN02/0506Z BECMG 0421/0423 01010KT BKN014 OVC022 TEMPO 0423/0506 4500 RADZ BR BKN008 OVC015 BECMG 0506/0508 20010KT BKN020
BIGR,TAF BIGR 041014Z 0411/0417 16018KT 9999 SCT050 BECMG 0414/0416 19008KT
BIIS,TAF BIIS 041014Z 0411/0417 04008KT 9999 -RA SCT012 OVC020 TEMPO 0411/0417 4500 RADZ BR OVC012
BIKF,TAF BIKF 041044Z 0412/0512 16020KT 9999 -SHRA BKN018 OVC025 TX08/0418Z TN03/0506Z TEMPO 0412/0512 SHRA BKN009 BECMG 0420/0421 16008KT
BIRK,TAF BIRK 041044Z 0412/0512 16018KT 9999 -SHRA BKN020 TX09/0415Z TN03/0506Z TEMPO 0412/0512 SHRA BKN012 BECMG 0417/0419 16008KT
BITN,TAF BITN 041014Z 0411/0413 17015KT 9999 SCT030
BIVM,TAF BIVM 041014Z 0411/0418 14015KT 9999 -RA BKN020 TEMPO 0411/0417 4000 RADZ BR BKN008 OVC012
BIVO,TAF BIVO 041014Z 0411/0415 25015KT 9999 SCT040 TEMPO 0411/0415 20022G32KT
BKPR,TAF BKPR 040530Z 0406/0506 35012KT 9999 SCT020 BKN040 TEMPO 0406/0506 1500 -SN BR BKN008 TEMPO 0406/0418 35025KT
CWSA,TAF CWSA 040741Z 0408/0420 19015KT P6SM OVC130 FM041200 20015KT P6SM FEW020 OVC050 TEMPO 0412/0415 BKN020 OVC050 FM041500 21015KT P6SM FEW003 BKN060 BKN140 FM041800 22015KT 5SM -RA DZ BR SCT003 BKN030 OVC060 PROB30 0418/0420 2SM -SHRA BR BKN003 OVC015 RMK FCST BASED ON AUTO OBS. NXT FCST BY 041400Z
CWWU,TAF CWWU 040805Z 0408/0506 23012G18KT P6SM SCT020 OVC100 TEMPO 0410/0416 4SM -SHSN OVC020 FM041600 24018G28KT OVC015 FM042200 22010G15KT BKN008 RMK NXT FCST BY 041200Z 
CYAH,TAF CYAH 041043Z 0411/0421 31012KT 6SM -SN OVC025 TEMPO 0411/0421 1 1/2SM -SHSN OVC015 RMK FCST BASED ON AUTO OBS. NXT FCST BY 041800Z
CYAM,TAF CYAM 040740Z 0408/0420 06008KT P6SM BKN015 BKN180 TEMPO 0408/0414 SCT015 BKN180 PROB30 0408/0414 2SM BR OVC008 FM041400 07012KT P6SM BKN015 BKN180 TEMPO 0414/0418 BKN025 BKN180 FM041800 08010G20KT P6SM BKN025 OVC120 RMK NXT FCST BY 041400Z
CYAT,TAF AMD CYAT 041105Z 0411/0419 29005KT P6SM BKN025 TEMPO 0411/0419 5SM -SN OVC012 BECMG 0414/0416 32007KT RMK FCST BASED ON AUTO OBS. NXT FCST BY 041500Z
CYAW,TAF AMD CYAW 041006Z 0410/0422 VRB03KT P6SM FEW020 SCT080 BKN240 FM041200 20008KT P6SM BKN240 FM041500 22012KT P6SM BKN120 BKN250 FM042000 22012KT P6SM FEW008 SCT025 OVC090 RMK NXT FCST BY 041200Z
CYAY,TAF CYAY 040740Z 0408/0420 22010KT P6SM SCT060 BECMG 0410/0412 26012KT BECMG 0416/0418 26012G22KT RMK FCST BASED ON AUTO OBS. NXT FCST BY 041400Z
CYBC,TAF AMD CYBC 040806Z 0408/0420 32005KT P6SM SCT025 OVC060 TEMPO 0408/0411 5SM -SN BR BKN020 OVC060 PROB30 0408/0411 1 1/2SM -SN -FZDZ BR BKN005 OVC012 FM041100 33005KT P6SM SCT012 BKN030 TEMPO 0411/0415 P6SM -SN BKN012 OVC030 FM041500 27015G25KT P6SM BKN040 BECMG 0416/0418 28020G30KT FEW040 RMK FCST BASED ON AUTO OBS. NXT FCST BY 041400Z
CYBG,TAF CYBG 040540Z 0406/0506 27005KT 2 1/2SM -SHSN FEW003 OVC020 TEMPO 0406/0409 P6SM NSW BKN030 OVC050 BECMG 0407/0409 28012G22KT FM040900 28012G22KT P6SM BKN030 TEMPO 0409/0415 3SM -SHSN BR BKN020 BECMG 0413/0415 29015G25KT FM041500 29015G25KT P6SM FEW020 BKN030 BECMG 0420/0422 FEW030 FM042200 29012G22KT P6SM FEW030 BECMG 0503/0505 28008KT RMK NXT FCST BY 041200Z
CYBK,TAF AMD CYBK 040649Z 0406/0418 VRB03KT P6SM SCT015 TEMPO 0406/0414 P6SM -SN BKN015 RMK NXT FCST BY 041200Z
CYBR,TAF CYBR 040540Z 0406/0418 05012KT P6SM SCT100 TEMPO 0406/0412 SCT040 BKN100 RMK NXT FCST BY 041200Z
CYBX,TAF CYBX 040740Z 0408/0420 VRB03KT P6SM SCT120 BECMG 0412/0414 21008KT FM041800 23012KT P6SM SCT080 PROB30 0419/0420 BKN006 RMK NXT FCST BY 041400Z
CYCA,TAF CYCA 040740Z 0408/0420 23008KT P6SM FEW030 BECMG 0413/0415 28012G22KT RMK FCST BASED ON AUTO OBS. NXT FCST BY 041400Z
CYCB,TAF CYCB 040640Z 0407/0419 07010KT P6SM FEW050 SCT250 TEMPO 0407/0419 3SM IC BECMG 0413/0415 12012KT RMK NXT FCST BY 041300Z
CYCO,TAF CYCO 040640Z 0407/0419 VRB03KT P6SM SCT030 TEMPO 0407/0409 6SM IC BKN030 FM040900 VRB03KT P6SM BKN030 TEMPO 0409/0415 5SM -SN IC BKN020 BECMG 0412/0414 23010KT RMK NXT FCST BY 041300Z
CYCX,TAF AMD CYCX 041007Z 0410/0422 21006KT P6SM SCT050 SCT200 BECMG 0413/0415 27008G18KT RMK NXT FCST BY 041500Z
CYCY,TAF CYCY 040647Z 0407/0419 30012KT P6SM SKC RMK FCST BASED ON AUTO OBS. NXT FCST BY 041300Z
CYDB,TAF CYDB 040540Z 0406/0418 12012KT P6SM BKN180 FM041500 13005KT P6SM BKN120 RMK FCST BASED ON AUTO OBS. NXT FCST BY 041200Z
CYDF,TAF AMD CYDF 041009Z 0410/0420 VRB03KT 1 1/2SM -SN VV008 TEMPO 0410/0412 6SM -SN OVC025 FM041200 23012KT P6SM BKN030 TEMPO 0412/0414 5SM -SN OVC020 FM041400 24010G20KT P6SM BKN030 TEMPO 0414/0416 BKN020 RMK NXT FCST BY 041400Z
CYDP,TAF CYDP 040940Z 0410/0422 28010KT P6SM FEW220 BECMG 0412/0414 29015G25KT FM042000 29015G25KT P6SM BKN025 TEMPO 0420/0422 BKN020 RMK NXT FCST BY 041400Z
CYEG,TAF CYEG 040841Z 0409/0506 15005KT P6SM FEW080 BKN210 TEMPO 0410/0413 1 1/2SM BR FM041300 13004KT 4SM BR FEW004 TEMPO 0413/0415 1/2SM FZFG VV004 BECMG 0415/0416 P6SM NSW SCT220 FM041600 12004KT P6SM FEW080 BKN200 BECMG 0418/0420 09006KT FEW020 SCT200 FM042000 09008KT P6SM SCT025 SCT080 TEMPO 0422/0501 P6SM VCSH BKN025 BECMG 0422/0424 13012KT FM050300 14010KT P6SM SCT200 RMK NXT FCST BY 041200Z
CYEK,TAF CYEK 040540Z 0406/0418 29005KT P6SM FEW012 TEMPO 0406/0412 3SM BR BKN008 RMK FCST BASED ON AUTO OBS. NXT FCST BY 041200Z
CYER,TAF CYER 040840Z 0409/0419 26005KT P6SM OVC020 TEMPO 0412/0416 OVC030 FM041800 03007KT P6SM OVC030 RMK FCST BASED ON AUTO OBS. NXT FCST BY 041500Z
CYEU,TAF CYEU 041040Z 0411/0423 VRB03KT P6SM SKC RMK ADVISORY OFFSITE. NXT FCST BY 041800Z
CYEV,TAF CYEV 040640Z 0407/0419 07006KT P6SM FEW015 FEW250 FM041200 11006KT P6SM FEW120 BKN200 RMK NXT FCST BY 041300Z
CYFB,TAF CYFB 040540Z 0406/0506 34020KT P6SM BKN190 RMK NXT FCST BY 041200Z
CYFC,TAF CYFC 040541Z 0406/0418 21010KT P6SM FEW050 TEMPO 0406/0412 BKN050 FM041200 23006KT P6SM SCT050 BECMG 0413/0415 25010G20KT FM041700 26010G20KT P6SM BKN040 RMK FCST BASED ON AUTO OBS. NXT FCST BY 041200Z
CYFS,TAF CYFS 040540Z 0406/0418 VRB03KT P6SM FEW140 BKN180 FM040800 VRB03KT P6SM FEW250 PROB40 0408/0418 3/4SM BR RMK NXT FCST BY 041200Z
CYGL,TAF AMD CYGL 040848Z 0408/0506 31005KT P6SM BKN006 TEMPO 0409/0415 BKN010 FM041500 28010KT P6SM -SN BKN012 FM041800 28010KT P6SM SCT012 BKN025 FM050000 VRB03KT P6SM FEW030 RMK NXT FCST BY 041200Z
CYGP,TAF CYGP 040741Z 0408/0420 VRB03KT P6SM BKN020 BKN100 TEMPO 0408/0412 SCT020 BKN100 PROB30 0408/0412 BKN006 OVC020 FM041200 27008G18KT P6SM FEW015 SCT090 TEMPO 0412/0415 BKN015 BKN090 FM041500 27010G20KT P6SM BKN030 TEMPO 0415/0420 P6SM -SHRA RMK NXT FCST BY 041400Z
CYGQ,TAF CYGQ 040740Z 0408/0420 04006KT P6SM SKC BECMG 0415/0417 08012KT RMK FCST BASED ON AUTO OBS. NXT FCST BY 041400Z
CYGR,TAF AMD CYGR 041111Z 0411/0423 22008G18KT 3SM -SN BKN005 OVC020 TEMPO 0411/0414 P6SM NSW FEW005 OVC030 FM041400 23012KT P6SM BKN030 TEMPO 0414/0421 BKN020 FM042100 27008KT P6SM BKN050 RMK NXT FCST BY 041400Z
CYGV,TAF AMD CYGV 040914Z 0409/0420 24005KT P6SM -SN SCT012 OVC040 TEMPO 0409/0412 2SM -SN BKN007 OVC012 PROB30 0409/0412 3SM -FZDZ BR BKN006 OVC012 FM041200 03006KT P6SM SCT008 OVC025 TEMPO 0412/0418 5SM -SN BKN008 OVC025 PROB30 0412/0418 3SM -FZDZ BR BKN006 FM041800 26015G25KT P6SM SCT006 BKN015 OVC025 RMK FCST BASED ON AUTO OBS. NXT FCST BY 041400Z
CYGW,TAF CYGW 040540Z 0406/0418 35005KT P6SM OVC015 TEMPO 0406/0418 2SM -SN OVC008 BECMG 0413/0415 33012KT RMK FCST BASED ON AUTO OBS. NXT FCST BY 041200Z
CYGX,TAF CYGX 040640Z 0407/0419 VRB03KT P6SM FEW090 RMK NXT FCST BY 041300Z
CYHD,TAF CYHD 040740Z 0408/0420 06010KT P6SM FEW020 BKN150 FM041700 06012KT P6SM OVC040 RMK FCST BASED ON AUTO OBS. NXT FCST BY 041400Z
CYHK,TAF CYHK 040540Z 0406/0418 05007KT P6SM SKC TEMPO 0406/0414 5SM IC BR BECMG 0414/0416 16007KT RMK FCST BASED ON AUTO OBS. NXT FCST BY 041200Z
CYHM,TAF AMD CYHM 040823Z 0408/0506 VRB03KT 6SM -RA BR FEW015 OVC050 TEMPO 0408/0413 2SM RA BR FEW002 OVC015 PROB40 0408/0413 1/2SM FG VV002 FM041300 05006KT 2SM BR SCT004 OVC006 TEMPO 0413/0418 6SM BR BKN008 OVC015 PROB30 0413/0414 3/4SM BR OVC004 FM041800 06012KT P6SM BKN008 OVC015 BECMG 0418/0420 06012G22KT FM042100 06012G22KT P6SM BKN008 OVC050 FM050300 06015G30KT 6SM -DZ BR BKN006 OVC012 RMK NXT FCST BY 041200Z
CYHU,TAF CYHU 040540Z 0406/0506 30006KT P6SM SCT070 SCT240 FM041000 VRB03KT P6SM SCT015 PROB30 0410/0413 2 1/2SM BR SCT006 BKN015 FM041400 03008KT P6SM SCT015 SCT060 FM041700 03010KT P6SM BKN030 FM050500 04012G22KT P6SM FEW040 BKN110 RMK FCST BASED ON AUTO OBS. NXT FCST BY 041200Z
CYHY,TAF CYHY 040540Z 0406/0418 VRB03KT P6SM SCT040 BKN080 TEMPO 0406/0408 3SM -SHSN BKN040 FM040800 VRB03KT P6SM FEW030 BKN080 FM041000 VRB03KT P6SM SCT080 TEMPO 0410/0418 1SM BR SCT004 PROB30 0410/0418 1/2SM FZFG VV002 RMK NXT FCST BY 041200Z
CYHZ,TAF CYHZ 040840Z 0409/0506 21012G22KT P6SM FEW020 BKN070 TEMPO 0409/0412 FEW003 BKN020 PROB30 0409/0412 2SM BR BKN003 FM041200 20008KT P6SM SCT020 BKN240 TEMPO 0412/0415 BKN020 BKN240 FM041500 22015KT P6SM SCT020 BKN200 FM041800 23012G22KT P6SM BKN030 BKN120 BECMG 0422/0424 24009KT FM050000 24009KT P6SM FEW050 BKN120 FM050300 27008KT P6SM SCT030 BKN230 BECMG 0504/0506 35012KT RMK NXT FCST BY 041200Z
CYIO,TAF CYIO 040648Z 0407/0419 20005KT P6SM SKC TEMPO 0407/0415 5SM IC BR RMK FCST BASED ON AUTO OBS. NXT FCST BY 041300Z
CYIV,TAF CYIV 040640Z 0407/0419 VRB03KT P6SM SKC RMK FCST BASED ON AUTO OBS. NXT FCST BY 041300Z
CYJT,TAF AMD CYJT 041014Z 0410/0506 22012KT 3SM -SN BKN005 OVC015 TEMPO 0410/0415 6SM -SN SCT005 OVC015 FM041500 24012G22KT 5SM -SHSN OVC006 TEMPO 0415/0423 P6SM NSW OVC012 FM042300 26010G20KT 4SM BR OVC004 FM050100 24012KT 1 1/2SM -SN -DZ BR OVC003 FM050500 27015G25KT P6SM BKN015 RMK NXT FCST BY 041200Z
CYKA,TAF CYKA 040640Z 0407/0419 VRB03KT P6SM SCT090 BKN200 FM041000 09005KT P6SM SCT020 SCT060 TEMPO 0410/0416 2SM BR BKN015 FM041600 09005KT P6SM SCT040 BECMG 0416/0418 27008KT RMK NXT FCST BY 041300Z
CYKF,TAF AMD CYKF 040831Z 0408/0420 20005KT 5SM -RA BR BKN004 OVC015 TEMPO 0408/0413 P6SM -RA SCT004 OVC015 PROB30 0408/0413 3/4SM BR BKN003 FM041300 06006KT 6SM BR OVC012 PROB30 0413/0414 3/4SM BR BKN004 OVC015 FM041500 09010KT P6SM OVC015 BECMG 0418/0420 09015KT RMK FCST BASED ON AUTO OBS. NXT FCST BY 041400Z
CYKJ,TAF CYKJ 040940Z 0410/0422 20004KT P6SM BKN030 OVC060 TEMPO 0410/0416 5SM -SN BKN020 OVC040 FM041900 22004KT P6SM BKN025 TEMPO 0420/0422 4SM -SHSN BKN020 RMK FCST BASED ON AUTO OBS. NXT FCST BY 041300Z
CYKL,TAF CYKL 040740Z 0408/0420 33008KT P6SM SCT012 BKN025 TEMPO 0408/0415 2SM -SHSN BKN012 PROB40 0408/0414 BKN007 FM041500 35012KT P6SM BKN030 TEMPO 0415/0420 5SM -SN BKN020 RMK FCST BASED ON AUTO OBS. NXT FCST BY 041400Z
CYLL,TAF CYLL 040540Z 0406/0418 18007KT P6SM OVC040 TEMPO 0406/0414 P6SM -SN BECMG 0414/0416 FEW040 FM041600 18007KT P6SM SKC RMK FCST BASED ON AUTO OBS. NXT FCST BY 041200Z
CYLT,TAF AMD CYLT 040603Z 0406/0418 VRB03KT 1/4SM FZFG VV002 TEMPO 0406/0418 2SM BR FEW030 RMK NXT FCST BY 041200Z
CYLW,TAF CYLW 040640Z 0407/0419 VRB03KT P6SM SCT060 BKN200 TEMPO 0407/0410 5SM -SHRASN BR BKN050 FM041000 VRB03KT P6SM BKN050 TEMPO 0410/0415 3SM BR BECMG 0416/0418 35008KT SCT030 SCT080 RMK FCST BASED ON AUTO OBS. NXT FCST BY 041300Z
CYMA,TAF CYMA 040540Z 0406/0418 VRB03KT P6SM FEW060 SCT200 RMK NXT FCST BY 041200Z
CYMH,TAF CYMH 040840Z 0409/0421 23010KT P6SM SKC BECMG 0412/0414 26010G20KT RMK FCST BASED ON AUTO OBS. NXT FCST BY 041400Z
CYMJ,TAF AMD CYMJ 041106Z 0411/0423 06005KT P6SM FEW015 BKN030 OVC070 TEMPO 0411/0418 4SM -SN BKN015 OVC030 BECMG 0416/0418 05008KT FM041800 05008KT P6SM SCT015 BKN060 TEMPO 0418/0422 BKN015 OVC060 RMK NXT FCST BY 041200Z
CYMM,TAF AMD CYMM 040919Z 0409/0419 VRB02KT P6SM OVC025 TEMPO 0411/0414 OVC020 BECMG 0414/0415 SCT025 FM041500 VRB02KT P6SM SKC BECMG 0417/0419 11004KT RMK FCST BASED ON AUTO OBS. NXT FCST BY 041300Z
CYMO,TAF AMD CYMO 041128Z 0411/0418 32006KT P6SM OVC007 TEMPO 0411/0414 SCT007 OVC012 FM041400 VRB03KT P6SM BKN012 TEMPO 0414/0417 SCT012 FM041700 04008KT P6SM FEW015 RMK FCST BASED ON AUTO OBS. NXT FCST BY 041200Z
CYMX,TAF CYMX 040540Z 0406/0506 26005KT P6SM FEW080 SCT250 FM040900 VRB03KT 6SM BR SCT015 SCT060 PROB30 0409/0413 3/4SM BR BKN003 BKN015 FM041300 VRB03KT P6SM SCT020 SCT060 FM041600 05005KT P6SM BKN030 BECMG 0419/0421 05008KT FM050500 05010G20KT P6SM FEW030 BKN110 RMK NXT FCST BY 041200Z
CYNA,TAF CYNA 040741Z 0408/0420 25007KT P6SM FEW050 SCT090 TEMPO 0408/0412 P6SM -SN BKN020 OVC050 FM041200 05005KT P6SM BKN020 OVC040 TEMPO 0412/0415 SCT020 OVC040 FM041500 21008KT P6SM -SN BKN010 OVC025 PROB30 0415/0418 3SM -FZDZ BR FM041800 19009KT P6SM -SHSN BKN015 OVC030 RMK FCST BASED ON AUTO OBS. NXT FCST BY 041400Z
CYNE,TAF CYNE 040640Z 0407/0419 VRB03KT P6SM SKC RMK FCST BASED ON AUTO OBS. NXT FCST BY 041300Z
CYOD,TAF CYOD 040540Z 0406/0506 18005KT P6SM FEW015 BKN060 TEMPO 0406/0418 3SM -SN SCT008 BKN015 OVC060 PROB30 0410/0415 2SM -FZDZ BR BKN008 OVC015 FM041800 18005KT P6SM SCT008 BKN025 FM042100 18005KT P6SM SCT025 RMK NXT FCST BY 041200Z
CYOJ,TAF CYOJ 040640Z 0407/0419 33005KT P6SM BKN050 FM041000 02005KT P6SM SCT015 BKN030 TEMPO 0410/0417 5SM -SN BKN015 OVC025 FM041700 02003KT P6SM BKN020 BECMG 0418/0419 BKN025 RMK FCST BASED ON AUTO OBS. NXT FCST BY 041300Z
CYOO,TAF CYOO 040740Z 0408/0420 VRB03KT P6SM OVC110 TEMPO 0408/0409 6SM -SHRA BR SCT004 BKN040 OVC080 PROB30 0408/0409 3/4SM BR OVC004 FM040900 VRB03KT P6SM -RA BKN025 OVC100 TEMPO 0409/0413 5SM -RA BR BKN006 OVC025 PROB30 0409/0413 1/2SM FG VV002 FM041300 VRB03KT P6SM SCT006 BKN015 BECMG 0415/0417 11010KT RMK FCST BASED ON AUTO OBS. NXT FCST BY 041400Z
CYOW,TAF CYOW 040840Z 0409/0506 35008KT P6SM FEW080 SCT220 PROB30 0410/0413 1SM BR BKN003 FM041400 35010KT P6SM SCT015 SCT050 TEMPO 0414/0418 BKN015 BKN050 BECMG 0416/0418 01012KT FM050200 04012KT P6SM BKN025 BKN100 BECMG 0504/0506 07010G20KT RMK NXT FCST BY 041200Z
CYOY,TAF CYOY 032340Z 0400/0412 VRB03KT 2SM -SHSN BR BKN008 OVC015 TEMPO 0400/0408 P6SM NSW FEW008 OVC020 PROB30 0401/0406 1SM BR VV003 FM040800 VRB03KT P6SM BKN020 BECMG 0408/0410 SCT020 RMK NXT FCST BY 040600Z
CYPA,TAF CYPA 040640Z 0407/0419 VRB03KT P6SM SCT100 BKN240 RMK NXT FCST BY 041300Z
CYPE,TAF AMD CYPE 040917Z 0409/0419 35008KT P6SM FEW050 BECMG 0412/0414 BKN070 FM041400 02007KT P6SM BKN040 BKN070 TEMPO 0414/0419 5SM -SHSN BKN030 RMK NXT FCST BY 041300Z
CYPH,TAF CYPH 040540Z 0406/0418 35008KT P6SM OVC010 TEMPO 0406/0415 3SM -SN IC OVC008 PROB30 0406/0415 BKN006 FM041500 35012KT P6SM BKN012 TEMPO 0415/0418 SCT012 RMK FCST BASED ON AUTO OBS. NXT FCST BY 041200Z
CYPL,TAF CYPL 040740Z 0408/0420 08008KT P6SM FEW015 RMK FCST BASED ON AUTO OBS. AUTO OBS REP NON-REPRESENTATIVE PCPN. NXT FCST BY 041400Z
CYPQ,TAF CYPQ 040940Z 0410/0422 VRB03KT P6SM OVC080 TEMPO 0410/0415 P6SM -RA SCT006 OVC015 PROB30 0410/0415 OVC006 FM041500 05008KT P6SM SCT015 BKN030 TEMPO 0415/0422 SCT008 BKN015 OVC030 BECMG 0419/0421 07012KT RMK FCST BASED ON AUTO OBS. NXT FCST BY 041400Z
CYPR,TAF CYPR 040640Z 0407/0419 VRB03KT P6SM SCT025 FM040900 10006KT P6SM BKN240 BECMG 0416/0418 13008KT SCT015 BKN150 RMK FCST BASED ON AUTO OBS. NXT FCST BY 041300Z
CYPX,TAF AMD CYPX 040739Z 0407/0418 30013KT P6SM SCT006 BKN025 OVC140 TEMPO 0407/0414 5SM -SN BKN007 OVC020 FM041400 31012KT P6SM SCT060 BKN140 TEMPO 0414/0418 BKN060 RMK FCST BASED ON AUTO OBS. NXT FCST BY 041200Z
CYQB,TAF CYQB 040540Z 0406/0506 24008KT P6SM FEW015 SCT070 TEMPO 0406/0414 BKN015 BKN070 PROB30 0410/0413 2SM BR BKN004 OVC015 FM041500 24012KT P6SM SCT030 BECMG 0419/0421 30012KT FM050000 33010KT P6SM SCT230 FM050300 01008KT P6SM SCT150 BKN230 RMK NXT FCST BY 041200Z
CYQD,TAF CYQD 040640Z 0407/0419 VRB03KT P6SM SKC RMK FCST BASED ON AUTO OBS. NXT FCST BY 041300Z
CYQF,TAF AMD CYQF 040910Z 0409/0418 15005KT 1/4SM FZFG VV002 TEMPO 0409/0415 3SM BR BKN006 BECMG 0415/0416 P6SM NSW BKN008 FM041600 19005KT P6SM SCT008 BECMG 0416/0417 SCT220 FM041700 19005KT P6SM SCT220 RMK FCST BASED ON AUTO OBS. NXT FCST BY 041200Z
CYQG,TAF CYQG 040540Z 0406/0506 05007KT P6SM FEW005 OVC040 TEMPO 0406/0408 2SM -RA BR OVC005 FM040800 05008KT 2SM BR OVC005 TEMPO 0408/0414 6SM -RA BR FEW005 BKN015 OVC030 PROB30 0408/0414 3/4SM -DZ BR OVC002 FM041400 07008KT 2SM -DZ BR SCT004 OVC006 PROB30 0414/0416 1 1/2SM BR BKN004 OVC006 FM041600 07010KT P6SM OVC008 FM041800 07012KT P6SM SCT008 BKN015 FM042000 07012KT P6SM BKN025 FM050300 11012KT P6SM SCT006 OVC025 RMK FCST BASED ON AUTO OBS. NXT FCST BY 041200Z
CYQH,TAF CYQH 040540Z 0406/0418 VRB03KT P6SM FEW060 PROB30 0410/0418 1SM BR BKN004 RMK NXT FCST BY 041200Z
CYQI,TAF CYQI 040541Z 0406/0418 18012KT P6SM BKN120 BECMG 0407/0409 25012G22KT FM041200 24012KT P6SM OVC070 FM041500 26012KT P6SM OVC040 TEMPO 0415/0418 3SM -RA BR BKN008 OVC025 RMK NXT FCST BY 041200Z
CYQK,TAF CYQK 040740Z 0408/0420 07008KT P6SM FEW020 BKN040 TEMPO 0408/0410 BKN020 FM041500 07012KT P6SM OVC030 BECMG 0418/0420 BKN040 RMK NXT FCST BY 041400Z
CYQL,TAF AMD CYQL 041103Z 0411/0418 03005KT P6SM SCT005 OVC010 TEMPO 0411/0414 2SM BR OVC005 FM041600 06005KT P6SM BKN012 BKN020 BECMG 0416/0417 SCT025 FM041700 02005KT P6SM FEW030 RMK FCST BASED ON AUTO OBS. NXT FCST BY 041200Z
CYQM,TAF CYQM 040540Z 0406/0506 21012KT P6SM FEW020 BKN060 TEMPO 0406/0411 5SM -SHSN BKN020 BKN060 BECMG 0406/0407 22012KT FM041100 24010KT P6SM FEW030 FM041500 23012G22KT P6SM BKN030 FM041800 25012G22KT P6SM SCT050 TEMPO 0418/0424 BKN050 BECMG 0421/0423 27008KT FM050000 27008KT P6SM BKN050 BECMG 0501/0503 32009KT FM050500 32010KT P6SM SCT050 RMK NXT FCST BY 041200Z
CYQQ,TAF CYQQ 040540Z 0406/0506 VRB03KT P6SM FEW070 BECMG 0406/0408 30005KT FM041100 30005KT P6SM SCT025 TEMPO 0411/0418 BKN020 FM041800 36005KT P6SM FEW030 SCT250 BECMG 0419/0421 14005KT RMK NXT FCST BY 041200Z
CYQR,TAF CYQR 040540Z 0406/0506 08008KT P6SM FEW080 SCT180 TEMPO 0406/0412 P6SM -SN FEW020 BKN080 FM041200 05006KT P6SM FEW020 BKN070 TEMPO 0412/0421 5SM -SN BKN020 OVC070 FM042100 03008KT P6SM SCT020 BKN040 BECMG 0502/0504 32006KT RMK NXT FCST BY 041200Z
CYQT,TAF CYQT 040740Z 0408/0420 08012KT 6SM -SN OVC020 TEMPO 0408/0416 P6SM NSW OVC030 PROB30 0411/0414 BKN008 FM041600 07012KT P6SM OVC040 FM041900 07012G22KT P6SM -SHSN OVC030 RMK NXT FCST BY 041400Z
CYQU,TAF CYQU 040640Z 0407/0419 33005KT P6SM SKC BECMG 0409/0411 VRB02KT FM041100 VRB02KT 6SM BR SKC TEMPO 0411/0413 1/2SM FZFG VV004 FM041300 VRB02KT 1/4SM FZFG VV002 TEMPO 0413/0415 1 1/2SM BR BKN006 BECMG 0415/0416 P6SM NSW BKN006 FM041600 29005KT P6SM BKN006 BECMG 0416/0418 SCT010 FM041800 29005KT P6SM SCT010 BECMG 0418/0419 SKC RMK NXT FCST BY 041300Z
CYQX,TAF CYQX 040540Z 0406/0506 25012G22KT P6SM SCT015 TEMPO 0406/0408 BKN015 FM040800 24012G22KT P6SM SCT015 OVC080 TEMPO 0408/0410 BKN015 OVC080 FM041000 23012G22KT P6SM -SN OVC030 TEMPO 0410/0414 5SM -SN OVC020 FM041400 23012G22KT P6SM BKN030 TEMPO 0414/0416 BKN020 BECMG 0416/0418 25015G25KT FM042300 22012G22KT P6SM BKN030 FM050500 23012KT P6SM BKN012 RMK NXT FCST BY 041200Z
CYQY,TAF AMD CYQY 041049Z 0410/0418 21008G18KT 3SM -SN OVC005 TEMPO 0410/0412 P6SM NSW SCT005 OVC015 FM041200 22010G20KT P6SM FEW005 BKN015 OVC025 TEMPO 0412/0415 SCT015 BKN025 PROB30 0412/0414 BKN005 OVC015 FM041500 23010G20KT P6SM BKN020 OVC030 BECMG 0415/0417 28010G20KT BKN030 BKN050 RMK NXT FCST BY 041200Z
CYRB,TAF AMD CYRB 041003Z 0410/0506 32008KT P6SM SCT008 TEMPO 0410/0414 2SM BR BKN008 BECMG 0412/0414 VRB03KT RMK NXT FCST BY 041200Z
CYRL,TAF CYRL 041043Z 0411/0423 08005KT P6SM SKC BECMG 0413/0415 08012KT RMK NXT FCST BY 041400Z
CYRQ,TAF CYRQ 040740Z 0408/0420 VRB03KT P6SM FEW015 SCT070 TEMPO 0408/0413 2SM BR PROB30 0408/0413 1SM BR FM041300 36008KT P6SM FEW030 SCT050 FM041800 35012KT P6SM SCT030 RMK FCST BASED ON AUTO OBS. NXT FCST BY 041400Z
CYRT,TAF CYRT 040540Z 0406/0418 32005KT P6SM FEW025 TEMPO 0406/0416 P6SM -SN BKN020 BECMG 0409/0411 30008KT RMK NXT FCST BY 041200Z
CYSB,TAF CYSB 040740Z 0408/0420 03010G20KT P6SM OVC015 TEMPO 0408/0413 SCT015 BKN030 PROB30 0408/0412 BKN006 OVC015 FM041300 03012G22KT P6SM FEW020 RMK NXT FCST BY 041400Z
CYSC,TAF CYSC 041043Z 0411/0423 VRB03KT P6SM SKC BECMG 0413/0415 27007KT FM041800 28012G22KT P6SM BKN050 FM042100 32012KT P6SM BKN030 RMK FCST BASED ON AUTO OBS. NXT FCST BY 041800Z
CYSF,TAF AMD CYSF 041042Z 0410/0418 00000KT P6SM -SN FEW020 OVC040 TEMPO 0410/0412 5SM -SN FM041200 VRB02KT P6SM -SN SCT020 OVC030 TEMPO 0413/0416 5SM -SN OVC020 BECMG 0417/0418 22003KT BKN040 RMK FCST BASED ON AUTO OBS. NXT FCST BY 041200Z
CYSJ,TAF CYSJ 040541Z 0406/0418 21012KT P6SM BKN025 OVC080 TEMPO 0406/0408 BKN020 OVC080 FM040800 27007KT P6SM FEW050 BECMG 0410/0412 24005KT FEW240 FM041500 22012KT P6SM FEW240 RMK NXT FCST BY 041200Z
CYSM,TAF AMD CYSM 040617Z 0406/0418 00000KT P6SM FEW030 BKN080 TEMPO 0406/0413 BKN030 FM041300 34003KT P6SM FEW020 BKN025 TEMPO 0413/0416 BKN020 FM041700 31003KT P6SM BKN030 RMK NXT FCST BY 041200Z
CYTE,TAF CYTE 040648Z 0407/0419 VRB03KT P6SM SKC RMK FCST BASED ON AUTO OBS. NXT FCST BY 041300Z
CYTH,TAF CYTH 040640Z 0407/0419 VRB03KT P6SM SCT080 RMK NXT FCST BY 041300Z
CYTL,TAF AMD CYTL 041036Z 0410/0420 VRB03KT 4SM IC SKC TEMPO 0410/0415 P6SM NSW PROB30 0410/0415 2SM IC FM041500 18005KT P6SM SKC RMK FCST BASED ON AUTO OBS. AUTO OBS NON-REPRESENTATIVE OF CRNT WX. NXT FCST BY 041400Z
CYTR,TAF CYTR 040540Z 0406/0506 VRB03KT P6SM SCT120 BKN170 OVC250 FM040900 VRB03KT P6SM FEW006 SCT020 BKN080 TEMPO 0409/0417 5SM -DZ BR SCT006 OVC020 FM041700 06008KT P6SM SCT020 BKN050 TEMPO 0417/0420 BKN020 OVC050 RMK NXT FCST BY 041200Z
CYTS,TAF CYTS 040740Z 0408/0420 01008KT P6SM SCT030 FM041500 04008KT P6SM SKC FM041900 05010KT P6SM SCT200 RMK NXT FCST BY 041400Z
CYTZ,TAF AMD CYTZ 041115Z 0411/0508 08006KT P6SM -RA SCT008 OVC050 TEMPO 0411/0413 3SM -RA BR BKN008 OVC040 FM041300 36008KT P6SM -RA SCT006 BKN012 OVC040 BECMG 0413/0415 03008KT FM041500 03008KT P6SM SCT006 BKN015 OVC040 PROB30 0415/0418 BKN006 OVC015 BECMG 0418/0420 08012G22KT FM042100 08012G22KT P6SM OVC020 BECMG 0422/0424 08015KT RMK FCST BASED ON AUTO OBS. NXT FCST BY 041400Z
CYUL,TAF CYUL 040840Z 0409/0506 VRB03KT P6SM FEW090 BKN250 FM041400 05005KT P6SM SCT030 FM041700 04010KT P6SM BKN030 FM050500 04012G22KT P6SM FEW040 BKN110 RMK NXT FCST BY 041200Z
CYUX,TAF CYUX 040648Z 0407/0419 35012KT P6SM BKN180 RMK FCST BASED ON AUTO OBS. NXT FCST BY 041300Z
CYUY,TAF CYUY 040540Z 0406/0418 36010KT P6SM FEW008 SCT015 TEMPO 0406/0409 BKN008 OVC015 FM040900 36007KT P6SM FEW015 FM041600 02010KT P6SM SKC RMK NXT FCST BY 041200Z
CYVC,TAF CYVC 040640Z 0407/0419 16006KT P6SM FEW050 TEMPO 0407/0410 BKN050 FM041000 17006KT P6SM BKN050 TEMPO 0410/0419 SCT050 BECMG 0416/0418 14006KT RMK NXT FCST BY 041300Z
CYVM,TAF CYVM 040647Z 0407/0419 VRB03KT P6SM SKC PROB30 0410/0414 1/2SM FZFG BKN002 RMK FCST BASED ON AUTO OBS. NXT FCST BY 041300Z
CYVO,TAF CYVO 040540Z 0406/0418 34010KT P6SM FEW008 SCT015 TEMPO 0406/0411 BKN008 OVC015 FM041100 35008KT P6SM FEW015 FM041600 02012KT P6SM SKC RMK FCST BASED ON AUTO OBS. NXT FCST BY 041200Z
CYVP,TAF AMD CYVP 040936Z 0409/0418 32008KT P6SM SCT015 BKN040 TEMPO 0409/0416 6SM -SN BKN015 OVC040 PROB30 0409/0414 BKN007 FM041600 31012KT P6SM OVC030 TEMPO 0416/0418 2 1/2SM -SHSN OVC020 RMK NXT FCST BY 041200Z
CYVQ,TAF CYVQ 040540Z 0406/0418 VRB03KT P6SM FEW030 SCT080 BECMG 0412/0414 12008KT RMK NXT FCST BY 041200Z
CYVR,TAF CYVR 040840Z 0409/0512 VRB03KT P6SM SCT012 BKN040 BKN120 TEMPO 0409/0410 3SM -SHRA BR SCT006 BKN012 FM041000 09008KT P6SM SCT006 BKN025 TEMPO 0410/0415 3SM -SHRA BR BKN006 FM041500 08006KT P6SM SCT015 BKN030 TEMPO 0415/0422 3SM -SHRA BR SCT006 BKN012 BECMG 0419/0421 28008KT FM042200 28008KT P6SM SKC BECMG 0501/0503 VRB03KT FM050300 VRB03KT P6SM SCT200 BECMG 0504/0506 08010KT SCT030 BKN200 RMK NXT FCST BY 041200Z
CYVV,TAF CYVV 041040Z 0411/0423 05008KT P6SM BKN080 TEMPO 0411/0417 BKN008 OVC020 BECMG 0412/0414 05012KT FM041700 05012KT P6SM SCT020 FM042100 05012G22KT P6SM FEW020 BKN100 OVC180 BECMG 0421/0423 06015G30KT RMK NXT FCST BY 041400Z
CYWA,TAF CYWA 032340Z 0400/0424 27010KT P6SM BKN060 BKN080 FM040300 32005KT P6SM SCT010 BKN020 TEMPO 0403/0416 3SM BR SCT004 BKN010 OVC020 FM041600 36005KT P6SM SCT025 BKN250 RMK NXT FCST BY 040600Z
CYWG,TAF CYWG 040540Z 0406/0506 03008KT P6SM SCT040 BKN120 TEMPO 0406/0410 BKN040 OVC120 FM041000 05010KT P6SM FEW120 SCT180 FM041600 04012KT P6SM FEW015 FM050000 05012KT 6SM -SN SCT015 BKN030 FM050300 05012KT 3SM -SN SCT008 OVC015 RMK NXT FCST BY 041200Z
CYWK,TAF CYWK 040740Z 0408/0420 VRB03KT P6SM BKN150 FM041000 28005KT 6SM -SN OVC030 TEMPO 0410/0418 3SM -SN OVC020 PROB30 0410/0416 2SM -SN FM041800 30012KT P6SM BKN030 TEMPO 0418/0420 5SM -SN BKN020 RMK FCST BASED ON AUTO OBS. NXT FCST BY 041400Z
CYWL,TAF CYWL 040640Z 0407/0419 VRB03KT P6SM BKN080 TEMPO 0407/0409 BKN070 FM040900 VRB03KT P6SM SCT100 PROB30 0409/0415 1SM BR RMK NXT FCST BY 041300Z
CYXC,TAF AMD CYXC 041046Z 0410/0419 27005KT P6SM SCT005 SCT030 TEMPO 0410/0416 2SM -SN BR BKN005 BKN025 BECMG 0410/0412 VRB03KT FM041600 VRB03KT P6SM SCT030 SCT150 RMK NXT FCST BY 041300Z
CYXE,TAF CYXE 040540Z 0406/0506 11005KT P6SM FEW120 SCT240 TEMPO 0406/0414 SCT060 BKN120 BECMG 0416/0418 VRB03KT FM041800 VRB03KT P6SM SCT240 RMK NXT FCST BY 041200Z
CYXH,TAF CYXH 040552Z 0406/0418 09006KT P6SM -SN OVC015 TEMPO 0406/0417 SCT015 OVC025 BECMG 0414/0416 05005KT FM041700 02005KT P6SM OVC025 RMK FCST BASED ON AUTO OBS. NXT FCST BY 041200Z
CYXJ,TAF CYXJ 040645Z 0407/0419 36008KT P6SM VCSH SCT030 BKN060 TEMPO 0407/0413 2SM -SHSN VV015 FM041300 36005KT P6SM VCSH SCT012 BKN025 TEMPO 0413/0417 1 1/2SM -SHSN VV012 FM041700 VRB03KT P6SM VCSH BKN020 TEMPO 0417/0419 4SM -SHSN BKN015 RMK NXT FCST BY 041300Z
CYXL,TAF CYXL 040740Z 0408/0420 08008KT P6SM FEW020 BKN150 FM041700 06012KT P6SM OVC040 RMK NXT FCST BY 041400Z
CYXS,TAF CYXS 040640Z 0407/0419 VRB03KT P6SM SKC FM040900 VRB03KT P6SM SKC TEMPO 0409/0419 1SM BR PROB30 0411/0419 1/2SM FZFG OVC002 RMK FCST BASED ON AUTO OBS. NXT FCST BY 041300Z
CYXT,TAF CYXT 040640Z 0407/0419 VRB03KT P6SM SCT050 SCT120 FM041000 36008KT P6SM SCT015 SCT025 TEMPO 0410/0419 2SM BR SCT006 BKN012 BKN020 RMK NXT FCST BY 041300Z
CYXU,TAF CYXU 040540Z 0406/0506 VRB03KT 6SM -RA BR FEW006 OVC050 TEMPO 0406/0410 1 1/2SM RA BR SCT002 BKN006 OVC020 PROB30 0406/0410 1/2SM FG VV002 FM041000 06005KT 2SM -RA BR SCT004 BKN006 OVC015 TEMPO 0410/0414 6SM -RA BR SCT006 BKN015 OVC050 PROB30 0410/0412 3/4SM BR BKN004 FM041400 08008KT 6SM BR OVC008 FM041600 09010KT P6SM OVC015 BECMG 0418/0420 09012G22KT BECMG 0422/0424 09015G30KT FM050300 09015KT 6SM -DZ SCT007 BKN030 RMK NXT FCST BY 041200Z
CYXX,TAF CYXX 040540Z 0406/0506 VRB03KT P6SM SCT015 BKN040 BKN150 TEMPO 0406/0410 5SM -SHRA BR SCT008 BKN012 BKN040 PROB30 0410/0417 1SM BR BKN005 FM041700 VRB03KT P6SM BKN040 TEMPO 0417/0502 P6SM -SHRA BKN030 BECMG 0420/0422 22008KT FM050200 VRB03KT P6SM SCT030 RMK NXT FCST BY 041200Z
CYXY,TAF CYXY 040540Z 0406/0418 VRB03KT P6SM FEW240 BECMG 0408/0410 17012KT FM041500 17015KT P6SM BKN140 RMK NXT FCST BY 041200Z
CYYB,TAF CYYB 040740Z 0408/0420 02008KT P6SM OVC012 TEMPO 0408/0413 SCT012 BKN025 PROB30 0408/0412 BKN008 OVC012 FM041300 03012KT P6SM SCT015 RMK FCST BASED ON AUTO OBS. NXT FCST BY 041400Z
CYYC,TAF AMD CYYC 041039Z 0410/0506 18004KT 1 1/2SM BR OVC004 TEMPO 0410/0415 1/4SM FZFG VV002 BECMG 0415/0416 6SM BR SCT010 FM041600 17008KT P6SM BKN200 FM042000 15008KT P6SM FEW030 BKN200 BECMG 0422/0424 12012KT FM050300 14008KT P6SM BKN160 FM050500 16004KT P6SM FEW160 RMK NXT FCST BY 041200Z
CYYE,TAF CYYE 040647Z 0407/0419 02005KT P6SM BKN170 BECMG 0409/0411 FEW170 FM041100 VRB03KT P6SM FEW170 FM041400 VRB02KT P6SM SKC BECMG 0416/0418 16004KT RMK NXT FCST BY 041300Z
CYYF,TAF CYYF 040640Z 0407/0419 VRB03KT P6SM SCT050 SCT070 BKN150 FM040900 VRB03KT P6SM SCT060 SCT090 TEMPO 0409/0417 3SM BR BKN050 FM041700 36008KT P6SM SCT050 SCT100 RMK NXT FCST BY 041300Z
CYYG,TAF AMD CYYG 040636Z 0406/0418 19012KT 1 1/2SM -SHSN OVC009 TEMPO 0406/0407 P6SM NSW SCT015 OVC040 FM040700 20012KT P6SM SCT012 OVC030 TEMPO 0407/0411 2 1/2SM -SN OVC012 PROB30 0407/0411 1 1/2SM -SHSN FM041100 21010KT P6SM FEW040 BECMG 0416/0418 BKN040 RMK NXT FCST BY 041200Z
CYYH,TAF CYYH 040540Z 0406/0418 02007KT P6SM FEW060 BECMG 0408/0410 VRB03KT RMK NXT FCST BY 041200Z
CYYJ,TAF CYYJ 040540Z 0406/0506 VRB03KT P6SM SCT030 FM040800 28005KT P6SM SCT015 BKN030 TEMPO 0408/0422 5SM -SHRA BR BKN015 BECMG 0413/0415 30006KT FM042200 08008KT P6SM SCT030 BECMG 0501/0503 19006KT RMK NXT FCST BY 041200Z
CYYL,TAF CYYL 040640Z 0407/0419 18005KT P6SM BKN080 FM040900 20005KT P6SM BKN040 RMK FCST BASED ON AUTO OBS. NXT FCST BY 041300Z
CYYN,TAF AMD CYYN 040924Z 0409/0418 11005KT 6SM -SN SCT015 BKN030 TEMPO 0409/0412 1 3/4SM -SN BR OVC015 FM041200 10006KT 6SM -SN SCT015 BKN030 TEMPO 0412/0418 3SM -SN BR BKN015 OVC030 BECMG 0412/0414 10008KT RMK FCST BASED ON AUTO OBS. NXT FCST BY 041200Z
CYYQ,TAF CYYQ 040540Z 0406/0506 19005KT P6SM SCT120 FM041000 18008KT P6SM SKC FM041400 18010KT P6SM SCT080 TEMPO 0414/0506 BKN080 RMK NXT FCST BY 041200Z
CYYR,TAF CYYR 040540Z 0406/0506 27008KT P6SM FEW040 FEW100 FM041600 26012KT P6SM BKN040 BECMG 0420/0422 30010G20KT FM042200 30010G20KT P6SM FEW020 SCT040 RMK NXT FCST BY 041200Z
CYYT,TAF AMD CYYT 041031Z 0410/0506 27015G25KT 6SM -SN OVC030 TEMPO 0410/0414 2SM -SN OVC015 FM041400 24015G25KT P6SM BKN020 OVC040 TEMPO 0414/0416 SCT020 BKN040 FM041600 28018G28KT P6SM SCT020 BKN040 FM042300 26012G22KT P6SM SCT006 OVC015 FM050200 22012KT 5SM -DZ BR OVC006 PROB30 0504/0506 2SM -DZ BR OVC003 RMK NXT FCST BY 041200Z
CYYU,TAF CYYU 040740Z 0408/0420 02006KT P6SM FEW200 BECMG 0414/0416 05010KT FM041900 06012KT P6SM SCT220 RMK NXT FCST BY 041400Z
CYYY,TAF AMD CYYY 041017Z 0410/0420 24006KT P6SM SCT008 OVC040 TEMPO 0410/0412 5SM -SN BKN008 OVC040 PROB30 0410/0412 2SM -FZDZ BR FM041200 23009KT P6SM -SN BKN015 OVC025 TEMPO 0412/0415 P6SM NSW SCT015 OVC025 FM041500 27012KT P6SM BKN025 OVC050 TEMPO 0415/0420 BKN020 OVC050 RMK NXT FCST BY 041400Z
CYYZ,TAF AMD CYYZ 041007Z 0410/0512 VRB03KT 5SM -RA BR OVC005 TEMPO 0410/0414 P6SM -RA SCT005 OVC015 FM041400 02008KT P6SM FEW005 BKN012 OVC040 FM041800 07008KT P6SM SCT012 BKN025 OVC040 FM042100 09012KT P6SM OVC020 BECMG 0422/0424 09012G22KT FM050500 09015G25KT P6SM -SHRA OVC015 FM051000 09015G25KT 6SM -SHRA BR BKN008 OVC015 RMK NXT FCST BY 041200Z
CYZE,TAF CYZE 040940Z 0410/0422 04015G25KT P6SM OVC015 TEMPO 0410/0418 SCT015 BKN180 FM041800 06015G25KT P6SM SCT015 BKN220 BECMG 0420/0422 06020G30KT RMK FCST BASED ON AUTO OBS. NXT FCST BY 041400Z
CYZF,TAF AMD CYZF 041102Z 0411/0506 VRB03KT P6SM FEW020 SCT040 TEMPO 0411/0414 1/4SM FZFG VV002 FM041800 14006KT P6SM FEW040 SCT240 BECMG 0504/0506 11008KT RMK NXT FCST BY 041200Z
CYZH,TAF CYZH 040641Z 0407/0419 08006KT P6SM BKN030 BECMG 0409/0411 FEW030 FM041100 09006KT P6SM FEW030 TEMPO 0412/0414 5SM BR HZ FM041500 11006KT P6SM SKC RMK FCST BASED ON AUTO OBS. NXT FCST BY 041300Z
CYZP,TAF CYZP 040640Z 0407/0419 VRB03KT P6SM SCT030 SCT200 BECMG 0407/0409 23008KT FM041200 20008KT P6SM SCT020 BKN150 BECMG 0416/0418 16015KT SCT020 BKN100 RMK FCST BASED ON AUTO OBS. NXT FCST BY 041300Z
CYZR,TAF CYZR 040740Z 0408/0420 VRB03KT 6SM -RA FEW006 OVC060 TEMPO 0408/0410 2SM RA BR OVC006 PROB30 0408/0410 3/4SM -RA BR OVC003 FM041000 02007KT 2SM -RA BR OVC005 TEMPO 0410/0415 6SM -RA BR OVC010 PROB30 0410/0414 1/2SM FG VV002 FM041500 02007KT 6SM BR OVC005 FM041800 01010KT P6SM OVC008 RMK FCST BASED ON AUTO OBS. NXT FCST BY 041400Z
CYZS,TAF CYZS 040040Z 0401/0413 VRB03KT P6SM FEW050 SCT200 RMK NXT FCST BY 040700Z
CYZT,TAF CYZT 040640Z 0407/0419 27006KT P6SM SCT025 TEMPO 0407/0409 BKN020 FM040900 VRB03KT P6SM BKN025 TEMPO 0409/0419 BKN015 BECMG 0416/0418 07006KT RMK NXT FCST BY 041300Z
CYZV,TAF CYZV 040540Z 0406/0506 05005KT P6SM SCT020 OVC030 TEMPO 0406/0412 2SM -SN BKN020 OVC030 FM041200 VRB03KT 4SM -SN OVC015 TEMPO 0412/0415 P6SM NSW OVC025 FM041500 21010KT 5SM -SHSN OVC015 TEMPO 0415/0418 P6SM NSW OVC025 PROB30 0415/0418 2SM -SHSN FM041800 22012G22KT P6SM BKN020 OVC030 BECMG 0418/0420 31015G25KT SCT050 FM042100 31015G25KT P6SM SKC FM050300 31012G22KT P6SM BKN050 RMK NXT FCST BY 041200Z
CYZX,TAF AMD CYZX 040804Z 0408/0506 22008KT P6SM SCT070 BKN250 FM041200 25005KT P6SM FEW025 SCT140 BKN250 BECMG 0413/0415 25008G18KT FM041800 26012G22KT P6SM SCT030 BKN110 FM042300 26008KT P6SM FEW030 FM050300 33008G18KT P6SM BKN030 RMK NXT FCST BY 041200Z
CZBF,TAF CZBF 040840Z 0409/0421 VRB03KT P6SM FEW050 TEMPO 0409/0412 BKN020 BKN050 FM041200 22005KT P6SM BKN025 TEMPO 0412/0418 P6SM -SHRA BKN020 BECMG 0413/0415 29008G18KT FM041800 27010KT P6SM BKN030 BKN070 RMK FCST BASED ON AUTO OBS. NXT FCST BY 041400Z
CZMD,TAF CZMD 040942Z 0410/0422 VRB03KT P6SM SKC FM041700 13007KT P6SM SKC RMK FCST BASED ON AUTO OBS. NXT FCST BY 041600Z
CZSJ,TAF CZSJ 040942Z 0410/0422 VRB03KT P6SM SKC FM041700 11007KT P6SM SKC RMK FCST BASED ON AUTO OBS. NXT FCST BY 041600Z
CZUM,TAF CZUM 040740Z 0408/0420 VRB03KT P6SM BKN050 TEMPO 0408/0413 BKN020 PROB40 0408/0413 2SM BR BKN004 FM041300 01005KT P6SM BKN025 TEMPO 0413/0416 BKN020 FM041600 01006KT P6SM BKN025 TEMPO 0416/0420 5SM -SN BKN020 RMK FCST BASED ON AUTO OBS. NXT FCST BY 041400Z
CZVL,TAF AMD CZVL 041043Z 0410/0418 15004KT 6SM BR FEW080 BKN200 TEMPO 0410/0414 3/4SM BR HZ BECMG 0414/0415 P6SM NSW FM041600 12004KT P6SM FEW080 BKN200 BECMG 0417/0418 09006KT RMK FCST BASED ON AUTO OBS. NXT FCST BY 041200Z
DAAD,TAF DAAD 040800Z 0409/0418 VRB02KT CAVOK BECMG 0412/0414 08010KT
DAAE,TAF DAAE 041100Z 0412/0512 27008KT 9999 SCT023 SCT090 PROB40 TEMPO 0412/0420 07011KT FEW020CB
DAAG,TAF DAAG 041100Z 0412/0512 04010KT 9999 FEW026 BKN200 PROB30 TEMPO 0412/0418 04015G25KT FEW030TCU SCT100 BECMG 0418/0420 VRB02KT BECMG 0509/0511 05012KT
DAAJ,TAF DAAJ 041100Z 0412/0512 18008KT 4000 HZ NSC BECMG 0414/0417 6000 NSW BECMG 0418/0420 VRB02KT BECMG 0507/0509 18012KT PROB30 TEMPO 0508/0512 18015G25KT 3000 DRSA
DAAP,TAF DAAP 040800Z 0409/0418 11008KT CAVOK
DAAS,TAF DAAS 041100Z 0412/0512 33008KT 9999 FEW023 BKN030 PROB40 TEMPO 0412/0420 03012KT FEW020TCU PROB30 TEMPO 0503/0508 3000 BR BKN013
DAAT,TAF DAAT 041100Z 0412/0512 22008KT CAVOK PROB40 TEMPO 0412/0418 22015G25KT 3000 DRSA BECMG 0420/0422 08008KT
DAAV,TAF DAAV 041100Z 0412/0512 33008KT 9999 FEW023 SCT040 TEMPO 0412/0420 04011KT FEW020CB
DAAY,TAF DAAY 040800Z 0409/0418 VRB02KT CAVOK BECMG 0410/0412 28010KT
DABB,TAF DABB 041100Z 0412/0512 35008KT 9999 FEW023TCU BKN026 TEMPO 0412/0419 29013KT 4000 -TSRA FEW020CB PROB40 TEMPO 0502/0512 28012KT 5000 RA FEW020CB
DABC,TAF DABC 041100Z 0412/0512 35008KT 9999 FEW023 BKN030 PROB40 TEMPO 0412/0418 FEW020TCU PROB30 TEMPO 0502/0508 2000 BR BKN010
DABS,TAF DABS 041100Z 0412/0512 31008KT 9999 SCT030 SCT200 PROB40 TEMPO 0412/0418 25013KT FEW026TCU PROB40 TEMPO 0506/0512 01012KT
DABT,TAF DABT 041100Z 0412/0512 01008KT 9999 FEW020 SCT100 PROB40 TEMPO 0412/0420 24013KT FEW020TCU
DAFH,TAF DAFH 040800Z 0409/0418 12006KT CAVOK BECMG 0411/0413 22010KT
DAOB,TAF DAOB 041100Z 0412/0512 VRB02KT CAVOK TEMPO 0414/0418 02010KT
DAOF,TAF DAOF 040800Z 0409/0418 30016KT CAVOK PROB30 TEMPO 0414/0418 30016G32KT 4000 DRDU
DAOI,TAF DAOI 041100Z 0412/0512 08008KT CAVOK PROB30 TEMPO 0413/0418 FEW030TCU SCT100 BECMG 0416/0418 36010KT BECMG 0420/0422 VRB02KT BECMG 0509/0511 08010KT
DAON,TAF DAON 041100Z 0412/0512 VRB02KT CAVOK BECMG 0414/0416 36010KT
DAOO,TAF DAOO 041100Z 0412/0512 02010KT CAVOK TEMPO 0418/0423 02010G20KT BECMG 0508/0510 08020KT
DAOR,TAF DAOR 040800Z 0409/0418 VRB02KT 6000 NSC BECMG 0409/0411 14010KT PROB40 0409/0418 3000 DU
DAOV,TAF DAOV 040800Z 0409/0418 VRB02KT CAVOK BECMG 0410/0412 36010KT
DATM,TAF DATM 040800Z 0409/0418 08008KT CAVOK BECMG 0412/0414 22010KT
DAUA,TAF DAUA 041100Z 0412/0512 20020KT 8000 DRSA NSC PROB30 0412/0416 22020G30KT 3000 BECMG 0416/0418 20010KT NSW
DAUB,TAF DAUB 041100Z 0412/0512 15008KT 9999 FEW033 PROB30 TEMPO 0412/0418 25011KT
DAUG,TAF DAUG 041100Z 0412/0512 20010KT CAVOK BECMG 0418/0420 VRB02KT BECMG 0423/0501 06010KT PROB30 TEMPO 0506/0512 FEW030TCU BECMG 0509/0511 06020KT 3000 DRSA
DAUH,TAF DAUH 041100Z 0412/0512 20010KT CAVOK BECMG 0418/0420 VRB02KT BECMG 0421/0423 11010KT BECMG 0508/0510 04012KT PROB30 0509/0512 4000 SA FEW030TCU
DAUI,TAF DAUI 041100Z 0412/0512 08012KT 6000 NSC BECMG 0414/0416 20008KT BECMG 0423/0501 12010KT BECMG 0509/0511 20014KT
DAUK,TAF DAUK 040800Z 0409/0418 11008KT CAVOK BECMG 0413/0415 23010KT
DAUL,TAF DAUL 040800Z 0409/0418 08006KT CAVOK BECMG 0411/0413 20010KT BECMG 0415/0416 VRB02KT
DAUO,TAF DAUO 040800Z 0409/0418 12008KT CAVOK
DAUT,TAF DAUT 040800Z 0409/0418 13020KT CAVOK BECMG 0410/0412 13010KT
DAUU,TAF DAUU 040800Z 0409/0418 VRB02KT CAVOK BECMG 0410/0412 20010KT
DAUZ,TAF DAUZ 041100Z 0412/0512 12010KT CAVOK PROB30 TEMPO 0508/0512 12015G25KT 4000 DRSA
DBBB,TAF DBBB 041100Z 0412/0518 24010KT 9999 SCT012
DFFD,TAF DFFD 041100Z 0412/0518 24008KT 8000 NSC TEMPO 0416/0421 4000 DU
DFOO,TAF DFOO 041100Z 0412/0512 22008KT 9999 FEW020 PROB40 TEMPO 0414/0420 4000 TSRA SCT020 FEW036CB
DGAA,TAF DGAA 041100Z 0412/0518 19012KT 9999 SCT016 BECMG 0422/0500 27008KT CAVOK TEMPO 0506/0509 5000 BR
DGLE,TAF DGLE 041100Z 0412/0512 18010KT 9999 SCT017 BECMG 0420/0422 CAVOK
DGSI,TAF DGSI 041100Z 0412/0512 23010KT 9999 SCT015 TEMPO 0416/0420 5000 TSRA BKN010 FEW030CB BECMG 0500/0502 BKN010
DIAP,TAF COR DIAP 040535Z 0406/0512 22005KT 9999 FEW012 PROB30 TEMPO 0407/0410 4000 TSRA BKN010 FEW020CB BKN030 PROB30 TEMPO 0414/0418 BKN012 FEW020CB PROB40 TEMPO 0504/0507 4000 RA BKN010 BKN030
DIBK,TAF DIBK 040537Z 0406/0506 20008KT 8000 FEW013 PROB30 0406/0409 4000 BR BKN010 PROB30 TEMPO 0409/0415 BKN013 PROB30 TEMPO 0417/0422 BKN012 FEW023CB
DIYO,TAF DIYO 040539Z 0406/0506 22007KT 8000 FEW012 PROB30 0406/0409 4000 BR BKN010 PROB40 TEMPO 0409/0415 BKN012 PROB30 TEMPO 0417/0422 BKN012 FEW020CB
DNAA,TAF DNAA 041100Z 0412/0518 24003KT CAVOK BECMG 0413/0415 9999 SCT013 PROB30 0416/0420 TS FEW020CB BECMG 0420/0422 15010KT CAVOK BECMG 0510/0512 22010KT 9999 SCT011
DNAK,TAF DNAK 041100Z 0412/0518 23010KT 9999 BKN013 TEMPO 0414/0420 TS SCT013 FEW020CB PROB30 0417/0420 5000 -TSRA BKN008 FEW018CB BECMG 0420/0422 VRB02KT SCT008 BECMG 0508/0510 25010KT BKN013 TEMPO 0513/0518 SCT013 FEW020CB
DNBE,TAF DNBE 041100Z 0412/0518 21010KT 9999 BKN013 TEMPO 0415/0421 TS SCT012 FEW020CB PROB30 0417/0420 5000 -TSRA BKN008 FEW018CB BECMG 0420/0422 VRB02KT SCT008 TEMPO 0505/0508 3000 BR BECMG 0508/0510 22010KT BKN012 TEMPO 0513/0518 SCT012 FEW020CB
DNGO,TAF DNGO 041100Z 0412/0518 04010KT CAVOK
DNIB,TAF DNIB 041100Z 0412/0518 24010KT 9999 BKN013 PROB30 TEMPO 0414/0420 TS SCT013 FEW020CB BECMG 0420/0422 VRB02KT SCT011 BECMG 0508/0510 22010KT BKN013
DNIL,TAF DNIL 041100Z 0412/0518 25010KT 9999 SCT011 BECMG 0412/0414 BKN012 TEMPO FEW020CB BECMG 0420/0422 VRB02KT CAVOK
DNJO,TAF DNJO 041100Z 0412/0518 08004KT CAVOK
DNKA,TAF DNKA 041100Z 0412/0518 09010KT CAVOK TEMPO 0412/0418 23005KT FEW012
DNKN,TAF DNKN 041100Z 0412/0518 07010KT CAVOK
DNKT,TAF DNKT 041100Z 0412/0518 06010KT CAVOK
DNMA,TAF DNMA 041100Z 0412/0518 07009KT CAVOK
DNMM,TAF DNMM 041100Z 0412/0518 22010KT 9999 BKN013 PROB30 TEMPO 0415/0421 TS SCT013 FEW020CB BECMG 0421/0423 VRB02KT FEW011 BECMG 0508/0510 23010KT BKN013 TEMPO 0513/0518 SCT013 FEW020CB
DNSO,TAF DNSO 041100Z 0412/0518 06011KT CAVOK
DNSU,TAF DNSU 041100Z 0412/0518 24010KT 9999 BKN013 TEMPO 0415/0420 TS SCT012 FEW020CB PROB30 0417/0420 5000 -TSRA BKN008 FEW018CB BECMG 0420/0422 VRB02KT SCT008 TEMPO 0505/0508 3000 BR BECMG 0508/0510 23010KT BKN012 TEMPO 0513/0518 SCT012 FEW020CB
DNYO,TAF DNYO 041100Z 0412/0518 26008KT CAVOK
DRRN,TAF DRRN 041100Z 0412/0518 10008KT 8000 NSC TEMPO 0417/0420 3000 DU TEMPO 0506/0508 3500 DU
DRZA,TAF DRZA 041100Z 0412/0512 12008KT 8000 NSC TEMPO 0508/0512 14018KT 4000 BLDU
DRZR,TAF DRZR 041100Z 0412/0512 01008KT 8000 NSC
DTKA,TAF DTKA 040900Z 0410/0419 26013G24KT 9999 SCT020 FEW023CB TEMPO 0410/0416 4000 TS SHRA FEW020CB
DTMB,TAF DTMB 041100Z 0412/0512 35011KT 9999 SCT020 BECMG 0416/0418 10010KT BECMG 0419/0421 03006KT BECMG 0501/0503 VRB03KT PROB30 TEMPO 0505/0512 RA FEW026TCU BECMG 0507/0509 29010KT
DTNH,TAF DTNH 041100Z 0412/0512 29014KT 9999 SCT026 BECMG 0413/0415 08012KT PROB30 TEMPO 0414/0424 RA FEW026TCU BECMG 0419/0421 VRB03KT BECMG 0507/0509 30010KT
DTTA,TAF DTTA 041100Z 0412/0512 30013KT 8000 -RA BKN026 BKN033 PROB40 TEMPO 0412/0418 TSRA FEW023CB BECMG 0419/0421 VRB03KT BECMG 0501/0503 25010KT BECMG 0510/0512 31012KT
DTTB,TAF DTTB 040900Z 0410/0419 29014KT 9999 SCT016TCU FEW023CB SCT030 TEMPO 0410/0416 TSRA FEW023CB
DTTF,TAF DTTF 040900Z 0410/0419 33006KT CAVOK BECMG 0410/0412 23010KT
DTTG,TAF DTTG 040900Z 0410/0419 29006KT CAVOK
DTTJ,TAF DTTJ 041100Z 0412/0512 32010KT CAVOK BECMG 0416/0418 12010KT BECMG 0422/0424 18010KT BECMG 0507/0509 05013KT
DTTR,TAF DTTR 040900Z 0410/0419 20005KT CAVOK
DTTX,TAF DTTX 041100Z 0412/0512 VRB03KT CAVOK BECMG 0413/0415 18015KT BECMG 0419/0421 11010KT BECMG 0504/0506 01010KT BECMG 0510/0512 07012KT
DTTZ,TAF DTTZ 041100Z 0412/0512 30005KT CAVOK BECMG 0419/0421 VRB03KT BECMG 0501/0503 04010KT
DXNG,TAF COR DXNG 041100Z 0412/0512 VRB05KT 8000 FEW008 PROB30 TEMPO 0415/0419 TS BKN008 FEW016CB
DXXX,TAF DXXX 041100Z 0412/0518 VRB05KT 9999 FEW015 BECMG 0413/0415 20010KT BECMG 0423/0501 26005KT BECMG 0508/0510 20010KT
EBAW,TAF EBAW 041107Z 0412/0421 08006KT CAVOK
EBBE,TAF EBBE 040841Z 0410/0419 07007KT 9999 FEW170 TEMPO 0411/0419 FEW020 SCT150
EBBL,TAF EBBL 040841Z 0410/0419 06006KT 9999 SCT180
EBBR,TAF EBBR 041108Z 0412/0518 08008KT CAVOK
EBCI,TAF EBCI 041108Z 0412/0518 08008KT CAVOK
EBCV,TAF EBCV 040841Z 0410/0419 08009KT 9999 FEW200 TEMPO 0411/0419 FEW025 SCT150 BY EBWM
EBDT,TAF EBDT 040541Z 0407/0416 07005KT 9999 FEW170
EBFN,TAF EBFN 040841Z 0410/0419 10008KT 9999 SCT170 BECMG 0413/0415 05012KT
EBFS,TAF EBFS 040841Z 0410/0419 07010KT 9999 SCT170 BECMG 0413/0415 04010KT 9999 FEW022 SCT150
EBLG,TAF EBLG 041108Z 0412/0518 08008KT CAVOK
EBOS,TAF EBOS 041108Z 0412/0518 10008KT CAVOK
EDAC,TAF EDAC 041100Z 0412/0421 04005KT 9999 BKN045
EDAH,TAF EDAH 041100Z 0412/0421 33007KT 9999 SCT030
EDBC,TAF EDBC 041100Z 0412/0421 04005KT 9999 SCT040
EDDB,TAF EDDB 041100Z 0412/0512 34008KT CAVOK BECMG 0415/0418 VRB03KT BECMG 0507/0510 32008KT PROB30 TEMPO 0507/0512 4000 -RADZ BKN012
EDDC,TAF EDDC 041100Z 0412/0512 35008KT CAVOK
EDDE,TAF EDDE 041100Z 0412/0512 03007KT 9999 BKN035 BECMG 0421/0424 22003KT
EDDF,TAF EDDF 041100Z 0412/0518 04010KT CAVOK BECMG 0417/0419 04005KT
EDDG,TAF EDDG 041100Z 0412/0512 04005KT CAVOK BECMG 0419/0421 VRB02KT BECMG 0507/0510 08005KT
EDDH,TAF EDDH 041100Z 0412/0518 VRB03KT CAVOK BECMG 0508/0510 32005KT
EDDK,TAF EDDK 041100Z 0412/0518 04006KT CAVOK BECMG 0419/0422 10004KT
EDDL,TAF EDDL 041100Z 0412/0518 05008KT CAVOK BECMG 0416/0419 04003KT BECMG 0503/0506 11005KT
EDDM,TAF EDDM 041100Z 0412/0518 05010KT 9999 SCT045 BECMG 0415/0417 09005KT
EDDN,TAF EDDN 041100Z 0412/0512 04007KT CAVOK BECMG 0418/0420 VRB03KT BECMG 0505/0507 08005KT
EDDP,TAF EDDP 041100Z 0412/0512 05006KT 9999 BKN040 BECMG 0418/0421 32003KT
EDDR,TAF EDDR 041100Z 0412/0512 05012KT CAVOK BECMG 0417/0419 05005KT
EDDS,TAF EDDS 041100Z 0412/0512 07010KT CAVOK BECMG 0418/0420 VRB03KT
EDDV,TAF EDDV 041100Z 0412/0512 VRB03KT CAVOK TEMPO 0412/0417 07006KT
EDDW,TAF EDDW 041100Z 0412/0512 VRB03KT CAVOK
EDFH,TAF EDFH 041100Z 0412/0512 09009KT CAVOK
EDFM,TAF EDFM 041100Z 0412/0421 06007KT CAVOK
EDGS,TAF EDGS 041100Z 0412/0421 07008KT CAVOK
EDHI,TAF EDHI 041100Z 0412/0421 VRB03KT CAVOK
EDHK,TAF EDHK 041100Z 0412/0419 VRB03KT CAVOK
EDHL,TAF EDHL 041100Z 0412/0421 02003KT CAVOK
EDJA,TAF EDJA 041100Z 0412/0421 06012KT 9999 SCT040 TEMPO 0412/0414 07015G25KT
EDLN,TAF EDLN 041100Z 0412/0421 04006KT CAVOK BECMG 0418/0421 VRB03KT
EDLP,TAF EDLP 041100Z 0412/0512 06006KT 9999 FEW045 BECMG 0419/0421 13004KT BECMG 0510/0512 07005KT
EDLV,TAF EDLV 041100Z 0412/0512 03007KT CAVOK BECMG 0417/0420 VRB02KT BECMG 0509/0511 06005KT
EDLW,TAF EDLW 041100Z 0412/0512 05007KT CAVOK BECMG 0417/0420 VRB03KT BECMG 0508/0511 08005KT
EDMA,TAF EDMA 041100Z 0412/0421 06009KT 9999 SCT045 BECMG 0417/0419 07004KT
EDMO,TAF EDMO 041100Z 0412/0421 05010KT 9999 SCT045 BECMG 0417/0419 07005KT
EDNY,TAF EDNY 041100Z 0412/0512 04012KT CAVOK BECMG 0418/0420 02006KT
EDQM,TAF EDQM 041100Z 0412/0421 02008KT 9999 BKN030 BECMG 0417/0419 VRB03KT
EDSB,TAF EDSB 041100Z 0412/0512 03010G20KT CAVOK BECMG 0418/0420 03005KT
EDTL,TAF EDTL 041100Z 0412/0421 03010G20KT CAVOK BECMG 0418/0420 02005KT
EDTY,TAF EDTY 041100Z 0412/0421 05009KT 9999 FEW045 BECMG 0417/0419 05004KT
EDVE,TAF EDVE 041100Z 0412/0421 VRB03KT CAVOK TEMPO 0412/0417 10005KT
EDVK,TAF EDVK 041100Z 0412/0421 04005KT 9999 SCT035
EDXW,TAF EDXW 041100Z 0412/0421 VRB03KT CAVOK BECMG 0412/0415 30008KT
EEEI,TAF EEEI 041130Z 0412/0512 04012KT CAVOK BECMG 0418/0420 BKN023 TEMPO 0421/0505 3000 SN BKN008 OVC014 TEMPO 0505/0512 BKN010
EETN,TAF EETN 041130Z 0412/0512 04012KT CAVOK BECMG 0418/0420 BKN015 TEMPO 0421/0506 2000 SN BKN008 OVC015
EFHA,TAF EFHA 040823Z 0409/0415 01006KT CAVOK
EFHK,TAF EFHK 040823Z 0409/0509 36011KT CAVOK BECMG 0507/0509 07010KT
EFIV,TAF EFIV 040820Z 0409/0412 23006KT 9999 FEW040
EFJO,TAF EFJO 040824Z 0409/0418 01008KT CAVOK
EFJY,TAF EFJY 040823Z 0409/0509 02005KT CAVOK
EFKK,TAF EFKK 040823Z 0409/0418 20005KT CAVOK
EFKS,TAF EFKS 040820Z 0409/0412 23005KT 9999 BKN035
EFKT,TAF EFKT 040820Z 0409/0418 18006KT 9999 FEW040
EFKU,TAF EFKU 040824Z 0409/0509 03007KT CAVOK
EFMA,TAF EFMA 040823Z 0409/0418 03007KT CAVOK
EFOU,TAF EFOU 040820Z 0409/0509 14003KT 9999 SCT045 BECMG 0421/0423 1500 BCFG TEMPO 0423/0506 0500 FZFG VV001 BECMG 0506/0508 CAVOK
EFPO,TAF EFPO 040823Z 0409/0418 VRB02KT CAVOK
EFRO,TAF EFRO 040820Z 0409/0509 22010KT 9999 FEW040
EFSI,TAF EFSI 040823Z 0409/0418 VRB02KT CAVOK
EFTP,TAF EFTP 040823Z 0409/0509 01004KT CAVOK
EFTU,TAF EFTU 040823Z 0409/0509 03008KT CAVOK
EFUT,TAF EFUT 040824Z 0409/0415 02009KT CAVOK
EFVA,TAF EFVA 040823Z 0409/0509 VRB02KT CAVOK TEMPO 0503/0505 2500 BR
EGAA,TAF EGAA 041100Z 0412/0512 19012KT 9999 FEW020 SCT035 PROB40 TEMPO 0412/0418 19015G25KT PROB30 TEMPO 0418/0420 8000 RA TEMPO 0420/0512 7000 RA -RADZ BECMG 0422/0502 BKN012 PROB30 TEMPO 0423/0512 4000 +RA RADZ BECMG 0502/0505 BKN007 TEMPO 0505/0512 BKN002
EGAC,TAF EGAC 041057Z 0412/0421 18012KT 9999 FEW020 SCT040 PROB30 TEMPO 0412/0421 18015G25KT PROB30 TEMPO 0420/0421 7000 RA
EGAE,TAF EGAE 041057Z 0412/0421 19012KT 9999 FEW015 SCT035 TEMPO 0412/0421 19015G25KT PROB30 TEMPO 0416/0418 8000 RA TEMPO 0418/0421 7000 RA PROB30 TEMPO 0418/0421 BKN014
EGBB,TAF EGBB 041056Z 0412/0512 19008KT CAVOK
EGBJ,TAF EGBJ 041058Z 0412/0419 18004KT CAVOK
EGCC,TAF EGCC 041054Z 0412/0518 17006KT CAVOK BECMG 0503/0506 BKN030 TEMPO 0506/0512 8000 -RADZ BKN010 PROB30 TEMPO 0509/0512 4000 RADZ RA TEMPO 0512/0518 6000 RA BKN010 PROB30 TEMPO 0512/0518 4000 RADZ BKN008
EGCK,TAF EGCK 041054Z 0412/0421 19008KT CAVOK
EGDM,TAF EGDM 041017Z 0412/0421 17006KT CAVOK
EGDR,TAF EGDR 041037Z 0412/0421 16008KT 9999 FEW020 BKN025 TEMPO 0412/0421 SCT020 BECMG 0417/0419 20012KT
EGDY,TAF EGDY 041016Z 0412/0421 13005KT CAVOK
EGEC,TAF EGEC 041058Z 0412/0417 15015KT 9999 FEW015 SCT030 TEMPO 0412/0417 16018G28KT PROB30 TEMPO 0415/0417 BKN012
EGEO,TAF EGEO 041058Z 0412/0417 16015KT 9999 FEW015 BKN035 PROB30 TEMPO 0412/0417 17018G28KT 7000 -RA
EGFF,TAF EGFF 041058Z 0412/0512 12006KT 9999 FEW030 PROB30 TEMPO 0507/0509 8000 -RADZ BKN012 TEMPO 0509/0512 8000 -RADZ BKN012 PROB40 TEMPO 0511/0512 4000 RADZ BKN009
EGGD,TAF EGGD 041058Z 0412/0512 13007KT 9999 FEW028 BECMG 0509/0512 19010KT PROB30 TEMPO 0510/0512 8000 -RADZ BKN008
EGGP,TAF EGGP 041054Z 0412/0512 16008KT CAVOK BECMG 0503/0506 BKN030 TEMPO 0505/0512 8000 -RADZ BKN012 PROB30 TEMPO 0509/0512 4000 RADZ RA
EGGW,TAF EGGW 041058Z 0412/0512 14008KT CAVOK BECMG 0510/0512 20010KT BKN025
EGHC,TAF EGHC 041059Z 0412/0418 17010KT 9999 FEW020 BECMG 0412/0415 23010KT
EGHE,TAF EGHE 041059Z 0412/0418 17012KT 9999 SCT020 BECMG 0412/0415 23010KT
EGHH,TAF EGHH 041058Z 0412/0421 15009KT CAVOK
EGHI,TAF EGHI 041058Z 0412/0421 15006KT CAVOK
EGHQ,TAF EGHQ 041059Z 0412/0421 15009KT 9999 FEW030
EGJA,TAF EGJA 041055Z 0412/0421 09012KT CAVOK TEMPO 0413/0417 27006KT
EGJB,TAF EGJB 041055Z 0412/0421 08007KT CAVOK
EGJJ,TAF EGJJ 041055Z 0412/0421 09012KT CAVOK TEMPO 0413/0418 26006KT
EGKA,TAF EGKA 041057Z 0412/0419 12010KT CAVOK BECMG 0412/0414 18010KT
EGKB,TAF EGKB 041057Z 0412/0421 10005KT CAVOK
EGKK,TAF EGKK 041055Z 0412/0518 10005KT CAVOK PROB30 TEMPO 0503/0508 6000 BECMG 0509/0512 20010KT BECMG 0515/0518 BKN025
EGLC,TAF EGLC 041057Z 0412/0421 10008KT CAVOK
EGLF,TAF EGLF 041057Z 0412/0421 14005KT CAVOK
EGLL,TAF EGLL 041057Z 0412/0518 10010KT CAVOK BECMG 0412/0415 16004KT
EGMC,TAF EGMC 041057Z 0412/0420 10008KT CAVOK
EGMD,TAF EGMD 041057Z 0412/0421 08009KT CAVOK
EGNH,TAF EGNH 041054Z 0412/0421 15010KT CAVOK BECMG 0415/0418 VRB03KT
EGNJ,TAF EGNJ 041054Z 0412/0421 19006KT CAVOK
EGNM,TAF EGNM 041054Z 0412/0512 17005KT CAVOK BECMG 0504/0507 BKN020 TEMPO 0510/0512 6000 RA RADZ BKN014
EGNO,TAF EGNO 041054Z 0412/0418 16010KT CAVOK BECMG 0415/0418 34004KT
EGNR,TAF EGNR 041054Z 0412/0420 16008KT CAVOK
EGNS,TAF EGNS 041100Z 0412/0421 19016KT 9999 FEW012 SCT022 PROB30 TEMPO 0415/0421 BKN012
EGNT,TAF EGNT 041054Z 0412/0512 17006KT CAVOK BECMG 0506/0509 BKN020 TEMPO 0509/0512 8000 -RADZ BKN010 PROB30 TEMPO 0510/0512 4000 RA
EGNV,TAF EGNV 041054Z 0412/0421 19009KT CAVOK
EGNX,TAF EGNX 041056Z 0412/0512 18008KT CAVOK
EGOS,TAF EGOS 041036Z 0412/0421 16008KT CAVOK
EGOV,TAF EGOV 041027Z 0412/0418 18016KT 9999 FEW018
EGOW,TAF EGOW 041031Z 0412/0418 16010KT CAVOK
EGPA,TAF EGPA 041057Z 0412/0421 17012KT 9999 FEW030 BECMG 0418/0421 17016G28KT PROB30 TEMPO 0418/0421 5000 RA
EGPB,TAF EGPB 041057Z 0412/0421 18012KT 9999 FEW015
EGPC,TAF EGPC 041057Z 0412/0421 17012KT 9999 FEW035 TEMPO 0418/0421 18016G28KT PROB30 TEMPO 0418/0421 5000 RA
EGPD,TAF EGPD 041057Z 0412/0512 17012KT 9999 FEW025 TEMPO 0506/0512 18015G25KT 8000 -RA PROB40 TEMPO 0506/0512 4000 DZRA BKN008
EGPE,TAF EGPE 041057Z 0412/0421 VRB03KT 9999 FEW035 BECMG 0412/0415 21010KT
EGPF,TAF EGPF 041057Z 0412/0512 19009KT 9999 SCT040 PROB30 TEMPO 0412/0418 20015G25KT TEMPO 0500/0512 8000 -RA BKN012 PROB30 TEMPO 0503/0512 4000 DZRA BKN008
EGPH,TAF EGPH 041057Z 0412/0512 21009KT 9999 FEW020 TEMPO 0503/0512 8000 -RA PROB40 TEMPO 0508/0512 4000 DZRA BKN012
EGPI,TAF EGPI 041058Z 0412/0418 15015KT 9999 FEW015 BKN030 TEMPO 0412/0418 16018G28KT PROB40 TEMPO 0415/0418 7000 -RA BKN012
EGPK,TAF EGPK 041057Z 0412/0512 18012KT 9999 SCT040 PROB30 TEMPO 0412/0422 19015G25KT TEMPO 0500/0512 7000 -RA BKN010 PROB40 TEMPO 0503/0512 4000 RADZ BKN006
EGPL,TAF EGPL 041057Z 0412/0417 18019KT 9999 SCT010 BKN020 TEMPO 0412/0417 19022G32KT 6000 -RA BKN008 PROB30 TEMPO 0412/0417 2500 RADZ BR BKN004
EGPN,TAF EGPN 041058Z 0412/0421 22009KT 9999 FEW030
EGPO,TAF EGPO 041057Z 0412/0421 19022KT 9999 SCT015 BKN025 TEMPO 0412/0421 20025G35KT 7000 -RA BKN012 PROB30 TEMPO 0412/0421 4000 DZRA BKN008
EGPU,TAF EGPU 041058Z 0412/0418 17022KT 9999 SCT012 BKN035 TEMPO 0412/0418 18025G35KT 7000 -RA BKN008
EGQL,TAF EGQL 041035Z 0412/0421 20010KT 9999 FEW025
EGQS,TAF EGQS 041050Z 0412/0506 19014KT 9999 FEW040
EGSC,TAF EGSC 041056Z 0412/0415 15008KT CAVOK
EGSH,TAF EGSH 041054Z 0412/0421 13008KT CAVOK
EGSS,TAF EGSS 041058Z 0412/0518 13008KT CAVOK PROB40 0502/0508 6000 BECMG 0510/0513 21010KT BKN030
EGSY,TAF EGSY 041058Z 0412/0421 13008KT 9999 FEW030
EGTC,TAF EGTC 041056Z 0412/0418 11005KT CAVOK
EGTE,TAF EGTE 041059Z 0412/0421 15008KT CAVOK
EGTK,TAF EGTK 041056Z 0412/0421 17005KT CAVOK
EGUB,TAF EGUB 041024Z 0412/0421 16006KT CAVOK
EGUL,TAF EGUL 040500Z 0405/0511 09009KT 9999 FEW020 QNH3034INS BECMG 0411/0412 15010G15KT 9999 SCT020 QNH3022INS BECMG 0501/0502 18006KT 9999 BKN020 QNH3011INS TX10/0414Z TNM02/0406Z
EGUN,TAF EGUN 040400Z 0404/0510 13003KT 9999 FEW300 QNH3038INS TEMPO 0405/0408 6000 BR FEW020 BECMG 0408/0410 12012KT 9999 FEW040 SCT200 QNH3036INS TEMPO 0410/0418 14015KT SCT040 SCT180 BECMG 0420/0421 15008KT 9999 FEW030 FEW150 BKN250 QNH3031INS BECMG 0502/0503 18005KT 8000 BR SCT030 SCT120 BKN200 QNH3025INS TEMPO 0503/0507 6000 BR BKN030 BKN120 BECMG 0507/0509 18012KT 9999 NSW SCT020 BKN120 QNH3023INS TX14/0415Z TNM03/0405Z
EGUW,TAF EGUW 041018Z 0412/0421 14010KT 9999 FEW030
EGVA,TAF EGVA 040400Z 0404/0510 VRB06KT 9999 SKC QNH3019INS TEMPO 0410/0416 19010G15KT BECMG 0505/0506 19007KT 9999 BKN050 QNH3019INS BECMG 0509/0510 18009KT 9999 BKN020 BKN040 OVC095 QNH3016INS TX13/0416Z TN00/0404Z
EGVN,TAF EGVN 041023Z 0412/0512 15005KT CAVOK
EGVO,TAF EGVO 041046Z 0412/0424 13007KT CAVOK
EGVP,TAF EGVP 041033Z 0412/0421 16006KT CAVOK
EGWC,TAF EGWC 041036Z 0412/0417 16008KT CAVOK
EGWU,TAF EGWU 041020Z 0412/0506 12008KT CAVOK
EGXC,TAF EGXC 041030Z 0412/0506 17008KT CAVOK
EGXE,TAF EGXE 041020Z 0412/0418 18012KT CAVOK
EGXT,TAF EGXT 041031Z 0412/0418 17008KT CAVOK
EGXW,TAF EGXW 041024Z 0412/0506 17008KT CAVOK
EGYD,TAF EGYD 041034Z 0412/0418 16010KT CAVOK
EGYE,TAF EGYE 041034Z 0412/0418 16010KT CAVOK
EGYM,TAF EGYM 041037Z 0412/0418 15008KT 9999 FEW030
EGYP,TAF EGYP 041058Z 0412/0506 35015G25KT 9999 FEW007 520003 PROB40 TEMPO 0412/0416 VRB05KT BKN008 560003 PROB30 TEMPO 0412/0414 36025G35KT 530003 PROB30 TEMPO 0412/0414 4000 -DZ SCT005 BKN006 BECMG 0416/0418 29013KT 50//// PROB30 TEMPO 0416/0419 SCT018 PROB30 0422/0424 7000 BR PROB40 0500/0506 7000 BR PROB30 0501/0506 4000 PROB30 TEMPO 0501/0506 SCT005
EHAM,TAF EHAM 041057Z 0412/0518 07008KT CAVOK BECMG 0414/0417 03010KT BECMG 0501/0504 11005KT BECMG 0513/0516 32008KT
EHBK,TAF EHBK 041058Z 0412/0518 07010KT CAVOK BECMG 0417/0419 04004KT
EHEH,TAF EHEH 041112Z 0412/0518 07007KT CAVOK TEMPO 0420/0509 VRB02KT
EHGG,TAF EHGG 041058Z 0412/0518 05005KT CAVOK BECMG 0415/0417 02010KT BECMG 0418/0420 07004KT
EHGR,TAF EHGR 040815Z 0409/0421 06004KT CAVOK BECMG 0418/0421 VRB02KT
EHKD,TAF EHKD 040811Z 0409/0421 VRB02KT CAVOK BECMG 0409/0412 04007KT
EHLE,TAF EHLE 041058Z 0412/0518 04005KT CAVOK BECMG 0414/0417 36010KT BECMG 0422/0501 VRB02KT BECMG 0512/0515 12007KT
EHLW,TAF EHLW 040813Z 0409/0421 VRB02KT CAVOK BECMG 0410/0412 03006KT
EHRD,TAF EHRD 041057Z 0412/0518 07008KT CAVOK BECMG 0414/0417 36010KT BECMG 0420/0423 VRB02KT PROB30 0502/0507 6000 MIFG BECMG 0513/0516 32008KT
EHVK,TAF EHVK 040816Z 0409/0421 07004KT CAVOK TEMPO 0420/0421 VRB02KT
EHWO,TAF EHWO 040814Z 0409/0421 08005KT CAVOK BECMG 0418/0421 VRB02KT
EICK,TAF EICK 041100Z 0412/0512 21012KT 9999 SCT010 BKN020 TEMPO 0412/0419 BKN010 BECMG 0419/0421 3000 -RADZ BR SCT003 BKN005 TEMPO 0420/0424 1500 BKN003 BECMG 0500/0502 1500 SCT001 BKN002 TEMPO 0500/0509 0400 RADZ FG BKN001 BECMG 0507/0509 24009KT 3000 SCT002 BKN005 TEMPO 0509/0512 1500 BKN002 PROB30 TEMPO 0509/0512 0400 FG BKN001
EIDL,TAF EIDL 041100Z 0412/0421 18020KT 9999 -RA FEW012 BKN020 TEMPO 0412/0421 19022G33KT PROB30 TEMPO 0420/0421 BKN012
EIDW,TAF EIDW 041100Z 0412/0512 21006KT 9999 FEW012 SCT040 BECMG 0412/0414 22011KT BECMG 0420/0422 19007KT -RA BECMG 0501/0503 22010KT BECMG 0510/0512 25011KT PROB40 TEMPO 0511/0512 4000 -RADZ BKN008
EIKN,TAF EIKN 041100Z 0412/0512 20015KT 9999 SCT008 BKN015 TEMPO 0412/0424 20017G27KT PROB40 TEMPO 0412/0414 BKN008 BECMG 0414/0416 6000 -RA FEW004 BKN008 TEMPO 0416/0418 4000 -RADZ BECMG 0418/0420 4000 -RADZ BR SCT002 BKN005 TEMPO 0420/0422 2000 BKN003 BECMG 0422/0424 1500 SCT001 BKN002 TEMPO 0423/0508 0300 RADZ FG BKN001 BECMG 0506/0508 23010KT BECMG 0508/0510 26010KT 9999 NSW SCT007 BKN015 TEMPO 0510/0512 BKN007
EIKY,TAF EIKY 041100Z 0412/0421 17012KT 9999 FEW012 BKN018 PROB30 TEMPO 0412/0418 19015G25KT TEMPO 0415/0421 4000 -RADZ BKN012 BECMG 0418/0420 20010KT
EIME,TAF EIME 041100Z 0412/0421 21013KT 9999 FEW018 TEMPO 0414/0421 21016G27KT
EINN,TAF EINN 041100Z 0412/0512 16014KT 9999 FEW014 BKN025 BECMG 0412/0414 19014KT -RA BECMG 0417/0419 16010KT TEMPO 0418/0501 4000 -RADZ TEMPO 0501/0507 4000 -RADZ BKN010 PROB30 TEMPO 0505/0507 2500 BECMG 0507/0509 24006KT TEMPO 0507/0511 2000 -RADZ BKN005 BECMG 0510/0512 27010KT PROB40 TEMPO 0511/0512 4000 -RADZ BKN010
EISG,TAF EISG 041100Z 0412/0421 16012KT 9999 FEW012 BKN020 TEMPO 0412/0421 17015G25KT PROB30 TEMPO 0415/0419 BKN012 TEMPO 0419/0421 -RA BKN012 PROB40 TEMPO 0419/0421 4000
EIWF,TAF EIWF 041100Z 0412/0421 19013KT 9999 FEW014 BKN025 TEMPO 0420/0421 -RA BKN014
EKAH,TAF EKAH 041104Z 0412/0512 30005KT CAVOK PROB40 0500/0506 0400 FZFG BKN002
EKBI,TAF EKBI 041104Z 0412/0512 30005KT 9999 SCT035 PROB40 0502/0506 0400 FZFG BKN002
EKCH,TAF EKCH 041104Z 0412/0512 34005KT 9999 SCT030
EKEB,TAF EKEB 041114Z 0412/0421 32005KT CAVOK
EKGC,TAF EKGC 041112Z 0412/0420 20010KT CAVOK
EKHD,TAF EKHD 041112Z 0412/0421 20010KT CAVOK
EKKA,TAF EKKA 041111Z 0412/0512 32010KT 9999 SCT040 BECMG 0500/0502 VRB02KT 0400 FZFG TEMPO 0502/0506 5000 MIFG BKN002 BECMG 0506/0507 9999 NSW
EKOD,TAF EKOD 040858Z 0409/0416 27007KT CAVOK
EKRK,TAF EKRK 041114Z 0412/0421 34005KT 9999 SCT035
EKRN,TAF EKRN 041105Z 0412/0421 36010KT 9999 FEW180
EKSB,TAF EKSB 040858Z 0409/0418 30005KT 9999 SCT035
EKSP,TAF EKSP 041106Z 0412/0512 28008KT 9999 SCT050 BECMG 0418/0421 VRB03KT TEMPO 0421/0502 4000 BCFG BECMG 0502/0504 0200 FZFG BKN002 TEMPO 0504/0506 1800 BR SCT012 BECMG 0506/0507 9999 NSW SCT030
EKVD,TAF EKVD 040858Z 0409/0416 27005KT 9999 SCT035
EKVG,TAF EKVG 041109Z 0412/0421 15018KT 6000 -DZ OVC004 TEMPO 0412/0421 15022G32KT 1500 DZRA BR VV001
EKVJ,TAF EKVJ 040554Z 0406/0412 27007KT CAVOK
EKYT,TAF EKYT 041111Z 0412/0512 33012KT 9999 FEW040 TEMPO 0414/0418 07010KT TEMPO 0422/0506 4000 BR BECMG 0422/0424 04003KT
ELLX,TAF ELLX 041100Z 0412/0518 05012KT CAVOK TEMPO 0422/0507 VRB02KT
ENAL,TAF ENAL 041100Z 0412/0421 02008KT CAVOK
ENAN,TAF ENAN 041100Z 0412/0512 24010KT 9999 -SHRA FEW010 BKN025 BECMG 0415/0418 18008KT
ENAT,TAF ENAT 041100Z 0412/0421 31008KT 9999 FEW020 BKN045
ENBN,TAF ENBN 041100Z 0412/0421 18005KT CAVOK
ENBO,TAF ENBO 041100Z 0412/0512 22010KT 9999 FEW010 BKN030 PROB40 TEMPO 0412/0414 4000 DZRA BKN012 BECMG 0418/0420 12008KT
ENBR,TAF ENBR 041100Z 0412/0512 18008KT CAVOK
ENBS,TAF ENBS 041100Z 0412/0421 28015KT 9999 FEW020 SCT040 TEMPO 0412/0418 27025G40KT PROB40 0415/0421 2500 -SHSN VV006 TEMPO 0415/0421 SCT015TCU
ENCN,TAF ENCN 041100Z 0412/0421 18008KT CAVOK BECMG 0418/0420 05010KT
ENDU,TAF ENDU 041100Z 0412/0512 24005KT 9999 SCT030 BKN045
ENEV,TAF ENEV 041100Z 0412/0512 25007KT 9999 FEW015 BKN035 TEMPO 0418/0421 BKN014
ENFL,TAF ENFL 041100Z 0412/0421 20012KT CAVOK BECMG 0418/0420 14008KT
ENGC,TAF ENGC 041100Z 0412/0512 18028KT 9999 BKN025 BECMG 0421/0423 18038KT
ENGM,TAF ENGM 041100Z 0412/0512 VRB03KT CAVOK BECMG 0417/0419 36010KT
ENHD,TAF ENHD 041100Z 0412/0421 20008KT 9999 FEW025
ENHE,TAF ENHE 041100Z 0412/0421 22020KT 9999 FEW012 BKN050
ENHF,TAF ENHF 041100Z 0412/0421 25015KT 9999 FEW010 BKN020 TEMPO 0412/0414 26018G28KT 4000 -SHRASN BKN005TCU TEMPO 0414/0418 VRB08G18KT 2000 -SHSNRA BKN005TCU TEMPO 0418/0421 BKN012
ENHK,TAF ENHK 041100Z 0412/0419 27018KT 9999 -RA FEW010 BKN020 TEMPO 0412/0415 27020G30KT TEMPO 0412/0419 BKN005TCU
ENHV,TAF ENHV 041100Z 0412/0421 26018KT 9999 FEW018 BKN025 TEMPO 0412/0418 3000 -SHSNRA BKN009TCU BECMG 0412/0414 32012KT
ENKB,TAF ENKB 041100Z 0412/0421 05008KT CAVOK
ENKR,TAF ENKR 041100Z 0412/0421 26009KT 9999 FEW025
ENLE,TAF ENLE 041100Z 0412/0421 20015KT 9999 FEW020
ENMH,TAF ENMH 041100Z 0412/0421 25018KT 9999 FEW012 BKN020 TEMPO 0412/0414 27020G30KT 4000 -SHSNRA BKN009TCU BECMG 0412/0414 31012KT TEMPO 0414/0419 3500 -SHSNRA BKN009TCU
ENML,TAF ENML 041100Z 0412/0421 26005KT CAVOK
ENMS,TAF ENMS 041100Z 0412/0421 15008KT 9999 FEW040
ENNA,TAF ENNA 041100Z 0412/0512 27009KT 9999 FEW035 SCT050 TEMPO 0412/0415 TEMPO 0418/0424 BKN014 BECMG 0422/0501 18010KT
ENNE,TAF AMD ENNE 040947Z 0409/0417 20018KT 9999 SCT015 BKN040 TEMPO 0409/0413 BKN008
ENNM,TAF ENNM 041100Z 0412/0424 06008KT 9999 FEW012 BKN025
ENNO,TAF ENNO 040800Z 0409/0417 VRB02KT CAVOK
ENOA,TAF ENOA 041100Z 0412/0512 17028KT 9999 BKN025 BECMG 0421/0423 17038KT
ENOL,TAF ENOL 041100Z 0412/0512 12005KT CAVOK
ENOV,TAF ENOV 041100Z 0412/0421 VRB03KT CAVOK
ENRA,TAF ENRA 041100Z 0412/0421 VRB03KT 9999 SCT004 BKN018 TEMPO 0412/0414 BKN010
ENRM,TAF ENRM 041100Z 0412/0419 VRB03KT 9999 BKN008 BECMG 0412/0414 FEW004
ENRO,TAF ENRO 040800Z 0409/0418 VRB03KT 9999 BKN040
ENRS,TAF ENRS 041100Z 0412/0420 21009KT 9999 FEW030 BKN050
ENRY,TAF ENRY 041100Z 0412/0512 33005KT CAVOK
ENSB,TAF ENSB 041100Z 0412/0512 12009KT 9999 DRSN FEW020 BECMG 0509/0512 12020KT
ENSD,TAF ENSD 041100Z 0412/0421 VRB03KT CAVOK
ENSH,TAF ENSH 040500Z 0406/0412 19008KT 9999 -SHRA FEW015 BKN030
ENSK,TAF ENSK 041100Z 0412/0420 26008KT 9999 FEW010 BKN030 PROB40 TEMPO 0412/0415 SHRA BKN009
ENSO,TAF ENSO 040800Z 0409/0417 12008KT CAVOK BECMG 0410/0412 20010KT
ENSR,TAF ENSR 041100Z 0412/0419 25008KT 9999 FEW015 BKN050 PROB30 TEMPO 0412/0419 3000 -SHRASN VV010
ENSS,TAF ENSS 041100Z 0412/0421 24015KT 9999 SCT040 BECMG 0414/0416 31015KT TEMPO 0419/0421 2500 -SHSN VV009 TEMPO 0419/0421 SCT012TCU
ENTC,TAF ENTC 041100Z 0412/0512 25012KT 9999 -SHRA FEW015 BKN030 TEMPO 0418/0505 3000 RASN VV010
ENTO,TAF ENTO 041100Z 0412/0512 36008KT CAVOK
ENVA,TAF ENVA 041100Z 0412/0512 09005KT 9999 FEW040
ENVD,TAF ENVD 041100Z 0412/0421 27015KT 9999 SCT020 TEMPO 0412/0415 28020G30KT
ENZV,TAF ENZV 041100Z 0412/0512 21010KT 9999 FEW025 BECMG 0416/0418 15005KT BECMG 0508/0510 17015KT
EPBY,TAF EPBY 041130Z 0412/0512 34008KT 9999 SCT040 PROB40 TEMPO 0412/0418 -SHSN BKN030TCU PROB30 0420/0506 VRB02KT BKN006
EPCE,TAF EPCE 041100Z 0412/0424 34012KT 9999 SCT030 PROB30 TEMPO 0412/0415 34008G18KT 8000 SHSN BKN020TCU BECMG 0418/0420 SCT008 BKN010
EPDA,TAF EPDA 041100Z 0412/0424 36008KT CAVOK TEMPO 0418/0424 BKN020
EPDE,TAF EPDE 041100Z 0412/0424 33006KT CAVOK PROB30 TEMPO 0412/0416 6000 SHSN BKN030CB
EPGD,TAF EPGD 041130Z 0412/0512 36010KT 9999 BKN040 PROB30 TEMPO 0412/0416 -SHSN BKN030TCU BECMG 0419/0422 30005KT TEMPO 0506/0512 -SHSN BKN020TCU
EPIR,TAF EPIR 041100Z 0412/0424 34010KT CAVOK BECMG 0421/0423 VRB03KT
EPKK,TAF EPKK 041130Z 0412/0512 02010KT 9999 BKN040 TEMPO 0412/0416 BKN035TCU BECMG 0422/0501 27003KT
EPKS,TAF EPKS 041100Z 0412/0424 36010KT 9999 BKN040 BECMG 0415/0417 SCT040
EPKT,TAF EPKT 041130Z 0412/0512 35010KT 9999 BKN030 PROB30 TEMPO 0412/0416 BKN025TCU BECMG 0420/0423 VRB02KT TEMPO 0510/0512 SCT030TCU
EPLB,TAF EPLB 041130Z 0412/0512 34010KT 9999 BKN035
EPLK,TAF EPLK 041100Z 0412/0424 33007KT 9999 BKN030
EPLL,TAF EPLL 041130Z 0412/0512 33008KT 9999 BKN033
EPLY,TAF EPLY 041100Z 0412/0424 35010KT CAVOK BECMG 0417/0419 VRB03KT
EPMB,TAF EPMB 041100Z 0412/0424 35012KT 9999 BKN045 PROB30 TEMPO 0412/0424 5000 -SHSN BKN025TCU
EPMI,TAF EPMI 041100Z 0412/0424 33010KT SCT040
EPMM,TAF EPMM 041100Z 0412/0424 33010KT 9999 BKN035 TEMPO 0412/0415 6000 -SHSN BKN020TCU BECMG 0420/0423 CAVOK
EPMO,TAF EPMO 041130Z 0412/0512 32008KT 9999 BKN033 TEMPO 0412/0416 -SHSN SCT030CB PROB40 TEMPO 0500/0506 3000 BR
EPOK,TAF EPOK 041100Z 0412/0424 35012KT 9999 SCT035 PROB30 TEMPO 0412/0412 5000 -SHGS -SHSN BKN020TCU
EPPO,TAF EPPO 041130Z 0412/0512 36008KT 9999 BKN040 PROB30 TEMPO 0412/0415 01015G25KT BKN030TCU
EPPR,TAF EPPR 041100Z 0412/0424 35012KT 9999 BKN030 PROB30 TEMPO 0412/0412 5000 -SHSN BKN020CB
EPPW,TAF EPPW 041100Z 0412/0424 01010KT 9999 BKN040 BECMG 0416/0418 35004KT
EPRA,TAF EPRA 041130Z 0412/0421 34010KT 9999 BKN040
EPRZ,TAF EPRZ 041130Z 0412/0512 36010KT 9999 SCT040 TEMPO 0412/0416 BKN040TCU TEMPO 0510/0512 BKN035TCU
EPSC,TAF EPSC 041130Z 0412/0512 31010KT 9999 BKN030 BECMG 0417/0420 VRB02KT PROB40 0500/0506 4000 -SN BR BKN014 TEMPO 0509/0512 BKN020TCU
EPSN,TAF EPSN 041100Z 0412/0424 34008KT 9999 SCT040
EPSY,TAF EPSY 041130Z 0412/0421 35010KT 9999 BKN030 TEMPO 0412/0416 4000 -SHSN BKN016CB PROB40 TEMPO 0412/0416 34015G25KT 1400 SHGS BKN010CB
EPTM,TAF EPTM 041100Z 0412/0424 34010KT 9999 BKN040 BECMG 0418/0421 VRB03KT SCT040
EPWA,TAF EPWA 041130Z 0412/0512 33010KT 9999 BKN035 PROB40 TEMPO 0412/0416 -SHSN SCT030CB
EPWR,TAF EPWR 041130Z 0412/0512 36010KT 9999 BKN040 PROB30 TEMPO 0412/0415 36015G25KT BKN030TCU BECMG 0418/0421 30005KT
EPZG,TAF EPZG 041130Z 0412/0421 34005KT 9999 BKN048
ESCF,TAF ESCF 041130Z 0412/0415 VRB04KT 9999 BKN030 RMK MIL
ESCM,TAF ESCM 040830Z 0409/0414 VRB02KT 9999 BKN040 RMK MIL
ESDF,TAF ESDF 041122Z 0412/0419 34009KT CAVOK TEMPO 0412/0415 -SHRA BKN030TCU RMK MIL
ESGG,TAF ESGG 041130Z 0412/0512 02005KT 9999 SCT035 PROB40 0422/0507 2000 BCFG
ESGJ,TAF ESGJ 041130Z 0412/0421 02005KT 9999 SCT040 PROB40 0420/0421 2000 BR BKN006
ESGP,TAF ESGP 041130Z 0412/0421 VRB02KT 9999 SCT035
ESGT,TAF ESGT 041130Z 0412/0417 02006KT CAVOK
ESIA,TAF ESIA 040830Z 0409/0414 VRB03KT CAVOK RMK MIL
ESIB,TAF ESIB 041130Z 0412/0415 02006KT CAVOK RMK MIL
ESKN,TAF ESKN 041130Z 0412/0512 03005KT CAVOK PROB40 0510/0512 3000 -SN
ESMK,TAF ESMK 041102Z 0412/0419 34005KT 9999 SCT035
ESMQ,TAF ESMQ 041130Z 0412/0419 04010KT 9999 SCT030
ESMS,TAF ESMS 041103Z 0412/0512 30005KT 9999 SCT030 TEMPO 0500/0506 BKN014
ESMT,TAF ESMT 041102Z 0412/0419 32005KT CAVOK
ESMX,TAF ESMX 041130Z 0412/0415 01008KT CAVOK
ESNG,TAF ESNG 041130Z 0412/0421 31008KT CAVOK
ESNO,TAF ESNO 041130Z 0412/0419 VRB03KT CAVOK
ESNQ,TAF ESNQ 041130Z 0412/0418 VRB03KT CAVOK
ESNS,TAF ESNS 041130Z 0412/0418 06006KT CAVOK
ESNU,TAF ESNU 041130Z 0412/0421 16005KT CAVOK
ESNX,TAF ESNX 041130Z 0412/0421 28008KT 9999 SCT040
ESOE,TAF ESOE 041130Z 0412/0421 VRB02KT 9999 BKN045
ESOK,TAF ESOK 041130Z 0412/0415 36005KT CAVOK
ESOW,TAF ESOW 041130Z 0412/0420 01005KT 9999 SCT035
ESPA,TAF ESPA 041115Z 0412/0421 14005KT CAVOK RMK MIL
ESPE,TAF ESPE 040830Z 0409/0414 VRB02KT CAVOK RMK MIL
ESSA,TAF ESSA 041130Z 0412/0512 02005KT 9999 BKN045 PROB40 0502/0506 2000 BCFG
ESSB,TAF ESSB 041130Z 0412/0421 02004KT CAVOK
ESSD,TAF ESSD 041130Z 0412/0415 01006KT 9999 BKN025
ESSL,TAF ESSL 041130Z 0412/0420 03004KT 9999 SCT045 PROB40 0418/0420 3000 BR
ESSP,TAF ESSP 041130Z 0412/0415 01003KT CAVOK
ESSV,TAF ESSV 041130Z 0412/0420 01011KT 9999 SCT035
ESTA,TAF ESTA 041102Z 0412/0419 31005KT CAVOK
ESTL,TAF ESTL 041102Z 0412/0415 31007KT CAVOK
ETAD,TAF ETAD 040512Z 0405/0511 06010KT 9999 FEW200 QNH3020INS TX06/0414Z TNM03/0503Z
ETAR,TAF ETAR 041000Z 0410/0516 05010G20KT 9999 SKC QNH3024INS BECMG 0415/0416 06006KT 9999 SCT150 QNH3020INS BECMG 0515/0516 VRB06KT 9999 BKN060 QNH3016INS TX06/0414Z TNM04/0506Z
ETEB,TAF ETEB 040700Z 0407/0513 04012KT 9999 FEW025 QNH3023INS BECMG 0418/0419 VRB06KT 9999 BKN030 OVC045 QNH3017INS TX05/0413Z TNM02/0507Z
ETHA,TAF ETHA 041020Z 0411/0420 07010G20KT 9999 NSW SCT045 TEMPO 0411/0413 08015G25KT 9999 NSW BKN040
ETHB,TAF ETHB 041003Z 0411/0420 06007KT 9999 NSW FEW035
ETHC,TAF ETHC 041023Z 0411/0420 VRB03KT 9999 NSW SCT040 SCT130
ETHF,TAF ETHF 041020Z 0411/0420 06005KT 9999 NSW FEW040
ETHL,TAF ETHL 041000Z 0411/0420 06010G20KT 9999 NSW SCT040
ETHN,TAF ETHN 041000Z 0411/0420 06010KT 9999 NSW SCT035
ETHS,TAF ETHS 041029Z 0411/0420 05005KT 9999 NSW SCT030 SCT200
ETIC,TAF ETIC 041000Z 0410/0516 06006KT 9999 OVC030 650405 QNH3019INS BECMG 0421/0422 06006KT 9999 SCT050 QNH3016INS BECMG 0507/0508 04006KT 9999 OVC040 650505 QNH3010INS TX03/0412Z TNM03/0504Z
ETIK,TAF ETIK 040600Z 0406/0512 VRB06KT 9999 SKC QNH3030INS BECMG 0408/0409 04010KT 9999 FEW055 QNH3030INS BECMG 0418/0419 06006KT 9999 BKN150 QNH3025INS TX05/0414Z TNM04/0504Z
ETMN,TAF ETMN 041025Z 0411/0420 05005KT 9999 NSW FEW035 BKN130
ETNG,TAF ETNG 041100Z 0412/0503 05007G15KT CAVOK BECMG 0417/0419 VRB02KT
ETNH,TAF ETNH 041020Z 0411/0420 VRB03KT 9999 NSW FEW040 BKN120 BECMG 0415/0417 31005KT 9999 NSW BKN040 BY ETGL
ETNL,TAF ETNL 041020Z 0411/0423 33008KT 9999 NSW FEW030 BKN120 BY ETGL
ETNN,TAF ETNN 041007Z 0411/0420 04005KT 9999 NSW FEW040 SCT150 BY ETGL
ETNS,TAF ETNS 041020Z 0411/0420 VRB03KT 9999 NSW FEW040 BKN120 BECMG 0415/0417 29005KT 9999 NSW BKN040 BY ETGL
ETNW,TAF ETNW 041000Z 0411/0511 09005KT 9999 NSW FEW035 SCT260 BY ETGL
ETOU,TAF ETOU 040400Z 0404/0510 05009KT 9999 SCT030 QNH3036INS BECMG 0408/0409 06009KT 9999 BKN030 QNH3032INS BECMG 0413/0414 05006KT 9999 SCT040 BKN140 QNH3025INS TX08/0415Z TNM01/0504Z
ETSB,TAF ETSB 041010Z 0411/0420 07010KT 9999 NSW FEW180 BY ETGL
ETSH,TAF ETSH 041023Z 0411/0420 06010KT 9999 NSW SCT040
ETSI,TAF ETSI 041010Z 0411/0420 06006G16KT 9999 NSW SCT050
ETSL,TAF ETSL 041010Z 0411/0420 06012G22KT 9999 NSW SCT040 BY ETGL
ETSN,TAF ETSN 041010Z 0411/0420 07008KT 9999 NSW SCT050 BY ETGL
EVGA,TAF EVGA 041125Z 0412/0512 36007KT 9999 OVC020 TEMPO 0412/0418 2000 SN BKN012 BECMG 0418/0419 4000 -SN TEMPO 0419/0507 2000 SN BKN005 BECMG 0507/0509 8000 NSW
EVLA,TAF EVLA 041122Z 0412/0512 34012KT 9999 SCT040 TEMPO 0422/0424 4000 -SN BKN012 BECMG 0500/0501 4000 -SN BR TEMPO 0501/0505 2000 SN OVC007 BECMG 0505/0507 07005KT 6000 NSW TEMPO 0505/0512 4000 -SNRA BKN012
EVRA,TAF EVRA 041117Z 0412/0512 34010KT 9999 BKN030 TEMPO 0413/0418 3000 -SN BKN010 BECMG 0418/0419 4000 -SN TEMPO 0419/0508 2000 SN BR OVC005 BECMG 0422/0424 05005KT BECMG 0504/0506 6000 NSW TEMPO 0506/0509 BKN007
EVVA,TAF EVVA 041126Z 0412/0421 35012KT CAVOK TEMPO 0418/0421 4000 -SN
EYKA,TAF EYKA 041100Z 0412/0512 VRB05KT 6000 SCT010 OVC015 TEMPO 0412/0418 3000 SNRA SCT005 BKN010 BECMG 0418/0419 BKN005 OVC010 TEMPO 0419/0503 1500 SN BR OVC002 TEMPO 0503/0506 OVC002 BECMG 0506/0508 9000 NSW BKN010 OVC015 BECMG 0508/0510 BKN015
EYPA,TAF EYPA 041100Z 0412/0512 VRB05KT 9000 SCT040 TEMPO 0412/0417 33015KT BKN030 BECMG 0417/0419 BKN020 BECMG 0422/0424 BKN010 OVC020 TEMPO 0500/0508 1500 SN BR OVC005
EYSA,TAF COR EYSA 041122Z 0412/0421 01010KT 8000 SCT010 BKN020 TEMPO 0412/0415 5000 SNRA BKN005 TEMPO 0415/0421 3000 SN BKN005
EYVI,TAF EYVI 041100Z 0412/0512 VRB05KT 5000 SNRA BR BKN005 BKN020 TEMPO 0412/0418 1500 OVC005 FM041800 5000 BR OVC005 TEMPO 0418/0504 1500 SN BKN002 BECMG 0504/0506 8000 NSW BECMG 0506/0508 SCT010 BKN015
FABL,TAF FABL 041000Z 0412/0512 VRB03KT CAVOK TX24/0412Z TN09/0504Z
FACT,TAF FACT 041000Z 0412/0518 18015KT CAVOK TX28/0513Z TN12/0504Z BECMG 0422/0424 VRB03KT TEMPO 0422/0507 3500 BR NSC PROB40 TEMPO 0500/0505 1200 BCFG NSC BECMG 0510/0512 18012KT
FAEL,TAF FAEL 040900Z 0410/0419 26010KT 9999 FEW015 SCT025 TX23/0410Z TN19/0418Z BECMG 0410/0412 19008KT BECMG 0416/0418 VRB03KT
FAGG,TAF FAGG 041000Z 0412/0512 10010KT CAVOK TX24/0512Z TN13/0504Z FM042100 30005KT CAVOK TEMPO 0500/0507 1200 BCFG BKN005 FM050900 16005KT CAVOK
FAHS,TAF FAHS 040900Z 0410/0418 16013KT CAVOK TX28/0412Z TN20/0418Z PROB30 TEMPO 0412/0418 -TSRA FEW035CB
FAKM,TAF FAKM 040900Z 0410/0418 VRB03KT CAVOK TX25/0412Z TN16/0418Z
FAKN,TAF FAKN 040900Z 0410/0418 14007KT 9999 SCT035 TX25/0412Z TN18/0418Z PROB30 TEMPO 0410/0418 -TSRA FEW035CB
FALA,TAF FALA 041000Z 0412/0512 VRB03KT 9999 SCT040 TX26/0413Z TN13/0504Z BECMG 0414/0416 CAVOK PROB30 TEMPO 0500/0506 BKN010 BECMG 0507/0510 SCT030
FALE,TAF FALE 041000Z 0412/0518 18015KT 9999 SCT035 TX25/0412Z TN16/0503Z PROB30 TEMPO 0415/0418 5000 SHRA BKN020 FEW030TCU BECMG 0418/0420 25005KT FM050900 15012KT CAVOK
FAMM,TAF FAMM 040900Z 0410/0418 VRB03KT CAVOK TX27/0412Z TN16/0418Z BECMG 0410/0412 22008KT
FAOR,TAF FAOR 041000Z 0412/0518 VRB03KT 9999 SCT045 TX24/0413Z TN12/0504Z BECMG 0414/0416 CAVOK BECMG 0419/0421 08010KT PROB40 TEMPO 0500/0506 4000 BR BKN008 BECMG 0507/0510 VRB03KT SCT030
FAPE,TAF FAPE 041000Z 0412/0512 19010KT 9999 SCT040 TX26/0511Z TN14/0502Z BECMG 0416/0418 05005KT PROB30 TEMPO 0502/0506 3000 PRFG FM051100 11015KT CAVOK
FAPM,TAF FAPM 040900Z 0410/0421 15007KT 9999 SCT030 TX22/0412Z TN16/0421Z PROB30 TEMPO 0415/0418 5000 TSRA BKN020 FEW030CB
FAPP,TAF FAPP 040900Z 0410/0418 35007KT 9999 SCT030 TX27/0412Z TN18/0418Z PROB30 TEMPO 0411/0418 -TSRA FEW030CB
FARB,TAF FARB 040900Z 0410/0418 19015KT 9999 BKN030 TX25/0412Z TN22/0418Z PROB30 TEMPO 0414/0418 5000 SHRA BKN015 FEW030TCU
FAUP,TAF FAUP 041000Z 0412/0512 VRB03KT CAVOK TX29/0413Z TN13/0504Z
FAUT,TAF AMD FAUT 041127Z 0410/0418 20010KT 9999 BKN020 TX21/0412Z TN14/0418Z BECMG 0413/0415 BKN014 PROB30 TEMPO 0416/0418 4500 BR BKN008
FAWB,TAF FAWB 040900Z 0410/0418 VRB03KT 9999 SCT040 TX26/0412Z TN18/0418Z PROB30 TEMPO 0413/0416 TS FEW040CB
FBKE,FBKE 040900Z 0412/0421 07005KT CAVOK
FBMN,TAF FBMN 041000Z 0412/0512 13005KT CAVOK
FBPM,FBPM 041000Z 0412/0512 10010KT CAVOK BECMG 0502/0504 OVC014 BECMG 0509/0511 SCT025
FBSK,FBSK 041000Z 0412/0518 16005KT CAVOK BECMG 0504/0506 04008KT BKN014 B ECMG 0510/0512 SCT030 FEW035CB
FCBB,TAF FCBB 031700Z 0318/0424 26004KT 9000 TS FEW020 FEW030CB BECMG 0323/0401 NSW SCT018 PROB30 0417/0421 FEW020 FEW030CB
FCPP,TAF FCPP 031700Z 0318/0418 20005KT 9000 SCT020 FEW030CB BECMG 0321/0323 SCT020 BECMG 0412/0414 SCT022 FEW030CB
FDMS,TAF FDMS 041000Z 0412/0418 15010KT 9999 BKN035 PROB30 TEMPO 0412/0417 7000 -TSRA FEW035CB
FDSK,TAF FDSK 041000Z 0412/0418 18015KT 9999 BKN035 PROB30 TEMPO 0413/0416 8000 -TSRA FEW040CB BECMG 0416/0418 SCT035
FEFF,TAF FEFF 031700Z 0318/0424 VRB03KT 8000 TS BKN010 FEW033CB TEMPO 0318/0322 4000 TSRA BECMG 0323/0401 CAVOK
FGBT,TAF FGBT 031700Z 0318/0418 26010KT 9999 TS SCT010 FEW018CB PROB40 TEMPO 0318/0324 4000 TSRA BKN010 FEW020CB BECMG 0402/0404 NSW PROB40 TEMPO 0413/0418 4000 TSRA BKN010 FEW018CB
FGSL,TAF FGSL 031700Z 0318/0424 VRB02KT 8000 FEW008 PROB30 TEMPO 0402/0406 4500 RA BKN008
FIMP,TAF COR FIMP 040505Z 0406/0512 VRB05KT 9999 SCT017 PROB30 TEMPO 0409/0413 7000 -SHRA BKN016
FIMR,TAF FIMR 040510Z 0406/0500 06010KT 9999 SCT018 PROB30 TEMPO 0410/0414 7000 -SHRA BKN016
FJDG,TAF FJDG 040900Z 0409/0515 VRB06KT 9999 FEW020 BKN200 QNH2974INS TX31/0409Z TN25/0418Z FOR MIL USE ONLY
FKKD,TAF FKKD 031100Z 0312/0418 VRB03KT 9999 TS BKN013 FEW016CB PROB30 TEMPO 0405/0407 4000 BR BECMG 0408/0410 BKN016
FKYS,TAF FKYS 031100Z 0312/0412 VRB05KT BKN014 FEW016CB TEMPO 0314/0319 4000 TSRA BECMG 0320/0322 BKN006 PROB30 TEMPO 0405/0407 4000 BR BECMG 0408/0410 BKN016
FLCP,TAF FLCP 031000Z 0312/0418 15005KT 9999 FEW035CB BKN040 PROB30 TEMPO 0312/0315 9000 -TSRA BECMG 0318/0320 16005KT 9999 FEW///CB BKN090 BECMG 0404/0406 BKN010
FLHN,TAF FLHN 031000Z 0312/0418 09010KT 9999 FEW035CB SCT040 FM031600 VRB03KT CAVOK BECMG 0408/0410 09005KT 9999 SCT020 FM041400 CAVOK
FLKK,TAF FLKK 031000Z 0312/0418 09010KT 9999 BKN035TCU PROB30 TEMPO 0312/0314 9000 -SHRA FM031600 12005KT CAVOK BECMG 0406/0408 09010KT BKN015
FLKS,TAF FLKS 031000Z 0312/0418 09010KT 9999 FEW030CB BKN035 PROB30 TEMPO 0312/0315 8000 -TSRA BECMG 0316/0318 09005KT FEW///CB BKN090 PROB30 TEMPO 0318/0321 9000 -TSRA
FLMA,TAF FLMA 031000Z 0312/0418 15005KT 999 FEW030CB BKN035 PROB30 TEMPO 0312/0316 8000 -TSRA BECMG 0318/0320 VRB03KT 9999 FEW///CB BKN090 PROB30 TEMPO 0320/0322 9000 -TSRA
FLMF,TAF FLMF 031000Z 0312/0418 15005KT 9999 FEW035CB BKN040 PROB30 TEMPO 0312/0315 9000 -TSRA BECMG 0318/0320 16005KT 9999 FEW///CB BKN090 BECMG 0404/0406 BKN010
FLSK,TAF FLSK 031000Z 0312/0418 09010KT 9999 FEW035CB BKN040 PROB30 TEMPO 0312/0316 9000 -TSRA BECMG 0318/0320 09005KT FEW///CB BKN090 BECMG 0404/0406 09010KT BKN010
FLSW,TAF FLSW 031000Z 0312/0418 15010KT 9999 FEW035CB BKN040 PROB30 TEMPO 0312/0418 15010KT 9999 FEW035CB BKN040 PROB30 TEMPO 0312/0315 9000 -TSRA BECMG 0316/0318 VRB03KT FEW///CB BKN090 PROB30 TEMPO 0318/0321 9000 -TSRA
FMCH,TAF FMCH 041100Z 0412/0518 10008KT 9999 FEW020 PROB40 TEMPO 0412/0415 4500 TSSHRA FEW020CB BKN030 PROB40 TEMPO 0506/0516 4000 TSSHRA FEWO20CB BKN030
FMCZ,TAF FMCZ 041100Z 0412/0512 04009KT 9999 FEW023
FMEE,FMEE 041100Z 0412/0518 04006KT 9999 NSC TEMPO 0416/0418 SHRA BECMG 0509/0511 VRB02KT TEMPO 0511/0514 SHRA SCT020TCU
FMEP,TAF FMEP 041100Z 0412/0421 17004KT 1500 SHRA FEW020 BKN035 BKN050 BECMG 0412/0414 06012KT BECMG 0415/0417 9999 NSC
FMMI,TAF FMMI 041100Z 0412/0518 08005KT 9999 BKN020CB PROB40 TEMPO 0413/0421 VRB15G25KT 4000 TSRA BECMG 0418/0420 FEW017 BKN020 PROB40 0500/0508 0600 FG BKN005 BECMG 0508/0510 BKN020CB PROB40 TEMPO 0511/0518 3000 TSRA
FMMS,TAF FMMS 041100Z 0412/0512 16010KT 9999 SCT017 BKN033 PROB30 TEMPO 0412/0414 4000 SHRA BECMG 0414/0416 10010KT BECMG 0420/0422 16006KT PROB40 TEMPO 0500/0510 4000 SHRA
FMMT,TAF FMMT 041100Z 0412/0512 10010KT 9999 FEW007 SCT017TCU BKN033 PROB40 TEMPO 0412/0414 4000 SHRA BECMG 0416/0418 24005KT PROB30 TEMPO 0418/0422 4000 SHRA BECMG 0506/0508 18010KT
FMNA,TAF FMNA 041100Z 0412/0512 10010KT 9999 SCT020 BECMG 0414/0416 16008KT
FMNM,TAF FMNM 041100Z 0412/0512 34012KT 9999 SCT017CB SCT040 PROB40 TEMPO 0412/0504 4000 TSRA BECMG 0418/0420 12006KT BECMG 0509/0511 32010KT
FMNN,TAF FMNN 041100Z 0412/0512 04004KT 9999 SCT020CB PROB40 TEMPO 0412/0502 VRB12KT 4000 TSRA BECMG 0503/0506 SCT020 BECMG 0509/0511 28010KT
FMSD,TAF FMSD 041100Z 0412/0512 08016KT 9999 SCT016CB BECMG 0420/0422 SCT020CB
FMST,TAF FMST 041100Z 0412/0512 28012KT 9999 SCT020CB PROB30 TEMPO 0413/0419 4500 TSRA BECMG 0418/0420 VRB02KT SCT020
FNBG,TAF FNBG 041100Z 0412/0424 30006KT 9999 FEW018 BKN030 PROB30 TEMPO 0413/0417 4000 DZ
FNCA,TAF FNCA 041051Z 0412/0424 26008KT 9999 FEW013 PROB30 TEMPO 0413/0417 4000 DZ SCT018 FEW025CB
FNCT,TAF FNCT 041100Z 0412/0424 29006KT 9999 SCT018 PROB30 TEMPO 0413/0417 4000 DZ
FNDU,TAF FNDU 041029Z 0412/0424 VRB03KT 4000 TSRA FEW010 FEW018CB BKN020 BECMG 0414/0416 9999
FNGI,TAF FNGI 041044Z 0412/0424 08009KT 9999 FEW025
FNHU,TAF FNHU 032300Z 0400/0412 VRB03KT 9999 FEW018 FEW025CB
FNKU,TAF AMD FNKU 041100Z 0412/0424 08010KT 9999 FEW018 BKN030 PROB30 TEMPO 0413/0417 4000 RA SCT022 FEW030CB BECMG 0422/0424 2000 TSRA BKN008 FEW018CB
FNLU,TAF FNLU 041047Z 0412/0518 29007KT 9999 SCT020 FEW023CB BKN040 PROB40 TEMPO 0413/0419 4000 TSRA
FNMA,TAF FNMA 041101Z 0412/0424 08004KT 8000 FEW012 BKN025 PROB40 TEMPO 0413/0419 3000 SHRA FEW020CB BKN030 BECMG 0420/0422 OVC008
FNME,TAF FNME 041040Z 0412/0424 08008KT 9999 FEW018 BKN030 PROB30 TEMPO 0413/0417 SCT020 FEW030CB
FNMO,TAF FNMO 041045Z 0412/0424 31010KT 9999 SCT015 BECMG 0419/0421 25005KT
FNSA,TAF FNSA 041033Z 0412/0424 VRB03KT 4000 -TSRA FEW012 FEW020CB BKN040 PROB40 TEMPO 0413/0418 2000 SHRA BECMG 0420/0422 7000
FNSO,TAF FNSO 041056Z 0412/0424 23005KT 7000 BKN014 FEW022CB PROB40 TEMPO 0412/0416 4000 -RA BECMG 0417/0419 SCT020
FNUB,TAF FNUB 041104Z 0412/0424 11007KT 9999 SCT025
FNUE,TAF FNUE 041036Z 0412/0424 11007KT 9999 BKN003 OVC007 PROB30 TEMPO 0412/0418 4000 RA FEW010 FEW020CB BKN025 BECMG 0422/0424 2000 BR
FOOG,TAF FOOG 041100Z 0412/0512 22006KT 9999 SCT010 TEMPO 0412/0418 BKN010 FEW020CB
FOOL,TAF FOOL 041100Z 0412/0518 22007KT 9999 SCT012 PROB40 TEMPO 0413/0420 TS BKN012 FEW020CB
FQBR,TAF FQBR 041000Z 0412/0518 09010KT 9999 SCT020 TX30/0413Z TN23/0503Z BECMG 0418/0420 23008KT PROB30 TEMPO 0503/0510 5000 -RADZ SCT015 BECMG 0515/0517 22012KT
FQCH,TAF FQCH 041000Z 0412/0512 10008KT 9999 SCT020 TX27/0413Z TN16/0503Z BECMG 0418/0420 VRB03KT PROB30 TEMPO 0501/0506 5000 BR SCT012 BECMG 0506/0508 10008KT SCT020
FQIN,TAF FQIN 041000Z 0412/0512 16012KT 9999 BKN020 FEW030CB TX32/0413Z TN22/0503Z PROB30 TEMPO 0412/0415 5000 -TSRA FEW025CB BECMG 0418/0420 25008KT PROB30 TEMPO 0506/0510 5000 -RADZ SCT015
FQLC,TAF FQLC 041000Z 0412/0512 09010KT 9999 BKN018 FEW025CB TX25/0413Z TN14/0503Z PROB30 TEMPO 0412/0415 5000 -TSRA FEW020CB BECMG 0419/0421 17008KT BECMG 0506/0508 10008KT
FQMA,TAF FQMA 041000Z 0412/0518 17010G20KT 9999 BKN020 TX29/0413Z TN20/0503Z BECMG 0421/0423 22012KT SCT025 BECMG 0510/0512 12012KT FEW020
FQNC,TAF FQNC 041000Z 0412/0518 16010KT 9999 BKN020 FEW025CB TX28/0413Z TN23/0503Z PROB30 TEMPO 0412/0418 5000 -TSRA FEW025CB BECMG 0421/0423 23008KT BKN020 PROB30 TEMPO 0506/0512 5000 -RADZ SCT015 BECMG 0515/0517 23010KT
FQNP,TAF FQNP 041000Z 0412/0512 19010KT 9999 SCT020 FEW030CB TX29/0413Z TN21/0503Z PROB30 TEMPO 0412/0415 5000 TS FEW025CB BECMG 0422/0424 20006KT BKN020 BECMG 0508/0510 16012KT
FQPB,TAF FQPB 041000Z 0412/0512 16012KT 9999 SCT020 FEW025CB TX30/0413Z TN22/0503Z PROB30 TEMPO 0412/0418 5000 -TSRA FEW025CB BECMG 0500/0502 22008KT PROB30 TEMPO 0506/0510 5000 -RADZ SCT012
FQQL,TAF FQQL 041000Z 0412/0512 16010KT 9999 SCT020 TX29/0413Z TN22/0503Z BECMG 0418/0420 26008KT PROB30 TEMPO 0501/0506 5000 BR FEW012 BECMG 0508/0510 16010KT FEW025
FQTT,TAF FQTT 041000Z 0412/0512 12008KT 9999 SCT020 TX33/0413Z TN23/0503Z BECMG 0419/0421 19006KT BECMG 0506/0508 10008KT FEW020
FQVL,TAF FQVL 041000Z 0412/0512 08008KT 9999 SCT020 FEW030CB TX30/0413Z TN20/0503Z BECMG 0418/0420 15012KT PROB30 TEMPO 0419/0500 5000 -TSRA FEW025CB BECMG 0506/0508 10008KT SCT015 BKN020
FQXA,TAF FQXA 041000Z 0412/0512 19014KT 9999 BKN020 TX27/0413Z TN21/0503Z PROB30 TEMPO 0415/0421 5000 -TSRA FEW025CB BECMG 0420/0422 23010KT PROB30 TEMPO 0503/0508 5000 -RADZ SCT015
FSIA,TAF FSIA 041102Z 0412/0512 VRB03KT 9999 FEW023
FTTJ,TAF FTTJ 041100Z 0412/0518 03009KT 8000 NSC TEMPO 0417/0419 4000 DU TEMPO 0505/0509 4000 DU
FVJN,TAF FVJN 040400Z 0406/0512 VRB03KT CAVOK BECMG 0418/0420 10008KT BECMG 0510/0512 SCT045
FVRG,TAF FVRG 040400Z 0406/0512 13009KT CAVOK
FWCL,TAF FWCL 040900Z 0412/0518 34007KT 9999 SCT025 BKN080 BECMG 0412/0414 24006KT 9999 FEW025CB BKN080 FM041800 14008KT CAVOK BECMG 0509/0511 16008KT 9999 FEW025 BECMG 0512/0514 17010KT 9999 SCT025
FWKI,TAF FWKI 040900Z 0412/0518 10006KT 9999 SCT026 BECMG 0412/0414 12008KT FEW028CB BKN040 BECMG 0414/0416 12008KT FEW030CB SCT070
FYGF,TAF FYGF 040500Z 0406/0415 18005KT CAVOK
FYKM,TAF FYKM 040500Z 0406/0415 04005KT CAVOK
FYLZ,TAF FYLZ 040500Z 0406/0415 18005KT CAVOK
FYRU,TAF FYRU 040500Z 0406/0415 00000KT CAVOK
FYWB,TAF FYWB 040400Z 0406/0506 05006KT CAVOK
FYWE,TAF FYWE 040500Z 0406/0415 16005KT CAVOK BECMG 0409/0411 36010KT 9999 SCT045
FYWH,TAF FYWH 040400Z 0406/0506 25005KT CAVOK BECMG 0409/0411 05010KT 9999 SCT045 TEMPO 0413/0417 -TSRA FEW040CB
FZAA,TAF FZAA 031700Z 0318/0424 09010KT 3000 TSRA SCT016 FEW026CB BECMG 0320/0322 18004KT 7000 NSW BECMG 0323/0401 FEW014 BECMG 0411/0413 30012KT SCT022 FEW030CB PROB30 TEMPO 0415/0420 TS
FZIC,TAF COR FZIC 030500Z 0306/0412 16006KT 8000 SCT010 BECMG 0308/0310 26010KT BKN022 FEW034CB TEMPO 0312/0316 TS BECMG 0316/0318 00000KT NSC BECMG 0400/0402 2000 BR FM040600 14006KT 8000 SCT010
FZNA,TAF COR FZNA 030500Z 0306/0412 09004KT 7000 SCT014 BECMG 0308/0310 22010KT SCT018 FEW022CB TEMPO 0311/0316 TS BECMG 0317/0319 05004KT SCT014 BECMG 0407/0409 18010KT SCT016 FEW020CB
FZQA,TAF COR FZQA 030500Z 0306/0412 09006KT 8000 SCT015 BECMG 0309/0311 18008KT 9999 BKN018 FEW026CB TEMPO 0312/0317 24010KT 7000 -TSRA BECMG 0318/0320 09006KT SCT015
GABS,TAF GABS 041130Z 0412/0518 07010KT 8000 NSC BECMG 0504/0506 19010KT
GAGO,TAF GAGO 040500Z 0406/0506 10010KT 8000 NSC BECMG 0412/0414 22010KT
GBYD,TAF GBYD 040500Z 0406/0512 27006KT 8000 NSC
GCFV,TAF GCFV 040800Z 0409/0509 36020KT 9999 FEW020 TX22/0414Z TN17/0506Z PROB30 TEMPO 0409/0419 36020G30KT PROB40 TEMPO 0506/0509 4500 DZRA
GCGM,TAF GCGM 040800Z 0409/0509 01018KT 9999 FEW020 TX25/0414Z TN17/0506Z PROB30 TEMPO 0409/0411 22005KT TEMPO 0409/0418 VRB20KT PROB40 TEMPO 0409/0418 VRB20G30KT PROB30 TEMPO 0409/0421 36015G25KT PROB40 TEMPO 0422/0506 01008KT
GCHI,TAF GCHI 040800Z 0409/0509 36020KT 9999 SCT020 TX22/0414Z TN17/0506Z PROB30 TEMPO 0409/0509 36018G28KT
GCLA,TAF GCLA 040800Z 0409/0509 02017KT 9999 SCT025 TX22/0414Z TN16/0506Z PROB40 TEMPO 0409/0419 02015G28KT
GCLP,TAF GCLP 040800Z 0409/0509 01025KT 9999 SCT025 TX22/0414Z TN17/0506Z TEMPO 0409/0509 01025G35KT
GCRR,TAF GCRR 040800Z 0409/0509 36018KT 9999 FEW015 TX25/0414Z TN18/0506Z PROB40 TEMPO 0409/0419 36018G28KT PROB40 TEMPO 0506/0509 DZ
GCTS,TAF GCTS 040800Z 0409/0509 08015KT 9999 FEW025 TX25/0414Z TN17/0506Z PROB30 TEMPO 0409/0411 30005KT PROB30 TEMPO 0409/0418 08015G28KT PROB30 TEMPO 0412/0415 25005KT BECMG 0417/0419 28006KT
GCXO,TAF GCXO 040800Z 0409/0509 32020KT 9999 SCT010 TX20/0414Z TN12/0506Z PROB40 TEMPO 0409/0509 31020G30KT PROB30 TEMPO 0409/0411 3000 DZRA BCFG BKN006 PROB30 TEMPO 0420/0509 3000 DZRA BCFG BKN002
GECE,TAF GECE 040800Z 0409/0509 09010KT 9999 FEW020 TX22/0414Z TN14/0507Z PROB30 TEMPO 0409/0418 RA TEMPO 0418/0509 09015G25KT BECMG 0500/0502 09020KT PROB40 TEMPO 0500/0509 09020G35KT
GEML,TAF GEML 041100Z 0412/0512 08010KT 9999 FEW012 TX20/0413Z TN14/0507Z BECMG 0502/0504 08018G30KT
GFLL,TAF GFLL 041100Z 0412/0518 27008KT 9999 FEW010 TEMPO 0412/0416 27010KT BKN013 TEMPO 0420/0424 NSC TEMPO 0502/0506 BKN009 PROB30 TEMPO 0512/0516 24008KT BKN012 FEW024CB
GGOV,TAF GGOV 041100Z 0412/0512 26005KT 7000 NSC
GLRB,TAF GLRB 031700Z 0318/0418 21010KT 9999 SCT016 BECMG 0320/0322 00000KT FEW014 FEW025CB TEMPO 0401/0405 01005KT FEW012 FEW024CB BECMG 0406/0408 02005KT 6000 TSRA SCT005 BKN010 FEW025CB
GMAD,TAF GMAD 041100Z 0412/0518 26012KT 8000 BKN026 TEMPO 0412/0420 26016G30KT
GMAG,TAF GMAG 041100Z 0412/0518 35020KT 6000 SCT016 PROB40 TEMPO 0412/0420 36022G33KT PROB30 TEMPO 0506/0518 4000 -RA BKN010
GMFF,TAF GMFF 041100Z 0412/0518 02008KT 9999 FEW030 BKN200 BECMG 0412/0414 SCT030 FEW040CB PROB30 TEMPO 0414/0419 24015G26KT TSRA BECMG 0421/0423 09016KT CAVOK TEMPO 0501/0518 09025G40KT
GMFK,TAF GMFK 041100Z 0412/0518 10007KT CAVOK TEMPO 0413/0417 18017G28KT
GMFM,TAF COR GMFM 041100Z 0412/0518 32005KT CAVOK BECMG 0412/0416 32012KT 9999 SCT020 SCT100 TEMPO 0416/0423 6000 -SHRA SCT020 FEW026CB SCT100 TEMPO 0506/0515 10016G36KT 8000 SCT020
GMFO,TAF GMFO 041100Z 0412/0518 35015KT 9999 FEW030 BKN200 TEMPO 0422/0505 02005KT
GMME,TAF GMME 041100Z 0412/0518 00000KT 5000 SCT013 SCT016 TEMPO 0412/0418 29013KT TEMPO 0419/0423 3000 RA BKN020
GMMH,TAF GMMH 041100Z 0412/0518 05025KT 8000 FEW013 BECMG 0506/0509 06015KT
GMMI,TAF GMMI 041100Z 0412/0518 34010KT 4000 -RA FEW010 OVC023 BECMG 0417/0419 6000 NSW PROB30 TEMPO 0506/0515 4000 -RA BKN006
GMML,TAF GMML 041100Z 0412/0518 02021KT 8000 OVC020 PROB40 TEMPO 0412/0420 02023G36KT BECMG 0500/0502 02011KT PROB30 TEMPO 0510/0515 5000 -RA
GMMN,TAF GMMN 041100Z 0412/0518 28012KT 9999 BKN026 TEMPO 0413/0504 34014KT 6000 RA BKN020 FEW026TCU PROB30 TEMPO 0506/0509 08006KT 2000 BR SCT006 BECMG 0510/0512 36008KT 9999 FEW030
GMMW,TAF GMMW 041100Z 0412/0518 03014KT CAVOK PROB30 TEMPO 0509/0518 04022G36KT
GMMX,TAF GMMX 041100Z 0412/0518 24007KT 9999 SCT023 TEMPO 0416/0508 34016KT 5000 RA BKN020 SCT026TCU
GMMZ,TAF GMMZ 041100Z 0412/0518 12005KT 8000 NSC TEMPO 0415/0422 28018G28KT
GMTA,TAF GMTA 041100Z 0412/0518 01012KT CAVOK PROB30 TEMPO 0509/0518 04022G34KT
GMTT,TAF GMTT 041100Z 0412/0518 09009KT 8000 SCT020 BKN100 BECMG 0418/0422 09020KT TEMPO 0501/0518 09025G35KT
GOBD,TAF GOBD 040500Z 0406/0512 27007KT 8000 SCT010 PROB40 TEMPO 0406/0409 4000 BR
GOGS,TAF GOGS 040500Z 0406/0506 26005KT 9999 SCT013
GOOY,TAF GOOY 040500Z 0406/0512 30008KT 8000 SCT010 TEMPO 0406/0409 4000 BR
GOSS,TAF GOSS 040500Z 0406/0506 28006KT CAVOK
GQNO,TAF GQNO 040500Z 0406/0512 36013KT 7000 NSC TEMPO 0410/0415 06012KT
GQPP,TAF GQPP 040500Z 0406/0506 02017KT 6000 NSC
GUCY,TAF GUCY 040500Z 0406/0512 25006KT 9999 FEW015 SCT110 TEMPO 0412/0418 30012KT BKN110
GVAC,TAF GVAC 041100Z 0412/0518 04018KT 9999 FEW014 TEMPO 0412/0416 8000
GVBA,TAF GVBA 041100Z 0412/0518 03015KT 9999 SCT014 TEMPO 0412/0416 8000
GVNP,TAF GVNP 041100Z 0412/0518 02016KT 9999 FEW016 TEMPO 0412/0418 8000
GVSV,TAF GVSV 041100Z 0412/0518 05020KT 9999 FEW018
HAAB,TAF HAAB 040930Z 0412/0518 10010KT 9999 BKN025 BKN090 BECMG 0412/0416 12008KT 7000 -TSRA FEW020CB
HADR,TAF HADR 040930Z 0412/0518 16006KT 9999 BKN025 SCT080 BECMG 0412/0416 24008KT 8000 -TSRA FEW020CB
HBBA,TAF HBBA 040500Z 0406/0512 36002KT 9999 FEW020 BKN100 BECMG 0408/0410 18010G20KT CAVOK PROB30 TEMPO 0414/0422 BRB07KT 8000 TSRA OR SHRA FEW020 SCT030CB BECMG 0502/0504 00000KT 9999 FEW027 SCT080
HCMM,TAF HCMM 040500Z 0406/0512 11008KT 9999 BKN020 BECMG 0409/0412 SCT024 BECMG 0500/0503 BKN020
HDAM,TAF HDAM 041100Z 0412/0512 07013KT 9999 SCT023 BECMG 0418/0500 15005KT SCT020 BECMG 0500/0506 11005KT 9000-SHRA SCT020 BKN030 BECMG 0506/0512 10014KT 9999 NSC SCT023 SCT030
HEAL,TAF HEAL 041100Z 0412/0518 24010G20KT 6000 NSC TEMPO 0412/0416 2000 SA BECMG 0416/0418 30014KT 9999 FEW020
HEAR,TAF HEAR 041100Z 0412/0518 27010G22KT 9999 SCT025 TEMPO 0412/0417 4000 SA BECMG 0500/0502 VRB03KT BECMG 0510/0512 33010KT
HEAT,TAF HEAT 041100Z 0412/0518 35014KT CAVOK
HEAX,TAF HEAX 041100Z 0412/0518 29014KT CAVOK
HEBA,TAF HEBA 041100Z 0412/0518 30013KT CAVOK
HEBL,TAF HEBL 041100Z 0412/0518 36010KT CAVOK
HECA,TAF HECA 041100Z 0412/0518 30010KT 9999 SCT020 TEMPO 0412/0415 21014G24KT 3000 SA
HEGN,TAF HEGN 041100Z 0412/0518 12012KT CAVOK BECMG 0500/0502 32012G24KT 6000 NSC TEMPO 0509/0516 3000 SA
HELX,TAF HELX 041100Z 0412/0518 29006KT CAVOK
HEMA,TAF HEMA 041100Z 0412/0518 08010KT CAVOK BECMG 0421/0423 32012KT
HEMM,TAF HEMM 041100Z 0412/0518 24010G20KT 6000 NSC TEMPO 0412/0416 2000 SA BECMG 0416/0418 30014KT 9999 FEW020
HEOW,TAF HEOW 041100Z 0412/0518 01012KT CAVOK
HEPS,TAF HEPS 041100Z 0412/0518 30015KT 9999 SCT025
HESC,TAF HESC 041100Z 0412/0518 23010KT CAVOK BECMG 0421/023 VRB03KT BECMG 0510/0512 30010KT
HESG,TAF HESG 041100Z 0412/0518 34012KT CAVOK
HESH,TAF HESH 041100Z 0412/0518 36010KT CAVOK TEMPO 0412/0417 18008KT
HESN,TAF HESN 041100Z 0412/0518 35008KT CAVOK
HETB,TAF HETB 041100Z 0412/0518 22010KT CAVOK BECMG 0500/0502 33015KT 7000 NSC
HETR,TAF HETR 041100Z 0412/0518 18014KT CAVOK BECMG 0500/0502 32015G25KT 6000 NSC TEMPO 0506/0515 3000 SA
HKEL,TAF HKEL 040500Z 0406/0512 27010KT 9999 FEW022CB SCT023 TEMPO 0412/0416 -TSRA FEW018CB SCT019 BKN080 BECMG 0420/0423 VRB05KT NSW FEW015 BECMG 0508/0511 27010KT FEW022CB SCT023
HKJK,TAF HKJK 040500Z 0406/0512 06010KT 9999 SCT027 PROB40 TEMPO 0420/0424 VRB010KT -TSRA FEW018CB SCT019 BKN070 BECMG 0502/0505 NSW SCT017 BECMG 0508/0511 06010KT SCT027
HKKI,TAF HKKI 041100Z 0412/0512 23010KT 9999 FEW026CB SCT027 TEMPO 0412/0416 -TSRA FEW021CB SCT022 BKN080 BECMG 0420/0423 06005KT NSW FEW018 SCT080 BECMG 0508/0511 21010KT FEW025CB SCT026 TEMPO 0512/0516 -TSRA FEW020CB SCT021 BKN080
HKML,TAF HKML 040500Z 0406/0506 17010KT 9999 FEW020CB BKN021 TEMPO 0406/0408 -SHRA FEW021CB BKN022 BECMG 0409/0412 NSW SCT023
HKMO,TAF HKMO 040500Z 0406/0512 15010KT 9999 FEW021CB BKN022 TEMPO 0406/0410 -SHRA FEW022CB BKN023 BECMG 0413/0415 SCT026
HLGD,TAF HLGD 041100Z 0412/0512 36010KT 8000 NSC BECMG0500/0502 VRB02KT BECMG0509/0511 16010KT
HLGT,TAF HLGT 041100Z 0412/0512 33010KT CAVOK BECMG0500/0502 VRB02KT BECMG0509/0511 22012KT
HLKF,TAF HLKF 041100Z 0412/0512 VRB02KT CAVOK BECMG0500/0502 06012KT
HLLB,TAF HLLB 041100Z 0412/0512 27010G20KT 6000 SCT025 BECMG0500/0502 VRB02KT 8000
HLLM,TAF HLLM 041100Z 0412/0512 33010KT 8000 NSC BECMG0418/0420 VRB02KT BECMG0503/0505 16010KT
HLLQ,TAF HLLQ 041100Z 0412/0512 27010G20KT 6000 SCT020 BECMG0500/0502 VRB02KT8000 BECMG0509/0511 30010KT 
HLLS,TAF HLLS 041100Z 0412/0512 VRB02KT CAVOK
HLMS,TAF HLMS 041100Z 0412/0512 33014KT 8000 SCT025 BE3CMG0500/0502 VRB02KT BECMG0509/0511 16010KT
HLON,TAF HLON 041100Z 0412/0512 VRB02KT CAVOK BECMG0503/0505 14010KT
HLTD,TAF HLTD 041100Z 0412/0512 VRB02KT 8000 NSC
HLTQ,TAF HLTQ 041100Z 0412/0512 27010G20KT 6000 SCT025 BECMG0418/0420 33012KT 8000 BECMG0500/0502 VRB02KT 
HLUB,TAF HLUB 041100Z 0412/0512 VRB02KT CAVOK 
HRYR,TAF HRYR 041100Z 0412/0518 13004KT 9999 SCT025 SCT100 BECMG 0415/0419 04006KT BKN023 TEMPO 0423/0503 32010G20KT 7000 TSRA FEW020CB BKN023 FM050800 17005KT 9999 NSW BKN025 TEMPO 0513/0517 12008KT -TSRA FEW023CB BKN025
HRZA,TAF HRZA 041100Z 0412/0518 27004KT 9999 SCT025 TEMPO 0413/0417 16008KT -TSRA FEW023CB BKN025 BECMG 0421/0423 04005KT BKN025 TEMPO 0503/0507 12004KT 9000 BECMG 0509/0511 VRB03KT 9999 SCT026 BECMG 0514/0517 25006KT -TSRA FEW023CB BKN025
HSKA,TAF HSKA 041100Z 0412/0518 36006KT CAVOK
HSOB,TAF HSOB 041100Z 0412/0518 04009G19KT CAVOK
HSPN,TAF HSPN 041100Z 0412/0518 36007G17KT CAVOK
HSSK,HSSK 041100Z 0412/0518 33008G18KT CAVOK
HTAR,TAF HTAR 041100Z 0412/0512 24005KT 9999 BKN030 FEW032CB PROB30 TEMPO 0414/0419 TSRA BECMG 0420/0423 BKN018 SCT080
HTBU,TAF HTBU 041100Z 0412/0512 14005KT 9999 FEW022 FEW024CB BECMG 0505/0507 5000 TSRA BKN014 FEW016CB OVC080 PROB 40 TEMPO 0510/0511 9999 -TSRA SCT016 FEW018CB
HTDA,TAF HTDA 041100Z 0412/0518 14010KT 5000 TSRA BKN018 FEW020CB BECMG 0415/0417 9999 NSW SCT015 FEW017CB
HTDO,TAF HTDO 041100Z 0412/0512 11005KT 9999 SCT034 FEW035CB TEMPO 0412/04 14 TSRA
HTKA,TAF HTKA 041100Z 0412/0512 22010KT 9999 FEW024 FEW025CB TEMPO 0417/0423 00000KT
HTKJ,TAF HTKJ 041100Z 0412/0512 09005KT 9999 FEW026CB BKN028 TEMPO 0413/0419 TS/RA
HTMW,TAF HTMW 041100Z 0412/0512 32010KT 9999 SCT024 FEW025CB BECMG 0418/0420 00000KT TEMPO 0505/0510 12010KT TSRA BKN018 FEW019CB
HTTB,TAF HTTB 041100Z 0412/0512 12010KT 9999 SCT023 FEW024CB TEMPO 0413/0418 TSRA
HTZA,TAF HTZA 041100Z 0412/0512 12010KT 9999 SCT020 FEW022CB BKN080 BECMG 0419/0421 00000KT TEMPO 0502/0507 22010KT 5000 TSRA BKN012 FEW014CB BECMG 0510/0512 10010KT SCT018 FEW020CB
HUEN,TAF HUEN 041100Z 0412/0518 16010KT 9999 FEW022 FEW024CB TEMPO 0412/0414 9000 TS SCT020 FEW022CB BECMG 0500/0504 VRB10G20KT 6000 TSRA SCT017 FEW019CB OVC090 TEMPO 0506/0508 8000 RA SCT020 FEW022CB BKN100
KABE,KABE 041120Z 0412/0512 VRB05KT P6SM FEW100 FM041600 21005KT P6SM SCT060 FM042300 VRB05KT P6SM BKN060 FM050600 07005KT P6SM BKN015
KABI,KABI 041120Z 0412/0512 16011KT P6SM BKN250 FM041600 22020G28KT P6SM SKC FM042000 26020G28KT P6SM SKC FM050100 23012KT P6SM SKC FM050500 33011KT P6SM SKC
KABQ,KABQ 040537Z 0406/0506 20015G25KT P6SM FEW080 TEMPO 0409/0411 24020G35KT FM041400 24028G40KT P6SM SCT050 FM041800 27035G45KT P6SM FEW050 SCT070 FM050100 30018G28KT P6SM FEW050 SCT070
KABR,KABR 041120Z 0412/0512 02014KT 2SM -SN BR SCT008 OVC029 FM041300 03016G24KT 3/4SM -SN BLSN OVC006 FM050300 02031G47KT 1SM -SN BLSN OVC008 FM050400 01028G43KT 2SM -SN BLSN OVC008 FM050700 35026G39KT 1 1/2SM -SN BLSN OVC009 FM051000 33026G40KT 2SM -SN BLSN OVC012
KABY,KABY 041120Z 0412/0512 18003KT 3SM BR OVC004 FM041400 16004KT P6SM SCT004 BKN008 FM041600 17005KT P6SM SCT018 BKN030 FM041800 18006KT P6SM SCT030 FM050000 17003KT P6SM BKN200 FM050700 10003KT 5SM BR BKN008
KACK,KACK 041124Z 0412/0512 25008KT P6SM OVC030 FM041600 22010G17KT P6SM OVC021 FM041900 24008KT P6SM OVC010 FM042000 23007KT P6SM BKN009 FM050200 07003KT 5SM BR OVC005 FM051000 06009KT 3SM BR VCSH OVC005
KACT,KACT 041120Z 0412/0512 18015G25KT P6SM OVC015 FM041600 18017G27KT P6SM BKN040 FM051000 23016G28KT P6SM VCTS BKN045CB
KACV,KACV 041133Z 0412/0512 VRB03KT P6SM SCT015 SCT050 BKN120 FM041800 31012KT P6SM BKN060 FM042100 30008KT P6SM OVC030 FM050300 00000KT P6SM BKN050 FM050600 00000KT P6SM OVC050
KACY,KACY 041120Z 0412/0512 20008KT P6SM SKC FM041500 19011G22KT P6SM SCT050 FM050000 18008KT P6SM FEW050 FM050400 17005KT 2SM BR OVC009
KADF,KADF 040528Z 0406/0506 18010KT P6SM SCT025 BKN250 FM041000 18008G16KT 4SM BR SCT020 BKN100 TEMPO 0410/0414 4SM BKN020 FM041500 19012G18KT 6SM BR BKN015 OVC050 FM041800 19012G20KT P6SM BKN050 OVC100 FM050100 17008G16KT P6SM VCTS OVC040CB
KADW,TAF KADW 040900Z 0409/0515 20006KT 9999 FEW070 QNH2993INS BECMG 0417/0418 19012KT 9999 SCT040 QNH2995INS BECMG 0423/0424 14003KT 9999 BKN040 QNH3003INS BECMG 0503/0504 16004KT 8000 BR BKN040 QNH3009INS BECMG 0511/0512 15003KT 8000 BR BKN020 QNH3013INS TX26/0420Z TN11/0410Z
KAEG,TAF AMD KAEG 040902Z 0409/0506 21012G22KT P6SM FEW080 TEMPO 0409/0411 24024G38KT FM041200 24028G36KT P6SM SCT070 FM041500 25035G45KT P6SM SCT050 FM041800 26038G48KT P6SM FEW050 SCT070 TEMPO 0418/0422 5SM BLDU FM050100 29020G30KT P6SM FEW050 SCT070
KAEX,KAEX 041123Z 0412/0512 18010G16KT P6SM OVC015 FM041500 17015G24KT P6SM BKN025 FM041700 16019G28KT P6SM BKN035 FM050100 15015G24KT P6SM OVC025 FM050400 16015G24KT P6SM OVC015
KAFF,TAF KAFF 041100Z 0411/0517 35015G25KT 9999 VCSH BKN010 610109 520003 530309 QNH2934INS WND 300V030 SHSN OMTNS BECMG 0415/0416 27015G25KT 9999 NSW SCT040 BKN080 610808 530009 QNH2936INS WND 210V360 SHSN OMTNS BECMG 0418/0419 30012G20KT 9999 VCSH SCT040 BKN080 610808 520009 QNH2937INS BECMG 0421/0422 35015G25KT 3200 -SN BKN010 OVC025 620107 520009 QNH2956INS BECMG 0505/0506 35014KT 9999 NSW SCT015 QNH2975INS BECMG 0509/0510 VRB06KT 9999 FEW020 FEW050 520209 QNH2983INS BECMG 0515/0516 17012KT 9999 FEW080 QNH2991INS TX05/0418Z TNM11/0510Z
KAFW,KAFW 041120Z 0412/0512 18018G28KT P6SM SCT015 OVC250 TEMPO 0412/0416 BKN015 FM041600 19017G27KT P6SM BKN050 FM050800 23016G28KT P6SM VCTS BKN045CB FM051000 32017G27KT P6SM SCT250
KAGC,KAGC 041120Z 0412/0512 18007KT P6SM SCT040 FM041300 21010KT P6SM BKN030 FM041800 21010KT P6SM BKN035 FM042200 16006KT P6SM FEW060 BKN250
KAGS,KAGS 041133Z 0412/0512 VRB03KT P6SM SCT007 OVC015 TEMPO 0412/0413 5SM BR FM041500 26005KT P6SM SCT012 BKN022 FM041800 22005KT P6SM SCT040 FM050000 VRB03KT P6SM SCT060 BKN200
KAHN,KAHN 041120Z 0412/0512 VRB03KT P6SM OVC010 FM041700 17005KT P6SM SCT015 BKN020 FM042000 15005KT P6SM FEW035 BKN150 FM050800 15003KT P6SM BKN035
KAIA,KAIA 041120Z 0412/0512 05020G30KT 2SM -SN BR BKN007 OVC010 TEMPO 0414/0418 1/2SM SN FZFG FM041800 01016G26KT 1SM -SN OVC020 FM042300 35020G32KT 2SM -SN BR OVC015 FM050100 35015G23KT 4SM BR BKN015 OVC030 FM050500 32020G28KT P6SM OVC030 FM051000 35018G28KT P6SM OVC035
KALB,KALB 041120Z 0412/0512 36003KT P6SM SCT040 BKN100 TEMPO 0412/0414 -SHRA FM042000 02009KT P6SM SCT050 BKN080 FM050600 02006KT 6SM BR VCSH BKN035
KALI,KALI 041135Z 0412/0512 15007KT 6SM BR OVC012 WS020/19045KT FM041500 17012G22KT P6SM OVC025 FM041800 18018G25KT P6SM BKN035 OVC200 FM050100 17012KT P6SM SCT040 OVC100 FM050700 16007KT 5SM BR BKN012 OVC020 PROB30 0509/0512 2SM -SHRA BR OVC012
KALO,KALO 041136Z 0412/0512 09013KT P6SM OVC030 FM041400 10023G34KT P6SM VCSH BKN014 FM041500 10022G33KT 4SM -SHRA BR OVC006 FM041800 10019G28KT P6SM VCSH BKN006 FM050100 13016G24KT 6SM SHRA BR VCTS OVC023CB WS020/17035KT FM050500 19020G30KT P6SM BKN045
KALS,KALS 040521Z 0406/0506 21018G30KT P6SM BKN100 TEMPO 0406/0410 18012KT FM041000 23022G35KT P6SM BKN100 TEMPO 0410/0414 20015KT FM041400 25025G35KT P6SM BKN100 FM041800 26030G45KT P6SM BKN100 TEMPO 0418/0422 3SM BLDU FM042200 25025G35KT P6SM BKN100 FM050000 31025G35KT P6SM BKN100 FM050300 33012G22KT P6SM BKN100
KALW,KALW 041128Z 0412/0512 17010KT P6SM BKN050 FM041700 20009KT P6SM BKN070 FM050200 15009KT P6SM SKC
KAMA,KAMA 041120Z 0412/0512 22020G30KT P6SM SCT250 FM041500 23030G40KT P6SM SCT250 TEMPO 0418/0422 24045G55KT 5SM BLDU FM050100 29022G32KT P6SM FEW250 FM051000 32015G25KT P6SM SKC
KANB,KANB 041120Z 0412/0512 11005KT 6SM BR OVC004 FM041300 VRB04KT P6SM OVC006 FM041600 19007KT P6SM BKN018 FM041800 18008KT P6SM BKN040 FM042000 17007KT P6SM SCT040 BKN250 FM051100 16007KT P6SM BKN200
KAND,KAND 041124Z 0412/0512 08003KT P6SM OVC021 TEMPO 0412/0414 BKN018 FM041400 21005KT P6SM BKN035 FM041700 22005KT P6SM SCT040 FM050100 VRB03KT P6SM SKC FM051000 15004KT 5SM BR BKN050
KAOO,KAOO 041131Z 0412/0512 22008KT P6SM SCT050 BKN250 FM041500 23007KT P6SM BKN040 FM042300 18004KT P6SM SCT080
KAPA,KAPA 041136Z 0412/0512 34016G26KT 2SM -SN BR OVC004 TEMPO 0413/0417 1SM -SN BR FM041700 01015G25KT 4SM -SHSN BR BKN008 OVC012 FM050100 02011KT P6SM FEW020 SCT030 FM050700 34006KT P6SM OVC050
KAPC,KAPC 041120Z 0412/0512 VRB05KT P6SM SKC FM042200 26016KT P6SM SKC FM050400 VRB05KT P6SM SCT200
KAPF,KAPF 041120Z 0412/0512 VRB04KT P6SM FEW040 FM041400 14008KT P6SM FEW035 FM041700 21011KT P6SM SCT040 FM050200 VRB05KT P6SM FEW035 FEW250
KAPN,KAPN 041132Z 0412/0512 06008G15KT P6SM OVC011 FM042100 08013G24KT P6SM VCSH OVC023 FM050000 08016G29KT 4SM -FZRAPL OVC016 FM050300 09017G32KT 4SM SHRA BR OVC006
KARA,KARA 041123Z 0412/0512 18012G18KT P6SM OVC009 FM041400 17015G24KT P6SM OVC015 FM041700 18020G30KT P6SM BKN035 FM050100 17017G25KT 6SM BR OVC015 FM050700 16014G20KT 5SM BR OVC008
KART,KART 041120Z 0412/0512 VRB04KT P6SM BKN070 FM041700 03008KT P6SM BKN025 FM042200 04012G19KT P6SM OVC035
KASD,KASD 041120Z 0412/0512 16005KT 5SM BR BKN008 BKN050 FM041300 17010KT P6SM BKN020 BKN030 FM041700 17011G19KT P6SM FEW030 SCT250 FM050300 15012G22KT P6SM BKN020 BKN025
KASE,KASE 041136Z 0412/0512 01006KT P6SM VCSH BKN040 OVC070 TEMPO 0414/0418 VRB10G15KT 3SM -SHSN BR BKN020 FM041800 29014G24KT 3SM -SHSN BR BKN030 FM042200 33008KT 3SM -SHSN BR BKN030 FM050200 VRB04KT P6SM VCSH BKN040 FM050600 VRB04KT P6SM BKN035
KASN,KASN 041120Z 0412/0512 VRB04KT 6SM BR OVC010 FM041600 18007KT P6SM BKN013 FM041800 18008KT P6SM BKN040 FM042000 17007KT P6SM SCT040 BKN250 FM051100 16007KT P6SM BKN200
KAST,KAST 041124Z 0412/0512 14005KT P6SM -SHRA BKN025 OVC035 FM042000 25007KT P6SM VCSH SCT030 BKN050 FM050300 16003KT P6SM OVC050
KATL,KATL 041120Z 0412/0518 09006KT 1SM BR OVC003 TEMPO 0412/0414 1/2SM FG VV002 FM041600 14005KT 5SM BR BKN005 OVC012 FM041800 16008KT P6SM SCT010 BKN020 FM042000 17008KT P6SM SCT035 BKN120 FM051000 16005KT P6SM BKN025 FM051400 17010KT P6SM SCT035 SCT250
KATW,KATW 041131Z 0412/0512 05012G20KT P6SM OVC009 FM041700 06017G28KT 5SM -SHRA OVC006 FM050100 07016G23KT 3SM SHRA OVC004 FM050600 07011KT 3SM SHRA OVC003 WS019/18035KT PROB30 0508/0512 1 1/2SM TSRA OVC005CB
KATY,KATY 041120Z 0412/0512 04010KT P6SM OVC070 FM041500 05020G31KT 3/4SM -FZDZSN BLSN OVC006 FM042000 06027G41KT 1 1/2SM -FZRA BR OVC004 FM050200 04020G31KT 3SM -FZRASN BR OVC005 FM050600 36016G24KT P6SM OVC004 FM051000 31020G31KT 3SM -SN BLSN OVC007
KAUG,KAUG 041120Z 0412/0512 00000KT P6SM OVC090 FM041400 VRB05KT P6SM BKN050 OVC080 FM050000 35008KT P6SM SCT100 FM050600 36006KT P6SM OVC050
KAUS,KAUS 040553Z 0406/0512 18011KT P6SM BKN013 OVC250 FM041600 17015KT P6SM FEW035 BKN250 FM050500 16010KT P6SM VCSH BKN012 FM051000 34011KT P6SM OVC025 PROB30 0510/0512 -TSRA BKN025CB
KAUW,KAUW 041131Z 0412/0512 08010G21KT P6SM BKN012 FM041700 08014G24KT 5SM -SHRA OVC007 FM050100 08021G30KT 3SM SHRA OVC005 FM050700 08014G25KT 3SM -SHRA OVC003 WS020/18035KT PROB30 0507/0511 2SM TSRA OVC002CB
KAVL,KAVL 041124Z 0412/0512 00000KT P6SM SKC FM041600 18007KT P6SM FEW250 FM050100 18003KT P6SM SCT250 FM050900 17005KT 5SM BR BKN050
KAVP,KAVP 041120Z 0412/0512 10005KT P6SM FEW190 FM041400 24005KT P6SM SCT200 FM050200 12004KT P6SM SCT050 FM050900 11006KT P6SM BKN025
KAXN,KAXN 040737Z 0408/0506 03010KT 4SM BR OVC005 FM041100 07015G27KT 2SM -SN BR OVC005 FM050000 06020G28KT 5SM -SN BLSN BKN005
KAZO,KAZO 041136Z 0412/0512 07009KT P6SM SCT007 OVC025 FM041500 11015G23KT 6SM BR OVC008 FM050300 13017G27KT 6SM -RA BR BKN012 WS020/17045KT FM050400 15018G27KT 5SM -RA BR BKN007 WS020/18045KT FM050600 17019G30KT 5SM -RA BR BKN011 WS020/20050KT FM050900 19019G30KT P6SM -RA BKN050 WS020/21050KT
KBAB,TAF KBAB 041100Z 0411/0517 VRB06KT 9999 SKC QNH3015INS BECMG 0416/0417 33009KT 9999 SKC QNH3016INS WND VRB06KT AFT 0503 TX14/0423Z TN01/0414Z
KBAD,TAF KBAD 040400Z 0404/0510 18014KT 9999 SCT035 QNH2969INS BECMG 0409/0410 17014KT 9999 OVC015 QNH2969INS BECMG 0413/0414 18015G25KT 9999 OVC020 QNH2971INS BECMG 0421/0422 19020G30KT 9999 BKN040 OVC180 QNH2967INS BECMG 0501/0502 16015G25KT 9999 BKN040 OVC180 QNH2973INS BECMG 0506/0507 16015KT 9999 BKN015 OVC180 QNH2968INS TX30/0421Z TN21/0412Z
KBAF,KBAF 041124Z 0412/0512 00000KT P6SM FEW110 FM041700 00000KT P6SM SCT080 FM050000 02008KT P6SM BKN035 FM050100 03007KT P6SM OVC025 FM050400 04008KT P6SM OVC015
KBAM,KBAM 041135Z 0412/0512 32011KT P6SM SCT035 OVC050 FM041600 34015G25KT P6SM BKN080 FM050100 VRB06KT P6SM BKN080
KBBD,KBBD 041120Z 0412/0512 18010KT P6SM BKN250 FM041600 21015G25KT P6SM SCT250 FM050100 17011KT P6SM SCT250
KBBG,KBBG 041120Z 0412/0512 18012KT P6SM FEW250 FM041500 19016G27KT P6SM BKN045 FM050100 17020G30KT P6SM BKN090 WS020/18045KT PROB30 0501/0507 4SM TSRA BR OVC025CB FM051000 23013G23KT P6SM BKN070
KBCB,KBCB 041120Z 0412/0512 20003KT P6SM BKN035 FM042100 18004KT P6SM SCT050 SCT120 FM050400 16003KT P6SM FEW120
KBCE,KBCE 041120Z 0412/0512 30012KT P6SM VCSH SCT005 BKN030 FM041800 32014G24KT 5SM -SHSN BR SCT020 BKN030 FM050100 30009KT P6SM FEW050
KBDL,KBDL 041124Z 0412/0518 00000KT P6SM SCT110 SCT140 BKN250 FM050000 02006KT P6SM BKN040 FM050100 02007KT P6SM BKN030 FM050400 05007KT P6SM OVC016 FM050600 04007KT P6SM OVC010
KBDN,KBDN 041128Z 0412/0512 27008KT P6SM BKN090 FM041900 33010G20KT P6SM BKN060 FM050300 VRB05KT P6SM SCT080
KBDR,KBDR 041120Z 0412/0512 VRB04KT P6SM SCT200 FM041500 14007KT P6SM FEW050 SCT250 FM042300 09005KT P6SM FEW015 SCT050 FM050300 06007KT 6SM BR SCT006 OVC012 FM050600 06009KT 4SM BR OVC006
KBED,KBED 041124Z 0412/0512 00000KT P6SM FEW070 OVC100 FM041400 34006KT P6SM BKN060 FM041900 10003KT P6SM SCT035 FM050100 06005KT P6SM OVC030 FM050200 06005KT P6SM BKN019
KBFD,KBFD 041131Z 0412/0512 14005KT P6SM SCT027 BKN040 FM041500 22006KT P6SM SCT030 BKN060 FM041900 25006KT P6SM VCSH BKN030 BKN050 FM050000 VRB04KT P6SM BKN020 OVC040 FM050800 15006KT P6SM BKN050
KBFF,KBFF 041120Z 0412/0512 04023G33KT 2SM -SN BR OVC020 TEMPO 0413/0416 1/2SM SN FG FM041600 35020G30KT 2SM -SN OVC025 FM050200 32015G25KT P6SM BKN020 OVC035 FM050800 30010KT P6SM OVC050
KBFI,KBFI 041136Z 0412/0512 14005KT P6SM OVC025 FM041900 18005KT P6SM BKN040 FM042200 21005KT P6SM BKN050 FM050300 VRB03KT P6SM SCT050 SCT200
KBFL,KBFL 041127Z 0412/0512 VRB03KT P6SM FEW200 FM042100 31007G14KT P6SM SCT200 FM050400 05004KT P6SM SCT200
KBFM,KBFM 041131Z 0412/0512 17005KT 3/4SM BR VV002 FM041400 16008KT 2SM BR OVC003 FM041600 17011KT P6SM OVC007 FM041700 17014G20KT P6SM BKN025 FM050200 15011KT P6SM BKN015 FM050900 15006KT 1 1/2SM BR OVC004
KBGM,KBGM 041120Z 0412/0512 VRB04KT P6SM SCT080 FM042000 02007KT P6SM BKN045 FM050000 04007G14KT P6SM BKN045 FM050300 07005KT P6SM VCSH BKN025 FM050800 11007KT P6SM SCT015
KBGR,KBGR 041120Z 0412/0512 26004KT P6SM SCT100 BKN200 FM041700 27007KT P6SM OVC100
KBHB,KBHB 041120Z 0412/0512 26006KT P6SM BKN100
KBHM,KBHM 041120Z 0412/0512 14005KT 5SM BR OVC007 FM041500 18009KT P6SM BKN007 FM041600 18009KT P6SM BKN012 FM041700 18009KT P6SM BKN020 FM041800 18009KT P6SM BKN045 FM050600 18010KT P6SM BKN250
KBIF,TAF KBIF 040600Z 0406/0512 24018G28KT 9000 BLDU SKC 520009 520909 QNH2970INS TEMPO 0406/0416 24025G35KT 8000 BECMG 0415/0416 27030G40KT 4800 BLDU SKC 530009 530909 QNH2967INS TEMPO 0420/0424 27038G50KT 2600 540009 540909 BECMG 0505/0506 29015G25KT 9999 NSW SKC QNH2997INS TX21/0422Z TNM03/0512Z
KBIH,KBIH 041120Z 0412/0512 34011KT P6SM FEW100 FM041600 35015G25KT P6SM FEW120 FM050400 33008KT P6SM SKC
KBIL,KBIL 041126Z 0412/0512 02015KT P6SM VCSH FEW015 SCT070 OVC090 FM041700 02018G25KT P6SM SCT070 OVC090 FM050000 03011KT P6SM OVC035
KBIS,KBIS 041128Z 0412/0512 02008KT P6SM OVC012 FM041500 03013G23KT 1SM -SN OVC009 FM041800 02020G32KT 1/4SM +SN BLSN OVC012
KBIX,TAF KBIX 041000Z 0410/0516 VRB06KT 8000 BR OVC003 QNH2986INS BECMG 0419/0420 16015G20KT 9999 NSW SCT018 QNH2989INS BECMG 0509/0510 15009KT 8000 BR OVC003 QNH2994INS BECMG 0515/0516 15012KT 8000 BR SCT004 QNH3001INS TX25/0418Z TN22/0412Z
KBJC,KBJC 041136Z 0412/0512 35015G22KT 4SM -SHSN BKN007 OVC014 TEMPO 0412/0416 1SM -SHSN BR FM041600 36015G23KT 4SM -SN BKN020 BKN040 FM042300 34012KT P6SM VCSH BKN020 BKN040 FM050200 35006KT P6SM OVC050 FM051100 03005KT P6SM OVC050
KBJI,KBJI 040520Z 0406/0506 VRB05KT P6SM OVC016 FM040800 05006KT P6SM OVC006 FM041400 08012KT P6SM OVC009 FM041800 08015G23KT 2SM -SN BLSN OVC012 FM042200 07020G28KT 1/2SM SN BLSN VV009
KBKE,KBKE 041138Z 0412/0512 33010KT P6SM BKN050 FM041600 34015G25KT P6SM SCT040 BKN200 FM050200 29006KT P6SM SKC
KBKF,TAF KBKF 040900Z 0409/0515 32021G29KT 9999 SCT060 530053 QNH2925INS BECMG 0412/0413 VRB06KT 9999 FEW095 510052 QNH2928INS BECMG 0415/0416 35009KT 9000 -SN SCT018 BKN027 OVC045 520013 QNH2931INS BECMG 0416/0417 35012KT 9000 -RA BKN018 OVC027 520013 QNH2933INS BECMG 0417/0418 35015KT 9000 -SN SCT018 OVC027 520013 QNH2934INS BECMG 0418/0419 35012KT 9000 -SN FEW018 SCT027 BKN045 520023 QNH2936INS BECMG 0419/0420 01012KT 9000 -RA FEW027 FEW075 BKN100 520023 QNH2937INS BECMG 0420/0421 02012KT 9999 NSW FEW035 FEW095 BKN130 520023 QNH2938INS BECMG 0421/0422 02010G15KT 9999 FEW035 BKN055 OVC075 520023 QNH2940INS BECMG 0423/0424 01020G25KT 9999 BKN028 OVC045 520033 QNH2948INS BECMG 0502/0503 01009KT 9000 -SN BKN012 OVC021 510043 QNH2965INS BECMG 0504/0505 36009KT 9000 -SN BKN021 OVC030 520053 QNH2971INS BECMG 0505/0506 01006KT 9999 NSW SCT030 OVC045 510053 QNH2974INS TX02/0410Z TNM10/0513Z
KBKW,KBKW 041131Z 0412/0512 16006KT P6SM BKN030 TEMPO 0412/0414 SCT030 BKN040 FM041400 21007KT P6SM BKN040 FM041800 24007KT P6SM FEW150 FM050000 17006KT P6SM FEW250 FM050900 16007KT P6SM SCT150
KBLF,KBLF 041120Z 0412/0512 25005KT P6SM BKN025 FM041600 25007KT P6SM SCT035 FM050000 19006KT P6SM FEW050 SCT250
KBLH,KBLH 041127Z 0412/0512 30010KT P6SM SKC FM041500 33014G22KT P6SM SKC FM050200 26005KT P6SM FEW250
KBLI,KBLI 041136Z 0412/0512 16004KT P6SM BKN030 FM041700 16008KT P6SM BKN050 FM042200 22008KT P6SM SCT050 BKN200 FM050200 18003KT P6SM SCT250
KBLV,TAF KBLV 040800Z 0408/0514 18009KT 9999 OVC015 QNH2966INS BECMG 0414/0415 17012KT 9000 -SHRA BKN010 QNH2965INS TEMPO 0415/0417 16015G25KT 8000 -TSRA BKN008CB BECMG 0418/0419 19010G20KT 9999 NSW SCT008 BKN020 QNH2961INS BECMG 0421/0422 18025G35KT 9000 -SHRA BKN020 BKN100 OVC200 QNH2959INS TEMPO 0508/0512 18030G40KT 8000 -TSRA BKN015CB OVC020 BECMG 0513/0514 18015G25KT 9999 NSW OVC015 QNH2959INS TX26/0422Z TN18/0408Z
KBMG,KBMG 041120Z 0412/0512 15007KT P6SM OVC011 FM041600 17015G25KT P6SM SCT025 SCT100 FM042200 18020G30KT P6SM BKN050 PROB30 0508/0512 4SM TSRA OVC035CB
KBMI,KBMI 041023Z 0410/0506 04010KT P6SM VCSH OVC009 FM041700 15016KT P6SM BKN008 FM041800 16017G25KT P6SM BKN012 FM042100 17022G32KT P6SM SCT070 FM050100 18023G37KT P6SM BKN030
KBNA,KBNA 041128Z 0412/0512 18008KT P6SM OVC010 FM041800 19014G22KT P6SM BKN025 FM041900 19014G22KT P6SM BKN035
KBNO,KBNO 041138Z 0412/0512 29011KT P6SM BKN040 FM041800 29012G20KT P6SM BKN050 FM050300 28006KT P6SM SKC
KBOI,KBOI 041138Z 0412/0512 31011KT P6SM VCSH BKN040 TEMPO 0412/0414 3SM -SHSN OVC020 FM041700 31015G25KT P6SM BKN050 FM050300 32008KT P6SM SCT060 OVC200
KBOS,KBOS 041124Z 0412/0518 12004KT P6SM FEW070 BKN090 OVC250 FM041800 10006KT P6SM SCT016 FM042100 10006KT P6SM BKN024 FM050000 06007KT 6SM BR BKN011 FM050900 05010KT P6SM VCSH OVC016 FM051400 06015G23KT P6SM OVC013
KBPI,KBPI 040536Z 0406/0506 34007KT P6SM SCT035 OVC050 FM040800 34012KT P6SM VCSH SCT025 OVC040 FM041800 31007KT P6SM VCSH SCT020 OVC035 FM050400 VRB06KT P6SM VCSH SCT020 BKN030
KBPK,KBPK 040528Z 0406/0506 17008G15KT P6SM SCT050 BKN250 FM041200 17010G20KT P6SM BKN050 BKN100 FM041500 18012G22KT P6SM OVC050 FM042100 18015G25KT P6SM VCTS OVC050CB PROB30 0504/0506 5SM -TSRA BR OVC025CB
KBPT,KBPT 041123Z 0412/0512 16013G19KT P6SM OVC008 FM041400 15016G24KT P6SM SCT012 OVC025 TEMPO 0414/0417 BKN012 OVC025 FM041700 16020G30KT P6SM BKN035 FM050100 15017G24KT P6SM OVC015 FM050500 16014G20KT 6SM BR OVC008
KBRD,KBRD 041120Z 0412/0512 07012G19KT P6SM BKN012 FM041400 07015G23KT 2SM -SN BKN007 FM041900 07022G34KT 2SM -SN BLSN BKN007 FM042200 07024G39KT 2SM FZRASNPL BKN006 FM050500 08021G34KT 2SM FZRASNPL BKN007 FM050900 08015G23KT 2SM FZRA BKN006
KBRL,KBRL 041133Z 0412/0512 07015G24KT P6SM BKN020 FM041400 10015KT P6SM BKN006 FM041800 15015G23KT P6SM BKN018 FM050200 18021G31KT P6SM SCT060 WS020/19050KT
KBRO,KBRO 041135Z 0412/0512 14015G22KT P6SM SCT009 OVC012 FM041400 17025G35KT P6SM BKN040 FM050200 16014G22KT P6SM BKN025 FM050500 15013KT P6SM BKN013
KBTL,KBTL 041136Z 0412/0512 07008KT P6SM BKN005 OVC025 FM041600 10014G22KT P6SM BKN008 FM042000 11014KT P6SM VCSH OVC010 FM050000 11017G26KT 6SM -RA BR BKN009 FM050800 18019G30KT 6SM -RA BR BKN028 WS020/21045KT FM051100 20019G30KT P6SM -RA BKN080 WS020/21050KT
KBTM,KBTM 041120Z 0412/0512 34011KT 6SM -SHSN SCT020 OVC035 TEMPO 0412/0413 4SM -SN OVC020 FM041600 35011G20KT P6SM VCSH BKN050 FM050200 VRB05KT P6SM SCT050
KBTR,KBTR 041120Z 0412/0512 16008KT 6SM BR BKN015 BKN025 FM041500 17011KT P6SM BKN025 BKN030 FM041600 17011G19KT P6SM SCT030 BKN250 FM050300 16014G22KT P6SM BKN025
KBTV,KBTV 040538Z 0406/0506 VRB03KT P6SM BKN200 FM041900 34006KT P6SM BKN070 FM050000 VRB04KT P6SM BKN045
KBUF,KBUF 041120Z 0412/0512 12006KT P6SM VCSH OVC060 TEMPO 0413/0415 BKN015 FM041500 07006KT P6SM OVC015 FM041800 05012G20KT P6SM OVC007 FM050000 07012G22KT P6SM OVC015 FM050800 08010KT P6SM BKN025
KBUR,KBUR 041122Z 0412/0512 34012G20KT P6SM SKC FM042100 23012KT P6SM SKC FM050300 30005KT P6SM SKC FM050500 VRB03KT P6SM SKC
KBVI,KBVI 041120Z 0412/0512 18005KT P6SM SCT040 FM041230 20009KT P6SM BKN025 FM041900 20007KT P6SM BKN035 FM042300 14004KT P6SM SCT060 BKN250
KBVO,KBVO 041120Z 0412/0512 17008KT P6SM BKN023 WS020/19045KT FM041500 18018G30KT P6SM BKN035 FM041800 19022G35KT P6SM SCT150 FM050100 19015KT P6SM SCT250 PROB30 0505/0507 4SM TSRA BKN025CB FM050700 28014G24KT P6SM BKN250
KBWG,KBWG 041120Z 0412/0512 18010KT P6SM OVC007 FM041500 19015G23KT P6SM SCT009 BKN015 FM041800 19017G26KT P6SM SCT050 BKN250 FM050000 18013G22KT P6SM OVC150
KBWI,KBWI 041120Z 0412/0518 00000KT P6SM SKC FM041400 21007KT P6SM FEW200 FM050200 15005KT P6SM FEW250 FM051500 16007KT P6SM SCT200 FM051700 16010KT P6SM SCT150
KBYI,KBYI 041120Z 0412/0512 28015G25KT 1SM -SN BLSN BR SCT010 OVC020 TEMPO 0412/0414 1/2SM SN BLSN FZFG OVC010 FM041400 28018G28KT 1SM -SN BLSN BR SCT006 OVC010 TEMPO 0415/0419 1/2SM SN BLSN FZFG OVC006 FM042100 28014G24KT P6SM VCSH SCT010 BKN040 FM050200 27012G20KT P6SM VCSH SCT020 BKN035
KBZN,KBZN 041120Z 0412/0518 03011KT P6SM SCT035 BKN060 TEMPO 0412/0415 -SHSN BKN030 FM041500 30009KT P6SM SCT030 BKN045
KCAE,KCAE 041133Z 0412/0512 VRB03KT P6SM SCT005 BKN020 TEMPO 0412/0413 1SM BR BKN002 BKN010 FM041500 25007KT P6SM SCT015 BKN050 FM041800 24007KT P6SM SCT040 FM050000 VRB03KT P6SM SCT060 BKN200
KCAK,KCAK 041125Z 0412/0512 10004KT P6SM BKN035 FM041500 15005KT P6SM SCT015 OVC025 FM042200 17005KT P6SM OVC050 FM050600 17012KT P6SM BKN100
KCAR,KCAR 041120Z 0412/0512 26005KT P6SM BKN035 FM041600 28007KT P6SM OVC029 FM041800 29007G17KT P6SM VCSH OVC035 FM042200 33009G18KT P6SM VCSH BKN045 FM050200 32012KT P6SM FEW140
KCBM,TAF KCBM 040901Z 0409/0515 18008KT 9000 BR BKN015 BKN060 QNH2980INS TEMPO 0409/0413 6000 BR BKN010 BECMG 0414/0415 18012G18KT 9999 NSW SCT013 SCT050 510006 QNH2980INS BECMG 0417/0418 18015G25KT 9999 BKN045 BKN210 510006 QNH2980INS BECMG 0421/0422 16010KT 9999 SCT045 BKN180 510006 QNH2985INS BECMG 0504/0505 16010KT 9999 BKN020 WS020/20040KT QNH2985INS TX31/0420Z TN18/0411Z
KCDC,KCDC 041120Z 0412/0512 34006KT P6SM VCSH SCT020 OVC030 FM041800 33010G18KT 3SM -SHSN BR SCT020 BKN045 FM050100 VRB04KT P6SM FEW050 SCT090
KCDR,KCDR 041120Z 0412/0512 05018G28KT 2SM -SN OVC040 TEMPO 0414/0418 1/2SM -SN FZFG OVC009 FM041800 36018G30KT 2SM -SN BR OVC015 FM050100 35012KT 4SM BR BKN010 OVC035 FM050700 32014KT P6SM OVC025
KCDS,KCDS 041125Z 0412/0512 21015KT P6SM BKN200 WS010/23045KT FM041500 24020G30KT P6SM BKN200 FM042000 25035G50KT 3SM BLDU BKN200 FM050000 27020G30KT 5SM BLDU BKN200 FM050300 30015G25KT 6SM BLDU SKC
KCEC,KCEC 041133Z 0412/0512 11005KT P6SM FEW050 BKN120 FM041800 28008KT 6SM HZ BKN025 BKN100 FM050200 34004KT 5SM BR OVC030 FM050600 00000KT P6SM OVC050
KCEF,TAF KCEF 040000Z 0400/0506 20012G18KT 9999 FEW040 SCT080 BKN250 520003 QNH2994INS BECMG 0402/0403 VRB06KT 9999 OVC035 WS015/23028KT 620702 QNH2997INS BECMG 0405/0406 VRB06KT 9999 FEW020 OVC035 620802 QNH2999INS TEMPO 0406/0411 8000 -RA SCT015 OVC025 BECMG 0413/0414 VRB06KT 9999 SCT040 BKN150 QNH3002INS BECMG 0420/0421 VRB06KT 9999 FEW020 OVC035 QNH3006INS BECMG 0500/0501 VRB06KT 9000 BR OVC017 620802 QNH3015INS BECMG 0502/0503 VRB06KT 6000 -RA BR FEW006 OVC010 620802 QNH3018INS TX17/0420Z TN04/0410Z LAST NO AMDS AFT 0403 NEXT 0412
KCGI,KCGI 041128Z 0412/0512 17009KT P6SM BKN035 FM041500 18013G21KT P6SM BKN035 FM041800 18016G25KT P6SM BKN045 FM050200 19015G24KT P6SM SCT050 BKN120 FM050600 19016G25KT 5SM SHRA BR VCTS SCT025CB BKN050
KCHA,KCHA 041120Z 0412/0512 18005KT P6SM OVC015 TEMPO 0412/0415 4SM -DZ FM041700 18008KT P6SM BKN025 FM041900 18008KT P6SM SCT035
KCHO,KCHO 041120Z 0412/0512 20007KT P6SM SKC FM050200 19003KT P6SM FEW250
KCHS,KCHS 041120Z 0412/0512 00000KT 6SM BR FEW004 BKN025 OVC035 TEMPO 0412/0413 P6SM NSW SCT025 BKN035 FM041300 VRB03KT P6SM SCT007 BKN030 FM041500 28005KT P6SM BKN150 FM042200 18007KT P6SM SCT200 FM051000 14003KT 5SM BR FEW200
KCID,KCID 041133Z 0412/0512 08019G28KT P6SM OVC025 TEMPO 0413/0416 4SM -TSRA OVC015CB FM042100 12015KT P6SM SCT018 PROB30 0423/0503 4SM -TSRA OVC010CB FM051100 24017G27KT P6SM BKN035
KCIU,KCIU 041132Z 0412/0512 06008G15KT P6SM BKN016 FM041600 07008G17KT P6SM BKN025 FM041900 09012G21KT P6SM OVC040 FM050000 09014G26KT P6SM -SHSNPL OVC035 FM050200 09016G32KT 3SM -PL BR OVC021 FM050600 10020G38KT 2SM -FZRA VCTS OVC008CB WS020/11050KT
KCKB,KCKB 041131Z 0412/0512 18005KT P6SM SCT240 FM041500 22008KT P6SM BKN060 FM041800 23008KT P6SM SCT090 FM050000 16004KT P6SM FEW250 FM050400 13006KT P6SM SCT250 WS010/20035KT
KCKV,KCKV 041128Z 0412/0512 14004KT P6SM FEW035 TEMPO 0412/0413 2SM BR OVC013 FM041300 18010G15KT P6SM OVC013 FM041500 18012G21KT P6SM BKN020 FM041800 19015G24KT P6SM BKN035
KCLE,KCLE 041125Z 0412/0518 06005KT P6SM BKN035 FM041400 09004KT P6SM OVC025 FM042100 09008KT P6SM OVC050 FM050500 15012G20KT P6SM BKN090 FM051000 18015G23KT P6SM VCSH OVC050
KCLL,KCLL 041120Z 0412/0512 17011G20KT P6SM OVC015 FM041500 17016G23KT P6SM SCT025 BKN035 FM050200 17016G23KT P6SM BKN015 BKN025 FM051100 18012G20KT P6SM -SHRA VCTS OVC012CB
KCLM,KCLM 041136Z 0412/0512 24006KT P6SM BKN035 OVC050 FM042000 03006KT P6SM BKN050 FM050000 VRB04KT P6SM SCT050 SCT200
KCLT,KCLT 041124Z 0412/0518 00000KT 3SM BR BKN008 TEMPO 0412/0413 1 1/2SM BR OVC002 FM041300 VRB02KT P6SM BKN020 FM041500 23004KT P6SM BKN035 FM041600 23007KT P6SM FEW050 FM050200 19003KT P6SM FEW250 FM051400 18008KT P6SM SCT040
KCMA,KCMA 041120Z 0412/0512 08006KT P6SM SKC FM041600 28008KT P6SM SKC FM041900 29015G20KT P6SM SKC FM050100 29008KT P6SM SKC FM050400 VRB03KT P6SM SKC
KCMH,KCMH 041123Z 0412/0512 17003KT P6SM OVC025 FM041300 17005KT P6SM VCSH OVC022 FM041600 18007KT P6SM -SHRA VCTS OVC015CB FM041800 18008KT P6SM BKN025 FM042000 18008KT P6SM BKN050 FM050200 15008KT P6SM SCT250 FM050900 18013KT P6SM BKN090 WS020/22040KT
KCMI,KCMI 041024Z 0410/0506 14010KT P6SM BKN008 FM041300 13009KT P6SM OVC006 FM041800 17017KT P6SM BKN013 FM042000 17021G29KT P6SM SCT045 FM050100 18023G37KT P6SM BKN030
KCMX,KCMX 041126Z 0412/0512 08011G21KT P6SM OVC009 FM042300 09020G35KT 3/4SM -SNPL BLSN BKN008 FM050200 09024G47KT 1SM FZRASNPL BR OVC005 FM050300 10024G51KT 1 1/2SM FZRAPL BR OVC005 WS020/10055KT FM051100 10023G52KT 3SM -FZRA BR OVC004
KCNM,KCNM 041120Z 0412/0512 20014KT P6SM FEW250 FM041400 20018G25KT P6SM SKC FM041700 25035G53KT 3SM BLDU SKC FM050100 29023G35KT P6SM FEW200
KCNU,KCNU 041134Z 0412/0512 18018G28KT P6SM SCT250 WS020/21050KT FM041800 18027G36KT P6SM SCT200 FM050400 21028G38KT P6SM VCTS SCT100CB WS020/20055KT FM051000 31017G26KT P6SM FEW210
KCNY,KCNY 041136Z 0412/0512 32010KT P6SM FEW035 OVC050 FM041500 28010G20KT P6SM BKN070 FM042200 29014G22KT P6SM BKN080 FM050300 32010KT P6SM BKN080 FM050600 VRB03KT P6SM SCT110
KCOD,KCOD 040536Z 0406/0506 36011G17KT P6SM SCT030 OVC050 FM040900 36018G26KT 1 1/2SM -SN BR SCT012 OVC020 FM041500 35020G30KT 3SM -SN BLSN SCT015 OVC025 FM041900 01018G26KT 6SM -SN BLSN SCT025 OVC040 FM050100 36011KT P6SM SCT025 OVC040
KCOE,KCOE 041137Z 0412/0512 19004KT P6SM SCT007 OVC013 FM041800 VRB06KT P6SM VCSH BKN040 BKN070 TEMPO 0421/0424 6SM -SHRASN OVC030 FM050800 15004KT P6SM FEW090
KCOF,TAF KCOF 041000Z 0410/0516 VRB06KT 9999 FEW050 QNH2996INS BECMG 0416/0417 09008KT 9999 SCT040 QNH3002INS BECMG 0504/0505 13006KT 9999 FEW020 QNH3008INS TX28/0417Z TN21/0410Z
KCON,KCON 041120Z 0412/0512 00000KT P6SM VCSH SCT040 OVC050 FM041700 32005KT P6SM SCT025 OVC060 FM050200 01002KT P6SM SCT020 OVC035
KCOS,KCOS 040521Z 0406/0506 20015G32KT P6SM BKN100 FM041500 25012G22KT P6SM BKN100 FM041700 27025G38KT P6SM BKN100 FM042000 31022G32KT P6SM BKN100 FM042200 36020G32KT P6SM VCSH BKN040 BKN100 FM050000 36015G28KT P6SM VCSH BKN030
KCOT,KCOT 041135Z 0412/0512 12009KT P6SM BKN250 FM041500 17012G18KT P6SM SCT025 BKN250 FM042000 VRB06KT P6SM BKN250 FM050500 16006KT P6SM OVC150 TEMPO 0506/0508 BKN012 FM050800 VRB03KT P6SM OVC012
KCOU,KCOU 041129Z 0412/0512 15014KT 6SM BR SKC FM041400 17015G26KT P6SM SCT035 FM042300 18022G37KT P6SM BKN100 FM050600 19019G35KT P6SM VCTS BKN090CB FM050800 20019G32KT 6SM -SHRA BR VCTS BKN090CB FM051000 21017G29KT P6SM VCTS BKN080CB
KCPR,KCPR 040635Z 0407/0506 06020G35KT 1/4SM +SN BLSN VV003 FM041000 06020G35KT 3/4SM -SN BLSN VV005 FM041500 04015G25KT 1SM -SN BLSN SCT004 OVC008 FM050100 36011KT 3SM -SN SCT007 OVC013
KCPS,KCPS 041129Z 0412/0512 16010G16KT 6SM BR SCT250 FM041400 17014G25KT P6SM SCT250 FM042200 18019G35KT P6SM BKN250 FM050300 18021G33KT P6SM VCTS BKN070CB FM050600 18019G33KT 6SM -SHRA BR VCTS BKN070CB FM050900 18018G32KT P6SM VCTS BKN060CB
KCRE,KCRE 041124Z 0412/0512 22005KT P6SM SCT007 BKN080 FM041500 23009KT P6SM BKN035 BKN250 FM041900 20009KT P6SM SCT250 FM050500 21003KT 2SM BR SCT003
KCRG,KCRG 041120Z 0412/0512 00000KT P6SM BKN012 FM041230 VRB03KT P6SM FEW025 SCT250 FM041700 11009KT P6SM FEW050 SCT250 FM050300 VRB03KT P6SM SCT250 TEMPO 0509/0512 4SM BR
KCRP,KCRP 041135Z 0412/0512 16020G28KT P6SM BKN009 OVC012 FM041500 17015G25KT P6SM OVC025 FM041800 18020G30KT P6SM BKN030 OVC200 FM050200 17015KT P6SM SCT025 OVC100 TEMPO 0504/0506 BKN025 FM050900 16010KT 6SM BR BKN012 OVC020 PROB30 0510/0512 2SM -SHRA BR OVC012
KCRQ,KCRQ 041123Z 0412/0512 32005KT P6SM SKC FM042100 26010G18KT P6SM FEW250 FM050200 VRB05KT P6SM FEW025 SCT250
KCRW,KCRW 041131Z 0412/0512 18004KT P6SM BKN040 TEMPO 0412/0413 BKN025 FM041300 18004KT P6SM BKN025 FM041800 22008KT P6SM SCT060 FM050000 18004KT P6SM FEW240 FM050900 17005KT P6SM BKN160
KCSG,KCSG 041120Z 0412/0512 10003KT 1SM BR OVC003 TEMPO 0412/0414 1/4SM FG VV002 FM041500 18005KT 5SM BR BKN005 OVC012 FM041700 18007KT P6SM SCT015 BKN020 FM041900 17007KT P6SM SCT040 BKN120
KCSM,KCSM 041120Z 0412/0512 19016KT P6SM BKN250 WS020/24035KT FM041600 22019G29KT P6SM BKN250 FM042000 23030G45KT 6SM BLDU SCT250 TEMPO 0420/0424 3SM BLDU FM050100 25020G30KT P6SM SKC FM051000 34014G23KT P6SM SKC
KCSV,KCSV 041128Z 0412/0512 19005KT P6SM OVC003 TEMPO 0412/0413 4SM BR FM041500 18010G17KT P6SM OVC009 FM041600 18010G18KT P6SM OVC011 FM041800 18011G18KT P6SM BKN025 FM041900 18011G19KT P6SM SCT035
KCTB,KCTB 041120Z 0412/0512 01008KT P6SM BKN020 FM041800 01007KT P6SM BKN025 FM050100 19006KT P6SM SCT120
KCUB,KCUB 041133Z 0412/0512 VRB03KT 6SM BR SCT007 BKN020 TEMPO 0412/0413 3SM BR BKN008 FM041500 25005KT P6SM SCT015 BKN050 FM041800 22005KT P6SM SCT040 FM050000 VRB03KT P6SM SCT060 BKN200
KCVG,KCVG 041123Z 0412/0518 19007KT P6SM VCSH OVC014 FM041300 17009KT 6SM -SHRA BR VCTS OVC015CB FM041500 17009KT P6SM VCTS OVC015CB FM041700 17009KT P6SM BKN025 FM042200 18011KT P6SM SCT050 FM050600 19013G22KT P6SM SCT050 WS020/21040KT FM051400 21020G30KT P6SM OVC050
KCVS,TAF KCVS 041000Z 0410/0516 21012G18KT 9999 SKC WS020/24040KT 530009 QNH2953INS BECMG 0414/0415 24035G45KT 9000 BLDU SKC 530009 QNH2954INS BECMG 0416/0417 24045G55KT 6000 BLDU SKC 530009 QNH2954INS BECMG 0423/0424 25035G45KT 9000 BLDU SKC 530009 QNH2950INS BECMG 0500/0501 27015G25KT 9999 NSW SKC QNH2956INS BECMG 0501/0502 29010G15KT 9999 SKC WS020/28040KT QNH2963INS BECMG 0513/0514 28010G20KT 9999 SKC QNH2998INS TX21/0420Z TN01/0510Z
KCWA,KCWA 041131Z 0412/0512 08010G21KT P6SM BKN012 FM041700 08014G24KT 5SM -SHRA OVC007 FM050100 08021G30KT 3SM SHRA OVC005 FM050700 08014G25KT 3SM -SHRA OVC003 WS020/18035KT PROB30 0507/0511 2SM TSRA OVC002CB
KCXO,KCXO 041120Z 0412/0512 16011KT P6SM OVC015 FM041500 17010G22KT P6SM SCT025 BKN035 FM050100 16010G22KT P6SM BKN015 BKN025
KCXP,KCXP 041120Z 0412/0512 VRB05KT P6SM SCT050 BKN070 FM042100 34010G17KT P6SM BKN050 FM050200 31005KT P6SM SCT050 FM050600 VRB05KT P6SM FEW050
KCYS,KCYS 041120Z 0412/0512 03015G25KT 1SM -SN BR SCT007 OVC030 TEMPO 0413/0416 1/2SM SN FZFG OVC007 FM041600 02018G27KT 2SM -SN SCT008 BKN020 OVC030 FM042200 35020G31KT 5SM BLSN SCT004 OVC025 FM050700 32014G23KT P6SM OVC050
KDAA,TAF KDAA 032000Z 0320/0502 20010G15KT 9999 FEW150 BKN250 510005 QNH2997INS BECMG 0400/0401 VRB06KT 9999 SCT250 510005 QNH2995INS BECMG 0403/0404 VRB05KT 9999 FEW250 QNH3000INS BECMG 0413/0414 18012KT 9999 SCT050 SCT250 QNH3005INS TX25/0420Z TN12/0411Z LAST NO AMDS AFT 0401 NEXT 0412
KDAB,KDAB 041120Z 0412/0512 VRB04KT P6SM FEW200 TEMPO 0412/0413 3SM BR SCT010 FM041700 07008KT P6SM SCT035 SCT250 FM050200 15004KT P6SM FEW050 SCT250
KDAG,KDAG 041120Z 0412/0512 27016G24KT P6SM SKC FM042300 26013KT P6SM FEW150 FM050800 28008KT P6SM SKC
KDAL,KDAL 041120Z 0412/0512 18018G28KT P6SM SCT015 OVC250 TEMPO 0412/0416 BKN015 FM041600 19017G27KT P6SM BKN050 FM050800 23016G28KT P6SM VCTS BKN045CB FM051000 32017G27KT P6SM SCT250
KDAN,KDAN 041120Z 0412/0512 24004KT P6SM SCT030 TEMPO 0412/0414 BKN030 FM041600 23005KT P6SM SCT050 FM050000 22003KT P6SM SKC
KDAY,KDAY 041123Z 0412/0512 23007KT P6SM BKN015 FM041400 18006KT 6SM SHRA BR VCTS OVC015CB FM041500 17007KT 6SM BR VCSH OVC015 FM041900 18009KT P6SM BKN025 FM050000 18010KT P6SM BKN050 FM050800 19018G27KT P6SM BKN050 WS020/22040KT
KDBQ,KDBQ 041133Z 0412/0512 08014G25KT P6SM BKN014 TEMPO 0414/0416 4SM -TSRA OVC015CB FM042100 12015KT P6SM SCT018 PROB30 0423/0503 4SM -TSRA OVC010CB FM050300 16018KT P6SM BKN020 WS020/19050KT FM050600 19019G33KT P6SM BKN060 WS020/20055KT
KDCA,KDCA 041120Z 0412/0518 19007KT P6SM SKC FM050000 16005KT P6SM SKC FM051500 18009KT P6SM SCT200 FM051700 18012KT P6SM SCT130
KDDC,KDDC 041120Z 0412/0512 23020G30KT P6SM SKC FM041700 23030G45KT P6SM SKC FM041900 23035G50KT 5SM BLDU SKC FM050200 33025G35KT P6SM FEW200
KDEC,KDEC 041025Z 0410/0506 15007KT 5SM BR OVC018 FM041300 13008KT P6SM BKN006 FM041600 16014G23KT P6SM BKN019 FM041800 17020G30KT P6SM SCT040
KDEN,KDEN 041136Z 0412/0518 02015G26KT 3SM -SN OVC007 TEMPO 0413/0417 1SM -SN OVC007 FM041700 36015G25KT 4SM -SHSN BKN010 BKN050 FM042100 02013G23KT P6SM VCSH SCT010 BKN040 FM050200 01010KT P6SM FEW020 SCT030 FM050700 22005KT P6SM FEW020 SCT030 FM051300 02005KT P6SM FEW020 SCT120
KDET,KDET 041120Z 0412/0512 06010KT 5SM -DZ BKN008 OVC018 FM041600 07008KT P6SM OVC012 FM042000 09012KT P6SM OVC022 FM050400 12010KT 6SM -SHRA BR OVC009 PROB30 0504/0509 4SM -SHRA BR OVC007 FM050900 16010KT 4SM BR OVC010
KDFW,KDFW 041120Z 0412/0518 18018G28KT P6SM SCT015 OVC250 TEMPO 0412/0416 BKN015 FM041600 19017G27KT P6SM BKN050 FM050800 23016G28KT P6SM VCTS BKN045CB FM051000 32017G27KT P6SM SCT250
KDHN,KDHN 041120Z 0412/0512 15005KT 4SM BR BKN006 OVC015 FM041400 16006KT P6SM SCT008 BKN015 FM041600 16006KT P6SM VCSH SCT020 BKN030 FM042300 18005KT P6SM SCT025 BKN250 FM050600 18003KT 6SM BR BKN008 FM051000 14004KT 1SM BR OVC004
KDHT,KDHT 041120Z 0412/0512 22020G30KT P6SM SKC FM041500 24030G40KT P6SM SKC TEMPO 0417/0421 25045G60KT 4SM BLDU FM050100 29022G32KT P6SM SKC FM050700 32017KT P6SM SKC
KDIJ,KDIJ 041120Z 0412/0512 36011KT P6SM VCSH SCT007 BKN080 FM042000 35011KT 5SM -SN BR BKN025 OVC050 FM050200 VRB06KT P6SM BKN035 AMD LTD TO CLD VIS AND WIND
KDIK,KDIK 041128Z 0412/0512 05013KT 4SM BR OVC004 FM041600 03013G21KT 1SM -SN OVC008 FM041900 02016G25KT 1/2SM SN BLSN OVC008 FM042200 01017G26KT 1/4SM +SN BLSN OVC012 FM050300 35017G26KT 1/2SM SN BLSN OVC009 FM050700 34015G25KT 1SM BLSN OVC008
KDLF,TAF KDLF 041130Z 0411/0517 14009KT 9999 SCT200 QNH2954INS BECMG 0412/0413 13009KT 9999 SCT010 BKN200 QNH2959INS BECMG 0415/0416 18009KT 9999 FEW150 SCT200 QNH2956INS BECMG 0417/0418 VRB06KT 9999 FEW170 SCT200 QNH2951INS BECMG 0505/0506 33012KT 9999 FEW200 QNH2958INS BECMG 0507/0508 33012G20KT 9999 FEW250 QNH2960INS TEMPO 0508/0514 33020G30KT TX35/0423Z TN19/0511Z
KDLH,KDLH 041120Z 0412/0512 08020G30KT 4SM -SN BKN005 FM041600 08024G35KT 2SM -SN BLSN BKN004 FM041900 08027G40KT 1SM -SN BLSN BKN003 FM050000 08030G48KT 1SM +PL BKN003 FM050400 08031G49KT 1SM FZRASNPL BKN003 FM050900 08029G46KT 1SM FZRA BKN004
KDLS,KDLS 041128Z 0412/0512 29012KT P6SM FEW100 BKN250 FM050200 30008KT P6SM SKC
KDMA,TAF AMD KDMA 040925Z 0409/0512 27015G25KT 9999 SKC QNH2975INS BECMG 0413/0414 27012KT 9999 SKC QNH2979INS BECMG 0417/0418 29015G25KT 9999 SKC 510009 QNH2993INS BECMG 0500/0501 29012KT 9999 SKC QNH2995INS BECMG 0502/0503 VRB06KT 9999 SKC QNH3003INS TX14/0422Z TN03/0413Z
KDMN,KDMN 041128Z 0412/0512 26022G32KT P6SM SKC FM041600 27034G44KT 5SM BLDU SKC TEMPO 0418/0422 3SM BLDU FM050300 29018G28KT P6SM SKC FM050900 30009KT P6SM SKC
KDNL,KDNL 041133Z 0412/0512 VRB03KT 6SM BR SCT007 OVC015 TEMPO 0412/0413 4SM BR OVC010 FM041500 24005KT P6SM SCT012 BKN020 FM041800 22006KT P6SM SCT040 FM050000 VRB03KT P6SM SCT060 BKN200
KDOV,TAF KDOV 040800Z 0408/0514 18009KT 9999 SCT150 510101 QNH3002INS BECMG 0503/0504 18006KT 6000 BR BKN020 QNH3014INS TEMPO 0506/0510 0800 FG BKN008 TX24/0418Z TN12/0410Z
KDPA,KDPA 041120Z 0412/0512 07012G18KT 6SM -SHRA OVC006 FM041500 09012G18KT 3SM -DZ BR VCSH SCT003 OVC005 FM042200 12013G20KT 6SM BR BKN010 FM050100 17015G24KT P6SM BKN035 WS020/20055KT PROB30 0502/0505 3SM TSRA OVC025CB FM050500 19020G30KT P6SM SCT035 BKN070
KDRO,KDRO 041136Z 0412/0512 23007KT P6SM VCSH SCT020 OVC060 TEMPO 0412/0416 VRB10G18KT 2SM -SHSN BR BKN013 OVC025 FM041900 26020G30KT P6SM VCSH BKN050 FM050200 29008KT P6SM SCT070 FM050600 VRB04KT P6SM FEW090
KDRT,KDRT 040540Z 0406/0506 09008KT P6SM OVC250 FM041500 14008KT P6SM BKN250 FM041800 16011KT P6SM BKN250 FM042100 23007KT P6SM BKN250 FM050000 13007KT P6SM BKN250
KDSM,KDSM 041136Z 0412/0512 08022G33KT P6SM BKN024 OVC040 FM041300 10021G32KT P6SM VCSH OVC009 FM041600 11015G24KT P6SM OVC007 FM042000 15015G23KT P6SM VCSH SCT040 FM050000 18020G30KT P6SM VCTS SCT025CB BKN070 FM050400 26023G36KT P6SM SCT045
KDTW,KDTW 041120Z 0412/0518 06010KT 5SM -DZ BKN008 OVC018 FM041600 07008KT P6SM OVC012 FM042000 09012KT P6SM OVC022 FM050400 12010KT 6SM -SHRA BR OVC009 PROB30 0504/0509 4SM -SHRA BR OVC007 FM050900 16010KT 4SM BR OVC010
KDUG,KDUG 041134Z 0412/0512 25013KT P6SM FEW040 FM041700 28020G30KT P6SM SKC FM050200 32014G24KT P6SM SKC FM051000 35008KT P6SM SKC
KDUJ,KDUJ 041120Z 0412/0512 12003KT P6SM SCT250 FM041400 23008KT P6SM BKN020 FM042000 24006KT P6SM BKN035 FM050000 10006KT P6SM SCT050 BKN200 FM050800 12008KT P6SM BKN100 WS020/21035KT
KDVL,KDVL 040520Z 0406/0506 36010KT P6SM -SN OVC020 FM040700 01010KT P6SM OVC012 FM040900 03010KT P6SM OVC009 FM041500 04014KT P6SM OVC009 FM041800 04022G33KT 2SM -SN BLSN BKN008 FM042100 04023G34KT 1/4SM +SN BLSN VV008
KDVT,KDVT 041127Z 0412/0512 27010G18KT P6SM SKC FM041600 28016G27KT P6SM SKC FM050100 26010KT P6SM SKC FM050400 08005KT P6SM FEW250
KDYS,TAF KDYS 041100Z 0411/0517 20012KT 9999 BKN300 QNH2947INS BECMG 0414/0415 24015G25KT 9999 BKN180 QNH2955INS BECMG 0423/0500 20010G15KT 9999 FEW200 QNH2950INS BECMG 0511/0512 33012KT 9999 FEW200 QNH2965INS TX33/0420Z TN10/0511Z
KEAR,KEAR 041127Z 0412/0512 05015G20KT P6SM BKN025 TEMPO 0412/0415 SCT025 FM041500 03013KT P6SM BKN025 FM041800 01011KT P6SM SCT030 FM042100 35019G28KT P6SM SCT030 FM050000 34021G31KT P6SM SCT025
KEAT,KEAT 041137Z 0412/0512 31006KT P6SM FEW080 FEW150 FM041900 28008KT P6SM SCT070 FM050300 32010KT P6SM FEW150
KEAU,KEAU 040520Z 0406/0506 34004KT P6SM FEW022 BKN120 FM040800 04007KT P6SM SCT022 BKN120 FM041100 06012G18KT P6SM OVC012 TEMPO 0420/0424 5SM -RA FM050000 08020G28KT 2SM -DZ BR OVC007
KECG,KECG 041123Z 0412/0512 16004KT P6SM VCSH SCT025 OVC080 TEMPO 0412/0414 5SM -RA BKN025 FM041500 17009KT P6SM BKN040 FM041800 15009KT P6SM SCT050
KECP,KECP 041120Z 0412/0512 16006KT 6SM BR OVC005 FM041500 14007KT P6SM SCT010 BKN018 FM041800 16008KT P6SM SCT025 FM042100 17010KT P6SM SKC FM050200 13003KT P6SM BKN008 FM050600 12003KT 2SM BR OVC004
KEED,KEED 041120Z 0412/0512 31017G26KT P6SM SCT120 FM041900 35014G22KT P6SM SKC FM050300 30007KT P6SM SKC
KEET,KEET 041130Z 0412/0512 VRB04KT 4SM BR OVC006 FM041400 18007KT P6SM BKN008 FM041600 18008KT P6SM BKN015 FM041800 18009KT P6SM BKN045 FM051000 17009KT P6SM BKN025
KEFD,TAF AMD KEFD 041000Z 0410/0510 17009KT 8000 BR BKN010 WS020/19037KT QNH2970INS BECMG 0412/0413 17009KT 8000 BR BKN009 QNH2972INS BECMG 0414/0415 17015KT 9999 NSW OVC009 QNH2975INS BECMG 0415/0416 17020G25KT 9999 SCT009 QNH2976INS BECMG 0416/0417 18025G35KT 9999 BKN016 QNH2975INS BECMG 0420/0421 17020G25KT 9999 BKN030 QNH2966INS BECMG 0500/0501 17012KT 9999 BKN015 QNH2968INS TX27/0419Z TN22/0412Z
KEFK,KEFK 040538Z 0406/0506 16005KT P6SM SCT060 BKN250 FM041000 00000KT P6SM BKN200 FM041800 35006KT P6SM OVC090 FM050000 VRB03KT P6SM SCT035
KEGE,KEGE 041136Z 0412/0512 27008KT P6SM -SHSN SCT013 OVC035 FM041400 23014G25KT P6SM VCSH BKN045 TEMPO 0414/0418 VRB15G28KT 3SM -SHSN BR OVC013 FM041800 25017G27KT 2SM -SHSN BR OVC020 FM050000 28010G18KT P6SM VCSH BKN040 FM050600 VRB04KT P6SM BKN040
KEGI,TAF AMD KEGI 040441Z 0404/0507 18009KT 9999 BKN006 QNH2988INS BECMG 0404/0405 21006KT 4800 BR SCT002 BKN005 QNH2990INS BECMG 0408/0409 18006KT 0800 FG BKN002 QNH2990INS BECMG 0415/0416 18012G18KT 9999 NSW BKN020 QNH2992INS BECMG 0420/0421 18010G15KT 9999 SCT018 QNH2992INS BECMG 0505/0506 15006KT 4800 BR SCT004 BKN010 QNH2992INS TX28/0419Z TN21/0412Z LAST NO AMDS AFT 0405 NEXT 0412
KEKN,KEKN 041131Z 0412/0512 VRB04KT P6SM BKN035 FM041500 25007KT P6SM SCT060 FM050000 16003KT P6SM FEW240 FM051000 17006KT P6SM SCT210
KEKO,KEKO 041135Z 0412/0512 29006KT P6SM VCSH SCT020 OVC035 TEMPO 0412/0414 BKN025 FM041600 27012G23KT P6SM VCSH SCT035 BKN050 FM041800 28018G28KT P6SM SCT040 BKN080 FM050200 VRB06KT P6SM SCT050 BKN100
KEKS,KEKS 041122Z 0412/0512 34014G22KT P6SM VCSH SCT025 BKN060 TEMPO 0412/0415 -SHSN BKN004 FM041500 35015KT P6SM SCT040 BKN060
KELD,KELD 041120Z 0412/0512 17010KT P6SM OVC025 FM041500 16014G20KT P6SM OVC035 FM041800 17017G24KT P6SM OVC100 FM050000 16018G24KT P6SM OVC150 FM050400 16017G24KT P6SM OVC050 FM050600 17017G23KT P6SM OVC025 FM051000 17012G18KT P6SM OVC050
KELM,KELM 041120Z 0412/0512 VRB04KT P6SM FEW080 FM042100 02006KT P6SM OVC035 FM050100 04006G11KT P6SM SCT025 FM051000 13004KT P6SM BKN028
KELP,KELP 041128Z 0412/0512 21010G22KT P6SM BKN250 WS020/25040KT FM041300 24020G30KT P6SM SKC WS020/25040KT FM041700 27030G40KT 6SM HZ SKC TEMPO 0418/0422 4SM BLDU FM050100 28020G30KT P6SM FEW250
KELY,KELY 041135Z 0412/0512 35008KT P6SM VCSH SCT040 OVC060 FM041800 33015G25KT P6SM VCSH BKN040 FM050100 34009KT P6SM SCT050 BKN100
KEND,TAF KEND 041000Z 0410/0516 16012G22KT 9999 FEW250 QNH2939INS TEMPO 0411/0413 8000 BR FEW005 BECMG 0414/0415 19018G28KT 9999 SCT250 QNH2940INS BECMG 0420/0421 20027G37KT 9999 SKC QNH2932INS BECMG 0504/0505 28018G28KT 9999 FEW250 QNH2937INS BECMG 0509/0510 33020G30KT 9999 SKC QNH2945INS TX30/0421Z TN06/0510Z
KENV,KENV 041120Z 0412/0512 33025G35KT P6SM SCT090 BKN120 FM041700 33024G34KT P6SM VCSH SCT050 BKN080 FM050000 33015G26KT P6SM SCT080 BKN120 FM050300 32009KT P6SM SCT150
KENW,KENW 041120Z 0412/0512 08010G20KT 3SM BR OVC003 FM041700 08015G25KT 3SM BR VCTS OVC004CB FM050000 10012G22KT 2SM SHRA BR VCTS OVC003CB WS008/18045KT FM050500 17013G24KT P6SM BKN008 WS014/19045KT FM050600 19013G26KT P6SM BKN012 WS017/20045KT
KERI,KERI 041125Z 0412/0512 07008KT P6SM BKN050 FM041500 06008KT P6SM SCT015 OVC025 FM050000 07010KT P6SM BKN050 FM050900 15015G23KT P6SM BKN090
KEUG,KEUG 041124Z 0412/0512 21007KT P6SM -SHRA SCT025 BKN045 FM041400 21007KT P6SM -SHRA SCT015 BKN025 OVC035 FM042000 24006KT P6SM -SHRA SCT025 BKN040 FM050600 18004KT P6SM BKN035
KEUL,KEUL 041138Z 0412/0512 28014KT P6SM BKN050 BKN100 FM041700 31015G25KT P6SM BKN050 FM050200 30010KT P6SM SCT060 OVC200
KEVV,KEVV 041128Z 0412/0512 15006KT P6SM BKN010 FM041300 16009KT P6SM BKN015 FM041500 17012G20KT P6SM BKN025 FM041800 18014G23KT P6SM BKN035 FM050100 19014G23KT P6SM SCT050 BKN120 FM051000 19014G22KT 5SM SHRA BR SCT025 BKN050
KEVW,KEVW 041120Z 0412/0512 31010KT 1SM -SN BR BKN020 OVC030 FM041800 30010KT 3SM -SHSN BR BKN030 OVC040 FM050100 24010KT P6SM VCSH SCT040 BKN050
KEWN,KEWN 041120Z 0412/0512 VRB03KT P6SM VCSH BKN060 OVC080 FM041400 20004KT P6SM BKN025 FM041700 18007KT P6SM SCT035 FM042100 VRB03KT P6SM SKC
KEWR,KEWR 041120Z 0412/0518 VRB05KT P6SM FEW020 SCT250 FM041400 19006KT P6SM SCT250 FM041800 16009KT P6SM SCT050 SCT250 FM050300 12006KT P6SM FEW007 BKN015 FM050700 06006KT 4SM BR BKN007 OVC012 FM051000 05006KT 2SM BR OVC004 FM051500 07008KT 6SM BR OVC008
KEYW,KEYW 040858Z 0409/0506 12013KT P6SM FEW025
KFAF,TAF KFAF 041000Z 0410/0516 13006KT 9999 OVC080 QNH3000INS BECMG 0411/0412 14006KT 9999 OVC020 QNH3003INS BECMG 0415/0416 17006KT 9999 BKN030 QNH3007INS BECMG 0504/0505 18006KT 8000 BR FEW020 QNH3010INS BECMG 0510/0511 18009KT 9999 NSW SKC QNH3018INS TX25/0421Z TN15/0411Z
KFAR,KFAR 040520Z 0406/0506 34012KT P6SM OVC009 FM040700 36009KT P6SM OVC009 FM041500 04016G24KT 1SM -SN BLSN OVC008 FM041700 04022G33KT 1/4SM +SN BLSN VV007
KFAT,KFAT 041127Z 0412/0512 31006KT P6SM SCT200
KFAY,KFAY 041120Z 0412/0512 22005KT P6SM SCT015 SCT020 BKN040 TEMPO 0412/0415 BKN020 FM041500 23007KT P6SM SCT035 SCT050 FM050000 18004KT P6SM SCT250
KFBG,TAF KFBG 040903Z 0409/0515 00000KT 9999 BKN023 BKN031 OVC040 QNH2998INS TEMPO 0410/0415 18003KT 8000 -RA BR BKN005 BKN010 OVC040 BECMG 0416/0417 24006KT 9999 NSW SCT015 BKN030 QNH3009INS BECMG 0419/0420 25006KT 9999 SKC QNH3005INS BECMG 0505/0506 19006KT 8000 BR SCT015 QNH3015INS BECMG 0508/0509 20003KT 4800 BR SCT005 QNH3016INS BECMG 0512/0513 17006KT 9000 BR SCT015 QNH3022INS TX26/0422Z TN15/0411Z
KFCS,TAF KFCS 040500Z 0405/0511 19025G35KT 9999 SKC 530009 QNH2939INS BECMG 0408/0409 19015G25KT 9999 BKN070 510009 QNH2934INS BECMG 0412/0413 20020G30KT 9999 SKC 520009 QNH2932INS TEMPO 0416/0420 25025G35KT BKN100 BECMG 0420/0421 27015G25KT 9999 BKN090 510009 QNH2936INS BECMG 0503/0504 02010G20KT 9000 -SN BKN030 620304 QNH2961INS TX11/0406Z TNM04/0504Z
KFDY,KFDY 041125Z 0412/0512 07005KT P6SM OVC025 FM041600 09004KT P6SM BKN015 FM042000 15010KT P6SM BKN025 FM050000 12010KT P6SM OVC050 FM050600 17012KT P6SM SCT050
KFFO,TAF KFFO 041108Z 0411/0517 21009KT 9999 OVC018 QNH2984INS BECMG 0413/0414 19009KT 8000 -SHRA VCTS FEW015 BKN018CB OVC050 QNH2986INS TEMPO 0414/0418 24012G20KT 4000 TSRA FEW007 OVC015CB BECMG 0417/0419 16009KT 9999 NSW FEW010 BKN025 510103 QNH2983INS BECMG 0421/0423 15012KT 9999 FEW030 BKN050 510103 QNH2982INS BECMG 0503/0505 19012G17KT 9999 BKN010 OVC025 WS020/21045KT QNH2984INS BECMG 0512/0514 19015G25KT 9999 VCSH OVC012 510103 QNH2988INS BECMG 0516/0517 20020G35KT 8000 -SHRA VCTS SCT015 BKN020CB OVC050 QNH2988INS TX23/0421Z TN14/0411Z
KFHU,TAF KFHU 040600Z 0406/0512 23015G24KT 9999 SKC 520007 QNH2991INS TEMPO 0406/0408 23020G35KT 530007 BECMG 0415/0416 27015G22KT 9999 SKC 530007 QNH2977INS TEMPO 0419/0502 29020G30KT BECMG 0502/0503 30012KT 9999 SCT260 QNH3007INS TX13/0422Z TN03/0412Z
KFKL,KFKL 041120Z 0412/0512 12005KT P6SM SCT050 FM041400 18007KT P6SM BKN020 FM042100 16005KT P6SM BKN035 FM050100 08008KT P6SM SCT050 BKN200 FM050700 14011KT P6SM BKN100 WS020/21035KT
KFLG,KFLG 041120Z 0412/0512 26015G25KT P6SM VCSH SCT025 BKN060 TEMPO 0412/0414 OVC025 FM041600 27018G28KT P6SM BKN080 FM050100 28012G20KT P6SM SKC FM050400 26008KT P6SM SKC
KFLL,KFLL 041120Z 0412/0518 12006KT P6SM FEW040 FM041500 12014KT P6SM SCT035 SCT200 FM050200 10009KT P6SM FEW035 FEW250 FM051500 10014KT P6SM SCT035
KFLO,KFLO 041125Z 0412/0512 VRB03KT P6SM BKN025 FM041600 26007KT P6SM BKN040 OVC250 FM042300 22003KT P6SM SCT250 FM050900 16002KT 4SM BR SKC
KFMH,KFMH 041124Z 0412/0512 21004KT P6SM SCT017 FM041800 28004KT P6SM BKN016 FM050100 05007KT P6SM OVC011 FM050200 06007KT 3SM BR OVC005 FM050800 06009KT 2SM BR OVC006
KFMN,KFMN 040901Z 0409/0506 27015G25KT P6SM VCSH BKN050 TEMPO 0409/0410 -SHSN BKN028 FM041500 27025G35KT P6SM SCT050 BKN090 FM042000 29020G30KT P6SM SCT050 SCT090 FM050200 27012G18KT P6SM FEW040 SCT070
KFMY,KFMY 040533Z 0406/0506 VRB03KT P6SM FEW250 FM040800 VRB03KT P6SM MIFG FEW010 FM041400 14006KT P6SM FEW250 FM041800 22008KT P6SM SCT200 FM050100 VRB03KT P6SM FEW035 SCT220
KFNT,KFNT 041120Z 0412/0512 06006KT 2SM -RA BR OVC006 FM041600 07010KT P6SM OVC014 FM042300 09015G25KT 6SM BR OVC007 FM050400 12010G22KT 4SM -SHRA BR OVC006 FM050800 16012KT 2SM -SHRA BR OVC010
KFOD,KFOD 041136Z 0412/0512 07014KT P6SM OVC060 FM041400 08016G26KT P6SM VCSH OVC015 FM041500 09015G23KT 5SM -SHRA BR OVC006 FM041700 11015G22KT P6SM OVC004 FM042200 11013KT P6SM BKN008 FM050600 27016G25KT P6SM BKN005
KFOE,KFOE 041120Z 0412/0512 09011KT P6SM FEW025 FM041400 19017G29KT P6SM SKC FM042100 20026G40KT P6SM FEW050 FM050500 31019G27KT P6SM SCT100
KFPR,KFPR 041120Z 0412/0512 20005KT P6SM SCT030 BKN050 TEMPO 0412/0413 BKN027 FM041600 10008KT P6SM VCTS SCT040CB SCT250 FM042100 12013G19KT P6SM FEW050 SCT250 FM050400 12006KT P6SM FEW020 FEW250
KFRI,TAF AMD KFRI 040525Z 0405/0510 05012KT 9999 FEW200 WS020/10030KT QNH2935INS TEMPO 0405/0415 07015G25KT BECMG 0415/0416 18015G25KT 9999 FEW200 QNH2930INS BECMG 0418/0419 21020G30KT 9999 FEW200 510002 QNH2922INS BECMG 0421/0422 20030G40KT 9999 FEW200 520003 QNH2920INS BECMG 0422/0423 19015KT 9999 FEW200 QNH2918INS BECMG 0509/0510 29020G25KT 9999 FEW200 QNH2958INS TX30/0421Z TN10/0409Z
KFSD,KFSD 041120Z 0412/0512 05015G24KT P6SM VCSH BKN009 FM041300 05016G26KT 6SM -FZRASN BR OVC009 FM041800 06019G28KT 3SM -DZ BR OVC005 FM042300 04010G15KT 3SM -DZ BR OVC006 FM050300 35010KT P6SM BKN005 FM051000 29018G29KT P6SM BKN006
KFSM,KFSM 041120Z 0412/0512 00000KT P6SM SKC WS020/18040KT FM041600 18014G22KT P6SM BKN035 FM041800 19015G25KT P6SM SCT030 BKN050 PROB30 0423/0501 4SM TSRA OVC020CB FM050100 18012G20KT P6SM SCT040 BKN250 FM050600 16014KT P6SM SCT035 BKN250 TEMPO 0508/0512 3SM TSRA BKN025CB
KFST,KFST 041120Z 0412/0512 22010KT P6SM SCT250 FM041400 22013G18KT P6SM SKC FM041700 26026G39KT 6SM BLDU SKC FM050100 29016G22KT P6SM SKC
KFTK,TAF KFTK 041107Z 0411/0517 16010KT 9999 OVC009 QNH2983INS BECMG 0411/0412 17012KT 9999 OVC007 QNH2982INS BECMG 0413/0414 17012KT 9999 OVC010 QNH2981INS BECMG 0416/0417 17014G20KT 9999 BKN015 510005 QNH2981INS BECMG 0420/0421 17017G25KT 9999 SCT030 OVC250 510005 QNH2981INS BECMG 0500/0501 17012G18KT 9999 SCT035 BKN200 WS020/19045KT QNH2982INS BECMG 0506/0507 18012G18KT 9999 VCSH SCT010 BKN180 WS020/19045KT QNH2983INS BECMG 0513/0514 18017G25KT 9999 VCSH SCT020 BKN150 510005 QNH2986INS TX27/0422Z TN16/0411Z
KFTW,KFTW 041120Z 0412/0512 18018G28KT P6SM SCT015 OVC250 TEMPO 0412/0416 BKN015 FM041600 19017G27KT P6SM BKN050 FM050800 23016G28KT P6SM VCTS BKN045CB FM051000 32017G27KT P6SM SCT250
KFTY,KFTY 041120Z 0412/0512 04004KT 2SM BR OVC003 TEMPO 0412/0414 1/2SM FG VV002 FM041600 14005KT 5SM BR BKN005 OVC012 FM041800 17007KT P6SM SCT015 BKN020 FM042000 17007KT P6SM SCT035 BKN120 FM051000 16005KT P6SM BKN025
KFVE,KFVE 041120Z 0412/0512 27004KT P6SM BKN023 FM041800 30010KT P6SM VCSH BKN030 FM042200 31013G22KT P6SM SCT080 FM050500 32010KT P6SM FEW150
KFWA,KFWA 041121Z 0412/0512 09007KT P6SM OVC020 FM041400 11010KT P6SM OVC008 FM042100 13015G23KT P6SM OVC012 FM050200 15016KT P6SM BKN029 WS020/19040KT FM050400 17017G27KT P6SM BKN045 WS020/19045KT FM050600 19018G29KT P6SM VCTS BKN025CB WS020/21050KT FM051100 20019G27KT P6SM BKN070
KFXE,KFXE 041120Z 0412/0512 12006KT P6SM FEW040 FM041500 12012KT P6SM SCT035 SCT200 FM050200 10009KT P6SM FEW035 FEW250
KFYV,KFYV 041120Z 0412/0512 18015G26KT P6SM SCT035 WS020/18040KT FM041500 19018G27KT P6SM BKN035 FM041800 18020G30KT P6SM SCT035 BKN050 FM050100 19015G25KT P6SM SCT040 BKN250 TEMPO 0508/0512 3SM TSRA BKN025CB
KGBD,KGBD 041134Z 0412/0512 19007KT P6SM BKN120 WS020/24040KT FM041500 20017G27KT P6SM SCT250 FM042100 23034G45KT 5SM BLDU SKC FM050000 24030G40KT 6SM BLDU FEW250 FM050200 34028G36KT P6SM SCT120 FM050500 33017G27KT P6SM SCT120
KGCC,KGCC 041120Z 0412/0512 04012G20KT 1SM -SN OVC015 FM041600 35015G25KT 2SM -SN OVC015 FM050200 33012KT P6SM OVC015
KGCK,KGCK 041120Z 0412/0512 22013KT P6SM SKC WS020/22040KT FM041400 22025G35KT P6SM SKC FM041700 23030G45KT P6SM SKC FM041900 23035G50KT 5SM BLDU SKC FM050200 33025G35KT P6SM FEW200
KGCN,KGCN 041120Z 0412/0512 25014G23KT P6SM VCSH SCT010 BKN025 OVC035 TEMPO 0412/0415 4SM -SHSN OVC010 FM041600 29016G26KT P6SM BKN050 FM050100 28010G18KT P6SM FEW060 FM050400 28005KT P6SM FEW250
KGDV,KGDV 040520Z 0406/0506 05010KT P6SM OVC023 FM041300 02013KT P6SM OVC010 FM041700 03012KT P6SM BKN008 PROB30 0417/0422 4SM -SN BR OVC007 FM042200 02016KT 5SM -SN BR OVC009 PROB30 0505/0506 3SM -SN BR OVC007
KGEG,KGEG 041137Z 0412/0512 19004KT 3SM BR OVC003 FM041700 21004KT P6SM BKN010 FM041800 23005KT P6SM SCT015 FM042000 25007KT P6SM BKN040 BKN070 TEMPO 0421/0501 6SM -SHSN BKN030 FM050300 21006KT P6SM SCT060 FM050700 22004KT P6SM FEW100
KGFA,TAF KGFA 040400Z 0404/0510 04012KT 9999 BKN021 QNH2988INS BECMG 0408/0409 03007KT 9999 SCT020 BKN030 QNH2989INS BECMG 0504/0505 VRB06KT 9999 FEW030 SCT040 QNH3008INS BECMG 0508/0509 VRB06KT 9999 BKN040 QNH3006INS TX00/0421Z TNM05/0504Z
KGFK,KGFK 040520Z 0406/0506 35010KT P6SM OVC025 FM040800 01008KT P6SM BKN008 FM041500 05013KT P6SM OVC008 FM041700 05018G27KT 2SM -SN BLSN OVC009 FM042100 04022G33KT 1/4SM +SN BLSN VV007
KGFL,KGFL 041120Z 0412/0512 VRB03KT P6SM -SHRA OVC080 TEMPO 0412/0416 4SM -SHRA BKN035 FM041800 36008KT P6SM BKN080 PROB30 0500/0503 5SM -SHRA BR OVC035 FM050300 02008KT 5SM -SHRA BR BKN028
KGGG,KGGG 041120Z 0412/0512 17014G20KT P6SM OVC020 FM041800 18019G26KT P6SM OVC060 FM050000 17022G29KT P6SM OVC100 FM050300 16025G31KT P6SM OVC050 FM050600 18025G32KT P6SM OVC025 FM051000 21016G22KT P6SM -SHRA OVC035
KGGW,KGGW 040520Z 0406/0506 06008KT P6SM OVC015 FM041600 03010KT P6SM OVC015 FM050400 35008KT P6SM OVC015
KGJT,KGJT 041136Z 0412/0512 27009KT P6SM VCSH OVC070 FM041400 28010KT P6SM VCSH BKN060 TEMPO 0414/0418 3SM -SHSN BR BKN030 FM050000 32010G18KT P6SM VCSH BKN050 FM050300 34007KT P6SM BKN050 FM050700 VRB04KT P6SM SCT080
KGKY,KGKY 041120Z 0412/0512 18018G28KT P6SM SCT015 OVC250 TEMPO 0412/0416 BKN015 FM041600 19017G27KT P6SM BKN050 FM050800 23016G28KT P6SM VCTS BKN045CB FM051000 32017G27KT P6SM SCT250
KGLD,KGLD 041120Z 0412/0512 02010KT P6SM SKC FM041500 VRB06KT P6SM SKC TEMPO 0418/0422 23025G35KT FM042200 34020G28KT P6SM SCT050 FM050100 33026G37KT P6SM SCT035 FM051000 32020G29KT P6SM SKC
KGLH,KGLH 041122Z 0412/0512 17009KT P6SM OVC030 FM041500 18015G23KT P6SM BKN025 FM041700 18020G28KT P6SM BKN050
KGLS,KGLS 041120Z 0412/0512 15014KT P6SM SCT008 OVC012 FM041600 15016G23KT P6SM BKN015 BKN025 FM050300 16017G24KT P6SM BKN007 OVC012
KGMU,KGMU 041124Z 0412/0512 00000KT P6SM SCT040 FM041600 22006KT P6SM SCT040 FM050200 20004KT P6SM SCT250 FM050900 21005KT P6SM BKN060
KGNV,KGNV 041120Z 0412/0512 VRB02KT 6SM BR OVC009 FM041400 VRB03KT P6SM FEW025 SCT250 FM041800 17007KT P6SM FEW050 SCT250 FM042200 09006KT P6SM FEW050 SCT250 FM050300 VRB03KT P6SM SCT250 FM050700 VRB02KT 5SM BR SCT250 AMD NOT SKED
KGON,KGON 041120Z 0412/0512 VRB04KT P6SM SCT250 FM041400 19006KT P6SM SCT015 FM041700 20009KT P6SM SCT050 SCT250 FM042300 09005KT P6SM SCT015 FM050200 06007KT 3SM BR OVC006 FM050600 05009KT 1SM BR OVC004
KGPI,KGPI 041120Z 0412/0512 02011KT P6SM BKN100
KGPT,KGPT 041120Z 0412/0512 17007KT 6SM BR BKN010 BKN050 TEMPO 0412/0413 4SM BR BKN005 FM041500 16009KT P6SM SCT020 BKN250 FM041700 16011G19KT P6SM SCT025 BKN250
KGRB,KGRB 041131Z 0412/0512 04014G21KT P6SM OVC007 FM041800 06017G30KT 5SM -SHRA OVC007 FM050100 07016G23KT 3SM SHRA OVC005 FM050600 07011KT 3SM SHRA OVC003 WS019/18035KT PROB30 0508/0512 1 1/2SM TSRA OVC005CB
KGRF,TAF KGRF 040500Z 0405/0511 VRB06KT 9999 SCT030 BKN040 BKN055 QNH3003INS BECMG 0408/0409 VRB06KT 9999 BKN020 OVC035 QNH3005INS BECMG 0415/0416 VRB06KT 9000 BR BKN010 OVC020 QNH3010INS BECMG 0418/0419 VRB06KT 9999 NSW SCT025 QNH3014INS TX08/0501Z TN01/0414Z
KGRI,KGRI 041127Z 0412/0512 05015G20KT P6SM BKN025 TEMPO 0412/0415 SCT025 FM041500 03013KT P6SM BKN025 FM041800 01011KT P6SM SCT030 FM042100 35019G28KT P6SM SCT030 FM050000 34021G31KT P6SM SCT025
KGRK,TAF AMD KGRK 041125Z 0411/0514 16015G25KT 9999 OVC200 QNH2959INS BECMG 0421/0422 18012KT 9999 FEW200 QNH2953INS BECMG 0507/0508 18012KT 9999 BKN015 QNH2965INS BECMG 0510/0511 31012KT 9999 BKN045 OVC060 QNH2978INS TX32/0420Z TN21/0412Z
KGRR,KGRR 041136Z 0412/0512 06010KT P6SM -RA OVC007 FM050300 11019G29KT 5SM -RA BR OVC007 WS020/16045KT FM050800 16018G29KT 5SM RA BR BKN012 WS020/20035KT FM051100 19018G28KT P6SM RA BKN040 WS020/21045KT
KGSB,TAF AMD KGSB 040930Z 0409/0510 20003KT 8000 -RA SCT009 BKN050 QNH2995INS TEMPO 0409/0412 3200 BR BKN007 BECMG 0413/0414 22006KT 9999 NSW BKN025 QNH2999INS BECMG 0420/0421 VRB06KT 9999 BKN040 QNH2995INS TX24/0423Z TN17/0409Z
KGSO,KGSO 041120Z 0412/0512 23004KT P6SM SCT009 BKN015 TEMPO 0412/0414 SCT012 SCT025 FM041400 20006KT P6SM FEW040 FM050000 20004KT P6SM SCT250
KGSP,KGSP 041124Z 0412/0512 00000KT P6SM SCT035 FM041600 22006KT P6SM SCT040 FM050200 20004KT P6SM SCT250 FM050900 21005KT P6SM BKN060
KGTB,TAF KGTB 040900Z 0409/0515 VRB06KT 9999 SCT050 BKN100 QNH2998INS BECMG 0411/0412 VRB06KT 9999 BKN050 620505 QNH3003INS BECMG 0413/0414 VRB06KT 8000 -SHRA OVC020 620406 QNH3005INS BECMG 0417/0418 02005KT 9999 NSW OVC020 620406 QNH3008INS BECMG 0420/0421 03010KT 9999 BKN050 620505 QNH3013INS BECMG 0511/0512 04010KT 8000 -RA OVC012 QNH3016INS TX07/0417Z TN04/0411Z
KGTF,KGTF 041120Z 0412/0512 03010KT P6SM SCT010 BKN020 TEMPO 0412/0415 -SHSN BKN015 FM041800 01008KT P6SM BKN025 FM050100 20006KT P6SM SCT120
KGTR,KGTR 041122Z 0412/0512 15007KT P6SM OVC008 FM041700 18013G24KT P6SM BKN050 FM050700 16016G21KT P6SM OVC025
KGUC,KGUC 041136Z 0412/0512 27010G20KT 3SM -SN FEW012 BKN030 FM041500 24014G25KT P6SM VCSH BKN050 FM041800 26018G29KT P6SM VCSH BKN050 FM050400 VRB04KT P6SM VCSH BKN050 FM050900 VRB04KT P6SM BKN070
KGUP,KGUP 041017Z 0410/0506 23016G28KT P6SM VCSH SCT025 SCT050 TEMPO 0410/0411 VRB15G35KT 3SM -SHSN BKN015 FM041400 25028G38KT P6SM BKN050 FM041800 27025G35KT P6SM SCT050 BKN070 FM050200 25012G20KT P6SM FEW040 SCT070
KGUR,TAF KGUR 040500Z 0405/0511 08012KT 4800 -SN OVC007 510074 QNH2936INS BECMG 0411/0412 04012KT 4800 -SN FEW006 OVC014 510063 QNH2940INS BECMG 0412/0413 03015KT 4800 -SN BKN014 OVC023 QNH2942INS BECMG 0416/0417 03015KT 9000 -SN SCT015 OVC023 QNH2947INS BECMG 0419/0420 01015KT 9000 -SN BKN015 OVC023 QNH2954INS BECMG 0420/0421 35015KT 9000 -SN SCT016 OVC024 QNH2956INS BECMG 0508/0509 31012KT 9999 NSW FEW018 SCT026 BKN040 510022 QNH2984INS TXM03/0421Z TNM08/0508Z
KGUS,TAF KGUS 032100Z 0321/0503 VRB06KT 9999 OVC035 QNH2977INS BECMG 0400/0401 VRB06KT 9000 -SHRA BKN023 OVC035 QNH2976INS BECMG 0404/0405 12010KT 8000 BR OVC020 QNH2979INS BECMG 0408/0409 12009KT 6000 BR OVC008 QNH2978INS BECMG 0414/0415 14012KT 9999 VCSH OVC010 QNH2982INS BECMG 0418/0419 15015G25KT 9999 NSW FEW008 OVC015 QNH2975INS BECMG 0501/0502 17015G25KT 9999 OVC025 QNH2974INS TX22/0420Z TN11/0412Z LAST NO AMDS AFT 0403 NEXT 0413
KGUY,KGUY 041120Z 0412/0512 23023G33KT P6SM SKC FM041600 24035G45KT P6SM SKC TEMPO 0417/0421 24045G60KT 3SM BLDU FM050100 29022G32KT P6SM SKC FM050600 34016G26KT P6SM FEW100
KGWO,KGWO 041122Z 0412/0512 17008KT P6SM BKN030 FM041700 18013G26KT P6SM BKN050
KGYY,KGYY 041120Z 0412/0512 08012G18KT 6SM -SHRA SCT006 OVC012 FM041500 11012G18KT 5SM -DZ BR VCSH SCT003 OVC005 FM042000 15013G20KT 6SM BR BKN010 FM042300 17015G24KT P6SM BKN035 FM050400 19020G30KT P6SM SCT035 BKN070
KHBG,KHBG 041122Z 0412/0512 14003KT P6SM BKN030 TEMPO 0412/0414 BKN007 FM041400 17006KT P6SM BKN015 FM041500 17009KT P6SM BKN050 FM041600 17014G23KT P6SM SCT250 FM050500 16010KT P6SM OVC015 FM050900 16007KT 6SM BR OVC007
KHCR,KHCR 041120Z 0412/0512 36005KT P6SM VCSH SCT030 OVC040 FM041700 32006KT 3SM -SHSN BR SCT010 OVC015 FM050100 VRB04KT P6SM VCSH SCT030 BKN040
KHDC,KHDC 041120Z 0412/0512 16008KT 5SM BR BKN015 BKN025 FM041500 17010KT P6SM BKN020 BKN030 FM041900 16014G22KT P6SM FEW030 FEW250 FM050800 16011KT P6SM BKN010 BKN015
KHDN,KHDN 041136Z 0412/0512 14008KT P6SM VCSH BKN110 FM041400 26010KT P6SM VCSH SCT020 BKN040 TEMPO 0414/0418 VRB10G20KT 2SM -SHSN BR OVC014 FM041800 27021G30KT P6SM VCSH OVC030 FM050100 30006KT P6SM VCSH OVC035 FM050500 VRB04KT P6SM BKN035
KHIB,KHIB 041120Z 0412/0512 09014G21KT P6SM BKN009 FM041700 08017G26KT 4SM -SN BKN012 FM041900 08019G29KT 2SM -SN BLSN BKN012 FM042300 07021G34KT 2SM -SN BLSN BKN012 FM050200 07023G38KT 2SM FZRASNPL BKN011 AMD NOT SKED
KHIE,KHIE 041120Z 0412/0512 VRB03KT P6SM SCT070 OVC100 FM041800 33005KT P6SM SCT030 OVC050 FM050000 03004KT P6SM OVC050 FM050500 07005KT 5SM -RA BR OVC030
KHIF,TAF KHIF 040500Z 0405/0511 36012G18KT 2400 -SN BKN010 OVC016 630109 510009 QNH2947INS TEMPO 0405/0409 -SN BKN005 630059 BECMG 0411/0412 36012KT 2400 -SN BKN005 OVC015 630059 QNH2957INS BECMG 0420/0421 24009KT 3200 -SN SCT005 BKN019 OVC050 630199 QNH2967INS BECMG 0500/0501 28009KT 9999 VCSH SCT010 BKN030 OVC050 630309 QNH2976INS BECMG 0505/0506 36012KT 9999 NSW SCT020 BKN050 QNH2976INS TXM02/0405Z TNM04/0412Z
KHIO,KHIO 041124Z 0412/0512 00000KT P6SM -SHRA SCT025 OVC040 FM041400 VRB03KT P6SM -SHRA SCT010 BKN025 OVC035 FM042100 23004KT P6SM -SHRA SCT025 BKN040 FM050400 16003KT P6SM BKN035
KHKS,KHKS 041122Z 0412/0512 13006KT 4SM BR BKN030 FM041400 18008KT P6SM OVC050 FM041600 17015G24KT P6SM BKN050
KHKY,KHKY 041124Z 0412/0512 34003KT P6SM SCT020 FM041300 19003KT P6SM FEW030 FM041800 19006KT P6SM FEW250 FM050100 20003KT P6SM FEW250 FM051000 18003KT 5SM BR BKN026
KHLG,KHLG 041120Z 0412/0512 18005KT P6SM BKN035 FM041300 19007KT P6SM BKN020 FM041800 20008KT P6SM BKN035 FM042200 17007KT P6SM SCT060 BKN250
KHLN,KHLN 041120Z 0412/0512 34010KT P6SM VCSH SCT035 BKN045 FM041700 35011KT P6SM SCT035 BKN040 FM050200 VRB05KT P6SM SCT120
KHMN,TAF KHMN 040900Z 0409/0515 13010G20KT 9999 SKC WS015/26050KT 560208 QNH2965INS SEV MTN WAVE TURBC BECMG 0413/0414 23015G25KT 9999 SKC WS015/26050KT 560208 QNH2972INS SEV MTN WAVE TURBC BECMG 0414/0415 23025G35KT 6000 BLDU SKC 520002 560208 QNH2967INS SEV MTN WAVE TURBC TEMPO 0418/0424 24040G50KT 4800 BLDU 560009 BECMG 0502/0503 27015G25KT 9999 NSW SKC 530505 QNH2985INS BECMG 0505/0506 33012G18KT 9999 SKC 530505 QNH2992INS TX17/0421Z TN09/0413Z
KHNB,KHNB 041120Z 0412/0512 17010KT P6SM OVC008 FM041500 19013G19KT P6SM BKN015 OVC025 FM041700 18015G25KT P6SM SCT040 BKN250 FM050000 18013G22KT P6SM OVC150
KHND,KHND 041120Z 0412/0512 30008KT P6SM FEW120 FM041400 32018G26KT P6SM SKC FM042100 32012G20KT P6SM SKC FM050400 30007KT P6SM SKC
KHOB,KHOB 041120Z 0412/0512 21013KT P6SM SKC FM041400 20027G41KT P6SM SKC FM041700 23031G46KT 3SM BLDU SKC FM050100 29021G32KT P6SM SKC
KHON,KHON 041120Z 0412/0512 03014G24KT 6SM -SN BR OVC012 FM041500 04015G27KT 2SM -SN OVC009 FM042200 04014G22KT 2SM -SN OVC007 FM050000 02014G20KT 2SM -SN BLSN OVC007 FM050600 33015G25KT 1SM -SN BLSN OVC006 FM050900 32020G32KT P6SM BKN009
KHOP,TAF AMD KHOP 041130Z 0411/0514 15008KT 4800 BR FEW035 QNH2979INS TEMPO 0411/0415 2400 BR BECMG 0415/0416 16015G25KT 9999 NSW SCT030 QNH2984INS BECMG 0421/0422 20015KT 9999 SCT030 BKN120 QNH2980INS BECMG 0512/0513 22020G35KT 8000 -SHRA BKN025 OVC050 QNH2990INS TX27/0420Z TN17/0411Z
KHOT,KHOT 040659Z 0407/0506 19010KT P6SM SCT020 SCT250 TEMPO 0407/0410 BKN015 FM041000 18012KT 6SM BR BKN010 OVC025 FM041500 19012G18KT P6SM BKN025 OVC050 FM041800 19012G20KT P6SM BKN050 OVC100 FM050100 17008G16KT P6SM VCTS OVC040CB
KHOU,KHOU 041120Z 0412/0512 17011KT P6SM BKN012 BKN250 FM041500 17015G25KT P6SM BKN025 FM041800 17017G27KT P6SM BKN040 FM042300 16012G20KT P6SM BKN015 FM050600 16012G20KT P6SM SCT008 OVC015
KHPN,KHPN 041120Z 0412/0512 VRB04KT P6SM SCT080 SCT250 FM041600 15005KT P6SM SCT050 SCT250 FM042300 VRB03KT P6SM FEW015 SCT050 FM050300 VRB03KT 5SM BR SCT006 OVC012 FM050600 VRB03KT 3SM BR OVC006 FM050900 VRB03KT 2SM BR OVC004 AMD NOT SKED
KHQM,KHQM 041136Z 0412/0512 30010KT P6SM BKN040 TEMPO 0412/0416 BKN025 FM042000 22009KT P6SM BKN040 FM050200 23006KT P6SM BKN050 FM050600 VRB03KT P6SM OVC050
KHRF,KHRF 041120Z 0412/0512 01003KT P6SM VCSH OVC050 FM042100 02010G19KT P6SM VCSH BKN070 FM050200 01007KT P6SM VCSH BKN070
KHRL,KHRL 041135Z 0412/0512 14015G22KT P6SM BKN012 FM041400 17025G35KT P6SM SCT040 BKN070 FM050000 16016G24KT P6SM BKN050 FM050300 16016KT P6SM BKN016
KHRO,KHRO 040528Z 0406/0506 17012G18KT P6SM BKN250 FM041000 18015G25KT P6SM SCT050 BKN100 FM041400 18015G25KT P6SM BKN050 OVC100 FM042100 18015G25KT P6SM VCTS OVC050CB PROB30 0503/0506 5SM -TSRA BR OVC025CB
KHRT,TAF COR KHRT 041123Z 0411/0516 18009KT 1600 BR BKN001 BKN250 510001 QNH2994INS TEMPO 0410/0412 0400 FG BECMG 0411/0412 18009KT 4800 BR SCT008 BKN250 QNH2997INS TEMPO 0412/0414 1600 BR BKN005 BKN250 BECMG 0413/0414 20012KT 9999 NSW SCT020 BKN250 QNH3000INS BECMG 0415/0416 21010G20KT 9999 SCT035 BKN250 QNH2997INS BECMG 0421/0422 19010G15KT 9999 FEW006 SCT025 BKN250 510001 QNH2998INS WND 17009KT AFT 0500 BECMG 0505/0506 17006KT 8000 BR BKN005 BKN250 510001 QNH3002INS BECMG 0512/0513 17006KT 9999 NSW SCT010 BKN250 510001 QNH3004INS TX25/0420Z TN22/0411Z
KHST,TAF KHST 041100Z 0411/0517 VRB05KT 9999 SCT022 QNH2998INS TEMPO 0411/0413 BKN025 BECMG 0414/0415 12010KT 9999 SCT030 SCT050 QNH2999INS BECMG 0423/0424 10007KT 9999 FEW025 FEW200 QNH3003INS TX30/0419Z TN21/0411Z
KHSV,KHSV 041127Z 0412/0512 10006KT P6SM OVC007 FM041400 18010KT P6SM BKN010 OVC020 FM041600 18011G19KT P6SM SCT025
KHTS,KHTS 041131Z 0412/0512 17005KT P6SM BKN025 TEMPO 0412/0415 SCT025 BKN040 FM041500 19007KT P6SM VCSH BKN040 FM042000 20007KT P6SM FEW100 FM050000 17005KT P6SM FEW250 FM050700 18008KT P6SM BKN160 WS020/20035KT
KHUA,TAF AMD KHUA 032100Z 0321/0502 14012KT 9999 OVC015 QNH2987INS BECMG 0400/0401 13006KT 8000 BR BKN003 510033 QNH2988INS BECMG 0416/0417 18012G18KT 8000 BR SCT011 510043 QNH2995INS BECMG 0417/0418 19015G20KT 9000 BR SCT026 510043 QNH2993INS BECMG 0419/0420 21020G25KT 9999 NSW FEW040 510032 QNH2989INS BECMG 0423/0424 17006KT 9999 SCT030 510032 QNH2990INS TX27/0420Z TN15/0321Z LAST NO AMDS AFT 0403 NEXT 0411
KHUF,KHUF 041120Z 0412/0512 15008KT P6SM VCSH OVC014 FM041400 17014KT P6SM BKN015 FM041600 17015G25KT P6SM SCT025 SCT100 FM050000 18021G32KT P6SM BKN050 WS015/19055KT PROB30 0508/0512 4SM TSRA OVC035CB
KHUL,KHUL 041120Z 0412/0512 25007KT P6SM SCT050 FM041700 27008G18KT P6SM SCT120 FM042300 34009KT P6SM VCSH BKN060 FM050300 33011G22KT P6SM SCT250 FM050800 34007KT P6SM SCT110
KHUM,KHUM 041120Z 0412/0512 16007KT 6SM BR BKN010 BKN050 FM041500 16013G22KT P6SM BKN025 FM051000 15008KT 4SM BR BKN008 BKN040
KHUT,KHUT 041134Z 0412/0512 19015G22KT P6SM SCT230 WS020/24045KT FM041700 20023G33KT P6SM FEW250 FM042000 21029G43KT 6SM BLDU SKC FM050000 23022G35KT 6SM BLDU FEW250 FM050500 32019G30KT P6SM FEW240
KHVR,KHVR 041120Z 0412/0512 08011KT P6SM SCT015 BKN025 FM041800 01007KT P6SM BKN030 FM042100 03008KT P6SM BKN030 FM050100 07005KT P6SM SCT120
KHYA,KHYA 041124Z 0412/0512 17006KT P6SM FEW020 FM041900 32005KT P6SM BKN010 FM042100 00000KT P6SM OVC009 FM050300 07006KT 3SM BR OVC008 FM051000 05009KT 4SM BR OVC009
KHYR,KHYR 041120Z 0412/0512 06012G18KT P6SM BKN008 FM041800 06017G25KT 2SM -SN BKN007 FM042000 07019G29KT 2SM RASN BKN007 FM042200 07020G32KT 4SM RA BKN008 FM050300 08020G33KT 4SM RAPL VCTS BKN007CB FM050900 08015G24KT 4SM RA BKN007
KHYS,KHYS 041120Z 0412/0512 09007KT P6SM SKC FM041500 18015G25KT P6SM SKC FM041800 22030G40KT P6SM SKC FM050000 33025G35KT P6SM FEW200
KIAB,TAF KIAB 041000Z 0410/0516 20015G25KT 9999 SKC WS020/18055KT QNH2936INS BECMG 0414/0415 19025G35KT 9999 SKC 520103 QNH2931INS BECMG 0505/0506 32015G25KT 9999 SKC 510103 QNH2953INS TX29/0421Z TN05/0510Z
KIAD,KIAD 041120Z 0412/0518 19007KT P6SM SKC FM050000 17005KT P6SM FEW250 FM051400 18009KT P6SM SCT200 FM051700 19012KT P6SM SCT050
KIAG,KIAG 041120Z 0412/0512 05005KT 5SM -RA BR SCT007 OVC015 TEMPO 0412/0414 BKN007 FM041400 05005KT P6SM VCSH OVC007 FM041800 05012G18KT P6SM OVC007 FM050000 07012G24KT P6SM OVC015
KIAH,KIAH 041120Z 0412/0518 16014KT P6SM BKN013 BKN250 FM041500 17014G23KT P6SM BKN025 FM041700 16017G24KT P6SM BKN035 FM050000 16010G18KT P6SM BKN015 FM051400 19012KT P6SM -SHRA VCTS OVC012CB FM051700 34012KT P6SM VCSH OVC015
KICT,KICT 041134Z 0412/0512 18016G25KT P6SM SCT180 WS020/23045KT FM041700 20020G30KT P6SM FEW250 FM042000 21028G42KT P6SM SKC FM050100 19022G32KT P6SM SKC FM050400 24018G27KT P6SM FEW240 FM050700 33018G28KT P6SM SCT150
KIDA,KIDA 041120Z 0412/0512 01011G21KT P6SM VCSH SCT030 OVC070 TEMPO 0412/0416 2SM -SN BLSN BR BKN005 OVC020 FM041600 01018G28KT P6SM VCSH BKN020 OVC035 FM050200 34011KT P6SM SCT020 BKN060
KIFP,KIFP 041120Z 0412/0512 31013G22KT P6SM FEW120 FM041500 36020G30KT P6SM SKC FM050100 34010KT P6SM SKC FM050600 02008KT P6SM SKC
KILG,KILG 041120Z 0412/0512 VRB04KT P6SM SKC FM041500 21010KT P6SM SCT040 FM050000 17006KT P6SM FEW070 FM050800 11005KT P6SM BKN020
KILM,KILM 041120Z 0412/0512 21004KT P6SM SCT007 OVC020 TEMPO 0412/0414 OVC007 FM041500 24008KT P6SM BKN040 BKN250 FM042100 21006KT P6SM SCT250 FM050700 23003KT 4SM BR SCT005
KILN,KILN 041123Z 0412/0512 20006KT P6SM VCSH OVC012 FM041300 18007KT 6SM -SHRA BR VCTS OVC015CB FM041600 19008KT P6SM VCSH BKN015 FM041800 19010KT P6SM BKN025 FM042200 19010KT P6SM BKN050 FM050600 19013G23KT P6SM SCT130 WS020/22040KT
KIND,KIND 041120Z 0412/0518 17008KT P6SM VCSH BKN012 FM041500 16015KT P6SM SCT015 SCT100 FM042000 18016G26KT P6SM SCT035 SCT100 FM050500 17022G34KT P6SM BKN050
KINK,KINK 041120Z 0412/0512 23009KT P6SM SKC FM041400 21013G18KT P6SM SKC FM041700 26030G45KT 3SM BLDU SKC FM050100 32018G25KT P6SM SKC
KINL,KINL 041120Z 0412/0512 08011G18KT P6SM BKN015 FM042100 07015G22KT 4SM -SN BKN015 FM042300 07017G26KT 3/4SM -SN BLSN BKN025 FM050300 07021G34KT 3/4SM -SNPL BLSN BKN021 FM050700 07023G35KT 3/4SM -SN BLSN BKN016
KINS,TAF AMD KINS 041135Z 0412/0511 30012G18KT 9999 FEW080 QNH2991INS BECMG 0415/0416 32017G25KT 9999 FEW080 520009 QNH2993INS TEMPO 0416/0422 33021G36KT BKN080 610804 BECMG 0501/0502 31010G18KT 9999 SCT080 QNH2999INS BECMG 0505/0506 29009KT 9999 FEW070 QNH3009INS TX09/0421Z TN00/0413Z
KINT,KINT 041120Z 0412/0512 23004KT P6SM SCT009 BKN012 TEMPO 0412/0414 SCT012 SCT025 FM041400 20005KT P6SM FEW040 FM050000 20004KT P6SM SCT250 AMD NOT SKED
KINW,KINW 041120Z 0412/0512 25025G34KT P6SM SCT050 FM041800 27023G33KT P6SM BKN100 FM050200 28014G22KT P6SM SKC FM050600 24012KT P6SM SKC
KIPL,KIPL 041127Z 0412/0512 29010KT P6SM SKC FM041600 33010G18KT P6SM SKC FM042200 VRB05KT P6SM FEW250
KIPT,KIPT 041131Z 0412/0512 08004KT P6SM BKN070 FM041700 21007KT P6SM BKN050 FM050100 06003KT P6SM SCT080 FM051000 10002KT P6SM OVC025
KISM,KISM 041120Z 0412/0512 VRB04KT P6SM FEW060 FEW250 FM041500 16006KT P6SM FEW035 FEW250 FM042000 11010KT P6SM SCT040 SCT250 FM050400 14004KT P6SM FEW060 SCT250
KISO,KISO 041120Z 0412/0512 00000KT P6SM VCSH SCT035 OVC060 FM041600 22005KT P6SM BKN050 FM042200 VRB02KT P6SM SKC AMD LTD TO CLD VIS AND WIND
KISP,KISP 041120Z 0412/0512 20006KT P6SM FEW015 SCT250 FM041500 20011KT P6SM FEW050 SCT250 FM042300 19008KT P6SM FEW015 SCT050 FM050200 12006KT 6SM BR FEW006 BKN015 FM050500 08006KT 3SM BR OVC006 FM050800 07008KT 2SM BR OVC004
KITH,KITH 041120Z 0412/0512 00000KT P6SM SCT035 FM041400 VRB04KT P6SM BKN050 FM050000 02004KT P6SM SCT025 FM051000 14009KT P6SM BKN026
KIWA,KIWA 041127Z 0412/0512 27011KT P6SM SKC FM041600 28016G26KT P6SM SKC FM050100 28009KT P6SM SKC FM050500 11006KT P6SM FEW250
KIWD,KIWD 041126Z 0412/0512 07009KT P6SM OVC009 FM041400 08011G18KT P6SM OVC008 FM042100 08014G26KT 1SM -SNPL BR BKN006 FM050200 09016G35KT 5SM FZRA BR OVC005 WS020/10050KT FM050400 09016G34KT 3SM FZRA BR OVC004 WS020/13060KT FM050600 10014G34KT 4SM -FZRA BR OVC004 WS020/18040KT
KIXD,KIXD 041120Z 0412/0512 10012KT P6SM SCT040 WS015/18040KT FM041400 18017G30KT P6SM SCT050 FM042000 19028G38KT P6SM FEW150 FM050400 22020G31KT 6SM -RA VCTS SCT150CB FM050700 29018G25KT P6SM BKN070
KJAC,KJAC 040536Z 0406/0506 02014G22KT P6SM SCT035 OVC050 FM041800 01010KT P6SM VCSH BKN040 FM050000 01009KT P6SM VCSH SCT035 BKN060
KJAN,KJAN 041122Z 0412/0512 16007KT 4SM BR BKN030 FM041400 18008KT P6SM OVC050 FM041600 17015G24KT P6SM BKN050
KJAX,KJAX 041120Z 0412/0512 00000KT P6SM BKN012 FM041300 VRB03KT P6SM FEW025 SCT250 FM041800 12009KT P6SM FEW050 SCT250 FM050300 VRB03KT P6SM SCT250 TEMPO 0509/0512 4SM BR
KJBR,KJBR 041130Z 0412/0512 19011G20KT P6SM BKN018 FM041600 20018G26KT P6SM BKN025 FM041900 19019G27KT P6SM BKN035 FM050400 18017G27KT P6SM VCSH BKN050 WS020/19060KT FM050800 19020G29KT P6SM VCTS BKN020 BKN045CB WS020/20050KT PROB30 0509/0512 1SM TSRA OVC015CB
KJCT,KJCT 041120Z 0412/0512 18008KT P6SM BKN250 FM041600 22012G20KT P6SM BKN250 FM050100 19008KT P6SM BKN250
KJEF,KJEF 041129Z 0412/0512 14013KT 6SM BR SKC FM041400 18016G27KT P6SM SCT040 FM050000 18023G37KT P6SM BKN100 FM050700 19019G35KT P6SM VCTS BKN090CB FM050900 20019G32KT 6SM -SHRA BR VCTS BKN090CB FM051100 21017G29KT P6SM VCTS BKN080CB
KJER,KJER 041138Z 0412/0512 26020G30KT P6SM OVC060 TEMPO 0412/0416 5SM -SN BR OVC025 FM042000 25020G30KT P6SM VCSH BKN040 FM050600 23010KT P6SM VCSH OVC025
KJFK,KJFK 041120Z 0412/0518 14006KT P6SM FEW015 SCT250 FM041500 17010KT P6SM SCT050 SCT250 FM042200 16011KT P6SM FEW020 BKN050 FM050300 13006KT P6SM FEW007 BKN015 FM050700 07006KT 4SM BR BKN007 OVC012 FM051000 07006KT 2SM BR OVC004 FM051500 08010KT 6SM BR OVC007
KJHW,KJHW 041120Z 0412/0512 09006KT P6SM BKN080 FM041500 VRB04KT P6SM BKN035 FM041800 VRB06KT P6SM BKN025 FM042300 05006KT P6SM SCT025 FM050400 11006KT P6SM BKN035 FM050900 15012G20KT P6SM BKN100
KJKA,KJKA 041131Z 0412/0512 17006KT 1/2SM FG OVC002 FM041400 16008KT 3SM BR OVC003 FM041600 16009KT P6SM BKN003 FM041700 16013G20KT P6SM BKN025 FM050100 15010KT P6SM SCT018 FM050300 15010KT P6SM BKN015 FM050900 15006KT 2SM BR OVC004
KJKL,KJKL 040707Z 0407/0506 18006KT P6SM BKN030 TEMPO 0407/0410 SCT030 FM041000 17004KT P6SM VCSH BKN020 BKN060 FM041800 20007KT P6SM SCT250
KJLN,KJLN 041120Z 0412/0512 19020G30KT P6SM FEW250 WS020/19050KT FM050000 21021G35KT P6SM BKN090 WS020/17050KT PROB30 0500/0506 4SM TSRA BR BKN100CB FM050700 25016G27KT P6SM SCT100 WS020/20050KT PROB30 0507/0510 4SM TSRA BR BKN100CB FM051000 28014G24KT P6SM SCT250
KJMS,KJMS 041128Z 0412/0512 36010KT P6SM OVC006 FM041500 03016G24KT 1SM -SN OVC004 FM041800 04020G31KT 1/4SM +SN BLSN OVC004 FM050000 03025G38KT 1/4SM +SN BLSN OVC007
KJST,KJST 041131Z 0412/0512 23008KT P6SM SCT050 FM041500 25008KT P6SM SCT030 BKN040 FM042000 24008KT P6SM SCT040 FM050000 15005KT P6SM SCT250
KJVL,KJVL 041120Z 0412/0512 10011KT P6SM OVC007 FM041500 10015G28KT P6SM OVC007 FM042200 09013G23KT 3SM BR VCTS OVC005CB FM042300 10014G22KT 3SM SHRA BR VCTS OVC006CB FM050200 13014G24KT 4SM SHRA BR VCTS OVC008CB WS003/16045KT FM050500 18015G28KT P6SM BKN011 WS011/20045KT
KJXN,KJXN 041136Z 0412/0512 05008KT P6SM VCSH OVC004 FM041500 09012G20KT 5SM BR VCSH OVC008 FM050400 13015G23KT 3SM -RA BR BKN004 WS020/17040KT FM050700 16015G23KT 5SM -RA BR OVC006 WS020/19050KT FM050900 18017G27KT 5SM -RA BR BKN010 WS020/21045KT FM051100 20019G29KT P6SM -RA BKN035 WS020/21050KT
KJZI,KJZI 041120Z 0412/0512 00000KT 5SM MIFG BKN006 BKN025 OVC035 TEMPO 0412/0413 P6SM NSW SCT025 BKN035 FM041300 VRB03KT P6SM SCT007 BKN030 FM041500 28005KT P6SM BKN150 FM042200 18007KT P6SM SCT200 FM051000 14003KT 3SM BR FEW200
KLAF,KLAF 041120Z 0412/0512 10007KT P6SM SCT012 BKN022 FM041600 15014G24KT P6SM SCT022 SCT100 FM050000 17018G28KT P6SM SCT035 WS015/19060KT
KLAL,KLAL 041044Z 0411/0506 00000KT P6SM SCT007 FM041400 15004KT P6SM SCT020 FM041700 18007KT P6SM BKN040 FM042300 VRB03KT P6SM BKN050
KLAN,KLAN 041136Z 0412/0512 06008KT P6SM VCSH OVC006 FM050100 10016G24KT 5SM -RA BR BKN005 FM050400 13016G24KT 4SM -RA BR BKN004 WS020/17040KT FM050700 16015G23KT 3SM -RA BR OVC004 WS020/19045KT FM051000 19015G23KT 6SM -RA BR BKN010 WS020/21040KT
KLAR,KLAR 041120Z 0412/0512 09019G30KT 3/4SM -SN BR OVC004 TEMPO 0412/0416 1/4SM SN FZFG VV009 FM041600 05018G30KT 2SM -SN BR OVC007 FM050000 35010KT P6SM BKN030 OVC050 FM050400 32008KT 5SM BR OVC015
KLAS,KLAS 041120Z 0412/0518 30014G24KT P6SM FEW120 FM042200 33012G20KT P6SM SCT120 FM050400 33008KT P6SM SKC FM050900 23006KT P6SM SKC FM051400 VRB05KT P6SM FEW200
KLAW,KLAW 041120Z 0412/0512 19012KT P6SM OVC250 WS020/22040KT FM041500 20019G28KT P6SM SCT220 FM050400 24015G24KT P6SM SKC WS020/25040KT FM050600 30015G26KT P6SM SKC WS020/27040KT
KLAX,KLAX 041121Z 0412/0518 33012G20KT P6SM SCT050 FM041800 26012G20KT P6SM SKC FM050400 26008KT P6SM SKC FM050700 VRB03KT P6SM SKC FM051000 07004KT P6SM SKC
KLBB,KLBB 041125Z 0412/0512 22015KT P6SM FEW100 BKN200 WS008/24045KT FM041500 24025G35KT P6SM BKN200 FM041800 24040G55KT 1SM BLDU BKN200 FM042300 25030G45KT 2SM BLDU SKC FM050200 27025G35KT 5SM BLDU SKC
KLBE,KLBE 041120Z 0412/0512 20005KT P6SM SKC FM041400 22011KT P6SM BKN035 FM042200 22007KT P6SM FEW060 BKN250
KLBF,KLBF 041136Z 0412/0512 06015G23KT P6SM OVC025 FM041500 04012G20KT P6SM OVC015 TEMPO 0417/0420 6SM -DZSN OVC015 FM042000 34018G28KT 6SM -DZSN OVC015 TEMPO 0421/0423 5SM -SN BLSN OVC008 FM050100 32022G35KT P6SM OVC050 FM051100 32016G30KT P6SM OVC100
KLBL,KLBL 041120Z 0412/0512 21015G25KT P6SM SKC FM041400 21025G35KT P6SM SKC FM041700 23035G50KT 3SM BLDU SKC FM042000 24035G55KT P6SM SKC FM050200 33025G35KT P6SM FEW200
KLBT,KLBT 041125Z 0412/0512 26002KT P6SM SCT007 BKN070 FM041600 25006KT P6SM BKN040 OVC250 FM042300 22002KT P6SM SCT250 FM050700 00000KT 3SM BR SKC
KLBX,KLBX 041120Z 0412/0512 17010G18KT P6SM SCT008 OVC012 FM041600 17014G29KT P6SM SCT015 BKN025 FM042200 17014G25KT P6SM BKN015 FM050300 16017G24KT P6SM BKN007 OVC012
KLCH,KLCH 041123Z 0412/0512 18012G18KT 6SM BR OVC008 FM041500 18015G23KT P6SM SCT015 OVC025 FM041800 17018G27KT P6SM BKN035 FM050100 16015G23KT 6SM BR OVC015 FM050500 16014G20KT 5SM BR OVC008
KLCK,KLCK 041123Z 0412/0512 19006KT P6SM OVC025 FM041300 17005KT P6SM VCSH OVC022 FM041600 18007KT P6SM -SHRA VCTS OVC015CB FM041800 18008KT P6SM BKN025 FM042000 18008KT P6SM BKN050 FM050200 15008KT P6SM SCT250 FM050900 18013KT P6SM BKN090 WS020/22040KT
KLEB,KLEB 041120Z 0412/0512 00000KT P6SM OVC080 FM041300 VRB03KT P6SM -RA SCT020 OVC050 FM042100 33003KT P6SM OVC035 FM050600 02003KT 4SM -SHRA BR OVC020
KLEE,KLEE 041120Z 0412/0512 VRB03KT P6SM SCT250 TEMPO 0412/0413 3SM BR SCT010 FM041500 17005KT P6SM FEW035 FEW250 FM050400 13004KT P6SM FEW060 SCT250
KLEX,KLEX 041120Z 0412/0512 17013KT P6SM OVC015 FM041600 19013G19KT P6SM SCT017 BKN025 FM041800 19015G27KT P6SM SCT050 BKN250 FM050100 18013G22KT P6SM OVC200
KLFI,TAF KLFI 040900Z 0409/0515 15006KT 9999 BKN080 QNH3001INS BECMG 0415/0416 18006KT 9999 SCT015 BKN050 QNH3003INS BECMG 0419/0420 17006KT 9999 BKN020 QNH3006INS BECMG 0504/0505 17006KT 8000 BR SCT020 QNH3012INS BECMG 0510/0511 18006KT 9999 NSW SKC QNH3018INS TX23/0420Z TN15/0409Z
KLFK,KLFK 041120Z 0412/0512 16009KT P6SM OVC015 FM041300 16011G18KT P6SM OVC015 FM041700 18018G25KT P6SM OVC050 FM050000 17019G25KT P6SM OVC070 FM050200 17021G27KT P6SM OVC025 FM050800 17014G23KT P6SM OVC015
KLFT,KLFT 041123Z 0412/0512 18008KT P6SM OVC009 FM041400 17012G18KT P6SM OVC015 FM041700 18018G27KT P6SM BKN035 FM050100 17012G18KT 6SM BR OVC015 FM050700 16010G16KT 5SM BR OVC008
KLGA,KLGA 041120Z 0412/0518 07006KT P6SM FEW020 SCT250 FM041600 15010KT P6SM SCT050 SCT250 FM050300 07006KT P6SM FEW007 BKN015 FM050700 06006KT 4SM BR BKN007 OVC012 FM051000 06006KT 2SM BR OVC004 FM051500 07011KT 6SM BR OVC007
KLGB,KLGB 041120Z 0412/0512 30006KT P6SM SKC FM041900 25010KT P6SM SKC FM050000 30012KT P6SM SKC FM050500 VRB03KT P6SM SKC
KLGU,KLGU 041120Z 0412/0512 34007KT 1SM -SHSN BR SCT010 OVC015 FM041600 31009KT 5SM -SHSN BR SCT020 OVC030 FM050000 VRB04KT P6SM VCSH SCT030 BKN040
KLIT,KLIT 040528Z 0406/0506 19008G16KT P6SM SCT025 SCT250 FM041000 18010G18KT P6SM BKN020 BKN050 FM041500 19012G22KT P6SM OVC025 FM041800 18014G25KT P6SM BKN050 OVC100 FM050100 17008G16KT P6SM OVC040
KLLQ,KLLQ 041025Z 0410/0506 19008KT P6SM SCT008 OVC020 TEMPO 0410/0414 OVC008 FM041400 18008G16KT P6SM BKN025 OVC050 FM041800 18014G24KT P6SM BKN050 OVC100 FM050100 17008G16KT P6SM OVC040
KLMT,KLMT 040816Z 0408/0506 27009KT P6SM FEW050 FM041200 VRB03KT P6SM BKN050 FM041800 28010KT P6SM SCT035 BKN045 FM042100 29012G20KT P6SM SCT035 BKN045 FM050200 29006KT P6SM BKN050
KLND,KLND 040536Z 0406/0506 06007KT 3/4SM -SN BR OVC008 FM041700 33007KT 1 1/2SM -SN SCT008 OVC015 FM042100 34008KT 5SM -SN SCT015 BKN025 FM050100 VRB06KT P6SM SCT025 BKN040
KLNK,KLNK 041126Z 0412/0512 05010G18KT P6SM SCT030 FM041400 09012KT P6SM SCT005 BKN030 FM041700 12009KT P6SM SKC FM050300 33014G22KT P6SM OVC015
KLNS,KLNS 041131Z 0412/0512 VRB05KT P6SM SCT250 FM041800 20007KT P6SM SCT025 FM050500 15004KT 6SM BR SCT030 FM050800 08003KT 5SM BR OVC025 FM051000 08003KT 3SM BR OVC007
KLOZ,KLOZ 040706Z 0407/0506 18007KT P6SM VCSH BKN020 TEMPO 0407/0409 SCT030 FM041800 20008KT P6SM SCT250
KLRD,KLRD 041135Z 0412/0512 13010KT P6SM BKN250 FM041500 17012G18KT P6SM SCT025 BKN250 FM042100 VRB06KT P6SM BKN250 FM050600 16012KT P6SM SCT012 OVC150 TEMPO 0507/0509 BKN012 FM050900 VRB03KT P6SM OVC012
KLRF,TAF AMD KLRF 041038Z 0410/0513 18006KT 9999 BKN010 OVC060 WS020/21030KT QNH2967INS TEMPO 0410/0414 18010G15KT BKN008 OVC020 BECMG 0414/0415 18015G25KT 9999 BKN020 OVC040 QNH2967INS BECMG 0419/0420 18010G15KT 9999 BKN040 BKN080 QNH2965INS TEMPO 0502/0504 8000 -TSRA BKN015CB OVC030 BECMG 0505/0506 18012G18KT 8000 -SHRA BKN020 OVC040 QNH2965INS BECMG 0511/0512 18015G25KT 4800 -TSRA BKN015CB OVC030 QNH2970INS TX26/0420Z TN20/0412Z
KLRU,KLRU 041128Z 0412/0512 26015G28KT P6SM FEW250 WS020/25045KT FM041500 27030G40KT 6SM HZ SKC TEMPO 0418/0422 4SM BLDU FM050200 29020G30KT P6SM SKC FM050900 32009KT P6SM FEW250
KLSE,KLSE 041124Z 0411/0512 06009KT P6SM BKN050 FM041300 07009KT P6SM BKN025 FM041600 08013G25KT 4SM -SHRA OVC008 FM041900 09015G28KT 4SM BR OVC010 FM050100 09016G28KT 5SM BR VCTS BKN015CB FM050600 15014KT P6SM BKN015
KLSF,TAF AMD KLSF 040023Z 0400/0503 12007KT 9999 OVC007 QNH2992INS TEMPO 0402/0405 1600 BR BECMG 0405/0406 12003KT 3200 BR BKN005 OVC020 QNH2992INS TEMPO 0409/0414 0800 FG OVC003 BECMG 0414/0415 18004KT 9999 NSW FEW010 BKN020 BKN030 QNH2998INS BECMG 0416/0417 18007KT 9999 SCT030 SCT050 QNH2994INS BECMG 0500/0501 17001KT 9999 SCT040 BKN065 QNH2999INS TX29/0421Z TN16/0407Z LAST NO AMDS AFT 0403 NEXT 0413
KLSV,TAF KLSV 040700Z 0407/0513 28015G25KT 9999 SCT110 520009 QNH2971INS BECMG 0417/0418 31010G15KT 9999 BKN130 QNH2994INS BECMG 0501/0502 33009KT 9999 SCT110 QNH2998INS BECMG 0508/0509 36006KT 9999 SKC QNH3012INS TX14/0422Z TN03/0412Z
KLTS,TAF KLTS 040900Z 0409/0515 18010KT 9999 FEW270 WS015/22050KT QNH2943INS BECMG 0414/0415 21025G35KT 9999 SKC 510003 QNH2950INS BECMG 0416/0417 23035G45KT 8000 BLDU SKC 520003 QNH2947INS TEMPO 0417/0422 24035G50KT BECMG 0500/0501 24020G30KT 9000 BLDU SKC 510003 QNH2932INS BECMG 0504/0505 30015G21KT 9999 NSW SKC 510102 QNH2960INS BECMG 0508/0509 31015KT 9999 SKC 510152 QNH2974INS BECMG 0511/0512 33008KT 9999 SKC QNH2987INS TX31/0421Z TN11/0412Z
KLUF,TAF KLUF 040400Z 0404/0510 29015G25KT 8000 BLDU FEW100 520007 QNH2966INS TEMPO 0404/0405 29020G35KT 6000 BLDU 530009 BECMG 0406/0407 29012G18KT 9999 NSW FEW150 QNH2977INS WND 29009KT AFT 0411 BECMG 0416/0417 29015G25KT 9999 SKC 520007 QNH2993INS BECMG 0502/0503 VRB06KT 9999 SKC QNH3000INS TX21/0404Z TN05/0413Z
KLUK,KLUK 041123Z 0412/0512 00000KT P6SM VCSH OVC019 FM041300 17007KT 6SM -SHRA BR VCTS OVC015CB FM041500 17009KT P6SM VCTS OVC015CB FM041700 17009KT P6SM BKN025 FM042000 17010KT P6SM BKN050 FM050600 20011KT P6SM SCT050 WS020/21040KT
KLVK,KLVK 041120Z 0412/0512 28004KT P6SM SKC FM042000 28010G19KT P6SM FEW200 FM050100 27008KT P6SM SCT200 FM050500 VRB03KT P6SM SCT200
KLVM,KLVM 041126Z 0412/0512 08018G26KT 1SM -SN BR BKN015 OVC020 FM041600 08013KT 3SM -SN BR SCT015 OVC020 FM042300 10013KT P6SM OVC050
KLVS,KLVS 040904Z 0409/0506 22015G25KT P6SM FEW080 WS020/23050KT TEMPO 0410/0414 24025G40KT FM041400 25038G50KT P6SM FEW060 FM050100 25025G35KT P6SM SCT060
KLWB,KLWB 041120Z 0412/0512 00000KT P6SM SCT035 TEMPO 0413/0416 BKN030 FM041800 24007KT P6SM SCT040 FM050000 00000KT P6SM SKC
KLWS,KLWS 041137Z 0412/0512 VRB03KT P6SM BKN040 BKN070 OVC100 FM041900 29007KT P6SM BKN040 FM050300 20003KT P6SM BKN070 FM050900 14002KT P6SM FEW080
KLWT,KLWT 041120Z 0412/0512 31010KT P6SM VCSH SCT015 BKN025 TEMPO 0412/0415 6SM -SHSN BKN005 FM041800 35009KT P6SM BKN030 TEMPO 0419/0423 6SM -SHSN BKN020 FM050300 26005KT P6SM SCT120
KLYH,KLYH 041120Z 0412/0512 21004KT P6SM SKC FM041600 20006KT P6SM FEW050 FM050000 20003KT P6SM SKC
KMAF,KMAF 041120Z 0412/0512 23009KT P6SM SKC FM041400 23018G25KT P6SM SKC FM041700 25028G42KT 5SM BLDU SKC FM050100 30020G31KT P6SM SKC
KMBG,KMBG 041120Z 0412/0512 01013KT P6SM BKN008 BKN014 OVC060 FM041300 03013G22KT 1 1/2SM -SN OVC012 FM041400 03014G23KT 3/4SM -SN OVC011 FM042100 01022G33KT 1/2SM SN BLSN OVC008 FM050700 34025G38KT 1SM -SN BLSN OVC012 FM050800 33026G40KT 3SM BLSN OVC011
KMBL,KMBL 041132Z 0412/0512 08006KT P6SM BKN110 FM041600 09010G16KT P6SM BKN035 FM042200 10017G29KT P6SM VCSH OVC027 FM050000 10016G29KT 6SM -SHRA BR VCTS OVC012CB WS020/13045KT FM050700 13016G25KT 4SM -SHRA BR VCTS OVC006CB WS020/18045KT FM051000 14013G21KT 5SM -SHRA BR BKN010 WS020/20045KT
KMBS,KMBS 041120Z 0412/0512 06008KT 4SM -SHRA BR OVC009 FM041600 07010KT P6SM OVC014 FM042300 06019G25KT 6SM -SHRA BR OVC007 FM050400 12010G22KT 4SM -SHRA BR OVC006 FM050900 15013KT 4SM -SHRA BR OVC010
KMCB,KMCB 041120Z 0412/0512 17008KT 6SM BR BKN010 OVC020 FM041400 17010KT P6SM BKN015 FM041600 17012KT P6SM FEW035 SCT250 FM051100 17014G23KT P6SM BKN008 BKN010
KMCC,KMCC 041120Z 0412/0512 31008KT P6SM SKC FM041700 34011KT P6SM FEW250 FM050300 VRB05KT P6SM FEW100 FEW250
KMCE,KMCE 041127Z 0412/0512 32003KT P6SM FEW200 FM042200 31008G15KT P6SM SCT200 FM050200 32005KT P6SM SCT200
KMCF,TAF KMCF 040900Z 0409/0515 09006KT 9000 BR SKC QNH2995INS TEMPO 0409/0413 1800 BR SCT006 BECMG 0412/0413 18009KT 9999 NSW SCT020 QNH3004INS BECMG 0506/0507 10009KT 9999 BKN010 QNH3005INS TX32/0420Z TN19/0410Z
KMCI,KMCI 041120Z 0412/0512 10012KT P6SM BKN028 WS015/18040KT FM041400 18017G30KT P6SM SCT070 FM042000 19028G38KT P6SM FEW150 FM050400 22020G31KT 6SM -RA VCTS SCT150CB FM050700 29018G25KT P6SM BKN070
KMCK,KMCK 041120Z 0412/0512 05012KT P6SM SKC FM042200 34017G26KT P6SM BKN035 BKN070 FM050100 34025G35KT P6SM SCT250 FM051000 32020G29KT P6SM SKC
KMCN,KMCN 041120Z 0412/0512 00000KT 1/2SM FG VV002 TEMPO 0412/0414 1/4SM FG FM041500 VRB03KT 3SM BR BKN005 OVC012 FM041700 18005KT P6SM SCT015 BKN020 FM041900 16005KT P6SM SCT040 BKN120
KMCO,KMCO 041120Z 0412/0518 VRB03KT P6SM FEW060 FEW250 FM041500 15007KT P6SM FEW035 FEW250 FM042000 11010KT P6SM SCT040 SCT250 FM050400 13004KT P6SM FEW060 SCT250 FM051400 12008KT P6SM FEW040 FEW250
KMCW,KMCW 041136Z 0412/0512 06011KT P6SM OVC070 FM041400 08016G26KT P6SM VCSH OVC019 FM041500 09019G29KT 3SM -SHRA BR OVC006 FM041700 09019G29KT P6SM VCSH OVC003 FM050100 10015G23KT 3SM -SHRA VCTS OVC003CB WS020/16040KT FM050400 15014G24KT P6SM BKN003
KMDT,KMDT 041131Z 0412/0512 VRB04KT P6SM SCT250 FM041800 18007KT P6SM SCT040 FM050500 15004KT 6SM BR SCT008 SCT030 FM050900 12002KT 5SM BR SCT008 OVC025
KMDW,KMDW 041120Z 0412/0518 07012G18KT 6SM -SHRA BKN006 OVC012 FM041500 09012G18KT 3SM -DZ BR VCSH SCT003 OVC005 FM042200 12013G20KT 6SM BR BKN010 FM050100 17015G24KT P6SM BKN035 WS020/20055KT PROB30 0502/0505 3SM TSRA OVC025CB FM050500 19020G30KT P6SM SCT035 BKN070 PROB30 0515/0517 3SM TSRA OVC025CB
KMEI,KMEI 041122Z 0412/0512 19006KT P6SM BKN030 FM041600 18013G22KT P6SM BKN050 FM050500 18014KT P6SM OVC025 FM050700 18013KT P6SM OVC015
KMEM,KMEM 041130Z 0412/0518 18010G18KT P6SM SCT018 BKN025 TEMPO 0412/0414 BKN018 FM041700 19015G25KT P6SM BKN035 FM042200 17018G29KT P6SM SCT045 BKN200 FM050300 18016G28KT P6SM SCT060 BKN150 WS020/19055KT FM051100 20021G30KT P6SM VCTS FEW040CB BKN050 WS020/20045KT PROB30 0513/0518 4SM TSRA BKN025 BKN050CB
KMER,KMER 041127Z 0412/0512 35003KT P6SM FEW200 FM042200 31008G15KT P6SM SCT200 FM050200 32005KT P6SM SCT200
KMEV,KMEV 041120Z 0412/0512 VRB04KT P6SM FEW040 BKN050 FM041900 34011G16KT P6SM BKN050 FM050200 31005KT P6SM SCT050 FM050500 VRB05KT P6SM FEW050
KMFD,KMFD 041125Z 0412/0512 18005KT P6SM OVC025 FM041500 19005KT P6SM OVC015 FM042000 17010KT P6SM BKN025 FM042300 15008KT P6SM BKN050 FM050600 18012G20KT P6SM OVC050
KMFE,KMFE 041135Z 0412/0512 15015G22KT P6SM OVC012 FM041500 15018G27KT P6SM BKN040 FM050100 14014KT P6SM BKN250 FM050600 15015KT P6SM OVC030
KMFR,KMFR 040531Z 0406/0506 VRB03KT P6SM VCSH SCT030 BKN050 FM041400 VRB02KT P6SM -SHRASN SCT020 BKN030 FM041700 30002KT P6SM VCSH SCT025 BKN040 FM042100 28006KT P6SM BKN050
KMGE,TAF AMD KMGE 041113Z 0411/0503 08005KT 3200 BR OVC002 QNH2999INS BECMG 0413/0414 11008KT 4800 BR OVC007 QNH3000INS BECMG 0414/0415 12010KT 8000 BR OVC010 QNH3000INS BECMG 0415/0416 14010KT 9999 NSW BKN020 QNH2995INS BECMG 0417/0418 15010KT 9999 BKN025 QNH2995INS TX24/0421Z TN12/0412Z
KMGM,KMGM 041120Z 0412/0512 13005KT 6SM BR OVC019 FM041300 18007KT P6SM BKN015 FM041600 18007KT P6SM BKN017 FM041700 17008KT P6SM BKN035 FM041800 18007KT P6SM SCT040 BKN250 FM050700 16007KT P6SM BKN200
KMGW,KMGW 041120Z 0412/0512 19004KT P6SM BKN040 FM041500 21008KT P6SM BKN035 FM042000 20007KT P6SM SCT060 BKN250
KMHK,KMHK 041120Z 0412/0512 09011KT P6SM SKC FM041400 19015G25KT P6SM SKC FM041900 21025G38KT P6SM SKC FM050300 31019G26KT P6SM FEW200
KMHR,KMHR 041120Z 0412/0512 32007KT P6SM SKC FM041700 34011KT P6SM FEW250 FM050300 VRB05KT P6SM FEW100 FEW250 AMD NOT SKED
KMHT,KMHT 041120Z 0412/0512 00000KT P6SM VCSH OVC070 FM041600 36004KT P6SM FEW025 OVC050 FM050200 03003KT 5SM BR SCT020 OVC035
KMIA,KMIA 041120Z 0412/0518 12006KT P6SM FEW040 FM041500 12012KT P6SM SCT035 SCT200 FM050400 10008KT P6SM FEW040 FEW200 FM051500 10012KT P6SM SCT035
KMIB,TAF AMD KMIB 041105Z 0411/0515 04009KT 9999 BKN010 OVC020 620106 QNH2997INS BECMG 0415/0416 04010G15KT 8000 -SN SCT007 OVC010 620106 QNH2996INS BECMG 0417/0418 03010G15KT 4800 -SN BKN007 OVC010 620108 QNH2993INS BECMG 0419/0420 03012G18KT 1600 -SN BLSN BKN005 OVC010 620089 QNH2993INS BECMG 0420/0421 02015G25KT 0800 SN BLSN OVC005 620059 QNH2994INS BECMG 0500/0501 01020G30KT 0400 +SN BLSN OVC004 620049 510002 QNH2985INS TEMPO 0503/0507 0200 +SN BLSN BECMG 0511/0512 36025G35KT 0800 -SN BLSN OVC010 620109 520003 QNH2985INS TXM06/0420Z TNM12/0411Z
KMIV,KMIV 041120Z 0412/0512 VRB04KT P6SM SKC FM041500 20011KT P6SM SCT050 FM050000 16004KT P6SM FEW050 FM050600 16004KT 3SM BR BKN020
KMKC,KMKC 041120Z 0412/0512 10012KT P6SM BKN028 WS015/18040KT FM041400 18017G30KT P6SM SCT050 FM042000 19028G38KT P6SM FEW150 FM050400 22020G31KT 6SM -RA VCTS SCT150CB FM050700 29018G25KT P6SM BKN070
KMKE,KMKE 041120Z 0412/0518 05011KT 2SM BR OVC002 FM041900 08013G27KT 2SM SHRA BR VCTS OVC003CB FM050300 12014G23KT 2SM SHRA BR VCTS OVC004CB WS011/16045KT FM050600 17011G23KT 3SM BR BKN006 WS014/20045KT FM051300 19016G30KT P6SM VCTS BKN015CB WS007/20045KT FM051700 22020G36KT P6SM BKN025
KMKG,KMKG 041136Z 0412/0512 07008KT P6SM SCT012 OVC035 FM041700 09012G25KT P6SM BKN009 FM050100 10021G32KT 5SM RA BR BKN007 WS020/14045KT FM050700 15018G27KT 4SM RA BR OVC007 WS020/18040KT FM051000 18018G28KT 5SM RA BR OVC012 WS020/21045KT
KMKL,KMKL 041130Z 0412/0512 18009KT P6SM SCT008 BKN015 TEMPO 0412/0415 BKN008 FM041500 19012G20KT P6SM BKN025 FM041800 19012G23KT P6SM BKN035 FM050300 18015G27KT P6SM BKN050 WS020/19045KT
KMKT,KMKT 040520Z 0406/0506 33010KT P6SM FEW020 BKN110 FM040900 04009KT P6SM SCT015 BKN090 FM041500 06017G24KT 5SM -RA BR OVC008 FM050200 08012G20KT 3SM -DZ BR BKN003
KMLB,KMLB 041120Z 0412/0512 23005KT P6SM FEW070 SCT250 FM041600 09007KT P6SM VCSH SCT040 SCT250 FM042100 12012G18KT P6SM FEW060 SCT250 FM050400 14006KT P6SM FEW020 FEW080 FEW250
KMLC,KMLC 041120Z 0412/0512 18010G20KT P6SM SCT015 WS020/19045KT TEMPO 0412/0415 BKN015 FM041500 19017G29KT P6SM BKN035 FM041800 19018G30KT P6SM SCT030 BKN050 PROB30 0423/0501 4SM TSRA OVC020CB FM050100 19013G22KT P6SM SCT040 BKN250 PROB30 0505/0508 4SM TSRA OVC020CB FM050800 25013G22KT P6SM BKN250
KMLI,KMLI 041133Z 0412/0512 08017G26KT P6SM OVC010 TEMPO 0412/0414 OVC009 FM042000 13016G24KT P6SM SCT008 PROB30 0423/0503 4SM -TSRA OVC010CB FM050600 20022G34KT P6SM SCT060 WS020/20055KT
KMLS,KMLS 041126Z 0412/0512 03009KT P6SM FEW050 FM041500 02015G20KT P6SM VCSH OVC015 FM042000 02015KT P6SM OVC020
KMLU,KMLU 041120Z 0412/0512 19008KT P6SM OVC015 FM041400 18011G17KT P6SM OVC025 FM041800 18017G23KT P6SM OVC060 FM050000 17019G25KT P6SM OVC150 FM050400 18018G25KT P6SM OVC050 FM050600 18019G25KT P6SM OVC025
KMMH,KMMH 041120Z 0412/0512 28011KT P6SM SCT080 FM041900 29012KT P6SM SCT040 BKN100 FM050300 32008KT P6SM FEW030 SCT080 FM050900 28005KT P6SM SCT080
KMMT,TAF AMD KMMT 041018Z 0410/0513 VRB06KT 0400 FG BKN030 QNH2997INS TEMPO 0410/0412 VRB06KT 0800 FG BECMG 0411/0412 VRB06KT 4800 BR FEW009 QNH3006INS BECMG 0417/0418 VRB06KT 9999 NSW SCT030 QNH3004INS BECMG 0508/0509 VRB06KT 8000 BR SCT018 QNH3011INS TX27/0420Z TN14/0410Z
KMOB,KMOB 041131Z 0412/0512 20005KT 6SM BR OVC010 FM041400 17007KT P6SM OVC006 FM041500 17009KT P6SM BKN015 FM041600 17014G22KT P6SM BKN035 FM050200 15010KT P6SM BKN015 FM050900 15006KT 2SM BR OVC004
KMOD,KMOD 041120Z 0412/0512 32010KT P6SM SKC FM041800 33011G17KT P6SM SKC FM050300 31007KT P6SM FEW250
KMOT,KMOT 041128Z 0412/0512 34010KT P6SM BKN014 OVC020 FM041600 01012G20KT P6SM OVC011 FM042000 01015G25KT 1SM -SN BLSN OVC011 FM050100 35021G31KT 1/2SM SN BLSN OVC012
KMPV,KMPV 040908Z 0409/0506 00000KT 2SM BR BKN001 OVC080 TEMPO 0409/0411 4SM BR SCT001 FM041100 00000KT P6SM BKN050 FM041600 00000KT P6SM VCSH OVC025 FM042200 VRB03KT P6SM BKN060
KMQY,KMQY 041128Z 0412/0512 16007KT P6SM OVC010 FM041700 19013G21KT P6SM BKN020 FM041900 19014G22KT P6SM BKN035
KMRB,KMRB 041120Z 0412/0512 20004KT P6SM SKC FM042000 18007KT P6SM FEW250
KMRY,KMRY 041120Z 0412/0512 28009KT P6SM FEW025 SCT050 FM041900 28012G20KT P6SM FEW060 SCT150 FM050300 VRB05KT P6SM BKN100
KMSL,KMSL 041127Z 0412/0512 17008KT P6SM BKN010 FM041400 18010KT P6SM BKN015 FM041600 19010G20KT P6SM SCT025
KMSN,KMSN 041120Z 0412/0512 09010G20KT P6SM OVC005 FM041900 09017G25KT 2SM -SHRA BR VCTS OVC006CB FM042300 10016G28KT 2SM BR VCTS OVC004CB FM050400 13013G21KT P6SM VCTS OVC005CB WS006/16050KT FM050600 16011G23KT P6SM BKN007 WS014/19045KT FM050900 19013G28KT P6SM BKN027 WS008/20050KT
KMSO,KMSO 041120Z 0412/0512 00000KT P6SM VCSH BKN050 FM042100 36010KT P6SM VCSH BKN070
KMSP,KMSP 040900Z 0409/0512 04010KT P6SM SCT030 BKN120 FM041300 06014G22KT P6SM OVC012 TEMPO 0413/0417 6SM -RASN FM041700 06017G29KT 5SM -SHRA BR OVC009 FM042000 07020G27KT 3SM -DZ BR OVC007
KMSS,KMSS 040538Z 0406/0506 25005KT P6SM BKN250 FM050000 02005KT P6SM SCT050 FM050300 06010KT P6SM BKN035
KMSY,KMSY 041120Z 0412/0518 16007KT 5SM BR BKN015 BKN020 FM041400 17011KT P6SM SCT020 BKN030 FM051000 15009KT P6SM BKN010 BKN025 FM051500 16014G24KT P6SM BKN020 BKN045
KMTC,TAF KMTC 041100Z 0411/0517 06009KT 8000 -RA OVC005 QNH2990INS BECMG 0417/0418 08015G25KT 9999 NSW OVC015 QNH2988INS BECMG 0500/0501 10010G20KT 8000 -RA OVC005 QNH2970INS BECMG 0514/0515 19010G20KT 8000 -SHRA OVC016 QNH2969INS TX16/0510Z TN05/0412Z
KMTH,KMTH 040919Z 0409/0506 12009G16KT P6SM SCT025 TEMPO 0409/0410 BKN022
KMTJ,KMTJ 041136Z 0412/0512 22010KT P6SM VCSH FEW070 BKN100 FM041300 24015G24KT P6SM VCSH BKN070 TEMPO 0413/0417 VRB15G25KT 3SM -SHSN BR BKN030 FM041700 26015KT P6SM VCSH BKN045 FM050400 17010KT P6SM BKN050 FM050900 15005KT P6SM BKN060
KMTN,KMTN 041120Z 0412/0512 00000KT P6SM SKC FM041500 15010G20KT P6SM FEW200 FM050000 17010KT P6SM FEW250 FM050900 15004KT P6SM BKN150
KMTW,KMTW 041131Z 0412/0512 04011G19KT P6SM OVC007 FM041800 06012G22KT 5SM -SHRA OVC010 FM042100 07013G22KT 4SM SHRA OVC006 FM050100 09014G24KT 3SM SHRA OVC003 FM050500 10010G18KT 2SM -SHRA OVC003 WS020/17035KT PROB30 0507/0511 3SM TSRA OVC005CB
KMUI,TAF KMUI 041100Z 0411/0517 18006KT 9999 SKC QNH2994INS BECMG 0416/0417 20010G15KT 9999 BKN035 QNH2993INS BECMG 0502/0503 16006KT 8000 BR OVC005 QNH3003INS BECMG 0515/0516 16015G25KT 9999 NSW OVC016 QNH3004INS TX23/0421Z TN06/0509Z
KMUO,TAF KMUO 041000Z 0410/0516 28015G25KT 9999 VCSH BKN100 510009 QNH2976INS TEMPO 0410/0415 28025G35KT 520009 BECMG 0414/0415 29020G30KT 9999 NSW FEW040 SCT050 520009 QNH2983INS TEMPO 0415/0422 29030G40KT 530009 BECMG 0502/0503 28012G20KT 9999 FEW060 SCT100 QNH2994INS BECMG 0511/0512 30009KT 9999 SCT080 BKN120 QNH3006INS TX06/0422Z TNM02/0413Z
KMVN,KMVN 041128Z 0412/0512 18009KT P6SM BKN018 FM041500 18013G20KT P6SM BKN025 FM041800 18016G26KT P6SM SCT045 FM050200 18013G22KT P6SM SCT050 BKN100 FM050900 18012G22KT 5SM SHRA BR VCTS SCT025CB BKN050
KMWH,KMWH 041137Z 0412/0512 VRB05KT P6SM FEW080 FEW150 FM041900 31006KT P6SM SCT070 FM050300 24005KT P6SM FEW090 FEW150
KMXF,TAF KMXF 041100Z 0411/0517 VRB06KT 9999 BKN015 QNH2993INS BECMG 0416/0417 VRB06KT 8000 BR BKN024 QNH2998INS BECMG 0417/0418 19012KT 9999 NSW FEW024 QNH2996INS BECMG 0504/0505 16006KT 9000 BR BKN003 OVC015 510033 QNH3002INS BECMG 0515/0516 17010G15KT 9999 NSW FEW045 510033 QNH3009INS BECMG 0516/0517 17015G20KT 9999 SCT040 510033 QNH3008INS TX29/0421Z TN18/0412Z
KMYL,KMYL 041138Z 0412/0512 34006KT P6SM VCSH SCT025 BKN045 FM041600 34010KT P6SM VCSH OVC040 FM050300 VRB06KT P6SM OVC035
KMYR,KMYR 041122Z 0412/0512 22006KT P6SM SCT007 BKN080 FM041500 22009KT P6SM BKN035 BKN250 FM041900 19010KT P6SM SCT250 FM050400 20004KT 3SM BR SCT003
KNBC,TAF KNBC 0409/0509 VRB06KT 9999 BKN015 OVC030 QNH2999INS BECMG 0413/0415 15007KT 9999 SCT050 SCT100 QNH3001INS FM050000 VRB06KT 9999 FEW200 QNH3003INS T17/0410Z T27/0420Z
KNBG,TAF KNBG 0407/0507 18008KT 6000 BR SCT015 OVC025 QNH2985INS TEMPO 0409/0415 1600 BR BKN004 OVC015 FM041500 16012G20KT 9999 FEW010 BKN040 BKN250 QNH2999INS FM050600 15015G20KT 9999 SCT010 OVC025 QNH2997INS AUTOMATED SENSOR METWATCH 0407 TIL 0411 TX30/0420Z TN10/411Z FN00172
KNCA,TAF KNCA 0409/0509 22009KT 9999 BKN040 OVC100 QNH3003INS TEMPO 0410/0412 8000 -RA BR OVC030 FM041500 20010KT 9999 SCT050 QNH3005INS TEMPO 0416/0418 4800 -TSRA BKN030CB BECMG 0500/0502 VRB06KT 9999 SKC QNH3008INS T17/0410Z T24/0418Z
KNEW,KNEW 041120Z 0412/0512 16009KT 6SM BR BKN015 BKN050 FM041300 16011KT P6SM SCT020 BKN050 FM050500 16015G23KT P6SM BKN020 BKN025 FM051000 15011KT P6SM BKN010 BKN045
KNFG,TAF KNFG 0409/0509 33010KT 9999 SKC QNH3002INS BECMG 0411/0413 34007KT 9999 SKC QNH3002INS FM041900 26010KT 9999 SKC QNH3007INS FM050130 VRB05KT 9999 SKC QNH3006INS T09/0413Z T16/0421Z
KNFL,TAF KNFL 0407/0507 25013KT 9999 FEW030 SCT050 BKN150 610308 550909 QNH2991INS TEMPO 0416/0420 32015G20KT BECMG 0502/0504 27009KT 9999 SCT050 600000 500000 QNH3001INS AUTOMATED SENSOR METWATCH 0407 TIL 0414 TX06/0500Z TNM05/0413Z FS30201
KNFW,TAF KNFW 0407/0507 18020G27KT 9999 SCT020 SCT120 QNH2953INS TEMPO 0412/0416 6000 BR BKN015 FM041600 19020G27KT 9999 SCT035 BKN120 OVC180 QNH2940INS FM050600 21015G20KT 9999 SCT020 BKN080 OVC150 QNH2942INS AUTOMATED SENSOR METWATCH 0407 TIL 0411 TX32/0323Z TN21/0413Z FN00172
KNGP,TAF AMD KNGP 0410/0507 16019G27KT 9999 BKN006 OVC012 510005 QNH2962INS FM041500 16019G27KT 9999 SCT008 BKN012 510005 QNH2964INS TEMPO 0415/0417 BKN008 BKN012 FM041700 16019G27KT 9999 FEW015 SCT030 BKN250 510005 QNH2960INS TEMPO 0419/0500 16022G30KT FM050200 16018G25KT 9999 SCT006 OVC012 510103 QNH2965INS TEMPO 0502/0507 16016G23KT OVC006 AUTOMATED SENSOR METWATCH 0410 TIL 0411 TX30/0420Z TN24/0411Z AMD 1045 FN20058
KNGU,TAF KNGU 0407/0507 18006KT 9999 FEW015 SCT035 OVC090 QNH2996INS TEMPO 0409/0415 SCT005 BKN012 FM041500 18008G13KT 9999 VCSH BKN018 OVC040 QNH2996INS TEMPO 0415/0421 6000 -RA BR BKN012 OVC025 FM042200 16009KT 9999 SCT020 BKN040 QNH2996INS TX24/0419Z TN14/0408Z FN00249
KNHK,TAF KNHK 0407/0507 19010KT 9999 FEW250 SCT280 QNH2995INS BECMG 0409/0410 19005KT 9999 FEW040 BKN080 QNH2999INS TEMPO 0414/0419 BKN030 OVC040 FM041800 16010KT 9999 SCT040 BKN250 QNH2999INS AUTOMATED SENSOR METWATCH 0407 TIL 0508 TX21/0419Z TN12/0408Z FN00249
KNID,TAF COR KNID 0404/0423 28014G24KT 9999 FEW070 520009 520909 QNH2990INS BECMG 0408/0410 28008G20KT 9999 SKC 510009 510909 QNH2994INS BECMG 0413/0415 VRB05KT 9999 SKC 500000 QNH2992INS LAST NO AMD AFT 0405 NEXT 0415 T01/0414Z T13/0423Z COR 0425
KNIP,TAF KNIP 0407/0507 VRB06KT 9999 SCT040 SCT100 BKN250 QNH2995INS FM041000 VRB06KT 8000 BR SCT010 BKN080 BKN200 QNH3000INS TEMPO 0410/0415 3200 BR BKN005 OVC050 FM041600 12007KT 9999 SCT040 SCT250 QNH2999INS FM042300 11010KT 9999 FEW080 SCT250 QNH3001INS FM050600 VRB06KT 8000 BR SCT020 BKN050 OVC200 QNH3003INS AUTOMATED SENSOR METWATCH 0407 TIL 0409 TX31/0420Z TN20/0411Z FN00172
KNJK,TAF KNJK 0407/0507 27020G30KT 9999 SKC 530009 QNH2988INS TEMPO 0407/0412 31015G25KT FM041200 27009KT 9999 SKC 500000 QNH2994INS FM041600 36009KT 9999 SKC QNH3000INS FM041900 VRB06KT 9999 SKC QNH2994INS AUTOMATED SENSOR METWATCH 0407 TIL 0413 TX19/0422Z TN09/0413Z FS30203
KNKT,TAF KNKT 0409/0509 22009KT 9999 BKN040 OVC100 QNH3003INS TEMPO 0410/0412 8000 -RA BR OVC030 FM041500 20010KT 9999 SCT050 QNH3005INS TEMPO 0416/0418 4800 -TSRA BKN030CB BECMG 0500/0502 VRB06KT 9999 SKC QNH3008INS T17/0410Z T24/0418Z
KNKX,TAF KNKX 0409/0509 36008KT 9999 SKC QNH3002INS BECMG 0411/0413 VRB05KT 9999 SKC QNH3006INS BECMG 0418/0420 30010KT 9999 SKC QNH3010INS FM050230 VRB05KT 9999 FEW030 QNH3012INS T03/0413Z T14/0421Z
KNLC,TAF COR KNLC 0407/0507 31009KT 9999 SCT060 521009 QNH3005INS TEMPO 0416/0422 34014G20KT BECMG 0500/0502 34007KT 9999 FEW060 500000 QNH3010INS AUTOMATED SENSOR METWATCH 0407 TIL 0414 TX16/0423Z TN02/0414Z COR 0732 FS30201
KNMM,TAF KNMM 0407/0507 VRB05KT 8000 BR SCT008 SCT015 BKN025 QNH2975INS TEMPO 0409/0415 3200 BR OVC006 FM041600 18013G18KT 9999 SCT040 SCT250 QNH2980INS FM050600 17015G20KT 6000 BR FEW010 BKN040 BKN200 QNH2978INS AUTOMATED SENSOR METWATCH 0407 TIL 0411 TX31/0421Z TN18/0411Z FN00172
KNPA,TAF AMD KNPA 0410/0507 18007KT 6000 BR BKN003 BKN250 QNH2989INS TEMPO 0410/0411 1600 BR FM041400 17010KT 9999 BKN004 BKN250 QNH2996INS FM041600 16014G22KT 9999 SCT007 BKN015 BKN250 QNH2997INS FM041800 16014G22KT 9999 FEW007 SCT030 BKN250 QNH2995INS FM042200 16010KT 9999 SCT015 BKN040 BKN250 QNH2995INS FM050500 16007KT 6000 BR BKN004 BKN250 QNH2997INS AUTOMATED SENSOR METWATCH 0410 TIL 0411 TX26/0420Z TN22/0412Z AMD 0951Z FN20033
KNQI,TAF KNQI 0407/0507 16015G20KT 9999 FEW008 SCT180 SCT250 510103 QNH2963INS TEMPO 0408/0414 8000 BR BKN008 OVC015 FM041400 17020G28KT 9999 SCT015 BKN250 510004 QNH2955INS TEMPO 0414/0417 BKN022 BKN200 FM042000 15018G26KT 9999 FEW040 BKN250 510004 QNH2950INS FM050200 15015KT 9999 FEW015 BKN150 OVC250 621609 510103 QNH2958INS FM050600 15012KT 9999 BKN008 OVC015 WS015/17040KT 621609 510103 QNH2967INS AUTOMATED SENSOR METWATCH 0407 TIL 0412 TX37/0420Z TN23/0412Z FN00172
KNQX,TAF KNQX 0407/0507 13013KT 9999 FEW020 SCT250 QNH2994INS FM041800 11015G20KT 9999 SCT250 QNH2995INS FM050000 10015G20KT 9999 SKC QNH2997INS AUTOMATED SENSOR METWATCH 0407 TIL 0410 TX29/0419Z TN24/0411Z FN00172
KNRB,TAF KNRB 0407/0507 VRB06KT 9999 SCT050 BKN120 BKN250 QNH2994INS FM040800 VRB06KT 6000 BR SCT020 BKN080 BKN200 QNH3000INS TEMPO 0409/0415 1600 BR BKN010 OVC060 FM041600 11010KT 9999 FEW080 SCT250 QNH3001INS FM050500 VRB06KT 8000 BR SCT020 BKN050 OVC200 QNH3003INS AUTOMATED SENSOR METWATCH 0407 TIL 0409 TX28/0419Z TN18/0410Z FN00172
KNSE,TAF KNSE 0407/0507 18008KT 4800 BR BKN008 OVC025 QNH2990INS TEMPO 0408/0414 0800 FG VV002 FM041500 16010KT 6000 BR SCT005 BKN020 BKN250 QNH2993INS FM041900 16010KT 9999 SCT015 SCT040 BKN250 QNH2994INS FM050100 15010KT 8000 BR BKN015 OVC040 QNH2991INS FM050600 15008KT 4800 BR BKN008 OVC025 QNH2987INS AUTOMATED SENSOR METWATCH 0407 TIL 0411 TX28/0418Z TN21/0409Z FN00172
KNTD,TAF KNTD 0407/0507 30015G25KT 9999 SKC 520009 QNH3003INS FM041300 VRB06KT 9999 SKC 500000 QNH3006INS FM041900 27012KT 9999 FEW040 QNH3003INS FM050500 VRB06KT 9999 SKC QNH3008INS AUTOMATED SENSOR METWATCH 0407 TIL 0413 TX14/0421Z TN06/0413Z FS30203
KNTU,TAF KNTU 0407/0507 18006KT 9999 FEW015 SCT035 OVC150 QNH2995INS FM041300 18008KT 9999 VCSH OVC025 QNH2990INS TEMPO 0416/0422 4800 RA BKN010 OVC025 FM042200 17009KT 9999 SCT020 BKN040 QNH2996INS TX24/0419Z TN14/0408Z FN00249
KNUC,TAF KNUC 0323/0423 30032G44KT 9999 FEW028 530005 QNH2997INS BECMG 0305/0307 32027G35KT 9999 FEW035 530005 QNH3008INS FM041200 32020KT 9999 FEW035 530005 QNH3008INS BECMG 0414/0416 32012KT 9999 SKC 500000 QNH3016INS LAST NO AMDS AFT 0401 NEXT 0415 TX12/0422Z TN03/0411Z FS30186
KNUW,TAF COR KNUW 0407/0507 26009KT 9999 VCSH SCT040 SCT060 QNH3001INS TEMPO 0407/0413 26015G20KT 6000 -RA BR BKN020 BKN050 FM041300 16007KT 9999 FEW040 QNH3006INS BECMG 0417/0419 VRB06KT 9999 FEW040 SCT200 QNH3011INS TX10/0500Z TN03/0415Z COR 0728 FS30201
KNXP,TAF KNXP 0409/0509 30025G35KT 4800 BLDU OVC015 560009 560905 521409 522309 523109 QNH3002INS FM041230 33015G25KT 8000 BLDU SKC 520009 520909 521809 522709 523604 QNH3006INS BECMG 0503/0505 30008KT 9999 NSW SKC 520009 520909 521809 522709 523604 QNH3012INS T03/0413Z T15/0421Z
KNYG,TAF KNYG 0409/0509 20010KT 9999 FEW150 QNH2994INS BECMG 0420/0422 17010KT 9999 FEW070 QNH3002INS FM050200 VRB06KT 9999 FEW120 QNH3004INS T27/0412Z T18/0508Z
KNYL,TAF KNYL 0409/0509 32015G25KT 8000 BLDU SKC 520009 520905 QNH2990INS BECMG 0410/0412 33006KT 9999 SKC 520009 520905 QNH2990INS FM041600 33010G20KT 9999 SKC 520009 520905 QNH2999INS FM042200 31008KT 9999 SKC 520009 520905 QNH2996INS FM050300 VRB06KT 9999 SKC 500000 QNH2989INS AUTOMATED SENSOR METWATCH 0409 TIL 0415 T08/0413Z T19/0422Z
KNZY,TAF AMD KNZY 0409/0507 32020G30KT 9999 SKC 520009 QNH2996INS TEMPO 0409/0412 32015G25KT FM041200 32011G18KT 9999 SKC 520108 QNH2998INS FM041400 36008KT 9999 SKC 500000 QNH3005INS FM041700 30011KT 9999 SKC QNH3006INS FM050300 VRB06KT 9999 FEW040 QNH3007INS TX16/0421Z TN08/0414Z AMD 0900 FS30203
KOAJ,KOAJ 041120Z 0412/0512 19004KT P6SM VCSH OVC060 FM041600 22007KT P6SM SCT035 BKN100 FM042200 VRB04KT P6SM SKC AMD LTD TO CLD VIS AND WIND
KOAK,KOAK 041120Z 0412/0518 33010KT P6SM SKC FM042100 29014G23KT P6SM SCT150 FM050500 27008KT P6SM SKC FM050800 VRB03KT P6SM SKC
KOFF,TAF KOFF 041000Z 0410/0516 08012G25KT 9999 BKN040 510002 QNH2954INS BECMG 0411/0412 08009KT 9999 BKN020 510002 QNH2950INS TEMPO 0412/0414 8000 -DZ BECMG 0413/0414 08009KT 9999 BKN015 510002 QNH2946INS TEMPO 0414/0416 8000 -DZ BECMG 0415/0416 VRB06KT 9999 SCT015 QNH2928INS BECMG 0423/0424 36009KT 9999 SCT015 QNH2922INS BECMG 0503/0504 32015G30KT 9999 BKN030 510002 QNH2937INS BECMG 0507/0508 32015G25KT 9999 BKN030 510002 QNH2948INS TX20/0420Z TN10/0510Z
KOFK,KOFK 041126Z 0412/0512 04014G20KT P6SM SCT030 OVC045 FM041600 04014KT P6SM OVC010 FM042000 36010KT P6SM OVC010 FM050000 32015G22KT P6SM OVC010
KOGB,KOGB 041133Z 0412/0512 VRB03KT P6SM SCT003 BKN020 TEMPO 0412/0413 5SM BR BKN007 FM041400 27005KT P6SM SCT015 BKN040 FM041700 25006KT P6SM SCT040 FM050000 VRB03KT P6SM SCT060 BKN200
KOGD,KOGD 041120Z 0412/0512 33006KT 1SM -SN BR SCT010 OVC015 FM041800 31008KT 3SM -SHSN BR SCT015 OVC030 FM050000 30006KT P6SM VCSH SCT040 BKN050
KOKC,KOKC 041120Z 0412/0512 18015KT P6SM OVC014 WS020/21045KT FM041500 20016G23KT P6SM BKN150 FM050400 23017G27KT P6SM BKN250 FM050600 29014G22KT P6SM SKC FM051000 34014G25KT P6SM SKC
KOLF,KOLF 040520Z 0406/0506 07012KT P6SM OVC025 FM041400 04014KT P6SM OVC015 FM050100 36010KT P6SM OVC010
KOLM,KOLM 041136Z 0412/0512 VRB03KT P6SM OVC025 FM041500 20004KT P6SM OVC015 FM041900 21005KT P6SM BKN030 FM042300 25005KT P6SM BKN050 FM050300 VRB04KT P6SM SCT050 SCT200 FM051100 23002KT P6SM OVC050
KOLS,KOLS 041134Z 0412/0512 30007KT P6SM SCT040 FM041500 29008KT P6SM SKC FM041900 30012G20KT P6SM SKC FM050200 30007KT P6SM SKC FM050500 08006KT P6SM SKC
KOMA,KOMA 041126Z 0412/0512 08010G18KT P6SM OVC030 FM041400 09012KT P6SM SCT005 BKN030 FM041700 12009KT P6SM SKC FM050200 33014G22KT P6SM OVC015
KONP,KONP 041124Z 0412/0512 25007KT 6SM -SHRA BKN025 OVC035 FM042100 22005KT P6SM VCSH SCT030 BKN050 FM050600 17005KT P6SM SCT020 OVC035
KONT,KONT 041123Z 0412/0518 VRB05KT P6SM FEW060 FM042200 27010G20KT P6SM FEW250 FM050400 VRB04KT P6SM SCT250 FM051500 04010KT P6SM SCT250
KOPF,KOPF 041120Z 0412/0512 12006KT P6SM FEW040 FM041500 12014KT P6SM SCT035 SCT200 FM050200 10009KT P6SM FEW035 FEW250
KORD,KORD 041120Z 0412/0518 07012G18KT 6SM -SHRA OVC006 FM041500 09012G18KT 3SM -DZ BR VCSH SCT003 OVC005 FM042200 12013G20KT 6SM BR BKN010 FM050100 17015G24KT P6SM BKN035 WS020/20055KT PROB30 0502/0505 3SM TSRA OVC025CB FM050500 19020G30KT P6SM SCT035 BKN070 PROB30 0515/0517 3SM TSRA OVC025CB
KORF,KORF 041123Z 0412/0512 00000KT P6SM VCSH SCT090 OVC110 FM041500 17009KT P6SM BKN035 FM041800 18011KT P6SM BKN050
KORH,KORH 041124Z 0412/0512 22004KT P6SM -SHRA FEW050 BKN090 OVC100 FM041900 10004KT P6SM SCT060 FM050000 07009KT P6SM BKN030 FM050200 07008KT P6SM OVC016 FM050400 07008KT P6SM BKN006
KOTH,KOTH 040531Z 0406/0506 32007KT P6SM VCSH SCT025 BKN035 FM040900 32008KT P6SM -SHRA SCT020 BKN030 FM041300 29009KT P6SM -SHRA SCT020 BKN040 FM042300 26007KT P6SM VCSH SCT020 BKN030
KOTM,KOTM 041136Z 0412/0512 08017G25KT P6SM BKN012 BKN019 OVC025 FM041400 10016G24KT P6SM VCSH OVC007 FM041600 13015KT P6SM BKN008 FM041800 15014KT P6SM SCT030 FM042300 18021G31KT P6SM VCTS SCT025CB BKN050 FM050200 19025G40KT P6SM SCT080 WS020/20050KT FM050800 23020G32KT 6SM -SHRA BKN060 WS020/21045KT
KOUN,KOUN 041120Z 0412/0512 17014KT P6SM OVC013 WS020/21045KT FM041500 20017G27KT P6SM BKN150 FM050600 28015G24KT P6SM SCT180 FM051100 34014G25KT P6SM SKC
KOWB,KOWB 041128Z 0412/0512 16009KT P6SM BKN015 TEMPO 0412/0415 SCT015 FM041500 17012G20KT P6SM BKN025 FM041800 18014G23KT P6SM BKN035 FM050100 19014G23KT P6SM SCT050 BKN120 FM051100 19014G22KT 5SM SHRA BR SCT025 BKN050
KOXR,KOXR 041120Z 0412/0512 29012KT P6SM SKC FM041900 27015G20KT P6SM SKC FM050100 27008KT P6SM SKC FM050400 VRB03KT P6SM SKC
KOZR,TAF KOZR 041000Z 0410/0516 18006KT 4800 BR BKN002 OVC012 QNH2992INS BECMG 0411/0412 18006KT 1600 BR OVC002 QNH2996INS BECMG 0413/0414 18006KT 9999 NSW FEW004 BKN008 BKN015 QNH2998INS BECMG 0414/0415 18008KT 9999 SCT020 BKN035 QNH3000INS BECMG 0418/0419 18010G15KT 9999 SCT020 BKN035 QNH2996INS BECMG 0500/0501 18010G15KT 9999 SCT012 BKN020 QNH3000INS BECMG 0504/0505 15004KT 9999 SCT004 BKN008 QNH3002INS BECMG 0508/0509 15004KT 1600 BR BKN004 OVC008 QNH3002INS BECMG 0514/0515 15008KT 9999 NSW SCT008 SCT035 QNH3006INS TX29/0422Z TN17/0511Z
KPAE,KPAE 041136Z 0412/0512 18004KT P6SM BKN025 FM041800 22005KT P6SM BKN030 FM042000 26006KT P6SM SCT040 SCT200 FM050300 18003KT P6SM BKN050
KPAH,KPAH 041128Z 0412/0512 18007KT P6SM SCT035 FM041500 18012G20KT P6SM SCT035 FM041800 18015G24KT P6SM BKN045 FM050200 19014G23KT P6SM SCT050 BKN120 FM050800 19015G24KT 5SM SHRA BR VCTS SCT025CB BKN050
KPAM,TAF KPAM 041100Z 0411/0517 19012KT 3200 BR BKN003 QNH2995INS TEMPO 0411/0413 17009KT 0800 FG VV001 BECMG 0414/0415 17012KT 9999 NSW SCT005 BKN015 QNH3003INS BECMG 0416/0417 18012G18KT 9999 SCT010 SCT200 QNH3000INS WND 15009KT AFT 0421 BECMG 0503/0504 15009KT 4800 BR BKN030 QNH3003INS TEMPO 0507/0511 12006KT 1600 BR SCT010 BECMG 0514/0515 16012G18KT 9999 NSW FEW010 SCT030 QNH3010INS TX26/0418Z TN20/0506Z
KPBF,KPBF 040528Z 0406/0506 18008G16KT P6SM BKN250 FM041000 18008G15KT P6SM BKN025 BKN050 FM041800 18014G25KT P6SM BKN050 OVC100 FM050100 17008G16KT P6SM OVC040
KPBG,KPBG 040538Z 0406/0506 VRB03KT P6SM BKN200 FM041700 03007KT P6SM BKN040
KPBI,KPBI 041120Z 0412/0512 12006KT P6SM FEW040 FM041500 12012KT P6SM SCT035 SCT200 FM050200 10009KT P6SM FEW035 FEW250
KPDK,KPDK 041120Z 0412/0512 10003KT 5SM BR OVC003 TEMPO 0412/0414 1SM BR FM041600 14005KT 5SM BR BKN005 OVC012 FM041800 16006KT P6SM SCT015 BKN020 FM042000 17007KT P6SM SCT035 BKN120 FM051000 16005KT P6SM BKN025
KPDT,KPDT 041128Z 0412/0512 25015KT P6SM BKN060 FM041700 27010KT P6SM BKN060 FM050200 24007KT P6SM SKC FM050600 14004KT P6SM SKC
KPDX,KPDX 041124Z 0412/0512 16005KT P6SM -SHRA SCT025 OVC040 FM041400 19004KT P6SM -SHRA SCT015 BKN025 OVC035 FM042000 27005KT P6SM -SHRA SCT025 BKN040 FM050600 14004KT P6SM BKN035
KPEQ,KPEQ 041122Z 0411/0512 25009KT P6SM SKC FM041700 25029G43KT 4SM BLDU SKC FM050100 28018G25KT P6SM SKC
KPGA,KPGA 041120Z 0412/0512 27015G22KT P6SM FEW060 SCT120 FM041800 29011G20KT P6SM BKN100 FM050200 30008KT P6SM SKC FM050500 VRB04KT P6SM SKC
KPGD,KPGD 041040Z 0411/0506 VRB03KT 6SM MIFG SCT004 FM041400 16006KT P6SM SCT010 FM041700 22010KT P6SM SCT035 SCT200 FM050100 VRB03KT P6SM FEW040 SCT220
KPGV,KPGV 041120Z 0412/0512 22003KT P6SM VCSH SCT006 BKN040 FM041500 20005KT P6SM SCT035 BKN100 FM042200 VRB04KT P6SM SKC AMD LTD TO CLD VIS AND WIND
KPHF,KPHF 041123Z 0412/0512 00000KT P6SM VCSH SCT025 OVC090 TEMPO 0412/0415 BKN025 FM041500 17008KT P6SM BKN045 FM041900 16010KT P6SM BKN070
KPHL,KPHL 041120Z 0412/0518 VRB04KT P6SM SKC FM041500 21010KT P6SM SCT040 FM050000 17006KT P6SM FEW070 FM050800 10004KT 6SM BR BKN010 FM051500 13006KT P6SM SCT020
KPHX,KPHX 041127Z 0412/0518 26010G17KT P6SM SKC FM041600 28015G27KT P6SM SKC FM050200 28007KT P6SM SKC FM050700 09005KT P6SM FEW250
KPIA,KPIA 040800Z 0408/0506 07013KT P6SM VCTS SCT020CB BKN070 FM040900 07012G20KT P6SM VCTS OVC014CB FM041200 08011KT 6SM BR OVC006 FM041600 12010KT 6SM BR VCTS OVC006CB FM041800 15015G25KT P6SM BKN015 FM042000 16017G28KT P6SM SCT035 FM050100 18020G30KT P6SM BKN028
KPIB,KPIB 041122Z 0412/0512 15007KT P6SM BKN050 TEMPO 0412/0414 BKN015 FM041400 17006KT P6SM BKN015 FM041500 17009KT P6SM BKN050 FM041600 17014G23KT P6SM SCT250 FM050500 16010KT P6SM OVC015 FM050900 16007KT 6SM BR OVC007
KPIE,KPIE 040533Z 0406/0506 VRB03KT P6SM FEW050 FEW250 FM040800 VRB02KT 3SM BR SCT006 SCT220 FM041400 13007KT P6SM FEW020 FM041800 26012KT P6SM FEW040 FM050000 VRB03KT P6SM FEW050 FEW250
KPIH,KPIH 041120Z 0412/0512 26015KT 3SM -SN BLSN BR SCT005 OVC010 TEMPO 0412/0416 1/2SM SN BLSN FZFG BKN005 OVC010 FM041600 01016G26KT 6SM -SHSN BLSN BR BKN010 OVC020 FM042000 36014G24KT P6SM VCSH BKN020 BKN035 FM050400 27010KT P6SM VCSH SCT020 BKN045 FM050800 24009KT P6SM BKN015 OVC030
KPIR,KPIR 041120Z 0412/0512 04018KT 3/4SM -SN BR VV008 FM041800 02017G26KT 1/2SM SN BLSN OVC007 FM042300 36022G33KT 1/2SM SN BLSN OVC008 FM050200 34023G35KT 2SM -SN BLSN OVC009 FM050600 33026G40KT 6SM BLSN OVC011 FM051100 31029G44KT 3SM BLSN BKN013
KPIT,KPIT 041120Z 0412/0518 20004KT P6SM SCT040 FM041230 22008KT P6SM BKN025 FM041800 21008KT P6SM BKN035 FM042200 17005KT P6SM FEW060 BKN250 FM051500 18010KT P6SM BKN070
KPKB,KPKB 041131Z 0412/0512 16004KT P6SM BKN035 TEMPO 0412/0413 BKN025 FM041300 16004KT P6SM BKN025 FM041500 20007KT P6SM BKN035 FM041900 20007KT P6SM SCT045 FM050000 15003KT P6SM FEW250 FM050900 18009KT P6SM SCT160 WS020/20040KT
KPLN,KPLN 041132Z 0412/0512 06009G16KT P6SM BKN008 FM041400 08012G22KT P6SM OVC010 FM042100 09017G31KT 6SM -SHSN OVC030 FM050000 09019G35KT 3SM -FZRAPL BR OVC016 FM050200 09021G39KT 3SM -FZRA BR VCTS OVC009CB FM050600 10019G32KT 4SM -FZRA OVC006 WS020/11050KT
KPMD,KPMD 041120Z 0412/0512 32010KT P6SM SCT060 FM050300 27010KT P6SM SKC
KPNA,KPNA 040536Z 0406/0506 04010KT P6SM OVC050 FM041800 30008KT P6SM VCSH SCT020 OVC035 FM050400 30006KT P6SM VCSH SCT020 BKN030
KPNC,KPNC 041120Z 0412/0512 19014KT P6SM BKN250 WS020/21040KT TEMPO 0412/0415 BKN025 FM041500 20021G32KT P6SM BKN200 FM050400 24017G27KT P6SM SCT250 FM050600 31015G21KT P6SM SKC
KPNE,KPNE 041120Z 0412/0512 19006KT P6SM SKC FM041500 22010KT P6SM SCT050 FM050000 15005KT P6SM FEW060 FM050800 10004KT 6SM BR BKN010
KPNS,KPNS 041131Z 0412/0512 20006KT P6SM OVC004 FM041400 17007KT 6SM BR OVC003 FM041800 16014G20KT P6SM BKN015 FM050100 15009KT P6SM SCT018 FM050400 15009KT P6SM BKN022 FM050900 15006KT 2SM BR OVC004
KPOB,TAF KPOB 040100Z 0401/0507 14005KT 9999 VCSH SCT050 OVC090 QNH3001INS BECMG 0406/0407 16005KT 8000 BR VCSH BKN025 OVC050 QNH3001INS BECMG 0409/0410 22006KT 8000 BR VCSH BKN005 OVC012 QNH3002INS BECMG 0414/0415 22009KT 9999 NSW SCT012 BKN020 BKN035 QNH3005INS BECMG 0417/0418 22010G15KT 9999 SCT045 QNH3001INS BECMG 0421/0422 18005KT 9999 FEW045 QNH3002INS BECMG 0506/0507 17003KT 8000 BR FEW003 FEW025 SCT250 QNH3012INS TX27/0420Z TN14/0411Z LAST NO AMDS AFT 0402 NEXT 0417
KPOE,TAF KPOE 032300Z 0323/0505 19012KT 9999 SCT045 QNH2974INS BECMG 0400/0401 18009KT 9999 SCT045 QNH2976INS BECMG 0405/0406 18009KT 9999 BKN010 OVC015 QNH2980INS BECMG 0406/0407 18009KT 4800 BR OVC005 QNH2975INS BECMG 0413/0414 18009KT 9999 NSW BKN007 OVC015 QNH2979INS BECMG 0414/0415 18012G20KT 9999 BKN015 BKN025 QNH2980INS BECMG 0416/0417 18015G25KT 9999 SCT030 BKN040 520009 QNH2972INS TEMPO 0418/0421 18020G30KT BECMG 0421/0422 18012G20KT 9999 BKN020 OVC030 QNH2968INS TEMPO 0422/0505 8000 -SHRA BKN015 TX31/0421Z TN21/0412Z LAST NO AMDS AFT 0405 NEXT 0415
KPOU,KPOU 041120Z 0412/0512 VRB04KT P6SM SCT120 FM041600 20006KT P6SM FEW060 SCT120 FM050100 34005KT P6SM BKN060 FM050600 08005KT 5SM BR VCSH SCT018 BKN025
KPQI,KPQI 041120Z 0412/0512 26005KT P6SM BKN030 FM041600 28007KT P6SM OVC029 FM041800 29007G17KT P6SM VCSH OVC035 FM042200 33009G18KT P6SM VCSH BKN045 FM050200 32012KT P6SM FEW130
KPRB,KPRB 041120Z 0412/0512 31008KT P6SM SKC FM042100 31012KT P6SM SKC FM050600 31006KT P6SM SKC
KPRC,KPRC 041120Z 0412/0512 25016G26KT P6SM SCT060 BKN090 FM041800 28020G30KT P6SM SCT090 FM050200 30012G22KT P6SM SKC FM050500 25006KT P6SM SKC
KPSC,KPSC 041128Z 0412/0512 00000KT P6SM OVC080 FM041700 20006KT P6SM SCT090
KPSF,KPSF 041120Z 0412/0512 VRB03KT P6SM SCT120 FM041800 20005KT P6SM SCT100 FM042300 05007KT P6SM BKN060 FM050600 09007KT 4SM -SHRA BR SCT015 OVC022
KPSM,KPSM 041120Z 0412/0512 VRB04KT P6SM -RA SCT050 OVC070 FM041700 13008KT P6SM SCT030 OVC080 FM050400 03005KT P6SM SCT015 OVC040
KPSP,KPSP 041123Z 0412/0512 32012G20KT P6SM SKC FM041300 32011KT P6SM SKC FM042200 32015G25KT P6SM FEW250 FM050300 32012G20KT P6SM SCT250 FM050600 33006KT P6SM SCT250
KPTK,KPTK 041120Z 0412/0512 06006KT 2SM -RA BR OVC006 FM041600 07010KT P6SM OVC014 FM042300 09015G25KT 6SM BR OVC007 FM050400 12010G22KT 4SM -SHRA BR OVC006 FM050800 14009KT 2SM -SHRA BR OVC005
KPUB,KPUB 040521Z 0406/0506 20030G40KT P6SM BKN120 FM040800 20020G32KT P6SM SCT200 FM041500 26020G35KT P6SM SCT110 FM041700 27025G40KT P6SM SCT110 FM042100 29032G50KT 5SM BLDU SCT020 OVC100 FM042300 31032G50KT 5SM BLDU SCT020 OVC080 FM050200 01030G42KT P6SM BKN050 FM050400 01022G34KT P6SM BKN050
KPUW,KPUW 041137Z 0412/0512 30004KT P6SM BKN050 OVC070 TEMPO 0412/0416 BKN015 FM041900 27009KT P6SM BKN040 TEMPO 0421/0501 6SM -SHRASN BKN030 FM050300 25005KT P6SM BKN070 FM050900 09003KT P6SM SCT070
KPVD,KPVD 041124Z 0412/0512 00000KT P6SM FEW170 FEW250 FM041600 12003KT P6SM SCT006 FM042000 14005KT P6SM BKN060 FM050000 08006KT 5SM BR BKN015 FM050500 05006KT 4SM BR OVC005
KPVU,KPVU 041120Z 0412/0512 30015G25KT 1SM -SN BR SCT005 OVC010 FM041800 30010KT 3SM -SHSN BR SCT015 BKN030 FM050100 VRB04KT 5SM -SHSN BR SCT030 BKN040 FM050500 VRB04KT P6SM VCSH SCT040 BKN060
KPVW,KPVW 041125Z 0412/0512 22015KT P6SM BKN200 WS008/24045KT FM041500 24030G40KT P6SM BKN200 FM041900 25035G50KT 1SM BLDU BKN200 FM042300 26025G35KT 2SM BLDU SKC FM050200 29020G30KT 5SM BLDU SKC
KPWM,KPWM 041120Z 0412/0512 VRB03KT P6SM OVC060 FM041600 22004KT 6SM -RA SCT030 OVC050 FM041900 VRB03KT P6SM OVC060 FM050500 03010KT P6SM SCT025 OVC050
KPWT,KPWT 041136Z 0412/0512 VRB03KT 6SM BR BKN010 OVC025 TEMPO 0412/0416 BKN005 FM041800 18004KT P6SM BKN022 FM042100 20005KT P6SM BKN035 FM050200 19005KT P6SM SCT040 SCT200 FM050600 18002KT P6SM BKN050
KRAP,KRAP 041120Z 0412/0512 03012G22KT 1SM -SN OVC009 FM041600 35024G34KT 1SM -SN BLSN OVC010 FM050000 34022G32KT 4SM -SN BLSN SCT012 BKN025
KRBG,KRBG 040531Z 0406/0506 VRB02KT P6SM VCSH FEW015 SCT030 BKN060 FM040900 00000KT P6SM VCSH BKN025 OVC035 FM041200 VRB01KT 6SM -SHRASN SCT015 OVC025 FM042200 30003KT P6SM VCSH SCT025 BKN045
KRBL,KRBL 041120Z 0412/0512 VRB06KT P6SM SKC FM041700 35011KT P6SM SKC FM050300 31006KT P6SM SCT100 SCT250
KRCA,TAF AMD KRCA 040005Z 0400/0501 08008KT 0800 -SN OVC012 650128 QNH2977INS BECMG 0400/0401 06015G25KT 0800 SN OVC005 650059 520055 QNH2960INS BECMG 0402/0403 05025G35KT 0400 SN VV001 650019 520005 QNH2962INS BECMG 0421/0422 02025G40KT 0200 +SN VV001 650019 520005 QNH2964INS TXM01/0400Z TNM08/0415Z LAST NO AMDS AFT 0400 NEXT 0611
KRDD,KRDD 041120Z 0412/0512 32007KT P6SM SKC FM050300 VRB06KT P6SM SCT100 SCT250
KRDG,KRDG 041120Z 0412/0512 VRB04KT P6SM FEW100 FM041600 21005KT P6SM SCT050 BKN200 FM042300 VRB05KT P6SM BKN060 FM050800 08005KT P6SM BKN020
KRDM,KRDM 041128Z 0412/0512 27008KT P6SM BKN090 FM041900 33010G20KT P6SM BKN060 FM050300 VRB05KT P6SM SCT080
KRDR,TAF AMD KRDR 041125Z 0411/0516 01009KT 9999 OVC010 620107 QNH2997INS TEMPO 0411/0415 4800 -SHSN BECMG 0415/0416 04010G20KT 1600 -SN OVC010 620109 510003 QNH2988INS BECMG 0421/0422 05015G25KT 0800 SN OVC010 620109 510003 QNH2978INS BECMG 0506/0507 02020G30KT 0400 +SN BKN013 OVC020 620139 520003 QNH2959INS TXM03/0416Z TNM07/0411Z
KRDU,KRDU 041120Z 0412/0512 21004KT P6SM BKN020 BKN030 BKN040 TEMPO 0412/0414 SCT015 SCT020 SCT030 FM041600 23006KT P6SM SCT030 SCT040 SCT050 FM050000 20004KT P6SM SCT250
KRFD,KRFD 041120Z 0412/0512 07012G18KT 6SM BR OVC007 FM041500 09015G24KT 3SM -DZ BR SCT003 OVC006 TEMPO 0416/0419 4SM TSRA OVC006CB FM042300 11014G21KT 6SM BR BKN010 PROB30 0423/0503 3SM TSRA OVC010CB FM050300 17015G24KT P6SM BKN025 WS020/20055KT FM050500 19020G30KT P6SM SCT035 BKN070
KRHI,KRHI 041131Z 0412/0512 07010G18KT P6SM OVC009 FM041900 07012G20KT 3SM -SNPL OVC006 FM050000 10015G25KT 4SM FZRA OVC004 WS020/13045KT FM050800 11012G20KT 3SM -SHRA OVC003 WS020/18035KT
KRIC,KRIC 041123Z 0412/0512 17003KT P6SM SCT015 OVC050 TEMPO 0412/0414 BKN015 FM041500 21008KT P6SM SCT050 FM042000 18007KT P6SM SCT060
KRIL,KRIL 041136Z 0412/0512 30005KT P6SM VCSH FEW020 SCT060 BKN120 TEMPO 0413/0417 VRB10G20KT 2SM -SHSN BR BKN015 FM041700 27016G25KT P6SM VCSH BKN040 FM050200 27008KT P6SM VCSH BKN040 FM050600 VRB04KT P6SM FEW008 BKN050
KRIV,TAF KRIV 040404Z 0404/0510 30010KT 9999 FEW050 520609 QNH2994INS BECMG 0406/0407 VRB05KT 9999 SKC 520609 QNH2998INS BECMG 0416/0417 34009KT 9999 SKC 520009 520906 QNH3004INS WND 300V020 TEMPO 0417/0502 33012G20KT BECMG 0502/0503 32006KT 9999 SKC QNH3007INS BECMG 0505/0506 16004KT 9999 SKC QNH3008INS TX15/0421Z TN00/0413Z
KRIW,KRIW 040536Z 0406/0506 04013G22KT 1SM -SN BLSN SCT008 OVC014 TEMPO 0408/0412 04020G32KT 1/2SM -SN BLSN OVC010 FM041700 01014G23KT 2SM -SN SCT012 OVC020 FM042000 01015G25KT P6SM VCSH SCT020 BKN030 FM050000 34007KT P6SM SCT025 BKN040
KRKD,KRKD 041120Z 0412/0512 26007KT P6SM OVC080 FM041600 22010KT P6SM OVC050 FM042300 35011KT P6SM SCT050 BKN100 FM050700 03012G20KT P6SM OVC050
KRKS,KRKS 040638Z 0407/0506 03025G35KT 1 1/2SM -SN BLSN SCT012 OVC025 FM040800 03025G35KT 3/4SM -SN BLSN VV007 FM041400 05018G28KT 1 1/2SM -SN BLSN SCT010 OVC015 FM042100 06014KT 4SM -SN SCT015 OVC030 FM050200 07011KT P6SM VCSH SCT020 BKN035
KRME,KRME 041120Z 0412/0512 10004KT 6SM -SHRA BR OVC035 TEMPO 0412/0415 4SM -SHRA BR OVC025 FM041500 08004KT P6SM OVC035 FM042000 03006KT P6SM BKN035 FM051000 11013G20KT P6SM BKN025
KRND,TAF KRND 041000Z 0410/0516 16010KT 9999 BKN010 OVC250 QNH2960INS BECMG 0413/0414 17010KT 9999 BKN015 BKN250 QNH2960INS BECMG 0414/0415 17012G20KT 9999 SCT030 BKN250 510005 QNH2953INS BECMG 0505/0506 15010KT 9999 VCSH SCT025 BKN150 OVC250 510005 QNH2970INS BECMG 0508/0509 15010G20KT 8000 -SHRA VCTS FEW010 BKN025CB OVC100 QNH2975INS BECMG 0512/0513 35015G25KT 9999 NSW FEW130 BKN180 OVC250 QNH2987INS TX33/0421Z TN20/0510Z
KRNH,KRNH 040520Z 0406/0506 35005KT P6SM FEW022 BKN140 FM040800 05007KT P6SM SCT022 BKN120 FM041300 06013G21KT P6SM OVC008 TEMPO 0417/0420 5SM -RA FM042000 08024G30KT 3SM -DZ BR BKN007
KRNO,KRNO 041120Z 0412/0512 35006KT P6SM SCT050 BKN070 FM042100 35012G16KT P6SM BKN050 FM050200 33009KT P6SM SCT040 FM050600 27006KT P6SM FEW040
KROA,KROA 041120Z 0412/0512 20003KT P6SM FEW050 FM041800 18006KT P6SM SCT050 FM042200 16007KT P6SM FEW090 FM050400 16003KT P6SM FEW120
KROC,KROC 041120Z 0412/0512 12006KT 6SM -RA BR BKN050 TEMPO 0412/0414 4SM -RA BR BKN025 FM041400 08005KT P6SM VCSH BKN015 FM041800 04010G18KT P6SM OVC007 FM042200 05012KT P6SM OVC035 FM050900 09010KT P6SM OVC035
KROG,KROG 041120Z 0412/0512 18014KT P6SM SCT035 WS020/18040KT FM041500 19018G27KT P6SM BKN035 FM041800 18020G30KT P6SM SCT035 BKN050 FM050100 19015G25KT P6SM SCT040 BKN250 TEMPO 0508/0512 3SM TSRA BKN025CB
KROW,KROW 040537Z 0406/0506 20015G22KT P6SM SCT150 FM040900 19020G30KT P6SM SKC WS020/24055KT FM041300 21022G32KT P6SM SKC WS015/24055KT FM041500 22028G40KT P6SM SCT080 FM041800 23035G50KT P6SM FEW080 TEMPO 0419/0423 5SM BLDU SCT020
KRSL,KRSL 041134Z 0412/0512 02009KT P6SM SCT200 FM041600 30014KT P6SM SCT250 FM042000 23025G35KT 6SM BLDU SKC FM042200 23031G43KT 6SM BLDU SKC FM050100 34023G36KT P6SM FEW250
KRST,KRST 041120Z 0412/0512 01007KT P6SM BKN100 FM041300 07011G19KT P6SM BKN020 FM041500 08015G24KT 5SM -SHRA OVC009 FM041800 08017G28KT 4SM BR OVC007 FM050100 09021G33KT P6SM VCTS SCT007 BKN020CB FM050600 16017KT P6SM BKN009
KRSW,KRSW 040533Z 0406/0506 VRB03KT P6SM FEW250 FM040800 VRB03KT 6SM MIFG SCT008 FM041400 15007KT P6SM FEW250 FM041700 21010KT P6SM SCT200 FM050100 09003KT P6SM FEW035 SCT220
KRUT,KRUT 040538Z 0406/0506 13007KT P6SM VCSH OVC070 FM041000 00000KT P6SM VCSH OVC060 FM041300 VRB03KT P6SM -RA OVC020 FM041900 00000KT P6SM VCSH OVC040
KRVS,KRVS 041120Z 0412/0512 18010KT P6SM SCT025 WS020/19050KT TEMPO 0412/0415 BKN025 FM041500 19016G27KT P6SM BKN035 FM041800 19020G32KT P6SM SCT040 BKN150 FM050100 19013G23KT P6SM SCT250 PROB30 0505/0507 4SM TSRA BKN025CB FM050700 25014G24KT P6SM BKN250
KRWF,KRWF 040520Z 0406/0506 36007KT P6SM SCT018 OVC080 FM041200 06010KT P6SM OVC015 FM041600 05015G23KT 3SM -RAPL BR OVC008 FM050000 07005KT 2SM -DZ BR OVC007
KRWI,KRWI 041120Z 0412/0512 20004KT 6SM BR VCSH SCT007 BKN015 BKN040 TEMPO 0412/0414 SCT015 SCT020 SCT035 FM041400 23006KT P6SM SCT007 BKN020 FM041600 23006KT P6SM SCT035 BKN040 BKN050 FM050000 18004KT P6SM SCT250
KRWL,KRWL 041120Z 0412/0512 06022G32KT 1/4SM SN FZFG VV007 FM041800 03020G30KT 4SM -SN OVC025 FM050200 32012KT P6SM OVC030 FM050600 27008KT 3SM BR OVC020
KRYY,KRYY 041120Z 0412/0512 VRB03KT 5SM BR OVC003 TEMPO 0412/0414 1SM BR FM041500 14006KT 5SM BR BKN005 OVC012 FM041800 16007KT P6SM SCT015 BKN020 FM042000 17008KT P6SM SCT035 BKN120 FM051000 16005KT P6SM BKN025
KSAC,KSAC 041120Z 0412/0512 31008KT P6SM SKC FM041700 34011KT P6SM FEW250 FM050300 VRB05KT P6SM FEW100 FEW250
KSAF,KSAF 040903Z 0409/0506 21018G30KT P6SM SKC WS020/23045KT TEMPO 0410/0412 24020G35KT FM041500 25028G38KT P6SM SCT040 SCT070 FM041800 27035G45KT P6SM SCT060 FM050100 30015G25KT P6SM FEW050
KSAN,KSAN 041123Z 0412/0518 33012G22KT P6SM SCT035 FM042100 29012G20KT P6SM FEW250 FM050300 VRB05KT P6SM FEW025 SCT250
KSAT,KSAT 040616Z 0406/0512 14011KT P6SM BKN012 BKN250 FM041500 16014KT P6SM FEW035 BKN250 FM050500 14008KT P6SM BKN012 FM050700 15008KT P6SM VCSH OVC020
KSAV,KSAV 041120Z 0412/0512 00000KT P6SM BKN015 OVC035 TEMPO 0412/0413 SCT004 BKN007 OVC020 FM041330 VRB03KT P6SM SCT007 BKN014 FM041500 28005KT P6SM BKN150 FM042000 15008KT P6SM SCT200 FM051000 14003KT 3SM BR FEW200
KSAW,KSAW 041126Z 0412/0512 05010G21KT P6SM OVC007 FM042200 07010G26KT 1SM -SNPL BR BKN005 FM050200 08013G28KT 3SM FZRA BR OVC005 FM051000 10011G29KT 2SM FZRA BR OVC003 WS020/13040KT
KSBA,KSBA 041120Z 0412/0512 29010KT P6SM SKC FM041800 26015G22KT P6SM SKC FM050000 34012KT P6SM SKC FM050600 34006KT P6SM SKC FM051000 VRB03KT P6SM SKC
KSBD,KSBD 041123Z 0412/0512 34010G18KT P6SM SKC FM050100 31008KT P6SM FEW250 FM050300 VRB05KT P6SM SCT250 FM050800 01010KT P6SM SCT250
KSBM,KSBM 041120Z 0412/0512 04011KT P6SM OVC006 FM041800 07015G25KT 3SM SHRA BR OVC005 FM050200 10017G29KT 2SM SHRA BR VCTS OVC003CB WS003/11040KT FM050600 12010G19KT 2SM SHRA BR OVC003 WS006/17040KT FM050900 17009KT 3/4SM BR BKN006 WS014/20045KT
KSBN,KSBN 041121Z 0412/0512 08011G19KT P6SM OVC012 FM041800 12013KT P6SM OVC010 FM050100 14017G25KT 5SM -SHRA BKN015 WS020/18045KT FM050400 16019G29KT 5SM -SHRA VCTS OVC015CB WS020/19045KT FM050700 19019G29KT P6SM BKN045 WS020/20045KT
KSBP,KSBP 041120Z 0412/0512 VRB03KT P6SM SKC FM041600 32008KT P6SM SKC FM042200 32018G28KT P6SM SKC FM050300 32008KT P6SM SKC FM050600 VRB03KT P6SM SKC
KSBY,KSBY 041123Z 0412/0512 17004KT P6SM SCT050 FM041700 20011G18KT P6SM BKN050 FM042000 18009KT P6SM SCT070
KSCK,KSCK 041120Z 0412/0512 29012KT P6SM SKC FM041800 33011G17KT P6SM SKC FM050300 28007KT P6SM FEW250
KSDF,KSDF 041120Z 0412/0518 18007KT P6SM OVC012 TEMPO 0412/0415 SCT008 OVC012 FM041600 18013G20KT P6SM SCT017 BKN027 FM041800 19016G26KT P6SM SCT050 BKN250 FM050100 18014G22KT P6SM OVC150 PROB30 0515/0518 2SM TSRA OVC050CB
KSDL,KSDL 041127Z 0412/0512 27012KT P6SM SKC FM041600 28014G26KT P6SM SKC FM050000 26010KT P6SM SKC FM050300 VRB04KT P6SM FEW250
KSDY,KSDY 040520Z 0406/0506 05010KT P6SM OVC012 FM041600 01015G25KT P6SM OVC009 FM042100 02016G27KT P6SM OVC010 PROB30 0421/0503 3SM -SN BR OVC008 FM050500 36015G24KT P6SM OVC009 PROB30 0505/0506 5SM -SN BR OVC006
KSEA,KSEA 041136Z 0412/0518 18007KT P6SM BKN020 FM041900 20005KT P6SM BKN035 FM042200 23006KT P6SM BKN050 FM050300 22004KT P6SM SCT050 SCT200 FM051100 17005KT P6SM BKN070 BKN120
KSEZ,KSEZ 041120Z 0412/0512 27013G22KT P6SM SCT050 BKN080 FM041800 24016G26KT P6SM SCT100 FM050100 28015KT P6SM SKC FM050500 03008KT P6SM SKC
KSFB,KSFB 041120Z 0412/0512 VRB04KT P6SM FEW060 FEW250 FM041500 15007KT P6SM FEW035 FEW250 FM042000 11010KT P6SM SCT040 SCT250 FM050400 14004KT P6SM FEW060 SCT250
KSFF,KSFF 041137Z 0412/0512 22004KT P6SM OVC010 FM041600 24004KT P6SM SCT015 FM041900 21005KT P6SM VCSH BKN040 BKN070 TEMPO 0421/0501 6SM -SHRASN BKN030 FM050300 VRB02KT P6SM SCT060 FM050700 00000KT P6SM FEW100
KSFO,KSFO 041120Z 0412/0518 30011KT P6SM FEW200 FM042100 29018G28KT P6SM FEW070 SCT200 FM050600 28011KT P6SM SCT200 FM051100 VRB05KT P6SM SCT200
KSGF,KSGF 041120Z 0412/0512 17017G25KT P6SM FEW250 FM050000 18020G35KT P6SM OVC090 WS020/17045KT PROB30 0500/0505 4SM TSRA BR OVC025CB FM050600 21019G32KT 6SM -SHRA BR VCTS BKN090CB WS020/17045KT FM051000 26015G23KT P6SM BKN080
KSGJ,KSGJ 041120Z 0412/0512 00000KT P6SM FEW015 SCT250 FM041400 09006KT P6SM FEW025 SCT250 FM041800 11011KT P6SM FEW050 SCT250 FM050100 14009KT P6SM SCT250 FM050700 13004KT P6SM SCT250 TEMPO 0509/0512 5SM BR
KSGR,KSGR 041120Z 0412/0512 16010KT P6SM FEW008 OVC012 FM041500 17015G25KT P6SM BKN025 FM041800 17016G28KT P6SM BKN040 FM042300 16012G20KT P6SM BKN015 FM050600 16012G20KT P6SM SCT008 OVC015
KSGU,KSGU 041120Z 0412/0512 28017G25KT P6SM SCT040 BKN050 FM041700 30013G24KT P6SM SCT070 SCT100 FM050100 VRB04KT P6SM SKC
KSHR,KSHR 041126Z 0412/0512 02008KT 1 1/2SM -SN BR BKN005 OVC020 FM041500 35018KT 1SM -SN BLSN OVC005 FM042200 32018KT 3SM -SN BLSN OVC015 FM050500 31013KT P6SM BKN030
KSHV,KSHV 041120Z 0412/0512 17012KT P6SM OVC015 FM041400 17011G17KT P6SM OVC019 FM041800 18017G24KT P6SM OVC050 FM050000 17019G25KT P6SM OVC150 FM050200 17021G27KT P6SM OVC050 FM050400 18020G25KT P6SM OVC025 FM050800 18019G24KT P6SM OVC050
KSJC,KSJC 041120Z 0412/0512 32006KT P6SM SKC FM041900 33011G20KT P6SM SCT080 FM050700 34007KT P6SM SCT250 FM051000 VRB03KT P6SM SCT250
KSJS,KSJS 040709Z 0407/0506 18006KT P6SM SKC FM040800 18005KT P6SM SCT035 TEMPO 0408/0410 BKN030 FM041000 17004KT P6SM VCSH BKN025 BKN060 FM041800 20007KT P6SM SCT250
KSJT,KSJT 041120Z 0412/0512 19012KT P6SM BKN250 FM041600 22020G28KT P6SM SKC FM050100 24012KT P6SM SCT250 FM050500 30014G21KT P6SM SCT250
KSKA,TAF KSKA 040300Z 0403/0509 VRB06KT 9999 BKN040 QNH2984INS BECMG 0417/0418 22009KT 9999 FEW008 BKN020 QNH2997INS BECMG 0421/0422 25009KT 9999 BKN030 620302 QNH3001INS TEMPO 0423/0503 8000 -SHRASN TX06/0500Z TNM03/0413Z
KSKF,TAF KSKF 041000Z 0410/0516 15010KT 9999 BKN012 QNH2960INS BECMG 0414/0415 16014G20KT 9999 SCT035 BKN250 510009 QNH2955INS BECMG 0420/0421 18010KT 9999 FEW050 BKN200 QNH2953INS BECMG 0501/0502 13012G18KT 9999 FEW050 BKN200 510009 QNH2956INS BECMG 0505/0506 14010KT 9999 BKN015 QNH2963INS BECMG 0510/0511 34015KT 9999 VCSH BKN012 BKN050 520009 QNH2969INS TEMPO 0511/0514 36015G25KT 6000 -SHRA VCTS BKN015CB BECMG 0514/0515 02020G30KT 9999 VCSH BKN035 BKN050 530009 QNH2990INS TX33/0423Z TN23/0412Z
KSLC,KSLC 041120Z 0412/0518 33010KT 1SM -SN BR SCT010 OVC015 FM041900 33009KT 3SM -SHSN BR SCT015 OVC030 FM050200 31008KT 5SM -SHSN BR SCT020 BKN040 FM050500 15005KT P6SM VCSH SCT040 BKN060
KSLE,KSLE 041124Z 0412/0512 17005KT P6SM -SHRA SCT025 OVC045 FM041400 18005KT P6SM -SHRA SCT015 BKN025 FM042000 22006KT P6SM -SHRA SCT025 BKN040 FM050600 18005KT P6SM BKN035
KSLI,TAF KSLI 040500Z 0405/0511 32009KT 9999 SKC 510043 QNH3002INS BECMG 0423/0424 26015KT 9999 SKC QNH3007INS BECMG 0505/0506 VRB06KT 9999 SKC QNH3010INS TX15/0422Z TN08/0414Z
KSLK,KSLK 040538Z 0406/0506 23005KT P6SM BKN200 FM040900 00000KT P6SM OVC150 FM042200 VRB03KT P6SM BKN025 FM050300 07007KT P6SM BKN050
KSLN,KSLN 041134Z 0412/0512 12008KT P6SM SCT210 WS020/23035KT FM041500 19015G24KT P6SM SCT250 FM041900 21028G38KT P6SM SKC FM050000 24025G36KT P6SM SKC FM050200 34027G37KT P6SM FEW250 FM050600 32019G29KT P6SM FEW250
KSME,KSME 040704Z 0407/0506 17008KT P6SM BKN030 TEMPO 0407/0408 SCT030 FM040800 18006KT P6SM VCSH BKN015 FM041800 20009KT P6SM SCT250
KSMF,KSMF 041120Z 0412/0512 31008KT P6SM SKC FM041700 34011KT P6SM FEW250 FM050300 VRB05KT P6SM FEW100 FEW250
KSMN,KSMN 041120Z 0412/0512 02007KT P6SM VCSH OVC070 FM041600 36013G20KT P6SM VCSH BKN070 FM050100 01010KT P6SM VCSH BKN060
KSMO,KSMO 041120Z 0412/0512 35006KT P6SM SKC FM041800 26015KT P6SM SKC FM050100 24008KT P6SM SKC FM050400 VRB03KT P6SM SKC
KSMX,KSMX 041120Z 0412/0512 VRB03KT 6SM BLDU SKC FM041400 33008KT 6SM BLDU SKC FM042000 30018G26KT 6SM BLDU SKC FM050300 32008KT P6SM SKC FM050600 VRB03KT P6SM SKC
KSNA,KSNA 041123Z 0412/0512 30008KT P6SM SKC FM042100 25010G18KT P6SM FEW250 FM050300 26005KT P6SM SCT250
KSNS,KSNS 041120Z 0412/0512 26007KT P6SM SKC FM041900 28012G19KT P6SM FEW100 SCT200 FM050300 VRB06KT P6SM SCT150
KSNY,KSNY 041120Z 0412/0512 05015KT 2SM -FZDZ BR BKN004 OVC010 FM041400 04015G22KT 1SM -SN BR OVC008 FM042000 35022G35KT 5SM -SN OVC025 FM050000 35020KT P6SM BKN020 OVC030 FM050600 32023G31KT P6SM OVC030
KSOA,KSOA 041120Z 0412/0512 18008KT P6SM BKN250 FM041600 22014G22KT P6SM SCT250 FM050100 22011KT P6SM SCT250 FM050600 33012KT P6SM SCT250
KSPI,KSPI 041023Z 0410/0506 14010KT P6SM OVC018 FM041200 13008KT P6SM BKN006 FM041600 16014G23KT P6SM BKN019 FM041800 17020G30KT P6SM SCT040
KSPS,KSPS 041120Z 0412/0512 19014KT P6SM OVC250 WS020/22045KT FM041500 23020G30KT P6SM BKN150 FM050600 31013G21KT P6SM SKC
KSRQ,KSRQ 041047Z 0411/0506 VRB03KT P6SM SCT015 TEMPO 0411/0412 BKN015 FM041400 15007KT P6SM SCT025 FM041700 24011KT P6SM SCT045 SCT250 FM050100 11004KT P6SM BKN050
KSSC,TAF AMD KSSC 041025Z 0410/0513 VRB04KT 0600 FG BKN003 QNH3002INS BECMG 0411/0412 28006KT 1600 BR SCT003 BKN015 BKN040 QNH3003INS TEMPO 0412/0414 3200 BR BECMG 0413/0414 28006KT 9999 NSW BKN015 BKN035 QNH3006INS BECMG 0415/0416 27009KT 9999 BKN020 BKN035 QNH3004INS BECMG 0423/0424 18006KT 9999 SCT030 QNH3007INS BECMG 0508/0509 19004KT 4800 BR SCT020 BKN200 QNH3014INS TX29/0421Z TN15/0412Z
KSSF,KSSF 040856Z 0409/0506 15012KT P6SM OVC012 FM041500 17014KT P6SM FEW035 BKN250 FM050000 14010KT P6SM BKN250
KSSI,KSSI 041135Z 0412/0512 VRB02KT 1/4SM FG BKN002 OVC012 FM041330 VRB03KT P6SM FEW025 SCT250 FM041700 13009KT P6SM FEW050 SCT250 FM050500 15004KT P6SM SCT250 FM050700 15004KT 2SM BR SCT007 FM050900 15004KT 1SM BR BKN007
KSTC,KSTC 040737Z 0408/0506 36008KT P6SM BKN020 FM040900 05011KT P6SM OVC012 FM041200 06014G24KT P6SM OVC008 TEMPO 0413/0416 1SM -SHSN FM041600 05015G23KT 3SM -DZ BR OVC008
KSTJ,KSTJ 041120Z 0412/0512 08012KT P6SM BKN028 WS015/18040KT FM041400 18017G30KT P6SM SCT050 FM042000 19028G38KT P6SM FEW150 FM050100 22015KT P6SM SCT020
KSTL,KSTL 041129Z 0412/0518 16009KT P6SM SCT250 FM041500 17014G25KT P6SM SCT250 FM042200 18019G35KT P6SM BKN250 FM050200 19018G31KT P6SM VCTS BKN070CB FM050600 20016G30KT 6SM -SHRA BR VCTS BKN070CB FM050900 22016G28KT P6SM VCTS BKN060CB FM051500 23016G23KT P6SM BKN035
KSTS,KSTS 041120Z 0412/0512 33007KT P6SM SKC FM042200 31010G19KT P6SM SCT200 FM050700 VRB05KT P6SM BKN250
KSUA,KSUA 041120Z 0412/0512 20004KT P6SM SCT030 SCT050 FM041600 10008KT P6SM VCTS SCT040CB SCT250 FM042100 12013G19KT P6SM FEW050 SCT250 FM050400 12007KT P6SM FEW020 FEW250 AMD NOT SKED
KSUN,KSUN 041120Z 0412/0518 31009KT P6SM VCSH SCT050 BKN120 FM041400 31008KT P6SM VCSH BKN035 BKN050 FM041800 13009KT 6SM -SN BR SCT020 BKN040 FM050400 VRB06KT P6SM VCSH SCT020 BKN050 FM051000 33006KT P6SM BKN035 AMD LTD TO CLD VIS AND WIND TIL 041400
KSUS,KSUS 041129Z 0412/0512 16008KT P6SM FEW250 FM041600 17014G25KT P6SM SCT250 FM042300 18019G35KT P6SM BKN250 FM050200 19018G31KT P6SM VCTS BKN070CB FM050600 20016G30KT 6SM -SHRA BR VCTS BKN070CB FM050900 22016G24KT P6SM VCTS BKN060CB
KSUU,TAF KSUU 041100Z 0411/0517 VRB06KT 9999 SCT100 QNH3015INS BECMG 0415/0416 35010G15KT 9999 SCT150 QNH3014INS BECMG 0500/0501 VRB06KT 9999 SCT050 SCT100 QNH3013INS TX15/0422Z TN01/0412Z
KSUX,KSUX 041120Z 0412/0512 06014G24KT P6SM VCSH OVC035 FM041600 06012G20KT P6SM OVC017 FM042100 08011G16KT P6SM BKN008 FM050100 32011G19KT P6SM BKN007 FM051100 30021G32KT P6SM BKN040
KSVN,TAF AMD KSVN 041100Z 0411/0515 VRB06KT 6000 BR BKN015 QNH2995INS TEMPO 0411/0412 9999 SCT015 BKN025 BECMG 0413/0414 VRB06KT 9999 NSW SCT010 BKN050 QNH2997INS BECMG 0514/0515 16012KT 9999 FEW210 FEW370 QNH3009INS TX27/0417Z TN17/0411Z
KSWF,KSWF 041120Z 0412/0518 VRB04KT P6SM BKN100 FM041600 19007KT P6SM BKN050 FM042300 VRB05KT P6SM SCT050 BKN150 FM050300 07006KT P6SM BKN015 FM050600 08006KT P6SM OVC006 FM051400 09009KT P6SM BKN008 OVC012 AMD NOT SKED
KSWO,KSWO 041120Z 0412/0512 18014G21KT P6SM BKN250 WS020/21040KT TEMPO 0412/0415 BKN025 FM041500 20020G32KT P6SM BKN200 FM050500 26018G29KT P6SM SCT250 FM050800 32015G21KT P6SM SKC
KSYM,KSYM 040708Z 0407/0506 18007KT P6SM SCT035 TEMPO 0407/0409 BKN030 FM040900 17006KT P6SM VCSH BKN020 BKN060 FM042000 20009KT P6SM SCT250
KSYR,KSYR 041120Z 0412/0512 VRB03KT 6SM -SHRA BR OVC050 TEMPO 0412/0414 4SM -SHRA BR OVC025 FM041400 06004KT P6SM OVC050 FM051000 09010G16KT P6SM BKN029
KSZL,TAF KSZL 041100Z 0411/0517 15009KT 9999 SKC WS020/19035KT QNH2951INS BECMG 0414/0415 18015G25KT 9999 BKN020 QNH2942INS BECMG 0420/0421 18025G35KT 9999 OVC025 520006 QNH2941INS BECMG 0506/0507 27040G50KT 1600 +TSRAGR OVC010CB QNH2944INS BECMG 0511/0512 26015G25KT 8000 -SHRA BKN025 520006 QNH2979INS BECMG 0515/0516 28012G20KT 9999 NSW FEW020 520006 QNH2983INS TX28/0420Z TN12/0510Z
KTBN,TAF KTBN 032100Z 0321/0503 17012G22KT 9999 FEW040 510032 QNH2960INS BECMG 0405/0406 17006KT 8000 BR BKN003 OVC011 510032 QNH2965INS BECMG 0408/0409 15006KT 8000 BR SCT003 BKN011 510032 QNH2960INS BECMG 0414/0415 19020G30KT 9999 NSW FEW350 510032 QNH2959INS BECMG 0420/0421 19025G35KT 4800 -TSRA SCT018CB BKN026 510032 QNH2959INS LAST NO AMNDS AFT 04/03Z NEXT 04/12Z
KTCC,KTCC 040537Z 0406/0506 22015G25KT P6SM SKC FM040900 22020G32KT P6SM SKC WS015/24050KT FM041400 24040G52KT 5SM BLDU SCT020 FM050200 28030G40KT P6SM SCT020 SCT090
KTCL,KTCL 041120Z 0412/0512 VRB04KT P6SM OVC015 FM041500 19008KT P6SM BKN020 FM041700 19010KT P6SM BKN040 FM042000 18007KT P6SM SCT040 BKN250 FM050800 17010KT P6SM BKN017
KTCM,TAF KTCM 040500Z 0405/0511 20006KT 9999 BKN030 OVC050 620304 QNH3006INS BECMG 0408/0409 19006KT 9999 VCSH BKN015 OVC030 610204 QNH3009INS BECMG 0414/0415 VRB06KT 9999 NSW BKN020 OVC040 620203 QNH3013INS BECMG 0420/0421 03006KT 9999 SCT030 QNH3019INS BECMG 0505/0506 VRB06KT 9999 SCT030 BKN050 620502 QNH3021INS TX10/0421Z TN01/0413Z
KTCS,KTCS 041128Z 0412/0512 23025G35KT P6SM SKC WS020/25045KT FM041500 24033G43KT P6SM SKC FM050300 30015G25KT P6SM SKC FM050700 30010KT P6SM SKC
KTEB,KTEB 041120Z 0412/0518 VRB04KT P6SM FEW020 SCT250 FM041700 17006KT P6SM SCT050 SCT250 FM050300 VRB04KT P6SM FEW007 BKN015 FM050700 VRB04KT 4SM BR BKN007 OVC012 FM051000 VRB04KT 2SM BR OVC004 FM051500 08007KT 5SM BR OVC006
KTEX,KTEX 041136Z 0412/0512 24010G20KT P6SM VCSH SCT017 BKN050 TEMPO 0412/0416 VRB10G20KT 2SM -SHSN BR BKN009 FM041600 24015G25KT 3SM -SHSN BR BKN020 FM042000 27015KT 3SM -SHSN BR OVC015 FM050400 VRB04KT P6SM VCSH BKN015
KTIK,TAF AMD KTIK 041105Z 0411/0515 17012KT 9999 SKC QNH2945INS TEMPO 0411/0414 BKN010 BECMG 0415/0416 19015G25KT 9999 SCT250 QNH2943INS BECMG 0418/0419 20020G30KT 9999 SCT250 510003 QNH2939INS BECMG 0422/0423 18012G18KT 9999 FEW250 520053 QNH2939INS BECMG 0505/0506 27012KT 9999 SKC 520053 QNH2955INS TX29/0421Z TN18/0412Z
KTIX,KTIX 041120Z 0412/0512 VRB03KT P6SM SCT250 FM041700 06006KT P6SM FEW040 SCT250 FM042100 12010KT P6SM FEW060 SCT250 FM050400 14005KT P6SM FEW020 FEW080 FEW250
KTLH,KTLH 041120Z 0412/0512 16003KT 6SM BR OVC006 FM041400 17004KT P6SM SCT008 BKN015 FM041700 17008KT P6SM SCT030 FM042200 16004KT P6SM SKC FM050500 09003KT 6SM BR BKN008 FM050800 10003KT 1SM BR OVC003
KTMB,KTMB 041120Z 0412/0512 VRB04KT P6SM FEW040 FM041500 12012KT P6SM SCT035 SCT200 FM050200 10009KT P6SM FEW035 FEW250
KTOI,KTOI 041120Z 0412/0512 00000KT 1SM BR BKN006 TEMPO 0412/0413 1/2SM FG FM041400 19006KT P6SM BKN008 FM041500 19006KT P6SM BKN013 FM041700 18007KT P6SM BKN025 FM041800 18007KT P6SM SCT040 BKN250 FM050600 17006KT 6SM BR BKN200
KTOL,KTOL 041125Z 0412/0512 09010KT P6SM OVC007 FM042100 08012KT P6SM OVC015 FM050600 15010KT P6SM VCSH BKN025
KTOP,KTOP 041120Z 0412/0512 08011KT P6SM FEW025 FM041400 19016G27KT P6SM SKC FM042100 20026G40KT P6SM FEW050 FM050500 31018G26KT P6SM SCT100
KTPA,KTPA 040907Z 0409/0512 VRB03KT 6SM BR SCT008 SCT220 FM041400 18006KT P6SM SCT020 FM041700 23010KT P6SM FEW035 SCT250 FM050000 VRB04KT P6SM FEW050 SCT120 SCT250
KTPH,KTPH 041135Z 0412/0512 33026G36KT P6SM SCT060 FM050400 33010G20KT P6SM FEW060 BKN100
KTRI,KTRI 041120Z 0412/0512 00000KT P6SM OVC025 FM041600 20004KT P6SM BKN035 FM042000 22008KT P6SM SCT050
KTRK,KTRK 041120Z 0412/0512 VRB04KT P6SM FEW040 FM042000 32010KT P6SM BKN040 FM050300 VRB03KT P6SM SCT040
KTRM,KTRM 041123Z 0412/0512 33010KT P6SM SKC FM041600 VRB05KT P6SM SKC FM050200 33010KT P6SM SCT250 FM050700 VRB05KT P6SM SCT250
KTTD,KTTD 041124Z 0412/0512 VRB04KT P6SM -SHRA SCT025 OVC040 FM041400 21004KT P6SM -SHRA SCT015 OVC025 FM042000 24006KT P6SM -SHRA SCT025 BKN045 FM050600 12005KT P6SM BKN035
KTTN,KTTN 041120Z 0412/0512 19004KT P6SM SKC FM041600 21010KT P6SM SCT050 FM050000 16005KT P6SM SCT060 FM050700 08004KT P6SM BKN020
KTUL,KTUL 041120Z 0412/0512 17016KT P6SM SCT025 OVC250 WS020/19050KT TEMPO 0412/0415 BKN025 FM041500 19018G30KT P6SM BKN035 FM041800 19022G35KT P6SM SCT040 BKN150 FM050100 19014G25KT P6SM SCT250 PROB30 0505/0507 4SM TSRA BKN025CB FM050700 28015G24KT P6SM BKN250
KTUP,KTUP 041130Z 0412/0512 18010KT P6SM SCT005 OVC015 TEMPO 0412/0413 5SM BR BKN005 FM041600 19012G20KT P6SM BKN025 FM041700 18013G22KT P6SM BKN035 FM050000 18014G21KT P6SM BKN250 FM050900 19015G21KT P6SM BKN015 WS020/19045KT
KTUS,KTUS 041134Z 0412/0512 32013G22KT P6SM SCT050 FM041500 30010KT P6SM SKC FM041900 31012G20KT P6SM SKC FM050500 24006KT P6SM SKC FM050900 15006KT P6SM SKC
KTVC,KTVC 041132Z 0412/0512 05007KT P6SM BKN100 FM041600 08011G18KT P6SM BKN050 FM042200 09016G30KT P6SM VCSH OVC026 FM050000 10016G31KT P6SM -SHRA VCTS BKN014CB FM050500 12017G33KT 4SM -SHRA BR VCTS OVC006CB WS020/14050KT FM051100 15013G22KT 5SM -SHRA BR BKN006 WS020/20045KT
KTVF,KTVF 041138Z 0412/0512 07007KT P6SM OVC023 FM042000 06020G30KT 3SM -SN BLSN OVC014 FM050000 05022G33KT 3/4SM -SN BLSN OVC019 FM050300 05024G33KT 1/2SM BLSN OVC008
KTVL,KTVL 041120Z 0412/0512 18004KT P6SM SCT035 FM042000 03008G17KT P6SM BKN040 FM050300 VRB03KT P6SM SCT040
KTWF,KTWF 041138Z 0412/0512 27025G35KT 3SM -SN BR OVC025 TEMPO 0412/0416 6SM BR OVC050 FM042000 26025G35KT P6SM VCSH OVC035 FM050500 22011KT P6SM VCSH OVC035
KTXK,KTXK 041120Z 0412/0512 18009KT P6SM OVC020 FM041300 18013G19KT P6SM OVC070 FM041900 19015G22KT P6SM OVC150 FM050000 18018G25KT P6SM OVC050 FM050500 18024G29KT P6SM OVC025 FM050800 20019G25KT P6SM -SHRA OVC050
KTYR,KTYR 041120Z 0412/0512 18012G18KT P6SM OVC020 FM041700 19017G24KT P6SM OVC100 FM050000 17020G26KT P6SM OVC150 FM050400 18023G30KT P6SM OVC050 FM050600 18017G25KT P6SM OVC025 FM051000 21015G23KT P6SM -SHRA OVC050
KTYS,KTYS 041120Z 0412/0512 VRB03KT P6SM OVC025 FM041600 21007KT P6SM BKN035 FM041800 23010KT P6SM SCT040
KUAO,KUAO 041124Z 0412/0512 20006KT P6SM -SHRA SCT025 OVC045 FM041400 20006KT P6SM -SHRA SCT010 OVC025 FM042000 20007KT P6SM -SHRA SCT025 BKN045 FM050600 17003KT P6SM BKN035
KUES,KUES 041120Z 0412/0512 07010G20KT 3SM BR OVC004 FM041800 09014G27KT 2SM -SHRA BR VCTS OVC003CB FM050400 12013KT P6SM VCTS OVC004CB WS014/17045KT FM050500 15011G21KT 2SM BR VCTS OVC004CB WS017/19045KT FM050700 17011G24KT 4SM BR BKN008 WS017/20045KT FM050900 20014G28KT P6SM BKN018 WS011/21050KT
KUIN,KUIN 041129Z 0412/0512 09011KT P6SM BKN013 FM041300 11013KT P6SM VCTS BKN013CB FM041500 15014G23KT P6SM BKN025 FM041600 16015G26KT P6SM SCT035 FM050700 19022G36KT P6SM VCTS BKN070CB
KUKI,KUKI 041133Z 0412/0512 33004KT P6SM SKC FM042100 31008G18KT P6SM SCT250 FM050200 35006KT P6SM BKN250 FM050600 00000KT P6SM OVC250
KUNV,KUNV 041131Z 0412/0512 25003KT P6SM BKN090 FM041300 24005KT P6SM SCT080 BKN250 FM041500 23008KT P6SM BKN045 FM042300 VRB04KT P6SM SCT080
KUTS,KUTS 041120Z 0412/0512 18010G18KT P6SM OVC015 FM041500 17013G19KT P6SM SCT025 BKN035 FM050200 16013G19KT P6SM BKN015 BKN025 FM051100 19012G20KT P6SM -SHRA VCTS OVC012CB
KVAD,TAF AMD KVAD 040935Z 0409/0514 20006KT 0800 FG OVC002 QNH2999INS BECMG 0413/0414 20006KT 4800 BR BKN005 QNH3003INS TEMPO 0414/0416 6000 BR BKN007 BECMG 0415/0416 20009KT 9999 NSW SCT010 QNH3006INS BECMG 0419/0420 20009KT 9999 SKC QNH3001INS BECMG 0505/0506 16006KT 9999 SKC QNH3008INS TEMPO 0511/0514 6000 BR BKN007 TX31/0420Z TN18/0412Z
KVBG,TAF KVBG 032200Z 0322/0504 32022G30KT 9999 SKC 520006 QNH3006INS TEMPO 0323/0404 33030G42KT 530008 BECMG 0405/0406 33015G25KT 9999 FEW015 520006 QNH3015INS BECMG 0407/0408 34012KT 9999 FEW015 QNH3016INS BECMG 0410/0411 33009KT 9999 SCT010 QNH3019INS BECMG 0418/0419 33015G25KT 9999 SKC 520006 QNH3018INS TEMPO 0423/0503 33020G32KT 530006 TX14/0420Z TN06/0413Z LAST NO AMDS AFT 0400 NEXT 0414
KVCT,KVCT 041135Z 0412/0512 16012KT P6SM OVC015 WS020/18045KT FM041500 16015G25KT P6SM OVC020 FM041900 17018G28KT P6SM BKN035 FM050000 12012KT P6SM BKN025 OVC100 FM050900 16004KT 6SM BR VCTS OVC012CB TEMPO 0510/0512 3SM TSRA OVC009CB
KVEL,KVEL 041136Z 0412/0512 17008KT P6SM VCSH OVC035 TEMPO 0412/0416 VRB10KT 3SM -SHSN BR BKN025 FM041800 01009KT P6SM VCSH BKN035 FM042000 01012G22KT P6SM VCSH BKN045 FM050900 VRB04KT P6SM BKN030
KVGT,KVGT 041120Z 0412/0512 32020G30KT P6SM FEW120 FM042000 32015G23KT P6SM SCT120 FM050200 33007KT P6SM SKC
KVIS,KVIS 041127Z 0412/0512 34005KT P6SM SCT200
KVLD,KVLD 041120Z 0412/0512 00000KT 1SM BR OVC002 TEMPO 0412/0413 1/4SM FG VV002 FM041400 16003KT 5SM BR SCT006 BKN010 FM041600 15004KT P6SM SCT015 BKN025 FM041800 17005KT P6SM SCT030 FM050000 00000KT P6SM BKN200 FM050700 14003KT 5SM BR SCT006 FM051000 13003KT 1SM BR BKN003
KVNY,KVNY 041120Z 0412/0512 35015G25KT P6SM SKC FM042300 31012G20KT P6SM SKC FM050700 35008KT P6SM SKC
KVOK,TAF KVOK 040900Z 0409/0515 08009KT 9999 BKN020 QNH2978INS BECMG 0417/0418 09015G25KT 8000 -RA OVC015 QNH2935INS BECMG 0509/0510 18009KT 8000 -RA OVC020 QNH2928INS TX11/0508Z TN01/0413Z
KVPS,TAF AMD KVPS 041035Z 0410/0515 19006KT 3200 BR BKN003 QNH2990INS TEMPO 0410/0414 1600 BR SCT003 BKN010 BECMG 0413/0414 19009KT 9999 NSW SCT010 BKN020 QNH2996INS BECMG 0417/0418 19012G18KT 9999 SCT035 SCT250 QNH3000INS BECMG 0423/0424 16009KT 9999 FEW020 SCT200 QNH3002INS TX27/0420Z TN23/0410Z
KVQQ,KVQQ 041120Z 0412/0512 00000KT 5SM BR BKN009 FM041230 VRB02KT P6SM BKN012 FM041400 VRB03KT P6SM FEW025 SCT250 FM041900 12007KT P6SM FEW250 FM050300 VRB03KT P6SM SCT250 FM050700 VRB02KT 3SM BR SCT250
KVRB,KVRB 041120Z 0412/0512 20005KT P6SM SCT060 BKN090 FM041600 10008KT P6SM VCTS SCT040CB SCT250 FM042100 12013G19KT P6SM FEW050 SCT250 FM050400 13006KT P6SM FEW020 FEW250
KVTN,KVTN 041136Z 0412/0512 05015G30KT P6SM OVC007 TEMPO 0412/0415 05015G30KT 5SM -SN OVC007 FM041500 03015G30KT 5SM -SN OVC007 TEMPO 0416/0420 2SM -SN BLSN OVC007 FM042000 34022G35KT 4SM -SN BLSN OVC007 FM050300 31022G35KT P6SM OVC015 TEMPO 0503/0506 4SM -SN BLSN OVC010
KWJF,KWJF 041120Z 0412/0512 VRB05KT P6SM SCT060 FM041400 30010KT P6SM SCT060 FM041900 31015G22KT P6SM SKC FM050400 30010KT P6SM SKC
KWMC,KWMC 041135Z 0412/0512 29007KT P6SM VCSH SCT040 BKN060 FM041600 28015G25KT P6SM BKN120 FM050100 VRB06KT P6SM BKN120
KWRB,TAF AMD KWRB 041040Z 0410/0514 VRB06KT 0400 FG OVC001 QNH2998INS BECMG 0412/0413 VRB06KT 4800 BR BKN008 QNH3001INS BECMG 0413/0414 VRB06KT 9999 NSW SCT007 BKN050 QNH3002INS BECMG 0420/0421 VRB06KT 9999 SCT030 QNH3005INS BECMG 0502/0503 VRB06KT 9999 SCT010 BKN030 QNH3003INS BECMG 0506/0507 VRB06KT 8000 BR SCT008 QNH3002INS TX27/0421Z TN16/0411Z
KWRI,TAF KWRI 041000Z 0410/0516 VRB04KT 9999 SCT250 QNH2998INS BECMG 0413/0414 23010G16KT 9999 SCT050 BKN250 QNH2998INS BECMG 0422/0423 18007KT 9999 BKN040 QNH3003INS BECMG 0505/0506 12005KT 9999 OVC012 QNH3011INS BECMG 0509/0510 10004KT 8000 BR BKN008 QNH3013INS TX23/0420Z TN09/0410Z
KWRL,KWRL 040536Z 0406/0506 34006KT 3SM -SN SCT005 BKN015 OVC040 FM041100 34011KT 5SM -SN SCT020 OVC030 FM041400 34020G28KT 6SM -SN SCT020 OVC035 FM042000 34018G26KT P6SM VCSH SCT025 OVC040 FM050300 34014KT P6SM SCT040 BKN070
KWWR,KWWR 041120Z 0412/0512 19016KT P6SM BKN250 WS020/24045KT FM041500 22020G30KT P6SM SCT250 FM041800 24026G44KT 6SM BLDU SCT250 TEMPO 0419/0423 3SM BLDU FM050100 26019G30KT P6SM SKC FM050600 35015G23KT P6SM SKC
KXNA,KXNA 041120Z 0412/0512 18013G20KT P6SM SCT035 WS020/18040KT FM041500 19018G27KT P6SM BKN035 FM041800 18020G30KT P6SM SCT035 BKN050 FM050100 19015G25KT P6SM SCT040 BKN250 TEMPO 0508/0512 3SM TSRA BKN025CB
KXWA,KXWA 041128Z 0412/0512 05009KT 6SM -SN BR OVC045 FM041400 03012KT P6SM OVC011 FM041900 01015G23KT P6SM VCSH OVC011 FM042300 36016G24KT 4SM -SN OVC010 FM050500 36017G26KT P6SM VCSH OVC009
KYIP,KYIP 041120Z 0412/0512 06010KT 5SM -DZ BKN008 OVC018 FM041600 07008KT P6SM OVC012 FM042000 09012KT P6SM OVC022 FM050400 12010KT 6SM -SHRA BR OVC009 PROB30 0504/0509 4SM -SHRA BR OVC007 FM050900 16010KT 4SM BR OVC010
KYKM,KYKM 041128Z 0412/0512 28006KT P6SM SCT250
KYNG,KYNG 041125Z 0412/0512 09005KT P6SM BKN080 FM041600 18006KT P6SM OVC025 FM042200 15005KT P6SM BKN050 FM050900 18012KT P6SM BKN100
KZZV,KZZV 041120Z 0412/0512 18006KT P6SM BKN025 FM042000 19009KT P6SM BKN035 FM042300 17005KT P6SM FEW060 BKN250
LAKU,TAF LAKU 041100Z 0412/0512 36020G30KT 9999 SCT020 BKN060 TX06/0412Z TN00/0504Z TEMPO 0418/0510 02010KT 5000 -SN OVC010
LATI,TAF LATI 041100Z 0412/0512 30012KT 9999 SCT040 BKN060 TX15/0412Z TN05/0504Z TEMPO 0418/0508 VRB05KT RA OVC030
LBBG,TAF LBBG 041100Z 0412/0512 05016KT 9999 SCT015 BKN040 PROB40 TEMPO 0413/0417 4000 TSRA SCT012 SCT030CB BKN040 BECMG 0417/0419 32012KT 5000 RA BKN012 OVC030 TEMPO 0420/0424 3000 +RA BKN007 OVC015 BECMG 0503/0505 9999 NSW SCT015 BKN040
LBGO,TAF LBGO 041100Z 0412/0512 06012KT 9999 SCT010 BKN015 OVC030 BECMG 0413/0415 33014KT 5000 RA BKN010 OVC015 TEMPO 0415/0418 3000 RA BKN007 OVC012 BECMG 0421/0423 3000 SNRA BKN006 OVC012 PROB40 TEMPO 0504/0510 1500 SN BKN004 OVC010 BECMG 0510/0512 9999 RA SCT015 BKN025 OVC035
LBPD,TAF LBPD 041100Z 0412/0512 07010KT 7000 RA BKN010 OVC020 BECMG 0412/0414 28016KT BKN015 OVC025 TEMPO 0414/0418 28020G30KT
LBSF,TAF LBSF 041100Z 0412/0512 28016KT 9999 BKN010 OVC015 TEMPO 0412/0418 5000 RA SCT007 BKN010 OVC015 PROB40 0414/0418 3000 SNRA BKN007 OVC015 TEMPO 0500/0508 5000 SN BKN007 OVC015
LBWN,TAF LBWN 041100Z 0412/0512 04016KT 9999 SCT015 BKN035 PROB30 TEMPO 0413/0416 5000 SHRA SCT010 SCT025TCU OVC035 BECMG 0418/0420 34014KT 5000 RA SCT010 BKN015 OVC030 TEMPO 0421/0424 3000 +RA BKN008 OVC013 BECMG 0503/0505 9999 NSW SCT015 SCT040 TEMPO 0505/0510 34018G28KT
LCEN,TAF LCEN 041040Z 0412/0512 16018KT 9999 FEW025 PROB40 TEMPO 16018G28KT BECMG 0418/0421 29015KT
LCLK,TAF LCLK 041130Z 0412/0512 19015KT CAVOK BECMG 0416/0419 27009KT BECMG 0504/0507 19020G30KTPROB30 TEMPO 0506/0512 5000 SHRA FEW030TCU
LCPH,TAF LCPH 041130Z 0412/0512 18010KT 9999 FEW020 BECMG 0413/0416 27012KT PROB30 TEMPO 0415/0512 5000 SHRA FEW030TCU
LCRA,TAF LCRA 041036Z 0412/0506 18010KT CAVOK BECMG 0412/0415 27015G25KT BECMG 0418/0420 26014KT PROB30 TEMPO 0423/0506 7000 SHRA SCT022
LDDU,TAF LDDU 041125Z 0412/0512 03015KT CAVOK TX12/0412Z TN07/0505Z TEMPO 0412/0415 02018G30KT BECMG 0415/0417 02025G40KT BECMG 0423/0501 03020G30KT BECMG 0507/0509 22010KT
LDOS,TAF LDOS 041125Z 0412/0512 34015KT 9999 BKN045 TX06/0511Z TN00/0505Z BECMG 0412/0414 04006KT BECMG 0421/0423 32008KT BECMG 0505/0507 32012KT
LDPL,TAF LDPL 041125Z 0412/0512 06015KT CAVOK TX10/0413Z TN04/0504Z PROB30 TEMPO 0412/0416 06018G28KT
LDRI,TAF LDRI 041125Z 0412/0512 04015G30KT CAVOK TX10/0413Z TN03/0505Z PROB30 TEMPO 0412/0417 VRB15KT BECMG 0415/0417 04025G40KT PROB40 TEMPO 0417/0501 04030G60KT BECMG 0502/0504 04015G30KT BECMG 0505/0507 06010KT
LDSP,TAF LDSP 041125Z 0412/0512 05018KT CAVOK TX11/0412Z TN06/0505Z TEMPO 0412/0500 05020G30KT PROB30 TEMPO 0418/0423 05025G40KT BECMG 0508/0510 09009KT
LDZA,TAF LDZA 041125Z 0412/0512 04018KT 9999 SCT045 TX06/0412Z TN00/0505Z PROB30 TEMPO 0412/0418 04018G28KT BECMG 0501/0503 04008KT TEMPO 0508/0512 04012KT
LDZD,TAF LDZD 041125Z 0412/0512 04015KT CAVOK TX10/0413Z TN04/0505Z PROB30 TEMPO 0412/0416 04018G28KT
LEAB,TAF LEAB 041100Z 0412/0512 08008KT CAVOK TX20/0416Z TN02/0506Z BECMG 0416/0418 15012KT PROB40 TEMPO 0504/0508 3000 BR BKN008 PROB30 TEMPO 0504/0508 0200 FG VV001
LEAG,TAF LEAG 040800Z 0409/0509 09012KT 9999 SCT020 TX19/0413Z TN14/0507Z PROB30 TEMPO 0409/0420 RA TEMPO 0418/0509 09015G28KT
LEAL,TAF LEAL 041100Z 0412/0512 10010KT 9999 FEW020 TX19/0413Z TN07/0506Z PROB30 TEMPO 0412/0416 4000 SHRA FEW030TCU BECMG 0419/0421 36004KT BECMG 0507/0509 10010KT
LEAM,TAF LEAM 041100Z 0412/0512 08014KT CAVOK TX23/0414Z TN11/0506Z TEMPO 0412/0420 11018G30KT BECMG 0420/0422 01008KT BECMG 0506/0508 08016KT TEMPO 0507/0512 08018G30KT
LEAO,TAF LEAO 040800Z 0409/0509 04008KT CAVOK TX21/0416Z TN08/0506Z
LEAS,TAF LEAS 040800Z 0409/0509 09009KT 9999 SCT025 TX14/0413Z TN05/0506Z PROB40 TEMPO 0411/0419 09015G25KT
LEBA,TAF LEBA 040800Z 0409/0509 08004KT CAVOK TX26/0415Z TN08/0506Z
LEBB,TAF LEBB 041100Z 0412/0512 35009KT 9999 FEW039 TX18/0512Z TN01/0506Z BECMG 0418/0420 VRB03KT
LEBG,TAF LEBG 040800Z 0409/0509 06010KT CAVOK TX15/0416Z TNM02/0506Z PROB40 TEMPO 0409/0420 06012G25KT PROB40 TEMPO 0409/0411 BKN010 BECMG 0418/0420 VRB03KT
LEBL,TAF LEBL 041100Z 0412/0512 11010KT 9999 FEW030 TX16/0412Z TN08/0506Z BECMG 0419/0421 33008KT BECMG 0509/0511 21010KT
LEBR,TAF LEBR 040800Z 0409/0509 30014KT 9999 FEW040 TX19/0415Z TN02/0506Z TEMPO 0409/0420 30024KT BECMG 0500/0503 VRB04KT BECMG 0507/0509 31010KT
LEBZ,TAF LEBZ 040800Z 0409/0509 08008KT CAVOK TX27/0415Z TN08/0506Z
LECO,TAF LECO 040800Z 0409/0509 VRB03KT 9999 FEW040 TX21/0414Z TN05/0506Z BECMG 0410/0414 04012KT BECMG 0418/0422 VRB03KT PROB30 TEMPO 0500/0508 1500 BCFG BKN005
LECV,TAF LECV 041100Z 0412/0512 08015KT CAVOK TX18/0415Z TN02/0506Z PROB40 TEMPO 0412/0419 08020G35KT BECMG 0510/0512 VRB04KT
LEEC,TAF LEEC 040800Z 0409/0509 03006KT CAVOK TX28/0415Z TN12/0506Z PROB30 TEMPO 0410/0420 RA BECMG 0416/0418 20010KT BECMG 0423/0501 03006KT
LEGA,TAF LEGA 041100Z 0412/0512 VRB02KT CAVOK TX24/0415Z TN05/0506Z BECMG 0413/0415 18014KT BECMG 0421/0423 VRB02KT
LEGE,TAF LEGE 041100Z 0412/0512 04010KT 9999 FEW040 TX17/0413Z TN02/0506Z PROB30 TEMPO 0412/0415 04015G25KT BECMG 0415/0417 VRB03KT PROB30 TEMPO 0422/0506 3000 BR
LEGR,TAF LEGR 041100Z 0412/0512 VRB02KT CAVOK TX24/0415Z TN05/0506Z PROB40 TEMPO 0415/0421 20012KT
LEGT,TAF LEGT 041100Z 0412/0512 04012KT CAVOK TX22/0415Z TN04/0506Z PROB40 TEMPO 0412/0419 05015G25KT BECMG 0510/0512 VRB04KT
LEHC,TAF LEHC 040800Z 0409/0509 VRB03KT CAVOK TX21/0414Z TN03/0506Z PROB40 TEMPO 0409/0416 25010KT TEMPO 0414/0420 06010KT PROB30 TEMPO 0500/0506 3000 BR
LEIB,TAF LEIB 040800Z 0409/0509 15006KT 9999 FEW030 TX18/0413Z TN09/0506Z PROB40 TEMPO 0416/0420 09010KT BECMG 0507/0509 10010KT
LEJR,TAF LEJR 040800Z 0409/0509 VRB02KT CAVOK TX24/0414Z TN09/0506Z PROB30 TEMPO 0409/0421 14010KT RA
LELC,TAF LELC 041100Z 0412/0512 09010KT 9999 FEW020 TX20/0413Z TN08/0506Z
LELL,TAF LELL 040800Z 0409/0509 13010KT 9999 FEW030 TX18/0413Z TN04/0505Z TEMPO 0409/0411 VRB04KT PROB40 TEMPO 0411/0415 4000 SHRA FEW030TCU BECMG 0417/0419 VRB03KT
LELN,TAF LELN 040800Z 0409/0509 VRB03KT CAVOK TX18/0416Z TNM04/0506Z
LELO,TAF LELO 040800Z 0409/0509 29008KT CAVOK TX17/0416Z TNM01/0506Z
LEMD,TAF LEMD 041100Z 0412/0518 05010KT CAVOK TX23/0515Z TN02/0506Z PROB40 TEMPO 0412/0419 05015G25KT BECMG 0510/0512 VRB05KT
LEMG,TAF LEMG 041100Z 0412/0512 13008KT 9999 FEW015 TX21/0413Z TN12/0506Z BECMG 0421/0423 VRB02KT BECMG 0500/0502 29006KT BECMG 0507/0509 13014KT TEMPO 0508/0512 12018G30KT
LEMH,TAF LEMH 040800Z 0409/0509 36014KT 9999 SCT030 TX15/0412Z TN09/0506Z TEMPO 0409/0414 36015G25KT 4000 SHRA FEW030TCU PROB40 TEMPO 0409/0412 3000 TSRA FEW030CB BECMG 0419/0421 33004KT BECMG 0507/0509 36014KT
LEMO,TAF LEMO 040800Z 0409/0509 VRB02KT CAVOK TX27/0415Z TN12/0506Z BECMG 0412/0414 22010KT PROB30 TEMPO 0411/0418 RA BECMG 0500/0502 05010KT
LEPA,TAF LEPA 041100Z 0412/0512 VRB03KT 9999 FEW030 TX17/0412Z TN05/0506Z TEMPO 0412/0414 22010KT PROB40 TEMPO 0412/0416 4000 TSRA FEW030CB BECMG 0413/0415 06010KT BECMG 0420/0422 VRB03KT
LEPP,TAF LEPP 040800Z 0409/0509 35012KT 9999 FEW030 TX15/0414Z TNM00/0506Z TEMPO 0410/0419 34017G27KT BECMG 0418/0422 VRB03KT
LERI,TAF LERI 041100Z 0412/0512 09012KT 9999 FEW030 TX23/0414Z TN08/0506Z BECMG 0421/0423 VRB02KT BECMG 0507/0509 09010KT
LERL,TAF LERL 040800Z 0409/0509 04008KT CAVOK TX22/0416Z TN07/0506Z
LERS,TAF LERS 040800Z 0409/0509 VRB04KT 9999 FEW030 TX18/0413Z TN05/0506Z BECMG 0410/0412 13010KT BECMG 0419/0421 30005KT
LERT,TAF LERT 040800Z 0409/0509 14010KT CAVOK TX23/0413Z TN12/0506Z PROB30 TEMPO 0409/0418 RA BECMG 0415/0417 34005KT BECMG 0502/0504 04010KT
LESA,TAF LESA 040800Z 0409/0509 VRB03KT CAVOK TX18/0416Z TNM02/0506Z TEMPO 0409/0422 06012KT
LESO,TAF LESO 041100Z 0412/0512 32009KT 9999 FEW020 BKN030 TX14/0512Z TN06/0506Z
LEST,TAF LEST 041100Z 0412/0512 05009KT CAVOK TX19/0415Z TN05/0506Z
LESU,TAF LESU 031400Z 0315/0415 VRB04KT 9999 FEW050 TX18/0414Z TNM02/0406Z TEMPO 0315/0318 02010KT BECMG 0409/0411 03010KT
LETO,TAF LETO 041100Z 0412/0512 05013KT CAVOK TX22/0415Z TN01/0506Z PROB40 TEMPO 0412/0419 05015G25KT BECMG 0510/0512 VRB05KT
LEVC,TAF LEVC 041100Z 0412/0512 10010KT 9999 FEW020 TX19/0413Z TN07/0506Z BECMG 0418/0420 36004KT PROB40 TEMPO 0422/0506 4000 BR BKN014
LEVD,TAF LEVD 040800Z 0409/0509 04016KT CAVOK TX19/0416Z TNM01/0506Z BECMG 0500/0502 VRB04KT
LEVS,TAF LEVS 041100Z 0412/0512 04010KT CAVOK TX21/0415Z TN04/0506Z PROB40 TEMPO 0412/0419 05015G25KT BECMG 0510/0512 VRB04KT
LEVT,TAF LEVT 041100Z 0412/0512 03012KT 9999 FEW030 TX14/0415Z TNM01/0506Z PROB30 TEMPO 0412/0418 03015G25KT BECMG 0420/0422 VRB02KT
LEVX,TAF LEVX 041100Z 0412/0512 VRB05KT CAVOK TX22/0413Z TN07/0506Z PROB40 TEMPO 0412/0418 02010KT
LEXJ,TAF LEXJ 040800Z 0409/0509 VRB03KT 9999 BKN040 TX15/0413Z TN05/0506Z BECMG 0410/0412 04012KT BECMG 0418/0420 VRB03KT
LEZG,TAF LEZG 041100Z 0412/0512 30012KT CAVOK TX21/0413Z TN05/0506Z TEMPO 0414/0420 31017G27KT
LEZL,TAF LEZL 040800Z 0409/0509 06004KT CAVOK TX27/0415Z TN12/0506Z PROB30 TEMPO 0410/0418 RA BECMG 0414/0416 22010KT BECMG 0423/0501 04005KT
LFAQ,TAF LFAQ 040800Z 0409/0418 05008KT CAVOK
LFAT,TAF LFAT 040800Z 0409/0418 09008KT CAVOK
LFBA,TAF LFBA 040800Z 0409/0418 32008KT CAVOK
LFBC,TAF LFBC 040800Z 0409/0509 03005KT CAVOK
LFBD,TAF LFBD 040500Z 0406/0512 02010KT CAVOK TX15/0415Z TN02/0506Z TEMPO 0500/0506 VRB02KT
LFBE,TAF LFBE 040500Z 0406/0506 27005KT CAVOK BECMG 0406/0408 36010KT BECMG 0422/0424 27005KT
LFBG,TAF LFBG 040800Z 0409/0509 02010KT CAVOK
LFBH,TAF LFBH 041100Z 0412/0512 03012KT CAVOK
LFBI,TAF LFBI 041100Z 0412/0512 04010KT CAVOK
LFBL,TAF LFBL 040500Z 0406/0506 04010KT CAVOK TEMPO 0409/0417 04010G20KT BECMG 0500/0502 02005KT
LFBM,TAF LFBM 040800Z 0409/0509 29003KT CAVOK
LFBO,TAF LFBO 040500Z 0406/0512 29006KT CAVOK FM041000 30012KT 9999 SCT025 FM041800 27006KT CAVOK
LFBP,TAF AMD LFBP 040816Z 0408/0506 VRB02KT 9999 BKN007 BKN035 BECMG 0409/0411 32010KT CAVOK PROB40 0423/0506 4000 MIFG
LFBT,TAF AMD LFBT 040924Z 0409/0506 30010KT 9999 BKN009 BECMG 0410/0412 SCT025 BECMG 0413/0415 CAVOK BECMG 0416/0418 VRB03KT PROB30 0502/0506 4000 BR
LFBU,TAF LFBU 040500Z 0406/0506 03010KT CAVOK TEMPO 0410/0416 03010G20KT BECMG 0420/0422 03005KT
LFBZ,TAF AMD LFBZ 040747Z 0407/0506 03005KT CAVOK PROB30 TEMPO 0407/0409 BKN010 BECMG 0409/0411 30010KT BECMG 0421/0423 21005KT
LFCK,TAF LFCK 040800Z 0409/0418 29004KT CAVOK BECMG 0410/0412 31012KT SCT040
LFCR,TAF LFCR 040500Z 0406/0506 VRB02KT CAVOK PROB40 0411/0415 34012KT FEW045TCU FM041500 04013KT CAVOK BECMG 0422/0424 02003KT
LFGJ,TAF LFGJ 041100Z 0412/0421 03020KT CAVOK BECMG 0416/0419 01010KT
LFJL,TAF LFJL 041100Z 0412/0512 05012KT CAVOK
LFKB,TAF LFKB 040800Z 0409/0509 03012KT 9999 FEW070 SCT100 BKN220 TX14/0413Z TN07/0503Z BECMG 0411/0413 CAVOK TEMPO 0507/0509 03015G25KT
LFKC,TAF LFKC 040800Z 0409/0509 03013KT 9999 SCT070 SCT120 TX16/0414Z TN04/0503Z PROB40 TEMPO 0409/0413 FEW030CB SCT040 BKN080 TEMPO 0411/0415 03015G27KT BECMG 0416/0418 CAVOK BECMG 0421/0423 04008KT
LFKF,TAF LFKF 040800Z 0409/0509 06017G27KT 9999 SCT066 TEMPO 0409/0412 FEW030CB FEW040 BECMG 0411/0414 FEW030CB BKN033 PROB30 TEMPO 0411/0415 VRB15G28KT TSRA BECMG 0417/0419 05008KT BECMG 0502/0504 CAVOK
LFKJ,TAF LFKJ 040800Z 0409/0509 23006KT 9999 FEW030 FEW033CB BKN060 PROB40 TEMPO 0409/0414 VRB15G25KT 4000 TSRA BKN014 SCT030CB BKN060 BECMG 0414/0416 NSC PROB40 TEMPO 0421/0501 SHRA BKN014 FEW030CB BECMG 0501/0503 05005KT CAVOK
LFKS,TAF LFKS 040800Z 0409/0509 03010KT 9999 SCT080 BKN180 PROB40 TEMPO 0409/0413 03019G29KT BECMG 0418/0420 CAVOK
LFLB,TAF LFLB 040800Z 0409/0509 36015KT 9999 BKN040 BECMG 0410/0412 CAVOK
LFLC,TAF LFLC 040500Z 0406/0506 36012KT CAVOK BECMG 0500/0503 VRB02KT
LFLL,TAF LFLL 040500Z 0406/0512 34008KT CAVOK TEMPO 0413/0418 35015G25KT
LFLN,TAF LFLN 041100Z 0412/0421 04010KT CAVOK
LFLP,TAF LFLP 040800Z 0409/0509 02010KT 9999 BKN030 BECMG 0409/0411 02015G27KT FEW040 BECMG 0417/0419 02010KT BECMG 0422/0424 VRB02KT
LFLS,TAF LFLS 040800Z 0409/0509 34010KT CAVOK BECMG 0419/0422 VRB03KT
LFLW,TAF LFLW 040800Z 0409/0418 VRB03KT CAVOK BECMG 0411/0414 36012KT
LFLX,TAF LFLX 041100Z 0412/0518 05010KT CAVOK BECMG 0514/0516 35005KT
LFLY,TAF LFLY 040500Z 0406/0506 34008KT CAVOK TEMPO 0413/0418 35015G25KT
LFMD,TAF LFMD 040800Z 0409/0509 10008KT 9999 BKN030 TEMPO 0411/0418 FEW050CB PROB40 TEMPO 0415/0418 VRB10KT 4000 SHRA SCT060TCU
LFMI,TAF LFMI 040200Z 0403/0503 03015KT 9999 BKN050 TX15/0413Z TN06/0403Z TEMPO 0406/0414 SHRA SCT030TCU BKN040 BECMG 0414/0416 CAVOK
LFMK,TAF LFMK 040800Z 0409/0509 27012KT CAVOK TEMPO 0409/0416 29015G25KT SCT040
LFML,TAF LFML 040800Z 0409/0515 34010KT CAVOK TX18/0415Z TN05/0505Z TEMPO 0409/0414 4000 SHRA SCT030TCU BECMG 0414/0416 17005KT CAVOK BECMG 0503/0505 35010KT
LFMN,TAF LFMN 040800Z 0409/0515 09010KT 9999 FEW030 TEMPO 0409/0414 10020G30KT TEMPO 0414/0418 FEW060CB BECMG 0414/0416 20007KT BECMG 0419/0421 32010KT BECMG 0508/0510 18007KT TEMPO 0512/0515 FEW050CB
LFMO,TAF LFMO 040800Z 0409/0509 35020G30KT CAVOK TX14/0414Z TN04/0504Z
LFMP,TAF LFMP 040800Z 0409/0509 32018G28KT CAVOK TEMPO 0413/0416 32022G35KT BECMG 0423/0501 32012G25KT
LFMT,TAF LFMT 040800Z 0409/0509 36010KT CAVOK BECMG 0409/0411 35005KT BECMG 0411/0413 20010KT BECMG 0417/0420 01008KT BECMG 0503/0505 VRB05KT
LFMU,TAF LFMU 040800Z 0409/0509 28008KT CAVOK BECMG 0411/0413 33012KT TEMPO 0414/0417 32017G28KT BECMG 0420/0422 33005KT
LFMV,TAF LFMV 040800Z 0409/0509 35020G30KT CAVOK PROB40 TEMPO 0500/0504 35010G20KT
LFMY,TAF LFMY 040800Z 0409/0509 33012KT CAVOK TX14/0412Z TN04/0504Z PROB30 TEMPO 0409/0412 -SHRA SCT060TCU TEMPO 0413/0417 21010KT
LFOA,TAF LFOA 040800Z 0409/0509 03010KT CAVOK
LFOB,TAF LFOB 040500Z 0406/0506 05007KT CAVOK
LFOE,TAF LFOE 040800Z 0409/0509 05010KT CAVOK BECMG 0500/0503 35005KT
LFOH,TAF LFOH 040500Z 0406/0506 09008KT CAVOK PROB40 TEMPO 0412/0418 02010KT
LFOJ,TAF LFOJ 040800Z 0409/0509 05015KT CAVOK TX12/0415Z TNM03/0505Z PROB40 TEMPO 0409/0418 04015G25KT BECMG 0418/0421 02005KT
LFOK,TAF LFOK 040500Z 0406/0506 05010KT CAVOK BECMG 0420/0422 VRB03KT
LFOP,TAF LFOP 040800Z 0409/0418 06010KT CAVOK
LFOT,TAF LFOT 041100Z 0412/0512 05010KT CAVOK BECMG 0504/0506 VRB02KT
LFPB,TAF LFPB 041100Z 0412/0512 05010KT CAVOK BECMG 0505/0507 VRB03KT
LFPG,TAF LFPG 041100Z 0412/0518 05010KT CAVOK TX13/0515Z TNM01/0505Z BECMG 0505/0507 VRB03KT
LFPN,TAF LFPN 041100Z 0412/0421 05010KT CAVOK
LFPO,TAF LFPO 041100Z 0412/0518 05008KT CAVOK
LFPV,TAF LFPV 040800Z 0409/0509 05010KT CAVOK TX11/0415Z TN00/0505Z
LFQQ,TAF LFQQ 040500Z 0406/0512 06008KT CAVOK
LFRB,TAF LFRB 041100Z 0412/0518 VRB05KT CAVOK BECMG 0421/0423 3000 BR PROB40 TEMPO 0502/0506 0500 FG VV/// BECMG 0506/0508 9999 NSW BECMG 0510/0512 21010KT TEMPO 0516/0518 BKN012
LFRC,TAF AMD LFRC 041136Z 0412/0421 13010KT CAVOK BECMG 0417/0419 VRB05KT
LFRD,TAF AMD LFRD 041132Z 0412/0512 07010KT CAVOK BECMG 0412/0414 02010KT BECMG 0416/0418 VRB05KT BECMG 0421/0423 3000 BR TEMPO 0500/0508 0500 FG VV/// BECMG 0507/0509 9999 NSW
LFRG,TAF AMD LFRG 041137Z 0412/0421 08010KT CAVOK BECMG 0415/0418 VRB05KT
LFRH,TAF LFRH 041100Z 0412/0512 09010KT CAVOK BECMG 0414/0416 24010KT BECMG 0419/0421 06005KT PROB30 TEMPO 0505/0507 3000 BR
LFRI,TAF LFRI 041100Z 0412/0512 05013KT CAVOK
LFRJ,TAF LFRJ 041100Z 0412/0421 05005KT CAVOK
LFRK,TAF LFRK 041100Z 0412/0421 VRB05KT CAVOK TEMPO 0412/0416 05010KT
LFRL,TAF LFRL 041100Z 0412/0512 34006KT 9999 FEW030 TEMPO 0421/0507 3000 BR BECMG 0510/0512 21010KT
LFRM,TAF LFRM 041100Z 0412/0512 05010KT CAVOK
LFRN,TAF AMD LFRN 041131Z 0412/0512 07012KT CAVOK BECMG 0417/0419 VRB05KT BECMG 0422/0424 3000 BR TEMPO 0500/0507 0500 FG VV/// BECMG 0507/0509 9999 NSW
LFRQ,TAF LFRQ 041100Z 0412/0512 VRB05KT CAVOK BECMG 0422/0424 3000 BR PROB40 TEMPO 0502/0506 0500 FG VV/// PROB40 TEMPO 0506/0509 BKN003 BECMG 0507/0509 9999 NSW
LFRS,TAF LFRS 041100Z 0412/0518 06012KT CAVOK BECMG 0500/0502 VRB02KT PROB30 TEMPO 0500/0508 3000 BR BECMG 0515/0517 28010KT
LFRZ,TAF LFRZ 041100Z 0412/0512 06012KT CAVOK BECMG 0420/0422 VRB03KT TEMPO 0500/0509 3000 BR PROB40 TEMPO 0502/0509 0300 FG VV/// BECMG 0510/0512 22010KT
LFSB,TAF LFSB 041100Z 0412/0512 36010KT CAVOK TEMPO 0412/0419 36010G20KT
LFSI,TAF LFSI 040800Z 0409/0509 05010KT CAVOK
LFSL,TAF LFSL 040800Z 0409/0418 36010KT CAVOK
LFSO,TAF LFSO 040800Z 0409/0509 06010KT CAVOK BECMG 0421/0423 VRB02KT
LFST,TAF LFST 041100Z 0412/0512 04012KT CAVOK
LFSX,TAF LFSX 040800Z 0409/0509 19010KT CAVOK BECMG 0413/0415 02010KT BECMG 0422/0424 VRB02KT BECMG 0507/0509 24010KT
LFTH,TAF LFTH 040800Z 0409/0509 05005KT CAVOK BECMG 0409/0410 11010G20KT SCT035 TEMPO 0409/0420 8000 SHRA SCT035TCU TEMPO 0410/0416 4000 TSRA SCT030CB BECMG 0420/0422 05005KT CAVOK
LFTW,TAF LFTW 040800Z 0409/0509 36015KT CAVOK TEMPO 0409/0417 01015G30KT
LFVP,TAF LFVP 041100Z 0412/0421 22018KT 9999 SCT018 BKN050 TEMPO 0412/0415 1200 SN BR BKN012
LFYR,TAF LFYR 040800Z 0409/0509 05007KT CAVOK TEMPO 0422/0506 VRB02KT 4000 BR
LGAD,TAF LGAD 041100Z 0412/0421 27010KT 9999 SCT020 BKN080 PROB30 TEMPO 0412/0418 5000 RA PROB30 TEMPO 0412/0418 3000 TSRA FEW016CB BKN020 BKN080
LGAL,TAF LGAL 041100Z 0412/0421 06010KT 9999 FEW015 SCT030 PROB40 TEMPO 0412/0421 5000 RA SCT010 FEW018TCU BKN030 PROB40 TEMPO 0412/0421 4000 TSRA SCT010 FEW018CB BKN020 BECMG 0412/0414 20010KT
LGAV,TAF LGAV 041100Z 0412/0512 21010KT 9999 FEW015 SCT025 BKN070 PROB40 TEMPO 0412/0415 5000 RA SCT012 FEW018TCU BKN020 PROB30 TEMPO 0412/0415 4000 TSRA SCT010 FEW018CB BKN020 BECMG 0418/0420 27012KT
LGBL,TAF LGBL 041100Z 0412/0421 30012KT 9999 FEW010 SCT020 BKN080 PROB40 TEMPO 0412/0421 5000 RA PROB30 TEMPO 0412/0415 4000 SHRA FEW016TCU BKN020 BKN080
LGEL,TAF LGEL 041100Z 0412/0512 VRB03KT 9999 FEW015 SCT025 BKN070 PROB40 TEMPO 0412/0415 5000 RA SCT012 FEW018TCU BKN020 BECMG 0414/0416 32015KT
LGHI,TAF LGHI 041100Z 0412/0421 19012KT 9999 FEW015 SCT020 PROB40 TEMPO 0412/0418 5000 RA SCT012 FEW018TCU BKN020 PROB40 TEMPO 0412/0415 4000 TSRA SCT010 FEW018CB BKN020 BECMG 0413/0415 26012KT
LGIO,TAF LGIO 041100Z 0412/0421 VRB03KT 9999 FEW010 BKN025 BKN080 PROB40 TEMPO 0412/0421 5000 RA FEW008 BKN020 OVC070 PROB30 TEMPO 0412/0418 3000 TSRA SCT008 FEW016CB BKN020 OVC070
LGIR,TAF LGIR 041100Z 0412/0512 20015G25KT 9999 FEW012 SCT020 PROB40 TEMPO 0412/0415 5000 RA SCT012 FEW018TCU BKN020 BECMG 0507/0509 30015KT
LGKC,TAF LGKC 041100Z 0412/0421 27020G30KT 9999 FEW010 SCT020 PROB30 TEMPO 0412/0415 5000 RA SCT008 FEW018TCU BKN020
LGKF,TAF LGKF 041100Z 0412/0421 28012KT 9999 FEW012 SCT020 BKN080 PROB30 TEMPO 0412/0416 5000 RA SCT010 FEW018TCU BKN020 BECMG 0413/0415 32015G25KT
LGKL,TAF LGKL 041100Z 0412/0421 31010KT 9999 FEW010 BKN020 BKN080 PROB30 TEMPO 0412/0418 4000 RA PROB30 TEMPO 0412/0415 3000 TSRA FEW016CB BKN020 BKN080
LGKO,TAF LGKO 041100Z 0412/0512 20020KT 9999 FEW015 SCT020 PROB40 TEMPO 0412/0506 5000 RA SCT012 FEW018TCU BKN020 PROB30 TEMPO 0412/0415 4000 TSRA SCT010 FEW018CB BKN020 BECMG 0415/0417 26012G22KT
LGKP,TAF LGKP 041100Z 0412/0421 21020G30KT 9999 SCT018
LGKR,TAF LGKR 041100Z 0412/0512 32015KT 9999 SCT020 BKN080 PROB40 TEMPO 0412/0415 5000 RA SCT015 FEW018TCU BKN070 BECMG 0416/0418 FEW012 SCT020 TEMPO 0412/0421 32015G25KT
LGKV,TAF LGKV 041100Z 0412/0512 04010KT 9999 FEW010 SCT025 BKN080 TEMPO 0412/0512 5000 RA FEW008 BKN025 OVC070 PROB40 TEMPO 0412/0415 3000 TSRA SCT008 FEW018CB BKN020 OVC070
LGLM,TAF LGLM 041100Z 0412/0421 18010G20KT 9999 FEW010 BKN020 PROB40 TEMPO 0412/0415 5000 RA BKN020 PROB30 TEMPO 0412/0415 3000 TSRA FEW016CB BKN020 BECMG 0413/0415 27010KT
LGLR,TAF LGLR 041100Z 0412/0421 25008KT 9999 FEW008 SCT020 BKN080 PROB40 TEMPO 0412/0421 5000 RA PROB30 TEMPO 0412/0418 4000 SHRA FEW016TCU BKN020 BKN080
LGMK,TAF LGMK 041100Z 0412/0421 22017KT 9999 FEW015 SCT020 PROB40 TEMPO 0412/0416 5000 RA SCT010 FEW018TCU BKN020 PROB30 TEMPO 0412/0415 4000 TSRA SCT008 FEW018CB BKN020 BECMG 0414/0416 28010KT
LGMT,TAF LGMT 041100Z 0412/0421 15015KT 9999 FEW015 SCT020 PROB40 TEMPO 0412/0421 5000 RA SCT012 FEW018TCU BKN020 PROB40 TEMPO 0412/0418 4000 TSRA SCT010 FEW018CB BKN020 BECMG 0413/0415 21012KT
LGPZ,TAF LGPZ 041100Z 0412/0512 27015KT 9999 FEW018 SCT080 PROB30 TEMPO 0412/0415 5000 RA SCT010 FEW018TCU BKN020 TEMPO 0412/0418 27015G25KT
LGRP,TAF LGRP 041100Z 0412/0512 20015KT 9999 FEW015 SCT020 PROB40 TEMPO 0412/0512 5000 RA SCT012 FEW018TCU BKN020 PROB30 TEMPO 0412/0418 4000 TSRA SCT010 FEW018CB BKN020 BECMG 0416/0418 26012G22KT
LGRX,TAF LGRX 041100Z 0412/0421 28010KT 9999 SCT020 BKN080 PROB30 TEMPO 0412/0418 5000 RA PROB30 TEMPO 0412/0418 3000 TSRA FEW016CB BKN020 BKN080
LGSA,TAF LGSA 041100Z 0412/0512 27015KT 9999 FEW018 SCT020 PROB40 TEMPO 0412/0416 5000 RA SCT015 FEW018TCU BKN020 TEMPO 0412/0424 27020G30KT
LGSK,TAF LGSK 041100Z 0412/0421 30015KT 9999 FEW010 BKN020 PROB40 TEMPO 0412/0416 5000 RA SCT010 FEW018TCU BKN020 PROB30 TEMPO 0412/0414 4000 TSRA SCT008 FEW018CB BKN020
LGSM,TAF LGSM 041100Z 0412/0421 19015KT 9999 FEW015 SCT020 PROB40 TEMPO 0412/0421 5000 RA SCT012 FEW018TCU BKN020 PROB40 TEMPO 0412/0418 4000 TSRA SCT010 FEW018CB BKN020 BECMG 0416/0418 26010KT
LGSR,TAF LGSR 041100Z 0412/0512 21015KT 9999 SCT020 PROB40 TEMPO 0412/0415 5000 RA SCT012 FEW018TCU BKN020 BECMG 0413/0415 26022G32KT
LGST,TAF LGST 041100Z 0412/0421 20015KT 9999 SCT020 SCT080 PROB30 TEMPO 0412/0415 5000 RA SCT015 FEW018TCU BKN070 TEMPO 0412/0416 20022G32KT
LGSY,TAF LGSY 041100Z 0412/0421 29012KT 9999 FEW008 SCT020
LGTG,TAF LGTG 041100Z 0412/0421 31010KT 9999 SCT020 BKN070 PROB30 TEMPO 0412/0415 5000 RA BKN020 BKN070
LGTL,TAF LGTL 041100Z 0412/0421 18015G25KT 9999 FEW020 BKN080 PROB40 TEMPO 0412/0415 5000 RA BKN020 BKN080
LGTS,TAF LGTS 041100Z 0412/0512 34015KT 9999 FEW010 SCT030 PROB40 TEMPO 0421/0503 5000 RA FEW008 BKN025 TEMPO 0418/0506 34015G25KT
LGZA,TAF LGZA 041100Z 0412/0421 29010KT 9999 FEW012 SCT020 BKN080 PROB30 TEMPO 0412/0415 5000 RA SCT010 FEW018TCU BKN020 BECMG 0412/0414 30015KT
LHBP,TAF LHBP 041115Z 0412/0512 04012KT CAVOK TEMPO 0412/0418 01016G26KT BECMG 0421/0424 34006KT
LHDC,TAF LHDC 041115Z 0412/0421 04018G28KT 9999 BKN040 OVC060 TEMPO 0412/0421 4000 -SNRA -SN SCT008 OVC030 PROB40 0412/0416 02028G40KT
LHKE,TAF LHKE 041115Z 0412/0421 04014G24KT CAVOK
LHPA,TAF LHPA 041115Z 0412/0512 36019G32KT CAVOK PROB40 TEMPO 0412/0416 9999 BKN040 BKN200 BECMG 0415/0418 36015G25KT BECMG 0421/0424 35009KT PROB40 TEMPO 0505/0512 36015G25KT 9999 SCT040 BKN200
LHPP,TAF LHPP 041115Z 0412/0421 36015G25KT CAVOK TEMPO 0412/0414 01020G30KT BKN040 BECMG 0414/0417 01008KT
LHPR,TAF LHPR 041115Z 0412/0421 34022G35KT CAVOK TEMPO 0412/0415 BKN045 BECMG 0416/0419 36015G25KT
LHSM,TAF LHSM 041115Z 0412/0421 36015G28KT CAVOK TEMPO 0412/0416 01025G38KT BKN045
LHSN,TAF LHSN 041115Z 0412/0421 03021KT CAVOK TEMPO 0412/0415 9999 SCT040 OVC070 BECMG 0414/0416 02016KT
LIBA,TAF LIBA 041100Z 0412/0421 32018G28KT 9999 FEW025 SCT040 BKN060 TEMPO 0412/0416 33020G32KT 7000 SHRA FEW020TCU SCT025 BKN050 BECMG 0418/0420 29015KT SCT040 SCT060
LIBC,TAF LIBC 041100Z 0412/0512 36017KT 9999 SCT030 BKN060 TEMPO 0412/0418 SHRA BECMG 0417/0419 36007KT BECMG 0510/0512 19010KT
LIBD,TAF LIBD 041100Z 0412/0512 33014KT 8000 SCT030 TEMPO 0412/0417 33016G26KT BECMG 0418/0420 27012KT BECMG 0509/0511 33010KT
LIBF,TAF LIBF 041100Z 0412/0512 33018G30KT 9999 SCT040 BECMG 0416/0418 30014KT
LIBG,TAF LIBG 041100Z 0412/0421 33015G25KT 9999 FEW040 BECMG 0415/0417 33012KT
LIBN,TAF LIBN 041100Z 0412/0421 32015KT 9999 SCT030 TEMPO 0412/0416 32019G29KT BKN035
LIBP,TAF LIBP 041100Z 0412/0512 02013KT 9999 BKN040 BECMG 0418/0420 30008KT TEMPO 0421/0509 RA BECMG 0509/0511 02013KT
LIBR,TAF LIBR 041100Z 0412/0512 33018G30KT 8000 FEW030 BECMG 0418/0420 31015KT
LIBV,TAF LIBV 041100Z 0412/0421 34015KT 9999 SCT010 BKN030 PROB40 TEMPO 0412/0415 35018G30KT 5000 SHRA
LICA,TAF LICA 041100Z 0412/0512 VRB05KT 9999 BKN060 BECMG 0412/0414 28010KT BECMG 0416/0418 VRB05KT
LICB,TAF AMD LICB 040613Z 0406/0506 VRB05KT 9999 SCT030 BECMG 0407/0409 26010KT BECMG 0416/0418 VRB05KT
LICC,TAF LICC 041100Z 0412/0512 08010KT 9999 SCT030 BECMG 0418/0420 VRB05KT
LICD,TAF LICD 041100Z 0412/0512 30018KT 9999 SCT030 BECMG 0414/0416 36008KT
LICG,TAF LICG 041100Z 0412/0421 30015KT 9999 FEW016 BECMG 0416/0418 36010KT
LICJ,TAF LICJ 041100Z 0412/0512 33012KT 9999 SCT030 TEMPO 0412/0415 SHRA BECMG 0418/0420 25008KT
LICR,TAF LICR 041100Z 0412/0512 34012KT 9999 SCT040 BECMG 0418/0420 VRB06KT
LICT,TAF LICT 041100Z 0412/0421 32015KT 9999 FEW020
LICZ,TAF LICZ 041100Z 0412/0512 09007KT 9999 SCT030 SCT070 TEMPO 0412/0415 25013KT 9999 TSRA FEW020CB BKN030
LIEA,TAF LIEA 041100Z 0412/0512 VRB05KT 9999 FEW020 BECMG 0510/0512 31010KT
LIED,TAF LIED 041100Z 0412/0421 33005KT 9999 FEW020CB SCT025 BECMG 0412/0414 14008KT TEMPO 0412/0417 3000 RA TSRA SCT020CB BKN025
LIEE,TAF LIEE 041100Z 0412/0512 16012KT 9999 SCT040 PROB40 TEMPO 0412/0418 SHRA BECMG 0418/0420 VRB05KT BECMG 0506/0508 32012KT
LIEO,TAF LIEO 041100Z 0412/0512 03012KT CAVOK BECMG 0416/0418 VRB05KT BECMG 0508/0510 01015KT TEMPO 0509/0512 02015G25KT
LIMC,TAF LIMC 041100Z 0412/0518 16010KT 9999 FEW050 BECMG 0421/0423 VRB06KT BECMG 0509/0511 15010KT
LIME,TAF LIME 041100Z 0412/0512 VRB05KT 9999 BKN040 BECMG 0420/0422 10010KT BECMG 0507/0509 16010KT
LIMF,TAF LIMF 041100Z 0412/0512 VRB05KT 9999 FEW050 BECMG 0421/0423 02010KT BECMG 0509/0511 VRB05KT
LIMG,TAF LIMG 041100Z 0412/0512 06010KT 9999 FEW050 BECMG 0417/0419 VRB05KT BECMG 0509/0511 07010KT
LIMJ,TAF LIMJ 041100Z 0412/0512 17010KT 9999 SCT040 BECMG 0416/0418 VRB05KT BECMG 0510/0512 17010KT
LIML,TAF LIML 041100Z 0412/0512 13012KT 9999 FEW040 BECMG 0419/0421 07008KT BECMG 0508/0511 13012KT
LIMN,TAF LIMN 041100Z 0412/0421 17008KT 9999 SCT040
LIMP,TAF LIMP 041100Z 0412/0512 11012KT CAVOK BECMG 0417/0420 VRB05KT BECMG 0508/0510 11012KT
LIMW,TAF LIMW 041100Z 0412/0421 10012KT 9999 SCT080 BECMG 0412/0414 30015KT BECMG 0419/0421 VRB05KT
LIMZ,TAF LIMZ 041100Z 0412/0512 VRB05KT 9999 SCT050
LIPA,TAF LIPA 041100Z 0412/0421 10010KT CAVOK
LIPB,TAF LIPB 041100Z 0412/0512 01014KT CAVOK BECMG 0420/0422 VRB05KT
LIPC,TAF LIPC 041100Z 0412/0421 07013KT 9999 FEW035
LIPE,TAF LIPE 041100Z 0412/0512 07014KT CAVOK BECMG 0416/0418 VRB05KT BECMG 0507/0509 09012KT
LIPH,TAF LIPH 041100Z 0412/0512 VRB05KT 9999 FEW050
LIPI,TAF LIPI 041100Z 0412/0421 09005KT CAVOK
LIPK,TAF LIPK 041100Z 0412/0512 06013KT 9999 FEW040 BECMG 0416/0418 VRB05KT BECMG 0507/0509 06013KT
LIPL,TAF LIPL 041100Z 0412/0421 14007KT 9999 FEW040 SCT060
LIPO,TAF LIPO 041100Z 0412/0512 VRB05KT 9999 SCT040 BECMG 0416/0419 10013KT BECMG 0506/0508 16010KT
LIPQ,TAF LIPQ 041100Z 0412/0512 08016KT CAVOK BECMG 0422/0424 08006KT
LIPR,TAF LIPR 041100Z 0412/0512 05016KT 9999 SCT040
LIPS,TAF LIPS 041100Z 0412/0421 08008KT CAVOK
LIPX,TAF LIPX 041100Z 0412/0512 VRB05KT 9999 FEW040 BECMG 0419/0421 10010KT BECMG 0500/0502 VRB05KT
LIPY,TAF LIPY 041100Z 0412/0512 03012KT 9999 BKN040 TEMPO 0421/0512 RA
LIPZ,TAF LIPZ 041100Z 0412/0518 14010KT CAVOK TEMPO 0419/0421 08014KT BECMG 0511/0513 14010KT BECMG 0516/0518 VRB05KT
LIQW,TAF LIQW 041100Z 0412/0421 11015KT CAVOK
LIRA,TAF LIRA 041100Z 0412/0512 34010KT CAVOK TEMPO 0412/0416 27008KT BECMG 0416/0418 VRB05KT
LIRE,TAF LIRE 041100Z 0412/0421 20009KT 9999 BKN035
LIRF,TAF LIRF 041100Z 0412/0518 34012KT CAVOK BECMG 0412/0414 22010KT BECMG 0416/0419 03008KT BECMG 0510/0512 34010KT
LIRG,TAF LIRG 041100Z 0412/0421 25005KT CAVOK TEMPO 0412/0415 03010G20KT
LIRH,TAF LIRH 041100Z 0412/0421 12006KT 9999 BKN035 PROB30 TEMPO 0414/0418 16012KT 4000 RA
LIRL,TAF LIRL 041100Z 0412/0421 18010KT 9999 SCT020 SCT050
LIRM,TAF LIRM 041100Z 0412/0421 01010KT 9999 SCT030 BKN060
LIRN,TAF LIRN 041100Z 0412/0512 04010KT 9999 SCT040 TEMPO 0412/0416 23010KT
LIRP,TAF LIRP 041100Z 0412/0512 07014KT CAVOK BECMG 0420/0422 09006KT
LIRQ,TAF LIRQ 041100Z 0412/0512 05012KT 9999 FEW050
LIRS,TAF LIRS 041100Z 0412/0421 03018KT CAVOK TEMPO 0412/0418 03020G30KT
LIRU,TAF LIRU 041100Z 0412/0421 36008KT CAVOK
LIRV,TAF LIRV 041100Z 0412/0421 02015KT CAVOK PROB40 TEMPO 0412/0415 03015G25KT
LIRZ,TAF LIRZ 041100Z 0412/0512 04016KT 9999 FEW030 TEMPO 0412/0416 03015G25KT BECMG 0420/0422 04005KT BECMG 0510/0512 04015KT
LJCE,TAF LJCE 041100Z 0412/0421 07010KT CAVOK PROB30 TEMPO 0412/0418 07015G25KT
LJLJ,TAF LJLJ 041100Z 0412/0512 VRB03KT 9999 FEW060 PROB30 TEMPO 0412/0417 10014KT
LJMB,TAF LJMB 041100Z 0412/0512 02012KT 9999 FEW047 TEMPO 0412/0418 02017G30KT
LJPZ,TAF LJPZ 041100Z 0412/0421 07015KT CAVOK BECMG 0412/0414 07008KT
LKCV,TAF LKCV 040500Z 0406/0506 03011KT CAVOK TEMPO 0406/0412 BKN033 TEMPO 0407/0417 02017KT PROB30 TEMPO 0409/0416 02015G25KT BECMG 0419/0421 VRB02KT
LKKB,TAF LKKB 040500Z 0406/0506 35006KT 9999 BKN045 TEMPO 0407/0410 SCT022 BECMG 0408/0411 36011KT PROB30 TEMPO 0409/0417 36014G26KT BECMG 0412/0414 CAVOK BECMG 0418/0420 31004KT
LKKV,TAF LKKV 041100Z 0412/0512 03005KT 9999 SCT040 TEMPO 0412/0416 BKN030 TEMPO 0412/0418 01012KT BECMG 0422/0500 33005KT
LKMT,TAF LKMT 041100Z 0412/0512 01015KT CAVOK TEMPO 0412/0421 9999 BKN035 BECMG 0422/0500 VRB02KT TEMPO 0511/0512 01010KT
LKNA,TAF LKNA 040500Z 0406/0506 35010KT CAVOK TEMPO 0408/0416 01014G24KT SCT040
LKPR,TAF LKPR 041100Z 0412/0518 02008KT CAVOK TEMPO 0412/0415 9999 BKN045 TEMPO 0412/0416 02016KT BECMG 0420/0422 33005KT
LKTB,TAF LKTB 041100Z 0412/0512 35010KT CAVOK TEMPO 0412/0416 9999 SCT045 TEMPO 0412/0417 01018KT
LLBG,TAF LLBG 041106Z 0412/0512 24008KT CAVOK BECMG 0415/0417 32008KT PROB40 TEMPO 0417/0419 34015KT BECMG 0419/0422 VRB04KT 8000 SCT015 PROB30 TEMPO 0500/0505 16004KT 6000 BKN010 BECMG 0507/0509 28010KT CAVOK TX33/0412Z TN12/0503Z
LLER,TAF LLER 041104Z 0412/0512 18011KT CAVOK BECMG 0419/0421 36010KT BECMG 0507/0510 01016KT TX34/0413Z TN15/0504Z
LLHA,TAF LLHA 041114Z 0412/0512 23006KT CAVOK BECMG 0413/0416 32008KT PROB40 TEMPO 0416/0419 33015KT BECMG 0423/0501 VRB04KT FEW015 BECMG 0506/0508 26010KT CAVOK TX32/0412Z TN13/0504Z
LLHZ,TAF LLHZ 041109Z 0412/0512 28008KT CAVOK BECMG 0413/0415 34008KT PROB40 TEMPO 0415/0419 34015KT BECMG 0419/0421 8000 SCT015 PROB30 TEMPO 0500/0505 17005KT 6000 BKN010 BECMG 0507/0509 27010KT CAVOK TX30/0412Z TN13/0504Z
LLIB,TAF LLIB 041116Z 0412/0512 17006KT CAVOK BECMG 0413/0415 28007KT BECMG 0416/0418 33007KT BECMG 0422/0424 VRB04KT BECMG 0505/0507 17006KT BECMG 0509/0511 29010KT TX29/0413Z TN12/0504Z
LMML,TAF LMML 041100Z 0412/0512 29019KT 9999 FEW020 TEMPO 0412/0420 29020G30KT BECMG 0504/0507 31008KT BECMG 0507/0512 4000 RA SCT012 OVC020
LOAN,TAF LOAN 041115Z 0412/0421 36020G30KT 9999 SCT050 BECMG 0416/0419 36012KT
LOAV,TAF LOAV 041115Z 0412/0421 36020G30KT 9999 SCT050 BECMG 0416/0419 36012KT
LOWG,TAF LOWG 041115Z 0412/0512 34008KT 9999 FEW050 TX06/0512Z TNM06/0504Z PROB30 TEMPO 0412/0414 04020G30KT TEMPO 0412/0416 01015G25KT BECMG 0421/0424 VRB03KT TEMPO 0508/0512 16007KT
LOWI,TAF LOWI 041115Z 0412/0512 10010KT 9999 FEW060 TX07/0414Z TNM03/0504Z BECMG 0418/0420 VRB02KT BECMG 0508/0510 08008KT
LOWK,TAF LOWK 041115Z 0412/0512 09005KT 9999 FEW070 TX07/0414Z TNM05/0505Z TEMPO 0412/0419 03010G20KT
LOWL,TAF LOWL 041115Z 0412/0512 02008KT 9999 SCT045 TX05/0414Z TNM04/0502Z BECMG 0418/0421 VRB04KT BECMG 0505/0509 09007KT
LOWS,TAF LOWS 041115Z 0412/0512 03007KT 9999 SCT050 TEMPO 0419/0505 15004KT TX04/0512Z TNM05/0505Z
LOWW,TAF LOWW 041115Z 0412/0518 36020G30KT 9999 SCT040 TX05/0515Z TNM03/0504Z BECMG 0416/0419 33010KT TEMPO 0507/0516 36015G25KT
LOXA,TAF LOXA 041115Z 0412/0421 VRB05KT 9999 FEW035 BKN050 TEMPO 0412/0421 04010KT FEW040 SCT050
LOXN,TAF LOXN 041115Z 0412/0421 35015G25KT 9999 SCT045 TEMPO 0412/0416 35020G32KT BECMG 0418/0420 36010KT
LOXT,TAF LOXT 041115Z 0412/0421 35012KT 9999 SCT045 BECMG 0418/0420 35006KT
LOXZ,TAF LOXZ 041115Z 0412/0421 04015G25KT 9999 FEW050 SCT270 BECMG 0416/0418 08008KT
LPAR,TAF LPAR 041104Z 0412/0421 34010KT CAVOK
LPAZ,TAF LPAZ 041100Z 0412/0518 36008KT 9999 SCT025 TEMPO 0412/0518 FEW020 BKN030
LPBJ,TAF LPBJ 041103Z 0412/0512 07008KT CAVOK
LPCS,TAF LPCS 041100Z 0412/0421 07010KT CAVOK BECMG 0412/0414 22007KT BECMG 0415/0417 34013KT
LPFR,TAF LPFR 041100Z 0412/0512 09013KT 9999 SCT025 BECMG 0416/0419 26005KT CAVOK BECMG 0422/0424 VRB02KT BECMG 0502/0504 03005KT BECMG 0510/0512 10012KT
LPHR,TAF LPHR 041100Z 0412/0421 26010KT 9999 SCT015 TEMPO 0412/0421 FEW015 BKN030
LPLA,TAF LPLA 041102Z 0412/0512 30008KT 9999 SCT030 BECMG 0501/0503 VRB05KT BECMG 0508/0510 31010KT
LPMA,TAF LPMA 041100Z 0412/0512 01015KT 9999 SCT015 SCT030 TEMPO 0412/0512 01020G33KT BKN013
LPMR,TAF LPMR 041103Z 0412/0512 34010KT CAVOK BECMG 0420/0422 05005KT
LPMT,TAF LPMT 041103Z 0412/0512 34008KT CAVOK TEMPO 0416/0420 34015KT
LPOV,TAF LPOV 041102Z 0412/0512 35010KT CAVOK BECMG 0421/0423 05005KT
LPPD,TAF LPPD 041100Z 0412/0512 03008KT 9999 SCT025 TEMPO 0412/0512 FEW020 BKN035
LPPR,TAF LPPR 041100Z 0412/0512 08010KT CAVOK BECMG 0415/0417 34010KT BECMG 0420/0423 04005KT BECMG 0500/0503 09008KT
LPPS,TAF LPPS 041100Z 0412/0518 36018KT 9999 SCT015 SCT030 TEMPO 0412/0424 35022G32KT 8000 -SHRA BKN013
LPPT,TAF LPPT 041100Z 0412/0518 04012KT CAVOK BECMG 0412/0414 10008KT BECMG 0417/0419 34012KT BECMG 0500/0502 03010KT BECMG 0511/0514 07008KT
LPST,TAF LPST 041103Z 0412/0421 34010KT CAVOK
LQBK,TAF LQBK 041100Z 0412/0512 33007KT 9999 BKN035 TX06/0414Z TN00/0505Z PROB40 TEMPO 0412/0421 03012KT PROB40 TEMPO 0415/0424 4000 -SN BR BKN010 OVC030
LQMO,TAF LQMO 041100Z 0412/0512 02020G30KT 9999 FEW045 TX11/0414Z TN04/0505Z PROB30 TEMPO 0412/0421 02030G40KT BECMG 0504/0507 02015G25KT
LQSA,TAF LQSA 041100Z 0412/0512 28008KT 7000 -SN SCT015 BKN040 TX02/0512Z TNM03/0505Z TEMPO 0412/0424 2000 SN BKN008 OVC030 PROB40 TEMPO 0412/0415 32012KT PROB30 TEMPO 0500/0509 3000 SN BKN012 BKN030
LQTZ,TAF LQTZ 041100Z 0412/0512 32008KT 6000 -SN SCT010 OVC025 TX02/0414Z TNM02/0505Z PROB40 TEMPO 0412/0420 1500 SN BR BKN004 OVC015 PROB30 TEMPO 0420/0506 3000 -SN BR BKN008 OVC020
LRAR,TAF LRAR 041100Z 0412/0421 01016KT 9999 BKN030 PROB40 TEMPO 0412/0418 01018G28KT 5000 -RA BR BKN015 OVC030
LRBC,TAF LRBC 041100Z 0412/0421 33018KT 1500 SN BKN010 OVC020 TEMPO 0412/0415 0600 +SN BKN002 OVC015 BECMG 0418/0420 5000 -SN
LRBM,TAF LRBM 041100Z 0412/0421 VRB04KT 9999 BKN040 TEMPO 0412/0414 5000 -RA BR BKN015 OVC035
LRBS,TAF LRBS 041100Z 0412/0512 06012KT 9999 SCT015 BKN025 TEMPO 0412/0415 06015G25KT 5000 -RA BKN010 OVC020 BECMG 0419/0421 24006KT TEMPO 0421/0509 5000 -RA BKN010 OVC020
LRCK,TAF LRCK 041100Z 0412/0512 05020KT 9999 BKN015 BKN040 TEMPO 0412/0416 05022G35KT BECMG 0420/0422 33015KT TEMPO 0506/0512 33016G26KT 5000 -RA
LRCL,TAF LRCL 041100Z 0412/0421 VRB04KT 3000 -SN BR BKN005 OVC020 TEMPO 0413/0417 5000 -RA BKN010 OVC025
LRCV,TAF LRCV 041100Z 0412/0421 09008KT 9999 BKN010 OVC025 TEMPO 0412/0418 5000 -RA BKN005 OVC015
LRIA,TAF LRIA 041100Z 0412/0421 32010KT 1500 SN BKN010 OVC020 TEMPO 0412/0415 0600 +SN BKN002 OVC015 BECMG 0418/0420 5000 -SN
LROD,TAF COR LROD 041126Z 0412/0421 03016KT 9999 OVC035 PROB30 TEMPO 0412/0417 01018G28KT 5000 -RA BR BKN010 OVC030
LROP,TAF LROP 041100Z 0412/0512 06012KT 9999 SCT015 BKN025 TEMPO 0412/0415 06015G25KT 5000 -RA BKN010 OVC020 BECMG 0419/0421 24006KT TEMPO 0421/0509 5000 -RA BKN010 OVC020
LRSB,TAF LRSB 041100Z 0412/0512 VRB04KT 3000 -SNRA BKN005 OVC015 TEMPO 0412/0415 1500 -RA BKN010 OVC020 BECMG 0420/0422 5000 TEMPO 0500/0506 3000 -SN BKN005 OVC020 BECMG 0507/0509 9999 NSW BKN030
LRSM,TAF LRSM 041100Z 0412/0421 04012KT 9999 BKN030 PROB30 TEMPO 0412/0414 5000 -RA BR BKN015 OVC035
LRSV,TAF LRSV 041100Z 0412/0421 34015KT 1500 SN BKN010 OVC020 TEMPO 0412/0415 0600 +SN BKN002 OVC015
LRTC,TAF LRTC 041100Z 0412/0421 04016KT 9999 OVC020 TEMPO 0412/0415 BKN015 OVC020
LRTM,TAF LRTM 041100Z 0412/0421 VRB04KT 9999 BKN010 OVC025 TEMPO 0412/0418 5000 -RA BKN005 OVC020
LRTR,TAF LRTR 041100Z 0412/0512 36020KT 9999 BKN030 TEMPO 0412/0416 01020G30KT 5000 -RA BR BKN010 OVC025 BECMG 0416/0418 36010KT
LSGC,TAF LSGC 041125Z 0412/0421 05012KT CAVOK
LSGG,TAF LSGG 041125Z 0412/0518 05015G25KT 9999 FEW045 TX10/0415Z TN02/0504Z TX11/0515Z BECMG 0418/0420 05010KT
LSGS,TAF LSGS 041125Z 0412/0421 27010KT 9999 SCT080 BECMG 0418/0420 VRB02KT
LSZA,TAF LSZA 041125Z 0412/0421 20010KT CAVOK PROB30 TEMPO 0416/0421 01012KT BECMG 0417/0419 VRB02KT
LSZB,TAF LSZB 041125Z 0412/0421 04009KT 9999 FEW035 TEMPO 0412/0415 03012G25KT BECMG 0414/0416 CAVOK
LSZC,TAF LSZC 041125Z 0412/0421 26003KT 9999 SCT030 PROB30 0412/0418 CAVOK
LSZG,TAF LSZG 041125Z 0412/0421 08016KT CAVOK PROB40 TEMPO 0412/0416 06016G32KT
LSZH,TAF LSZH 041125Z 0412/0518 06012KT 9999 FEW040 TX07/0414Z TNM02/0505Z TX08/0514Z TEMPO 0412/0417 05016G28KT BECMG 0415/0417 CAVOK BECMG 0419/0421 35004KT TEMPO 0508/0517 05006KT
LSZL,TAF LSZL 041125Z 0412/0421 25006KT CAVOK PROB30 TEMPO 0412/0418 9999 SCT035 PROB30 TEMPO 0413/0416 10012G25KT
LSZR,TAF LSZR 041125Z 0412/0421 VRB04KT 9999 FEW030 TEMPO 0412/0418 04012G25KT BECMG 0416/0418 CAVOK
LSZS,TAF LSZS 041125Z 0412/0421 04006KT CAVOK TX02/0412Z PROB30 TEMPO 0417/0421 9999 FEW030 SCT090
LTAB,TAF LTAB 041040Z 0412/0421 18012KT 9999 SCT040 BKN100 TEMPO 0412/0415 20020G30KT -TSRA FEW025CB BKN035 TEMPO 0415/0418 20020G35KT -TSRA FEW025CB BKN035
LTAC,TAF LTAC 041040Z 0412/0512 17012KT 9999 SCT040 BKN100 TEMPO 0412/0416 18020G35KT -TSRA FEW025CB BKN030 BKN080 TEMPO 0416/0420 18020G30KT -TSRA FEW025CB BKN030 BKN080 BECMG 0418/0421 VRB02KT TEMPO 0422/0502 -SHRA FEW025CB BKN030 BKN080 TEMPO 0508/0512 24015G25KT -TSRA FEW025CB BKN030 BKN080
LTAD,TAF LTAD 041040Z 0412/0421 18012KT 9999 SCT040 BKN100 TEMPO 0412/0415 18015G30KT -TSRA FEW027CB BKN035 TEMPO 0415/0418 18015G30KT -TSRA FEW027CB BKN035
LTAE,TAF LTAE 041040Z 0412/0421 16012KT 9999 SCT040 SCT100 TEMPO 0412/0416 16020G30KT-TSRA FEW030CB BKN033 BECMG 0416/0418 VRB02KT TEMPO 0418/0421 -SHRA BKN033 BKN090
LTAF,TAF LTAF 041040Z 0412/0512 18009KT CAVOK BECMG 0419/0421 SCT035 PROB30 TEMPO 0508/0511 22015G25KT -SHRA SCT020CB BKN030
LTAG,TAF LTAG 041040Z 0412/0512 19012KT CAVOK BECMG 0416/0418 VRB02KT TEMPO 0421/0424 19012KT SCT035 TEMPO 0502/0506 BKN035 BECMG 0504/0506 22016KT
LTAH,TAF LTAH 041040Z 0412/0421 17025G40KT 9999 -SHRA FEW025CB BKN030 BKN090 TEMPO 0412/0416 -TSRA BECMG 0416/0420 18012G22KT
LTAI,TAF LTAI 041040Z 0412/0512 18020G30KT 9999 FEW020CB BKN030 TEMPO 0412/0415 -TSRA PROB40 TEMPO 0418/0422 -TSRA BECMG 0420/0423 36006KT PROB40 TEMPO 0506/0509 -TSRA BECMG 0507/0510 16010KT
LTAJ,TAF LTAJ 041040Z 0412/0512 12012KT CAVOK TEMPO 0412/0416 4000 DU BECMG 0416/0418 VRB02KT BECMG 0506/0509 24012KT SCT040 PROB30 TEMPO 0509/0512 -SHRA BKN030
LTAL,TAF LTAL 041040Z 0412/0421 20016G26KT 9999 SCT030 BKN100 TEMPO 0414/0417 -SHRA BKN028 BKN080 TEMPO 0418/0421 -SHRA
LTAN,TAF LTAN 041040Z 0412/0421 18026G38KT 9999 SCT040 BKN100 BECMG 0416/0418 17012KT
LTAO,TAF LTAO 041040Z 0412/0421 VRB02KT 9999 SCT035 BKN200 TEMPO 0412/0416 18012KT
LTAP,TAF LTAP 041040Z 0412/0512 16008KT 9999 FEW040 BKN100 TEMPO 0419/0423 27015G25KT -TSRA FEW030CB BKN035 BECMG 0505/0507 22012KT
LTAR,TAF LTAR 041040Z 0412/0421 18020G35KT 9999 FEW040 BKN180 BECMG 0418/0421 16015KT
LTAS,TAF LTAS 041040Z 0412/0421 34009KT 9999 SCT035 BKN090 TEMPO 0412/0416 18015G25KT -TSRA FEW025CB BKN030 BKN080
LTAT,TAF LTAT 041040Z 0412/0512 VRB02KT 9999 SCT040 BKN200 TEMPO 0412/0416 15012KT BECMG 0505/0506 20012KT
LTAU,TAF LTAU 041040Z 0412/0512 16025G38KT 9999 FEW040 BKN100 BECMG 0420/0423 VRB02KT BECMG 0505/0508 21012KT BKN035 BKN080 TEMPO 0508/0512 21015G25KT -TSRA FEW025CB BKN030
LTAV,TAF LTAV 041040Z 0412/0421 16015G25KT 9999 -SHRA SCT035 SCT100 TEMPO 0412/0416 19020G35KT -TSRA FEW030CB BKN035
LTAW,TAF LTAW 041040Z 0412/0421 16008KT CAVOK BECMG 0417/0419 SCT040 TEMPO 0418/0421 16025G45KT -TSRA FEW030CB BKN032
LTAY,TAF COR LTAY 041040Z 0412/0512 24015G30KT 9999 -TSRA FEW025CB BKN030 BKN090 BECMG 0412/0416 -SHRA SCT035 BECMG 0416/0420 25005KT BECMG 0506/0510 30015KT
LTAZ,TAF LTAZ 041040Z 0412/0512 18020G35KT 9999 FEW040 BKN100 BECMG 0420/0423 VRB02KT BECMG 0500/0503 BKN035 BKN090 BECMG 0505/0508 21012KT TEMPO 0508/0512 23015G25KT -TSRA FEW025CB BKN030
LTBA,TAF LTBA 041040Z 0412/0512 21006KT 9999 SCT030 BKN100 TEMPO 0413/0417 -TSRA FEW017CB BKN025 BECMG 0418/0421 -SHRA BECMG 0421/0424 33012KT PROB30 TEMPO 0501/0505 4000 SHRA FEW017CB BKN025
LTBD,TAF LTBD 041040Z 0412/0421 17014KT 9999 -SHRA SCT035 BKN100 TEMPO 0412/0414 VRB17G27KT -TSRA FEW020CB BKN025 BECMG 0414/0416 VRB02KT TEMPO 0414/0417 -TSRA FEW020CB BKN025
LTBF,TAF LTBF 041040Z 0412/0421 20008KT 9999 -SHRA SCT035 BKN100 TEMPO 0412/0415 -TSRA SCT025CB BKN035
LTBG,TAF LTBG 041040Z 0412/0421 24008KT 9999 SCT035 BKN100 TEMPO 0412/0415 -SHRA TEMPO 0415/0418 -SHRA
LTBH,TAF LTBH 041040Z 0412/0421 18008KT 9999 SCT035 BKN100 TEMPO 0412/0415 -SHRA TEMPO 0415/0418 -SHRA
LTBI,TAF LTBI 041040Z 0412/0421 16015G25KT 9999 -SHRA SCT035 SCT100 TEMPO 0412/0416 19020G35KT -TSRA FEW030CB BKN035
LTBJ,TAF LTBJ 041040Z 0412/0512 17014G24KT 9999 -SHRA SCT030 BKN100 BECMG 0412/0415 VRB02KT TEMPO 0412/0416 4000 TSRA SCT015CB BKN025 TEMPO 0416/0417 4000 TSRA SCT015CB BKN025 PROB30 0502/0506 4000 BR TEMPO 0506/0510 4000 SHRA
LTBK,TAF LTBK 041040Z 0412/0421 16014G24KT 9999 -SHRA SCT030 BKN100 BECMG 0412/0415 VRB02KT TEMPO 0412/0416 4000 TSRA SCT015CB BKN025 TEMPO 0416/0417 4000 TSRA SCT015CB BKN025
LTBL,TAF LTBL 041040Z 0412/0421 14009KT 9999 -SHRA SCT035 BKN100 TEMPO 0412/0415 -TSRA FEW020CB BKN030
LTBN,TAF LTBN 041040Z 0412/0421 16015G25KT 9999 -SHRA SCT035 SCT100 TEMPO 0412/0416 19020G35KT -TSRA FEW030CB BKN035
LTBO,TAF LTBO 041040Z 0412/0421 21015G30KT 9999 -SHRA BKN030 BKN090 PROB40 TEMPO 0417/0421 -TSRA FEW025CB
LTBP,TAF LTBP 041040Z 0412/0421 VRB02KT 9999 SCT035 BKN100 TEMPO 0412/0415 18017G30KT -SHRA FEW018CB BKN030 TEMPO 0415/0419 18013KT -SHRA FEW020CB BKN028
LTBQ,TAF COR LTBQ 041040Z 0412/0421 24009KT 9999 SCT040 BKN090 TEMPO 0412/0415 VRB15G28KT -SHRA SCT025CB BKN035 TEMPO 0415/0419 3500 SHRA FEW025CB BKN035 BKN090
LTBR,TAF LTBR 041040Z 0412/0512 19015KT 9999 -SHRA FEW030TCU SCT035 BKN090 TEMPO 0412/0416 25020G35KT 4500 TSGRRA SCT020CB BKN025 BKN080 BECMG 0416/0418 VRB02KT PROB30 TEMPO 0417/0421 4000 SHRA FEW020CB BKN025 BKN080 BECMG 0422/0502 BKN025 BKN080 PROB40 TEMPO 0502/0506 4500 SHRA TEMPO 0508/0512 31013KT 2500 +SHRA FEW020CB BKN025 BKN080
LTBS,TAF LTBS 041040Z 0412/0512 20018KT 9999 SCT030 BKN100 TEMPO 0412/0415 -SHRA PROB40 TEMPO 0415/0419 -TSRA FEW018CB BKN025 BECMG 0418/0420 23008KT TEMPO 0420/0424 -SHRA PROB40 TEMPO 0504/0508 3000 TSRA SCT015CB BKN025
LTBT,TAF LTBT 041040Z 0412/0421 19013G23KT 9999 -SHRA SCT035 BKN100 TEMPO 0412/0415 -TSRA FEW020CB BKN030 BECMG 0415/0417 13007KT
LTBU,TAF LTBU 041040Z 0412/0512 14012KT 9999 -SHRA SCT030 BKN100 TEMPO 0419/0423 22015G25KT -TSRA FEW017CB BKN025 BECMG 0423/0503 33012KT SCT007 BKN025
LTBV,TAF LTBV 041040Z 0412/0421 16015G25KT 9999 -SHRA FEW020CB SCT030 BKN090 PROB40 0415/0418 4000 TSRA TEMPO 0418/0421 2000 TSRA SCT016CB BKN025
LTBX,TAF LTBX 041040Z 0412/0421 22007KT 9999 SCT035 BKN100 TEMPO 0412/0415 18015G25KT -SHRA FEW018CB BKN030 PROB40 0415/0419 -SHRA FEW020CB BKN028 BECMG 0419/0421 24017KT
LTBY,TAF LTBY 041040Z 0412/0421 16015G25KT 9999 -SHRA SCT035 SCT100 TEMPO 0412/0416 19020G35KT -TSRA FEW030CB BKN035
LTBZ,TAF LTBZ 041040Z 0412/0421 16015G25KT 9999 -SHRA SCT035 SCT100 TEMPO 0412/0416 19020G35KT -TSRA FEW030CB BKN035
LTCA,TAF LTCA 041040Z 0412/0421 12012KT 9999 FEW035 BKN200
LTCB,TAF LTCB 041040Z 0412/0421 09012KT 9999 SCT035 BKN100 BECMG 0418/0420 VRB02KT
LTCC,TAF LTCC 041040Z 0412/0512 11007KT 9999 FEW040 BKN200 BECMG 0412/0414 CAVOK PROB30 TEMPO 0420/0424 4000 DU PROB30 TEMPO 0500/0504 4000 DU PROB30 TEMPO 0504/0508 4000 DU
LTCD,TAF LTCD 041040Z 0412/0421 VRB02KT 9999 FEW045 SCT080 BKN180 BECMG 0412/0415 10013KT
LTCE,TAF LTCE 041040Z 0412/0512 22015KT 9999 SCT040 BKN080 TEMPO 0412/0415 22018G28KT BECMG 0416/0418 VRB02KT BECMG 0504/0506 20018KT TEMPO 0509/0512 20020G30KT -SHRA BKN025 BKN070
LTCF,TAF LTCF 041040Z 0412/0512 22012KT 9999 SCT040 BKN080 BECMG 0420/0422 VRB02KT
LTCG,TAF LTCG 041040Z 0412/0512 11012KT CAVOK BECMG 0503/0505 28009KT SCT035 BKN090 BECMG 0508/0510 10013KT TEMPO 0508/0512 -SHRA
LTCI,TAF LTCI 041040Z 0412/0421 30009KT 9999 SCT030 BKN180
LTCJ,TAF LTCJ 041040Z 0412/0512 VRB02KT CAVOK BECMG 0413/0415 06012KT BECMG 0422/0501 FEW040 SCT100
LTCK,TAF LTCK 041040Z 0412/0421 27008KT 9999 SCT035 BKN180
LTCL,TAF LTCL 041040Z 0412/0421 VRB02KT CAVOK
LTCM,TAF LTCM 041040Z 0412/0421 15016G26KT 8000 FEW004 SCT030 BKN100 TEMPO 0418/0421 -SHRA BKN028 BKN080
LTCN,TAF LTCN 041040Z 0412/0421 10014KT 9999 SCT035 SCT100
LTCO,TAF LTCO 041040Z 0412/0421 22012KT 9999 SCT035 BKN070
LTCP,TAF LTCP 041040Z 0412/0421 07012KT 9999 FEW040 SCT100 BKN200 BECMG 0415/0418 CAVOK
LTCR,TAF LTCR 041040Z 0412/0421 VRB02KT CAVOK BECMG 0414/0416 06014KT
LTCS,TAF LTCS 041040Z 0412/0512 12012KT CAVOK PROB30 TEMPO 0415/0419 12015G25KT 4000 DU PROB40 TEMPO 0419/0423 15015G25KT 4000 BLDU PROB40 TEMPO 0423/0503 15015G25KT 4000 BLDU
LTCT,TAF LTCT 041040Z 0412/0421 VRB02KT 9999 SCT100 BKN180
LTCU,TAF LTCU 041040Z 0412/0421 20008KT 9999 FEW035 BKN200
LTCV,TAF LTCV 041040Z 0412/0512 VRB02KT CAVOK BECMG 0415/0417 03012KT BECMG 0500/0502 FEW040 SCT100
LTCW,TAF LTCW 041040Z 0412/0421 22009KT 9999 SCT030 BKN180
LTDA,TAF LTDA 041040Z 0412/0421 06009KT CAVOK BECMG 0413/0416 24012KT
LTFA,TAF LTFA 041040Z 0412/0421 14009KT 9999 -SHRA SCT035 BKN100 TEMPO 0412/0415 -TSRA FEW020CB BKN030
LTFB,TAF LTFB 041040Z 0412/0421 16013KT 9999 -SHRA SCT035 BKN100 TEMPO 0412/0414 VRB17G27KT 4000 TSRA SCT020CB BKN025 TEMPO 0413/0417 -TSRA FEW015CB BKN025 BECMG 0418/0421 VRB02KT
LTFC,TAF LTFC 041040Z 0412/0512 16025G40KT 9999 -SHRA FEW020CB BKN030 TEMPO 0412/0415 4000 TSRA BECMG 0414/0417 21012KT TEMPO 0417/0421 4000 TSRA BECMG 0419/0422 VRB02KT TEMPO 0423/0502 4000 SHRA BECMG 0505/0508 24012KT
LTFD,TAF LTFD 041040Z 0412/0421 24008KT 9999 -SHRA SCT035 BKN100 TEMPO 0412/0415 -TSRA SCT025CB BKN035
LTFE,TAF LTFE 041040Z 0412/0512 16015G25KT 9999 -SHRA FEW020CB SCT030 BKN090 PROB40 0415/0418 4000 TSRA TEMPO 0418/0421 2000 TSRA SCT016CB BKN025 BECMG 0421/0424 VRB02KT BECMG 0507/0508 26015KT
LTFG,TAF LTFG 041040Z 0412/0421 14015G25KT 9999 SCT030 BECMG 0413/0416 -SHRA BKN025 BECMG 0416/0419 11007KT
LTFH,TAF LTFH 041040Z 0412/0421 VRB02KT 9999 SCT030 BKN100 TEMPO 0418/0421 -SHRA BKN028 BKN080
LTFJ,TAF LTFJ 041040Z 0412/0512 22007KT 9999 SCT035 BKN100 TEMPO 0412/0415 18016G27KT -SHRA FEW018CB BKN030 PROB40 0415/0419 -SHRA FEW020CB BKN028 BECMG 0420/0422 24017KT -SHRA FEW020CB BKN028 BECMG 0503/0506 34007KT
LTFK,TAF LTFK 041040Z 0412/0421 18015KT 9999 SCT025 BKN080 TEMPO 0412/0415 -SHRA TEMPO 0415/0418 -SHRA
LTFM,TAF LTFM 041040Z 0412/0518 02006KT 9999 -SHRA BKN025 BKN080 TEMPO 0417/0421 19015G25KT -TSRA FEW017CB BKN025 BECMG 0423/0502 30014KT BKN008 BKN025 PROB30 TEMPO 0502/0506 4000 SHRA FEW017CB BKN025
LTFO,TAF LTFO 041040Z 0412/0421 06013KT CAVOK BECMG 0414/0417 16013KT
LUKK,TAF LUKK 041108Z 0412/0512 01012KT 9999 OVC008 TEMPO 0412/0420 35015G25KT 4000 RA BR BKN005 BECMG 0420/0422 5000 RA BR OVC006 TEMPO 0422/0512 2000 SHRA BKN003 SCT010CB TEMPO 0508/0512 32016G28KT
LWOH,TAF LWOH 041125Z 0412/0512 36010KT 9999 BKN035 BKN070 TEMPO 0415/0421 RA SCT020 OVC033 PROB40 TEMPO 0421/0506 3000 -SN SCT015 OVC025
LWSK,TAF LWSK 041125Z 0412/0512 33008KT 9999 BKN033 BKN070 TEMPO 0412/0418 01020KT PROB40 TEMPO 0421/0503 5000 -SN SCT015 OVC030
LXGB,TAF LXGB 041051Z 0412/0421 08013KT 9999 FEW015 BKN120 PROB40 TEMPO 0412/0415 SCT020 PROB30 TEMPO 0412/0421 09015G25KT PROB30 TEMPO 0417/0421 SCT014
LYBE,TAF LYBE 041100Z 0412/0512 30012KT 3000 -SN BKN006 BKN020 TX04/0512Z TNM00/0505Z TEMPO 0412/0421 1200 SN BKN003 BKN020 BECMG 0508/0510 7000 NSW SCT010 BKN023
LYBT,TAF LYBT 041100Z 0412/0512 31013KT 3000 -SN BKN006 OVC020 TX04/0512Z TNM00/0506Z TEMPO 0412/0504 1500 SN BKN003 OVC020 BECMG 0508/0511 6000 NSW SCT010 BKN025
LYKV,TAF LYKV 041100Z 0412/0512 31009KT 4000 -SN BKN010 BKN030 OVC067 TX03/0512Z TNM01/0504Z TEMPO 0414/0501 1500 SN BKN005 OVC023 BECMG 0509/0511 6000 NSW SCT010 BKN027
LYNI,TAF LYNI 041100Z 0412/0512 32017G30KT 9999 SCT013 BKN033 TX03/0512Z TNM00/0505Z BECMG 0417/0419 30007KT 4000 -SN BKN010 BKN023 TEMPO 0420/0506 1500 SN BKN005 OVC020 BECMG 0508/0510 31017KT 9999 NSW BKN017
LYPG,TAF LYPG 041100Z 0412/0512 01015G25KT 9999 FEW040 BKN080 TX13/0412Z TN05/0505Z TEMPO 0412/0422 02020G35KT
LYTV,TAF LYTV 041100Z 0412/0512 02015G32KT CAVOK TX14/0412Z TN05/0505Z TEMPO 0412/0415 32012KT
LYVR,TAF LYVR 041100Z 0412/0512 34010KT 9999 BKN008 BKN020 TX04/0512Z TNM01/0505Z TEMPO 0416/0424 5000 -RASN TEMPO 0500/0509 2000 SN BKN003 BKN020
LZIB,TAF LZIB 041115Z 0412/0512 33016KT CAVOK TEMPO 0412/0422 33015G30KT
LZKZ,TAF LZKZ 041115Z 0412/0512 01020KT CAVOK TEMPO 0412/0416 01035G45KT 9999 SCT035 TEMPO 0416/0512 01015G30KT
LZMC,TAF LZMC 041030Z 0412/0421 01010G20KT CAVOK TEMPO 0412/0417 35020G36KT
LZPP,TAF LZPP 041115Z 0412/0421 01020KT CAVOK TEMPO 0412/0420 01015G35KT 9999 SCT040 BECMG 0417/0419 01010KT
LZPW,TAF LZPW 041030Z 0412/0421 01014G32KT 9999 SCT040
LZSL,TAF LZSL 041030Z 0412/0421 01016G30KT CAVOK TEMPO 0412/0416 9999 FEW060
LZTT,TAF LZTT 041115Z 0412/0512 03020KT 9999 SCT023 TEMPO 0412/0418 06020G30KT -SN BECMG 0416/0418 06010KT TEMPO 0416/0422 06015G25KT BECMG 0500/0502 09005KT
LZZI,TAF LZZI 041115Z 0412/0421 05009KT 9999 FEW035 SCT045 TEMPO 0412/0415 05015G25KT -SN
MBGT,MBGT 040915Z 0412/0512 10013KT 9999 SCT025
MBPV,MBPV 040915Z 0412/0512 10013KT 9999 SCT025
MDBH,TAF MDBH 041000Z 0412/0512 00000KT 9999 FEW018 BECMG 0415/0417 13015KT
MDCY,TAF MDCY 041000Z 0412/0512 00000KT 8000-SH SCT016 BECMG 0414/0416 09004KT
MDJB,TAF MDJB 041000Z 0412/0512 00000KT 9999 SCT016 BECMG 0416/0418 18010KT
MDLR,TAF MDLR 041000Z 0412/0512 00000KT 9999 FEW016 BECMG 0416/0420 BKN020
MDPC,TAF MDPC 041000Z 0412/0512 08006KT 9999 FEW022 PROB30 0415/0421 8000 SHRA BKN018 SCT070
MDPP,TAF MDPP 041000Z 0412/0512 00000KT 9999 FEW016 PROB30 0412/0418 8000-RA BKN018 BECMG 0413/0415 09015KT
MDSD,TAF MDSD 041000Z 0412/0512 01006KT 9999 FEW016 BECMG 0416/0418 14008KT
MDST,TAF MDST 041000Z 0412/0512 00000KT 9999 SCT016 BECMG 0219/0221 09014KT
MGGT,MGGT 040415Z 0406/0506 20006KT 9999 FEW016 TX27/0420Z TN15/0412Z TEMPO 0406/0412 00000KT 4000 BR SCT014 BECMG 0414/0416 FEW018 BECMG 0419/0421 8000 FEW020 BECMG 0500/0502 00000KT FEW016
MGMM,MGMM 040415Z 0406/0506 09008KT CAVOK TX36/0420Z TN18/0412Z TEMPO 0408/0412 8000 FEW016 BECMG 0414/0416 FEW018 BECMG 0419/0421 FEW025 BECMG 0500/0502 00000KT CAVOK
MGPB,MGPB 040415Z 0406/0506 00000KT 9999 FEW016 TX30/0420Z TN22/0412Z BECMG 0414/0416 03006KT FEW018 BECMG 0418/0420 FEW020 BECMG 0500/0502 00000KT FEW016
MHLC,TAF MHLC 041010Z 0412/0512 18003KT 9999 FEW026 TX31/0420Z TN20/0512Z BECMG 0420/0422 04013KT
MHLM,TAF MHLM 041010Z 0412/0512 18004KT 9999 FEW028 TX36/0420Z TN20/0512Z BECMG 0422/0500 01011KT
MHPR,TAF MHPR 041105Z 0412/0512 36006KT 9999 FEW050 TX35/0420Z TN19/0512Z BECMG 0419/0421 36010KT
MHRO,TAF MHRO 041010Z 0412/0512 09020KT 9999 FEW022 TX31/0420Z TN25/0512Z BECMG 0504/0506 09018G31KT CAVOK
MHTG,TAF MHTG 041010Z 0412/0512 03005KT 9999 FEW030 TX32/0420Z TN15/0512Z BECMG 0502/0504 00000KT
MKJP,TAF MKJP 032315Z 0400/0424 13015KT 9999 FEW022 BECMG 0404/0406 36006KT BECMG 0415/0417 14022KT FEW022 SCT034
MKJS,TAF MKJS 032315Z 0400/0424 14004KT 9999 FEW022 BECMG 0414/0416 07021KT
MMAA,TAF MMAA 041104Z 0412/0512 26005KT 6SM HZ SKC TX31/0419Z TN24/0412Z FM042000 24010KT P6SM SKC FM050400 24005KT 6SM HZ SCT300
MMAN,TAF MMAN 040511Z 0406/0506 12005KT 6SM HZ SCT200 TEMPO 0412/0415 BKN010 FM041800 13010KT 6SM HZ SCT030 BKN200 TEMPO 0500/0504 6SM -TSRA BKN030CB FM050500 13005KT 6SM HZ BKN200
MMAS,TAF MMAS 040501Z 0406/0506 20005KT P6SM SCT250 FM041800 22012KT P6SM SCT250 TEMPO 0420/0424 22015G25KT FM050300 23005KT P6SM SCT250
MMBT,TAF MMBT 040453Z 0406/0506 00000KT P6SM SCT100 FM041800 20010KT P6SM SCT020 FM050200 00000KT P6SM SCT020 SCT200
MMCB,TAF MMCB 040453Z 0406/0506 00000KT P6SM SCT250 FM041900 22010KT P6SM SCT250 FM050200 00000KT P6SM SCT250
MMCE,TAF MMCE 040519Z 0406/0506 11010KT P6SM SKC FM041000 12020KT P6SM SCT250 FM041600 12015KT P6SM SCT250 FM050200 12010KT P6SM BKN250
MMCL,TAF MMCL 040452Z 0406/0506 14005KT P6SM BKN100 BKN230 FM041900 24010KT P6SM SCT100 BKN230 FM050300 24005KT P6SM SCT100 BKN230
MMCM,TAF MMCM 040519Z 0406/0506 12012KT P6SM SCT020 TEMPO 0410/0414 BKN015 FM041600 12015KT P6SM SCT020 FM050200 12010KT P6SM SCT020 SCT250
MMCN,TAF MMCN 040510Z 0406/0506 20005KT P6SM SCT250 FM041900 24010KT P6SM SKC FM050200 24005KT P6SM SCT250
MMCP,TAF MMCP 040519Z 0406/0506 13008KT P6SM SCT020 TEMPO 0410/0414 3SM BR BKN008 FM041600 13012G25KT P6SM SCT020 FM050000 12010KT P6SM SCT020
MMCS,TAF MMCS 040511Z 0406/0506 26010KT P6SM SKC FM041900 26015G25KT P6SM SKC TEMPO 0420/0424 5SM BLDU FM050400 26010KT P6SM SKC
MMCU,TAF MMCU 040511Z 0406/0506 23008KT P6SM SCT100 BKN200 FM041900 24020KT P6SM SCT100 BKN200 FM050400 24010KT P6SM BKN200
MMCV,TAF MMCV 040533Z 0406/0506 16008KT 6SM HZ SCT020 TEMPO 0410/0414 3SM BR SCT015 FM041500 16020KT 6SM HZ BKN250 FM050100 16010KT P6SM BKN250
MMCZ,TAF MMCZ 041112Z 0412/0512 00000KT 6SM HZ SCT015 FM041800 13010KT 6SM HZ SCT020 FM050300 13005KT 6SM HZ SCT015
MMDO,TAF MMDO 040510Z 0406/0506 20008KT P6SM SCT100 BKN250 FM041800 24015KT P6SM SCT100 OVC250 TEMPO 0420/0424 23015G25KT FM050200 23008KT P6SM SCT250
MMEP,TAF MMEP 040501Z 0406/0506 18005KT P6SM BKN250 FM041800 35008KT P6SM BKN250 FM050200 00000KT P6SM SCT250
MMGL,TAF MMGL 041107Z 0412/0512 28005KT 6SM HZ BKN300 TX32/0421Z TN16/0412Z FM042000 25015KT P6SM BKN300 FM050500 24005KT P6SM BKN300
MMGM,TAF MMGM 040510Z 0406/0506 20005KT P6SM SCT250 FM041800 200015KT P6SM SKC FM050200 20005KT P6SM SCT250
MMHO,TAF MMHO 040452Z 0406/0506 00000KT P6SM SCT200 FM042100 24015KT P6SM SCT200 FM050400 24005KT P6SM SCT200
MMIA,TAF MMIA 040501Z 0406/0506 26005KT P6SM SCT250 FM041600 25015KT P6SM SCT250 FM050200 24005KT P6SM SCT020 SCT250
MMIO,TAF MMIO 040511Z 0406/0506 00000KT P6SM BKN200 FM041800 03010KT P6SM BKN200 FM050400 03005KT P6SM BKN200
MMLM,TAF MMLM 040510Z 0406/0506 25005KT P6SM BKN250 FM041700 25010KT P6SM SCT250 FM050200 24005KT P6SM SKC
MMLO,TAF MMLO 040501Z 0406/0506 23005KT P6SM SCT250 FM041600 23008KT P6SM BKN250 FM050200 24005KT P6SM SCT250
MMLP,TAF MMLP 040452Z 0406/0506 16010KT P6SM SCT100 BKN200 FM041900 34010KT P6SM SCT100 BKN200 FM050400 16005KT P6SM BKN200
MMLT,TAF MMLT 040510Z 0406/0506 03010KT P6SM BKN250 FM041600 03015KT P6SM SCT250 FM050200 03005KT P6SM SCT250
MMMA,TAF MMMA 040533Z 0406/0506 16008KT 6SM HZ BKN012 BKN250 FM041400 16010G20KT P6SM SCT020 BKN200 FM041600 16015G30KT P6SM SCT020 BKN250 FM050000 16012KT P6SM SCT020 OVC200
MMMD,TAF MMMD 041112Z 0412/0512 13010KT 6SM HZ SKC TX36/0419Z TN22/0412Z FM041600 14010G20KT P6SM BKN025 FM050300 14010KT 6SM HZ SKC
MMML,TAF MMML 040452Z 0406/0506 30020KT P6SM SKC FM041800 30010G20KT P6SM SKC TEMPO 0419/0423 4SM BLDU FM050400 33005KT P6SM SKC
MMMM,TAF MMMM 041107Z 0412/0512 00000KT 6SM HZ SKC FM042000 24010KT 6SM HZ SCT300 FM050300 24005KT 6SM HZ SCT300
MMMT,TAF MMMT 040519Z 0406/0506 36005KT P6SM SCT020 SCT200 TEMPO 0410/0414 3SM BR BKN010 FM041600 36012KT P6SM SCT020 BKN250 FM050200 36008KT P6SM SCT020 BKN250
MMMV,TAF MMMV 040511Z 0406/0506 26005KT P6SM BKN200 FM041800 22010KT P6SM BKN200 FM050400 06005KT 6SM HZ BKN200
MMMX,TAF MMMX 041104Z 0412/0512 04005KT 6SM HZ SKC TX30/0421Z TN15/0412Z FM042100 13010KT 6SM HZ SCT025 BKN200 TEMPO 0422/0502 SCT020CB FM050300 14010KT 6SM HZ SCT200
MMMY,TAF MMMY 041113Z 0412/0512 04005KT 6SM HZ BKN250 TX37/0421Z TN22/0412Z FM041800 13010KT 6SM HZ SCT030 BKN250 TEMPO 0500/0504 6SM -TSRA BKN020CB FM050500 13005KT 6SM SCT015 BKN250
MMMZ,TAF MMMZ 041110Z 0412/0512 00000KT P6SM OVC240 TX29/0420Z TN17/0412Z FM041800 25010KT P6SM SCT090 BKN240 FM050400 24005KT P6SM BKN240
MMNL,TAF MMNL 040533Z 0406/0506 16008KT P6SM BKN250 FM041600 16012KT P6SM BKN250 FM050200 12005KT P6SM BKN250
MMOX,TAF MMOX 040453Z 0406/0506 16005KT P6SM SCT250 FM041900 16010KT P6SM SCT020 SCT250 FM050200 15005KT P6SM SCT200
MMPA,TAF MMPA 040533Z 0406/0506 06005KT 5SM HZ SCT010 SCT250 TEMPO 0410/0414 1SM BR BKN008 FM041800 08008KT 6SM HZ BKN250 FM050200 08005KT 4SM HZ SCT010 BKN250
MMPB,TAF MMPB 040453Z 0406/0506 36005KT P6SM SCT250 FM041800 16010KT P6SM SCT020 FM050200 03005KT P6SM SCT250
MMPG,TAF MMPG 040533Z 0406/0506 12005KT P6SM BKN200 FM041500 12010KT P6SM BKN250 FM042100 24015KT P6SM BKN250 FM050300 33015KT P6SM BKN250
MMPN,TAF MMPN 040501Z 0406/0506 00000KT P6SM SCT250 FM041900 18010KT P6SM BKN250 FM050200 00000KT P6SM SCT250
MMPQ,TAF MMPQ 040519Z 0406/0506 36005KT P6SM SCT250 FM041600 08008KT 6SM HZ SCT250 FM050200 00000KT 5SM HZ SCT200
MMPR,TAF MMPR 041107Z 0412/0512 00000KT P6SM BKN200 TX27/0421Z TN18/0412Z FM041800 22010KT P6SM BKN200 FM050300 24005KT P6SM BKN200
MMPS,TAF MMPS 040453Z 0406/0506 02005KT P6SM SCT020 SCT250 FM041700 22010KT P6SM SCT020 SCT250 FM050200 03005KT P6SM SCT020 SCT250
MMQT,TAF MMQT 040501Z 0406/0506 24005KT P6SM SCT020 FM041800 24012KT P6SM SCT020 BKN250 PROB40 0423/0503 5SM TSRA BKN015CB FM050300 23005KT P6SM SCT020 BKN250
MMRX,TAF MMRX 040533Z 0406/0506 16010KT 6SM HZ BKN012 TEMPO 0410/0414 3SM BR HZ FM041400 16010G20KT P6SM SCT020 BKN250 FM041700 16015G30KT P6SM BKN250 FM050000 16015KT P6SM BKN250
MMSD,TAF MMSD 040510Z 0406/0506 20005KT P6SM OVC250 FM041800 13012KT P6SM SCT250 FM050000 30008KT P6SM SKC
MMSL,TAF MMSL 040510Z 0406/0506 30008KT P6SM SCT120 OVC250 FM041800 24015KT P6SM SCT250 FM050200 30008KT P6SM SCT250
MMSM,TAF MMSM 041104Z 0412/0512 00000KT 6SM HZ SKC FM042000 13010KT 6SM HZ SCT020 BKN200 TEMPO 0423/0503 BKN020CB FM050500 13005KT 6SM HZ SCT200
MMSP,TAF MMSP 041107Z 0412/0512 00000KT 6SM HZ SCT230 TX32/0420Z TN15/0412Z FM041800 24010KT P6SM SCT025 BKN230 FM050400 24005KT 6SM HZ BKN230
MMTC,TAF MMTC 040511Z 0406/0506 00000KT 6SM HZ SCT100 BKN230 FM041900 23010KT P6SM BKN230 FM050300 16005KT P6SM BKN230
MMTG,TAF MMTG 040500Z 0406/0506 33005KT 6SM HZ SCT020 BKN080 FM041000 00000KT 6SM HZ SCT015 FM042100 26010KT P6SM SCT030 FM050300 24005KT 6SM HZ SCT015
MMTJ,TAF MMTJ 041110Z 0412/0512 36007KT 6SM HZ SKC TX15/0421Z TN08/0412Z FM042000 28015KT P6SM SCT030 FM050300 03005KT 6SM HZ SCT200
MMTM,TAF MMTM 040439Z 0406/0506 12010KT 3SM HZ BKN010 TEMPO 0412/0415 1SM BR HZ BKN010 OVC010 FM041800 13015KT 5SM HZ BKN015 FM050300 13010KT 5SM HZ SCT015
MMTO,TAF MMTO 041104Z 0412/0512 00000KT 6SM HZ SKC TX27/0421Z TN07/0412Z FM041800 16010KT 6SM HZ SCT020 SCT200 FM050400 15005KT 6SM HZ SCT200
MMTP,TAF MMTP 041112Z 0412/0512 00000KT P6SM SCT090 FM041600 25010KT 6SM HZ BKN030 BECMG 0420/0421 SCT030 FM050300 24005KT 6SM HZ SCT020
MMUN,TAF MMUN 041112Z 0412/0512 12010KT 6SM HZ SCT015 TX30/0418Z TN26/0412Z FM041600 14018KT 6SM HZ SCT020 FM050300 13008KT 6SM HZ SCT015
MMVA,TAF MMVA 040519Z 0406/0506 06005KT P6SM SCT250 FM042000 08008KT P6SM SCT250 FM050200 08005KT 6SM HZ BKN250
MMVR,TAF MMVR 040439Z 0406/0506 12005KT 6SM HZ SKC TX34/0419Z TN22/0412Z TEMPO 0412/0415 2SM BR BKN010 FM041800 12015KT 6SM HZ SCT015 FM050300 13010KT 5SM HZ SCT015
MMZC,TAF MMZC 041107Z 0412/0512 18010KT P6SM SCT120 BKN200 TX28/0421Z TN14/0412Z FM041800 20010G20KT P6SM BKN200 FM050400 20012KT P6SM BKN200
MMZH,TAF MMZH 040453Z 0406/0506 00000KT P6SM SCT250 FM041700 24010KT P6SM SCT250 FM050200 00000KT P6SM SCT020 SCT250
MMZO,TAF MMZO 040445Z 0406/0506 00000KT P6SM SKC FM042000 22010KT P6SM BKN020 FM050100 24005KT 6SM HZ SKC
MNBL,MNBL 032135Z 0400/0424 09008KT 9999 SCT018 TEMPO 0403/0413 34008KT FEW019 BECMG 0414/0416 05012KT BKN022 TEMPO 0415/0422 08012G22KT
MNMG,MNMG 041120Z 0412/0512 14004KT 9999 FEW022 TEMPO 0415/0418 09014KT 9999 SCT020 TEMPO 0419/0423 08015G30KT FEW023 SCT300
MNPC,MNPC 032135Z 0400/0424 08008KT 9999 SCT016 TEMPO 0403/0412 35008KT BECMG 0412/0414 07012KT SCT019
MPDA,TAF MPDA 041100Z 0412/0424 04008KT 9999 FEW020 TEMPO 0412/0414 VRB02KT TEMPO 0419/0423 20012KT
MPMG,TAF MPMG 041100Z 0412/0424 34008KT 9999 FEW020 TEMPO 0418/0422 36015KT
MPPA,TAF MPPA 041100Z 0412/0518 36008KT 9999 FEW020 TEMPO 0412/0414 VRB02KT TEMPO 0418/0422 01016KT
MPSM,TAF MPSM 041100Z 0412/0518 35008KT 9999 FEW020 TEMPO 0418/0422 36015KT
MPTO,TAF MPTO 041100Z 0412/0518 34008KT 9999 FEW020 TEMPO 0412/0414 VRB02KT TEMPO 0418/0422 36016KT TEMPO 0506/0510 CAVOK
MRLB,MRLB 040504Z 0406/0506 09015KT CAVOK TX34/0420Z TN22/0411Z TEMPO 0409/0414 25003KT 
MRLM,MRLM 040504Z 0406/0506 25006KT 9999 FEW025 BKN100 TX29/0419Z TN21/0411Z TEMPO 0406/0424 DZ OVC080 BECMG 0415/0418 04007KT 
MROC,MROC 040504Z 0406/0506 11013KT 9999 FEW035 TX30/0419Z TN19/0411Z TEMPO 0406/0420 10015G26KT 
MRPV,MRPV 040504Z 0406/0506 09014KT 9999 FEW030 TX26/0418Z TN18/0410Z 
MSLP,TAF MSLP 040925Z 0412/0512 04005KT CAVOK TX35/0418Z TN21/0510Z FM041500 13008KT CAVOK TEMPO 0420/0424 18010KT 9999 FEW060 FM050000 VRB02KT CAVOK FM050400 06005KT CAVOK
MSSS,TAF MSSS 040925Z 0412/0512 34005KT CAVOK TX32/0420Z TN21/0512Z FM041700 12008KT 9999 FEW030 FM050000 34005KT CAVOK
MTCH,TAF MTCH 041100Z 0412/0512 02010KT 9000 SCT020 BECMG 0414/0418 03010G20KT 9999 TEMPO 0420/0506 VRB02KT FEW018 SCT080
MTPP,TAF MTPP 041100Z 0412/0512 12008KT 9000 SCT020 FMO41500 10014KT 9999 FEW024 BECMG 0418/0422 29010KT SCT024CB PROB30 TEMPO 0502/0506 4800 -SHRA FM050700 12005KT 9000 FEW020
MUCC,MUCC 041100Z 0412/0512 09006KT 9000 FEW020 BECMG 0413/0415 06013KT SCT020 BECMG 0502/0504 10006KT
MUCF,MUCF 041100Z 0412/0424 VRB03KT 9000 FEW020 BECMG 0414/0416 22010KT SCT020
MUCL,MUCL 041100Z 0412/0424 12012KT 9000 SCT020
MUCM,MUCM 041100Z 0412/0512 04006KT 9000 FEW020 BECMG 0413/0415 05012KT SCT020 BECMG 0502/0504 VRB03KT
MUCU,MUCU 041100Z 0412/0512 36005KT 9000 FEW020 BECMG 0414/0415 17008KT SCT020 TEMPO 0420/0424 BKN020 BECMG 0501/0502 01005KT
MUGM,TAF MUGM 0407/0507 32006KT 9999 FEW020 QNH2992INS FM041500 09012KT 9999 FEW030 QNH2997INS FM041600 11020G25KT 9999 FEW030 QNH2991INS FM042200 10013KT 9999 FEW030 QNH2993INS FM050100 32006KT 9999 FEW030 QNH2995INS TX31/0416Z TN22/0411Z FN00172
MUHA,MUHA 041100Z 0412/0512 VRB03KT 9000 SCT030 BECMG 0413/0415 14012KT BECMG 0417/0419 VRB05KT
MUHG,MUHG 041100Z 0412/0512 07006KT 9000 FEW030 BECMG 0413/0415 05013KT SCT020 BECMG 0503/0505 VRB03KT
MUSC,MUSC 041100Z 0412/0512 VRB03KT 9000 FEW020 BECMG 0413/0415 07012KT SCT020 BECMG 0502/0504 VRB03KT
MUVR,MUVR 041100Z 0412/0512 VRB03KT 9000 FEW020 BECMG 0413/0415 08012KT SCT020 BECMG 0502/0504 09006KT
MWCB,TAF MWCB 041100Z 0412/0512 09011KT 9999 FEW018 PROB30 TEMPO 0418/0422 9999 SHRA SCT016
MWCR,TAF MWCR 041100Z 0412/0512 09011KT 9999 FEW018 PROB30 TEMPO 0422/0502 9999 SHRA SCT016
MYGF,TAF COR MYGF 040915Z 0412/0512 15010KT 9999 SCT025
MYNN,MYNN 040915Z 0412/0512 13010KT 9999 SCT025
MZBZ,TAF MZBZ 041100Z 0412/0512 12012KT 9999 SCT023
NCRG,TAF NCRG 041115Z 0412/0512 11005KT 9999 FEW060 PROB30 TEMPO 0412/0417 5000 SHRA BKN015
NFFN,TAF NFFN 041113Z 0412/0512 08005KT 9999 FEW028
NFNA,TAF NFNA 041115Z 0412/0512 VRB03KT 9999 SCT020 PROB40 0415/0418 0600 FG PROB30 TEMPO 0501/0506 5000 SHRA BKN018
NFTF,TAF NFTF 041116Z 0412/0512 14006KT 9999 SCT016
NFTV,TAF NFTV 041116Z 0412/0512 VRB03KT 9999 SCT016 PROB40 TEMPO 0412/0419 5000 TSRA FEW018CB
NGFU,TAF NGFU 041119Z 0412/0512 VRB03KT 3333 FEW016 SCT020 PROB30 TEMPO 0412/0418 5000 TSRA FEW015CB
NGTA,TAF COR NGTA 041120Z 0412/0512 08009KT 9999 FEW018 SCT040 PROB30 TEMPO 0412/0420 5000 SHRA BKN018
NIUE,TAF NIUE 041118Z 0412/0512 VRB03KT 9999 SCT018 BKN030 PROB30 TEMPO 0412/0418 5000 SHRA BKN015
NLWF,TAF NLWF 041100Z 0412/0512 10008KT 9999 SCT020 TEMPO 0412/0512 4000 SHRA FEW020CB PROB30 TEMPO 0412/0506 2000 +SHRA SCT020CB
NLWW,TAF NLWW 041100Z 0412/0512 VRB02KT 9999 SCT020 TEMPO 0412/0506 4000 SHRA FEW020CB
NSFA,TAF NSFA 041117Z 0412/0512 VRB03KT 9999 SCT020 SCT100 PROB30 TEMPO 0416/0420 5000 TSRA FEW018CB
NSTU,NSTU 041131Z 0412/0512 VRB06KT P6SM SCT020
NTAA,TAF NTAA 041100Z 0412/0518 VRB05KT 9999 FEW023 BKN260 PROB30 TEMPO 0513/0517 VRB15G25KT 3000 SHRA FEW017CB SCT020
NVSC,TAF NVSC 041100Z 0412/0512 VRB02KT 9999 SCT022 BKN045 PROB30 INTER 0415/0418 9000 SHRA SCT010 BKN018
NVSG,TAF NVSG 041100Z 0412/0512 VRB02KT 9999 SCT025 BKN030 PROB30 INTER 0412/0415 9000 SHRA SCT010 BKN018
NVSL,TAF NVSL 041100Z 0412/0512 VRB03KT 9999 SCT022 BKN050 PROB30 INTER 0415/0418 9000 SHRA SCT010 BKN018
NVSP,TAF NVSP 041100Z 0412/0512 VRB02KT 9999 SCT025 BKN050 PROB30 INTER 0415/0418 9000 SHRA SCT010 BKN018
NVSS,TAF NVSS 041100Z 0412/0512 VRB02KT 9999 SCT025
NVVA,TAF NVVA 041100Z 0412/0512 VRB02KT 9999 SCT020 BKN040 PROB30 INTER 0412/0414 9000 SHRA BKN018
NVVV,TAF NVVV 041100Z 0412/0512 VRB02KT 9999 SCT022 BKN040 PROB30 INTER 0412/0414 9000 SHRA SCT010 BKN020
NVVW,TAF NVVW 041100Z 0412/0512 VRB02KT 9999 SCT020 BKN030 PROB30 INTER 0412/0414 9000 SHRA BKN018
NWWD,TAF NWWD 040500Z 0406/0506 07008KT 9999 FEW030 BKN200 PROB40 TEMPO 0406/0410 SHRA FEW020TCU PROB30 TEMPO 0406/0408 4000 SCT020CB BECMG 0500/0502 23010KT PROB40 TEMPO 0503/0506 4000 SHRA FEW020TCU
NWWE,TAF NWWE 031700Z 0318/0418 10010KT 9999 FEW010 SCT016 PROB40 TEMPO 0406/0418 3000 SHRA BKN010 FEW016CB
NWWK,TAF NWWK 040500Z 0406/0506 VRB02KT 9999 FEW025 BKN200 PROB40 TEMPO 0406/0412 SHRA FEW020TCU PROB30 TEMPO 0406/0409 3000 TSRA BKN014 SCT018CB PROB40 TEMPO 0503/0506 4000 SHRA FEW020TCU
NWWL,TAF NWWL 041100Z 0412/0512 08005KT 9999 SCT016 TEMPO 0500/0512 3000 SHRA BKN014 FEW020CB PROB40 TEMPO 0500/0512 1500 TSRA BKN010 SCT016CB 
NWWM,TAF NWWM 041100Z 0412/0512 05005KT 9999 FEW040 BKN180 TEMPO 0500/0509 4000 SHRA BKN014 FEW020CB PROB30 TEMPO 0500/0506 2000 TSRA BKN010 SCT016CB
NWWR,TAF NWWR 041100Z 0412/0512 VRB02KT 9999 SCT016 TEMPO 0415/0512 4000 SHRA FEW020TCU PROB30 TEMPO 0415/0512 2500 SHRA BKN014 FEW020CB
NWWU,TAF NWWU 031700Z 0318/0418 VRB02KT 9999 SCT018 TEMPO 0318/0406 4000 SHRA BKN014 FEW018TCU PROB30 TEMPO 0318/0321 2000 TSRA BKN009 FEW016CB BECMG 0321/0324 12008KT BECMG 0406/0409 VRB02KT PROB40 TEMPO 0406/0415 2000 TSRA BKN008 FEW016CB
NWWW,TAF NWWW 041100Z 0412/0512 VRB02KT 9999 FEW040 BKN180 BECMG 0422/0424 26010KT TEMPO 0500/0509 4000 SHRA BKN014 FEW020CB PROB30 TEMPO 0500/0506 2000 TSRA BKN010 SCT016CB
NZAA,TAF NZAA 041100Z 0412/0518 16005KT CAVOK BECMG 0422/0500 22010KT BECMG 0510/0512 VRB02KT
NZCH,TAF NZCH 041109Z 0412/0518 06010KT CAVOK BECMG 0412/0414 VRB02KT PROB30 0416/0419 2000 BR BECMG 0502/0504 32012KT TEMPO 0502/0508 32015G25KT BECMG 0508/0510 02005KT FM051800 18010KT 9999 SCT015 BKN030
NZQN,TAF NZQN 041109Z 0412/0506 01005KT 9999 SCT060 BECMG 0418/0420 25010KT BECMG 0500/0502 25015G25KT TEMPO 0500/0504 7000 RA PROB40 TEMPO 0500/0504 32015G25KT
NZWN,TAF NZWN 041100Z 0412/0518 01005KT CAVOK BECMG 0421/0423 36015G25KT
OBBI,TAF OBBI 041100Z 0412/0518 32012KT CAVOK
OEAB,TAF OEAB 041100Z 0412/0518 20014KT 9999 SCT020 PROB30 TEMPO 0412/0418 FEW025CB BECMG 0418/0420 19008KT FEW020 BECMG 0506/0508 20014KT TEMPO 0508/0518 SCT020 FEW025CB
OEAH,TAF OEAH 041000Z 0412/0518 34016KT CAVOK BECMG 0418/0420 VRB03KT BECMG 0504/0506 32014KT
OEAO,TAF OEAO 041100Z 0412/0518 16014KT 7000 NSC BECMG 0418/0420 01010KT CAVOK BECMG 0508/0510 18008KT
OEBA,TAF OEBA 041100Z 0412/0518 22013KT 7000 FEW030 PROB30 TEMPO 0412/0418 FEW025CB SCT030 BECMG 0418/0420 11008KT BECMG 0508/0510 22014KT SCT030 TEMPO 0508/0518 FEW025CB
OEBH,TAF OEBH 041100Z 0412/0518 12014KT 7000 FEW030 TEMPO 0412/0502 3000 BLDU BECMG 0510/0512 25012KT FEW030 PROB40 TEMPO 0510/0518 FEW025CB SCT030
OEDF,TAF OEDF 041000Z 0412/0518 36016KT CAVOK BECMG 0418/0420 30008KT BECMG 0506/0508 35014KT
OEDM,TAF OEDM 041100Z 0412/0518 12012KT CAVOK BECMG 0506/0508 17010KT
OEDR,TAF OEDR 041000Z 0412/0518 36016KT CAVOK BECMG 0418/0420 30008KT BECMG 0506/0508 35014KT
OEGN,TAF OEGN 041100Z 0412/0518 24012KT 7000 FEW030 PROB30 TEMPO 0412/0418 SCT030 FEW035CB BECMG 0418/0420 34005KT TEMPO 0500/0510 SCT030 FEW035CB BECMG 0506/0508 24012KT
OEGS,TAF OEGS 041100Z 0412/0518 08010KT CAVOK BECMG 0506/0508 18010KT
OEGT,TAF OEGT 041100Z 0412/0518 16015KT 7000 NSC PROB40 TEMPO 0412/0416 3000 BLDU BECMG 0418/0420 34010KT BECMG 0510/0512 33015KT
OEHL,TAF OEHL 041100Z 0412/0518 17010KT CAVOK BECMG 0420/0422 27008KT BECMG 0504/0506 20012KT
OEJN,TAF OEJN 041100Z 0412/0518 32012KT 9999 FEW040 SCT100 BECMG 0418/0420 01005KT 7000 SCT040 BECMG 0506/0508 29012KT
OEKJ,TAF OEKJ 041100Z 0412/0518 02010KT CAVOK BECMG 0418/0420 VRB03KT
OEKM,TAF OEKM 041100Z 0412/0518 20014KT 9999 SCT020 PROB30 TEMPO 0412/0418 FEW025CB BECMG 0418/0420 19008KT FEW020 BECMG 0506/0508 20014KT TEMPO 0508/0518 SCT020 FEW025CB
OEMA,TAF OEMA 041100Z 0412/0518 15014KT 7000 NSC BECMG 0418/0420 VRB03KT
OENG,TAF OENG 041100Z 0412/0518 08010KT 7000 NSC TEMPO 0412/0502 3000 DU BECMG 0420/0422 VRB03KT BECMG 0506/0508 10010KT
OEPA,TAF OEPA 041000Z 0412/0518 36008KT CAVOK BECMG 0416/0418 VRB03KT BECMG 0506/0508 22010KT
OEPS,TAF OEPS 040900Z 0409/0515 35009KT 9999 SKC QNH3005INS BECMG 0416/0417 VRB06KT 9999 SKC QNH3004INS BECMG 0508/0509 28009KT 9999 SKC QNH3001INS TX28/0413Z TN11/0502Z
OERF,TAF OERF 041100Z 0412/0518 12010KT CAVOK BECMG 0422/0500 19012KT 7000 NSC
OERK,TAF OERK 041100Z 0412/0518 01008KT CAVOK BECMG 0418/0420 VRB03KT
OERR,TAF OERR 041100Z 0412/0518 17012KT CAVOK BECMG 0504/0506 24015KT 7000 NSC PROB30 TEMPO 0504/0514 3500 BLDU
OESH,TAF OESH 041100Z 0412/0518 06014KT 7000 FEW040 TEMPO 0412/0502 3000 BLDU DU BECMG 0420/0422 08008KT SCT040
OESK,TAF OESK 041100Z 0412/0518 16013KT CAVOK BECMG 0506/0508 26012KT
OETB,TAF OETB 041100Z 0412/0518 22012KT CAVOK BECMG 0420/0422 VRB03KT BECMG 0506/0508 30010KT
OETF,TAF OETF 041100Z 0412/0518 26012KT 7000 SCT030 BECMG 0418/0420 VRB03KT BECMG 0500/0502 16008KT 6000 NSC BECMG 0510/0512 27014KT 9999 FEW030 PROB30 TEMPO 0510/0518 FEW025CB SCT030
OETR,TAF OETR 041100Z 0412/0518 19015KT 7000 NSC PROB40 TEMPO 0412/0416 3000 BLDU BECMG 0418/0420 VRB03KT BECMG 0504/0506 28013KT
OEWD,TAF OEWD 041100Z 0412/0518 10012KT 7000 NSC PROB40 TEMPO 0412/0502 4000 DU BECMG 0418/0420 10008KT
OEWJ,TAF OEWJ 041100Z 0412/0518 34013KT CAVOK BECMG 0420/0422 01005KT BECMG 0506/0508 33015KT
OEYN,TAF OEYN 041100Z 0412/0518 26013KT CAVOK BECMG 0418/0420 VRB03KT 7000 NSC BECMG 0508/0510 27014KT
OIAA,TAF OIAA 040530Z 0406/0512 30014KT 7000 NSC TEMPO 0406/0415 30018G28KT PROB30 0409/0415 5000 SA BECMG 0422/0423 27006KT TEMPO 0509/0512 27016KT
OIAW,TAF OIAW 040530Z 0406/0512 30006KT 7000 NSC TEMPO 0409/0415 30016KT PROB30 0500/0505 5000 HZ PROB40 0509/0512 30016KT
OIBB,TAF OIBB 041110Z 0412/0421 29008KT CAVOK TEMPO 0412/0415 29014G24KT PROB30 4000 SA TEMPO 0415/0421 28012G22KT PROB30 4000 SA
OIBK,TAF OIBK 040530Z 0406/0512 33008KT 7000 NSC BECMG 0408/0410 27020KT TEMPO 0411/0415 27026G36KT 4000 SA TEMPO 0415/0421 30026G36KT 4000 SA BECMG 0421/0422 30010KT 4000 HZ/BR BECMG 0500/0501 36006KT BECMG 0503/0505 7000
OIBP,TAF OIBP 041110Z 0412/0421 29008KT CAVOK TEMPO 0412/0415 29014G24KT PROB30 4000 SA TEMPO 0415/0421 27014G24KT PROB30 4000 SA
OICC,TAF OICC 041110Z 0412/0421 05008KT 8000 FEW045 TEMPO 0412/0418 27014KT
OICI,TAF OICI 040530Z 0406/0512 03006KT CAVOK PROB40 0403/0409 09014KT TEMPO 0409/0415 27018KT TEMPO 0509/0512 27018KT
OIFM,TAF OIFM 040530Z 0406/0512 30006KT 8000 FEW035 TEMPO 0406/0409 27018KT TEMPO 0409/0415 24018KT PROB40 0415/0418 03018KT TEMPO 0500/0506 4000 BR/HZ TEMPO 0508/0512 23016KT
OIGG,TAF OIGG 041110Z 0412/0421 03008KT 8000 FEW025 SCT100 TEMPO 0412/0417 03012KT TEMPO 0418/0421 4000 BR SCT025 PROB30 TEMPO 0420/0421 2000 BKN020
OIIE,TAF OIIE 040530Z 0406/0512 31008KT 8000 FEW040 TEMPO 0406/0412 32020KT PROB40 TEMPO 0412/0424 32018G26KT 3000 SA
OIII,TAF OIII 040530Z 0406/0512 14006KT 8000 FEW040 TEMPO 0409/0412 FEW035TCU SCT040 SCT100 PROB40 0415/0421 26024KT 4000 SA
OIIP,TAF OIIP 041110Z 0412/0421 31008KT 6000 FEW035 TEMPO 0412/0415 31020KT TEMPO 0415/0421 27018KT
OIKB,TAF OIKB 040530Z 0406/0512 18006KT 7000 FEW025 BECMG 0407/0408 24012KT TEMPO 0408/0414 24022KT BECMG 0420/0421 36006KT 4000 BR TEMPO 0500/0505 2500 BR BECMG 0505/0506 7000 BECMG 0507/0809 24012KT
OIKK,TAF OIKK 040530Z 0406/0512 27006KT 8000 NSC TEMPO 0409/0414 33016KT TEMPO 0414/0418 03018KT
OIMM,TAF OIMM 040530Z 0406/0512 14006KT 8000 SCT035 TEMPO 0409/0418 14012KT 6000 FEW035CB SCT040 BKN100 PROB30 TEMPO 0421/0505 4000 HZ/BR
OING,TAF OING 041110Z 0412/0421 30008KT 8000 FEW030 SCT100 TEMPO 0412/0417 27018KT
OINZ,TAF OINZ 041110Z 0412/0421 01008KT 8000 FEW040 TEMPO 0412/0417 01016KT FEW040TCU SCT100
OISL,TAF OISL 040530Z 0406/0512 23006KT CAVOK TEMPO 0409/0415 27016KT PROB40 0509/0512 12014KT
OISS,TAF OISS 040530Z 0406/0512 03006KT CAVOK PROB40 0409/0412 09016KT TEMPO 0509/0512 12014KT
OITL,TAF OITL 041110Z 0412/0421 10008KT 7000 FEW030 SCT100 TEMPO 0412/0418 10018KT FEW030TCU FEW040CB PROB30 TEMPO 0413/0418 09018KT TEMPO 0415/0418 4000 BR SCT030 TEMPO 0418/0421 26014KT
OITR,TAF OITR 040530Z 0406/0512 16006KT 8000 FEW040 TEMPO 0412/0415 14018KT FEW035TCU SCT040 SCT100
OITT,TAF OITT 040530Z 0406/0512 26008KT 8000 FEW030 TEMPO 0418/0421 26012KT FEW035TCU SCT040 SCT100
OIYY,TAF OIYY 041110Z 0412/0421 33008KT 8000 FEW040 TEMPO 0412/0418 33010G20KT PROB30 4000 SA
OIZH,TAF OIZH 040530Z 0406/0512 05012KT 7000 NSC TEMPO 0408/0414 03024KT FEW035TCU BECMG 0417/0418 33006KT PROB40 0418/0424 FEW035TCU SCT100 BECMG 0507/0508 03010KT PROB30 0509/0512 03020KT
OJAI,TAF OJAI 041012Z 0412/0518 25014KT 5000 HZ NSC PROB30 0414/0418 26018KT 4000 BLDU PROB40 0512/0518 29022KT 3000 BLDU
OJAM,TAF OJAM 041012Z 0412/0518 24012KT 5000 HZ NSC PROB30 0414/0418 26016KT 4000 BLDU PROB40 0512/0518 29020KT 3000 BLDU
OJAQ,TAF OJAQ 041012Z 0412/0518 22012KT 5000 HZ NSC PROB30 0412/0418 18016KT 4000 BLDU BECMG 0500/0502 35016KT
OKAS,TAF OKAS 040800Z 0408/0514 31012G20KT 9000 BLDU SKC QNH3000INS TEMPO 0408/0414 32015G25KT 8000 BLDU BECMG 0414/0415 31010G15KT 9999 NSW SKC QNH2994INS BECMG 0503/0504 VRB04KT 9000 HZ SKC QNH2993INS BECMG 0509/0510 30012G18KT 9999 NSW SKC QNH2990INS TX31/0411Z TN15/0503Z
OLBA,TAF OLBA 041000Z 0412/0518 25010KT CAVOK BECMG 0418/0420 15008KT 8000 FEW035 BECMG 0506/0509 23012KT SCT026
OMAA,TAF OMAA 041100Z 0412/0518 31016KT 8000 NSC BECMG 0422/0500 21006KT PROB30 0500/0504 4000 HZ BECMG 0505/0507 32014KT
OMAD,TAF OMAD 041100Z 0412/0518 31015KT 8000 NSC PROB30 0422/0500 21005KT BECMG 0504/0506 32012KT
OMAL,TAF OMAL 041100Z 0412/0518 30012KT 8000 NSC BECMG 0420/0422 18005KT PROB30 0423/0504 3000 BR BECMG 0506/0508 30010KT
OMDB,TAF OMDB 041100Z 0412/0518 27014KT CAVOK BECMG 0418/0420 19005KT BECMG 0507/0509 28010KT BECMG 0516/0518 20005KT
OMDW,TAF OMDW 041100Z 0412/0518 28015KT CAVOK BECMG 0418/0420 18005KT PROB30 0423/0504 4000 HZ BECMG 0508/0510 30012KT BECMG 0516/0518 22005KT
OMFJ,TAF OMFJ 041100Z 0412/0518 29012KT 8000 NSC PROB30 TEMPO 0418/0502 30016G28KT 4000 BLDU BECMG 0506/0508 09010KT
OMRK,TAF OMRK 041100Z 0412/0518 27012KT CAVOK BECMG 0416/0418 VRB02KT PROB30 0422/0505 4000 HZ BKN013 BECMG 0507/0509 30010KT BECMG 0515/0517 VRB02KT
OMSJ,TAF OMSJ 041100Z 0412/0518 27014KT CAVOK BECMG 0418/0420 18005KT BECMG 0507/0509 28010KT BECMG 0516/0518 20005KT
OODQ,TAF OODQ 040500Z 0406/0506 33012KT 8000 NSC BECMG 0416/0418 25006KT
OOMS,TAF OOMS 041100Z 0412/0518 01012KT 8000 NSC BECMG 0418/0420 VRB02KT BECMG 0506/0508 01012KT
OOSA,TAF OOSA 040540Z 0406/0512 04010KT 9999 FEW025 BECMG 0408/0410 17010KT BECMG 0417/0419 VRB03KT BECMG 0506/0508 18010KT
OOSH,TAF OOSH 041100Z 0412/0518 03012KT 8000 NSC BECMG 0416/0418 25005KT BECMG 0506/0508 04012KT
OPBW,TAF OPBW 040945Z 0412/0506 05010KT 3500 FU SCT120 TN17/0501Z PROB30 TEMPO 0501/0504 36005KT 2500 FU FEW120
OPDG,TAF OPDG 040945Z 0412/0506 36010KT 5000 FU SCT120 TN15/0501Z FM050200 05005KT 4000 FU FEW040 SCT120
OPFA,TAF OPFA 040945Z 0412/0518 31004KT 4000 FU SCT040 SCT100 TX27/0510Z T N17/0500Z TEMPO 0501/0504 00000KT 2000 BR PROB30 TEMPO 0511/0515 3101 5G30KT 1500 TSRA FEW030CB SCT040 BKN100
OPGD,TAF OPGD 040930Z 0412/0512 27008G18KT 6000 NSC BECMG 0418/0420 27010KT 4000 HZ NSC FM050700 24010G20KT 7000 NSC
OPIS,TAF OPIS 040945Z 0412/0518 27010KT 5000 HZ FEW040 SCT100 TEMPO 0423/0 503 12006KT 3000 BR NSC TEMPO 0514/0518 31015G30KT 2000 TSRA FEW030CB SCT040 BKN100
OPKC,TAF OPKC 040930Z 0412/0518 24010G20KT 7000 NSC BECMG 0419/0421 27010KT 6000 NSC TEMPO 0501/0506 24010KT 4000 FU NSC FM050600 27010G20KT 6000 NSC
OPLA,TAF OPLA 041100Z 0412/0518 34008KT 6000 FEW040 TX28/0510Z TN15/0501Z FM041600 36005KT 4000 FU NSC FM050500 30008KT 6000 FEW040 TEMPO 0508/0513 27012KT 7000 SCT040
OPMT,TAF OPMT 040945Z 0412/0506 05010KT 4000 FU SCT120 TN16/0501Z PROB30 TEMPO 0412/0414 36020KT 2500 DRDU FEW040 SCT120
OPNH,TAF OPNH 040930Z 0412/0518 23012KT 6000 NSC BECMG 0417/0419 34006KT 4000 HZ NSC FM050700 18010KT 6000 NSC
OPPS,TAF OPPS 040930Z 0412/0518 23008KT 4000 FU FEW060 SCT100 BECMG 0501/0 504 31008KT 5000 HZ FEW060 SCT100 PROB30 TEMPO 0509/0512 13008G18KT 3500 -TSRA FEW035CB BKN100
OPRK,TAF OPRK 040945Z 0412/0506 05010KT 4000 FU FEW120 TN18/0501Z
OPSK,TAF OPSK 040930Z 0412/0512 05010KT 4000 HZ NSC BECMG 0418/0420 03004KT 3000 HZ NSC BECMG 0504/0506 05008KT 4000 HZ NSC 
OPST,TAF OPST 040945Z 0412/0518 31008KT 4000 FU NSC TX27/0510Z TN15/0501Z TEMPO 0506/0512 27008KT 5000 HZ
ORBI,TAF ORBI 041000Z 0412/0512 24008KT 8000 NSC
ORER,TAF ORER 041100Z 0412/0512 34005KT 8000 NSC BECMG 0418/0420 06004KT BECMG 0508/0510 18010KT
ORMM,TAF ORMM 041000Z 0412/0512 28016G26KT 8000 NSC BECMG 0416/0418 28008K T CAVOK 
ORSU,TAF ORSU 041100Z 0412/0512 25006KT 9999 FEW045 SCT200 BECMG 0415/0417 CAVOK
OSAP,OSAP 041100Z 0412/0512 09012KT 9999 FEW030 SCT100 BECMG 0420/0422 VRB03KT CAVOK BECMG 0506/0509 27015KT 9999 FEW030
OSDI,OSDI 041100Z 0412/0518 22010KT 9999 FEW030 BECMG 0418/0420 VRB03KT CAVOK
OSLK,OSLK 041100Z 0412/0512 22015KT 9999 SCT030 BECMG 0504/0506 23015G25KT 7000 SHRA FEW025 CB SCT030 BKN100
OTBD,TAF OTBD 041112Z 0412/0518 33014KT 8000 NSC TEMPO 0412/0416 33016G26KT TEMPO 0419/0507 26008KT
OTBH,TAF OTBH 040800Z 0408/0514 31015G25KT 9999 FEW250 QNH2990INS BECMG 0415/0416 30012KT 9999 SKC QNH2988INS BECMG 0504/0505 27012KT 9999 SKC QNH2990INS BECMG 0507/0508 32010G20KT 9999 SKC QNH2983INS TX29/0410Z TN15/0503Z
OTHH,TAF OTHH 040501Z 0406/0512 33015G25KT CAVOK
OYAA,TAF OYAA 040500Z 0406/0512 09015KT 9999 SCT020 SCT100 TEMPO 0410/0416 FEW035CB SCT200 TEMPO 0421/0504 RA BKN015
PAAQ,PAAQ 041128Z 0412/0512 36008KT P6SM OVC080 FM042100 15006KT P6SM OVC050 FM050100 13006KT P6SM VCSH SCT015 OVC050
PABE,PABE 041137Z 0412/0512 20011KT 1SM -SN BR OVC004 TEMPO 0412/0416 1/2SM FG VV002 FM041900 33010KT 4SM BR SCT007 OVC015 FM050600 31012KT P6SM SCT025
PABI,TAF AMD PABI 040830Z 0408/0512 VRB06KT 9999 FEW050 BKN100 QNH2958INS BECMG 0423/0424 VRB06KT 9999 FEW050 BKN100 QNH2951INS TX01/0423Z TNM10/0412Z
PABR,PABR 041133Z 0412/0512 25008KT 4SM -SN SCT020 OVC027 FM041600 25012KT 5SM -SN BR BKN020
PABT,PABT 041133Z 0412/0512 VRB03KT 1 1/2SM -SN BR FEW016 OVC028 FM050300 33008KT P6SM VCSH SCT025 BKN050 FM050800 34004KT P6SM FEW050
PACD,PACD 041128Z 0412/0512 25007KT P6SM VCSH SCT025 OVC050 FM041600 27010KT P6SM VCSH OVC020
PACV,PACV 041124Z 0412/0512 06005KT P6SM SCT045 OVC060 FM050000 VRB04KT 6SM -SNRA BKN035
PADL,PADL 041137Z 0412/0512 20005KT 6SM -SHSN BR OVC003 TEMPO 0412/0415 2SM BR FM041500 19004KT 2SM -SN BR OVC003 FM042000 22005KT 4SM BR OVC005 FM050400 30006KT P6SM SCT007 BKN025
PADQ,PADQ 041126Z 0412/0512 32006KT 6SM -RA BR SCT012 BKN021 FM050600 31004KT 6SM BR OVC007
PADU,PADU 041128Z 0412/0512 VRB05KT P6SM -SHRA BKN025 OVC035 FM042000 31010KT P6SM VCSH OVC025
PAED,TAF PAED 040500Z 0405/0511 35009KT 9999 BKN050 OVC120 620505 510104 QNH2978INS BECMG 0423/0424 01006KT 9999 VCSH SCT040 BKN060 OVC080 610604 QNH2969INS BECMG 0504/0505 03006KT 9999 VCSH SCT025 BKN050 OVC070 610605 QNH2961INS TX02/0501Z TNM05/0415Z
PAEI,TAF PAEI 040600Z 0406/0512 VRB06KT 9999 SCT050 BKN100 QNH2968INS BECMG 0412/0413 VRB06KT 9999 BKN060 620608 QNH2960INS BECMG 0419/0420 14008KT 9999 BKN030 BKN050 620309 QNH2954INS TX02/0500Z TNM07/0413Z
PAEN,PAEN 041128Z 0412/0512 36006KT P6SM OVC050 FM050600 34004KT P6SM VCSH SCT025 OVC050
PAFA,PAFA 041133Z 0412/0518 VRB03KT P6SM BKN090 BKN100 FM041600 13004KT P6SM VCSH FEW050 BKN080 FM050000 20005KT 3SM -SN BKN025 FM051200 26004KT P6SM -SN SCT025 OVC040
PAFB,TAF PAFB 040600Z 0406/0512 VRB06KT 9999 BKN060 OVC070 620604 QNH2970INS BECMG 0415/0416 VRB06KT 9999 SCT040 OVC060 620604 QNH2961INS BECMG 0500/0501 VRB03KT 9000 -SN BKN040 OVC060 620406 QNH2957INS BECMG 0509/0510 VRB06KT 8000 -SN SCT015 BKN035 OVC045 620357 QNH2959INS TX00/0421Z TNM06/0410Z LAST NO AMDS AFT 0406 NEXT 0414
PAGA,PAGA 041133Z 0412/0512 33008KT P6SM -SN BKN040 FM050000 33008KT P6SM FEW050 AMD NOT SKED
PAGK,PAGK 041124Z 0412/0512 18007KT P6SM OVC090 FM050900 VRB03KT 5SM -SN BKN030
PAGS,PAGS 041132Z 0412/0512 VRB05KT P6SM SCT150 FM042100 13010KT P6SM -RA OVC050 WS020/13035KT FM050000 13011G17KT 6SM -RA BR BKN030 OVC040 WS020/13035KT AMD LTD TO CLD VIS AND WIND
PAGY,PAGY 041132Z 0412/0512 04003KT P6SM SCT120 FM042200 21008KT P6SM OVC070 FM050300 VRB06KT P6SM -RA OVC045 AMD LTD TO CLD VIS AND WIND
PAHN,PAHN 041132Z 0412/0512 31005KT P6SM SCT150 FM042100 13006KT P6SM OVC070 FM050200 10010KT P6SM -RA OVC040 WS020/16030KT AMD LTD TO CLD VIS AND WIND
PAHO,PAHO 041128Z 0412/0512 VRB04KT P6SM FEW025 OVC050 FM050000 17005KT P6SM SCT025 OVC050 FM050400 25004KT P6SM -SN SCT015 OVC025
PAIL,PAIL 041137Z 0412/0512 12010KT 4SM -SHRASN OVC015 FM041400 13006KT 3SM -SN OVC015 FM041700 VRB04KT 1 1/2SM -SN BR BKN007 OVC015 FM042200 VRB03KT 3SM -RASN BR OVC007 FM050300 VRB03KT 4SM BR VCSH OVC007
PAJN,PAJN 041132Z 0412/0512 VRB04KT P6SM SCT150 FM042200 12010KT P6SM -RA OVC040 WS020/14030KT FM050000 10011KT 6SM -RA BR BKN030 OVC040 WS020/14035KT
PAKN,PAKN 041137Z 0412/0512 19008KT 4SM -RASN BR BKN005 OVC015 TEMPO 0412/0416 6SM BR SCT005 OVC015 FM050300 28005KT 6SM BR SCT007 OVC015
PAKT,PAKT 041132Z 0412/0512 VRB05KT P6SM SCT120 FM041600 14010KT P6SM BKN100 FM050000 14014G23KT P6SM OVC050 WS020/15035KT FM050600 14017G25KT P6SM -RA BKN025 OVC040 WS020/15040KT AMD LTD TO CLD VIS AND WIND TIL 041500
PAKW,PAKW 041132Z 0412/0512 VRB03KT P6SM SCT100 FM041900 17004KT P6SM OVC050 WS020/15030KT FM042100 13006KT P6SM -RA OVC040 WS020/15040KT FM050300 08008G15KT 6SM -RA BKN025 OVC040 WS020/14045KT AMD LTD TO CLD VIS AND WIND
PAMC,PAMC 041133Z 0412/0512 VRB03KT 1 1/2SM -SN BR OVC016 FM050800 33004KT 6SM -SHSN BR SCT025 OVC040
PANC,PANC 041128Z 0412/0518 VRB04KT P6SM OVC050 FM041600 15007KT P6SM OVC050 FM050000 15007KT P6SM VCSH SCT015 OVC050 FM050900 VRB05KT P6SM VCSH SCT015 OVC030
PAOM,PAOM 041133Z 0412/0512 35008KT P6SM SKC
PAOR,PAOR 041133Z 0412/0512 13004KT P6SM BKN090 FM050800 31003KT P6SM VCSH BKN025 OVC060
PAOT,PAOT 041133Z 0412/0512 31010KT P6SM SKC
PAPG,PAPG 041132Z 0412/0512 VRB05KT P6SM SCT100 FM042000 08005KT P6SM OVC050 WS020/15030KT FM050300 12009KT 6SM -RA BKN025 OVC040 WS020/15035KT AMD LTD TO CLD VIS AND WIND TIL 041500
PAQT,PAQT 041133Z 0412/0512 26008KT 6SM BR VCSH OVC030
PASC,PASC 041133Z 0412/0512 30007KT P6SM VCSH OVC045
PASD,PASD 041128Z 0412/0512 22007KT P6SM VCSH FEW015 OVC025 FM050200 33008KT P6SM OVC025
PASI,PASI 041132Z 0412/0512 10005KT P6SM SCT100 FM041600 10010KT P6SM OVC100 WS020/14030KT FM042000 12015G24KT 5SM -RA BKN025 OVC040 WS020/14040KT FM050200 11019G28KT 5SM -RA BR BKN022 OVC035 WS020/14040KT
PASN,PASN 041128Z 0412/0512 36006KT 4SM BR SCT007 OVC015 FM041500 36015KT 4SM BR SCT007 OVC015
PASY,TAF PASY 040600Z 0406/0512 VRB06KT 9999 BKN015 620152 QNH2992INS TEMPO 0406/0412 BKN020 620202 BECMG 0411/0412 22010G15KT 9999 BKN020 620202 QNH2993INS BECMG 0417/0418 22015G20KT 9999 BKN020 620202 QNH2988INS TX03/0500Z TN00/0415Z LIMITED METWATCH 0406 TIL 0409
PATA,PATA 041133Z 0412/0512 VRB03KT 1 1/2SM -SN BR BKN024 OVC030 FM050300 33004KT P6SM VCSH FEW025 BKN050 BKN100 FM050800 32004KT P6SM FEW050
PATK,PATK 041128Z 0412/0512 VRB03KT 4SM -SN SCT025 OVC035 FM050800 36002KT P6SM OVC035
PAUN,PAUN 041133Z 0412/0512 33007KT P6SM -SN FEW017 BKN030 OVC035 FM042200 30015KT P6SM FEW050
PAVD,PAVD 041121Z 0412/0512 07003KT P6SM VCSH FEW035 OVC050 FM050200 07003KT 6SM -SN SCT015 OVC035 AMD LTD TO CLD AND WIND TIL 041500
PAWG,PAWG 041132Z 0412/0512 12006KT P6SM SCT100 FM042100 11012G19KT P6SM OVC050 FM050400 11013G22KT 6SM -RA BR BKN025 OVC045 WS020/15030KT AMD NOT SKED TIL 041500
PAYA,PAYA 041132Z 0412/0512 VRB05KT P6SM SCT100 FM042100 07006KT P6SM -RA OVC040 FM050200 07010KT 6SM -RA OVC030 AMD LTD TO CLD VIS AND WIND
PGRO,PGRO 040533Z 0406/0506 32007KT P6SM VCSH FEW015 SCT080 FM050000 02014KT P6SM SCT025 SCT050
PGSN,PGSN 041123Z 0412/0512 VRB06KT P6SM VCSH FEW020 SCT050 FM050000 03014KT P6SM FEW025 SCT080
PGUA,TAF PGUA 041000Z 0410/0516 30009KT 9999 VCSH BKN020 QNH2972INS TEMPO 0417/0506 30015G20KT 6000 -SHRA BKN012 TX30/0502Z TN25/0418Z
PGUM,PGUM 041123Z 0412/0518 VRB06KT P6SM VCSH FEW020 SCT050 FM050000 03014KT P6SM FEW025 SCT080
PGWT,PGWT 040533Z 0406/0506 32009KT P6SM VCSH FEW020 SCT070 FM050000 02014KT P6SM SCT025 SCT050
PHHI,TAF AMD PHHI 040712Z 0407/0513 06009KT 9999 BKN030 BKN050 BKN100 QNH3007INS TEMPO 0411/0417 6000 -SHRA SCT012 BKN020 BKN030 BECMG 0420/0421 05012KT 9999 SCT025 SCT035 SCT060 QNH3012INS TEMPO 0423/0504 07012G18KT 6000 -SHRA BKN015 BKN030 TX25/0423Z TN17/0415Z
PHJH,PHJH 032341Z 0400/0424 07012KT P6SM VCSH SCT035 BKN050 FM040500 06010KT P6SM SCT035 BKN050 FM042100 05014G18KT P6SM BKN035
PHJR,PHJR 041131Z 0412/0512 36005KT P6SM VCSH FEW035 SCT050 FM042000 09008G15KT P6SM VCSH SCT035 BKN050 FM050500 07007KT P6SM VCSH FEW035 SCT050
PHKO,PHKO 041131Z 0412/0512 07005KT P6SM FEW030 SCT060 BKN100 FM042000 21011KT P6SM FEW030 SCT050 FM050000 21011KT P6SM VCSH SCT035 BKN060 FM050500 12006KT P6SM VCSH SCT035 BKN060
PHLI,PHLI 041131Z 0412/0512 06012KT P6SM VCSH SCT025 BKN035 TEMPO 0412/0416 3SM SHRA BR BKN025
PHMK,PHMK 041131Z 0412/0512 04008KT P6SM VCSH FEW025 SCT040 FM042000 04015G23KT P6SM VCSH FEW025 BKN040 FM050500 04010G18KT P6SM FEW025 SCT040 FM050800 04008KT P6SM FEW025 SCT040
PHNG,TAF PHNG 0409/0509 08009KT 9999 SCT025 QNH3001INS TEMPO 0409/0415 08009G15KT 8000 -SHRA BR FM041500 08007KT 9999 SCT025 BKN035 QNH3002INS TEMPO 0417/0423 6000 SHRA BR BKN025 T22/0415Z T30/0423Z
PHNL,PHNL 041131Z 0412/0518 06009KT P6SM VCSH FEW025 BKN050 FM042000 06015G23KT P6SM VCSH FEW025 BKN050 FM050500 06012G19KT P6SM VCSH FEW025 SCT050 FM050800 06010KT P6SM VCSH FEW025 SCT050
PHNY,PHNY 041131Z 0412/0512 06006KT P6SM FEW025 FM042000 VRB05KT P6SM VCSH BKN025 FM050000 05015KT P6SM VCSH SCT025 BKN035 FM050600 05008KT P6SM FEW025 SCT035 AMD NOT SKED
PHOG,PHOG 041131Z 0412/0512 06008KT P6SM VCSH FEW035 SCT050 FM042000 06017G25KT P6SM SCT035 BKN050 FM050500 06012G19KT P6SM FEW035 SCT060 FM050900 06008KT P6SM FEW035 SCT060
PHTO,PHTO 041131Z 0412/0512 24005KT P6SM VCSH SCT025 BKN050 TEMPO 0412/0414 3SM SHRA BR BKN025 FM042100 12008KT P6SM VCSH SCT025 BKN035 FM050500 24005KT P6SM VCSH SCT025 BKN050
PKMJ,PKMJ 041123Z 0412/0512 07014KT P6SM FEW015 FM042300 07014KT P6SM VCSH SCT015 SCT050
PKWA,PKWA 041123Z 0412/0512 07015KT P6SM VCSH SCT020
PLCH,TAF PLCH 041117Z 0412/0512 08005KT 9999 SCT020
PMDY,PMDY 041131Z 0412/0512 12010KT P6SM SCT040 AMD NOT SKED
PTKK,PTKK 041123Z 0412/0512 VRB05KT P6SM VCSH SCT014 BKN120 TEMPO 0414/0418 4SM SHRA SCT014 BKN025
PTPN,PTPN 032332Z 0400/0424 11008KT P6SM VCSH SCT015 SCT030 BKN130
PTRO,PTRO 041123Z 0412/0512 VRB06KT P6SM VCSH SCT015 BKN110 FM050000 03008KT P6SM VCSH SCT015 SCT110
PTSA,PTSA 040137Z 0402/0424 07009KT P6SM SCT020 BKN110 TEMPO 0402/0406 BKN020
PTYA,PTYA 041123Z 0412/0512 VRB06KT P6SM VCSH FEW016 SCT100 FM050000 05008KT P6SM SCT025 SCT150
PWAK,TAF PWAK 040600Z 0406/0512 13012KT 9999 FEW020 SCT030 BKN040 QNH2983INS TEMPO 0408/0412 8000 HZ BKN018 OVC030 TX29/0502Z TN25/0414Z FOR MIL USE ONLY
RCFN,TAF RCFN 041100Z 0412/0512 33005KT 9999 FEW015 BKN032 BECMG 0501/0503 18005KT TEMPO 0504/0510 26005KT FEW010 BKN020 BECMG 0510/0512 33005KT
RCKH,TAF RCKH 041100Z 0412/0518 18010KT 9999 FEW015 TEMPO 0412/0418 33005KT TEMPO 0418/0424 16015KT TEMPO 0503/0509 26010KT TEMPO 0509/0515 32005KT
RCMQ,TAF RCMQ 041100Z 0412/0512 34004KT 9000 FEW008 SCT200 TX28/0505Z TN18/0420Z BECMG 0413/0416 6000 SCT008 BKN040 TEMPO 0418/0423 3200 BR BKN004 BKN020 BECMG 0501/0504 21008KT 9000 FEW008 BKN060 TEMPO 0507/0511 6000 SCT006 BKN040
RCNN,TAF RCNN 041100Z 0412/0512 02004KT 9999 FEW012 SCT050 TX30/0505Z TN20/0420Z BECMG 0413/0416 FEW012 BKN050 TEMPO 0418/0423 6000 FEW012 SCT050 BECMG 0501/0504 27006KT FEW012 SCT060 BECMG 0508/0511 24004KT FEW012 BKN060
RCSS,TAF RCSS 041100Z 0412/0512 10005KT 9999 FEW015 BKN032 TEMPO 0412/0418 10010KT TEMPO 0422/0504 15005KT TEMPO 0506/0512 29005KT
RCTP,TAF RCTP 041100Z 0412/0518 34005KT 9999 FEW015 BKN032 TEMPO 0418/0424 09010KT TEMPO 0503/0509 30010KT BECMG 0510/0512 20005KT
RJAA,TAF RJAA 041105Z 0412/0518 18005KT 9999 FEW030
RJAH,TAF RJAH 041105Z 0412/0518 18005KT 9999 FEW030 BECMG 0413/0415 36004KT BECMG 0422/0500 18008KT
RJBB,TAF RJBB 041105Z 0412/0518 17007KT 9999 FEW025 BECMG 0415/0417 12006KT BECMG 0503/0506 17009KT
RJCB,TAF RJCB 041105Z 0412/0518 35005KT 9999 FEW020 BECMG 0500/0503 16004KT
RJCC,TAF RJCC 041105Z 0412/0518 15004KT 9999 FEW030 BECMG 0417/0419 34005KT BECMG 0500/0503 17012KT
RJCH,TAF RJCH 041105Z 0412/0518 32005KT 9999 FEW020 BECMG 0509/0512 05005KT
RJCK,TAF RJCK 041105Z 0412/0518 01009KT 9999 FEW020 BECMG 0500/0503 17008KT BECMG 0509/0512 34003KT
RJCM,TAF RJCM 041105Z 0412/0518 20005KT 9999 FEW015 BECMG 0420/0422 04005KT BECMG 0509/0512 19005KT
RJEC,TAF RJEC 041105Z 0412/0518 17007KT 9999 FEW030 BECMG 0421/0423 01004KT BECMG 0503/0506 17005KT
RJFF,TAF RJFF 041107Z 0412/0518 14004KT 9999 FEW035 SCT045 BECMG 0500/0503 16018KT TEMPO 0500/0503 4000 -SHRA BR TEMPO 0503/0509 3000 SHRA BR TEMPO 0509/0515 17020G30KT 4000 -SHRA BR
RJFK,TAF RJFK 041105Z 0412/0518 12011KT 9999 FEW030 BKN045 TEMPO 0506/0509 4000 -SHRA BR TEMPO 0509/0518 3000 SHRA BR FEW005 BKN008 BKN015
RJFM,TAF RJFM 041105Z 0412/0518 13016KT 9999 FEW030 BKN040 TEMPO 0509/0518 4000 -SHRA BR
RJFO,TAF RJFO 041105Z 0412/0518 15015KT 9999 FEW030 TEMPO 0506/0515 3000 SHRA BR TEMPO 0515/0518 4000 -SHRA BR
RJFR,TAF RJFR 041107Z 0412/0518 14010KT 9999 FEW030 TEMPO 0503/0506 4000 -SHRA BR TEMPO 0506/0512 3000 SHRA BR
RJFS,TAF RJFS 041107Z 0412/0518 15004KT 9999 FEW030 BECMG 0500/0503 16015KT TEMPO 0506/0515 4000 -SHRA BR
RJFT,TAF RJFT 041107Z 0412/0518 10009KT 9999 FEW030 TEMPO 0506/0512 4000 -SHRA BR BECMG 0512/0515 20005KT TEMPO 0512/0518 4000 -SHRA BR FEW005 BKN008 BKN015
RJFU,TAF RJFU 041107Z 0412/0518 15012KT 9999 FEW030 TEMPO 0500/0506 15020G30KT 4000 -SHRA BR TEMPO 0506/0515 17020G30KT 3000 SHRA BR FEW005 BKN008 BKN015 TEMPO 0515/0518 4000 -SHRA BR FEW005 BKN008 BKN015 BECMG 0515/0518 25011KT
RJGG,TAF RJGG 041110Z 0412/0518 12006KT 9999 FEW030 BECMG 0416/0418 36006KT BECMG 0500/0503 14008KT
RJNK,TAF RJNK 041106Z 0412/0518 20004KT 9999 FEW030
RJNS,TAF RJNS 041106Z 0412/0518 30006KT 9999 FEW030 BECMG 0500/0503 18006KT BECMG 0512/0515 32004KT
RJNT,TAF RJNT 041105Z 0412/0518 18008KT 9999 FEW030 TEMPO 0512/0518 18018G30KT
RJOA,TAF RJOA 041105Z 0412/0518 09005KT 9999 FEW030 TEMPO 0506/0509 4000 -SHRA BR FEW003 SCT005 BKN008 TEMPO 0509/0518 2000 -SHRA BR BCFG FEW000 SCT003 BKN005
RJOB,TAF RJOB 041105Z 0412/0518 08005KT 9999 FEW030 TEMPO 0506/0512 4000 -SHRA BR FEW001 SCT005 BKN008 TEMPO 0512/0518 3000 SHRA BR BCFG FEW000 SCT003 BKN005
RJOC,TAF RJOC 041105Z 0412/0518 17006KT 9999 FEW030 BECMG 0421/0423 10007KT BECMG 0506/0509 18013KT
RJOH,TAF RJOH 041105Z 0412/0518 18006KT 9999 FEW030 BECMG 0420/0422 12005KT BECMG 0506/0509 18009KT
RJOI,TAF RJOI 0409/0509 14008KT 9999 FEW030 BKN250 510005 QNH3014INS FM041200 28007KT 9999 FEW025 BKN060 BKN220 510005 QNH3012INS BECMG 0418/0420 13007KT 9999 SCT025 BKN040 OVC150 651506 622103 510006 QNH3010INS FM050000 12006KT 9999 VCSH SCT020 BKN030 OVC050 651208 622004 540006 QNH3008INS TEMPO 0502/0503 9000 -RA SCT015 BKN025 OVC040 FM050600 17006KT 9000 -RA SCT020 BKN030 OVC050 651208 622004 540006 QNH3002INS T19/0406Z T11/0421Z
RJOK,TAF RJOK 041105Z 0412/0518 35005KT 9999 FEW030 SCT045 BECMG 0418/0420 15012KT
RJOM,TAF RJOM 041105Z 0412/0518 12008KT 9999 FEW035
RJOO,TAF RJOO 041105Z 0412/0518 32004KT 9999 FEW030 BECMG 0422/0500 08006KT
RJOT,TAF RJOT 041105Z 0412/0518 15005KT 9999 FEW030
RJSA,TAF RJSA 041105Z 0412/0518 21008KT 9999 FEW030
RJSF,TAF RJSF 041105Z 0412/0518 14004KT 9999 FEW030 BECMG 0500/0503 21010KT
RJSI,TAF RJSI 041105Z 0412/0518 26005KT 9999 FEW030 BECMG 0413/0415 01004KT BECMG 0503/0506 27008KT BECMG 0509/0512 01004KT
RJSK,TAF RJSK 041105Z 0412/0518 12004KT 9999 FEW020 BECMG 0500/0503 24008KT BECMG 0509/0512 13006KT
RJSN,TAF RJSN 041105Z 0412/0518 19006KT 9999 FEW030 BECMG 0506/0509 16008KT
RJSS,TAF RJSS 041105Z 0412/0518 26004KT 9999 FEW030 BECMG 0500/0503 12008KT BECMG 0512/0515 23005KT
RJTT,TAF RJTT 041105Z 0412/0518 20012KT 9999 FEW030 BECMG 0417/0419 32004KT BECMG 0500/0503 19018KT
RJTY,TAF RJTY 040500Z 0405/0511 VRB06KT 9999 FEW030 SCT200 QNH3025INS BECMG 0501/0502 17009KT 9999 FEW030 SCT100 BKN200 QNH3020INS TEMPO 0504/0509 17012G18KT TX21/0505Z TN07/0421Z
RKJB,TAF RKJB 041100Z 0412/0518 15015G25KT 9999 -RA FEW010 BKN030 OVC080 TN14/0422Z TX17/0503Z BECMG 0415/0416 15017G35KT 4000 BECMG 0423/0424 15015G25KT PROB40 TEMPO 0500/0505 2500 RA FEW010CB BKN030 OVC080 BECMG 0505/0506 21010KT BECMG 0510/0512 BR
RKJK,TAF RKJK 040800Z 0408/0514 14010G18KT 4800 -RA SCT040 BKN050 OVC060 650604 QNH2999INS TEMPO 0408/0414 15015G25KT 4000 RA BECMG 0414/0415 15010G18KT 4800 -RA SCT010 BKN015 OVC030 WS018/15030KT 650604 QNH2993INS TEMPO 0415/0419 16015G25KT 3200 RA SCT006 BKN008 BECMG 0419/0420 16015G25KT 4800 -RA SCT010 BKN015 OVC030 WS020/17035KT 650604 QNH2990INS TEMPO 0420/0505 17020G30KT 3200 RA SCT006 BKN008 BECMG 0505/0506 17010G20KT 4800 -RA SCT006 OVC010 QNH2988INS TX18/0408Z TN11/0419Z LAST NO AMDS AFT 0408 NEXT 0500
RKNN,TAF RKNN 041100Z 0412/0518 27006KT 9000 BR FEW010 BKN130 BECMG 0415/0416 27006KT 4800 -RA BR SCT010 BKN080 BECMG 0418/0419 27006KT 3200 -RA BR BKN010 OVC020 WND 12012KT AFT 0500 BECMG 0506/0507 12012KT 4800 -RA BR SCT010 BKN020 TN11/0421Z TX16/0506Z 
RKNW,TAF RKNW 041100Z 0412/0518 24006KT 4800 -RA BR BKN040 OVC100 BECMG 0417/0418 18006KT 3200 -RA BR BKN015 OVC030 BECMG 0503/0504 18006G16KT 3200 -RA BR BKN015 OVC020 BECMG 0507/0508 18006KT 3200 -RA BR BKN015 OVC020 TN10/0421Z TX15/0506Z 
RKNY,TAF RKNY 041100Z 0412/0518 35007KT 9999 SCT010 BKN025 OVC060 TN09/0421Z TX13/0505Z BECMG 0413/0415 6000 -RA BECMG 0421/0423 31005KT 2500 TEMPO 0502/0507 15015G25KT 4000 BECMG 0508/0510 16008KT 4000 BKN030 OVC080 TEMPO 0514/0516 03006KT
RKPC,TAF RKPC 041100Z 0412/0518 36011KT 9999 -RA FEW010 BKN030 OVC100 TN16/0418Z TX20/0504Z TEMPO 0422/0501 19018G35KT 3500 RA BECMG 0502/0503 23025G45KT 3500 RA PROB40 TEMPO 0504/0507 2500 TSRA SCT010CB BKN025 OVC080 BECMG 0508/0509 26015G28KT -RA BECMG 0514/0515 27012KT 6000 NSW
RKPK,TAF RKPK 041100Z 0412/0518 15008KT 4800 -RA BR SCT015 BKN030 BKN100 TN15/0421Z TX18/0506Z TEMPO 0415/0418 BKN015 BKN030 BECMG 0418/0419 18008G18KT BKN010 BKN030 BECMG 0503/0504 18014G24KT 1600 RA BR SCT005 BKN010 BKN025 BECMG 0512/0513 18015G25KT 4800 -RA BR BKN015 BKN030 BECMG 0517/0518 18010KT 9999 NSW
RKSG,TAF RKSG 041100Z 0411/0517 22009KT 8000 -SHRA BKN050 620709 510043 QNH3008INS BECMG 0412/0413 09006KT 8000 -RA SCT010 BKN030 530054 QNH2978INS BECMG 0417/0418 11007KT 6000 -RA SCT010 BKN020 530054 QNH2975INS BECMG 0503/0504 16012KT 6000 RA BKN008 530203 QNH2967INS BECMG 0506/0507 20012KT 4800 -RA BR OVC005 520052 QNH2967INS BECMG 0509/0510 22009KT 4800 BR OVC005 520052 QNH2972INS TX16/0504Z TN10/0511Z
RKSI,TAF RKSI 041100Z 0412/0518 21010KT 4500 -RA BKN040 OVC080 TN11/0421Z TX16/0505Z BECMG 0413/0415 10015G25KT SCT010 BKN025 OVC060 BECMG 0418/0420 13017G35KT 3200 TEMPO 0501/0505 17015G25KT 2500 RA FEW010CB BKN020 OVC060 TEMPO 0506/0511 19015G25KT 0800 FG BKN003 BECMG 0513/0515 19012KT
RKSM,TAF RKSM 041100Z 0412/0518 18006G16KT 4800 -RA BR BKN030 OVC100 BECMG 0417/0418 18010G20KT 3200 RA BR BKN015 OVC030 TN12/0421Z TX14/0506Z 
RKSO,TAF COR RKSO 040559Z 0405/0511 15009KT 9000 HZ VCSH SCT060 BKN100 OVC120 641509 510009 510909 QNH3001INS TEMPO 0405/0409 -SHRA BECMG 0408/0409 10009KT 6000 -SHRA BR BKN030 WS017/19030KT 640709 641608 520003 540309 QNH2992INS TEMPO 0409/0415 BKN010 BECMG 0414/0415 15012G18KT 6000 -SHRA BKN008 OVC010 WS017/14040KT 640709 641608 520001 540109 541009 QNH2975INS TEMPO 0415/0423 15020G30KT SCT008 BKN150 TEMPO 0423/0507 15015G25KT VCTS TX23/0405Z TN11/0418Z
RKSS,TAF RKSS 041100Z 0412/0518 19012G25KT 6000 -RA FEW012 BKN040 OVC080 TN12/0421Z TX18/0505Z BECMG 0414/0416 13015G30KT 4000 FEW010 BKN025 OVC070 TEMPO 0423/0502 17015G30KT 2500 RA FEW010CB BKN020 OVC060 BECMG 0503/0505 21015G30KT BECMG 0506/0508 20008G20KT BECMG 0513/0515 17005KT 2500 BKN007 BKN020
RKSW,TAF RKSW 041100Z 0412/0518 21008KT 4800 -RA BR OVC030 BECMG 0417/0418 15010G20KT 3200 -RA BR BKN015 OVC030 BECMG 0509/0510 15006KT 4800 -RA BR BKN015 OVC030 TN12/0421Z TX17/0506Z 
RKTE,TAF RKTE 041100Z 0412/0518 18008KT 4800 -RA BR BKN030 OVC100 BECMG 0417/0418 18010KT 2400 -RA BR BKN010 OVC030 TN13/0421Z TX16/0506Z 
RKTI,TAF RKTI 041100Z 0412/0518 21009KT 8000 -RA BR BKN050 BKN080 BECMG 0414/0415 21009KT 4800 -RA BR SCT015 BKN030 BECMG 0415/0416 21009KT 3200 -RA BR BKN015 BKN030 BECMG 0509/0510 21006KT 1600 -DZ BR BKN010 OVC020 TN13/0421Z TX17/0506Z 
RKTN,TAF RKTN 041100Z 0412/0518 18008KT 9000 -RA BKN030 BKN100 TN13/0421Z TX18/0506Z BECMG 0417/0418 4800 -RA BR BKN015 OVC030
RKTP,TAF RKTP 040500Z 0406/0512 15006KT 9999 BKN130 BECMG 0409/0410 18006G16KT 4800 -RA BR BKN030 OVC100 BECMG 0417/0418 24006G16KT 1600 -RA BR BKN010 OVC030 BECMG 0505/0506 24008KT 4800 BR BKN010 TN10/0421Z TX15/0506Z 
RKTU,TAF RKTU 041100Z 0412/0518 18008KT 9999 -RA NSC TN13/0421Z TX16/0506Z BECMG 0415/0416 18010KT 4800 RA BR SCT015 OVC030 BECMG 0420/0421 15010KT 3200 BKN010 OVC030
RKTY,TAF RKTY 041100Z 0412/0518 10006KT 4800 -RA BR BKN030 OVC100 BECMG 0417/0418 10006KT 1600 -RA BR BKN015 OVC030 TN11/0421Z TX15/0506Z 
ROAH,TAF ROAH 041105Z 0412/0518 13015KT 9999 FEW025 SCT040
RODN,TAF RODN 040800Z 0408/0514 10012G20KT 9999 SCT030 QNH2996INS BECMG 0413/0414 10012KT 9999 BKN030 QNH3001INS BECMG 0423/0424 12015G25KT 9999 SCT050 QNH3002INS TX24/0503Z TN19/0420Z
ROIG,TAF ROIG 041105Z 0412/0518 15010KT 9999 FEW025 BKN040
ROTM,TAF ROTM 0409/0509 12012G22KT 9999 FEW020 SCT050 510804 QNH3000INS TEMPO 0409/0415 13014G24KT SCT020 BKN050 FM041500 15012G18KT 9999 SCT020 BKN050 510804 QNH2998INS BECMG 0500/0502 18010G16KT 9999 VCSH FEW020 SCT045 BKN120 611209 510503 QNH2999INS TEMPO 0503/0509 18012G22KT 9000 -SHRA SCT020 BKN045 T21/0420Z T24/0504Z
RPLB,TAF RPLB 041100Z 0412/0512 09008KT 9999 FEW020 BKN300 TX33/0505Z TN25/0421Z TEMPO 0412/0418 VRB03KT 8000 -TSRA FEW018CB SCT020 BKN080
RPLC,TAF RPLC 041100Z 0412/0518 04006KT 9999 SCT020 BKN100 TX34/0506Z TN24/0421Z TEMPO 0412/0418 14008KT 6000 -TSRA FEW015CB SCT020 BKN100
RPLI,TAF RPLI 041100Z 0412/0512 17005KT 9999 FEW018 TEMPO 0412/0418 31010KT BECMG 0500/0502 27008KT
RPLL,TAF RPLL 041100Z 0412/0518 12008KT 9999 FEW025 TX34/0506Z TN25/0421Z TEMPO 0412/0418 14013KT TEMPO 0418/0424 SCT023CB TEMPO 0503/0509 15014KT
RPMD,TAF RPMD 041100Z 0412/0512 02006KT 9999 FEW016 SCT080 TEMPO 0412/0418 09008KT FEW015CB BKN090 TEMPO 0506/0512 -SHRA FEW015CB BKN090
RPMR,TAF RPMR 041100Z 0412/0512 04005KT 9999 FEW018 SCT080 TEMPO 0412/0418 20002KT -SHRA SCT017CB BKN080
RPMZ,TAF RPMZ 041100Z 0412/0512 04005KT 9999 FEW017 SCT090 TEMPO 0412/0418 VRB02KT FEW017CB BKN090
RPVD,TAF RPVD 041100Z 0412/0512 05008KT 9999 SCT015 TEMPO 0412/0418 VCSH FEW014CB BKN080
RPVM,TAF RPVM 041100Z 0412/0518 03006KT 9999 FEW020 SCT300 TEMPO 0412/0418 8000 -SHRA FEW018CB OVC100 TEMPO 0418/0424 04012KT
RPVP,TAF RPVP 041100Z 0412/0512 17006KT 9999 FEW019 TEMPO 0412/0418 06010KT FEW017CB
SAAR,TAF SAAR 041100Z 0412/0512 19005KT 0300 FG SCT003 TX26/0419Z TN16/0510Z BECMG 0413/0416 11010KT 9999 FEW015 SCT030 BECMG 0503/0506 FEW015 SCT030 BKN060 BECMG 0506/0509 5000 BR FEW010 SCT025 BKN060 
SABE,TAF SABE 041100Z 0412/0512 16010KT 8000 FEW010 TX22/0419Z TN19/0510Z BECMG 0413/0416 09015KT 9999 SCT030 PROB30 TEMPO 0416/0422 8000 -RA FEW015 SCT030 BKN070 BECMG 0500/0503 SCT020 BKN040 
SACO,TAF SACO 041100Z 0412/0512 20005KT 5000 DZ SCT005 OVC010 TX23/0418Z TN17/0510Z BECMG 0414/0417 14005KT 8000 OVC020 TEMPO 0416/0419 9999 NSW BKN025
SADF,TAF SADF 041100Z 0412/0512 20005KT 4000 BR NSC TX23/0418Z TN16/0510Z BECMG 0413/0415 16010KT 9999 NSW SCT030 BECMG 0417/0419 09015KT PROB30 TEMPO 0502/0506 8000 -RA BKN020 BKN050
SAEZ,TAF SAEZ 041100Z 0412/0512 16005KT 0800 FG OVC005 TX24/0418Z TN15/0509Z BECMG 0413/0416 14010KT 9999 BKN020 PROB30 TEMPO 0416/0422 7000 DZRA OVC015 BECMG 0422/0501 SCT030 BECMG 0503/0506 09005KT 9999 BKN010 
SAME,TAF SAME 041100Z 0412/0512 18005KT CAVOK TX27/0420Z TN17/0510Z BECMG 0415/0417 09005KT 9999 FEW040 BECMG 0420/0422 14005KT 9999 SCT040 BECMG 0423/0501 VRB03KT 9999 FEW030
SANR,TAF SANR 032300Z 0400/0424 32005KT 9999 SCT030 TX24/0418Z TN20/0410Z BECMG 0402/0405 VRB03KT 5000 TSRA BKN025 FEW040CB BECMG 0416/0419 14010KT 9999 NSW BKN030
SANT,TAF SANT 041100Z 0412/0512 23010KT 5000 RA SCT008 OVC015 TX24/0418Z TN19/0510Z TEMPO 0413/0416 2000 +RA BKN005 OVC015 TEMPO 0416/0419 VRB03KT 9999 NSW BKN025 BECMG 0423/0502 4000 DZ OVC010
SARE,TAF SARE 041100Z 0412/0512 10010KT SCT030 BKN040 TX32/0419Z TN19/0512Z BECMG 0413/0414 OVC030 FEW050CB TEMPO 0414/0421 4000 TSRA
SARF,TAF SARF 041100Z 0412/0512 14005KT CAVOK TX35/0419Z TN22/0512Z BECMG 0418/0420 14010KT 5000 TSRA OVC025 FEW050CB
SARI,TAF SARI 041100Z 0412/0512 05005KT CAVOK TX32/0419Z TN20/0509Z TEMPO 0416/0422 6000 SHRA OVC025 FEW050CB
SARP,TAF SARP 041100Z 0412/0512 09005KT CAVOK TX33/0419Z TN21/0509Z TEMPO 0416/0422 6000 SHRA OVC025 FEW050CB
SASA,TAF SASA 041100Z 0412/0512 VRB03KT 7000 SHRA SCT030 BKN040 FEW050CB TX21/0418Z TN17/0510Z TEMPO 0414/0417 3000 TSRA BECMG 0416/0419 8000 RADZ OVC012
SASJ,TAF SASJ 041100Z 0412/0512 18010KT 8000 TSRA BKN010 BKN035 FEW045CB TX23/0418Z TN19/0510Z PROB40 TEMPO 0413/0416 4000 +TSRA BECMG 0416/0419 20005KT 7000 RA SCT010 OVC025
SAVC,TAF SAVC 041100Z 0412/0512 30015KT CAVOK TX25/0420Z TN15/0412Z BECMG 0420/0422 05010KT BECMG 0502/0504 36020KT
SAVT,TAF SAVT 040500Z 0406/0506 34005KT CAVOK TX26/0419Z TN13/0411Z BECMG 0419/0421 05010KT BECMG 0501/0503 36020G30KT
SAWE,TAF SAWE 041100Z 0412/0512 32018KT 9999 SCT030 BKN090 TX11/0418Z TN03/0410Z BECMG 0416/0418 34020G30KT
SAWG,TAF SAWG 041100Z 0412/0512 VRB05KT 9999 FEW030 BKN090 TX12/0419Z TN07/0412Z BECMG 0413/0415 05015KT CAVOK
SAWH,TAF SAWH 041100Z 0412/0512 34012KT CAVOK TX10/0418Z TN06/0410Z BECMG 0415/0417 SCT030 STC090 BECMG 0502/0504 36015G30KT -RA SCT020 BKN060 
SAZM,TAF COR SAZM 041115Z 0412/0512 14010KT 7000 BKN019 TX20/0418Z TN13/0510Z TEMPO 0412/0415 3000 BR BKN008 BECMG 0416/0418 09010KT 9999 NSW BKN020 BECMG 0422/0424 8000 BKN015 BECMG 0503/0505 05010KT 5000 BR BKN010
SAZN,TAF SAZN 041100Z 0412/0512 VRB03KT CAVOK TX28/0419Z TN10/0412Z BECMG 0414/0417 05015G30KT BECMG 0422/0424 05015KT BECMG 0508/0511 VRB03KT 
SAZS,TAF SAZS 041100Z 0412/0512 VRB03KT CAVOK TX21/0419Z TN02/0412Z TEMPO 0416/0420 36010KT BECMG 0508/0511 29010KT 
SBAC,TAF SBAC 040830Z 0412/0424 07007KT 8000 SCT025 TX31/0417Z TN25/0424Z BECMG 0416/0418 SCT025 FEW030TCU BECMG 0421/0423 11007KT SCT020 RMK PHN
SBAF,TAF SBAF 040300Z 0406/0418 05003KT CAVOK TN19/0408Z TX28/0417Z BECMG 0412/0413 30005KT 9999 FEW030 BECMG 0415/0417 13005KT RMK PEC
SBAN,TAF SBAN 040300Z 0406/0418 09005KT 9999 SCT025 TN18/0407Z TX26/0417Z BECMG 0414/0415 03005KT SCT030 FEW030TCU PROB30 0415/0418 8000 TSRA SCT030 FEW035CB RMK PEC
SBAR,TAF SBAR 040830Z 0412/0512 12010KT 8000 SCT022 TX31/0417Z TN24/0508Z BECMG 0420/0423 09010KT CAVOK BECMG 0502/0504 07005KT SCT022 BECMG 0507/0509 31005KT BECMG 0509/0512 12010KT SCT017 FEW025TCU RMK PHN
SBAT,TAF SBAT 040005Z 0406/0418 10005KT 9999 FEW030 TN22/0409Z TX31/0416Z BECMG 0410/0412 7000 SCT017 BECMG 0415/0417 31010KT BKN020 FEW030TCU RMK PGB
SBBE,TAF SBBE 040850Z 0412/0512 07007KT 9999 SCT015 TX29/0417Z TN24/0509Z BECMG 0414/0416 35010KT TEMPO 0416/0421 4000 TSRA BKN015 FEW025CB BECMG 0421/0423 06006KT BECMG 0507/0509 12005KT BECMG 0510/0512 06007KT RMK PHI
SBBG,TAF SBBG 040900Z 0412/0424 09010KT CAVOK TX26/0414Z TN19/0423Z RMK PEU
SBBI,TAF SBBI 040300Z 0406/0418 08005KT 1500 BR OVC005 TN13/0408Z TX25/0418Z PROB30 0406/0411 0300 FG OVC004 BECMG 0411/0412 27005KT 9999 FEW025 BECMG 0414/0416 SCT030 RMK PEC
SBBR,TAF SBBR 040830Z 0412/0512 03004KT 9999 FEW025 TX26/0416Z TN17/0505Z BECMG 0412/0414 06008KT BECMG 0414/0416 FEW040 TEMPO 0418/0421 TSRA SCT040 FEW045CB BECMG 0421/0423 12005KT FEW040 BECMG 0502/0504 VRB04KT CAVOK RMK PGL
SBBU,TAF SBBU 032300Z 0406/0418 15005KT CAVOK TN18/0409Z TX30/0418Z BECMG 0409/0411 09005KT BECMG 0412/0414 03005KT BECMG 0415/0417 35005KT FEW040 RMK PGN
SBBV,TAF SBBV 040850Z 0412/0512 08017KT CAVOK TX33/0419Z TN24/0510Z BECMG 0420/0422 10007KT BECMG 0510/0512 08017KT RMK PHI
SBBW,TAF SBBW 032300Z 0406/0418 00000KT 9999 FEW020 TN20/0409Z TX31/0417Z TEMPO 0408/0411 4000 RA BR BKN008 BECMG 0412/0414 08005KT BECMG 0415/0417 SCT020 FEW025TCU RMK PGN
SBCB,TAF SBCB 040830Z 0412/0424 26010KT 9999 SCT020 TX27/0417Z TN24/0424Z BECMG 0415/0417 17010KT BECMG 0420/0422 07010KT RMK PHN
SBCF,TAF SBCF 040830Z 0412/0512 08005KT 9999 SCT025 TX26/0417Z TN17/0505Z BECMG 0415/0417 04008KT PROB40 0418/0421 01005KT VCSH SCT040 FEW045TCU BECMG 0421/0423 10008KT FEW040 BECMG 0500/0502 CAVOK BECMG 0509/0511 FEW030 RMK PGL
SBCG,TAF SBCG 040830Z 0412/0512 35008KT CAVOK TX31/0418Z TN22/0505Z BECMG 0413/0415 SCT035 BECMG 0419/0421 15005KT BECMG 0421/0423 12004KT CAVOK BECMG 0502/0504 05005KT RMK PGL
SBCJ,TAF SBCJ 040850Z 0412/0424 06005KT 7000 BKN007 TN22/0412Z TX27/0418Z BECMG 0413/0415 SCT015 BECMG 0417/0419 12005KT PROB30 0420/0422 TS BKN025 FEW030CB RMK PHI
SBCO,TAF SBCO 040300Z 0406/0418 25003KT 9999 SCT018 TN17/0408Z TX27/0417Z PROB30 0406/0408 3000 BR BECMG 0413/0415 18010KT RMK PEU
SBCP,TAF SBCP 040830Z 0412/0424 24007KT 9999 FEW020 TX30/0417Z TN25/0424Z BECMG 0415/0417 20010KT BECMG 0420/0423 15007KT RMK PHN
SBCR,TAF SBCR 040830Z 0412/0512 12002KT 9999 FEW018 TX32/0418Z TN24/0505Z BECMG 0413/0415 34006KT SCT018 BECMG 0416/0418 04008KT SCT025 BECMG 0422/0424 VRB03KT FEW020 RMK PGL
SBCT,TAF SBCT 040900Z 0412/0512 05005KT 9999 SCT012 TX24/0416Z TN14/0506Z BECMG 0414/0415 30003KT SCT030 BECMG 0421/0423 07005KT BECMG 0502/0504 1500 BR OVC004 PROB30 0506/0509 12003KT 0400 FG OVC001 BECMG 0510/0512 9999 SCT015 RMK PEC
SBCY,TAF SBCY 040850Z 0412/0512 31005KT 9999 FEW020 TX32/0418Z TN23/0510Z PROB30 0418/0421 TS BKN020 FEW030CB BECMG 0422/0424 10005KT BECMG 0502/0504 31005KT RMK PHI
SBCZ,TAF SBCZ 040850Z 0412/0512 31003KT 4000 BR BKN006 TX31/0419Z TN22/0506Z BECMG 0412/0414 9999 NSW SCT010 BKN015 PROB30 TEMPO 0419/0423 4000 TSRA BKN017 FEW030CB BECMG 0423/0501 04005KT PROB30 TEMPO 0506/0512 4000 RA BR BKN005 RMK PHI
SBDN,TAF SBDN 032300Z 0406/0418 15005KT CAVOK TN19/0409Z TX32/0418Z BECMG 0409/0411 09005KT BECMG 0412/0414 05005KT BECMG 0415/0417 FEW030 RMK PGN
SBEG,TAF SBEG 040850Z 0412/0512 07005KT 8000 SCT008 FEW025TCU TX31/0417Z TN23/0510Z BECMG 0416/0418 SHRA PROB30 TEMPO 0418/0422 4000 TSRA BKN020 FEW025CB BECMG 0422/0424 13005KT NSW RMK PHI
SBFI,TAF SBFI 040900Z 0412/0512 01005KT CAVOK TX31/0416Z TN20/0508Z BECMG 0415/0416 9999 SCT030 BECMG 0417/0419 SCT030 FEW035TCU BECMG 0421/0423 09005KT CAVOK RMK PEC
SBFL,TAF SBFL 040900Z 0412/0512 31006KT 9999 SCT025 TX29/0417Z TN21/0508Z BECMG 0412/0414 34012KT CAVOK BECMG 0415/0417 01015KT 9999 SCT035 BECMG 0421/0423 35007KT BKN025 BECMG 0502/0504 28005KT 8000 SCT025 BECMG 0507/0509 21007KT RMK PEJ
SBFN,TAF SBFN 040830Z 0412/0424 14007KT 9999 SCT025 TX30/0417Z TN25/0424Z RMK PHN
SBFZ,TAF SBFZ 040830Z 0412/0512 12007KT 8000 BKN020 TX30/0416Z TN24/0509Z BECMG 0414/0416 09010KT BKN020 FEW030TCU BECMG 0420/0422 35005KT FEW020 BECMG 0500/0502 21005KT SCT020 BECMG 0509/0512 13010KT BKN020 RMK PHN
SBGL,TAF SBGL 040830Z 0412/0518 02007KT 9999 FEW025 TX28/0416Z TN21/0509Z BECMG 0416/0418 14013KT SCT025 BECMG 0420/0423 10005KT FEW025 BECMG 0500/0502 34005KT BECMG 0506/0508 02005KT BECMG 0515/0518 13013KT SCT025 RMK PHN
SBGO,TAF SBGO 040830Z 0412/0512 32005KT CAVOK TX27/0418Z TN19/0505Z BECMG 0412/0414 11007KT FEW040 TEMPO 0419/0423 TSRA SCT040 FEW045CB BECMG 0423/0501 VRB03KT FEW045 RMK PGL
SBGR,TAF SBGR 040800Z 0412/0518 07008KT 9999 BKN009 TX27/0418Z TN16/0509Z BECMG 0413/0415 SCT030 BECMG 0417/0419 14008KT BECMG 0420/0422 BKN013 BECMG 0423/0501 10004KT BECMG 0501/0503 BKN009 PROB30 0506/0511 07008KT 3000 BR BECMG 0511/0513 06010KT SCT017 BECMG 0514/0516 16007KT SCT030 RMK PGF
SBGW,TAF SBGW 040300Z 0406/0418 09003KT 6000 SCT015 TN17/0408Z TX26/0417Z PROB30 0406/0411 3000 BR BKN010 BECMG 0413/0414 9999 SCT030 RMK PEC
SBIH,TAF SBIH 040005Z 0406/0418 11007KT CAVOK TN24/0410Z TX32/0418Z BECMG 0410/0412 8000 SCT015 BECMG 0413/0414 08010KT BECMG 0416/0418 SCT020 FEW030TCU RMK PGB
SBIL,TAF SBIL 032300Z 0406/0418 20005KT 9999 SCT020 FEW025TCU TN22/0409Z TX29/0416Z TEMPO 0408/0412 6000 SHRA BKN018 FEW025TCU BECMG 0412/0414 16005KT PROB30 0416/0418 SHRA RMK PGN
SBIZ,TAF SBIZ 040005Z 0406/0418 10007KT 8000 SCT016 TN22/0409Z TX28/0418Z BECMG 0408/0410 16005KT BKN015 BECMG 0412/0414 9999 BKN025 BECMG 0416/0418 08010KT 7000 BKN020 FEW030TCU RMK PGB
SBJE,TAF SBJE 040830Z 0412/0424 06007KT 9999 BKN020 TX32/0417Z TN26/0424Z BECMG 0415/0417 02010KT BKN020 FEW025TCU BECMG 0419/0421 04007KT SCT020 RMK PHN
SBJP,TAF SBJP 040830Z 0412/0512 13010KT 8000 SCT020 TX31/0416Z TN24/0509Z BECMG 0418/0420 09007KT FEW020 BECMG 0500/0502 21005KT BECMG 0509/0512 SCT017 RMK PHN
SBJV,TAF SBJV 040300Z 0406/0418 32005KT 7000 SCT007 TN17/0408Z TX29/0416Z PROB30 0408/0411 4000 BR BKN005 BECMG 0411/0413 30005KT CAVOK BECMG 0413/0415 06008KT 9999 SCT030 RMK PEJ
SBKG,TAF SBKG 040045Z 0406/0418 09005KT 9999 SCT010 TN23/0409Z TX30/0417Z BECMG 0409/0411 15005KT SCT020 BECMG 0412/0414 12010KT SCT030 RMK PGY
SBKP,TAF SBKP 040800Z 0412/0512 12010KT CAVOK TX30/0418Z TN17/0509Z BECMG 0413/0415 30005KT SCT040 BECMG 0417/0419 23008KT BECMG 0420/0422 13010KT CAVOK RMK PGF
SBLO,TAF SBLO 040800Z 0412/0424 15004KT CAVOK TN22/0412Z TX31/0418Z BECMG 0414/0416 10005KT FEW040 BECMG 0418/0420 18004KT RMK PGF
SBMA,TAF SBMA 040850Z 0412/0424 35005KT 9999 SCT010 TX32/0418Z TN26/0424Z TEMPO 0418/0424 4000 TSRA SCT020 FEW030CB RMK PHI
SBME,TAF SBME 040045Z 0406/0418 32005KT CAVOK TN21/0409Z TX27/0417Z BECMG 0412/0414 15005KT FEW025 RMK PGY
SBMN,TAF SBMN 040900Z 0412/0424 04005KT 9999 SCT010 TN26/0412Z TX30/0416Z PROB30 0412/0414 7000 -RA BKN007 FEW030TCU BECMG 0415/0417 08005KT VCSH BKN020 FEW025TCU BECMG 0417/0419 NSW SCT020 FEW025TCU PROB40 TEMPO 0419/0423 TS SCT020 FEW030CB RMK PEJ
SBMO,TAF SBMO 040830Z 0412/0512 12010KT 8000 BKN025 TX31/0416Z TN23/0508Z BECMG 0416/0418 SCT025 BECMG 0420/0423 09007KT BECMG 0503/0505 31005KT FEW020 RMK PHN
SBMQ,TAF SBMQ 040850Z 0412/0512 02007KT 8000 SCT010 BKN020 TX31/0418Z TN24/0509Z BECMG 0414/0416 08010KT TEMPO 0416/0421 3000 TSRA BKN015 FEW025CB BECMG 0500/0502 02005KT BECMG 0505/0507 31005KT BECMG 0510/0512 02006KT RMK PHI
SBNF,TAF SBNF 040900Z 0412/0512 25008KT 9999 SCT030 TX27/0417Z TN20/0509Z BECMG 0414/0416 02013KT BECMG 0422/0424 36009KT BKN040 BECMG 0501/0503 26005KT 8000 SCT018 BKN035 BECMG 0507/0509 23005KT 5000 BR SCT007 BECMG 0509/0511 22007KT 9999 NSW SCT030 RMK PEJ
SBNT,TAF SBNT 040830Z 0412/0424 12012KT 8000 BKN023 TX31/0417Z TN25/0424Z BECMG 0415/0417 10010KT SCT025 FEW030TCU PROB40 TEMPO 0418/0422 TS SCT020 FEW027CB BECMG 0422/0424 14005KT FEW020 RMK PHN
SBOI,TAF SBOI 040850Z 0412/0424 03007KT 9999 SCT012 BKN025 TN26/0412Z TX31/0418Z PROB30 TEMPO 0416/0420 4000 RA BKN010 FEW023TCU RMK PHI
SBPA,TAF SBPA 040900Z 0412/0512 18009KT 9999 SCT020 TX27/0417Z TN18/0509Z BECMG 0500/0501 16004KT RMK PEU
SBPB,TAF SBPB 040830Z 0412/0424 15007KT 9999 BKN017 TX28/0417Z TN23/0424Z BECMG 0415/0417 10010KT BKN017 FEW025TCU BECMG 0420/0422 13005KT SCT017 RMK PHN
SBPJ,TAF SBPJ 040830Z 0412/0512 10007KT 8000 SCT020 FEW030TCU TX28/0418Z TN23/0509Z TEMPO 0415/0423 6000 TS SCT017 FEW030CB BECMG 0423/0501 08005KT SCT015 PROB40 TEMPO 0501/0508 5000 TSRA SCT013 FEW027CB BECMG 0509/0512 22007KT FEW025 RMK PHN
SBPK,TAF SBPK 040900Z 0412/0512 16006KT 9999 SCT020 TX24/0415Z TN17/0509Z RMK PEU
SBPL,TAF SBPL 040830Z 0412/0512 16010KT 8000 SCT025 TX34/0418Z TN24/0509Z PROB30 TEMPO 0422/0501 7000 TS BKN020 FEW030CB BECMG 0501/0503 18005KT FEW020 BECMG 0510/0512 16010KT SCT025 RMK PHN
SBPP,TAF SBPP 040800Z 0412/0512 03008KT CAVOK TX31/0418Z TN21/0509Z BECMG 0413/0415 SCT020 PROB30 0417/0420 SCT025 FEW030TCU BECMG 0420/0422 08003KT CAVOK RMK PGF
SBPS,TAF SBPS 040830Z 0412/0512 24007KT 7000 BKN016 BKN030 TX28/0417Z TN23/0509Z PROB30 0412/0414 15010KT 5000 TSRA BKN015 FEW025CB BECMG 0415/0417 SCT017 FEW025TCU PROB40 0418/0421 5000 TSRA BKN015 FEW025CB BECMG 0421/0423 23007KT SCT017 TEMPO 0506/0510 4000 RA BR BKN010 FEW025TCU RMK PHN
SBPV,TAF SBPV 040850Z 0412/0512 06005KT 9999 SCT005 FEW035TCU TX31/0419Z TN23/0510Z BECMG 0413/0415 35005KT PROB30 TEMPO 0417/0422 29005KT 4000 SHRA BKN014 FEW035TCU BECMG 0504/0506 06003KT TEMPO 0506/0512 35005KT 4000 BR BKN003 RMK PHI
SBRB,TAF SBRB 040850Z 0412/0424 31005KT 4000 BR BKN004 TN24/0412Z TX31/0419Z BECMG 0412/0414 9999 NSW SCT017 TEMPO 0417/0422 3000 SHRA BKN007 FEW030TCU BECMG 0422/0424 05005KT RMK PHI
SBRF,TAF SBRF 040830Z 0412/0512 14010KT 8000 SCT023 TX30/0417Z TN25/0508Z BECMG 0420/0423 11007KT BECMG 0504/0506 31005KT BECMG 0509/0512 14010KT RMK PHN
SBRJ,TAF SBRJ 040830Z 0412/0424 04005KT 9999 SCT030 TX28/0417Z TN24/0424Z BECMG 0415/0417 16010KT FEW025 BECMG 0421/0423 11005KT SCT025 RMK PHN
SBRP,TAF SBRP 040830Z 0412/0424 10005KT CAVOK TX30/0417Z TN18/0423Z BECMG 0412/0414 03005KT FEW035 BECMG 0415/0417 35005KT BKN030 FEW045TCU BECMG 0420/0422 VRB04KT CAVOK RMK PGL
SBSC,TAF SBSC 040300Z 0406/0418 04003KT 8000 SCT025 TN20/0408Z TX27/0417Z BECMG 0413/0414 18005KT RMK PEC
SBSG,TAF SBSG 040830Z 0412/0512 19007KT 9999 BKN025 TX31/0416Z TN23/0509Z BECMG 0415/0417 15010KT BKN025 FEW030TCU PROB40 TEMPO 0418/0423 7000 TS BKN020 FEW030CB BECMG 0500/0502 27005KT FEW020 BECMG 0510/0512 18007KT BKN025 RMK PHN
SBSJ,TAF SBSJ 040800Z 0412/0424 03005KT 8000 SCT012 TX27/0418Z TN20/0423Z BECMG 0413/0415 9999 SCT030 BECMG 0417/0419 14008KT RMK PGF
SBSL,TAF SBSL 040830Z 0412/0512 33005KT 8000 SCT017 TX31/0416Z TN25/0509Z BECMG 0414/0416 34010KT BKN020 FEW025TCU PROB30 TEMPO 0417/0421 5000 TSRA BKN017 FEW025CB BECMG 0422/0424 01007KT SCT017 BECMG 0503/0505 17005KT BKN017 PROB40 0508/0512 4000 BR SCT010 BKN015 RMK PHN
SBSM,TAF SBSM 040300Z 0406/0418 24003KT 9999 SCT015 TN17/0408Z TX26/0417Z PROB30 0406/0408 3000 BR RMK PEU
SBSN,TAF SBSN 040850Z 0412/0512 14005KT 9999 SCT015 TX30/0419Z TN24/0509Z BECMG 0412/0414 08010KT BECMG 0422/0424 16005KT TEMPO 0503/0509 08010KT 4000 TSRA BKN010 FEW020CB BECMG 0510/0512 09010KT RMK PHI
SBSP,TAF SBSP 040800Z 0412/0424 08005KT CAVOK TX27/0417Z TN20/0423Z BECMG 0414/0416 15008KT SCT040 BECMG 0420/0422 BKN011 RMK PGF
SBSV,TAF SBSV 040830Z 0412/0512 15010KT 9999 SCT023 TX28/0414Z TN25/0505Z BECMG 0508/0510 FEW023 RMK PGL
SBTD,TAF SBTD 040800Z 0412/0424 02008KT CAVOK TN19/0412Z TX32/0419Z BECMG 0415/0417 34005KT FEW030 RMK PGF
SBTE,TAF SBTE 040830Z 0412/0424 34005KT 8000 BKN017 TX32/0417Z TN24/0423Z BECMG 0416/0418 32010KT BKN020 FEW025TCU TEMPO 0418/0423 5000 TSRA SCT015 FEW025CB RMK PHN
SBTF,TAF SBTF 040850Z 0412/0424 15005KT 9999 SCT007 TN25/0412Z TX32/0419Z BECMG 0415/0417 05005KT PROB40 TEMPO 0418/0422 4000 TSRA BKN017 FEW025CB RMK PHI
SBTT,TAF SBTT 040850Z 0412/0512 13005KT 7000 SCT007 TX29/0419Z TN22/0511Z PROB30 0412/0414 3000 RA BKN005 BECMG 0414/0416 31005KT PROB30 TEMPO 0419/0422 03010KT 4000 SHRA BKN014 FEW025TCU BECMG 0500/0502 13005KT PROB30 0506/0512 3000 BR BKN005 RMK PHI
SBUG,TAF SBUG 040900Z 0412/0424 15009KT 8000 SCT020 FEW030TCU TX25/0416Z TN20/0423Z RMK PEU
SBUL,TAF SBUL 032300Z 0406/0418 10005KT CAVOK TN17/0409Z TX27/0417Z BECMG 0408/0410 07005KT BECMG 0412/0414 05005KT FEW030 BECMG 0415/0417 03005KT BKN030 FEW045TCU RMK PGN
SBUR,TAF SBUR 032300Z 0406/0418 03005KT CAVOK TN18/0409Z TX28/0417Z BECMG 0411/0413 SCT030 BECMG 0415/0417 35005KT TSRA BKN030 FEW040CB RMK PGN
SBVH,TAF SBVH 040005Z 0406/0418 05010KT 9999 SCT020 TN21/0410Z TX27/0418Z BECMG 0410/0412 02007KT 4000 BR BKN010 OVC020 BECMG 0414/0416 31007KT 7000 NSW BKN020 FEW030TCU RMK PGB
SBVT,TAF SBVT 040830Z 0412/0512 21010KT 8000 SCT025 TX29/0417Z TN23/0508Z PROB40 0415/0420 5000 RA BR BKN017 BECMG 0500/0502 24005KT PROB40 TEMPO 0506/0512 4000 RA BR BKN015 RMK PHN
SBYS,TAF SBYS 040300Z 0406/0418 07003KT CAVOK TN17/0408Z TX29/0417Z BECMG 0415/0417 9999 SCT030 RMK PEC
SCAR,TAF SCAR 041030Z 0412/0512 07004KT CAVOK TX27/0418Z TN22/0510Z BECMG 0414/0416 22012KT BECMG 0422/0500 03004KT
SCAT,TAF SCAT 041030Z 0412/0512 34004KT 9999 OVC016 TX24/0418Z TN17/0510Z TEMPO 0412/0414 5000 -DZ SCT005 OVC012 BECMG 0415/0417 28010KT BKN020 BECMG 0417/0419 CAVOK BECMG 0423/0501 16004KT BECMG 0504/0506 OVC005
SCBA,TAF SCBA 041045Z 0412/0512 30015KT 9999 BKN040 TN10/0412Z TX15/0419Z BECMG 0421/0423 FEW040 BKN100
SCCF,TAF SCCF 041030Z 0412/0512 10010KT 9999 FEW070 TX23/0419Z TN08/0510Z BECMG 0413/0415 27004KT BECMG 0416/0418 27020KT BKN060 BECMG 0501/0503 27010KT BECMG 0504/0506 11010KT CAVOK
SCCH,TAF SCCH 041100Z 0412/0424 23004KT CAVOK TX27/0419Z TN12/0412Z BECMG 0416/0418 24010KT
SCCI,TAF SCCI 041020Z 0412/0512 33023KT 9999 SCT040 TX14/0418Z TN05/0412Z TEMPO 0415/0419 SHRA SCT020 BKN030 TEMPO 0423/0502 35007KT SCT015 BKN035 BECMG 0502/0504 06012G25KT SCT010 BKN030
SCCY,TAF SCCY 041110Z 0412/0424 03006KT 9999 BKN035 TN12/0412Z TX15/0419Z BECMG 0421/0423 SCT035
SCDA,TAF SCDA 041030Z 0412/0512 20006KT CAVOK TX27/0418Z TN21/0510Z BECMG 0413/0415 21016KT BECMG 0502/0504 21004KT
SCEL,TAF SCEL 041000Z 0412/0512 33004KT CAVOK TX29/0419Z TN13/0510Z BECMG 0412/0414 20004KT BECMG 0416/0418 20010KT BECMG 0502/0504 VRB02KT
SCFA,TAF SCFA 041030Z 0412/0512 20004KT CAVOK TX23/0418Z TN19/0510Z BECMG 0414/0416 20014KT BECMG 0502/0504 20004KT BKN020 BECMG 0508/0510 CAVOK
SCFM,TAF SCFM 041020Z 0412/0500 35012G24KT 9999 SCT040 TX14/0418Z TN05/0412Z TEMPO 0415/0419 SHRA SCT018 BKN025
SCGE,TAF SCGE 041100Z 0412/0424 20005KT CAVOK TX25/0419Z TN14/0412Z BECMG 0416/0418 18012KT
SCGZ,TAF SCGZ 041020Z 0412/0500 20005KT 9999 SCT040 TX13/0418Z TN02/0412Z BECMG 0412/0414 35010G25KT BECMG 0417/0419 SHRA SCT016 BKN025
SCHR,TAF SCHR 041020Z 0412/0500 33008KT 9999 SCT035 TX16/0418Z TN08/0412Z TEMPO 0412/0416 VRB03KT 0600 FG SCT004 BKN010 BECMG 0416/0418 SHRA SCT016 BKN025
SCIC,TAF SCIC 041100Z 0412/0424 20004KT CAVOK TX25/0419Z TN13/0412Z BECMG 0416/0418 20008KT
SCIE,TAF SCIE 041000Z 0412/0512 17004KT CAVOK TX22/0419Z TN10/0510Z BECMG 0414/0416 20010KT BECMG 0503/0505 30012KT TEMPO 0505/0512 33005KT 3000 BR BKN002
SCIP,TAF SCIP 041030Z 0412/0512 29015KT 9999 SCT013 BKN025 TX26/0420Z TN23/0511Z TEMPO 0412/0419 5000 -SHRA SCT010 BKN020 BECMG 0421/0423 4000 SHRA SCT010 BKN020
SCIR,TAF SCIR 041100Z 0412/0424 17010KT 9999 SCT015 BKN025 TX21/0419Z TN17/0412Z
SCJO,TAF SCJO 041119Z 0412/0424 VRB02KT 5000 BR FEW003 TN03/0412Z TX21/0420Z BECMG 0413/0415 16006KT CAVOK
SCMK,TAF SCMK 041104Z 0412/0424 35010KT 9999 OVC015 TN12/0412Z TX15/0419Z TEMPO 0412/0416 5000 -RA SCT007 OVC012 BECMG 0416/0416 02005KT FEW025 BKN100
SCNT,TAF SCNT 041020Z 0412/0500 35008KT 9999 SCT040 TX15/0418Z TN06/0412Z TEMPO 0412/0415 SHRA SCT010 BKN022 BECMG 0422/0500 26006KT
SCPQ,TAF SCPQ 041058Z 0412/0424 35006KT 9999 OVC009 TN11/0412Z TX20/0419Z BECMG 0413/0415 BKN020 BECMG 0417/0419 FEW030 BKN100
SCQP,TAF SCQP 041042Z 0412/0512 VRB02KT 2000 BR SCT003 TN03/0412Z TX23/0420Z BECMG 0413/0415 CAVOK BECMG 0415/0417 23006KT BECMG 0501/0503 VRB02KT 2000 BR OVC003 TEMPO 0503/0508 0500 FG VV001
SCRD,TAF SCRD 041100Z 0412/0424 14004KT CAVOK TX27/0419Z TN15/0412Z BECMG 0415/0417 30012KT TEMPO 0419/0500 33005KT 3000 BR SCT005 BKN010
SCRG,TAF SCRG 041100Z 0412/0424 20004KT CAVOK TX27/0419Z TN14/0412Z BECMG 0416/0418 21010KT
SCSE,TAF SCSE 041000Z 0412/0512 VRB02KT 5000 BR SCT008 BKN012 TX17/0418Z TN13/0510Z TEMPO 0412/0415 2000 BR BKN002 BECMG 0418/0420 30012KT FEW010 SCT020 BECMG 0502/0504 30004KT BECMG 0506/0508 SCT007 BKN010 TEMPO 0506/0512 0500 FG OVC002
SCSN,TAF SCSN 041100Z 0412/0424 VRB02KT CAVOK TX18/0417Z TN09/0412Z TEMPO 0414/0418 3000 BR SCT005 BKN010 BECMG 0414/0416 30010KT
SCTB,TAF SCTB 041100Z 0412/0424 VRB02KT CAVOK TX27/0419Z TN15/0412Z BECMG 0416/0418 24008KT
SCTE,TAF SCTE 041044Z 0412/0512 VRB02KT CAVOK TN03/0412Z TX20/0419Z BECMG 0501/0503 03005KT BECMG 0505/0507 03015KT BKN080
SCTN,TAF SCTN 041101Z 0412/0424 VRB02KT CAVOK TN10/0412Z TX19/0419Z
SCVM,TAF SCVM 041000Z 0412/0512 35004KT CAVOK TX21/0418Z TN10/0510Z TEMPO 0414/0418 3000 BR SCT008 BKN012 BECMG 0418/0420 30012KT BECMG 0504/0506 30004KT TEMPO 0506/0512 2000 BR SCT002 BKN008
SEGU,SEGU 041030Z 0412/0512 15005KT 9999 FEW008 BKN016 OVC080 BECMG 0416/0418 21008KT BKN020 BKN090 TEMPO 0423/0502 5000 RA SCT008 BKN020 OVC080 BECMG 0505/0507 FEW010 OVC016 TX31/0420Z TN25/0510Z
SELT,SELT 041030Z 0412/0512 16004KT 9999 FEW010 BKN030 BKN090 BECMG 0413/0414 SCT033 BKN090 BECMG 0416/0418 22014KT TEMPO 0420/0422 FEW026TCU BKN030 BKN100 BECMG 0502/0504 FEW013 BKN026 BKN090 TX17/0419Z TN09/0511Z
SEMT,SEMT 041030Z 0412/0512 16004KT 9999 BKN023 BKN090 TEMPO 0417/0420 30010KT BECMG 0423/0501 OVC020 BECMG 0507/0509 FEW016 BKN023 TX31/0420Z TN24/0510Z
SEQM,SEQM 041030Z 0412/0512 13003KT 9999 SCT026 SCT100 BECMG 0417/0419 35013KT BKN030 BKN100 TEMPO 0420/0423 TSRA FEW026CB BKN030 BKN100 BECMG 0500/0501 05003KT FEW010 BKN026 BKN090 BECMG 0505/0507 SCT005 SCT020 OVC080 TX23/0419Z TN11/0511Z
SGAS,TAF SGAS 041100Z 0412/0512 09005KT CAVOK TX33/0419Z TN22/0510Z BECMG 0418/0421 02009KT 9999 BKN027 PROB40 TEMPO 0421/0500 15009KT 8000 -RA BKN020 BECMG 0503/0506 VRB05KT 9999 -RA BKN020
SGCO,TAF SGCO 041100Z 0412/0512 09004KT CAVOK TX34/0419Z TN23/0510Z BECMG 0418/0421 02010KT 9999 BKN027 PROB30 TEMPO 0422/0500 VRB06KT 7000 TS SHRA BKN020 FEW040CB BECMG 0503/0506 CAVOK
SGEN,TAF SGEN 041100Z 0412/0512 07003KT CAVOK TX30/0419Z TN19/0510Z BECMG 0414/0417 02007KT 9999 BKN033 PROB30 TEMPO 0418/0421 14010KT 7000 RA BKN020 BECMG 0500/0503 14008KT 9999 -RA BKN0270
SGES,TAF SGES 041100Z 0412/0512 07004KT CAVOK TX32/0419 TN22/0510Z BECMG 0418/0421 9999 BKN027 PROB30 TEMPO 0500/0503 7000 RA BKN020 BECMG 0503/0506 VRB05KT 9999 BKN033
SKAR,TAF SKAR 041030Z 0412/0512 00000KT 3000 BCFG BKN012 TEMPO 0412/0416 DZRA BECMG 0416/0417 9999 NSW SCT020 TEMPO 0419/0421 SCT020TCU TEMPO 0421/0501 4000 TSRA FEW017CB BKN023 TX28/0420Z TN17/0511Z
SKBG,TAF SKBG 041030Z 0412/0512 VRB02KT 9999 SCT010 BECMG 0415/0417 35010KT SCT015 PROB40 TEMPO 0421/0501 DZ BKN010 BECMG 0501/0503 VRB02KT SCT010 PROB40 TEMPO 0509/0511 4000 BCFG SCT008 TX28/0419Z TN19/0511Z
SKBO,TAF SKBO 041030Z 0412/0512 VRB02KT 9999 BKN015 BECMG 0415/0417 12010KT SCT020 BECMG 0501/0503 VRB02KT SCT015 TEMPO 0505/0508 DZ BKN015 TX20/0419Z TN08/0511Z
SKBQ,TAF SKBQ 041030Z 0412/0512 03005KT CAVOK BECMG 0418/0420 03015KT BECMG 0423/0501 03015G25KT BECMG 0506/0508 03005KT TX32/0418Z TN25/0510Z
SKCC,TAF SKCC 041030Z 0412/0512 VRB02KT 4000 BCFG BKN008 BECMG 0415/0417 36012KT 9999 NSW SCT023 BECMG 0501/0503 VRB02KT SCT015 TX31/0419Z TN22/0511Z
SKCG,TAF SKCG 041030Z 0412/0512 02004KT 9999 FEW018 BECMG 0416/0418 03015KT BECMG 0505/0507 01005KT TX33/0319Z TN25/0510Z
SKCL,TAF SKCL 041030Z 0412/0512 VRB02KT 9999 SCT020 TEMPO 0412/0415 DZRA SCT020 BKN090 TEMPO 0419/0421 SCT020TCU TEMPO 0421/0424 32014KT SCT020CB TEMPO 0500/0504 DZ TX31/0420Z TN19/0511Z
SKLT,TAF SKLT 041030Z 0412/0512 00000KT 9999 SCT015 PROB40 TEMPO 0420/0424 5000 TSRA BKN015CB TX30/0419Z TN23/0511Z
SKPE,TAF SKPE 041030Z 0412/0512 12004KT 9999 SCT015 TEMPO 0412/0416 4000 DZ BR BKN010 TEMPO 0419/0421 SCT020TCU TEMPO 0421/0424 TS SCT020CB TEMPO 0500/0505 DZ SCT015 BKN080 TX27/0420Z TN18/0511Z
SKRG,TAF SKRG 041030Z 0412/0512 VRB02KT 9999 BKN010 BECMG 0413/0415 12010KT SCT018 TEMPO 0414/0418 RA BKN013 TEMPO 0420/0424 5000 RA SCT020CB BECMG 0500/0501 VRB02KT TEMPO 0508/0512 4000 BCFG BKN006 TX22/0419Z TN14/0511Z
SKSM,TAF SKSM 041030Z 0412/0512 22004KT 9999 FEW020 BECMG 0417/0419 35014KT TX36/0419Z TN26/0510Z
SKSP,TAF SKSP 041030Z 0412/0512 06012KT 9999 FEW017 TX31/0419Z TN26/0510Z
SLAL,TAF SLAL 041000Z 0412/0512 00000KT 9999 SCT010 SCT070 TX18/0419Z TN10 /0510Z BECMG 0414/0416 01012KT SCT017 FEW030CB SCT070 TEMPO 0418/0420 8000 TSRA BECMG 0500/0502 00000KT BKN012 BKN070
SLCB,TAF SLCB 041000Z 0412/0512 00000KT 9999 SCT030 BKN070 TX25/0419Z TN14 /0510Z BECMG 0414/0416 24010KT SCT030 FEW033CB BKN070 TEMPO 0417/0420 12012G24KT 8000 TSRA BECMG 0500/0502 31010KT SCT027 BKN070 PROB40 TEMPO 0503/0505 6000 RA
SLCO,TAF SLCO 041000Z 0412/0512 36008KT 9999 SCT017 BKN080 TX33/0420Z TN23 /0510Z TEMPO 0418/0421 8000 SHRA FEW020 FEW023CB BECMG 0423/1502 00000KT BKN012 BKN070
SLET,TAF SLET 041010Z 0412/0512 32012KT 9999 BKN015 FEW030CB BKN070 TX28/ 0419Z TN21/0509Z PROB40 TEMPO 0415/0417 32015G25KT 5000 RA BECMG 0418 /0421 34015KT BKN020 FEW023TCU BECMG 0423/0501 34006KT SCT017 TEMPO 0508/0510 BKN008 FEW030CB
SLLP,TAF SLLP 041000Z 0412/0512 VRB02KT 4000E BCFG FEW003 BKN010 TX16/ 0419Z TN04/0510Z BECMG 0413/0416 14012KT 9999 NSW SCT015 FEW017CB TEMPO 0417/0421 TSRA BECMG 0500/0504 3000E BCFG FEW003 BKN010
SLTJ,TAF SLTJ 041000Z 0412/0512 00000KT 9999 FEW030 SCT070 TX20/0419Z TN13 /0510Z BECMG 0414/0416 15010KT SCT030 FEW036CB BKN070 TEMPO 0416/0419 6000 TSRA BECMG 0500/0502 00000KT BKN023 BKN070 TEMPO 0503/0505 4000 RA
SLTR,TAF SLTR 041000Z 0412/0512 34009KT 9999 SCT017 FEW023CB BKN080 TX33/ 0420Z TN23/0510Z PROB40 TEMPO 0414/0418 7000 TSRA BECMG 0422/1501 00000KT BKN011 BKN070
SLVR,TAF SLVR 041010Z 0412/0512 34012KT 9999 BKN015 FEW030CB BKN070 TX28/ 0419Z TN20/0509Z PROB40 TEMPO 0415/0417 34015G25KT 5000 RA BECMG 0418 /0421 34015KT BKN020 FEW023TCU BECMG 0423/0501 34006KT SCT017 TEMPO 0508/0510 BKN008 FEW030CB
SMJP,TAF SMJP 041000Z 0412/0512 05008KT 9999 SCT020 TX33/0417Z TN23/0507Z
SMZO,TAF SMZO 041000Z 0412/0512 06010KT 9999 SCT020 TX32/0416Z TN24/0509Z TEMPO 0417/0420 03011G21KT
SOCA,TAF SOCA 041000Z 0412/0512 07010KT 9999 SCT025 PROB30 TEMPO 0412/0415 3000 SHRA BKN015TCU BECMG 0422/0424 VRB02KT
SPCL,TAF SPCL 041100Z 0412/0512 35005KT 9999 SCT015 BKN100 TX32/0419Z TN23/0511Z TEMPO 0419/0423 06052KT 4000 SHRA BKN012 FEW025TCU BKN080
SPEO,TAF SPEO 041105Z 0412/0512 18006KT 7000 SCT030 BKN100 TX30/0419Z TN23/0511Z BECMG 0414/0416 23008KT 9999 FEW020 SCT080 TEMPO 0421/0501 08014KT 6000 RA BKN020 OVC060
SPGM,TAF SPGM 041105Z 0412/0512 VRB03KT 9999 FEW040 BKN100 TX29/0420Z TN21/0511Z TEMPO 0412/0414 5000 BR BKN015
SPHI,TAF SPHI 041105Z 0412/0512 06004KT 9999 SCT020 BKN100 TX31/0419Z TN24/0511Z TEMPO 0412/0414 35014G24KT 3000 TSRA SCT030CB OVC060 BECMG 0414/0416 24006KT 8000 FEW010 SCT100 TEMPO 0423/0503 12014KT 4000 RA BKN030 OVC080
SPHO,TAF SPHO 041100Z 0412/0512 25005KT 9999 FEW010 BKN070 TX23/0419Z TN12/0511Z TEMPO 0412/0415 RA BECMG 0417/0419 FEW040TCU BKN100 TEMPO 0422/0501 14015KT TSRA FEW020CB BKN070 BECMG 0501/0502 FEW040 BKN080
SPJC,TAF SPJC 041100Z 0412/0512 16006KT 8000 SCT012 SCT100 TX30/0419Z TN23/0511Z TEMPO 0412/0413 BKN010 BECMG 0413/0415 25006KT CAVOK BECMG 0418/0419 18013KT BECMG 0503/0505 16006KT
SPJI,TAF SPJI 041100Z 0412/0512 12005KT 9999 SCT020 BKN080 TX33/0419Z TN21/0511Z TEMPO 0412/0415 2000 BCFG BKN010 BKN080 TEMPO 0418/0422 4000 SHRA BKN010 FEW025TCU BKN080
SPJR,TAF SPJR 041105Z 0412/0512 VRB02KT SCT025 BKN050 TX23/0419Z TN08/0511Z BECMG 0416/0418 15010KT BECMG 0420/0422 VRB03KT TEMPO 0510/0512 SCT023 OVC047
SPLO,TAF SPLO 041130Z 0412/0512 18010KT 9999 FEW090 TX28/0419Z TN19/0511Z FM042300 15006KT 9999 BKN070
SPME,TAF SPME 041105Z 0412/0512 VRB02KT 7000 OVC020 TX30/0419Z TN24/0511Z BECMG 0414/0416 05006KT 9999 SCT030 TEMPO 0502/0506 03014KT 4000 RA BKN010 OVC040
SPMS,TAF SPMS 041100Z 0412/0512 36005KT 9999 SCT015 BKN080 TX31/0419Z TN22/0511Z TEMPO 0415/0419 2000 RA BKN008 FEW025TCU BKN080 TEMPO 0419/0422 4000 RA BKN010 BKN080
SPNC,TAF SPNC 041105Z 0412/0512 08005KT 9999 SCT030 TX29/0419Z TN15/0511Z BECMG 0416/0418 06015KT BECMG 0500/0502 07004KT
SPPY,TAF SPPY 041100Z 0412/0512 10008KT 9999 SCT012 BKN050 TX19/0420Z TN09/0511Z TEMPO 0412/0416 2000 BCFG BKN010 BKN040 TEMPO 0418/0422 12015KT 3000 SHRA BKN010 FEW025TCU BKN040
SPQT,TAF SPQT 041100Z 0412/0512 35004KT 9999 SCT005 BKN080 TX32/0419Z TN23/0511Z TEMPO 0412/0414 4000 RA BKN003 BKN080 BECMG 0414/0417 05005KT BKN015 BKN100 TEMPO 0419/0423 10015KT 3000 SHRA BKN010 FEW025CB BKN080 TEMPO 0508/0512 2000 BCFG BKN002 BKN080
SPQU,TAF SPQU 041130Z 0412/0512 25006KT 9999 FEW020 SCT080 TX20/0418Z TN11/0510Z FM042030 28010KT 9999 SCT010 BKN015 SCT080 BECMG 0422/0424 05005KT 3000 BR BKN004 BKN010 TEMPO 0500/0502 0800 FG OVC002 BECMG 0502/0504 8000 NSW SCT007 BKN015 BKN080
SPRU,TAF SPRU 041105Z 0412/0512 15008KT 8000 SCT040 BKN100 TX30/0419Z TN22/0511Z TEMPO 0412/0414 34012KT 5000 RA BR BKN020 OVC070 BECMG 0414/0416 20006KT 9999 NSW SCT030 BKN080 TEMPO 0502/0506 08012KT 3000 RA BKN010 OVC050
SPSO,TAF SPSO 041100Z 0412/0512 VRB02KT 8000 NSC TX28/0419Z TN22/0511Z TEMPO 0412/0414 4500 BR BKN009 BECMG 0414/0416 30010KT BECMG 0420/0422 22015KT BECMG 0503/0505 20005KT
SPST,TAF SPST 041105Z 0412/0512 VRB03KT 8000 FEW020 SCT080 TX31/0420Z TN21/0511Z TEMPO 0412/0415 4000 BR BKN010 OVC046
SPTN,TAF SPTN 041130Z 0412/0512 VRB04KT CAVOK TX29/0419Z TN20/0511Z FM041600 23010KT CAVOK FM050100 VRB04KT 9999 SCT090
SPTU,TAF SPTU 041100Z 0412/0512 35005KT 9999 BKN008 BKN080 TX33/0419Z TN20/0511Z TEMPO 0412/0414 4000 RA BECMG 0414/0416 SCT020 BKN070
SPYL,TAF SPYL 041105Z 0412/0512 13010KT 7000 DZ OVC020 TX32/0419Z TN22/0511Z BECMG 0414/0416 33004KT 9999 SCT040 TEMPO 0419/0423 09010KT 8000 FEW030TCU SCT080 TEMPO 0504/0508 03014KT 6000 RA OVC060
SPZO,TAF SPZO 041100Z 0412/0512 27005KT 9999 SCT040 BKN070 TX20/0419Z TN06/0511Z BECMG 0416/0418 03015KT TEMPO 0419/0423 RA FEW040TCU SCT080 BECMG 0501/0502 15005KT
SUAA,TAF SUAA 040530Z 0406/0506 VRB03KT 9999 SCT023 OVC050 TX22/0418Z TN15/0410Z BECMG 0410/0414 12012KT TEMPO 0410/0418 RA BKN020 BKN070
SUCA,TAF SUCA 040530Z 0406/0506 VRB03KT 9999 SCT023 BKN070 TX21/0418Z TN15/0410Z BECMG 0408/0412 13010KT PROB30 TEMPO 0411/0415 RA BKN020
SUDU,TAF SUDU 040530Z 0406/0506 13005KT 9999 SCT020 BKN070 TX23/0418Z TN13/0410Z BECMG 0406/0411 3000 BR SCT010 PROB30 TEMPO 0416/0422 RA BKN015
SULS,TAF SULS 040530Z 0406/0506 VRB03KT 9999 SCT023 BKN070 TX22/0418Z TN15/0410Z BECMG 0410/0413 14012KT TEMPO 0410/0418 RA BKN020 BKN070
SUMU,TAF SUMU 040530Z 0406/0506 VRB03KT 9999 SCT023 BKN040 TX22/0418Z TN15/0410Z BECMG 0410/0414 13012KT TEMPO 0410/0418 RA BKN020 BKN070
SURV,TAF SURV 040530Z 0406/0506 14005KT 9999 FEW020 BKN070 TX23/0418Z TN15/0410Z TEMPO 0407/0415 3000 RA BR BKN010 OVC060 PROB40 TEMPO 0407/0412 TS BKN010 FEW040CB OVC060
SUSO,TAF SUSO 040530Z 0406/0506 15008KT 9999 SCT015 OVC070 TX22/0418Z TN15/0410Z TEMPO 0406/0416 3000 RA BR BKN010 OVC060 PROB40 TEMPO 0406/0412 TS BKN010 FEW040CB OVC060
SVBC,TAF SVBC 041000Z 0412/0512 05002KT 9999 SCT013 TX33/0418Z TN23/0507Z BECMG 0415/0421 07010KT 9999 BKN020
SVJC,TAF SVJC 041000Z 0412/0512 09003KT 9999 SCT013 TX33/0419Z TN24/0507Z BECMG 0418/0422 09015KT 9999 FEW016 SCT080
SVMC,TAF SVMC 041000Z 0412/0512 07004KT 9999 SCT013 TX34/0419Z TN24/0508Z TEMPO 0416/0422 09010KT 9000 DZ SCT080 BKN020
SVMG,TAF SVMG 041000Z 0412/0512 06003KT 9999 SCT013 TX33/0418Z TN23/0508Z BECMG 0418/0422 07010KT 9999 FEW013 SCT010
SVMI,TAF SVMI 041000Z 0412/0512 09005KT 9999 SCT016 TX33/0418Z TN22/0507Z BECMG 0416/0422 09003KT 9999 SCT013 BKN080
SVPR,TAF SVPR 041000Z 0412/0512 07005KT 9999 SCT013 TX33/0419Z TN22/0507Z BECMG 0418/0422 06010KT 9999 SCT013 BKN020
SVSA,TAF SVSA 041000Z 0412/0512 07002KT 9999 SCT020 TX31/0419Z TN20/0508Z TEMPO 0414/0418 16006KT 9000 DZ SCT100 BKN060
SVVA,TAF SVVA 032200Z 0400/0500 21005KT 9999 SCT016 SCT080 TX33/0419 TN23/0409 BECMG 0402/0405 08005KT BKN020 FM 040530 00000KT 9999 SCT020 BKN100
SYCJ,TAF SYCJ 041100Z 0412/0512 07012KT 9999 BKN018 SCT045 PROB30 TEMPO 0415/0419 5000 SHRA BKN018 BECMG 0423/0501 06006KT 9999 FEW018 SCT100
SYEB,TAF SYEB 041100Z 0412/0423 10010KT 9999 BKN022 SCT050 TEMPO 0416/0420 5000 SHRA BKN018
SYEC,TAF SYEC 041100Z 0412/0512 06012KT 9999 BKN020 BKN045 PROB30 TEMPO 0415/0418 5000 SHRA BKN016 BECMG 0422/0500 06006KT 9999 FEW018 SCT090
SYKA,TAF SYKA 041100Z 0412/0423 10008KT 9999 BKN018 BKN038 PROB30 TEMPO 0416/0422 5000 SHRA BKN015 SCT090
SYKM,TAF SYKM 041100Z 0412/0423 10008KT 9999 BKN018 BKN038 PROB30 TEMPO 0416/0422 5000 SHRA BKN015 SCT090
SYLT,TAF SYLT 041100Z 0412/0423 10010KT 5000 SHRA BKN018 BKN050 BECMG 0416/0418 09008KT 9999 SCT020 BKN100
SYMB,TAF SYMB 041100Z 0412/0423 07010KT 9999 BKN018 SCT040 PROB30 TEMPO 0416/0419 5000 SHRA BKN015 BECMG 0419/0421 05008KT 9999 SCT018 SCT090
TAPA,TAF TAPA 041100Z 0412/0512 09013KT 9999 SCT020 PROB40 TEMPO 0412/0418 SHRA
TBPB,TAF TBPB 041100Z 0412/0512 10015KT 9999 SCT018
TDPD,TAF TDPD 041100Z 0412/0512 11010KT 9999 SCT018
TFFF,TAF TFFF 041100Z 0412/0512 10010KT 9999 SCT030 PROB30 TEMPO 0412/0418 4000 -SHRA SCT018TCU BKN030 TEMPO 0414/0420 11015G25KT PROB40 TEMPO 0500/0509 4000 SHRA BKN018TCU
TFFR,TAF TFFR 041100Z 0412/0512 10010KT 9999 BKN025 TEMPO 0412/0422 4000 SHRA BKN018TCU TEMPO 0500/0512 VRB02KT
TGPY,TGPY 040949Z 0412/0512 08016KT 9999 FEW018 SCT040 BECMG 0414/0416 FEW020
TIST,TIST 041133Z 0412/0512 09011KT P6SM FEW030 FM041400 12016KT P6SM SCT035 FM042200 08012KT P6SM VCSH SCT030 FM050400 07006KT P6SM FEW030
TISX,TISX 041133Z 0412/0512 06008KT P6SM FEW035 FM041400 11018G24KT P6SM VCSH FEW025 SCT035 FM042200 08012KT P6SM FEW035 FM050400 06008KT P6SM FEW030
TJBQ,TJBQ 041133Z 0412/0512 09006KT P6SM FEW025 FM041400 07018G24KT P6SM FEW025 FM041700 08020G29KT P6SM VCSH SCT022 BKN050 FM042200 09011KT P6SM SCT025 SCT090 FM050200 10006KT P6SM FEW025 AMD NOT SKED 0502/0511
TJPS,TJPS 041133Z 0412/0512 09010KT P6SM FEW035 FM041400 14018G24KT P6SM SCT035 FM042200 12014G20KT P6SM FEW050 FM050030 06004KT P6SM FEW035
TJSJ,TJSJ 041133Z 0412/0512 11006KT P6SM VCSH FEW028 SCT040 FM041400 07018G24KT P6SM FEW030 FM042200 08010KT P6SM VCSH FEW025 SCT050 FM050300 11005KT P6SM VCSH SCT026 SCT035
TKPK,TAF TKPK 041100Z 0412/0512 09013KT 9999 SCT020 PROB40 TEMPO 0412/0418 SHRA
TKPN,TAF TKPN 041100Z 0412/0512 09013KT 9999 SCT020 PROB40 TEMPO 0412/0418 SHRA
TLPC,TAF TLPC 041100Z 0412/0512 10009KT 9999 SCT025 TEMPO 0412/0424 SHRA
TLPL,TAF TLPL 041100Z 0412/0512 09017KT 9999 SCT025 TEMPO 0412/0424 SHRA
TNCA,TAF TNCA 041115Z 0412/0512 08020KT 9999 FEW020
TNCB,TAF TNCB 041058Z 0412/0518 08017KT 9999 SCT018
TNCC,TAF TNCC 041115Z 0412/0512 09014KT 9999 FEW020
TNCM,TNCM 041000 0412/0512 07010KT 9999 SCT018 PROB30 TEMPO 0419/0501 07012G24KT TEMPO 0503/0509 BKN014 
TQPF,TAF TQPF 041100Z 0412/0512 09013KT 9999 SCT020 PROB40 TEMPO 0412/0418 SHRA
TRPG,TAF TRPG 041100Z 0412/0512 09015KT 9999 SCT020 PROB40 TEMPO 0412/0418 SHRA
TTCP,TAF TTCP 032200Z 0400/0424 07004KT 9999 FEW016 FM041300 10013KT 9999 FEW022
TTPP,TAF TTPP 032200Z 0400/0424 09004KT 9999 FEW016 FM041300 10013KT 9999 SCT024
TUPJ,TAF TUPJ 041100Z 0412/0512 09012KT 9999 SCT020 PROB40 TEMPO 0412/0418 SHRA
TVSA,TAF TVSA 041100Z 0412/0512 06010KT 9999 SCT018
TXKF,TAF TXKF 041136Z 0412/0512 07008KT 9999 FEW035 SCT180 BKN250 
UAAA,TAF UAAA 041100Z 0412/0512 22003MPS 9999 SCT050 BKN100 TX20/0510Z TN03/0501Z BECMG 0414/0415 5000 BR FU TEMPO 0414/0424 17003MPS 3100 FM050200 34003MPS 9999 BKN100 TEMPO 0502/0512 03003G09MPS
UAAH,TAF UAAH 041100Z 0412/0421 09010G15MPS CAVOK
UAAT,TAF UAAT 041101Z 0412/0421 36003G09MPS 9999 NSC TEMPO 0412/0415 04003G09MPS
UACC,TAF UACC 041103Z 0412/0512 12006MPS CAVOK TX17/0510Z TNM04/0501Z BECMG 0415/0417 14004MPS BECMG 0505/0507 12006MPS
UACK,TAF UACK 041100Z 0412/0421 16005MPS CAVOK TEMPO 0412/0415 18007MPS
UACP,TAF UACP 040802Z 0409/0418 14005MPS CAVOK TEMPO 0409/0412 12005MPS
UADD,TAF UADD 041100Z 0412/0421 36003G08MPS 9999 SCT020CB BKN050 TEMPO 0412/0418 -TSRA BKN030CB
UAII,TAF UAII 041105Z 0412/0512 35003G08MPS 6000 SCT050CB TX18/0510Z TN07/0501Z TEMPO 0412/0418 06005G10MPS -TSRA BKN040CB TEMPO 0418/0504 13003G08MPS 3100 BR TEMPO 0504/0512 28008G13MPS -TSRA BKN020CB
UAIT,TAF UAIT 041104Z 0412/0421 10003G08MPS 9999 SCT040CB TEMPO 0412/0418 15003G08MPS
UAKD,TAF UAKD 041101Z 0412/0421 10009MPS 9999 SCT030 BKN100 TEMPO 0412/0415 12012MPS 5000 BLDU BECMG 0415/0417 10006MPS
UAKK,TAF UAKK 041102Z 0412/0512 09005MPS 9999 SCT030 TX20/0509Z TNM03/0501Z TEMPO 0504/0512 11008MPS
UAOO,TAF UAOO 041100Z 0412/0421 19003MPS 9999 BKN020CB
UARR,TAF UARR 041103Z 0412/0421 VRB02MPS CAVOK BECMG 0415/0416 4000 HZ SCT011
UASK,TAF UASK 041104Z 0412/0421 10004MPS 9999 NSC TEMPO 0412/0415 01004MPS TEMPO 0415/0421 VRB01MPS
UASP,TAF UASP 041100Z 0412/0421 13005MPS CAVOK TEMPO 0412/0418 15003MPS 5000 FU TEMPO 0418/0421 10003MPS 3100 BR FU SCT011
UASS,TAF UASS 041100Z 0412/0421 09005MPS CAVOK TEMPO 0412/0418 VRB02MPS 3100 FU
UATE,TAF UATE 041104Z 0412/0512 28005MPS 9999 SCT033 TX14/0510Z TN05/0503Z BECMG 0416/0418 3100 BR BKN011 TEMPO 0416/0504 VRB03MPS 0200 FG VV001 BECMG 0504/0506 9999 NSW SCT033
UATG,TAF UATG 041102Z 0412/0512 33007MPS 9999 SCT033 TX20/0511Z TN07/0503Z BECMG 0419/0421 VRB02MPS TEMPO 0506/0512 33005MPS
UATT,TAF UATT 041100Z 0412/0512 12002MPS CAVOK TX18/0412Z TN04/0501Z TEMPO 0412/0418 09009MPS TEMPO 0503/0512 11007MPS
UAUU,TAF UAUU 041106Z 0412/0421 12003G08MPS CAVOK TEMPO 0412/0415 10005MPS TEMPO 0415/0421 10003MPS
UBBB,TAF UBBB 041100Z 0412/0512 15010KT 9999 SCT015 SCT050 TX14/0412Z TN07/0501Z TEMPO 0412/0418 18012KT SCT008 BECMG 0418/0420 3000 BR BCFG SCT005 TEMPO 0420/0504 17006KT 0800 FG BKN003 BECMG 0504/0506 16014KT 9999 NSW SCT020
UBBF,TAF UBBF 041055Z 0412/0421 07010KT 9999 SCT030 BECMG 0416/0418 VRB04KT TEMPO 0418/0421 5000 BR SCT010
UBBG,TAF UBBG 041100Z 0412/0512 09012KT 9999 FEW040 SCT100 TX19/0412Z TN07/0502Z BECMG 0416/0418 VRB04KT TEMPO 0420/0503 2000 BR SCT005 BKN020
UBBL,TAF UBBL 041100Z 0412/0512 13008KT 9999 SCT100 TX17/0412Z TN08/0501Z TEMPO 0412/0416 15012KT BECMG 0416/0418 17006KT 2000 BR BCFG SCT004 TEMPO 0418/0504 VRB04KT 0800 FG BKN003 BECMG 0504/0506 12008KT 9999 NSW SCT015
UBBN,TAF UBBN 041057Z 0412/0512 VRB04KT 9999 FEW046 SCT100 TX20/0412Z TN09/0503Z TEMPO 0412/0418 25010KT SCT045CB TEMPO 0419/0503 02008KT
UBBQ,TAF UBBQ 041059Z 0412/0512 16008KT 9999 SCT100 TX17/0412Z TN05/0401Z TEMPO 0414/0418 13005KT SCT020 BECMG 0418/0420 VRB04KT 3000 BR BCFG SCT006 TEMPO 0420/0504 0600 FG SCT004 BECMG 0504/0506 23006KT 9999 NSW SCT050
UBBY,TAF UBBY 041100Z 0412/0421 VRB04KT 9999 FEW050 SCT100
UBBZ,TAF UBBZ 041055Z 0412/0421 05014KT 9999 SCT030 BECMG 0415/0417 30004KT
UBEE,TAF UBEE 041100Z 0412/0421 VRB04KT CAVOK TEMPO 0412/0416 10008KT
UCFL,TAF UCFL 041058Z 0412/0512 34003G08MPS 9999 SCT030CB BKN100 TEMPO 0412/0418 27003G08MPS BECMG 0504/0506 15003G08MPS
UCFM,TAF UCFM 041047Z 0412/0512 25003G08MPS 9999 SCT040CB BKN100 TEMPO 0412/0418 28007G12MPS 2000 SHRA BLDU BKN030CB PROB40 TEMPO 0412/0418 -TSRA BKN030CB BECMG 0418/0419 12003G08MPS 6000 TEMPO 0418/0502 VRB01MPS 2000 BR FU FEW003 BECMG 0505/0507 32003G08MPS
UCFO,TAF UCFO 041047Z 0412/0512 18003G08MPS 6000 FEW050CB BKN100 TEMPO 0412/0418 27007G12MPS 1800 TSRA BR SCT010 BKN030CB BECMG 0503/0505 32003G08MPS
UDSG,TAF UDSG 041058Z 0412/0512 21006KT 9999 SCT050 TEMPO 0412/0420 VRB16KT SCT040CB
UDYZ,TAF UDYZ 041100Z 0412/0512 24006KT 9999 SCT040 TEMPO 0412/0418 VRB16G26KT SCT040CB
UEEE,TAF UEEE 041100Z 0412/0518 25005G10MPS 2100 -SHSN BKN017CB OVC070 TEMPO 0412/0424 0500 +SHSN VV003
UERP,TAF UERP 041100Z 0412/0512 30005G10MPS 7000 DRSN BKN020 BKN100 TEMPO 0409/0415 28007G12MPS 3000 -SN DRSN BECMG 0420/0422 27003G08MPS
UERR,TAF UERR 041100Z 0412/0512 30010G18MPS 2500 -SHSN BLSN BKN007 OVC017CB TEMPO 0412/0416 33010G19MPS 0500 +SHSN BLSN BKN003 OVC015CB FM041600 32005G13MPS 9999 -SN DRSN BKN017 BECMG 0509/0510 27004G10MPS
UGAM,TAF UGAM 041000Z 0411/0417 VRB02KT CAVOK
UGKO,TAF UGKO 041100Z 0412/0512 08012KT CAVOK TX25/0412Z TN14/0503Z TEMPO 0420/0504 08023G39KT TEMPO 0504/0512 08025G41KT BKN050 BECMG 0510/0512 26015KT
UGMS,TAF UGMS 041000Z 0411/0417 VRB02KT 9999 SCT100
UGSB,TAF UGSB 041100Z 0412/0512 01007KT CAVOK TX23/0412Z TN13/0502Z BECMG 0415/0417 12017KT TEMPO 0421/0506 12027KT BECMG 0509/0510 01007KT
UGTB,TAF UGTB 041100Z 0412/0512 16007KT CAVOK TX22/0412Z TN09/0502Z TEMPO 0422/0505 BKN045
UHBB,TAF UHBB 041048Z 0412/0512 25003G08MPS CAVOK TEMPO 0509/0511 18003MPS
UHHH,TAF UHHH 041046Z 0412/0518 26005MPS CAVOK TEMPO 0412/0424 27003G09MPS TEMPO 0500/0512 24008G13MPS
UHMA,TAF UHMA 041045Z 0412/0512 14003G08MPS 5000 BR FEW007 SCT015 TEMPO 0412/0512 09008G13MPS 0500 -SN FZFG DRSN BKN002 BKN015
UHMD,TAF UHMD 040454Z 0406/0412 02005G10MPS 9999 SCT010 TEMPO 0406/0412 06010G15MPS 5000 -SHSN BR SCT003 BKN010CB
UHMM,TAF UHMM 041046Z 0412/0518 11008G15MPS 1500 SHSN BKN005 OVC015CB TEMPO 0412/0506 0300 +SHSN BLSN VV002 FM050600 21003G08MPS 6000 -SHSN BKN011 OVC020CB
UHPP,TAF UHPP 041049Z 0412/0518 20003G12MPS 9999 BKN020CB TEMPO 0412/0504 1000 SHSNRA BR VV004 BECMG 0504/0506 33005G15MPS
UHSS,TAF UHSS 041050Z 0412/0518 26003G08MPS 9999 BKN030CB
UHWW,TAF UHWW 041100Z 0412/0512 36003G08MPS 9999 BKN016CB BECMG 0502/0504 12003MPS 6000 -SHRA
UIAA,TAF UIAA 041100Z 0412/0512 22005G10MPS 9999 SCT030CB TEMPO 0412/0418 28005G10MPS BECMG 0500/0502 28010G15MPS
UIBB,TAF UIBB 041100Z 0412/0512 26006G15MPS 9999 -SHSN DRSN BKN020CB TEMPO 0412/0418 1900 SHSNRA BLSN BECMG 0418/0419 32003G08MPS NSW
UIII,TAF UIII 041100Z 0412/0512 17003MPS 9999 BKN040CB BECMG 0416/0418 30006MPS TEMPO 0420/0506 32011G18MPS 0900 +SHSN BLSN VV004
UIUU,TAF UIUU 041100Z 0412/0512 25005G10MPS 9999 SCT030CB BECMG 0423/0501 31008G13MPS 4000 -SHSN DRSN TEMPO 0501/0512 32013G18MPS 1000 SHSN BLSN BKN014CB
ULAA,TAF ULAA 041100Z 0412/0512 02003MPS 9999 BKN020 TEMPO 0412/0415 36003MPS FM041500 32003MPS 7000 BKN016 TEMPO 0415/0424 6000 -SN FEW005 OVC011 FM050600 30003MPS 9999 SCT020
ULLI,TAF ULLI 041053Z 0412/0512 02003G09MPS 6000 BKN016 TEMPO 0412/0417 2000 SHSNRA BKN007 BKN016CB TEMPO 0504/0512 06005MPS
ULMM,TAF ULMM 041052Z 0412/0512 26005G10MPS 9999 BKN020 BECMG 0418/0419 29003MPS BECMG 0506/0507 22003G08MPS
ULOO,TAF ULOO 041056Z 0412/0421 36003MPS 4000 -SN OVC016 TEMPO 0412/0416 1000 SHSNRA BKN010 BKN016CB BECMG 0417/0418 6000 -SNRA TEMPO 0418/0421 3100 -SNRA BR BKN011
ULPB,TAF ULPB 041054Z 0412/0421 03003MPS 6000 -SN BKN011 OVC016 TEMPO 0412/0415 2100 -SHSN BKN010 BKN016CB TEMPO 0415/0418 3100 -SHSN BR BKN010 BKN016CB
ULWC,TAF ULWC 041100Z 0412/0421 03003MPS 6000 OVC005 TEMPO 0412/0415 2100 -SHRA BR BKN003 BKN013CB TEMPO 0415/0418 1000 BR BKN002 TEMPO 0418/0421 0500 FG OVC002
UMBB,TAF UMBB 041100Z 0412/0421 32003G08MPS 6000 BKN020 TX02/0412Z TNM01/0421Z TEMPO 0412/0415 3100 -SHSNRA BR BKN015 SCT016CB
UMGG,TAF UMGG 041101Z 0412/0512 32005MPS 9999 BKN007 TEMPO 0412/0418 30007MPS 3000 -SHRA BKN005 SCT018CB TEMPO 0418/0505 36005G10MPS 1200 SHRASN BKN003 BKN018CB TEMPO 0505/0512 36007G12MPS 2100 -SHRASN BKN005 BKN018CB
UMII,TAF UMII 041107Z 0412/0421 34003MPS 5000 BR OVC010 TEMPO 0412/0417 36003G08MPS 2000 SHSNRA BR BKN005 BKN015CB TEMPO 0417/0421 VRB02MPS 2000 BKN005
UMIO,TAF UMIO 041104Z 0412/0421 35005G10MPS 6000 BKN007 TX01/0412Z TNM01/0414Z TEMPO 0412/0414 3000 -SHRASN BKN005 BKN015CB TEMPO 0414/0421 1200 -FZDZ -SHRASN BR BKN003
UMKK,TAF UMKK 041048Z 0412/0512 35006G11MPS 6000 BKN016 TEMPO 0415/0418 4900 -SHSN BKN014CB BECMG 0418/0420 BKN010CB TEMPO 0420/0510 0900 +SHSN BKN003 BKN015CB BECMG 0506/0508 29003G08MPS
UMMG,TAF UMMG 041103Z 0412/0421 32004G09MPS 9999 BKN020 TEMPO 0412/0421 33004G09MPS 2500 -SHSN BKN016CB
UMMS,TAF UMMS 041105Z 0412/0512 33006MPS 7000 BKN010 TX01/0412Z TNM02/0503Z TEMPO 0412/0413 3000 -SN FEW004 TEMPO 0413/0424 0300 -FZDZ -SHSNRA FZFG OVC002 BKN012CB FM050000 32005G10MPS 3000 -SN BKN005 TEMPO 0500/0510 0400 -FZDZ +SHSNRA OVC003 BKN012CB
UMOO,TAF UMOO 041100Z 0412/0421 30005MPS 8000 BKN016 TEMPO 0412/0421 34005G10MPS 3000 -SHRASN BR BKN007 SCT020CB
UNAA,TAF UNAA 041051Z 0412/0512 24005G12MPS 9999 SCT025 BECMG 0418/0421 36003MPS
UNBB,TAF UNBB 041100Z 0412/0512 24005G13MPS CAVOK TEMPO 0412/0418 30003G08MPS BECMG 0418/0420 05003G08MPS TEMPO 0420/0512 10008MPS
UNEE,TAF UNEE 041100Z 0412/0512 02003G08MPS 8000 BKN040 TEMPO 0412/0418 33006G12MPS -SHRA BKN020CB
UNKL,TAF UNKL 041051Z 0412/0512 26008G18MPS 6000 -SHSN BKN016CB TEMPO 0412/0416 32005G12MPS 0250 +SHSN BKN002 BKN016CB BECMG 0416/0418 32003G08MPS
UNNT,TAF UNNT 041100Z 0412/0512 27006G15MPS 8000 SCT040 TEMPO 0412/0414 34003G08MPS BECMG 0414/0416 02003G08MPS BKN040CB BECMG 0418/0421 08003G08MPS TEMPO 0503/0512 13005G12MPS
UNOO,TAF UNOO 041050Z 0412/0512 20003G08MPS 9999 SCT033 BECMG 0414/0416 12003MPS BECMG 0504/0506 17003G08MPS
UNTT,TAF UNTT 041100Z 0412/0421 36003G10MPS 6000 -SHSNRA BKN016CB TEMPO 0412/0415 1500 SHSNRA BKN005CB
UNWW,TAF UNWW 041100Z 0412/0512 01003G08MPS 8000 SCT040 TEMPO 0412/0414 23008G13MPS
UOOO,TAF UOOO 041100Z 0412/0512 18006G12MPS 6000 -SN BLSN OVC011 TEMPO 0412/0415 19011G18MPS 1000 SN BLSN OVC016 BECMG 0415/0418 20015G23MPS 0350 SN BLSN TEMPO 0418/0512 BKN006 OVC011
URKA,TAF URKA 041056Z 0412/0512 14003G08MPS CAVOK TEMPO 0415/0421 10006G12MPS BECMG 0421/0423 16005G10MPS SCT020CB TEMPO 0423/0506 6000 -SHRA SCT010 BKN016CB TEMPO 0506/0512 18010G15MPS
URKK,TAF URKK 041051Z 0412/0512 07003G08MPS 9999 SCT030 TEMPO 0412/0421 11006G12MPS BECMG 0421/0423 22003G08MPS SCT020CB TEMPO 0423/0512 09006G13MPS 6000 -TSRA BKN016CB
URMG,TAF URMG 041100Z 0412/0421 11003G08MPS 9999 SCT055 TEMPO 0412/0418 07006G13MPS
URML,TAF URML 041100Z 0412/0421 14003G08MPS 5000 BR SCT003 BKN016 TEMPO 0412/0414 15003G08MPS 2100 BR BKN002 BECMG 0414/0416 0400 FG OVC002
URMM,TAF URMM 041100Z 0412/0512 09005G10MPS 9999 SCT055 TX18/0512Z TN02/0503Z TEMPO 0412/0418 10006G14MPS TEMPO 0418/0506 BKN016 TEMPO 0506/0512 11006G14MPS
URMN,TAF URMN 041100Z 0412/0421 04003G08MPS 9999 BKN020 TEMPO 0412/0421 10005G10MPS
URMO,TAF URMO 041100Z 0412/0421 09003G08MPS 9999 SCT055 TEMPO 0412/0418 06006G13MPS
URMT,TAF URMT 041100Z 0412/0421 12007G14MPS 9999 SCT030
URRP,TAF URRP 041055Z 0412/0512 16003G12MPS 9999 SCT016 SCT030CB TEMPO 0412/0415 13003G10MPS BECMG 0415/0417 09003G12MPS BECMG 0505/0506 10009G16MPS TEMPO 0506/0512 13011G18MPS
URSS,TAF URSS 041055Z 0412/0512 15004G09MPS 9999 BKN100 BECMG 0415/0417 05006MPS SCT040CB OVC100 TEMPO 0418/0505 VRB09G15MPS -TSRA SQ SCT016 BKN030CB OVC100 BECMG 0505/0506 18007G12MPS BECMG 0508/0509 15005G10MPS
URWA,TAF URWA 041056Z 0412/0421 19003G09MPS CAVOK TEMPO 0412/0415 34003G09MPS TEMPO 0418/0421 22003G09MPS
URWI,TAF URWI 041055Z 0412/0421 17003G12MPS 9999 SCT020
URWW,TAF URWW 041058Z 0412/0421 25003G10MPS 9999 BKN016 SCT030CB TEMPO 0412/0416 22006G11MPS BECMG 0416/0418 30003G08MPS TEMPO 0418/0421 36003G08MPS
USCC,TAF USCC 041100Z 0412/0512 14003G13MPS CAVOK FM041800 17003G08MPS 6000 SCT030
USCM,TAF USCM 041100Z 0412/0421 11003G13MPS 9999 NSC
USDA,TAF USDA 041053Z 0412/0421 25014G21MPS 0600 +SHSN BLSN BKN016CB TEMPO 0412/0421 25015G23MPS 0300 +SHSN BLSN VV002
USHH,TAF USHH 041034Z 0412/0512 06004G09MPS 9999 BKN017 TEMPO 0412/0416 10005G10MPS BECMG 0416/0418 15003G09MPS TEMPO 0416/0503 5000 BR SCT003 BKN016 BECMG 0506/0507 22005MPS
USNN,TAF USNN 041045Z 0412/0512 07003G08MPS 9999 SCT030 TEMPO 0412/0415 SCT016 BECMG 0416/0418 18003G10MPS
USPP,TAF USPP 041055Z 0412/0512 13003G14MPS CAVOK BECMG 0418/0419 09003G13MPS
USRR,TAF USRR 041040Z 0412/0512 09003MPS 9999 SCT020 BECMG 0416/0418 15005MPS TEMPO 0418/0503 1000 BR SCT002 BECMG 0503/0505 20005MPS
USSS,TAF USSS 041046Z 0412/0512 11003G10MPS CAVOK BECMG 0415/0418 6000 SCT016 FM050400 16003G13MPS 9999 SCT040
USTR,TAF USTR 041049Z 0412/0512 10004G10MPS 9999 SCT030 TEMPO 0412/0415 08006MPS FM042000 15003MPS 1500 BR BKN003 TEMPO 0420/0504 VRB01MPS 0300 FG VV002 BECMG 0504/0505 9999 NSW SCT020 BECMG 0505/0507 19005G10MPS
UTAA,TAF UTAA 041045Z 0412/0512 34016KT 6000 BKN020 SCT030CB BECMG 0418/0420 24014KT BECMG 0503/0505 06014KT 6000 SCT050
UTAK,TAF UTAK 041030Z 0412/0512 16012KT 6000 BKN008 BKN100 TEMPO 0412/0416 25012KT BECMG 0416/0418 2500 BR BKN003 BKN100 TEMPO 0420/0504 VRB02KT 0500 FG VV001 BECMG 0505/0506 9999 NSW BKN012 BKN100
UTAM,TAF UTAM 041035Z 0412/0512 35016KT 5000 BKN010 SCT020CB TEMPO 0412/0418 VRB30KT 1500 TSSHRA BKN006 TEMPO 0418/0503 VRB28KT 2000 TSSHRA BKN007
UTAT,TAF UTAT 041036Z 0412/0512 32016KT 3000 -SHRA BR SCT030CB OVC030 PROB40 TEMPO 0411/0413 VRB28KT 1000 GR OVC010CB TEMPO 0413/0420 1000 TSRA BKN020CB
UTAV,TAF UTAV 041031Z 0412/0512 01012KT 4000 -SHRA BR SCT025CB OVC070 TEMPO 0412/0415 29014G24KT 3000 SHRA BKN008 PROB40 TEMPO 0412/0415 VRB30KT TS BECMG 0417/1419 03010KT 3000 BR SCT010 TEMPO 0417/0502 VRB04KT 2000 BR BKN006
UTDD,TAF UTDD 040900Z 0410/0422 VRB02MPS 6000 SCT030CB BKN060 TEMPO 0411/0422 VRB08G13MPS -TSRA
UTDK,TAF UTDK 040900Z 0410/0419 VRB02MPS 6000 SCT030CB BKN060 TEMPO 0413/0419 21007G12MPS -TSRA
UTDL,TAF COR UTDL 040900Z 0410/0422 08005MPS 6000 FEW060CB BECMG 0411/0412 24005MPS TEMPO 0412/0419 VRB09MPS -TSRA SCT050CB
UTDT,TAF UTDT 040900Z 0410/0419 VRB02MPS 6000 SCT030CB BKN080 TEMPO 0410/0413 36005MPS TEMPO 0413/0419 36007G12MPS -TSRA
UTFF,TAF UTFF 040900Z 0410/0419 34010KT 7000 BKN060CB TEMPO 0410/0416 28010G20KT 3500 -TSRA BR OVC030CB
UTFN,TAF UTFN 041100Z 0412/0512 33010KT 7000 BKN050CB TEMPO 0412/0420 24012G2KT 3100 -TSRA BR OVC030CB
UTNN,TAF UTNN 041100Z 0412/0512 VRB04KT 9999 SCT050 BKN100
UTNU,TAF UTNU 041100Z 0412/0512 VRB04KT 9999 BKN030 BKN100 TEMPO 0412/0416 25012KT -SHRA BKN020CB
UTSA,TAF UTSA 041101Z 0412/0512 VRB05KT 7000 FEW010 SCT040CB TEMPO 0412/0423 26016KT 3000 -TSRA BR SCT006 BKN025CB
UTSB,TAF UTSB 041102Z 0412/0512 VRB05KT 7000 FEW010 SCT040CB TEMPO 0412/0423 25012KT 3000 -TSRA BR SCT006 BKN020CB
UTSK,TAF UTSK 040852Z 0410/0419 28010G20KT 7000 SCT066CB BKN100 TEMPO 0410/0413 VRB20G30KT 2500 -TSRA -DS SCT008 BKN040CB
UTSS,TAF UTSS 041056Z 0412/0512 31010G20KT 7000 SCT066CB BKN100 TEMPO 0412/0424 VRB20G30KT 2500 -TSRA BR SCT008 BKN040CB
UTST,TAF UTST 041100Z 0412/0512 24012G22KT 6000 BKN060CB BKN100 TEMPO 0412/0415 VRB10KT TEMPO 0415/0502 25019G29KT 2000 SHRA DS SCT006 BKN040CB PROB40 TEMPO 0415/0424 -TSRA
UTTT,TAF UTTT 041100Z 0412/0512 07010KT 7000 SCT050CB BKN100 TEMPO 0412/0424 VRB12G22KT 3000 -TSRA BR SCT010 BKN040CB
UUBC,TAF UUBC 041051Z 0412/0421 35003MPS 9999 BKN025 PROB40 TEMPO 0418/0421 0300 FG VV002
UUBP,TAF UUBP 041055Z 0412/0421 VRB01MPS 6000 BKN016
UUBW,TAF UUBW 041052Z 0412/0512 03003MPS 9000 SCT030 TX14/0412Z TN04/0503Z PROB40 TEMPO 0421/0505 0300 FG
UUDD,TAF UUDD 041054Z 0412/0518 03003MPS 8000 BKN016 TX14/0412Z TN04/0503Z PROB40 TEMPO 0420/0505 0300 FG SCT003
UUDL,TAF UUDL 041055Z 0412/0512 02003MPS 8000 BKN040 TX09/0412Z TN02/0503Z PROB40 TEMPO 0418/0506 0300 FG VV002
UUEE,TAF UUEE 041052Z 0412/0512 01002MPS 6000 BKN016 TX13/0412Z TN02/0503Z TEMPO 0423/0506 0300 FG OVC002
UUMO,TAF UUMO 041043Z 0412/0421 VRB01MPS 6000 BKN016
UUOB,TAF UUOB 041055Z 0412/0421 20003MPS 6000 BKN016
UUOK,TAF UUOK 041051Z 0412/0421 34003MPS 6000 BKN030
UUOL,TAF UUOL 041100Z 0412/0421 18003MPS 9999 BKN016
UUOO,TAF UUOO 041100Z 0412/0421 20003MPS 9999 BKN016
UUWW,TAF UUWW 041058Z 0412/0512 VRB01MPS 6000 FEW004 BKN016 TX13/0412Z TN04/0503Z TEMPO 0412/0415 35005G11MPS 2900 -SHRA SCT020CB PROB40 TEMPO 0421/0506 0300 FG BKN003 BECMG 0507/0509 03005MPS
UUYY,TAF UUYY 041100Z 0412/0512 04003G10MPS 9999 BKN020 FM041800 01003G08MPS 6000 FEW007 BKN016CB TEMPO 0418/0504 0300 -SHSN FZFG FEW003 BKN016CB BECMG 0504/0506 34004G12MPS
UWGG,TAF UWGG 041050Z 0412/0512 16003G08MPS 9999 SCT040 TX16/0412Z TN02/0503Z
UWKD,TAF UWKD 041100Z 0412/0512 16003MPS CAVOK TX17/0512Z TN05/0503Z
UWKE,TAF AMD UWKE 041116Z 0412/0512 17003G10MPS 9999 SCT030 TEMPO 0412/0421 22003G13MPS SCT016 TEMPO 0421/0506 6000 -SHRA BKN016CB
UWKS,TAF UWKS 041051Z 0412/0421 16003G08MPS 9999 SCT040 TX18/0412Z TN07/0421Z
UWLL,TAF UWLL 041055Z 0412/0512 12003MPS 9999 BKN016 TX13/0412Z TN03/0503Z TEMPO 0412/0415 14005G10MPS 3000 HZ
UWLW,TAF UWLW 041057Z 0412/0512 16003MPS 6000 BKN020 TX17/0412Z TN03/0503Z TEMPO 0412/0416 14005G10MPS 3000 HZ
UWOO,TAF UWOO 041058Z 0412/0512 10006G12MPS 9999 SCT033 TX18/0412Z TN02/0502Z TEMPO 0415/0509 07003MPS BECMG 0509/0510 16003G08MPS
UWOR,TAF UWOR 041059Z 0412/0421 09008G14MPS CAVOK TX18/0412Z TN03/0421Z TEMPO 0414/0421 12003G08MPS
UWPS,TAF UWPS 041055Z 0412/0421 18003G08MPS 8000 -SHRA BKN040CB TX18/0412Z TN10/0418Z TEMPO 0412/0419 22008G14MPS -TSRA
UWSG,TAF UWSG 041058Z 0412/0421 18003G08MPS 9999 SCT030CB TX18/0412Z TN09/0421Z TEMPO 0412/0418 23006G14MPS 3000 -TSRA FEW007 BKN020CB TEMPO 0418/0421 27003G08MPS
UWUU,TAF UWUU 041056Z 0412/0512 13003G08MPS 9999 BKN040 TX19/0412Z TNM00/0501Z TEMPO 0418/0506 VRB01MPS 6000 TEMPO 0506/0512 16003G09MPS
UWWW,TAF UWWW 041052Z 0412/0512 16003G09MPS 6000 BKN016 TX17/0412Z TN05/0502Z TEMPO 0412/0418 20006G12MPS 1000 HZ BKN005 TEMPO 0418/0504 0300 FG VV002 BECMG 0504/0506 34006G12MPS
VAAH,TAF VAAH 040800Z 0409/0418 31007KT 6000 SCT020 BECMG 0413/0415 27004KT 4000 FU FEW025 SCT100 BECMG 0416/0418 NSC
VAAU,TAF VAAU 040800Z 0409/0418 26008KT 5000 FU FEW020 SCT025 BECMG 0413/0415 32007KT 4000 FU FEW100
VABB,TAF VABB 041100Z 0412/0518 34008KT 4000 HZ FU FEW020 BECMG 0415/0417 02005KT 3000 HZ FU FEW100 BECMG 0422/0424 VRB03KT BECMG 0503/0505 030005KT BECMG 0506/0508 27012KT 4000 HZ FU FEW020 TEMPO 0508/0512 10008G18/KT BNECMG 0513/0515 34008KT BECMG 0516/0518 02006KT 3000 HZ FU FEW100
VABJ,TAF VABJ 040930Z 0412/0424 24010KT 6000 FEW030 BECMG 0418/0419 24004KT NSC
VABO,TAF VABO 041100Z 0412/0518 27008KT 6000 FEW020 BECMG 0415/0416 23003KT 5000 FU NSC BECMG 0421/0422 VRB02KT BECMG 0501/0503 00000KT 2500 HZ BECMG 0505/0507 27007KT 6000 FEW020 BECMG 0513/0515 4000 HZ NSC 
VABP,TAF VABP 041100Z 0412/0421 29010KT 6000 FEW025 SCT030 BECMG 0416/0418 5000 HZ FEW025
VABV,TAF VABV 040800Z 0409/0418 02008KT 6000 FEW025 SCT100 BECMG 0410/0412 15008KT BECMG 0413/0415 20008KT FEW025 BECMG 0416/0418 27005KT NSC
VADU,TAF VADU 040800Z 0409/0418 26012KT 6000 FEW025 BECMG 0416/0418 30008KT NSC
VAID,TAF VAID 041100Z 0412/0421 29010KT 6000 FEW025 SCT030 BECMG 0416/0418 5000 HZ FEW025
VAJB,TAF VAJB 041100Z 0412/0421 32010KT 6000 SCT025 SCT100 BECMG 0415/0417 5000 HZ SCT100
VAJL,TAF VAJL 040500Z 0406/0415 34005KT 4000 HZ FU FEW020 BECMG 0407/0409 26008KT 5000 FU FEW020 SCT025 BECMG 0413/0415 32007KT 4000 FU FEW100
VAJM,TAF VAJM 040930Z 0412/0424 27010KT 6000 FEW025 SCT100 BECMG 0421/0423 VRB02KT 4000 BR
VAKE,TAF VAKE 040800Z 0409/0418 24010KT 5000 FU SCT025 SCT100 TEMPO 0409/0412 25008G18KT 1000 DRDU TSRA SCT015 SCT020 FEW030CB OVC080 BECMG 0416/0418 24006KT NSC
VAKP,TAF VAKP 040800Z 0409/0418 28010KT 5000 FU FEW020 BECMG 0413/0415 33006KT 4000 FU FEW100
VANP,TAF VANP 041100Z 0412/0518 27004KT 4000 HZ FEW020 SCT100 BECMG 0413/0415 32003KT 3000 HZ BECMG 0500/0502 VRB03KT 3000 HZ FEW020 SCT100 BECMG 0504/0506 07003KT 4000 HZ FEW020 BECMG 0513/0515 VRB03KT 3000 HZ
VAOZ,TAF VAOZ 040800Z 0409/0421 30010KT 6000 FEW030
VAPO,TAF VAPO 032300Z 0400/0506 27010KT 6000 FEW025 SCT250 TEMPO 0401/0403 5000 HZ
VAPR,TAF VAPR 040800Z 0409/0418 29012KT 6000 SCT020 BKN080 BECMG 0416/0418 31008KT NSC
VARK,TAF VARK 040800Z 0409/0418 32012KT 6000 FEW020 SCT100 TEMPO 0409/0412 28008G18KT 1000 DRDU TSRA SCT015 SCT020 FEW030CB OVC080 BECMG 0413/0415 28008KT
VASD,TAF VASD 040800Z 0409/0418 26008KT 5000 FU FEW020 SCT025 BECMG 0413/0415 32007KT 4000 FU FEW100
VASL,TAF VASL 040800Z 0409/0418 28010KT 5000 FU FEW020 BECMG 0413/0415 33006KT 4000 FU FEW100
VASU,TAF VASU 041100Z 0412/0518 30008KT 6000 NSC BECMG 0418/0421 23003KT 5000 HZ BECMG 0501/0503 18003KT 3000 HZ FEW020 BECMG 0504/0506 32005KT 6000 NSC BECMG 0512/0515 27005KT FEW020
VAUD,TAF VAUD 041100Z 0412/0518 27008KT 5000 HZ FEW030 SCT100 BECMG 0414/0416 25004KT 3000 HZ BECMG 0505/0507 27006KT 5000 HZ FEW100
VCBI,TAF VCBI 041100Z 0412/0518 25010KT 9999 SCT018 TX33/0507Z TN24/0500Z PROB40 TEMPO 0412/0415 -TSRA/SHRA FEW014 BKN016 FEW020CB BECMG 0414/0416 VRB05KT BECMG 0504/0506 25010KT
VCRI,TAF VCRI 040500Z 0406/0512 19006KT 9000 SCT018 BKN080 TX32/0408Z TN24/0500Z PROB40 TEMPO 0408/0415 7000 -TSRA/SHRA SCT018 FEW020CB BKN080 BECMG 0413/0415 VRB05KT
VDPP,TAF VDPP 041100Z 0412/0506 17008KT 9999 SCT017 TEMPO 0412/0417 SCT015 FEW017CB
VDSR,TAF VDSR 041100Z 0412/0506 16007KT 9999 SCT017 TEMPO 0412/0417 SCT015 FEW017CB
VDSV,TAF VDSV 041100Z 0412/0506 24008KT 9999 SCT017 TEMPO 0412/0417 SCT015 FEW017CB
VEAB,TAF VEAB 040930Z 0412/0424 34010KT 6000 FEW30 SCT100
VEAN,TAF VEAN 040500Z 0406/0415 16005KT 4000 HZ FEW018 SCT100
VEAT,TAF VEAT 041100Z 0412/0421 00000KT 4000 BR FEW018 FEW030CB SCT100 TEMPO 0418/0421 27006KT 2500 -TSRA
VEBD,TAF VEBD 040500Z 0406/0512 09005KT 5000 HZ SCT030 SCT090 TEMPO 0410/0412 SCT030 SCT100 FEW030CB
VEBI,TAF VEBI 040800Z 0409/0418 29005KT 5000 HZ SCT020 BECMG 0413/0415 3000 BR
VEBN,TAF VEBN 040800Z 0409/0418 24006KT 5000 HZ NSC BECMG 0414/0416 VRB02KT 3000 HZ BR
VEBS,TAF VEBS 041100Z 0412/0518 20008KT 3500 HZ SCT018 SCT100 TEMPO 0412/0414 1500 TSRA BKN016 FEW030CB OVC080 BECMG 0419/0421 2500 BR FEW018 BECMG 0502/0504 5000 HZ TEMPO 0508/0512 2000 -TSRA BKN016 FEW030CB OVC080 BECMG 0513/0515 4000 HZ
VEBU,TAF VEBU 040500Z 0406/0415 28004KT 5000 HZ FEW020 SCT100 BECMG 0410/0412 32004KT 4000 HZ
VECC,TAF VECC 041100Z 0412/0518 16008KT 3500 HZ SCT018 SCT100 BECMG 0500/0502 2500 HZ BECMG 0503/0505 25005KT 3500 HZ FEW020 SCT025 BECMG 0506/0508 5000 HZ BECMG 0512/0514 17005KT 3500 HZ FEW020 SCT100
VECO,TAF VECO 040200Z 0403/0412 09005KT 4000 -RA HZ SCT018 SCT100
VECX,TAF VECX 040930Z 0412/0424 VRB02KT 6000 FEW030 SCT100 BECMG 0421/0423 VRB02KT 4000 BR FEW100
VEDG,TAF VEDG 041100Z 0412/0518 27007KT 5000 HZ FEW100 BECMG 0418/0420 20007KT BECMG 0500/0502 2400 HZ FEW020 SCT100 BECMG 0503/0505 30007KT 3500 HZ BECMG 0506/0508 5000 HZ BECMG 0516/0518 21005KT 3500 HZ FEW100
VEDO,TAF VEDO 040500Z 0406/0415 22003KT 4000 HZ NSC BECMG 0410/0412 32008KT 6000 SCT020 SCT025 BECMG 0414/0415 00000KT 4000 HZ NSC
VEDZ,TAF VEDZ 040500Z 0406/0415 09005KT 4000 HZ FEW018 SCT100 BECMG 0413/0415 00000KT 3000 BR
VEGK,TAF VEGK 040930Z 0412/0424 32010KT 6000 FEW030 SCT250 BECMG 0414/0416 VRB02KT 5000 BR BECMG 0420/0422 VRB02KT 3000 BR SCT025 SCT090
VEGT,TAF VEGT 041100Z 0412/0518 03003KT 5000 BR SCT018 BKN100 BECMG 0413/0415 00000KT 3000 BR BECMG 0501/0503 03005KT 5000 BR HZ FEW020 SCT100 TEMPO 0508/0510 3000 -TSRA BR SCT018 FEW025CB BKN100 BECMG 0513/0515 3000 BR SCT018 SCT100
VEGY,TAF VEGY 041100Z 0412/0421 32006KT 5000 HZ FEW020 BECMG 0416/0418 00000KT SCT100
VEIM,TAF VEIM 041100Z 0412/0421 23003KT 5000 -RA BR SCT018 BKN100 BECMG 0413/0415 00000KT 3000 BR SCT018 SCT100
VEJH,TAF VEJH 040800Z 0409/0418 25008KT 4500 HZ SCT018 SCT100 BECMG 0413/0415 3000 HZ
VEJR,TAF VEJR 040500Z 0406/0415 26004KT 5000 HZ FEW020 SCT100 BECMG 0410/0412 31004KT 4000 HZ
VEJS,TAF VEJS 040800Z 0409/0418 32005KT 5000 HZ FEW020 BECMG 0415/0417 00000KT 4000 HZ NSC
VEJT,TAF VEJT 040930Z 0412/0424 04010KT 6000 FEW015 SCT025 BKN090 BECMG 0414/0416 04005KT 5000 RABR FEW012 SCT025 FEW030CB BKN080 BECMG 0422/0424 VRB02KT 3000 RABR SCT010 SCT015 BKN080
VEKI,TAF VEKI 040800Z 0409/0418 29010KT 5000 HZ NSC BECMG 0413/0415 VRB02KT 3000 HZ BR
VEKO,TAF VEKO 041100Z 0412/0421 23005KT 6000 FEW025 SCT100 BECMG 0415/0417 5000 HZ SCT100
VEKU,TAF VEKU 040800Z 0409/0418 09005KT 5000 HZ FEW010 SCT018 BKN100 BECMG 0413/0415 3000 -TSRA BR FEW010 SCT018 FEW025CB BKN090
VELP,TAF VELP 040800Z 0409/0418 27008G18KT 3000 HZ SCT018 TEMPO 0410/0412 2500 -TSRA SCT016 FEW030CB SCT100
VELR,TAF VELR 040800Z 0409/0418 09005KT 5000 BR FEW010 SCT018 BKN090 BECMG 0413/0415 3000 -RA BR FEW009 SCT018 FEW025CB OVC090
VEMN,TAF VEMN 041100Z 0412/0421 09005KT 2500 -RA BR SCT008 SCT018 FEW025 OVC90 TEMPO 0412/0415 09008KT 1500 -TSRA RA
VEMR,TAF VEMR 040800Z 0409/0418 03009KT 5000 HZ FEW018 SCT100 BECMG 0413/0415 3000 BR
VEPT,TAF VEPT 041100Z 0412/0421 30005KT 5000 HZ FEW018 SCT100 BECMG 0418/0420 00000KT 3000 HZ FEW100
VEPY,TAF VEPY 040800Z 0409/0418 18005KT 5000 HZ SCT015 BKN100 BECMG 0413/0415 00000KT 3000 -RA BR SCT015 BKN090
VERC,TAF VERC 041100Z 0412/0421 23006KT 6000 SCT020 SCT100 BECMG 0415/0417 00000KT 4000 HZ FEW020 SCT100
VERK,TAF VERK 040800Z 0409/0418 25008KT 5000 HZ SCT018 BECMG 0413/0415 4000 HZ
VERP,TAF VERP 041100Z 0412/0518 23005KT 5000 HZ SCT025 TEMPO 0414/0416 32010G20KT 3000 -TSRA SCT020 FEW030CB SCT090 BECMG 0500/0502 03010KT 2000 HZ SCT100 BECMG 0506/0508 27005KT 5000 HZ SCT025 BECMG 0515/0517 VRB03KT 3000 HZ
VERU,TAF VERU 040800Z 0409/0418 09007KT 5000 HZ FEW020 SCT100 BECMG 0413/0415 3000 BR
VETJ,TAF VETJ 040500Z 0406/0415 11005KT 4000 HZ FEW018 SCT100 BECMG 0412/0414 00000KT 1500 BR
VETZ,TAF VETZ 040930Z 0412/0424 09010KT 6000 SCT015 SCT080 FEW030TCU TEMPO 0418/0424 3000 TSRABR SCT010 SCT015 BKN080 FEW025CB
VEZO,TAF VEZO 040500Z 0406/0415 02005KT 4000 HZ FEW018 SCT100 
VGEG,TAF VGEG 041100Z 0412/0518 25010KT 3800HZ NSC BECMG 0420/0422 03006KT 3200HZ NSC BECMG 0505/0507 27015KT 5000HZ NSC
VGHS,TAF VGHS 041100Z 0412/0518 18008KT 3500 HZ FEW015 SCT100 BECMG 0421/0423 3000 HZ NSC TEMPO 0500/0506 29020KT 2000 TSRA/RA BKN008 FEW025CB OVC090 BECMG 0508/0510 24008KT 3500 HZ NSC
VHHH,TAF VHHH 041100Z 0412/0518 16015KT 9999 FEW010 SCT020 TX27/0506Z TN24/0423Z TEMPO 0423/0508 4000 SHRA FEW008CB SCT015
VIAG,TAF VIAG 040500Z 0406/0512 33007KT 6000 SCT025 BKN100 TEMPO 0409/0412 33010G20KT SCT020 FEW030TCU BKN100 BECMG 0420/0421 5000 BR FEW250 TEMPO 0501/0503 VRB02KT 3000 BR TEMPO 0508/0511 30010G20KT SCT025 FEW030TCU SCT100
VIAR,TAF VIAR 041100Z 0412/0518 31010KT 4000 HZ NSC BECMG 0417/0419 05006KT 2800 BR FEW100 BECMG 0423/0501 0800 MIFG BECMG 0504/0506 31010KT 3000 HZ FEW035 SCT100 BECMG 0507/0509 5000 HZ SCT035 BKN100 BECMG 0513/0515 02006KT 4000 BR BKN030 OVC090 TEMPO 0514/0518 16010G20KT 1500 -TSRA FEW035CB
VIBR,TAF VIBR 040500Z 0406/0415 16003KT 6000 FEW008 SCT035 BKN080 BECMG 0412/0414 00000KT 5000 HZ FEW030 SCT080 
VIBT,TAF VIBT 040930Z 0412/0424 32005KT 6000 SCT100 BECMG 0416/0417 VRB02KT 5000 BR BECMG 0421/0422 VRB02KT 2500 BR SKC
VIBY,TAF VIBY 040930Z 0412/0424 30006KT 6000 FEW025 FEW025TCUCB SCT100 BECMG 0422/0424 VRB02KT 4000 BR SCT250
VICG,TAF VICG 040500Z 0406/0512 30010KT 6000 FEW025 SCT090 TEMPO 0410/0413 SCT030 FEW030TCU/CB SCT250 BECMG 0415/0416 33010KT 6000 NSC BECMG 0418/0420 VRB02KT TEMPO 0501/0503 5000 BR BECMG 0506/0507 32010G20KT 6000 FEW030 SCT250
VIDN,TAF VIDN 041100Z 0412/0421 27008KT 4000 HZ SCT030 BKN060 BECMG 0415/0417 05008KT 3000 BR TEMPO 0416/0420 1000 -TSRA FEW035CB 
VIDP,TAF VIDP 041100Z 0412/0518 34010KT 4000 HZ FEW100 BECMG 0417/0419 2800 BR SCT100 BECMG 0423/0501 31008KT 1000 BR BECMG 0505/0507 32008G18KT 3000 HZ FEW035 SCT100 BECMG 0508/0510 5000 HZ BECMG 0514/0516 05008KT 3500 BR
VIGG,TAF VIGG 040500Z 0406/0415 14003KT 6000 SCT035 BKN080 BECMG 0412/0414 00000KT 5000 HZ FEW035 SCT080 
VIGR,TAF VIGR 040930Z 0412/0424 27006KT 6000 FEW030 SCT090 BECMG 0421/0423 VRB02KT 5000 HZ FEW030 SCT090
VIJO,TAF VIJO 040930Z 0412/0424 26010G20KT 6000 SCT030 FEW030CB SCT100 BECMG 0416/0418 30005KT FEW030 SCT100
VIJP,TAF VIJP 041100Z 0412/0518 32005KT 5000 HZ FEW030 SCT100 BECMG 0414/0416 02004KT 3000 HZ BECMG 0505/0507 VRB03KT 5000 HZ FEW030 SCT100
VIJR,TAF VIJR 040930Z 0412/0424 20005KT 6000 FEW030 FEW100
VIJU,TAF VIJU 040330Z 0406/0418 04005KT 6000 FEW025 SCT090 TEMPO 0408/0411 14005KT 6000 FEW030TCU/CB SCT090
VIKG,TAF VIKG 040500Z 0406/0415 29010KT 5000 HZ SCT035 SCT100
VILK,TAF VILK 041100Z 0412/0518 VRB02KT 5000 HZ FEW020 SCT100 BECMG 0419/0421 3000 HZ BR FEW100 BECMG 0500/0502 2500 BR NSC BECMG 0504/0506 30008KT 4000 HZ FEW100 BECMG 0507/0509 5000 HZ FEW020 SCT100 BECMG 0516/0518 29004KT 4000 HZ NSC
VIPT,TAF VIPT 041100Z 0412/0421 29008KT 4000 HZ FEW030 BECMG 0417/0419 34006KT 2800 BR NSC 
VISM,TAF VISM 040500Z 0406/0415 27004KT 5000 HZ SCT030 BKN080 BECMG 0412/0414 00000KT 3000 HZ FEW030 SCT080 
VISP,TAF VISP 040930Z 0412/0424 28005KT 6000 NSC BECMG 0421/0422 5000 BR BECMG 0423/0424 3000 BR
VISR,TAF VISR 040930Z 0412/0424 24005KT 6000 FEW015 SCT020 BKN090 TEMPO 0412/0414 VRB02KT -RA SCT018 SCT020 FEW030CB BKN090 
VIUT,TAF VIUT 040930Z 0412/0424 25010KT 6000 FEW030 SCT100 FEW250 TEMPO 0412/0413 FEW030TCU
VLLB,TAF VLLB 041100Z 0412/0512 34004KT 7000 SCT020 FEW060
VLLN,TAF VLLN 041100Z 0412/0512 32004KT 6000 SCT020 SCT100
VLPS,TAF VLPS 041100Z 0412/0512 18004KT 6000 SCT020 FEW050
VLSK,TAF VLSK 041100Z 0412/0512 14004KT 8000 SCT020 FEW100
VLVT,TAF VLVT 041100Z 0412/0512 32006KT 8000 SCT020 SCT200
VMMC,TAF VMMC 041100Z 0412/0518 18008KT 8000 FEW005 SCT015 TEMPO 0412/0418 4500 BR TEMPO 0422/0503 4000 SHRA
VNKT,TAF VNKT 040500Z 0406/0506 12003KT 8000 FEW015 BECMG 0407/0409 25010KT 8000 FEW020 SCT030 PROB30 0408/0412 VRB12KT 5000 -TSRA FEW025CB BKN100 BECMG 0414/0415 12004KT 7000 FEW015 SCT100 BECMG 0500/0502 VRB02KT 4000 BR FEW010 BECMG 0503/0505 11003KT 6000 FEW015
VOAT,TAF VOAT 040200Z 0403/0412 34005KT 5000 HZ FEW015 BECMG 0405/0406 32005KT 6000 FEW015
VOBG,TAF VOBG 041100Z 0412/0421 14010KT 6000 SCT015 SCT080 TEMPO 0412/0418 3000 TSRA RA SCT008 SCT012 FEW025CB BKN080
VOBL,TAF VOBL 041100Z 0412/0518 14010KT 6000 SCT015 SCT080 TEMPO 0412/0418 3000 TSRA RA SCT008 SCT012 FEW025CB BKN080 TEMPO 0500/0503 3000 BR SCT008 SCT012 TEMPO 0509/0515 SCT015 SCT020 FEW025CB
VOBM,TAF VOBM 041100Z 0412/0421 25005KT 6000 FEW015
VOBZ,TAF VOBZ 041100Z 0412/0421 21006KT 6000 SCT015 SCT025 TEMPO 0412/0416 FEW030CB BECMG 0416/0418 24005KT 5000 HZ SCT015
VOCB,TAF VOCB 041100Z 0412/0518 21010KT 6000 SCT012 BKN080 BECMG 0418/0419 VRB02KT 4000 BR BECMG 0503/0504 02005KT 6000 BECMG 0506/0507 21010KT TEMPO 0509/0515 SCT012 FEW020TCU/CB BKN080
VOCI,TAF VOCI 041100Z 0412/0518 29004KT 5000 HZ FEW015 SCT090 BECMG 0413/0414 32005KT 3500 HZ SCT015 SCT080 TEMPO 0422/0502 10005KT 2500 BR FEW015 SCT080 BECMG 0503/0504 32005KT 4500 HZ FEW015 TEMPO 0510/0512 32010KT 3000 TS TSRA SCT012 FEW025CB BKN080 BECMG 0514/0516 31005KT 3500 -TSRA BR FEW015 FEW025CB SCT080
VOCL,TAF VOCL 041100Z 0412/0518 36003KT 6000 SCT012 BKN080 BECMG 0413/0414 32005KT 4500 HZ SCT015 SCT080 TEMPO 0422/0502 VRB02KT 3500 BR FEW015 BECMG 0503/0504 28005KT 6000 FEW015 TEMPO 0510/0512 31005KT 3500 TSRA RA SCT015 FEW025CB BKN080 BECMG 0514/0516 26005KT 4500 -TSRA HZ FEW015 FEW025CB SCT080
VOCP,TAF VOCP 040500Z 0406/0415 20010KT 6000 SCT015 SCT025 TEMPO 0409/0415 24008KT 5000 DZ HZ SCT015 BKN080
VOGB,TAF VOGB 040800Z 0409/0418 34005KT 6000 FEW015
VOGO,TAF VOGO 040500Z 0406/0512 30012KT 6000 NSC TEMPO 0408/0412 33010G20KT FEW030 BECMG 0418/0420 36008KT TEMPO 0500/0504 07008KT BECMG 0505/0507 28012KT TEMPO 0509/0512 33010G20KT FEW090
VOHB,TAF VOHB 041100Z 0412/0518 25005KT 6000 FEW015 TEMPO 0500/0503 3000 BR SCT010
VOHS,TAF VOHS 041100Z 0412/0421 22008KT 6000 SCT015 SCT025 TEMPO 0412/0418 FEW030CB BECMG 0418/0420 16005KT 5000 BR HZ SCT015
VOHY,TAF VOHY 041100Z 0412/0421 22008KT 6000 SCT015 SCT025 TEMPO 0412/0418 FEW030CB BECMG 0418/0420 16005KT 5000 BR HZ SCT015
VOJV,TAF VOJV 040800Z 0409/0418 34005KT 6000 FEW015
VOKN,TAF VOKN 041100Z 0412/0518 31006KT 6000 SCT012 FEW025TCU BKN080 BECMG 0413/0414 32005KT 4500 HZ SCT015 SCT080 TEMPO 0422/0502 VRB02KT 3000 BR FEW015 BECMG 0503/0505 24005KT 6000 FEW015 TEMPO 0510/0512 28010KT 3500 TSRA SCT015 FEW025CB BKN080 BECMG 0514/0516 VRB02KT 4500 -TSRA HZ FEW015 FEW025CB BKN080
VOKU,TAF VOKU 040800Z 0409/0418 21010KT 6000 SCT015 SCT025 TEMPO 0409/0415 FEW030CB
VOLT,TAF VOLT 040800Z 0409/0418 28010KT 5000 FU FEW020 BECMG 0413/0415 33006KT 4000 FU FEW100
VOMD,TAF VOMD 041100Z 0412/0518 16010KT 4000 -DZ/BR SCT018 BKN100 BECMG 0421/0422 VRB02KT 3000 BR BECMG 0503/0504 5000 HZ BECMG 0506/0507 16015KT 6000 TEMPO 0509/0515 SCT018 FEW025TCU/CB BKN100
VOML,TAF VOML 041100Z 0412/0518 25010KT 6000 SCT015 TEMPO 0412/0415 SCT012 FEW025CB BECMG 0418/0419 09005KT TEMPO 0500/0503 3000 BR SCT010 BECMG 0506/0507 29010KT
VOMM,TAF VOMM 041100Z 0412/0518 18010KT 6000 SCT020 BKN100 BECMG 0421/0422 24005KT 4000 BR BECMG 0503/0504 24010KT 6000 BECMG 0509/0510 18010KT TEMPO 0509/0515 SCT020 FEW025TCU/CB BKN100
VOMY,TAF VOMY 040800Z 0409/0418 25010KT 6000 SCT015 SCT080 TEMPO 0409/0415 3000 TSRA RA SCT008 SCT012 FEW025CB BKN080
VOND,TAF VOND 040800Z 0409/0418 26008KT 5000 FU FEW020 SCT025 BECMG 0413/0415 32007KT 4000 FU FEW100
VOPB,TAF VOPB 041100Z 0412/0421 VRB02KT 5000 BR HZ SCT014 SCT220
VORY,TAF VORY 041100Z 0412/0421 21006KT 6000 SCT015 SCT025 TEMPO 0412/0416 FEW030CB BECMG 0416/0418 24005KT 5000 HZ SCT015
VOSR,TAF VOSR 040800Z 0409/0418 26010KT 5000 FU FEW020 BECMG 0413/0415 32008KT 4000 HZ
VOTP,TAF VOTP 041100Z 0412/0421 21010KT 6000 SCT015 SCT025 TEMPO 0412/0418 30010KT 5000 DZ HZ SCT015 BKN080
VOTR,TAF VOTR 041100Z 0412/0518 14010KT 5000 HZ SCT016 BKN100 BECMG 0421/0422 VRB02KT 3000 BR BECMG 0506/0507 14010KT 5000 HZ TEMPO 0509/0515 SCT020 FEW025TCU/CB BKN100
VOTV,TAF VOTV 041100Z 0412/0518 28006KT 4000 TS HZ SCT012 FEW025CB BKN080 BECMG 0413/0414 30005KT 3500 HZ -RA SCT015 SCT080 TEMPO 0422/0502 VRB02KT 2500 BR FEW015 BECMG 0503/0504 32005KT 4500 HZ FEW015 TEMPO 0509/0512 30010KT 2500 TS TSRA SCT012 FEW025CB BKN080 BECMG 0514/0516 31005KT 3500 -TSRA RA FEW015 FEW025CB BKN080
VOVZ,TAF VOVZ 041100Z 0412/0518 21010KT 6000 FEW018 SCT080 BECMG 0414/1416 VRB02KT 4000 BR BECMG 0502/0504 23010KT 6000 TEMPO 0510/0512 23008G18KT FEW025TCU/CB BECMG 0514/0516 VRB02KT 4000 BR
VRMG,TAF VRMG 041100Z 0412/0518 34006KT 9999 FEW018TCU TEMPO 0412/0418 FEW018CB
VRMH,TAF VRMH 041100Z 0412/0518 04011KT 9999 FEW018TCU TEMPO 0412/0418 5000 SHRA
VRMM,TAF VRMM 041100Z 0412/0518 36009KT 9999 FEW018 TEMPO 0412/0418 FEW018CB
VTBD,TAF VTBD 041100Z 0412/0518 19008KT 9999 FEW020
VTBO,TAF VTBO 041100Z 0412/0512 22008KT 9999 FEW020
VTBS,TAF VTBS 041100Z 0412/0518 20008KT 9999 FEW020
VTBU,TAF VTBU 041100Z 0412/0512 17008KT 9000 FEW020
VTCC,TAF VTCC 041100Z 0412/0518 34005KT 6000 FEW035 BECMG 0500/0502 05005KT 4000 HZ BECMG 0505/0507 17005KT 7000 NSW BECMG 0508/0510 36005KT
VTCH,TAF VTCH 041100Z 0412/0512 35005KT 9000 FEW025 BECMG 0420/0422 00000KT 1000 BR BECMG 0503/0505 19005KT 8000 NSW
VTCL,TAF VTCL 041100Z 0412/0512 36005KT 9999 FEW025 BECMG 0421/0423 24005KT
VTCN,TAF VTCN 041100Z 0412/0512 28005KT 8000 FEW030 BECMG 0421/0423 01005KT
VTCP,TAF VTCP 041100Z 0412/0512 21005KT 6000 FEW045 BECMG 0421/0423 00000KT 3000 BR BECMG 0503/0505 22005KT 8000 NSW
VTCT,TAF VTCT 041100Z 0412/0518 06005KT 7000 FEW030 BECMG 0418/0420 02005KT BECMG 0500/0502 15005KT 2000 HZ BECMG 0504/0506 06005KT
VTPB,TAF VTPB 041100Z 0412/0512 25005KT 8000 FEW030 BECMG 0507/0509 15005KT
VTPH,TAF VTPH 041100Z 0412/0512 15008KT 6000 FEW020 BECMG 0416/0418 24005KT BECMG 0503/0505 15010KT
VTPM,TAF VTPM 041100Z 0412/0512 25005KT 8000 FEW040
VTPO,TAF VTPO 041100Z 0412/0512 15005KT 7000 FEW025 BECMG 0421/0423 22005KT
VTPP,TAF VTPP 041100Z 0412/0512 19005KT 8000 FEW025
VTPT,TAF VTPT 041100Z 0412/0512 15005KT 9999 FEW026
VTSB,TAF VTSB 041100Z 0412/0512 22003KT 9999 FEW020 BECMG 0503/0505 05008KT
VTSC,TAF VTSC 041100Z 0412/0512 03006KT 9999 FEW020 BECMG 0416/0418 20003KT BECMG 0503/0505 04010KT TEMPO 0506/0512 VRB15G25KT 4000 TSRA FEW016CB SCT018 BKN100
VTSE,TAF VTSE 041100Z 0412/0512 28005KT 9999 FEW020
VTSF,TAF VTSF 041100Z 0412/0512 20003KT 9999 FEW020 BECMG 0504/0506 05010KT
VTSG,TAF VTSG 041100Z 0412/0512 20006KT 9999 SCT030
VTSM,TAF VTSM 041100Z 0412/0512 31005KT 9999 FEW020
VTSP,TAF VTSP 041100Z 0412/0518 30009KT 9999 SCT020
VTSR,TAF VTSR 041100Z 0412/0512 32008KT 9999 SCT025
VTSS,TAF VTSS 041100Z 0412/0512 00000KT 9999 FEW020 BKN100 BECMG 0503/0505 24008KT TEMPO 0506/0512 VRB15G25KT 3000 TSRA FEW016CB SCT018 BKN100
VTST,TAF VTST 041100Z 0412/0512 22006KT 9999 SCT030
VTSY,TAF VTSY 041100Z 0412/0512 00000KT 9999 FEW020 TEMPO 0412/0415 4000 TSRA FEW016CB SCT018 BKN100 BECMG 0421/0423 1500 BR BECMG 0504/0506 21006KT 9999 NSW TEMPO 0506/0512 VRB15G25KT 3000 TSRA FEW016CB SCT018 BKN100
VTUD,TAF VTUD 041100Z 0412/0512 18005KT 8000 FEW030
VTUI,TAF VTUI 041100Z 0412/0512 17005KT 7000 FEW030 TEMPO 0508/0512 VRB15KT 4000 TSRA FEW018CB BKN030
VTUK,TAF VTUK 041100Z 0412/0512 21006KT 8000 FEW030
VTUL,TAF VTUL 041100Z 0412/0512 16005KT 7000 FEW030
VTUO,TAF VTUO 041100Z 0412/0512 21005KT 8000 FEW035
VTUQ,TAF VTUQ 041100Z 0412/0512 24005KT 8000 FEW035
VTUU,TAF VTUU 041100Z 0412/0512 21005KT 9000 FEW035
VTUV,TAF VTUV 041100Z 0412/0512 22005KT 8000 FEW035
VTUW,TAF VTUW 041100Z 0412/0512 16005KT 7000 FEW030 TEMPO 0508/0512 VRB15KT 4000 TSRA FEW018CB BKN030
VVCI,TAF VVCI 041100Z 0412/0512 12006KT 8000 SCT010 BKN020 BECMG 0416/0418 4000 BR TEMPO 0422/0502 2500 -DZ BR BKN004 BKN010 BECMG 0503/0504 6000 NSW
VVCR,TAF VVCR 041100Z 0412/0512 22007KT 9999 FEW015 BECMG 0503/0504 13012KT
VVCT,TAF VVCT 041100Z 0412/0512 VRB02KT 9999 SCT017 TEMPO 0412/0414 TS SCT015 FEW017CB BECMG 0507/0508 21010KT TEMPO 0508/0512 TS SCT015 FEW017CB
VVDN,TAF VVDN 041100Z 0412/0512 20005KT 8000 FEW015 BECMG 0503/0504 12010KT TEMPO 0509/0512 TS SCT013 FEW017CB
VVNB,TAF VVNB 041100Z 0412/0512 10008KT 7000 BKN020 BECMG 0420/0421 3500 BR BECMG 0502/0503 6000 NSW
VVPB,TAF VVPB 041100Z 0412/0512 23005KT 8000 FEW015 BECMG 0503/0504 08010KT TEMPO 0508/0512 TS SCT013 FEW017CB
VVPQ,TAF VVPQ 041100Z 0412/0512 VRB02KT 9999 SCT017 BECMG 0501/0502 21010KT TEMPO 0502/0506 5000 TSRA BKN015 FEW017CB
VVTS,TAF VVTS 041100Z 0412/0518 16008KT 9999 SCT017 TEMPO 0508/0513 16015G25KT 5000 TSRA BKN015 FEW017CB
VVVD,TAF VVVD 041100Z 0412/0512 15006KT 9999 BKN015 BKN020 BECMG 0416/0418 4000 BR TEMPO 0423/0503 2500 -DZ BR BKN004 BKN010 BECMG 0504/0505 6000 NSW
VYMD,TAF VYMD 041100Z 0412/0512 36007KT 7000 SCT025 TEMPO 0412/0418 35007G15KT 6000 BKN020 FEW025CB
VYNT,TAF VYNT 041100Z 0412/0512 16006KT 7000 FEW020 SCT120 TEMPO 0412/0418 20005KT 6000 SCT020 FEW025CB SCT120
VYYY,TAF VYYY 041100Z 0412/0512 27006KT 8000 SCT020 BECMG 0500/0502 4000 BR TEMPO 0502/0508 11006KT
WAAA,TAF WAAA 041100Z 0412/0518 10004KT 8000 FEW019 BECMG 0501/0503 31010KT
WABB,TAF WABB 041100Z 0412/0518 35003KT 9999 SCT018 TEMPO 0416/0420 5000 RA FEW017CB BKN018
WADD,TAF WADD 041100Z 0412/0512 27010KT 9999 SCT016 TEMPO 0422/0502 5000 RA BKN014
WADL,TAF WADL 041100Z 0412/0512 20005KT 7000 BKN016 TEMPO 0412/0415 4000 RA FEW015CB
WALL,TAF WALL 041100Z 0412/0518 08003KT 9000 FEW020
WALS,TAF WALS 041100Z 0412/0424 22003KT 8000 SCT018
WAMM,TAF WAMM 041100Z 0412/0518 VRB03KT 9000 SCT019 TEMPO 0412/0416 5000 RA FEW016CB BECMG 0500/0502 27008KT
WAOO,TAF WAOO 041100Z 0412/0512 20006KT 9999 SCT017 BECMG 0415/0416 03006KT
WAPP,TAF WAPP 041100Z 0412/0512 34008KT 9999 SCT017
WAQA,TAF WAQA 041100Z 0412/0424 12004KT 7000 FEW012
WAQD,TAF WAQD 041100Z 0412/0424 07003KT 7000 SCT015
WAQJ,TAF WAQJ 041100Z 0412/0424 00000KT 5000 BKN010
WAQQ,TAF WAQQ 041100Z 0412/0424 04004KT 8000 SCT015
WAQT,TAF WAQT 041100Z 0412/0424 10003KT 8000 SCT016
WARR,TAF WARR 041100Z 0412/0512 28005KT 8000 SCT020 PROB30 TEMPO 0412/0415 6000 RA BECMG 0416/0418 5000 HZ
WATT,TAF COR WATT 041100Z 0412/0512 09003KT 8000 SCT018 TEMPO 0505/0508 30012KT 4000 -TSRA FEW014CB BKN015
WBGB,TAF WBGB 041100Z 0412/0512 13005KT 9999 FEW016 TEMPO 0508/0512 22005KT 3000 TSRA FEW015CB SCT016
WBGG,TAF WBGG 041100Z 0412/0512 12005KT 9999 FEW020 TEMPO 0507/0511 27010G25KT 3000 TSRA FEW015CB SCT020
WBGR,TAF WBGR 041100Z 0412/0512 18005KT 9999 FEW016
WBGS,TAF WBGS 041100Z 0412/0512 13005KT 9999 SCT018 TEMPO 0508/0512 26006KT 3000 TSRA FEW015CB SCT016
WBKK,TAF WBKK 041100Z 0412/0512 11005KT 9999 FEW014 PROB40 TEMPO 0421/0500 5000 TSRA FEW013 FEW016CB SCT035 BECMG 0500/0502 22005KT
WBKL,TAF WBKL 041100Z 0412/0512 VRB03KT 9999 FEW014 PROB40 TEMPO 0420/0423 4000 TSRA FEW009 FEW016CB SCT030
WBKS,TAF WBKS 041100Z 0412/0512 04005KT 9999 FEW015 TEMPO 0412/0415 4000 TSRA FEW010 FEW016CB SCT030 BECMG 0416/0418 26005KT
WBKW,TAF WBKW 041100Z 0412/0512 33005KT 9999 FEW016 TEMPO 0412/0416 5000 TSRA FEW012 FEW016CB SCT027
WBSB,TAF WBSB 041100Z 0412/0518 04006KT 9999 SCT015 FEW016CB BECMG 0414/0416 FEW014 FEW015CB TEMPO 0420/0422 7000 -SHRA
WIDD,TAF WIDD 041100Z 0412/0512 26005KT 9999 SCT014 PROB40 TEMPO 0417/0420 5000 -TSRA FEW013CB
WIEE,TAF WIEE 041100Z 0412/0512 15004KT 9999 FEW020
WIHH,TAF WIHH 041100Z 0412/0512 25006KT 6000 SCT020 BECMG 0417/0419 20003KT 5000 HZ FEW022
WIII,TAF WIII 041100Z 0412/0518 29008KT 7000 SCT020 BECMG 0415/0417 4000 BR BECMG 0501/0503 9000 NSW
WIMM,TAF WIMM 041100Z 0412/0512 VRB05KT 5000 HZ FEW016CB SCT017 BECMG 0502/0504 34010KT 9000
WIPB,TAF WIPB 032300Z 0400/0412 20007KT 9999 SCT010 TEMPO 0405/0409 3000 TSRA FEW010CB BKN010
WIPP,TAF WIPP 041100Z 0412/0512 04008KT 9999 SCT010 TEMPO 0413/0417 1500 TSRA FEW010CB BKN011 TEMPO 0420/0424 3000 BR
WIPY,TAF WIPY 040500Z 0406/0418 28008KT 9999 SCT011 TEMPO 0407/0411 5000 -TSRA FEW010CB BKN011
WITT,TAF WITT 041100Z 0412/0512 04005KT 9999 SCT018
WMAP,TAF WMAP 041100Z 0412/0512 VRB02KT 9999 FEW020 TEMPO 0506/0510 4000 TSRA FEW017CB SCT020
WMBT,TAF WMBT 041100Z 0412/0512 VRB02KT 9999 FEW025
WMKA,TAF WMKA 041100Z 0412/0512 VRB06KT 9999 FEW017CB
WMKB,TAF AMD WMKB 041002Z 0412/0512 VRB02KT 9000 FEW025 PROB30 TEMPO 0421/0501 6000 RA FEW017CB
WMKC,TAF WMKC 041100Z 0412/0512 04006KT 9999 FEW020
WMKE,TAF WMKE 041100Z 0412/0512 VRB03KT 9999 FEW017
WMKI,TAF AMD WMKI 041003Z 0412/0512 03005KT 9000 FEW026 TEMPO 0419/0423 7000 -RA FEW017CB
WMKJ,TAF WMKJ 041100Z 0412/0512 VRB02KT 9999 FEW018 TEMPO 0506/0510 4000 TSRA FEW017CB SCT020
WMKK,TAF WMKK 041100Z 0412/0518 32005KT 9999 FEW018 TEMPO 0422/0502 4000 TSRA FEW010 FEW017CB
WMKL,TAF WMKL 041100Z 0412/0512 VRB06KT 9999 FEW026
WMKM,TAF WMKM 041100Z 0412/0512 03005KT 9999 FEW020 TEMPO 0423/0503 4000 TSRA FEW010 FEW017CB
WMKN,TAF WMKN 041100Z 0412/0512 VRB03KT 9999 FEW022
WMKP,TAF WMKP 041100Z 0412/0512 VRB03KT 8000 FEW017CB TEMPO 0412/0416 5000 TSRA FEW010 FEW017CB BECMG 0504/0506 22008KT 9999 FEW020
WMPA,TAF WMPA 040500Z 0406/0506 VRB03KT 9999 FEW021 PROB30 TEMPO 0420/0424 6000 TSRA FEW017CB
WMSA,TAF WMSA 041100Z 0412/0512 34005KT 9999 FEW018 PROB30 TEMPO 0421/0501 4000 TSRA FEW010 FEW017CB
WPDL,TAF WPDL 041019Z 0412/0500 16005KT 9999 FEW025
WSAP,TAF WSAP 041100Z 0412/0518 30007KT 9999 FEW015 SCT020 TEMPO 0421/0500 3000 TSRA FEW012CB BKN015
WSSL,TAF WSSL 041100Z 0412/0518 30007KT 9999 FEW015 SCT020 TEMPO 0421/0500 3000 TSRA FEW012CB BKN015
WSSS,TAF WSSS 041100Z 0412/0518 30007KT 9999 FEW015 SCT020 TEMPO 0421/0500 3000 TSRA FEW012CB BKN015
YAMB,TAF YAMB 041116Z 0412/0512 00000KT CAVOK FM041500 VRB02KT 9999 MIFG SCT020 FM042200 20006KT 9999 NSW SCT030 FM050400 16010KT 9999 SCT040 PROB40 0415/0421 0800 FG SCT002
YBAS,TAF YBAS 041109Z 0412/0512 06005KT CAVOK FM042300 30012KT CAVOK FM050900 26007KT CAVOK PROB30 TEMPO 0506/0512 VRB25G45KT 2000 TSRA SCT020 SCT070CB
YBBN,TAF YBBN 041124Z 0412/0518 24008KT 9999 FEW025 FM050300 16010KT CAVOK FM051200 24008KT CAVOK
YBCG,TAF YBCG 041126Z 0412/0512 20008KT 9999 FEW025 FM041500 26006KT 9999 FEW030 FM042200 20012KT 9999 FEW035 FM050900 20012KT 9999 SCT020
YBCS,TAF YBCS 041111Z 0412/0512 17004KT 9999 SCT025 FM042200 12007KT 9999 -SHRA FEW025 SCT040 FM050100 04010KT 9999 NSW SCT040 FM050900 17005KT 9999 SCT025
YBHM,TAF YBHM 041115Z 0412/0500 13010KT 9999 SCT018
YBLN,TAF YBLN 041117Z 0412/0512 19007KT 9999 SCT040 FM050200 20014KT 9999 SCT040
YBMA,TAF YBMA 041116Z 0412/0500 17005KT CAVOK
YBRK,TAF YBRK 041105Z 0412/0512 19005KT 9999 FEW015 FM050000 25006KT CAVOK FM050900 36005KT CAVOK PROB30 0418/0422 0300 FG
YBRM,TAF YBRM 041119Z 0412/0512 27005KT 9999 FEW020 FM042300 16007KT CAVOK FM050330 29010KT CAVOK
YBSU,TAF YBSU 041110Z 0412/0512 23008KT 9999 FEW015 FM042300 08010KT CAVOK FM050500 12005KT CAVOK FM050900 24010KT 9999 FEW015
YBTL,TAF YBTL 041114Z 0412/0512 09007KT 9999 -SHRA SCT020 FM041500 14006KT 9999 -SHRA FEW014 SCT020 FM050100 07014KT 9999 NSW SCT030 FM050900 08007KT 9999 SCT020 TEMPO 0412/0423 9999 BKN012 INTER 0414/0501 3000 SHRA BKN010
YBWW,TAF YBWW 041103Z 0412/0512 VRB03KT CAVOK FM042300 23014KT CAVOK FM050500 20008KT CAVOK FM050900 12005KT CAVOK
YCFS,TAF AMD YCFS 041116Z 0412/0512 24014KT 9999 SCT030 FM041500 22014KT 9999 -SHRA SCT010 BKN020 FM042100 20017G27KT 9999 -SHRA SCT025 FM050900 24012KT 9999 -SHRA SCT020 SCT040 INTER 0416/0512 20020G32KT 3000 SHRA BKN010
YCIN,TAF AMD YCIN 041122Z 0411/0420 31008KT CAVOK FM041400 27006KT 9999 FEW010 SCT020
YFRT,TAF YFRT 040718Z 0408/0420 01010KT 9999 -SHRA SCT050 TEMPO 0408/0414 VRB25G45KT 2000 TSRA BKN015 SCT050CB
YGEL,TAF YGEL 041122Z 0412/0506 17014KT CAVOK FM041800 13008KT CAVOK FM050300 18016KT CAVOK
YGLA,TAF YGLA 041054Z 0412/0500 20003KT 9999 FEW015
YHID,TAF YHID 041115Z 0412/0512 16006KT 9999 -SHRA SCT015 FM050000 09012KT 9999 NSW SCT025 FM050900 15007KT 9999 -SHRA SCT018 INTER 0412/0500 2000 SHRA BKN010 SCT020TCU PROB30 TEMPO 0415/0500 VRB15G25KT 1000 TSRA BKN008 SCT020CB
YLHI,TAF AMD YLHI 041128Z 0412/0512 07025G35KT 8000 -SHRA SCT025 BKN040 FM042000 10025G35KT 9999 -SHRA SCT015 BKN025 FM050900 14025G35KT 9999 -SHRA SCT015 BKN025 TEMPO 0412/0512 4000 SHRA BKN020 SCT025TCU
YMAV,TAF YMAV 041120Z 0412/0512 15005KT 9999 BKN010 BECMG 0422/0500 14008KT 9999 SCT015 BKN020 FM050300 15012KT 9999 BKN025 FM050900 15007KT 9999 FEW015
YMHB,TAF YMHB 041129Z 0412/0512 34008KT CAVOK BECMG 0418/0420 32007KT 9999 -SHRA SCT015 BKN025 FM050000 19008KT 9999 -SHRA SCT015 BKN022 FM050300 16012KT 9999 NSW BKN035 INTER 0419/0500 5000 SHRA BKN015
YMLT,TAF YMLT 041129Z 0412/0512 16008KT 9999 FEW040 FM050900 34008KT CAVOK FM051000 34005KT 9999 FEW010 BKN025 PROB30 0415/0421 0500 FG
YMML,TAF YMML 041118Z 0412/0518 21007KT 9999 BKN010 FM042000 16005KT 9999 BKN010 FM050000 16006KT 9999 SCT010 BKN020 FM050200 18010KT 9999 SCT025 FM051200 27007KT 9999 SCT010 FM051500 35005KT CAVOK TEMPO 0416/0500 3000 -DZ BKN006
YPAD,TAF YPAD 041105Z 0412/0518 08006KT CAVOK FM050300 25010KT CAVOK FM050900 12008KT CAVOK FM051500 05008KT CAVOK
YPCC,TAF AMD YPCC 041131Z 0412/0512 17012KT 9999 SCT025 INTER 0414/0502 2000 SHRA BKN010
YPDN,TAF AMD YPDN 041110Z 0412/0518 20005KT 9999 FEW020 FM050400 30010KT 9999 SCT040 FM051300 24005KT CAVOK PROB30 TEMPO 0504/0510 VRB20G35KT 1000 TSRA BKN010 SCT035CB
YPEA,TAF YPEA 041024Z 0411/0500 19010KT CAVOK FM041600 17005KT CAVOK PROB30 0420/0500 1500 BR
YPGV,TAF YPGV 040714Z 0408/0420 14012KT 9999 SCT030 FM041000 16005KT 9999 SCT020
YPJT,TAF YPJT 041105Z 0412/0506 18010KT CAVOK FM041800 14006KT CAVOK FM050300 23014KT 9999 SCT040
YPKG,TAF YPKG 041105Z 0412/0512 23005KT CAVOK FM050300 25014KT CAVOK FM051000 23010KT CAVOK
YPKU,TAF AMD YPKU 041016Z 0410/0420 29008KT CAVOK FM041500 VRB03KT CAVOK PROB30 TEMPO 0410/0413 VRB20G35KT 1000 TSRA BKN015 SCT050CB
YPLM,TAF YPLM 041128Z 0412/0512 22014KT 9999 SCT035 FM041500 18010KT CAVOK FM050000 21014KT CAVOK
YPPD,TAF YPPD 041124Z 0412/0512 28010KT 9999 FEW020 FM042000 23007KT 9999 FEW020 FM050000 30010KT CAVOK FM050400 32014KT CAVOK
YPPH,TAF YPPH 041105Z 0412/0518 18010KT CAVOK FM041800 14006KT CAVOK FM050300 23014KT 9999 SCT040 FM051200 16010KT CAVOK
YPTN,TAF YPTN 041109Z 0412/0512 07005KT CAVOK FM050000 10010KT CAVOK FM051000 11004KT CAVOK
YPWR,TAF YPWR 041104Z 0412/0506 07006KT CAVOK FM050100 35012KT CAVOK
YPXM,TAF YPXM 041122Z 0412/0512 21005KT 9999 SCT020
YSCB,TAF YSCB 041110Z 0412/0512 11005KT 9999 SCT020 FM041500 VRB03KT CAVOK FM050000 10006KT CAVOK FM050300 09008KT 9999 -SHRA SCT045 FM051000 10005KT CAVOK PROB30 0416/0422 0500 FG
YSDU,TAF YSDU 041058Z 0412/0506 13008KT CAVOK FM050100 15010KT 9999 FEW050
YSNF,TAF AMD YSNF 041131Z 0412/0512 10015G25KT 9999 SCT020 BKN030 FM042100 09020G30KT 9999 -RA SCT015 BKN025 FM050000 05020G30KT 9999 -RA BKN012 FM050300 05015G25KT 9999 -RA BKN005 INTER 0421/0500 4000 SHRA BKN012 TEMPO 0500/0512 3000 RA BKN005
YSRI,TAF AMD YSRI 041104Z 0412/0512 19005KT 9999 SCT030 FM041400 VRB03KT 0500 FG NSC FM042200 12010KT 9999 NSW SCT035
YSSY,TAF YSSY 041101Z 0412/0518 11007KT 9999 FEW030 FM041300 25006KT 9999 SCT030 FM042300 16014KT 9999 -SHRA SCT030 FM050900 16008KT 9999 NSW SCT030 FM051500 26006KT 9999 SCT025
YSTW,TAF YSTW 041053Z 0412/0506 16008KT CAVOK FM041800 16008KT 9999 SCT020 FM042100 17010KT 9999 BKN040
YWLM,TAF YWLM 041001Z 0411/0506 22005KT 9999 -SHRA SCT025 BKN035 FM041300 19008KT 9999 -SHRA FEW010 SCT012 BKN020 FM050000 12010KT 9999 NSW SCT020 SCT030 INTER 0411/0506 5000 SHRA BKN012
ZBAA,TAF ZBAA 040901Z 0412/0512 36004MPS 6000 NSC TX18/0507Z TN07/0421Z
ZBAD,TAF ZBAD 040904Z 0412/0512 01009MPS 2800 -RA SCT010 OVC040 TX16/0507Z TN07/0421Z BECMG 0414/0415 01004MPS 3500 BR
ZBHH,TAF ZBHH 040901Z 0412/0512 08004MPS 9999 SCT040 TX08/0507Z TNM02/0422Z TEMPO 0506/0512 2800 -SNRA
ZBSJ,TAF ZBSJ 040907Z 0412/0512 33003MPS 4000 BR OVC040 TX15/0507Z TN05/0422Z
ZBTJ,TAF ZBTJ 040902Z 0412/0512 01009G15MPS 3000 -RA BR BKN010 OVC026 TX15/0507Z TN05/0422Z BECMG 0415/0416 36005G10MPS BECMG 0421/0422 5000 BR NSC BECMG 0506/0507 30003MPS
ZBYN,TAF ZBYN 040901Z 0412/0512 09004MPS 3000 BR NSC TX14/0507Z TN01/0422Z BECMG 0505/0506 31005MPS
ZGGG,TAF ZGGG 040904Z 0412/0512 15004MPS 6000 OVC030 TX26/0507Z TN21/0422Z TEMPO 0500/0506 2000 +TSRA SCT010 SCT026CB BKN030 TEMPO 0506/0512 3500 TSRA SCT010 SCT026CB BKN030
ZGHA,TAF ZGHA 040901Z 0412/0512 35004MPS 3500 BR BKN020 OVC050 TX16/0507Z TN10/0422Z
ZGKL,TAF ZGKL 040910Z 0412/0512 18003MPS 5000 BR SCT030 BKN050 TX25/0412Z TN15/0512Z BECMG 0412/0414 05005MPS TEMPO 0413/0419 2500 TSRA BR FEW008 SCT026 FEW026CB BKN040 TEMPO 0419/0501 2500 -TSRA BR FEW008 SCT026 FEW026CB BKN040
ZGNN,TAF ZGNN 040907Z 0412/0512 16003MPS 5000 BR SCT033 TX30/0507Z TN23/0422Z
ZGOW,TAF ZGOW 040911Z 0412/0512 18003MPS 5000 BR SCT011 BKN026 TX27/0506Z TN18/0422Z BECMG 0419/0420 2500 SCT005 BKN011 BECMG 0502/0503 4000 SCT011 BKN026 TEMPO 0506/0510 TSRA SCT011 SCT023CB BKN026
ZGSZ,TAF ZGSZ 040914Z 0412/0512 17006MPS 6000 SCT015 BKN040 TX27/0506Z TN22/0422Z TEMPO 0505/0511 2500 TSRA SCT015 FEW020CB BKN030
ZHCC,TAF ZHCC 040909Z 0412/0512 01008G16MPS 5000 HZ NSC TX17/0507Z TN07/0422Z BECMG 0418/0419 35003MPS
ZHHH,TAF ZHHH 040902Z 0412/0512 03004G09MPS 6000 NSC TX18/0507Z TN08/0422Z
ZJHK,TAF ZJHK 040905Z 0412/0512 17004G10MPS 9999 SCT020 TX34/0506Z TN24/0421Z TEMPO 0507/0511 -TSRA SCT020 FEW026CB
ZJSY,TAF ZJSY 040904Z 0412/0512 12003MPS 9999 FEW020 SCT040 TX31/0506Z TN26/0421Z
ZKPY,TAF ZKPY 040430Z 0406/0506 16004MPS 8000 OVC030 TX21/0406Z TN12/0421Z BECMG 0410/0412 6000 -RA OVC020
ZKWS,TAF ZKWS 040430Z 0406/0506 15003MPS 6000 NSC TX14/0406Z TN10/0421Z BECMG 0412/0414 12004MPS 4000 -RA OVC020
ZLLL,TAF ZLLL 040915Z 0412/0512 05004G09MPS 6000 SCT016 OVC040 TX03/0509Z TNM02/0423Z BECMG 0500/0501 4000 -SN BECMG 0506/0507 6000
ZLXY,TAF ZLXY 040905Z 0412/0512 26004MPS 3000 BR OVC070 TX13/0507Z TN09/0421Z BECMG 0420/0421 -RA BECMG 0501/0502 BR
ZMCK,TAF ZMCK 041045Z 0412/0518 VRB02MPS 9999 SCT100 TNM14/0423Z TX00/0507Z BECMG 0502/0504 29007MPS SCT033 SCT100 BECMG 0506/0508 33008MPS
ZMUB,TAF ZMUB 041046Z 0412/0518 VRB02MPS 9999 SCT100 TNM17/0423Z TX01/0507Z BECMG 0503/0505 30006MPS SCT033 SCT100 BECMG 0506/0508 34008MPS BECMG 0513/0515 35006MPS
ZPPP,TAF ZPPP 040908Z 0412/0512 22006MPS 9999 FEW026 TX23/0508Z TN11/0423Z BECMG 0503/0504 23011G17MPS BECMG 0510/0511 23006MPS
ZSAM,TAF ZSAM 040908Z 0412/0512 19003MPS 5000 BR BKN026 TX25/0506Z TN19/0421Z TEMPO 0419/0501 3000 -SHRA BR BKN010 FEW020CB OVC023 TEMPO 0501/0507 3000 TSRA BR BKN010 FEW020CB OVC023
ZSFZ,TAF ZSFZ 040911Z 0412/0512 18003MPS 6000 BKN030 TX23/0506Z TN18/0421Z BECMG 0421/0422 -SHRA BKN011 TEMPO 0423/0503 -TSRA BKN011 FEW030CB TEMPO 0500/0506 2500 SHRA BECMG 0502/0503 BKN015
ZSHC,TAF ZSHC 040912Z 0412/0512 35003MPS 3000 BR FEW010 BKN023 TX19/0412Z TN13/0421Z TEMPO 0412/0416 SHRA FEW010 BKN023 FEW030CB
ZSJN,TAF ZSJN 040911Z 0412/0512 03004G09MPS 3500 -RA BR BKN006 OVC033 TX12/0506Z TN05/0421Z BECMG 0413/0414 BR BKN033
ZSNB,TAF ZSNB 040911Z 0412/0512 18005MPS 4000 -SHRA BR BKN020 TX19/0506Z TN15/0421Z TEMPO 0412/0418 TSRA FEW007 BKN020 FEW030CB BECMG 0420/0421 33005MPS
ZSNJ,TAF ZSNJ 040901Z 0412/0512 30005MPS 3500 -RA BR SCT010 OVC033 TX14/0506Z TN10/0421Z
ZSOF,TAF ZSOF 040903Z 0412/0512 32004MPS 3000 BR BKN010 TX14/0506Z TN08/0422Z BECMG 0506/0507 BKN020
ZSPD,TAF ZSPD 040910Z 0412/0512 18008MPS 6000 -SHRA BKN011 TX18/0506Z TN12/0418Z BECMG 0416/0418 32005MPS BECMG 0503/0504 NSW
ZSQD,TAF ZSQD 040909Z 0412/0512 24004MPS 3500 -RA BKN010 OVC020 TX13/0506Z TN09/0421Z BECMG 0417/0418 31006MPS BKN020 BECMG 0502/0503 34012G18MPS BECMG 0509/0510 35006MPS
ZSSS,TAF ZSSS 040911Z 0412/0512 18006MPS 6000 -SHRA BKN015 TX19/0506Z TN13/0418Z BECMG 0416/0418 32005MPS BECMG 0503/0504 NSW
ZUCK,TAF ZUCK 040905Z 0412/0512 03004MPS 6000 SCT040 TX20/0412Z TN14/0421Z
ZUGY,TAF ZUGY 040901Z 0412/0512 02004MPS 6000 BKN015 OVC033 TX25/0412Z TN10/0512Z
ZUUU,TAF ZUUU 040920Z 0412/0512 02004MPS 6000 SCT050 TX20/0507Z TN15/0423Z TEMPO 0414/0420 -SHRA
ZWSH,TAF ZWSH 040914Z 0412/0512 10004MPS 1200 DU FEW040 TX11/0509Z TN06/0500Z BECMG 0501/0502 2000
ZWWW,TAF ZWWW 040902Z 0412/0512 36004MPS CAVOK TX10/0509Z TN00/0423Z BECMG 0413/0414 18004MPS BECMG 0503/0504 36004MPS
ZYCC,TAF ZYCC 040902Z 0412/0512 03004G10MPS 6000 SCT030 TX13/0506Z TNM01/0421Z
ZYHB,TAF ZYHB 040904Z 0412/0512 26004MPS 6000 FEW030 TX12/0506Z TNM03/0421Z
ZYTL,TAF ZYTL 040912Z 0412/0512 06008G16MPS 3000 -RA BR SCT010 BKN033 TX12/0506Z TN05/0421Z TEMPO 0412/0416 2000 RA BR SCT005 BKN010 OVC033 BECMG 0423/0424 36007G15MPS
ZYTX,TAF ZYTX 040901Z 0412/0512 03005MPS 6000 -RA OVC040 TX10/0506Z TN05/0421Z
