{"station_id": ["AGGH", "ANYN", "AYPY", "BGBW", "BGGH", "BGJN", "BGKK", "BGSF", "BGTL", "BIAR", "BIBD", "BIEG", "BIGR", "BIHN", "BIIS", "BIKF", "BIRK", "BIVM", "BKPR", "CAHR", "CBAR", "CBBC", "CERM", "CFOX", "CMFM", "CMGB", "CPBT", "CPEH", "CPFI", "CPIN", "CPIR", "CPRO", "CPRY", "CPST", "CPSV", "CTCK", "CTNK", "CTRA", "CWAE", "CWAF", "CWAJ", "CWAQ", "CWAR", "CWAV", "CWBA", "CWBK", "CWBO", "CWBS", "CWBT", "CWBU", "CWBV", "CWBY", "CWBZ", "CWCF", "CWCI", "CWCJ", "CWCO", "CWCT", "CWDA", "CWDC", "CWDJ", "CWDK", "CWDM", "CWDO", "CWDQ", "CWDT", "CWDV", "CWDZ", "CWEB", "CWEE", "CWEF", "CWEH", "CWEK", "CWEL", "CWEP", "CWEQ", "CWER", "CWEU", "CWEW", "CWEZ", "CWFD", "CWFF", "CWFJ", "CWFQ", "CWGB", "CWGD", "CWGH", "CWGL", "CWGM", "CWGR", "CWGT", "CWGW", "CWGY", "CWHI", "CWHL", "CWHO", "CWHP", "CWHQ", "CWHT", "CWHV", "CWID", "CWIG", "CWII", "CWIJ", "CWIK", "CWIL", "CWIP", "CWIS", "CWIT", "CWIW", "CWIX", "CWIZ", "CWJB", "CWJC", "CWJD", "CWJH", "CWJI", "CWJO", "CWJR", "CWJT", "CWJU", "CWJV", "CWJW", "CWJX", "CWKD", "CWKH", "CWKK", "CWKM", "CWKO", "CWKP", "CWKX", "CWLB", "CWLC", "CWLE", "CWLI", "CWLM", "CWLS", "CWLX", "CWLY", "CWME", "CWMJ", "CWMM", "CWMQ", "CWMT", "CWMZ", "CWNC", "CWND", "CWNE", "CWNH", "CWNK", "CWNM", "CWNP", "CWNQ", "CWNZ", "CWOB", "CWOC", "CWOD", "CWOE", "CWOY", "CWPC", "CWPD", "CWPE", "CWPF", "CWPK", "CWPO", "CWPR", "CWPX", "CWPZ", "CWQH", "CWQK", "CWQO", "CWQP", "CWQR", "CWQS", "CWQV", "CWRA", "CWRH", "CWRJ", "CWRK", "CWRM", "CWRN", "CWRO", "CWRT", "CWRU", "CWRX", "CWRY", "CWRZ", "CWSA", "CWSF", "CWSG", "CWSK", "CWSL", "CWSP", "CWSR", "CWSS", "CWST", "CWSW", "CWTA", "CWTG", "CWTN", "CWTT", "CWTY", "CWUS", "CWUW", "CWUX", "CWVF", "CWVH", "CWVI", "CWVN", "CWVP", "CWVQ", "CWVT", "CWVU", "CWWA", "CWWB", "CWWE", "CWWF", "CWWK", "CWWL", "CWWS", "CWWZ", "CWXA", "CWXC", "CWXI", "CWXL", "CWYJ", "CWYL", "CWYY", "CWZA", "CWZG", "CWZL", "CWZN", "CWZO", "CWZQ", "CWZW", "CXAF", "CXAG", "CXAJ", "CXAK", "CXAT", "CXBA", "CXBI", "CXBK", "CXBO", "CXBR", "CXBW", "CXCA", "CXCD", "CXCK", "CXCP", "CXCS", "CXDB", "CXDE", "CXDI", "CXDK", "CXDW", "CXEA", "CXEC", "CXEG", "CXET", "CXFM", "CXFR", "CXGH", "CXHA", "CXHD", "CXHM", "CXHP", "CXHR", "CXIB", "CXKA", "CXKE", "CXKI", "CXKM", "CXKT", "CXLB", "CXLL", "CXMD", "CXMG", "CXMI", "CXMM", "CXMO", "CXMY", "CXNM", "CXNP", "CXOL", "CXOX", "CXOY", "CXPA", "CXPC", "CXPL", "CXRB", "CXRH", "CXRL", "CXSC", "CXSE", "CXSH", "CXSL", "CXSP", "CXTD", "CXTH", "CXTN", "CXTO", "CXTP", "CXTV", "CXVM", "CXVN", "CXVW", "CXWM", "CXWN", "CXYH", "CXZC", "CXZV", "CYAB", "CYAH", "CYAM", "CYAS", "CYAT", "CYAW", "CYAY", "CYAZ", "CYBB", "CYBC", "CYBD", "CYBG", "CYBK", "CYBL", "CYBQ", "CYBR", "CYBU", "CYBV", "CYBW", "CYBX", "CYCA", "CYCB", "CYCD", "CYCG", "CYCK", "CYCO", "CYCP", "CYCQ", "CYCS", "CYCX", "CYCY", "CYDB", "CYDC", "CYDF", "CYDL", "CYDN", "CYDP", "CYDQ", "CYED", "CYEG", "CYEK", "CYEN", "CYER", "CYET", "CYEV", "CYFB", "CYFC", "CYFO", "CYFS", "CYFT", "CYGE", "CYGH", "CYGK", "CYGL", "CYGP", "CYGR", "CYGT", "CYGV", "CYGW", "CYGX", "CYHA", "CYHD", "CYHE", "CYHK", "CYHM", "CYHU", "CYHY", "CYHZ", "CYIK", "CYIN", "CYIO", "CYIV", "CYJT", "CYKA", "CYKF", "CYKG", "CYKJ", "CYKL", "CYKO", "CYKQ", "CYKY", "CYLA", "CYLC", "CYLD", "CYLH", "CYLJ", "CYLL", "CYLT", "CYLU", "CYLW", "CYMA", "CYMH", "CYMM", "CYMO", "CYMT", "CYMU", "CYMX", "CYNA", "CYND", "CYNE", "CYNM", "CYOC", "CYOD", "CYOJ", "CYOO", "CYOW", "CYOY", "CYPA", "CYPC", "CYPD", "CYPE", "CYPG", "CYPH", "CYPL", "CYPO", "CYPQ", "CYPR", "CYPW", "CYPX", "CYPY", "CYQA", "CYQB", "CYQD", "CYQF", "CYQG", "CYQH", "CYQI", "CYQK", "CYQL", "CYQM", "CYQQ", "CYQR", "CYQT", "CYQU", "CYQV", "CYQW", "CYQX", "CYQY", "CYQZ", "CYRB", "CYRJ", "CYRL", "CYRQ", "CYRT", "CYRV", "CYSB", "CYSC", "CYSF", "CYSJ", "CYSK", "CYSM", "CYSN", "CYSP", "CYSY", "CYTE", "CYTH", "CYTL", "CYTQ", "CYTR", "CYTS", "CYTZ", "CYUA", "CYUB", "CYUL", "CYUS", "CYUT", "CYUX", "CYUY", "CYVC", "CYVL", "CYVM", "CYVO", "CYVP", "CYVQ", "CYVR", "CYVT", "CYVV", "CYWE", "CYWG", "CYWH", "CYWJ", "CYWK", "CYWL", "CYXC", "CYXE", "CYXH", "CYXJ", "CYXL", "CYXN", "CYXP", "CYXR", "CYXS", "CYXT", "CYXU", "CYXX", "CYXY", "CYXZ", "CYYB", "CYYC", "CYYD", "CYYE", "CYYF", "CYYG", "CYYH", "CYYJ", "CYYL", "CYYN", "CYYQ", "CYYR", "CYYT", "CYYU", "CYYW", "CYYY", "CYYZ", "CYZE", "CYZF", "CYZG", "CYZH", "CYZP", "CYZR", "CYZS", "CYZT", "CYZU", "CYZV", "CYZX", "CYZY", "CZBF", "CZCP", "CZCR", "CZDB", "CZEL", "CZEM", "CZEV", "CZFS", "CZHY", "CZKD", "CZMD", "CZMJ", "CZOL", "CZPC", "CZPS", "CZRP", "CZSJ", "CZSM", "CZSP", "CZST", "CZTB", "CZUM", "CZVL", "CZZJ", "DAAD", "DAAE", "DAAG", "DAAJ", "DAAP", "DAAS", "DAAT", "DAAV", "DAAY", "DABB", "DABC", "DABS", "DABT", "DAFH", "DAOB", "DAOF", "DAOI", "DAOL", "DAON", "DAOO", "DAOR", "DAOV", "DAOY", "DATM", "DAUA", "DAUB", "DAUE", "DAUG", "DAUH", "DAUI", "DAUK", "DAUL", "DAUO", "DAUT", "DAUU", "DAUZ", "DBBB", "DFFD", "DFOO", "DGAA", "DIAP", "DIBK", "DIYO", "DNAA", "DNEN", "DNGO", "DNIB", "DNJO", "DNKA", "DNKN", "DNKT", "DNMM", "DNMN", "DNPO", "DNSO", "DNYO", "DRRM", "DRRN", "DRRT", "DRZA", "DRZR", "DTKA", "DTMB", "DTNH", "DTTA", "DTTB", "DTTD", "DTTF", "DTTG", "DTTJ", "DTTK", "DTTL", "DTTN", "DTTR", "DTTX", "DTTZ", "DXNG", "DXXX", "EBAW", "EBBE", "EBBL", "EBBR", "EBCI", "EBCV", "EBDT", "EBFN", "EBFS", "EBLB", "EBLG", "EBOS", "EDAC", "EDAH", "EDBC", "EDDB", "EDDC", "EDDE", "EDDF", "EDDG", "EDDH", "EDDK", "EDDL", "EDDM", "EDDN", "EDDP", "EDDR", "EDDS", "EDDV", "EDDW", "EDFH", "EDFM", "EDGS", "EDHI", "EDHK", "EDHL", "EDJA", "EDLN", "EDLP", "EDLV", "EDLW", "EDMA", "EDMO", "EDNY", "EDQM", "EDSB", "EDTL", "EDTY", "EDVE", "EDVK", "EDXW", "EEEI", "EEKA", "EEKE", "EEPU", "EETN", "EETU", "EFET", "EFHA", "EFHK", "EFIV", "EFJO", "EFJY", "EFKE", "EFKI", "EFKK", "EFKS", "EFKT", "EFKU", "EFLP", "EFMA", "EFMI", "EFOU", "EFPO", "EFRO", "EFSA", "EFSI", "EFTP", "EFTU", "EFUT", "EFVA", "EGAA", "EGAC", "EGAE", "EGBB", "EGBJ", "EGCC", "EGCK", "EGCN", "EGDM", "EGDR", "EGDY", "EGEC", "EGEO", "EGFF", "EGGD", "EGGP", "EGGW", "EGHC", "EGHE", "EGHH", "EGHI", "EGHQ", "EGJA", "EGJB", "EGJJ", "EGKA", "EGKB", "EGKK", "EGLC", "EGLF", "EGLL", "EGMC", "EGMD", "EGNH", "EGNJ", "EGNM", "EGNO", "EGNR", "EGNS", "EGNT", "EGNV", "EGNX", "EGOM", "EGOP", "EGOS", "EGOV", "EGOW", "EGPA", "EGPB", "EGPC", "EGPD", "EGPE", "EGPF", "EGPH", "EGPI", "EGPK", "EGPL", "EGPN", "EGPO", "EGPU", "EGQA", "EGQK", "EGQL", "EGQM", "EGQS", "EGSC", "EGSH", "EGSS", "EGSY", "EGTC", "EGTE", "EGTK", "EGUB", "EGUL", "EGUN", "EGUW", "EGVA", "EGVN", "EGVO", "EGVP", "EGWC", "EGWU", "EGXC", "EGXE", "EGXP", "EGXS", "EGXT", "EGXV", "EGXW", "EGXZ", "EGYD", "EGYE", "EGYH", "EGYM", "EGYP", "EHAK", "EHAM", "EHBK", "EHDL", "EHDV", "EHEH", "EHFD", "EHFS", "EHGG", "EHGR", "EHHW", "EHJA", "EHJR", "EHKD", "EHKV", "EHLE", "EHLW", "EHMA", "EHMG", "EHPG", "EHQE", "EHRD", "EHSA", "EHSC", "EHVK", "EHVL", "EHWO", "EICK", "EIDL", "EIDW", "EIKN", "EIKY", "EIME", "EINN", "EISG", "EIWF", "EKAH", "EKBI", "EKCH", "EKEB", "EKKA", "EKOD", "EKRK", "EKRN", "EKRS", "EKSB", "EKSP", "EKVD", "EKVG", "EKVJ", "EKYT", "ELLX", "ENAL", "ENAN", "ENAT", "ENBL", "ENBN", "ENBO", "ENBR", "ENBS", "ENBV", "ENCN", "ENDR", "ENDU", "ENEV", "ENFB", "ENFL", "ENGC", "ENGM", "ENHD", "ENHE", "ENHF", "ENHK", "ENHM", "ENHV", "ENJS", "ENKB", "ENKR", "ENLA", "ENLE", "ENLK", "ENMH", "ENML", "ENMS", "ENNA", "ENNE", "ENNM", "ENNO", "ENOA", "ENOL", "ENOV", "ENQA", "ENQC", "ENQR", "ENRA", "ENRM", "ENRO", "ENRS", "ENRY", "ENSB", "ENSD", "ENSE", "ENSF", "ENSG", "ENSH", "ENSK", "ENSL", "ENSO", "ENSR", "ENSS", "ENST", "ENTC", "ENTO", "ENUG", "ENUN", "ENVA", "ENVD", "ENVR", "ENWV", "ENZV", "EPBY", "EPGD", "EPKK", "EPKT", "EPLB", "EPLL", "EPMO", "EPPO", "EPRA", "EPRZ", "EPSC", "EPSY", "EPWA", "EPWR", "EPZG", "ESCF", "ESCM", "ESDF", "ESGG", "ESGJ", "ESGP", "ESGT", "ESIA", "ESIB", "ESKM", "ESKN", "ESKS", "ESMK", "ESMQ", "ESMS", "ESMT", "ESMX", "ESND", "ESNG", "ESNK", "ESNL", "ESNN", "ESNO", "ESNQ", "ESNS", "ESNU", "ESNV", "ESNX", "ESNZ", "ESOE", "ESOH", "ESOK", "ESOW", "ESPA", "ESPE", "ESSA", "ESSB", "ESSD", "ESSL", "ESSP", "ESST", "ESSV", "ESTA", "ESTL", "ESUP", "ESUT", "ETAD", "ETAR", "ETEB", "ETGG", "ETHA", "ETHB", "ETHC", "ETHF", "ETHL", "ETHN", "ETHS", "ETIC", "ETIH", "ETIK", "ETMN", "ETNG", "ETNH", "ETNL", "ETNN", "ETNS", "ETNT", "ETNW", "ETOU", "ETSB", "ETSH", "ETSI", "ETSL", "ETSN", "ETWM", "EVGA", "EVLA", "EVRA", "EVVA", "EYKA", "EYPA", "EYSA", "EYVI", "FABL", "FACT", "FAEL", "FAGG", "FAHS", "FAJB", "FAKM", "FAKN", "FALA", "FALE", "FALW", "FAMM", "FAOR", "FAPE", "FAPP", "FAUP", "FAUT", "FAWB", "FAWK", "FBKE", "FBMN", "FBPM", "FBSK", "FDBB", "FDMS", "FDMY", "FDPP", "FDSK", "FDST", "FGBT", "FGSL", "FIMP", "FJDG", "FMCH", "FMCZ", "FMEE", "FMEP", "FMMI", "FMMT", "FMNM", "FMNN", "FMSD", "FNLU", "FNMO", "FNSO", "FOGM", "FOGR", "FOOG", "FOOL", "FOON", "FOOR", "FSIA", "FTTA", "FTTC", "FTTD", "FTTJ", "FWCL", "FWKI", "FYGF", "FYKM", "FYLZ", "FYOA", "FYRU", "FYWB", "FYWE", "FYWH", "FYWW", "GABS", "GBYD", "GCFV", "GCGM", "GCHI", "GCLA", "GCLP", "GCRR", "GCTS", "GCXO", "GECE", "GEML", "GGOV", "GMAD", "GMAG", "GMAT", "GMAZ", "GMFB", "GMFF", "GMFK", "GMFM", "GMFO", "GMMB", "GMMC", "GMMD", "GMME", "GMMH", "GMMI", "GMML", "GMMN", "GMMW", "GMMX", "GMMZ", "GMTA", "GMTN", "GMTT", "GOBD", "GOGG", "GOOY", "GOSS", "GQNO", "GQPP", "GVAC", "GVBA", "GVNP", "GVSV", "HAAB", "HCMF", "HCMM", "HDAM", "HEAT", "HEAX", "HEBA", "HEBL", "HECA", "HECP", "HEGN", "HEIS", "HELX", "HEMA", "HEMM", "HEPS", "HESG", "HESH", "HESN", "HESW", "HETR", "HKEL", "HKEM", "HKGA", "HKJK", "HKKI", "HKKT", "HKLO", "HKLU", "HKME", "HKMO", "HKNI", "HKNK", "HKNW", "HRYR", "HRZA", "HSSK", "HTDA", "HTJN", "HTKJ", "HTMW", "HTZA", "HUEN", "HUSO", "K04V", "K04W", "K05U", "K06C", "K06D", "K08D", "K0A0", "K0A9", "K0CO", "K0E0", "K0F2", "K0J4", "K0R0", "K0R4", "K0S9", "K0V4", "K0VG", "K10G", "K11R", "K12N", "K13K", "K14Y", "K15M", "K17J", "K18A", "K18H", "K19S", "K1A5", "K1A6", "K1A9", "K1AM", "K1AW", "K1BM", "K1BW", "K1CM", "K1CW", "K1D1", "K1DM", "K1DW", "K1EM", "K1EW", "K1F0", "K1FM", "K1GM", "K1H2", "K1HM", "K1HW", "K1IM", "K1IW", "K1JM", "K1JW", "K1K1", "K1KM", "K1LM", "K1M4", "K1M5", "K1MM", "K1MW", "K1NM", "K1OM", "K1OW", "K1P1", "K1R7", "K1R8", "K1S3", "K1S5", "K1U7", "K1V4", "K1V6", "K1YT", "K20U", "K20V", "K21D", "K22N", "K24A", "K24J", "K27K", "K28J", "K2A0", "K2C8", "K2D5", "K2DP", "K2G2", "K2G4", "K2G9", "K2IS", "K2J3", "K2J5", "K2J9", "K2M2", "K2P2", "K2R9", "K2V5", "K2W6", "K2WX", "K33N", "K33V", "K35A", "K36K", "K38S", "K3AU", "K3D2", "K3F3", "K3I2", "K3J7", "K3K3", "K3LF", "K3N8", "K3R7", "K3S8", "K3U3", "K40B", "K40U", "K41U", "K42J", "K46D", "K46U", "K48A", "K49A", "K4A6", "K4A9", "K4F2", "K4I3", "K4M9", "K4MR", "K4O4", "K4R5", "K4S1", "K4S2", "K4V1", "K54A", "K54J", "K57C", "K5C1", "K5H4", "K5M9", "K5SM", "K5T9", "K63S", "K65S", "K66R", "K6A1", "K6A2", "K6B0", "K6B9", "K6I2", "K6L4", "K6P9", "K6R6", "K6S0", "K6S2", "K6S8", "K74V", "K77S", "K79J", "K7BM", "K7L2", "K7N0", "K7W4", "K81R", "K82C", "K82V", "K8A0", "K8A3", "K8D3", "K8T6", "K8W2", "K96D", "K9A5", "K9D7", "K9L2", "K9MN", "K9S5", "K9V9", "KAAA", "KAAF", "KAAO", "KAAS", "KAAT", "KABE", "KABH", "KABI", "KABQ", "KABR", "KABY", "KACB", "KACK", "KACP", "KACQ", "KACT", "KACV", "KACY", "KADC", "KADG", "KADH", "KADM", "KADS", "KADT", "KADU", "KADW", "KAEG", "KAEJ", "KAEL", "KAEX", "KAFF", "KAFJ", "KAFK", "KAFN", "KAFO", "KAFP", "KAFW", "KAGC", "KAGI", "KAGO", "KAGS", "KAHN", "KAHQ", "KAIA", "KAID", "KAIG", "KAIK", "KAIO", "KAIT", "KAIZ", "KAJG", "KAJO", "KAJR", "KAJZ", "KAKH", "KAKO", "KAKQ", "KAKR", "KALB", "KALI", "KALK", "KALM", "KALN", "KALO", "KALS", "KALW", "KALX", "KAMA", "KAMG", "KAMN", "KAMW", "KANB", "KAND", "KANE", "KANJ", "KANK", "KANQ", "KANW", "KAOH", "KAOO", "KAPA", "KAPC", "KAPF", "KAPG", "KAPN", "KAPS", "KAQO", "KAQP", "KAQV", "KAQW", "KAQX", "KARA", "KARB", "KARG", "KARM", "KARR", "KART", "KARV", "KARW", "KASD", "KASE", "KASG", "KASH", "KASJ", "KASL", "KASN", "KAST", "KASW", "KASX", "KATA", "KATL", "KATP", "KATS", "KATT", "KATW", "KATY", "KAUG", "KAUH", "KAUM", "KAUN", "KAUO", "KAUS", "KAUW", "KAVC", "KAVK", "KAVL", "KAVP", "KAVQ", "KAVX", "KAWG", "KAWM", "KAWO", "KAXA", "KAXH", "KAXN", "KAXS", "KAXV", "KAXX", "KAYS", "KAZC", "KAZE", "KAZO", "KBAB", "KBAC", "KBAD", "KBAF", "KBAK", "KBAM", "KBAN", "KBAX", "KBAZ", "KBBB", "KBBD", "KBBG", "KBBP", "KBBW", "KBCB", "KBCE", "KBCK", "KBCR", "KBCT", "KBDE", "KBDG", "KBDH", "KBDL", "KBDN", "KBDR", "KBDU", "KBEA", "KBEC", "KBED", "KBEH", "KBFD", "KBFF", "KBFI", "KBFL", "KBFM", "KBGD", "KBGE", "KBGF", "KBGM", "KBGR", "KBHB", "KBHC", "KBHK", "KBHM", "KBID", "KBIE", "KBIF", "KBIH", "KBIJ", "KBIL", "KBIS", "KBIV", "KBIX", "KBJC", "KBJI", "KBJJ", "KBKB", "KBKD", "KBKE", "KBKF", "KBKL", "KBKS", "KBKT", "KBKV", "KBKW", "KBKX", "KBLF", "KBLH", "KBLI", "KBLM", "KBLU", "KBLV", "KBMC", "KBMG", "KBMI", "KBML", "KBMQ", "KBMT", "KBNA", "KBNL", "KBNO", "KBNW", "KBOI", "KBOK", "KBOS", "KBOW", "KBPG", "KBPI", "KBPK", "KBPT", "KBQK", "KBQP", "KBQX", "KBRD", "KBRG", "KBRL", "KBRO", "KBRY", "KBTA", "KBTL", "KBTM", "KBTN", "KBTP", "KBTR", "KBTV", "KBUF", "KBUR", "KBUU", "KBUY", "KBVI", "KBVN", "KBVO", "KBVS", "KBVU", "KBVX", "KBVY", "KBWG", "KBWI", "KBWP", "KBWW", "KBXA", "KBXK", "KBYG", "KBYI", "KBYL", "KBYS", "KBYY", "KBZN", "KC07", "KC09", "KC29", "KC35", "KC65", "KC75", "KC83", "KC99", "KCAD", "KCAE", "KCAG", "KCAK", "KCAO", "KCAR", "KCAV", "KCBE", "KCBG", "KCBK", "KCBM", "KCCA", "KCCB", "KCCO", "KCCR", "KCCU", "KCCY", "KCDA", "KCDC", "KCDD", "KCDH", "KCDI", "KCDJ", "KCDN", "KCDR", "KCDS", "KCDW", "KCEC", "KCEF", "KCEU", "KCEW", "KCEY", "KCEZ", "KCFD", "KCFE", "KCFJ", "KCFO", "KCFS", "KCFV", "KCGC", "KCGE", "KCGF", "KCGI", "KCGS", "KCGZ", "KCHA", "KCHD", "KCHK", "KCHO", "KCHS", "KCIC", "KCID", "KCII", "KCIN", "KCIR", "KCIU", "KCJR", "KCKB", "KCKC", "KCKF", "KCKI", "KCKM", "KCKN", "KCKP", "KCKV", "KCKZ", "KCLE", "KCLI", "KCLK", "KCLL", "KCLM", "KCLS", "KCLT", "KCLW", "KCMA", "KCMD", "KCMH", "KCMI", "KCMR", "KCMX", "KCMY", "KCNB", "KCNC", "KCNI", "KCNK", "KCNM", "KCNO", "KCNU", "KCNW", "KCNY", "KCOD", "KCOE", "KCOF", "KCOM", "KCON", "KCOQ", "KCOS", "KCOT", "KCOU", "KCPC", "KCPF", "KCPK", "KCPR", "KCPT", "KCPU", "KCPW", "KCQB", "KCQC", "KCQF", "KCQM", "KCQT", "KCQW", "KCQX", "KCRE", "KCRG", "KCRP", "KCRQ", "KCRS", "KCRW", "KCRX", "KCSG", "KCSM", "KCSQ", "KCSV", "KCTB", "KCTJ", "KCTY", "KCTZ", "KCUB", "KCUH", "KCUL", "KCUT", "KCVC", "KCVG", "KCVH", "KCVN", "KCVO", "KCVS", "KCVX", "KCWA", "KCWC", "KCWF", "KCWI", "KCWN", "KCWV", "KCXE", "KCXO", "KCXP", "KCXU", "KCXW", "KCXY", "KCYD", "KCYS", "KCZL", "KCZT", "KD07", "KD25", "KD39", "KD50", "KD55", "KD57", "KD60", "KD73", "KD95", "KDAA", "KDAB", "KDAG", "KDAL", "KDAN", "KDAW", "KDAY", "KDBN", "KDBQ", "KDCA", "KDCM", "KDCU", "KDCY", "KDDC", "KDDH", "KDEC", "KDED", "KDEH", "KDEN", "KDEQ", "KDET", "KDEW", "KDFI", "KDFW", "KDHN", "KDHT", "KDIJ", "KDIK", "KDKB", "KDKK", "KDKR", "KDKX", "KDLF", "KDLH", "KDLL", "KDLN", "KDLO", "KDLS", "KDLZ", "KDMA", "KDMN", "KDMO", "KDMW", "KDNA", "KDNL", "KDNN", "KDNS", "KDNV", "KDOV", "KDPA", "KDPG", "KDPL", "KDQH", "KDRA", "KDRI", "KDRM", "KDRO", "KDRT", "KDSF", "KDSM", "KDSV", "KDTA", "KDTL", "KDTN", "KDTO", "KDTS", "KDTW", "KDUA", "KDUB", "KDUC", "KDUH", "KDUJ", "KDUX", "KDVK", "KDVL", "KDVN", "KDVO", "KDVP", "KDVT", "KDWA", "KDWH", "KDWU", "KDWX", "KDXR", "KDXX", "KDYA", "KDYB", "KDYL", "KDYR", "KDYS", "KDYT", "KDZB", "KDZJ", "KE11", "KE16", "KE38", "KE41", "KE42", "KEAN", "KEAR", "KEAT", "KEAU", "KEBA", "KEBG", "KEBS", "KECG", "KECP", "KECS", "KECU", "KEDC", "KEDE", "KEDN", "KEDU", "KEDW", "KEED", "KEEN", "KEEO", "KEET", "KEFD", "KEFK", "KEFT", "KEGE", "KEGI", "KEGT", "KEHA", "KEHO", "KEHR", "KEIK", "KEKM", "KEKN", "KEKQ", "KEKS", "KEKX", "KEKY", "KELA", "KELD", "KELK", "KELM", "KELN", "KELO", "KELP", "KELY", "KELZ", "KEMM", "KEMP", "KEMV", "KEND", "KENV", "KENW", "KEOE", "KEOK", "KEPH", "KEQA", "KEQY", "KERI", "KERV", "KERY", "KESC", "KESF", "KESN", "KEST", "KETB", "KETC", "KETH", "KETN", "KEUF", "KEUG", "KEVB", "KEVM", "KEVU", "KEVV", "KEVW", "KEWB", "KEWK", "KEWN", "KEWR", "KEXX", "KEYE", "KEYF", "KEYW", "KEZF", "KEZM", "KEZP", "KEZS", "KEZZ", "KF00", "KF05", "KF17", "KF44", "KF46", "KF70", "KFAF", "KFAM", "KFAR", "KFAT", "KFAY", "KFBG", "KFBL", "KFCI", "KFCM", "KFCS", "KFDK", "KFDR", "KFDW", "KFDY", "KFEP", "KFET", "KFEW", "KFFA", "KFFC", "KFFL", "KFFM", "KFFO", "KFFT", "KFFX", "KFFZ", "KFGN", "KFGX", "KFHB", "KFHR", "KFHU", "KFIG", "KFIN", "KFIT", "KFKA", "KFKL", "KFKN", "KFKR", "KFKS", "KFLD", "KFLG", "KFLL", "KFLO", "KFLP", "KFLY", "KFME", "KFMH", "KFMM", "KFMN", "KFMY", "KFNB", "KFNL", "KFNT", "KFOA", "KFOD", "KFOE", "KFOK", "KFOT", "KFOZ", "KFPK", "KFPR", "KFPY", "KFQD", "KFRG", "KFRH", "KFRI", "KFRM", "KFRR", "KFSD", "KFSE", "KFSI", "KFSK", "KFSM", "KFSO", "KFST", "KFSW", "KFTK", "KFTW", "KFTY", "KFUL", "KFVE", "KFVX", "KFWA", "KFWB", "KFWC", "KFWN", "KFWS", "KFWZ", "KFXE", "KFXY", "KFYE", "KFYG", "KFYJ", "KFYM", "KFYV", "KFZG", "KFZY", "KGAD", "KGAF", "KGAG", "KGAI", "KGAO", "KGBD", "KGBG", "KGBK", "KGCC", "KGCD", "KGCK", "KGCM", "KGCN", "KGCY", "KGDB", "KGDJ", "KGDP", "KGDV", "KGED", "KGEG", "KGEU", "KGEV", "KGEY", "KGEZ", "KGFA", "KGFK", "KGFL", "KGGE", "KGGF", "KGGG", "KGGI", "KGGP", "KGGW", "KGHB", "KGHG", "KGHW", "KGIC", "KGIF", "KGJT", "KGKJ", "KGKT", "KGKY", "KGLD", "KGLE", "KGLH", "KGLR", "KGLS", "KGLW", "KGLX", "KGLY", "KGMJ", "KGMU", "KGNA", "KGNB", "KGNC", "KGNG", "KGNR", "KGNT", "KGNV", "KGOK", "KGON", "KGOO", "KGOP", "KGOV", "KGPC", "KGPH", "KGPI", "KGPM", "KGPT", "KGPZ", "KGRB", "KGRD", "KGRF", "KGRI", "KGRK", "KGRN", "KGRR", "KGRY", "KGSB", "KGSH", "KGSO", "KGSP", "KGTB", "KGTF", "KGTR", "KGTU", "KGUC", "KGUL", "KGUP", "KGUR", "KGUS", "KGUY", "KGVL", "KGVQ", "KGVT", "KGVW", "KGWB", "KGWO", "KGWR", "KGWW", "KGXF", "KGXY", "KGYB", "KGYF", "KGYH", "KGYI", "KGYL", "KGYR", "KGYY", "KGZH", "KGZL", "KGZN", "KGZS", "KH71", "KHAE", "KHAF", "KHAI", "KHAO", "KHBG", "KHBI", "KHBR", "KHBV", "KHCD", "KHCO", "KHCR", "KHDC", "KHDE", "KHDL", "KHDN", "KHDO", "KHEF", "KHEG", "KHEI", "KHEQ", "KHEY", "KHEZ", "KHFD", "KHFF", "KHFJ", "KHFY", "KHGR", "KHHF", "KHHG", "KHHR", "KHHV", "KHHW", "KHIB", "KHIE", "KHIF", "KHII", "KHIO", "KHJH", "KHJO", "KHKA", "KHKS", "KHKY", "KHLB", "KHLC", "KHLG", "KHLN", "KHLR", "KHLX", "KHMN", "KHMP", "KHMT", "KHMZ", "KHNB", "KHND", "KHNR", "KHNZ", "KHOB", "KHOE", "KHON", "KHOP", "KHOT", "KHOU", "KHPN", "KHPT", "KHQG", "KHQG", "KHQM", "KHQU", "KHQZ", "KHRF", "KHRI", "KHRJ", "KHRL", "KHRO", "KHRT", "KHRX", "KHSB", "KHSD", "KHSE", "KHSG", "KHSI", "KHSP", "KHST", "KHSV", "KHTL", "KHTS", "KHUA", "KHUF", "KHUL", "KHUM", "KHUT", "KHVE", "KHVN", "KHVR", "KHVS", "KHWD", "KHWO", "KHWV", "KHWY", "KHXD", "KHYA", "KHYI", "KHYR", "KHYS", "KHYW", "KHYX", "KHZD", "KHZE", "KHZL", "KHZR", "KHZX", "KHZY", "KI23", "KI35", "KI63", "KI67", "KI68", "KI69", "KI74", "KI75", "KIAB", "KIAD", "KIAG", "KIAH", "KIBM", "KICL", "KICR", "KICT", "KIDA", "KIDI", "KIDP", "KIEN", "KIER", "KIFA", "KIFP", "KIGM", "KIGQ", "KIIY", "KIJD", "KIJX", "KIKK", "KIKV", "KIKW", "KILE", "KILG", "KILM", "KILN", "KIML", "KIMS", "KIMT", "KIND", "KINF", "KINJ", "KINK", "KINL", "KINS", "KINT", "KINW", "KIOB", "KIOW", "KIPJ", "KIPL", "KIPT", "KIRK", "KIRS", "KISM", "KISO", "KISP", "KISQ", "KISW", "KITH", "KITR", "KIUA", "KIWA", "KIWD", "KIWI", "KIXA", "KIXD", "KIYA", "KIZA", "KIZG", "KJAC", "KJAN", "KJAQ", "KJAS", "KJAU", "KJAX", "KJBR", "KJCA", "KJCT", "KJDD", "KJDN", "KJEF", "KJER", "KJES", "KJFK", "KJFX", "KJFZ", "KJHN", "KJHW", "KJKA", "KJKJ", "KJKL", "KJLN", "KJMR", "KJMS", "KJNX", "KJOT", "KJPX", "KJQF", "KJRO", "KJST", "KJSV", "KJSY", "KJTC", "KJVL", "KJVW", "KJVY", "KJWG", "KJWN", "KJWY", "KJXI", "KJXN", "KJYG", "KJYL", "KJYM", "KJYO", "KJYR", "KJZI", "KK62", "KK70", "KK88", "KKLS", "KKNB", "KKY8", "KL08", "KL18", "KL35", "KL52", "KLAA", "KLAF", "KLAL", "KLAM", "KLAN", "KLAR", "KLAS", "KLAW", "KLAX", "KLBB", "KLBE", "KLBF", "KLBL", "KLBO", "KLBT", "KLBX", "KLCG", "KLCH", "KLCI", "KLCK", "KLCQ", "KLDJ", "KLDM", "KLEB", "KLEE", "KLEW", "KLEX", "KLFI", "KLFK", "KLFT", "KLGA", "KLGB", "KLGC", "KLGD", "KLGF", "KLGU", "KLHB", "KLHM", "KLHQ", "KLHW", "KLHX", "KLHZ", "KLIC", "KLIT", "KLJF", "KLKR", "KLKU", "KLKV", "KLLJ", "KLLQ", "KLMO", "KLMT", "KLNA", "KLND", "KLNK", "KLNL", "KLNN", "KLNP", "KLNQ", "KLNR", "KLNS", "KLOL", "KLOM", "KLOR", "KLOT", "KLOU", "KLOZ", "KLPC", "KLPR", "KLQK", "KLRD", "KLRF", "KLRJ", "KLRO", "KLRU", "KLRY", "KLSE", "KLSF", "KLSV", "KLTS", "KLUA", "KLUD", "KLUF", "KLUG", "KLUK", "KLUL", "KLUM", "KLUV", "KLUX", "KLVJ", "KLVK", "KLVL", "KLVM", "KLVN", "KLVS", "KLWA", "KLWB", "KLWC", "KLWD", "KLWM", "KLWS", "KLWT", "KLWV", "KLXL", "KLXN", "KLXT", "KLXV", "KLYH", "KLYO", "KLYV", "KLZU", "KLZZ", "KM01", "KM02", "KM04", "KM08", "KM19", "KM21", "KM25", "KM30", "KM40", "KM54", "KM75", "KM91", "KMAE", "KMAF", "KMAI", "KMAN", "KMAO", "KMAW", "KMBG", "KMBL", "KMBO", "KMBS", "KMBT", "KMBY", "KMCB", "KMCC", "KMCD", "KMCE", "KMCF", "KMCI", "KMCJ", "KMCK", "KMCN", "KMCO", "KMCW", "KMDD", "KMDH", "KMDS", "KMDT", "KMDW", "KMDZ", "KMEB", "KMEH", "KMEI", "KMEM", "KMER", "KMEV", "KMEZ", "KMFD", "KMFE", "KMFI", "KMFR", "KMFV", "KMGC", "KMGE", "KMGG", "KMGJ", "KMGM", "KMGN", "KMGR", "KMGW", "KMGY", "KMHE", "KMHK", "KMHL", "KMHP", "KMHR", "KMHS", "KMHT", "KMHV", "KMIA", "KMIB", "KMIC", "KMIE", "KMIV", "KMIW", "KMJD", "KMJQ", "KMKC", "KMKE", "KMKG", "KMKJ", "KMKL", "KMKN", "KMKO", "KMKS", "KMKT", "KMKY", "KMLB", "KMLC", "KMLE", "KMLF", "KMLI", "KMLJ", "KMLP", "KMLS", "KMLT", "KMLU", "KMMH", "KMMI", "KMMK", "KMML", "KMMT", "KMMU", "KMNE", "KMNH", "KMNI", "KMNM", "KMNV", "KMNZ", "KMOB", "KMOD", "KMOP", "KMOR", "KMOT", "KMOX", "KMPO", "KMPR", "KMPV", "KMPZ", "KMQB", "KMQI", "KMQJ", "KMQS", "KMQW", "KMQY", "KMRB", "KMRC", "KMRF", "KMRH", "KMRJ", "KMRN", "KMRT", "KMRY", "KMSL", "KMSN", "KMSO", "KMSP", "KMSS", "KMSV", "KMSY", "KMTC", "KMTH", "KMTJ", "KMTK", "KMTN", "KMTO", "KMTP", "KMTV", "KMTW", "KMUI", "KMUO", "KMUT", "KMVE", "KMVH", "KMVL", "KMVN", "KMVY", "KMWA", "KMWC", "KMWH", "KMWK", "KMWL", "KMWM", "KMWN", "KMWO", "KMWT", "KMXF", "KMYF", "KMYJ", "KMYL", "KMYP", "KMYR", "KMYV", "KMYZ", "KMZH", "KMZJ", "KMZZ", "KN03", "KN38", "KN60", "KNAK", "KNBC", "KNBG", "KNBT", "KNCA", "KNDZ", "KNEL", "KNEW", "KNFE", "KNFG", "KNFL", "KNFW", "KNGP", "KNGU", "KNHK", "KNID", "KNIP", "KNJK", "KNJM", "KNJW", "KNKT", "KNKX", "KNLC", "KNMM", "KNOG", "KNOW", "KNOZ", "KNPA", "KNQA", "KNQI", "KNQX", "KNRB", "KNRN", "KNRS", "KNSE", "KNSI", "KNTD", "KNTU", "KNUC", "KNUI", "KNUQ", "KNUW", "KNXF", "KNXP", "KNY0", "KNYC", "KNYG", "KNYL", "KNZY", "KO05", "KO22", "KO32", "KO69", "KOAJ", "KOAK", "KOAR", "KOBE", "KOCF", "KOCH", "KOCQ", "KOCW", "KODO", "KODX", "KOEB", "KOEL", "KOEO", "KOFF", "KOFK", "KOFP", "KOGA", "KOGB", "KOGD", "KOGS", "KOIC", "KOIN", "KOJA", "KOJC", "KOKB", "KOKC", "KOKK", "KOKM", "KOKV", "KOKZ", "KOLE", "KOLF", "KOLG", "KOLM", "KOLU", "KOLV", "KOLY", "KOLZ", "KOMA", "KOMH", "KOMK", "KOMN", "KONA", "KONL", "KONM", "KONO", "KONP", "KONT", "KONX", "KONZ", "KOOA", "KOPF", "KOPL", "KOPN", "KOQN", "KOQT", "KORB", "KORD", "KORE", "KORF", "KORG", "KORH", "KORL", "KORS", "KOSA", "KOSC", "KOSH", "KOSU", "KOTG", "KOTH", "KOTM", "KOUN", "KOVE", "KOVL", "KOVS", "KOWA", "KOWB", "KOWD", "KOWP", "KOWX", "KOXB", "KOXC", "KOXD", "KOXI", "KOXR", "KOXV", "KOYM", "KOZA", "KOZR", "KOZS", "KOZW", "KP08", "KP28", "KP53", "KP58", "KP59", "KP60", "KP68", "KP69", "KP92", "KPAE", "KPAH", "KPAM", "KPAN", "KPAO", "KPBF", "KPBG", "KPBH", "KPBI", "KPBX", "KPCD", "KPCM", "KPCW", "KPCZ", "KPDC", "KPDK", "KPDT", "KPDX", "KPEA", "KPEO", "KPEQ", "KPEX", "KPEZ", "KPGD", "KPGV", "KPHD", "KPHF", "KPHL", "KPHN", "KPHP", "KPHT", "KPHX", "KPIA", "KPIB", "KPIE", "KPIH", "KPIL", "KPIM", "KPIR", "KPIT", "KPKB", "KPKD", "KPKV", "KPLN", "KPLR", "KPLU", "KPMD", "KPMH", "KPMP", "KPMU", "KPMV", "KPNA", "KPNC", "KPNE", "KPNM", "KPNS", "KPNT", "KPOB", "KPOC", "KPOE", "KPOF", "KPOU", "KPOV", "KPOY", "KPPA", "KPPF", "KPPO", "KPPQ", "KPQI", "KPQL", "KPRB", "KPRC", "KPRG", "KPRN", "KPRO", "KPRS", "KPRX", "KPSC", "KPSF", "KPSK", "KPSM", "KPSN", "KPSO", "KPSP", "KPSX", "KPTB", "KPTD", "KPTK", "KPTN", "KPTS", "KPTT", "KPTV", "KPTW", "KPUB", "KPUC", "KPUJ", "KPUW", "KPVB", "KPVC", "KPVD", "KPVF", "KPVG", "KPVJ", "KPVU", "KPVW", "KPWA", "KPWC", "KPWD", "KPWG", "KPWK", "KPWM", "KPWT", "KPXE", "KPYM", "KPYX", "KPZQ", "KPZZ", "KQAZ", "KQBL", "KQD3", "KQDG", "KQEI", "KQEJ", "KQEN", "KQEP", "KQEQ", "KQER", "KQEV", "KQEW", "KQEX", "KQEY", "KQFB", "KQFT", "KQFU", "KQFV", "KQFW", "KQFX", "KQHY", "KQN3", "KQRH", "KQTZ", "KQVF", "KRAC", "KRAL", "KRAP", "KRAS", "KRAW", "KRBD", "KRBG", "KRBL", "KRBO", "KRBW", "KRCA", "KRCE", "KRCM", "KRCR", "KRCV", "KRCX", "KRCZ", "KRDD", "KRDG", "KRDK", "KRDM", "KRDR", "KRDU", "KREG", "KREO", "KRFD", "KRFI", "KRGA", "KRGK", "KRHI", "KRHP", "KRHV", "KRIC", "KRIL", "KRIV", "KRIW", "KRKP", "KRKR", "KRKS", "KRKW", "KRLD", "KRME", "KRMG", "KRMN", "KRMY", "KRNC", "KRND", "KRNH", "KRNM", "KRNO", "KRNP", "KRNT", "KRNV", "KROA", "KROC", "KROG", "KROS", "KROW", "KROX", "KRPD", "KRPH", "KRPJ", "KRPX", "KRQB", "KRQE", "KRRL", "KRRT", "KRSL", "KRSN", "KRST", "KRSV", "KRSW", "KRTN", "KRTS", "KRUE", "KRUG", "KRUQ", "KRUT", "KRVF", "KRVJ", "KRVL", "KRVS", "KRWF", "KRWI", "KRWL", "KRWV", "KRXE", "KRYM", "KRYV", "KRYW", "KRYY", "KRZL", "KRZN", "KRZR", "KS21", "KS24", "KS25", "KS32", "KS33", "KS34", "KS39", "KS52", "KS71", "KS85", "KSAA", "KSAC", "KSAD", "KSAF", "KSAN", "KSAR", "KSAT", "KSAV", "KSAW", "KSAZ", "KSBA", "KSBD", "KSBM", "KSBN", "KSBO", "KSBP", "KSBS", "KSBY", "KSCD", "KSCK", "KSCR", "KSDA", "KSDB", "KSDC", "KSDF", "KSDL", "KSDM", "KSDY", "KSEA", "KSEE", "KSEG", "KSEM", "KSEP", "KSEQ", "KSET", "KSEZ", "KSFB", "KSFF", "KSFM", "KSFO", "KSFQ", "KSFY", "KSFZ", "KSGF", "KSGH", "KSGJ", "KSGR", "KSGS", "KSGT", "KSGU", "KSHD", "KSHL", "KSHN", "KSHR", "KSHV", "KSIF", "KSIK", "KSIY", "KSJC", "KSJS", "KSJT", "KSJX", "KSKA", "KSKF", "KSKX", "KSLB", "KSLC", "KSLE", "KSLG", "KSLH", "KSLI", "KSLK", "KSLN", "KSLR", "KSMD", "KSME", "KSMF", "KSMN", "KSMO", "KSMP", "KSMQ", "KSMS", "KSMX", "KSNA", "KSNC", "KSNH", "KSNK", "KSNL", "KSNS", "KSNT", "KSNY", "KSOA", "KSOP", "KSOW", "KSPA", "KSPB", "KSPD", "KSPF", "KSPG", "KSPI", "KSPS", "KSPW", "KSQI", "KSQL", "KSRB", "KSRC", "KSRE", "KSRQ", "KSRR", "KSSC", "KSSF", "KSSI", "KSTC", "KSTE", "KSTF", "KSTJ", "KSTK", "KSTL", "KSTP", "KSTS", "KSUA", "KSUE", "KSUN", "KSUS", "KSUT", "KSUU", "KSUW", "KSUX", "KSUZ", "KSVC", "KSVE", "KSVH", "KSVN", "KSWF", "KSWO", "KSWW", "KSXK", "KSXS", "KSXT", "KSXU", "KSYF", "KSYI", "KSYM", "KSYN", "KSYR", "KSZL", "KSZT", "KSZY", "KT20", "KT35", "KT41", "KT69", "KT70", "KT74", "KT78", "KT82", "KT89", "KTAD", "KTAN", "KTAZ", "KTBN", "KTBR", "KTBX", "KTCC", "KTCL", "KTCM", "KTCS", "KTCY", "KTDF", "KTDR", "KTDZ", "KTEB", "KTEW", "KTEX", "KTFP", "KTHA", "KTHM", "KTHV", "KTIF", "KTIK", "KTIP", "KTIW", "KTIX", "KTKC", "KTKI", "KTKV", "KTKX", "KTLH", "KTMB", "KTME", "KTMK", "KTMT", "KTNB", "KTNU", "KTOB", "KTOC", "KTOI", "KTOL", "KTOP", "KTOR", "KTPA", "KTPH", "KTPL", "KTQE", "KTQH", "KTQK", "KTQV", "KTRI", "KTRK", "KTRL", "KTRM", "KTSP", "KTTA", "KTTD", "KTTF", "KTTN", "KTTS", "KTUL", "KTUP", "KTUS", "KTVC", "KTVF", "KTVI", "KTVL", "KTVR", "KTVY", "KTWF", "KTWM", "KTWT", "KTXK", "KTXW", "KTYL", "KTYQ", "KTYR", "KTYS", "KTZR", "KU42", "KU55", "KU68", "KUAO", "KUBE", "KUCP", "KUCY", "KUDG", "KUES", "KUGN", "KUIL", "KUIN", "KUKF", "KUKI", "KUKL", "KUKT", "KULM", "KULS", "KUMP", "KUNI", "KUNO", "KUNU", "KUNV", "KUOX", "KUSE", "KUTA", "KUTS", "KUUU", "KUVA", "KUXL", "KUYF", "KUZA", "KVAD", "KVAF", "KVAY", "KVBG", "KVBT", "KVCB", "KVCT", "KVCV", "KVDF", "KVDI", "KVEL", "KVER", "KVES", "KVGC", "KVGT", "KVHN", "KVIH", "KVIS", "KVJI", "KVKS", "KVLD", "KVLL", "KVNW", "KVNY", "KVOA", "KVOK", "KVPC", "KVPS", "KVPZ", "KVQQ", "KVRB", "KVSF", "KVTA", "KVTI", "KVTN", "KVTP", "KVUJ", "KVUO", "KVVS", "KVVV", "KVWU", "KVYS", "KW13", "KW22", "KW29", "KW31", "KW43", "KW63", "KW75", "KW78", "KW81", "KW96", "KW99", "KWAL", "KWBF", "KWDG", "KWDR", "KWJF", "KWLD", "KWMC", "KWRB", "KWRI", "KWRL", "KWST", "KWVI", "KWVL", "KWWD", "KWWR", "KX07", "KX26", "KX60", "KXBP", "KXER", "KXIF", "KXLL", "KXMR", "KXNA", "KXNO", "KXNX", "KXSA", "KXVG", "KXWA", "KY19", "KY23", "KY31", "KY49", "KY50", "KY51", "KY63", "KY70", "KYIP", "KYKM", "KYKN", "KYNG", "KZER", "KZPH", "KZZV", "LATI", "LBBG", "LBGO", "LBIA", "LBPD", "LBPG", "LBPL", "LBSF", "LBWB", "LBWN", "LCEN", "LCLK", "LCPH", "LCRA", "LDDU", "LDOS", "LDPL", "LDRI", "LDSP", "LDZA", "LDZD", "LEAB", "LEAG", "LEAL", "LEAM", "LEAO", "LEAS", "LEBA", "LEBB", "LEBG", "LEBL", "LEBR", "LEBT", "LEBZ", "LECH", "LECO", "LECV", "LEDA", "LEEC", "LEGA", "LEGE", "LEGR", "LEGT", "LEHC", "LEIB", "LEJR", "LELC", "LELL", "LELN", "LELO", "LEMD", "LEMG", "LEMH", "LEMI", "LEMO", "LEPA", "LEPP", "LERI", "LERS", "LERT", "LESA", "LESB", "LESO", "LEST", "LESU", "LETL", "LETO", "LETU", "LEVC", "LEVD", "LEVS", "LEVT", "LEVX", "LEXJ", "LEZG", "LEZL", "LFAC", "LFAQ", "LFAT", "LFBA", "LFBC", "LFBD", "LFBE", "LFBF", "LFBG", "LFBH", "LFBI", "LFBL", "LFBM", "LFBO", "LFBT", "LFBU", "LFBX", "LFBY", "LFBZ", "LFCK", "LFCR", "LFGA", "LFGJ", "LFHP", "LFJL", "LFJR", "LFKB", "LFKC", "LFKF", "LFKJ", "LFKS", "LFLB", "LFLC", "LFLH", "LFLL", "LFLN", "LFLP", "LFLS", "LFLU", "LFLV", "LFLW", "LFLX", "LFLY", "LFMC", "LFMD", "LFMH", "LFMI", "LFMK", "LFML", "LFMN", "LFMO", "LFMP", "LFMT", "LFMU", "LFMV", "LFMY", "LFOA", "LFOB", "LFOE", "LFOH", "LFOJ", "LFOK", "LFOP", "LFOT", "LFOV", "LFOZ", "LFPB", "LFPG", "LFPM", "LFPN", "LFPO", "LFPT", "LFPV", "LFQA", "LFQB", "LFQG", "LFQQ", "LFRB", "LFRC", "LFRD", "LFRG", "LFRH", "LFRI", "LFRJ", "LFRK", "LFRL", "LFRM", "LFRN", "LFRO", "LFRQ", "LFRS", "LFRT", "LFRU", "LFRV", "LFRZ", "LFSB", "LFSD", "LFSG", "LFSI", "LFSL", "LFSM", "LFSN", "LFSO", "LFST", "LFSX", "LFTH", "LFTW", "LFVP", "LFYR", "LGAD", "LGAL", "LGAV", "LGBL", "LGEL", "LGHI", "LGIO", "LGIR", "LGKC", "LGKF", "LGKL", "LGKO", "LGKP", "LGKR", "LGKV", "LGKZ", "LGLM", "LGMK", "LGMT", "LGNX", "LGPA", "LGPZ", "LGRP", "LGRX", "LGSA", "LGSK", "LGSM", "LGSO", "LGSR", "LGTS", "LGZA", "LHBP", "LHDC", "LHKE", "LHPA", "LHPP", "LHPR", "LHSM", "LHSN", "LIBA", "LIBC", "LIBD", "LIBF", "LIBG", "LIBN", "LIBP", "LIBQ", "LIBR", "LIBV", "LIBY", "LICA", "LICB", "LICC", "LICD", "LICF", "LICG", "LICJ", "LICR", "LICT", "LICZ", "LIEA", "LIEB", "LIED", "LIEE", "LIEO", "LIMA", "LIMC", "LIME", "LIMF", "LIMG", "LIMH", "LIMJ", "LIMK", "LIML", "LIMN", "LIMP", "LIMS", "LIMU", "LIMV", "LIMW", "LIMY", "LIMZ", "LIPA", "LIPB", "LIPC", "LIPE", "LIPF", "LIPH", "LIPI", "LIPK", "LIPL", "LIPO", "LIPQ", "LIPR", "LIPS", "LIPX", "LIPY", "LIPZ", "LIQC", "LIQN", "LIQO", "LIQW", "LIRA", "LIRE", "LIRF", "LIRG", "LIRH", "LIRI", "LIRK", "LIRL", "LIRM", "LIRN", "LIRP", "LIRQ", "LIRS", "LIRT", "LIRU", "LIRV", "LIRX", "LIRZ", "LIVC", "LIVD", "LIVE", "LIVF", "LIVM", "LIVO", "LIVP", "LIVT", "LJCE", "LJLJ", "LJMB", "LJPZ", "LKCV", "LKKB", "LKKU", "LKKV", "LKLN", "LKMT", "LKNA", "LKPD", "LKPR", "LKTB", "LKVO", "LLBG", "LLER", "LLHA", "LLIB", "LMML", "LOAN", "LOAV", "LOWG", "LOWI", "LOWK", "LOWL", "LOWS", "LOWW", "LOXZ", "LPAR", "LPAZ", "LPBJ", "LPCS", "LPFL", "LPFR", "LPHR", "LPLA", "LPMA", "LPMR", "LPMT", "LPOV", "LPPD", "LPPR", "LPPS", "LPPT", "LPST", "LQBK", "LQMO", "LQSA", "LQTZ", "LRAR", "LRBC", "LRBM", "LRBO", "LRBS", "LRCK", "LRCL", "LRCT", "LRCV", "LRFT", "LRIA", "LROD", "LROP", "LRSB", "LRSM", "LRSV", "LRTC", "LRTM", "LRTR", "LRTZ", "LSGC", "LSGG", "LSGS", "LSMA", "LSMD", "LSME", "LSMM", "LSMP", "LSZA", "LSZB", "LSZC", "LSZG", "LSZH", "LSZL", "LSZR", "LSZS", "LTAC", "LTAE", "LTAF", "LTAG", "LTAI", "LTAJ", "LTAL", "LTAN", "LTAP", "LTAR", "LTAS", "LTAT", "LTAU", "LTAW", "LTAY", "LTAZ", "LTBA", "LTBD", "LTBF", "LTBH", "LTBJ", "LTBO", "LTBQ", "LTBR", "LTBS", "LTBU", "LTBY", "LTCA", "LTCB", "LTCC", "LTCD", "LTCE", "LTCF", "LTCG", "LTCI", "LTCJ", "LTCK", "LTCL", "LTCN", "LTCO", "LTCP", "LTCR", "LTCS", "LTCT", "LTCU", "LTCV", "LTCW", "LTDA", "LTFB", "LTFC", "LTFD", "LTFE", "LTFG", "LTFH", "LTFJ", "LTFK", "LTFM", "LTFO", "LUBM", "LUKK", "LWOH", "LWSK", "LXGB", "LYBE", "LYBT", "LYKV", "LYNI", "LYPG", "LYTV", "LYVR", "LZIB", "LZKZ", "LZPP", "LZTT", "LZZI", "MBGT", "MBPV", "MDAB", "MDBH", "MDCY", "MDJB", "MDLR", "MDPC", "MDPP", "MDSD", "MDST", "MGCB", "MGES", "MGGT", "MGHT", "MGMM", "MGMT", "MGPB", "MGQZ", "MGRT", "MGSJ", "MGZA", "MHCA", "MHCH", "MHGS", "MHLC", "MHLE", "MHLM", "MHNO", "MHPL", "MHPR", "MHRO", "MHSR", "MHTE", "MHTG", "MHTR", "MHYR", "MKJP", "MKJS", "MMAA", "MMAN", "MMAS", "MMBT", "MMCB", "MMCE", "MMCL", "MMCM", "MMCN", "MMCP", "MMCS", "MMCT", "MMCU", "MMCV", "MMCZ", "MMDO", "MMEP", "MMGL", "MMHO", "MMIA", "MMIO", "MMLM", "MMLO", "MMLP", "MMLT", "MMMA", "MMMD", "MMMM", "MMMT", "MMMV", "MMMX", "MMMY", "MMMZ", "MMNL", "MMOX", "MMPA", "MMPB", "MMPG", "MMPN", "MMPQ", "MMPR", "MMPS", "MMRX", "MMSD", "MMSL", "MMSM", "MMSP", "MMTC", "MMTG", "MMTJ", "MMTM", "MMTO", "MMTP", "MMUN", "MMVA", "MMVR", "MMZC", "MMZH", "MMZO", "MNBL", "MNCH", "MNJG", "MNJU", "MNMG", "MNPC", "MNRS", "MPBO", "MPDA", "MPMG", "MPPA", "MPSM", "MPTO", "MRLB", "MRLM", "MROC", "MRPV", "MSLP", "MSLU", "MSSA", "MTPP", "MUCC", "MUCF", "MUCL", "MUCM", "MUCU", "MUGM", "MUHA", "MUHG", "MUSC", "MUVR", "MWCB", "MWCR", "MYGF", "MYNN", "MZBZ", "NCAI", "NCRG", "NFFN", "NFNA", "NFTF", "NFTV", "NGFU", "NGTA", "NIUE", "NLWW", "NSFA", "NSTU", "NTAA", "NWWW", "NZAA", "NZCH", "NZCM", "NZSP", "NZWN", "OBBI", "OEAB", "OEAH", "OEAO", "OEBA", "OEBH", "OEDF", "OEDM", "OEDR", "OEGN", "OEGS", "OEGT", "OEHL", "OEJB", "OEJN", "OEKJ", "OEKM", "OEMA", "OEMN", "OENG", "OEPA", "OEPS", "OERF", "OERK", "OERR", "OESH", "OESK", "OETB", "OETF", "OETR", "OEWD", "OEWJ", "OEYN", "OIAA", "OIAG", "OIAH", "OIAM", "OIAW", "OIBA", "OIBB", "OIBH", "OIBJ", "OIBK", "OIBL", "OIBP", "OIBQ", "OIBS", "OIBV", "OICC", "OICI", "OICK", "OICM", "OICS", "OIFM", "OIFS", "OIGG", "OIHH", "OIIE", "OIII", "OIIK", "OIIP", "OIKB", "OIKK", "OIKQ", "OIMB", "OIMD", "OIMJ", "OIMM", "OIMN", "OIMQ", "OIMS", "OIMT", "OINE", "OING", "OINN", "OINR", "OINZ", "OISF", "OISL", "OISR", "OISS", "OISY", "OITK", "OITL", "OITM", "OITP", "OITR", "OITT", "OITZ", "OIYY", "OIZB", "OIZC", "OIZH", "OIZI", "OIZJ", "OJAI", "OJAM", "OJAQ", "OKAS", "OKBK", "OLBA", "OMAA", "OMAD", "OMAL", "OMDB", "OMDW", "OMFJ", "OMRK", "OMSJ", "OOAD", "OODQ", "OOKB", "OOMS", "OOSA", "OOSH", "OPFA", "OPIS", "OPKC", "OPLA", "OPMT", "OPPS", "OPSK", "OPST", "ORBI", "ORER", "ORMM", "ORNI", "ORSU", "OSDI", "OSLK", "OTBD", "OTBH", "OTHH", "PAAD", "PAAK", "PAAQ", "PABA", "PABE", "PABL", "PABR", "PABT", "PABV", "PACD", "PACV", "PACZ", "PADK", "PADL", "PADM", "PADQ", "PADU", "PAED", "PAEG", "PAEH", "PAEI", "PAEN", "PAFA", "PAFB", "PAFE", "PAFM", "PAFR", "PAFS", "PAGA", "PAGK", "PAGL", "PAGN", "PAGS", "PAGY", "PAHL", "PAHN", "PAHO", "PAHX", "PAHY", "PAIG", "PAIK", "PAIL", "PAIM", "PAIN", "PAIW", "PAJC", "PAJN", "PAJZ", "PAKF", "PAKH", "PAKI", "PAKK", "PAKN", "PAKP", "PAKT", "PAKU", "PAKV", "PAKW", "PAKX", "PALG", "PALH", "PALP", "PALU", "PAMB", "PAMD", "PAMH", "PAMK", "PAMR", "PANA", "PANC", "PANI", "PANN", "PANV", "PANW", "PAOH", "PAOM", "PAOO", "PAOR", "PAOT", "PAOU", "PAPB", "PAPG", "PAPH", "PAPM", "PAPO", "PAQH", "PAQT", "PARC", "PARS", "PART", "PARY", "PASA", "PASC", "PASD", "PASH", "PASI", "PASK", "PASM", "PASN", "PASO", "PASV", "PASX", "PASY", "PATA", "PATC", "PATE", "PATK", "PATL", "PATO", "PATQ", "PAUN", "PAUT", "PAVA", "PAVC", "PAVD", "PAWD", "PAWG", "PAWI", "PAWM", "PAWN", "PAWS", "PAYA", "PAZK", "PFCL", "PFEL", "PFKT", "PFKW", "PFNO", "PFSH", "PFWS", "PFYU", "PGSN", "PGUA", "PGUM", "PHBK", "PHHI", "PHJR", "PHKO", "PHLI", "PHMK", "PHNG", "PHNL", "PHNY", "PHOG", "PHSF", "PHTO", "PKMR", "PKWA", "PLCH", "PMDY", "PPIZ", "PTKK", "PTRO", "PTTP", "PTYA", "PWAK", "RCFN", "RCKH", "RCMQ", "RCNN", "RCSS", "RCTP", "RJAA", "RJAH", "RJBB", "RJBE", "RJCC", "RJDB", "RJFF", "RJFO", "RJFR", "RJFS", "RJGG", "RJKA", "RJKI", "RJNK", "RJOA", "RJOH", "RJOI", "RJOO", "RJOS", "RJSM", "RJTT", "RJTY", "RKJB", "RKJK", "RKNY", "RKPC", "RKPK", "RKSG", "RKSI", "RKSM", "RKSO", "RKSS", "RKTN", "RKTU", "ROAH", "RODN", "ROIG", "ROMD", "RORK", "RORY", "ROTM", "ROYN", "RPLB", "RPLC", "RPLL", "RPMD", "RPVM", "SAAR", "SABE", "SACO", "SADF", "SAEZ", "SAME", "SANT", "SAOC", "SARC", "SARE", "SARF", "SARI", "SARL", "SARP", "SASA", "SASJ", "SAVC", "SAWC", "SAWE", "SAWG", "SAWH", "SAZM", "SAZN", "SAZS", "SBAF", "SBAN", "SBAR", "SBAT", "SBAX", "SBBE", "SBBG", "SBBH", "SBBI", "SBBQ", "SBBR", "SBBU", "SBBV", "SBBW", "SBCA", "SBCB", "SBCC", "SBCF", "SBCG", "SBCH", "SBCJ", "SBCO", "SBCP", "SBCR", "SBCT", "SBCX", "SBCY", "SBCZ", "SBDN", "SBEG", "SBES", "SBFI", "SBFL", "SBFN", "SBFS", "SBFZ", "SBGL", "SBGM", "SBGO", "SBGR", "SBGW", "SBHT", "SBIH", "SBIL", "SBIP", "SBIZ", "SBJP", "SBJR", "SBJU", "SBJV", "SBKG", "SBKP", "SBLB", "SBLO", "SBLS", "SBMA", "SBME", "SBMG", "SBMK", "SBML", "SBMN", "SBMO", "SBMQ", "SBMS", "SBMT", "SBNF", "SBNM", "SBNT", "SBOI", "SBPA", "SBPB", "SBPF", "SBPG", "SBPJ", "SBPK", "SBPL", "SBPP", "SBPR", "SBPS", "SBPV", "SBRB", "SBRF", "SBRJ", "SBRP", "SBSC", "SBSG", "SBSJ", "SBSL", "SBSM", "SBSN", "SBSP", "SBSR", "SBST", "SBSV", "SBTA", "SBTE", "SBTF", "SBTT", "SBTU", "SBUA", "SBUF", "SBUL", "SBUR", "SBUY", "SBVH", "SBVT", "SBYS", "SCAP", "SCAR", "SCAT", "SCCF", "SCCH", "SCCI", "SCCY", "SCDA", "SCEL", "SCFA", "SCGE", "SCGZ", "SCIC", "SCIE", "SCIR", "SCJO", "SCMK", "SCNT", "SCON", "SCPD", "SCPQ", "SCQP", "SCRD", "SCRG", "SCRM", "SCSE", "SCSN", "SCTB", "SCTE", "SCTN", "SCVD", "SCVM", "SEAM", "SECA", "SECO", "SECU", "SEGS", "SEGU", "SEGZ", "SEJD", "SELT", "SEMC", "SEMT", "SENL", "SEQM", "SERB", "SERO", "SESA", "SESM", "SEST", "SETN", "SETU", "SFAL", "SGAS", "SGCO", "SGEN", "SGES", "SKAR", "SKBG", "SKBO", "SKBQ", "SKCC", "SKCG", "SKCL", "SKEJ", "SKIB", "SKIP", "SKLC", "SKLT", "SKMD", "SKMR", "SKMZ", "SKNV", "SKPC", "SKPE", "SKPS", "SKPV", "SKRG", "SKRH", "SKSM", "SKSP", "SKUC", "SKUI", "SKVP", "SKVV", "SLAL", "SLCA", "SLCB", "SLCO", "SLCP", "SLET", "SLJO", "SLLP", "SLMG", "SLPO", "SLPS", "SLRB", "SLRI", "SLRQ", "SLRY", "SLSA", "SLSV", "SLTJ", "SLTR", "SLVM", "SLVR", "SLYA", "SMJP", "SMZO", "SOCA", "SPCL", "SPEO", "SPGM", "SPHI", "SPHO", "SPHY", "SPJC", "SPJI", "SPJL", "SPJR", "SPLO", "SPMS", "SPNC", "SPPY", "SPQT", "SPQU", "SPRU", "SPSO", "SPST", "SPTN", "SPTU", "SPYL", "SPZO", "SUAA", "SUCA", "SUDU", "SULS", "SUMU", "SUSO", "SVBC", "SVBI", "SVBM", "SVBS", "SVCB", "SVCJ", "SVCS", "SVFM", "SVGD", "SVGU", "SVJM", "SVLO", "SVMC", "SVMG", "SVMI", "SVMT", "SVPA", "SVPR", "SVSR", "SVVA", "SVVG", "SYCJ", "SYEC", "TAPA", "TBPB", "TDCF", "TDPD", "TFFF", "TFFR", "TGPY", "TIST", "TISX", "TJBQ", "TJIG", "TJNR", "TJSJ", "TKPK", "TKPN", "TLPC", "TLPL", "TNCA", "TNCB", "TNCC", "TNCE", "TNCM", "TQPF", "TRPG", "TTCP", "TTPP", "TUPJ", "TVSA", "TXKF", "UAAA", "UAAT", "UACC", "UACK", "UADD", "UAII", "UAIT", "UAKD", "UAKK", "UAOO", "UARR", "UASK", "UASP", "UATE", "UATG", "UATT", "UAUU", "UBBB", "UBBF", "UBBG", "UBBL", "UBBN", "UBBQ", "UBBY", "UBBZ", "UBEE", "UCFL", "UCFM", "UCFO", "UDSG", "UDYZ", "UEEE", "UERP", "UERR", "UGAM", "UGKO", "UGMS", "UGSB", "UGTB", "UHBB", "UHHH", "UHMA", "UHMM", "UHPP", "UHSS", "UHWW", "UIAA", "UIBB", "UIII", "UIUU", "ULAA", "ULLI", "ULMM", "ULOO", "ULPB", "ULWC", "UMBB", "UMGG", "UMII", "UMIO", "UMKK", "UMMG", "UMMS", "UMOO", "UNAA", "UNBB", "UNEE", "UNKL", "UNNT", "UNOO", "UNTT", "UNWW", "UOOO", "URKA", "URKK", "URMG", "URML", "URMM", "URMN", "URMO", "URMT", "URRP", "URSS", "URWA", "URWI", "URWW", "USCC", "USCM", "USDA", "USHH", "USNN", "USPP", "USRR", "USSS", "USTR", "UTAA", "UTAK", "UTAM", "UTAT", "UTAV", "UTDD", "UTDK", "UTDL", "UTDT", "UTFF", "UTFN", "UTNN", "UTNU", "UTO8", "UTSA", "UTSB", "UTSK", "UTSS", "UTST", "UTTT", "UUBC", "UUBP", "UUBW", "UUDD", "UUDL", "UUEE", "UUMO", "UUOB", "UUOK", "UUOL", "UUOO", "UUWW", "UUYY", "UWGG", "UWKD", "UWKE", "UWKS", "UWLL", "UWLW", "UWOO", "UWOR", "UWPS", "UWSG", "UWUU", "UWWW", "VAAH", "VAAU", "VABB", "VABO", "VABP", "VAID", "VAJB", "VANP", "VAOZ", "VARK", "VASU", "VAUD", "VCBI", "VCRI", "VDPP", "VDSR", "VDSV", "VEAT", "VEBN", "VEBS", "VECC", "VEGT", "VEGY", "VEJH", "VEKI", "VELR", "VEPT", "VERC", "VERP", "VGEG", "VGHS", "VHHH", "VIAR", "VIDP", "VIJP", "VILK", "VLVT", "VMMC", "VNKT", "VOBG", "VOBL", "VOBM", "VOBZ", "VOCB", "VOCI", "VOCL", "VOHB", "VOHS", "VOHY", "VOKN", "VOMD", "VOML", "VOMM", "VOMY", "VOPB", "VORY", "VOTP", "VOTR", "VOTV", "VOVZ", "VRMG", "VRMH", "VRMM", "VTBD", "VTBS", "VTBU", "VTCC", "VTCL", "VTCN", "VTCT", "VTPP", "VTSB", "VTSF", "VTSG", "VTSM", "VTSP", "VTSS", "VTST", "VTUD", "VTUI", "VTUK", "VTUO", "VTUQ", "VTUU", "VTUV", "VTUW", "VVCI", "VVCR", "VVCT", "VVDN", "VVNB", "VVPB", "VVPQ", "VVTS", "VYYY", "WAAA", "WABB", "WADD", "WADL", "WAHS", "WAJJ", "WALL", "WAMM", "WAOO", "WAPP", "WAQQ", "WARR", "WBGB", "WBGG", "WBGR", "WBGS", "WBGY", "WBKK", "WBKL", "WBKS", "WBKT", "WBKW", "WBSB", "WIBB", "WIDD", "WIEE", "WIII", "WIMM", "WIOO", "WIPP", "WMAU", "WMBA", "WMKA", "WMKB", "WMKC", "WMKD", "WMKE", "WMKI", "WMKJ", "WMKK", "WMKL", "WMKM", "WMKN", "WMKP", "WMSA", "WSAP", "WSSL", "WSSS", "YAMB", "YBAS", "YBBN", "YBCG", "YBCS", "YBCV", "YBHM", "YBLN", "YBMA", "YBRK", "YBRM", "YBTL", "YBUD", "YBWW", "YCBA", "YCBB", "YCCY", "YCDU", "YCFS", "YCIN", "YCOM", "YEML", "YESP", "YFRT", "YGEL", "YGLA", "YHID", "YMAV", "YMAY", "YMDG", "YMER", "YMHB", "YMIA", "YMLT", "YMML", "YNAR", "YNBR", "YPAD", "YPCC", "YPDN", "YPEA", "YPGV", "YPJT", "YPKG", "YPKU", "YPLM", "YPPD", "YPPH", "YPTN", "YPWR", "YPXM", "YSCB", "YSDU", "YSNF", "YSRI", "YSSY", "YSTW", "YSWG", "YWGT", "YWLM", "ZBAA", "ZBAD", "ZBHH", "ZBSJ", "ZBTJ", "ZBYN", "ZGGG", "ZGHA", "ZGKL", "ZGNN", "ZGOW", "ZGSZ", "ZHCC", "ZHHH", "ZJHK", "ZJSY", "ZLLL", "ZLXY", "ZMCK", "ZMUB", "ZPPP", "ZSAM", "ZSFZ", "ZSHC", "ZSNB", "ZSNJ", "ZSOF", "ZSPD", "ZSQD", "ZSSS", "ZUCK", "ZUGY", "ZUTF", "ZUUU", "ZWSH", "ZWWW", "ZYCC", "ZYHB", "ZYTL", "ZYTX"], "observation_time": ["2022-10-31T14:00:00Z", "2022-10-31T13:00:00Z", "2022-10-31T13:00:00Z", "2022-10-31T13:50:00Z", "2022-10-31T13:50:00Z", "2022-10-31T13:50:00Z", "2022-10-31T13:50:00Z", "2022-10-31T13:50:00Z", "2022-10-31T13:55:00Z", "2022-10-31T13:00:00Z", "2022-10-31T13:00:00Z", "2022-10-31T13:00:00Z", "2022-10-31T14:00:00Z", "2022-10-31T14:00:00Z", "2022-10-31T14:00:00Z", "2022-10-31T13:30:00Z", "2022-10-31T13:00:00Z", "2022-10-31T14:00:00Z", "2022-10-31T14:00:00Z", "2022-10-31T13:00:00Z", "2022-10-31T13:00:00Z", "2022-10-31T13:06:00Z", "2022-10-31T13:00:00Z", "2022-10-31T13:46:00Z", "2022-10-31T13:00:00Z", "2022-10-31T13:00:00Z", "2022-10-31T13:00:00Z", "2022-10-31T13:00:00Z", "2022-10-31T13:00:00Z", "2022-10-31T13:39:00Z", "2022-10-31T13:00:00Z", "2022-10-31T13:00:00Z", "2022-10-31T13:00:00Z", "2022-10-31T13:00:00Z", "2022-10-31T13:00:00Z", "2022-10-31T13:00:00Z", "2022-10-31T13:00:00Z", "2022-10-31T13:00:00Z", "2022-10-31T13:00:00Z", "2022-10-31T13:00:00Z", "2022-10-31T13:00:00Z", "2022-10-31T13:00:00Z", "2022-10-31T13:00:00Z", "2022-10-31T13:00:00Z", "2022-10-31T13:00:00Z", "2022-10-31T13:00:00Z", "2022-10-31T13:00:00Z", "2022-10-31T13:00:00Z", "2022-10-31T13:00:00Z", "2022-10-31T13:00:00Z", "2022-10-31T13:00:00Z", "2022-10-31T13:00:00Z", "2022-10-31T13:00:00Z", "2022-10-31T13:00:00Z", "2022-10-31T13:00:00Z", "2022-10-31T13:00:00Z", "2022-10-31T13:00:00Z", "2022-10-31T13:00:00Z", "2022-10-31T13:00:00Z", "2022-10-31T13:00:00Z", "2022-10-31T13:00:00Z", "2022-10-31T13:00:00Z", "2022-10-31T13:00:00Z", "2022-10-31T13:00:00Z", "2022-10-31T13:00:00Z", "2022-10-31T13:00:00Z", "2022-10-31T13:00:00Z", "2022-10-31T13:00:00Z", "2022-10-31T13:00:00Z", "2022-10-31T13:00:00Z", "2022-10-31T13:00:00Z", "2022-10-31T13:00:00Z", "2022-10-31T13:00:00Z", "2022-10-31T13:00:00Z", "2022-10-31T13:00:00Z", "2022-10-31T13:00:00Z", "2022-10-31T13:00:00Z", "2022-10-31T13:00:00Z", "2022-10-31T13:00:00Z", "2022-10-31T13:00:00Z", "2022-10-31T13:00:00Z", "2022-10-31T13:00:00Z", "2022-10-31T13:00:00Z", "2022-10-31T13:00:00Z", "2022-10-31T13:00:00Z", "2022-10-31T13:00:00Z", "2022-10-31T13:00:00Z", "2022-10-31T13:00:00Z", "2022-10-31T13:00:00Z", "2022-10-31T13:00:00Z", "2022-10-31T13:00:00Z", "2022-10-31T13:00:00Z", "2022-10-31T13:00:00Z", "2022-10-31T13:00:00Z", "2022-10-31T13:00:00Z", "2022-10-31T13:00:00Z", "2022-10-31T13:00:00Z", "2022-10-31T13:00:00Z", "2022-10-31T13:00:00Z", "2022-10-31T13:00:00Z", "2022-10-31T13:00:00Z", "2022-10-31T13:00:00Z", "2022-10-31T13:00:00Z", "2022-10-31T13:00:00Z", "2022-10-31T13:00:00Z", "2022-10-31T13:00:00Z", "2022-10-31T13:00:00Z", "2022-10-31T13:00:00Z", "2022-10-31T13:00:00Z", "2022-10-31T13:00:00Z", "2022-10-31T13:00:00Z", "2022-10-31T13:00:00Z", "2022-10-31T13:00:00Z", "2022-10-31T13:00:00Z", "2022-10-31T13:00:00Z", "2022-10-31T13:00:00Z", "2022-10-31T13:00:00Z", "2022-10-31T13:00:00Z", "2022-10-31T13:00:00Z", "2022-10-31T13:00:00Z", "2022-10-31T13:00:00Z", "2022-10-31T13:00:00Z", "2022-10-31T13:00:00Z", "2022-10-31T13:00:00Z", "2022-10-31T13:00:00Z", "2022-10-31T13:00:00Z", "2022-10-31T13:00:00Z", "2022-10-31T13:00:00Z", "2022-10-31T13:00:00Z", "2022-10-31T13:00:00Z", "2022-10-31T13:00:00Z", "2022-10-31T13:00:00Z", "2022-10-31T13:00:00Z", "2022-10-31T13:00:00Z", "2022-10-31T13:00:00Z", "2022-10-31T13:00:00Z", "2022-10-31T13:00:00Z", "2022-10-31T13:00:00Z", "2022-10-31T13:00:00Z", "2022-10-31T13:00:00Z", "2022-10-31T13:00:00Z", "2022-10-31T13:00:00Z", "2022-10-31T13:00:00Z", "2022-10-31T13:00:00Z", "2022-10-31T13:00:00Z", "2022-10-31T13:00:00Z", "2022-10-31T13:00:00Z", "2022-10-31T13:00:00Z", "2022-10-31T13:00:00Z", "2022-10-31T13:00:00Z", "2022-10-31T13:00:00Z", "2022-10-31T13:00:00Z", "2022-10-31T13:00:00Z", "2022-10-31T13:00:00Z", "2022-10-31T13:22:00Z", "2022-10-31T13:00:00Z", "2022-10-31T13:00:00Z", "2022-10-31T13:00:00Z", "2022-10-31T13:00:00Z", "2022-10-31T13:00:00Z", "2022-10-31T13:00:00Z", "2022-10-31T13:00:00Z", "2022-10-31T13:45:00Z", "2022-10-31T13:00:00Z", "2022-10-31T13:00:00Z", "2022-10-31T13:00:00Z", "2022-10-31T13:11:00Z", "2022-10-31T13:00:00Z", "2022-10-31T13:00:00Z", "2022-10-31T13:00:00Z", "2022-10-31T13:00:00Z", "2022-10-31T13:00:00Z", "2022-10-31T13:00:00Z", "2022-10-31T13:00:00Z", "2022-10-31T13:00:00Z", "2022-10-31T13:00:00Z", "2022-10-31T13:35:00Z", "2022-10-31T13:00:00Z", "2022-10-31T13:00:00Z", "2022-10-31T13:00:00Z", "2022-10-31T13:00:00Z", "2022-10-31T13:00:00Z", "2022-10-31T13:00:00Z", "2022-10-31T13:00:00Z", "2022-10-31T13:00:00Z", "2022-10-31T13:00:00Z", "2022-10-31T13:00:00Z", "2022-10-31T13:00:00Z", "2022-10-31T13:00:00Z", "2022-10-31T13:00:00Z", "2022-10-31T13:00:00Z", "2022-10-31T13:00:00Z", "2022-10-31T13:00:00Z", "2022-10-31T13:00:00Z", "2022-10-31T13:00:00Z", "2022-10-31T13:00:00Z", "2022-10-31T13:00:00Z", "2022-10-31T13:00:00Z", "2022-10-31T13:00:00Z", "2022-10-31T13:00:00Z", "2022-10-31T13:00:00Z", "2022-10-31T13:00:00Z", "2022-10-31T13:00:00Z", "2022-10-31T13:00:00Z", "2022-10-31T13:00:00Z", "2022-10-31T13:00:00Z", "2022-10-31T13:22:00Z", "2022-10-31T13:00:00Z", "2022-10-31T13:00:00Z", "2022-10-31T13:00:00Z", "2022-10-31T13:00:00Z", "2022-10-31T13:00:00Z", "2022-10-31T13:00:00Z", "2022-10-31T13:00:00Z", "2022-10-31T13:00:00Z", "2022-10-31T13:00:00Z", "2022-10-31T13:00:00Z", "2022-10-31T13:00:00Z", "2022-10-31T13:00:00Z", "2022-10-31T13:00:00Z", "2022-10-31T13:00:00Z", "2022-10-31T13:00:00Z", "2022-10-31T13:00:00Z", "2022-10-31T13:00:00Z", "2022-10-31T13:00:00Z", "2022-10-31T13:00:00Z", "2022-10-31T13:00:00Z", "2022-10-31T13:00:00Z", "2022-10-31T13:00:00Z", "2022-10-31T13:00:00Z", "2022-10-31T13:00:00Z", "2022-10-31T13:00:00Z", "2022-10-31T13:00:00Z", "2022-10-31T13:00:00Z", "2022-10-31T13:00:00Z", "2022-10-31T13:00:00Z", "2022-10-31T13:00:00Z", "2022-10-31T13:00:00Z", "2022-10-31T13:00:00Z", "2022-10-31T13:00:00Z", "2022-10-31T13:00:00Z", "2022-10-31T13:00:00Z", "2022-10-31T13:00:00Z", "2022-10-31T13:00:00Z", "2022-10-31T13:00:00Z", "2022-10-31T13:00:00Z", "2022-10-31T13:00:00Z", "2022-10-31T13:00:00Z", "2022-10-31T13:00:00Z", "2022-10-31T13:00:00Z", "2022-10-31T13:00:00Z", "2022-10-31T13:00:00Z", "2022-10-31T13:00:00Z", "2022-10-31T13:00:00Z", "2022-10-31T13:00:00Z", "2022-10-31T13:00:00Z", "2022-10-31T13:00:00Z", "2022-10-31T13:00:00Z", "2022-10-31T13:00:00Z", "2022-10-31T13:00:00Z", "2022-10-31T13:00:00Z", "2022-10-31T13:00:00Z", "2022-10-31T13:00:00Z", "2022-10-31T13:00:00Z", "2022-10-31T13:00:00Z", "2022-10-31T13:00:00Z", "2022-10-31T13:00:00Z", "2022-10-31T13:00:00Z", "2022-10-31T13:00:00Z", "2022-10-31T13:00:00Z", "2022-10-31T13:00:00Z", "2022-10-31T13:00:00Z", "2022-10-31T13:00:00Z", "2022-10-31T13:00:00Z", "2022-10-31T13:00:00Z", "2022-10-31T13:00:00Z", "2022-10-31T13:00:00Z", "2022-10-31T13:00:00Z", "2022-10-31T13:00:00Z", "2022-10-31T13:00:00Z", "2022-10-31T13:00:00Z", "2022-10-31T13:00:00Z", "2022-10-31T13:00:00Z", "2022-10-31T13:00:00Z", "2022-10-31T13:00:00Z", "2022-10-31T13:00:00Z", "2022-10-31T13:00:00Z", "2022-10-31T13:00:00Z", "2022-10-31T13:00:00Z", "2022-10-31T13:00:00Z", "2022-10-31T13:00:00Z", "2022-10-31T13:00:00Z", "2022-10-31T13:00:00Z", "2022-10-31T13:00:00Z", "2022-10-31T13:00:00Z", "2022-10-31T13:00:00Z", "2022-10-31T13:00:00Z", "2022-10-31T13:00:00Z", "2022-10-31T13:00:00Z", "2022-10-31T13:00:00Z", "2022-10-31T13:00:00Z", "2022-10-31T13:00:00Z", "2022-10-31T13:00:00Z", "2022-10-31T13:00:00Z", "2022-10-31T13:00:00Z", "2022-10-31T13:00:00Z", "2022-10-31T13:00:00Z", "2022-10-31T13:00:00Z", "2022-10-31T13:00:00Z", "2022-10-31T13:00:00Z", "2022-10-31T13:00:00Z", "2022-10-31T13:00:00Z", "2022-10-31T13:00:00Z", "2022-10-31T13:00:00Z", "2022-10-31T13:35:00Z", "2022-10-31T13:00:00Z", "2022-10-31T13:00:00Z", "2022-10-31T13:00:00Z", "2022-10-31T13:00:00Z", "2022-10-31T13:20:00Z", "2022-10-31T13:00:00Z", "2022-10-31T13:00:00Z", "2022-10-31T13:00:00Z", "2022-10-31T13:00:00Z", "2022-10-31T13:00:00Z", "2022-10-31T13:00:00Z", "2022-10-31T13:30:00Z", "2022-10-31T13:00:00Z", "2022-10-31T13:00:00Z", "2022-10-31T13:00:00Z", "2022-10-31T13:56:00Z", "2022-10-31T13:00:00Z", "2022-10-31T13:56:00Z", "2022-10-31T13:34:00Z", "2022-10-31T13:00:00Z", "2022-10-31T13:00:00Z", "2022-10-31T13:04:00Z", "2022-10-31T13:49:00Z", "2022-10-31T13:00:00Z", "2022-10-31T13:00:00Z", "2022-10-31T13:49:00Z", "2022-10-31T13:00:00Z", "2022-10-31T13:42:00Z", "2022-10-31T13:54:00Z", "2022-10-31T13:00:00Z", "2022-10-31T13:00:00Z", "2022-10-31T13:00:00Z", "2022-10-31T13:00:00Z", "2022-10-31T13:00:00Z", "2022-10-31T13:00:00Z", "2022-10-31T13:00:00Z", "2022-10-31T13:00:00Z", "2022-10-31T13:00:00Z", "2022-10-31T13:00:00Z", "2022-10-31T13:00:00Z", "2022-10-31T13:00:00Z", "2022-10-31T13:00:00Z", "2022-10-31T13:00:00Z", "2022-10-31T13:00:00Z", "2022-10-31T13:00:00Z", "2022-10-31T13:50:00Z", "2022-10-31T13:00:00Z", "2022-10-31T13:00:00Z", "2022-10-31T13:00:00Z", "2022-10-31T13:00:00Z", "2022-10-31T13:00:00Z", "2022-10-31T13:00:00Z", "2022-10-31T13:00:00Z", "2022-10-31T13:00:00Z", "2022-10-31T13:00:00Z", "2022-10-31T13:00:00Z", "2022-10-31T13:00:00Z", "2022-10-31T13:00:00Z", "2022-10-31T13:00:00Z", "2022-10-31T13:00:00Z", "2022-10-31T13:00:00Z", "2022-10-31T13:25:00Z", "2022-10-31T13:00:00Z", "2022-10-31T13:48:00Z", "2022-10-31T13:00:00Z", "2022-10-31T13:00:00Z", "2022-10-31T13:00:00Z", "2022-10-31T13:44:00Z", "2022-10-31T13:00:00Z", "2022-10-31T13:00:00Z", "2022-10-31T13:00:00Z", "2022-10-31T13:53:00Z", "2022-10-31T13:00:00Z", "2022-10-31T13:43:00Z", "2022-10-31T13:00:00Z", "2022-10-31T13:00:00Z", "2022-10-31T13:00:00Z", "2022-10-31T13:00:00Z", "2022-10-31T13:00:00Z", "2022-10-31T13:00:00Z", "2022-10-31T13:00:00Z", "2022-10-31T13:00:00Z", "2022-10-31T13:00:00Z", "2022-10-31T13:00:00Z", "2022-10-31T13:00:00Z", "2022-10-31T13:40:00Z", "2022-10-31T13:00:00Z", "2022-10-31T13:00:00Z", "2022-10-31T13:48:00Z", "2022-10-31T13:00:00Z", "2022-10-31T13:00:00Z", "2022-10-31T13:00:00Z", "2022-10-31T13:00:00Z", "2022-10-31T13:00:00Z", "2022-10-31T13:00:00Z", "2022-10-31T13:00:00Z", "2022-10-31T13:00:00Z", "2022-10-31T13:00:00Z", "2022-10-31T13:00:00Z", "2022-10-31T13:00:00Z", "2022-10-31T13:04:00Z", "2022-10-31T13:59:00Z", "2022-10-31T13:00:00Z", "2022-10-31T13:00:00Z", "2022-10-31T13:00:00Z", "2022-10-31T13:00:00Z", "2022-10-31T13:00:00Z", "2022-10-31T13:00:00Z", "2022-10-31T13:00:00Z", "2022-10-31T13:00:00Z", "2022-10-31T13:00:00Z", "2022-10-31T13:00:00Z", "2022-10-31T13:07:00Z", "2022-10-31T13:54:00Z", "2022-10-31T13:53:00Z", "2022-10-31T13:00:00Z", "2022-10-31T13:50:00Z", "2022-10-31T13:00:00Z", "2022-10-31T13:00:00Z", "2022-10-31T13:00:00Z", "2022-10-31T13:52:00Z", "2022-10-31T13:43:00Z", "2022-10-31T13:00:00Z", "2022-10-31T13:00:00Z", "2022-10-31T13:00:00Z", "2022-10-31T13:00:00Z", "2022-10-31T13:00:00Z", "2022-10-31T13:34:00Z", "2022-10-31T13:00:00Z", "2022-10-31T13:00:00Z", "2022-10-31T13:00:00Z", "2022-10-31T13:00:00Z", "2022-10-31T13:00:00Z", "2022-10-31T13:00:00Z", "2022-10-31T13:00:00Z", "2022-10-31T13:00:00Z", "2022-10-31T13:00:00Z", "2022-10-31T13:00:00Z", "2022-10-31T13:00:00Z", "2022-10-31T13:00:00Z", "2022-10-31T13:30:00Z", "2022-10-31T13:00:00Z", "2022-10-31T13:42:00Z", "2022-10-31T13:00:00Z", "2022-10-31T13:38:00Z", "2022-10-31T13:00:00Z", "2022-10-31T13:00:00Z", "2022-10-31T13:53:00Z", "2022-10-31T13:24:00Z", "2022-10-31T13:00:00Z", "2022-10-31T13:00:00Z", "2022-10-31T13:00:00Z", "2022-10-31T13:00:00Z", "2022-10-31T13:00:00Z", "2022-10-31T13:00:00Z", "2022-10-31T13:00:00Z", "2022-10-31T13:00:00Z", "2022-10-31T13:47:00Z", "2022-10-31T13:00:00Z", "2022-10-31T13:00:00Z", "2022-10-31T13:00:00Z", "2022-10-31T13:13:00Z", "2022-10-31T13:00:00Z", "2022-10-31T13:00:00Z", "2022-10-31T13:00:00Z", "2022-10-31T13:00:00Z", "2022-10-31T13:57:00Z", "2022-10-31T13:00:00Z", "2022-10-31T13:00:00Z", "2022-10-31T13:00:00Z", "2022-10-31T13:00:00Z", "2022-10-31T13:00:00Z", "2022-10-31T13:25:00Z", "2022-10-31T13:00:00Z", "2022-10-31T13:45:00Z", "2022-10-31T13:00:00Z", "2022-10-31T13:00:00Z", "2022-10-31T13:00:00Z", "2022-10-31T13:00:00Z", "2022-10-31T13:00:00Z", "2022-10-31T13:00:00Z", "2022-10-31T13:00:00Z", "2022-10-31T13:00:00Z", "2022-10-31T13:00:00Z", "2022-10-31T13:00:00Z", "2022-10-31T13:27:00Z", "2022-10-31T13:00:00Z", "2022-10-31T13:00:00Z", "2022-10-31T13:00:00Z", "2022-10-31T13:57:00Z", "2022-10-31T13:00:00Z", "2022-10-31T13:41:00Z", "2022-10-31T13:54:00Z", "2022-10-31T13:00:00Z", "2022-10-31T13:00:00Z", "2022-10-31T13:00:00Z", "2022-10-31T13:48:00Z", "2022-10-31T13:00:00Z", "2022-10-31T13:00:00Z", "2022-10-31T13:00:00Z", "2022-10-31T13:27:00Z", "2022-10-31T13:42:00Z", "2022-10-31T13:54:00Z", "2022-10-31T13:00:00Z", "2022-10-31T13:00:00Z", "2022-10-31T13:48:00Z", "2022-10-31T13:00:00Z", "2022-10-31T13:00:00Z", "2022-10-31T13:00:00Z", "2022-10-31T13:00:00Z", "2022-10-31T13:00:00Z", "2022-10-31T13:46:00Z", "2022-10-31T13:00:00Z", "2022-10-31T13:00:00Z", "2022-10-31T13:00:00Z", "2022-10-31T13:41:00Z", "2022-10-31T13:55:00Z", "2022-10-31T13:55:00Z", "2022-10-31T13:33:00Z", "2022-10-31T13:00:00Z", "2022-10-31T13:00:00Z", "2022-10-31T13:00:00Z", "2022-10-31T13:00:00Z", "2022-10-31T13:00:00Z", "2022-10-31T13:00:00Z", "2022-10-31T13:00:00Z", "2022-10-31T13:00:00Z", "2022-10-31T13:00:00Z", "2022-10-31T13:00:00Z", "2022-10-31T13:00:00Z", "2022-10-31T13:00:00Z", "2022-10-31T13:00:00Z", "2022-10-31T13:00:00Z", "2022-10-31T13:00:00Z", "2022-10-31T13:00:00Z", "2022-10-31T13:00:00Z", "2022-10-31T13:00:00Z", "2022-10-31T13:00:00Z", "2022-10-31T13:00:00Z", "2022-10-31T13:00:00Z", "2022-10-31T13:00:00Z", "2022-10-31T13:00:00Z", "2022-10-31T13:00:00Z", "2022-10-31T13:00:00Z", "2022-10-31T13:38:00Z", "2022-10-31T13:00:00Z", "2022-10-31T13:00:00Z", "2022-10-31T13:00:00Z", "2022-10-31T13:00:00Z", "2022-10-31T13:30:00Z", "2022-10-31T13:00:00Z", "2022-10-31T13:00:00Z", "2022-10-31T13:00:00Z", "2022-10-31T13:30:00Z", "2022-10-31T13:00:00Z", "2022-10-31T13:00:00Z", "2022-10-31T13:30:00Z", "2022-10-31T13:30:00Z", "2022-10-31T13:00:00Z", "2022-10-31T13:00:00Z", "2022-10-31T13:00:00Z", "2022-10-31T13:00:00Z", "2022-10-31T13:00:00Z", "2022-10-31T13:00:00Z", "2022-10-31T13:00:00Z", "2022-10-31T13:30:00Z", "2022-10-31T13:30:00Z", "2022-10-31T13:00:00Z", "2022-10-31T13:00:00Z", "2022-10-31T13:00:00Z", "2022-10-31T13:00:00Z", "2022-10-31T13:00:00Z", "2022-10-31T13:00:00Z", "2022-10-31T13:00:00Z", "2022-10-31T13:00:00Z", "2022-10-31T13:00:00Z", "2022-10-31T13:00:00Z", "2022-10-31T13:00:00Z", "2022-10-31T13:00:00Z", "2022-10-31T13:00:00Z", "2022-10-31T13:00:00Z", "2022-10-31T13:00:00Z", "2022-10-31T13:00:00Z", "2022-10-31T13:00:00Z", "2022-10-31T13:00:00Z", "2022-10-31T13:00:00Z", "2022-10-31T13:00:00Z", "2022-10-31T14:00:00Z", "2022-10-31T13:00:00Z", "2022-10-31T13:00:00Z", "2022-10-31T13:00:00Z", "2022-10-31T13:00:00Z", "2022-10-31T13:00:00Z", "2022-10-31T13:00:00Z", "2022-10-31T13:00:00Z", "2022-10-31T13:00:00Z", "2022-10-31T13:00:00Z", "2022-10-31T13:00:00Z", "2022-10-31T13:00:00Z", "2022-10-31T13:00:00Z", "2022-10-31T13:00:00Z", "2022-10-31T13:00:00Z", "2022-10-31T13:00:00Z", "2022-10-31T13:00:00Z", "2022-10-31T13:00:00Z", "2022-10-31T13:00:00Z", "2022-10-31T13:00:00Z", "2022-10-31T13:00:00Z", "2022-10-31T13:00:00Z", "2022-10-31T13:30:00Z", "2022-10-31T13:30:00Z", "2022-10-31T13:30:00Z", "2022-10-31T13:00:00Z", "2022-10-31T13:00:00Z", "2022-10-31T13:00:00Z", "2022-10-31T13:00:00Z", "2022-10-31T13:30:00Z", "2022-10-31T13:00:00Z", "2022-10-31T13:00:00Z", "2022-10-31T13:00:00Z", "2022-10-31T13:00:00Z", "2022-10-31T13:00:00Z", "2022-10-31T13:00:00Z", "2022-10-31T13:00:00Z", "2022-10-31T13:00:00Z", "2022-10-31T13:50:00Z", "2022-10-31T13:25:00Z", "2022-10-31T13:25:00Z", "2022-10-31T13:50:00Z", "2022-10-31T13:50:00Z", "2022-10-31T13:25:00Z", "2022-10-31T13:25:00Z", "2022-10-31T13:25:00Z", "2022-10-31T13:25:00Z", "2022-10-31T13:25:00Z", "2022-10-31T13:50:00Z", "2022-10-31T13:50:00Z", "2022-10-31T13:50:00Z", "2022-10-31T13:50:00Z", "2022-10-31T13:50:00Z", "2022-10-31T13:50:00Z", "2022-10-31T13:50:00Z", "2022-10-31T13:50:00Z", "2022-10-31T13:50:00Z", "2022-10-31T13:50:00Z", "2022-10-31T13:50:00Z", "2022-10-31T13:50:00Z", "2022-10-31T13:50:00Z", "2022-10-31T13:50:00Z", "2022-10-31T13:50:00Z", "2022-10-31T13:50:00Z", "2022-10-31T13:50:00Z", "2022-10-31T13:50:00Z", "2022-10-31T13:50:00Z", "2022-10-31T13:50:00Z", "2022-10-31T13:50:00Z", "2022-10-31T13:50:00Z", "2022-10-31T13:50:00Z", "2022-10-31T13:50:00Z", "2022-10-31T13:50:00Z", "2022-10-31T13:50:00Z", "2022-10-31T13:50:00Z", "2022-10-31T13:50:00Z", "2022-10-31T13:50:00Z", "2022-10-31T13:50:00Z", "2022-10-31T13:50:00Z", "2022-10-31T13:50:00Z", "2022-10-31T13:50:00Z", "2022-10-31T13:50:00Z", "2022-10-31T13:50:00Z", "2022-10-31T13:50:00Z", "2022-10-31T13:50:00Z", "2022-10-31T13:50:00Z", "2022-10-31T13:50:00Z", "2022-10-31T13:50:00Z", "2022-10-31T13:50:00Z", "2022-10-31T13:50:00Z", "2022-10-31T13:50:00Z", "2022-10-31T13:50:00Z", "2022-10-31T13:50:00Z", "2022-10-31T13:50:00Z", "2022-10-31T13:50:00Z", "2022-10-31T13:50:00Z", "2022-10-31T13:50:00Z", "2022-10-31T13:50:00Z", "2022-10-31T13:50:00Z", "2022-10-31T13:50:00Z", "2022-10-31T13:50:00Z", "2022-10-31T13:50:00Z", "2022-10-31T13:50:00Z", "2022-10-31T13:50:00Z", "2022-10-31T13:50:00Z", "2022-10-31T13:50:00Z", "2022-10-31T13:50:00Z", "2022-10-31T13:50:00Z", "2022-10-31T13:50:00Z", "2022-10-31T13:50:00Z", "2022-10-31T13:50:00Z", "2022-10-31T13:50:00Z", "2022-10-31T13:50:00Z", "2022-10-31T13:50:00Z", "2022-10-31T13:50:00Z", "2022-10-31T13:50:00Z", "2022-10-31T13:50:00Z", "2022-10-31T13:50:00Z", "2022-10-31T13:50:00Z", "2022-10-31T13:50:00Z", "2022-10-31T13:50:00Z", "2022-10-31T13:50:00Z", "2022-10-31T13:50:00Z", "2022-10-31T13:50:00Z", "2022-10-31T13:50:00Z", "2022-10-31T13:50:00Z", "2022-10-31T13:50:00Z", "2022-10-31T13:50:00Z", "2022-10-31T13:50:00Z", "2022-10-31T13:20:00Z", "2022-10-31T13:50:00Z", "2022-10-31T13:50:00Z", "2022-10-31T13:50:00Z", "2022-10-31T13:50:00Z", "2022-10-31T13:50:00Z", "2022-10-31T13:50:00Z", "2022-10-31T13:50:00Z", "2022-10-31T13:50:00Z", "2022-10-31T13:50:00Z", "2022-10-31T13:50:00Z", "2022-10-31T13:50:00Z", "2022-10-31T13:50:00Z", "2022-10-31T13:50:00Z", "2022-10-31T13:50:00Z", "2022-10-31T13:50:00Z", "2022-10-31T13:50:00Z", "2022-10-31T13:50:00Z", "2022-10-31T13:50:00Z", "2022-10-31T13:50:00Z", "2022-10-31T13:50:00Z", "2022-10-31T13:50:00Z", "2022-10-31T13:50:00Z", "2022-10-31T13:50:00Z", "2022-10-31T13:50:00Z", "2022-10-31T13:50:00Z", "2022-10-31T13:50:00Z", "2022-10-31T13:50:00Z", "2022-10-31T13:50:00Z", "2022-10-31T13:20:00Z", "2022-10-31T13:50:00Z", "2022-10-31T13:50:00Z", "2022-10-31T13:50:00Z", "2022-10-31T13:20:00Z", "2022-10-31T13:50:00Z", "2022-10-31T13:50:00Z", "2022-10-31T13:50:00Z", "2022-10-31T13:50:00Z", "2022-10-31T13:50:00Z", "2022-10-31T13:50:00Z", "2022-10-31T13:50:00Z", "2022-10-31T13:50:00Z", "2022-10-31T13:50:00Z", "2022-10-31T13:50:00Z", "2022-10-31T13:50:00Z", "2022-10-31T13:50:00Z", "2022-10-31T13:50:00Z", "2022-10-31T13:50:00Z", "2022-10-31T13:50:00Z", "2022-10-31T13:50:00Z", "2022-10-31T12:50:00Z", "2022-10-31T13:20:00Z", "2022-10-31T13:20:00Z", "2022-10-31T13:50:00Z", "2022-10-31T13:50:00Z", "2022-10-31T13:50:00Z", "2022-10-31T13:50:00Z", "2022-10-31T13:50:00Z", "2022-10-31T13:50:00Z", "2022-10-31T13:50:00Z", "2022-10-31T13:50:00Z", "2022-10-31T13:50:00Z", "2022-10-31T13:50:00Z", "2022-10-31T12:55:00Z", "2022-10-31T13:55:00Z", "2022-10-31T13:50:00Z", "2022-10-31T13:52:00Z", "2022-10-31T13:50:00Z", "2022-10-31T13:50:00Z", "2022-10-31T13:50:00Z", "2022-10-31T12:50:00Z", "2022-10-31T13:50:00Z", "2022-10-31T13:50:00Z", "2022-10-31T13:50:00Z", "2022-10-31T12:50:00Z", "2022-10-31T12:50:00Z", "2022-10-31T13:50:00Z", "2022-10-31T13:20:00Z", "2022-10-31T13:20:00Z", "2022-10-31T13:20:00Z", "2022-10-31T13:50:00Z", "2022-10-31T13:50:00Z", "2022-10-31T13:50:00Z", "2022-10-31T13:50:00Z", "2022-10-31T13:50:00Z", "2022-10-31T13:55:00Z", "2022-10-31T13:55:00Z", "2022-10-31T13:55:00Z", "2022-10-31T13:55:00Z", "2022-10-31T13:55:00Z", "2022-10-31T13:55:00Z", "2022-10-31T13:55:00Z", "2022-10-31T13:25:00Z", "2022-10-31T13:55:00Z", "2022-10-31T13:55:00Z", "2022-10-31T13:55:00Z", "2022-10-31T13:55:00Z", "2022-10-31T13:55:00Z", "2022-10-31T13:55:00Z", "2022-10-31T13:55:00Z", "2022-10-31T13:55:00Z", "2022-10-31T13:55:00Z", "2022-10-31T13:55:00Z", "2022-10-31T13:55:00Z", "2022-10-31T13:55:00Z", "2022-10-31T13:55:00Z", "2022-10-31T13:55:00Z", "2022-10-31T13:55:00Z", "2022-10-31T13:55:00Z", "2022-10-31T13:55:00Z", "2022-10-31T13:55:00Z", "2022-10-31T13:55:00Z", "2022-10-31T13:30:00Z", "2022-10-31T13:30:00Z", "2022-10-31T13:30:00Z", "2022-10-31T13:30:00Z", "2022-10-31T13:30:00Z", "2022-10-31T13:00:00Z", "2022-10-31T13:30:00Z", "2022-10-31T13:30:00Z", "2022-10-31T13:00:00Z", "2022-10-31T13:50:00Z", "2022-10-31T13:50:00Z", "2022-10-31T13:50:00Z", "2022-10-31T13:50:00Z", "2022-10-31T13:50:00Z", "2022-10-31T13:50:00Z", "2022-10-31T13:50:00Z", "2022-10-31T13:50:00Z", "2022-10-31T13:50:00Z", "2022-10-31T13:50:00Z", "2022-10-31T13:50:00Z", "2022-10-31T13:50:00Z", "2022-10-31T13:50:00Z", "2022-10-31T13:50:00Z", "2022-10-31T13:50:00Z", "2022-10-31T13:50:00Z", "2022-10-31T13:50:00Z", "2022-10-31T13:50:00Z", "2022-10-31T13:50:00Z", "2022-10-31T13:50:00Z", "2022-10-31T13:50:00Z", "2022-10-31T13:50:00Z", "2022-10-31T13:50:00Z", "2022-10-31T13:50:00Z", "2022-10-31T13:50:00Z", "2022-10-31T13:50:00Z", "2022-10-31T13:50:00Z", "2022-10-31T13:50:00Z", "2022-10-31T13:50:00Z", "2022-10-31T13:50:00Z", "2022-10-31T13:50:00Z", "2022-10-31T13:50:00Z", "2022-10-31T13:50:00Z", "2022-10-31T13:50:00Z", "2022-10-31T13:50:00Z", "2022-10-31T13:50:00Z", "2022-10-31T13:50:00Z", "2022-10-31T13:50:00Z", "2022-10-31T12:50:00Z", "2022-10-31T13:50:00Z", "2022-10-31T13:50:00Z", "2022-10-31T13:50:00Z", "2022-10-31T13:50:00Z", "2022-10-31T13:50:00Z", "2022-10-31T13:50:00Z", "2022-10-31T13:50:00Z", "2022-10-31T13:50:00Z", "2022-10-31T13:50:00Z", "2022-10-31T13:50:00Z", "2022-10-31T13:50:00Z", "2022-10-31T13:50:00Z", "2022-10-31T13:50:00Z", "2022-10-31T13:50:00Z", "2022-10-31T13:50:00Z", "2022-10-31T13:50:00Z", "2022-10-31T13:50:00Z", "2022-10-31T13:50:00Z", "2022-10-31T13:50:00Z", "2022-10-31T13:50:00Z", "2022-10-31T13:50:00Z", "2022-10-31T13:50:00Z", "2022-10-31T13:50:00Z", "2022-10-31T13:50:00Z", "2022-10-31T13:50:00Z", "2022-10-31T13:50:00Z", "2022-10-31T13:50:00Z", "2022-10-31T13:50:00Z", "2022-10-31T13:20:00Z", "2022-10-31T12:50:00Z", "2022-10-31T13:50:00Z", "2022-10-31T13:50:00Z", "2022-10-31T13:50:00Z", "2022-10-31T13:50:00Z", "2022-10-31T13:50:00Z", "2022-10-31T13:50:00Z", "2022-10-31T13:50:00Z", "2022-10-31T13:50:00Z", "2022-10-31T13:50:00Z", "2022-10-31T13:50:00Z", "2022-10-31T13:50:00Z", "2022-10-31T13:50:00Z", "2022-10-31T13:50:00Z", "2022-10-31T13:50:00Z", "2022-10-31T13:50:00Z", "2022-10-31T13:30:00Z", "2022-10-31T13:30:00Z", "2022-10-31T13:30:00Z", "2022-10-31T13:30:00Z", "2022-10-31T13:30:00Z", "2022-10-31T13:30:00Z", "2022-10-31T13:30:00Z", "2022-10-31T13:30:00Z", "2022-10-31T13:30:00Z", "2022-10-31T13:30:00Z", "2022-10-31T13:30:00Z", "2022-10-31T13:30:00Z", "2022-10-31T13:30:00Z", "2022-10-31T13:30:00Z", "2022-10-31T13:30:00Z", "2022-10-31T13:50:00Z", "2022-10-31T13:50:00Z", "2022-10-31T13:50:00Z", "2022-10-31T13:50:00Z", "2022-10-31T13:50:00Z", "2022-10-31T13:50:00Z", "2022-10-31T13:50:00Z", "2022-10-31T13:50:00Z", "2022-10-31T13:50:00Z", "2022-10-31T13:50:00Z", "2022-10-31T13:50:00Z", "2022-10-31T13:50:00Z", "2022-10-31T13:50:00Z", "2022-10-31T13:50:00Z", "2022-10-31T13:50:00Z", "2022-10-31T13:50:00Z", "2022-10-31T13:50:00Z", "2022-10-31T13:50:00Z", "2022-10-31T13:50:00Z", "2022-10-31T13:50:00Z", "2022-10-31T13:50:00Z", "2022-10-31T13:50:00Z", "2022-10-31T13:50:00Z", "2022-10-31T13:50:00Z", "2022-10-31T13:50:00Z", "2022-10-31T13:50:00Z", "2022-10-31T12:50:00Z", "2022-10-31T13:50:00Z", "2022-10-31T13:50:00Z", "2022-10-31T13:50:00Z", "2022-10-31T13:50:00Z", "2022-10-31T13:50:00Z", "2022-10-31T13:50:00Z", "2022-10-31T13:50:00Z", "2022-10-31T13:50:00Z", "2022-10-31T13:50:00Z", "2022-10-31T13:50:00Z", "2022-10-31T13:50:00Z", "2022-10-31T13:50:00Z", "2022-10-31T13:50:00Z", "2022-10-31T13:50:00Z", "2022-10-31T13:50:00Z", "2022-10-31T13:50:00Z", "2022-10-31T13:50:00Z", "2022-10-31T13:50:00Z", "2022-10-31T13:50:00Z", "2022-10-31T13:55:00Z", "2022-10-31T12:55:00Z", "2022-10-31T13:55:00Z", "2022-10-31T13:20:00Z", "2022-10-31T13:20:00Z", "2022-10-31T13:20:00Z", "2022-10-31T13:20:00Z", "2022-10-31T13:20:00Z", "2022-10-31T13:20:00Z", "2022-10-31T13:20:00Z", "2022-10-31T13:20:00Z", "2022-10-31T13:55:00Z", "2022-10-31T13:55:00Z", "2022-10-31T13:55:00Z", "2022-10-31T13:20:00Z", "2022-10-31T13:50:00Z", "2022-10-31T13:20:00Z", "2022-10-31T13:49:00Z", "2022-10-31T13:20:00Z", "2022-10-31T13:20:00Z", "2022-10-31T13:20:00Z", "2022-10-31T13:20:00Z", "2022-10-31T12:55:00Z", "2022-10-31T13:20:00Z", "2022-10-31T13:20:00Z", "2022-10-31T13:20:00Z", "2022-10-31T13:20:00Z", "2022-10-31T13:35:00Z", "2022-10-31T13:20:00Z", "2022-10-31T13:50:00Z", "2022-10-31T13:50:00Z", "2022-10-31T13:50:00Z", "2022-10-31T13:50:00Z", "2022-10-31T13:50:00Z", "2022-10-31T13:50:00Z", "2022-10-31T13:50:00Z", "2022-10-31T13:50:00Z", "2022-10-31T13:00:00Z", "2022-10-31T13:00:00Z", "2022-10-31T13:00:00Z", "2022-10-31T13:22:00Z", "2022-10-31T13:00:00Z", "2022-10-31T13:00:00Z", "2022-10-31T13:00:00Z", "2022-10-31T13:00:00Z", "2022-10-31T13:00:00Z", "2022-10-31T13:00:00Z", "2022-10-31T13:00:00Z", "2022-10-31T13:00:00Z", "2022-10-31T13:30:00Z", "2022-10-31T13:00:00Z", "2022-10-31T13:00:00Z", "2022-10-31T13:00:00Z", "2022-10-31T13:00:00Z", "2022-10-31T13:00:00Z", "2022-10-31T13:00:00Z", "2022-10-31T13:00:00Z", "2022-10-31T13:00:00Z", "2022-10-31T13:00:00Z", "2022-10-31T13:00:00Z", "2022-10-31T13:00:00Z", "2022-10-31T13:00:00Z", "2022-10-31T13:00:00Z", "2022-10-31T13:00:00Z", "2022-10-31T13:00:00Z", "2022-10-31T13:00:00Z", "2022-10-31T13:00:00Z", "2022-10-31T13:00:00Z", "2022-10-31T14:00:00Z", "2022-10-31T13:55:00Z", "2022-10-31T13:00:00Z", "2022-10-31T13:30:00Z", "2022-10-31T13:30:00Z", "2022-10-31T13:30:00Z", "2022-10-31T13:30:00Z", "2022-10-31T13:00:00Z", "2022-10-31T13:00:00Z", "2022-10-31T13:00:00Z", "2022-10-31T13:00:00Z", "2022-10-31T13:04:00Z", "2022-10-31T13:00:00Z", "2022-10-31T13:00:00Z", "2022-10-31T13:00:00Z", "2022-10-31T13:00:00Z", "2022-10-31T13:00:00Z", "2022-10-31T13:00:00Z", "2022-10-31T13:00:00Z", "2022-10-31T13:00:00Z", "2022-10-31T13:00:00Z", "2022-10-31T13:00:00Z", "2022-10-31T13:00:00Z", "2022-10-31T13:00:00Z", "2022-10-31T13:00:00Z", "2022-10-31T13:00:00Z", "2022-10-31T13:00:00Z", "2022-10-31T13:00:00Z", "2022-10-31T13:00:00Z", "2022-10-31T13:00:00Z", "2022-10-31T13:00:00Z", "2022-10-31T13:00:00Z", "2022-10-31T13:00:00Z", "2022-10-31T13:00:00Z", "2022-10-31T13:00:00Z", "2022-10-31T13:00:00Z", "2022-10-31T13:30:00Z", "2022-10-31T14:00:00Z", "2022-10-31T13:30:00Z", "2022-10-31T13:30:00Z", "2022-10-31T13:30:00Z", "2022-10-31T13:30:00Z", "2022-10-31T13:30:00Z", "2022-10-31T13:30:00Z", "2022-10-31T13:30:00Z", "2022-10-31T13:30:00Z", "2022-10-31T13:30:00Z", "2022-10-31T13:30:00Z", "2022-10-31T13:00:00Z", "2022-10-31T13:30:00Z", "2022-10-31T13:00:00Z", "2022-10-31T13:00:00Z", "2022-10-31T13:00:00Z", "2022-10-31T13:00:00Z", "2022-10-31T13:30:00Z", "2022-10-31T13:00:00Z", "2022-10-31T13:00:00Z", "2022-10-31T13:30:00Z", "2022-10-31T13:00:00Z", "2022-10-31T13:00:00Z", "2022-10-31T13:00:00Z", "2022-10-31T13:30:00Z", "2022-10-31T13:00:00Z", "2022-10-31T13:00:00Z", "2022-10-31T13:00:00Z", "2022-10-31T13:30:00Z", "2022-10-31T13:00:00Z", "2022-10-31T13:30:00Z", "2022-10-31T13:00:00Z", "2022-10-31T13:00:00Z", "2022-10-31T13:00:00Z", "2022-10-31T13:30:00Z", "2022-10-31T13:30:00Z", "2022-10-31T13:00:00Z", "2022-10-31T13:00:00Z", "2022-10-31T13:00:00Z", "2022-10-31T13:30:00Z", "2022-10-31T13:00:00Z", "2022-10-31T14:00:00Z", "2022-10-31T14:00:00Z", "2022-10-31T14:00:00Z", "2022-10-31T14:00:00Z", "2022-10-31T14:00:00Z", "2022-10-31T13:00:00Z", "2022-10-31T13:00:00Z", "2022-10-31T13:00:00Z", "2022-10-31T13:00:00Z", "2022-10-31T13:00:00Z", "2022-10-31T13:00:00Z", "2022-10-31T13:00:00Z", "2022-10-31T14:00:00Z", "2022-10-31T13:00:00Z", "2022-10-31T13:00:00Z", "2022-10-31T14:00:00Z", "2022-10-31T13:00:00Z", "2022-10-31T13:00:00Z", "2022-10-31T13:00:00Z", "2022-10-31T13:00:00Z", "2022-10-31T13:00:00Z", "2022-10-31T13:00:00Z", "2022-10-31T13:00:00Z", "2022-10-31T14:00:00Z", "2022-10-31T14:00:00Z", "2022-10-31T13:00:00Z", "2022-10-31T13:00:00Z", "2022-10-31T13:00:00Z", "2022-10-31T13:30:00Z", "2022-10-31T13:00:00Z", "2022-10-31T13:00:00Z", "2022-10-31T13:00:00Z", "2022-10-31T13:00:00Z", "2022-10-31T13:00:00Z", "2022-10-31T13:30:00Z", "2022-10-31T13:00:00Z", "2022-10-31T13:00:00Z", "2022-10-31T13:00:00Z", "2022-10-31T13:30:00Z", "2022-10-31T13:00:00Z", "2022-10-31T13:00:00Z", "2022-10-31T13:00:00Z", "2022-10-31T13:00:00Z", "2022-10-31T13:00:00Z", "2022-10-31T13:00:00Z", "2022-10-31T13:00:00Z", "2022-10-31T13:30:00Z", "2022-10-31T13:30:00Z", "2022-10-31T13:35:00Z", "2022-10-31T13:55:00Z", "2022-10-31T13:55:00Z", "2022-10-31T13:55:00Z", "2022-10-31T13:55:00Z", "2022-10-31T13:55:00Z", "2022-10-31T13:55:00Z", "2022-10-31T13:55:00Z", "2022-10-31T13:55:00Z", "2022-10-31T13:55:00Z", "2022-10-31T13:55:00Z", "2022-10-31T13:58:00Z", "2022-10-31T13:55:00Z", "2022-10-31T13:55:00Z", "2022-10-31T13:55:00Z", "2022-10-31T13:55:00Z", "2022-10-31T13:55:00Z", "2022-10-31T13:55:00Z", "2022-10-31T13:55:00Z", "2022-10-31T13:54:00Z", "2022-10-31T13:55:00Z", "2022-10-31T13:55:00Z", "2022-10-31T13:55:00Z", "2022-10-31T13:35:00Z", "2022-10-31T13:55:00Z", "2022-10-31T13:35:00Z", "2022-10-31T13:55:00Z", "2022-10-31T13:55:00Z", "2022-10-31T13:35:00Z", "2022-10-31T13:55:00Z", "2022-10-31T13:55:00Z", "2022-10-31T13:55:00Z", "2022-10-31T13:55:00Z", "2022-10-31T13:55:00Z", "2022-10-31T13:55:00Z", "2022-10-31T13:55:00Z", "2022-10-31T13:35:00Z", "2022-10-31T13:55:00Z", "2022-10-31T13:55:00Z", "2022-10-31T13:55:00Z", "2022-10-31T13:55:00Z", "2022-10-31T13:30:00Z", "2022-10-31T13:55:00Z", "2022-10-31T13:55:00Z", "2022-10-31T13:55:00Z", "2022-10-31T13:55:00Z", "2022-10-31T13:55:00Z", "2022-10-31T13:55:00Z", "2022-10-31T13:55:00Z", "2022-10-31T13:55:00Z", "2022-10-31T13:55:00Z", "2022-10-31T13:55:00Z", "2022-10-31T13:55:00Z", "2022-10-31T13:55:00Z", "2022-10-31T13:56:00Z", "2022-10-31T13:55:00Z", "2022-10-31T13:55:00Z", "2022-10-31T13:55:00Z", "2022-10-31T13:55:00Z", "2022-10-31T13:55:00Z", "2022-10-31T13:55:00Z", "2022-10-31T13:55:00Z", "2022-10-31T13:55:00Z", "2022-10-31T13:35:00Z", "2022-10-31T14:00:00Z", "2022-10-31T13:55:00Z", "2022-10-31T13:55:00Z", "2022-10-31T13:54:00Z", "2022-10-31T13:55:00Z", "2022-10-31T13:55:00Z", "2022-10-31T13:55:00Z", "2022-10-31T13:55:00Z", "2022-10-31T13:55:00Z", "2022-10-31T13:55:00Z", "2022-10-31T13:55:00Z", "2022-10-31T13:55:00Z", "2022-10-31T13:55:00Z", "2022-10-31T13:55:00Z", "2022-10-31T13:55:00Z", "2022-10-31T13:55:00Z", "2022-10-31T13:55:00Z", "2022-10-31T13:55:00Z", "2022-10-31T13:55:00Z", "2022-10-31T13:35:00Z", "2022-10-31T13:55:00Z", "2022-10-31T13:35:00Z", "2022-10-31T13:55:00Z", "2022-10-31T13:35:00Z", "2022-10-31T13:55:00Z", "2022-10-31T13:55:00Z", "2022-10-31T13:55:00Z", "2022-10-31T13:55:00Z", "2022-10-31T13:55:00Z", "2022-10-31T13:39:00Z", "2022-10-31T13:56:00Z", "2022-10-31T13:55:00Z", "2022-10-31T13:55:00Z", "2022-10-31T13:55:00Z", "2022-10-31T13:55:00Z", "2022-10-31T14:00:00Z", "2022-10-31T13:55:00Z", "2022-10-31T13:55:00Z", "2022-10-31T13:55:00Z", "2022-10-31T13:55:00Z", "2022-10-31T13:55:00Z", "2022-10-31T13:55:00Z", "2022-10-31T13:55:00Z", "2022-10-31T13:55:00Z", "2022-10-31T13:55:00Z", "2022-10-31T13:55:00Z", "2022-10-31T14:00:00Z", "2022-10-31T13:16:00Z", "2022-10-31T13:55:00Z", "2022-10-31T13:55:00Z", "2022-10-31T13:55:00Z", "2022-10-31T13:55:00Z", "2022-10-31T13:55:00Z", "2022-10-31T13:55:00Z", "2022-10-31T13:55:00Z", "2022-10-31T13:55:00Z", "2022-10-31T13:55:00Z", "2022-10-31T13:55:00Z", "2022-10-31T13:55:00Z", "2022-10-31T13:55:00Z", "2022-10-31T13:55:00Z", "2022-10-31T13:35:00Z", "2022-10-31T13:55:00Z", "2022-10-31T13:55:00Z", "2022-10-31T13:55:00Z", "2022-10-31T13:30:00Z", "2022-10-31T13:55:00Z", "2022-10-31T13:55:00Z", "2022-10-31T13:55:00Z", "2022-10-31T13:35:00Z", "2022-10-31T13:55:00Z", "2022-10-31T13:55:00Z", "2022-10-31T13:55:00Z", "2022-10-31T13:45:00Z", "2022-10-31T13:55:00Z", "2022-10-31T13:55:00Z", "2022-10-31T13:55:00Z", "2022-10-31T13:55:00Z", "2022-10-31T13:55:00Z", "2022-10-31T13:55:00Z", "2022-10-31T13:55:00Z", "2022-10-31T13:35:00Z", "2022-10-31T13:55:00Z", "2022-10-31T13:35:00Z", "2022-10-31T13:51:00Z", "2022-10-31T13:55:00Z", "2022-10-31T13:55:00Z", "2022-10-31T13:55:00Z", "2022-10-31T13:55:00Z", "2022-10-31T13:55:00Z", "2022-10-31T13:56:00Z", "2022-10-31T13:55:00Z", "2022-10-31T13:55:00Z", "2022-10-31T13:56:00Z", "2022-10-31T13:55:00Z", "2022-10-31T13:55:00Z", "2022-10-31T13:55:00Z", "2022-10-31T13:55:00Z", "2022-10-31T13:35:00Z", "2022-10-31T13:55:00Z", "2022-10-31T13:56:00Z", "2022-10-31T13:35:00Z", "2022-10-31T13:55:00Z", "2022-10-31T13:55:00Z", "2022-10-31T13:55:00Z", "2022-10-31T13:55:00Z", "2022-10-31T13:55:00Z", "2022-10-31T13:55:00Z", "2022-10-31T12:55:00Z", "2022-10-31T13:35:00Z", "2022-10-31T13:55:00Z", "2022-10-31T13:53:00Z", "2022-10-31T13:54:00Z", "2022-10-31T13:55:00Z", "2022-10-31T13:55:00Z", "2022-10-31T13:51:00Z", "2022-10-31T13:55:00Z", "2022-10-31T13:52:00Z", "2022-10-31T13:52:00Z", "2022-10-31T13:53:00Z", "2022-10-31T13:53:00Z", "2022-10-31T13:55:00Z", "2022-10-31T13:53:00Z", "2022-10-31T13:55:00Z", "2022-10-31T13:55:00Z", "2022-10-31T13:51:00Z", "2022-10-31T13:53:00Z", "2022-10-31T13:54:00Z", "2022-10-31T13:56:00Z", "2022-10-31T13:53:00Z", "2022-10-31T13:35:00Z", "2022-10-31T13:50:00Z", "2022-10-31T13:47:00Z", "2022-10-31T13:35:00Z", "2022-10-31T13:55:00Z", "2022-10-31T13:55:00Z", "2022-10-31T13:47:00Z", "2022-10-31T13:55:00Z", "2022-10-31T13:55:00Z", "2022-10-31T13:53:00Z", "2022-10-31T13:55:00Z", "2022-10-31T13:56:00Z", "2022-10-31T13:55:00Z", "2022-10-31T13:52:00Z", "2022-10-31T13:35:00Z", "2022-10-31T13:55:00Z", "2022-10-31T13:53:00Z", "2022-10-31T13:56:00Z", "2022-10-31T13:55:00Z", "2022-10-31T13:55:00Z", "2022-10-31T13:53:00Z", "2022-10-31T13:51:00Z", "2022-10-31T13:55:00Z", "2022-10-31T13:53:00Z", "2022-10-31T13:55:00Z", "2022-10-31T13:55:00Z", "2022-10-31T13:55:00Z", "2022-10-31T13:55:00Z", "2022-10-31T13:55:00Z", "2022-10-31T13:56:00Z", "2022-10-31T13:55:00Z", "2022-10-31T13:56:00Z", "2022-10-31T13:55:00Z", "2022-10-31T13:55:00Z", "2022-10-31T13:54:00Z", "2022-10-31T13:53:00Z", "2022-10-31T13:54:00Z", "2022-10-31T13:54:00Z", "2022-10-31T13:51:00Z", "2022-10-31T13:53:00Z", "2022-10-31T13:56:00Z", "2022-10-31T13:55:00Z", "2022-10-31T13:50:00Z", "2022-10-31T13:54:00Z", "2022-10-31T13:52:00Z", "2022-10-31T13:53:00Z", "2022-10-31T13:55:00Z", "2022-10-31T13:53:00Z", "2022-10-31T13:53:00Z", "2022-10-31T13:55:00Z", "2022-10-31T13:53:00Z", "2022-10-31T13:53:00Z", "2022-10-31T13:56:00Z", "2022-10-31T13:45:00Z", "2022-10-31T13:55:00Z", "2022-10-31T13:30:00Z", "2022-10-31T13:55:00Z", "2022-10-31T13:55:00Z", "2022-10-31T12:53:00Z", "2022-10-31T13:53:00Z", "2022-10-31T13:53:00Z", "2022-10-31T13:54:00Z", "2022-10-31T13:53:00Z", "2022-10-31T13:58:00Z", "2022-10-31T13:54:00Z", "2022-10-31T13:36:00Z", "2022-10-31T13:35:00Z", "2022-10-31T13:53:00Z", "2022-10-31T13:57:00Z", "2022-10-31T13:52:00Z", "2022-10-31T13:55:00Z", "2022-10-31T13:53:00Z", "2022-10-31T13:50:00Z", "2022-10-31T13:56:00Z", "2022-10-31T13:55:00Z", "2022-10-31T13:52:00Z", "2022-10-31T13:56:00Z", "2022-10-31T13:55:00Z", "2022-10-31T13:55:00Z", "2022-10-31T13:53:00Z", "2022-10-31T13:53:00Z", "2022-10-31T13:48:00Z", "2022-10-31T13:56:00Z", "2022-10-31T13:55:00Z", "2022-10-31T13:55:00Z", "2022-10-31T13:55:00Z", "2022-10-31T13:55:00Z", "2022-10-31T13:55:00Z", "2022-10-31T13:53:00Z", "2022-10-31T13:55:00Z", "2022-10-31T13:52:00Z", "2022-10-31T13:55:00Z", "2022-10-31T13:55:00Z", "2022-10-31T13:51:00Z", "2022-10-31T13:45:00Z", "2022-10-31T13:53:00Z", "2022-10-31T13:53:00Z", "2022-10-31T13:55:00Z", "2022-10-31T13:55:00Z", "2022-10-31T13:35:00Z", "2022-10-31T13:56:00Z", "2022-10-31T13:53:00Z", "2022-10-31T13:54:00Z", "2022-10-31T13:55:00Z", "2022-10-31T13:55:00Z", "2022-10-31T13:54:00Z", "2022-10-31T13:54:00Z", "2022-10-31T13:55:00Z", "2022-10-31T13:51:00Z", "2022-10-31T13:55:00Z", "2022-10-31T13:53:00Z", "2022-10-31T13:56:00Z", "2022-10-31T13:55:00Z", "2022-10-31T13:55:00Z", "2022-10-31T13:53:00Z", "2022-10-31T13:55:00Z", "2022-10-31T13:55:00Z", "2022-10-31T13:35:00Z", "2022-10-31T13:35:00Z", "2022-10-31T13:55:00Z", "2022-10-31T13:35:00Z", "2022-10-31T13:53:00Z", "2022-10-31T13:55:00Z", "2022-10-31T13:55:00Z", "2022-10-31T13:56:00Z", "2022-10-31T13:53:00Z", "2022-10-31T13:55:00Z", "2022-10-31T13:55:00Z", "2022-10-31T13:52:00Z", "2022-10-31T13:55:00Z", "2022-10-31T13:51:00Z", "2022-10-31T13:55:00Z", "2022-10-31T13:55:00Z", "2022-10-31T13:49:00Z", "2022-10-31T13:55:00Z", "2022-10-31T13:53:00Z", "2022-10-31T13:55:00Z", "2022-10-31T13:53:00Z", "2022-10-31T13:55:00Z", "2022-10-31T12:58:00Z", "2022-10-31T13:53:00Z", "2022-10-31T13:53:00Z", "2022-10-31T13:55:00Z", "2022-10-31T13:55:00Z", "2022-10-31T13:51:00Z", "2022-10-31T13:55:00Z", "2022-10-31T13:52:00Z", "2022-10-31T13:55:00Z", "2022-10-31T13:55:00Z", "2022-10-31T13:35:00Z", "2022-10-31T13:51:00Z", "2022-10-31T13:53:00Z", "2022-10-31T13:53:00Z", "2022-10-31T13:53:00Z", "2022-10-31T13:53:00Z", "2022-10-31T13:54:00Z", "2022-10-31T13:53:00Z", "2022-10-31T13:51:00Z", "2022-10-31T13:55:00Z", "2022-10-31T13:55:00Z", "2022-10-31T13:53:00Z", "2022-10-31T13:53:00Z", "2022-10-31T13:56:00Z", "2022-10-31T13:35:00Z", "2022-10-31T13:51:00Z", "2022-10-31T13:53:00Z", "2022-10-31T13:56:00Z", "2022-10-31T13:55:00Z", "2022-10-31T12:55:00Z", "2022-10-31T13:56:00Z", "2022-10-31T13:35:00Z", "2022-10-31T13:53:00Z", "2022-10-31T13:52:00Z", "2022-10-31T13:53:00Z", "2022-10-31T13:55:00Z", "2022-10-31T13:45:00Z", "2022-10-31T13:35:00Z", "2022-10-31T13:56:00Z", "2022-10-31T13:52:00Z", "2022-10-31T13:55:00Z", "2022-10-31T13:53:00Z", "2022-10-31T13:58:00Z", "2022-10-31T13:53:00Z", "2022-10-31T13:55:00Z", "2022-10-31T13:55:00Z", "2022-10-31T13:53:00Z", "2022-10-31T13:51:00Z", "2022-10-31T13:56:00Z", "2022-10-31T13:52:00Z", "2022-10-31T13:52:00Z", "2022-10-31T13:53:00Z", "2022-10-31T13:56:00Z", "2022-10-31T13:52:00Z", "2022-10-31T13:55:00Z", "2022-10-31T13:30:00Z", "2022-10-31T13:53:00Z", "2022-10-31T13:56:00Z", "2022-10-31T13:52:00Z", "2022-10-31T13:53:00Z", "2022-10-31T13:35:00Z", "2022-10-31T13:53:00Z", "2022-10-31T13:55:00Z", "2022-10-31T13:53:00Z", "2022-10-31T13:55:00Z", "2022-10-31T13:53:00Z", "2022-10-31T13:56:00Z", "2022-10-31T13:54:00Z", "2022-10-31T13:15:00Z", "2022-10-31T13:55:00Z", "2022-10-31T13:53:00Z", "2022-10-31T13:53:00Z", "2022-10-31T13:53:00Z", "2022-10-31T13:55:00Z", "2022-10-31T13:35:00Z", "2022-10-31T13:55:00Z", "2022-10-31T13:53:00Z", "2022-10-31T13:55:00Z", "2022-10-31T13:53:00Z", "2022-10-31T13:53:00Z", "2022-10-31T13:55:00Z", "2022-10-31T13:55:00Z", "2022-10-31T13:53:00Z", "2022-10-31T13:53:00Z", "2022-10-31T13:55:00Z", "2022-10-31T13:56:00Z", "2022-10-31T13:53:00Z", "2022-10-31T13:54:00Z", "2022-10-31T13:54:00Z", "2022-10-31T13:53:00Z", "2022-10-31T13:35:00Z", "2022-10-31T13:54:00Z", "2022-10-31T13:55:00Z", "2022-10-31T13:55:00Z", "2022-10-31T13:53:00Z", "2022-10-31T13:55:00Z", "2022-10-31T13:55:00Z", "2022-10-31T13:56:00Z", "2022-10-31T13:53:00Z", "2022-10-31T13:53:00Z", "2022-10-31T13:54:00Z", "2022-10-31T13:55:00Z", "2022-10-31T13:55:00Z", "2022-10-31T13:55:00Z", "2022-10-31T13:55:00Z", "2022-10-31T13:53:00Z", "2022-10-31T13:53:00Z", "2022-10-31T13:35:00Z", "2022-10-31T13:55:00Z", "2022-10-31T13:55:00Z", "2022-10-31T13:56:00Z", "2022-10-31T13:55:00Z", "2022-10-31T13:55:00Z", "2022-10-31T13:55:00Z", "2022-10-31T13:55:00Z", "2022-10-31T13:55:00Z", "2022-10-31T13:55:00Z", "2022-10-31T13:55:00Z", "2022-10-31T13:31:00Z", "2022-10-31T13:55:00Z", "2022-10-31T13:56:00Z", "2022-10-31T13:53:00Z", "2022-10-31T13:51:00Z", "2022-10-31T12:55:00Z", "2022-10-31T13:54:00Z", "2022-10-31T13:55:00Z", "2022-10-31T13:35:00Z", "2022-10-31T13:55:00Z", "2022-10-31T13:55:00Z", "2022-10-31T13:55:00Z", "2022-10-31T13:55:00Z", "2022-10-31T13:10:00Z", "2022-10-31T13:35:00Z", "2022-10-31T13:53:00Z", "2022-10-31T13:55:00Z", "2022-10-31T13:55:00Z", "2022-10-31T13:55:00Z", "2022-10-31T13:53:00Z", "2022-10-31T13:53:00Z", "2022-10-31T13:55:00Z", "2022-10-31T13:55:00Z", "2022-10-31T13:51:00Z", "2022-10-31T13:55:00Z", "2022-10-31T13:53:00Z", "2022-10-31T13:53:00Z", "2022-10-31T13:53:00Z", "2022-10-31T13:56:00Z", "2022-10-31T13:55:00Z", "2022-10-31T13:54:00Z", "2022-10-31T13:53:00Z", "2022-10-31T13:55:00Z", "2022-10-31T13:53:00Z", "2022-10-31T13:55:00Z", "2022-10-31T13:55:00Z", "2022-10-31T13:55:00Z", "2022-10-31T13:47:00Z", "2022-10-31T13:55:00Z", "2022-10-31T13:52:00Z", "2022-10-31T13:55:00Z", "2022-10-31T13:35:00Z", "2022-10-31T13:45:00Z", "2022-10-31T13:53:00Z", "2022-10-31T13:35:00Z", "2022-10-31T13:56:00Z", "2022-10-31T13:53:00Z", "2022-10-31T13:47:00Z", "2022-10-31T13:35:00Z", "2022-10-31T12:53:00Z", "2022-10-31T13:56:00Z", "2022-10-31T13:55:00Z", "2022-10-31T13:52:00Z", "2022-10-31T13:55:00Z", "2022-10-31T13:55:00Z", "2022-10-31T13:55:00Z", "2022-10-31T13:56:00Z", "2022-10-31T13:55:00Z", "2022-10-31T13:53:00Z", "2022-10-31T13:55:00Z", "2022-10-31T13:55:00Z", "2022-10-31T13:55:00Z", "2022-10-31T13:55:00Z", "2022-10-31T13:55:00Z", "2022-10-31T13:55:00Z", "2022-10-31T13:01:00Z", "2022-10-31T13:55:00Z", "2022-10-31T13:51:00Z", "2022-10-31T13:55:00Z", "2022-10-31T13:55:00Z", "2022-10-31T13:53:00Z", "2022-10-31T13:53:00Z", "2022-10-31T13:55:00Z", "2022-10-31T13:52:00Z", "2022-10-31T13:55:00Z", "2022-10-31T13:55:00Z", "2022-10-31T13:35:00Z", "2022-10-31T13:51:00Z", "2022-10-31T13:53:00Z", "2022-10-31T13:55:00Z", "2022-10-31T13:53:00Z", "2022-10-31T12:58:00Z", "2022-10-31T13:55:00Z", "2022-10-31T13:55:00Z", "2022-10-31T13:35:00Z", "2022-10-31T13:55:00Z", "2022-10-31T13:53:00Z", "2022-10-31T13:53:00Z", "2022-10-31T13:52:00Z", "2022-10-31T13:55:00Z", "2022-10-31T13:53:00Z", "2022-10-31T13:56:00Z", "2022-10-31T13:56:00Z", "2022-10-31T13:55:00Z", "2022-10-31T13:55:00Z", "2022-10-31T13:51:00Z", "2022-10-31T13:55:00Z", "2022-10-31T13:54:00Z", "2022-10-31T13:53:00Z", "2022-10-31T13:54:00Z", "2022-10-31T13:35:00Z", "2022-10-31T13:55:00Z", "2022-10-31T13:55:00Z", "2022-10-31T13:53:00Z", "2022-10-31T13:55:00Z", "2022-10-31T13:55:00Z", "2022-10-31T13:35:00Z", "2022-10-31T13:55:00Z", "2022-10-31T13:53:00Z", "2022-10-31T13:55:00Z", "2022-10-31T13:57:00Z", "2022-10-31T13:47:00Z", "2022-10-31T13:55:00Z", "2022-10-31T13:52:00Z", "2022-10-31T13:53:00Z", "2022-10-31T13:53:00Z", "2022-10-31T13:51:00Z", "2022-10-31T13:53:00Z", "2022-10-31T13:53:00Z", "2022-10-31T13:54:00Z", "2022-10-31T13:55:00Z", "2022-10-31T13:51:00Z", "2022-10-31T13:53:00Z", "2022-10-31T13:55:00Z", "2022-10-31T13:43:00Z", "2022-10-31T13:56:00Z", "2022-10-31T13:35:00Z", "2022-10-31T13:55:00Z", "2022-10-31T13:55:00Z", "2022-10-31T13:53:00Z", "2022-10-31T13:55:00Z", "2022-10-31T13:35:00Z", "2022-10-31T13:53:00Z", "2022-10-31T13:55:00Z", "2022-10-31T13:52:00Z", "2022-10-31T13:55:00Z", "2022-10-31T13:56:00Z", "2022-10-31T13:56:00Z", "2022-10-31T13:55:00Z", "2022-10-31T13:55:00Z", "2022-10-31T13:47:00Z", "2022-10-31T13:55:00Z", "2022-10-31T13:55:00Z", "2022-10-31T13:56:00Z", "2022-10-31T13:55:00Z", "2022-10-31T13:55:00Z", "2022-10-31T13:55:00Z", "2022-10-31T13:53:00Z", "2022-10-31T13:55:00Z", "2022-10-31T13:55:00Z", "2022-10-31T13:55:00Z", "2022-10-31T13:56:00Z", "2022-10-31T13:33:00Z", "2022-10-31T13:53:00Z", "2022-10-31T13:55:00Z", "2022-10-31T13:35:00Z", "2022-10-31T13:56:00Z", "2022-10-31T13:55:00Z", "2022-10-31T13:55:00Z", "2022-10-31T13:55:00Z", "2022-10-31T13:55:00Z", "2022-10-31T13:55:00Z", "2022-10-31T13:55:00Z", "2022-10-31T13:55:00Z", "2022-10-31T13:55:00Z", "2022-10-31T13:55:00Z", "2022-10-31T13:53:00Z", "2022-10-31T13:50:00Z", "2022-10-31T13:53:00Z", "2022-10-31T13:53:00Z", "2022-10-31T13:51:00Z", "2022-10-31T13:56:00Z", "2022-10-31T13:55:00Z", "2022-10-31T13:53:00Z", "2022-10-31T13:52:00Z", "2022-10-31T13:55:00Z", "2022-10-31T13:53:00Z", "2022-10-31T13:35:00Z", "2022-10-31T13:52:00Z", "2022-10-31T13:54:00Z", "2022-10-31T13:54:00Z", "2022-10-31T13:35:00Z", "2022-10-31T13:55:00Z", "2022-10-31T13:53:00Z", "2022-10-31T13:53:00Z", "2022-10-31T13:53:00Z", "2022-10-31T13:53:00Z", "2022-10-31T13:53:00Z", "2022-10-31T13:53:00Z", "2022-10-31T13:53:00Z", "2022-10-31T13:53:00Z", "2022-10-31T13:56:00Z", "2022-10-31T13:56:00Z", "2022-10-31T13:55:00Z", "2022-10-31T13:53:00Z", "2022-10-31T13:35:00Z", "2022-10-31T13:55:00Z", "2022-10-31T13:55:00Z", "2022-10-31T13:55:00Z", "2022-10-31T13:55:00Z", "2022-10-31T12:53:00Z", "2022-10-31T13:55:00Z", "2022-10-31T13:53:00Z", "2022-10-31T13:55:00Z", "2022-10-31T13:55:00Z", "2022-10-31T13:53:00Z", "2022-10-31T13:53:00Z", "2022-10-31T13:35:00Z", "2022-10-31T13:55:00Z", "2022-10-31T13:53:00Z", "2022-10-31T13:55:00Z", "2022-10-31T13:55:00Z", "2022-10-31T13:55:00Z", "2022-10-31T13:55:00Z", "2022-10-31T13:52:00Z", "2022-10-31T12:55:00Z", "2022-10-31T13:35:00Z", "2022-10-31T13:35:00Z", "2022-10-31T13:53:00Z", "2022-10-31T13:55:00Z", "2022-10-31T13:55:00Z", "2022-10-31T13:53:00Z", "2022-10-31T13:53:00Z", "2022-10-31T13:55:00Z", "2022-10-31T13:54:00Z", "2022-10-31T13:54:00Z", "2022-10-31T13:55:00Z", "2022-10-31T13:55:00Z", "2022-10-31T13:53:00Z", "2022-10-31T13:53:00Z", "2022-10-31T13:53:00Z", "2022-10-31T13:53:00Z", "2022-10-31T13:55:00Z", "2022-10-31T13:34:00Z", "2022-10-31T13:55:00Z", "2022-10-31T13:55:00Z", "2022-10-31T13:53:00Z", "2022-10-31T13:35:00Z", "2022-10-31T13:30:00Z", "2022-10-31T13:56:00Z", "2022-10-31T13:52:00Z", "2022-10-31T13:55:00Z", "2022-10-31T13:53:00Z", "2022-10-31T13:53:00Z", "2022-10-31T13:55:00Z", "2022-10-31T13:53:00Z", "2022-10-31T13:56:00Z", "2022-10-31T13:30:00Z", "2022-10-31T13:53:00Z", "2022-10-31T13:55:00Z", "2022-10-31T13:55:00Z", "2022-10-31T13:55:00Z", "2022-10-31T13:54:00Z", "2022-10-31T13:56:00Z", "2022-10-31T13:55:00Z", "2022-10-31T13:55:00Z", "2022-10-31T13:55:00Z", "2022-10-31T13:55:00Z", "2022-10-31T13:55:00Z", "2022-10-31T13:55:00Z", "2022-10-31T13:35:00Z", "2022-10-31T13:55:00Z", "2022-10-31T13:55:00Z", "2022-10-31T13:30:00Z", "2022-10-31T13:56:00Z", "2022-10-31T13:55:00Z", "2022-10-31T13:56:00Z", "2022-10-31T13:55:00Z", "2022-10-31T13:55:00Z", "2022-10-31T13:35:00Z", "2022-10-31T13:54:00Z", "2022-10-31T13:53:00Z", "2022-10-31T13:55:00Z", "2022-10-31T13:55:00Z", "2022-10-31T13:35:00Z", "2022-10-31T13:55:00Z", "2022-10-31T13:55:00Z", "2022-10-31T13:55:00Z", "2022-10-31T13:55:00Z", "2022-10-31T13:56:00Z", "2022-10-31T13:56:00Z", "2022-10-31T13:53:00Z", "2022-10-31T13:53:00Z", "2022-10-31T13:54:00Z", "2022-10-31T13:55:00Z", "2022-10-31T13:55:00Z", "2022-10-31T13:56:00Z", "2022-10-31T13:55:00Z", "2022-10-31T13:35:00Z", "2022-10-31T13:55:00Z", "2022-10-31T13:55:00Z", "2022-10-31T13:56:00Z", "2022-10-31T13:55:00Z", "2022-10-31T13:55:00Z", "2022-10-31T13:51:00Z", "2022-10-31T13:56:00Z", "2022-10-31T13:55:00Z", "2022-10-31T13:55:00Z", "2022-10-31T13:56:00Z", "2022-10-31T13:55:00Z", "2022-10-31T13:53:00Z", "2022-10-31T13:55:00Z", "2022-10-31T13:53:00Z", "2022-10-31T13:53:00Z", "2022-10-31T13:55:00Z", "2022-10-31T13:51:00Z", "2022-10-31T13:53:00Z", "2022-10-31T13:56:00Z", "2022-10-31T13:55:00Z", "2022-10-31T13:53:00Z", "2022-10-31T13:55:00Z", "2022-10-31T12:55:00Z", "2022-10-31T13:56:00Z", "2022-10-31T13:53:00Z", "2022-10-31T13:55:00Z", "2022-10-31T13:55:00Z", "2022-10-31T13:53:00Z", "2022-10-31T13:55:00Z", "2022-10-31T13:53:00Z", "2022-10-31T13:51:00Z", "2022-10-31T13:55:00Z", "2022-10-31T13:55:00Z", "2022-10-31T13:56:00Z", "2022-10-31T13:53:00Z", "2022-10-31T13:45:00Z", "2022-10-31T13:52:00Z", "2022-10-31T13:55:00Z", "2022-10-31T13:55:00Z", "2022-10-31T13:53:00Z", "2022-10-31T13:35:00Z", "2022-10-31T13:13:00Z", "2022-10-31T13:54:00Z", "2022-10-31T13:47:00Z", "2022-10-31T13:55:00Z", "2022-10-31T13:55:00Z", "2022-10-31T13:54:00Z", "2022-10-31T13:53:00Z", "2022-10-31T13:53:00Z", "2022-10-31T13:56:00Z", "2022-10-31T13:54:00Z", "2022-10-31T13:51:00Z", "2022-10-31T13:55:00Z", "2022-10-31T13:53:00Z", "2022-10-31T13:55:00Z", "2022-10-31T13:53:00Z", "2022-10-31T13:55:00Z", "2022-10-31T13:55:00Z", "2022-10-31T13:35:00Z", "2022-10-31T13:55:00Z", "2022-10-31T13:55:00Z", "2022-10-31T13:55:00Z", "2022-10-31T13:55:00Z", "2022-10-31T13:55:00Z", "2022-10-31T13:55:00Z", "2022-10-31T13:55:00Z", "2022-10-31T13:55:00Z", "2022-10-31T12:55:00Z", "2022-10-31T13:56:00Z", "2022-10-31T13:53:00Z", "2022-10-31T13:53:00Z", "2022-10-31T13:53:00Z", "2022-10-31T13:55:00Z", "2022-10-31T13:55:00Z", "2022-10-31T13:56:00Z", "2022-10-31T13:53:00Z", "2022-10-31T13:55:00Z", "2022-10-31T13:47:00Z", "2022-10-31T13:53:00Z", "2022-10-31T13:55:00Z", "2022-10-31T13:53:00Z", "2022-10-31T13:55:00Z", "2022-10-31T13:55:00Z", "2022-10-31T12:58:00Z", "2022-10-31T13:55:00Z", "2022-10-31T13:53:00Z", "2022-10-31T13:55:00Z", "2022-10-31T13:55:00Z", "2022-10-31T13:55:00Z", "2022-10-31T13:53:00Z", "2022-10-31T13:55:00Z", "2022-10-31T12:54:00Z", "2022-10-31T13:55:00Z", "2022-10-31T13:55:00Z", "2022-10-31T13:55:00Z", "2022-10-31T13:53:00Z", "2022-10-31T13:55:00Z", "2022-10-31T13:54:00Z", "2022-10-31T13:50:00Z", "2022-10-31T13:52:00Z", "2022-10-31T13:55:00Z", "2022-10-31T13:56:00Z", "2022-10-31T13:55:00Z", "2022-10-31T13:35:00Z", "2022-10-31T13:55:00Z", "2022-10-31T13:53:00Z", "2022-10-31T13:57:00Z", "2022-10-31T13:53:00Z", "2022-10-31T13:53:00Z", "2022-10-31T13:56:00Z", "2022-10-31T13:55:00Z", "2022-10-31T13:39:00Z", "2022-10-31T13:45:00Z", "2022-10-31T13:35:00Z", "2022-10-31T13:53:00Z", "2022-10-31T13:53:00Z", "2022-10-31T13:53:00Z", "2022-10-31T13:56:00Z", "2022-10-31T13:53:00Z", "2022-10-31T13:55:00Z", "2022-10-31T13:56:00Z", "2022-10-31T13:53:00Z", "2022-10-31T13:53:00Z", "2022-10-31T13:55:00Z", "2022-10-31T13:53:00Z", "2022-10-31T13:55:00Z", "2022-10-31T13:53:00Z", "2022-10-31T13:55:00Z", "2022-10-31T13:35:00Z", "2022-10-31T13:53:00Z", "2022-10-31T13:55:00Z", "2022-10-31T13:55:00Z", "2022-10-31T13:56:00Z", "2022-10-31T13:55:00Z", "2022-10-31T13:56:00Z", "2022-10-31T13:55:00Z", "2022-10-31T13:55:00Z", "2022-10-31T13:55:00Z", "2022-10-31T13:53:00Z", "2022-10-31T13:55:00Z", "2022-10-31T13:53:00Z", "2022-10-31T13:55:00Z", "2022-10-31T13:55:00Z", "2022-10-31T13:53:00Z", "2022-10-31T13:53:00Z", "2022-10-31T13:53:00Z", "2022-10-31T13:53:00Z", "2022-10-31T13:55:00Z", "2022-10-31T13:54:00Z", "2022-10-31T13:55:00Z", "2022-10-31T13:55:00Z", "2022-10-31T13:53:00Z", "2022-10-31T13:53:00Z", "2022-10-31T13:35:00Z", "2022-10-31T13:53:00Z", "2022-10-31T13:35:00Z", "2022-10-31T13:55:00Z", "2022-10-31T13:55:00Z", "2022-10-31T13:35:00Z", "2022-10-31T14:00:00Z", "2022-10-31T13:53:00Z", "2022-10-31T13:55:00Z", "2022-10-31T13:54:00Z", "2022-10-31T13:56:00Z", "2022-10-31T13:55:00Z", "2022-10-31T13:53:00Z", "2022-10-31T13:56:00Z", "2022-10-31T13:55:00Z", "2022-10-31T13:56:00Z", "2022-10-31T13:35:00Z", "2022-10-31T13:55:00Z", "2022-10-31T13:53:00Z", "2022-10-31T13:55:00Z", "2022-10-31T13:54:00Z", "2022-10-31T13:55:00Z", "2022-10-31T13:54:00Z", "2022-10-31T13:55:00Z", "2022-10-31T13:55:00Z", "2022-10-31T13:55:00Z", "2022-10-31T13:51:00Z", "2022-10-31T13:56:00Z", "2022-10-31T13:54:00Z", "2022-10-31T13:53:00Z", "2022-10-31T13:53:00Z", "2022-10-31T13:35:00Z", "2022-10-31T13:53:00Z", "2022-10-31T13:53:00Z", "2022-10-31T13:55:00Z", "2022-10-31T13:53:00Z", "2022-10-31T13:53:00Z", "2022-10-31T13:55:00Z", "2022-10-31T13:35:00Z", "2022-10-31T13:53:00Z", "2022-10-31T13:55:00Z", "2022-10-31T13:55:00Z", "2022-10-31T13:53:00Z", "2022-10-31T13:55:00Z", "2022-10-31T13:55:00Z", "2022-10-31T13:55:00Z", "2022-10-31T13:55:00Z", "2022-10-31T13:53:00Z", "2022-10-31T13:53:00Z", "2022-10-31T13:53:00Z", "2022-10-31T13:55:00Z", "2022-10-31T13:53:00Z", "2022-10-31T13:53:00Z", "2022-10-31T13:35:00Z", "2022-10-31T13:53:00Z", "2022-10-31T13:53:00Z", "2022-10-31T13:52:00Z", "2022-10-31T13:35:00Z", "2022-10-31T13:55:00Z", "2022-10-31T13:55:00Z", "2022-10-31T13:55:00Z", "2022-10-31T13:53:00Z", "2022-10-31T13:56:00Z", "2022-10-31T13:35:00Z", "2022-10-31T13:35:00Z", "2022-10-31T13:55:00Z", "2022-10-31T13:56:00Z", "2022-10-31T13:55:00Z", "2022-10-31T13:53:00Z", "2022-10-31T13:53:00Z", "2022-10-31T13:56:00Z", "2022-10-31T13:55:00Z", "2022-10-31T13:55:00Z", "2022-10-31T12:58:00Z", "2022-10-31T13:55:00Z", "2022-10-31T13:55:00Z", "2022-10-31T13:55:00Z", "2022-10-31T13:50:00Z", "2022-10-31T13:53:00Z", "2022-10-31T13:56:00Z", "2022-10-31T13:53:00Z", "2022-10-31T13:56:00Z", "2022-10-31T13:36:00Z", "2022-10-31T13:53:00Z", "2022-10-31T13:55:00Z", "2022-10-31T13:55:00Z", "2022-10-31T13:53:00Z", "2022-10-31T13:55:00Z", "2022-10-31T13:55:00Z", "2022-10-31T13:53:00Z", "2022-10-31T13:54:00Z", "2022-10-31T13:53:00Z", "2022-10-31T13:55:00Z", "2022-10-31T13:53:00Z", "2022-10-31T13:56:00Z", "2022-10-31T13:56:00Z", "2022-10-31T13:56:00Z", "2022-10-31T13:55:00Z", "2022-10-31T13:53:00Z", "2022-10-31T13:55:00Z", "2022-10-31T13:55:00Z", "2022-10-31T13:53:00Z", "2022-10-31T13:53:00Z", "2022-10-31T13:56:00Z", "2022-10-31T13:55:00Z", "2022-10-31T13:50:00Z", "2022-10-31T13:55:00Z", "2022-10-31T13:53:00Z", "2022-10-31T13:55:00Z", "2022-10-31T13:55:00Z", "2022-10-31T13:55:00Z", "2022-10-31T13:56:00Z", "2022-10-31T13:55:00Z", "2022-10-31T13:55:00Z", "2022-10-31T13:47:00Z", "2022-10-31T13:50:00Z", "2022-10-31T13:55:00Z", "2022-10-31T13:47:00Z", "2022-10-31T13:45:00Z", "2022-10-31T13:53:00Z", "2022-10-31T13:55:00Z", "2022-10-31T13:40:00Z", "2022-10-31T13:55:00Z", "2022-10-31T13:55:00Z", "2022-10-31T13:55:00Z", "2022-10-31T13:55:00Z", "2022-10-31T13:55:00Z", "2022-10-31T13:53:00Z", "2022-10-31T13:53:00Z", "2022-10-31T13:55:00Z", "2022-10-31T13:53:00Z", "2022-10-31T13:30:00Z", "2022-10-31T13:55:00Z", "2022-10-31T13:55:00Z", "2022-10-31T13:55:00Z", "2022-10-31T13:20:00Z", "2022-10-31T13:35:00Z", "2022-10-31T13:35:00Z", "2022-10-31T13:56:00Z", "2022-10-31T13:51:00Z", "2022-10-31T13:56:00Z", "2022-10-31T13:55:00Z", "2022-10-31T13:53:00Z", "2022-10-31T13:35:00Z", "2022-10-31T13:55:00Z", "2022-10-31T13:56:00Z", "2022-10-31T13:53:00Z", "2022-10-31T13:55:00Z", "2022-10-31T13:55:00Z", "2022-10-31T13:55:00Z", "2022-10-31T13:53:00Z", "2022-10-31T13:55:00Z", "2022-10-31T13:55:00Z", "2022-10-31T13:53:00Z", "2022-10-31T13:55:00Z", "2022-10-31T13:34:00Z", "2022-10-31T13:53:00Z", "2022-10-31T13:52:00Z", "2022-10-31T13:55:00Z", "2022-10-31T13:55:00Z", "2022-10-31T13:53:00Z", "2022-10-31T13:55:00Z", "2022-10-31T13:53:00Z", "2022-10-31T13:53:00Z", "2022-10-31T13:53:00Z", "2022-10-31T13:53:00Z", "2022-10-31T13:55:00Z", "2022-10-31T13:53:00Z", "2022-10-31T13:53:00Z", "2022-10-31T13:53:00Z", "2022-10-31T13:55:00Z", "2022-10-31T13:55:00Z", "2022-10-31T13:55:00Z", "2022-10-31T13:55:00Z", "2022-10-31T13:55:00Z", "2022-10-31T13:55:00Z", "2022-10-31T13:56:00Z", "2022-10-31T13:56:00Z", "2022-10-31T13:55:00Z", "2022-10-31T13:55:00Z", "2022-10-31T13:50:00Z", "2022-10-31T13:55:00Z", "2022-10-31T13:55:00Z", "2022-10-31T13:55:00Z", "2022-10-31T13:53:00Z", "2022-10-31T13:53:00Z", "2022-10-31T13:56:00Z", "2022-10-31T13:35:00Z", "2022-10-31T13:35:00Z", "2022-10-31T13:35:00Z", "2022-10-31T13:53:00Z", "2022-10-31T13:55:00Z", "2022-10-31T13:50:00Z", "2022-10-31T14:00:00Z", "2022-10-31T13:53:00Z", "2022-10-31T13:55:00Z", "2022-10-31T13:52:00Z", "2022-10-31T13:53:00Z", "2022-10-31T12:55:00Z", "2022-10-31T13:55:00Z", "2022-10-31T13:41:00Z", "2022-10-31T13:55:00Z", "2022-10-31T13:51:00Z", "2022-10-31T13:30:00Z", "2022-10-31T13:53:00Z", "2022-10-31T13:55:00Z", "2022-10-31T12:55:00Z", "2022-10-31T13:53:00Z", "2022-10-31T13:53:00Z", "2022-10-31T13:51:00Z", "2022-10-31T13:58:00Z", "2022-10-31T13:53:00Z", "2022-10-31T13:53:00Z", "2022-10-31T13:47:00Z", "2022-10-31T13:52:00Z", "2022-10-31T13:35:00Z", "2022-10-31T13:53:00Z", "2022-10-31T13:53:00Z", "2022-10-31T13:55:00Z", "2022-10-31T13:54:00Z", "2022-10-31T13:53:00Z", "2022-10-31T13:32:00Z", "2022-10-31T13:55:00Z", "2022-10-31T13:50:00Z", "2022-10-31T13:56:00Z", "2022-10-31T13:56:00Z", "2022-10-31T13:53:00Z", "2022-10-31T13:56:00Z", "2022-10-31T13:55:00Z", "2022-10-31T13:55:00Z", "2022-10-31T13:55:00Z", "2022-10-31T13:55:00Z", "2022-10-31T13:55:00Z", "2022-10-31T13:35:00Z", "2022-10-31T13:55:00Z", "2022-10-31T13:53:00Z", "2022-10-31T13:55:00Z", "2022-10-31T13:55:00Z", "2022-10-31T13:55:00Z", "2022-10-31T13:55:00Z", "2022-10-31T13:55:00Z", "2022-10-31T13:55:00Z", "2022-10-31T13:55:00Z", "2022-10-31T13:35:00Z", "2022-10-31T13:55:00Z", "2022-10-31T13:52:00Z", "2022-10-31T13:53:00Z", "2022-10-31T13:53:00Z", "2022-10-31T13:55:00Z", "2022-10-31T13:55:00Z", "2022-10-31T13:53:00Z", "2022-10-31T13:53:00Z", "2022-10-31T13:53:00Z", "2022-10-31T13:55:00Z", "2022-10-31T13:55:00Z", "2022-10-31T13:52:00Z", "2022-10-31T13:55:00Z", "2022-10-31T13:55:00Z", "2022-10-31T13:55:00Z", "2022-10-31T13:51:00Z", "2022-10-31T13:55:00Z", "2022-10-31T13:55:00Z", "2022-10-31T13:52:00Z", "2022-10-31T13:35:00Z", "2022-10-31T13:55:00Z", "2022-10-31T13:55:00Z", "2022-10-31T13:55:00Z", "2022-10-31T13:56:00Z", "2022-10-31T13:51:00Z", "2022-10-31T13:53:00Z", "2022-10-31T13:54:00Z", "2022-10-31T13:53:00Z", "2022-10-31T13:55:00Z", "2022-10-31T13:54:00Z", "2022-10-31T13:54:00Z", "2022-10-31T13:55:00Z", "2022-10-31T13:55:00Z", "2022-10-31T13:53:00Z", "2022-10-31T13:54:00Z", "2022-10-31T13:55:00Z", "2022-10-31T13:54:00Z", "2022-10-31T13:56:00Z", "2022-10-31T13:55:00Z", "2022-10-31T13:52:00Z", "2022-10-31T13:55:00Z", "2022-10-31T13:53:00Z", "2022-10-31T13:54:00Z", "2022-10-31T13:55:00Z", "2022-10-31T13:55:00Z", "2022-10-31T13:56:00Z", "2022-10-31T13:56:00Z", "2022-10-31T13:56:00Z", "2022-10-31T13:55:00Z", "2022-10-31T13:54:00Z", "2022-10-31T13:56:00Z", "2022-10-31T13:53:00Z", "2022-10-31T13:55:00Z", "2022-10-31T13:47:00Z", "2022-10-31T13:56:00Z", "2022-10-31T13:53:00Z", "2022-10-31T13:55:00Z", "2022-10-31T13:53:00Z", "2022-10-31T13:55:00Z", "2022-10-31T13:35:00Z", "2022-10-31T13:54:00Z", "2022-10-31T13:56:00Z", "2022-10-31T13:54:00Z", "2022-10-31T13:55:00Z", "2022-10-31T13:35:00Z", "2022-10-31T13:55:00Z", "2022-10-31T13:56:00Z", "2022-10-31T13:53:00Z", "2022-10-31T13:55:00Z", "2022-10-31T13:51:00Z", "2022-10-31T13:55:00Z", "2022-10-31T13:48:00Z", "2022-10-31T13:53:00Z", "2022-10-31T13:53:00Z", "2022-10-31T13:35:00Z", "2022-10-31T13:51:00Z", "2022-10-31T13:55:00Z", "2022-10-31T13:55:00Z", "2022-10-31T13:55:00Z", "2022-10-31T13:56:00Z", "2022-10-31T12:56:00Z", "2022-10-31T13:55:00Z", "2022-10-31T13:53:00Z", "2022-10-31T13:53:00Z", "2022-10-31T13:55:00Z", "2022-10-31T13:56:00Z", "2022-10-31T13:55:00Z", "2022-10-31T13:55:00Z", "2022-10-31T13:55:00Z", "2022-10-31T13:50:00Z", "2022-10-31T13:55:00Z", "2022-10-31T13:54:00Z", "2022-10-31T13:55:00Z", "2022-10-31T13:55:00Z", "2022-10-31T13:55:00Z", "2022-10-31T13:45:00Z", "2022-10-31T13:55:00Z", "2022-10-31T13:35:00Z", "2022-10-31T13:55:00Z", "2022-10-31T12:50:00Z", "2022-10-31T13:55:00Z", "2022-10-31T13:55:00Z", "2022-10-31T13:56:00Z", "2022-10-31T13:57:00Z", "2022-10-31T13:55:00Z", "2022-10-31T13:55:00Z", "2022-10-31T13:55:00Z", "2022-10-31T13:35:00Z", "2022-10-31T13:55:00Z", "2022-10-31T13:35:00Z", "2022-10-31T13:55:00Z", "2022-10-31T13:55:00Z", "2022-10-31T13:56:00Z", "2022-10-31T13:50:00Z", "2022-10-31T13:55:00Z", "2022-10-31T13:55:00Z", "2022-10-31T13:55:00Z", "2022-10-31T13:55:00Z", "2022-10-31T13:55:00Z", "2022-10-31T13:53:00Z", "2022-10-31T13:54:00Z", "2022-10-31T12:50:00Z", "2022-10-31T13:55:00Z", "2022-10-31T13:53:00Z", "2022-10-31T13:53:00Z", "2022-10-31T13:56:00Z", "2022-10-31T13:53:00Z", "2022-10-31T13:53:00Z", "2022-10-31T13:53:00Z", "2022-10-31T12:50:00Z", "2022-10-31T13:53:00Z", "2022-10-31T13:56:00Z", "2022-10-31T13:55:00Z", "2022-10-31T13:56:00Z", "2022-10-31T13:53:00Z", "2022-10-31T13:55:00Z", "2022-10-31T13:53:00Z", "2022-10-31T13:56:00Z", "2022-10-31T13:55:00Z", "2022-10-31T13:55:00Z", "2022-10-31T13:55:00Z", "2022-10-31T13:55:00Z", "2022-10-31T13:53:00Z", "2022-10-31T13:53:00Z", "2022-10-31T13:56:00Z", "2022-10-31T13:54:00Z", "2022-10-31T13:55:00Z", "2022-10-31T13:53:00Z", "2022-10-31T13:53:00Z", "2022-10-31T13:51:00Z", "2022-10-31T13:53:00Z", "2022-10-31T13:55:00Z", "2022-10-31T13:56:00Z", "2022-10-31T13:55:00Z", "2022-10-31T13:51:00Z", "2022-10-31T13:55:00Z", "2022-10-31T13:55:00Z", "2022-10-31T13:53:00Z", "2022-10-31T13:55:00Z", "2022-10-31T13:53:00Z", "2022-10-31T13:55:00Z", "2022-10-31T13:55:00Z", "2022-10-31T13:53:00Z", "2022-10-31T13:55:00Z", "2022-10-31T13:55:00Z", "2022-10-31T13:55:00Z", "2022-10-31T13:53:00Z", "2022-10-31T13:55:00Z", "2022-10-31T13:53:00Z", "2022-10-31T13:35:00Z", "2022-10-31T13:53:00Z", "2022-10-31T13:55:00Z", "2022-10-31T13:53:00Z", "2022-10-31T13:54:00Z", "2022-10-31T13:55:00Z", "2022-10-31T13:55:00Z", "2022-10-31T13:55:00Z", "2022-10-31T13:55:00Z", "2022-10-31T13:56:00Z", "2022-10-31T13:53:00Z", "2022-10-31T13:53:00Z", "2022-10-31T13:55:00Z", "2022-10-31T13:55:00Z", "2022-10-31T13:35:00Z", "2022-10-31T13:53:00Z", "2022-10-31T13:53:00Z", "2022-10-31T13:56:00Z", "2022-10-31T13:53:00Z", "2022-10-31T13:55:00Z", "2022-10-31T13:56:00Z", "2022-10-31T13:56:00Z", "2022-10-31T13:55:00Z", "2022-10-31T13:55:00Z", "2022-10-31T13:55:00Z", "2022-10-31T13:55:00Z", "2022-10-31T13:53:00Z", "2022-10-31T13:55:00Z", "2022-10-31T13:55:00Z", "2022-10-31T13:55:00Z", "2022-10-31T13:55:00Z", "2022-10-31T13:55:00Z", "2022-10-31T13:55:00Z", "2022-10-31T13:55:00Z", "2022-10-31T13:53:00Z", "2022-10-31T13:55:00Z", "2022-10-31T13:55:00Z", "2022-10-31T13:35:00Z", "2022-10-31T13:55:00Z", "2022-10-31T13:53:00Z", "2022-10-31T13:53:00Z", "2022-10-31T13:55:00Z", "2022-10-31T13:53:00Z", "2022-10-31T13:55:00Z", "2022-10-31T13:53:00Z", "2022-10-31T13:55:00Z", "2022-10-31T13:50:00Z", "2022-10-31T13:52:00Z", "2022-10-31T13:53:00Z", "2022-10-31T13:54:00Z", "2022-10-31T13:56:00Z", "2022-10-31T13:54:00Z", "2022-10-31T13:53:00Z", "2022-10-31T13:55:00Z", "2022-10-31T13:55:00Z", "2022-10-31T13:53:00Z", "2022-10-31T13:53:00Z", "2022-10-31T13:54:00Z", "2022-10-31T13:55:00Z", "2022-10-31T13:55:00Z", "2022-10-31T13:56:00Z", "2022-10-31T13:35:00Z", "2022-10-31T13:55:00Z", "2022-10-31T13:55:00Z", "2022-10-31T13:55:00Z", "2022-10-31T13:55:00Z", "2022-10-31T13:56:00Z", "2022-10-31T13:55:00Z", "2022-10-31T13:55:00Z", "2022-10-31T13:55:00Z", "2022-10-31T13:55:00Z", "2022-10-31T13:50:00Z", "2022-10-31T13:55:00Z", "2022-10-31T13:50:00Z", "2022-10-31T13:53:00Z", "2022-10-31T13:53:00Z", "2022-10-31T13:53:00Z", "2022-10-31T13:55:00Z", "2022-10-31T13:55:00Z", "2022-10-31T13:55:00Z", "2022-10-31T13:52:00Z", "2022-10-31T13:56:00Z", "2022-10-31T13:55:00Z", "2022-10-31T13:53:00Z", "2022-10-31T13:55:00Z", "2022-10-31T13:55:00Z", "2022-10-31T13:53:00Z", "2022-10-31T13:55:00Z", "2022-10-31T13:55:00Z", "2022-10-31T13:53:00Z", "2022-10-31T13:55:00Z", "2022-10-31T13:53:00Z", "2022-10-31T13:55:00Z", "2022-10-31T13:53:00Z", "2022-10-31T13:53:00Z", "2022-10-31T13:53:00Z", "2022-10-31T13:53:00Z", "2022-10-31T13:55:00Z", "2022-10-31T13:56:00Z", "2022-10-31T13:55:00Z", "2022-10-31T13:56:00Z", "2022-10-31T13:53:00Z", "2022-10-31T13:55:00Z", "2022-10-31T13:52:00Z", "2022-10-31T12:56:00Z", "2022-10-31T12:58:00Z", "2022-10-31T13:54:00Z", "2022-10-31T13:55:00Z", "2022-10-31T13:55:00Z", "2022-10-31T13:55:00Z", "2022-10-31T13:52:00Z", "2022-10-31T13:53:00Z", "2022-10-31T13:54:00Z", "2022-10-31T13:53:00Z", "2022-10-31T13:15:00Z", "2022-10-31T13:35:00Z", "2022-10-31T13:55:00Z", "2022-10-31T13:55:00Z", "2022-10-31T13:54:00Z", "2022-10-31T13:53:00Z", "2022-10-31T13:55:00Z", "2022-10-31T13:55:00Z", "2022-10-31T13:53:00Z", "2022-10-31T13:53:00Z", "2022-10-31T13:53:00Z", "2022-10-31T13:52:00Z", "2022-10-31T13:55:00Z", "2022-10-31T13:35:00Z", "2022-10-31T13:55:00Z", "2022-10-31T13:56:00Z", "2022-10-31T13:53:00Z", "2022-10-31T14:00:00Z", "2022-10-31T13:53:00Z", "2022-10-31T13:55:00Z", "2022-10-31T13:53:00Z", "2022-10-31T13:53:00Z", "2022-10-31T13:54:00Z", "2022-10-31T13:53:00Z", "2022-10-31T13:35:00Z", "2022-10-31T13:55:00Z", "2022-10-31T13:54:00Z", "2022-10-31T13:52:00Z", "2022-10-31T13:55:00Z", "2022-10-31T13:55:00Z", "2022-10-31T13:53:00Z", "2022-10-31T13:55:00Z", "2022-10-31T13:53:00Z", "2022-10-31T13:55:00Z", "2022-10-31T13:56:00Z", "2022-10-31T13:56:00Z", "2022-10-31T13:53:00Z", "2022-10-31T13:53:00Z", "2022-10-31T13:35:00Z", "2022-10-31T13:52:00Z", "2022-10-31T13:52:00Z", "2022-10-31T13:55:00Z", "2022-10-31T13:53:00Z", "2022-10-31T13:53:00Z", "2022-10-31T13:53:00Z", "2022-10-31T13:53:00Z", "2022-10-31T13:34:00Z", "2022-10-31T13:55:00Z", "2022-10-31T13:53:00Z", "2022-10-31T13:56:00Z", "2022-10-31T13:55:00Z", "2022-10-31T13:55:00Z", "2022-10-31T13:55:00Z", "2022-10-31T13:55:00Z", "2022-10-31T13:55:00Z", "2022-10-31T13:56:00Z", "2022-10-31T13:55:00Z", "2022-10-31T13:55:00Z", "2022-10-31T13:56:00Z", "2022-10-31T13:53:00Z", "2022-10-31T13:55:00Z", "2022-10-31T13:55:00Z", "2022-10-31T13:54:00Z", "2022-10-31T13:55:00Z", "2022-10-31T13:53:00Z", "2022-10-31T13:55:00Z", "2022-10-31T13:51:00Z", "2022-10-31T13:30:00Z", "2022-10-31T13:38:00Z", "2022-10-31T13:55:00Z", "2022-10-31T13:55:00Z", "2022-10-31T13:55:00Z", "2022-10-31T13:35:00Z", "2022-10-31T13:56:00Z", "2022-10-31T13:53:00Z", "2022-10-31T13:50:00Z", "2022-10-31T13:56:00Z", "2022-10-31T12:58:00Z", "2022-10-31T13:55:00Z", "2022-10-31T13:55:00Z", "2022-10-31T13:55:00Z", "2022-10-31T13:54:00Z", "2022-10-31T13:53:00Z", "2022-10-31T13:53:00Z", "2022-10-31T13:53:00Z", "2022-10-31T13:53:00Z", "2022-10-31T13:53:00Z", "2022-10-31T13:56:00Z", "2022-10-31T13:53:00Z", "2022-10-31T12:56:00Z", "2022-10-31T13:53:00Z", "2022-10-31T13:53:00Z", "2022-10-31T13:40:00Z", "2022-10-31T13:54:00Z", "2022-10-31T13:53:00Z", "2022-10-31T13:54:00Z", "2022-10-31T13:55:00Z", "2022-10-31T13:56:00Z", "2022-10-31T13:55:00Z", "2022-10-31T13:56:00Z", "2022-10-31T13:55:00Z", "2022-10-31T13:55:00Z", "2022-10-31T13:55:00Z", "2022-10-31T13:54:00Z", "2022-10-31T13:56:00Z", "2022-10-31T13:53:00Z", "2022-10-31T13:45:00Z", "2022-10-31T13:45:00Z", "2022-10-31T13:52:00Z", "2022-10-31T13:55:00Z", "2022-10-31T13:53:00Z", "2022-10-31T13:55:00Z", "2022-10-31T13:50:00Z", "2022-10-31T13:55:00Z", "2022-10-31T13:53:00Z", "2022-10-31T13:55:00Z", "2022-10-31T13:53:00Z", "2022-10-31T13:55:00Z", "2022-10-31T13:51:00Z", "2022-10-31T13:55:00Z", "2022-10-31T13:56:00Z", "2022-10-31T13:53:00Z", "2022-10-31T13:30:00Z", "2022-10-31T13:55:00Z", "2022-10-31T13:55:00Z", "2022-10-31T13:55:00Z", "2022-10-31T13:55:00Z", "2022-10-31T13:55:00Z", "2022-10-31T13:52:00Z", "2022-10-31T13:54:00Z", "2022-10-31T13:56:00Z", "2022-10-31T13:55:00Z", "2022-10-31T13:00:00Z", "2022-10-31T13:56:00Z", "2022-10-31T13:56:00Z", "2022-10-31T14:00:00Z", "2022-10-31T13:53:00Z", "2022-10-31T13:56:00Z", "2022-10-31T13:52:00Z", "2022-10-31T13:56:00Z", "2022-10-31T13:52:00Z", "2022-10-31T13:56:00Z", "2022-10-31T13:59:00Z", "2022-10-31T13:52:00Z", "2022-10-31T13:56:00Z", "2022-10-31T13:53:00Z", "2022-10-31T13:56:00Z", "2022-10-31T13:57:00Z", "2022-10-31T12:57:00Z", "2022-10-31T13:56:00Z", "2022-10-31T13:55:00Z", "2022-10-31T13:56:00Z", "2022-10-31T13:56:00Z", "2022-10-31T13:56:00Z", "2022-10-31T13:35:00Z", "2022-10-31T13:59:00Z", "2022-10-31T13:56:00Z", "2022-10-31T13:59:00Z", "2022-10-31T13:56:00Z", "2022-10-31T12:53:00Z", "2022-10-31T13:52:00Z", "2022-10-31T13:35:00Z", "2022-10-31T13:53:00Z", "2022-10-31T13:56:00Z", "2022-10-31T13:53:00Z", "2022-10-31T13:55:00Z", "2022-10-31T13:56:00Z", "2022-10-31T13:56:00Z", "2022-10-31T13:53:00Z", "2022-10-31T13:55:00Z", "2022-10-31T13:53:00Z", "2022-10-31T13:56:00Z", "2022-10-31T13:56:00Z", "2022-10-31T13:34:00Z", "2022-10-31T13:51:00Z", "2022-10-31T13:56:00Z", "2022-10-31T13:57:00Z", "2022-10-31T13:52:00Z", "2022-10-31T13:55:00Z", "2022-10-31T13:55:00Z", "2022-10-31T13:55:00Z", "2022-10-31T13:55:00Z", "2022-10-31T13:56:00Z", "2022-10-31T13:53:00Z", "2022-10-31T13:55:00Z", "2022-10-31T13:35:00Z", "2022-10-31T13:51:00Z", "2022-10-31T13:56:00Z", "2022-10-31T13:55:00Z", "2022-10-31T13:35:00Z", "2022-10-31T13:53:00Z", "2022-10-31T13:53:00Z", "2022-10-31T13:55:00Z", "2022-10-31T13:55:00Z", "2022-10-31T13:55:00Z", "2022-10-31T13:55:00Z", "2022-10-31T13:56:00Z", "2022-10-31T13:54:00Z", "2022-10-31T13:55:00Z", "2022-10-31T13:53:00Z", "2022-10-31T13:53:00Z", "2022-10-31T13:55:00Z", "2022-10-31T13:55:00Z", "2022-10-31T13:55:00Z", "2022-10-31T13:55:00Z", "2022-10-31T13:53:00Z", "2022-10-31T13:52:00Z", "2022-10-31T13:52:00Z", "2022-10-31T13:56:00Z", "2022-10-31T13:55:00Z", "2022-10-31T13:55:00Z", "2022-10-31T13:55:00Z", "2022-10-31T13:55:00Z", "2022-10-31T13:53:00Z", "2022-10-31T13:55:00Z", "2022-10-31T13:54:00Z", "2022-10-31T13:56:00Z", "2022-10-31T13:50:00Z", "2022-10-31T13:55:00Z", "2022-10-31T13:55:00Z", "2022-10-31T13:52:00Z", "2022-10-31T13:55:00Z", "2022-10-31T13:53:00Z", "2022-10-31T13:50:00Z", "2022-10-31T13:35:00Z", "2022-10-31T13:55:00Z", "2022-10-31T13:55:00Z", "2022-10-31T13:53:00Z", "2022-10-31T13:55:00Z", "2022-10-31T13:53:00Z", "2022-10-31T13:55:00Z", "2022-10-31T13:55:00Z", "2022-10-31T13:55:00Z", "2022-10-31T13:53:00Z", "2022-10-31T13:55:00Z", "2022-10-31T13:55:00Z", "2022-10-31T13:55:00Z", "2022-10-31T13:53:00Z", "2022-10-31T13:53:00Z", "2022-10-31T13:51:00Z", "2022-10-31T13:52:00Z", "2022-10-31T13:51:00Z", "2022-10-31T13:35:00Z", "2022-10-31T13:54:00Z", "2022-10-31T13:53:00Z", "2022-10-31T13:55:00Z", "2022-10-31T13:55:00Z", "2022-10-31T13:55:00Z", "2022-10-31T13:53:00Z", "2022-10-31T13:53:00Z", "2022-10-31T13:56:00Z", "2022-10-31T13:56:00Z", "2022-10-31T13:53:00Z", "2022-10-31T13:48:00Z", "2022-10-31T13:53:00Z", "2022-10-31T13:55:00Z", "2022-10-31T13:53:00Z", "2022-10-31T13:53:00Z", "2022-10-31T13:56:00Z", "2022-10-31T13:53:00Z", "2022-10-31T13:55:00Z", "2022-10-31T13:35:00Z", "2022-10-31T12:53:00Z", "2022-10-31T13:51:00Z", "2022-10-31T13:55:00Z", "2022-10-31T13:55:00Z", "2022-10-31T13:51:00Z", "2022-10-31T13:55:00Z", "2022-10-31T13:55:00Z", "2022-10-31T13:35:00Z", "2022-10-31T13:55:00Z", "2022-10-31T13:55:00Z", "2022-10-31T13:55:00Z", "2022-10-31T13:55:00Z", "2022-10-31T13:56:00Z", "2022-10-31T13:56:00Z", "2022-10-31T13:55:00Z", "2022-10-31T13:51:00Z", "2022-10-31T13:56:00Z", "2022-10-31T13:53:00Z", "2022-10-31T13:52:00Z", "2022-10-31T13:59:00Z", "2022-10-31T13:53:00Z", "2022-10-31T13:53:00Z", "2022-10-31T13:55:00Z", "2022-10-31T13:55:00Z", "2022-10-31T13:47:00Z", "2022-10-31T13:53:00Z", "2022-10-31T13:53:00Z", "2022-10-31T13:55:00Z", "2022-10-31T13:53:00Z", "2022-10-31T13:55:00Z", "2022-10-31T13:55:00Z", "2022-10-31T13:55:00Z", "2022-10-31T13:55:00Z", "2022-10-31T13:55:00Z", "2022-10-31T13:55:00Z", "2022-10-31T13:53:00Z", "2022-10-31T13:53:00Z", "2022-10-31T13:53:00Z", "2022-10-31T13:55:00Z", "2022-10-31T13:53:00Z", "2022-10-31T13:55:00Z", "2022-10-31T13:55:00Z", "2022-10-31T13:55:00Z", "2022-10-31T13:53:00Z", "2022-10-31T13:55:00Z", "2022-10-31T13:53:00Z", "2022-10-31T13:54:00Z", "2022-10-31T13:54:00Z", "2022-10-31T13:55:00Z", "2022-10-31T13:55:00Z", "2022-10-31T13:55:00Z", "2022-10-31T13:51:00Z", "2022-10-31T13:54:00Z", "2022-10-31T13:56:00Z", "2022-10-31T13:53:00Z", "2022-10-31T13:53:00Z", "2022-10-31T13:53:00Z", "2022-10-31T13:55:00Z", "2022-10-31T12:53:00Z", "2022-10-31T13:51:00Z", "2022-10-31T13:53:00Z", "2022-10-31T13:53:00Z", "2022-10-31T13:55:00Z", "2022-10-31T13:54:00Z", "2022-10-31T13:55:00Z", "2022-10-31T13:55:00Z", "2022-10-31T13:53:00Z", "2022-10-31T13:55:00Z", "2022-10-31T13:53:00Z", "2022-10-31T13:55:00Z", "2022-10-31T13:55:00Z", "2022-10-31T13:55:00Z", "2022-10-31T13:53:00Z", "2022-10-31T13:54:00Z", "2022-10-31T13:55:00Z", "2022-10-31T13:53:00Z", "2022-10-31T13:35:00Z", "2022-10-31T13:55:00Z", "2022-10-31T13:47:00Z", "2022-10-31T13:55:00Z", "2022-10-31T13:53:00Z", "2022-10-31T13:53:00Z", "2022-10-31T13:55:00Z", "2022-10-31T13:55:00Z", "2022-10-31T13:35:00Z", "2022-10-31T13:52:00Z", "2022-10-31T13:55:00Z", "2022-10-31T13:55:00Z", "2022-10-31T13:56:00Z", "2022-10-31T13:53:00Z", "2022-10-31T13:53:00Z", "2022-10-31T13:53:00Z", "2022-10-31T13:55:00Z", "2022-10-31T13:22:00Z", "2022-10-31T13:55:00Z", "2022-10-31T13:55:00Z", "2022-10-31T13:56:00Z", "2022-10-31T13:53:00Z", "2022-10-31T13:54:00Z", "2022-10-31T13:35:00Z", "2022-10-31T13:55:00Z", "2022-10-31T13:35:00Z", "2022-10-31T13:55:00Z", "2022-10-31T13:53:00Z", "2022-10-31T13:53:00Z", "2022-10-31T13:55:00Z", "2022-10-31T13:55:00Z", "2022-10-31T13:53:00Z", "2022-10-31T13:56:00Z", "2022-10-31T13:55:00Z", "2022-10-31T13:35:00Z", "2022-10-31T13:56:00Z", "2022-10-31T13:54:00Z", "2022-10-31T13:53:00Z", "2022-10-31T13:53:00Z", "2022-10-31T13:55:00Z", "2022-10-31T13:53:00Z", "2022-10-31T13:55:00Z", "2022-10-31T13:56:00Z", "2022-10-31T13:51:00Z", "2022-10-31T13:55:00Z", "2022-10-31T13:56:00Z", "2022-10-31T13:55:00Z", "2022-10-31T13:56:00Z", "2022-10-31T13:30:00Z", "2022-10-31T13:53:00Z", "2022-10-31T13:55:00Z", "2022-10-31T13:55:00Z", "2022-10-31T13:56:00Z", "2022-10-31T13:52:00Z", "2022-10-31T13:51:00Z", "2022-10-31T13:56:00Z", "2022-10-31T13:35:00Z", "2022-10-31T13:52:00Z", "2022-10-31T13:55:00Z", "2022-10-31T13:55:00Z", "2022-10-31T13:55:00Z", "2022-10-31T13:55:00Z", "2022-10-31T13:55:00Z", "2022-10-31T13:55:00Z", "2022-10-31T13:55:00Z", "2022-10-31T13:50:00Z", "2022-10-31T13:50:00Z", "2022-10-31T14:00:00Z", "2022-10-31T14:00:00Z", "2022-10-31T14:00:00Z", "2022-10-31T13:50:00Z", "2022-10-31T13:50:00Z", "2022-10-31T14:00:00Z", "2022-10-31T13:40:00Z", "2022-10-31T13:50:00Z", "2022-10-31T13:50:00Z", "2022-10-31T13:50:00Z", "2022-10-31T14:00:00Z", "2022-10-31T14:00:00Z", "2022-10-31T13:50:00Z", "2022-10-31T14:00:00Z", "2022-10-31T13:55:00Z", "2022-10-31T13:55:00Z", "2022-10-31T13:55:00Z", "2022-10-31T12:55:00Z", "2022-10-31T13:55:00Z", "2022-10-31T13:53:00Z", "2022-10-31T13:53:00Z", "2022-10-31T13:52:00Z", "2022-10-31T13:55:00Z", "2022-10-31T13:55:00Z", "2022-10-31T13:53:00Z", "2022-10-31T13:53:00Z", "2022-10-31T13:54:00Z", "2022-10-31T13:35:00Z", "2022-10-31T13:35:00Z", "2022-10-31T13:55:00Z", "2022-10-31T13:55:00Z", "2022-10-31T13:55:00Z", "2022-10-31T13:35:00Z", "2022-10-31T13:55:00Z", "2022-10-31T13:55:00Z", "2022-10-31T13:55:00Z", "2022-10-31T13:53:00Z", "2022-10-31T13:54:00Z", "2022-10-31T13:55:00Z", "2022-10-31T13:56:00Z", "2022-10-31T13:55:00Z", "2022-10-31T13:51:00Z", "2022-10-31T13:55:00Z", "2022-10-31T13:52:00Z", "2022-10-31T13:54:00Z", "2022-10-31T13:55:00Z", "2022-10-31T13:38:00Z", "2022-10-31T13:55:00Z", "2022-10-31T13:53:00Z", "2022-10-31T13:55:00Z", "2022-10-31T13:47:00Z", "2022-10-31T13:54:00Z", "2022-10-31T13:53:00Z", "2022-10-31T13:55:00Z", "2022-10-31T13:53:00Z", "2022-10-31T13:53:00Z", "2022-10-31T13:55:00Z", "2022-10-31T13:54:00Z", "2022-10-31T13:55:00Z", "2022-10-31T13:55:00Z", "2022-10-31T13:53:00Z", "2022-10-31T13:53:00Z", "2022-10-31T13:55:00Z", "2022-10-31T13:55:00Z", "2022-10-31T13:55:00Z", "2022-10-31T13:55:00Z", "2022-10-31T13:55:00Z", "2022-10-31T13:53:00Z", "2022-10-31T13:55:00Z", "2022-10-31T13:55:00Z", "2022-10-31T13:53:00Z", "2022-10-31T13:55:00Z", "2022-10-31T13:54:00Z", "2022-10-31T13:54:00Z", "2022-10-31T13:58:00Z", "2022-10-31T13:43:00Z", "2022-10-31T13:51:00Z", "2022-10-31T13:55:00Z", "2022-10-31T13:55:00Z", "2022-10-31T13:55:00Z", "2022-10-31T13:55:00Z", "2022-10-31T12:53:00Z", "2022-10-31T13:55:00Z", "2022-10-31T13:53:00Z", "2022-10-31T13:55:00Z", "2022-10-31T13:55:00Z", "2022-10-31T13:53:00Z", "2022-10-31T13:55:00Z", "2022-10-31T13:54:00Z", "2022-10-31T13:55:00Z", "2022-10-31T13:53:00Z", "2022-10-31T13:53:00Z", "2022-10-31T13:55:00Z", "2022-10-31T13:53:00Z", "2022-10-31T13:55:00Z", "2022-10-31T13:55:00Z", "2022-10-31T13:56:00Z", "2022-10-31T13:55:00Z", "2022-10-31T13:55:00Z", "2022-10-31T13:55:00Z", "2022-10-31T13:53:00Z", "2022-10-31T13:53:00Z", "2022-10-31T13:53:00Z", "2022-10-31T13:53:00Z", "2022-10-31T13:55:00Z", "2022-10-31T13:53:00Z", "2022-10-31T13:55:00Z", "2022-10-31T13:55:00Z", "2022-10-31T13:55:00Z", "2022-10-31T13:50:00Z", "2022-10-31T13:55:00Z", "2022-10-31T13:55:00Z", "2022-10-31T13:55:00Z", "2022-10-31T13:55:00Z", "2022-10-31T13:55:00Z", "2022-10-31T13:55:00Z", "2022-10-31T13:55:00Z", "2022-10-31T13:55:00Z", "2022-10-31T12:55:00Z", "2022-10-31T13:55:00Z", "2022-10-31T13:55:00Z", "2022-10-31T14:00:00Z", "2022-10-31T13:55:00Z", "2022-10-31T13:55:00Z", "2022-10-31T13:53:00Z", "2022-10-31T13:51:00Z", "2022-10-31T13:53:00Z", "2022-10-31T13:51:00Z", "2022-10-31T13:55:00Z", "2022-10-31T13:51:00Z", "2022-10-31T13:53:00Z", "2022-10-31T13:47:00Z", "2022-10-31T13:55:00Z", "2022-10-31T13:53:00Z", "2022-10-31T14:00:00Z", "2022-10-31T13:53:00Z", "2022-10-31T13:54:00Z", "2022-10-31T13:55:00Z", "2022-10-31T13:56:00Z", "2022-10-31T13:55:00Z", "2022-10-31T13:54:00Z", "2022-10-31T13:55:00Z", "2022-10-31T13:55:00Z", "2022-10-31T13:55:00Z", "2022-10-31T13:55:00Z", "2022-10-31T13:53:00Z", "2022-10-31T13:55:00Z", "2022-10-31T13:56:00Z", "2022-10-31T13:53:00Z", "2022-10-31T13:53:00Z", "2022-10-31T13:56:00Z", "2022-10-31T13:53:00Z", "2022-10-31T13:47:00Z", "2022-10-31T13:53:00Z", "2022-10-31T13:55:00Z", "2022-10-31T13:55:00Z", "2022-10-31T13:55:00Z", "2022-10-31T13:54:00Z", "2022-10-31T13:55:00Z", "2022-10-31T13:53:00Z", "2022-10-31T13:53:00Z", "2022-10-31T13:56:00Z", "2022-10-31T13:56:00Z", "2022-10-31T13:55:00Z", "2022-10-31T13:43:00Z", "2022-10-31T13:56:00Z", "2022-10-31T13:52:00Z", "2022-10-31T13:56:00Z", "2022-10-31T13:56:00Z", "2022-10-31T13:53:00Z", "2022-10-31T13:55:00Z", "2022-10-31T13:56:00Z", "2022-10-31T13:56:00Z", "2022-10-31T13:55:00Z", "2022-10-31T13:55:00Z", "2022-10-31T13:53:00Z", "2022-10-31T13:53:00Z", "2022-10-31T13:56:00Z", "2022-10-31T13:55:00Z", "2022-10-31T13:55:00Z", "2022-10-31T13:53:00Z", "2022-10-31T13:53:00Z", "2022-10-31T13:55:00Z", "2022-10-31T13:51:00Z", "2022-10-31T13:55:00Z", "2022-10-31T13:55:00Z", "2022-10-31T13:55:00Z", "2022-10-31T13:56:00Z", "2022-10-31T13:55:00Z", "2022-10-31T13:54:00Z", "2022-10-31T13:56:00Z", "2022-10-31T13:56:00Z", "2022-10-31T13:55:00Z", "2022-10-31T13:55:00Z", "2022-10-31T13:51:00Z", "2022-10-31T13:53:00Z", "2022-10-31T13:55:00Z", "2022-10-31T13:35:00Z", "2022-10-31T13:55:00Z", "2022-10-31T13:53:00Z", "2022-10-31T13:56:00Z", "2022-10-31T13:51:00Z", "2022-10-31T13:56:00Z", "2022-10-31T13:53:00Z", "2022-10-31T13:55:00Z", "2022-10-31T13:51:00Z", "2022-10-31T13:53:00Z", "2022-10-31T13:55:00Z", "2022-10-31T13:55:00Z", "2022-10-31T13:55:00Z", "2022-10-31T13:35:00Z", "2022-10-31T13:53:00Z", "2022-10-31T13:51:00Z", "2022-10-31T13:53:00Z", "2022-10-31T13:55:00Z", "2022-10-31T13:56:00Z", "2022-10-31T13:55:00Z", "2022-10-31T13:55:00Z", "2022-10-31T13:53:00Z", "2022-10-31T13:56:00Z", "2022-10-31T13:55:00Z", "2022-10-31T13:53:00Z", "2022-10-31T13:52:00Z", "2022-10-31T13:52:00Z", "2022-10-31T13:53:00Z", "2022-10-31T13:56:00Z", "2022-10-31T13:55:00Z", "2022-10-31T13:55:00Z", "2022-10-31T13:56:00Z", "2022-10-31T13:55:00Z", "2022-10-31T13:53:00Z", "2022-10-31T13:55:00Z", "2022-10-31T13:55:00Z", "2022-10-31T13:53:00Z", "2022-10-31T13:53:00Z", "2022-10-31T13:53:00Z", "2022-10-31T13:55:00Z", "2022-10-31T13:55:00Z", "2022-10-31T13:53:00Z", "2022-10-31T13:55:00Z", "2022-10-31T13:51:00Z", "2022-10-31T13:53:00Z", "2022-10-31T13:53:00Z", "2022-10-31T13:47:00Z", "2022-10-31T13:56:00Z", "2022-10-31T13:52:00Z", "2022-10-31T13:54:00Z", "2022-10-31T13:55:00Z", "2022-10-31T12:55:00Z", "2022-10-31T13:55:00Z", "2022-10-31T13:52:00Z", "2022-10-31T13:55:00Z", "2022-10-31T13:55:00Z", "2022-10-31T13:55:00Z", "2022-10-31T13:55:00Z", "2022-10-31T13:25:00Z", "2022-10-31T13:45:00Z", "2022-10-31T13:53:00Z", "2022-10-31T13:55:00Z", "2022-10-31T13:55:00Z", "2022-10-31T13:55:00Z", "2022-10-31T13:56:00Z", "2022-10-31T13:55:00Z", "2022-10-31T13:55:00Z", "2022-10-31T13:55:00Z", "2022-10-31T13:55:00Z", "2022-10-31T13:55:00Z", "2022-10-31T13:54:00Z", "2022-10-31T13:55:00Z", "2022-10-31T13:55:00Z", "2022-10-31T13:55:00Z", "2022-10-31T13:35:00Z", "2022-10-31T13:55:00Z", "2022-10-31T13:55:00Z", "2022-10-31T13:55:00Z", "2022-10-31T13:55:00Z", "2022-10-31T13:55:00Z", "2022-10-31T13:55:00Z", "2022-10-31T13:55:00Z", "2022-10-31T13:55:00Z", "2022-10-31T13:54:00Z", "2022-10-31T13:52:00Z", "2022-10-31T13:35:00Z", "2022-10-31T13:55:00Z", "2022-10-31T13:35:00Z", "2022-10-31T13:35:00Z", "2022-10-31T13:53:00Z", "2022-10-31T13:53:00Z", "2022-10-31T13:55:00Z", "2022-10-31T13:53:00Z", "2022-10-31T13:55:00Z", "2022-10-31T13:55:00Z", "2022-10-31T13:55:00Z", "2022-10-31T13:53:00Z", "2022-10-31T13:51:00Z", "2022-10-31T13:55:00Z", "2022-10-31T13:55:00Z", "2022-10-31T13:15:00Z", "2022-10-31T13:55:00Z", "2022-10-31T12:55:00Z", "2022-10-31T13:53:00Z", "2022-10-31T13:55:00Z", "2022-10-31T13:55:00Z", "2022-10-31T13:55:00Z", "2022-10-31T13:53:00Z", "2022-10-31T13:47:00Z", "2022-10-31T13:55:00Z", "2022-10-31T13:53:00Z", "2022-10-31T13:55:00Z", "2022-10-31T13:55:00Z", "2022-10-31T13:53:00Z", "2022-10-31T13:53:00Z", "2022-10-31T13:55:00Z", "2022-10-31T13:35:00Z", "2022-10-31T13:55:00Z", "2022-10-31T13:30:00Z", "2022-10-31T13:55:00Z", "2022-10-31T13:55:00Z", "2022-10-31T13:35:00Z", "2022-10-31T13:53:00Z", "2022-10-31T13:52:00Z", "2022-10-31T13:53:00Z", "2022-10-31T13:53:00Z", "2022-10-31T13:53:00Z", "2022-10-31T13:56:00Z", "2022-10-31T13:51:00Z", "2022-10-31T13:54:00Z", "2022-10-31T13:55:00Z", "2022-10-31T13:35:00Z", "2022-10-31T13:55:00Z", "2022-10-31T13:53:00Z", "2022-10-31T13:45:00Z", "2022-10-31T13:53:00Z", "2022-10-31T13:52:00Z", "2022-10-31T13:55:00Z", "2022-10-31T13:55:00Z", "2022-10-31T13:53:00Z", "2022-10-31T13:55:00Z", "2022-10-31T13:53:00Z", "2022-10-31T13:55:00Z", "2022-10-31T13:53:00Z", "2022-10-31T13:53:00Z", "2022-10-31T13:53:00Z", "2022-10-31T13:53:00Z", "2022-10-31T13:56:00Z", "2022-10-31T13:35:00Z", "2022-10-31T13:53:00Z", "2022-10-31T13:53:00Z", "2022-10-31T13:55:00Z", "2022-10-31T13:53:00Z", "2022-10-31T13:55:00Z", "2022-10-31T13:55:00Z", "2022-10-31T13:53:00Z", "2022-10-31T13:30:00Z", "2022-10-31T13:55:00Z", "2022-10-31T13:55:00Z", "2022-10-31T13:53:00Z", "2022-10-31T13:53:00Z", "2022-10-31T13:45:00Z", "2022-10-31T13:55:00Z", "2022-10-31T13:55:00Z", "2022-10-31T13:55:00Z", "2022-10-31T13:53:00Z", "2022-10-31T13:55:00Z", "2022-10-31T13:56:00Z", "2022-10-31T13:55:00Z", "2022-10-31T13:56:00Z", "2022-10-31T13:45:00Z", "2022-10-31T13:55:00Z", "2022-10-31T13:53:00Z", "2022-10-31T13:50:00Z", "2022-10-31T13:35:00Z", "2022-10-31T13:56:00Z", "2022-10-31T13:35:00Z", "2022-10-31T13:55:00Z", "2022-10-31T13:55:00Z", "2022-10-31T13:35:00Z", "2022-10-31T13:55:00Z", "2022-10-31T13:55:00Z", "2022-10-31T13:53:00Z", "2022-10-31T13:55:00Z", "2022-10-31T13:53:00Z", "2022-10-31T13:55:00Z", "2022-10-31T13:55:00Z", "2022-10-31T13:55:00Z", "2022-10-31T13:53:00Z", "2022-10-31T13:53:00Z", "2022-10-31T13:55:00Z", "2022-10-31T13:55:00Z", "2022-10-31T13:35:00Z", "2022-10-31T13:54:00Z", "2022-10-31T13:55:00Z", "2022-10-31T13:55:00Z", "2022-10-31T13:54:00Z", "2022-10-31T12:55:00Z", "2022-10-31T13:56:00Z", "2022-10-31T13:53:00Z", "2022-10-31T13:51:00Z", "2022-10-31T13:55:00Z", "2022-10-31T13:55:00Z", "2022-10-31T13:35:00Z", "2022-10-31T13:53:00Z", "2022-10-31T13:55:00Z", "2022-10-31T13:35:00Z", "2022-10-31T13:55:00Z", "2022-10-31T13:53:00Z", "2022-10-31T13:55:00Z", "2022-10-31T13:53:00Z", "2022-10-31T13:56:00Z", "2022-10-31T13:55:00Z", "2022-10-31T13:35:00Z", "2022-10-31T13:53:00Z", "2022-10-31T13:55:00Z", "2022-10-31T13:55:00Z", "2022-10-31T13:51:00Z", "2022-10-31T14:00:00Z", "2022-10-31T13:55:00Z", "2022-10-31T13:35:00Z", "2022-10-31T13:55:00Z", "2022-10-31T13:56:00Z", "2022-10-31T13:50:00Z", "2022-10-31T13:53:00Z", "2022-10-31T13:54:00Z", "2022-10-31T13:54:00Z", "2022-10-31T13:55:00Z", "2022-10-31T13:52:00Z", "2022-10-31T13:55:00Z", "2022-10-31T13:35:00Z", "2022-10-31T13:53:00Z", "2022-10-31T13:55:00Z", "2022-10-31T13:55:00Z", "2022-10-31T13:55:00Z", "2022-10-31T13:55:00Z", "2022-10-31T13:55:00Z", "2022-10-31T13:55:00Z", "2022-10-31T13:35:00Z", "2022-10-31T13:55:00Z", "2022-10-31T13:35:00Z", "2022-10-31T13:55:00Z", "2022-10-31T13:55:00Z", "2022-10-31T13:55:00Z", "2022-10-31T13:55:00Z", "2022-10-31T13:55:00Z", "2022-10-31T13:42:00Z", "2022-10-31T13:54:00Z", "2022-10-31T13:55:00Z", "2022-10-31T13:50:00Z", "2022-10-31T13:55:00Z", "2022-10-31T13:56:00Z", "2022-10-31T13:54:00Z", "2022-10-31T13:56:00Z", "2022-10-31T13:55:00Z", "2022-10-31T13:55:00Z", "2022-10-31T13:53:00Z", "2022-10-31T13:53:00Z", "2022-10-31T13:53:00Z", "2022-10-31T13:56:00Z", "2022-10-31T13:56:00Z", "2022-10-31T13:35:00Z", "2022-10-31T13:55:00Z", "2022-10-31T13:35:00Z", "2022-10-31T13:55:00Z", "2022-10-31T13:35:00Z", "2022-10-31T13:35:00Z", "2022-10-31T13:55:00Z", "2022-10-31T13:55:00Z", "2022-10-31T13:55:00Z", "2022-10-31T13:53:00Z", "2022-10-31T13:55:00Z", "2022-10-31T13:55:00Z", "2022-10-31T13:55:00Z", "2022-10-31T13:53:00Z", "2022-10-31T13:51:00Z", "2022-10-31T13:55:00Z", "2022-10-31T13:55:00Z", "2022-10-31T13:55:00Z", "2022-10-31T13:55:00Z", "2022-10-31T13:56:00Z", "2022-10-31T13:55:00Z", "2022-10-31T13:55:00Z", "2022-10-31T13:55:00Z", "2022-10-31T13:53:00Z", "2022-10-31T13:53:00Z", "2022-10-31T13:56:00Z", "2022-10-31T13:51:00Z", "2022-10-31T13:55:00Z", "2022-10-31T13:55:00Z", "2022-10-31T13:53:00Z", "2022-10-31T13:50:00Z", "2022-10-31T14:00:00Z", "2022-10-31T14:00:00Z", "2022-10-31T14:00:00Z", "2022-10-31T14:00:00Z", "2022-10-31T14:00:00Z", "2022-10-31T14:00:00Z", "2022-10-31T14:00:00Z", "2022-10-31T14:00:00Z", "2022-10-31T14:00:00Z", "2022-10-31T13:50:00Z", "2022-10-31T13:30:00Z", "2022-10-31T13:30:00Z", "2022-10-31T13:50:00Z", "2022-10-31T14:00:00Z", "2022-10-31T14:00:00Z", "2022-10-31T14:00:00Z", "2022-10-31T14:00:00Z", "2022-10-31T14:00:00Z", "2022-10-31T14:00:00Z", "2022-10-31T14:00:00Z", "2022-10-31T13:30:00Z", "2022-10-31T13:30:00Z", "2022-10-31T13:30:00Z", "2022-10-31T13:30:00Z", "2022-10-31T13:30:00Z", "2022-10-31T13:30:00Z", "2022-10-31T13:30:00Z", "2022-10-31T13:30:00Z", "2022-10-31T13:30:00Z", "2022-10-31T13:30:00Z", "2022-10-31T13:30:00Z", "2022-10-31T13:30:00Z", "2022-10-31T13:30:00Z", "2022-10-31T13:30:00Z", "2022-10-31T13:30:00Z", "2022-10-31T13:30:00Z", "2022-10-31T13:30:00Z", "2022-10-31T13:30:00Z", "2022-10-31T13:30:00Z", "2022-10-31T13:30:00Z", "2022-10-31T13:30:00Z", "2022-10-31T13:30:00Z", "2022-10-31T13:30:00Z", "2022-10-31T13:30:00Z", "2022-10-31T14:00:00Z", "2022-10-31T13:30:00Z", "2022-10-31T13:30:00Z", "2022-10-31T13:30:00Z", "2022-10-31T13:30:00Z", "2022-10-31T13:30:00Z", "2022-10-31T13:30:00Z", "2022-10-31T13:30:00Z", "2022-10-31T13:30:00Z", "2022-10-31T14:00:00Z", "2022-10-31T13:30:00Z", "2022-10-31T13:30:00Z", "2022-10-31T13:30:00Z", "2022-10-31T13:30:00Z", "2022-10-31T13:30:00Z", "2022-10-31T13:30:00Z", "2022-10-31T13:30:00Z", "2022-10-31T13:30:00Z", "2022-10-31T13:30:00Z", "2022-10-31T13:30:00Z", "2022-10-31T13:30:00Z", "2022-10-31T13:30:00Z", "2022-10-31T13:30:00Z", "2022-10-31T13:30:00Z", "2022-10-31T13:30:00Z", "2022-10-31T13:30:00Z", "2022-10-31T13:30:00Z", "2022-10-31T13:30:00Z", "2022-10-31T13:30:00Z", "2022-10-31T13:30:00Z", "2022-10-31T13:30:00Z", "2022-10-31T13:30:00Z", "2022-10-31T13:30:00Z", "2022-10-31T13:30:00Z", "2022-10-31T13:30:00Z", "2022-10-31T13:30:00Z", "2022-10-31T13:30:00Z", "2022-10-31T13:30:00Z", "2022-10-31T13:30:00Z", "2022-10-31T13:30:00Z", "2022-10-31T13:30:00Z", "2022-10-31T13:30:00Z", "2022-10-31T13:30:00Z", "2022-10-31T13:30:00Z", "2022-10-31T13:30:00Z", "2022-10-31T13:30:00Z", "2022-10-31T13:30:00Z", "2022-10-31T13:30:00Z", "2022-10-31T13:30:00Z", "2022-10-31T13:30:00Z", "2022-10-31T13:30:00Z", "2022-10-31T13:30:00Z", "2022-10-31T13:30:00Z", "2022-10-31T13:30:00Z", "2022-10-31T13:30:00Z", "2022-10-31T13:30:00Z", "2022-10-31T13:30:00Z", "2022-10-31T13:30:00Z", "2022-10-31T13:30:00Z", "2022-10-31T13:30:00Z", "2022-10-31T13:30:00Z", "2022-10-31T13:30:00Z", "2022-10-31T13:30:00Z", "2022-10-31T13:30:00Z", "2022-10-31T13:30:00Z", "2022-10-31T13:30:00Z", "2022-10-31T13:30:00Z", "2022-10-31T13:30:00Z", "2022-10-31T13:30:00Z", "2022-10-31T13:30:00Z", "2022-10-31T13:30:00Z", "2022-10-31T13:30:00Z", "2022-10-31T13:30:00Z", "2022-10-31T13:30:00Z", "2022-10-31T13:30:00Z", "2022-10-31T13:30:00Z", "2022-10-31T13:30:00Z", "2022-10-31T13:30:00Z", "2022-10-31T13:30:00Z", "2022-10-31T13:30:00Z", "2022-10-31T13:30:00Z", "2022-10-31T13:30:00Z", "2022-10-31T13:30:00Z", "2022-10-31T13:30:00Z", "2022-10-31T13:30:00Z", "2022-10-31T13:30:00Z", "2022-10-31T13:30:00Z", "2022-10-31T13:30:00Z", "2022-10-31T13:30:00Z", "2022-10-31T13:30:00Z", "2022-10-31T13:30:00Z", "2022-10-31T13:30:00Z", "2022-10-31T13:30:00Z", "2022-10-31T13:30:00Z", "2022-10-31T13:30:00Z", "2022-10-31T13:30:00Z", "2022-10-31T13:30:00Z", "2022-10-31T13:30:00Z", "2022-10-31T13:30:00Z", "2022-10-31T13:30:00Z", "2022-10-31T13:30:00Z", "2022-10-31T13:30:00Z", "2022-10-31T13:30:00Z", "2022-10-31T13:30:00Z", "2022-10-31T13:30:00Z", "2022-10-31T13:30:00Z", "2022-10-31T13:30:00Z", "2022-10-31T13:30:00Z", "2022-10-31T13:30:00Z", "2022-10-31T13:30:00Z", "2022-10-31T13:30:00Z", "2022-10-31T13:30:00Z", "2022-10-31T13:30:00Z", "2022-10-31T13:30:00Z", "2022-10-31T13:30:00Z", "2022-10-31T13:30:00Z", "2022-10-31T13:30:00Z", "2022-10-31T13:30:00Z", "2022-10-31T13:30:00Z", "2022-10-31T13:30:00Z", "2022-10-31T13:30:00Z", "2022-10-31T13:30:00Z", "2022-10-31T13:30:00Z", "2022-10-31T13:30:00Z", "2022-10-31T13:30:00Z", "2022-10-31T13:30:00Z", "2022-10-31T13:30:00Z", "2022-10-31T13:30:00Z", "2022-10-31T13:30:00Z", "2022-10-31T13:30:00Z", "2022-10-31T13:30:00Z", "2022-10-31T13:30:00Z", "2022-10-31T13:30:00Z", "2022-10-31T13:30:00Z", "2022-10-31T13:30:00Z", "2022-10-31T13:30:00Z", "2022-10-31T13:30:00Z", "2022-10-31T13:30:00Z", "2022-10-31T13:30:00Z", "2022-10-31T13:30:00Z", "2022-10-31T13:50:00Z", "2022-10-31T13:50:00Z", "2022-10-31T13:50:00Z", "2022-10-31T13:50:00Z", "2022-10-31T13:50:00Z", "2022-10-31T13:50:00Z", "2022-10-31T13:50:00Z", "2022-10-31T13:50:00Z", "2022-10-31T13:50:00Z", "2022-10-31T13:50:00Z", "2022-10-31T13:50:00Z", "2022-10-31T13:50:00Z", "2022-10-31T13:50:00Z", "2022-10-31T13:50:00Z", "2022-10-31T13:20:00Z", "2022-10-31T13:50:00Z", "2022-10-31T13:50:00Z", "2022-10-31T13:50:00Z", "2022-10-31T13:50:00Z", "2022-10-31T12:50:00Z", "2022-10-31T13:50:00Z", "2022-10-31T13:50:00Z", "2022-10-31T13:50:00Z", "2022-10-31T13:50:00Z", "2022-10-31T13:50:00Z", "2022-10-31T13:50:00Z", "2022-10-31T13:50:00Z", "2022-10-31T13:50:00Z", "2022-10-31T13:50:00Z", "2022-10-31T13:50:00Z", "2022-10-31T13:50:00Z", "2022-10-31T14:00:00Z", "2022-10-31T13:15:00Z", "2022-10-31T13:45:00Z", "2022-10-31T13:15:00Z", "2022-10-31T13:15:00Z", "2022-10-31T13:15:00Z", "2022-10-31T13:15:00Z", "2022-10-31T13:45:00Z", "2022-10-31T12:55:00Z", "2022-10-31T12:50:00Z", "2022-10-31T13:50:00Z", "2022-10-31T12:50:00Z", "2022-10-31T12:50:00Z", "2022-10-31T12:55:00Z", "2022-10-31T13:50:00Z", "2022-10-31T12:55:00Z", "2022-10-31T13:50:00Z", "2022-10-31T12:55:00Z", "2022-10-31T12:55:00Z", "2022-10-31T13:50:00Z", "2022-10-31T13:50:00Z", "2022-10-31T13:50:00Z", "2022-10-31T13:50:00Z", "2022-10-31T12:55:00Z", "2022-10-31T12:50:00Z", "2022-10-31T13:50:00Z", "2022-10-31T13:50:00Z", "2022-10-31T12:55:00Z", "2022-10-31T12:55:00Z", "2022-10-31T13:50:00Z", "2022-10-31T12:55:00Z", "2022-10-31T12:55:00Z", "2022-10-31T13:50:00Z", "2022-10-31T13:50:00Z", "2022-10-31T12:50:00Z", "2022-10-31T13:50:00Z", "2022-10-31T13:50:00Z", "2022-10-31T13:50:00Z", "2022-10-31T12:50:00Z", "2022-10-31T12:55:00Z", "2022-10-31T13:50:00Z", "2022-10-31T12:55:00Z", "2022-10-31T13:50:00Z", "2022-10-31T12:55:00Z", "2022-10-31T12:50:00Z", "2022-10-31T12:55:00Z", "2022-10-31T12:55:00Z", "2022-10-31T12:55:00Z", "2022-10-31T13:50:00Z", "2022-10-31T12:55:00Z", "2022-10-31T13:50:00Z", "2022-10-31T12:55:00Z", "2022-10-31T13:50:00Z", "2022-10-31T12:55:00Z", "2022-10-31T13:50:00Z", "2022-10-31T12:55:00Z", "2022-10-31T13:50:00Z", "2022-10-31T12:55:00Z", "2022-10-31T13:50:00Z", "2022-10-31T12:55:00Z", "2022-10-31T13:50:00Z", "2022-10-31T13:50:00Z", "2022-10-31T13:50:00Z", "2022-10-31T12:55:00Z", "2022-10-31T13:50:00Z", "2022-10-31T13:50:00Z", "2022-10-31T13:50:00Z", "2022-10-31T12:55:00Z", "2022-10-31T12:50:00Z", "2022-10-31T12:55:00Z", "2022-10-31T12:55:00Z", "2022-10-31T13:50:00Z", "2022-10-31T12:55:00Z", "2022-10-31T13:50:00Z", "2022-10-31T12:55:00Z", "2022-10-31T12:55:00Z", "2022-10-31T12:50:00Z", "2022-10-31T12:55:00Z", "2022-10-31T12:55:00Z", "2022-10-31T12:55:00Z", "2022-10-31T13:50:00Z", "2022-10-31T13:45:00Z", "2022-10-31T13:50:00Z", "2022-10-31T12:55:00Z", "2022-10-31T12:55:00Z", "2022-10-31T12:50:00Z", "2022-10-31T12:55:00Z", "2022-10-31T12:55:00Z", "2022-10-31T13:50:00Z", "2022-10-31T12:55:00Z", "2022-10-31T12:55:00Z", "2022-10-31T12:55:00Z", "2022-10-31T12:55:00Z", "2022-10-31T12:55:00Z", "2022-10-31T12:55:00Z", "2022-10-31T12:55:00Z", "2022-10-31T12:55:00Z", "2022-10-31T13:30:00Z", "2022-10-31T13:30:00Z", "2022-10-31T13:30:00Z", "2022-10-31T13:30:00Z", "2022-10-31T13:30:00Z", "2022-10-31T13:00:00Z", "2022-10-31T13:00:00Z", "2022-10-31T13:30:00Z", "2022-10-31T13:00:00Z", "2022-10-31T13:30:00Z", "2022-10-31T13:30:00Z", "2022-10-31T13:30:00Z", "2022-10-31T13:30:00Z", "2022-10-31T13:30:00Z", "2022-10-31T13:00:00Z", "2022-10-31T13:50:00Z", "2022-10-31T13:50:00Z", "2022-10-31T13:50:00Z", "2022-10-31T13:50:00Z", "2022-10-31T13:15:00Z", "2022-10-31T13:00:00Z", "2022-10-31T13:00:00Z", "2022-10-31T13:50:00Z", "2022-10-31T13:50:00Z", "2022-10-31T13:50:00Z", "2022-10-31T13:20:00Z", "2022-10-31T13:50:00Z", "2022-10-31T13:50:00Z", "2022-10-31T13:50:00Z", "2022-10-31T13:00:00Z", "2022-10-31T13:30:00Z", "2022-10-31T13:00:00Z", "2022-10-31T13:30:00Z", "2022-10-31T13:30:00Z", "2022-10-31T13:30:00Z", "2022-10-31T13:30:00Z", "2022-10-31T13:00:00Z", "2022-10-31T13:30:00Z", "2022-10-31T13:00:00Z", "2022-10-31T13:00:00Z", "2022-10-31T13:00:00Z", "2022-10-31T13:30:00Z", "2022-10-31T13:30:00Z", "2022-10-31T13:30:00Z", "2022-10-31T13:30:00Z", "2022-10-31T13:00:00Z", "2022-10-31T13:30:00Z", "2022-10-31T13:30:00Z", "2022-10-31T13:30:00Z", "2022-10-31T13:30:00Z", "2022-10-31T13:30:00Z", "2022-10-31T13:30:00Z", "2022-10-31T13:30:00Z", "2022-10-31T13:00:00Z", "2022-10-31T13:30:00Z", "2022-10-31T13:30:00Z", "2022-10-31T13:30:00Z", "2022-10-31T13:00:00Z", "2022-10-31T13:30:00Z", "2022-10-31T13:00:00Z", "2022-10-31T13:30:00Z", "2022-10-31T13:30:00Z", "2022-10-31T13:30:00Z", "2022-10-31T13:30:00Z", "2022-10-31T13:30:00Z", "2022-10-31T13:30:00Z", "2022-10-31T13:30:00Z", "2022-10-31T13:30:00Z", "2022-10-31T13:30:00Z", "2022-10-31T13:00:00Z", "2022-10-31T13:50:00Z", "2022-10-31T13:50:00Z", "2022-10-31T13:50:00Z", "2022-10-31T13:50:00Z", "2022-10-31T13:50:00Z", "2022-10-31T13:50:00Z", "2022-10-31T13:50:00Z", "2022-10-31T13:50:00Z", "2022-10-31T13:50:00Z", "2022-10-31T13:50:00Z", "2022-10-31T13:50:00Z", "2022-10-31T13:50:00Z", "2022-10-31T13:50:00Z", "2022-10-31T13:50:00Z", "2022-10-31T13:50:00Z", "2022-10-31T13:50:00Z", "2022-10-31T13:50:00Z", "2022-10-31T13:50:00Z", "2022-10-31T13:50:00Z", "2022-10-31T13:50:00Z", "2022-10-31T13:50:00Z", "2022-10-31T13:50:00Z", "2022-10-31T12:50:00Z", "2022-10-31T13:50:00Z", "2022-10-31T13:50:00Z", "2022-10-31T13:50:00Z", "2022-10-31T13:50:00Z", "2022-10-31T13:50:00Z", "2022-10-31T13:50:00Z", "2022-10-31T13:50:00Z", "2022-10-31T13:50:00Z", "2022-10-31T13:50:00Z", "2022-10-31T13:50:00Z", "2022-10-31T13:50:00Z", "2022-10-31T13:50:00Z", "2022-10-31T13:50:00Z", "2022-10-31T13:50:00Z", "2022-10-31T13:50:00Z", "2022-10-31T13:50:00Z", "2022-10-31T13:50:00Z", "2022-10-31T13:50:00Z", "2022-10-31T13:50:00Z", "2022-10-31T13:50:00Z", "2022-10-31T13:50:00Z", "2022-10-31T13:50:00Z", "2022-10-31T13:50:00Z", "2022-10-31T13:50:00Z", "2022-10-31T13:50:00Z", "2022-10-31T13:50:00Z", "2022-10-31T13:50:00Z", "2022-10-31T13:50:00Z", "2022-10-31T13:50:00Z", "2022-10-31T12:50:00Z", "2022-10-31T12:50:00Z", "2022-10-31T13:50:00Z", "2022-10-31T13:50:00Z", "2022-10-31T12:50:00Z", "2022-10-31T13:50:00Z", "2022-10-31T13:50:00Z", "2022-10-31T13:50:00Z", "2022-10-31T12:50:00Z", "2022-10-31T13:50:00Z", "2022-10-31T13:50:00Z", "2022-10-31T13:50:00Z", "2022-10-31T13:50:00Z", "2022-10-31T13:50:00Z", "2022-10-31T13:50:00Z", "2022-10-31T13:50:00Z", "2022-10-31T13:50:00Z", "2022-10-31T13:50:00Z", "2022-10-31T13:50:00Z", "2022-10-31T12:50:00Z", "2022-10-31T13:50:00Z", "2022-10-31T13:50:00Z", "2022-10-31T14:00:00Z", "2022-10-31T14:00:00Z", "2022-10-31T13:30:00Z", "2022-10-31T14:00:00Z", "2022-10-31T13:50:00Z", "2022-10-31T13:30:00Z", "2022-10-31T13:30:00Z", "2022-10-31T13:30:00Z", "2022-10-31T13:30:00Z", "2022-10-31T13:30:00Z", "2022-10-31T13:30:00Z", "2022-10-31T13:30:00Z", "2022-10-31T14:00:00Z", "2022-10-31T14:00:00Z", "2022-10-31T13:30:00Z", "2022-10-31T14:00:00Z", "2022-10-31T13:30:00Z", "2022-10-31T14:00:00Z", "2022-10-31T13:00:00Z", "2022-10-31T13:00:00Z", "2022-10-31T13:00:00Z", "2022-10-31T13:00:00Z", "2022-10-31T13:00:00Z", "2022-10-31T13:00:00Z", "2022-10-31T13:00:00Z", "2022-10-31T13:00:00Z", "2022-10-31T13:00:00Z", "2022-10-31T13:00:00Z", "2022-10-31T13:00:00Z", "2022-10-31T13:00:00Z", "2022-10-31T14:00:00Z", "2022-10-31T13:00:00Z", "2022-10-31T13:00:00Z", "2022-10-31T13:00:00Z", "2022-10-31T13:00:00Z", "2022-10-31T13:00:00Z", "2022-10-31T13:00:00Z", "2022-10-31T13:00:00Z", "2022-10-31T13:00:00Z", "2022-10-31T14:00:00Z", "2022-10-31T13:00:00Z", "2022-10-31T13:00:00Z", "2022-10-31T14:00:00Z", "2022-10-31T13:00:00Z", "2022-10-31T14:00:00Z", "2022-10-31T13:00:00Z", "2022-10-31T13:00:00Z", "2022-10-31T14:00:00Z", "2022-10-31T14:00:00Z", "2022-10-31T13:00:00Z", "2022-10-31T14:00:00Z", "2022-10-31T14:00:00Z", "2022-10-31T13:00:00Z", "2022-10-31T13:00:00Z", "2022-10-31T14:00:00Z", "2022-10-31T13:00:00Z", "2022-10-31T13:47:00Z", "2022-10-31T13:40:00Z", "2022-10-31T13:40:00Z", "2022-10-31T13:45:00Z", "2022-10-31T13:40:00Z", "2022-10-31T13:45:00Z", "2022-10-31T13:44:00Z", "2022-10-31T13:40:00Z", "2022-10-31T13:45:00Z", "2022-10-31T13:43:00Z", "2022-10-31T13:49:00Z", "2022-10-31T13:49:00Z", "2022-10-31T13:40:00Z", "2022-10-31T13:41:00Z", "2022-10-31T13:50:00Z", "2022-10-31T13:40:00Z", "2022-10-31T13:45:00Z", "2022-10-31T13:40:00Z", "2022-10-31T13:40:00Z", "2022-10-31T13:48:00Z", "2022-10-31T13:47:00Z", "2022-10-31T14:00:00Z", "2022-10-31T13:46:00Z", "2022-10-31T13:42:00Z", "2022-10-31T13:56:00Z", "2022-10-31T13:42:00Z", "2022-10-31T13:49:00Z", "2022-10-31T13:40:00Z", "2022-10-31T13:40:00Z", "2022-10-31T13:53:00Z", "2022-10-31T13:45:00Z", "2022-10-31T13:40:00Z", "2022-10-31T13:43:00Z", "2022-10-31T13:40:00Z", "2022-10-31T13:40:00Z", "2022-10-31T13:40:00Z", "2022-10-31T13:42:00Z", "2022-10-31T13:44:00Z", "2022-10-31T13:43:00Z", "2022-10-31T13:41:00Z", "2022-10-31T13:49:00Z", "2022-10-31T13:45:00Z", "2022-10-31T13:40:00Z", "2022-10-31T13:40:00Z", "2022-10-31T12:54:00Z", "2022-10-31T13:48:00Z", "2022-10-31T13:40:00Z", "2022-10-31T13:40:00Z", "2022-10-31T13:40:00Z", "2022-10-31T13:40:00Z", "2022-10-31T13:48:00Z", "2022-10-31T13:45:00Z", "2022-10-31T13:40:00Z", "2022-10-31T13:41:00Z", "2022-10-31T13:43:00Z", "2022-10-31T13:43:00Z", "2022-10-31T13:40:00Z", "2022-10-31T13:47:00Z", "2022-10-31T13:40:00Z", "2022-10-31T13:00:00Z", "2022-10-31T13:00:00Z", "2022-10-31T13:00:00Z", "2022-10-31T13:00:00Z", "2022-10-31T13:00:00Z", "2022-10-31T13:00:00Z", "2022-10-31T13:00:00Z", "2022-10-31T14:00:00Z", "2022-10-31T14:00:00Z", "2022-10-31T14:00:00Z", "2022-10-31T14:00:00Z", "2022-10-31T14:00:00Z", "2022-10-31T14:00:00Z", "2022-10-31T14:00:00Z", "2022-10-31T14:00:00Z", "2022-10-31T14:00:00Z", "2022-10-31T14:00:00Z", "2022-10-31T13:50:00Z", "2022-10-31T12:50:00Z", "2022-10-31T12:50:00Z", "2022-10-31T13:59:00Z", "2022-10-31T13:50:00Z", "2022-10-31T13:50:00Z", "2022-10-31T13:50:00Z", "2022-10-31T13:50:00Z", "2022-10-31T13:50:00Z", "2022-10-31T13:51:00Z", "2022-10-31T13:50:00Z", "2022-10-31T13:50:00Z", "2022-10-31T13:50:00Z", "2022-10-31T13:50:00Z", "2022-10-31T14:00:00Z", "2022-10-31T14:00:00Z", "2022-10-31T13:00:00Z", "2022-10-31T14:00:00Z", "2022-10-31T13:45:00Z", "2022-10-31T13:00:00Z", "2022-10-31T13:30:00Z", "2022-10-31T14:00:00Z", "2022-10-31T14:00:00Z", "2022-10-31T14:00:00Z", "2022-10-31T14:00:00Z", "2022-10-31T14:00:00Z", "2022-10-31T14:00:00Z", "2022-10-31T14:00:00Z", "2022-10-31T13:30:00Z", "2022-10-31T13:00:00Z", "2022-10-31T13:50:00Z", "2022-10-31T13:30:00Z", "2022-10-31T14:00:00Z", "2022-10-31T13:30:00Z", "2022-10-31T13:30:00Z", "2022-10-31T13:55:00Z", "2022-10-31T13:50:00Z", "2022-10-31T13:30:00Z", "2022-10-31T14:00:00Z", "2022-10-31T14:00:00Z", "2022-10-31T13:00:00Z", "2022-10-31T13:00:00Z", "2022-10-31T13:00:00Z", "2022-10-31T13:00:00Z", "2022-10-31T14:00:00Z", "2022-10-31T13:00:00Z", "2022-10-31T14:00:00Z", "2022-10-31T13:00:00Z", "2022-10-31T13:00:00Z", "2022-10-31T13:00:00Z", "2022-10-31T13:00:00Z", "2022-10-31T13:00:00Z", "2022-10-31T14:00:00Z", "2022-10-31T13:00:00Z", "2022-10-31T13:00:00Z", "2022-10-31T14:00:00Z", "2022-10-31T13:00:00Z", "2022-10-31T13:00:00Z", "2022-10-31T13:00:00Z", "2022-10-31T13:56:00Z", "2022-10-31T13:00:00Z", "2022-10-31T14:00:00Z", "2022-10-31T13:00:00Z", "2022-10-31T13:00:00Z", "2022-10-31T13:00:00Z", "2022-10-31T13:00:00Z", "2022-10-31T13:00:00Z", "2022-10-31T13:00:00Z", "2022-10-31T13:00:00Z", "2022-10-31T13:00:00Z", "2022-10-31T13:00:00Z", "2022-10-31T13:00:00Z", "2022-10-31T13:00:00Z", "2022-10-31T13:00:00Z", "2022-10-31T13:00:00Z", "2022-10-31T13:30:00Z", "2022-10-31T13:00:00Z", "2022-10-31T13:00:00Z", "2022-10-31T13:00:00Z", "2022-10-31T13:00:00Z", "2022-10-31T13:00:00Z", "2022-10-31T13:00:00Z", "2022-10-31T13:00:00Z", "2022-10-31T13:00:00Z", "2022-10-31T13:00:00Z", "2022-10-31T13:00:00Z", "2022-10-31T13:30:00Z", "2022-10-31T13:00:00Z", "2022-10-31T13:00:00Z", "2022-10-31T13:00:00Z", "2022-10-31T13:00:00Z", "2022-10-31T13:30:00Z", "2022-10-31T13:00:00Z", "2022-10-31T13:30:00Z", "2022-10-31T13:00:00Z", "2022-10-31T13:00:00Z", "2022-10-31T13:30:00Z", "2022-10-31T13:00:00Z", "2022-10-31T13:00:00Z", "2022-10-31T13:30:00Z", "2022-10-31T13:00:00Z", "2022-10-31T13:00:00Z", "2022-10-31T13:00:00Z", "2022-10-31T13:00:00Z", "2022-10-31T13:00:00Z", "2022-10-31T13:30:00Z", "2022-10-31T13:00:00Z", "2022-10-31T13:00:00Z", "2022-10-31T13:00:00Z", "2022-10-31T13:00:00Z", "2022-10-31T13:00:00Z", "2022-10-31T13:00:00Z", "2022-10-31T13:00:00Z", "2022-10-31T13:00:00Z", "2022-10-31T13:00:00Z", "2022-10-31T13:00:00Z", "2022-10-31T13:00:00Z", "2022-10-31T13:00:00Z", "2022-10-31T13:30:00Z", "2022-10-31T13:00:00Z", "2022-10-31T13:00:00Z", "2022-10-31T13:00:00Z", "2022-10-31T13:00:00Z", "2022-10-31T13:00:00Z", "2022-10-31T13:00:00Z", "2022-10-31T13:30:00Z", "2022-10-31T13:00:00Z", "2022-10-31T13:30:00Z", "2022-10-31T13:00:00Z", "2022-10-31T13:00:00Z", "2022-10-31T13:00:00Z", "2022-10-31T13:00:00Z", "2022-10-31T13:00:00Z", "2022-10-31T14:00:00Z", "2022-10-31T14:00:00Z", "2022-10-31T14:00:00Z", "2022-10-31T12:55:00Z", "2022-10-31T14:00:00Z", "2022-10-31T13:00:00Z", "2022-10-31T14:00:00Z", "2022-10-31T14:00:00Z", "2022-10-31T14:00:00Z", "2022-10-31T14:00:00Z", "2022-10-31T14:00:00Z", "2022-10-31T14:00:00Z", "2022-10-31T14:00:00Z", "2022-10-31T14:00:00Z", "2022-10-31T13:50:00Z", "2022-10-31T13:50:00Z", "2022-10-31T13:50:00Z", "2022-10-31T13:50:00Z", "2022-10-31T13:50:00Z", "2022-10-31T13:50:00Z", "2022-10-31T14:00:00Z", "2022-10-31T14:00:00Z", "2022-10-31T14:00:00Z", "2022-10-31T13:55:00Z", "2022-10-31T14:00:00Z", "2022-10-31T14:00:00Z", "2022-10-31T13:00:00Z", "2022-10-31T14:00:00Z", "2022-10-31T13:00:00Z", "2022-10-31T14:00:00Z", "2022-10-31T14:00:00Z", "2022-10-31T14:00:00Z", "2022-10-31T14:00:00Z", "2022-10-31T14:00:00Z", "2022-10-31T14:00:00Z", "2022-10-31T13:30:00Z", "2022-10-31T13:55:00Z", "2022-10-31T13:00:00Z", "2022-10-31T13:55:00Z", "2022-10-31T13:56:00Z", "2022-10-31T13:53:00Z", "2022-10-31T14:00:00Z", "2022-10-31T13:53:00Z", "2022-10-31T13:56:00Z", "2022-10-31T13:53:00Z", "2022-10-31T13:53:00Z", "2022-10-31T13:56:00Z", "2022-10-31T13:53:00Z", "2022-10-31T13:53:00Z", "2022-10-31T13:55:00Z", "2022-10-31T13:56:00Z", "2022-10-31T13:56:00Z", "2022-10-31T13:56:00Z", "2022-10-31T13:53:00Z", "2022-10-31T13:56:00Z", "2022-10-31T13:55:00Z", "2022-10-31T13:53:00Z", "2022-10-31T13:55:00Z", "2022-10-31T13:55:00Z", "2022-10-31T13:53:00Z", "2022-10-31T13:53:00Z", "2022-10-31T13:55:00Z", "2022-10-31T13:56:00Z", "2022-10-31T13:56:00Z", "2022-10-31T13:55:00Z", "2022-10-31T13:01:00Z", "2022-10-31T13:56:00Z", "2022-10-31T13:53:00Z", "2022-10-31T13:56:00Z", "2022-10-31T13:56:00Z", "2022-10-31T13:56:00Z", "2022-10-31T13:53:00Z", "2022-10-31T13:56:00Z", "2022-10-31T13:54:00Z", "2022-10-31T13:53:00Z", "2022-10-31T13:52:00Z", "2022-10-31T13:56:00Z", "2022-10-31T13:56:00Z", "2022-10-31T13:56:00Z", "2022-10-31T13:53:00Z", "2022-10-31T13:55:00Z", "2022-10-31T13:56:00Z", "2022-10-31T13:56:00Z", "2022-10-31T13:57:00Z", "2022-10-31T13:53:00Z", "2022-10-31T13:56:00Z", "2022-10-31T13:56:00Z", "2022-10-31T13:56:00Z", "2022-10-31T13:56:00Z", "2022-10-31T13:56:00Z", "2022-10-31T13:54:00Z", "2022-10-31T13:56:00Z", "2022-10-31T13:53:00Z", "2022-10-31T13:45:00Z", "2022-10-31T13:53:00Z", "2022-10-31T13:53:00Z", "2022-10-31T13:55:00Z", "2022-10-31T13:56:00Z", "2022-10-31T13:53:00Z", "2022-10-31T13:45:00Z", "2022-10-31T13:55:00Z", "2022-10-31T13:56:00Z", "2022-10-31T13:51:00Z", "2022-10-31T13:56:00Z", "2022-10-31T13:56:00Z", "2022-10-31T13:53:00Z", "2022-10-31T12:56:00Z", "2022-10-31T13:53:00Z", "2022-10-31T12:56:00Z", "2022-10-31T13:53:00Z", "2022-10-31T13:56:00Z", "2022-10-31T13:56:00Z", "2022-10-31T13:56:00Z", "2022-10-31T13:53:00Z", "2022-10-31T13:56:00Z", "2022-10-31T13:53:00Z", "2022-10-31T13:53:00Z", "2022-10-31T13:56:00Z", "2022-10-31T13:53:00Z", "2022-10-31T13:56:00Z", "2022-10-31T13:56:00Z", "2022-10-31T13:56:00Z", "2022-10-31T13:56:00Z", "2022-10-31T12:56:00Z", "2022-10-31T13:53:00Z", "2022-10-31T13:56:00Z", "2022-10-31T13:56:00Z", "2022-10-31T13:10:00Z", "2022-10-31T13:56:00Z", "2022-10-31T13:56:00Z", "2022-10-31T13:53:00Z", "2022-10-31T13:56:00Z", "2022-10-31T13:56:00Z", "2022-10-31T13:14:00Z", "2022-10-31T13:56:00Z", "2022-10-31T13:56:00Z", "2022-10-31T13:53:00Z", "2022-10-31T13:53:00Z", "2022-10-31T13:55:00Z", "2022-10-31T13:56:00Z", "2022-10-31T12:55:00Z", "2022-10-31T13:52:00Z", "2022-10-31T13:55:00Z", "2022-10-31T13:56:00Z", "2022-10-31T13:53:00Z", "2022-10-31T13:55:00Z", "2022-10-31T13:53:00Z", "2022-10-31T13:56:00Z", "2022-10-31T13:56:00Z", "2022-10-31T13:55:00Z", "2022-10-31T13:56:00Z", "2022-10-31T13:56:00Z", "2022-10-31T13:56:00Z", "2022-10-31T13:53:00Z", "2022-10-31T13:56:00Z", "2022-10-31T13:53:00Z", "2022-10-31T13:56:00Z", "2022-10-31T13:56:00Z", "2022-10-31T13:56:00Z", "2022-10-31T13:53:00Z", "2022-10-31T13:56:00Z", "2022-10-31T12:56:00Z", "2022-10-31T13:56:00Z", "2022-10-31T13:56:00Z", "2022-10-31T12:56:00Z", "2022-10-31T13:56:00Z", "2022-10-31T13:56:00Z", "2022-10-31T12:56:00Z", "2022-10-31T13:56:00Z", "2022-10-31T13:57:00Z", "2022-10-31T13:55:00Z", "2022-10-31T13:54:00Z", "2022-10-31T13:51:00Z", "2022-10-31T13:55:00Z", "2022-10-31T13:53:00Z", "2022-10-31T13:53:00Z", "2022-10-31T13:53:00Z", "2022-10-31T13:54:00Z", "2022-10-31T13:57:00Z", "2022-10-31T13:53:00Z", "2022-10-31T13:56:00Z", "2022-10-31T13:54:00Z", "2022-10-31T13:58:00Z", "2022-10-31T13:53:00Z", "2022-10-31T13:53:00Z", "2022-10-31T14:00:00Z", "2022-10-31T14:00:00Z", "2022-10-31T13:56:00Z", "2022-10-31T13:56:00Z", "2022-10-31T13:52:00Z", "2022-10-31T12:50:00Z", "2022-10-31T12:52:00Z", "2022-10-31T13:53:00Z", "2022-10-31T13:55:00Z", "2022-10-31T13:00:00Z", "2022-10-31T13:51:00Z", "2022-10-31T13:30:00Z", "2022-10-31T13:30:00Z", "2022-10-31T13:30:00Z", "2022-10-31T13:30:00Z", "2022-10-31T13:30:00Z", "2022-10-31T13:00:00Z", "2022-10-31T13:30:00Z", "2022-10-31T13:00:00Z", "2022-10-31T13:30:00Z", "2022-10-31T13:00:00Z", "2022-10-31T13:30:00Z", "2022-10-31T13:00:00Z", "2022-10-31T13:00:00Z", "2022-10-31T13:00:00Z", "2022-10-31T13:30:00Z", "2022-10-31T13:00:00Z", "2022-10-31T13:00:00Z", "2022-10-31T13:00:00Z", "2022-10-31T13:00:00Z", "2022-10-31T13:00:00Z", "2022-10-31T13:56:00Z", "2022-10-31T13:00:00Z", "2022-10-31T13:00:00Z", "2022-10-31T13:00:00Z", "2022-10-31T13:30:00Z", "2022-10-31T13:55:00Z", "2022-10-31T13:00:00Z", "2022-10-31T12:55:00Z", "2022-10-31T13:00:00Z", "2022-10-31T13:00:00Z", "2022-10-31T13:00:00Z", "2022-10-31T13:55:00Z", "2022-10-31T13:30:00Z", "2022-10-31T13:00:00Z", "2022-10-31T13:55:00Z", "2022-10-31T13:00:00Z", "2022-10-31T13:00:00Z", "2022-10-31T13:00:00Z", "2022-10-31T13:30:00Z", "2022-10-31T13:55:00Z", "2022-10-31T13:00:00Z", "2022-10-31T13:00:00Z", "2022-10-31T13:00:00Z", "2022-10-31T13:00:00Z", "2022-10-31T13:56:00Z", "2022-10-31T13:00:00Z", "2022-10-31T14:00:00Z", "2022-10-31T14:00:00Z", "2022-10-31T14:00:00Z", "2022-10-31T14:00:00Z", "2022-10-31T14:00:00Z", "2022-10-31T14:00:00Z", "2022-10-31T14:00:00Z", "2022-10-31T14:00:00Z", "2022-10-31T14:00:00Z", "2022-10-31T13:00:00Z", "2022-10-31T13:00:00Z", "2022-10-31T14:00:00Z", "2022-10-31T13:00:00Z", "2022-10-31T13:00:00Z", "2022-10-31T13:00:00Z", "2022-10-31T13:20:00Z", "2022-10-31T14:00:00Z", "2022-10-31T13:00:00Z", "2022-10-31T13:00:00Z", "2022-10-31T14:00:00Z", "2022-10-31T14:00:00Z", "2022-10-31T14:00:00Z", "2022-10-31T13:35:00Z", "2022-10-31T13:14:00Z", "2022-10-31T13:00:00Z", "2022-10-31T14:00:00Z", "2022-10-31T14:00:00Z", "2022-10-31T13:00:00Z", "2022-10-31T13:00:00Z", "2022-10-31T13:00:00Z", "2022-10-31T13:00:00Z", "2022-10-31T14:00:00Z", "2022-10-31T13:00:00Z", "2022-10-31T13:00:00Z", "2022-10-31T14:00:00Z", "2022-10-31T14:00:00Z", "2022-10-31T13:00:00Z", "2022-10-31T13:00:00Z", "2022-10-31T13:00:00Z", "2022-10-31T14:00:00Z", "2022-10-31T13:00:00Z", "2022-10-31T14:00:00Z", "2022-10-31T13:00:00Z", "2022-10-31T13:00:00Z", "2022-10-31T14:00:00Z", "2022-10-31T13:00:00Z", "2022-10-31T14:00:00Z", "2022-10-31T13:49:00Z", "2022-10-31T13:00:00Z", "2022-10-31T13:00:00Z", "2022-10-31T13:00:00Z", "2022-10-31T13:00:00Z", "2022-10-31T13:00:00Z", "2022-10-31T14:00:00Z", "2022-10-31T13:00:00Z", "2022-10-31T14:00:00Z", "2022-10-31T13:00:00Z", "2022-10-31T13:00:00Z", "2022-10-31T14:00:00Z", "2022-10-31T13:00:00Z", "2022-10-31T13:00:00Z", "2022-10-31T13:00:00Z", "2022-10-31T13:06:00Z", "2022-10-31T13:00:00Z", "2022-10-31T14:00:00Z", "2022-10-31T14:00:00Z", "2022-10-31T13:00:00Z", "2022-10-31T14:00:00Z", "2022-10-31T13:00:00Z", "2022-10-31T13:00:00Z", "2022-10-31T13:00:00Z", "2022-10-31T13:00:00Z", "2022-10-31T13:00:00Z", "2022-10-31T13:00:00Z", "2022-10-31T13:00:00Z", "2022-10-31T14:00:00Z", "2022-10-31T13:00:00Z", "2022-10-31T13:00:00Z", "2022-10-31T13:00:00Z", "2022-10-31T13:00:00Z", "2022-10-31T13:20:00Z", "2022-10-31T13:00:00Z", "2022-10-31T13:26:00Z", "2022-10-31T13:00:00Z", "2022-10-31T14:00:00Z", "2022-10-31T13:00:00Z", "2022-10-31T13:00:00Z", "2022-10-31T13:00:00Z", "2022-10-31T13:00:00Z", "2022-10-31T14:00:00Z", "2022-10-31T14:00:00Z", "2022-10-31T13:00:00Z", "2022-10-31T13:00:00Z", "2022-10-31T13:00:00Z", "2022-10-31T13:00:00Z", "2022-10-31T13:00:00Z", "2022-10-31T13:00:00Z", "2022-10-31T14:00:00Z", "2022-10-31T13:17:00Z", "2022-10-31T13:00:00Z", "2022-10-31T13:00:00Z", "2022-10-31T13:00:00Z", "2022-10-31T14:00:00Z", "2022-10-31T13:00:00Z", "2022-10-31T13:00:00Z", "2022-10-31T14:00:00Z", "2022-10-31T13:00:00Z", "2022-10-31T14:00:00Z", "2022-10-31T14:00:00Z", "2022-10-31T14:00:00Z", "2022-10-31T14:00:00Z", "2022-10-31T14:00:00Z", "2022-10-31T13:00:00Z", "2022-10-31T13:00:00Z", "2022-10-31T14:00:00Z", "2022-10-31T14:00:00Z", "2022-10-31T14:00:00Z", "2022-10-31T13:00:00Z", "2022-10-31T14:00:00Z", "2022-10-31T13:40:00Z", "2022-10-31T13:00:00Z", "2022-10-31T13:00:00Z", "2022-10-31T14:00:00Z", "2022-10-31T13:00:00Z", "2022-10-31T13:00:00Z", "2022-10-31T13:00:00Z", "2022-10-31T14:00:00Z", "2022-10-31T13:00:00Z", "2022-10-31T13:00:00Z", "2022-10-31T13:00:00Z", "2022-10-31T13:00:00Z", "2022-10-31T13:00:00Z", "2022-10-31T13:00:00Z", "2022-10-31T13:00:00Z", "2022-10-31T14:00:00Z", "2022-10-31T13:00:00Z", "2022-10-31T13:00:00Z", "2022-10-31T13:00:00Z", "2022-10-31T13:38:00Z", "2022-10-31T13:00:00Z", "2022-10-31T13:00:00Z", "2022-10-31T13:16:00Z", "2022-10-31T13:00:00Z", "2022-10-31T13:00:00Z", "2022-10-31T14:00:00Z", "2022-10-31T13:00:00Z", "2022-10-31T13:00:00Z", "2022-10-31T13:00:00Z", "2022-10-31T13:00:00Z", "2022-10-31T13:00:00Z", "2022-10-31T13:00:00Z", "2022-10-31T13:00:00Z", "2022-10-31T13:00:00Z", "2022-10-31T13:18:00Z", "2022-10-31T13:00:00Z", "2022-10-31T13:00:00Z", "2022-10-31T13:00:00Z", "2022-10-31T13:00:00Z", "2022-10-31T13:00:00Z", "2022-10-31T13:00:00Z", "2022-10-31T13:00:00Z", "2022-10-31T13:38:00Z", "2022-10-31T13:00:00Z", "2022-10-31T13:00:00Z", "2022-10-31T13:00:00Z", "2022-10-31T13:00:00Z", "2022-10-31T13:00:00Z", "2022-10-31T14:00:00Z", "2022-10-31T14:00:00Z", "2022-10-31T14:00:00Z", "2022-10-31T14:00:00Z", "2022-10-31T14:00:00Z", "2022-10-31T14:00:00Z", "2022-10-31T14:00:00Z", "2022-10-31T14:00:00Z", "2022-10-31T14:00:00Z", "2022-10-31T14:00:00Z", "2022-10-31T14:00:00Z", "2022-10-31T14:00:00Z", "2022-10-31T14:00:00Z", "2022-10-31T14:00:00Z", "2022-10-31T14:00:00Z", "2022-10-31T14:00:00Z", "2022-10-31T14:00:00Z", "2022-10-31T14:00:00Z", "2022-10-31T14:00:00Z", "2022-10-31T14:00:00Z", "2022-10-31T13:00:00Z", "2022-10-31T13:50:00Z", "2022-10-31T14:00:00Z", "2022-10-31T14:00:00Z", "2022-10-31T13:00:00Z", "2022-10-31T13:30:00Z", "2022-10-31T13:00:00Z", "2022-10-31T14:00:00Z", "2022-10-31T14:00:00Z", "2022-10-31T14:00:00Z", "2022-10-31T14:00:00Z", "2022-10-31T14:00:00Z", "2022-10-31T13:00:00Z", "2022-10-31T13:00:00Z", "2022-10-31T13:00:00Z", "2022-10-31T13:00:00Z", "2022-10-31T13:00:00Z", "2022-10-31T14:00:00Z", "2022-10-31T13:00:00Z", "2022-10-31T13:00:00Z", "2022-10-31T13:00:00Z", "2022-10-31T13:00:00Z", "2022-10-31T13:00:00Z", "2022-10-31T13:00:00Z", "2022-10-31T13:00:00Z", "2022-10-31T13:00:00Z", "2022-10-31T14:00:00Z", "2022-10-31T13:00:00Z", "2022-10-31T13:00:00Z", "2022-10-31T14:00:00Z", "2022-10-31T13:00:00Z", "2022-10-31T13:00:00Z", "2022-10-31T13:00:00Z", "2022-10-31T13:00:00Z", "2022-10-31T13:00:00Z", "2022-10-31T13:00:00Z", "2022-10-31T13:00:00Z", "2022-10-31T13:00:00Z", "2022-10-31T13:00:00Z", "2022-10-31T13:00:00Z", "2022-10-31T13:00:00Z", "2022-10-31T13:00:00Z", "2022-10-31T13:00:00Z", "2022-10-31T13:00:00Z", "2022-10-31T13:00:00Z", "2022-10-31T13:00:00Z", "2022-10-31T13:00:00Z", "2022-10-31T13:00:00Z", "2022-10-31T13:00:00Z", "2022-10-31T13:00:00Z", "2022-10-31T13:00:00Z", "2022-10-31T13:00:00Z", "2022-10-31T13:00:00Z", "2022-10-31T13:00:00Z", "2022-10-31T13:19:00Z", "2022-10-31T13:00:00Z", "2022-10-31T14:00:00Z", "2022-10-31T13:00:00Z", "2022-10-31T13:30:00Z", "2022-10-31T14:00:00Z", "2022-10-31T14:00:00Z", "2022-10-31T14:00:00Z", "2022-10-31T14:00:00Z", "2022-10-31T14:00:00Z", "2022-10-31T14:00:00Z", "2022-10-31T14:00:00Z", "2022-10-31T14:00:00Z", "2022-10-31T14:00:00Z", "2022-10-31T14:00:00Z", "2022-10-31T14:00:00Z", "2022-10-31T14:00:00Z", "2022-10-31T14:00:00Z", "2022-10-31T14:00:00Z", "2022-10-31T14:00:00Z", "2022-10-31T14:00:00Z", "2022-10-31T14:00:00Z", "2022-10-31T14:00:00Z", "2022-10-31T14:00:00Z", "2022-10-31T14:00:00Z", "2022-10-31T14:00:00Z", "2022-10-31T14:00:00Z", "2022-10-31T14:00:00Z", "2022-10-31T13:00:00Z", "2022-10-31T14:00:00Z", "2022-10-31T13:16:00Z", "2022-10-31T14:00:00Z", "2022-10-31T14:00:00Z", "2022-10-31T14:00:00Z", "2022-10-31T13:03:00Z", "2022-10-31T13:03:00Z", "2022-10-31T13:03:00Z", "2022-10-31T13:03:00Z", "2022-10-31T13:03:00Z", "2022-10-31T13:03:00Z", "2022-10-31T13:03:00Z", "2022-10-31T13:03:00Z", "2022-10-31T13:03:00Z", "2022-10-31T13:03:00Z", "2022-10-31T13:03:00Z", "2022-10-31T13:03:00Z", "2022-10-31T14:00:00Z", "2022-10-31T13:03:00Z", "2022-10-31T13:03:00Z", "2022-10-31T13:03:00Z", "2022-10-31T13:03:00Z", "2022-10-31T13:03:00Z", "2022-10-31T13:03:00Z", "2022-10-31T13:03:00Z", "2022-10-31T14:00:00Z", "2022-10-31T13:00:00Z", "2022-10-31T13:00:00Z", "2022-10-31T13:00:00Z", "2022-10-31T13:00:00Z", "2022-10-31T13:00:00Z", "2022-10-31T13:00:00Z", "2022-10-31T14:00:00Z", "2022-10-31T14:00:00Z", "2022-10-31T13:00:00Z", "2022-10-31T13:53:00Z", "2022-10-31T13:53:00Z", "2022-10-31T13:50:00Z", "2022-10-31T13:45:00Z", "2022-10-31T13:53:00Z", "2022-10-31T13:56:00Z", "2022-10-31T13:00:00Z", "2022-10-31T13:00:00Z", "2022-10-31T13:00:00Z", "2022-10-31T13:00:00Z", "2022-10-31T13:00:00Z", "2022-10-31T12:55:00Z", "2022-10-31T13:28:00Z", "2022-10-31T12:55:00Z", "2022-10-31T14:00:00Z", "2022-10-31T14:00:00Z", "2022-10-31T13:00:00Z", "2022-10-31T13:00:00Z", "2022-10-31T13:00:00Z", "2022-10-31T14:00:00Z", "2022-10-31T13:00:00Z", "2022-10-31T13:55:00Z", "2022-10-31T13:30:00Z", "2022-10-31T13:30:00Z", "2022-10-31T13:30:00Z", "2022-10-31T13:00:00Z", "2022-10-31T13:30:00Z", "2022-10-31T13:30:00Z", "2022-10-31T13:30:00Z", "2022-10-31T13:30:00Z", "2022-10-31T13:30:00Z", "2022-10-31T13:00:00Z", "2022-10-31T13:30:00Z", "2022-10-31T13:30:00Z", "2022-10-31T13:30:00Z", "2022-10-31T13:30:00Z", "2022-10-31T13:30:00Z", "2022-10-31T13:30:00Z", "2022-10-31T13:30:00Z", "2022-10-31T13:30:00Z", "2022-10-31T14:00:00Z", "2022-10-31T14:00:00Z", "2022-10-31T13:00:00Z", "2022-10-31T14:00:00Z", "2022-10-31T14:00:00Z", "2022-10-31T14:00:00Z", "2022-10-31T14:00:00Z", "2022-10-31T14:00:00Z", "2022-10-31T13:00:00Z", "2022-10-31T13:30:00Z", "2022-10-31T13:30:00Z", "2022-10-31T13:30:00Z", "2022-10-31T13:30:00Z", "2022-10-31T13:30:00Z", "2022-10-31T13:00:00Z", "2022-10-31T13:00:00Z", "2022-10-31T13:30:00Z", "2022-10-31T13:30:00Z", "2022-10-31T13:30:00Z", "2022-10-31T13:30:00Z", "2022-10-31T13:30:00Z", "2022-10-31T13:00:00Z", "2022-10-31T13:30:00Z", "2022-10-31T13:00:00Z", "2022-10-31T13:00:00Z", "2022-10-31T13:00:00Z", "2022-10-31T13:30:00Z", "2022-10-31T13:30:00Z", "2022-10-31T13:30:00Z", "2022-10-31T13:30:00Z", "2022-10-31T13:30:00Z", "2022-10-31T13:30:00Z", "2022-10-31T13:30:00Z", "2022-10-31T13:30:00Z", "2022-10-31T13:30:00Z", "2022-10-31T13:30:00Z", "2022-10-31T13:30:00Z", "2022-10-31T13:30:00Z", "2022-10-31T13:00:00Z", "2022-10-31T13:30:00Z", "2022-10-31T13:43:00Z", "2022-10-31T13:30:00Z", "2022-10-31T13:30:00Z", "2022-10-31T13:00:00Z", "2022-10-31T13:30:00Z", "2022-10-31T13:00:00Z", "2022-10-31T13:30:00Z", "2022-10-31T13:30:00Z", "2022-10-31T13:30:00Z", "2022-10-31T13:30:00Z", "2022-10-31T13:30:00Z", "2022-10-31T13:30:00Z", "2022-10-31T13:30:00Z", "2022-10-31T13:30:00Z", "2022-10-31T13:00:00Z", "2022-10-31T13:30:00Z", "2022-10-31T13:30:00Z", "2022-10-31T13:30:00Z", "2022-10-31T13:30:00Z", "2022-10-31T13:30:00Z", "2022-10-31T13:30:00Z", "2022-10-31T13:30:00Z", "2022-10-31T13:30:00Z", "2022-10-31T13:30:00Z", "2022-10-31T13:30:00Z", "2022-10-31T13:30:00Z", "2022-10-31T13:30:00Z", "2022-10-31T13:30:00Z", "2022-10-31T13:30:00Z", "2022-10-31T13:30:00Z", "2022-10-31T13:30:00Z", "2022-10-31T13:30:00Z", "2022-10-31T13:30:00Z", "2022-10-31T13:30:00Z", "2022-10-31T13:30:00Z", "2022-10-31T13:30:00Z", "2022-10-31T13:30:00Z", "2022-10-31T13:00:00Z", "2022-10-31T13:00:00Z", "2022-10-31T13:00:00Z", "2022-10-31T13:00:00Z", "2022-10-31T13:00:00Z", "2022-10-31T13:30:00Z", "2022-10-31T13:30:00Z", "2022-10-31T13:30:00Z", "2022-10-31T13:30:00Z", "2022-10-31T13:30:00Z", "2022-10-31T13:30:00Z", "2022-10-31T13:30:00Z", "2022-10-31T13:30:00Z", "2022-10-31T13:20:00Z", "2022-10-31T13:30:00Z", "2022-10-31T13:30:00Z", "2022-10-31T13:30:00Z", "2022-10-31T13:30:00Z", "2022-10-31T13:30:00Z", "2022-10-31T13:30:00Z", "2022-10-31T13:30:00Z", "2022-10-31T13:30:00Z", "2022-10-31T13:30:00Z", "2022-10-31T13:30:00Z", "2022-10-31T13:30:00Z", "2022-10-31T13:30:00Z", "2022-10-31T13:30:00Z", "2022-10-31T13:30:00Z", "2022-10-31T13:30:00Z", "2022-10-31T13:30:00Z", "2022-10-31T13:30:00Z", "2022-10-31T13:30:00Z", "2022-10-31T13:30:00Z", "2022-10-31T13:30:00Z", "2022-10-31T13:30:00Z", "2022-10-31T13:30:00Z", "2022-10-31T13:30:00Z", "2022-10-31T13:30:00Z", "2022-10-31T13:00:00Z", "2022-10-31T13:30:00Z", "2022-10-31T13:00:00Z", "2022-10-31T13:30:00Z", "2022-10-31T13:30:00Z", "2022-10-31T13:30:00Z", "2022-10-31T13:30:00Z", "2022-10-31T13:30:00Z", "2022-10-31T13:00:00Z", "2022-10-31T13:30:00Z", "2022-10-31T13:30:00Z", "2022-10-31T13:30:00Z", "2022-10-31T13:30:00Z", "2022-10-31T13:30:00Z", "2022-10-31T13:30:00Z", "2022-10-31T13:30:00Z", "2022-10-31T13:00:00Z", "2022-10-31T13:30:00Z", "2022-10-31T13:30:00Z", "2022-10-31T13:10:00Z", "2022-10-31T13:10:00Z", "2022-10-31T13:30:00Z", "2022-10-31T13:30:00Z", "2022-10-31T13:30:00Z", "2022-10-31T13:30:00Z", "2022-10-31T13:30:00Z", "2022-10-31T13:30:00Z", "2022-10-31T14:00:00Z", "2022-10-31T13:30:00Z", "2022-10-31T13:00:00Z", "2022-10-31T13:30:00Z", "2022-10-31T13:00:00Z", "2022-10-31T13:00:00Z", "2022-10-31T13:30:00Z", "2022-10-31T13:30:00Z", "2022-10-31T13:30:00Z", "2022-10-31T13:00:00Z", "2022-10-31T13:30:00Z", "2022-10-31T13:30:00Z", "2022-10-31T13:30:00Z", "2022-10-31T13:30:00Z", "2022-10-31T13:30:00Z", "2022-10-31T13:30:00Z", "2022-10-31T13:00:00Z", "2022-10-31T13:30:00Z", "2022-10-31T14:00:00Z", "2022-10-31T13:00:00Z", "2022-10-31T13:30:00Z", "2022-10-31T13:30:00Z", "2022-10-31T13:30:00Z", "2022-10-31T13:30:00Z", "2022-10-31T13:30:00Z", "2022-10-31T13:30:00Z", "2022-10-31T13:30:00Z", "2022-10-31T13:30:00Z", "2022-10-31T13:30:00Z", "2022-10-31T13:30:00Z", "2022-10-31T13:30:00Z", "2022-10-31T14:00:00Z", "2022-10-31T13:30:00Z", "2022-10-31T13:30:00Z", "2022-10-31T13:00:00Z", "2022-10-31T13:30:00Z", "2022-10-31T13:30:00Z", "2022-10-31T13:30:00Z", "2022-10-31T13:30:00Z", "2022-10-31T13:30:00Z", "2022-10-31T13:00:00Z", "2022-10-31T13:00:00Z", "2022-10-31T13:00:00Z", "2022-10-31T13:30:00Z", "2022-10-31T13:30:00Z", "2022-10-31T13:30:00Z", "2022-10-31T13:30:00Z", "2022-10-31T13:00:00Z", "2022-10-31T13:00:00Z", "2022-10-31T13:00:00Z", "2022-10-31T13:00:00Z", "2022-10-31T13:00:00Z", "2022-10-31T13:00:00Z", "2022-10-31T13:00:00Z", "2022-10-31T13:00:00Z", "2022-10-31T13:30:00Z", "2022-10-31T13:30:00Z", "2022-10-31T13:00:00Z", "2022-10-31T13:00:00Z", "2022-10-31T13:00:00Z", "2022-10-31T13:00:00Z", "2022-10-31T13:00:00Z", "2022-10-31T13:00:00Z", "2022-10-31T13:00:00Z", "2022-10-31T13:00:00Z", "2022-10-31T13:00:00Z", "2022-10-31T13:30:00Z", "2022-10-31T13:30:00Z", "2022-10-31T13:30:00Z", "2022-10-31T13:30:00Z", "2022-10-31T13:30:00Z", "2022-10-31T13:30:00Z", "2022-10-31T13:30:00Z", "2022-10-31T13:30:00Z", "2022-10-31T13:30:00Z", "2022-10-31T13:30:00Z", "2022-10-31T13:30:00Z", "2022-10-31T13:30:00Z", "2022-10-31T13:30:00Z", "2022-10-31T13:00:00Z", "2022-10-31T13:30:00Z", "2022-10-31T13:30:00Z", "2022-10-31T14:00:00Z", "2022-10-31T13:30:00Z", "2022-10-31T13:30:00Z", "2022-10-31T13:30:00Z", "2022-10-31T13:30:00Z", "2022-10-31T13:00:00Z", "2022-10-31T13:30:00Z", "2022-10-31T13:00:00Z", "2022-10-31T13:00:00Z", "2022-10-31T13:00:00Z", "2022-10-31T13:30:00Z", "2022-10-31T13:00:00Z", "2022-10-31T13:00:00Z", "2022-10-31T13:00:00Z", "2022-10-31T13:00:00Z", "2022-10-31T13:30:00Z", "2022-10-31T13:30:00Z", "2022-10-31T13:30:00Z", "2022-10-31T13:30:00Z", "2022-10-31T14:00:00Z", "2022-10-31T13:30:00Z", "2022-10-31T13:30:00Z", "2022-10-31T13:30:00Z", "2022-10-31T13:00:00Z", "2022-10-31T13:00:00Z", "2022-10-31T13:00:00Z", "2022-10-31T13:00:00Z", "2022-10-31T13:00:00Z", "2022-10-31T13:00:00Z", "2022-10-31T13:00:00Z", "2022-10-31T13:00:00Z", "2022-10-31T13:00:00Z", "2022-10-31T13:30:00Z", "2022-10-31T13:00:00Z", "2022-10-31T13:00:00Z", "2022-10-31T13:00:00Z", "2022-10-31T13:30:00Z", "2022-10-31T13:00:00Z", "2022-10-31T14:00:00Z", "2022-10-31T13:00:00Z", "2022-10-31T13:30:00Z", "2022-10-31T13:30:00Z", "2022-10-31T13:30:00Z", "2022-10-31T13:30:00Z", "2022-10-31T13:30:00Z", "2022-10-31T13:30:00Z", "2022-10-31T12:57:00Z", "2022-10-31T13:30:00Z", "2022-10-31T14:00:00Z", "2022-10-31T13:30:00Z", "2022-10-31T13:30:00Z", "2022-10-31T13:30:00Z", "2022-10-31T13:30:00Z", "2022-10-31T14:00:00Z", "2022-10-31T13:30:00Z", "2022-10-31T13:30:00Z", "2022-10-31T14:01:00Z", "2022-10-31T14:00:00Z", "2022-10-31T14:00:00Z", "2022-10-31T13:30:00Z", "2022-10-31T13:30:00Z", "2022-10-31T12:59:00Z", "2022-10-31T13:59:00Z", "2022-10-31T13:12:00Z", "2022-10-31T13:30:00Z", "2022-10-31T13:30:00Z", "2022-10-31T14:00:00Z", "2022-10-31T13:30:00Z", "2022-10-31T13:30:00Z", "2022-10-31T13:30:00Z", "2022-10-31T13:59:00Z", "2022-10-31T13:53:00Z", "2022-10-31T13:30:00Z", "2022-10-31T13:33:00Z", "2022-10-31T13:30:00Z", "2022-10-31T13:30:00Z", "2022-10-31T13:21:00Z", "2022-10-31T14:00:00Z", "2022-10-31T13:30:00Z", "2022-10-31T13:30:00Z", "2022-10-31T13:30:00Z", "2022-10-31T13:30:00Z", "2022-10-31T13:30:00Z", "2022-10-31T13:30:00Z", "2022-10-31T13:30:00Z", "2022-10-31T13:30:00Z", "2022-10-31T13:30:00Z", "2022-10-31T13:30:00Z", "2022-10-31T13:30:00Z", "2022-10-31T13:45:00Z", "2022-10-31T13:30:00Z", "2022-10-31T14:00:00Z", "2022-10-31T14:00:00Z", "2022-10-31T13:30:00Z", "2022-10-31T13:30:00Z", "2022-10-31T13:30:00Z", "2022-10-31T13:30:00Z", "2022-10-31T14:00:00Z", "2022-10-31T13:30:00Z", "2022-10-31T13:18:00Z", "2022-10-31T13:30:00Z", "2022-10-31T13:30:00Z", "2022-10-31T13:30:00Z", "2022-10-31T13:00:00Z", "2022-10-31T13:00:00Z", "2022-10-31T13:30:00Z", "2022-10-31T13:30:00Z", "2022-10-31T13:30:00Z", "2022-10-31T13:00:00Z", "2022-10-31T13:00:00Z", "2022-10-31T13:00:00Z", "2022-10-31T13:00:00Z", "2022-10-31T13:00:00Z", "2022-10-31T13:00:00Z", "2022-10-31T13:00:00Z", "2022-10-31T13:00:00Z", "2022-10-31T13:00:00Z", "2022-10-31T13:00:00Z", "2022-10-31T13:00:00Z", "2022-10-31T14:00:00Z", "2022-10-31T14:00:00Z", "2022-10-31T13:00:00Z", "2022-10-31T13:00:00Z", "2022-10-31T13:00:00Z", "2022-10-31T13:30:00Z", "2022-10-31T13:00:00Z", "2022-10-31T13:00:00Z", "2022-10-31T13:00:00Z", "2022-10-31T13:30:00Z", "2022-10-31T13:00:00Z", "2022-10-31T13:30:00Z", "2022-10-31T13:00:00Z", "2022-10-31T13:00:00Z", "2022-10-31T13:00:00Z", "2022-10-31T13:00:00Z", "2022-10-31T13:00:00Z", "2022-10-31T13:30:00Z", "2022-10-31T13:00:00Z", "2022-10-31T13:00:00Z", "2022-10-31T13:30:00Z", "2022-10-31T13:30:00Z"], "raw_text": ["AGGH 311400Z 00000KT 9999 FEW015 FEW016CB SCT028 27/25 Q1007", "ANYN 311300Z VRB02KT 9999 FEW020 27/24 Q1011", "AYPY 311300Z VRB03KT 9999 FEW050 28/25 Q1007", "BGBW 311350Z 07002KT 9999 SCT090 M07/M12 Q0985", "BGGH 311350Z 02007KT 9999 BKN016 M01/M03 Q0988", "BGJN 311350Z VRB01KT 9999 FEW210 M07/M10 Q0991", "BGKK 311350Z AUTO 07017KT 9999NDV BKN022/// BKN070/// 02/M03 Q0983", "BGSF 311350Z AUTO VRB02KT 9999NDV SCT009/// BKN085/// M05/M07 Q0991", "BGTL 311355Z AUTO 09010KT 9999 CLR M18/M24 A2930 RMK AO2 SLP912 T11801239 TSNO $", "BIAR 311300Z VRB02KT 9999 FEW052 07/02 Q0983", "BIBD 311300Z VRB02KT 9999 VCSH FEW015 SCT018 BKN020 06/05 Q0982", "BIEG 311300Z 18004KT 9999 FEW040 SCT065 BKN075 10/05 Q0985", "BIGR 311400Z 10011KT 9999 FEW110 SCT200 06/04 Q0983", "BIHN 311400Z 09014KT 9999 -RA BR FEW011 SCT018 OVC030 09/07 Q0981", "BIIS 311400Z 21002KT 9999 FEW006 FEW022 SCT030 04/04 Q0982", "BIKF 311330Z 06012KT 9999 VCSH FEW013 BKN026 BKN070 07/07 Q0979", "BIRK 311300Z 06006KT 9999 BKN040 07/05 Q0980 RESHRA", "BIVM 311400Z 22013KT 3000 DZ BR OVC002 07/06 Q0980 RERA", "BKPR 311400Z 01007KT CAVOK 23/07 Q1023 NOSIG", "CAHR 311300Z AUTO 23008KT 11/08 RMK AO1 SLP153 T01140076 53004", "CBAR 311300Z AUTO 36009G15KT ////SM OVC018 M11/M14 A2995", "CBBC 311306Z AUTO 14005KT 9SM SCT008 BKN027 02/02 A2974 RMK SLP074", "CERM 311300Z AUTO 28001KT 02/01 RMK AO1 SLP165 T00210012 53008", "CFOX 311346Z AUTO ///// ////SM FEW008 SCT028 BKN042 M12/M14 A2953", "CMFM 311300Z AUTO 28001KT 01/M00 RMK AO1 SLP174 T00051001 53004", "CMGB 311300Z AUTO 00000KT 06/05 RMK AO1 SLP163 T00600047 55000", "CPBT 311300Z AUTO 04006KT 03/01 RMK AO1 T00290006", "CPEH 311300Z AUTO 00000KT 01/M01 RMK AO1 T00111014", "CPFI 311300Z AUTO 29003KT 03/01 RMK AO1 T00290009", "CPIN 311339Z AUTO 20004KT ////SM OVC014 ///// A////", "CPIR 311300Z AUTO 36007KT 01/M01 RMK AO1 T00051006", "CPRO 311300Z AUTO 35002KT M06/M06 RMK AO1 T10601061", "CPRY 311300Z AUTO 12002KT 03/00 RMK AO1 T00260000", "CPST 311300Z AUTO 04006KT M00/M02 RMK AO1 T10041016", "CPSV 311300Z AUTO 03006KT 04/02 RMK AO1 T00440018", "CTCK 311300Z AUTO 18002KT 07/04 RMK AO1 SLP154 T00650038 53001", "CTNK 311300Z AUTO 00000KT M00/01 RMK AO1 SLP153 T10020005 55000", "CTRA 311300Z AUTO 20004KT 03/M01 RMK AO1 SLP052 T00271007 58018", "CWAE 311300Z 00000KT 15SM -RA OVC007 05/05 A2965 RMK SC8 WIND ESTD SLP050", "CWAF 311300Z AUTO 21006KT 07/05 RMK AO1 T00710053", "CWAJ 311300Z AUTO 11007KT RMK AO1 55006", "CWAQ 311300Z AUTO 31005KT 03/M00 RMK AO1 SLP079 T00341002 53005", "CWAR 311300Z AUTO 19013KT 11/07 RMK AO1 PK WND 20017/1205 SLP149 T01120068 58003", "CWAV 311300Z AUTO 09006KT 01/M02 RMK AO1 SLP071 T00081021 50003", "CWBA 311300Z AUTO 17003KT 07/05 RMK AO1 T00650051", "CWBK 311300Z AUTO 22009KT 10/04 RMK AO1 SLP163 T01030036 50002", "CWBO 311300Z AUTO 01005KT M00/M02 RMK AO1 SLP066 T10031018 51001", "CWBS 311300Z AUTO 36005KT 05/04 RMK AO1 T00470038", "CWBT 311300Z AUTO 26005KT 06/04 RMK AO1 SLP089 T00630039 53012", "CWBU 311300Z AUTO 26011KT 03/M02 RMK AO1 SLP000 T00311015 53019", "CWBV 311300Z AUTO 26011KT 12/09 RMK AO1 SLP167 T01220088 58002", "CWBY 311300Z AUTO 27012G20KT 09/04 RMK AO1 PK WND 28022/1220 SLP100 T00920035 53014", "CWBZ 311300Z AUTO 00000KT 06/04 RMK AO1 SLP152 T00560038 55000", "CWCF 311300Z AUTO 15004KT 05/01 RMK AO1 SLP972 T00460010 57014", "CWCI 311300Z AUTO 18005KT 07/06 RMK AO1 SLP105 T00670064 56007", "CWCJ 311300Z AUTO 05004KT M02/M03 RMK AO1 SLP113 T10241031 56007", "CWCO 311300Z AUTO 18003KT 10/06 RMK AO1 SLP130 T01000056 55005", "CWCT 311300Z AUTO 27006KT 02/M03 RMK AO1 SLP072 T00211026 51003", "CWDA 311300Z AUTO 16007KT 07/ RMK AO1 T0066", "CWDC 311300Z AUTO 03006KT M09/M12 RMK AO1 SOG 02 3037 PK WND 35017/1211 SLP990 T10891120", "CWDJ 311300Z AUTO 30009KT 01/M02 RMK AO1 SLP061 T00061019 53014", "CWDK 311300Z AUTO 35008KT 01/M01 RMK AO1 SLP062 T00131010 53011", "CWDM 311300Z AUTO 21008KT 08/07 RMK AO1 SLP049 T00750066 57026", "CWDO 311300Z AUTO 22012G18KT 08/04 RMK AO1 PK WND 22021/1235 SLP083 T00770035 58019", "CWDQ 311300Z AUTO 34001KT 04/02 RMK AO1 SLP165 T00350021 53005", "CWDT 311300Z AUTO 26002KT RMK AO1 53019", "CWDV 311300Z AUTO 22002KT M03/M04 RMK AO1 SLP098 T10261036 56013", "CWDZ 311300Z AUTO 31002KT 03/M02 RMK AO1 SLP069 T00271016 58002", "CWEB 311300Z AUTO 00033KT 07/07 RMK AO1 SLP081 T00740072 55000", "CWEE 311300Z AUTO M01/M01 RMK AO1 SLP148 T10091010 51008", "CWEF 311300Z AUTO 23014KT 13/05 RMK AO1 PK WND 20019/1206 SLP120 T01270046 57007", "CWEH 311300Z AUTO 21003KT 03/M01 RMK AO1 SLP057 T00281009 58004", "CWEK 311300Z AUTO 16018KT 05/ RMK AO1 PK WND 16022/1249 SLP009 T0051 57006", "CWEL 311300Z AUTO 11015KT 10/09 RMK AO1 2PAST HR 6020 PK WND 12018/1224 SLP059 P0001 T01000088 50002", "CWEP 311300Z AUTO 21011G16KT 12/06 RMK AO1 PK WND 21017/1202 SLP151 T01220063 54000", "CWEQ 311300Z AUTO 22014G20KT 04/00 RMK AO1 PK WND 22020/1258 SLP990 T00440000 53006", "CWER 311300Z AUTO 26004KT RMK AO1", "CWEU 311300Z 34007KT 270V010 15SM IC SKC M24/M27 A2963 RMK SLP049", "CWEW 311300Z AUTO 32001KT 03/02 RMK AO1 SLP164 T00250016 53001", "CWEZ 311300Z AUTO 19019KT 10/09 RMK AO1 2PAST HR 8021 PK WND 19020/1249 SLP068 P0005 T00980092 50012", "CWFD 311300Z AUTO ///// ////SM ////// M12/M14 A2921", "CWFF 311300Z AUTO 26010KT 03/M02 RMK AO1 SLP018 T00291017 53018", "CWFJ 311300Z AUTO 21007G15KT 09/01 RMK AO1 PK WND 21021/1222 T00920010", "CWFQ 311300Z AUTO 17003KT 10/M02 RMK AO1 SLP160 T00951019 55000", "CWGB 311300Z AUTO 11016KT 10/ RMK AO1 8PAST HR 6025 PK WND 12020/1258 SLP052 P0003 T0100 50008", "CWGD 311300Z AUTO 15005KT 10/09 RMK AO1 5PAST HR 6004 SLP122 P0002 T00990088 50005", "CWGH 311300Z AUTO 20004KT 10/04 RMK AO1 SLP153 T00970043 53001", "CWGL 311300Z AUTO 15005KT 08/03 RMK AO1 SLP123 T00750034 55000", "CWGM 311300Z AUTO 24024G33KT 06/03 RMK AO1 PK WND 23038/1235 SLP027 T00580031 53003", "CWGR 311300Z AUTO 24015KT 12/06 RMK AO1 PK WND 23020/1216 SLP130 T01170061 53004", "CWGT 311300Z AUTO 06005KT 10/08 RMK AO1 PK WND 11017/1211 SLP064 T00960083 56012", "CWGW 311300Z AUTO 17006KT 06/04 RMK AO1 3PAST HR 6017 SLP054 P0005 T00590042 50013", "CWGY 311300Z AUTO 28006KT 03/M02 RMK AO1 SLP066 T00281015 50003", "CWHI 311300Z AUTO 26003KT 01/M01 RMK AO1 T00081012", "CWHL 311300Z AUTO 13012KT 05/02 RMK AO1 4PAST HR 6005 PK WND 16018/1218 SLP036 P0002 T00460015 50004", "CWHO 311300Z AUTO 00031KT 02/M04 RMK AO1 SLP033 T00201035 53010", "CWHP 311300Z AUTO 24010KT 08/07 RMK AO1 SLP088 T00820068 55001", "CWHQ 311300Z AUTO 00000KT 01/01 RMK AO1 T00100005", "CWHT 311300Z AUTO 32005KT M06/M10 RMK AO1 SLP016 T10551103 52017", "CWHV 311300Z AUTO 18003KT M00/M02 RMK AO1 SLP171 T10011020 53003", "CWID 311300Z AUTO 00000KT M07/M08 RMK AO1 SLP047 T10701083 52013", "CWIG 311300Z AUTO 22011KT RMK AO1", "CWII 311300Z AUTO 22018KT 06/01 RMK AO1 PK WND 21026/1233 SLP005 T00620014 56017", "CWIJ 311300Z AUTO 06005KT M19/M21 RMK AO1 SOG 07 2007 SLP112 T11881211", "CWIK 311300Z AUTO 27006KT 03/M00 RMK AO1 SLP042 T00271003 53006", "CWIL 311300Z AUTO ///// ////SM OVC009 ///// A////", "CWIP 311300Z AUTO 26011KT 10/01 RMK AO1 PK WND 26017/1207 T00990008", "CWIS 311300Z AUTO 12001KT 05/02 RMK AO1 SLP166 T00500023 53006", "CWIT 311300Z AUTO 00000KT 02/01 RMK AO1 SLP157 T00240011 53001", "CWIW 311300Z AUTO 28010KT 04/M01 RMK AO1 SLP048 T00381007 51020", "CWIX 311300Z AUTO 32001KT 03/02 RMK AO1 SLP144 T00310016 51013", "CWIZ 311300Z AUTO 18003KT 07/03 RMK AO1 T00660026", "CWJB 311300Z AUTO 34009KT 06/04 RMK AO1 T00610038", "CWJC 311300Z AUTO 02027G33KT M13/M14 RMK AO1 PK WND 03035/1237 SLP926 T11261144 51021", "CWJD 311300Z AUTO 25008KT 04/01 RMK AO1 SLP945 T00380007 56010", "CWJH 311300Z AUTO 26007KT 05/M02 RMK AO1 SLP922 T00481020 53005", "CWJI 311300Z AUTO 24008KT 02/M01 RMK AO1 SLP073 T00201009 51010", "CWJO 311300Z AUTO 09002KT 03/02 RMK AO1 SLP156 T00270017 53010", "CWJR 311300Z AUTO 31004KT 09/08 RMK AO1 3PAST HR 5011 SLP068 P0001 T00850077 50003", "CWJT 311300Z AUTO 00000KT 01/M00 RMK AO1 SLP155 T00101002 58001", "CWJU 311300Z AUTO 28010G19KT 04/02 RMK AO1 PK WND 26029/1228 SLP022 T00430019 55005", "CWJV 311300Z AUTO 09002KT 06/05 RMK AO1 SLP065 T00620053 55005", "CWJW 311300Z AUTO 09006KT 01/M01 RMK AO1 SLP060 T00051013 55003", "CWJX 311300Z AUTO 18001KT M02/M05 RMK AO1 SLP066 T10171046 51002", "CWKD 311300Z AUTO 02/M02 RMK AO1 SLP150 T00201018 52021", "CWKH 311300Z AUTO 08/08 RMK AO1 8PAST HR 6022 SLP061 P0011 T00760075 50028", "CWKK 311300Z AUTO 19010G15KT 06/ RMK AO1 SLP098 T0062 56015", "CWKM 311300Z AUTO 13014KT ////SM NCD M13/M16 A3004", "CWKO 311300Z AUTO 24009KT 04/M00 RMK AO1 SLP080 T00351004 54000", "CWKP 311300Z AUTO 28005KT ////SM OVC008 M14/M15 A2981", "CWKX 311300Z AUTO 07002KT M08/M09 RMK AO1 SOG 02 5001 SLP010 T10801089", "CWLB 311300Z AUTO 27008KT M00/ RMK AO1 SLP034 T1002 53009", "CWLC 311300Z AUTO 21003KT 05/01 RMK AO1 PK WND 16021/1228 T00540007", "CWLE 311300Z AUTO 27005KT 02/M01 RMK AO1 SLP065 T00171011 50004", "CWLI 311300Z AUTO 35007KT ////SM OVC019 M11/M14 A2997", "CWLM 311300Z AUTO 19005KT 09/09 RMK AO1 2PAST HR 8025 SLP068 P0001 T00910088 50002", "CWLS 311300Z AUTO 15005KT 08/07 RMK AO1 9PAST HR 8003 SLP132 P0011 T00820074 50029", "CWLX 311300Z AUTO ///// ////SM ////// M17/M19 A2953", "CWLY 311300Z AUTO 19012G22KT 160V240 9SM CLR 08/04 A2966 RMK SLP049", "CWME 311300Z AUTO 27006KT 03/03 RMK AO1 6PAST HR 1008 SLP073 P0002 T00340028 50006", "CWMJ 311300Z AUTO 19001KT 02/01 RMK AO1 SLP150 T00150013 55001", "CWMM 311300Z AUTO 12002KT 09/08 RMK AO1 9PAST HR 6023 SLP081 P0004 T00890075 50009", "CWMQ 311300Z AUTO 13001KT 04/01 RMK AO1 SLP057 T00440011 50001", "CWMT 311300Z AUTO 08002KT M10/M12 RMK AO1 SOG 06 1010 SLP054 T11031118", "CWMZ 311300Z AUTO 18001KT 11/ RMK AO1 SLP133 T0113 55002", "CWNC 311300Z AUTO 08002KT 10/04 RMK AO1 SLP143 T00960039 55000", "CWND 311300Z AUTO 02010KT M10/M13 RMK AO1 SLP145 T11041127 52009", "CWNE 311300Z AUTO 23021KT 11/06 RMK AO1 PK WND 23024/1222 SLP139 T01100056 53009", "CWNH 311300Z AUTO 20005KT 09/M01 RMK AO1 SLP153 T00871009 53007", "CWNK 311300Z AUTO 23009KT 04/M00 RMK AO1 SLP033 T00381003 58008", "CWNM 311300Z AUTO 27005KT 08/07 RMK AO1 6PAST HR 3010 SLP090 P0010 T00760074 50026", "CWNP 311300Z AUTO 16004KT 06/05 RMK AO1 3PAST HR 7007 SLP079 P0001 T00570053 50003", "CWNQ 311300Z AUTO 05003KT 04/03 RMK AO1 SLP160 T00390027 53004", "CWNZ 311300Z AUTO 16003KT M04/M04 RMK AO1 SLP108 T10361042 56012", "CWOB 311322Z AUTO 36011KT ////SM BKN022 OVC040 M04/M04 A2938", "CWOC 311300Z AUTO 29009G16KT 09/M00 RMK AO1 SLP128 T00861003 51008", "CWOD 311300Z AUTO 05001KT 04/02 RMK AO1 SLP154 T00350017 53011", "CWOE 311300Z AUTO 19004KT 08/02 RMK AO1 SLP048 T00810015 58011", "CWOY 311300Z AUTO 25007KT 01/M02 RMK AO1 SLP039 T00141023 51021", "CWPC 311300Z AUTO 21011KT 12/08 RMK AO1 SLP156 T01190080 53005", "CWPD 311300Z AUTO 00000KT 01/M01 RMK AO1 SLP161 T00051012 53006", "CWPE 311300Z AUTO 26004KT 12/09 RMK AO1 SLP177 T01170092 52008", "CWPF 311345Z AUTO 19003KT 10/08 RMK AO1 SLP065 T01010075 56025", "CWPK 311300Z AUTO 00000KT 01/01 RMK AO1 SLP158 T00120010 53002", "CWPO 311300Z AUTO 24009KT 01/M01 RMK AO1 SLP061 T00131012 57004", "CWPR 311300Z AUTO 33006KT 04/03 RMK AO1 SLP069 T00350029 56022", "CWPX 311311Z AUTO 33019KT ////SM //// FEW002 M24/M27 A2977", "CWPZ 311300Z AUTO 10003KT M01/M03 RMK AO1 4PAST HR 6013 SLP031 P0002 T10141026 50004", "CWQH 311300Z AUTO 08002KT 01/M00 RMK AO1 SLP175 T00141002 53001", "CWQK 311300Z AUTO 16013KT 11/ RMK AO1 SLP065 T0105 58028", "CWQO 311300Z AUTO 23014KT 07/02 RMK AO1 PK WND 22018/1207 T00670020", "CWQP 311300Z AUTO 36003KT 12/08 RMK AO1 SLP150 T01190081 52002", "CWQR 311300Z AUTO 26017KT 06/04 RMK AO1 PK WND 27019/1232 T00570040", "CWQS 311300Z AUTO 27006KT 04/02 RMK AO1 PK WND 30025/1211 SLP043 T00430017 55006", "CWQV 311300Z AUTO 28006KT 06/03 RMK AO1 T00620032", "CWRA 311300Z AUTO 00026KT 11/08 RMK AO1 SLP157 T01140075 58003", "CWRH 311335Z AUTO 30037KT ////SM ////// ///// A2943", "CWRJ 311300Z AUTO 28005KT 02/M02 RMK AO1 SLP056 T00231017 50007", "CWRK 311300Z AUTO 00000KT 02/01 RMK AO1 SLP148 T00170014 56003", "CWRM 311300Z AUTO 18004KT M00/M00 RMK AO1 8PAST HR 5000 SLP050 P0003 T10021001 50008", "CWRN 311300Z AUTO 21013KT 13/07 RMK AO1 SLP166 T01260074 58002", "CWRO 311300Z AUTO 21008KT 01/ RMK AO1 SLP031 T0011 58007", "CWRT 311300Z AUTO 28001KT 04/04 RMK AO1 4PAST HR 6018 SLP044 P0002 T00390037 50004", "CWRU 311300Z AUTO 36017KT 07/ RMK AO1 2PAST HR 6010 PK WND 30027/1208 SLP075 P0005 T0073 50012", "CWRX 311300Z AUTO ///// ////SM BKN028 OVC033 M13/M17 A2954", "CWRY 311300Z AUTO 24006KT 06/02 RMK AO1 SLP045 T00590015 58013", "CWRZ 311300Z AUTO 26009KT 07/04 RMK AO1 SLP113 T00700037 53008", "CWSA 311300Z AUTO 20009KT 9SM CLR 14/11 A3009 RMK SLP190", "CWSF 311300Z AUTO 28012G17KT 11/02 RMK AO1 PK WND 28021/1245 SLP109 T01070023 53016", "CWSG 311300Z AUTO 08/04 RMK AO1 24 3020 SLP133 T00830036", "CWSK 311300Z AUTO 14006KT 09/08 RMK AO1 6PAST HR 6028 SLP058 P0006 T00920075 50016", "CWSL 311300Z AUTO 15002KT 05/05 RMK AO1 2PAST HR 6005 SLP069 P0001 T00510047 50002", "CWSP 311300Z AUTO 06003KT 09/09 RMK AO1 SLP074 T00940089 56023", "CWSR 311300Z AUTO 25013G19KT 02/M08 RMK AO1 PK WND 25019/1257 SLP028 T00151076 53014", "CWSS 311300Z AUTO 00000KT 02/02 RMK AO1 SLP179 T00190016 51011", "CWST 311300Z AUTO 18003KT 09/01 RMK AO1 SLP152 T00850012 53008", "CWSW 311300Z 16005KT 130V200 3SM -RA FEW013 OVC028 06/06 A2964 RMK SF2ST6 SLP056 DENSITY ALT 4000FT", "CWTA 311300Z AUTO 16003KT 10/01 RMK AO1 SLP157 T00950007 53002", "CWTG 311300Z AUTO 23012KT 06/04 RMK AO1 SLP131 T00640035 53020", "CWTN 311300Z AUTO 25004KT 06/03 RMK AO1 SLP160 T00610026 53005", "CWTT 311300Z AUTO 02001KT 04/02 RMK AO1 T00380017", "CWTY 311300Z AUTO 36004KT 04/01 RMK AO1 SLP165 T00380009 53003", "CWUS 311300Z AUTO 24003KT 10/02 RMK AO1 SLP065 T00970018 56014", "CWUW 311300Z AUTO 29021KT ////SM FEW002 SCT007 M20/M21 A2936", "CWUX 311300Z AUTO 20001KT 01/M00 RMK AO1 SLP163 T00131001 52009", "CWVF 311300Z AUTO 11013KT 10/09 RMK AO1 T00980092", "CWVH 311322Z AUTO 27006KT ////SM FEW004 SCT010 OVC020 M14/M15 A2994", "CWVI 311300Z AUTO 23006KT M01/M05 RMK AO1 SLP053 T10091054 51007", "CWVN 311300Z AUTO 08007KT 05/01 RMK AO1 SLP068 T00520006 55001", "CWVP 311300Z AUTO 28007KT 08/M00 RMK AO1 SLP044 T00751001 58006", "CWVQ 311300Z AUTO 00000KT 09/06 RMK AO1 SLP157 T00900055 53002", "CWVT 311300Z AUTO 30005KT 03/M04 RMK AO1 SLP001 T00341036 53018", "CWVU 311300Z AUTO 20007KT 13/10 RMK AO1 SLP181 T01260104 51002", "CWWA 311300Z AUTO 07001KT 08/08 RMK AO1 5PAST HR 7022 SLP074 P0006 T00840081 50015", "CWWB 311300Z AUTO 06001KT 07/06 RMK AO1 SLP143 T00700061 55002", "CWWE 311300Z AUTO 23003KT 10/09 RMK AO1 SLP193 T00950093 51005", "CWWF 311300Z AUTO 30007KT 05/M00 RMK AO1 SLP058 T00481001 53009", "CWWK 311300Z AUTO 11003KT 09/08 RMK AO1 6PAST HR 8025 SLP077 P0002 T00890083 50006", "CWWL 311300Z AUTO 22012KT 06/02 RMK AO1 PK WND 23017/1214 SLP045 T00590016 55002", "CWWS 311300Z AUTO 21015KT 07/04 RMK AO1 PK WND 22017/1243 SLP956 T00650037 56016", "CWWZ 311300Z AUTO 00000KT 09/08 RMK AO1 2PAST HR 5000 SLP141 P0005 T00860081 50012", "CWXA 311300Z AUTO 00002KT 01/M01 RMK AO1 SLP079 T00101011 58002", "CWXC 311300Z AUTO 32001KT 03/02 RMK AO1 SLP155 T00330024 52011", "CWXI 311300Z AUTO 22027G33KT 10/08 RMK AO1 PK WND 22033/1258 SLP032 T00970080 56029", "CWXL 311300Z AUTO 20003KT 04/01 RMK AO1 SLP050 T00400011 58007", "CWYJ 311300Z AUTO 15002KT 09/09 RMK AO1 6PAST HR 8024 SLP071 P0002 T00920089 50006", "CWYL 311300Z AUTO 29007KT M00/M01 RMK AO1 SOG 05 5004 SLP054 T10021007", "CWYY 311300Z AUTO 17005KT 11/08 RMK AO1 SLP063 T01050082 58015", "CWZA 311300Z AUTO 30002KT 08/08 RMK AO1 3PAST HR 6024 SLP079 P0001 T00820079 50003", "CWZG 311300Z AUTO 23002KT 02/01 RMK AO1 SLP049 T00210009 58006", "CWZL 311300Z AUTO 24005KT 04/02 RMK AO1 SLP056 T00350016 58003", "CWZN 311300Z AUTO 21018KT 11/09 RMK AO1 PK WND 21022/1251 SLP140 T01090090 58012", "CWZO 311300Z AUTO 18017KT RMK AO1 PK WND 15024/1209", "CWZQ 311300Z AUTO 19010G15KT 14/03 RMK AO1 SLP150 T01370028 58003", "CWZW 311300Z AUTO 05004KT M06/M07 RMK AO1 SOG 05 2008 SLP992 T10591072", "CXAF 311300Z AUTO 24004KT M06/M10 RMK AO1 T10561095", "CXAG 311300Z AUTO 23006KT M03/M08 RMK AO1 T10331075", "CXAJ 311300Z AUTO 00000KT M04/M08 RMK AO1 T10421075", "CXAK 311300Z AUTO 23006KT 02/01 RMK AO1 T00190012", "CXAT 311300Z AUTO 09004KT M15/M18 RMK AO1 SOG 08 3004 SLP961 T11481182", "CXBA 311300Z AUTO 27006KT 04/M04 RMK AO1 T00371039", "CXBI 311300Z AUTO 18002KT 07/04 RMK AO1 SLP148 T00680043 55001", "CXBK 311300Z AUTO 26011KT 02/M00 RMK AO1 SOG 01 3013 SLP062 T00201002", "CXBO 311300Z AUTO 27003KT 05/M00 RMK AO1 T00511004", "CXBR 311300Z AUTO 26011KT RMK AO1 PK WND 25020/1228", "CXBW 311300Z AUTO 01007KT 01/01 RMK AO1 T00050010", "CXCA 311300Z AUTO 18001KT M01/M02 RMK AO1 SLP105 T10101016 56015", "CXCD 311300Z AUTO 14003KT M05/M09 RMK AO1 T10491091", "CXCK 311300Z AUTO 32004KT M06/M09 RMK AO1 2PAST HR SOG 05 3020 SLP015 P0001 T10631089 50002", "CXCP 311300Z AUTO 06008KT 01/M01 RMK AO1 T00121012", "CXCS 311300Z AUTO 27007KT 03/M05 RMK AO1 T00281049", "CXDB 311300Z AUTO 20012KT 06/01 RMK AO1 PK WND 21020/1240 T00590011", "CXDE 311300Z AUTO 33011KT M10/M12 RMK AO1 SOG 11 3015 SLP074 T10951122", "CXDI 311300Z AUTO 20004KT 11/10 RMK AO1 3PAST HR 5002 SLP133 P0001 T01070102 50003", "CXDK 311300Z AUTO M06/M10 RMK AO1 SOG 08 3008 SLP038 T10601095", "CXDW 311300Z AUTO 24014KT 06/M01 RMK AO1 PK WND 25020/1231 SLP035 T00561008 58005", "CXEA 311300Z AUTO 20005KT 04/M01 RMK AO1 SLP022 T00431012 56024", "CXEC 311300Z AUTO 25002KT M01/M06 RMK AO1 SLP056 T10051064 51006", "CXEG 311300Z AUTO 20005KT M06/M08 RMK AO1 SLP065 T10561084 53002", "CXET 311300Z AUTO 20003KT 08/03 RMK AO1 SLP143 T00760034 55000", "CXFM 311300Z AUTO 19004KT 03/01 RMK AO1 T00260005", "CXFR 311300Z AUTO 26005KT M03/M09 RMK AO1 T10321088", "CXGH 311300Z AUTO 22010KT 04/M00 RMK AO1 SLP006 T00371001 56017", "CXHA 311300Z AUTO 17006KT 13/13 RMK AO1 4PAST HR 5004 SLP112 P0002 T01330129 50004", "CXHD 311300Z AUTO 25008KT 00/M04 RMK AO1 T00001037", "CXHM 311300Z AUTO 29001KT 07/06 RMK AO1 3PAST HR 3002 SLP145 P0001 T00680060 50003", "CXHP 311300Z AUTO 23008KT M00/M09 RMK AO1 T10021091", "CXHR 311300Z AUTO 36004KT M00/M03 RMK AO1 T10021026", "CXIB 311300Z AUTO 24008G15KT 15/01 RMK AO1 SLP129 T01540010 58006", "CXKA 311300Z AUTO 18003KT M00/M00 RMK AO1 SLP111 T10041001 57009", "CXKE 311300Z AUTO 18003KT 09/02 RMK AO1 SLP152 T00880015 55001", "CXKI 311300Z AUTO 00016KT 01/M00 RMK AO1 SLP131 T00051003 55002", "CXKM 311300Z AUTO 28007KT 03/M05 RMK AO1 T00311048", "CXKT 311300Z AUTO 00000KT 06/04 RMK AO1 SLP179 T00590042 51006", "CXLB 311300Z AUTO 27006KT 08/07 RMK AO1 SLP193 T00810071 53006", "CXLL 311300Z AUTO 00000KT M06/M08 RMK AO1 SOG 19 3009 SLP052 T10631080", "CXMD 311300Z AUTO 25010G16KT 06/M01 RMK AO1 PK WND 25017/1240 SLP038 T00581010 58009", "CXMG 311300Z AUTO 00000KT M07/M08 RMK AO1 T10661079", "CXMI 311300Z AUTO 25006KT 12/08 RMK AO1 SLP186 T01170078 50006", "CXMM 311300Z AUTO 28006KT 01/M01 RMK AO1 SLP013 T00091008 51026", "CXMO 311300Z AUTO 02001KT 01/M00 RMK AO1 T00071002", "CXMY 311300Z AUTO 07/05 RMK AO1 T00670054", "CXNM 311300Z AUTO 24012KT 11/01 RMK AO1 PK WND 25023/1212 T01090011", "CXNP 311300Z AUTO 19009KT 10/09 RMK AO1 SLP164 T01040086 53008", "CXOL 311300Z AUTO 06002KT 01/01 RMK AO1 T00080008", "CXOX 311300Z AUTO 27005KT 04/M05 RMK AO1 SLP965 T00351049 51014", "CXOY 311300Z AUTO 32005KT 01/M03 RMK AO1 T00051027", "CXPA 311300Z AUTO 00000KT M07/M10 RMK AO1 T10661095", "CXPC 311300Z AUTO 08/05 RMK AO1 SLP137 T00750046 53002", "CXPL 311300Z AUTO 01006KT M03/M03 RMK AO1 T10301030", "CXRB 311300Z AUTO 36009KT M25/M28 RMK AO1 SOG 03 0000 SLP000 T12511284", "CXRH 311300Z AUTO 23011G21KT 11/06 RMK AO1 PK WND 20022/1244 SLP081 T01130061 58020", "CXRL 311300Z AUTO 26007KT M02/M08 RMK AO1 T10181082", "CXSC 311300Z AUTO 06005KT 03/M01 RMK AO1 T00291007", "CXSE 311300Z AUTO 33018KT M15/M17 RMK AO1 SOG 05 0000 PK WND 34023/1207 SLP053 T11511170", "CXSH 311300Z AUTO 04002KT 04/01 RMK AO1 SLP161 T00350014 55000", "CXSL 311300Z AUTO 27004KT M02/M07 RMK AO1 T10241070", "CXSP 311300Z AUTO 24007KT M02/M06 RMK AO1 T10231055", "CXTD 311300Z AUTO 22011KT 10/M01 RMK AO1 PK WND 21018/1216 SLP174 T01031009 58003", "CXTH 311300Z AUTO 26008KT M02/M06 RMK AO1 T10191055", "CXTN 311300Z AUTO 05002KT M24/M26 RMK AO1 SOG 22 3007 SLP144 T12371262", "CXTO 311300Z AUTO 10/08 RMK AO1 7PAST HR 3002 SLP141 P0003 T00970078 50007", "CXTP 311300Z AUTO 23009KT 06/03 RMK AO1 PK WND 23018/1252 SLP122 T00590026 58008", "CXTV 311300Z AUTO 27002KT M13/M14 RMK AO1 SOG 12 3007 SLP169 T11271143", "CXVM 311300Z AUTO 27006KT 01/M07 RMK AO1 T00111068", "CXVN 311300Z AUTO 10001KT 08/07 RMK AO1 5PAST HR 5001 SLP141 P0010 T00790074 50025", "CXVW 311300Z AUTO 17007KT M05/M10 RMK AO1 SLP042 T10451100 51001", "CXWM 311300Z AUTO 21003KT 03/01 RMK AO1 T00340005", "CXWN 311300Z AUTO 22006KT 05/M01 RMK AO1 SLP025 T00461010 58012", "CXYH 311300Z AUTO 00000KT M07/M08 RMK AO1 SLP037 T10651075 53010", "CXZC 311300Z AUTO 13001KT M02/M03 RMK AO1 SLP117 T10181026 56009", "CXZV 311300Z AUTO 29004KT 06/03 RMK AO1 2PAST HR 3026 SLP109 P0001 T00620028 50002", "CYAB 311300Z VRB02KT 10SM -SN OVC020 M15/M18 A2939 RMK SC8 CIG EST SLP958", "CYAH 311300Z AUTO VRB02KT 9SM OVC013 03/M00 A2990 RMK SLP140", "CYAM 311335Z 07002KT 8SM SCT130 BKN160 BKN220 08/08 A2986 RMK AC4AS2CS1 SLP118", "CYAS 311300Z 30018G23KT 15SM FEW045 M06/M09 A2975 RMK SC1 SLP088", "CYAT 311300Z AUTO 17005KT 9SM FEW170 BKN190 01/M01 A2980 RMK SLP094", "CYAW 311300Z 25006KT 15SM FEW120 BKN240 11/08 A3008 RMK AC1CI5 DENSITY ALT -336FT SLP187", "CYAY 311300Z AUTO 18010KT 9SM BKN021 BKN049 09/05 A2967 RMK SLP051", "CYAZ 311320Z 30005KT 3SM BR OVC013 09/08 A2975 RMK SF8 SLP077", "CYBB 311300Z 24013KT 15SM SCT023 M18/M21 A2969 RMK SC4 SLP057", "CYBC 311300Z AUTO 29006KT 9SM CLR 08/04 A2993 RMK SLP139", "CYBD 311300Z 23002KT 3SM -RA BR FEW005 OVC021 03/02 A2972 RMK SF1SC8 SF TR WIND ESTD SLP066", "CYBG 311300Z 09002KT 25SM FEW180 SCT250 02/01 A2998 RMK AC1CI3 SLP159", "CYBK 311300Z 01022G28KT 3SM -SN DRSN OVC036 M14/M17 A2952 RMK SC8 SLP001", "CYBL 311300Z 29003KT 4SM BR FEW006 BKN052 06/06 A2972 RMK SF2SC5 SLP069", "CYBQ 311330Z AUTO /////KT 9SM -RA BKN023 BKN040 BKN055 OVC069 01/M00 A2910 RMK WIND MISG SLP873", "CYBR 311300Z 24006KT 15SM FEW250 M01/M02 A2960 RMK CI2 SLP042", "CYBU 311300Z AUTO 24012KT 9SM OVC120 A2949 RMK T MISG DP MISG DENSITY ALT MISG", "CYBV 311300Z 18003KT 120V210 15SM FEW130 05/02 A2942 RMK AC1 AC TR SLP973", "CYBW 311356Z AUTO 14006KT 9SM -RA -UP SCT018 OVC034 00/M01 A2967 RMK SLP089", "CYBX 311300Z 24015KT 15SM BKN010 OVC057 08/07 A2965 RMK SC5SC3 SLP045", "CYCA 311356Z AUTO 07007KT 2 1/2SM -SN OVC018 01/M01 A2955 RMK SLP009", "CYCB 311334Z 30012KT 15SM IC FEW015 M22/M25 A2984 RMK SC2 FROIN SLP111", "CYCD 311300Z VRB02KT 15SM -RA SCT030 OVC075 08/08 A2971 RMK SC4AC4 SLP062", "CYCG 311300Z 00000KT 2SM -RA BR FEW005 SCT017 BKN041 OVC065 08/08 A2978 RMK SF1SF2SC3SC2 SLP093", "CYCK 311304Z AUTO 15008KT 6SM BR FEW005 SCT021 13/13 A2987 RMK SLP117", "CYCO 311349Z 22011KT 12SM -SN FEW008 SCT016 OVC031 M20/M23 A2991 RMK ST1SC3SC4 SLP133", "CYCP 311300Z 36002KT 4SM BR FEW002 BKN011 BKN042 03/03 A2969 RMK SF2SF3SC1 SLP074", "CYCQ 311300Z 22002KT 10SM FEW040 SCT110 SCT190 BKN220 M06/M09 A2956 RMK SC1AC2AC1CI1 FROIN SLP042", "CYCS 311349Z 08023G28KT 1/2SM SN DRSN OVC007 M02/M02 A2938 RMK SN4SC4 SLP951", "CYCX 311300Z 24007KT 15SM FEW100 BKN210 BKN230 08/02 A3003 RMK AC1CI6CI1 DENSITY ALT -689FT AC TR SLP170", "CYCY 311342Z 30005KT 15SM FEW017 FEW031 FEW050 BKN150 M13/M15 A2931 RMK SF1SC1SC1AC5 SF TR SC TR SLP931", "CYDB 311354Z AUTO 31009KT 9SM -SN FEW039 OVC046 M13/M16 A2952 RMK SLP062", "CYDC 311300Z 33004KT 7SM SCT200 04/03 A2972 RMK CI3 SLP073", "CYDF 311300Z VRB05KT 15SM FEW025 FEW220 10/08 A2981 RMK SC1CI1 SC TR SLP096", "CYDL 311300Z AUTO VRB02KT 9SM BKN081 BKN100 BKN120 M08/M09 A2942 RMK SLP994", "CYDN 311300Z AUTO 25011G17KT 9SM CLR 06/01 A2950 RMK SLP001", "CYDP 311300Z 30024KT 15SM FEW150 FEW170 BKN230 02/M03 A2963 RMK AS1AC2CI4 AS TR SLP037", "CYDQ 311300Z AUTO VRB02KT 9SM CLR M05/M08 A2956 RMK SLP041", "CYED 311300Z 23005KT 15SM SCT120 M03/M07 A2964 RMK AC3 DENSITY ALT 778FT FST OBS SLP062", "CYEG 311300Z 20006KT 20SM FEW130 M05/M08 A2964 RMK AC1 AC TR SLP068", "CYEK 311300Z 14010KT 15SM OVC008 01/01 RMK SC8 ALTM 2911 WND ESTD VIA CYQB DENSITY ALT MISG", "CYEN 311300Z AUTO 23009G15KT 9SM BKN230 OVC250 04/01 A2967 RMK SLP068", "CYER 311300Z AUTO 16008KT 9SM SCT086 BKN100 BKN240 02/00 A2951 RMK SLP995", "CYET 311300Z AUTO 00000KT 9SM OVC120 M03/M07 A2959 RMK SLP056", "CYEV 311300Z 30002KT 15SM -SN OVC024 M14/M16 A3000 RMK SC8 SLP171", "CYFB 311300Z 33020G26KT 30SM -SN DRSN FEW020 BKN026 M06/M09 A2964 RMK SC1SC7 SC TR SLP041", "CYFC 311300Z AUTO 20005KT 9SM BKN200 BKN220 05/03 A3003 RMK SLP173", "CYFO 311300Z 23008KT 15SM FEW080 FEW140 02/M00 A2933 RMK AC1AC1 SLP948", "CYFS 311350Z 32006KT 2 1/2SM -SN OVC010 M06/M07 A2963 RMK SC8 CIG VRB 007-013 SLP048", "CYFT 311300Z 25005KT 15SM BKN080 01/M04 A2960 RMK AS7 SLP031", "CYGE 311300Z 15008KT 10SM FEW012 BKN067 OVC090 06/03 A2965 RMK SF1AC5AS3 SF TR SLP060", "CYGH 311300Z 32006KT 290V350 10SM -SN SCT018 BKN030 M17/M19 A2990 RMK SC4SC3 SNW CVR/MUCH LOOSE SLP139", "CYGK 311300Z 18013KT 15SM BKN170 BKN250 12/08 A2997 RMK AC5CI2 SLP153", "CYGL 311300Z 17008KT 15SM FEW002 BKN190 OVC240 01/01 A2988 RMK SF1CI4CI3 SLP132", "CYGP 311300Z 32006KT 260V350 15SM BKN230 09/01 A2986 RMK CI7 SLP116", "CYGR 311300Z 25016KT 20SM SCT280 12/06 A2991 RMK CI4 SLP130", "CYGT 311300Z 29019G26KT 15SM DRSN SCT071 BKN140 M15/M17 A2954 RMK AC3AS2 SLP012", "CYGV 311300Z AUTO 27015G20KT 9SM CLR 07/05 A2976 RMK SLP082", "CYGW 311300Z AUTO 14005KT 110V180 9SM OVC015 02/01 A2986 RMK SLP114", "CYGX 311300Z 20009KT 15SM SCT120 01/M03 A2924 RMK AS4 SLP914", "CYHA 311300Z 32024G30KT 15SM OVC027 M02/M07 A2971 RMK SC8 SLP065", "CYHD 311300Z AUTO 17009KT 9SM BKN220 BKN240 03/M01 A2965 RMK SLP059", "CYHE 311300Z AUTO 08003KT 060V130 9SM -RA OVC044 08/07 A2975 RMK SLP077", "CYHK 311300Z AUTO 28009KT 9SM OVC018 M17/M19 A2973 RMK SLP076", "CYHM 311325Z 04002KT 3/4SM R12/P6000FT/D -RA BR OVC008 08/08 A2993 RMK FG3SF5 SLP143", "CYHU 311300Z AUTO VRB02KT 9SM BKN200 BKN220 08/02 A2999 RMK SLP159", "CYHY 311348Z 30007KT 15SM BKN011 OVC015 M04/M07 A2961 RMK SC5SC3 SLP042", "CYHZ 311300Z 22009KT 15SM BKN240 09/05 A3006 RMK CS7 CS ASOCTD HALO SLP185", "CYIK 311300Z 14006KT 15SM BKN026 BKN028 OVC031 M04/M09 A2977 RMK SC6SC1SC1 SLP088", "CYIN 311300Z AUTO 14007KT 9SM CLR M03/M06 A2959 RMK SLP042", "CYIO 311344Z AUTO 28005KT 9SM -SN BKN019 OVC045 M13/M14 A2938 RMK SLP957", "CYIV 311300Z AUTO 20006KT 9SM FEW120 04/M01 A2937 RMK SLP958", "CYJT 311300Z 20010KT 15SM FEW030 FEW210 11/07 A2986 RMK SC1CI1 SC TR SLP115", "CYKA 311300Z 00000KT 40SM FEW082 BKN160 BKN210 05/M00 A2967 RMK AC2AC3CI1 SLP056", "CYKF 311353Z AUTO 12003KT 1/2SM -RA FG OVC004 08/07 A2992 RMK PCPN 0.5MM PAST HR SLP141", "CYKG 311300Z 33014G21KT 15SM -SN OVC024 M05/M10 A2973 RMK SC8 SLP081", "CYKJ 311343Z AUTO 28012G19KT 9SM -SN FEW017 BKN024 OVC035 M00/M01 A2930 RMK SLP951", "CYKL 311300Z AUTO 32010G17KT 9SM BKN024 M02/M04 A2977 RMK PRESRR SLP113", "CYKO 311300Z 14007KT 15SM BKN025 M02/M07 A2978 RMK SC7 SLP089", "CYKQ 311300Z 12004KT 15SM FEW200 M01/M01 A2990 RMK CI2 SLP130", "CYKY 311300Z 29007KT 15SM BKN072 02/M01 A2966 RMK AC7 SLP068", "CYLA 311300Z 30019G27KT 15SM FEW020 M04/M07 A2979 RMK SC1 SC TR SLP093", "CYLC 311300Z 31019KT 15SM DRSN SCT026 M08/M12 A2969 RMK SC3 SLP060", "CYLD 311300Z 18003KT 15SM BKN200 00/M00 A2985 RMK CS6 SLP129", "CYLH 311300Z AUTO 17007KT 9SM BKN130 01/M03 A2968 RMK SLP068", "CYLJ 311300Z 25012KT 15SM SKC 00/M06 A2954 RMK SLP024", "CYLL 311300Z 27011KT 15SM SCT120 02/M07 A2961 RMK AC4 SLP051", "CYLT 311300Z 29008KT 10SM SCT029 M22/M25 A2969 RMK SC4 FROIN SLP060", "CYLU 311340Z 30013G25KT 3SM -SN SCT008 OVC025 M01/M02 A2973 RMK SN2ST2SC4 VIS N 8 SLP073", "CYLW 311300Z AUTO 33003KT 310V080 9SM BKN210 BKN230 08/03 A2971 RMK SLP068", "CYMA 311300Z 01008KT 10SM -SN BKN050 BKN075 OVC100 M08/M13 A2951 RMK SC5AC1AC2 SLP035", "CYMH 311348Z AUTO 17006KT 140V220 9SM -RA BKN060 OVC078 07/03 A2957 RMK PRESFR SLP015", "CYMM 311300Z AUTO 26008KT 9SM OVC044 01/M01 A2952 RMK SLP014", "CYMO 311300Z AUTO 14004KT 9SM CLR M00/M01 A2987 RMK SLP117", "CYMT 311300Z AUTO 00000KT 8SM CLR 01/01 A2993 RMK SLP151", "CYMU 311300Z 10010KT 15SM FEW020 BKN190 M03/M04 A2987 RMK SC2AS4 SLP122", "CYMX 311300Z 00000KT 30SM BKN170 05/02 A2998 RMK AC6 SLP158", "CYNA 311300Z AUTO 27014G19KT 9SM FEW081 08/04 A2973 RMK SLP070", "CYND 311300Z 00000KT 15SM SCT170 SCT190 BKN230 04/03 A2998 RMK AC3AC1CI4 AC TR SLP156", "CYNE 311300Z AUTO 20005KT 9SM CLR 04/03 A2932 RMK SLP940", "CYNM 311300Z AUTO VRB02KT 9SM BKN060 00/M00 A2990 RMK SLP138", "CYOC 311300Z 27004KT 35SM FEW033 M20/M22 A2993 RMK SC1 SC TR TR/FROIN SLP166", "CYOD 311300Z 24007KT 15SM FEW140 M01/M06 A2957 RMK AC1 DENSITY ALT 624FT AURBO SLP032", "CYOJ 311304Z 00000KT 10SM -SN BKN021 OVC031 M02/M02 A2956 RMK SC5SC3 SLP032", "CYOO 311359Z AUTO VRB02KT 9SM FEW039 OVC091 09/07 A2995 RMK SLP146", "CYOW 311300Z 17003KT 15SM BKN170 07/02 A2997 RMK AC6 SLP155", "CYOY 311300Z 18002KT 15SM FEW170 BKN240 00/00 A3001 RMK AC1CI4 DENSITY ALT -1185FT SLP172", "CYPA 311300Z 26009KT 15SM FEW110 SCT250 03/M03 A2956 RMK AC1CI3 AC TR SLP029", "CYPC 311300Z 11002KT 10SM -SN OVC019 M12/M15 A2995 RMK SC8 SNW CVR/MUCH LOOSE SLP144", "CYPD 311300Z AUTO 24013KT 9SM BKN230 12/M01 A3000 RMK SLP163", "CYPE 311300Z 21008KT 15SM FEW230 M05/M09 A2954 RMK CI2 SLP032", "CYPG 311300Z 24015G20KT 15SM SCT220 08/01 A2957 RMK CI4 SLP019", "CYPH 311300Z AUTO 13009KT 9SM OVC025 M01/M05 A2981 RMK SLP099", "CYPL 311300Z AUTO 19011G18KT 9SM SCT160 BKN190 BKN210 03/M03 A2964 RMK SLP057", "CYPO 311300Z AUTO 17006KT 9SM SCT130 BKN150 02/M01 A2964 RMK SLP040", "CYPQ 311307Z AUTO 27003KT 220V320 9SM OVC120 05/03 A2995 RMK SLP149", "CYPR 311354Z AUTO 15008G15KT 120V200 5SM RA BR FEW013 BKN027 BKN042 OVC055 03/02 A2965 RMK PCPN 0.5MM PAST HR SLP044", "CYPW 311353Z 10004KT 070V130 10SM -RA SCT006 BKN032 BKN058 OVC067 09/09 A2969 RMK SF3SC2SC2AC1 VIS N-E 3 LO CLD BR SLP059", "CYPX 311300Z AUTO 17003KT 140V240 9SM OVC027 M02/M08 A2981 RMK SLP099", "CYPY 311350Z AUTO 32006KT 9SM BKN018 OVC025 M02/M04 A2952 RMK SLP014", "CYQA 311300Z AUTO VRB02KT 9SM OVC120 06/02 A2990 RMK SLP137", "CYQB 311300Z 00000KT 20SM FEW190 SCT230 03/02 A3001 RMK AC1CI3 AC TR SLP169", "CYQD 311300Z AUTO 25013G19KT 9SM SCT140 BKN170 03/M00 A2936 RMK SLP955", "CYQF 311352Z AUTO 30002KT 9SM -RA OVC050 00/M01 A2969 RMK SLP094", "CYQG 311343Z AUTO 14002KT 2SM BR BKN005 OVC008 13/13 A2986 RMK PCPN 0.8MM PAST HR SLP113 DENSITY ALT 700FT", "CYQH 311300Z VRB02KT 20SM BKN180 M07/M07 A2941 RMK AC6 SLP997", "CYQI 311300Z 24008KT 15SM FEW010 BKN250 12/11 A3010 RMK SF1CI5 SF TR SLP196", "CYQK 311300Z CCA 19011KT 20SM SCT160 BKN240 05/01 A2961 RMK AC3CI2 SLP043", "CYQL 311300Z 33003KT 20SM FEW230 02/M01 A2962 RMK CI2 SLP049", "CYQM 311300Z 24007KT 15SM BKN210 08/02 A3000 RMK CI7 SLP163", "CYQQ 311334Z 33004KT 6SM BR OVC005 08/07 A2971 RMK SF8 SLP061", "CYQR 311300Z 28009KT 15SM FEW180 BKN270 01/M01 A2965 RMK AC1CI4 SLP064", "CYQT 311300Z 23003KT 20SM FEW180 SCT240 M03/M04 A2982 RMK AC2CI1 SLP109", "CYQU 311300Z 27006KT 25SM SKC M03/M09 A2957 RMK SLP046", "CYQV 311300Z AUTO 24009KT 9SM FEW140 02/M01 A2955 RMK ICE MISG SLP026", "CYQW 311300Z AUTO 27008KT 9SM OVC110 04/M03 A2964 RMK SLP059", "CYQX 311300Z 22013G18KT 20SM SCT110 08/03 A2986 RMK AC4 SLP117", "CYQY 311300Z 22009KT 15SM SCT250 11/06 A2996 RMK CI3 SLP151", "CYQZ 311300Z AUTO 00000KT 9SM OVC130 M02/M04 A2964 RMK SLP061", "CYRB 311300Z 33008KT 15SM IC BKN033 M24/M27 A2951 RMK SC6 SLP006", "CYRJ 311300Z 24006KT 40SM FEW210 SCT220 BKN230 09/02 A2996 RMK CC2CS2CI3 SLP153", "CYRL 311300Z 18006KT 15SM BKN150 BKN240 04/M01 A2956 RMK AC5CI1 CI TR SLP025", "CYRQ 311300Z AUTO 04003KT 8SM CLR 02/02 A2999 RMK SLP161", "CYRT 311330Z 09019G27KT 3/8SM -SN BLSN OVC003 M01/M01 A2925 RMK BLSN5SC3 SLP909", "CYRV 311300Z AUTO 22003KT 140V240 9SM -RA BKN021 BKN027 OVC046 07/06 A2972 RMK ICE MISG SLP076", "CYSB 311342Z 09003KT 1/4SM R22/1400V1800FT/N FG VV001 06/06 A2988 RMK FG8 SLP132", "CYSC 311300Z AUTO 10004KT 9SM OVC180 02/M01 A3001 RMK SLP174", "CYSF 311338Z AUTO 34011G17KT 9SM OVC033 M07/M11 A2938 RMK PRESRR SLP971", "CYSJ 311300Z 25004KT 15SM FEW008 OVC200 11/11 A3005 RMK SF1CI8 SF TR SLP180", "CYSK 311300Z 15007KT 15SM BKN017 00/M01 A2981 RMK SC7 SLP100", "CYSM 311353Z 01006KT 3SM -SN OVC015 M06/M08 A2956 RMK SC8 SLP025", "CYSN 311324Z 14003KT 10SM BKN041 OVC080 09/09 A2994 RMK SC6AC2 SLP142", "CYSP 311300Z 15005KT 15SM FEW080 FEW240 M04/M04 A2980 RMK AS1CI1 CI TR SLP112", "CYSY 311300Z 05015KT 1SM -SN DRSN SCT003 OVC014 M21/M24 A3001 RMK ST3SC5 S02 AFT 1800Z, SNW CVR MUCH LOOSE SLP176", "CYTE 311300Z 29004KT 15SM -SN BKN026 M08/M11 A2973 RMK SC7 SLP075", "CYTH 311300Z 25007KT 140V260 15SM SCT096 BKN220 M00/M02 A2924 RMK AC4CI2 PRESRR SLP914", "CYTL 311300Z AUTO 18010KT 9SM OVC091 05/M02 A2950 RMK SLP005", "CYTQ 311300Z 33013KT 15SM FEW028 M03/M07 A2982 RMK SC2 SLP104", "CYTR 311300Z 07003KT 15SM SCT130 OVC170 05/04 A2995 RMK AC4AC4 DENSITY ALT -777FT SLP145", "CYTS 311300Z 16005KT 15SM SCT060 BKN170 BKN240 02/02 A2986 RMK SC4AC2CI1 SLP125", "CYTZ 311347Z AUTO VRB02KT 5SM BR BKN023 BKN034 OVC050 10/09 A2995 RMK SLP145", "CYUA 311300Z AUTO 26006KT ////SM OVC025 M14/M16 A3003", "CYUB 311300Z 03009KT 10SM -SN OVC020 M10/M13 A3001 RMK SC8 SNW CVR/TRACE LOOSE SLP164", "CYUL 311300Z 14005KT 30SM BKN180 BKN220 BKN250 09/02 A2998 RMK AC5CC1CI1 SLP156", "CYUS 311313Z AUTO 34015KT ////SM //// FEW008 BKN015 OVC020 M15/M18 A2968", "CYUT 311300Z 02006KT 15SM SCT040 M19/M22 A2974 RMK SC4 SLP077", "CYUX 311300Z 28015KT 10SM DRSN FEW020 M17/M19 A2961 RMK SC2 SLP032", "CYUY 311300Z 00000KT 15SM SCT140 BKN200 03/03 A2989 RMK AC3CI4 SLP136", "CYVC 311300Z 26008G15KT 15SM FEW070 03/M04 A2941 RMK AC1 SLP975", "CYVL 311357Z AUTO 01010KT 9SM CLR M18/M19 A2981 RMK SLP132", "CYVM 311300Z 16005KT 15SM FEW011 FEW030 SCT090 BKN250 M11/M14 A2942 RMK SC1SC1AC2CC4 SC TR SLP964", "CYVO 311300Z 00000KT 15SM BKN170 OVC190 04/04 A2991 RMK AC6AS2 SLP144", "CYVP 311300Z 30012KT 15SM -SN BKN031 BKN070 M01/M06 A2982 RMK SC5AC1 CIG RAG SLP103", "CYVQ 311300Z 28017KT 20SM -SN SCT020 BKN032 OVC075 M13/M15 A2985 RMK SC3SC3AC2 SLP118", "CYVR 311300Z 09009KT 8SM -RA FEW007 SCT019 OVC043 09/09 A2974 RMK SC1SC3SC4 SLP073", "CYVT 311325Z AUTO 34013G19KT 9SM BKN032 OVC050 03/M01 A2946 RMK WSHFT AT 1314Z SLP996", "CYVV 311300Z 14007KT 15SM BKN060 BKN100 08/05 A2988 RMK SC6AC1 SLP124", "CYWE 311345Z AUTO 08011G18KT 9SM SCT055 OVC110 M14/M17 A2965 RMK ICE MISG SLP082", "CYWG 311300Z 21010G18KT 15SM FEW160 FEW180 FEW220 04/M00 A2957 RMK AC1AC1CI1 CI TR SLP024", "CYWH 311300Z 14006KT 120V200 15SM -RA SCT018 OVC040 10/09 A2973 RMK SC4SC4 PRESFR SLP070", "CYWJ 311300Z 32011KT 20SM SCT025 BKN050 M11/M12 A2968 RMK SC4SC3 SNW CVR/MUCH LOOSE SLP073", "CYWK 311300Z 33009G15KT 15SM BKN020 02/M02 A2979 RMK CU6 SLP113", "CYWL 311300Z 05003KT 030V100 15SM FEW060 BKN095 M00/M05 A2959 RMK SC1AC4 PRESFR SLP050", "CYXC 311300Z 29006KT 10SM -SHRA OVC040 05/03 A2969 RMK SC8 CVCTV CLD EMBD SLP068", "CYXE 311300Z 26008KT 15SM BKN093 05/M05 A2962 RMK AC7 SLP048", "CYXH 311300Z 02006KT 15SM BKN090 04/01 A2964 RMK AC7 SLP053", "CYXJ 311300Z 20005KT 15SM FEW200 M02/M08 A2953 RMK CI1 SLP033", "CYXL 311300Z 18008KT 15SM SCT120 SCT240 03/M01 A2966 RMK AC3CI1 CI TR SLP066", "CYXN 311327Z 32015KT 3SM -SN OVC005 00/M00 A2918 RMK ST8 WIND ESTD SLP885", "CYXP 311300Z 26013G23KT 15SM BKN030 BKN120 M05/M08 A2945 RMK SC5AC1 SLP976", "CYXR 311300Z AUTO 30003KT 6SM BR OVC120 03/03 A2989 RMK SLP132", "CYXS 311300Z AUTO 16004KT 9SM CLR M04/M08 A2961 RMK SLP058", "CYXT 311357Z 26003KT 190V300 5SM BR FEW002 BKN006 OVC013 01/00 A2965 RMK SF1SF4SF3 SLP052", "CYXU 311300Z 10004KT 3/4SM R15/P6000FT/N -SHRA BR OVC002 10/10 A2990 RMK ST8 CVCTV CLD EMBD SLP131", "CYXX 311341Z 00000KT 3SM RA FEW003 BKN026 OVC044 08/08 A2974 RMK SF2SC3NS3 SLP073", "CYXY 311354Z 01004KT 330V040 15SM -SN FEW006 OVC015 M05/M06 A2940 RMK SF1SC7 SLP001", "CYXZ 311300Z 00000KT 8SM FEW050 FEW150 01/01 A2984 RMK SC1AC1 MIFG SLP121", "CYYB 311300Z 09006KT 25SM OVC150 08/03 RMK AC8 ALT 29.90 VIA CYXU DENSITY ALT MISG", "CYYC 311300Z 09003KT 6SM BR FEW015 OVC034 02/M02 A2968 RMK CF1SC8 CF TR SLP080", "CYYD 311348Z AUTO 00000KT 8SM -SN SCT018 OVC055 M00/M01 A2955 RMK SLP028", "CYYE 311300Z 00000KT 15SM FEW019 BKN100 OVC140 M07/M08 A2957 RMK SC1AC5AC3 SC TR SLP039", "CYYF 311300Z 07005KT 15SM FEW060 BKN090 OVC160 11/03 A2969 RMK SC2AC3AC3 SLP060 DENSITY ALT 1200FT", "CYYG 311300Z 24008KT 15SM FEW100 BKN220 12/07 A2998 RMK AC2CI4 SLP155", "CYYH 311327Z 24006KT 12SM -SN FEW007 FEW016 OVC022 M17/M20 A2968 RMK ST1SC1SC8 ST TR SC TR SLP057", "CYYJ 311342Z 12008KT 15SM -RA FEW009 OVC036 10/10 A2971 RMK SC2SC6 SLP063", "CYYL 311354Z AUTO 29016G24KT 9SM -RA BKN019 BKN039 04/01 A2919 RMK SLP901", "CYYN 311300Z AUTO 26003KT 9SM CLR 01/M01 A2966 RMK ICE MISG SLP067", "CYYQ 311300Z 20008KT 15SM FEW040 BKN250 M03/M04 A2918 RMK SC1CI6 SC TR SLP886", "CYYR 311348Z 01010G16KT 15SM -SHRA FEW005 SCT014 OVC024 03/01 A2955 RMK SF1SF3SC5 PRESRR SLP010", "CYYT 311300Z 26014KT 15SM FEW018 FEW160 09/06 A2995 RMK SC1AC1 SC TR AC TR SLP148", "CYYU 311300Z 17004KT 15SM MIFG FEW230 M01/M01 A2982 RMK CI2 MIFG E-S SLP110", "CYYW 311300Z AUTO 00000KT 9SM CLR M05/M05 A2975 RMK SLP097", "CYYY 311300Z 22008KT 30SM BKN230 10/02 A2995 RMK CI6 SLP146", "CYYZ 311300Z 00000KT 4SM -RA BR BKN023 OVC042 08/08 A2994 RMK SC6SC2 SLP144", "CYZE 311346Z AUTO VRB02KT 3SM BR BKN002 09/09 A2987 RMK SLP120", "CYZF 311300Z 06008KT 15SM OVC049 M10/M12 A2963 RMK SC8 SLP056", "CYZG 311300Z 23008KT 10SM -SN OVC020 M07/M11 A2976 RMK SC8 SLP099", "CYZH 311300Z AUTO 25008KT 9SM CLR 01/M08 A2956 RMK SLP030", "CYZP 311341Z AUTO 20009KT 9SM -RA BKN032 BKN120 BKN170 03/00 A2967 RMK SLP048", "CYZR 311355Z AUTO 00000KT 3SM -RA BR OVC005 13/12 A2986 RMK PCPN 2.8MM PAST HR SLP116", "CYZS 311355Z 08010KT 3SM -SN OVC030 M10/M12 A2968 RMK SC8 SLP061", "CYZT 311333Z 20005KT 15SM SCT022 BKN044 OVC079 05/05 A2977 RMK SC3SC2AC3 SLP082", "CYZU 311300Z 26006KT 220V290 15SM SKC M02/M09 A2959 RMK SLP051", "CYZV 311300Z 27008KT 30SM FEW010 SCT240 06/03 A2985 RMK SC1CI4 SC TR SLP113", "CYZX 311300Z 23002KT 15SM OVC250 07/06 A3006 RMK CI8 SLP182", "CYZY 311300Z AUTO 16004KT 9SM OVC081 M02/M05 A2958 RMK SLP049", "CZBF 311300Z AUTO 25006KT 9SM BKN200 10/M01 A2995 RMK SLP145", "CZCP 311300Z AUTO 05007KT ////SM //// OVC010 M12/M14 A2990", "CZCR 311300Z AUTO 28005KT 07/01 RMK AO1 SLP142 T00680010 53012", "CZDB 311300Z AUTO 10002KT 05/ RMK AO1 SLP184 T0048 51005", "CZEL 311300Z AUTO 09005KT 07/06 RMK AO1 3PAST HR 6002 SLP139 P0005 T00710062 50013", "CZEM 311300Z 10003KT 15SM SCT240 M00/M00 A2991 RMK CI3 SLP130", "CZEV 311300Z AUTO 33003KT M14/M15 RMK AO1 SOG 09 3010 SLP172 T11371154", "CZFS 311300Z AUTO 31007KT M06/M07 RMK AO1 2PAST HR SOG 10 2010 SLP043 P0001 T10601074 50002", "CZHY 311300Z AUTO 29005KT M04/M06 RMK AO1 SOG 06 2012 SLP033 T10361063", "CZKD 311300Z AUTO 23005KT 01/M01 RMK AO1 SLP915 T00141007 56023", "CZMD 311300Z AUTO 20010G16KT 9SM OVC130 05/M02 A2946 RMK ICE MISG SLP990", "CZMJ 311300Z AUTO 27009KT 01/M01 RMK AO1 SLP072 T00131010 52014", "CZOL 311300Z AUTO 26003KT 01/M06 RMK AO1 T00071055", "CZPC 311300Z AUTO 26016G22KT 9SM BKN240 07/02 A2959 RMK SLP032 DENSITY ALT 4300FT", "CZPS 311300Z AUTO 24007KT M00/M02 RMK AO1 T10021021", "CZRP 311300Z AUTO 34021KT M19/M21 RMK AO1 SOG 52 0000 PK WND 34028/1241 SLP049 T11911209", "CZSJ 311300Z AUTO 17004KT 130V200 9SM CLR 05/M02 A2944 RMK SLP983", "CZSM 311300Z AUTO 03002KT M06/M07 RMK AO1 2PAST HR SOG 02 2028 SLP014 P0001 T10571072 50002", "CZSP 311300Z AUTO 23012G17KT 13/07 RMK AO1 PK WND 22017/1201 SLP147 T01260068 50002", "CZST 311300Z 00000KT 8SM SCT035 01/01 A2963 RMK SC4 SLP037", "CZTB 311300Z AUTO 22003KT M02/M03 RMK AO1 SLP110 T10181030 56010", "CZUM 311338Z AUTO 32013G19KT 9SM -RA FEW015 OVC022 02/M01 A2972 RMK SLP086", "CZVL 311300Z AUTO 22007KT 9SM CLR M02/M06 A2962 RMK SLP057", "CZZJ 311300Z AUTO 23001KT M03/M08 RMK AO1 SLP055 T10281084 58001", "DAAD 311300Z VRB02KT 8000 NSC 23/06 Q1024", "DAAE 311300Z 06005KT 8000 NSC 23/18 Q1019", "DAAG 311330Z 01008KT 7000 NSC 28/15 Q1019", "DAAJ 311300Z 03007KT CAVOK 25/M03 Q1022", "DAAP 311300Z 03004KT CAVOK 28/M02 Q1021", "DAAS 311300Z 29006KT CAVOK 24/M07 Q1024", "DAAT 311330Z VRB04KT CAVOK 26/M04 Q1023", "DAAV 311300Z 34004KT 300V360 9000 NSC 24/13 Q1019", "DAAY 311300Z 21008KT CAVOK 25/M06 Q1025", "DABB 311330Z 05010KT CAVOK 24/17 Q1019", "DABC 311330Z 01006KT CAVOK 27/02 Q1022", "DABS 311300Z 31005KT CAVOK 25/M07 Q1023", "DABT 311300Z 32005KT CAVOK 27/M03 Q1024", "DAFH 311300Z 26008KT CAVOK 26/M02 Q1024", "DAOB 311300Z 10004KT CAVOK 27/M08 Q1024", "DAOF 311300Z 08008KT CAVOK 30/M04 Q1021", "DAOI 311300Z 24003KT CAVOK 30/M04 Q1020", "DAOL 311300Z 15004KT 7000 NSC 30/08 Q1019", "DAON 311330Z 33003KT CAVOK 31/07 Q1018", "DAOO 311330Z VRB02KT 8000 NSC 29/10 Q1018", "DAOR 311300Z VRB02KT CAVOK 27/M03 Q1024", "DAOV 311300Z VRB02KT CAVOK 31/// Q1020", "DAOY 311300Z 26006KT CAVOK 23/M07 Q1025", "DATM 311300Z 05009KT 020V080 CAVOK 33/M02 Q1017", "DAUA 311300Z 02014KT CAVOK 30/M05 Q1019", "DAUB 311300Z 14004KT CAVOK 27/08 Q1021", "DAUE 311300Z 10005KT CAVOK 27/01 Q1023", "DAUG 311300Z VRB02KT CAVOK 27/M02 Q1023", "DAUH 311300Z VRB02KT CAVOK 28/05 Q1021", "DAUI 311300Z 08009KT CAVOK 32/M03 Q1018", "DAUK 311300Z VRB02KT CAVOK 28/06 Q1022", "DAUL 311300Z 22006KT CAVOK 26/05 Q1023", "DAUO 311300Z VRB02KT CAVOK 27/07 Q1021", "DAUT 311300Z 07007KT CAVOK 29/M03 Q1020", "DAUU 311300Z 00000KT CAVOK 28/04 Q1020", "DAUZ 311300Z 04005KT 360V080 CAVOK 27/M01 Q1021", "DBBB 311300Z 18009KT 160V220 9999 SCT009 30/25 Q1009 TEMPO BKN009 FEW019CB", "DFFD 311300Z 10011KT 050V140 CAVOK 36/10 Q1011 NOSIG", "DFOO 311300Z 07012KT CAVOK 35/11 Q1012", "DGAA 311300Z 16009KT 120V200 9999 FEW023 30/25 Q1010 NOSIG", "DIAP 311400Z 21009KT 160V240 9999 SCT013 FEW020CB 30/26 Q1009 NOSIG", "DIBK 311300Z 06008KT 9999 BKN015 31/22 Q1011 NSOIG", "DIYO 311300Z 16006KT 9999 SCT016 32/23 Q1010 NOSIG", "DNAA 311300Z 06006KT 5000 HZ NSC 34/13 Q1011 NOSIG", "DNEN 311300Z 32004KT 9999 SCT014 33/22 Q1010 NOSIG", "DNGO 311300Z 04014KT 8000 NSC 34/11 Q1012", "DNIB 311300Z 17003KT 9999 SCT014 33/24 Q1011", "DNJO 311300Z 08012KT CAVOK 28/08 Q1018", "DNKA 311300Z 06013KT CAVOK 32/14 Q1014", "DNKN 311300Z 04013KT CAVOK 32/10 Q1015 NOSIG", "DNKT 311300Z 10010KT CAVOK 33/07 Q1014", "DNMM 311300Z 18005KT 9999 BKN014 FEW020CB 31/25 Q1010 TEMPO TS", "DNMN 311300Z 05007KT 3500 HZ NSC 34/15 Q1009", "DNPO 311300Z 18004KT 9999 BKN360M FEWCB600M 32/26 Q1006 TEMPO TS", "DNSO 311300Z 09013KT CAVOK 31/17 Q1012", "DNYO 311300Z 12009KT CAVOK 37/13 Q1009", "DRRM 311300Z 07010KT CAVOK 34/07 Q1012", "DRRN 311300Z 10011KT CAVOK 36/01 Q1011 NOSIG", "DRRT 311300Z 06008KT CAVOK 35/01 Q1013", "DRZA 311300Z 10010KT CAVOK 33/07 Q1015", "DRZR 311300Z 02012KT CAVOK 34/03 Q1014", "DTKA 311300Z 33005KT 290V010 CAVOK 24/17 Q1020 NOSIG", "DTMB 311330Z 06010KT 9999 SCT023 25/17 Q1020", "DTNH 311330Z 07010KT 050V110 CAVOK 27/16 Q1020", "DTTA 311330Z 03008KT 360V060 CAVOK 26/17 Q1020", "DTTB 311300Z 06010KT 9999 FEW020 27/17 Q1020", "DTTD 311300Z 11004KT 060V180 CAVOK 25/07 Q1022", "DTTF 311300Z 24009KT 200V260 8000 NSC 25/12 Q1022 NOSIG", "DTTG 311300Z VRB03KT CAVOK 28/10 Q1022 NOSIG", "DTTJ 311330Z 35005KT 320V030 8000 FEW020 26/13 Q1021 NOSIG", "DTTK 311300Z 20004KT 9999 FEW023 29/11 Q1020", "DTTL 311300Z VRB04KT 9999 SCT020 26/18 Q1021", "DTTN 311300Z 0200KT CAVOK 27/07 Q1029", "DTTR 311300Z VRB05KT CAVOK 26/09 Q1022", "DTTX 311300Z 19009KT 150V220 9999 FEW030 26/14 Q1021", "DTTZ 311300Z 22005KT 180V260 CAVOK 27/13 Q1021", "DXNG 311300Z 14010KT 9999 FEW010 34/13 Q1012", "DXXX 311300Z 18008KT 140V210 9999 FEW016 32/24 Q1010 NOSIG", "EBAW 311350Z 09007KT CAVOK 17/14 Q1013 NOSIG", "EBBE 311325Z AUTO 09006KT 9999 FEW240/// 17/13 Q1014 BLU", "EBBL 311325Z AUTO 08004KT 9000 FEW180/// 17/13 Q1015 BLU", "EBBR 311350Z 12005KT 080V150 CAVOK 19/13 Q1013 NOSIG", "EBCI 311350Z 12009KT 080V140 CAVOK 18/11 Q1013 NOSIG", "EBCV 311325Z AUTO 10005KT 9999 NCD 20/13 Q1013 BLU", "EBDT 311325Z AUTO 10004KT 9999 FEW130/// SCT240/// 17/13 Q1014 BLU", "EBFN 311325Z AUTO 10006KT 9999 BKN100/// 16/13 Q1012 BLU", "EBFS 311325Z AUTO 15011KT 9999 FEW110/// BKN150/// BKN220/// 19/11 Q1014 BLU", "EBLB 311325Z AUTO 17007KT 9999 FEW130/// SCT150/// 17/09 Q1016 BLU", "EBLG 311350Z 14007KT 110V190 CAVOK 19/11 Q1014 NOSIG", "EBOS 311350Z 09008KT CAVOK 15/12 Q1012 NOSIG", "EDAC 311350Z 36004KT CAVOK 18/13 Q1020", "EDAH 311350Z 25005KT 0500 0450E R28/0650D FG OVC001 13/13 Q1020", "EDBC 311350Z AUTO 09005KT 1100 0450 R25/0650D // FEW001/// BKN003/// BKN200/// 14/13 Q1020", "EDDB 311350Z AUTO 00000KT CAVOK 18/13 Q1020 NOSIG", "EDDC 311350Z AUTO VRB02KT CAVOK 20/12 Q1020 NOSIG", "EDDE 311350Z AUTO 03004KT CAVOK 16/13 Q1019 NOSIG", "EDDF 311350Z AUTO 07004KT CAVOK 18/13 Q1017 NOSIG", "EDDG 311350Z AUTO 10003KT 030V160 CAVOK 17/13 Q1017 NOSIG", "EDDH 311350Z AUTO 17004KT 140V200 9999 SCT012 14/12 Q1020 TEMPO BKN012", "EDDK 311350Z AUTO 12008KT 090V150 9999 VCSH FEW///TCU 19/12 Q1016 NOSIG", "EDDL 311350Z AUTO 14009KT CAVOK 19/12 Q1016 NOSIG", "EDDM 311350Z AUTO 05005KT CAVOK 17/13 Q1019 NOSIG", "EDDN 311350Z AUTO 31003KT 280V340 CAVOK 17/14 Q1018 NOSIG", "EDDP 311350Z AUTO VRB02KT 8000 NSC 17/13 Q1020 NOSIG", "EDDR 311350Z AUTO 07005KT 040V120 9999 -SHRA FEW///TCU 17/13 Q1017 NOSIG", "EDDS 311350Z AUTO VRB01KT CAVOK 17/12 Q1017 NOSIG", "EDDV 311350Z AUTO 07007KT CAVOK 16/13 Q1019 NOSIG", "EDDW 311350Z AUTO 11007KT 070V130 7000 SCT005 14/13 Q1019 TEMPO BKN005", "EDFH 311350Z 13010KT CAVOK 14/10 Q1018", "EDFM 311350Z 00000KT CAVOK 19/14 Q1018", "EDGS 311350Z 12009KT CAVOK 15/10 Q1018", "EDHI 311350Z AUTO VRB04KT 9000 // FEW011/// SCT100/// BKN130/// 14/14 Q1019", "EDHK 311350Z 20004KT 160V230 9999 SCT015 13/10 Q1020", "EDHL 311350Z 16003KT 120V210 9999 BKN011 14/11 Q1020", "EDJA 311350Z 06003KT CAVOK 17/14 Q1018", "EDLN 311350Z 13007KT 090V160 CAVOK 18/12 Q1015", "EDLP 311350Z 11008KT 080V160 CAVOK 18/13 Q1018", "EDLV 311350Z 10004KT 030V140 CAVOK 17/14 Q1015", "EDLW 311350Z 11005KT CAVOK 19/12 Q1017", "EDMA 311350Z 02007KT CAVOK 14/13 Q1019", "EDMO 311350Z 07004KT CAVOK 18/10 Q1019", "EDNY 311350Z VRB02KT 9999 SCT005 12/12 Q1019", "EDQM 311350Z 00000KT CAVOK 18/12 Q1020", "EDSB 311350Z VRB02KT CAVOK 16/12 Q1017", "EDTL 311350Z VRB03KT CAVOK 16/13 Q1017", "EDTY 311350Z 10005KT CAVOK 18/14 Q1018", "EDVE 311350Z 09005KT 050V110 CAVOK 17/13 Q1019", "EDVK 311350Z 13006KT CAVOK 18/12 Q1018", "EDXW 311350Z 18009KT 9999 SCT010 OVC012 14/12 Q1019", "EEEI 311350Z 21005KT CAVOK 09/05 Q1018 NOSIG", "EEKA 311350Z 19005KT 150V230 9999 OVC013 10/07 Q1018", "EEKE 311350Z 21006KT 180V240 9999 OVC016 10/09 Q1019", "EEPU 311350Z AUTO 21006KT 9999 BKN160/// BKN190/// 08/06 Q1019", "EETN 311350Z 20005KT CAVOK 08/05 Q1018 NOSIG", "EETU 311350Z 25005KT CAVOK 07/01 Q1019", "EFET 311350Z AUTO 06003KT 030V100 CAVOK M07/M07 Q1007", "EFHA 311350Z AUTO 17005KT 9999 BKN010 OVC033 05/03 Q1014", "EFHK 311350Z 17006KT 140V200 9999 FEW016 07/04 Q1017 NOSIG", "EFIV 311350Z AUTO 18003KT CAVOK M03/M05 Q1009", "EFJO 311350Z AUTO 27002KT CAVOK 01/M04 Q1016", "EFJY 311350Z 17004KT CAVOK 03/01 Q1014", "EFKE 311350Z AUTO 16007KT 9999 BKN007 04/04 Q1010", "EFKI 311350Z AUTO 17006KT CAVOK 00/M03 Q1013", "EFKK 311350Z AUTO 15007KT 9999 -SHRA OVC006 //////CB 04/04 Q1011", "EFKS 311350Z AUTO VRB01KT 0400 R30/0450 FZFG VV001 M01/M01 Q1011", "EFKT 311350Z AUTO 13003KT 9999 1700 NCD M04/M04 Q1008", "EFKU 311350Z 18006KT CAVOK 03/M02 Q1015", "EFLP 311350Z AUTO 24004KT CAVOK 03/M04 Q1017", "EFMA 311350Z AUTO 24007KT 200V280 9999 OVC002 11/10 Q1015", "EFMI 311350Z AUTO 14003KT 110V170 CAVOK 02/M02 Q1016", "EFOU 311350Z AUTO 15006KT CAVOK 01/M00 Q1011", "EFPO 311350Z AUTO 16007KT 9999 OVC006 08/07 Q1013", "EFRO 311350Z AUTO 16007KT 0500 R21/0900N -RA VV002 00/00 Q1010", "EFSA 311350Z AUTO 17002KT CAVOK 01/M04 Q1016", "EFSI 311350Z AUTO 17008KT 9999 -RA BKN003 OVC021 05/05 Q1012", "EFTP 311350Z AUTO 17006KT 9999 -SHRA OVC008 06/05 Q1015", "EFTU 311350Z AUTO 21006KT 9999 OVC009 09/08 Q1015", "EFUT 311350Z 18005KT CAVOK 04/M01 Q1017", "EFVA 311350Z AUTO 19009KT 9999 OVC004 07/07 Q1010", "EGAA 311350Z AUTO 19007KT 160V230 9999 NCD 14/10 Q1002", "EGAC 311350Z AUTO 16009KT 9999 //////CB 14/12 Q1002", "EGAE 311350Z 18007KT 9999 FEW010 SCT041 13/11 Q1001", "EGBB 311350Z 16011KT 9999 SCT029 15/10 Q1009", "EGBJ 311350Z 14009KT 9999 FEW024 17/11 Q1008", "EGCC 311350Z AUTO 15006KT 090V190 9999 NCD 15/11 Q1008", "EGCK 311350Z 17013KT 9999 SCT038 15/11 Q1005", "EGCN 311350Z 14008KT 7000 FEW020 SCT025 15/11 Q1011", "EGDM 311350Z 13012KT 9999 FEW018 BKN055 BKN080 15/12 Q1008 NOSIG RMK BLU BLU", "EGDR 311350Z 11015KT 9999 FEW010 BKN150 14/12 Q1002 TEMPO 3000 BR SCT006 RMK BLU TEMPO YLO1", "EGDY 311320Z AUTO 13012KT 9999 FEW027/// BKN059/// 17/11 Q1007", "EGEC 311350Z 21008KT 9999 SCT013 SCT045 14/10 Q1002", "EGEO 311350Z 18018KT 140V200 3800 RADZ BKN026 14/12 Q1001", "EGFF 311350Z AUTO 11009KT 9999 NCD 15/11 Q1007", "EGGD 311350Z AUTO 11009KT 090V170 9999 NCD 15/09 Q1007", "EGGP 311350Z 15015KT 9999 FEW020 14/11 Q1007", "EGGW 311350Z 15010KT 9999 FEW029 15/11 Q1010", "EGHC 311350Z 12019KT 9999 FEW006 SCT032 14/12 Q1001", "EGHE 311350Z 14022KT 9999 BKN012 15/13 Q1000", "EGHH 311350Z 12009KT 080V150 9999 FEW012 SCT040 15/13 Q1007", "EGHI 311350Z 12006KT 070V170 9999 -DZ FEW015 SCT049 16/12 Q1008", "EGHQ 311350Z 13018KT 9999 VCSH FEW011 BKN030 15/12 Q1003", "EGJA 311350Z 13014KT 9999 VCSH FEW007 BKN048 15/13 Q1006", "EGJB 311350Z 13012KT 9999 SCT007 BKN009 15/14 Q1005", "EGJJ 311350Z 14017KT 9999 BKN008 15/14 Q1006", "EGKA 311350Z 10014KT 9999 FEW013 16/13 Q1009", "EGKB 311350Z 13009KT 090V160 9999 FEW018 15/12 Q1010", "EGKK 311350Z 11008KT 9999 FEW021 SCT046 16/11 Q1010", "EGLC 311350Z AUTO 11010KT 9999 NCD 16/11 Q1011", "EGLF 311350Z AUTO 12009KT 080V160 9999 FEW022/// SCT036/// 16/11 Q1009", "EGLL 311350Z AUTO 11008KT 9999 NCD 16/12 Q1010 NOSIG", "EGMC 311350Z 11007KT 9999 FEW022 16/12 Q1011", "EGMD 311350Z 10010KT CAVOK 17/14 Q1011", "EGNH 311350Z 16015KT 9999 FEW012 14/12 Q1007", "EGNJ 311350Z 17008KT 9999 FEW015 15/13 Q1011", "EGNM 311350Z 15008KT 9999 SCT019 SCT022 14/10 Q1009", "EGNO 311350Z 14008KT 110V170 9999 FEW020 14/12 Q1007", "EGNR 311350Z 15011KT 9999 SCT018 15/11 Q1008", "EGNS 311350Z 18018KT 9999 FEW014 15/12 Q1004 NOSIG", "EGNT 311320Z 17004KT 120V230 9999 SCT020 14/11 Q1008", "EGNV 311350Z 17014KT 9999 FEW020 14/11 Q1009", "EGNX 311350Z 14010KT 9999 SCT024 SCT036 16/10 Q1009", "EGOM 311350Z 19016KT 9999 FEW018 BKN070 ///220 13/10 Q1007 RMK BLU", "EGOP 311320Z AUTO 14016KT 9999 NCD 16/11 Q1005", "EGOS 311350Z 13006KT 9999 FEW022 BKN150 15/11 Q1008 TEMPO SCT022 RMK BLU TEMPO WHT", "EGOV 311350Z 16017KT 9999 FEW032 BKN150 15/11 Q1005 NOSIG RMK BLU BLU", "EGOW 311350Z 16012KT 9999 FEW020 15/12 Q1007 RMK BLU", "EGPA 311350Z 16016KT 9999 FEW040 13/11 Q1001", "EGPB 311350Z 19016KT 9999 FEW009 12/11 Q1003", "EGPC 311350Z 15014KT 9999 FEW020 14/10 Q1001", "EGPD 311350Z AUTO 17020KT 9999 FEW032 BKN040 13/11 Q1005 NOSIG", "EGPE 311350Z 20014KT 9999 FEW027 17/10 Q1000", "EGPF 311350Z AUTO 17012KT 9999 BKN023/// //////TCU 15/12 Q1004", "EGPH 311350Z 21016KT 9999 FEW023 15/11 Q1004", "EGPI 311350Z 18007KT 9999 FEW014 12/11 Q1001", "EGPK 311350Z 18015KT 9999 FEW030 15/12 Q1003", "EGPL 311350Z 22012KT 9999 VCSH FEW012 SCT018 BKN025 12/10 Q0998", "EGPN 311350Z 19006KT 9999 FEW020 BKN030 14/10 Q1004", "EGPO 311350Z 20014KT 9999 -RA FEW014 BKN040 12/11 Q0998", "EGPU 311350Z 21015KT 9999 VCSH FEW012 BKN048 12/11 Q1000", "EGQA 311250Z 16013KT 9999 FEW030 OVC180 16/// Q1001 RMK BLU", "EGQK 311320Z AUTO 17010KT 9999 FEW035/// SCT140/// 16/09 Q1001", "EGQL 311320Z AUTO 17010KT 9999 OVC029/// 14/11 Q1005", "EGQM 311350Z AUTO 16013KT 9999 NCD 13/11 Q1008", "EGQS 311350Z 17016KT 9999 FEW034 SCT048 BKN150 15/10 Q1001 NOSIG RMK BLU BLU", "EGSC 311350Z 15010KT 9999 FEW020 17/12 Q1011", "EGSH 311350Z 17011KT 120V200 9999 FEW023 17/12 Q1012 NOSIG", "EGSS 311350Z AUTO 14010KT 120V180 9999 FEW023 16/12 Q1011", "EGSY 311350Z 10008KT 9999 FEW018 BKN030 15/11 Q1006", "EGTC 311350Z 14009KT 9999 BKN025 16/11 Q1010", "EGTE 311350Z 11013KT 9999 SCT017 15/13 Q1006", "EGTK 311350Z 14011KT 9999 FEW025 15/12 Q1009", "EGUB 311350Z 13009KT 9999 FEW020 BKN/// 16/11 Q1009 TEMPO SCT020 RMK BLU TEMPO WHT", "EGUL 311255Z 13015KT 9999 SCT026 17/12 A2988 RMK AO2A SLP122 T01660121 $", "EGUN 311355Z 14010G19KT 9999 SCT026 BKN200 16/13 A2985 RMK AO2A SLP111 T01570130 $", "EGUW 311350Z 15009KT 9999 FEW022 BKN100 16/11 Q1011 NOSIG RMK BLU BLU", "EGVA 311352Z 12009KT 9999 SCT020 BKN040 16/14 RMK AO2A SLPNO RVRNO VISNO RWY27 $", "EGVN 311350Z 14010KT 9999 FEW018 BKN120 16/11 Q1009 NOSIG RMK BLU BLU", "EGVO 311350Z 11012KT 9999 FEW018 BKN072 15/12 Q1009 TEMPO SCT018 RMK BLU TEMPO WHT", "EGVP 311350Z 12012KT 9999 FEW022 BKN060 15/12 Q1008 NOSIG RMK BLU BLU", "EGWC 311250Z 15008KT 9999 FEW013 SCT015 15/11 Q1011 RMK WHT", "EGWU 311350Z 14009KT 9999 FEW024 BKN085 17/11 Q1010 NOSIG RMK BLU BLU", "EGXC 311350Z 16008KT 9999 FEW020 BKN250 16/12 Q1010 TEMPO SCT022 RMK BLU TEMPO WHT", "EGXE 311350Z 15011KT 9999 SCT023 BKN250 15/11 Q1009 TEMPO FEW023 RMK WHT TEMPO BLU", "EGXP 311250Z AUTO 16011KT //// // ///////// 14/11 Q1011", "EGXS 311250Z AUTO 16008KT 9999 OVC011/// 15/12 Q1012 RERA", "EGXT 311350Z 15011KT 9999 FEW021 BKN230 15/11 Q1010 RMK BLU", "EGXV 311320Z AUTO 17006KT 9999 BKN012/// 15/12 Q1010", "EGXW 311320Z 16011KT 9999 SCT017 BKN250 15/12 Q1011 TEMPO FEW017 RMK WHT TEMPO BLU", "EGXZ 311320Z AUTO 16014KT 9999 FEW034/// 15/12 Q1009", "EGYD 311350Z 14012KT 9999 SCT020 BKN250 15/12 Q1010 BECMG FEW025 RMK WHT BECMG BLU", "EGYE 311350Z 15016KT 9999 SCT015 ///// Q1010 RMK WHT", "EGYH 311350Z 16009KT 9999 BKN021 16/12 Q1011 RMK WHT", "EGYM 311350Z 15011KT 9999 SCT025 SCT200 17/11 Q1011 TEMPO SCT016 RMK BLU TEMPO WHT", "EGYP 311350Z 23016KT 9999 FEW025 09/03 Q1012 NOSIG", "EHAK 311355Z AUTO 17018KT 9999 FEW007/// SCT010/// BKN015/// 14/14 Q1014", "EHAM 311355Z 10007KT CAVOK 16/13 Q1015 NOSIG", "EHBK 311355Z AUTO 06007KT 030V120 9999 NSC 19/14 Q1014 NOSIG", "EHDL 311355Z AUTO 12009KT 040V190 9999 OVC120 17/13 Q1015 BLU", "EHDV 311355Z AUTO 16018KT 9999 NCD 15/13 Q1014", "EHEH 311355Z AUTO 13007KT 030V140 9999 OVC120 18/13 Q1014 BLU NOSIG", "EHFD 311355Z AUTO 16015KT 9999 FEW006/// 15/13 Q1016", "EHFS 311325Z AUTO 08010KT 070V130 9999 NSC 16/13 Q1014", "EHGG 311355Z AUTO 10004KT 070V140 9999 NSC 15/12 Q1017 NOSIG", "EHGR 311355Z AUTO 09006KT 050V130 9000 BR OVC100 17/15 Q1014 BLU TEMPO 4500 BR -RA", "EHHW 311355Z AUTO 16009KT 9999 NSC 14/12 Q1017", "EHJA 311355Z AUTO 16015KT 9999 FEW010/// 15/13 Q1014", "EHJR 311355Z AUTO 16015KT //// // ///////// 16/12 Q1014 RE// W16/H10", "EHKD 311355Z AUTO 13009KT 090V170 9999 NCD 16/12 Q1015 BLU NOSIG", "EHKV 311355Z AUTO 17013KT 9999 NSC 15/12 Q1014", "EHLE 311355Z AUTO 08004KT 050V120 9999 NSC 16/13 Q1015 NOSIG", "EHLW 311355Z AUTO 13008KT 080V160 9999 BKN210 BKN270 16/11 Q1016 BLU NOSIG", "EHMA 311355Z AUTO 13014KT 9999 NSC 14/11 Q1017", "EHMG 311355Z AUTO 16014KT 9999 NSC 15/12 Q1017", "EHPG 311355Z AUTO 13016KT 070V170 9999 NSC 16/12 Q1014", "EHQE 311355Z AUTO /////KT 9999 NSC 16/13 Q1015", "EHRD 311355Z AUTO 10007KT 070V130 8000 NSC 16/14 Q1014 NOSIG", "EHSA 311355Z AUTO 10014KT 9999 ///////// 15/13 Q1013 W16/H6", "EHSC 311355Z AUTO 11012KT 8000 ///////// 15/14 Q1014 W16/H5", "EHVK 311355Z AUTO 12009KT 060V150 9999 OVC130 17/13 Q1015 BLU NOSIG", "EHVL 311355Z AUTO 14011KT 9999 NCD 15/12 Q1016 BLU", "EHWO 311355Z AUTO 08005KT 050V110 8000 BR OVC100 16/14 Q1013 BLU NOSIG", "EICK 311330Z 18010KT 6000 -RA BKN006 BKN014 BKN035 12/11 Q1000 TEMPO 3000", "EIDL 311330Z 21009KT 9999 -RA FEW036 12/10 Q1000", "EIDW 311330Z 16014KT 120V190 9999 -RA FEW009 FEW016CB BKN030 15/11 Q1003 NOSIG", "EIKN 311330Z 19004KT 150V240 9999 -RA BKN003 BKN011 OVC070 10/10 Q1001 NOSIG", "EIKY 311330Z VRB01KT 9999 -RA FEW042 10/09 Q1001", "EIME 311300Z 16008KT 9999 FEW020 SCT033 BKN100 15/11 Q1003", "EINN 311330Z 08003KT 8000 -RA FEW010 BKN048 10/09 Q1001 NOSIG", "EISG 311330Z 16004KT 130V200 9999 -RA OVC015 11/10 Q1001", "EIWF 311300Z 17020KT 130V200 8000 -RA FEW012 BKN059 13/12 Q1003", "EKAH 311350Z AUTO 23003KT 9999 NCD 16/12 Q1020", "EKBI 311350Z AUTO 21005KT 170V240 9999 SCT016/// 15/12 Q1019", "EKCH 311350Z AUTO 24005KT 9999 BKN016/// 15/12 Q1020 NOSIG", "EKEB 311350Z AUTO 17008KT 9999 BKN012/// 15/12 Q1019", "EKKA 311350Z AUTO 20004KT 170V230 9999 FEW020/// 15/12 Q1018 NOSIG", "EKOD 311350Z 23007KT 9999 SCT020 BKN200 14/13 Q1020", "EKRK 311350Z AUTO 23003KT 9999 BKN018/// 14/11 Q1020", "EKRN 311350Z AUTO 33002KT 6000 OVC004/// 12/12 Q1020", "EKRS 311350Z AUTO VRB02KT 9999 OVC016/// 15/14 Q1020", "EKSB 311350Z 19005KT 140V230 9999 BKN020 16/12 Q1019", "EKSP 311350Z 20005KT 160V230 9999 FEW016 SCT025 15/11 Q1019 TEMPO BKN008", "EKVD 311350Z 20006KT 9999 SCT015 15/12 Q////", "EKVG 311350Z AUTO 16017G27KT 9999 OVC005/// 10/10 Q0993 REDZRA RMK OVC006/// WIND SKEID 14029G43KT", "EKVJ 311350Z 20009KT 9999 FEW020 15/13 Q1019", "EKYT 311350Z AUTO 18005KT 9999 FEW027/// 13/12 Q1018 NOSIG", "ELLX 311350Z 14007KT 110V170 CAVOK 18/11 Q1016 NOSIG", "ENAL 311350Z 23008KT 9999 BKN045 13/09 Q1010", "ENAN 311350Z 18008KT 9999 -RA FEW033 BKN043 06/04 Q1006", "ENAT 311350Z 21003KT 150V240 CAVOK 00/M03 Q1007 RMK WIND 700FT 16007KT", "ENBL 311350Z 19007KT 9999 VCSH FEW003 SCT014 BKN030 10/08 Q1012", "ENBN 311350Z VRB02KT 9999 -RA BKN010 08/07 Q1009", "ENBO 311350Z 11012KT 9999 -RA BKN028 04/03 Q1008 TEMPO RA BKN012", "ENBR 311350Z 17016KT 9999 BKN016 12/10 Q1013 TEMPO BKN014 RMK WIND 1200FT 16021KT", "ENBS 311350Z 19012KT 9999 FEW010 BKN022 02/01 Q1006", "ENBV 311350Z 24006KT 9999 SCT027 OVC047 03/02 Q1007", "ENCN 311350Z 20007KT 9999 FEW013 BKN031 13/10 Q1017", "ENDR 311350Z AUTO 23028KT 2600NDV BR OVC008/// 10/10 Q1008 W///S4", "ENDU 311350Z 25001KT 9999 -RA FEW025 SCT035 BKN045 01/M00 Q1007 NOSIG RMK WIND 1100FT 16007KT WIND 2200FT 21007KT", "ENEV 311350Z 19004KT 9999 -RA BKN039 04/03 Q1008 RMK WIND 1400FT 23011KT", "ENFB 311350Z AUTO 17031KT 9000NDV FEW007/// 12/10 Q1007 W///S4", "ENFL 311350Z 19019KT 9999 FEW013 SCT022 BKN027 12/10 Q1011", "ENGC 311350Z 18027KT 7000 FEW007 11/10 Q1007 W09/S4", "ENGM 311350Z 19006KT 9999 BKN016 11/09 Q1014 TEMPO BKN012", "ENHD 311350Z 17011KT 9999 SCT011 BKN016 13/10 Q1013", "ENHE 311350Z 23021KT 0500 FG VV002 10/10 Q1006 W///S3", "ENHF 311350Z 25004KT 9999 FEW021 SCT040 BKN120 04/03 Q1006 RMK WIND 1254FT 22010KT", "ENHK 311350Z 16007KT CAVOK 06/02 Q1006", "ENHM 311350Z AUTO /////KT 9000NDV NCD 12/12 Q1008 W12/S/", "ENHV 311250Z 21010KT 9999 SCT013 BKN046 05/03 Q1007", "ENJS 311350Z 18029KT 9999 BKN008 12/11 Q1010 W11/S/", "ENKB 311350Z 06004KT 9999 FEW034 BKN047 11/07 Q1010 RMK WIND 745FT 15004KT", "ENKR 311350Z 19006KT 9999 SCT022 BKN045 01/M00 Q1008 RMK WIND 731FT 24005KT", "ENLA 311350Z AUTO 17025KT 9999NDV BKN008/// 12/12 Q1011 W///S4", "ENLE 311350Z 17024KT 9999 FEW007 13/12 Q1013 W13/S4", "ENLK 311350Z 15006KT 120V190 9999 5000S -RA FEW004 SCT006 BKN009 07/07 Q1006", "ENMH 311350Z AUTO 25009KT 9999 OVC046 04/03 Q1006", "ENML 311350Z 07004KT 9999 FEW040 BKN065 10/09 Q1010", "ENMS 311350Z 21001KT 9999 -RA VCFG FEW005 BKN022 03/02 Q1009 RMK WIND 412FT 00000KT", "ENNA 311350Z 18012KT CAVOK 00/M03 Q1007 RMK WIND 1800FT 15005KT", "ENNE 311350Z 20020KT 6000 BR VV004 10/09 Q1005 W///S4", "ENNM 311350Z 06011KT 9999 VCSH FEW017 BKN037 05/04 Q1011", "ENNO 311350Z VRB02KT 9999 SCT053 11/09 Q1015", "ENOA 311350Z 17029KT 6000 SCT006 12/11 Q1009 W///S4", "ENOL 311350Z 12008KT 9999 FEW007 BKN040 09/07 Q1010 NOSIG", "ENOV 311350Z VRB03KT 9999 -DZ FEW016 BKN031 13/08 Q1010 RMK WIND RWY24 VRB02KT WIND 2090FT 18016KT", "ENQA 311350Z AUTO 17028KT 9000NDV OVC006/// 11/10 Q1010 W17/S4", "ENQC 311350Z AUTO 17026KT 9999NDV OVC006/// 11/10 Q1009 W///S4", "ENQR 311350Z AUTO 17027KT 6000NDV SCT007/// 11/10 Q1006 W10/S4", "ENRA 311350Z VRB02KT 9999 -RA FEW008 BKN022 02/02 Q1009", "ENRM 311350Z AUTO VRB03KT 9999 BKN032 BKN043 07/06 Q1009", "ENRO 311350Z 21004KT 160V240 CAVOK 07/04 Q1011", "ENRS 311350Z AUTO 21013KT 1700 VV002 09/09 Q1006", "ENRY 311350Z 20010KT CAVOK 13/10 Q1016 NOSIG", "ENSB 311350Z 12010KT 9999 SCT035 M03/M07 Q1003 RMK WIND 1400FT 14006KT", "ENSD 311350Z 07005KT 030V100 9999 -DZ FEW013 SCT029 BKN041 11/09 Q1011 RMK WIND RWY26 VRB02KT WIND 1140FT 00000KT", "ENSE 311350Z AUTO 18027KT 9000NDV BKN007/// 12/10 Q1007 W///S4", "ENSF 311350Z AUTO /////KT 8000NDV FEW007/// ///// Q//// W///S4", "ENSG 311320Z 23006KT 9999 VCSH FEW/// BKN035 09/06 Q1012 RMK WIND 3806FT 21018KT", "ENSH 311250Z 18007KT 9999 -RA FE0W12 BKN022 06/04 Q1007 RMK WIND 150FT 18008KT", "ENSK 311350Z 14014KT 9999 RA FEW010 SCT017 BKN025 06/04 Q1006", "ENSL 311350Z AUTO 19029KT 7000NDV NCD 12/11 Q1009 W10/S4", "ENSO 311350Z 16013KT 9999 SCT014 BKN020 12/11 Q1013", "ENSR 311350Z AUTO 17007KT 9999 BKN110/// OVC150/// 03/M02 Q1007 RMK WIND RWY32 16008KT WIND 1118FT 13008KT", "ENSS 311350Z 22004KT 9999 SCT027 02/M01 Q1008 RMK WIND 0500FT /////KT", "ENST 311350Z 05003KT 9999 FEW007 SCT009 BKN012 06/06 Q1009 RMK WIND 300FT 09003KT", "ENTC 311350Z 23008KT CAVOK 05/02 Q1006 NOSIG RMK WIND 2600FT 20010KT", "ENTO 311350Z 22011KT 9999 FEW010 13/10 Q1016 NOSIG", "ENUG 311350Z AUTO 25011KT 9999NDV BKN023/// 07/04 Q1005 W///S4", "ENUN 311350Z AUTO 20020KT 4200NDV -DZ BR OVC005/// 10/09 Q1004 W09/S4", "ENVA 311350Z 26004KT 220V270 9999 FEW010 BKN067 08/06 Q1011 NOSIG RMK WIND 670FT 00000KT", "ENVD 311350Z 29003KT 9999 FEW016 BKN046 03/01 Q1008", "ENVR 311350Z 19020KT 2500 DZBR OVC003 08/08 Q1006", "ENWV 311350Z AUTO 18023KT 9999NDV NCD 13/13 Q1013 W///S3", "ENZV 311350Z 17010KT 9999 SCT013 SCT017 13/11 Q1014", "EPBY 311330Z VRB01KT 0250 0200W R26/0400N FG VV001 11/11 Q1020", "EPGD 311330Z 25005KT 220V290 4500 BR OVC003 12/12 Q1019", "EPKK 311330Z 21005KT CAVOK 20/12 Q1021", "EPKT 311330Z 25004KT CAVOK 20/11 Q1021", "EPLB 311330Z 07003KT CAVOK 14/13 Q1022", "EPLL 311330Z VRB02KT 7000 NSC 15/14 Q1020", "EPMO 311330Z 26006KT 8000 SCT005 15/14 Q1020", "EPPO 311330Z 29003KT CAVOK 19/14 Q1020", "EPRA 311330Z 15005KT 0400 FG OVC002 13/13 Q1021", "EPRZ 311330Z VRB01KT CAVOK 19/11 Q1021", "EPSC 311330Z 31004KT 1100 R31/1200D BR OVC001 13/13 Q1020", "EPSY 311330Z 13006KT 080V180 5000 BR OVC004 10/10 Q1021", "EPWA 311330Z 21006KT 6000 FEW007 13/12 Q1021 NOSIG", "EPWR 311330Z 30007KT CAVOK 19/13 Q1021", "EPZG 311330Z VRB02KT CAVOK 19/15 Q1020", "ESCF 311350Z 24006KT 9999 FEW036 14/11 Q1017", "ESCM 311350Z 24006KT 9999 SCT032 12/11 Q1015", "ESDF 311350Z 32004KT 280V360 9999 OVC010 14/13 Q1019", "ESGG 311350Z 24006KT 9999 FEW010 BKN014 12/10 Q1019", "ESGJ 311350Z 24007KT 9999 SCT018 14/11 Q1018", "ESGP 311350Z 24005KT 9999 SCT010 13/11 Q1019", "ESGT 311350Z 24008KT 9999 BKN029 14/09 Q1018", "ESIA 311350Z AUTO 25008KT 9999 FEW022/// 13/10 Q1017", "ESIB 311350Z 26009KT 9999 SCT023 SCT031 13/10 Q1017", "ESKM 311350Z AUTO 25005KT 200V300 9999 OVC026/// 11/09 Q1013", "ESKN 311350Z 25009KT 9999 BKN034 13/11 Q1017", "ESKS 311350Z AUTO 21007KT 9999 BKN003/// BKN006/// OVC013/// 07/07 Q1013", "ESMK 311350Z VRB02KT 9999 FEW017 BKN025 15/13 Q1019", "ESMQ 311350Z 28005KT CAVOK 14/12 Q1019", "ESMS 311350Z 24002KT 5000 BR BKN005 OVC021 14/13 Q1020", "ESMT 311350Z 24006KT 6000 FEW004 OVC006 12/12 Q1020", "ESMX 311350Z 19003KT 9000 SCT003 BKN022 13/13 Q1019", "ESND 311350Z AUTO 25008KT 9999 NCD 10/05 Q1011", "ESNG 311350Z 18002KT CAVOK M06/// Q1007", "ESNK 311350Z 29003KT CAVOK 02/01 Q1010", "ESNL 311350Z AUTO 00000KT 9999 OVC010/// 00/M00 Q1008", "ESNN 311350Z AUTO 29003KT 9999 NCD 04/02 Q1010", "ESNO 311350Z AUTO 22004KT 9999 OVC009/// 05/04 Q1009", "ESNQ 311350Z AUTO 00000KT 9999 FEW098/// OVC130/// M04/M05 Q1006", "ESNS 311350Z 19003KT 160V220 8000 -RA OVC004 05/05 Q1008", "ESNU 311350Z 20006KT 9999 BKN007 07/06 Q1009", "ESNV 311250Z AUTO 21004KT 9999 OVC004/// ///// Q1008", "ESNX 311350Z VRB03KT 9999 BKN048 M00/M00 Q1006", "ESNZ 311350Z 26003KT 220V300 9999 SCT047 04/04 Q1010", "ESOE 311350Z AUTO 23007KT 200V260 9999 NCD 14/11 Q1016", "ESOH 311350Z AUTO VRB03KT 9999 SCT020/// OVC025/// 12/10 Q1015", "ESOK 311350Z 23008KT 9999 FEW023 13/XX Q1016", "ESOW 311350Z 21006KT 9999 FEW011 BKN041 13/10 Q1016", "ESPA 311350Z 18004KT 9999 SCT009 BKN076 04/03 Q1009", "ESPE 311350Z AUTO VRB02KT 9999 -FZDZ SCT048/// BKN062/// M02/M02 Q1008", "ESSA 311350Z 23008KT 9999 FEW011 BKN033 11/10 Q1015 NOSIG", "ESSB 311350Z 22004KT 9999 FEW012 BKN034 12/11 Q1016", "ESSD 311350Z 26008KT 9999 OVC033 13/08 Q1014", "ESSL 311350Z 26007KT 9999 BKN035 14/10 Q1017", "ESSP 311350Z 25007KT 9999 OVC033 14/11 Q1017", "ESST 311350Z AUTO 35005KT 9999 NCD 13/10 Q1015", "ESSV 311350Z 23007KT 9999 SCT017 OVC022 12/11 Q1018 RERA", "ESTA 311350Z VRB02KT 3000 BKN002 12/12 Q1020", "ESTL 311350Z 31005KT 9999 FEW008 SCT010 BKN020 14/14 Q1020", "ESUP 311350Z AUTO 08002KT 9999 NCD M03/M03 Q1008", "ESUT 311350Z VRB02KT 9999 SCT020 OVC032 00/00 Q1008", "ETAD 311355Z AUTO 09009KT 9999 FEW150 17/11 A3000 RMK AO2 SLP147 T01730107 $", "ETAR 311255Z 25003KT 9999 CLR 17/12 A3006 RMK AO2A SLP183 T01660121", "ETEB 311355Z AUTO 11003KT 9999 CLR 18/12 A3007 RMK AO2 SLP192 T01790121 $", "ETGG 311320Z AUTO 21006KT 9999 // ////// 15/11 Q1019 ///", "ETHA 311320Z AUTO 05006KT 9999 // ////// 18/09 Q1019 ///", "ETHB 311320Z AUTO 07005KT 9999 // ////// 17/12 Q1018 ///", "ETHC 311320Z AUTO 06004KT 9999 // ////// 16/13 Q1020 ///", "ETHF 311320Z 11002KT 9999 FEW035 SCT140 BKN300 18/12 Q1018 BLU+BLU+", "ETHL 311320Z 01001KT 9999 BKN150 15/13 Q1019 BLU", "ETHN 311320Z VRB02KT 9999 BKN160 18/14 Q1018 BLU", "ETHS 311320Z AUTO VRB02KT 6000 // ////// 15/12 Q1020 ///", "ETIC 311355Z AUTO 00000KT 9999 CLR 20/13 A3006 RMK AO2 SLP181 T02010128 $", "ETIH 311355Z AUTO 00000KT 9999 CLR 16/11 A3010 RMK AO2 SLP196 T01640113 $", "ETIK 311355Z 06003KT 8000 BR SCT100 BKN200 16/16 A3006 RMK AO2A SLP183 T01590157 $", "ETMN 311320Z 13003KT 2500 BR BKN003 13/12 Q1019 YLO", "ETNG 311350Z 10009KT CAVOK 18/13 Q1015 NOSIG", "ETNH 311320Z AUTO 20004KT 8000 // ////// 13/11 Q1020 ///", "ETNL 311349Z 33005KT 1900 BR BKN003 OVC011 14/13 Q1020 YLO", "ETNN 311320Z 10006KT 9999 BKN100 17/12 Q1016 BLU", "ETNS 311320Z AUTO 21006KT 9999 // ////// 14/14 Q1020 ///", "ETNT 311320Z AUTO 16006KT //// // ////// 15/12 Q1018 ///", "ETNW 311320Z 08007KT 9999 FEW018 SCT150 BKN220 17/13 Q1019 BLU+", "ETOU 311255Z COR AUTO 13003KT 9999 SCT160 BKN200 18/13 A3007 RMK AO2A SLPNO ALSTG ESTMD COR 1306", "ETSB 311320Z AUTO 14006KT //// // ////// 15/10 Q1018 ///", "ETSH 311320Z 28001KT 9999 FEW170 BKN220 19/12 Q1020 BLU+", "ETSI 311320Z AUTO 02003KT 0250 // ////// 12/11 Q1019 ///", "ETSL 311320Z AUTO 01004KT 9999 // ////// 17/13 Q1019 ///", "ETSN 311335Z 05003KT 0600 R27/2400N FG VV000 12/12 Q1019 RED", "ETWM 311320Z AUTO 09005KT //// // ////// 15/12 Q1017 ///", "EVGA 311350Z 25002KT CAVOK 10/04 Q1021 NOSIG", "EVLA 311350Z AUTO 20005KT 150V230 9999 OVC017/// 11/08 Q1020", "EVRA 311350Z 20003KT 170V230 CAVOK 10/04 Q1021 NOSIG", "EVVA 311350Z AUTO 21005KT 9999 OVC015 11/10 Q1020", "EYKA 311350Z 17003KT 130V220 CAVOK 09/03 Q1021", "EYPA 311350Z 23004KT 180V270 9999 SCT011 BKN039 11/09 Q1021", "EYSA 311350Z 24005KT CAVOK 10/03 Q1021 NOSIG", "EYVI 311350Z 27005KT 230V290 CAVOK 09/00 Q1021 NOSIG", "FABL 311300Z VRB06KT 9999 FEW030 27/03 Q1018 NOSIG", "FACT 311300Z 18022KT CAVOK 23/08 Q1019 NOSIG", "FAEL 311300Z 20010KT 160V230 9999 FEW018 SCT034 17/13 Q1024", "FAGG 311322Z 11013KT 9999 FEW030 18/08 Q1024", "FAHS 311300Z AUTO 16012KT //// // ////// 23/17 Q1019", "FAJB 311300Z AUTO 19001KT //// // ////// 19/14 Q1021", "FAKM 311300Z 22004KT CAVOK 30/05 Q1016", "FAKN 311300Z 13002KT 9999 BKN010 OVC020 18/15 Q1022 NOSIG", "FALA 311300Z 19020KT 150V220 9999 VCTS SCT035 FEW040CB 23/10 Q1019 TEMPO 5000 TSRA", "FALE 311300Z 19010KT 5000 -RA FEW005 SCT009 OVC014 17/15 Q1022 NOSIG", "FALW 311300Z AUTO 19015KT //// // ////// 26/04 Q1016", "FAMM 311300Z 19009KT 9999 FEW035 BKN100 31/01 Q1017 NOSIG", "FAOR 311330Z 21011KT 9999 -TSRA FEW015 FEW035CB 16/14 Q1022 NOSIG", "FAPE 311300Z 14010KT 100V170 9999 FEW026 SCT034 17/11 Q1025 NOSIG", "FAPP 311300Z 09010KT 9999 FEW022 SCT120 22/15 Q1020 NOSIG", "FAUP 311300Z 21007KT 9999 FEW050 32/M01 Q1015 NOSIG", "FAUT 311300Z 18007KT 4000 -DZ BR BKN010 12/11 Q1023", "FAWB 311300Z AUTO 31009KT //// // ////// 29/14 Q1016", "FAWK 311300Z AUTO 34008KT //// // ////// 27/13 Q1020", "FBKE 311300Z 25006KT 220V290 9999 SCT030 SCT070 35/11 Q1012", "FBMN 311300Z 06006KT 360V080 CAVOK 31/16 Q1014", "FBPM 311300Z 19005KT 150V220 9999 FEW030 FEW035CB BKN070 29/13 Q1016", "FBSK 311300Z 33007KT 260V030 9999 FEW030 FEW035TCU SCT065 32/12 Q1014 NOSIG", "FDBB 311300Z AUTO 21006KT //// // ////// 21/18 Q1018", "FDMS 311300Z 00000KT 8000 SHRA FEW020 BKN030 FEW040CB 18/17 Q1021 TEMPO 6000 SHRA", "FDMY 311300Z AUTO 25002KT //// // ////// 21/17 Q1029", "FDPP 311300Z AUTO /////KT //// // ////// 15/M04 Q1019", "FDSK 311300Z 17012KT 3000 SHRA SCT010 BKN025 FEW035CB 20/16 Q1021 TEMPO 5000 -RA FEW035CB", "FDST 311300Z AUTO 02009KT //// // ////// 23/23 Q1018", "FGBT 311300Z 28008KT 9999 SCT010 FEW020CB 29/26 Q1009", "FGSL 311300Z 27007KT 9999 SCT010 BKN040 30/26 Q1010 NOSIG", "FIMP 311400Z 09010KT 9999 VCSH SCT015 24/19 Q1020", "FJDG 311355Z 00000KT 9999 FEW024 29/23 A2985 RMK SLP105 T02880232", "FMCH 311300Z 10017KT 9999 FEW020 31/18 Q1013 NOSIG", "FMCZ 311330Z AUTO 06007KT 9999 FEW023 27/21 Q1014 NOSIG", "FMEE 311330Z AUTO 12015KT 9999 FEW090/// 25/18 Q1018 TEMPO 2500 SHRA SCT025TCU", "FMEP 311330Z AUTO 22006KT 9999 FEW058/// BKN076/// OVC092/// ///TCU 25/20 Q1018 BECMG FEW040", "FMMI 311330Z 09010KT 9999 SCT020CB 22/12 Q1020 NOSIG", "FMMT 311300Z 10007KT 060V140 9999 FEW017 27/20 Q1016 NOSIG", "FMNM 311300Z 33013KT 300V360 9999 FEW020 30/20 Q1012 NOSIG", "FMNN 311300Z 28008KT 9999 FEW020 SCT250 32/// Q1012", "FMSD 311300Z 08023G33KT 9999 FEW020CB 29/20 Q1011", "FNLU 311304Z 24012KT 9999 FEW020 FEW023CB 30/23 Q1007 NOSIG", "FNMO 311300Z 22012KT 9999 FEW///CB 27/21 Q1010", "FNSO 311300Z 26010KT 9999 BKN020 31/24 Q////", "FOGM 311300Z 26004KT 9999 BKN015TCU FEW020CB 33/24 Q////", "FOGR 311300Z /////KT 9999 SCT012 31/24 Q////", "FOOG 311300Z 20010KT 9999 TS SCT012 FEW020CB BKN040 29/25 Q1009", "FOOL 311300Z 27009KT 250V310 9999 SCT013 FEW020CB SCT033 28/25 Q1009 TEMPO TS", "FOON 311300Z 20006KT 160V330 9999 BKN015 33/22 Q1010", "FOOR 311300Z /////KT 9999 BKN006 31/24 Q////", "FSIA 311300Z 13011KT 9999 SCT022 27/23 Q1011 NOSIG", "FTTA 311300Z 03004KT 9999 FEW040 36/18 Q1009", "FTTC 311300Z 10008KT CAVOK 39/// Q1010", "FTTD 311300Z 08004KT 9999 FEW040 36/16 Q1010", "FTTJ 311300Z 01010KT 010V070 8000 NSC 38/07 Q1009 NOSIG", "FWCL 311300Z 12008KT 9999 FEW030TCU SCT035 35/10 Q1013 NOSIG", "FWKI 311300Z 07016KT 9999 FEW040 31/10 Q1016 NOSIG", "FYGF 311300Z 10003KT 9999 FEW040TCU 34/M00 Q1017", "FYKM 311300Z 00000KT 9999 SCT030TCU 35/12 Q1011", "FYLZ 311300Z AUTO 20018KT //// // ////// 25/12 Q1011", "FYOA 311300Z 34003KT CAVOK 39/05 Q1012", "FYRU 311300Z AUTO 03005KT //// // ////// 31/13 Q1017", "FYWB 311300Z 27009KT CAVOK 26/12 Q1012", "FYWE 311300Z VRB03KT CAVOK 32/M07 Q1020", "FYWH 311300Z 09009KT CAVOK 32/M01 Q1019 NOSIG", "FYWW 311300Z 27003KT CAVOK 32/M03 Q1019", "GABS 311330Z 08007G17KT 030V140 CAVOK 35/08 Q1012 NOSIG", "GBYD 311400Z VRB02KT 9999 SCT013 SCT220 33/25 Q1009", "GCFV 311330Z 04010KT CAVOK 25/21 Q1019", "GCGM 311330Z 21006KT 170V280 CAVOK 24/19 Q1020 RMK R09/19005KT 140V240 ARP/21006KT 160V300", "GCHI 311330Z 01009KT 340V040 9999 FEW020 25/19 Q1020", "GCLA 311330Z 03007KT 010V080 9999 FEW020 26/19 Q1020", "GCLP 311330Z 02019KT 9999 FEW020 25/19 Q1019 NOSIG", "GCRR 311330Z VRB06KT CAVOK 29/18 Q1018", "GCTS 311330Z 09018KT 9999 FEW020 26/18 Q1019 NOSIG", "GCXO 311330Z 12006KT 100V170 CAVOK 24/18 Q1022 NOSIG", "GECE 311330Z AUTO VRB02KT CAVOK 20/18 Q1019", "GEML 311330Z 31006KT 280V350 CAVOK 24/18 Q1019", "GGOV 311300Z 03005KT 330V090 8000 FEW012 34/23 Q1010 NOSIG", "GMAD 311330Z 28013KT CAVOK 32/07 Q1017 NOSIG", "GMAG 311300Z 16008KT 110V190 CAVOK 33/M09 Q1019 NOSIG", "GMAT 311300Z 16008KT CAVOK 35/M01 Q1018 NOSIG", "GMAZ 311300Z AUTO VRB04KT CAVOK 28/M05 Q1024", "GMFB 311300Z 24005KT 190V310 CAVOK 26/M05 Q1025 NOSIG", "GMFF 311330Z 32006KT 270V030 9999 FEW033 BKN200 31/M03 Q1021 NOSIG", "GMFK 311300Z 20008KT 160V230 CAVOK 26/M08 Q1026 NOSIG", "GMFM 311300Z 32008KT CAVOK 31/04 Q1020 NOSIG", "GMFO 311330Z 20004KT 170V280 CAVOK 33/M04 Q1019 NOSIG", "GMMB 311300Z 29008KT 260V320 5000 NSC 27/07 Q1020 NOSIG", "GMMC 311300Z 32006KT 6000 NSC 26/17 Q1019", "GMMD 311300Z 26003KT CAVOK 31/M03 Q1020 NOSIG", "GMME 311330Z 34005KT 290V010 6000 NSC 26/14 Q1018 NOSIG", "GMMH 311300Z 36007KT CAVOK 31/13 Q1016 NOSIG", "GMMI 311300Z 32008KT 280V340 8000 NSC 29/13 Q1020 NOSIG", "GMML 311300Z VRB02KT CAVOK 33/M06 Q1017 NOSIG", "GMMN 311330Z 32010KT CAVOK 29/08 Q1019 NOSIG", "GMMW 311300Z 05008KT 010V070 6000 NSC 26/14 Q1019 NOSIG", "GMMX 311330Z 33004KT 240V040 CAVOK 33/02 Q1019 NOSIG", "GMMZ 311300Z 27003KT CAVOK 24/M07 Q1025 NOSIG", "GMTA 311300Z VRB04KT 8000 FEW020 SCT200 23/16 Q1018 NOSIG", "GMTN 311300Z 09006KT 060V130 9999 SCT023 BKN200 23/18 Q1019 NOSIG", "GMTT 311330Z 26004KT 220V320 8000 NSC 24/14 Q1018 NOSIG", "GOBD 311330Z 24005KT 190V340 8000 NSC 35/18 Q1010 NOSIG", "GOGG 311300Z 06004KT CAVOK 34/25 Q1010", "GOOY 311300Z 00000KT 8000 NSC 32/26 Q1010", "GOSS 311300Z VRB04KT CAVOK 39/10 Q1011", "GQNO 311330Z 13011KT 100V160 8000 NSC 38/M02 Q1011 NOSIG", "GQPP 311300Z 11007KT 6000 NSC 35/04 Q1014 NOSIG", "GVAC 311400Z 07018KT 9000 FEW012 SCT200 30/21 Q1012 NOSIG", "GVBA 311400Z 06010KT 7000 NSC 30/20 Q1012 NOSIG", "GVNP 311400Z 04013KT 9000 FEW015 BKN200 31/22 Q1012 NOSIG", "GVSV 311400Z 04018KT 8000 FEW018 BKN200 28/22 Q1012 NOSIG", "HAAB 311400Z 10014KT 9999 FEW025 21/02 Q1025 NOSIG", "HCMF 311300Z 36013KT CAVOK 27/24 Q1010", "HCMM 311300Z 13010KT 9999 SCT023 29/25 Q1009", "HDAM 311300Z 09012KT 9999 FEW023 31/23 Q1011", "HEAT 311300Z 33016KT CAVOK 29/08 Q1017 NOSIG", "HEAX 311300Z 34006KT 9999 SCT020 26/14 Q1016 NOSIG", "HEBA 311300Z 34006KT 9999 SCT020 26/14 Q1014 NOSIG", "HEBL 311300Z 04010KT CAVOK 31/13 Q1013 NOSIG", "HECA 311400Z 34005KT 9999 SCT025 26/08 Q1015", "HECP 311300Z 33013KT 9999 SCT025 26/08 Q1015 NOSIG", "HEGN 311300Z 35016KT CAVOK 30/12 Q1012 NOSIG", "HEIS 311400Z 36008KT 9999 SCT025 26/14 Q1014", "HELX 311300Z 34007KT CAVOK 30/07 Q1012 NOSIG", "HEMA 311300Z 01013KT CAVOK 28/17 Q1012 NOSIG", "HEMM 311300Z 28010KT 9999 SCT020 23/14 Q1016 NOSIG", "HEPS 311300Z 33006KT 9999 SCT020 25/21 Q1016 NOSIG", "HESG 311300Z 35016KT CAVOK 29/07 Q1013 NOSIG", "HESH 311300Z 03008KT 9999 FEW020 29/17 Q1012 NOSIG", "HESN 311300Z 01006KT CAVOK 32/09 Q1011 NOSIG", "HESW 311400Z 30010KT 9999 SCT025 24/11 Q1016", "HETR 311400Z 31020KT CAVOK 28/16 Q1012", "HKEL 311300Z 12011KT 9999 FEW022CB 24/11 Q1021", "HKEM 311300Z 06007KT 9999 FEW023CB BKN024 26/14", "HKGA 311300Z 32018KT 9999 FEW028CB BKN029 30/21 Q1009", "HKJK 311330Z 06009KT 030V100 9999 SCT026 26/12 Q1018 NOSIG", "HKKI 311300Z 22009KT 9999 FEW026CB SCT027 31/15 Q1012", "HKKT 311300Z 32003KT 9999 FEW022CB SCT023 24/14", "HKLO 311300Z 09010KT 9999 SCT033 35/13 Q1004", "HKLU 311300Z 14008KT 9999 BKN026 30/22 Q1010", "HKME 311300Z 17003KT 9999 SCT023 FEW024CB 23/15", "HKMO 311330Z 11010KT 9999 SCT026 28/21 Q1011 NOSIG", "HKNI 311300Z 36003KT 9999 FEW023CB BKN025 24/12", "HKNK 311300Z 36020KT 9999 FEW027CB SCT028 26/11", "HKNW 311300Z 09009KT 9999 BKN026 26/10 Q1018", "HRYR 311330Z 23009KT 9999 FEW023CB BKN025 23/16 Q1016 NOSIG", "HRZA 311300Z 13004KT TS 9999 FEW023CB BKN025 23/16 Q1017 NOSIG", "HSSK 311300Z 36012KT CAVOK 37/08 Q1008 NOSIG", "HTDA 311300Z 10010KT 9999 SCT031 30/21 Q1012 NOSIG", "HTJN 311300Z AUTO 04310KT 361V081 //// 30/10 Q1016", "HTKJ 311300Z 08010KT 9999 SCT038 33/13 Q1014 NOSIG", "HTMW 311300Z 32015KT 9999 FEW027 28/18 Q1012 NOSIG", "HTZA 311300Z 09010KT 9999 BKN026 30/22 Q1011 NOSIG", "HUEN 311330Z 15008KT 9999 FEW024 FEW026CB 27/20 Q1014 METAR ", "HUSO 311330Z 360003KT 9999 SCT020 FEW022CB 30/17 Q1013", "K04V 311335Z AUTO 31009KT 10SM CLR M03/M08 A3021 RMK AO2", "K04W 311355Z AUTO 00000KT 10SM CLR M01/M01 A2985 RMK AO2", "K05U 311355Z AUTO 22006KT 10SM CLR M04/M09 A3018 RMK A01", "K06C 311355Z AUTO 00000KT 2 1/2SM OVC002 12/12 A2983 RMK AO2 T01200120", "K06D 311355Z AUTO 23006KT 10SM CLR 03/M00 A2967 RMK AO2", "K08D 311355Z AUTO 27009KT 10SM CLR 05/00 A2973 RMK AO2", "K0A0 311355Z AUTO 32011KT 10SM CLR 08/M04 A3006 RMK AO2", "K0A9 311355Z AUTO 00000KT 9SM BKN036 BKN046 15/15 A3002 RMK A01 P0001", "K0CO 311355Z AUTO 34020G25KT 10SM CLR M09/M12 A3022 RMK AO2", "K0E0 311355Z AUTO 00000KT 10SM CLR M04/M04 A3015 RMK AO2 T10391041 TSNO", "K0F2 311355Z AUTO 00000KT 10SM CLR 10/09 A3005 RMK AO2 T01040092", "K0J4 311358Z AUTO 00000KT 10SM CLR 18/15 A3006 RMK AO2 SLP176 T01830150 $ ", "K0R0 311355Z AUTO 00000KT 5SM BR CLR 17/16 A3007 RMK AO2", "K0R4 311355Z AUTO 00000KT 10SM CLR 16/16 A3004 RMK AO2 T01590157", "K0S9 311355Z AUTO 10003KT 9SM OVC007 10/10 A2975 RMK AO2", "K0V4 311355Z AUTO 14005KT 10SM OVC023 14/12 A3011 RMK AO1", "K0VG 311355Z AUTO 00000KT 7SM BKN020 OVC035 15/15 A3003 RMK AO2", "K10G 311355Z AUTO 18006KT 1/4SM FG OVC002 14/13 A2993 RMK AO2", "K11R 311355Z AUTO 00000KT 10SM CLR 12/11 A3005 RMK AO2 T01230114", "K12N 311354Z AUTO 00000KT 11/08 A3009 RMK AO1 SLP192 T01110078", "K13K 311355Z AUTO 27006KT 10SM CLR 08/06 A2999 RMK AO2 T00820062", "K14Y 311355Z AUTO 20003KT 10SM CLR 00/00 A2985 RMK AO2", "K15M 311355Z AUTO 19003KT 10SM FEW005 OVC015 15/15 A3000 RMK AO2 T01510151 $", "K17J 311335Z AUTO 30003KT 7SM OVC030 20/18 A3002 RMK AO2 T01960179", "K18A 311355Z AUTO 36003KT 1 1/2SM -RA BR OVC003 14/14 A3005 RMK AO2 P0004 T01400137", "K18H 311335Z AUTO 05008KT 9SM FEW032 OVC090 25/17 A2999 RMK A01", "K19S 311355Z AUTO 26006KT 7SM CLR 04/M06 A3004 RMK AO2 T00411057", "K1A5 311355Z AUTO 00000KT 10SM BKN011 OVC035 15/14 A3009 RMK AO2 P0001 T01500139", "K1A6 311335Z AUTO 00000KT 7SM BKN015 OVC022 15/15 A3001 RMK AO2 P0001 T01500150", "K1A9 311355Z AUTO 00000KT 1 3/4SM BR OVC001 15/15 A3003 RMK AO2 T01470147", "K1AM 311355Z AUTO 23018G26KT 10SM CLR 11/M00 A2974 RMK AO2 PK WND 23031/26 SLP074 T01121003 $", "K1AW 311355Z AUTO 27012KT 10SM CLR 04/M08 A3000 RMK AO2 SLP155 T00421085 FZRANO $", "K1BM 311355Z AUTO 25021G27KT 10SM CLR 10/M00 A2974 RMK AO2 PK WND 24028/41 SLP077 T01021003 $", "K1BW 311355Z AUTO 27014KT 10SM CLR 05/M10 A3001 RMK AO2 SLP161 T00501096 FZRANO $", "K1CM 311355Z AUTO 26025G31KT 10SM SCT220 11/M00 A2975 RMK AO2 SLP074 T01091003 $", "K1CW 311355Z AUTO 27008KT 10SM CLR 02/M09 A2996 RMK AO2 SLP152 T00231090 FZRANO $", "K1D1 311335Z AUTO 00000KT 10SM CLR 00/M03 A2984 RMK AO2", "K1DM 311355Z AUTO 26017KT 10SM BKN200 11/M00 A2971 RMK AO2 SLP067 T01141001 $", "K1DW 311355Z AUTO 28012KT 10SM CLR 01/M08 A2998 RMK AO2 SLP170 T00111082 FZRANO $", "K1EM 311355Z AUTO 24014KT 10SM BKN240 09/M01 A2970 RMK AO2 SLP065 T00911008 $", "K1EW 311355Z AUTO 08008KT 10SM CLR 03/M09 A2998 RMK AO2 SLP161 T00301093 FZRANO $", "K1F0 311330Z AUTO 00000KT 7SM CLR 06/06 A3003 RMK AO2 T00640059", "K1FM 311355Z AUTO 18015G22KT 10SM OVC060 10/01 A2967 RMK AO2 SLP051 T00970011 $", "K1GM 311355Z AUTO 20025G29KT 10SM CLR 08/01 A2967 RMK AO2 SLP059 T00790013 $", "K1H2 311355Z AUTO 21004KT 4SM BR BKN005 OVC010 13/12 A2988 RMK AO2 T01270123", "K1HM 311355Z AUTO 28016G22KT 10SM CLR 09/01 A2965 RMK AO2 SLP051 T00940013 $", "K1HW 311355Z AUTO 29011KT 10SM CLR 02/M07 A2993 RMK AO2 SLP145 T00241070 FZRANO $", "K1IM 311355Z AUTO 22017KT 10SM CLR 11/01 A2971 RMK AO2 SLP068 T01090014 $", "K1IW 311355Z AUTO 29009KT 10SM CLR 00/M07 A2994 RMK AO2 SLP147 T00031068 FZRANO $", "K1JM 311355Z AUTO 19017KT 10SM SCT075 09/01 A2967 RMK AO2 SLP058 T00910005 PWINO $", "K1JW 311355Z AUTO 28011KT 10SM CLR 07/M09 A2996 RMK AO2 SLP140 T00661093 FZRANO $", "K1K1 311355Z AUTO 28004KT 10SM CLR 06/01 A3001 RMK AO2 T00560014", "K1KM 311355Z AUTO 27020KT 10SM OVC130 08/M02 A2979 RMK AO2 PK WND 26029/28 SLP092 T00801021 $", "K1LM 311355Z AUTO 29009KT 10SM OVC130 09/M02 A2982 RMK AO2 SLP100 T00891018 $", "K1M4 311356Z AUTO 00000KT 6SM BR SCT003 OVC050 14/14 A3003 RMK AO2 SLP156 T01440144", "K1M5 311355Z AUTO 20007KT 10SM FEW013 BKN021 OVC060 16/15 A2995 RMK A01", "K1MM 311355Z AUTO 24026G34KT 10SM FEW140 OVC200 11/M02 A2973 RMK AO2 PK WND 23034/1255 SLP073 T01111017 $", "K1MW 311355Z AUTO 28010KT 10SM M M00/M09 A2997 RMK AO2 SLP160 T10021089 FZRANO $", "K1NM 311355Z AUTO 29009G16KT 10SM BKN200 OVC220 12/M01 A2969 RMK AO2 SLP057 T01201012 $", "K1OM 311355Z AUTO 25025KT 10SM BKN150 OVC180 12/M01 A2967 RMK AO2 PK WND 26032/15 SLP056 T01161006 $", "K1OW 311355Z AUTO 29007KT 10SM CLR 02/M09 A3012 RMK AO2 SLP198 T00181089 FZRANO $", "K1P1 311355Z AUTO 00000KT 10SM CLR 04/01 A3006 RMK AO2 T00370007", "K1R7 311355Z AUTO VRB03KT 10SM CLR 16/16 A3005 RMK AO2 PWINO", "K1R8 311335Z AUTO 00000KT 9SM CLR 16/15 A3003 RMK AO2", "K1S3 311400Z AUTO 00000KT 10SM 08/M05 A2980 ", "K1S5 311355Z AUTO 18010KT 10SM OVC090 14/08 A2980 RMK AO2 T01430075", "K1U7 311355Z AUTO 04004KT 10SM BKN070 M04/M04 A3015 RMK A01", "K1V4 311354Z AUTO 03/M01 A3003 RMK AO1 SLP176 T00281011 PNO", "K1V6 311355Z AUTO 30017KT 10SM CLR 06/M05 A3004 RMK AO2", "K1YT 311355Z AUTO 13003KT 10SM OVC055 11/05 A2976 RMK AO2 SLP081 T01080049 $", "K20U 311355Z AUTO 23010KT 10SM CLR 03/M03 A2980 RMK AO2", "K20V 311355Z AUTO 00000KT 10SM CLR M08/M09 A3024 RMK AO2", "K21D 311355Z AUTO 33003KT 5SM BR CLR M01/M01 A2989 RMK AO2", "K22N 311355Z AUTO 00000KT 10SM OVC014 06/03 A3010 RMK AO2", "K24A 311355Z AUTO 00000KT 10SM OVC015 13/13 A3007 RMK AO2 T01330131", "K24J 311355Z AUTO VRB04KT 10SM OVC005 21/21 A3003 RMK A01", "K27K 311355Z AUTO 20007KT 10SM BKN010 OVC060 15/14 A2995 RMK AO1", "K28J 311355Z AUTO 00000KT 9SM CLR 21/20 A3004 RMK AO2 TSNO", "K2A0 311355Z AUTO 21005KT 2SM BR SCT009 BKN013 16/16 A3000 RMK A01 VIS 1V3", "K2C8 311355Z AUTO 23010KT 10SM CLR 07/M00 A2965 RMK AO2", "K2D5 311355Z AUTO 19007KT 8SM CLR 01/M02 A2980 RMK AO2", "K2DP 311355Z AUTO M M M M M M RMK AO2 SLPNO RVRNO $", "K2G2 311355Z AUTO 21005KT 8SM OVC003 13/13 A2995 RMK A01 P0001", "K2G4 311335Z AUTO 20007KT 7SM OVC013 11/11 A3004 RMK AO1", "K2G9 311355Z AUTO 27003KT 7SM -DZ BKN016 OVC027 08/07 A3003 RMK AO2 P0002", "K2IS 311335Z AUTO 06007KT 10SM SCT090 25/24 A3001 RMK AO2 T02490242", "K2J3 311355Z AUTO 16005KT 1/2SM FG OVC002 18/18 A3005 RMK AO2 T01810179", "K2J5 311335Z AUTO 13005KT 1/2SM FG OVC002 17/17 A3006 RMK AO2 T01750173", "K2J9 311355Z AUTO 00000KT 8SM FEW007 OVC015 21/21 A3004 RMK AO2", "K2M2 311355Z AUTO 23003KT 8SM BKN009 OVC015 15/14 A2998 RMK A01", "K2P2 311355Z AUTO 00000KT 3SM BR BKN110 05/05 A2984 RMK AO2 T00450045", "K2R9 311355Z AUTO 00000KT 10SM CLR 13/13 A3006 RMK AO2 T01320126", "K2V5 311355Z AUTO 25006KT 10SM CLR 00/M06 A3000 RMK AO2", "K2W6 311339Z AUTO 15003KT 10SM SCT050 SCT070 OVC090 14/13 A3011 RMK AO1", "K2WX 311356Z AUTO 28007KT 04/M04 A2980 RMK AO1 SLP106 T00391044", "K33N 311355Z AUTO 00000KT 10SM OVC027 13/13 A3010 RMK A01", "K33V 311355Z AUTO 14006KT 10SM CLR M08/M10 A3018 RMK AO1", "K35A 311355Z AUTO 13005KT 3SM BR OVC004 14/ A3008 RMK A02 T0144////", "K36K 311355Z AUTO 00000KT 10SM CLR 05/M05 A3005 RMK AO2", "K38S 311400Z AUTO 19014G19KT 10SM 09/01 A2988 ", "K3AU 311355Z AUTO 28004KT 10SM CLR 07/02 A3001 RMK AO2", "K3D2 311355Z AUTO 00000KT 10SM CLR 08/04 A2983 RMK AO2 T00820043", "K3F3 311355Z AUTO 22003KT 10SM CLR 15/14 A3008 RMK AO2 T01500141", "K3I2 311355Z AUTO 16003KT 10SM -RA BKN011 OVC030 17/17 A2999 RMK AO2 T01650165", "K3J7 311355Z AUTO 14004KT 5SM BR BKN004 OVC009 16/16 A3003 RMK AO2", "K3K3 311355Z AUTO 00000KT 10SM CLR M01/M07 A3003 RMK AO2", "K3LF 311355Z AUTO 24006KT 5SM BR OVC004 12/12 A2987 RMK AO2 T01170116", "K3N8 311355Z AUTO 19010KT 10SM CLR 04/M01 A2976 RMK AO2 T00391010", "K3R7 311355Z AUTO 00000KT 7SM CLR 16/16 A3005 RMK AO2 T01580158", "K3S8 311355Z AUTO 00000KT 1/4SM FG OVC002 05/04 A3008 RMK AO2", "K3U3 311400Z AUTO 20009G17KT 10SM 09/M01 A2990 ", "K40B 311316Z AUTO 00000KT 04/02 A3001 RMK AO1 SLP180 T00420020 52008", "K40U 311355Z AUTO 00000KT 10SM CLR M07/M10 A3017 RMK AO2 T10711101", "K41U 311355Z AUTO 00000KT 10SM CLR M09/M10 A3020 RMK AO1 T10911096", "K42J 311355Z AUTO 12005KT 10SM CLR 22/22 A3003 RMK A01", "K46D 311355Z AUTO 24008KT 10SM CLR 06/M02 A2975 RMK AO2", "K46U 311355Z AUTO 00000KT 10SM OVC070 M01/M03 A3017 RMK A01", "K48A 311355Z AUTO 16008KT 10SM OVC005 20/20 A3003 RMK AO2 T02000197", "K49A 311355Z AUTO 00000KT 10SM BKN008 OVC012 15/14 A3006 RMK AO2 T01510140", "K4A6 311355Z AUTO 00000KT 9SM FEW006 OVC050 16/16 A3001 RMK AO2", "K4A9 311355Z AUTO 22003KT 7SM 15/15 A3001 RMK AO2 T01540148", "K4F2 311355Z AUTO 10003KT 4SM BR CLR 12/12 A3005 RMK AO2 T01220122", "K4I3 311355Z AUTO 19006KT 7SM OVC004 14/14 A2993 RMK AO2", "K4M9 311355Z AUTO 24008KT 10SM BKN012 OVC032 15/15 A2994 RMK AO2 PWINO", "K4MR 311355Z AUTO 00000KT 10SM CLR 04/04 A3004 RMK AO2 SLP140 T00420036 $", "K4O4 311335Z AUTO 00000KT M1/4SM FG OVC002 10/10 A3002 RMK AO2", "K4R5 311355Z AUTO 00000KT 5SM BR CLR 00/00 A2983 RMK AO2 T10031004", "K4S1 311355Z AUTO 00000KT 2 1/2SM BR CLR 10/08 A3004 RMK AO2", "K4S2 311355Z AUTO 29004KT 10SM -RA BKN038 OVC043 12/10 A2987 RMK AO2", "K4V1 311330Z AUTO 25010KT 10SM CLR 07/M05 A3006 RMK AO2 T00731053", "K54A 311355Z AUTO 08007KT 10SM CLR 25/23 A2999 RMK AO2", "K54J 311355Z AUTO 00000KT 10SM CLR 17/15 A3005 RMK AO2 T01660145", "K57C 311355Z AUTO 00000KT 10SM SCT032 BKN080 BKN100 09/09 A2985 RMK AO2 T00940094", "K5C1 311335Z AUTO 00000KT 10SM CLR 08/08 A3005 RMK AO1", "K5H4 311355Z AUTO 24009KT 10SM CLR 04/M08 A2974 RMK AO2", "K5M9 311355Z AUTO 20004KT 4SM BR OVC003 14/14 A2991 RMK AO2 T01430141", "K5SM 311355Z AUTO 00000KT 10SM CLR M03/M11 A3028 RMK AO2", "K5T9 311345Z AUTO 08005KT 10SM CLR 14/12 A3000 RMK A01", "K63S 311355Z AUTO 00000KT 3SM BR SCT025 OVC033 08/07 A2978 RMK A01 P0007", "K65S 311355Z AUTO VRB03KT 6SM BR SCT008 BKN011 OVC018 09/08 A2972 RMK AO2", "K66R 311355Z AUTO 00000KT 10SM CLR 15/13 A3005 RMK AO2 T01510133", "K6A1 311355Z AUTO 24005KT 10SM BKN006 OVC014 20/20 A3003 RMK AO2 T01980198", "K6A2 311355Z AUTO 00000KT 1/2SM OVC002 17/17 A3003 RMK AO2", "K6B0 311355Z AUTO 19006KT 10SM CLR 12/01 A3003 RMK AO2 T01200007", "K6B9 311355Z AUTO 19004G10KT 10SM CLR 12/07 A2999 RMK AO2", "K6I2 311335Z AUTO 19007KT 10SM SCT012 OVC055 15/15 A2996 RMK AO2", "K6L4 311355Z AUTO 18004KT 4SM BR FEW006 SCT024 BKN032 15/15 A3001 RMK AO2", "K6P9 311335Z AUTO 25007KT 10SM CLR 13/09 A3005 RMK AO2 T01310085", "K6R6 311351Z AUTO 05006KT 13/08 A3002 RMK AO1 SLP150 T01280078", "K6S0 311355Z AUTO 27016KT 10SM CLR 08/M03 A2988 RMK A01", "K6S2 311355Z AUTO 00000KT 3SM BR BKN006 OVC009 12/12 A3001 RMK AO2", "K6S8 311355Z AUTO 22013KT 10SM 04/M05 A2984 RMK A01 Laurel ", "K74V 311355Z AUTO 24003KT 10SM M03/M06 A3019 RMK AO2", "K77S 311355Z AUTO VRB03KT 10SM SCT035 SCT075 11/11 A3001 RMK A01", "K79J 311356Z AUTO 30003KT 1 3/4SM HZ BKN002 17/14 A3004 RMK AO2 RAE48 SLP170 P0000 T01670139 ", "K7BM 311355Z AUTO 31005KT 10SM CLR 00/M14 A3019 RMK AO2", "K7L2 311355Z AUTO 12005KT 10SM CLR M01/M03 A2981 RMK AO2", "K7N0 311356Z AUTO 00000KT 4SM BR CLR 18/16 A3006 RMK AO2 SLP179 T01780161 PNO $", "K7W4 311355Z AUTO 18005KT 10SM BKN020 OVC026 16/11 A3010 RMK AO1 T01570108", "K81R 311355Z AUTO 00000KT 10SM CLR 10/09 A3008 RMK AO2 T01000094", "K82C 311355Z AUTO 00000KT 5SM BR CLR 04/04 A2987 RMK AO2 T00370037", "K82V 311355Z AUTO 25004KT 10SM CLR M02/M09 A3001 RMK AO2", "K8A0 311335Z AUTO 22003KT 3SM BKN002 OVC046 15/15 A3001 RMK AO2", "K8A3 311355Z AUTO VRB05KT 10SM SCT012 OVC049 15/14 A2998 RMK A01", "K8D3 311356Z AUTO 24013KT 10/M01 A2980 RMK AO1 SLP097 T01001006", "K8T6 311335Z AUTO 00000KT 10SM CLR 11/11 A3002 RMK AO2", "K8W2 311355Z AUTO 25003KT 10SM BKN060 OVC110 13/12 A3007 RMK AO1 T01250118", "K96D 311355Z AUTO 25010G18KT 10SM CLR 07/M01 A2965 RMK AO2", "K9A5 311355Z AUTO 00000KT 4SM OVC004 15/15 A3003 RMK AO2 T01450145", "K9D7 311355Z AUTO 25009KT 10SM CLR 04/00 A2970 RMK AO2 TSNO", "K9L2 311355Z AUTO 00000KT 10SM CLR 01/M13 A3003 RMK AO2 SLP167 T00101135 $", "K9MN 311355Z AUTO 00000KT 10SM CLR 04/01 A2988 RMK AO1 T00410013", "K9S5 311255Z AUTO 22008KT 10SM 08/M02 A2990 RMK Three Forks ", "K9V9 311335Z AUTO 27003KT 10SM CLR 00/M03 A2986 RMK AO2 T00001026", "KAAA 311355Z AUTO 00000KT 3SM RA OVC004 13/13 A2984 RMK AO2 T01320132", "KAAF 311353Z AUTO 01008KT 10SM CLR 22/17 A3001 RMK AO2 SLP162 T02220172", "KAAO 311354Z AUTO 29008KT 9SM CLR 07/01 A3001 RMK AO2 SLP162 T00720011", "KAAS 311355Z AUTO 21007KT 10SM SCT009 BKN016 OVC022 15/14 A3001 RMK AO1", "KAAT 311355Z AUTO 00000KT 10SM CLR M06/M08 A3008 RMK AO2 SLP198 T10561078", "KABE 311351Z 00000KT 10SM FEW013 10/06 A3009 RMK AO2 SLP192 T01000056", "KABH 311355Z AUTO 00000KT 10SM CLR M03/M08 A3005 RMK AO2 SLP214 T10271076", "KABI 311352Z 00000KT 10SM CLR 12/08 A3005 RMK AO2 SLP167 T01170083", "KABQ 311352Z 36010KT 10SM FEW220 04/M05 A3014 RMK AO2 SLP178 T00441050", "KABR 311353Z AUTO 17009KT 10SM CLR 01/M01 A2983 RMK AO2 SLP111 T00111011", "KABY 311353Z 18006KT 3SM BR OVC004 21/19 A3004 RMK AO2 SLP170 T02060194", "KACB 311355Z AUTO 00000KT 10SM SCT120 09/07 A2986 RMK AO2 T00890066", "KACK 311353Z 18003KT 10SM OVC017 18/16 A3010 RMK AO2 SLP193 T01830156", "KACP 311355Z AUTO 00000KT 10SM CLR 13/11 A3004 RMK AO2", "KACQ 311355Z AUTO 00000KT 5SM BR CLR 00/M01 A2991 RMK AO2", "KACT 311351Z 00000KT 10SM CLR 14/12 A3005 RMK AO2 SLP172 T01390117", "KACV 311353Z AUTO 00000KT 10SM OVC024 07/06 A3005 RMK AO2 SLP181 T00670056", "KACY 311354Z 27003KT 10SM CLR 16/12 A3010 RMK AO2 SLP193 T01610117", "KADC 311356Z AUTO 00000KT 10SM CLR 04/M01 A2982 RMK AO2 TSNO", "KADG 311353Z AUTO 00000KT 1 1/4SM -RA BR OVC004 12/12 A2986 RMK AO2 SLP115 P0005 T01220122", "KADH 311335Z AUTO 30003KT 10SM CLR 08/07 A3003 RMK AO2", "KADM 311350Z 00000KT 10SM CLR 07/07 A3004", "KADS 311347Z 00000KT 13SM BKN250 13/10 A3004", "KADT 311335Z AUTO 27006KT 10SM CLR 00/M06 A3003 RMK AO2 T00001059", "KADU 311355Z AUTO 00000KT 7SM SCT045 SCT065 SCT090 02/00 A2993 RMK AO2", "KADW 311355Z AUTO 19007KT 10SM FEW065 15/12 A3007 RMK AO2 DZB16E26 SLP190 P0000 T01540118 $", "KAEG 311347Z VRB03KT 10SM CLR 01/M07 A3013", "KAEJ 311355Z AUTO 30004KT 10SM M06/M10 A3017 RMK AO2 T10621103", "KAEL 311355Z AUTO 00000KT 5SM BR CLR 02/02 A2989 RMK AO2", "KAEX 311353Z 00000KT 4SM BR CLR 15/14 A3003 RMK AO2 SLP172 T01500139", "KAFF 311355Z AUTO 36009KT 10SM CLR M02/M07 A3004 RMK AO2 SLP175 T10181075", "KAFJ 311356Z AUTO 17003KT 10SM SCT006 BKN011 OVC019 13/13 A3000 RMK AO2 SLP159 T01330128", "KAFK 311355Z AUTO 31006KT 10SM CLR 07/01 A2996 RMK AO2 T00660011", "KAFN 311352Z AUTO 20007KT 10SM CLR 10/06 A3007 RMK AO2 SLP193 T01000056", "KAFO 311335Z AUTO 00000KT 10SM OVC065 M03/M05 A3015 RMK AO2", "KAFP 311355Z AUTO 00000KT 10SM CLR 16/14 A3008 RMK AO2 T01600140", "KAFW 311353Z 00000KT 10SM BKN250 13/10 A3004 RMK AO2 SLP169 T01280100", "KAGC 311356Z 16005KT 1SM R28/3500VP6000FT -RA BR BKN003 OVC021 11/11 A2997 RMK AO2 RAB54 P0000 T01110106", "KAGI 311355Z AUTO 01003KT 10SM CLR 23/14 A3003 RMK AO2 T02300143", "KAGO 311355Z AUTO 00000KT 9SM CLR 14/13 A3000 RMK A01", "KAGS 311353Z 14007KT 1/4SM FG OVC002 17/17 A3004 RMK AO2 SLP170 T01670167 RVRNO $", "KAHN 311351Z VRB03KT 2 1/2SM -RA BR OVC005 15/14 A3004 RMK AO2 RAE21B43 SLP170 P0003 T01500144", "KAHQ 311355Z AUTO 00000KT 10SM CLR 00/M02 A2996 RMK AO2 T00031025", "KAIA 311353Z AUTO 24007KT 10SM CLR M04/M07 A2993 RMK AO2 SLP161 T10441072", "KAID 311355Z AUTO 19005KT 10SM OVC007 15/13 A2988 RMK AO2 T01480132", "KAIG 311355Z AUTO 00000KT 7SM CLR 03/03 A2985 RMK AO2 T00340034", "KAIK 311355Z AUTO 14008KT 1/2SM FG OVC002 16/16 A3005 RMK AO2 T01640161", "KAIO 311355Z AUTO 00000KT 7SM CLR 00/00 A2993 RMK AO2", "KAIT 311355Z AUTO 00000KT 10SM CLR M02/M02 A2983 RMK AO2", "KAIZ 311356Z AUTO 25006KT 10SM FEW095 12/11 RMK AO2 SLPNO T01220111 $", "KAJG 311355Z AUTO 22009KT 2SM DZ OVC004 16/15 A2987 RMK AO2 T01560150", "KAJO 311356Z AUTO 00000KT 10SM CLR 06/04 A2994 RMK AO2 SLP135 T00610044", "KAJR 311355Z AUTO 03004KT 5SM RA OVC004 14/14 A3005 RMK AO2 T01400140", "KAJZ 311355Z AUTO 05005KT 10SM CLR M01/M04 A3019 RMK AO2 T10111038", "KAKH 311354Z AUTO 05003KT 6SM BR SCT005 OVC011 14/14 A3007 RMK AO2 RAB1255E07 SLP180 P0001 T01440139", "KAKO 311353Z AUTO 27011KT 10SM CLR 03/M06 A3000 RMK AO2 SLP161 T00281056", "KAKQ 311354Z AUTO 20003KT 10SM BKN055 OVC070 14/13 A3013 RMK AO2 SLP202 T01440128", "KAKR 311354Z AUTO 18008KT 4SM HZ OVC005 16/13 A2992 RMK AO2 SLP131 T01560128", "KALB 311351Z 19007KT 10SM FEW150 SCT180 BKN210 11/04 A3008 RMK AO2 SLP188 T01060044", "KALI 311353Z AUTO 05004KT 10SM CLR 17/15 A3001 RMK AO2 SLP160 T01720150", "KALK 311356Z AUTO 00000KT 10SM CLR 08/M04 A3007 RMK AO2 SLP125 T00781039 $", "KALM 311355Z AUTO 03004KT 10SM CLR 06/M01 A3007 RMK AO2", "KALN 311350Z 26006KT 2SM BR OVC004 12/12 A2988", "KALO 311354Z 30004KT 5SM BR CLR 05/03 A2990 RMK AO2 SLP130 T00500033", "KALS 311352Z AUTO 00000KT 10SM CLR M08/M10 A3018 RMK AO2 SLP231 T10781100", "KALW 311353Z 25004KT 10SM OVC075 11/08 A2985 RMK AO2 SLP108 T01110083", "KALX 311355Z AUTO 00000KT 3SM BR BKN001 16/16 A3003 RMK AO2 T01590157", "KAMA 311353Z 21003KT 10SM CLR 08/04 A3005 RMK AO2 SLP160 T00830044", "KAMG 311353Z AUTO 14006KT 8SM OVC006 21/20 A3004 RMK AO2 CIG 004V009 SLP170 T02110200", "KAMN 311355Z AUTO 00000KT 2SM BR OVC013 10/09 A2986 RMK AO2 T00960090", "KAMW 311353Z AUTO 00000KT 6SM BR CLR 04/02 A2991 RMK AO2 SLP133 T00390022", "KANB 311353Z AUTO 00000KT 8SM FEW007 16/16 A3002 RMK AO2 SLP164 T01560156", "KAND 311356Z AUTO 01003KT 3SM -RA BR OVC009 14/14 A3005 RMK AO2 SLP170 P0032 T01440139", "KANE 311345Z 00000KT 10SM CLR 00/M02 A2988", "KANJ 311355Z AUTO 05003KT 10SM CLR 09/07 A2985 RMK AO2 SLP111 T00890067", "KANK 311330Z AUTO 28005KT 10SM CLR M01/M08 A3024 RMK AO1 T10131080", "KANQ 311355Z AUTO 14003KT M1/4SM FG 13/13 A2984 RMK AO2", "KANW 311355Z AUTO 23004KT 10SM CLR 02/M05 A2989 RMK AO2 T00231051", "KAOH 311253Z AUTO 19007KT 7SM BKN006 16/14 A2987 RMK AO2 RAE34 SLP112 P0000 T01560144", "KAOO 311353Z AUTO 00000KT 8SM -RA SCT070 BKN085 OVC100 08/06 A3004 RMK AO2 RAE00B31 SLP177 P0000 T00830061", "KAPA 311353Z 14003KT 10SM CLR 01/M06 A3003 RMK AO2 SLP178 T00061056", "KAPC 311354Z 00000KT 8SM OVC008 11/09 A2998 RMK AO2 SLP144 T01110089", "KAPF 311353Z 06007KT 10SM CLR 27/25 A2998 RMK AO2 SLP151 T02720250 $", "KAPG 311358Z 00000KT 9SM SCT007 OVC028 13/12 A3008 RMK AO2A SLP189 T01290121 $", "KAPN 311354Z AUTO 15003KT 10SM CLR 08/06 A2986 RMK AO2 SLP117 T00830061", "KAPS 311336Z AUTO 00000KT 2SM BR CLR 15/14 A3005 RMK AO2", "KAQO 311335Z AUTO 00000KT 10SM CLR 11/10 A3005 RMK AO2", "KAQP 311353Z AUTO 00000KT 10SM 00/M02 A2986 RMK AO2", "KAQV 311357Z AUTO 00000KT 2SM BR CLR 14/13 A3003 RMK AO2 SLP168 T01390128 ", "KAQW 311352Z AUTO 12006KT 10SM CLR 10/03 A3007 RMK AO2 SLP187 T01000033", "KAQX 311355Z AUTO 00000KT 8SM OVC003 18/18 A3005 RMK AO2", "KARA 311353Z 00000KT 7SM CLR 17/15 A3004 RMK AO2 SLP172 T01670150", "KARB 311350Z 00000KT 1 1/2SM -RA BR OVC003 12/11 A2985 RMK AO2 SLP109 P0002 T01220111", "KARG 311356Z AUTO 27007KT 10SM FEW007 BKN022 OVC041 15/14 A2995 RMK AO2 SLP143 T01500144", "KARM 311355Z AUTO 00000KT 10SM CLR 14/14 A3005 RMK AO2 T01400140 TSNO", "KARR 311352Z 03004KT 2SM BR OVC003 12/12 A2983 RMK AO2 SLP102 T01170117", "KART 311356Z AUTO 20007KT 10SM CLR 12/05 A2998 RMK AO2 SLP154 T01220050", "KARV 311355Z AUTO 00000KT 10SM CLR 01/00 A2985 RMK AO2 T00060000", "KARW 311355Z AUTO 00000KT 10SM SCT025 SCT035 BKN048 21/20 A3006 RMK AO2", "KASD 311353Z AUTO 00000KT 9SM SCT046 17/16 A3004 RMK AO2 SLP173 T01670156", "KASE 311353Z 22005KT 10SM CLR M04/M08 A3020 RMK AO2 SLP215 T10391083", "KASG 311348Z 21006KT <1/4SM FG OVC002 10/10 A3001", "KASH 311356Z 00000KT 10SM CLR 09/06 A3007 RMK AO2 SLP189 T00940061 $", "KASJ 311355Z AUTO 00000KT 10SM OVC044 15/14 A3012 RMK AO2 T01490142", "KASL 311355Z AUTO 00000KT 1 1/4SM BR CLR 10/10 A3003 RMK AO2 T01030102 TSNO $", "KASN 311355Z AUTO 00000KT 1/4SM FG OVC002 16/16 A3003 RMK AO2 T01560156", "KAST 311355Z AUTO 19011KT 6SM -RA BR FEW012 BKN022 OVC070 13/12 A2986 RMK AO2 SLP110 P0008 T01280117", "KASW 311355Z AUTO 00000KT 2 1/2SM RA OVC002 13/13 A2984 RMK AO2 P0001 T01380137", "KASX 311353Z AUTO 22003KT 9SM CLR 01/01 A2984 RMK AO2 SLP114 T00110006", "KATA 311355Z AUTO 00000KT 8SM CLR 13/13 A3002 RMK AO2 SLP066 T01340134 $", "KATL 311352Z 15004KT 1 1/2SM BR OVC003 17/17 A3003 RMK AO2 SFC VIS 2 SLP164 CIG 002V004 T01720167 $", "KATP 311355Z AUTO 05007G16KT 010V080 10SM OVC075 23/17 A3002 RMK A01", "KATS 311355Z AUTO 31007KT 10SM CLR 07/05 A3008 RMK AO2", "KATT 311351Z AUTO 28004KT 10SM CLR 15/12 A3005 RMK AO2 SLP173 T01500122", "KATW 311345Z 29003KT 10SM CLR 08/06 A2984", "KATY 311353Z AUTO 15005KT 10SM CLR 01/M02 A2984 RMK AO2 SLP120 T00061022", "KAUG 311353Z AUTO 18004KT 10SM CLR 09/05 A3005 RMK AO2 SLP177 T00940050", "KAUH 311355Z AUTO 23004KT 10SM CLR 02/M01 A2996 RMK AO2 T00221008", "KAUM 311355Z AUTO 00000KT 7SM CLR 01/01 A2989 RMK AO2", "KAUN 311335Z AUTO 07004KT 10SM CLR 13/M00 A3000 RMK A01", "KAUO 311356Z AUTO 32004KT 10SM SCT007 17/17 A3004 RMK AO2 SLP191 T01720172", "KAUS 311353Z 00000KT 10SM FEW100 SCT200 BKN300 13/12 A3005 RMK AO2 SLP174 T01280117", "KAUW 311354Z AUTO 00000KT 8SM CLR 07/04 A2984 RMK AO2 SLPNO T00720039", "KAVC 311355Z AUTO 17005KT 10SM OVC031 15/15 A3018 RMK AO2 T01520145", "KAVK 311355Z AUTO 00000KT 10SM CLR 04/M01 A3003 RMK AO2 PWINO", "KAVL 311354Z 16004KT 6SM BR FEW003 BKN013 OVC018 12/11 A3008 RMK AO2 RAE40 SLP175 P0007 T01170111", "KAVP 311354Z AUTO 00000KT 10SM CLR 12/07 A3005 RMK AO2 SLP175 T01170067", "KAVQ 311355Z AUTO 09005KT 10SM CLR 09/M02 A2997 RMK AO2 T00921022", "KAVX 311351Z AUTO 17005KT 10SM CLR 23/M07 A2995 RMK AO2 SLP117 T02331072", "KAWG 311355Z AUTO 00000KT 7SM CLR 08/08 A2987 RMK AO2", "KAWM 311353Z AUTO 26005KT 10SM OVC008 15/13 A2996 RMK AO2 SLP144 T01500133 $", "KAWO 311356Z AUTO 11004KT 10SM -RA OVC010 10/09 A2978 RMK AO2 CIG 008V013 SLP088 P0009 T01000094", "KAXA 311355Z AUTO 00000KT 10SM CLR 03/03 A2989 RMK A01", "KAXH 311355Z AUTO 00000KT 10SM CLR 15/15 A3005 RMK AO2 T01530146", "KAXN 311353Z AUTO 21008KT 10SM CLR 05/M01 A2985 RMK AO2 SLP119 T00501011", "KAXS 311355Z AUTO 01005KT 10SM CLR 08/07 A3006 RMK AO2 T00820067", "KAXV 311355Z AUTO 19008KT 10SM BKN009 OVC025 15/15 A2988 RMK AO2", "KAXX 311335Z AUTO 00000KT 10SM CLR M09/M10 A3021 RMK AO2 T10911105", "KAYS 311335Z AUTO 16004KT 10SM OVC006 22/21 A3004 RMK AO2 T02170210", "KAZC 311355Z AUTO 00000KT 10SM CLR 00/M05 A3016 RMK AO2", "KAZE 311335Z AUTO 00000KT 2 1/2SM BR OVC002 20/20 A3003 RMK AO2 T02040200", "KAZO 311353Z 00000KT 1/2SM R35/4500V5000FT FG OVC002 12/12 A2986 RMK AO2 SLP112 T01220117 $", "KBAB 311355Z AUTO 00000KT 10SM CLR 09/03 A2998 RMK AO2 SLP155 T00920030 $", "KBAC 311355Z AUTO 16005KT 10SM CLR 01/M02 A2976 RMK AO2", "KBAD 311356Z 00000KT 10SM BKN240 18/13 A3003 RMK AO2A SLPNO WND DATA ESTMD ALSTG ESTMD $", "KBAF 311353Z 22004KT 10SM CLR 08/04 A3009 RMK AO2 SLP193 T00830044", "KBAK 311355Z 18007KT 10SM -RA OVC070 15/14 A2989", "KBAM 311355Z AUTO 24003KT 10SM CLR M04/M11 A3013 RMK AO1", "KBAN 311352Z AUTO 00000KT 10SM CLR M07/M15 A3014 RMK AO2 SLP210 T10721150 $", "KBAX 311355Z AUTO 00000KT 7SM SCT005 SCT036 OVC046 A2987 RMK AO2", "KBAZ 311351Z AUTO 00000KT 10SM CLR 14/12 A3003 RMK AO2 SLP166 T01390117", "KBBB 311355Z AUTO 00000KT 10SM CLR M01/M02 A2987 RMK AO2", "KBBD 311355Z AUTO 00000KT 10SM CLR 11/08 A3007 RMK AO2", "KBBG 311349Z 26004KT 3SM BR OVC003 12/12 A2999", "KBBP 311355Z AUTO 00000KT 10SM SCT043 SCT050 18/16 A3008 RMK AO2", "KBBW 311353Z AUTO 00000KT 10SM CLR M01/M05 A2992 RMK AO2 SLP148 T10061050", "KBCB 311355Z AUTO 12003KT 10SM OVC013 11/11 A3012 RMK AO2 P0001 T01140114", "KBCE 311353Z AUTO 27007KT 10SM CLR M06/M08 A3021 RMK AO2 SLP207 T10611083", "KBCK 311355Z AUTO 00000KT 10SM CLR 01/01 A2987 RMK AO2 T00110010", "KBCR 311258Z AUTO 00000KT 8SM OVC036 18/16 A3001 RMK AO2 SLP121 T01780161", "KBCT 311353Z 12005KT 10SM FEW032 28/24 A3000", "KBDE 311353Z AUTO 21006KT 10SM CLR 04/M02 A2969 RMK AO2 SLP066 T00441017", "KBDG 311355Z AUTO 16003KT 10SM 03/M07 A3021 RMK AO1 T00291073", "KBDH 311355Z AUTO 18003KT 10SM CLR M01/M02 A2990 RMK AO2", "KBDL 311351Z 18004KT 10SM BKN032 BKN250 12/07 A3010 RMK AO2 SLP192 T01170067", "KBDN 311355Z AUTO 23010KT 10SM CLR 11/M02 A2999 RMK AO2", "KBDR 311352Z 00000KT 10SM FEW044 14/11 A3010 RMK AO2 SLP193 T01440106", "KBDU 311355Z AUTO 00000KT 10SM CLR 02/M06 A3002 RMK AO2", "KBEA 311355Z AUTO 04004KT 10SM CLR 15/14 A3003 RMK AO2 T01460137 PWINO", "KBEC 311335Z AUTO 27003KT 10SM CLR 06/02 A3000 RMK AO2 T00630017", "KBED 311351Z VRB05KT 10SM CLR 14/09 A3007 RMK AO2 SLP196 T01440094", "KBEH 311353Z AUTO 07003KT 1/4SM FG VV003 12/12 A2984 RMK AO2 SLP104 T01220122", "KBFD 311353Z AUTO 14006KT 10SM FEW036 BKN110 09/06 A2999 RMK AO2 RAB01E43 SLP156 P0000 T00940056", "KBFF 311353Z AUTO 00000KT 10SM CLR M03/M08 A2996 RMK AO2 SLP159 T10281083", "KBFI 311353Z 17014G20KT 10SM -RA FEW008 BKN020 OVC110 12/11 A2979 RMK AO2 SLP088 P0001 T01170106", "KBFL 311354Z AUTO 00000KT 8SM CLR 11/00 A2996 RMK AO2 SLP142 T01060000", "KBFM 311353Z 00000KT 10SM CLR 19/16 A3006 RMK AO2 SLP178 T01890156", "KBGD 311351Z AUTO 22004KT 10SM CLR 07/03 A3007 RMK AO2 SLP168 T00720028", "KBGE 311355Z AUTO 24004KT 3 1/2SM HZ BKN021 OVC041 21/17 A3003 RMK AO2 T02080175", "KBGF 311355Z AUTO 00000KT 8SM FEW019 OVC049 15/15 A3000 RMK A01", "KBGM 311353Z 19007KT 10SM CLR 09/06 A3001 RMK AO2 SLP168 T00940061", "KBGR 311353Z 18005KT 10SM SCT090 09/07 A3004 RMK AO2 SLP173 T00940067", "KBHB 311356Z AUTO 21007KT 10SM CLR 12/09 A3005 RMK AO2 SLP179 T01220094 PNO $", "KBHC 311335Z AUTO 19003KT 10SM OVC005 20/20 A3004 RMK AO2", "KBHK 311351Z AUTO 00000KT 10SM CLR 03/M03 A2982 RMK AO2 SLP110 T00331033", "KBHM 311353Z 10003KT 7SM OVC050 16/14 A3004 RMK AO2 SLP168 T01610144", "KBID 311356Z AUTO 16003KT 10SM OVC015 14/13 A3011 RMK AO2 SLP195 T01390128", "KBIE 311355Z AUTO 00000KT 10SM CLR 04/01 A2998 RMK AO2 T00350009", "KBIF 311255Z AUTO 25005KT 10SM CLR 08/01 A3002 RMK AO2 SLP131 T00830008 $", "KBIH 311356Z AUTO 02006KT 10SM CLR M03/M11 A3010 RMK AO2 SLP184 T10331106", "KBIJ 311335Z AUTO 00000KT 10SM OVC009 18/16 A3003 RMK AO2", "KBIL 311353Z 24015KT 10SM FEW110 SCT200 06/M04 A2983 RMK AO2 SLP101 T00611044", "KBIS 311352Z 27004KT 10SM CLR 01/M03 A2979 RMK AO2 SLP101 T00061028", "KBIV 311353Z AUTO 11004KT 1 3/4SM BR OVC004 12/11 A2985 RMK AO2 SLPNO T01170111", "KBIX 311355Z AUTO 00000KT 10SM CLR 18/17 A3003 RMK AO2 SLP172 T01830166", "KBJC 311345Z 24004KT 10SM FEW150 04/M08 A3003", "KBJI 311335Z AUTO 00000KT 10SM CLR 03/M01 A2977 RMK AO2 T00311015", "KBJJ 311356Z AUTO 19006KT 4SM BR OVC003 14/14 A2992 RMK AO2 SLP133 T01390139", "KBKB 311352Z AUTO 00000KT 6SM BR CLR 15/14 A3002 RMK AO2 SLP193 T01500139", "KBKD 311355Z AUTO 00000KT 5SM BR CLR 10/10 A3005 RMK AO2 T01010096", "KBKE 311353Z AUTO 05003KT 10SM CLR 03/01 A2998 RMK AO2 SLP158 T00330006", "KBKF 311358Z 19007KT 10SM FEW220 01/M05 A3002 RMK AO2A SLP165 T00121055", "KBKL 311353Z 16010KT 10SM OVC070 16/13 A2988 RMK AO2 SLP118 T01610128", "KBKS 311355Z AUTO 00000KT 10SM OVC075 16/15 A2999 RMK AO2 SLP116 T01640153 $", "KBKT 311355Z AUTO 20004KT 10SM SCT015 BKN031 OVC039 15/13 A3012 RMK AO1 T01510128", "KBKV 311353Z 12003KT 10SM CLR 24/22 A3003 RMK AO2 SLP167 T02440217", "KBKW 311351Z AUTO 15007KT 1 3/4SM -RA BR SCT044 OVC055 13/12 A3005 RMK AO2 CIG 044 RWY19 SLP166 P0002 T01280117", "KBKX 311356Z AUTO 13007KT 10SM CLR A2988 RMK AO2 SLPNO FZRANO $", "KBLF 311352Z AUTO VRB03KT 10SM OVC055 13/11 A3007 RMK AO2 RAB28E40 SLP167 P0000 T01280111", "KBLH 311352Z AUTO 31003KT 10SM CLR 10/M02 A2992 RMK AO2 SLP130 T01001017 TSNO", "KBLI 311353Z VRB04KT 8SM -RA BKN020 BKN028 OVC048 09/09 A2973 RMK AO2 SLP075 P0007 T00940094", "KBLM 311356Z AUTO 00000KT 10SM CLR 16/12 A3011 RMK AO2 SLP196 T01560117", "KBLU 311352Z AUTO 19003KT 10SM CLR 11/M05 A3011 RMK AO2 SLP149 T01061050 $", "KBLV 311355Z 23005KT 5SM BR BKN005 OVC010 13/13 A2987 RMK AO2A DZB07E38 SLP118 P0000 T01320126 CHINO RWY14R $", "KBMC 311330Z AUTO 10SM CLR 00/M03 A3017 RMK AO1 T10051035", "KBMG 311353Z 19007KT 7SM OVC013 16/14 A2987 RMK AO2 RAB18E32 SLP112 P0001 T01560139", "KBMI 311356Z 35004KT 1/4SM R20/5000VP6000FT +RA FG OVC003 12/12 A2984 RMK AO2 RAB00 CIG 002V007 SLP102 P0012 T01220122", "KBML 311352Z AUTO 36003KT 10SM CLR 05/M01 A3002 RMK AO2 SLP180 T00501006", "KBMQ 311353Z AUTO 00000KT 10SM CLR 13/11 A3007 RMK AO2 SLP176 T01330106", "KBMT 311335Z AUTO 00000KT 10SM CLR 14/14 A3004 RMK AO2 T01430138", "KBNA 311353Z 17005KT 8SM BKN014 OVC060 16/13 A2998 RMK AO2 SLP150 T01610133", "KBNL 311355Z AUTO 11005KT 1/2SM BR OVC003 17/17 A3005 RMK AO2", "KBNO 311353Z AUTO 00000KT 10SM FEW120 M02/M07 A3005 RMK AO2 SLP192 T10221072", "KBNW 311355Z AUTO 30003KT 10SM CLR 06/02 A2993 RMK AO2", "KBOI 311353Z 00000KT 10SM OVC075 04/01 A3003 RMK AO2 SLP172 T00390006", "KBOK 311356Z AUTO 00000KT 10SM CLR 07/07 A3005 RMK AO2 SLP177 T00720072 $", "KBOS 311354Z 19006KT 10SM FEW020 FEW120 SCT250 13/13 A3009 RMK AO2 SLP188 T01280128", "KBOW 311315Z AUTO 00000KT 10SM CLR 24/22 A3002 RMK AO2", "KBPG 311355Z AUTO 36004KT 10SM CLR 10/06 A3006 RMK AO2 T00970063", "KBPI 311353Z AUTO 30004KT 10SM OVC055 M06/M08 A3013 RMK AO2 SLP211 T10561078", "KBPK 311353Z AUTO VRB04KT 10SM FEW011 BKN070 14/12 A2996 RMK AO2 SLP141 T01390117", "KBPT 311353Z 00000KT 6SM BR FEW002 16/16 A3004 RMK AO2 SLP171 T01610161", "KBQK 311355Z AUTO 00000KT 10SM SCT030 BKN048 23/21 A3004 RMK AO2 T02270214", "KBQP 311335Z AUTO 00000KT 5SM BR CLR 14/14 A3003 RMK AO2 T01410138", "KBQX 311355Z AUTO 08004KT 10SM 23/13 A3005 RMK A01", "KBRD 311353Z AUTO 00000KT 9SM CLR M01/M03 A2984 RMK AO2 SLP119 T10061028", "KBRG 311355Z AUTO 00000KT 10SM CLR 01/M06 A3013 RMK AO2 T00121064", "KBRL 311353Z AUTO 31008KT 8SM SCT100 11/07 A2987 RMK AO2 SLP116 T01060072", "KBRO 311353Z 09006KT 10SM OVC075 23/18 A2997 RMK AO2 SLP147 T02330183", "KBRY 311355Z AUTO 18004KT 10SM BKN012 OVC060 16/15 A2992 RMK AO2 CIG 010V015 T01590149", "KBTA 311355Z AUTO 00000KT 10SM CLR 03/00 A2994 RMK AO2 T00321002", "KBTL 311353Z 00000KT 1 1/2SM BR OVC002 12/11 A2985 RMK AO2 SLP111 T01170111", "KBTM 311353Z AUTO 02005KT 10SM OVC060 07/M01 A2992 RMK AO2 SLP120 T00671011", "KBTN 311355Z AUTO 16007KT M1/4SM -RA HZ VV000 02/M01 A2981 RMK AO2", "KBTP 311356Z AUTO 14006KT 3SM RA BR BKN009 OVC015 11/11 A2998 RMK AO2 RAB05 CIG 004V012 SLP161 P0010 T01060106 TSNO", "KBTR 311353Z 00000KT 8SM CLR 17/16 A3004 RMK AO2 SLP172 T01720161 $", "KBTV 311354Z 19008KT 10SM SCT095 BKN170 13/M01 A3001 RMK AO2 SLP162 T01331006", "KBUF 311354Z 17003KT 10SM -RA FEW032 BKN044 BKN060 BKN130 OVC250 11/07 A2996 RMK AO2 SLP146 P0001 T01110067 $", "KBUR 311353Z 00000KT 10SM CLR 13/M01 A2992 RMK AO2 SLP122 T01331011", "KBUU 311335Z AUTO 00000KT 1SM OVC029 09/09 A2985 RMK AO2 T00860086 PWINO", "KBUY 311354Z AUTO VRB03KT 10SM SCT029 BKN045 16/13 A3010 RMK AO2 SLP189 T01610128", "KBVI 311355Z AUTO 15004KT 3SM -DZ BKN004 OVC009 13/11 A2996 RMK AO2 T01250105", "KBVN 311355Z AUTO 00000KT 10SM CLR 00/M02 A2993 RMK AO2 T10031016", "KBVO 311353Z AUTO 19003KT 10SM CLR 10/08 A3002 RMK AO2 SLP160 T01000078", "KBVS 311355Z AUTO 12005KT 10SM BKN013 OVC019 09/09 A2977 RMK A01 P0002", "KBVU 311355Z AUTO VRB04KT 10SM CLR 12/M07 A3003 RMK AO2", "KBVX 311356Z AUTO 28006KT 10SM FEW030 14/13 A2998 RMK AO2 SLP151 T01440133", "KBVY 311353Z 18004KT 10SM CLR 12/10 A3007 RMK AO2 SLP179 T01220100", "KBWG 311353Z AUTO 20006KT 10SM SCT021 BKN032 OVC070 17/14 A2995 RMK AO2 SLP138 T01670139", "KBWI 311354Z VRB03KT 7SM FEW007 BKN025 BKN120 BKN190 14/12 A3008 RMK AO2 SLP185 T01440122", "KBWP 311355Z AUTO 15007KT 10SM CLR 00/M04 A2980 RMK AO2", "KBWW 311355Z AUTO 24011KT 10SM CLR 03/M03 A2982 RMK AO2", "KBXA 311355Z AUTO 00000KT 7SM CLR 16/15 A3005 RMK AO2 T01590149", "KBXK 311355Z AUTO 35005KT 10SM CLR 10/01 A2994 RMK A01", "KBYG 311353Z AUTO 24006KT 10SM CLR 06/M08 A2990 RMK AO2 SLP118 T00611083", "KBYI 311353Z AUTO 21005KT 10SM CLR 03/M02 A3008 RMK AO2 SLP189 T00331022", "KBYL 311335Z AUTO 00000KT 10SM SCT020 BKN049 BKN055 15/15 A3000 RMK AO1", "KBYS 311355Z AUTO 36005KT 10SM CLR 08/M11 A2999 RMK AO2 SLP147 T00821107 $", "KBYY 311355Z AUTO 00000KT 10SM CLR 15/13 A3004 RMK AO2 T01390134", "KBZN 311356Z 15007KT 10SM BKN080 03/M02 A2991 RMK AO2 SLP138 T00281017", "KC07 311355Z AUTO 28004KT 10SM CLR M05/M06 A3023 RMK AO2", "KC09 311355Z AUTO 00000KT 1/4SM FG OVC001 13/13 A2982 RMK AO2 T01260126", "KC29 311355Z AUTO 00000KT 3SM CLR 04/04 A2987 RMK AO1 T00440042", "KC35 311355Z AUTO 00000KT 5SM CLR 02/02 A2987 RMK AO2 T00180018 PWINO", "KC65 311355Z AUTO 12003KT 1/2SM FG OVC002 14/14 A2982 RMK A01", "KC75 311355Z AUTO 35003KT 3/4SM BR OVC003 12/12 A2983 RMK AO2 T01150115", "KC83 311355Z AUTO 36003KT 10SM CLR 11/07 A2997 RMK AO2", "KC99 311331Z AUTO 32017G23KT 280V340 10SM CLR M04/M13 A3018 RMK AO2", "KCAD 311355Z AUTO 00000KT 10SM OVC110 08/06 A2985 RMK AO2 T00750058", "KCAE 311356Z 13006KT 8SM OVC006 16/15 A3005 RMK AO2 SLP175 T01610150", "KCAG 311353Z AUTO 28004KT 10SM CLR M07/M09 A3019 RMK AO2 SLP259 T10721094", "KCAK 311351Z 19008KT 1SM R23/5000VP6000FT BR OVC002 14/13 A2993 RMK AO2 SLP135 T01440128", "KCAO 311255Z AUTO 25010KT 10SM CLR 04/M01 A3005 RMK AO2 SLP160 T00441006", "KCAR 311354Z AUTO 22004KT 10SM CLR 07/00 A2999 RMK AO2 SLP164 T00720000", "KCAV 311355Z AUTO 00000KT 8SM CLR 00/00 A2991 RMK A01", "KCBE 311335Z AUTO 33003KT 10SM -DZ BKN045 OVC060 07/06 A3011 RMK AO2 T00710060", "KCBG 311355Z AUTO 00000KT 10SM CLR 00/M06 A2987 RMK AO2", "KCBK 311355Z AUTO 26006KT 10SM CLR 01/M06 A3000 RMK AO2 T00141062", "KCBM 311355Z 19004KT 10SM OVC060 17/15 A3003 RMK AO2A SLP252 ALSTG/SLP ESTMD T01650148 TSNO $", "KCCA 311355Z AUTO 00000KT 1/4SM FG OVC003 11/11 A3000 RMK AO2", "KCCB 311310Z AUTO 04005KT 10SM CLR 17/M05 A2993 RMK AO2", "KCCO 311335Z AUTO 17003KT 7SM OVC003 18/18 A3002 RMK AO2 T01810176", "KCCR 311353Z 00000KT 10SM CLR 10/08 A2998 RMK AO2 SLP137 T01000078", "KCCU 311355Z AUTO 28003KT 10SM CLR M04/M08 A3026 RMK AO2", "KCCY 311355Z AUTO 32003KT 5SM BR CLR 04/03 A2989 RMK AO2", "KCDA 311355Z AUTO 00000KT 10SM 04/M01 A3005 RMK AO2 T00381011", "KCDC 311353Z AUTO 08003KT 10SM CLR M02/M04 A3016 RMK AO2 SLP207 T10171044", "KCDD 311353Z AUTO 18007KT 150V210 10SM CLR 03/M02 A2979 RMK AO2", "KCDH 311355Z AUTO 00000KT 5SM BR CLR 14/14 A3001 RMK AO2", "KCDI 311355Z AUTO 19003KT 10SM OVC007 15/14 A2996 RMK AO2 T01480142", "KCDJ 311351Z AUTO 00000KT 09/07 A2994 RMK AO1 SLP138 T00940072", "KCDN 311355Z AUTO 10006KT 9SM BKN007 OVC035 16/15 A3008 RMK AO2", "KCDR 311353Z AUTO 24004KT 10SM CLR 00/M07 A2993 RMK AO2 SLP161 T00001072", "KCDS 311353Z AUTO 33004KT 10SM CLR 09/06 A3006 RMK AO2 SLP171 T00890061", "KCDW 311353Z 31003KT 6SM HZ CLR 09/06 A3011 RMK AO2 SLP203 T00940061", "KCEC 311356Z AUTO 00000KT 7SM SCT026 07/06 A3005 RMK AO2 SLP178 T00670056", "KCEF 311355Z 28003KT 10SM FEW009 FEW150 BKN250 10/04 A3007 RMK AO2A SLPNO T00950041", "KCEU 311354Z AUTO 03004KT 6SM BR BKN004 OVC014 13/13 A3006 RMK AO2 RAE53 SLP174 P0019 T01330133", "KCEW 311353Z AUTO 00000KT 9SM CLR 17/16 A3006 RMK AO2 SLP176 T01720156", "KCEY 311355Z AUTO VRB04KT 2 1/2SM BR SCT008 BKN012 BKN018 15/15 A2993 RMK A01 P0001", "KCEZ 311353Z AUTO 00000KT 10SM CLR M05/M07 A3016 RMK AO2 SLP212 T10501072", "KCFD 311355Z AUTO 00000KT 10SM CLR 13/13 A3007 RMK AO2 T01310129", "KCFE 311355Z AUTO 00000KT 10SM CLR M01/M02 A2988 RMK AO2", "KCFJ 311355Z AUTO 19008KT 7SM BKN011 BKN020 OVC070 13/11 A2985 RMK AO2 T01310108", "KCFO 311347Z 28008KT 10SM SKC 06/M07 A3002", "KCFS 311355Z AUTO 00000KT 4SM BR OVC031 11/09 A2987 RMK AO2 T01060092", "KCFV 311352Z AUTO 00000KT 10SM CLR 12/08 A2998 RMK AO2 SLP151 T01170078", "KCGC 311355Z AUTO 10003KT 10SM CLR 24/21 A3003 RMK AO2", "KCGE 311335Z AUTO 13003KT 8SM OVC024 14/14 A3011 RMK A01", "KCGF 311345Z 18008KT 10SM SCT015 OVC060 15/13 A2990", "KCGI 311353Z 25008KT 10SM BKN009 BKN030 OVC036 16/14 A2990 RMK AO2 SLP125 T01560144", "KCGS 311335Z AUTO 00000KT 10SM BKN070 BKN085 OVC100 13/12 A3009 RMK AO2 T01340118", "KCGZ 311356Z AUTO 07004KT 10SM CLR 09/M01 A2996 RMK AO2 SLP144 T00891006 $", "KCHA 311353Z 19004KT 7SM OVC005 16/15 A3001 RMK AO2 DZE33 SLP159 P0000 T01610150 $", "KCHD 311347Z 00000KT 10SM CLR 10/04 A2995", "KCHK 311335Z AUTO 30003KT 10SM CLR 05/05 A3001 RMK AO2 T00550052", "KCHO 311253Z 23004KT 10SM SCT019 OVC034 12/08 A3008", "KCHS 311356Z 12006KT 10SM FEW007 SCT035 22/20 A3005 RMK AO2 SLP176 T02220200 $", "KCIC 311355Z AUTO 00000KT 10SM CLR 10/01 A3001 RMK AO1", "KCID 311352Z 33006KT 7SM CLR 06/04 A2988 RMK AO2 SLP119 T00610044", "KCII 311355Z AUTO VRB07G12KT 10SM 11/01 A2966 RMK A01 ", "KCIN 311355Z AUTO 00000KT 9SM CLR 02/02 A2991 RMK AO2", "KCIR 311355Z AUTO 24006KT 10SM OVC008 16/15 A2991 RMK AO2 T01580150", "KCIU 311356Z AUTO 08004KT 3/4SM BR OVC002 08/08 A2986 RMK AO2 VIS 1/2V1 1/2 SLP116 T00780078", "KCJR 311355Z AUTO 00000KT 10SM RA BKN021 BKN026 OVC080 13/09 A3010 RMK AO2 T01250094", "KCKB 311353Z 00000KT 2SM RA BR BKN019 OVC029 14/13 A3000 RMK AO2 SLP152 P0017 T01440128", "KCKC 311355Z AUTO 00000KT 10SM CLR M01/M02 A2979 RMK AO2", "KCKF 311355Z AUTO 20005KT 5SM BR OVC008 21/19 A3004 RMK AO2 T02080187", "KCKI 311355Z AUTO 14004KT 5SM HZ OVC002 A3007 RMK AO2", "KCKM 311355Z AUTO 23005KT 9SM SCT007 OVC031 16/16 A3000 RMK A01", "KCKN 311355Z 17010KT 10SM 02/M03 A2973 RMK AO2", "KCKP 311355Z AUTO 00000KT 10SM CLR M02/M03 A2993 RMK AO2 T10211030", "KCKV 311301Z AUTO 20005KT 7SM FEW009 BKN050 OVC070 16/13 A2993 RMK AO2 T01560133", "KCKZ 311355Z AUTO 00000KT 7SM OVC026 10/10 A3010 RMK AO2", "KCLE 311351Z 20012KT 10SM BKN010 OVC070 16/13 A2988 RMK AO2 SLP133 T01560128", "KCLI 311355Z AUTO 00000KT 3SM BR CLR 04/04 A2987 RMK AO2 T00440041", "KCLK 311355Z AUTO 00000KT 10SM CLR 03/02 A3005 RMK AO2", "KCLL 311353Z 00000KT 10SM CLR 14/13 A3004 RMK AO2 SLP171 T01440128", "KCLM 311353Z AUTO 17005KT 10SM SCT050 OVC070 11/09 A2973 RMK AO2 RAE48 SLP068 P0008 T01060089", "KCLS 311355Z AUTO 19011KT 9SM -RA FEW060 OVC075 12/11 A2985 RMK AO2", "KCLT 311352Z 11004KT 9SM FEW009 BKN013 OVC025 16/13 A3006 RMK RAB06E19 SLP177 P0001 T01560133 $", "KCLW 311355Z AUTO 12004KT 10SM CLR 24/21 A3001 RMK AO2", "KCMA 311355Z AUTO 14003KT 10SM CLR 09/06 A2991 RMK AO2 SLP137 T00890061", "KCMD 311335Z AUTO 20005KT 3SM BR BKN003 OVC048 15/15 A3002 RMK AO2", "KCMH 311351Z 18007KT 4SM -DZ BR BKN009 OVC011 16/16 A2992 RMK AO2 RAB03E12DZB36 SLP130 P0001 T01610156", "KCMI 311353Z 23013KT 1SM R32R/5500VP6000FT -RA BR OVC002 13/13 A2983 RMK AO2 SLP100 P0001 T01330128", "KCMR 311355Z AUTO 17007KT 10SM -UP CLR M03/M08 A3014 RMK AO2", "KCMX 311353Z AUTO 00000KT 10SM CLR 07/04 A2981 RMK AO2 SLP103 T00670044", "KCMY 311258Z AUTO 00000KT 7SM CLR M01/M01 A2988 RMK AO2 SLP129 T10101012 FZRANO $", "KCNB 311355Z AUTO 00000KT 10SM CLR 05/00 A2987 RMK AO2 T00521005", "KCNC 311355Z AUTO 29006KT 9SM CLR 06/06 A2991 RMK AO2", "KCNI 311335Z AUTO 10004KT 10SM OVC003 13/13 A3004 RMK AO2 T01330132", "KCNK 311355Z AUTO 28006KT 10SM CLR 06/01 A2999 RMK AO2 SLP158 T00610006", "KCNM 311353Z AUTO 36007KT 10SM CLR 09/03 A3005 RMK AO2 SLP152 T00890033", "KCNO 311353Z 35004KT 10SM CLR 08/04 A2994 RMK AO2 SLP138 T00780044", "KCNU 311352Z AUTO 25003KT 10SM CLR 12/07 A2998 RMK AO2 SLP147 T01220072", "KCNW 311355Z 00000KT 10SM SKC 12/12 A3005", "KCNY 311353Z AUTO 00000KT 10SM CLR 02/M01 A3012 RMK AO2 SLP206 T00171011", "KCOD 311356Z AUTO VRB04KT 9SM CLR 09/M04 A2993 RMK AO2 SLP119 T00941039", "KCOE 311356Z AUTO 21006KT 10SM -RA OVC024 09/07 A2980 RMK AO2 RAE05B34 SLP110 T00940072 PNO $", "KCOF 311355Z AUTO 07004KT 10SM CLR 27/27 A3000 RMK AO2 SLP163 T02680266", "KCOM 311355Z AUTO 29003KT 10SM CLR 11/09 A3006 RMK AO2 T01050085", "KCON 311351Z AUTO 00000KT 10SM CLR 07/01 A3007 RMK AO2 SLP186 T00670011", "KCOQ 311355Z AUTO 26003KT 10SM CLR M01/M03 A2982 RMK AO2 TSNO", "KCOS 311354Z 01007KT 10SM FEW250 02/M08 A3006 RMK AO2 SLP176 T00171078", "KCOT 311353Z AUTO 09004KT 10SM CLR 18/14 A3002 RMK AO2 SLP159 T01830139", "KCOU 311354Z 30004KT 7SM SCT100 12/11 A2991 RMK AO2 RAB1257E13 SLP125 P0000 T01220111", "KCPC 311335Z AUTO 09004KT 10SM CLR 17/17 A3010 RMK AO2 T01720166", "KCPF 311355Z AUTO 00000KT 10SM BKN019 OVC024 16/15 A3000 RMK AO2", "KCPK 311355Z AUTO 00000KT 16/13 A3011 RMK AO2 T01600126", "KCPR 311353Z 23014KT 10SM CLR 03/M06 A3000 RMK AO2 SLP162 T00331061", "KCPT 311355Z AUTO 00000KT 10SM CLR 13/11 A3005 RMK A01", "KCPU 311355Z AUTO 00000KT 10SM CLR 09/00 A3000 RMK AO2 T00910001", "KCPW 311335Z AUTO 29007KT 10SM CLR M03/M11 A3032 RMK AO2", "KCQB 311355Z AUTO 00000KT 10SM CLR 09/05 A3003 RMK AO2 T00870052", "KCQC 311353Z AUTO 26006KT 10SM CLR 02/M03 A3015 RMK AO2 SLP188 T00171028", "KCQF 311355Z AUTO 00000KT 10SM CLR 16/15 A3005 RMK AO2", "KCQM 311357Z AUTO 17003KT 10SM CLR 02/M03 A2978 RMK AO2", "KCQT 311347Z AUTO 00000KT 10SM CLR 12/08 A2992 RMK AO2 SLP132 T01170083", "KCQW 311355Z AUTO 00000KT 10SM BKN042 OVC049 17/15 A3007 RMK AO2 PWINO", "KCQX 311352Z AUTO 00000KT 10SM OVC023 15/13 A3011 RMK AO2 SLP198 T01500133", "KCRE 311353Z 11008KT 10SM CLR 19/18 A3007 RMK AO1 SLP184 T01940178", "KCRG 311353Z 16004KT 10SM CLR 26/22 A3004 RMK AO2 SLP171 T02560222", "KCRP 311351Z 05005KT 10SM FEW065 SCT250 21/18 A3001 RMK AO2 SLP161 T02060183", "KCRQ 311353Z AUTO 07006KT 10SM CLR 14/05 A2989 RMK AO2 SLP121 T01440050", "KCRS 311353Z AUTO 00000KT 9SM CLR 14/11 A3005 RMK AO2 SLP174 T01390111", "KCRW 311354Z 14004KT 4SM -RA BR FEW010 BKN022 OVC038 16/15 A2999 RMK AO2 SLP152 P0004 T01560150 $", "KCRX 311355Z AUTO 19003KT 10SM OVC007 16/14 A2998 RMK AO2", "KCSG 311351Z 24005KT 10SM SCT006 BKN042 OVC049 19/19 A3001 RMK AO2 SLP160 T01940189", "KCSM 311353Z 33004KT 10SM CLR 07/04 A3004 RMK AO2 SLP170 T00720039", "KCSQ 311355Z AUTO 32005KT 8SM CLR 05/05 A2992 RMK AO2", "KCSV 311343Z AUTO 00000KT 10SM OVC032 14/13 A3001 RMK AO2 T01390133", "KCTB 311356Z AUTO 26011G20KT 10SM CLR 09/02 A2966 RMK AO2 PK WND 25027/1325 SLP041 T00940017", "KCTJ 311335Z AUTO 00000KT 1 1/2SM BR OVC002 16/16 A3005 RMK AO2 T01600160", "KCTY 311355Z AUTO 11003KT 1 1/2SM BR OVC003 20/20 A3003 RMK AO2 T02050204", "KCTZ 311355Z AUTO 11004KT 10SM OVC060 18/17 A3011 RMK AO2 T01760170", "KCUB 311353Z AUTO VRB04KT 10SM OVC007 17/16 A3007 RMK AO2 SLP181 T01670156", "KCUH 311355Z AUTO 28003KT 10SM CLR 09/09 A3002 RMK AO2 T00860086", "KCUL 311335Z AUTO 27006KT OVC003 16/14 A2988 RMK AO2 PWINO", "KCUT 311353Z AUTO 30004KT 10SM CLR 03/M11 A2992 RMK AO2 SLP131 T00281111", "KCVC 311355Z AUTO 00000KT 10SM OVC003 16/16 A3003 RMK AO2", "KCVG 311352Z 19007KT 7SM BKN009 OVC060 16/15 A2991 RMK AO2 SLP125 T01560150", "KCVH 311355Z AUTO 00000KT M1/4SM FG OVC001 07/06 A3000 RMK A01 VIS M1/4V5", "KCVN 311356Z AUTO 27006KT 9SM CLR 05/04 A3008 RMK AO2 SLP185 T00500039", "KCVO 311356Z AUTO 17011KT 10SM OVC020 12/09 A2998 RMK AO2 SLP154 T01170089", "KCVS 311355Z AUTO 00000KT 10SM CLR 05/05 A3007 RMK AO2 SLP171 T00500049 $", "KCVX 311355Z AUTO 00000KT 10SM CLR 08/06 A2985 RMK AO2 T00750058", "KCWA 311347Z 00000KT 10SM CLR 06/04 A2986", "KCWC 311355Z AUTO 00000KT 10SM CLR 11/08 A3006 RMK AO2 T01060082", "KCWF 311355Z 00000KT 10SM CLR 16/14 A3005", "KCWI 311356Z AUTO 00000KT 5SM BR CLR 07/07 A2988 RMK AO2 SLP123 T00670067", "KCWN 311355Z AUTO 31004KT 10SM CLR 08/M08 A2978 RMK AO2 PRESRR SLP961 T00771084 $", "KCWV 311355Z AUTO 17003KT 1/2SM -RA OVC002 20/20 A3005 RMK AO2 T02030197", "KCXE 311355Z AUTO 15003KT 10SM SCT037 15/12 A3011 RMK AO1 T01530124", "KCXO 311353Z 00000KT 8SM CLR 12/12 A3005 RMK AO2 SLP174 T01170117", "KCXP 311355Z AUTO 00000KT 10SM CLR M02/M09 A3013 RMK AO2", "KCXU 311355Z AUTO 20003KT 1 1/4SM OVC004 21/19 A3003 RMK AO1 T02080186", "KCXW 311355Z AUTO 28007KT 9SM CLR 15/14 A2999 RMK A01", "KCXY 311356Z 08005KT 7SM BKN008 BKN120 11/08 A3008 RMK AO2 RAB11E25 SLP189 P0000 T01110078", "KCYD 311333Z AUTO 36007KT 4SM HZ SCT026 OVC033 25/16 A3005 RMK A02 T02470159", "KCYS 311353Z 25012KT 10SM CLR 07/M08 A3001 RMK AO2 SLP130 T00671083", "KCZL 311355Z AUTO 00000KT 10SM OVC011 16/15 A3004 RMK AO2", "KCZT 311335Z AUTO 00000KT 10SM CLR 12/12 A3000 RMK AO2", "KD07 311356Z AUTO 27005KT 06/M04 A2982 RMK AO1 SLP114 T00561044 $", "KD25 311355Z AUTO 00000KT 5SM BR OVC001 M01/M01 A2984 RMK AO2 T10061006", "KD39 311355Z AUTO 00000KT 10SM OVC002 M01/M03 A2985 RMK AO2 T10081026", "KD50 311355Z AUTO 24011KT 10SM CLR 06/00 A2970 RMK AO2", "KD55 311355Z AUTO 22011KT 10SM CLR 02/02 A2967 RMK AO2", "KD57 311355Z AUTO 00000KT 10SM CLR 00/M04 A2978 RMK AO2", "KD60 311355Z AUTO 24005KT 10SM CLR 05/00 A2974 RMK AO2", "KD73 311355Z AUTO 00000KT 7SM OVC004 15/ A3005 RMK AO2 P0002 T0153////", "KD95 311355Z AUTO 00000KT 7SM OVC003 12/10 A2986 RMK AO2 T01150101", "KDAA 311355Z AUTO 19005KT 9SM -RA SCT028 BKN035 14/13 A3009 RMK AO2 RAB34 SLP192 P0007 T01410125 $", "KDAB 311353Z VRB03KT 10SM FEW022 FEW060 FEW250 26/22 A3003 RMK AO2 SLP169 T02610222", "KDAG 311350Z AUTO 29010KT 10SM CLR 10/M09 A3001 RMK AO2 SLP150 T01001089", "KDAL 311353Z 00000KT 10SM SCT170 BKN250 14/11 A3004 RMK AO2 SLP168 T01390111 $", "KDAN 311353Z AUTO 00000KT 10SM BKN021 BKN031 OVC041 14/12 A3011 RMK AO2 SLP192 T01390117", "KDAW 311351Z AUTO 00000KT 10SM CLR 11/05 A3006 RMK AO2 SLP176 T01110050", "KDAY 311356Z 19012KT 9SM OVC009 16/14 A2991 RMK AO2 SLP124 T01610144", "KDBN 311355Z AUTO 00000KT 1/2SM FG OVC003 21/19 A3005 RMK AO2", "KDBQ 311353Z 01006KT 8SM CLR 09/06 A2986 RMK AO2 SLP116 T00890061", "KDCA 311352Z 17006KT 7SM FEW008 SCT055 BKN070 OVC150 15/13 A3009 RMK AO2 DZE00RAB44E49 SLP188 VCSH ALQDS P0000 T01500128", "KDCM 311355Z AUTO 13005KT 10SM OVC007 15/15 A3007 RMK AO2", "KDCU 311353Z AUTO 14003KT 7SM OVC048 16/14 A3000 RMK AO2 SLP156 T01560144", "KDCY 311335Z AUTO 20008KT 10SM OVC009 15/15 A2988 RMK AO2 T01490148", "KDDC 311352Z AUTO 00000KT 7SM CLR 04/M03 A3001 RMK AO2 SLP167 T00441033", "KDDH 311354Z AUTO 00000KT 10SM CLR 12/02 A3006 RMK AO2 SLP182 T01170017", "KDEC 311354Z 23009KT 1/2SM FG VV002 13/13 A2984 RMK AO2 SLP104 T01280128", "KDED 311335Z AUTO 10004KT 10SM CLR 25/22 A3004 RMK AO2 T02500220", "KDEH 311355Z AUTO 00000KT 5SM BR CLR 04/04 A2987 RMK AO2", "KDEN 311353Z 22009KT 10SM FEW150 FEW220 04/M06 A3002 RMK AO2 SLP151 T00391056", "KDEQ 311353Z AUTO 00000KT 1/4SM FG 10/09 A3001 RMK AO2 SLP159 T01000089 $", "KDET 311353Z 11003KT 1SM -RA BR BKN006 OVC011 14/13 A2986 RMK AO2 TWR VIS 1 1/2 SLP111 P0014 T01390128", "KDEW 311353Z AUTO 10SM OVC021 09/06 A2979 RMK AO2 SLP087 T00940061", "KDFI 311353Z AUTO 21006KT 4SM BR OVC003 16/15 A2985 RMK AO2 RAB1258E49 SLP108 P0002 T01560150", "KDFW 311353Z 00000KT 10SM BKN250 12/10 A3002 RMK AO2 SLP163 T01220100", "KDHN 311353Z 32003KT 6SM BR OVC037 18/17 A3007 RMK AO2 SLP177 T01780172", "KDHT 311353Z AUTO 28003KT 6SM HZ CLR 04/M01 A3006 RMK AO2 SLP172 T00441006 PWINO $", "KDIJ 311356Z AUTO 17006KT 10SM FEW070 01/M03 A3013 RMK AO2 SLP230 T00111033", "KDIK 311356Z AUTO 25010KT 10SM CLR 04/M03 A2977 RMK AO2 SLP096 T00391028", "KDKB 311355Z AUTO 36005KT 1 3/4SM BR OVC003 11/11 A2984 RMK AO2 T01050105", "KDKK 311353Z AUTO 18007KT 10SM -RA BKN027 OVC033 14/11 A2993 RMK AO2 SLP137 P0001 T01440111", "KDKR 311335Z AUTO VRB03KT 6SM BR CLR 11/11 A3004 RMK AO2", "KDKX 311355Z AUTO 00000KT 9SM 16/16 A3001 RMK A01", "KDLF 311355Z 08005KT 10SM FEW150 SCT250 14/11 A3000 RMK AO2A SLP154 T01370107 $", "KDLH 311355Z 27005KT 10SM CLR 05/M01 A2982 RMK AO2 SLP113 T00501011", "KDLL 311355Z AUTO 00000KT 7SM CLR 01/01 A2986 RMK AO2 T00130013", "KDLN 311253Z AUTO 21009KT 10SM FEW060 02/M02 A2996 RMK AO2 SLP140 T00221017", "KDLO 311355Z AUTO 00000KT 10SM CLR 06/01 A2997 RMK AO2 T00560009", "KDLS 311353Z AUTO 20006KT 10SM FEW045 OVC055 13/08 A2986 RMK AO2 SLP112 T01330083", "KDLZ 311355Z AUTO 19009KT 10SM BKN006 BKN031 OVC065 15/13 A2991 RMK AO2 P0007", "KDMA 311355Z AUTO 14009KT 10SM CLR 08/M02 A2998 RMK AO2 SLP176 T00811025 $", "KDMN 311353Z AUTO 00000KT 10SM CLR 04/00 A3006 RMK AO2 SLP151 T00440000", "KDMO 311353Z AUTO 27005KT 10SM CLR 12/09 A2993 RMK AO2 SLP134 T01220089", "KDMW 311335Z AUTO 18005KT 7SM BKN003 OVC100 13/12 A3007 RMK AO2", "KDNA 311355Z AUTO 00000KT 10SM CLR 07/00 A3005 RMK AO2", "KDNL 311353Z AUTO 14005KT M1/4SM FG VV002 17/16 A3005 RMK AO2 SLP173 T01670161", "KDNN 311355Z AUTO 16003KT 10SM OVC014 15/15 A3002 RMK AO2 T01540147", "KDNS 311355Z AUTO 00000KT 7SM CLR M01/M01 A2995 RMK AO2", "KDNV 311355Z AUTO 20006KT 4SM BR OVC005 15/14 A2982 RMK AO2 P0001 T01450140", "KDOV 311355Z 16004KT 10SM OVC027 13/13 A3009 RMK AO2A SLP193 T01310131", "KDPA 311352Z 04004KT 1SM R02L/P6000FT BR OVC002 12/11 A2983 RMK AO2 SLP102 T01220111", "KDPG 311255Z 16004KT 20SM SKC M04/M08 A3019 RMK SLP221 T10391079 FIRST", "KDPL 311335Z AUTO 11004KT 7SM BR CLR 17/15 A3011 RMK AO2", "KDQH 311335Z AUTO 15004KT 3SM BR OVC002 20/20 A3005 RMK AO2 T02020199", "KDRA 311353Z AUTO 00000KT 10SM CLR 09/M10 A3006 RMK AO2 SLP157 T00891100", "KDRI 311355Z AUTO 00000KT 9SM CLR 14/14 A3006 RMK AO2 T01440141 $", "KDRM 311355Z AUTO 00000KT 5SM BR CLR 09/09 A2986 RMK AO2 T00860086", "KDRO 311353Z AUTO 00000KT 10SM CLR M04/M07 A3016 RMK AO2 SLP223 T10391072", "KDRT 311353Z AUTO 10004KT 10SM CLR 14/10 A3002 RMK AO2 SLP162 T01390100", "KDSF 311355Z AUTO VRB04KT 10SM SCT032 23/16 A3003 RMK A01", "KDSM 311354Z 31005KT 10SM CLR 06/04 A2993 RMK AO2 SLP138 T00560039", "KDSV 311354Z AUTO 13007KT 10SM BKN090 OVC110 10/04 A2998 RMK AO2 SLP163 T01000044", "KDTA 311355Z AUTO 00000KT 10SM CLR 00/M04 A3016 RMK AO1", "KDTL 311355Z AUTO 21005KT 10SM CLR 07/00 A2979 RMK AO2", "KDTN 311353Z AUTO 00000KT 6SM BR CLR 13/12 A3004 RMK AO2 SLP171 T01330122", "KDTO 311353Z 00000KT 10SM CLR 09/08 A3005 RMK AO2 SLP172 T00940083", "KDTS 311353Z 35004KT 10SM BKN049 21/14 A3004 RMK AO2 SLP170 T02060144", "KDTW 311353Z 00000KT 3/4SM R03R/P6000FT -RA BR OVC003 13/13 A2986 RMK AO2 SFC VIS 1 1/2 SLP110 P0009 T01330128 $", "KDUA 311355Z AUTO 00000KT 10SM CLR 09/07 A3004 RMK AO2", "KDUB 311334Z AUTO 33010KT 10SM OVC050 02/M06 A3004 RMK AO2", "KDUC 311355Z AUTO 00000KT 10SM CLR 08/06 A3005 RMK AO2 T00820063", "KDUH 311355Z AUTO 00000KT 2SM BR OVC007 15/14 A2985 RMK AO2 T01500141", "KDUJ 311353Z AUTO 11006KT 10SM BKN060 OVC080 09/06 A2998 RMK AO2 RAE00 SLP156 P0000 T00890061", "KDUX 311335Z AUTO 26005KT 10SM CLR 04/00 A3006 RMK AO2 T00350000", "KDVK 311330Z AUTO 21005KT 10SM BKN018 BKN024 OVC060 15/14 A2998 RMK AO2", "KDVL 311356Z AUTO 23008KT 10SM CLR 06/00 A2970 RMK AO2 SLP079 T00610000", "KDVN 311352Z AUTO 00000KT 6SM HZ CLR 08/06 A2988 RMK AO2 SLP118 T00830056", "KDVO 311355Z AUTO 00000KT 10SM OVC008 08/08 A2998 RMK AO2", "KDVP 311353Z AUTO 00000KT 10SM CLR 01/M02 A2990 RMK AO2 T00141025", "KDVT 311353Z 00000KT 9SM CLR 11/M02 A2995 RMK AO2 SLP131 T01111022", "KDWA 311355Z AUTO 00000KT 10SM CLR 08/06 A2999 RMK AO2", "KDWH 311353Z 00000KT 8SM CLR 14/13 A3004 RMK AO2 SLP171 T01440133", "KDWU 311356Z AUTO 10004KT 10SM OVC009 16/ A2997 RMK AO2 CIG 007V013 SLP148 T0161", "KDWX 311330Z AUTO 10SM CLR A3020 RMK AO2", "KDXR 311353Z 00000KT 10SM SCT031 11/07 A3010 RMK AO2 SLP195 T01110072", "KDXX 311355Z AUTO 18004KT 10SM CLR 02/M02 A2987 RMK AO2", "KDYA 311355Z AUTO 00000KT 5SM HZ OVC050 A3003 RMK AO2", "KDYB 311355Z AUTO VRB04G12KT 9SM OVC006 21/21 A3005 RMK AO2", "KDYL 311354Z AUTO 00000KT 4SM BR BKN001 BKN007 OVC028 09/08 A3009 RMK AO2 SLP193 T00890078", "KDYR 311356Z AUTO 23008KT 10SM BKN009 BKN021 OVC027 16/16 A2995 RMK AO2 SLP149 T01610161", "KDYS 311355Z 00000KT 10SM CLR 11/08 A3003 RMK AO2A SLP154 T01100079", "KDYT 311355Z AUTO 24003KT 10SM CLR 02/M01 A2983 RMK AO2", "KDZB 311355Z AUTO 00000KT 10SM CLR 12/11 A3006 RMK AO2 T01180112", "KDZJ 311355Z AUTO 10004KT 10SM OVC018 15/14 A3006 RMK AO2 T01470138", "KE11 311355Z AUTO 00000KT 10SM CLR 07/05 A3007 RMK AO2 T00700048", "KE16 311355Z AUTO 01004KT 7SM CLR 07/06 A3000 RMK AO2", "KE38 311335Z AUTO 23004KT 10SM CLR 08/05 A3010 RMK AO2 T00790048", "KE41 311355Z AUTO 17005KT 10SM CLR 10/06 A3007 RMK AO2 T01020061", "KE42 311355Z AUTO 22006KT 10SM SCT100 BKN120 04/02 A3006 RMK AO2 T00440021", "KEAN 311330Z AUTO 27013G18KT 10SM CLR 09/M07 A2997 RMK AO2 T00861075", "KEAR 311356Z AUTO 23005KT 10SM CLR 02/M01 A2996 RMK AO2 SLP153 T00221011 FZRANO", "KEAT 311355Z AUTO 07006KT 10SM OVC047 09/08 A2977 RMK AO2 RAB27E40 SLP081 P0000 T00940078", "KEAU 311356Z 00000KT 2 1/2SM BR BKN002 02/01 A2986 RMK AO2 SLP120 I1000 T00170006", "KEBA 311355Z AUTO 00000KT 2SM RA BR OVC004 15/15 A3004 RMK AO2 VIS 1 1/4V4 P0031 T01530152", "KEBG 311355Z AUTO 06006KT 10SM BKN065 OVC075 21/17 A2998 RMK AO2 T02100166 PWINO", "KEBS 311335Z AUTO 31005KT 9SM CLR 01/00 A2990 RMK AO2", "KECG 311354Z 07006KT 10SM CLR 17/14 A3011 RMK AO2 SLP196 T01720144", "KECP 311353Z 32006KT 10SM FEW034 20/16 A3002 RMK AO1 SLP178 T02000156", "KECS 311355Z AUTO 02003KT 5SM HZ CLR M01/M08 A2993 RMK AO2", "KECU 311355Z AUTO 11004KT 10SM CLR 13/08 A3010 RMK AO2", "KEDC 311335Z AUTO 00000KT 10SM CLR 14/12 A3003 RMK AO2", "KEDE 311355Z AUTO 07003KT 10SM SCT055 18/16 A3013 RMK AO2 T01830162", "KEDN 311355Z AUTO 00000KT 7SM CLR 15/15 A3003 RMK AO2 T01540154", "KEDU 311355Z AUTO 02003KT 10SM CLR 09/08 A2998 RMK AO1", "KEDW 311355Z 36003KT 90SM SCT250 04/M13 A3001 RMK AO2A SLP157 T00351129", "KEED 311356Z AUTO 27008KT 10SM CLR 16/M04 A2997 RMK AO2 SLP128 T01561044", "KEEN 311356Z AUTO 00000KT 10SM CLR 04/01 A3009 RMK AO2 SLP198 T00440006 $", "KEEO 311353Z AUTO 06003KT 10SM CLR M06/M08 A3018 RMK AO2 SLP239 T10611078", "KEET 311353Z AUTO 00000KT 7SM OVC050 15/14 A3003 RMK AO2 SLP164 T01500144", "KEFD 311354Z 00000KT 10SM FEW080 18/14 A3004", "KEFK 311355Z AUTO 23003KT 10SM CLR 07/M02 A3002 RMK AO2 T00681019", "KEFT 311355Z AUTO 33008KT 10SM CLR 08/05 A2985 RMK AO2 T00800050", "KEGE 311356Z 00000KT 10SM CLR M06/M07 A3026 RMK AO2 SLP150 T10611072", "KEGI 311355Z AUTO 33005KT 10SM CLR 17/15 A3004 RMK AO2 SLP172 T01660146 $", "KEGT 311335Z AUTO 31006KT 10SM CLR 06/03 A3001 RMK AO2 T00580026", "KEHA 311355Z AUTO 24009KT 10SM CLR 10/00 A3005 RMK AO2 T01011002", "KEHO 311355Z AUTO 07003KT 4SM BR OVC005 13/13 A3007 RMK AO2 P0001 T01320132", "KEHR 311356Z AUTO 21009KT 9SM OVC007 15/14 A2990 RMK AO2 RAB26E42 CIG 005V010 SLP125 P0000 T01500144", "KEIK 311355Z AUTO 20004KT 10SM CLR M02/M05 A3002 RMK AO2 T10191055", "KEKM 311355Z 12003KT 1 1/2SM BR OVC002 13/13 A2985 RMK AO2 T01300130", "KEKN 311351Z AUTO 00000KT 2SM RA BR FEW026 BKN036 OVC090 11/10 A3004 RMK AO2 SLP178 P0010 T01060100", "KEKQ 311356Z AUTO 16006KT 10SM FEW044 OVC055 16/16 A3000 RMK AO2 SLP153 T01560156", "KEKS 311355Z AUTO 17018G25KT 10SM BKN060 OVC070 07/M02 A3001 RMK AO2", "KEKX 311355Z AUTO 20006KT 10SM OVC008 15/15 A2994 RMK AO2 T01480145", "KEKY 311356Z AUTO 19004KT 7SM SCT020 OVC050 15/15 A3004 RMK AO2 SLP019 T01500150", "KELA 311355Z AUTO 00000KT 10SM CLR 16/14 A3004 RMK AO2 T01580140", "KELD 311353Z AUTO 21005KT 8SM CLR 14/13 A3001 RMK AO2 SLP162 T01390133", "KELK 311355Z AUTO 32006KT 10SM CLR 07/03 A3004 RMK AO2 SLP457 T00690029 $", "KELM 311353Z 06005KT 10SM BKN080 06/04 A3000 RMK AO2 SLP163 T00610044", "KELN 311353Z AUTO 31018G25KT 10SM OVC070 12/05 A2979 RMK AO2 PK WND 31026/1321 RAB1256E40 SLP087 P0000 T01170050", "KELO 311355Z AUTO 00000KT 10SM CLR M03/M03 A2981 RMK AO2", "KELP 311351Z 36008KT 10SM FEW120 FEW180 BKN220 BKN250 11/00 A3003 RMK AO2 SLP126 T01110000", "KELY 311353Z AUTO 17008KT 10SM CLR M05/M08 A3018 RMK AO2 SLP232 T10501083", "KELZ 311356Z AUTO 19003KT 10SM OVC022 11/06 A3000 RMK AO2 SLP163 T01110056", "KEMM 311355Z AUTO 34004KT 10SM CLR M01/M06 A3016 RMK AO2", "KEMP 311353Z AUTO 27006KT 10SM CLR 09/04 A2998 RMK AO2 SLP153 T00940044", "KEMV 311355Z AUTO 00000KT 10SM BKN041 OVC050 13/13 A3014 RMK AO2 T01300130", "KEND 311255Z AUTO 27004KT 10SM CLR 03/01 A2999 RMK AO2 SLP160 T00340008 $", "KENV 311356Z AUTO 04005KT 10SM CLR 00/M06 A3015 RMK AO2 SLP226 T00001061 FZRANO", "KENW 311353Z 33004KT 1SM BR SCT004 OVC010 12/11 A2985 RMK AO2 SLP110 T01170106", "KEOE 311355Z AUTO 15003KT 4SM BR OVC003 15/14 A3008 RMK AO2", "KEOK 311355Z AUTO 30006KT 8SM CLR 11/11 A2989 RMK A01", "KEPH 311353Z AUTO 29009KT 10SM BKN043 BKN070 OVC090 11/08 A2978 RMK AO2 WSHFT 1305 RAB32E52 SLP083 P0000 T01110078 $", "KEQA 311355Z AUTO 26003KT 10SM CLR 08/05 A3000 RMK AO2", "KEQY 311353Z AUTO VRB03KT 10SM OVC010 15/13 A3007 RMK AO2 SLP190 T01500133", "KERI 311351Z 16014G19KT 10SM BKN060 OVC075 13/11 A2990 RMK AO2 RAE49 SLP127 P0000 T01280106", "KERV 311355Z AUTO 00000KT 10SM CLR 09/08 A3007 RMK AO2 T00900081", "KERY 311355Z AUTO 15003KT 10SM SCT120 08/06 A2984 RMK AO2 T00760061", "KESC 311356Z AUTO 00000KT 7SM SCT120 08/08 A2984 RMK AO2 SLP110 T00830078 PNO $", "KESF 311353Z AUTO 25003KT 7SM CLR 16/14 A3004 RMK AO2 SLP171 T01560144", "KESN 311345Z 14003KT 10SM BKN023 15/15 A3014", "KEST 311352Z AUTO 26003KT 9SM CLR 03/M01 A2990 RMK AO2 SLP135 T00281006", "KETB 311355Z AUTO 00000KT 7SM CLR 07/06 A2986 RMK AO2", "KETC 311355Z AUTO 13003KT 7SM 16/14 A3012 RMK AO2 T01560139", "KETH 311353Z AUTO 17008KT 10SM 04/M02 A2983 RMK AO2", "KETN 311335Z AUTO 00000KT 10SM CLR 07/07 A3005 RMK AO2 T00720071", "KEUF 311313Z AUTO 00000KT 8SM BKN006 BKN040 OVC050 19/18 A3002 RMK AO2 T01940183", "KEUG 311354Z 17008KT 10SM OVC035 12/09 A3001 RMK AO2 SLP164 T01220089 $", "KEVB 311347Z 14008KT 10SM FEW007 25/24 A3003", "KEVM 311355Z AUTO 00000KT 10SM CLR M04/M04 A2983 RMK AO2 T10371045", "KEVU 311355Z AUTO 32005KT 10SM CLR 08/05 A2993 RMK AO2 T00810056", "KEVV 311354Z 21010KT 4SM BR OVC007 16/14 A2990 RMK AO2 SLP121 T01560139 $", "KEVW 311353Z AUTO 20006KT 10SM CLR M01/M07 A3018 RMK AO2 SLP213 T10111072", "KEWB 311353Z 27003KT 10SM OVC022 13/13 A3010 RMK AO2 SLP191 T01280128 $", "KEWK 311356Z AUTO 29005KT 10SM CLR 06/02 A3001 RMK AO2 SLP163 T00560022", "KEWN 311354Z 10005KT 10SM CLR 18/14 A3012 RMK AO2 SLP199 T01830139", "KEWR 311351Z 24003KT 9SM FEW150 BKN250 14/09 A3010 RMK AO2 SLP191 T01390094", "KEXX 311355Z AUTO 00000KT 10SM BKN016 BKN031 OVC039 14/14 A3009 RMK AO2 T01410141", "KEYE 311353Z AUTO 16006KT 1 1/2SM -RA BR BKN006 BKN010 OVC016 15/14 A2985 RMK AO2 RAB14 SLP105 P0005 T01500139", "KEYF 311355Z AUTO 09004KT 10SM BKN065 17/16 A3010 RMK AO2 T01740156", "KEYW 311353Z 06006KT 10SM FEW014 28/25 A2997 RMK AO2 SLP150 T02780250", "KEZF 311355Z AUTO 18006KT 10SM OVC028 16/12 A3009 RMK AO2 T01600117", "KEZM 311355Z AUTO 17005KT 10SM OVC004 20/20 A3004 RMK AO2", "KEZP 311335Z AUTO 06006KT 10SM FEW036 22/14 A3004 RMK A01", "KEZS 311355Z AUTO 00000KT 7SM CLR 07/07 A2985 RMK AO2 T00650065", "KEZZ 311355Z AUTO 32004KT 5SM HZ CLR 08/04 A2995 RMK AO2 T00850041", "KF00 311355Z AUTO 4SM BR CLR 11/11 A3005 RMK AO2 T01070106", "KF05 311355Z AUTO 00000KT 10SM CLR 10/09 A3005 RMK AO2 T00980093", "KF17 311355Z AUTO 00000KT 10SM CLR 12/11 A3005 RMK AO2", "KF44 311355Z AUTO 00000KT 10SM CLR 12/11 A3003 RMK AO2", "KF46 311355Z AUTO 00000KT 10SM CLR 11/11 A3004 RMK AO2 T01140114", "KF70 311355Z AUTO 02004KT 10SM CLR 09/01 A2996 RMK AO2", "KFAF 311255Z 09003KT 10SM BKN055 14/13 A3008 RMK AO2A SLP190 T01360130 $", "KFAM 311356Z AUTO 25005KT 10SM BKN013 OVC026 12/11 A2992 RMK AO2 SLP140 T01220106", "KFAR 311353Z 17009KT 10SM CLR 02/M03 A2977 RMK AO2 SLP087 T00221028", "KFAT 311353Z 29003KT 10SM SCT180 OVC200 10/03 A2998 RMK AO2 SLP152 T01000033", "KFAY 311353Z VRB03KT 10SM OVC060 17/14 A3010 RMK AO2 SLP188 T01670144", "KFBG 311355Z AUTO 12005KT 10SM FEW037 OVC060 18/14 A3008 RMK AO2 SLP188 T01800137", "KFBL 311355Z AUTO 00000KT 7SM CLR 02/01 A2988 RMK AO2", "KFCI 311356Z AUTO 18003KT 10SM BKN060 14/13 A3012 RMK AO2 SLP210 T01440133", "KFCM 311353Z 28004KT 8SM CLR 03/01 A2988 RMK AO2 SLP122 T00330006", "KFCS 311355Z AUTO 34012KT 10SM CLR 03/M08 A3002 RMK AO2 SLP176 T00341080 $", "KFDK 311347Z 00000KT 7SM BR OVC004 09/09 A3009", "KFDR 311353Z AUTO 01003KT 10SM CLR 09/08 A3001 RMK AO2 SLP157 T00940078 $", "KFDW 311355Z AUTO 14005KT 7SM OVC005 15/14 A3006 RMK AO1", "KFDY 311353Z AUTO 19009KT 8SM OVC009 17/16 A2986 RMK AO2 RAB05E14B33E45 SLP106 P0000 T01670156", "KFEP 311355Z AUTO 00000KT 3SM BR CLR 07/07 A2988 RMK AO2 T00670066", "KFET 311355Z AUTO 00000KT 10SM CLR 01/00 A2995 RMK AO2 T00121003", "KFEW 311258Z 24006KT 10SM FEW100 02/M09 A3009 RMK SLPNO WND DATA ESTMD ALSTG ESTMD", "KFFA 311355Z AUTO 00000KT 10SM CLR 18/14 A3010 RMK AO2 T01770135", "KFFC 311353Z AUTO 13003KT 5SM BR OVC003 18/17 A3002 RMK AO2 SLP164 T01830172", "KFFL 311355Z AUTO 29003KT 7SM CLR 08/07 A2989 RMK A01", "KFFM 311355Z AUTO 16008KT 10SM CLR 03/M01 A2981 RMK AO2", "KFFO 311355Z 19008KT 10SM BKN011 BKN020 OVC050 16/15 A2987 RMK AO2A SLP116 T01600147", "KFFT 311353Z AUTO 19007KT 10SM SCT009 SCT039 OVC060 16/15 A2994 RMK AO2 SLP134 T01610150", "KFFX 311355Z AUTO 07003KT 10SM BKN047 12/08 A2983 RMK AO2 T01220083", "KFFZ 311254Z 08006KT 10SM CLR 13/01 A2993 RMK AO2 SLP118 T01330011", "KFGN 311355Z AUTO 22011KT 10SM CLR 06/00 A2964 RMK AO2", "KFGX 311355Z AUTO 21008KT 200V260 10SM OVC008 16/15 A2997 RMK AO2 T01580147", "KFHB 311355Z AUTO 16003KT 10SM SCT035 25/21 A3004 RMK AO2", "KFHR 311353Z AUTO 17009KT 10SM BKN006 OVC043 10/09 A2974 RMK AO2 RAE53 SLP071 P0004 T01000094 $", "KFHU 311355Z AUTO 00000KT 8SM CLR 08/M03 A3006 RMK AO2 SLP152 T00791030 $", "KFIG 311354Z AUTO 04004KT 10SM -RA BKN100 OVC110 07/05 A3002 RMK AO2 SLP173 P0003 T00670050", "KFIN 311350Z 00000KT 10SM SCT013 BKN044 24/22 A3004", "KFIT 311352Z AUTO 29006KT 10SM CLR 13/08 A3008 RMK AO2 SLP187 T01330078", "KFKA 311355Z AUTO 30003KT 10SM CLR 06/03 A2989 RMK AO2 T00630025", "KFKL 311356Z AUTO 13004KT 10SM BKN021 BKN029 OVC100 10/10 A2997 RMK AO2 RAE30 SLP152 P0000 T01000100", "KFKN 311355Z AUTO 00000KT 10SM OVC050 13/13 A3013 RMK AO2 T01330130", "KFKR 311335Z AUTO 18008KT 7SM OVC080 15/14 A2983 RMK AO2", "KFKS 311355Z AUTO 00000KT 10SM BKN120 09/07 A2986 RMK AO2 T00850074", "KFLD 311353Z AUTO 00000KT 9SM CLR 09/04 A2986 RMK AO2 SLP114 T00890044", "KFLG 311357Z AUTO 00000KT 10SM CLR M04/M08 A3016 RMK AO2 SLP198 T10441083", "KFLL 311353Z 09004KT 10SM SCT019 BKN080 28/23 A2998 RMK AO2 SLP152 T02780233 $", "KFLO 311353Z 12006KT 10SM CLR 18/16 A3008 RMK AO2 SLP183 T01780161", "KFLP 311356Z AUTO 24003KT 10SM CLR 13/12 A2998 RMK AO2 SLP149 T01330117", "KFLY 311355Z AUTO 34005KT 10SM CLR 00/M08 A3008 RMK AO2 T00011077", "KFME 311339Z AUTO 00000KT 10SM BKN025 BKN085 OVC110 13/12 A3011 RMK AO1", "KFMH 311345Z 00000KT 10SM OVC021 13/13 A3010", "KFMM 311335Z AUTO 27013KT 10SM CLR M02/M08 A3001 RMK AO2", "KFMN 311353Z 08005KT 10SM CLR M02/M07 A3015 RMK AO2 SLP215 T10171067", "KFMY 311353Z 10008KT 10SM CLR 27/23 A2998 RMK AO2 SLP155 T02720228", "KFNB 311353Z AUTO 30008KT 10SM CLR 07/02 A2995 RMK AO2 SLP142 T00670017", "KFNL 311356Z 00000KT 10SM CLR 01/M06 A3002 RMK AO2 SLP159 T00111061 FZRANO", "KFNT 311353Z 09003KT 1 1/4SM R09/5000VP6000FT -RA BR OVC005 12/11 A2986 RMK AO2 RAE05B36 SLP113 P0001 T01170111", "KFOA 311355Z AUTO 24006KT 10SM SCT016 BKN060 BKN080 13/12 A2988 RMK AO2", "KFOD 311356Z AUTO 00000KT 10SM CLR 03/03 A2992 RMK AO2 SLP151 T00280028", "KFOE 311353Z 31007KT 10SM CLR 12/06 A2996 RMK AO2 SLP144 T01220061 PNO $", "KFOK 311353Z 00000KT 3SM -RA BR BKN008 OVC019 15/14 A3012 RMK AO2 RAB29 CIG 006V010 SLP199 P0001 T01500144", "KFOT 311355Z AUTO 16004KT 7SM OVC024 08/08 A3005 RMK AO1", "KFOZ 311353Z AUTO 18006KT 10SM CLR 04/00 A2982 RMK AO2", "KFPK 311355Z AUTO 00000KT 2 1/2SM BR OVC003 11/11 A2984 RMK AO2 T01110107", "KFPR 311353Z 11008KT 10SM BKN018 BKN023 BKN029 28/23 A3001 RMK AO2 SLP160 T02780233", "KFPY 311355Z AUTO 11005KT 10SM OVC004 22/21 A3003 RMK AO2 T02210205 TSNO", "KFQD 311335Z AUTO 03003KT 1 3/4SM DZ BKN003 OVC008 12/12 A3008 RMK AO2 P0001", "KFRG 311353Z 00000KT 10SM CLR 14/11 A3011 RMK AO2 SLP196 T01440106", "KFRH 311355Z AUTO 19004KT 10SM BKN010 OVC024 A2989 RMK AO1", "KFRI 311355Z 23004KT 7SM CLR 06/03 A2999 RMK AO2A SLP156 T00580030 FZRANO $", "KFRM 311356Z AUTO 19004KT 10SM CLR 02/M02 A2991 RMK AO2 SLP140 T00171017 FZRANO", "KFRR 311355Z AUTO 00000KT 10SM SCT050 BKN060 BKN120 10/08 A3006 RMK AO1", "KFSD 311356Z 07003KT 10SM FEW250 01/M03 A2989 RMK AO2 SLP134 T00061028", "KFSE 311355Z AUTO 18011KT 10SM CLR 04/M02 A2976 RMK AO2", "KFSI 311355Z AUTO 00000KT 10SM CLR 09/08 A3002 RMK AO2 SLP164 T00860080", "KFSK 311355Z AUTO 24003KT 10SM BKN120 10/08 A2997 RMK AO2 T01040076", "KFSM 311353Z 27004KT 10SM CLR 13/13 A3001 RMK AO2 SLP160 T01330133", "KFSO 311355Z AUTO 19003KT 10SM CLR 12/00 A3000 RMK AO2 T01201004", "KFST 311353Z AUTO 15004KT 10SM CLR 11/07 A3003 RMK AO2 SLP142 T01110072", "KFSW 311355Z AUTO 31007KT 10SM OVC001 11/09 A2988 RMK AO2", "KFTK 311355Z AUTO 18007KT 10SM OVC009 15/15 A2991 RMK AO2 SLP128 T01480146", "KFTW 311353Z 00000KT 10SM CLR 12/11 A3003 RMK AO2 SLP167 T01220111 $", "KFTY 311353Z 00000KT 1SM BR OVC003 17/16 A3002 RMK AO2 SLP162 T01670161", "KFUL 311353Z 00000KT 10SM FEW250 12/07 A2991 RMK AO2 SLP127 T01220072", "KFVE 311353Z AUTO 30005KT 10SM CLR 11/M02 A2998 RMK AO2 SLP153 T01061022", "KFVX 311355Z AUTO 00000KT 10SM -RA SCT026 OVC035 15/11 A3010 RMK AO2 T01460108", "KFWA 311354Z 18005KT 2 1/2SM -RA BR FEW004 BKN014 OVC026 15/14 A2986 RMK AO2 RAB1255 SLP109 P0005 T01500144 $", "KFWB 311355Z AUTO 27005KT 1 3/4SM BR OVC003 12/12 A2998 RMK AO2", "KFWC 311355Z AUTO 00000KT 13/13 A2988 RMK AO1 T01320131 PWINO", "KFWN 311353Z AUTO 00000KT 10SM CLR 08/07 A3009 RMK AO2 SLP193 T00780067", "KFWS 311353Z 00000KT 10SM CLR 13/12 A3006", "KFWZ 311335Z AUTO 00000KT 10SM CLR 02/M06 A3005 RMK AO2", "KFXE 311353Z VRB03KT 10SM FEW016 SCT039 SCT047 26/24 A2999 RMK AO2 SLP157 T02560244 $", "KFXY 311335Z AUTO 00000KT 10SM CLR M02/M02 A2990 RMK AO2", "KFYE 311355Z AUTO 18005KT 10SM SCT007 BKN050 BKN065 16/15 A2995 RMK A01", "KFYG 311355Z AUTO 00000KT 6SM BR BKN013 13/13 A2989 RMK AO2", "KFYJ 311335Z AUTO 00000KT 7SM SCT002 BKN060 BKN085 14/13 A3012 RMK AO1 T01400133", "KFYM 311400Z AUTO 19005KT 7SM FEW007 OVC050 15/15 A3001 RMK A01", "KFYV 311353Z 17003KT 1/4SM FG VV002 09/09 A3001 RMK AO2 SLP158 T00940089", "KFZG 311355Z AUTO 17005KT 10SM OVC005 21/20 A3004 RMK AO2 T02100200", "KFZY 311354Z AUTO VRB03KT 10SM CLR 10/06 A2999 RMK AO2 SLP157 T01000056", "KGAD 311356Z AUTO 00000KT M1/4SM FG OVC003 16/16 A3003 RMK AO2 SLP171 P0003 T01560156 $", "KGAF 311355Z AUTO 20007KT 9SM CLR 02/M02 A2968 RMK AO2", "KGAG 311353Z AUTO 25003KT 10SM CLR 03/M02 A3004 RMK AO2 SLP175 T00281017", "KGAI 311356Z AUTO 16004KT BKN070 BKN110 13/12 A3009 RMK AO2 SLP204 P0002 T01330117 PWINO $", "KGAO 311355Z AUTO 33003KT 10SM CLR 19/17 A3006 RMK AO2 T01850173", "KGBD 311356Z AUTO 00000KT 10SM CLR 02/M02 A3003 RMK AO2 SLP175 T00221022 FZRANO", "KGBG 311335Z AUTO 00000KT 5SM BR BKN100 10/10 A2986 RMK AO2 T00950095", "KGBK 311355Z AUTO 00000KT 8SM FEW040 24/14 A3002 RMK A01", "KGCC 311353Z AUTO 00000KT 10SM CLR 04/M08 A2990 RMK AO2 SLP140 T00391078 $", "KGCD 311355Z AUTO 11008KT 10SM CLR 08/01 A2997 RMK AO2 T00750005", "KGCK 311354Z 27005KT 10SM CLR 02/M06 A3001 RMK AO2 SLP166 T00221056", "KGCM 311355Z AUTO 00000KT 4SM BR CLR 09/09 A3002 RMK AO2", "KGCN 311354Z 04008KT 10SM CLR M06/M10 A3016 RMK AO2 SLP226 T10611100 $", "KGCY 311355Z AUTO 04005KT 15/14 A3001 RMK A01", "KGDB 311355Z AUTO 16004KT 10SM CLR 01/00 A2989 RMK AO2 T00051005", "KGDJ 311355Z AUTO 00000KT 10SM CLR 10/09 A3006 RMK AO2 T00970090", "KGDP 311351Z AUTO 04013KT 8SM CLR 12/02 A3010 RMK AO2 SLP148 T01170022", "KGDV 311356Z AUTO 21006KT 10SM CLR 00/M03 A2979 RMK AO2 SLP103 T00001028 FZRANO", "KGED 311354Z AUTO 00000KT 9SM OVC027 14/12 A3012 RMK AO2 SLP198 T01390122", "KGEG 311353Z 20017KT 10SM FEW025 FEW060 BKN110 BKN170 09/06 A2976 RMK AO2 SLP079 T00940056", "KGEU 311353Z VRB03KT 10SM SKC 11/02 A2994", "KGEV 311335Z AUTO 14003KT 1/4SM RA OVC003 10/10 A3010 RMK AO2 P0002 T00950095", "KGEY 311353Z AUTO 11005KT 10SM CLR M03/M06 A2995 RMK AO2 SLP165 T10331056", "KGEZ 311353Z AUTO 19008KT 7SM SCT009 OVC060 17/14 A2987 RMK AO2 SLP112 T01670144 PNO", "KGFA 311355Z AUTO 20015KT 10SM OVC085 10/01 A2972 RMK AO2 SLP072 T00980014 $", "KGFK 311353Z 17006KT 10SM BKN250 03/M02 A2970 RMK AO2 SLP065 T00281017", "KGFL 311353Z AUTO 00000KT 10SM CLR 08/03 A3006 RMK AO2 SLP186 T00780033", "KGGE 311355Z AUTO 11007KT 10SM CLR 21/20 A3007 RMK AO2", "KGGF 311335Z AUTO 28008KT 10SM M00/M08 A2995 RMK AO2", "KGGG 311353Z 00000KT 10SM -RA CLR 13/12 A3003 RMK AO2 RAB47 SLP170 P0000 T01280122", "KGGI 311355Z AUTO 00000KT 10SM CLR 06/05 A2991 RMK AO2 T00600046", "KGGP 311355Z AUTO 20005KT 7SM BKN010 BKN019 OVC049 14/13 A2985 RMK AO2", "KGGW 311353Z AUTO 15009KT 10SM CLR 04/01 A2971 RMK AO2 SLP071 T00440006", "KGHB 311355Z AUTO 36007KT 330V030 9SM BKN037 23/15 A3004 RMK A01", "KGHG 311355Z AUTO 20004KT 10SM 13/12 A3008 RMK AO2", "KGHW 311355Z AUTO 17003KT 10SM CLR 03/M01 A2985 RMK AO2", "KGIC 311355Z AUTO 21015G21KT 10SM OVC060 12/00 A2988 RMK AO1", "KGIF 311353Z AUTO 10004KT 10SM CLR A3004 RMK AO2 SLPNO", "KGJT 311353Z 08003KT 6SM HZ CLR 01/M02 A3015 RMK AO2 SLP204 T00111022", "KGKJ 311353Z AUTO VRB03KT 9SM -RA OVC026 11/09 A2994 RMK AO2 RAB19 SLP140 P0000 T01060089", "KGKT 311355Z AUTO 00000KT 7SM BKN003 BKN023 15/15 A3001 RMK A01", "KGKY 311353Z 00000KT 10SM CLR 13/12 A3004 RMK AO2 SLP168 T01330117", "KGLD 311353Z AUTO A2999 RMK AO2 SLPNO PWINO FZRANO $", "KGLE 311335Z AUTO 00000KT 10SM CLR 09/09 A3005 RMK AO2 T00880085", "KGLH 311353Z 24006KT 10SM SCT006 17/14 A3000 RMK AO2 SLP166 T01670144", "KGLR 311353Z AUTO 00000KT 9SM CLR 09/04 A2986 RMK AO2 SLP117 T00940044", "KGLS 311352Z 00000KT 10SM CLR 18/14 A3005 RMK AO2 SLP175 T01830144", "KGLW 311335Z AUTO 00000KT 10SM SCT014 SCT026 OVC033 15/15 A2996 RMK AO2 T01520147", "KGLX 311355Z AUTO VRB06G11KT 10SM FEW028 BKN034 OVC042 23/16 A3005 RMK A01", "KGLY 311355Z AUTO 25003KT 8SM FEW110 12/12 A2994 RMK AO2", "KGMJ 311355Z AUTO 00000KT 8SM OVC120 04/02 A2999 RMK AO2", "KGMU 311353Z 36004KT 1SM +RA BR BKN005 OVC012 14/13 A3006 RMK AO2 SLP176 P0023 T01390128", "KGNA 311356Z AUTO 00000KT 04/00 A2981 RMK AO1 SLP102 T00390000", "KGNB 311335Z AUTO 00000KT 10SM CLR M08/M09 A3024 RMK AO2 T10771091", "KGNC 311335Z AUTO 00000KT 10SM CLR 07/05 A3010 RMK AO2 T00710053", "KGNG 311355Z AUTO 09010KT 10SM CLR 01/00 A3010 RMK AO2", "KGNR 311356Z AUTO 00000KT 12/M03 A2999 RMK AO1 SLP161 T01221033", "KGNT 311355Z AUTO 29004KT 10SM CLR M04/M08 A3020 RMK AO2 T10411076", "KGNV 311353Z 00000KT 3SM BR OVC002 21/21 A3006 RMK AO2 SLP178 T02110211", "KGOK 311353Z AUTO 00000KT 10SM 07/06 A3003 RMK AO2 SLP172 T00720056 $", "KGON 311356Z 00000KT 5SM BR OVC026 16/13 A3009 RMK AO2 SLP190 T01560128", "KGOO 311355Z AUTO 00000KT 10SM CLR 12/M02 A3002 RMK A01", "KGOP 311355Z AUTO 10SM CLR 13/10 A3007 RMK AO2", "KGOV 311258Z AUTO 00000KT 10SM FEW140 OVC200 02/02 A2985 RMK AO2 SLP123 T00240018 $", "KGPC 311355Z AUTO 20009KT 2SM -RA BR OVC007 15/14 A2986 RMK AO2 VIS 1 1/4V5 T01480139", "KGPH 311355Z AUTO 00000KT 10SM CLR 09/06 A2993 RMK AO2", "KGPI 311355Z 16014KT 10SM OVC043 10/04 A2974 RMK AO2 SLP073 T01000044", "KGPM 311350Z 00000KT 10SM SKC 14/11 A3005", "KGPT 311353Z 27003KT 4SM BR CLR 17/16 A3004 RMK AO2 SLP170 T01720156", "KGPZ 311356Z AUTO 17008KT 10SM CLR 03/M01 A2982 RMK AO2 SLP113 T00281006", "KGRB 311353Z 28003KT 5SM HZ CLR 09/05 A2985 RMK AO2 SLP113 T00890050", "KGRD 311356Z AUTO 14006KT 1/4SM -RA FG OVC002 15/15 A3005 RMK AO2 RAB35 SLP172 P0000 T01500150", "KGRF 311336Z AUTO 15008KT 10SM -RA OVC060 11/10 A2980 RMK AO2 RAB13E21RAB36 SLP095 $", "KGRI 311353Z 22004KT 10SM CLR 04/M01 A2996 RMK AO2 SLP156 T00391011", "KGRK 311355Z AUTO 00000KT 10SM CLR 14/10 A3001 RMK AO2 SLP159 T01360102", "KGRN 311355Z AUTO 00000KT 5SM HZ CLR M02/M07 A2990 RMK AO2 T10221070", "KGRR 311353Z 11006KT 1SM R26L/P6000FT BR BKN002 OVC015 11/11 A2984 RMK AO2 DZE14 SLP106 P0000 T01110106 $", "KGRY 311355Z AUTO 04008G15KT 10SM FEW029 SCT034 23/16 A3004 RMK A01", "KGSB 311355Z 06005KT 10SM FEW005 BKN050 BKN150 17/10 A3009 RMK AO2A SLP193 T01710095 $", "KGSH 311353Z AUTO 15004KT 1SM BR OVC002 14/13 A2983 RMK AO2 SLP103 T01390133", "KGSO 311354Z 07004KT 7SM -RA FEW006 BKN011 OVC035 14/13 A3009 RMK AO2 RAB11E29B52 SLP185 P0000 T01390128", "KGSP 311353Z 31005KT 1 1/4SM -RA BR OVC002 13/12 A3005 RMK AO2 SLP172 P0012 T01330122", "KGTB 311355Z AUTO 15007KT 10SM SCT170 BKN200 10/02 A2995 RMK AO2 SLPNO T01030024", "KGTF 311353Z 21018G28KT 10SM CLR 11/02 A2973 RMK AO2 PK WND 21028/1351 SLP067 T01060017", "KGTR 311356Z 21005KT 10SM OVC060 16/15 A3002 RMK AO2 SLP172 T01610150", "KGTU 311356Z 00000KT 10SM CLR 12/11 A3007 RMK AO2 SLP182 T01220106", "KGUC 311356Z AUTO 00000KT 10SM CLR M08/M10 A3025 RMK AO2 SLP270 T10781100 FZRANO", "KGUL 311355Z AUTO 07003KT 10SM BKN034 23/15 A3002 RMK A01", "KGUP 311353Z AUTO 00000KT 10SM CLR M06/M08 A3017 RMK AO2 SLP230 T10611083", "KGUR 311355Z AUTO 00000KT 10SM CLR 00/M07 A2995 RMK AO2 SLP160 T00021069", "KGUS 311355Z AUTO 20006KT 3SM BR OVC006 15/14 A2982 RMK AO2 SLP101 T01470142 $", "KGUY 311353Z AUTO 24006KT 10SM CLR 04/M03 A3003 RMK AO2 SLP161 T00391033", "KGVL 311353Z AUTO 06004KT 4SM BR OVC003 14/13 A3007 RMK AO2 RAB01E12B34E44 SLP175 P0000 T01390128", "KGVQ 311356Z AUTO 20004KT 5SM -RA BKN048 OVC100 12/06 A2996 RMK AO2 RAB20 SLP148 P0000 T01170056", "KGVT 311355Z AUTO 00000KT 5SM BR CLR 11/10 A3004 RMK AO2 TSNO T01060103", "KGVW 311350Z AUTO 06007KT 10SM CLR 22/16 A3005 RMK A01", "KGWB 311355Z AUTO 00000KT 1/2SM FG OVC001 13/13 A2985 RMK AO2", "KGWO 311353Z AUTO 23005KT 10SM OVC008 17/14 A3001 RMK AO2 CIG 007V012 SLP159 T01670144", "KGWR 311355Z AUTO 22009KT 9SM CLR 02/00 A2980 RMK A01", "KGWW 311355Z AUTO 12003KT 10SM SCT049 OVC060 16/14 A3011 RMK AO2 T01550141", "KGXF 311355Z AUTO 00000KT 10SM CLR 09/M04 A2993 RMK AO2 SLP130 T00871045 FZRANO $", "KGXY 311356Z 00000KT 10SM CLR M05/M09 A3003 RMK AO2 SLP199 T10501094 FZRANO $", "KGYB 311355Z AUTO 00000KT 10SM CLR 12/11 A3005 RMK AO2 T01180110", "KGYF 311355Z AUTO 09012G16KT 10SM SCT031 OVC080 24/17 A3000 RMK AO2 T02410170", "KGYH 311347Z COR 34004KT 2SM RA BR BKN002 OVC006 13/13 A3005", "KGYI 311350Z 00000KT 10SM SKC 10/09 A3005", "KGYL 311355Z AUTO 00000KT 5SM HZ CLR 00/M03 A2989 RMK AO2 T00031030", "KGYR 311347Z 06006KT 10SM SKC 11/03 A2995", "KGYY 311345Z 00000KT 1 3/4SM BR OVC003 14/14 A2983", "KGZH 311353Z AUTO 00000KT 10SM CLR 14/13 A3005 RMK AO2 SLP173 T01440128", "KGZL 311355Z AUTO 00000KT 5SM BR CLR 11/10 A3001 RMK AO2", "KGZN 311340Z AUTO 23004KT 10SM CLR 12/09 A3003 RMK AO2", "KGZS 311355Z AUTO 16004KT 10SM SCT009 OVC055 16/15 A2999 RMK A01", "KH71 311355Z AUTO 00000KT 1/2SM FG VV005 09/08 A3000 RMK AO2", "KHAE 311355Z AUTO 29003KT 2 1/2SM -RA OVC025 11/10 A2990 RMK AO2 P0006", "KHAF 311355Z AUTO 00000KT 5SM BR OVC011 10/10 A2999 RMK AO2", "KHAI 311355Z AUTO 00000KT 1/4SM FG OVC001 12/12 A2985 RMK AO2 T01200117", "KHAO 311353Z AUTO 18003KT 10SM FEW027 OVC070 17/15 A2992 RMK AO2 SLP130 T01670150", "KHBG 311353Z AUTO 00000KT 10SM CLR 18/16 A3004 RMK AO2 SLP171 T01780156", "KHBI 311355Z AUTO 15003KT 10SM SCT020 SCT040 17/13 A3011 RMK AO2 T01670131", "KHBR 311353Z AUTO 13004KT 10SM CLR 08/07 A3005 RMK AO2 SLP172 T00830067", "KHBV 311330Z AUTO 00000KT 10SM CLR 15/13 A3001 RMK AO2 T01450127", "KHCD 311355Z AUTO 00000KT 7SM CLR 00/M04 A2990 RMK AO2 T10051039", "KHCO 311355Z AUTO 14007KT 10SM CLR 02/M01 A2966 RMK AO2", "KHCR 311355Z AUTO 00000KT 10SM CLR M06/M08 A3019 RMK AO2", "KHDC 311320Z AUTO 00000KT 7SM CLR 14/14 A3004 RMK AO2", "KHDE 311335Z AUTO 23004KT 10SM CLR 01/M03 A2995 RMK AO2 T00091029", "KHDL 311335Z AUTO 28004KT 4SM BR OVC035 17/17 A3003 RMK AO2", "KHDN 311356Z AUTO 10008KT 10SM CLR M03/M06 A3019 RMK AO2 SLP239 T10331061 FZRANO", "KHDO 311351Z AUTO 02004KT 10SM CLR 13/11 A3004 RMK AO2 SLP164 T01280106", "KHEF 311356Z 18003KT 10SM FEW022 BKN028 OVC033 13/12 A3010 RMK AO2 RAB17E44 SLP199 P0002 T01280117", "KHEG 311355Z AUTO 12004KT 9SM CLR 27/25 A3006 RMK AO2", "KHEI 311353Z AUTO 29004KT 10SM CLR 02/M04 A2982 RMK AO2 SLP116 T00221039", "KHEQ 311335Z AUTO 28010KT 10SM CLR 03/M06 A2997 RMK AO2", "KHEY 311355Z AUTO 00000KT 7SM BKN044 17/17 A3001 RMK AO2 SLP163 T01670165", "KHEZ 311356Z AUTO 11003KT 10SM CLR 17/15 A3005 RMK AO2 SLP175 T01670150", "KHFD 311353Z 00000KT 10SM FEW012 SCT040 12/09 A3010 RMK AO2 SLP192 T01170089", "KHFF 311355Z AUTO 15005KT 10SM SCT060 17/15 A3007 RMK AO2 SLP185 T01650148 $", "KHFJ 311355Z AUTO 23005KT M1/4SM FG OVC002 10/10 A2997 RMK AO2", "KHFY 311355Z AUTO 18006KT 7SM BKN012 OVC016 15/15 A2988 RMK AO2 T01520152", "KHGR 311353Z 00000KT 8SM FEW080 BKN100 11/08 A3006 RMK AO2 SLP190 T01110078", "KHHF 311355Z AUTO 00000KT 10SM CLR 02/01 A3005 RMK AO2 T00180009", "KHHG 311355Z AUTO 16005KT 3SM -RA BKN003 OVC011 14/14 A2985 RMK AO2 P0002 T01410141", "KHHR 311353Z 00000KT 10SM CLR 14/09 A2991 RMK AO2 SLP129 T01440089 $", "KHHV 311355Z AUTO 08006KT 10SM FEW080 25/15 A3000 RMK A01", "KHHW 311334Z AUTO 00000KT 5SM BR CLR 08/08 A3002 RMK AO2", "KHIB 311353Z AUTO 00000KT 10SM CLR M04/M04 A2982 RMK AO2 SLP119 T10391044", "KHIE 311352Z AUTO 00000KT 10SM CLR 06/00 A3003 RMK AO2 SLP180 T00610000", "KHIF 311355Z AUTO 11013KT 10SM CLR 03/M05 A3014 RMK AO2 SLP197 T00251047", "KHII 311355Z AUTO 33003KT 10SM CLR 15/M06 A2995 RMK AO2", "KHIO 311353Z 00000KT 1 1/2SM -RA BR BKN006 OVC013 11/11 A2993 RMK AO2 SLP133 P0010 T01110111", "KHJH 311355Z AUTO 00000KT 10SM CLR 02/00 A2999 RMK AO2 T00151003", "KHJO 311353Z AUTO 00000KT 4SM BR CLR 05/03 A2998 RMK AO2 SLP155 T00500033", "KHKA 311353Z AUTO 22007KT 10SM OVC034 16/14 A2994 RMK AO2 SLP137 T01610144 $", "KHKS 311353Z 00000KT 8SM OVC055 16/14 A3003 RMK AO2 SLP163 T01560144", "KHKY 311353Z 05003KT 7SM -RA BKN004 OVC014 13/13 A3008 RMK AO2 RAE07B20E29B50 CIG 002V007 SLP171 P0001 T01330133", "KHLB 311355Z AUTO VRB04KT 10SM SCT009 BKN013 OVC048 15/14 A2990 RMK A01", "KHLC 311353Z AUTO 28005KT 10SM CLR 03/M04 A3000 RMK AO2 SLP168 T00281039", "KHLG 311353Z 19009KT 10SM BKN006 OVC012 14/13 A2996 RMK AO2 RAE30 CIG 004V009 SLP146 P0001 T01440133", "KHLN 311353Z 20010KT 10SM BKN055 12/M01 A2982 RMK AO2 SLP105 T01171006", "KHLR 311355Z AUTO 00000KT 10SM CLR 13/11 A3004 RMK AO2 SLP169 T01280105", "KHLX 311355Z AUTO 18004KT 5SM -RA OVC003 11/08 A3009 RMK AO2 P0006 T01060077", "KHMN 311355Z AUTO 28003KT 10SM CLR 04/M02 A3009 RMK AO2 SLP166 T00381018 $", "KHMP 311355Z AUTO 16003KT 10SM OVC002 18/18 A3006 RMK AO2 T01790176", "KHMT 311355Z AUTO 05005KT 10SM CLR 08/M01 A2996 RMK AO2 T00811011", "KHMZ 311355Z AUTO 00000KT 10SM SCT034 BKN055 OVC085 06/06 A3005 RMK AO2 P0001 T00610055", "KHNB 311356Z AUTO 20008KT 10SM OVC010 16/14 A2990 RMK AO2 SLP124 T01560144", "KHND 311356Z 18005KT 10SM CLR 08/M08 A3006 RMK AO2 SLP189 T00831078", "KHNR 311355Z AUTO 00000KT 8SM CLR M00/M00 A2994 RMK A01", "KHNZ 311355Z AUTO 18005KT 10SM SCT002 SCT019 SCT035 15/13 A3011 RMK AO2 T01450132", "KHOB 311350Z 35005KT 10SM SKC 06/04 A3007", "KHOE 311355Z AUTO 12006KT 3SM BR OVC003 21/20 A3005 RMK AO2 T02100202", "KHON 311355Z AUTO 16006KT 10SM CLR 02/M02 A2984 RMK AO2 SLP115 T00171017", "KHOP 311355Z AUTO 21008KT 10SM FEW015 OVC070 15/15 A2992 RMK AO2 SLP132 T01510149", "KHOT 311353Z AUTO 00000KT 5SM BR CLR 13/13 A3001 RMK AO2 SLP161 T01330128", "KHOU 311353Z 00000KT 10SM BKN250 18/14 A3004 RMK AO2 SLP175 T01830139", "KHPN 311356Z 28005KT 10SM FEW030 13/09 A3008 RMK AO2 SLP189 T01330094", "KHPT 311335Z AUTO 00000KT 10SM CLR 03/01 A2989 RMK AO2", "KHQG 311335Z AUTO 00000KT 7SM CLR 00/M05 A3003 RMK AO2 T00031047", "KHQG 311335Z AUTO 00000KT 7SM CLR 00/M05 A3003 RMK AO2 T00031047", "KHQM 311353Z AUTO 21017KT 6SM -RA BR SCT008 BKN016 OVC080 13/12 A2983 RMK AO2 PK WND 20027/1341 WSHFT 1335 SLP103 P0006 T01330117", "KHQU 311355Z AUTO 17004KT 4SM BR OVC003 17/17 A3004 RMK AO2 T01720170", "KHQZ 311350Z 00000KT 7SM CLR 12/12 A3004", "KHRF 311400Z AUTO 20008KT 10SM OVC055 10/02 A2986 RMK AO2 Hamilton ", "KHRI 311353Z AUTO 15003KT 10SM FEW095 10/08 A2986 RMK AO2 SLP111 T01000078", "KHRJ 311355Z AUTO 00000KT 10SM OVC050 16/14 A3012 RMK AO2 T01630141", "KHRL 311352Z 08005KT 10SM OVC080 23/19 A2997 RMK AO2 SLP148 T02330189", "KHRO 311353Z AUTO 29004KT 8SM CLR 13/11 A2998 RMK AO2 SLP149 T01280111", "KHRT 311255Z 01005KT 10SM FEW045 15/13 A3001 RMK AO2A SLP164 T01460133 $", "KHRX 311355Z AUTO 00000KT 7SM CLR 04/02 A3008 RMK AO2 T00390021", "KHSB 311341Z AUTO 00000KT 5SM BR SCT004 BKN010 OVC018 14/14 A2990 RMK AO2", "KHSD 311355Z AUTO 00000KT 10SM CLR 10/04 A3003 RMK A01", "KHSE 311351Z AUTO VRB06KT 10SM CLR 19/15 A3011 RMK AO2 SLP195 T01940150", "KHSG 311330Z AUTO 24003KT 10SM CLR M03/M06 A2997 RMK AO2 T10271062", "KHSI 311353Z AUTO 23003KT 10SM CLR 04/M02 A2997 RMK AO2 SLP157 T00441017", "KHSP 311355Z AUTO 23014KT 2 1/2SM BR OVC002 A3011 RMK AO2", "KHST 311255Z AUTO 00000KT 10SM CLR 26/25 A2995 RMK AO2 SLP145 T02550251", "KHSV 311353Z 00000KT 7SM OVC050 16/15 A3000 RMK AO2 SLP156 T01560150", "KHTL 311353Z AUTO 00000KT 10SM CLR 08/05 A2987 RMK AO2 SLP121 T00830050", "KHTS 311351Z 20005KT 6SM BR BKN006 OVC050 16/15 A2997 RMK AO2 RAB10E19 SLP146 P0000 T01610150", "KHUA 311358Z 20003KT 5SM BR OVC050 16/14 A3000 RMK SLPNO RVRNO $", "KHUF 311353Z 21008KT 6SM BR BKN006 OVC012 16/14 A2985 RMK AO2 CIG 005V010 SLP108 T01560144", "KHUL 311353Z AUTO 21007KT 10SM CLR 08/03 A3001 RMK AO2 SLP164 T00830028", "KHUM 311347Z 00000KT 3SM BR CLR 16/16 A3005", "KHUT 311352Z 32005KT 10SM CLR 04/01 A3001 RMK AO2 SLP159 T00390011", "KHVE 311335Z AUTO 00000KT 10SM CLR M01/M03 A3016 RMK AO2", "KHVN 311353Z 00000KT 8SM SCT043 14/11 A3010 RMK AO2 SLP192 T01440106", "KHVR 311353Z AUTO 22020G28KT 10SM CLR 11/02 A2964 RMK AO2 PK WND 22028/1352 SLP039 T01110017", "KHVS 311355Z AUTO 11005KT 10SM FEW025 OVC034 16/14 A3008 RMK AO2", "KHWD 311354Z 06003KT 10SM CLR 11/09 A2998 RMK AO2 SLP162 T01060089", "KHWO 311353Z 09003KT 10SM FEW055 BKN080 28/23 A3000 RMK AO2 SLP158 T02830233 $", "KHWV 311332Z AUTO 00000KT 10SM BKN025 OVC032 14/12 A3011 RMK AO2 T01440122", "KHWY 311355Z AUTO 00000KT 10SM BKN022 OVC027 13/12 A3013 RMK AO2 T01320117", "KHXD 311350Z 00000KT 10SM SCT030 22/21 A3007", "KHYA 311356Z 19004KT 10SM OVC022 14/14 A3009 RMK AO2 SLP189 T01440139", "KHYI 311356Z 33004KT 10SM CLR 11/10 A3005 RMK AO2 SLP171 T01100100 $", "KHYR 311353Z AUTO 00000KT 10SM CLR M01/M02 A2986 RMK AO2 SLP127 T10061022", "KHYS 311356Z AUTO 24003KT 10SM CLR 01/M04 A3001 RMK AO2 SLP173 T00111039 FZRANO $", "KHYW 311355Z AUTO 09003KT 10SM CLR 20/17 A3008 RMK AO2", "KHYX 311355Z AUTO 00000KT 5SM BR SCT002 OVC075 10/09 A2987 RMK AO2 T01010090", "KHZD 311355Z AUTO 19006KT 9SM BKN005 OVC009 16/15 A2993 RMK A01", "KHZE 311355Z AUTO 25006KT 10SM CLR 01/M01 A2978 RMK AO2", "KHZL 311355Z AUTO 15004KT 10SM OVC006 11/08 A3008 RMK AO2", "KHZR 311335Z AUTO 00000KT 7SM CLR 15/15 A3005 RMK AO2 T01500147", "KHZX 311355Z AUTO 00000KT 10SM CLR 01/M01 A2984 RMK AO2", "KHZY 311353Z AUTO 16008KT 10SM OVC050 13/10 A2993 RMK AO2 SLP134 T01280100", "KI23 311355Z AUTO 20008KT 10SM BKN013 BKN018 BKN031 16/15 A2992 RMK AO1", "KI35 311355Z AUTO 00000KT 10SM BKN010 OVC021 15/15 A3002 RMK AO2 T01480148", "KI63 311355Z AUTO 30005KT 4SM BR SCT008 OVC026 11/11 A2987 RMK AO2 T01050105", "KI67 311355Z AUTO 21005KT 10SM BKN012 OVC065 15/14 A2991 RMK AO1", "KI68 311355Z AUTO 18008KT 10SM SCT008 SCT026 SCT065 16/15 A2992 RMK AO1 T01600152", "KI69 311355Z AUTO 19007KT 10SM BKN008 OVC015 16/15 A2993 RMK AO2 T01600149", "KI74 311355Z AUTO 21006KT 10SM OVC009 15/15 A2990 RMK AO2", "KI75 311335Z AUTO 00000KT 10SM CLR 06/05 A2991 RMK AO2 T00580045", "KIAB 311355Z AUTO 30005KT 10SM CLR 07/02 A2998 RMK AO2 SLP155 T00740015 $", "KIAD 311352Z 24003KT 7SM FEW030 OVC080 13/11 A3009 RMK AO2 SLP189 T01330111", "KIAG 311353Z 15005KT 10SM -RA OVC049 10/08 A2995 RMK AO2 SLP146 P0001 T01000078", "KIAH 311353Z 00000KT 10SM BKN250 15/14 A3004 RMK AO2 SLP172 T01500144 $", "KIBM 311355Z AUTO 28010KT 10SM CLR 01/M08 A2999 RMK AO2 T00101080", "KICL 311355Z AUTO 00000KT 10SM CLR 04/04 A2996 RMK AO2", "KICR 311353Z AUTO 21005KT CLR 06/M05 A2987 RMK AO2 SLP123 T00561050 $", "KICT 311353Z 31003KT 10SM FEW200 07/02 A3001 RMK AO2 SLP162 T00670022", "KIDA 311353Z 25003KT 10SM CLR 02/M02 A3010 RMK AO2 SLP204 T00221022", "KIDI 311355Z AUTO 10004KT 9SM SCT024 OVC034 11/11 A3003 RMK A01", "KIDP 311355Z AUTO 00000KT 10SM CLR 11/07 A3000 RMK AO2 T01120070", "KIEN 311352Z AUTO 00000KT 10SM CLR M04/M08 A2990 RMK AO2 SLP153 T10441078", "KIER 311355Z AUTO 00000KT 7SM CLR 14/14 A3004 RMK AO2 T01360135", "KIFA 311355Z AUTO 27003KT 10SM CLR 03/02 A2991 RMK AO2 T00340023", "KIFP 311355Z AUTO 03013KT 10SM CLR 20/M06 A2995 RMK AO2", "KIGM 311351Z AUTO 08006KT 10SM CLR 07/M06 A3006 RMK AO2 SLP142 T00671061", "KIGQ 311355Z AUTO 00000KT 2 1/2SM BR OVC002 14/14 A2983 RMK AO2 T01360136", "KIIY 311355Z AUTO 00000KT 5SM -RA BR OVC004 16/16 A3004 RMK AO2 T01610160", "KIJD 311352Z AUTO 00000KT 8SM OVC004 08/06 A3011 RMK AO2 SLP195 T00830061", "KIJX 311335Z AUTO 26004KT 1 1/2SM OVC003 11/11 A2986 RMK AO2 P0004 T01110111", "KIKK 311355Z AUTO 00000KT 1/4SM FG OVC003 14/13 A2983 RMK AO2 T01360128", "KIKV 311355Z AUTO 00000KT 7SM CLR 04/04 A2993 RMK AO2", "KIKW 311355Z AUTO 00000KT 3SM BR OVC031 10/10 A2986 RMK AO2 T00980096", "KILE 311356Z AUTO 00000KT 10SM 12/11 A3005 RMK AO2 SLP172 T01220106 $", "KILG 311351Z 00000KT 6SM BR OVC030 13/12 A3011 RMK AO2 SLP194 T01330117", "KILM 311353Z 10007KT 10SM CLR 21/17 A3009 RMK AO2 SLP190 T02060172", "KILN 311354Z AUTO 22007KT 9SM SCT010 BKN021 OVC070 17/15 A2991 RMK AO2 SLP130 T01670150", "KIML 311353Z AUTO 25003KT 10SM CLR M01/M08 A2997 RMK AO2 SLP168 T10111078", "KIMS 311355Z AUTO 20006KT 10SM OVC007 15/15 A2993 RMK AO2", "KIMT 311354Z AUTO 00000KT 10SM CLR 07/04 A2982 RMK AO2 SLP107 T00670044", "KIND 311354Z 17010KT 4SM -RA BR BKN009 OVC014 15/14 A2985 RMK AO2 RAB00E09B27DZB19E27 SLP107 P0001 T01500139", "KINF 311355Z AUTO 00000KT 5SM BR OVC001 21/21 A3004 RMK AO2", "KINJ 311355Z AUTO 00000KT 10SM CLR 13/13 A3004 RMK AO2 T01340134", "KINK 311353Z AUTO 08005KT 10SM CLR 09/06 A3003 RMK AO2 SLP149 T00940056 $", "KINL 311354Z AUTO 20005KT 10SM CLR 03/M01 A2972 RMK AO2 SLP080 T00331011", "KINS 311355Z AUTO 00000KT 10SM CLR 03/M12 A3007 RMK AO2 SLP165 T00341118", "KINT 311354Z 00000KT 9SM FEW005 BKN017 OVC028 14/13 A3010 RMK AO2 SLP189 T01390133", "KINW 311356Z AUTO 13004KT 10SM CLR M01/M06 A3014 RMK AO2 SLP210 T10111061", "KIOB 311355Z AUTO 21005KT 10SM SCT007 SCT013 OVC020 16/16 A2998 RMK AO2 PWINO", "KIOW 311352Z AUTO 00000KT 7SM CLR 08/06 A2989 RMK AO2 SLP124 T00780056", "KIPJ 311355Z AUTO 00000KT 7SM BKN008 OVC014 14/13 A3008 RMK AO2 T01350132", "KIPL 311353Z AUTO 27004KT 10SM CLR 12/M03 A2989 RMK AO2 SLP122 T01221033", "KIPT 311354Z 14004KT 10SM CLR 09/07 A3005 RMK AO2 SLP177 T00890067", "KIRK 311355Z AUTO 30004KT 7SM CLR 10/07 A2991 RMK AO2 SLP133 T01000072", "KIRS 311355Z AUTO 00000KT 2SM BR OVC003 13/12 A2984 RMK AO2 T01330120", "KISM 311356Z 10003KT 10SM CLR 26/22 A3004 RMK AO2 SLP172 T02560222 PNO $", "KISO 311356Z 12003KT 10SM CLR 17/13 A3012", "KISP 311356Z 00000KT 10SM FEW026 FEW140 SCT250 16/12 A3009 RMK AO2 SLP189 T01560117", "KISQ 311355Z AUTO 15003KT 4SM BR BKN120 08/08 A2983 RMK AO2 T00800078", "KISW 311354Z AUTO 00000KT 4SM BR CLR 06/05 A2987 RMK AO2 SLP122 T00610050", "KITH 311356Z 16006KT 10SM CLR 11/06 A3002 RMK AO2 SLP166 T01110061", "KITR 311353Z AUTO 25007KT 10SM CLR 02/M06 A3001 RMK AO2 SLP165 T00221061 $", "KIUA 311355Z AUTO 15004KT 10SM BKN110 12/06 A2996 RMK AO2 T01150056", "KIWA 311347Z 12007KT 10SM CLR 09/01 A2996", "KIWD 311356Z AUTO 00000KT 10SM CLR 01/00 A2985 RMK AO2 SLP120 T00060000 FZRANO", "KIWI 311353Z AUTO 20004KT 10SM CLR 12/06 A3006 RMK AO2 SLP181 T01220061", "KIXA 311355Z AUTO 00000KT 5SM BR SCT045 OVC050 12/12 A3013 RMK AO2", "KIXD 311353Z 27004KT 10SM CLR 11/06 A2996 RMK AO2 SLP141 T01110056", "KIYA 311355Z AUTO 00000KT 17/15 A3005 RMK AO2 T01650149 PWINO", "KIZA 311335Z AUTO 14003KT 1/2SM FG BKN002 05/05 A2995 RMK AO2", "KIZG 311354Z AUTO 00000KT 10SM CLR 08/02 A3003 RMK AO2 SLP174 T00780022", "KJAC 311356Z VRB04KT 10SM BKN065 M02/M04 A3012 RMK AO2 SLP225 T10221044", "KJAN 311354Z 23003KT 8SM OVC055 16/14 A3003 RMK AO2 SLP168 T01610144", "KJAQ 311355Z AUTO 00000KT 10SM CLR 13/00 A3000 RMK AO1 T01260001", "KJAS 311335Z AUTO 00000KT 5SM BR CLR 10/10 A3003 RMK AO2", "KJAU 311355Z AUTO 00000KT 10SM SCT011 BKN029 OVC035 16/15 A3004 RMK A01", "KJAX 311356Z 00000KT 10SM FEW030 FEW060 FEW250 24/21 A3003 RMK AO2 SLP169 T02440211", "KJBR 311353Z AUTO 24010KT 10SM SCT008 BKN018 OVC037 16/14 A2996 RMK AO2 SLP142 T01560139 $", "KJCA 311355Z AUTO 04004KT 1 1/2SM -RA BR OVC004 14/ A3005 RMK AO2 P0002 T0137////", "KJCT 311351Z AUTO 00000KT 10SM CLR 09/08 A3007 RMK AO2 SLP163 T00940078", "KJDD 311355Z AUTO 00000KT 7SM BR CLR 11/11 A3004 RMK AO2", "KJDN 311348Z AUTO 00000KT 03/M01 A2974 RMK AO1 SLP090 T00281006", "KJEF 311353Z 29003KT 7SM FEW055 BKN080 13/12 A2991 RMK AO2 RAB16E31 SLP117 P0000 T01330117 $", "KJER 311353Z AUTO 12006KT 10SM CLR 03/M03 A3008 RMK AO2 SLP190 T00281028", "KJES 311335Z AUTO 00000KT 1/4SM FG OVC002 21/20 A3007 RMK AO2", "KJFK 311351Z 22003KT 10SM FEW041 SCT150 SCT250 15/11 A3011 RMK AO2 SLP195 T01500111", "KJFX 311355Z AUTO 00000KT 3SM BR FEW031 FEW038 OVC055 15/15 A3002 RMK AO2", "KJFZ 311355Z AUTO 00000KT 10SM BKN022 OVC033 14/13 A3005 RMK AO2 T01350129", "KJHN 311355Z AUTO 00000KT 10SM CLR 06/M04 A3001 RMK AO2 T00611042", "KJHW 311356Z AUTO 19005KT 10SM BKN043 BKN049 OVC055 09/07 A2997 RMK AO2 RAE17 SLP155 P0000 T00890072", "KJKA 311256Z 00000KT 10SM CLR 14/13 A3003", "KJKJ 311355Z AUTO 17009KT 10SM CLR 02/M03 A2979 RMK AO2 TSNO", "KJKL 311353Z AUTO 19003KT 10SM FEW004 BKN018 OVC048 16/14 A2999 RMK AO2 RAE05 SLP148 P0000 T01560144", "KJLN 311353Z 23003KT 3SM BR SCT002 11/10 A2999", "KJMR 311355Z AUTO 00000KT 10SM CLR M01/M02 A2989 RMK AO2", "KJMS 311356Z AUTO 23006KT 10SM CLR 06/M02 A2975 RMK AO2 SLP084 T00561022", "KJNX 311355Z AUTO 00000KT 10SM OVC055 17/14 A3011 RMK AO2", "KJOT 311355Z AUTO 02003KT 1 1/2SM BR OVC002 14/14 A2983 RMK AO2 T01400137", "KJPX 311355Z AUTO 00000KT 10SM BKN004 OVC009 14/14 A3010 RMK AO2 T01420142", "KJQF 311350Z 00000KT 5SM BR OVC013 15/14 A3010", "KJRO 311355Z AUTO 19007KT 10SM BKN012 BKN033 BKN070 16/16 A2997 RMK AO2", "KJST 311354Z AUTO 16006KT 10SM BKN019 OVC026 11/10 A3001 RMK AO2 RAE1258B17E27 SLP168 P0000 T01060100", "KJSV 311355Z AUTO 00000KT 5SM BR CLR 12/12 A3001 RMK AO2", "KJSY 311355Z AUTO 10SM BKN060 BKN070 10/01 A2990 RMK AO2 T01010008 TSNO", "KJTC 311355Z AUTO 21003KT 3SM HZ CLR M04/M08 A3017 RMK AO2", "KJVL 311345Z 31003KT 10SM BKN200 08/08 A2985", "KJVW 311355Z AUTO 00000KT 10SM OVC055 15/15 A3003 RMK AO2", "KJVY 311335Z AUTO 21007KT 10SM SCT011 SCT070 16/15 A2991 RMK AO2", "KJWG 311355Z AUTO 30003KT 10SM CLR 06/04 A3006 RMK AO2 T00600035", "KJWN 311250Z 21003KT 5SM BR BKN035 15/14 A2994", "KJWY 311355Z AUTO 00000KT 7SM CLR 14/12 A3005 RMK AO2 T01400119", "KJXI 311355Z AUTO 7SM CLR 12/11 A3003 RMK AO2 T01190111", "KJXN 311356Z 00000KT 2 1/2SM BR BKN003 OVC023 12/12 A2985 RMK AO2 RAE42 SLP110 P0001 T01220122 $", "KJYG 311357Z AUTO 00000KT 10SM 01/M02 A2990 RMK AO2 TSNO", "KJYL 311355Z AUTO 00000KT 1/2SM FG OVC001 19/18 A3006 RMK AO2 T01890184", "KJYM 311355Z AUTO 00000KT 1SM -RA OVC002 12/11 A2985 RMK AO2 T01200110 P0003", "KJYO 311355Z AUTO 00000KT 7SM OVC060 10/10 A3010 RMK AO2", "KJYR 311335Z AUTO 00000KT 10SM 01/M02 A2995 RMK AO2", "KJZI 311355Z AUTO VRB05KT 7SM BKN035 BKN044 23/22 A3006 RMK AO2", "KK62 311335Z AUTO 20004KT 10SM SCT009 OVC065 15/ A2994 RMK AO2", "KK70 311355Z AUTO VRB05KT 10SM FEW020 FEW042 28/26 A2997 RMK AO2 LTG DSNT S", "KK88 311355Z AUTO 00000KT 10SM BKN110 10/08 A2998 RMK AO1 T00980075", "KKLS 311356Z AUTO 17004KT 9SM -RA SCT030 BKN038 OVC075 12/11 A2990 RMK AO2 SLP129 P0004 T01220111", "KKNB 311350Z AUTO 09005KT 10SM CLR M02/M06 A3017 RMK A01", "KKY8 311355Z AUTO 19010KT 10SM OVC013 16/16 A2991 RMK A01", "KL08 311355Z AUTO 34003KT 10SM CLR 08/M04 A2992 RMK AO2", "KL18 311355Z AUTO 00000KT 10SM CLR 14/M02 A2992 RMK AO2", "KL35 311355Z AUTO 00000KT 7SM CLR M05/M11 A3018 RMK AO2", "KL52 311355Z AUTO 00000KT M1/4SM FG OVC001 08/08 A2995 RMK A01", "KLAA 311353Z AUTO 23005KT 10SM CLR M02/M08 A3001 RMK AO2 SLP166 T10171083", "KLAF 311354Z 19004KT 9SM BKN009 OVC015 15/14 A2982 RMK AO2 CIG 008V011 SLP098 T01500139", "KLAL 311250Z 00000KT 10SM SKC 22/21 A3001", "KLAM 311355Z AUTO 33003KT 10SM CLR 04/M07 A3016 RMK AO2 T00371067", "KLAN 311353Z 09003KT 3/4SM R28L/5000FT BR OVC003 12/11 A2986 RMK AO2 RAE08 SLP112 P0001 T01170106", "KLAR 311353Z AUTO 22011KT 10SM CLR 01/M09 A3007 RMK AO2 SLP167 T00061089", "KLAS 311356Z 22003KT 10SM FEW250 11/M06 A3004 RMK AO2 SLP162 T01111061", "KLAW 311353Z 00000KT 8SM CLR 07/06 A3004 RMK AO2 SLP174 T00720061", "KLAX 311353Z 08005KT 10SM FEW004 FEW140 BKN220 14/09 A2991 RMK AO2 SLP127 T01390094 VISNO RWY24 $", "KLBB 311353Z 00000KT 10SM FEW170 SCT230 BKN270 08/07 A3007 RMK AO2 SLP163 BKN LYR THN T00830067", "KLBE 311250Z 00000KT 8SM BKN025 OVC031 09/09 A2999", "KLBF 311353Z AUTO 32003KT 10SM CLR M03/M06 A2995 RMK AO2 SLP160 T10281061", "KLBL 311356Z AUTO 27004KT 10SM CLR 03/M03 A3005 RMK AO2 SLP175 T00281033", "KLBO 311355Z AUTO 26005KT 10SM OVC080 12/11 A2995 RMK AO2", "KLBT 311356Z AUTO 08004KT 10SM 18/16 A3009 RMK AO2 SLP188 T01830161 TSNO $", "KLBX 311353Z AUTO 00000KT 10SM CLR 16/14 A3004 RMK AO2 SLP171 T01560139", "KLCG 311355Z AUTO 00000KT 10SM CLR 00/M02 A2993 RMK AO2 T00001016", "KLCH 311353Z 00000KT 7SM CLR 15/15 A3005 RMK AO2 SLP182 T01500150", "KLCI 311356Z AUTO 22007KT 10SM CLR 12/00 A3005 RMK AO2 SLP178 T01170000", "KLCK 311355Z AUTO 19009KT 10SM SCT008 SCT017 BKN028 17/16 A2993 RMK AO2 T01650155", "KLCQ 311355Z AUTO 00000KT 10SM OVC002 21/21 A3004 RMK AO2", "KLDJ 311355Z AUTO 00000KT 7SM CLR 11/08 A3010 RMK AO2 T01070082", "KLDM 311355Z AUTO 00000KT 10SM SCT120 08/07 A2985 RMK AO2 T00840069", "KLEB 311353Z 00000KT 10SM CLR 05/01 A3006 RMK AO2 SLP184 T00500006", "KLEE 311353Z 11005KT 10SM CLR 24/22 A3004 RMK AO2 SLP170 T02440217", "KLEW 311356Z AUTO 00000KT 10SM CLR 06/03 A3005 RMK AO2 SLP183 T00610033", "KLEX 311354Z 18008KT 10SM BKN014 BKN022 OVC060 16/14 A2995 RMK AO2 SLP139 T01610144", "KLFI 311355Z 19003KT 10SM SCT030 16/16 A3010 RMK AO2A SLP199 T01610159 $", "KLFK 311353Z AUTO 00000KT 8SM CLR 15/14 A3005 RMK AO2 SLP174 T01500139", "KLFT 311353Z 31003KT 10SM CLR 19/15 A3004 RMK AO2 SLP172 T01890150", "KLGA 311351Z 00000KT 10SM FEW037 FEW140 SCT250 16/09 A3009 RMK AO2 SLP189 T01560094 $", "KLGB 311353Z 00000KT 10SM CLR 14/08 A2991 RMK AO2 SLP129 T01440078", "KLGC 311355Z AUTO 25003KT 10SM BKN007 OVC012 19/17 A3003 RMK AO2 T01850170", "KLGD 311356Z AUTO 18007KT 10SM SCT100 12/00 A2994 RMK AO2 SLP135 T01170000", "KLGF 311355Z AUTO 08007KT M M CLR 13/M05 A2989 RMK AO2 SLP121 T01341052 RVRNO PWINO TSNO $", "KLGU 311351Z AUTO 00000KT 8SM FEW080 M03/M04 A3016 RMK AO2 SLP222 T10331044", "KLHB 311355Z AUTO 00000KT 10SM CLR 12/11 A3006 RMK AO2 T01220112", "KLHM 311355Z AUTO 00000KT 10SM CLR 07/03 A2998 RMK AO1", "KLHQ 311353Z AUTO 20006KT 10SM BKN012 BKN016 OVC032 17/16 A2994 RMK AO2 RAB1258E10 SLP135 P0000 T01670156", "KLHW 311355Z COR AUTO 00000KT 3/4SM BR OVC002 19/19 A3002 RMK AO2 SLP169 T01930186 $ COR 1357", "KLHX 311353Z AUTO 26010KT 10SM CLR 02/M06 A3003 RMK AO2 SLP160 T00171056 $", "KLHZ 311355Z AUTO 00000KT 10SM OVC048 14/12 A3014 RMK AO2", "KLIC 311355Z AUTO 33003KT 10SM CLR M03/M10 A3003 RMK AO2 SLP186 T10281100", "KLIT 311353Z 27005KT 9SM FEW055 SCT250 15/13 A3000 RMK AO2 SLP159 T01500128", "KLJF 311355Z AUTO 00000KT 10SM CLR 01/M02 A2987 RMK AO2", "KLKR 311355Z AUTO 10007KT 9SM OVC008 16/14 A3006 RMK AO2", "KLKU 311355Z AUTO 21003KT 10SM OVC017 14/11 A3011 RMK AO2 T01430107", "KLKV 311353Z AUTO 00000KT 10SM CLR M07/M09 A3009 RMK AO2 SLP219 T10671094 FZRANO", "KLLJ 311355Z AUTO 00000KT 10SM CLR 03/M04 A3002 RMK AO2 SLP153 T00281039", "KLLQ 311353Z AUTO 27004KT 2 1/2SM BR OVC002 14/14 A3001 RMK AO2 SLP159 T01390139", "KLMO 311335Z AUTO 29003KT 10SM CLR M02/M07 A3004 RMK AO2 T10221071", "KLMT 311353Z 00000KT 10SM CLR M04/M06 A3006 RMK AO2 SLP186 T10391056", "KLNA 311355Z AUTO 11006KT 10SM SCT017 SCT025 29/24 A3000 RMK AO2 T02890240 PNO", "KLND 311353Z AUTO 27003KT 10SM CLR 02/M09 A3000 RMK AO2 SLP153 T00171094", "KLNK 311354Z 17003KT 10SM CLR 02/M01 A2998 RMK AO2 SLP155 T00221006", "KLNL 311355Z AUTO 00000KT 10SM CLR 00/00 A2986 RMK AO2 T00020001", "KLNN 311355Z AUTO 21007KT 10SM BKN065 OVC080 15/12 A2989 RMK AO1 T01530120", "KLNP 311355Z AUTO 19004KT 7SM SCT011 OVC033 13/13 A3005 RMK AO2", "KLNQ 311355Z AUTO 00000KT 10SM CLR 21/18 A3006 RMK AO2 T02090177", "KLNR 311356Z AUTO 00000KT 3/4SM BR OVC001 04/02 A2988 RMK AO2 SLP117 T00390017", "KLNS 311353Z 00000KT 8SM OVC006 12/10 A3009 RMK AO2 SLP192 T01170100", "KLOL 311353Z AUTO 11003KT 10SM CLR M07/M16 A3011 RMK AO2 SLP214 T10721156", "KLOM 311355Z AUTO 00000KT 2 1/2SM BR SCT002 OVC025 10/ A3011 RMK AO2 VIS 1 1/2V5 T0103////", "KLOR 311355Z AUTO 00000KT 10SM SCT049 18/17 A3003 RMK AO2 SLP152 T01760166", "KLOT 311335Z AUTO 07005KT 1/4SM FG OVC002 13/13 A2984 RMK AO2", "KLOU 311353Z 18009KT 10SM FEW012 OVC070 16/14 A2992 RMK AO2 SLP128 T01560144", "KLOZ 311353Z AUTO 21004KT 10SM FEW008 OVC021 16/15 A2999 RMK AO2 RAE02 SLP148 P0000 T01560150", "KLPC 311356Z AUTO 06004KT 1/2SM FG OVC003 08/08 A2995 RMK AO2 SLP145 T00830083", "KLPR 311353Z AUTO 20008KT 10SM BKN010 BKN036 OVC070 16/13 A2989 RMK AO2 SLP122 T01560133", "KLQK 311355Z AUTO 3SM RA BKN005 BKN009 OVC015 13/13 A3005 RMK AO2 P0014 T01320132", "KLRD 311356Z 08005KT 10SM FEW036 18/14 A3000 RMK AO2 SLP156 T01780144", "KLRF 311356Z 24005KT 10SM CLR 14/13 A2998 RMK AO2A SLPNO RVRNO TSNO $", "KLRJ 311355Z AUTO 00000KT 9SM CLR M02/M03 A2991 RMK AO2", "KLRO 311355Z AUTO 09004KT 4SM BR CLR 23/23 A3006 RMK AO2", "KLRU 311355Z AUTO 34006KT 10SM CLR 10/M04 A3007 RMK AO2 T00961038", "KLRY 311355Z AUTO 00000KT 10SM CLR 11/06 A2997 RMK AO2", "KLSE 311353Z 00000KT 2SM BR FEW002 06/05 A2987 RMK AO2 SLP122 T00560050", "KLSF 311355Z AUTO 00000KT 10SM BKN040 BKN050 20/18 A3000 RMK AO2 SLP163 T01980183 CHINO RWY15 $", "KLSV 311355Z AUTO 00000KT 10SM CLR 08/M09 A3001 RMK AO2 SLP155 T00811093", "KLTS 311355Z 00000KT 10SM CLR 09/07 A3002 RMK AO2A SLP164 T00850066 $", "KLUA 311355Z AUTO 21004KT 10SM SCT060 BKN120 13/11 A3006 RMK AO2", "KLUD 311355Z AUTO 00000KT 10SM CLR 14/06 A3005 RMK AO2 T01370064", "KLUF 311355Z AUTO 03004KT 10SM CLR 10/01 A2993 RMK AO2 SLP131 T00990013 $", "KLUG 311355Z AUTO 19003KT 10SM FEW012 BKN050 OVC055 16/15 A2998 RMK A01", "KLUK 311353Z 19006KT 10SM SCT013 OVC070 17/16 A2993 RMK AO2 SLP131 T01670156", "KLUL 311355Z AUTO 27003KT 10SM OVC046 18/15 A3004 RMK A02 T01830153", "KLUM 311355Z AUTO 00000KT 5SM HZ CLR A2988 RMK AO2", "KLUV 311335Z AUTO 05004KT 7SM BR CLR 07/06 A3007 RMK AO2", "KLUX 311355Z AUTO 14007KT 1/2SM FG OVC001 15/15 A3004 RMK AO2", "KLVJ 311353Z AUTO 00000KT 9SM CLR 17/14 A3005 RMK AO2 SLP176 T01670139", "KLVK 311353Z 09004KT 10SM CLR 08/05 A2998 RMK AO2 SLP150 T00780050", "KLVL 311355Z AUTO 00000KT 10SM OVC032 16/15 A3012 RMK AO1 T01560147", "KLVM 311353Z AUTO 21028G38KT 10SM CLR 08/M02 A2987 RMK AO2 PK WND 20043/1328 SLP103 T00831022", "KLVN 311355Z AUTO 00000KT 7SM CLR 01/M01 A2989 RMK AO2", "KLVS 311353Z AUTO 00000KT 10SM CLR 02/M03 A3012 RMK AO2 SLP166 T00171028", "KLWA 311355Z AUTO 00000KT M1/4SM FG OVC002 13/12 A2984 RMK AO2 T01250117", "KLWB 311350Z 07005KT 7SM -RA SCT001 SCT009 OVC026 10/10 A3008", "KLWC 311352Z AUTO 30005KT 10SM CLR 10/07 A2996 RMK AO1 SLP144 T01000067", "KLWD 311353Z AUTO 32003KT 8SM CLR 08/04 A2992 RMK AO2 SLP136 T00780039", "KLWM 311354Z 22005KT 10SM CLR 12/07 A3009 RMK AO2 SLP189 T01220072", "KLWS 311356Z 00000KT 10SM -RA OVC070 10/07 A2984 RMK AO2 RAB00E15B44 SLP104 P0000 T01000072", "KLWT 311354Z AUTO 23024G33KT 10SM CLR 11/M01 A2976 RMK AO2 PK WND 23037/1323 SLP071 T01061011", "KLWV 311353Z AUTO 21006KT 3SM -RA BR OVC005 15/14 A2987 RMK AO2 RAB43 SLP114 P0000 T01500144 $", "KLXL 311355Z AUTO 00000KT 10SM CLR M01/M02 A2986 RMK AO2", "KLXN 311355Z AUTO 18003KT 5SM BR CLR M01/M04 A2995 RMK AO2 T10131041", "KLXT 311353Z AUTO 28004KT 10SM CLR 11/06 A2994 RMK AO2 SLP138 T01110056", "KLXV 311353Z AUTO 05008KT 10SM CLR M08/M12 A3021 RMK AO2 SLP210 T10831122", "KLYH 311354Z 00000KT 10SM -RA OVC017 13/11 A3010 RMK AO2 RAE12B30 SLP191 P0000 T01330111", "KLYO 311355Z AUTO 29005KT 10SM CLR 03/M02 A3002 RMK AO2 T00271016", "KLYV 311355Z AUTO 00000KT 10SM CLR M03/M03 A2991 RMK AO2", "KLZU 311356Z 05003KT 3SM -RA BR OVC004 14/14 A3005 RMK AO2 RAB51 SLPNO P0000 T01440139", "KLZZ 311335Z AUTO 00000KT 10SM CLR 12/10 A3003 RMK AO2 T01200096", "KM01 311355Z AUTO 25007KT 9SM OVC008 15/15 A2995 RMK AO2 CIG 007V010 T01540149 $", "KM02 311355Z AUTO 23007KT 8SM 15/14 A2995 RMK A01", "KM04 311355Z AUTO 25006KT 10SM OVC022 16/15 A2995 RMK A01", "KM08 311355Z AUTO 19004KT 10SM SCT008 BKN047 OVC065 16/15 A2995 RMK A01", "KM19 311356Z AUTO 27007KT 10SM OVC036 14/13 A2997 RMK AO2 SLP147 T01390128", "KM21 311355Z AUTO 20007KT 10SM OVC012 16/14 A2993 RMK AO2 T01560139", "KM25 311355Z AUTO 21007KT 10SM SCT009 BKN015 BKN070 15/14 A2993 RMK AO2 PWINO", "KM30 311355Z AUTO 19006KT 10SM OVC009 16/15 A2991 RMK AO2 T01580153", "KM40 311355Z AUTO 18004KT 7SM BKN019 SCT032 OVC060 16/16 A3002 RMK AO2", "KM54 311350Z AUTO 19006KT 10SM FEW020 FEW024 OVC060 16/15 A2995 RMK A01", "KM75 311355Z AUTO 04006KT 10SM SCT120 03/01 A2967 RMK A01", "KM91 311350Z AUTO 20007KT 8SM OVC065 15/15 A2994 RMK A01", "KMAE 311353Z AUTO 05003KT 10SM CLR 08/03 A2998 RMK AO2 SLP153 T00830028", "KMAF 311353Z 02003KT 8SM CLR 08/07 A3006 RMK AO2 SLP158 T00780067", "KMAI 311353Z AUTO 29003KT 10SM OVC030 19/17 A3002 RMK AO1 SLP166 T01890172", "KMAN 311355Z AUTO 00000KT 3SM HZ SCT001 03/M01 A3005 RMK A01", "KMAO 311355Z AUTO 12005KT 10SM CLR 19/16 A3009 RMK AO2", "KMAW 311355Z AUTO 23006KT 10SM OVC009 16/14 A2994 RMK AO1", "KMBG 311352Z AUTO 00000KT 10SM CLR 02/M01 A2979 RMK AO2 SLP098 T00221006", "KMBL 311356Z AUTO 00000KT 10SM CLR 08/06 A2985 RMK AO2 SLP114 T00780061", "KMBO 311355Z AUTO 00000KT 9SM OVC055 15/16 A3002 RMK AO2", "KMBS 311353Z 00000KT 3SM BR FEW033 OVC085 10/09 A2987 RMK AO2 SLP118 T01000089", "KMBT 311355Z AUTO 20008KT 10SM OVC055 16/14 A2996 RMK A01", "KMBY 311355Z AUTO 28003KT 10SM SCT120 12/09 A2991 RMK AO2", "KMCB 311353Z AUTO 00000KT 8SM CLR 16/14 A3004 RMK AO2 SLP170 T01610144", "KMCC 311355Z AUTO 08005KT 10SM CLR 11/05 A2998 RMK AO2", "KMCD 311355Z AUTO 00000KT 10SM CLR 07/06 A2985 RMK AO2 T00700057", "KMCE 311353Z AUTO 05003KT 10SM CLR 11/04 A2997 RMK AO2 SLP146 T01060039", "KMCF 311355Z AUTO 10004KT 10SM CLR 25/22 A2998 RMK AO2 SLP155 T02510218 FZRANO $", "KMCI 311353Z 30004KT 8SM FEW110 SCT160 SCT200 12/05 A2994 RMK AO2 SLP134 T01170050", "KMCJ 311355Z AUTO 00000KT 10SM CLR 19/12 A3002 RMK A01", "KMCK 311353Z AUTO 24009KT 7SM CLR 00/M06 A2998 RMK AO2 SLP163 T00001061", "KMCN 311353Z 18005KT 3SM BR OVC005 20/19 A3002 RMK AO2 SLP163 T02000194", "KMCO 311353Z 10004KT 10SM FEW033 SCT250 26/22 A3003 RMK AO2 SLP166 T02560222", "KMCW 311353Z AUTO 28004KT 10SM CLR 02/01 A2991 RMK AO2 SLP130 T00220006", "KMDD 311355Z AUTO 35003KT 10SM CLR 08/05 A3007 RMK AO2 T00770054", "KMDH 311356Z 00000KT 2 1/2SM BR SCT009 BKN015 OVC028 14/14 A2990 RMK AO2 RAE53 P0000 T01390139", "KMDS 311355Z AUTO 00000KT 10SM CLR 01/01 A2987 RMK AO2", "KMDT 311356Z 10004KT 3SM BR OVC003 10/08 A3008 RMK AO2 SLP188 T01000083", "KMDW 311353Z 07003KT 1/4SM R31C/2200V5500FT FG VV002 14/13 A2982 RMK AO2 SLP097 T01440128", "KMDZ 311355Z AUTO 00000KT 4SM CLR 02/02 A2985 RMK AO2 T00180018 PWINO", "KMEB 311352Z AUTO 13004KT 10SM BKN060 18/15 A3010 RMK AO2 SLP190 T01830150", "KMEH 311256Z AUTO 00000KT 10SM SCT050 BKN070 OVC085 11/03 A2991 RMK AO2 RAE08 SLP125 P0000 T01110033", "KMEI 311258Z 18004KT 8SM OVC049 16/15 A3001 RMK AO2 SLP161 T01610150", "KMEM 311354Z 24008KT 10SM BKN010 BKN015 OVC049 15/14 A2997 RMK AO2 SLP146 T01500139 $", "KMER 311355Z AUTO 08005KT 10SM CLR 07/06 A2997 RMK AO1", "KMEV 311355Z AUTO 12003KT 10SM CLR M05/M12 A3011 RMK AO2", "KMEZ 311355Z AUTO 00000KT 10SM 10/09 A3003 RMK AO2 T00950094", "KMFD 311352Z 18011KT 3SM BR OVC003 14/14 A2991 RMK AO2 SLP126 T01440139", "KMFE 311353Z 10009KT 10SM OVC060 23/18 A2997", "KMFI 311354Z AUTO 00000KT 7SM CLR 07/05 A2985 RMK AO2 SLP115 T00720050", "KMFR 311353Z AUTO 00000KT 10SM CLR 05/04 A3004 RMK AO2 SLP174 T00500039", "KMFV 311315Z AUTO 00000KT 10SM CLR 11/10 A3012 RMK AO2 T01100104", "KMGC 311335Z AUTO 00000KT 1 1/2SM -RA SCT020 SCT036 OVC047 13/12 A2983 RMK AO2", "KMGE 311355Z 08004KT 1 1/4SM BR OVC002 15/15 A3001 RMK AO2A SLP162 T01520149 $", "KMGG 311355Z AUTO 00000KT 10SM CLR 00/M01 A2989 RMK AO2 T00011010", "KMGJ 311354Z AUTO 20004KT 10SM CLR 07/05 A3008 RMK AO2 SLP190 T00720050", "KMGM 311353Z 24003KT 10SM CLR 16/16 A3004 RMK AO2 SLP171 T01610156 $", "KMGN 311355Z AUTO 00000KT 10SM CLR 08/06 A2986 RMK AO2 T00830069", "KMGR 311355Z AUTO 00000KT 5SM BR OVC006 21/19 A3004 RMK AO2", "KMGW 311353Z 18003KT 4SM -RA BR BKN018 OVC030 14/13 A3000 RMK AO2 RAB1256 SLP159 P0009 T01390133", "KMGY 311353Z AUTO 19009KT 10SM BKN007 OVC065 16/15 A2990 RMK AO2 SLP123 T01610150", "KMHE 311353Z AUTO 13003KT 10SM CLR 01/M02 A2987 RMK AO2 SLP125 T00061017", "KMHK 311352Z 00000KT 10SM CLR 07/02 A2999 RMK AO2 SLP156 T00720022", "KMHL 311355Z AUTO 29004KT 10SM CLR 10/08 A2993 RMK AO2", "KMHP 311335Z AUTO 16003KT 1 1/4SM BR OVC003 19/ A3005 RMK AO2 T0190////", "KMHR 311355Z 00000KT 10SM SCT250 09/04 A2997 RMK A01", "KMHS 311356Z AUTO 00000KT 10SM CLR 01/M02 A3003 RMK AO2 SLP191 T00111017", "KMHT 311353Z 00000KT 10SM FEW200 SCT250 09/03 A3006 RMK AO2 SLP194 T00940028", "KMHV 311400Z AUTO 00000KT 8SM CLR 07/M10 A3004 RMK A01", "KMIA 311353Z 00000KT 10SM FEW020 SCT080 27/24 A2999 RMK AO2 SLP155 T02720239", "KMIB 311355Z AUTO 28009KT 10SM CLR 07/00 A2968 RMK AO2 SLP065 T00730003 $", "KMIC 311353Z 00000KT 9SM CLR 01/M01 A2987 RMK AO2 SLP124 I1000 T00061011", "KMIE 311353Z 21009KT 10SM SCT010 OVC070 17/14 A2986 RMK AO2 SLP106 T01670139", "KMIV 311354Z AUTO VRB03KT 10SM CLR 13/12 A3010 RMK AO2 SLP193 T01330122 $", "KMIW 311353Z AUTO 30004KT 4SM BR CLR 04/02 A2990 RMK AO2 SLP131 T00390022", "KMJD 311335Z AUTO 00000KT M1/4SM FG OVC001 13/13 A3003 RMK AO2", "KMJQ 311355Z AUTO 21003KT 10SM CLR 02/00 A2990 RMK AO2", "KMKC 311354Z 00000KT 10SM CLR 12/07 A2993 RMK AO2 SLP136 T01170067", "KMKE 311352Z 35003KT 5SM BR BKN025 BKN090 12/10 A2984 RMK AO2 SLP106 T01220100", "KMKG 311355Z 00000KT 7SM BKN028 12/09 A2984 RMK AO2 VIS 2 RWY 14 SLP106 T01170094", "KMKJ 311355Z AUTO 07005KT 10SM DZ BKN003 BKN024 OVC030 11/11 A3009 RMK AO2 T01070105", "KMKL 311353Z 21008KT 9SM FEW008 OVC025 16/14 A2996 RMK AO2 SLP142 T01610144", "KMKN 311355Z AUTO 00000KT 10SM CLR 12/11 A3006 RMK AO2 T01230110", "KMKO 311353Z AUTO 00000KT 10SM CLR 11/09 A3003 RMK AO2 SLP167 T01060089", "KMKS 311355Z AUTO 00000KT 10SM OVC003 20/18 A3006 RMK AO2", "KMKT 311356Z AUTO 22004KT 7SM CLR 02/M02 A2990 RMK AO2 SLP134 T00171022 FZRANO", "KMKY 311356Z AUTO 07007KT 10SM CLR 27/22 A3000 RMK AO2 SLP158 T02670222 TSNO $", "KMLB 311353Z 02003KT 10SM FEW030 SCT043 27/23 A3002 RMK AO2 SLP163 T02670228", "KMLC 311353Z AUTO 00000KT 4SM BR CLR 08/07 A3003 RMK AO2 SLP167 T00830072", "KMLE 311335Z AUTO 00000KT 10SM CLR 02/00 A2996 RMK AO2 T00210000", "KMLF 311352Z AUTO 21006KT 10SM CLR M04/M07 A3017 RMK AO2 SLP226 T10441067", "KMLI 311352Z 00000KT 5SM BR CLR 10/08 A2986 RMK AO2 SLP113 T01000078", "KMLJ 311355Z AUTO 00000KT 1 1/4SM BR OVC003 19/19 A3002 RMK AO2", "KMLP 311353Z AUTO 21008G20KT 1 1/4SM -RA BR BKN004 OVC010 02/01 A2981 RMK AO2 PK WND 19026/1301 VIS 3/4V3 SLP059 P0006 T00170011", "KMLS 311353Z AUTO 16008KT 10SM CLR 02/M02 A2980 RMK AO2 SLP104 T00171022", "KMLT 311353Z AUTO 00000KT 10SM CLR 07/04 A3004 RMK AO2 SLP179 T00720039", "KMLU 311353Z 00000KT 8SM CLR 16/14 A3004 RMK AO2 SLP170 T01610144", "KMMH 311334Z AUTO 35003KT 10SM CLR M10/M17 A3019 RMK AO2", "KMMI 311355Z AUTO 00000KT 9SM SCT004 BKN023 OVC036 15/15 A3003 RMK A01", "KMMK 311353Z AUTO 14003KT 10SM BKN041 12/08 A3010 RMK AO2 SLP193 T01220078", "KMML 311356Z AUTO 21009KT 10SM CLR 04/01 A2988 RMK AO2 SLP130 T00440006", "KMMT 311355Z 11006KT 3SM BR OVC004 17/17 A3005 RMK AO2A SLP178 T01670165 $", "KMMU 311355Z 00000KT 5SM BR FEW140 11/11 A3011", "KMNE 311355Z AUTO 00000KT 5SM BR CLR 13/13 A3004 RMK AO2 T01300130", "KMNH 311355Z AUTO 22007KT 10SM CLR M01/M07 A3009 RMK AO2", "KMNI 311355Z AUTO 00000KT 3SM BR OVC002 16/16 A3007 RMK AO2", "KMNM 311356Z AUTO 33006KT 1 3/4SM BR CLR 04/04 A2984 RMK AO2 SLP109 T00440044 PNO $", "KMNV 311355Z AUTO 24005KT 10SM 16/16 A3001 RMK A01", "KMNZ 311355Z AUTO 35003KT 10SM 14/11 A3005 RMK AO2 T01360107", "KMOB 311356Z 00000KT 10SM FEW060 BKN250 18/14 A3005 RMK AO2 SLP173 T01780144 $", "KMOD 311353Z 11005KT 10SM CLR 07/05 A2996 RMK AO2 SLP145 T00720050", "KMOP 311355Z AUTO 00000KT 7SM OVC038 08/07 A2985 RMK AO2 T00820073", "KMOR 311355Z AUTO 11004KT 1SM BR OVC003 14/14 A3000 RMK A01", "KMOT 311354Z 23010KT 10SM CLR 08/00 A2970 RMK AO2 SLP066 T00830000", "KMOX 311355Z AUTO 17005KT 10SM CLR 01/M03 A2984 RMK AO2", "KMPO 311353Z AUTO 24006KT 10SM CLR 10/08 A3006 RMK AO2 SLP185 T01000083", "KMPR 311355Z AUTO 00000KT 10SM CLR 03/00 A3001 RMK AO2 T00270003", "KMPV 311351Z AUTO 00000KT 10SM CLR 07/M01 A3005 RMK AO2 SLP187 T00671011", "KMPZ 311330Z AUTO 30003KT 7SM CLR 10/10 A2988 RMK AO2", "KMQB 311338Z AUTO 31006KT 5SM -RA OVC028 A2988 RMK AO2", "KMQI 311355Z AUTO 07005KT 10SM CLR 18/13 A3012 RMK AO2 T01820131", "KMQJ 311355Z AUTO 19007KT 7SM OVC007 14/14 A2987 RMK AO1", "KMQS 311355Z AUTO 00000KT 2SM BR OVC001 11/11 A3011 RMK AO2", "KMQW 311335Z AUTO 18007KT 4SM BR OVC002 20/20 A3003 RMK AO2 T02050204", "KMQY 311356Z 17005KT 10SM OVC060 16/14 A2999 RMK AO2 SLP160 T01560144", "KMRB 311353Z 00000KT 7SM -RA SCT050 OVC065 09/08 A3006 RMK AO2 RAB21 SLP180 P0003 T00940078", "KMRC 311350Z AUTO 22005KT 5SM BR FEW013 OVC020 15/15 A2996 RMK A01", "KMRF 311356Z AUTO 04003KT 10SM CLR 08/03 A3008 RMK AO2 SLP153 T00780033", "KMRH 311258Z AUTO 06005KT 10SM BKN036 OVC043 18/16 A3010 RMK AO2 SLP192 T01780161", "KMRJ 311355Z AUTO 00000KT 10SM CLR 07/05 A2987 RMK AO2", "KMRN 311355Z AUTO 00000KT 4SM RA BKN001 OVC015 14/13 A3011 RMK AO2 P0003 T01350132", "KMRT 311355Z AUTO 22009KT 10SM OVC011 16/15 A2991 RMK AO2 T01560147 P0001", "KMRY 311354Z 26004KT 7SM OVC004 11/10 A2999 RMK AO2 SLP169 T01060100 $", "KMSL 311353Z AUTO 18003KT 7SM FEW010 BKN016 OVC065 16/14 A2999 RMK AO2 SLP152 T01610144", "KMSN 311353Z 35003KT 6SM BR BKN250 06/04 A2986 RMK AO2 SLP117 T00560039", "KMSO 311353Z 10SM BKN048 BKN060 10/03 A2985 RMK AO2 SLP110 T01000033", "KMSP 311353Z 00000KT 10SM BCFG FEW250 04/02 A2989 RMK AO2 SLP127 BCFG E-SE T00440017", "KMSS 311353Z AUTO 00000KT 10SM CLR 10/03 A2999 RMK AO2 SLP159 T01000033", "KMSV 311356Z AUTO 00000KT 10SM SCT120 09/06 A3008 RMK AO2 SLP193 T00940056", "KMSY 311353Z 16003KT 5SM BR FEW015 FEW040 SCT250 18/16 A3005 RMK AO2 SLP178 T01780161", "KMTC 311256Z 11003KT 1 1/4SM -RA BR OVC003 13/12 A2983 RMK AO2A P0011 T01260121", "KMTH 311353Z AUTO 12005KT 10SM CLR 29/24 A2996 RMK AO2 SLP145 T02940239 $", "KMTJ 311353Z AUTO 14009KT 10SM CLR M02/M04 A3018 RMK AO2 SLP213 T10171039", "KMTK 311340Z AUTO VRB04KT 10SM CLR 21/15 A3004 RMK A01", "KMTN 311354Z 00000KT 6SM BR OVC005 13/12 A3010", "KMTO 311353Z AUTO 20004KT 1 1/4SM BR OVC002 13/12 A2984 RMK AO2 SLP104 T01330122", "KMTP 311354Z AUTO 00000KT 15/13 A3011 RMK AO1 SLP195 T01500133", "KMTV 311355Z AUTO 00000KT 10SM BKN005 OVC012 13/11 A3013 RMK AO2 T01260113", "KMTW 311356Z AUTO 00000KT 6SM BR CLR 08/07 A2987 RMK AO2 SLP117 T00830072", "KMUI 311355Z 00000KT 7SM BKN006 OVC009 09/08 A3008 RMK AO2A SLP191 T00940075", "KMUO 311356Z AUTO 09012KT 10SM CLR 01/M02 A3002 RMK AO2 SLP176 T00111018 $", "KMUT 311355Z AUTO 27003KT 9SM CLR 10/09 A2988 RMK AO2", "KMVE 311355Z AUTO 18003KT 10SM CLR 02/M01 A2987 RMK AO2", "KMVH 311355Z AUTO 24004KT 10SM CLR 08/M02 A2977 RMK AO2 PWINO", "KMVL 311354Z AUTO 08003KT 10SM CLR 05/01 A3002 RMK AO2 SLP175 T00500011", "KMVN 311356Z AUTO 22006KT 6SM BR OVC007 14/13 A2989 RMK AO2 CIG 004V008 SLP124 T01390133", "KMVY 311353Z 19004KT 10SM OVC006 16/14 A3010 RMK AO2 SLP193 T01610144", "KMWA 311345Z 00000KT 4SM BR BKN003 OVC009 14/14 A2990", "KMWC 311345Z 35004KT 7SM OVC033 10/07 A2986", "KMWH 311352Z 32012KT 10SM OVC085 11/06 A2979 RMK AO2 WSHFT 1333 SLP089 T01110061", "KMWK 311355Z AUTO 00000KT 2SM RA OVC002 12/12 A3012 RMK AO2 T01230120", "KMWL 311353Z AUTO 00000KT 10SM CLR 10/09 A3003 RMK AO2 SLP164 T01000089", "KMWM 311355Z AUTO 00000KT 10SM CLR M02/M04 A2990 RMK AO2", "KMWN 311350Z 23016KT 110SM SCT090 SCT160 BKN200 08/M13 RMK", "KMWO 311355Z AUTO 19005KT 10SM BKN010 OVC015 16/16 A2992 RMK AO2 T01620160", "KMWT 311353Z AUTO 00000KT 4SM BR CLR 11/09 A2999 RMK AO2 SLP154 T01060094", "KMXF 311355Z AUTO 00000KT 6SM BR SCT001 16/14 A3002 RMK AO2 SLP168 T01550139", "KMYF 311353Z 00000KT 10SM CLR 11/07 A2991 RMK AO2 SLP124 T01110067", "KMYJ 311355Z AUTO 31003KT 5SM BR 11/11 A2990 RMK AO2", "KMYL 311351Z AUTO 00000KT 10SM OVC045 04/M01 A3001 RMK AO2 SLP164 T00391011", "KMYP 311355Z AUTO 24010KT 10SM CLR M06/M11 A3034 RMK AO2", "KMYR 311356Z 11009KT 10SM CLR 21/19 A3008 RMK AO2 SLP186 T02060189", "KMYV 311353Z AUTO 00000KT 10SM CLR 08/04 A2999 RMK AO2 SLP160 T00830039", "KMYZ 311330Z AUTO 00000KT 10SM CLR 03/01 A2997 RMK AO2", "KMZH 311355Z AUTO 00000KT 10SM CLR M01/M03 A2984 RMK AO2", "KMZJ 311355Z AUTO 17004KT 10SM CLR 07/M02 A2999 RMK AO2", "KMZZ 311355Z AUTO 20010KT 7SM BKN007 OVC080 15/15 A2986 RMK AO2 T01470147", "KN03 311355Z AUTO 00000KT 10SM CLR 08/06 A3002 RMK AO2", "KN38 311355Z AUTO 22004KT 10SM BKN048 BKN055 BKN070 08/06 A3001 RMK AO2", "KN60 311352Z AUTO 24008KT 05/02 A2973 RMK AO1 SLP083 T00500017", "KNAK 311354Z AUTO 16008KT 10SM SCT030 BKN110 16/13 A3009 RMK AO2 SLP190 T01610128", "KNBC 311356Z 00000KT 10SM FEW026 SCT031 BKN040 21/19 A3006 RMK AO2 RAB48E55 SLP178 P0000 T02060189", "KNBG 311355Z 00000KT 3SM BR FEW004 SCT120 BKN250 17/17 A3005 RMK AO2 SLP174 T01720167 $ ", "KNBT 311300Z AUTO 06008KT 10SM CLR 21/16 A3010 RMK AO2 SLP197 T02110161", "KNCA 311356Z 08003KT 10SM CLR 18/16 A3010 RMK AO2 SLP195 T01830156", "KNDZ 311356Z 00000KT 10SM FEW250 17/16 A3004 RMK AO2 SLP160 T01720156 $ ", "KNEL 311400Z AUTO 00000KT CLR 15/11 A3009 RMK AO2 SLP187 T01500106 $ ", "KNEW 311353Z 21003KT 3SM BR CLR 18/16 A3005 RMK AO2 SLP169 T01830161", "KNFE 311356Z AUTO 10004KT 10SM CLR 18/14 A3011 RMK AO2 SLP198 T01830144", "KNFG 311352Z AUTO 00000KT 10SM CLR 06/03 A2992 RMK AO2 SLP131 T00560028 $", "KNFL 311356Z 00000KT 10SM SCT220 M03/M09 A3009 RMK AO2 SLP157 T10281089 $", "KNFW 311352Z 29009KT 10SM BKN250 14/10 A3005 RMK AO2 SLP157 T01390106 $", "KNGP 311356Z 11006KT 10SM FEW025 FEW100 SCT250 BKN300 24/18 A3001 RMK AO2 SLP161 T02440183", "KNGU 311359Z VRB03KT 10SM FEW080 SCT200 18/15 A3013 RMK AO2 SLP201 T01780150 $ ", "KNHK 311352Z 19004KT 10SM FEW003 SCT025 BKN085 18/13 A3010 RMK AO2 SLP191 T01830133 ", "KNID 311356Z 22007KT 10SM SCT250 06/M11 A3002 RMK AO2 SLP163 T00611106 $", "KNIP 311353Z 00000KT 10SM FEW030 FEW150 SCT250 24/22 A3004 RMK AO2 SLP169 T02390217", "KNJK 311356Z 26005KT 10SM CLR 14/M05 A2991 RMK AO2 SLP143 T01391050 $", "KNJM 311357Z AUTO 10006KT 8SM SCT030 BKN037 21/16 A3011 RMK AO2 SLP199 T02110161 $", "KNJW 311257Z AUTO 22004KT 8SM OVC055 16/14 A3003 RMK AO2 SLP085 T01560139", "KNKT 311356Z 09005KT 10SM SCT038 BKN200 19/16 A3012 RMK AO2 SLP196 T01940156 ", "KNKX 311355Z 07007KT 10SM CLR 11/08 A2990 RMK AO2 SLP122 T01060083 $", "KNLC 311356Z 00000KT 10SM BKN130 BKN190 07/00 A2997 RMK AO2 SLP150 RH/62 T00670000", "KNMM 311356Z 00000KT 10SM BKN050 BKN120 17/15 A3003 RMK AO2 SLP178 T01670150", "KNOG 311356Z AUTO 04006KT 10SM CLR 17/14 A3003 RMK AO2 SLP149 T01670144 PNO $", "KNOW 311335Z AUTO 17008KT 4SM RA SCT043 SCT050 OVC060 09/09 A2974 RMK AO2 P0008 T00910091", "KNOZ 311359Z AUTO 01008KT 10SM CLR 14/M07 A2989 RMK AO2 SLP073 T01441072 TSNO $ ", "KNPA 311356Z 35003KT 10SM FEW007 SCT250 18/15 A3004 RMK AO2 SLP173 T01780150 ", "KNQA 311359Z 23009KT 10SM BKN009 OVC016 16/15 A2995", "KNQI 311356Z 03005KT 10SM SCT065 SCT250 19/15 A3000 RMK AO2 SLP157 T01890150 $", "KNQX 311253Z 07006KT 10SM FEW020 29/25 A2995 RMK AO2 SLP140 T02940250 $", "KNRB 311352Z VRB03KT 10SM FEW020 FEW045 FEW250 26/23 A3004 RMK AO2 SLP171 T02560233", "KNRN 311335Z AUTO 26005KT 10SM CLR M01/M05 A3001 RMK AO2", "KNRS 311353Z AUTO 06006KT 10SM CLR 13/06 A2991 RMK AO2 SLP127 T01280061 $", "KNSE 311356Z 00000KT 10SM FEW050 FEW250 18/14 A3004 RMK AO2 SLP160 T01780144 PNO $", "KNSI 311353Z 00000KT 10SM FEW005 FEW140 13/07 A2991 RMK SLP123 T01280072", "KNTD 311355Z 04003KT 10SM FEW190 09/07 A2992 RMK AO2 SLP133 T00890072 $", "KNTU 311356Z 10004KT 10SM FEW080 18/13 A3010 RMK AO2 SLP195 T01780133", "KNUC 311356Z 23008KT 7SM SCT006 BKN250 14/13 A2992 RMK AO2 SLP130 T01440133 $", "KNUI 311353Z AUTO 17006KT 10SM FEW070 BKN090 18/13 A3009 RMK AO2 SLP190 T01780133", "KNUQ 311355Z AUTO 00000KT 10SM OVC008 11/09 A2999 RMK AO2", "KNUW 311353Z 14018KT 10SM -RA SCT020 SCT042 OVC070 11/09 A2979 RMK AO2 SLP085 P0003 T01060094 VISNO $", "KNXF 311356Z AUTO 10SM 15/02 A2990 RMK AO2 SLP210 T01500017 PWINO $", "KNXP 311356Z AUTO 31009KT CLR 11/M09 A3007 RMK AO2 SLP160 T01061094 $ ", "KNY0 311334Z AUTO 00000KT 10SM CLR 05/02 A3006 RMK AO2", "KNYC 311351Z AUTO 00000KT 8SM CLR 13/08 A3012 RMK AO2 SLP190 T01330083 $", "KNYG 311356Z 18009KT 7SM FEW032 SCT042 OVC065 16/13 A3011 RMK AO2 RAB16E27 SLP196 P0000 T01610133 $", "KNYL 311357Z 27007KT 7SM CLR 14/M03 A2990 RMK AO2 SLP124 FIRST T01391028 $", "KNZY 311352Z 00000KT 10SM FEW002 FEW005 SCT250 13/11 A2990 RMK AO2 SLP123 T01280111 $", "KO05 311355Z AUTO 00000KT 1 1/2SM HZ SCT016 SCT038 M02/M08 A3009 RMK A01", "KO22 311355Z AUTO 00000KT 10SM CLR 07/02 A3001 RMK A01", "KO32 311355Z AUTO 10004KT 1 1/2SM -DZ CLR 07/03 A2997 RMK AO2 P0000 T00710034 $", "KO69 311355Z AUTO 00000KT 6SM BR OVC004 07/07 A2999 RMK A01", "KOAJ 311356Z 09006KT 10SM CLR 18/15 A3011 RMK AO2 SLP200 T01830150", "KOAK 311353Z 22006KT 10SM SCT008 BKN012 BKN230 13/11 A2999 RMK AO2 SLP154 T01280106", "KOAR 311355Z AUTO 13005KT 1/2SM OVC003 M06/M08 A2999 RMK AO2 PWINO", "KOBE 311335Z AUTO 05003KT 10SM CLR 25/25 A3000 RMK AO2", "KOCF 311351Z 00000KT 10SM CLR 23/22 A3004 RMK AO2 SLP172 T02280217 PNO $", "KOCH 311356Z AUTO 00000KT 7SM CLR 12/12 A3006 RMK AO2 SLP182 T01170117", "KOCQ 311355Z AUTO 00000KT 2 1/2SM CLR 02/02 A2984 RMK AO1 T00200020", "KOCW 311335Z AUTO 11003KT 10SM OVC047 15/14 A3012 RMK AO2 T01520143", "KODO 311353Z AUTO 06007KT 10SM CLR 09/06 A3006 RMK AO2 SLP157 T00940061", "KODX 311353Z AUTO 00000KT 10SM CLR M02/M04 A2992 RMK AO2 SLP151 T10221039", "KOEB 311355Z AUTO 00000KT 1 1/4SM BR OVC002 13/12 A2985 RMK AO2 T01250122", "KOEL 311355Z AUTO 29007KT 10SM CLR 03/M07 A2999 RMK AO1 T00261069", "KOEO 311355Z AUTO 00000KT 1 1/4SM BR BKN001 M01/M01 A2991 RMK AO2 T10071007", "KOFF 311355Z 29005KT 10SM CLR 04/00 A2997 RMK AO2A SLP157 T00400003 PWINO PNO FZRANO TSNO $", "KOFK 311356Z AUTO 11003KT 10SM CLR 01/M01 A2992 RMK AO2 SLP142 T00111006", "KOFP 311354Z AUTO VRB03KT 10SM BKN029 OVC036 16/13 A3012 RMK AO2 SLP197 T01610128", "KOGA 311355Z AUTO 25007KT 10SM CLR M01/M06 A2996 RMK AO2 T10131061", "KOGB 311353Z AUTO 00000KT 2 1/2SM BR OVC003 17/16 A3007 RMK AO2 SLP180 T01670161", "KOGD 311353Z 17006KT 10SM CLR 03/M04 A3015 RMK AO2 SLP203 T00281039", "KOGS 311355Z AUTO 19005KT 10SM CLR 10/03 A2995 RMK AO2", "KOIC 311355Z AUTO 19003KT 10SM CLR 07/04 A3006 RMK AO2 T00700044", "KOIN 311355Z AUTO 00000KT 10SM CLR 00/M06 A3002 RMK AO1 T10041056", "KOJA 311355Z AUTO 03003KT 10SM CLR 06/04 A3004 RMK AO2 T00650043", "KOJC 311353Z 28005KT 10SM CLR 13/06 A2994 RMK AO2 SLP136 T01280056", "KOKB 311352Z AUTO 01004KT 10SM CLR 08/04 A2991 RMK AO2 SLP126 T00830044", "KOKC 311352Z 19004KT 10SM FEW200 SCT250 06/05 A3003 RMK AO2 SLP168 T00610050", "KOKK 311356Z AUTO 20009KT 9SM FEW007 OVC080 15/ A2985 RMK AO2 SLPNO T0150 PNO $", "KOKM 311355Z AUTO 00000KT 10SM CLR 10/07 A3002 RMK AO2 T00990066", "KOKV 311355Z AUTO 09003KT 10SM -RA SCT070 BKN110 09/07 A3005 RMK AO2", "KOKZ 311355Z AUTO 17004KT 1 1/2SM BR OVC002 19/19 A3003 RMK AO2 T01900185", "KOLE 311355Z AUTO 20007KT 10SM BKN021 OVC029 07/03 A2999 RMK AO2", "KOLF 311353Z AUTO 00000KT CLR M01/M02 A2975 RMK AO2 SLP088 T10061017 $", "KOLG 311355Z AUTO 00000KT 10SM SCT002 M02/M03 A2984 RMK AO1", "KOLM 311354Z AUTO 20007KT 10SM -RA FEW007 BKN050 OVC060 12/11 A2982 RMK AO2 RAB00 SLP098 P0001 T01170106", "KOLU 311356Z AUTO 00000KT 10SM CLR 03/02 A2996 RMK AO2 SLP157 T00280022", "KOLV 311350Z 23008KT 10SM SCT009 BKN019 BKN047 16/16 A2996", "KOLY 311355Z AUTO 21003KT 7SM OVC007 14/13 A2988 RMK AO2 T01370131", "KOLZ 311355Z AUTO 32005KT 5SM BR CLR 03/03 A2989 RMK A01", "KOMA 311352Z 00000KT 10SM BCFG FEW250 03/02 A2996 RMK AO2 SLP149 T00280017", "KOMH 311355Z AUTO 19006KT 10SM SCT020 SCT025 OVC031 14/09 A3011 RMK AO2", "KOMK 311353Z AUTO 15007KT 10SM SCT110 10/08 A2972 RMK AO2 SLP066 T01000078", "KOMN 311350Z 00000KT 7SM FEW020 27/27 A3004", "KONA 311335Z AUTO 31005KT 4SM BR CLR 02/01 A2989 RMK AO2", "KONL 311355Z AUTO 21005KT 10SM CLR 02/M02 A2990 RMK AO2 T00151025", "KONM 311355Z AUTO 32006KT 10SM CLR 04/M04 A3011 RMK AO2 T00401045", "KONO 311353Z AUTO 00000KT 8SM CLR 02/M01 A3007 RMK AO2 SLP192 T00171006", "KONP 311355Z AUTO 19014G20KT 3SM DZ OVC004 12/11 A2998 RMK AO2 P0001", "KONT 311353Z 00000KT 10SM FEW250 13/01 A2993 RMK AO2 SLP128 T01280006", "KONX 311355Z AUTO 00000KT 10SM CLR 17/13 A3011 RMK AO2 T01690133", "KONZ 311355Z AUTO 15004KT 2 1/2SM HZ OVC002 13/10 A2985 RMK AO2 T01310103 P0001", "KOOA 311355Z AUTO 30004KT 4SM CLR 06/06 A2990 RMK AO2 T00620062", "KOPF 311353Z VRB03KT 10SM SCT065 SCT075 28/23 A2999 RMK AO2 SLP157 T02780233", "KOPL 311355Z AUTO 00000KT 10SM CLR 16/16 A3005 RMK AO2 T01560156", "KOPN 311355Z AUTO 21004KT 7SM OVC003 22/20 A3004 RMK AO2", "KOQN 311355Z AUTO 00000KT 10SM BKN004 BKN026 12/10 A3010 RMK AO2", "KOQT 311353Z AUTO VRB03KT 10SM OVC007 16/15 A3002 RMK AO2 CIG 005V010 SLP159 T01560150", "KORB 311353Z AUTO 17003KT 10SM CLR 03/M01 A2976 RMK AO2", "KORD 311351Z 05005KT 1 1/4SM BR OVC003 13/12 A2983 RMK AO2 SFC VIS 1 3/4 SLP101 T01280117", "KORE 311352Z AUTO 00000KT 10SM CLR 06/02 A3009 RMK AO2 SLP194 T00610022", "KORF 311351Z 10003KT 10SM CLR 17/14 A3010 RMK AO2 SLP193 T01720139", "KORG 311335Z AUTO 00000KT 5SM BR CLR 17/16 A3006 RMK AO2 T01650156", "KORH 311354Z 25014G21KT 10SM CLR 13/09 A3007 RMK AO2 SLP185 T01280089", "KORL 311353Z 09003KT 10SM CLR 26/22 A3003 RMK AO2 SLP171 T02560222", "KORS 311355Z AUTO 18008KT 6SM -RA BR OVC013 10/10 A2972 RMK AO2 P0002", "KOSA 311355Z AUTO 00000KT 5SM HZ CLR 09/ A3004 RMK AO2 T0091////", "KOSC 311355Z AUTO 00000KT 7SM BKN070 OVC100 09/09 A2987 RMK AO2 T00900090", "KOSH 311353Z 00000KT 5SM HZ CLR 08/04 A2985 RMK AO2 SLP113 T00830044", "KOSU 311353Z 18008KT 10SM BKN008 OVC029 17/15 A2991 RMK AO2 RAB06E23 CIG 005V013 SLP128 P0001 T01670150", "KOTG 311356Z AUTO 24007KT 10SM CLR 05/M01 A2991 RMK AO2 SLP141 T00501006", "KOTH 311356Z AUTO 13007KT 10SM OVC016 11/09 A3004 RMK AO2 SLP173 T01110094", "KOTM 311353Z AUTO 28006KT 5SM BR CLR 07/06 A2990 RMK AO2 SLP126 T00670056", "KOUN 311348Z 22003KT 10SM CLR 08/06 A3002", "KOVE 311353Z AUTO 00000KT 10SM CLR 13/04 A3000 RMK AO2 SLP161 T01330039", "KOVL 311355Z AUTO 00000KT 10SM CLR M01/M03 A2988 RMK A", "KOVS 311353Z AUTO 00000KT M1/4SM FG VV002 02/02 A2989 RMK AO2 SLP128 T00220022", "KOWA 311353Z AUTO 00000KT 7SM CLR 01/M01 A2989 RMK AO2", "KOWB 311356Z 20007KT 7SM -RA OVC010 16/14 A2991 RMK AO2 RAB53 SLP128 P0000 T01560144", "KOWD 311353Z 17005KT 10SM FEW005 14/12 A3008 RMK AO2 SLP187 T01390122", "KOWP 311355Z AUTO 00000KT 10SM CLR 10/09 A3004 RMK AO2 T00980087", "KOWX 311335Z AUTO 00000KT 7SM OVC015 16/15 A2988 RMK AO1", "KOXB 311253Z AUTO 00000KT 10SM 13/13 A3011 RMK AO2 SLP197 T01280128", "KOXC 311351Z 21005KT 10SM SCT029 12/08 A3011 RMK AO2 SLP209 T01170083", "KOXD 311355Z AUTO 20007KT 10SM OVC006 17/16 A2990 RMK AO2 T01730157", "KOXI 311355Z AUTO 00000KT 3/4SM BKN002 OVC007 13/13 A2982 RMK AO1", "KOXR 311351Z 00000KT 10SM CLR 09/05 A2991 RMK AO2 SLP128 T00890050 $", "KOXV 311355Z AUTO 30005KT 8SM CLR 06/04 A2991 RMK AO2", "KOYM 311355Z AUTO 00000KT 10SM SCT033 OVC090 08/06 A3002 RMK AO2 PWINO", "KOZA 311335Z AUTO 29005KT 10SM CLR 10/07 A3008 RMK AO2", "KOZR 311355Z AUTO 31003KT 10SM FEW045 16/15 A3002 RMK AO2 SLP167 T01640154", "KOZS 311355Z AUTO 25006KT 7SM SCT090 11/11 A2994 RMK AO2", "KOZW 311355Z AUTO 11003KT 1 1/4SM BR OVC003 13/12 A2985 RMK AO2 T01250122 P0001", "KP08 311355Z AUTO 07005KT 10SM CLR 09/01 A2997 RMK AO2", "KP28 311356Z AUTO 36005KT 02/M01 A3002 RMK AO1 SLP169 T00221011 ", "KP53 311356Z AUTO 18004KT 06/04 A2982 RMK AO1 SLP103 T00560044 ", "KP58 311355Z AUTO 16004KT 12/11 A2985 RMK AO1 SLP111 T01170111", "KP59 311351Z AUTO 24006KT 07/06 A2980 RMK AO1 SLP097 T00720056", "KP60 311356Z AUTO 00000KT M01/M03 A3011 RMK AO1 SLP202 T10061033", "KP68 311353Z AUTO 22006KT M04/M08 A3015 RMK AO1 SLP205 T10391083", "KP69 311352Z AUTO 35004KT 07/06 A2995 RMK AO1 SLP149 P0002 T00670056", "KP92 311359Z AUTO 00000KT 19/18 A3004 RMK AO1 SLP172 T01890178 ", "KPAE 311353Z 17015G27KT 10SM BKN006 OVC013 11/10 A2977 RMK AO2 PK WND 17027/1351 CIG 004V008 SLP081 T01110100", "KPAH 311353Z VRB04KT 10SM OVC013 17/14 A2990 RMK AO2 SLP123 T01670139 $", "KPAM 311355Z 02003KT 10SM BKN031 20/16 A3002 RMK AO2A SLP169 T01980156 $", "KPAN 311355Z AUTO 02008KT 10SM CLR 08/M07 A3010 RMK AO2 PWINO TSNO", "KPAO 311347Z 21004KT 7SM BR BKN008 08/09 A3000", "KPBF 311353Z AUTO 29004KT 9SM OVC055 15/13 A3000 RMK AO2 SLP157 T01500133", "KPBG 311353Z AUTO 00000KT 10SM CLR 10/00 A3001 RMK AO2 SLP162 T01000000", "KPBH 311355Z AUTO 00000KT 10SM CLR 00/00 A2986 RMK AO2 T00000000", "KPBI 311353Z 12006KT 10SM SCT021 SCT200 28/23 A3000 RMK AO2 SLP159 T02830228", "KPBX 311355Z AUTO 16003KT 5SM -DZ BKN009 OVC033 15/15 A3001 RMK AO2 T01470147", "KPCD 311355Z AUTO 28007KT 210V320 10SM OVC015 14/13 A2990 RMK AO2 T01390134", "KPCM 311355Z AUTO 11003KT 10SM CLR 27/23 A3004 RMK AO2", "KPCW 311355Z AUTO 20007KT 9SM FEW010 BKN034 OVC041 15/15 A2986 RMK AO2", "KPCZ 311355Z AUTO 00000KT 5SM BR CLR 05/05 A2986 RMK AO2 T00510045", "KPDC 311355Z AUTO 00000KT 3SM BR SCT001 03/02 A2989 RMK AO2 T00310021", "KPDK 311353Z VRB03KT 1/2SM FG OVC003 15/15 A3003 RMK AO2 RAB11E33 SLP167 P0000 T01500150", "KPDT 311353Z 33008KT 9SM BKN060 11/07 A2987 RMK AO2 RAB19E31 SLP107 P0000 T01060067", "KPDX 311353Z 28005KT 9SM -RA SCT015 BKN025 OVC035 13/11 A2993 RMK AO2 SLP135 P0003 T01280106 $", "KPEA 311355Z AUTO 30006KT 10SM CLR 06/04 A2991 RMK AO2 T00620039", "KPEO 311353Z AUTO 21010KT 10SM SCT110 11/05 A2998 RMK AO2 SLP155 T01060050", "KPEQ 311355Z AUTO 00000KT 10SM CLR 09/06 A3004 RMK AO2 T00850057", "KPEX 311355Z AUTO 00000KT 10SM CLR M02/M03 A2988 RMK AO2", "KPEZ 311355Z AUTO 00000KT 10SM CLR 15/13 A3004 RMK AO2 T01540130", "KPGD 311353Z 06005KT 10SM CLR 26/23 A3001 RMK AO2 SLP161 T02560228", "KPGV 311355Z AUTO 15003KT 10SM CLR 16/16 A3011 RMK AO2", "KPHD 311353Z AUTO 13004KT 8SM OVC005 14/13 A2994 RMK AO2 SLP141 T01390133", "KPHF 311354Z 00000KT 10SM FEW065 16/13 A3012 RMK AO2 SLP197 T01610128", "KPHL 311354Z 00000KT 7SM OVC029 12/10 A3010 RMK AO2 SLP194 T01220100 $", "KPHN 311355Z AUTO 00000KT 1 1/2SM RA OVC002 13/11 A2987 RMK AO2", "KPHP 311355Z AUTO 28008KT 10SM CLR 01/M04 A2986 RMK AO2 SLP120 T00111044", "KPHT 311355Z AUTO 19007KT 7SM BKN006 OVC019 15/15 A2993 RMK A01", "KPHX 311351Z 10005KT 10SM FEW250 13/03 A2993 RMK AO2 SLP126 T01330028", "KPIA 311354Z 01003KT 1SM R04/P6000FT -RA BR OVC003 12/12 A2984 RMK AO2 SLP104 P0001 T01220117", "KPIB 311356Z AUTO 00000KT 10SM OVC043 18/16 A3005 RMK AO2 SLP175 T01830156", "KPIE 311353Z 13005KT 10SM CLR 25/23 A3001 RMK AO2 SLP163 T02500228", "KPIH 311353Z 36003KT 10SM CLR 00/M04 A3010 RMK AO2 SNE1255 SLP203 P0000 T00001039", "KPIL 311353Z AUTO 10006KT 10SM OVC080 24/20 A2997 RMK AO2 SLP148 T02390200", "KPIM 311355Z AUTO 21006KT 10SM BKN007 BKN014 OVC029 19/18 A3003 RMK AO2 T01870175", "KPIR 311253Z AUTO 25006KT 10SM CLR 00/M05 A2982 RMK AO2 SLP109 T00001050", "KPIT 311351Z 15005KT 1SM R28R/5000VP6000FT -RA BR BKN003 OVC007 11/11 A2996 RMK AO2 SLP156 P0012 T01110106", "KPKB 311353Z 19008KT 10SM BKN010 OVC023 15/14 A2998 RMK AO2 SLP148 T01500139", "KPKD 311353Z AUTO 17003KT 10SM CLR 01/M02 A2980 RMK AO2 SLP106 T00111022", "KPKV 311355Z AUTO 04003KT 7SM CLR 17/15 A3003 RMK AO2 T01650151", "KPLN 311354Z AUTO 00000KT 10SM CLR 07/05 A2986 RMK AO2 SLP117 T00670050", "KPLR 311355Z AUTO 00000KT M1/4SM FG OVC002 16/16 A3003 RMK A01", "KPLU 311355Z AUTO 18007KT 10SM -DZ BKN055 OVC065 11/11 A2983 RMK AO2", "KPMD 311353Z 23005KT 10SM CLR 05/M06 A3003 RMK AO2 SLP162 T00501061", "KPMH 311355Z AUTO 18003KT 10SM BKN009 OVC013 18/15 A2996 RMK AO2 T01750154", "KPMP 311353Z 10005KT 10SM SCT018 SCT090 28/24 A2999 RMK AO2 SLP156 T02830239", "KPMU 311355Z AUTO 24003KT 10SM CLR 16/14 A2998 RMK AO2", "KPMV 311355Z AUTO 28005KT 10SM CLR 03/00 A2995 RMK AO2 T00300001", "KPNA 311355Z AUTO 00000KT 10SM OVC050 M04/M06 A3013 RMK AO2", "KPNC 311353Z AUTO 00000KT 10SM CLR 07/04 A3002 RMK AO2 SLP164 T00720039", "KPNE 311354Z 00000KT 4SM BR SCT002 BKN036 11/10 A3011 RMK AO2 SLP197 T01110100", "KPNM 311355Z AUTO 00000KT 10SM CLR M01/M02 A2987 RMK AO2 TSNO", "KPNS 311353Z 33003KT 7SM CLR 19/16 A3004 RMK AO2 SLP173 T01940156", "KPNT 311335Z AUTO 05004KT 1SM BR BKN003 OVC014 13/13 A2983 RMK AO2 T01250125", "KPOB 311355Z AUTO 00000KT 10SM OVC060 17/14 A3009 RMK AO2 SLP192 T01660135 $", "KPOC 311347Z 10006KT 10SM CLR A2994", "KPOE 311355Z AUTO 00000KT 10SM CLR 15/14 A3004 RMK AO2 SLP174 T01460144", "KPOF 311353Z AUTO 29003KT 10SM -RA FEW008 BKN016 OVC021 15/14 A2992 RMK AO2 RAB52 SLP131 P0000 T01500139", "KPOU 311353Z 00000KT 10SM OVC035 11/07 A3008 RMK AO2 SLP183 T01060067", "KPOV 311355Z AUTO 18004KT 10SM OVC005 13/11 A2992 RMK AO2 T01300110 PWINO", "KPOY 311355Z AUTO 26011KT 10SM CLR 06/M06 A2989 RMK AO2", "KPPA 311335Z AUTO 28006KT 10SM CLR 07/03 A3006 RMK AO2 T00720032", "KPPF 311352Z AUTO 00000KT 10SM FEW120 11/07 A2999 RMK AO2 SLP154 T01060067", "KPPO 311355Z AUTO 00000KT 1/2SM FG OVC001 13/13 A2983 RMK AO2 T01300130", "KPPQ 311355Z AUTO 00000KT 1 1/4SM BKN004 OVC011 11/11 A2988 RMK AO2 P0003 T01130113", "KPQI 311356Z AUTO 00000KT 10SM CLR 07/01 A3001 RMK AO2 SLP192 T00670011", "KPQL 311353Z 00000KT 10SM CLR 18/16 A3004 RMK AO2 SLP175 T01780161", "KPRB 311353Z AUTO 00000KT 10SM CLR 05/00 A3002 RMK AO2 SLP163 T00500000", "KPRC 311353Z 21005KT 10SM CLR 01/M06 A3010 RMK AO2 SLP172 T00061061", "KPRG 311355Z AUTO 22009KT 2 1/2SM BR OVC004 14/14 A2985 RMK AO2 T01400140", "KPRN 311322Z AUTO 00000KT 4SM BR SCT001 12/12 A3002 RMK AO2 T01220122 $", "KPRO 311355Z AUTO 00000KT 10SM CLR 04/01 A2993 RMK AO2 T00360007", "KPRS 311355Z AUTO 30005KT 10SM SCT120 14/08 A3003 RMK AO2 T01380078", "KPRX 311356Z AUTO 00000KT 10SM CLR 12/12 A3004 RMK AO2 SLP171 T01220122", "KPSC 311353Z 22008KT 10SM BKN075 14/07 A2983 RMK AO2 SLP099 T01390072", "KPSF 311354Z AUTO 00000KT 10SM BKN019 08/02 A3006 RMK AO2 SLP179 T00780022", "KPSK 311335Z AUTO 00000KT 7SM BKN002 BKN009 OVC014 11/11 A3009 RMK AO2 T01120112", "KPSM 311355Z 26004KT 10SM FEW200 BKN250 13/08 A3006 RMK AO2A SLP182 T01260075", "KPSN 311335Z AUTO 5SM BR CLR 12/12 A3003 RMK AO2", "KPSO 311355Z AUTO 00000KT 10SM CLR M04/M06 A3019 RMK AO2 T10401061", "KPSP 311353Z 32006KT 10SM CLR 17/M08 A2994 RMK AO2 SLP136 T01671078", "KPSX 311353Z AUTO 05003KT 10SM CLR 16/15 A3003 RMK AO2 SLP169 T01610150", "KPTB 311355Z AUTO 00000KT 10SM SCT005 OVC060 14/13 A3012 RMK AO2 T01420127", "KPTD 311355Z AUTO 19004KT 10SM CLR 12/03 A2997 RMK AO2", "KPTK 311353Z 00000KT 1SM R09R/P6000FT -RA BR OVC003 12/12 A2986 RMK AO2 RAB24 SLP112 P0001 T01170117", "KPTN 311356Z AUTO 00000KT 10SM CLR 17/16 A3006 RMK AO2 SLP180 T01670156 $", "KPTS 311355Z AUTO 21004KT 10SM BKN110 10/10 A2997 RMK AO2 T01040102 PWINO", "KPTT 311335Z AUTO 29008KT 10SM CLR 02/M02 A3003 RMK AO2 T00211020", "KPTV 311356Z AUTO 07005KT 10SM CLR 10/02 A2999 RMK AO2 SLP154 T01000022", "KPTW 311354Z AUTO 00000KT 5SM BR OVC029 09/07 A3011 RMK AO2 SLP195 T00890072", "KPUB 311353Z 25004KT 10SM CLR M01/M08 A3003 RMK AO2 SLP172 T10111078", "KPUC 311353Z AUTO 00000KT 10SM CLR M01/M09 A3013 RMK AO2 SLP221 T10111094", "KPUJ 311355Z AUTO 00000KT M1/4SM -RA OVC003 15/15 A3002 RMK AO2", "KPUW 311353Z AUTO 11005KT 7SM -RA OVC041 08/07 A2985 RMK AO2 RAB26 SLP113 P0000 T00830072", "KPVB 311355Z AUTO 35003KT 7SM CLR 05/04 A2987 RMK AO1 T00540043", "KPVC 311356Z AUTO 22004KT 10SM FEW002 OVC023 13/13 A3011 RMK AO2 SLP194 T01280128", "KPVD 311351Z 16003KT 10SM BKN025 13/11 A3010 RMK AO2 SLP191 T01280106", "KPVF 311355Z AUTO 09004KT 10SM CLR 14/M02 A3004 RMK AO1", "KPVG 311356Z AUTO 00000KT 10SM OVC070 15/13 A3013 RMK AO2 SLP203 T01500133 PNO $", "KPVJ 311355Z AUTO 00000KT 7SM CLR 07/07 A3003 RMK AO2 T00710071", "KPVU 311356Z 00000KT 10SM SCT200 00/M03 A3020 RMK AO2 SLP233 T00001033", "KPVW 311330Z AUTO 00000KT 10SM CLR 05/04 A3006 RMK AO2 T00520036", "KPWA 311353Z 00000KT 10SM CLR 10/06 A3002 RMK AO2 SLP165 T01000061", "KPWC 311355Z AUTO 00000KT 10SM CLR M01/M03 A2985 RMK AO2", "KPWD 311355Z AUTO 19004KT 10SM CLR 01/M01 A2972 RMK AO2", "KPWG 311356Z AUTO 00000KT CLR 13/11 A3005 RMK AO2 SLP172 T01330111 PWINO $", "KPWK 311352Z 06004KT 1SM BR OVC003 13/12 A2984 RMK AO2 SLP106 T01280117", "KPWM 311351Z 22006KT 10SM SCT250 11/03 A3006 RMK AO2 SLP178 T01110028", "KPWT 311356Z AUTO 20012G17KT 10SM -RA OVC003 11/11 A2978 RMK AO2 SLP088 P0004 T01110111", "KPXE 311335Z AUTO 18004KT 1 3/4SM BR OVC006 20/20 A3003 RMK AO2 VIS 1 1/4V2 1/2 T01960195", "KPYM 311352Z AUTO 21003KT 10SM BKN019 13/12 A3009 RMK AO2 SLP191 T01330122", "KPYX 311355Z AUTO 00000KT 10SM CLR 03/M01 A3003 RMK AO2 T00251015", "KPZQ 311355Z AUTO 00000KT 10SM CLR 11/07 A2987 RMK AO2 T01140067", "KPZZ 311355Z AUTO 05006KT 8SM CLR 22/14 A3005 RMK A01", "KQAZ 311355Z AUTO 10011G19KT 060V150 9999 CLR 32/M01 A2996 RMK AO2 SLP144 WND DATA ESTMD T03151006", "KQBL 311355Z AUTO 01003KT 10SM CLR 19/14 A3005 RMK AO2 SLP182 WND DATA ESTMD T01880142", "KQD3 311355Z AUTO 09010G17KT 060V120 M M CLR 30/20 A2987 RMK AO2 SLP100 WND DATA ESTMD T02950196 $", "KQDG 311355Z AUTO 16007KT 9999 OVC038 13/07 A3027 RMK AO2 SLPNO T01340067", "KQEI 311350Z AUTO 14001KT 9000 CLR 07/06 A3022 RMK A02 TSNO", "KQEJ 311350Z AUTO 33001KT 9999 CLR 21/21 / RMK A02 TSNO", "KQEN 311400Z AUTO 25003KT M0400 -SHRA FG CLR / / RMK A02 TSNO", "KQEP 311400Z AUTO 00000KT 9999 FEW110 10/08 A3025 RMK A02 TSNO", "KQEQ 311400Z AUTO 17002KT 2800 BR CLR 11/12 / RMK A02 TSNO", "KQER 311350Z AUTO 01001KT 9999 CLR 07/06 A3019 RMK A02 TSNO", "KQEV 311350Z AUTO 00000KT 8000 CLR 09/08 A3020 RMK A02 TSNO", "KQEW 311400Z AUTO 30001KT 9999 FEW150 09/07 A3023 RMK A02 TSNO", "KQEX 311340Z AUTO 33001KT 9999 CLR 11/07 A3016 RMK A02 TSNO", "KQEY 311350Z AUTO 02001KT 9999 CLR 09/07 A2995 RMK A02 TSNO", "KQFB 311350Z AUTO 29002KT 9999 CLR 08/06 A3029 RMK A02 TSNO", "KQFT 311350Z AUTO 00000KT 4800 CLR 09/08 A3022 RMK A02 TSNO", "KQFU 311400Z AUTO 13001KT 8000 CLR 10/08 A3027 RMK A02 TSNO", "KQFV 311400Z AUTO 13002KT 9999 CLR 06/05 A3026 RMK A02 TSNO", "KQFW 311350Z AUTO 00000KT 8000 CLR 06/05 A3006 RMK A02 TSNO", "KQFX 311400Z AUTO 12001KT 9000 FEW120 18/16 / RMK A02 TSNO", "KQHY 311355Z AUTO 03003KT 10SM CLR 19/14 A3004 RMK AO2 SLP179 T01890142", "KQN3 311355Z AUTO VRB05G12KT 9999 CLR 37/03 A2988 RMK AO2 SLP107 WND DATA ESTMD T03700032", "KQRH 311355Z AUTO 10007G13KT 000V150 9999 CLR 29/20 A2982 RMK AO2 SLP101 WND DATA ESTMD T02930202", "KQTZ 311255Z 19003KT 9999 FEW140 33/09 A2978 RMK SLP082 WND DATA ESTMD ALSTG/SLP ESTMD", "KQVF 311355Z AUTO 14010G17KT 9999 FEW021 SCT041 28/23 A2989 RMK AO2 LTG DSNT N SLP124 WND DATA ESTMD T02760228", "KRAC 311353Z AUTO 00000KT 1 1/2SM BR OVC014 12/11 A2986 RMK AO2 SLP114 T01170106", "KRAL 311353Z 05004KT 10SM CLR 12/M02 A2993 RMK AO2 SLP123 T01221017", "KRAP 311352Z 29008KT 10SM CLR 04/M08 A2987 RMK AO2 SLP130 T00391078", "KRAS 311355Z AUTO 09007KT 10SM CLR A3003 RMK AO2", "KRAW 311355Z AUTO 00000KT 10SM SCT120 11/10 A2994 RMK AO2", "KRBD 311353Z 32003KT 10SM CLR 14/12 A3003 RMK AO2 SLP165 T01440122", "KRBG 311353Z AUTO 00000KT 10SM OVC017 12/11 A3003 RMK AO2 SLP167 T01220106", "KRBL 311354Z AUTO 31005KT 10SM CLR 10/02 A3000 RMK AO2 SLP157 T01000017", "KRBO 311335Z AUTO 10SM CLR 18/16 A3001 RMK AO2 T01790162", "KRBW 311335Z AUTO 00000KT 1/2SM FG OVC003 18/18 A3007 RMK AO2", "KRCA 311355Z AUTO 29007KT 10SM CLR 02/M08 A2984 RMK AO2 SLP120 T00161082 $", "KRCE 311355Z AUTO 00000KT 10SM CLR 07/05 A3003 RMK AO2", "KRCM 311355Z AUTO 00000KT 10SM BKN110 11/08 A2993 RMK AO2", "KRCR 311335Z AUTO 00000KT 3/4SM RA BR OVC002 14/14 A2984 RMK AO2", "KRCV 311355Z AUTO 28007KT 10SM CLR M01/M08 A3019 RMK AO2 T10121082", "KRCX 311355Z AUTO 00000KT 7SM CLR 01/01 A2988 RMK AO2 T00130013", "KRCZ 311355Z AUTO 12005KT 10SM CLR 18/15 A3008 RMK AO2 T01750145", "KRDD 311353Z 00000KT 10SM CLR 08/01 A2999 RMK AO2 SLP152 T00780011", "KRDG 311354Z 00000KT 8SM SCT010 SCT060 11/08 A3008 RMK AO2 SLP193 T01110083 $", "KRDK 311355Z AUTO 00000KT 9SM CLR 02/02 A2995 RMK AO2", "KRDM 311356Z 27006KT 10SM CLR 13/01 A2995 RMK AO2 SLP135 T01280006 $", "KRDR 311355Z 21009KT 10SM BKN040 BKN250 06/M02 A2967 RMK AO2A SLP059 T00621019 $", "KRDU 311351Z VRB03KT 10SM FEW018 SCT035 BKN050 BKN250 17/13 A3012 RMK AO2 SLP196 T01720133", "KREG 311355Z AUTO 00000KT 5SM BR CLR 17/17 A3005 RMK AO2 T01710165", "KREO 311352Z AUTO 20006KT 04/M06 A3003 RMK AO1 SLP171 T00441056", "KRFD 311354Z 33004KT 5SM BR BKN021 OVC037 11/08 A2988 RMK AO2 SLP118 T01060083", "KRFI 311355Z AUTO 00000KT 7SM CLR 14/11 A3006 RMK AO2 T01390110", "KRGA 311338Z AUTO 00000KT 10SM BKN012 OVC038 16/15 A2998 RMK AO2", "KRGK 311355Z AUTO 00000KT 4SM BR CLR 01/00 A2988 RMK AO2", "KRHI 311353Z AUTO 00000KT 4SM BR CLR 03/02 A2986 RMK AO2 SLP121 T00330022", "KRHP 311355Z AUTO 00000KT 10SM SCT019 BKN027 OVC045 15/14 A3004 RMK AO2 T01450137", "KRHV 311347Z 00000KT 10SM SKC 11/08 A3000", "KRIC 311354Z 20006KT 10SM FEW035 BKN070 16/13 A3012 RMK AO2 SLP203 T01560128", "KRIL 311353Z AUTO 00000KT 10SM CLR M03/M06 A3020 RMK AO2 SLP239 T10331061", "KRIV 311355Z AUTO 00000KT 10SM CLR 07/01 A2995 RMK AO2 SLP136 T00720008", "KRIW 311353Z AUTO 21005KT 10SM CLR 02/M09 A2999 RMK AO2 SLP160 T00171089", "KRKP 311353Z AUTO 07004KT 10SM CLR 22/19 A3002 RMK AO2 SLP166 T02220194", "KRKR 311355Z AUTO 17006KT 1/2SM FG OVC001 10/08 A3003 RMK AO2", "KRKS 311354Z AUTO 23011KT 10SM CLR M01/M07 A3013 RMK AO2 SLP211 T10061067", "KRKW 311355Z AUTO VRB03G10KT 9SM OVC003 14/14 A3001 RMK A01", "KRLD 311355Z AUTO 22010G19KT 10SM BKN090 17/08 A2982 RMK AO2 T01650083", "KRME 311353Z 13004KT 10SM CLR 08/05 A3004 RMK AO2 SLP172 T00830050", "KRMG 311353Z AUTO 00000KT 5SM BR OVC005 16/15 A3001 RMK AO2 SLP156 T01610150", "KRMN 311355Z AUTO 21004KT 10SM BKN026 BKN090 17/13 A3013 RMK AO2 T01730126", "KRMY 311355Z AUTO 00000KT 3SM BR OVC003 11/11 A2985 RMK AO2 T01100107", "KRNC 311355Z AUTO 23004KT 10SM OVC049 15/14 A2999 RMK A01", "KRND 311355Z AUTO 34004KT 10SM CLR 13/11 A3002 RMK AO2 SLP163 T01280109", "KRNH 311355Z AUTO 00000KT 3SM BR OVC001 00/00 A2988 RMK AO2 T10051005", "KRNM 311353Z AUTO 00000KT 10SM CLR 06/01 A2994 RMK AO2 SLP133 T00560011", "KRNO 311355Z 14003KT 10SM BKN250 01/M06 A3011 RMK AO2 SLP182 T00061061", "KRNP 311355Z AUTO 00000KT 1 1/2SM -RA OVC003 11/10 A2985 RMK AO2 T01050100", "KRNT 311353Z AUTO 17006KT 8SM -RA BKN025 BKN031 OVC080 12/11 A2980 RMK AO2 SLP096 P0000 T01220106", "KRNV 311355Z AUTO 24005KT 10SM OVC005 15/15 A3000 RMK AO2 T01460146 TSNO", "KROA 311354Z 13003KT 10SM OVC007 13/11 A3011 RMK AO2 RAE1257 SLP195 P0000 T01330111 $", "KROC 311354Z 00000KT 10SM FEW080 BKN100 OVC200 10/04 A2996 RMK AO2 SLP150 T01000039", "KROG 311358Z 1/4SM OVC003 10/10 A3001 RMK AO2 SLP159 T01000100 $", "KROS 311343Z AUTO 00000KT 10SM CLR 01/00 A2987 RMK AO2", "KROW 311351Z 35004KT 10SM CLR 08/03 A3006 RMK AO2 SLP147 T00780033", "KROX 311355Z AUTO 18008KT 10SM CLR 04/M01 A2967 RMK AO2", "KRPD 311355Z AUTO 00000KT 3SM BR CLR 00/00 A2988 RMK AO2 T00000000", "KRPH 311355Z AUTO 00000KT 10SM CLR 10/10 A3004 RMK AO2 T00990099 $", "KRPJ 311355Z AUTO 32004KT 5SM BR SCT009 OVC016 11/11 A2986 RMK AO2 T01060106 TSNO", "KRPX 311253Z AUTO 10SM 08/M04 A2973 RMK Roundup ", "KRQB 311355Z AUTO 00000KT 10SM SCT070 10/07 A2986 RMK AO2 T00980072", "KRQE 311353Z AUTO 00000KT 10SM CLR M06/M09 A3017 RMK AO2 SLP202 T10561089", "KRRL 311355Z AUTO 00000KT 4SM BR SCT003 00/00 A2985 RMK AO2 T00010001 TSNO", "KRRT 311355Z AUTO 20007KT 1SM HZ 04/01 A2967 RMK AO2", "KRSL 311353Z AUTO 23006KT 10SM CLR 01/M03 A3000 RMK AO2 SLP169 T00111028", "KRSN 311355Z AUTO 00000KT 9SM CLR 15/14 A3003 RMK AO2 T01510138", "KRST 311354Z 23003KT 9SM CLR 02/01 A2989 RMK AO2 SLP130 T00220011", "KRSV 311355Z AUTO 22004KT 4SM BR OVC005 14/14 A2988 RMK AO2 T01430142", "KRSW 311353Z 09009KT 10SM CLR 27/23 A2999 RMK AO2 SLP153 T02670233", "KRTN 311353Z AUTO 07005KT 10SM CLR M02/M04 A3010 RMK AO2 SLP185 T10221039", "KRTS 311355Z AUTO 36005KT 10SM CLR M03/M11 A3011 RMK AO2", "KRUE 311353Z AUTO 30005KT 10SM OVC008 15/13 A2999 RMK AO2 SLP151 T01500128", "KRUG 311355Z AUTO 22009KT 10SM CLR 03/00 A2969 RMK AO2", "KRUQ 311355Z AUTO 00000KT 10SM OVC015 14/13 A3008 RMK AO2 T01360126", "KRUT 311356Z AUTO 16003KT 10SM CLR 08/M01 A3005 RMK AO2 SLP175 T00831011 $", "KRVF 311355Z AUTO 18006KT 10SM OVC065 06/M01 A2996 RMK AO2", "KRVJ 311355Z AUTO 15006KT 3 1/2SM BR OVC002 20/ A3005 RMK AO2 T0201////", "KRVL 311355Z AUTO 00000KT 8SM FEW036 FEW046 SCT080 07/06 A3005 RMK AO2", "KRVS 311353Z 23003KT 10SM CLR 09/07 A3001 RMK AO2 SLP168 T00940072", "KRWF 311353Z AUTO 00000KT 10SM CLR 00/M03 A2989 RMK AO2 SLP129 T00001033", "KRWI 311353Z AUTO 00000KT 10SM OVC055 16/12 A3012 RMK AO2 SLP198 T01610122 $", "KRWL 311353Z AUTO 23014KT 10SM CLR 01/M06 A3011 RMK AO2 SLP184 T00061056", "KRWV 311355Z AUTO 00000KT 10SM CLR 13/12 A3005 RMK AO2 T01310119", "KRXE 311353Z AUTO 00000KT 10SM CLR 02/M02 A3010 RMK AO2 SLP201 T00221022", "KRYM 311355Z AUTO 00000KT 10SM CLR M02/M03 A2984 RMK AO2 SLP122 T10181032 $", "KRYV 311355Z AUTO 00000KT 10SM CLR 08/07 A2985 RMK AO2 T00770071", "KRYW 311355Z AUTO 26005KT 10SM CLR 16/10 A3006 RMK AO2 T01550098", "KRYY 311350Z VRB04KT 6SM BR OVC002 15/14 A3003 RMK AO2 SLP165 T01500144 $", "KRZL 311355Z AUTO 14003KT 3SM DZ OVC004 14/13 A2983 RMK AO2 P0008", "KRZN 311355Z AUTO 00000KT 10SM CLR M01/M02 A2986 RMK AO2 T10061016", "KRZR 311355Z AUTO 22006KT 10SM BKN006 OVC021 16/16 A2999 RMK A01", "KS21 311355Z AUTO 18014KT 9SM OVC032 03/M02 A3005 RMK AO2", "KS24 311355Z AUTO 20008G13KT 7SM SCT008 BKN048 OVC060 16/15 A2987 RMK AO2", "KS25 311355Z AUTO 24009KT 10SM CLR 02/M00 A2976 RMK AO2", "KS32 311355Z AUTO 20005KT 10SM CLR 01/01 A2973 RMK AO2 TSNO", "KS33 311355Z AUTO 23017G23KT 10SM BKN070 13/03 A2993 RMK AO2", "KS34 311255Z AUTO 00000KT 10SM 11/M28 A2984 RMK Plains ", "KS39 311355Z AUTO 34004KT 10SM FEW120 08/01 A2996 RMK AO2", "KS52 311355Z AUTO 05003KT 10SM SCT075 BKN095 OVC110 06/04 A2976 RMK AO2 T00560041", "KS71 311400Z AUTO 00000KT 10SM 08/02 A2968 ", "KS85 311355Z AUTO 00000KT 10SM CLR M02/M03 A2973 RMK A01 Culbertson ", "KSAA 311355Z AUTO 17006KT 10SM CLR M02/M07 A3014 RMK AO2", "KSAC 311353Z 10003KT 10SM CLR 09/06 A2998 RMK AO2 SLP150 T00890061", "KSAD 311351Z AUTO 15003KT 10SM CLR 05/M02 A3001 RMK AO2 SLP146 T00501017", "KSAF 311353Z 36013KT 10SM CLR 01/M06 A3013 RMK AO2 SLP185 T00061061", "KSAN 311351Z 00000KT 10SM FEW006 FEW010 14/09 A2992 RMK AO2 SLP130 T01390094", "KSAR 311355Z AUTO 24006KT 10SM SCT007 SCT016 OVC024 13/13 A2990 RMK AO2 T01330128", "KSAT 311351Z 31003KT 10SM BKN250 14/10 A3005 RMK AO2 SLP161 T01390100", "KSAV 311353Z 10004KT 1/2SM R01/2800VP6000FT BR BKN003 OVC075 20/19 A3005 RMK AO2 SFC VIS 3 SLP176 T02000189", "KSAW 311347Z 00000KT 10SM CLR 02/01 A2982", "KSAZ 311355Z 18005KT 2 1/2SM HZ 02/M02 A2982 RMK AO2", "KSBA 311353Z 00000KT 10SM CLR 10/06 A2990 RMK AO2 SLP125 T01000061 $", "KSBD 311400Z 00000KT 10SM CLR 12/M06 A2995", "KSBM 311353Z AUTO 25003KT 5SM BR CLR 09/07 A2986 RMK AO2 SLP114 T00940072", "KSBN 311354Z 09003KT 1/4SM R27L/1200V1400FT FG VV002 13/13 A2985 RMK AO2 RAE06 SLP106 P0001 T01330128", "KSBO 311355Z AUTO 15007KT 4SM BR OVC002 20/20 A3006 RMK AO2", "KSBP 311356Z 00000KT 1/4SM FG VV002 08/08 A2994 RMK AO2 SLP140 T00780078", "KSBS 311355Z AUTO 00000KT 10SM CLR M06/M06 A3018 RMK AO1 T10601060", "KSBY 311354Z 00000KT 10SM OVC027 14/13 A3012 RMK AO2 SLP200 T01440128", "KSCD 311355Z AUTO 00000KT 1/4SM FG OVC001 14/14 A3003 RMK AO2 P0001 T01430143", "KSCK 311355Z 00000KT 10SM CLR 10/05 A2997 RMK AO2 SLP148 T01000050", "KSCR 311355Z AUTO 11004KT 10SM BKN027 OVC034 17/14 A3010 RMK AO2 T01650144", "KSDA 311355Z AUTO 00000KT 6SM BR CLR 02/02 A2994 RMK AO2", "KSDB 311353Z AUTO 10SM CLR 15/M09 A3008 RMK AO2 SLP147 T01501094 $", "KSDC 311355Z AUTO 15005KT 10SM SCT120 11/05 A2998 RMK AO2", "KSDF 311356Z 17010KT 10SM FEW012 OVC070 17/14 A2991 RMK AO2 SLP127 T01670144", "KSDL 311353Z 00000KT 10SM CLR 12/02 A2996 RMK AO2 SLP131 T01170022", "KSDM 311353Z AUTO 10009KT 9SM CLR 10/02 A2991 RMK AO2 SLP126 T01000022 $", "KSDY 311356Z AUTO 20004KT 10SM CLR 00/M02 A2977 RMK AO2 SLP103 T00001022 FZRANO PNO $", "KSEA 311353Z 18011KT 8SM -RA FEW024 BKN030 OVC065 11/10 A2980 RMK AO2 PK WND 16026/1309 SLP098 P0002 T01110100", "KSEE 311347Z 00000KT 10SM SKC 09/05 A2993", "KSEG 311353Z AUTO 00000KT 10SM SCT014 BKN110 08/07 A3008 RMK AO2 SLP187 T00830067", "KSEM 311355Z AUTO 00000KT 9SM OVC050 15/15 A3003 RMK AO2", "KSEP 311355Z AUTO 00000KT 10SM CLR 12/10 A3008 RMK AO2 T01220100", "KSEQ 311355Z AUTO 00000KT 9SM CLR 13/12 A3003 RMK AO2 SLP169 T01290116", "KSET 311354Z AUTO 27007KT 4SM BR OVC006 13/12 A2987 RMK AO2 SLP112 T01280117", "KSEZ 311355Z AUTO 05007KT 10SM 11/M06 A3009 RMK AO2", "KSFB 311353Z 13006KT 10SM CLR 26/22 A3003 RMK AO2 SLP166 T02560217", "KSFF 311353Z 23010KT 10SM SCT025 BKN070 11/06 A2979 RMK AO2 SLP086 T01110061", "KSFM 311356Z AUTO 22006KT 10SM CLR 11/05 A3006 RMK AO2 SLP183 T01110050", "KSFO 311356Z 18003KT 10SM FEW006 SCT200 11/09 A2998 RMK AO2 SLP153 T01110094", "KSFQ 311355Z AUTO 00000KT 10SM BKN065 16/14 A3013 RMK AO2 T01610136", "KSFY 311343Z AUTO 00000KT 1/2SM FG VV005 05/04 A2986 RMK AO2", "KSFZ 311356Z AUTO VRB03KT 3SM BR OVC002 12/12 A3009 RMK AO2 CIG 001V005 SLP191 T01170117", "KSGF 311352Z 27006KT 8SM OVC080 12/11 A2995 RMK AO2 SLP139 T01220111", "KSGH 311356Z AUTO 20008G14KT 10SM OVC009 16/ A2991 RMK AO2 CIG 007V013 SLPNO T0161", "KSGJ 311356Z 12004KT 10SM CLR 25/24 A3005 RMK AO2 SLP173 T02500239", "KSGR 311353Z 00000KT 10SM CLR 18/14 A3003 RMK AO2 SLP171 T01780144", "KSGS 311355Z AUTO 00000KT 7SM CLR 02/01 A2988 RMK AO2 T00220010", "KSGT 311356Z AUTO 28006KT 9SM BKN055 14/14 A3000 RMK AO2 SLP158 T01440139", "KSGU 311356Z AUTO 15004KT 10SM CLR 07/M04 A3010 RMK AO2 SLP183 T00721039", "KSHD 311355Z AUTO 18006KT 10SM SCT034 SCT075 OVC110 13/10 A3009 RMK AO2 T01300100", "KSHL 311355Z AUTO 00000KT 6SM BR CLR M01/M02 A2989 RMK AO2", "KSHN 311353Z AUTO 20010G18KT 10SM -RA FEW013 BKN025 OVC049 12/11 A2977 RMK AO2 SLP083 P0007 T01220111", "KSHR 311353Z AUTO 00000KT 10SM CLR M01/M05 A2987 RMK AO2 SLP137 T10061050", "KSHV 311356Z 25004KT 7SM SCT240 BKN280 15/13 A3003 RMK SLPNO", "KSIF 311355Z AUTO 00000KT 5SM BR OVC002 13/13 A3011 RMK AO2 T01300130", "KSIK 311355Z AUTO 22006KT 4SM -RA BKN006 OVC011 15/15 A2991 RMK AO2", "KSIY 311353Z AUTO 00000KT 10SM CLR 01/M05 A3006 RMK AO2 SLP192 T00061050", "KSJC 311353Z 00000KT 6SM BR SCT006 11/09 A2999 RMK AO2 SLP154 T01110089", "KSJS 311355Z AUTO 20004KT 10SM SCT016 BKN048 OVC050 16/16 A3000 RMK AO2 T01580158", "KSJT 311351Z 26003KT 10SM CLR 08/07 A3005 RMK AO2 SLP174 T00830067", "KSJX 311355Z AUTO 00000KT 10SM CLR 09/09 A2986 RMK AO2 T00890089", "KSKA 311355Z 21013G22KT 10SM BKN055 OVC100 09/05 A2975 RMK AO2A SLP282 T00870054 $", "KSKF 311355Z AUTO 00000KT 9SM CLR 13/11 A3002 RMK AO2 SLP164 T01330108 $", "KSKX 311356Z AUTO 02005KT 10SM CLR M05/M08 A3019 RMK AO2 SLP243 T10501083 FZRANO", "KSLB 311355Z AUTO 29009KT 10SM CLR 06/00 A2991 RMK AO2", "KSLC 311354Z 14006KT 10SM SCT220 04/M01 A3015 RMK AO2 SLP204 T00391011", "KSLE 311356Z 17010KT 10SM -RA OVC023 13/09 A2994 RMK AO2 RAB50 SLP138 P0000 T01330094", "KSLG 311356Z AUTO 21003KT M1/4SM FG OVC002 09/09 A3001 RMK AO2 SLP161 T00890089", "KSLH 311355Z AUTO 00000KT 10SM CLR 09/07 A2984 RMK AO2", "KSLI 311355Z 00000KT 10SM FEW010 SCT200 10/07 A2989 RMK AO2A SLP125 T00950073", "KSLK 311351Z AUTO 00000KT 10SM CLR 08/01 A2998 RMK AO2 SLP166 T00830011", "KSLN 311353Z 21003KT 10SM CLR 03/01 A3001 RMK AO2 SLP165 T00330011", "KSLR 311355Z AUTO 00000KT 5SM BR CLR 12/12 A3006 RMK AO2 T01200120", "KSMD 311335Z AUTO 17004KT 1 3/4SM BR OVC002 15/15 A2986 RMK A01", "KSME 311355Z AUTO 18003KT 10SM SCT020 BKN042 OVC060 16/16 A2997 RMK AO2", "KSMF 311353Z 06003KT 10SM BKN250 10/04 A2997 RMK AO2 SLP148 T01000044", "KSMN 311356Z AUTO 05003KT 10SM OVC080 00/M02 A2999 RMK AO2 SLP851 T00001022 FZRANO", "KSMO 311351Z 04003KT 10SM CLR 13/06 A2991 RMK AO2 SLP128 T01330056", "KSMP 311356Z AUTO 1/4SM -RA FG VV002 04/04 A2981 RMK AO2 SLP098 P0011 T00440039", "KSMQ 311353Z AUTO 00000KT 5SM BR OVC004 08/07 A3009 RMK AO2 SLP189 T00780072", "KSMS 311355Z AUTO 00000KT 7SM OVC004 16/16 A3008 RMK AO2", "KSMX 311351Z 00000KT 1/4SM FG VV001 07/07 A2995 RMK AO2 SLP146 T00720072 RVRNO", "KSNA 311353Z 00000KT 10SM FEW030 FEW140 15/11 A2991 RMK AO2 SLP128 T01500106", "KSNC 311355Z AUTO VRB04KT 8SM OVC002 14/14 A3010 RMK AO2", "KSNH 311355Z AUTO 21006KT 10SM BKN013 BKN021 OVC028 16/15 A2997 RMK A01", "KSNK 311355Z AUTO 13003KT 10SM CLR 11/07 A3006 RMK AO2 T01110068", "KSNL 311335Z AUTO 00000KT 10SM CLR 07/06 A3002 RMK AO2 T00720062", "KSNS 311353Z 17004KT 4SM BR OVC002 09/09 A2999 RMK AO2 SLP165 T00890089 $", "KSNT 311351Z AUTO 00000KT M01/M03 A3009 RMK AO1 SLP165 T10111033", "KSNY 311353Z AUTO 29013KT 10SM CLR 02/M07 A2996 RMK AO2 SLP157 T00221072", "KSOA 311355Z AUTO 00000KT 10SM CLR 09/08 A3010 RMK AO2", "KSOP 311356Z AUTO 12005KT 10SM CLR 17/14 A3011 RMK AO2 SLP199 T01720139 TSNO", "KSOW 311355Z AUTO 00000KT 10SM CLR M03/M08 A3016 RMK AO2", "KSPA 311355Z AUTO 10005KT 1SM -RA OVC002 13/12 A3004 RMK AO2", "KSPB 311353Z AUTO 00000KT 6SM RA BR OVC065 12/11 A2991 RMK AO2 SLP127 P0005 T01170111", "KSPD 311356Z AUTO 29004KT 05/M03 A3002 RMK AO1 SLP149 T00501028", "KSPF 311355Z AUTO 00000KT 10SM CLR 04/M10 A2990 RMK AO2", "KSPG 311353Z 09004KT 10SM CLR 24/23 A3000 RMK AO2 SLP157 T02440233", "KSPI 311352Z 23005KT 3SM -RA BR BKN005 OVC015 12/12 A2984 RMK AO2 SLP106 P0014 T01220117", "KSPS 311352Z 00000KT 10SM CLR 11/08 A3004 RMK AO2 SLP169 T01060083", "KSPW 311353Z AUTO 00000KT 10SM CLR 00/M04 A2991 RMK AO2 SLP142 T00001044", "KSQI 311356Z AUTO 35004KT 4SM BR BKN007 11/10 A2986 RMK AO2 SLP979 T01060100", "KSQL 311355Z AUTO 00000KT 10SM CLR 10/09 A3000 RMK AO2", "KSRB 311355Z AUTO 18004KT 10SM SCT009 OVC050 16/15 A2999 RMK A01", "KSRC 311356Z AUTO 25003KT 10SM OVC028 14/13 A3000 RMK AO2 SLP155 T01390133", "KSRE 311355Z AUTO 32004KT 10SM CLR 09/07 A3003 RMK AO2", "KSRQ 311353Z 09004KT 10SM CLR 26/22 A2999 RMK AO2 SLP155 T02560222", "KSRR 311355Z AUTO 24003KT 10SM 05/M03 A3016 RMK AO2", "KSSC 311355Z 00000KT 5SM BR OVC004 16/15 A3006 RMK AO2A SLP180 T01610148 $", "KSSF 311353Z 00000KT 10SM CLR 16/12 A3003 RMK AO2 SLP163 T01560122", "KSSI 311353Z AUTO 00000KT 10SM FEW042 FEW050 25/21 A3004 RMK AO2 SLP173 T02500206", "KSTC 311353Z 00000KT 10SM CLR M01/M03 A2986 RMK AO2 SLP130 T10111028", "KSTE 311355Z AUTO 00000KT 10SM SCT120 07/06 A2986 RMK AO2 T00720055", "KSTF 311355Z AUTO 00000KT 9SM OVC060 16/15 A3000 RMK AO2", "KSTJ 311353Z 30003KT 10SM CLR 07/05 A2995 RMK AO2 SLP143 T00670050", "KSTK 311355Z AUTO 18005KT 10SM CLR M02/M07 A3000 RMK AO2", "KSTL 311351Z 27007KT 6SM HZ OVC009 13/11 A2988 RMK AO2 SLP116 T01330106 $", "KSTP 311353Z 31003KT 4SM BR CLR 03/01 A2990 RMK AO2 SLP128 T00280011", "KSTS 311353Z AUTO 00000KT 1/2SM FG VV002 08/08 A2998 RMK AO2 SLP146 T00780078", "KSUA 311347Z 10007KT 10SM SCT025 28/22 A3002", "KSUE 311356Z AUTO 00000KT 8SM FEW001 09/07 A2986 RMK AO2 SLP112 T00940072", "KSUN 311352Z 29006KT 10SM SKC 01/M03 A3012", "KSUS 311354Z 26005KT 7SM BKN009 BKN019 OVC024 12/11 A2988 RMK AO2 SLP116 T01220111", "KSUT 311355Z AUTO 08003KT 10SM CLR 23/20 A3009 RMK AO2 T02250202", "KSUU 311255Z AUTO 24006KT 10SM CLR 10/08 A2996 RMK AO2 SLP152 T01000084 $", "KSUW 311355Z AUTO 00000KT 10SM CLR M01/M02 A2983 RMK AO2 T10061021", "KSUX 311352Z 10006KT 8SM CLR M01/M02 A2994 RMK AO2 SLP146 T10111022", "KSUZ 311355Z AUTO 00000KT 9SM CLR 14/14 A3000 RMK A01", "KSVC 311355Z AUTO 33006KT 10SM CLR 03/00 A3009 RMK AO2 T00291001", "KSVE 311355Z AUTO 28004KT 10SM CLR M14/M22 A3010 RMK AO2", "KSVH 311355Z AUTO 00000KT 3SM +DZ OVC005 13/13 A3009 RMK AO2 P0001 T01310125", "KSVN 311325Z 00000KT 4SM BR BKN002 21/21 A3002 RMK AO2A SLP169 $", "KSWF 311345Z 00000KT 10SM SCT060 09/07 A3008", "KSWO 311353Z 00000KT 10SM CLR 08/06 A3002 RMK AO2 SLP165 T00830061", "KSWW 311355Z AUTO 20006KT 10SM CLR 13/08 A3009 RMK AO2 T01250078", "KSXK 311355Z AUTO 18005KT 10SM CLR 01/00 A2990 RMK AO2", "KSXS 311355Z AUTO 36003KT 10SM CLR 18/15 A3002 RMK AO2 SLP166 T01790151", "KSXT 311356Z AUTO 14006KT 10SM CLR 08/04 A3002 RMK AO2 SLP151 T00830044", "KSXU 311355Z AUTO 00000KT 10SM CLR 04/01 A3008 RMK AO2 T00400005", "KSYF 311355Z AUTO 24008KT 10SM CLR 00/M07 A2999 RMK AO2 T00021072 PWINO", "KSYI 311355Z AUTO 19006KT 10SM FEW009 FEW050 16/15 A2998 RMK A01", "KSYM 311355Z AUTO 18004KT 10SM SCT014 BKN020 OVC046 16/15 A2998 RMK AO2", "KSYN 311355Z AUTO 00000KT 7SM CLR 00/M01 A2988 RMK AO2 T10011013", "KSYR 311354Z 08005KT 10SM BKN150 BKN180 OVC220 12/06 A2999 RMK AO2 SLP155 T01170061", "KSZL 311355Z 00000KT 10SM BKN120 BKN200 12/09 A2988 RMK AO2A SLP121 T01180090 $", "KSZT 311355Z AUTO 23007KT 7SM -RA OVC021 10/06 A2976 RMK AO2", "KSZY 311355Z AUTO 00000KT 3SM BR OVC005 15/14 A2997 RMK A01", "KT20 311335Z AUTO 00000KT 10SM CLR 14/13 A3004 RMK AO2 T01370125", "KT35 311355Z AUTO 00000KT 10SM CLR 13/12 A3005 RMK AO2 T01260117", "KT41 311355Z AUTO 10SM CLR 17/15 A3005 RMK AO2 T01700154", "KT69 311355Z AUTO 00000KT 10SM CLR 17/16 A3002 RMK A01", "KT70 311355Z AUTO 33005KT 9SM CLR 15/13 A3002 RMK AO2 SLP160 T01460125 $", "KT74 311355Z AUTO 00000KT 10SM CLR 13/12 A3005 RMK AO2 T01270117", "KT78 311355Z AUTO 00000KT 10SM CLR 13/13 A3004 RMK AO2", "KT82 311355Z AUTO 00000KT 10SM CLR 10/08 A3007 RMK AO2 T00950078", "KT89 311355Z AUTO 12003KT 10SM CLR 14/07 A3000 RMK A01", "KTAD 311354Z AUTO 26011KT 10SM CLR 02/M03 A3006 RMK AO2 SLP166 T00221033", "KTAN 311352Z AUTO A3010 RMK AO2 SLPNO PWINO FZRANO TSNO $", "KTAZ 311335Z AUTO 23007KT 1 1/4SM BR OVC002 12/12 A2985 RMK AO2 T01210120", "KTBN 311355Z AUTO 24005KT 10SM BKN047 OVC065 12/12 A2993 RMK AO2 SLP137 T01160116 $", "KTBR 311335Z AUTO 00000KT 1/4SM FG OVC003 18/17 A3005 RMK AO2 T01800173", "KTBX 311335Z AUTO 10SM CLR 02/M11 A3008 RMK AO2", "KTCC 311353Z AUTO 00000KT 10SM CLR 04/03 A3004 RMK AO2 SLP162 T00390028", "KTCL 311353Z 18004KT 2SM BR OVC060 16/15 A3002 RMK AO2 SLP165 T01560150", "KTCM 311355Z AUTO 18008KT 10SM -RA BKN047 OVC060 11/11 A2981 RMK AO2 RAB1258E22RAB46 SLP098 P0001 T01120112", "KTCS 311353Z AUTO 34003KT 10SM CLR 07/M02 A3009 RMK AO2 SLP150 T00671022", "KTCY 311355Z AUTO 31006KT 10SM SCT003 11/09 A2997 RMK A01", "KTDF 311355Z AUTO 00000KT 10SM SCT026 BKN030 OVC047 15/12 A3013 RMK AO2", "KTDR 311355Z AUTO 04003KT 10SM BKN029 20/17 A2999 RMK AO2 SLP159 T02000172 $", "KTDZ 311353Z AUTO 18008KT 8SM BKN020 OVC026 17/15 A2986 RMK AO2 SLP110 T01670150", "KTEB 311351Z 00000KT 10SM CLR 12/07 A3009 RMK AO2 SLP190 T01170072", "KTEW 311355Z AUTO 10007KT 4SM BR OVC004 13/12 A2985 RMK AO2 T01290119", "KTEX 311355Z AUTO 14005KT 10SM CLR M02/M08 A3022 RMK AO2", "KTFP 311315Z AUTO 07003KT 10SM CLR 19/17 A3000 RMK AO2 T01880171", "KTHA 311355Z AUTO 19005KT 6SM BR OVC046 15/14 A2999 RMK A01", "KTHM 311255Z AUTO 00000KT 10SM 08/07 A2988 RMK Thompson Falls ", "KTHV 311353Z AUTO 00000KT 10SM BKN110 12/09 A3007 RMK AO2 RAB01E11 SLP187 P0000 T01220094", "KTIF 311355Z AUTO 25004KT 10SM CLR M01/M05 A2991 RMK AO2 T10091055", "KTIK 311355Z AUTO 00000KT 10SM CLR 10/07 A3000 RMK AO2 SLP165 T01030066", "KTIP 311355Z AUTO 20003KT 1SM -DZ OVC002 14/14 A2982 RMK AO2 T01400139", "KTIW 311353Z AUTO 18010KT 3SM -RA BR BKN050 OVC060 12/10 A2981 RMK AO2 RAB1254 SLP094 P0005 T01170100", "KTIX 311347Z 10003KT 7SM SCT024 SCT030 26/24 A3004", "KTKC 311355Z AUTO 23009KT 10SM CLR 06/01 A2989 RMK AO2", "KTKI 311353Z 00000KT 10SM CLR 10/09 A3004 RMK AO2 SLP178 T01000089", "KTKV 311355Z AUTO 00000KT 10SM CLR 00/M01 A2986 RMK AO2 T10041012 PWINO", "KTKX 311355Z AUTO 23009KT 5SM BR FEW008 OVC037 16/16 A2993 RMK AO2 TSNO", "KTLH 311353Z 08004KT 1SM BR OVC002 21/21 A3002 RMK AO2 SFC VIS 1 3/4 SLP163 T02110206", "KTMB 311353Z 06003KT 10SM CLR 28/24 A2999 RMK AO2 SLP153 T02830244", "KTME 311355Z AUTO 00000KT 8SM CLR 15/15 A3006 RMK AO2", "KTMK 311335Z AUTO 21008KT 5SM DZ SCT016 BKN027 OVC041 12/11 A2994 RMK AO2 P0002", "KTMT 311355Z AUTO 22004KT 10SM CLR M11/M16 A3017 RMK AO2 T11081157", "KTNB 311330Z AUTO 23005KT 7SM OVC006 12/12 A3010 RMK AO2 T01180118", "KTNU 311355Z AUTO 00000KT 8SM CLR 06/06 A2990 RMK A01", "KTOB 311355Z AUTO 00000KT 7SM CLR 02/01 A2988 RMK AO2", "KTOC 311335Z AUTO 05003KT 3 1/2SM -DZ BR OVC004 13/13 A3005 RMK AO2 P0001 T01350133", "KTOI 311353Z AUTO 00000KT 10SM FEW001 17/15 A3004 RMK AO2 SLP168 T01670150", "KTOL 311352Z 19004KT 2 1/2SM BR OVC006 16/15 A2985 RMK AO2 RAB1204E1221B25E52 CIG 004V009 SLP107 P0002 T01610150 $", "KTOP 311353Z 27004KT 10SM CLR 12/06 A2996 RMK AO2 SLP144 T01170056", "KTOR 311353Z AUTO 07006KT 10SM CLR M02/M08 A2995 RMK AO2 SLP151 T10221083", "KTPA 311353Z 12005KT 10SM FEW160 26/21 A3002 RMK AO2 SLP164 T02610211", "KTPH 311356Z AUTO 35007KT 10SM CLR M01/M09 A3015 RMK AO2 SLP202 T10061094", "KTPL 311351Z AUTO 02003KT 7SM CLR 12/12 A3005 RMK AO2 SLP170 T01170117", "KTQE 311354Z AUTO 10SM CLR 01/M04 A2994 RMK AO2 SLP143 T00061044", "KTQH 311355Z AUTO 00000KT 1/4SM FG OVC001 08/06 A3002 RMK AO2", "KTQK 311335Z AUTO 23005KT 10SM CLR M03/M08 A3002 RMK AO2 T10271080", "KTQV 311355Z AUTO VRB06KT 10SM FEW014 SCT043 BKN049 16/12 A3011 RMK A01", "KTRI 311353Z 00000KT 2SM -RA BR FEW018 BKN043 OVC050 15/14 A3003 RMK AO2 RAB28 SLP153 P0001 T01500139 $", "KTRK 311345Z 00000KT 10SM CLR M06/M09 A3014", "KTRL 311353Z AUTO 00000KT 10SM CLR 11/09 A3004 RMK AO2 SLP170 T01110094", "KTRM 311352Z AUTO 33003KT 10SM CLR 10/00 A2989 RMK AO2 SLP123 T01000000", "KTSP 311355Z AUTO 00000KT 9SM CLR 01/M08 A3009 RMK AO2", "KTTA 311355Z AUTO 11003KT 7SM SCT033 OVC055 16/14 A3011 RMK AO2 T01620144", "KTTD 311353Z AUTO 24006KT 9SM -RA OVC029 13/10 A2992 RMK AO2 RAB14 SLP132 P0002 T01330100", "KTTF 311355Z AUTO 18003KT 4SM BR OVC007 15/14 A2984 RMK AO2 T01450141 P0001", "KTTN 311353Z 00000KT 3SM BR SCT002 09/09 A3010 RMK AO2 SLP186 T00890089", "KTTS 311355Z AUTO 08006KT 10SM CLR 25/20 A3001 RMK AO2 SLP167 T02480203 $", "KTUL 311353Z 00000KT 10SM FEW250 11/09 A3002 RMK AO2 SLP162 T01060089", "KTUP 311353Z 00000KT 7SM OVC006 17/14 A3000 RMK AO2 SLP154 T01670139 $", "KTUS 311353Z 15007KT 10SM CLR 09/M02 A3001 RMK AO2 SLP138 T00891017 $", "KTVC 311353Z 00000KT 10SM BKN120 BKN150 10/06 A2985 RMK AO2 SLP109 T01000061", "KTVF 311356Z AUTO 19010KT 10SM CLR 03/M01 A2972 RMK AO2 SLP077 T00331011", "KTVI 311335Z AUTO 00000KT 7SM OVC003 20/19 A3004 RMK AO2", "KTVL 311353Z AUTO 19003KT 10SM CLR M05/M09 A3013 RMK AO2 SLP202 T10501094", "KTVR 311353Z AUTO 00000KT 8SM CLR 17/15 A3004 RMK AO2 SLP177 T01670150", "KTVY 311355Z AUTO 22006KT 10SM CLR 01/M02 A3016 RMK AO2", "KTWF 311353Z 21012KT 10SM CLR 07/M03 A3008 RMK AO2 SLP170 T00721028", "KTWM 311355Z AUTO 29003KT 10SM CLR M01/M02 A2982 RMK AO2", "KTWT 311355Z AUTO 20006KT 7SM OVC008 16/14 A2991 RMK AO2", "KTXK 311353Z 24005KT 9SM CLR 14/12 A3002 RMK AO2 SLP163 T01390122", "KTXW 311330Z AUTO 09003KT 5SM HZ OVC070 22/18 A2997 RMK AO2 T02250175", "KTYL 311355Z AUTO 00000KT 10SM CLR M03/M07 A3016 RMK AO2", "KTYQ 311355Z AUTO 17006KT 7SM BKN008 BKN014 OVC075 15/14 A2986 RMK AO2 T01450138", "KTYR 311353Z 8SM CLR 15/13 A3003 RMK AO2 SLP166 T01500128", "KTYS 311353Z 00000KT 7SM FEW005 BKN010 OVC060 16/15 A3000 RMK AO2 RAE25 SLP154 P0002 T01610150 $", "KTZR 311345Z 19007KT 5SM BR OVC005 16/15 A2992", "KU42 311355Z AUTO 19006KT 10SM CLR 02/M01 A3017 RMK AO1 T00231008", "KU55 311355Z AUTO 11004KT 10SM M08/M09 A3023 RMK A01", "KU68 311355Z AUTO 08005KT 10SM CLR 01/M07 A2993 RMK AO2", "KUAO 311353Z 20009KT 7SM -RA OVC023 13/10 A2993 RMK AO2 RAB20 SLP132 P0002 T01280100 $", "KUBE 311355Z AUTO 00000KT 7SM CLR 01/01 A2987 RMK AO2", "KUCP 311356Z AUTO 00000KT 4SM -RA BR OVC009 11/11 A2996 RMK AO2 RAE13B42 SLP164 P0001 T01110111", "KUCY 311355Z AUTO 21004KT 10SM FEW011 OVC065 16/16 A2992 RMK A01", "KUDG 311356Z AUTO 11005KT 10SM OVC041 18/16 A3009 RMK AO2 SLP189 T01780156", "KUES 311345Z 32004KT 10SM SCT036 09/07 A2986", "KUGN 311355Z 34005KT 2SM BR OVC002 12/11 A2983 RMK AO2 SLP103 T01170106", "KUIL 311353Z AUTO 27006G18KT 10SM -RA OVC037 10/08 A2979 RMK AO2 PK WND 28027/1325 SLP086 P0001 T01000083", "KUIN 311350Z AUTO 28005KT 2SM -RA BR FEW027 OVC034 11/10 A2988 RMK AO2 RAE01B18 SLP119 P0006 T01110100", "KUKF 311335Z AUTO 00000KT 5SM -DZ OVC002 11/11 A3014 RMK AO2 P0004", "KUKI 311356Z AUTO 00000KT 10SM CLR 07/04 A2999 RMK AO2 SLP153 T00720044", "KUKL 311335Z AUTO 28005KT 10SM CLR A2997 RMK AO2", "KUKT 311355Z AUTO 00000KT 10SM OVC027 11/09 A3009 RMK A01", "KULM 311355Z AUTO 00000KT 10SM CLR 00/M03 A2989 RMK AO2", "KULS 311335Z AUTO 00000KT 10SM CLR 00/M06 A3001 RMK AO2", "KUMP 311355Z AUTO 19007KT 10SM BKN010 OVC015 16/16 A2987 RMK AO2 T01590157", "KUNI 311355Z AUTO 00000KT 10SM OVC006 A2996 RMK AO2", "KUNO 311353Z AUTO 27008KT 9SM SCT047 OVC075 12/11 A2996 RMK AO2 SLP141 T01220106", "KUNU 311355Z AUTO 00000KT 10SM CLR 06/06 A2987 RMK AO2 T00630056", "KUNV 311353Z 00000KT 10SM -RA SCT035 BKN065 06/05 A3005", "KUOX 311355Z AUTO VRB04KT 10SM FEW008 FEW012 BKN021 16/14 A3000 RMK AO2", "KUSE 311355Z AUTO 21005KT 1 1/2SM BR OVC002 15/15 A2985 RMK AO2", "KUTA 311355Z AUTO 24006KT 9SM OVC007 15/15 A2998 RMK AO2 CIG 007V010 T01540151 $", "KUTS 311353Z AUTO 00000KT 10SM CLR 15/12 A3005 RMK AO2 SLP173 T01500122", "KUUU 311353Z AUTO 00000KT 10SM OVC017 13/12 A3009 RMK AO2 SLP190 T01330122", "KUVA 311355Z AUTO 06004KT 10SM CLR 14/12 A3006 RMK AO2 T01380120", "KUXL 311355Z AUTO 00000KT 10SM SCT002 16/16 A3006 RMK AO2 T01600160", "KUYF 311335Z AUTO 19010KT 10SM BKN009 OVC012 15/14 A2991 RMK AO2", "KUZA 311354Z AUTO 14004KT 7SM OVC009 15/14 A3007 RMK AO2 SLP178 T01500139", "KVAD 311355Z AUTO 16006KT 10SM OVC006 21/20 A3002 RMK AO2 CIG 005 RWY36 SLP167 T02140195 $", "KVAF 311355Z AUTO 05009KT 10SM CLR 25/12 A3003 RMK A01", "KVAY 311354Z AUTO A3011 RMK AO2 SLPNO PWINO FZRANO $", "KVBG 311255Z AUTO 15003KT 1/2SM R30/2400V4000FT FG VV000 08/08 A2996 RMK AO2 SLP149 T00770077 TSNO $", "KVBT 311356Z AUTO 00000KT M1/4SM FG OVC002 10/10 A3002 RMK AO2 SLP166 T01000100", "KVCB 311353Z AUTO 06003KT 10SM CLR 08/04 A2998 RMK AO2 SLP151 T00830044", "KVCT 311351Z 06005KT 8SM CLR 16/14 A3004 RMK AO2 SLP169 T01560144", "KVCV 311355Z AUTO 18006KT 10SM CLR 07/M08 A3007 RMK AO2", "KVDF 311355Z AUTO 10SM CLR 06/ A3003 RMK AO2", "KVDI 311335Z AUTO 16003KT 1SM BR OVC003 20/20 A3005 RMK AO2", "KVEL 311353Z AUTO 00000KT 10SM CLR M02/M06 A3017 RMK AO2 SLP229 T10171061", "KVER 311355Z AUTO 00000KT 7SM CLR 12/12 A2991 RMK AO2 T01210119", "KVES 311335Z AUTO 20007KT 10SM BKN010 BKN021 OVC055 15/15 A2988 RMK AO2", "KVGC 311355Z AUTO 14008KT 10SM CLR 10/05 A3002 RMK AO2", "KVGT 311353Z 33005KT 10SM CLR 14/M07 A3003 RMK AO2 SLP175 T01391072", "KVHN 311355Z AUTO 24004KT 10SM CLR 08/03 A3009 RMK AO2 T00820034", "KVIH 311353Z AUTO 26007KT 7SM BKN007 OVC036 12/11 A2992 RMK AO2 CIG 003V012 SLP131 T01170111", "KVIS 311356Z AUTO 00000KT 10SM CLR 07/03 A2999 RMK AO2 SLP163 T00670033", "KVJI 311355Z AUTO 00000KT 4SM RA SCT020 BKN033 OVC039 14/13 A3005 RMK AO2 P0002 T01360125", "KVKS 311335Z AUTO 00000KT 7SM FEW060 15/15 A3002 RMK A01", "KVLD 311353Z 14005KT 6SM BR OVC005 22/21 A3003 RMK AO2 SLP175 T02220206", "KVLL 311355Z AUTO 00000KT 1 3/4SM -RA OVC003 08/08 A2987 RMK AO2 T00830080", "KVNW 311355Z AUTO 19004KT 5SM BR SCT006 BKN033 OVC045 15/15 A2987 RMK AO2", "KVNY 311351Z 00000KT 10SM CLR 13/01 A2992 RMK AO2 SLP125 T01280006", "KVOA 311400Z AUTO 36005KT 10SM FEW034 BKN043 22/15 A3004 RMK A01", "KVOK 311355Z 14003KT 10SM CLR 03/02 A2985 RMK AO2A SLP119", "KVPC 311335Z AUTO 10004G10KT 10SM OVC005 15/15 A3002 RMK AO2", "KVPS 311355Z AUTO 35004KT 10SM CLR 18/14 A3001 RMK AO2 SLP169 T01820143 $", "KVPZ 311356Z AUTO 10004KT 1SM BR VV002 14/13 A2983 RMK AO2 SLP101 T01440128", "KVQQ 311350Z 00000KT 10SM FEW008 25/24 A3008", "KVRB 311353Z 09006KT 10SM CLR 27/24 A3002 RMK AO2 SLP163 T02720239", "KVSF 311354Z AUTO 00000KT 10SM CLR 05/01 A3007 RMK AO2 SLP189 T00500006", "KVTA 311354Z AUTO 18004KT 10SM OVC007 17/14 A2993 RMK AO2 RAB10E43 SLP130 P0001 T01720144", "KVTI 311355Z AUTO 00000KT 3SM BR 03/03 A2989 RMK AO2 SKY OBSCURED T00330033", "KVTN 311352Z AUTO 24005KT 10SM CLR M03/M07 A2989 RMK AO2 SLP145 T10331072", "KVTP 311355Z AUTO 27013G18KT 10SM CLR M03/M10 A3018 RMK AO2", "KVUJ 311335Z AUTO 00000KT 10SM SCT020 SCT037 16/14 A3013 RMK AO2 T01560136", "KVUO 311353Z AUTO 00000KT 3SM -RA BR BKN016 OVC022 13/11 A2994 RMK AO2 SLP139 P0004 T01280106", "KVVS 311355Z AUTO 00000KT 7SM -RA BKN018 OVC024 14/12 A3000 RMK AO2 P0001 T01400124", "KVVV 311355Z 13006KT 10SM 01/M02 A2984 RMK AO2", "KVWU 311355Z AUTO 20003KT 10SM CLR 07/M01 A2974 RMK AO2", "KVYS 311355Z AUTO 36005KT M1/4SM FG OVC002 11/11 A2983 RMK AO2 T01130110", "KW13 311355Z AUTO 10SM OVC023 12/09 A3008 RMK AO1 T01190093", "KW22 311355Z AUTO 00000KT 1 1/4SM BR SCT010 BKN019 BKN023 14/14 A3002 RMK AO2", "KW29 311335Z AUTO 15009KT 10SM OVC026 15/ A3010 RMK AO2 T0148////", "KW31 311355Z AUTO 00000KT 10SM BKN027 OVC032 14/13 A3011 RMK AO1 T01430129", "KW43 311335Z AUTO 21005KT 10SM CLR 00/M07 A2991 RMK AO2", "KW63 311355Z AUTO 18003KT 10SM BKN039 OVC050 15/15 A3011 RMK AO1", "KW75 311355Z AUTO 00000KT 10SM SCT002 15/14 A3012 RMK AO1 T01470138", "KW78 311355Z AUTO 00000KT 10SM BKN042 BKN070 BKN100 15/11 A3012 RMK AO1 T01490111", "KW81 311355Z AUTO 00000KT 10SM SCT022 OVC030 14/11 A3011 RMK AO1 T01360108", "KW96 311355Z AUTO 15003KT 10SM OVC080 14/13 A3011 RMK AO1 T01420127", "KW99 311342Z AUTO 00000KT 5SM RA SCT036 BKN044 OVC100 09/09 A3007 RMK AO2 P0002", "KWAL 311354Z 00000KT 10SM CLR 17/12 A3012 RMK AO2 SLP197 T01670122", "KWBF 311355Z AUTO VRB04KT 10SM 26/18 A3003 RMK A01", "KWDG 311350Z 33005KT 10SM SCT120 08/04 A3003", "KWDR 311355Z AUTO 00000KT 7SM OVC004 14/13 A3006 RMK AO2", "KWJF 311356Z 32003KT 10SM CLR 02/M10 A3003 RMK AO2 SLP172 T00221100", "KWLD 311354Z AUTO 00000KT 10SM CLR 08/05 A3002 RMK AO2 SLP166 T00780050", "KWMC 311356Z AUTO 00000KT 10SM CLR M05/M11 A3010 RMK AO2 SLP202 T10501106 $", "KWRB 311355Z AUTO 17008KT 3SM -DZ BR OVC009 20/20 A3001 RMK AO2 DZB52 CIG 009V011 CIG 006 RWY33 SLP163 P0000 T01990199", "KWRI 311355Z 00000KT 10SM SCT003 13/12 A3010 RMK AO2A VIS 1 3/8 RWY24 VIS 1 1/4 RWY36 SLP193 T01250123 $", "KWRL 311353Z AUTO 20004KT 10SM CLR M05/M07 A2995 RMK AO2 SLP170 T10501067", "KWST 311353Z AUTO 00000KT 7SM -RA FEW006 OVC021 14/13 A3010 RMK AO2 RAB22 SLP192 P0000 T01390128", "KWVI 311353Z AUTO 00000KT 1/2SM FG VV002 08/08 A2999 RMK AO2 SLP156 T00830083", "KWVL 311356Z AUTO 20005KT 10SM CLR 08/06 A3002 RMK AO2 SLP193 T00830056", "KWWD 311356Z AUTO 21003KT 10SM CLR 17/13 A3012 RMK AO2 SLP200 T01670133 $", "KWWR 311335Z AUTO 22007KT 10SM CLR 03/M01 A3005 RMK AO2", "KX07 311355Z AUTO 00000KT 10SM CLR 26/23 A3003 RMK A01", "KX26 311335Z AUTO 07003KT 10SM SCT023 26/23 A3002 RMK AO2 T02600232", "KX60 311355Z AUTO 00000KT 3 1/2SM BR OVC002 21/21 A3004 RMK AO2 T02080206", "KXBP 311335Z AUTO 00000KT 10SM CLR 09/09 A3006 RMK AO2 T00890089", "KXER 311335Z AUTO 00000KT 10SM 24/14 A2995 RMK A01", "KXIF 311355Z AUTO 00000KT 10SM CLR 11/09 A3005 RMK AO2 SLP182 T01100091 $", "KXLL 311355Z AUTO 00000KT 10SM CLR 10/06 A3011 RMK AO2", "KXMR 311355Z AUTO 08006KT 10SM FEW025 25/23 A3001 RMK AO2 SLP165 T02510229 $", "KXNA 311353Z 00000KT 1/4SM FG VV002 10/10 A3000 RMK AO2 SLP157 T01000100 RVRNO", "KXNO 311355Z AUTO 12003KT 2 3/4SM BR OVC002 17/17 A3007 RMK AO2 SLP184 T01650165 $", "KXNX 311355Z AUTO 18005KT 10SM SCT008 OVC025 16/16 A2999 RMK A01", "KXSA 311355Z AUTO 21006KT 10SM OVC065 16/15 A3012 RMK AO2 T01610146", "KXVG 311353Z AUTO 20005KT 10SM CLR 04/00 A2980 RMK AO2", "KXWA 311351Z AUTO 25010KT 10SM CLR 04/M01 A2974 RMK AO2 SLP093 T00441006", "KY19 311355Z AUTO 24008KT 10SM CLR 02/M02 A2978 RMK AO2", "KY23 311355Z AUTO 00000KT M1/4SM FG OVC001 01/01 A2988 RMK AO2 T00120012", "KY31 311355Z AUTO 00000KT 10SM BKN110 07/06 A2985 RMK AO2 T00680056", "KY49 311355Z AUTO 22008KT 10SM CLR 06/M02 A2979 RMK AO2 T00561016", "KY50 311356Z AUTO 00000KT 10SM CLR 04/04 A2987 RMK AO2 SLP119 T00440044 $", "KY51 311355Z AUTO 00000KT 7SM CLR 06/06 A2986 RMK AO1 T00560056", "KY63 311355Z AUTO 17006KT 10SM CLR 02/M01 A2984 RMK AO2 T00201007", "KY70 311355Z AUTO 00000KT 3/4SM BR OVC002 10/10 A2984 RMK AO2 T01010101", "KYIP 311353Z 00000KT 3SM BR OVC004 13/12 A2986 RMK AO2 RAE46 SLP109 P0003 T01280122 $", "KYKM 311353Z AUTO 25004KT 10SM OVC070 09/06 A2979 RMK AO2 SLP087 T00940061", "KYKN 311356Z AUTO 00000KT 1/2SM FG CLR 01/M01 A2990 RMK AO2 SLP147 T00111006 FZRANO", "KYNG 311351Z 16008KT 6SM -RA BR BKN009 OVC018 12/11 A2994 RMK AO2 SLP141 P0004 T01220106", "KZER 311355Z AUTO 16007KT 1SM BR OVC002 08/08 A3008 RMK AO2", "KZPH 311355Z AUTO 08004KT 10SM CLR 23/23 A3004 RMK A02 T02350225", "KZZV 311353Z AUTO 18006KT 10SM OVC004 16/14 A2995 RMK AO2 SLP139 T01560144", "LATI 311350Z 32010KT CAVOK 26/12 Q1018 NOSIG", "LBBG 311400Z 14008KT 9999 FEW036 20/12 Q1020 NOSIG", "LBGO 311400Z AUTO 29005KT 9999 NCD 22/10 Q1020 NOSIG", "LBIA 311400Z 03006KT 9999 SCT060 24/07 Q1020", "LBPD 311400Z AUTO VRB02KT 9999 OVC180/// 25/08 Q1019 NOSIG", "LBPG 311400Z 36008KT 9999 FEW060 SCT100 BKN200 26/07 Q1019", "LBPL 311400Z 26004KT 9999 FEW100 25/12 Q1020", "LBSF 311400Z 00000KT CAVOK 23/08 Q1022 NOSIG", "LBWB 311400Z 35008KT 9999 SCT040 21/09 Q1020", "LBWN 311400Z 15005KT 120V190 9999 FEW047 22/10 Q1019 NOSIG", "LCEN 311350Z 23009KT 9999 FEW020CB SCT025 23/14 Q1013 NOSIG RMK RWY11 24009KT", "LCLK 311330Z VRB02KT 9999 FEW025CB SCT030 26/14 Q1013 NOSIG", "LCPH 311330Z 32014KT 9999 FEW030TCU 24/15 Q1014", "LCRA 311350Z 26014KT 9999 FEW060TCU 24/15 Q1013 NOSIG", "LDDU 311400Z 28008KT CAVOK 24/12 Q1020 NOSIG", "LDOS 311400Z 06005KT 2000 BR SCT007 14/12 Q1023", "LDPL 311400Z 26003KT 240V300 CAVOK 24/15 Q1021 NOSIG", "LDRI 311400Z VRB02KT CAVOK 23/10 Q1021", "LDSP 311400Z 23007KT CAVOK 24/12 Q1020 BECMG 24004KT", "LDZA 311400Z 11004KT 080V140 3000 BR OVC002 13/12 Q1021 BECMG 5000 SCT005", "LDZD 311400Z 28005KT CAVOK 24/15 Q1021 NOSIG", "LEAB 311330Z 16005KT 130V200 CAVOK 21/13 Q1020 NOSIG", "LEAG 311330Z AUTO 06007KT 040V100 CAVOK 20/18 Q1020", "LEAL 311330Z 11006KT 060V140 9999 SCT025 23/18 Q1018 NOSIG", "LEAM 311330Z 22005KT 190V260 CAVOK 23/19 Q1018", "LEAO 311330Z 29009KT 260V320 9999 FEW049 21/08 Q1020", "LEAS 311330Z 25010KT 9999 FEW050 BKN082 19/15 Q1010 TEMPO 30020G35KT", "LEBA 311330Z 26006KT CAVOK 22/14 Q1019", "LEBB 311330Z VRB05KT 9999 SCT066 25/12 Q1011 NOSIG", "LEBG 311330Z 20020KT 9999 FEW025 SCT056 15/11 Q1016", "LEBL 311330Z 14005KT 110V170 9999 FEW025 SCT040 22/18 Q1019 NOSIG", "LEBR 311330Z AUTO 11012KT 9999 NSC 20/13 Q1016", "LEBT 311330Z AUTO 14004KT 030V180 9999 FEW032 24/16 Q1018", "LEBZ 311330Z 20009KT 170V240 9999 FEW045 20/16 Q1017", "LECH 311330Z AUTO 18008KT 150V210 CAVOK 21/16 Q1019", "LECO 311330Z 30011KT 240V020 9999 SCT018 17/13 Q1013 TEMPO 3000 RA BKN010", "LECV 311330Z 21005KT 9999 -RA FEW025 BKN035 13/12 Q1020", "LEDA 311330Z 07009KT 040V100 9999 OVC033 22/15 Q1018", "LEEC 311330Z VRB02KT CAVOK 23/15 Q1019", "LEGA 311330Z 27013KT CAVOK 26/02 Q1021", "LEGE 311330Z 19014KT 9999 FEW040 24/16 Q1018", "LEGR 311330Z 29009KT 260V320 CAVOK 26/06 Q1020", "LEGT 311330Z 22004KT 120V270 9999 -RA FEW030 18/11 Q1020", "LEHC 311330Z 10013KT 080V150 9999 BKN026 20/14 Q1018", "LEIB 311330Z 13007KT 080V160 9999 BKN018 24/19 Q1019 NOSIG", "LEJR 311400Z 19007KT 160V220 CAVOK 25/13 Q1018", "LELC 311330Z 10004KT 060V130 9999 FEW020 24/19 Q1018 NOSIG", "LELL 311330Z 14003KT 060V190 9000 SCT020 BKN035 23/17 Q1019", "LELN 311330Z 19016KT 160V220 9999 FEW005 BKN010 14/12 Q1014", "LELO 311330Z 10013KT 9999 FEW018 17/14 Q1015", "LEMD 311330Z 06001KT 9999 FEW060 16/12 Q1020 TEMPO RA", "LEMG 311330Z 13005KT 090V160 9999 FEW030 22/16 Q1019 NOSIG", "LEMH 311330Z 15012KT 110V180 9999 SCT020 23/19 Q1020", "LEMI 311330Z 18003KT 120V250 9999 FEW020 23/17 Q1019", "LEMO 311400Z 03003KT 320V080 CAVOK 23/14 Q1018 NOSIG", "LEPA 311330Z 18008KT 100V210 9999 FEW032 26/19 Q1019 NOSIG", "LEPP 311330Z 15013G24KT 110V200 CAVOK 18/12 Q1015", "LERI 311330Z 11007KT 080V140 CAVOK 25/16 Q1018 NOSIG", "LERS 311330Z 20007KT 150V250 9999 SCT020 23/18 Q1019", "LERT 311330Z 18010KT 140V200 CAVOK 22/18 Q1018 NOSIG", "LESA 311330Z 22018KT 190V260 9999 FEW018 SCT038 16/12 Q1016", "LESB 311330Z AUTO 20011KT CAVOK 25/17 Q1019", "LESO 311330Z 21014G24KT 160V270 CAVOK 23/13 Q1011", "LEST 311330Z 30008KT 250V340 9999 FEW025 SCT040 16/12 Q1014 TEMPO 3000 RA BKN010", "LESU 311330Z 19010KT 9999 BKN095 18/11 Q1020", "LETL 311330Z AUTO 19010KT 160V220 CAVOK 19/10 Q1021", "LETO 311330Z VRB02KT 9999 FEW060 16/11 Q1020 TEMPO RA", "LETU 311330Z AUTO 12015KT 9999 NCD 19/13 Q1016", "LEVC 311330Z 12006KT 020V150 9999 FEW028 23/16 Q1018 NOSIG", "LEVD 311330Z 21012KT 9999 -RA FEW025 14/13 Q1016", "LEVS 311330Z 17003KT 140V210 9999 -RA FEW020 SCT077 16/12 Q1020", "LEVT 311330Z 20010KT 9999 FEW050 BKN068 19/11 Q1014", "LEVX 311330Z 28007KT 210V330 9999 BKN016 17/13 Q1015 NOSIG", "LEXJ 311330Z 22017G30KT 160V270 CAVOK 24/11 Q1008", "LEZG 311330Z 11007KT 080V160 9999 FEW080 21/15 Q1017", "LEZL 311330Z 04004KT 340V070 CAVOK 22/15 Q1018 NOSIG", "LFAC 311330Z AUTO 11008KT CAVOK 16/14 Q1012", "LFAQ 311330Z AUTO 12010KT CAVOK 18/13 Q1012 NOSIG", "LFAT 311330Z AUTO 12008KT CAVOK 17/14 Q1011 NOSIG", "LFBA 311330Z AUTO 11008KT 9999 //////TCU 22/15 Q1012 BECMG NSC", "LFBC 311330Z AUTO 16006KT 9999 -RA NSC 18/16 Q1010 TEMPO 20015G25KT BKN050TCU BECMG 4900 -RA", "LFBD 311330Z AUTO 15009KT 9999 -RA ///TCU 20/15 Q1011 NOSIG", "LFBE 311330Z AUTO 14010KT CAVOK 22/13 Q1012 TEMPO 20015G25KT SHRA BKN040TCU", "LFBF 311330Z AUTO 13009KT 100V180 CAVOK 24/15 Q1013", "LFBG 311330Z AUTO 15008KT 9999 -RA NSC 19/17 Q1011 TEMPO 16015G25KT 2000 SHRA BKN030CB", "LFBH 311330Z AUTO 15014KT 9999 -RA NSC 18/15 Q1009 TEMPO 3000 SHRA BKN025CB BECMG 16015G30KT", "LFBI 311330Z AUTO 19013KT 9999 -RA FEW037 BKN078 OVC088 19/14 Q1011 TEMPO 3000 SHRA BKN014 BKN025CB BECMG 20016G30KT", "LFBL 311330Z AUTO /////KT 9999 ////// 20/12 Q1013", "LFBM 311330Z AUTO VRB01KT 9999 // ///CB 19/16 Q1013", "LFBO 311330Z AUTO 14015KT 9999 FEW009 25/14 Q1013 TEMPO 14015G25KT", "LFBT 311330Z AUTO VRB02KT 9999 FEW098/// BKN150/// OVC210/// //////TCU 18/13 Q1014 BECMG NSC", "LFBU 311330Z AUTO 15010KT 100V180 9999 -RA NSC 20/14 Q1011 TEMPO 22015G30KT 3000 SHRA SCT030CB", "LFBX 311330Z AUTO VRB03KT 9999 -RA FEW039/// OVC100/// //////TCU 22/14 Q1012", "LFBY 311330Z AUTO 13007KT 9999 // ////// 17/15 Q1012", "LFBZ 311330Z AUTO 18005KT 120V220 CAVOK 21/14 Q1011 TEMPO 20015G25KT TSRA BKN008 BKN030CB", "LFCK 311330Z AUTO 12027G37KT CAVOK 23/14 Q1015 NOSIG", "LFCR 311330Z AUTO 13017KT CAVOK 21/13 Q1016 BECMG 14018G28KT", "LFGA 311330Z AUTO 02003KT 350V060 CAVOK 18/12 Q1017", "LFGJ 311330Z AUTO 19017KT CAVOK 21/12 Q1017 TEMPO 19015G25KT", "LFHP 311330Z AUTO 16014G25KT 140V200 9999 BKN031 18/12 Q1018", "LFJL 311330Z AUTO 13010KT 9999 //////TCU 18/11 Q1016 BECMG NSC", "LFJR 311330Z AUTO 16009KT 9999 FEW032 BKN044 OVC054 20/15 Q1009", "LFKB 311330Z AUTO 08004KT 040V130 CAVOK 23/15 Q1022 TEMPO BKN010", "LFKC 311330Z AUTO 36006KT 320V040 CAVOK 22/15 Q1022 NOSIG", "LFKF 311330Z AUTO 23007KT 190V260 CAVOK 24/12 Q1022 NOSIG", "LFKJ 311330Z AUTO 22008KT CAVOK 23/16 Q1022 NOSIG", "LFKS 311330Z AUTO 15007KT 120V180 CAVOK 23/15 Q1022", "LFLB 311330Z AUTO VRB03KT CAVOK 20/14 Q1019 NOSIG", "LFLC 311330Z AUTO 17016KT 140V200 9999 FEW058 BKN220 23/11 Q1014 BECMG 18015G28KT", "LFLH 311330Z AUTO 17008KT 140V210 CAVOK 21/14 Q1016", "LFLL 311330Z 18020KT 9999 FEW043 BKN260 22/10 Q1017 NOSIG", "LFLN 311330Z AUTO 17013KT CAVOK 23/11 Q1015 TEMPO 18015G25KT", "LFLP 311330Z AUTO 23007KT 200V270 CAVOK 19/12 Q1019 NOSIG", "LFLS 311330Z AUTO 21010KT 180V260 9999 FEW032 20/14 Q1019 TEMPO 22015G25KT", "LFLU 311330Z AUTO 18022KT CAVOK 22/12 Q1018", "LFLV 311330Z AUTO 17012KT 140V210 CAVOK 24/12 Q1014", "LFLW 311330Z AUTO 15014KT 110V180 9999 FEW036 BKN100 20/12 Q1016 TEMPO 14015G27KT", "LFLX 311330Z AUTO 15008KT CAVOK 21/14 Q1012 TEMPO 22020G33KT 2500 TSRA SCT030CB", "LFLY 311330Z AUTO 19019KT CAVOK 23/10 Q1017 TEMPO 18015G30KT", "LFMC 311330Z AUTO 14008KT 100V180 9999 ////// 24/13 Q1021", "LFMD 311330Z AUTO 14006KT 080V180 CAVOK 22/17 Q1022 TEMPO BKN010", "LFMH 311330Z AUTO 17018KT CAVOK 21/11 Q1016", "LFMI 311330Z AUTO 15017KT 9999 FEW033 BKN044 OVC054 23/15 Q1020 TEMPO 15015G25KT", "LFMK 311330Z AUTO 08020KT CAVOK 24/13 Q1014 TEMPO 09017G27KT", "LFML 311330Z AUTO 14015KT CAVOK 24/15 Q1020 NOSIG", "LFMN 311330Z 13007KT CAVOK 21/17 Q1022 NOSIG", "LFMO 311330Z AUTO 15009KT 9999 SCT046 BKN060 BKN072 24/15 Q1020 TEMPO 3100 SHRA BKN030CB", "LFMP 311330Z AUTO 16014KT 130V200 CAVOK 25/14 Q1015 TEMPO 17020G30KT", "LFMT 311330Z AUTO 13019KT 9999 SCT017/// BKN022/// BKN031/// ///TCU 21/19 Q1019 TEMPO 14015G25KT OVC007", "LFMU 311330Z AUTO 12012KT 9999 BKN014 BKN019 OVC029 22/19 Q1018 TEMPO OVC008 BECMG 12015G25KT", "LFMV 311330Z AUTO 17011KT 9999 FEW048 SCT058 23/14 Q1020 TEMPO 16015G25KT", "LFMY 311330Z AUTO 16011KT 130V200 9999 FEW047 BKN056 24/14 Q1020", "LFOA 311330Z AUTO 15010KT CAVOK 22/13 Q1013", "LFOB 311330Z AUTO 13009KT CAVOK 19/14 Q1011 NOSIG", "LFOE 311330Z AUTO 16010KT 9999 SCT037 SCT058 BKN240 19/14 Q1010 NOSIG", "LFOH 311330Z AUTO 13010KT CAVOK 17/14 Q1009 BECMG 18015G25KT", "LFOJ 311330Z AUTO 17011KT CAVOK 20/13 Q1011 TEMPO 4000 -SHRA SCT040TCU", "LFOK 311330Z AUTO 19013KT CAVOK 20/13 Q1014 NOSIG", "LFOP 311330Z AUTO 14009KT CAVOK 17/13 Q1010 BECMG 18015G25KT", "LFOT 311330Z AUTO 16011KT CAVOK 21/14 Q1010 TEMPO 20018G35KT 2000 TSRA BKN040CB", "LFOV 311330Z AUTO 15008KT 9999 FEW015 SCT031 BKN046 18/15 Q1008", "LFOZ 311330Z AUTO 16012KT CAVOK 21/13 Q1012", "LFPB 311330Z AUTO 16015KT 9999 FEW034 SCT054 21/13 Q1012 NOSIG", "LFPG 311330Z 17011KT 9999 FEW030 BKN260 20/13 Q1012 NOSIG", "LFPM 311330Z AUTO 18011KT 9999 BKN033 21/15 Q1012", "LFPN 311330Z AUTO 17010KT 9999 FEW025 19/13 Q1012 NOSIG", "LFPO 311330Z 18009KT 150V210 9999 FEW027 SCT050 BKN260 20/14 Q1012 NOSIG", "LFPT 311330Z AUTO 17011KT 140V200 9999 FEW033 20/13 Q1011", "LFPV 311330Z AUTO 17010KT 150V210 9999 FEW024 SCT048 18/14 Q1012 BECMG 08007KT", "LFQA 311330Z AUTO 10007KT CAVOK 19/14 Q1013", "LFQB 311330Z AUTO 19012KT CAVOK 21/12 Q1014", "LFQG 311330Z AUTO 13009KT 100V170 CAVOK 22/14 Q1013", "LFQQ 311330Z AUTO 09005KT CAVOK 17/14 Q1012 BECMG 18012KT", "LFRB 311330Z AUTO 16012KT 130V190 9999 OVC012/// ///TCU 16/14 Q1003 TEMPO 16020G30KT 3000 SHRA BKN008 BKN020CB", "LFRC 311330Z AUTO 12010KT 9999 FEW008 BKN056 BKN072 15/14 Q1007 TEMPO 16015G25KT 4000 SHRA BKN008 BKN030CB", "LFRD 311330Z AUTO 16011KT 9999 OVC012 16/14 Q1006 BECMG SCT010 BKN040", "LFRG 311330Z AUTO 13009KT 9999 SCT021 BKN100 OVC230 17/14 Q1009 TEMPO 16015G25KT 3000 SHRA SCT008 BKN030CB", "LFRH 311330Z AUTO 16015KT 9999 -DZ BKN009 OVC023 17/16 Q1005 TEMPO 4000 SHRA BKN008 SCT012CB OVC025 BECMG 18015G25KT", "LFRI 311330Z AUTO 18015KT 9999 SCT024 SCT042 BKN096 18/15 Q1009 TEMPO 3000 SHRA BKN010 BKN020CB BECMG 18015G25KT", "LFRJ 311330Z AUTO 16014KT 9999 BKN014/// OVC020/// //////TCU 16/14 Q1004", "LFRK 311330Z AUTO 14013KT 9999 SCT021 BKN082 BKN100 17/14 Q1008 TEMPO 16015G25KT 3000 SHRA SCT008 BKN030CB", "LFRL 311330Z AUTO 15011KT 9999 BKN012/// BKN018/// OVC027/// //////CB 16/15 Q1003", "LFRM 311330Z AUTO 16007KT 120V210 9999 FEW031 BKN200 21/14 Q1009 TEMPO 3000 SHRA BKN012 BKN020CB", "LFRN 311330Z AUTO 15009KT 9999 BKN019 BKN058 BKN150 18/15 Q1007 TEMPO 15015G25KT BKN008", "LFRO 311330Z AUTO 14013KT 9999 OVC019 16/13 Q1005", "LFRQ 311330Z AUTO 17016KT 9999 BKN007/// OVC013/// //////CB 16/15 Q1004 TEMPO 3000 SHRA BECMG 20020G35KT", "LFRS 311330Z AUTO 18015KT 9999 BKN024 OVC082 19/15 Q1007 TEMPO 3000 SHRA BKN012 BKN020CB BECMG 20020G30KT", "LFRT 311330Z AUTO 16010KT 120V190 9999 OVC013 16/13 Q1005", "LFRU 311330Z AUTO 15009KT 120V180 9999 OVC013/// ///TCU 16/13 Q1004", "LFRV 311330Z AUTO 17014KT 150V210 9999 -DZ BKN008/// OVC012/// ///TCU 17/15 Q1006", "LFRZ 311330Z AUTO 17017KT 9999 SCT020 SCT026 OVC088 18/15 Q1007 TEMPO 3000 SHRA BKN012 BKN020CB BECMG 18020G35KT", "LFSB 311330Z AUTO VRB02KT CAVOK 20/13 Q1017 NOSIG", "LFSD 311330Z AUTO 17009KT CAVOK 20/14 Q1016", "LFSG 311330Z AUTO 19012KT CAVOK 19/11 Q1016", "LFSI 311330Z AUTO 16009KT CAVOK 21/13 Q1014", "LFSL 311330Z AUTO 16009KT 130V190 CAVOK 24/12 Q1013 TEMPO 15015G25KT SHRA BKN050TCU", "LFSM 311330Z AUTO VRB03KT CAVOK 21/12 Q1017", "LFSN 311330Z AUTO VRB01KT 9999 //////TCU 18/13 Q1016", "LFSO 311330Z AUTO 16007KT 130V190 9999 FEW046/// BKN120/// BKN140/// ///TCU 19/10 Q1016", "LFST 311330Z AUTO 02002KT CAVOK 17/13 Q1018 NOSIG", "LFSX 311330Z AUTO 21004KT 170V240 CAVOK 21/13 Q1017", "LFTH 311330Z AUTO 10008KT CAVOK 22/18 Q1021 TEMPO FEW080TCU", "LFTW 311330Z AUTO 15016KT 9999 BKN020 BKN025 BKN032 21/17 Q1020 TEMPO 15015G25KT 4000 SHRA BKN012 BKN020CB", "LFVP 311330Z AUTO 23022KT CAVOK 13/10 Q1015 NOSIG", "LFYR 311330Z AUTO 14006KT 110V170 CAVOK 22/14 Q1011", "LGAD 311350Z 32004KT 9999 FEW030 23/13 Q1018", "LGAL 311350Z 10009KT 9999 FEW030 24/09 Q1018", "LGAV 311350Z 06013KT 9999 FEW030 23/09 Q1018 NOSIG", "LGBL 311350Z 10005KT 9999 FEW040 23/10 Q1019", "LGEL 311350Z 36008KT CAVOK 26/07 Q1018", "LGHI 311350Z 01009KT CAVOK 22/08 Q1015", "LGIO 311350Z 10007KT 040V130 9999 FEW050 25/08 Q1020", "LGIR 311350Z 33010KT 9999 FEW025 19/13 Q1017 NOSIG", "LGKC 311350Z 07006KT 030V110 CAVOK 20/15 Q1019", "LGKF 311350Z 28005KT CAVOK 23/18 Q1018", "LGKL 311350Z 16008KT 9999 FEW025 23/11 Q1018", "LGKO 311350Z 31011KT CAVOK 25/09 Q1015", "LGKP 311350Z 31025KT 9999 FEW020 21/15 Q1015", "LGKR 311350Z VRB02KT CAVOK 25/18 Q1017 NOSIG", "LGKV 311320Z 25006KT 9999 FEW030 23/10 Q1019", "LGKZ 311350Z AUTO 16004KT 100V200 //// // ////// 22/03 Q1021 RE//", "LGLM 311350Z 02009KT 9999 FEW018 20/11 Q1019", "LGMK 311350Z 01020KT CAVOK 20/11 Q1017", "LGMT 311350Z 32007KT 9999 FEW020 21/09 Q1017", "LGNX 311250Z 01007KT CAVOK 20/11 Q1017", "LGPA 311350Z 35009KT CAVOK 20/09 Q1017", "LGPZ 311350Z 26005KT 9999 FEW020 23/13 Q1018", "LGRP 311350Z 24014KT CAVOK 23/14 Q1014 NOSIG", "LGRX 311350Z 00000KT CAVOK 25/06 Q1018", "LGSA 311350Z 32005KT 9999 FEW020 19/13 Q1017", "LGSK 311350Z 01006KT 9999 FEW018 21/15 Q1018", "LGSM 311350Z 01006KT CAVOK 23/11 Q1015", "LGSO 311350Z AUTO 01011KT //// -RA ////// 20/12 Q1017 RE//", "LGSR 311350Z 35010KT 9999 FEW025 21/12 Q1017", "LGTS 311350Z 20007KT CAVOK 26/09 Q1019 NOSIG", "LGZA 311350Z 15004KT CAVOK 23/15 Q1018", "LHBP 311400Z 14003KT 070V170 6000 OVC004 12/11 Q1023 NOSIG", "LHDC 311315Z AUTO 08003KT 050V150 7000 OVC007 12/11 Q1024 NOSIG", "LHKE 311345Z 00000KT 3500 BR OVC004 11/10 Q1023 NOSIG RMK YLO", "LHPA 311315Z 00000KT 3000 BR OVC003 11/11 Q1022 NOSIG RMK YLO", "LHPP 311315Z AUTO VRB02KT 9000 NCD 15/15 Q1022", "LHPR 311315Z AUTO VRB03KT 9999 OVC005 12/10 Q1023 NOSIG", "LHSM 311315Z AUTO 16003KT 0800 R16/P1500 FG VV002 11/11 Q1023 NOSIG", "LHSN 311345Z 00000KT 6000 OVC008 12/11 Q1023 NOSIG RMK GRN", "LIBA 311255Z 27004KT CAVOK 28/11 Q1021 RMK SKC VIS MIN 9999 WIND THR11 27008KT WIND THR29 /////KT BLU", "LIBC 311250Z 05010KT 010V080 CAVOK 26/08 Q1020", "LIBD 311350Z 35003KT 290V100 CAVOK 23/11 Q1021", "LIBF 311250Z 32008KT CAVOK 27/09 Q1021", "LIBG 311250Z 01009KT CAVOK 27/10 Q1019", "LIBN 311255Z 35012KT CAVOK 22/16 Q1020 RMK SCT SCT200 VIS MIN 9999 WIND THR14 34013KT WIND THR32 36012KT BLU", "LIBP 311350Z AUTO 08007KT 9999 NCD 22/14 Q1022", "LIBQ 311255Z 04007KT CAVOK 14/02 Q1027", "LIBR 311350Z 33015KT CAVOK 21/18 Q1020", "LIBV 311255Z 33008KT CAVOK 24/07 Q1021 RMK SKC VIS MIN 9999 WIND THR32 36009KT WIND THR14 35009KT BLU", "LIBY 311255Z 02008KT CAVOK 24/17 Q1018 RMK FEW FEW200 QUK 3 QUL 1 N VIS MAR 12 KM VIS MIN 9999", "LICA 311350Z AUTO 26008KT 9999 FEW023/// 22/17 Q1021", "LICB 311350Z AUTO 26007KT 9999 NCD 24/13 Q1021", "LICC 311350Z 06007KT CAVOK 24/14 Q1020", "LICD 311350Z AUTO 23007KT 9999 BKN042/// 24/15 Q1022", "LICF 311255Z 01006KT 9999 FEW030 23/09 Q1021 RMK FEW QUK 2 QUL 0 VIS MAR 20 KM MON E CIME INC NC MON W LIB NC VIS MIN 9999", "LICG 311250Z 06005KT 9999 FEW020 21/17 Q1023", "LICJ 311350Z AUTO 02011KT 9999 NCD 22/15 Q1021", "LICR 311350Z AUTO 35015KT 9999 NCD 23/16 Q1021", "LICT 311255Z 36009KT CAVOK 24/18 Q1021 RMK SKC VIS MIN 9999 WIND THR13 02009KT BLU", "LICZ 311255Z /////KT CAVOK 26/M08 Q1020 RMK SKC VIS MIN 9999 WIND THR28 21003KT WIND THR10 23005KT A3013 BLU", "LIEA 311350Z 20006KT 9999 FEW020 24/15 Q1021", "LIEB 311255Z 05004KT CAVOK 26/14 Q1022 RMK FEW FEW200 QUK 1 QUL 0 VIS MAR 30 KM MON LIB VIS MIN 9999", "LIED 311255Z 16007KT 9999 FEW025 26/10 Q1022 RMK SCT SCT200 VIS MIN 9999 WIND THR35 /////KT WIND THR17 17005KT BLU", "LIEE 311350Z 18007KT CAVOK 23/15 Q1022", "LIEO 311350Z 07007KT CAVOK 24/15 Q1021", "LIMA 311250Z VRB02KT CAVOK 23/09 Q1022", "LIMC 311350Z 13004KT 080V180 CAVOK 23/14 Q1021 NOSIG", "LIME 311350Z 20003KT 150V270 CAVOK 23/11 Q1021 NOSIG", "LIMF 311350Z 08004KT CAVOK 22/11 Q1021", "LIMG 311250Z 07010KT 9999 FEW020 21/16 Q1022", "LIMH 311255Z AUTO 21008KT //// M01/M05 Q1031", "LIMJ 311350Z VRB02KT CAVOK 21/17 Q1022", "LIMK 311255Z 00000KT CAVOK 20/15 Q1023 RMK BKN BKN200 VAL S FOSCHIA VIS MIN 9999", "LIML 311350Z VRB02KT CAVOK 24/12 Q1021 NOSIG", "LIMN 311255Z /////KT CAVOK 23/13 Q1022 RMK FEW FEW200 VIS MIN 9999 BLU", "LIMP 311250Z VRB03KT CAVOK 23/13 Q1022", "LIMS 311255Z 02002KT CAVOK 22/15 Q1021 RMK BKN BKN220 VIS MIN 9999 WIND THR30 03002KT BLU", "LIMU 311255Z 01010KT 9999 FEW020 21/18 Q1024 RMK SCT SCT200 QUK 1 QUL 1 SE VIS MAR 20 KM VIS MIN 9999", "LIMV 311255Z /////KT CAVOK 18/13 Q1023 RMK SCT SCT200 MON LIB VAL NIL VIS MIN 9999", "LIMW 311350Z AUTO VRB02KT 9999 NCD 20/07 Q1021", "LIMY 311255Z 03003KT CAVOK 21/11 Q1021", "LIMZ 311350Z AUTO 36006KT 320V020 9999 NCD 21/10 Q1021", "LIPA 311255Z 16002KT CAVOK 24/17 Q1021 RMK BKN BKN200 VIS MIN 9999 WIND THR05 /////KT WIND THR23 /////KT A3016 BLU", "LIPB 311350Z VRB02KT CAVOK 21/10 Q1021", "LIPC 311255Z 06005KT CAVOK 23/16 Q1022 RMK FEW FEW220 VIS MIN 9999 WIND THR11 08006KT WIND THR29 08006KT BLU", "LIPE 311350Z VRB02KT CAVOK 24/12 Q1021", "LIPF 311255Z 00000KT CAVOK 23/14 Q1022 RMK FEW FEW200 VIS MIN 9999", "LIPH 311350Z VRB02KT CAVOK 24/12 Q1021", "LIPI 311255Z 18002KT CAVOK 23/14 Q1021 RMK BKN BKN200 VIS MIN 9999 WIND THR06 26002KT WIND THR24 21002KT BLU", "LIPK 311350Z VRB02KT CAVOK 25/12 Q1021", "LIPL 311255Z 23003KT CAVOK 23/12 Q1021 RMK FEW FEW200 VIS MIN 9999 WIND THR31 23004KT WIND THR13 24003KT BLU", "LIPO 311350Z AUTO 24006KT 9999 FEW250/// 24/11 Q1021", "LIPQ 311350Z AUTO 16003KT 9999 NCD 22/16 Q1021", "LIPR 311350Z 06004KT 030V090 CAVOK 20/15 Q1021", "LIPS 311255Z /////KT CAVOK 25/15 Q1021 RMK BKN BKN200 VIS MIN 9999 WIND THR26 18003KT WIND THR08 18003KT BLU", "LIPX 311350Z VRB01KT CAVOK 24/12 Q1021", "LIPY 311350Z AUTO 06005KT 030V090 9999 NCD 21/16 Q1021", "LIPZ 311350Z 19004KT 7000 NSC 22/15 Q1021 NOSIG", "LIQC 311255Z 00000KT CAVOK 20/16 Q1022 RMK SKC QUK 1 QUL 0 VIS MAR 20 KM VIS MIN 9999", "LIQN 311250Z 30003KT 260V340 CAVOK 23/08 Q1023", "LIQO 311255Z AUTO /////KT //// ///// Q////", "LIQW 311255Z 15003KT CAVOK 23/11 Q1022 RMK SKC VIS MIN 9999 WIND THR14 /////KT BLU", "LIRA 311350Z 36004KT 310V040 CAVOK 25/07 Q1022", "LIRE 311255Z 26007KT CAVOK 24/15 Q1022 RMK SKC VIS MIN 9999 WIND THR13 22007KT WIND THR31 /////KT BLU", "LIRF 311350Z 27006KT CAVOK 22/17 Q1022 NOSIG", "LIRG 311255Z 26003KT CAVOK 25/06 Q1022 RMK SKC MON NE LIB NC VIS MIN 9999 BLU", "LIRH 311255Z 33002KT CAVOK 25/09 Q1022 RMK SKC MON LIB NC VIS MIN 9999 WIND THR16 20002KT BLU", "LIRI 311250Z 26005KT 230V290 CAVOK 22/15 Q1022", "LIRK 311255Z AUTO 26003KT //// 17/00 Q1033", "LIRL 311255Z 21005KT CAVOK 26/18 Q1021 RMK SKC MON LIB NC VIS MIN 9999 WIND THR12 /////KT WIND THR30 24005KT BLU", "LIRM 311255Z 22004KT CAVOK 25/03 Q1022 RMK SKC VIS MIN 9999 WIND THR06 23006KT BLU", "LIRN 311350Z 23005KT 180V250 CAVOK 23/17 Q1022 NOSIG", "LIRP 311345Z 27004KT CAVOK 23/12 Q1022 NOSIG", "LIRQ 311350Z VRB02KT CAVOK 24/11 Q1022", "LIRS 311255Z 20005KT CAVOK 23/13 Q1022 RMK SCT SCT200 VIS MIN 9999 WIND THR03 24006KT WIND THR21 24005KT BLU", "LIRT 311255Z 08005KT CAVOK 19/03 Q1026 RMN SUA NON LIB VAL NIL VIS MIN 9999", "LIRU 311250Z VRB02KT CAVOK 26/10 Q1022", "LIRV 311255Z 24005KT CAVOK 24/10 Q1024 RMK SKC MON E SE LIB NC VIS MIN 9999 WIND THR04 ///// KT BLU", "LIRX 311255Z 30002KT CAVOK 23/12 Q1022 RMK SCT SCT200 VIS MIN 9999 VIS MAR 20 KM", "LIRZ 311350Z AUTO VRB02KT 9999 NCD 24/09 Q1022", "LIVC 311255Z AUTO 23005KT //// 13/M01 Q1031", "LIVD 311255Z VRB03KT 9999 FEW020 18/08 Q1026 RMK BKN BKN200 VIS MIN 9999", "LIVE 311255Z 16008KT 9999 SCT050 16/03 Q1026 RMK BKN SCT180 VIS MIN 9999", "LIVF 311255Z 08002KT CAVOK 21/07 Q1022", "LIVM 311255Z VRB03KT CAVOK 22/14 Q1022 RMK SCT SCT180 QUK 1 QUL 0 VIS MAR 12 KM VIS MIN 9999", "LIVO 311255Z 00000KT CAVOK 22/11 Q1024 RMK SCT SCT200 VIS MIN 9999", "LIVP 311255Z 19010KT CAVOK 11/M02 Q1029", "LIVT 311255Z AUTO 28002KT //// 20/15 Q1021", "LJCE 311330Z 07005KT 040V100 CAVOK 19/14 Q1021 RMK BLU", "LJLJ 311330Z 06003KT 040V100 CAVOK 22/12 Q1021 NOSIG", "LJMB 311330Z 12004KT 090V150 CAVOK 16/12 Q1021", "LJPZ 311330Z 28004KT 240V320 CAVOK 21/17 Q1021", "LKCV 311330Z 24002KT 0150 R31/0350U FG VV001 11/11 Q1021 NOSIG RMK RED RED", "LKKB 311300Z 04003KT 010V070 5000 BR NSC 11/11 Q1021 NOSIG", "LKKU 311300Z 27003KT 230V300 6000 OVC005 11/10 Q1022", "LKKV 311330Z 11007KT CAVOK 20/08 Q1021", "LKLN 311300Z AUTO VRB02KT CAVOK 20/11 Q1020", "LKMT 311330Z 23010KT CAVOK 13/11 Q1021 NOSIG", "LKNA 311330Z 12004KT 100V160 0200 R30/0150 FG VV001 09/09 Q1022 NOSIG RMK RED RED", "LKPD 311330Z VRB02KT 0500 R27/0600U FG VV002 11/11 Q1021 NOSIG RMK RED RED", "LKPR 311330Z 02004KT 9999 VCFG NSC 16/12 Q1021 NOSIG", "LKTB 311330Z VRB02KT 6000 OVC003 10/10 Q1022 TEMPO OVC004", "LKVO 311300Z VRB02KT 0100 FG VV002 12/12 Q1022", "LLBG 311350Z 31009KT 9999 FEW035 26/15 Q1014 NOSIG", "LLER 311350Z 02011KT CAVOK 29/11 Q1012 RMK FEW060", "LLHA 311350Z 30008KT 9999 FEW035 26/16 Q1014", "LLIB 311350Z AUTO 32010KT 290V350 9999 SCT050 25/10 Q1014", "LMML 311315Z 33009KT 310V020 9999 FEW035 23/15 Q1021 NOSIG", "LOAN 311300Z 12004KT 0700 FG VV002", "LOAV 311300Z VRB02KT 3000 BR VV005 11/11", "LOWG 311350Z 17007KT CAVOK 18/13 Q1021 NOSIG", "LOWI 311350Z 25006KT 210V270 CAVOK 20/09 Q1019 WS R26 TEMPO FM1430 12015G25KT", "LOWK 311350Z 07003KT 040V100 CAVOK 19/12 Q1022 NOSIG", "LOWL 311320Z AUTO VRB02KT 3500 R26/P1500U BR BKN001 12/12 Q1020 BECMG 5000 SCT003 SCT005", "LOWS 311350Z 29003KT CAVOK 19/12 Q1019 NOSIG", "LOWW 311350Z 12004KT 5000 BR FEW003 OVC004 12/11 Q1022 TEMPO BKN005", "LOXZ 311350Z 00000KT 9999 FEW330 19/11 Q1021 NOSIG", "LPAR 311300Z 27007KT 230V300 9999 FEW015 SCT025 23/16 Q1016", "LPAZ 311330Z 13008KT 100V160 CAVOK 19/11 Q1023", "LPBJ 311300Z 17010KT 9999 SCT014 BKN030 20/18 Q1018", "LPCS 311330Z 28010KT 240V310 7000 -RA FEW007 SCT014 BKN022 19/17 Q1017", "LPFL 311330Z 35004KT 9999 FEW028 19/09 Q1022", "LPFR 311330Z 16006KT 9999 FEW006 21/20 Q1018 RERA", "LPHR 311330Z 16008KT 9999 FEW025 19/12 Q1023", "LPLA 311300Z /////KT 9999 FEW025 18/11 Q1023", "LPMA 311330Z VRB05KT 9999 SCT015 23/18 Q1020", "LPMR 311300Z 23006KT 210V280 2500 DZ BR BKN010 BKN015 BKN028 18/17 Q1016", "LPMT 311300Z 26009KT 9999 FEW024 SCT043 22/18 Q1016", "LPOV 311300Z 32006KT 210V350 9000 FEW006 BKN015 18/16 Q1015", "LPPD 311330Z 19004KT 100V260 9999 FEW025 19/09 Q1023", "LPPR 311330Z 33010KT 9999 SCT020 BKN035 18/15 Q1015", "LPPS 311330Z 29007KT 260V320 9999 FEW015 23/17 Q1020", "LPPT 311330Z 29008KT 260V320 9999 FEW012 22/16 Q1017", "LPST 311300Z 28011KT 250V310 8000 -DZ SCT006 BKN016 20/17 Q1017", "LQBK 311330Z 36004KT CAVOK 20/13 Q1021 NOSIG", "LQMO 311330Z VRB01KT CAVOK 28/07 Q1019", "LQSA 311330Z VRB02KT CAVOK 23/08 Q1023 NOSIG", "LQTZ 311330Z VRB01KT CAVOK 26/10 Q1021", "LRAR 311330Z VRB02KT 4000 BR OVC006 12/10 Q1023", "LRBC 311330Z 32008KT 9999 SCT032 19/11 Q1020", "LRBM 311330Z 15003KT 9999 OVC010 12/10 Q1024", "LRBO 311300Z 19004KT 9999 FEW060 22/10 Q1020 BLACK BLACK", "LRBS 311330Z 27004KT 230V360 CAVOK 23/10 Q1020 NOSIG", "LRCK 311330Z 33012KT 9999 FEW043 20/10 Q1020 NOSIG", "LRCL 311330Z 09003KT 040V140 8000 OVC013 12/09 Q1023", "LRCT 311300Z 32003KT 8000 OVC009 12/10 Q1024 GRN GRN", "LRCV 311330Z 17004KT 120V200 CAVOK 25/08 Q1020", "LRFT 311300Z 31008KT 9999 SCT050 22/10 Q1020 BLU BLU", "LRIA 311330Z AUTO 33010KT 9999 NCD 15/07 Q1021", "LROD 311330Z 00000KT 7000 BKN009 12/10 Q1024", "LROP 311330Z 26005KT 210V300 CAVOK 22/10 Q1020 NOSIG", "LRSB 311330Z VRB01KT 9000 NSC 16/10 Q1023", "LRSM 311330Z VRB01KT 9999 OVC010 13/10 Q1024", "LRSV 311330Z 35011KT CAVOK 18/11 Q1021", "LRTC 311330Z 31015KT CAVOK 20/04 Q1019", "LRTM 311330Z VRB02KT 9999 SCT014 BKN036 14/10 Q1023", "LRTR 311330Z VRB02KT 3000 BR SCT005 BKN006 OVC007 12/12 Q1023", "LRTZ 311300Z 34016KT 9999 BKN045 21/10 Q1020 BLU BLU", "LSGC 311350Z 17005KT 140V210 CAVOK 19/05 Q1019", "LSGG 311350Z 26002KT 9999 FEW035 19/13 Q1018 NOSIG", "LSGS 311350Z VRB01KT CAVOK 23/04 Q1017", "LSMA 311350Z AUTO VRB02KT 9999NDV NCD 16/10 Q1018 RMK", "LSMD 311350Z VRB02KT CAVOK 17/11 Q1019 RMK BLU", "LSME 311350Z VRB02KT CAVOK 17/13 Q1018 RMK BLU", "LSMM 311350Z AUTO 28003KT 240V330 9999NDV NCD 14/08 Q1018 RMK", "LSMP 311350Z AUTO 27003KT 240V340 9999NDV NCD 17/13 Q1018 RMK", "LSZA 311350Z 19003KT CAVOK 22/11 Q1021", "LSZB 311350Z VRB02KT 9999 FEW120 20/10 Q1018", "LSZC 311350Z AUTO 06003KT 9999 NCD 16/11 Q1018", "LSZG 311350Z 00000KT CAVOK 18/13 Q1018", "LSZH 311350Z VRB01KT 8000 NSC 16/12 Q1019 NOSIG", "LSZL 311350Z AUTO 25005KT 9999NDV NCD 19/11 Q1021 RMK", "LSZR 311350Z VRB02KT 5000 SCT004 12/12 Q1019 RMK J", "LSZS 311350Z 22012KT CAVOK 16/01 Q1025 RMK O TL170", "LTAC 311350Z 21005KT 180V250 9999 FEW040 SCT100 18/M02 Q1018 NOSIG RMK RWY21L 17008KT RWY03L 22003KT 150V280 RWY21R 20006KT", "LTAE 311350Z 29005KT 9999 FEW040 18/M01 Q1018 NOSIG RMK RWY21 29007KT", "LTAF 311350Z 24013KT 9999 FEW035 SCT100 26/13 Q1013 BECMG VRB02KT RMK RWY23 26012KT 1CU035 3AC100", "LTAG 311350Z 24009KT CAVOK 26/09 Q1011 NOSIG RMK 2AC100", "LTAI 311350Z 20006KT CAVOK 24/13 Q1014 NOSIG RMK RWY18C 19006KT 160V280 RWY36R 19006KT 160V230 RWY18L 19008KT", "LTAJ 311350Z 06002KT 9999 FEW040 20/09 Q1016 NOSIG RMK RWY10 07004KT 1CU040", "LTAL 311250Z 25010KT 9999 FEW036 BKN100 14/02 Q1019", "LTAN 311350Z 03007KT 9999 FEW030 SCT100 17/02 Q1018 NOSIG", "LTAP 311350Z 00000KT 9999 SCT040 SCT090 17/02 Q1016 NOSIG RMK RWY23 06005KT 040V100", "LTAR 311350Z 31012KT 9999 FEW040 12/M09 Q1019", "LTAS 311350Z VRB02KT 9999 SCT010 SCT035 BKN080 16/12 Q1020", "LTAT 311350Z 07003KT 9999 FEW040 SCT100 18/04 Q1016 NOSIG RMK RWY03 05003KT", "LTAU 311350Z 29005KT CAVOK 17/M00 Q1018 NOSIG RMK RWY07 25005KT", "LTAW 311350Z 32001KT CAVOK 18/05 Q1019", "LTAY 311350Z 15003KT 110V190 CAVOK 20/M01 Q1017", "LTAZ 311350Z 26006KT CAVOK 18/M06 Q1018 RMK RWY29 29007KT", "LTBA 311350Z 04010KT CAVOK 20/08 Q1020 RMK RWY23 05008KT 020V080", "LTBD 311350Z 23004KT 180V300 CAVOK 26/05 Q1014", "LTBF 311350Z 01013KT CAVOK 21/06 Q1018 NOSIG", "LTBH 311350Z 05010KT CAVOK 20/11 Q1019", "LTBJ 311350Z 36014KT CAVOK 23/05 Q1015 NOSIG RMK RWY16 35013KT", "LTBO 311350Z 23004KT 190V270 CAVOK 21/M05 Q1018", "LTBQ 311350Z 11004KT 8000 NSC 18/10 Q1020 NOSIG", "LTBR 311350Z 35006KT 9999 FEW040 SCT100 18/06 Q1019 NOSIG RMK RWY07 01005KT", "LTBS 311350Z 25010KT CAVOK 24/15 Q1014 NOSIG RMK RWY19 23008KT SKC", "LTBU 311350Z 05011KT CAVOK 20/09 Q1020 RMK RWY22 06010KT", "LTBY 311350Z 35008KT CAVOK 18/02 Q1019", "LTCA 311350Z 07005KT 9999 FEW035 SCT100 17/04 Q1016 NOSIG", "LTCB 311350Z 23004KT 9999 -SHRA BKN035 17/10 Q1018", "LTCC 311350Z VRB01KT 9999 BKN035 BKN090 15/11 Q1016 NOSIG RMK RWY16 10002KT 5CU035 7AC090", "LTCD 311350Z 24009KT CAVOK 17/M01 Q1016 NOSIG", "LTCE 311350Z 25011KT 9999 FEW040 13/M05 Q1017 NOSIG RMK RWY08R 23010KT RWY26R 25011KT RWY08L 24011KT 2CU040", "LTCF 311350Z 24014KT 9999 FEW040 12/M05 Q1015", "LTCG 311350Z 19003KT 160V220 9999 SCT035 17/12 Q1018 NOSIG RMK RWY29 VRB02KT", "LTCI 311350Z 20002KT 9999 SCT040 BKN080 13/03 Q1021 NOSIG", "LTCJ 311350Z VRB01KT 9999 SCT040 BKN100 16/10 Q1016 NOSIG RMK RWY20 14003KT 3CU040 6AC100", "LTCK 311250Z 25008KT 9999 SCT035 BKN180 17/01 Q1017", "LTCL 311250Z 28006KT 240V300 9999 SCT035 BKN090 18/08 Q1017 RESHRA", "LTCN 311350Z 21006KT 170V250 9999 FEW040 23/07 Q1015 NOSIG", "LTCO 311350Z 23012KT 9999 FEW040 13/M00 Q1016", "LTCP 311250Z 13005KT 9999 SCT038 BKN090 17/11 Q1017", "LTCR 311350Z 01008KT 340V040 9999 FEW040 SCT100 21/08 Q1015", "LTCS 311350Z 04005KT CAVOK 16/08 Q1016 RMK RWY22 03004KT 2AC100", "LTCT 311350Z 11003KT 9999 FEW040 16/02 Q1013", "LTCU 311250Z 21013KT 9999 FEW035 BKN100 17/03 Q1017", "LTCV 311350Z 28013KT 9999 FEW040 SCT100 20/05 Q1014", "LTCW 311350Z 19008KT 140V230 9000 FEW040 SCT080 13/02 Q1018", "LTDA 311350Z 10003KT 8000 FEW040 SCT120 26/10 Q1013 NOSIG", "LTFB 311350Z 26008KT CAVOK 21/11 Q1016", "LTFC 311350Z 27004KT 220V300 9999 FEW040 22/01 Q1016 RMK RWY23 VRB02KT", "LTFD 311350Z 09012KT CAVOK 23/09 Q1017", "LTFE 311350Z 26009KT CAVOK 22/11 Q1015 NOSIG RMK RWY10 25010KT", "LTFG 311350Z 24005KT 9999 FEW030 24/14 Q1014", "LTFH 311350Z 25004KT CAVOK 17/12 Q1018 NOSIG", "LTFJ 311350Z 03009KT CAVOK 19/08 Q1020 NOSIG RMK RWY24 04009KT", "LTFK 311250Z VRB08KT CAVOK 21/12 Q1019", "LTFM 311350Z 03008KT CAVOK 17/13 Q1021 NOSIG RMK RWY17L 04007KT RWY34L 03007KT RWY16R 03006KT RWY36 04008KT RWY18 04006KT", "LTFO 311350Z 20007KT 9999 SCT035 BKN100 17/12 Q1017", "LUBM 311400Z 35012KT CAVOK 15/03 Q1021", "LUKK 311400Z 35009KT CAVOK 15/05 Q1020 NOSIG", "LWOH 311330Z 16004KT 9999 FEW043 19/13 Q1022", "LWSK 311400Z 22001KT CAVOK 26/08 Q1021 NOSIG", "LXGB 311350Z 10006KT 9999 FEW014 OVC200 20/17 Q1019 NOSIG RMK BLU BLU", "LYBE 311330Z 04006KT 360V070 4000 BR NSC 16/13 Q1023 NOSIG", "LYBT 311330Z 03004KT 350V070 6000 NSC 15/13 Q1023 NOSIG", "LYKV 311330Z 00000KT CAVOK 26/09 Q1022 NOSIG", "LYNI 311330Z 32005KT 290V010 CAVOK 23/08 Q1022 NOSIG", "LYPG 311330Z 16003KT 120V190 CAVOK 26/07 Q1020 NOSIG", "LYTV 311330Z 29004KT 270V330 CAVOK 25/12 Q1020 NOSIG", "LYVR 311330Z 03003KT 350V070 9999 FEW013 14/14 Q1024 NOSIG", "LZIB 311400Z 08003KT 040V120 8000 BKN003 OVC004 11/10 Q1022 TEMPO BKN002", "LZKZ 311400Z 13003KT 4500 BR OVC005 11/10 Q1024 NOSIG", "LZPP 311330Z VRB02KT 9999 OVC006 12/11 Q1022", "LZTT 311400Z 14003KT CAVOK 16/09 Q1022 NOSIG", "LZZI 311330Z 27007KT CAVOK 16/12 Q1021", "MBGT 311400Z 08010KT 9999 SCT015 29/24 Q1015", "MBPV 311300Z 10005KT 9999 SCT015 27/24 Q1012", "MDAB 311300Z 00000KT 9999 FEW016 BKN070 25/24 Q1014", "MDBH 311300Z 00000KT 9999 FEW018 BKN300 28/26 Q1013", "MDCY 311300Z 00000KT 9999 SCT018 BKN070 25/23 Q1013", "MDJB 311300Z 03005KT 9999 FEW016CB FEW018 BKN300 25/24 Q1013 CB/ENE", "MDLR 311300Z 00000KT 9999 SCT016 BKN300 25/24 Q1012", "MDPC 311300Z 05008KT 9999 FEW018 BKN070 27/24 Q1014", "MDPP 311300Z 00000KT 9999 SCT018 22/21 Q1012", "MDSD 311300Z 06007KT 9999 FEW018CB FEW020 SCT300 27/25 Q1013 CB/NE", "MDST 311300Z 10006KT 9999 SCT018 SCT300 25/23 Q1012", "MGCB 311300Z 00000KT 0800 FG SCT200 13/13 QFE870.8 APCH CLSD", "MGES 311300Z 00000KT 9999 BKN015 SCT200 18/16 QFE909.0", "MGGT 311400Z 02010KT 9999 FEW016 19/14 Q1021 A3015 FEW200", "MGHT 311300Z 00000KT CAVOK 12/12", "MGMM 311300Z 12004KT CAVOK 21/20 Q1015 A2997 FEW100", "MGMT 311300Z 00000KT CAVOK 24/21 FEW070 FEW200", "MGPB 311300Z 00000KT 9999 FEW020 22/22 Q1012 A2988 FEW200", "MGQZ 311300Z 00000KT CAVOK 09/07 QFE772/5 FEW200", "MGRT 311300Z 00000KT CAVOK 23/21 Q1014 A2994 SCT200 VOL. SANTA MARIA Y SANTIAGUITO EN ACTIVIDAD", "MGSJ 311300Z 00000KT 9999 FEW035CB 25/24 Q1012 A2988 CB SSE/S", "MGZA 311300Z 00000KT 9999 BKN015 23/21 QFE989/0", "MHCA 311400Z 00000KT 1000 FG SCT020 BKN070 21/19", "MHCH 311300Z 01004KT 9999 FEW028 24/21", "MHGS 311300Z 36004KT 9999 FEW050 19/17", "MHLC 311400Z VRB02KT 9999 FEW036 26/20 Q1014 A2995 NOSIG", "MHLE 311300Z 04004KT 9999 FEW020 15/14", "MHLM 311400Z 24007KT 9999 FEW026 23/21 Q1014 A2995 NOSIG", "MHNO 311300Z 02004KT 9999 FEW040 20/17", "MHPL 311300Z 00000KT 9999 SCT026TCU SCT080 26/23 Q1008", "MHPR 311400Z 36010KT 9999 SCT044 23/19 Q1017 A3005 NOSIG", "MHRO 311400Z VRB02KT 9999 SCT026TCU 28/21 Q1013 A2992 NOSIG", "MHSR 311300Z 00000KT 8000 FEW020 16/16", "MHTE 311400Z 00000KT 9999 SCT018TCU SCT060 24/23 Q1011 A2985", "MHTG 311400Z 04008KT 9999 SCT030 20/17 Q1019 A3009 NOSIG", "MHTR 311300Z 00000KT 9999 SCT024TCU 24/22", "MHYR 311300Z 00000KT 9999 SCT020 17/15", "MKJP 311400Z 09023KT 9999 SCT020 30/23 Q1010", "MKJS 311300Z 08011KT 9999 FEW022 28/23 Q1010", "MMAA 311347Z 05003KT 6SM SKC 26/23 A2985 RMK HZY", "MMAN 311340Z 00000KT 1 1/2SM BR -RA BKN008 OVC010 17/17 A3000 RMK 60095 8/7//", "MMAS 311340Z 00000KT 10SM SKC 09/02 A3021", "MMBT 311345Z 00000KT 8SM SKC 24/19 A2991", "MMCB 311340Z 31004KT 6SM FEW250 17/15 A3011 RMK 8/001 AC HZY", "MMCE 311345Z 14006KT 7SM SCT010 26/24 A2992 RMK 8/500 HZY", "MMCL 311344Z 04006KT 10SM SCT015 20/16 A2989 RMK 8/500", "MMCM 311340Z 00000KT 7SM SCT030 25/23 A2995 RMK 8/100", "MMCN 311345Z 10003KT 10SM SKC 15/10 A2985 RMK HZY", "MMCP 311343Z 14005KT 6SM BKN006 23/22 A2995 RMK 8/600 HZY", "MMCS 311349Z 35006KT 10SM SCT050 SCT100 BKN250 11/01 A3006 RMK 8/532", "MMCT 311349Z 00000KT 6SM SKC 23/22 A2995 RMK AC CI", "MMCU 311340Z 16004KT 10SM BKN080 BKN200 08/03 A3006 RMK 8/072", "MMCV 311341Z 16012KT 10SM BKN050 21/16 A2995 RMK 8/500", "MMCZ 311350Z 06004KT 8SM SKC 25/23 A2994 RMK CU CI", "MMDO 311340Z 00000KT 10SM SKC 03/M01 A3017 RMK HZY", "MMEP 311345Z 00000KT 1/2SM FG SKC 12/12 A3001 RMK LWR SC ARND", "MMGL 311340Z 00000KT 10SM SKC 12/08 A3016", "MMHO 311340Z 13003KT 10SM SKC 13/05 A2992 RMK HZY", "MMIA 311348Z 00000KT 8SM SKC 20/18 A3000 RMK HZY VC BCFG S W", "MMIO 311347Z 00000KT 5SM SKC 10/01 A3012 RMK RTS", "MMLM 311400Z RTD 02007KT 10SM SKC 17/14 A2989 RMK HZY RTS", "MMLO 311346Z 00000KT 10SM SKC 12/06 A3026 RMK CI", "MMLP 311342Z 15006KT 10SM SKC 16/16 A2990 RMK HZY", "MMLT 311356Z 00000KT 10SM FEW030 21/14 A2987 RMK 8/100 HZY RTS", "MMMA 311342Z 08007KT 10SM OVC070 23/18 A2997 RMK 8/05/ DSNT CU 1 QUAD", "MMMD 311349Z 14006KT 7SM SKC 26/23 A2997 RMK HZY", "MMMM 311340Z 00000KT 3SM BR HZ BKN015 16/15 A3020 RMK 8/500 AC", "MMMT 311340Z 27005KT 3SM HZ OVC017 20/20 A2990 RMK 8/5// VRB VIS", "MMMV 311353Z 00000KT 10SM BKN080 BKN200 15/10 A3000 RMK 8/072", "MMMX 311345Z 08003KT 8SM SCT220 14/09 A3029 NOSIG RMK 8/002 HZY ISOL AC", "MMMY 311340Z 24004KT 2SM -DZ OVC008 17/17 A2997 RMK 60015 8/6//", "MMMZ 311343Z 06005KT 13SM FEW028 19/19 A2989 RMK 8/500 ISOL TCU 3RD QUAD", "MMNL 311340Z 00000KT 6SM SCT020 BKN080 BKN220 17/15 A2999 RMK 8/572 HZY", "MMOX 311340Z 36005KT 12SM SKC 11/08 A3020", "MMPA 311340Z 00000KT 4SM OVC030 22/20 A2996 RMK 8/8// HZY", "MMPB 311342Z 33004KT 7SM SCT100 10/08 A3030 RMK 8/030 HZY CI", "MMPG 311344Z 00000KT 10SM FEW080 14/12 A3001 RMK 8/050", "MMPN 311343Z 00000KT 4SM SKC 15/14 A3015 RMK HZY SC AC", "MMPQ 311341Z 00000KT 7SM SCT100 24/22 A2981 RMK 8/080", "MMPR 311349Z 04004KT 15SM SKC 21/19 A2987", "MMPS 311345Z 07010KT 12SM SKC 24/24 A2986 RMK HZY", "MMRX 311340Z 10006KT 8SM OVC070 23/16 A2996 RMK 8/07/", "MMSD 311340Z 31002KT 10SM SKC 18/13 A2991", "MMSL 311254Z 30009KT 10SM SKC 19/14 A2990 RMK RTS", "MMSM 311348Z 36002KT 6SM FEW100 SCT220 13/11 A3027 RMK 8/032 HZY VSBY 2SM E", "MMSP 311340Z 00000KT 3SM BR HZ SCT010 11/09 A3019 RMK 8/600", "MMTC 311340Z 29004KT 10SM SKC 14/05 A3003", "MMTG 311340Z 15004KT 3SM FU HZ FEW300 22/20 A2998 RMK 8/001 VSBY VRB FU HZ", "MMTJ 311340Z 11004KT 8SM SKC 14/01 A2994 RMK HZY", "MMTM 311348Z 00000KT 4SM -DZ SCT004 OVC008 22/21 A2995 RMK 60017 8/7// BR", "MMTO 311345Z 00000KT 3SM BR HZ SKC 11/10 A3034 RMK CI", "MMTP 311340Z 00000KT 10SM FEW030 FEW150 27/27 A2986 RMK 8/110 HZY", "MMUN 311341Z 00000KT 7SM FEW015 27/22 A2995 RMK 8/100", "MMVA 311343Z 00000KT 7SM FEW012 BKN070 25/23 A2993 RMK 8/630 HZY", "MMVR 311343Z 00000KT 4SM SCT015 BKN100 23/23 A2995 RMK 8/530 BR HZ ISOL CI", "MMZC 311340Z E16010KT 10SM SKC 08/02 A3019", "MMZH 311347Z 00000KT 7SM SCT100 25/21 A2987 RMK 8/030 HZY", "MMZO 311340Z 01006KT 10SM SCT020 SCT100 23/20 A2994 RMK 8/130 RTS", "MNBL 311300Z 34004KT 9999 SCT017 25/23 Q1011", "MNCH 311300Z 00000KT 8000 FEW024CB SCT300 24/23 Q1011 HZ CB/S", "MNJG 311300Z 09012KT 5000 FEW010 SCT200 18/18 Q1012", "MNJU 311300Z 00000KT 9999 FEW020 26/24 Q1010", "MNMG 311300Z 11004KT 9999 FEW021TCU 25/23 Q1010 A2985 TCU/W NOSIG", "MNPC 311300Z 07004KT 4000 -RA BKN016TCU SCT100 24/23 Q1011 TCURA/N/NE/SW/W", "MNRS 311300Z 00000KT 9999 FEW012CB0 25/24 Q1010 CB/S/SW", "MPBO 311400Z 23002KT 9999 FEW015TCU SCT090 28/25 Q1011", "MPDA 311400Z VRB01KT 9999 SCT018 SCT090 26/23 Q1012", "MPMG 311400Z VRB01KT 9000 FEW020 28/24 Q1011 NOSIG", "MPPA 311400Z 00000KT 9999 FEW018 28/25 Q1011", "MPSM 311400Z VRB020KT 9999 SCT020 SCT080 28/24 Q1011", "MPTO 311400Z VRB02KT 9999 FEW018 27/24 Q1011 NOSIG", "MRLB 311400Z VRB02KT 9999 FEW010 25/24 A2987", "MRLM 311400Z 26003KT 9999 FEW020 SCT220 28/22 A2987", "MROC 311400Z 03003KT 350V070 9999 FEW045 BKN200 23/16 A3006 BECMG 24007KT", "MRPV 311400Z 11009KT CAVOK 23/16 A3005 NOSIG", "MSLP 311350Z 04004KT 360V080 9999 FEW020 28/21 Q1011 A2987 NOSIG", "MSLU 311250Z 00000KT CAVOK 24/21 Q1010 A2984", "MSSA 311250Z 00000KT CAVOK 20/18 Q1016 A3003", "MTPP 311359Z AUTO 15007KT 090V180 9000 ////// 30/23 Q1012 A2989 NOSIG", "MUCC 311350Z 08009KT 9000 BKN020 28/25 Q1013", "MUCF 311350Z 07006KT 030V120 9999 FEW025 27/24 Q1014", "MUCL 311350Z 05008KT 010V090 9000 FEW020 28/24 Q1013", "MUCM 311350Z 05011KT 9000 SCT016 28/25 Q1013", "MUCU 311350Z VRB03KT 9000 FEW020 30/23 Q1012", "MUGM 311351Z 01004KT 10SM FEW030 FEW060 29/24 A2992 RMK AO2 SLP129 T02940244 $", "MUHA 311350Z 11006KT 080V140 9000 FEW025 27/23 Q1014", "MUHG 311350Z 09007KT 070V130 9999 FEW020 29/23 Q1013", "MUSC 311350Z 08005KT 050V110 9000 FEW020 27/24 Q1015", "MUVR 311350Z 08005KT 050V110 9000 FEW020 27/24 Q1015", "MWCB 311400Z 06006KT 9999 SCT016 30/25 Q1012", "MWCR 311400Z 04006KT 8000 -SHRA BKN014CB 27/25 Q1011", "MYGF 311300Z 09002KT 9999 VCSH FEW015CB SCT120 BKN250 24/23 A2998", "MYNN 311400Z 11007KT 9999 SCT025 29/24 A3000", "MZBZ 311345Z 30005KT 9999 SCT006 24/24 A2994 Q1014 NOSIG", "NCAI 311300Z AUTO 14006KT //// ////// 24/23 Q1013", "NCRG 311330Z AUTO 09013KT 9999 FEW019/// BKN027/// BKN100/// 23/21 Q1015", "NFFN 311400Z 14004KT 9999 FEW028 BKN300 23/21 Q1009 NOSIG", "NFNA 311400Z 00000KT 9999 SCT018 SCT045 BKN300 23/23 Q1009", "NFTF 311400Z 08009KT 2000 TSRA SCT008 SCT014CB OVC035 24/23 Q1012", "NFTV 311400Z 08005KT 9999 FEW008 SCT015TCU BKN030 24/24 Q1011", "NGFU 311400Z 02010KT 9999 FEW016CB FEW018TCU BKN100 27/24 Q1007", "NGTA 311400Z 08007KT 9999 FEW020 27/24 Q1008", "NIUE 311400Z 09005KT 9999 SCT018 24/23 Q1011", "NLWW 311330Z AUTO 21004KT 180V250 9999 -RA BKN016/// BKN058/// BKN090/// 24/23 Q1010 TEMPO 2000 TSRA BKN008 BKN015CB", "NSFA 311300Z VRB03KT 9999 FEW020 BKN170 25/24 Q1010", "NSTU 311350Z VRB02KT 10SM SCT023 25/24 A2980 RMK SLP093 T02460241", "NTAA 311330Z 00000KT 9999 FEW023 24/21 Q1012 NOSIG", "NWWW 311400Z AUTO VRB01KT 9999 FEW037 20/19 Q1010 NOSIG", "NZAA 311330Z AUTO 20009KT 9999 BKN041/// BKN050/// 16/15 Q1010 TEMPO BKN012", "NZCH 311330Z AUTO 15002KT 9999 SCT100/// 09/08 Q1006 TEMPO 0500 FG", "NZCM 311355Z AUTO 00000KT 9999 CLR M12/M15 A2898 RMK AO2 SLP818 T11181149", "NZSP 311350Z 03015KT 1200 IC BLSN OVC005 M40/ A2837 RMK CLN AIR 03014KT ALL WNDS GRID SDF/HDP", "NZWN 311330Z AUTO 36016KT 9999 NCD 14/11 Q1009 NOSIG", "OBBI 311400Z 09007KT 9000 NSC 30/23 Q1013 NOSIG", "OEAB 311400Z 18008KT 9999 FEW020 22/08 Q1024 NOSIG", "OEAH 311300Z 14005KT CAVOK 35/02 Q1013 NOSIG", "OEAO 311300Z 25016KT 9999 SCT040 34/06 Q1013 NOSIG", "OEBA 311300Z 09004KT CAVOK 28/09 Q1020 NOSIG", "OEBH 311300Z 12004KT CAVOK 31/03 Q1015 NOSIG", "OEDF 311400Z 09006KT CAVOK 35/04 Q1012 NOSIG", "OEDM 311300Z 18008KT CAVOK 32/M04 Q1016", "OEDR 311400Z 09005KT CAVOK 31/13 Q1012", "OEGN 311300Z 26008KT 9999 FEW030 34/23 Q1010 NOSIG", "OEGS 311300Z 23005KT CAVOK 34/08 Q1014", "OEGT 311300Z 30004KT CAVOK 27/04 Q1014 NOSIG", "OEHL 311300Z 24012KT CAVOK 31/06 Q1016", "OEJB 311300Z AUTO 16005KT CAVOK 36/03 Q1012 NOSIG", "OEJN 311400Z 29009KT 8000 NSC 32/22 Q1009 NOSIG", "OEKJ 311300Z 20011KT CAVOK 34/02 Q1017", "OEKM 311300Z 09008KT CAVOK 24/05 Q1023 NOSIG", "OEMA 311400Z 26006KT CAVOK 35/02 Q1014 NOSIG", "OEMN 311300Z 24005KT 9999 FEW030CB SCT035 34/18 Q1012", "OENG 311300Z 06006KT CAVOK 29/02 Q1018 NOSIG", "OEPA 311300Z 26008KT CAVOK 36/18 Q1012 NOSIG", "OEPS 311356Z 21004KT 9999 CLR 33/03 A3009 RMK SLP156 WND DATA ESTMD T03250030 $", "OERF 311300Z 29011KT CAVOK 35/01 Q1011 NOSIG", "OERK 311400Z 13004KT CAVOK 32/06 Q1016 NOSIG", "OERR 311300Z 30009KT 9000 NSC 31/01 Q1012 NOSIG", "OESH 311300Z 05010KT CAVOK 32/05 Q1014 NOSIG", "OESK 311300Z 25008KT CAVOK 30/06 Q1016 NOSIG", "OETB 311300Z 33004KT 9999 SCT040 28/07 Q1013 NOSIG", "OETF 311300Z 33008KT 9999 FEW030 27/09 Q1020 NOSIG", "OETR 311300Z 26010KT CAVOK 25/10 Q1015 NOSIG", "OEWD 311300Z 12006KT CAVOK 33/11 Q1014", "OEWJ 311300Z 30014KT CAVOK 29/21 Q1010 NOSIG", "OEYN 311300Z 25012KT CAVOK 33/21 Q1008 NOSIG", "OIAA 311300Z 18008KT CAVOK 36/08 Q1011", "OIAG 311300Z 20012KT 6000 SCT040 33/21 Q1012", "OIAH 311300Z 28010KT 8000 SCT040 29/18 Q1017", "OIAM 311300Z 18012KT 9999 SCT040 32/22 Q1011", "OIAW 311330Z 25004KT CAVOK 35/12 Q1010", "OIBA 311300Z 28006KT 7000 NSC 31/23 Q1012", "OIBB 311300Z 23010KT 5000 HZ NSC 31/21 Q1012 A2991 NOSIG", "OIBH 311300Z 21010KT 5000 HZ FEW030 31/23 Q1012 A2989", "OIBJ 311300Z AUTO 19006KT //// // ////// 26/21 Q1017", "OIBK 311300Z 29010KT 2500 HZ NSC 30/21 Q1013 NOSIG", "OIBL 311300Z 23004KT 3000 HZ NSC 30/22 Q1012", "OIBP 311300Z 27006KT 3000 HZ FEW040 SCT180 30/24 Q1012 A2990", "OIBQ 311300Z 23004KT 4000 HZ FEW015 31/22 Q1013 A2991", "OIBS 311300Z 28006KT 1500 HZ NSC 31/22 Q1013", "OIBV 311300Z 30006KT 1600 HZ FEW040 30/23 Q1012", "OICC 311330Z 20012G25KT 9999 VCSH SCT040CB BKN100 23/M03 Q1018 A3007", "OICI 311300Z 16006KT 9999 SCT045 BKN090 23/02 Q1019 A3011", "OICK 311300Z 18010KT 9999 FEW040TCU FEW045 SCT090 26/01 Q1017", "OICM 311300Z 13010G19KT 9999 FEW040 SCT090 33/07 Q1007", "OICS 311300Z 02006KT 9999 FEW035CB SCT040 BKN180 16/07 Q1019 A3010", "OIFM 311330Z 15008KT 9999 FEW040 SCT200 23/M00 Q1020 A3013", "OIFS 311300Z 24008KT 9999 FEW030CB SCT040 BKN090 19/M06 Q1023", "OIGG 311330Z 03004KT 9999 FEW090 BKN180 19/16 Q1010", "OIHH 311300Z 03012KT 9999 FEW035CB BKN040 17/03 Q1020 A3012", "OIIE 311300Z 32018KT 9999 FEW035CB SCT100 BKN200 22/02 Q1017", "OIII 311330Z 31008KT 9999 FEW035CB SCT040 BKN100 20/03 Q1017 A3004", "OIIK 311300Z 16004KT 9000 -SHRA SCT030CB SCT035 OVC090 15/11 Q1019", "OIIP 311300Z 34012KT 7000 FEW030CB SCT035 BKN100 17/07 Q1017 A3005", "OIKB 311330Z 19010KT 6000 NSC 29/23 Q1012 A2990", "OIKK 311300Z 02006KT 9999 FEW040 SCT100 BKN180 25/00 Q1021 A3016", "OIKQ 311300Z 22010KT 6000 NSC 30/24 Q1012 NOSIG", "OIMB 311300Z 29012KT 9999 FEW035 23/M03 Q1020 A3013", "OIMD 311300Z 00000KT CAVOK 21/06 Q1015", "OIMJ 311300Z 24010KT 9999 FEW035 19/03 Q1017", "OIMM 311330Z 13004KT CAVOK 18/08 Q1017 A3005", "OIMN 311300Z 20002KT CAVOK 20/02 Q1016", "OIMQ 311300Z 00000KT CAVOK 21/04 Q1018", "OIMS 311300Z 27014KT 9999 FEW035 22/03 Q1018", "OIMT 311300Z AUTO 00000KT //// // ////// 28/04 Q1015", "OINE 311300Z 00000KT CAVOK 27/10 Q1010", "OING 311300Z 00000KT 9999 FEW045 22/16 Q1012 NOSIG", "OINN 311300Z 00000KT 9999 FEW020CB SCT026 BKN180 20/15 Q1010", "OINR 311300Z 13002KT 7000 BKN035CB BKN160 19/16 Q1010", "OINZ 311300Z 01002KT CAVOK 23/14 Q1011", "OISF 311300Z 20008KT CAVOK 27/M05 Q1020 A3013", "OISL 311300Z 00000KT CAVOK 33/10 Q1015 A2997 NOSIG", "OISR 311300Z 22006KT 2000 HZ NSC 31/20 Q1015 A2997 NOSIG", "OISS 311330Z 25006KT 7000 NSC 25/M01 Q1020 A3014", "OISY 311300Z 20008KT 9999 FEW100 23/00 Q1025", "OITK 311300Z 17006KT 9999 SCT040 18/00 Q1014", "OITL 311300Z 21016KT 9999 FEW030 18/05 Q1014 NOSIG", "OITM 311300Z 17010KT 9999 FEW035 SCT090 15/08 Q1016", "OITP 311300Z 05002KT CAVOK 20/10 Q1010", "OITR 311300Z 01002KT 9999 FEW035CB FEW040 17/01 Q1015", "OITT 311330Z 26010KT 9999 FEW030TCU 17/05 Q1016 A3002", "OITZ 311300Z 12004KT 8000 FEW020 SCT035CB BKN080 11/08 Q1018 A3006 RERA", "OIYY 311330Z 00000KT 9999 FEW035TCU SCT090 25/02 Q1019", "OIZB 311300Z 00000KT CAVOK 28/05 Q1015", "OIZC 311300Z 24016KT 7000 NSC 28/23 Q1011", "OIZH 311300Z 02008KT 9999 FEW040 24/02 Q1020 A3014 NOSIG", "OIZI 311300Z 28006KT CAVOK 34/07 Q1015", "OIZJ 311300Z 26008KT 6000 NSC 28/24 Q1012", "OJAI 311400Z 27011KT 5000 HZ SCT030 22/10 Q1017 NOSIG", "OJAM 311400Z 31010KT 5000 HZ FEW030TCU SCT035 21/10 Q1017 NOSIG", "OJAQ 311400Z 36010KT 7000 FEW030 30/11 Q1012 NOSIG", "OKAS 311255Z 19008KT 9999 FEW250 36/M02 A2985 RMK AO2A SLP101 $", "OKBK 311400Z 13012KT 6000 NSC 31/16 Q1011 NOSIG", "OLBA 311300Z 23005KT 8000 NSC 25/17 Q1015 NOSIG", "OMAA 311400Z 33010KT 8000 NSC 30/21 Q1013 NOSIG", "OMAD 311400Z 34007KT 8000 NSC 30/21 Q1013 NOSIG", "OMAL 311400Z 30005KT CAVOK 33/10 Q1014 NOSIG", "OMDB 311400Z 34009KT 7000 NSC 30/22 Q1013 NOSIG", "OMDW 311400Z 31008KT 6000 NSC 29/22 Q1014 NOSIG", "OMFJ 311400Z 10003KT 6000 NSC 29/23 Q1013 A2993", "OMRK 311400Z 33006KT 7000 NSC 28/23 Q1014 A2995", "OMSJ 311400Z 31007KT 7000 NSC 29/21 Q1014 NOSIG", "OOAD 311350Z AUTO 15007KT //// R31///// // NCD 32/12 Q1015 NOSIG", "OODQ 311350Z AUTO 10008KT CAVOK ////// 27/22 Q1014 NOSIG", "OOKB 311350Z 01008KT CAVOK 29/22 Q1013 NOSIG", "OOMS 311350Z 06004KT CAVOK 29/21 Q1013 NOSIG", "OOSA 311350Z 17003KT 9999 FEW025 28/21 Q1013 NOSIG", "OOSH 311350Z AUTO 11006KT //// ////// 29/22 Q1012", "OPFA 311400Z 00000KT 4000 FU NSC 27/17 Q1012 NOSIG", "OPIS 311400Z 00000KT 4000 FU FEW040 SCT100 20/15 Q1015 NOSIG", "OPKC 311400Z 23005KT 6000 NSC 27/18 Q1013 NOSIG", "OPLA 311355Z 11005KT 4000 FU NSC 26/17 Q1013 NOSIG RMK QFE987 A29.93", "OPMT 311400Z 00000KT 2500 FU NSC 28/19 Q1011 NOSIG", "OPPS 311400Z 23004KT 1800 HZ FEW030TCU SCT040 BKN100 22/15 Q101 5", "OPSK 311300Z 00000KT 5000 HZ NSC 31/21 Q1009 NOSIG", "OPST 311400Z 36004KT 4000 FU FEW100 23/17 Q1013 NOSIG 67?", "ORBI 311300Z 21007KT 6000 CKT030 33/10 Q1008 NOSIG", "ORER 311400Z 11007KT 070V130 8000 FEW025CB SCT040 SCT090 24/08 Q1014", "ORMM 311400Z 12012KT CAVOK 33/07 Q1011 NOSIG ", "ORNI 311400Z 22006KT 6000 FEW040 33/02 Q1008 ", "ORSU 311400Z 14005KT 9999 BKN045 BKN080 17/14 Q1017", "OSDI 311400Z 02006KT 6000 SCT030 24/06 Q1014", "OSLK 311400Z 23004KT 8000 FEW026TCU 26/14 Q1013", "OTBD 311330Z AUTO 13008KT CAVOK 30/24 Q1013 NOSIG", "OTBH 311355Z 10008KT 9999 CLR 31/21 A2991 RMK AO2A SLPNO ALSTG ESTMD T03100212 $", "OTHH 311300Z 15009KT CAVOK 30/24 Q1013 NOSIG", "PAAD 311355Z AUTO 14007KT 10SM OVC019 M18/M20 A3003 RMK AO2 T11811205", "PAAK 311356Z AUTO 13012G20KT 10SM SCT029 BKN034 OVC041 A3017 RMK AO2 SLPNO FZRANO $", "PAAQ 311353Z AUTO 00000KT 10SM BKN070 M04/M12 A2958 RMK AO2 SLP022 T10441117 TSNO $", "PABA 311400Z AUTO 11005KT 2SM -SN BR BKN009 OVC014 M11/M13 A3007 RMK AO2 CIG 005V010 FZRANO PNO $", "PABE 311353Z 26008KT 10SM CLR M11/M12 A3017 RMK AO2 SLP218 T11061122", "PABL 311356Z AUTO 14005KT 10SM OVC015 M08/M09 A3002 RMK AO2 SLP167 T10781094 FZRANO $", "PABR 311353Z 12017KT 10SM FEW011 M16/M18 A2995 RMK AO2 SLP145 T11611178", "PABT 311353Z 00000KT 10SM BKN050 OVC070 M10/M14 A2993 RMK AO2 SLP155 T11001144 $", "PABV 311356Z AUTO 00000KT 10SM BKN060 OVC080 M04/M12 A2963 RMK AO2 SLP041 T10391122 FZRANO", "PACD 311353Z AUTO 00000KT 10SM SCT034 OVC043 01/M02 A3030 RMK AO2 SLP260 T00111017 TSNO", "PACV 311353Z 00000KT 10SM BKN060 BKN070 OVC100 M02/M04 A2934 RMK AO2 SLP935 T10221039", "PACZ 311355Z AUTO VRB06KT 10SM BKN036 M04/M09 A3012 RMK AO2 SLP210 T10411093", "PADK 311356Z AUTO 17010KT BKN023 BKN029 OVC033 06/03 A3007 RMK AO2 PRESFR SLP182 T00610033 PWINO $", "PADL 311356Z VRB03KT 10SM CLR M07/M11 A3011 RMK AO2 SLP199 T10721106 FZRANO", "PADM 311356Z AUTO 14003KT 10SM OVC041 M07/M08 A3016 RMK AO2 SLP221 T10671083 FZRANO", "PADQ 311353Z AUTO 29025G42KT 10SM CLR M01/M12 A2970 RMK AO2 PK WND 28048/1303 SLP058 T10111117 TSNO", "PADU 311356Z AUTO 33004KT 10SM OVC055 04/M01 A3034 RMK AO2 SLP277 P0001 T00391011", "PAED 311355Z 04007KT 10SM FEW037 BKN048 M04/M13 A2960 RMK AO2A SLP022 T10441128 $", "PAEG 311353Z AUTO 17003KT 8SM BKN027 OVC047 M22/M26 A2978 RMK AO2 SLP110 T12171256 TSNO", "PAEH 311355Z AUTO 35016G21KT 290V040 10SM -SHSN OVC033 M01/M06 A3019 RMK AO2 SNB1347E1352SHSNB1352 SLP235 P0000 T10101065", "PAEI 311355Z AUTO 00000KT 10SM OVC048 M18/M20 A2987 RMK AO2 SLP134 T11801204 TSNO $", "PAEN 311353Z AUTO 36007KT 10SM OVC070 M04/M10 A2964 RMK AO2 SLP042 T10441100 TSNO", "PAFA 311353Z 00000KT 10SM SCT050 M21/M24 A2990 RMK AO2 SLP141 T12111244", "PAFB 311355Z AUTO 00000KT 10SM FEW070 M23/M25 A2989 RMK AO2 SLP144 T12301254", "PAFE 311356Z AUTO 11009KT 10SM CLR 02/01 A2953 RMK AO2 SLP013 T00170006 FZRANO", "PAFM 311356Z AUTO 02003KT 10SM CLR M17/M19 A3004 RMK AO2 SLP184 T11721194 FZRANO", "PAFR 311355Z AUTO 00000KT 10SM OVC033 M07/M10 A2957 RMK AO2 SLP024 T10661101 VISNO RWY35 CHINO RWY35 $", "PAFS 311301Z AUTO 25004KT 6SM -SN BR BKN038 OVC047 M11/M12 A2993 RMK AO2 SLP149 P0000 T11061117 FZRANO", "PAGA 311356Z AUTO 10SM FEW060 BKN080 M11/M12 A3000 RMK AO2 SLP165 T11061122 FZRANO $", "PAGK 311353Z AUTO 35008KT 10SM OVC095 M08/M15 A2952 RMK AO2 SLP042 T10831150 TSNO", "PAGL 311356Z AUTO 36005KT 10SM CLR M09/M10 A3006 RMK AO2 SLP174 T10891100 PWINO FZRANO $", "PAGN 311356Z AUTO 00000KT 10SM UP FEW016 BKN045 OVC060 03/03 A2949 RMK AO2 RAE53UPB53 SLP976 P0001 T00280028", "PAGS 311356Z AUTO 14010KT 10SM FEW046 OVC065 03/02 A2944 RMK AO2 SLP968 T00330017", "PAGY 311353Z AUTO 00000KT 10SM OVC070 02/01 A2946 RMK AO2 UPB24E33 SLP976 P0000 T00170011 TSNO $", "PAHL 311356Z AUTO 00000KT 10SM OVC060 M10/M11 A2999 RMK AO2 SLP161 T11001111 FZRANO", "PAHN 311354Z AUTO 07006KT 5SM RA BR BKN009 OVC016 02/01 A2945 RMK AO2 SLP975 P0004 T00170006 TSNO $", "PAHO 311353Z AUTO 03008KT 10SM FEW045 OVC100 M02/M11 A2964 RMK AO2 SLP037 T10171111 TSNO", "PAHX 311352Z AUTO 24003KT 10SM BKN028 M08/M09 A3004 RMK AO2 FZRANO", "PAHY 311356Z AUTO 12018KT 10SM -RA FEW026 SCT047 BKN060 04/02 A2957 RMK AO2 RAE02B47 SLP011 P0000 T00390017 $", "PAIG 311356Z AUTO 24007KT 10SM OVC050 M07/M11 A3002 RMK AO2 SLP176 T10721106 FZRANO $", "PAIK 311356Z AUTO 33004KT 10SM CLR M19/M21 A3005 RMK AO2 SLP182 T11891211 FZRANO", "PAIL 311353Z 27011G17KT 7SM -SN BKN027 OVC041 M06/M08 A2995 RMK AO2 SNB1254 SLP146 P0000 T10611083 $", "PAIM 311355Z AUTO 00000KT 10SM BKN050 OVC065 M11/M13 A2988 RMK AO2 SLP156 T11121127", "PAIN 311356Z AUTO VRB05KT 9SM -SN SCT018 OVC023 M12/M16 A2977 RMK AO2 SLP129 P0000 T11221156 FZRANO", "PAIW 311356Z AUTO 35014KT 10SM SCT021 OVC033 M03/M07 A3011 RMK AO2 SNB06E16 SLP197 P0000 T10331067 FZRANO", "PAJC 311357Z AUTO 24016G22KT 10SM UP FEW025 SCT038 BKN046 01/M04 A3019 RMK AO2 PK WND 23027/1317 RAB18E40UPB40 SLP222 T00061044 FZRANO PNO $", "PAJN 311353Z 10010KT 5SM -RASN BR FEW005 FEW012 OVC019 01/01 A2947 RMK AO2 SLP978 P0006 T00060006 $", "PAJZ 311356Z AUTO 28007KT 8SM CLR M08/M12 A3009 RMK AO2 SLP196 T10831117 FZRANO $", "PAKF 311356Z AUTO 23004KT 10SM OVC065 A3031 RMK AO2 SLPNO P0001 FZRANO $", "PAKH 311356Z AUTO 10SM SCT035 A2990 RMK AO2 SLPNO FZRANO TSNO $", "PAKI 311356Z AUTO 00000KT 10SM FEW038 M06/M06 A3020 RMK AO2 SNE24 SLP230 T10611061 FZRANO PNO $", "PAKK 311356Z AUTO 00000KT 10SM OVC010 M09/M11 A2998 RMK AO2 SLP164 T10941106 FZRANO", "PAKN 311354Z AUTO 32008KT 10SM CLR M08/ A3004 RMK AO2 SLP173 T1083 TSNO $", "PAKP 311356Z AUTO 00000KT 10SM OVC037 M14/M16 A2982 RMK AO2 SNB27E37 SLP175 P0000 T11441161 FZRANO", "PAKT 311353Z AUTO 18004KT 10SM SCT020 BKN043 02/00 A2960 RMK AO2 SLP024 T00170000 TSNO", "PAKU 311345Z 17007KT 10SM R06/P6000FT SCT017 M22/M27 A3002", "PAKV 311353Z AUTO 00000KT 10SM OVC044 M12/M13 A3002 RMK AO2 SLP170 T11171133 TSNO $", "PAKW 311353Z AUTO VRB03KT 10SM FEW032 SCT040 BKN050 02/01 A2954 RMK AO2 RAE07 SLP004 P0000 T00170006 TSNO $", "PAKX 311355Z AUTO 30004KT 10SM SCT042 BKN050 OVC060 M05/M11 A2990 RMK AO2", "PALG 311356Z AUTO VRB03KT 10SM OVC038 M09/M11 A3010 RMK AO2 SLP197 T10941106 FZRANO", "PALH 311353Z 36006KT 10SM BKN060 OVC120 M04/M14 A2963 RMK AO2 SLP035 T10441139", "PALP 311345Z 14004KT 10SM SKC M19/M22 A3002", "PALU 311355Z AUTO 29018G28KT 10SM BKN028 M01/M06 A2986 RMK AO2 PK WND 30033/1325 SHSNB1220E1336 SLP112 T10091060", "PAMB 311356Z AUTO 00000KT 9SM CLR M06/M11 A3013 RMK AO2 SLP208 T10561111 FZRANO $", "PAMD 311351Z AUTO 33011G17KT 10SM CLR 03/M02 A2933 RMK AO2 SLP921 T00331022 PNO $", "PAMH 311356Z AUTO 00000KT 9SM -SN OVC040 M11/M13 A2990 RMK AO2 SLP138 P0000 T11111128 FZRANO", "PAMK 311356Z AUTO 22008KT 10SM FEW033 OVC041 M06/M07 A3004 RMK AO2 SLP175 T10561067 FZRANO", "PAMR 311353Z 34004KT 10SM OVC060 M04/M13 A2962 RMK AO2 SLP032 T10391133", "PANA 311256Z AUTO 28006KT 10SM CLR M11/M12 A3018 RMK AO2 SLP218 T11111122 FZRANO TSNO $", "PANC 311353Z 35007KT 10SM FEW050 OVC120 M04/M14 A2962 RMK AO2 SLP033 T10441139", "PANI 311256Z AUTO 27003KT 10SM OVC047 M10/M11 A3013 RMK AO2 SLP195 T11001111 FZRANO $", "PANN 311353Z AUTO 00000KT 6SM -SN BR OVC012 M12/M14 A2989 RMK AO2 SNB21 SLP133 P0000 T11221144 TSNO", "PANV 311356Z AUTO 26006KT 10SM CLR M08/M09 A3000 RMK AO2 SLP282 T10831089 FZRANO TSNO", "PANW 311356Z AUTO 30008KT 10SM CLR M09/M12 A3006 RMK AO2 SLP189 T10891122 FZRANO", "PAOH 311356Z AUTO 00000KT 10SM FEW002 OVC037 01/01 A2944 RMK AO2 SLP970 T00110006 FZRANO", "PAOM 311353Z AUTO 29007KT 10SM CLR M06/M10 A3006 RMK AO2 SLP179 T10611100 TSNO $", "PAOO 311356Z AUTO 00000KT CLR M07/M08 A3021 RMK AO2 SLP235 T10671078 PWINO FZRANO TSNO $", "PAOR 311353Z 31009KT 5SM -SN OVC050 M13/M15 A2965 RMK AO2 SNB15 SLP093 P0000 T11281150 $", "PAOT 311353Z AUTO 10011KT 10SM OVC005 M11/M12 A2999 RMK AO2 SLP156 T11111117 TSNO $", "PAOU 311356Z AUTO 32016KT 10SM UP FEW029 SCT045 OVC055 02/M04 A3027 RMK AO2 UPB42 SLP249 T00171039 FZRANO PNO $", "PAPB 311353Z AUTO 17012KT FEW016 FEW024 FEW070 02/ A3018 RMK AO2 RAB23E35 SLP209 P0000 T0022 TSNO $", "PAPG 311356Z AUTO 31003KT 10SM -RA SCT011 BKN017 OVC024 02/01 A2957 RMK AO2 RAB1259 SLP016 P0001 T00170011 FZRANO", "PAPH 311356Z AUTO 32018G24KT 10SM SCT043 SCT050 00/M06 A3020 RMK AO2 PK WND 33031/1320 RAE07 SLP227 P0000 T00001061 FZRANO", "PAPM 311356Z AUTO 36006KT 10SM FEW037 A3020 RMK AO2 SLPNO FZRANO PNO $", "PAPO 311356Z AUTO 28025KT 6SM -SN FEW015 SCT023 BKN032 M02/M05 A2993 RMK AO2 PK WND 28031/1338 UPB20E26B46E49SNE20B36E46B49 SLP133 T10221050 FZRANO PNO $", "PAQH 311256Z AUTO 30007KT 10SM SCT070 M06/M09 A3020 RMK AO2 SLP228 T10611089 FZRANO", "PAQT 311353Z AUTO 00000KT 10SM CLR M21/M24 A3003 RMK AO2 SLP171 T12061239 TSNO $", "PARC 311356Z AUTO 05004KT 10SM CLR M19/M22 A2981 RMK AO2 SLP171 T11891217 FZRANO", "PARS 311356Z AUTO 28009KT 10SM OVC042 A3010 RMK AO2 SLPNO FZRANO $", "PART 1 OF 2 METAR ", "PARY 311356Z AUTO 27003KT 10SM SCT037 OVC055 M11/M12 A2993 RMK AO2 SLP152 T11061122 FZRANO", "PASA 311356Z AUTO 17007KT 10SM OVC033 M07/M10 A3014 RMK AO2 SLP207 T10671100 FZRANO", "PASC 311353Z 00000KT 10SM CLR M22/M23 A3001 RMK AO2 SLP166 I1000 T12171233 $", "PASD 311356Z AUTO 31012KT 10SM SCT034 BKN050 02/M03 A3027 RMK AO2 SLP251 T00221033 FZRANO $", "PASH 311356Z AUTO 31022KT 9SM OVC035 M01/M06 A3002 RMK AO2 PK WND 32032/1333 UPE02SNB16E28 SLP165 T10111056 FZRANO PNO $", "PASI 311314Z 09005KT 9SM -RA BKN036 OVC070 03/01 A2944 RMK P0001 T00280006", "PASK 311356Z AUTO 07007KT 10SM OVC014 M13/M15 A3005 RMK AO2 SLP172 T11331150 FZRANO", "PASM 311356Z AUTO 25007KT 10SM FEW039 M08/M09 A3013 RMK AO2 SLP215 T10781089 FZRANO", "PASN 311353Z AUTO 18011KT 7SM UP FEW007 BKN023 OVC080 02/00 A3016 RMK AO2 PK WND 19027/1333 UPB53SNB38E53 SLP214 P0002 T00170000 TSNO", "PASO 311353Z AUTO 02015G21KT 10SM SCT050 OVC080 00/M07 A2962 RMK AO2 SLP029 T00001072 TSNO", "PASV 311355Z AUTO 33013G15KT 1SM -SN BR VV003 M10/M11 A2987 RMK AO2 SNB1255 SLP161 P0000 T11001112", "PASX 311356Z AUTO 00000KT 10SM SCT055 BKN070 M07/M08 A2967 RMK AO2 SLP054 T10671083 FZRANO", "PASY 311255Z 31010KT 7SM OVC033 05/03 A2993 RMK AO2A LTG DSNT SW SLP137 ALSTG/SLP ESTMD WND DATA ESTMD T00500033 RVNRO PNO $", "PATA 311352Z AUTO 00000KT 10SM OVC040 M08/M11 A2992 RMK AO2 SLP139 T10831111 TSNO $", "PATC 311355Z AUTO 36017KT 10SM -FZRA BKN037 M04/M07 A3006 RMK AO2 SLP187 P0000 T10441071", "PATE 311356Z AUTO 31011KT 9SM -SN BKN017 OVC055 M04/M06 A3005 RMK AO2 SLP186 P0000 T10391056 FZRANO", "PATK 311353Z AUTO 03004KT 10SM BKN075 M05/M15 A2960 RMK AO2 SLP031 T10501150 TSNO", "PATL 311355Z AUTO 00000KT 10SM -SHSN BKN009 BKN065 M09/M10 A2995 RMK AO2 SNB1305E1334SHSNB1334 SLP169 P0000 T10861096 TSNO $", "PATO 311353Z AUTO 30009G24KT 260V340 10SM SCT040 SCT085 OVC110 M04/M11 A2954 RMK AO2 SLP003 T10391111 TSNO", "PATQ 311356Z AUTO 10007KT 1 1/2SM -SN BR BKN003 M20/M22 A2992 RMK AO2 SNE25B53 CIG 001V005 SLP140 P0000 T12001222 FZRANO TSNO", "PAUN 311356Z AUTO 10005KT 10SM CLR M11/M13 A3004 RMK AO2 SLP176 T11111128 FZRANO", "PAUT 311355Z AUTO 00000KT 10SM OVC055 02/00 A3033 RMK AO2 P0001", "PAVA 311356Z AUTO 26004KT 10SM CLR M07/M09 A3016 RMK AO2 SLP220 T10721089 FZRANO", "PAVC 311356Z AUTO 25005KT 10SM OVC055 03/M04 A3031 RMK AO2 SLP265 T00281044 PNO $", "PAVD 311356Z AUTO 00000KT BKN100 A2948 RMK AO2 SLPNO FZRANO TSNO $", "PAWD 311353Z AUTO 34021G35KT 10SM FEW049 BKN080 M02/M13 A2951 RMK AO2 PK WND 32038/1300 SLP994 T10221128 TSNO $", "PAWG 311356Z 10011KT 10SM SCT030 BKN060 04/01 A2958 RMK AO2 SLP016 T00390011", "PAWI 311353Z AUTO 10006KT 10SM CLR M19/M21 A2989 RMK AO2 SNE09 SLP124 P0000 T11891211 TSNO $", "PAWM 311356Z AUTO 34008KT 9SM CLR M07/M08 A3003 RMK AO2 SLP177 T10721078 FZRANO PNO $", "PAWN 311356Z AUTO 03003KT 9SM -SN FEW028 OVC047 M16/M18 A3002 RMK AO2 SNB12 SLP182 P0000 T11611178 FZRANO", "PAWS 311356Z AUTO 00000KT 10SM OVC050 M07/M11 A2960 RMK AO2 SLP032 T10721106 FZRANO", "PAYA 311353Z AUTO 06005KT 10SM -RA OVC030 02/01 A2935 RMK AO2 RAB13 SLP940 P0000 T00170006 TSNO $", "PAZK 311356Z AUTO 36006KT 9SM -SN OVC035 M12/M14 A2942 RMK AO2 SLP034 P0000 T11221139 FZRANO", "PFCL 311256Z AUTO 29009G15KT 10SM CLR A3011 RMK AO2 SLPNO FZRANO TSNO $", "PFEL 311356Z AUTO 00000KT 10SM CLR M09/M11 A3001 RMK AO2 SLP166 T10941111 FZRANO", "PFKT 311356Z AUTO 34004KT 4SM -SN BR FEW007 SCT013 OVC020 M04/M06 A3009 RMK AO2 SLP189 P0000 T10441061 FZRANO", "PFKW 311256Z AUTO 24006KT 10SM BKN048 M10/M12 A3016 RMK AO2 SLP214 T11001117 FZRANO", "PFNO 311356Z AUTO 09007KT 10SM BKN014 M15/M17 A3003 RMK AO2 SLP257 T11501167 FZRANO", "PFSH 311356Z AUTO 00000KT 10SM CLR M11/M11 A3004 RMK AO2 SLP173 T11061111 FZRANO", "PFWS 311256Z AUTO 32012G18KT 10SM CLR M05/M09 A3008 RMK AO2 SLP231 T10501089 FZRANO", "PFYU 311356Z AUTO 01006KT 10SM FEW070 M12/M16 A2991 RMK AO2 SLP147 T11171156 FZRANO", "PGSN 311357Z 10008KT 6SM -RA SCT019 27/24 A2986 RMK AO2 T02720244 PNO", "PGUA 311355Z AUTO 12009KT 10SM BKN014 27/24 A2986 RMK AO2 RAE1256 CIG 013 RWY24L SLP102 P0000 T02650239 402960253 $", "PGUM 311354Z 11009KT 7SM FEW024 SCT034 27/26 A2986 RMK AO2 SLP103 T02720256 403110256", "PHBK 311351Z AUTO 07005KT 10SM CLR 22/16 A3000 RMK AO2 SLP160 T02220161 ", "PHHI 311355Z AUTO 32003KT 10SM CLR 21/16 A3002 RMK AO2 SLP155 T02090159 $", "PHJR 311353Z AUTO 05005KT 10SM CLR 24/19 A3000 RMK AO2 SLP163 T02440189 TSNO", "PHKO 311353Z AUTO 12007KT 10SM CLR 24/20 A2995 RMK AO2 SLP140 T02440200 TSNO", "PHLI 311353Z AUTO 05011KT 10SM CLR 25/21 A3003 RMK AO2 SLP167 T02500206 TSNO $", "PHMK 311354Z AUTO 02005KT 10SM CLR 24/21 A3000 RMK AO2 SLP161 T02390206 TSNO", "PHNG 311357Z AUTO 06008KT 10SM FEW021 FEW065 A2998 RMK AO2 SLP149 $ ", "PHNL 311353Z 03008KT 10SM FEW025 26/21 A2999 RMK AO2 SLP154 T02560206 $", "PHNY 311356Z AUTO 05009KT 10SM CLR 22/19 A3004 RMK AO2 SLP152 T02170189 $", "PHOG 311354Z AUTO 03011KT 10SM CLR 26/21 A2999 RMK AO2 SLP159 T02560206 TSNO $", "PHSF 311358Z AUTO 09009KT 10SM CLR 09/03 A3031 RMK AO2 SLP159 T00850034 $", "PHTO 311353Z AUTO 24006KT 10SM CLR 21/19 A3000 RMK AO2 SLP156 T02110189 TSNO", "PKMR 311353Z VRB02KT 15SM FEW015 SCT050 BKN120 OVC300 27/24 A2978 RMK SLP086 T02660236", "PKWA 311400Z AUTO 01008KT 10SM SCT017 SCT026 OVC050 28/24 A2980 RMK AO2 T02750242", "PLCH 311400Z 12005KT 9999 FEW020 BKN040 26/23 Q1008", "PMDY 311356Z AUTO 08010KT 10SM FEW021 SCT060 SCT120 24/21 A3009 RMK AO2 SLP190 T02390211 TSNO", "PPIZ 311356Z AUTO 14013KT 10SM FEW013 M11/M13 A2987 RMK AO2 SLP118 T11061133 FZRANO", "PTKK 311352Z 06008KT 15SM FEW014 SCT280 29/24 A2980 RMK SLP093 T02890244", "PTRO 311250Z 16004KT 11SM BKN014CB BKN100 OVC280 25/23 A2980 RMK CB ALQDS", "PTTP 311252Z 00000KT 15SM FEW018 SCT130 BKN300 26/25 A2985 RMK SLP107 T02550248 403350250", "PTYA 311353Z VRB03KT 12SM SCT016 BKN300 27/25 A2983 RMK SLP101 T02690254", "PWAK 311355Z AUTO 07008KT 9999 SCT050 27/23 A2988 RMK AO2 SLP124 T02670231 $", "RCFN 311300Z 02008KT 330V080 3000 RA FEW003 SCT023 OVC065 23/23 Q1009 NOSIG RMK A2980 RA AMT 7.0MM", "RCKH 311351Z 35011KT 320V030 7000 VCSH FEW008 SCT013 BKN035 22/21 Q1005 NOSIG RMK A2969", "RCMQ 311330Z 03020G30KT 9999 -RA BKN008 BKN040 20/19 Q1010 RMK A2983 AWOS R36 N/A", "RCNN 311330Z 02016G26KT 8000 -RA FEW008 BKN020 BKN040 21/19 Q1006 RMK A2972", "RCSS 311330Z 07006KT 010V110 8000 -RA FEW010 BKN020 BKN040 20/19 Q1014 RERA NOSIG RMK A2997", "RCTP 311330Z 05017KT 4000 RA SCT004 BKN007 BKN015 21/20 Q1014 NOSIG RMK A2997", "RJAA 311330Z 36009KT 9999 FEW030 13/10 Q1025 NOSIG RMK 1CU030 A3029", "RJAH 311300Z 32004KT 9999 FEW030 10/09 Q1026", "RJBB 311330Z 05007KT 9999 FEW020 BKN070 BKN/// 17/14 Q1021 NOSIG", "RJBE 311300Z 05013KT 9999 FEW030 BKN070 17/13 Q1021", "RJCC 311330Z 14004KT 9999 FEW020 SCT030 BKN050 11/08 Q1027 RMK 1CU020 3CU030 7CU050 A3034", "RJDB 311300Z AUTO 06007KT 020V110 9999 NSC 18/11 Q1020", "RJFF 311330Z 16002KT 9999 FEW040 BKN/// 15/11 Q1020 NOSIG RMK 1CU040 A3014", "RJFO 311300Z 28005KT CAVOK 15/11 Q1020", "RJFR 311300Z 35005KT 330V040 9999 FEW030 BKN/// 15/11 Q1021", "RJFS 311300Z 01009KT CAVOK 16/10 Q1019", "RJGG 311330Z 08004KT 040V120 9999 FEW020 SCT060 BKN080 17/12 Q1023 NOSIG", "RJKA 311300Z AUTO 07018KT 8000 SCT013 BKN014 BKN110 24/22 Q1014", "RJKI 311300Z AUTO 07013KT 9999 -RA FEW012 SCT019 BKN060 //////TCU 24/22 Q1014", "RJNK 311300Z VRB02KT 9999 FEW030 BKN050 BKN100 14/10 Q1022", "RJOA 311300Z 02002KT CAVOK 12/07 Q1021", "RJOH 311300Z 18004KT 9999 FEW050 11/10 Q1022", "RJOI 311356Z 30005KT 9999 FEW030 BKN250 15/08 A3016 RMK AO2 SLP211 T01500078", "RJOO 311300Z AUTO 06009KT 9999 NSC 17/12 Q1022 RMK A3018", "RJOS 311300Z 29005KT 9999 SCT030 BKN050 15/10 Q1021", "RJSM 311300Z 13008KT 9999 FEW020 BKN030 11/07 Q1028", "RJTT 311330Z 01011KT 9999 FEW030 15/11 Q1025 NOSIG RMK 1CU030 A3029", "RJTY 311355Z AUTO 33003KT 10SM CLR 11/06 A3034 RMK AO2 SLP278 T01050061 $", "RKJB 311300Z 08002KT CAVOK 13/10 Q1024 NOSIG", "RKJK 311255Z 34003KT 4SM BR CLR 12/12 A3020 RMK AO2A SLP231 T01220120", "RKNY 311300Z AUTO 25004KT 9999 NCD 11/09 Q1022", "RKPC 311300Z 12006KT 090V150 9999 FEW030 17/11 Q1022 NOSIG", "RKPK 311300Z 07005KT CAVOK 14/07 Q1024", "RKSG 311355Z 00000KT 4SM BR CLR 11/11 A3022 RMK AO2A SLP237 T01120110 TSNO $", "RKSI 311330Z 31003KT 9000 NSC 12/11 Q1023 NOSIG", "RKSM 311300Z 11001KT 9999 SKC 12/09 A3023", "RKSO 311355Z 00000KT 3SM BR CLR 10/10 A3024 RMK AO2A SLP244 T01020102 TSNO CHINO RWY09 $", "RKSS 311300Z 33003KT 3000 BR NSC 10/10 Q1023 NOSIG", "RKTN 311300Z 13004KT CAVOK 11/07 Q1024", "RKTU 311300Z 10002KT CAVOK 09/07 Q1023", "ROAH 311330Z 06020G30KT 9999 -RA FEW013 SCT050 BKN100 24/22 Q1011 RMK 1CU013 3SC050 7AS100 A2986", "RODN 311355Z 04009KT 10SM BKN070 23/22 A2984 RMK AO2A PK WND 06028/01 RAB02E08 SLP111 P0001 T02310215 $", "ROIG 311300Z AUTO 06016KT 3400 RA BR FEW003 SCT010 BKN044 24/24 Q1009", "ROMD 311300Z AUTO 05009KT 9999 FEW005 SCT009 BKN038 23/23 Q1011", "RORK 311300Z AUTO 07012KT 9999 FEW008 BKN036 BKN042 24/23 Q1011", "RORY 311300Z AUTO 05016KT 9999 FEW013 BKN016 OVC130 //////TCU 24/23 Q1012", "ROTM 311356Z 05010G23KT 9999 -DZ BKN007 BKN012 OVC040 22/20 A2983 RMK SLP101 P0001 T02180200", "ROYN 311300Z AUTO 06026KT 2500 UP FEW005 SCT010 BKN022 23/// Q1009", "RPLB 311400Z 22015KT 9000 -RA SCT016 OVC070 27/25 Q1006 RMK A2971", "RPLC 311400Z 18010KT 5000 SCT015 OVC090 25/25 Q1007 RERA RMK A2974", "RPLL 311400Z 19003KT 100V220 9999 -SHRA SCT022 OVC090 25/24 Q1006 NOSIG RMK A2971", "RPMD 311400Z 34003KT 9999 FEW016 BKN260 28/27 Q1010 RMK A2983", "RPVM 311400Z VRB01KT 9999 FEW020 BKN300 28/24 Q1010 RMK A2983", "SAAR 311400Z 19017KT 170V230 CAVOK 15/01 Q1031 RMK PP000", "SABE 311400Z 19010KT 150V250 9999 SCT045 13/01 Q1029 NOSIG RMK PP000", "SACO 311400Z 18014G24KT 160V220 9999 SCT045 14/M04 Q1034 NOSIG RMK PP000", "SADF 311400Z 18011KT 120V230 9999 SCT048 14/02 Q1029 RMK PP000", "SAEZ 311300Z 19009G20KT 150V240 9999 SCT040 13/02 Q1028 NOSIG RMK PP000", "SAME 311300Z 09008KT 9999 FEW045 11/06 Q1035", "SANT 311400Z 19010KT 120V230 9000 FEW050 OVC100 17/M03 Q1033 RMK PP000", "SAOC 311300Z 20012G22KT CAVOK 12/M10 Q1034", "SARC 311300Z 18019KT 9999 SCT015 OVC100 13/07 Q1025", "SARE 311300Z 18013KT CAVOK 13/06 Q1025 RMK PP///", "SARF 311320Z 20019G31KT 9999 SCT020 OVC100 14/09 Q1022", "SARI 311400Z VRB06KT 5000 -RA BR BKN005 OVC020 15/15 Q1014 RMK PP001", "SARL 311300Z 18025KT 9999 FEW020 BKN100 15/06 Q1024", "SARP 311300Z 16015KT 5000 -DZ BKN007 OVC020 13/11 Q1019", "SASA 311400Z VRB06KT 9999 FEW050 BKN070 12/M06 Q1031 PP000", "SASJ 311400Z 16013KT 130V200 9999 SCT050 OVC100 14/M05 Q1031 RMK PP000", "SAVC 311400Z 12008KT 090V150 CAVOK 15/M03 Q1028 RMK PP000", "SAWC 311335Z 27030G40KT 9999 FEW035 SCT100 BKN200 11/M10 Q1021", "SAWE 311314Z 30026KT 9999 FEW040 09/M01 Q1009", "SAWG 311300Z 27017KT 9999 FEW035 BKN080 09/M04 Q1017", "SAWH 311400Z 18007KT 120V220 9999 -DZ BKN040 BKN056 09/M00 Q1004 RMK PP999", "SAZM 311400Z 20011G23KT 170V240 9999 SCT036 SCT042 FEW050TCU 12/03 Q1027 RMK PP///", "SAZN 311300Z 25004KT CAVOK 13/M05 Q1033", "SAZS 311300Z 10004KT CAVOK 07/M02 Q1033 RMK PP///", "SBAF 311300Z 32011KT 9999 FEW025 SCT100 30/18 Q1009", "SBAN 311300Z 32004KT 9999 FEW020 BKN100 25/19 Q1019", "SBAR 311400Z 08010KT 040V110 9999 FEW022 29/22 Q1012", "SBAT 311300Z 01003KT CAVOK 32/24 Q1013", "SBAX 311300Z 36006KT 9999 BKN012 BKN055 24/20 Q1017", "SBBE 311400Z 06010KT 9999 SCT032 32/24 Q1011", "SBBG 311400Z 19015KT 9999 FEW030 OVC100 12/04 Q1022", "SBBH 311300Z 07005KT 9999 BKN010 BKN020 OVC100 22/19 Q1017", "SBBI 311300Z 29004KT 250V350 9999 -RA FEW005 SCT010 BKN100 18/17 Q1014", "SBBQ 311300Z 33012KT 9999 BKN016 23/18 Q1018", "SBBR 311400Z 21006G17KT 150V260 9999 -RA SCT035 FEW040TCU BKN100 25/19 Q1017", "SBBU 311300Z 15012KT 6000 -RA FEW004 OVC022 20/19 Q1013", "SBBV 311400Z 07009KT 9999 FEW020 30/22 Q1012", "SBBW 311300Z 00000KT 9999 VCSH FEW015 BKN090 26/24 Q1014", "SBCA 311300Z 28004KT 8000 SCT003 BKN005 BKN018 19/18 Q1014", "SBCB 311400Z 09010KT CAVOK 31/22 Q1008", "SBCC 311300Z 31007KT CAVOK 27/21 Q1014", "SBCF 311400Z 05004KT 6000 -RA BKN008 BKN013 OVC070 22/20 Q1017", "SBCG 311349Z 20018KT 2000 SHRA BKN015 BKN030 FEW050TCU 21/19 Q1014", "SBCH 311300Z 16005KT 9999 4500E -DZ BCFG SCT004 BKN020 OVC100 18/18 Q1012", "SBCJ 311300Z 00000KT 4000 FU BKN010 26/22 Q1016", "SBCO 311300Z 19008G18KT 2500 RA SCT007 BKN012 OVC016 16/15 Q1015", "SBCP 311300Z 01010KT CAVOK 31/21 Q1009", "SBCR 311300Z 21020G33KT 3000 -DZ BR BKN008 OVC016 20/18 Q1013", "SBCT 311400Z 13003KT 9999 SCT012 BKN100 18/17 Q1014", "SBCX 311300Z 20008KT 5000 1500S -DZ BCFG OVC001 12/// Q1016", "SBCY 311400Z 30009KT 9999 SCT030 BKN100 29/24 Q1013", "SBCZ 311300Z 36006KT CAVOK 28/24 Q1011", "SBDN 311300Z 27016G26KT 3000 -RA BR SCT025 FEW030TCU BKN080 23/21 Q1011", "SBEG 311400Z 00000KT 9999 SCT018 31/26 Q1011", "SBES 311300Z 07006KT CAVOK 32/21 Q1008", "SBFI 311300Z 23010KT 6000 -RA BKN004 OVC018 16/15 Q1014", "SBFL 311300Z 19014G24KT 9999 FEW030 26/19 Q1009", "SBFN 311306Z AUTO 17007KT 120V200 9999 BKN018 31/23 Q1012", "SBFS 311300Z 02010KT CAVOK 29/26 Q1009", "SBFZ 311400Z 12015KT 9999 FEW030 32/21 Q1012", "SBGL 311400Z 23015KT CAVOK 31/21 Q1008", "SBGM 311300Z 35009KT CAVOK 30/24 Q1011", "SBGO 311400Z 33006KT 9999 FEW048 FEW050TCU BKN100 27/21 Q1016", "SBGR 311300Z 00000KT 6000 -RA SCT011 SCT040 OVC100 21/19 Q1014", "SBGW 311300Z 23011KT 9999 BKN035 FEW040TCU 24/20 Q1013", "SBHT 311300Z 07006KT 9999 BKN018 29/26 Q1012", "SBIH 311300Z 05007KT 6000 SCT010 31/26 Q1011", "SBIL 311300Z 33003KT 9999 SCT018 BKN030 26/26 Q1014", "SBIP 311300Z AUTO 06004KT 040V100 9999 -RA FEW005 24/24 Q1014 RERA", "SBIZ 311300Z 08008KT CAVOK 32/23 Q1011", "SBJP 311400Z 07010KT 040V100 9999 SCT028 30/21 Q1013", "SBJR 311300Z 22008KT 9999 FEW030 SCT100 32/24 Q1009", "SBJU 311300Z 09006KT 9999 SCT020 29/19 Q1016", "SBJV 311300Z 13004KT CAVOK 25/21 Q1009", "SBKG 311300Z 11012KT 9999 SCT025 28/17 Q1015", "SBKP 311320Z 13004KT 050V160 5000 -TSRA BR FEW005 SCT020 BKN050 FEW055CB 20/19 Q1013 RERA", "SBLB 311300Z AUTO 02033KT 9999 NCD 25/23 Q1011 W/////", "SBLO 311326Z 14005KT 8000 -RA SCT005 BKN080 19/19 Q1013 RETSRA", "SBLS 311300Z 12003KT 030V160 9999 SCT007 BKN020 OVC100 22/21 Q1017", "SBMA 311400Z 03007KT 9999 SCT020 35/22 Q1011", "SBME 311300Z 03006KT CAVOK 35/22 Q1007", "SBMG 311300Z 15010KT 9999 SCT006 SCT020 BKN070 20/19 Q1012", "SBMK 311300Z 11003KT CAVOK 26/19 Q1015", "SBML 311300Z 13008KT 9999 -RA SCT010 SCT030 BKN070 22/21 Q1013 RETSRA", "SBMN 311400Z 25005KT 200V280 9999 SCT018 FEW025TCU BKN030 30/25 Q1011", "SBMO 311400Z 08011KT 9999 SCT027 30/21 Q1013", "SBMQ 311300Z 05011KT 9999 FEW020 31/25 Q1012", "SBMS 311300Z 08008KT 9999 FEW025 35/18 Q1011", "SBMT 311300Z 29003KT 9999 FEW013 BKN060 20/20 Q1014", "SBNF 311300Z 26004KT 9999 FEW020 BKN100 25/20 Q1009", "SBNM 311300Z 20018KT 4000 RA BR BKN004 OVC010 12/12 Q1017", "SBNT 311300Z 13010KT 100V160 9999 SCT030 30/19 Q1013", "SBOI 311400Z 07004KT 9999 SCT020 30/25 Q1013", "SBPA 311317Z 20011KT 160V230 2500 RA BKN005 OVC010 16/15 Q1016 WS R11", "SBPB 311300Z 13020KT CAVOK 33/23 Q1011", "SBPF 311300Z 18012KT 150V210 5000 -RA BKN003 OVC010 13/13 Q1014", "SBPG 311300Z 29006KT 8000 -RA SCT013 OVC025 18/18 Q1014", "SBPJ 311400Z 27007KT 9999 FEW030 FEW033TCU 32/22 Q1011", "SBPK 311300Z 21016G26KT 9999 BKN030 OVC035 14/09 Q1019", "SBPL 311300Z 14010KT 9999 FEW025 31/19 Q1013", "SBPP 311400Z 19014KT 0500 FG VV000 15/15 Q1016", "SBPR 311300Z 06006KT 9999 SCT010 BKN018 OVC080 22/21 Q1018 RERA", "SBPS 311400Z 06016KT 9999 BKN020 26/23 Q1013", "SBPV 311400Z 02006KT CAVOK 31/24 Q1011", "SBRB 311400Z 36010KT CAVOK 32/23 Q1011", "SBRF 311400Z 10008KT 070V150 9999 SCT022 29/21 Q1013", "SBRJ 311400Z 19020KT 9999 FEW035 30/22 Q1008", "SBRP 311300Z 01009KT 9999 FEW020 OVC100 27/22 Q1012", "SBSC 311300Z 14010KT 9999 FEW030 SCT100 28/23 Q1009", "SBSG 311400Z 17008G22KT 110V250 9999 SCT040 32/19 Q1012", "SBSJ 311400Z 08002KT 9999 FEW006 BKN025 FEW030TCU 22/19 Q1013", "SBSL 311400Z 06015KT 9999 SCT030 32/23 Q1011", "SBSM 311300Z 18007KT 8000 -RA BKN010 OVC019 11/09 Q1020", "SBSN 311400Z 10015KT 9999 SCT017 31/25 Q1011", "SBSP 311340Z 28006KT 240V330 5000 RA BR SCT008 BKN040 20/18 Q1015", "SBSR 311300Z 29008KT 240V330 9999 FEW025TCU SCT030 BKN070 29/20 Q1012", "SBST 311300Z 36006KT 9999 -DZ SCT009 BKN043 25/22 Q1008", "SBSV 311400Z 07015KT 9999 SCT020 29/24 Q1013", "SBTA 311300Z 23006KT 4000 -RA BR OVC017 21/20 Q1013", "SBTE 311300Z 11005KT CAVOK 33/18 Q1010", "SBTF 311300Z 05006KT CAVOK 30/26 Q1010", "SBTT 311400Z 03006KT CAVOK 30/24 Q1011", "SBTU 311300Z AUTO 20011KT 170V250 //// // FEW017/// BKN021/// 29/23 Q1013", "SBUA 311300Z 10003KT CAVOK 30/24 Q1010", "SBUF 311300Z 17007KT 9999 FEW020 30/17 Q1014", "SBUL 311300Z 31008KT 9999 FEW030 SCT100 28/17 Q1017", "SBUR 311300Z 32012KT 9999 SHRA BKN040 BKN100 28/19 Q1015", "SBUY 311300Z 07003KT CAVOK 27/25 Q1010", "SBVH 311300Z 28004KT 9999 FEW010 BKN100 25/23 Q1015", "SBVT 311400Z 03013KT 9999 SCT040 29/22 Q1011", "SBYS 311300Z 25006KT 9999 -RA BKN021 FEW025TCU 22/21 Q1013 RETSRA RESHRA", "SCAP 311300Z AUTO 27005KT 240V310 9999 ////// 07/01 Q1037", "SCAR 311300Z VRB02KT CAVOK 18/12 Q1016", "SCAT 311338Z 05004KT 350V110 9999 SCT017 15/10 Q1016", "SCCF 311300Z 11013KT CAVOK 15/M17 Q1026", "SCCH 311300Z 20008KT CAVOK 12/01 Q1025", "SCCI 311316Z 31023G33KT 9999 FEW045 SCT100 09/01 Q1012 NOSIG", "SCCY 311300Z 07005KT 020V120 CAVOK 08/M00 Q1032", "SCDA 311300Z 31005KT 270V350 CAVOK 17/10 Q1016", "SCEL 311400Z 02005KT 300V070 CAVOK 16/M00 Q1016 NOSIG", "SCFA 311300Z 21007KT 9999 OVC020 15/10 Q1017 NOSIG", "SCGE 311300Z 17010KT CAVOK 12/02 Q1028", "SCGZ 311300Z 28010KT 9999 FEW050 SCT070 BKN100 08/M02 Q1005", "SCIC 311300Z 22007KT CAVOK 15/M02 Q1018", "SCIE 311300Z 15018KT CAVOK 14/M03 Q1026", "SCIR 311300Z 14017G37KT 4000 HZ SCT015 11/07 Q1030", "SCJO 311300Z 20007KT 9999 BKN015 10/06 Q1034", "SCMK 311300Z 15009KT CAVOK 10/05 Q1035", "SCNT 311318Z 29038G51KT 9999 SCT050 10/M01 Q1017", "SCON 311300Z AUTO 18008KT 9999 SCT026/// 10/06 Q1036", "SCPD 311300Z VRB03KT CAVOK 14/M00 Q1017", "SCPQ 311300Z 19013KT 9999 FEW040 09/05 Q1034", "SCQP 311300Z 16009KT 130V200 CAVOK 11/05 Q1031", "SCRD 311300Z 31004KT 280V020 CAVOK 16/04 Q1018", "SCRG 311300Z 21010KT CAVOK 15/M03 Q1018", "SCRM 311300Z 36018KT 0300 FZFG OVC003 M02/M03 Q0984 NOSIG", "SCSE 311338Z 28008KT 250V320 9999 FEW020 14/10 Q1017", "SCSN 311300Z 16008KT 120V210 CAVOK 16/03 Q1017", "SCTB 311300Z 00000KT CAVOK 14/01 Q1017", "SCTE 311300Z 19011KT 9999 BKN020 08/06 Q1034 NOSIG", "SCTN 311300Z 20006KT 170V230 CAVOK 09/05 Q1035", "SCVD 311300Z 13002KT CAVOK 10/05 Q1033", "SCVM 311400Z 33008KT CAVOK 17/06 Q1016", "SEAM 311400Z 00000KT 9999 FEW020 13/08 Q1028", "SECA 311400Z 01002KT 9999 FEW100 22/13 Q1019 RMK A3011", "SECO 311400Z 30006KT 9999 BKN016 BKN100 26/23 Q1012 RMK A2990", "SECU 311400Z 03004KT 9999 FEW030 13/06 Q1027", "SEGS 311400Z 17012KT 9999 SCT010 BKN016 20/17 Q1014 RMK A2996", "SEGU 311400Z 23008KT 9999 SCT026 26/19 Q1012 NOSIG RMK A2991", "SEGZ 311400Z 16003KT 9999 SCT026 24/19 Q1015", "SEJD 311400Z 04003KT 7000 3000E -RA SCT010 BKN023 OVC080 23/23 Q1013 RMK A2994", "SELT 311400Z 20002KT CAVOK 12/03 Q1030", "SEMC 311400Z 36004KT 9999 VCSH BKN023 BKN100 21/17 Q1018 RMK A3006", "SEMT 311400Z 20004KT 9999 BKN020 23/20 Q1013 RMK A2994", "SENL 311400Z 27004KT 9999 VCSH FEW005 SCT020 BKN100 25/24 Q1013 RMK A2992", "SEQM 311400Z VRB03KT 9999 FEW026 SCT300 16/08 Q1027 NOSIG RMK A3033", "SERB 311400Z 09003KT 9999 FEW040 14/08 Q1029", "SERO 311400Z 29003KT 9999 FEW013 OVC016 22/18 Q1013", "SESA 311400Z 21009KT 6000 VCSH SCT007 OVC010 20/19 Q1014 RMK A2995", "SESM 311400Z 19003KT 160V240 9999 FEW016 SCT023 BKN100 21/19 Q1016 RMK A3002", "SEST 311400Z 17009KT 9999 BKN020 20/18 Q1011 RMK A2988", "SETN 311400Z 21008KT 9999 FEW026 27/21 Q1012 RMK A2990", "SETU 311300Z 32002KT 9999 FEW020 09/06 Q1031", "SFAL 31350Z 23018KT 9999 SCT020 08/04 Q1012", "SGAS 311400Z 22028KT 9999 OVC005 14/13 Q1020 REDZ", "SGCO 311400Z 18010G20KT 4000 BRDZ OVC006 15/13 Q1018", "SGEN 311300Z 14010KT 4000 DZ OVC010 13/11 Q1016", "SGES 311330Z 24018KT 5000 RADZ BKN006 OVC013 15/15 Q1014", "SKAR 311300Z 00000KT 9999 FEW027 20/17 Q1019 RMK A3011", "SKBG 311400Z 17006KT 9999 FEW017 21/17 Q1017 RMK A3003", "SKBO 311400Z 05004KT 9999 FEW020 15/09 Q1027 NOSIG RMK A3033", "SKBQ 311400Z 16007KT 9999 FEW012 BKN200 28/24 Q1012 RMK A29889", "SKCC 311400Z VRB03KT 9999 FEW023 28/21 Q1014 RMK A2995", "SKCG 311400Z 16007KT 120V190 9999 SCT017TCU SCT200 30/25 Q1011 RMK TCU/W A2985", "SKCL 311300Z 18003KT 9000 SCT020 BKN040 21/19 Q1016 NOSIG RMK HZ A3003", "SKEJ 311300Z VRB02KT 9999 SCT006 25/24 Q1011 RMK A2988", "SKIB 311300Z 00000KT 9999 SCT010 22/20 Q1019 RMK A3010", "SKIP 311300Z 00000KT 9999 FEW015 10/08 Q1029 RMK A3040", "SKLC 311300Z 00000KT 9999 SCT018 26/23 Q1011 RMK A2987", "SKLT 311400Z 04005KT 9999 FEW015 31/24 Q1010 RMK A2984", "SKMD 311300Z 00000KT 8000 FEW020 SCT100 21/17 Q1021 RMK HZ A3015", "SKMR 311300Z 17005KT 9999 FEW015 26/23 Q1011 RMK A2986", "SKMZ 311300Z 00000KT 9000 NSC 18/11 Q1026 RMK A3031", "SKNV 311300Z 04003KT 9999 FEW030 BKN090 26/22 Q1013 RMK A2994", "SKPC 311300Z 03007KT 9999 SCT017 27/25 Q1010 RMK A2984", "SKPE 311300Z VRB02KT 9999 FEW020 21/16 Q1018 RMK A3007", "SKPS 311300Z 00000KT 9999 FEW023 18/14 Q1020 RMK A3014", "SKPV 311300Z 36010KT 9999 FEW017 SCT070 BKN200 27/23 Q1010 RMK A2985", "SKRG 311400Z VRB02KT 9999 BKN015 17/14 Q1026 BECMG FM1500 SCT018 RMK A3030", "SKRH 311300Z 11008KT 9999 FEW015 BKN200 28/23 Q1010 RMK A2984", "SKSM 311300Z 19008KT 9999 FEW020 BKN200 28/22 Q1012 RMK A2989", "SKSP 311400Z VRB02KT 9999 SCT014TCU SCT080 27/24 Q1011 REDZ RMK TCU/W A2986", "SKUC 311300Z 33003KT CAVOK 27/23 Q1012 RMK A2989", "SKUI 311300Z 00000KT 7000 VCFG BKN007 24/23 Q1011 RMK A2987", "SKVP 311300Z 19003KT 9999 FEW010 SCT200 25/22 Q1013 RMK A2994", "SKVV 311300Z 22003KT 9999 SCT020 26/23 Q1013 RMK A2993", "SLAL 311300Z 34006KT 9999 SCT017 16/08 Q1027", "SLCA 311300Z 18008KT 8000 OVC070 16/04 Q1026", "SLCB 311300Z 27003KT 9999 FEW033 23/07 Q1022", "SLCO 311300Z 30004KT 9999 FEW013 29/25 Q1010", "SLCP 311300Z 18020G30KT 7000 -RA BKN010 OVC070 15/14 Q1019", "SLET 311300Z 15028G48KT 8000 -TSRA BKN023 FEW030CB OVC070 17/09 Q1016", "SLJO 311300Z WO ATTN", "SLLP 311300Z VRB02KT 9999 NSC 10/M07 Q1037", "SLMG 311300Z 32006KT 9999 SCT080 29/24 Q1007", "SLPO 311300Z 30008KT 9999 FEW014 11/02 Q1035", "SLPS 311300Z 24010KT 6000 BKN012 20/17 Q1011", "SLRB 311300Z 00000KT 9999 OVC006 16/15 Q1022", "SLRI 311300Z 03008KT 9999 NSC 30/23 Q1011", "SLRQ 311300Z 33005KT 9999 BKN012 FEW015CB BKN070 27/25 Q1008", "SLRY 311300Z 36008KT 9999 BKN012 FEW023CB OVC080 27/24 Q1009", "SLSA 311300Z 34006KT 9999 FEW010 SCT020 FEW023CB BKN080 28/24 Q1010", "SLSV 311300Z 18015KT 8000 -RA OVC012 16/15 Q1015", "SLTJ 311300Z 14008KT 8000 VCSH FEW017 BKN027 OVC070 08/00 Q1028", "SLTR 311300Z 03004KT 9999 FEW017 FEW020CB BKN080 27/24 Q1011", "SLVM 311300Z 18015G28KT 9999 FEW025 OVC070 17/M00 Q1027", "SLVR 311319Z 19035G50KT 1800 TSRA FEW013 BKN020 FEW030CB OVC070 15/09 Q1016", "SLYA 311300Z 22012G22KT 9999 OVC070 15/03 Q1026", "SMJP 311400Z 05009KT 9999 BKN015 29/24 Q1013 NOSIG", "SMZO 311300Z 04005KT 9999 SCT015 27/25 Q1013 NOSIG", "SOCA 311330Z AUTO 05009KT 020V090 9999 BKN018 BKN027 BKN040 30/25 Q1013 NOSIG", "SPCL 311400Z 36006KT 9999 SCT020 30/25 Q1011 RMK BIRD HAZARD RWY 02/20 PP000", "SPEO 311400Z 22005KT 9999 BKN015 17/14 Q1016 RMK PP000", "SPGM 311400Z 06003KT 9999 SCT020 24/21 Q1014 RMK PP000", "SPHI 311400Z 17008KT 9999 OVC015 17/14 Q1016 RMK BIRD HAZARD RWY 19/01 PP000", "SPHO 311400Z VRB03KT CAVOK 20/01 Q1027 RMK PP000", "SPHY 311400Z /////KT CAVOK 13/03 Q1034 RMK BIRD HAZARD RWY03/21 PP000", "SPJC 311400Z 22005KT 190V250 9000 OVC012 16/13 Q1016 NOSIG RMK PP000", "SPJI 311400Z 12003KT 9999 BKN020 27/25 Q1019 RMK PP000", "SPJL 311400Z VRB03KT CAVOK 13/M13 Q1035 RMK PP000", "SPJR 311400Z VRB02KT CAVOK 16/M04 Q1027 RMK PP000", "SPLO 311400Z 16006KT 9999 SCT030 20/14 Q1016 RMK PP000", "SPMS 311400Z 33005KT 9999 FEW020 30/24 Q1010 RMK BIRD HAZARD RWY 09/27 PP000", "SPNC 311400Z 11002KT 9999 FEW040 24/12 Q1020 RMK PP000", "SPPY 311400Z 23003KT CAVOK 16/07 Q1027 RMK PP000", "SPQT 311400Z 02006KT 330V070 CAVOK 31/28 Q1010 NOSIG RMK BIRD HAZARD RWY 06/24 PP000", "SPQU 311400Z 24006KT 200V270 CAVOK 16/M09 Q1026 NOSIG RMK PP000", "SPRU 311400Z 16008KT 7000 BCFG OVC014 17/13 Q1015 RMK PP000", "SPSO 311400Z 29005KT 250V310 7000 OVC011 16/14 Q1016 RMK BR BIRD HAZARD RWY 22/04 PP000", "SPST 311400Z 00000KT 9999 SCT020 32/24 Q1010 RMK BIRD HAZARD RWY 17/35 PP000", "SPTN 311400Z 23003KT CAVOK 16/10 Q1016 RMK PP000", "SPTU 311400Z 35006KT 9999 FEW012 BKN080 27/24 Q1009 RMK BIRD HAZARD RWY 01/19 PP000", "SPYL 311400Z 16014KT CAVOK 20/14 Q1014 RMK BIRD HAZARD RWY 17/35 PP000", "SPZO 311400Z VRB03KT 9999 NSC 17/03 Q1030 NOSIG RMK BIRD HAZARD RWY 10/28 PP000", "SUAA 311300Z 20012G22KT 9999 BKN023 14/05 Q1025", "SUCA 311400Z 20017KT 9999 FEW016 13/03 Q1028", "SUDU 311316Z 21013KT 9999 S080 FEW040 TCU 13/07 Q1025", "SULS 311400Z 19016KT 9999 BKN036 14/02 Q1025", "SUMU 311400Z 18018KT 9999 FEW030 BKN040 15/04 Q1026 TEMPO 18018G28KT SHRA", "SUSO 311400Z 20015KT 9999 BKN020 14/03 Q1027", "SVBC 311303Z AUTO 12003KT NCD 26/26 Q1012", "SVBI 311303Z AUTO 01001KT NCD 26/23 Q1015", "SVBM 311303Z AUTO NIL", "SVBS 311303Z AUTO 15002KT NCD 26/// Q1014", "SVCB 311303Z AUTO 01005KT NCD 28/22 Q1011", "SVCJ 311303Z AUTO NIL", "SVCS 311303Z AUTO 02002KT NCD 43/43 Q1016", "SVFM 311303Z AUTO 00000KT NCD ///// Q////", "SVGD 311303Z AUTO 27003KT NCD 26/23 Q1012", "SVGU 311303Z AUTO NIL", "SVJM 311303Z AUTO 08001KT NCD 24/23 Q1012", "SVLO 311303Z AUTO NIL", "SVMC 311400Z 00000KT 9999 BKN015 XX/XX Q1011", "SVMG 311303Z AUTO 10015KT NCD 28/25 Q1011", "SVMI 311303Z AUTO 10001KT NCD 27/21 Q1012", "SVMT 311303Z AUTO 07006KT NCD 25/26 Q1012", "SVPA 311303Z AUTO NIL", "SVPR 311303Z AUTO 10006KT NCD 28/21 Q1013", "SVSR 311303Z AUTO NIL", "SVVA 311303Z AUTO 00000KT NCD 27/25 Q1013", "SVVG 311400Z /////KT 9999 STC027 29/24 Q1012", "SYCJ 311300Z 06012KT 9999 SCT018 BKN080 28/25 Q1013 NOSIG", "SYEC 311300Z 09010KT 9999 SCT018 BKN090 29/25 Q1013 NOSIG", "TAPA 311300Z 10011KT 050V140 9999 BKN020 29/23 Q1014 NOSIG", "TBPB 311300Z 11018KT 9999 SCT020 30/25 Q1013 NOSIG", "TDCF 311300Z 16002KT 9999 SCT017 31/22 Q1013", "TDPD 311300Z 13009KT 9999 BKN016 30/26 Q1015", "TFFF 311400Z AUTO 13016KT 9999 SCT026/// SCT038/// ///TCU 30/25 Q1014", "TFFR 311400Z AUTO 12015KT 9999 FEW023 SCT039 30/24 Q1014", "TGPY 311300Z 09021KT 9999 -SHRA BKN018 28/26 Q1012 NOSIG RMK VCSH-SW", "TIST 311353Z 13010KT 10SM FEW026 30/24 A2996 RMK AO2 SLP147 T03000244", "TISX 311353Z 10013KT 10SM SCT027 30/24 A2998 RMK AO2 SLP150 T03000244 PNO $", "TJBQ 311350Z 09006KT 10SM CLR 29/22 A2998", "TJIG 311345Z 18006KT 10SM SCT040 SCT080 29/23 A2997", "TJNR 311353Z AUTO 05003KT 10SM BKN022 BKN027 29/24 A2999 RMK AO2 SLP154 T02940244", "TJSJ 311356Z 07008KT 10SM FEW024 SCT070 SCT110 29/24 A2998 RMK AO2 SLP150 T02940244", "TKPK 311300Z 10009KT 9999 FEW018 30/24 Q1015", "TKPN 311300Z 10012KT 9999 SCT019 29/26 Q1014", "TLPC 311300Z 11014KT 9999 FEW024 29/25 Q1014 NOSIG", "TLPL 311300Z 10020KT 9999 FEW025 29/24 Q1014 NOSIG", "TNCA 311300Z 11012KT 9999 FEW016 27/24 Q1011 NOSIG", "TNCB 311255Z 09016KT 070V130 9999 -RA BKN017 BKN040 25/25 Q1011", "TNCC 311328Z AUTO 12007KT 9999 BKN041 25/23 Q1012 TEMPO 16005G20KT 4000 +SHRA FEW012CB SCT016TCU BKN020", "TNCE 311255Z AUTO 08012KT 050V110 //// // ///////// 31/25 Q1014 RE//", "TNCM 311400Z 11010KT 9999 SCT016 BKN038 30/25 Q1016 NOSIG ", "TQPF 311400Z 12013KT 9999 FEW018 BKN038 29/25 Q1015", "TRPG 311300Z 10012KT 9999 VCSH BKN018 28/25 Q1016", "TTCP 311300Z 10012KT 9999 SCT018 29/25 Q1012 NOSIG", "TTPP 311300Z 10014KT 9999 VCSH SCT020 29/24 Q1012 NOSIG", "TUPJ 311400Z 00000KT 10SM SCT018 29/26 A2999 RMK Q1015 VIS16KM", "TVSA 311300Z 07010KT 9999 SCT016 29/25 Q1013 NOSIG ", "TXKF 311355Z 33015KT 9999 VCSH SCT020 25/21 Q1012 ", "UAAA 311330Z 11003MPS 4800 BR FU BKN050CB OVC100 09/05 Q1025 NOSIG", "UAAT 311330Z 21004MPS 9999 FEW013 OVC050CB 07/04 Q1025 NOSIG RMK QFE716/0955", "UACC 311330Z 19003MPS CAVOK M02/M04 Q1021 NOSIG RMK QFE735/0980", "UACK 311300Z 17006MPS CAVOK M06/M08 Q1018 NOSIG RMK QFE739/0986", "UADD 311330Z 01002MPS 9999 BKN050 OVC100 09/05 Q1024 NOSIG RMK QFE710/0947", "UAII 311330Z 06002MPS CAVOK 11/05 Q1023 NOSIG RMK QFE732/0976", "UAIT 311330Z 07002MPS CAVOK 08/05 Q1023 NOSIG RMK QFE742/0990", "UAKD 311330Z 21005MPS 9999 OVC019 04/M00 Q1022 NOSIG RMK QFE733/0978", "UAKK 311330Z 19002MPS 9999 BKN026 02/01 Q1022 NOSIG RMK QFE720/0960", "UAOO 311300Z 12003MPS CAVOK 07/M00 Q1021 NOSIG RMK QFE754/1006", "UARR 311330Z 21002MPS 9999 -SHRA OVC035CB 04/03 Q0999 NOSIG RMK QFE746/0995", "UASK 311330Z 23003MPS 9999 BKN021CB OVC040 06/04 Q1023 NOSIG RMK QFE742/0989", "UASP 311330Z 18002MPS 9999 BKN025 02/M02 Q1022 NOSIG RMK QFE756/1008", "UATE 311330Z 28003MPS CAVOK 15/10 Q1009 NOSIG RMK QFE755/1007", "UATG 311330Z 21010MPS 5000 BR SCT010 BKN033CB 11/09 Q1004 NOSIG RMK QFE755/1006", "UATT 311330Z 19009MPS 9999 SCT023CB 09/08 Q1004 NOSIG RMK QFE733/0978", "UAUU 311330Z 14009MPS 9999 -SNRA BKN006 OVC036 01/00 Q1010 TEMPO 16012MPS 1500 SNRA BR BKN003 RMK QBB180 QFE741/0988", "UBBB 311330Z 32008KT CAVOK 16/12 Q1009 NOSIG", "UBBF 311400Z 11004KT 9999 BKN100 17/08 Q1011 NOSIG RMK MT OP", "UBBG 311400Z 26006KT 9999 FEW100 18/01 Q1011 NOSIG", "UBBL 311300Z 14006KT 9000 NSC 17/14 Q1011 NOSIG RMK MT OP", "UBBN 311400Z 13002KT 9999 FEW046 SCT100 19/M00 Q1012 NOSIG RMK MT OP QFE684", "UBBQ 311400Z 23007KT 9999 NSC 17/04 Q1009 NOSIG RMK MT OP", "UBBY 311400Z 32008KT 9999 SCT100 18/01 Q1013 NOSIG RMK MT OP", "UBBZ 311400Z AUTO 35006KT 9999 // ///////// 18/07 Q1011", "UBEE 311400Z 28006KT CAVOK 19/05 Q1009 NOSIG", "UCFL 311300Z 30002MPS 9999 SCT026CB BKN100 06/01 Q1022 R07/CLRD95", "UCFM 311330Z 25001MPS 9999 3000E BR NSC 06/05 Q1024 R08/0///95 NOSIG", "UCFO 311330Z 15002MPS 2700 BR FU NSC 09/06 Q1024 R12/0///95 NOSIG", "UDSG 311330Z 19011KT 9999 FEW049 14/M03 Q1015 R02/CLRD70 NOSIG", "UDYZ 311330Z 19002KT 9999 NSC 18/M00 Q1013 R09/010070 NOSIG", "UEEE 311330Z 31002MPS 9999 FEW050CB M14/M17 Q1019 R23L/450155 NOSIG RMK QFE756", "UERP 311300Z 20002MPS CAVOK M16/M17 Q1017 R35/890235 RMK QFE718", "UERR 311300Z 23003MPS 9999 -SHSN BKN023CB M09/M11 Q1021 R25/490340 NOSIG RMK QFE735/0980", "UGAM 311330Z AUTO 24007KT 200V280 //// ////// 14/02 Q1016", "UGKO 311330Z AUTO 27003KT CAVOK 15/10 Q1016 NOSIG", "UGMS 311330Z AUTO VRB01KT //// ////// 02/02 Q1018", "UGSB 311330Z 22005KT 170V240 9999 FEW030 SCT090 17/12 Q1017 NOSIG", "UGTB 311330Z 31018KT CAVOK 17/00 Q1012 NOSIG", "UHBB 311300Z 17005MPS 5000 BR SCT008 BKN033CB 03/03 Q1005 R36/290250 NOSIG RMK QBB250 QFE736/0982", "UHHH 311330Z 14003MPS 9000 -SHRA SCT034CB 05/01 Q1018 R23R/290045 NOSIG RMK QFE757/1010", "UHMA 311300Z 34005MPS CAVOK M22/M24 Q1019 R01/////// NOSIG RMK TDZ R01/34005G06MPS END R01/34006G08MPS QFE761/1014", "UHMM 311300Z 00000MPS 9999 NSC M25/M27 Q1026 RMK QFE755 R28/09004MPS", "UHPP 311300Z 33004MPS CAVOK M04/M11 Q1022 R34L/CLRD65 NOSIG RMK QFE763/1018", "UHSS 311330Z 16003MPS 9999 BKN009 07/06 Q1027 R19/70D NOSIG RMK MT OBSC QFE769/1025", "UHWW 311330Z 14002MPS 9999 -SHRA BKN023CB 09/07 Q1023 R25L/290060 NOSIG RMK QFE766", "UIAA 311330Z AUTO 28007MPS 9999 NCD M06/M14 Q1020 RMK QFE706/0941", "UIBB 311330Z 07002MPS 9999 NSC M09/M14 Q1027 R30/820145 NOSIG RMK QFE727/0969", "UIII 311330Z 10002MPS 070V170 CAVOK M07/M11 Q1025 R12/CLRD60 NOSIG RMK QFE726/0968", "UIUU 311330Z VRB01MPS 9999 FEW046 M08/M13 Q1025 R26/CLRD60 NOSIG RMK QFE724/0966", "ULAA 311330Z 34002MPS 300V020 9999 BKN016 03/01 Q1007 R26/190065 NOSIG RMK QFE754/1006", "ULLI 311330Z 31005MPS CAVOK 04/M05 Q1018 R28R/090060 NOSIG", "ULMM 311330Z 26002MPS 9999 SCT007 00/00 Q1010 R31/690155 NOSIG RMK OBST OBSC QFE750", "ULOO 311330Z 30004MPS 270V350 CAVOK 06/M01 Q1019 R01/090060 NOSIG RMK QFE760", "ULPB 311330Z 30004MPS CAVOK 02/M03 Q1014 R01/190055 NOSIG RMK QFE756/1009", "ULWC 311330Z 32002G07MPS 9000 -SHRA BKN008 OVC016CB 02/01 Q1007 R21/690150 NOSIG RMK QFE745/0994", "UMBB 311300Z 00000MPS 9000 NSC 12/05 Q1022 NOSIG", "UMGG 311330Z 33006MPS CAVOK 08/M06 Q1018 NOSIG", "UMII 311343Z 32003G06MPS CAVOK 05/00 Q1017 NOSIG", "UMIO 311330Z 34004G07MPS CAVOK 06/M02 Q1018 NOSIG RMK QFE745/0994", "UMKK 311330Z 14003MPS 9999 SCT011 14/11 Q1020 R24/CLRD95 NOSIG RMK QFE764/1018", "UMMG 311300Z 10002MPS CAVOK 09/06 Q1022 NOSIG", "UMMS 311330Z 33005MPS CAVOK 09/M02 Q1019 NOSIG", "UMOO 311300Z 30008G12MPS CAVOK 07/M03 Q1019 NOSIG", "UNAA 311330Z 00000MPS 7000 BKN031CB M01/M06 Q1024 R02/150060 NOSIG RMK QFE745", "UNBB 311330Z 23004MPS 9999 BKN020 01/M00 Q1019 R24/290245 NOSIG RMK QFE742", "UNEE 311330Z 10002MPS CAVOK M01/M06 Q1020 R23/120155 NOSIG RMK QFE742", "UNKL 311330Z 12002MPS CAVOK M07/M09 Q1024 R11/CLRD65 NOSIG RMK QFE743", "UNNT 311330Z 01002MPS 9999 SCT023 00/M05 Q1020 R25/150065 R16/////// NOSIG RMK QFE755/1007", "UNOO 311330Z 16003MPS 6000 SCT003 M03/M04 Q1020 R25/190055 NOSIG RMK QBB090 OBST OBSC QFE757", "UNTT 311330Z 08002MPS CAVOK M04/M07 Q1021 R21/////// NOSIG RMK QFE750", "UNWW 311330Z 13001MPS 9999 SCT037CB 01/M00 Q1020 R19/09//60 NOSIG RMK QFE738", "UOOO 311300Z 20011MPS 9000 -SN BLSN OVC008 M03/M03 Q1009 R19/410535 NOSIG RMK QFE741/0988", "URKA 311330Z 32008MPS 9999 SCT024 13/08 Q1013 R22/010070 TEMPO 30010G17MPS RMK QFE755/1006", "URKK 311330Z 27010MPS 9999 BKN027 15/09 Q1011 R23L/CLRD70 TEMPO 29012G19MPS RMK QFE755", "URMG 311330Z 09003MPS CAVOK 16/07 Q1007 R08/090070 NOSIG RMK QFE741/0988", "URML 311330Z 18004MPS 9999 NSC 14/09 Q1009 R14/01//70 NOSIG RMK QFE757/1009", "URMM 311330Z 31004MPS 9999 -SHRA BKN041CB 15/07 Q1008 R30/090070 NOSIG RMK QFE728/0971", "URMN 311330Z 12001MPS 9999 FEW/// 15/04 Q1008 R24/010070 NOSIG RMK QFE719", "URMO 311330Z 05004MPS 9999 SCT130 15/06 Q1008 R09/010070 NOSIG RMK QFE712/0950", "URMT 311330Z 30009G14MPS 9999 -SHRA SCT011 BKN029CB 09/07 Q1007 R25/290155 NOSIG RMK QFE717", "URRP 311330Z 35006MPS 9999 SCT///CB 07/00 Q1008 R23/CLRD70 NOSIG RMK QFE748/0998", "URSS 311330Z 13004MPS 9000 -SHRA OVC040CB 13/11 Q1015 WS ALL RWY R02/290060 R06/290060 NOSIG RMK R06/14003G06MPS MT OBSC QFE760", "URWA 311330Z 23005MPS CAVOK 12/09 Q1004 R27/290055 NOSIG RMK QFE755/1007", "URWI 311330Z 27011G21MPS 260V330 6000 -SHRA SCT011 BKN039CB 08/05 Q1005 R27/190060 TEMPO 2000 SHRA SCT007 BKN020CB", "URWW 311330Z 31005MPS CAVOK 03/00 Q1003 R24/290051 TEMPO 1000 SHRA BKN003 BKN016CB", "USCC 311330Z 17006MPS 3700 BR FU OVC003 03/03 Q1003 R09/290042 TEMPO 1200 BR OVC002 RMK QBB090 QFE732", "USCM 311330Z 15007MPS 0200 R18/0650D DZ FG VV001 04/04 Q1001 R18/190057 NOSIG RMK QBB030 QFE713", "USDA 311330Z 21011MPS CAVOK M01/M02 Q0996 R22/190052 NOSIG RMK QFE746/0995", "USHH 311330Z 15006MPS CAVOK M02/M05 Q1008 R06/010060 NOSIG", "USNN 311330Z 16005MPS CAVOK M03/M06 Q1017 R21/0///65 NOSIG RMK QFE758", "USPP 311330Z 12004MPS 9999 OVC009 04/03 Q0996 R21/290250 NOSIG RMK QFE736", "USRR 311330Z 16006MPS 130V190 CAVOK M02/M05 Q1014 R07/CLRD60 NOSIG RMK QFE755", "USSS 311330Z 15004MPS 9999 OVC009CB 02/02 Q1001 R08R/290050 R08L/590232 NOSIG RMK QFE731/0975", "USTR 311330Z 17007MPS 9999 BKN015CB 02/M01 Q1007 R21/290060 R12/290060 TEMPO 16014MPS", "UTAA 311300Z 00000KT 8000 NSC 19/11 Q1014 R88/70D NOSIG", "UTAK 311300Z 19010KT CAVOK 18/09 Q1012 R16R/CLRD70 NOSIG", "UTAM 311300Z 09006KT CAVOK 20/06 Q1017 R88/CLRD70 NOSIG", "UTAT 311300Z 12008KT CAVOK 16/07 Q1017 R08/CLRD70 NOSIG", "UTAV 311300Z 07006KT 9000 NSC 17/02 Q1018 R13/CLRD70 NOSIG", "UTDD 311330Z 09005MPS 9999 NSC 15/09 Q1021 R09/D NOSIG RMK QFE697/0929", "UTDK 311330Z 02003MPS 9999 NSC 17/13 Q1020 R01/09//70 RMK QFE707/0943", "UTDL 311330Z 08006MPS 9999 NSC 14/09 Q1022 R08/CLRD70 NOSIG RMK QFE727/0970", "UTDT 311330Z 35002MPS 9999 FEW100 17/13 Q1018 R35/19//60 RMK QFE724/0965", "UTFF 311330Z 05002KT 9999 NSC 12/08 Q1024 R18/29//60", "UTFN 311330Z 33004KT 9000 NSC 12/08 Q1024 R28/CLRD70 NOSIG", "UTNN 311330Z 11006KT CAVOK 14/03 Q1017 R33/CLRD60 NOSIG", "UTNU 311330Z 11006KT CAVOK 14/07 Q1017 R13/CLRD70 NOSIG", "UTO8 M M M 003/-15/-18/2916/M/ PK WND 2920 1255Z 8003 62MM", "UTSA 311330Z 09004KT 9000 NSC 14/02 Q1020 R07/CLRD70 NOSIG", "UTSB 311330Z 36004KT CAVOK 15/04 Q1019 R01/CLRD70 NOSIG", "UTSK 311330Z 35002KT CAVOK 17/02 Q1019 R16/CLRD70", "UTSS 311330Z 12006KT 9999 NSC 12/06 Q1020 R09/70D NOSIG", "UTST 311330Z 22002KT 9999 FEW050CB 18/11 Q1019 R25/CLRD70 NOSIG", "UTTT 311330Z 35004KT CAVOK 14/07 Q1022 R08L/CLRD70 NOSIG", "UUBC 311330Z 30008MPS 9999 BKN032 03/M03 Q1010 R31/CLRD60 NOSIG RMK QFE740/0987", "UUBP 311330Z 31005MPS 9999 BKN037 03/M04 Q1014 R16/////// NOSIG RMK QFE742/0990", "UUBW 311330Z 29007MPS 9999 OVC015 02/00 Q1006 R30/010060 NOSIG", "UUDD 311330Z 30009MPS 9999 BKN016 02/M01 Q1006 R32L/190050 NOSIG", "UUDL 311330Z 33005G10MPS 9999 OVC011 02/02 Q1002 R23/590245 NOSIG RMK QFE743", "UUEE 311330Z 29009G15MPS 9999 SCT015 02/M01 Q1007 R24L/150051 R24C/150051 NOSIG", "UUMO 311330Z 30008MPS 9999 BKN020 02/M01 Q1007 R25/290050 NOSIG RMK QFE740/0987", "UUOB 311330Z 34007MPS 9999 BKN043 03/M03 Q1012 R29/010070 NOSIG", "UUOK 311330Z 33008MPS 9999 OVC041 03/M04 Q1012 R30/090060 TEMPO 1500 SN RMK QFE740/0987", "UUOL 311330Z 31007MPS 9999 BKN040 02/M03 Q1006 R33/090060 NOSIG", "UUOO 311330Z 32007MPS 9999 OVC033 02/M03 Q1007 R30/190060 NOSIG RMK QFE742", "UUWW 311330Z 27006G13MPS 9999 BKN019 02/M02 Q1007 R24/250050 NOSIG", "UUYY 311330Z 02003MPS 9999 -SHRA FEW009 BKN015CB 02/01 Q0997 R36/29//51 NOSIG RMK QFE739/0986", "UWGG 311330Z 26003MPS 3000 -SHSN OVC005CB 00/00 Q0998 R36R/290050 NOSIG", "UWKD 311330Z 26005MPS 9999 OVC028 00/M01 Q0996 R29/290050 NOSIG RMK QFE736/0982", "UWKE 311330Z 22004MPS 9999 BKN040 01/M02 Q0996 R21/090070 NOSIG RMK QFE731/0974", "UWKS 311330Z 27004MPS 9999 -SHSN OVC008CB M00/M02 Q0996 R24/690348 NOSIG RMK QFE733", "UWLL 311330Z 27005MPS 9999 BKN039CB 02/M02 Q0998 R20/150060 NOSIG RMK QFE739/0985", "UWLW 311300Z 28003MPS 9999 OVC049CB 02/M02 Q0998 R20/120055 NOSIG RMK QFE743/0991", "UWOO 311330Z 18004MPS 9000 -SHRA OVC020CB 08/07 Q0999 R26/290356 NOSIG RMK QFE739/0985", "UWOR 311300Z 18006MPS 7000 -RA OVC008 07/07 Q1005 R25/290055 NOSIG RMK QFE730/0974", "UWPS 311330Z 27004MPS 9999 BKN020 00/M03 Q1000 R20/120060 NOSIG RMK QFE732", "UWSG 311330Z 32004MPS 9999 BKN046 03/M03 Q1001 R26/CLRD70 NOSIG RMK QFE748/0997", "UWUU 311330Z 28003MPS 9999 -SHRA SCT006 OVC013CB 05/05 Q0996 R32L/290344 TEMPO 1000 SHRA BR BKN005CB RMK QBB180", "UWWW 311330Z VRB01MPS 9999 SCT033 02/M04 Q0998 R33/CLRD60 NOSIG RMK QFE738/0984", "VAAH 311330Z VRB02KT 4000 FU NSC 28/14 Q1012 NOSIG", "VAAU 311300Z 00000KT 4000 HZ NSC 24/16 Q1014 NOSIG", "VABB 311330Z 34007KT 3500 FU NSC 30/15 Q1011 NOSIG", "VABO 311330Z 03006KT 6000 NSC 29/15 Q1012 NOSIG", "VABP 311330Z 36002KT 5000 HZ NSC 22/08 Q1015 NOSIG", "VAID 311330Z 05005KT 5000 HZ NSC 25/10 Q1016 NOSIG", "VAJB 311330Z 09005KT 4000 HZ NSC 23/14 Q1016 NOSIG", "VANP 311330Z 11003KT 4000 HZ NSC 23/16 Q1015 NOSIG", "VAOZ 311330Z 06003KT 4000 HZ NSC 20/11 Q1016 NOSIG", "VARK 311300Z 08003KT 6000 NSC 31/11 Q1012 NOSIG", "VASU 311330Z 04005KT 6000 NSC 29/16 Q1012 NOSIG", "VAUD 311330Z 00000KT 5000 HZ NSC 24/11 Q1016 NOSIG", "VCBI 311310Z 35005KT 290V040 9999 SCT016 27/25 Q1008 NOSIG", "VCRI 311310Z 19003KT 150V230 9999 VCTS SCT018 FEW020 CB 28/26 Q1009 NOSIG RMK NE/N", "VDPP 311330Z 01005KT 9000 FEW017 28/22 Q1009", "VDSR 311330Z 36006KT 9000 SCT015 26/22 Q1009", "VDSV 311330Z VRB01KT 9000 FEW015 27/24 Q1010", "VEAT 311330Z 00000KT 4000 BR NSC 27/25 Q1011 NOSIG", "VEBN 311330Z VRB02KT 3000 HZ SCT025 26/20 Q1013 NOSIG", "VEBS 311330Z 00000KT 3500 HZ FEW020 25/23 Q1014 BECMG 3000 HZ", "VECC 311400Z 31003KT 3600 HZ FEW100 28/20 Q1011 NOSIG", "VEGT 311330Z 00000KT 3000 BR FEW018 25/24 Q1012 NOSIG", "VEGY 311300Z 00000KT 3500 HZ FEW020 SCT100 24/19 Q1013", "VEJH 311330Z 22001KT 3500 HZ NSC 23/17 Q1014", "VEKI 311300Z VRB02KT 3000 BR NSC 24/21 Q1012 NOSIG", "VELR 311300Z 09002KT 6000 NSC 24/22 Q1012", "VEPT 311330Z 00000KT 4000 HZ NSC 26/20 Q1011 NOSIG", "VERC 311330Z 00000KT 5000 HZ NSC 22/15 Q1016 NOSIG", "VERP 311330Z 05005KT 4000 HZ NSC 24/18 Q1014 NOSIG", "VGEG 311300Z 29007KT 4500 HZ NSC 29/26 Q1010 NOSIG", "VGHS 311330Z 32003KT 3500 HZ NSC 29/21 Q1011 NOSIG", "VHHH 311330Z 01019KT 9999 FEW035 27/11 Q1009 NOSIG", "VIAR 311330Z 00000KT 1700 R34/2000 BR NSC 23/21 Q1013 BECMG 1500 BR", "VIDP 311330Z 00000KT 2200 FU NSC 25/16 Q1014 NOSIG", "VIJP 311330Z VRB02KT 2000 FU NSC 25/15 Q1015 NOSIG", "VILK 311330Z 00000KT 2500 HZ NSC 24/22 Q1013 NOSIG", "VLVT 311300Z 00000KT 4000 BR SCT200 24/22 Q1012 NOSIG", "VMMC 311330Z 36022KT 9999 FEW040 26/17 Q1009 NOSIG", "VNKT 311400Z 20004KT 7000 FEW020 17/13 Q1021 NOSIG", "VOBG 311300Z 04006KT 6000 FEW012 SCT080 24/17 Q1015 NOSIG", "VOBL 311330Z 03006KT 6000 FEW015 SCT080 23/17 Q1016 NOSIG", "VOBM 311330Z 00000KT 6000 NSC 21/12 Q1016", "VOBZ 311330Z 09003KT 3000 BR SCT018 BKN080 26/23 Q1011 NOSIG", "VOCB 311330Z 09003KT 4000 HZ FEW012 28/19 Q1012 NOSIG", "VOCI 311330Z 00000KT 4000 BR SCT012 FEW025CB BKN080 28/26 Q1009 NOSIG", "VOCL 311330Z 25002KT 5000 TS FEW012 FEW025CB BKN080 27/24 Q1009 TEMPO 3000 TSRA", "VOHB 311330Z 04003KT 6000 NSC 25/13 Q1013", "VOHS 311330Z 07009KT 5000 HZ FEW020 SCT100 23/17 Q1015 NOSIG", "VOHY 311330Z 05005KT 5000 HZ NSC 24/14 Q1015 NOSIG", "VOKN 311330Z VRB02KT 3500 BR FEW012 FEW025TCU 29/25 Q1009 NOSIG", "VOMD 311330Z 06005KT 5000 HZ NSC 28/22 Q1010 NOSIG", "VOML 311400Z 29003KT 6000 NSC 29/22 Q1010 NOSIG", "VOMM 311330Z 34006KT 2200 -RA BR SCT018 FEW025CB BKN080 25/23 Q1010 TEMPO 1500 RA", "VOMY 311330Z 05005KT 6000 NSC 26/17 Q1014", "VOPB 311300Z VRB02KT 5000 BR SCT014 SCT220 27/23 Q1009 NOSIG", "VORY 311330Z 11005KT 5000 BR FEW020 BKN090 27/24 Q1011 BECMG 6000", "VOTP 311330Z 05004KT 4000 HZ FEW020 SCT080 24/21 Q1011 NOSIG", "VOTR 311330Z 04006KT 3000 HZ SCT016 BKN100 27/22 Q1010 NOSIG", "VOTV 311330Z 04007KT 3000 TSRA SCT008 SCT012 FEW025CB OVC080 27/25 Q1010 TEMPO 1500 +TSRA", "VOVZ 311330Z 03004KT 4000 HZ NSC 27/22 Q1012 NOSIG", "VRMG 311300Z 32004KT 9999 FEW017 FEW018CB SCT110 BKN260 27/24 Q1011 CB WSW TEMPO 5000 SHRA", "VRMH 311300Z 25006KT 9999 FEW018 28/22 Q1010", "VRMM 311300Z 28009KT 9999 FEW018TCU BKN280 29/24 Q1010 NOSIG", "VTBD 311330Z 04006KT 9999 FEW020 28/20 Q1011 NOSIG", "VTBS 311330Z 02005KT 8000 FEW020 28/21 Q1010 NOSIG", "VTBU 311330Z 36003KT 6000 FEW020 27/19 Q1010 NOSIG", "VTCC 311330Z VRB02KT 9999 SCT035 25/20 Q1013 NOSIG", "VTCL 311300Z 00000KT CAVOK 24/20 Q1013 NOSIG", "VTCN 311300Z VRB01KT CAVOK 23/22 Q1012 NOSIG", "VTCT 311300Z 28003KT CAVOK 23/21 Q1014 NOSIG", "VTPP 311300Z 00000KT CAVOK 25/24 Q1011 NOSIG", "VTSB 311300Z 00000KT 9999 FEW020 26/25 Q1010 NOSIG", "VTSF 311300Z 30003KT 270V330 9999 FEW016CB SCT022 28/27 Q1010 NOSIG", "VTSG 311300Z VRB02KT 9999 FEW020 25/24 Q1010 NOSIG", "VTSM 311300Z 03005KT 9999 FEW020 29/24 Q1010 NOSIG", "VTSP 311330Z 06003KT 030V100 9999 -RA FEW020CB SCT025 26/24 Q1010 RETS NOSIG", "VTSS 311330Z 24003KT 9999 FEW020 BKN100 26/24 Q1010 NOSIG", "VTST 311300Z VRB02KT 9999 FEW030 26/25 Q1009 NOSIG", "VTUD 311300Z 08003KT 010V110 CAVOK 26/19 Q1012 NOSIG", "VTUI 311300Z 09004KT 9999 FEW035 25/18 Q1012 NOSIG", "VTUK 311300Z 06003KT 9000 FEW030 SCT080 25/20 Q1012 NOSIG", "VTUO 311300Z 08003KT 7000 NSC 25/22 Q1012 NOSIG", "VTUQ 311300Z 16001KT 7000 NSC 22/21 Q1012 NOSIG", "VTUU 311300Z 05008KT 9000 NSC 25/19 Q1012 NOSIG", "VTUV 311300Z 09003KT CAVOK 24/21 Q1012 NOSIG", "VTUW 311300Z 07007KT CAVOK 25/14 Q1013 NOSIG", "VVCI 311330Z 35008KT CAVOK 25/13 Q1014 NOSIG", "VVCR 311330Z 00000KT 8000 FEW015 25/23 Q1011 NOSIG", "VVCT 311330Z 30002KT 9999 FEW015 25/24 Q1010 NOSIG", "VVDN 311330Z 34011KT 9999 -RA FEW015 SCT060 25/18 Q1012 NOSIG", "VVNB 311330Z 34005KT 260V010 CAVOK 24/14 Q1015 NOSIG", "VVPB 311330Z 34008KT 8000 SCT015 BKN050 25/19 Q1014 NOSIG", "VVPQ 311330Z 00000KT 9999 FEW017 25/23 Q1010 NOSIG", "VVTS 311330Z 16004KT 050V200 9999 FEW020 29/24 Q1010 NOSIG", "VYYY 311330Z 21004KT 7000 FEW016 29/25 Q1010 NOSIG", "WAAA 311330Z 10003KT 8000 FEW019 26/25 Q1009 NOSIG", "WABB 311330Z VRB02KT 9999 FEW018 28/25 Q1009 NOSIG", "WADD 311330Z VRB02KT 9999 FEW017 27/23 Q1010 NOSIG", "WADL 311330Z VRB02KT 8000 SCT016 26/23 Q1011 NOSIG", "WAHS 311300Z 00000KT 6000 SCT014 28/24 Q1009", "WAJJ 311330Z 28004KT 9999 FEW014 28/23 Q1008 NOSIG", "WALL 311330Z 20005KT 9000 FEW020 29/24 Q1009 NOSIG", "WAMM 311400Z VRB02KT 9999 SCT021 24/24 Q1009 NOSIG", "WAOO 311330Z 20002KT 9999 NSC 27/24 Q1009 NOSIG", "WAPP 311330Z 03004KT 9999 FEW018CB 26/24 Q1010 NOSIG RMK CB TO NW", "WAQQ 311330Z 12004KT 8000 FEW015 29/26 Q1009 NOSIG", "WARR 311330Z 14004KT 8000 SCT020 29/24 Q1009 NOSIG METAR ", "WBGB 311300Z 00000KT 9999 -RA SCT016 26/25 Q1010", "WBGG 311330Z 26007KT 210V320 9999 SCT020 26/24 Q1010 NOSIG", "WBGR 311300Z 19004KT 140V260 4000 RA SCT014 24/23 Q1010", "WBGS 311300Z 00000KT 9999 FEW015CB SCT017 26/25 Q1010", "WBGY 311300Z AUTO 00000KT //// // ////// 25/24 Q1010", "WBKK 311330Z 16008KT 9999 -RA FEW013 FEW016CB SCT035 26/25 Q1010 RERA NOSIG", "WBKL 311300Z VRB06KT 9999 FEW010 FEW017CB 27/25 Q1009", "WBKS 311300Z 23006KT 170V270 2000 TSRA FEW006 FEW016CB SCT030 24/23 Q1010", "WBKT 311300Z 25007KT 190V300 9999 -RA FEW013 SCT033 26/25 Q1009", "WBKW 311300Z VRB01KT 9999 FEW016 27/26 Q1009", "WBSB 311330Z 26010KT 5000 SHRA FEW004 SCT012 FEW015CB BKN140 27/27 Q1010 TEMPO 27015G25KT 3000 +TSRA", "WIBB 311330Z 00000KT 7000 BKN012 28/26 Q1008 NOSIG", "WIDD 311330Z 34003KT 9999 FEW014 28/24 Q1011 NOSIG", "WIEE 311330Z 07002KT 9999 BKN020 26/25 Q1010 NOSIG", "WIII 311400Z 27003KT 6000 SCT020 27/24 Q1010 NOSIG", "WIMM 311330Z 35003KT 9000 SCT017 27/25 Q1009 NOSIG", "WIOO 311330Z 00000KT 6000 FEW012 26/25 Q1010 NOSIG", "WIPP 311330Z 09002KT 7000 FEW010 26/24 Q1009 NOSIG", "WMAU 311300Z 29003KT 230V320 9000 SCT025 27/25 Q1010", "WMBA 311300Z 00000KT 9000 FEW031 28/25 Q1009", "WMKA 311300Z 00000KT 9000 FEW028 25/23 Q1010", "WMKB 311300Z 05005KT 020V080 8000 SCT024 27/25 Q1010 NOSIG", "WMKC 311300Z VRB01KT 9999 -RA FEW010 SCT020 26/25 Q1010", "WMKD 311300Z VRB02KT 9999 FEW025 27/25 Q1010 NOSIG", "WMKE 311300Z AUTO VRB01KT //// // ////// 26/25 Q1010", "WMKI 311300Z 04007KT 360V060 8000 FEW027 27/23 Q1010", "WMKJ 311300Z VRB02KT 9999 FEW020 28/26 Q1009", "WMKK 311330Z 00000KT 9999 FEW010 FEW017CB 26/24 Q1010 NOSIG", "WMKL 311300Z 05003KT 360V100 9999 FEW026 27/24 Q1010", "WMKM 311300Z VRB02KT 9999 SCT028 28/25 Q1010", "WMKN 311300Z VRB02KT 9999 SCT020 26/25 Q1010", "WMKP 311330Z 04005KT 360V070 8000 FEW017CB 28/25 Q1010 NOSIG", "WMSA 311300Z 00000KT 9999 FEW026 28/25 Q1010", "WSAP 311400Z 33003KT 9999 FEW018 BKN160 28/25 Q1010", "WSSL 311300Z 04004KT 9999 FEW018 BKN150 28/25 Q1009", "WSSS 311330Z 35006KT 9999 FEW018 BKN160 27/25 Q1010 NOSIG", "YAMB 311330Z AUTO 01003KT 9999 -SHRA BKN115 23/21 Q1004", "YBAS 311330Z AUTO 21009KT 9999 // SCT115 18/M02 Q1014 RF00.0/000.2", "YBBN 311330Z 01013KT 9999 -RA NSC 24/20 Q1005", "YBCG 311330Z AUTO 33014KT 9999 -SHRA NCD 24/20 Q1004 RF00.0/000.0", "YBCS 311330Z AUTO 34007KT 9999 // BKN025 OVC032 28/23 Q1007", "YBCV 311257Z AUTO 35011KT 9999 SHRA SCT036 BKN064 BKN100 22/20 Q1003 RETS", "YBHM 311330Z AUTO 36010KT //// // NCD 26/23 Q1007 RF00.0/000.0", "YBLN 311400Z AUTO 18006KT 9999 -SHRA ////// 12/11 Q1027 RF00.0/000.0", "YBMA 311330Z AUTO 33004KT 9999 // SCT088 28/21 Q1006 RF00.0/000.6 DL-NE", "YBRK 311330Z AUTO 01007KT 9999 // NCD 24/20 Q1006 RF00.0/000.0", "YBRM 311330Z AUTO 15012KT 9999 // NCD 28/06 Q1011 RF00.0/000.0", "YBTL 311330Z AUTO 36013KT 9999 // SCT019 OVC033 28/25 Q1006", "YBUD 311400Z AUTO 36011KT 9999 // BKN012 BKN021 24/23 Q1006", "YBWW 311330Z AUTO 01014KT 9999 // NCD 21/19 Q1005 RF00.4/001.0", "YCBA 311330Z AUTO 24023G33KT 9999 // SCT024 SCT036 BKN051 15/12 Q0997", "YCBB 311401Z AUTO 30018G31KT 3200 +RA SCT019 SCT029 SCT041 15/15 Q0997", "YCCY 311400Z AUTO 29010KT //// TS SCT046 SCT061 BKN085 26/22 Q1005", "YCDU 311400Z AUTO 26025G36KT 9999 // SCT023 SCT060 BKN074 13/09 Q1003", "YCFS 311330Z AUTO 36016KT 9999 // NCD 25/17 Q0998 RF00.0/000.0", "YCIN 311330Z AUTO 16012KT 9999 // NCD 29/03 Q1010 RF00.0/000.0", "YCOM 311259Z AUTO 14003KT 9999 // SCT045 SCT055 BKN067 ///// Q0986", "YEML 311359Z AUTO 04006KT 9999 VCTS RA SCT041 SCT100 24/24 Q1004 RETS", "YESP 311312Z AUTO 22017G27KT 9999 // SCT018 SCT024 BKN029 12/09 Q1021", "YFRT 311330Z AUTO 26017KT 9999 // SCT062 12/08 Q1015 RF00.0/000.2", "YGEL 311330Z AUTO 16013KT 9999 // NCD 16/10 Q1025 RF00.0/000.0", "YGLA 311400Z AUTO 01007KT 9999 // SCT013 25/22 Q1006 RF00.0/000.0", "YHID 311330Z AUTO 13007KT 9999 // NCD 28/// Q1008 RF00.0/000.0", "YMAV 311330Z AUTO 28010KT 9999 // SCT097 09/08 Q0989 RF00.0/001.0", "YMAY 311330Z AUTO 27012KT 9999 // SCT012 SCT020 SCT036 13/13 Q0988", "YMDG 311359Z AUTO 35014KT 9999 // SCT020 BKN030 BKN056 18/18 Q0993", "YMER 311353Z AUTO 13007KT 9999 RA SCT079 OVC096 14/14 Q0983", "YMHB 311330Z AUTO 35005KT 9999 // BKN044 OVC053 10/06 Q0983", "YMIA 311333Z AUTO 24011KT 9999 // SCT012 SCT017 OVC023 10/08 Q0996", "YMLT 311330Z AUTO 34009KT 9999 // NCD 06/04 Q0984 RF00.0/001.6", "YMML 311330Z 26007KT 9999 SCT049 BKN075 10/08 Q0989", "YNAR 311321Z AUTO 21007KT 9999 // SCT012 OVC067 12/11 Q0990", "YNBR 311400Z AUTO 36021G31KT 9999 // SCT030 SCT048 BKN057 21/18 Q0997", "YPAD 311330Z 28018KT 8000 -RA -SHRA FEW020 SCT028 BKN065 11/07 Q0994", "YPCC 311330Z AUTO 12014KT 9999 // SCT029 SCT043 26/20 Q1013", "YPDN 311330Z 27007KT 9999 FEW021 30/24 Q1009", "YPEA 311330Z 19007KT CAVOK 12/08 Q1026", "YPGV 311330Z AUTO 35004KT 9999 // NCD 27/24 Q1009 RF00.0/000.0", "YPJT 311330Z AUTO 19011KT 9999 // NCD 14/07 Q1026 RF00.0/000.0", "YPKG 311330Z AUTO 24004KT 9999 // NCD 11/05 Q1022 RF00.0/000.0", "YPKU 311330Z AUTO 36007KT 9999 // NCD 29/21 Q1008 RF00.0/000.0", "YPLM 311330Z AUTO 21009KT 9999 // NCD 18/M04 Q1016 RF00.0////./", "YPPD 311330Z AUTO 14008KT 9999 // NCD 21/M12 Q1015 RF00.0/000.0", "YPPH 311330Z 19016KT CAVOK 14/07 Q1026", "YPTN 311345Z AUTO 30015G26KT 9999 // NCD 32/19 Q1008 RF00/0/000/0", "YPWR 311330Z AUTO 29017KT 9999 // NCD 11/07 Q1004 RF00.0/001.6", "YPXM 311400Z AUTO 13010KT 9999 // BKN006 BKN009 BKN016 22/21 Q1013", "YSCB 311400Z AUTO 33028G39KT 9999 -SHRA SCT020 BKN030 BKN057 17/15 Q0985 RESHRA", "YSDU 311330Z AUTO 33015KT 9999 // SCT012 SCT064 OVC120 19/18 Q0993", "YSNF 311330Z AUTO 00000KT 9999 // ////// 15/14 Q1013 RF00.0/000.0", "YSRI 311330Z AUTO 01009KT 9999 // SCT099 SCT120 21/20 Q0989", "YSSY 311330Z 02014KT 9999 VCSH FEW040 SCT075 BKN175 22/18 Q0988", "YSTW 311400Z AUTO 36026G37KT 9999 SHRA SCT037 BKN056 OVC066 19/18 Q0995", "YSWG 311330Z AUTO 25020KT 9999 // SCT008 SCT014 BKN030 12/11 Q0989", "YWGT 311318Z AUTO 23009KT 200V280 //// // SCT013 BKN023 BKN030 12/12 Q0987", "YWLM 311330Z AUTO 33012KT 9999 -RA NCD 23/18 Q0992 RF00.0/000.0", "ZBAA 311330Z 35002MPS CAVOK 08/M07 Q1027 NOSIG", "ZBAD 311330Z 28002MPS CAVOK 04/M06 Q1026 NOSIG", "ZBHH 311300Z 07002MPS CAVOK M02/M07 Q1026 NOSIG", "ZBSJ 311300Z 00000MPS CAVOK 06/01 Q1025 NOSIG", "ZBTJ 311330Z VRB01MPS CAVOK 09/M02 Q1026 NOSIG", "ZBYN 311330Z 11001MPS CAVOK 05/M03 Q1026 NOSIG", "ZGGG 311330Z 34006MPS CAVOK 25/14 Q1012 NOSIG", "ZGHA 311300Z 02002MPS CAVOK 17/09 Q1021 NOSIG", "ZGKL 311300Z 03004MPS CAVOK 20/09 Q1019 NOSIG", "ZGNN 311300Z 36003MPS CAVOK 23/11 Q1015 NOSIG", "ZGOW 311300Z 02004MPS 350V060 9999 -RA FEW020 BKN050 24/16 Q1011 NOSIG", "ZGSZ 311300Z 02007G13MPS 340V040 CAVOK 27/11 Q1010 NOSIG", "ZHCC 311300Z 04002MPS 4000 BR NSC 14/12 Q1025 BECMG TL1440 2500", "ZHHH 311300Z 36002MPS CAVOK 17/09 Q1023 NOSIG", "ZJHK 311300Z 34006MPS 310V010 CAVOK 24/15 Q1010 NOSIG", "ZJSY 311300Z 29002MPS 260V320 CAVOK 23/16 Q1010 NOSIG", "ZLLL 311300Z 32003MPS CAVOK 04/M02 Q1023 NOSIG", "ZLXY 311300Z 03003MPS CAVOK 13/10 Q1023 NOSIG", "ZMCK 311400Z 08005MPS CAVOK M14/M16 Q1022 NOSIG RMK QFE650.8 84", "ZMUB 311400Z VRB02MPS CAVOK M16/M19 Q1023 NOSIG RMK QFE659.4 79", "ZPPP 311300Z 06005MPS 9999 SCT026 11/06 Q1029 NOSIG", "ZSAM 311300Z 04007MPS 9999 FEW033 BKN060 21/17 Q1013 NOSIG", "ZSFZ 311300Z 02006MPS 9999 FEW023 OVC036 20/15 Q1017 NOSIG", "ZSHC 311330Z 05002MPS 9999 BKN046 16/13 Q1022 NOSIG", "ZSNB 311300Z 34002MPS CAVOK 19/13 Q1022 NOSIG", "ZSNJ 311300Z 05002MPS 020V080 CAVOK 18/14 Q1023 NOSIG", "ZSOF 311300Z 33002MPS 300V360 5000 BR BKN046 15/12 Q1024 NOSIG", "ZSPD 311330Z 01004MPS 9999 FEW030 17/14 Q1022 NOSIG", "ZSQD 311300Z 32004MPS 4000 BR NSC 15/11 Q1025 NOSIG", "ZSSS 311330Z 06003MPS CAVOK 18/13 Q1023 NOSIG", "ZUCK 311300Z 30002MPS CAVOK 18/13 Q1023 NOSIG", "ZUGY 311300Z 00000MPS 9999 SCT040 14/11 Q1025 NOSIG", "ZUTF 311300Z VRB01MPS CAVOK 15/14 Q1023 NOSIG", "ZUUU 311300Z 20002MPS 160V230 CAVOK 17/14 Q1023 NOSIG", "ZWSH 311300Z AUTO VRB01MPS 9999 // ///////// 12/M03 Q1019", "ZWWW 311330Z 00000MPS CAVOK 06/M03 Q1026 NOSIG", "ZYCC 311300Z 27004MPS 240V300 CAVOK 08/M04 Q1020 NOSIG", "ZYHB 311300Z 25006MPS CAVOK 05/M01 Q1017 NOSIG", "ZYTL 311330Z VRB01MPS 4000 BR SCT033 10/08 Q1024 NOSIG", "ZYTX 311330Z VRB01MPS CAVOK 04/M00 Q1024 NOSIG"]}