No errors
No warnings
139 ms
data source=metars
5015 results
raw_text,station_id,observation_time,latitude,longitude,temp_c,dewpoint_c,wind_dir_degrees,wind_speed_kt,wind_gust_kt,visibility_statute_mi,altim_in_hg,sea_level_pressure_mb,corrected,auto,auto_station,maintenance_indicator_on,no_signal,lightning_sensor_off,freezing_rain_sensor_off,present_weather_sensor_off,wx_string,sky_cover,cloud_base_ft_agl,sky_cover,cloud_base_ft_agl,sky_cover,cloud_base_ft_agl,sky_cover,cloud_base_ft_agl,flight_category,three_hr_pressure_tendency_mb,maxT_c,minT_c,maxT24hr_c,minT24hr_c,precip_in,pcp3hr_in,pcp6hr_in,pcp24hr_in,snow_in,vert_vis_ft,metar_type,elevation_m
PAMB 072205Z AUTO 21011KT 8SM SCT016 BKN025 OVC036 11/08 A2992 RMK AO2 $,PAMB,2023-07-07T22:05:00Z,58.98,-159.05,11.0,8.0,210,11,,8.0,29.920275,,,TRUE,TRUE,TRUE,,,,,,SCT,1600,BKN,2500,OVC,3600,,,MVFR,,,,,,,,,,,,SPECI,28.0
KGVW 072205Z AUTO 15017G31KT 7SM FEW031 FEW036 SCT085 27/23 A2996 RMK A01,KGVW,2023-07-07T22:05:00Z,29.13,-94.55,27.0,23.0,150,17,31,7.0,29.958662,,,TRUE,TRUE,,,,,,,FEW,3100,FEW,3600,SCT,8500,,,VFR,,,,,,,,,,,,METAR,37.0
KATP 072205Z AUTO 12008KT CLR 31/24 A2997 RMK A01,KATP,2023-07-07T22:05:00Z,27.2,-90.03,31.0,24.0,120,8,,,29.970472,,,TRUE,TRUE,,,,,,,CLR,,,,,,,,,,,,,,,,,,,,METAR,50.0
YMLT 072204Z AUTO 31019KT 3000 +RA BKN013 OVC018 10/08 Q0993,YMLT,2023-07-07T22:04:00Z,-41.53,147.2,10.0,8.0,310,19,,1.86,29.320866,,,TRUE,,,,,,,+RA,BKN,1300,OVC,1800,,,,,IFR,,,,,,,,,,,,SPECI,167.0
PAMD 072204Z AUTO 26011G15KT 10SM FEW012 BKN024 12/09 A3006 RMK AO2 PNO $,PAMD,2023-07-07T22:04:00Z,59.43,-146.3,12.0,9.0,260,11,15,10.0,30.059055,,,TRUE,TRUE,TRUE,,,,,,FEW,1200,BKN,2400,,,,,MVFR,,,,,,,,,,,,SPECI,20.0
KUZA 072204Z AUTO 36020G29KT 1 1/2SM +TSRA SCT038 BKN050 24/21 A2990 RMK AO2 PK WND 02029/2200 LTG DSNT ALQDS RAB01 PRESRR P0007 T02390206,KUZA,2023-07-07T22:04:00Z,34.98,-81.05,23.9,20.6,360,20,29,1.5,29.899607,,,TRUE,TRUE,,,,,,+TSRA,SCT,3800,BKN,5000,,,,,IFR,,,,,,0.07,,,,,,SPECI,198.0
KSGJ 072204Z 20007KT 3SM -TSRA BR OVC025 24/23 A2991 RMK AO2 LTG DSNT ALQDS P0000 $,KSGJ,2023-07-07T22:04:00Z,29.97,-81.33,24.0,23.0,200,7,,3.0,29.911417,,,,TRUE,TRUE,,,,,-TSRA BR,OVC,2500,,,,,,,MVFR,,,,,,0.005,,,,,,SPECI,2.0
KNFE 072204Z AUTO 12006KT 10SM CLR 29/22 A2981 RMK AO2 TSE01 T02890222 ,KNFE,2023-07-07T22:04:00Z,36.7,-76.13,28.9,22.2,120,6,,10.0,29.811024,,,TRUE,TRUE,,,,,,,CLR,,,,,,,,VFR,,,,,,,,,,,,SPECI,4.0
KMGM 072204Z 15009G18KT 3SM +TSRA SCT027 BKN039 OVC065 28/23 A2988 RMK AO2 LTG DSNT SE TSE01B03 P0024 T02780228,KMGM,2023-07-07T22:04:00Z,32.3,-86.4,27.8,22.8,150,9,18,3.0,29.878937,,,,TRUE,,,,,,+TSRA,SCT,2700,BKN,3900,OVC,6500,,,MVFR,,,,,,0.24,,,,,,SPECI,64.0
KLKV 072204Z AUTO 23006KT 10SM CLR 31/04 A2992 RMK AO2 LTG DSNT NE AND NW TSE01,KLKV,2023-07-07T22:04:00Z,42.17,-120.4,31.0,4.0,230,6,,10.0,29.920275,,,TRUE,TRUE,,,,,,,CLR,,,,,,,,VFR,,,,,,,,,,,,SPECI,1440.0
KLAS 072204Z VRB05KT 10SM CLR 38/M01 A2970 RMK AO2 T03831006,KLAS,2023-07-07T22:04:00Z,36.07,-115.17,38.3,-0.6,0,5,,10.0,29.698818,,,,TRUE,,,,,,,CLR,,,,,,,,VFR,,,,,,,,,,,,SPECI,662.0
KHWV 072204Z AUTO 15005KT 10SM BKN017 26/21 A2985 RMK AO2 T02610211,KHWV,2023-07-07T22:04:00Z,40.82,-72.87,26.1,21.1,150,5,,10.0,29.84941,,,TRUE,TRUE,,,,,,,BKN,1700,,,,,,,MVFR,,,,,,,,,,,,SPECI,20.0
KASD 072204Z AUTO 21005KT 10SM VCTS CLR 33/25 A2993 RMK AO2 LTG DSNT W AND NW T03280250,KASD,2023-07-07T22:04:00Z,30.35,-89.82,32.8,25.0,210,5,,10.0,29.929134,,,TRUE,TRUE,,,,,,VCTS,CLR,,,,,,,,VFR,,,,,,,,,,,,SPECI,8.0
CYWE 072204Z AUTO 33007G15KT 300V010 5SM HZ FEW066 24/07 A2983 RMK SLP109 DENSITY ALT 2700FT,CYWE,2023-07-07T22:04:00Z,64.18,-114.08,24.0,7.0,330,7,15,5.0,29.828741,1010.9,,TRUE,,,,,,,HZ,FEW,6600,,,,,,,MVFR,,,,,,,,,,,,SPECI,374.0
CYMH 072204Z AUTO 07006KT 5SM BR OVC007 11/10 A2987 RMK TS/LTNG TEMPO UNAVBL SLP116,CYMH,2023-07-07T22:04:00Z,52.3,-55.82,11.0,10.0,70,6,,5.0,29.870079,1011.6,,TRUE,,,,,,,BR,OVC,700,,,,,,,IFR,,,,,,,,,,,,SPECI,18.0
CWSA 072204Z AUTO 25010KT 8SM BKN003 BKN160 17/16 A2989 RMK TS/LTNG TEMPO UNAVBL SLP124 DENSITY ALT 300FT,CWSA,2023-07-07T22:04:00Z,43.93,-60.0,17.0,16.0,250,10,,8.0,29.890747,1012.4,,TRUE,,,,,,,,BKN,300,BKN,16000,,,,,LIFR,,,,,,,,,,,,SPECI,4.0
SVVL 072203Z AUTO ///01KT NCD ///// Q////,SVVL,2023-07-07T22:03:00Z,9.33,-70.58,,,,,,,,,,TRUE,,,,,,,,CLR,,,,,,,,,,,,,,,,,,,,METAR,575.0
SVVA 072203Z AUTO 09003KT NCD 35/21 Q1011,SVVA,2023-07-07T22:03:00Z,10.15,-67.92,35.0,21.0,90,3,,,29.852362,,,TRUE,,,,,,,,CLR,,,,,,,,,,,,,,,,,,,,METAR,428.0
SVSR 072203Z AUTO NIL,SVSR,2023-07-07T22:03:00Z,7.87,-67.43,,,,,,,,,,TRUE,,,,,,,,,,,,,,,,,,,,,,,,,,,,METAR,49.0
SVSA 072203Z AUTO NIL,SVSA,2023-07-07T22:03:00Z,7.83,-72.45,,,,,,,,,,TRUE,,,,,,,,,,,,,,,,,,,,,,,,,,,,METAR,383.0
SVPR 072203Z AUTO 13009KT NCD 26/22 Q1013,SVPR,2023-07-07T22:03:00Z,8.3,-62.77,26.0,22.0,130,9,,,29.911417,,,TRUE,,,,,,,,CLR,,,,,,,,,,,,,,,,,,,,METAR,140.0
SVPA 072203Z AUTO NIL,SVPA,2023-07-07T22:03:00Z,5.62,-67.6,,,,,,,,,,TRUE,,,,,,,,,,,,,,,,,,,,,,,,,,,,METAR,77.0
SVMT 072203Z AUTO 05006KT NCD 29/28 Q1011,SVMT,2023-07-07T22:03:00Z,9.75,-63.17,29.0,28.0,50,6,,,29.852362,,,TRUE,,,,,,,,CLR,,,,,,,,,,,,,,,,,,,,METAR,67.0
SVMI 072203Z AUTO 07008KT NCD 28/22 Q1012,SVMI,2023-07-07T22:03:00Z,10.6,-67.0,28.0,22.0,70,8,,,29.88189,,,TRUE,,,,,,,,CLR,,,,,,,,,,,,,,,,,,,,METAR,48.0
SVMG 072203Z AUTO 08014KT NCD 31/24 Q1011,SVMG,2023-07-07T22:03:00Z,10.92,-63.97,31.0,24.0,80,14,,,29.852362,,,TRUE,,,,,,,,CLR,,,,,,,,,,,,,,,,,,,,METAR,16.0
SVMC 072203Z AUTO 03010KT NCD 33/21 Q1008,SVMC,2023-07-07T22:03:00Z,10.57,-71.72,33.0,21.0,30,10,,,29.763779,,,TRUE,,,,,,,,CLR,,,,,,,,,,,,,,,,,,,,METAR,76.0
SVLO 072203Z AUTO NIL,SVLO,2023-07-07T22:03:00Z,11.8,-66.18,,,,,,,,,,TRUE,,,,,,,,,,,,,,,,,,,,,,,,,,,,METAR,3.0
SVJM 072203Z AUTO 35004KT NCD 30/19 Q1010,SVJM,2023-07-07T22:03:00Z,9.92,-67.38,30.0,19.0,350,4,,,29.822834,,,TRUE,,,,,,,,CLR,,,,,,,,,,,,,,,,,,,,METAR,448.0
SVGU 072203Z AUTO 08006KT NCD 29/22 Q1011,SVGU,2023-07-07T22:03:00Z,9.03,-69.75,29.0,22.0,80,6,,,29.852362,,,TRUE,,,,,,,,CLR,,,,,,,,,,,,,,,,,,,,METAR,165.0
SVGD 072203Z AUTO 05005KT NCD 31/23 Q1011,SVGD,2023-07-07T22:03:00Z,7.22,-70.75,31.0,23.0,50,5,,,29.852362,,,TRUE,,,,,,,,CLR,,,,,,,,,,,,,,,,,,,,METAR,129.0
SVFM 072203Z AUTO NIL,SVFM,2023-07-07T22:03:00Z,10.48,-66.83,,,,,,,,,,TRUE,,,,,,,,,,,,,,,,,,,,,,,,,,,,METAR,852.0
SVCS 072203Z AUTO 10007KT NCD 27/20 Q1015,SVCS,2023-07-07T22:03:00Z,10.3,-66.82,27.0,20.0,100,7,,,29.970472,,,TRUE,,,,,,,,CLR,,,,,,,,,,,,,,,,,,,,METAR,656.0
SVCB 072203Z AUTO 11001KT NCD 26/24 Q1009,SVCB,2023-07-07T22:03:00Z,8.12,-63.53,26.0,24.0,110,1,,,29.793306,,,TRUE,,,,,,,,CLR,,,,,,,,,,,,,,,,,,,,METAR,47.0
SVBS 072203Z AUTO 28004KT NCD 33/18 Q1012,SVBS,2023-07-07T22:03:00Z,10.25,-67.65,33.0,18.0,280,4,,,29.88189,,,TRUE,,,,,,,,CLR,,,,,,,,,,,,,,,,,,,,METAR,435.0
SVBM 072203Z AUTO 10010KT NCD 30/14 Q1012,SVBM,2023-07-07T22:03:00Z,10.05,-69.37,30.0,14.0,100,10,,,29.88189,,,TRUE,,,,,,,,CLR,,,,,,,,,,,,,,,,,,,,METAR,624.0
SVBI 072203Z AUTO NIL,SVBI,2023-07-07T22:03:00Z,8.62,-70.22,,,,,,,,,,TRUE,,,,,,,,,,,,,,,,,,,,,,,,,,,,METAR,185.0
SVBC 072203Z AUTO 02006KT NCD 29/22 Q1011,SVBC,2023-07-07T22:03:00Z,10.12,-64.68,29.0,22.0,20,6,,,29.852362,,,TRUE,,,,,,,,CLR,,,,,,,,,,,,,,,,,,,,METAR,7.0
PAVC 072203Z AUTO 23008KT 200V260 10SM BKN003 BKN007 OVC011 08/08 A2998 RMK AO2 CIG 002V006 PNO $,PAVC,2023-07-07T22:03:00Z,55.12,-162.27,8.0,8.0,230,8,,10.0,29.97933,,,TRUE,TRUE,TRUE,,,,,,BKN,300,BKN,700,OVC,1100,,,LIFR,,,,,,,,,,,,SPECI,48.0
PAMO 072203Z AUTO 19007KT 9SM -RA FEW025 BKN032 OVC044 11/08 A2981 RMK AO2 RAB02 P0000,PAMO,2023-07-07T22:03:00Z,62.1,-163.68,11.0,8.0,190,7,,9.0,29.811024,,,TRUE,TRUE,,,,,,-RA,FEW,2500,BKN,3200,OVC,4400,,,VFR,,,,,,0.005,,,,,,SPECI,93.0
KTUP 072203Z 18010KT 3SM VCTS RA BR BKN020 24/22 A2991 RMK AO2 LTG DSNT ALQDS TSE03 P0006 T02440222 $,KTUP,2023-07-07T22:03:00Z,34.27,-88.77,24.4,22.2,180,10,,3.0,29.911417,,,,TRUE,TRUE,,,,,VCTS RA BR,BKN,2000,,,,,,,MVFR,,,,,,0.06,,,,,,SPECI,107.0
KNOG 072203Z AUTO 19017G27KT 4SM -RA BR FEW026 BKN037 OVC046 25/23 A2993 RMK AO2 PK WND 18027/2159 WSHFT 2143 P0002 T02500233 TSNO $ ,KNOG,2023-07-07T22:03:00Z,27.9,-98.05,25.0,23.3,190,17,27,4.0,29.929134,,,TRUE,TRUE,TRUE,,TRUE,,,-RA BR,FEW,2600,BKN,3700,OVC,4600,,,MVFR,,,,,,0.02,,,,,,SPECI,72.0
KEGI 072203Z AUTO 36006KT 5SM +TSRA SCT002 BKN048 OVC085 25/23 A2991 RMK AO2 TSE01TSB03 SLP128 $,KEGI,2023-07-07T22:03:00Z,30.65,-86.52,25.0,23.0,360,6,,5.0,29.911417,1012.8,,TRUE,TRUE,TRUE,,,,,+TSRA,SCT,200,BKN,4800,OVC,8500,,,MVFR,,,,,,,,,,,,SPECI,59.0
KDHN 072203Z 27008KT 10SM VCTS CLR 31/24 A2991 RMK AO2 LTG DSNT E-SW TSE2157 T03110244,KDHN,2023-07-07T22:03:00Z,31.32,-85.45,31.1,24.4,270,8,,10.0,29.911417,,,,TRUE,,,,,,VCTS,CLR,,,,,,,,VFR,,,,,,,,,,,,SPECI,113.0
KCXY 072203Z 08006KT 3SM -TSRA FEW011 BKN035 OVC050 26/21 A2985 RMK AO2 LTG DSNT NW-NE TS OVHD MOV E P0003 T02610206,KCXY,2023-07-07T22:03:00Z,40.22,-76.85,26.1,20.6,80,6,,3.0,29.84941,,,,TRUE,,,,,,-TSRA,FEW,1100,BKN,3500,OVC,5000,,,MVFR,,,,,,0.03,,,,,,SPECI,102.0
KBCR 072203Z AUTO 22007KT 10SM TS CLR 30/23 A2989 RMK AO2 TSB00 T03000228 $,KBCR,2023-07-07T22:03:00Z,30.85,-85.6,30.0,22.8,220,7,,10.0,29.890747,,,TRUE,TRUE,TRUE,,,,,TS,CLR,,,,,,,,VFR,,,,,,,,,,,,SPECI,26.0
KAHN 072203Z 26004KT 10SM VCTS FEW120 26/22 A2988 RMK AO2 LTG DSNT ALQDS T02610222,KAHN,2023-07-07T22:03:00Z,33.95,-83.33,26.1,22.2,260,4,,10.0,29.878937,,,,TRUE,,,,,,VCTS,FEW,12000,,,,,,,VFR,,,,,,,,,,,,SPECI,241.0
CYZV 072203Z 10011KT 2SM BR VV003 16/16 A2980 RMK FG8 SLP096 DENSITY ALT 500FT,CYZV,2023-07-07T22:03:00Z,50.22,-66.27,16.0,16.0,100,11,,2.0,29.799213,1009.6,,,,,,,,,BR,OVX,0,,,,,,,LIFR,,,,,,,,,,,300,SPECI,43.0
SCBA 072202Z AUTO 14004KT 100V170 0600 FZFG VV001 M02/M03 Q1014,SCBA,2023-07-07T22:02:00Z,-45.92,-71.68,-2.0,-3.0,140,4,,0.37,29.940945,,,TRUE,,,,,,,FZFG,OVX,0,,,,,,,LIFR,,,,,,,,,,,100,METAR,516.0
PASN 072202Z AUTO 13011KT 1 1/2SM -RA BR BKN005 OVC010 07/07 A2965 RMK AO2 RAB2159 P0000 T00720067 TSNO,PASN,2023-07-07T22:02:00Z,57.15,-170.22,7.2,6.7,130,11,,1.5,29.648623,,,TRUE,TRUE,,,TRUE,,,-RA BR,BKN,500,OVC,1000,,,,,IFR,,,,,,0.005,,,,,,SPECI,8.0
KVLL 072202Z AUTO 00000KT 10SM CLR 27/11 A2996 RMK AO2,KVLL,2023-07-07T22:02:00Z,42.55,-83.18,27.0,11.0,0,0,,10.0,29.958662,,,TRUE,TRUE,,,,,,,CLR,,,,,,,,VFR,,,,,,,,,,,,SPECI,214.0
KSLK 072202Z AUTO 00000KT 3SM VCTS -RA BR FEW008 BKN035 OVC047 20/19 A2991 RMK AO2 LTG DSNT N AND NE TSE2159 P0004 T02000189,KSLK,2023-07-07T22:02:00Z,44.4,-74.2,20.0,18.9,0,0,,3.0,29.911417,,,TRUE,TRUE,,,,,,VCTS -RA BR,FEW,800,BKN,3500,OVC,4700,,,MVFR,,,,,,0.04,,,,,,SPECI,502.0
KRNP 072202Z AUTO 00000KT 10SM SCT065 25/07 A2994 RMK AO2,KRNP,2023-07-07T22:02:00Z,43.0,-84.13,25.0,7.0,0,0,,10.0,29.940945,,,TRUE,TRUE,,,,,,,SCT,6500,,,,,,,VFR,,,,,,,,,,,,SPECI,224.0
KRKS 072202Z AUTO 18022G34KT 10SM VCTS BKN090 21/06 A3011 RMK AO2 PK WND 19034/2156 WSHFT 2142 LTG DSNT E AND SE T02110056,KRKS,2023-07-07T22:02:00Z,41.6,-109.07,21.1,5.6,180,22,34,10.0,30.109253,,,TRUE,TRUE,,,,,,VCTS,BKN,9000,,,,,,,VFR,,,,,,,,,,,,SPECI,2062.0
KMLT 072202Z AUTO 11007KT 3SM -TSRA BR SCT043 SCT070 OVC090 21/20 A2988 RMK AO2 LTG DSNT ALQDS PRESRR P0002 T02110200,KMLT,2023-07-07T22:02:00Z,45.65,-68.7,21.1,20.0,110,7,,3.0,29.878937,,,TRUE,TRUE,,,,,,-TSRA BR,SCT,4300,SCT,7000,OVC,9000,,,MVFR,,,,,,0.02,,,,,,SPECI,121.0
KFXE 072202Z 00000KT 10SM VCTS CLR 28/26 A2995 RMK AO2 LTG DSNT SE-W T02830256,KFXE,2023-07-07T22:02:00Z,26.2,-80.18,28.3,25.6,0,0,,10.0,29.949802,,,,TRUE,,,,,,VCTS,CLR,,,,,,,,VFR,,,,,,,,,,,,SPECI,3.0
KCAR 072202Z AUTO 00000KT 10SM -RA FEW060 OVC110 23/21 A2982 RMK AO2 P0000 T02280211,KCAR,2023-07-07T22:02:00Z,46.87,-68.02,22.8,21.1,0,0,,10.0,29.819881,,,TRUE,TRUE,,,,,,-RA,FEW,6000,OVC,11000,,,,,VFR,,,,,,0.005,,,,,,SPECI,189.0
KAVP 072202Z 21008KT 2 1/2SM TSRA BR SCT041 SCT065 OVC095 23/21 A2987 RMK AO2 LTG DSNT ALQDS P0004 T02280206,KAVP,2023-07-07T22:02:00Z,41.33,-75.72,22.8,20.6,210,8,,2.5,29.870079,,,,TRUE,,,,,,TSRA BR,SCT,4100,SCT,6500,OVC,9500,,,IFR,,,,,,0.04,,,,,,SPECI,290.0
PAFS 072201Z AUTO 22005KT 10SM -RA FEW010 BKN017 OVC055 11/10 A2986 RMK AO2 RAB2155 SLP117 P0000 T01110100,PAFS,2023-07-07T22:01:00Z,63.02,-154.35,11.1,10.0,220,5,,10.0,29.861221,1011.7,,TRUE,TRUE,,,,,,-RA,FEW,1000,BKN,1700,OVC,5500,,,MVFR,,,,,,0.005,,,,,,SPECI,131.0
MMAS 072201Z 19013KT 6SM RA BKN030TCU 17/15 A3012 RMK 8/200 RAB58,MMAS,2023-07-07T22:01:00Z,21.7,-102.32,17.0,15.0,190,13,,6.0,30.121063,,,,,,,,,,RA,BKN,3000,,,,,,,MVFR,,,,,,,,,,,,METAR,1866.0
KRWI 072201Z AUTO 31012G20KT 10SM -TSRA FEW019 SCT055 BKN070 24/21 A2985 RMK AO2 WSHFT 2141 LTG DSNT ALQDS P0000 T02390206,KRWI,2023-07-07T22:01:00Z,35.85,-77.9,23.9,20.6,310,12,20,10.0,29.84941,,,TRUE,TRUE,,,,,,-TSRA,FEW,1900,SCT,5500,BKN,7000,,,VFR,,,,,,0.005,,,,,,SPECI,46.0
KMOD 072201Z 34007KT 10SM BKN008 28/12 A2980 RMK AO2 T02830122,KMOD,2023-07-07T22:01:00Z,37.62,-120.95,28.3,12.2,340,7,,10.0,29.799213,,,,TRUE,,,,,,,BKN,800,,,,,,,IFR,,,,,,,,,,,,SPECI,25.0
KIAB 072201Z AUTO 24006KT 10SM VCTS -RA FEW041 BKN100 BKN120 21/19 A2990 RMK AO2 DZE2155RAB2155 TSE01 SLP118 $,KIAB,2023-07-07T22:01:00Z,37.62,-97.27,21.0,19.0,240,6,,10.0,29.899607,1011.8,,TRUE,TRUE,TRUE,,,,,VCTS -RA,FEW,4100,BKN,10000,BKN,12000,,,VFR,,,,,,,,,,,,SPECI,413.0
KGED 072201Z AUTO 15004KT 3SM -RA BR FEW031 BKN060 OVC095 26/23 A2982 RMK AO2 LTG DSNT SW P0001 T02560233,KGED,2023-07-07T22:01:00Z,38.68,-75.37,25.6,23.3,150,4,,3.0,29.819881,,,TRUE,TRUE,,,,,,-RA BR,FEW,3100,BKN,6000,OVC,9500,,,MVFR,,,,,,0.01,,,,,,SPECI,15.0
KEVM 072201Z AUTO 28012G15KT 10SM BKN090 BKN110 19/12 A2993 RMK AO2,KEVM,2023-07-07T22:01:00Z,47.42,-92.5,19.0,12.0,280,12,15,10.0,29.929134,,,TRUE,TRUE,,,,,,,BKN,9000,BKN,11000,,,,,VFR,,,,,,,,,,,,SPECI,419.0
KCRG 072201Z 19010G19KT 10SM VCTS CLR 25/23 A2988 RMK AO2 LTG DSNT ALQDS TSE2155 T02500233,KCRG,2023-07-07T22:01:00Z,30.33,-81.52,25.0,23.3,190,10,19,10.0,29.878937,,,,TRUE,,,,,,VCTS,CLR,,,,,,,,VFR,,,,,,,,,,,,SPECI,12.0
KBGM 072201Z 36006KT 10SM FEW017 SCT022 BKN120 23/20 A2991 RMK AO2 LTG DSNT SE T02330200,KBGM,2023-07-07T22:01:00Z,42.22,-75.98,23.3,20.0,360,6,,10.0,29.911417,,,,TRUE,,,,,,,FEW,1700,SCT,2200,BKN,12000,,,VFR,,,,,,,,,,,,SPECI,485.0
CYPO 072201Z AUTO 35008KT 9SM UP BKN005 BKN036 OVC050 05/05 A2984 RMK TS/LTNG TEMPO UNAVBL SLP107,CYPO,2023-07-07T22:01:00Z,54.98,-85.43,5.0,5.0,350,8,,9.0,29.840551,1010.7,,TRUE,,,,,,,UP,BKN,500,BKN,3600,OVC,5000,,,IFR,,,,,,,,,,,,SPECI,49.0
ZYTX 072200Z 11002MPS 080V140 8000 NSC 23/21 Q1001 NOSIG,ZYTX,2023-07-07T22:00:00Z,41.63,123.48,23.0,21.0,110,4,,4.97,29.557087,,,,,,TRUE,,,,,CLR,,,,,,,,MVFR,,,,,,,,,,,,METAR,56.0
ZYTL 072200Z 13003MPS CAVOK 22/19 Q0999 NOSIG,ZYTL,2023-07-07T22:00:00Z,38.97,121.55,22.0,19.0,130,6,,6.21,29.498032,,,,,,TRUE,,,,,CAVOK,,,,,,,,VFR,,,,,,,,,,,,METAR,33.0
ZYHB 072200Z 12002MPS 080V160 CAVOK 20/19 Q1002 NOSIG,ZYHB,2023-07-07T22:00:00Z,45.62,126.25,20.0,19.0,120,4,,6.21,29.586615,,,,,,TRUE,,,,,CAVOK,,,,,,,,VFR,,,,,,,,,,,,METAR,134.0
ZYCC 072200Z 14002MPS 6000 NSC 21/19 Q1002 NOSIG,ZYCC,2023-07-07T22:00:00Z,43.98,125.68,21.0,19.0,140,4,,3.73,29.586615,,,,,,TRUE,,,,,CLR,,,,,,,,MVFR,,,,,,,,,,,,METAR,211.0
ZWWW 072200Z 26004MPS 9999 -SHRA NSC 25/13 Q1010 NOSIG,ZWWW,2023-07-07T22:00:00Z,43.9,87.47,25.0,13.0,260,8,,6.21,29.822834,,,,,,TRUE,,,,-SHRA,CLR,,,,,,,,VFR,,,,,,,,,,,,METAR,654.0
ZWSH 072200Z VRB02MPS 9999 SCT040 20/07 Q1010 NOSIG,ZWSH,2023-07-07T22:00:00Z,39.55,76.02,20.0,7.0,0,4,,6.21,29.822834,,,,,,TRUE,,,,,SCT,4000,,,,,,,VFR,,,,,,,,,,,,METAR,1374.0
ZUUU 072200Z VRB01MPS 8000 NSC 24/21 Q1004 NOSIG,ZUUU,2023-07-07T22:00:00Z,30.58,103.95,24.0,21.0,0,2,,4.97,29.64567,,,,,,TRUE,,,,,CLR,,,,,,,,MVFR,,,,,,,,,,,,METAR,494.0
ZUTF 072200Z 18001MPS 5000 BR NSC 24/23 Q1003 NOSIG,ZUTF,2023-07-07T22:00:00Z,30.3,104.43,24.0,23.0,180,2,,3.11,29.616142,,,,,,TRUE,,,,BR,CLR,,,,,,,,MVFR,,,,,,,,,,,,METAR,443.0
ZUGY 072200Z 21006MPS 9999 SCT040 26/21 Q1010 NOSIG,ZUGY,2023-07-07T22:00:00Z,26.53,106.8,26.0,21.0,210,12,,6.21,29.822834,,,,,,TRUE,,,,,SCT,4000,,,,,,,VFR,,,,,,,,,,,,METAR,1130.0
ZUCK 072200Z 00000MPS CAVOK 26/23 Q1004 NOSIG,ZUCK,2023-07-07T22:00:00Z,29.72,106.63,26.0,23.0,0,0,,6.21,29.64567,,,,,,TRUE,,,,,CAVOK,,,,,,,,VFR,,,,,,,,,,,,METAR,416.0
ZSSS 072200Z 23003MPS 200V260 9999 -TSRA FEW030CB 27/26 Q1003 RESHRA BECMG TL2250 NSW,ZSSS,2023-07-07T22:00:00Z,31.2,121.33,27.0,26.0,230,6,,6.21,29.616142,,,,,,,,,,-TSRA,FEW,3000,,,,,,,VFR,,,,,,,,,,,,METAR,2.0
ZSQD 072200Z 16004MPS 130V190 1800 BR BKN004 26/26 Q0998 BECMG TL2330 3000 BKN005,ZSQD,2023-07-07T22:00:00Z,36.27,120.38,26.0,26.0,160,8,,1.12,29.468504,,,,,,,,,,BR,BKN,400,,,,,,,LIFR,,,,,,,,,,,,METAR,8.0
ZSPD 072200Z 14002MPS 080V170 8000 NSC 29/29 Q1002 BECMG TL2230 28005MPS TSRA SCT030CB,ZSPD,2023-07-07T22:00:00Z,31.15,121.8,29.0,29.0,140,4,,4.97,29.586615,,,,,,,,,,,CLR,,,,,,,,MVFR,,,,,,,,,,,,METAR,4.0
ZSOF 072200Z 18004MPS CAVOK 27/26 Q1001 NOSIG,ZSOF,2023-07-07T22:00:00Z,31.98,116.97,27.0,26.0,180,8,,6.21,29.557087,,,,,,TRUE,,,,,CAVOK,,,,,,,,VFR,,,,,,,,,,,,METAR,23.0
ZSNJ 072200Z 24006MPS 210V270 2000 +TSRA BR SCT010 SCT040CB SCT040 27/27 Q1001 BECMG TL2240 3000 -SHRA SCT010 SCT033,ZSNJ,2023-07-07T22:00:00Z,31.75,118.87,27.0,27.0,240,12,,1.24,29.557087,,,,,,,,,,+TSRA BR,SCT,1000,SCT,4000,SCT,4000,,,IFR,,,,,,,,,,,,METAR,27.0
ZSNB 072200Z 16003MPS CAVOK 32/25 Q1003 NOSIG,ZSNB,2023-07-07T22:00:00Z,29.83,121.47,32.0,25.0,160,6,,6.21,29.616142,,,,,,TRUE,,,,,CAVOK,,,,,,,,VFR,,,,,,,,,,,,METAR,5.0
ZSHC 072200Z 00000MPS CAVOK 31/25 Q1002 NOSIG,ZSHC,2023-07-07T22:00:00Z,30.22,120.43,31.0,25.0,0,0,,6.21,29.586615,,,,,,TRUE,,,,,CAVOK,,,,,,,,VFR,,,,,,,,,,,,METAR,8.0
ZSFZ 072200Z 17002MPS CAVOK 28/26 Q1008 NOSIG,ZSFZ,2023-07-07T22:00:00Z,25.93,119.67,28.0,26.0,170,4,,6.21,29.763779,,,,,,TRUE,,,,,CAVOK,,,,,,,,VFR,,,,,,,,,,,,METAR,14.0
ZSAM 072200Z 23003MPS CAVOK 29/25 Q1010 NOSIG,ZSAM,2023-07-07T22:00:00Z,24.53,118.13,29.0,25.0,230,6,,6.21,29.822834,,,,,,TRUE,,,,,CAVOK,,,,,,,,VFR,,,,,,,,,,,,METAR,13.0
ZPPP 072200Z 22006MPS 9999 SCT020 BKN040 19/17 Q1019 NOSIG,ZPPP,2023-07-07T22:00:00Z,25.0,102.65,19.0,17.0,220,12,,6.21,30.088583,,,,,,TRUE,,,,,SCT,2000,BKN,4000,,,,,VFR,,,,,,,,,,,,METAR,1885.0
ZMUB 072200Z VRB02MPS 9999 FEW033 SCT100 11/10 Q1012 NOSIG RMK QFE652.5 91 MOP,ZMUB,2023-07-07T22:00:00Z,47.83,106.75,11.0,10.0,0,4,,6.21,29.88189,,,,,,TRUE,,,,,FEW,3300,SCT,10000,,,,,VFR,,,,,,,,,,,,METAR,1300.0
ZMCK 072200Z 00000MPS 0150 R29/0600U FG ////// 12/12 Q1013 TEMPO 0350 FG RMK QFE644.6 100 E W MO,ZMCK,2023-07-07T22:00:00Z,47.65,106.82,12.0,12.0,0,0,,0.09,29.911417,,,,,,,,,,FG,,,,,,,,,,,,,,,,,,,,,METAR,1366.0
ZLXY 072200Z 27001MPS CAVOK 20/20 Q1004 NOSIG,ZLXY,2023-07-07T22:00:00Z,34.43,108.75,20.0,20.0,270,2,,6.21,29.64567,,,,,,TRUE,,,,,CAVOK,,,,,,,,VFR,,,,,,,,,,,,METAR,478.0
ZLLL 072200Z 25001MPS CAVOK 18/08 Q1015 NOSIG,ZLLL,2023-07-07T22:00:00Z,36.52,103.62,18.0,8.0,250,2,,6.21,29.970472,,,,,,TRUE,,,,,CAVOK,,,,,,,,VFR,,,,,,,,,,,,METAR,1939.0
ZJSY 072200Z 11002MPS 080V140 9999 SCT020 BKN060 28/26 Q1010 NOSIG,ZJSY,2023-07-07T22:00:00Z,18.3,109.42,28.0,26.0,110,4,,6.21,29.822834,,,,,,TRUE,,,,,SCT,2000,BKN,6000,,,,,VFR,,,,,,,,,,,,METAR,27.0
ZJHK 072200Z 16003MPS 140V200 CAVOK 27/25 Q1009 NOSIG,ZJHK,2023-07-07T22:00:00Z,19.93,110.43,27.0,25.0,160,6,,6.21,29.793306,,,,,,TRUE,,,,,CAVOK,,,,,,,,VFR,,,,,,,,,,,,METAR,21.0
ZHHH 072200Z 21004MPS CAVOK 31/25 Q1001 NOSIG,ZHHH,2023-07-07T22:00:00Z,30.78,114.22,31.0,25.0,210,8,,6.21,29.557087,,,,,,TRUE,,,,,CAVOK,,,,,,,,VFR,,,,,,,,,,,,METAR,33.0
ZHCC 072200Z VRB01MPS CAVOK 23/21 Q0999 NOSIG,ZHCC,2023-07-07T22:00:00Z,34.52,113.83,23.0,21.0,0,2,,6.21,29.498032,,,,,,TRUE,,,,,CAVOK,,,,,,,,VFR,,,,,,,,,,,,METAR,149.0
ZGSZ 072200Z 18004MPS 9999 FEW026 29/26 Q1010 NOSIG,ZGSZ,2023-07-07T22:00:00Z,22.63,113.8,29.0,26.0,180,8,,6.21,29.822834,,,,,,TRUE,,,,,FEW,2600,,,,,,,VFR,,,,,,,,,,,,METAR,18.0
ZGOW 072200Z 00000MPS CAVOK 26/25 Q1011 NOSIG,ZGOW,2023-07-07T22:00:00Z,23.55,116.5,26.0,25.0,0,0,,6.21,29.852362,,,,,,TRUE,,,,,CAVOK,,,,,,,,VFR,,,,,,,,,,,,METAR,4.0
ZGNN 072200Z 10002MPS CAVOK 28/25 Q1008 NOSIG,ZGNN,2023-07-07T22:00:00Z,22.62,108.17,28.0,25.0,100,4,,6.21,29.763779,,,,,,TRUE,,,,,CAVOK,,,,,,,,VFR,,,,,,,,,,,,METAR,128.0
ZGKL 072200Z 18006MPS 9999 FEW030 BKN046 29/24 Q1008 NOSIG,ZGKL,2023-07-07T22:00:00Z,25.22,110.03,29.0,24.0,180,12,,6.21,29.763779,,,,,,TRUE,,,,,FEW,3000,BKN,4600,,,,,VFR,,,,,,,,,,,,METAR,151.0
ZGHA 072200Z 17004MPS CAVOK 29/24 Q1004 NOSIG,ZGHA,2023-07-07T22:00:00Z,28.18,113.22,29.0,24.0,170,8,,6.21,29.64567,,,,,,TRUE,,,,,CAVOK,,,,,,,,VFR,,,,,,,,,,,,METAR,61.0
ZGGG 072200Z 13001MPS 9999 FEW030 28/25 Q1010 NOSIG,ZGGG,2023-07-07T22:00:00Z,23.4,113.3,28.0,25.0,130,2,,6.21,29.822834,,,,,,TRUE,,,,,FEW,3000,,,,,,,VFR,,,,,,,,,,,,METAR,11.0
ZBYN 072200Z 17001MPS CAVOK 19/13 Q1006 NOSIG,ZBYN,2023-07-07T22:00:00Z,37.73,112.63,19.0,13.0,170,2,,6.21,29.704725,,,,,,TRUE,,,,,CAVOK,,,,,,,,VFR,,,,,,,,,,,,METAR,778.0
ZBTJ 072200Z VRB01MPS CAVOK 27/22 Q0997 NOSIG,ZBTJ,2023-07-07T22:00:00Z,39.12,117.35,27.0,22.0,0,2,,6.21,29.438976,,,,,,TRUE,,,,,CAVOK,,,,,,,,VFR,,,,,,,,,,,,METAR,4.0
ZBSJ 072200Z 29002MPS 260V340 CAVOK 28/16 Q0999 NOSIG,ZBSJ,2023-07-07T22:00:00Z,38.28,114.7,28.0,16.0,290,4,,6.21,29.498032,,,,,,TRUE,,,,,CAVOK,,,,,,,,VFR,,,,,,,,,,,,METAR,70.0
ZBHH 072200Z 32003MPS 9999 FEW040 18/11 Q1008 NOSIG,ZBHH,2023-07-07T22:00:00Z,40.85,111.82,18.0,11.0,320,6,,6.21,29.763779,,,,,,TRUE,,,,,FEW,4000,,,,,,,VFR,,,,,,,,,,,,METAR,1081.0
ZBAD 072200Z 31002MPS 280V340 CAVOK 27/20 Q0998 NOSIG,ZBAD,2023-07-07T22:00:00Z,39.5,116.42,27.0,20.0,310,4,,6.21,29.468504,,,,,,TRUE,,,,,CAVOK,,,,,,,,VFR,,,,,,,,,,,,METAR,25.0
ZBAA 072200Z VRB01MPS CAVOK 26/20 Q0998 NOSIG,ZBAA,2023-07-07T22:00:00Z,40.07,116.6,26.0,20.0,0,2,,6.21,29.468504,,,,,,TRUE,,,,,CAVOK,,,,,,,,VFR,,,,,,,,,,,,METAR,31.0
YWLM 072200Z AUTO 29008KT 9999 // NCD 13/05 Q1016 RF00.0/000.0,YWLM,2023-07-07T22:00:00Z,-32.8,151.83,13.0,5.0,290,8,,6.21,30.0,,,TRUE,,,,,,,,CLR,,,,,,,,VFR,,,,,,,,,,,,METAR,7.0
YSTW 072200Z AUTO 32003KT 9999 // OVC042 08/06 Q1022 RF00.0/000.2,YSTW,2023-07-07T22:00:00Z,-31.08,150.85,8.0,6.0,320,3,,6.21,30.177166,,,TRUE,,,,,,,,OVC,4200,,,,,,,VFR,,,,,,,,,,,,METAR,404.0
YSSY 072200Z 34014KT 9999 FEW035 13/03 Q1014,YSSY,2023-07-07T22:00:00Z,-33.95,151.17,13.0,3.0,340,14,,6.21,29.940945,,,,,,,,,,,FEW,3500,,,,,,,VFR,,,,,,,,,,,,METAR,3.0
YSRI 072200Z AUTO 02007KT 9999 // NCD 11/06 Q1014 RF00.0/000.0,YSRI,2023-07-07T22:00:00Z,-33.6,150.77,11.0,6.0,20,7,,6.21,29.940945,,,TRUE,,,,,,,,CLR,,,,,,,,VFR,,,,,,,,,,,,METAR,19.0
YSNF 072200Z AUTO 26017KT 9999 // SCT025 18/13 Q1012 RF00.0/002.8,YSNF,2023-07-07T22:00:00Z,-29.03,167.93,18.0,13.0,260,17,,6.21,29.88189,,,TRUE,,,,,,,,SCT,2500,,,,,,,VFR,,,,,,,,,,,,METAR,113.0
YSDU 072200Z AUTO 00000KT 9999 // NCD 05/04 Q1020 RF00.0/000.0,YSDU,2023-07-07T22:00:00Z,-32.22,148.57,5.0,4.0,0,0,,6.21,30.11811,,,TRUE,,,,,,,,CLR,,,,,,,,VFR,,,,,,,,,,,,METAR,285.0
YSCB 072200Z AUTO 35014KT 9999 // SCT036 06/03 Q1014 RF00.0/000.0,YSCB,2023-07-07T22:00:00Z,-35.3,149.18,6.0,3.0,350,14,,6.21,29.940945,,,TRUE,,,,,,,,SCT,3600,,,,,,,VFR,,,,,,,,,,,,METAR,577.0
YPXM 072200Z AUTO 14011KT 9999 // BKN003 BKN006 OVC010 22/21 Q1015,YPXM,2023-07-07T22:00:00Z,-10.45,105.68,22.0,21.0,140,11,,6.21,29.970472,,,TRUE,,,,,,,,BKN,300,BKN,600,OVC,1000,,,LIFR,,,,,,,,,,,,METAR,262.0
YPWR 072200Z AUTO 33009KT 9999 // NCD 07/02 Q1020 RF00.0/000.0,YPWR,2023-07-07T22:00:00Z,-31.15,136.82,7.0,2.0,330,9,,6.21,30.11811,,,TRUE,,,,,,,,CLR,,,,,,,,VFR,,,,,,,,,,,,METAR,169.0
YPTN 072200Z AUTO 13005KT 9999 // NCD 17/13 Q1017 RF00.0/000.0,YPTN,2023-07-07T22:00:00Z,-14.52,132.38,17.0,13.0,130,5,,6.21,30.029528,,,TRUE,,,,,,,,CLR,,,,,,,,VFR,,,,,,,,,,,,METAR,135.0
YPPH 072200Z 36004KT 9999 FEW010 SCT049 10/10 Q1026 RF00.0/002.4,YPPH,2023-07-07T22:00:00Z,-31.93,115.98,10.0,10.0,360,4,,6.21,30.295275,,,,,,,,,,,FEW,1000,SCT,4900,,,,,VFR,,,,,,,,,,,,METAR,16.0
YPPD 072200Z AUTO 16009KT 9999 // NCD 12/02 Q1021 RF00.0/000.0,YPPD,2023-07-07T22:00:00Z,-20.37,118.62,12.0,2.0,160,9,,6.21,30.147638,,,TRUE,,,,,,,,CLR,,,,,,,,VFR,,,,,,,,,,,,METAR,6.0
YPLM 072200Z AUTO 22009KT 9999 // NCD 11/02 Q1023 RF00.0/000.0,YPLM,2023-07-07T22:00:00Z,-22.23,114.08,11.0,2.0,220,9,,6.21,30.206694,,,TRUE,,,,,,,,CLR,,,,,,,,VFR,,,,,,,,,,,,METAR,5.0
YPKU 072200Z AUTO 15006KT 9999 // NCD 21/15 Q1017 RF00.0/000.0,YPKU,2023-07-07T22:00:00Z,-15.77,128.7,21.0,15.0,150,6,,6.21,30.029528,,,TRUE,,,,,,,,CLR,,,,,,,,VFR,,,,,,,,,,,,METAR,42.0
YPKG 072200Z AUTO 27002KT 9999 // NCD 05/04 Q1026 RF00.0/000.0,YPKG,2023-07-07T22:00:00Z,-30.78,121.45,5.0,4.0,270,2,,6.21,30.295275,,,TRUE,,,,,,,,CLR,,,,,,,,VFR,,,,,,,,,,,,METAR,372.0
YPJT 072200Z AUTO 03004KT 5000 BR BKN002 BKN031 OVC038 12/12 Q1026,YPJT,2023-07-07T22:00:00Z,-32.1,115.88,12.0,12.0,30,4,,3.11,30.295275,,,TRUE,,,,,,,BR,BKN,200,BKN,3100,OVC,3800,,,LIFR,,,,,,,,,,,,SPECI,29.0
YPGV 072200Z AUTO 14015KT 9999 // NCD 24/17 Q1015 RF00.0/000.0,YPGV,2023-07-07T22:00:00Z,-12.27,136.82,24.0,17.0,140,15,,6.21,29.970472,,,TRUE,,,,,,,,CLR,,,,,,,,VFR,,,,,,,,,,,,METAR,53.0
YPEA 072200Z AUTO 06005KT 9999 // SCT033 SCT046 11/10 Q1026,YPEA,2023-07-07T22:00:00Z,-31.67,116.02,11.0,10.0,60,5,,6.21,30.295275,,,TRUE,,,,,,,,SCT,3300,SCT,4600,,,,,VFR,,,,,,,,,,,,METAR,38.0
YPDN 072200Z 11006KT CAVOK 22/15 Q1015,YPDN,2023-07-07T22:00:00Z,-12.42,130.9,22.0,15.0,110,6,,6.21,29.970472,,,,,,,,,,,CAVOK,,,,,,,,VFR,,,,,,,,,,,,METAR,32.0
YPCC 072200Z AUTO 11012KT 9999 // BKN075 26/21 Q1014 RF00.0/000.2,YPCC,2023-07-07T22:00:00Z,-12.18,96.83,26.0,21.0,110,12,,6.21,29.940945,,,TRUE,,,,,,,,BKN,7500,,,,,,,VFR,,,,,,,,,,,,METAR,3.0
YPAD 072200Z 30013KT 8000 -SHRA BKN040 SCT080 13/08 Q1013 RF00.0/007.6,YPAD,2023-07-07T22:00:00Z,-34.95,138.52,13.0,8.0,300,13,,4.97,29.911417,,,,,,,,,,-SHRA,BKN,4000,SCT,8000,,,,,MVFR,,,,,,,,,,,,METAR,2.0
YMML 072200Z 35013KT 9999 FEW030 BKN190 FEW040CB 10/05 Q1004,YMML,2023-07-07T22:00:00Z,-37.67,144.82,10.0,5.0,350,13,,6.21,29.64567,,,,,,,,,,,FEW,3000,BKN,19000,FEW,4000,,,VFR,,,,,,,,,,,,METAR,115.0
YMHB 072200Z 01014KT 9999 VCSH SCT050 BKN145 BKN240 12/07 Q0989,YMHB,2023-07-07T22:00:00Z,-42.83,147.52,12.0,7.0,10,14,,6.21,29.202755,,,,,,,,,,VCSH,SCT,5000,BKN,14500,BKN,24000,,,VFR,,,,,,,,,,,,METAR,2.0
YMAV 072200Z AUTO 31020KT 9999 // NCD 11/05 Q1002 RF00.0/000.2,YMAV,2023-07-07T22:00:00Z,-38.03,144.48,11.0,5.0,310,20,,6.21,29.586615,,,TRUE,,,,,,,,CLR,,,,,,,,VFR,,,,,,,,,,,,METAR,11.0
YLHI 072200Z AUTO 25014KT 9999 // SCT038 SCT075 18/12 Q1015,YLHI,2023-07-07T22:00:00Z,-31.53,159.07,18.0,12.0,250,14,,6.21,29.970472,,,TRUE,,,,,,,,SCT,3800,SCT,7500,,,,,VFR,,,,,,,,,,,,METAR,2.0
YHID 072200Z AUTO 13013KT 9999 // NCD 26/22 Q1013 RF00.0/000.0,YHID,2023-07-07T22:00:00Z,-10.58,142.3,26.0,22.0,130,13,,6.21,29.911417,,,TRUE,,,,,,,,CLR,,,,,,,,VFR,,,,,,,,,,,,METAR,5.0
YGLA 072200Z AUTO 21005KT 9999 // NCD 13/03 Q1022 RF00.0/000.0,YGLA,2023-07-07T22:00:00Z,-23.87,151.22,13.0,3.0,210,5,,6.21,30.177166,,,TRUE,,,,,,,,CLR,,,,,,,,VFR,,,,,,,,,,,,METAR,17.0
YGEL 072200Z AUTO 04009KT 9999 // NCD 09/09 Q1027 RF00.0/000.2,YGEL,2023-07-07T22:00:00Z,-28.8,114.7,9.0,9.0,40,9,,6.21,30.324802,,,TRUE,,,,,,,,CLR,,,,,,,,VFR,,,,,,,,,,,,METAR,32.0
YFRT 072200Z AUTO 29009KT 9999 // SCT046 08/05 Q1024 RF00.0/000.0,YFRT,2023-07-07T22:00:00Z,-30.83,128.12,8.0,5.0,290,9,,6.21,30.236221,,,TRUE,,,,,,,,SCT,4600,,,,,,,VFR,,,,,,,,,,,,METAR,159.0
YCIN 072200Z AUTO 13011KT 9999 // SCT074 17/06 Q1017 RF00.0/000.0,YCIN,2023-07-07T22:00:00Z,-17.58,123.83,17.0,6.0,130,11,,6.21,30.029528,,,TRUE,,,,,,,,SCT,7400,,,,,,,VFR,,,,,,,,,,,,METAR,83.0
YCFS 072200Z AUTO 29003KT 9999 // NCD 09/06 Q1019 RF00.0/000.0,YCFS,2023-07-07T22:00:00Z,-30.32,153.12,9.0,6.0,290,3,,6.21,30.088583,,,TRUE,,,,,,,,CLR,,,,,,,,VFR,,,,,,,,,,,,METAR,2.0
YBWW 072200Z AUTO 14003KT 9999 // NCD 07/05 Q1021 RF00.0/000.0,YBWW,2023-07-07T22:00:00Z,-27.55,151.8,7.0,5.0,140,3,,6.21,30.147638,,,TRUE,,,,,,,,CLR,,,,,,,,VFR,,,,,,,,,,,,METAR,460.0
YBTL 072200Z AUTO 18003KT 9999 // NCD 22/09 Q1020 RF00.0/000.0,YBTL,2023-07-07T22:00:00Z,-19.25,146.75,22.0,9.0,180,3,,6.21,30.11811,,,TRUE,,,,,,,,CLR,,,,,,,,VFR,,,,,,,,,,,,METAR,4.0
YBSU 072200Z AUTO 29006KT 9999 // NCD 11/08 Q1020 RF00.0/000.0,YBSU,2023-07-07T22:00:00Z,-26.6,153.08,11.0,8.0,290,6,,6.21,30.11811,,,TRUE,,,,,,,,CLR,,,,,,,,VFR,,,,,,,,,,,,METAR,4.0
YBRM 072200Z AUTO 11006KT 9999 // SCT075 16/09 Q1018 RF00.0/000.0,YBRM,2023-07-07T22:00:00Z,-17.93,122.23,16.0,9.0,110,6,,6.21,30.059055,,,TRUE,,,,,,,,SCT,7500,,,,,,,VFR,,,,,,,,,,,,METAR,11.0
YBRK 072200Z AUTO 00000KT 9999 // NCD 13/04 Q1022 RF00.0/000.0,YBRK,2023-07-07T22:00:00Z,-23.37,150.47,13.0,4.0,0,0,,6.21,30.177166,,,TRUE,,,,,,,,CLR,,,,,,,,VFR,,,,,,,,,,,,METAR,10.0
YBMA 072200Z AUTO 19004KT 9999 // NCD 09/03 Q1023 RF00.0/000.0,YBMA,2023-07-07T22:00:00Z,-20.67,139.48,9.0,3.0,190,4,,6.21,30.206694,,,TRUE,,,,,,,,CLR,,,,,,,,VFR,,,,,,,,,,,,METAR,346.0
YBLN 072200Z AUTO 03004KT 9999 // OVC043 09/09 Q1025 RF00.0/000.0,YBLN,2023-07-07T22:00:00Z,-33.68,115.4,9.0,9.0,30,4,,6.21,30.265747,,,TRUE,,,,,,,,OVC,4300,,,,,,,VFR,,,,,,,,,,,,METAR,17.0
YBHM 072200Z AUTO 15018KT 9999 // NCD 21/12 Q1020 RF00.0/000.0,YBHM,2023-07-07T22:00:00Z,-20.35,148.95,21.0,12.0,150,18,,6.21,30.11811,,,TRUE,,,,,,,,CLR,,,,,,,,VFR,,,,,,,,,,,,METAR,4.0
YBCS 072200Z AUTO 17007KT 9999 // NCD 23/17 Q1018 RF00.0/000.0,YBCS,2023-07-07T22:00:00Z,-16.87,145.75,23.0,17.0,170,7,,6.21,30.059055,,,TRUE,,,,,,,,CLR,,,,,,,,VFR,,,,,,,,,,,,METAR,2.0
YBCG 072200Z AUTO 23004KT 9999 // NCD 09/06 Q1019 RF00.0/000.0,YBCG,2023-07-07T22:00:00Z,-28.17,153.5,9.0,6.0,230,4,,6.21,30.088583,,,TRUE,,,,,,,,CLR,,,,,,,,VFR,,,,,,,,,,,,METAR,5.0
YBBN 072200Z 26006KT CAVOK 12/06 Q1020,YBBN,2023-07-07T22:00:00Z,-27.38,153.13,12.0,6.0,260,6,,6.21,30.11811,,,,,,,,,,,CAVOK,,,,,,,,VFR,,,,,,,,,,,,METAR,3.0
YBAS 072200Z AUTO /////KT 9999 // NCD 03/02 Q1025 RF00.0/000.0,YBAS,2023-07-07T22:00:00Z,-23.8,133.9,3.0,2.0,,,,6.21,30.265747,,,TRUE,,,,,,,,CLR,,,,,,,,VFR,,,,,,,,,,,,METAR,549.0
YAMB 072200Z AUTO 00000KT 9999 // NCD 06/05 Q1021 RF00.0/000.0,YAMB,2023-07-07T22:00:00Z,-27.63,152.72,6.0,5.0,0,0,,6.21,30.147638,,,TRUE,,,,,,,,CLR,,,,,,,,VFR,,,,,,,,,,,,METAR,26.0
WSSS 072200Z 00000KT 9999 FEW018 BKN150 25/24 Q1010 NOSIG,WSSS,2023-07-07T22:00:00Z,1.37,103.97,25.0,24.0,0,0,,6.21,29.822834,,,,,,TRUE,,,,,FEW,1800,BKN,15000,,,,,VFR,,,,,,,,,,,,METAR,17.0
WSSL 072200Z 18001KT 9000 FEW018 BKN150 26/26 Q1010,WSSL,2023-07-07T22:00:00Z,1.42,103.87,26.0,26.0,180,1,,5.59,29.822834,,,,,,,,,,,FEW,1800,BKN,15000,,,,,VFR,,,,,,,,,,,,METAR,11.0
WSAP 072200Z 02003KT 9999 FEW016 BKN160 26/24 Q1011,WSAP,2023-07-07T22:00:00Z,1.37,103.92,26.0,24.0,20,3,,6.21,29.852362,,,,,,,,,,,FEW,1600,BKN,16000,,,,,VFR,,,,,,,,,,,,METAR,20.0
WIII 072200Z 19002KT 3000 BR SCT020 25/24 Q1011 NOSIG,WIII,2023-07-07T22:00:00Z,-6.13,106.67,25.0,24.0,190,2,,1.86,29.852362,,,,,,TRUE,,,,BR,SCT,2000,,,,,,,IFR,,,,,,,,,,,,METAR,9.0
WARR 072200Z 28004KT 4000 BR FEW020 25/25 Q1012 NOSIG ,WARR,2023-07-07T22:00:00Z,-7.37,112.78,25.0,25.0,280,4,,2.49,29.88189,,,,,,TRUE,,,,BR,FEW,2000,,,,,,,IFR,,,,,,,,,,,,METAR,3.0
WAMM 072200Z VRB01KT 9999 FEW019 23/22 Q1011 NOSIG,WAMM,2023-07-07T22:00:00Z,1.55,124.92,23.0,22.0,0,1,,6.21,29.852362,,,,,,TRUE,,,,,FEW,1900,,,,,,,VFR,,,,,,,,,,,,METAR,86.0
WAJJ 072200Z 15002KT 9999 FEW012 26/23 Q1010 NOSIG,WAJJ,2023-07-07T22:00:00Z,-2.58,140.52,26.0,23.0,150,2,,6.21,29.822834,,,,,,TRUE,,,,,FEW,1200,,,,,,,VFR,,,,,,,,,,,,METAR,93.0
WADL 072200Z 13008KT 6000 BKN016 24/24 Q1013 NOSIG,WADL,2023-07-07T22:00:00Z,-8.75,116.28,24.0,24.0,130,8,,3.73,29.911417,,,,,,TRUE,,,,,BKN,1600,,,,,,,MVFR,,,,,,,,,,,,METAR,97.0
VYYY 072200Z 00000KT 7000 SCT020 FEW025TCU SCT120 27/26 Q1008 NOSIG,VYYY,2023-07-07T22:00:00Z,16.9,96.13,27.0,26.0,0,0,,4.35,29.763779,,,,,,TRUE,,,,,SCT,2000,FEW,2500,SCT,12000,,,MVFR,,,,,,,,,,,,METAR,31.0
VVVD 072200Z 19006KT 150V210 9999 FEW022 29/27 Q1008 NOSIG,VVVD,2023-07-07T22:00:00Z,21.12,107.42,29.0,27.0,190,6,,6.21,29.763779,,,,,,TRUE,,,,,FEW,2200,,,,,,,VFR,,,,,,,,,,,,METAR,8.0
VVTS 072200Z VRB01KT 8000 BKN019 28/27 Q1009 NOSIG,VVTS,2023-07-07T22:00:00Z,10.82,106.67,28.0,27.0,0,1,,4.97,29.793306,,,,,,TRUE,,,,,BKN,1900,,,,,,,MVFR,,,,,,,,,,,,METAR,10.0
VVPQ 072200Z 24002KT 9999 SCT015 27/26 Q1009 NOSIG,VVPQ,2023-07-07T22:00:00Z,10.23,103.97,27.0,26.0,240,2,,6.21,29.793306,,,,,,TRUE,,,,,SCT,1500,,,,,,,VFR,,,,,,,,,,,,METAR,8.0
VVNB 072200Z 13009KT 9999 FEW017 SCT078 29/26 Q1007 NOSIG,VVNB,2023-07-07T22:00:00Z,21.22,105.8,29.0,26.0,130,9,,6.21,29.734253,,,,,,TRUE,,,,,FEW,1700,SCT,7800,,,,,VFR,,,,,,,,,,,,METAR,6.0
VVDN 072200Z 20003KT 160V230 9999 FEW015 27/24 Q1009 NOSIG,VVDN,2023-07-07T22:00:00Z,16.03,108.2,27.0,24.0,200,3,,6.21,29.793306,,,,,,TRUE,,,,,FEW,1500,,,,,,,VFR,,,,,,,,,,,,METAR,7.0
VVCT 072200Z 00000KT 6000 FEW013 BKN040 24/24 Q1009 NOSIG,VVCT,2023-07-07T22:00:00Z,10.08,105.72,24.0,24.0,0,0,,3.73,29.793306,,,,,,TRUE,,,,,FEW,1300,BKN,4000,,,,,MVFR,,,,,,,,,,,,METAR,6.0
VVCR 072200Z 29002KT 9999 FEW015 26/23 Q1011 NOSIG,VVCR,2023-07-07T22:00:00Z,12.0,109.22,26.0,23.0,290,2,,6.21,29.852362,,,,,,TRUE,,,,,FEW,1500,,,,,,,VFR,,,,,,,,,,,,METAR,12.0
VTUW 072200Z 00000KT 9999 FEW030 28/28 Q1009 NOSIG,VTUW,2023-07-07T22:00:00Z,17.38,104.63,28.0,28.0,0,0,,6.21,29.793306,,,,,,TRUE,,,,,FEW,3000,,,,,,,VFR,,,,,,,,,,,,METAR,167.0
VTUV 072200Z 18003KT 9000 NSC 27/27 Q1009 NOSIG,VTUV,2023-07-07T22:00:00Z,16.12,103.78,27.0,27.0,180,3,,5.59,29.793306,,,,,,TRUE,,,,,CLR,,,,,,,,VFR,,,,,,,,,,,,METAR,136.0
VTUU 072200Z 19003KT 150V230 CAVOK 27/27 Q1009 NOSIG,VTUU,2023-07-07T22:00:00Z,15.25,104.87,27.0,27.0,190,3,,6.21,29.793306,,,,,,TRUE,,,,,CAVOK,,,,,,,,VFR,,,,,,,,,,,,METAR,119.0
VTUQ 072200Z 00000KT 9000 NSC 25/24 Q1009 NOSIG,VTUQ,2023-07-07T22:00:00Z,14.95,102.32,25.0,24.0,0,0,,5.59,29.793306,,,,,,TRUE,,,,,CLR,,,,,,,,VFR,,,,,,,,,,,,METAR,225.0
VTUO 072200Z 23003KT 8000 NSC 26/26 Q1009 NOSIG,VTUO,2023-07-07T22:00:00Z,15.23,103.25,26.0,26.0,230,3,,4.97,29.793306,,,,,,TRUE,,,,,CLR,,,,,,,,MVFR,,,,,,,,,,,,METAR,182.0
VTUL 072200Z VRB01KT CAVOK 25/25 Q1009 NOSIG,VTUL,2023-07-07T22:00:00Z,17.43,101.72,25.0,25.0,0,1,,6.21,29.793306,,,,,,TRUE,,,,,CAVOK,,,,,,,,VFR,,,,,,,,,,,,METAR,257.0
VTUK 072200Z 17003KT 9000 FEW030 BKN100 28/25 Q1009 NOSIG,VTUK,2023-07-07T22:00:00Z,16.47,102.78,28.0,25.0,170,3,,5.59,29.793306,,,,,,TRUE,,,,,FEW,3000,BKN,10000,,,,,VFR,,,,,,,,,,,,METAR,190.0
VTUI 072200Z 36001KT 9000 NSC 28/27 Q1008 NOSIG,VTUI,2023-07-07T22:00:00Z,17.2,104.12,28.0,27.0,360,1,,5.59,29.763779,,,,,,TRUE,,,,,CLR,,,,,,,,VFR,,,,,,,,,,,,METAR,162.0
VTUD 072200Z 16003KT 9999 FEW035 27/26 Q1008 NOSIG,VTUD,2023-07-07T22:00:00Z,17.37,102.78,27.0,26.0,160,3,,6.21,29.763779,,,,,,TRUE,,,,,FEW,3500,,,,,,,VFR,,,,,,,,,,,,METAR,177.0
VTST 072200Z 31003KT 8000 FEW030 SCT065 25/25 Q1009 NOSIG,VTST,2023-07-07T22:00:00Z,7.52,99.62,25.0,25.0,310,3,,4.97,29.793306,,,,,,TRUE,,,,,FEW,3000,SCT,6500,,,,,MVFR,,,,,,,,,,,,METAR,17.0
VTSS 072200Z 24005KT 190V260 9999 FEW020 27/24 Q1009 NOSIG,VTSS,2023-07-07T22:00:00Z,6.92,100.38,27.0,24.0,240,5,,6.21,29.793306,,,,,,TRUE,,,,,FEW,2000,,,,,,,VFR,,,,,,,,,,,,METAR,28.0
VTSR 072200Z VRB01KT 9999 SCT020 26/24 Q1009 NOSIG,VTSR,2023-07-07T22:00:00Z,9.78,98.58,26.0,24.0,0,1,,6.21,29.793306,,,,,,TRUE,,,,,SCT,2000,,,,,,,VFR,,,,,,,,,,,,METAR,23.0
VTSP 072200Z 28006KT 9999 SCT020 28/25 Q1009 NOSIG,VTSP,2023-07-07T22:00:00Z,8.12,98.32,28.0,25.0,280,6,,6.21,29.793306,,,,,,TRUE,,,,,SCT,2000,,,,,,,VFR,,,,,,,,,,,,METAR,12.0
VTSM 072200Z VRB01KT 9999 -RA FEW020 BKN100 26/24 Q1010 NOSIG,VTSM,2023-07-07T22:00:00Z,9.55,100.07,26.0,24.0,0,1,,6.21,29.822834,,,,,,TRUE,,,,-RA,FEW,2000,BKN,10000,,,,,VFR,,,,,,,,,,,,METAR,12.0
VTSG 072200Z 10001KT 9999 FEW002 SCT020 25/25 Q1010 RERA NOSIG,VTSG,2023-07-07T22:00:00Z,8.1,98.98,25.0,25.0,100,1,,6.21,29.822834,,,,,,TRUE,,,,,FEW,200,SCT,2000,,,,,VFR,,,,,,,,,,,,METAR,32.0
VTSF 072200Z 00000KT 7000 FEW018 26/26 Q1010 NOSIG,VTSF,2023-07-07T22:00:00Z,8.53,99.95,26.0,26.0,0,0,,4.35,29.822834,,,,,,TRUE,,,,,FEW,1800,,,,,,,MVFR,,,,,,,,,,,,METAR,6.0
VTSC 072200Z 28003KT 220V310 9999 FEW020 24/23 Q1009 NOSIG,VTSC,2023-07-07T22:00:00Z,6.52,101.75,24.0,23.0,280,3,,6.21,29.793306,,,,,,TRUE,,,,,FEW,2000,,,,,,,VFR,,,,,,,,,,,,METAR,5.0
VTSB 072200Z 21004KT 7000 -RA FEW020 SCT100 25/25 Q1009 NOSIG,VTSB,2023-07-07T22:00:00Z,9.12,99.15,25.0,25.0,210,4,,4.35,29.793306,,,,,,TRUE,,,,-RA,FEW,2000,SCT,10000,,,,,MVFR,,,,,,,,,,,,METAR,10.0
VTPT 072200Z /////KT 9999 FEW026 26/23 Q1007 NOSIG,VTPT,2023-07-07T22:00:00Z,16.88,99.25,26.0,23.0,,,,6.21,29.734253,,,,,,TRUE,,,,,FEW,2600,,,,,,,VFR,,,,,,,,,,,,METAR,148.0
VTPP 072200Z 14005KT 9999 BKN045 OVC060 28/26 Q1008 NOSIG,VTPP,2023-07-07T22:00:00Z,16.78,100.28,28.0,26.0,140,5,,6.21,29.763779,,,,,,TRUE,,,,,BKN,4500,OVC,6000,,,,,VFR,,,,,,,,,,,,METAR,45.0
VTPO 072200Z VRB02KT CAVOK 28/24 Q1007 NOSIG,VTPO,2023-07-07T22:00:00Z,17.23,99.82,28.0,24.0,0,2,,6.21,29.734253,,,,,,TRUE,,,,,CAVOK,,,,,,,,VFR,,,,,,,,,,,,METAR,58.0
VTPM 072200Z 11002KT 9999 FEW030 26/24 Q1010 NOSIG,VTPM,2023-07-07T22:00:00Z,16.7,98.53,26.0,24.0,110,2,,6.21,29.822834,,,,,,TRUE,,,,,FEW,3000,,,,,,,VFR,,,,,,,,,,,,METAR,211.0
VTPH 072200Z 00000KT 9999 FEW030 27/24 Q1008 NOSIG,VTPH,2023-07-07T22:00:00Z,12.63,99.95,27.0,24.0,0,0,,6.21,29.763779,,,,,,TRUE,,,,,FEW,3000,,,,,,,VFR,,,,,,,,,,,,METAR,12.0
VTPB 072200Z 00000KT CAVOK 26/26 Q1009 NOSIG,VTPB,2023-07-07T22:00:00Z,16.67,101.2,26.0,26.0,0,0,,6.21,29.793306,,,,,,TRUE,,,,,CAVOK,,,,,,,,VFR,,,,,,,,,,,,METAR,134.0
VTCT 072200Z 29003KT 9999 FEW030 25/25 Q1010 NOSIG,VTCT,2023-07-07T22:00:00Z,19.95,99.88,25.0,25.0,290,3,,6.21,29.822834,,,,,,TRUE,,,,,FEW,3000,,,,,,,VFR,,,,,,,,,,,,METAR,389.0
VTCP 072200Z 18002KT 9999 FEW035 27/25 Q1008 NOSIG,VTCP,2023-07-07T22:00:00Z,18.13,100.17,27.0,25.0,180,2,,6.21,29.763779,,,,,,TRUE,,,,,FEW,3500,,,,,,,VFR,,,,,,,,,,,,METAR,166.0
VTCN 072200Z 00000KT 9999 FEW035 26/25 Q1008 NOSIG,VTCN,2023-07-07T22:00:00Z,18.82,100.78,26.0,25.0,0,0,,6.21,29.763779,,,,,,TRUE,,,,,FEW,3500,,,,,,,VFR,,,,,,,,,,,,METAR,211.0
VTCH 072200Z 00000KT 6000 FEW015 SCT025 25/24 Q1010,VTCH,2023-07-07T22:00:00Z,19.3,97.98,25.0,24.0,0,0,,3.73,29.822834,,,,,,,,,,,FEW,1500,SCT,2500,,,,,MVFR,,,,,,,,,,,,METAR,266.0
VTCC 072200Z 36003KT 340V050 9999 FEW035 SCT048 26/24 Q1010 NOSIG,VTCC,2023-07-07T22:00:00Z,18.77,98.97,26.0,24.0,360,3,,6.21,29.822834,,,,,,TRUE,,,,,FEW,3500,SCT,4800,,,,,VFR,,,,,,,,,,,,METAR,308.0
VTBU 072200Z 01003KT 9999 FEW020CB SCT040 27/26 Q1009 NOSIG,VTBU,2023-07-07T22:00:00Z,12.68,101.0,27.0,26.0,10,3,,6.21,29.793306,,,,,,TRUE,,,,,FEW,2000,SCT,4000,,,,,VFR,,,,,,,,,,,,METAR,12.0
VTBS 072200Z 20004KT 150V220 9999 -RA FEW018 BKN090 29/26 Q1008 NOSIG,VTBS,2023-07-07T22:00:00Z,13.68,100.75,29.0,26.0,200,4,,6.21,29.763779,,,,,,TRUE,,,,-RA,FEW,1800,BKN,9000,,,,,VFR,,,,,,,,,,,,METAR,1.0
VTBD 072200Z 13002KT 9999 FEW020 30/26 Q1008 NOSIG,VTBD,2023-07-07T22:00:00Z,13.92,100.6,30.0,26.0,130,2,,6.21,29.763779,,,,,,TRUE,,,,,FEW,2000,,,,,,,VFR,,,,,,,,,,,,METAR,6.0
VRMM 072200Z 28007KT 9999 FEW018 BKN280 29/25 Q1011 NOSIG,VRMM,2023-07-07T22:00:00Z,4.2,73.52,29.0,25.0,280,7,,6.21,29.852362,,,,,,TRUE,,,,,FEW,1800,BKN,28000,,,,,VFR,,,,,,,,,,,,METAR,2.0
VRMH 072200Z 29007KT 9999 FEW018 BKN270 28/23 Q1010,VRMH,2023-07-07T22:00:00Z,6.75,73.17,28.0,23.0,290,7,,6.21,29.822834,,,,,,,,,,,FEW,1800,BKN,27000,,,,,VFR,,,,,,,,,,,,METAR,1.0
VRMG 072200Z 34003KT 9999 SCT018TCU BKN260 29/26 Q1011 NOSIG,VRMG,2023-07-07T22:00:00Z,-0.7,73.15,29.0,26.0,340,3,,6.21,29.852362,,,,,,TRUE,,,,,SCT,1800,BKN,26000,,,,,VFR,,,,,,,,,,,,METAR,2.0
VOTV 072200Z 00000KT 3000 BR SCT012 BKN080 27/25 Q1010 NOSIG,VOTV,2023-07-07T22:00:00Z,8.48,76.92,27.0,25.0,0,0,,1.86,29.822834,,,,,,TRUE,,,,BR,SCT,1200,BKN,8000,,,,,IFR,,,,,,,,,,,,METAR,9.0
VOTR 072200Z 26008KT 4000 HZ SCT016 BKN100 27/21 Q1009 NOSIG,VOTR,2023-07-07T22:00:00Z,10.77,78.72,27.0,21.0,260,8,,2.49,29.793306,,,,,,TRUE,,,,HZ,SCT,1600,BKN,10000,,,,,IFR,,,,,,,,,,,,METAR,90.0
VOMM 072200Z 26007KT 6000 SCT020 SCT100 30/25 Q1007 NOSIG,VOMM,2023-07-07T22:00:00Z,13.0,80.17,30.0,25.0,260,7,,3.73,29.734253,,,,,,TRUE,,,,,SCT,2000,SCT,10000,,,,,MVFR,,,,,,,,,,,,METAR,7.0
VOML 072200Z 08004KT 3000 -DZ BR FEW001 SCT012 OVC080 24/23 Q1008 NOSIG,VOML,2023-07-07T22:00:00Z,12.97,74.88,24.0,23.0,80,4,,1.86,29.763779,,,,,,TRUE,,,,-DZ BR,FEW,100,SCT,1200,OVC,8000,,,IFR,,,,,,,,,,,,METAR,100.0
VOKN 072200Z 34003KT 2000 -RA BR FEW002 SCT012 FEW025CB OVC080 24/23 Q1009 TEMPO 1500 RA BR,VOKN,2023-07-07T22:00:00Z,11.92,75.55,24.0,23.0,340,3,,1.24,29.793306,,,,,,,,,,-RA BR,FEW,200,SCT,1200,FEW,2500,OVC,8000,IFR,,,,,,,,,,,,METAR,105.0
VOHS 072200Z 26011G21KT 5000 HZ SCT015 BKN080 24/20 Q1009 NOSIG,VOHS,2023-07-07T22:00:00Z,17.23,78.43,24.0,20.0,260,11,21,3.11,29.793306,,,,,,TRUE,,,,HZ,SCT,1500,BKN,8000,,,,,MVFR,,,,,,,,,,,,METAR,607.0
VOCL 072200Z 28002KT 4000 BR FEW008 SCT012 BKN080 23/22 Q1009 NOSIG,VOCL,2023-07-07T22:00:00Z,11.13,75.95,23.0,22.0,280,2,,2.49,29.793306,,,,,,TRUE,,,,BR,FEW,800,SCT,1200,BKN,8000,,,IFR,,,,,,,,,,,,METAR,104.0
VOCI 072200Z 13002KT 1800 BR FEW004 SCT012 FEW025CB OVC080 24/24 Q1010 NOSIG,VOCI,2023-07-07T22:00:00Z,10.15,76.4,24.0,24.0,130,2,,1.12,29.822834,,,,,,TRUE,,,,BR,FEW,400,SCT,1200,FEW,2500,OVC,8000,IFR,,,,,,,,,,,,METAR,8.0
VOCB 072200Z 22008KT 5000 BR SCT008 BKN080 24/23 Q1010 NOSIG,VOCB,2023-07-07T22:00:00Z,11.02,77.03,24.0,23.0,220,8,,3.11,29.822834,,,,,,TRUE,,,,BR,SCT,800,BKN,8000,,,,,MVFR,,,,,,,,,,,,METAR,394.0
VOBL 072200Z 25010KT 6000 FEW008 SCT015 BKN080 21/19 Q1013 NOSIG,VOBL,2023-07-07T22:00:00Z,13.2,77.7,21.0,19.0,250,10,,3.73,29.911417,,,,,,TRUE,,,,,FEW,800,SCT,1500,BKN,8000,,,MVFR,,,,,,,,,,,,METAR,908.0
VNKT 072200Z 19004KT 8000 FEW010 21/20 Q1013 NOSIG,VNKT,2023-07-07T22:00:00Z,27.68,85.37,21.0,20.0,190,4,,4.97,29.911417,,,,,,TRUE,,,,,FEW,1000,,,,,,,MVFR,,,,,,,,,,,,METAR,1334.0
VMMC 072200Z 22005KT 9999 FEW015 28/26 Q1010 NOSIG,VMMC,2023-07-07T22:00:00Z,22.15,113.58,28.0,26.0,220,5,,6.21,29.822834,,,,,,TRUE,,,,,FEW,1500,,,,,,,VFR,,,,,,,,,,,,METAR,1.0
VIJP 072200Z VRB02KT 2500 BR FEW020 SCT030 BKN100 25/24 Q1003 NOSIG,VIJP,2023-07-07T22:00:00Z,26.82,75.8,25.0,24.0,0,2,,1.55,29.616142,,,,,,TRUE,,,,BR,FEW,2000,SCT,3000,BKN,10000,,,IFR,,,,,,,,,,,,METAR,383.0
VIDP 072200Z 10006G16KT 1500 TSRA BKN030 FEW035CB OVC090 27/26 Q1003 TEMPO 13020G30KT 0800 TSRA,VIDP,2023-07-07T22:00:00Z,28.57,77.12,27.0,26.0,100,6,16,0.93,29.616142,,,,,,,,,,TSRA,BKN,3000,FEW,3500,OVC,9000,,,LIFR,,,,,,,,,,,,METAR,236.0
VHHH 072200Z 19005KT 9999 FEW018 29/24 Q1010 NOSIG,VHHH,2023-07-07T22:00:00Z,22.32,113.92,29.0,24.0,190,5,,6.21,29.822834,,,,,,TRUE,,,,,FEW,1800,,,,,,,VFR,,,,,,,,,,,,METAR,9.0
VGHS 072200Z 15008KT 4000 HZ SCT015 BKN100 28/25 Q1005 NOSIG,VGHS,2023-07-07T22:00:00Z,23.85,90.4,28.0,25.0,150,8,,2.49,29.675198,,,,,,TRUE,,,,HZ,SCT,1500,BKN,10000,,,,,IFR,,,,,,,,,,,,METAR,11.0
VERC 072200Z 20003KT 3000 HZ SCT018 BKN100 25/24 Q1007 NOSIG,VERC,2023-07-07T22:00:00Z,23.32,85.32,25.0,24.0,200,3,,1.86,29.734253,,,,,,TRUE,,,,HZ,SCT,1800,BKN,10000,,,,,IFR,,,,,,,,,,,,METAR,646.0
VECC 072200Z 12003KT 3200 -RA SCT018 BKN090 28/27 Q1004 NOSIG,VECC,2023-07-07T22:00:00Z,22.65,88.43,28.0,27.0,120,3,,1.99,29.64567,,,,,,TRUE,,,,-RA,SCT,1800,BKN,9000,,,,,IFR,,,,,,,,,,,,METAR,11.0
VEBS 072200Z 34002KT 4000 HZ SCT018 BKN100 26/26 Q1005 NOSIG,VEBS,2023-07-07T22:00:00Z,20.25,85.82,26.0,26.0,340,2,,2.49,29.675198,,,,,,TRUE,,,,HZ,SCT,1800,BKN,10000,,,,,IFR,,,,,,,,,,,,METAR,42.0
VDSV 072200Z 06002KT 9000 SCT015 26/25 Q1009,VDSV,2023-07-07T22:00:00Z,10.58,103.63,26.0,25.0,60,2,,5.59,29.793306,,,,,,,,,,,SCT,1500,,,,,,,VFR,,,,,,,,,,,,METAR,1.0
VDSR 072200Z 19002KT 9000 SCT015 27/25 Q1008,VDSR,2023-07-07T22:00:00Z,13.42,103.8,27.0,25.0,190,2,,5.59,29.763779,,,,,,,,,,,SCT,1500,,,,,,,VFR,,,,,,,,,,,,METAR,16.0
VDPP 072200Z 12003KT 9999 FEW017 SCT040 27/27 Q1008,VDPP,2023-07-07T22:00:00Z,11.55,104.83,27.0,27.0,120,3,,6.21,29.763779,,,,,,,,,,,FEW,1700,SCT,4000,,,,,VFR,,,,,,,,,,,,METAR,10.0
VABB 072200Z 22012KT 2100 BR FEW012 SCT018 FEW030CB BKN090 27/27 Q1003 TEMPO 1500 SHRA,VABB,2023-07-07T22:00:00Z,19.1,72.87,27.0,27.0,220,12,,1.3,29.616142,,,,,,,,,,BR,FEW,1200,SCT,1800,FEW,3000,BKN,9000,IFR,,,,,,,,,,,,METAR,14.0
VAAH 072200Z 17003KT 3000 BR BKN012 SCT020 BKN080 27/25 Q1000 NOSIG,VAAH,2023-07-07T22:00:00Z,23.07,72.63,27.0,25.0,170,3,,1.86,29.52756,,,,,,TRUE,,,,BR,BKN,1200,SCT,2000,BKN,8000,,,IFR,,,,,,,,,,,,METAR,52.0
UWWW 072200Z 29001MPS CAVOK 21/11 Q1017 R33/CLRD60 NOSIG RMK QFE752/1003,UWWW,2023-07-07T22:00:00Z,53.5,50.17,21.0,11.0,290,2,,6.21,30.029528,,,,,,TRUE,,,,,CAVOK,,,,,,,,VFR,,,,,,,,,,,,METAR,124.0
UWUU 072200Z 26003MPS CAVOK 16/11 Q1018 R32L/0///60 NOSIG,UWUU,2023-07-07T22:00:00Z,54.57,55.87,16.0,11.0,260,6,,6.21,30.059055,,,,,,TRUE,,,,,CAVOK,,,,,,,,VFR,,,,,,,,,,,,METAR,137.0
UWSG 072200Z VRB01MPS CAVOK 19/17 Q1015 R26/CLRD70 NOSIG RMK QFE758/1011,UWSG,2023-07-07T22:00:00Z,51.72,46.17,19.0,17.0,0,2,,6.21,29.970472,,,,,,TRUE,,,,,CAVOK,,,,,,,,VFR,,,,,,,,,,,,METAR,31.0
UWPS 072200Z 14002MPS CAVOK 20/16 Q1016 R20/CLRD60 NOSIG RMK QFE744,UWPS,2023-07-07T22:00:00Z,54.12,45.2,20.0,16.0,140,4,,6.21,30.0,,,,,,TRUE,,,,,CAVOK,,,,,,,,VFR,,,,,,,,,,,,METAR,206.0
UWOR 072200Z 18003MPS CAVOK 19/12 Q1017 R07/CLRD65 NOSIG RMK QFE738/0984,UWOR,2023-07-07T22:00:00Z,51.07,58.6,19.0,12.0,180,6,,6.21,30.029528,,,,,,TRUE,,,,,CAVOK,,,,,,,,VFR,,,,,,,,,,,,METAR,270.0
UWOO 072200Z 02003MPS CAVOK 22/12 Q1016 R08/CLRD60 NOSIG RMK QFE751/1002,UWOO,2023-07-07T22:00:00Z,51.8,55.47,22.0,12.0,20,6,,6.21,30.0,,,,,,TRUE,,,,,CAVOK,,,,,,,,VFR,,,,,,,,,,,,METAR,90.0
UWLW 072200Z VRB01MPS CAVOK 20/12 Q1017 R02/CLRD60 NOSIG RMK QFE755/1007,UWLW,2023-07-07T22:00:00Z,54.4,48.8,20.0,12.0,0,2,,6.21,30.029528,,,,,,TRUE,,,,,CAVOK,,,,,,,,VFR,,,,,,,,,,,,METAR,67.0
UWLL 072200Z VRB01MPS CAVOK 21/14 Q1017 R20/090065 NOSIG RMK QFE752/1003,UWLL,2023-07-07T22:00:00Z,54.27,48.23,21.0,14.0,0,2,,6.21,30.029528,,,,,,TRUE,,,,,CAVOK,,,,,,,,VFR,,,,,,,,,,,,METAR,119.0
UWKS 072200Z 19003MPS CAVOK 21/14 Q1016 R24/010060 NOSIG RMK QFE748,UWKS,2023-07-07T22:00:00Z,56.08,47.35,21.0,14.0,190,6,,6.21,30.0,,,,,,TRUE,,,,,CAVOK,,,,,,,,VFR,,,,,,,,,,,,METAR,165.0
UWKE 072200Z 19001MPS CAVOK 18/10 Q1018 R21/090070 NOSIG RMK QFE747/0996,UWKE,2023-07-07T22:00:00Z,55.57,52.08,18.0,10.0,190,2,,6.21,30.059055,,,,,,TRUE,,,,,CAVOK,,,,,,,,VFR,,,,,,,,,,,,METAR,193.0
UWKD 072200Z 12002MPS CAVOK 17/13 Q1017 R29/CLRD70 NOSIG RMK QFE751/1002,UWKD,2023-07-07T22:00:00Z,55.62,49.28,17.0,13.0,120,4,,6.21,30.029528,,,,,,TRUE,,,,,CAVOK,,,,,,,,VFR,,,,,,,,,,,,METAR,114.0
UWGG 072200Z 17002MPS CAVOK 23/19 Q1014 R18L/090070 NOSIG,UWGG,2023-07-07T22:00:00Z,56.23,43.78,23.0,19.0,170,4,,6.21,29.940945,,,,,,TRUE,,,,,CAVOK,,,,,,,,VFR,,,,,,,,,,,,METAR,73.0
UUYY 072200Z 06002MPS 9999 SCT030 15/12 Q1015 R36/61D NOSIG RMK QFE752/1003,UUYY,2023-07-07T22:00:00Z,61.65,50.83,15.0,12.0,60,4,,6.21,29.970472,,,,,,TRUE,,,,,SCT,3000,,,,,,,VFR,,,,,,,,,,,,METAR,107.0
UUWW 072200Z 31003MPS CAVOK 19/17 Q1015 R06/000070 NOSIG,UUWW,2023-07-07T22:00:00Z,55.6,37.27,19.0,17.0,310,6,,6.21,29.970472,,,,,,TRUE,,,,,CAVOK,,,,,,,,VFR,,,,,,,,,,,,METAR,195.0
UUOO 072200Z 08002MPS 9999 BKN/// ///// Q//// R30/010070 NOSIG,UUOO,2023-07-07T22:00:00Z,51.82,39.23,,,80,4,,6.21,,,,,,,TRUE,,,,,,,,,,,,,,,,,,,,,,,,,METAR,154.0
UUOL 072200Z AUTO 06003MPS 9999 NCD 22/22 Q1013,UUOL,2023-07-07T22:00:00Z,52.7,39.53,22.0,22.0,60,6,,6.21,29.911417,,,TRUE,,,,,,,,CLR,,,,,,,,VFR,,,,,,,,,,,,METAR,176.0
UUOK 072200Z AUTO 06006MPS 350V130 9999 // ///////// 21/18 Q1014 RMK QFE743/0990,UUOK,2023-07-07T22:00:00Z,51.75,36.28,21.0,18.0,60,12,,6.21,29.940945,,,TRUE,,,,,,,,,,,,,,,,,,,,,,,,,,,,METAR,203.0
UUOB 072200Z 13005MPS CAVOK 22/16 Q1012 R29/010070 NOSIG,UUOB,2023-07-07T22:00:00Z,50.65,36.58,22.0,16.0,130,10,,6.21,29.88189,,,,,,TRUE,,,,,CAVOK,,,,,,,,VFR,,,,,,,,,,,,METAR,218.0
UUMO 072200Z 32002MPS 1300 R25/P2000U BR NSC 18/18 Q1014 R25/290050 NOSIG RMK QFE745/0994,UUMO,2023-07-07T22:00:00Z,55.52,37.5,18.0,18.0,320,4,,0.81,29.940945,,,,,,TRUE,,,,BR,CLR,,,,,,,,LIFR,,,,,,,,,,,,METAR,167.0
UUEE 072200Z 28004MPS CAVOK 20/17 Q1014 R24C/CLRD62 NOSIG,UUEE,2023-07-07T22:00:00Z,55.97,37.42,20.0,17.0,280,8,,6.21,29.940945,,,,,,TRUE,,,,,CAVOK,,,,,,,,VFR,,,,,,,,,,,,METAR,186.0
UUDL 072200Z 21002MPS 9999 SCT040 20/19 Q1013 R23/290550 NOSIG RMK QFE751,UUDL,2023-07-07T22:00:00Z,57.57,40.17,20.0,19.0,210,4,,6.21,29.911417,,,,,,TRUE,,,,,SCT,4000,,,,,,,VFR,,,,,,,,,,,,METAR,88.0
UUDD 072200Z 29002MPS 7000 2000NE BR FEW001 18/17 Q1014 R32L/190050 TEMPO 0500 FG RMK QBB040,UUDD,2023-07-07T22:00:00Z,55.4,37.9,18.0,17.0,290,4,,4.35,29.940945,,,,,,,,,,BR,FEW,100,,,,,,,MVFR,,,,,,,,,,,,METAR,165.0
UUBW 072200Z 30003MPS 4900 BR NSC 18/18 Q1014 R30/010060 NOSIG RMK QFE750,UUBW,2023-07-07T22:00:00Z,55.55,38.15,18.0,18.0,300,6,,3.04,29.940945,,,,,,TRUE,,,,BR,CLR,,,,,,,,MVFR,,,,,,,,,,,,METAR,111.0
UUBC 072200Z VRB01MPS 9999 BKN024 19/19 Q1015 R13/CLRD60 NOSIG RMK QFE743/0991,UUBC,2023-07-07T22:00:00Z,54.55,36.37,19.0,19.0,0,2,,6.21,29.970472,,,,,,TRUE,,,,,BKN,2400,,,,,,,MVFR,,,,,,,,,,,,METAR,198.0
UTTT 072200Z 09008KT CAVOK 19/12 Q1009 R08R/CLRD70 NOSIG,UTTT,2023-07-07T22:00:00Z,41.27,69.27,19.0,12.0,90,8,,6.21,29.793306,,,,,,TRUE,,,,,CAVOK,,,,,,,,VFR,,,,,,,,,,,,METAR,429.0
UTST 072200Z 34004KT 320V020 9999 FEW066CB 25/10 Q1006 R25/CLRD70 NOSIG,UTST,2023-07-07T22:00:00Z,37.28,67.32,25.0,10.0,340,4,,6.21,29.704725,,,,,,TRUE,,,,,FEW,6600,,,,,,,VFR,,,,,,,,,,,,METAR,311.0
UTSS 072200Z VRB02KT 9999 NSC 20/08 Q1011 R09/CLRD70 NOSIG,UTSS,2023-07-07T22:00:00Z,39.7,66.98,20.0,8.0,0,2,,6.21,29.852362,,,,,,TRUE,,,,,CLR,,,,,,,,VFR,,,,,,,,,,,,METAR,665.0
UTSK 072200Z 35010KT CAVOK 25/10 Q1007 R16/CLRD70,UTSK,2023-07-07T22:00:00Z,38.8,65.77,25.0,10.0,350,10,,6.21,29.734253,,,,,,,,,,,CAVOK,,,,,,,,VFR,,,,,,,,,,,,METAR,399.0
UTSB 072200Z 02004KT CAVOK 22/10 Q1008 R01/CLRD70 NOSIG,UTSB,2023-07-07T22:00:00Z,39.77,64.48,22.0,10.0,20,4,,6.21,29.763779,,,,,,TRUE,,,,,CAVOK,,,,,,,,VFR,,,,,,,,,,,,METAR,225.0
UTNU 072200Z 06006KT CAVOK 25/10 Q1009 R31/CLRD70 NOSIG,UTNU,2023-07-07T22:00:00Z,41.58,60.63,25.0,10.0,60,6,,6.21,29.793306,,,,,,TRUE,,,,,CAVOK,,,,,,,,VFR,,,,,,,,,,,,METAR,97.0
UTNN 072200Z 35004KT CAVOK 24/07 Q1010 R33/CLRD60 NOSIG,UTNN,2023-07-07T22:00:00Z,42.48,59.63,24.0,7.0,350,4,,6.21,29.822834,,,,,,TRUE,,,,,CAVOK,,,,,,,,VFR,,,,,,,,,,,,METAR,76.0
UTFN 072200Z 33006KT 9999 NSC 22/13 Q1010 R28/CLRD70 NOSIG,UTFN,2023-07-07T22:00:00Z,40.98,71.57,22.0,13.0,330,6,,6.21,29.822834,,,,,,TRUE,,,,,CLR,,,,,,,,VFR,,,,,,,,,,,,METAR,477.0
UTFF 072200Z 15006KT 9999 NSC 22/08 Q1011 R18/CLRD70,UTFF,2023-07-07T22:00:00Z,40.37,71.73,22.0,8.0,150,6,,6.21,29.852362,,,,,,,,,,,CLR,,,,,,,,VFR,,,,,,,,,,,,METAR,612.0
UTDT 072200Z 00000MPS 9999 FEW130 22/11 Q1006 R35/CLRD70 RMK QFE715/0954,UTDT,2023-07-07T22:00:00Z,37.87,68.87,22.0,11.0,0,0,,6.21,29.704725,,,,,,,,,,,FEW,13000,,,,,,,VFR,,,,,,,,,,,,METAR,443.0
UTDL 072200Z 23001MPS 9999 FEW086 20/08 Q1010 R26/CLRD70 NOSIG RMK QFE720/0960,UTDL,2023-07-07T22:00:00Z,40.22,69.7,20.0,8.0,230,2,,6.21,29.822834,,,,,,TRUE,,,,,FEW,8600,,,,,,,VFR,,,,,,,,,,,,METAR,436.0
UTDK 072200Z 02003MPS 9999 NSC 24/10 Q1009 R01/09//70 RMK QFE700/0933,UTDK,2023-07-07T22:00:00Z,37.98,69.8,24.0,10.0,20,6,,6.21,29.793306,,,,,,,,,,,CLR,,,,,,,,VFR,,,,,,,,,,,,METAR,675.0
UTDD 072200Z 06003MPS 9999 FEW066CB 21/09 Q1010 R09/CLRD// NOSIG RMK QFE689/0919,UTDD,2023-07-07T22:00:00Z,38.53,68.82,21.0,9.0,60,6,,6.21,29.822834,,,,,,TRUE,,,,,FEW,6600,,,,,,,VFR,,,,,,,,,,,,METAR,785.0
UTAV 072200Z 02006KT CAVOK 26/10 Q1008 R31/CLRD70 NOSIG,UTAV,2023-07-07T22:00:00Z,39.08,63.62,26.0,10.0,20,6,,6.21,29.763779,,,,,,TRUE,,,,,CAVOK,,,,,,,,VFR,,,,,,,,,,,,METAR,187.0
UTAT 072200Z 01008KT CAVOK 25/12 Q1009 R26/CLRD70 NOSIG,UTAT,2023-07-07T22:00:00Z,41.77,59.83,25.0,12.0,10,8,,6.21,29.793306,,,,,,TRUE,,,,,CAVOK,,,,,,,,VFR,,,,,,,,,,,,METAR,84.0
UTAM 072200Z 01004KT 6000 NSC 25/08 Q1007 R88/CLRD70 NOSIG,UTAM,2023-07-07T22:00:00Z,37.62,61.9,25.0,8.0,10,4,,3.73,29.734253,,,,,,TRUE,,,,,CLR,,,,,,,,MVFR,,,,,,,,,,,,METAR,218.0
UTAK 072200Z 01004KT CAVOK 29/05 Q1009 R16R/CLRD70 NOSIG,UTAK,2023-07-07T22:00:00Z,40.05,53.0,29.0,5.0,10,4,,6.21,29.793306,,,,,,TRUE,,,,,CAVOK,,,,,,,,VFR,,,,,,,,,,,,METAR,83.0
UTAA 072200Z 00000KT 9999 NSC 27/07 Q1009 R88/CLRD70 NOSIG,UTAA,2023-07-07T22:00:00Z,37.98,58.37,27.0,7.0,0,0,,6.21,29.793306,,,,,,TRUE,,,,,CLR,,,,,,,,VFR,,,,,,,,,,,,METAR,207.0
USTR 072200Z 30003MPS CAVOK 18/10 Q1014 R30/090065 R03/090065 NOSIG,USTR,2023-07-07T22:00:00Z,57.18,65.32,18.0,10.0,300,6,,6.21,29.940945,,,,,,TRUE,,,,,CAVOK,,,,,,,,VFR,,,,,,,,,,,,METAR,93.0
USSS 072200Z 00000MPS CAVOK 12/10 Q1017 R26L/010060 R26R/010060 NOSIG RMK QFE742/0989,USSS,2023-07-07T22:00:00Z,56.75,60.78,12.0,10.0,0,0,,6.21,30.029528,,,,,,TRUE,,,,,CAVOK,,,,,,,,VFR,,,,,,,,,,,,METAR,222.0
USRR 072200Z 28003MPS CAVOK 16/14 Q1006 R25/CLRD60 NOSIG RMK QFE749,USRR,2023-07-07T22:00:00Z,61.33,73.42,16.0,14.0,280,6,,6.21,29.704725,,,,,,TRUE,,,,,CAVOK,,,,,,,,VFR,,,,,,,,,,,,METAR,52.0
USPP 072200Z 23003MPS CAVOK 16/11 Q1016 R21/090060 NOSIG RMK QFE751,USPP,2023-07-07T22:00:00Z,57.92,56.02,16.0,11.0,230,6,,6.21,30.0,,,,,,TRUE,,,,,CAVOK,,,,,,,,VFR,,,,,,,,,,,,METAR,120.0
USNN 072200Z 31001MPS 9999 MIFG NSC 17/17 Q1005 R21/0///65 NOSIG RMK QFE749,USNN,2023-07-07T22:00:00Z,60.95,76.48,17.0,17.0,310,2,,6.21,29.675198,,,,,,TRUE,,,,MIFG,CLR,,,,,,,,VFR,,,,,,,,,,,,METAR,52.0
USHH 072200Z 27003MPS CAVOK 15/13 Q1008 R24/010060 NOSIG,USHH,2023-07-07T22:00:00Z,61.03,69.08,15.0,13.0,270,6,,6.21,29.763779,,,,,,TRUE,,,,,CAVOK,,,,,,,,VFR,,,,,,,,,,,,METAR,46.0
USDA 072200Z AUTO 29005MPS 9999 ///005/// ///016/// 05/04 Q1005 RMK QFE753/1004,USDA,2023-07-07T22:00:00Z,71.2,72.05,5.0,4.0,290,10,,6.21,29.675198,,,TRUE,,,,,,,,,,,,,,,,,,,,,,,,,,,,METAR,5.0
USCM 072200Z 04001MPS 9999 NSC 17/12 Q1019 R18/////// NOSIG RMK QFE726,USCM,2023-07-07T22:00:00Z,53.4,58.75,17.0,12.0,40,2,,6.21,30.088583,,,,,,TRUE,,,,,CLR,,,,,,,,VFR,,,,,,,,,,,,METAR,425.0
USCC 072200Z 28003MPS CAVOK 15/10 Q1017 R27/000060 NOSIG RMK QFE742,USCC,2023-07-07T22:00:00Z,55.3,61.5,15.0,10.0,280,6,,6.21,30.029528,,,,,,TRUE,,,,,CAVOK,,,,,,,,VFR,,,,,,,,,,,,METAR,227.0
URWW 072200Z 09005MPS CAVOK 27/10 Q1011 R05/010070 NOSIG,URWW,2023-07-07T22:00:00Z,48.78,44.33,27.0,10.0,90,10,,6.21,29.852362,,,,,,TRUE,,,,,CAVOK,,,,,,,,VFR,,,,,,,,,,,,METAR,131.0
URWI 072200Z AUTO 14004MPS 9999 // ///////// 25/13 Q1009,URWI,2023-07-07T22:00:00Z,46.37,44.33,25.0,13.0,140,8,,6.21,29.793306,,,TRUE,,,,,,,,,,,,,,,,,,,,,,,,,,,,METAR,145.0
URWA 072200Z 07004MPS CAVOK 25/19 Q1009 R09/010070 NOSIG RMK QFE758/1011,URWA,2023-07-07T22:00:00Z,46.28,47.98,25.0,19.0,70,8,,6.21,29.793306,,,,,,TRUE,,,,,CAVOK,,,,,,,,VFR,,,,,,,,,,,,METAR,-19.0
URSS 072200Z 05003MPS 9999 FEW015 BKN031CB OVC100 23/20 Q1008 R02/010070 R06/010070 NOSIG RMK R06/07004MPS MT OBSC QFE755,URSS,2023-07-07T22:00:00Z,43.45,39.92,23.0,20.0,50,6,,6.21,29.763779,,,,,,TRUE,,,,,FEW,1500,BKN,3100,OVC,10000,,,VFR,,,,,,,,,,,,METAR,4.0
URRP 072200Z 10005MPS 9999 FEW///CB 28/14 Q1006 R05/CLRD70 TEMPO VRB08G15MPS 1000 TSRA SCT005 BKN020CB RMK QFE750/1000,URRP,2023-07-07T22:00:00Z,47.5,39.92,28.0,14.0,100,10,,6.21,29.704725,,,,,,,,,,,,,,,,,,,,,,,,,,,,,,,METAR,73.0
URMT 072200Z 16003MPS CAVOK 22/13 Q1009 R07/010070 NOSIG RMK QFE717,URMT,2023-07-07T22:00:00Z,45.12,42.12,22.0,13.0,160,6,,6.21,29.793306,,,,,,TRUE,,,,,CAVOK,,,,,,,,VFR,,,,,,,,,,,,METAR,448.0
URMO 072200Z 13002MPS 100V170 9999 NSC 21/18 Q1008 R27/010070 NOSIG RMK QFE711/0949,URMO,2023-07-07T22:00:00Z,43.2,44.6,21.0,18.0,130,4,,6.21,29.763779,,,,,,TRUE,,,,,CLR,,,,,,,,VFR,,,,,,,,,,,,METAR,505.0
URMN 072200Z 25003MPS 9999 SCT/// 23/17 Q1007 R24/////// NOSIG RMK QFE719,URMN,2023-07-07T22:00:00Z,43.52,43.63,23.0,17.0,250,6,,6.21,29.734253,,,,,,TRUE,,,,,,,,,,,,,,,,,,,,,,,,,METAR,424.0
URMM 072200Z 25004MPS 9999 NSC 24/18 Q1008 R30/090070 TEMPO -TSRA BKN030CB RMK QFE728/0970,URMM,2023-07-07T22:00:00Z,44.22,43.07,24.0,18.0,250,8,,6.21,29.763779,,,,,,,,,,,CLR,,,,,,,,VFR,,,,,,,,,,,,METAR,318.0
URML 072200Z 22003MPS 9999 NSC 23/17 Q1005 R14/01//70 NOSIG RMK QFE754/1005,URML,2023-07-07T22:00:00Z,42.82,47.65,23.0,17.0,220,6,,6.21,29.675198,,,,,,TRUE,,,,,CLR,,,,,,,,VFR,,,,,,,,,,,,METAR,4.0
URMG 072200Z 33002MPS CAVOK 24/15 Q1005 R26/090070 NOSIG RMK QFE739/0986,URMG,2023-07-07T22:00:00Z,43.38,45.7,24.0,15.0,330,4,,6.21,29.675198,,,,,,TRUE,,,,,CAVOK,,,,,,,,VFR,,,,,,,,,,,,METAR,160.0
URKK 072200Z 24004MPS 9999 FEW///CB 26/20 Q1006 R05R/CLRD70 TEMPO 3000 -TSRA SCT030CB RMK QFE752,URKK,2023-07-07T22:00:00Z,45.03,39.15,26.0,20.0,240,8,,6.21,29.704725,,,,,,,,,,,,,,,,,,,,,,,,,,,,,,,METAR,29.0
URKA 072200Z 18004MPS CAVOK 23/22 Q1006 R22/010070 NOSIG RMK QFE750/1000,URKA,2023-07-07T22:00:00Z,45.0,37.35,23.0,22.0,180,8,,6.21,29.704725,,,,,,TRUE,,,,,CAVOK,,,,,,,,VFR,,,,,,,,,,,,METAR,41.0
UOOO 072200Z 17005MPS CAVOK 16/12 Q1006 R19/CLRD60 NOSIG RMK QFE738/0984,UOOO,2023-07-07T22:00:00Z,69.32,87.33,16.0,12.0,170,10,,6.21,29.704725,,,,,,TRUE,,,,,CAVOK,,,,,,,,VFR,,,,,,,,,,,,METAR,177.0
UNWW 072200Z 22001MPS 9999 BKN040CB 16/16 Q1006 R19/220255 NOSIG RMK QFE728,UNWW,2023-07-07T22:00:00Z,53.82,86.88,16.0,16.0,220,2,,6.21,29.704725,,,,,,TRUE,,,,,BKN,4000,,,,,,,VFR,,,,,,,,,,,,METAR,307.0
UNTT 072200Z 02001MPS 9000 NSC 15/14 Q1003 R21/090060 NOSIG RMK QFE737,UNTT,2023-07-07T22:00:00Z,56.38,85.22,15.0,14.0,20,2,,5.59,29.616142,,,,,,TRUE,,,,,CLR,,,,,,,,VFR,,,,,,,,,,,,METAR,179.0
UNOO 072200Z 33003MPS 9999 SCT033CB 18/14 Q1008 R25/CLRD60 NOSIG RMK QFE748,UNOO,2023-07-07T22:00:00Z,54.97,73.32,18.0,14.0,330,6,,6.21,29.763779,,,,,,TRUE,,,,,SCT,3300,,,,,,,VFR,,,,,,,,,,,,METAR,85.0
UNNT 072200Z 26003MPS 7000 SCT050CB 15/15 Q1005 R07/150065 R34/150065 NOSIG RMK QFE743/0991,UNNT,2023-07-07T22:00:00Z,55.02,82.65,15.0,15.0,260,6,,4.35,29.675198,,,,,,TRUE,,,,,SCT,5000,,,,,,,MVFR,,,,,,,,,,,,METAR,106.0
UNKL 072200Z 00000MPS CAVOK 15/14 Q1005 R11/CLRD65 NOSIG RMK QFE729,UNKL,2023-07-07T22:00:00Z,56.17,92.48,15.0,14.0,0,0,,6.21,29.675198,,,,,,TRUE,,,,,CAVOK,,,,,,,,VFR,,,,,,,,,,,,METAR,278.0
UNEE 072200Z 14002MPS 9999 FEW040 17/15 Q1005 R23/CLRD60 NOSIG RMK QFE731,UNEE,2023-07-07T22:00:00Z,55.27,86.1,17.0,15.0,140,4,,6.21,29.675198,,,,,,TRUE,,,,,FEW,4000,,,,,,,VFR,,,,,,,,,,,,METAR,261.0
UNBB 072200Z 21003MPS CAVOK 19/13 Q1006 R24/CLRD66 NOSIG RMK QFE732,UNBB,2023-07-07T22:00:00Z,53.37,83.53,19.0,13.0,210,6,,6.21,29.704725,,,,,,TRUE,,,,,CAVOK,,,,,,,,VFR,,,,,,,,,,,,METAR,249.0
UNAA 072200Z 11002MPS 9999 FEW047CB 19/15 Q1005 R02/CLRD64 TEMPO -TSRA RMK QFE731,UNAA,2023-07-07T22:00:00Z,53.75,91.4,19.0,15.0,110,4,,6.21,29.675198,,,,,,,,,,,FEW,4700,,,,,,,VFR,,,,,,,,,,,,METAR,249.0
UMMS 072200Z 32003MPS CAVOK 13/09 Q1020 NOSIG,UMMS,2023-07-07T22:00:00Z,53.88,28.03,13.0,9.0,320,6,,6.21,30.11811,,,,,,TRUE,,,,,CAVOK,,,,,,,,VFR,,,,,,,,,,,,METAR,196.0
UMKK 072200Z 22002MPS CAVOK 13/10 Q1022 R24/CLRD95 NOSIG RMK QFE765/1021,UMKK,2023-07-07T22:00:00Z,54.88,20.57,13.0,10.0,220,4,,6.21,30.177166,,,,,,TRUE,,,,,CAVOK,,,,,,,,VFR,,,,,,,,,,,,METAR,6.0
UMIO 072200Z 28002MPS CAVOK 14/11 Q1019 NOSIG RMK QFE747/0996,UMIO,2023-07-07T22:00:00Z,54.43,30.3,14.0,11.0,280,4,,6.21,30.088583,,,,,,TRUE,,,,,CAVOK,,,,,,,,VFR,,,,,,,,,,,,METAR,189.0
UMGG 072200Z 33006MPS 8000 NSC 18/16 Q1018 NOSIG,UMGG,2023-07-07T22:00:00Z,52.53,31.02,18.0,16.0,330,12,,4.97,30.059055,,,,,,TRUE,,,,,CLR,,,,,,,,MVFR,,,,,,,,,,,,METAR,135.0
UMBB 072200Z 00000MPS 7000 NSC 16/12 Q1022 NOSIG,UMBB,2023-07-07T22:00:00Z,52.12,23.9,16.0,12.0,0,0,,4.35,30.177166,,,,,,TRUE,,,,,CLR,,,,,,,,MVFR,,,,,,,,,,,,METAR,138.0
ULPB 072200Z AUTO 00000MPS 9999 // ///066/// 16/15 Q1013 RMK QFE756/1008,ULPB,2023-07-07T22:00:00Z,61.88,34.15,16.0,15.0,0,0,,6.21,29.911417,,,TRUE,,,,,,,,,,,,,,,,,,,,,,,,,,,,METAR,41.0
ULOO 072200Z 19001MPS CAVOK 12/11 Q1018 NOSIG RMK QFE759,ULOO,2023-07-07T22:00:00Z,57.78,28.4,12.0,11.0,190,2,,6.21,30.059055,,,,,,TRUE,,,,,CAVOK,,,,,,,,VFR,,,,,,,,,,,,METAR,46.0
ULMM 072200Z 10002MPS 9999 BKN015 06/05 Q1021 R31/090070 NOSIG RMK QFE758,ULMM,2023-07-07T22:00:00Z,68.78,32.75,6.0,5.0,100,4,,6.21,30.147638,,,,,,TRUE,,,,,BKN,1500,,,,,,,MVFR,,,,,,,,,,,,METAR,79.0
ULLI 072200Z 26003MPS CAVOK 15/11 Q1016 R28L/090060 NOSIG,ULLI,2023-07-07T22:00:00Z,59.8,30.27,15.0,11.0,260,6,,6.21,30.0,,,,,,TRUE,,,,,CAVOK,,,,,,,,VFR,,,,,,,,,,,,METAR,25.0
UIUU 072200Z 00000MPS 9999 SCT040CB 18/16 Q1008 R26/CLRD60 NOSIG RMK QFE712/0950,UIUU,2023-07-07T22:00:00Z,51.8,107.45,18.0,16.0,0,0,,6.21,29.763779,,,,,,TRUE,,,,,SCT,4000,,,,,,,VFR,,,,,,,,,,,,METAR,508.0
UIII 072200Z 00000MPS 0550 0300NW R30/0750D FG VV001 15/15 Q1009 R30/CLRD60 NOSIG RMK QBB050 QFE712/0950,UIII,2023-07-07T22:00:00Z,52.27,104.37,15.0,15.0,0,0,,0.34,29.793306,,,,,,TRUE,,,,FG,OVX,0,,,,,,,LIFR,,,,,,,,,,,100,METAR,480.0
UIBB 072200Z 24002MPS 200V260 9999 NSC 16/13 Q1010 R30/CLRD60 NOSIG RMK QFE714/0953,UIBB,2023-07-07T22:00:00Z,56.37,101.7,16.0,13.0,240,4,,6.21,29.822834,,,,,,TRUE,,,,,CLR,,,,,,,,VFR,,,,,,,,,,,,METAR,485.0
UIAA 072200Z 22001MPS 9000 FEW050CB 16/16 Q1007 R29/CLRD70 NOSIG RMK QFE697/0929,UIAA,2023-07-07T22:00:00Z,52.02,113.32,16.0,16.0,220,2,,5.59,29.734253,,,,,,TRUE,,,,,FEW,5000,,,,,,,VFR,,,,,,,,,,,,METAR,650.0
UHWW 072200Z 23002MPS 9999 OVC008 19/18 Q1006 R25L/0///70 NOSIG RMK MT OBSC QFE753,UHWW,2023-07-07T22:00:00Z,43.4,132.15,19.0,18.0,230,4,,6.21,29.704725,,,,,,TRUE,,,,,OVC,800,,,,,,,IFR,,,,,,,,,,,,METAR,11.0
UHSS 072200Z 21001MPS 9999 SCT013 20/16 Q1006 R19/70D NOSIG RMK MT OBSC QFE753/1004,UHSS,2023-07-07T22:00:00Z,46.88,142.72,20.0,16.0,210,2,,6.21,29.704725,,,,,,TRUE,,,,,SCT,1300,,,,,,,VFR,,,,,,,,,,,,METAR,14.0
UHPP 072200Z 31003MPS 8000 -SHRA BKN004 OVC021CB 13/13 Q0990 R16R/290255 NOSIG RMK MT OBSC QFE740/0986,UHPP,2023-07-07T22:00:00Z,53.17,158.45,13.0,13.0,310,6,,4.97,29.232283,,,,,,TRUE,,,,-SHRA,BKN,400,OVC,2100,,,,,LIFR,,,,,,,,,,,,METAR,33.0
UHMM 072200Z 00000MPS 9999 NSC 17/08 Q0999 R10/70D NOSIG RMK QFE734 R28/21002MPS 190V290,UHMM,2023-07-07T22:00:00Z,59.92,150.72,17.0,8.0,0,0,,6.21,29.498032,,,,,,TRUE,,,,,CLR,,,,,,,,VFR,,,,,,,,,,,,METAR,175.0
UHMA 072200Z 08005MPS 9999 VCFG BKN011 BKN017 BKN027 09/08 Q1002 R01/////// NOSIG RMK MID 10006G09MPS END R01/11006G09MPS MT OBSC QFE747/0997,UHMA,2023-07-07T22:00:00Z,64.73,177.73,9.0,8.0,80,10,,6.21,29.586615,,,,,,TRUE,,,,VCFG,BKN,1100,BKN,1700,BKN,2700,,,MVFR,,0.6,,,,,,,,,,METAR,53.0
UHHH 072200Z 19002MPS 160V220 CAVOK 23/18 Q1004 R88/090060 NOSIG RMK QFE747/0996,UHHH,2023-07-07T22:00:00Z,48.52,135.18,23.0,18.0,190,4,,6.21,29.64567,,,,,,TRUE,,,,,CAVOK,,,,,,,,VFR,,,,,,,,,,,,METAR,74.0
UHBB 072200Z 04001MPS 0800 0150N FG VV002 17/17 Q1004 R36/090060 NOSIG RMK QBB070 QFE736/0981,UHBB,2023-07-07T22:00:00Z,50.43,127.42,17.0,17.0,40,2,,0.5,29.64567,,,,,,TRUE,,,,FG,OVX,0,,,,,,,LIFR,,,,,,,,,,,200,METAR,185.0
UGTB 072200Z 34005KT CAVOK 25/15 Q1011 NOSIG,UGTB,2023-07-07T22:00:00Z,41.67,44.95,25.0,15.0,340,5,,6.21,29.852362,,,,,,TRUE,,,,,CAVOK,,,,,,,,VFR,,,,,,,,,,,,METAR,468.0
UGSB 072200Z 09008KT 9999 -SHRA SCT022CB BKN037 23/23 Q1008 NOSIG,UGSB,2023-07-07T22:00:00Z,41.62,41.6,23.0,23.0,90,8,,6.21,29.763779,,,,,,TRUE,,,,-SHRA,SCT,2200,BKN,3700,,,,,VFR,,,,,,,,,,,,METAR,32.0
UGMS 072200Z AUTO 11003KT //// ////// 18/15 Q1019,UGMS,2023-07-07T22:00:00Z,43.05,42.75,18.0,15.0,110,3,,,30.088583,,,TRUE,,,,,,,,,,,,,,,,,,,,,,,,,,,,METAR,1442.0
UGKO 072200Z 28007KT 190V330 9999 -SHRA SCT045CB OVC055 22/21 Q1009 NOSIG,UGKO,2023-07-07T22:00:00Z,42.18,42.48,22.0,21.0,280,7,,6.21,29.793306,,,,,,TRUE,,,,-SHRA,SCT,4500,OVC,5500,,,,,VFR,,,,,,,,,,,,METAR,44.0
UGAM 072200Z AUTO 00000KT //// ////// 21/21 Q1012,UGAM,2023-07-07T22:00:00Z,42.53,43.13,21.0,21.0,0,0,,,29.88189,,,TRUE,,,,,,,,,,,,,,,,,,,,,,,,,,,,METAR,544.0
UERR 072200Z 30006MPS CAVOK 14/09 Q1009 R25/CLRD60 NOSIG RMK QFE726/0968,UERR,2023-07-07T22:00:00Z,62.53,114.05,14.0,9.0,300,12,,6.21,29.793306,,,,,,TRUE,,,,,CAVOK,,,,,,,,VFR,,,,,,,,,,,,METAR,352.0
UERP 072200Z 27005MPS 9999 BKN020CB BKN100 11/07 Q1009 NOSIG RMK QFE712,UERP,2023-07-07T22:00:00Z,66.4,112.03,11.0,7.0,270,10,,6.21,29.793306,,,,,,TRUE,,,,,BKN,2000,BKN,10000,,,,,MVFR,,,,,,,,,,,,METAR,514.0
UEEE 072200Z 27006MPS 9999 BKN020CB 17/13 Q0995 R05/09//60 NOSIG RMK QFE738,UEEE,2023-07-07T22:00:00Z,62.08,129.77,17.0,13.0,270,12,,6.21,29.379921,,,,,,TRUE,,,,,BKN,2000,,,,,,,MVFR,,,,,,,,,,,,METAR,106.0
UDYZ 072200Z 04012KT 9999 NSC 27/11 Q1007 NOSIG,UDYZ,2023-07-07T22:00:00Z,40.15,44.4,27.0,11.0,40,12,,6.21,29.734253,,,,,,TRUE,,,,,CLR,,,,,,,,VFR,,,,,,,,,,,,METAR,851.0
UDSG 072200Z 06017KT 9999 NSC 20/11 Q1014 NOSIG,UDSG,2023-07-07T22:00:00Z,40.75,43.87,20.0,11.0,60,17,,6.21,29.940945,,,,,,TRUE,,,,,CLR,,,,,,,,VFR,,,,,,,,,,,,METAR,1515.0
UCFO 072200Z 13003MPS CAVOK 16/09 Q1012 NOSIG,UCFO,2023-07-07T22:00:00Z,40.6,72.8,16.0,9.0,130,6,,6.21,29.88189,,,,,,TRUE,,,,,CAVOK,,,,,,,,VFR,,,,,,,,,,,,METAR,881.0
UCFM 072200Z 15002MPS 9999 BKN066CB 17/16 Q1012 NOSIG,UCFM,2023-07-07T22:00:00Z,43.07,74.48,17.0,16.0,150,4,,6.21,29.88189,,,,,,TRUE,,,,,BKN,6600,,,,,,,VFR,,,,,,,,,,,,METAR,632.0
UCFL 072200Z 34004MPS 9999 FEW030CB 14/08 Q1017,UCFL,2023-07-07T22:00:00Z,42.58,76.7,14.0,8.0,340,8,,6.21,30.029528,,,,,,,,,,,FEW,3000,,,,,,,VFR,,,,,,,,,,,,METAR,1654.0
UBBZ 072200Z AUTO 32004KT 9999 // NSC 25/11 Q1011,UBBZ,2023-07-07T22:00:00Z,39.1,46.73,25.0,11.0,320,4,,6.21,29.852362,,,TRUE,,,,,,,,CLR,,,,,,,,VFR,,,,,,,,,,,,METAR,489.0
UBBY 072200Z 09012KT 9999 SCT070 25/15 Q1013 NOSIG RMK MT OP,UBBY,2023-07-07T22:00:00Z,41.57,46.67,25.0,15.0,90,12,,6.21,29.911417,,,,,,TRUE,,,,,SCT,7000,,,,,,,VFR,,,,,,,,,,,,METAR,383.0
UBBQ 072200Z 15007KT 9999 NSC 23/12 Q1010 NOSIG RMK MT OP,UBBQ,2023-07-07T22:00:00Z,40.82,47.72,23.0,12.0,150,7,,6.21,29.822834,,,,,,TRUE,,,,,CLR,,,,,,,,VFR,,,,,,,,,,,,METAR,339.0
UBBN 072200Z 10012KT 9999 NSC 27/08 Q1007 NOSIG RMK MT OP QFE681,UBBN,2023-07-07T22:00:00Z,39.18,45.45,27.0,8.0,100,12,,6.21,29.734253,,,,,,TRUE,,,,,CLR,,,,,,,,VFR,,,,,,,,,,,,METAR,857.0
UBBL 072200Z VRB02KT 9999 SCT060 21/17 Q1008 NOSIG RMK MT OP,UBBL,2023-07-07T22:00:00Z,38.75,48.82,21.0,17.0,0,2,,6.21,29.763779,,,,,,TRUE,,,,,SCT,6000,,,,,,,VFR,,,,,,,,,,,,METAR,-11.0
UBBG 072200Z 11006KT 9999 FEW100 24/15 Q1009 NOSIG,UBBG,2023-07-07T22:00:00Z,40.73,46.32,24.0,15.0,110,6,,6.21,29.793306,,,,,,TRUE,,,,,FEW,10000,,,,,,,VFR,,,,,,,,,,,,METAR,333.0
UBBF 072200Z AUTO 31010KT 9999 // ///////// 24/12 Q1009,UBBF,2023-07-07T22:00:00Z,39.6,47.2,24.0,12.0,310,10,,6.21,29.793306,,,TRUE,,,,,,,,,,,,,,,,,,,,,,,,,,,,METAR,370.0
UBBB 072200Z 16004KT CAVOK 25/24 Q1008 NOSIG,UBBB,2023-07-07T22:00:00Z,40.47,50.07,25.0,24.0,160,4,,6.21,29.763779,,,,,,TRUE,,,,,CAVOK,,,,,,,,VFR,,,,,,,,,,,,METAR,94.0
UAUU 072200Z 35002MPS CAVOK 18/13 Q1015 NOSIG RMK QFE745/0993,UAUU,2023-07-07T22:00:00Z,53.2,63.55,18.0,13.0,350,4,,6.21,29.970472,,,,,,TRUE,,,,,CAVOK,,,,,,,,VFR,,,,,,,,,,,,METAR,177.0
UATT 072200Z 07002MPS CAVOK 24/12 Q1016 NOSIG RMK QFE742/0989,UATT,2023-07-07T22:00:00Z,50.25,57.2,24.0,12.0,70,4,,6.21,30.0,,,,,,TRUE,,,,,CAVOK,,,,,,,,VFR,,,,,,,,,,,,METAR,217.0
UATG 072200Z 06004MPS CAVOK 28/11 Q1010 NOSIG RMK QFE759/1013,UATG,2023-07-07T22:00:00Z,47.12,51.83,28.0,11.0,60,8,,6.21,29.822834,,,,,,TRUE,,,,,CAVOK,,,,,,,,VFR,,,,,,,,,,,,METAR,-23.0
UATE 072200Z 06003MPS CAVOK 25/09 Q1008 NOSIG RMK QFE754/1006,UATE,2023-07-07T22:00:00Z,43.87,51.1,25.0,9.0,60,6,,6.21,29.763779,,,,,,TRUE,,,,,CAVOK,,,,,,,,VFR,,,,,,,,,,,,METAR,21.0
UASP 072200Z 21002MPS 7000 SCT053CB 17/16 Q1006 NOSIG RMK QFE743/0991,UASP,2023-07-07T22:00:00Z,52.2,77.07,17.0,16.0,210,4,,4.35,29.704725,,,,,,TRUE,,,,,SCT,5300,,,,,,,MVFR,,,,,,,,,,,,METAR,122.0
UASK 072200Z 06002MPS 9999 BKN100 15/15 Q1007 NOSIG RMK QFE730/0974,UASK,2023-07-07T22:00:00Z,50.03,82.5,15.0,15.0,60,4,,6.21,29.734253,,,,,,TRUE,,,,,BKN,10000,,,,,,,VFR,,,,,,,,,,,,METAR,285.0
UARR 072200Z 36003MPS CAVOK 19/13 Q1015 NOSIG RMK QFE758/1011,UARR,2023-07-07T22:00:00Z,51.15,51.53,19.0,13.0,360,6,,6.21,29.970472,,,,,,TRUE,,,,,CAVOK,,,,,,,,VFR,,,,,,,,,,,,METAR,33.0
UAOO 072200Z 03003MPS CAVOK 21/10 Q1010 NOSIG RMK QFE746/0994,UAOO,2023-07-07T22:00:00Z,44.7,65.6,21.0,10.0,30,6,,6.21,29.822834,,,,,,TRUE,,,,,CAVOK,,,,,,,,VFR,,,,,,,,,,,,METAR,130.0
UAKK 072200Z 00000MPS CAVOK 13/11 Q1011 NOSIG RMK QFE712/0949,UAKK,2023-07-07T22:00:00Z,49.68,73.35,13.0,11.0,0,0,,6.21,29.852362,,,,,,TRUE,,,,,CAVOK,,,,,,,,VFR,,,,,,,,,,,,METAR,532.0
UAIT 072200Z 05004MPS 9999 SCT046CB 20/11 Q1010 NOSIG RMK QFE733/0977,UAIT,2023-07-07T22:00:00Z,43.32,68.55,20.0,11.0,50,8,,6.21,29.822834,,,,,,TRUE,,,,,SCT,4600,,,,,,,VFR,,,,,,,,,,,,METAR,301.0
UAII 072200Z 13003MPS CAVOK 21/10 Q1010 NOSIG RMK QFE722/0963,UAII,2023-07-07T22:00:00Z,42.37,69.48,21.0,10.0,130,6,,6.21,29.822834,,,,,,TRUE,,,,,CAVOK,,,,,,,,VFR,,,,,,,,,,,,METAR,410.0
UADD 072200Z 18003MPS 9999 NSC 16/10 Q1012 NOSIG RMK QFE702/0936,UADD,2023-07-07T22:00:00Z,42.85,71.3,16.0,10.0,180,6,,6.21,29.88189,,,,,,TRUE,,,,,CLR,,,,,,,,VFR,,,,,,,,,,,,METAR,663.0
UACC 072200Z 00000MPS CAVOK 17/14 Q1011 NOSIG RMK QFE727/0970,UACC,2023-07-07T22:00:00Z,51.02,71.47,17.0,14.0,0,0,,6.21,29.852362,,,,,,TRUE,,,,,CAVOK,,,,,,,,VFR,,,,,,,,,,,,METAR,354.0
UAAA 072200Z 17002MPS 140V210 9999 FEW050CB SCT100 15/13 Q1012 NOSIG,UAAA,2023-07-07T22:00:00Z,43.35,77.03,15.0,13.0,170,4,,6.21,29.88189,,,,,,TRUE,,,,,FEW,5000,SCT,10000,,,,,VFR,,,,,,,,,,,,METAR,673.0
TVSA 072200Z 09003KT 9999 FEW016 28/25 Q1013 NOSIG ,TVSA,2023-07-07T22:00:00Z,13.15,-61.15,28.0,25.0,90,3,,6.21,29.911417,,,,,,TRUE,,,,,FEW,1600,,,,,,,VFR,,,,,,,,,,,,METAR,3.0
TUPJ 072200Z 09010KT 10SM FEW020 30/23 A2998 RMK 11015 VIS16KM,TUPJ,2023-07-07T22:00:00Z,18.43,-64.53,30.0,23.0,90,10,,10.0,29.97933,,,,,,,,,,,FEW,2000,,,,,,,VFR,,-1.5,,,,,,,,,,METAR,6.0
TTPP 072200Z 12004KT 9999 VCSH SCT016TCU 27/24 Q1012 NOSIG RMK TCU-E/ VCSH E,TTPP,2023-07-07T22:00:00Z,10.58,-61.35,27.0,24.0,120,4,,6.21,29.88189,,,,,,TRUE,,,,VCSH,SCT,1600,,,,,,,VFR,,,,,,,,,,,,METAR,11.0
TTCP 072200Z 11007KT 9999 VCSH FEW016 26/24 Q1012 NOSIG RMK VCSH-W/NW,TTCP,2023-07-07T22:00:00Z,11.15,-60.85,26.0,24.0,110,7,,6.21,29.88189,,,,,,TRUE,,,,VCSH,FEW,1600,,,,,,,VFR,,,,,,,,,,,,METAR,13.0
TRPG 072200Z 09014KT 9999 FEW018 29/25 Q1015,TRPG,2023-07-07T22:00:00Z,16.78,-62.2,29.0,25.0,90,14,,6.21,29.970472,,,,,,,,,,,FEW,1800,,,,,,,VFR,,,,,,,,,,,,METAR,170.0
TQPF 072200Z 09010KT 9999 FEW020 29/24 Q1015,TQPF,2023-07-07T22:00:00Z,18.2,-63.05,29.0,24.0,90,10,,6.21,29.970472,,,,,,,,,,,FEW,2000,,,,,,,VFR,,,,,,,,,,,,METAR,33.0
TNCM 072200Z 06010KT 020V090 9999 FEW019 30/24 Q1016 NOSIG ,TNCM,2023-07-07T22:00:00Z,18.05,-63.12,30.0,24.0,60,10,,6.21,30.0,,,,,,TRUE,,,,,FEW,1900,,,,,,,VFR,,,,,,,,,,,,METAR,9.0
TNCC 072200Z 09009KT 9999 FEW023 30/25 Q1011 NOSIG,TNCC,2023-07-07T22:00:00Z,12.2,-68.97,30.0,25.0,90,9,,6.21,29.852362,,,,,,TRUE,,,,,FEW,2300,,,,,,,VFR,,,,,,,,,,,,METAR,10.0
TNCA 072200Z 08019KT 9999 FEW023 30/24 Q1011 NOSIG,TNCA,2023-07-07T22:00:00Z,12.5,-70.0,30.0,24.0,80,19,,6.21,29.852362,,,,,,TRUE,,,,,FEW,2300,,,,,,,VFR,,,,,,,,,,,,METAR,7.0
TLPL 072200Z 13008KT 9999 -SHRA FEW016CB BKN021 28/25 Q1013 NOSIG,TLPL,2023-07-07T22:00:00Z,13.75,-60.95,28.0,25.0,130,8,,6.21,29.911417,,,,,,TRUE,,,,-SHRA,FEW,1600,BKN,2100,,,,,MVFR,,,,,,,,,,,,METAR,13.0
TLPC 072200Z 11005KT 9999 FEW017CB 28/25 Q1013 NOSIG,TLPC,2023-07-07T22:00:00Z,14.02,-61.0,28.0,25.0,110,5,,6.21,29.911417,,,,,,TRUE,,,,,FEW,1700,,,,,,,VFR,,,,,,,,,,,,METAR,8.0
TKPN 072200Z 08017KT 9999 SCT022 30/26 Q1014,TKPN,2023-07-07T22:00:00Z,17.2,-62.58,30.0,26.0,80,17,,6.21,29.940945,,,,,,,,,,,SCT,2200,,,,,,,VFR,,,,,,,,,,,,METAR,12.0
TKPK 072200Z 05014KT 9999 FEW018 29/24 Q1014,TKPK,2023-07-07T22:00:00Z,17.3,-62.72,29.0,24.0,50,14,,6.21,29.940945,,,,,,,,,,,FEW,1800,,,,,,,VFR,,,,,,,,,,,,METAR,62.0
TFFR 072200Z AUTO 05005KT 010V090 9999 FEW017 27/25 Q1013 TEMPO 2000 -TSRA SCT010 SCT013CB,TFFR,2023-07-07T22:00:00Z,16.27,-61.53,27.0,25.0,50,5,,6.21,29.911417,,,TRUE,,,,,,,,FEW,1700,,,,,,,VFR,,,,,,,,,,,,METAR,6.0
TFFJ 072200Z AUTO 04019KT //// // BKN023 30/25 Q1014,TFFJ,2023-07-07T22:00:00Z,17.9,-62.85,30.0,25.0,40,19,,,29.940945,,,TRUE,,,,,,,,BKN,2300,,,,,,,,,,,,,,,,,,,METAR,290.0
TFFF 072200Z AUTO 10010KT 9999 FEW017/// BKN050/// ///TCU 29/25 Q1013 TEMPO 2000 -TSRA SCT010 SCT013CB,TFFF,2023-07-07T22:00:00Z,14.6,-61.0,29.0,25.0,100,10,,6.21,29.911417,,,TRUE,,,,,,,,FEW,1700,BKN,5000,,,,,VFR,,,,,,,,,,,,METAR,3.0
TDPD 072200Z 13004KT 9999 FEW015 28/26 Q1014,TDPD,2023-07-07T22:00:00Z,15.55,-61.3,28.0,26.0,130,4,,6.21,29.940945,,,,,,,,,,,FEW,1500,,,,,,,VFR,,,,,,,,,,,,METAR,13.0
TBPB 072200Z 13008KT 9999 FEW016 27/25 Q1013 NOSIG,TBPB,2023-07-07T22:00:00Z,13.07,-59.48,27.0,25.0,130,8,,6.21,29.911417,,,,,,TRUE,,,,,FEW,1600,,,,,,,VFR,,,,,,,,,,,,METAR,55.0
TAPA 072200Z 07011KT 030V110 9999 SCT018 29/24 Q1014 NOSIG,TAPA,2023-07-07T22:00:00Z,17.13,-61.78,29.0,24.0,70,11,,6.21,29.940945,,,,,,TRUE,,,,,SCT,1800,,,,,,,VFR,,,,,,,,,,,,METAR,15.0
SYCJ 072200Z 04010KT 9999 FEW017CB 28/24 Q1011 NOSIG RMK CB SE-WSW,SYCJ,2023-07-07T22:00:00Z,6.5,-58.25,28.0,24.0,40,10,,6.21,29.852362,,,,,,TRUE,,,,,FEW,1700,,,,,,,VFR,,,,,,,,,,,,METAR,30.0
SUMU 072200Z 12011KT 9999 FEW023 11/08 Q1018 NOSIG,SUMU,2023-07-07T22:00:00Z,-34.83,-56.02,11.0,8.0,120,11,,6.21,30.059055,,,,,,TRUE,,,,,FEW,2300,,,,,,,VFR,,,,,,,,,,,,METAR,32.0
SULS 072200Z 11004KT CAVOK 09/06 Q1018,SULS,2023-07-07T22:00:00Z,-34.87,-55.1,9.0,6.0,110,4,,6.21,30.059055,,,,,,,,,,,CAVOK,,,,,,,,VFR,,,,,,,,,,,,METAR,22.0
SUCA 072200Z 13011KT CAVOK 12/09 Q1016,SUCA,2023-07-07T22:00:00Z,-34.45,-57.77,12.0,9.0,130,11,,6.21,30.0,,,,,,,,,,,CAVOK,,,,,,,,VFR,,,,,,,,,,,,METAR,26.0
SUAA 072200Z 11008KT 9999 FEW026 SCT200 10/06 Q1017,SUAA,2023-07-07T22:00:00Z,-34.78,-56.25,10.0,6.0,110,8,,6.21,30.029528,,,,,,,,,,,FEW,2600,SCT,20000,,,,,VFR,,,,,,,,,,,,METAR,48.0
SPZO 072200Z 28010KT 9999 NSC 22/M05 Q1026 NOSIG RMK TX24.9 BIRD HAZARD RWY 10/28 PP000,SPZO,2023-07-07T22:00:00Z,-13.55,-71.93,22.0,-5.0,280,10,,6.21,30.295275,,,,,,TRUE,,,,,CLR,,,,,,,,VFR,,,,,,,,,,,,METAR,3249.0
SPYL 072200Z 22003KT 9999 OVC040 26/19 Q1011 RMK TX 28.8 BIRD HAZARD RWY 17/35 PP000,SPYL,2023-07-07T22:00:00Z,-4.57,-81.25,26.0,19.0,220,3,,6.21,29.852362,,,,,,,,,,,OVC,4000,,,,,,,VFR,,,,,,,,,,,,METAR,89.0
SPUR 072200Z 20008KT 9999 OVC040 26/19 Q1011 RMK BIRD HAZARD RWY 19/01 TX.27.6 PP000,SPUR,2023-07-07T22:00:00Z,-5.17,-80.58,26.0,19.0,200,8,,6.21,29.852362,,,,,,,,,,,OVC,4000,,,,,,,VFR,,,,,,,,,,,,METAR,55.0
SPTU 072200Z 31003KT 9999 FEW025 BKN100 25/22 Q1007 RMK TX33.5 BIRD HAZARD RWY 01/19 PP100,SPTU,2023-07-07T22:00:00Z,-12.62,-69.22,25.0,22.0,310,3,,6.21,29.734253,,,,,,,,,,,FEW,2500,BKN,10000,,,,,VFR,,,,,,,,,,,,METAR,213.0
SPTN 072200Z 21009KT 9999 BKN030 16/12 Q1015 RMK TX20.0 PP000,SPTN,2023-07-07T22:00:00Z,-18.03,-70.28,16.0,12.0,210,9,,6.21,29.970472,,,,,,,,,,,BKN,3000,,,,,,,MVFR,,,,,,,,,,,,METAR,459.0
SPST 072200Z 06008KT 9999 FEW020 33/22 Q1007 RMK TX35.0 PP000,SPST,2023-07-07T22:00:00Z,-6.52,-76.37,33.0,22.0,60,8,,6.21,29.734253,,,,,,,,,,,FEW,2000,,,,,,,VFR,,,,,,,,,,,,METAR,282.0
SPSO 072200Z 21014KT 9999 BKN038 22/14 Q1013 RMK TX23.9 BIRD HAZARD RWY 22/04 PP000,SPSO,2023-07-07T22:00:00Z,-13.73,-76.22,22.0,14.0,210,14,,6.21,29.911417,,,,,,,,,,,BKN,3800,,,,,,,VFR,,,,,,,,,,,,METAR,8.0
SPRU 072200Z 16009KT 7000 BCFG FEW015 BKN040 23/20 Q1012 RMK TX24.7 PP000,SPRU,2023-07-07T22:00:00Z,-8.08,-79.12,23.0,20.0,160,9,,4.35,29.88189,,,,,,,,,,BCFG,FEW,1500,BKN,4000,,,,,MVFR,,,,,,,,,,,,METAR,23.0
SPQU 072200Z VRB01KT CAVOK 17/00 Q1025 NOSIG RMK TX21.4 PP000,SPQU,2023-07-07T22:00:00Z,-16.33,-71.57,17.0,0.0,0,1,,6.21,30.265747,,,,,,TRUE,,,,,CAVOK,,,,,,,,VFR,,,,,,,,,,,,METAR,2527.0
SPQT 072200Z VRB02KT 9999 SCT020 28/25 Q1008 NOSIG RMK TX33.1 PP000,SPQT,2023-07-07T22:00:00Z,-3.78,-73.32,28.0,25.0,0,2,,6.21,29.763779,,,,,,TRUE,,,,,SCT,2000,,,,,,,VFR,,,,,,,,,,,,METAR,92.0
SPNC 072200Z 05011KT 9999 FEW040 25/16 Q1017 RMK TX27.8 PP000,SPNC,2023-07-07T22:00:00Z,-9.87,-76.2,25.0,16.0,50,11,,6.21,30.029528,,,,,,,,,,,FEW,4000,,,,,,,VFR,,,,,,,,,,,,METAR,1856.0
SPME 072200Z 26004KT 9999 BKN013 28/21 Q1010 RMK BIRD HAZARD RWY 32/14 PP000,SPME,2023-07-07T22:00:00Z,-3.55,-80.4,28.0,21.0,260,4,,6.21,29.822834,,,,,,,,,,,BKN,1300,,,,,,,MVFR,,,,,,,,,,,,METAR,26.0
SPJR 072200Z 10005KT 040V140 9999 SCT027 19/08 Q1024 RMK TX24.7 PP000,SPJR,2023-07-07T22:00:00Z,-7.13,-78.48,19.0,8.0,100,5,,6.21,30.236221,,,,,,,,,,,SCT,2700,,,,,,,VFR,,,,,,,,,,,,METAR,2622.0
SPJL 072200Z /////KT CAVOK 15/M07 Q1032 RMK WIND RWY12 05008KT/TX21.5 PP000,SPJL,2023-07-07T22:00:00Z,-15.47,-70.15,15.0,-7.0,,,,6.21,30.47244,,,,,,,,,,,CAVOK,,,,,,,,VFR,,,,,,,,,,,,METAR,3837.0
SPJJ 072200Z VRB02KT CAVOK 23/// Q1028 RMK TX//./ PP000,SPJJ,2023-07-07T22:00:00Z,-11.77,-75.47,,,0,2,,6.21,30.35433,,,,,,,,,,,CAVOK,,,,,,,,VFR,,,,,,,,,,,,METAR,3322.0
SPJC 072200Z 16012KT 9999 OVC045 21/16 Q1013 NOSIG RMK BIRD HAZARD RWY 16 PP000,SPJC,2023-07-07T22:00:00Z,-12.02,-77.12,21.0,16.0,160,12,,6.21,29.911417,,,,,,TRUE,,,,,OVC,4500,,,,,,,VFR,,,,,,,,,,,,METAR,26.0
SPHO 072200Z 09002KT CAVOK 25/M04 Q1022 RMK TX25.7 BIRD HAZARD RWY 02/20 PP000,SPHO,2023-07-07T22:00:00Z,-13.17,-74.22,25.0,-4.0,90,2,,6.21,30.177166,,,,,,,,,,,CAVOK,,,,,,,,VFR,,,,,,,,,,,,METAR,2743.0
SPHI 072200Z 19012KT 9999 BKN040 24/19 Q1012 RMK TX 25.8 BIRD HAZARD RWY 19/01 PP000,SPHI,2023-07-07T22:00:00Z,-6.78,-79.82,24.0,19.0,190,12,,6.21,29.88189,,,,,,,,,,,BKN,4000,,,,,,,VFR,,,,,,,,,,,,METAR,33.0
SPCL 072200Z 04006KT 9999 SCT025 31/23 Q1008 RMK TX34.4 BIRD HAZARD RWY 02/20 PP000,SPCL,2023-07-07T22:00:00Z,-8.38,-74.58,31.0,23.0,40,6,,6.21,29.763779,,,,,,,,,,,SCT,2500,,,,,,,VFR,,,,,,,,,,,,METAR,154.0
SOCA 072200Z AUTO 09006KT 9999 FEW032 27/24 Q1011 NOSIG,SOCA,2023-07-07T22:00:00Z,4.82,-52.37,27.0,24.0,90,6,,6.21,29.852362,,,TRUE,,,TRUE,,,,,FEW,3200,,,,,,,VFR,,,,,,,,,,,,METAR,7.0
SLVR 072200Z 34015KT 7000 SCT025 BKN070 26/22 Q1007,SLVR,2023-07-07T22:00:00Z,-17.63,-63.13,26.0,22.0,340,15,,4.35,29.734253,,,,,,,,,,,SCT,2500,BKN,7000,,,,,MVFR,,,,,,,,,,,,METAR,377.0
SLTJ 072200Z 16012KT 9999 NSC 20/12 Q1012,SLTJ,2023-07-07T22:00:00Z,-21.55,-64.72,20.0,12.0,160,12,,6.21,29.88189,,,,,,,,,,,CLR,,,,,,,,VFR,,,,,,,,,,,,METAR,1850.0
SLSV 072200Z 36005KT 9999 SCT017 27/18 Q1009,SLSV,2023-07-07T22:00:00Z,-16.4,-61.05,27.0,18.0,360,5,,6.21,29.793306,,,,,,,,,,,SCT,1700,,,,,,,VFR,,,,,,,,,,,,METAR,450.0
SLSA 072200Z 34007KT 9999 FEW020 31/20 Q1008,SLSA,2023-07-07T22:00:00Z,-13.77,-65.43,31.0,20.0,340,7,,6.21,29.763779,,,,,,,,,,,FEW,2000,,,,,,,VFR,,,,,,,,,,,,METAR,144.0
SLRI 072200Z 00000KT 9999 NSC 32/23 Q1009,SLRI,2023-07-07T22:00:00Z,-11.02,-66.08,32.0,23.0,0,0,,6.21,29.793306,,,,,,,,,,,CLR,,,,,,,,VFR,,,,,,,,,,,,METAR,136.0
SLPS 072200Z 00000KT 9999 NSC 28/22 Q1009,SLPS,2023-07-07T22:00:00Z,-18.98,-57.82,28.0,22.0,0,0,,6.21,29.793306,,,,,,,,,,,CLR,,,,,,,,VFR,,,,,,,,,,,,METAR,136.0
SLPO 072200Z 24010KT 9999 NSC 14/M03 Q1036,SLPO,2023-07-07T22:00:00Z,-19.53,-65.72,14.0,-3.0,240,10,,6.21,30.590551,,,,,,,,,,,CLR,,,,,,,,VFR,,,,,,,,,,,,METAR,3915.0
SLMG 072200Z 00000KT 9999 NSC 32/22 Q1010,SLMG,2023-07-07T22:00:00Z,-13.27,-64.07,32.0,22.0,0,0,,6.21,29.822834,,,,,,,,,,,CLR,,,,,,,,VFR,,,,,,,,,,,,METAR,146.0
SLLP 072200Z 30008KT 9999 NSC 15/M14 Q1035,SLLP,2023-07-07T22:00:00Z,-16.52,-68.17,15.0,-14.0,300,8,,6.21,30.561024,,,,,,,,,,,CLR,,,,,,,,VFR,,,,,,,,,,,,METAR,4061.0
SLJO 072200Z 32004KT 9999 FEW017 31/21 Q1011,SLJO,2023-07-07T22:00:00Z,-13.07,-64.67,31.0,21.0,320,4,,6.21,29.852362,,,,,,,,,,,FEW,1700,,,,,,,VFR,,,,,,,,,,,,METAR,140.0
SLET 072200Z 31018G30KT 9999 FEW008 BKN020 BKN070 25/21 Q1007,SLET,2023-07-07T22:00:00Z,-17.8,-63.17,25.0,21.0,310,18,30,6.21,29.734253,,,,,,,,,,,FEW,800,BKN,2000,BKN,7000,,,MVFR,,,,,,,,,,,,METAR,421.0
SLCP 072200Z 36006KT 9999 FEW020 26/22 Q1013,SLCP,2023-07-07T22:00:00Z,-16.15,-62.02,26.0,22.0,360,6,,6.21,29.911417,,,,,,,,,,,FEW,2000,,,,,,,VFR,,,,,,,,,,,,METAR,502.0
SLCO 072200Z 35005KT 9999 FEW035 SCT200 32/24 Q1008,SLCO,2023-07-07T22:00:00Z,-11.03,-68.78,32.0,24.0,350,5,,6.21,29.763779,,,,,,,,,,,FEW,3500,SCT,20000,,,,,VFR,,,,,,,,,,,,METAR,238.0
SLCB 072200Z 22009KT 200V280 9999 NSC 23/M01 Q1017,SLCB,2023-07-07T22:00:00Z,-17.42,-66.18,23.0,-1.0,220,9,,6.21,30.029528,,,,,,,,,,,CLR,,,,,,,,VFR,,,,,,,,,,,,METAR,2560.0
SLCA 072200Z 00000KT 9999 BKN036 27/19 Q1009,SLCA,2023-07-07T22:00:00Z,-20.0,-63.53,27.0,19.0,0,0,,6.21,29.793306,,,,,,,,,,,BKN,3600,,,,,,,VFR,,,,,,,,,,,,METAR,796.0
SLAL 072200Z 01003KT 9999 NSC 18/M06 Q1023,SLAL,2023-07-07T22:00:00Z,-19.23,-65.15,18.0,-6.0,10,3,,6.21,30.206694,,,,,,,,,,,CLR,,,,,,,,VFR,,,,,,,,,,,,METAR,3109.0
SGES 072200Z 03006KT 9999 FEW025 BKN070 22/16 Q1009,SGES,2023-07-07T22:00:00Z,-25.45,-54.85,22.0,16.0,30,6,,6.21,29.793306,,,,,,,,,,,FEW,2500,BKN,7000,,,,,VFR,,,,,,,,,,,,METAR,256.0
SGAS 072200Z 06004KT 8000 FEW033 BKN070 25/18 Q1007,SGAS,2023-07-07T22:00:00Z,-25.25,-57.52,25.0,18.0,60,4,,4.97,29.734253,,,,,,,,,,,FEW,3300,BKN,7000,,,,,MVFR,,,,,,,,,,,,METAR,83.0
SETN 072200Z VRB02KT 9999 SCT026 SCT100 BKN300 28/25 Q1010 RMK A2983,SETN,2023-07-07T22:00:00Z,0.98,-79.63,28.0,25.0,0,2,,6.21,29.822834,,,,,,,,,,,SCT,2600,SCT,10000,BKN,30000,,,VFR,,,,,,,,,,,,METAR,10.0
SEST 072200Z 13016KT 9999 FEW023 BKN080 28/23 Q1008 RMK A2979,SEST,2023-07-07T22:00:00Z,-0.9,-89.62,28.0,23.0,130,16,,6.21,29.763779,,,,,,,,,,,FEW,2300,BKN,8000,,,,,VFR,,,,,,,,,,,,METAR,13.0
SESM 072200Z 00000KT 9999 SCT030 24/20 Q1013 RMK A2993,SESM,2023-07-07T22:00:00Z,-1.5,-78.07,24.0,20.0,0,0,,6.21,29.911417,,,,,,,,,,,SCT,3000,,,,,,,VFR,,,,,,,,,,,,METAR,1056.0
SESA 072200Z 21007KT 9999 BKN040 SCT100 27/22 Q1010 RMK A2984,SESA,2023-07-07T22:00:00Z,-2.2,-80.98,27.0,22.0,210,7,,6.21,29.822834,,,,,,,,,,,BKN,4000,SCT,10000,,,,,VFR,,,,,,,,,,,,METAR,6.0
SERO 072200Z 00000KT 8000 VCSH FEW010 OVC020 24/24 Q1010,SERO,2023-07-07T22:00:00Z,-3.43,-79.98,24.0,24.0,0,0,,4.97,29.822834,,,,,,,,,,VCSH,FEW,1000,OVC,2000,,,,,MVFR,,,,,,,,,,,,METAR,6.0
SEQM 072200Z 01012KT 9999 SCT030 19/12 Q1023 NOSIG RMK A3023,SEQM,2023-07-07T22:00:00Z,-0.12,-78.35,19.0,12.0,10,12,,6.21,30.206694,,,,,,TRUE,,,,,SCT,3000,,,,,,,VFR,,,,,,,,,,,,METAR,2386.0
SENL 072200Z 11009KT 9999 BKN023 SCT300 28/23 Q1010 RMK A2984,SENL,2023-07-07T22:00:00Z,0.1,-76.87,28.0,23.0,110,9,,6.21,29.822834,,,,,,,,,,,BKN,2300,SCT,30000,,,,,MVFR,,,,,,,,,,,,METAR,293.0
SEMT 072200Z 36005KT 8000 -RA BKN023 OVC100 25/24 Q1009 RMK A2980,SEMT,2023-07-07T22:00:00Z,-0.95,-80.67,25.0,24.0,360,5,,4.97,29.793306,,,,,,,,,,-RA,BKN,2300,OVC,10000,,,,,MVFR,,,,,,,,,,,,METAR,13.0
SEMC 072200Z 19008KT 9999 SCT030 SCT100 24/20 Q1014 RMK A2994,SEMC,2023-07-07T22:00:00Z,-2.3,-78.12,24.0,20.0,190,8,,6.21,29.940945,,,,,,,,,,,SCT,3000,SCT,10000,,,,,VFR,,,,,,,,,,,,METAR,1036.0
SELT 072200Z 17012KT 9999 BKN030 BKN080 15/09 Q1027,SELT,2023-07-07T22:00:00Z,-0.92,-78.62,15.0,9.0,170,12,,6.21,30.324802,,,,,,,,,,,BKN,3000,BKN,8000,,,,,MVFR,,,,,,,,,,,,METAR,2779.0
SEGU 072200Z 17008KT 9999 VCSH FEW010 SCT100 29/24 Q1009 NOSIG RMK A2979,SEGU,2023-07-07T22:00:00Z,-2.15,-79.88,29.0,24.0,170,8,,6.21,29.793306,,,,,,TRUE,,,,VCSH,FEW,1000,SCT,10000,,,,,VFR,,,,,,,,,,,,METAR,6.0
SEGS 072200Z 16012KT 9999 SCT020 SCT030 29/21 Q1011 RMK A2985,SEGS,2023-07-07T22:00:00Z,-0.45,-90.27,29.0,21.0,160,12,,6.21,29.852362,,,,,,,,,,,SCT,2000,SCT,3000,,,,,VFR,,,,,,,,,,,,METAR,51.0
SECU 072200Z 05003KT 9999 SCT040 SCT100 18/12 Q1023,SECU,2023-07-07T22:00:00Z,-2.88,-78.98,18.0,12.0,50,3,,6.21,30.206694,,,,,,,,,,,SCT,4000,SCT,10000,,,,,VFR,,,,,,,,,,,,METAR,2516.0
SECA 072200Z 27014KT 9999 BKN040 25/16 Q1014 RMK A2997,SECA,2023-07-07T22:00:00Z,-4.0,-79.37,25.0,16.0,270,14,,6.21,29.940945,,,,,,,,,,,BKN,4000,,,,,,,VFR,,,,,,,,,,,,METAR,1237.0
SEAM 072200Z 00000KT 9999 SCT020 21/14 Q1025,SEAM,2023-07-07T22:00:00Z,-1.2,-78.57,21.0,14.0,0,0,,6.21,30.265747,,,,,,,,,,,SCT,2000,,,,,,,VFR,,,,,,,,,,,,METAR,2520.0
SCVM 072200Z 36007KT 9999 BKN025 13/07 Q1018,SCVM,2023-07-07T22:00:00Z,-32.95,-71.48,13.0,7.0,360,7,,6.21,30.059055,,,,,,,,,,,BKN,2500,,,,,,,MVFR,,,,,,,,,,,,METAR,136.0
SCVD 072200Z 06005KT 010V100 5000 -RA BKN020 BKN025 OVC040 06/06 Q1012,SCVD,2023-07-07T22:00:00Z,-39.65,-73.08,6.0,6.0,60,5,,3.11,29.88189,,,,,,,,,,-RA,BKN,2000,BKN,2500,OVC,4000,,,MVFR,,,,,,,,,,,,METAR,19.0
SCTN 072200Z AUTO 00000KT //// R/////// // NCD 06/06 Q1012,SCTN,2023-07-07T22:00:00Z,-42.92,-72.7,6.0,6.0,0,0,,,29.88189,,,TRUE,,,,,,,,CLR,,,,,,,,,,,,,,,,,,,,METAR,8.0
SCTE 072200Z 06003KT 9999 OVC070 07/07 Q1012 NOSIG,SCTE,2023-07-07T22:00:00Z,-41.43,-73.08,7.0,7.0,60,3,,6.21,29.88189,,,,,,TRUE,,,,,OVC,7000,,,,,,,VFR,,,,,,,,,,,,METAR,85.0
SCTB 072200Z 20004KT 7000 OVC110 10/07 Q1017,SCTB,2023-07-07T22:00:00Z,-33.45,-70.53,10.0,7.0,200,4,,4.35,30.029528,,,,,,,,,,,OVC,11000,,,,,,,MVFR,,,,,,,,,,,,METAR,655.0
SCSN 072200Z 35006KT 310V030 9999 FEW020 SCT035 13/11 Q1017,SCSN,2023-07-07T22:00:00Z,-33.65,-71.62,13.0,11.0,350,6,,6.21,30.029528,,,,,,,,,,,FEW,2000,SCT,3500,,,,,VFR,,,,,,,,,,,,METAR,73.0
SCSE 072200Z 30005KT 9999 FEW030 13/08 Q1018,SCSE,2023-07-07T22:00:00Z,-29.92,-71.2,13.0,8.0,300,5,,6.21,30.059055,,,,,,,,,,,FEW,3000,,,,,,,VFR,,,,,,,,,,,,METAR,141.0
SCRM 072200Z 13003KT CAVOK M10/M13 Q1002 NOSIG,SCRM,2023-07-07T22:00:00Z,-62.18,-58.98,-10.0,-13.0,130,3,,6.21,29.586615,,,,,,TRUE,,,,,CAVOK,,,,,,,,VFR,,,,,,,,,,,,METAR,45.0
SCRG 072200Z 21001KT 3500 HZ SCT016 BKN070 09/09 Q1016,SCRG,2023-07-07T22:00:00Z,-34.17,-70.77,9.0,9.0,210,1,,2.17,30.0,,,,,,,,,,HZ,SCT,1600,BKN,7000,,,,,IFR,,,,,,,,,,,,METAR,488.0
SCRD 072200Z 35010KT 9999 FEW006 BKN025 11/08 Q1017,SCRD,2023-07-07T22:00:00Z,-33.07,-71.55,11.0,8.0,350,10,,6.21,30.029528,,,,,,,,,,,FEW,600,BKN,2500,,,,,MVFR,,,,,,,,,,,,METAR,342.0
SCQP 072200Z 12004KT 9999 -SHRA BKN027 OVC038 06/06 Q1013,SCQP,2023-07-07T22:00:00Z,-38.92,-72.65,6.0,6.0,120,4,,6.21,29.911417,,,,,,,,,,-SHRA,BKN,2700,OVC,3800,,,,,MVFR,,,,,,,,,,,,METAR,97.0
SCPQ 072200Z AUTO 16003KT CAVOK 06/05 Q1011,SCPQ,2023-07-07T22:00:00Z,-42.33,-73.72,6.0,5.0,160,3,,6.21,29.852362,,,TRUE,,,,,,,,CAVOK,,,,,,,,VFR,,,,,,,,,,,,METAR,166.0
SCPD 072200Z 14007KT 8000 FEW160 10/07 Q1017,SCPD,2023-07-07T22:00:00Z,,,10.0,7.0,140,7,,4.97,30.029528,,,,,,,,,,,FEW,16000,,,,,,,MVFR,,,,,,,,,,,,METAR,
SCON 072200Z AUTO 17003KT 9999 FEW110/// 05/05 Q1013,SCON,2023-07-07T22:00:00Z,-43.13,-73.62,5.0,5.0,170,3,,6.21,29.911417,,,TRUE,,,,,,,,FEW,11000,,,,,,,VFR,,,,,,,,,,,,METAR,11.0
SCMK 072200Z 15005KT CAVOK 06/04 Q1013,SCMK,2023-07-07T22:00:00Z,-43.9,-73.73,6.0,4.0,150,5,,6.21,29.911417,,,,,,,,,,,CAVOK,,,,,,,,VFR,,,,,,,,,,,,METAR,22.0
SCJO 072200Z 07005KT 040V100 8000 -RA SCT035 OVC050 07/05 Q1012,SCJO,2023-07-07T22:00:00Z,-40.6,-73.05,7.0,5.0,70,5,,4.97,29.88189,,,,,,,,,,-RA,SCT,3500,OVC,5000,,,,,MVFR,,,,,,,,,,,,METAR,61.0
SCIP 072200Z 25006KT 210V280 9999 SCT030 19/13 Q1024 NOSIG,SCIP,2023-07-07T22:00:00Z,-27.17,-109.43,19.0,13.0,250,6,,6.21,30.236221,,,,,,TRUE,,,,,SCT,3000,,,,,,,VFR,,,,,,,,,,,,METAR,48.0
SCIE 072200Z 07010KT 9999 SCT020 OVC025 11/09 Q1013,SCIE,2023-07-07T22:00:00Z,-36.77,-73.07,11.0,9.0,70,10,,6.21,29.911417,,,,,,,,,,,SCT,2000,OVC,2500,,,,,MVFR,,,,,,,,,,,,METAR,8.0
SCIC 072200Z 34006KT 2500 BR BKN028 OVC100 11/10 Q1016,SCIC,2023-07-07T22:00:00Z,-34.97,-71.22,11.0,10.0,340,6,,1.55,30.0,,,,,,,,,,BR,BKN,2800,OVC,10000,,,,,IFR,,,,,,,,,,,,METAR,230.0
SCGE 072200Z 02006KT 2000 -RA BKN008 OVC025 08/07 Q1015,SCGE,2023-07-07T22:00:00Z,-37.4,-72.42,8.0,7.0,20,6,,1.24,29.970472,,,,,,,,,,-RA,BKN,800,OVC,2500,,,,,IFR,,,,,,,,,,,,METAR,122.0
SCFT 072200Z AUTO VRB02KT 9999 BKN180/// 01/M01 Q1014,SCFT,2023-07-07T22:00:00Z,-43.18,-71.85,1.0,-1.0,0,2,,6.21,29.940945,,,TRUE,,,,,,,,BKN,18000,,,,,,,VFR,,,,,,,,,,,,METAR,345.0
SCFA 072200Z 21014KT 9999 BKN021 17/11 Q1015 NOSIG,SCFA,2023-07-07T22:00:00Z,-23.43,-70.43,17.0,11.0,210,14,,6.21,29.970472,,,,,,TRUE,,,,,BKN,2100,,,,,,,MVFR,,,,,,,,,,,,METAR,113.0
SCEL 072200Z 16008KT 9999 SCT130 BKN180 11/07 Q1017 NOSIG,SCEL,2023-07-07T22:00:00Z,-33.38,-70.78,11.0,7.0,160,8,,6.21,30.029528,,,,,,TRUE,,,,,SCT,13000,BKN,18000,,,,,VFR,,,,,,,,,,,,METAR,478.0
SCDA 072200Z 22009KT 9999 FEW034 18/12 Q1014,SCDA,2023-07-07T22:00:00Z,-20.53,-70.17,18.0,12.0,220,9,,6.21,29.940945,,,,,,,,,,,FEW,3400,,,,,,,VFR,,,,,,,,,,,,METAR,41.0
SCCI 072200Z 25006KT CAVOK M01/M04 Q1015 NOSIG,SCCI,2023-07-07T22:00:00Z,-53.0,-70.85,-1.0,-4.0,250,6,,6.21,29.970472,,,,,,TRUE,,,,,CAVOK,,,,,,,,VFR,,,,,,,,,,,,METAR,37.0
SCCH 072200Z 03009KT 2000 -RA SCT010 OVC015 09/08 Q1014,SCCH,2023-07-07T22:00:00Z,-36.57,-72.02,9.0,8.0,30,9,,1.24,29.940945,,,,,,,,,,-RA,SCT,1000,OVC,1500,,,,,IFR,,,,,,,,,,,,METAR,148.0
SCCF 072200Z 27015KT CAVOK 18/M17 Q1025,SCCF,2023-07-07T22:00:00Z,-22.5,-68.9,18.0,-17.0,270,15,,6.21,30.265747,,,,,,,,,,,CAVOK,,,,,,,,VFR,,,,,,,,,,,,METAR,2290.0
SCAT 072200Z 22010KT CAVOK 14/08 Q1016,SCAT,2023-07-07T22:00:00Z,-27.27,-70.77,14.0,8.0,220,10,,6.21,30.0,,,,,,,,,,,CAVOK,,,,,,,,VFR,,,,,,,,,,,,METAR,209.0
SCAR 072200Z 22011KT 9999 FEW020 OVC033 19/14 Q1014,SCAR,2023-07-07T22:00:00Z,-18.35,-70.33,19.0,14.0,220,11,,6.21,29.940945,,,,,,,,,,,FEW,2000,OVC,3300,,,,,VFR,,,,,,,,,,,,METAR,57.0
SBVT 072200Z 03009KT CAVOK 22/19 Q1017,SBVT,2023-07-07T22:00:00Z,-20.25,-40.28,22.0,19.0,30,9,,6.21,30.029528,,,,,,,,,,,CAVOK,,,,,,,,VFR,,,,,,,,,,,,METAR,4.0
SBTT 072200Z 12002KT 9999 VCSH SCT020 FEW022TCU SCT070 29/25 Q1009,SBTT,2023-07-07T22:00:00Z,-4.25,-69.93,29.0,25.0,120,2,,6.21,29.793306,,,,,,,,,,VCSH,SCT,2000,FEW,2200,SCT,7000,,,VFR,,,,,,,,,,,,METAR,79.0
SBTF 072200Z 09009KT 9999 -TSRA SCT010 FEW030CB BKN080 29/26 Q1009,SBTF,2023-07-07T22:00:00Z,-3.37,-64.72,29.0,26.0,90,9,,6.21,29.793306,,,,,,,,,,-TSRA,SCT,1000,FEW,3000,BKN,8000,,,VFR,,,,,,,,,,,,METAR,55.0
SBTE 072200Z 00000KT CAVOK 28/23 Q1011,SBTE,2023-07-07T22:00:00Z,-5.05,-42.82,28.0,23.0,0,0,,6.21,29.852362,,,,,,,,,,,CAVOK,,,,,,,,VFR,,,,,,,,,,,,METAR,60.0
SBSV 072200Z 17010KT 5000 -RA FEW007 BKN017 FEW023TCU BKN060 24/22 Q1017,SBSV,2023-07-07T22:00:00Z,-12.9,-38.32,24.0,22.0,170,10,,3.11,30.029528,,,,,,,,,,-RA,FEW,700,BKN,1700,FEW,2300,BKN,6000,MVFR,,,,,,,,,,,,METAR,9.0
SBSP 072200Z 32005KT 270V350 CAVOK 21/07 Q1019,SBSP,2023-07-07T22:00:00Z,-23.62,-46.65,21.0,7.0,320,5,,6.21,30.088583,,,,,,,,,,,CAVOK,,,,,,,,VFR,,,,,,,,,,,,METAR,802.0
SBSN 072200Z 09002KT CAVOK 28/25 Q1010,SBSN,2023-07-07T22:00:00Z,-2.42,-54.78,28.0,25.0,90,2,,6.21,29.822834,,,,,,,,,,,CAVOK,,,,,,,,VFR,,,,,,,,,,,,METAR,57.0
SBSL 072200Z 05009KT 9999 SCT020 29/24 Q1012,SBSL,2023-07-07T22:00:00Z,-2.58,-44.23,29.0,24.0,50,9,,6.21,29.88189,,,,,,,,,,,SCT,2000,,,,,,,VFR,,,,,,,,,,,,METAR,53.0
SBSJ 072200Z 11002KT CAVOK 18/10 Q1018,SBSJ,2023-07-07T22:00:00Z,-23.22,-45.87,18.0,10.0,110,2,,6.21,30.059055,,,,,,,,,,,CAVOK,,,,,,,,VFR,,,,,,,,,,,,METAR,640.0
SBSG 072200Z 18004KT 9999 FEW030 BKN080 24/23 Q1014,SBSG,2023-07-07T22:00:00Z,-5.77,-35.37,24.0,23.0,180,4,,6.21,29.940945,,,,,,,,,,,FEW,3000,BKN,8000,,,,,VFR,,,,,,,,,,,,METAR,83.0
SBRP 072200Z 00000KT CAVOK 21/10 Q1016,SBRP,2023-07-07T22:00:00Z,-21.13,-47.77,21.0,10.0,0,0,,6.21,30.0,,,,,,,,,,,CAVOK,,,,,,,,VFR,,,,,,,,,,,,METAR,550.0
SBRJ 072200Z 19007KT CAVOK 22/14 Q1015,SBRJ,2023-07-07T22:00:00Z,-22.9,-43.17,22.0,14.0,190,7,,6.21,29.970472,,,,,,,,,,,CAVOK,,,,,,,,VFR,,,,,,,,,,,,METAR,6.0
SBRF 072200Z 19001KT 9999 SCT010 BKN050 24/24 Q1014,SBRF,2023-07-07T22:00:00Z,-8.13,-34.92,24.0,24.0,190,1,,6.21,29.940945,,,,,,,,,,,SCT,1000,BKN,5000,,,,,VFR,,,,,,,,,,,,METAR,10.0
SBRB 072200Z 36004KT CAVOK 31/22 Q1009,SBRB,2023-07-07T22:00:00Z,-9.87,-67.88,31.0,22.0,360,4,,6.21,29.793306,,,,,,,,,,,CAVOK,,,,,,,,VFR,,,,,,,,,,,,METAR,190.0
SBPV 072200Z 05005KT 9999 FEW035 FEW037TCU 32/23 Q1009,SBPV,2023-07-07T22:00:00Z,-8.72,-63.9,32.0,23.0,50,5,,6.21,29.793306,,,,,,,,,,,FEW,3500,FEW,3700,,,,,VFR,,,,,,,,,,,,METAR,89.0
SBPS 072200Z 08006KT 9999 FEW025 23/19 Q1017,SBPS,2023-07-07T22:00:00Z,-16.43,-39.07,23.0,19.0,80,6,,6.21,30.029528,,,,,,,,,,,FEW,2500,,,,,,,VFR,,,,,,,,,,,,METAR,44.0
SBPP 072200Z 01004KT CAVOK 22/15 Q1013,SBPP,2023-07-07T22:00:00Z,-22.55,-55.7,22.0,15.0,10,4,,6.21,29.911417,,,,,,,,,,,CAVOK,,,,,,,,VFR,,,,,,,,,,,,METAR,650.0
SBPL 072200Z 17008KT 9999 BKN030 27/17 Q1016,SBPL,2023-07-07T22:00:00Z,-9.37,-40.57,27.0,17.0,170,8,,6.21,30.0,,,,,,,,,,,BKN,3000,,,,,,,MVFR,,,,,,,,,,,,METAR,386.0
SBPK 072200Z 13009KT 9999 -RA SCT025 BKN050 OVC100 15/13 Q1014,SBPK,2023-07-07T22:00:00Z,-31.72,-52.33,15.0,13.0,130,9,,6.21,29.940945,,,,,,,,,,-RA,SCT,2500,BKN,5000,OVC,10000,,,VFR,,,,,,,,,,,,METAR,17.0
SBPJ 072200Z VRB01KT CAVOK 26/19 Q1013,SBPJ,2023-07-07T22:00:00Z,-10.28,-48.37,26.0,19.0,0,1,,6.21,29.911417,,,,,,,,,,,CAVOK,,,,,,,,VFR,,,,,,,,,,,,METAR,226.0
SBPA 072200Z 11011KT 8000 -RA BKN006 BKN022 BKN072 17/17 Q1013 RERA,SBPA,2023-07-07T22:00:00Z,-30.0,-51.17,17.0,17.0,110,11,,4.97,29.911417,,,,,,,,,,-RA,BKN,600,BKN,2200,BKN,7200,,,IFR,,,,,,,,,,,,METAR,3.0
SBNT 072200Z 20004KT 170V230 CAVOK 24/24 Q1013,SBNT,2023-07-07T22:00:00Z,-5.92,-35.25,24.0,24.0,200,4,,6.21,29.911417,,,,,,,,,,,CAVOK,,,,,,,,VFR,,,,,,,,,,,,METAR,51.0
SBNF 072200Z 12005KT CAVOK 20/18 Q1014,SBNF,2023-07-07T22:00:00Z,-26.88,-48.65,20.0,18.0,120,5,,6.21,29.940945,,,,,,,,,,,CAVOK,,,,,,,,VFR,,,,,,,,,,,,METAR,5.0
SBMQ 072200Z 06011KT 9999 FEW025 29/25 Q1011,SBMQ,2023-07-07T22:00:00Z,0.05,-51.07,29.0,25.0,60,11,,6.21,29.852362,,,,,,,,,,,FEW,2500,,,,,,,VFR,,,,,,,,,,,,METAR,15.0
SBMO 072200Z 12013KT 2200 RA BR BKN004 OVC009 23/23 Q1015,SBMO,2023-07-07T22:00:00Z,-9.52,-35.78,23.0,23.0,120,13,,1.37,29.970472,,,,,,,,,,RA BR,BKN,400,OVC,900,,,,,LIFR,,,,,,,,,,,,METAR,116.0
SBMN 072200Z 08004KT 9999 FEW025 29/22 Q1010,SBMN,2023-07-07T22:00:00Z,-3.13,-59.98,29.0,22.0,80,4,,6.21,29.822834,,,,,,,,,,,FEW,2500,,,,,,,VFR,,,,,,,,,,,,METAR,71.0
SBMA 072200Z 07003KT CAVOK 30/21 Q1011,SBMA,2023-07-07T22:00:00Z,-5.37,-49.13,30.0,21.0,70,3,,6.21,29.852362,,,,,,,,,,,CAVOK,,,,,,,,VFR,,,,,,,,,,,,METAR,110.0
SBLO 072200Z 08004KT CAVOK 21/13 Q1015,SBLO,2023-07-07T22:00:00Z,-23.33,-51.12,21.0,13.0,80,4,,6.21,29.970472,,,,,,,,,,,CAVOK,,,,,,,,VFR,,,,,,,,,,,,METAR,563.0
SBKP 072200Z 00000KT CAVOK 21/07 Q1017,SBKP,2023-07-07T22:00:00Z,-23.0,-47.13,21.0,7.0,0,0,,6.21,30.029528,,,,,,,,,,,CAVOK,,,,,,,,VFR,,,,,,,,,,,,METAR,659.0
SBJP 072200Z 18005KT 9999 FEW012 SCT070 23/23 Q1015,SBJP,2023-07-07T22:00:00Z,-7.15,-34.95,23.0,23.0,180,5,,6.21,29.970472,,,,,,,,,,,FEW,1200,SCT,7000,,,,,VFR,,,,,,,,,,,,METAR,66.0
SBGR 072200Z 00000KT CAVOK 16/10 Q1018,SBGR,2023-07-07T22:00:00Z,-23.42,-46.47,16.0,10.0,0,0,,6.21,30.059055,,,,,,,,,,,CAVOK,,,,,,,,VFR,,,,,,,,,,,,METAR,745.0
SBGO 072200Z 00000KT CAVOK 24/10 Q1017,SBGO,2023-07-07T22:00:00Z,-16.62,-49.22,24.0,10.0,0,0,,6.21,30.029528,,,,,,,,,,,CAVOK,,,,,,,,VFR,,,,,,,,,,,,METAR,740.0
SBGL 072200Z 35006KT CAVOK 21/14 Q1015,SBGL,2023-07-07T22:00:00Z,-22.82,-43.25,21.0,14.0,350,6,,6.21,29.970472,,,,,,,,,,,CAVOK,,,,,,,,VFR,,,,,,,,,,,,METAR,3.0
SBFZ 072200Z 10006KT CAVOK 27/23 Q1012,SBFZ,2023-07-07T22:00:00Z,-3.77,-38.52,27.0,23.0,100,6,,6.21,29.88189,,,,,,,,,,,CAVOK,,,,,,,,VFR,,,,,,,,,,,,METAR,32.0
SBFN 072200Z AUTO 11010KT 090V150 9999 FEW021 26/23 Q1014,SBFN,2023-07-07T22:00:00Z,-3.85,-32.42,26.0,23.0,110,10,,6.21,29.940945,,,TRUE,,,,,,,,FEW,2100,,,,,,,VFR,,,,,,,,,,,,METAR,52.0
SBFL 072200Z 14006KT 9999 BKN025 OVC100 20/19 Q1014,SBFL,2023-07-07T22:00:00Z,-27.67,-48.53,20.0,19.0,140,6,,6.21,29.940945,,,,,,,,,,,BKN,2500,OVC,10000,,,,,MVFR,,,,,,,,,,,,METAR,5.0
SBFI 072200Z 04004KT 9999 FEW030 BKN070 22/17 Q1010,SBFI,2023-07-07T22:00:00Z,-25.6,-54.48,22.0,17.0,40,4,,6.21,29.822834,,,,,,,,,,,FEW,3000,BKN,7000,,,,,VFR,,,,,,,,,,,,METAR,233.0
SBEG 072200Z 11009KT 9999 FEW025 30/22 Q1010,SBEG,2023-07-07T22:00:00Z,-3.03,-60.03,30.0,22.0,110,9,,6.21,29.822834,,,,,,,,,,,FEW,2500,,,,,,,VFR,,,,,,,,,,,,METAR,69.0
SBCZ 072200Z 00000KT 9999 FEW030 30/24 Q1009,SBCZ,2023-07-07T22:00:00Z,-7.58,-72.77,30.0,24.0,0,0,,6.21,29.793306,,,,,,,,,,,FEW,3000,,,,,,,VFR,,,,,,,,,,,,METAR,193.0
SBCY 072200Z 02004KT CAVOK 30/14 Q1011,SBCY,2023-07-07T22:00:00Z,-15.65,-56.12,30.0,14.0,20,4,,6.21,29.852362,,,,,,,,,,,CAVOK,,,,,,,,VFR,,,,,,,,,,,,METAR,182.0
SBCT 072200Z 02004KT 9000 NSC 18/11 Q1017,SBCT,2023-07-07T22:00:00Z,-25.52,-49.17,18.0,11.0,20,4,,5.59,30.029528,,,,,,,,,,,CLR,,,,,,,,VFR,,,,,,,,,,,,METAR,914.0
SBCP 072200Z 34008KT CAVOK 20/16 Q1016,SBCP,2023-07-07T22:00:00Z,-21.7,-41.3,20.0,16.0,340,8,,6.21,30.0,,,,,,,,,,,CAVOK,,,,,,,,VFR,,,,,,,,,,,,METAR,15.0
SBCG 072200Z 36005KT CAVOK 25/13 Q1013,SBCG,2023-07-07T22:00:00Z,-20.47,-54.67,25.0,13.0,360,5,,6.21,29.911417,,,,,,,,,,,CAVOK,,,,,,,,VFR,,,,,,,,,,,,METAR,556.0
SBCF 072200Z 03006KT CAVOK 20/06 Q1019,SBCF,2023-07-07T22:00:00Z,-19.63,-43.97,20.0,6.0,30,6,,6.21,30.088583,,,,,,,,,,,CAVOK,,,,,,,,VFR,,,,,,,,,,,,METAR,825.0
SBCB 072200Z 12006KT CAVOK 19/18 Q1016,SBCB,2023-07-07T22:00:00Z,-22.92,-42.08,19.0,18.0,120,6,,6.21,30.0,,,,,,,,,,,CAVOK,,,,,,,,VFR,,,,,,,,,,,,METAR,3.0
SBBV 072200Z 05006KT 9999 FEW040 30/23 Q1010,SBBV,2023-07-07T22:00:00Z,2.85,-60.7,30.0,23.0,50,6,,6.21,29.822834,,,,,,,,,,,FEW,4000,,,,,,,VFR,,,,,,,,,,,,METAR,80.0
SBBR 072200Z 16004KT CAVOK 22/04 Q1019,SBBR,2023-07-07T22:00:00Z,-15.87,-47.92,22.0,4.0,160,4,,6.21,30.088583,,,,,,,,,,,CAVOK,,,,,,,,VFR,,,,,,,,,,,,METAR,1051.0
SBBG 072200Z AUTO 10012KT 9999 -RA OVC013 ///// Q//// RERA,SBBG,2023-07-07T22:00:00Z,-31.38,-54.12,,,100,12,,6.21,,,,TRUE,,,,,,,-RA,OVC,1300,,,,,,,MVFR,,,,,,,,,,,,METAR,182.0
SBBE 072200Z 07004KT 9999 FEW040 27/23 Q1011,SBBE,2023-07-07T22:00:00Z,-1.37,-48.47,27.0,23.0,70,4,,6.21,29.852362,,,,,,,,,,,FEW,4000,,,,,,,VFR,,,,,,,,,,,,METAR,16.0
SBAR 072200Z 10011KT 9999 FEW020 SCT048 OVC080 26/23 Q1015,SBAR,2023-07-07T22:00:00Z,-10.98,-37.07,26.0,23.0,100,11,,6.21,29.970472,,,,,,,,,,,FEW,2000,SCT,4800,OVC,8000,,,VFR,,,,,,,,,,,,METAR,4.0
SAZS 072200Z 19001KT 9999 -RA SCT015 BKN028 BKN050 02/00 Q1012 RMK PP///,SAZS,2023-07-07T22:00:00Z,-41.15,-71.17,2.0,0.0,190,1,,6.21,29.88189,,,,,,,,,,-RA,SCT,1500,BKN,2800,BKN,5000,,,MVFR,,,,,,,,,,,,METAR,843.0
SAZN 072200Z 09004KT CAVOK 09/00 Q1014,SAZN,2023-07-07T22:00:00Z,-38.95,-68.15,9.0,0.0,90,4,,6.21,29.940945,,,,,,,,,,,CAVOK,,,,,,,,VFR,,,,,,,,,,,,METAR,273.0
SAZM 072200Z 00000KT CAVOK 06/03 Q1019 RMK PP///,SAZM,2023-07-07T22:00:00Z,-37.92,-57.57,6.0,3.0,0,0,,6.21,30.088583,,,,,,,,,,,CAVOK,,,,,,,,VFR,,,,,,,,,,,,METAR,17.0
SAWH 072200Z 25016KT 9999 SCT035 02/M03 Q1014 RMK PP000,SAWH,2023-07-07T22:00:00Z,-54.85,-68.3,2.0,-3.0,250,16,,6.21,29.940945,,,,,,,,,,,SCT,3500,,,,,,,VFR,,,,,,,,,,,,METAR,22.0
SAWE 072200Z 22004KT CAVOK M04/M05 Q1013 RMK PP000,SAWE,2023-07-07T22:00:00Z,-53.78,-67.75,-4.0,-5.0,220,4,,6.21,29.911417,,,,,,,,,,,CAVOK,,,,,,,,VFR,,,,,,,,,,,,METAR,22.0
SAVC 072200Z 30005KT CAVOK 02/M02 Q1018 RMK PP000,SAVC,2023-07-07T22:00:00Z,-45.78,-67.47,2.0,-2.0,300,5,,6.21,30.059055,,,,,,,,,,,CAVOK,,,,,,,,VFR,,,,,,,,,,,,METAR,58.0
SASJ 072200Z 14006KT 9999 SCT020 OVC120 19/15 Q1011 RMK PP000,SASJ,2023-07-07T22:00:00Z,-24.38,-65.1,19.0,15.0,140,6,,6.21,29.852362,,,,,,,,,,,SCT,2000,OVC,12000,,,,,VFR,,,,,,,,,,,,METAR,913.0
SASA 072200Z 06007KT 9999 SCT029 SCT038 BKN050 18/13 Q1012 RMK PP000,SASA,2023-07-07T22:00:00Z,-24.85,-65.48,18.0,13.0,60,7,,6.21,29.88189,,,,,,,,,,,SCT,2900,SCT,3800,BKN,5000,,,VFR,,,,,,,,,,,,METAR,1235.0
SARP 072200Z 11003KT 9999 SCT040 BKN100 20/19 Q1008,SARP,2023-07-07T22:00:00Z,-27.38,-55.97,20.0,19.0,110,3,,6.21,29.763779,,,,,,,,,,,SCT,4000,BKN,10000,,,,,VFR,,,,,,,,,,,,METAR,123.0
SARI 072200Z 06003KT 010V090 CAVOK 22/17 Q1010 RMK PP000,SARI,2023-07-07T22:00:00Z,-25.73,-54.47,22.0,17.0,60,3,,6.21,29.822834,,,,,,,,,,,CAVOK,,,,,,,,VFR,,,,,,,,,,,,METAR,268.0
SARF 072200Z 03005KT 9999 BKN025 SCT100 26/20 Q1005,SARF,2023-07-07T22:00:00Z,-26.22,-58.22,26.0,20.0,30,5,,6.21,29.675198,,,,,,,,,,,BKN,2500,SCT,10000,,,,,MVFR,,,,,,,,,,,,METAR,65.0
SARE 072200Z VRB02KT 9999 SCT047 BKN110 22/18 Q1006 RMK PP///,SARE,2023-07-07T22:00:00Z,-27.43,-59.05,22.0,18.0,0,2,,6.21,29.704725,,,,,,,,,,,SCT,4700,BKN,11000,,,,,VFR,,,,,,,,,,,,METAR,52.0
SAOC 072200Z 02008KT SCT020 BKN100 11//04 Q1013,SAOC,2023-07-07T22:00:00Z,-33.08,-64.27,,,20,8,,,29.911417,,,,,,,,,,,SCT,2000,BKN,10000,,,,,,,,,,,,,,,,,METAR,422.0
SANT 072200Z 15004KT 3500 -DZ BR BKN002 OVC004 14/14 Q1012 RMK PP999,SANT,2023-07-07T22:00:00Z,-26.85,-65.1,14.0,14.0,150,4,,2.17,29.88189,,,,,,,,,,-DZ BR,BKN,200,OVC,400,,,,,LIFR,,,,,,,,,,,,METAR,446.0
SAME 072200Z 05002KT CAVOK 11/M01 Q1011,SAME,2023-07-07T22:00:00Z,-32.82,-68.78,11.0,-1.0,50,2,,6.21,29.852362,,,,,,,,,,,CAVOK,,,,,,,,VFR,,,,,,,,,,,,METAR,709.0
SAEZ 072200Z 10008KT CAVOK 11/07 Q1016 NOSIG RMK PP000,SAEZ,2023-07-07T22:00:00Z,-34.82,-58.53,11.0,7.0,100,8,,6.21,30.0,,,,,,TRUE,,,,,CAVOK,,,,,,,,VFR,,,,,,,,,,,,METAR,16.0
SADF 072200Z 13011KT CAVOK 13/08 Q1016 RMK PP000,SADF,2023-07-07T22:00:00Z,-34.45,-58.58,13.0,8.0,130,11,,6.21,30.0,,,,,,,,,,,CAVOK,,,,,,,,VFR,,,,,,,,,,,,METAR,4.0
SACO 072200Z 19007KT 9999 OVC024 11/05 Q1014 NOSIG RMK PP000,SACO,2023-07-07T22:00:00Z,-31.32,-64.22,11.0,5.0,190,7,,6.21,29.940945,,,,,,TRUE,,,,,OVC,2400,,,,,,,MVFR,,,,,,,,,,,,METAR,474.0
SABE 072200Z 11015KT 9999 SCT020 BKN200 12/08 Q1017 NOSIG RMK PP000,SABE,2023-07-07T22:00:00Z,-34.57,-58.42,12.0,8.0,110,15,,6.21,30.029528,,,,,,TRUE,,,,,SCT,2000,BKN,20000,,,,,VFR,,,,,,,,,,,,METAR,3.0
SAAR 072200Z 13010KT CAVOK 15/07 Q1013 RMK PP000,SAAR,2023-07-07T22:00:00Z,-32.92,-60.77,15.0,7.0,130,10,,6.21,29.911417,,,,,,,,,,,CAVOK,,,,,,,,VFR,,,,,,,,,,,,METAR,24.0
RPVP 072200Z 27006KT 9999 FEW019 SCT240 25/24 Q1011 RMK A2985,RPVP,2023-07-07T22:00:00Z,9.75,118.75,25.0,24.0,270,6,,6.21,29.852362,,,,,,,,,,,FEW,1900,SCT,24000,,,,,VFR,,,,,,,,,,,,METAR,15.0
RPVM 072200Z VRB01KT 9999 FEW020 BKN250 27/24 Q1011 NOSIG RMK A2985,RPVM,2023-07-07T22:00:00Z,10.32,123.98,27.0,24.0,0,1,,6.21,29.852362,,,,,,TRUE,,,,,FEW,2000,BKN,25000,,,,,VFR,,,,,,,,,,,,METAR,9.0
RPMZ 072200Z VRB01KT 9999 FEW016CB SCT300 24/24 Q1011 RMK A2985 CB W,RPMZ,2023-07-07T22:00:00Z,6.92,122.07,24.0,24.0,0,1,,6.21,29.852362,,,,,,,,,,,FEW,1600,SCT,30000,,,,,VFR,,,,,,,,,,,,METAR,8.0
RPMD 072200Z 33003KT 300V010 9999 VCSH FEW015 BKN090 BKN260 25/25 Q1011 RMK A2985 VCSH E/SE,RPMD,2023-07-07T22:00:00Z,7.12,125.65,25.0,25.0,330,3,,6.21,29.852362,,,,,,,,,,VCSH,FEW,1500,BKN,9000,BKN,26000,,,VFR,,,,,,,,,,,,METAR,19.0
RPLL 072200Z VRB03KT 9000 FEW025 28/26 Q1011 NOSIG RMK A2985,RPLL,2023-07-07T22:00:00Z,14.52,121.0,28.0,26.0,0,3,,5.59,29.852362,,,,,,TRUE,,,,,FEW,2500,,,,,,,VFR,,,,,,,,,,,,METAR,15.0
RPLI 072200Z 10004KT 9999 SCT017 26/25 Q1011 NOSIG RMK A2985,RPLI,2023-07-07T22:00:00Z,18.17,120.52,26.0,25.0,100,4,,6.21,29.852362,,,,,,TRUE,,,,,SCT,1700,,,,,,,VFR,,,,,,,,,,,,METAR,5.0
RPLC 072200Z 29002KT 9999 FEW020 SCT300 26/23 Q1012 NOSIG RMK A2988,RPLC,2023-07-07T22:00:00Z,15.18,120.55,26.0,23.0,290,2,,6.21,29.88189,,,,,,TRUE,,,,,FEW,2000,SCT,30000,,,,,VFR,,,,,,,,,,,,METAR,138.0
RPLB 072200Z 05005KT 9999 FEW020 26/23 Q1012 NOSIG RMK A2988,RPLB,2023-07-07T22:00:00Z,14.8,120.27,26.0,23.0,50,5,,6.21,29.88189,,,,,,TRUE,,,,,FEW,2000,,,,,,,VFR,,,,,,,,,,,,METAR,19.0
ROYN 072200Z AUTO 19013KT 9999 SCT013 BKN017 BKN024 29/27 Q1009,ROYN,2023-07-07T22:00:00Z,24.47,122.97,29.0,27.0,190,13,,6.21,29.793306,,,TRUE,,,,,,,,SCT,1300,BKN,1700,BKN,2400,,,MVFR,,,,,,,,,,,,METAR,21.0
RORY 072200Z AUTO 20008KT 9999 NCD 29/26 Q1011,RORY,2023-07-07T22:00:00Z,27.05,128.4,29.0,26.0,200,8,,6.21,29.852362,,,TRUE,,,,,,,,CLR,,,,,,,,VFR,,,,,,,,,,,,METAR,13.0
RORT 072200Z AUTO 19017KT 9999 FEW015 SCT017 BKN022 29/27 Q1010,RORT,2023-07-07T22:00:00Z,24.63,124.7,29.0,27.0,190,17,,6.21,29.822834,,,TRUE,,,,,,,,FEW,1500,SCT,1700,BKN,2200,,,MVFR,,,,,,,,,,,,METAR,9.0
RORS 072200Z AUTO 19012KT 9999 FEW017 29/26 Q1010,RORS,2023-07-07T22:00:00Z,24.82,125.15,29.0,26.0,190,12,,6.21,29.822834,,,TRUE,,,,,,,,FEW,1700,,,,,,,VFR,,,,,,,,,,,,METAR,13.0
RORK 072200Z AUTO 21010KT 9999 FEW013 29/26 Q1013,RORK,2023-07-07T22:00:00Z,25.93,131.32,29.0,26.0,210,10,,6.21,29.911417,,,TRUE,,,,,,,,FEW,1300,,,,,,,VFR,,,,,,,,,,,,METAR,11.0
ROMY 072200Z AUTO 20014KT 9999 FEW015 28/26 Q1010,ROMY,2023-07-07T22:00:00Z,24.78,125.27,28.0,26.0,200,14,,6.21,29.822834,,,TRUE,,,,,,,,FEW,1500,,,,,,,VFR,,,,,,,,,,,,METAR,38.0
ROMD 072200Z AUTO 20008KT 9999 NCD 29/26 Q1013,ROMD,2023-07-07T22:00:00Z,25.83,131.25,29.0,26.0,200,8,,6.21,29.911417,,,TRUE,,,,,,,,CLR,,,,,,,,VFR,,,,,,,,,,,,METAR,45.0
ROIG 072200Z AUTO 20015KT 9999 FEW013 SCT023 29/27 Q1010,ROIG,2023-07-07T22:00:00Z,24.38,124.23,29.0,27.0,200,15,,6.21,29.822834,,,TRUE,,,,,,,,FEW,1300,SCT,2300,,,,,VFR,,,,,,,,,,,,METAR,37.0
ROAH 072200Z 19014KT 9999 VCSH SCT020 29/27 Q1011 RMK 4CU020 A2986,ROAH,2023-07-07T22:00:00Z,26.18,127.65,29.0,27.0,190,14,,6.21,29.852362,,,,,,,,,,VCSH,SCT,2000,,,,,,,VFR,,,,,,,,,,,,METAR,6.0
RKTU 072200Z 02002KT 9999 FEW005 BKN015 BKN030 22/21 Q1003,RKTU,2023-07-07T22:00:00Z,36.7,127.5,22.0,21.0,20,2,,6.21,29.616142,,,,,,,,,,,FEW,500,BKN,1500,BKN,3000,,,MVFR,,,,,,,,,,,,METAR,46.0
RKTN 072200Z 34003KT 4800 BR BKN010 OVC020 21/20 Q1004,RKTN,2023-07-07T22:00:00Z,35.88,128.65,21.0,20.0,340,3,,2.98,29.64567,,,,,,,,,,BR,BKN,1000,OVC,2000,,,,,IFR,,,,,,,,,,,,METAR,25.0
RKSS 072200Z 08008KT 9999 SCT015 BKN025 23/20 Q1002 NOSIG,RKSS,2023-07-07T22:00:00Z,37.55,126.78,23.0,20.0,80,8,,6.21,29.586615,,,,,,TRUE,,,,,SCT,1500,BKN,2500,,,,,MVFR,,,,,,,,,,,,METAR,18.0
RKSI 072200Z 10005KT 060V140 9999 BKN008 23/21 Q1002 NOSIG,RKSI,2023-07-07T22:00:00Z,37.47,126.45,23.0,21.0,100,5,,6.21,29.586615,,,,,,TRUE,,,,,BKN,800,,,,,,,IFR,,,,,,,,,,,,METAR,7.0
RKPK 072200Z 32001KT 6000 SCT005 BKN010 OVC030 22/20 Q1004,RKPK,2023-07-07T22:00:00Z,35.17,128.93,22.0,20.0,320,1,,3.73,29.64567,,,,,,,,,,,SCT,500,BKN,1000,OVC,3000,,,MVFR,,,,,,,,,,,,METAR,3.0
RKPC 072200Z 21014G28KT 170V260 2000 R07/P2000D R25/1900N +TSRA BR SCT010CB BKN025 OVC080 25/25 Q1003 WS R07 R25 NOSIG,RKPC,2023-07-07T22:00:00Z,33.5,126.48,25.0,25.0,210,14,28,1.24,29.616142,,,,,,TRUE,,,,+TSRA BR,SCT,1000,BKN,2500,OVC,8000,,,IFR,,,,,,,,,,,,METAR,23.0
RKNY 072200Z AUTO 32004KT 9999 ///010/// 21/19 Q1004,RKNY,2023-07-07T22:00:00Z,38.07,128.67,21.0,19.0,320,4,,6.21,29.64567,,,TRUE,,,,,,,,,,,,,,,,,,,,,,,,,,,,METAR,76.0
RKJB 072200Z 20005KT 9999 BKN010 OVC020 25/23 Q1003 NOSIG,RKJB,2023-07-07T22:00:00Z,34.98,126.38,25.0,23.0,200,5,,6.21,29.616142,,,,,,TRUE,,,,,BKN,1000,OVC,2000,,,,,MVFR,,,,,,,,,,,,METAR,16.0
RJTT 072200Z 20015KT 9999 -SHRA FEW005 SCT020 BKN100 27/25 Q1007 NOSIG RMK 1ST005 3CU020 7AC100 A2975,RJTT,2023-07-07T22:00:00Z,35.55,139.77,27.0,25.0,200,15,,6.21,29.734253,,,,,,TRUE,,,,-SHRA,FEW,500,SCT,2000,BKN,10000,,,VFR,,,,,,,,,,,,METAR,5.0
RJSY 072200Z 08006KT 9999 -RA FEW060 SCT100 BKN130 23/21 Q1007,RJSY,2023-07-07T22:00:00Z,38.82,139.78,23.0,21.0,80,6,,6.21,29.734253,,,,,,,,,,-RA,FEW,6000,SCT,10000,BKN,13000,,,VFR,,,,,,,,,,,,METAR,17.0
RJSS 072200Z 33005KT 9999 -RA FEW010 SCT080 BKN130 24/23 Q1007,RJSS,2023-07-07T22:00:00Z,38.13,140.92,24.0,23.0,330,5,,6.21,29.734253,,,,,,,,,,-RA,FEW,1000,SCT,8000,BKN,13000,,,VFR,,,,,,,,,,,,METAR,5.0
RJSN 072200Z 07005KT 5000 SHRA BR FEW010 SCT030 BKN050 22/22 Q1006,RJSN,2023-07-07T22:00:00Z,37.95,139.12,22.0,22.0,70,5,,3.11,29.704725,,,,,,,,,,SHRA BR,FEW,1000,SCT,3000,BKN,5000,,,MVFR,,,,,,,,,,,,METAR,4.0
RJSM 072200Z 32004KT 9999 FEW030 BKN160 BKN230 21/19 Q1007,RJSM,2023-07-07T22:00:00Z,40.7,141.37,21.0,19.0,320,4,,6.21,29.734253,,,,,,,,,,,FEW,3000,BKN,16000,BKN,23000,,,VFR,,,,,,,,,,,,METAR,31.0
RJSK 072200Z 12006KT 090V150 9999 -RA FEW060 SCT100 BKN120 22/20 Q1006,RJSK,2023-07-07T22:00:00Z,39.62,140.22,22.0,20.0,120,6,,6.21,29.704725,,,,,,,,,,-RA,FEW,6000,SCT,10000,BKN,12000,,,VFR,,,,,,,,,,,,METAR,95.0
RJSF 072200Z 09003KT 040V160 9999 -RA FEW015 SCT080 BKN110 22/20 Q1009,RJSF,2023-07-07T22:00:00Z,37.22,140.42,22.0,20.0,90,3,,6.21,29.793306,,,,,,,,,,-RA,FEW,1500,SCT,8000,BKN,11000,,,VFR,,,,,,,,,,,,METAR,373.0
RJSA 072200Z 08002KT CAVOK 22/18 Q1007,RJSA,2023-07-07T22:00:00Z,40.72,140.68,22.0,18.0,80,2,,6.21,29.734253,,,,,,,,,,,CAVOK,,,,,,,,VFR,,,,,,,,,,,,METAR,196.0
RJOT 072200Z 02003KT 330V060 9999 PRFG FEW001 SCT080 BKN/// 25/24 Q1007,RJOT,2023-07-07T22:00:00Z,34.22,134.02,25.0,24.0,20,3,,6.21,29.734253,,,,,,,,,,PRFG,FEW,100,SCT,8000,,,,,VFR,,,,,,,,,,,,METAR,181.0
RJOS 072200Z 17017KT 9999 FEW030 SCT100 BKN200 27/24 Q1005,RJOS,2023-07-07T22:00:00Z,34.12,134.62,27.0,24.0,170,17,,6.21,29.675198,,,,,,,,,,,FEW,3000,SCT,10000,BKN,20000,,,VFR,,,,,,,,,,,,METAR,3.0
RJOR 072200Z 19005KT 160V240 9999 -SHRA FEW015 SCT025 BKN040 27/23 Q1004,RJOR,2023-07-07T22:00:00Z,35.52,134.17,27.0,23.0,190,5,,6.21,29.64567,,,,,,,,,,-SHRA,FEW,1500,SCT,2500,BKN,4000,,,VFR,,,,,,,,,,,,METAR,11.0
RJOO 072200Z 24004KT 190V300 9999 FEW008 SCT060 BKN100 28/24 Q1007,RJOO,2023-07-07T22:00:00Z,34.78,135.43,28.0,24.0,240,4,,6.21,29.734253,,,,,,,,,,,FEW,800,SCT,6000,BKN,10000,,,VFR,,,,,,,,,,,,METAR,11.0
RJOM 072200Z 18011KT 9999 FEW020 SCT060 BKN080 29/24 Q1005,RJOM,2023-07-07T22:00:00Z,33.82,132.68,29.0,24.0,180,11,,6.21,29.675198,,,,,,,,,,,FEW,2000,SCT,6000,BKN,8000,,,VFR,,,,,,,,,,,,METAR,3.0
RJOK 072200Z 14006KT 5000 BR FEW003 SCT025 BKN040 26/26 Q1008,RJOK,2023-07-07T22:00:00Z,33.53,133.67,26.0,26.0,140,6,,3.11,29.763779,,,,,,,,,,BR,FEW,300,SCT,2500,BKN,4000,,,MVFR,,,,,,,,,,,,METAR,7.0
RJOH 072200Z 24004KT 220V280 3000 R25/1000VP1800D SHRA BR FEW008 BKN015 BKN020 BKN030CB 25/25 Q1004,RJOH,2023-07-07T22:00:00Z,35.48,133.25,25.0,25.0,240,4,,1.86,29.64567,,,,,,,,,,SHRA BR,FEW,800,BKN,1500,BKN,2000,BKN,3000,IFR,,,,,,,,,,,,METAR,6.0
RJOC 072200Z 20004KT 2000 +TSRA BR FEW002 SCT008 BKN020 FEW020CB 25/24 Q1004,RJOC,2023-07-07T22:00:00Z,35.42,132.88,25.0,24.0,200,4,,1.24,29.64567,,,,,,,,,,+TSRA BR,FEW,200,SCT,800,BKN,2000,FEW,2000,IFR,,,,,,,,,,,,METAR,2.0
RJOB 072200Z VRB01KT 6000 BCFG FEW000 SCT035 BKN045 24/23 Q1007,RJOB,2023-07-07T22:00:00Z,34.75,133.85,24.0,23.0,0,1,,3.73,29.734253,,,,,,,,,,BCFG,FEW,0,SCT,3500,BKN,4500,,,MVFR,,,,,,,,,,,,METAR,242.0
RJOA 072200Z 23003KT 190V280 7000 -SHRA BCFG FEW000 SCT008 BKN025 24/23 Q1007,RJOA,2023-07-07T22:00:00Z,34.43,132.92,24.0,23.0,230,3,,4.35,29.734253,,,,,,,,,,-SHRA BCFG,FEW,0,SCT,800,BKN,2500,,,MVFR,,,,,,,,,,,,METAR,318.0
RJNT 072200Z 20004KT 150V240 8000 -SHRA FEW003 SCT008 BKN060 23/22 Q1004,RJNT,2023-07-07T22:00:00Z,36.63,137.18,23.0,22.0,200,4,,4.97,29.64567,,,,,,,,,,-SHRA,FEW,300,SCT,800,BKN,6000,,,MVFR,,,,,,,,,,,,METAR,30.0
RJNK 072200Z 21010KT 9999 -SHRA SCT030 BKN050 OVC100 26/24 Q1004,RJNK,2023-07-07T22:00:00Z,36.38,136.42,26.0,24.0,210,10,,6.21,29.64567,,,,,,,,,,-SHRA,SCT,3000,BKN,5000,OVC,10000,,,VFR,,,,,,,,,,,,METAR,7.0
RJKI 072200Z AUTO 21010KT 9999 SCT009 SCT013 BKN019 28/26 Q1011,RJKI,2023-07-07T22:00:00Z,28.32,129.92,28.0,26.0,210,10,,6.21,29.852362,,,TRUE,,,,,,,,SCT,900,SCT,1300,BKN,1900,,,MVFR,,,,,,,,,,,,METAR,6.0
RJKA 072200Z AUTO 22015KT 9999 BKN010 28/27 Q1010,RJKA,2023-07-07T22:00:00Z,28.42,129.72,28.0,27.0,220,15,,6.21,29.822834,,,TRUE,,,,,,,,BKN,1000,,,,,,,MVFR,,,,,,,,,,,,METAR,7.0
RJGG 072200Z 09005KT 9999 VCSH FEW020 BKN170 BKN/// 27/25 Q1007 NOSIG,RJGG,2023-07-07T22:00:00Z,34.87,136.8,27.0,25.0,90,5,,6.21,29.734253,,,,,,TRUE,,,,VCSH,FEW,2000,BKN,17000,,,,,VFR,,,,,,,,,,,,METAR,5.0
RJFU 072200Z 22026KT 8000 FEW015 SCT025 BKN050 29/25 Q1006,RJFU,2023-07-07T22:00:00Z,32.92,129.92,29.0,25.0,220,26,,4.97,29.704725,,,,,,,,,,,FEW,1500,SCT,2500,BKN,5000,,,MVFR,,,,,,,,,,,,METAR,2.0
RJFT 072200Z 21011KT 7000 -SHRA FEW010 BKN015 26/24 Q1008,RJFT,2023-07-07T22:00:00Z,32.83,130.85,26.0,24.0,210,11,,4.35,29.763779,,,,,,,,,,-SHRA,FEW,1000,BKN,1500,,,,,MVFR,,,,,,,,,,,,METAR,188.0
RJFS 072200Z 20017KT 9999 VCSH FEW025 SCT030 BKN045 27/26 Q1005,RJFS,2023-07-07T22:00:00Z,33.15,130.3,27.0,26.0,200,17,,6.21,29.675198,,,,,,,,,,VCSH,FEW,2500,SCT,3000,BKN,4500,,,VFR,,,,,,,,,,,,METAR,2.0
RJFR 072200Z 22012KT 9999 -SHRA FEW010 SCT020 BKN030 28/25 Q1005,RJFR,2023-07-07T22:00:00Z,33.83,131.03,28.0,25.0,220,12,,6.21,29.675198,,,,,,,,,,-SHRA,FEW,1000,SCT,2000,BKN,3000,,,MVFR,,,,,,,,,,,,METAR,9.0
RJFO 072200Z 35004KT 9999 FEW020 SCT050 BKN/// 25/24 Q1006,RJFO,2023-07-07T22:00:00Z,33.47,131.73,25.0,24.0,350,4,,6.21,29.704725,,,,,,,,,,,FEW,2000,SCT,5000,,,,,VFR,,,,,,,,,,,,METAR,3.0
RJFM 072200Z AUTO 18003KT 120V260 9999 FEW038 31/23 Q1008,RJFM,2023-07-07T22:00:00Z,31.87,131.43,31.0,23.0,180,3,,6.21,29.763779,,,TRUE,,,,,,,,FEW,3800,,,,,,,VFR,,,,,,,,,,,,METAR,10.0
RJFK 072200Z 22009KT 9999 FEW007 SCT020 BKN050 27/24 Q1010,RJFK,2023-07-07T22:00:00Z,31.8,130.72,27.0,24.0,220,9,,6.21,29.822834,,,,,,,,,,,FEW,700,SCT,2000,BKN,5000,,,VFR,,,,,,,,,,,,METAR,271.0
RJFF 072200Z 19005KT 9999 -SHRA FEW003 BKN025 BKN030 28/25 Q1005 NOSIG RMK 1ST003 5CU025 6CU030 A2969,RJFF,2023-07-07T22:00:00Z,33.58,130.45,28.0,25.0,190,5,,6.21,29.675198,,,,,,TRUE,,,,-SHRA,FEW,300,BKN,2500,BKN,3000,,,MVFR,,,,,,,,,,,,METAR,7.0
RJEC 072200Z VRB02KT 9999 FEW020 BKN/// 21/19 Q1008,RJEC,2023-07-07T22:00:00Z,43.67,142.43,21.0,19.0,0,2,,6.21,29.763779,,,,,,,,,,,FEW,2000,,,,,,,VFR,,,,,,,,,,,,METAR,209.0
RJDC 072200Z 08009KT 9999 FEW015 SCT030 BKN060 25/24 Q1005,RJDC,2023-07-07T22:00:00Z,33.92,131.27,25.0,24.0,80,9,,6.21,29.675198,,,,,,,,,,,FEW,1500,SCT,3000,BKN,6000,,,VFR,,,,,,,,,,,,METAR,5.0
RJDB 072200Z AUTO 21011KT 5000 BR FEW004 OVC013 26/25 Q1005,RJDB,2023-07-07T22:00:00Z,33.75,129.78,26.0,25.0,210,11,,3.11,29.675198,,,TRUE,,,,,,,BR,FEW,400,OVC,1300,,,,,MVFR,,,,,,,,,,,,METAR,13.0
RJCO 072200Z 14008KT 9999 FEW008 SCT150 BKN210 21/20 Q1009,RJCO,2023-07-07T22:00:00Z,43.12,141.37,21.0,20.0,140,8,,6.21,29.793306,,,,,,,,,,,FEW,800,SCT,15000,BKN,21000,,,VFR,,,,,,,,,,,,METAR,7.0
RJCK 072200Z VRB02KT 9999 FEW005 BKN/// 19/17 Q1007,RJCK,2023-07-07T22:00:00Z,43.03,144.18,19.0,17.0,0,2,,6.21,29.734253,,,,,,,,,,,FEW,500,,,,,,,VFR,,,,,,,,,,,,METAR,94.0
RJCH 072200Z 01003KT 330V050 9999 FEW012 SCT040 BKN150 21/19 Q1007,RJCH,2023-07-07T22:00:00Z,41.77,140.82,21.0,19.0,10,3,,6.21,29.734253,,,,,,,,,,,FEW,1200,SCT,4000,BKN,15000,,,VFR,,,,,,,,,,,,METAR,36.0
RJCC 072200Z 14004KT 5000 BR FEW002 SCT003 BKN/// 19/18 Q1007,RJCC,2023-07-07T22:00:00Z,42.77,141.68,19.0,18.0,140,4,,3.11,29.734253,,,,,,,,,,BR,FEW,200,SCT,300,,,,,MVFR,,,,,,,,,,,,METAR,19.0
RJBE 072200Z 29006KT 7000 FEW003 SCT006 BKN070 26/24 Q1007,RJBE,2023-07-07T22:00:00Z,34.63,135.23,26.0,24.0,290,6,,4.35,29.734253,,,,,,,,,,,FEW,300,SCT,600,BKN,7000,,,MVFR,,,,,,,,,,,,METAR,5.0
RJBB 072200Z 19023G33KT 9999 FEW020 SCT060 BKN100 28/24 Q1005 NOSIG,RJBB,2023-07-07T22:00:00Z,34.43,135.25,28.0,24.0,190,23,33,6.21,29.675198,,,,,,TRUE,,,,,FEW,2000,SCT,6000,BKN,10000,,,VFR,,,,,,,,,,,,METAR,8.0
RJAH 072200Z VRB02KT 9999 -SHRA FEW010 BKN020 BKN080 23/23 Q1008,RJAH,2023-07-07T22:00:00Z,36.17,140.42,23.0,23.0,0,2,,6.21,29.763779,,,,,,,,,,-SHRA,FEW,1000,BKN,2000,BKN,8000,,,MVFR,,,,,,,,,,,,METAR,31.0
RJAA 072200Z 18005KT 150V210 9999 BKN013 26/24 Q1007 NOSIG,RJAA,2023-07-07T22:00:00Z,35.77,140.38,26.0,24.0,180,5,,6.21,29.734253,,,,,,TRUE,,,,,BKN,1300,,,,,,,MVFR,,,,,,,,,,,,METAR,36.0
RCTP 072200Z 24014KT 9999 FEW020 30/25 Q1009 NOSIG RMK A2982,RCTP,2023-07-07T22:00:00Z,25.07,121.22,30.0,25.0,240,14,,6.21,29.793306,,,,,,TRUE,,,,,FEW,2000,,,,,,,VFR,,,,,,,,,,,,METAR,33.0
RCSS 072200Z 30010KT 9999 FEW025 30/21 Q1009 NOSIG RMK 28009KT/R10 A2982,RCSS,2023-07-07T22:00:00Z,25.07,121.55,30.0,21.0,300,10,,6.21,29.793306,,,,,,TRUE,,,,,FEW,2500,,,,,,,VFR,,,,,,,,,,,,METAR,8.0
RCNN 072200Z 08002KT 9999 FEW012 SCT030 27/24 Q1012 NOSIG RMK A2989,RCNN,2023-07-07T22:00:00Z,22.93,120.2,27.0,24.0,80,2,,6.21,29.88189,,,,,,TRUE,,,,,FEW,1200,SCT,3000,,,,,VFR,,,,,,,,,,,,METAR,15.0
RCMQ 072200Z 18007KT 9999 FEW012 SCT025 27/22 Q1012 NOSIG RMK A2991,RCMQ,2023-07-07T22:00:00Z,24.27,120.62,27.0,22.0,180,7,,6.21,29.88189,,,,,,TRUE,,,,,FEW,1200,SCT,2500,,,,,VFR,,,,,,,,,,,,METAR,202.0
RCKH 072200Z 04005KT 9999 FEW014 SCT025 28/23 Q1011 NOSIG RMK A2988,RCKH,2023-07-07T22:00:00Z,22.57,120.33,28.0,23.0,40,5,,6.21,29.852362,,,,,,TRUE,,,,,FEW,1400,SCT,2500,,,,,VFR,,,,,,,,,,,,METAR,6.0
RCFN 072200Z 32004KT 290V010 9999 FEW040 SCT300 26/23 Q1010 NOSIG RMK A2983,RCFN,2023-07-07T22:00:00Z,22.77,121.1,26.0,23.0,320,4,,6.21,29.822834,,,,,,TRUE,,,,,FEW,4000,SCT,30000,,,,,VFR,,,,,,,,,,,,METAR,42.0
PLCH 072200Z 07007KT 9999 SCT020 32/25 Q1010,PLCH,2023-07-07T22:00:00Z,1.98,-157.35,32.0,25.0,70,7,,6.21,29.822834,,,,,,,,,,,SCT,2000,,,,,,,VFR,,,,,,,,,,,,METAR,5.0
PKWA 072200Z AUTO 09012KT 10SM SCT020 SCT028 SCT040 30/25 A2983 RMK AO2 T02990250 TSNO,PKWA,2023-07-07T22:00:00Z,8.72,167.72,29.9,25.0,90,12,,10.0,29.828741,,,TRUE,TRUE,,,TRUE,,,,SCT,2000,SCT,2800,SCT,4000,,,VFR,,,,,,,,,,,,METAR,6.0
PHHI 072200Z AUTO 08011KT 10SM FEW006 SCT010 SCT014 BKN023 BKN030 OVC046 23/21 A3012 RMK AO2 CIG 010V023 SLP191 $,PHHI,2023-07-07T22:00:00Z,21.48,-158.05,23.0,21.0,80,11,,10.0,30.121063,1019.1,,TRUE,TRUE,TRUE,,,,,,FEW,600,SCT,1000,SCT,1400,BKN,2300,MVFR,,,,,,,,,,,,SPECI,246.0
OTHH 072200Z 24004KT 220V320 CAVOK 34/18 Q0997 NOSIG,OTHH,2023-07-07T22:00:00Z,25.27,51.6,34.0,18.0,240,4,,6.21,29.438976,,,,,,TRUE,,,,,CAVOK,,,,,,,,VFR,,,,,,,,,,,,METAR,3.0
OTBD 072200Z 23004KT CAVOK 36/15 Q0997 NOSIG,OTBD,2023-07-07T22:00:00Z,25.25,51.57,36.0,15.0,230,4,,6.21,29.438976,,,,,,TRUE,,,,,CAVOK,,,,,,,,VFR,,,,,,,,,,,,METAR,13.0
OSLK 072200Z 12010KT 9999 FEW026 SCT030 24/20 Q1007,OSLK,2023-07-07T22:00:00Z,35.4,35.95,24.0,20.0,120,10,,6.21,29.734253,,,,,,,,,,,FEW,2600,SCT,3000,,,,,VFR,,,,,,,,,,,,METAR,47.0
OSDI 072200Z 22018KT CAVOK 20/15 Q1009,OSDI,2023-07-07T22:00:00Z,33.42,36.52,20.0,15.0,220,18,,6.21,29.793306,,,,,,,,,,,CAVOK,,,,,,,,VFR,,,,,,,,,,,,METAR,614.0
ORSU 072200Z 29006KT CAVOK 28/07 Q1006,ORSU,2023-07-07T22:00:00Z,35.57,45.32,28.0,7.0,290,6,,6.21,29.704725,,,,,,,,,,,CAVOK,,,,,,,,VFR,,,,,,,,,,,,METAR,760.0
ORNI 072200Z 30005KT 8000 NSC 33/05 Q0998,ORNI,2023-07-07T22:00:00Z,31.98,44.4,33.0,5.0,300,5,,4.97,29.468504,,,,,,,,,,,CLR,,,,,,,,MVFR,,,,,,,,,,,,METAR,33.0
ORMM 072200Z 30006KT CAVOK 33/08 Q0997 NOSIG,ORMM,2023-07-07T22:00:00Z,30.53,47.67,33.0,8.0,300,6,,6.21,29.438976,,,,,,TRUE,,,,,CAVOK,,,,,,,,VFR,,,,,,,,,,,,METAR,2.0
ORER 072200Z 30006KT 9000 NSC 34/06 Q1003,ORER,2023-07-07T22:00:00Z,36.23,43.97,34.0,6.0,300,6,,5.59,29.616142,,,,,,,,,,,CLR,,,,,,,,VFR,,,,,,,,,,,,METAR,399.0
OPSK 072200Z 18010KT 4000 HZ SCT040 SCT100 30/24 Q0998 NOSIG,OPSK,2023-07-07T22:00:00Z,27.72,68.8,30.0,24.0,180,10,,2.49,29.468504,,,,,,TRUE,,,,HZ,SCT,4000,SCT,10000,,,,,IFR,,,,,,,,,,,,METAR,62.0
OPPS 072200Z 18004KT 6000 HZ FEW040 BKN100 26/21 Q1004,OPPS,2023-07-07T22:00:00Z,33.98,71.52,26.0,21.0,180,4,,3.73,29.64567,,,,,,,,,,HZ,FEW,4000,BKN,10000,,,,,MVFR,,,,,,,,,,,,METAR,356.0
OPNH 072200Z 00000KT 6000 SCT035 BKN100 29/26 Q0998,OPNH,2023-07-07T22:00:00Z,26.22,68.38,29.0,26.0,0,0,,3.73,29.468504,,,,,,,,,,,SCT,3500,BKN,10000,,,,,MVFR,,,,,,,,,,,,METAR,30.0
OPMT 072200Z 00000KT 4000 FU FEW040 SCT100 29/23 Q1001 NOSIG,OPMT,2023-07-07T22:00:00Z,30.2,71.42,29.0,23.0,0,0,,2.49,29.557087,,,,,,TRUE,,,,FU,FEW,4000,SCT,10000,,,,,IFR,,,,,,,,,,,,METAR,122.0
OPKC 072200Z 26004KT 4000 FU SCT030 BKN100 31/26 Q1000 TEMPO 03 015G25KT,OPKC,2023-07-07T22:00:00Z,24.9,67.13,31.0,26.0,260,4,,2.49,29.52756,,,,,,,,,,FU,SCT,3000,BKN,10000,,,,,IFR,,,,,,,,,,,,METAR,20.0
OPIS 072200Z 09004KT 4000 VCTS FEW030CB SCT040 SCT100 22/21 Q10 05 TEMPO 23015G35KT 3000 TSRA FEW030CB,OPIS,2023-07-07T22:00:00Z,33.55,72.83,22.0,21.0,90,4,,2.49,,,,,,,,,,,VCTS,FEW,3000,SCT,4000,SCT,10000,,,IFR,,,,,,,,,,,,METAR,542.0
OPFA 072200Z 05004KT 4000 FU FEW100 29/26 Q1001 NOSIG,OPFA,2023-07-07T22:00:00Z,31.37,73.0,29.0,26.0,50,4,,2.49,29.557087,,,,,,TRUE,,,,FU,FEW,10000,,,,,,,IFR,,,,,,,,,,,,METAR,180.0
OMSJ 072200Z 35004KT CAVOK 36/21 Q0998 NOSIG,OMSJ,2023-07-07T22:00:00Z,25.32,55.52,36.0,21.0,350,4,,6.21,29.468504,,,,,,TRUE,,,,,CAVOK,,,,,,,,VFR,,,,,,,,,,,,METAR,33.0
OMRK 072200Z VRB02KT CAVOK 33/19 Q0997 A2946,OMRK,2023-07-07T22:00:00Z,25.62,55.93,33.0,19.0,0,2,,6.21,29.438976,,,,,,,,,,,CAVOK,,,,,,,,VFR,,,,,,,,,,,,METAR,18.0
OMFJ 072200Z 06003KT 6000 NSC 31/29 Q0998 A2948,OMFJ,2023-07-07T22:00:00Z,25.1,56.32,31.0,29.0,60,3,,3.73,29.468504,,,,,,,,,,,CLR,,,,,,,,MVFR,,,,,,,,,,,,METAR,27.0
OMDW 072200Z 33005KT 8000 NSC 34/24 Q0998 NOSIG,OMDW,2023-07-07T22:00:00Z,24.9,55.17,34.0,24.0,330,5,,4.97,29.468504,,,,,,TRUE,,,,,CLR,,,,,,,,MVFR,,,,,,,,,,,,METAR,34.0
OMDB 072200Z 01008KT 340V050 CAVOK 37/24 Q0997 NOSIG,OMDB,2023-07-07T22:00:00Z,25.25,55.37,37.0,24.0,10,8,,6.21,29.438976,,,,,,TRUE,,,,,CAVOK,,,,,,,,VFR,,,,,,,,,,,,METAR,5.0
OMAL 072200Z 17010KT 6000 NSC 37/19 Q1000 TEMPO 4000 HZ,OMAL,2023-07-07T22:00:00Z,24.25,55.6,37.0,19.0,170,10,,3.73,29.52756,,,,,,,,,,,CLR,,,,,,,,MVFR,,,,,,,,,,,,METAR,247.0
OMAD 072200Z 02003KT 360V060 6000 NSC 33/30 Q0997 NOSIG,OMAD,2023-07-07T22:00:00Z,24.42,54.47,33.0,30.0,20,3,,3.73,29.438976,,,,,,TRUE,,,,,CLR,,,,,,,,MVFR,,,,,,,,,,,,METAR,9.0
OMAA 072200Z 32004KT 300V360 7000 NSC 33/31 Q0997 NOSIG,OMAA,2023-07-07T22:00:00Z,24.42,54.65,33.0,31.0,320,4,,4.35,29.438976,,,,,,TRUE,,,,,CLR,,,,,,,,MVFR,,,,,,,,,,,,METAR,13.0
OLBA 072200Z 15005KT 8000 NSC 26/20 Q1009 NOSIG,OLBA,2023-07-07T22:00:00Z,33.82,35.48,26.0,20.0,150,5,,4.97,29.793306,,,,,,TRUE,,,,,CLR,,,,,,,,MVFR,,,,,,,,,,,,METAR,29.0
OKKK 072200Z 35010KT CAVOK 40/07 Q0997 NOSIG,OKKK,2023-07-07T22:00:00Z,,,40.0,7.0,350,10,,6.21,29.438976,,,,,,TRUE,,,,,CAVOK,,,,,,,,VFR,,,,,,,,,,,,METAR,
OJAQ 072200Z 36010KT 8000 NSC 30/16 Q1008 NOSIG,OJAQ,2023-07-07T22:00:00Z,29.62,35.02,30.0,16.0,360,10,,4.97,29.763779,,,,,,TRUE,,,,,CLR,,,,,,,,MVFR,,,,,,,,,,,,METAR,45.0
OJAM 072200Z 28006KT 7000 NSC 21/16 Q1012 NOSIG,OJAM,2023-07-07T22:00:00Z,31.98,35.98,21.0,16.0,280,6,,4.35,29.88189,,,,,,TRUE,,,,,CLR,,,,,,,,MVFR,,,,,,,,,,,,METAR,765.0
OJAI 072200Z 28009KT 5000 HZ NSC 20/16 Q1011 NOSIG,OJAI,2023-07-07T22:00:00Z,31.72,36.0,20.0,16.0,280,9,,3.11,29.852362,,,,,,TRUE,,,,HZ,CLR,,,,,,,,MVFR,,,,,,,,,,,,METAR,723.0
OIZH 072200Z 35004KT CAVOK 25/02 Q1012 A2989,OIZH,2023-07-07T22:00:00Z,29.47,60.92,25.0,2.0,350,4,,6.21,29.88189,,,,,,,,,,,CAVOK,,,,,,,,VFR,,,,,,,,,,,,METAR,1378.0
OIYY 072200Z 23008KT 7000 NSC 29/02 Q1014,OIYY,2023-07-07T22:00:00Z,31.9,54.28,29.0,2.0,230,8,,4.35,29.940945,,,,,,,,,,,CLR,,,,,,,,MVFR,,,,,,,,,,,,METAR,1226.0
OITZ 072200Z 12010KT CAVOK 24/04 Q1015 A2998,OITZ,2023-07-07T22:00:00Z,36.77,48.37,24.0,4.0,120,10,,6.21,29.970472,,,,,,,,,,,CAVOK,,,,,,,,VFR,,,,,,,,,,,,METAR,1630.0
OITT 072200Z 05012KT CAVOK 26/08 Q1012 A2990,OITT,2023-07-07T22:00:00Z,38.13,46.23,26.0,8.0,50,12,,6.21,29.88189,,,,,,,,,,,CAVOK,,,,,,,,VFR,,,,,,,,,,,,METAR,1353.0
OITR 072200Z 20004KT CAVOK 19/10 Q1010 A2985,OITR,2023-07-07T22:00:00Z,37.67,45.07,19.0,10.0,200,4,,6.21,29.822834,,,,,,,,,,,CAVOK,,,,,,,,VFR,,,,,,,,,,,,METAR,1312.0
OITL 072200Z 24004KT CAVOK 13/08 Q1015,OITL,2023-07-07T22:00:00Z,38.33,48.42,13.0,8.0,240,4,,6.21,29.970472,,,,,,,,,,,CAVOK,,,,,,,,VFR,,,,,,,,,,,,METAR,1314.0
OISY 072200Z 00000KT CAVOK 21/08 Q1018,OISY,2023-07-07T22:00:00Z,30.7,51.55,21.0,8.0,0,0,,6.21,30.059055,,,,,,,,,,,CAVOK,,,,,,,,VFR,,,,,,,,,,,,METAR,1800.0
OISS 072200Z 27004KT 8000 FEW040 29/04 Q1012 A2988,OISS,2023-07-07T22:00:00Z,29.53,52.58,29.0,4.0,270,4,,4.97,29.88189,,,,,,,,,,,FEW,4000,,,,,,,MVFR,,,,,,,,,,,,METAR,1484.0
OISF 072200Z 00000KT 9999 FEW040 27/04 Q1011 A2985,OISF,2023-07-07T22:00:00Z,28.9,53.72,27.0,4.0,0,0,,6.21,29.852362,,,,,,,,,,,FEW,4000,,,,,,,VFR,,,,,,,,,,,,METAR,1305.0
OINZ 072200Z 00000KT CAVOK 23/20 Q1007,OINZ,2023-07-07T22:00:00Z,36.63,53.2,23.0,20.0,0,0,,6.21,29.734253,,,,,,,,,,,CAVOK,,,,,,,,VFR,,,,,,,,,,,,METAR,8.0
OINN 072200Z 00000KT CAVOK 24/22 Q1006,OINN,2023-07-07T22:00:00Z,36.67,51.47,24.0,22.0,0,0,,6.21,29.704725,,,,,,,,,,,CAVOK,,,,,,,,VFR,,,,,,,,,,,,METAR,-25.0
OING 072200Z 00000KT CAVOK 24/22 Q1009,OING,2023-07-07T22:00:00Z,36.9,54.4,24.0,22.0,0,0,,6.21,29.793306,,,,,,,,,,,CAVOK,,,,,,,,VFR,,,,,,,,,,,,METAR,0.0
OIMN 072200Z 25004KT CAVOK 18/05 Q1016,OIMN,2023-07-07T22:00:00Z,37.48,57.3,18.0,5.0,250,4,,6.21,30.0,,,,,,,,,,,CAVOK,,,,,,,,VFR,,,,,,,,,,,,METAR,1065.0
OIMM 072200Z 15004KT CAVOK 23/09 Q1014 A2997,OIMM,2023-07-07T22:00:00Z,36.23,59.63,23.0,9.0,150,4,,6.21,29.940945,,,,,,,,,,,CAVOK,,,,,,,,VFR,,,,,,,,,,,,METAR,995.0
OIMJ 072200Z AUTO 34006KT //// // ////// 19/05 Q1017,OIMJ,2023-07-07T22:00:00Z,36.43,55.1,19.0,5.0,340,6,,,30.029528,,,TRUE,,,,,,,,,,,,,,,,,,,,,,,,,,,,METAR,1285.0
OIMB 072200Z 07008KT CAVOK 22/M02 Q1015 A2999,OIMB,2023-07-07T22:00:00Z,32.9,59.28,22.0,-2.0,70,8,,6.21,29.970472,,,,,,,,,,,CAVOK,,,,,,,,VFR,,,,,,,,,,,,METAR,1512.0
OIKQ 072200Z 09010KT 5000 BR NSC 33/30 Q0997,OIKQ,2023-07-07T22:00:00Z,26.75,55.9,33.0,30.0,90,10,,3.11,29.438976,,,,,,,,,,BR,CLR,,,,,,,,MVFR,,,,,,,,,,,,METAR,9.0
OIKK 072200Z 02004KT CAVOK 25/01 Q1017 A3004,OIKK,2023-07-07T22:00:00Z,30.25,56.97,25.0,1.0,20,4,,6.21,30.029528,,,,,,,,,,,CAVOK,,,,,,,,VFR,,,,,,,,,,,,METAR,1749.0
OIKB 072200Z 33004KT 4000 HZ NSC 32/28 Q0998 A2948,OIKB,2023-07-07T22:00:00Z,27.22,56.37,32.0,28.0,330,4,,2.49,29.468504,,,,,,,,,,HZ,CLR,,,,,,,,IFR,,,,,,,,,,,,METAR,6.0
OIIP 072200Z 14006KT CAVOK 27/06 Q1013 A2992,OIIP,2023-07-07T22:00:00Z,35.78,50.83,27.0,6.0,140,6,,6.21,29.911417,,,,,,,,,,,CAVOK,,,,,,,,VFR,,,,,,,,,,,,METAR,1270.0
OIIK 072200Z 09006KT CAVOK 25/07 Q1014,OIIK,2023-07-07T22:00:00Z,36.25,50.05,25.0,7.0,90,6,,6.21,29.940945,,,,,,,,,,,CAVOK,,,,,,,,VFR,,,,,,,,,,,,METAR,1278.0
OIII 072200Z 07006KT CAVOK 30/04 Q1014 A2995 NOSIG,OIII,2023-07-07T22:00:00Z,35.68,51.3,30.0,4.0,70,6,,6.21,29.940945,,,,,,TRUE,,,,,CAVOK,,,,,,,,VFR,,,,,,,,,,,,METAR,1182.0
OIIE 072200Z 34004KT CAVOK 26/04 Q1012,OIIE,2023-07-07T22:00:00Z,35.42,51.15,26.0,4.0,340,4,,6.21,29.88189,,,,,,,,,,,CAVOK,,,,,,,,VFR,,,,,,,,,,,,METAR,993.0
OIHH 072200Z 11012KT CAVOK 23/03 Q1015 A3000,OIHH,2023-07-07T22:00:00Z,34.87,48.55,23.0,3.0,110,12,,6.21,29.970472,,,,,,,,,,,CAVOK,,,,,,,,VFR,,,,,,,,,,,,METAR,1742.0
OIFS 072200Z 31004KT CAVOK 20/01 Q1020,OIFS,2023-07-07T22:00:00Z,32.28,50.85,20.0,1.0,310,4,,6.21,30.11811,,,,,,,,,,,CAVOK,,,,,,,,VFR,,,,,,,,,,,,METAR,2042.0
OIFM 072200Z 15006KT CAVOK 24/01 Q1017 A3003,OIFM,2023-07-07T22:00:00Z,32.75,51.87,24.0,1.0,150,6,,6.21,30.029528,,,,,,,,,,,CAVOK,,,,,,,,VFR,,,,,,,,,,,,METAR,1539.0
OICS 072200Z 05006KT CAVOK 28/01 Q1011 A2987,OICS,2023-07-07T22:00:00Z,35.25,47.02,28.0,1.0,50,6,,6.21,29.852362,,,,,,,,,,,CAVOK,,,,,,,,VFR,,,,,,,,,,,,METAR,1369.0
OICK 072200Z 13008KT CAVOK 25/03 Q1008 A2978,OICK,2023-07-07T22:00:00Z,33.43,48.28,25.0,3.0,130,8,,6.21,29.763779,,,,,,,,,,,CAVOK,,,,,,,,VFR,,,,,,,,,,,,METAR,1156.0
OICI 072200Z 12002KT CAVOK 26/06 Q1012 A2988,OICI,2023-07-07T22:00:00Z,33.58,46.4,26.0,6.0,120,2,,6.21,29.88189,,,,,,,,,,,CAVOK,,,,,,,,VFR,,,,,,,,,,,,METAR,1323.0
OIBK 072200Z 13004KT 5000 BR NSC 32/29 Q0996,OIBK,2023-07-07T22:00:00Z,26.53,53.98,32.0,29.0,130,4,,3.11,29.409449,,,,,,,,,,BR,CLR,,,,,,,,MVFR,,,,,,,,,,,,METAR,27.0
OIBJ 072200Z AUTO 00000KT //// // ////// 27/09 Q1003,OIBJ,2023-07-07T22:00:00Z,27.82,52.35,27.0,9.0,0,0,,,29.616142,,,TRUE,,,,,,,,,,,,,,,,,,,,,,,,,,,,METAR,647.0
OIBB 072200Z 12004KT CAVOK 30/21 Q0996 A2942,OIBB,2023-07-07T22:00:00Z,28.93,50.83,30.0,21.0,120,4,,6.21,29.409449,,,,,,,,,,,CAVOK,,,,,,,,VFR,,,,,,,,,,,,METAR,15.0
OIAW 072200Z 15004KT CAVOK 35/20 Q0996,OIAW,2023-07-07T22:00:00Z,31.33,48.77,35.0,20.0,150,4,,6.21,29.409449,,,,,,,,,,,CAVOK,,,,,,,,VFR,,,,,,,,,,,,METAR,25.0
OIAM 072200Z 00000KT 7000 NSC 33/26 Q0996,OIAM,2023-07-07T22:00:00Z,30.55,49.15,33.0,26.0,0,0,,4.35,29.409449,,,,,,,,,,,CLR,,,,,,,,MVFR,,,,,,,,,,,,METAR,7.0
OIAH 072200Z 00000KT CAVOK 29/09 Q1005,OIAH,2023-07-07T22:00:00Z,30.33,50.83,29.0,9.0,0,0,,6.21,29.675198,,,,,,,,,,,CAVOK,,,,,,,,VFR,,,,,,,,,,,,METAR,730.0
OIAA 072200Z 26004KT CAVOK 35/12 Q0997,OIAA,2023-07-07T22:00:00Z,30.35,48.22,35.0,12.0,260,4,,6.21,29.438976,,,,,,,,,,,CAVOK,,,,,,,,VFR,,,,,,,,,,,,METAR,4.0
OERK 072200Z 27002KT CAVOK 32/M07 Q1005 NOSIG,OERK,2023-07-07T22:00:00Z,24.95,46.72,32.0,-7.0,270,2,,6.21,29.675198,,,,,,TRUE,,,,,CAVOK,,,,,,,,VFR,,,,,,,,,,,,METAR,618.0
OEMA 072200Z 23005KT CAVOK 37/02 Q1008 NOSIG,OEMA,2023-07-07T22:00:00Z,24.55,39.7,37.0,2.0,230,5,,6.21,29.763779,,,,,,TRUE,,,,,CAVOK,,,,,,,,VFR,,,,,,,,,,,,METAR,639.0
OEJN 072200Z 32007KT CAVOK 31/19 Q1003 NOSIG,OEJN,2023-07-07T22:00:00Z,21.68,39.15,31.0,19.0,320,7,,6.21,29.616142,,,,,,TRUE,,,,,CAVOK,,,,,,,,VFR,,,,,,,,,,,,METAR,8.0
OEDR 072200Z 00000KT CAVOK 31/29 Q0996,OEDR,2023-07-07T22:00:00Z,26.27,50.17,31.0,29.0,0,0,,6.21,29.409449,,,,,,,,,,,CAVOK,,,,,,,,VFR,,,,,,,,,,,,METAR,17.0
OEDF 072200Z 20004KT CAVOK 32/21 Q0997 NOSIG,OEDF,2023-07-07T22:00:00Z,26.43,49.82,32.0,21.0,200,4,,6.21,29.438976,,,,,,TRUE,,,,,CAVOK,,,,,,,,VFR,,,,,,,,,,,,METAR,15.0
OEAB 072200Z 00000KT CAVOK 22/08 Q1022 NOSIG,OEAB,2023-07-07T22:00:00Z,18.23,42.65,22.0,8.0,0,0,,6.21,30.177166,,,,,,TRUE,,,,,CAVOK,,,,,,,,VFR,,,,,,,,,,,,METAR,2092.0
OBBI 072200Z 21003KT 170V260 CAVOK 34/23 Q0997 NOSIG,OBBI,2023-07-07T22:00:00Z,26.27,50.63,34.0,23.0,210,3,,6.21,29.438976,,,,,,TRUE,,,,,CAVOK,,,,,,,,VFR,,,,,,,,,,,,METAR,6.0
NZWN 072200Z AUTO 22003KT 9999 -RA OVC050/// 10/08 Q1003,NZWN,2023-07-07T22:00:00Z,-41.32,174.8,10.0,8.0,220,3,,6.21,29.616142,,,TRUE,,,,,,,-RA,OVC,5000,,,,,,,VFR,,,,,,,,,,,,METAR,12.0
NZCH 072200Z AUTO 01003KT 9000 -RA SCT075/// OVC090/// 06/05 Q1003,NZCH,2023-07-07T22:00:00Z,-43.48,172.52,6.0,5.0,10,3,,5.59,29.616142,,,TRUE,,,,,,,-RA,SCT,7500,OVC,9000,,,,,VFR,,,,,,,,,,,,METAR,36.0
NZAA 072200Z AUTO 02008KT 9999 FEW009/// SCT090/// BKN100/// 15/14 Q0999,NZAA,2023-07-07T22:00:00Z,-37.02,174.8,15.0,14.0,20,8,,6.21,29.498032,,,TRUE,,,,,,,,FEW,900,SCT,9000,BKN,10000,,,VFR,,,,,,,,,,,,METAR,7.0
NWWW 072200Z AUTO 01003KT 330V040 CAVOK 24/20 Q1017 NOSIG,NWWW,2023-07-07T22:00:00Z,-22.02,166.22,24.0,20.0,10,3,,6.21,30.029528,,,TRUE,,,TRUE,,,,,CAVOK,,,,,,,,VFR,,,,,,,,,,,,METAR,16.0
NVVW 072200Z VRB02KT 9999 SCT020 BKN120 26/21 Q1016,NVVW,2023-07-07T22:00:00Z,-19.45,169.22,26.0,21.0,0,2,,6.21,30.0,,,,,,,,,,,SCT,2000,BKN,12000,,,,,VFR,,,,,,,,,,,,METAR,5.0
NVVV 072200Z 11001KT 9999 SCT020 27/19 Q1016,NVVV,2023-07-07T22:00:00Z,-17.68,168.3,27.0,19.0,110,1,,6.21,30.0,,,,,,,,,,,SCT,2000,,,,,,,VFR,,,,,,,,,,,,METAR,23.0
NVSS 072200Z 21002KT 9999 BKN020 26/22 Q1015,NVSS,2023-07-07T22:00:00Z,-15.52,167.22,26.0,22.0,210,2,,6.21,29.970472,,,,,,,,,,,BKN,2000,,,,,,,MVFR,,,,,,,,,,,,METAR,47.0
NTAA 072200Z 05019KT 9999 FEW026 29/23 Q1016 WS ALL RWY NOSIG,NTAA,2023-07-07T22:00:00Z,-17.55,-149.62,29.0,23.0,50,19,,6.21,30.0,,,,,,TRUE,,,,,FEW,2600,,,,,,,VFR,,,,,,,,,,,,METAR,2.0
NSFA 072200Z 24004KT 9999 FEW024 SCT170 31/25 Q1013,NSFA,2023-07-07T22:00:00Z,-13.83,-172.0,31.0,25.0,240,4,,6.21,29.911417,,,,,,,,,,,FEW,2400,SCT,17000,,,,,VFR,,,,,,,,,,,,METAR,6.0
NLWW 072200Z 11009KT 080V140 9999 SCT025 SCT040 30/24 Q1012 TEMPO 4500 SHRA BKN014 SCT020TCU,NLWW,2023-07-07T22:00:00Z,-13.23,-176.18,30.0,24.0,110,9,,6.21,29.88189,,,,,,,,,,,SCT,2500,SCT,4000,,,,,VFR,,,,,,,,,,,,METAR,24.0
NIUE 072200Z AUTO 08008KT NCD 26/20 Q1016,NIUE,2023-07-07T22:00:00Z,-19.07,-169.92,26.0,20.0,80,8,,,30.0,,,TRUE,,,,,,,,CLR,,,,,,,,,,,,,,,,,,,,METAR,22.0
NGTA 072200Z 09008KT 040V120 9999 FEW019 BKN300 30/27 Q1007,NGTA,2023-07-07T22:00:00Z,1.37,173.13,30.0,27.0,90,8,,6.21,29.734253,,,,,,,,,,,FEW,1900,BKN,30000,,,,,VFR,,,,,,,,,,,,METAR,8.0
NGFU 072200Z 12016KT 9999 FEW016CB FEW018TCU BKN110 31/28 Q1009,NGFU,2023-07-07T22:00:00Z,-8.52,179.18,31.0,28.0,120,16,,6.21,29.793306,,,,,,,,,,,FEW,1600,FEW,1800,BKN,11000,,,VFR,,,,,,,,,,,,METAR,2.0
NFTV 072200Z 12008KT 9999 FEW018 26/21 Q1016,NFTV,2023-07-07T22:00:00Z,-18.58,-173.97,26.0,21.0,120,8,,6.21,30.0,,,,,,,,,,,FEW,1800,,,,,,,VFR,,,,,,,,,,,,METAR,71.0
NFTL 072200Z 06004KT 9999 FEW018 26/20 Q1016,NFTL,2023-07-07T22:00:00Z,-19.78,-174.33,26.0,20.0,60,4,,6.21,30.0,,,,,,,,,,,FEW,1800,,,,,,,VFR,,,,,,,,,,,,METAR,10.0
NFTF 072200Z 07006KT 9999 SCT017 25/19 Q1018,NFTF,2023-07-07T22:00:00Z,-21.23,-175.15,25.0,19.0,70,6,,6.21,30.059055,,,,,,,,,,,SCT,1700,,,,,,,VFR,,,,,,,,,,,,METAR,38.0
NFNS 072200Z 09004KT 9999 FEW024 SCT048 28/24 Q1015,NFNS,2023-07-07T22:00:00Z,-16.82,179.33,28.0,24.0,90,4,,6.21,29.970472,,,,,,,,,,,FEW,2400,SCT,4800,,,,,VFR,,,,,,,,,,,,METAR,4.0
NFNM 072200Z 11010KT 9999 FEW018TCU SCT047 28/23 Q1015,NFNM,2023-07-07T22:00:00Z,-16.68,-179.87,28.0,23.0,110,10,,6.21,29.970472,,,,,,,,,,,FEW,1800,SCT,4700,,,,,VFR,,,,,,,,,,,,METAR,21.0
NFNL 072200Z 10008KT 9999 FEW028 SCT048 30/25 Q1015,NFNL,2023-07-07T22:00:00Z,-16.47,179.33,30.0,25.0,100,8,,6.21,29.970472,,,,,,,,,,,FEW,2800,SCT,4800,,,,,VFR,,,,,,,,,,,,METAR,17.0
NFNA 072200Z 08006KT 9999 BKN017TCU SCT045 27/24 Q1015,NFNA,2023-07-07T22:00:00Z,-18.05,178.57,27.0,24.0,80,6,,6.21,29.970472,,,,,,,,,,,BKN,1700,SCT,4500,,,,,MVFR,,,,,,,,,,,,METAR,6.0
NFFN 072200Z VRB02KT 9999 FEW030 28/21 Q1016 NOSIG,NFFN,2023-07-07T22:00:00Z,-17.75,177.45,28.0,21.0,0,2,,6.21,30.0,,,,,,TRUE,,,,,FEW,3000,,,,,,,VFR,,,,,,,,,,,,METAR,14.0
NCSW 072200Z AUTO NIL,NCSW,2023-07-07T22:00:00Z,,,,,,,,,,,,TRUE,,,,,,,,,,,,,,,,,,,,,,,,,,,,METAR,
NCRK 072200Z AUTO 07004KT //// ////// 31/25 Q1011,NCRK,2023-07-07T22:00:00Z,-10.02,-161.1,31.0,25.0,70,4,,,29.852362,,,TRUE,,,,,,,,,,,,,,,,,,,,,,,,,,,,METAR,7.0
NCRG 072200Z AUTO 10005KT 070V140 5000 -RA HZ FEW010/// BKN036/// OVC060/// 25/24 Q1016,NCRG,2023-07-07T22:00:00Z,-21.2,-159.82,25.0,24.0,100,5,,3.11,30.0,,,TRUE,,,,,,,-RA HZ,FEW,1000,BKN,3600,OVC,6000,,,MVFR,,,,,,,,,,,,METAR,7.0
NCPY 072200Z AUTO 06018KT //// ////// 30/24 Q1011,NCPY,2023-07-07T22:00:00Z,-9.02,-158.03,30.0,24.0,60,18,,,29.852362,,,TRUE,,,,,,,,,,,,,,,,,,,,,,,,,,,,METAR,2.0
NCPL 072200Z AUTO NIL,NCPL,2023-07-07T22:00:00Z,1.98,-157.48,,,,,,,,,,TRUE,,,,,,,,,,,,,,,,,,,,,,,,,,,,METAR,3.0
NCPK 072200Z AUTO NIL,NCPK,2023-07-07T22:00:00Z,-10.9,-165.83,,,,,,,,,,TRUE,,,,,,,,,,,,,,,,,,,,,,,,,,,,METAR,5.0
NCNS 072200Z AUTO NIL,NCNS,2023-07-07T22:00:00Z,,,,,,,,,,,,TRUE,,,,,,,,,,,,,,,,,,,,,,,,,,,,METAR,
NCMR 072200Z AUTO 04006KT //// ////// 28/23 Q1015,NCMR,2023-07-07T22:00:00Z,-19.85,-157.7,28.0,23.0,40,6,,,29.970472,,,TRUE,,,,,,,,,,,,,,,,,,,,,,,,,,,,METAR,8.0
NCMK 072200Z AUTO 07006KT //// ////// 28/24 Q1015,NCMK,2023-07-07T22:00:00Z,-20.15,-157.33,28.0,24.0,70,6,,,29.970472,,,TRUE,,,,,,,,,,,,,,,,,,,,,,,,,,,,METAR,13.0
NCMH 072200Z AUTO 10004KT //// ////// ///// Q1011,NCMH,2023-07-07T22:00:00Z,-10.38,-161.0,,,100,4,,,29.852362,,,TRUE,,,,,,,,,,,,,,,,,,,,,,,,,,,,METAR,1.0
NCMG 072200Z AUTO 27002KT //// ////// ///// Q////,NCMG,2023-07-07T22:00:00Z,-21.88,-157.9,,,270,2,,,,,,TRUE,,,,,,,,,,,,,,,,,,,,,,,,,,,,METAR,14.0
NCAT 072200Z AUTO NIL,NCAT,2023-07-07T22:00:00Z,-19.97,-158.12,,,,,,,,,,TRUE,,,,,,,,,,,,,,,,,,,,,,,,,,,,METAR,11.0
NCAI 072200Z AUTO 13005KT //// ///// 28/24 Q1015,NCAI,2023-07-07T22:00:00Z,-18.82,-159.77,28.0,24.0,130,5,,,29.970472,,,TRUE,,,,,,,,,,,,,,,,,,,,,,,,,,,,METAR,7.0
MZBZ 072200Z 09010KT 9999 SCT027 31/25 A2984 Q1010 NOSIG,MZBZ,2023-07-07T22:00:00Z,17.53,-88.3,31.0,25.0,90,10,,6.21,29.822834,,,,,,TRUE,,,,,SCT,2700,,,,,,,VFR,,,,,,,,,,,,METAR,6.0
MYSM 072200Z AUTO 15009KT 9999 FEW027/// 30/24 A3000,MYSM,2023-07-07T22:00:00Z,24.05,-74.52,30.0,24.0,150,9,,6.21,30.0,,,TRUE,,,,,,,,FEW,2700,,,,,,,VFR,,,,,,,,,,,,METAR,5.0
MYNN 072200Z 19006KT 170V230 9999 FEW015CB BKN050 31/24 A2999,MYNN,2023-07-07T22:00:00Z,25.03,-77.47,31.0,24.0,190,6,,6.21,29.991142,,,,,,,,,,,FEW,1500,BKN,5000,,,,,VFR,,,,,,,,,,,,METAR,5.0
MYGF 072200Z 26011G21KT 230V300 9999 VCSH FEW015CB BKN020TCU BKN250 29/25 A2996 RETS,MYGF,2023-07-07T22:00:00Z,26.55,-78.7,29.0,25.0,260,11,21,6.21,29.958662,,,,,,,,,,VCSH,FEW,1500,BKN,2000,BKN,25000,,,MVFR,,,,,,,,,,,,METAR,2.0
MYCB 072200Z AUTO 16010KT 130V190 9999 FEW025 31/25 A2999,MYCB,2023-07-07T22:00:00Z,24.32,-75.45,31.0,25.0,160,10,,6.21,29.991142,,,TRUE,,,,,,,,FEW,2500,,,,,,,VFR,,,,,,,,,,,,METAR,2.0
MYAF 072200Z AUTO 09003KT 340V140 //// // BKN035 //////TCU 30/24 A2998,MYAF,2023-07-07T22:00:00Z,24.68,-77.78,30.0,24.0,90,3,,,29.97933,,,TRUE,,,,,,,,BKN,3500,,,,,,,,,,,,,,,,,,,METAR,2.0
MWCR 072200Z 10011KT 9999 FEW018 32/24 Q1012,MWCR,2023-07-07T22:00:00Z,19.3,-81.37,32.0,24.0,100,11,,6.21,29.88189,,,,,,,,,,,FEW,1800,,,,,,,VFR,,,,,,,,,,,,METAR,4.0
MWCB 072200Z 09010KT 9999 FEW018 31/24 Q1013,MWCB,2023-07-07T22:00:00Z,19.68,-79.88,31.0,24.0,90,10,,6.21,29.911417,,,,,,,,,,,FEW,1800,,,,,,,VFR,,,,,,,,,,,,METAR,7.0
MTPP 072200Z 31008KT 280V360 SCT027CB 33/23 Q1012 A2990 RMK:CB/N,MTPP,2023-07-07T22:00:00Z,18.57,-72.3,33.0,23.0,310,8,,,29.88189,,,,,,,,,,,SCT,2700,,,,,,,,,,,,,,,,,,,METAR,36.0
MRPV 072200Z 30006KT 9999 FEW015 BKN120 23/20 A3000 NOSIG,MRPV,2023-07-07T22:00:00Z,9.95,-84.15,23.0,20.0,300,6,,6.21,30.0,,,,,,TRUE,,,,,FEW,1500,BKN,12000,,,,,VFR,,,,,,,,,,,,METAR,998.0
MROC 072200Z 26008KT 9999 SCT010 BKN150 23/21 A2996 NOSIG,MROC,2023-07-07T22:00:00Z,10.0,-84.22,23.0,21.0,260,8,,6.21,29.958662,,,,,,TRUE,,,,,SCT,1000,BKN,15000,,,,,VFR,,,,,,,,,,,,METAR,900.0
MRLM 072200Z 01009KT CAVOK 29/26 A2979,MRLM,2023-07-07T22:00:00Z,9.97,-83.03,29.0,26.0,10,9,,6.21,29.790354,,,,,,,,,,,CAVOK,,,,,,,,VFR,,,,,,,,,,,,METAR,2.0
MRLB 072200Z 12009KT 9999 SCT030 BKN200 29/24 A2978,MRLB,2023-07-07T22:00:00Z,10.6,-85.55,29.0,24.0,120,9,,6.21,29.778543,,,,,,,,,,,SCT,3000,BKN,20000,,,,,VFR,,,,,,,,,,,,METAR,79.0
MPTO 072200Z 02003KT 9000 VCSH SCT018CB SCT090 26/23 Q1009 TEMPO 6000 TSSHRA ,MPTO,2023-07-07T22:00:00Z,9.05,-79.38,26.0,23.0,20,3,,5.59,29.793306,,,,,,,,,,VCSH,SCT,1800,SCT,9000,,,,,VFR,,,,,,,,,,,,METAR,7.0
MPSM 072200Z 36005KT 9999 SCT020CB SCT090 27/24 Q1009,MPSM,2023-07-07T22:00:00Z,8.38,-80.13,27.0,24.0,360,5,,6.21,29.793306,,,,,,,,,,,SCT,2000,SCT,9000,,,,,VFR,,,,,,,,,,,,METAR,36.0
MPPA 072200Z 35005KT 9999 FEW016CB 26/24 Q1009,MPPA,2023-07-07T22:00:00Z,8.92,-79.6,26.0,24.0,350,5,,6.21,29.793306,,,,,,,,,,,FEW,1600,,,,,,,VFR,,,,,,,,,,,,METAR,1.0
MPMG 072200Z 30004KT 9999 SCT015CB BKN080 27/24 Q1010 TEMPO TS,MPMG,2023-07-07T22:00:00Z,8.98,-79.57,27.0,24.0,300,4,,6.21,29.822834,,,,,,,,,,,SCT,1500,BKN,8000,,,,,VFR,,,,,,,,,,,,METAR,6.0
MPDA 072200Z 19006KT 9999 FEW015CB SCT100 29/24 Q1008,MPDA,2023-07-07T22:00:00Z,8.4,-82.43,29.0,24.0,190,6,,6.21,29.763779,,,,,,,,,,,FEW,1500,SCT,10000,,,,,VFR,,,,,,,,,,,,METAR,15.0
MPBO 072200Z 03007KT 9999 SCT020 SCT090 28/27 Q1009,MPBO,2023-07-07T22:00:00Z,9.35,-82.25,28.0,27.0,30,7,,6.21,29.793306,,,,,,,,,,,SCT,2000,SCT,9000,,,,,VFR,,,,,,,,,,,,METAR,2.0
MNMG 072200Z 07010KT 9999 FEW023TCU SCT300 32/23 Q1008 A2978 TCU/N/E/W/NW NOSIG,MNMG,2023-07-07T22:00:00Z,12.15,-86.17,32.0,23.0,70,10,,6.21,29.763779,,,,,,TRUE,,,,,FEW,2300,SCT,30000,,,,,VFR,,,,,,,,,,,,METAR,59.0
MKJS 072200Z 08019KT 9999 SCT022 31/23 Q1012,MKJS,2023-07-07T22:00:00Z,18.5,-77.92,31.0,23.0,80,19,,6.21,29.88189,,,,,,,,,,,SCT,2200,,,,,,,VFR,,,,,,,,,,,,METAR,3.0
MKJP 072200Z 14019KT 9999 FEW022CB 32/24 Q1012,MKJP,2023-07-07T22:00:00Z,17.93,-76.78,32.0,24.0,140,19,,6.21,29.88189,,,,,,,,,,,FEW,2200,,,,,,,VFR,,,,,,,,,,,,METAR,3.0
MHYR 072200Z 02004KT 9999 SCT025TCU BKN070 22/21 RETS,MHYR,2023-07-07T22:00:00Z,15.13,-87.13,22.0,21.0,20,4,,6.21,,,,,,,,,,,,SCT,2500,BKN,7000,,,,,VFR,,,,,,,,,,,,METAR,682.0
MHTR 072200Z 07009KT 9999 FEW025TCU 32/25,MHTR,2023-07-07T22:00:00Z,15.93,-85.93,32.0,25.0,70,9,,6.21,,,,,,,,,,,,FEW,2500,,,,,,,VFR,,,,,,,,,,,,METAR,3.0
MHTG 072200Z 05004KT 9999 SCT034TCU FEW036CB 27/20 Q1015 A2997 NOSIG,MHTG,2023-07-07T22:00:00Z,14.07,-87.22,27.0,20.0,50,4,,6.21,29.970472,,,,,,TRUE,,,,,SCT,3400,FEW,3600,,,,,VFR,,,,,,,,,,,,METAR,1001.0
MHTE 072200Z 02010KT 9999 SCT020 FEW024TCU FEW029CB BKN060 32/25 Q1007 A2974,MHTE,2023-07-07T22:00:00Z,15.78,-87.48,32.0,25.0,20,10,,6.21,29.734253,,,,,,,,,,,SCT,2000,FEW,2400,FEW,2900,BKN,6000,VFR,,,,,,,,,,,,METAR,7.0
MHSR 072200Z 34004KT 9999 SCT028TCU FEW030CB 30/17,MHSR,2023-07-07T22:00:00Z,14.78,-88.78,30.0,17.0,340,4,,6.21,,,,,,,,,,,,SCT,2800,FEW,3000,,,,,VFR,,,,,,,,,,,,METAR,1087.0
MHRO 072200Z 09023KT CAVOK 30/26 Q1009 A2980 NOSIG,MHRO,2023-07-07T22:00:00Z,16.32,-86.53,30.0,26.0,90,23,,6.21,29.793306,,,,,,TRUE,,,,,CAVOK,,,,,,,,VFR,,,,,,,,,,,,METAR,6.0
MHPR 072200Z 21012KT 8000 4000S -TSRA SCT046TCU FEW048CB BKN080 22/20 Q1013 A2992 NOSIG,MHPR,2023-07-07T22:00:00Z,14.38,-87.62,22.0,20.0,210,12,,4.97,29.911417,,,,,,TRUE,,,,-TSRA,SCT,4600,FEW,4800,BKN,8000,,,MVFR,,,,,,,,,,,,METAR,628.0
MHPL 072200Z 16004KT 9999 FEW024CB OVC080 26/22 Q1011,MHPL,2023-07-07T22:00:00Z,15.27,-83.78,26.0,22.0,160,4,,6.21,29.852362,,,,,,,,,,,FEW,2400,OVC,8000,,,,,VFR,,,,,,,,,,,,METAR,13.0
MHNO 072200Z 00000KT 3000 -TSRA SCT038CB SCT040TCU 22/21,MHNO,2023-07-07T22:00:00Z,14.43,-89.18,22.0,21.0,0,0,,1.86,,,,,,,,,,,-TSRA,SCT,3800,SCT,4000,,,,,IFR,,,,,,,,,,,,METAR,790.0
MHLM 072200Z 06013KT 9999 TS FEW030 FEW034CB 31/24 Q1008 A2977 NOSIG,MHLM,2023-07-07T22:00:00Z,15.45,-87.93,31.0,24.0,60,13,,6.21,29.763779,,,,,,TRUE,,,,TS,FEW,3000,FEW,3400,,,,,VFR,,,,,,,,,,,,METAR,32.0
MHLE 072200Z 18008KT 5000 -TSRA SCT016 SCT024CB 19/18,MHLE,2023-07-07T22:00:00Z,14.28,-88.17,19.0,18.0,180,8,,3.11,,,,,,,,,,,-TSRA,SCT,1600,SCT,2400,,,,,MVFR,,,,,,,,,,,,METAR,1688.0
MHLC 072200Z VRB02KT 9999 FEW025CB BKN070 30/26 Q1008 A2977 NOSIG,MHLC,2023-07-07T22:00:00Z,15.75,-86.85,30.0,26.0,0,2,,6.21,29.763779,,,,,,TRUE,,,,,FEW,2500,BKN,7000,,,,,VFR,,,,,,,,,,,,METAR,13.0
MHGS 072200Z 36008KT 9999 2000N TSRA SCT040TCU SCT042CB 25/20,MHGS,2023-07-07T22:00:00Z,14.57,-88.6,25.0,20.0,360,8,,6.21,,,,,,,,,,,TSRA,SCT,4000,SCT,4200,,,,,VFR,,,,,,,,,,,,METAR,913.0
MHCH 072200Z 17010KT 5000 TSRA SCT030TCU FEW034CB BKN070 25/25,MHCH,2023-07-07T22:00:00Z,13.32,-87.15,25.0,25.0,170,10,,3.11,,,,,,,,,,,TSRA,SCT,3000,FEW,3400,BKN,7000,,,MVFR,,,,,,,,,,,,METAR,58.0
MHCA 072200Z 10008KT 9999 SCT028TCU SCT030CB 30/24 Q1011 RMK CB NE E SE,MHCA,2023-07-07T22:00:00Z,14.87,-85.78,30.0,24.0,100,8,,6.21,29.852362,,,,,,,,,,,SCT,2800,SCT,3000,,,,,VFR,,,,,,,,,,,,METAR,386.0
MGZA 072200Z 08010KT 9999 FEW025 FEW030CB SCT200 34/22 QFE 982/8 CB N/SE/SSE/S CB DIST E,MGZA,2023-07-07T22:00:00Z,14.97,-89.53,34.0,22.0,80,10,,6.21,,,,,,,,,,,,FEW,2500,FEW,3000,SCT,20000,,,VFR,,,,,,,,,,,,METAR,195.0
MGTU 072200Z 12004KT 8000 TSVCSH BKN018 FEW022CB 28/23 CB/TS/PCPN/N/NE/NW,MGTU,2023-07-07T22:00:00Z,,,28.0,23.0,120,4,,4.97,,,,,,,,,,,VCSH TS TS,BKN,1800,FEW,2200,,,,,MVFR,,,,,,,,,,,,METAR,
MGRT 072200Z 04006KT 8000 -TSRA SCT016 FEW024CB OVC070 24/24 Q1013 A2991 CB/TS/LTNG SBR STN VOL STA MARIA Y SANTIAGUITO EN ACTIVIDAD,MGRT,2023-07-07T22:00:00Z,14.53,-91.7,24.0,24.0,40,6,,4.97,29.911417,,,,,,,,,,-TSRA TS SA BR,SCT,1600,FEW,2400,OVC,7000,,,MVFR,,,,,,,,,,,,METAR,209.0
MGQZ 072200Z 00000KT 8000 VCSH SCT018 FEW025CB OVC080 15/14 QFE772/3 CB/PCPN N/NW,MGQZ,2023-07-07T22:00:00Z,14.87,-91.5,15.0,14.0,0,0,,4.97,,,,,,,,,,,VCSH,SCT,1800,FEW,2500,OVC,8000,,,MVFR,,,,,,,,,,,,METAR,2378.0
MGPB 072200Z 03004KT 9999 SCT020 FEW030CB 30/25 Q1008 A2977 CB TS ENE/E/ESE,MGPB,2023-07-07T22:00:00Z,15.73,-88.58,30.0,25.0,30,4,,6.21,29.763779,,,,,,,,,,TS,SCT,2000,FEW,3000,,,,,VFR,,,,,,,,,,,,METAR,6.0
MGMM 072200Z 18006KT 9999 TS BKN020 FEW025CB 32/24 1010 A2983 CB/TS/PCPN SSW CB NE,MGMM,2023-07-07T22:00:00Z,16.9,-89.87,32.0,24.0,180,6,,6.21,29.828741,,,,,,,,,,TS TS,BKN,2000,FEW,2500,,,,,MVFR,,,,,,,,,,,,METAR,105.0
MGHT 072200Z 27008KT 9999 SCT025 SCT028CB 20/14 CB/SMC N CB/S,MGHT,2023-07-07T22:00:00Z,15.32,-91.5,20.0,14.0,270,8,,6.21,,,,,,,,,,,,SCT,2500,SCT,2800,,,,,VFR,,,,,,,,,,,,METAR,1875.0
MGGT 072200Z 22010KT 9999 -DZ SCT020 SCT090 20/18 Q1019 A3009,MGGT,2023-07-07T22:00:00Z,14.58,-90.53,20.0,18.0,220,10,,6.21,30.088583,,,,,,,,,,-DZ,SCT,2000,SCT,9000,,,,,VFR,,,,,,,,,,,,METAR,1497.0
MGES 072200Z 03006KT 9999 -TSRA SCT018 SCT025CB BKN090 23/21 QFE907.2 CB/TS SMC N,MGES,2023-07-07T22:00:00Z,14.57,-89.32,23.0,21.0,30,6,,6.21,,,,,,,,,,,-TSRA TS,SCT,1800,SCT,2500,BKN,9000,,,VFR,,,,,,,,,,,,METAR,948.0
MGCB 072200Z 07004KT 9999 SCT018 FEW024CB 26/19 QFE 868.9 CB/PCPN NE/E CB SW,MGCB,2023-07-07T22:00:00Z,15.48,-90.42,26.0,19.0,70,4,,6.21,,,,,,,,,,,,SCT,1800,FEW,2400,,,,,VFR,,,,,,,,,,,,METAR,1323.0
MDST 072200Z 08008KT 9999 FEW030 34/21 Q1014,MDST,2023-07-07T22:00:00Z,19.4,-70.6,34.0,21.0,80,8,,6.21,29.940945,,,,,,,,,,,FEW,3000,,,,,,,VFR,,,,,,,,,,,,METAR,175.0
MDSD 072200Z 13008KT 9999 FEW025 SCT300 32/24 Q1014,MDSD,2023-07-07T22:00:00Z,18.42,-69.67,32.0,24.0,130,8,,6.21,29.940945,,,,,,,,,,,FEW,2500,SCT,30000,,,,,VFR,,,,,,,,,,,,METAR,18.0
MDPP 072200Z 00000KT 9999 FEW022 30/25 Q1014,MDPP,2023-07-07T22:00:00Z,19.75,-70.57,30.0,25.0,0,0,,6.21,29.940945,,,,,,,,,,,FEW,2200,,,,,,,VFR,,,,,,,,,,,,METAR,9.0
MDPC 072200Z 05008KT 9999 FEW020 29/24 Q1015,MDPC,2023-07-07T22:00:00Z,18.57,-68.37,29.0,24.0,50,8,,6.21,29.970472,,,,,,,,,,,FEW,2000,,,,,,,VFR,,,,,,,,,,,,METAR,10.0
MDLR 072200Z 06008KT 9999 FEW022 32/24 Q1013,MDLR,2023-07-07T22:00:00Z,18.45,-68.92,32.0,24.0,60,8,,6.21,29.911417,,,,,,,,,,,FEW,2200,,,,,,,VFR,,,,,,,,,,,,METAR,66.0
MDJB 072200Z 17010KT 9999 FEW020 32/24 Q1014,MDJB,2023-07-07T22:00:00Z,18.57,-69.98,32.0,24.0,170,10,,6.21,29.940945,,,,,,,,,,,FEW,2000,,,,,,,VFR,,,,,,,,,,,,METAR,24.0
MDCY 072200Z 06016KT 9999 FEW022 29/25 Q1015 NOSIG,MDCY,2023-07-07T22:00:00Z,19.27,-69.73,29.0,25.0,60,16,,6.21,29.970472,,,,,,TRUE,,,,,FEW,2200,,,,,,,VFR,,,,,,,,,,,,METAR,4.0
MDBH 072200Z 13012KT 9999 FEW022CB FEW026 33/25 Q1013 CB/W/NW METAR ,MDBH,2023-07-07T22:00:00Z,18.25,-71.12,33.0,25.0,130,12,,6.21,29.911417,,,,,,,,,,,FEW,2200,FEW,2600,,,,,VFR,,,,,,,,,,,,METAR,7.0
MBPV 072200Z 13007KT 9999 SCT015 31/23 Q1015,MBPV,2023-07-07T22:00:00Z,21.77,-72.27,31.0,23.0,130,7,,6.21,29.970472,,,,,,,,,,,SCT,1500,,,,,,,VFR,,,,,,,,,,,,METAR,7.0
LZZI 072200Z 13002KT CAVOK 14/11 Q1023,LZZI,2023-07-07T22:00:00Z,49.23,18.62,14.0,11.0,130,2,,6.21,30.206694,,,,,,,,,,,CAVOK,,,,,,,,VFR,,,,,,,,,,,,METAR,311.0
LZTT 072200Z 28006KT 240V300 CAVOK 11/09 Q1024,LZTT,2023-07-07T22:00:00Z,49.07,20.25,11.0,9.0,280,6,,6.21,30.236221,,,,,,,,,,,CAVOK,,,,,,,,VFR,,,,,,,,,,,,METAR,693.0
LZPP 072200Z AUTO 02006KT 9999 NCD 17/11 Q1022,LZPP,2023-07-07T22:00:00Z,48.62,17.83,17.0,11.0,20,6,,6.21,30.177166,,,TRUE,,,,,,,,CLR,,,,,,,,VFR,,,,,,,,,,,,METAR,160.0
LZKZ 072200Z 34007KT CAVOK 18/11 Q1022 NOSIG,LZKZ,2023-07-07T22:00:00Z,48.67,21.23,18.0,11.0,340,7,,6.21,30.177166,,,,,,TRUE,,,,,CAVOK,,,,,,,,VFR,,,,,,,,,,,,METAR,227.0
LZIB 072200Z 05004KT CAVOK 18/09 Q1022 NOSIG,LZIB,2023-07-07T22:00:00Z,48.17,17.22,18.0,9.0,50,4,,6.21,30.177166,,,,,,TRUE,,,,,CAVOK,,,,,,,,VFR,,,,,,,,,,,,METAR,129.0
LYVR 072200Z AUTO 02004KT CAVOK 18/17 Q1019,LYVR,2023-07-07T22:00:00Z,45.13,21.32,18.0,17.0,20,4,,6.21,30.088583,,,TRUE,,,,,,,,CAVOK,,,,,,,,VFR,,,,,,,,,,,,METAR,82.0
LYTV 072200Z AUTO 01004KT 300V100 CAVOK 27/13 Q1018,LYTV,2023-07-07T22:00:00Z,42.4,18.72,27.0,13.0,10,4,,6.21,30.059055,,,TRUE,,,,,,,,CAVOK,,,,,,,,VFR,,,,,,,,,,,,METAR,3.0
LYPG 072200Z 34012KT CAVOK 24/14 Q1019 NOSIG,LYPG,2023-07-07T22:00:00Z,42.37,19.25,24.0,14.0,340,12,,6.21,30.088583,,,,,,TRUE,,,,,CAVOK,,,,,,,,VFR,,,,,,,,,,,,METAR,32.0
LYNI 072200Z 36003KT 320V040 9999 FEW040 20/16 Q1020 NOSIG,LYNI,2023-07-07T22:00:00Z,43.33,21.85,20.0,16.0,360,3,,6.21,30.11811,,,,,,TRUE,,,,,FEW,4000,,,,,,,VFR,,,,,,,,,,,,METAR,197.0
LYKV 072200Z 30001KT 9999 FEW050 19/16 Q1021 NOSIG,LYKV,2023-07-07T22:00:00Z,43.82,20.58,19.0,16.0,300,1,,6.21,30.147638,,,,,,TRUE,,,,,FEW,5000,,,,,,,VFR,,,,,,,,,,,,METAR,209.0
LYBT 072200Z 32006KT CAVOK 18/16 Q1021 NOSIG,LYBT,2023-07-07T22:00:00Z,44.93,20.25,18.0,16.0,320,6,,6.21,30.147638,,,,,,TRUE,,,,,CAVOK,,,,,,,,VFR,,,,,,,,,,,,METAR,78.0
LYBE 072200Z 30006KT CAVOK 19/16 Q1021 NOSIG,LYBE,2023-07-07T22:00:00Z,44.82,20.28,19.0,16.0,300,6,,6.21,30.147638,,,,,,TRUE,,,,,CAVOK,,,,,,,,VFR,,,,,,,,,,,,METAR,93.0
LWSK 072200Z 29004KT 9999 FEW050 18/17 Q1021 NOSIG,LWSK,2023-07-07T22:00:00Z,41.97,21.63,18.0,17.0,290,4,,6.21,30.147638,,,,,,TRUE,,,,,FEW,5000,,,,,,,VFR,,,,,,,,,,,,METAR,232.0
LWOH 072200Z 34008KT 9999 FEW033 18/15 Q1021,LWOH,2023-07-07T22:00:00Z,41.18,20.75,18.0,15.0,340,8,,6.21,30.147638,,,,,,,,,,,FEW,3300,,,,,,,VFR,,,,,,,,,,,,METAR,700.0
LUKK 072200Z 34012KT CAVOK 22/18 Q1012 NOSIG,LUKK,2023-07-07T22:00:00Z,46.93,28.93,22.0,18.0,340,12,,6.21,29.88189,,,,,,TRUE,,,,,CAVOK,,,,,,,,VFR,,,,,,,,,,,,METAR,102.0
LRTR 072200Z 33006KT CAVOK 18/15 Q1019,LRTR,2023-07-07T22:00:00Z,45.82,21.33,18.0,15.0,330,6,,6.21,30.088583,,,,,,,,,,,CAVOK,,,,,,,,VFR,,,,,,,,,,,,METAR,104.0
LRTM 072200Z AUTO VRB02KT 9999 BKN055/// 18/17 Q1019,LRTM,2023-07-07T22:00:00Z,46.47,24.42,18.0,17.0,0,2,,6.21,30.088583,,,TRUE,,,,,,,,BKN,5500,,,,,,,VFR,,,,,,,,,,,,METAR,289.0
LRTC 072200Z AUTO 33020KT 9999 SCT140/// 23/15 Q1012,LRTC,2023-07-07T22:00:00Z,45.07,28.72,23.0,15.0,330,20,,6.21,29.88189,,,TRUE,,,,,,,,SCT,14000,,,,,,,VFR,,,,,,,,,,,,METAR,52.0
LRSV 072200Z 31010KT 9999 BKN035 19/16 Q1018,LRSV,2023-07-07T22:00:00Z,47.68,26.35,19.0,16.0,310,10,,6.21,30.059055,,,,,,,,,,,BKN,3500,,,,,,,VFR,,,,,,,,,,,,METAR,406.0
LRSM 072200Z AUTO 36006KT 9999 BKN140/// BKN160/// 19/12 Q1020,LRSM,2023-07-07T22:00:00Z,47.7,22.88,19.0,12.0,360,6,,6.21,30.11811,,,TRUE,,,,,,,,BKN,14000,BKN,16000,,,,,VFR,,,,,,,,,,,,METAR,123.0
LRSB 072200Z 26008KT 9999 FEW034 SCT055 17/16 Q1019,LRSB,2023-07-07T22:00:00Z,45.78,24.08,17.0,16.0,260,8,,6.21,30.088583,,,,,,,,,,,FEW,3400,SCT,5500,,,,,VFR,,,,,,,,,,,,METAR,442.0
LROP 072200Z 15006KT CAVOK 21/18 Q1015 NOSIG,LROP,2023-07-07T22:00:00Z,44.57,26.1,21.0,18.0,150,6,,6.21,29.970472,,,,,,TRUE,,,,,CAVOK,,,,,,,,VFR,,,,,,,,,,,,METAR,92.0
LROD 072200Z AUTO 02007KT 9999 18/12 Q1020,LROD,2023-07-07T22:00:00Z,47.03,21.88,18.0,12.0,20,7,,6.21,30.11811,,,TRUE,,,,,,,,,,,,,,,,,,,,,,,,,,,,METAR,132.0
LRIA 072200Z 32013KT 9999 SHRA FEW006 SCT025CB OVC030 19/18 Q1015,LRIA,2023-07-07T22:00:00Z,47.17,27.62,19.0,18.0,320,13,,6.21,29.970472,,,,,,,,,,SHRA,FEW,600,SCT,2500,OVC,3000,,,MVFR,,,,,,,,,,,,METAR,71.0
LRCV 072200Z 29004KT CAVOK 19/15 Q1015,LRCV,2023-07-07T22:00:00Z,44.32,23.88,19.0,15.0,290,4,,6.21,29.970472,,,,,,,,,,,CAVOK,,,,,,,,VFR,,,,,,,,,,,,METAR,192.0
LRCL 072200Z 25004KT CAVOK 18/17 Q1020,LRCL,2023-07-07T22:00:00Z,46.78,23.68,18.0,17.0,250,4,,6.21,30.11811,,,,,,,,,,,CAVOK,,,,,,,,VFR,,,,,,,,,,,,METAR,313.0
LRCK 072200Z 31015KT CAVOK 23/16 Q1013 NOSIG,LRCK,2023-07-07T22:00:00Z,44.37,28.48,23.0,16.0,310,15,,6.21,29.911417,,,,,,TRUE,,,,,CAVOK,,,,,,,,VFR,,,,,,,,,,,,METAR,108.0
LRBV 072200Z AUTO 13004KT 100V180 6000 R03///// RA SCT006/// BKN017/// OVC049/// 17/17 Q1019,LRBV,2023-07-07T22:00:00Z,,,17.0,17.0,130,4,,3.73,30.088583,,,TRUE,,,,,,,RA,SCT,600,BKN,1700,OVC,4900,,,MVFR,,,,,,,,,,,,METAR,
LRBS 072200Z 12003KT 090V170 CAVOK 22/17 Q1015 NOSIG,LRBS,2023-07-07T22:00:00Z,44.5,26.08,22.0,17.0,120,3,,6.21,29.970472,,,,,,TRUE,,,,,CAVOK,,,,,,,,VFR,,,,,,,,,,,,METAR,91.0
LRBM 072200Z AUTO VRB02KT 9999 SCT095/// BKN120/// OVC170/// 18/15 Q1019,LRBM,2023-07-07T22:00:00Z,47.67,23.47,18.0,15.0,0,2,,6.21,30.088583,,,TRUE,,,,,,,,SCT,9500,BKN,12000,OVC,17000,,,VFR,,,,,,,,,,,,METAR,180.0
LRBC 072200Z 33017KT 9999 FEW025 BKN050 20/14 Q1016,LRBC,2023-07-07T22:00:00Z,46.52,26.92,20.0,14.0,330,17,,6.21,30.0,,,,,,,,,,,FEW,2500,BKN,5000,,,,,VFR,,,,,,,,,,,,METAR,183.0
LRAR 072200Z AUTO /////KT 9999 NCD 18/14 Q1020,LRAR,2023-07-07T22:00:00Z,46.18,21.27,18.0,14.0,,,,6.21,30.11811,,,TRUE,,,,,,,,CLR,,,,,,,,VFR,,,,,,,,,,,,METAR,102.0
LQTZ 072200Z VRB01KT CAVOK 14/14 Q1022,LQTZ,2023-07-07T22:00:00Z,44.47,18.73,14.0,14.0,0,1,,6.21,30.177166,,,,,,,,,,,CAVOK,,,,,,,,VFR,,,,,,,,,,,,METAR,242.0
LQSA 072200Z 14005KT CAVOK 13/13 Q1024,LQSA,2023-07-07T22:00:00Z,43.82,18.32,13.0,13.0,140,5,,6.21,30.236221,,,,,,,,,,,CAVOK,,,,,,,,VFR,,,,,,,,,,,,METAR,505.0
LQMO 072200Z 12004KT 9999 FEW060 24/09 Q1018,LQMO,2023-07-07T22:00:00Z,43.28,17.83,24.0,9.0,120,4,,6.21,30.059055,,,,,,,,,,,FEW,6000,,,,,,,VFR,,,,,,,,,,,,METAR,49.0
LQBK 072200Z 16005KT CAVOK 17/17 Q1022 NOSIG,LQBK,2023-07-07T22:00:00Z,44.93,17.3,17.0,17.0,160,5,,6.21,30.177166,,,,,,TRUE,,,,,CAVOK,,,,,,,,VFR,,,,,,,,,,,,METAR,114.0
LPPT 072200Z 27008KT 9999 FEW015 20/17 Q1018,LPPT,2023-07-07T22:00:00Z,38.77,-9.13,20.0,17.0,270,8,,6.21,30.059055,,,,,,,,,,,FEW,1500,,,,,,,VFR,,,,,,,,,,,,METAR,98.0
LPPS 072200Z 32007KT 9999 SCT014 22/18 Q1021,LPPS,2023-07-07T22:00:00Z,33.07,-16.35,22.0,18.0,320,7,,6.21,30.147638,,,,,,,,,,,SCT,1400,,,,,,,VFR,,,,,,,,,,,,METAR,89.0
LPPR 072200Z 19011KT 9999 SCT005 BKN030 19/18 Q1016,LPPR,2023-07-07T22:00:00Z,41.23,-8.68,19.0,18.0,190,11,,6.21,30.0,,,,,,,,,,,SCT,500,BKN,3000,,,,,MVFR,,,,,,,,,,,,METAR,64.0
LPPD 072200Z 33006KT 9999 FEW025 18/13 Q1021,LPPD,2023-07-07T22:00:00Z,37.73,-25.68,18.0,13.0,330,6,,6.21,30.147638,,,,,,,,,,,FEW,2500,,,,,,,VFR,,,,,,,,,,,,METAR,62.0
LPMA 072200Z 28003KT 240V310 9999 FEW015 22/18 Q1021,LPMA,2023-07-07T22:00:00Z,32.7,-16.77,22.0,18.0,280,3,,6.21,30.147638,,,,,,,,,,,FEW,1500,,,,,,,VFR,,,,,,,,,,,,METAR,54.0
LPLA 072200Z /////KT 9999 SCT025 20/15 Q1022,LPLA,2023-07-07T22:00:00Z,38.77,-27.1,20.0,15.0,,,,6.21,30.177166,,,,,,,,,,,SCT,2500,,,,,,,VFR,,,,,,,,,,,,METAR,60.0
LPFR 072200Z 31009KT CAVOK 23/14 Q1016,LPFR,2023-07-07T22:00:00Z,37.02,-7.97,23.0,14.0,310,9,,6.21,30.0,,,,,,,,,,,CAVOK,,,,,,,,VFR,,,,,,,,,,,,METAR,3.0
LPBJ 072200Z 28008KT CAVOK 19/15 Q1018,LPBJ,2023-07-07T22:00:00Z,38.08,-7.93,19.0,15.0,280,8,,6.21,30.059055,,,,,,,,,,,CAVOK,,,,,,,,VFR,,,,,,,,,,,,METAR,196.0
LPAZ 072200Z 02008KT 9999 FEW016 SCT021 19/16 Q1021,LPAZ,2023-07-07T22:00:00Z,36.97,-25.17,19.0,16.0,20,8,,6.21,30.147638,,,,,,,,,,,FEW,1600,SCT,2100,,,,,VFR,,,,,,,,,,,,METAR,96.0
LKTB 072200Z 06006KT CAVOK 19/09 Q1022 NOSIG,LKTB,2023-07-07T22:00:00Z,49.15,16.68,19.0,9.0,60,6,,6.21,30.177166,,,,,,TRUE,,,,,CAVOK,,,,,,,,VFR,,,,,,,,,,,,METAR,233.0
LKPR 072200Z 16005KT CAVOK 19/07 Q1022 NOSIG,LKPR,2023-07-07T22:00:00Z,50.1,14.27,19.0,7.0,160,5,,6.21,30.177166,,,,,,TRUE,,,,,CAVOK,,,,,,,,VFR,,,,,,,,,,,,METAR,364.0
LKPD 072200Z 09007KT CAVOK 16/10 Q1022 RMK BLU,LKPD,2023-07-07T22:00:00Z,50.02,15.73,16.0,10.0,90,7,,6.21,30.177166,,,,,,,,,,,CAVOK,,,,,,,,VFR,,,,,,,,,,,,METAR,226.0
LKNA 072200Z 09005KT CAVOK 19/08 Q1023 RMK BLU,LKNA,2023-07-07T22:00:00Z,49.17,16.12,19.0,8.0,90,5,,6.21,30.206694,,,,,,,,,,,CAVOK,,,,,,,,VFR,,,,,,,,,,,,METAR,460.0
LKMT 072200Z 19003KT CAVOK 15/12 Q1023 NOSIG,LKMT,2023-07-07T22:00:00Z,49.68,18.12,15.0,12.0,190,3,,6.21,30.206694,,,,,,TRUE,,,,,CAVOK,,,,,,,,VFR,,,,,,,,,,,,METAR,251.0
LKLN 072200Z AUTO VRB01KT 9999 // NCD 17/08 Q1021,LKLN,2023-07-07T22:00:00Z,49.68,13.27,17.0,8.0,0,1,,6.21,30.147638,,,TRUE,,,,,,,,CLR,,,,,,,,VFR,,,,,,,,,,,,METAR,353.0
LKKV 072200Z 12008KT CAVOK 19/06 Q1022,LKKV,2023-07-07T22:00:00Z,50.2,12.92,19.0,6.0,120,8,,6.21,30.177166,,,,,,,,,,,CAVOK,,,,,,,,VFR,,,,,,,,,,,,METAR,600.0
LKKB 072200Z 13006KT CAVOK 21/07 Q1021,LKKB,2023-07-07T22:00:00Z,50.12,14.53,21.0,7.0,130,6,,6.21,30.147638,,,,,,,,,,,CAVOK,,,,,,,,VFR,,,,,,,,,,,,METAR,281.0
LKCV 072200Z 13003KT 080V160 CAVOK 15/10 Q1022 NOSIG RMK BLU BLU,LKCV,2023-07-07T22:00:00Z,49.93,15.38,15.0,10.0,130,3,,6.21,30.177166,,,,,,TRUE,,,,,CAVOK,,,,,,,,VFR,,,,,,,,,,,,METAR,234.0
LJPZ 072200Z AUTO 12007KT 9999 NCD 19/16 Q1021,LJPZ,2023-07-07T22:00:00Z,45.47,13.62,19.0,16.0,120,7,,6.21,30.147638,,,TRUE,,,,,,,,CLR,,,,,,,,VFR,,,,,,,,,,,,METAR,2.0
LJMB 072200Z AUTO VRB01KT 9999 NCD 15/13 Q1023,LJMB,2023-07-07T22:00:00Z,46.47,15.67,15.0,13.0,0,1,,6.21,30.206694,,,TRUE,,,,,,,,CLR,,,,,,,,VFR,,,,,,,,,,,,METAR,263.0
LJLJ 072200Z VRB02KT CAVOK 15/13 Q1023 NOSIG,LJLJ,2023-07-07T22:00:00Z,46.22,14.47,15.0,13.0,0,2,,6.21,30.206694,,,,,,TRUE,,,,,CAVOK,,,,,,,,VFR,,,,,,,,,,,,METAR,363.0
LJCE 072200Z AUTO 26002KT 9999 NSC 15/14 Q1023,LJCE,2023-07-07T22:00:00Z,45.9,15.52,15.0,14.0,260,2,,6.21,30.206694,,,TRUE,,,,,,,,CLR,,,,,,,,VFR,,,,,,,,,,,,METAR,153.0
LHBP 072200Z 00000KT CAVOK 19/11 Q1022 NOSIG,LHBP,2023-07-07T22:00:00Z,47.43,19.27,19.0,11.0,0,0,,6.21,30.177166,,,,,,TRUE,,,,,CAVOK,,,,,,,,VFR,,,,,,,,,,,,METAR,141.0
LGKP 072200Z AUTO 30019KT //// -RA ////// 25/22 Q1009 RE//,LGKP,2023-07-07T22:00:00Z,35.42,27.15,25.0,22.0,300,19,,,29.793306,,,TRUE,,,,,,,-RA,,,,,,,,,,,,,,,,,,,,,METAR,20.0
LFYR 072200Z AUTO 08004KT 9999 //////CB 22/17 Q1012,LFYR,2023-07-07T22:00:00Z,47.32,1.68,22.0,17.0,80,4,,6.21,29.88189,,,TRUE,,,,,,,,,,,,,,,,,,,,,,,,,,,,METAR,83.0
LFVP 072200Z AUTO 25009KT CAVOK 18/16 Q1009,LFVP,2023-07-07T22:00:00Z,46.77,-56.18,18.0,16.0,250,9,,6.21,29.793306,,,TRUE,,,,,,,,CAVOK,,,,,,,,VFR,,,,,,,,,,,,METAR,5.0
LFTW 072200Z AUTO VRB02KT 9999 ///TCU 23/16 Q1019,LFTW,2023-07-07T22:00:00Z,43.75,4.42,23.0,16.0,0,2,,6.21,30.088583,,,TRUE,,,,,,,,,,,,,,,,,,,,,,,,,,,,METAR,91.0
LFTH 072200Z AUTO 07009KT 030V110 9999 ///TCU 28/16 Q1016 TEMPO TS FEW090CB,LFTH,2023-07-07T22:00:00Z,43.1,6.15,28.0,16.0,70,9,,6.21,30.0,,,TRUE,,,,,,,,,,,,,,,,,,,,,,,,,,,,METAR,3.0
LFSX 072200Z AUTO VRB01KT CAVOK 21/15 Q1016,LFSX,2023-07-07T22:00:00Z,47.77,6.35,21.0,15.0,0,1,,6.21,30.0,,,TRUE,,,,,,,,CAVOK,,,,,,,,VFR,,,,,,,,,,,,METAR,266.0
LFST 072200Z AUTO VRB03KT CAVOK 20/13 Q1016 TEMPO VRB15G25KT FEW060CB,LFST,2023-07-07T22:00:00Z,48.53,7.63,20.0,13.0,0,3,,6.21,30.0,,,TRUE,,,,,,,,CAVOK,,,,,,,,VFR,,,,,,,,,,,,METAR,149.0
LFSO 072200Z AUTO VRB02KT CAVOK 22/11 Q1017,LFSO,2023-07-07T22:00:00Z,48.57,5.97,22.0,11.0,0,2,,6.21,30.029528,,,TRUE,,,,,,,,CAVOK,,,,,,,,VFR,,,,,,,,,,,,METAR,328.0
LFSN 072200Z AUTO 04002KT CAVOK 21/12 Q1016,LFSN,2023-07-07T22:00:00Z,48.68,6.22,21.0,12.0,40,2,,6.21,30.0,,,TRUE,,,,,,,,CAVOK,,,,,,,,VFR,,,,,,,,,,,,METAR,214.0
LFSI 072200Z AUTO 08006KT CAVOK 23/13 Q1015,LFSI,2023-07-07T22:00:00Z,48.62,4.9,23.0,13.0,80,6,,6.21,29.970472,,,TRUE,,,,,,,,CAVOK,,,,,,,,VFR,,,,,,,,,,,,METAR,136.0
LFSG 072200Z AUTO VRB02KT CAVOK 22/12 Q1016,LFSG,2023-07-07T22:00:00Z,48.33,6.07,22.0,12.0,0,2,,6.21,30.0,,,TRUE,,,,,,,,CAVOK,,,,,,,,VFR,,,,,,,,,,,,METAR,320.0
LFSD 072200Z AUTO 00000KT CAVOK 22/15 Q1015,LFSD,2023-07-07T22:00:00Z,47.27,5.08,22.0,15.0,0,0,,6.21,29.970472,,,TRUE,,,,,,,,CAVOK,,,,,,,,VFR,,,,,,,,,,,,METAR,218.0
LFSB 072200Z AUTO 25003KT CAVOK 18/16 Q1017 TEMPO VRB15G25KT 4000 -TSRA SCT050CB,LFSB,2023-07-07T22:00:00Z,47.6,7.52,18.0,16.0,250,3,,6.21,30.029528,,,TRUE,,,,,,,,CAVOK,,,,,,,,VFR,,,,,,,,,,,,METAR,262.0
LFRZ 072200Z AUTO 33004KT 300V010 CAVOK 23/18 Q1011 NOSIG,LFRZ,2023-07-07T22:00:00Z,47.32,-2.17,23.0,18.0,330,4,,6.21,29.852362,,,TRUE,,,TRUE,,,,,CAVOK,,,,,,,,VFR,,,,,,,,,,,,METAR,2.0
LFRV 072200Z AUTO 24004KT CAVOK 20/16 Q1012,LFRV,2023-07-07T22:00:00Z,47.72,-2.72,20.0,16.0,240,4,,6.21,29.88189,,,TRUE,,,,,,,,CAVOK,,,,,,,,VFR,,,,,,,,,,,,METAR,132.0
LFRT 072200Z AUTO 18005KT CAVOK 22/16 Q1011,LFRT,2023-07-07T22:00:00Z,48.53,-2.85,22.0,16.0,180,5,,6.21,29.852362,,,TRUE,,,,,,,,CAVOK,,,,,,,,VFR,,,,,,,,,,,,METAR,134.0
LFRS 072200Z AUTO 06003KT CAVOK 23/17 Q1011 NOSIG,LFRS,2023-07-07T22:00:00Z,47.17,-1.6,23.0,17.0,60,3,,6.21,29.852362,,,TRUE,,,TRUE,,,,,CAVOK,,,,,,,,VFR,,,,,,,,,,,,METAR,26.0
LFRQ 072200Z AUTO 20005KT 8000 BKN002 18/18 Q1012,LFRQ,2023-07-07T22:00:00Z,47.97,-4.17,18.0,18.0,200,5,,4.97,29.88189,,,TRUE,,,,,,,,BKN,200,,,,,,,LIFR,,,,,,,,,,,,METAR,94.0
LFRN 072200Z AUTO 12005KT 090V150 CAVOK 24/17 Q1011 TEMPO VRB15G30KT 2000 TSRAGR BKN040CB,LFRN,2023-07-07T22:00:00Z,48.07,-1.73,24.0,17.0,120,5,,6.21,29.852362,,,TRUE,,,,,,,,CAVOK,,,,,,,,VFR,,,,,,,,,,,,METAR,35.0
LFRM 072200Z AUTO 17013KT 120V210 9999 TSRA ///CB 22/16 Q1014,LFRM,2023-07-07T22:00:00Z,47.95,0.2,22.0,16.0,170,13,,6.21,29.940945,,,TRUE,,,,,,,TSRA,,,,,,,,,,,,,,,,,,,,,METAR,51.0
LFRL 072200Z AUTO 19010KT CAVOK 19/17 Q1011,LFRL,2023-07-07T22:00:00Z,48.27,-4.43,19.0,17.0,190,10,,6.21,29.852362,,,TRUE,,,,,,,,CAVOK,,,,,,,,VFR,,,,,,,,,,,,METAR,80.0
LFRK 072200Z AUTO 13005KT CAVOK 22/16 Q1012,LFRK,2023-07-07T22:00:00Z,49.17,-0.45,22.0,16.0,130,5,,6.21,29.88189,,,TRUE,,,,,,,,CAVOK,,,,,,,,VFR,,,,,,,,,,,,METAR,66.0
LFRJ 072200Z AUTO 18009KT CAVOK 19/17 Q1011,LFRJ,2023-07-07T22:00:00Z,48.52,-4.15,19.0,17.0,180,9,,6.21,29.852362,,,TRUE,,,,,,,,CAVOK,,,,,,,,VFR,,,,,,,,,,,,METAR,109.0
LFRI 072200Z AUTO 36003KT CAVOK 24/17 Q1011,LFRI,2023-07-07T22:00:00Z,46.7,-1.37,24.0,17.0,360,3,,6.21,29.852362,,,TRUE,,,,,,,,CAVOK,,,,,,,,VFR,,,,,,,,,,,,METAR,89.0
LFRH 072200Z AUTO 23009KT 9999 FEW005 19/18 Q1012 TEMPO 17010KT 4000 BR,LFRH,2023-07-07T22:00:00Z,47.77,-3.45,19.0,18.0,230,9,,6.21,29.88189,,,TRUE,,,,,,,,FEW,500,,,,,,,VFR,,,,,,,,,,,,METAR,46.0
LFRG 072200Z AUTO 11005KT CAVOK 23/16 Q1013,LFRG,2023-07-07T22:00:00Z,49.37,0.15,23.0,16.0,110,5,,6.21,29.911417,,,TRUE,,,,,,,,CAVOK,,,,,,,,VFR,,,,,,,,,,,,METAR,146.0
LFRD 072200Z AUTO 14007KT 100V170 CAVOK 24/17 Q1011 TEMPO VRB15G30KT 2000 TSRAGR BKN040CB,LFRD,2023-07-07T22:00:00Z,48.58,-2.07,24.0,17.0,140,7,,6.21,29.852362,,,TRUE,,,,,,,,CAVOK,,,,,,,,VFR,,,,,,,,,,,,METAR,56.0
LFRC 072200Z AUTO 10008KT CAVOK 21/13 Q1011,LFRC,2023-07-07T22:00:00Z,49.63,-1.47,21.0,13.0,100,8,,6.21,29.852362,,,TRUE,,,,,,,,CAVOK,,,,,,,,VFR,,,,,,,,,,,,METAR,137.0
LFRB 072200Z AUTO 18014KT CAVOK 19/17 Q1011 TEMPO BKN007,LFRB,2023-07-07T22:00:00Z,48.45,-4.42,19.0,17.0,180,14,,6.21,29.852362,,,TRUE,,,,,,,,CAVOK,,,,,,,,VFR,,,,,,,,,,,,METAR,91.0
LFQQ 072200Z AUTO 07006KT CAVOK 22/12 Q1015 BECMG 13010KT,LFQQ,2023-07-07T22:00:00Z,50.57,3.1,22.0,12.0,70,6,,6.21,29.970472,,,TRUE,,,,,,,,CAVOK,,,,,,,,VFR,,,,,,,,,,,,METAR,43.0
LFQB 072200Z AUTO VRB03KT CAVOK 20/14 Q1014,LFQB,2023-07-07T22:00:00Z,48.32,4.02,20.0,14.0,0,3,,6.21,29.940945,,,TRUE,,,,,,,,CAVOK,,,,,,,,VFR,,,,,,,,,,,,METAR,107.0
LFQA 072200Z AUTO 00000KT CAVOK 17/13 Q1015,LFQA,2023-07-07T22:00:00Z,49.2,4.15,17.0,13.0,0,0,,6.21,29.970472,,,TRUE,,,,,,,,CAVOK,,,,,,,,VFR,,,,,,,,,,,,METAR,92.0
LFPV 072200Z AUTO 10005KT 9999 // NSC 25/14 Q1014,LFPV,2023-07-07T22:00:00Z,48.77,2.2,25.0,14.0,100,5,,6.21,29.940945,,,TRUE,,,,,,,,CLR,,,,,,,,VFR,,,,,,,,,,,,METAR,171.0
LFPT 072200Z AUTO 09003KT CAVOK 20/13 Q1014,LFPT,2023-07-07T22:00:00Z,49.1,2.03,20.0,13.0,90,3,,6.21,29.940945,,,TRUE,,,,,,,,CAVOK,,,,,,,,VFR,,,,,,,,,,,,METAR,91.0
LFPO 072200Z AUTO VRB02KT CAVOK 24/14 Q1014 NOSIG,LFPO,2023-07-07T22:00:00Z,48.72,2.38,24.0,14.0,0,2,,6.21,29.940945,,,TRUE,,,TRUE,,,,,CAVOK,,,,,,,,VFR,,,,,,,,,,,,METAR,88.0
LFPN 072200Z AUTO 10003KT CAVOK 23/14 Q1014,LFPN,2023-07-07T22:00:00Z,48.75,2.12,23.0,14.0,100,3,,6.21,29.940945,,,TRUE,,,,,,,,CAVOK,,,,,,,,VFR,,,,,,,,,,,,METAR,152.0
LFPM 072200Z AUTO 08005KT 050V110 CAVOK 20/12 Q1014,LFPM,2023-07-07T22:00:00Z,48.62,2.67,20.0,12.0,80,5,,6.21,29.940945,,,TRUE,,,,,,,,CAVOK,,,,,,,,VFR,,,,,,,,,,,,METAR,91.0
LFPG 072200Z 10008KT CAVOK 25/14 Q1014 NOSIG,LFPG,2023-07-07T22:00:00Z,49.02,2.53,25.0,14.0,100,8,,6.21,29.940945,,,,,,TRUE,,,,,CAVOK,,,,,,,,VFR,,,,,,,,,,,,METAR,107.0
LFPB 072200Z AUTO 05005KT CAVOK 21/14 Q1014 BECMG 12010KT,LFPB,2023-07-07T22:00:00Z,48.97,2.42,21.0,14.0,50,5,,6.21,29.940945,,,TRUE,,,,,,,,CAVOK,,,,,,,,VFR,,,,,,,,,,,,METAR,50.0
LFOZ 072200Z AUTO 08007KT CAVOK 25/15 Q1014,LFOZ,2023-07-07T22:00:00Z,47.9,2.17,25.0,15.0,80,7,,6.21,29.940945,,,TRUE,,,,,,,,CAVOK,,,,,,,,VFR,,,,,,,,,,,,METAR,121.0
LFOV 072200Z AUTO 08007KT 9999 ///CB 20/17 Q1012,LFOV,2023-07-07T22:00:00Z,48.03,-0.75,20.0,17.0,80,7,,6.21,29.88189,,,TRUE,,,,,,,,,,,,,,,,,,,,,,,,,,,,METAR,99.0
LFOT 072200Z AUTO 36003KT 320V040 9999 VCTS ///CB 25/17 Q1012 TEMPO NSW,LFOT,2023-07-07T22:00:00Z,47.43,0.72,25.0,17.0,360,3,,6.21,29.88189,,,TRUE,,,,,,,VCTS,,,,,,,,,,,,,,,,,,,,,METAR,107.0
LFOP 072200Z AUTO 12007KT CAVOK 22/14 Q1014,LFOP,2023-07-07T22:00:00Z,49.37,1.17,22.0,14.0,120,7,,6.21,29.940945,,,TRUE,,,,,,,,CAVOK,,,,,,,,VFR,,,,,,,,,,,,METAR,149.0
LFOK 072200Z AUTO 06006KT CAVOK 20/15 Q1015 NOSIG,LFOK,2023-07-07T22:00:00Z,48.78,4.15,20.0,15.0,60,6,,6.21,29.970472,,,TRUE,,,TRUE,,,,,CAVOK,,,,,,,,VFR,,,,,,,,,,,,METAR,166.0
LFOJ 072200Z AUTO 09007KT CAVOK 24/15 Q1013 TEMPO 22020G30KT 4000 SHRA SCT080CB,LFOJ,2023-07-07T22:00:00Z,47.98,1.75,24.0,15.0,90,7,,6.21,29.911417,,,TRUE,,,,,,,,CAVOK,,,,,,,,VFR,,,,,,,,,,,,METAR,122.0
LFOH 072200Z AUTO 10008KT CAVOK 23/16 Q1012,LFOH,2023-07-07T22:00:00Z,49.52,0.08,23.0,16.0,100,8,,6.21,29.88189,,,TRUE,,,,,,,,CAVOK,,,,,,,,VFR,,,,,,,,,,,,METAR,87.0
LFOE 072200Z AUTO 14005KT CAVOK 25/14 Q1014 TEMPO 18015G30KT,LFOE,2023-07-07T22:00:00Z,49.02,1.22,25.0,14.0,140,5,,6.21,29.940945,,,TRUE,,,,,,,,CAVOK,,,,,,,,VFR,,,,,,,,,,,,METAR,132.0
LFOB 072200Z AUTO 08004KT CAVOK 19/13 Q1014 NOSIG,LFOB,2023-07-07T22:00:00Z,49.47,2.12,19.0,13.0,80,4,,6.21,29.940945,,,TRUE,,,TRUE,,,,,CAVOK,,,,,,,,VFR,,,,,,,,,,,,METAR,99.0
LFOA 072200Z AUTO 11005KT CAVOK 25/17 Q1014,LFOA,2023-07-07T22:00:00Z,47.05,2.63,25.0,17.0,110,5,,6.21,29.940945,,,TRUE,,,,,,,,CAVOK,,,,,,,,VFR,,,,,,,,,,,,METAR,174.0
LFMY 072200Z AUTO VRB03KT 9999 ////// 26/15 Q1018,LFMY,2023-07-07T22:00:00Z,43.6,5.1,26.0,15.0,0,3,,6.21,30.059055,,,TRUE,,,,,,,,,,,,,,,,,,,,,,,,,,,,METAR,57.0
LFMV 072200Z AUTO 28003KT 240V330 CAVOK 25/17 Q1019,LFMV,2023-07-07T22:00:00Z,43.9,4.9,25.0,17.0,280,3,,6.21,30.088583,,,TRUE,,,,,,,,CAVOK,,,,,,,,VFR,,,,,,,,,,,,METAR,33.0
LFMU 072200Z AUTO 31009KT 9999 ///CB 24/18 Q1020,LFMU,2023-07-07T22:00:00Z,43.32,3.35,24.0,18.0,310,9,,6.21,30.11811,,,TRUE,,,,,,,,,,,,,,,,,,,,,,,,,,,,METAR,14.0
LFMT 072200Z AUTO 26008KT CAVOK 25/19 Q1019 NOSIG,LFMT,2023-07-07T22:00:00Z,43.57,3.97,25.0,19.0,260,8,,6.21,30.088583,,,TRUE,,,TRUE,,,,,CAVOK,,,,,,,,VFR,,,,,,,,,,,,METAR,1.0
LFMP 072200Z AUTO 01007KT 310V070 CAVOK 24/19 Q1018,LFMP,2023-07-07T22:00:00Z,42.73,2.87,24.0,19.0,10,7,,6.21,30.059055,,,TRUE,,,,,,,,CAVOK,,,,,,,,VFR,,,,,,,,,,,,METAR,41.0
LFMO 072200Z AUTO 04001KT 9999 ///TCU 23/18 Q1019 TEMPO 3000 TSRA SCT060CB BECMG 23012KT,LFMO,2023-07-07T22:00:00Z,44.13,4.87,23.0,18.0,40,1,,6.21,30.088583,,,TRUE,,,,,,,,,,,,,,,,,,,,,,,,,,,,METAR,56.0
LFMN 072200Z 01007KT 330V040 CAVOK 27/15 Q1019 NOSIG,LFMN,2023-07-07T22:00:00Z,43.65,7.2,27.0,15.0,10,7,,6.21,30.088583,,,,,,TRUE,,,,,CAVOK,,,,,,,,VFR,,,,,,,,,,,,METAR,4.0
LFML 072200Z AUTO 02005KT 350V060 CAVOK 29/12 Q1018 TEMPO VRB15KT TS SCT090CB,LFML,2023-07-07T22:00:00Z,43.45,5.22,29.0,12.0,20,5,,6.21,30.059055,,,TRUE,,,,,,,,CAVOK,,,,,,,,VFR,,,,,,,,,,,,METAR,20.0
LFMK 072200Z AUTO VRB02KT CAVOK 20/18 Q1017,LFMK,2023-07-07T22:00:00Z,43.22,2.32,20.0,18.0,0,2,,6.21,30.029528,,,TRUE,,,,,,,,CAVOK,,,,,,,,VFR,,,,,,,,,,,,METAR,124.0
LFMI 072200Z AUTO 31011KT CAVOK 25/18 Q1019 TEMPO TS SCT090CB,LFMI,2023-07-07T22:00:00Z,43.52,4.93,25.0,18.0,310,11,,6.21,30.088583,,,TRUE,,,,,,,,CAVOK,,,,,,,,VFR,,,,,,,,,,,,METAR,20.0
LFMH 072200Z AUTO 17007KT CAVOK 23/13 Q1018,LFMH,2023-07-07T22:00:00Z,45.52,4.28,23.0,13.0,170,7,,6.21,30.059055,,,TRUE,,,,,,,,CAVOK,,,,,,,,VFR,,,,,,,,,,,,METAR,400.0
LFMD 072200Z AUTO 02005KT 340V050 9999 FEW090 BKN140 BKN160 26/17 Q1018 TEMPO FEW130TCU,LFMD,2023-07-07T22:00:00Z,43.53,6.95,26.0,17.0,20,5,,6.21,30.059055,,,TRUE,,,,,,,,FEW,9000,BKN,14000,BKN,16000,,,VFR,,,,,,,,,,,,METAR,2.0
LFMC 072200Z AUTO 02003KT 330V060 9999 ////// 26/13 Q1017,LFMC,2023-07-07T22:00:00Z,43.37,6.38,26.0,13.0,20,3,,6.21,30.029528,,,TRUE,,,,,,,,,,,,,,,,,,,,,,,,,,,,METAR,79.0
LFLY 072200Z AUTO 16011KT CAVOK 26/15 Q1017 TEMPO SHRA SCT070CB,LFLY,2023-07-07T22:00:00Z,45.72,4.95,26.0,15.0,160,11,,6.21,30.029528,,,TRUE,,,,,,,,CAVOK,,,,,,,,VFR,,,,,,,,,,,,METAR,197.0
LFLX 072200Z AUTO 20011KT 170V260 9999 -TSRA ///CB 23/19 Q1013 TEMPO VRB15G30KT 3000 -TSRA,LFLX,2023-07-07T22:00:00Z,46.87,1.73,23.0,19.0,200,11,,6.21,29.911417,,,TRUE,,,,,,,-TSRA,,,,,,,,,,,,,,,,,,,,,METAR,157.0
LFLW 072200Z AUTO 14007KT 110V180 9999 -RA ///CB 17/16 Q1021,LFLW,2023-07-07T22:00:00Z,44.88,2.42,17.0,16.0,140,7,,6.21,30.147638,,,TRUE,,,,,,,-RA,,,,,,,,,,,,,,,,,,,,,METAR,638.0
LFLS 072200Z AUTO 22009G20KT 180V250 CAVOK 24/14 Q1019,LFLS,2023-07-07T22:00:00Z,45.37,5.32,24.0,14.0,220,9,20,6.21,30.088583,,,TRUE,,,,,,,,CAVOK,,,,,,,,VFR,,,,,,,,,,,,METAR,386.0
LFLP 072200Z AUTO 05003KT 010V080 CAVOK 21/15 Q1019,LFLP,2023-07-07T22:00:00Z,45.92,6.1,21.0,15.0,50,3,,6.21,30.088583,,,TRUE,,,,,,,,CAVOK,,,,,,,,VFR,,,,,,,,,,,,METAR,460.0
LFLN 072200Z AUTO 17009KT CAVOK 23/15 Q1015,LFLN,2023-07-07T22:00:00Z,46.42,4.02,23.0,15.0,170,9,,6.21,29.970472,,,TRUE,,,,,,,,CAVOK,,,,,,,,VFR,,,,,,,,,,,,METAR,238.0
LFLL 072200Z 17008KT CAVOK 27/15 Q1017 NOSIG,LFLL,2023-07-07T22:00:00Z,45.72,5.07,27.0,15.0,170,8,,6.21,30.029528,,,,,,TRUE,,,,,CAVOK,,,,,,,,VFR,,,,,,,,,,,,METAR,234.0
LFLC 072200Z AUTO 17012KT CAVOK 25/13 Q1016 TEMPO SHRA SCT070TCU BKN090,LFLC,2023-07-07T22:00:00Z,45.78,3.17,25.0,13.0,170,12,,6.21,30.0,,,TRUE,,,,,,,,CAVOK,,,,,,,,VFR,,,,,,,,,,,,METAR,325.0
LFLB 072200Z AUTO 36003KT CAVOK 23/18 Q1017,LFLB,2023-07-07T22:00:00Z,45.63,5.87,23.0,18.0,360,3,,6.21,30.029528,,,TRUE,,,,,,,,CAVOK,,,,,,,,VFR,,,,,,,,,,,,METAR,234.0
LFKS 072200Z AUTO 32006KT 270V010 9999 ///CB 24/18 Q1019,LFKS,2023-07-07T22:00:00Z,41.92,9.4,24.0,18.0,320,6,,6.21,30.088583,,,TRUE,,,,,,,,,,,,,,,,,,,,,,,,,,,,METAR,22.0
LFKJ 072200Z AUTO 09006KT CAVOK 25/17 Q1017 NOSIG,LFKJ,2023-07-07T22:00:00Z,41.92,8.8,25.0,17.0,90,6,,6.21,30.029528,,,TRUE,,,TRUE,,,,,CAVOK,,,,,,,,VFR,,,,,,,,,,,,METAR,9.0
LFKF 072200Z AUTO 08009KT 050V120 CAVOK 26/13 Q1018,LFKF,2023-07-07T22:00:00Z,41.5,9.08,26.0,13.0,80,9,,6.21,30.059055,,,TRUE,,,,,,,,CAVOK,,,,,,,,VFR,,,,,,,,,,,,METAR,15.0
LFKC 072200Z AUTO 02005KT 350V080 CAVOK 27/22 Q1016,LFKC,2023-07-07T22:00:00Z,42.52,8.8,27.0,22.0,20,5,,6.21,30.0,,,TRUE,,,,,,,,CAVOK,,,,,,,,VFR,,,,,,,,,,,,METAR,38.0
LFKB 072200Z AUTO 15008KT 120V220 9999 ///CB 23/21 Q1017 BECMG NSC,LFKB,2023-07-07T22:00:00Z,42.55,9.48,23.0,21.0,150,8,,6.21,30.029528,,,TRUE,,,,,,,,,,,,,,,,,,,,,,,,,,,,METAR,7.0
LFJR 072200Z AUTO 07009KT 9999 VCTS ///CB 21/17 Q1013,LFJR,2023-07-07T22:00:00Z,47.57,-0.32,21.0,17.0,70,9,,6.21,29.911417,,,TRUE,,,,,,,VCTS,,,,,,,,,,,,,,,,,,,,,METAR,50.0
LFJL 072200Z AUTO 09009KT CAVOK 23/11 Q1017 NOSIG,LFJL,2023-07-07T22:00:00Z,48.97,6.25,23.0,11.0,90,9,,6.21,30.029528,,,TRUE,,,TRUE,,,,,CAVOK,,,,,,,,VFR,,,,,,,,,,,,METAR,259.0
LFGJ 072200Z AUTO 07003KT CAVOK 21/18 Q1015,LFGJ,2023-07-07T22:00:00Z,47.05,5.43,21.0,18.0,70,3,,6.21,29.970472,,,TRUE,,,,,,,,CAVOK,,,,,,,,VFR,,,,,,,,,,,,METAR,191.0
LFGA 072200Z AUTO 27010KT CAVOK 23/12 Q1016,LFGA,2023-07-07T22:00:00Z,48.1,7.35,23.0,12.0,270,10,,6.21,30.0,,,TRUE,,,,,,,,CAVOK,,,,,,,,VFR,,,,,,,,,,,,METAR,191.0
LFCR 072200Z AUTO 12008KT 7000 RA SCT014/// BKN070/// BKN086/// ///CB 17/16 Q1021 BECMG NSW NSC,LFCR,2023-07-07T22:00:00Z,44.4,2.47,17.0,16.0,120,8,,4.35,30.147638,,,TRUE,,,,,,,RA,SCT,1400,BKN,7000,BKN,8600,,,MVFR,,,,,,,,,,,,METAR,576.0
LFCK 072200Z AUTO /////KT CAVOK 18/17 Q1019,LFCK,2023-07-07T22:00:00Z,43.55,2.28,18.0,17.0,,,,6.21,30.088583,,,TRUE,,,,,,,,CAVOK,,,,,,,,VFR,,,,,,,,,,,,METAR,223.0
LFBZ 072200Z AUTO 07009KT CAVOK 21/16 Q1012 BECMG 20010KT,LFBZ,2023-07-07T22:00:00Z,43.47,-1.53,21.0,16.0,70,9,,6.21,29.88189,,,TRUE,,,,,,,,CAVOK,,,,,,,,VFR,,,1.0,,,,,,,,,METAR,70.0
LFBY 072200Z AUTO 09007KT 060V120 9999 // ////// 20/15 Q1012,LFBY,2023-07-07T22:00:00Z,43.68,-1.07,20.0,15.0,90,7,,6.21,29.88189,,,TRUE,,,,,,,,,,,,,,,,,,,,,,,,,,,,METAR,32.0
LFBX 072200Z AUTO 11006KT 050V160 CAVOK 22/15 Q1014,LFBX,2023-07-07T22:00:00Z,45.2,0.82,22.0,15.0,110,6,,6.21,29.940945,,,TRUE,,,,,,,,CAVOK,,,,,,,,VFR,,,,,,,,,,,,METAR,97.0
LFBU 072200Z AUTO 16009KT 120V190 CAVOK 24/15 Q1014,LFBU,2023-07-07T22:00:00Z,45.72,0.22,24.0,15.0,160,9,,6.21,29.940945,,,TRUE,,,,,,,,CAVOK,,,,,,,,VFR,,,,,,,,,,,,METAR,124.0
LFBT 072200Z AUTO 34004KT 9999 FEW110 16/15 Q1015 NOSIG,LFBT,2023-07-07T22:00:00Z,43.18,0.0,16.0,15.0,340,4,,6.21,29.970472,,,TRUE,,,TRUE,,,,,FEW,11000,,,,,,,VFR,,,,,,,,,,,,METAR,359.0
LFBP 072200Z AUTO 09005KT 060V120 CAVOK 19/15 Q1013 NOSIG,LFBP,2023-07-07T22:00:00Z,43.38,-0.42,19.0,15.0,90,5,,6.21,29.911417,,,TRUE,,,TRUE,,,,,CAVOK,,,,,,,,VFR,,,,,,,,,,,,METAR,182.0
LFBO 072200Z AUTO 10007KT CAVOK 19/17 Q1017 BECMG FEW060CB BKN110,LFBO,2023-07-07T22:00:00Z,43.62,1.37,19.0,17.0,100,7,,6.21,30.029528,,,TRUE,,,,,,,,CAVOK,,,,,,,,VFR,,,,,,,,,,,,METAR,150.0
LFBM 072200Z AUTO 10008KT 070V140 CAVOK 20/16 Q1013,LFBM,2023-07-07T22:00:00Z,43.92,-0.5,20.0,16.0,100,8,,6.21,29.911417,,,TRUE,,,,,,,,CAVOK,,,,,,,,VFR,,,,,,,,,,,,METAR,56.0
LFBL 072200Z AUTO 17010KT CAVOK 22/14 Q1015 NOSIG,LFBL,2023-07-07T22:00:00Z,45.87,1.17,22.0,14.0,170,10,,6.21,29.970472,,,TRUE,,,TRUE,,,,,CAVOK,,,,,,,,VFR,,,,,,,,,,,,METAR,402.0
LFBI 072200Z AUTO 17012G22KT 140V210 9999 ///CB 27/18 Q1012 TEMPO VRB20G40KT 4000 TSRA,LFBI,2023-07-07T22:00:00Z,46.58,0.32,27.0,18.0,170,12,22,6.21,29.88189,,,TRUE,,,,,,,,,,,,,,,,,,,,,,,,,,,,METAR,117.0
LFBH 072200Z AUTO 14006KT CAVOK 22/18 Q1012 TEMPO SCT070CB,LFBH,2023-07-07T22:00:00Z,46.18,-1.2,22.0,18.0,140,6,,6.21,29.88189,,,TRUE,,,,,,,,CAVOK,,,,,,,,VFR,,,,,,,,,,,,METAR,18.0
LFBG 072200Z AUTO 16012KT CAVOK 24/16 Q1013,LFBG,2023-07-07T22:00:00Z,45.67,-0.32,24.0,16.0,160,12,,6.21,29.911417,,,TRUE,,,,,,,,CAVOK,,,,,,,,VFR,,,,,,,,,,,,METAR,28.0
LFBE 072200Z AUTO 11007KT 080V170 CAVOK 21/15 Q1014,LFBE,2023-07-07T22:00:00Z,44.82,0.52,21.0,15.0,110,7,,6.21,29.940945,,,TRUE,,,,,,,,CAVOK,,,,,,,,VFR,,,,,,,,,,,,METAR,49.0
LFBD 072200Z AUTO 13016KT CAVOK 23/15 Q1013 NOSIG,LFBD,2023-07-07T22:00:00Z,44.82,-0.7,23.0,15.0,130,16,,6.21,29.911417,,,TRUE,,,TRUE,,,,,CAVOK,,,,,,,,VFR,,,,,,,,,,,,METAR,48.0
LFBC 072200Z AUTO 14005KT CAVOK 21/15 Q1012 BECMG 14015KT,LFBC,2023-07-07T22:00:00Z,44.52,-1.12,21.0,15.0,140,5,,6.21,29.88189,,,TRUE,,,,,,,,CAVOK,,,,,,,,VFR,,,,,,,,,,,,METAR,22.0
LFBA 072200Z AUTO 11012KT CAVOK 19/18 Q1015,LFBA,2023-07-07T22:00:00Z,44.17,0.6,19.0,18.0,110,12,,6.21,29.970472,,,TRUE,,,,,,,,CAVOK,,,,,,,,VFR,,,,,,,,,,,,METAR,68.0
LFAT 072200Z AUTO 13006KT CAVOK 21/14 Q1014,LFAT,2023-07-07T22:00:00Z,50.52,1.62,21.0,14.0,130,6,,6.21,29.940945,,,TRUE,,,,,,,,CAVOK,,,,,,,,VFR,,,,,,,,,,,,METAR,2.0
LFAQ 072200Z AUTO 10007KT CAVOK 21/13 Q1015,LFAQ,2023-07-07T22:00:00Z,49.97,2.7,21.0,13.0,100,7,,6.21,29.970472,,,TRUE,,,,,,,,CAVOK,,,,,,,,VFR,,,,,,,,,,,,METAR,107.0
LEZL 072200Z 21008KT CAVOK 24/16 Q1016 NOSIG,LEZL,2023-07-07T22:00:00Z,37.42,-5.9,24.0,16.0,210,8,,6.21,30.0,,,,,,TRUE,,,,,CAVOK,,,,,,,,VFR,,,,,,,,,,,,METAR,26.0
LEZG 072200Z 10003KT 9999 FEW060 22/17 Q1015,LEZG,2023-07-07T22:00:00Z,41.67,-1.02,22.0,17.0,100,3,,6.21,29.970472,,,,,,,,,,,FEW,6000,,,,,,,VFR,,,,,,,,,,,,METAR,245.0
LEXJ 072200Z AUTO 26007KT 210V280 9999 BKN013 22/20 Q1013,LEXJ,2023-07-07T22:00:00Z,43.42,-3.82,22.0,20.0,260,7,,6.21,29.911417,,,TRUE,,,,,,,,BKN,1300,,,,,,,MVFR,,,,,,,,,,,,METAR,1.0
LEVX 072200Z 20011KT 2000 0700E RA BCFG SCT005 BKN016 OVC040 18/17 Q1015 NOSIG,LEVX,2023-07-07T22:00:00Z,42.23,-8.62,18.0,17.0,200,11,,1.24,29.970472,,,,,,TRUE,,,,BCFG RA,SCT,500,BKN,1600,OVC,4000,,,IFR,,,,,,,,,,,,METAR,253.0
LEVT 072200Z VRB01KT CAVOK 19/16 Q1015,LEVT,2023-07-07T22:00:00Z,42.87,-2.72,19.0,16.0,0,1,,6.21,29.970472,,,,,,,,,,,CAVOK,,,,,,,,VFR,,,,,,,,,,,,METAR,501.0
LEVS 072200Z AUTO 26006KT CAVOK 23/08 Q1016,LEVS,2023-07-07T22:00:00Z,40.37,-3.78,23.0,8.0,260,6,,6.21,30.0,,,TRUE,,,,,,,,CAVOK,,,,,,,,VFR,,,,,,,,,,,,METAR,683.0
LEVD 072200Z AUTO 29009KT CAVOK 22/08 Q1017,LEVD,2023-07-07T22:00:00Z,41.72,-4.85,22.0,8.0,290,9,,6.21,30.029528,,,TRUE,,,,,,,,CAVOK,,,,,,,,VFR,,,,,,,,,,,,METAR,844.0
LEVC 072200Z VRB02KT 9999 FEW015 25/22 Q1015 NOSIG,LEVC,2023-07-07T22:00:00Z,39.5,-0.47,25.0,22.0,0,2,,6.21,29.970472,,,,,,TRUE,,,,,FEW,1500,,,,,,,VFR,,,,,,,,,,,,METAR,58.0
LETU 072200Z AUTO 10004KT 080V140 CAVOK 20/M21 Q1016,LETU,2023-07-07T22:00:00Z,,,20.0,-21.0,100,4,,6.21,30.0,,,TRUE,,,,,,,,CAVOK,,,,,,,,VFR,,,,,,,,,,,,METAR,
LETO 072200Z VRB01KT CAVOK 24/07 Q1015 NOSIG,LETO,2023-07-07T22:00:00Z,40.48,-3.47,24.0,7.0,0,1,,6.21,29.970472,,,,,,TRUE,,,,,CAVOK,,,,,,,,VFR,,,,,,,,,,,,METAR,598.0
LETL 072200Z AUTO 14005KT CAVOK 19/16 Q1020,LETL,2023-07-07T22:00:00Z,40.42,-1.22,19.0,16.0,140,5,,6.21,30.11811,,,TRUE,,,,,,,,CAVOK,,,,,,,,VFR,,,,,,,,,,,,METAR,1024.0
LEST 072200Z 20009KT 160V250 9999 -RA BKN009 18/17 Q1014 NOSIG,LEST,2023-07-07T22:00:00Z,42.88,-8.42,18.0,17.0,200,9,,6.21,29.940945,,,,,,TRUE,,,,-RA,BKN,900,,,,,,,IFR,,,,,,,,,,,,METAR,363.0
LESO 072200Z AUTO VRB04KT CAVOK 27/16 Q1011,LESO,2023-07-07T22:00:00Z,43.35,-1.8,27.0,16.0,0,4,,6.21,29.852362,,,TRUE,,,,,,,,CAVOK,,,,,,,,VFR,,,,,,,,,,,,METAR,3.0
LESB 072200Z AUTO 05006KT 350V080 CAVOK 28/20 Q1012,LESB,2023-07-07T22:00:00Z,39.6,2.7,28.0,20.0,50,6,,6.21,29.88189,,,TRUE,,,,,,,,CAVOK,,,,,,,,VFR,,,,,,,,,,,,METAR,48.0
LESA 072200Z AUTO 29007KT 250V320 CAVOK 19/08 Q1018,LESA,2023-07-07T22:00:00Z,40.95,-5.5,19.0,8.0,290,7,,6.21,30.059055,,,TRUE,,,,,,,,CAVOK,,,,,,,,VFR,,,,,,,,,,,,METAR,788.0
LERT 072200Z 19004KT CAVOK 22/19 Q1017 NOSIG,LERT,2023-07-07T22:00:00Z,36.63,-6.33,22.0,19.0,190,4,,6.21,30.029528,,,,,,TRUE,,,,,CAVOK,,,,,,,,VFR,,,,,,,,,,,,METAR,27.0
LERS 072200Z VRB02KT 9999 FEW020 22/21 Q1016,LERS,2023-07-07T22:00:00Z,41.13,1.17,22.0,21.0,0,2,,6.21,30.0,,,,,,,,,,,FEW,2000,,,,,,,VFR,,,,,,,,,,,,METAR,68.0
LEPP 072200Z VRB02KT CAVOK 18/15 Q1016,LEPP,2023-07-07T22:00:00Z,42.77,-1.65,18.0,15.0,0,2,,6.21,30.0,,,,,,,,,,,CAVOK,,,,,,,,VFR,,,,,,,,,,,,METAR,448.0
LEPA 072200Z 05006KT 030V100 CAVOK 28/22 Q1012 NOSIG,LEPA,2023-07-07T22:00:00Z,39.55,2.73,28.0,22.0,50,6,,6.21,29.88189,,,,,,TRUE,,,,,CAVOK,,,,,,,,VFR,,,,,,,,,,,,METAR,8.0
LEMO 072200Z 23008KT 200V260 CAVOK 23/17 Q1017 NOSIG,LEMO,2023-07-07T22:00:00Z,37.17,-5.62,23.0,17.0,230,8,,6.21,30.029528,,,,,,TRUE,,,,,CAVOK,,,,,,,,VFR,,,,,,,,,,,,METAR,82.0
LEMI 072200Z AUTO 21005KT CAVOK 25/21 Q1017,LEMI,2023-07-07T22:00:00Z,37.8,-1.12,25.0,21.0,210,5,,6.21,30.029528,,,TRUE,,,,,,,,CAVOK,,,,,,,,VFR,,,,,,,,,,,,METAR,193.0
LEMH 072200Z 08008KT 050V120 9999 FEW045 26/23 Q1013,LEMH,2023-07-07T22:00:00Z,39.87,4.22,26.0,23.0,80,8,,6.21,29.911417,,,,,,,,,,,FEW,4500,,,,,,,VFR,,,,,,,,,,,,METAR,82.0
LEMG 072200Z 12004KT 080V140 CAVOK 24/20 Q1016 NOSIG,LEMG,2023-07-07T22:00:00Z,36.67,-4.47,24.0,20.0,120,4,,6.21,30.0,,,,,,TRUE,,,,,CAVOK,,,,,,,,VFR,,,,,,,,,,,,METAR,5.0
LEMD 072200Z 25005KT 220V280 CAVOK 29/08 Q1015 NOSIG,LEMD,2023-07-07T22:00:00Z,40.45,-3.57,29.0,8.0,250,5,,6.21,29.970472,,,,,,TRUE,,,,,CAVOK,,,,,,,,VFR,,,,,,,,,,,,METAR,589.0
LELO 072200Z AUTO 07007KT 020V120 CAVOK 20/15 Q1016,LELO,2023-07-07T22:00:00Z,42.45,-2.32,20.0,15.0,70,7,,6.21,30.0,,,TRUE,,,,,,,,CAVOK,,,,,,,,VFR,,,,,,,,,,,,METAR,352.0
LELN 072200Z AUTO 28007KT 250V320 CAVOK 19/08 Q1016,LELN,2023-07-07T22:00:00Z,42.58,-5.65,19.0,8.0,280,7,,6.21,30.0,,,TRUE,,,,,,,,CAVOK,,,,,,,,VFR,,,,,,,,,,,,METAR,911.0
LELL 072200Z AUTO 29004KT CAVOK 22/18 Q1017,LELL,2023-07-07T22:00:00Z,41.52,2.1,22.0,18.0,290,4,,6.21,30.029528,,,TRUE,,,,,,,,CAVOK,,,,,,,,VFR,,,,,,,,,,,,METAR,136.0
LELC 072200Z AUTO 24005KT 9999 FEW020 27/23 Q1016,LELC,2023-07-07T22:00:00Z,37.77,-0.8,27.0,23.0,240,5,,6.21,30.0,,,TRUE,,,,,,,,FEW,2000,,,,,,,VFR,,,,,,,,,,,,METAR,3.0
LEJR 072200Z AUTO 17005KT 9000 NCD 21/19 Q1017,LEJR,2023-07-07T22:00:00Z,36.75,-6.07,21.0,19.0,170,5,,5.59,30.029528,,,TRUE,,,,,,,,CLR,,,,,,,,VFR,,,,,,,,,,,,METAR,25.0
LEIB 072200Z 28004KT 230V320 CAVOK 27/20 Q1013 NOSIG,LEIB,2023-07-07T22:00:00Z,38.87,1.38,27.0,20.0,280,4,,6.21,29.911417,,,,,,TRUE,,,,,CAVOK,,,,,,,,VFR,,,,,,,,,,,,METAR,4.0
LEHC 072200Z AUTO 11006KT CAVOK 18/13 Q1017,LEHC,2023-07-07T22:00:00Z,42.08,-0.32,18.0,13.0,110,6,,6.21,30.029528,,,TRUE,,,,,,,,CAVOK,,,,,,,,VFR,,,,,,,,,,,,METAR,540.0
LEGR 072200Z 26008KT CAVOK 27/11 Q1018,LEGR,2023-07-07T22:00:00Z,37.18,-3.78,27.0,11.0,260,8,,6.21,30.059055,,,,,,,,,,,CAVOK,,,,,,,,VFR,,,,,,,,,,,,METAR,560.0
LEGE 072200Z 02010KT CAVOK 23/21 Q1018,LEGE,2023-07-07T22:00:00Z,41.9,2.77,23.0,21.0,20,10,,6.21,30.059055,,,,,,,,,,,CAVOK,,,,,,,,VFR,,,,,,,,,,,,METAR,140.0
LEDA 072200Z AUTO 07009KT CAVOK 23/15 Q1017,LEDA,2023-07-07T22:00:00Z,41.73,0.53,23.0,15.0,70,9,,6.21,30.029528,,,TRUE,,,,,,,,CAVOK,,,,,,,,VFR,,,,,,,,,,,,METAR,352.0
LECO 072200Z 19010KT 140V210 7000 -RA BKN020 BKN037 20/17 Q1013 NOSIG,LECO,2023-07-07T22:00:00Z,43.3,-8.37,20.0,17.0,190,10,,4.35,29.911417,,,,,,TRUE,,,,-RA,BKN,2000,BKN,3700,,,,,MVFR,,,,,,,,,,,,METAR,80.0
LECH 072200Z AUTO 04006KT CAVOK 21/16 Q1016,LECH,2023-07-07T22:00:00Z,40.2,0.07,21.0,16.0,40,6,,6.21,30.0,,,TRUE,,,,,,,,CAVOK,,,,,,,,VFR,,,,,,,,,,,,METAR,360.0
LEBT 072200Z AUTO 32001KT CAVOK 22/21 Q1016,LEBT,2023-07-07T22:00:00Z,39.58,-0.45,22.0,21.0,320,1,,6.21,30.0,,,TRUE,,,,,,,,CAVOK,,,,,,,,VFR,,,,,,,,,,,,METAR,50.0
LEBR 072200Z AUTO 11007KT 090V150 CAVOK 20/16 Q1016,LEBR,2023-07-07T22:00:00Z,42.2,-1.43,20.0,16.0,110,7,,6.21,30.0,,,TRUE,,,,,,,,CAVOK,,,,,,,,VFR,,,,,,,,,,,,METAR,347.0
LEBL 072200Z 04008KT 9999 FEW008 24/22 Q1016 NOSIG,LEBL,2023-07-07T22:00:00Z,41.28,2.07,24.0,22.0,40,8,,6.21,30.0,,,,,,TRUE,,,,,FEW,800,,,,,,,VFR,,,,,,,,,,,,METAR,2.0
LEBG 072200Z AUTO 03005KT CAVOK 17/15 Q1017,LEBG,2023-07-07T22:00:00Z,42.37,-3.62,17.0,15.0,30,5,,6.21,30.029528,,,TRUE,,,,,,,,CAVOK,,,,,,,,VFR,,,,,,,,,,,,METAR,892.0
LEBB 072200Z AUTO VRB03KT CAVOK 23/20 Q1013,LEBB,2023-07-07T22:00:00Z,43.28,-2.92,23.0,20.0,0,3,,6.21,29.911417,,,TRUE,,,,,,,,CAVOK,,,,,,,,VFR,,,,,,,,,,,,METAR,38.0
LEBA 072200Z AUTO 21002KT CAVOK 26/08 Q1015,LEBA,2023-07-07T22:00:00Z,37.85,-4.83,26.0,8.0,210,2,,6.21,29.970472,,,TRUE,,,,,,,,CAVOK,,,,,,,,VFR,,,,,,,,,,,,METAR,88.0
LEAS 072200Z 18003KT CAVOK 19/18 Q1013 NOSIG,LEAS,2023-07-07T22:00:00Z,43.57,-6.03,19.0,18.0,180,3,,6.21,29.911417,,,,,,TRUE,,,,,CAVOK,,,,,,,,VFR,,,,,,,,,,,,METAR,120.0
LEAM 072200Z AUTO 24008KT 9999 FEW033 27/23 Q1016,LEAM,2023-07-07T22:00:00Z,36.85,-2.37,27.0,23.0,240,8,,6.21,30.0,,,TRUE,,,,,,,,FEW,3300,,,,,,,VFR,,,,,,,,,,,,METAR,16.0
LEAL 072200Z 23005KT 200V260 9999 BKN020 26/22 Q1015 NOSIG,LEAL,2023-07-07T22:00:00Z,38.27,-0.55,26.0,22.0,230,5,,6.21,29.970472,,,,,,TRUE,,,,,BKN,2000,,,,,,,MVFR,,,,,,,,,,,,METAR,26.0
LEAG 072200Z AUTO VRB03KT CAVOK 24/17 Q1017,LEAG,2023-07-07T22:00:00Z,36.12,-5.45,24.0,17.0,0,3,,6.21,30.029528,,,TRUE,,,,,,,,CAVOK,,,,,,,,VFR,,,,,,,,,,,,METAR,4.0
LEAB 072200Z 16008KT 120V200 CAVOK 26/15 Q1018 NOSIG,LEAB,2023-07-07T22:00:00Z,38.95,-1.85,26.0,15.0,160,8,,6.21,30.059055,,,,,,TRUE,,,,,CAVOK,,,,,,,,VFR,,,,,,,,,,,,METAR,704.0
LDZD 072200Z 07006KT CAVOK 21/09 Q1020 NOSIG,LDZD,2023-07-07T22:00:00Z,44.1,15.33,21.0,9.0,70,6,,6.21,30.11811,,,,,,TRUE,,,,,CAVOK,,,,,,,,VFR,,,,,,,,,,,,METAR,82.0
LDZA 072200Z 24004KT CAVOK 16/14 Q1022 NOSIG,LDZA,2023-07-07T22:00:00Z,45.72,16.07,16.0,14.0,240,4,,6.21,30.177166,,,,,,TRUE,,,,,CAVOK,,,,,,,,VFR,,,,,,,,,,,,METAR,103.0
LDSP 072200Z AUTO 32005KT 290V350 CAVOK 24/08 Q1019,LDSP,2023-07-07T22:00:00Z,43.53,16.3,24.0,8.0,320,5,,6.21,30.088583,,,TRUE,,,,,,,,CAVOK,,,,,,,,VFR,,,,,,,,,,,,METAR,16.0
LDRI 072200Z 34006KT CAVOK 23/10 Q1021,LDRI,2023-07-07T22:00:00Z,45.22,14.57,23.0,10.0,340,6,,6.21,30.147638,,,,,,,,,,,CAVOK,,,,,,,,VFR,,,,,,,,,,,,METAR,80.0
LDPL 072200Z 07004KT CAVOK 19/13 Q1021,LDPL,2023-07-07T22:00:00Z,44.88,13.92,19.0,13.0,70,4,,6.21,30.147638,,,,,,,,,,,CAVOK,,,,,,,,VFR,,,,,,,,,,,,METAR,63.0
LDOS 072200Z 35005KT CAVOK 17/15 Q1021,LDOS,2023-07-07T22:00:00Z,45.47,18.82,17.0,15.0,350,5,,6.21,30.147638,,,,,,,,,,,CAVOK,,,,,,,,VFR,,,,,,,,,,,,METAR,82.0
LDDU 072200Z 03019KT 330V070 CAVOK 25/13 Q1018,LDDU,2023-07-07T22:00:00Z,42.57,18.27,25.0,13.0,30,19,,6.21,30.059055,,,,,,,,,,,CAVOK,,,,,,,,VFR,,,,,,,,,,,,METAR,156.0
LCPH 072200Z 35002KT 8000 NSC 24/22 Q1005 NOSIG,LCPH,2023-07-07T22:00:00Z,34.72,32.47,24.0,22.0,350,2,,4.97,29.675198,,,,,,TRUE,,,,,CLR,,,,,,,,MVFR,,,,,,,,,,,,METAR,8.0
LCLK 072200Z 20007KT 6000 FEW008 26/25 Q1005 NOSIG,LCLK,2023-07-07T22:00:00Z,34.87,33.62,26.0,25.0,200,7,,3.73,29.675198,,,,,,TRUE,,,,,FEW,800,,,,,,,MVFR,,,,,,,,,,,,METAR,2.0
LBWN 072200Z AUTO 36017KT 9999 NSC 23/17 Q1012 NOSIG,LBWN,2023-07-07T22:00:00Z,43.22,27.82,23.0,17.0,360,17,,6.21,29.88189,,,TRUE,,,TRUE,,,,,CLR,,,,,,,,VFR,,,,,,,,,,,,METAR,74.0
LBSF 072200Z AUTO 28008KT 250V310 9999 -RA NSC 20/15 Q1020 NOSIG,LBSF,2023-07-07T22:00:00Z,42.65,23.37,20.0,15.0,280,8,,6.21,30.11811,,,TRUE,,,TRUE,,,,-RA,CLR,,,,,,,,VFR,,,,,,,,,,,,METAR,592.0
LBPG 072200Z 24010KT 9999 SCT100 22/15 Q1015,LBPG,2023-07-07T22:00:00Z,42.28,24.72,22.0,15.0,240,10,,6.21,29.970472,,,,,,,,,,,SCT,10000,,,,,,,VFR,,,,,,,,,,,,METAR,198.0
LBPD 072200Z AUTO 28013KT 9999 FEW230/// 24/15 Q1016,LBPD,2023-07-07T22:00:00Z,42.05,24.85,24.0,15.0,280,13,,6.21,30.0,,,TRUE,,,,,,,,FEW,23000,,,,,,,VFR,,,,,,,,,,,,METAR,182.0
LBIA 072200Z 23004KT 9999 SCT100 20/18 Q1014,LBIA,2023-07-07T22:00:00Z,42.45,26.35,20.0,18.0,230,4,,6.21,29.940945,,,,,,,,,,,SCT,10000,,,,,,,VFR,,,,,,,,,,,,METAR,155.0
LBGO 072200Z AUTO 11005KT 070V160 9999 FEW080/// 19/19 Q1015,LBGO,2023-07-07T22:00:00Z,43.15,25.72,19.0,19.0,110,5,,6.21,29.970472,,,TRUE,,,,,,,,FEW,8000,,,,,,,VFR,,,,,,,,,,,,METAR,84.0
LBBG 072200Z AUTO 30007KT 260V340 9999 NSC 24/17 Q1013 NOSIG,LBBG,2023-07-07T22:00:00Z,42.57,27.52,24.0,17.0,300,7,,6.21,29.911417,,,TRUE,,,TRUE,,,,,CLR,,,,,,,,VFR,,,,,,,,,,,,METAR,41.0
KVAD 072200Z AUTO 35020G42KT 6SM +RA SQ BKN049 BKN095 BKN120 28/24 A2986 RMK AO2 WSHFT 2156 LTG DSNT S AND W SLP112 $,KVAD,2023-07-07T22:00:00Z,30.97,-83.2,28.0,24.0,350,20,42,6.0,29.861221,1011.2,,TRUE,TRUE,TRUE,,,,,+RA SQ,BKN,4900,BKN,9500,BKN,12000,,,VFR,,,,,,,,,,,,SPECI,70.0
KS71 072200Z AUTO 00000KT 10SM 27/06 A3003 ,KS71,2023-07-07T22:00:00Z,48.6,-109.25,27.0,6.0,0,0,,10.0,30.029528,,,TRUE,,,,,,,,,,,,,,,,,,,,,,,,,,,,METAR,736.0
KS59 072200Z AUTO 17008KT 10SM 27/08 A2988 ,KS59,2023-07-07T22:00:00Z,48.28,-115.48,27.0,8.0,170,8,,10.0,29.878937,,,TRUE,,,,,,,,,,,,,,,,,,,,,,,,,,,,METAR,793.0
KQFX 072200Z AUTO 02002KT 9000 OVC005 20/19 A2963 RMK A02 TSNO,KQFX,2023-07-07T22:00:00Z,,,20.0,19.0,20,2,,5.59,29.630905,,,TRUE,TRUE,,,TRUE,,,,OVC,500,,,,,,,IFR,,,,,,,,,,,,METAR,
KQFW 072200Z AUTO 36004KT 9999 SCT005 19/19 A2950 RMK A02 TSNO,KQFW,2023-07-07T22:00:00Z,,,19.0,19.0,360,4,,6.21,29.500984,,,TRUE,TRUE,,,TRUE,,,,SCT,500,,,,,,,VFR,,,,,,,,,,,,METAR,
KQFV 072200Z AUTO 00000KT 9000 FEW003 17/17 A2970 RMK A02 TSNO,KQFV,2023-07-07T22:00:00Z,,,17.0,17.0,0,0,,5.59,29.698818,,,TRUE,TRUE,,,TRUE,,,,FEW,300,,,,,,,VFR,,,,,,,,,,,,METAR,
KQFU 072200Z AUTO 27001KT 9999 CLR 22/19 A2967 RMK A02 TSNO,KQFU,2023-07-07T22:00:00Z,,,22.0,19.0,270,1,,6.21,29.66929,,,TRUE,TRUE,,,TRUE,,,,CLR,,,,,,,,VFR,,,,,,,,,,,,METAR,
KQFT 072200Z AUTO 03002KT 9999 OVC031 20/19 A2962 RMK A02 TSNO,KQFT,2023-07-07T22:00:00Z,,,20.0,19.0,30,2,,6.21,29.619095,,,TRUE,TRUE,,,TRUE,,,,OVC,3100,,,,,,,VFR,,,,,,,,,,,,METAR,
KQFB 072200Z AUTO 00000KT 6000 OVC005 21/20 A2972 RMK A02 TSNO,KQFB,2023-07-07T22:00:00Z,,,21.0,20.0,0,0,,3.73,29.719488,,,TRUE,TRUE,,,TRUE,,,,OVC,500,,,,,,,IFR,,,,,,,,,,,,METAR,
KQEY 072200Z AUTO 11003KT 9999 OVC005 20/20 A2937 RMK A02 TSNO,KQEY,2023-07-07T22:00:00Z,,,20.0,20.0,110,3,,6.21,29.371063,,,TRUE,TRUE,,,TRUE,,,,OVC,500,,,,,,,IFR,,,,,,,,,,,,METAR,
KQEX 072200Z AUTO 36001KT 4800 CLR 29/21 / RMK A02 TSNO,KQEX,2023-07-07T22:00:00Z,,,29.0,21.0,360,1,,2.98,,,,TRUE,TRUE,,,TRUE,,,,CLR,,,,,,,,IFR,,,,,,,,,,,,METAR,
KQEW 072200Z AUTO 04002KT 4800 -SHRA BKN002 OVC039 19/19 A2967 RMK A02 TSNO,KQEW,2023-07-07T22:00:00Z,,,19.0,19.0,40,2,,2.98,29.66929,,,TRUE,TRUE,,,TRUE,,,-SHRA,BKN,200,OVC,3900,,,,,LIFR,,,,,,,,,,,,METAR,
KQEV 072200Z AUTO 09003KT 9999 OVC005 21/20 A2960 RMK A02 TSNO,KQEV,2023-07-07T22:00:00Z,,,21.0,20.0,90,3,,6.21,29.601377,,,TRUE,TRUE,,,TRUE,,,,OVC,500,,,,,,,IFR,,,,,,,,,,,,METAR,
KQEQ 072200Z AUTO 01004KT 9999 BKN032 21/21 / RMK A02 TSNO,KQEQ,2023-07-07T22:00:00Z,,,21.0,21.0,10,4,,6.21,,,,TRUE,TRUE,,,TRUE,,,,BKN,3200,,,,,,,VFR,,,,,,,,,,,,METAR,
KQEP 072200Z AUTO 01002KT 9999 OVC005 20/20 A2965 RMK A02 TSNO,KQEP,2023-07-07T22:00:00Z,,,20.0,20.0,10,2,,6.21,29.648623,,,TRUE,TRUE,,,TRUE,,,,OVC,500,,,,,,,IFR,,,,,,,,,,,,METAR,
KQEN 072200Z AUTO 24003KT 9999 CLR 14/13 A2976 RMK A02 TSNO,KQEN,2023-07-07T22:00:00Z,,,14.0,13.0,240,3,,6.21,29.760826,,,TRUE,TRUE,,,TRUE,,,,CLR,,,,,,,,VFR,,,,,,,,,,,,METAR,
KQEJ 072200Z AUTO 33001KT 4800 // BKN002 19/18 A2965 RMK A02 TSNO,KQEJ,2023-07-07T22:00:00Z,,,19.0,18.0,330,1,,2.98,29.648623,,,TRUE,TRUE,,,TRUE,,,,BKN,200,,,,,,,LIFR,,,,,,,,,,,,METAR,
KQEI 072200Z AUTO 29003KT 9999 BKN006 19/18 A2967 RMK A02 TSNO,KQEI,2023-07-07T22:00:00Z,,,19.0,18.0,290,3,,6.21,29.66929,,,TRUE,TRUE,,,TRUE,,,,BKN,600,,,,,,,IFR,,,,,,,,,,,,METAR,
KOPF 072200Z 35009KT 5SM TS HZ FEW013 SCT036 BKN048 27/23 A2998 RMK AO2 LTG DSNT ALQDS RAE2154 P0000 T02720233 $,KOPF,2023-07-07T22:00:00Z,25.92,-80.28,27.2,23.3,350,9,,5.0,29.97933,,,,TRUE,TRUE,,,,,TS HZ,FEW,1300,SCT,3600,BKN,4800,,,MVFR,,,,,,0.005,,,,,,SPECI,1.0
KNEL 072200Z AUTO 14008KT CLR 28/22 A2980 RMK AO2 SLP091 T02780222 PNO $,KNEL,2023-07-07T22:00:00Z,40.03,-74.33,27.8,22.2,140,8,,,29.799213,1009.1,,TRUE,TRUE,TRUE,,,,,,CLR,,,,,,,,,,,,,,,,,,,,METAR,26.0
KMDT 072200Z VRB03KT 1/2SM R13/4000V5500FT +TSRA BKN027CB BKN039 OVC048 23/21 A2985 RMK AO2 LTG DSNT W-NE P0011 T02330206,KMDT,2023-07-07T22:00:00Z,40.2,-76.77,23.3,20.6,0,3,,0.5,29.84941,,,,TRUE,,,,,,+TSRA,BKN,2700,BKN,3900,OVC,4800,,,LIFR,,,,,,0.11,,,,,,SPECI,91.0
KMBG 072200Z AUTO 30006KT 10SM SCT055 27/15 A2993 RMK AO2 LTG DSNT E AND SE T02670150,KMBG,2023-07-07T22:00:00Z,45.55,-100.42,26.7,15.0,300,6,,10.0,29.929134,,,TRUE,TRUE,,,,,,,SCT,5500,,,,,,,VFR,,,,,,,,,,,,SPECI,515.0
KIKT 072200Z AUTO 23007KT 120V240 8SM CLR 28/25 A2998 RMK A01 P0001,KIKT,2023-07-07T22:00:00Z,28.52,-88.28,28.0,25.0,230,7,,8.0,29.97933,,,TRUE,TRUE,,,,,,,CLR,,,,,,,,VFR,,,,,,0.01,,,,,,METAR,36.0
KHRF 072200Z AUTO 30006KT 10SM CLR 28/10 A2991 RMK AO2 Hamilton ,KHRF,2023-07-07T22:00:00Z,46.25,-114.13,28.0,10.0,300,6,,10.0,29.911417,,,TRUE,TRUE,,,,,,,CLR,,,,,,,,VFR,,,,,,,,,,,,METAR,1112.0
KGUL 072200Z AUTO 05004KT 7SM CLR 27/24 A2995 RMK A01,KGUL,2023-07-07T22:00:00Z,27.3,-93.53,27.0,24.0,50,4,,7.0,29.949802,,,TRUE,TRUE,,,,,,,CLR,,,,,,,,VFR,,,,,,,,,,,,METAR,20.0
KGLS 072200Z 16025G34KT 10SM FEW012 BKN019 28/24 A2994 RMK AO2 PK WND 14034/2155 T02830239,KGLS,2023-07-07T22:00:00Z,29.27,-94.87,28.3,23.9,160,25,34,10.0,29.940945,,,,TRUE,,,,,,,FEW,1200,BKN,1900,,,,,MVFR,,,,,,,,,,,,SPECI,2.0
KEDU 072200Z AUTO 18009KT 10SM CLR 27/14 A2980 RMK AO1,KEDU,2023-07-07T22:00:00Z,38.53,-121.78,27.0,14.0,180,9,,10.0,29.799213,,,TRUE,TRUE,,,,,,,CLR,,,,,,,,VFR,,,,,,,,,,,,METAR,20.0
KCUB 072200Z AUTO 23007KT 10SM TS FEW035 SCT060 BKN080 25/22 A2984 RMK AO2 LTG DSNT ALQDS TSB2154 T02500222,KCUB,2023-07-07T22:00:00Z,33.97,-81.0,25.0,22.2,230,7,,10.0,29.840551,,,TRUE,TRUE,,,,,,TS,FEW,3500,SCT,6000,BKN,8000,,,VFR,,,,,,,,,,,,SPECI,55.0
KBPC 072200Z AUTO 16016G21KT 10SM CLR 32/20 A2985 RMK AO2,KBPC,2023-07-07T22:00:00Z,35.88,-101.03,32.0,20.0,160,16,21,10.0,29.84941,,,TRUE,TRUE,,,,,,,CLR,,,,,,,,VFR,,,,,,,,,,,,METAR,844.0
KAPF 072200Z 15007KT 8SM TS BKN028 BKN037 29/23 A2995 RMK AO2 LTG DSNT NE AND E T02940228,KAPF,2023-07-07T22:00:00Z,26.15,-81.77,29.4,22.8,150,7,,8.0,29.949802,,,,TRUE,,,,,,TS,BKN,2800,BKN,3700,,,,,MVFR,,,,,,,,,,,,SPECI,2.0
K3U3 072200Z AUTO 08008KT 10SM 23/04 A3004 ,K3U3,2023-07-07T22:00:00Z,46.15,-112.87,23.0,4.0,80,8,,10.0,30.041338,,,TRUE,,,,,,,,,,,,,,,,,,,,,,,,,,,,METAR,1534.0
K38S 072200Z AUTO 32007KT 10SM 21/12 A3006 ,K38S,2023-07-07T22:00:00Z,46.38,-112.77,21.0,12.0,320,7,,10.0,30.059055,,,TRUE,,,,,,,,,,,,,,,,,,,,,,,,,,,,METAR,1430.0
K1S3 072200Z AUTO 06011G17KT 10SM 25/06 A3002 ,K1S3,2023-07-07T22:00:00Z,46.27,-106.62,25.0,6.0,60,11,17,10.0,30.02067,,,TRUE,,,,,,,,,,,,,,,,,,,,,,,,,,,,METAR,831.0
HRYR 072200Z 21003KT 9999 SCT026 SCT100 20/10 Q1024 NOSIG,HRYR,2023-07-07T22:00:00Z,-1.97,30.13,20.0,10.0,210,3,,6.21,30.236221,,,,,,TRUE,,,,,SCT,2600,SCT,10000,,,,,VFR,,,,,,,,,,,,METAR,1493.0
HECA 072200Z 30008KT CAVOK 27/22 Q1010 NOSIG,HECA,2023-07-07T22:00:00Z,30.12,31.4,27.0,22.0,300,8,,6.21,29.822834,,,,,,TRUE,,,,,CAVOK,,,,,,,,VFR,,,,,,,,,,,,METAR,68.0
GVSV 072200Z 05020KT 9999 FEW017 26/22 Q1015 NOSIG,GVSV,2023-07-07T22:00:00Z,16.83,-25.07,26.0,22.0,50,20,,6.21,29.970472,,,,,,TRUE,,,,,FEW,1700,,,,,,,VFR,,,,,,,,,,,,METAR,16.0
GVNP 072200Z 06010KT 9999 FEW018 26/23 Q1015 N0SIG,GVNP,2023-07-07T22:00:00Z,14.95,-23.48,26.0,23.0,60,10,,6.21,29.970472,,,,,,,,,,,FEW,1800,,,,,,,VFR,,,,,,,,,,,,METAR,70.0
GVAC 072200Z 09010KT 9999 BKN014 BKN200 25/22 Q1015 NOSIG,GVAC,2023-07-07T22:00:00Z,16.73,-22.93,25.0,22.0,90,10,,6.21,29.970472,,,,,,TRUE,,,,,BKN,1400,BKN,20000,,,,,MVFR,,,,,,,,,,,,METAR,54.0
GMTT 072200Z 21004KT 180V250 8000 SCT013 22/21 Q1017 NOSIG,GMTT,2023-07-07T22:00:00Z,35.72,-5.9,22.0,21.0,210,4,,4.97,30.029528,,,,,,TRUE,,,,,SCT,1300,,,,,,,MVFR,,,,,,,,,,,,METAR,19.0
GMTN 072200Z VRB02KT CAVOK 25/18 Q1016 NOSIG,GMTN,2023-07-07T22:00:00Z,35.58,-5.32,25.0,18.0,0,2,,6.21,30.0,,,,,,TRUE,,,,,CAVOK,,,,,,,,VFR,,,,,,,,,,,,METAR,10.0
GMTA 072200Z VRB01KT CAVOK 25/20 Q1016 NOSIG,GMTA,2023-07-07T22:00:00Z,35.17,-3.85,25.0,20.0,0,1,,6.21,30.0,,,,,,TRUE,,,,,CAVOK,,,,,,,,VFR,,,,,,,,,,,,METAR,14.0
GMMZ 072200Z 26008KT CAVOK 33/M08 Q1018 NOSIG,GMMZ,2023-07-07T22:00:00Z,30.93,-6.9,33.0,-8.0,260,8,,6.21,30.059055,,,,,,TRUE,,,,,CAVOK,,,,,,,,VFR,,,,,,,,,,,,METAR,1139.0
GMMX 072200Z 35006KT 290V020 CAVOK 25/14 Q1019 NOSIG,GMMX,2023-07-07T22:00:00Z,31.62,-8.03,25.0,14.0,350,6,,6.21,30.088583,,,,,,TRUE,,,,,CAVOK,,,,,,,,VFR,,,,,,,,,,,,METAR,465.0
GMMW 072200Z VRB01KT 9999 FEW024 24/20 Q1017 NOSIG,GMMW,2023-07-07T22:00:00Z,34.98,-3.02,24.0,20.0,0,1,,6.21,30.029528,,,,,,TRUE,,,,,FEW,2400,,,,,,,VFR,,,,,,,,,,,,METAR,174.0
GMMN 072200Z 01008KT 9999 SCT026 21/17 Q1019 NOSIG,GMMN,2023-07-07T22:00:00Z,33.37,-7.58,21.0,17.0,10,8,,6.21,30.088583,,,,,,TRUE,,,,,SCT,2600,,,,,,,VFR,,,,,,,,,,,,METAR,196.0
GMML 072200Z 02015KT 8000 NSC 22/22 Q1018 NOSIG,GMML,2023-07-07T22:00:00Z,27.13,-13.23,22.0,22.0,20,15,,4.97,30.059055,,,,,,TRUE,,,,,CLR,,,,,,,,MVFR,,,,,,,,,,,,METAR,63.0
GMMI 072200Z AUTO 02007KT 8000 NSC 22/// Q1018 NOSIG,GMMI,2023-07-07T22:00:00Z,31.4,-9.68,,,20,7,,4.97,30.059055,,,TRUE,,,TRUE,,,,,CLR,,,,,,,,MVFR,,,,,,,,,,,,METAR,102.0
GMME 072200Z 36003KT 260V040 5000 BKN020 22/17 Q1018 NOSIG,GMME,2023-07-07T22:00:00Z,34.05,-6.77,22.0,17.0,360,3,,3.11,30.059055,,,,,,TRUE,,,,,BKN,2000,,,,,,,MVFR,,,,,,,,,,,,METAR,84.0
GMMB 072200Z AUTO 35004KT 9999 BKN021/// 21/21 Q1019 NOSIG,GMMB,2023-07-07T22:00:00Z,33.65,-7.22,21.0,21.0,350,4,,6.21,30.088583,,,TRUE,,,TRUE,,,,,BKN,2100,,,,,,,MVFR,,,,,,,,,,,,METAR,191.0
GMFO 072200Z 35007KT 9999 FEW023 SCT063 24/20 Q1018 NOSIG,GMFO,2023-07-07T22:00:00Z,34.78,-1.92,24.0,20.0,350,7,,6.21,30.059055,,,,,,TRUE,,,,,FEW,2300,SCT,6300,,,,,VFR,,,,,,,,,,,,METAR,452.0
GMFM 072200Z 29005KT 270V330 CAVOK 20/15 Q1020 NOSIG,GMFM,2023-07-07T22:00:00Z,33.87,-5.52,20.0,15.0,290,5,,6.21,30.11811,,,,,,TRUE,,,,,CAVOK,,,,,,,,VFR,,,,,,,,,,,,METAR,569.0
GMFK 072200Z 07004KT 040V110 CAVOK 34/M09 Q1018 NOSIG,GMFK,2023-07-07T22:00:00Z,31.95,-4.4,34.0,-9.0,70,4,,6.21,30.059055,,,,,,TRUE,,,,,CAVOK,,,,,,,,VFR,,,,,,,,,,,,METAR,1033.0
GMFF 072200Z 30007KT CAVOK 21/14 Q1020 NOSIG,GMFF,2023-07-07T22:00:00Z,33.92,-4.97,21.0,14.0,300,7,,6.21,30.11811,,,,,,TRUE,,,,,CAVOK,,,,,,,,VFR,,,,,,,,,,,,METAR,575.0
GMAG 072200Z AUTO 35006KT CAVOK 22/13 Q1016,GMAG,2023-07-07T22:00:00Z,29.03,-10.05,22.0,13.0,350,6,,6.21,30.0,,,TRUE,,,,,,,,CAVOK,,,,,,,,VFR,,,,,,,,,,,,METAR,333.0
GMAD 072200Z 17007KT 140V200 8000 NSC 21/18 Q1016 NOSIG,GMAD,2023-07-07T22:00:00Z,30.32,-9.42,21.0,18.0,170,7,,4.97,30.0,,,,,,TRUE,,,,,CLR,,,,,,,,MVFR,,,,,,,,,,,,METAR,66.0
GEML 072200Z AUTO 27005KT 190V340 CAVOK 26/23 Q1016,GEML,2023-07-07T22:00:00Z,35.27,-2.95,26.0,23.0,270,5,,6.21,30.0,,,TRUE,,,,,,,,CAVOK,,,,,,,,VFR,,,,,,,,,,,,METAR,48.0
GECE 072200Z AUTO 34002KT CAVOK 23/18 Q1016,GECE,2023-07-07T22:00:00Z,35.88,-5.3,23.0,18.0,340,2,,6.21,30.0,,,TRUE,,,,,,,,CAVOK,,,,,,,,VFR,,,,,,,,,,,,METAR,2.0
GCXO 072200Z 31014KT 9999 FEW007 BKN014 18/16 Q1023 NOSIG,GCXO,2023-07-07T22:00:00Z,28.48,-16.35,18.0,16.0,310,14,,6.21,30.206694,,,,,,TRUE,,,,,FEW,700,BKN,1400,,,,,MVFR,,,,,,,,,,,,METAR,623.0
GCTS 072200Z 06013KT 9999 FEW035 23/16 Q1020 NOSIG,GCTS,2023-07-07T22:00:00Z,28.05,-16.57,23.0,16.0,60,13,,6.21,30.11811,,,,,,TRUE,,,,,FEW,3500,,,,,,,VFR,,,,,,,,,,,,METAR,59.0
GCRR 072200Z 01012KT 340V040 9999 FEW025 23/17 Q1019,GCRR,2023-07-07T22:00:00Z,28.95,-13.58,23.0,17.0,10,12,,6.21,30.088583,,,,,,,,,,,FEW,2500,,,,,,,VFR,,,,,,,,,,,,METAR,9.0
GCLP 072200Z 36019KT 320V020 9999 FEW025 23/18 Q1020 NOSIG,GCLP,2023-07-07T22:00:00Z,27.92,-15.38,23.0,18.0,360,19,,6.21,30.11811,,,,,,TRUE,,,,,FEW,2500,,,,,,,VFR,,,,,,,,,,,,METAR,16.0
GCLA 072200Z AUTO 01010KT 340V040 CAVOK 23/18 Q1021,GCLA,2023-07-07T22:00:00Z,28.62,-17.75,23.0,18.0,10,10,,6.21,30.147638,,,TRUE,,,,,,,,CAVOK,,,,,,,,VFR,,,,,,,,,,,,METAR,20.0
GCHI 072200Z AUTO 36014KT CAVOK 23/18 Q1021,GCHI,2023-07-07T22:00:00Z,27.82,-17.88,23.0,18.0,360,14,,6.21,30.147638,,,TRUE,,,,,,,,CAVOK,,,,,,,,VFR,,,,,,,,,,,,METAR,21.0
GCGM 072200Z AUTO VRB04KT CAVOK 22/18 Q1021 RMK R09/VRB01KT ARP/VRB01KT,GCGM,2023-07-07T22:00:00Z,28.03,-17.22,22.0,18.0,0,4,,6.21,30.147638,,,TRUE,,,,,,,,CAVOK,,,,,,,,VFR,,,,,,,,,,,,METAR,217.0
GCFV 072200Z AUTO 36014KT 9999 FEW029 23/17 Q1019,GCFV,2023-07-07T22:00:00Z,28.43,-13.87,23.0,17.0,360,14,,6.21,30.088583,,,TRUE,,,,,,,,FEW,2900,,,,,,,VFR,,,,,,,,,,,,METAR,11.0
GBYD 072200Z 27005KT 9999 FEW011 SCT210 27/23 Q1014,GBYD,2023-07-07T22:00:00Z,13.33,-16.65,27.0,23.0,270,5,,6.21,29.940945,,,,,,,,,,,FEW,1100,SCT,21000,,,,,VFR,,,,,,,,,,,,METAR,29.0
FVRG 072200Z 05007KT CAVOK 09/09 Q1028 NOSIG,FVRG,2023-07-07T22:00:00Z,-17.93,31.1,9.0,9.0,50,7,,6.21,30.35433,,,,,,TRUE,,,,,CAVOK,,,,,,,,VFR,,,,,,,,,,,,METAR,1490.0
FSIA 072200Z 13009KT 070V190 9999 SCT020 26/22 Q1012 NOSIG,FSIA,2023-07-07T22:00:00Z,-4.67,55.52,26.0,22.0,130,9,,6.21,29.88189,,,,,,TRUE,,,,,SCT,2000,,,,,,,VFR,,,,,,,,,,,,METAR,3.0
FQXA 072200Z 36010KT CAVOK 17/15 Q1024,FQXA,2023-07-07T22:00:00Z,-25.05,33.62,17.0,15.0,360,10,,6.21,30.236221,,,,,,,,,,,CAVOK,,,,,,,,VFR,,,,,,,,,,,,METAR,3.0
FQTT 072200Z 35004KT 9999 SCT020 15/15 Q1025,FQTT,2023-07-07T22:00:00Z,-16.1,33.63,15.0,15.0,350,4,,6.21,30.265747,,,,,,,,,,,SCT,2000,,,,,,,VFR,,,,,,,,,,,,METAR,146.0
FQQL 072200Z 03003KT 9999 SCT018 21/19 Q1024,FQQL,2023-07-07T22:00:00Z,-17.87,36.87,21.0,19.0,30,3,,6.21,30.236221,,,,,,,,,,,SCT,1800,,,,,,,VFR,,,,,,,,,,,,METAR,5.0
FQPB 072200Z 17010KT 9999 SCT020 23/20 Q1021,FQPB,2023-07-07T22:00:00Z,-12.98,40.52,23.0,20.0,170,10,,6.21,30.147638,,,,,,,,,,,SCT,2000,,,,,,,VFR,,,,,,,,,,,,METAR,101.0
FQMA 072200Z 01013KT 9999 FEW025 21/13 Q1021 NOSIG,FQMA,2023-07-07T22:00:00Z,-25.92,32.57,21.0,13.0,10,13,,6.21,30.147638,,,,,,TRUE,,,,,FEW,2500,,,,,,,VFR,,,,,,,,,,,,METAR,34.0
FQCH 072200Z /////KT CAVOK 12/12 Q1028,FQCH,2023-07-07T22:00:00Z,-19.15,33.43,12.0,12.0,,,,6.21,30.35433,,,,,,,,,,,CAVOK,,,,,,,,VFR,,,,,,,,,,,,METAR,695.0
FQBR 072200Z 16004KT 9999 FEW018 20/19 Q1024,FQBR,2023-07-07T22:00:00Z,-19.8,34.9,20.0,19.0,160,4,,6.21,30.236221,,,,,,,,,,,FEW,1800,,,,,,,VFR,,,,,,,,,,,,METAR,14.0
FNLU 072200Z 18005KT 140V200 9000 BKN020 21/19 Q1015,FNLU,2023-07-07T22:00:00Z,-8.85,13.22,21.0,19.0,180,5,,5.59,29.970472,,,,,,,,,,,BKN,2000,,,,,,,MVFR,,,,,,,,,,,,METAR,75.0
FMMT 072200Z VRB02KT 9999 VCSH SCT017 SCT033 20/19 Q1024,FMMT,2023-07-07T22:00:00Z,-18.12,49.38,20.0,19.0,0,2,,6.21,30.236221,,,,,,,,,,VCSH,SCT,1700,SCT,3300,,,,,VFR,,,,,,,,,,,,METAR,13.0
FMMI 072200Z 14005KT 100V170 9999 FEW017 BKN020 13/12 Q1028 NOSIG,FMMI,2023-07-07T22:00:00Z,-18.8,47.47,13.0,12.0,140,5,,6.21,30.35433,,,,,,TRUE,,,,,FEW,1700,BKN,2000,,,,,MVFR,,,,,,,,,,,,METAR,1269.0
FMCZ 072200Z AUTO 20008KT CAVOK 25/21 Q1019 TEMPO 12015KT,FMCZ,2023-07-07T22:00:00Z,-12.8,45.27,25.0,21.0,200,8,,6.21,30.088583,,,TRUE,,,,,,,,CAVOK,,,,,,,,VFR,,,,,,,,,,,,METAR,7.0
FLKK 072200Z 16003KT CAVOK 11/05 Q1027,FLKK,2023-07-07T22:00:00Z,-15.32,28.45,11.0,5.0,160,3,,6.21,30.324802,,,,,,,,,,,CAVOK,,,,,,,,VFR,,,,,,,,,,,,METAR,1149.0
FIMP 072200Z 14008KT 9999 SCT017 22/17 Q1025,FIMP,2023-07-07T22:00:00Z,-20.43,57.68,22.0,17.0,140,8,,6.21,30.265747,,,,,,,,,,,SCT,1700,,,,,,,VFR,,,,,,,,,,,,METAR,57.0
FGSL 072200Z 22004KT 9999 TS FEW010 FEW020CB 25/23 Q1014 NOSIG,FGSL,2023-07-07T22:00:00Z,3.75,8.72,25.0,23.0,220,4,,6.21,29.940945,,,,,,TRUE,,,,TS,FEW,1000,FEW,2000,,,,,VFR,,,,,,,,,,,,METAR,23.0
FAWB 072200Z AUTO 00000KT //// // ////// 06/04 Q1027,FAWB,2023-07-07T22:00:00Z,-25.65,28.22,6.0,4.0,0,0,,,30.324802,,,TRUE,,,,,,,,,,,,,,,,,,,,,,,,,,,,METAR,1245.0
FAVV 072200Z AUTO 30001KT //// // ////// ///// Q1030,FAVV,2023-07-07T22:00:00Z,-26.57,27.97,,,300,1,,,30.413385,,,TRUE,,,,,,,,,,,,,,,,,,,,,,,,,,,,METAR,1480.0
FAUT 072200Z AUTO 00000KT //// // ////// 09/04 Q1016,FAUT,2023-07-07T22:00:00Z,-31.53,28.67,9.0,4.0,0,0,,,30.0,,,TRUE,,,,,,,,,,,,,,,,,,,,,,,,,,,,METAR,735.0
FAUP 072200Z AUTO 33009KT //// // ////// 16/M01 Q1021,FAUP,2023-07-07T22:00:00Z,-28.38,21.27,16.0,-1.0,330,9,,,30.147638,,,TRUE,,,,,,,,,,,,,,,,,,,,,,,,,,,,METAR,845.0
FAPP 072200Z AUTO 22004KT //// // ////// 05/01 Q1030,FAPP,2023-07-07T22:00:00Z,-23.83,29.45,5.0,1.0,220,4,,,30.413385,,,TRUE,,,,,,,,,,,,,,,,,,,,,,,,,,,,METAR,1238.0
FAOR 072200Z 31005KT CAVOK 11/01 Q1029 NOSIG,FAOR,2023-07-07T22:00:00Z,-26.13,28.23,11.0,1.0,310,5,,6.21,30.383858,,,,,,TRUE,,,,,CAVOK,,,,,,,,VFR,,,,,,,,,,,,METAR,1684.0
FAMM 072200Z AUTO 04005KT //// // ////// 06/M01 Q1027,FAMM,2023-07-07T22:00:00Z,-25.8,25.53,6.0,-1.0,40,5,,,30.324802,,,TRUE,,,,,,,,,,,,,,,,,,,,,,,,,,,,METAR,1280.0
FALE 072200Z 23002KT CAVOK 13/09 Q1014 NOSIG,FALE,2023-07-07T22:00:00Z,-29.62,31.12,13.0,9.0,230,2,,6.21,29.940945,,,,,,TRUE,,,,,CAVOK,,,,,,,,VFR,,,,,,,,,,,,METAR,109.0
FAKN 072200Z AUTO 00000KT //// // ////// 15/02 Q1026,FAKN,2023-07-07T22:00:00Z,-25.38,31.1,15.0,2.0,0,0,,,30.295275,,,TRUE,,,,,,,,,,,,,,,,,,,,,,,,,,,,METAR,864.0
FAKM 072200Z AUTO 01007KT //// // ////// 11/M00 Q1024,FAKM,2023-07-07T22:00:00Z,-28.8,24.77,11.0,0.0,10,7,,,30.236221,,,TRUE,,,,,,,,,,,,,,,,,,,,,,,,,,,,METAR,1203.0
FAJB 072200Z AUTO 00000KT //// // ////// 05/01 Q1029,FAJB,2023-07-07T22:00:00Z,-26.15,28.0,5.0,1.0,0,0,,,30.383858,,,TRUE,,,,,,,,,,,,,,,,,,,,,,,,,,,,METAR,1626.0
FAHS 072200Z AUTO 29001KT //// // ////// 16/08 Q1024,FAHS,2023-07-07T22:00:00Z,-24.37,31.03,16.0,8.0,290,1,,,30.236221,,,TRUE,,,,,,,,,,,,,,,,,,,,,,,,,,,,METAR,532.0
FACT 072200Z 34007KT 9999 FEW030 12/10 Q1016 NOSIG,FACT,2023-07-07T22:00:00Z,-33.97,18.6,12.0,10.0,340,7,,6.21,30.0,,,,,,TRUE,,,,,FEW,3000,,,,,,,VFR,,,,,,,,,,,,METAR,48.0
EPWR 072200Z VRB02KT CAVOK 15/10 Q1022,EPWR,2023-07-07T22:00:00Z,51.1,16.88,15.0,10.0,0,2,,6.21,30.177166,,,,,,,,,,,CAVOK,,,,,,,,VFR,,,,,,,,,,,,METAR,118.0
EPWA 072200Z VRB01KT CAVOK 15/09 Q1022 NOSIG,EPWA,2023-07-07T22:00:00Z,52.17,20.97,15.0,9.0,0,1,,6.21,30.177166,,,,,,TRUE,,,,,CAVOK,,,,,,,,VFR,,,,,,,,,,,,METAR,107.0
EPSY 072200Z 01003KT CAVOK 13/09 Q1023,EPSY,2023-07-07T22:00:00Z,53.47,20.93,13.0,9.0,10,3,,6.21,30.206694,,,,,,,,,,,CAVOK,,,,,,,,VFR,,,,,,,,,,,,METAR,136.0
EPSC 072200Z 36004KT 330V030 CAVOK 15/11 Q1022,EPSC,2023-07-07T22:00:00Z,53.58,14.9,15.0,11.0,360,4,,6.21,30.177166,,,,,,,,,,,CAVOK,,,,,,,,VFR,,,,,,,,,,,,METAR,47.0
EPRZ 072200Z 22002KT CAVOK 15/13 Q1022,EPRZ,2023-07-07T22:00:00Z,50.1,22.02,15.0,13.0,220,2,,6.21,30.177166,,,,,,,,,,,CAVOK,,,,,,,,VFR,,,,,,,,,,,,METAR,206.0
EPPO 072200Z 14001KT CAVOK 15/12 Q1022,EPPO,2023-07-07T22:00:00Z,52.42,16.83,15.0,12.0,140,1,,6.21,30.177166,,,,,,,,,,,CAVOK,,,,,,,,VFR,,,,,,,,,,,,METAR,87.0
EPMO 072200Z VRB01KT CAVOK 16/08 Q1023,EPMO,2023-07-07T22:00:00Z,52.45,20.65,16.0,8.0,0,1,,6.21,30.206694,,,,,,,,,,,CAVOK,,,,,,,,VFR,,,,,,,,,,,,METAR,102.0
EPLL 072200Z 03002KT CAVOK 14/10 Q1023,EPLL,2023-07-07T22:00:00Z,51.72,19.4,14.0,10.0,30,2,,6.21,30.206694,,,,,,,,,,,CAVOK,,,,,,,,VFR,,,,,,,,,,,,METAR,176.0
EPLB 072200Z 29003KT CAVOK 15/13 Q1022,EPLB,2023-07-07T22:00:00Z,51.23,22.72,15.0,13.0,290,3,,6.21,30.177166,,,,,,,,,,,CAVOK,,,,,,,,VFR,,,,,,,,,,,,METAR,206.0
EPKT 072200Z VRB01KT CAVOK 11/10 Q1023,EPKT,2023-07-07T22:00:00Z,50.47,19.08,11.0,10.0,0,1,,6.21,30.206694,,,,,,,,,,,CAVOK,,,,,,,,VFR,,,,,,,,,,,,METAR,296.0
EPKK 072200Z VRB01KT CAVOK 15/10 Q1023,EPKK,2023-07-07T22:00:00Z,50.07,19.8,15.0,10.0,0,1,,6.21,30.206694,,,,,,,,,,,CAVOK,,,,,,,,VFR,,,,,,,,,,,,METAR,237.0
EPGD 072200Z 25003KT CAVOK 14/10 Q1023,EPGD,2023-07-07T22:00:00Z,54.37,18.47,14.0,10.0,250,3,,6.21,30.206694,,,,,,,,,,,CAVOK,,,,,,,,VFR,,,,,,,,,,,,METAR,136.0
EPBY 072200Z 06006KT CAVOK 17/11 Q1023,EPBY,2023-07-07T22:00:00Z,53.1,18.0,17.0,11.0,60,6,,6.21,30.206694,,,,,,,,,,,CAVOK,,,,,,,,VFR,,,,,,,,,,,,METAR,66.0
EINN 072200Z 12017G29KT 100V160 9999 FEW020 SCT039 BKN060 18/11 Q1001 NOSIG,EINN,2023-07-07T22:00:00Z,52.7,-8.92,18.0,11.0,120,17,29,6.21,29.557087,,,,,,TRUE,,,,,FEW,2000,SCT,3900,BKN,6000,,,VFR,,,,,,,,,,,,METAR,20.0
EIME 072200Z 08011KT 9999 FEW030 BKN200 16/12 Q1007,EIME,2023-07-07T22:00:00Z,53.3,-6.45,16.0,12.0,80,11,,6.21,29.734253,,,,,,,,,,,FEW,3000,BKN,20000,,,,,VFR,,,,,,,,,,,,METAR,90.0
EIDW 072200Z 09010KT 9999 FEW014 SCT050 BKN240 15/13 Q1008 NOSIG,EIDW,2023-07-07T22:00:00Z,53.42,-6.28,15.0,13.0,90,10,,6.21,29.763779,,,,,,TRUE,,,,,FEW,1400,SCT,5000,BKN,24000,,,VFR,,,,,,,,,,,,METAR,75.0
EICK 072200Z 13021KT 9999 BKN012 16/12 Q1002 TEMPO 4000 BKN005,EICK,2023-07-07T22:00:00Z,51.85,-8.47,16.0,12.0,130,21,,6.21,29.586615,,,,,,,,,,,BKN,1200,,,,,,,MVFR,,,,,,,,,,,,METAR,158.0
DTTX 072200Z 14006KT CAVOK 30/19 Q1017,DTTX,2023-07-07T22:00:00Z,34.72,10.68,30.0,19.0,140,6,,6.21,30.029528,,,,,,,,,,,CAVOK,,,,,,,,VFR,,,,,,,,,,,,METAR,17.0
DTTR 072200Z AUTO 07010KT NCD 37/09 Q1018,DTTR,2023-07-07T22:00:00Z,31.7,9.27,37.0,9.0,70,10,,,30.059055,,,TRUE,,,,,,,,CLR,,,,,,,,,,,,,,,,,,,,METAR,253.0
DTTJ 072200Z 14016KT 8000 NSC 30/16 Q1016 NOSIG,DTTJ,2023-07-07T22:00:00Z,33.87,10.77,30.0,16.0,140,16,,4.97,30.0,,,,,,TRUE,,,,,CLR,,,,,,,,MVFR,,,,,,,,,,,,METAR,3.0
DTTG 072200Z 10007KT 8000 NSC 33/07 Q1017 NOSIG,DTTG,2023-07-07T22:00:00Z,33.73,9.92,33.0,7.0,100,7,,4.97,30.029528,,,,,,TRUE,,,,,CLR,,,,,,,,MVFR,,,,,,,,,,,,METAR,120.0
DTTF 072200Z 19007KT CAVOK 36/14 Q1018 NOSIG,DTTF,2023-07-07T22:00:00Z,34.42,8.82,36.0,14.0,190,7,,6.21,30.059055,,,,,,TRUE,,,,,CAVOK,,,,,,,,VFR,,,,,,,,,,,,METAR,314.0
DTTA 072200Z 12009KT 070V170 9999 FEW036 30/21 Q1015,DTTA,2023-07-07T22:00:00Z,36.85,10.22,30.0,21.0,120,9,,6.21,29.970472,,,,,,,,,,,FEW,3600,,,,,,,VFR,,,,,,,,,,,,METAR,4.0
DTNH 072200Z 16006KT CAVOK 28/18 Q1016,DTNH,2023-07-07T22:00:00Z,36.07,10.43,28.0,18.0,160,6,,6.21,30.0,,,,,,,,,,,CAVOK,,,,,,,,VFR,,,,,,,,,,,,METAR,1.0
DTMB 072200Z 14010KT 9999 FEW046 30/19 Q1016,DTMB,2023-07-07T22:00:00Z,35.77,10.75,30.0,19.0,140,10,,6.21,30.0,,,,,,,,,,,FEW,4600,,,,,,,VFR,,,,,,,,,,,,METAR,1.0
DTKA 072200Z 02003KT 270V080 9999 FEW020 33/15 Q1013 NOSIG,DTKA,2023-07-07T22:00:00Z,36.98,8.88,33.0,15.0,20,3,,6.21,29.911417,,,,,,TRUE,,,,,FEW,2000,,,,,,,VFR,,,,,,,,,,,,METAR,70.0
DIAP 072200Z 24006KT 9999 FEW013 25/25 Q1014 NOSIG,DIAP,2023-07-07T22:00:00Z,5.25,-3.92,25.0,25.0,240,6,,6.21,29.940945,,,,,,TRUE,,,,,FEW,1300,,,,,,,VFR,,,,,,,,,,,,METAR,4.0
DAUZ 072200Z 06005KT CAVOK 29/M03 Q1018,DAUZ,2023-07-07T22:00:00Z,28.05,9.63,29.0,-3.0,60,5,,6.21,30.059055,,,,,,,,,,,CAVOK,,,,,,,,VFR,,,,,,,,,,,,METAR,567.0
DAUU 072200Z 15005KT CAVOK 37/04 Q1014,DAUU,2023-07-07T22:00:00Z,31.92,5.4,37.0,4.0,150,5,,6.21,29.940945,,,,,,,,,,,CAVOK,,,,,,,,VFR,,,,,,,,,,,,METAR,147.0
DAUT 072200Z 09010KT CAVOK 37/// Q1011,DAUT,2023-07-07T22:00:00Z,29.25,0.27,,,90,10,,6.21,29.852362,,,,,,,,,,,CAVOK,,,,,,,,VFR,,,,,,,,,,,,METAR,307.0
DAUO 072200Z 16004KT 140V200 CAVOK 40/08 Q1014,DAUO,2023-07-07T22:00:00Z,33.5,6.78,40.0,8.0,160,4,,6.21,29.940945,,,,,,,,,,,CAVOK,,,,,,,,VFR,,,,,,,,,,,,METAR,55.0
DAUL 072200Z 17004KT 8000 NSC 34/08 Q1019,DAUL,2023-07-07T22:00:00Z,33.77,2.92,34.0,8.0,170,4,,4.97,30.088583,,,,,,,,,,,CLR,,,,,,,,MVFR,,,,,,,,,,,,METAR,755.0
DAUK 072200Z 14006KT CAVOK 38/08 Q1014,DAUK,2023-07-07T22:00:00Z,33.08,6.08,38.0,8.0,140,6,,6.21,29.940945,,,,,,,,,,,CAVOK,,,,,,,,VFR,,,,,,,,,,,,METAR,83.0
DAUI 072200Z 09021KT 7000 DRSA NSC 42/// Q1009,DAUI,2023-07-07T22:00:00Z,27.25,2.52,,,90,21,,4.35,29.793306,,,,,,,,,,DRSA,CLR,,,,,,,,MVFR,,,,,,,,,,,,METAR,271.0
DAUH 072200Z 12003KT 090V160 CAVOK 38/05 Q1015,DAUH,2023-07-07T22:00:00Z,31.67,6.15,38.0,5.0,120,3,,6.21,29.970472,,,,,,,,,,,CAVOK,,,,,,,,VFR,,,,,,,,,,,,METAR,141.0
DAUG 072200Z 14003KT CAVOK 36/02 Q1018,DAUG,2023-07-07T22:00:00Z,32.38,3.78,36.0,2.0,140,3,,6.21,30.059055,,,,,,,,,,,CAVOK,,,,,,,,VFR,,,,,,,,,,,,METAR,444.0
DAUE 072200Z 11004KT CAVOK 37/01 Q1016,DAUE,2023-07-07T22:00:00Z,30.57,2.87,37.0,1.0,110,4,,6.21,30.0,,,,,,,,,,,CAVOK,,,,,,,,VFR,,,,,,,,,,,,METAR,396.0
DAUB 072200Z 10006KT CAVOK 38/07 Q1014,DAUB,2023-07-07T22:00:00Z,34.78,5.73,38.0,7.0,100,6,,6.21,29.940945,,,,,,,,,,,CAVOK,,,,,,,,VFR,,,,,,,,,,,,METAR,75.0
DAUA 072200Z 05007KT CAVOK 38/// Q1009,DAUA,2023-07-07T22:00:00Z,27.83,-0.18,,,50,7,,6.21,29.793306,,,,,,,,,,,CAVOK,,,,,,,,VFR,,,,,,,,,,,,METAR,278.0
DAOY 072200Z 15014KT 8000 NSC 32/00 Q1023,DAOY,2023-07-07T22:00:00Z,33.72,1.08,32.0,0.0,150,14,,4.97,30.206694,,,,,,,,,,,CLR,,,,,,,,MVFR,,,,,,,,,,,,METAR,1340.0
DAOV 072200Z 30007KT 8000 FEW026CB SCT030 27/18 Q1018,DAOV,2023-07-07T22:00:00Z,35.2,0.15,27.0,18.0,300,7,,4.97,30.059055,,,,,,,,,,,FEW,2600,SCT,3000,,,,,MVFR,,,,,,,,,,,,METAR,506.0
DAOR 072200Z 23007KT 6000 NSC 36/M01 Q1017,DAOR,2023-07-07T22:00:00Z,31.65,-2.27,36.0,-1.0,230,7,,3.73,30.029528,,,,,,,,,,,CLR,,,,,,,,MVFR,,,,,,,,,,,,METAR,809.0
DAOO 072200Z 32007KT 9999 SCT023 26/22 Q1015,DAOO,2023-07-07T22:00:00Z,35.62,-0.62,26.0,22.0,320,7,,6.21,29.970472,,,,,,,,,,,SCT,2300,,,,,,,VFR,,,,,,,,,,,,METAR,87.0
DAON 072200Z 34004KT 9999 FEW030 SCT233 24/21 Q1017,DAON,2023-07-07T22:00:00Z,35.02,-1.47,24.0,21.0,340,4,,6.21,30.029528,,,,,,,,,,,FEW,3000,SCT,23300,,,,,VFR,,,,,,,,,,,,METAR,245.0
DAOL 072200Z 32008KT 7000 SCT026 BKN100 26/23 Q1016,DAOL,2023-07-07T22:00:00Z,35.53,-0.52,26.0,23.0,320,8,,4.35,30.0,,,,,,,,,,,SCT,2600,BKN,10000,,,,,MVFR,,,,,,,,,,,,METAR,103.0
DAOI 072200Z 24006KT 8000 SCT030 BKN233 27/20 Q1016,DAOI,2023-07-07T22:00:00Z,36.22,1.32,27.0,20.0,240,6,,4.97,30.0,,,,,,,,,,,SCT,3000,BKN,23300,,,,,MVFR,,,,,,,,,,,,METAR,141.0
DAOF 072200Z 29014KT 8000 NSC 30/07 Q1014,DAOF,2023-07-07T22:00:00Z,27.7,-8.17,30.0,7.0,290,14,,4.97,29.940945,,,,,,,,,,,CLR,,,,,,,,MVFR,,,,,,,,,,,,METAR,441.0
DAOB 072200Z 20005KT 8000 SCT030 24/12 Q1022,DAOB,2023-07-07T22:00:00Z,35.33,1.47,24.0,12.0,200,5,,4.97,30.177166,,,,,,,,,,,SCT,3000,,,,,,,MVFR,,,,,,,,,,,,METAR,976.0
DABT 072200Z 18009KT 9999 FEW033 SCT090 34/06 Q1021,DABT,2023-07-07T22:00:00Z,35.75,6.32,34.0,6.0,180,9,,6.21,30.147638,,,,,,,,,,,FEW,3300,SCT,9000,,,,,VFR,,,,,,,,,,,,METAR,813.0
DABS 072200Z 25004KT CAVOK 34/03 Q1022,DABS,2023-07-07T22:00:00Z,35.43,8.12,34.0,3.0,250,4,,6.21,30.177166,,,,,,,,,,,CAVOK,,,,,,,,VFR,,,,,,,,,,,,METAR,806.0
DABC 072200Z 18006KT CAVOK 31/10 Q1020,DABC,2023-07-07T22:00:00Z,36.27,6.62,31.0,10.0,180,6,,6.21,30.11811,,,,,,,,,,,CAVOK,,,,,,,,VFR,,,,,,,,,,,,METAR,686.0
DABB 072200Z VRB02KT CAVOK 28/24 Q1012,DABB,2023-07-07T22:00:00Z,36.82,7.82,28.0,24.0,0,2,,6.21,29.88189,,,,,,,,,,,CAVOK,,,,,,,,VFR,,,,,,,,,,,,METAR,3.0
DAAY 072200Z 19012KT 3000 BLSA SCT030 SCT033 33/M00 Q1022,DAAY,2023-07-07T22:00:00Z,33.53,-0.25,33.0,0.0,190,12,,1.86,30.177166,,,,,,,,,,BLSA,SCT,3000,SCT,3300,,,,,IFR,,,,,,,,,,,,METAR,1116.0
DAAV 072200Z VRB02KT 9999 FEW020 SCT200 28/24 Q1011,DAAV,2023-07-07T22:00:00Z,36.8,5.88,28.0,24.0,0,2,,6.21,29.852362,,,,,,,,,,,FEW,2000,SCT,20000,,,,,VFR,,,,,,,,,,,,METAR,11.0
DAAT 072200Z 33014G24KT 9999 SCT046 31/04 Q1022,DAAT,2023-07-07T22:00:00Z,22.82,5.47,31.0,4.0,330,14,24,6.21,30.177166,,,,,,,,,,,SCT,4600,,,,,,,VFR,,,,,,,,,,,,METAR,1376.0
DAAS 072200Z 17005KT 9999 FEW030 32/02 Q1022,DAAS,2023-07-07T22:00:00Z,36.18,5.33,32.0,2.0,170,5,,6.21,30.177166,,,,,,,,,,,FEW,3000,,,,,,,VFR,,,,,,,,,,,,METAR,1012.0
DAAP 072200Z 08008KT CAVOK 33/M01 Q1018,DAAP,2023-07-07T22:00:00Z,26.72,8.62,33.0,-1.0,80,8,,6.21,30.059055,,,,,,,,,,,CAVOK,,,,,,,,VFR,,,,,,,,,,,,METAR,542.0
DAAJ 072200Z 07010KT CAVOK 30/M06 Q1019,DAAJ,2023-07-07T22:00:00Z,24.28,9.47,30.0,-6.0,70,10,,6.21,30.088583,,,,,,,,,,,CAVOK,,,,,,,,VFR,,,,,,,,,,,,METAR,962.0
DAAG 072200Z 34010KT 310V010 9999 FEW020 FEW026CB BKN200 27/23 Q1013,DAAG,2023-07-07T22:00:00Z,36.68,3.22,27.0,23.0,340,10,,6.21,29.911417,,,,,,,,,,,FEW,2000,FEW,2600,BKN,20000,,,VFR,,,,,,,,,,,,METAR,18.0
DAAE 072200Z 26005KT 7000 FEW016 SCT233 27/22 Q1011,DAAE,2023-07-07T22:00:00Z,36.72,5.07,27.0,22.0,260,5,,4.35,29.852362,,,,,,,,,,,FEW,1600,SCT,23300,,,,,MVFR,,,,,,,,,,,,METAR,1.0
CYBR 072200Z 01009KT 300V020 15SM SCT056 BKN085 21/08 A3001 RMK CU4AC1 SLP171 DENSITY ALT 2300FT,CYBR,2023-07-07T22:00:00Z,49.92,-99.95,21.0,8.0,10,9,,15.0,30.008858,1017.1,,,,,,,,,,SCT,5600,BKN,8500,,,,,VFR,,,,,,,,,,,,METAR,405.0
BKPR 072200Z 34008KT 9999 FEW090 17/15 Q1022 NOSIG,BKPR,2023-07-07T22:00:00Z,42.58,21.03,17.0,15.0,340,8,,6.21,30.177166,,,,,,TRUE,,,,,FEW,9000,,,,,,,VFR,,,,,,,,,,,,METAR,545.0
BIRK 072200Z 16006KT 050V190 CAVOK 15/10 Q1014,BIRK,2023-07-07T22:00:00Z,64.13,-21.93,15.0,10.0,160,6,,6.21,29.940945,,,,,,,,,,,CAVOK,,,,,,,,VFR,,,,,,,,,,,,METAR,12.0
BIKF 072200Z 31010KT CAVOK 12/08 Q1015,BIKF,2023-07-07T22:00:00Z,63.98,-22.6,12.0,8.0,310,10,,6.21,29.970472,,,,,,,,,,,CAVOK,,,,,,,,VFR,,,,,,,,,,,,METAR,49.0
BIIS 072200Z 09005KT CAVOK 11/04 Q1018,BIIS,2023-07-07T22:00:00Z,66.05,-23.13,11.0,4.0,90,5,,6.21,30.059055,,,,,,,,,,,CAVOK,,,,,,,,VFR,,,,,,,,,,,,METAR,3.0
BIEG 072200Z 01010KT 9999 FEW015 SCT025 BKN040 08/06 Q1021,BIEG,2023-07-07T22:00:00Z,65.27,-14.4,8.0,6.0,10,10,,6.21,30.147638,,,,,,,,,,,FEW,1500,SCT,2500,BKN,4000,,,VFR,,,,,,,,,,,,METAR,20.0
BIAR 072200Z 09007KT 9999 SCT055 13/07 Q1018,BIAR,2023-07-07T22:00:00Z,65.67,-18.07,13.0,7.0,90,7,,6.21,30.059055,,,,,,,,,,,SCT,5500,,,,,,,VFR,,,,,,,,,,,,METAR,1.0
AYNZ 072200Z 09005G10KT 5000 BKN015 OVC030 23/21 Q1014 RMK:SHRA ALL AROUND AD,AYNZ,2023-07-07T22:00:00Z,-6.57,146.72,23.0,21.0,90,5,10,3.11,29.940945,,,,,,,,,,,BKN,1500,OVC,3000,,,,,MVFR,,,,,,,,,,,,SPECI,74.0
AYMH 072200Z VRB04KT 9999 SCT004 BKN030 -/- Q1023,AYMH,2023-07-07T22:00:00Z,-5.83,144.3,,,0,4,,6.21,30.206694,,,,,,,,,,,SCT,400,BKN,3000,,,,,MVFR,,,,,,,,,,,,METAR,1634.0
ANYN 072200Z 08006KT 9999 +SHRA FEW018 SCT020 BKN300 28/27 Q1010,ANYN,2023-07-07T22:00:00Z,-0.55,166.92,28.0,27.0,80,6,,6.21,29.822834,,,,,,,,,,+SHRA,FEW,1800,SCT,2000,BKN,30000,,,VFR,,,,,,,,,,,,METAR,7.0
PTPN 072159Z 17004KT 15SM BKN017 OVC130 27/25 A2980 RMK FIRST ,PTPN,2023-07-07T21:59:00Z,6.98,158.22,27.0,25.0,170,4,,15.0,29.799213,,,,,,,,,,,BKN,1700,OVC,13000,,,,,MVFR,,,,,,,,,,,,METAR,3.0
PKMJ 072159Z 08012KT 15SM FEW015 SCT050 BKN300 30/25 A2983 ,PKMJ,2023-07-07T21:59:00Z,7.07,171.27,30.0,25.0,80,12,,15.0,29.828741,,,,,,,,,,,FEW,1500,SCT,5000,BKN,30000,,,VFR,,,,,,,,,,,,METAR,2.0
MUCF 072159Z AUTO 22008KT 170V250 32/25 Q1014,MUCF,2023-07-07T21:59:00Z,22.15,-80.4,32.0,25.0,220,8,,,29.940945,,,TRUE,,,,,,,,,,,,,,,,,,,,,,,,,,,,METAR,35.0
MMGM 072159Z RTD 22011KT 10SM SKC 35/26 A2967,MMGM,2023-07-07T21:59:00Z,27.95,-110.92,35.0,26.0,220,11,,10.0,29.66929,,,,,,,,,,,SKC,,,,,,,,VFR,,,,,,,,,,,,METAR,13.0
KP92 072159Z AUTO 21003KT 30/25 A2994 RMK AO1 SLP137 T03000250,KP92,2023-07-07T21:59:00Z,29.57,-91.53,30.0,25.0,210,3,,,29.940945,1013.7,,TRUE,TRUE,,,,,,,,,,,,,,,,,,,,,,,,,,,METAR,1.0
KNGU 072159Z 09007KT 10SM SCT040 BKN250 29/24 A2983 RMK AO2 SLP100 T2 SET T02890239 $,KNGU,2023-07-07T21:59:00Z,36.93,-76.27,28.9,23.9,90,7,,10.0,29.828741,1010.0,,,TRUE,TRUE,,,,,,SCT,4000,BKN,25000,,,,,VFR,,,,,,,,,,,,SPECI,3.0
KFEW 072159Z AUTO 09007KT 10SM FEW080 SCT110 BKN140 16/11 A3017 RMK AO2 LTG DSNT SE-S RAE59 SLP165 $,KFEW,2023-07-07T21:59:00Z,41.13,-104.87,16.0,11.0,90,7,,10.0,30.171259,1016.5,,TRUE,TRUE,TRUE,,,,,,FEW,8000,SCT,11000,BKN,14000,,,VFR,,,,,,,,,,,,SPECI,1877.0
KCVN 072159Z AUTO 15011KT 10SM -TSRA FEW031 SCT065 BKN090 23/17 A2995 RMK AO2 WSHFT 2139 LTG DSNT ALQDS P0000,KCVN,2023-07-07T21:59:00Z,34.42,-103.07,23.0,17.0,150,11,,10.0,29.949802,,,TRUE,TRUE,,,,,,-TSRA,FEW,3100,SCT,6500,BKN,9000,,,VFR,,,,,,0.005,,,,,,METAR,1278.0
K2V6 072159Z AUTO 06008KT 10SM 24/M02 A3003 RMK AO2,K2V6,2023-07-07T21:59:00Z,40.1,-102.72,24.0,-2.0,60,8,,10.0,30.029528,,,TRUE,TRUE,,,,,,,,,,,,,,,,,,,,,,,,,,,SPECI,1257.0
KROG 072158Z 21009G17KT 10SM CLR 29/21 A2991 RMK AO2 SLP114 T02890211,KROG,2023-07-07T21:58:00Z,36.37,-94.1,28.9,21.1,210,9,17,10.0,29.911417,1011.4,,,TRUE,,,,,,,CLR,,,,,,,,VFR,,,,,,,,,,,,METAR,407.0
KMRH 072158Z AUTO 18009KT 10SM CLR 29/24 A2981 RMK AO2 SLP094 T02940244,KMRH,2023-07-07T21:58:00Z,34.73,-76.65,29.4,24.4,180,9,,10.0,29.811024,1009.4,,TRUE,TRUE,,,,,,,CLR,,,,,,,,VFR,,,,,,,,,,,,METAR,2.0
KMEI 072158Z 00000KT 10SM CLR 32/23 A2992 RMK AO2 SLP126 T03170233 $,KMEI,2023-07-07T21:58:00Z,32.33,-88.75,31.7,23.3,0,0,,10.0,29.920275,1012.6,,,TRUE,TRUE,,,,,,CLR,,,,,,,,VFR,,,,,,,,,,,,METAR,90.0
KHST 072158Z AUTO 24009KT 10SM CLR 34/20 A2994 RMK AO2 LTG DSNT N DZE58 SLP142,KHST,2023-07-07T21:58:00Z,25.48,-80.37,34.0,20.0,240,9,,10.0,29.940945,1014.2,,TRUE,TRUE,,,,,,,CLR,,,,,,,,VFR,,,,,,,,,,,,SPECI,1.0
KCSG 072158Z 02006KT 10SM FEW021 SCT070 26/22 A2989 RMK AO2 LTG DSNT E AND SW AND W T02560217,KCSG,2023-07-07T21:58:00Z,32.52,-84.95,25.6,21.7,20,6,,10.0,29.890747,,,,TRUE,,,,,,,FEW,2100,SCT,7000,,,,,VFR,,,,,,,,,,,,METAR,120.0
KBKF 072158Z 08007KT 10SM BKN040 BKN110 BKN220 22/12 A3011 RMK AO2A SLP129 T02170117,KBKF,2023-07-07T21:58:00Z,39.72,-104.75,21.7,11.7,80,7,,10.0,30.109253,1012.9,,,TRUE,,,,,,,BKN,4000,BKN,11000,BKN,22000,,,VFR,,,,,,,,,,,,SPECI,1703.0
K0J4 072158Z AUTO 23006KT 10SM FEW042 FEW050 33/22 A2991 RMK AO2 SLP122 T03280222,K0J4,2023-07-07T21:58:00Z,31.05,-86.32,32.8,22.2,230,6,,10.0,29.911417,1012.2,,TRUE,TRUE,,,,,,,FEW,4200,FEW,5000,,,,,VFR,,,,,,,,,,,,METAR,96.0
CYYF 072158Z 04013G19KT 15SM -TSRA SCT040CB BKN140 BKN240 28/10 A2984 RMK CB4AC2CI1 SLP100 DENSITY ALT 3000FT,CYYF,2023-07-07T21:58:00Z,49.47,-119.6,28.0,10.0,40,13,19,15.0,29.840551,1010.0,,,,,,,,,-TSRA,SCT,4000,BKN,14000,BKN,24000,,,VFR,,,,,,,,,,,,SPECI,342.0
PHNG 072157Z 08009KT 7SM SCT028 OVC060 29/18 A3007 RMK AO2 PK WND 06028/2059 RAB23E48 SLP176 P0000 T02890183 ,PHNG,2023-07-07T21:57:00Z,21.43,-157.77,28.9,18.3,80,9,,7.0,30.070866,1017.6,,,TRUE,,,,,,,SCT,2800,OVC,6000,,,,,VFR,,,,,,0.005,,,,,,METAR,1.0
KNYL 072157Z VRB03KT 7SM CLR 39/M04 A2965 RMK AO2 SLP037 T03941039 $,KNYL,2023-07-07T21:57:00Z,32.65,-114.62,39.4,-3.9,0,3,,7.0,29.648623,1003.7,,,TRUE,TRUE,,,,,,CLR,,,,,,,,VFR,,,,,,,,,,,,SPECI,58.0
KNJM 072157Z AUTO 20008KT 7SM CLR 30/24 A2981 RMK AO2 SLP099 T03000244,KNJM,2023-07-07T21:57:00Z,34.68,-77.02,30.0,24.4,200,8,,7.0,29.811024,1009.9,,TRUE,TRUE,,,,,,,CLR,,,,,,,,VFR,,,,,,,,,,,,SPECI,5.0
KHHW 072157Z AUTO 19005KT 10SM 31/22 A2990 RMK AO2,KHHW,2023-07-07T21:57:00Z,34.03,-95.55,31.0,22.0,190,5,,10.0,29.899607,,,TRUE,TRUE,,,,,,,,,,,,,,,,,,,,,,,,,,,SPECI,178.0
KFLG 072157Z AUTO 21017G27KT 10SM CLR 28/M02 A3015 RMK AO2 PK WND 23028/2145 SLP101 T02831022,KFLG,2023-07-07T21:57:00Z,35.13,-111.67,28.3,-2.2,210,17,27,10.0,30.15059,1010.1,,TRUE,TRUE,,,,,,,CLR,,,,,,,,VFR,,,,,,,,,,,,METAR,2134.0
KCQM 072157Z AUTO 24006KT 10SM SCT070 17/13 A2991 RMK AO2 LTG DSNT NE,KCQM,2023-07-07T21:57:00Z,47.82,-92.68,17.0,13.0,240,6,,10.0,29.911417,,,TRUE,TRUE,,,,,,,SCT,7000,,,,,,,VFR,,,,,,,,,,,,SPECI,406.0
TJSJ 072156Z 07014KT 9SM SCT028 29/24 A2999 RMK AO2 SLP153 HZ ALQDS T02940244,TJSJ,2023-07-07T21:56:00Z,18.43,-66.02,29.4,24.4,70,14,,9.0,29.991142,1015.3,,,TRUE,,,,,,,SCT,2800,,,,,,,VFR,,,,,,,,,,,,METAR,3.0
ROTM 072156Z 19014G20KT 9999 FEW013 SCT200 28/27 A2988 RMK SLP102 T02830267,ROTM,2023-07-07T21:56:00Z,26.27,127.75,28.3,26.7,190,14,20,6.21,29.878937,1010.2,,,,,,,,,,FEW,1300,SCT,20000,,,,,VFR,,,,,,,,,,,,METAR,80.0
RJOI 072156Z 01003KT 9000 BR SCT015 BKN020 OVC040 26/23 A2971 RMK AO2 SLP060 T02610233,RJOI,2023-07-07T21:56:00Z,34.13,132.23,26.1,23.3,10,3,,5.59,29.71063,1006.0,,,TRUE,,,,,,BR,SCT,1500,BKN,2000,OVC,4000,,,MVFR,,,,,,,,,,,,METAR,2.0
PPIZ 072156Z AUTO 34013KT 10SM OVC055 12/11 A2968 RMK AO2 SLP054 T01220106,PPIZ,2023-07-07T21:56:00Z,69.73,-163.0,12.2,10.6,340,13,,10.0,29.681103,1005.4,,TRUE,TRUE,,,,,,,OVC,5500,,,,,,,VFR,,,,,,,,,,,,METAR,5.0
PMDY 072156Z AUTO 10SM CLR 27/23 A3014 RMK AO2 SLP207 T02720228 $,PMDY,2023-07-07T21:56:00Z,28.22,-177.37,27.2,22.8,,,,10.0,30.138779,1020.7,,TRUE,TRUE,TRUE,,,,,,CLR,,,,,,,,VFR,,,,,,,,,,,,METAR,6.0
PKMR 072156Z 08007KT 20SM FEW015 SCT300 31/25 A2980 RMK SLP093 T03050249,PKMR,2023-07-07T21:56:00Z,7.08,171.38,30.5,24.9,80,7,,20.0,29.799213,1009.3,,,,,,,,,,FEW,1500,SCT,30000,,,,,VFR,,,,,,,,,,,,METAR,7.0
PHNY 072156Z AUTO 04005KT 10SM -RA BKN022 OVC028 22/19 A3013 RMK AO2 RAB21 SLP182 P0003 T02170189,PHNY,2023-07-07T21:56:00Z,20.77,-156.95,21.7,18.9,40,5,,10.0,30.129921,1018.2,,TRUE,TRUE,,,,,,-RA,BKN,2200,OVC,2800,,,,,MVFR,,,,,,0.03,,,,,,METAR,395.0
PFYU 072156Z 05003KT 10SM BKN065 BKN110 22/15 A2975 RMK AO2 SLP081 T02220150,PFYU,2023-07-07T21:56:00Z,66.57,-145.23,22.2,15.0,50,3,,10.0,29.749016,1008.1,,,TRUE,,,,,,,BKN,6500,BKN,11000,,,,,VFR,,,,,,,,,,,,METAR,130.0
PFNO 072156Z AUTO 21008KT 4SM +RA BR BKN013 BKN019 OVC025 13/12 A2973 RMK AO2 RAB06E21B50 SLP148 P0005 T01330117 $,PFNO,2023-07-07T21:56:00Z,66.82,-161.02,13.3,11.7,210,8,,4.0,29.731298,1014.8,,TRUE,TRUE,TRUE,,,,,+RA BR,BKN,1300,BKN,1900,OVC,2500,,,MVFR,,,,,,0.05,,,,,,METAR,14.0
PFKT 072156Z AUTO 22011KT 10SM FEW009 OVC055 11/08 A2975 RMK AO2 SLP074 T01060083,PFKT,2023-07-07T21:56:00Z,65.33,-166.47,10.6,8.3,220,11,,10.0,29.749016,1007.4,,TRUE,TRUE,,,,,,,FEW,900,OVC,5500,,,,,VFR,,,,,,,,,,,,METAR,8.0
PFEL 072156Z AUTO 19007KT 10SM SCT010 BKN024 OVC065 12/11 A2976 RMK AO2 SLP077 T01220106,PFEL,2023-07-07T21:56:00Z,64.62,-162.27,12.2,10.6,190,7,,10.0,29.760826,1007.7,,TRUE,TRUE,,,,,,,SCT,1000,BKN,2400,OVC,6500,,,MVFR,,,,,,,,,,,,METAR,50.0
PFCL 072156Z AUTO 20009KT 10SM -RA FEW008 BKN014 OVC037 09/09 A2993 RMK AO2 RAB37 SLP128 P0001 T00940094 TSNO,PFCL,2023-07-07T21:56:00Z,58.83,-158.53,9.4,9.4,200,9,,10.0,29.929134,1012.8,,TRUE,TRUE,,,TRUE,,,-RA,FEW,800,BKN,1400,OVC,3700,,,MVFR,,,,,,0.01,,,,,,METAR,23.0
PAZK 072156Z AUTO 24008G14KT 10SM CLR 17/11 A2983 RMK AO2 SLP106 T01670106,PAZK,2023-07-07T21:56:00Z,61.93,-147.17,16.7,10.6,240,8,14,10.0,29.828741,1010.6,,TRUE,TRUE,,,,,,,CLR,,,,,,,,VFR,,,,,,,,,,,,METAR,1002.0
PAWS 072156Z AUTO VRB04KT 10SM FEW017 OVC023 12/08 A2997 RMK AO2 SLP154 T01170078,PAWS,2023-07-07T21:56:00Z,61.57,-149.53,11.7,7.8,0,4,,10.0,29.970472,1015.4,,TRUE,TRUE,,,,,,,FEW,1700,OVC,2300,,,,,MVFR,,,,,,,,,,,,METAR,102.0
PAWN 072156Z AUTO 14010KT 10SM BKN014 OVC028 14/12 RMK AO2 RAE10 SLPNO P0000 T01390117 $,PAWN,2023-07-07T21:56:00Z,67.57,-162.98,13.9,11.7,140,10,,10.0,,,,TRUE,TRUE,TRUE,,,,,,BKN,1400,OVC,2800,,,,,MVFR,,,,,,0.005,,,,,,METAR,26.0
PAWM 072156Z AUTO 00000KT 8SM BKN014 BKN021 OVC031 12/09 A2976 RMK AO2 RAB36E50 SLP080 P0000 T01220094,PAWM,2023-07-07T21:56:00Z,64.68,-163.42,12.2,9.4,0,0,,8.0,29.760826,1008.0,,TRUE,TRUE,,,,,,,BKN,1400,BKN,2100,OVC,3100,,,MVFR,,,,,,0.005,,,,,,METAR,80.0
PAWG 072156Z 29004KT 10SM CLR 25/12 A2988,PAWG,2023-07-07T21:56:00Z,56.48,-132.37,25.0,12.0,290,4,,10.0,29.878937,,,,,,,,,,,CLR,,,,,,,,VFR,,,,,,,,,,,,METAR,6.0
PAVD 072156Z 27011KT 6SM -RA BR FEW007 BKN015 OVC029 12/11 A3007 RMK AO2 SLP179 VIS E 2 PCPN VRY LGT T01220111 PNO $,PAVD,2023-07-07T21:56:00Z,61.13,-146.25,12.2,11.1,270,11,,6.0,30.070866,1017.9,,,TRUE,TRUE,,,,,-RA BR,FEW,700,BKN,1500,OVC,2900,,,MVFR,,,,,,,,,,,,METAR,21.0
PAUN 072156Z AUTO 07003KT 10SM -RA OVC042 12/10 A2980 RMK AO2 SLP093 T01170100 PNO $,PAUN,2023-07-07T21:56:00Z,63.88,-160.8,11.7,10.0,70,3,,10.0,29.799213,1009.3,,TRUE,TRUE,TRUE,,,,,-RA,OVC,4200,,,,,,,VFR,,,,,,,,,,,,METAR,4.0
PATQ 072156Z AUTO 21010KT 10SM BKN065 16/13 A2967 RMK AO2 SLP049 P0001 T01610128 TSNO,PATQ,2023-07-07T21:56:00Z,70.47,-157.43,16.1,12.8,210,10,,10.0,29.66929,1004.9,,TRUE,TRUE,,,TRUE,,,,BKN,6500,,,,,,,VFR,,,,,,0.01,,,,,,METAR,28.0
PATG 072156Z AUTO 10SM FEW009 OVC049 11/09 A2991 RMK AO2 SLP130 T01110094 $,PATG,2023-07-07T21:56:00Z,59.05,-160.38,11.1,9.4,,,,10.0,29.911417,1013.0,,TRUE,TRUE,TRUE,,,,,,FEW,900,OVC,4900,,,,,VFR,,,,,,,,,,,,METAR,1.0
PATE 072156Z AUTO 23011KT 10SM BKN013 BKN023 OVC050 11/08 A2973 RMK AO2 SLP073 T01110083 PNO $,PATE,2023-07-07T21:56:00Z,65.23,-166.33,11.1,8.3,230,11,,10.0,29.731298,1007.3,,TRUE,TRUE,TRUE,,,,,,BKN,1300,BKN,2300,OVC,5000,,,MVFR,,,,,,,,,,,,METAR,93.0
PASY 072156Z 19004KT 3/8SM FG VV001 09/09 A2961 RMK AO2A SLP030 T00920089 RVRNO PNO FZRANO $,PASY,2023-07-07T21:56:00Z,52.72,174.12,9.2,8.9,190,4,,0.38,29.610237,1003.0,,,TRUE,TRUE,,,TRUE,,FG,OVX,0,,,,,,,LIFR,,,,,,,,,,,100,METAR,6.0
PASX 072156Z AUTO 22008KT 10SM OVC038 13/07 A2998 RMK AO2 SLP159 T01280067,PASX,2023-07-07T21:56:00Z,60.48,-151.05,12.8,6.7,220,8,,10.0,29.97933,1015.9,,TRUE,TRUE,,,,,,,OVC,3800,,,,,,,VFR,,,,,,,,,,,,METAR,28.0
PASM 072156Z AUTO 17009KT 10SM FEW012 OVC049 12/08 A2982 RMK AO2 RAE20 SLP104 P0000 T01170083,PASM,2023-07-07T21:56:00Z,62.07,-163.3,11.7,8.3,170,9,,10.0,29.819881,1010.4,,TRUE,TRUE,,,,,,,FEW,1200,OVC,4900,,,,,VFR,,,,,,0.005,,,,,,METAR,108.0
PASK 072156Z AUTO VRB04KT 10SM BKN017 BKN036 OVC095 14/12 A2974 RMK AO2 SLP070 T01440122 PNO $,PASK,2023-07-07T21:56:00Z,66.6,-160.0,14.4,12.2,0,4,,10.0,29.740158,1007.0,,TRUE,TRUE,TRUE,,,,,,BKN,1700,BKN,3600,OVC,9500,,,MVFR,,,,,,,,,,,,METAR,3.0
PASH 072156Z AUTO 27009KT 10SM OVC017 11/10 A2972 RMK AO2 SLP063 T01110100,PASH,2023-07-07T21:56:00Z,66.27,-166.08,11.1,10.0,270,9,,10.0,29.719488,1006.3,,TRUE,TRUE,,,,,,,OVC,1700,,,,,,,MVFR,,,,,,,,,,,,METAR,3.0
PASD 072156Z 18009KT 10SM FEW018 SCT023 BKN030 11/08 A2998 RMK AO2 SLP155 T01060078 $,PASD,2023-07-07T21:56:00Z,55.33,-160.52,10.6,7.8,180,9,,10.0,29.97933,1015.5,,,TRUE,TRUE,,,,,,FEW,1800,SCT,2300,BKN,3000,,,MVFR,,,,,,,,,,,,METAR,6.0
PARY 072156Z AUTO VRB04KT 10SM SCT029 BKN037 OVC120 16/09 A2977 RMK AO2 SLP086 T01610094,PARY,2023-07-07T21:56:00Z,64.73,-155.47,16.1,9.4,0,4,,10.0,29.769686,1008.6,,TRUE,TRUE,,,,,,,SCT,2900,BKN,3700,OVC,12000,,,VFR,,,,,,,,,,,,METAR,185.0
PARS 072156Z AUTO 19005KT 10SM FEW019 OVC048 12/08 A2982 RMK AO2 SLP100 T01220083 $,PARS,2023-07-07T21:56:00Z,61.77,-161.32,12.2,8.3,190,5,,10.0,29.819881,1010.0,,TRUE,TRUE,TRUE,,,,,,FEW,1900,OVC,4800,,,,,VFR,,,,,,,,,,,,METAR,15.0
PARC 072156Z AUTO 10SM -RA FEW046 OVC070 17/12 A2979 RMK AO2 RAB39 SLP107 P0000 T01720117 $,PARC,2023-07-07T21:56:00Z,68.12,-145.58,17.2,11.7,,,,10.0,29.790354,1010.7,,TRUE,TRUE,TRUE,,,,,-RA,FEW,4600,OVC,7000,,,,,VFR,,,,,,0.005,,,,,,METAR,626.0
PAPO 072156Z AUTO 31005KT 10SM BKN050 14/09 A2969 RMK AO2 SLP052 T01390089 PNO $,PAPO,2023-07-07T21:56:00Z,68.35,-166.8,13.9,8.9,310,5,,10.0,29.68996,1005.2,,TRUE,TRUE,TRUE,,,,,,BKN,5000,,,,,,,VFR,,,,,,,,,,,,METAR,4.0
PAPN 072156Z AUTO 30007KT 9SM FEW040 BKN048 11/08 A2994 RMK AO2 SLP142 T01060078 PNO $,PAPN,2023-07-07T21:56:00Z,57.58,-157.57,10.6,7.8,300,7,,9.0,29.940945,1014.2,,TRUE,TRUE,TRUE,,,,,,FEW,4000,BKN,4800,,,,,VFR,,,,,,,,,,,,METAR,19.0
PAPM 072156Z AUTO 24007KT 10SM FEW005 OVC035 09/08 A2989 RMK AO2 SLP123 T00890078,PAPM,2023-07-07T21:56:00Z,59.02,-161.82,8.9,7.8,240,7,,10.0,29.890747,1012.3,,TRUE,TRUE,,,,,,,FEW,500,OVC,3500,,,,,VFR,,,,,,,,,,,,METAR,4.0
PAPH 072156Z AUTO 28010KT 10SM FEW040 12/08 A2996 RMK AO2 SLP145 T01220078 PNO $,PAPH,2023-07-07T21:56:00Z,56.95,-158.62,12.2,7.8,280,10,,10.0,29.958662,1014.5,,TRUE,TRUE,TRUE,,,,,,FEW,4000,,,,,,,VFR,,,,,,,,,,,,METAR,29.0
PAPG 072156Z 10004KT 10SM CLR 21/13 A2989 RMK AO2 SLP124 T02060128,PAPG,2023-07-07T21:56:00Z,56.82,-132.93,20.6,12.8,100,4,,10.0,29.890747,1012.4,,,TRUE,,,,,,,CLR,,,,,,,,VFR,,,,,,,,,,,,METAR,24.0
PAOU 072156Z AUTO 34003KT 10SM BKN029 OVC038 09/07 A2994 RMK AO2 SLP138 T00890067 PNO $,PAOU,2023-07-07T21:56:00Z,56.0,-161.17,8.9,6.7,340,3,,10.0,29.940945,1013.8,,TRUE,TRUE,TRUE,,,,,,BKN,2900,OVC,3800,,,,,MVFR,,,,,,,,,,,,METAR,3.0
PAOH 072156Z AUTO 27010KT 10SM CLR 27/09 A2987 RMK AO2 SLP117 T02670089,PAOH,2023-07-07T21:56:00Z,58.1,-135.45,26.7,8.9,270,10,,10.0,29.870079,1011.7,,TRUE,TRUE,,,,,,,CLR,,,,,,,,VFR,,,,,,,,,,,,METAR,0.0
PANW 072156Z AUTO 21009KT 180V240 10SM FEW022 SCT029 SCT043 11/07 A2992 RMK AO2 RAE22 SLP138 P0000 T01110067,PANW,2023-07-07T21:56:00Z,59.45,-157.32,11.1,6.7,210,9,,10.0,29.920275,1013.8,,TRUE,TRUE,,,,,,,FEW,2200,SCT,2900,SCT,4300,,,VFR,,,,,,0.005,,,,,,METAR,100.0
PANV 072156Z AUTO 25007KT 210V290 10SM 13/09 A2979 RMK AO2 SLP150 T01280089 TSNO $,PANV,2023-07-07T21:56:00Z,62.65,-160.18,12.8,8.9,250,7,,10.0,29.790354,1015.0,,TRUE,TRUE,TRUE,,TRUE,,,,,,,,,,,,,,,,,,,,,,,,METAR,91.0
PANI 072156Z AUTO 11005KT 7SM -RA FEW008 BKN018 OVC028 11/09 A2988 RMK AO2 RAE33B50 SLP112 P0000 T01060094 $,PANI,2023-07-07T21:56:00Z,61.58,-159.53,10.6,9.4,110,5,,7.0,29.878937,1011.2,,TRUE,TRUE,TRUE,,,,,-RA,FEW,800,BKN,1800,OVC,2800,,,MVFR,,,,,,0.005,,,,,,METAR,21.0
PAMY 072156Z AUTO 18013KT 10SM OVC015 09/06 A2977 RMK AO2 RAB22E32 SLP080 T00940061 PNO $,PAMY,2023-07-07T21:56:00Z,60.37,-166.27,9.4,6.1,180,13,,10.0,29.769686,1008.0,,TRUE,TRUE,TRUE,,,,,,OVC,1500,,,,,,,MVFR,,,,,,,,,,,,METAR,14.0
PAMK 072156Z AUTO 28009KT 10SM SCT020 BKN024 OVC075 13/09 A2979 RMK AO2 RAE25 SLP089 P0000 T01280094,PAMK,2023-07-07T21:56:00Z,63.48,-162.12,12.8,9.4,280,9,,10.0,29.790354,1008.9,,TRUE,TRUE,,,,,,,SCT,2000,BKN,2400,OVC,7500,,,MVFR,,,,,,0.005,,,,,,METAR,31.0
PAMH 072156Z AUTO 00000KT 3SM RA BR BKN038 OVC050 14/13 A2980 RMK AO2 SLP088 P0007 T01390133,PAMH,2023-07-07T21:56:00Z,63.9,-152.28,13.9,13.3,0,0,,3.0,29.799213,1008.8,,TRUE,TRUE,,,,,,RA BR,BKN,3800,OVC,5000,,,,,MVFR,,,,,,0.07,,,,,,METAR,200.0
PALG 072156Z AUTO VRB04KT 10SM FEW016 SCT049 OVC100 12/09 A2983 RMK AO2 RAB03E42 SLP104 P0001 T01170089,PALG,2023-07-07T21:56:00Z,61.53,-160.33,11.7,8.9,0,4,,10.0,29.828741,1010.4,,TRUE,TRUE,,,,,,,FEW,1600,SCT,4900,OVC,10000,,,VFR,,,,,,0.01,,,,,,METAR,13.0
PAKI 072156Z AUTO 20012KT 10SM OVC018 09/06 A2984 RMK AO2 SLP102 T00940056 PNO $,PAKI,2023-07-07T21:56:00Z,59.93,-164.03,9.4,5.6,200,12,,10.0,29.840551,1010.2,,TRUE,TRUE,TRUE,,,,,,OVC,1800,,,,,,,MVFR,,,,,,,,,,,,METAR,4.0
PAKH 072156Z AUTO 5SM BR OVC003 09/08 A3003 RMK AO2 SLP170 T00890083 PNO $,PAKH,2023-07-07T21:56:00Z,56.93,-154.18,8.9,8.3,,,,5.0,30.029528,1017.0,,TRUE,TRUE,TRUE,,,,,BR,OVC,300,,,,,,,LIFR,,,,,,,,,,,,METAR,15.0
PAKF 072156Z AUTO 16017G23KT 10SM SCT035 BKN110 09/07 A2990 RMK AO2 SLP125 T00940072 PNO $,PAKF,2023-07-07T21:56:00Z,54.85,-163.42,9.4,7.2,160,17,23,10.0,29.899607,1012.5,,TRUE,TRUE,TRUE,,,,,,SCT,3500,BKN,11000,,,,,VFR,,,,,,,,,,,,METAR,2.0
PAJZ 072156Z AUTO 18008KT 7SM SCT014 BKN035 OVC060 11/08 A2995 RMK AO2 RAE52 SLP151 P0000 T01110078 $,PAJZ,2023-07-07T21:56:00Z,59.73,-157.27,11.1,7.8,180,8,,7.0,29.949802,1015.1,,TRUE,TRUE,TRUE,,,,,,SCT,1400,BKN,3500,OVC,6000,,,VFR,,,,,,0.005,,,,,,METAR,80.0
PAIW 072156Z AUTO 19020KT 10SM OVC005 08/08 A2971 RMK AO2 PK WND 19028/2103 SLP064 T00830078 PNO $,PAIW,2023-07-07T21:56:00Z,65.62,-168.1,8.3,7.8,190,20,,10.0,29.71063,1006.4,,TRUE,TRUE,TRUE,,,,,,OVC,500,,,,,,,IFR,,,,,,,,,,,,METAR,6.0
PAIN 072156Z AUTO 12008KT 090V160 10SM FEW050 BKN060 OVC085 22/10 A2978 RMK AO2 SLP086 T02170100,PAIN,2023-07-07T21:56:00Z,63.73,-148.92,21.7,10.0,120,8,,10.0,29.778543,1008.6,,TRUE,TRUE,,,,,,,FEW,5000,BKN,6000,OVC,8500,,,VFR,,,,,,,,,,,,METAR,525.0
PAIK 072156Z AUTO 21003KT 10SM -RA BKN029 BKN035 OVC060 14/12 A2975 RMK AO2 RAB51 SLP074 P0000 T01390117,PAIK,2023-07-07T21:56:00Z,66.98,-160.43,13.9,11.7,210,3,,10.0,29.749016,1007.4,,TRUE,TRUE,,,,,,-RA,BKN,2900,BKN,3500,OVC,6000,,,MVFR,,,,,,0.005,,,,,,METAR,49.0
PAIG 072156Z AUTO 20007KT 10SM FEW016 BKN055 OVC090 12/09 A2993 RMK AO2 RAE53 SLP142 T01170089 PNO $,PAIG,2023-07-07T21:56:00Z,59.32,-155.9,11.7,8.9,200,7,,10.0,29.929134,1014.2,,TRUE,TRUE,TRUE,,,,,,FEW,1600,BKN,5500,OVC,9000,,,VFR,,,,,,,,,,,,METAR,24.0
PAHY 072156Z AUTO 00000KT 10SM CLR 22/12 A2985 RMK AO2 SLP107 T02220122 $,PAHY,2023-07-07T21:56:00Z,55.2,-132.83,22.2,12.2,0,0,,10.0,29.84941,1010.7,,TRUE,TRUE,TRUE,,,,,,CLR,,,,,,,,VFR,,,,,,,,,,,,METAR,0.0
PAHL 072156Z AUTO 21009KT 10SM BKN019 OVC024 16/11 A2978 RMK AO2 SLP085 T01610106,PAHL,2023-07-07T21:56:00Z,65.7,-156.35,16.1,10.6,210,9,,10.0,29.778543,1008.5,,TRUE,TRUE,,,,,,,BKN,1900,OVC,2400,,,,,MVFR,,,,,,,,,,,,METAR,49.0
PAHC 072156Z AUTO 15007KT 10SM BKN028 BKN032 OVC041 13/08 A2981 RMK AO2 SLP100 T01330078,PAHC,2023-07-07T21:56:00Z,62.18,-159.78,13.3,7.8,150,7,,10.0,29.811024,1010.0,,TRUE,TRUE,,,,,,,BKN,2800,BKN,3200,OVC,4100,,,MVFR,,,,,,,,,,,,METAR,21.0
PAGS 072156Z AUTO 22009KT 10SM CLR 22/12 A2991 RMK AO2 SLP129 T02220122,PAGS,2023-07-07T21:56:00Z,58.42,-135.7,22.2,12.2,220,9,,10.0,29.911417,1012.9,,TRUE,TRUE,,,,,,,CLR,,,,,,,,VFR,,,,,,,,,,,,METAR,9.0
PAGN 072156Z AUTO VRB03KT 10SM CLR 17/12 A2990 RMK AO2 SLP115 T01720122,PAGN,2023-07-07T21:56:00Z,57.5,-134.58,17.2,12.2,0,3,,10.0,29.899607,1011.5,,TRUE,TRUE,,,,,,,CLR,,,,,,,,VFR,,,,,,,,,,,,METAR,2.0
PAFM 072156Z AUTO 16006KT 10SM -RA FEW033 BKN050 OVC065 16/12 A2978 RMK AO2 RAB43 SLPNO P0000 T01560122,PAFM,2023-07-07T21:56:00Z,67.1,-157.85,15.6,12.2,160,6,,10.0,29.778543,,,TRUE,TRUE,,,,,,-RA,FEW,3300,BKN,5000,OVC,6500,,,VFR,,,,,,0.005,,,,,,METAR,79.0
PADU 072156Z 15008KT 10SM -RA FEW018 BKN032 OVC043 11/08 A2984 RMK AO2 SLP109 P0002 T01110083 $,PADU,2023-07-07T21:56:00Z,53.9,-166.53,11.1,8.3,150,8,,10.0,29.840551,1010.9,,,TRUE,TRUE,,,,,-RA,FEW,1800,BKN,3200,OVC,4300,,,VFR,,,,,,0.02,,,,,,METAR,4.0
PADM 072156Z AUTO 13010KT 10SM SCT021 BKN036 OVC050 13/08 A2985 RMK AO2 RAB11E39 SLP113 P0000 T01280083,PADM,2023-07-07T21:56:00Z,61.87,-162.03,12.8,8.3,130,10,,10.0,29.84941,1011.3,,TRUE,TRUE,,,,,,,SCT,2100,BKN,3600,OVC,5000,,,VFR,,,,,,0.005,,,,,,METAR,17.0
PADL 072156Z 20006KT 10SM -RA BKN015 OVC035 11/10 A2992 RMK AO2 RAB17 SLP133 P0000 T01060100,PADL,2023-07-07T21:56:00Z,59.05,-158.5,10.6,10.0,200,6,,10.0,29.920275,1013.3,,,TRUE,,,,,,-RA,BKN,1500,OVC,3500,,,,,MVFR,,,,,,0.005,,,,,,METAR,20.0
PADK 072156Z AUTO 22007KT 10SM FEW003 14/12 A2973 RMK AO2 SLP068 T01390117 $,PADK,2023-07-07T21:56:00Z,51.88,-176.65,13.9,11.7,220,7,,10.0,29.731298,1006.8,,TRUE,TRUE,TRUE,,,,,,FEW,300,,,,,,,VFR,,,,,,,,,,,,METAR,3.0
PACM 072156Z AUTO 13010KT BKN018 OVC028 A2979 RMK AO2 SLPNO PWINO FZRANO $,PACM,2023-07-07T21:56:00Z,61.85,-165.57,,,130,10,,,29.790354,,,TRUE,TRUE,TRUE,,,TRUE,TRUE,,BKN,1800,OVC,2800,,,,,,,,,,,,,,,,,METAR,3.0
PABV 072156Z AUTO 23008KT 10SM OVC024 12/06 A2998 RMK AO2 SLP157 T01220061,PABV,2023-07-07T21:56:00Z,61.42,-149.52,12.2,6.1,230,8,,10.0,29.97933,1015.7,,TRUE,TRUE,,,,,,,OVC,2400,,,,,,,MVFR,,,,,,,,,,,,METAR,21.0
PABL 072156Z AUTO 27004KT 10SM -RA FEW023 SCT032 BKN055 14/11 A2972 RMK AO2 RAB31 SLP067 P0000 T01390111,PABL,2023-07-07T21:56:00Z,65.98,-161.15,13.9,11.1,270,4,,10.0,29.719488,1006.7,,TRUE,TRUE,,,,,,-RA,FEW,2300,SCT,3200,BKN,5500,,,VFR,,,,,,0.005,,,,,,METAR,7.0
PAAK 072156Z AUTO 10005KT 10SM CLR 12/12 A2975 RMK AO2 SLP073 T01220117,PAAK,2023-07-07T21:56:00Z,52.22,-174.2,12.2,11.7,100,5,,10.0,29.749016,1007.3,,TRUE,TRUE,,,,,,,CLR,,,,,,,,VFR,,,,,,,,,,,,METAR,11.0
KYKN 072156Z AUTO 08012G16KT 10SM BKN009 OVC015 16/14 A2997 RMK AO2 RAE10 CIG 007V012 SLP161 P0000 T01610144,KYKN,2023-07-07T21:56:00Z,42.92,-97.37,16.1,14.4,80,12,16,10.0,29.970472,1016.1,,TRUE,TRUE,,,,,,,BKN,900,OVC,1500,,,,,IFR,,,,,,0.005,,,,,,METAR,388.0
KY50 072156Z AUTO VRB03KT 10SM CLR 24/07 A2995 RMK AO2 SLP138 T02440072 $,KY50,2023-07-07T21:56:00Z,44.03,-89.3,24.4,7.2,0,3,,10.0,29.949802,1013.8,,TRUE,TRUE,TRUE,,,,,,CLR,,,,,,,,VFR,,,,,,,,,,,,METAR,261.0
KWWD 072156Z AUTO 14007KT 10SM FEW012 A2983 RMK AO2 SLPNO FZRANO $,KWWD,2023-07-07T21:56:00Z,39.02,-74.92,,,140,7,,10.0,29.828741,,,TRUE,TRUE,TRUE,,,TRUE,,,FEW,1200,,,,,,,VFR,,,,,,,,,,,,METAR,4.0
KWVL 072156Z AUTO 26006KT 10SM CLR 26/18 A2986 RMK AO2 LTG DSNT W-N PRESRR SLP134 T02610178,KWVL,2023-07-07T21:56:00Z,44.52,-69.67,26.1,17.8,260,6,,10.0,29.861221,1013.4,,TRUE,TRUE,,,,,,,CLR,,,,,,,,VFR,,,,,,,,,,,,METAR,87.0
KWMC 072156Z AUTO 32007KT 10SM CLR 34/01 A2985 RMK AO2 SLP055 T03390006,KWMC,2023-07-07T21:56:00Z,40.9,-117.8,33.9,0.6,320,7,,10.0,29.84941,1005.5,,TRUE,TRUE,,,,,,,CLR,,,,,,,,VFR,,,,,,,,,,,,METAR,1311.0
KWJF 072156Z 25020G28KT 10SM CLR 33/05 A2980 RMK AO2 PK WND 25029/2105 SLP069 T03330050,KWJF,2023-07-07T21:56:00Z,34.73,-118.22,33.3,5.0,250,20,28,10.0,29.799213,1006.9,,,TRUE,,,,,,,CLR,,,,,,,,VFR,,,,,,,,,,,,METAR,712.0
KVPZ 072156Z AUTO 18007KT 10SM CLR 27/15 A2992 RMK AO2 SLP128 T02720150,KVPZ,2023-07-07T21:56:00Z,41.45,-87.0,27.2,15.0,180,7,,10.0,29.920275,1012.8,,TRUE,TRUE,,,,,,,CLR,,,,,,,,VFR,,,,,,,,,,,,METAR,235.0
KVPS 072156Z 33019G29KT 1/4SM +TSRA FEW013CB FEW034 BKN045 27/23 A2990 RMK VIS 1 1/4 RWY12 SLP131 P0002 T02730229 $,KVPS,2023-07-07T21:56:00Z,30.47,-86.52,27.3,22.9,330,19,29,0.25,29.899607,1013.1,,,,TRUE,,,,,+TSRA,FEW,1300,FEW,3400,BKN,4500,,,LIFR,,,,,,0.02,,,,,,METAR,21.0
KVIS 072156Z AUTO VRB03KT 10SM CLR 32/09 A2980 RMK AO2 SLP094 T03170094,KVIS,2023-07-07T21:56:00Z,36.32,-119.4,31.7,9.4,0,3,,10.0,29.799213,1009.4,,TRUE,TRUE,,,,,,,CLR,,,,,,,,VFR,,,,,,,,,,,,METAR,92.0
KVBT 072156Z AUTO 20010G15KT 10SM CLR 28/21 A2992 RMK AO2 SLP121 T02830211,KVBT,2023-07-07T21:56:00Z,36.35,-94.22,28.3,21.1,200,10,15,10.0,29.920275,1012.1,,TRUE,TRUE,,,,,,,CLR,,,,,,,,VFR,,,,,,,,,,,,METAR,390.0
KUKI 072156Z AUTO 36013G20KT 10SM CLR 31/03 A2982 RMK AO2 SLP091 T03110033,KUKI,2023-07-07T21:56:00Z,39.12,-123.2,31.1,3.3,360,13,20,10.0,29.819881,1009.1,,TRUE,TRUE,,,,,,,CLR,,,,,,,,VFR,,,,,,,,,,,,SPECI,183.0
KUDG 072156Z AUTO 06009KT 10SM BKN034 27/24 A2984 RMK AO2 LTG DSNT NE-S TSE26RAE44 SLP104 P0000 T02720244,KUDG,2023-07-07T21:56:00Z,34.45,-79.88,27.2,24.4,60,9,,10.0,29.840551,1010.4,,TRUE,TRUE,,,,,,,BKN,3400,,,,,,,VFR,,,,,,0.005,,,,,,METAR,57.0
KUCP 072156Z AUTO 02010KT 10SM BKN047 26/16 A2994 RMK AO2 SLP147 T02610161 $,KUCP,2023-07-07T21:56:00Z,41.03,-80.42,26.1,16.1,20,10,,10.0,29.940945,1014.7,,TRUE,TRUE,TRUE,,,,,,BKN,4700,,,,,,,VFR,,,,,,,,,,,,METAR,313.0
KTVF 072156Z AUTO 34013G21KT 10SM CLR 22/09 A2993 RMK AO2 SLP136 T02220094,KTVF,2023-07-07T21:56:00Z,48.07,-96.17,22.2,9.4,340,13,21,10.0,29.929134,1013.6,,TRUE,TRUE,,,,,,,CLR,,,,,,,,VFR,,,,,,,,,,,,METAR,339.0
KTPH 072156Z AUTO VRB05G20KT 10SM CLR 32/M03 A2992 RMK AO2 SLP045 T03171033,KTPH,2023-07-07T21:56:00Z,38.05,-117.08,31.7,-3.3,0,5,20,10.0,29.920275,1004.5,,TRUE,TRUE,,,,,,,CLR,,,,,,,,VFR,,,,,,,,,,,,METAR,1647.0
KSXT 072156Z AUTO VRB04KT 10SM CLR 24/08 A2997 RMK AO2 SLP101 T02440083,KSXT,2023-07-07T21:56:00Z,42.6,-123.37,24.4,8.3,0,4,,10.0,29.970472,1010.1,,TRUE,TRUE,,,,,,,CLR,,,,,,,,VFR,,,,,,,,,,,,SPECI,1151.0
KSUE 072156Z AUTO 20008KT 10SM CLR 21/11 A2997 RMK AO2 SLP146 T02110106 PNO $,KSUE,2023-07-07T21:56:00Z,44.85,-87.42,21.1,10.6,200,8,,10.0,29.970472,1014.6,,TRUE,TRUE,TRUE,,,,,,CLR,,,,,,,,VFR,,,,,,,,,,,,METAR,215.0
KSRC 072156Z AUTO VRB04KT 10SM SCT035 BKN045 31/24 A2990 RMK AO2 SLP123 T03110239,KSRC,2023-07-07T21:56:00Z,35.22,-91.73,31.1,23.9,0,4,,10.0,29.899607,1012.3,,TRUE,TRUE,,,,,,,SCT,3500,BKN,4500,,,,,VFR,,,,,,,,,,,,METAR,80.0
KSQI 072156Z AUTO 27011KT 10SM -RA FEW021 BKN095 22/14 A2998 RMK AO2 RAB43 SLP014 P0000 T02220139,KSQI,2023-07-07T21:56:00Z,41.75,-89.67,22.2,13.9,270,11,,10.0,29.97933,1001.4,,TRUE,TRUE,,,,,,-RA,FEW,2100,BKN,9500,,,,,VFR,,,,,,0.005,,,,,,METAR,196.0
KSPD 072156Z AUTO 25/18 A2999 RMK AO1 SLP092 T02500178,KSPD,2023-07-07T21:56:00Z,37.28,-102.62,25.0,17.8,,,,,29.991142,1009.2,,TRUE,TRUE,,,,,,,,,,,,,,,,,,,,,,,,,,,METAR,1340.0
KSOP 072156Z AUTO 00000KT 10SM FEW050 SCT070 28/22 A2984 RMK AO2 LTG DSNT NE AND S AND W TSE02B08E23 SLP103 T02830222,KSOP,2023-07-07T21:56:00Z,35.23,-79.4,28.3,22.2,0,0,,10.0,29.840551,1010.3,,TRUE,TRUE,,,,,,,FEW,5000,SCT,7000,,,,,VFR,,,,,,,,,,,,METAR,135.0
KSMP 072156Z AUTO VRB06KT 10SM BKN100 22/12 A29 REQ SEAMTRSMP,KSMP,2023-07-07T21:56:00Z,47.28,-121.33,22.0,12.0,0,6,,10.0,,,,TRUE,,,,,,,,BKN,10000,,,,,,,VFR,,,,,,,,,,,,SPECI,1206.0
KSMN 072156Z AUTO 32004KT 10SM CLR 28/07 A2991 RMK AO2 SLP822 T02830067,KSMN,2023-07-07T21:56:00Z,45.12,-113.87,28.3,6.7,320,4,,10.0,29.911417,982.2,,TRUE,TRUE,,,,,,,CLR,,,,,,,,VFR,,,,,,,,,,,,METAR,1228.0
KSLG 072156Z AUTO 20010KT 10SM FEW110 28/23 A2992 RMK AO2 SLP118 T02830228,KSLG,2023-07-07T21:56:00Z,36.2,-94.48,28.3,22.8,200,10,,10.0,29.920275,1011.8,,TRUE,TRUE,,,,,,,FEW,11000,,,,,,,VFR,,,,,,,,,,,,METAR,361.0
KSKX 072156Z AUTO 28021G29KT 10SM CLR 31/01 A3014 RMK AO2 PK WND 31039/2059 SLP118 T03060011,KSKX,2023-07-07T21:56:00Z,36.45,-105.67,30.6,1.1,280,21,29,10.0,30.138779,1011.8,,TRUE,TRUE,,,,,,,CLR,,,,,,,,VFR,,,,,,,,,,,,METAR,2163.0
KSHV 072156Z COR 21006KT 10SM FEW048 SCT180 SCT290 34/23 A2989 RMK SLPNO,KSHV,2023-07-07T21:56:00Z,32.45,-93.83,34.0,23.0,210,6,,10.0,29.890747,,TRUE,,,,,,,,,FEW,4800,SCT,18000,SCT,29000,,,VFR,,,,,,,,,,,,METAR,70.0
KSGU 072156Z AUTO 24017G23KT 10SM CLR 38/M11 A2976 RMK AO2 SLP033 T03831106,KSGU,2023-07-07T21:56:00Z,37.03,-113.52,38.3,-10.6,240,17,23,10.0,29.760826,1003.3,,TRUE,TRUE,,,,,,,CLR,,,,,,,,VFR,,,,,,,,,,,,METAR,877.0
KSGT 072156Z AUTO 24008KT 10SM FEW038 BKN050 31/24 A2990 RMK AO2 SLPNO T03110244,KSGT,2023-07-07T21:56:00Z,34.6,-91.57,31.1,24.4,240,8,,10.0,29.899607,,,TRUE,TRUE,,,,,,,FEW,3800,BKN,5000,,,,,VFR,,,,,,,,,,,,METAR,67.0
KSGH 072156Z AUTO 00000KT 10SM CLR 28/15 A2993 RMK AO2 SLP130 T02830150,KSGH,2023-07-07T21:56:00Z,39.83,-83.83,28.3,15.0,0,0,,10.0,29.929134,1013.0,,TRUE,TRUE,,,,,,,CLR,,,,,,,,VFR,,,,,,,,,,,,METAR,318.0
KSFZ 072156Z AUTO VRB05KT FEW022 27/23 A2987 RMK AO2 SLP110 T02670228 PWINO $,KSFZ,2023-07-07T21:56:00Z,41.92,-71.5,26.7,22.8,0,5,,,29.870079,1011.0,,TRUE,TRUE,TRUE,,,,TRUE,,FEW,2200,,,,,,,,,,,,,,,,,,,METAR,129.0
KSFO 072156Z 26018KT 10SM FEW008 BKN013 17/11 A2993 RMK AO2 PK WND 28029/2122 SLP136 T01670106,KSFO,2023-07-07T21:56:00Z,37.62,-122.37,16.7,10.6,260,18,,10.0,29.929134,1013.6,,,TRUE,,,,,,,FEW,800,BKN,1300,,,,,MVFR,,,,,,,,,,,,METAR,2.0
KSFM 072156Z AUTO VRB04KT 10SM CLR 26/21 A2984 RMK AO2 SLP105 T02610211,KSFM,2023-07-07T21:56:00Z,43.38,-70.72,26.1,21.1,0,4,,10.0,29.840551,1010.5,,TRUE,TRUE,,,,,,,CLR,,,,,,,,VFR,,,,,,,,,,,,METAR,70.0
KSDY 072156Z AUTO 06008KT 10SM SCT085 24/07 A3004 RMK AO2 SLP172 T02440067,KSDY,2023-07-07T21:56:00Z,47.7,-104.2,24.4,6.7,60,8,,10.0,30.041338,1017.2,,TRUE,TRUE,,,,,,,SCT,8500,,,,,,,VFR,,,,,,,,,,,,METAR,600.0
KSDF 072156Z 33006KT 10SM FEW065 FEW300 32/14 A2990 RMK AO2 SLP120 T03220144 $,KSDF,2023-07-07T21:56:00Z,38.18,-85.73,32.2,14.4,330,6,,10.0,29.899607,1012.0,,,TRUE,TRUE,,,,,,FEW,6500,FEW,30000,,,,,VFR,,,,,,,,,,,,METAR,146.0
KSBP 072156Z 31013KT 10SM CLR 23/12 A2988 RMK AO2 SLP115 T02280122,KSBP,2023-07-07T21:56:00Z,35.23,-120.63,22.8,12.2,310,13,,10.0,29.878937,1011.5,,,TRUE,,,,,,,CLR,,,,,,,,VFR,,,,,,,,,,,,METAR,52.0
KRUT 072156Z AUTO 00000KT 9SM VCTS -RA FEW028 BKN050 OVC070 21/21 A2992 RMK AO2 LTG DSNT SE AND S SLP122 P0020 T02060206 $,KRUT,2023-07-07T21:56:00Z,43.53,-72.95,20.6,20.6,0,0,,9.0,29.920275,1012.2,,TRUE,TRUE,TRUE,,,,,VCTS -RA,FEW,2800,BKN,5000,OVC,7000,,,VFR,,,,,,0.2,,,,,,METAR,238.0
KRKD 072156Z AUTO 19005KT 10SM CLR 23/20 A2988 RMK AO2 SLP118 T02330200,KRKD,2023-07-07T21:56:00Z,44.07,-69.1,23.3,20.0,190,5,,10.0,29.878937,1011.8,,TRUE,TRUE,,,,,,,CLR,,,,,,,,VFR,,,,,,,,,,,,METAR,15.0
KRDM 072156Z 33008G16KT 270V010 10SM CLR 33/05 A2984 RMK AO2 SLP075 T03280050,KRDM,2023-07-07T21:56:00Z,44.25,-121.15,32.8,5.0,330,8,16,10.0,29.840551,1007.5,,,TRUE,,,,,,,CLR,,,,,,,,VFR,,,,,,,,,,,,METAR,930.0
KQOA 072156Z COR 19010G20KT 2400 +TSRA BR FEW015 BKN050CB OVC075 22/22 A2989 RMK OCNL LTGICCCCG RAB2053 TSB2054 SLP090 P0019 COR 2157,KQOA,2023-07-07T21:56:00Z,,,22.0,22.0,190,10,20,1.49,29.890747,1009.0,TRUE,,,,,,,,+TSRA BR,FEW,1500,BKN,5000,OVC,7500,,,IFR,,,,,,0.19,,,,,,METAR,
KPWT 072156Z AUTO 20008G16KT 10SM CLR 23/13 A2989 RMK AO2 SLP126 T02280133,KPWT,2023-07-07T21:56:00Z,47.5,-122.77,22.8,13.3,200,8,16,10.0,29.890747,1012.6,,TRUE,TRUE,,,,,,,CLR,,,,,,,,VFR,,,,,,,,,,,,METAR,143.0
KPWG 072156Z AUTO 13011KT 10SM FEW050 34/22 A2989 RMK AO2 SLP114 T03440217,KPWG,2023-07-07T21:56:00Z,31.48,-97.32,34.4,21.7,130,11,,10.0,29.890747,1011.4,,TRUE,TRUE,,,,,,,FEW,5000,,,,,,,VFR,,,,,,,,,,,,METAR,178.0
KPVU 072156Z VRB05KT 10SM CLR 33/01 A2987 RMK AO2 SLP051 T03280006,KPVU,2023-07-07T21:56:00Z,40.22,-111.72,32.8,0.6,0,5,,10.0,29.870079,1005.1,,,TRUE,,,,,,,CLR,,,,,,,,VFR,,,,,,,,,,,,METAR,1370.0
KPVG 072156Z AUTO 10SM -RA FEW047 27/26 A2982 RMK AO2 LTG DSNT S RAB50 SLP100 P0000 T02720256 $,KPVG,2023-07-07T21:56:00Z,36.78,-76.45,27.2,25.6,,,,10.0,29.819881,1010.0,,TRUE,TRUE,TRUE,,,,,-RA,FEW,4700,,,,,,,VFR,,,,,,0.005,,,,,,METAR,7.0
KPVC 072156Z AUTO 18012G16KT 10SM CLR 23/22 A2986 RMK AO2 SLP112 T02330217,KPVC,2023-07-07T21:56:00Z,42.07,-70.22,23.3,21.7,180,12,16,10.0,29.861221,1011.2,,TRUE,TRUE,,,,,,,CLR,,,,,,,,VFR,,,,,,,,,,,,METAR,1.0
KPTV 072156Z AUTO 30007KT 10SM CLR 32/10 A2981 RMK AO2 SLP090 T03220100,KPTV,2023-07-07T21:56:00Z,36.02,-119.07,32.2,10.0,300,7,,10.0,29.811024,1009.0,,TRUE,TRUE,,,,,,,CLR,,,,,,,,VFR,,,,,,,,,,,,METAR,132.0
KPTN 072156Z AUTO 20005KT 10SM CLR 31/26 A2996 RMK AO2 SLP146 T03060256 PNO $,KPTN,2023-07-07T21:56:00Z,29.72,-91.33,30.6,25.6,200,5,,10.0,29.958662,1014.6,,TRUE,TRUE,TRUE,,,,,,CLR,,,,,,,,VFR,,,,,,,,,,,,METAR,2.0
KPRX 072156Z AUTO 20010KT 8SM CLR 33/24 A2989 RMK AO2 SLP117 T03280239 PNO $,KPRX,2023-07-07T21:56:00Z,33.63,-95.45,32.8,23.9,200,10,,8.0,29.890747,1011.7,,TRUE,TRUE,TRUE,,,,,,CLR,,,,,,,,VFR,,,,,,,,,,,,METAR,165.0
KPQI 072156Z AUTO 04006KT 10SM FEW055 BKN110 22/21 A2982 RMK AO2 WSHFT 2103 LTG DSNT SE AND S TSE56RAB2058E40 PRESFR SLP121 P0013 T02170206,KPQI,2023-07-07T21:56:00Z,46.68,-68.05,21.7,20.6,40,6,,10.0,29.819881,1012.1,,TRUE,TRUE,,,,,,,FEW,5500,BKN,11000,,,,,VFR,,,,,,0.13,,,,,,METAR,154.0
KPIB 072156Z AUTO VRB05KT 10SM SCT045 32/23 A2993 RMK AO2 SLP133 T03220233 $,KPIB,2023-07-07T21:56:00Z,31.47,-89.33,32.2,23.3,0,5,,10.0,29.929134,1013.3,,TRUE,TRUE,TRUE,,,,,,SCT,4500,,,,,,,VFR,,,,,,,,,,,,METAR,91.0
KP60 072156Z AUTO VRB05KT 18/02 A3019 RMK AO1 SLP163 T01830017,KP60,2023-07-07T21:56:00Z,44.55,-110.42,18.3,1.7,0,5,,,30.188976,1016.3,,TRUE,TRUE,,,,,,,,,,,,,,,,,,,,,,,,,,,METAR,2377.0
KP53 072156Z AUTO 22007KT 24/09 A2990 RMK AO1 SLP125 T02440094,KP53,2023-07-07T21:56:00Z,46.42,-86.65,24.4,9.4,220,7,,,29.899607,1012.5,,TRUE,TRUE,,,,,,,,,,,,,,,,,,,,,,,,,,,METAR,185.0
KP28 072156Z AUTO 06012KT 23/21 A2991 RMK AO1 SLP116 T02330206 $,KP28,2023-07-07T21:56:00Z,37.28,-98.55,23.3,20.6,60,12,,,29.911417,1011.6,,TRUE,TRUE,TRUE,,,,,,,,,,,,,,,,,,,,,,,,,,METAR,469.0
KOWB 072156Z 27005KT 10SM CLR 30/19 A2992 RMK AO2 SLP127 T03000194,KOWB,2023-07-07T21:56:00Z,37.72,-87.17,30.0,19.4,270,5,,10.0,29.920275,1012.7,,,TRUE,,,,,,,CLR,,,,,,,,VFR,,,,,,,,,,,,METAR,121.0
KOTH 072156Z 30011KT 10SM BKN027 17/11 A3000 RMK AO2 SLP157 T01720111,KOTH,2023-07-07T21:56:00Z,43.42,-124.25,17.2,11.1,300,11,,10.0,30.0,1015.7,,,TRUE,,,,,,,BKN,2700,,,,,,,MVFR,,,,,,,,,,,,METAR,3.0
KOTG 072156Z AUTO 15007KT 10SM SCT060 BKN075 BKN100 17/12 A2998 RMK AO2 RAE47 SLP155 P0000 T01670122,KOTG,2023-07-07T21:56:00Z,43.65,-95.57,16.7,12.2,150,7,,10.0,29.97933,1015.5,,TRUE,TRUE,,,,,,,SCT,6000,BKN,7500,BKN,10000,,,VFR,,,,,,0.005,,,,,,METAR,478.0
KOLU 072156Z AUTO 05006KT 10SM OVC009 20/20 A2992 RMK AO2 SLP128 T02000200,KOLU,2023-07-07T21:56:00Z,41.45,-97.33,20.0,20.0,50,6,,10.0,29.920275,1012.8,,TRUE,TRUE,,,,,,,OVC,900,,,,,,,IFR,,,,,,,,,,,,METAR,438.0
KOKK 072156Z AUTO 26005KT 10SM CLR 29/14 A2994 RMK AO2 SLP134 T02890144 PNO $,KOKK,2023-07-07T21:56:00Z,40.53,-86.07,28.9,14.4,260,5,,10.0,29.940945,1013.4,,TRUE,TRUE,TRUE,,,,,,CLR,,,,,,,,VFR,,,,,,,,,,,,METAR,251.0
KOFK 072156Z AUTO 03005KT 10SM SCT010 OVC020 19/16 A2993 RMK AO2 SLP129 T01940161,KOFK,2023-07-07T21:56:00Z,41.98,-97.43,19.4,16.1,30,5,,10.0,29.929134,1012.9,,TRUE,TRUE,,,,,,,SCT,1000,OVC,2000,,,,,MVFR,,,,,,,,,,,,METAR,476.0
KOCH 072156Z AUTO 22008KT 10SM CLR 33/22 A2992 RMK AO2 SLP132 T03330222,KOCH,2023-07-07T21:56:00Z,31.57,-94.72,33.3,22.2,220,8,,10.0,29.920275,1013.2,,TRUE,TRUE,,,,,,,CLR,,,,,,,,VFR,,,,,,,,,,,,METAR,105.0
KOAJ 072156Z 18007KT 10SM CLR 32/25 A2980 RMK AO2 SLP093 T03170250,KOAJ,2023-07-07T21:56:00Z,34.82,-77.62,31.7,25.0,180,7,,10.0,29.799213,1009.3,,,TRUE,,,,,,,CLR,,,,,,,,VFR,,,,,,,,,,,,METAR,26.0
KNYG 072156Z 16005KT 7SM SCT030 SCT080 BKN120 28/24 A2982 RMK AO2 RAE2057 SLP099 P0000 T02830239 $,KNYG,2023-07-07T21:56:00Z,38.5,-77.3,28.3,23.9,160,5,,7.0,29.819881,1009.9,,,TRUE,TRUE,,,,,,SCT,3000,SCT,8000,BKN,12000,,,VFR,,,,,,0.005,,,,,,METAR,2.0
KNXP 072156Z AUTO VRB05KT 10SM CLR 38/M03 A2981 RMK AO2 SLP052 T03781028,KNXP,2023-07-07T21:56:00Z,34.28,-116.13,37.8,-2.8,0,5,,10.0,29.811024,1005.2,,TRUE,TRUE,,,,,,,CLR,,,,,,,,VFR,,,,,,,,,,,,SPECI,610.0
KNXF 072156Z AUTO 26008KT 10SM CLR 22/ A2985 RMK AO2 SLP191 T0217 $,KNXF,2023-07-07T21:56:00Z,33.28,-117.45,21.7,,260,8,,10.0,29.84941,1019.1,,TRUE,TRUE,TRUE,,,,,,CLR,,,,,,,,VFR,,,,,,,,,,,,METAR,28.0
KNUC 072156Z 30007KT 10SM BKN015 19/12 A2988 RMK SLP117 T01890122,KNUC,2023-07-07T21:56:00Z,33.02,-118.57,18.9,12.2,300,7,,10.0,29.878937,1011.7,,,,,,,,,,BKN,1500,,,,,,,MVFR,,,,,,,,,,,,METAR,52.0
KNTU 072156Z 01007KT 10SM SCT030 BKN300 27/24 A2981 RMK AO2 SLP098 T2 SET T02720244 $,KNTU,2023-07-07T21:56:00Z,36.82,-76.02,27.2,24.4,10,7,,10.0,29.811024,1009.8,,,TRUE,TRUE,,,,,,SCT,3000,BKN,30000,,,,,VFR,,,,,,,,,,,,METAR,6.0
KNSE 072156Z 27010G19KT 10SM TS SCT046CB SCT070 BKN130 BKN250 27/23 A2992 RMK AO2 SLP116 TSB07 OCNL LTGICCG VC SE-S TS SE-S MOV SE T1 SET T02670233 $,KNSE,2023-07-07T21:56:00Z,30.73,-87.02,26.7,23.3,270,10,19,10.0,29.920275,1011.6,,,TRUE,TRUE,,,,,TS,SCT,4600,SCT,7000,BKN,13000,BKN,25000,VFR,,,,,,,,,,,,METAR,56.0
KNQI 072156Z 21011KT 10SM -RA SCT020 BKN035 OVC100 26/24 A2992 RMK AO2 PK WND 19035/2117 WSHFT 2107 RAB29 TSB31E56 SLP127 TS MOV NW T1 SET P0001 T02560239 $,KNQI,2023-07-07T21:56:00Z,27.5,-97.82,25.6,23.9,210,11,,10.0,29.920275,1012.7,,,TRUE,TRUE,,,,,-RA,SCT,2000,BKN,3500,OVC,10000,,,VFR,,,,,,0.01,,,,,,SPECI,15.0
KNPA 072156Z 34008G14KT 10SM BKN042 BKN160 BKN250 30/23 A2992 RMK AO2 SLP133 FRQ LTGIC DSNT NE CB DSNT NE T2 SET T03000228,KNPA,2023-07-07T21:56:00Z,30.35,-87.32,30.0,22.8,340,8,14,10.0,29.920275,1013.3,,,TRUE,,,,,,,BKN,4200,BKN,16000,BKN,25000,,,VFR,,,,,,,,,,,,METAR,6.0
KNMM 072156Z 14003KT 10SM FEW020 SCT040 SCT060 BKN130 24/23 A2993 RMK AO2 RAE14 TSE14 SLP142 T2 SET P0000 T02440233 $,KNMM,2023-07-07T21:56:00Z,32.53,-88.53,24.4,23.3,140,3,,10.0,29.929134,1014.2,,,TRUE,TRUE,,,,,,FEW,2000,SCT,4000,SCT,6000,BKN,13000,VFR,,,,,,0.005,,,,,,SPECI,94.0
KNLC 072156Z VRB06KT 10SM CLR 33/11 A2979 RMK AO2 SLP086 RH/24 T03330106,KNLC,2023-07-07T21:56:00Z,36.32,-119.95,33.3,10.6,0,6,,10.0,29.790354,1008.6,,,TRUE,,,,,,,CLR,,,,,,,,VFR,,,,,,,,,,,,METAR,69.0
KNKT 072156Z 19006KT 10SM CLR 31/26 A2981 RMK AO2 SLP091 T03110256,KNKT,2023-07-07T21:56:00Z,34.9,-76.88,31.1,25.6,190,6,,10.0,29.811024,1009.1,,,TRUE,,,,,,,CLR,,,,,,,,VFR,,,,,,,,,,,,METAR,8.0
KNJK 072156Z 24008G17KT 10SM CLR 43/M05 A2963 RMK AO2 SLP049 T04281050 $,KNJK,2023-07-07T21:56:00Z,32.82,-115.67,42.8,-5.0,240,8,17,10.0,29.630905,1004.9,,,TRUE,TRUE,,,,,,CLR,,,,,,,,VFR,,,,,,,,,,,,SPECI,-15.0
KNID 072156Z AUTO 00000KT 10SM FEW110 37/02 A2972 RMK AO2 SLP040 T03720017 $,KNID,2023-07-07T21:56:00Z,35.68,-117.68,37.2,1.7,0,0,,10.0,29.719488,1004.0,,TRUE,TRUE,TRUE,,,,,,FEW,11000,,,,,,,VFR,,,,,,,,,,,,SPECI,682.0
KNGP 072156Z 13013KT 10SM FEW025 SCT110 BKN250 33/25 A2990 RMK AO2 SLP124 T03330250,KNGP,2023-07-07T21:56:00Z,27.68,-97.28,33.3,25.0,130,13,,10.0,29.899607,1012.4,,,TRUE,,,,,,,FEW,2500,SCT,11000,BKN,25000,,,VFR,,,,,,,,,,,,SPECI,5.0
KNFL 072156Z COR 27003KT 10SM SCT070 SCT120 33/06 A2982 RMK AO2 SLP075 T03330061,KNFL,2023-07-07T21:56:00Z,39.42,-118.7,33.3,6.1,270,3,,10.0,29.819881,1007.5,TRUE,,TRUE,,,,,,,SCT,7000,SCT,12000,,,,,VFR,,,,,,,,,,,,SPECI,1199.0
KNDZ 072156Z 26005KT 10SM TS FEW033 BKN040CB OVC060 26/23 A2992 RMK AO2 SLP116 TSB15 OCNL LTGICCG VC S TS S MOV SE T1 SET P0000 T02610228 $,KNDZ,2023-07-07T21:56:00Z,30.7,-87.02,26.1,22.8,260,5,,10.0,29.920275,1011.6,,,TRUE,TRUE,,,,,TS,FEW,3300,BKN,4000,OVC,6000,,,VFR,,,,,,0.005,,,,,,SPECI,51.0
KNCA 072156Z 19006KT 10SM FEW050 30/24 A2979 RMK AO2 SLP091 T03000239,KNCA,2023-07-07T21:56:00Z,34.72,-77.45,30.0,23.9,190,6,,10.0,29.790354,1009.1,,,TRUE,,,,,,,FEW,5000,,,,,,,VFR,,,,,,,,,,,,METAR,9.0
KNBC 072156Z 16007KT 10SM CLR 33/26 A2980 RMK AO2 SLP092 T03330256,KNBC,2023-07-07T21:56:00Z,32.47,-80.72,33.3,25.6,160,7,,10.0,29.799213,1009.2,,,TRUE,,,,,,,CLR,,,,,,,,VFR,,,,,,,,,,,,SPECI,9.0
KMYR 072156Z 19010KT 10SM CLR 29/27 A2981 RMK AO2 LTG DSNT W AND NW SLP093 T02940272,KMYR,2023-07-07T21:56:00Z,33.68,-78.92,29.4,27.2,190,10,,10.0,29.811024,1009.3,,,TRUE,,,,,,,CLR,,,,,,,,VFR,,,,,,,,,,,,METAR,7.0
KMVN 072156Z AUTO 00000KT 10SM CLR 31/17 A2993 RMK AO2 SLP134 T03110172,KMVN,2023-07-07T21:56:00Z,38.32,-88.87,31.1,17.2,0,0,,10.0,29.929134,1013.4,,TRUE,TRUE,,,,,,,CLR,,,,,,,,VFR,,,,,,,,,,,,METAR,145.0
KMTW 072156Z AUTO 12008KT 10SM CLR 20/13 A2997 RMK AO2 SLP150 T02000133,KMTW,2023-07-07T21:56:00Z,44.12,-87.67,20.0,13.3,120,8,,10.0,29.970472,1015.0,,TRUE,TRUE,,,,,,,CLR,,,,,,,,VFR,,,,,,,,,,,,METAR,197.0
KMTC 072156Z 11005KT 10SM SCT065 25/13 A2991 RMK AO2A SLP131 T02490128 $,KMTC,2023-07-07T21:56:00Z,42.62,-82.83,24.9,12.8,110,5,,10.0,29.911417,1013.1,,,TRUE,TRUE,,,,,,SCT,6500,,,,,,,VFR,,,,,,,,,,,,SPECI,177.0
KMRF 072156Z AUTO 13007KT 10SM CLR 33/11 A3004 RMK AO2 LTG DSNT N SLP096 T03330106,KMRF,2023-07-07T21:56:00Z,30.37,-104.02,33.3,10.6,130,7,,10.0,30.041338,1009.6,,TRUE,TRUE,,,,,,,CLR,,,,,,,,VFR,,,,,,,,,,,,METAR,1476.0
KMQY 072156Z 35004KT 10SM SCT065 32/21 A2992 RMK AO2 SLP133 T03220206,KMQY,2023-07-07T21:56:00Z,36.02,-86.52,32.2,20.6,350,4,,10.0,29.920275,1013.3,,,TRUE,,,,,,,SCT,6500,,,,,,,VFR,,,,,,,,,,,,METAR,156.0
KMOB 072156Z 27003KT 10SM VCTS SCT070 BKN095 BKN120 32/23 A2992 RMK AO2 LTG DSNT E SLP127 CB DSNT E T03170228,KMOB,2023-07-07T21:56:00Z,30.68,-88.25,31.7,22.8,270,3,,10.0,29.920275,1012.7,,,TRUE,,,,,,VCTS,SCT,7000,BKN,9500,BKN,12000,,,VFR,,,,,,,,,,,,METAR,67.0
KMML 072156Z AUTO 22010KT 10SM FEW025 19/13 A2998 RMK AO2 SLP152 T01940133 $,KMML,2023-07-07T21:56:00Z,44.45,-95.82,19.4,13.3,220,10,,10.0,29.97933,1015.2,,TRUE,TRUE,TRUE,,,,,,FEW,2500,,,,,,,VFR,,,,,,,,,,,,METAR,358.0
KMKY 072156Z AUTO 30008KT 10SM SCT032 BKN039 32/24 A2997 RMK AO2 SLP147 T03220239 TSNO PNO $,KMKY,2023-07-07T21:56:00Z,26.0,-81.67,32.2,23.9,300,8,,10.0,29.970472,1014.7,,TRUE,TRUE,TRUE,,TRUE,,,,SCT,3200,BKN,3900,,,,,VFR,,,,,,,,,,,,METAR,2.0
KMKT 072156Z AUTO 23007KT 10SM -RA SCT095 19/13 A2998 RMK AO2 RAB48 SLP152 P0000 T01890128,KMKT,2023-07-07T21:56:00Z,44.22,-93.92,18.9,12.8,230,7,,10.0,29.97933,1015.2,,TRUE,TRUE,,,,,,-RA,SCT,9500,,,,,,,VFR,,,,,,0.005,,,,,,METAR,309.0
KMHS 072156Z AUTO VRB04KT 10SM CLR 31/12 A2987 RMK AO2 SLP096 T03110122,KMHS,2023-07-07T21:56:00Z,41.32,-122.32,31.1,12.2,0,4,,10.0,29.870079,1009.6,,TRUE,TRUE,,,,,,,CLR,,,,,,,,VFR,,,,,,,,,,,,SPECI,1080.0
KMEH 072156Z AUTO VRB05KT 10SM CLR 31/04 A2989 RMK AO2 SLP095 T03060039,KMEH,2023-07-07T21:56:00Z,45.52,-118.42,30.6,3.9,0,5,,10.0,29.890747,1009.5,,TRUE,TRUE,,,,,,,CLR,,,,,,,,VFR,,,,,,,,,,,,SPECI,1138.0
KMBL 072156Z AUTO VRB04KT 10SM CLR 23/10 A2996 RMK AO2 SLP146 T02330100,KMBL,2023-07-07T21:56:00Z,44.27,-86.25,23.3,10.0,0,4,,10.0,29.958662,1014.6,,TRUE,TRUE,,,,,,,CLR,,,,,,,,VFR,,,,,,,,,,,,METAR,187.0
KM19 072156Z AUTO 15009KT 10SM CLR 30/23 A2990 RMK AO2 SLP120 T03000228 PNO $,KM19,2023-07-07T21:56:00Z,35.65,-91.17,30.0,22.8,150,9,,10.0,29.899607,1012.0,,TRUE,TRUE,TRUE,,,,,,CLR,,,,,,,,VFR,,,,,,,,,,,,METAR,72.0
KLZU 072156Z 21006KT 10SM CLR 27/23 A2990 RMK AO2 LTG DSNT ALQDS TSE34 SLPNO T02670228,KLZU,2023-07-07T21:56:00Z,33.98,-83.97,26.7,22.8,210,6,,10.0,29.899607,,,,TRUE,,,,,,,CLR,,,,,,,,VFR,,,,,,,,,,,,METAR,316.0
KLWS 072156Z 36008KT 10SM CLR 37/06 A2975 RMK AO2 SLP061 T03670056,KLWS,2023-07-07T21:56:00Z,46.37,-117.02,36.7,5.6,360,8,,10.0,29.749016,1006.1,,,TRUE,,,,,,,CLR,,,,,,,,VFR,,,,,,,,,,,,METAR,435.0
KLSF 072156Z AUTO 36005KT 10SM CLR 25/22 A2985 RMK AO2 LTG DSNT S AND W RAE55 SLP111 $,KLSF,2023-07-07T21:56:00Z,32.32,-84.97,25.0,22.0,360,5,,10.0,29.84941,1011.1,,TRUE,TRUE,TRUE,,,,,,CLR,,,,,,,,VFR,,,,,,,,,,,,METAR,68.0
KLRD 072156Z 12017G22KT 10SM SCT075 BKN120 38/19 A2982 RMK AO2 SLP093 T03830194,KLRD,2023-07-07T21:56:00Z,27.55,-99.47,38.3,19.4,120,17,22,10.0,29.819881,1009.3,,,TRUE,,,,,,,SCT,7500,BKN,12000,,,,,VFR,,,,,,,,,,,,METAR,150.0
KLNR 072156Z AUTO 23004KT 10SM FEW110 24/09 A2994 RMK AO2 SLP132 T02390094,KLNR,2023-07-07T21:56:00Z,43.22,-90.18,23.9,9.4,230,4,,10.0,29.940945,1013.2,,TRUE,TRUE,,,,,,,FEW,11000,,,,,,,VFR,,,,,,,,,,,,METAR,218.0
KLGD 072156Z AUTO VRB04KT 10SM CLR 33/05 A2983 RMK AO2 SLP077 T03330050,KLGD,2023-07-07T21:56:00Z,45.28,-118.0,33.3,5.0,0,4,,10.0,29.828741,1007.7,,TRUE,TRUE,,,,,,,CLR,,,,,,,,VFR,,,,,,,,,,,,METAR,827.0
KLEW 072156Z AUTO 14007KT 10SM CLR 26/20 A2984 RMK AO2 SLP109 T02610200,KLEW,2023-07-07T21:56:00Z,44.03,-70.28,26.1,20.0,140,7,,10.0,29.840551,1010.9,,TRUE,TRUE,,,,,,,CLR,,,,,,,,VFR,,,,,,,,,,,,METAR,81.0
KLCI 072156Z AUTO 20006KT 10SM CLR 29/20 A2983 RMK AO2 LTG DSNT N SLP096 T02890200,KLCI,2023-07-07T21:56:00Z,43.57,-71.42,28.9,20.0,200,6,,10.0,29.828741,1009.6,,TRUE,TRUE,,,,,,,CLR,,,,,,,,VFR,,,,,,,,,,,,METAR,166.0
KLBT 072156Z AUTO 02012KT 10SM TS BKN050 BKN070 OVC110 30/23 A2981 RMK AO2 LTG DSNT ALQDS TSB25 SLP094 T03000233,KLBT,2023-07-07T21:56:00Z,34.6,-79.07,30.0,23.3,20,12,,10.0,29.811024,1009.4,,TRUE,TRUE,,,,,,TS,BKN,5000,BKN,7000,OVC,11000,,,VFR,,,,,,,,,,,,METAR,37.0
KLBL 072156Z AUTO 07006KT 10SM BKN037 OVC050 29/22 A2990 RMK AO2 SLP094 T02890222,KLBL,2023-07-07T21:56:00Z,37.03,-100.97,28.9,22.2,70,6,,10.0,29.899607,1009.4,,TRUE,TRUE,,,,,,,BKN,3700,OVC,5000,,,,,VFR,,,,,,,,,,,,METAR,877.0
KKLS 072156Z AUTO VRB05KT OVC029 21/12 A2994 RMK AO2 SLP141 T02060122 PWINO $,KKLS,2023-07-07T21:56:00Z,46.12,-122.9,20.6,12.2,0,5,,,29.940945,1014.1,,TRUE,TRUE,TRUE,,,,TRUE,,OVC,2900,,,,,,,,,,,,,,,,,,,METAR,4.0
KJYG 072156Z AUTO 21003KT 10SM -RA SCT014 SCT019 16/14 A2997 RMK AO2 TSNO,KJYG,2023-07-07T21:56:00Z,43.98,-94.55,16.0,14.0,210,3,,10.0,29.970472,,,TRUE,TRUE,,,TRUE,,,-RA,SCT,1400,SCT,1900,,,,,VFR,,,,,,,,,,,,METAR,323.0
KJXN 072156Z 00000KT 10SM FEW060 27/12 A2995 RMK AO2 SLP136 T02670122,KJXN,2023-07-07T21:56:00Z,42.27,-84.47,26.7,12.2,0,0,,10.0,29.949802,1013.6,,,TRUE,,,,,,,FEW,6000,,,,,,,VFR,,,,,,,,,,,,METAR,303.0
KJRB 072156Z AUTO 11007KT 10SM SCT019 27/21 A2984 RMK AO2 SLP102 T02670211,KJRB,2023-07-07T21:56:00Z,40.7,-74.02,26.7,21.1,110,7,,10.0,29.840551,1010.2,,TRUE,TRUE,,,,,,,SCT,1900,,,,,,,VFR,,,,,,,,,,,,METAR,2.0
KJMS 072156Z AUTO 02012G23KT 10SM FEW049 23/12 A2995 RMK AO2 SLP140 T02330117,KJMS,2023-07-07T21:56:00Z,46.93,-98.67,23.3,11.7,20,12,23,10.0,29.949802,1014.0,,TRUE,TRUE,,,,,,,FEW,4900,,,,,,,VFR,,,,,,,,,,,,METAR,455.0
KJHW 072156Z AUTO 33009KT 10SM CLR 23/14 A2997 RMK AO2 SLP145 T02280139,KJHW,2023-07-07T21:56:00Z,42.15,-79.27,22.8,13.9,330,9,,10.0,29.970472,1014.5,,TRUE,TRUE,,,,,,,CLR,,,,,,,,VFR,,,,,,,,,,,,METAR,520.0
KJAX 072156Z 19011G19KT 10SM TS FEW015 FEW040 BKN110 BKN250 29/24 A2985 RMK AO2 TSB52 SLP108 OCNL LTGIC DSNT SW TS DSNT SW MOV E T02890244 $,KJAX,2023-07-07T21:56:00Z,30.5,-81.68,28.9,24.4,190,11,19,10.0,29.84941,1010.8,,,TRUE,TRUE,,,,,TS,FEW,1500,FEW,4000,BKN,11000,BKN,25000,VFR,,,,,,,,,,,,METAR,8.0
KJAC 072156Z VRB03KT 10SM SCT110 24/06 A3004 RMK AO2 LTG DSNT SE AND S SLP117 T02440061,KJAC,2023-07-07T21:56:00Z,43.62,-110.73,24.4,6.1,0,3,,10.0,30.041338,1011.7,,,TRUE,,,,,,,SCT,11000,,,,,,,VFR,,,,,,,,,,,,METAR,1967.0
KIWD 072156Z AUTO 24010KT 10SM CLR 23/12 A2993 RMK AO2 SLP137 T02280117,KIWD,2023-07-07T21:56:00Z,46.52,-90.12,22.8,11.7,240,10,,10.0,29.929134,1013.7,,TRUE,TRUE,,,,,,,CLR,,,,,,,,VFR,,,,,,,,,,,,METAR,373.0
KITH 072156Z 34006KT 10SM BKN018 OVC031 24/20 A2991 RMK AO2 SLP122 T02390200,KITH,2023-07-07T21:56:00Z,42.48,-76.45,23.9,20.0,340,6,,10.0,29.911417,1012.2,,,TRUE,,,,,,,BKN,1800,OVC,3100,,,,,MVFR,,,,,,,,,,,,METAR,338.0
KISP 072156Z 17008KT 10SM SCT016 BKN250 26/22 A2984 RMK AO2 SLP102 T02610217,KISP,2023-07-07T21:56:00Z,40.8,-73.1,26.1,21.7,170,8,,10.0,29.840551,1010.2,,,TRUE,,,,,,,SCT,1600,BKN,25000,,,,,VFR,,,,,,,,,,,,METAR,25.0
KISO 072156Z 91010616KT 7SM SCT049 BKN060 28/22 A2981,KISO,2023-07-07T21:56:00Z,35.32,-77.62,28.0,22.0,101,6,,97.0,29.811024,,,,,,,,,,,SCT,4900,BKN,6000,,,,,VFR,,,,,,,,,,,,METAR,27.0
KISM 072156Z 19004KT 10SM -RA CLR 26/24 A2994 RMK AO2 LTG DSNT ALQDS TSE44RAE07B40 SLP139 T02560239 PNO $,KISM,2023-07-07T21:56:00Z,28.28,-81.43,25.6,23.9,190,4,,10.0,29.940945,1013.9,,,TRUE,TRUE,,,,,-RA,CLR,,,,,,,,VFR,,,,,,,,,,,,METAR,25.0
KINW 072156Z AUTO 25018G31KT 10SM CLR 37/01 A2996 RMK AO2 PK WND 23032/2132 SLP057 T03670006,KINW,2023-07-07T21:56:00Z,35.03,-110.72,36.7,0.6,250,18,31,10.0,29.958662,1005.7,,TRUE,TRUE,,,,,,,CLR,,,,,,,,VFR,,,,,,,,,,,,METAR,1492.0
KILE 072156Z AUTO 17012G16KT 10SM FEW085 34/21 A2990 RMK AO2 SLP111 T03440206,KILE,2023-07-07T21:56:00Z,31.08,-97.68,34.4,20.6,170,12,16,10.0,29.899607,1011.1,,TRUE,TRUE,,,,,,,FEW,8500,,,,,,,VFR,,,,,,,,,,,,METAR,256.0
KI69 072156Z AUTO 05003KT 10SM CLR 30/14 A2992 RMK AO1 T02990144,KI69,2023-07-07T21:56:00Z,39.08,-84.22,29.9,14.4,50,3,,10.0,29.920275,,,TRUE,TRUE,,,,,,,CLR,,,,,,,,VFR,,,,,,,,,,,,METAR,238.0
KHYS 072156Z AUTO 17006KT 10SM OVC040 26/19 A2992 RMK AO2 SLP117 T02560189 $,KHYS,2023-07-07T21:56:00Z,38.85,-99.27,25.6,18.9,170,6,,10.0,29.920275,1011.7,,TRUE,TRUE,TRUE,,,,,,OVC,4000,,,,,,,VFR,,,,,,,,,,,,METAR,607.0
KHYI 072156Z 16011KT 10SM FEW042 BKN095 31/23 A2992 RMK AO2 SLP123 T03110228,KHYI,2023-07-07T21:56:00Z,29.88,-97.87,31.1,22.8,160,11,,10.0,29.920275,1012.3,,,TRUE,,,,,,,FEW,4200,BKN,9500,,,,,VFR,,,,,,,,,,,,METAR,180.0
KHYA 072156Z 17005KT 9SM SCT004 SCT011 21/21 A2986 RMK AO2 SLP112 T02110206,KHYA,2023-07-07T21:56:00Z,41.67,-70.27,21.1,20.6,170,5,,9.0,29.861221,1011.2,,,TRUE,,,,,,,SCT,400,SCT,1100,,,,,VFR,,,,,,,,,,,,METAR,11.0
KHPN 072156Z 13005KT 10SM CLR 27/22 A2983 RMK AO2 SLP095 T02720217,KHPN,2023-07-07T21:56:00Z,41.07,-73.7,27.2,21.7,130,5,,10.0,29.828741,1009.5,,,TRUE,,,,,,,CLR,,,,,,,,VFR,,,,,,,,,,,,METAR,113.0
KHND 072156Z 15009KT 10SM CLR 39/01 A2975 RMK AO2 SLP052 T03890006,KHND,2023-07-07T21:56:00Z,35.98,-115.13,38.9,0.6,150,9,,10.0,29.749016,1005.2,,,TRUE,,,,,,,CLR,,,,,,,,VFR,,,,,,,,,,,,METAR,740.0
KHNB 072156Z AUTO 28006KT 10SM CLR 30/18 A2992 RMK AO2 SLP128 T03000178,KHNB,2023-07-07T21:56:00Z,38.25,-86.95,30.0,17.8,280,6,,10.0,29.920275,1012.8,,TRUE,TRUE,,,,,,,CLR,,,,,,,,VFR,,,,,,,,,,,,METAR,159.0
KHEZ 072156Z AUTO 35005KT 10SM CLR 32/23 A2994 RMK AO2 SLP135 T03220228,KHEZ,2023-07-07T21:56:00Z,31.62,-91.3,32.2,22.8,350,5,,10.0,29.940945,1013.5,,TRUE,TRUE,,,,,,,CLR,,,,,,,,VFR,,,,,,,,,,,,METAR,82.0
KHEF 072156Z 13005KT 10SM CLR 29/23 A2982 RMK AO2 SLP102 T02940228,KHEF,2023-07-07T21:56:00Z,38.72,-77.52,29.4,22.8,130,5,,10.0,29.819881,1010.2,,,TRUE,,,,,,,CLR,,,,,,,,VFR,,,,,,,,,,,,METAR,53.0
KHDN 072156Z AUTO 32008KT 10SM FEW100 26/03 A3007 RMK AO2 LTG DSNT SE SLP103 T02610033,KHDN,2023-07-07T21:56:00Z,40.48,-107.22,26.1,3.3,320,8,,10.0,30.070866,1010.3,,TRUE,TRUE,,,,,,,FEW,10000,,,,,,,VFR,,,,,,,,,,,,METAR,2012.0
KGXY 072156Z AUTO 01008KT 10SM -RA FEW060 OVC100 21/13 A3011 RMK AO2 LTG DSNT N AND NW RAB50 SLP169 P0000 T02060128,KGXY,2023-07-07T21:56:00Z,40.43,-104.62,20.6,12.8,10,8,,10.0,30.109253,1016.9,,TRUE,TRUE,,,,,,-RA,FEW,6000,OVC,10000,,,,,VFR,,,,,,0.005,,,,,,METAR,1420.0
KGVQ 072156Z AUTO 30009KT 10SM CLR 25/14 A2991 RMK AO2 SLP122 T02500139,KGVQ,2023-07-07T21:56:00Z,43.03,-78.17,25.0,13.9,300,9,,10.0,29.911417,1012.2,,TRUE,TRUE,,,,,,,CLR,,,,,,,,VFR,,,,,,,,,,,,METAR,279.0
KGUC 072156Z AUTO 25019G27KT 10SM CLR 27/M02 A3013 RMK AO2 PK WND 23031/2104 SLP111 T02721017,KGUC,2023-07-07T21:56:00Z,38.52,-106.93,27.2,-1.7,250,19,27,10.0,30.129921,1011.1,,TRUE,TRUE,,,,,,,CLR,,,,,,,,VFR,,,,,,,,,,,,METAR,2337.0
KGTU 072156Z 14009G17KT 10SM SCT050 BKN060 OVC095 33/21 A2993 RMK AO2 SLP126 T03330211,KGTU,2023-07-07T21:56:00Z,30.68,-97.68,33.3,21.1,140,9,17,10.0,29.929134,1012.6,,,TRUE,,,,,,,SCT,5000,BKN,6000,OVC,9500,,,VFR,,,,,,,,,,,,METAR,232.0
KGTR 072156Z 11005KT 10SM CLR 29/23 A2993 RMK AO2 LTG DSNT E-SW TSE39 SLP138 T02940233,KGTR,2023-07-07T21:56:00Z,33.45,-88.58,29.4,23.3,110,5,,10.0,29.929134,1013.8,,,TRUE,,,,,,,CLR,,,,,,,,VFR,,,,,,,,,,,,METAR,80.0
KGRD 072156Z AUTO 34008KT 10SM CLR 29/22 A2986 RMK AO2 LTG DSNT W SLP105 T02890217,KGRD,2023-07-07T21:56:00Z,34.25,-82.15,28.9,21.7,340,8,,10.0,29.861221,1010.5,,TRUE,TRUE,,,,,,,CLR,,,,,,,,VFR,,,,,,,,,,,,METAR,188.0
KGPZ 072156Z AUTO 25003KT 9SM RA BKN060 OVC070 16/14 A2996 RMK AO2 SLP149 P0015 T01560144,KGPZ,2023-07-07T21:56:00Z,47.22,-93.52,15.6,14.4,250,3,,9.0,29.958662,1014.9,,TRUE,TRUE,,,,,,RA,BKN,6000,OVC,7000,,,,,VFR,,,,,,0.15,,,,,,METAR,410.0
KGON 072156Z 17005KT 2SM BR BKN002 OVC008 25/22 A2986 RMK AO2 SLP110 T02500222,KGON,2023-07-07T21:56:00Z,41.33,-72.05,25.0,22.2,170,5,,2.0,29.861221,1011.0,,,TRUE,,,,,,BR,BKN,200,OVC,800,,,,,LIFR,,,,,,,,,,,,METAR,2.0
KGNR 072156Z AUTO 00000KT 20/19 A2989 RMK AO1 SLP118 P0009 T02000194,KGNR,2023-07-07T21:56:00Z,45.47,-69.55,20.0,19.4,0,0,,,29.890747,1011.8,,TRUE,TRUE,,,,,,,,,,,,,,,,,,,,,0.09,,,,,,METAR,426.0
KGNA 072156Z AUTO 27008KT 13/08 A2986 RMK AO1 SLP113 T01330083,KGNA,2023-07-07T21:56:00Z,47.75,-90.35,13.3,8.3,270,8,,,29.861221,1011.3,,TRUE,TRUE,,,,,,,,,,,,,,,,,,,,,,,,,,,METAR,186.0
KGDV 072156Z AUTO 02012G18KT 10SM FEW075 25/07 A3006 RMK AO2 SLP167 T02500072 TSNO,KGDV,2023-07-07T21:56:00Z,47.13,-104.8,25.0,7.2,20,12,18,10.0,30.059055,1016.7,,TRUE,TRUE,,,TRUE,,,,FEW,7500,,,,,,,VFR,,,,,,,,,,,,METAR,749.0
KGBD 072156Z AUTO 13007KT 10SM OVC042 24/19 A2992 RMK AO2 SLP117 T02440189,KGBD,2023-07-07T21:56:00Z,38.35,-98.87,24.4,18.9,130,7,,10.0,29.920275,1011.7,,TRUE,TRUE,,,,,,,OVC,4200,,,,,,,VFR,,,,,,,,,,,,METAR,573.0
KGAI 072156Z AUTO VRB03KT 10SM CLR 28/23 A2984 RMK AO2 LTG DSNT E SLP114 T02830228,KGAI,2023-07-07T21:56:00Z,39.17,-77.17,28.3,22.8,0,3,,10.0,29.840551,1011.4,,TRUE,TRUE,,,,,,,CLR,,,,,,,,VFR,,,,,,,,,,,,METAR,151.0
KGAD 072156Z AUTO 30009KT 10SM VCTS CLR 28/21 A2990 RMK AO2 LTG DSNT E AND W TSE14B37E52B56 SLP121 T02830206 PNO $,KGAD,2023-07-07T21:56:00Z,33.97,-86.08,28.3,20.6,300,9,,10.0,29.899607,1012.1,,TRUE,TRUE,TRUE,,,,,VCTS,CLR,,,,,,,,VFR,,,,,,,,,,,,METAR,169.0
KFSD 072156Z 13005G16KT 10SM FEW018 BKN048 BKN090 19/12 A2998 RMK AO2 RAB07E53 SLP148 P0000 T01890122,KFSD,2023-07-07T21:56:00Z,43.58,-96.75,18.9,12.2,130,5,16,10.0,29.97933,1014.8,,,TRUE,,,,,,,FEW,1800,BKN,4800,BKN,9000,,,VFR,,,,,,0.005,,,,,,METAR,433.0
KFRM 072156Z AUTO 20005KT 10SM -RA OVC095 17/14 A2998 RMK AO2 SLP157 P0000 T01670139,KFRM,2023-07-07T21:56:00Z,43.63,-94.42,16.7,13.9,200,5,,10.0,29.97933,1015.7,,TRUE,TRUE,,,,,,-RA,OVC,9500,,,,,,,VFR,,,,,,0.005,,,,,,METAR,353.0
KFOD 072156Z AUTO 04004KT 10SM FEW034 OVC050 17/12 A2999 RMK AO2 SLP167 T01670117,KFOD,2023-07-07T21:56:00Z,42.53,-94.17,16.7,11.7,40,4,,10.0,29.991142,1016.7,,TRUE,TRUE,,,,,,,FEW,3400,OVC,5000,,,,,VFR,,,,,,,,,,,,METAR,347.0
KFNL 072156Z 08003KT 10SM FEW044 BKN110 19/14 A3013 RMK AO2 LTG DSNT NW-NE TSE01RAE46 SLP158 P0000 T01940139,KFNL,2023-07-07T21:56:00Z,40.45,-105.02,19.4,13.9,80,3,,10.0,30.129921,1015.8,,,TRUE,,,,,,,FEW,4400,BKN,11000,,,,,VFR,,,,,,0.005,,,,,,METAR,1529.0
KFLP 072156Z AUTO VRB04KT 7SM -TSRA SCT044 27/24 A2990 RMK AO2 LTG DSNT N AND S AND SW RAB21 SLP116 T02670239 PNO $,KFLP,2023-07-07T21:56:00Z,36.28,-92.58,26.7,23.9,0,4,,7.0,29.899607,1011.6,,TRUE,TRUE,TRUE,,,,,-TSRA,SCT,4400,,,,,,,VFR,,,,,,,,,,,,METAR,215.0
KFKL 072156Z AUTO VRB05KT 10SM CLR 25/15 A2996 RMK AO2 SLP137 T02500150,KFKL,2023-07-07T21:56:00Z,41.37,-79.87,25.0,15.0,0,5,,10.0,29.958662,1013.7,,TRUE,TRUE,,,,,,,CLR,,,,,,,,VFR,,,,,,,,,,,,METAR,468.0
KFCI 072156Z AUTO 10SM FEW100 29/21 RMK AO2 LTG DSNT NW-E SLPNO T02940211 PNO $,KFCI,2023-07-07T21:56:00Z,37.4,-77.52,29.4,21.1,,,,10.0,,,,TRUE,TRUE,TRUE,,,,,,FEW,10000,,,,,,,VFR,,,,,,,,,,,,METAR,63.0
KFAM 072156Z AUTO 15008KT 10SM FEW043 30/19 A2992 RMK AO2 SLP133 T03000194,KFAM,2023-07-07T21:56:00Z,37.77,-90.42,30.0,19.4,150,8,,10.0,29.920275,1013.3,,TRUE,TRUE,,,,,,,FEW,4300,,,,,,,VFR,,,,,,,,,,,,METAR,276.0
KEWK 072156Z AUTO 21011KT 10SM FEW033 BKN110 24/20 A2994 RMK AO2 LTG DSNT SE-SW TSE01B32E47 SLP124 T02440200,KEWK,2023-07-07T21:56:00Z,38.05,-97.27,24.4,20.0,210,11,,10.0,29.940945,1012.4,,TRUE,TRUE,,,,,,,FEW,3300,BKN,11000,,,,,VFR,,,,,,,,,,,,METAR,468.0
KEUL 072156Z AUTO 00000KT 10SM 34/07 A2978 RMK AO2 SLP059 T03390072 $,KEUL,2023-07-07T21:56:00Z,43.63,-116.62,33.9,7.2,0,0,,10.0,29.778543,1005.9,,TRUE,TRUE,TRUE,,,,,,,,,,,,,,,,,,,,,,,,,,METAR,741.0
KESC 072156Z AUTO 18008KT 10SM CLR 21/11 A2995 RMK AO2 SLP143 T02110106,KESC,2023-07-07T21:56:00Z,45.72,-87.08,21.1,10.6,180,8,,10.0,29.949802,1014.3,,TRUE,TRUE,,,,,,,CLR,,,,,,,,VFR,,,,,,,,,,,,METAR,180.0
KENV 072156Z AUTO 12009KT 10SM CLR 33/M01 A2985 RMK AO2 SLP058 T03331006 PNO $,KENV,2023-07-07T21:56:00Z,40.72,-114.02,33.3,-0.6,120,9,,10.0,29.84941,1005.8,,TRUE,TRUE,TRUE,,,,,,CLR,,,,,,,,VFR,,,,,,,,,,,,METAR,1291.0
KELZ 072156Z AUTO 34009KT 10SM OVC090 25/17 A2996 RMK AO2 SLP132 T02500167,KELZ,2023-07-07T21:56:00Z,42.1,-77.98,25.0,16.7,340,9,,10.0,29.958662,1013.2,,TRUE,TRUE,,,,,,,OVC,9000,,,,,,,VFR,,,,,,,,,,,,METAR,639.0
KEKY 072156Z AUTO 32005KT 10SM FEW045 32/22 A2992 RMK AO2 LTG DSNT N AND NW SLP977 T03220222,KEKY,2023-07-07T21:56:00Z,33.32,-86.93,32.2,22.2,320,5,,10.0,29.920275,997.7,,TRUE,TRUE,,,,,,,FEW,4500,,,,,,,VFR,,,,,,,,,,,,METAR,213.0
KEKQ 072156Z AUTO 32005KT 10SM CLR 30/19 A2994 RMK AO2 SLP125 T03000194,KEKQ,2023-07-07T21:56:00Z,36.85,-84.85,30.0,19.4,320,5,,10.0,29.940945,1012.5,,TRUE,TRUE,,,,,,,CLR,,,,,,,,VFR,,,,,,,,,,,,METAR,291.0
KEKO 072156Z AUTO 10SM CLR 33/03 A2989 RMK AO2 LTG DSNT S AND SW SLP057 T03280028,KEKO,2023-07-07T21:56:00Z,40.82,-115.78,32.8,2.8,,,,10.0,29.890747,1005.7,,TRUE,TRUE,,,,,,,CLR,,,,,,,,VFR,,,,,,,,,,,,METAR,1541.0
KEHR 072156Z AUTO 19004KT 10SM CLR 30/18 A2992 RMK AO2 SLP129 T03000183,KEHR,2023-07-07T21:56:00Z,37.82,-87.67,30.0,18.3,190,4,,10.0,29.920275,1012.9,,TRUE,TRUE,,,,,,,CLR,,,,,,,,VFR,,,,,,,,,,,,METAR,117.0
KEGE 072156Z 21009G17KT 10SM SCT110 29/01 A3005 RMK AO2 SLP083 T02890011,KEGE,2023-07-07T21:56:00Z,39.63,-106.92,28.9,1.1,210,9,17,10.0,30.050198,1008.3,,,TRUE,,,,,,,SCT,11000,,,,,,,VFR,,,,,,,,,,,,METAR,1993.0
KEEN 072156Z AUTO 23004KT FEW060 28/20 A2984 RMK AO2 LTG DSNT SW-N SLP107 T02780200 PWINO $,KEEN,2023-07-07T21:56:00Z,42.88,-72.27,27.8,20.0,230,4,,,29.840551,1010.7,,TRUE,TRUE,TRUE,,,,TRUE,,FEW,6000,,,,,,,,,,,,,,,,,,,METAR,143.0
KEED 072156Z AUTO 21007G18KT 10SM CLR 41/M05 A2966 RMK AO2 SLP007 T04111050,KEED,2023-07-07T21:56:00Z,34.77,-114.62,41.1,-5.0,210,7,18,10.0,29.660433,1000.7,,TRUE,TRUE,,,,,,,CLR,,,,,,,,VFR,,,,,,,,,,,,METAR,271.0
KEAU 072156Z 26004KT 10SM BKN055 22/11 A2995 RMK AO2 SLP140 T02220111,KEAU,2023-07-07T21:56:00Z,44.87,-91.48,22.2,11.1,260,4,,10.0,29.949802,1014.0,,,TRUE,,,,,,,BKN,5500,,,,,,,VFR,,,,,,,,,,,,METAR,271.0
KEAR 072156Z AUTO 34009KT 10SM CLR A2993 RMK AO2 SLPNO FZRANO PNO $,KEAR,2023-07-07T21:56:00Z,40.72,-99.0,,,340,9,,10.0,29.929134,,,TRUE,TRUE,TRUE,,,TRUE,,,CLR,,,,,,,,VFR,,,,,,,,,,,,METAR,649.0
KDYR 072156Z AUTO 25008KT 10SM CLR 31/20 A2993 RMK AO2 SLP137 T03060200 PNO $,KDYR,2023-07-07T21:56:00Z,36.0,-89.4,30.6,20.0,250,8,,10.0,29.929134,1013.7,,TRUE,TRUE,TRUE,,,,,,CLR,,,,,,,,VFR,,,,,,,,,,,,METAR,98.0
KDWU 072156Z AUTO 00000KT 10SM FEW060 31/19 A2990 RMK AO2 SLP120 T03060189,KDWU,2023-07-07T21:56:00Z,38.55,-82.73,30.6,18.9,0,0,,10.0,29.899607,1012.0,,TRUE,TRUE,,,,,,,FEW,6000,,,,,,,VFR,,,,,,,,,,,,METAR,165.0
KDVL 072156Z AUTO 35013KT 10SM FEW055 22/08 A2999 RMK AO2 SLP165 T02170083,KDVL,2023-07-07T21:56:00Z,48.12,-98.92,21.7,8.3,350,13,,10.0,29.991142,1016.5,,TRUE,TRUE,,,,,,,FEW,5500,,,,,,,VFR,,,,,,,,,,,,METAR,439.0
KDUG 072156Z AUTO 10SM CLR 38/06 A2991 RMK AO2 SLP038 T03780061 TSNO,KDUG,2023-07-07T21:56:00Z,31.47,-109.6,37.8,6.1,,,,10.0,29.911417,1003.8,,TRUE,TRUE,,,TRUE,,,,CLR,,,,,,,,VFR,,,,,,,,,,,,SPECI,1260.0
KDIK 072156Z AUTO 03008G15KT 10SM CLR 23/09 A3002 RMK AO2 SLP156 T02330089,KDIK,2023-07-07T21:56:00Z,46.8,-102.8,23.3,8.9,30,8,15,10.0,30.02067,1015.6,,TRUE,TRUE,,,,,,,CLR,,,,,,,,VFR,,,,,,,,,,,,METAR,788.0
KDIJ 072156Z AUTO 31006KT 10SM FEW110 26/06 A3007 RMK AO2 SLP123 T02610061,KDIJ,2023-07-07T21:56:00Z,43.75,-111.1,26.1,6.1,310,6,,10.0,30.070866,1012.3,,TRUE,TRUE,,,,,,,FEW,11000,,,,,,,VFR,,,,,,,,,,,,METAR,1896.0
KDHT 072156Z AUTO 14012KT 3SM -TSRA FEW035 SCT070 BKN090 21/15 A2986 RMK AO2 LTG DSNT ALQDS PRESFR P0000 T02110150,KDHT,2023-07-07T21:56:00Z,36.02,-102.55,21.1,15.0,140,12,,3.0,29.861221,,,TRUE,TRUE,,,,,,-TSRA,FEW,3500,SCT,7000,BKN,9000,,,MVFR,,,,,,0.005,,,,,,METAR,1217.0
KDAY 072156Z 35003KT 10SM FEW055 29/15 A2994 RMK AO2 SLP130 T02940150,KDAY,2023-07-07T21:56:00Z,39.9,-84.22,29.4,15.0,350,3,,10.0,29.940945,1013.0,,,TRUE,,,,,,,FEW,5500,,,,,,,VFR,,,,,,,,,,,,METAR,303.0
KD07 072156Z AUTO 08007KT 24/13 A2999 RMK AO1 SLP147 T02390133,KD07,2023-07-07T21:56:00Z,45.03,-102.02,23.9,13.3,80,7,,,29.991142,1014.7,,TRUE,TRUE,,,,,,,,,,,,,,,,,,,,,,,,,,,METAR,786.0
KCWI 072156Z AUTO 34008KT 10SM -RA SCT060 OVC075 18/16 A2998 RMK AO2 SLP153 P0003 T01780156,KCWI,2023-07-07T21:56:00Z,41.82,-90.32,17.8,15.6,340,8,,10.0,29.97933,1015.3,,TRUE,TRUE,,,,,,-RA,SCT,6000,OVC,7500,,,,,VFR,,,,,,0.03,,,,,,METAR,212.0
KCVO 072156Z AUTO VRB03KT 10SM CLR 23/12 A2991 RMK AO2 SLP129 T02330122,KCVO,2023-07-07T21:56:00Z,44.5,-123.28,23.3,12.2,0,3,,10.0,29.911417,1012.9,,TRUE,TRUE,,,,,,,CLR,,,,,,,,VFR,,,,,,,,,,,,METAR,75.0
KCTB 072156Z AUTO 01009KT 10SM TS OVC100 19/10 A3005 RMK AO2 RAB01E51 TSB11E26B48 SLP157 P0039 T01940100,KCTB,2023-07-07T21:56:00Z,48.6,-112.37,19.4,10.0,10,9,,10.0,30.050198,1015.7,,TRUE,TRUE,,,,,,TS,OVC,10000,,,,,,,VFR,,,,,,0.39,,,,,,METAR,1172.0
KCOE 072156Z AUTO 36012G16KT 10SM FEW110 33/05 A2984 RMK AO2 SLP097 T03280050 PNO $,KCOE,2023-07-07T21:56:00Z,47.77,-116.82,32.8,5.0,360,12,16,10.0,29.840551,1009.7,,TRUE,TRUE,TRUE,,,,,,FEW,11000,,,,,,,VFR,,,,,,,,,,,,METAR,693.0
KCOD 072156Z AUTO VRB03KT 10SM BKN110 21/06 A3011 RMK AO2 LTG DSNT W SLP161 T02110061,KCOD,2023-07-07T21:56:00Z,44.52,-109.02,21.1,6.1,0,3,,10.0,30.109253,1016.1,,TRUE,TRUE,,,,,,,BKN,11000,,,,,,,VFR,,,,,,,,,,,,METAR,1550.0
KCIU 072156Z AUTO 25006KT 10SM CLR 23/09 A2993 RMK AO2 SLP132 T02330094,KCIU,2023-07-07T21:56:00Z,46.25,-84.47,23.3,9.4,250,6,,10.0,29.929134,1013.2,,TRUE,TRUE,,,,,,,CLR,,,,,,,,VFR,,,,,,,,,,,,METAR,242.0
KCHS 072156Z 21005KT 7SM -RA SCT035 BKN050 BKN110 28/24 A2981 RMK AO2 TSE40 SLP094 CB DSNT N P0004 T02780239,KCHS,2023-07-07T21:56:00Z,32.9,-80.03,27.8,23.9,210,5,,7.0,29.811024,1009.4,,,TRUE,,,,,,-RA,SCT,3500,BKN,5000,BKN,11000,,,VFR,,,,,,0.04,,,,,,METAR,12.0
KCGZ 072156Z AUTO 31008KT 10SM CLR 43/04 A2971 RMK AO2 SLP040 T04280039 PNO $,KCGZ,2023-07-07T21:56:00Z,32.95,-111.77,42.8,3.9,310,8,,10.0,29.71063,1004.0,,TRUE,TRUE,TRUE,,,,,,CLR,,,,,,,,VFR,,,,,,,,,,,,METAR,444.0
KCEC 072156Z AUTO 28006KT 10SM OVC021 13/11 A3001 RMK AO2 SLP162 T01280106,KCEC,2023-07-07T21:56:00Z,41.78,-124.23,12.8,10.6,280,6,,10.0,30.008858,1016.2,,TRUE,TRUE,,,,,,,OVC,2100,,,,,,,MVFR,,,,,,,,,,,,METAR,17.0
KCAE 072156Z 21009KT 6SM TSRA BR SCT060CB BKN110 24/23 A2985 RMK AO2 PK WND 32033/2058 WSHFT 2045 LTG DSNT ALQDS SLP105 OCNL LTGICCC TS OH MOV E CB OHD MOVE E FROPA P0093 T02440233,KCAE,2023-07-07T21:56:00Z,33.93,-81.12,24.4,23.3,210,9,,6.0,29.84941,1010.5,,,TRUE,,,,,,TSRA BR,SCT,6000,BKN,11000,,,,,VFR,,,,,,0.93,,,,,,METAR,69.0
KBZN 072156Z 08009KT 10SM CLR 26/04 A3002 RMK AO2 LTG DSNT S SLP136 T02560044 $,KBZN,2023-07-07T21:56:00Z,45.78,-111.17,25.6,4.4,80,9,,10.0,30.02067,1013.6,,,TRUE,TRUE,,,,,,CLR,,,,,,,,VFR,,,,,,,,,,,,METAR,1349.0
KBVX 072156Z AUTO 11008KT 8SM CLR 30/24 A2990 RMK AO2 SLP121 T03000239,KBVX,2023-07-07T21:56:00Z,35.73,-91.65,30.0,23.9,110,8,,8.0,29.899607,1012.1,,TRUE,TRUE,,,,,,,CLR,,,,,,,,VFR,,,,,,,,,,,,METAR,137.0
KBTP 072156Z AUTO 33007KT 10SM BKN043 26/18 A2993 RMK AO2 SLP132 T02610183 TSNO PNO $,KBTP,2023-07-07T21:56:00Z,40.77,-79.95,26.1,18.3,330,7,,10.0,29.929134,1013.2,,TRUE,TRUE,TRUE,,TRUE,,,,BKN,4300,,,,,,,VFR,,,,,,,,,,,,METAR,375.0
KBOK 072156Z AUTO 31007KT 270V340 10SM OVC020 16/11 A2999 RMK AO2 SLP155 T01560111,KBOK,2023-07-07T21:56:00Z,42.07,-124.28,15.6,11.1,310,7,,10.0,29.991142,1015.5,,TRUE,TRUE,,,,,,,OVC,2000,,,,,,,MVFR,,,,,,,,,,,,METAR,140.0
KBMI 072156Z 24011KT 10SM OVC120 25/16 A2997 RMK AO2 SLP142 T02500161,KBMI,2023-07-07T21:56:00Z,40.47,-88.92,25.0,16.1,240,11,,10.0,29.970472,1014.2,,,TRUE,,,,,,,OVC,12000,,,,,,,VFR,,,,,,,,,,,,METAR,262.0
KBLM 072156Z AUTO 15005KT 10SM CLR 26/26 A2984 RMK AO2 SLPNO T02610256,KBLM,2023-07-07T21:56:00Z,40.17,-74.12,26.1,25.6,150,5,,10.0,29.840551,,,TRUE,TRUE,,,,,,,CLR,,,,,,,,VFR,,,,,,,,,,,,METAR,45.0
KBKX 072156Z AUTO 21007KT 10SM FEW021 BKN095 18/12 A2998 RMK AO2 SLP163 T01830122,KBKX,2023-07-07T21:56:00Z,44.3,-96.82,18.3,12.2,210,7,,10.0,29.97933,1016.3,,TRUE,TRUE,,,,,,,FEW,2100,BKN,9500,,,,,VFR,,,,,,,,,,,,METAR,494.0
KBJJ 072156Z AUTO 02009KT 10SM CLR 26/16 A2995 RMK AO2 SLP134 T02610156,KBJJ,2023-07-07T21:56:00Z,40.87,-81.88,26.1,15.6,20,9,,10.0,29.949802,1013.4,,TRUE,TRUE,,,,,,,CLR,,,,,,,,VFR,,,,,,,,,,,,METAR,338.0
KBIH 072156Z AUTO 22006KT 10SM CLR 36/01 A2979 RMK AO2 SLP028 T03610011,KBIH,2023-07-07T21:56:00Z,37.37,-118.35,36.1,1.1,220,6,,10.0,29.790354,1002.8,,TRUE,TRUE,,,,,,,CLR,,,,,,,,VFR,,,,,,,,,,,,METAR,1252.0
KBID 072156Z AUTO 15006KT 10SM OVC006 23/22 A2988 RMK AO2 SLP117 T02330217,KBID,2023-07-07T21:56:00Z,41.17,-71.58,23.3,21.7,150,6,,10.0,29.878937,1011.7,,TRUE,TRUE,,,,,,,OVC,600,,,,,,,IFR,,,,,,,,,,,,METAR,32.0
KBHB 072156Z AUTO 20012KT 10SM BKN005 20/18 A2988 RMK AO2 SLP120 T02000183,KBHB,2023-07-07T21:56:00Z,44.45,-68.37,20.0,18.3,200,12,,10.0,29.878937,1012.0,,TRUE,TRUE,,,,,,,BKN,500,,,,,,,IFR,,,,,,,,,,,,METAR,21.0
KAWO 072156Z AUTO 19006KT 10SM CLR 22/13 A2989 RMK AO2 SLP124 T02220128,KAWO,2023-07-07T21:56:00Z,48.17,-122.17,22.2,12.8,190,6,,10.0,29.890747,1012.4,,TRUE,TRUE,,,,,,,CLR,,,,,,,,VFR,,,,,,,,,,,,METAR,38.0
KAUM 072156Z AUTO 22011KT 10SM CLR 19/12 A2999 RMK AO2,KAUM,2023-07-07T21:56:00Z,43.67,-92.92,19.0,12.0,220,11,,10.0,29.991142,,,TRUE,TRUE,,,,,,,CLR,,,,,,,,VFR,,,,,,,,,,,,METAR,376.0
KASH 072156Z 00000KT 10SM SCT050 31/21 A2983 RMK AO2 SLP102 HAZY T03060206,KASH,2023-07-07T21:56:00Z,42.78,-71.52,30.6,20.6,0,0,,10.0,29.828741,1010.2,,,TRUE,,,,,,,SCT,5000,,,,,,,VFR,,,,,,,,,,,,METAR,56.0
KART 072156Z AUTO 23010KT 10SM SCT023 27/20 A2985 RMK AO2 SLP104 T02670200,KART,2023-07-07T21:56:00Z,43.98,-76.03,26.7,20.0,230,10,,10.0,29.84941,1010.4,,TRUE,TRUE,,,,,,,SCT,2300,,,,,,,VFR,,,,,,,,,,,,METAR,100.0
KARG 072156Z AUTO 16006KT 10SM FEW031 30/23 A2990 RMK AO2 SLP122 T03000228,KARG,2023-07-07T21:56:00Z,36.12,-90.92,30.0,22.8,160,6,,10.0,29.899607,1012.2,,TRUE,TRUE,,,,,,,FEW,3100,,,,,,,VFR,,,,,,,,,,,,METAR,82.0
KAND 072156Z AUTO 33006KT 10SM FEW100 SCT110 28/19 A2987 RMK AO2 LTG DSNT SE-SW TSE2059 SLP103 T02830194,KAND,2023-07-07T21:56:00Z,34.5,-82.72,28.3,19.4,330,6,,10.0,29.870079,1010.3,,TRUE,TRUE,,,,,,,FEW,10000,SCT,11000,,,,,VFR,,,,,,,,,,,,METAR,233.0
KALK 072156Z AUTO VRB03KT 10SM SCT120 36/06 A2999 RMK AO2 SLP045 T03560056,KALK,2023-07-07T21:56:00Z,31.6,-110.43,35.6,5.6,0,3,,10.0,29.991142,1004.5,,TRUE,TRUE,,,,,,,SCT,12000,,,,,,,VFR,,,,,,,,,,,,METAR,1451.0
KAJO 072156Z AUTO 28014G19KT 10SM CLR 28/14 RMK AO2 SLPNO T02830144 $,KAJO,2023-07-07T21:56:00Z,33.9,-117.6,28.3,14.4,280,14,19,10.0,,,,TRUE,TRUE,TRUE,,,,,,CLR,,,,,,,,VFR,,,,,,,,,,,,METAR,161.0
KAIZ 072156Z AUTO 00000KT 10SM FEW090 31/21 RMK AO2 LTG DSNT NE-SE TSE16RAE08 SLPNO P0000 T03060211 $,KAIZ,2023-07-07T21:56:00Z,38.1,-92.53,30.6,21.1,0,0,,10.0,,,,TRUE,TRUE,TRUE,,,,,,FEW,9000,,,,,,,VFR,,,,,,0.005,,,,,,METAR,263.0
KAFJ 072156Z AUTO 35007KT 10SM BKN038 27/20 A2994 RMK AO2 SLP130 T02720200,KAFJ,2023-07-07T21:56:00Z,40.13,-80.28,27.2,20.0,350,7,,10.0,29.940945,1013.0,,TRUE,TRUE,,,,,,,BKN,3800,,,,,,,VFR,,,,,,,,,,,,METAR,360.0
KADF 072156Z AUTO 19003KT 10SM FEW030 32/25 A2990 RMK AO2 SLP122 T03220250,KADF,2023-07-07T21:56:00Z,34.1,-93.07,32.2,25.0,190,3,,10.0,29.899607,1012.2,,TRUE,TRUE,,,,,,,FEW,3000,,,,,,,VFR,,,,,,,,,,,,METAR,54.0
KADC 072156Z AUTO 16007KT 10SM VCTS SCT050 22/11 A2990 RMK AO2 LTG DSNT NW THRU NE,KADC,2023-07-07T21:56:00Z,46.45,-95.22,22.0,11.0,160,7,,10.0,29.899607,,,TRUE,TRUE,,,,,,VCTS,SCT,5000,,,,,,,VFR,,,,,,,,,,,,METAR,416.0
K8D3 072156Z AUTO 23010G18KT 24/16 A2987 RMK AO1 SLP106 P0002 T02440161,K8D3,2023-07-07T21:56:00Z,45.67,-96.98,24.4,16.1,230,10,18,,29.870079,1010.6,,TRUE,TRUE,,,,,,,,,,,,,,,,,,,,,0.02,,,,,,METAR,535.0
K79J 072156Z AUTO 30011KT 10SM CLR 32/22 A2988 RMK AO2 SLP114 T03170222,K79J,2023-07-07T21:56:00Z,31.32,-86.4,31.7,22.2,300,11,,10.0,29.878937,1011.4,,TRUE,TRUE,,,,,,,CLR,,,,,,,,VFR,,,,,,,,,,,,SPECI,93.0
K2WX 072156Z AUTO 02015KT 24/11 A3000 RMK AO1 SLP144 T02440111,K2WX,2023-07-07T21:56:00Z,45.6,-103.55,24.4,11.1,20,15,,,30.0,1014.4,,TRUE,TRUE,,,,,,,,,,,,,,,,,,,,,,,,,,,METAR,925.0
K1M4 072156Z AUTO 35004KT 10SM SCT046 24/22 A2998 RMK AO2 LTG DSNT E AND SE TSE12 SLP137 T02390222,K1M4,2023-07-07T21:56:00Z,34.28,-87.6,23.9,22.2,350,4,,10.0,29.97933,1013.7,,TRUE,TRUE,,,,,,,SCT,4600,,,,,,,VFR,,,,,,,,,,,,METAR,283.0
CYAY 072156Z AUTO 04007KT 9SM FEW009 OVC017 14/12 A2985 RMK TS/LTNG TEMPO UNAVBL SLP109,CYAY,2023-07-07T21:56:00Z,51.38,-56.07,14.0,12.0,40,7,,9.0,29.84941,1010.9,,TRUE,,,,,,,,FEW,900,OVC,1700,,,,,MVFR,,,,,,,,,,,,SPECI,23.0
TXKF 072155Z 21011KT 9999 FEW016 SCT180 BKN220 BKN240 28/25 Q1014 ,TXKF,2023-07-07T21:55:00Z,32.37,-64.68,28.0,25.0,210,11,,6.21,29.940945,,,,,,,,,,,FEW,1600,SCT,18000,BKN,22000,BKN,24000,VFR,,,,,,,,,,,,METAR,4.0
TNCE 072155Z AUTO 07016KT 040V100 //// // ///////// 29/24 Q1014 RE//,TNCE,2023-07-07T21:55:00Z,17.48,-62.97,29.0,24.0,70,16,,,29.940945,,,TRUE,,,,,,,,,,,,,,,,,,,,,,,,,,,,METAR,38.0
TJPS 072155Z AUTO 12015KT 10SM FEW055 SCT065 30/24 A2994 RMK AO2 TSNO,TJPS,2023-07-07T21:55:00Z,18.02,-66.57,30.0,24.0,120,15,,10.0,29.940945,,,TRUE,TRUE,,,TRUE,,,,FEW,5500,SCT,6500,,,,,VFR,,,,,,,,,,,,METAR,12.0
RODN 072155Z 20005KT 10SM FEW014 29/25 A2983 RMK A02A SLP106 T02910197 FZRANO TSNO $,RODN,2023-07-07T21:55:00Z,26.35,127.77,29.1,25.0,200,5,,10.0,29.828741,1010.6,,,TRUE,TRUE,,TRUE,TRUE,,,FEW,1400,,,,,,,VFR,,,,,,,,,,,,METAR,38.0
RKSO 072155Z 10006KT 10SM OVC012 26/23 A2963 RMK AO2A SLPNO ALSTG ESTMD RVRNO PWINO FZRANO VISNO RWY09 CHINO RWY09 $,RKSO,2023-07-07T21:55:00Z,37.08,127.02,26.0,23.0,100,6,,10.0,29.630905,,,,TRUE,TRUE,,,TRUE,TRUE,,OVC,1200,,,,,,,MVFR,,,,,,,,,,,,METAR,10.0
RKJK 072155Z AUTO 21009KT 7SM OVC003 24/23 A2958 RMK AO2 RAB2059E09DZB09E11RAB11E14 SLP021 P0001 T02350233 $,RKJK,2023-07-07T21:55:00Z,35.9,126.62,23.5,23.3,210,9,,7.0,29.58071,1002.1,,TRUE,TRUE,TRUE,,,,,,OVC,300,,,,,,,LIFR,,,,,,0.01,,,,,,METAR,8.0
PWAK 072155Z AUTO 05013KT 8SM FEW024 30/22 A2998 RMK AO2 SLP158 T03010222,PWAK,2023-07-07T21:55:00Z,19.28,166.62,30.1,22.2,50,13,,8.0,29.97933,1015.8,,TRUE,TRUE,,,,,,,FEW,2400,,,,,,,VFR,,,,,,,,,,,,METAR,7.0
PHSF 072155Z AUTO 28005KT 10SM FEW160 FEW210 FEW270 SCT290 BKN340 22/12 A3037 RMK AO2 SLP172 T02150121 $,PHSF,2023-07-07T21:55:00Z,19.77,-155.55,21.5,12.1,280,5,,10.0,30.369095,1017.2,,TRUE,TRUE,TRUE,,,,,,FEW,16000,FEW,21000,FEW,27000,SCT,29000,VFR,,,,,,,,,,,,METAR,1863.0
PGUA 072155Z AUTO 08013G21KT 10SM BKN013 28/24 A2988 RMK AO2 BKN V OVC SLP109 T02760242 TSNO VISNO RWY06R $,PGUA,2023-07-07T21:55:00Z,13.57,144.92,27.6,24.2,80,13,21,10.0,29.878937,1010.9,,TRUE,TRUE,TRUE,,TRUE,,,,BKN,1300,,,,,,,MVFR,,,,,,,,,,,,METAR,159.0
PATL 072155Z AUTO 10SM -SHRA BKN017 10/08 A2988 RMK AO2 SHRAB2036 SLP120 P0000 T01000084,PATL,2023-07-07T21:55:00Z,62.9,-155.97,10.0,8.4,,,,10.0,29.878937,1012.0,,TRUE,TRUE,,,,,,-SHRA,BKN,1700,,,,,,,MVFR,,,,,,0.005,,,,,,METAR,261.0
PATC 072155Z AUTO 21017KT 6SM BR BKN002 07/07 A2972 RMK AO2 SLP064 T00710069,PATC,2023-07-07T21:55:00Z,65.57,-167.92,7.1,6.9,210,17,,6.0,29.719488,1006.4,,TRUE,TRUE,,,,,,BR,BKN,200,,,,,,,LIFR,,,,,,,,,,,,METAR,77.0
PASV 072155Z AUTO VRB05KT 10SM -RA OVC008 07/06 A2989 RMK AO2 RAB2055 SLP129 P0002 T00690060,PASV,2023-07-07T21:55:00Z,61.1,-155.57,6.9,6.0,0,5,,10.0,29.890747,1012.9,,TRUE,TRUE,,,,,,-RA,OVC,800,,,,,,,IFR,,,,,,0.02,,,,,,METAR,462.0
PALU 072155Z AUTO 07006KT 10SM SCT075 11/10 A2969 RMK AO2 SLP054 T01050097,PALU,2023-07-07T21:55:00Z,68.88,-166.1,10.5,9.7,70,6,,10.0,29.68996,1005.4,,TRUE,TRUE,,,,,,,SCT,7500,,,,,,,VFR,,,,,,,,,,,,METAR,8.0
PAKX 072155Z AUTO 00000KT 7SM SCT010 SCT026 BKN035 10/09 A2994 RMK AO2 P0002,PAKX,2023-07-07T21:55:00Z,60.2,-154.32,10.0,9.0,0,0,,7.0,29.940945,,,TRUE,TRUE,,,,,,,SCT,1000,SCT,2600,BKN,3500,,,VFR,,,,,,0.02,,,,,,METAR,88.0
PAFR 072155Z AUTO 26003KT 4SM BR OVC005 10/09 A2997 RMK AO2 RAB14E27 SLP155 P0001 T01000092 $,PAFR,2023-07-07T21:55:00Z,61.27,-149.65,10.0,9.2,260,3,,4.0,29.970472,1015.5,,TRUE,TRUE,TRUE,,,,,BR,OVC,500,,,,,,,IFR,,,,,,0.01,,,,,,METAR,106.0
PAFB 072155Z 00000KT 10SM SCT065 BKN110 BKN180 22/15 A2973 RMK AO2A SLP072 T02150153 FZRANO $,PAFB,2023-07-07T21:55:00Z,64.83,-147.62,21.5,15.3,0,0,,10.0,29.731298,1007.2,,,TRUE,TRUE,,,TRUE,,,SCT,6500,BKN,11000,BKN,18000,,,VFR,,,,,,,,,,,,METAR,137.0
PAEI 072155Z VRB06KT 10SM FEW020 FEW045 BKN140 22/15 A2971 RMK AO2A SLP063 T02240147 $,PAEI,2023-07-07T21:55:00Z,64.67,-147.1,22.4,14.7,0,6,,10.0,29.71063,1006.3,,,TRUE,TRUE,,,,,,FEW,2000,FEW,4500,BKN,14000,,,VFR,,,,,,,,,,,,METAR,166.0
PAEH 072155Z AUTO 02012KT 010V180 10SM BKN006 09/09 A2989 RMK AO2 SLP126 T00860089,PAEH,2023-07-07T21:55:00Z,58.65,-162.07,8.6,8.9,20,12,,10.0,29.890747,1012.6,,TRUE,TRUE,,,,,,,BKN,600,,,,,,,IFR,,,,,,,,,,,,METAR,101.0
PAED 072155Z 23011KT 10SM VCSH SCT005 BKN011 OVC020 11/07 A2995 RMK AO2A DZB029E55 SLP138 LOW CLD RA SE OVR MTNS T01130074 $,PAED,2023-07-07T21:55:00Z,61.25,-149.83,11.3,7.4,230,11,,10.0,29.949802,1013.8,,,TRUE,TRUE,,,,,VCSH,SCT,500,BKN,1100,OVC,2000,,,MVFR,,,,,,,,,,,,METAR,54.0
PACZ 072155Z AUTO 20014KT 10SM OVC009 09/07 A2974 RMK AO2 SLP074 T00860068,PACZ,2023-07-07T21:55:00Z,61.78,-166.03,8.6,6.8,200,14,,10.0,29.740158,1007.4,,TRUE,TRUE,,,,,,,OVC,900,,,,,,,IFR,,,,,,,,,,,,METAR,129.0
PAAD 072155Z AUTO 08013KT 10SM CLR 11/08 A2975 RMK AO2 T01130081,PAAD,2023-07-07T21:55:00Z,70.13,-146.28,11.3,8.1,80,13,,10.0,29.749016,,,TRUE,TRUE,,,,,,,CLR,,,,,,,,VFR,,,,,,,,,,,,SPECI,8.0
OPLA 072155Z 09006KT 5000 FU SCT040 SCT100 27/25 Q1001 NOSIG RMK QFE976 A29.59,OPLA,2023-07-07T21:55:00Z,31.52,74.4,27.0,25.0,90,6,,3.11,29.557087,,,,,,TRUE,,,,FU,SCT,4000,SCT,10000,,,,,MVFR,,,,,,,,,,,,METAR,217.0
OKAS 072155Z 31010KT 9999 CLR 36/01 A2949 RMK AO2A SLP979 T03550005 FZRANO $,OKAS,2023-07-07T21:55:00Z,29.35,47.52,35.5,0.5,310,10,,6.21,29.489174,997.9,,,TRUE,TRUE,,,TRUE,,,CLR,,,,,,,,VFR,,,,,,,,,,,,METAR,144.0
NZCM 072155Z AUTO 03004KT 9000 CLR M33/M38 A2890 RMK AO2 SLP795 T13261381,NZCM,2023-07-07T21:55:00Z,-77.85,166.67,-32.6,-38.1,30,4,,5.59,28.898623,979.5,,TRUE,TRUE,,,,,,,CLR,,,,,,,,VFR,,,,,,,,,,,,SPECI,24.0
LIVT 072155Z AUTO 08007KT 040V130 //// 25/12 Q1021,LIVT,2023-07-07T21:55:00Z,45.68,13.75,25.0,12.0,80,7,,,30.147638,,,TRUE,,,,,,,,,,,,,,,,,,,,,,,,,,,,METAR,20.0
LIVR 072155Z 11007KT 0000 FG VV/// 11/10 Q1029,LIVR,2023-07-07T21:55:00Z,46.28,11.78,11.0,10.0,110,7,,0.0,30.383858,,,,,,,,,,FG,OVX,0,,,,,,,LIFR,,,,,,,,,,,,METAR,1997.0
LIVP 072155Z 20006KT 0000 FG VV/// 10/09 Q1030,LIVP,2023-07-07T21:55:00Z,46.15,11.03,10.0,9.0,200,6,,0.0,30.413385,,,,,,,,,,FG,OVX,0,,,,,,,LIFR,,,,,,,,,,,,METAR,2099.0
LIVM 072155Z AUTO VRB02KT //// 24/17 Q1020,LIVM,2023-07-07T21:55:00Z,44.45,12.3,24.0,17.0,0,2,,,30.11811,,,TRUE,,,,,,,,,,,,,,,,,,,,,,,,,,,,METAR,6.0
LIVF 072155Z 15005KT CAVOK 20/11 Q1021,LIVF,2023-07-07T21:55:00Z,43.52,12.72,20.0,11.0,150,5,,6.21,30.147638,,,,,,,,,,,CAVOK,,,,,,,,VFR,,,,,,,,,,,,METAR,549.0
LIVD 072155Z AUTO VRB02KT //// 14/11 Q1028,LIVD,2023-07-07T21:55:00Z,46.72,12.22,14.0,11.0,0,2,,,30.35433,,,TRUE,,,,,,,,,,,,,,,,,,,,,,,,,,,,METAR,1221.0
LIVC 072155Z AUTO /////KT //// ///// Q////,LIVC,2023-07-07T21:55:00Z,44.2,10.68,,,,,,,,,,TRUE,,,,,,,,,,,,,,,,,,,,,,,,,,,,METAR,2139.0
LIRY 072155Z AUTO VRB01KT //// 24/18 Q1019,LIRY,2023-07-07T21:55:00Z,,,24.0,18.0,0,1,,,30.088583,,,TRUE,,,,,,,,,,,,,,,,,,,,,,,,,,,,METAR,
LIRS 072155Z 35004KT CAVOK 23/21 Q1019,LIRS,2023-07-07T21:55:00Z,42.75,11.07,23.0,21.0,350,4,,6.21,30.088583,,,,,,,,,,,CAVOK,,,,,,,,VFR,,,,,,,,,,,,METAR,3.0
LIRK 072155Z AUTO 31006KT //// 15/06 Q1027,LIRK,2023-07-07T21:55:00Z,42.47,12.97,15.0,6.0,310,6,,,30.324802,,,TRUE,,,,,,,,,,,,,,,,,,,,,,,,,,,,METAR,1721.0
LIRE 072155Z 04003KT CAVOK 23/20 Q1018,LIRE,2023-07-07T21:55:00Z,41.65,12.43,23.0,20.0,40,3,,6.21,30.059055,,,,,,,,,,,CAVOK,,,,,,,,VFR,,,,,,,,,,,,METAR,16.0
LIQO 072155Z AUTO 36000KT //// ///// Q////,LIQO,2023-07-07T21:55:00Z,42.38,11.17,,,360,0,,,,,,TRUE,,,,,,,,,,,,,,,,,,,,,,,,,,,,METAR,627.0
LIPS 072155Z 01004KT CAVOK 22/16 Q1021,LIPS,2023-07-07T21:55:00Z,45.68,12.1,22.0,16.0,10,4,,6.21,30.147638,,,,,,,,,,,CAVOK,,,,,,,,VFR,,,,,,,,,,,,METAR,42.0
LIPL 072155Z 06005KT CAVOK 23/21 Q1020,LIPL,2023-07-07T21:55:00Z,45.42,10.27,23.0,21.0,60,5,,6.21,30.11811,,,,,,,,,,,CAVOK,,,,,,,,VFR,,,,,,,,,,,,METAR,96.0
LIPI 072155Z 01004KT CAVOK 20/18 Q1021,LIPI,2023-07-07T21:55:00Z,45.97,13.05,20.0,18.0,10,4,,6.21,30.147638,,,,,,,,,,,CAVOK,,,,,,,,VFR,,,,,,,,,,,,METAR,49.0
LIPC 072155Z 18002KT CAVOK 19/17 Q1021,LIPC,2023-07-07T21:55:00Z,44.22,12.3,19.0,17.0,180,2,,6.21,30.147638,,,,,,,,,,,CAVOK,,,,,,,,VFR,,,,,,,,,,,,METAR,10.0
LIMH 072155Z AUTO 20014KT //// 02/00 Q1036,LIMH,2023-07-07T21:55:00Z,45.93,7.7,2.0,0.0,200,14,,,30.590551,,,TRUE,,,,,,,,,,,,,,,,,,,,,,,,,,,,METAR,3473.0
LIED 072155Z 12017KT 9999 FEW020 28/17 Q1014,LIED,2023-07-07T21:55:00Z,39.35,8.97,28.0,17.0,120,17,,6.21,29.940945,,,,,,,,,,,FEW,2000,,,,,,,VFR,,,,,,,,,,,,METAR,26.0
LICZ 072155Z 29003KT CAVOK 23/19 Q1018,LICZ,2023-07-07T21:55:00Z,37.4,14.92,23.0,19.0,290,3,,6.21,30.059055,,,,,,,,,,,CAVOK,,,,,,,,VFR,,,,,,,,,,,,METAR,22.0
LICT 072155Z 13010KT CAVOK 26/15 Q1018,LICT,2023-07-07T21:55:00Z,37.92,12.5,26.0,15.0,130,10,,6.21,30.059055,,,,,,,,,,,CAVOK,,,,,,,,VFR,,,,,,,,,,,,METAR,4.0
LIBV 072155Z 31004KT CAVOK 20/18 Q1019,LIBV,2023-07-07T21:55:00Z,40.77,16.93,20.0,18.0,310,4,,6.21,30.088583,,,,,,,,,,,CAVOK,,,,,,,,VFR,,,,,,,,,,,,METAR,344.0
LIBQ 072155Z AUTO 08005KT //// 17/13 Q1029,LIBQ,2023-07-07T21:55:00Z,39.32,16.38,17.0,13.0,80,5,,,30.383858,,,TRUE,,,,,,,,,,,,,,,,,,,,,,,,,,,,METAR,1660.0
LIBN 072155Z 31004KT CAVOK 21/21 Q1019,LIBN,2023-07-07T21:55:00Z,40.23,18.13,21.0,21.0,310,4,,6.21,30.088583,,,,,,,,,,,CAVOK,,,,,,,,VFR,,,,,,,,,,,,METAR,46.0
LIBA 072155Z 27009KT CAVOK 23/19 Q1020,LIBA,2023-07-07T21:55:00Z,41.53,15.72,23.0,19.0,270,9,,6.21,30.11811,,,,,,,,,,,CAVOK,,,,,,,,VFR,,,,,,,,,,,,METAR,55.0
KZPH 072155Z AUTO 18009KT 10SM VCTS CLR 30/24 A2993 RMK A02 LTG DSNT NE THRU S P0006 T03000243,KZPH,2023-07-07T21:55:00Z,28.23,-82.15,30.0,24.3,180,9,,10.0,29.929134,,,TRUE,TRUE,,,,,,VCTS,CLR,,,,,,,,VFR,,,,,,0.06,,,,,,SPECI,26.0
KZER 072155Z AUTO 00000KT 10SM SCT038 25/21 A2992 RMK AO2 LTG DSNT NE,KZER,2023-07-07T21:55:00Z,40.7,-76.37,25.0,21.0,0,0,,10.0,29.920275,,,TRUE,TRUE,,,,,,,SCT,3800,,,,,,,VFR,,,,,,,,,,,,SPECI,518.0
KY70 072155Z AUTO 00000KT 10SM BKN070 26/08 A2994 RMK AO2 T02570083,KY70,2023-07-07T21:55:00Z,42.93,-85.07,25.7,8.3,0,0,,10.0,29.940945,,,TRUE,TRUE,,,,,,,BKN,7000,,,,,,,VFR,,,,,,,,,,,,METAR,247.0
KY63 072155Z AUTO 20013G17KT 10SM BKN040 BKN046 BKN060 25/15 A2989 RMK AO2 LTG DSNT W THRU N T02460149,KY63,2023-07-07T21:55:00Z,45.98,-96.0,24.6,14.9,200,13,17,10.0,29.890747,,,TRUE,TRUE,,,,,,,BKN,4000,BKN,4600,BKN,6000,,,VFR,,,,,,,,,,,,METAR,367.0
KY51 072155Z AUTO 25006KT 10SM CLR 20/11 A2997 RMK AO1 T02000113,KY51,2023-07-07T21:55:00Z,43.58,-90.9,20.0,11.3,250,6,,10.0,29.970472,,,TRUE,TRUE,,,,,,,CLR,,,,,,,,VFR,,,,,,,,,,,,METAR,390.0
KY49 072155Z AUTO 18010KT 10SM SCT070 BKN085 14/14 A2991 RMK AO2 LTG DSNT N S AND NW T01430143 P0005,KY49,2023-07-07T21:55:00Z,47.15,-94.65,14.3,14.3,180,10,,10.0,29.911417,,,TRUE,TRUE,,,,,,,SCT,7000,BKN,8500,,,,,VFR,,,,,,0.05,,,,,,METAR,413.0
KY31 072155Z AUTO 24006KT 10SM CLR 24/09 A2994 RMK AO2 T02430088,KY31,2023-07-07T21:55:00Z,44.25,-84.18,24.3,8.8,240,6,,10.0,29.940945,,,TRUE,TRUE,,,,,,,CLR,,,,,,,,VFR,,,,,,,,,,,,METAR,264.0
KY23 072155Z AUTO 24003KT 10SM CLR 23/14 A2996 RMK AO2 T02270137,KY23,2023-07-07T21:55:00Z,45.3,-91.63,22.7,13.7,240,3,,10.0,29.958662,,,TRUE,TRUE,,,,,,,CLR,,,,,,,,VFR,,,,,,,,,,,,METAR,322.0
KY19 072155Z AUTO 02014KT 10SM BKN060 23/13 A3000 RMK AO2,KY19,2023-07-07T21:55:00Z,46.77,-100.9,23.0,13.0,20,14,,10.0,30.0,,,TRUE,TRUE,,,,,,,BKN,6000,,,,,,,VFR,,,,,,,,,,,,METAR,591.0
KXSA 072155Z AUTO 00000KT 10SM VCTS CLR 25/25 A2982 RMK AO2 LTG DSNT SE AND S P0012 T02450245,KXSA,2023-07-07T21:55:00Z,37.87,-76.9,24.5,24.5,0,0,,10.0,29.819881,,,TRUE,TRUE,,,,,,VCTS,CLR,,,,,,,,VFR,,,,,,0.12,,,,,,METAR,41.0
KXNX 072155Z AUTO 00000KT 10SM FEW050 FEW060 32/21 A2993 RMK A01,KXNX,2023-07-07T21:55:00Z,36.38,-86.42,32.0,21.0,0,0,,10.0,29.929134,,,TRUE,TRUE,,,,,,,FEW,5000,FEW,6000,,,,,VFR,,,,,,,,,,,,METAR,178.0
KXNO 072155Z AUTO 26008KT 10SM CLR 34/34 A2979 RMK AO2 LTG DSNT E AND NW SLP087 T03390338 $,KXNO,2023-07-07T21:55:00Z,33.62,-81.07,33.9,33.8,260,8,,10.0,29.790354,1008.7,,TRUE,TRUE,TRUE,,,,,,CLR,,,,,,,,VFR,,,,,,,,,,,,METAR,94.0
KXMR 072155Z AUTO 19007KT 10SM CLR 27/25 A2988 RMK AO2 LTG DSNT W-N SLP121 T02730249 $,KXMR,2023-07-07T21:55:00Z,28.47,-80.57,27.3,24.9,190,7,,10.0,29.878937,1012.1,,TRUE,TRUE,TRUE,,,,,,CLR,,,,,,,,VFR,,,,,,,,,,,,METAR,5.0
KXLL 072155Z AUTO 00000KT 10SM 26/21 A2985 RMK AO2,KXLL,2023-07-07T21:55:00Z,40.57,-75.48,26.0,21.0,0,0,,10.0,29.84941,,,TRUE,TRUE,,,,,,,,,,,,,,,,,,,,,,,,,,,SPECI,118.0
KXIF 072155Z AUTO 00000KT 10SM CLR 27/23 A2984 RMK AO2 SLP101 T02660230 $,KXIF,2023-07-07T21:55:00Z,,,26.6,23.0,0,0,,10.0,29.840551,1010.1,,TRUE,TRUE,TRUE,,,,,,CLR,,,,,,,,VFR,,,,,,,,,,,,METAR,
KX07 072155Z AUTO 15004KT 10SM CLR 27/25 A2995 RMK A01,KX07,2023-07-07T21:55:00Z,27.9,-81.62,27.0,25.0,150,4,,10.0,29.949802,,,TRUE,TRUE,,,,,,,CLR,,,,,,,,VFR,,,,,,,,,,,,METAR,36.0
KWYS 072155Z AUTO 03014KT 10SM CLR 22/04 A3008 RMK AO2,KWYS,2023-07-07T21:55:00Z,44.68,-111.12,22.0,4.0,30,14,,10.0,30.079725,,,TRUE,TRUE,,,,,,,CLR,,,,,,,,VFR,,,,,,,,,,,,METAR,2025.0
KWWR 072155Z AUTO 16013KT 10SM SCT039 BKN050 OVC070 29/20 A2992 RMK AO2,KWWR,2023-07-07T21:55:00Z,36.45,-99.52,29.0,20.0,160,13,,10.0,29.920275,,,TRUE,TRUE,,,,,,,SCT,3900,BKN,5000,OVC,7000,,,VFR,,,,,,,,,,,,METAR,664.0
KWRI 072155Z AUTO 19006KT 10SM FEW200 25/23 A2981 RMK AO2 SLP093 T02530229,KWRI,2023-07-07T21:55:00Z,40.02,-74.58,25.3,22.9,190,6,,10.0,29.811024,1009.3,,TRUE,TRUE,,,,,,,FEW,20000,,,,,,,VFR,,,,,,,,,,,,SPECI,35.0
KWRB 072155Z AUTO 01008KT 10SM FEW080 FEW100 29/24 A2985 RMK AO2 RAE2059 SLP108 P0000 T02870236,KWRB,2023-07-07T21:55:00Z,32.63,-83.58,28.7,23.6,10,8,,10.0,29.84941,1010.8,,TRUE,TRUE,,,,,,,FEW,8000,FEW,10000,,,,,VFR,,,,,,0.005,,,,,,METAR,82.0
KWHP 072155Z 00000KT 10SM SKC 25/12 A2987,KWHP,2023-07-07T21:55:00Z,34.25,-118.42,25.0,12.0,0,0,,10.0,29.870079,,,,,,,,,,,SKC,,,,,,,,VFR,,,,,,,,,,,,METAR,302.0
KWDR 072155Z AUTO 04006KT 10SM -TSRA SCT048 BKN080 OVC110 25/21 A2994 RMK AO2 LTG DSNT ALQS,KWDR,2023-07-07T21:55:00Z,33.98,-83.67,25.0,21.0,40,6,,10.0,29.940945,,,TRUE,TRUE,,,,,,-TSRA,SCT,4800,BKN,8000,OVC,11000,,,VFR,,,,,,,,,,,,SPECI,280.0
KW96 072155Z AUTO 00000KT 10SM SCT100 30/23 A2980 RMK AO1 T03000234,KW96,2023-07-07T21:55:00Z,37.5,-77.12,30.0,23.4,0,0,,10.0,29.799213,,,TRUE,TRUE,,,,,,,SCT,10000,,,,,,,VFR,,,,,,,,,,,,METAR,35.0
KW81 072155Z AUTO 16007KT 10SM SCT085 28/21 A2982 RMK AO1 T02800208,KW81,2023-07-07T21:55:00Z,37.18,-78.1,28.0,20.8,160,7,,10.0,29.819881,,,TRUE,TRUE,,,,,,,SCT,8500,,,,,,,VFR,,,,,,,,,,,,METAR,121.0
KW78 072155Z AUTO 34003KT 10SM CLR 33/21 A2981 RMK AO1 T03250206,KW78,2023-07-07T21:55:00Z,36.7,-78.85,32.5,20.6,340,3,,10.0,29.811024,,,TRUE,TRUE,,,,,,,CLR,,,,,,,,VFR,,,,,,,,,,,,METAR,120.0
KW75 072155Z AUTO 13003KT 10SM BKN017 29/24 A2982 RMK AO1 T02870235,KW75,2023-07-07T21:55:00Z,37.6,-76.45,28.7,23.5,130,3,,10.0,29.819881,,,TRUE,TRUE,,,,,,,BKN,1700,,,,,,,MVFR,,,,,,,,,,,,METAR,8.0
KW63 072155Z AUTO 34005KT 10SM SCT049 33/21 A2981 RMK AO1,KW63,2023-07-07T21:55:00Z,36.6,-78.55,33.0,21.0,340,5,,10.0,29.811024,,,TRUE,TRUE,,,,,,,SCT,4900,,,,,,,VFR,,,,,,,,,,,,METAR,126.0
KW43 072155Z AUTO 29008KT 10SM BKN120 21/08 A3011 RMK AO2,KW43,2023-07-07T21:55:00Z,44.67,-104.57,21.0,8.0,290,8,,10.0,30.109253,,,TRUE,TRUE,,,,,,,BKN,12000,,,,,,,VFR,,,,,,,,,,,,SPECI,1292.0
KW31 072155Z AUTO 14005G17KT 10SM SCT032 SCT043 BKN055 28/23 A2983 RMK AO1 T02830225,KW31,2023-07-07T21:55:00Z,36.95,-78.18,28.3,22.5,140,5,17,10.0,29.828741,,,TRUE,TRUE,,,,,,,SCT,3200,SCT,4300,BKN,5500,,,VFR,,,,,,,,,,,,METAR,159.0
KW22 072155Z AUTO 00000KT 10SM CLR 29/22 A2993 RMK AO2,KW22,2023-07-07T21:55:00Z,39.0,-80.27,29.0,22.0,0,0,,10.0,29.929134,,,TRUE,TRUE,,,,,,,CLR,,,,,,,,VFR,,,,,,,,,,,,SPECI,497.0
KW13 072155Z AUTO 00000KT 10SM SCT100 23/23 A2988 RMK AO1 P0043 T02300226,KW13,2023-07-07T21:55:00Z,38.08,-78.95,23.0,22.6,0,0,,10.0,29.878937,,,TRUE,TRUE,,,,,,,SCT,10000,,,,,,,VFR,,,,,,0.43,,,,,,METAR,440.0
KVYS 072155Z AUTO 28008KT 10SM BKN050 OVC110 24/15 A2996 RMK AO2 T02410152,KVYS,2023-07-07T21:55:00Z,41.35,-89.15,24.1,15.2,280,8,,10.0,29.958662,,,TRUE,TRUE,,,,,,,BKN,5000,OVC,11000,,,,,VFR,,,,,,,,,,,,SPECI,198.0
KVWU 072155Z AUTO 00000KT 10SM SCT011 SCT043 BKN090 19/17 A2992 RMK AO2 LTG DSNT SW P0005,KVWU,2023-07-07T21:55:00Z,48.15,-94.52,19.0,17.0,0,0,,10.0,29.920275,,,TRUE,TRUE,,,,,,,SCT,1100,SCT,4300,BKN,9000,,,VFR,,,,,,0.05,,,,,,METAR,359.0
KVVV 072155Z AUTO 20008KT 166V226 10SM CLR 23/16 A2991 RMK AO2,KVVV,2023-07-07T21:55:00Z,45.3,-96.42,23.0,16.0,200,8,,10.0,29.911417,,,TRUE,TRUE,,,,,,,CLR,,,,,,,,VFR,,,,,,,,,,,,METAR,334.0
KVTP 072155Z AUTO 00000KT 10SM SCT110 19/07 A3038 RMK AO2,KVTP,2023-07-07T21:55:00Z,37.5,-105.17,19.0,7.0,0,0,,10.0,30.380905,,,TRUE,TRUE,,,,,,,SCT,11000,,,,,,,VFR,,,,,,,,,,,,METAR,3086.0
KVTI 072155Z AUTO 16005KT 10SM OVC070 22/13 A2998 RMK AO2 T02160128,KVTI,2023-07-07T21:55:00Z,42.22,-92.02,21.6,12.8,160,5,,10.0,29.97933,,,TRUE,TRUE,,,,,,,OVC,7000,,,,,,,VFR,,,,,,,,,,,,METAR,256.0
KVPC 072155Z AUTO VRB04KT 10SM CLR 31/20 A2989 RMK AO2,KVPC,2023-07-07T21:55:00Z,34.1,-84.85,31.0,20.0,0,4,,10.0,29.890747,,,TRUE,TRUE,,,,,,,CLR,,,,,,,,VFR,,,,,,,,,,,,SPECI,234.0
KVOK 072155Z AUTO 28004KT 10SM BKN160 22/12 A2992 RMK AO2 SLP136 T02180118,KVOK,2023-07-07T21:55:00Z,43.93,-90.27,21.8,11.8,280,4,,10.0,29.920275,1013.6,,TRUE,TRUE,,,,,,,BKN,16000,,,,,,,VFR,,,,,,,,,,,,METAR,278.0
KVOA 072155Z AUTO 26018KT 10SM CLR 30/23 A2994 RMK A01,KVOA,2023-07-07T21:55:00Z,29.23,-87.78,30.0,23.0,260,18,,10.0,29.940945,,,TRUE,TRUE,,,,,,,CLR,,,,,,,,VFR,,,,,,,,,,,,METAR,53.0
KVNW 072155Z AUTO 20004KT 10SM SCT055 28/15 A2993 RMK AO2,KVNW,2023-07-07T21:55:00Z,40.87,-84.62,28.0,15.0,200,4,,10.0,29.929134,,,TRUE,TRUE,,,,,,,SCT,5500,,,,,,,VFR,,,,,,,,,,,,METAR,238.0
KVNC 072155Z AUTO 28011KT 240V310 10SM FEW024 32/26 A2995 RMK AO2 LTG DSNT E,KVNC,2023-07-07T21:55:00Z,27.07,-82.43,32.0,26.0,280,11,,10.0,29.949802,,,TRUE,TRUE,,,,,,,FEW,2400,,,,,,,VFR,,,,,,,,,,,,METAR,4.0
KVKS 072155Z AUTO 29005KT 10SM CLR 32/M32 A2991 RMK A01,KVKS,2023-07-07T21:55:00Z,32.23,-90.93,32.0,-32.0,290,5,,10.0,29.911417,,,TRUE,TRUE,,,,,,,CLR,,,,,,,,VFR,,,,,,,,,,,,SPECI,31.0
KVJI 072155Z AUTO 34004KT 10SM BKN095 27/18 A2996 RMK AO2 T02650180,KVJI,2023-07-07T21:55:00Z,36.68,-82.03,26.5,18.0,340,4,,10.0,29.958662,,,TRUE,TRUE,,,,,,,BKN,9500,,,,,,,VFR,,,,,,,,,,,,METAR,636.0
KVHN 072155Z AUTO 15007KT 070V180 10SM CLR 38/09 A2994 RMK AO2 T03770086,KVHN,2023-07-07T21:55:00Z,31.07,-104.78,37.7,8.6,150,7,,10.0,29.940945,,,TRUE,TRUE,,,,,,,CLR,,,,,,,,VFR,,,,,,,,,,,,SPECI,1200.0
KVGC 072155Z AUTO 01005KT 10SM SCT030 BKN035 23/18 A2992 RMK AO2,KVGC,2023-07-07T21:55:00Z,42.85,-75.57,23.0,18.0,10,5,,10.0,29.920275,,,TRUE,TRUE,,,,,,,SCT,3000,BKN,3500,,,,,VFR,,,,,,,,,,,,METAR,346.0
KVDI 072155Z AUTO 27005KT 10SM CLR 35/21 A2983 RMK AO2 LTG DSNT N THRU E,KVDI,2023-07-07T21:55:00Z,32.2,-82.37,35.0,21.0,270,5,,10.0,29.828741,,,TRUE,TRUE,,,,,,,CLR,,,,,,,,VFR,,,,,,,,,,,,SPECI,81.0
KVDF 072155Z AUTO 28006KT 10SM SCT037 SCT045 SCT050 33/25 A2993 RMK AO2,KVDF,2023-07-07T21:55:00Z,28.02,-82.33,33.0,25.0,280,6,,10.0,29.929134,,,TRUE,TRUE,,,,,,,SCT,3700,SCT,4500,SCT,5000,,,VFR,,,,,,,,,,,,METAR,5.0
KVCV 072155Z AUTO 26007G17KT 240V300 10SM CLR 33/M04 A2985 RMK AO2,KVCV,2023-07-07T21:55:00Z,34.58,-117.38,33.0,-4.0,260,7,17,10.0,29.84941,,,TRUE,TRUE,,,,,,,CLR,,,,,,,,VFR,,,,,,,,,,,,SPECI,871.0
KVBW 072155Z AUTO 36003KT 10SM CLR 30/21 A2985 RMK AO1 T02970207,KVBW,2023-07-07T21:55:00Z,38.37,-78.97,29.7,20.7,360,3,,10.0,29.84941,,,TRUE,TRUE,,,,,,,CLR,,,,,,,,VFR,,,,,,,,,,,,METAR,362.0
KVBG 072155Z 32015G20KT 8SM OVC009 16/14 A2993 RMK AO2A SLP138 T01620135,KVBG,2023-07-07T21:55:00Z,34.73,-120.58,16.2,13.5,320,15,20,8.0,29.929134,1013.8,,,TRUE,,,,,,,OVC,900,,,,,,,IFR,,,,,,,,,,,,METAR,96.0
KUYF 072155Z AUTO 00000KT 10SM CLR 28/15 A2993 RMK AO2,KUYF,2023-07-07T21:55:00Z,39.93,-83.47,28.0,15.0,0,0,,10.0,29.929134,,,TRUE,TRUE,,,,,,,CLR,,,,,,,,VFR,,,,,,,,,,,,SPECI,326.0
KUXL 072155Z AUTO 18007KT 7SM CLR 33/24 A2994 RMK AO2 T03310239,KUXL,2023-07-07T21:55:00Z,30.13,-93.38,33.1,23.9,180,7,,7.0,29.940945,,,TRUE,TRUE,,,,,,,CLR,,,,,,,,VFR,,,,,,,,,,,,METAR,2.0
KUVA 072155Z AUTO 12007KT SCT045 SCT055 OVC100 31/25 A2992 RMK AO2 T03050245 PWINO,KUVA,2023-07-07T21:55:00Z,29.22,-99.75,30.5,24.5,120,7,,,29.920275,,,TRUE,TRUE,,,,,TRUE,,SCT,4500,SCT,5500,OVC,10000,,,,,,,,,,,,,,,METAR,285.0
KUUV 072155Z AUTO 10004KT 10SM SCT050 BKN065 BKN100 28/18 A2992 RMK AO2 LTG DSNT SW AND W,KUUV,2023-07-07T21:55:00Z,38.23,-91.17,28.0,18.0,100,4,,10.0,29.920275,,,TRUE,TRUE,,,,,,,SCT,5000,BKN,6500,BKN,10000,,,VFR,,,,,,,,,,,,METAR,284.0
KUTA 072155Z AUTO 00000KT 10SM FEW070 SCT090 32/25 A2991 RMK AO2 T03240247 $,KUTA,2023-07-07T21:55:00Z,34.68,-90.35,32.4,24.7,0,0,,10.0,29.911417,,,TRUE,TRUE,TRUE,,,,,,FEW,7000,SCT,9000,,,,,VFR,,,,,,,,,,,,METAR,58.0
KUSE 072155Z AUTO 16004KT 10SM FEW050 SCT070 27/16 A2993 RMK AO2,KUSE,2023-07-07T21:55:00Z,41.62,-84.13,27.0,16.0,160,4,,10.0,29.929134,,,TRUE,TRUE,,,,,,,FEW,5000,SCT,7000,,,,,VFR,,,,,,,,,,,,METAR,237.0
KUOX 072155Z AUTO VRB04KT 10SM CLR 31/21 A2993 RMK AO2 PWINO,KUOX,2023-07-07T21:55:00Z,34.38,-89.53,31.0,21.0,0,4,,10.0,29.929134,,,TRUE,TRUE,,,,,TRUE,,CLR,,,,,,,,VFR,,,,,,,,,,,,METAR,123.0
KUNU 072155Z AUTO 25003KT 10SM SCT055 24/11 A2995 RMK AO2 T02360109,KUNU,2023-07-07T21:55:00Z,43.42,-88.7,23.6,10.9,250,3,,10.0,29.949802,,,TRUE,TRUE,,,,,,,SCT,5500,,,,,,,VFR,,,,,,,,,,,,METAR,281.0
KUNI 072155Z AUTO 27005KT 10SM CLR 31/13 A2991 RMK AO2 T03120132,KUNI,2023-07-07T21:55:00Z,39.22,-82.23,31.2,13.2,270,5,,10.0,29.911417,,,TRUE,TRUE,,,,,,,CLR,,,,,,,,VFR,,,,,,,,,,,,SPECI,232.0
KUMP 072155Z AUTO 25005KT 10SM CLR 31/16 A2992 RMK AO2 T03120157,KUMP,2023-07-07T21:55:00Z,39.93,-86.05,31.2,15.7,250,5,,10.0,29.920275,,,TRUE,TRUE,,,,,,,CLR,,,,,,,,VFR,,,,,,,,,,,,SPECI,247.0
KULS 072155Z AUTO VRB03KT 10SM FEW029 SCT055 27/22 A2992 RMK AO2,KULS,2023-07-07T21:55:00Z,37.6,-101.37,27.0,22.0,0,3,,10.0,29.920275,,,TRUE,TRUE,,,,,,,FEW,2900,SCT,5500,,,,,VFR,,,,,,,,,,,,METAR,934.0
KULM 072155Z AUTO 23007KT 10SM CLR 19/12 A2997 RMK AO2,KULM,2023-07-07T21:55:00Z,44.32,-94.5,19.0,12.0,230,7,,10.0,29.970472,,,TRUE,TRUE,,,,,,,CLR,,,,,,,,VFR,,,,,,,,,,,,METAR,305.0
KUKT 072155Z AUTO 00000KT 10SM CLR 25/24 A2984 RMK A01,KUKT,2023-07-07T21:55:00Z,40.43,-75.38,25.0,24.0,0,0,,10.0,29.840551,,,TRUE,TRUE,,,,,,,CLR,,,,,,,,VFR,,,,,,,,,,,,METAR,156.0
KUKL 072155Z AUTO 22005KT 10SM CLR 28/20 A2988 RMK AO2 T02770198,KUKL,2023-07-07T21:55:00Z,38.3,-95.73,27.7,19.8,220,5,,10.0,29.878937,,,TRUE,TRUE,,,,,,,CLR,,,,,,,,VFR,,,,,,,,,,,,SPECI,357.0
KUCY 072155Z AUTO VRB04KT 10SM CLR 31/21 A2989 RMK A01,KUCY,2023-07-07T21:55:00Z,36.38,-88.98,31.0,21.0,0,4,,10.0,29.890747,,,TRUE,TRUE,,,,,,,CLR,,,,,,,,VFR,,,,,,,,,,,,METAR,97.0
KUBE 072155Z AUTO 22004KT 10SM CLR 21/15 A2997 RMK AO2,KUBE,2023-07-07T21:55:00Z,45.5,-91.98,21.0,15.0,220,4,,10.0,29.970472,,,TRUE,TRUE,,,,,,,CLR,,,,,,,,VFR,,,,,,,,,,,,METAR,376.0
KU69 072155Z AUTO 04007KT 10SM CLR 29/00 A2997 RMK A01,KU69,2023-07-07T21:55:00Z,40.2,-110.38,29.0,0.0,40,7,,10.0,29.970472,,,TRUE,TRUE,,,,,,,CLR,,,,,,,,VFR,,,,,,,,,,,,METAR,1776.0
KU68 072155Z AUTO 00000KT 10SM SCT060 25/07 A3005 RMK AO2 LTG DSNT SW AND W,KU68,2023-07-07T21:55:00Z,44.92,-108.45,25.0,7.0,0,0,,10.0,30.050198,,,TRUE,TRUE,,,,,,,SCT,6000,,,,,,,VFR,,,,,,,,,,,,METAR,1244.0
KU64 072155Z AUTO 19018G24KT 10SM CLR 29/M03 A3013 RMK AO2 T02941030 $,KU64,2023-07-07T21:55:00Z,,,29.4,-3.0,190,18,24,10.0,30.129921,,,TRUE,TRUE,TRUE,,,,,,CLR,,,,,,,,VFR,,,,,,,,,,,,METAR,
KU55 072155Z AUTO 18014G21KT 10SM CLR 30/M08 A3007 RMK A01,KU55,2023-07-07T21:55:00Z,37.85,-112.38,30.0,-8.0,180,14,21,10.0,30.070866,,,TRUE,TRUE,,,,,,,CLR,,,,,,,,VFR,,,,,,,,,,,,METAR,2060.0
KU42 072155Z AUTO 07003KT 10SM CLR 33/M03 A2988 RMK AO1 T03281031,KU42,2023-07-07T21:55:00Z,40.62,-111.98,32.8,-3.1,70,3,,10.0,29.878937,,,TRUE,TRUE,,,,,,,CLR,,,,,,,,VFR,,,,,,,,,,,,METAR,1399.0
KTYQ 072155Z AUTO 25006KT 10SM SCT050 29/16 A2994 RMK AO2 T02900157,KTYQ,2023-07-07T21:55:00Z,40.03,-86.25,29.0,15.7,250,6,,10.0,29.940945,,,TRUE,TRUE,,,,,,,SCT,5000,,,,,,,VFR,,,,,,,,,,,,SPECI,279.0
KTYL 072155Z AUTO 22017G25KT 10SM CLR 34/00 A3007 RMK AO2,KTYL,2023-07-07T21:55:00Z,34.45,-110.12,34.0,0.0,220,17,25,10.0,30.070866,,,TRUE,TRUE,,,,,,,CLR,,,,,,,,VFR,,,,,,,,,,,,SPECI,1748.0
KTXW 072155Z AUTO 10011KT 10SM CLR A2986 RMK AO2,KTXW,2023-07-07T21:55:00Z,26.18,-97.97,,,100,11,,10.0,29.861221,,,TRUE,TRUE,,,,,,,CLR,,,,,,,,VFR,,,,,,,,,,,,SPECI,21.0
KTWT 072155Z AUTO 00000KT 10SM CLR 31/18 A2991 RMK AO2,KTWT,2023-07-07T21:55:00Z,37.55,-87.95,31.0,18.0,0,0,,10.0,29.911417,,,TRUE,TRUE,,,,,,,CLR,,,,,,,,VFR,,,,,,,,,,,,METAR,113.0
KTWM 072155Z AUTO 21006KT 10SM SCT065 23/15 A2989 RMK AO2,KTWM,2023-07-07T21:55:00Z,47.05,-91.75,23.0,15.0,210,6,,10.0,29.890747,,,TRUE,TRUE,,,,,,,SCT,6500,,,,,,,VFR,,,,,,,,,,,,METAR,331.0
KTVY 072155Z AUTO 36010KT 10SM CLR 30/04 A2986 RMK AO2,KTVY,2023-07-07T21:55:00Z,40.62,-112.35,30.0,4.0,360,10,,10.0,29.861221,,,TRUE,TRUE,,,,,,,CLR,,,,,,,,VFR,,,,,,,,,,,,METAR,1310.0
KTVK 072155Z AUTO 06006KT 10SM CLR 20/17 A2995 RMK AO2,KTVK,2023-07-07T21:55:00Z,40.68,-92.9,20.0,17.0,60,6,,10.0,29.949802,,,TRUE,TRUE,,,,,,,CLR,,,,,,,,VFR,,,,,,,,,,,,SPECI,311.0
KTVI 072155Z AUTO 24008KT 10SM SCT048 SCT070 SCT080 27/25 A2988 RMK AO2 LTG DSNT SE SW AND NW,KTVI,2023-07-07T21:55:00Z,30.9,-83.88,27.0,25.0,240,8,,10.0,29.878937,,,TRUE,TRUE,,,,,,,SCT,4800,SCT,7000,SCT,8000,,,VFR,,,,,,,,,,,,SPECI,74.0
KTTS 072155Z AUTO 18006KT 10SM VCTS CLR 28/25 A2988 RMK AO2 SLP123 T02780246 $,KTTS,2023-07-07T21:55:00Z,28.58,-80.67,27.8,24.6,180,6,,10.0,29.878937,1012.3,,TRUE,TRUE,TRUE,,,,,VCTS,CLR,,,,,,,,VFR,,,,,,,,,,,,METAR,1.0
KTTF 072155Z AUTO 17007G14KT 10SM SCT060 26/16 A2993 RMK AO2 T02570159,KTTF,2023-07-07T21:55:00Z,41.93,-83.42,25.7,15.9,170,7,14,10.0,29.929134,,,TRUE,TRUE,,,,,,,SCT,6000,,,,,,,VFR,,,,,,,,,,,,METAR,186.0
KTSP 072155Z AUTO 32018G25KT 9SM CLR 26/05 A2996 RMK AO2,KTSP,2023-07-07T21:55:00Z,35.13,-118.43,26.0,5.0,320,18,25,9.0,29.958662,,,TRUE,TRUE,,,,,,,CLR,,,,,,,,VFR,,,,,,,,,,,,METAR,1209.0
KTQK 072155Z AUTO 14003KT 10SM SCT023 SCT028 BKN034 25/20 A2996 RMK AO2 T02510199,KTQK,2023-07-07T21:55:00Z,38.47,-100.88,25.1,19.9,140,3,,10.0,29.958662,,,TRUE,TRUE,,,,,,,SCT,2300,SCT,2800,BKN,3400,,,VFR,,,,,,,,,,,,SPECI,906.0
KTQH 072155Z AUTO 24003KT 10SM 30/21 A2993 RMK AO2,KTQH,2023-07-07T21:55:00Z,35.93,-95.0,30.0,21.0,240,3,,10.0,29.929134,,,TRUE,TRUE,,,,,,,,,,,,,,,,,,,,,,,,,,,SPECI,265.0
KTPF 072155Z AUTO 28007KT 10SM SCT035 32/25 A2993 RMK AO2,KTPF,2023-07-07T21:55:00Z,27.92,-82.45,32.0,25.0,280,7,,10.0,29.929134,,,TRUE,TRUE,,,,,,,SCT,3500,,,,,,,VFR,,,,,,,,,,,,METAR,1.0
KTOC 072155Z AUTO 31003KT 10SM CLR 25/21 A2990 RMK AO2 P0002 T02500209,KTOC,2023-07-07T21:55:00Z,34.6,-83.3,25.0,20.9,310,3,,10.0,29.899607,,,TRUE,TRUE,,,,,,,CLR,,,,,,,,VFR,,,,,,0.02,,,,,,METAR,292.0
KTOB 072155Z AUTO 22005KT 10SM CLR 20/09 A2997 RMK AO2,KTOB,2023-07-07T21:55:00Z,44.02,-92.82,20.0,9.0,220,5,,10.0,29.970472,,,TRUE,TRUE,,,,,,,CLR,,,,,,,,VFR,,,,,,,,,,,,METAR,394.0
KTNU 072155Z AUTO 11007KT 10SM FEW041 SCT095 18/16 A2996 RMK A01 P0001,KTNU,2023-07-07T21:55:00Z,41.67,-93.02,18.0,16.0,110,7,,10.0,29.958662,,,TRUE,TRUE,,,,,,,FEW,4100,SCT,9500,,,,,VFR,,,,,,0.01,,,,,,SPECI,287.0
KTNB 072155Z AUTO 29008KT 10SM CLR 26/15 A3001 RMK AO2 T02610151,KTNB,2023-07-07T21:55:00Z,36.2,-81.65,26.1,15.1,290,8,,10.0,30.008858,,,TRUE,TRUE,,,,,,,CLR,,,,,,,,VFR,,,,,,,,,,,,SPECI,958.0
KTMT 072155Z AUTO 00000KT 10SM CLR 29/02 A2993 RMK AO2 T02890017,KTMT,2023-07-07T21:55:00Z,39.47,-117.2,28.9,1.7,0,0,,10.0,29.929134,,,TRUE,TRUE,,,,,,,CLR,,,,,,,,VFR,,,,,,,,,,,,METAR,1748.0
KTMK 072155Z AUTO 30006KT 10SM OVC029 18/12 A2997 RMK AO2,KTMK,2023-07-07T21:55:00Z,45.42,-123.82,18.0,12.0,300,6,,10.0,29.970472,,,TRUE,TRUE,,,,,,,OVC,2900,,,,,,,MVFR,,,,,,,,,,,,SPECI,8.0
KTME 072155Z AUTO 16014G21KT 10SM FEW033 FEW043 SCT055 30/24 A2995 RMK AO2,KTME,2023-07-07T21:55:00Z,29.8,-95.9,30.0,24.0,160,14,21,10.0,29.949802,,,TRUE,TRUE,,,,,,,FEW,3300,FEW,4300,SCT,5500,,,VFR,,,,,,,,,,,,METAR,49.0
KTKX 072155Z AUTO 00000KT 10SM FEW035 30/21 A2990 RMK AO2,KTKX,2023-07-07T21:55:00Z,36.22,-90.03,30.0,21.0,0,0,,10.0,29.899607,,,TRUE,TRUE,,,,,,,FEW,3500,,,,,,,VFR,,,,,,,,,,,,METAR,73.0
KTKV 072155Z AUTO 26003KT 10SM BKN060 22/11 A2997 RMK AO2 T02200110 PWINO,KTKV,2023-07-07T21:55:00Z,45.47,-89.82,22.0,11.0,260,3,,10.0,29.970472,,,TRUE,TRUE,,,,,TRUE,,BKN,6000,,,,,,,VFR,,,,,,,,,,,,METAR,449.0
KTKC 072155Z AUTO 22009KT 10SM SCT025 20/14 A2997 RMK AO2,KTKC,2023-07-07T21:55:00Z,44.25,-95.62,20.0,14.0,220,9,,10.0,29.970472,,,TRUE,TRUE,,,,,,,SCT,2500,,,,,,,VFR,,,,,,,,,,,,METAR,408.0
KTIP 072155Z AUTO 25006KT 10SM SCT120 26/17 A2995 RMK AO2 T02640166,KTIP,2023-07-07T21:55:00Z,40.28,-88.15,26.4,16.6,250,6,,10.0,29.949802,,,TRUE,TRUE,,,,,,,SCT,12000,,,,,,,VFR,,,,,,,,,,,,SPECI,224.0
KTIF 072155Z AUTO 01007G16KT 340V040 10SM SCT049 SCT055 SCT070 25/14 A2998 RMK AO2 T02500141,KTIF,2023-07-07T21:55:00Z,41.97,-100.57,25.0,14.1,10,7,16,10.0,29.97933,,,TRUE,TRUE,,,,,,,SCT,4900,SCT,5500,SCT,7000,,,VFR,,,,,,,,,,,,SPECI,888.0
KTHA 072155Z AUTO 34005KT 10SM CLR 30/19 A2992 RMK A01,KTHA,2023-07-07T21:55:00Z,35.38,-86.25,30.0,19.0,340,5,,10.0,29.920275,,,TRUE,TRUE,,,,,,,CLR,,,,,,,,VFR,,,,,,,,,,,,METAR,333.0
KTGI 072155Z AUTO 00000KT 10SM CLR A2982 RMK AO1,KTGI,2023-07-07T21:55:00Z,37.82,-75.98,,,0,0,,10.0,29.819881,,,TRUE,TRUE,,,,,,,CLR,,,,,,,,VFR,,,,,,,,,,,,METAR,1.0
KTEX 072155Z AUTO 26013G20KT 210V310 10SM SCT110 24/M13 A3031 RMK AO2,KTEX,2023-07-07T21:55:00Z,37.95,-107.9,24.0,-13.0,260,13,20,10.0,30.31004,,,TRUE,TRUE,,,,,,,SCT,11000,,,,,,,VFR,,,,,,,,,,,,SPECI,2760.0
KTEW 072155Z AUTO 34003KT 10SM CLR 27/09 A2995 RMK AO2 T02700089,KTEW,2023-07-07T21:55:00Z,42.57,-84.42,27.0,8.9,340,3,,10.0,29.949802,,,TRUE,TRUE,,,,,,,CLR,,,,,,,,VFR,,,,,,,,,,,,METAR,281.0
KTDR 072155Z AUTO 25009G17KT 10SM CLR 32/25 A2985 RMK AO2 LTG DSNT NW-N AND S SLP112 T03240252 $,KTDR,2023-07-07T21:55:00Z,30.05,-85.52,32.4,25.2,250,9,17,10.0,29.84941,1011.2,,TRUE,TRUE,TRUE,,,,,,CLR,,,,,,,,VFR,,,,,,,,,,,,METAR,4.0
KTCY 072155Z AUTO 35010KT 10SM CLR 30/09 A2980 RMK A01,KTCY,2023-07-07T21:55:00Z,37.68,-121.43,30.0,9.0,350,10,,10.0,29.799213,,,TRUE,TRUE,,,,,,,CLR,,,,,,,,VFR,,,,,,,,,,,,METAR,51.0
KTCM 072155Z AUTO 29006KT 10SM CLR 23/12 A2989 RMK AO2 SLP124 T02310121 $,KTCM,2023-07-07T21:55:00Z,47.13,-122.47,23.1,12.1,290,6,,10.0,29.890747,1012.4,,TRUE,TRUE,TRUE,,,,,,CLR,,,,,,,,VFR,,,,,,,,,,,,METAR,87.0
KTBX 072155Z AUTO 10SM SCT035 15/06 A3031 RMK AO2,KTBX,2023-07-07T21:55:00Z,43.47,-108.23,15.0,6.0,,,,10.0,30.31004,,,TRUE,TRUE,,,,,,,SCT,3500,,,,,,,VFR,,,,,,,,,,,,METAR,2230.0
KTBR 072155Z AUTO 20008KT 10SM VCTS SCT038 SCT055 SCT095 28/20 A2985 RMK AO2 LTG DSNT ALQS T02820201,KTBR,2023-07-07T21:55:00Z,32.48,-81.73,28.2,20.1,200,8,,10.0,29.84941,,,TRUE,TRUE,,,,,,VCTS,SCT,3800,SCT,5500,SCT,9500,,,VFR,,,,,,,,,,,,SPECI,54.0
KTBN 072155Z AUTO 18008KT 9SM FEW180 31/19 A2985 RMK AO2 LTG DSNT NE DZB00E12 SLP099 P0000 T03110191,KTBN,2023-07-07T21:55:00Z,37.73,-92.13,31.1,19.1,180,8,,9.0,29.84941,1009.9,,TRUE,TRUE,,,,,,,FEW,18000,,,,,,,VFR,,,,,,0.005,,,,,,METAR,349.0
KTAZ 072155Z AUTO 20006KT 10SM CLR 27/18 A2995 RMK AO2 T02650180,KTAZ,2023-07-07T21:55:00Z,39.53,-89.33,26.5,18.0,200,6,,10.0,29.949802,,,TRUE,TRUE,,,,,,,CLR,,,,,,,,VFR,,,,,,,,,,,,SPECI,188.0
KT89 072155Z AUTO 00000G10KT 10SM CLR 38/14 A2984 RMK A01,KT89,2023-07-07T21:55:00Z,29.27,-103.68,38.0,14.0,0,0,10,10.0,29.840551,,,TRUE,TRUE,,,,,,,CLR,,,,,,,,VFR,,,,,,,,,,,,METAR,801.0
KT82 072155Z AUTO 14006KT SCT042 BKN050 BKN070 30/20 A2996 RMK AO2 T02980200 PWINO,KT82,2023-07-07T21:55:00Z,30.25,-98.92,29.8,20.0,140,6,,,29.958662,,,TRUE,TRUE,,,,,TRUE,,SCT,4200,BKN,5000,BKN,7000,,,,,,,,,,,,,,,METAR,509.0
KT78 072155Z AUTO 21008KT 10SM CLR 33/24 A2992 RMK AO2,KT78,2023-07-07T21:55:00Z,30.08,-94.7,33.0,24.0,210,8,,10.0,29.920275,,,TRUE,TRUE,,,,,,,CLR,,,,,,,,VFR,,,,,,,,,,,,METAR,21.0
KT74 072155Z AUTO 17011KT 10SM SCT043 SCT060 OVC100 32/21 A2991 RMK AO2 T03230212,KT74,2023-07-07T21:55:00Z,30.57,-97.45,32.3,21.2,170,11,,10.0,29.911417,,,TRUE,TRUE,,,,,,,SCT,4300,SCT,6000,OVC,10000,,,VFR,,,,,,,,,,,,SPECI,169.0
KT70 072155Z AUTO 13012KT 10SM FEW070 34/22 A2985 RMK AO2 SLP094 T03350222 $,KT70,2023-07-07T21:55:00Z,29.12,-100.48,33.5,22.2,130,12,,10.0,29.84941,1009.4,,TRUE,TRUE,TRUE,,,,,,FEW,7000,,,,,,,VFR,,,,,,,,,,,,METAR,296.0
KT69 072155Z AUTO 18012KT 9SM FEW110 33/23 A2990 RMK A01,KT69,2023-07-07T21:55:00Z,28.03,-97.55,33.0,23.0,180,12,,9.0,29.899607,,,TRUE,TRUE,,,,,,,FEW,11000,,,,,,,VFR,,,,,,,,,,,,METAR,15.0
KT41 072155Z AUTO 15012KT 10SM BKN036 BKN044 OVC060 32/24 A2993 RMK AO2 T03180237,KT41,2023-07-07T21:55:00Z,29.67,-95.07,31.8,23.7,150,12,,10.0,29.929134,,,TRUE,TRUE,,,,,,,BKN,3600,BKN,4400,OVC,6000,,,VFR,,,,,,,,,,,,SPECI,8.0
KT35 072155Z AUTO 16007KT 10SM SCT050 34/21 A2990 RMK AO2 T03410212,KT35,2023-07-07T21:55:00Z,30.88,-96.97,34.1,21.2,160,7,,10.0,29.899607,,,TRUE,TRUE,,,,,,,SCT,5000,,,,,,,VFR,,,,,,,,,,,,METAR,122.0
KT20 072155Z AUTO 15009G14KT 10SM SCT070 BKN095 33/23 A2991 RMK AO2 T03250228,KT20,2023-07-07T21:55:00Z,29.52,-97.47,32.5,22.8,150,9,14,10.0,29.911417,,,TRUE,TRUE,,,,,,,SCT,7000,BKN,9500,,,,,VFR,,,,,,,,,,,,METAR,107.0
KSZY 072155Z AUTO 00000KT 27/23 A2995 RMK A01,KSZY,2023-07-07T21:55:00Z,35.2,-88.5,27.0,23.0,0,0,,,29.949802,,,TRUE,TRUE,,,,,,,,,,,,,,,,,,,,,,,,,,,METAR,184.0
KSZT 072155Z AUTO 09004KT 10SM CLR 31/06 A2986 RMK AO2,KSZT,2023-07-07T21:55:00Z,48.3,-116.57,31.0,6.0,90,4,,10.0,29.861221,,,TRUE,TRUE,,,,,,,CLR,,,,,,,,VFR,,,,,,,,,,,,METAR,649.0
KSZL 072155Z AUTO 06011KT 10SM FEW220 26/18 A2985 RMK AO2 SLP105 T02620181 $,KSZL,2023-07-07T21:55:00Z,38.73,-93.53,26.2,18.1,60,11,,10.0,29.84941,1010.5,,TRUE,TRUE,TRUE,,,,,,FEW,22000,,,,,,,VFR,,,,,,,,,,,,METAR,259.0
KSYN 072155Z AUTO 27004KT 10SM OVC110 21/11 A2996 RMK AO2 T02110106,KSYN,2023-07-07T21:55:00Z,44.47,-93.02,21.1,10.6,270,4,,10.0,29.958662,,,TRUE,TRUE,,,,,,,OVC,11000,,,,,,,VFR,,,,,,,,,,,,METAR,280.0
KSYM 072155Z AUTO VRB05KT 10SM CLR 29/14 A2994 RMK AO2,KSYM,2023-07-07T21:55:00Z,38.22,-83.58,29.0,14.0,0,5,,10.0,29.940945,,,TRUE,TRUE,,,,,,,CLR,,,,,,,,VFR,,,,,,,,,,,,METAR,307.0
KSYF 072155Z AUTO 02013G17KT 10SM CLR 27/11 A2999 RMK AO2 T02700105 PWINO,KSYF,2023-07-07T21:55:00Z,39.77,-101.8,27.0,10.5,20,13,17,10.0,29.991142,,,TRUE,TRUE,,,,,TRUE,,CLR,,,,,,,,VFR,,,,,,,,,,,,SPECI,1041.0
KSXU 072155Z AUTO 15020KT 10SM CLR 33/10 A2990 RMK AO2 T03270100,KSXU,2023-07-07T21:55:00Z,34.93,-104.65,32.7,10.0,150,20,,10.0,29.899607,,,TRUE,TRUE,,,,,,,CLR,,,,,,,,VFR,,,,,,,,,,,,METAR,1465.0
KSXS 072155Z AUTO 32007KT 10SM FEW041 32/23 A2986 RMK AO2 LTG DSNT E AND S-W SLP109 T03160231,KSXS,2023-07-07T21:55:00Z,31.37,-85.85,31.6,23.1,320,7,,10.0,29.861221,1010.9,,TRUE,TRUE,,,,,,,FEW,4100,,,,,,,VFR,,,,,,,,,,,,METAR,120.0
KSXK 072155Z AUTO 14014KT 10SM OVC046 15/14 A2995 RMK AO2 P0001,KSXK,2023-07-07T21:55:00Z,42.98,-96.17,15.0,14.0,140,14,,10.0,29.949802,,,TRUE,TRUE,,,,,,,OVC,4600,,,,,,,VFR,,,,,,0.01,,,,,,SPECI,430.0
KSWW 072155Z AUTO 15016G24KT 10SM CLR 34/16 A2992 RMK AO2 T03430157,KSWW,2023-07-07T21:55:00Z,32.47,-100.47,34.3,15.7,150,16,24,10.0,29.920275,,,TRUE,TRUE,,,,,,,CLR,,,,,,,,VFR,,,,,,,,,,,,SPECI,718.0
KSVN 072155Z AUTO 15011G16KT 10SM BKN060 34/24 A2977 RMK AO2 SLP084 T03350238 $,KSVN,2023-07-07T21:55:00Z,32.02,-81.12,33.5,23.8,150,11,16,10.0,29.769686,1008.4,,TRUE,TRUE,TRUE,,,,,,BKN,6000,,,,,,,VFR,,,,,,,,,,,,METAR,13.0
KSVE 072155Z AUTO 19006KT 10SM CLR 29/09 A2988 RMK AO2,KSVE,2023-07-07T21:55:00Z,40.37,-120.57,29.0,9.0,190,6,,10.0,29.878937,,,TRUE,TRUE,,,,,,,CLR,,,,,,,,VFR,,,,,,,,,,,,METAR,1263.0
KSVC 072155Z AUTO 29008G19KT 10SM CLR 36/03 A3002 RMK AO2 T03610026,KSVC,2023-07-07T21:55:00Z,32.63,-108.15,36.1,2.6,290,8,19,10.0,30.02067,,,TRUE,TRUE,,,,,,,CLR,,,,,,,,VFR,,,,,,,,,,,,METAR,1638.0
KSUZ 072155Z AUTO 20007KT 10SM FEW036 BKN045 30/26 A2990 RMK A01,KSUZ,2023-07-07T21:55:00Z,34.58,-92.48,30.0,26.0,200,7,,10.0,29.899607,,,TRUE,TRUE,,,,,,,FEW,3600,BKN,4500,,,,,VFR,,,,,,,,,,,,METAR,114.0
KSUW 072155Z AUTO 24012G17KT 10SM CLR 25/13 A2990 RMK AO2 T02490126,KSUW,2023-07-07T21:55:00Z,46.68,-92.1,24.9,12.6,240,12,17,10.0,29.899607,,,TRUE,TRUE,,,,,,,CLR,,,,,,,,VFR,,,,,,,,,,,,METAR,205.0
KSUU 072155Z AUTO 23018G24KT 10SM CLR 26/12 A2979 RMK AO2 PK WND 23026/35 SLP094 T02610122 $,KSUU,2023-07-07T21:55:00Z,38.27,-121.93,26.1,12.2,230,18,24,10.0,29.790354,1009.4,,TRUE,TRUE,TRUE,,,,,,CLR,,,,,,,,VFR,,,,,,,,,,,,METAR,9.0
KSUN 072155Z 10007G15KT 10SM SCT060 BKN090 28/00 A2998,KSUN,2023-07-07T21:55:00Z,43.5,-114.28,28.0,0.0,100,7,15,10.0,29.97933,,,,,,,,,,,SCT,6000,BKN,9000,,,,,VFR,,,,,,,,,,,,METAR,1619.0
KSTK 072155Z AUTO 04007G15KT 002V062 10SM CLR 25/12 A3003 RMK AO2,KSTK,2023-07-07T21:55:00Z,40.62,-103.27,25.0,12.0,40,7,15,10.0,30.029528,,,TRUE,TRUE,,,,,,,CLR,,,,,,,,VFR,,,,,,,,,,,,METAR,1228.0
KSTF 072155Z AUTO 00000KT 10SM CLR 39/36 A2990 RMK AO2,KSTF,2023-07-07T21:55:00Z,33.43,-88.85,39.0,36.0,0,0,,10.0,29.899607,,,TRUE,TRUE,,,,,,,CLR,,,,,,,,VFR,,,,,,,,,,,,METAR,99.0
KSTE 072155Z AUTO 00000KT 10SM CLR 25/02 A2996 RMK AO2 T02460024,KSTE,2023-07-07T21:55:00Z,44.55,-89.53,24.6,2.4,0,0,,10.0,29.958662,,,TRUE,TRUE,,,,,,,CLR,,,,,,,,VFR,,,,,,,,,,,,METAR,335.0
KSRR 072155Z AUTO 23018KT 10SM CLR 33/02 A3014 RMK AO2,KSRR,2023-07-07T21:55:00Z,33.47,-105.52,33.0,2.0,230,18,,10.0,30.138779,,,TRUE,TRUE,,,,,,,CLR,,,,,,,,VFR,,,,,,,,,,,,METAR,2063.0
KSRE 072155Z AUTO VRB04KT 9SM CLR 28/20 A2991 RMK AO2,KSRE,2023-07-07T21:55:00Z,35.27,-96.68,28.0,20.0,0,4,,9.0,29.911417,,,TRUE,TRUE,,,,,,,CLR,,,,,,,,VFR,,,,,,,,,,,,METAR,306.0
KSRB 072155Z AUTO 32005KT 10SM FEW042 FEW048 31/21 A2992 RMK AO2,KSRB,2023-07-07T21:55:00Z,36.05,-85.53,31.0,21.0,320,5,,10.0,29.920275,,,TRUE,TRUE,,,,,,,FEW,4200,FEW,4800,,,,,VFR,,,,,,,,,,,,METAR,303.0
KSPK 072155Z AUTO 01008KT 10SM CLR 32/02 A2986 RMK AO2,KSPK,2023-07-07T21:55:00Z,40.15,-111.67,32.0,2.0,10,8,,10.0,29.861221,,,TRUE,TRUE,,,,,,,CLR,,,,,,,,VFR,,,,,,,,,,,,METAR,1381.0
KSPA 072155Z AUTO 26004KT 10SM -DZ BKN120 23/22 A2987 RMK AO2 P0001,KSPA,2023-07-07T21:55:00Z,34.92,-81.95,23.0,22.0,260,4,,10.0,29.870079,,,TRUE,TRUE,,,,,,-DZ,BKN,12000,,,,,,,VFR,,,,,,0.01,,,,,,METAR,242.0
KSOW 072155Z AUTO 22019KT 10SM CLR 32/M01 A3014 RMK AO2,KSOW,2023-07-07T21:55:00Z,34.27,-110.0,32.0,-1.0,220,19,,10.0,30.138779,,,TRUE,TRUE,,,,,,,CLR,,,,,,,,VFR,,,,,,,,,,,,METAR,1954.0
KSOA 072155Z AUTO A2997 RMK AO2 PWINO,KSOA,2023-07-07T21:55:00Z,30.58,-100.65,,,,,,,29.970472,,,TRUE,TRUE,,,,,TRUE,,,,,,,,,,,,,,,,,,,,,,SPECI,654.0
KSNL 072155Z AUTO 10009KT 10SM CLR 29/22 A2992 RMK AO2 T02870216,KSNL,2023-07-07T21:55:00Z,35.35,-96.95,28.7,21.6,100,9,,10.0,29.920275,,,TRUE,TRUE,,,,,,,CLR,,,,,,,,VFR,,,,,,,,,,,,METAR,327.0
KSNK 072155Z AUTO 17019G25KT 10SM CLR 34/16 A2988 RMK AO2 T03390162,KSNK,2023-07-07T21:55:00Z,32.7,-100.95,33.9,16.2,170,19,25,10.0,29.878937,,,TRUE,TRUE,,,,,,,CLR,,,,,,,,VFR,,,,,,,,,,,,METAR,738.0
KSNC 072155Z AUTO 14005KT 10SM SCT019 26/23 A2987 RMK AO2,KSNC,2023-07-07T21:55:00Z,41.38,-72.5,26.0,23.0,140,5,,10.0,29.870079,,,TRUE,TRUE,,,,,,,SCT,1900,,,,,,,VFR,,,,,,,,,,,,METAR,114.0
KSMS 072155Z AUTO 00000KT 10SM CLR 28/24 A2982 RMK AO2 LTG DSNT E AND S AND NW,KSMS,2023-07-07T21:55:00Z,34.0,-80.37,28.0,24.0,0,0,,10.0,29.819881,,,TRUE,TRUE,,,,,,,CLR,,,,,,,,VFR,,,,,,,,,,,,METAR,53.0
KSME 072155Z AUTO 02005KT 10SM BKN050 BKN055 31/20 A2990 RMK AO2,KSME,2023-07-07T21:55:00Z,37.05,-84.62,31.0,20.0,20,5,,10.0,29.899607,,,TRUE,TRUE,,,,,,,BKN,5000,BKN,5500,,,,,VFR,,,,,,,,,,,,METAR,279.0
KSMD 072155Z AUTO 16005KT 9SM SCT055 27/16 A2993 RMK A01,KSMD,2023-07-07T21:55:00Z,41.15,-85.15,27.0,16.0,160,5,,9.0,29.929134,,,TRUE,TRUE,,,,,,,SCT,5500,,,,,,,VFR,,,,,,,,,,,,METAR,252.0
KSLO 072155Z AUTO 31004KT 10SM CLR 29/16 A2994 RMK AO2 T02900157,KSLO,2023-07-07T21:55:00Z,38.65,-88.97,29.0,15.7,310,4,,10.0,29.940945,,,TRUE,TRUE,,,,,,,CLR,,,,,,,,VFR,,,,,,,,,,,,SPECI,173.0
KSLI 072155Z 25010KT 10SM CLR 22/14 A2982 RMK AO2A SLP101 T02240137,KSLI,2023-07-07T21:55:00Z,33.78,-118.03,22.4,13.7,250,10,,10.0,29.819881,1010.1,,,TRUE,,,,,,,CLR,,,,,,,,VFR,,,,,,,,,,,,METAR,8.0
KSLH 072155Z AUTO 25005KT 10SM CLR 23/10 A2992 RMK AO2,KSLH,2023-07-07T21:55:00Z,45.65,-84.52,23.0,10.0,250,5,,10.0,29.920275,,,TRUE,TRUE,,,,,,,CLR,,,,,,,,VFR,,,,,,,,,,,,METAR,193.0
KSLB 072155Z AUTO 07010G17KT 5SM BR CLR 13/13 A2998 RMK AO2 P0002,KSLB,2023-07-07T21:55:00Z,42.6,-95.23,13.0,13.0,70,10,17,5.0,29.97933,,,TRUE,TRUE,,,,,,BR,CLR,,,,,,,,MVFR,,,,,,0.02,,,,,,SPECI,450.0
KSKF 072155Z 12010KT 10SM FEW042 BKN070 33/21 A2987 RMK AO2A SLP107 T03280213 $,KSKF,2023-07-07T21:55:00Z,29.38,-98.57,32.8,21.3,120,10,,10.0,29.870079,1010.7,,,TRUE,TRUE,,,,,,FEW,4200,BKN,7000,,,,,VFR,,,,,,,,,,,,METAR,214.0
KSKA 072155Z AUTO 09007KT 10SM CLR 32/03 A2983 RMK AO2 SLP077 T03160027 $,KSKA,2023-07-07T21:55:00Z,47.62,-117.67,31.6,2.7,90,7,,10.0,29.828741,1007.7,,TRUE,TRUE,TRUE,,,,,,CLR,,,,,,,,VFR,,,,,,,,,,,,METAR,754.0
KSJX 072155Z AUTO 25007KT 10SM CLR 21/12 A2996 RMK AO2 T02080119,KSJX,2023-07-07T21:55:00Z,45.7,-85.57,20.8,11.9,250,7,,10.0,29.958662,,,TRUE,TRUE,,,,,,,CLR,,,,,,,,VFR,,,,,,,,,,,,METAR,202.0
KSJS 072155Z AUTO 34003KT 10SM CLR 29/20 A2994 RMK AO2 T02900197,KSJS,2023-07-07T21:55:00Z,37.75,-82.63,29.0,19.7,340,3,,10.0,29.940945,,,TRUE,TRUE,,,,,,,CLR,,,,,,,,VFR,,,,,,,,,,,,METAR,359.0
KSHM 072155Z AUTO 05012G19KT 8SM -RA SCT023 SCT037 BKN075 BKN090 OVC110 15/11 A3011 RMK AO2 LTG DSNT ALQDS TSE05 SLP142 P0023 T01520114 $,KSHM,2023-07-07T21:55:00Z,38.8,-104.52,15.2,11.4,50,12,19,8.0,30.109253,1014.2,,TRUE,TRUE,TRUE,,,,,-RA,SCT,2300,SCT,3700,BKN,7500,BKN,9000,VFR,,,,,,0.23,,,,,,METAR,1900.0
KSHL 072155Z AUTO 15007KT 10SM FEW015 FEW023 OVC070 16/14 A2996 RMK AO2,KSHL,2023-07-07T21:55:00Z,43.22,-95.83,16.0,14.0,150,7,,10.0,29.958662,,,TRUE,TRUE,,,,,,,FEW,1500,FEW,2300,OVC,7000,,,VFR,,,,,,,,,,,,METAR,430.0
KSHD 072155Z AUTO 18006KT 10SM CLR 30/21 A2988 RMK AO2 LTG DSNT E T03000206,KSHD,2023-07-07T21:55:00Z,38.27,-78.9,30.0,20.6,180,6,,10.0,29.878937,,,TRUE,TRUE,,,,,,,CLR,,,,,,,,VFR,,,,,,,,,,,,METAR,360.0
KSGS 072155Z AUTO 25005KT 10SM CLR 22/09 A2995 RMK AO2 T02220090,KSGS,2023-07-07T21:55:00Z,44.87,-93.03,22.2,9.0,250,5,,10.0,29.949802,,,TRUE,TRUE,,,,,,,CLR,,,,,,,,VFR,,,,,,,,,,,,METAR,250.0
KSFQ 072155Z AUTO 00000KT 10SM VCTSRA SCT036 SCT070 OVC110 27/24 A2982 RMK AO2 LTG DSNT SE THRU W P0001 T02690239,KSFQ,2023-07-07T21:55:00Z,36.68,-76.6,26.9,23.9,0,0,,10.0,29.819881,,,TRUE,TRUE,,,,,,VCTSRA,SCT,3600,SCT,7000,OVC,11000,,,VFR,,,,,,0.01,,,,,,METAR,19.0
KSEZ 072155Z AUTO 17020G25KT 150V210 10SM CLR 35/00 A2998 RMK AO2,KSEZ,2023-07-07T21:55:00Z,34.85,-111.78,35.0,0.0,170,20,25,10.0,29.97933,,,TRUE,TRUE,,,,,,,CLR,,,,,,,,VFR,,,,,,,,,,,,METAR,1455.0
KSEQ 072155Z AUTO 15008KT 10SM SCT040 BKN050 BKN075 31/22 A2988 RMK AO2 SLP113 T03140215,KSEQ,2023-07-07T21:55:00Z,29.57,-97.9,31.4,21.5,150,8,,10.0,29.878937,1011.3,,TRUE,TRUE,,,,,,,SCT,4000,BKN,5000,BKN,7500,,,VFR,,,,,,,,,,,,METAR,160.0
KSEP 072155Z AUTO 17008G18KT 10SM CLR 35/17 A2993 RMK AO2 T03450172,KSEP,2023-07-07T21:55:00Z,32.22,-98.17,34.5,17.2,170,8,18,10.0,29.929134,,,TRUE,TRUE,,,,,,,CLR,,,,,,,,VFR,,,,,,,,,,,,METAR,399.0
KSEM 072155Z AUTO 30009KT 10SM CLR 32/24 A2988 RMK AO2 LTG DSNT N AND S,KSEM,2023-07-07T21:55:00Z,32.35,-86.98,32.0,24.0,300,9,,10.0,29.878937,,,TRUE,TRUE,,,,,,,CLR,,,,,,,,VFR,,,,,,,,,,,,METAR,48.0
KSEF 072155Z AUTO 35008G15KT 10SM TSRA SCT011 BKN031 OVC060 25/ A3000 RMK AO2 LTG DSNT ALQDS P0017 T0247////,KSEF,2023-07-07T21:55:00Z,27.45,-81.35,24.7,,350,8,15,10.0,30.0,,,TRUE,TRUE,,,,,,TSRA,SCT,1100,BKN,3100,OVC,6000,,,VFR,,,,,,0.17,,,,,,SPECI,17.0
KSDC 072155Z AUTO 31005KT 10SM CLR 25/17 A2990 RMK AO2,KSDC,2023-07-07T21:55:00Z,43.23,-77.12,25.0,17.0,310,5,,10.0,29.899607,,,TRUE,TRUE,,,,,,,CLR,,,,,,,,VFR,,,,,,,,,,,,METAR,127.0
KSDA 072155Z AUTO 10006KT 10SM OVC021 22/19 A2988 RMK AO2,KSDA,2023-07-07T21:55:00Z,40.75,-95.42,22.0,19.0,100,6,,10.0,29.878937,,,TRUE,TRUE,,,,,,,OVC,2100,,,,,,,MVFR,,,,,,,,,,,,METAR,293.0
KSCX 072155Z AUTO 32004KT 10SM CLR 28/18 A2994 RMK A01,KSCX,2023-07-07T21:55:00Z,36.45,-84.58,28.0,18.0,320,4,,10.0,29.940945,,,TRUE,TRUE,,,,,,,CLR,,,,,,,,VFR,,,,,,,,,,,,METAR,462.0
KSCK 072155Z 28011KT 10SM CLR 29/13 A2981 RMK AO2 SLP095 T02940128,KSCK,2023-07-07T21:55:00Z,37.88,-121.22,29.4,12.8,280,11,,10.0,29.811024,1009.5,,,TRUE,,,,,,,CLR,,,,,,,,VFR,,,,,,,,,,,,METAR,8.0
KSCD 072155Z AUTO 07008G14KT 10SM BKN037 BKN049 OVC100 28/20 A2992 RMK AO2 LTG DSNT N AND NE T02760203,KSCD,2023-07-07T21:55:00Z,33.17,-86.3,27.6,20.3,70,8,14,10.0,29.920275,,,TRUE,TRUE,,,,,,,BKN,3700,BKN,4900,OVC,10000,,,VFR,,,,,,,,,,,,METAR,164.0
KSBS 072155Z AUTO 28008KT 10SM SCT100 26/02 A3007 RMK AO1 T02640023,KSBS,2023-07-07T21:55:00Z,40.52,-106.87,26.4,2.3,280,8,,10.0,30.070866,,,TRUE,TRUE,,,,,,,SCT,10000,,,,,,,VFR,,,,,,,,,,,,METAR,2097.0
KSBO 072155Z AUTO 32004KT 10SM TS SCT014 SCT027 BKN100 26/26 A2986 RMK AO2 LTG DSNT ALQS,KSBO,2023-07-07T21:55:00Z,32.62,-82.37,26.0,26.0,320,4,,10.0,29.861221,,,TRUE,TRUE,,,,,,TS,SCT,1400,SCT,2700,BKN,10000,,,VFR,,,,,,,,,,,,SPECI,98.0
KSAZ 072155Z AUTO 21007KT 10SM SCT085 24/11 A2992 RMK AO2 LTG DSNT NW,KSAZ,2023-07-07T21:55:00Z,46.37,-94.8,24.0,11.0,210,7,,10.0,29.920275,,,TRUE,TRUE,,,,,,,SCT,8500,,,,,,,VFR,,,,,,,,,,,,METAR,391.0
KSAR 072155Z AUTO 14006KT 10SM SCT050 SCT075 29/19 A2992 RMK AO2 T02940185,KSAR,2023-07-07T21:55:00Z,38.15,-89.7,29.4,18.5,140,6,,10.0,29.920275,,,TRUE,TRUE,,,,,,,SCT,5000,SCT,7500,,,,,VFR,,,,,,,,,,,,METAR,162.0
KSAA 072155Z AUTO 05003KT 10SM SCT110 21/00 A3015 RMK AO2,KSAA,2023-07-07T21:55:00Z,41.45,-106.8,21.0,0.0,50,3,,10.0,30.15059,,,TRUE,TRUE,,,,,,,SCT,11000,,,,,,,VFR,,,,,,,,,,,,METAR,2093.0
KS85 072155Z AUTO VRB04G10KT 10SM 26/06 A3002 RMK A01 Culbertson ,KS85,2023-07-07T21:55:00Z,48.15,-104.5,26.0,6.0,0,4,10,10.0,30.02067,,,TRUE,TRUE,,,,,,,,,,,,,,,,,,,,,,,,,,,METAR,596.0
KS52 072155Z AUTO 32019G25KT 10SM SCT100 SCT120 30/08 A2983 RMK AO2 T02950080,KS52,2023-07-07T21:55:00Z,48.42,-120.15,29.5,8.0,320,19,25,10.0,29.828741,,,TRUE,TRUE,,,,,,,SCT,10000,SCT,12000,,,,,VFR,,,,,,,,,,,,METAR,517.0
KS39 072155Z AUTO 29007G18KT 10SM CLR 31/M00 A2985 RMK AO2,KS39,2023-07-07T21:55:00Z,44.28,-120.9,31.0,0.0,290,7,18,10.0,29.84941,,,TRUE,TRUE,,,,,,,CLR,,,,,,,,VFR,,,,,,,,,,,,METAR,987.0
KS33 072155Z AUTO 26004KT 10SM CLR 32/01 A2984 RMK AO2,KS33,2023-07-07T21:55:00Z,44.67,-121.15,32.0,1.0,260,4,,10.0,29.840551,,,TRUE,TRUE,,,,,,,CLR,,,,,,,,VFR,,,,,,,,,,,,METAR,739.0
KS32 072155Z AUTO 01012G21KT 10SM FEW060 23/10 A2996 RMK AO2 TSNO,KS32,2023-07-07T21:55:00Z,47.42,-98.1,23.0,10.0,10,12,21,10.0,29.958662,,,TRUE,TRUE,,,TRUE,,,,FEW,6000,,,,,,,VFR,,,,,,,,,,,,METAR,435.0
KS25 072155Z AUTO 02014KT 10SM CLR 24/06 A3005 RMK AO2,KS25,2023-07-07T21:55:00Z,47.8,-103.25,24.0,6.0,20,14,,10.0,30.050198,,,TRUE,TRUE,,,,,,,CLR,,,,,,,,VFR,,,,,,,,,,,,METAR,632.0
KS24 072155Z AUTO 06007KT 030V090 10SM CLR 26/17 A2994 RMK AO2,KS24,2023-07-07T21:55:00Z,41.3,-83.03,26.0,17.0,60,7,,10.0,29.940945,,,TRUE,TRUE,,,,,,,CLR,,,,,,,,VFR,,,,,,,,,,,,METAR,203.0
KS21 072155Z AUTO 26010KT 240V300 10SM CLR 29/02 A2995 RMK AO2,KS21,2023-07-07T21:55:00Z,43.88,-121.45,29.0,2.0,260,10,,10.0,29.949802,,,TRUE,TRUE,,,,,,,CLR,,,,,,,,VFR,,,,,,,,,,,,METAR,1269.0
KS12 072155Z AUTO VRB05KT 10SM CLR 23/12 A2990 RMK AO2,KS12,2023-07-07T21:55:00Z,,,23.0,12.0,0,5,,10.0,29.899607,,,TRUE,TRUE,,,,,,,CLR,,,,,,,,VFR,,,,,,,,,,,,METAR,
KRZT 072155Z AUTO 28004KT 10SM CLR 29/13 A2992 RMK AO2 PWINO,KRZT,2023-07-07T21:55:00Z,39.43,-83.02,29.0,13.0,280,4,,10.0,29.920275,,,TRUE,TRUE,,,,,TRUE,,CLR,,,,,,,,VFR,,,,,,,,,,,,SPECI,217.0
KRZR 072155Z AUTO 36007KT 10SM FEW050 31/23 A2987 RMK A01,KRZR,2023-07-07T21:55:00Z,35.22,-84.8,31.0,23.0,360,7,,10.0,29.870079,,,TRUE,TRUE,,,,,,,FEW,5000,,,,,,,VFR,,,,,,,,,,,,METAR,259.0
KRZN 072155Z AUTO 23007KT 10SM CLR 23/10 A2996 RMK AO2 T02280099,KRZN,2023-07-07T21:55:00Z,45.82,-92.37,22.8,9.9,230,7,,10.0,29.958662,,,TRUE,TRUE,,,,,,,CLR,,,,,,,,VFR,,,,,,,,,,,,METAR,301.0
KRZL 072155Z AUTO 19005KT 10SM CLR 27/13 A2994 RMK AO2,KRZL,2023-07-07T21:55:00Z,40.95,-87.18,27.0,13.0,190,5,,10.0,29.940945,,,TRUE,TRUE,,,,,,,CLR,,,,,,,,VFR,,,,,,,,,,,,METAR,210.0
KRYW 072155Z AUTO 17009G14KT 10SM SCT042 SCT100 33/21 A2994 RMK AO2 T03300205,KRYW,2023-07-07T21:55:00Z,30.5,-97.97,33.0,20.5,170,9,14,10.0,29.940945,,,TRUE,TRUE,,,,,,,SCT,4200,SCT,10000,,,,,VFR,,,,,,,,,,,,METAR,370.0
KRYN 072155Z AUTO 32007G12KT 290V020 10SM CLR 41/02 A2976 RMK AO2,KRYN,2023-07-07T21:55:00Z,32.15,-111.17,41.0,2.0,320,7,12,10.0,29.760826,,,TRUE,TRUE,,,,,,,CLR,,,,,,,,VFR,,,,,,,,,,,,METAR,731.0
KRYM 072155Z AUTO 24008KT 10SM CLR 24/11 A2992 RMK AO2 LTG DSNT NW SLP134 T02420108 $,KRYM,2023-07-07T21:55:00Z,46.08,-94.37,24.2,10.8,240,8,,10.0,29.920275,1013.4,,TRUE,TRUE,TRUE,,,,,,CLR,,,,,,,,VFR,,,,,,,,,,,,METAR,344.0
KRWV 072155Z AUTO 18012G15KT 10SM BKN048 BKN050 32/21 A2993 RMK AO2 T03250207,KRWV,2023-07-07T21:55:00Z,30.52,-96.7,32.5,20.7,180,12,15,10.0,29.929134,,,TRUE,TRUE,,,,,,,BKN,4800,BKN,5000,,,,,VFR,,,,,,,,,,,,SPECI,116.0
KRVL 072155Z AUTO 36008KT 10SM FEW070 28/21 A2985 RMK AO2,KRVL,2023-07-07T21:55:00Z,40.68,-77.63,28.0,21.0,360,8,,10.0,29.84941,,,TRUE,TRUE,,,,,,,FEW,7000,,,,,,,VFR,,,,,,,,,,,,METAR,250.0
KRVJ 072155Z AUTO 27010G16KT 10SM CLR 35/21 A2982 RMK AO2 LTG DSNT ALQDS T03520209,KRVJ,2023-07-07T21:55:00Z,32.07,-82.15,35.2,20.9,270,10,16,10.0,29.819881,,,TRUE,TRUE,,,,,,,CLR,,,,,,,,VFR,,,,,,,,,,,,METAR,60.0
KRVF 072155Z AUTO 01012G19KT 10SM CLR 24/03 A3002 RMK AO2,KRVF,2023-07-07T21:55:00Z,45.53,-112.3,24.0,3.0,10,12,19,10.0,30.02067,,,TRUE,TRUE,,,,,,,CLR,,,,,,,,VFR,,,,,,,,,,,,METAR,1445.0
KRUG 072155Z AUTO 35013KT 10SM FEW060 FEW085 22/09 A2999 RMK AO2,KRUG,2023-07-07T21:55:00Z,48.38,-100.02,22.0,9.0,350,13,,10.0,29.991142,,,TRUE,TRUE,,,,,,,FEW,6000,FEW,8500,,,,,VFR,,,,,,,,,,,,METAR,469.0
KRTS 072155Z AUTO 26008G14KT 240V300 10SM FEW090 27/07 A2996 RMK AO2,KRTS,2023-07-07T21:55:00Z,39.67,-119.88,27.0,7.0,260,8,14,10.0,29.958662,,,TRUE,TRUE,,,,,,,FEW,9000,,,,,,,VFR,,,,,,,,,,,,METAR,1537.0
KRRT 072155Z AUTO 33013G17KT 10SM SCT070 SCT080 22/12 A2992 RMK AO2,KRRT,2023-07-07T21:55:00Z,48.93,-95.33,22.0,12.0,330,13,17,10.0,29.920275,,,TRUE,TRUE,,,,,,,SCT,7000,SCT,8000,,,,,VFR,,,,,,,,,,,,METAR,327.0
KRRL 072155Z AUTO 26007KT 10SM BKN060 22/11 A2995 RMK AO2 T02230111 TSNO,KRRL,2023-07-07T21:55:00Z,45.2,-89.72,22.3,11.1,260,7,,10.0,29.949802,,,TRUE,TRUE,,,TRUE,,,,BKN,6000,,,,,,,VFR,,,,,,,,,,,,METAR,397.0
KRQB 072155Z AUTO 24005KT 10SM CLR 25/09 A2995 RMK AO2 T02460085,KRQB,2023-07-07T21:55:00Z,43.72,-85.5,24.6,8.5,240,5,,10.0,29.949802,,,TRUE,TRUE,,,,,,,CLR,,,,,,,,VFR,,,,,,,,,,,,METAR,282.0
KRPJ 072155Z AUTO 24007KT 10SM SCT048 SCT050 BKN095 24/12 A2996 RMK AO2 T02350120 TSNO,KRPJ,2023-07-07T21:55:00Z,41.88,-89.08,23.5,12.0,240,7,,10.0,29.958662,,,TRUE,TRUE,,,TRUE,,,,SCT,4800,SCT,5000,BKN,9500,,,VFR,,,,,,,,,,,,SPECI,234.0
KRPH 072155Z AUTO 16012G20KT 120V200 10SM CLR 35/19 A2980 RMK AO2 T03460190 $,KRPH,2023-07-07T21:55:00Z,33.12,-98.55,34.6,19.0,160,12,20,10.0,29.799213,,,TRUE,TRUE,TRUE,,,,,,CLR,,,,,,,,VFR,,,,,,,,,,,,METAR,341.0
KRPD 072155Z AUTO 22006KT 7SM CLR 22/14 A2998 RMK AO2 T02170143,KRPD,2023-07-07T21:55:00Z,45.42,-91.77,21.7,14.3,220,6,,7.0,29.97933,,,TRUE,TRUE,,,,,,,CLR,,,,,,,,VFR,,,,,,,,,,,,METAR,334.0
KROX 072155Z AUTO 34009KT 10SM SCT070 SCT075 22/09 A2992 RMK AO2,KROX,2023-07-07T21:55:00Z,48.85,-95.7,22.0,9.0,340,9,,10.0,29.920275,,,TRUE,TRUE,,,,,,,SCT,7000,SCT,7500,,,,,VFR,,,,,,,,,,,,METAR,320.0
KROS 072155Z AUTO 23003KT 10SM OVC080 25/10 A2996 RMK AO2 T02460101,KROS,2023-07-07T21:55:00Z,45.7,-92.95,24.6,10.1,230,3,,10.0,29.958662,,,TRUE,TRUE,,,,,,,OVC,8000,,,,,,,VFR,,,,,,,,,,,,METAR,282.0
KRNO 072155Z 24011KT 10SM SCT090 33/06 A2989 RMK AO2 SLP055 T03280056,KRNO,2023-07-07T21:55:00Z,39.5,-119.77,32.8,5.6,240,11,,10.0,29.890747,1005.5,,,TRUE,,,,,,,SCT,9000,,,,,,,VFR,,,,,,,,,,,,METAR,1344.0
KRNH 072155Z AUTO 22005KT 10SM CLR 22/14 A2997 RMK AO2 T02150144,KRNH,2023-07-07T21:55:00Z,45.15,-92.53,21.5,14.4,220,5,,10.0,29.970472,,,TRUE,TRUE,,,,,,,CLR,,,,,,,,VFR,,,,,,,,,,,,METAR,302.0
KRND 072155Z AUTO 17009KT 7SM SCT046 BKN085 34/21 A2988 RMK AO2 SLP109 T03360207,KRND,2023-07-07T21:55:00Z,29.53,-98.27,33.6,20.7,170,9,,7.0,29.878937,1010.9,,TRUE,TRUE,,,,,,,SCT,4600,BKN,8500,,,,,VFR,,,,,,,,,,,,METAR,224.0
KRNC 072155Z AUTO 01007KT 10SM FEW047 30/20 A2991 RMK A01,KRNC,2023-07-07T21:55:00Z,35.7,-85.85,30.0,20.0,10,7,,10.0,29.911417,,,TRUE,TRUE,,,,,,,FEW,4700,,,,,,,VFR,,,,,,,,,,,,METAR,310.0
KRMY 072155Z AUTO 00000KT 10SM CLR 28/10 A2994 RMK AO2 T02780099,KRMY,2023-07-07T21:55:00Z,42.25,-84.95,27.8,9.9,0,0,,10.0,29.940945,,,TRUE,TRUE,,,,,,,CLR,,,,,,,,VFR,,,,,,,,,,,,METAR,285.0
KRMN 072155Z AUTO 14005KT 10SM CLR 29/21 A2982 RMK AO2 LTG DSNT SE AND W T02900210,KRMN,2023-07-07T21:55:00Z,38.4,-77.45,29.0,21.0,140,5,,10.0,29.819881,,,TRUE,TRUE,,,,,,,CLR,,,,,,,,VFR,,,,,,,,,,,,METAR,50.0
KRLD 072155Z AUTO 02003KT 10SM CLR 37/06 A2970 RMK AO2 T03680059,KRLD,2023-07-07T21:55:00Z,46.3,-119.3,36.8,5.9,20,3,,10.0,29.698818,,,TRUE,TRUE,,,,,,,CLR,,,,,,,,VFR,,,,,,,,,,,,METAR,118.0
KRKW 072155Z AUTO 02004KT 10SM CLR 29/19 A2994 RMK A01,KRKW,2023-07-07T21:55:00Z,35.92,-84.68,29.0,19.0,20,4,,10.0,29.940945,,,TRUE,TRUE,,,,,,,CLR,,,,,,,,VFR,,,,,,,,,,,,METAR,505.0
KRKR 072155Z AUTO 27006KT 10SM CLR 33/22 A2991 RMK AO2 LTG DSNT S,KRKR,2023-07-07T21:55:00Z,35.02,-94.62,33.0,22.0,270,6,,10.0,29.911417,,,TRUE,TRUE,,,,,,,CLR,,,,,,,,VFR,,,,,,,,,,,,METAR,136.0
KRIV 072155Z AUTO 32006KT 10SM CLR 30/11 A2982 RMK AO2 SLP086 T02980108,KRIV,2023-07-07T21:55:00Z,33.87,-117.23,29.8,10.8,320,6,,10.0,29.819881,1008.6,,TRUE,TRUE,,,,,,,CLR,,,,,,,,VFR,,,,,,,,,,,,METAR,454.0
KRID 072155Z AUTO 00000KT 10SM CLR 27/14 A2995 RMK AO2,KRID,2023-07-07T21:55:00Z,39.75,-84.85,27.0,14.0,0,0,,10.0,29.949802,,,TRUE,TRUE,,,,,,,CLR,,,,,,,,VFR,,,,,,,,,,,,METAR,346.0
KRGK 072155Z AUTO 29003KT 10SM CLR 23/09 A2993 RMK AO2,KRGK,2023-07-07T21:55:00Z,44.58,-92.48,23.0,9.0,290,3,,10.0,29.929134,,,TRUE,TRUE,,,,,,,CLR,,,,,,,,VFR,,,,,,,,,,,,METAR,238.0
KRGA 072155Z AUTO 32005KT 10SM CLR 31/18 A2994 RMK AO2,KRGA,2023-07-07T21:55:00Z,37.63,-84.33,31.0,18.0,320,5,,10.0,29.940945,,,TRUE,TRUE,,,,,,,CLR,,,,,,,,VFR,,,,,,,,,,,,SPECI,301.0
KRFI 072155Z AUTO 21004KT 10SM SCT050 SCT065 35/22 A2991 RMK AO2 T03470222,KRFI,2023-07-07T21:55:00Z,32.15,-94.85,34.7,22.2,210,4,,10.0,29.911417,,,TRUE,TRUE,,,,,,,SCT,5000,SCT,6500,,,,,VFR,,,,,,,,,,,,METAR,133.0
KREG 072155Z AUTO 21006KT 10SM CLR 33/23 A2993 RMK AO2 T03330230,KREG,2023-07-07T21:55:00Z,30.17,-90.93,33.3,23.0,210,6,,10.0,29.929134,,,TRUE,TRUE,,,,,,,CLR,,,,,,,,VFR,,,,,,,,,,,,METAR,3.0
KRDR 072155Z 01013KT 10SM FEW055 23/10 A2992 RMK AO2A SLP135 T02310095 VISNO RWY17 $,KRDR,2023-07-07T21:55:00Z,47.93,-97.4,23.1,9.5,10,13,,10.0,29.920275,1013.5,,,TRUE,TRUE,,,,,,FEW,5500,,,,,,,VFR,,,,,,,,,,,,METAR,276.0
KRDK 072155Z AUTO 08004KT 10SM BKN022 OVC050 21/17 A2992 RMK AO2,KRDK,2023-07-07T21:55:00Z,41.02,-95.27,21.0,17.0,80,4,,10.0,29.920275,,,TRUE,TRUE,,,,,,,BKN,2200,OVC,5000,,,,,MVFR,,,,,,,,,,,,METAR,317.0
KRCX 072155Z AUTO 20005KT 10SM CLR 22/15 A2998 RMK AO2 T02170150,KRCX,2023-07-07T21:55:00Z,45.5,-91.0,21.7,15.0,200,5,,10.0,29.97933,,,TRUE,TRUE,,,,,,,CLR,,,,,,,,VFR,,,,,,,,,,,,METAR,373.0
KRCV 072155Z AUTO 26023G30KT CLR 30/M03 A3015 RMK AO2 T02981034 PWINO,KRCV,2023-07-07T21:55:00Z,37.72,-106.35,29.8,-3.4,260,23,30,,30.15059,,,TRUE,TRUE,,,,,TRUE,,CLR,,,,,,,,,,,,,,,,,,,,METAR,2418.0
KRCR 072155Z AUTO 00000G11KT 10SM CLR 28/16 A2993 RMK AO2,KRCR,2023-07-07T21:55:00Z,41.07,-86.18,28.0,16.0,0,0,11,10.0,29.929134,,,TRUE,TRUE,,,,,,,CLR,,,,,,,,VFR,,,,,,,,,,,,SPECI,240.0
KRCE 072155Z AUTO 11010G17KT 28/20 RMK AO2 TSNO,KRCE,2023-07-07T21:55:00Z,35.48,-97.82,28.0,20.0,110,10,17,,,,,TRUE,TRUE,,,TRUE,,,,,,,,,,,,,,,,,,,,,,,,METAR,412.0
KRCA 072155Z AUTO 03007KT 10SM CLR 24/09 A3001 RMK AO2 SLP150 T02370089 $,KRCA,2023-07-07T21:55:00Z,44.15,-103.12,23.7,8.9,30,7,,10.0,30.008858,1015.0,,TRUE,TRUE,TRUE,,,,,,CLR,,,,,,,,VFR,,,,,,,,,,,,METAR,993.0
KRBW 072155Z AUTO 23007KT 10SM SCT055 34/21 A2981 RMK AO2 LTG DSNT NE SW AND NW,KRBW,2023-07-07T21:55:00Z,32.92,-80.63,34.0,21.0,230,7,,10.0,29.811024,,,TRUE,TRUE,,,,,,,SCT,5500,,,,,,,VFR,,,,,,,,,,,,METAR,30.0
KRBO 072155Z AUTO 16009KT 10SM SCT036 SCT043 32/24 A2991 RMK AO2 LTG DSNT S T03170235,KRBO,2023-07-07T21:55:00Z,27.78,-97.68,31.7,23.5,160,9,,10.0,29.911417,,,TRUE,TRUE,,,,,,,SCT,3600,SCT,4300,,,,,VFR,,,,,,,,,,,,METAR,24.0
KRAW 072155Z AUTO 29004KT 10SM CLR 30/18 A2988 RMK AO2,KRAW,2023-07-07T21:55:00Z,38.35,-93.35,30.0,18.0,290,4,,10.0,29.878937,,,TRUE,TRUE,,,,,,,CLR,,,,,,,,VFR,,,,,,,,,,,,METAR,285.0
KRAS 072155Z AUTO 10010KT 10SM CLR 30/25 A2992 RMK AO2 LTG DSNT SW T02960253,KRAS,2023-07-07T21:55:00Z,27.82,-97.08,29.6,25.3,100,10,,10.0,29.920275,,,TRUE,TRUE,,,,,,,CLR,,,,,,,,VFR,,,,,,,,,,,,METAR,3.0
KQVF 072155Z AUTO 15005KT 9999 SCT023 BKN050 25/22 A3006 RMK AO2 SLP182 WND DATA ESTMD T02490217,KQVF,2023-07-07T21:55:00Z,,,24.9,21.7,150,5,,6.21,30.059055,1018.2,,TRUE,TRUE,,,,,,,SCT,2300,BKN,5000,,,,,VFR,,,,,,,,,,,,METAR,
KQTZ 072155Z 03001KT 9999 SKC 34/03 A2949 RMK SLP983 WND DATA ESTMD ALSTG/SLP ESTMD,KQTZ,2023-07-07T21:55:00Z,,,34.0,3.0,30,1,,6.21,29.489174,998.3,,,,,,,,,,SKC,,,,,,,,VFR,,,,,,,,,,,,METAR,
KQRH 072155Z AUTO VRB03KT 9999 CLR 33/25 A2960 RMK AO2 SLP026 WND DATA ESTMD T03270253,KQRH,2023-07-07T21:55:00Z,,,32.7,25.3,0,3,,6.21,29.601377,1002.6,,TRUE,TRUE,,,,,,,CLR,,,,,,,,VFR,,,,,,,,,,,,METAR,
KQDG 072155Z AUTO 36003KT 9999 BKN190 21/20 A2972 RMK AO2 SLP066 T02140202 $,KQDG,2023-07-07T21:55:00Z,,,21.4,20.2,360,3,,6.21,29.719488,1006.6,,TRUE,TRUE,TRUE,,,,,,BKN,19000,,,,,,,VFR,,,,,,,,,,,,METAR,
KQD3 072155Z AUTO VRB03KT 9999 CLR 33/23 A2966 RMK AO2 SLP028 WND DATA ESTMD T03310234,KQD3,2023-07-07T21:55:00Z,,,33.1,23.4,0,3,,6.21,29.660433,1002.8,,TRUE,TRUE,,,,,,,CLR,,,,,,,,VFR,,,,,,,,,,,,METAR,
KQBR 072155Z AUTO VRB04KT 10SM BKN150 32/04 A2988 RMK AO2 LTG DSNT N SLP988 WND DATA ESTMD T03240043,KQBR,2023-07-07T21:55:00Z,,,32.4,4.3,0,4,,10.0,29.878937,998.8,,TRUE,TRUE,,,,,,,BKN,15000,,,,,,,VFR,,,,,,,,,,,,METAR,
KQBL 072155Z AUTO 24007KT 000V290 10SM FEW190 29/25 A2991 RMK AO2 LTG DSNT W-NW SLP134 WND DATA ESTMD T02910245,KQBL,2023-07-07T21:55:00Z,,,29.1,24.5,240,7,,10.0,29.911417,1013.4,,TRUE,TRUE,,,,,,,FEW,19000,,,,,,,VFR,,,,,,,,,,,,METAR,
KQAZ 072155Z AUTO 00000KT 9999 CLR 34/08 A2987 RMK AO2 SLP105 WND DATA ESTMD T03380080,KQAZ,2023-07-07T21:55:00Z,,,33.8,8.0,0,0,,6.21,29.870079,1010.5,,TRUE,TRUE,,,,,,,CLR,,,,,,,,VFR,,,,,,,,,,,,METAR,
KPZZ 072155Z AUTO 10005KT 10SM CLR 31/24 A2997 RMK A01,KPZZ,2023-07-07T21:55:00Z,28.43,-91.03,31.0,24.0,100,5,,10.0,29.970472,,,TRUE,TRUE,,,,,,,CLR,,,,,,,,VFR,,,,,,,,,,,,METAR,25.0
KPZQ 072155Z AUTO 36008KT 7SM CLR 22/12 A2994 RMK AO2 T02190121,KPZQ,2023-07-07T21:55:00Z,45.4,-83.82,21.9,12.1,360,8,,7.0,29.940945,,,TRUE,TRUE,,,,,,,CLR,,,,,,,,VFR,,,,,,,,,,,,METAR,199.0
KPYX 072155Z AUTO 15015G20KT 10SM CLR 27/18 A2986 RMK AO2 T02680182,KPYX,2023-07-07T21:55:00Z,36.42,-100.75,26.8,18.2,150,15,20,10.0,29.861221,,,TRUE,TRUE,,,,,,,CLR,,,,,,,,VFR,,,,,,,,,,,,METAR,890.0
KPXE 072155Z AUTO 34007KT 10SM VCTS SCT049 BKN100 28/24 A2987 RMK AO2 LTG DSNT E THRU W T02800237,KPXE,2023-07-07T21:55:00Z,32.52,-83.77,28.0,23.7,340,7,,10.0,29.870079,,,TRUE,TRUE,,,,,,VCTS,SCT,4900,BKN,10000,,,,,VFR,,,,,,,,,,,,SPECI,126.0
KPWD 072155Z AUTO 36010KT 10SM FEW075 SCT100 25/06 A3005 RMK AO2,KPWD,2023-07-07T21:55:00Z,48.78,-104.52,25.0,6.0,360,10,,10.0,30.050198,,,TRUE,TRUE,,,,,,,FEW,7500,SCT,10000,,,,,VFR,,,,,,,,,,,,METAR,690.0
KPWC 072155Z AUTO 31007KT 7SM +RA SCT020 SCT032 OVC050 16/13 A3002 RMK AO2 LTG DSNT NE AND W P0005,KPWC,2023-07-07T21:55:00Z,46.72,-94.38,16.0,13.0,310,7,,7.0,30.02067,,,TRUE,TRUE,,,,,,+RA,SCT,2000,SCT,3200,OVC,5000,,,VFR,,,,,,0.05,,,,,,METAR,394.0
KPVW 072155Z AUTO 17020G27KT 10SM CLR 32/18 A2988 RMK AO2 T03170178,KPVW,2023-07-07T21:55:00Z,34.17,-101.72,31.7,17.8,170,20,27,10.0,29.878937,,,TRUE,TRUE,,,,,,,CLR,,,,,,,,VFR,,,,,,,,,,,,METAR,1029.0
KPVJ 072155Z AUTO 06007KT 10SM CLR 29/23 A2989 RMK AO2 T02890225,KPVJ,2023-07-07T21:55:00Z,34.72,-97.22,28.9,22.5,60,7,,10.0,29.890747,,,TRUE,TRUE,,,,,,,CLR,,,,,,,,VFR,,,,,,,,,,,,METAR,287.0
KPVF 072155Z AUTO 25004KT 10SM CLR 27/08 A2993 RMK AO1,KPVF,2023-07-07T21:55:00Z,38.72,-120.75,27.0,8.0,250,4,,10.0,29.929134,,,TRUE,TRUE,,,,,,,CLR,,,,,,,,VFR,,,,,,,,,,,,METAR,788.0
KPVE 072155Z AUTO 00000KT 10SM CLR 30/18 A2993 RMK A01,KPVE,2023-07-07T21:55:00Z,35.65,-88.2,30.0,18.0,0,0,,10.0,29.929134,,,TRUE,TRUE,,,,,,,CLR,,,,,,,,VFR,,,,,,,,,,,,METAR,146.0
KPVB 072155Z AUTO 22008KT 10SM SCT048 BKN065 OVC080 19/12 A2998 RMK AO1 P0001 T01890121,KPVB,2023-07-07T21:55:00Z,42.68,-90.43,18.9,12.1,220,8,,10.0,29.97933,,,TRUE,TRUE,,,,,,,SCT,4800,BKN,6500,OVC,8000,,,VFR,,,,,,0.01,,,,,,METAR,311.0
KPTT 072155Z AUTO 11009KT 10SM SCT048 OVC055 24/22 A2994 RMK AO2 LTG DSNT E AND SE T02370221,KPTT,2023-07-07T21:55:00Z,37.7,-98.75,23.7,22.1,110,9,,10.0,29.940945,,,TRUE,TRUE,,,,,,,SCT,4800,OVC,5500,,,,,VFR,,,,,,,,,,,,SPECI,594.0
KPTS 072155Z AUTO 26006KT 10SM BKN028 BKN039 BKN050 29/22 A2989 RMK AO2 T02880217 PWINO,KPTS,2023-07-07T21:55:00Z,37.45,-94.73,28.8,21.7,260,6,,10.0,29.890747,,,TRUE,TRUE,,,,,TRUE,,BKN,2800,BKN,3900,BKN,5000,,,MVFR,,,,,,,,,,,,METAR,286.0
KPTD 072155Z AUTO 00000KT 10SM CLR 26/19 A2985 RMK AO2,KPTD,2023-07-07T21:55:00Z,44.68,-74.95,26.0,19.0,0,0,,10.0,29.84941,,,TRUE,TRUE,,,,,,,CLR,,,,,,,,VFR,,,,,,,,,,,,METAR,144.0
KPTB 072155Z AUTO 00000KT 10SM CLR 27/23 A2983 RMK AO2 T02660226,KPTB,2023-07-07T21:55:00Z,37.17,-77.52,26.6,22.6,0,0,,10.0,29.828741,,,TRUE,TRUE,,,,,,,CLR,,,,,,,,VFR,,,,,,,,,,,,METAR,56.0
KPSO 072155Z AUTO 23010G26KT 10SM SCT120 29/M02 A3017 RMK AO2 T02881017,KPSO,2023-07-07T21:55:00Z,37.28,-107.05,28.8,-1.7,230,10,26,10.0,30.171259,,,TRUE,TRUE,,,,,,,SCT,12000,,,,,,,VFR,,,,,,,,,,,,METAR,2332.0
KPSN 072155Z AUTO 16007G13KT 130V210 10SM CLR 33/21 A2990 RMK AO2,KPSN,2023-07-07T21:55:00Z,31.78,-95.7,33.0,21.0,160,7,13,10.0,29.899607,,,TRUE,TRUE,,,,,,,CLR,,,,,,,,VFR,,,,,,,,,,,,METAR,124.0
KPSM 072155Z 14012KT 10SM FEW030 FEW180 BKN250 26/21 A2981 RMK AO2A SLP097 T02610213,KPSM,2023-07-07T21:55:00Z,43.08,-70.82,26.1,21.3,140,12,,10.0,29.811024,1009.7,,,TRUE,,,,,,,FEW,3000,FEW,18000,BKN,25000,,,VFR,,,,,,,,,,,,METAR,34.0
KPSK 072155Z AUTO 33007KT 310V010 10SM CLR 28/18 A2993 RMK AO2 T02810177,KPSK,2023-07-07T21:55:00Z,37.13,-80.67,28.1,17.7,330,7,,10.0,29.929134,,,TRUE,TRUE,,,,,,,CLR,,,,,,,,VFR,,,,,,,,,,,,METAR,629.0
KPRS 072155Z AUTO 05005G15KT 10SM CLR 39/17 A2986 RMK AO2 T03920172,KPRS,2023-07-07T21:55:00Z,29.63,-104.35,39.2,17.2,50,5,15,10.0,29.861221,,,TRUE,TRUE,,,,,,,CLR,,,,,,,,VFR,,,,,,,,,,,,METAR,890.0
KPRO 072155Z AUTO 08004KT 10SM -RA OVC027 17/15 A2997 RMK AO2 P0002 T01700145,KPRO,2023-07-07T21:55:00Z,41.83,-94.17,17.0,14.5,80,4,,10.0,29.970472,,,TRUE,TRUE,,,,,,-RA,OVC,2700,,,,,,,MVFR,,,,,,0.02,,,,,,METAR,308.0
KPPQ 072155Z AUTO 00000KT 10SM OVC080 26/18 A2996 RMK AO2 LTG DSNT NW T02570178,KPPQ,2023-07-07T21:55:00Z,39.63,-90.78,25.7,17.8,0,0,,10.0,29.958662,,,TRUE,TRUE,,,,,,,OVC,8000,,,,,,,VFR,,,,,,,,,,,,SPECI,215.0
KPPO 072155Z AUTO 19003KT 10SM CLR 26/14 A2993 RMK AO2 T02640137,KPPO,2023-07-07T21:55:00Z,41.57,-86.73,26.4,13.7,190,3,,10.0,29.929134,,,TRUE,TRUE,,,,,,,CLR,,,,,,,,VFR,,,,,,,,,,,,SPECI,242.0
KPOY 072155Z AUTO 17004KT 10SM SCT060 22/03 A3010 RMK AO2 LTG DSNT W,KPOY,2023-07-07T21:55:00Z,44.87,-108.8,22.0,3.0,170,4,,10.0,30.100393,,,TRUE,TRUE,,,,,,,SCT,6000,,,,,,,VFR,,,,,,,,,,,,METAR,1547.0
KPOV 072155Z AUTO 35007KT 310V010 10SM CLR 25/13 A2995 RMK AO2 T02450129 PWINO,KPOV,2023-07-07T21:55:00Z,41.22,-81.25,24.5,12.9,350,7,,10.0,29.949802,,,TRUE,TRUE,,,,,TRUE,,CLR,,,,,,,,VFR,,,,,,,,,,,,METAR,363.0
KPOE 072155Z AUTO 19014KT 10SM FEW095 31/21 A2992 RMK AO2 SLP131 T03060214,KPOE,2023-07-07T21:55:00Z,31.05,-93.2,30.6,21.4,190,14,,10.0,29.920275,1013.1,,TRUE,TRUE,,,,,,,FEW,9500,,,,,,,VFR,,,,,,,,,,,,METAR,98.0
KPOB 072155Z AUTO 26008KT 10SM CLR 30/21 A2979 RMK AO2 LTG DSNT SE SLP089 T02980214 $,KPOB,2023-07-07T21:55:00Z,35.17,-79.02,29.8,21.4,260,8,,10.0,29.790354,1008.9,,TRUE,TRUE,TRUE,,,,,,CLR,,,,,,,,VFR,,,,,,,,,,,,METAR,57.0
KPO1 072155Z AUTO 05009KT 10SM FEW090 26/06 A3004 RMK AO2,KPO1,2023-07-07T21:55:00Z,48.13,-105.17,26.0,6.0,50,9,,10.0,30.041338,,,TRUE,TRUE,,,,,,,FEW,9000,,,,,,,VFR,,,,,,,,,,,,METAR,621.0
KPNT 072155Z AUTO 24007KT 10SM OVC110 26/14 A2995 RMK AO2 T02570135,KPNT,2023-07-07T21:55:00Z,40.92,-88.62,25.7,13.5,240,7,,10.0,29.949802,,,TRUE,TRUE,,,,,,,OVC,11000,,,,,,,VFR,,,,,,,,,,,,SPECI,199.0
KPNM 072155Z AUTO 19004KT 10SM CLR 24/10 A2996 RMK AO2,KPNM,2023-07-07T21:55:00Z,45.53,-93.6,24.0,10.0,190,4,,10.0,29.958662,,,TRUE,TRUE,,,,,,,CLR,,,,,,,,VFR,,,,,,,,,,,,METAR,298.0
KPNA 072155Z AUTO 27006KT 7SM SCT060 SCT070 OVC085 19/02 A3016 RMK AO2 LTG DSNT N S AND SW,KPNA,2023-07-07T21:55:00Z,42.8,-109.8,19.0,2.0,270,6,,7.0,30.159449,,,TRUE,TRUE,,,,,,,SCT,6000,SCT,7000,OVC,8500,,,VFR,,,,,,,,,,,,SPECI,2158.0
KPMV 072155Z AUTO 06005KT 10SM -RA OVC025 20/18 A2990 RMK AO2 T02000175,KPMV,2023-07-07T21:55:00Z,40.95,-95.92,20.0,17.5,60,5,,10.0,29.899607,,,TRUE,TRUE,,,,,,-RA,OVC,2500,,,,,,,MVFR,,,,,,,,,,,,METAR,365.0
KPMU 072155Z AUTO 26006KT 10SM CLR 31/22 A2990 RMK AO2,KPMU,2023-07-07T21:55:00Z,34.37,-89.9,31.0,22.0,260,6,,10.0,29.899607,,,TRUE,TRUE,,,,,,,CLR,,,,,,,,VFR,,,,,,,,,,,,METAR,67.0
KPLU 072155Z AUTO VRB04KT 10SM CLR 22/13 A2991 RMK AO2,KPLU,2023-07-07T21:55:00Z,47.1,-122.28,22.0,13.0,0,4,,10.0,29.911417,,,TRUE,TRUE,,,,,,,CLR,,,,,,,,VFR,,,,,,,,,,,,METAR,164.0
KPLR 072155Z AUTO 00000KT 10SM CLR 27/25 A2990 RMK A01,KPLR,2023-07-07T21:55:00Z,33.57,-86.25,27.0,25.0,0,0,,10.0,29.899607,,,TRUE,TRUE,,,,,,,CLR,,,,,,,,VFR,,,,,,,,,,,,METAR,145.0
KPLD 072155Z AUTO 22003KT 7SM SCT060 28/12 A2993 RMK AO2,KPLD,2023-07-07T21:55:00Z,40.45,-84.98,28.0,12.0,220,3,,7.0,29.929134,,,TRUE,TRUE,,,,,,,SCT,6000,,,,,,,VFR,,,,,,,,,,,,METAR,282.0
KPKV 072155Z AUTO 15007G14KT 10SM CLR 33/25 A2992 RMK AO2 T03260245,KPKV,2023-07-07T21:55:00Z,28.65,-96.68,32.6,24.5,150,7,14,10.0,29.920275,,,TRUE,TRUE,,,,,,,CLR,,,,,,,,VFR,,,,,,,,,,,,METAR,8.0
KPJC 072155Z AUTO 31006KT 10SM SCT045 26/16 A2991 RMK AO2,KPJC,2023-07-07T21:55:00Z,40.8,-80.17,26.0,16.0,310,6,,10.0,29.911417,,,TRUE,TRUE,,,,,,,SCT,4500,,,,,,,VFR,,,,,,,,,,,,METAR,273.0
KPIM 072155Z AUTO 00000KT 10SM SCT110 26/22 A2991 RMK AO2 LTG DSNT SE T02550223,KPIM,2023-07-07T21:55:00Z,32.83,-84.88,25.5,22.3,0,0,,10.0,29.911417,,,TRUE,TRUE,,,,,,,SCT,11000,,,,,,,VFR,,,,,,,,,,,,SPECI,274.0
KPHT 072155Z AUTO 00000KT 10SM BKN043 BKN055 30/21 A2992 RMK A01,KPHT,2023-07-07T21:55:00Z,36.33,-88.38,30.0,21.0,0,0,,10.0,29.920275,,,TRUE,TRUE,,,,,,,BKN,4300,BKN,5500,,,,,VFR,,,,,,,,,,,,METAR,172.0
KPHP 072155Z AUTO 00000KT 10SM CLR 24/11 A2998 RMK AO2 SLP133 T02440111,KPHP,2023-07-07T21:55:00Z,44.05,-101.6,24.4,11.1,0,0,,10.0,29.97933,1013.3,,TRUE,TRUE,,,,,,,CLR,,,,,,,,VFR,,,,,,,,,,,,METAR,673.0
KPHN 072155Z AUTO 01007KT 10SM CLR 23/12 A2995 RMK AO2,KPHN,2023-07-07T21:55:00Z,42.92,-82.52,23.0,12.0,10,7,,10.0,29.949802,,,TRUE,TRUE,,,,,,,CLR,,,,,,,,VFR,,,,,,,,,,,,METAR,195.0
KPEZ 072155Z AUTO 15010KT 100V170 10SM SCT048 SCT060 BKN080 34/22 A2989 RMK AO2 T03410219,KPEZ,2023-07-07T21:55:00Z,28.95,-98.52,34.1,21.9,150,10,,10.0,29.890747,,,TRUE,TRUE,,,,,,,SCT,4800,SCT,6000,BKN,8000,,,VFR,,,,,,,,,,,,METAR,126.0
KPEX 072155Z AUTO 24007KT 10SM CLR 23/11 A2996 RMK AO2,KPEX,2023-07-07T21:55:00Z,45.37,-94.73,23.0,11.0,240,7,,10.0,29.958662,,,TRUE,TRUE,,,,,,,CLR,,,,,,,,VFR,,,,,,,,,,,,METAR,359.0
KPEQ 072155Z AUTO 11019G25KT 10SM CLR 38/16 A2983 RMK AO2 T03790159,KPEQ,2023-07-07T21:55:00Z,31.38,-103.52,37.9,15.9,110,19,25,10.0,29.828741,,,TRUE,TRUE,,,,,,,CLR,,,,,,,,VFR,,,,,,,,,,,,SPECI,794.0
KPEA 072155Z AUTO 10005KT 10SM SCT019 BKN110 19/15 A2997 RMK AO2 T01920147,KPEA,2023-07-07T21:55:00Z,41.4,-92.95,19.2,14.7,100,5,,10.0,29.970472,,,TRUE,TRUE,,,,,,,SCT,1900,BKN,11000,,,,,VFR,,,,,,,,,,,,METAR,264.0
KPDC 072155Z AUTO 00000KT 10SM OVC100 21/10 A2996 RMK AO2 T02120096,KPDC,2023-07-07T21:55:00Z,43.02,-91.12,21.2,9.6,0,0,,10.0,29.958662,,,TRUE,TRUE,,,,,,,OVC,10000,,,,,,,VFR,,,,,,,,,,,,METAR,201.0
KPCZ 072155Z AUTO 17004KT 10SM CLR 25/06 A2995 RMK AO2 T02500058,KPCZ,2023-07-07T21:55:00Z,44.33,-89.02,25.0,5.8,170,4,,10.0,29.949802,,,TRUE,TRUE,,,,,,,CLR,,,,,,,,VFR,,,,,,,,,,,,METAR,248.0
KPCW 072155Z AUTO 15008KT 10SM CLR 25/18 A2994 RMK AO2,KPCW,2023-07-07T21:55:00Z,41.52,-82.87,25.0,18.0,150,8,,10.0,29.940945,,,TRUE,TRUE,,,,,,,CLR,,,,,,,,VFR,,,,,,,,,,,,METAR,179.0
KPCM 072155Z AUTO 00000KT 10SM SCT028 SCT050 BKN120 26/25 A2995 RMK AO2 P0083,KPCM,2023-07-07T21:55:00Z,28.0,-82.17,26.0,25.0,0,0,,10.0,29.949802,,,TRUE,TRUE,,,,,,,SCT,2800,SCT,5000,BKN,12000,,,VFR,,,,,,0.83,,,,,,METAR,43.0
KPCD 072155Z AUTO 17007KT 10SM SCT080 31/21 A2989 RMK AO2 T03140212,KPCD,2023-07-07T21:55:00Z,37.87,-89.87,31.4,21.2,170,7,,10.0,29.890747,,,TRUE,TRUE,,,,,,,SCT,8000,,,,,,,VFR,,,,,,,,,,,,METAR,112.0
KPBX 072155Z AUTO 31004KT 10SM CLR 27/20 A2995 RMK AO2 T02710201,KPBX,2023-07-07T21:55:00Z,37.57,-82.57,27.1,20.1,310,4,,10.0,29.949802,,,TRUE,TRUE,,,,,,,CLR,,,,,,,,VFR,,,,,,,,,,,,METAR,447.0
KPBH 072155Z AUTO 24005KT 10SM SCT060 SCT090 21/12 A2997 RMK AO2 T02100119,KPBH,2023-07-07T21:55:00Z,45.7,-90.4,21.0,11.9,240,5,,10.0,29.970472,,,TRUE,TRUE,,,,,,,SCT,6000,SCT,9000,,,,,VFR,,,,,,,,,,,,METAR,445.0
KPAN 072155Z AUTO 24015KT 10SM CLR 34/M01 A3005 RMK AO2 PWINO TSNO,KPAN,2023-07-07T21:55:00Z,34.25,-111.33,34.0,-1.0,240,15,,10.0,30.050198,,,TRUE,TRUE,,,TRUE,,TRUE,,CLR,,,,,,,,VFR,,,,,,,,,,,,METAR,1575.0
KPAM 072155Z 25014KT 10SM FEW030 FEW100 31/24 A2989 RMK AO2A LTG DSNT S SLP125 T03120238 $,KPAM,2023-07-07T21:55:00Z,30.07,-85.57,31.2,23.8,250,14,,10.0,29.890747,1012.5,,,TRUE,TRUE,,,,,,FEW,3000,FEW,10000,,,,,VFR,,,,,,,,,,,,METAR,4.0
KP58 072155Z AUTO 05006KT 22/13 A2994 RMK AO1 SLP134 T02220133,KP58,2023-07-07T21:55:00Z,44.02,-82.8,22.2,13.3,50,6,,,29.940945,1013.4,,TRUE,TRUE,,,,,,,,,,,,,,,,,,,,,,,,,,,SPECI,180.0
KP52 072155Z AUTO 18009G20KT 10SM CLR 37/M01 A2987 RMK AO2,KP52,2023-07-07T21:55:00Z,34.73,-112.03,37.0,-1.0,180,9,20,10.0,29.870079,,,TRUE,TRUE,,,,,,,CLR,,,,,,,,VFR,,,,,,,,,,,,METAR,1085.0
KP08 072155Z AUTO VRB05KT 10SM CLR 42/02 A2972 RMK AO2,KP08,2023-07-07T21:55:00Z,32.93,-111.43,42.0,2.0,0,5,,10.0,29.719488,,,TRUE,TRUE,,,,,,,CLR,,,,,,,,VFR,,,,,,,,,,,,METAR,477.0
KOZW 072155Z AUTO 03007KT 10SM CLR 25/10 A2996 RMK AO2 T02520104,KOZW,2023-07-07T21:55:00Z,42.62,-83.98,25.2,10.4,30,7,,10.0,29.958662,,,TRUE,TRUE,,,,,,,CLR,,,,,,,,VFR,,,,,,,,,,,,METAR,288.0
KOZS 072155Z AUTO 27005KT 10SM SCT090 31/15 A2988 RMK AO2 LTG DSNT E,KOZS,2023-07-07T21:55:00Z,37.97,-92.68,31.0,15.0,270,5,,10.0,29.878937,,,TRUE,TRUE,,,,,,,SCT,9000,,,,,,,VFR,,,,,,,,,,,,METAR,321.0
KOZR 072155Z AUTO 27010KT 10SM FEW040 33/22 A2987 RMK AO2 LTG DSNT E AND S-SW SLP114 T03280222 $,KOZR,2023-07-07T21:55:00Z,31.28,-85.72,32.8,22.2,270,10,,10.0,29.870079,1011.4,,TRUE,TRUE,TRUE,,,,,,FEW,4000,,,,,,,VFR,,,,,,,,,,,,METAR,90.0
KOYM 072155Z AUTO 35006KT 10SM SCT029 BKN035 OVC048 25/18 A2997 RMK AO2 PWINO,KOYM,2023-07-07T21:55:00Z,41.42,-78.5,25.0,18.0,350,6,,10.0,29.970472,,,TRUE,TRUE,,,,,TRUE,,SCT,2900,BKN,3500,OVC,4800,,,VFR,,,,,,,,,,,,METAR,582.0
KOXI 072155Z AUTO 20004KT 10SM CLR 27/10 A2992 RMK AO1,KOXI,2023-07-07T21:55:00Z,41.33,-86.67,27.0,10.0,200,4,,10.0,29.920275,,,TRUE,TRUE,,,,,,,CLR,,,,,,,,VFR,,,,,,,,,,,,METAR,208.0
KOWX 072155Z AUTO 00000KT 10SM SCT070 28/12 A2994 RMK AO1,KOWX,2023-07-07T21:55:00Z,41.03,-83.98,28.0,12.0,0,0,,10.0,29.940945,,,TRUE,TRUE,,,,,,,SCT,7000,,,,,,,VFR,,,,,,,,,,,,SPECI,232.0
KOWP 072155Z AUTO 23003KT 10SM CLR 25/23 A2991 RMK AO2 T02510233,KOWP,2023-07-07T21:55:00Z,36.18,-96.15,25.1,23.3,230,3,,10.0,29.911417,,,TRUE,TRUE,,,,,,,CLR,,,,,,,,VFR,,,,,,,,,,,,METAR,267.0
KOWI 072155Z AUTO 20006KT 10SM FEW029 29/21 A2986 RMK AO2 PWINO,KOWI,2023-07-07T21:55:00Z,38.53,-95.25,29.0,21.0,200,6,,10.0,29.861221,,,TRUE,TRUE,,,,,TRUE,,FEW,2900,,,,,,,VFR,,,,,,,,,,,,METAR,292.0
KOVL 072155Z AUTO 23010KT 10SM CLR 20/13 A2996 RMK AO2,KOVL,2023-07-07T21:55:00Z,44.78,-95.03,20.0,13.0,230,10,,10.0,29.958662,,,TRUE,TRUE,,,,,,,CLR,,,,,,,,VFR,,,,,,,,,,,,METAR,329.0
KOSC 072155Z AUTO 10007KT 10SM CLR 24/12 A2993 RMK AO2 T02350120,KOSC,2023-07-07T21:55:00Z,44.45,-83.4,23.5,12.0,100,7,,10.0,29.929134,,,TRUE,TRUE,,,,,,,CLR,,,,,,,,VFR,,,,,,,,,,,,METAR,191.0
KOSA 072155Z AUTO 22004KT 10SM SCT048 33/23 A2990 RMK AO2 T03300227,KOSA,2023-07-07T21:55:00Z,33.1,-94.97,33.0,22.7,220,4,,10.0,29.899607,,,TRUE,TRUE,,,,,,,SCT,4800,,,,,,,VFR,,,,,,,,,,,,METAR,108.0
KORS 072155Z AUTO 16012G17KT 10SM CLR 19/12 A2985 RMK AO2,KORS,2023-07-07T21:55:00Z,48.7,-122.92,19.0,12.0,160,12,17,10.0,29.84941,,,TRUE,TRUE,,,,,,,CLR,,,,,,,,VFR,,,,,,,,,,,,METAR,7.0
KORK 072155Z AUTO 25005KT 10SM SCT028 BKN036 BKN043 30/24 A2991 RMK AO2,KORK,2023-07-07T21:55:00Z,34.83,-92.25,30.0,24.0,250,5,,10.0,29.911417,,,TRUE,TRUE,,,,,,,SCT,2800,BKN,3600,BKN,4300,,,VFR,,,,,,,,,,,,METAR,166.0
KORG 072155Z AUTO 18010G15KT 10SM CLR 34/23 A2995 RMK AO2 T03350231,KORG,2023-07-07T21:55:00Z,30.07,-93.8,33.5,23.1,180,10,15,10.0,29.949802,,,TRUE,TRUE,,,,,,,CLR,,,,,,,,VFR,,,,,,,,,,,,METAR,2.0
KOQN 072155Z AUTO 29003KT 10SM CLR 26/22 A2983 RMK AO2,KOQN,2023-07-07T21:55:00Z,39.98,-75.58,26.0,22.0,290,3,,10.0,29.828741,,,TRUE,TRUE,,,,,,,CLR,,,,,,,,VFR,,,,,,,,,,,,METAR,141.0
KOPN 072155Z AUTO 00000KT 10SM -VCTSDZ SCT022 SCT028 SCT035 23/21 A2991 RMK AO2 LTG DSNT ALQS,KOPN,2023-07-07T21:55:00Z,32.95,-84.27,23.0,21.0,0,0,,10.0,29.911417,,,TRUE,TRUE,,,,,,VCTS -DZ,SCT,2200,SCT,2800,SCT,3500,,,VFR,,,,,,,,,,,,SPECI,241.0
KOPL 072155Z AUTO 21005KT 10SM SCT047 32/22 A2993 RMK AO2 T03230222,KOPL,2023-07-07T21:55:00Z,30.55,-92.1,32.3,22.2,210,5,,10.0,29.929134,,,TRUE,TRUE,,,,,,,SCT,4700,,,,,,,VFR,,,,,,,,,,,,METAR,22.0
KOOA 072155Z AUTO 09004KT 10SM SCT110 21/15 A2997 RMK AO2 T02100148,KOOA,2023-07-07T21:55:00Z,41.23,-92.5,21.0,14.8,90,4,,10.0,29.970472,,,TRUE,TRUE,,,,,,,SCT,11000,,,,,,,VFR,,,,,,,,,,,,SPECI,256.0
KONZ 072155Z AUTO 18008KT 10SM CLR 25/18 A2993 RMK AO2 T02460178,KONZ,2023-07-07T21:55:00Z,42.1,-83.15,24.6,17.8,180,8,,10.0,29.929134,,,TRUE,TRUE,,,,,,,CLR,,,,,,,,VFR,,,,,,,,,,,,METAR,179.0
KONP 072155Z AUTO 10SM OVC027 15/11 A3001 RMK AO2,KONP,2023-07-07T21:55:00Z,44.57,-124.05,15.0,11.0,,,,10.0,30.008858,,,TRUE,TRUE,,,,,,,OVC,2700,,,,,,,MVFR,,,,,,,,,,,,METAR,43.0
KONM 072155Z AUTO 33004KT 10SM SCT050 SCT070 SCT095 30/11 A2996 RMK AO2 LTG DSNT S P0002 T02970111,KONM,2023-07-07T21:55:00Z,34.02,-106.9,29.7,11.1,330,4,,10.0,29.958662,,,TRUE,TRUE,,,,,,,SCT,5000,SCT,7000,SCT,9500,,,VFR,,,,,,0.02,,,,,,METAR,1467.0
KONL 072155Z AUTO 02010KT 10SM OVC006 17/15 A2997 RMK AO2 T01740151,KONL,2023-07-07T21:55:00Z,42.47,-98.68,17.4,15.1,20,10,,10.0,29.970472,,,TRUE,TRUE,,,,,,,OVC,600,,,,,,,IFR,,,,,,,,,,,,SPECI,619.0
KONA 072155Z AUTO 00000KT 10SM SCT055 22/10 A2995 RMK AO2,KONA,2023-07-07T21:55:00Z,44.07,-91.7,22.0,10.0,0,0,,10.0,29.949802,,,TRUE,TRUE,,,,,,,SCT,5500,,,,,,,VFR,,,,,,,,,,,,METAR,200.0
KOMH 072155Z AUTO 30012G17KT 10SM VCTS SCT065 BKN080 30/22 A2985 RMK AO2 LTG DSNT W THRU NE,KOMH,2023-07-07T21:55:00Z,38.25,-78.05,30.0,22.0,300,12,17,10.0,29.84941,,,TRUE,TRUE,,,,,,VCTS,SCT,6500,BKN,8000,,,,,VFR,,,,,,,,,,,,METAR,136.0
KOLZ 072155Z AUTO 01004KT 10SM OVC065 19/13 A2997 RMK A01,KOLZ,2023-07-07T21:55:00Z,42.67,-91.97,19.0,13.0,10,4,,10.0,29.970472,,,TRUE,TRUE,,,,,,,OVC,6500,,,,,,,VFR,,,,,,,,,,,,METAR,328.0
KOLY 072155Z AUTO 34003KT 10SM CLR 28/16 A2995 RMK AO2 T02840157 PWINO,KOLY,2023-07-07T21:55:00Z,38.72,-88.18,28.4,15.7,340,3,,10.0,29.949802,,,TRUE,TRUE,,,,,TRUE,,CLR,,,,,,,,VFR,,,,,,,,,,,,METAR,144.0
KOLG 072155Z AUTO 24008KT 200V270 10SM SCT090 22/10 A2994 RMK AO1,KOLG,2023-07-07T21:55:00Z,46.3,-91.82,22.0,10.0,240,8,,10.0,29.940945,,,TRUE,TRUE,,,,,,,SCT,9000,,,,,,,VFR,,,,,,,,,,,,METAR,334.0
KOLE 072155Z AUTO 33005KT 10SM SCT042 22/14 A2997 RMK AO2,KOLE,2023-07-07T21:55:00Z,42.23,-78.37,22.0,14.0,330,5,,10.0,29.970472,,,TRUE,TRUE,,,,,,,SCT,4200,,,,,,,VFR,,,,,,,,,,,,METAR,651.0
KOKZ 072155Z AUTO 21010G14KT 7SM -TSRA BR SCT050 SCT070 BKN080 25/22 A2988 RMK AO2 LTG DSNT ALQDS T02460222,KOKZ,2023-07-07T21:55:00Z,32.97,-82.83,24.6,22.2,210,10,14,7.0,29.878937,,,TRUE,TRUE,,,,,,-TSRA BR,SCT,5000,SCT,7000,BKN,8000,,,VFR,,,,,,,,,,,,METAR,128.0
KOKV 072155Z AUTO 30005KT 10SM CLR 31/19 A2982 RMK AO2,KOKV,2023-07-07T21:55:00Z,39.13,-78.15,31.0,19.0,300,5,,10.0,29.819881,,,TRUE,TRUE,,,,,,,CLR,,,,,,,,VFR,,,,,,,,,,,,METAR,213.0
KOKM 072155Z AUTO 12005KT 10SM SCT100 SCT120 27/21 A2990 RMK AO2 T02690207,KOKM,2023-07-07T21:55:00Z,35.67,-95.95,26.9,20.7,120,5,,10.0,29.899607,,,TRUE,TRUE,,,,,,,SCT,10000,SCT,12000,,,,,VFR,,,,,,,,,,,,SPECI,215.0
KOJA 072155Z AUTO 17013G20KT 10SM SCT120 29/22 A2989 RMK AO2 T02920216,KOJA,2023-07-07T21:55:00Z,35.55,-98.67,29.2,21.6,170,13,20,10.0,29.890747,,,TRUE,TRUE,,,,,,,SCT,12000,,,,,,,VFR,,,,,,,,,,,,METAR,490.0
KOIN 072155Z AUTO 03008G14KT 10SM SCT045 29/16 A2998 RMK AO1 T02860163,KOIN,2023-07-07T21:55:00Z,39.83,-100.53,28.6,16.3,30,8,14,10.0,29.97933,,,TRUE,TRUE,,,,,,,SCT,4500,,,,,,,VFR,,,,,,,,,,,,METAR,810.0
KOIC 072155Z AUTO 35005KT 10SM SCT019 SCT031 BKN110 24/19 A2993 RMK AO2 T02350192,KOIC,2023-07-07T21:55:00Z,42.57,-75.52,23.5,19.2,350,5,,10.0,29.929134,,,TRUE,TRUE,,,,,,,SCT,1900,SCT,3100,BKN,11000,,,VFR,,,,,,,,,,,,METAR,311.0
KOGS 072155Z AUTO 00000KT 6SM HZ FEW033 BKN055 OVC080 26/22 A2982 RMK AO2,KOGS,2023-07-07T21:55:00Z,44.67,-75.47,26.0,22.0,0,0,,6.0,29.819881,,,TRUE,TRUE,,,,,,HZ,FEW,3300,BKN,5500,OVC,8000,,,VFR,,,,,,,,,,,,METAR,88.0
KOGA 072155Z AUTO 02010KT 10SM SCT060 27/09 A3000 RMK AO2 T02740094,KOGA,2023-07-07T21:55:00Z,41.12,-101.77,27.4,9.4,20,10,,10.0,30.0,,,TRUE,TRUE,,,,,,,SCT,6000,,,,,,,VFR,,,,,,,,,,,,SPECI,991.0
KOFF 072155Z 03004KT 10SM BKN032 OVC042 21/17 A2992 RMK AO2A RAB24E55 SLP132 P0000 T02070167 $,KOFF,2023-07-07T21:55:00Z,41.12,-95.92,20.7,16.7,30,4,,10.0,29.920275,1013.2,,,TRUE,TRUE,,,,,,BKN,3200,OVC,4200,,,,,VFR,,,,,,0.005,,,,,,METAR,308.0
KOEO 072155Z AUTO 21006KT 10SM SCT090 23/12 A2998 RMK AO2 T02320120,KOEO,2023-07-07T21:55:00Z,45.32,-92.7,23.2,12.0,210,6,,10.0,29.97933,,,TRUE,TRUE,,,,,,,SCT,9000,,,,,,,VFR,,,,,,,,,,,,METAR,269.0
KOEL 072155Z AUTO 17006KT 10SM SCT030 BKN037 BKN045 29/18 A2995 RMK AO1 T02860180,KOEL,2023-07-07T21:55:00Z,39.12,-100.82,28.6,18.0,170,6,,10.0,29.949802,,,TRUE,TRUE,,,,,,,SCT,3000,BKN,3700,BKN,4500,,,VFR,,,,,,,,,,,,METAR,924.0
KOEB 072155Z AUTO 30004KT 10SM BKN065 28/11 A2993 RMK AO2 T02760111,KOEB,2023-07-07T21:55:00Z,41.92,-85.05,27.6,11.1,300,4,,10.0,29.929134,,,TRUE,TRUE,,,,,,,BKN,6500,,,,,,,VFR,,,,,,,,,,,,METAR,291.0
KOCQ 072155Z AUTO 11003KT 10SM CLR 23/09 A2994 RMK AO1 T02340086,KOCQ,2023-07-07T21:55:00Z,44.87,-87.92,23.4,8.6,110,3,,10.0,29.940945,,,TRUE,TRUE,,,,,,,CLR,,,,,,,,VFR,,,,,,,,,,,,METAR,181.0
KOBE 072155Z AUTO 16004KT 8SM VCTS RA FEW055 26/26 A2993 RMK AO2 LTG DSNT ALQDS P0023,KOBE,2023-07-07T21:55:00Z,27.27,-80.85,26.0,26.0,160,4,,8.0,29.929134,,,TRUE,TRUE,,,,,,VCTS RA,FEW,5500,,,,,,,VFR,,,,,,0.23,,,,,,METAR,11.0
KOAR 072155Z AUTO 10SM OVC012 11/06 A2995 RMK AO2,KOAR,2023-07-07T21:55:00Z,36.67,-121.77,11.0,6.0,,,,10.0,29.949802,,,TRUE,TRUE,,,,,,,OVC,1200,,,,,,,MVFR,,,,,,,,,,,,SPECI,41.0
KO86 072155Z AUTO 16011G16KT 9SM CLR 33/07 A2981 RMK A01,KO86,2023-07-07T21:55:00Z,40.98,-122.7,33.0,7.0,160,11,16,9.0,29.811024,,,TRUE,TRUE,,,,,,,CLR,,,,,,,,VFR,,,,,,,,,,,,METAR,729.0
KO69 072155Z AUTO 27009G15KT 10SM CLR 20/10 A2988 RMK A01,KO69,2023-07-07T21:55:00Z,38.25,-122.6,20.0,10.0,270,9,15,10.0,29.878937,,,TRUE,TRUE,,,,,,,CLR,,,,,,,,VFR,,,,,,,,,,,,METAR,26.0
KO32 072155Z AUTO 32004KT 9SM CLR 32/13 A2978 RMK AO2 T03180125 $,KO32,2023-07-07T21:55:00Z,36.67,-119.45,31.8,12.5,320,4,,9.0,29.778543,,,TRUE,TRUE,TRUE,,,,,,CLR,,,,,,,,VFR,,,,,,,,,,,,METAR,117.0
KO22 072155Z AUTO VRB04G10KT 10SM CLR 31/07 A2988 RMK A01,KO22,2023-07-07T21:55:00Z,38.03,-120.42,31.0,7.0,0,4,10,10.0,29.878937,,,TRUE,TRUE,,,,,,,CLR,,,,,,,,VFR,,,,,,,,,,,,METAR,637.0
KNUQ 072155Z AUTO 34014KT 10SM CLR 18/12 A2992 RMK AO2,KNUQ,2023-07-07T21:55:00Z,37.4,-122.05,18.0,12.0,340,14,,10.0,29.920275,,,TRUE,TRUE,,,,,,,CLR,,,,,,,,VFR,,,,,,,,,,,,SPECI,9.0
KNTD 072155Z 27009KT 10SM FEW022 20/14 A2987 RMK AO2 SLP115 T02000144 VISNO S $,KNTD,2023-07-07T21:55:00Z,34.12,-119.12,20.0,14.4,270,9,,10.0,29.870079,1011.5,,,TRUE,TRUE,,,,,,FEW,2200,,,,,,,VFR,,,,,,,,,,,,METAR,1.0
KNRN 072155Z AUTO 04008KT 10SM SCT038 SCT046 BKN060 26/17 A2995 RMK AO2,KNRN,2023-07-07T21:55:00Z,39.85,-99.9,26.0,17.0,40,8,,10.0,29.949802,,,TRUE,TRUE,,,,,,,SCT,3800,SCT,4600,BKN,6000,,,VFR,,,,,,,,,,,,METAR,726.0
KNOW 072155Z AUTO 29015KT 10SM CLR 15/11 A2990 RMK AO2 T01530110,KNOW,2023-07-07T21:55:00Z,48.13,-123.4,15.3,11.0,290,15,,10.0,29.899607,,,TRUE,TRUE,,,,,,,CLR,,,,,,,,VFR,,,,,,,,,,,,SPECI,3.0
KNKX 072155Z 28008KT 10SM CLR 23/12 A2984 RMK AO2 SLP101 T02280122,KNKX,2023-07-07T21:55:00Z,32.87,-117.13,22.8,12.2,280,8,,10.0,29.840551,1010.1,,,TRUE,,,,,,,CLR,,,,,,,,VFR,,,,,,,,,,,,METAR,138.0
KNBG 072155Z 23005KT 10SM FEW030 BKN120 BKN250 31/23 A2994 RMK AO2 SLP137 T2 SET T03110228 $ ,KNBG,2023-07-07T21:55:00Z,29.83,-90.02,31.1,22.8,230,5,,10.0,29.940945,1013.7,,,TRUE,TRUE,,,,,,FEW,3000,BKN,12000,BKN,25000,,,VFR,,,,,,,,,,,,METAR,0.0
KN79 072155Z AUTO 00000KT 10SM FEW130 26/24 A2984 RMK AO2 T02590237,KN79,2023-07-07T21:55:00Z,,,25.9,23.7,0,0,,10.0,29.840551,,,TRUE,TRUE,,,,,,,FEW,13000,,,,,,,VFR,,,,,,,,,,,,METAR,
KN38 072155Z AUTO 35010KT 10SM FEW023 SCT030 25/20 A2991 RMK AO2,KN38,2023-07-07T21:55:00Z,41.73,-77.4,25.0,20.0,350,10,,10.0,29.911417,,,TRUE,TRUE,,,,,,,FEW,2300,SCT,3000,,,,,VFR,,,,,,,,,,,,METAR,576.0
KN03 072155Z AUTO 33004KT 10SM SCT022 BKN033 BKN110 23/18 A2991 RMK AO2,KN03,2023-07-07T21:55:00Z,42.6,-76.22,23.0,18.0,330,4,,10.0,29.911417,,,TRUE,TRUE,,,,,,,SCT,2200,BKN,3300,BKN,11000,,,VFR,,,,,,,,,,,,SPECI,361.0
KMZZ 072155Z AUTO 22004KT 10SM CLR 27/15 A2995 RMK AO2 T02740153,KMZZ,2023-07-07T21:55:00Z,40.48,-85.68,27.4,15.3,220,4,,10.0,29.949802,,,TRUE,TRUE,,,,,,,CLR,,,,,,,,VFR,,,,,,,,,,,,SPECI,260.0
KMZJ 072155Z AUTO 26014KT 240V300 10SM CLR 43/02 A2975 RMK AO2,KMZJ,2023-07-07T21:55:00Z,32.52,-111.32,43.0,2.0,260,14,,10.0,29.749016,,,TRUE,TRUE,,,,,,,CLR,,,,,,,,VFR,,,,,,,,,,,,METAR,574.0
KMZH 072155Z AUTO 23006KT 10SM CLR 24/10 A2993 RMK AO2,KMZH,2023-07-07T21:55:00Z,46.42,-92.8,24.0,10.0,230,6,,10.0,29.929134,,,TRUE,TRUE,,,,,,,CLR,,,,,,,,VFR,,,,,,,,,,,,SPECI,331.0
KMYZ 072155Z AUTO 00000KT 5SM +RA BKN036 BKN049 OVC090 25/20 A2988 RMK AO2 P0001 LTG DSNT ALQS,KMYZ,2023-07-07T21:55:00Z,39.85,-96.63,25.0,20.0,0,0,,5.0,29.878937,,,TRUE,TRUE,,,,,,+RA,BKN,3600,BKN,4900,OVC,9000,,,MVFR,,,,,,0.01,,,,,,SPECI,388.0
KMYJ 072155Z AUTO 05006KT 10SM SCT055 SCT070 OVC090 27/18 A2991 RMK AO2 LTG DSNT N,KMYJ,2023-07-07T21:55:00Z,39.15,-91.82,27.0,18.0,50,6,,10.0,29.911417,,,TRUE,TRUE,,,,,,,SCT,5500,SCT,7000,OVC,9000,,,VFR,,,,,,,,,,,,METAR,249.0
KMXF 072155Z AUTO 21005KT 10SM FEW075 SCT120 SCT170 31/22 A2984 RMK AO2 SLP106 T03080224,KMXF,2023-07-07T21:55:00Z,32.38,-86.37,30.8,22.4,210,5,,10.0,29.840551,1010.6,,TRUE,TRUE,,,,,,,FEW,7500,SCT,12000,SCT,17000,,,VFR,,,,,,,,,,,,METAR,47.0
KMWO 072155Z AUTO 00000KT 10SM CLR 29/14 A2992 RMK AO2 T02910137,KMWO,2023-07-07T21:55:00Z,39.53,-84.4,29.1,13.7,0,0,,10.0,29.920275,,,TRUE,TRUE,,,,,,,CLR,,,,,,,,VFR,,,,,,,,,,,,METAR,197.0
KMWM 072155Z AUTO 00000KT 10SM -RA 16/13 A2998 RMK AO2,KMWM,2023-07-07T21:55:00Z,43.9,-95.1,16.0,13.0,0,0,,10.0,29.97933,,,TRUE,TRUE,,,,,,-RA,,,,,,,,,,,,,,,,,,,,,METAR,427.0
KMVE 072155Z AUTO 22007KT 10SM CLR 22/14 A2995 RMK AO2,KMVE,2023-07-07T21:55:00Z,44.97,-95.72,22.0,14.0,220,7,,10.0,29.949802,,,TRUE,TRUE,,,,,,,CLR,,,,,,,,VFR,,,,,,,,,,,,METAR,319.0
KMUT 072155Z AUTO 00000KT 10SM 20/17 A2995 RMK AO2,KMUT,2023-07-07T21:55:00Z,41.37,-91.15,20.0,17.0,0,0,,10.0,29.949802,,,TRUE,TRUE,,,,,,,,,,,,,,,,,,,,,,,,,,,METAR,166.0
KMUO 072155Z AUTO 13008KT 10SM FEW170 FEW200 34/05 A2976 RMK AO2 SLP039 T03400046 $,KMUO,2023-07-07T21:55:00Z,43.03,-115.87,34.0,4.6,130,8,,10.0,29.760826,1003.9,,TRUE,TRUE,TRUE,,,,,,FEW,17000,FEW,20000,,,,,VFR,,,,,,,,,,,,METAR,915.0
KMUI 072155Z 00000KT 10SM VCTS FEW035CB BKN047 OVC080 26/21 A2982 RMK AO2A LTG DSNT SW-NW RAB15E46 TS 7SW-W MOV SE SLP098 T02560212,KMUI,2023-07-07T21:55:00Z,40.43,-76.57,25.6,21.2,0,0,,10.0,29.819881,1009.8,,,TRUE,,,,,,VCTS,FEW,3500,BKN,4700,OVC,8000,,,VFR,,,,,,,,,,,,METAR,146.0
KMTV 072155Z AUTO 22003KT 10SM CLR 30/20 A2986 RMK AO2 T02960204,KMTV,2023-07-07T21:55:00Z,36.63,-80.02,29.6,20.4,220,3,,10.0,29.861221,,,TRUE,TRUE,,,,,,,CLR,,,,,,,,VFR,,,,,,,,,,,,SPECI,276.0
KMTN 072155Z 14004KT 10SM CLR 30/23 A2983,KMTN,2023-07-07T21:55:00Z,39.32,-76.42,30.0,23.0,140,4,,10.0,29.828741,,,,,,,,,,,CLR,,,,,,,,VFR,,,,,,,,,,,,METAR,2.0
KMRJ 072155Z AUTO 22004KT 10SM SCT110 21/10 A2999 RMK AO2 PWINO,KMRJ,2023-07-07T21:55:00Z,42.88,-90.23,21.0,10.0,220,4,,10.0,29.991142,,,TRUE,TRUE,,,,,TRUE,,SCT,11000,,,,,,,VFR,,,,,,,,,,,,METAR,350.0
KMQW 072155Z AUTO 28004KT 10SM SCT055 SCT065 34/22 A2983 RMK AO2 LTG DSNT N THRU E T03430220,KMQW,2023-07-07T21:55:00Z,32.1,-82.88,34.3,22.0,280,4,,10.0,29.828741,,,TRUE,TRUE,,,,,,,SCT,5500,SCT,6500,,,,,VFR,,,,,,,,,,,,METAR,62.0
KMQS 072155Z AUTO 00000KT 10SM CLR 26/23 A2985 RMK AO2,KMQS,2023-07-07T21:55:00Z,39.98,-75.87,26.0,23.0,0,0,,10.0,29.84941,,,TRUE,TRUE,,,,,,,CLR,,,,,,,,VFR,,,,,,,,,,,,METAR,200.0
KMQJ 072155Z AUTO 24004KT 10SM SCT060 29/17 A2993 RMK AO1,KMQJ,2023-07-07T21:55:00Z,39.85,-85.9,29.0,17.0,240,4,,10.0,29.929134,,,TRUE,TRUE,,,,,,,SCT,6000,,,,,,,VFR,,,,,,,,,,,,METAR,262.0
KMQB 072155Z AUTO 08003KT 3SM RA SCT041 SCT050 OVC060 24/19 A2997 RMK AO2 P0003 T02390190,KMQB,2023-07-07T21:55:00Z,40.52,-90.65,23.9,19.0,80,3,,3.0,29.970472,,,TRUE,TRUE,,,,,,RA,SCT,4100,SCT,5000,OVC,6000,,,MVFR,,,,,,0.03,,,,,,SPECI,205.0
KMPZ 072155Z AUTO 09004KT 10SM SCT046 20/15 A2995 RMK AO2,KMPZ,2023-07-07T21:55:00Z,40.95,-91.52,20.0,15.0,90,4,,10.0,29.949802,,,TRUE,TRUE,,,,,,,SCT,4600,,,,,,,VFR,,,,,,,,,,,,SPECI,222.0
KMPR 072155Z AUTO 21009KT 10SM OVC070 25/18 A2991 RMK AO2 T02500178,KMPR,2023-07-07T21:55:00Z,38.35,-97.68,25.0,17.8,210,9,,10.0,29.911417,,,TRUE,TRUE,,,,,,,OVC,7000,,,,,,,VFR,,,,,,,,,,,,METAR,455.0
KMOX 072155Z AUTO 22011KT 10SM SCT032 24/13 A2991 RMK AO2,KMOX,2023-07-07T21:55:00Z,45.57,-95.97,24.0,13.0,220,11,,10.0,29.911417,,,TRUE,TRUE,,,,,,,SCT,3200,,,,,,,VFR,,,,,,,,,,,,METAR,346.0
KMOP 072155Z AUTO 26007KT 10SM SCT060 BKN070 26/11 A2994 RMK AO2 T02550106,KMOP,2023-07-07T21:55:00Z,43.62,-84.73,25.5,10.6,260,7,,10.0,29.940945,,,TRUE,TRUE,,,,,,,SCT,6000,BKN,7000,,,,,VFR,,,,,,,,,,,,METAR,229.0
KMNZ 072155Z AUTO 14011G15KT 35/18 A2992 RMK AO2 T03530177 PWINO,KMNZ,2023-07-07T21:55:00Z,31.67,-98.15,35.3,17.7,140,11,15,,29.920275,,,TRUE,TRUE,,,,,TRUE,,,,,,,,,,,,,,,,,,,,,,METAR,397.0
KMNH 072155Z AUTO 05009KT 10SM SCT028 SCT037 OVC045 18/12 A3021 RMK AO2 LTG DSNT S,KMNH,2023-07-07T21:55:00Z,39.22,-104.65,18.0,12.0,50,9,,10.0,30.209646,,,TRUE,TRUE,,,,,,,SCT,2800,SCT,3700,OVC,4500,,,VFR,,,,,,,,,,,,SPECI,2152.0
KMMT 072155Z AUTO 00000KT 10SM VCTS CLR 30/22 A2980 RMK AO2 SLP092 T03030222 $,KMMT,2023-07-07T21:55:00Z,33.92,-80.8,30.3,22.2,0,0,,10.0,29.799213,1009.2,,TRUE,TRUE,TRUE,,,,,VCTS,CLR,,,,,,,,VFR,,,,,,,,,,,,METAR,76.0
KMMI 072155Z AUTO 03003KT 10SM CLR 32/21 A2990 RMK A01,KMMI,2023-07-07T21:55:00Z,35.4,-84.57,32.0,21.0,30,3,,10.0,29.899607,,,TRUE,TRUE,,,,,,,CLR,,,,,,,,VFR,,,,,,,,,,,,METAR,252.0
KMMH 072155Z AUTO 24011G16KT 10SM CLR 28/M02 A3007 RMK AO2 T02801019,KMMH,2023-07-07T21:55:00Z,37.62,-118.83,28.0,-1.9,240,11,16,10.0,30.070866,,,TRUE,TRUE,,,,,,,CLR,,,,,,,,VFR,,,,,,,,,,,,SPECI,2167.0
KMLJ 072155Z AUTO VRB06G15KT 10SM VCTS FEW065 24/24 A2987 RMK AO2 LTG DSNT SE AND SW P0001,KMLJ,2023-07-07T21:55:00Z,33.15,-83.25,24.0,24.0,0,6,15,10.0,29.870079,,,TRUE,TRUE,,,,,,VCTS,FEW,6500,,,,,,,VFR,,,,,,0.01,,,,,,SPECI,115.0
KMLE 072155Z AUTO 08003KT 10SM -DZ OVC024 20/16 A2991 RMK AO2 P0001 T01960163,KMLE,2023-07-07T21:55:00Z,41.2,-96.12,19.6,16.3,80,3,,10.0,29.911417,,,TRUE,TRUE,,,,,,-DZ,OVC,2400,,,,,,,MVFR,,,,,,0.01,,,,,,SPECI,318.0
KMKS 072155Z AUTO 25005KT 10SM TS SCT048 BKN070 OVC110 28/23 A2983 RMK AO2 LTG DSNT W THRU NE,KMKS,2023-07-07T21:55:00Z,33.18,-80.03,28.0,23.0,250,5,,10.0,29.828741,,,TRUE,TRUE,,,,,,TS,SCT,4800,BKN,7000,OVC,11000,,,VFR,,,,,,,,,,,,METAR,22.0
KMKQ 072155Z AUTO 08008KT 10SM CLR 33/24 A2997 RMK A01,KMKQ,2023-07-07T21:55:00Z,,,33.0,24.0,80,8,,10.0,29.970472,,,TRUE,TRUE,,,,,,,CLR,,,,,,,,VFR,,,,,,,,,,,,METAR,
KMKN 072155Z AUTO 17011KT 10SM 37/19 A2991 RMK AO2 T03710193,KMKN,2023-07-07T21:55:00Z,31.92,-98.6,37.1,19.3,170,11,,10.0,29.911417,,,TRUE,TRUE,,,,,,,,,,,,,,,,,,,,,,,,,,,METAR,428.0
KMKJ 072155Z AUTO 30004KT 10SM CLR 26/18 A2999 RMK AO2 T02610176,KMKJ,2023-07-07T21:55:00Z,36.88,-81.33,26.1,17.6,300,4,,10.0,29.991142,,,TRUE,TRUE,,,,,,,CLR,,,,,,,,VFR,,,,,,,,,,,,METAR,777.0
KMKG 072155Z 29008KT 10SM FEW070 SCT220 BKN250 25/12 A2995 RMK AO2 SLP140 T02500122,KMKG,2023-07-07T21:55:00Z,43.17,-86.23,25.0,12.2,290,8,,10.0,29.949802,1014.0,,,TRUE,,,,,,,FEW,7000,SCT,22000,BKN,25000,,,VFR,,,,,,,,,,,,METAR,190.0
KMJQ 072155Z AUTO 18005KT 10SM SCT017 BKN024 BKN050 16/13 A2998 RMK AO2 PWINO,KMJQ,2023-07-07T21:55:00Z,43.63,-94.98,16.0,13.0,180,5,,10.0,29.97933,,,TRUE,TRUE,,,,,TRUE,,SCT,1700,BKN,2400,BKN,5000,,,MVFR,,,,,,,,,,,,METAR,439.0
KMJD 072155Z AUTO 24009KT 7SM -RA FEW028 FEW035 SCT120 29/27 A2993 RMK AO2,KMJD,2023-07-07T21:55:00Z,30.48,-89.65,29.0,27.0,240,9,,7.0,29.929134,,,TRUE,TRUE,,,,,,-RA,FEW,2800,FEW,3500,SCT,12000,,,VFR,,,,,,,,,,,,METAR,17.0
KMIO 072155Z AUTO VRB05KT 10SM CLR 29/23 A2988 RMK AO2,KMIO,2023-07-07T21:55:00Z,36.92,-94.88,29.0,23.0,0,5,,10.0,29.878937,,,TRUE,TRUE,,,,,,,CLR,,,,,,,,VFR,,,,,,,,,,,,METAR,245.0
KMIB 072155Z AUTO 02009G15KT 10SM SCT060 BKN070 23/07 A2999 RMK AO2 SLP159 T02270068 $,KMIB,2023-07-07T21:55:00Z,48.42,-101.35,22.7,6.8,20,9,15,10.0,29.991142,1015.9,,TRUE,TRUE,TRUE,,,,,,SCT,6000,BKN,7000,,,,,VFR,,,,,,,,,,,,METAR,505.0
KMHR 072155Z AUTO 24007G14KT 210V270 10SM CLR 27/12 A2979 RMK AO2,KMHR,2023-07-07T21:55:00Z,38.55,-121.28,27.0,12.0,240,7,14,10.0,29.790354,,,TRUE,TRUE,,,,,,,CLR,,,,,,,,VFR,,,,,,,,,,,,METAR,30.0
KMHP 072155Z AUTO 10008KT 10SM VCTS BKN055 BKN075 BKN090 A2983 RMK AO2 LTG DSNT NW THRU E,KMHP,2023-07-07T21:55:00Z,32.37,-82.08,,,100,8,,10.0,29.828741,,,TRUE,TRUE,,,,,,VCTS,BKN,5500,BKN,7500,BKN,9000,,,VFR,,,,,,,,,,,,SPECI,60.0
KMHL 072155Z AUTO 06010G14KT 10SM CLR 25/17 A2989 RMK AO2,KMHL,2023-07-07T21:55:00Z,39.1,-93.2,25.0,17.0,60,10,14,10.0,29.890747,,,TRUE,TRUE,,,,,,,CLR,,,,,,,,VFR,,,,,,,,,,,,METAR,236.0
KMGR 072155Z AUTO 23006KT 10SM FEW180 30/24 A2987 RMK AO2 LTG DSNT N AND SE AND S AND W T02990235 $,KMGR,2023-07-07T21:55:00Z,31.08,-83.8,29.9,23.5,230,6,,10.0,29.870079,,,TRUE,TRUE,TRUE,,,,,,FEW,18000,,,,,,,VFR,,,,,,,,,,,,METAR,86.0
KMGN 072155Z AUTO 27004KT 10SM CLR 21/08 A2995 RMK AO2 T02100085,KMGN,2023-07-07T21:55:00Z,45.43,-84.92,21.0,8.5,270,4,,10.0,29.949802,,,TRUE,TRUE,,,,,,,CLR,,,,,,,,VFR,,,,,,,,,,,,METAR,205.0
KMGG 072155Z AUTO 20004KT 10SM CLR 22/10 A2997 RMK AO2 T02220099,KMGG,2023-07-07T21:55:00Z,45.23,-93.98,22.2,9.9,200,4,,10.0,29.970472,,,TRUE,TRUE,,,,,,,CLR,,,,,,,,VFR,,,,,,,,,,,,METAR,310.0
KMGE 072155Z 01005KT 10SM FEW050CB FEW100 BKN250 31/20 A2988 RMK AO2A CB 20SE MOV SE TCU N SLP108 T03110197 $,KMGE,2023-07-07T21:55:00Z,33.92,-84.52,31.1,19.7,10,5,,10.0,29.878937,1010.8,,,TRUE,TRUE,,,,,,FEW,5000,FEW,10000,BKN,25000,,,VFR,,,,,,,,,,,,METAR,309.0
KMGC 072155Z AUTO 01006KT 10SM SCT050 23/16 A2993 RMK AO2,KMGC,2023-07-07T21:55:00Z,41.7,-86.82,23.0,16.0,10,6,,10.0,29.929134,,,TRUE,TRUE,,,,,,,SCT,5000,,,,,,,VFR,,,,,,,,,,,,SPECI,199.0
KMEZ 072155Z AUTO 00000KT 9SM VCTS CLR 29/24 A2994 RMK AO2 T02920243,KMEZ,2023-07-07T21:55:00Z,34.55,-94.2,29.2,24.3,0,0,,9.0,29.940945,,,TRUE,TRUE,,,,,,VCTS,CLR,,,,,,,,VFR,,,,,,,,,,,,METAR,320.0
KMEV 072155Z AUTO 27015KT 10SM CLR 29/05 A2993 RMK AO2,KMEV,2023-07-07T21:55:00Z,38.98,-119.75,29.0,5.0,270,15,,10.0,29.929134,,,TRUE,TRUE,,,,,,,CLR,,,,,,,,VFR,,,,,,,,,,,,METAR,1437.0
KMDZ 072155Z AUTO 27004KT 10SM CLR 21/11 A2997 RMK AO2 T02070110 PWINO,KMDZ,2023-07-07T21:55:00Z,45.1,-90.3,20.7,11.0,270,4,,10.0,29.970472,,,TRUE,TRUE,,,,,TRUE,,CLR,,,,,,,,VFR,,,,,,,,,,,,METAR,446.0
KMDS 072155Z AUTO 13007KT 10SM FEW021 BKN090 18/15 A2998 RMK AO2,KMDS,2023-07-07T21:55:00Z,44.02,-97.08,18.0,15.0,130,7,,10.0,29.97933,,,TRUE,TRUE,,,,,,,FEW,2100,BKN,9000,,,,,VFR,,,,,,,,,,,,METAR,524.0
KMDQ 072155Z AUTO 32007KT 10SM CLR 30/21 A2992 RMK A02 LTG DSNT W T02970214,KMDQ,2023-07-07T21:55:00Z,34.87,-86.55,29.7,21.4,320,7,,10.0,29.920275,,,TRUE,TRUE,,,,,,,CLR,,,,,,,,VFR,,,,,,,,,,,,METAR,221.0
KMCJ 072155Z AUTO 27007G13KT 10SM BKN100 OVC120 29/22 A2992 RMK A01,KMCJ,2023-07-07T21:55:00Z,29.72,-95.4,29.0,22.0,270,7,13,10.0,29.920275,,,TRUE,TRUE,,,,,,,BKN,10000,OVC,12000,,,,,VFR,,,,,,,,,,,,METAR,70.0
KMCF 072155Z AUTO 26008KT 10SM FEW039 FEW100 32/24 A2988 RMK AO2 DZB34E44 SLP121 P0000 T03170235 FZRANO $,KMCF,2023-07-07T21:55:00Z,27.85,-82.52,31.7,23.5,260,8,,10.0,29.878937,1012.1,,TRUE,TRUE,TRUE,,,TRUE,,,FEW,3900,FEW,10000,,,,,VFR,,,,,,0.005,,,,,,METAR,3.0
KMCD 072155Z AUTO 25008KT 10SM CLR 19/11 A2993 RMK AO2 T01930114,KMCD,2023-07-07T21:55:00Z,45.85,-84.63,19.3,11.4,250,8,,10.0,29.929134,,,TRUE,TRUE,,,,,,,CLR,,,,,,,,VFR,,,,,,,,,,,,METAR,228.0
KMCC 072155Z AUTO 19008G17KT 10SM CLR 28/13 A2980 RMK AO2,KMCC,2023-07-07T21:55:00Z,38.67,-121.4,28.0,13.0,190,8,17,10.0,29.799213,,,TRUE,TRUE,,,,,,,CLR,,,,,,,,VFR,,,,,,,,,,,,SPECI,21.0
KMBY 072155Z AUTO 07010KT 10SM SCT090 24/16 A2991 RMK AO2 LTG DSNT E,KMBY,2023-07-07T21:55:00Z,39.47,-92.43,24.0,16.0,70,10,,10.0,29.911417,,,TRUE,TRUE,,,,,,,SCT,9000,,,,,,,VFR,,,,,,,,,,,,METAR,263.0
KMBT 072155Z AUTO 33005G10KT 10SM SCT048 32/20 A2989 RMK A01,KMBT,2023-07-07T21:55:00Z,35.88,-86.38,32.0,20.0,330,5,10,10.0,29.890747,,,TRUE,TRUE,,,,,,,SCT,4800,,,,,,,VFR,,,,,,,,,,,,METAR,187.0
KMBO 072155Z AUTO 26006KT 10SM FEW034 25/18 A2991 RMK AO2,KMBO,2023-07-07T21:55:00Z,32.43,-90.1,25.0,18.0,260,6,,10.0,29.911417,,,TRUE,TRUE,,,,,,,FEW,3400,,,,,,,VFR,,,,,,,,,,,,METAR,98.0
KMAW 072155Z AUTO 24007KT 10SM SCT038 SCT043 SCT049 30/20 A2992 RMK AO1,KMAW,2023-07-07T21:55:00Z,36.6,-90.0,30.0,20.0,240,7,,10.0,29.920275,,,TRUE,TRUE,,,,,,,SCT,3800,SCT,4300,SCT,4900,,,VFR,,,,,,,,,,,,METAR,88.0
KMAO 072155Z AUTO 00000KT 10SM VCTS CLR 32/23 A2979 RMK AO2 LTG DSNT ALQDS,KMAO,2023-07-07T21:55:00Z,34.18,-79.33,32.0,23.0,0,0,,10.0,29.790354,,,TRUE,TRUE,,,,,,VCTS,CLR,,,,,,,,VFR,,,,,,,,,,,,METAR,27.0
KMAN 072155Z AUTO 01005KT 9SM CLR 34/07 A2978 RMK A01,KMAN,2023-07-07T21:55:00Z,43.58,-116.52,34.0,7.0,10,5,,9.0,29.778543,,,TRUE,TRUE,,,,,,,CLR,,,,,,,,VFR,,,,,,,,,,,,METAR,773.0
KM75 072155Z AUTO 02005KT 10SM CLR 28/05 A3000 RMK A01,KM75,2023-07-07T21:55:00Z,48.37,-107.92,28.0,5.0,20,5,,10.0,30.0,,,TRUE,TRUE,,,,,,,CLR,,,,,,,,VFR,,,,,,,,,,,,METAR,687.0
KM40 072155Z AUTO 21003KT 10SM CLR 27/25 A2992 RMK AO2,KM40,2023-07-07T21:55:00Z,33.87,-88.48,27.0,25.0,210,3,,10.0,29.920275,,,TRUE,TRUE,,,,,,,CLR,,,,,,,,VFR,,,,,,,,,,,,METAR,68.0
KM30 072155Z AUTO 00000KT 10SM SCT070 SCT080 30/19 A2991 RMK AO2 T03020189,KM30,2023-07-07T21:55:00Z,37.18,-88.75,30.2,18.9,0,0,,10.0,29.911417,,,TRUE,TRUE,,,,,,,SCT,7000,SCT,8000,,,,,VFR,,,,,,,,,,,,METAR,116.0
KM25 072155Z AUTO 00000KT 10SM SCT047 OVC060 29/19 A2993 RMK AO2 PWINO,KM25,2023-07-07T21:55:00Z,36.77,-88.58,29.0,19.0,0,0,,10.0,29.929134,,,TRUE,TRUE,,,,,TRUE,,SCT,4700,OVC,6000,,,,,VFR,,,,,,,,,,,,SPECI,157.0
KM21 072155Z AUTO 29003KT 10SM CLR 31/18 A2992 RMK AO2 T03070181,KM21,2023-07-07T21:55:00Z,37.22,-87.15,30.7,18.1,290,3,,10.0,29.920275,,,TRUE,TRUE,,,,,,,CLR,,,,,,,,VFR,,,,,,,,,,,,METAR,127.0
KM08 072155Z AUTO 00000KT 10SM SCT110 27/23 A2992 RMK A01,KM08,2023-07-07T21:55:00Z,35.22,-89.05,27.0,23.0,0,0,,10.0,29.920275,,,TRUE,TRUE,,,,,,,SCT,11000,,,,,,,VFR,,,,,,,,,,,,METAR,149.0
KM02 072155Z AUTO 35003KT 10SM FEW120 29/19 A2993 RMK A01,KM02,2023-07-07T21:55:00Z,36.13,-87.43,29.0,19.0,350,3,,10.0,29.929134,,,TRUE,TRUE,,,,,,,FEW,12000,,,,,,,VFR,,,,,,,,,,,,METAR,268.0
KM01 072155Z AUTO 20004KT 10SM CLR 30/23 A2988 RMK AO2 T03020231 $,KM01,2023-07-07T21:55:00Z,35.2,-90.05,30.2,23.1,200,4,,10.0,29.878937,,,TRUE,TRUE,TRUE,,,,,,CLR,,,,,,,,VFR,,,,,,,,,,,,METAR,68.0
KLYV 072155Z AUTO 18005KT 10SM -RA SCT015 BKN029 BKN049 16/13 A2999 RMK AO2,KLYV,2023-07-07T21:55:00Z,43.62,-96.22,16.0,13.0,180,5,,10.0,29.991142,,,TRUE,TRUE,,,,,,-RA,SCT,1500,BKN,2900,BKN,4900,,,MVFR,,,,,,,,,,,,METAR,435.0
KLYO 072155Z AUTO 18007KT 10SM OVC050 24/18 A2992 RMK AO2 T02390183,KLYO,2023-07-07T21:55:00Z,38.35,-98.23,23.9,18.3,180,7,,10.0,29.920275,,,TRUE,TRUE,,,,,,,OVC,5000,,,,,,,VFR,,,,,,,,,,,,METAR,515.0
KLXY 072155Z AUTO 16007G16KT 10SM SCT050 34/21 A2989 RMK AO2 T03390209,KLXY,2023-07-07T21:55:00Z,31.63,-96.52,33.9,20.9,160,7,16,10.0,29.890747,,,TRUE,TRUE,,,,,,,SCT,5000,,,,,,,VFR,,,,,,,,,,,,METAR,164.0
KLXN 072155Z AUTO 00000KT 10SM SCT060 BKN070 BKN080 27/15 A2994 RMK AO2 T02720153,KLXN,2023-07-07T21:55:00Z,40.78,-99.77,27.2,15.3,0,0,,10.0,29.940945,,,TRUE,TRUE,,,,,,,SCT,6000,BKN,7000,BKN,8000,,,VFR,,,,,,,,,,,,SPECI,734.0
KLXL 072155Z AUTO 18006KT 10SM CLR 23/10 A2994 RMK AO2,KLXL,2023-07-07T21:55:00Z,45.95,-94.33,23.0,10.0,180,6,,10.0,29.940945,,,TRUE,TRUE,,,,,,,CLR,,,,,,,,VFR,,,,,,,,,,,,METAR,335.0
KLWA 072155Z AUTO 36007KT 10SM CLR 25/16 A2993 RMK AO2 T02530162,KLWA,2023-07-07T21:55:00Z,42.35,-86.25,25.3,16.2,360,7,,10.0,29.929134,,,TRUE,TRUE,,,,,,,CLR,,,,,,,,VFR,,,,,,,,,,,,METAR,199.0
KLVN 072155Z AUTO 25003KT 10SM CLR 21/10 A2997 RMK AO2,KLVN,2023-07-07T21:55:00Z,44.63,-93.23,21.0,10.0,250,3,,10.0,29.970472,,,TRUE,TRUE,,,,,,,CLR,,,,,,,,VFR,,,,,,,,,,,,METAR,292.0
KLVL 072155Z AUTO 00000KT 10SM SCT038 SCT055 SCT095 25/25 A2984 RMK AO1 T02530246,KLVL,2023-07-07T21:55:00Z,36.78,-77.8,25.3,24.6,0,0,,10.0,29.840551,,,TRUE,TRUE,,,,,,,SCT,3800,SCT,5500,SCT,9500,,,VFR,,,,,,,,,,,,METAR,98.0
KLUX 072155Z AUTO 35008KT 10SM SCT050 SCT070 28/21 A2985 RMK AO2 LTG DSNT SE,KLUX,2023-07-07T21:55:00Z,34.5,-81.95,28.0,21.0,350,8,,10.0,29.84941,,,TRUE,TRUE,,,,,,,SCT,5000,SCT,7000,,,,,VFR,,,,,,,,,,,,METAR,213.0
KLUV 072155Z AUTO 16021G29KT 7SM CLR A2989 RMK AO2,KLUV,2023-07-07T21:55:00Z,32.75,-101.92,,,160,21,29,7.0,29.890747,,,TRUE,TRUE,,,,,,,CLR,,,,,,,,VFR,,,,,,,,,,,,METAR,910.0
KLUM 072155Z 00000KT 10SM CLR 23/09 A2996 RMK AO2 T02250087 PWINO,KLUM,2023-07-07T21:55:00Z,44.9,-91.87,22.5,8.7,0,0,,10.0,29.958662,,,,TRUE,,,,,TRUE,,CLR,,,,,,,,VFR,,,,,,,,,,,,METAR,271.0
KLUL 072155Z AUTO 30011KT 10SM SCT050 32/22 A2992 RMK A02 T03240217,KLUL,2023-07-07T21:55:00Z,31.67,-89.17,32.4,21.7,300,11,,10.0,29.920275,,,TRUE,TRUE,,,,,,,SCT,5000,,,,,,,VFR,,,,,,,,,,,,METAR,74.0
KLUG 072155Z AUTO 32004KT 10SM CLR 30/21 A2992 RMK A01,KLUG,2023-07-07T21:55:00Z,35.52,-86.8,30.0,21.0,320,4,,10.0,29.920275,,,TRUE,TRUE,,,,,,,CLR,,,,,,,,VFR,,,,,,,,,,,,METAR,218.0
KLUF 072155Z AUTO 22008KT 10SM CLR 41/00 A2968 RMK AO2 SLP033 T04100002 $,KLUF,2023-07-07T21:55:00Z,33.53,-112.37,41.0,0.2,220,8,,10.0,29.681103,1003.3,,TRUE,TRUE,TRUE,,,,,,CLR,,,,,,,,VFR,,,,,,,,,,,,SPECI,333.0
KLUD 072155Z AUTO 20013G23KT 7SM CLR 35/19 A2987 RMK AO2 T03520186,KLUD,2023-07-07T21:55:00Z,33.25,-97.58,35.2,18.6,200,13,23,7.0,29.870079,,,TRUE,TRUE,,,,,,,CLR,,,,,,,,VFR,,,,,,,,,,,,SPECI,319.0
KLUA 072155Z AUTO 30003KT 10SM CLR 30/20 A2985 RMK AO2 LTG DSNT SE,KLUA,2023-07-07T21:55:00Z,38.67,-78.5,30.0,20.0,300,3,,10.0,29.84941,,,TRUE,TRUE,,,,,,,CLR,,,,,,,,VFR,,,,,,,,,,,,METAR,273.0
KLTS 072155Z 16019G24KT 10SM CLR 35/19 A2980 RMK AO2A PK WND 17029/34 SLP073 T03530188 $,KLTS,2023-07-07T21:55:00Z,34.67,-99.27,35.3,18.8,160,19,24,10.0,29.799213,1007.3,,,TRUE,TRUE,,,,,,CLR,,,,,,,,VFR,,,,,,,,,,,,METAR,416.0
KLSV 072155Z AUTO 04009KT 10SM CLR 40/M03 A2966 RMK AO2 SLP015 T03951027 $,KLSV,2023-07-07T21:55:00Z,36.23,-115.05,39.5,-2.7,40,9,,10.0,29.660433,1001.5,,TRUE,TRUE,TRUE,,,,,,CLR,,,,,,,,VFR,,,,,,,,,,,,METAR,563.0
KLRY 072155Z AUTO 25006KT 10SM CLR 29/20 A2990 RMK AO2,KLRY,2023-07-07T21:55:00Z,38.62,-94.35,29.0,20.0,250,6,,10.0,29.899607,,,TRUE,TRUE,,,,,,,CLR,,,,,,,,VFR,,,,,,,,,,,,METAR,272.0
KLRU 072155Z AUTO 19005G09KT 10SM CLR 40/03 A2992 RMK AO2 T03970027,KLRU,2023-07-07T21:55:00Z,32.28,-106.92,39.7,2.7,190,5,9,10.0,29.920275,,,TRUE,TRUE,,,,,,,CLR,,,,,,,,VFR,,,,,,,,,,,,SPECI,1355.0
KLRO 072155Z AUTO 00000KT 9SM VCTS DZ CLR 26/23 A2981 RMK AO2 LTG DSNT W AND NW,KLRO,2023-07-07T21:55:00Z,32.9,-79.78,26.0,23.0,0,0,,9.0,29.811024,,,TRUE,TRUE,,,,,,VCTS DZ,CLR,,,,,,,,VFR,,,,,,,,,,,,METAR,3.0
KLRJ 072155Z AUTO 08008G13KT 10SM BKN031 OVC039 15/15 A2997 RMK AO2,KLRJ,2023-07-07T21:55:00Z,42.77,-96.2,15.0,15.0,80,8,13,10.0,29.970472,,,TRUE,TRUE,,,,,,,BKN,3100,OVC,3900,,,,,VFR,,,,,,,,,,,,SPECI,363.0
KLRF 072155Z AUTO 28003KT 10SM SCT030 SCT045 BKN095 31/24 A2987 RMK AO2 SLP115 T03080237,KLRF,2023-07-07T21:55:00Z,34.92,-92.12,30.8,23.7,280,3,,10.0,29.870079,1011.5,,TRUE,TRUE,,,,,,,SCT,3000,SCT,4500,BKN,9500,,,VFR,,,,,,,,,,,,METAR,85.0
KLQK 072155Z AUTO 00000KT 10SM CLR 25/21 A2988 RMK AO2 T02510211,KLQK,2023-07-07T21:55:00Z,34.82,-82.7,25.1,21.1,0,0,,10.0,29.878937,,,TRUE,TRUE,,,,,,,CLR,,,,,,,,VFR,,,,,,,,,,,,METAR,291.0
KLOR 072155Z AUTO 28008KT 10SM FEW039 SCT049 33/23 A2987 RMK AO2 LTG DSNT SE AND SW SLP096 T03250234,KLOR,2023-07-07T21:55:00Z,31.35,-85.75,32.5,23.4,280,8,,10.0,29.870079,1009.6,,TRUE,TRUE,,,,,,,FEW,3900,SCT,4900,,,,,VFR,,,,,,,,,,,,METAR,92.0
KLOM 072155Z AUTO 06003KT 10SM CLR 26/24 A2983 RMK AO2 T02640236,KLOM,2023-07-07T21:55:00Z,40.13,-75.27,26.4,23.6,60,3,,10.0,29.828741,,,TRUE,TRUE,,,,,,,CLR,,,,,,,,VFR,,,,,,,,,,,,SPECI,87.0
KLNQ 072155Z AUTO 15006KT 10SM 32/25 A2996 RMK AO2 T03210250,KLNQ,2023-07-07T21:55:00Z,29.35,-89.43,32.1,25.0,150,6,,10.0,29.958662,,,TRUE,TRUE,,,,,,,,,,,,,,,,,,,,,,,,,,,SPECI,1.0
KLNP 072155Z AUTO 01006KT 10SM SCT033 26/18 A3002 RMK AO2,KLNP,2023-07-07T21:55:00Z,36.98,-82.52,26.0,18.0,10,6,,10.0,30.02067,,,TRUE,TRUE,,,,,,,SCT,3300,,,,,,,VFR,,,,,,,,,,,,METAR,817.0
KLNN 072155Z AUTO 04005KT 10SM CLR 23/11 A2996 RMK AO1 T02310114,KLNN,2023-07-07T21:55:00Z,41.68,-81.38,23.1,11.4,40,5,,10.0,29.958662,,,TRUE,TRUE,,,,,,,CLR,,,,,,,,VFR,,,,,,,,,,,,METAR,190.0
KLNL 072155Z AUTO 24005KT 10SM OVC060 23/10 A2997 RMK AO2 T02260097,KLNL,2023-07-07T21:55:00Z,46.15,-89.22,22.6,9.7,240,5,,10.0,29.970472,,,TRUE,TRUE,,,,,,,OVC,6000,,,,,,,VFR,,,,,,,,,,,,METAR,517.0
KLNC 072155Z AUTO 18009G15KT 10SM SCT055 35/21 A2989 RMK AO2 T03490209,KLNC,2023-07-07T21:55:00Z,32.58,-96.72,34.9,20.9,180,9,15,10.0,29.890747,,,TRUE,TRUE,,,,,,,SCT,5500,,,,,,,VFR,,,,,,,,,,,,METAR,152.0
KLNA 072155Z AUTO 11003KT SCT065 SCT070 SCT090 27/24 A2995 RMK AO2 LTG DSNT SW THRU NE T02680238,KLNA,2023-07-07T21:55:00Z,26.6,-80.08,26.8,23.8,110,3,,,29.949802,,,TRUE,TRUE,,,,,,,SCT,6500,SCT,7000,SCT,9000,,,,,,,,,,,,,,,METAR,3.0
KLMS 072155Z AUTO 33006KT 10SM FEW090 SCT110 28/24 A2996 RMK AO2,KLMS,2023-07-07T21:55:00Z,,,28.0,24.0,330,6,,10.0,29.958662,,,TRUE,TRUE,,,,,,,FEW,9000,SCT,11000,,,,,VFR,,,,,,,,,,,,METAR,
KLMO 072155Z AUTO 01012KT 10SM -RA SCT100 25/10 A3013 RMK AO2 T02540100,KLMO,2023-07-07T21:55:00Z,40.17,-105.17,25.4,10.0,10,12,,10.0,30.129921,,,TRUE,TRUE,,,,,,-RA,SCT,10000,,,,,,,VFR,,,,,,,,,,,,METAR,1535.0
KLLN 072155Z AUTO 17017G26KT 6SM HZ CLR 34/15 A2988 RMK AO2,KLLN,2023-07-07T21:55:00Z,33.55,-102.37,34.0,15.0,170,17,26,6.0,29.878937,,,TRUE,TRUE,,,,,,HZ,CLR,,,,,,,,VFR,,,,,,,,,,,,SPECI,1071.0
KLLJ 072155Z AUTO 01006KT 10SM -RA BKN110 27/04 A2995 RMK AO2 RAB51 SLP082 P0000 T02720039,KLLJ,2023-07-07T21:55:00Z,44.52,-114.22,27.2,3.9,10,6,,10.0,29.949802,1008.2,,TRUE,TRUE,,,,,,-RA,BKN,11000,,,,,,,VFR,,,,,,0.005,,,,,,METAR,1535.0
KLKU 072155Z AUTO 14005KT 10SM CLR 30/23 A2983 RMK AO2 LTG DSNT N AND NW T02970234,KLKU,2023-07-07T21:55:00Z,38.02,-77.97,29.7,23.4,140,5,,10.0,29.828741,,,TRUE,TRUE,,,,,,,CLR,,,,,,,,VFR,,,,,,,,,,,,METAR,146.0
KLKR 072155Z AUTO 05008KT 10SM VCTS FEW050 SCT070 SCT090 27/22 A2988 RMK AO2 LTG DSNT ALQDS,KLKR,2023-07-07T21:55:00Z,34.72,-80.85,27.0,22.0,50,8,,10.0,29.878937,,,TRUE,TRUE,,,,,,VCTS,FEW,5000,SCT,7000,SCT,9000,,,VFR,,,,,,,,,,,,METAR,166.0
KLJF 072155Z AUTO 00000KT 10SM CLR 21/11 A2996 RMK AO2,KLJF,2023-07-07T21:55:00Z,45.1,-94.52,21.0,11.0,0,0,,10.0,29.958662,,,TRUE,TRUE,,,,,,,CLR,,,,,,,,VFR,,,,,,,,,,,,METAR,347.0
KLIC 072155Z AUTO 04011KT 10SM CLR 24/12 A3008 RMK AO2 LTG DSNT S SLP113 T02440122,KLIC,2023-07-07T21:55:00Z,39.27,-103.67,24.4,12.2,40,11,,10.0,30.079725,1011.3,,TRUE,TRUE,,,,,,,CLR,,,,,,,,VFR,,,,,,,,,,,,METAR,1635.0
KLHW 072155Z AUTO 23005KT 10SM FEW060 FEW100 34/23 A2977 RMK AO2 SLP084 T03380225 $,KLHW,2023-07-07T21:55:00Z,31.88,-81.57,33.8,22.5,230,5,,10.0,29.769686,1008.4,,TRUE,TRUE,TRUE,,,,,,FEW,6000,FEW,10000,,,,,VFR,,,,,,,,,,,,METAR,14.0
KLHM 072155Z AUTO 20006KT 10SM CLR 29/13 A2979 RMK AO1,KLHM,2023-07-07T21:55:00Z,38.92,-121.35,29.0,13.0,200,6,,10.0,29.790354,,,TRUE,TRUE,,,,,,,CLR,,,,,,,,VFR,,,,,,,,,,,,METAR,36.0
KLHB 072155Z AUTO 16006KT 10SM SCT055 BKN070 BKN080 34/21 A2991 RMK AO2 T03350214,KLHB,2023-07-07T21:55:00Z,30.87,-96.62,33.5,21.4,160,6,,10.0,29.911417,,,TRUE,TRUE,,,,,,,SCT,5500,BKN,7000,BKN,8000,,,VFR,,,,,,,,,,,,SPECI,83.0
KLGF 072155Z AUTO 26009KT M M CLR 40/M09 A2966 RMK AO2 SLP039 T04031095 RVRNO PWINO TSNO $,KLGF,2023-07-07T21:55:00Z,32.87,-114.4,40.3,-9.5,260,9,,,29.660433,1003.9,,TRUE,TRUE,TRUE,,TRUE,,TRUE,,CLR,,,,,,,,,,,,,,,,,,,,METAR,118.0
KLFI 072155Z 09006KT 10SM SCT060 BKN180 27/27 A2981 RMK AO2A LTG DSNT S SLP101 T02720270 $,KLFI,2023-07-07T21:55:00Z,37.08,-76.33,27.2,27.0,90,6,,10.0,29.811024,1010.1,,,TRUE,TRUE,,,,,,SCT,6000,BKN,18000,,,,,VFR,,,,,,,,,,,,METAR,2.0
KLDM 072155Z AUTO 31006KT 10SM CLR 24/09 A2996 RMK AO2 T02380086,KLDM,2023-07-07T21:55:00Z,43.97,-86.4,23.8,8.6,310,6,,10.0,29.958662,,,TRUE,TRUE,,,,,,,CLR,,,,,,,,VFR,,,,,,,,,,,,METAR,194.0
KLCQ 072155Z AUTO 28004KT 10SM -VCTSRA SCT120 26/21 A2989 RMK AO2 LTG DSNT ALQS,KLCQ,2023-07-07T21:55:00Z,30.18,-82.58,26.0,21.0,280,4,,10.0,29.890747,,,TRUE,TRUE,,,,,,VCTS -RA,SCT,12000,,,,,,,VFR,,,,,,,,,,,,SPECI,59.0
KLCK 072155Z AUTO 31005KT 10SM CLR 29/17 A2991 RMK AO2 T02910171,KLCK,2023-07-07T21:55:00Z,39.82,-82.92,29.1,17.1,310,5,,10.0,29.911417,,,TRUE,TRUE,,,,,,,CLR,,,,,,,,VFR,,,,,,,,,,,,METAR,225.0
KLCG 072155Z AUTO 05010KT 5SM -DZ OVC006 17/16 A2995 RMK AO2 T01650157,KLCG,2023-07-07T21:55:00Z,42.25,-96.98,16.5,15.7,50,10,,5.0,29.949802,,,TRUE,TRUE,,,,,,-DZ,OVC,600,,,,,,,IFR,,,,,,,,,,,,METAR,434.0
KLBO 072155Z AUTO 22010KT 10SM SCT055 SCT065 BKN085 31/15 A2990 RMK AO2 LTG DSNT NE,KLBO,2023-07-07T21:55:00Z,37.65,-92.65,31.0,15.0,220,10,,10.0,29.899607,,,TRUE,TRUE,,,,,,,SCT,5500,SCT,6500,BKN,8500,,,VFR,,,,,,,,,,,,METAR,399.0
KLAM 072155Z AUTO 25008KT 7SM BKN110 29/01 A3016 RMK AO2 T02880005 $,KLAM,2023-07-07T21:55:00Z,35.87,-106.27,28.8,0.5,250,8,,7.0,30.159449,,,TRUE,TRUE,TRUE,,,,,,BKN,11000,,,,,,,VFR,,,,,,,,,,,,METAR,2166.0
KL35 072155Z AUTO 07010KT 10SM CLR 25/M02 A3010 RMK AO2,KL35,2023-07-07T21:55:00Z,34.27,-116.85,25.0,-2.0,70,10,,10.0,30.100393,,,TRUE,TRUE,,,,,,,CLR,,,,,,,,VFR,,,,,,,,,,,,METAR,2062.0
KL18 072155Z AUTO 21007KT 180V250 10SM CLR 24/13 A2985 RMK AO2,KL18,2023-07-07T21:55:00Z,33.35,-117.25,24.0,13.0,210,7,,10.0,29.84941,,,TRUE,TRUE,,,,,,,CLR,,,,,,,,VFR,,,,,,,,,,,,METAR,215.0
KL08 072155Z AUTO 25007G23KT 200V340 10SM CLR 39/M01 A2965 RMK AO2,KL08,2023-07-07T21:55:00Z,33.27,-116.32,39.0,-1.0,250,7,23,10.0,29.648623,,,TRUE,TRUE,,,,,,,CLR,,,,,,,,VFR,,,,,,,,,,,,METAR,156.0
KKY8 072155Z AUTO 26005KT 10SM CLR 30/19 A2992 RMK A01,KKY8,2023-07-07T21:55:00Z,37.95,-86.87,30.0,19.0,260,5,,10.0,29.920275,,,TRUE,TRUE,,,,,,,CLR,,,,,,,,VFR,,,,,,,,,,,,METAR,124.0
KKNB 072155Z AUTO 24009G22KT 10SM CLR 34/M08 A2996 RMK A01,KKNB,2023-07-07T21:55:00Z,37.02,-112.53,34.0,-8.0,240,9,22,10.0,29.958662,,,TRUE,TRUE,,,,,,,CLR,,,,,,,,VFR,,,,,,,,,,,,METAR,1476.0
KK88 072155Z AUTO 23007KT 10SM CLR 27/19 A2989 RMK AO1 T02710187,KK88,2023-07-07T21:55:00Z,37.87,-95.38,27.1,18.7,230,7,,10.0,29.890747,,,TRUE,TRUE,,,,,,,CLR,,,,,,,,VFR,,,,,,,,,,,,METAR,308.0
KK82 072155Z AUTO 23007KT 10SM BKN048 BKN060 BKN070 27/20 A2990 RMK AO2 T02690202,KK82,2023-07-07T21:55:00Z,39.77,-98.8,26.9,20.2,230,7,,10.0,29.899607,,,TRUE,TRUE,,,,,,,BKN,4800,BKN,6000,BKN,7000,,,VFR,,,,,,,,,,,,SPECI,548.0
KK70 072155Z AUTO 23009KT 10SM CLR 33/23 A2992 RMK AO2 LTG DSNT N AND NW,KK70,2023-07-07T21:55:00Z,25.32,-80.28,33.0,23.0,230,9,,10.0,29.920275,,,TRUE,TRUE,,,,,,,CLR,,,,,,,,VFR,,,,,,,,,,,,METAR,20.0
KK62 072155Z AUTO 30005KT 10SM CLR 30/13 A2992 RMK AO2,KK62,2023-07-07T21:55:00Z,38.7,-84.4,30.0,13.0,300,5,,10.0,29.920275,,,TRUE,TRUE,,,,,,,CLR,,,,,,,,VFR,,,,,,,,,,,,SPECI,274.0
KJZP 072155Z AUTO 33004KT 10SM SCT080 BKN110 28/21 A2993 RMK AO2 LTG DSNT S T02760213,KJZP,2023-07-07T21:55:00Z,34.45,-84.47,27.6,21.3,330,4,,10.0,29.929134,,,TRUE,TRUE,,,,,,,SCT,8000,BKN,11000,,,,,VFR,,,,,,,,,,,,SPECI,462.0
KJZI 072155Z AUTO 00000KT 10SM CLR 29/22 A2981 RMK AO2 LTG DSNT N AND W P0003,KJZI,2023-07-07T21:55:00Z,32.7,-80.0,29.0,22.0,0,0,,10.0,29.811024,,,TRUE,TRUE,,,,,,,CLR,,,,,,,,VFR,,,,,,0.03,,,,,,METAR,5.0
KJYR 072155Z AUTO 24003KT 10SM SCT023 SCT028 BKN040 24/19 A2990 RMK AO2,KJYR,2023-07-07T21:55:00Z,40.9,-97.62,24.0,19.0,240,3,,10.0,29.899607,,,TRUE,TRUE,,,,,,,SCT,2300,SCT,2800,BKN,4000,,,VFR,,,,,,,,,,,,METAR,508.0
KJYO 072155Z AUTO 13005KT 10SM SCT070 31/23 A2983 RMK AO2,KJYO,2023-07-07T21:55:00Z,39.07,-77.57,31.0,23.0,130,5,,10.0,29.828741,,,TRUE,TRUE,,,,,,,SCT,7000,,,,,,,VFR,,,,,,,,,,,,METAR,112.0
KJYM 072155Z AUTO 14003KT 10SM SCT075 BKN100 BKN120 27/10 A2995 RMK AO2 T02650104,KJYM,2023-07-07T21:55:00Z,41.92,-84.58,26.5,10.4,140,3,,10.0,29.949802,,,TRUE,TRUE,,,,,,,SCT,7500,BKN,10000,BKN,12000,,,VFR,,,,,,,,,,,,METAR,357.0
KJXI 072155Z AUTO 17008KT 10SM CLR 32/19 A2988 RMK AO2 T03240191,KJXI,2023-07-07T21:55:00Z,32.7,-94.95,32.4,19.1,170,8,,10.0,29.878937,,,TRUE,TRUE,,,,,,,CLR,,,,,,,,VFR,,,,,,,,,,,,METAR,130.0
KJWY 072155Z AUTO 16009G15KT 10SM BKN110 35/20 A2991 RMK AO2 T03500202,KJWY,2023-07-07T21:55:00Z,32.45,-96.92,35.0,20.2,160,9,15,10.0,29.911417,,,TRUE,TRUE,,,,,,,BKN,11000,,,,,,,VFR,,,,,,,,,,,,METAR,211.0
KJWG 072155Z AUTO 13012KT 10SM CLR 29/22 A2991 RMK AO2 T02890220,KJWG,2023-07-07T21:55:00Z,35.87,-98.42,28.9,22.0,130,12,,10.0,29.911417,,,TRUE,TRUE,,,,,,,CLR,,,,,,,,VFR,,,,,,,,,,,,METAR,469.0
KJVY 072155Z AUTO 00000KT 10SM CLR 31/16 A2991 RMK AO2,KJVY,2023-07-07T21:55:00Z,38.37,-85.73,31.0,16.0,0,0,,10.0,29.911417,,,TRUE,TRUE,,,,,,,CLR,,,,,,,,VFR,,,,,,,,,,,,SPECI,141.0
KJTC 072155Z AUTO 23021G29KT 10SM FEW043 FEW060 FEW075 32/01 A3017 RMK AO2,KJTC,2023-07-07T21:55:00Z,34.13,-109.32,32.0,1.0,230,21,29,10.0,30.171259,,,TRUE,TRUE,,,,,,,FEW,4300,FEW,6000,FEW,7500,,,VFR,,,,,,,,,,,,METAR,2148.0
KJSV 072155Z AUTO 24006KT 10SM CLR 30/23 A2991 RMK AO2,KJSV,2023-07-07T21:55:00Z,35.43,-94.8,30.0,23.0,240,6,,10.0,29.911417,,,TRUE,TRUE,,,,,,,CLR,,,,,,,,VFR,,,,,,,,,,,,METAR,158.0
KJSO 072155Z AUTO 25005KT 10SM CLR 32/21 A2995 RMK AO2 T03210219 TSNO,KJSO,2023-07-07T21:55:00Z,31.87,-95.22,32.1,21.9,250,5,,10.0,29.949802,,,TRUE,TRUE,,,TRUE,,,,CLR,,,,,,,,VFR,,,,,,,,,,,,METAR,204.0
KJRO 072155Z AUTO 31005KT 10SM CLR 30/17 A2992 RMK AO2,KJRO,2023-07-07T21:55:00Z,38.98,-82.58,30.0,17.0,310,5,,10.0,29.920275,,,TRUE,TRUE,,,,,,,CLR,,,,,,,,VFR,,,,,,,,,,,,METAR,224.0
KJPX 072155Z AUTO 16005KT 10SM OVC005 24/23 A2986 RMK AO2 T02380226,KJPX,2023-07-07T21:55:00Z,40.95,-72.25,23.8,22.6,160,5,,10.0,29.861221,,,TRUE,TRUE,,,,,,,OVC,500,,,,,,,IFR,,,,,,,,,,,,METAR,10.0
KJOT 072155Z AUTO 19003KT 10SM BKN050 28/16 A2992 RMK AO2 T02760157,KJOT,2023-07-07T21:55:00Z,41.52,-88.18,27.6,15.7,190,3,,10.0,29.920275,,,TRUE,TRUE,,,,,,,BKN,5000,,,,,,,VFR,,,,,,,,,,,,METAR,175.0
KJMR 072155Z AUTO 23006KT 10SM CLR 23/07 A2999 RMK AO2,KJMR,2023-07-07T21:55:00Z,45.88,-93.27,23.0,7.0,230,6,,10.0,29.991142,,,TRUE,TRUE,,,,,,,CLR,,,,,,,,VFR,,,,,,,,,,,,METAR,301.0
KJKJ 072155Z AUTO 34004KT 10SM SCT035 SCT060 21/17 A2990 RMK AO2 LTG DSNT SE AND S P0003,KJKJ,2023-07-07T21:55:00Z,46.83,-96.67,21.0,17.0,340,4,,10.0,29.899607,,,TRUE,TRUE,,,,,,,SCT,3500,SCT,6000,,,,,VFR,,,,,,0.03,,,,,,METAR,280.0
KJKA 072155Z 27009G16KT 9SM FEW044 31/23 A2992,KJKA,2023-07-07T21:55:00Z,30.28,-87.67,31.0,23.0,270,9,16,9.0,29.920275,,,,,,,,,,,FEW,4400,,,,,,,VFR,,,,,,,,,,,,METAR,5.0
KJHN 072155Z AUTO 04006KT 10SM SCT027 SCT033 SCT050 27/20 A2994 RMK AO2 T02650197,KJHN,2023-07-07T21:55:00Z,37.58,-101.73,26.5,19.7,40,6,,10.0,29.940945,,,TRUE,TRUE,,,,,,,SCT,2700,SCT,3300,SCT,5000,,,VFR,,,,,,,,,,,,METAR,1013.0
KJFZ 072155Z AUTO 32003KT 10SM SCT030 26/21 A3000 RMK AO2 T02560205,KJFZ,2023-07-07T21:55:00Z,37.07,-81.8,25.6,20.5,320,3,,10.0,30.0,,,TRUE,TRUE,,,,,,,SCT,3000,,,,,,,VFR,,,,,,,,,,,,METAR,809.0
KJFX 072155Z AUTO 32005KT 10SM VCTS RA FEW070 SCT085 25/24 A2992 RMK AO2 LTG DSNT ALQDS,KJFX,2023-07-07T21:55:00Z,33.9,-87.32,25.0,24.0,320,5,,10.0,29.920275,,,TRUE,TRUE,,,,,,VCTS RA,FEW,7000,SCT,8500,,,,,VFR,,,,,,,,,,,,METAR,144.0
KJES 072155Z AUTO 31007KT 10SM SCT060 36/20 A2984 RMK AO2 LTG DSNT S AND SW,KJES,2023-07-07T21:55:00Z,31.55,-81.88,36.0,20.0,310,7,,10.0,29.840551,,,TRUE,TRUE,,,,,,,SCT,6000,,,,,,,VFR,,,,,,,,,,,,SPECI,26.0
KJDD 072155Z AUTO 22014G21KT 10SM CLR 33/22 A2985 RMK AO2,KJDD,2023-07-07T21:55:00Z,32.75,-95.5,33.0,22.0,220,14,21,10.0,29.84941,,,TRUE,TRUE,,,,,,,CLR,,,,,,,,VFR,,,,,,,,,,,,METAR,127.0
KJCA 072155Z AUTO 28017G30KT 3SM +TSRA BR SCT032 BKN050 OVC110 22/21 A2993 RMK AO2 LTG DSNT ALQDS P0027 T02160211,KJCA,2023-07-07T21:55:00Z,34.18,-83.57,21.6,21.1,280,17,30,3.0,29.929134,,,TRUE,TRUE,,,,,,+TSRA BR,SCT,3200,BKN,5000,OVC,11000,,,MVFR,,,,,,0.27,,,,,,METAR,287.0
KJAS 072155Z AUTO 25006G12KT 10SM CLR 33/24 A2992 RMK AO2,KJAS,2023-07-07T21:55:00Z,30.88,-94.03,33.0,24.0,250,6,12,10.0,29.920275,,,TRUE,TRUE,,,,,,,CLR,,,,,,,,VFR,,,,,,,,,,,,SPECI,60.0
KJAQ 072155Z AUTO 26008KT 10SM CLR 27/11 A2988 RMK AO1 T02730109,KJAQ,2023-07-07T21:55:00Z,38.37,-120.8,27.3,10.9,260,8,,10.0,29.878937,,,TRUE,TRUE,,,,,,,CLR,,,,,,,,VFR,,,,,,,,,,,,METAR,518.0
KIZA 072155Z AUTO 27013KT 10SM CLR 22/14 A2986 RMK AO2,KIZA,2023-07-07T21:55:00Z,34.6,-120.07,22.0,14.0,270,13,,10.0,29.861221,,,TRUE,TRUE,,,,,,,CLR,,,,,,,,VFR,,,,,,,,,,,,METAR,200.0
KIYA 072155Z AUTO 21005KT 10SM SCT043 BKN095 OVC120 27/19 A2995 RMK AO2 T02670194,KIYA,2023-07-07T21:55:00Z,29.98,-92.08,26.7,19.4,210,5,,10.0,29.949802,,,TRUE,TRUE,,,,,,,SCT,4300,BKN,9500,OVC,12000,,,VFR,,,,,,,,,,,,SPECI,4.0
KISQ 072155Z AUTO 19009KT 10SM CLR 21/12 A2994 RMK AO2 T02100115,KISQ,2023-07-07T21:55:00Z,45.97,-86.17,21.0,11.5,190,9,,10.0,29.940945,,,TRUE,TRUE,,,,,,,CLR,,,,,,,,VFR,,,,,,,,,,,,METAR,206.0
KIRS 072155Z AUTO 25006KT 10SM SCT070 28/11 A2992 RMK AO2 T02760105,KIRS,2023-07-07T21:55:00Z,41.8,-85.43,27.6,10.5,250,6,,10.0,29.920275,,,TRUE,TRUE,,,,,,,SCT,7000,,,,,,,VFR,,,,,,,,,,,,METAR,282.0
KIRK 072155Z AUTO 10008KT 10SM 19/16 A2993 RMK AO2 SLP137 T01940161 $,KIRK,2023-07-07T21:55:00Z,40.1,-92.55,19.4,16.1,100,8,,10.0,29.929134,1013.7,,TRUE,TRUE,TRUE,,,,,,,,,,,,,,,,,,,,,,,,,,METAR,292.0
KIOB 072155Z AUTO 00000KT 10SM CLR 30/15 A2995 RMK AO2 PWINO,KIOB,2023-07-07T21:55:00Z,38.05,-83.98,30.0,15.0,0,0,,10.0,29.949802,,,TRUE,TRUE,,,,,TRUE,,CLR,,,,,,,,VFR,,,,,,,,,,,,METAR,301.0
KINS 072155Z AUTO 05009G17KT 10SM CLR 36/M05 A2977 RMK AO2 SLP029 T03571055 $,KINS,2023-07-07T21:55:00Z,36.58,-115.68,35.7,-5.5,50,9,17,10.0,29.769686,1002.9,,TRUE,TRUE,TRUE,,,,,,CLR,,,,,,,,VFR,,,,,,,,,,,,METAR,954.0
KINJ 072155Z AUTO 15012G18KT 10SM SCT055 36/21 A2988 RMK AO2 T03590212,KINJ,2023-07-07T21:55:00Z,32.08,-97.1,35.9,21.2,150,12,18,10.0,29.878937,,,TRUE,TRUE,,,,,,,SCT,5500,,,,,,,VFR,,,,,,,,,,,,METAR,208.0
KINF 072155Z AUTO 27005KT 7SM SCT033 SCT045 SCT090 32/25 A2991 RMK AO2 LTG DSNT N THRU SE,KINF,2023-07-07T21:55:00Z,28.8,-82.32,32.0,25.0,270,5,,7.0,29.911417,,,TRUE,TRUE,,,,,,,SCT,3300,SCT,4500,SCT,9000,,,VFR,,,,,,,,,,,,METAR,14.0
KIMS 072155Z AUTO 00000KT 10SM CLR 30/16 A2994 RMK AO2,KIMS,2023-07-07T21:55:00Z,38.75,-85.47,30.0,16.0,0,0,,10.0,29.940945,,,TRUE,TRUE,,,,,,,CLR,,,,,,,,VFR,,,,,,,,,,,,SPECI,244.0
KIMM 072155Z AUTO 16013G25KT 10SM TS BKN041 BKN050 BKN065 40/35 A2993 RMK AO2 LTG DSNT ALQDS,KIMM,2023-07-07T21:55:00Z,26.43,-81.4,40.0,35.0,160,13,25,10.0,29.929134,,,TRUE,TRUE,,,,,,TS,BKN,4100,BKN,5000,BKN,6500,,,VFR,,,,,,,,,,,,METAR,11.0
KIKW 072155Z AUTO 10003KT 10SM OVC065 25/11 A2994 RMK AO2 T02500105,KIKW,2023-07-07T21:55:00Z,43.67,-84.27,25.0,10.5,100,3,,10.0,29.940945,,,TRUE,TRUE,,,,,,,OVC,6500,,,,,,,VFR,,,,,,,,,,,,METAR,190.0
KIKV 072155Z AUTO 10007KT 9SM FEW030 SCT036 BKN090 18/14 A2996 RMK AO2,KIKV,2023-07-07T21:55:00Z,41.68,-93.57,18.0,14.0,100,7,,9.0,29.958662,,,TRUE,TRUE,,,,,,,FEW,3000,SCT,3600,BKN,9000,,,VFR,,,,,,,,,,,,METAR,270.0
KIKK 072155Z AUTO 26010KT 10SM CLR 27/14 A2995 RMK AO2 T02660140 PWINO,KIKK,2023-07-07T21:55:00Z,41.07,-87.85,26.6,14.0,260,10,,10.0,29.949802,,,TRUE,TRUE,,,,,TRUE,,CLR,,,,,,,,VFR,,,,,,,,,,,,SPECI,188.0
KIKG 072155Z AUTO 16005KT 7SM -RA SCT055 BKN070 OVC120 24/23 A2993 RMK AO2 P0008 T02360226,KIKG,2023-07-07T21:55:00Z,27.55,-98.03,23.6,22.6,160,5,,7.0,29.929134,,,TRUE,TRUE,,,,,,-RA,SCT,5500,BKN,7000,OVC,12000,,,VFR,,,,,,0.08,,,,,,SPECI,37.0
KIIB 072155Z AUTO 00000KT 10SM BKN044 OVC070 19/13 A2999 RMK AO2 T01940128,KIIB,2023-07-07T21:55:00Z,42.45,-91.95,19.4,12.8,0,0,,10.0,29.991142,,,TRUE,TRUE,,,,,,,BKN,4400,OVC,7000,,,,,VFR,,,,,,,,,,,,SPECI,294.0
KIGQ 072155Z AUTO 03007KT 10SM SCT041 BKN060 25/17 A2993 RMK AO2 T02530173,KIGQ,2023-07-07T21:55:00Z,41.53,-87.53,25.3,17.3,30,7,,10.0,29.929134,,,TRUE,TRUE,,,,,,,SCT,4100,BKN,6000,,,,,VFR,,,,,,,,,,,,METAR,187.0
KIFA 072155Z AUTO 03004KT 10SM -RA SCT044 OVC060 19/13 A2999 RMK AO2 T01860134,KIFA,2023-07-07T21:55:00Z,42.47,-93.27,18.6,13.4,30,4,,10.0,29.991142,,,TRUE,TRUE,,,,,,-RA,SCT,4400,OVC,6000,,,,,VFR,,,,,,,,,,,,METAR,344.0
KIER 072155Z AUTO 31005KT 10SM CLR 35/21 A2991 RMK AO2 T03480205,KIER,2023-07-07T21:55:00Z,31.73,-93.1,34.8,20.5,310,5,,10.0,29.911417,,,TRUE,TRUE,,,,,,,CLR,,,,,,,,VFR,,,,,,,,,,,,SPECI,35.0
KIDP 072155Z AUTO 33006KT 10SM CLR 25/22 A2990 RMK AO2 T02510222,KIDP,2023-07-07T21:55:00Z,37.17,-95.78,25.1,22.2,330,6,,10.0,29.899607,,,TRUE,TRUE,,,,,,,CLR,,,,,,,,VFR,,,,,,,,,,,,SPECI,252.0
KIDI 072155Z AUTO 33008KT 10SM SCT033 BKN040 BKN055 27/20 A2995 RMK A01,KIDI,2023-07-07T21:55:00Z,40.63,-79.1,27.0,20.0,330,8,,10.0,29.949802,,,TRUE,TRUE,,,,,,,SCT,3300,BKN,4000,BKN,5500,,,VFR,,,,,,,,,,,,METAR,425.0
KICL 072155Z AUTO 05005KT 10SM SCT020 BKN045 OVC065 22/19 A2992 RMK AO2,KICL,2023-07-07T21:55:00Z,40.72,-95.02,22.0,19.0,50,5,,10.0,29.920275,,,TRUE,TRUE,,,,,,,SCT,2000,BKN,4500,OVC,6500,,,VFR,,,,,,,,,,,,SPECI,299.0
KIBM 072155Z AUTO 36011KT 10SM CLR 21/11 A3011 RMK AO2 T02110107,KIBM,2023-07-07T21:55:00Z,41.18,-103.68,21.1,10.7,360,11,,10.0,30.109253,,,TRUE,TRUE,,,,,,,CLR,,,,,,,,VFR,,,,,,,,,,,,METAR,1494.0
KI95 072155Z AUTO VRB06KT 9SM CLR 26/17 A2993 RMK A01,KI95,2023-07-07T21:55:00Z,,,26.0,17.0,0,6,,9.0,29.929134,,,TRUE,TRUE,,,,,,,CLR,,,,,,,,VFR,,,,,,,,,,,,METAR,
KI75 072155Z AUTO 07006KT 7SM OVC017 20/17 A2994 RMK AO2 T01950166,KI75,2023-07-07T21:55:00Z,41.05,-93.68,19.5,16.6,70,6,,7.0,29.940945,,,TRUE,TRUE,,,,,,,OVC,1700,,,,,,,MVFR,,,,,,,,,,,,METAR,336.0
KI74 072155Z AUTO 00000KT 10SM SCT050 SCT065 27/18 A2994 RMK AO2,KI74,2023-07-07T21:55:00Z,40.12,-83.75,27.0,18.0,0,0,,10.0,29.940945,,,TRUE,TRUE,,,,,,,SCT,5000,SCT,6500,,,,,VFR,,,,,,,,,,,,METAR,322.0
KI68 072155Z AUTO 00000KT 10SM CLR 29/15 A2991 RMK AO2,KI68,2023-07-07T21:55:00Z,39.47,-84.25,29.0,15.0,0,0,,10.0,29.911417,,,TRUE,TRUE,,,,,,,CLR,,,,,,,,VFR,,,,,,,,,,,,METAR,274.0
KI67 072155Z AUTO 05004KT 10SM CLR 30/13 A2990 RMK AO1,KI67,2023-07-07T21:55:00Z,39.25,-84.78,30.0,13.0,50,4,,10.0,29.899607,,,TRUE,TRUE,,,,,,,CLR,,,,,,,,VFR,,,,,,,,,,,,METAR,177.0
KI63 072155Z AUTO 34003KT 10SM BKN050 OVC070 23/17 A2997 RMK AO2 LTG DSNT W T02250170,KI63,2023-07-07T21:55:00Z,39.98,-90.8,22.5,17.0,340,3,,10.0,29.970472,,,TRUE,TRUE,,,,,,,BKN,5000,OVC,7000,,,,,VFR,,,,,,,,,,,,SPECI,221.0
KI35 072155Z AUTO 00000KT 10SM CLR 31/18 A2994 RMK AO2 T03050184,KI35,2023-07-07T21:55:00Z,36.87,-83.37,30.5,18.4,0,0,,10.0,29.940945,,,TRUE,TRUE,,,,,,,CLR,,,,,,,,VFR,,,,,,,,,,,,SPECI,467.0
KI23 072155Z AUTO 00000KT 10SM CLR 27/18 A2992 RMK AO1,KI23,2023-07-07T21:55:00Z,39.57,-83.42,27.0,18.0,0,0,,10.0,29.920275,,,TRUE,TRUE,,,,,,,CLR,,,,,,,,VFR,,,,,,,,,,,,METAR,298.0
KI19 072155Z AUTO 00000KT 10SM CLR 29/16 A2991 RMK AO2,KI19,2023-07-07T21:55:00Z,39.7,-83.98,29.0,16.0,0,0,,10.0,29.911417,,,TRUE,TRUE,,,,,,,CLR,,,,,,,,VFR,,,,,,,,,,,,METAR,285.0
KI16 072155Z AUTO 10SM CLR 28/21 A3000 RMK AO2 T02790209 PNO,KI16,2023-07-07T21:55:00Z,37.6,-81.57,27.9,20.9,,,,10.0,30.0,,,TRUE,TRUE,,,,,,,CLR,,,,,,,,VFR,,,,,,,,,,,,METAR,528.0
KHZX 072155Z AUTO 21009G14KT 10SM SCT120 23/10 A2994 RMK AO2,KHZX,2023-07-07T21:55:00Z,46.62,-93.32,23.0,10.0,210,9,14,10.0,29.940945,,,TRUE,TRUE,,,,,,,SCT,12000,,,,,,,VFR,,,,,,,,,,,,METAR,374.0
KHZL 072155Z AUTO 34005KT 3SM /VCTSRA SCT024 BKN032 OVC060 22/21 A2995 RMK AO2 LTG DSNT ALQS P0007,KHZL,2023-07-07T21:55:00Z,40.98,-76.0,22.0,21.0,340,5,,3.0,29.949802,,,TRUE,TRUE,,,,,,VCTS RA,SCT,2400,BKN,3200,OVC,6000,,,MVFR,,,,,,0.07,,,,,,METAR,481.0
KHZE 072155Z AUTO 02014KT 10SM FEW065 24/09 A3003 RMK AO2,KHZE,2023-07-07T21:55:00Z,47.28,-101.58,24.0,9.0,20,14,,10.0,30.029528,,,TRUE,TRUE,,,,,,,FEW,6500,,,,,,,VFR,,,,,,,,,,,,METAR,542.0
KHZD 072155Z AUTO 00000KT 10SM FEW100 31/19 A2992 RMK A01,KHZD,2023-07-07T21:55:00Z,36.08,-88.47,31.0,19.0,0,0,,10.0,29.920275,,,TRUE,TRUE,,,,,,,FEW,10000,,,,,,,VFR,,,,,,,,,,,,METAR,147.0
KHYX 072155Z AUTO 28007KT 10SM BKN060 25/14 A2995 RMK AO2 T02500140,KHYX,2023-07-07T21:55:00Z,43.43,-83.87,25.0,14.0,280,7,,10.0,29.949802,,,TRUE,TRUE,,,,,,,BKN,6000,,,,,,,VFR,,,,,,,,,,,,METAR,181.0
KHYW 072155Z AUTO 19004KT 10SM -TSRA 27/25 A2980 RMK AO2 LTG DSNT ALQDS,KHYW,2023-07-07T21:55:00Z,33.83,-79.12,27.0,25.0,190,4,,10.0,29.799213,,,TRUE,TRUE,,,,,,-TSRA,,,,,,,,,,,,,,,,,,,,,METAR,10.0
KHWY 072155Z AUTO 14003KT 10SM SCT055 30/22 A2982 RMK AO2 LTG DSNT SW T02980217,KHWY,2023-07-07T21:55:00Z,38.58,-77.72,29.8,21.7,140,3,,10.0,29.819881,,,TRUE,TRUE,,,,,,,SCT,5500,,,,,,,VFR,,,,,,,,,,,,METAR,93.0
KHVS 072155Z AUTO VRB03KT 10SM FEW095 26/24 A2983 RMK AO2 LTG DSNT ALQDS P0001,KHVS,2023-07-07T21:55:00Z,34.4,-80.12,26.0,24.0,0,3,,10.0,29.828741,,,TRUE,TRUE,,,,,,,FEW,9500,,,,,,,VFR,,,,,,0.01,,,,,,METAR,110.0
KHVE 072155Z AUTO 20005KT 10SM CLR 36/M05 A2986 RMK AO2,KHVE,2023-07-07T21:55:00Z,38.42,-110.7,36.0,-5.0,200,5,,10.0,29.861221,,,TRUE,TRUE,,,,,,,CLR,,,,,,,,VFR,,,,,,,,,,,,SPECI,1351.0
KHVC 072155Z AUTO 28005KT 10SM CLR 31/18 A2991 RMK AO2,KHVC,2023-07-07T21:55:00Z,,,31.0,18.0,280,5,,10.0,29.911417,,,TRUE,TRUE,,,,,,,CLR,,,,,,,,VFR,,,,,,,,,,,,METAR,
KHUL 072155Z AUTO 00000KT 1 3/4SM -TSRA BR SCT060 OVC075 22/20 A2983 RMK AO2 LTG DSNT ALQDS TSB55 P0002 T02170200 $,KHUL,2023-07-07T21:55:00Z,46.12,-67.8,21.7,20.0,0,0,,1.75,29.828741,,,TRUE,TRUE,TRUE,,,,,-TSRA BR,SCT,6000,OVC,7500,,,,,IFR,,,,,,0.02,,,,,,METAR,148.0
KHUA 072155Z AUTO 01004KT 10SM FEW045 BKN140 31/23 A2990 RMK AO2 LTG DSNT SW-W SLP119 T03120227,KHUA,2023-07-07T21:55:00Z,34.68,-86.68,31.2,22.7,10,4,,10.0,29.899607,1011.9,,TRUE,TRUE,,,,,,,FEW,4500,BKN,14000,,,,,VFR,,,,,,,,,,,,METAR,200.0
KHTH 072155Z AUTO 33012KT 10SM CLR 34/03 A2983 RMK A01,KHTH,2023-07-07T21:55:00Z,38.55,-118.63,34.0,3.0,330,12,,10.0,29.828741,,,TRUE,TRUE,,,,,,,CLR,,,,,,,,VFR,,,,,,,,,,,,METAR,1281.0
KHSP 072155Z AUTO 28008KT 10SM CLR 25/16 A3005 RMK AO2 T02450163,KHSP,2023-07-07T21:55:00Z,37.95,-79.82,24.5,16.3,280,8,,10.0,30.050198,,,TRUE,TRUE,,,,,,,CLR,,,,,,,,VFR,,,,,,,,,,,,METAR,1148.0
KHSG 072155Z AUTO 34007KT 10SM VCTS SCT070 OVC100 18/08 A3012 RMK AO2 LTG DSNT S THRU NW T01820082,KHSG,2023-07-07T21:55:00Z,43.72,-108.38,18.2,8.2,340,7,,10.0,30.121063,,,TRUE,TRUE,,,,,,VCTS,SCT,7000,OVC,10000,,,,,VFR,,,,,,,,,,,,METAR,1497.0
KHSD 072155Z AUTO 09009KT 070V130 10SM 28/20 A2990 RMK A01,KHSD,2023-07-07T21:55:00Z,35.6,-97.72,28.0,20.0,90,9,,10.0,29.899607,,,TRUE,TRUE,,,,,,,,,,,,,,,,,,,,,,,,,,,METAR,358.0
KHSB 072155Z AUTO 21006KT 10SM CLR 30/20 A2992 RMK AO2 T03040203,KHSB,2023-07-07T21:55:00Z,37.82,-88.55,30.4,20.3,210,6,,10.0,29.920275,,,TRUE,TRUE,,,,,,,CLR,,,,,,,,VFR,,,,,,,,,,,,METAR,118.0
KHRX 072155Z AUTO 18019G26KT 10SM CLR 33/16 A2987 RMK AO2 T03250161 TSNO,KHRX,2023-07-07T21:55:00Z,34.87,-102.33,32.5,16.1,180,19,26,10.0,29.870079,,,TRUE,TRUE,,,TRUE,,,,CLR,,,,,,,,VFR,,,,,,,,,,,,METAR,1153.0
KHRT 072155Z 24010KT 10SM TS SCT020 BKN150 30/24 A2989 RMK AO2A TSB52 SLP123 T02960240 $,KHRT,2023-07-07T21:55:00Z,30.42,-86.68,29.6,24.0,240,10,,10.0,29.890747,1012.3,,,TRUE,TRUE,,,,,TS,SCT,2000,BKN,15000,,,,,VFR,,,,,,,,,,,,METAR,10.0
KHQU 072155Z AUTO 19003KT 10SM CLR 27/22 A2986 RMK AO2 LTG DSNT S AND SW T02710221,KHQU,2023-07-07T21:55:00Z,33.53,-82.52,27.1,22.1,190,3,,10.0,29.861221,,,TRUE,TRUE,,,,,,,CLR,,,,,,,,VFR,,,,,,,,,,,,SPECI,141.0
KHQG 072155Z AUTO 03006KT 10SM BKN030 BKN042 OVC065 27/21 A2993 RMK AO2 T02680206 PWINO,KHQG,2023-07-07T21:55:00Z,37.17,-101.37,26.8,20.6,30,6,,10.0,29.929134,,,TRUE,TRUE,,,,,TRUE,,BKN,3000,BKN,4200,OVC,6500,,,MVFR,,,,,,,,,,,,SPECI,956.0
KHQG 072155Z AUTO 03006KT 10SM BKN030 BKN042 OVC065 27/21 A2993 RMK AO2 T02680206 PWINO,KHQG,2023-07-07T21:55:00Z,37.17,-101.37,26.8,20.6,30,6,,10.0,29.929134,,,TRUE,TRUE,,,,,TRUE,,BKN,3000,BKN,4200,OVC,6500,,,MVFR,,,,,,,,,,,,SPECI,956.0
KHPT 072155Z AUTO 02006KT 10SM OVC065 17/11 A2999 RMK AO2,KHPT,2023-07-07T21:55:00Z,42.72,-93.23,17.0,11.0,20,6,,10.0,29.991142,,,TRUE,TRUE,,,,,,,OVC,6500,,,,,,,VFR,,,,,,,,,,,,METAR,354.0
KHOP 072155Z AUTO 24006KT 10SM CLR 32/17 A2990 RMK AO2 SLP121 T03200174,KHOP,2023-07-07T21:55:00Z,36.67,-87.5,32.0,17.4,240,6,,10.0,29.899607,1012.1,,TRUE,TRUE,,,,,,,CLR,,,,,,,,VFR,,,,,,,,,,,,METAR,170.0
KHON 072155Z AUTO 18006KT 10SM CLR 21/14 A2997 RMK AO2 SLP145 T02110144,KHON,2023-07-07T21:55:00Z,44.38,-98.23,21.1,14.4,180,6,,10.0,29.970472,1014.5,,TRUE,TRUE,,,,,,,CLR,,,,,,,,VFR,,,,,,,,,,,,METAR,391.0
KHOE 072155Z AUTO 25009KT 10SM SCT055 35/20 A2984 RMK AO2 LTG DSNT SE AND SW T03470208,KHOE,2023-07-07T21:55:00Z,31.05,-82.78,34.7,20.8,250,9,,10.0,29.840551,,,TRUE,TRUE,,,,,,,SCT,5500,,,,,,,VFR,,,,,,,,,,,,SPECI,56.0
KHNR 072155Z AUTO 08008KT 10SM SCT012 BKN017 BKN055 17/17 A2994 RMK A01,KHNR,2023-07-07T21:55:00Z,41.58,-95.33,17.0,17.0,80,8,,10.0,29.940945,,,TRUE,TRUE,,,,,,,SCT,1200,BKN,1700,BKN,5500,,,MVFR,,,,,,,,,,,,METAR,364.0
KHMZ 072155Z AUTO 35008KT 10SM SCT045 SCT050 SCT060 27/20 A2988 RMK AO2 T02700195,KHMZ,2023-07-07T21:55:00Z,40.08,-78.52,27.0,19.5,350,8,,10.0,29.878937,,,TRUE,TRUE,,,,,,,SCT,4500,SCT,5000,SCT,6000,,,VFR,,,,,,,,,,,,SPECI,351.0
KHMT 072155Z AUTO 19011G16KT 10SM CLR A2982 RMK AO2,KHMT,2023-07-07T21:55:00Z,33.73,-117.02,,,190,11,16,10.0,29.819881,,,TRUE,TRUE,,,,,,,CLR,,,,,,,,VFR,,,,,,,,,,,,METAR,462.0
KHMP 072155Z AUTO 03003KT 10SM SCT034 SCT070 BKN120 24/23 A2995 RMK AO2 LTG DSNT NE AND SE T02370229,KHMP,2023-07-07T21:55:00Z,33.38,-84.33,23.7,22.9,30,3,,10.0,29.949802,,,TRUE,TRUE,,,,,,,SCT,3400,SCT,7000,BKN,12000,,,VFR,,,,,,,,,,,,SPECI,263.0
KHMN 072155Z AUTO 22013G18KT 10SM CLR 41/04 A2989 RMK AO2 SLP033 T04070044 $,KHMN,2023-07-07T21:55:00Z,32.85,-106.1,40.7,4.4,220,13,18,10.0,29.890747,1003.3,,TRUE,TRUE,TRUE,,,,,,CLR,,,,,,,,VFR,,,,,,,,,,,,METAR,1240.0
KHLX 072155Z AUTO 33005KT 10SM SCT041 26/18 A2996 RMK AO2 T02620179,KHLX,2023-07-07T21:55:00Z,36.77,-80.82,26.2,17.9,330,5,,10.0,29.958662,,,TRUE,TRUE,,,,,,,SCT,4100,,,,,,,VFR,,,,,,,,,,,,METAR,819.0
KHLR 072155Z AUTO 16007KT 9SM FEW060 34/20 A2990 RMK AO2 SLP113 T03420198,KHLR,2023-07-07T21:55:00Z,31.13,-97.72,34.2,19.8,160,7,,9.0,29.899607,1011.3,,TRUE,TRUE,,,,,,,FEW,6000,,,,,,,VFR,,,,,,,,,,,,METAR,271.0
KHLB 072155Z AUTO 00000KT 10SM CLR 28/16 A2993 RMK A01,KHLB,2023-07-07T21:55:00Z,39.35,-85.27,28.0,16.0,0,0,,10.0,29.929134,,,TRUE,TRUE,,,,,,,CLR,,,,,,,,VFR,,,,,,,,,,,,METAR,297.0
KHJH 072155Z AUTO 10004KT 10SM SCT015 SCT028 OVC050 22/21 A2990 RMK AO2 LTG DSNT E AND SE P0028 T02200209,KHJH,2023-07-07T21:55:00Z,40.15,-97.58,22.0,20.9,100,4,,10.0,29.899607,,,TRUE,TRUE,,,,,,,SCT,1500,SCT,2800,OVC,5000,,,VFR,,,,,,0.28,,,,,,SPECI,449.0
KHII 072155Z AUTO 20015G20KT 10SM 40/M10 A2966 RMK AO2,KHII,2023-07-07T21:55:00Z,34.57,-114.37,40.0,-10.0,200,15,20,10.0,29.660433,,,TRUE,TRUE,,,,,,,,,,,,,,,,,,,,,,,,,,,SPECI,241.0
KHIF 072155Z AUTO 00000KT 10SM CLR 32/M01 A2987 RMK AO2 SLP047 T03151014,KHIF,2023-07-07T21:55:00Z,41.12,-111.97,31.5,-1.4,0,0,,10.0,29.870079,1004.7,,TRUE,TRUE,,,,,,,CLR,,,,,,,,VFR,,,,,,,,,,,,METAR,1461.0
KHHG 072155Z AUTO 21005KT 10SM CLR 27/15 A2993 RMK AO2 T02730154,KHHG,2023-07-07T21:55:00Z,40.85,-85.45,27.3,15.4,210,5,,10.0,29.929134,,,TRUE,TRUE,,,,,,,CLR,,,,,,,,VFR,,,,,,,,,,,,SPECI,247.0
KHHF 072155Z AUTO 16013G18KT 10SM SCT037 SCT044 31/22 A2986 RMK AO2 T03100216,KHHF,2023-07-07T21:55:00Z,35.9,-100.4,31.0,21.6,160,13,18,10.0,29.861221,,,TRUE,TRUE,,,,,,,SCT,3700,SCT,4400,,,,,VFR,,,,,,,,,,,,METAR,729.0
KHFF 072155Z AUTO 25007KT 10SM FEW055 FEW090 26/24 A2981 RMK AO2 LTG DSNT NE-SE AND W RAE18RAB25E51 SLP094 P0000 T02580244,KHFF,2023-07-07T21:55:00Z,35.03,-79.5,25.8,24.4,250,7,,10.0,29.811024,1009.4,,TRUE,TRUE,,,,,,,FEW,5500,FEW,9000,,,,,VFR,,,,,,0.005,,,,,,METAR,100.0
KHEY 072155Z AUTO 31005KT 10SM CLR 31/25 A2985 RMK AO2 LTG DSNT SE AND SW AND NW SLP107 T03100248,KHEY,2023-07-07T21:55:00Z,31.35,-85.65,31.0,24.8,310,5,,10.0,29.84941,1010.7,,TRUE,TRUE,,,,,,,CLR,,,,,,,,VFR,,,,,,,,,,,,METAR,95.0
KHEQ 072155Z AUTO 04009KT 10SM SCT055 27/12 A3002 RMK AO2,KHEQ,2023-07-07T21:55:00Z,40.57,-102.28,27.0,12.0,40,9,,10.0,30.02067,,,TRUE,TRUE,,,,,,,SCT,5500,,,,,,,VFR,,,,,,,,,,,,SPECI,1136.0
KHEG 072155Z AUTO 18009KT 10SM TS FEW045 FEW055 FEW095 26/24 A2989 RMK AO2 LTG DSNT ALQDS,KHEG,2023-07-07T21:55:00Z,30.28,-81.8,26.0,24.0,180,9,,10.0,29.890747,,,TRUE,TRUE,,,,,,TS,FEW,4500,FEW,5500,FEW,9500,,,VFR,,,,,,,,,,,,METAR,25.0
KHDL 072155Z AUTO 27009KT 9SM TS FEW050 32/24 A2987 RMK AO2 LTG DSNT NE AND SE,KHDL,2023-07-07T21:55:00Z,31.37,-85.32,32.0,24.0,270,9,,9.0,29.870079,,,TRUE,TRUE,,,,,,TS,FEW,5000,,,,,,,VFR,,,,,,,,,,,,SPECI,109.0
KHDE 072155Z AUTO 35009KT 10SM CLR 26/17 A2993 RMK AO2 T02610165,KHDE,2023-07-07T21:55:00Z,40.45,-99.33,26.1,16.5,350,9,,10.0,29.929134,,,TRUE,TRUE,,,,,,,CLR,,,,,,,,VFR,,,,,,,,,,,,SPECI,703.0
KHDC 072155Z AUTO 25006KT 10SM CLR 34/20 A2992 RMK AO2 LTG DSNT E AND SE T03360196,KHDC,2023-07-07T21:55:00Z,30.52,-90.42,33.6,19.6,250,6,,10.0,29.920275,,,TRUE,TRUE,,,,,,,CLR,,,,,,,,VFR,,,,,,,,,,,,METAR,12.0
KHCR 072155Z AUTO 10SM CLR 32/00 A2994 RMK AO2,KHCR,2023-07-07T21:55:00Z,40.48,-111.43,32.0,0.0,,,,10.0,29.940945,,,TRUE,TRUE,,,,,,,CLR,,,,,,,,VFR,,,,,,,,,,,,SPECI,1708.0
KHCO 072155Z AUTO 33014G20KT 10SM BKN090 21/11 A2994 RMK AO2,KHCO,2023-07-07T21:55:00Z,48.75,-96.93,21.0,11.0,330,14,20,10.0,29.940945,,,TRUE,TRUE,,,,,,,BKN,9000,,,,,,,VFR,,,,,,,,,,,,METAR,250.0
KHCD 072155Z AUTO 23005KT 10SM 21/12 A2997 RMK AO2 T02110116,KHCD,2023-07-07T21:55:00Z,44.87,-94.38,21.1,11.6,230,5,,10.0,29.970472,,,TRUE,TRUE,,,,,,,,,,,,,,,,,,,,,,,,,,,METAR,320.0
KHBV 072155Z AUTO 13010KT 1 3/4SM +RA SCT011 OVC017 24/23 A2994 RMK AO2 LTG DSNT ALQS P0027 T02440234,KHBV,2023-07-07T21:55:00Z,27.35,-98.73,24.4,23.4,130,10,,1.75,29.940945,,,TRUE,TRUE,,,,,,+RA,SCT,1100,OVC,1700,,,,,IFR,,,,,,0.27,,,,,,METAR,200.0
KHAI 072155Z AUTO 17004KT 10SM SCT075 29/09 A2993 RMK AO2 T02860091,KHAI,2023-07-07T21:55:00Z,41.97,-85.6,28.6,9.1,170,4,,10.0,29.929134,,,TRUE,TRUE,,,,,,,SCT,7500,,,,,,,VFR,,,,,,,,,,,,METAR,250.0
KHAF 072155Z AUTO 32011G17KT 6SM HZ OVC013 14/11 A2997 RMK AO2,KHAF,2023-07-07T21:55:00Z,37.52,-122.5,14.0,11.0,320,11,17,6.0,29.970472,,,TRUE,TRUE,,,,,,HZ,OVC,1300,,,,,,,MVFR,,,,,,,,,,,,METAR,11.0
KHAE 072155Z AUTO 02004KT 10SM VCTS OVC050 23/16 A2996 RMK AO2 LTG DSNT N AND NW,KHAE,2023-07-07T21:55:00Z,39.73,-91.45,23.0,16.0,20,4,,10.0,29.958662,,,TRUE,TRUE,,,,,,VCTS,OVC,5000,,,,,,,VFR,,,,,,,,,,,,METAR,230.0
KGZS 072155Z AUTO 32004KT 10SM CLR 30/23 A2993 RMK A01,KGZS,2023-07-07T21:55:00Z,35.15,-87.05,30.0,23.0,320,4,,10.0,29.929134,,,TRUE,TRUE,,,,,,,CLR,,,,,,,,VFR,,,,,,,,,,,,METAR,198.0
KGZL 072155Z AUTO 25005KT 10SM CLR 30/22 A2992 RMK AO2,KGZL,2023-07-07T21:55:00Z,35.28,-95.1,30.0,22.0,250,5,,10.0,29.920275,,,TRUE,TRUE,,,,,,,CLR,,,,,,,,VFR,,,,,,,,,,,,SPECI,176.0
KGYL 072155Z AUTO 19004KT 10SM CLR 21/12 A2995 RMK AO2 T02080116,KGYL,2023-07-07T21:55:00Z,44.77,-94.08,20.8,11.6,190,4,,10.0,29.949802,,,TRUE,TRUE,,,,,,,CLR,,,,,,,,VFR,,,,,,,,,,,,METAR,304.0
KGYF 072155Z AUTO 11009KT 10SM SCT025 SCT032 SCT039 29/26 A2991 RMK AO2 T02910255,KGYF,2023-07-07T21:55:00Z,26.13,-94.9,29.1,25.5,110,9,,10.0,29.911417,,,TRUE,TRUE,,,,,,,SCT,2500,SCT,3200,SCT,3900,,,VFR,,,,,,,,,,,,METAR,65.0
KGYB 072155Z AUTO 16008KT 10SM SCT070 32/20 A2993 RMK AO2 T03230196,KGYB,2023-07-07T21:55:00Z,30.17,-96.98,32.3,19.6,160,8,,10.0,29.929134,,,TRUE,TRUE,,,,,,,SCT,7000,,,,,,,VFR,,,,,,,,,,,,METAR,140.0
KGXF 072155Z AUTO 24008G15KT 10SM CLR 43/04 A2966 RMK AO2 SLP028 T04320035 FZRANO $,KGXF,2023-07-07T21:55:00Z,32.88,-112.72,43.2,3.5,240,8,15,10.0,29.660433,1002.8,,TRUE,TRUE,TRUE,,,TRUE,,,CLR,,,,,,,,VFR,,,,,,,,,,,,METAR,261.0
KGXA 072155Z AUTO 28009G14KT 10SM CLR 32/01 A2982 RMK AO2 SLP061 WND DATA ESTMD T03210007,KGXA,2023-07-07T21:55:00Z,34.57,-117.67,32.1,0.7,280,9,14,10.0,29.819881,1006.1,,TRUE,TRUE,,,,,,,CLR,,,,,,,,VFR,,,,,,,,,,,,METAR,927.0
KGWR 072155Z AUTO 34009KT 10SM FEW040 FEW045 22/21 A2990 RMK A01,KGWR,2023-07-07T21:55:00Z,46.22,-97.65,22.0,21.0,340,9,,10.0,29.899607,,,TRUE,TRUE,,,,,,,FEW,4000,FEW,4500,,,,,VFR,,,,,,,,,,,,METAR,381.0
KGWB 072155Z AUTO 21003KT 10SM BKN050 BKN070 27/16 A2993 RMK AO2,KGWB,2023-07-07T21:55:00Z,41.3,-85.07,27.0,16.0,210,3,,10.0,29.929134,,,TRUE,TRUE,,,,,,,BKN,5000,BKN,7000,,,,,VFR,,,,,,,,,,,,METAR,268.0
KGVT 072155Z AUTO 21017G24KT 10SM CLR 33/22 A2985 RMK AO2 TSNO T03280215,KGVT,2023-07-07T21:55:00Z,33.07,-96.07,32.8,21.5,210,17,24,10.0,29.84941,,,TRUE,TRUE,,,TRUE,,,,CLR,,,,,,,,VFR,,,,,,,,,,,,METAR,165.0
KGVE 072155Z AUTO 32011G20KT 290V010 10SM SCT050 SCT065 SCT095 30/22 A2983 RMK AO1 T03000219,KGVE,2023-07-07T21:55:00Z,38.15,-78.17,30.0,21.9,320,11,20,10.0,29.828741,,,TRUE,TRUE,,,,,,,SCT,5000,SCT,6500,SCT,9500,,,VFR,,,,,,,,,,,,METAR,138.0
KGUS 072155Z AUTO 28005KT 10SM CLR 28/14 A2991 RMK AO2 SLP127 T02790141 $,KGUS,2023-07-07T21:55:00Z,40.63,-86.15,27.9,14.1,280,5,,10.0,29.911417,1012.7,,TRUE,TRUE,TRUE,,,,,,CLR,,,,,,,,VFR,,,,,,,,,,,,METAR,245.0
KGUR 072155Z AUTO 34007KT 10SM SCT065 M A3007 RMK AO2 SLPNO ALSTG ESTMD $,KGUR,2023-07-07T21:55:00Z,42.25,-104.72,,,340,7,,10.0,30.070866,,,TRUE,TRUE,TRUE,,,,,,SCT,6500,,,,,,,VFR,,,,,,,,,,,,METAR,1341.0
KGTB 072155Z AUTO 23007KT 10SM SCT036 SCT043 SCT050 BKN130 26/20 A2983 RMK AO2 SLP098 T02640197,KGTB,2023-07-07T21:55:00Z,44.07,-75.72,26.4,19.7,230,7,,10.0,29.828741,1009.8,,TRUE,TRUE,,,,,,,SCT,3600,SCT,4300,SCT,5000,BKN,13000,VFR,,,,,,,,,,,,METAR,206.0
KGSB 072155Z 20007KT 10SM TS FEW060 SCT100CB 34/23 A2975 RMK AO2A TSB47 SLP077 WND DATA ESTMD T03370234 $,KGSB,2023-07-07T21:55:00Z,35.33,-77.93,33.7,23.4,200,7,,10.0,29.749016,1007.7,,,TRUE,TRUE,,,,,TS,FEW,6000,SCT,10000,,,,,VFR,,,,,,,,,,,,METAR,33.0
KGRY 072155Z AUTO 10004KT 10SM FEW027 30/23 A2998 RMK A01,KGRY,2023-07-07T21:55:00Z,27.63,-90.45,30.0,23.0,100,4,,10.0,29.97933,,,TRUE,TRUE,,,,,,,FEW,2700,,,,,,,VFR,,,,,,,,,,,,METAR,58.0
KGRN 072155Z AUTO 35009KT 10SM CLR 23/11 A3003 RMK AO2 T02290113,KGRN,2023-07-07T21:55:00Z,42.8,-102.17,22.9,11.3,350,9,,10.0,30.029528,,,TRUE,TRUE,,,,,,,CLR,,,,,,,,VFR,,,,,,,,,,,,METAR,1080.0
KGRK 072155Z AUTO 12011KT 10SM BKN055 BKN075 34/19 A2989 RMK AO2 SLP109 T03410189,KGRK,2023-07-07T21:55:00Z,31.07,-97.83,34.1,18.9,120,11,,10.0,29.890747,1010.9,,TRUE,TRUE,,,,,,,BKN,5500,BKN,7500,,,,,VFR,,,,,,,,,,,,METAR,311.0
KGRF 072155Z 20008KT 10SM CLR 23/11 A2987 RMK AO2A SLP118 T02260113 $,KGRF,2023-07-07T21:55:00Z,47.07,-122.57,22.6,11.3,200,8,,10.0,29.870079,1011.8,,,TRUE,TRUE,,,,,,CLR,,,,,,,,VFR,,,,,,,,,,,,METAR,91.0
KGPI 072155Z VRB03KT 10SM CLR 30/03 A2991 RMK AO2 LTG DSNT NE SLP109 T03000033,KGPI,2023-07-07T21:55:00Z,48.32,-114.25,30.0,3.3,0,3,,10.0,29.911417,1010.9,,,TRUE,,,,,,,CLR,,,,,,,,VFR,,,,,,,,,,,,METAR,903.0
KGPH 072155Z AUTO 11005KT 10SM CLR 25/17 A2988 RMK AO2,KGPH,2023-07-07T21:55:00Z,39.33,-94.32,25.0,17.0,110,5,,10.0,29.878937,,,TRUE,TRUE,,,,,,,CLR,,,,,,,,VFR,,,,,,,,,,,,METAR,233.0
KGPC 072155Z AUTO 22004KT 10SM CLR 28/17 A2994 RMK AO2 T02810168,KGPC,2023-07-07T21:55:00Z,39.63,-86.82,28.1,16.8,220,4,,10.0,29.940945,,,TRUE,TRUE,,,,,,,CLR,,,,,,,,VFR,,,,,,,,,,,,METAR,254.0
KGOV 072155Z AUTO 12003KT 10SM BKN060 24/09 A3000 RMK AO2 SLP165 T02360088 $,KGOV,2023-07-07T21:55:00Z,44.68,-84.73,23.6,8.8,120,3,,10.0,30.0,1016.5,,TRUE,TRUE,TRUE,,,,,,BKN,6000,,,,,,,VFR,,,,,,,,,,,,METAR,350.0
KGOP 072155Z AUTO 13009KT 070V170 10SM FEW055 SCT070 SCT090 35/20 A2990 RMK AO2,KGOP,2023-07-07T21:55:00Z,31.42,-97.8,35.0,20.0,130,9,,10.0,29.899607,,,TRUE,TRUE,,,,,,,FEW,5500,SCT,7000,SCT,9000,,,VFR,,,,,,,,,,,,METAR,272.0
KGOO 072155Z AUTO VRB03KT 10SM CLR 28/09 A2993 RMK A01,KGOO,2023-07-07T21:55:00Z,39.22,-121.0,28.0,9.0,0,3,,10.0,29.929134,,,TRUE,TRUE,,,,,,,CLR,,,,,,,,VFR,,,,,,,,,,,,METAR,950.0
KGNT 072155Z AUTO 28014G24KT 10SM SCT120 32/M03 A3011 RMK AO2 T03221026,KGNT,2023-07-07T21:55:00Z,35.17,-107.9,32.2,-2.6,280,14,24,10.0,30.109253,,,TRUE,TRUE,,,,,,,SCT,12000,,,,,,,VFR,,,,,,,,,,,,METAR,1988.0
KGNG 072155Z AUTO 16005KT 10SM CLR 33/03 A2986 RMK AO2,KGNG,2023-07-07T21:55:00Z,42.92,-114.77,33.0,3.0,160,5,,10.0,29.861221,,,TRUE,TRUE,,,,,,,CLR,,,,,,,,VFR,,,,,,,,,,,,METAR,1128.0
KGNB 072155Z AUTO 00000KT 10SM SCT110 23/02 A3017 RMK AO2 T02290017,KGNB,2023-07-07T21:55:00Z,40.08,-105.92,22.9,1.7,0,0,,10.0,30.171259,,,TRUE,TRUE,,,,,,,SCT,11000,,,,,,,VFR,,,,,,,,,,,,METAR,2500.0
KGMJ 072155Z AUTO 22007KT 10SM FEW026 29/24 A2989 RMK AO2,KGMJ,2023-07-07T21:55:00Z,36.6,-94.73,29.0,24.0,220,7,,10.0,29.890747,,,TRUE,TRUE,,,,,,,FEW,2600,,,,,,,VFR,,,,,,,,,,,,METAR,251.0
KGLY 072155Z AUTO 26006KT 10SM CLR 30/20 A2986 RMK AO2,KGLY,2023-07-07T21:55:00Z,38.35,-93.68,30.0,20.0,260,6,,10.0,29.861221,,,TRUE,TRUE,,,,,,,CLR,,,,,,,,VFR,,,,,,,,,,,,METAR,247.0
KGLW 072155Z AUTO 29003KT 10SM CLR 30/20 A2993 RMK AO2 T03040199,KGLW,2023-07-07T21:55:00Z,37.03,-85.95,30.4,19.9,290,3,,10.0,29.929134,,,TRUE,TRUE,,,,,,,CLR,,,,,,,,VFR,,,,,,,,,,,,METAR,216.0
KGLE 072155Z AUTO 21017G22KT 10SM CLR A2985 RMK AO2 PWINO,KGLE,2023-07-07T21:55:00Z,33.65,-97.2,,,210,17,22,10.0,29.84941,,,TRUE,TRUE,,,,,TRUE,,CLR,,,,,,,,VFR,,,,,,,,,,,,METAR,250.0
KGKT 072155Z AUTO 36005KT 10SM CLR 31/19 A2990 RMK A01,KGKT,2023-07-07T21:55:00Z,35.85,-83.53,31.0,19.0,360,5,,10.0,29.899607,,,TRUE,TRUE,,,,,,,CLR,,,,,,,,VFR,,,,,,,,,,,,METAR,305.0
KGIC 072155Z AUTO 35005KT 10SM CLR 29/06 A2989 RMK AO1,KGIC,2023-07-07T21:55:00Z,45.95,-116.12,29.0,6.0,350,5,,10.0,29.890747,,,TRUE,TRUE,,,,,,,CLR,,,,,,,,VFR,,,,,,,,,,,,METAR,1002.0
KGHW 072155Z AUTO 19009KT 10SM CLR 23/12 A2993 RMK AO2 TSNO,KGHW,2023-07-07T21:55:00Z,45.63,-95.32,23.0,12.0,190,9,,10.0,29.929134,,,TRUE,TRUE,,,TRUE,,,,CLR,,,,,,,,VFR,,,,,,,,,,,,METAR,423.0
KGHG 072155Z AUTO 20009KT 10SM CLR 28/20 A2984 RMK AO2,KGHG,2023-07-07T21:55:00Z,42.1,-70.67,28.0,20.0,200,9,,10.0,29.840551,,,TRUE,TRUE,,,,,,,CLR,,,,,,,,VFR,,,,,,,,,,,,METAR,3.0
KGGP 072155Z AUTO 00000KT 10SM SCT050 27/15 A2994 RMK AO2,KGGP,2023-07-07T21:55:00Z,40.72,-86.37,27.0,15.0,0,0,,10.0,29.940945,,,TRUE,TRUE,,,,,,,SCT,5000,,,,,,,VFR,,,,,,,,,,,,SPECI,224.0
KGGI 072155Z AUTO 15004KT 10SM BKN037 BKN075 OVC100 19/14 A3000 RMK AO2 P0001 T01900144,KGGI,2023-07-07T21:55:00Z,41.72,-92.73,19.0,14.4,150,4,,10.0,30.0,,,TRUE,TRUE,,,,,,,BKN,3700,BKN,7500,OVC,10000,,,VFR,,,,,,0.01,,,,,,METAR,305.0
KGGF 072155Z AUTO 02013KT 10SM BKN060 26/12 A3000 RMK AO2,KGGF,2023-07-07T21:55:00Z,40.87,-101.73,26.0,12.0,20,13,,10.0,30.0,,,TRUE,TRUE,,,,,,,BKN,6000,,,,,,,VFR,,,,,,,,,,,,SPECI,1044.0
KGGE 072155Z AUTO 19005KT 10SM CLR 31/24 A2981 RMK AO2 LTG DSNT W AND NW,KGGE,2023-07-07T21:55:00Z,33.32,-79.32,31.0,24.0,190,5,,10.0,29.811024,,,TRUE,TRUE,,,,,,,CLR,,,,,,,,VFR,,,,,,,,,,,,METAR,9.0
KGFA 072155Z AUTO 14015G23KT 10SM BKN090 23/10 A3003 RMK AO2 PK WND 16030/2057 LTG DSNT NW SLP158 T02300097 $,KGFA,2023-07-07T21:55:00Z,47.5,-111.18,23.0,9.7,140,15,23,10.0,30.029528,1015.8,,TRUE,TRUE,TRUE,,,,,,BKN,9000,,,,,,,VFR,,,,,,,,,,,,METAR,1058.0
KGDJ 072155Z AUTO 16008G17KT 10SM CLR 35/19 A2987 RMK AO2 T03520190,KGDJ,2023-07-07T21:55:00Z,32.45,-97.82,35.2,19.0,160,8,17,10.0,29.870079,,,TRUE,TRUE,,,,,,,CLR,,,,,,,,VFR,,,,,,,,,,,,METAR,235.0
KGDB 072155Z AUTO 21008KT 10SM SCT032 SCT041 22/15 A2997 RMK AO2 T02210152,KGDB,2023-07-07T21:55:00Z,44.75,-95.55,22.1,15.2,210,8,,10.0,29.970472,,,TRUE,TRUE,,,,,,,SCT,3200,SCT,4100,,,,,VFR,,,,,,,,,,,,METAR,316.0
KGCY 072155Z AUTO 00000KT 10SM SCT090 29/17 A2992 RMK A01,KGCY,2023-07-07T21:55:00Z,36.2,-82.82,29.0,17.0,0,0,,10.0,29.920275,,,TRUE,TRUE,,,,,,,SCT,9000,,,,,,,VFR,,,,,,,,,,,,METAR,488.0
KGCM 072155Z AUTO VRB06KT 10SM CLR 27/24 A2986 RMK AO2,KGCM,2023-07-07T21:55:00Z,36.3,-95.48,27.0,24.0,0,6,,10.0,29.861221,,,TRUE,TRUE,,,,,,,CLR,,,,,,,,VFR,,,,,,,,,,,,METAR,215.0
KGCD 072155Z AUTO 23017G23KT 10SM CLR 31/03 A2986 RMK AO2 T03120032,KGCD,2023-07-07T21:55:00Z,44.4,-118.97,31.2,3.2,230,17,23,10.0,29.861221,,,TRUE,TRUE,,,,,,,CLR,,,,,,,,VFR,,,,,,,,,,,,SPECI,1122.0
KGBG 072155Z AUTO 00000KT 10SM -RA SCT047 BKN070 OVC085 21/16 A2998 RMK AO2 P0001 T02140163 TSNO,KGBG,2023-07-07T21:55:00Z,40.93,-90.43,21.4,16.3,0,0,,10.0,29.97933,,,TRUE,TRUE,,,TRUE,,,-RA,SCT,4700,BKN,7000,OVC,8500,,,VFR,,,,,,0.01,,,,,,METAR,230.0
KGAO 072155Z AUTO 22003KT 10SM CLR 35/23 A2996 RMK AO2 T03460234,KGAO,2023-07-07T21:55:00Z,29.45,-90.27,34.6,23.4,220,3,,10.0,29.958662,,,TRUE,TRUE,,,,,,,CLR,,,,,,,,VFR,,,,,,,,,,,,METAR,0.0
KGAF 072155Z AUTO 34011G17KT 9SM FEW055 FEW080 22/09 A2996 RMK AO2,KGAF,2023-07-07T21:55:00Z,48.4,-97.37,22.0,9.0,340,11,17,9.0,29.958662,,,TRUE,TRUE,,,,,,,FEW,5500,FEW,8000,,,,,VFR,,,,,,,,,,,,METAR,250.0
KFYJ 072155Z AUTO 00000KT 10SM SCT038 29/24 A2983 RMK AO1 T02920235,KFYJ,2023-07-07T21:55:00Z,37.52,-76.77,29.2,23.5,0,0,,10.0,29.828741,,,TRUE,TRUE,,,,,,,SCT,3800,,,,,,,VFR,,,,,,,,,,,,METAR,3.0
KFYG 072155Z AUTO 07003KT 10SM 28/20 A2989 RMK AO2 LTG DSNT SW,KFYG,2023-07-07T21:55:00Z,38.58,-91.0,28.0,20.0,70,3,,10.0,29.890747,,,TRUE,TRUE,,,,,,,,,,,,,,,,,,,,,,,,,,,METAR,147.0
KFYE 072155Z AUTO FEW100 29/23 A2991 RMK A01,KFYE,2023-07-07T21:55:00Z,35.2,-89.38,29.0,23.0,,,,,29.911417,,,TRUE,TRUE,,,,,,,FEW,10000,,,,,,,,,,,,,,,,,,,METAR,133.0
KFXY 072155Z AUTO 21004KT 7SM -RA SCT012 SCT026 OVC060 16/13 A2999 RMK AO2,KFXY,2023-07-07T21:55:00Z,43.23,-93.62,16.0,13.0,210,4,,7.0,29.991142,,,TRUE,TRUE,,,,,,-RA,SCT,1200,SCT,2600,OVC,6000,,,VFR,,,,,,,,,,,,SPECI,366.0
KFWC 072155Z AUTO 27003KT 10SM CLR 29/15 A2992 RMK AO1 T02900153,KFWC,2023-07-07T21:55:00Z,38.38,-88.42,29.0,15.3,270,3,,10.0,29.920275,,,TRUE,TRUE,,,,,,,CLR,,,,,,,,VFR,,,,,,,,,,,,SPECI,131.0
KFWB 072155Z AUTO VRB05KT 10SM CLR 31/22 A2990 RMK AO2,KFWB,2023-07-07T21:55:00Z,36.7,-93.4,31.0,22.0,0,5,,10.0,29.899607,,,TRUE,TRUE,,,,,,,CLR,,,,,,,,VFR,,,,,,,,,,,,METAR,392.0
KFVX 072155Z AUTO 00000KT 10SM CLR 32/22 A2981 RMK AO2 T03160224,KFVX,2023-07-07T21:55:00Z,37.35,-78.43,31.6,22.4,0,0,,10.0,29.811024,,,TRUE,TRUE,,,,,,,CLR,,,,,,,,VFR,,,,,,,,,,,,METAR,129.0
KFTN 072155Z AUTO 04012KT 10SM CLR 35/23 A2986 RMK A01,KFTN,2023-07-07T21:55:00Z,28.22,-100.02,35.0,23.0,40,12,,10.0,29.861221,,,TRUE,TRUE,,,,,,,CLR,,,,,,,,VFR,,,,,,,,,,,,METAR,236.0
KFTK 072155Z AUTO 31003KT 10SM CLR 29/18 A2991 RMK AO2 SLP124 T02900175 $,KFTK,2023-07-07T21:55:00Z,37.9,-85.97,29.0,17.5,310,3,,10.0,29.911417,1012.4,,TRUE,TRUE,TRUE,,,,,,CLR,,,,,,,,VFR,,,,,,,,,,,,METAR,225.0
KFSW 072155Z AUTO 00000KT 10SM 19/18 A2994 RMK AO2 P0012,KFSW,2023-07-07T21:55:00Z,40.67,-91.32,19.0,18.0,0,0,,10.0,29.940945,,,TRUE,TRUE,,,,,,,,,,,,,,,,,,,,,0.12,,,,,,METAR,219.0
KFSK 072155Z AUTO 22005KT 10SM CLR 29/22 A2989 RMK AO2 T02930220,KFSK,2023-07-07T21:55:00Z,37.8,-94.77,29.3,22.0,220,5,,10.0,29.890747,,,TRUE,TRUE,,,,,,,CLR,,,,,,,,VFR,,,,,,,,,,,,METAR,276.0
KFSI 072155Z AUTO 15010G19KT 10SM FEW190 33/21 A2982 RMK AO2 SLP087 T03290214 FZRANO $,KFSI,2023-07-07T21:55:00Z,34.65,-98.4,32.9,21.4,150,10,19,10.0,29.819881,1008.7,,TRUE,TRUE,TRUE,,,TRUE,,,FEW,19000,,,,,,,VFR,,,,,,,,,,,,METAR,360.0
KFSE 072155Z AUTO 36009KT 10SM VCTS SCT036 SCT042 SCT049 20/14 A2991 RMK AO2 LTG DSNT E,KFSE,2023-07-07T21:55:00Z,47.58,-95.77,20.0,14.0,360,9,,10.0,29.911417,,,TRUE,TRUE,,,,,,VCTS,SCT,3600,SCT,4200,SCT,4900,,,VFR,,,,,,,,,,,,METAR,389.0
KFRR 072155Z AUTO 18005KT CLR 31/22 A2983 RMK AO1,KFRR,2023-07-07T21:55:00Z,38.92,-78.25,31.0,22.0,180,5,,,29.828741,,,TRUE,TRUE,,,,,,,CLR,,,,,,,,,,,,,,,,,,,,SPECI,213.0
KFRH 072155Z AUTO 24003KT 10SM CLR 28/15 A2993 RMK AO1,KFRH,2023-07-07T21:55:00Z,38.5,-86.63,28.0,15.0,240,3,,10.0,29.929134,,,TRUE,TRUE,,,,,,,CLR,,,,,,,,VFR,,,,,,,,,,,,METAR,241.0
KFPY 072155Z AUTO 28013G29KT 10SM -TSRA SCT031 SCT046 BKN055 25/21 A2993 RMK AO2 LTG DSNT NE E AND W T02510209,KFPY,2023-07-07T21:55:00Z,30.07,-83.57,25.1,20.9,280,13,29,10.0,29.929134,,,TRUE,TRUE,,,,,,-TSRA,SCT,3100,SCT,4600,BKN,5500,,,VFR,,,,,,,,,,,,METAR,12.0
KFPK 072155Z AUTO 28005KT 10SM SCT065 27/11 A2994 RMK AO2 T02660112,KFPK,2023-07-07T21:55:00Z,42.57,-84.82,26.6,11.2,280,5,,10.0,29.940945,,,TRUE,TRUE,,,,,,,SCT,6500,,,,,,,VFR,,,,,,,,,,,,METAR,269.0
KFOT 072155Z AUTO 31009KT 10SM OVC017 14/12 A2999 RMK AO1,KFOT,2023-07-07T21:55:00Z,40.55,-124.13,14.0,12.0,310,9,,10.0,29.991142,,,TRUE,TRUE,,,,,,,OVC,1700,,,,,,,MVFR,,,,,,,,,,,,METAR,118.0
KFOA 072155Z AUTO 00000KT 10SM CLR 29/11 A2994 RMK AO2,KFOA,2023-07-07T21:55:00Z,38.67,-88.45,29.0,11.0,0,0,,10.0,29.940945,,,TRUE,TRUE,,,,,,,CLR,,,,,,,,VFR,,,,,,,,,,,,SPECI,141.0
KFMM 072155Z AUTO 10SM CLR 23/14 A3008 RMK AO2,KFMM,2023-07-07T21:55:00Z,40.33,-103.8,23.0,14.0,,,,10.0,30.079725,,,TRUE,TRUE,,,,,,,CLR,,,,,,,,VFR,,,,,,,,,,,,SPECI,1376.0
KFLY 072155Z AUTO 06013G18KT 3SM VCTSRA SCT028 BKN049 OVC090 15/13 A3018 RMK AO2 LTG DSNT ALQDS T01540126,KFLY,2023-07-07T21:55:00Z,38.95,-104.57,15.4,12.6,60,13,18,3.0,30.180119,,,TRUE,TRUE,,,,,,VCTSRA,SCT,2800,BKN,4900,OVC,9000,,,MVFR,,,,,,,,,,,,METAR,2096.0
KFKS 072155Z AUTO 30004KT 10SM CLR 23/09 A2996 RMK AO2 T02340092,KFKS,2023-07-07T21:55:00Z,44.63,-86.2,23.4,9.2,300,4,,10.0,29.958662,,,TRUE,TRUE,,,,,,,CLR,,,,,,,,VFR,,,,,,,,,,,,METAR,189.0
KFKR 072155Z AUTO 25007KT 10SM CLR 27/17 A2993 RMK AO2,KFKR,2023-07-07T21:55:00Z,40.27,-86.57,27.0,17.0,250,7,,10.0,29.929134,,,TRUE,TRUE,,,,,,,CLR,,,,,,,,VFR,,,,,,,,,,,,SPECI,260.0
KFKN 072155Z AUTO 00000KT 10SM CLR 26/24 A2983 RMK AO2 LTG DSNT SE THRU W T02570242,KFKN,2023-07-07T21:55:00Z,36.7,-76.9,25.7,24.2,0,0,,10.0,29.828741,,,TRUE,TRUE,,,,,,,CLR,,,,,,,,VFR,,,,,,,,,,,,METAR,9.0
KFKA 072155Z AUTO 22008G16KT 10SM -RA CLR 18/12 A2997 RMK AO2,KFKA,2023-07-07T21:55:00Z,43.68,-92.17,18.0,12.0,220,8,16,10.0,29.970472,,,TRUE,TRUE,,,,,,-RA,CLR,,,,,,,,VFR,,,,,,,,,,,,METAR,388.0
KFHU 072155Z AUTO 00000KT 10SM BKN130 OVC150 35/02 A2999 RMK AO2 SLP077 T03540016,KFHU,2023-07-07T21:55:00Z,31.58,-110.35,35.4,1.6,0,0,,10.0,29.991142,1007.7,,TRUE,TRUE,,,,,,,BKN,13000,OVC,15000,,,,,VFR,,,,,,,,,,,,METAR,1424.0
KFHB 072155Z AUTO 20005KT 10SM CLR 28/27 A2985 RMK AO2 LTG DSNT S THRU W,KFHB,2023-07-07T21:55:00Z,30.62,-81.47,28.0,27.0,200,5,,10.0,29.84941,,,TRUE,TRUE,,,,,,,CLR,,,,,,,,VFR,,,,,,,,,,,,METAR,4.0
KFGX 072155Z AUTO 34003KT 10SM CLR 30/15 A2993 RMK AO2 T02950148,KFGX,2023-07-07T21:55:00Z,38.55,-83.75,29.5,14.8,340,3,,10.0,29.929134,,,TRUE,TRUE,,,,,,,CLR,,,,,,,,VFR,,,,,,,,,,,,SPECI,279.0
KFGN 072155Z AUTO 32010G19KT 10SM SCT065 BKN090 21/07 A2991 RMK AO2,KFGN,2023-07-07T21:55:00Z,49.32,-94.9,21.0,7.0,320,10,19,10.0,29.911417,,,TRUE,TRUE,,,,,,,SCT,6500,BKN,9000,,,,,VFR,,,,,,,,,,,,METAR,327.0
KFFX 072155Z AUTO 30007KT 10SM BKN050 OVC075 26/15 A2995 RMK AO2 T02610147,KFFX,2023-07-07T21:55:00Z,43.43,-86.0,26.1,14.7,300,7,,10.0,29.949802,,,TRUE,TRUE,,,,,,,BKN,5000,OVC,7500,,,,,VFR,,,,,,,,,,,,METAR,234.0
KFFO 072155Z 01005KT 10SM FEW055 29/16 A2988 RMK AO2A SLP115 T02860158,KFFO,2023-07-07T21:55:00Z,39.83,-84.03,28.6,15.8,10,5,,10.0,29.878937,1011.5,,,TRUE,,,,,,,FEW,5500,,,,,,,VFR,,,,,,,,,,,,METAR,250.0
KFFM 072155Z AUTO 35016G22KT 335V035 1 1/2SM +TSRA SCT007 BKN019 OVC043 17/13 A2989 RMK AO2 VIS 3/4V4 LTG DSNT ALQDS P0024,KFFM,2023-07-07T21:55:00Z,46.28,-96.15,17.0,13.0,350,16,22,1.5,29.890747,,,TRUE,TRUE,,,,,,+TSRA,SCT,700,BKN,1900,OVC,4300,,,IFR,,,,,,0.24,,,,,,METAR,362.0
KFFL 072155Z AUTO VRB04KT 10SM BKN046 BKN120 20/14 A2996 RMK A01,KFFL,2023-07-07T21:55:00Z,41.05,-91.97,20.0,14.0,0,4,,10.0,29.958662,,,TRUE,TRUE,,,,,,,BKN,4600,BKN,12000,,,,,VFR,,,,,,,,,,,,METAR,240.0
KFFA 072155Z AUTO 10004KT 10SM SCT023 28/23 A2981 RMK AO2 T02810230,KFFA,2023-07-07T21:55:00Z,36.02,-75.67,28.1,23.0,100,4,,10.0,29.811024,,,TRUE,TRUE,,,,,,,SCT,2300,,,,,,,VFR,,,,,,,,,,,,SPECI,2.0
KFET 072155Z AUTO 09005KT 10SM OVC013 19/17 A2992 RMK AO2 T01880170,KFET,2023-07-07T21:55:00Z,41.45,-96.52,18.8,17.0,90,5,,10.0,29.920275,,,TRUE,TRUE,,,,,,,OVC,1300,,,,,,,MVFR,,,,,,,,,,,,SPECI,366.0
KFEP 072155Z AUTO 26008KT 10SM -RA OVC100 22/14 A2999 RMK AO2 T02240137,KFEP,2023-07-07T21:55:00Z,42.25,-89.58,22.4,13.7,260,8,,10.0,29.991142,,,TRUE,TRUE,,,,,,-RA,OVC,10000,,,,,,,VFR,,,,,,,,,,,,SPECI,255.0
KFDW 072155Z AUTO 06008G22KT 2SM -TSRA BKN013 BKN023 OVC065 22/21 A2988 RMK AO1 P0077 LTG DSNT ALQS,KFDW,2023-07-07T21:55:00Z,34.32,-81.12,22.0,21.0,60,8,22,2.0,29.878937,,,TRUE,TRUE,,,,,,-TSRA,BKN,1300,BKN,2300,OVC,6500,,,IFR,,,,,,0.77,,,,,,METAR,174.0
KFCS 072155Z AUTO 04010KT 10SM VCTS BKN046 OVC060 21/13 A3008 RMK AO2 SLP136 T02070129 $,KFCS,2023-07-07T21:55:00Z,38.67,-104.77,20.7,12.9,40,10,,10.0,30.079725,1013.6,,TRUE,TRUE,TRUE,,,,,VCTS,BKN,4600,OVC,6000,,,,,VFR,,,,,,,,,,,,METAR,1789.0
KFBR 072155Z AUTO 12004KT 10SM CLR 25/02 A3012 RMK AO2 LTG DSNT NW T02520015,KFBR,2023-07-07T21:55:00Z,41.4,-110.4,25.2,1.5,120,4,,10.0,30.121063,,,TRUE,TRUE,,,,,,,CLR,,,,,,,,VFR,,,,,,,,,,,,SPECI,2140.0
KFBL 072155Z AUTO 22005KT 10SM CLR 21/11 A2996 RMK AO2,KFBL,2023-07-07T21:55:00Z,44.33,-93.32,21.0,11.0,220,5,,10.0,29.958662,,,TRUE,TRUE,,,,,,,CLR,,,,,,,,VFR,,,,,,,,,,,,METAR,318.0
KFBG 072155Z AUTO 28006KT 10SM CLR 30/22 A2978 RMK AO2 LTG DSNT S SLP085 T02970224,KFBG,2023-07-07T21:55:00Z,35.12,-78.92,29.7,22.4,280,6,,10.0,29.778543,1008.5,,TRUE,TRUE,,,,,,,CLR,,,,,,,,VFR,,,,,,,,,,,,METAR,69.0
KFAF 072155Z 08004KT 10SM BKN040 29/24 A2979 RMK AO2A LTG DSNT S SLP091 T02940238 $,KFAF,2023-07-07T21:55:00Z,37.13,-76.62,29.4,23.8,80,4,,10.0,29.790354,1009.1,,,TRUE,TRUE,,,,,,BKN,4000,,,,,,,VFR,,,,,,,,,,,,SPECI,3.0
KF70 072155Z AUTO 23010G14KT 10SM CLR 28/05 A2984 RMK AO2,KF70,2023-07-07T21:55:00Z,33.57,-117.13,28.0,5.0,230,10,14,10.0,29.840551,,,TRUE,TRUE,,,,,,,CLR,,,,,,,,VFR,,,,,,,,,,,,METAR,406.0
KF46 072155Z AUTO 21012G20KT 10SM CLR 34/21 A2986 RMK AO2 T03400213,KF46,2023-07-07T21:55:00Z,32.93,-96.43,34.0,21.3,210,12,20,10.0,29.861221,,,TRUE,TRUE,,,,,,,CLR,,,,,,,,VFR,,,,,,,,,,,,METAR,175.0
KF44 072155Z AUTO 19005G14KT 10SM CLR 32/22 A2989 RMK AO2,KF44,2023-07-07T21:55:00Z,32.17,-95.83,32.0,22.0,190,5,14,10.0,29.890747,,,TRUE,TRUE,,,,,,,CLR,,,,,,,,VFR,,,,,,,,,,,,METAR,137.0
KF05 072155Z AUTO 17020G23KT 10SM CLR 36/20 A2982 RMK AO2 T03590198,KF05,2023-07-07T21:55:00Z,34.23,-99.28,35.9,19.8,170,20,23,10.0,29.819881,,,TRUE,TRUE,,,,,,,CLR,,,,,,,,VFR,,,,,,,,,,,,METAR,384.0
KF00 072155Z AUTO 19008KT 10SM CLR 33/23 A2988 RMK AO2 T03350228,KF00,2023-07-07T21:55:00Z,33.62,-96.18,33.5,22.8,190,8,,10.0,29.878937,,,TRUE,TRUE,,,,,,,CLR,,,,,,,,VFR,,,,,,,,,,,,METAR,189.0
KEZZ 072155Z AUTO 12011KT 10SM CLR 23/18 A2991 RMK AO2 T02350180,KEZZ,2023-07-07T21:55:00Z,39.72,-94.28,23.5,18.0,120,11,,10.0,29.911417,,,TRUE,TRUE,,,,,,,CLR,,,,,,,,VFR,,,,,,,,,,,,METAR,317.0
KEZS 072155Z AUTO 00000KT 10SM CLR 25/10 A2995 RMK AO2 T02490101,KEZS,2023-07-07T21:55:00Z,44.78,-88.57,24.9,10.1,0,0,,10.0,29.949802,,,TRUE,TRUE,,,,,,,CLR,,,,,,,,VFR,,,,,,,,,,,,METAR,247.0
KEZP 072155Z AUTO 13007KT 9SM BKN021 BKN028 BKN033 30/25 A2996 RMK A01,KEZP,2023-07-07T21:55:00Z,28.22,-92.8,30.0,25.0,130,7,,9.0,29.958662,,,TRUE,TRUE,,,,,,,BKN,2100,BKN,2800,BKN,3300,,,MVFR,,,,,,,,,,,,METAR,30.0
KEZM 072155Z AUTO 26005KT 10SM CLR 33/21 A2984 RMK AO2 LTG DSNT NW THRU E,KEZM,2023-07-07T21:55:00Z,32.22,-83.13,33.0,21.0,260,5,,10.0,29.840551,,,TRUE,TRUE,,,,,,,CLR,,,,,,,,VFR,,,,,,,,,,,,METAR,86.0
KEZF 072155Z AUTO 17004KT 10SM CLR 29/22 A2981 RMK AO2 T02900221,KEZF,2023-07-07T21:55:00Z,38.27,-77.45,29.0,22.1,170,4,,10.0,29.811024,,,TRUE,TRUE,,,,,,,CLR,,,,,,,,VFR,,,,,,,,,,,,METAR,26.0
KEVU 072155Z AUTO 16007KT 10SM SCT085 SCT100 24/19 A2989 RMK AO2 T02430193,KEVU,2023-07-07T21:55:00Z,40.35,-94.92,24.3,19.3,160,7,,10.0,29.890747,,,TRUE,TRUE,,,,,,,SCT,8500,SCT,10000,,,,,VFR,,,,,,,,,,,,METAR,351.0
KETN 072155Z AUTO 19013G19KT 10SM SCT050 33/19 A2988 RMK AO2 T03280192,KETN,2023-07-07T21:55:00Z,32.42,-98.82,32.8,19.2,190,13,19,10.0,29.878937,,,TRUE,TRUE,,,,,,,SCT,5000,,,,,,,VFR,,,,,,,,,,,,SPECI,445.0
KETB 072155Z AUTO 11006KT 10SM CLR 22/08 A2996 RMK AO2,KETB,2023-07-07T21:55:00Z,43.42,-88.13,22.0,8.0,110,6,,10.0,29.958662,,,TRUE,TRUE,,,,,,,CLR,,,,,,,,VFR,,,,,,,,,,,,METAR,269.0
KERY 072155Z AUTO 19008KT 10SM CLR 23/06 A2992 RMK AO2 T02280063,KERY,2023-07-07T21:55:00Z,46.3,-85.45,22.8,6.3,190,8,,10.0,29.920275,,,TRUE,TRUE,,,,,,,CLR,,,,,,,,VFR,,,,,,,,,,,,METAR,261.0
KERV 072155Z AUTO 17004KT 10SM CLR 31/21 A2995 RMK AO2 T03090208,KERV,2023-07-07T21:55:00Z,29.98,-99.08,30.9,20.8,170,4,,10.0,29.949802,,,TRUE,TRUE,,,,,,,CLR,,,,,,,,VFR,,,,,,,,,,,,METAR,483.0
KEQA 072155Z AUTO 25005KT 10SM CLR 25/20 A2993 RMK AO2,KEQA,2023-07-07T21:55:00Z,37.78,-96.82,25.0,20.0,250,5,,10.0,29.929134,,,TRUE,TRUE,,,,,,,CLR,,,,,,,,VFR,,,,,,,,,,,,METAR,422.0
KEOK 072155Z AUTO 07006KT 10SM CLR 20/17 A2994 RMK A01,KEOK,2023-07-07T21:55:00Z,40.47,-91.42,20.0,17.0,70,6,,10.0,29.940945,,,TRUE,TRUE,,,,,,,CLR,,,,,,,,VFR,,,,,,,,,,,,METAR,206.0
KEOE 072155Z AUTO 07007KT 040V100 10SM SCT050 SCT065 28/19 A2988 RMK AO2 LTG DSNT E AND SE,KEOE,2023-07-07T21:55:00Z,34.32,-81.63,28.0,19.0,70,7,,10.0,29.878937,,,TRUE,TRUE,,,,,,,SCT,5000,SCT,6500,,,,,VFR,,,,,,,,,,,,METAR,166.0
KEND 072155Z AUTO 11013KT 10SM OVC110 27/20 A2986 RMK AO2 SLP101 T02660199 $,KEND,2023-07-07T21:55:00Z,36.33,-97.92,26.6,19.9,110,13,,10.0,29.861221,1010.1,,TRUE,TRUE,TRUE,,,,,,OVC,11000,,,,,,,VFR,,,,,,,,,,,,METAR,392.0
KEMM 072155Z AUTO 24012KT 10SM CLR 22/03 A3014 RMK AO2 TSNO,KEMM,2023-07-07T21:55:00Z,41.82,-110.55,22.0,3.0,240,12,,10.0,30.138779,,,TRUE,TRUE,,,TRUE,,,,CLR,,,,,,,,VFR,,,,,,,,,,,,SPECI,2219.0
KELO 072155Z AUTO 31005KT 10SM CLR 18/12 A2991 RMK AO2 LTG DSNT NW,KELO,2023-07-07T21:55:00Z,47.82,-91.83,18.0,12.0,310,5,,10.0,29.911417,,,TRUE,TRUE,,,,,,,CLR,,,,,,,,VFR,,,,,,,,,,,,METAR,438.0
KELK 072155Z AUTO 15008G16KT 9SM FEW060 31/23 A2987 RMK AO2 SLP403 T03060235 $,KELK,2023-07-07T21:55:00Z,35.43,-99.4,30.6,23.5,150,8,16,9.0,29.870079,1040.3,,TRUE,TRUE,TRUE,,,,,,FEW,6000,,,,,,,VFR,,,,,,,,,,,,METAR,603.0
KELA 072155Z AUTO 00000KT 10SM BKN100 34/23 A2992 RMK AO2 T03350228,KELA,2023-07-07T21:55:00Z,29.6,-96.32,33.5,22.8,0,0,,10.0,29.920275,,,TRUE,TRUE,,,,,,,BKN,10000,,,,,,,VFR,,,,,,,,,,,,METAR,56.0
KEKX 072155Z AUTO 33003KT 10SM CLR 30/17 A2993 RMK AO2 T02980169,KEKX,2023-07-07T21:55:00Z,37.68,-85.92,29.8,16.9,330,3,,10.0,29.929134,,,TRUE,TRUE,,,,,,,CLR,,,,,,,,VFR,,,,,,,,,,,,METAR,234.0
KEKS 072155Z AUTO 31011G20KT 10SM CLR 24/06 A3008 RMK AO2,KEKS,2023-07-07T21:55:00Z,45.27,-111.65,24.0,6.0,310,11,20,10.0,30.079725,,,TRUE,TRUE,,,,,,,CLR,,,,,,,,VFR,,,,,,,,,,,,METAR,1636.0
KEKM 072155Z VRB05KT 10SM BKN065 28/13 A2993 RMK AO2 T02780128 $,KEKM,2023-07-07T21:55:00Z,41.72,-86.0,27.8,12.8,0,5,,10.0,29.929134,,,,TRUE,TRUE,,,,,,BKN,6500,,,,,,,VFR,,,,,,,,,,,,METAR,236.0
KEKE 072155Z AUTO 08005KT 10SM CLR 31/25 A2989 RMK A01,KEKE,2023-07-07T21:55:00Z,28.5,-91.58,31.0,25.0,80,5,,10.0,29.890747,,,TRUE,TRUE,,,,,,,CLR,,,,,,,,VFR,,,,,,,,,,,,METAR,31.0
KEIK 072155Z AUTO 02008KT 10SM SCT055 BKN075 OVC090 23/10 A3010 RMK AO2 T02340098,KEIK,2023-07-07T21:55:00Z,40.02,-105.05,23.4,9.8,20,8,,10.0,30.100393,,,TRUE,TRUE,,,,,,,SCT,5500,BKN,7500,OVC,9000,,,VFR,,,,,,,,,,,,METAR,1551.0
KEHA 072155Z AUTO 02007KT 10SM BKN029 BKN035 BKN055 27/21 A2998 RMK AO2 T02680207,KEHA,2023-07-07T21:55:00Z,37.0,-101.87,26.8,20.7,20,7,,10.0,29.97933,,,TRUE,TRUE,,,,,,,BKN,2900,BKN,3500,BKN,5500,,,MVFR,,,,,,,,,,,,METAR,1103.0
KEFT 072155Z AUTO 27009G15KT 10SM CLR 23/10 A2996 RMK AO2 T02270096,KEFT,2023-07-07T21:55:00Z,42.62,-89.6,22.7,9.6,270,9,15,10.0,29.958662,,,TRUE,TRUE,,,,,,,CLR,,,,,,,,VFR,,,,,,,,,,,,METAR,332.0
KEFK 072155Z AUTO 14003KT 10SM SCT018 SCT035 SCT043 23/21 A2989 RMK AO2 T02300206,KEFK,2023-07-07T21:55:00Z,44.88,-72.23,23.0,20.6,140,3,,10.0,29.890747,,,TRUE,TRUE,,,,,,,SCT,1800,SCT,3500,SCT,4300,,,VFR,,,,,,,,,,,,METAR,282.0
KEDW 072155Z 28011G16KT 80SM CLR 35/M02 A2975 RMK AO2A PK WND 23029/52 SLP048 T03521025,KEDW,2023-07-07T21:55:00Z,34.9,-117.87,35.2,-2.5,280,11,16,80.0,29.749016,1004.8,,,TRUE,,,,,,,CLR,,,,,,,,VFR,,,,,,,,,,,,METAR,698.0
KEDN 072155Z AUTO 28005KT 10SM SCT041 SCT050 SCT070 31/23 A2988 RMK AO2 LTG DSNT E AND S T03120233 PWINO,KEDN,2023-07-07T21:55:00Z,31.3,-85.9,31.2,23.3,280,5,,10.0,29.878937,,,TRUE,TRUE,,,,,TRUE,,SCT,4100,SCT,5000,SCT,7000,,,VFR,,,,,,,,,,,,METAR,103.0
KEDC 072155Z AUTO 19008KT 10SM BKN042 BKN070 32/23 A2990 RMK AO2,KEDC,2023-07-07T21:55:00Z,30.4,-97.57,32.0,23.0,190,8,,10.0,29.899607,,,TRUE,TRUE,,,,,,,BKN,4200,BKN,7000,,,,,VFR,,,,,,,,,,,,SPECI,184.0
KECU 072155Z AUTO 14012KT 10SM FEW026 SCT035 SCT043 29/21 A3001 RMK AO2,KECU,2023-07-07T21:55:00Z,29.95,-100.17,29.0,21.0,140,12,,10.0,30.008858,,,TRUE,TRUE,,,,,,,FEW,2600,SCT,3500,SCT,4300,,,VFR,,,,,,,,,,,,METAR,725.0
KECS 072155Z AUTO 01006KT 10SM CLR 24/02 A3007 RMK AO2,KECS,2023-07-07T21:55:00Z,43.88,-104.32,24.0,2.0,10,6,,10.0,30.070866,,,TRUE,TRUE,,,,,,,CLR,,,,,,,,VFR,,,,,,,,,,,,SPECI,1273.0
KEBG 072155Z AUTO 08013KT 10SM SCT044 31/26 A2988 RMK AO2 T03060264,KEBG,2023-07-07T21:55:00Z,26.45,-98.13,30.6,26.4,80,13,,10.0,29.878937,,,TRUE,TRUE,,,,,,,SCT,4400,,,,,,,VFR,,,,,,,,,,,,METAR,21.0
KEBA 072155Z AUTO 00000KT 10SM SCT055 SCT090 SCT110 28/23 A2985 RMK AO2 T02770231,KEBA,2023-07-07T21:55:00Z,34.1,-82.82,27.7,23.1,0,0,,10.0,29.84941,,,TRUE,TRUE,,,,,,,SCT,5500,SCT,9000,SCT,11000,,,VFR,,,,,,,,,,,,METAR,180.0
KEAT 072155Z AUTO VRB03KT 10SM CLR 35/06 A2975 RMK AO2 SLP062 T03500056,KEAT,2023-07-07T21:55:00Z,47.4,-120.2,35.0,5.6,0,3,,10.0,29.749016,1006.2,,TRUE,TRUE,,,,,,,CLR,,,,,,,,VFR,,,,,,,,,,,,METAR,375.0
KE77 072155Z AUTO 29013G19KT 250V310 10SM 41/03 A2990 RMK AO2,KE77,2023-07-07T21:55:00Z,,,41.0,3.0,290,13,19,10.0,29.899607,,,TRUE,TRUE,,,,,,,,,,,,,,,,,,,,,,,,,,,METAR,
KE42 072155Z AUTO 16019KT 10SM CLR 30/22 A2987 RMK AO2 T03030218,KE42,2023-07-07T21:55:00Z,36.22,-101.2,30.3,21.8,160,19,,10.0,29.870079,,,TRUE,TRUE,,,,,,,CLR,,,,,,,,VFR,,,,,,,,,,,,METAR,942.0
KE41 072155Z AUTO 15013G19KT 10SM CLR 34/17 A2993 RMK AO2 T03430167,KE41,2023-07-07T21:55:00Z,31.2,-101.47,34.3,16.7,150,13,19,10.0,29.929134,,,TRUE,TRUE,,,,,,,CLR,,,,,,,,VFR,,,,,,,,,,,,METAR,825.0
KE38 072155Z AUTO 14013KT 10SM CLR 34/12 A3004 RMK AO2 T03410121,KE38,2023-07-07T21:55:00Z,30.38,-103.68,34.1,12.1,140,13,,10.0,30.041338,,,TRUE,TRUE,,,,,,,CLR,,,,,,,,VFR,,,,,,,,,,,,METAR,1372.0
KE16 072155Z AUTO 33008KT 10SM CLR 25/10 A2990 RMK AO2 PWINO PNO,KE16,2023-07-07T21:55:00Z,37.08,-121.6,25.0,10.0,330,8,,10.0,29.899607,,,TRUE,TRUE,,,,,TRUE,,CLR,,,,,,,,VFR,,,,,,,,,,,,SPECI,84.0
KE11 072155Z AUTO 16013G23KT 10SM CLR 36/16 A2991 RMK AO2 T03590156,KE11,2023-07-07T21:55:00Z,32.33,-102.53,35.9,15.6,160,13,23,10.0,29.911417,,,TRUE,TRUE,,,,,,,CLR,,,,,,,,VFR,,,,,,,,,,,,SPECI,966.0
KDZJ 072155Z AUTO 31003KT 10SM CLR 29/20 A2995 RMK AO2 T02940199,KDZJ,2023-07-07T21:55:00Z,34.85,-84.0,29.4,19.9,310,3,,10.0,29.949802,,,TRUE,TRUE,,,,,,,CLR,,,,,,,,VFR,,,,,,,,,,,,METAR,578.0
KDZB 072155Z AUTO 14006KT 10SM SCT048 SCT060 33/20 A2992 RMK AO2 T03260201,KDZB,2023-07-07T21:55:00Z,30.53,-98.37,32.6,20.1,140,6,,10.0,29.920275,,,TRUE,TRUE,,,,,,,SCT,4800,SCT,6000,,,,,VFR,,,,,,,,,,,,METAR,329.0
KDYT 072155Z AUTO 23014G22KT 10SM FEW075 25/13 A2988 RMK AO2,KDYT,2023-07-07T21:55:00Z,46.72,-92.03,25.0,13.0,230,14,22,10.0,29.878937,,,TRUE,TRUE,,,,,,,FEW,7500,,,,,,,VFR,,,,,,,,,,,,METAR,185.0
KDYS 072155Z AUTO 15015KT 10SM CLR 33/18 A2985 RMK AO2 SLP059 T03310176,KDYS,2023-07-07T21:55:00Z,32.42,-99.83,33.1,17.6,150,15,,10.0,29.84941,1005.9,,TRUE,TRUE,,,,,,,CLR,,,,,,,,VFR,,,,,,,,,,,,METAR,544.0
KDYB 072155Z AUTO VRB04KT 8SM VCTS SCT055 SCT070 31/24 A2980 RMK AO2 LTG DSNT NW-NE,KDYB,2023-07-07T21:55:00Z,33.07,-80.28,31.0,24.0,0,4,,8.0,29.799213,,,TRUE,TRUE,,,,,,VCTS,SCT,5500,SCT,7000,,,,,VFR,,,,,,,,,,,,METAR,15.0
KDYA 072155Z AUTO 27005KT 10SM CLR 27/22 A2991 RMK AO2 T02710222,KDYA,2023-07-07T21:55:00Z,32.47,-87.95,27.1,22.2,270,5,,10.0,29.911417,,,TRUE,TRUE,,,,,,,CLR,,,,,,,,VFR,,,,,,,,,,,,METAR,33.0
KDXX 072155Z AUTO 24009KT 10SM SCT031 SCT085 24/16 A2995 RMK AO2,KDXX,2023-07-07T21:55:00Z,44.98,-96.18,24.0,16.0,240,9,,10.0,29.949802,,,TRUE,TRUE,,,,,,,SCT,3100,SCT,8500,,,,,VFR,,,,,,,,,,,,METAR,327.0
KDWX 072155Z AUTO 01005KT 10SM CLR 26/05 A3011 RMK AO2 T02580048,KDWX,2023-07-07T21:55:00Z,41.03,-107.5,25.8,4.8,10,5,,10.0,30.109253,,,TRUE,TRUE,,,,,,,CLR,,,,,,,,VFR,,,,,,,,,,,,METAR,1974.0
KDWA 072155Z AUTO 16007KT 10SM CLR 29/14 A2980 RMK AO2,KDWA,2023-07-07T21:55:00Z,38.58,-121.85,29.0,14.0,160,7,,10.0,29.799213,,,TRUE,TRUE,,,,,,,CLR,,,,,,,,VFR,,,,,,,,,,,,METAR,28.0
KDVO 072155Z AUTO 23015G21KT 10SM CLR 22/12 A2985 RMK AO2,KDVO,2023-07-07T21:55:00Z,38.15,-122.55,22.0,12.0,230,15,21,10.0,29.84941,,,TRUE,TRUE,,,,,,,CLR,,,,,,,,VFR,,,,,,,,,,,,METAR,1.0
KDUX 072155Z AUTO 15009G14KT 10SM CLR 31/17 A2986 RMK AO2 T03100172,KDUX,2023-07-07T21:55:00Z,35.85,-102.02,31.0,17.2,150,9,14,10.0,29.861221,,,TRUE,TRUE,,,,,,,CLR,,,,,,,,VFR,,,,,,,,,,,,METAR,1129.0
KDUH 072155Z AUTO 07004KT 10SM SCT050 BKN070 26/16 A2993 RMK AO2 T02590159,KDUH,2023-07-07T21:55:00Z,41.73,-83.65,25.9,15.9,70,4,,10.0,29.929134,,,TRUE,TRUE,,,,,,,SCT,5000,BKN,7000,,,,,VFR,,,,,,,,,,,,METAR,203.0
KDUC 072155Z AUTO 18011KT 10SM CLR 33/21 A2988 RMK AO2 T03320208,KDUC,2023-07-07T21:55:00Z,34.47,-97.97,33.2,20.8,180,11,,10.0,29.878937,,,TRUE,TRUE,,,,,,,CLR,,,,,,,,VFR,,,,,,,,,,,,METAR,339.0
KDUA 072155Z AUTO 21008KT 10SM SCT048 35/18 A2990 RMK AO2,KDUA,2023-07-07T21:55:00Z,33.95,-96.4,35.0,18.0,210,8,,10.0,29.899607,,,TRUE,TRUE,,,,,,,SCT,4800,,,,,,,VFR,,,,,,,,,,,,METAR,209.0
KDTL 072155Z AUTO 36009KT 10SM FEW016 SCT095 20/16 A2990 RMK AO2 LTG DSNT ALQDS,KDTL,2023-07-07T21:55:00Z,46.82,-95.88,20.0,16.0,360,9,,10.0,29.899607,,,TRUE,TRUE,,,,,,,FEW,1600,SCT,9500,,,,,VFR,,,,,,,,,,,,METAR,425.0
KDTA 072155Z AUTO 19006G09KT 10SM CLR 34/M06 A2988 RMK AO1,KDTA,2023-07-07T21:55:00Z,39.38,-112.5,34.0,-6.0,190,6,9,10.0,29.878937,,,TRUE,TRUE,,,,,,,CLR,,,,,,,,VFR,,,,,,,,,,,,METAR,1452.0
KDSF 072155Z AUTO 26005KT 9SM CLR 27/24 A2998 RMK A01,KDSF,2023-07-07T21:55:00Z,28.35,-88.27,27.0,24.0,260,5,,9.0,29.97933,,,TRUE,TRUE,,,,,,,CLR,,,,,,,,VFR,,,,,,,,,,,,METAR,40.0
KDRM 072155Z AUTO 24005KT 10SM CLR 24/12 A2993 RMK AO2 T02360118,KDRM,2023-07-07T21:55:00Z,46.0,-83.75,23.6,11.8,240,5,,10.0,29.929134,,,TRUE,TRUE,,,,,,,CLR,,,,,,,,VFR,,,,,,,,,,,,METAR,201.0
KDRI 072155Z AUTO 14006KT 10SM FEW140 28/26 A2996 RMK AO2 T02760255 $,KDRI,2023-07-07T21:55:00Z,30.83,-93.33,27.6,25.5,140,6,,10.0,29.958662,,,TRUE,TRUE,TRUE,,,,,,FEW,14000,,,,,,,VFR,,,,,,,,,,,,METAR,59.0
KDQH 072155Z AUTO 28006KT 10SM CLR 35/20 A2986 RMK AO2 LTG DSNT ALQS T03450200,KDQH,2023-07-07T21:55:00Z,31.48,-82.87,34.5,20.0,280,6,,10.0,29.861221,,,TRUE,TRUE,,,,,,,CLR,,,,,,,,VFR,,,,,,,,,,,,SPECI,76.0
KDOV 072155Z AUTO 13007KT 10SM FEW190 27/25 A2980 RMK AO2 LTG DSNT SW SLP095 T02660252,KDOV,2023-07-07T21:55:00Z,39.12,-75.47,26.6,25.2,130,7,,10.0,29.799213,1009.5,,TRUE,TRUE,,,,,,,FEW,19000,,,,,,,VFR,,,,,,,,,,,,METAR,6.0
KDNV 072155Z AUTO 24008KT 10SM BKN120 27/16 A2995 RMK AO2 T02740158,KDNV,2023-07-07T21:55:00Z,40.2,-87.6,27.4,15.8,240,8,,10.0,29.949802,,,TRUE,TRUE,,,,,,,BKN,12000,,,,,,,VFR,,,,,,,,,,,,SPECI,208.0
KDNS 072155Z AUTO 09008KT 2SM BR BKN013 15/15 A2996 RMK AO2 P0005,KDNS,2023-07-07T21:55:00Z,41.98,-95.37,15.0,15.0,90,8,,2.0,29.958662,,,TRUE,TRUE,,,,,,BR,BKN,1300,,,,,,,IFR,,,,,,0.05,,,,,,METAR,382.0
KDNN 072155Z AUTO VRB06KT 10SM CLR 31/22 A2989 RMK AO2 T03100221,KDNN,2023-07-07T21:55:00Z,34.72,-84.87,31.0,22.1,0,6,,10.0,29.890747,,,TRUE,TRUE,,,,,,,CLR,,,,,,,,VFR,,,,,,,,,,,,METAR,216.0
KDNA 072155Z AUTO 21011KT 10SM CLR 40/02 A2990 RMK AO2,KDNA,2023-07-07T21:55:00Z,31.88,-106.7,40.0,2.0,210,11,,10.0,29.899607,,,TRUE,TRUE,,,,,,,CLR,,,,,,,,VFR,,,,,,,,,,,,METAR,1254.0
KDMA 072155Z 33006KT 10SM CLR 41/03 A2978 RMK AO2A SLP029 T04100033 RVRNO $,KDMA,2023-07-07T21:55:00Z,32.17,-110.88,41.0,3.3,330,6,,10.0,29.778543,1002.9,,,TRUE,TRUE,,,,,,CLR,,,,,,,,VFR,,,,,,,,,,,,METAR,804.0
KDLZ 072155Z AUTO 29004KT 10SM CLR 26/15 A2994 RMK AO2,KDLZ,2023-07-07T21:55:00Z,40.28,-83.12,26.0,15.0,290,4,,10.0,29.940945,,,TRUE,TRUE,,,,,,,CLR,,,,,,,,VFR,,,,,,,,,,,,METAR,287.0
KDLP 072155Z AUTO 21004KT 10SM CLR 31/24 A2987 RMK A01,KDLP,2023-07-07T21:55:00Z,29.12,-89.55,31.0,24.0,210,4,,10.0,29.870079,,,TRUE,TRUE,,,,,,,CLR,,,,,,,,VFR,,,,,,,,,,,,METAR,31.0
KDLO 072155Z AUTO 33005KT 10SM CLR 31/05 A2979 RMK AO2 T03090052,KDLO,2023-07-07T21:55:00Z,35.75,-119.23,30.9,5.2,330,5,,10.0,29.790354,,,TRUE,TRUE,,,,,,,CLR,,,,,,,,VFR,,,,,,,,,,,,METAR,97.0
KDLL 072155Z AUTO 00000KT 10SM BKN065 25/09 A2994 RMK AO2 T02460091,KDLL,2023-07-07T21:55:00Z,43.52,-89.77,24.6,9.1,0,0,,10.0,29.940945,,,TRUE,TRUE,,,,,,,BKN,6500,,,,,,,VFR,,,,,,,,,,,,METAR,297.0
KDLH 072155Z 24015G22KT 10SM BKN070 BKN090 23/09 A2991 RMK AO2 SLP128 T02330094 $,KDLH,2023-07-07T21:55:00Z,46.85,-92.2,23.3,9.4,240,15,22,10.0,29.911417,1012.8,,,TRUE,TRUE,,,,,,BKN,7000,BKN,9000,,,,,VFR,,,,,,,,,,,,METAR,434.0
KDLF 072155Z AUTO 11013G18KT 10SM SCT045 33/21 A2983 RMK AO2 SLP088 T03280213 TSNO $,KDLF,2023-07-07T21:55:00Z,29.37,-100.78,32.8,21.3,110,13,18,10.0,29.828741,1008.8,,TRUE,TRUE,TRUE,,TRUE,,,,SCT,4500,,,,,,,VFR,,,,,,,,,,,,METAR,328.0
KDKX 072155Z AUTO 00000KT 10SM SCT055 32/21 A2988 RMK A01,KDKX,2023-07-07T21:55:00Z,35.97,-83.87,32.0,21.0,0,0,,10.0,29.878937,,,TRUE,TRUE,,,,,,,SCT,5500,,,,,,,VFR,,,,,,,,,,,,METAR,253.0
KDKR 072155Z AUTO 16005KT 10SM CLR 32/23 A2992 RMK AO2,KDKR,2023-07-07T21:55:00Z,31.3,-95.4,32.0,23.0,160,5,,10.0,29.920275,,,TRUE,TRUE,,,,,,,CLR,,,,,,,,VFR,,,,,,,,,,,,METAR,105.0
KDKB 072155Z AUTO 21007KT 10SM SCT048 SCT055 BKN100 25/16 A2996 RMK AO2 T02460161,KDKB,2023-07-07T21:55:00Z,41.93,-88.7,24.6,16.1,210,7,,10.0,29.958662,,,TRUE,TRUE,,,,,,,SCT,4800,SCT,5500,BKN,10000,,,VFR,,,,,,,,,,,,SPECI,277.0
KDEH 072155Z AUTO 00000KT 10SM SCT090 19/15 A2996 RMK AO2,KDEH,2023-07-07T21:55:00Z,43.27,-91.73,19.0,15.0,0,0,,10.0,29.958662,,,TRUE,TRUE,,,,,,,SCT,9000,,,,,,,VFR,,,,,,,,,,,,METAR,348.0
KDCY 072155Z AUTO 29003KT 10SM CLR 28/18 A2992 RMK AO2 T02840181,KDCY,2023-07-07T21:55:00Z,38.7,-87.13,28.4,18.1,290,3,,10.0,29.920275,,,TRUE,TRUE,,,,,,,CLR,,,,,,,,VFR,,,,,,,,,,,,SPECI,143.0
KDBN 072155Z AUTO 36012G25KT 325V025 10SM TS SCT048 SCT050 31/21 A2989 RMK AO2 LTG DSNT W THRU E,KDBN,2023-07-07T21:55:00Z,32.57,-82.98,31.0,21.0,360,12,25,10.0,29.890747,,,TRUE,TRUE,,,,,,TS,SCT,4800,SCT,5000,,,,,VFR,,,,,,,,,,,,METAR,90.0
KDAA 072155Z AUTO 00000KT 10SM CLR 28/22 A2979 RMK AO2 SLP090 T02820219 $,KDAA,2023-07-07T21:55:00Z,38.72,-77.17,28.2,21.9,0,0,,10.0,29.790354,1009.0,,TRUE,TRUE,TRUE,,,,,,CLR,,,,,,,,VFR,,,,,,,,,,,,METAR,17.0
KD95 072155Z AUTO 30005KT 10SM BKN060 25/10 A2996 RMK AO2 T02480102,KD95,2023-07-07T21:55:00Z,43.07,-83.27,24.8,10.2,300,5,,10.0,29.958662,,,TRUE,TRUE,,,,,,,BKN,6000,,,,,,,VFR,,,,,,,,,,,,METAR,253.0
KD73 072155Z AUTO 29004KT 10SM CLR 24/24 A2990 RMK AO2 LTG DSNT SE P0001 T0239////,KD73,2023-07-07T21:55:00Z,33.78,-83.7,23.9,24.0,290,4,,10.0,29.899607,,,TRUE,TRUE,,,,,,,CLR,,,,,,,,VFR,,,,,,0.01,,,,,,METAR,254.0
KD60 072155Z AUTO 36011KT 10SM SCT070 SCT075 SCT090 22/06 A3006 RMK AO2,KD60,2023-07-07T21:55:00Z,48.38,-102.9,22.0,6.0,360,11,,10.0,30.059055,,,TRUE,TRUE,,,,,,,SCT,7000,SCT,7500,SCT,9000,,,VFR,,,,,,,,,,,,METAR,682.0
KD57 072155Z AUTO 03010KT 10SM CLR 23/09 A3001 RMK AO2,KD57,2023-07-07T21:55:00Z,46.82,-101.87,23.0,9.0,30,10,,10.0,30.008858,,,TRUE,TRUE,,,,,,,CLR,,,,,,,,VFR,,,,,,,,,,,,METAR,636.0
KD55 072155Z AUTO 02014G20KT 10SM CLR 20/11 A3000 RMK AO2,KD55,2023-07-07T21:55:00Z,48.75,-98.4,20.0,11.0,20,14,20,10.0,30.0,,,TRUE,TRUE,,,,,,,CLR,,,,,,,,VFR,,,,,,,,,,,,METAR,488.0
KD39 072155Z AUTO 20009KT 10SM CLR 24/10 A2994 RMK AO2 T02360104,KD39,2023-07-07T21:55:00Z,45.7,-94.93,23.6,10.4,200,9,,10.0,29.940945,,,TRUE,TRUE,,,,,,,CLR,,,,,,,,VFR,,,,,,,,,,,,METAR,378.0
KD25 072155Z AUTO 22006KT 10SM BKN050 OVC060 21/12 A2995 RMK AO2 T02120122,KD25,2023-07-07T21:55:00Z,46.12,-89.88,21.2,12.2,220,6,,10.0,29.949802,,,TRUE,TRUE,,,,,,,BKN,5000,OVC,6000,,,,,VFR,,,,,,,,,,,,METAR,490.0
KD09 072155Z AUTO 36008KT 340V040 10SM FEW060 FEW070 21/09 A3002 RMK AO2,KD09,2023-07-07T21:55:00Z,,,21.0,9.0,360,8,,10.0,30.02067,,,TRUE,TRUE,,,,,,,FEW,6000,FEW,7000,,,,,VFR,,,,,,,,,,,,METAR,
KCZT 072155Z AUTO 10SM SCT036 SCT046 BKN065 33/23 A2985 RMK AO2,KCZT,2023-07-07T21:55:00Z,28.52,-99.82,33.0,23.0,,,,10.0,29.84941,,,TRUE,TRUE,,,,,,,SCT,3600,SCT,4600,BKN,6500,,,VFR,,,,,,,,,,,,SPECI,176.0
KCZL 072155Z AUTO 01005KT 10SM 32/21 A2990 RMK AO2,KCZL,2023-07-07T21:55:00Z,34.47,-84.93,32.0,21.0,10,5,,10.0,29.899607,,,TRUE,TRUE,,,,,,,,,,,,,,,,,,,,,,,,,,,METAR,197.0
KCXW 072155Z AUTO 20003KT 10SM CLR 31/25 A2988 RMK A01,KCXW,2023-07-07T21:55:00Z,35.02,-92.55,31.0,25.0,200,3,,10.0,29.878937,,,TRUE,TRUE,,,,,,,CLR,,,,,,,,VFR,,,,,,,,,,,,METAR,84.0
KCXU 072155Z AUTO 22009KT 10SM SCT044 SCT050 32/25 A2986 RMK AO1 T03220246,KCXU,2023-07-07T21:55:00Z,31.22,-84.23,32.2,24.6,220,9,,10.0,29.861221,,,TRUE,TRUE,,,,,,,SCT,4400,SCT,5000,,,,,VFR,,,,,,,,,,,,METAR,48.0
KCXP 072155Z AUTO 24010G16KT 10SM CLR 30/02 A2994 RMK AO2,KCXP,2023-07-07T21:55:00Z,39.18,-119.73,30.0,2.0,240,10,16,10.0,29.940945,,,TRUE,TRUE,,,,,,,CLR,,,,,,,,VFR,,,,,,,,,,,,METAR,1431.0
KCXE 072155Z AUTO 35003KT 10SM SCT050 SCT070 SCT080 32/22 A2982 RMK AO1 T03210216,KCXE,2023-07-07T21:55:00Z,36.78,-78.5,32.1,21.6,350,3,,10.0,29.819881,,,TRUE,TRUE,,,,,,,SCT,5000,SCT,7000,SCT,8000,,,VFR,,,,,,,,,,,,METAR,154.0
KCWV 072155Z AUTO 30005KT 10SM CLR 36/20 A2982 RMK AO2 LTG DSNT NW THRU NE T03600195,KCWV,2023-07-07T21:55:00Z,32.2,-81.87,36.0,19.5,300,5,,10.0,29.819881,,,TRUE,TRUE,,,,,,,CLR,,,,,,,,VFR,,,,,,,,,,,,SPECI,32.0
KCWN 072155Z AUTO 33007KT 10SM VCTS OVC028 18/13 A3017 RMK AO2 SLP051 T01760127 $,KCWN,2023-07-07T21:55:00Z,38.75,-104.85,17.6,12.7,330,7,,10.0,30.171259,1005.1,,TRUE,TRUE,TRUE,,,,,VCTS,OVC,2800,,,,,,,MVFR,,,,,,,,,,,,METAR,2040.0
KCWC 072155Z AUTO 17019G28KT 10SM CLR 35/19 A2983 RMK AO2 T03470192,KCWC,2023-07-07T21:55:00Z,33.85,-98.48,34.7,19.2,170,19,28,10.0,29.828741,,,TRUE,TRUE,,,,,,,CLR,,,,,,,,VFR,,,,,,,,,,,,METAR,304.0
KCVX 072155Z AUTO 31004KT 10SM CLR 23/04 A2997 RMK AO2 T02260038,KCVX,2023-07-07T21:55:00Z,45.3,-85.27,22.6,3.8,310,4,,10.0,29.970472,,,TRUE,TRUE,,,,,,,CLR,,,,,,,,VFR,,,,,,,,,,,,METAR,196.0
KCVS 072155Z 20007KT 10SM BKN130 26/12 A2997 RMK AO2A PK WND 26044/2059 LTG DSNT NE AND SE RAB2054E32DZB32E33RAB33E37 TSB2050E35 SLP089 P0001 T02620123 $,KCVS,2023-07-07T21:55:00Z,34.37,-103.32,26.2,12.3,200,7,,10.0,29.970472,1008.9,,,TRUE,TRUE,,,,,,BKN,13000,,,,,,,VFR,,,,,,0.01,,,,,,METAR,1305.0
KCVH 072155Z AUTO 26016KT 10SM CLR 23/12 A2990 RMK A01,KCVH,2023-07-07T21:55:00Z,36.9,-121.42,23.0,12.0,260,16,,10.0,29.899607,,,TRUE,TRUE,,,,,,,CLR,,,,,,,,VFR,,,,,,,,,,,,METAR,68.0
KCVC 072155Z AUTO 00000KT 10SM -VCTSRA SCT110 22/22 A2989 RMK AO2 LTG DSNT SE AND W,KCVC,2023-07-07T21:55:00Z,33.63,-83.85,22.0,22.0,0,0,,10.0,29.890747,,,TRUE,TRUE,,,,,,VCTS -RA,SCT,11000,,,,,,,VFR,,,,,,,,,,,,METAR,240.0
KCVB 072155Z AUTO 17008G16KT 10SM SCT038 SCT044 BKN060 33/20 A2992 RMK AO2 T03310199,KCVB,2023-07-07T21:55:00Z,29.35,-98.85,33.1,19.9,170,8,16,10.0,29.920275,,,TRUE,TRUE,,,,,,,SCT,3800,SCT,4400,BKN,6000,,,VFR,,,,,,,,,,,,METAR,234.0
KCUL 072155Z AUTO 00000KT 10SM CLR 31/19 A2992 RMK AO2 T03050188,KCUL,2023-07-07T21:55:00Z,38.08,-88.12,30.5,18.8,0,0,,10.0,29.920275,,,TRUE,TRUE,,,,,,,CLR,,,,,,,,VFR,,,,,,,,,,,,SPECI,116.0
KCUH 072155Z AUTO 00000KT 10SM SCT100 SCT120 25/20 A2988 RMK AO2 T02500204,KCUH,2023-07-07T21:55:00Z,35.95,-96.77,25.0,20.4,0,0,,10.0,29.878937,,,TRUE,TRUE,,,,,,,SCT,10000,SCT,12000,,,,,VFR,,,,,,,,,,,,METAR,274.0
KCTY 072155Z AUTO 25012KT 10SM SCT029 32/24 A2991 RMK AO2 LTG DSNT NW THRU E,KCTY,2023-07-07T21:55:00Z,29.63,-83.1,32.0,24.0,250,12,,10.0,29.911417,,,TRUE,TRUE,,,,,,,SCT,2900,,,,,,,VFR,,,,,,,,,,,,METAR,12.0
KCTJ 072155Z AUTO 31005KT 10SM CLR 29/22 A2994 RMK AO2 LTG DSNT SE T02910217,KCTJ,2023-07-07T21:55:00Z,33.63,-85.15,29.1,21.7,310,5,,10.0,29.940945,,,TRUE,TRUE,,,,,,,CLR,,,,,,,,VFR,,,,,,,,,,,,SPECI,351.0
KCSQ 072155Z AUTO 06009KT 10SM OVC016 19/19 A2994 RMK AO2,KCSQ,2023-07-07T21:55:00Z,41.02,-94.37,19.0,19.0,60,9,,10.0,29.940945,,,TRUE,TRUE,,,,,,,OVC,1600,,,,,,,MVFR,,,,,,,,,,,,METAR,394.0
KCRX 072155Z AUTO 13005KT 10SM FEW044 SCT065 23/22 A2995 RMK AO2 LTG DSNT E-S P0049,KCRX,2023-07-07T21:55:00Z,34.92,-88.6,23.0,22.0,130,5,,10.0,29.949802,,,TRUE,TRUE,,,,,,,FEW,4400,SCT,6500,,,,,VFR,,,,,,0.49,,,,,,METAR,128.0
KCQW 072155Z AUTO 19006KT 10SM BKN075 25/23 A2984 RMK AO2 LTG DSNT ALQDS,KCQW,2023-07-07T21:55:00Z,34.72,-79.95,25.0,23.0,190,6,,10.0,29.840551,,,TRUE,TRUE,,,,,,,BKN,7500,,,,,,,VFR,,,,,,,,,,,,METAR,67.0
KCQF 072155Z AUTO 36004KT 10SM SCT038 BKN050 BKN070 28/21 A2994 RMK AO2,KCQF,2023-07-07T21:55:00Z,30.47,-87.88,28.0,21.0,360,4,,10.0,29.940945,,,TRUE,TRUE,,,,,,,SCT,3800,BKN,5000,BKN,7000,,,VFR,,,,,,,,,,,,METAR,21.0
KCQB 072155Z AUTO 12006KT 10SM CLR 25/21 A2992 RMK AO2 T02490213,KCQB,2023-07-07T21:55:00Z,35.72,-96.82,24.9,21.3,120,6,,10.0,29.920275,,,TRUE,TRUE,,,,,,,CLR,,,,,,,,VFR,,,,,,,,,,,,SPECI,298.0
KCPW 072155Z AUTO 26015G30KT 220V280 10SM SCT090 17/M02 A3054 RMK AO2 LTG DSNT E,KCPW,2023-07-07T21:55:00Z,37.45,-106.8,17.0,-2.0,260,15,30,10.0,30.540354,,,TRUE,TRUE,,,,,,,SCT,9000,,,,,,,VFR,,,,,,,,,,,,SPECI,3570.0
KCPU 072155Z AUTO 35004KT 10SM CLR 29/10 A2985 RMK AO2 T02940098,KCPU,2023-07-07T21:55:00Z,38.15,-120.65,29.4,9.8,350,4,,10.0,29.84941,,,TRUE,TRUE,,,,,,,CLR,,,,,,,,VFR,,,,,,,,,,,,METAR,400.0
KCPT 072155Z AUTO 16013G18KT 7SM CLR 35/19 A2988 RMK A01,KCPT,2023-07-07T21:55:00Z,32.35,-97.43,35.0,19.0,160,13,18,7.0,29.878937,,,TRUE,TRUE,,,,,,,CLR,,,,,,,,VFR,,,,,,,,,,,,METAR,260.0
KCPP 072155Z AUTO 00000KT 10SM -RA SCT060 SCT080 BKN120 23/21 A2989 RMK AO2 LTG DSNT SE AND W,KCPP,2023-07-07T21:55:00Z,,,23.0,21.0,0,0,,10.0,29.890747,,,TRUE,TRUE,,,,,,-RA,SCT,6000,SCT,8000,BKN,12000,,,VFR,,,,,,,,,,,,METAR,
KCPK 072155Z AUTO 13003KT 10SM VCTS CLR 28/24 A2981 RMK AO2 LTG DSNT SW T02820238,KCPK,2023-07-07T21:55:00Z,36.67,-76.32,28.2,23.8,130,3,,10.0,29.811024,,,TRUE,TRUE,,,,,,VCTS,CLR,,,,,,,,VFR,,,,,,,,,,,,METAR,4.0
KCOQ 072155Z AUTO 24011G15KT 10SM CLR 23/07 A2991 RMK AO2 TSNO,KCOQ,2023-07-07T21:55:00Z,46.7,-92.5,23.0,7.0,240,11,15,10.0,29.911417,,,TRUE,TRUE,,,TRUE,,,,CLR,,,,,,,,VFR,,,,,,,,,,,,METAR,390.0
KCOM 072155Z AUTO 17008G20KT 10SM SCT050 34/17 A2992 RMK AO2 T03380173,KCOM,2023-07-07T21:55:00Z,31.83,-99.4,33.8,17.3,170,8,20,10.0,29.920275,,,TRUE,TRUE,,,,,,,SCT,5000,,,,,,,VFR,,,,,,,,,,,,SPECI,516.0
KCOF 072155Z AUTO 21005KT 10SM CLR 26/23 A2989 RMK AO2 LTG DSNT S AND W-NW SLP126 T02640228 $,KCOF,2023-07-07T21:55:00Z,28.23,-80.6,26.4,22.8,210,5,,10.0,29.890747,1012.6,,TRUE,TRUE,TRUE,,,,,,CLR,,,,,,,,VFR,,,,,,,,,,,,METAR,1.0
KCNW 072155Z 15010KT 10SM SCT049 35/20 A2989,KCNW,2023-07-07T21:55:00Z,31.63,-97.07,35.0,20.0,150,10,,10.0,29.890747,,,,,,,,,,,SCT,4900,,,,,,,VFR,,,,,,,,,,,,METAR,139.0
KCNK 072155Z AUTO 20008KT 10SM FEW035 OVC085 27/19 A2989 RMK AO2 LTG DSNT NW-NE SLP106 T02720194,KCNK,2023-07-07T21:55:00Z,39.55,-97.65,27.2,19.4,200,8,,10.0,29.890747,1010.6,,TRUE,TRUE,,,,,,,FEW,3500,OVC,8500,,,,,VFR,,,,,,,,,,,,METAR,445.0
KCNI 072155Z AUTO 32007KT 10SM CLR 30/22 A2991 RMK AO2 LTG DSNT SE THRU NW T03030225,KCNI,2023-07-07T21:55:00Z,34.32,-84.42,30.3,22.5,320,7,,10.0,29.911417,,,TRUE,TRUE,,,,,,,CLR,,,,,,,,VFR,,,,,,,,,,,,SPECI,371.0
KCNC 072155Z AUTO 08006KT 10SM BKN018 19/17 A2993 RMK AO2,KCNC,2023-07-07T21:55:00Z,41.02,-93.37,19.0,17.0,80,6,,10.0,29.929134,,,TRUE,TRUE,,,,,,,BKN,1800,,,,,,,MVFR,,,,,,,,,,,,METAR,319.0
KCNB 072155Z AUTO 24007KT 10SM SCT025 SCT030 22/14 A2997 RMK AO2 T02220135,KCNB,2023-07-07T21:55:00Z,44.73,-96.27,22.2,13.5,240,7,,10.0,29.970472,,,TRUE,TRUE,,,,,,,SCT,2500,SCT,3000,,,,,VFR,,,,,,,,,,,,METAR,363.0
KCMY 072155Z AUTO 00000KT 9SM SCT130 22/10 A2993 RMK AO2 SLP140 T02220097 FZRANO $,KCMY,2023-07-07T21:55:00Z,43.97,-90.73,22.2,9.7,0,0,,9.0,29.929134,1014.0,,TRUE,TRUE,TRUE,,,TRUE,,,SCT,13000,,,,,,,VFR,,,,,,,,,,,,METAR,253.0
KCMR 072155Z AUTO 22015G25KT 180V250 10SM CLR 29/M03 A3012 RMK AO2,KCMR,2023-07-07T21:55:00Z,35.3,-112.2,29.0,-3.0,220,15,25,10.0,30.121063,,,TRUE,TRUE,,,,,,,CLR,,,,,,,,VFR,,,,,,,,,,,,METAR,2039.0
KCMD 072155Z AUTO 00000KT 10SM VCTS CLR 26/25 A2995 RMK AO2 LTG DSNT S AND SW,KCMD,2023-07-07T21:55:00Z,34.27,-86.85,26.0,25.0,0,0,,10.0,29.949802,,,TRUE,TRUE,,,,,,VCTS,CLR,,,,,,,,VFR,,,,,,,,,,,,METAR,294.0
KCMA 072155Z 25009G18KT 10SM CLR 22/13 A2985 RMK AO2 SLP115 T02170133,KCMA,2023-07-07T21:55:00Z,34.22,-119.1,21.7,13.3,250,9,18,10.0,29.84941,1011.5,,,TRUE,,,,,,,CLR,,,,,,,,VFR,,,,,,,,,,,,METAR,20.0
KCLW 072155Z AUTO 28007G14KT 10SM SCT021 SCT034 31/24 A2993 RMK AO2,KCLW,2023-07-07T21:55:00Z,27.98,-82.75,31.0,24.0,280,7,14,10.0,29.929134,,,TRUE,TRUE,,,,,,,SCT,2100,SCT,3400,,,,,VFR,,,,,,,,,,,,METAR,21.0
KCLS 072155Z AUTO VRB05G12KT 10SM CLR 22/14 A2991 RMK AO2,KCLS,2023-07-07T21:55:00Z,46.68,-122.98,22.0,14.0,0,5,12,10.0,29.911417,,,TRUE,TRUE,,,,,,,CLR,,,,,,,,VFR,,,,,,,,,,,,METAR,52.0
KCLK 072155Z AUTO 15008G15KT 10SM SCT120 30/20 A2990 RMK AO2,KCLK,2023-07-07T21:55:00Z,35.53,-98.93,30.0,20.0,150,8,15,10.0,29.899607,,,TRUE,TRUE,,,,,,,SCT,12000,,,,,,,VFR,,,,,,,,,,,,METAR,489.0
KCLI 072155Z AUTO 06003KT 10SM CLR 24/08 A2996 RMK AO2 T02410075,KCLI,2023-07-07T21:55:00Z,44.62,-88.73,24.1,7.5,60,3,,10.0,29.958662,,,TRUE,TRUE,,,,,,,CLR,,,,,,,,VFR,,,,,,,,,,,,METAR,248.0
KCKZ 072155Z AUTO 05003KT 10SM CLR 27/24 A2985 RMK AO2,KCKZ,2023-07-07T21:55:00Z,40.38,-75.28,27.0,24.0,50,3,,10.0,29.84941,,,TRUE,TRUE,,,,,,,CLR,,,,,,,,VFR,,,,,,,,,,,,SPECI,160.0
KCKP 072155Z AUTO 10006KT 10SM SCT027 BKN032 OVC038 15/14 A2999 RMK AO2 T01450138,KCKP,2023-07-07T21:55:00Z,42.73,-95.55,14.5,13.8,100,6,,10.0,29.991142,,,TRUE,TRUE,,,,,,,SCT,2700,BKN,3200,OVC,3800,,,VFR,,,,,,,,,,,,SPECI,369.0
KCKN 072155Z AUTO 35016G20KT 10SM SCT050 24/11 A2992 RMK AO2 LTG DSNT E,KCKN,2023-07-07T21:55:00Z,47.85,-96.62,24.0,11.0,350,16,20,10.0,29.920275,,,TRUE,TRUE,,,,,,,SCT,5000,,,,,,,VFR,,,,,,,,,,,,METAR,272.0
KCKM 072155Z AUTO 23003KT 10SM FEW029 FEW080 31/24 A2992 RMK A01,KCKM,2023-07-07T21:55:00Z,34.3,-90.52,31.0,24.0,230,3,,10.0,29.920275,,,TRUE,TRUE,,,,,,,FEW,2900,FEW,8000,,,,,VFR,,,,,,,,,,,,METAR,52.0
KCKI 072155Z AUTO 26003KT 10SM CLR 31/24 A2980 RMK AO2 LTG DSNT NE SE AND SW,KCKI,2023-07-07T21:55:00Z,33.72,-79.85,31.0,24.0,260,3,,10.0,29.799213,,,TRUE,TRUE,,,,,,,CLR,,,,,,,,VFR,,,,,,,,,,,,METAR,19.0
KCKF 072155Z AUTO 24006KT 10SM SCT060 33/22 A2986 RMK AO2 LTG DSNT N NE AND SW T03290222,KCKF,2023-07-07T21:55:00Z,31.98,-83.77,32.9,22.2,240,6,,10.0,29.861221,,,TRUE,TRUE,,,,,,,SCT,6000,,,,,,,VFR,,,,,,,,,,,,SPECI,92.0
KCKC 072155Z AUTO 26004KT 10SM SCT055 22/07 A2989 RMK AO2,KCKC,2023-07-07T21:55:00Z,47.83,-90.38,22.0,7.0,260,4,,10.0,29.890747,,,TRUE,TRUE,,,,,,,SCT,5500,,,,,,,VFR,,,,,,,,,,,,METAR,544.0
KCJR 072155Z AUTO 00000KT 10SM SCT080 SCT090 SCT110 30/21 A2982 RMK AO2 LTG DSNT SW AND W T02960213,KCJR,2023-07-07T21:55:00Z,38.53,-77.87,29.6,21.3,0,0,,10.0,29.819881,,,TRUE,TRUE,,,,,,,SCT,8000,SCT,9000,SCT,11000,,,VFR,,,,,,,,,,,,METAR,90.0
KCIN 072155Z AUTO 07007KT 2 1/2SM -RA FEW014 BKN021 BKN030 15/15 A2996 RMK AO2 P0003,KCIN,2023-07-07T21:55:00Z,42.03,-94.78,15.0,15.0,70,7,,2.5,29.958662,,,TRUE,TRUE,,,,,,-RA,FEW,1400,BKN,2100,BKN,3000,,,IFR,,,,,,0.03,,,,,,METAR,365.0
KCII 072155Z AUTO 12004G13KT 10SM 24/06 A3003 RMK A01 ,KCII,2023-07-07T21:55:00Z,47.83,-112.17,24.0,6.0,120,4,13,10.0,30.029528,,,TRUE,TRUE,,,,,,,,,,,,,,,,,,,,,,,,,,,METAR,1202.0
KCHK 072155Z AUTO 09010KT 10SM CLR 31/23 A2985 RMK AO2 T03050231,KCHK,2023-07-07T21:55:00Z,35.1,-97.97,30.5,23.1,90,10,,10.0,29.84941,,,TRUE,TRUE,,,,,,,CLR,,,,,,,,VFR,,,,,,,,,,,,SPECI,346.0
KCGC 072155Z AUTO 28013G18KT 10SM BKN028 BKN041 BKN055 32/24 A2992 RMK AO2 LTG DSNT N THRU SE,KCGC,2023-07-07T21:55:00Z,28.87,-82.57,32.0,24.0,280,13,18,10.0,29.920275,,,TRUE,TRUE,,,,,,,BKN,2800,BKN,4100,BKN,5500,,,MVFR,,,,,,,,,,,,METAR,3.0
KCFS 072155Z AUTO 23004KT 10SM SCT055 25/11 A2995 RMK AO2 T02520111,KCFS,2023-07-07T21:55:00Z,43.47,-83.45,25.2,11.1,230,4,,10.0,29.949802,,,TRUE,TRUE,,,,,,,SCT,5500,,,,,,,VFR,,,,,,,,,,,,METAR,214.0
KCFJ 072155Z AUTO 23004KT 10SM 27/12 A2994 RMK AO2 T02650116,KCFJ,2023-07-07T21:55:00Z,39.98,-86.92,26.5,11.6,230,4,,10.0,29.940945,,,TRUE,TRUE,,,,,,,,,,,,,,,,,,,,,,,,,,,METAR,243.0
KCFE 072155Z AUTO 24006KT 10SM CLR 22/11 A2995 RMK AO2,KCFE,2023-07-07T21:55:00Z,45.17,-93.85,22.0,11.0,240,6,,10.0,29.949802,,,TRUE,TRUE,,,,,,,CLR,,,,,,,,VFR,,,,,,,,,,,,METAR,292.0
KCFD 072155Z AUTO 19008KT 10SM SCT047 SCT050 BKN090 32/22 A2993 RMK AO2 T03220221,KCFD,2023-07-07T21:55:00Z,30.72,-96.33,32.2,22.1,190,8,,10.0,29.929134,,,TRUE,TRUE,,,,,,,SCT,4700,SCT,5000,BKN,9000,,,VFR,,,,,,,,,,,,METAR,106.0
KCEY 072155Z AUTO VRB06KT 10SM FEW110 30/22 A2992 RMK A01,KCEY,2023-07-07T21:55:00Z,36.67,-88.37,30.0,22.0,0,6,,10.0,29.920275,,,TRUE,TRUE,,,,,,,FEW,11000,,,,,,,VFR,,,,,,,,,,,,METAR,172.0
KCEF 072155Z 21008KT 10SM FEW050 FEW100 BKN200 29/19 A2980 RMK AO2A LTG DSNT NW SLP095 T02860192,KCEF,2023-07-07T21:55:00Z,42.2,-72.52,28.6,19.2,210,8,,10.0,29.799213,1009.5,,,TRUE,,,,,,,FEW,5000,FEW,10000,BKN,20000,,,VFR,,,,,,,,,,,,SPECI,72.0
KCDN 072155Z AUTO 30007KT 10SM VCTS CLR 29/22 A2984 RMK AO2 LTG DSNT ALQDS,KCDN,2023-07-07T21:55:00Z,34.28,-80.57,29.0,22.0,300,7,,10.0,29.840551,,,TRUE,TRUE,,,,,,VCTS,CLR,,,,,,,,VFR,,,,,,,,,,,,METAR,90.0
KCDI 072155Z AUTO 32004KT 10SM SCT075 28/19 A2991 RMK AO2 T02840188,KCDI,2023-07-07T21:55:00Z,39.97,-81.58,28.4,18.8,320,4,,10.0,29.911417,,,TRUE,TRUE,,,,,,,SCT,7500,,,,,,,VFR,,,,,,,,,,,,METAR,241.0
KCDH 072155Z AUTO 00000KT 4SM HZ FEW043 SCT070 33/27 A2988 RMK AO2 P0001,KCDH,2023-07-07T21:55:00Z,33.62,-92.77,33.0,27.0,0,0,,4.0,29.878937,,,TRUE,TRUE,,,,,,HZ,FEW,4300,SCT,7000,,,,,MVFR,,,,,,0.01,,,,,,METAR,38.0
KCDD 072155Z AUTO 22005KT 10SM CLR 19/11 A2992 RMK AO2 LTG DSNT N PWINO,KCDD,2023-07-07T21:55:00Z,48.27,-92.48,19.0,11.0,220,5,,10.0,29.920275,,,TRUE,TRUE,,,,,TRUE,,CLR,,,,,,,,VFR,,,,,,,,,,,,METAR,344.0
KCDA 072155Z AUTO 00000KT 7SM SCT001 BKN047 OVC110 20/19 A2992 RMK AO2 T02000192 PWINO,KCDA,2023-07-07T21:55:00Z,44.57,-72.02,20.0,19.2,0,0,,7.0,29.920275,,,TRUE,TRUE,,,,,TRUE,,SCT,100,BKN,4700,OVC,11000,,,VFR,,,,,,,,,,,,METAR,357.0
KCCY 072155Z AUTO 00000KT 10SM -RA FEW060 18/16 A2999 RMK AO2,KCCY,2023-07-07T21:55:00Z,43.07,-92.62,18.0,16.0,0,0,,10.0,29.991142,,,TRUE,TRUE,,,,,,-RA,FEW,6000,,,,,,,VFR,,,,,,,,,,,,METAR,340.0
KCCU 072155Z AUTO 26008G14KT 10SM BKN080 BKN100 16/M02 A3050 RMK AO2,KCCU,2023-07-07T21:55:00Z,39.48,-106.15,16.0,-2.0,260,8,14,10.0,30.499016,,,TRUE,TRUE,,,,,,,BKN,8000,BKN,10000,,,,,VFR,,,,,,,,,,,,METAR,3672.0
KCCO 072155Z AUTO 29004KT 10SM CLR 27/23 A2991 RMK AO2 LTG DSNT NE AND S T02680227,KCCO,2023-07-07T21:55:00Z,33.32,-84.77,26.8,22.7,290,4,,10.0,29.911417,,,TRUE,TRUE,,,,,,,CLR,,,,,,,,VFR,,,,,,,,,,,,SPECI,290.0
KCCB 072155Z AUTO 26009KT 10SM CLR 27/10 A2984 RMK AO2,KCCB,2023-07-07T21:55:00Z,34.12,-117.68,27.0,10.0,260,9,,10.0,29.840551,,,TRUE,TRUE,,,,,,,CLR,,,,,,,,VFR,,,,,,,,,,,,METAR,440.0
KCCA 072155Z AUTO 20004KT 10SM FEW055 FEW070 SCT080 31/24 A2990 RMK AO2,KCCA,2023-07-07T21:55:00Z,35.6,-92.45,31.0,24.0,200,4,,10.0,29.899607,,,TRUE,TRUE,,,,,,,FEW,5500,FEW,7000,SCT,8000,,,VFR,,,,,,,,,,,,METAR,152.0
KCBM 072155Z 00000KT 10SM SCT120 25/24 A2988 RMK AO2A RAE12 TSE14 SLP122 ALSTG/SLP ESTMD $,KCBM,2023-07-07T21:55:00Z,33.65,-88.45,25.0,24.0,0,0,,10.0,29.878937,1012.2,,,TRUE,TRUE,,,,,,SCT,12000,,,,,,,VFR,,,,,,,,,,,,METAR,59.0
KCBK 072155Z AUTO 01013KT 10SM CLR 28/16 A2995 RMK AO2 T02770157,KCBK,2023-07-07T21:55:00Z,39.43,-101.05,27.7,15.7,10,13,,10.0,29.949802,,,TRUE,TRUE,,,,,,,CLR,,,,,,,,VFR,,,,,,,,,,,,SPECI,970.0
KCBG 072155Z AUTO 23004KT 10SM CLR 23/11 A2995 RMK AO2,KCBG,2023-07-07T21:55:00Z,45.57,-93.27,23.0,11.0,230,4,,10.0,29.949802,,,TRUE,TRUE,,,,,,,CLR,,,,,,,,VFR,,,,,,,,,,,,METAR,285.0
KCBF 072155Z AUTO 05006KT 6SM -RA BKN018 OVC047 20/18 A2989 RMK AO2,KCBF,2023-07-07T21:55:00Z,41.27,-95.77,20.0,18.0,50,6,,6.0,29.890747,,,TRUE,TRUE,,,,,,-RA,BKN,1800,OVC,4700,,,,,MVFR,,,,,,,,,,,,METAR,379.0
KCAV 072155Z AUTO 06010G15KT 10SM OVC055 17/12 A2998 RMK A01,KCAV,2023-07-07T21:55:00Z,42.75,-93.77,17.0,12.0,60,10,15,10.0,29.97933,,,TRUE,TRUE,,,,,,,OVC,5500,,,,,,,VFR,,,,,,,,,,,,METAR,352.0
KCAO 072155Z AUTO 07019KT 10SM VCTS SCT033 SCT055 21/16 A2997 RMK AO2 PK WND 02042/2103 WSHFT 2058 LTG DSNT NE-SE RAB02E52 TSE52 SLP092 P0058 T02060156,KCAO,2023-07-07T21:55:00Z,36.45,-103.15,20.6,15.6,70,19,,10.0,29.970472,1009.2,,TRUE,TRUE,,,,,,VCTS,SCT,3300,SCT,5500,,,,,VFR,,,,,,0.58,,,,,,METAR,1517.0
KCAD 072155Z AUTO 24003KT 10SM SCT065 24/08 A2995 RMK AO2 T02430084,KCAD,2023-07-07T21:55:00Z,44.27,-85.42,24.3,8.4,240,3,,10.0,29.949802,,,TRUE,TRUE,,,,,,,SCT,6500,,,,,,,VFR,,,,,,,,,,,,METAR,397.0
KC83 072155Z AUTO 24024G33KT 10SM CLR 24/10 A2983 RMK AO2,KC83,2023-07-07T21:55:00Z,37.83,-121.62,24.0,10.0,240,24,33,10.0,29.828741,,,TRUE,TRUE,,,,,,,CLR,,,,,,,,VFR,,,,,,,,,,,,METAR,16.0
KC75 072155Z AUTO 30006KT 10SM OVC110 24/13 A2995 RMK AO2 T02440129,KC75,2023-07-07T21:55:00Z,41.02,-89.38,24.4,12.9,300,6,,10.0,29.949802,,,TRUE,TRUE,,,,,,,OVC,11000,,,,,,,VFR,,,,,,,,,,,,METAR,166.0
KC65 072155Z AUTO VRB05G10KT 10SM FEW055 FEW065 28/15 A2993 RMK A01,KC65,2023-07-07T21:55:00Z,41.37,-86.3,28.0,15.0,0,5,10,10.0,29.929134,,,TRUE,TRUE,,,,,,,FEW,5500,FEW,6500,,,,,VFR,,,,,,,,,,,,METAR,241.0
KC35 072155Z AUTO 00000KT 10SM SCT065 24/09 A2994 RMK AO2 T02350091 PWINO,KC35,2023-07-07T21:55:00Z,43.53,-89.98,23.5,9.1,0,0,,10.0,29.940945,,,TRUE,TRUE,,,,,TRUE,,SCT,6500,,,,,,,VFR,,,,,,,,,,,,METAR,272.0
KC29 072155Z AUTO 31003KT 10SM BKN060 24/11 A2995 RMK AO1 T02400105,KC29,2023-07-07T21:55:00Z,43.12,-89.53,24.0,10.5,310,3,,10.0,29.949802,,,TRUE,TRUE,,,,,,,BKN,6000,,,,,,,VFR,,,,,,,,,,,,METAR,282.0
KC09 072155Z AUTO 26008KT 10SM SCT050 26/16 A2992 RMK AO2 T02620160,KC09,2023-07-07T21:55:00Z,41.43,-88.42,26.2,16.0,260,8,,10.0,29.920275,,,TRUE,TRUE,,,,,,,SCT,5000,,,,,,,VFR,,,,,,,,,,,,SPECI,179.0
KC07 072155Z AUTO 00000KT 10SM SCT065 BKN090 OVC120 15/00 A3039 RMK AO2 LTG DSNT S THRU NW,KC07,2023-07-07T21:55:00Z,40.35,-106.7,15.0,0.0,0,0,,10.0,30.389763,,,TRUE,TRUE,,,,,,,SCT,6500,BKN,9000,OVC,12000,,,VFR,,,,,,,,,,,,SPECI,3224.0
KBYY 072155Z AUTO 18011G15KT 10SM CLR 32/22 A2992 RMK AO2 T03200228,KBYY,2023-07-07T21:55:00Z,28.97,-95.87,32.0,22.8,180,11,15,10.0,29.920275,,,TRUE,TRUE,,,,,,,CLR,,,,,,,,VFR,,,,,,,,,,,,METAR,12.0
KBYS 072155Z AUTO 15012G17KT 10SM CLR 35/M01 A2973 RMK AO2 SLP036 T03501012 $,KBYS,2023-07-07T21:55:00Z,35.28,-116.63,35.0,-1.2,150,12,17,10.0,29.731298,1003.6,,TRUE,TRUE,TRUE,,,,,,CLR,,,,,,,,VFR,,,,,,,,,,,,METAR,717.0
KBYL 072155Z AUTO 34005KT 10SM CLR 29/20 A2993 RMK AO1,KBYL,2023-07-07T21:55:00Z,36.8,-84.2,29.0,20.0,340,5,,10.0,29.929134,,,TRUE,TRUE,,,,,,,CLR,,,,,,,,VFR,,,,,,,,,,,,METAR,355.0
KBXK 072155Z AUTO VRB05KT 10SM CLR 40/07 A2970 RMK A01,KBXK,2023-07-07T21:55:00Z,33.42,-112.68,40.0,7.0,0,5,,10.0,29.698818,,,TRUE,TRUE,,,,,,,CLR,,,,,,,,VFR,,,,,,,,,,,,METAR,303.0
KBXA 072155Z AUTO 18007KT 10SM CLR 34/23 A2992 RMK AO2 T03350227,KBXA,2023-07-07T21:55:00Z,30.82,-89.87,33.5,22.7,180,7,,10.0,29.920275,,,TRUE,TRUE,,,,,,,CLR,,,,,,,,VFR,,,,,,,,,,,,METAR,35.0
KBWW 072155Z AUTO 04008KT 10SM FEW075 FEW120 23/13 A3005 RMK AO2,KBWW,2023-07-07T21:55:00Z,46.17,-103.3,23.0,13.0,40,8,,10.0,30.050198,,,TRUE,TRUE,,,,,,,FEW,7500,FEW,12000,,,,,VFR,,,,,,,,,,,,METAR,911.0
KBWP 072155Z AUTO 20007G16KT 5SM -TSRA BR SCT023 BKN030 OVC042 18/16 A2990 RMK AO2 P0010,KBWP,2023-07-07T21:55:00Z,46.25,-96.62,18.0,16.0,200,7,16,5.0,29.899607,,,TRUE,TRUE,,,,,,-TSRA BR,SCT,2300,BKN,3000,OVC,4200,,,MVFR,,,,,,0.1,,,,,,METAR,294.0
KBVU 072155Z AUTO 13015G21KT 10SM CLR 38/M03 A2971 RMK AO2,KBVU,2023-07-07T21:55:00Z,35.95,-114.87,38.0,-3.0,130,15,21,10.0,29.71063,,,TRUE,TRUE,,,,,,,CLR,,,,,,,,VFR,,,,,,,,,,,,METAR,654.0
KBVS 072155Z AUTO VRB06G11KT 10SM CLR 20/15 A2989 RMK A01,KBVS,2023-07-07T21:55:00Z,48.47,-122.42,20.0,15.0,0,6,11,10.0,29.890747,,,TRUE,TRUE,,,,,,,CLR,,,,,,,,VFR,,,,,,,,,,,,METAR,31.0
KBVN 072155Z AUTO 01009KT 10SM SCT017 BKN047 OVC060 21/19 A2992 RMK AO2 P0004 T02130188,KBVN,2023-07-07T21:55:00Z,41.73,-98.05,21.3,18.8,10,9,,10.0,29.920275,,,TRUE,TRUE,,,,,,,SCT,1700,BKN,4700,OVC,6000,,,VFR,,,,,,0.04,,,,,,SPECI,547.0
KBVI 072155Z AUTO 03007KT 10SM SCT045 28/15 A2994 RMK AO2 T02770151,KBVI,2023-07-07T21:55:00Z,40.77,-80.37,27.7,15.1,30,7,,10.0,29.940945,,,TRUE,TRUE,,,,,,,SCT,4500,,,,,,,VFR,,,,,,,,,,,,METAR,387.0
KBUU 072155Z AUTO 11007KT 10SM CLR 25/13 A2994 RMK AO2 T02510129 PWINO,KBUU,2023-07-07T21:55:00Z,42.68,-88.3,25.1,12.9,110,7,,10.0,29.940945,,,TRUE,TRUE,,,,,TRUE,,CLR,,,,,,,,VFR,,,,,,,,,,,,METAR,238.0
KBTN 072155Z AUTO 23010KT 10SM FEW120 23/15 A2990 RMK AO2,KBTN,2023-07-07T21:55:00Z,45.82,-97.75,23.0,15.0,230,10,,10.0,29.899607,,,TRUE,TRUE,,,,,,,FEW,12000,,,,,,,VFR,,,,,,,,,,,,METAR,400.0
KBTA 072155Z AUTO 05008KT 10SM -DZ SCT008 OVC034 18/17 A2991 RMK AO2 T01820173,KBTA,2023-07-07T21:55:00Z,41.42,-96.12,18.2,17.3,50,8,,10.0,29.911417,,,TRUE,TRUE,,,,,,-DZ,SCT,800,OVC,3400,,,,,VFR,,,,,,,,,,,,METAR,400.0
KBRY 072155Z AUTO 00000KT 10SM CLR 31/16 A2990 RMK AO2 T03080160,KBRY,2023-07-07T21:55:00Z,37.82,-85.5,30.8,16.0,0,0,,10.0,29.899607,,,TRUE,TRUE,,,,,,,CLR,,,,,,,,VFR,,,,,,,,,,,,METAR,192.0
KBRG 072155Z AUTO 30007G14KT 10SM CLR 35/01 A3000 RMK AO2 T03480007,KBRG,2023-07-07T21:55:00Z,34.65,-106.83,34.8,0.7,300,7,14,10.0,30.0,,,TRUE,TRUE,,,,,,,CLR,,,,,,,,VFR,,,,,,,,,,,,METAR,1585.0
KBQP 072155Z AUTO 22003KT 10SM SCT038 31/23 A2992 RMK AO2 T03130228,KBQP,2023-07-07T21:55:00Z,32.75,-91.88,31.3,22.8,220,3,,10.0,29.920275,,,TRUE,TRUE,,,,,,,SCT,3800,,,,,,,VFR,,,,,,,,,,,,SPECI,50.0
KBPG 072155Z AUTO 15015KT 10SM CLR 35/15 A2990 RMK AO2 T03550151,KBPG,2023-07-07T21:55:00Z,32.22,-101.52,35.5,15.1,150,15,,10.0,29.899607,,,TRUE,TRUE,,,,,,,CLR,,,,,,,,VFR,,,,,,,,,,,,METAR,782.0
KBNW 072155Z AUTO 06005KT 10SM FEW017 SCT023 OVC035 16/16 A2996 RMK AO2 P0002,KBNW,2023-07-07T21:55:00Z,42.03,-93.83,16.0,16.0,60,5,,10.0,29.958662,,,TRUE,TRUE,,,,,,,FEW,1700,SCT,2300,OVC,3500,,,VFR,,,,,,0.02,,,,,,METAR,350.0
KBNL 072155Z AUTO 00000KT 10SM CLR 33/22 A2981 RMK AO2 LTG DSNT E AND SW AND W,KBNL,2023-07-07T21:55:00Z,33.25,-81.38,33.0,22.0,0,0,,10.0,29.811024,,,TRUE,TRUE,,,,,,,CLR,,,,,,,,VFR,,,,,,,,,,,,METAR,76.0
KBMT 072155Z AUTO 16013G17KT 10SM SCT046 SCT085 34/23 A2992 RMK AO2 T03420226,KBMT,2023-07-07T21:55:00Z,30.07,-94.22,34.2,22.6,160,13,17,10.0,29.920275,,,TRUE,TRUE,,,,,,,SCT,4600,SCT,8500,,,,,VFR,,,,,,,,,,,,SPECI,8.0
KBLV 072155Z 05005KT 10SM FEW070 OVC250 28/19 A2990 RMK AO2A SLP125 T02810185 $,KBLV,2023-07-07T21:55:00Z,38.53,-89.83,28.1,18.5,50,5,,10.0,29.899607,1012.5,,,TRUE,TRUE,,,,,,FEW,7000,OVC,25000,,,,,VFR,,,,,,,,,,,,SPECI,134.0
KBKT 072155Z AUTO 15008KT 10SM SCT015 SCT026 BKN120 28/23 A2983 RMK AO1 T02790231,KBKT,2023-07-07T21:55:00Z,37.07,-77.95,27.9,23.1,150,8,,10.0,29.828741,,,TRUE,TRUE,,,,,,,SCT,1500,SCT,2600,BKN,12000,,,VFR,,,,,,,,,,,,METAR,134.0
KBKS 072155Z AUTO 04005KT 5SM RA BR VCTS FEW055 OVC085 24/24 A2992 RMK AO2 SLP093 P0001 T02400240 $,KBKS,2023-07-07T21:55:00Z,27.2,-98.12,24.0,24.0,40,5,,5.0,29.920275,1009.3,,TRUE,TRUE,TRUE,,,,,RA BR VCTS,FEW,5500,OVC,8500,,,,,MVFR,,,,,,0.01,,,,,,METAR,34.0
KBKN 072155Z AUTO 07004G12KT 24/22 A2990 RMK AO2 LTG DSNT NW-NE,KBKN,2023-07-07T21:55:00Z,36.75,-97.35,24.0,22.0,70,4,12,,29.899607,,,TRUE,TRUE,,,,,,,,,,,,,,,,,,,,,,,,,,,METAR,208.0
KBKD 072155Z AUTO 19016G21KT 5SM HZ CLR 35/19 A2987 RMK AO2 T03450186,KBKD,2023-07-07T21:55:00Z,32.72,-98.88,34.5,18.6,190,16,21,5.0,29.870079,,,TRUE,TRUE,,,,,,HZ,CLR,,,,,,,,MVFR,,,,,,,,,,,,METAR,383.0
KBJI 072155Z AUTO 15008KT 10SM SCT010 19/16 A2990 RMK AO2 LTG DSNT N AND NW T01890155,KBJI,2023-07-07T21:55:00Z,47.5,-94.92,18.9,15.5,150,8,,10.0,29.899607,,,TRUE,TRUE,,,,,,,SCT,1000,,,,,,,VFR,,,,,,,,,,,,METAR,422.0
KBIX 072155Z AUTO 24010KT 10SM CLR 31/24 A2989 RMK AO2 SLP124 T03100239 $,KBIX,2023-07-07T21:55:00Z,30.42,-88.92,31.0,23.9,240,10,,10.0,29.890747,1012.4,,TRUE,TRUE,TRUE,,,,,,CLR,,,,,,,,VFR,,,,,,,,,,,,SPECI,4.0
KBIJ 072155Z AUTO 00000KT 10SM SCT042 SCT050 BKN075 29/22 A2987 RMK AO2 LTG DSNT SW AND W,KBIJ,2023-07-07T21:55:00Z,31.4,-84.9,29.0,22.0,0,0,,10.0,29.870079,,,TRUE,TRUE,,,,,,,SCT,4200,SCT,5000,BKN,7500,,,VFR,,,,,,,,,,,,METAR,63.0
KBIF 072155Z 19010KT 7SM SCT120 41/06 A2990 RMK SLPNO ALSTG WND DATA ESTMD $,KBIF,2023-07-07T21:55:00Z,31.85,-106.38,41.0,6.0,190,10,,7.0,29.899607,,,,,TRUE,,,,,,SCT,12000,,,,,,,VFR,,,,,,,,,,,,METAR,1201.0
KBIE 072155Z AUTO 00000KT 1 3/4SM /VCTSRA SCT028 BKN048 OVC065 21/20 A2990 RMK AO2 VIS 3/4V3 LTG DSNT ALQS P0023 T02100198,KBIE,2023-07-07T21:55:00Z,40.28,-96.75,21.0,19.8,0,0,,1.75,29.899607,,,TRUE,TRUE,,,,,,VCTS RA,SCT,2800,BKN,4800,OVC,6500,,,IFR,,,,,,0.23,,,,,,METAR,398.0
KBHC 072155Z AUTO 30006G14KT 10SM CLR 33/20 A2983 RMK AO2 LTG DSNT N NE AND S,KBHC,2023-07-07T21:55:00Z,31.72,-82.4,33.0,20.0,300,6,14,10.0,29.828741,,,TRUE,TRUE,,,,,,,CLR,,,,,,,,VFR,,,,,,,,,,,,METAR,61.0
KBGE 072155Z AUTO 21010KT 10SM CLR 31/24 A2986 RMK AO2 LTG DSNT S AND NW T03050238,KBGE,2023-07-07T21:55:00Z,30.97,-84.63,30.5,23.8,210,10,,10.0,29.861221,,,TRUE,TRUE,,,,,,,CLR,,,,,,,,VFR,,,,,,,,,,,,METAR,40.0
KBEC 072155Z AUTO 25004KT 10SM VCTS SCT039 SCT060 BKN110 21/20 A2994 RMK AO2 LTG DSNT S THRU W P0001 T02050200,KBEC,2023-07-07T21:55:00Z,37.7,-97.22,20.5,20.0,250,4,,10.0,29.940945,,,TRUE,TRUE,,,,,,VCTS,SCT,3900,SCT,6000,BKN,11000,,,VFR,,,,,,0.01,,,,,,METAR,421.0
KBEA 072155Z AUTO 14013G18KT 10SM SCT065 33/19 A2989 RMK AO2 LTG DSNT S T03340193,KBEA,2023-07-07T21:55:00Z,28.37,-97.78,33.4,19.3,140,13,18,10.0,29.890747,,,TRUE,TRUE,,,,,,,SCT,6500,,,,,,,VFR,,,,,,,,,,,,METAR,83.0
KBDU 072155Z AUTO 35009G15KT 10SM BKN050 OVC065 22/11 A3011 RMK AO2,KBDU,2023-07-07T21:55:00Z,40.03,-105.23,22.0,11.0,350,9,15,10.0,30.109253,,,TRUE,TRUE,,,,,,,BKN,5000,OVC,6500,,,,,VFR,,,,,,,,,,,,METAR,1614.0
KBDN 072155Z AUTO 01009KT 320V050 10SM CLR 33/02 A2985 RMK AO2,KBDN,2023-07-07T21:55:00Z,44.1,-121.2,33.0,2.0,10,9,,10.0,29.84941,,,TRUE,TRUE,,,,,,,CLR,,,,,,,,VFR,,,,,,,,,,,,METAR,1044.0
KBDH 072155Z AUTO 20004KT 10SM SCT036 23/13 A2998 RMK AO2,KBDH,2023-07-07T21:55:00Z,45.12,-95.13,23.0,13.0,200,4,,10.0,29.97933,,,TRUE,TRUE,,,,,,,SCT,3600,,,,,,,VFR,,,,,,,,,,,,METAR,341.0
KBCK 072155Z AUTO 26003KT 10SM SCT060 22/11 A2995 RMK AO2 T02200108,KBCK,2023-07-07T21:55:00Z,44.25,-90.85,22.0,10.8,260,3,,10.0,29.949802,,,TRUE,TRUE,,,,,,,SCT,6000,,,,,,,VFR,,,,,,,,,,,,METAR,256.0
KBCB 072155Z AUTO 33006KT 10SM SCT048 SCT060 28/19 A2996 RMK AO2 T02830194,KBCB,2023-07-07T21:55:00Z,37.22,-80.42,28.3,19.4,330,6,,10.0,29.958662,,,TRUE,TRUE,,,,,,,SCT,4800,SCT,6000,,,,,VFR,,,,,,,,,,,,METAR,642.0
KBBP 072155Z AUTO 10004KT 10SM -RA SCT042 SCT080 OVC110 25/22 A2984 RMK AO2 P0002 LTG DSNT E AND SE,KBBP,2023-07-07T21:55:00Z,34.62,-79.73,25.0,22.0,100,4,,10.0,29.840551,,,TRUE,TRUE,,,,,,-RA,SCT,4200,SCT,8000,OVC,11000,,,VFR,,,,,,0.02,,,,,,METAR,44.0
KBBD 072155Z AUTO 14011KT 10SM SCT050 SCT060 31/19 A2993 RMK AO2,KBBD,2023-07-07T21:55:00Z,31.18,-99.32,31.0,19.0,140,11,,10.0,29.929134,,,TRUE,TRUE,,,,,,,SCT,5000,SCT,6000,,,,,VFR,,,,,,,,,,,,METAR,554.0
KBBB 072155Z AUTO 22007KT 10SM SCT035 23/14 A2994 RMK AO2,KBBB,2023-07-07T21:55:00Z,45.32,-95.65,23.0,14.0,220,7,,10.0,29.940945,,,TRUE,TRUE,,,,,,,SCT,3500,,,,,,,VFR,,,,,,,,,,,,METAR,315.0
KBAX 072155Z AUTO 30006KT 10SM SCT055 24/14 A2995 RMK AO2 T02420135,KBAX,2023-07-07T21:55:00Z,43.78,-82.98,24.2,13.5,300,6,,10.0,29.949802,,,TRUE,TRUE,,,,,,,SCT,5500,,,,,,,VFR,,,,,,,,,,,,METAR,229.0
KBAM 072155Z AUTO 33011G17KT 10SM CLR 33/02 A2987 RMK AO1,KBAM,2023-07-07T21:55:00Z,40.6,-116.87,33.0,2.0,330,11,17,10.0,29.870079,,,TRUE,TRUE,,,,,,,CLR,,,,,,,,VFR,,,,,,,,,,,,METAR,1381.0
KBAD 072155Z AUTO 23005KT M M CLR 34/21 A2988 RMK AO2 SLP120 T03380205 RVRNO $,KBAD,2023-07-07T21:55:00Z,32.5,-93.67,33.8,20.5,230,5,,,29.878937,1012.0,,TRUE,TRUE,TRUE,,,,,,CLR,,,,,,,,,,,,,,,,,,,,METAR,49.0
KBAC 072155Z AUTO 02014G21KT 9SM SCT044 SCT050 23/14 A2994 RMK AO2,KBAC,2023-07-07T21:55:00Z,46.93,-98.02,23.0,14.0,20,14,21,9.0,29.940945,,,TRUE,TRUE,,,,,,,SCT,4400,SCT,5000,,,,,VFR,,,,,,,,,,,,METAR,423.0
KBAB 072155Z AUTO 19011KT 10SM CLR 28/15 A2978 RMK AO2 SLP087 T02840146 $,KBAB,2023-07-07T21:55:00Z,39.13,-121.43,28.4,14.6,190,11,,10.0,29.778543,1008.7,,TRUE,TRUE,TRUE,,,,,,CLR,,,,,,,,VFR,,,,,,,,,,,,METAR,31.0
KAZE 072155Z AUTO 23004KT 10SM SCT060 34/21 A2983 RMK AO2 LTG DSNT N AND NE T03390213,KAZE,2023-07-07T21:55:00Z,31.88,-82.65,33.9,21.3,230,4,,10.0,29.828741,,,TRUE,TRUE,,,,,,,SCT,6000,,,,,,,VFR,,,,,,,,,,,,SPECI,78.0
KAZC 072155Z AUTO 23016G23KT 10SM CLR 36/M07 A2996 RMK AO2,KAZC,2023-07-07T21:55:00Z,36.97,-113.02,36.0,-7.0,230,16,23,10.0,29.958662,,,TRUE,TRUE,,,,,,,CLR,,,,,,,,VFR,,,,,,,,,,,,METAR,1476.0
KAYS 072155Z AUTO 29008KT 10SM SCT060 36/21 A2982 RMK AO2 T03590212,KAYS,2023-07-07T21:55:00Z,31.25,-82.4,35.9,21.2,290,8,,10.0,29.819881,,,TRUE,TRUE,,,,,,,SCT,6000,,,,,,,VFR,,,,,,,,,,,,METAR,42.0
KAXX 072155Z AUTO 27019G29KT 10SM CLR 26/03 A3023 RMK AO2 T02570027,KAXX,2023-07-07T21:55:00Z,36.42,-105.28,25.7,2.7,270,19,29,10.0,30.230314,,,TRUE,TRUE,,,,,,,CLR,,,,,,,,VFR,,,,,,,,,,,,METAR,2543.0
KAXV 072155Z AUTO 01005KT 10SM CLR 28/15 A2993 RMK AO2,KAXV,2023-07-07T21:55:00Z,40.5,-84.3,28.0,15.0,10,5,,10.0,29.929134,,,TRUE,TRUE,,,,,,,CLR,,,,,,,,VFR,,,,,,,,,,,,METAR,278.0
KAXS 072155Z AUTO 17014G24KT CLR 35/20 A2982 RMK AO2 PWINO,KAXS,2023-07-07T21:55:00Z,34.7,-99.33,35.0,20.0,170,14,24,,29.819881,,,TRUE,TRUE,,,,,TRUE,,CLR,,,,,,,,,,,,,,,,,,,,METAR,433.0
KAXH 072155Z AUTO 18005KT 10SM CLR 33/22 A2993 RMK AO2 T03270223,KAXH,2023-07-07T21:55:00Z,29.52,-95.48,32.7,22.3,180,5,,10.0,29.929134,,,TRUE,TRUE,,,,,,,CLR,,,,,,,,VFR,,,,,,,,,,,,METAR,18.0
KAXA 072155Z AUTO 16004KT 9SM CLR 16/15 A2999 RMK A01 P0001,KAXA,2023-07-07T21:55:00Z,43.07,-94.27,16.0,15.0,160,4,,9.0,29.991142,,,TRUE,TRUE,,,,,,,CLR,,,,,,,,VFR,,,,,,0.01,,,,,,METAR,371.0
KAWG 072155Z AUTO 26003KT 10SM SCT050 BKN065 19/19 A2996 RMK AO2,KAWG,2023-07-07T21:55:00Z,41.27,-91.67,19.0,19.0,260,3,,10.0,29.958662,,,TRUE,TRUE,,,,,,,SCT,5000,BKN,6500,,,,,VFR,,,,,,,,,,,,METAR,229.0
KAVQ 072155Z AUTO 22005KT 10SM 43/02 A2974 RMK AO2 T04280016,KAVQ,2023-07-07T21:55:00Z,32.4,-111.22,42.8,1.6,220,5,,10.0,29.740158,,,TRUE,TRUE,,,,,,,,,,,,,,,,,,,,,,,,,,,METAR,618.0
KAVC 072155Z AUTO 09003KT 10SM SCT032 BKN070 OVC110 25/24 A2989 RMK AO2 LTG DSNT NE AND S P0034 T02450242,KAVC,2023-07-07T21:55:00Z,36.68,-78.05,24.5,24.2,90,3,,10.0,29.890747,,,TRUE,TRUE,,,,,,,SCT,3200,BKN,7000,OVC,11000,,,VFR,,,,,,0.34,,,,,,METAR,119.0
KAUN 072155Z AUTO 21007KT 170V230 10SM CLR 27/11 A2986 RMK A01,KAUN,2023-07-07T21:55:00Z,38.95,-121.08,27.0,11.0,210,7,,10.0,29.861221,,,TRUE,TRUE,,,,,,,CLR,,,,,,,,VFR,,,,,,,,,,,,METAR,453.0
KAUH 072155Z AUTO 00000KT 10SM SCT022 SCT028 BKN036 24/18 A2990 RMK AO2 T02360182,KAUH,2023-07-07T21:55:00Z,40.88,-98.0,23.6,18.2,0,0,,10.0,29.899607,,,TRUE,TRUE,,,,,,,SCT,2200,SCT,2800,BKN,3600,,,VFR,,,,,,,,,,,,METAR,549.0
KATS 072155Z AUTO 16013G19KT 10SM BKN110 38/13 A2984 RMK AO2,KATS,2023-07-07T21:55:00Z,32.85,-104.47,38.0,13.0,160,13,19,10.0,29.840551,,,TRUE,TRUE,,,,,,,BKN,11000,,,,,,,VFR,,,,,,,,,,,,METAR,1073.0
KATA 072155Z AUTO 24005KT 10SM FEW046 32/23 A2988 RMK AO2 SLP016 T03150231 $,KATA,2023-07-07T21:55:00Z,33.1,-94.2,31.5,23.1,240,5,,10.0,29.878937,1001.6,,TRUE,TRUE,TRUE,,,,,,FEW,4600,,,,,,,VFR,,,,,,,,,,,,METAR,85.0
KASW 072155Z AUTO 22004KT 10SM 26/12 A2993 RMK AO2 T02670126,KASW,2023-07-07T21:55:00Z,41.27,-85.83,26.7,12.6,220,4,,10.0,29.929134,,,TRUE,TRUE,,,,,,,,,,,,,,,,,,,,,,,,,,,METAR,253.0
KAST 072155Z AUTO 26010KT 10SM OVC030 17/12 A2996 RMK AO2 SLP144 T01720117,KAST,2023-07-07T21:55:00Z,46.15,-123.88,17.2,11.7,260,10,,10.0,29.958662,1014.4,,TRUE,TRUE,,,,,,,OVC,3000,,,,,,,MVFR,,,,,,,,,,,,METAR,3.0
KASN 072155Z AUTO 22004KT 10SM -RA CLR 26/22 A2991 RMK AO2 LTG DSNT ALQDS T02640224,KASN,2023-07-07T21:55:00Z,33.57,-86.05,26.4,22.4,220,4,,10.0,29.911417,,,TRUE,TRUE,,,,,,-RA,CLR,,,,,,,,VFR,,,,,,,,,,,,METAR,159.0
KASL 072155Z AUTO 18009KT 10SM CLR 33/23 A2988 RMK AO2 T03320231 $,KASL,2023-07-07T21:55:00Z,32.52,-94.3,33.2,23.1,180,9,,10.0,29.878937,,,TRUE,TRUE,TRUE,,,,,,CLR,,,,,,,,VFR,,,,,,,,,,,,METAR,104.0
KARW 072155Z AUTO 18009KT 10SM SCT070 32/22 A2980 RMK AO2 LTG DSNT NE AND W,KARW,2023-07-07T21:55:00Z,32.42,-80.63,32.0,22.0,180,9,,10.0,29.799213,,,TRUE,TRUE,,,,,,,SCT,7000,,,,,,,VFR,,,,,,,,,,,,METAR,2.0
KARV 072155Z AUTO 27009KT 10SM SCT100 22/11 A2996 RMK AO2 T02200112,KARV,2023-07-07T21:55:00Z,45.92,-89.72,22.0,11.2,270,9,,10.0,29.958662,,,TRUE,TRUE,,,,,,,SCT,10000,,,,,,,VFR,,,,,,,,,,,,METAR,494.0
KARM 072155Z AUTO 15012G17KT 10SM SCT036 BKN055 BKN075 33/24 A2993 RMK AO2 T03320239 TSNO,KARM,2023-07-07T21:55:00Z,29.25,-96.15,33.2,23.9,150,12,17,10.0,29.929134,,,TRUE,TRUE,,,TRUE,,,,SCT,3600,BKN,5500,BKN,7500,,,VFR,,,,,,,,,,,,METAR,29.0
KAQX 072155Z AUTO 22004KT 10SM CLR 34/22 A2980 RMK AO2 LTG DSNT ALQDS,KAQX,2023-07-07T21:55:00Z,32.98,-81.27,34.0,22.0,220,4,,10.0,29.799213,,,TRUE,TRUE,,,,,,,CLR,,,,,,,,VFR,,,,,,,,,,,,METAR,48.0
KAQO 072155Z AUTO 20007G12KT 160V230 10SM SCT075 34/19 A2991 RMK AO2,KAQO,2023-07-07T21:55:00Z,30.78,-98.67,34.0,19.0,200,7,12,10.0,29.911417,,,TRUE,TRUE,,,,,,,SCT,7500,,,,,,,VFR,,,,,,,,,,,,SPECI,334.0
KAPY 072155Z AUTO 10014G22KT 10SM BKN070 BKN080 35/21 A2985 RMK AO2 T03530214 TSNO,KAPY,2023-07-07T21:55:00Z,26.97,-99.25,35.3,21.4,100,14,22,10.0,29.84941,,,TRUE,TRUE,,,TRUE,,,,BKN,7000,BKN,8000,,,,,VFR,,,,,,,,,,,,SPECI,129.0
KANW 072155Z AUTO 01012G15KT 10SM CLR 23/15 A2998 RMK AO2 T02270147,KANW,2023-07-07T21:55:00Z,42.57,-100.0,22.7,14.7,10,12,15,10.0,29.97933,,,TRUE,TRUE,,,,,,,CLR,,,,,,,,VFR,,,,,,,,,,,,SPECI,788.0
KANQ 072155Z AUTO 00000KT 10SM CLR 27/15 A2993 RMK AO2,KANQ,2023-07-07T21:55:00Z,41.63,-85.08,27.0,15.0,0,0,,10.0,29.929134,,,TRUE,TRUE,,,,,,,CLR,,,,,,,,VFR,,,,,,,,,,,,METAR,299.0
KANJ 072155Z AUTO VRB03KT 10SM CLR 24/09 A2991 RMK AO2 SLP126 T02440094,KANJ,2023-07-07T21:55:00Z,46.47,-84.37,24.4,9.4,0,3,,10.0,29.911417,1012.6,,TRUE,TRUE,,,,,,,CLR,,,,,,,,VFR,,,,,,,,,,,,METAR,220.0
KAMN 072155Z AUTO 29003KT 10SM SCT065 25/09 A2995 RMK AO2 T02520089,KAMN,2023-07-07T21:55:00Z,43.32,-84.68,25.2,8.9,290,3,,10.0,29.949802,,,TRUE,TRUE,,,,,,,SCT,6500,,,,,,,VFR,,,,,,,,,,,,METAR,228.0
KALX 072155Z AUTO 02006KT 10SM CLR 28/24 A2992 RMK AO2 LTG DSNT N S AND NW T02770244,KALX,2023-07-07T21:55:00Z,32.92,-85.97,27.7,24.4,20,6,,10.0,29.920275,,,TRUE,TRUE,,,,,,,CLR,,,,,,,,VFR,,,,,,,,,,,,SPECI,198.0
KALM 072155Z AUTO 21010G17KT 170V230 10SM CLR 39/04 A2988 RMK AO2,KALM,2023-07-07T21:55:00Z,32.83,-105.98,39.0,4.0,210,10,17,10.0,29.878937,,,TRUE,TRUE,,,,,,,CLR,,,,,,,,VFR,,,,,,,,,,,,METAR,1267.0
KAJZ 072155Z AUTO 22013G19KT 7SM CLR 37/M05 A2991 RMK AO2 T03721048 PWINO,KAJZ,2023-07-07T21:55:00Z,38.78,-108.07,37.2,-4.8,220,13,19,7.0,29.911417,,,TRUE,TRUE,,,,,TRUE,,CLR,,,,,,,,VFR,,,,,,,,,,,,METAR,1583.0
KAJR 072155Z AUTO 00000KT 10SM -RA SCT030 SCT050 BKN110 24/24 A2991 RMK AO2 LTG DSNT E T02440240,KAJR,2023-07-07T21:55:00Z,34.5,-83.55,24.4,24.0,0,0,,10.0,29.911417,,,TRUE,TRUE,,,,,,-RA,SCT,3000,SCT,5000,BKN,11000,,,VFR,,,,,,,,,,,,SPECI,441.0
KAJG 072155Z AUTO 23004KT 10SM CLR 30/17 A2994 RMK AO2 T02960174,KAJG,2023-07-07T21:55:00Z,38.62,-87.73,29.6,17.4,230,4,,10.0,29.940945,,,TRUE,TRUE,,,,,,,CLR,,,,,,,,VFR,,,,,,,,,,,,METAR,130.0
KAIO 072155Z AUTO 06010KT 10SM SCT020 OVC060 17/17 A2992 RMK AO2,KAIO,2023-07-07T21:55:00Z,41.4,-95.03,17.0,17.0,60,10,,10.0,29.920275,,,TRUE,TRUE,,,,,,,SCT,2000,OVC,6000,,,,,VFR,,,,,,,,,,,,SPECI,349.0
KAIK 072155Z AUTO 26007KT 10SM SCT050 SCT060 SCT095 32/22 A2984 RMK AO2 LTG DSNT NE THRU SW T03180223,KAIK,2023-07-07T21:55:00Z,33.65,-81.68,31.8,22.3,260,7,,10.0,29.840551,,,TRUE,TRUE,,,,,,,SCT,5000,SCT,6000,SCT,9500,,,VFR,,,,,,,,,,,,METAR,155.0
KAIG 072155Z AUTO 00000KT 10SM OVC055 22/10 A2997 RMK AO2 T02190101,KAIG,2023-07-07T21:55:00Z,45.15,-89.12,21.9,10.1,0,0,,10.0,29.970472,,,TRUE,TRUE,,,,,,,OVC,5500,,,,,,,VFR,,,,,,,,,,,,METAR,462.0
KAHQ 072155Z AUTO 09006KT 10SM OVC011 19/17 A2992 RMK AO2 T01930169,KAHQ,2023-07-07T21:55:00Z,41.23,-96.6,19.3,16.9,90,6,,10.0,29.920275,,,TRUE,TRUE,,,,,,,OVC,1100,,,,,,,MVFR,,,,,,,,,,,,METAR,372.0
KAGO 072155Z AUTO 22009KT 10SM CLR 33/24 A2988 RMK A01,KAGO,2023-07-07T21:55:00Z,33.23,-93.22,33.0,24.0,220,9,,10.0,29.878937,,,TRUE,TRUE,,,,,,,CLR,,,,,,,,VFR,,,,,,,,,,,,METAR,91.0
KAGI 072155Z AUTO 16004KT 10SM TS CLR 30/25 A2995 RMK AO2 LTG DSNT SW THRU N P0004 T02980247,KAGI,2023-07-07T21:55:00Z,27.55,-92.45,29.8,24.7,160,4,,10.0,29.949802,,,TRUE,TRUE,,,,,,TS,CLR,,,,,,,,VFR,,,,,,0.04,,,,,,SPECI,41.0
KAFO 072155Z AUTO 25004KT 7SM TS SCT075 BKN090 OVC110 21/07 A3007 RMK AO2 LTG DSNT W THRU NE,KAFO,2023-07-07T21:55:00Z,42.72,-110.95,21.0,7.0,250,4,,7.0,30.070866,,,TRUE,TRUE,,,,,,TS,SCT,7500,BKN,9000,OVC,11000,,,VFR,,,,,,,,,,,,SPECI,1881.0
KAFK 072155Z AUTO 19005KT 10SM OVC029 23/18 A2989 RMK AO2 LTG DSNT W T02260183,KAFK,2023-07-07T21:55:00Z,40.6,-95.85,22.6,18.3,190,5,,10.0,29.890747,,,TRUE,TRUE,,,,,,,OVC,2900,,,,,,,MVFR,,,,,,,,,,,,METAR,353.0
KAFF 072155Z 20006KT 10SM -TSRA BKN032 OVC045CB 17/15 A3014 RMK AO2A SHRAE01B32 TS 3S MOV E SLP132 P0000 T01730149,KAFF,2023-07-07T21:55:00Z,38.97,-104.82,17.3,14.9,200,6,,10.0,30.138779,1013.2,,,TRUE,,,,,,-TSRA,BKN,3200,OVC,4500,,,,,VFR,,,,,,0.005,,,,,,METAR,2003.0
KAEL 072155Z AUTO 19006KT 10SM -RA 17/13 A2998 RMK AO2,KAEL,2023-07-07T21:55:00Z,43.68,-93.37,17.0,13.0,190,6,,10.0,29.97933,,,TRUE,TRUE,,,,,,-RA,,,,,,,,,,,,,,,,,,,,,METAR,382.0
KAEJ 072155Z AUTO 25018G26KT 200V290 10SM CLR 28/M06 A3013 RMK AO2 T02751058,KAEJ,2023-07-07T21:55:00Z,38.82,-106.12,27.5,-5.8,250,18,26,10.0,30.129921,,,TRUE,TRUE,,,,,,,CLR,,,,,,,,VFR,,,,,,,,,,,,SPECI,2420.0
KADW 072155Z AUTO 15003KT 10SM CLR 29/21 A2980 RMK AO2 SLP096 T02850212 CHINO RWY19L $,KADW,2023-07-07T21:55:00Z,38.82,-76.87,28.5,21.2,150,3,,10.0,29.799213,1009.6,,TRUE,TRUE,TRUE,,,,,,CLR,,,,,,,,VFR,,,,,,,,,,,,METAR,87.0
KADU 072155Z AUTO 08006KT 10SM SCT011 BKN016 OVC065 16/14 A2995 RMK AO2 P0001 PWINO,KADU,2023-07-07T21:55:00Z,41.7,-94.92,16.0,14.0,80,6,,10.0,29.949802,,,TRUE,TRUE,,,,,TRUE,,SCT,1100,BKN,1600,OVC,6500,,,MVFR,,,,,,0.01,,,,,,METAR,391.0
KADH 072155Z AUTO 07006KT 10SM CLR 26/22 A2993 RMK AO2,KADH,2023-07-07T21:55:00Z,34.8,-96.67,26.0,22.0,70,6,,10.0,29.929134,,,TRUE,TRUE,,,,,,,CLR,,,,,,,,VFR,,,,,,,,,,,,SPECI,301.0
KACQ 072155Z AUTO 22011KT 10SM BKN100 18/11 A2998 RMK AO2,KACQ,2023-07-07T21:55:00Z,44.07,-93.55,18.0,11.0,220,11,,10.0,29.97933,,,TRUE,TRUE,,,,,,,BKN,10000,,,,,,,VFR,,,,,,,,,,,,METAR,339.0
KACP 072155Z AUTO 22008G20KT 170V260 10SM SCT050 SCT065 28/21 A2994 RMK AO2 TSNO,KACP,2023-07-07T21:55:00Z,30.75,-92.68,28.0,21.0,220,8,20,10.0,29.940945,,,TRUE,TRUE,,,TRUE,,,,SCT,5000,SCT,6500,,,,,VFR,,,,,,,,,,,,METAR,31.0
KACJ 072155Z AUTO 25010KT 10SM FEW044 33/23 A2986 RMK AO2 LTG DSNT N AND NE AND SW T03260225 $,KACJ,2023-07-07T21:55:00Z,32.12,-84.18,32.6,22.5,250,10,,10.0,29.861221,,,TRUE,TRUE,TRUE,,,,,,FEW,4400,,,,,,,VFR,,,,,,,,,,,,METAR,140.0
KACB 072155Z AUTO 28003KT 10SM CLR 22/08 A2996 RMK AO2 T02200076,KACB,2023-07-07T21:55:00Z,44.98,-85.2,22.0,7.6,280,3,,10.0,29.958662,,,TRUE,TRUE,,,,,,,CLR,,,,,,,,VFR,,,,,,,,,,,,METAR,189.0
KABH 072155Z AUTO 08012KT 9SM FEW100 SCT160 OVC190 18/14 A3010 RMK AO2 LTG DSNT W-NW RAE10RAB20E31 SLP132 P0000 T01750136,KABH,2023-07-07T21:55:00Z,38.75,-104.3,17.5,13.6,80,12,,9.0,30.100393,1013.2,,TRUE,TRUE,,,,,,,FEW,10000,SCT,16000,OVC,19000,,,VFR,,,,,,0.005,,,,,,METAR,1838.0
KAAT 072155Z AUTO 27010G14KT 10SM CLR 30/03 A2989 RMK AO2 SLP073 T03000033,KAAT,2023-07-07T21:55:00Z,41.48,-120.57,30.0,3.3,270,10,14,10.0,29.890747,1007.3,,TRUE,TRUE,,,,,,,CLR,,,,,,,,VFR,,,,,,,,,,,,METAR,1336.0
KAAS 072155Z AUTO 00000KT 10SM CLR 30/17 A2998 RMK AO1,KAAS,2023-07-07T21:55:00Z,37.35,-85.32,30.0,17.0,0,0,,10.0,29.97933,,,TRUE,TRUE,,,,,,,CLR,,,,,,,,VFR,,,,,,,,,,,,METAR,270.0
KAAA 072155Z AUTO 21004KT 10SM CLR 27/17 A2996 RMK AO2 T02730167,KAAA,2023-07-07T21:55:00Z,40.17,-89.33,27.3,16.7,210,4,,10.0,29.958662,,,TRUE,TRUE,,,,,,,CLR,,,,,,,,VFR,,,,,,,,,,,,SPECI,179.0
KA39 072155Z AUTO 27007KT 250V320 10SM CLR 42/04 A2972 RMK AO2,KA39,2023-07-07T21:55:00Z,32.98,-111.92,42.0,4.0,270,7,,10.0,29.719488,,,TRUE,TRUE,,,,,,,CLR,,,,,,,,VFR,,,,,,,,,,,,METAR,391.0
K9V9 072155Z AUTO 11003KT 10SM SCT018 21/18 A2997 RMK AO2 T02070176,K9V9,2023-07-07T21:55:00Z,43.77,-99.32,20.7,17.6,110,3,,10.0,29.970472,,,TRUE,TRUE,,,,,,,SCT,1800,,,,,,,VFR,,,,,,,,,,,,SPECI,511.0
K9S9 072155Z AUTO 01011KT 9SM CLR 35/06 A2978 RMK AO2 PWINO,K9S9,2023-07-07T21:55:00Z,45.45,-119.68,35.0,6.0,10,11,,9.0,29.778543,,,TRUE,TRUE,,,,,TRUE,,CLR,,,,,,,,VFR,,,,,,,,,,,,METAR,498.0
K9MN 072155Z AUTO 25004KT 10SM BKN060 22/06 A2996 RMK AO1 T02150062,K9MN,2023-07-07T21:55:00Z,44.02,-92.48,21.5,6.2,250,4,,10.0,29.958662,,,TRUE,TRUE,,,,,,,BKN,6000,,,,,,,VFR,,,,,,,,,,,,METAR,308.0
K9L2 072155Z AUTO 24010G16KT 9SM CLR 35/M02 A2976 RMK AO2 SLP052 T03521025,K9L2,2023-07-07T21:55:00Z,34.98,-117.87,35.2,-2.5,240,10,16,9.0,29.760826,1005.2,,TRUE,TRUE,,,,,,,CLR,,,,,,,,VFR,,,,,,,,,,,,METAR,697.0
K9D7 072155Z AUTO 01012G19KT 10SM FEW055 SCT080 21/10 A3001 RMK AO2 TSNO,K9D7,2023-07-07T21:55:00Z,48.48,-99.23,21.0,10.0,10,12,19,10.0,30.008858,,,TRUE,TRUE,,,TRUE,,,,FEW,5500,SCT,8000,,,,,VFR,,,,,,,,,,,,METAR,451.0
K9A5 072155Z AUTO 05003KT 7SM SCT046 31/20 A2989 RMK AO2 T03140195,K9A5,2023-07-07T21:55:00Z,34.68,-85.28,31.4,19.5,50,3,,7.0,29.890747,,,TRUE,TRUE,,,,,,,SCT,4600,,,,,,,VFR,,,,,,,,,,,,METAR,234.0
K96D 072155Z AUTO 34016KT 10SM CLR 21/07 A2998 RMK AO2,K96D,2023-07-07T21:55:00Z,48.93,-97.9,21.0,7.0,340,16,,10.0,29.97933,,,TRUE,TRUE,,,,,,,CLR,,,,,,,,VFR,,,,,,,,,,,,METAR,290.0
K8W2 072155Z AUTO 02003KT 10SM CLR 30/22 A2983 RMK AO1 T03000217,K8W2,2023-07-07T21:55:00Z,38.65,-78.7,30.0,21.7,20,3,,10.0,29.828741,,,TRUE,TRUE,,,,,,,CLR,,,,,,,,VFR,,,,,,,,,,,,METAR,295.0
K8T6 072155Z AUTO 15012G18KT 9SM CLR 34/23 A2988 RMK AO2,K8T6,2023-07-07T21:55:00Z,28.37,-98.12,34.0,23.0,150,12,18,9.0,29.878937,,,TRUE,TRUE,,,,,,,CLR,,,,,,,,VFR,,,,,,,,,,,,METAR,39.0
K8B0 072155Z AUTO 00000KT 5SM -RA FEW070 SCT110 20/20 A2994 RMK AO2 LTG DSNT E AND S P0005,K8B0,2023-07-07T21:55:00Z,44.98,-70.65,20.0,20.0,0,0,,5.0,29.940945,,,TRUE,TRUE,,,,,,-RA,FEW,7000,SCT,11000,,,,,MVFR,,,,,,0.05,,,,,,METAR,552.0
K8A0 072155Z AUTO 10SM CLR 29/21 A2993 RMK AO2,K8A0,2023-07-07T21:55:00Z,34.23,-86.25,29.0,21.0,,,,10.0,29.929134,,,TRUE,TRUE,,,,,,,CLR,,,,,,,,VFR,,,,,,,,,,,,SPECI,313.0
K82V 072155Z AUTO 01008KT 10SM 20/07 A3014 RMK AO2,K82V,2023-07-07T21:55:00Z,41.15,-104.13,20.0,7.0,10,8,,10.0,30.138779,,,TRUE,TRUE,,,,,,,,,,,,,,,,,,,,,,,,,,,METAR,1563.0
K82C 072155Z AUTO 00000KT 10SM CLR 23/10 A2994 RMK AO2 T02280100,K82C,2023-07-07T21:55:00Z,43.83,-90.13,22.8,10.0,0,0,,10.0,29.940945,,,TRUE,TRUE,,,,,,,CLR,,,,,,,,VFR,,,,,,,,,,,,METAR,273.0
K81R 072155Z AUTO 15009G15KT 10SM SCT060 34/19 A2992 RMK AO2 T03440193,K81R,2023-07-07T21:55:00Z,31.23,-98.72,34.4,19.3,150,9,15,10.0,29.920275,,,TRUE,TRUE,,,,,,,SCT,6000,,,,,,,VFR,,,,,,,,,,,,METAR,381.0
K7W4 072155Z AUTO 09004KT 10SM CLR 29/23 A2982 RMK AO1 T02850231,K7W4,2023-07-07T21:55:00Z,37.97,-77.75,28.5,23.1,90,4,,10.0,29.819881,,,TRUE,TRUE,,,,,,,CLR,,,,,,,,VFR,,,,,,,,,,,,METAR,115.0
K7L2 072155Z AUTO 02011G19KT 10SM CLR 23/15 A2998 RMK AO2,K7L2,2023-07-07T21:55:00Z,46.22,-100.25,23.0,15.0,20,11,19,10.0,29.97933,,,TRUE,TRUE,,,,,,,CLR,,,,,,,,VFR,,,,,,,,,,,,METAR,541.0
K7BM 072155Z AUTO 25008G20KT 190V010 10SM SCT110 25/M06 A3030 RMK AO2,K7BM,2023-07-07T21:55:00Z,38.78,-106.22,25.0,-6.0,250,8,20,10.0,30.301182,,,TRUE,TRUE,,,,,,,SCT,11000,,,,,,,VFR,,,,,,,,,,,,SPECI,2996.0
K77S 072155Z AUTO 00000KT 10SM CLR 23/11 A2990 RMK A01,K77S,2023-07-07T21:55:00Z,43.93,-123.0,23.0,11.0,0,0,,10.0,29.899607,,,TRUE,TRUE,,,,,,,CLR,,,,,,,,VFR,,,,,,,,,,,,METAR,161.0
K74V 072155Z AUTO 11008KT 070V140 10SM CLR 32/01 A2993 RMK AO2,K74V,2023-07-07T21:55:00Z,40.28,-110.05,32.0,1.0,110,8,,10.0,29.929134,,,TRUE,TRUE,,,,,,,CLR,,,,,,,,VFR,,,,,,,,,,,,METAR,1567.0
K6S8 072155Z AUTO 12011KT 10SM 25/07 A3006 RMK A01 LAUREL,K6S8,2023-07-07T21:55:00Z,45.7,-108.77,25.0,7.0,120,11,,10.0,30.059055,,,TRUE,TRUE,,,,,,,,,,,,,,,,,,,,,,,,,,,SPECI,1072.0
K6S2 072155Z AUTO 27007KT 10SM FEW029 16/13 A2998 RMK AO2,K6S2,2023-07-07T21:55:00Z,43.98,-124.12,16.0,13.0,270,7,,10.0,29.97933,,,TRUE,TRUE,,,,,,,FEW,2900,,,,,,,VFR,,,,,,,,,,,,METAR,16.0
K6S0 072155Z AUTO 13013KT 10SM CLR 24/06 A3008 RMK A01,K6S0,2023-07-07T21:55:00Z,45.8,-109.97,24.0,6.0,130,13,,10.0,30.079725,,,TRUE,TRUE,,,,,,,CLR,,,,,,,,VFR,,,,,,,,,,,,METAR,1364.0
K6R3 072155Z AUTO 18010KT 10SM SCT039 SCT050 BKN085 35/24 A2993 RMK AO2 T03450240,K6R3,2023-07-07T21:55:00Z,30.35,-95.0,34.5,24.0,180,10,,10.0,29.929134,,,TRUE,TRUE,,,,,,,SCT,3900,SCT,5000,BKN,8500,,,VFR,,,,,,,,,,,,SPECI,44.0
K6P9 072155Z AUTO 18012G18KT 10SM CLR 34/18 A2989 RMK AO2 T03350181,K6P9,2023-07-07T21:55:00Z,32.43,-98.6,33.5,18.1,180,12,18,10.0,29.890747,,,TRUE,TRUE,,,,,,,CLR,,,,,,,,VFR,,,,,,,,,,,,SPECI,451.0
K6L4 072155Z AUTO 00000KT 10SM CLR 27/22 A2995 RMK AO2,K6L4,2023-07-07T21:55:00Z,37.85,-81.92,27.0,22.0,0,0,,10.0,29.949802,,,TRUE,TRUE,,,,,,,CLR,,,,,,,,VFR,,,,,,,,,,,,METAR,504.0
K6I2 072155Z AUTO 00000KT 10SM CLR 32/18 A2994 RMK AO2,K6I2,2023-07-07T21:55:00Z,37.63,-85.25,32.0,18.0,0,0,,10.0,29.940945,,,TRUE,TRUE,,,,,,,CLR,,,,,,,,VFR,,,,,,,,,,,,METAR,258.0
K6B9 072155Z AUTO 01005KT 10SM SCT016 SCT026 BKN037 25/23 A2990 RMK AO2,K6B9,2023-07-07T21:55:00Z,42.92,-76.43,25.0,23.0,10,5,,10.0,29.899607,,,TRUE,TRUE,,,,,,,SCT,1600,SCT,2600,BKN,3700,,,VFR,,,,,,,,,,,,METAR,306.0
K6B0 072155Z AUTO 19003KT 5SM -RA OVC003 21/21 A2989 RMK AO2 LTG DSNT SE AND NW T02100210 P0004,K6B0,2023-07-07T21:55:00Z,43.98,-73.1,21.0,21.0,190,3,,5.0,29.890747,,,TRUE,TRUE,,,,,,-RA,OVC,300,,,,,,,LIFR,,,,,,0.04,,,,,,METAR,149.0
K6A2 072155Z AUTO 00000KT 10SM SCT042 SCT050 BKN080 24/23 A2992 RMK AO2 LTG DSNT NE AND E,K6A2,2023-07-07T21:55:00Z,33.23,-84.27,24.0,23.0,0,0,,10.0,29.920275,,,TRUE,TRUE,,,,,,,SCT,4200,SCT,5000,BKN,8000,,,VFR,,,,,,,,,,,,METAR,290.0
K6A1 072155Z AUTO 35004KT 10SM TS BKN032 BKN048 OVC070 25/23 A2991 RMK AO2 LTG DSNT ALQS T02500231,K6A1,2023-07-07T21:55:00Z,32.57,-84.25,25.0,23.1,350,4,,10.0,29.911417,,,TRUE,TRUE,,,,,,TS,BKN,3200,BKN,4800,OVC,7000,,,VFR,,,,,,,,,,,,SPECI,198.0
K66R 072155Z AUTO 17003KT 10SM OVC090 31/23 A2992 RMK AO2 T03100230,K66R,2023-07-07T21:55:00Z,29.65,-96.52,31.0,23.0,170,3,,10.0,29.920275,,,TRUE,TRUE,,,,,,,OVC,9000,,,,,,,VFR,,,,,,,,,,,,METAR,70.0
K65S 072155Z AUTO 04011G17KT 10SM SCT100 31/07 A2987 RMK AO2,K65S,2023-07-07T21:55:00Z,48.73,-116.3,31.0,7.0,40,11,17,10.0,29.870079,,,TRUE,TRUE,,,,,,,SCT,10000,,,,,,,VFR,,,,,,,,,,,,METAR,708.0
K63S 072155Z AUTO 00000KT 10SM CLR 32/05 A2983 RMK A01,K63S,2023-07-07T21:55:00Z,48.53,-117.88,32.0,5.0,0,0,,10.0,29.828741,,,TRUE,TRUE,,,,,,,CLR,,,,,,,,VFR,,,,,,,,,,,,METAR,571.0
K60R 072155Z AUTO 20008KT 10SM FEW047 SCT070 SCT110 34/24 A2991 RMK AO2 SLP045 T03370235 $,K60R,2023-07-07T21:55:00Z,,,33.7,23.5,200,8,,10.0,29.911417,1004.5,,TRUE,TRUE,TRUE,,,,,,FEW,4700,SCT,7000,SCT,11000,,,VFR,,,,,,,,,,,,METAR,
K5T9 072155Z AUTO 12009KT 10SM FEW037 FEW050 33/24 A2985 RMK A01,K5T9,2023-07-07T21:55:00Z,28.85,-100.52,33.0,24.0,120,9,,10.0,29.84941,,,TRUE,TRUE,,,,,,,FEW,3700,FEW,5000,,,,,VFR,,,,,,,,,,,,METAR,269.0
K5SM 072155Z AUTO 24008G17KT 120V290 10SM SCT090 BKN120 19/M02 A3041 RMK AO2,K5SM,2023-07-07T21:55:00Z,39.43,-107.38,19.0,-2.0,240,8,17,10.0,30.410433,,,TRUE,TRUE,,,,,,,SCT,9000,BKN,12000,,,,,VFR,,,,,,,,,,,,SPECI,3229.0
K5R8 072155Z AUTO 00000KT 10SM CLR 32/24 A2994 RMK AO2 T03160238,K5R8,2023-07-07T21:55:00Z,30.43,-93.47,31.6,23.8,0,0,,10.0,29.940945,,,TRUE,TRUE,,,,,,,CLR,,,,,,,,VFR,,,,,,,,,,,,SPECI,26.0
K5H4 072155Z AUTO 36012G18KT 10SM CLR 23/22 A3001 RMK AO2,K5H4,2023-07-07T21:55:00Z,47.78,-99.93,23.0,22.0,360,12,18,10.0,30.008858,,,TRUE,TRUE,,,,,,,CLR,,,,,,,,VFR,,,,,,,,,,,,METAR,490.0
K5C1 072155Z AUTO 14007KT 10SM SCT035 SCT050 BKN085 30/21 A2994 RMK AO1,K5C1,2023-07-07T21:55:00Z,29.72,-98.7,30.0,21.0,140,7,,10.0,29.940945,,,TRUE,TRUE,,,,,,,SCT,3500,SCT,5000,BKN,8500,,,VFR,,,,,,,,,,,,SPECI,422.0
K5A6 072155Z AUTO 32005KT 10SM 30/23 A2992 RMK AO2 T02960233,K5A6,2023-07-07T21:55:00Z,33.47,-89.73,29.6,23.3,320,5,,10.0,29.920275,,,TRUE,TRUE,,,,,,,,,,,,,,,,,,,,,,,,,,,METAR,109.0
K57C 072155Z AUTO 12007KT 10SM OVC050 24/14 A2993 RMK AO2 T02400135,K57C,2023-07-07T21:55:00Z,42.8,-88.37,24.0,13.5,120,7,,10.0,29.929134,,,TRUE,TRUE,,,,,,,OVC,5000,,,,,,,VFR,,,,,,,,,,,,METAR,454.0
K54J 072155Z AUTO 22005KT 10SM SCT046 SCT090 28/23 A2992 RMK AO2 LTG DSNT SW AND W T02770234,K54J,2023-07-07T21:55:00Z,30.73,-86.15,27.7,23.4,220,5,,10.0,29.920275,,,TRUE,TRUE,,,,,,,SCT,4600,SCT,9000,,,,,VFR,,,,,,,,,,,,METAR,87.0
K54A 072155Z AUTO 30007G13KT 260V320 10SM FEW026 FEW031 32/26 A2992 RMK AO2 LTG DSNT NE-SE,K54A,2023-07-07T21:55:00Z,26.85,-82.25,32.0,26.0,300,7,13,10.0,29.920275,,,TRUE,TRUE,,,,,,,FEW,2600,FEW,3100,,,,,VFR,,,,,,,,,,,,METAR,2.0
K4V1 072155Z AUTO 10013G20KT 10SM SCT047 BKN055 OVC090 26/14 A3008 RMK AO2 T02600141,K4V1,2023-07-07T21:55:00Z,37.7,-104.78,26.0,14.1,100,13,20,10.0,30.079725,,,TRUE,TRUE,,,,,,,SCT,4700,BKN,5500,OVC,9000,,,VFR,,,,,,,,,,,,METAR,1847.0
K4V0 072155Z AUTO 33004KT 10SM CLR 32/01 A2993 RMK AO2 T03190006,K4V0,2023-07-07T21:55:00Z,40.1,-108.77,31.9,0.6,330,4,,10.0,29.929134,,,TRUE,TRUE,,,,,,,CLR,,,,,,,,VFR,,,,,,,,,,,,METAR,1602.0
K4U6 072155Z AUTO 01003G15KT 10SM 25/06 A3004 RMK A01 Circle ,K4U6,2023-07-07T21:55:00Z,47.42,-105.57,25.0,6.0,10,3,15,10.0,30.041338,,,TRUE,TRUE,,,,,,,,,,,,,,,,,,,,,,,,,,,METAR,739.0
K4S1 072155Z AUTO 32008KT 7SM OVC025 16/11 A2998 RMK AO2,K4S1,2023-07-07T21:55:00Z,42.42,-124.42,16.0,11.0,320,8,,7.0,29.97933,,,TRUE,TRUE,,,,,,,OVC,2500,,,,,,,MVFR,,,,,,,,,,,,METAR,7.0
K4R5 072155Z AUTO 18004KT 10SM BKN060 BKN075 OVC110 23/14 A2989 RMK AO2 T02300135,K4R5,2023-07-07T21:55:00Z,46.78,-90.77,23.0,13.5,180,4,,10.0,29.890747,,,TRUE,TRUE,,,,,,,BKN,6000,BKN,7500,OVC,11000,,,VFR,,,,,,,,,,,,METAR,195.0
K4O4 072155Z AUTO 20009G16KT M1/4SM -RA HZ VV000 31/24 A2990 RMK AO2 LTG DSNT N,K4O4,2023-07-07T21:55:00Z,33.92,-94.87,31.0,24.0,200,9,16,0.25,29.899607,,,TRUE,TRUE,,,,,,-RA HZ,OVX,0,,,,,,,LIFR,,,,,,,,,,,0,METAR,148.0
K4MR 072155Z AUTO 09008KT 10SM FEW070 FEW120 30/13 A2989 RMK AO2 RAB33E45 PRESFR SLP031 P0000 T02990128 $,K4MR,2023-07-07T21:55:00Z,34.3,-103.8,29.9,12.8,90,8,,10.0,29.890747,1003.1,,TRUE,TRUE,TRUE,,,,,,FEW,7000,FEW,12000,,,,,VFR,,,,,,0.005,,,,,,METAR,1339.0
K4M9 072155Z AUTO 12006KT 10SM CLR 29/25 A2990 RMK AO2 PWINO,K4M9,2023-07-07T21:55:00Z,36.4,-90.65,29.0,25.0,120,6,,10.0,29.899607,,,TRUE,TRUE,,,,,TRUE,,CLR,,,,,,,,VFR,,,,,,,,,,,,METAR,86.0
K4I3 072155Z AUTO 35006KT 10SM CLR 27/17 A2995 RMK AO2,K4I3,2023-07-07T21:55:00Z,40.33,-82.53,27.0,17.0,350,6,,10.0,29.949802,,,TRUE,TRUE,,,,,,,CLR,,,,,,,,VFR,,,,,,,,,,,,METAR,361.0
K4F2 072155Z AUTO 22003KT 10SM SCT075 34/22 A2989 RMK AO2 T03450222,K4F2,2023-07-07T21:55:00Z,32.18,-94.3,34.5,22.2,220,3,,10.0,29.890747,,,TRUE,TRUE,,,,,,,SCT,7500,,,,,,,VFR,,,,,,,,,,,,METAR,76.0
K4BM 072155Z AUTO 06009G17KT 10SM BKN004 BKN008 BKN110 13/08 A3046 RMK AO2 LTG DSNT N,K4BM,2023-07-07T21:55:00Z,39.05,-105.52,13.0,8.0,60,9,17,10.0,30.46063,,,TRUE,TRUE,,,,,,,BKN,400,BKN,800,BKN,11000,,,LIFR,,,,,,,,,,,,SPECI,3432.0
K4A9 072155Z AUTO 35004KT 10SM SCT039 SCT120 28/19 A2990 RMK AO2 LTG DSNT S T02770186,K4A9,2023-07-07T21:55:00Z,34.47,-85.72,27.7,18.6,350,4,,10.0,29.899607,,,TRUE,TRUE,,,,,,,SCT,3900,SCT,12000,,,,,VFR,,,,,,,,,,,,METAR,273.0
K49A 072155Z AUTO 35007KT 10SM FEW070 SCT100 31/20 A2991 RMK AO2,K49A,2023-07-07T21:55:00Z,34.63,-84.53,31.0,20.0,350,7,,10.0,29.911417,,,TRUE,TRUE,,,,,,,FEW,7000,SCT,10000,,,,,VFR,,,,,,,,,,,,METAR,449.0
K48A 072155Z AUTO 33009KT 10SM VCTS CLR 32/24 A2986 RMK AO2 LTG DSNT NE AND E T03160235,K48A,2023-07-07T21:55:00Z,32.4,-83.27,31.6,23.5,330,9,,10.0,29.861221,,,TRUE,TRUE,,,,,,VCTS,CLR,,,,,,,,VFR,,,,,,,,,,,,METAR,115.0
K46U 072155Z AUTO 00000KT 9SM CLR 25/06 A3000 RMK A01,K46U,2023-07-07T21:55:00Z,43.18,-111.05,25.0,6.0,0,0,,9.0,30.0,,,TRUE,TRUE,,,,,,,CLR,,,,,,,,VFR,,,,,,,,,,,,METAR,1718.0
K46D 072155Z AUTO 02014G19KT 10SM SCT055 SCT120 23/09 A3000 RMK AO2,K46D,2023-07-07T21:55:00Z,47.45,-99.15,23.0,9.0,20,14,19,10.0,30.0,,,TRUE,TRUE,,,,,,,SCT,5500,SCT,12000,,,,,VFR,,,,,,,,,,,,METAR,488.0
K42J 072155Z AUTO 23008KT 10SM FEW100 FEW120 30/22 A2988 RMK A01,K42J,2023-07-07T21:55:00Z,29.85,-82.05,30.0,22.0,230,8,,10.0,29.878937,,,TRUE,TRUE,,,,,,,FEW,10000,FEW,12000,,,,,VFR,,,,,,,,,,,,METAR,57.0
K41U 072155Z AUTO 25008KT 10SM CLR 32/M02 A2993 RMK AO1 T03221019,K41U,2023-07-07T21:55:00Z,39.33,-111.6,32.2,-1.9,250,8,,10.0,29.929134,,,TRUE,TRUE,,,,,,,CLR,,,,,,,,VFR,,,,,,,,,,,,METAR,1676.0
K40U 072155Z AUTO 18010KT 10SM OVC110 20/08 A3008 RMK AO2 T02000082,K40U,2023-07-07T21:55:00Z,40.98,-109.68,20.0,8.2,180,10,,10.0,30.079725,,,TRUE,TRUE,,,,,,,OVC,11000,,,,,,,VFR,,,,,,,,,,,,METAR,1882.0
K3T5 072155Z AUTO 15009KT 10SM BKN100 32/23 A2990 RMK AO2 T03180232 $,K3T5,2023-07-07T21:55:00Z,29.9,-96.95,31.8,23.2,150,9,,10.0,29.899607,,,TRUE,TRUE,TRUE,,,,,,BKN,10000,,,,,,,VFR,,,,,,,,,,,,METAR,96.0
K3S8 072155Z AUTO 35005KT 9SM CLR 32/06 A2984 RMK AO2,K3S8,2023-07-07T21:55:00Z,42.5,-123.4,32.0,6.0,350,5,,9.0,29.840551,,,TRUE,TRUE,,,,,,,CLR,,,,,,,,VFR,,,,,,,,,,,,METAR,339.0
K3R7 072155Z AUTO 10SM SCT030 SCT041 OVC110 27/21 A2996 RMK AO2 T02720211,K3R7,2023-07-07T21:55:00Z,30.25,-92.67,27.2,21.1,,,,10.0,29.958662,,,TRUE,TRUE,,,,,,,SCT,3000,SCT,4100,OVC,11000,,,VFR,,,,,,,,,,,,METAR,5.0
K3N8 072155Z AUTO 00000KT 10SM CLR 21/15 A2990 RMK AO2 LTG DSNT NE T02120150,K3N8,2023-07-07T21:55:00Z,47.25,-95.92,21.2,15.0,0,0,,10.0,29.899607,,,TRUE,TRUE,,,,,,,CLR,,,,,,,,VFR,,,,,,,,,,,,METAR,379.0
K3LF 072155Z AUTO 20003KT 10SM CLR 26/17 A2996 RMK AO2 T02620166,K3LF,2023-07-07T21:55:00Z,39.17,-89.67,26.2,16.6,200,3,,10.0,29.958662,,,TRUE,TRUE,,,,,,,CLR,,,,,,,,VFR,,,,,,,,,,,,METAR,207.0
K3K3 072155Z AUTO 08008KT 10SM BKN027 BKN035 OVC055 26/20 A2995 RMK AO2,K3K3,2023-07-07T21:55:00Z,38.0,-101.75,26.0,20.0,80,8,,10.0,29.949802,,,TRUE,TRUE,,,,,,,BKN,2700,BKN,3500,OVC,5500,,,MVFR,,,,,,,,,,,,SPECI,1010.0
K3F3 072155Z AUTO 16004KT 10SM SCT065 35/22 A2994 RMK AO2 T03450216,K3F3,2023-07-07T21:55:00Z,32.07,-93.77,34.5,21.6,160,4,,10.0,29.940945,,,TRUE,TRUE,,,,,,,SCT,6500,,,,,,,VFR,,,,,,,,,,,,SPECI,96.0
K3D2 072155Z AUTO 16006KT 10SM CLR 21/13 A2996 RMK AO2 T02060125,K3D2,2023-07-07T21:55:00Z,45.13,-87.18,20.6,12.5,160,6,,10.0,29.958662,,,TRUE,TRUE,,,,,,,CLR,,,,,,,,VFR,,,,,,,,,,,,METAR,233.0
K3AU 072155Z AUTO 25005KT 10SM SCT026 SCT065 SCT070 21/19 A2994 RMK AO2,K3AU,2023-07-07T21:55:00Z,37.67,-97.08,21.0,19.0,250,5,,10.0,29.940945,,,TRUE,TRUE,,,,,,,SCT,2600,SCT,6500,SCT,7000,,,VFR,,,,,,,,,,,,METAR,403.0
K35A 072155Z AUTO 13006KT 10SM SCT050 SCT065 SCT120 27/22 A2988 RMK A02 LTG DSNT N SE AND S T02740216,K35A,2023-07-07T21:55:00Z,34.68,-81.63,27.4,21.6,130,6,,10.0,29.878937,,,TRUE,TRUE,,,,,,,SCT,5000,SCT,6500,SCT,12000,,,VFR,,,,,,,,,,,,METAR,186.0
K33V 072155Z AUTO 04010G19KT 350V050 10SM CLR 20/05 A3023 RMK AO1,K33V,2023-07-07T21:55:00Z,40.75,-106.28,20.0,5.0,40,10,19,10.0,30.230314,,,TRUE,TRUE,,,,,,,CLR,,,,,,,,VFR,,,,,,,,,,,,METAR,2486.0
K33N 072155Z AUTO 10SM RMK A01 PNO,K33N,2023-07-07T21:55:00Z,39.22,-75.6,,,,,,10.0,,,,TRUE,TRUE,,,,,,,,,,,,,,,,,,,,,,,,,,,METAR,17.0
K2V5 072155Z AUTO 02009G14KT 10SM SCT055 27/12 A3002 RMK AO2,K2V5,2023-07-07T21:55:00Z,40.1,-102.25,27.0,12.0,20,9,14,10.0,30.02067,,,TRUE,TRUE,,,,,,,SCT,5500,,,,,,,VFR,,,,,,,,,,,,METAR,1117.0
K2R9 072155Z AUTO 13015G18KT 10SM SCT046 BKN050 BKN100 A2991 RMK AO2,K2R9,2023-07-07T21:55:00Z,28.82,-97.87,,,130,15,18,10.0,29.911417,,,TRUE,TRUE,,,,,,,SCT,4600,BKN,5000,BKN,10000,,,VFR,,,,,,,,,,,,METAR,88.0
K2P2 072155Z AUTO 19008KT 10SM CLR 19/13 A2996 RMK AO2 T01930127,K2P2,2023-07-07T21:55:00Z,45.38,-86.92,19.3,12.7,190,8,,10.0,29.958662,,,TRUE,TRUE,,,,,,,CLR,,,,,,,,VFR,,,,,,,,,,,,METAR,182.0
K2M2 072155Z AUTO 00000KT 10SM SCT110 28/21 A2995 RMK A01,K2M2,2023-07-07T21:55:00Z,35.23,-87.25,28.0,21.0,0,0,,10.0,29.949802,,,TRUE,TRUE,,,,,,,SCT,11000,,,,,,,VFR,,,,,,,,,,,,METAR,286.0
K2J9 072155Z AUTO 24007KT 220V300 10SM CLR 28/24 A2989 RMK AO2,K2J9,2023-07-07T21:55:00Z,30.6,-84.55,28.0,24.0,240,7,,10.0,29.890747,,,TRUE,TRUE,,,,,,,CLR,,,,,,,,VFR,,,,,,,,,,,,METAR,62.0
K2J5 072155Z AUTO 28007KT 250V310 10SM SCT050 SCT070 SCT095 30/21 A2984 RMK AO2 LTG DSNT SE THRU W T02990214,K2J5,2023-07-07T21:55:00Z,32.9,-81.97,29.9,21.4,280,7,,10.0,29.840551,,,TRUE,TRUE,,,,,,,SCT,5000,SCT,7000,SCT,9500,,,VFR,,,,,,,,,,,,METAR,72.0
K2IS 072155Z AUTO 16008KT 10SM VCTS CLR 29/25 A2994 RMK AO2 LTG DSNT ALQDS T02940250,K2IS,2023-07-07T21:55:00Z,26.73,-81.05,29.4,25.0,160,8,,10.0,29.940945,,,TRUE,TRUE,,,,,,VCTS,CLR,,,,,,,,VFR,,,,,,,,,,,,METAR,5.0
K2I0 072155Z AUTO 32003KT 10SM CLR 32/19 A2993 RMK AO2 T03150194,K2I0,2023-07-07T21:55:00Z,37.35,-87.4,31.5,19.4,320,3,,10.0,29.929134,,,TRUE,TRUE,,,,,,,CLR,,,,,,,,VFR,,,,,,,,,,,,METAR,127.0
K2G9 072155Z AUTO 32009KT 10SM SCT026 23/18 A2995 RMK AO2,K2G9,2023-07-07T21:55:00Z,40.03,-79.02,23.0,18.0,320,9,,10.0,29.949802,,,TRUE,TRUE,,,,,,,SCT,2600,,,,,,,VFR,,,,,,,,,,,,METAR,677.0
K2G2 072155Z AUTO 36009KT 10SM FEW041 FEW070 27/19 A2992 RMK A01,K2G2,2023-07-07T21:55:00Z,40.37,-80.7,27.0,19.0,360,9,,10.0,29.920275,,,TRUE,TRUE,,,,,,,FEW,4100,FEW,7000,,,,,VFR,,,,,,,,,,,,METAR,365.0
K2DP 072155Z AUTO 20005KT 10SM M M M RMK AO2 SLPNO $,K2DP,2023-07-07T21:55:00Z,35.68,-75.9,,,200,5,,10.0,,,,TRUE,TRUE,TRUE,,,,,,,,,,,,,,,,,,,,,,,,,,METAR,1.0
K2D5 072155Z AUTO 30009KT 9SM CLR 21/18 A2992 RMK AO2,K2D5,2023-07-07T21:55:00Z,46.17,-98.08,21.0,18.0,300,9,,9.0,29.920275,,,TRUE,TRUE,,,,,,,CLR,,,,,,,,VFR,,,,,,,,,,,,METAR,407.0
K2C8 072155Z AUTO 34013KT 10SM CLR 21/11 A2997 RMK AO2,K2C8,2023-07-07T21:55:00Z,48.78,-97.63,21.0,11.0,340,13,,10.0,29.970472,,,TRUE,TRUE,,,,,,,CLR,,,,,,,,VFR,,,,,,,,,,,,METAR,271.0
K2A0 072155Z AUTO VRB04KT 10SM CLR 32/21 A2988 RMK A01,K2A0,2023-07-07T21:55:00Z,35.48,-84.93,32.0,21.0,0,4,,10.0,29.878937,,,TRUE,TRUE,,,,,,,CLR,,,,,,,,VFR,,,,,,,,,,,,METAR,219.0
K28J 072155Z AUTO 06009G16KT 9SM TS FEW015 SCT031 BKN043 24/21 A2992 RMK AO2 LTG DSNT ALQDS,K28J,2023-07-07T21:55:00Z,29.65,-81.68,24.0,21.0,60,9,16,9.0,29.920275,,,TRUE,TRUE,,,,,,TS,FEW,1500,SCT,3100,BKN,4300,,,VFR,,,,,,,,,,,,METAR,9.0
K24J 072155Z AUTO 22010KT 10SM VCTS CLR 24/23 A2989 RMK A01 LTG DSNT ALQDS P0003,K24J,2023-07-07T21:55:00Z,30.3,-83.03,24.0,23.0,220,10,,10.0,29.890747,,,TRUE,TRUE,,,,,,VCTS,CLR,,,,,,,,VFR,,,,,,0.03,,,,,,METAR,30.0
K22N 072155Z AUTO 00000KT 10SM CLR 26/21 A2986 RMK AO2 LTG DSNT N,K22N,2023-07-07T21:55:00Z,40.8,-75.77,26.0,21.0,0,0,,10.0,29.861221,,,TRUE,TRUE,,,,,,,CLR,,,,,,,,VFR,,,,,,,,,,,,METAR,159.0
K21D 072155Z AUTO 24004KT 10SM CLR 22/10 A2997 RMK AO2,K21D,2023-07-07T21:55:00Z,45.0,-92.85,22.0,10.0,240,4,,10.0,29.970472,,,TRUE,TRUE,,,,,,,CLR,,,,,,,,VFR,,,,,,,,,,,,METAR,281.0
K20V 072155Z AUTO 33008KT 10SM SCT120 26/02 A3011 RMK AO2,K20V,2023-07-07T21:55:00Z,40.05,-106.37,26.0,2.0,330,8,,10.0,30.109253,,,TRUE,TRUE,,,,,,,SCT,12000,,,,,,,VFR,,,,,,,,,,,,SPECI,2259.0
K20U 072155Z AUTO 03013G18KT 10SM CLR 24/05 A3007 RMK AO2,K20U,2023-07-07T21:55:00Z,46.93,-103.98,24.0,5.0,30,13,18,10.0,30.070866,,,TRUE,TRUE,,,,,,,CLR,,,,,,,,VFR,,,,,,,,,,,,METAR,839.0
K1V6 072155Z AUTO 07021G26KT 10SM SCT050 28/15 A3001 RMK AO2 LTG DSNT N,K1V6,2023-07-07T21:55:00Z,38.43,-105.1,28.0,15.0,70,21,26,10.0,30.008858,,,TRUE,TRUE,,,,,,,SCT,5000,,,,,,,VFR,,,,,,,,,,,,METAR,1658.0
K1U7 072155Z AUTO 19008KT 10SM FEW085 SCT120 23/12 A3004 RMK A01,K1U7,2023-07-07T21:55:00Z,42.25,-111.33,23.0,12.0,190,8,,10.0,30.041338,,,TRUE,TRUE,,,,,,,FEW,8500,SCT,12000,,,,,VFR,,,,,,,,,,,,METAR,1808.0
K1S5 072155Z AUTO 20005KT 10SM CLR 35/10 A2973 RMK AO2 T03450100,K1S5,2023-07-07T21:55:00Z,46.33,-119.97,34.5,10.0,200,5,,10.0,29.731298,,,TRUE,TRUE,,,,,,,CLR,,,,,,,,VFR,,,,,,,,,,,,METAR,228.0
K1R8 072155Z AUTO 16005KT 10SM FEW050 SCT060 27/23 A2991 RMK AO2 LTG DSNT N AND E AND S,K1R8,2023-07-07T21:55:00Z,30.87,-87.82,27.0,23.0,160,5,,10.0,29.911417,,,TRUE,TRUE,,,,,,,FEW,5000,SCT,6000,,,,,VFR,,,,,,,,,,,,METAR,76.0
K1R7 072155Z AUTO 25007KT 10SM CLR 32/26 A2995 RMK AO2 PWINO,K1R7,2023-07-07T21:55:00Z,31.6,-90.42,32.0,26.0,250,7,,10.0,29.949802,,,TRUE,TRUE,,,,,TRUE,,CLR,,,,,,,,VFR,,,,,,,,,,,,METAR,142.0
K1P1 072155Z AUTO 00000KT 7SM BKN050 OVC060 24/19 A2986 RMK AO2 LTG DSNT NE T02370186,K1P1,2023-07-07T21:55:00Z,43.78,-71.75,23.7,18.6,0,0,,7.0,29.861221,,,TRUE,TRUE,,,,,,,BKN,5000,OVC,6000,,,,,VFR,,,,,,,,,,,,METAR,155.0
K1OW 072155Z AUTO 36008KT 10SM OVC120 20/09 A3025 RMK AO2 LTG DSNT W SLP198 T02040090 $,K1OW,2023-07-07T21:55:00Z,40.88,-104.0,20.4,9.0,360,8,,10.0,30.250984,1019.8,,TRUE,TRUE,TRUE,,,,,,OVC,12000,,,,,,,VFR,,,,,,,,,,,,METAR,1650.0
K1OM 072155Z AUTO 13010KT 10SM FEW090 26/06 A3002 RMK AO2 LTG DSNT NW SLP142 T02550061 $,K1OM,2023-07-07T21:55:00Z,47.33,-108.93,25.5,6.1,130,10,,10.0,30.02067,1014.2,,TRUE,TRUE,TRUE,,,,,,FEW,9000,,,,,,,VFR,,,,,,,,,,,,METAR,1088.0
K1NW 072155Z AUTO 03015G19KT 10SM M 22/11 A3007 RMK AO2 SLP135 T02220113 $,K1NW,2023-07-07T21:55:00Z,40.63,-103.83,22.2,11.3,30,15,19,10.0,30.070866,1013.5,,TRUE,TRUE,TRUE,,,,,,,,,,,,,,,,,,,,,,,,,,METAR,1461.0
K1NM 072155Z AUTO 13006KT 10SM BKN075 OVC120 24/05 A3001 RMK AO2 LTG DSNT NW SLP144 T02420045 $,K1NM,2023-07-07T21:55:00Z,47.07,-109.03,24.2,4.5,130,6,,10.0,30.008858,1014.4,,TRUE,TRUE,TRUE,,,,,,BKN,7500,OVC,12000,,,,,VFR,,,,,,,,,,,,METAR,1169.0
K1MW 072155Z AUTO 03008KT 10SM FEW055 23/11 A3006 RMK AO2 SLP137 T02340114 PWINO $,K1MW,2023-07-07T21:55:00Z,40.7,-103.48,23.4,11.4,30,8,,10.0,30.059055,1013.7,,TRUE,TRUE,TRUE,,,,TRUE,,FEW,5500,,,,,,,VFR,,,,,,,,,,,,METAR,1338.0
K1MN 072155Z AUTO 06006KT 10SM FEW060 21/10 A3001 RMK AO2 SLP167 T02140099 $,K1MN,2023-07-07T21:55:00Z,,,21.4,9.9,60,6,,10.0,30.008858,1016.7,,TRUE,TRUE,TRUE,,,,,,FEW,6000,,,,,,,VFR,,,,,,,,,,,,METAR,
K1MM 072155Z AUTO 13010KT 10SM CLR 25/05 A3005 RMK AO2 SLP159 T02480045 $,K1MM,2023-07-07T21:55:00Z,47.02,-109.63,24.8,4.5,130,10,,10.0,30.050198,1015.9,,TRUE,TRUE,TRUE,,,,,,CLR,,,,,,,,VFR,,,,,,,,,,,,METAR,1256.0
K1M5 072155Z AUTO 00000KT 10SM CLR 30/20 A2991 RMK A01,K1M5,2023-07-07T21:55:00Z,36.6,-86.48,30.0,20.0,0,0,,10.0,29.911417,,,TRUE,TRUE,,,,,,,CLR,,,,,,,,VFR,,,,,,,,,,,,METAR,239.0
K1LM 072155Z AUTO 11012G17KT 10SM CLR 22/09 A3007 RMK AO2 SLP160 T02160085 $,K1LM,2023-07-07T21:55:00Z,46.7,-109.73,21.6,8.5,110,12,17,10.0,30.070866,1016.0,,TRUE,TRUE,TRUE,,,,,,CLR,,,,,,,,VFR,,,,,,,,,,,,METAR,1417.0
K1KW 072155Z AUTO 01012KT 10SM CLR 22/11 M RMK AO2 SLPNO T02240105 $,K1KW,2023-07-07T21:55:00Z,41.13,-103.48,22.4,10.5,10,12,,10.0,,,,TRUE,TRUE,TRUE,,,,,,CLR,,,,,,,,VFR,,,,,,,,,,,,METAR,1443.0
K1JW 072155Z AUTO 02013KT 10SM CLR 23/10 M RMK AO2 SLPNO T02250100 PWINO $,K1JW,2023-07-07T21:55:00Z,40.97,-103.2,22.5,10.0,20,13,,10.0,,,,TRUE,TRUE,TRUE,,,,TRUE,,CLR,,,,,,,,VFR,,,,,,,,,,,,METAR,1382.0
K1JN 072155Z AUTO 03007KT 10SM SCT050 21/11 A3002 RMK AO2 SLP169 T02140105 $,K1JN,2023-07-07T21:55:00Z,,,21.4,10.5,30,7,,10.0,30.02067,1016.9,,TRUE,TRUE,TRUE,,,,,,SCT,5000,,,,,,,VFR,,,,,,,,,,,,METAR,
K1JM 072155Z AUTO 12007KT 10SM FEW130 FEW150 25/03 A3001 RMK AO2 LTG DSNT N SLP143 T02460033 $,K1JM,2023-07-07T21:55:00Z,47.75,-111.55,24.6,3.3,120,7,,10.0,30.008858,1014.3,,TRUE,TRUE,TRUE,,,,,,FEW,13000,FEW,15000,,,,,VFR,,,,,,,,,,,,METAR,1154.0
K1IW 072155Z AUTO 02013G16KT 10SM CLR 26/12 A3003 RMK AO2 SLP125 T02550120 $,K1IW,2023-07-07T21:55:00Z,41.05,-102.87,25.5,12.0,20,13,16,10.0,30.029528,1012.5,,TRUE,TRUE,TRUE,,,,,,CLR,,,,,,,,VFR,,,,,,,,,,,,METAR,1294.0
K1IN 072155Z AUTO 01012KT 10SM SCT060 BKN085 23/07 A3002 RMK AO2 SLP168 T02280069 $,K1IN,2023-07-07T21:55:00Z,,,22.8,6.9,10,12,,10.0,30.02067,1016.8,,TRUE,TRUE,TRUE,,,,,,SCT,6000,BKN,8500,,,,,VFR,,,,,,,,,,,,METAR,
K1IM 072155Z AUTO 12013G22KT 10SM CLR 26/04 A2998 RMK AO2 PK WND 11026/28 LTG DSNT N SLP142 T02550040 $,K1IM,2023-07-07T21:55:00Z,47.32,-111.47,25.5,4.0,120,13,22,10.0,29.97933,1014.2,,TRUE,TRUE,TRUE,,,,,,CLR,,,,,,,,VFR,,,,,,,,,,,,METAR,1110.0
K1HW 072155Z AUTO 36005G15KT 10SM SCT055 24/12 A3002 RMK AO2 SLP126 T02420115 $,K1HW,2023-07-07T21:55:00Z,41.32,-102.83,24.2,11.5,360,5,15,10.0,30.02067,1012.6,,TRUE,TRUE,TRUE,,,,,,SCT,5500,,,,,,,VFR,,,,,,,,,,,,METAR,1265.0
K1HN 072155Z AUTO 01010KT 10SM FEW070 SCT090 24/07 A3000 RMK AO2 SLP163 T02430065 $,K1HN,2023-07-07T21:55:00Z,,,24.3,6.5,10,10,,10.0,30.0,1016.3,,TRUE,TRUE,TRUE,,,,,,FEW,7000,SCT,9000,,,,,VFR,,,,,,,,,,,,METAR,
K1HM 072155Z AUTO 26010KT 10SM M 26/04 A2999 RMK AO2 SLP135 T02560035 $,K1HM,2023-07-07T21:55:00Z,47.7,-111.95,25.6,3.5,260,10,,10.0,29.991142,1013.5,,TRUE,TRUE,TRUE,,,,,,,,,,,,,,,,,,,,,,,,,,METAR,1181.0
K1H2 072155Z AUTO 00000KT 10SM CLR 27/18 A2996 RMK AO2 T02680175,K1H2,2023-07-07T21:55:00Z,39.07,-88.53,26.8,17.5,0,0,,10.0,29.958662,,,TRUE,TRUE,,,,,,,CLR,,,,,,,,VFR,,,,,,,,,,,,SPECI,174.0
K1GN 072155Z AUTO 04008KT 10SM FEW060 22/10 A3001 RMK AO2 SLP171 T02190097 $,K1GN,2023-07-07T21:55:00Z,,,21.9,9.7,40,8,,10.0,30.008858,1017.1,,TRUE,TRUE,TRUE,,,,,,FEW,6000,,,,,,,VFR,,,,,,,,,,,,METAR,
K1GM 072155Z AUTO 10010G17KT 9SM CLR 24/04 M RMK AO2 SLPNO T02430041 $,K1GM,2023-07-07T21:55:00Z,47.33,-112.1,24.3,4.1,100,10,17,9.0,,,,TRUE,TRUE,TRUE,,,,,,CLR,,,,,,,,VFR,,,,,,,,,,,,METAR,1317.0
K1FW 072155Z AUTO 00000KT 10SM FEW055 22/10 A3007 RMK AO2 SLP139 T02220100 $,K1FW,2023-07-07T21:55:00Z,41.37,-103.48,22.2,10.0,0,0,,10.0,30.070866,1013.9,,TRUE,TRUE,TRUE,,,,,,FEW,5500,,,,,,,VFR,,,,,,,,,,,,METAR,1451.0
K1FM 072155Z AUTO 14008G15KT 10SM CLR 24/03 A3003 RMK AO2 SLP143 T02440031 $,K1FM,2023-07-07T21:55:00Z,47.6,-112.32,24.4,3.1,140,8,15,10.0,30.029528,1014.3,,TRUE,TRUE,TRUE,,,,,,CLR,,,,,,,,VFR,,,,,,,,,,,,METAR,1344.0
K1F0 072155Z AUTO 20006KT 10SM CLR 34/22 A2987 RMK AO2 T03380220,K1F0,2023-07-07T21:55:00Z,34.15,-97.12,33.8,22.0,200,6,,10.0,29.870079,,,TRUE,TRUE,,,,,,,CLR,,,,,,,,VFR,,,,,,,,,,,,METAR,256.0
K1EW 072155Z AUTO 35009KT 10SM BKN100 20/08 A3012 RMK AO2 SLP159 T02040081 $,K1EW,2023-07-07T21:55:00Z,41.12,-103.98,20.4,8.1,350,9,,10.0,30.121063,1015.9,,TRUE,TRUE,TRUE,,,,,,BKN,10000,,,,,,,VFR,,,,,,,,,,,,METAR,1609.0
K1EN 072155Z AUTO 36007KT 10SM FEW070 23/05 A2980 RMK AO2 SLP098 T02300045 $,K1EN,2023-07-07T21:55:00Z,,,23.0,4.5,360,7,,10.0,29.799213,1009.8,,TRUE,TRUE,TRUE,,,,,,FEW,7000,,,,,,,VFR,,,,,,,,,,,,METAR,
K1EM 072155Z AUTO 12009KT 10SM CLR 25/03 A3003 RMK AO2 SLP149 T02470033 $,K1EM,2023-07-07T21:55:00Z,47.45,-109.42,24.7,3.3,120,9,,10.0,30.029528,1014.9,,TRUE,TRUE,TRUE,,,,,,CLR,,,,,,,,VFR,,,,,,,,,,,,METAR,1118.0
K1DW 072155Z AUTO 36010KT 10SM CLR 21/09 A3012 RMK AO2 SLP160 T02070090 $,K1DW,2023-07-07T21:55:00Z,41.37,-103.8,20.7,9.0,360,10,,10.0,30.121063,1016.0,,TRUE,TRUE,TRUE,,,,,,CLR,,,,,,,,VFR,,,,,,,,,,,,METAR,1539.0
K1DN 072155Z AUTO 06010KT 10SM SCT049 22/08 A2853 RMK AO2 SLP657 T02230077 $,K1DN,2023-07-07T21:55:00Z,,,22.3,7.7,60,10,,10.0,28.529528,965.7,,TRUE,TRUE,TRUE,,,,,,SCT,4900,,,,,,,VFR,,,,,,,,,,,,METAR,
K1DM 072155Z AUTO 19009KT 10SM SCT170 20/06 A3005 RMK AO2 LTG DSNT NW-N RAE10 SLP172 P0000 T02020062 $,K1DM,2023-07-07T21:55:00Z,47.37,-109.8,20.2,6.2,190,9,,10.0,30.050198,1017.2,,TRUE,TRUE,TRUE,,,,,,SCT,17000,,,,,,,VFR,,,,,,0.005,,,,,,METAR,1093.0
K1D8 072155Z AUTO VRB06G12KT 10SM BKN033 23/18 A2996 RMK AO2,K1D8,2023-07-07T21:55:00Z,,,23.0,18.0,0,6,12,10.0,29.958662,,,TRUE,TRUE,,,,,,,BKN,3300,,,,,,,VFR,,,,,,,,,,,,METAR,
K1CW 072155Z AUTO 34006KT 10SM FEW230 24/07 A3008 RMK AO2 SLP144 T02350067 $,K1CW,2023-07-07T21:55:00Z,41.58,-103.57,23.5,6.7,340,6,,10.0,30.079725,1014.4,,TRUE,TRUE,TRUE,,,,,,FEW,23000,,,,,,,VFR,,,,,,,,,,,,METAR,1370.0
K1CN 072155Z AUTO 02011KT 10SM FEW070 22/10 A3000 RMK AO2 SLP162 T02160095 $,K1CN,2023-07-07T21:55:00Z,,,21.6,9.5,20,11,,10.0,30.0,1016.2,,TRUE,TRUE,TRUE,,,,,,FEW,7000,,,,,,,VFR,,,,,,,,,,,,METAR,
K1CM 072155Z AUTO 06012KT 10SM FEW110 22/08 A3007 RMK AO2 SLP169 T02200078 $,K1CM,2023-07-07T21:55:00Z,47.1,-110.17,22.0,7.8,60,12,,10.0,30.070866,1016.9,,TRUE,TRUE,TRUE,,,,,,FEW,11000,,,,,,,VFR,,,,,,,,,,,,METAR,1338.0
K1BW 072155Z AUTO 02009KT 10SM CLR 20/08 A3015 RMK AO2 SLP169 T01970084 $,K1BW,2023-07-07T21:55:00Z,41.52,-104.0,19.7,8.4,20,9,,10.0,30.15059,1016.9,,TRUE,TRUE,TRUE,,,,,,CLR,,,,,,,,VFR,,,,,,,,,,,,METAR,1606.0
K1AW 072155Z AUTO 01009KT 10SM BKN110 OVC140 19/09 A3015 RMK AO2 SLP165 T01890091 $,K1AW,2023-07-07T21:55:00Z,41.33,-104.27,18.9,9.1,10,9,,10.0,30.15059,1016.5,,TRUE,TRUE,TRUE,,,,,,BKN,11000,OVC,14000,,,,,VFR,,,,,,,,,,,,METAR,1670.0
K1AM 072155Z AUTO 22006KT 10SM -RA OVC090 18/10 A3005 RMK AO2 RAE03RAB12 SLP175 P0001 T01760095 $,K1AM,2023-07-07T21:55:00Z,47.28,-110.8,17.6,9.5,220,6,,10.0,30.050198,1017.5,,TRUE,TRUE,TRUE,,,,,-RA,OVC,9000,,,,,,,VFR,,,,,,0.01,,,,,,METAR,1228.0
K1A9 072155Z AUTO 31008KT 10SM SCT046 SCT070 33/22 A2986 RMK AO2 T03290224,K1A9,2023-07-07T21:55:00Z,32.43,-86.52,32.9,22.4,310,8,,10.0,29.861221,,,TRUE,TRUE,,,,,,,SCT,4600,SCT,7000,,,,,VFR,,,,,,,,,,,,METAR,65.0
K1A6 072155Z AUTO 01003KT 10SM CLR 30/18 A2993 RMK AO2 T03000183,K1A6,2023-07-07T21:55:00Z,36.62,-83.73,30.0,18.3,10,3,,10.0,29.929134,,,TRUE,TRUE,,,,,,,CLR,,,,,,,,VFR,,,,,,,,,,,,METAR,348.0
K1A5 072155Z AUTO 00000KT 10SM SCT050 29/20 A2998 RMK AO2 T02860202,K1A5,2023-07-07T21:55:00Z,35.22,-83.42,28.6,20.2,0,0,,10.0,29.97933,,,TRUE,TRUE,,,,,,,SCT,5000,,,,,,,VFR,,,,,,,,,,,,SPECI,611.0
K19S 072155Z AUTO 09004KT 10SM OVC055 27/21 A2993 RMK AO2 T02670205,K19S,2023-07-07T21:55:00Z,37.48,-100.83,26.7,20.5,90,4,,10.0,29.929134,,,TRUE,TRUE,,,,,,,OVC,5500,,,,,,,VFR,,,,,,,,,,,,SPECI,886.0
K18H 072155Z AUTO 14008KT 9SM CLR 33/24 A2993 RMK A01,K18H,2023-07-07T21:55:00Z,26.13,-92.03,33.0,24.0,140,8,,9.0,29.929134,,,TRUE,TRUE,,,,,,,CLR,,,,,,,,VFR,,,,,,,,,,,,METAR,30.0
K18A 072155Z AUTO 02005KT 10SM SCT060 SCT085 SCT110 26/22 A2994 RMK AO2 LTG DSNT S T02560218,K18A,2023-07-07T21:55:00Z,34.35,-83.13,25.6,21.8,20,5,,10.0,29.940945,,,TRUE,TRUE,,,,,,,SCT,6000,SCT,8500,SCT,11000,,,VFR,,,,,,,,,,,,SPECI,260.0
K17J 072155Z AUTO 29006KT 10SM TS CLR 33/21 A2986 RMK AO2 LTG DSNT NW T03330207,K17J,2023-07-07T21:55:00Z,31.0,-84.87,33.3,20.7,290,6,,10.0,29.861221,,,TRUE,TRUE,,,,,,TS,CLR,,,,,,,,VFR,,,,,,,,,,,,METAR,42.0
K15M 072155Z AUTO 10003KT 10SM VCTS FEW007 SCT041 BKN055 OVC110 23/22 A2997 RMK AO2 RAE2151 T02260222 $,K15M,2023-07-07T21:55:00Z,34.77,-88.17,22.6,22.2,100,3,,10.0,29.970472,,,TRUE,TRUE,TRUE,,,,,VCTS,FEW,700,SCT,4100,BKN,5500,OVC,11000,VFR,,,,,,,,,,,,METAR,192.0
K14Y 072155Z AUTO 19007KT 10SM SCT090 23/09 A2994 RMK AO2,K14Y,2023-07-07T21:55:00Z,45.9,-94.87,23.0,9.0,190,7,,10.0,29.940945,,,TRUE,TRUE,,,,,,,SCT,9000,,,,,,,VFR,,,,,,,,,,,,METAR,404.0
K13K 072155Z AUTO 22007KT 10SM CLR 27/20 A2990 RMK AO2 LTG DSNT SW AND W T02690197,K13K,2023-07-07T21:55:00Z,37.85,-96.3,26.9,19.7,220,7,,10.0,29.899607,,,TRUE,TRUE,,,,,,,CLR,,,,,,,,VFR,,,,,,,,,,,,METAR,367.0
K11R 072155Z AUTO 19005KT 10SM OVC085 32/22 A2992 RMK AO2 T03200221,K11R,2023-07-07T21:55:00Z,30.22,-96.37,32.0,22.1,190,5,,10.0,29.920275,,,TRUE,TRUE,,,,,,,OVC,8500,,,,,,,VFR,,,,,,,,,,,,SPECI,87.0
K10G 072155Z AUTO 33007KT 10SM SCT043 27/16 A2996 RMK AO2,K10G,2023-07-07T21:55:00Z,40.53,-81.95,27.0,16.0,330,7,,10.0,29.958662,,,TRUE,TRUE,,,,,,,SCT,4300,,,,,,,VFR,,,,,,,,,,,,METAR,371.0
K0VG 072155Z AUTO VRB04KT 10SM CLR 31/19 A2993 RMK AO2,K0VG,2023-07-07T21:55:00Z,36.65,-83.22,31.0,19.0,0,4,,10.0,29.929134,,,TRUE,TRUE,,,,,,,CLR,,,,,,,,VFR,,,,,,,,,,,,METAR,426.0
K0V4 072155Z AUTO 08006KT 10SM CLR 31/22 A2983 RMK AO1,K0V4,2023-07-07T21:55:00Z,37.15,-79.02,31.0,22.0,80,6,,10.0,29.828741,,,TRUE,TRUE,,,,,,,CLR,,,,,,,,VFR,,,,,,,,,,,,METAR,186.0
K0S9 072155Z AUTO 04004KT 10SM CLR 19/13 A2988 RMK AO2,K0S9,2023-07-07T21:55:00Z,48.05,-122.82,19.0,13.0,40,4,,10.0,29.878937,,,TRUE,TRUE,,,,,,,CLR,,,,,,,,VFR,,,,,,,,,,,,METAR,33.0
K0R0 072155Z AUTO 26007KT A2994 RMK AO2 PWINO TSNO,K0R0,2023-07-07T21:55:00Z,31.3,-89.82,,,260,7,,,29.940945,,,TRUE,TRUE,,,TRUE,,TRUE,,,,,,,,,,,,,,,,,,,,,,METAR,76.0
K0F2 072155Z AUTO 17014G21KT 130V190 10SM CLR 33/19 A2984 RMK AO2 T03340194,K0F2,2023-07-07T21:55:00Z,33.6,-97.78,33.4,19.4,170,14,21,10.0,29.840551,,,TRUE,TRUE,,,,,,,CLR,,,,,,,,VFR,,,,,,,,,,,,METAR,330.0
K0E0 072155Z AUTO 25020G23KT 10SM CLR 34/01 A3007 RMK AO2 T03380007,K0E0,2023-07-07T21:55:00Z,34.98,-106.0,33.8,0.7,250,20,23,10.0,30.070866,,,TRUE,TRUE,,,,,,,CLR,,,,,,,,VFR,,,,,,,,,,,,METAR,1887.0
K0D8 072155Z AUTO 21007KT 10SM CLR 21/17 A2998 RMK A01,K0D8,2023-07-07T21:55:00Z,44.98,-99.95,21.0,17.0,210,7,,10.0,29.97933,,,TRUE,TRUE,,,,,,,CLR,,,,,,,,VFR,,,,,,,,,,,,METAR,629.0
K0A9 072155Z AUTO VRB04KT 10SM CLR 29/20 A2991 RMK AO2,K0A9,2023-07-07T21:55:00Z,36.37,-82.17,29.0,20.0,0,4,,10.0,29.911417,,,TRUE,TRUE,,,,,,,CLR,,,,,,,,VFR,,,,,,,,,,,,METAR,479.0
K0A0 072155Z AUTO 20012G24KT 170V230 10SM CLR 40/M01 A2990 RMK AO2,K0A0,2023-07-07T21:55:00Z,32.98,-106.97,40.0,-1.0,200,12,24,10.0,29.899607,,,TRUE,TRUE,,,,,,,CLR,,,,,,,,VFR,,,,,,,,,,,,METAR,1401.0
K08D 072155Z AUTO 32009KT 10SM CLR 22/07 A3005 RMK AO2,K08D,2023-07-07T21:55:00Z,48.3,-102.4,22.0,7.0,320,9,,10.0,30.050198,,,TRUE,TRUE,,,,,,,CLR,,,,,,,,VFR,,,,,,,,,,,,METAR,683.0
K06D 072155Z AUTO 01011KT 10SM FEW060 FEW070 20/08 A3002 RMK AO2,K06D,2023-07-07T21:55:00Z,48.88,-99.62,20.0,8.0,10,11,,10.0,30.02067,,,TRUE,TRUE,,,,,,,FEW,6000,FEW,7000,,,,,VFR,,,,,,,,,,,,METAR,554.0
K06C 072155Z AUTO 08006KT 10SM BKN060 26/18 A2992 RMK AO2 T02620183,K06C,2023-07-07T21:55:00Z,41.98,-88.1,26.2,18.3,80,6,,10.0,29.920275,,,TRUE,TRUE,,,,,,,BKN,6000,,,,,,,VFR,,,,,,,,,,,,SPECI,243.0
K04W 072155Z AUTO 21008KT 10SM CLR 23/11 A2995 RMK AO2,K04W,2023-07-07T21:55:00Z,46.02,-92.9,23.0,11.0,210,8,,10.0,29.949802,,,TRUE,TRUE,,,,,,,CLR,,,,,,,,VFR,,,,,,,,,,,,METAR,310.0
K04V 072155Z AUTO 29013G23KT 10SM CLR 31/M05 A3014 RMK AO2,K04V,2023-07-07T21:55:00Z,38.1,-106.17,31.0,-5.0,290,13,23,10.0,30.138779,,,TRUE,TRUE,,,,,,,CLR,,,,,,,,VFR,,,,,,,,,,,,METAR,2389.0
FJDG 072155Z VRB05KT 6000 RA SCT020 BKN040 OVC070 24/23 A2992 RMK SLP129 T2 SET P0009 60044 8/87/ T02380230 57017,FJDG,2023-07-07T21:55:00Z,-7.32,72.42,23.8,23.0,0,5,,3.73,29.920275,1012.9,,,,,,,,,RA,SCT,2000,BKN,4000,OVC,7000,,,MVFR,-1.7,,,,,0.09,,,,,,METAR,3.0
ETOU 072155Z AUTO 07006KT 9999 CLR 24/08 A3005 RMK AO2 SLP176 T02440079 $,ETOU,2023-07-07T21:55:00Z,50.03,8.32,24.4,7.9,70,6,,6.21,30.050198,1017.6,,TRUE,TRUE,TRUE,,,,,,CLR,,,,,,,,VFR,,,,,,,,,,,,METAR,141.0
ETIK 072155Z AUTO 12003KT 9999 CLR 17/08 A3011 RMK AO2 SLP193 T01650077 $,ETIK,2023-07-07T21:55:00Z,49.47,10.38,16.5,7.7,120,3,,6.21,30.109253,1019.3,,TRUE,TRUE,TRUE,,,,,,CLR,,,,,,,,VFR,,,,,,,,,,,,METAR,326.0
ETIH 072155Z AUTO 00000KT 9999 CLR 14/07 A3015 RMK AO2 SLP207 T01390065 402840079 $,ETIH,2023-07-07T21:55:00Z,49.22,11.83,13.9,6.5,0,0,,6.21,30.15059,1020.7,,TRUE,TRUE,TRUE,,,,,,CLR,,,,,,,,VFR,,,,28.4,7.9,,,,,,,METAR,436.0
ETIC 072155Z AUTO 00000KT 9999 CLR 15/10 A3013 RMK AO2 SLP201 T01450097 402920068 $,ETIC,2023-07-07T21:55:00Z,49.7,11.93,14.5,9.7,0,0,,6.21,30.129921,1020.1,,TRUE,TRUE,TRUE,,,,,,CLR,,,,,,,,VFR,,,,29.2,6.8,,,,,,,METAR,414.0
ETEB 072155Z AUTO 11006KT 9999 CLR 20/06 A3012 RMK AO2 SLP205 T02040056 PNO $,ETEB,2023-07-07T21:55:00Z,49.32,10.63,20.4,5.6,110,6,,6.21,30.121063,1020.5,,TRUE,TRUE,TRUE,,,,,,CLR,,,,,,,,VFR,,,,,,,,,,,,METAR,466.0
ETAR 072155Z 14005KT 9999 -RA SCT027 SCT100 18/16 A3004 RMK AO2A RAB37 TSB25E44 SLPNO P0000 T01830157 $,ETAR,2023-07-07T21:55:00Z,49.43,7.58,18.3,15.7,140,5,,6.21,30.041338,,,,TRUE,TRUE,,,,,-RA,SCT,2700,SCT,10000,,,,,VFR,,,,,,0.005,,,,,,METAR,231.0
ETAD 072155Z AUTO 07006KT 9999 FEW090 21/07 A3005 RMK AO2 SLP161 T02060072 $,ETAD,2023-07-07T21:55:00Z,49.98,6.7,20.6,7.2,70,6,,6.21,30.050198,1016.1,,TRUE,TRUE,TRUE,,,,,,FEW,9000,,,,,,,VFR,,,,,,,,,,,,METAR,365.0
EHWO 072155Z AUTO 07005KT 9999 NCD 20/11 Q1016 BLU,EHWO,2023-07-07T21:55:00Z,51.45,4.33,20.0,11.0,70,5,,6.21,30.0,,,TRUE,,,,,,,,CLR,,,,,,,,VFR,,,,,,,,,,,,METAR,15.0
EHVL 072155Z AUTO 09016KT 9999 NCD 19/15 Q1019 BLU,EHVL,2023-07-07T21:55:00Z,53.28,5.08,19.0,15.0,90,16,,6.21,30.088583,,,TRUE,,,,,,,,CLR,,,,,,,,VFR,,,,,,,,,,,,METAR,2.0
EHVK 072155Z AUTO 06005KT 9999 NCD 19/12 Q1017 BLU,EHVK,2023-07-07T21:55:00Z,51.65,5.7,19.0,12.0,60,5,,6.21,30.029528,,,TRUE,,,,,,,,CLR,,,,,,,,VFR,,,,,,,,,,,,METAR,20.0
EHSC 072155Z AUTO 08020KT 9999 ///////// 24/12 Q1016 W19/H4,EHSC,2023-07-07T21:55:00Z,51.93,3.67,24.0,12.0,80,20,,6.21,30.0,,,TRUE,,,,,,,,,,,,,,,,,,,,,,,,,,,,METAR,19.0
EHSA 072155Z AUTO 08020KT 9999 ///////// 21/14 Q1016 W17/H4,EHSA,2023-07-07T21:55:00Z,52.0,3.28,21.0,14.0,80,20,,6.21,30.0,,,TRUE,,,,,,,,,,,,,,,,,,,,,,,,,,,,METAR,18.0
EHRD 072155Z AUTO 08008KT 9999 NSC 22/11 Q1017 NOSIG,EHRD,2023-07-07T21:55:00Z,51.95,4.45,22.0,11.0,80,8,,6.21,30.029528,,,TRUE,,,TRUE,,,,,CLR,,,,,,,,VFR,,,,,,,,,,,,METAR,-4.0
EHPG 072155Z AUTO 09023KT 9999 NSC 20/15 Q1017,EHPG,2023-07-07T21:55:00Z,52.37,3.35,20.0,15.0,90,23,,6.21,30.029528,,,TRUE,,,,,,,,CLR,,,,,,,,VFR,,,,,,,,,,,,METAR,24.0
EHMG 072155Z AUTO 11022KT 9999 NCD 19/14 Q1020,EHMG,2023-07-07T21:55:00Z,53.62,4.97,19.0,14.0,110,22,,6.21,30.11811,,,TRUE,,,,,,,,CLR,,,,,,,,VFR,,,,,,,,,,,,METAR,30.0
EHMA 072155Z AUTO 11016KT 9999 NCD 20/13 Q1020,EHMA,2023-07-07T21:55:00Z,53.5,5.95,20.0,13.0,110,16,,6.21,30.11811,,,TRUE,,,,,,,,CLR,,,,,,,,VFR,,,,,,,,,,,,METAR,27.0
EHLW 072155Z AUTO 09010KT 9999 NCD 18/13 Q1020 BLU,EHLW,2023-07-07T21:55:00Z,53.22,5.75,18.0,13.0,90,10,,6.21,30.11811,,,TRUE,,,,,,,,CLR,,,,,,,,VFR,,,,,,,,,,,,METAR,1.0
EHLE 072155Z AUTO 06006KT 9999 NCD 20/12 Q1018,EHLE,2023-07-07T21:55:00Z,52.45,5.52,20.0,12.0,60,6,,6.21,30.059055,,,TRUE,,,,,,,,CLR,,,,,,,,VFR,,,,,,,,,,,,METAR,-3.0
EHKV 072155Z AUTO 11028KT 9999 NCD 19/15 Q1018,EHKV,2023-07-07T21:55:00Z,53.27,3.63,19.0,15.0,110,28,,6.21,30.059055,,,TRUE,,,,,,,,CLR,,,,,,,,VFR,,,,,,,,,,,,METAR,28.0
EHKD 072155Z AUTO 08010KT 050V110 9999 NCD 21/16 Q1019 BLU,EHKD,2023-07-07T21:55:00Z,52.92,4.77,21.0,16.0,80,10,,6.21,30.088583,,,TRUE,,,,,,,,CLR,,,,,,,,VFR,,,,,,,,,,,,METAR,1.0
EHJR 072155Z AUTO 11028KT //// // ///////// 19/14 Q1018 RE// W16/H5,EHJR,2023-07-07T21:55:00Z,53.22,3.22,19.0,14.0,110,28,,,30.059055,,,TRUE,,,,,,,,,,,,,,,,,,,,,,,,,,,,METAR,31.0
EHJA 072155Z AUTO 12029KT 9999 NCD 19/14 Q1018,EHJA,2023-07-07T21:55:00Z,53.82,2.95,19.0,14.0,120,29,,6.21,30.059055,,,TRUE,,,,,,,,CLR,,,,,,,,VFR,,,,,,,,,,,,METAR,34.0
EHHW 072155Z AUTO 10012KT 9999 NCD 19/12 Q1021,EHHW,2023-07-07T21:55:00Z,54.03,6.03,19.0,12.0,100,12,,6.21,30.147638,,,TRUE,,,,,,,,CLR,,,,,,,,VFR,,,,,,,,,,,,METAR,10.0
EHGR 072155Z AUTO 06007KT 010V090 9999 OVC290 23/11 Q1017 BLU,EHGR,2023-07-07T21:55:00Z,51.55,4.93,23.0,11.0,60,7,,6.21,30.029528,,,TRUE,,,,,,,,OVC,29000,,,,,,,VFR,,,,,,,,,,,,METAR,12.0
EHGG 072155Z AUTO 07004KT 9999 NCD 16/11 Q1020,EHGG,2023-07-07T21:55:00Z,53.12,6.57,16.0,11.0,70,4,,6.21,30.11811,,,TRUE,,,,,,,,CLR,,,,,,,,VFR,,,,,,,,,,,,METAR,2.0
EHFS 072155Z AUTO 07008KT 040V100 9999 NCD 24/13 Q1016,EHFS,2023-07-07T21:55:00Z,51.45,3.6,24.0,13.0,70,8,,6.21,30.0,,,TRUE,,,,,,,,CLR,,,,,,,,VFR,,,,,,,,,,,,METAR,1.0
EHFD 072155Z AUTO 13020KT 9999 NCD 18/14 Q1020,EHFD,2023-07-07T21:55:00Z,54.85,4.7,18.0,14.0,130,20,,6.21,30.11811,,,TRUE,,,,,,,,CLR,,,,,,,,VFR,,,,,,,,,,,,METAR,24.0
EHEH 072155Z AUTO 06007KT 360V090 9999 BKN160 OVC310 23/11 Q1017 BLU,EHEH,2023-07-07T21:55:00Z,51.45,5.38,23.0,11.0,60,7,,6.21,30.029528,,,TRUE,,,,,,,,BKN,16000,OVC,31000,,,,,VFR,,,,,,,,,,,,METAR,20.0
EHDV 072155Z AUTO 15026KT 9999 NCD 18/// Q1018,EHDV,2023-07-07T21:55:00Z,54.32,2.93,,,150,26,,6.21,30.059055,,,TRUE,,,,,,,,CLR,,,,,,,,VFR,,,,,,,,,,,,METAR,36.0
EHDL 072155Z AUTO 06007KT 360V120 9999 NCD 20/11 Q1018 BLU,EHDL,2023-07-07T21:55:00Z,52.07,5.88,20.0,11.0,60,7,,6.21,30.059055,,,TRUE,,,,,,,,CLR,,,,,,,,VFR,,,,,,,,,,,,METAR,49.0
EHBK 072155Z AUTO 14004KT 100V160 9999 NSC 21/11 Q1017,EHBK,2023-07-07T21:55:00Z,50.92,5.77,21.0,11.0,140,4,,6.21,30.029528,,,TRUE,,,,,,,,CLR,,,,,,,,VFR,,,,,,,,,,,,METAR,112.0
EHAM 072155Z 08008KT CAVOK 20/12 Q1018 NOSIG,EHAM,2023-07-07T21:55:00Z,52.32,4.78,20.0,12.0,80,8,,6.21,30.059055,,,,,,TRUE,,,,,CAVOK,,,,,,,,VFR,,,,,,,,,,,,METAR,-2.0
EHAK 072155Z AUTO 15019KT 120V180 9999 NCD 17/14 Q1020,EHAK,2023-07-07T21:55:00Z,55.38,3.82,17.0,14.0,150,19,,6.21,30.11811,,,TRUE,,,,,,,,CLR,,,,,,,,VFR,,,,,,,,,,,,METAR,33.0
EGVA 072155Z AUTO 06007KT 9999 CLR 20/14 A2987 RMK AO2 SLP117 T01950139 $,EGVA,2023-07-07T21:55:00Z,51.67,-1.78,19.5,13.9,60,7,,6.21,29.870079,1011.7,,TRUE,TRUE,TRUE,,,,,,CLR,,,,,,,,VFR,,,,,,,,,,,,METAR,84.0
EGUN 072155Z 11009KT 9999 FEW080 19/12 A2996 RMK AO2A SLP148 T01880116,EGUN,2023-07-07T21:55:00Z,52.37,0.48,18.8,11.6,110,9,,6.21,29.958662,1014.8,,,TRUE,,,,,,,FEW,8000,,,,,,,VFR,,,,,,,,,,,,METAR,10.0
EBLB 072155Z AUTO 12003KT 9999 SCT085/// SCT110/// 17/11 Q1020 BLU,EBLB,2023-07-07T21:55:00Z,50.47,6.17,17.0,11.0,120,3,,6.21,30.11811,,,TRUE,,,,,,,,SCT,8500,SCT,11000,,,,,VFR,,,,,,,,,,,,METAR,563.0
EBFS 072155Z AUTO 08004KT 9999 SCT160/// BKN220/// 20/12 Q1017 BLU,EBFS,2023-07-07T21:55:00Z,50.23,4.65,20.0,12.0,80,4,,6.21,30.029528,,,TRUE,,,,,,,,SCT,16000,BKN,22000,,,,,VFR,,,,,,,,,,,,METAR,276.0
EBFN 072155Z AUTO 08004KT 9999 NCD 20/14 Q1015 BLU,EBFN,2023-07-07T21:55:00Z,51.08,2.65,20.0,14.0,80,4,,6.21,29.970472,,,TRUE,,,,,,,,CLR,,,,,,,,VFR,,,,,,,,,,,,METAR,9.0
EBDT 072155Z AUTO 06004KT 9999 NCD 21/10 Q1016 BLU,EBDT,2023-07-07T21:55:00Z,51.02,5.07,21.0,10.0,60,4,,6.21,30.0,,,TRUE,,,,,,,,CLR,,,,,,,,VFR,,,,,,,,,,,,METAR,25.0
EBCV 072155Z AUTO 10004KT 9999 BKN200/// 20/13 Q1016 BLU,EBCV,2023-07-07T21:55:00Z,50.57,3.82,20.0,13.0,100,4,,6.21,30.0,,,TRUE,,,,,,,,BKN,20000,,,,,,,VFR,,,,,,,,,,,,METAR,56.0
EBBL 072155Z AUTO VRB02KT 9999 NCD 18/10 Q1017 BLU,EBBL,2023-07-07T21:55:00Z,51.17,5.47,18.0,10.0,0,2,,6.21,30.029528,,,TRUE,,,,,,,,CLR,,,,,,,,VFR,,,,,,,,,,,,METAR,50.0
EBBE 072155Z AUTO 08003KT 9999 NCD 21/12 Q1016 BLU,EBBE,2023-07-07T21:55:00Z,50.75,4.77,21.0,12.0,80,3,,6.21,30.0,,,TRUE,,,,,,,,CLR,,,,,,,,VFR,,,,,,,,,,,,METAR,127.0
CYKL 072155Z AUTO 34006KT 3SM BR OVC004 14/14 A2978 RMK TS/LTNG TEMPO UNAVBL SLP097 DENSITY ALT 2200FT,CYKL,2023-07-07T21:55:00Z,54.8,-66.8,14.0,14.0,340,6,,3.0,29.778543,1009.7,,TRUE,,,,,,,BR,OVC,400,,,,,,,LIFR,,,,,,,,,,,,SPECI,507.0
BGTL 072155Z AUTO 29004KT 9999 FEW034 OVC049 08/03 A2973 RMK AO2 SLP051 T00760033 TSNO $,BGTL,2023-07-07T21:55:00Z,76.53,-68.75,7.6,3.3,290,4,,6.21,29.731298,1005.1,,TRUE,TRUE,TRUE,,TRUE,,,,FEW,3400,OVC,4900,,,,,VFR,,,,,,,,,,,,METAR,79.0
PHOG 072154Z 04021G29KT 10SM FEW020 SCT050 BKN065 27/19 A3007 RMK AO2 PK WND 04029/2145 SLP187 T02720194,PHOG,2023-07-07T21:54:00Z,20.9,-156.43,27.2,19.4,40,21,29,10.0,30.070866,1018.7,,,TRUE,,,,,,,FEW,2000,SCT,5000,BKN,6500,,,VFR,,,,,,,,,,,,METAR,14.0
PHMK 072154Z 05016G25KT 10SM SCT032 SCT055 27/19 A3009 RMK AO2 PK WND 04026/2111 RAB04E19 SLP189 P0000 T02720189,PHMK,2023-07-07T21:54:00Z,21.15,-157.1,27.2,18.9,50,16,25,10.0,30.088583,1018.9,,,TRUE,,,,,,,SCT,3200,SCT,5500,,,,,VFR,,,,,,0.005,,,,,,METAR,135.0
PGUM 072154Z 10012KT 10SM FEW020 28/25 A2988 RMK AO2 SLP110 T02830250,PGUM,2023-07-07T21:54:00Z,13.48,144.8,28.3,25.0,100,12,,10.0,29.878937,1011.0,,,TRUE,,,,,,,FEW,2000,,,,,,,VFR,,,,,,,,,,,,METAR,74.0
PGSN 072154Z 13012G23KT 10SM BKN021 BKN030 BKN038 28/26 A2989 RMK AO2 RAB10E20 SLP143 P0000 T02780261 $,PGSN,2023-07-07T21:54:00Z,15.12,145.72,27.8,26.1,130,12,23,10.0,29.890747,1014.3,,,TRUE,TRUE,,,,,,BKN,2100,BKN,3000,BKN,3800,,,MVFR,,,,,,0.005,,,,,,METAR,65.0
PAKN 072154Z 20011KT 10SM BKN029 BKN036 OVC080 13/08 A2990,PAKN,2023-07-07T21:54:00Z,58.68,-156.65,13.0,8.0,200,11,,10.0,29.899607,,,,,,,,,,,BKN,2900,BKN,3600,OVC,8000,,,MVFR,,,,,,,,,,,,METAR,20.0
PAHN 072154Z AUTO 13007KT 10SM CLR 24/11 A2984 RMK AO2 SLP107 T02440111 TSNO,PAHN,2023-07-07T21:54:00Z,59.25,-135.52,24.4,11.1,130,7,,10.0,29.840551,1010.7,,TRUE,TRUE,,,TRUE,,,,CLR,,,,,,,,VFR,,,,,,,,,,,,METAR,15.0
KWLD 072154Z AUTO 00000KT 6SM -TSRA BR FEW055 SCT075 OVC110 22/21 A2992 RMK AO2 LTG DSNT ALQDS RAB01 TSB2055 SLP124 P0007 T02170206,KWLD,2023-07-07T21:54:00Z,37.17,-97.03,21.7,20.6,0,0,,6.0,29.920275,1012.4,,TRUE,TRUE,,,,,,-TSRA BR,FEW,5500,SCT,7500,OVC,11000,,,VFR,,,,,,0.07,,,,,,METAR,351.0
KWAL 072154Z 14005KT 10SM CLR 28/23 A2984 RMK AO2 LTG DSNT N AND NW SLP102 T02780228,KWAL,2023-07-07T21:54:00Z,37.93,-75.47,27.8,22.8,140,5,,10.0,29.840551,1010.2,,,TRUE,,,,,,,CLR,,,,,,,,VFR,,,,,,,,,,,,METAR,10.0
KVTA 072154Z AUTO VRB05KT 10SM BKN047 29/17 A2991 RMK AO2 SLP121 T02940172,KVTA,2023-07-07T21:54:00Z,40.02,-82.47,29.4,17.2,0,5,,10.0,29.911417,1012.1,,TRUE,TRUE,,,,,,,BKN,4700,,,,,,,VFR,,,,,,,,,,,,METAR,268.0
KVSF 072154Z AUTO 27005KT 10SM -TSRA SCT045 BKN110 24/19 A2987 RMK AO2 LTG DSNT ALQDS RAB22 TSE09B22 SLP114 P0000 T02390194,KVSF,2023-07-07T21:54:00Z,43.35,-72.52,23.9,19.4,270,5,,10.0,29.870079,1011.4,,TRUE,TRUE,,,,,,-TSRA,SCT,4500,BKN,11000,,,,,VFR,,,,,,0.005,,,,,,METAR,176.0
KVAY 072154Z AUTO 15005KT 10SM CLR 27/23 A2981 RMK AO2 SLP094 T02720233,KVAY,2023-07-07T21:54:00Z,39.93,-74.83,27.2,23.3,150,5,,10.0,29.811024,1009.4,,TRUE,TRUE,,,,,,,CLR,,,,,,,,VFR,,,,,,,,,,,,METAR,15.0
KUIN 072154Z AUTO 11009KT 10SM -TSRA SCT048 BKN060 OVC100 23/17 A2993 RMK AO2 LTG DSNT SW-NW RAE09B48 TSB46 PRESFR SLP130 P0000 T02280167,KUIN,2023-07-07T21:54:00Z,39.95,-91.2,22.8,16.7,110,9,,10.0,29.929134,1013.0,,TRUE,TRUE,,,,,,-TSRA,SCT,4800,BKN,6000,OVC,10000,,,VFR,,,,,,0.005,,,,,,METAR,233.0
KTQE 072154Z AUTO 09006KT 10SM -RA BKN007 BKN019 OVC046 18/17 A2992 RMK AO2 RAE2056B52 SLP125 P0000 T01830167,KTQE,2023-07-07T21:54:00Z,41.77,-96.18,18.3,16.7,90,6,,10.0,29.920275,1012.5,,TRUE,TRUE,,,,,,-RA,BKN,700,BKN,1900,OVC,4600,,,IFR,,,,,,0.005,,,,,,METAR,312.0
KTAD 072154Z AUTO 09015G25KT 10SM VCTS FEW055 27/15 A3000 RMK AO2 LTG DSNT N AND S AND NW SLP074 T02670150,KTAD,2023-07-07T21:54:00Z,37.27,-104.33,26.7,15.0,90,15,25,10.0,30.0,1007.4,,TRUE,TRUE,,,,,,VCTS,FEW,5500,,,,,,,VFR,,,,,,,,,,,,METAR,1751.0
KSYR 072154Z 33009KT 10SM FEW020 SCT029 BKN041TCU BKN130 BKN200 26/20 A2989 RMK AO2 SLP114 TCU E-S MOD CU W-N T02560200,KSYR,2023-07-07T21:54:00Z,43.12,-76.1,25.6,20.0,330,9,,10.0,29.890747,1011.4,,,TRUE,,,,,,,FEW,2000,SCT,2900,BKN,4100,BKN,13000,VFR,,,,,,,,,,,,METAR,125.0
KSUS 072154Z 07007KT 10SM BKN080 BKN090 28/19 A2989 RMK AO2 SLP113 T02780189,KSUS,2023-07-07T21:54:00Z,38.65,-90.65,27.8,18.9,70,7,,10.0,29.890747,1011.3,,,TRUE,,,,,,,BKN,8000,BKN,9000,,,,,VFR,,,,,,,,,,,,METAR,140.0
KSLC 072154Z 14007KT 10SM FEW095 FEW170 SCT220 35/M01 A2983 RMK AO2 SLP032 TCU DSNT NE-E ACSL DSNT S T03501011,KSLC,2023-07-07T21:54:00Z,40.77,-111.97,35.0,-1.1,140,7,,10.0,29.828741,1003.2,,,TRUE,,,,,,,FEW,9500,FEW,17000,SCT,22000,,,VFR,,,,,,,,,,,,METAR,1286.0
KSET 072154Z AUTO 10009KT 10SM CLR 29/18 A2990 RMK AO2 SLP120 T02890183,KSET,2023-07-07T21:54:00Z,38.93,-90.43,28.9,18.3,100,9,,10.0,29.899607,1012.0,,TRUE,TRUE,,,,,,,CLR,,,,,,,,VFR,,,,,,,,,,,,METAR,133.0
KSBY 072154Z 29005KT 6SM VCTS -RA BR FEW032 SCT085 BKN110 24/23 A2984 RMK AO2 LTG DSNT W AND NW SLP106 P0009 T02390228,KSBY,2023-07-07T21:54:00Z,38.33,-75.5,23.9,22.8,290,5,,6.0,29.840551,1010.6,,,TRUE,,,,,,VCTS -RA BR,FEW,3200,SCT,8500,BKN,11000,,,VFR,,,,,,0.09,,,,,,METAR,14.0
KSBN 072154Z 21007KT 10SM SCT060 28/14 A2993 RMK AO2 SLP130 T02780139,KSBN,2023-07-07T21:54:00Z,41.7,-86.32,27.8,13.9,210,7,,10.0,29.929134,1013.0,,,TRUE,,,,,,,SCT,6000,,,,,,,VFR,,,,,,,,,,,,METAR,236.0
KRST 072154Z 20005KT 10SM CLR 21/10 A2996 RMK AO2 SLP144 T02110100,KRST,2023-07-07T21:54:00Z,43.9,-92.5,21.1,10.0,200,5,,10.0,29.958662,1014.4,,,TRUE,,,,,,,CLR,,,,,,,,VFR,,,,,,,,,,,,METAR,398.0
KRSP 072154Z AUTO 00000KT 10SM FEW110 31/22 A2990 RMK AO2 RAE2056 SLP923 P0000 T03110222 $,KRSP,2023-07-07T21:54:00Z,39.65,-77.47,31.1,22.2,0,0,,10.0,29.899607,992.3,,TRUE,TRUE,TRUE,,,,,,FEW,11000,,,,,,,VFR,,,,,,0.005,,,,,,METAR,555.0
KROC 072154Z 34007KT 10SM SCT035 SCT085 SCT180 26/17 A2989 RMK AO2 SLP123 T02610172,KROC,2023-07-07T21:54:00Z,43.12,-77.68,26.1,17.2,340,7,,10.0,29.890747,1012.3,,,TRUE,,,,,,,SCT,3500,SCT,8500,SCT,18000,,,VFR,,,,,,,,,,,,METAR,166.0
KROA 072154Z 33006KT 10SM FEW055 OVC200 32/19 A2987 RMK AO2 SLP100 T03170189,KROA,2023-07-07T21:54:00Z,37.32,-79.97,31.7,18.9,330,6,,10.0,29.870079,1010.0,,,TRUE,,,,,,,FEW,5500,OVC,20000,,,,,VFR,,,,,,,,,,,,METAR,349.0
KRIC 072154Z 19003KT 10SM FEW035 SCT095 SCT120 BKN300 29/23 A2981 RMK AO2 RAB39E52 SLP095 P0000 T02940228,KRIC,2023-07-07T21:54:00Z,37.52,-77.32,29.4,22.8,190,3,,10.0,29.811024,1009.5,,,TRUE,,,,,,,FEW,3500,SCT,9500,SCT,12000,BKN,30000,VFR,,,,,,0.005,,,,,,METAR,51.0
KRFD 072154Z 19007KT 10SM FEW055 SCT100 OVC250 24/13 A2996 RMK AO2 SLP141 T02440128,KRFD,2023-07-07T21:54:00Z,42.2,-89.1,24.4,12.8,190,7,,10.0,29.958662,1014.1,,,TRUE,,,,,,,FEW,5500,SCT,10000,OVC,25000,,,VFR,,,,,,,,,,,,METAR,222.0
KRDG 072154Z 00000KT 10SM CLR 27/21 A2982 RMK AO2 SLP100 T02670211,KRDG,2023-07-07T21:54:00Z,40.37,-75.97,26.7,21.1,0,0,,10.0,29.819881,1010.0,,,TRUE,,,,,,,CLR,,,,,,,,VFR,,,,,,,,,,,,METAR,101.0
KRBL 072154Z AUTO 18010KT 10SM CLR 32/14 A2977 RMK AO2 SLP076 T03170139,KRBL,2023-07-07T21:54:00Z,40.15,-122.25,31.7,13.9,180,10,,10.0,29.769686,1007.6,,TRUE,TRUE,,,,,,,CLR,,,,,,,,VFR,,,,,,,,,,,,METAR,107.0
KPTW 072154Z AUTO 02003KT 10SM CLR 25/22 A2984 RMK AO2 SLP101 T02500222 $,KPTW,2023-07-07T21:54:00Z,40.23,-75.55,25.0,22.2,20,3,,10.0,29.840551,1010.1,,TRUE,TRUE,TRUE,,,,,,CLR,,,,,,,,VFR,,,,,,,,,,,,METAR,88.0
KPSF 072154Z AUTO 23006KT 10SM FEW039 25/19 A2988 RMK AO2 LTG DSNT NE AND E RAB06E27 SLP093 P0000 T02500194,KPSF,2023-07-07T21:54:00Z,42.43,-73.28,25.0,19.4,230,6,,10.0,29.878937,1009.3,,TRUE,TRUE,,,,,,,FEW,3900,,,,,,,VFR,,,,,,0.005,,,,,,METAR,352.0
KPNE 072154Z 31003KT 10SM CLR 29/21 A2983 RMK AO2 SLP100 T02890211,KPNE,2023-07-07T21:54:00Z,40.08,-75.02,28.9,21.1,310,3,,10.0,29.828741,1010.0,,,TRUE,,,,,,,CLR,,,,,,,,VFR,,,,,,,,,,,,METAR,32.0
KPLN 072154Z AUTO 21004KT 10SM CLR 24/07 A2995 RMK AO2 SLP140 T02390067,KPLN,2023-07-07T21:54:00Z,45.57,-84.8,23.9,6.7,210,4,,10.0,29.949802,1014.0,,TRUE,TRUE,,,,,,,CLR,,,,,,,,VFR,,,,,,,,,,,,METAR,215.0
KPIA 072154Z 27009KT 10SM FEW110 26/13 A2996 RMK AO2 SLP142 T02610128,KPIA,2023-07-07T21:54:00Z,40.67,-89.68,26.1,12.8,270,9,,10.0,29.958662,1014.2,,,TRUE,,,,,,,FEW,11000,,,,,,,VFR,,,,,,,,,,,,METAR,200.0
KPHL 072154Z 12003KT 10SM FEW030 SCT150 BKN200 28/21 A2981 RMK AO2 SLP095 T02830211,KPHL,2023-07-07T21:54:00Z,39.87,-75.23,28.3,21.1,120,3,,10.0,29.811024,1009.5,,,TRUE,,,,,,,FEW,3000,SCT,15000,BKN,20000,,,VFR,,,,,,,,,,,,METAR,2.0
KPHF 072154Z 10006KT 10SM CLR 27/23 A2982 RMK AO2 LTG DSNT NW SLP096 T02720233,KPHF,2023-07-07T21:54:00Z,37.13,-76.5,27.2,23.3,100,6,,10.0,29.819881,1009.6,,,TRUE,,,,,,,CLR,,,,,,,,VFR,,,,,,,,,,,,METAR,12.0
KORH 072154Z 20009KT 10SM FEW034 28/19 A2988 RMK AO2 SLP112 T02780194,KORH,2023-07-07T21:54:00Z,42.27,-71.87,27.8,19.4,200,9,,10.0,29.878937,1011.2,,,TRUE,,,,,,,FEW,3400,,,,,,,VFR,,,,,,,,,,,,METAR,306.0
KOLS 072154Z AUTO 21010G18KT 10SM CLR 41/06 A2992 RMK AO2 SLP040 T04060061,KOLS,2023-07-07T21:54:00Z,31.42,-110.85,40.6,6.1,210,10,18,10.0,29.920275,1004.0,,TRUE,TRUE,,,,,,,CLR,,,,,,,,VFR,,,,,,,,,,,,METAR,1194.0
KOLM 072154Z 26008G17KT 10SM CLR 22/12 A2991 RMK AO2 SLP128 T02170122,KOLM,2023-07-07T21:54:00Z,46.97,-122.9,21.7,12.2,260,8,17,10.0,29.911417,1012.8,,,TRUE,,,,,,,CLR,,,,,,,,VFR,,,,,,,,,,,,METAR,58.0
KOFP 072154Z AUTO 00000KT 9SM FEW037 28/25 A2982 RMK AO2 LTG DSNT ALQDS RAB28E42 SLP095 P0000 T02780250,KOFP,2023-07-07T21:54:00Z,37.7,-77.43,27.8,25.0,0,0,,9.0,29.819881,1009.5,,TRUE,TRUE,,,,,,,FEW,3700,,,,,,,VFR,,,,,,0.005,,,,,,METAR,63.0
KNAK 072154Z AUTO 10008KT 10SM CLR 29/24 A2982 RMK AO2 SLP098 T02890244 $,KNAK,2023-07-07T21:54:00Z,38.98,-76.48,28.9,24.4,100,8,,10.0,29.819881,1009.8,,TRUE,TRUE,TRUE,,,,,,CLR,,,,,,,,VFR,,,,,,,,,,,,METAR,2.0
KMWN 072154Z 27018KT 35SM TS -RA SCT/// OVC010CB 13/11 RMK RAB33 TSB08 TS SW MOV NE CB NE MOV NE TPS LWR SCT040,KMWN,2023-07-07T21:54:00Z,44.27,-71.3,13.0,11.0,270,18,,35.0,,,,,,,,,,,TS -RA,OVC,1000,,,,,,,MVFR,,,,,,,,,,,,METAR,1911.0
KMVL 072154Z AUTO 18005KT 10SM FEW045 BKN110 23/21 A2988 RMK AO2 RAE15 SLP115 P0000 T02280206,KMVL,2023-07-07T21:54:00Z,44.53,-72.62,22.8,20.6,180,5,,10.0,29.878937,1011.5,,TRUE,TRUE,,,,,,,FEW,4500,BKN,11000,,,,,VFR,,,,,,0.005,,,,,,METAR,226.0
KMTP 072154Z AUTO 00000KT 25/23 A2987 RMK AO1 SLP114 T02500228,KMTP,2023-07-07T21:54:00Z,41.07,-71.92,25.0,22.8,0,0,,,29.870079,1011.4,,TRUE,TRUE,,,,,,,,,,,,,,,,,,,,,,,,,,,METAR,2.0
KMRY 072154Z 29013G21KT 10SM BKN015 17/11 A2997 RMK AO2 SLP159 T01670111,KMRY,2023-07-07T21:54:00Z,36.58,-121.85,16.7,11.1,290,13,21,10.0,29.970472,1015.9,,,TRUE,,,,,,,BKN,1500,,,,,,,MVFR,,,,,,,,,,,,METAR,51.0
KMOT 072154Z 36008KT 10SM FEW060 BKN075 23/09 A3001 RMK AO2 SLP161 T02280089,KMOT,2023-07-07T21:54:00Z,48.25,-101.27,22.8,8.9,360,8,,10.0,30.008858,1016.1,,,TRUE,,,,,,,FEW,6000,BKN,7500,,,,,VFR,,,,,,,,,,,,METAR,507.0
KMKC 072154Z 08007KT 040V110 10SM CLR 27/18 A2987 RMK AO2 SLP106 T02670183,KMKC,2023-07-07T21:54:00Z,39.12,-94.6,26.7,18.3,80,7,,10.0,29.870079,1010.6,,,TRUE,,,,,,,CLR,,,,,,,,VFR,,,,,,,,,,,,METAR,228.0
KMIV 072154Z AUTO 00000KT 10SM FEW120 26/23 A2982 RMK AO2 SLP095 T02610228,KMIV,2023-07-07T21:54:00Z,39.37,-75.08,26.1,22.8,0,0,,10.0,29.819881,1009.5,,TRUE,TRUE,,,,,,,FEW,12000,,,,,,,VFR,,,,,,,,,,,,METAR,18.0
KMGJ 072154Z AUTO 27003KT 10SM CLR 28/22 A2982 RMK AO2 SLP096 T02780217,KMGJ,2023-07-07T21:54:00Z,41.52,-74.27,27.8,21.7,270,3,,10.0,29.819881,1009.6,,TRUE,TRUE,,,,,,,CLR,,,,,,,,VFR,,,,,,,,,,,,METAR,106.0
KMFI 072154Z AUTO 00000KT 10SM CLR 22/11 A2995 RMK AO2 SLP143 T02220111,KMFI,2023-07-07T21:54:00Z,44.63,-90.18,22.2,11.1,0,0,,10.0,29.949802,1014.3,,TRUE,TRUE,,,,,,,CLR,,,,,,,,VFR,,,,,,,,,,,,METAR,383.0
KMEM 072154Z 00000KT 10SM SCT045 SCT200 29/21 A2992 RMK AO2 SLP126 TCU S AND DSNT NE-SE T02890211,KMEM,2023-07-07T21:54:00Z,35.07,-89.98,28.9,21.1,0,0,,10.0,29.920275,1012.6,,,TRUE,,,,,,,SCT,4500,SCT,20000,,,,,VFR,,,,,,,,,,,,METAR,78.0
KLYH 072154Z 00000KT 10SM CLR 31/22 A2985 RMK AO2 SLP095 T03110222,KLYH,2023-07-07T21:54:00Z,37.32,-79.2,31.1,22.2,0,0,,10.0,29.84941,1009.5,,,TRUE,,,,,,,CLR,,,,,,,,VFR,,,,,,,,,,,,METAR,282.0
KLWT 072154Z AUTO 16008KT 10SM FEW080 FEW090 23/05 A3009 RMK AO2 SLP164 T02280050,KLWT,2023-07-07T21:54:00Z,47.05,-109.47,22.8,5.0,160,8,,10.0,30.088583,1016.4,,TRUE,TRUE,,,,,,,FEW,8000,FEW,9000,,,,,VFR,,,,,,,,,,,,METAR,1254.0
KLWM 072154Z 18006KT 10SM CLR 31/19 A2983 RMK AO2 SLP101 T03060189,KLWM,2023-07-07T21:54:00Z,42.72,-71.13,30.6,18.9,180,6,,10.0,29.828741,1010.1,,,TRUE,,,,,,,CLR,,,,,,,,VFR,,,,,,,,,,,,METAR,42.0
KLNK 072154Z 06007KT 10SM OVC030 23/18 A2990 RMK AO2 LTG DSNT S SLP118 T02280183,KLNK,2023-07-07T21:54:00Z,40.85,-96.77,22.8,18.3,60,7,,10.0,29.899607,1011.8,,,TRUE,,,,,,,OVC,3000,,,,,,,MVFR,,,,,,,,,,,,METAR,357.0
KLEX 072154Z 34003KT 10SM CLR 31/16 A2993 RMK AO2 SLP124 T03110156,KLEX,2023-07-07T21:54:00Z,38.03,-84.6,31.1,15.6,340,3,,10.0,29.929134,1012.4,,,TRUE,,,,,,,CLR,,,,,,,,VFR,,,,,,,,,,,,METAR,294.0
KLAF 072154Z 23006KT 10SM FEW120 28/16 A2992 RMK AO2 SLP127 T02780156,KLAF,2023-07-07T21:54:00Z,40.42,-86.93,27.8,15.6,230,6,,10.0,29.920275,1012.7,,,TRUE,,,,,,,FEW,12000,,,,,,,VFR,,,,,,,,,,,,METAR,182.0
KJST 072154Z AUTO 32009KT 10SM SCT047 25/19 A2994 RMK AO2 SLP124 T02500194,KJST,2023-07-07T21:54:00Z,40.32,-78.83,25.0,19.4,320,9,,10.0,29.940945,1012.4,,TRUE,TRUE,,,,,,,SCT,4700,,,,,,,VFR,,,,,,,,,,,,METAR,695.0
KJAN 072154Z 27006KT 10SM FEW037 SCT047 BKN065 31/23 A2992 RMK AO2 SLP127 T03060233,KJAN,2023-07-07T21:54:00Z,32.32,-90.08,30.6,23.3,270,6,,10.0,29.920275,1012.7,,,TRUE,,,,,,,FEW,3700,SCT,4700,BKN,6500,,,VFR,,,,,,,,,,,,METAR,92.0
KIZG 072154Z AUTO 00000KT 10SM CLR 29/22 A2983 RMK AO2 LTG DSNT W-N SLP100 T02890222,KIZG,2023-07-07T21:54:00Z,43.98,-70.95,28.9,22.2,0,0,,10.0,29.828741,1010.0,,TRUE,TRUE,,,,,,,CLR,,,,,,,,VFR,,,,,,,,,,,,METAR,138.0
KISW 072154Z AUTO 10005KT 10SM CLR 24/07 A2995 RMK AO2 SLP141 T02440072,KISW,2023-07-07T21:54:00Z,44.37,-89.83,24.4,7.2,100,5,,10.0,29.949802,1014.1,,TRUE,TRUE,,,,,,,CLR,,,,,,,,VFR,,,,,,,,,,,,METAR,311.0
KIPT 072154Z 00000KT 10SM TS FEW019 SCT034 OVC043 25/20 A2985 RMK AO2 LTG DSNT ALQDS RAB16E25 TSB14E29B45E53 SLP106 P0000 T02500200,KIPT,2023-07-07T21:54:00Z,41.25,-76.92,25.0,20.0,0,0,,10.0,29.84941,1010.6,,,TRUE,,,,,,TS,FEW,1900,SCT,3400,OVC,4300,,,VFR,,,,,,0.005,,,,,,METAR,160.0
KINT 072154Z 00000KT 10SM VCTS CLR 29/19 A2986 RMK AO2 LTG DSNT E AND SE SLP098 T02940189,KINT,2023-07-07T21:54:00Z,36.13,-80.22,29.4,18.9,0,0,,10.0,29.861221,1009.8,,,TRUE,,,,,,VCTS,CLR,,,,,,,,VFR,,,,,,,,,,,,METAR,292.0
KINL 072154Z AUTO 25008KT 10SM SCT028 BKN040 BKN050 21/14 A2988 RMK AO2 LTG DSNT SW RAE03 TSE04 SLP119 P0000 T02060139,KINL,2023-07-07T21:54:00Z,48.57,-93.4,20.6,13.9,250,8,,10.0,29.878937,1011.9,,TRUE,TRUE,,,,,,,SCT,2800,BKN,4000,BKN,5000,,,VFR,,,,,,0.005,,,,,,METAR,353.0
KIND 072154Z VRB05KT 10SM FEW055 SCT250 28/15 A2993 RMK AO2 SLP127 T02830150,KIND,2023-07-07T21:54:00Z,39.72,-86.27,28.3,15.0,0,5,,10.0,29.929134,1012.7,,,TRUE,,,,,,,FEW,5500,SCT,25000,,,,,VFR,,,,,,,,,,,,METAR,242.0
KIMT 072154Z AUTO 18007KT 10SM FEW065 24/11 A2993 RMK AO2 SLP135 T02390106,KIMT,2023-07-07T21:54:00Z,45.82,-88.12,23.9,10.6,180,7,,10.0,29.929134,1013.5,,TRUE,TRUE,,,,,,,FEW,6500,,,,,,,VFR,,,,,,,,,,,,METAR,343.0
KILN 072154Z AUTO 29005KT 10SM CLR 28/16 A2993 RMK AO2 SLP125 T02780161,KILN,2023-07-07T21:54:00Z,39.43,-83.8,27.8,16.1,290,5,,10.0,29.929134,1012.5,,TRUE,TRUE,,,,,,,CLR,,,,,,,,VFR,,,,,,,,,,,,METAR,325.0
KHWD 072154Z 26015G20KT 10SM BKN013 17/12 A2994 RMK AO2 SLP147 T01670117,KHWD,2023-07-07T21:54:00Z,37.67,-122.12,16.7,11.7,260,15,20,10.0,29.940945,1014.7,,,TRUE,,,,,,,BKN,1300,,,,,,,MVFR,,,,,,,,,,,,METAR,9.0
KGSO 072154Z 29005KT 10SM SCT040 BKN090 BKN250 28/20 A2984 RMK AO2 SLP092 OCNL LTGIC DSNT S CB DSNT SE-SW TCU DSNT ALQDS T02830200,KGSO,2023-07-07T21:54:00Z,36.1,-79.95,28.3,20.0,290,5,,10.0,29.840551,1009.2,,,TRUE,,,,,,,SCT,4000,BKN,9000,BKN,25000,,,VFR,,,,,,,,,,,,METAR,275.0
KGCN 072154Z 22021G27KT 10SM CLR 32/M03 A3010 RMK AO2 PK WND 21034/2104 SLP087 T03171033,KGCN,2023-07-07T21:54:00Z,35.95,-112.15,31.7,-3.3,220,21,27,10.0,30.100393,1008.7,,,TRUE,,,,,,,CLR,,,,,,,,VFR,,,,,,,,,,,,METAR,1993.0
KGCK 072154Z VRB03KT 10SM OVC038 26/20 A2992 RMK AO2 SLP102 T02610200,KGCK,2023-07-07T21:54:00Z,37.92,-100.72,26.1,20.0,0,3,,10.0,29.920275,1010.2,,,TRUE,,,,,,,OVC,3800,,,,,,,VFR,,,,,,,,,,,,METAR,877.0
KFZY 072154Z AUTO 27008KT 10SM BKN020 BKN025 26/21 A2989 RMK AO2 SLP118 T02560206,KFZY,2023-07-07T21:54:00Z,43.35,-76.38,25.6,20.6,270,8,,10.0,29.890747,1011.8,,TRUE,TRUE,,,,,,,BKN,2000,BKN,2500,,,,,MVFR,,,,,,,,,,,,METAR,143.0
KFWA 072154Z 21007KT 10SM FEW065 28/13 A2993 RMK AO2 SLP131 T02830128,KFWA,2023-07-07T21:54:00Z,40.98,-85.2,28.3,12.8,210,7,,10.0,29.929134,1013.1,,,TRUE,,,,,,,FEW,6500,,,,,,,VFR,,,,,,,,,,,,METAR,243.0
KFIG 072154Z AUTO 30007KT 10SM FEW055 28/19 A2991 RMK AO2 SLP117 T02780189,KFIG,2023-07-07T21:54:00Z,41.05,-78.42,27.8,18.9,300,7,,10.0,29.911417,1011.7,,TRUE,TRUE,,,,,,,FEW,5500,,,,,,,VFR,,,,,,,,,,,,METAR,461.0
KFFZ 072154Z 24008G16KT 10SM CLR 41/03 A2971 RMK AO2 SLP030 T04110028,KFFZ,2023-07-07T21:54:00Z,33.47,-111.72,41.1,2.8,240,8,16,10.0,29.71063,1003.0,,,TRUE,,,,,,,CLR,,,,,,,,VFR,,,,,,,,,,,,METAR,420.0
KEWN 072154Z 17008KT 10SM FEW037 SCT055 OVC070 32/24 A2980 RMK AO2 LTG DSNT N SLP090 T03220239,KEWN,2023-07-07T21:54:00Z,35.07,-77.05,32.2,23.9,170,8,,10.0,29.799213,1009.0,,,TRUE,,,,,,,FEW,3700,SCT,5500,OVC,7000,,,VFR,,,,,,,,,,,,METAR,3.0
KEVV 072154Z 24004KT 10SM CLR 31/18 A2992 RMK AO2 SLP127 T03060183 $,KEVV,2023-07-07T21:54:00Z,38.05,-87.52,30.6,18.3,240,4,,10.0,29.920275,1012.7,,,TRUE,TRUE,,,,,,CLR,,,,,,,,VFR,,,,,,,,,,,,METAR,123.0
KEUG 072154Z 20004KT 10SM CLR 23/11 A2991 RMK AO2 SLP128 T02330111,KEUG,2023-07-07T21:54:00Z,44.13,-123.22,23.3,11.1,200,4,,10.0,29.911417,1012.8,,,TRUE,,,,,,,CLR,,,,,,,,VFR,,,,,,,,,,,,METAR,109.0
KECG 072154Z 09004KT 10SM VCTS FEW046 29/24 A2980 RMK AO2 LTG DSNT SW-NW SLP092 T02940239,KECG,2023-07-07T21:54:00Z,36.27,-76.18,29.4,23.9,90,4,,10.0,29.799213,1009.2,,,TRUE,,,,,,VCTS,FEW,4600,,,,,,,VFR,,,,,,,,,,,,METAR,2.0
KDYL 072154Z AUTO 31003KT 10SM CLR 27/21 A2983 RMK AO2 RAE25 SLP094 P0000 T02670211,KDYL,2023-07-07T21:54:00Z,40.33,-75.12,26.7,21.1,310,3,,10.0,29.828741,1009.4,,TRUE,TRUE,,,,,,,CLR,,,,,,,,VFR,,,,,,0.005,,,,,,METAR,121.0
KDSV 072154Z AUTO 34009KT 10SM CLR 27/18 A2990 RMK AO2 SLP127 T02720178,KDSV,2023-07-07T21:54:00Z,42.57,-77.72,27.2,17.8,340,9,,10.0,29.899607,1012.7,,TRUE,TRUE,,,,,,,CLR,,,,,,,,VFR,,,,,,,,,,,,METAR,195.0
KDSM 072154Z 09007KT 10SM OVC021 18/13 A2996 RMK AO2 SLP142 T01830128,KDSM,2023-07-07T21:54:00Z,41.53,-93.67,18.3,12.8,90,7,,10.0,29.958662,1014.2,,,TRUE,,,,,,,OVC,2100,,,,,,,MVFR,,,,,,,,,,,,METAR,286.0
KDMH 072154Z AUTO 32/21 A2981 RMK AO1 SLP094 T03220211,KDMH,2023-07-07T21:54:00Z,39.28,-76.62,32.2,21.1,,,,,29.811024,1009.4,,TRUE,TRUE,,,,,,,,,,,,,,,,,,,,,,,,,,,METAR,4.0
KDEC 072154Z 21006KT 10SM BKN120 27/18 A2995 RMK AO2 SLP139 T02670178,KDEC,2023-07-07T21:54:00Z,39.83,-88.87,26.7,17.8,210,6,,10.0,29.949802,1013.9,,,TRUE,,,,,,,BKN,12000,,,,,,,VFR,,,,,,,,,,,,METAR,205.0
KDDH 072154Z AUTO 32007KT 10SM TS FEW027 SCT033 SCT075 25/20 A2988 RMK AO2 LTG DSNT NE-SE RAE02 TSB49 SLP112 P0000 T02500200,KDDH,2023-07-07T21:54:00Z,42.9,-73.25,25.0,20.0,320,7,,10.0,29.878937,1011.2,,TRUE,TRUE,,,,,,TS,FEW,2700,SCT,3300,SCT,7500,,,VFR,,,,,,0.005,,,,,,METAR,241.0
KCRW 072154Z 32007KT 280V350 10SM SCT045 SCT090 BKN200 29/19 A2990 RMK AO2 SLP115 T02940189,KCRW,2023-07-07T21:54:00Z,38.38,-81.58,29.4,18.9,320,7,,10.0,29.899607,1011.5,,,TRUE,,,,,,,SCT,4500,SCT,9000,BKN,20000,,,VFR,,,,,,,,,,,,METAR,278.0
KCOU 072154Z 05006KT 10SM BKN055 OVC070 29/18 A2989 RMK AO2 SLP113 T02890183,KCOU,2023-07-07T21:54:00Z,38.82,-92.22,28.9,18.3,50,6,,10.0,29.890747,1011.3,,,TRUE,,,,,,,BKN,5500,OVC,7000,,,,,VFR,,,,,,,,,,,,METAR,272.0
KCOS 072154Z VRB06KT 10SM TS BKN040CB BKN070 BKN100 17/13 A3017 RMK AO2 LTG DSNT ALQDS RAE19B35E49 PRESRR SLP152 OCNL LTGIGCG NW-NE TS NW-NE MOV E P0002 T01670133,KCOS,2023-07-07T21:54:00Z,38.82,-104.68,16.7,13.3,0,6,,10.0,30.171259,1015.2,,,TRUE,,,,,,TS,BKN,4000,BKN,7000,BKN,10000,,,VFR,,,,,,0.02,,,,,,METAR,1886.0
KCEU 072154Z AUTO 36004KT 10SM CLR 24/22 A2988 RMK AO2 LTG DSNT SE-SW RAE13 TSE2056 SLP110 P0000 T02440217,KCEU,2023-07-07T21:54:00Z,34.67,-82.88,24.4,21.7,360,4,,10.0,29.878937,1011.0,,TRUE,TRUE,,,,,,,CLR,,,,,,,,VFR,,,,,,0.005,,,,,,METAR,270.0
KBWI 072154Z 13005KT 10SM SCT035CB SCT060 BKN130 BKN240 31/22 A2981 RMK AO2 SLP092 CB OHD-NW MOV SE T03060222,KBWI,2023-07-07T21:54:00Z,39.17,-76.68,30.6,22.2,130,5,,10.0,29.811024,1009.2,,,TRUE,,,,,,,SCT,3500,SCT,6000,BKN,13000,BKN,24000,VFR,,,,,,,,,,,,METAR,42.0
KBUY 072154Z AUTO 18003KT 10SM VCTS SCT055 SCT065 29/21 A2983 RMK AO2 LTG DSNT NE AND SW TSB16E31 SLP093 T02890206,KBUY,2023-07-07T21:54:00Z,36.05,-79.47,28.9,20.6,180,3,,10.0,29.828741,1009.3,,TRUE,TRUE,,,,,,VCTS,SCT,5500,SCT,6500,,,,,VFR,,,,,,,,,,,,METAR,185.0
KBUF 072154Z 22011KT 10SM BKN055 BKN095 BKN270 25/16 A2990 RMK AO2 SLP120 T02500156,KBUF,2023-07-07T21:54:00Z,42.93,-78.73,25.0,15.6,220,11,,10.0,29.899607,1012.0,,,TRUE,,,,,,,BKN,5500,BKN,9500,BKN,27000,,,VFR,,,,,,,,,,,,METAR,217.0
KBTV 072154Z 00000KT 10SM FEW021 OVC110 24/21 A2986 RMK AO2 LTG DSNT NW RAB2055E53 SLP108 P0000 T02390211,KBTV,2023-07-07T21:54:00Z,44.47,-73.15,23.9,21.1,0,0,,10.0,29.861221,1010.8,,,TRUE,,,,,,,FEW,2100,OVC,11000,,,,,VFR,,,,,,0.005,,,,,,METAR,101.0
KBOS 072154Z 18010KT 10SM FEW220 BKN250 29/19 A2983 RMK AO2 SLP100 T02890189,KBOS,2023-07-07T21:54:00Z,42.37,-71.02,28.9,18.9,180,10,,10.0,29.828741,1010.0,,,TRUE,,,,,,,FEW,22000,BKN,25000,,,,,VFR,,,,,,,,,,,,METAR,4.0
KBFL 072154Z 31008KT 7SM CLR 33/09 A2979 RMK AO2 SLP079 T03330089 $,KBFL,2023-07-07T21:54:00Z,35.43,-119.05,33.3,8.9,310,8,,7.0,29.790354,1007.9,,,TRUE,TRUE,,,,,,CLR,,,,,,,,VFR,,,,,,,,,,,,METAR,146.0
KAVL 072154Z 18005KT 10SM CLR 26/20 A2995 RMK AO2 SLP114 T02560200,KAVL,2023-07-07T21:54:00Z,35.43,-82.53,25.6,20.0,180,5,,10.0,29.949802,1011.4,,,TRUE,,,,,,,CLR,,,,,,,,VFR,,,,,,,,,,,,METAR,646.0
KAUW 072154Z AUTO 27005KT 10SM CLR 23/09 A2994 RMK AO2 SLP140 T02330094,KAUW,2023-07-07T21:54:00Z,44.93,-89.62,23.3,9.4,270,5,,10.0,29.940945,1014.0,,TRUE,TRUE,,,,,,,CLR,,,,,,,,VFR,,,,,,,,,,,,METAR,367.0
KAPN 072154Z AUTO VRB03KT 10SM CLR 24/08 A2993 RMK AO2 SLP134 T02440083,KAPN,2023-07-07T21:54:00Z,45.07,-83.57,24.4,8.3,0,3,,10.0,29.929134,1013.4,,TRUE,TRUE,,,,,,,CLR,,,,,,,,VFR,,,,,,,,,,,,METAR,208.0
KAPC 072154Z 19015G21KT 10SM CLR 23/12 A2986 RMK AO2 SLP102 T02280122,KAPC,2023-07-07T21:54:00Z,38.2,-122.28,22.8,12.2,190,15,21,10.0,29.861221,1010.2,,,TRUE,,,,,,,CLR,,,,,,,,VFR,,,,,,,,,,,,METAR,5.0
KALO 072154Z 36004KT 10SM OVC070 21/12 A2997 RMK AO2 SLP146 T02060122,KALO,2023-07-07T21:54:00Z,42.55,-92.4,20.6,12.2,360,4,,10.0,29.970472,1014.6,,,TRUE,,,,,,,OVC,7000,,,,,,,VFR,,,,,,,,,,,,METAR,264.0
KAKR 072154Z AUTO 36009KT 10SM CLR 26/15 A2995 RMK AO2 SLP132 T02610150,KAKR,2023-07-07T21:54:00Z,41.03,-81.47,26.1,15.0,360,9,,10.0,29.949802,1013.2,,TRUE,TRUE,,,,,,,CLR,,,,,,,,VFR,,,,,,,,,,,,METAR,319.0
KAKQ 072154Z AUTO 21003KT 10SM -RA FEW090 SCT110 26/22 A2981 RMK AO2 RAB49 SLP095 P0000 T02610222,KAKQ,2023-07-07T21:54:00Z,36.98,-77.0,26.1,22.2,210,3,,10.0,29.811024,1009.5,,TRUE,TRUE,,,,,,-RA,FEW,9000,SCT,11000,,,,,VFR,,,,,,0.005,,,,,,METAR,34.0
KAKH 072154Z AUTO VRB05KT 10SM TS FEW110 29/20 A2984 RMK AO2 LTG DSNT E-SW TSB23E44B52 SLP097 T02890200,KAKH,2023-07-07T21:54:00Z,35.2,-81.15,28.9,20.0,0,5,,10.0,29.840551,1009.7,,TRUE,TRUE,,,,,,TS,FEW,11000,,,,,,,VFR,,,,,,,,,,,,METAR,242.0
KACY 072154Z 17006KT 10SM CLR 26/22 A2983 RMK AO2 SLP099 T02610217,KACY,2023-07-07T21:54:00Z,39.45,-74.57,26.1,21.7,170,6,,10.0,29.828741,1009.9,,,TRUE,,,,,,,CLR,,,,,,,,VFR,,,,,,,,,,,,METAR,18.0
KAAO 072154Z AUTO 24005KT 10SM VCTS FEW049 BKN095 BKN110 22/18 A2994 RMK AO2 LTG DSNT SE-W RAB29E40 TSB07E31 SLP130 P0000 T02170183,KAAO,2023-07-07T21:54:00Z,37.75,-97.22,21.7,18.3,240,5,,10.0,29.940945,1013.0,,TRUE,TRUE,,,,,,VCTS,FEW,4900,BKN,9500,BKN,11000,,,VFR,,,,,,0.005,,,,,,METAR,429.0
K1V4 072154Z AUTO 21/20 A2987 RMK AO1 SLP107 P0001 T02110200,K1V4,2023-07-07T21:54:00Z,44.42,-72.02,21.1,20.0,,,,,29.870079,1010.7,,TRUE,TRUE,,,,,,,,,,,,,,,,,,,,,0.01,,,,,,METAR,213.0
K12N 072154Z AUTO 20003KT 29/22 A2983 RMK AO1 SLP093 T02890222,K12N,2023-07-07T21:54:00Z,41.02,-74.73,28.9,22.2,200,3,,,29.828741,1009.3,,TRUE,TRUE,,,,,,,,,,,,,,,,,,,,,,,,,,,METAR,178.0
CYWK 072154Z 30006KT 12SM -SHRA FEW050CB OVC140 19/18 A2975 RMK CB2AC6 CB N MOVNG E SLP079 DENSITY ALT 2900FT,CYWK,2023-07-07T21:54:00Z,52.92,-66.87,19.0,18.0,300,6,,12.0,29.749016,1007.9,,,,,,,,,-SHRA,FEW,5000,OVC,14000,,,,,VFR,,,,,,,,,,,,SPECI,547.0
TJNR 072153Z AUTO 07006KT 3SM -RA SCT038 BKN048 OVC075 28/25 A2999 RMK AO2 RAB26 SLP156 P0000 T02780250,TJNR,2023-07-07T21:53:00Z,18.25,-65.63,27.8,25.0,70,6,,3.0,29.991142,1015.6,,TRUE,TRUE,,,,,,-RA,SCT,3800,BKN,4800,OVC,7500,,,MVFR,,,,,,0.005,,,,,,METAR,7.0
TISX 072153Z 07013KT 10SM SCT035 29/22 A2997 RMK AO2 WSHFT 2103 SLP146 T02940222,TISX,2023-07-07T21:53:00Z,17.7,-64.8,29.4,22.2,70,13,,10.0,29.970472,1014.6,,,TRUE,,,,,,,SCT,3500,,,,,,,VFR,,,,,,,,,,,,METAR,16.0
PTSA 072153Z VRB03KT 10SM BKN020 BKN130 BKN300 30/25 A2976 RMK FIRST,PTSA,2023-07-07T21:53:00Z,5.35,162.95,30.0,25.0,0,3,,10.0,29.760826,,,,,,,,,,,BKN,2000,BKN,13000,BKN,30000,,,MVFR,,,,,,,,,,,,METAR,3.0
PHTO 072153Z 35006KT 10SM FEW029 BKN046 OVC055 26/20 A3008 RMK AO2 SLP186 T02610200,PHTO,2023-07-07T21:53:00Z,19.72,-155.05,26.1,20.0,350,6,,10.0,30.079725,1018.6,,,TRUE,,,,,,,FEW,2900,BKN,4600,OVC,5500,,,VFR,,,,,,,,,,,,METAR,9.0
PHNL 072153Z 05015G27KT 10SM FEW025 SCT040 BKN055 26/20 A3009 RMK AO2 PK WND 07028/2140 SLP187 VCSH NE T02610200,PHNL,2023-07-07T21:53:00Z,21.33,-157.93,26.1,20.0,50,15,27,10.0,30.088583,1018.7,,,TRUE,,,,,,,FEW,2500,SCT,4000,BKN,5500,,,VFR,,,,,,,,,,,,METAR,2.0
PHLI 072153Z 06014KT 10SM BKN070 30/20 A3012 RMK AO2 SLP195 T03000200,PHLI,2023-07-07T21:53:00Z,21.97,-159.33,30.0,20.0,60,14,,10.0,30.121063,1019.5,,,TRUE,,,,,,,BKN,7000,,,,,,,VFR,,,,,,,,,,,,METAR,32.0
PHKO 072153Z 20010KT 10SM FEW045 BKN060 28/20 A3004 RMK AO2 SLP173 T02780200 $,PHKO,2023-07-07T21:53:00Z,19.73,-156.05,27.8,20.0,200,10,,10.0,30.041338,1017.3,,,TRUE,TRUE,,,,,,FEW,4500,BKN,6000,,,,,VFR,,,,,,,,,,,,METAR,11.0
PHJR 072153Z 09011G19KT 10SM SCT037 BKN047 OVC055 29/18 A3008 RMK AO2 SLP193 T02890183,PHJR,2023-07-07T21:53:00Z,21.32,-158.07,28.9,18.3,90,11,19,10.0,30.079725,1019.3,,,TRUE,,,,,,,SCT,3700,BKN,4700,OVC,5500,,,VFR,,,,,,,,,,,,METAR,9.0
PAYA 072153Z AUTO 23008KT 10SM CLR 16/12 A3000 RMK AO2 SLP160 T01610122 TSNO,PAYA,2023-07-07T21:53:00Z,59.52,-139.67,16.1,12.2,230,8,,10.0,30.0,1016.0,,TRUE,TRUE,,,TRUE,,,,CLR,,,,,,,,VFR,,,,,,,,,,,,METAR,9.0
PAWI 072153Z AUTO 02011KT 10SM BKN003 11/08 A2967 RMK AO2 SLP046 T01060083 TSNO $,PAWI,2023-07-07T21:53:00Z,70.63,-160.02,10.6,8.3,20,11,,10.0,29.66929,1004.6,,TRUE,TRUE,TRUE,,TRUE,,,,BKN,300,,,,,,,LIFR,,,,,,,,,,,,METAR,12.0
PAWD 072153Z AUTO 18010KT 10SM OVC033 11/07 A3001 RMK AO2 SLP163 T01060072 TSNO,PAWD,2023-07-07T21:53:00Z,60.12,-149.42,10.6,7.2,180,10,,10.0,30.008858,1016.3,,TRUE,TRUE,,,TRUE,,,,OVC,3300,,,,,,,VFR,,,,,,,,,,,,METAR,3.0
PAVL 072153Z AUTO 18007KT OVC002 13/12 A2966 RMK AO2 SLP043 T01280122 TSNO $,PAVL,2023-07-07T21:53:00Z,67.73,-164.55,12.8,12.2,180,7,,,29.660433,1004.3,,TRUE,TRUE,TRUE,,TRUE,,,,OVC,200,,,,,,,,,,,,,,,,,,,METAR,6.0
PATO 072153Z AUTO 14008G20KT 9SM FEW009 BKN034 OVC043 13/13 A2997 RMK AO2 SLP148 T01330133 TSNO,PATO,2023-07-07T21:53:00Z,60.78,-148.85,13.3,13.3,140,8,20,9.0,29.970472,1014.8,,TRUE,TRUE,,,TRUE,,,,FEW,900,BKN,3400,OVC,4300,,,VFR,,,,,,,,,,,,METAR,47.0
PATK 072153Z 18010KT 10SM FEW008 BKN026 OVC033 13/12 A2991 RMK AO2 RAB07E49 SLP130 P0001 T01330117,PATK,2023-07-07T21:53:00Z,62.32,-150.1,13.3,11.7,180,10,,10.0,29.911417,1013.0,,,TRUE,,,,,,,FEW,800,BKN,2600,OVC,3300,,,MVFR,,,,,,0.01,,,,,,METAR,107.0
PASO 072153Z AUTO VRB06KT 10SM SCT043 OVC110 14/09 A2998 RMK AO2 SLP152 T01390094 TSNO,PASO,2023-07-07T21:53:00Z,59.45,-151.7,13.9,9.4,0,6,,10.0,29.97933,1015.2,,TRUE,TRUE,,,TRUE,,,,SCT,4300,OVC,11000,,,,,VFR,,,,,,,,,,,,METAR,20.0
PASI 072153Z 30006KT 10SM CLR 19/12 A2989 RMK AO2 SLP120 T01890122,PASI,2023-07-07T21:53:00Z,57.03,-135.35,18.9,12.2,300,6,,10.0,29.890747,1012.0,,,TRUE,,,,,,,CLR,,,,,,,,VFR,,,,,,,,,,,,METAR,2.0
PASC 072153Z 08010KT 10SM FEW025 SCT080 BKN230 17/11 A2971 RMK AO2 SLP062 T01720111,PASC,2023-07-07T21:53:00Z,70.2,-148.47,17.2,11.1,80,10,,10.0,29.71063,1006.2,,,TRUE,,,,,,,FEW,2500,SCT,8000,BKN,23000,,,VFR,,,,,,,,,,,,METAR,17.0
PAQT 072153Z AUTO 32007KT 10SM FEW036 21/12 A2971 RMK AO2 SLP062 T02110117 TSNO,PAQT,2023-07-07T21:53:00Z,70.22,-151.0,21.1,11.7,320,7,,10.0,29.71063,1006.2,,TRUE,TRUE,,,TRUE,,,,FEW,3600,,,,,,,VFR,,,,,,,,,,,,METAR,11.0
PAOT 072153Z 23009KT 10SM -RA BKN007 OVC011 11/11 A2970 RMK AO2 SLP057 P0002 T01110111,PAOT,2023-07-07T21:53:00Z,66.88,-162.6,11.1,11.1,230,9,,10.0,29.698818,1005.7,,,TRUE,,,,,,-RA,BKN,700,OVC,1100,,,,,IFR,,,,,,0.02,,,,,,METAR,3.0
PAOR 072153Z VRB03KT 10SM FEW120 BKN200 28/12 A2976 RMK AO2 SLP063 ACSL DSNT S T02780117,PAOR,2023-07-07T21:53:00Z,62.97,-141.93,27.8,11.7,0,3,,10.0,29.760826,1006.3,,,TRUE,,,,,,,FEW,12000,BKN,20000,,,,,VFR,,,,,,,,,,,,METAR,524.0
PAOM 072153Z 22004KT 10SM CLR 12/07 A2974 RMK AO2 SLP070 T01220072,PAOM,2023-07-07T21:53:00Z,64.5,-165.43,12.2,7.2,220,4,,10.0,29.740158,1007.0,,,TRUE,,,,,,,CLR,,,,,,,,VFR,,,,,,,,,,,,METAR,6.0
PANN 072153Z AUTO 32008KT 10SM CLR 21/14 A2972 RMK AO2 SLP068 T02110139 TSNO $,PANN,2023-07-07T21:53:00Z,64.55,-149.08,21.1,13.9,320,8,,10.0,29.719488,1006.8,,TRUE,TRUE,TRUE,,TRUE,,,,CLR,,,,,,,,VFR,,,,,,,,,,,,METAR,110.0
PANC 072153Z 25008KT 7SM OVC026 12/07 A2996 RMK AO2 SLP147 T01170072,PANC,2023-07-07T21:53:00Z,61.17,-150.02,11.7,7.2,250,8,,7.0,29.958662,1014.7,,,TRUE,,,,,,,OVC,2600,,,,,,,MVFR,,,,,,,,,,,,METAR,39.0
PAMR 072153Z COR 23004KT 10SM SCT010 OVC021 11/09 A2996 RMK AO2 RAE25 SLP147 CIG VIS LWR NE-S P0001 T01110089,PAMR,2023-07-07T21:53:00Z,61.22,-149.85,11.1,8.9,230,4,,10.0,29.958662,1014.7,TRUE,,TRUE,,,,,,,SCT,1000,OVC,2100,,,,,MVFR,,,,,,0.01,,,,,,METAR,43.0
PAMC 072153Z 19005KT 10SM -RA SCT023 SCT050 OVC080 12/09 A2985 RMK AO2 SLP112 P0000 T01220094,PAMC,2023-07-07T21:53:00Z,62.97,-155.62,12.2,9.4,190,5,,10.0,29.84941,1011.2,,,TRUE,,,,,,-RA,SCT,2300,SCT,5000,OVC,8000,,,VFR,,,,,,0.005,,,,,,METAR,101.0
PALH 072153Z 27008KT 10SM OVC021 11/08 A2997 RMK AO2 RAB2059E12 SLP150 P0001 T01110083,PALH,2023-07-07T21:53:00Z,61.18,-149.97,11.1,8.3,270,8,,10.0,29.970472,1015.0,,,TRUE,,,,,,,OVC,2100,,,,,,,MVFR,,,,,,0.01,,,,,,METAR,26.0
PAKV 072153Z AUTO VRB03KT 3SM -RA BR FEW019 BKN042 OVC050 12/11 A2981 RMK AO2 RAB27 SLP098 P0002 T01220106 TSNO $,PAKV,2023-07-07T21:53:00Z,64.33,-158.72,12.2,10.6,0,3,,3.0,29.811024,1009.8,,TRUE,TRUE,TRUE,,TRUE,,,-RA BR,FEW,1900,BKN,4200,OVC,5000,,,MVFR,,,,,,0.02,,,,,,METAR,53.0
PAKT 072153Z 33010KT 10SM CLR 23/13 A2986 RMK AO2 SLP110 HARBOR WIND 28008KT T02330128,PAKT,2023-07-07T21:53:00Z,55.35,-131.72,23.3,12.8,330,10,,10.0,29.861221,1011.0,,,TRUE,,,,,,,CLR,,,,,,,,VFR,,,,,,,,,,,,METAR,27.0
PAJN 072153Z 24006KT 10SM CLR 26/11 A2987 RMK AO2 SLP115 T02610111,PAJN,2023-07-07T21:53:00Z,58.35,-134.55,26.1,11.1,240,6,,10.0,29.870079,1011.5,,,TRUE,,,,,,,CLR,,,,,,,,VFR,,,,,,,,,,,,METAR,6.0
PAHO 072153Z 19009KT 10SM FEW038 BKN050 BKN120 14/08 A2998 RMK AO2 SLP154 T01440078,PAHO,2023-07-07T21:53:00Z,59.63,-151.48,14.4,7.8,190,9,,10.0,29.97933,1015.4,,,TRUE,,,,,,,FEW,3800,BKN,5000,BKN,12000,,,VFR,,,,,,,,,,,,METAR,6.0
PAGY 072153Z AUTO 24006KT 10SM CLR 21/12 A2982 RMK AO2 SLP096 T02110117 TSNO,PAGY,2023-07-07T21:53:00Z,59.47,-135.32,21.1,11.7,240,6,,10.0,29.819881,1009.6,,TRUE,TRUE,,,TRUE,,,,CLR,,,,,,,,VFR,,,,,,,,,,,,METAR,7.0
PAGK 072153Z AUTO 16019G29KT 10SM CLR 24/11 A2982 RMK AO2 PK WND 17032/2140 SLP088 T02390106 TSNO,PAGK,2023-07-07T21:53:00Z,62.15,-145.45,23.9,10.6,160,19,29,10.0,29.819881,1008.8,,TRUE,TRUE,,,TRUE,,,,CLR,,,,,,,,VFR,,,,,,,,,,,,METAR,481.0
PAFA 072153Z 05004KT 10SM SCT065 BKN110 BKN180 22/15 A2973 RMK AO2 SLP069 T02170150,PAFA,2023-07-07T21:53:00Z,64.8,-147.87,21.7,15.0,50,4,,10.0,29.731298,1006.9,,,TRUE,,,,,,,SCT,6500,BKN,11000,BKN,18000,,,VFR,,,,,,,,,,,,METAR,130.0
PAEN 072153Z 22008KT 10SM OVC046 11/07 A2996 RMK AO2 SLP147 T01110072,PAEN,2023-07-07T21:53:00Z,60.57,-151.25,11.1,7.2,220,8,,10.0,29.958662,1014.7,,,TRUE,,,,,,,OVC,4600,,,,,,,VFR,,,,,,,,,,,,METAR,30.0
PAEG 072153Z AUTO VRB05KT 10SM FEW090 32/10 A2968 RMK AO2 SLP045 T03220100 TSNO $,PAEG,2023-07-07T21:53:00Z,64.78,-141.15,32.2,10.0,0,5,,10.0,29.681103,1004.5,,TRUE,TRUE,TRUE,,TRUE,,,,FEW,9000,,,,,,,VFR,,,,,,,,,,,,METAR,273.0
PADQ 072153Z COR 18012KT 10SM BKN034 13/07 A2999 RMK AO2 SLP157 T01330067,PADQ,2023-07-07T21:53:00Z,57.75,-152.5,13.3,6.7,180,12,,10.0,29.991142,1015.7,TRUE,,TRUE,,,,,,,BKN,3400,,,,,,,VFR,,,,,,,,,,,,METAR,5.0
PADE 072153Z AUTO 35005KT BKN035 OVC050 13/10 A2969 RMK AO2 SLP055 T01330100 TSNO $,PADE,2023-07-07T21:53:00Z,66.07,-162.77,13.3,10.0,350,5,,,29.68996,1005.5,,TRUE,TRUE,TRUE,,TRUE,,,,BKN,3500,OVC,5000,,,,,,,,,,,,,,,,,METAR,5.0
PACV 072153Z 24005KT 10SM SCT012 BKN016 BKN027 14/11 A3004 RMK AO2 SLP172 T01390111,PACV,2023-07-07T21:53:00Z,60.5,-145.47,13.9,11.1,240,5,,10.0,30.041338,1017.2,,,TRUE,,,,,,,SCT,1200,BKN,1600,BKN,2700,,,MVFR,,,,,,,,,,,,METAR,15.0
PACD 072153Z 15020G26KT 10SM BKN031 13/09 A2989 RMK AO2 PK WND 15028/2138 SLP123 T01330094,PACD,2023-07-07T21:53:00Z,55.22,-162.72,13.3,9.4,150,20,26,10.0,29.890747,1012.3,,,TRUE,,,,,,,BKN,3100,,,,,,,VFR,,,,,,,,,,,,METAR,23.0
PABT 072153Z 19004KT 10SM -RA FEW024 BKN043 OVC100 18/13 A2975 RMK AO2 RAB49 SLP081 P0000 T01830133 $,PABT,2023-07-07T21:53:00Z,66.92,-151.52,18.3,13.3,190,4,,10.0,29.749016,1008.1,,,TRUE,TRUE,,,,,-RA,FEW,2400,BKN,4300,OVC,10000,,,VFR,,,,,,0.005,,,,,,METAR,195.0
PABR 072153Z 07009KT 1SM R08/P6000FT BR OVC002 07/06 A2968 RMK AO2 RAE2055 SLP050 P0000 T00670061 $,PABR,2023-07-07T21:53:00Z,71.28,-156.78,6.7,6.1,70,9,,1.0,29.681103,1005.0,,,TRUE,TRUE,,,,,BR,OVC,200,,,,,,,LIFR,,,,,,0.005,,,,,,METAR,6.0
PABI 072153Z 19019G28KT 10SM SCT045 BKN100 BKN140 26/08 A2973 RMK AO2 PK WND 19028/2148 SLP059 ACSL DSNT E-SE T02560083,PABI,2023-07-07T21:53:00Z,64.0,-145.72,25.6,8.3,190,19,28,10.0,29.731298,1005.9,,,TRUE,,,,,,,SCT,4500,BKN,10000,BKN,14000,,,VFR,,,,,,,,,,,,METAR,388.0
PABE 072153Z 20010KT 10SM -RA FEW022 BKN028 OVC050 11/08 A2985 RMK AO2 RAB39 SLP108 P0000 T01060083,PABE,2023-07-07T21:53:00Z,60.78,-161.83,10.6,8.3,200,10,,10.0,29.84941,1010.8,,,TRUE,,,,,,-RA,FEW,2200,BKN,2800,OVC,5000,,,MVFR,,,,,,0.005,,,,,,METAR,28.0
PAAQ 072153Z 24010KT 4SM HZ OVC014 12/08 A2995 RMK AO2 SLP144 T01220083,PAAQ,2023-07-07T21:53:00Z,61.6,-149.08,12.2,8.3,240,10,,4.0,29.949802,1014.4,,,TRUE,,,,,,HZ,OVC,1400,,,,,,,MVFR,,,,,,,,,,,,METAR,68.0
MTCH 072153Z 05014KT 8000 FEW024CB 30/24 Q1014 RMK: CB/SW,MTCH,2023-07-07T21:53:00Z,19.75,-72.18,30.0,24.0,50,14,,4.97,29.940945,,,,,,,,,,,FEW,2400,,,,,,,MVFR,,,,,,,,,,,,METAR,3.0
KZZV 072153Z AUTO VRB03KT 10SM FEW044 SCT060 29/19 A2992 RMK AO2 SLP123 T02890189,KZZV,2023-07-07T21:53:00Z,39.95,-81.9,28.9,18.9,0,3,,10.0,29.920275,1012.3,,TRUE,TRUE,,,,,,,FEW,4400,SCT,6000,,,,,VFR,,,,,,,,,,,,METAR,268.0
KYKM 072153Z AUTO 15010G15KT 10SM CLR 36/08 A2974 RMK AO2 SLP059 T03560078,KYKM,2023-07-07T21:53:00Z,46.57,-120.53,35.6,7.8,150,10,15,10.0,29.740158,1005.9,,TRUE,TRUE,,,,,,,CLR,,,,,,,,VFR,,,,,,,,,,,,METAR,319.0
KYIP 072153Z 06003KT 10SM SCT065 26/13 A2994 RMK AO2 SLP132 T02610128,KYIP,2023-07-07T21:53:00Z,42.23,-83.53,26.1,12.8,60,3,,10.0,29.940945,1013.2,,,TRUE,,,,,,,SCT,6500,,,,,,,VFR,,,,,,,,,,,,METAR,215.0
KXVG 072153Z AUTO 00000KT 4SM RA SCT016 BKN024 OVC060 14/14 A2996 RMK AO2 LTG DSNT SW P0024,KXVG,2023-07-07T21:53:00Z,46.98,-94.2,14.0,14.0,0,0,,4.0,29.958662,,,TRUE,TRUE,,,,,,RA,SCT,1600,BKN,2400,OVC,6000,,,MVFR,,,,,,0.24,,,,,,METAR,407.0
KXNA 072153Z 19009KT 10SM CLR 29/21 A2990 RMK AO2 SLP111 T02890211,KXNA,2023-07-07T21:53:00Z,36.28,-94.3,28.9,21.1,190,9,,10.0,29.899607,1011.1,,,TRUE,,,,,,,CLR,,,,,,,,VFR,,,,,,,,,,,,METAR,390.0
KWVI 072153Z AUTO 23006KT 10SM CLR 20/12 A2993 RMK AO2 SLP134 T02000122,KWVI,2023-07-07T21:53:00Z,36.93,-121.78,20.0,12.2,230,6,,10.0,29.929134,1013.4,,TRUE,TRUE,,,,,,,CLR,,,,,,,,VFR,,,,,,,,,,,,METAR,47.0
KWST 072153Z AUTO 15004KT 1/2SM FG OVC002 22/22 A2987 RMK AO2 SLP114 T02220217,KWST,2023-07-07T21:53:00Z,41.35,-71.8,22.2,21.7,150,4,,0.5,29.870079,1011.4,,TRUE,TRUE,,,,,,FG,OVC,200,,,,,,,LIFR,,,,,,,,,,,,METAR,20.0
KWRL 072153Z AUTO 29005KT 10SM CLR 22/08 A3006 RMK AO2 SLP154 T02170078,KWRL,2023-07-07T21:53:00Z,43.97,-107.95,21.7,7.8,290,5,,10.0,30.059055,1015.4,,TRUE,TRUE,,,,,,,CLR,,,,,,,,VFR,,,,,,,,,,,,METAR,1281.0
KVUO 072153Z AUTO VRB03KT 10SM CLR A2993 RMK AO2 SLP137 $,KVUO,2023-07-07T21:53:00Z,45.62,-122.65,,,0,3,,10.0,29.929134,1013.7,,TRUE,TRUE,TRUE,,,,,,CLR,,,,,,,,VFR,,,,,,,,,,,,METAR,7.0
KVRB 072153Z 12003KT 10SM VCTS FEW060 BKN095 BKN110 26/23 A2994 RMK AO2 LTG DSNT ALQDS RAE2059B33E52 TSE04 SLP138 P0001 T02560233,KVRB,2023-07-07T21:53:00Z,27.65,-80.42,25.6,23.3,120,3,,10.0,29.940945,1013.8,,,TRUE,,,,,,VCTS,FEW,6000,BKN,9500,BKN,11000,,,VFR,,,,,,0.01,,,,,,METAR,7.0
KVLD 072153Z 20005KT 10SM VCTS FEW048 BKN060 BKN070 29/25 A2985 RMK AO2 LTG DSNT SE-W RAB27E41 SLP115 P0001 T02940250,KVLD,2023-07-07T21:53:00Z,30.78,-83.27,29.4,25.0,200,5,,10.0,29.84941,1011.5,,,TRUE,,,,,,VCTS,FEW,4800,BKN,6000,BKN,7000,,,VFR,,,,,,0.01,,,,,,METAR,59.0
KVGT 072153Z 11010KT 10SM CLR 39/00 A2970 RMK AO2 SLP043 T03940000,KVGT,2023-07-07T21:53:00Z,36.22,-115.2,39.4,0.0,110,10,,10.0,29.698818,1004.3,,,TRUE,,,,,,,CLR,,,,,,,,VFR,,,,,,,,,,,,METAR,664.0
KVEL 072153Z AUTO 36006KT 10SM CLR 31/03 A2995 RMK AO2 SLP070 T03110028,KVEL,2023-07-07T21:53:00Z,40.45,-109.52,31.1,2.8,360,6,,10.0,29.949802,1007.0,,TRUE,TRUE,,,,,,,CLR,,,,,,,,VFR,,,,,,,,,,,,METAR,1604.0
KVCB 072153Z AUTO 19011G17KT 10SM CLR 29/14 A2980 RMK AO2 SLP089 T02940139,KVCB,2023-07-07T21:53:00Z,38.38,-121.95,29.4,13.9,190,11,17,10.0,29.799213,1008.9,,TRUE,TRUE,,,,,,,CLR,,,,,,,,VFR,,,,,,,,,,,,METAR,30.0
KUUU 072153Z AUTO 17004KT 10SM FEW010 24/22 A2987 RMK AO2 SLP113 T02390217,KUUU,2023-07-07T21:53:00Z,41.53,-71.28,23.9,21.7,170,4,,10.0,29.870079,1011.3,,TRUE,TRUE,,,,,,,FEW,1000,,,,,,,VFR,,,,,,,,,,,,METAR,45.0
KUTS 072153Z AUTO 21008G16KT 10SM CLR 33/21 A2993 RMK AO2 SLP130 T03280211,KUTS,2023-07-07T21:53:00Z,30.75,-95.58,32.8,21.1,210,8,16,10.0,29.929134,1013.0,,TRUE,TRUE,,,,,,,CLR,,,,,,,,VFR,,,,,,,,,,,,METAR,103.0
KUNV 072153Z 36003KT 10SM SCT044 SCT050 26/21 A2989,KUNV,2023-07-07T21:53:00Z,40.85,-77.83,26.0,21.0,360,3,,10.0,29.890747,,,,,,,,,,,SCT,4400,SCT,5000,,,,,VFR,,,,,,,,,,,,METAR,365.0
KUIL 072153Z AUTO VRB06KT 10SM OVC020 18/11 A2995 RMK AO2 SLP141 T01830111,KUIL,2023-07-07T21:53:00Z,47.93,-124.55,18.3,11.1,0,6,,10.0,29.949802,1014.1,,TRUE,TRUE,,,,,,,OVC,2000,,,,,,,MVFR,,,,,,,,,,,,METAR,58.0
KUAO 072153Z VRB05KT 10SM CLR 23/12 A2991 RMK AO2 SLP128 T02330122,KUAO,2023-07-07T21:53:00Z,45.25,-122.77,23.3,12.2,0,5,,10.0,29.911417,1012.8,,,TRUE,,,,,,,CLR,,,,,,,,VFR,,,,,,,,,,,,METAR,60.0
KTYS 072153Z 33005KT 10SM FEW050 32/18 A2988 RMK AO2 SLP106 T03170178,KTYS,2023-07-07T21:53:00Z,35.82,-83.98,31.7,17.8,330,5,,10.0,29.878937,1010.6,,,TRUE,,,,,,,FEW,5000,,,,,,,VFR,,,,,,,,,,,,METAR,300.0
KTYR 072153Z 21020G24KT 10SM CLR 34/21 A2988 RMK AO2 SLP111 T03440211,KTYR,2023-07-07T21:53:00Z,32.37,-95.4,34.4,21.1,210,20,24,10.0,29.878937,1011.1,,,TRUE,,,,,,,CLR,,,,,,,,VFR,,,,,,,,,,,,METAR,161.0
KTXK 072153Z 21010KT 10SM FEW046 35/23 A2989 RMK AO2 SLP115 T03500228,KTXK,2023-07-07T21:53:00Z,33.45,-93.98,35.0,22.8,210,10,,10.0,29.890747,1011.5,,,TRUE,,,,,,,FEW,4600,,,,,,,VFR,,,,,,,,,,,,METAR,118.0
KTWF 072153Z 10009KT 10SM CLR 31/08 A2988 RMK AO2 LTG DSNT S SLP060 T03060083,KTWF,2023-07-07T21:53:00Z,42.48,-114.48,30.6,8.3,100,9,,10.0,29.878937,1006.0,,,TRUE,,,,,,,CLR,,,,,,,,VFR,,,,,,,,,,,,METAR,1269.0
KTVR 072153Z AUTO 31005KT 10SM CLR 32/24 A2991 RMK AO2 SLP135 T03220239,KTVR,2023-07-07T21:53:00Z,32.35,-91.03,32.2,23.9,310,5,,10.0,29.911417,1013.5,,TRUE,TRUE,,,,,,,CLR,,,,,,,,VFR,,,,,,,,,,,,METAR,25.0
KTVL 072153Z AUTO 10SM CLR 24/04 A3005 RMK AO2 SLP120 T02390039,KTVL,2023-07-07T21:53:00Z,38.9,-120.0,23.9,3.9,,,,10.0,30.050198,1012.0,,TRUE,TRUE,,,,,,,CLR,,,,,,,,VFR,,,,,,,,,,,,METAR,1907.0
KTVC 072153Z 04007KT 10SM FEW050 SCT250 22/13 A2994 RMK AO2 SLP136 T02220128,KTVC,2023-07-07T21:53:00Z,44.73,-85.58,22.2,12.8,40,7,,10.0,29.940945,1013.6,,,TRUE,,,,,,,FEW,5000,SCT,25000,,,,,VFR,,,,,,,,,,,,METAR,188.0
KTUS 072153Z VRB04KT 10SM CLR 42/06 A2981 RMK AO2 SLP031 T04220056,KTUS,2023-07-07T21:53:00Z,32.13,-110.95,42.2,5.6,0,4,,10.0,29.811024,1003.1,,,TRUE,,,,,,,CLR,,,,,,,,VFR,,,,,,,,,,,,METAR,776.0
KTTN 072153Z 24004KT 10SM FEW033 SCT041 BKN050 28/22 A2981 RMK AO2 SLP086 T02780222,KTTN,2023-07-07T21:53:00Z,40.28,-74.82,27.8,22.2,240,4,,10.0,29.811024,1008.6,,,TRUE,,,,,,,FEW,3300,SCT,4100,BKN,5000,,,VFR,,,,,,,,,,,,METAR,58.0
KTTD 072153Z 32005KT 10SM CLR 23/12 A2991 RMK AO2 SLP128 T02280117,KTTD,2023-07-07T21:53:00Z,45.55,-122.42,22.8,11.7,320,5,,10.0,29.911417,1012.8,,,TRUE,,,,,,,CLR,,,,,,,,VFR,,,,,,,,,,,,METAR,8.0
KTRL 072153Z AUTO 21014G25KT 10SM CLR 34/21 A2986 RMK AO2 SLP104 T03390206,KTRL,2023-07-07T21:53:00Z,32.72,-96.27,33.9,20.6,210,14,25,10.0,29.861221,1010.4,,TRUE,TRUE,,,,,,,CLR,,,,,,,,VFR,,,,,,,,,,,,METAR,144.0
KTRI 072153Z 36005KT 10SM SCT048 SCT075 BKN250 30/18 A2992 RMK AO2 SLP104 T03000183,KTRI,2023-07-07T21:53:00Z,36.48,-82.4,30.0,18.3,360,5,,10.0,29.920275,1010.4,,,TRUE,,,,,,,SCT,4800,SCT,7500,BKN,25000,,,VFR,,,,,,,,,,,,METAR,456.0
KTPA 072153Z 26010KT 10SM FEW055TCU SCT120 BKN190 BKN280 32/24 A2992 RMK AO2 LTG DSNT E SLP132 CB DSNT E-SE TCU W-SE T03170244,KTPA,2023-07-07T21:53:00Z,27.97,-82.53,31.7,24.4,260,10,,10.0,29.920275,1013.2,,,TRUE,,,,,,,FEW,5500,SCT,12000,BKN,19000,BKN,28000,VFR,,,,,,,,,,,,METAR,2.0
KTOR 072153Z AUTO 36011G20KT 10SM CLR 24/09 A3005 RMK AO2 SLP139 T02440094,KTOR,2023-07-07T21:53:00Z,42.07,-104.15,24.4,9.4,360,11,20,10.0,30.050198,1013.9,,TRUE,TRUE,,,,,,,CLR,,,,,,,,VFR,,,,,,,,,,,,METAR,1285.0
KTOP 072153Z 08007KT 10SM FEW035 29/21 A2986 RMK AO2 SLP104 T02940211,KTOP,2023-07-07T21:53:00Z,39.07,-95.63,29.4,21.1,80,7,,10.0,29.861221,1010.4,,,TRUE,,,,,,,FEW,3500,,,,,,,VFR,,,,,,,,,,,,METAR,268.0
KTOI 072153Z AUTO 27007KT 10SM SCT040 BKN050 33/22 A2989 RMK AO2 LTG DSNT NW SLP115 T03330222,KTOI,2023-07-07T21:53:00Z,31.85,-86.02,33.3,22.2,270,7,,10.0,29.890747,1011.5,,TRUE,TRUE,,,,,,,SCT,4000,BKN,5000,,,,,VFR,,,,,,,,,,,,METAR,120.0
KTMB 072153Z 25009KT 10SM VCTS SCT050 SCT070 34/22 A2994 RMK AO2 LTG DSNT W-NE SLP138 T03440217,KTMB,2023-07-07T21:53:00Z,25.65,-80.43,34.4,21.7,250,9,,10.0,29.940945,1013.8,,,TRUE,,,,,,VCTS,SCT,5000,SCT,7000,,,,,VFR,,,,,,,,,,,,METAR,2.0
KTLH 072153Z 00000KT 10SM SCT045 BKN090 26/24 A2988 RMK AO2 LTG DSNT E-S TSE49 SLP118 CB DSNT ALQDS MOV SE T02560244,KTLH,2023-07-07T21:53:00Z,30.4,-84.35,25.6,24.4,0,0,,10.0,29.878937,1011.8,,,TRUE,,,,,,,SCT,4500,BKN,9000,,,,,VFR,,,,,,,,,,,,METAR,17.0
KTKI 072153Z 21016G26KT 10SM CLR 34/21 A2984 RMK AO2 PK WND 20026/2146 SLP098 T03390206,KTKI,2023-07-07T21:53:00Z,33.18,-96.58,33.9,20.6,210,16,26,10.0,29.840551,1009.8,,,TRUE,,,,,,,CLR,,,,,,,,VFR,,,,,,,,,,,,METAR,173.0
KTIW 072153Z 17006KT 10SM CLR 21/12 A2990 RMK AO2 SLP123 T02110117,KTIW,2023-07-07T21:53:00Z,47.27,-122.58,21.1,11.7,170,6,,10.0,29.899607,1012.3,,,TRUE,,,,,,,CLR,,,,,,,,VFR,,,,,,,,,,,,METAR,89.0
KTHV 072153Z AUTO 20003KT 10SM SCT050 BKN085 29/22 A2983 RMK AO2 LTG DSNT NW-NE SLP098 T02890222,KTHV,2023-07-07T21:53:00Z,39.92,-76.88,28.9,22.2,200,3,,10.0,29.828741,1009.8,,TRUE,TRUE,,,,,,,SCT,5000,BKN,8500,,,,,VFR,,,,,,,,,,,,METAR,141.0
KTDZ 072153Z AUTO 09007KT 10SM BKN050 28/15 A2994 RMK AO2 SLP132 T02780150,KTDZ,2023-07-07T21:53:00Z,41.57,-83.48,27.8,15.0,90,7,,10.0,29.940945,1013.2,,TRUE,TRUE,,,,,,,BKN,5000,,,,,,,VFR,,,,,,,,,,,,METAR,189.0
KTCS 072153Z AUTO 13010KT 10SM CLR 38/05 A2991 RMK AO2 LTG DSNT N SLP021 T03780050,KTCS,2023-07-07T21:53:00Z,33.23,-107.27,37.8,5.0,130,10,,10.0,29.911417,1002.1,,TRUE,TRUE,,,,,,,CLR,,,,,,,,VFR,,,,,,,,,,,,METAR,1471.0
KTCL 072153Z 26009G16KT 230V290 10SM VCTS FEW026 FEW039 27/23 A2991 RMK AO2 LTG DSNT ALQDS TSB16E53 SLP127 T02720228,KTCL,2023-07-07T21:53:00Z,33.22,-87.62,27.2,22.8,260,9,16,10.0,29.911417,1012.7,,,TRUE,,,,,,VCTS,FEW,2600,FEW,3900,,,,,VFR,,,,,,,,,,,,METAR,48.0
KTCC 072153Z AUTO 12011KT 10SM CLR 28/17 A2982 RMK AO2 PK WND 23036/2115 WSHFT 2125 LTG DSNT NE AND E RAB07E32 TSB2059E40 SLP037 P0005 T02780172 $,KTCC,2023-07-07T21:53:00Z,35.18,-103.6,27.8,17.2,120,11,,10.0,29.819881,1003.7,,TRUE,TRUE,TRUE,,,,,,CLR,,,,,,,,VFR,,,,,,0.05,,,,,,METAR,1233.0
KSWO 072153Z 14003KT 10SM CLR 27/22 A2989 RMK AO2 RAB11E24 SLP109 P0000 T02720217,KSWO,2023-07-07T21:53:00Z,36.17,-97.08,27.2,21.7,140,3,,10.0,29.890747,1010.9,,,TRUE,,,,,,,CLR,,,,,,,,VFR,,,,,,0.005,,,,,,METAR,293.0
KSTS 072153Z 16009KT 10SM CLR 27/13 A2984 RMK AO2 SLP096 T02670128,KSTS,2023-07-07T21:53:00Z,38.5,-122.82,26.7,12.8,160,9,,10.0,29.840551,1009.6,,,TRUE,,,,,,,CLR,,,,,,,,VFR,,,,,,,,,,,,METAR,35.0
KSTP 072153Z 25007KT 10SM CLR 23/10 A2995 RMK AO2 SLP140 T02280100,KSTP,2023-07-07T21:53:00Z,44.93,-93.05,22.8,10.0,250,7,,10.0,29.949802,1014.0,,,TRUE,,,,,,,CLR,,,,,,,,VFR,,,,,,,,,,,,METAR,213.0
KSTC 072153Z 25010KT 10SM CLR 23/10 A2995 RMK AO2 SLP147 T02330100,KSTC,2023-07-07T21:53:00Z,45.55,-94.05,23.3,10.0,250,10,,10.0,29.949802,1014.7,,,TRUE,,,,,,,CLR,,,,,,,,VFR,,,,,,,,,,,,METAR,302.0
KSSI 072153Z AUTO 17010KT 10SM CLR 32/25 A2983 RMK AO2 SLP103 T03220250,KSSI,2023-07-07T21:53:00Z,31.15,-81.38,32.2,25.0,170,10,,10.0,29.828741,1010.3,,TRUE,TRUE,,,,,,,CLR,,,,,,,,VFR,,,,,,,,,,,,METAR,6.0
KSSF 072153Z 14009KT 10SM FEW043 SCT070 OVC100 32/22 A2988 RMK AO2 SLP106 T03220222 $,KSSF,2023-07-07T21:53:00Z,29.33,-98.47,32.2,22.2,140,9,,10.0,29.878937,1010.6,,,TRUE,TRUE,,,,,,FEW,4300,SCT,7000,OVC,10000,,,VFR,,,,,,,,,,,,METAR,175.0
KSRQ 072153Z 28011KT 10SM FEW025 FEW033 33/24 A2991 RMK AO2 SLP129 T03280239,KSRQ,2023-07-07T21:53:00Z,27.4,-82.57,32.8,23.9,280,11,,10.0,29.911417,1012.9,,,TRUE,,,,,,,FEW,2500,FEW,3300,,,,,VFR,,,,,,,,,,,,METAR,5.0
KSPW 072153Z AUTO 14010KT 10SM OVC070 17/11 A2998 RMK AO2 RAE27 SLP154 P0000 T01670106,KSPW,2023-07-07T21:53:00Z,43.17,-95.22,16.7,10.6,140,10,,10.0,29.97933,1015.4,,TRUE,TRUE,,,,,,,OVC,7000,,,,,,,VFR,,,,,,0.005,,,,,,METAR,407.0
KSPG 072153Z 25011G18KT 10SM FEW035 31/24 A2991 RMK AO2 LTG DSNT NE AND E SLP128 T03110244 $,KSPG,2023-07-07T21:53:00Z,27.77,-82.63,31.1,24.4,250,11,18,10.0,29.911417,1012.8,,,TRUE,TRUE,,,,,,FEW,3500,,,,,,,VFR,,,,,,,,,,,,METAR,1.0
KSPB 072153Z AUTO 08008KT 10SM CLR 22/13 A2991 RMK AO2 SLP127 T02220133,KSPB,2023-07-07T21:53:00Z,45.77,-122.87,22.2,13.3,80,8,,10.0,29.911417,1012.7,,TRUE,TRUE,,,,,,,CLR,,,,,,,,VFR,,,,,,,,,,,,METAR,15.0
KSNY 072153Z AUTO 03014G22KT 10SM FEW055 26/12 A3004 RMK AO2 SLP125 T02560117,KSNY,2023-07-07T21:53:00Z,41.1,-102.98,25.6,11.7,30,14,22,10.0,30.041338,1012.5,,TRUE,TRUE,,,,,,,FEW,5500,,,,,,,VFR,,,,,,,,,,,,METAR,1307.0
KSNS 072153Z AUTO 29012G19KT 10SM CLR 19/11 A2994 RMK AO2 SLP147 T01940111,KSNS,2023-07-07T21:53:00Z,36.67,-121.6,19.4,11.1,290,12,19,10.0,29.940945,1014.7,,TRUE,TRUE,,,,,,,CLR,,,,,,,,VFR,,,,,,,,,,,,METAR,20.0
KSNA 072153Z 24007KT 10SM CLR 22/13 A2984 RMK AO2 SLP104 T02170128,KSNA,2023-07-07T21:53:00Z,33.67,-117.87,21.7,12.8,240,7,,10.0,29.840551,1010.4,,,TRUE,,,,,,,CLR,,,,,,,,VFR,,,,,,,,,,,,METAR,14.0
KSMQ 072153Z AUTO VRB03KT 8SM CLR 29/23 A2979 RMK AO2 SLP087 T02940228,KSMQ,2023-07-07T21:53:00Z,40.62,-74.67,29.4,22.8,0,3,,8.0,29.790354,1008.7,,TRUE,TRUE,,,,,,,CLR,,,,,,,,VFR,,,,,,,,,,,,METAR,30.0
KSMF 072153Z 19009G14KT 10SM CLR 29/13 A2979 RMK SLP087 T02890133,KSMF,2023-07-07T21:53:00Z,38.7,-121.6,28.9,13.3,190,9,14,10.0,29.790354,1008.7,,,,,,,,,,CLR,,,,,,,,VFR,,,,,,,,,,,,METAR,7.0
KSJC 072153Z 33012KT 10SM FEW013 21/12 A2991 RMK AO2 SLP129 T02060122,KSJC,2023-07-07T21:53:00Z,37.37,-121.92,20.6,12.2,330,12,,10.0,29.911417,1012.9,,,TRUE,,,,,,,FEW,1300,,,,,,,VFR,,,,,,,,,,,,METAR,13.0
KSIY 072153Z AUTO 30005G18KT 10SM CLR 33/07 A2982 RMK AO2 SLP078 T03330072,KSIY,2023-07-07T21:53:00Z,41.77,-122.47,33.3,7.2,300,5,18,10.0,29.819881,1007.8,,TRUE,TRUE,,,,,,,CLR,,,,,,,,VFR,,,,,,,,,,,,METAR,807.0
KSHR 072153Z AUTO 07006KT 10SM BKN070 24/09 A3008 RMK AO2 LTG DSNT W SLP162 T02390094,KSHR,2023-07-07T21:53:00Z,44.77,-106.97,23.9,9.4,70,6,,10.0,30.079725,1016.2,,TRUE,TRUE,,,,,,,BKN,7000,,,,,,,VFR,,,,,,,,,,,,METAR,1212.0
KSHN 072153Z AUTO 22014G23KT 10SM CLR 21/12 A2988 RMK AO2 PK WND 23027/2110 SLP119 T02060117,KSHN,2023-07-07T21:53:00Z,47.23,-123.13,20.6,11.7,220,14,23,10.0,29.878937,1011.9,,TRUE,TRUE,,,,,,,CLR,,,,,,,,VFR,,,,,,,,,,,,METAR,84.0
KSGR 072153Z 24007KT 10SM FEW035 BKN090 31/23 A2993 RMK AO2 SLP134 T03060228,KSGR,2023-07-07T21:53:00Z,29.62,-95.65,30.6,22.8,240,7,,10.0,29.929134,1013.4,,,TRUE,,,,,,,FEW,3500,BKN,9000,,,,,VFR,,,,,,,,,,,,METAR,22.0
KSFF 072153Z 11009G18KT 10SM SCT110 34/04 A2982 RMK AO2 SLP079 T03390044,KSFF,2023-07-07T21:53:00Z,47.68,-117.32,33.9,4.4,110,9,18,10.0,29.819881,1007.9,,,TRUE,,,,,,,SCT,11000,,,,,,,VFR,,,,,,,,,,,,METAR,593.0
KSFB 072153Z 06006KT 10SM TS FEW110 29/22 A2990 RMK AO2 LTG DSNT ALQDS SLP122 T02940222,KSFB,2023-07-07T21:53:00Z,28.77,-81.23,29.4,22.2,60,6,,10.0,29.899607,1012.2,,,TRUE,,,,,,TS,FEW,11000,,,,,,,VFR,,,,,,,,,,,,METAR,16.0
KSEG 072153Z AUTO 31007G19KT 270V330 10SM TS SCT080 SCT095 25/21 A2984 RMK AO2 LTG DSNT ALQDS TSB48 SLP102 T02500206,KSEG,2023-07-07T21:53:00Z,40.82,-76.87,25.0,20.6,310,7,19,10.0,29.840551,1010.2,,TRUE,TRUE,,,,,,TS,SCT,8000,SCT,9500,,,,,VFR,,,,,,,,,,,,METAR,136.0
KSEA 072153Z 24010KT 10SM FEW025 FEW100 22/11 A2990 RMK AO2 SLP132 T02170111,KSEA,2023-07-07T21:53:00Z,47.45,-122.32,21.7,11.1,240,10,,10.0,29.899607,1013.2,,,TRUE,,,,,,,FEW,2500,FEW,10000,,,,,VFR,,,,,,,,,,,,METAR,115.0
KSDM 072153Z 28008G16KT 250V320 10SM CLR 22/12 A2985 RMK AO2 SLP103 T02170122,KSDM,2023-07-07T21:53:00Z,32.58,-117.0,21.7,12.2,280,8,16,10.0,29.84941,1010.3,,,TRUE,,,,,,,CLR,,,,,,,,VFR,,,,,,,,,,,,METAR,161.0
KSDL 072153Z AUTO VRB04KT 10SM CLR 41/03 A2973 RMK AO2 SLP036 T04060028,KSDL,2023-07-07T21:53:00Z,33.62,-111.92,40.6,2.8,0,4,,10.0,29.731298,1003.6,,TRUE,TRUE,,,,,,,CLR,,,,,,,,VFR,,,,,,,,,,,,METAR,438.0
KSBM 072153Z AUTO 13006KT 10SM CLR 23/12 A2996 RMK AO2 SLP144 T02280122,KSBM,2023-07-07T21:53:00Z,43.78,-87.85,22.8,12.2,130,6,,10.0,29.958662,1014.4,,TRUE,TRUE,,,,,,,CLR,,,,,,,,VFR,,,,,,,,,,,,METAR,225.0
KSBA 072153Z 19007KT 9SM SCT021 19/13 A2986 RMK AO2 SLP110 T01940133 $,KSBA,2023-07-07T21:53:00Z,34.43,-119.85,19.4,13.3,190,7,,9.0,29.861221,1011.0,,,TRUE,TRUE,,,,,,SCT,2100,,,,,,,VFR,,,,,,,,,,,,METAR,2.0
KSAV 072153Z 28008KT 10SM SCT060TCU BKN250 36/19 A2981 RMK AO2 LTG DSNT N AND NW SLP093 TCU OHD AND N-E CB DSNT NW T03560194,KSAV,2023-07-07T21:53:00Z,32.12,-81.2,35.6,19.4,280,8,,10.0,29.811024,1009.3,,,TRUE,,,,,,,SCT,6000,BKN,25000,,,,,VFR,,,,,,,,,,,,METAR,10.0
KSAF 072153Z 29025G36KT 10SM CLR 33/02 A3006 RMK AO2 PK WND 27036/2140 LTG DSNT NE SLP057 T03330022,KSAF,2023-07-07T21:53:00Z,35.62,-106.1,33.3,2.2,290,25,36,10.0,30.059055,1005.7,,,TRUE,,,,,,,CLR,,,,,,,,VFR,,,,,,,,,,,,METAR,1918.0
KSAC 072153Z 20008KT 10SM CLR 27/13 A2981 RMK AO2 SLP093 T02720133,KSAC,2023-07-07T21:53:00Z,38.5,-121.5,27.2,13.3,200,8,,10.0,29.811024,1009.3,,,TRUE,,,,,,,CLR,,,,,,,,VFR,,,,,,,,,,,,METAR,5.0
KRXE 072153Z AUTO VRB03KT 10SM CLR 29/01 A2994 RMK AO2 SLP094 T02890011,KRXE,2023-07-07T21:53:00Z,43.83,-111.8,28.9,1.1,0,3,,10.0,29.940945,1009.4,,TRUE,TRUE,,,,,,,CLR,,,,,,,,VFR,,,,,,,,,,,,METAR,1483.0
KRWL 072153Z AUTO 05008KT 350V110 10SM CLR 26/02 A3013 RMK AO2 SLP112 T02560017,KRWL,2023-07-07T21:53:00Z,41.8,-107.2,25.6,1.7,50,8,,10.0,30.129921,1011.2,,TRUE,TRUE,,,,,,,CLR,,,,,,,,VFR,,,,,,,,,,,,METAR,2066.0
KRWF 072153Z AUTO 22008KT 10SM CLR 21/12 A2996 RMK AO2 SLP145 T02060122,KRWF,2023-07-07T21:53:00Z,44.55,-95.08,20.6,12.2,220,8,,10.0,29.958662,1014.5,,TRUE,TRUE,,,,,,,CLR,,,,,,,,VFR,,,,,,,,,,,,METAR,312.0
KRUE 072153Z AUTO 10004KT 10SM FEW030 32/23 A2989 RMK AO2 LTG DSNT SE SLP112 T03170233,KRUE,2023-07-07T21:53:00Z,35.25,-93.1,31.7,23.3,100,4,,10.0,29.890747,1011.2,,TRUE,TRUE,,,,,,,FEW,3000,,,,,,,VFR,,,,,,,,,,,,METAR,119.0
KRTN 072153Z AUTO 03007KT 10SM CLR 30/12 A3001 RMK AO2 LTG DSNT NE AND E RAE2057 SLP062 P0000 T03000117,KRTN,2023-07-07T21:53:00Z,36.73,-104.5,30.0,11.7,30,7,,10.0,30.008858,1006.2,,TRUE,TRUE,,,,,,,CLR,,,,,,,,VFR,,,,,,0.005,,,,,,METAR,1939.0
KRSW 072153Z 27010KT 10SM CLR 32/24 A2993 RMK AO2 LTG DSNT E-S SLP133 T03220239,KRSW,2023-07-07T21:53:00Z,26.53,-81.75,32.2,23.9,270,10,,10.0,29.929134,1013.3,,,TRUE,,,,,,,CLR,,,,,,,,VFR,,,,,,,,,,,,METAR,8.0
KRSL 072153Z AUTO 23007KT 10SM OVC050 27/18 A2990 RMK AO2 SLP107 T02670183,KRSL,2023-07-07T21:53:00Z,38.87,-98.82,26.7,18.3,230,7,,10.0,29.899607,1010.7,,TRUE,TRUE,,,,,,,OVC,5000,,,,,,,VFR,,,,,,,,,,,,METAR,569.0
KRQE 072153Z AUTO 22024G35KT 10SM CLR 33/M01 A3009 RMK AO2 PK WND 22035/2151 SLP040 T03281011,KRQE,2023-07-07T21:53:00Z,35.65,-109.07,32.8,-1.1,220,24,35,10.0,30.088583,1004.0,,TRUE,TRUE,,,,,,,CLR,,,,,,,,VFR,,,,,,,,,,,,METAR,2056.0
KRNT 072153Z 17007KT 10SM FU CLR 22/12 A2989 RMK AO2 SLP126 T02220122,KRNT,2023-07-07T21:53:00Z,47.5,-122.22,22.2,12.2,170,7,,10.0,29.890747,1012.6,,,TRUE,,,,,,FU,CLR,,,,,,,,VFR,,,,,,,,,,,,METAR,7.0
KRNM 072153Z 27010KT 10SM CLR 28/12 A2984 RMK AO2 SLP091 T02830117,KRNM,2023-07-07T21:53:00Z,33.03,-116.92,28.3,11.7,270,10,,10.0,29.840551,1009.1,,,TRUE,,,,,,,CLR,,,,,,,,VFR,,,,,,,,,,,,METAR,423.0
KRMG 072153Z AUTO 35007KT 10SM CLR 33/21 A2987 RMK AO2 LTG DSNT SW SLP104 T03280206,KRMG,2023-07-07T21:53:00Z,34.35,-85.17,32.8,20.6,350,7,,10.0,29.870079,1010.4,,TRUE,TRUE,,,,,,,CLR,,,,,,,,VFR,,,,,,,,,,,,METAR,196.0
KRME 072153Z 25007KT 10SM SCT015 24/21 A2988 RMK AO2 SLP113 T02440211,KRME,2023-07-07T21:53:00Z,43.22,-75.4,24.4,21.1,250,7,,10.0,29.878937,1011.3,,,TRUE,,,,,,,SCT,1500,,,,,,,VFR,,,,,,,,,,,,METAR,146.0
KRKP 072153Z AUTO 15014G19KT 9SM CLR 31/26 A2990 RMK AO2 SLP125 T03110256,KRKP,2023-07-07T21:53:00Z,28.08,-97.05,31.1,25.6,150,14,19,9.0,29.899607,1012.5,,TRUE,TRUE,,,,,,,CLR,,,,,,,,VFR,,,,,,,,,,,,METAR,8.0
KRIW 072153Z AUTO 10SM CLR 23/06 A3010 RMK AO2 LTG DSNT N AND NE SLP140 T02330061,KRIW,2023-07-07T21:53:00Z,43.07,-108.43,23.3,6.1,,,,10.0,30.100393,1014.0,,TRUE,TRUE,,,,,,,CLR,,,,,,,,VFR,,,,,,,,,,,,METAR,1662.0
KRIL 072153Z AUTO 27013G17KT 10SM CLR 33/M02 A2993 RMK AO2 SLP059 T03331017,KRIL,2023-07-07T21:53:00Z,39.53,-107.73,33.3,-1.7,270,13,17,10.0,29.929134,1005.9,,TRUE,TRUE,,,,,,,CLR,,,,,,,,VFR,,,,,,,,,,,,METAR,1683.0
KRHI 072153Z AUTO 24006KT 10SM FEW085 23/11 A2997 RMK AO2 SLP149 T02280106,KRHI,2023-07-07T21:53:00Z,45.63,-89.48,22.8,10.6,240,6,,10.0,29.970472,1014.9,,TRUE,TRUE,,,,,,,FEW,8500,,,,,,,VFR,,,,,,,,,,,,METAR,493.0
KRDD 072153Z 18009G14KT 10SM CLR 34/13 A2974 RMK AO2 SLP063 T03440133,KRDD,2023-07-07T21:53:00Z,40.52,-122.3,34.4,13.3,180,9,14,10.0,29.740158,1006.3,,,TRUE,,,,,,,CLR,,,,,,,,VFR,,,,,,,,,,,,METAR,152.0
KRBG 072153Z AUTO VRB05G16KT 10SM CLR 26/10 A2989 RMK AO2 SLP118 T02610100,KRBG,2023-07-07T21:53:00Z,43.23,-123.35,26.1,10.0,0,5,16,10.0,29.890747,1011.8,,TRUE,TRUE,,,,,,,CLR,,,,,,,,VFR,,,,,,,,,,,,METAR,152.0
KRBD 072153Z 19011G21KT 10SM CLR 34/21 A2987 RMK AO2 SLP103 T03390206,KRBD,2023-07-07T21:53:00Z,32.68,-96.87,33.9,20.6,190,11,21,10.0,29.870079,1010.3,,,TRUE,,,,,,,CLR,,,,,,,,VFR,,,,,,,,,,,,METAR,200.0
KRAL 072153Z 28009G16KT 10SM CLR 31/11 A2980 RMK AO2 SLP077 T03060111,KRAL,2023-07-07T21:53:00Z,33.95,-117.45,30.6,11.1,280,9,16,10.0,29.799213,1007.7,,,TRUE,,,,,,,CLR,,,,,,,,VFR,,,,,,,,,,,,METAR,254.0
KRAC 072153Z AUTO 11008KT 10SM CLR 23/14 A2996 RMK AO2 SLP143 T02280139,KRAC,2023-07-07T21:53:00Z,42.77,-87.82,22.8,13.9,110,8,,10.0,29.958662,1014.3,,TRUE,TRUE,,,,,,,CLR,,,,,,,,VFR,,,,,,,,,,,,METAR,203.0
KPWA 072153Z 11008KT 10SM FEW120 28/19 A2990 RMK AO2 SLP107 T02780194,KPWA,2023-07-07T21:53:00Z,35.53,-97.65,27.8,19.4,110,8,,10.0,29.899607,1010.7,,,TRUE,,,,,,,FEW,12000,,,,,,,VFR,,,,,,,,,,,,METAR,390.0
KPUW 072153Z AUTO 23003KT 9SM CLR 31/07 A2985 RMK AO2 SLP093 T03060067,KPUW,2023-07-07T21:53:00Z,46.75,-117.12,30.6,6.7,230,3,,9.0,29.84941,1009.3,,TRUE,TRUE,,,,,,,CLR,,,,,,,,VFR,,,,,,,,,,,,METAR,774.0
KPUC 072153Z AUTO 15004KT 10SM CLR 31/M07 A2997 RMK AO2 SLP045 T03111067,KPUC,2023-07-07T21:53:00Z,39.62,-110.75,31.1,-6.7,150,4,,10.0,29.970472,1004.5,,TRUE,TRUE,,,,,,,CLR,,,,,,,,VFR,,,,,,,,,,,,METAR,1777.0
KPUB 072153Z 08016G24KT 10SM SCT055 28/14 A2997 RMK AO2 PK WND 05029/2128 LTG DSNT N SLP083 T02830144 $,KPUB,2023-07-07T21:53:00Z,38.28,-104.5,28.3,14.4,80,16,24,10.0,29.970472,1008.3,,,TRUE,TRUE,,,,,,SCT,5500,,,,,,,VFR,,,,,,,,,,,,METAR,1441.0
KPTK 072153Z 34007KT 10SM FEW060 SCT200 25/10 A2995 RMK AO2 SLP138 T02500100,KPTK,2023-07-07T21:53:00Z,42.67,-83.42,25.0,10.0,340,7,,10.0,29.949802,1013.8,,,TRUE,,,,,,,FEW,6000,SCT,20000,,,,,VFR,,,,,,,,,,,,METAR,295.0
KPSX 072153Z AUTO 14011KT 10SM FEW120 32/24 A2992 RMK AO2 SLP129 T03170244,KPSX,2023-07-07T21:53:00Z,28.72,-96.25,31.7,24.4,140,11,,10.0,29.920275,1012.9,,TRUE,TRUE,,,,,,,FEW,12000,,,,,,,VFR,,,,,,,,,,,,METAR,4.0
KPSP 072153Z 32016G21KT 10SM CLR 40/03 A2967 RMK AO2 SLP043 T04000033,KPSP,2023-07-07T21:53:00Z,33.82,-116.5,40.0,3.3,320,16,21,10.0,29.66929,1004.3,,,TRUE,,,,,,,CLR,,,,,,,,VFR,,,,,,,,,,,,METAR,123.0
KPSC 072153Z 10SM CLR 37/11 A2970 RMK AO2 SLP053 T03670111,KPSC,2023-07-07T21:53:00Z,46.27,-119.12,36.7,11.1,,,,10.0,29.698818,1005.3,,,TRUE,,,,,,,CLR,,,,,,,,VFR,,,,,,,,,,,,METAR,121.0
KPRC 072153Z 19014G25KT 10SM CLR 32/01 A3000 RMK AO2 PK WND 19026/2122 SLP065 T03220006,KPRC,2023-07-07T21:53:00Z,34.65,-112.42,32.2,0.6,190,14,25,10.0,30.0,1006.5,,,TRUE,,,,,,,CLR,,,,,,,,VFR,,,,,,,,,,,,METAR,1528.0
KPRB 072153Z AUTO 30011KT 10SM CLR 30/07 A2985 RMK AO2 SLP099 T03000067,KPRB,2023-07-07T21:53:00Z,35.67,-120.63,30.0,6.7,300,11,,10.0,29.84941,1009.9,,TRUE,TRUE,,,,,,,CLR,,,,,,,,VFR,,,,,,,,,,,,METAR,249.0
KPQL 072153Z 24007KT 10SM CLR 33/24 A2991 RMK AO2 LTG DSNT NE SLP130 T03330244,KPQL,2023-07-07T21:53:00Z,30.47,-88.53,33.3,24.4,240,7,,10.0,29.911417,1013.0,,,TRUE,,,,,,,CLR,,,,,,,,VFR,,,,,,,,,,,,METAR,4.0
KPOU 072153Z AUTO 23003KT 10SM CLR 30/21 A2980 RMK AO2 SLP088 T03000206,KPOU,2023-07-07T21:53:00Z,41.63,-73.88,30.0,20.6,230,3,,10.0,29.799213,1008.8,,TRUE,TRUE,,,,,,,CLR,,,,,,,,VFR,,,,,,,,,,,,METAR,45.0
KPNS 072153Z 01005KT 4SM -TSRA FEW017 BKN044 OVC080 26/22 A2993 RMK AO2 PK WND 33026/2138 LTG DSNT N-E RAB40 SLP136 P0036 T02560222,KPNS,2023-07-07T21:53:00Z,30.48,-87.18,25.6,22.2,10,5,,4.0,29.929134,1013.6,,,TRUE,,,,,,-TSRA,FEW,1700,BKN,4400,OVC,8000,,,MVFR,,,,,,0.36,,,,,,METAR,34.0
KPMP 072153Z 17004KT 10SM CLR 27/24 A2995 RMK AO2 LTG DSNT NE AND S AND SW TSE02 SLP142 T02720244,KPMP,2023-07-07T21:53:00Z,26.25,-80.12,27.2,24.4,170,4,,10.0,29.949802,1014.2,,,TRUE,,,,,,,CLR,,,,,,,,VFR,,,,,,,,,,,,METAR,4.0
KPMD 072153Z 24013G23KT 10SM CLR 33/02 A2982 RMK AO2 SLP069 T03280022 $,KPMD,2023-07-07T21:53:00Z,34.63,-118.08,32.8,2.2,240,13,23,10.0,29.819881,1006.9,,,TRUE,TRUE,,,,,,CLR,,,,,,,,VFR,,,,,,,,,,,,METAR,764.0
KPKD 072153Z AUTO 10007KT 10SM FEW045 BKN060 OVC070 16/14 A2993 RMK AO2 LTG DSNT E-SW RAE42 TSE19 SLP137 P0002 T01560144,KPKD,2023-07-07T21:53:00Z,46.9,-95.07,15.6,14.4,100,7,,10.0,29.929134,1013.7,,TRUE,TRUE,,,,,,,FEW,4500,BKN,6000,OVC,7000,,,VFR,,,,,,0.02,,,,,,METAR,439.0
KPKB 072153Z 27004KT 10SM FEW047 29/19 A2990 RMK AO2 SLP118 T02940189,KPKB,2023-07-07T21:53:00Z,39.35,-81.43,29.4,18.9,270,4,,10.0,29.899607,1011.8,,,TRUE,,,,,,,FEW,4700,,,,,,,VFR,,,,,,,,,,,,METAR,245.0
KPIR 072153Z AUTO 23003KT 10SM CLR 24/14 A2994 RMK AO2 SLP130 T02390139,KPIR,2023-07-07T21:53:00Z,44.38,-100.28,23.9,13.9,230,3,,10.0,29.940945,1013.0,,TRUE,TRUE,,,,,,,CLR,,,,,,,,VFR,,,,,,,,,,,,METAR,524.0
KPIL 072153Z AUTO 12012KT 10SM CLR 32/26 A2987 RMK AO2 SLP115 T03220261,KPIL,2023-07-07T21:53:00Z,26.17,-97.33,32.2,26.1,120,12,,10.0,29.870079,1011.5,,TRUE,TRUE,,,,,,,CLR,,,,,,,,VFR,,,,,,,,,,,,METAR,5.0
KPIH 072153Z 31008KT 10SM FEW050 30/08 A2992 RMK AO2 SLP086 T03000078,KPIH,2023-07-07T21:53:00Z,42.92,-112.57,30.0,7.8,310,8,,10.0,29.920275,1008.6,,,TRUE,,,,,,,FEW,5000,,,,,,,VFR,,,,,,,,,,,,METAR,1357.0
KPIE 072153Z 27012G20KT 10SM SCT033 SCT050 32/23 A2993 RMK AO2 LTG DSNT E SLP133 T03220233,KPIE,2023-07-07T21:53:00Z,27.92,-82.68,32.2,23.3,270,12,20,10.0,29.929134,1013.3,,,TRUE,,,,,,,SCT,3300,SCT,5000,,,,,VFR,,,,,,,,,,,,METAR,1.0
KPHD 072153Z AUTO 34006KT 10SM BKN055 BKN065 27/18 A2992 RMK AO2 SLP126 T02720178,KPHD,2023-07-07T21:53:00Z,40.47,-81.42,27.2,17.8,340,6,,10.0,29.920275,1012.6,,TRUE,TRUE,,,,,,,BKN,5500,BKN,6500,,,,,VFR,,,,,,,,,,,,METAR,272.0
KPGD 072153Z 28010G21KT 10SM CLR 33/23 A2994 RMK AO2 SLP139 T03280228,KPGD,2023-07-07T21:53:00Z,26.92,-82.0,32.8,22.8,280,10,21,10.0,29.940945,1013.9,,,TRUE,,,,,,,CLR,,,,,,,,VFR,,,,,,,,,,,,METAR,7.0
KPGA 072153Z AUTO 19006G15KT 10SM CLR 37/M04 A2986 RMK AO2 SLP030 T03671044,KPGA,2023-07-07T21:53:00Z,36.92,-111.45,36.7,-4.4,190,6,15,10.0,29.861221,1003.0,,TRUE,TRUE,,,,,,,CLR,,,,,,,,VFR,,,,,,,,,,,,METAR,1310.0
KPEO 072153Z AUTO 32006KT 10SM SCT029 BKN037 26/19 A2990 RMK AO2 SLP117 T02610194,KPEO,2023-07-07T21:53:00Z,42.65,-77.05,26.1,19.4,320,6,,10.0,29.899607,1011.7,,TRUE,TRUE,,,,,,,SCT,2900,BKN,3700,,,,,VFR,,,,,,,,,,,,METAR,268.0
KPDX 072153Z VRB03KT 10SM FEW035 FEW300 23/12 A2992 RMK AO2 SLP130 T02280122,KPDX,2023-07-07T21:53:00Z,45.6,-122.62,22.8,12.2,0,3,,10.0,29.920275,1013.0,,,TRUE,,,,,,,FEW,3500,FEW,30000,,,,,VFR,,,,,,,,,,,,METAR,7.0
KPDT 072153Z 35009G17KT 10SM CLR 37/07 A2975 RMK AO2 SLP053 T03670067,KPDT,2023-07-07T21:53:00Z,45.7,-118.83,36.7,6.7,350,9,17,10.0,29.749016,1005.3,,,TRUE,,,,,,,CLR,,,,,,,,VFR,,,,,,,,,,,,METAR,453.0
KPDK 072153Z 20008KT 10SM VCTS FEW080 FEW095 26/22 A2990 RMK AO2 LTG DSNT SE AND S TSB08E23 SLP108 T02610217,KPDK,2023-07-07T21:53:00Z,33.88,-84.3,26.1,21.7,200,8,,10.0,29.899607,1010.8,,,TRUE,,,,,,VCTS,FEW,8000,FEW,9500,,,,,VFR,,,,,,,,,,,,METAR,299.0
KPBI 072153Z 14004KT 10SM FEW022 SCT040 BKN100 28/23 A2995 RMK AO2 LTG DSNT E SLP141 CB DSNT E-S T02780228 $,KPBI,2023-07-07T21:53:00Z,26.68,-80.1,27.8,22.8,140,4,,10.0,29.949802,1014.1,,,TRUE,TRUE,,,,,,FEW,2200,SCT,4000,BKN,10000,,,VFR,,,,,,,,,,,,METAR,4.0
KPBG 072153Z AUTO 00000KT 10SM -RA SCT037 BKN075 OVC110 23/21 A2985 RMK AO2 LTG DSNT SW-N SLP108 P0006 T02280211,KPBG,2023-07-07T21:53:00Z,44.65,-73.47,22.8,21.1,0,0,,10.0,29.84941,1010.8,,TRUE,TRUE,,,,,,-RA,SCT,3700,BKN,7500,OVC,11000,,,VFR,,,,,,0.06,,,,,,METAR,61.0
KPBF 072153Z AUTO 25004KT 10SM FEW034 BKN047 32/24 A2990 RMK AO2 SLP123 T03170239,KPBF,2023-07-07T21:53:00Z,34.18,-91.93,31.7,23.9,250,4,,10.0,29.899607,1012.3,,TRUE,TRUE,,,,,,,FEW,3400,BKN,4700,,,,,VFR,,,,,,,,,,,,METAR,63.0
KPAH 072153Z 34003KT 10SM SCT055 OVC080 31/20 A2990 RMK AO2 SLP119 T03060200,KPAH,2023-07-07T21:53:00Z,37.07,-88.77,30.6,20.0,340,3,,10.0,29.899607,1011.9,,,TRUE,,,,,,,SCT,5500,OVC,8000,,,,,VFR,,,,,,,,,,,,METAR,125.0
KPAE 072153Z 27009G17KT 10SM CLR 21/12 A2990 RMK AO2 SLP123 T02110122,KPAE,2023-07-07T21:53:00Z,47.92,-122.28,21.1,12.2,270,9,17,10.0,29.899607,1012.3,,,TRUE,,,,,,,CLR,,,,,,,,VFR,,,,,,,,,,,,METAR,166.0
KP68 072153Z AUTO 18008G17KT 32/M07 A2992 RMK AO1 SLP033 T03171072,KP68,2023-07-07T21:53:00Z,39.6,-116.0,31.7,-7.2,180,8,17,,29.920275,1003.3,,TRUE,TRUE,,,,,,,,,,,,,,,,,,,,,,,,,,,METAR,1813.0
KOWD 072153Z 20009KT 10SM CLR 29/18 A2984 RMK AO2 SLP104 T02890183,KOWD,2023-07-07T21:53:00Z,42.18,-71.17,28.9,18.3,200,9,,10.0,29.840551,1010.4,,,TRUE,,,,,,,CLR,,,,,,,,VFR,,,,,,,,,,,,METAR,14.0
KOWA 072153Z AUTO 23004KT 10SM CLR 21/09 A2996 RMK AO2,KOWA,2023-07-07T21:53:00Z,44.12,-93.25,21.0,9.0,230,4,,10.0,29.958662,,,TRUE,TRUE,,,,,,,CLR,,,,,,,,VFR,,,,,,,,,,,,METAR,345.0
KOVS 072153Z AUTO 28003KT 10SM BKN110 23/11 A2994 RMK AO2 SLP140 T02280111,KOVS,2023-07-07T21:53:00Z,43.15,-90.68,22.8,11.1,280,3,,10.0,29.940945,1014.0,,TRUE,TRUE,,,,,,,BKN,11000,,,,,,,VFR,,,,,,,,,,,,METAR,205.0
KOVE 072153Z AUTO 18006G14KT 10SM CLR 31/14 A2980 RMK AO2 SLP091 T03060144,KOVE,2023-07-07T21:53:00Z,39.5,-121.62,30.6,14.4,180,6,14,10.0,29.799213,1009.1,,TRUE,TRUE,,,,,,,CLR,,,,,,,,VFR,,,,,,,,,,,,METAR,56.0
KOSU 072153Z 34005KT 10SM CLR 30/16 A2992 RMK AO2 SLP124 T03000161,KOSU,2023-07-07T21:53:00Z,40.08,-83.08,30.0,16.1,340,5,,10.0,29.920275,1012.4,,,TRUE,,,,,,,CLR,,,,,,,,VFR,,,,,,,,,,,,METAR,276.0
KOSH 072153Z 21004KT 10SM CLR 25/11 A2994 RMK AO2 SLP130 T02500106,KOSH,2023-07-07T21:53:00Z,43.98,-88.55,25.0,10.6,210,4,,10.0,29.940945,1013.0,,,TRUE,,,,,,,CLR,,,,,,,,VFR,,,,,,,,,,,,METAR,239.0
KORL 072153Z 19006KT 10SM FEW110 28/24 A2992 RMK AO2 LTG DSNT ALQDS RAE05 TSE06 SLP134 P0000 T02780239,KORL,2023-07-07T21:53:00Z,28.55,-81.33,27.8,23.9,190,6,,10.0,29.920275,1013.4,,,TRUE,,,,,,,FEW,11000,,,,,,,VFR,,,,,,0.005,,,,,,METAR,32.0
KORB 072153Z AUTO 28009KT 10SM CLR 18/13 A2989 RMK AO2,KORB,2023-07-07T21:53:00Z,48.02,-92.87,18.0,13.0,280,9,,10.0,29.890747,,,TRUE,TRUE,,,,,,,CLR,,,,,,,,VFR,,,,,,,,,,,,METAR,407.0
KOQT 072153Z AUTO 07006KT 10SM FEW075 31/19 A2991 RMK AO2 SLP110 T03110189,KOQT,2023-07-07T21:53:00Z,36.02,-84.23,31.1,18.9,70,6,,10.0,29.911417,1011.0,,TRUE,TRUE,,,,,,,FEW,7500,,,,,,,VFR,,,,,,,,,,,,METAR,276.0
KONT 072153Z 25009KT 10SM CLR 29/10 A2981 RMK AO2 SLP083 T02890100,KONT,2023-07-07T21:53:00Z,34.05,-117.58,28.9,10.0,250,9,,10.0,29.811024,1008.3,,,TRUE,,,,,,,CLR,,,,,,,,VFR,,,,,,,,,,,,METAR,279.0
KONO 072153Z AUTO VRB06KT 10SM CLR 35/08 A2978 RMK AO2 SLP064 T03500078,KONO,2023-07-07T21:53:00Z,44.02,-117.02,35.0,7.8,0,6,,10.0,29.778543,1006.4,,TRUE,TRUE,,,,,,,CLR,,,,,,,,VFR,,,,,,,,,,,,METAR,668.0
KOMK 072153Z AUTO 04015G23KT 10SM SCT110 34/07 A2980 RMK AO2 LTG DSNT N AND E AND W SLP077 T03440067,KOMK,2023-07-07T21:53:00Z,48.47,-119.52,34.4,6.7,40,15,23,10.0,29.799213,1007.7,,TRUE,TRUE,,,,,,,SCT,11000,,,,,,,VFR,,,,,,,,,,,,METAR,395.0
KOLF 072153Z AUTO 10SM BKN110 26/05 A3003 RMK AO2 SLP166 T02610050,KOLF,2023-07-07T21:53:00Z,48.1,-105.58,26.1,5.0,,,,10.0,30.029528,1016.6,,TRUE,TRUE,,,,,,,BKN,11000,,,,,,,VFR,,,,,,,,,,,,METAR,605.0
KOGD 072153Z 26008KT 10SM CLR 34/M01 A2986 RMK AO2 SLP039 T03391006,KOGD,2023-07-07T21:53:00Z,41.2,-112.02,33.9,-0.6,260,8,,10.0,29.861221,1003.9,,,TRUE,,,,,,,CLR,,,,,,,,VFR,,,,,,,,,,,,METAR,1356.0
KOGB 072153Z AUTO 06005KT 10SM SCT050 SCT065 BKN110 33/24 A2981 RMK AO2 LTG DSNT ALQDS SLP090 T03280244,KOGB,2023-07-07T21:53:00Z,33.47,-80.85,32.8,24.4,60,5,,10.0,29.811024,1009.0,,TRUE,TRUE,,,,,,,SCT,5000,SCT,6500,BKN,11000,,,VFR,,,,,,,,,,,,METAR,59.0
KODX 072153Z AUTO 35009KT 10SM CLR 25/17 A2992 RMK AO2 SLP124 T02500167,KODX,2023-07-07T21:53:00Z,41.62,-98.95,25.0,16.7,350,9,,10.0,29.920275,1012.4,,TRUE,TRUE,,,,,,,CLR,,,,,,,,VFR,,,,,,,,,,,,METAR,628.0
KODO 072153Z AUTO 16016G26KT 10SM CLR 36/16 A2992 RMK AO2 PK WND 17027/2112 SLP075 T03560161,KODO,2023-07-07T21:53:00Z,31.92,-102.4,35.6,16.1,160,16,26,10.0,29.920275,1007.5,,TRUE,TRUE,,,,,,,CLR,,,,,,,,VFR,,,,,,,,,,,,METAR,912.0
KOAK 072153Z 25013KT 10SM OVC015 17/11 A2995 RMK AO2 SLP141 T01670111 $,KOAK,2023-07-07T21:53:00Z,37.72,-122.23,16.7,11.1,250,13,,10.0,29.949802,1014.1,,,TRUE,TRUE,,,,,,OVC,1500,,,,,,,MVFR,,,,,,,,,,,,METAR,3.0
KNUW 072153Z 26008KT 10SM FEW020 FEW070 SCT110 SCT220 16/12 A2991 RMK AO2 SLP131 T01610117 VISNO $,KNUW,2023-07-07T21:53:00Z,48.35,-122.65,16.1,11.7,260,8,,10.0,29.911417,1013.1,,,TRUE,TRUE,,,,,,FEW,2000,FEW,7000,SCT,11000,SCT,22000,VFR,,,,,,,,,,,,METAR,14.0
KNUI 072153Z AUTO 00000KT 10SM FEW110 28/23 A2981 RMK AO2 TSE24 SLP094 T02780228,KNUI,2023-07-07T21:53:00Z,38.15,-76.43,27.8,22.8,0,0,,10.0,29.811024,1009.4,,TRUE,TRUE,,,,,,,FEW,11000,,,,,,,VFR,,,,,,,,,,,,METAR,4.0
KNSI 072153Z AUTO 32015KT 10SM OVC012 18/ A2988 RMK AO2 SLP114 T0178 $,KNSI,2023-07-07T21:53:00Z,33.23,-119.45,17.8,,320,15,,10.0,29.878937,1011.4,,TRUE,TRUE,TRUE,,,,,,OVC,1200,,,,,,,MVFR,,,,,,,,,,,,SPECI,161.0
KNRS 072153Z 28010KT 10SM FEW022 20/13 A2987 RMK AO2 SLP113 T02000128,KNRS,2023-07-07T21:53:00Z,32.57,-117.12,20.0,12.8,280,10,,10.0,29.870079,1011.3,,,TRUE,,,,,,,FEW,2200,,,,,,,VFR,,,,,,,,,,,,METAR,15.0
KNQX 072153Z 21008KT 10SM FEW028 32/25 A2996 RMK AO2 SLP144 T03220250 $,KNQX,2023-07-07T21:53:00Z,24.57,-81.67,32.2,25.0,210,8,,10.0,29.958662,1014.4,,,TRUE,TRUE,,,,,,FEW,2800,,,,,,,VFR,,,,,,,,,,,,METAR,2.0
KNIP 072153Z 18012KT 3SM TSRA BR SCT017 BKN030CB BKN085 BKN250 26/24 A2988 RMK AO2 PK WND 19028/2122 WSHFT 2111 SLP114 FRQ LTGICCCCG SE TS SE MOV SE T1 SET P0014 T02610239,KNIP,2023-07-07T21:53:00Z,30.23,-81.67,26.1,23.9,180,12,,3.0,29.878937,1011.4,,,TRUE,,,,,,TSRA BR,SCT,1700,BKN,3000,BKN,8500,BKN,25000,MVFR,,,,,,0.14,,,,,,SPECI,3.0
KNFG 072153Z 22008KT 10SM CLR 24/13 A2984 RMK AO2 SLP103 T02390133 $,KNFG,2023-07-07T21:53:00Z,33.3,-117.35,23.9,13.3,220,8,,10.0,29.840551,1010.3,,,TRUE,TRUE,,,,,,CLR,,,,,,,,VFR,,,,,,,,,,,,METAR,21.0
KNEW 072153Z 24008KT 10SM CLR 32/22 A2994 RMK AO2 LTG DSNT N SLP132 T03220222,KNEW,2023-07-07T21:53:00Z,30.05,-90.03,32.2,22.2,240,8,,10.0,29.940945,1013.2,,,TRUE,,,,,,,CLR,,,,,,,,VFR,,,,,,,,,,,,METAR,1.0
KMYV 072153Z AUTO 13009KT 10SM CLR 29/14 A2979 RMK AO2 SLP091 T02890144,KMYV,2023-07-07T21:53:00Z,39.1,-121.57,28.9,14.4,130,9,,10.0,29.790354,1009.1,,TRUE,TRUE,,,,,,,CLR,,,,,,,,VFR,,,,,,,,,,,,METAR,18.0
KMYF 072153Z 24009G17KT 10SM CLR 22/13 A2984 RMK AO2 SLP102 T02170128,KMYF,2023-07-07T21:53:00Z,32.82,-117.13,21.7,12.8,240,9,17,10.0,29.840551,1010.2,,,TRUE,,,,,,,CLR,,,,,,,,VFR,,,,,,,,,,,,METAR,128.0
KMWT 072153Z AUTO VRB05KT 10SM FEW034 SCT047 32/22 A2990 RMK AO2 SLP112 T03170222,KMWT,2023-07-07T21:53:00Z,34.55,-93.58,31.7,22.2,0,5,,10.0,29.899607,1011.2,,TRUE,TRUE,,,,,,,FEW,3400,SCT,4700,,,,,VFR,,,,,,,,,,,,METAR,220.0
KMWL 072153Z AUTO 17016G22KT 10SM CLR 36/19 A2984 RMK AO2 SLP090 T03560194,KMWL,2023-07-07T21:53:00Z,32.78,-98.07,35.6,19.4,170,16,22,10.0,29.840551,1009.0,,TRUE,TRUE,,,,,,,CLR,,,,,,,,VFR,,,,,,,,,,,,METAR,288.0
KMVY 072153Z 16008KT 10SM CLR 23/21 A2987 RMK AO2 SLP112 T02330206,KMVY,2023-07-07T21:53:00Z,41.4,-70.62,23.3,20.6,160,8,,10.0,29.870079,1011.2,,,TRUE,,,,,,,CLR,,,,,,,,VFR,,,,,,,,,,,,METAR,18.0
KMTJ 072153Z AUTO 25011G18KT 10SM CLR 33/M01 A2999 RMK AO2 PK WND 25030/2107 SLP065 T03281011,KMTJ,2023-07-07T21:53:00Z,38.5,-107.9,32.8,-1.1,250,11,18,10.0,29.991142,1006.5,,TRUE,TRUE,,,,,,,CLR,,,,,,,,VFR,,,,,,,,,,,,METAR,1755.0
KMTH 072153Z AUTO 22007KT 7SM CLR 33/24 A2995 RMK AO2 SLP141 T03330244,KMTH,2023-07-07T21:53:00Z,24.73,-81.05,33.3,24.4,220,7,,7.0,29.949802,1014.1,,TRUE,TRUE,,,,,,,CLR,,,,,,,,VFR,,,,,,,,,,,,METAR,1.0
KMSY 072153Z 23006KT 10SM FEW035 SCT140 BKN200 31/23 A2993 RMK AO2 LTG DSNT N AND NE SLP140 CB DSNT N AND NE AND NW T03110228,KMSY,2023-07-07T21:53:00Z,30.0,-90.25,31.1,22.8,230,6,,10.0,29.929134,1014.0,,,TRUE,,,,,,,FEW,3500,SCT,14000,BKN,20000,,,VFR,,,,,,,,,,,,METAR,0.0
KMSS 072153Z AUTO 25003KT 10SM FEW095 27/18 A2984 RMK AO2 SLP102 T02670183,KMSS,2023-07-07T21:53:00Z,44.93,-74.85,26.7,18.3,250,3,,10.0,29.840551,1010.2,,TRUE,TRUE,,,,,,,FEW,9500,,,,,,,VFR,,,,,,,,,,,,METAR,60.0
KMSP 072153Z 24006KT 10SM FEW100 OVC180 23/09 A2995 RMK AO2 SLP139 T02280089,KMSP,2023-07-07T21:53:00Z,44.88,-93.23,22.8,8.9,240,6,,10.0,29.949802,1013.9,,,TRUE,,,,,,,FEW,10000,OVC,18000,,,,,VFR,,,,,,,,,,,,METAR,255.0
KMSO 072153Z VRB06KT 10SM CLR 31/06 A2989 RMK AO2 SLP098 T03060056,KMSO,2023-07-07T21:53:00Z,46.92,-114.1,30.6,5.6,0,6,,10.0,29.890747,1009.8,,,TRUE,,,,,,,CLR,,,,,,,,VFR,,,,,,,,,,,,METAR,974.0
KMSN 072153Z 00000KT 10SM FEW055 BKN190 BKN230 24/11 A2993 RMK AO2 SLP134 T02440106,KMSN,2023-07-07T21:53:00Z,43.13,-89.35,24.4,10.6,0,0,,10.0,29.929134,1013.4,,,TRUE,,,,,,,FEW,5500,BKN,19000,BKN,23000,,,VFR,,,,,,,,,,,,METAR,262.0
KMSL 072153Z AUTO 30010G20KT 10SM VCTS -RA SCT033 BKN060 OVC110 23/21 A2996 RMK AO2 LTG DSNT W AND NW RAB39 SLP139 P0001 T02330206,KMSL,2023-07-07T21:53:00Z,34.75,-87.6,23.3,20.6,300,10,20,10.0,29.958662,1013.9,,TRUE,TRUE,,,,,,VCTS -RA,SCT,3300,BKN,6000,OVC,11000,,,VFR,,,,,,0.01,,,,,,METAR,170.0
KMRB 072153Z 36005KT 10SM CLR 30/21 A2982 RMK AO2 SLP091 T03000206,KMRB,2023-07-07T21:53:00Z,39.4,-77.98,30.0,20.6,360,5,,10.0,29.819881,1009.1,,,TRUE,,,,,,,CLR,,,,,,,,VFR,,,,,,,,,,,,METAR,165.0
KMPO 072153Z AUTO 15003KT 10SM -RA CLR 24/21 A2991 RMK AO2 LTG DSNT SW-N RAB2057 SLP117 P0000 T02440206,KMPO,2023-07-07T21:53:00Z,41.13,-75.38,24.4,20.6,150,3,,10.0,29.911417,1011.7,,TRUE,TRUE,,,,,,-RA,CLR,,,,,,,,VFR,,,,,,0.005,,,,,,METAR,576.0
KMNN 072153Z AUTO 05004KT 10SM CLR 27/16 A2994 RMK AO2 SLP132 T02720161,KMNN,2023-07-07T21:53:00Z,40.62,-83.07,27.2,16.1,50,4,,10.0,29.940945,1013.2,,TRUE,TRUE,,,,,,,CLR,,,,,,,,VFR,,,,,,,,,,,,METAR,301.0
KMMV 072153Z AUTO VRB06KT 10SM CLR 24/12 A2990 RMK AO2 SLP122 T02390117,KMMV,2023-07-07T21:53:00Z,45.2,-123.13,23.9,11.7,0,6,,10.0,29.899607,1012.2,,TRUE,TRUE,,,,,,,CLR,,,,,,,,VFR,,,,,,,,,,,,METAR,48.0
KMMK 072153Z AUTO 18006KT 10SM CLR 28/20 A2983 RMK AO2 SLP100 T02830200,KMMK,2023-07-07T21:53:00Z,41.52,-72.83,28.3,20.0,180,6,,10.0,29.828741,1010.0,,TRUE,TRUE,,,,,,,CLR,,,,,,,,VFR,,,,,,,,,,,,METAR,30.0
KMLU 072153Z 06004KT 10SM BKN040 OVC055 33/23 A2991 RMK AO2 SLP127 T03280233,KMLU,2023-07-07T21:53:00Z,32.52,-92.03,32.8,23.3,60,4,,10.0,29.911417,1012.7,,,TRUE,,,,,,,BKN,4000,OVC,5500,,,,,VFR,,,,,,,,,,,,METAR,22.0
KMLS 072153Z AUTO 04008KT 10SM VCTS FEW070 SCT100 25/08 A3003 RMK AO2 LTG DSNT SW AND W SLP157 T02500083,KMLS,2023-07-07T21:53:00Z,46.43,-105.88,25.0,8.3,40,8,,10.0,30.029528,1015.7,,TRUE,TRUE,,,,,,VCTS,FEW,7000,SCT,10000,,,,,VFR,,,,,,,,,,,,METAR,800.0
KMLP 072153Z AUTO 00000KT 10SM SCT070 22/04 A3008 RMK AO2 SLP086 T02170044,KMLP,2023-07-07T21:53:00Z,47.45,-115.67,21.7,4.4,0,0,,10.0,30.079725,1008.6,,TRUE,TRUE,,,,,,,SCT,7000,,,,,,,VFR,,,,,,,,,,,,METAR,1837.0
KMLC 072153Z AUTO 01004KT 10SM CLR 29/22 A2995 RMK AO2 SLP132 T02940217,KMLC,2023-07-07T21:53:00Z,34.88,-95.78,29.4,21.7,10,4,,10.0,29.949802,1013.2,,TRUE,TRUE,,,,,,,CLR,,,,,,,,VFR,,,,,,,,,,,,METAR,231.0
KMLB 072153Z 18005KT 10SM SCT050 SCT070 BKN090 25/23 A2992 RMK AO2 LTG DSNT SW AND W RAE50 SLP132 P0001 T02500228,KMLB,2023-07-07T21:53:00Z,28.1,-80.65,25.0,22.8,180,5,,10.0,29.920275,1013.2,,,TRUE,,,,,,,SCT,5000,SCT,7000,BKN,9000,,,VFR,,,,,,0.01,,,,,,METAR,7.0
KMKO 072153Z AUTO 21006KT 10SM CLR 28/22 A2994 RMK AO2 SLP130 T02830217,KMKO,2023-07-07T21:53:00Z,35.65,-95.37,28.3,21.7,210,6,,10.0,29.940945,1013.0,,TRUE,TRUE,,,,,,,CLR,,,,,,,,VFR,,,,,,,,,,,,METAR,184.0
KMKL 072153Z 20004KT 10SM OVC055 29/23 A2993 RMK AO2 SLP131 T02890228,KMKL,2023-07-07T21:53:00Z,35.6,-88.92,28.9,22.8,200,4,,10.0,29.929134,1013.1,,,TRUE,,,,,,,OVC,5500,,,,,,,VFR,,,,,,,,,,,,METAR,130.0
KMIW 072153Z AUTO 19005KT 8SM -RA FEW024 SCT031 OVC055 18/14 A2997 RMK AO2 SLP148 P0001 T01780139,KMIW,2023-07-07T21:53:00Z,42.12,-92.92,17.8,13.9,190,5,,8.0,29.970472,1014.8,,TRUE,TRUE,,,,,,-RA,FEW,2400,SCT,3100,OVC,5500,,,VFR,,,,,,0.01,,,,,,METAR,296.0
KMIE 072153Z 33004KT 10SM CLR 29/16 A2993 RMK AO2 SLP126 T02940156,KMIE,2023-07-07T21:53:00Z,40.23,-85.4,29.4,15.6,330,4,,10.0,29.929134,1012.6,,,TRUE,,,,,,,CLR,,,,,,,,VFR,,,,,,,,,,,,METAR,286.0
KMIC 072153Z 10SM CLR 23/09 A2994 RMK AO2 SLP136 T02330094,KMIC,2023-07-07T21:53:00Z,45.07,-93.35,23.3,9.4,,,,10.0,29.940945,1013.6,,,TRUE,,,,,,,CLR,,,,,,,,VFR,,,,,,,,,,,,METAR,263.0
KMIA 072153Z 35010G15KT 10SM TS SCT035CB SCT050 BKN250 32/24 A2995 RMK AO2 SLP141 TSB36 OCNL LTGICCG NW-NE TS NW-NE MOV E T03170239 $,KMIA,2023-07-07T21:53:00Z,25.8,-80.32,31.7,23.9,350,10,15,10.0,29.949802,1014.1,,,TRUE,TRUE,,,,,TS,SCT,3500,SCT,5000,BKN,25000,,,VFR,,,,,,,,,,,,METAR,1.0
KMHT 072153Z 19006KT 10SM FEW055 FEW130 BKN250 31/19 A2981 RMK AO2 SLP101 T03060189,KMHT,2023-07-07T21:53:00Z,42.93,-71.43,30.6,18.9,190,6,,10.0,29.811024,1010.1,,,TRUE,,,,,,,FEW,5500,FEW,13000,BKN,25000,,,VFR,,,,,,,,,,,,METAR,68.0
KMHE 072153Z AUTO 17003KT 10SM FEW025 SCT034 20/14 A2997 RMK AO2 SLP146 T02000139,KMHE,2023-07-07T21:53:00Z,43.77,-98.03,20.0,13.9,170,3,,10.0,29.970472,1014.6,,TRUE,TRUE,,,,,,,FEW,2500,SCT,3400,,,,,VFR,,,,,,,,,,,,METAR,397.0
KMGY 072153Z AUTO 29003KT 10SM CLR 29/14 A2992 RMK AO2 SLP122 T02890139,KMGY,2023-07-07T21:53:00Z,39.6,-84.23,28.9,13.9,290,3,,10.0,29.920275,1012.2,,TRUE,TRUE,,,,,,,CLR,,,,,,,,VFR,,,,,,,,,,,,METAR,290.0
KMGW 072153Z 33005KT 10SM SCT035 SCT041 BKN060 29/21 A2991 RMK AO2 SLP118 T02890206,KMGW,2023-07-07T21:53:00Z,39.65,-79.92,28.9,20.6,330,5,,10.0,29.911417,1011.8,,,TRUE,,,,,,,SCT,3500,SCT,4100,BKN,6000,,,VFR,,,,,,,,,,,,METAR,375.0
KMFR 072153Z 32011KT 10SM CLR 32/03 A2980 RMK AO2 SLP077 T03220028,KMFR,2023-07-07T21:53:00Z,42.38,-122.87,32.2,2.8,320,11,,10.0,29.799213,1007.7,,,TRUE,,,,,,,CLR,,,,,,,,VFR,,,,,,,,,,,,METAR,397.0
KMFE 072153Z 11012KT 10SM CLR 33/25 A2985 RMK AO2 SLP108 T03330250,KMFE,2023-07-07T21:53:00Z,26.18,-98.25,33.3,25.0,110,12,,10.0,29.84941,1010.8,,,TRUE,,,,,,,CLR,,,,,,,,VFR,,,,,,,,,,,,METAR,29.0
KMER 072153Z 31010KT 10SM CLR 32/12 A2981,KMER,2023-07-07T21:53:00Z,37.38,-120.57,32.0,12.0,310,10,,10.0,29.811024,,,,,,,,,,,CLR,,,,,,,,VFR,,,,,,,,,,,,METAR,58.0
KMDW 072153Z 09009KT 10SM SCT055 BKN250 26/17 A2992 RMK AO2 SLP123 T02560172,KMDW,2023-07-07T21:53:00Z,41.78,-87.75,25.6,17.2,90,9,,10.0,29.920275,1012.3,,,TRUE,,,,,,,SCT,5500,BKN,25000,,,,,VFR,,,,,,,,,,,,METAR,186.0
KMCW 072153Z AUTO 18007KT 10SM SCT016 OVC075 16/13 A3000 RMK AO2 RAB01E46 SLP157 P0000 T01560128,KMCW,2023-07-07T21:53:00Z,43.15,-93.33,15.6,12.8,180,7,,10.0,30.0,1015.7,,TRUE,TRUE,,,,,,,SCT,1600,OVC,7500,,,,,VFR,,,,,,0.005,,,,,,METAR,363.0
KMCO 072153Z 20010KT 10SM TS FEW030CB SCT100 BKN160 BKN210 BKN250 26/24 A2993 RMK AO2 LTG DSNT ALQDS RAE14 SLP134 OCNL LTGICCG SE TS SE MOV E VCSH SE P0005 T02610239,KMCO,2023-07-07T21:53:00Z,28.42,-81.33,26.1,23.9,200,10,,10.0,29.929134,1013.4,,,TRUE,,,,,,TS,FEW,3000,SCT,10000,BKN,16000,BKN,21000,VFR,,,,,,0.05,,,,,,METAR,27.0
KMCN 072153Z 02012KT 10SM SCT070 29/23 A2986 RMK AO2 LTG DSNT ALQDS SLP108 T02890228,KMCN,2023-07-07T21:53:00Z,32.68,-83.65,28.9,22.8,20,12,,10.0,29.861221,1010.8,,,TRUE,,,,,,,SCT,7000,,,,,,,VFR,,,,,,,,,,,,METAR,104.0
KMCK 072153Z AUTO 05004KT 10SM CLR 28/14 A2995 RMK AO2 SLP116 T02830139,KMCK,2023-07-07T21:53:00Z,40.2,-100.58,28.3,13.9,50,4,,10.0,29.949802,1011.6,,TRUE,TRUE,,,,,,,CLR,,,,,,,,VFR,,,,,,,,,,,,METAR,780.0
KMCI 072153Z 12007KT 10SM SCT200 26/19 A2988 RMK AO2 SLP108 T02560189,KMCI,2023-07-07T21:53:00Z,39.3,-94.73,25.6,18.9,120,7,,10.0,29.878937,1010.8,,,TRUE,,,,,,,SCT,20000,,,,,,,VFR,,,,,,,,,,,,METAR,308.0
KMCE 072153Z AUTO VRB06KT 10SM CLR 29/12 A2980 RMK AO2 SLP090 T02940117,KMCE,2023-07-07T21:53:00Z,37.28,-120.5,29.4,11.7,0,6,,10.0,29.799213,1009.0,,TRUE,TRUE,,,,,,,CLR,,,,,,,,VFR,,,,,,,,,,,,METAR,49.0
KMCB 072153Z AUTO 29007KT 10SM FEW055 33/20 A2993 RMK AO2 SLP127 T03280200,KMCB,2023-07-07T21:53:00Z,31.18,-90.47,32.8,20.0,290,7,,10.0,29.929134,1012.7,,TRUE,TRUE,,,,,,,FEW,5500,,,,,,,VFR,,,,,,,,,,,,METAR,124.0
KMBS 072153Z 29005KT 10SM SCT065 24/11 A2995 RMK AO2 SLP141 T02440111,KMBS,2023-07-07T21:53:00Z,43.53,-84.08,24.4,11.1,290,5,,10.0,29.949802,1014.1,,,TRUE,,,,,,,SCT,6500,,,,,,,VFR,,,,,,,,,,,,METAR,201.0
KMAI 072153Z AUTO 24010KT 10SM FEW048 FEW060 31/23 A2986 RMK AO2 LTG DSNT N AND NW SLP109 T03060228,KMAI,2023-07-07T21:53:00Z,30.83,-85.18,30.6,22.8,240,10,,10.0,29.861221,1010.9,,TRUE,TRUE,,,,,,,FEW,4800,FEW,6000,,,,,VFR,,,,,,,,,,,,METAR,33.0
KMAF 072153Z 15019G29KT 10SM CLR 36/17 A2990 RMK AO2 PK WND 15029/2146 SLP071 T03560167 $,KMAF,2023-07-07T21:53:00Z,31.95,-102.2,35.6,16.7,150,19,29,10.0,29.899607,1007.1,,,TRUE,TRUE,,,,,,CLR,,,,,,,,VFR,,,,,,,,,,,,METAR,874.0
KMAE 072153Z AUTO VRB03KT 10SM CLR 32/14 A2981 RMK AO2 SLP091 T03170144,KMAE,2023-07-07T21:53:00Z,36.98,-120.12,31.7,14.4,0,3,,10.0,29.811024,1009.1,,TRUE,TRUE,,,,,,,CLR,,,,,,,,VFR,,,,,,,,,,,,METAR,77.0
KLXV 072153Z AUTO 28011G21KT 10SM BKN110 23/M09 A3030 RMK AO2 PK WND 26031/2116 SLP078 T02281089,KLXV,2023-07-07T21:53:00Z,39.23,-106.32,22.8,-8.9,280,11,21,10.0,30.301182,1007.8,,TRUE,TRUE,,,,,,,BKN,11000,,,,,,,VFR,,,,,,,,,,,,METAR,3027.0
KLXT 072153Z AUTO 07009KT 10SM CLR 27/18 A2988 RMK AO2 SLP112 T02670183,KLXT,2023-07-07T21:53:00Z,38.97,-94.37,26.7,18.3,70,9,,10.0,29.878937,1011.2,,TRUE,TRUE,,,,,,,CLR,,,,,,,,VFR,,,,,,,,,,,,METAR,306.0
KLWV 072153Z AUTO 26004KT 10SM CLR 29/17 A2993 RMK AO2 SLP130 T02940172,KLWV,2023-07-07T21:53:00Z,38.77,-87.6,29.4,17.2,260,4,,10.0,29.929134,1013.0,,TRUE,TRUE,,,,,,,CLR,,,,,,,,VFR,,,,,,,,,,,,METAR,128.0
KLVS 072153Z AUTO 24015G32KT 10SM CLR 33/01 A3007 RMK AO2 PK WND 22041/2059 WSHFT 2109 SLP047 T03330011,KLVS,2023-07-07T21:53:00Z,35.65,-105.13,33.3,1.1,240,15,32,10.0,30.070866,1004.7,,TRUE,TRUE,,,,,,,CLR,,,,,,,,VFR,,,,,,,,,,,,METAR,2095.0
KLVM 072153Z AUTO 07020G24KT 10SM CLR 24/08 A3004 RMK AO2 PK WND 06028/2133 LTG DSNT S SLP141 T02440078,KLVM,2023-07-07T21:53:00Z,45.7,-110.43,24.4,7.8,70,20,24,10.0,30.041338,1014.1,,TRUE,TRUE,,,,,,,CLR,,,,,,,,VFR,,,,,,,,,,,,METAR,1418.0
KLVK 072153Z 30016KT 10SM CLR 21/11 A2989 RMK AO2 SLP119 T02060106 $,KLVK,2023-07-07T21:53:00Z,37.7,-121.82,20.6,10.6,300,16,,10.0,29.890747,1011.9,,,TRUE,TRUE,,,,,,CLR,,,,,,,,VFR,,,,,,,,,,,,METAR,120.0
KLVJ 072153Z AUTO 17008KT 10SM SCT038 33/23 A2994 RMK AO2 SLP137 T03280228,KLVJ,2023-07-07T21:53:00Z,29.52,-95.25,32.8,22.8,170,8,,10.0,29.940945,1013.7,,TRUE,TRUE,,,,,,,SCT,3800,,,,,,,VFR,,,,,,,,,,,,METAR,11.0
KLUK 072153Z 36006KT 10SM CLR 32/13 A2990 RMK AO2 SLP119 T03220128,KLUK,2023-07-07T21:53:00Z,39.1,-84.42,32.2,12.8,360,6,,10.0,29.899607,1011.9,,,TRUE,,,,,,,CLR,,,,,,,,VFR,,,,,,,,,,,,METAR,144.0
KLSE 072153Z 32003KT 10SM FEW120 23/09 A2994 RMK AO2 SLP133 T02280094,KLSE,2023-07-07T21:53:00Z,43.88,-91.25,22.8,9.4,320,3,,10.0,29.940945,1013.3,,,TRUE,,,,,,,FEW,12000,,,,,,,VFR,,,,,,,,,,,,METAR,198.0
KLPR 072153Z AUTO 04007KT 10SM CLR 25/14 A2997 RMK AO2 SLP142 T02500139,KLPR,2023-07-07T21:53:00Z,41.35,-82.18,25.0,13.9,40,7,,10.0,29.970472,1014.2,,TRUE,TRUE,,,,,,,CLR,,,,,,,,VFR,,,,,,,,,,,,METAR,241.0
KLOZ 072153Z AUTO 34003KT 10SM CLR 30/18 A2993 RMK AO2 SLP120 T03000183,KLOZ,2023-07-07T21:53:00Z,37.08,-84.07,30.0,18.3,340,3,,10.0,29.929134,1012.0,,TRUE,TRUE,,,,,,,CLR,,,,,,,,VFR,,,,,,,,,,,,METAR,361.0
KLOU 072153Z VRB03KT 10SM CLR 31/13 A2991 RMK AO2 SLP122 T03060133,KLOU,2023-07-07T21:53:00Z,38.22,-85.67,30.6,13.3,0,3,,10.0,29.911417,1012.2,,,TRUE,,,,,,,CLR,,,,,,,,VFR,,,,,,,,,,,,METAR,165.0
KLOL 072153Z AUTO VRB05KT 10SM CLR 33/04 A2980 RMK AO2 SLP044 T03330039,KLOL,2023-07-07T21:53:00Z,40.07,-118.57,33.3,3.9,0,5,,10.0,29.799213,1004.4,,TRUE,TRUE,,,,,,,CLR,,,,,,,,VFR,,,,,,,,,,,,METAR,1191.0
KLNS 072153Z 11006KT 10SM CLR 28/23 A2982 RMK AO2 LTG DSNT W AND NW SLP095 T02830228,KLNS,2023-07-07T21:53:00Z,40.12,-76.3,28.3,22.8,110,6,,10.0,29.819881,1009.5,,,TRUE,,,,,,,CLR,,,,,,,,VFR,,,,,,,,,,,,METAR,122.0
KLND 072153Z AUTO VRB04KT 10SM SCT110 22/07 A3008 RMK AO2 LTG DSNT W AND NW SLP137 T02170067,KLND,2023-07-07T21:53:00Z,42.82,-108.73,21.7,6.7,0,4,,10.0,30.079725,1013.7,,TRUE,TRUE,,,,,,,SCT,11000,,,,,,,VFR,,,,,,,,,,,,METAR,1700.0
KLMT 072153Z 27011G17KT 10SM CLR 31/05 A2990 RMK AO2 SLP078 T03060050,KLMT,2023-07-07T21:53:00Z,42.15,-121.72,30.6,5.0,270,11,17,10.0,29.899607,1007.8,,,TRUE,,,,,,,CLR,,,,,,,,VFR,,,,,,,,,,,,METAR,1246.0
KLLQ 072153Z AUTO 27006KT 10SM FEW028 31/24 A2991 RMK AO2 SLP124 T03110244,KLLQ,2023-07-07T21:53:00Z,33.63,-91.75,31.1,24.4,270,6,,10.0,29.911417,1012.4,,TRUE,TRUE,,,,,,,FEW,2800,,,,,,,VFR,,,,,,,,,,,,METAR,86.0
KLIT 072153Z 26006KT 10SM SCT041 OVC065 32/23 A2990 RMK AO2 SLP124 T03170233,KLIT,2023-07-07T21:53:00Z,34.73,-92.23,31.7,23.3,260,6,,10.0,29.899607,1012.4,,,TRUE,,,,,,,SCT,4100,OVC,6500,,,,,VFR,,,,,,,,,,,,METAR,77.0
KLHX 072153Z AUTO 09016G25KT 10SM FEW036 27/18 A2997 RMK AO2 SLP092 T02670178,KLHX,2023-07-07T21:53:00Z,38.05,-103.52,26.7,17.8,90,16,25,10.0,29.970472,1009.2,,TRUE,TRUE,,,,,,,FEW,3600,,,,,,,VFR,,,,,,,,,,,,METAR,1289.0
KLHQ 072153Z AUTO 36004KT 10SM CLR 29/19 A2992 RMK AO2 SLP124 T02890194,KLHQ,2023-07-07T21:53:00Z,39.75,-82.67,28.9,19.4,360,4,,10.0,29.920275,1012.4,,TRUE,TRUE,,,,,,,CLR,,,,,,,,VFR,,,,,,,,,,,,METAR,259.0
KLGB 072153Z 21007KT 10SM CLR 22/12 A2984 RMK AO2 SLP105 T02220122,KLGB,2023-07-07T21:53:00Z,33.82,-118.15,22.2,12.2,210,7,,10.0,29.840551,1010.5,,,TRUE,,,,,,,CLR,,,,,,,,VFR,,,,,,,,,,,,METAR,10.0
KLFT 072153Z 20011G23KT 10SM TS BKN045 BKN090 32/23 A2994 RMK AO2 TSB48 SLP137 T03170228,KLFT,2023-07-07T21:53:00Z,30.2,-91.97,31.7,22.8,200,11,23,10.0,29.940945,1013.7,,,TRUE,,,,,,TS,BKN,4500,BKN,9000,,,,,VFR,,,,,,,,,,,,METAR,9.0
KLFK 072153Z AUTO 19008KT 10SM CLR 34/23 A2991 RMK AO2 SLP125 T03390228,KLFK,2023-07-07T21:53:00Z,31.23,-94.75,33.9,22.8,190,8,,10.0,29.911417,1012.5,,TRUE,TRUE,,,,,,,CLR,,,,,,,,VFR,,,,,,,,,,,,METAR,87.0
KLEE 072153Z 08005KT 10SM TS SCT043 BKN060 BKN110 28/23 A2993 RMK AO2 LTG DSNT ALQDS TSB10 SLP133 T02830233,KLEE,2023-07-07T21:53:00Z,28.82,-81.82,28.3,23.3,80,5,,10.0,29.929134,1013.3,,,TRUE,,,,,,TS,SCT,4300,BKN,6000,BKN,11000,,,VFR,,,,,,,,,,,,METAR,21.0
KLEB 072153Z 26007KT 10SM -RA SCT044 BKN090 25/19 A2988 RMK AO2 LTG DSNT S-W RAB51 SLP108 P0000 T02500194,KLEB,2023-07-07T21:53:00Z,43.63,-72.3,25.0,19.4,260,7,,10.0,29.878937,1010.8,,,TRUE,,,,,,-RA,SCT,4400,BKN,9000,,,,,VFR,,,,,,0.005,,,,,,METAR,169.0
KLCH 072153Z AUTO 11010KT 10SM FEW110 31/24 A2995 RMK AO2 LTG DSNT E RAB19E30 SLP148 P0000 T03110244,KLCH,2023-07-07T21:53:00Z,30.13,-93.22,31.1,24.4,110,10,,10.0,29.949802,1014.8,,TRUE,TRUE,,,,,,,FEW,11000,,,,,,,VFR,,,,,,0.005,,,,,,METAR,2.0
KLBX 072153Z AUTO 18012KT 10SM FEW031 32/23 A2993 RMK AO2 SLP134 T03220228,KLBX,2023-07-07T21:53:00Z,29.12,-95.47,32.2,22.8,180,12,,10.0,29.929134,1013.4,,TRUE,TRUE,,,,,,,FEW,3100,,,,,,,VFR,,,,,,,,,,,,METAR,4.0
KLBB 072153Z 16020G28KT 10SM FEW070 BKN250 36/17 A2987 RMK AO2 PK WND 18032/2113 SLP054 T03560172,KLBB,2023-07-07T21:53:00Z,33.67,-101.82,35.6,17.2,160,20,28,10.0,29.870079,1005.4,,,TRUE,,,,,,,FEW,7000,BKN,25000,,,,,VFR,,,,,,,,,,,,METAR,996.0
KLAX 072153Z 25014KT 10SM FEW011 21/14 A2985 RMK AO2 SLP108 T02060139,KLAX,2023-07-07T21:53:00Z,33.93,-118.38,20.6,13.9,250,14,,10.0,29.84941,1010.8,,,TRUE,,,,,,,FEW,1100,,,,,,,VFR,,,,,,,,,,,,METAR,30.0
KLAW 072153Z 15009KT 10SM FEW055 35/22 A2985 RMK AO2 SLP091 T03500217,KLAW,2023-07-07T21:53:00Z,34.55,-98.42,35.0,21.7,150,9,,10.0,29.84941,1009.1,,,TRUE,,,,,,,FEW,5500,,,,,,,VFR,,,,,,,,,,,,METAR,328.0
KLAR 072153Z AUTO 05007KT 010V080 10SM CLR 20/06 A3018 RMK AO2 LTG DSNT SE SLP129 T02000056,KLAR,2023-07-07T21:53:00Z,41.32,-105.67,20.0,5.6,50,7,,10.0,30.180119,1012.9,,TRUE,TRUE,,,,,,,CLR,,,,,,,,VFR,,,,,,,,,,,,METAR,2217.0
KLAN 072153Z 32003KT 10SM CLR 27/11 A2995 RMK AO2 SLP139 T02670111 $,KLAN,2023-07-07T21:53:00Z,42.78,-84.58,26.7,11.1,320,3,,10.0,29.949802,1013.9,,,TRUE,TRUE,,,,,,CLR,,,,,,,,VFR,,,,,,,,,,,,METAR,261.0
KLAA 072153Z AUTO 13011KT 10SM FEW030 BKN040 25/19 A2996 RMK AO2 SLP097 T02500189,KLAA,2023-07-07T21:53:00Z,38.07,-102.68,25.0,18.9,130,11,,10.0,29.958662,1009.7,,TRUE,TRUE,,,,,,,FEW,3000,BKN,4000,,,,,VFR,,,,,,,,,,,,METAR,1129.0
KJLN 072153Z 23012KT 10SM SCT025 BKN065 OVC150 31/22 A2989,KJLN,2023-07-07T21:53:00Z,37.15,-94.5,31.0,22.0,230,12,,10.0,29.890747,,,,,,,,,,,SCT,2500,BKN,6500,OVC,15000,,,VFR,,,,,,,,,,,,METAR,297.0
KJKL 072153Z AUTO 00000KT 10SM CLR 29/18 A2994 RMK AO2 SLP122 T02940183,KJKL,2023-07-07T21:53:00Z,37.6,-83.32,29.4,18.3,0,0,,10.0,29.940945,1012.2,,TRUE,TRUE,,,,,,,CLR,,,,,,,,VFR,,,,,,,,,,,,METAR,414.0
KJER 072153Z AUTO VRB04KT 10SM CLR 31/06 A2986 RMK AO2 SLP067 T03110056,KJER,2023-07-07T21:53:00Z,42.72,-114.45,31.1,5.6,0,4,,10.0,29.861221,1006.7,,TRUE,TRUE,,,,,,,CLR,,,,,,,,VFR,,,,,,,,,,,,METAR,1226.0
KJEF 072153Z 05008KT 10SM FEW060 BKN085 29/19 A2985 RMK AO2 LTG DSNT SE AND S RAE2055 SLP095 P0000 T02890194,KJEF,2023-07-07T21:53:00Z,38.6,-92.15,28.9,19.4,50,8,,10.0,29.84941,1009.5,,,TRUE,,,,,,,FEW,6000,BKN,8500,,,,,VFR,,,,,,0.005,,,,,,METAR,167.0
KJBR 072153Z AUTO 15005KT 10SM FEW032 29/22 A2990 RMK AO2 SLP120 T02940217 $,KJBR,2023-07-07T21:53:00Z,35.83,-90.65,29.4,21.7,150,5,,10.0,29.899607,1012.0,,TRUE,TRUE,TRUE,,,,,,FEW,3200,,,,,,,VFR,,,,,,,,,,,,METAR,79.0
KIXD 072153Z 20008G16KT 10SM FEW037 28/20 A2988 RMK AO2 SLP109 T02780200,KIXD,2023-07-07T21:53:00Z,38.82,-94.88,27.8,20.0,200,8,16,10.0,29.878937,1010.9,,,TRUE,,,,,,,FEW,3700,,,,,,,VFR,,,,,,,,,,,,METAR,322.0
KIWI 072153Z AUTO 16006KT 10SM CLR 24/19 A2988 RMK AO2 SLP117 T02390189,KIWI,2023-07-07T21:53:00Z,43.97,-69.72,23.9,18.9,160,6,,10.0,29.878937,1011.7,,TRUE,TRUE,,,,,,,CLR,,,,,,,,VFR,,,,,,,,,,,,METAR,16.0
KITR 072153Z AUTO 02014KT 10SM CLR 26/13 A3002 RMK AO2 SLP113 T02610133,KITR,2023-07-07T21:53:00Z,39.23,-102.28,26.1,13.3,20,14,,10.0,30.02067,1011.3,,TRUE,TRUE,,,,,,,CLR,,,,,,,,VFR,,,,,,,,,,,,METAR,1285.0
KIPL 072153Z AUTO 28005KT 10SM CLR 41/M06 A2961 RMK AO2 SLP028 T04111056,KIPL,2023-07-07T21:53:00Z,32.83,-115.58,41.1,-5.6,280,5,,10.0,29.610237,1002.8,,TRUE,TRUE,,,,,,,CLR,,,,,,,,VFR,,,,,,,,,,,,METAR,-16.0
KINK 072153Z AUTO A2985 RMK AO2 SLPNO PWINO PNO $,KINK,2023-07-07T21:53:00Z,31.78,-103.2,,,,,,,29.84941,,,TRUE,TRUE,TRUE,,,,TRUE,,,,,,,,,,,,,,,,,,,,,,METAR,857.0
KIML 072153Z AUTO 02007KT 10SM FEW060 27/13 A2999 RMK AO2 SLP127 T02670133,KIML,2023-07-07T21:53:00Z,40.52,-101.62,26.7,13.3,20,7,,10.0,29.991142,1012.7,,TRUE,TRUE,,,,,,,FEW,6000,,,,,,,VFR,,,,,,,,,,,,METAR,997.0
KILM 072153Z 17009KT 10SM CLR 32/24 A2980 RMK AO2 LTG DSNT W SLP089 T03170244,KILM,2023-07-07T21:53:00Z,34.27,-77.9,31.7,24.4,170,9,,10.0,29.799213,1008.9,,,TRUE,,,,,,,CLR,,,,,,,,VFR,,,,,,,,,,,,METAR,9.0
KIDA 072153Z 00000KT 10SM CLR 29/03 A2995 RMK AO2 LTG DSNT SE SLP100 T02890033,KIDA,2023-07-07T21:53:00Z,43.52,-112.07,28.9,3.3,0,0,,10.0,29.949802,1010.0,,,TRUE,,,,,,,CLR,,,,,,,,VFR,,,,,,,,,,,,METAR,1444.0
KICR 072153Z AUTO 06006KT 10SM CLR 22/14 A2997 RMK AO2 SLP138 T02220139,KICR,2023-07-07T21:53:00Z,43.38,-99.85,22.2,13.9,60,6,,10.0,29.970472,1013.8,,TRUE,TRUE,,,,,,,CLR,,,,,,,,VFR,,,,,,,,,,,,METAR,618.0
KIAH 072153Z VRB04KT 10SM SCT035TCU BKN100 BKN250 32/23 A2992 RMK AO2 SLP129 TCU AND VCSH E-SE AND SW T03220228,KIAH,2023-07-07T21:53:00Z,30.0,-95.37,32.2,22.8,0,4,,10.0,29.920275,1012.9,,,TRUE,,,,,,,SCT,3500,BKN,10000,BKN,25000,,,VFR,,,,,,,,,,,,METAR,27.0
KIAG 072153Z 33012KT 10SM CLR 27/13 A2990 RMK AO2 SLP117 T02670133,KIAG,2023-07-07T21:53:00Z,43.12,-78.93,26.7,13.3,330,12,,10.0,29.899607,1011.7,,,TRUE,,,,,,,CLR,,,,,,,,VFR,,,,,,,,,,,,METAR,179.0
KHZY 072153Z AUTO 34005KT 10SM CLR 24/14 A2998 RMK AO2 SLP146 T02390139,KHZY,2023-07-07T21:53:00Z,41.78,-80.7,23.9,13.9,340,5,,10.0,29.97933,1014.6,,TRUE,TRUE,,,,,,,CLR,,,,,,,,VFR,,,,,,,,,,,,METAR,279.0
KHYR 072153Z AUTO VRB05KT 10SM SCT080 BKN090 23/11 A2996 RMK AO2 SLP146 T02280111,KHYR,2023-07-07T21:53:00Z,46.02,-91.45,22.8,11.1,0,5,,10.0,29.958662,1014.6,,TRUE,TRUE,,,,,,,SCT,8000,BKN,9000,,,,,VFR,,,,,,,,,,,,METAR,369.0
KHWO 072153Z 23007KT 10SM TSRA FEW070 SCT090 OVC110 27/24 A2998 RMK AO2 LTG DSNT SE-W RAB10 TSE24B27 SLP153 P0003 T02670244,KHWO,2023-07-07T21:53:00Z,26.0,-80.23,26.7,24.4,230,7,,10.0,29.97933,1015.3,,,TRUE,,,,,,TSRA,FEW,7000,SCT,9000,OVC,11000,,,VFR,,,,,,0.03,,,,,,METAR,2.0
KHVR 072153Z AUTO 17015G21KT 10SM CLR 28/08 A3002 RMK AO2 SLP151 T02780078,KHVR,2023-07-07T21:53:00Z,48.55,-109.77,27.8,7.8,170,15,21,10.0,30.02067,1015.1,,TRUE,TRUE,,,,,,,CLR,,,,,,,,VFR,,,,,,,,,,,,METAR,789.0
KHVN 072153Z 12008KT 10SM CLR 27/23 A2984 RMK AO2 SLP105 T02720228,KHVN,2023-07-07T21:53:00Z,41.27,-72.88,27.2,22.8,120,8,,10.0,29.840551,1010.5,,,TRUE,,,,,,,CLR,,,,,,,,VFR,,,,,,,,,,,,METAR,4.0
KHUF 072153Z 24007KT 10SM FEW120 28/18 A2994 RMK AO2 SLP133 T02830183,KHUF,2023-07-07T21:53:00Z,39.45,-87.32,28.3,18.3,240,7,,10.0,29.940945,1013.3,,,TRUE,,,,,,,FEW,12000,,,,,,,VFR,,,,,,,,,,,,METAR,174.0
KHTL 072153Z AUTO VRB05KT 10SM CLR 24/09 A2996 RMK AO2 SLP146 T02390094,KHTL,2023-07-07T21:53:00Z,44.35,-84.67,23.9,9.4,0,5,,10.0,29.958662,1014.6,,TRUE,TRUE,,,,,,,CLR,,,,,,,,VFR,,,,,,,,,,,,METAR,350.0
KHSV 072153Z 32007KT 10SM FEW045 BKN150 31/22 A2991 RMK AO2 LTG DSNT E-SW SLP118 T03060222 $,KHSV,2023-07-07T21:53:00Z,34.65,-86.78,30.6,22.2,320,7,,10.0,29.911417,1011.8,,,TRUE,TRUE,,,,,,FEW,4500,BKN,15000,,,,,VFR,,,,,,,,,,,,METAR,190.0
KHSI 072153Z AUTO 35012KT 10SM SCT028 27/19 A2991 RMK AO2 SLP114 T02670189,KHSI,2023-07-07T21:53:00Z,40.6,-98.43,26.7,18.9,350,12,,10.0,29.911417,1011.4,,TRUE,TRUE,,,,,,,SCT,2800,,,,,,,VFR,,,,,,,,,,,,METAR,592.0
KHRO 072153Z AUTO 00000KT 10SM FEW043 SCT060 BKN070 31/21 A2992 RMK AO2 LTG DSNT E AND SE SLP114 T03110206,KHRO,2023-07-07T21:53:00Z,36.27,-93.15,31.1,20.6,0,0,,10.0,29.920275,1011.4,,TRUE,TRUE,,,,,,,FEW,4300,SCT,6000,BKN,7000,,,VFR,,,,,,,,,,,,METAR,417.0
KHRI 072153Z AUTO 35008KT 10SM CLR 37/08 A2971 RMK AO2 SLP054 T03720083,KHRI,2023-07-07T21:53:00Z,45.83,-119.27,37.2,8.3,350,8,,10.0,29.71063,1005.4,,TRUE,TRUE,,,,,,,CLR,,,,,,,,VFR,,,,,,,,,,,,METAR,194.0
KHQM 072153Z AUTO 26012KT 10SM OVC023 17/12 A2996 RMK AO2 SLP149 T01670117,KHQM,2023-07-07T21:53:00Z,46.97,-123.93,16.7,11.7,260,12,,10.0,29.958662,1014.9,,TRUE,TRUE,,,,,,,OVC,2300,,,,,,,MVFR,,,,,,,,,,,,METAR,4.0
KHOU 072153Z 18010KT 10SM SCT035TCU SCT110 BKN250 33/23 A2992 RMK AO2 SLP134 TCU E SHRA DSNT NW-N T03330228,KHOU,2023-07-07T21:53:00Z,29.63,-95.28,33.3,22.8,180,10,,10.0,29.920275,1013.4,,,TRUE,,,,,,,SCT,3500,SCT,11000,BKN,25000,,,VFR,,,,,,,,,,,,METAR,13.0
KHOT 072153Z AUTO 21004KT 10SM CLR 31/24 A2991 RMK AO2 SLP121 T03110239,KHOT,2023-07-07T21:53:00Z,34.48,-93.1,31.1,23.9,210,4,,10.0,29.911417,1012.1,,TRUE,TRUE,,,,,,,CLR,,,,,,,,VFR,,,,,,,,,,,,METAR,153.0
KHLN 072153Z 07008G17KT 10SM CLR 28/05 A2999 RMK AO2 SLP140 T02830050,KHLN,2023-07-07T21:53:00Z,46.6,-111.98,28.3,5.0,70,8,17,10.0,29.991142,1014.0,,,TRUE,,,,,,,CLR,,,,,,,,VFR,,,,,,,,,,,,METAR,1178.0
KHLG 072153Z 33007KT 10SM FEW047 SCT060 26/18 A2992 RMK AO2 SLP124 T02610178,KHLG,2023-07-07T21:53:00Z,40.17,-80.65,26.1,17.8,330,7,,10.0,29.920275,1012.4,,,TRUE,,,,,,,FEW,4700,SCT,6000,,,,,VFR,,,,,,,,,,,,METAR,365.0
KHLC 072153Z AUTO 10SM FEW043 28/18 A2992 RMK AO2 SLP109 T02780183 $,KHLC,2023-07-07T21:53:00Z,39.37,-99.83,27.8,18.3,,,,10.0,29.920275,1010.9,,TRUE,TRUE,TRUE,,,,,,FEW,4300,,,,,,,VFR,,,,,,,,,,,,METAR,667.0
KHKY 072153Z AUTO 33004KT 10SM CLR 26/22 A2988 RMK AO2 SLP095 T02560222 $,KHKY,2023-07-07T21:53:00Z,35.75,-81.38,25.6,22.2,330,4,,10.0,29.878937,1009.5,,TRUE,TRUE,TRUE,,,,,,CLR,,,,,,,,VFR,,,,,,,,,,,,METAR,357.0
KHKS 072153Z 30009KT 10SM FEW039 31/23 A2992 RMK AO2 SLP123 T03060233,KHKS,2023-07-07T21:53:00Z,32.33,-90.22,30.6,23.3,300,9,,10.0,29.920275,1012.3,,,TRUE,,,,,,,FEW,3900,,,,,,,VFR,,,,,,,,,,,,METAR,103.0
KHKA 072153Z AUTO 24003KT 10SM CLR 30/21 A2990 RMK AO2 SLP123 T03000211 $,KHKA,2023-07-07T21:53:00Z,35.93,-89.83,30.0,21.1,240,3,,10.0,29.899607,1012.3,,TRUE,TRUE,TRUE,,,,,,CLR,,,,,,,,VFR,,,,,,,,,,,,METAR,78.0
KHJO 072153Z AUTO 31007KT 10SM CLR 33/09 A2979 RMK AO2 SLP089 T03330094,KHJO,2023-07-07T21:53:00Z,36.32,-119.62,33.3,9.4,310,7,,10.0,29.790354,1008.9,,TRUE,TRUE,,,,,,,CLR,,,,,,,,VFR,,,,,,,,,,,,METAR,73.0
KHIO 072153Z 32006KT 10SM CLR 23/12 A2990 RMK AO2 SLP123 T02280122,KHIO,2023-07-07T21:53:00Z,45.55,-122.95,22.8,12.2,320,6,,10.0,29.899607,1012.3,,,TRUE,,,,,,,CLR,,,,,,,,VFR,,,,,,,,,,,,METAR,62.0
KHIB 072153Z AUTO 28008KT 8SM -RA FEW060 SCT070 OVC085 16/13 A2993 RMK AO2 RAB20 SLP139 P0000 T01560133,KHIB,2023-07-07T21:53:00Z,47.38,-92.83,15.6,13.3,280,8,,8.0,29.929134,1013.9,,TRUE,TRUE,,,,,,-RA,FEW,6000,SCT,7000,OVC,8500,,,VFR,,,,,,0.005,,,,,,METAR,409.0
KHHR 072153Z 26012G17KT 10SM CLR 24/13 A2985 RMK AO2 SLP108 T02390128,KHHR,2023-07-07T21:53:00Z,33.92,-118.33,23.9,12.8,260,12,17,10.0,29.84941,1010.8,,,TRUE,,,,,,,CLR,,,,,,,,VFR,,,,,,,,,,,,METAR,21.0
KHGR 072153Z 29011KT 10SM CLR 32/20 A2983 RMK AO2 SLP103 T03170200,KHGR,2023-07-07T21:53:00Z,39.7,-77.73,31.7,20.0,290,11,,10.0,29.828741,1010.3,,,TRUE,,,,,,,CLR,,,,,,,,VFR,,,,,,,,,,,,METAR,206.0
KHFD 072153Z 19008KT 10SM FEW039 29/21 A2982 RMK AO2 SLP098 T02940211,KHFD,2023-07-07T21:53:00Z,41.73,-72.65,29.4,21.1,190,8,,10.0,29.819881,1009.8,,,TRUE,,,,,,,FEW,3900,,,,,,,VFR,,,,,,,,,,,,METAR,3.0
KHEI 072153Z AUTO 03011KT 10SM SCT048 SCT060 24/12 A3003 RMK AO2 SLP157 T02440122,KHEI,2023-07-07T21:53:00Z,46.02,-102.65,24.4,12.2,30,11,,10.0,30.029528,1015.7,,TRUE,TRUE,,,,,,,SCT,4800,SCT,6000,,,,,VFR,,,,,,,,,,,,METAR,824.0
KHBR 072153Z AUTO 17017G25KT 10SM CLR 34/22 A2985 RMK AO2 SLP087 T03390217,KHBR,2023-07-07T21:53:00Z,34.98,-99.05,33.9,21.7,170,17,25,10.0,29.84941,1008.7,,TRUE,TRUE,,,,,,,CLR,,,,,,,,VFR,,,,,,,,,,,,METAR,475.0
KHBG 072153Z AUTO 30011G17KT 10SM FEW050 33/21 A2992 RMK AO2 SLP129 T03330211,KHBG,2023-07-07T21:53:00Z,31.27,-89.25,33.3,21.1,300,11,17,10.0,29.920275,1012.9,,TRUE,TRUE,,,,,,,FEW,5000,,,,,,,VFR,,,,,,,,,,,,METAR,45.0
KHAO 072153Z AUTO 30006KT 10SM CLR 30/14 A2992 RMK AO2 SLP127 T03000139,KHAO,2023-07-07T21:53:00Z,39.37,-84.52,30.0,13.9,300,6,,10.0,29.920275,1012.7,,TRUE,TRUE,,,,,,,CLR,,,,,,,,VFR,,,,,,,,,,,,METAR,185.0
KGZH 072153Z AUTO VRB03KT 10SM VCTS FEW100 30/23 A2991 RMK AO2 LTG DSNT ALQDS SLP123 T03000228,KGZH,2023-07-07T21:53:00Z,31.42,-87.05,30.0,22.8,0,3,,10.0,29.911417,1012.3,,TRUE,TRUE,,,,,,VCTS,FEW,10000,,,,,,,VFR,,,,,,,,,,,,METAR,77.0
KGWO 072153Z AUTO VRB03KT 10SM CLR 31/24 A2992 RMK AO2 SLP129 T03060244,KGWO,2023-07-07T21:53:00Z,33.5,-90.08,30.6,24.4,0,3,,10.0,29.920275,1012.9,,TRUE,TRUE,,,,,,,CLR,,,,,,,,VFR,,,,,,,,,,,,METAR,42.0
KGVL 072153Z AUTO 10010G19KT 10SM VCTS CLR 26/20 A2992 RMK AO2 PK WND 03031/2111 WSHFT 2109 LTG DSNT E AND SE TSB28E43 SLP116 T02610200,KGVL,2023-07-07T21:53:00Z,34.27,-83.83,26.1,20.0,100,10,19,10.0,29.920275,1011.6,,TRUE,TRUE,,,,,,VCTS,CLR,,,,,,,,VFR,,,,,,,,,,,,METAR,387.0
KGUP 072153Z AUTO 25016G34KT 10SM FEW120 33/01 A3008 RMK AO2 PK WND 22034/2145 SLP002 T03330011,KGUP,2023-07-07T21:53:00Z,35.52,-108.8,33.3,1.1,250,16,34,10.0,30.079725,1000.2,,TRUE,TRUE,,,,,,,FEW,12000,,,,,,,VFR,,,,,,,,,,,,METAR,1972.0
KGTF 072153Z 13019G26KT 10SM CLR 24/06 A3004 RMK AO2 PK WND 15032/2125 SLP154 T02440056,KGTF,2023-07-07T21:53:00Z,47.47,-111.38,24.4,5.6,130,19,26,10.0,30.041338,1015.4,,,TRUE,,,,,,,CLR,,,,,,,,VFR,,,,,,,,,,,,METAR,1117.0
KGSP 072153Z 05003KT 9SM -RA BKN110 24/21 A2988 RMK AO2 LTG DSNT E RAB17 TSE24 SLP108 P0000 T02440206,KGSP,2023-07-07T21:53:00Z,34.9,-82.22,24.4,20.6,50,3,,9.0,29.878937,1010.8,,,TRUE,,,,,,-RA,BKN,11000,,,,,,,VFR,,,,,,0.005,,,,,,METAR,285.0
KGSH 072153Z AUTO 20006KT 10SM CLR 28/13 A2992 RMK AO2 SLP128 T02830133,KGSH,2023-07-07T21:53:00Z,41.53,-85.78,28.3,13.3,200,6,,10.0,29.920275,1012.8,,TRUE,TRUE,,,,,,,CLR,,,,,,,,VFR,,,,,,,,,,,,METAR,252.0
KGRR 072153Z 00000KT 10SM BKN080 BKN190 BKN250 26/12 A2995 RMK AO2 SLP138 T02560122,KGRR,2023-07-07T21:53:00Z,42.88,-85.52,25.6,12.2,0,0,,10.0,29.949802,1013.8,,,TRUE,,,,,,,BKN,8000,BKN,19000,BKN,25000,,,VFR,,,,,,,,,,,,METAR,239.0
KGRI 072153Z 32013KT 10SM SCT045 26/16 A2991 RMK AO2 SLP119 T02610156 $,KGRI,2023-07-07T21:53:00Z,40.97,-98.32,26.1,15.6,320,13,,10.0,29.911417,1011.9,,,TRUE,TRUE,,,,,,SCT,4500,,,,,,,VFR,,,,,,,,,,,,METAR,562.0
KGRB 072153Z 21005KT 10SM CLR 24/08 A2994 RMK AO2 SLP137 T02440083,KGRB,2023-07-07T21:53:00Z,44.48,-88.13,24.4,8.3,210,5,,10.0,29.940945,1013.7,,,TRUE,,,,,,,CLR,,,,,,,,VFR,,,,,,,,,,,,METAR,209.0
KGPT 072153Z 24006KT 10SM CLR 33/25 A2991 RMK AO2 SLP127 T03280250,KGPT,2023-07-07T21:53:00Z,30.42,-89.08,32.8,25.0,240,6,,10.0,29.911417,1012.7,,,TRUE,,,,,,,CLR,,,,,,,,VFR,,,,,,,,,,,,METAR,5.0
KGOK 072153Z AUTO 11007KT 10SM SCT120 24/21 A2989 RMK AO2 SLP113 T02440206,KGOK,2023-07-07T21:53:00Z,35.85,-97.4,24.4,20.6,110,7,,10.0,29.890747,1011.3,,TRUE,TRUE,,,,,,,SCT,12000,,,,,,,VFR,,,,,,,,,,,,METAR,326.0
KGNV 072153Z 20007KT 10SM CLR 32/23 A2990 RMK AO2 LTG DSNT E AND W AND NW SLP121 T03170233,KGNV,2023-07-07T21:53:00Z,29.7,-82.28,31.7,23.3,200,7,,10.0,29.899607,1012.1,,,TRUE,,,,,,,CLR,,,,,,,,VFR,,,,,,,,,,,,METAR,41.0
KGMU 072153Z 30005KT 10SM SCT035 24/22 A2989 RMK AO2 RAE49 TSE04 SLP112 P0002 T02440222,KGMU,2023-07-07T21:53:00Z,34.85,-82.35,24.4,22.2,300,5,,10.0,29.890747,1011.2,,,TRUE,,,,,,,SCT,3500,,,,,,,VFR,,,,,,0.02,,,,,,METAR,309.0
KGLR 072153Z AUTO VRB04KT 10SM CLR 23/06 A2997 RMK AO2 SLP147 T02280061,KGLR,2023-07-07T21:53:00Z,45.02,-84.68,22.8,6.1,0,4,,10.0,29.970472,1014.7,,TRUE,TRUE,,,,,,,CLR,,,,,,,,VFR,,,,,,,,,,,,METAR,403.0
KGLH 072153Z AUTO 24004KT 10SM CLR 32/23 A2990 RMK AO2 SLP130 T03170228,KGLH,2023-07-07T21:53:00Z,33.47,-90.98,31.7,22.8,240,4,,10.0,29.899607,1013.0,,TRUE,TRUE,,,,,,,CLR,,,,,,,,VFR,,,,,,,,,,,,METAR,40.0
KGKY 072153Z 16011KT 10SM CLR 34/20 A2986 RMK AO2 SLP102 T03440200,KGKY,2023-07-07T21:53:00Z,32.67,-97.1,34.4,20.0,160,11,,10.0,29.861221,1010.2,,,TRUE,,,,,,,CLR,,,,,,,,VFR,,,,,,,,,,,,METAR,189.0
KGKJ 072153Z AUTO 36007KT 10SM CLR 24/14 A2997 RMK AO2 SLP139 T02390139,KGKJ,2023-07-07T21:53:00Z,41.63,-80.22,23.9,13.9,360,7,,10.0,29.970472,1013.9,,TRUE,TRUE,,,,,,,CLR,,,,,,,,VFR,,,,,,,,,,,,METAR,428.0
KGJT 072153Z 29007G20KT 10SM CLR 35/M02 A2987 RMK AO2 SLP032 T03501022,KGJT,2023-07-07T21:53:00Z,39.13,-108.53,35.0,-2.2,290,7,20,10.0,29.870079,1003.2,,,TRUE,,,,,,,CLR,,,,,,,,VFR,,,,,,,,,,,,METAR,1475.0
KGIF 072153Z AUTO 27006KT 10SM -RA OVC090 27/23 A2995 RMK AO2 LTG DSNT ALQDS RAB2058 TSE11 SLP140 P0001 T02670228,KGIF,2023-07-07T21:53:00Z,28.07,-81.75,26.7,22.8,270,6,,10.0,29.949802,1014.0,,TRUE,TRUE,,,,,,-RA,OVC,9000,,,,,,,VFR,,,,,,0.01,,,,,,METAR,44.0
KGGW 072153Z AUTO VRB03KT 10SM SCT110 27/06 A3003 RMK AO2 SLP160 T02720061,KGGW,2023-07-07T21:53:00Z,48.22,-106.62,27.2,6.1,0,3,,10.0,30.029528,1016.0,,TRUE,TRUE,,,,,,,SCT,11000,,,,,,,VFR,,,,,,,,,,,,METAR,698.0
KGGG 072153Z 19010G17KT 10SM CLR 34/21 A2988 RMK AO2 SLP110 T03390211,KGGG,2023-07-07T21:53:00Z,32.38,-94.72,33.9,21.1,190,10,17,10.0,29.878937,1011.0,,,TRUE,,,,,,,CLR,,,,,,,,VFR,,,,,,,,,,,,METAR,107.0
KGFL 072153Z AUTO 01005KT 4SM RA BR SCT090 OVC110 21/21 A2986 RMK AO2 LTG DSNT E AND SW TSE24 SLP110 P0015 T02060206,KGFL,2023-07-07T21:53:00Z,43.33,-73.62,20.6,20.6,10,5,,4.0,29.861221,1011.0,,TRUE,TRUE,,,,,,RA BR,SCT,9000,OVC,11000,,,,,MVFR,,,,,,0.15,,,,,,METAR,99.0
KGFK 072153Z 01018G24KT 10SM SCT055 24/10 A2993 RMK AO2 SLP133 T02440100,KGFK,2023-07-07T21:53:00Z,47.95,-97.18,24.4,10.0,10,18,24,10.0,29.929134,1013.3,,,TRUE,,,,,,,SCT,5500,,,,,,,VFR,,,,,,,,,,,,METAR,256.0
KGEZ 072153Z AUTO VRB03KT 10SM CLR 30/17 A2992 RMK AO2 SLP124 T03000172,KGEZ,2023-07-07T21:53:00Z,39.58,-85.8,30.0,17.2,0,3,,10.0,29.920275,1012.4,,TRUE,TRUE,,,,,,,CLR,,,,,,,,VFR,,,,,,,,,,,,METAR,245.0
KGEY 072153Z AUTO 00000KT 10SM CLR 24/09 A3004 RMK AO2 LTG DSNT E SLP145 T02440089,KGEY,2023-07-07T21:53:00Z,44.52,-108.08,24.4,8.9,0,0,,10.0,30.041338,1014.5,,TRUE,TRUE,,,,,,,CLR,,,,,,,,VFR,,,,,,,,,,,,METAR,1191.0
KGEG 072153Z 06006KT 10SM FEW070 SCT250 32/04 A2984 RMK AO2 SLP082 T03220039,KGEG,2023-07-07T21:53:00Z,47.62,-117.53,32.2,3.9,60,6,,10.0,29.840551,1008.2,,,TRUE,,,,,,,FEW,7000,SCT,25000,,,,,VFR,,,,,,,,,,,,METAR,718.0
KGCC 072153Z AUTO 04011G17KT 10SM SCT100 22/08 A3009 RMK AO2 SLP157 T02220083,KGCC,2023-07-07T21:53:00Z,44.33,-105.55,22.2,8.3,40,11,17,10.0,30.088583,1015.7,,TRUE,TRUE,,,,,,,SCT,10000,,,,,,,VFR,,,,,,,,,,,,METAR,1328.0
KFYV 072153Z 21008KT 10SM CLR 30/22 A2993 RMK AO2 SLP122 T03000217,KFYV,2023-07-07T21:53:00Z,36.02,-94.17,30.0,21.7,210,8,,10.0,29.929134,1012.2,,,TRUE,,,,,,,CLR,,,,,,,,VFR,,,,,,,,,,,,METAR,377.0
KFWN 072153Z AUTO 22003KT 10SM CLR 28/22 A2984 RMK AO2 SLP099 T02830222,KFWN,2023-07-07T21:53:00Z,41.2,-74.63,28.3,22.2,220,3,,10.0,29.840551,1009.9,,TRUE,TRUE,,,,,,,CLR,,,,,,,,VFR,,,,,,,,,,,,METAR,129.0
KFVE 072153Z AUTO 08003KT 10SM -RA BKN110 21/19 A2983 RMK AO2 SLP094 P0007 T02110189,KFVE,2023-07-07T21:53:00Z,47.28,-68.3,21.1,18.9,80,3,,10.0,29.828741,1009.4,,TRUE,TRUE,,,,,,-RA,BKN,11000,,,,,,,VFR,,,,,,0.07,,,,,,METAR,299.0
KFUL 072153Z 23007KT 10SM CLR 24/13 A2982 RMK AO2 SLP098 T02440133,KFUL,2023-07-07T21:53:00Z,33.87,-117.98,24.4,13.3,230,7,,10.0,29.819881,1009.8,,,TRUE,,,,,,,CLR,,,,,,,,VFR,,,,,,,,,,,,METAR,23.0
KFTY 072153Z 15013G22KT 10SM SCT041 27/21 A2990 RMK AO2 LTG DSNT E AND SE SLP114 T02720206,KFTY,2023-07-07T21:53:00Z,33.78,-84.52,27.2,20.6,150,13,22,10.0,29.899607,1011.4,,,TRUE,,,,,,,SCT,4100,,,,,,,VFR,,,,,,,,,,,,METAR,245.0
KFTW 072153Z 17007G20KT 10SM CLR 36/20 A2985 RMK AO2 SLP098 T03560200,KFTW,2023-07-07T21:53:00Z,32.83,-97.37,35.6,20.0,170,7,20,10.0,29.84941,1009.8,,,TRUE,,,,,,,CLR,,,,,,,,VFR,,,,,,,,,,,,METAR,213.0
KFST 072153Z AUTO 13017G27KT 10SM CLR 35/17 A2989 RMK AO2 PK WND 12027/2146 SLP068 T03500167,KFST,2023-07-07T21:53:00Z,30.92,-102.92,35.0,16.7,130,17,27,10.0,29.890747,1006.8,,TRUE,TRUE,,,,,,,CLR,,,,,,,,VFR,,,,,,,,,,,,METAR,917.0
KFSM 072153Z 27008KT 10SM FEW039 33/22 A2990 RMK AO2 SLP119 T03280222,KFSM,2023-07-07T21:53:00Z,35.33,-94.37,32.8,22.2,270,8,,10.0,29.899607,1011.9,,,TRUE,,,,,,,FEW,3900,,,,,,,VFR,,,,,,,,,,,,METAR,136.0
KFRG 072153Z AUTO 16007KT 10SM SCT018 27/22 A2984 RMK AO2 SLP104 T02670222,KFRG,2023-07-07T21:53:00Z,40.73,-73.42,26.7,22.2,160,7,,10.0,29.840551,1010.4,,TRUE,TRUE,,,,,,,SCT,1800,,,,,,,VFR,,,,,,,,,,,,METAR,23.0
KFPR 072153Z 09004KT 10SM VCTS CLR 26/24 A2994 RMK AO2 LTG DSNT ALQDS RAB2057E09 TSE09B22E47 SLP138 P0001 T02560239,KFPR,2023-07-07T21:53:00Z,27.5,-80.38,25.6,23.9,90,4,,10.0,29.940945,1013.8,,,TRUE,,,,,,VCTS,CLR,,,,,,,,VFR,,,,,,0.01,,,,,,METAR,7.0
KFOZ 072153Z AUTO 00000KT 10SM 17/15 A2997 RMK AO2,KFOZ,2023-07-07T21:53:00Z,47.77,-93.65,17.0,15.0,0,0,,10.0,29.970472,,,TRUE,TRUE,,,,,,,,,,,,,,,,,,,,,,,,,,,METAR,412.0
KFOK 072153Z 17006KT 10SM OVC009 26/23 A2987 RMK AO2 CIG 007V012 SLP112 T02560228,KFOK,2023-07-07T21:53:00Z,40.85,-72.62,25.6,22.8,170,6,,10.0,29.870079,1011.2,,,TRUE,,,,,,,OVC,900,,,,,,,IFR,,,,,,,,,,,,METAR,13.0
KFOE 072153Z 22008KT 10SM FEW034 29/20 A2987 RMK AO2 SLP107 T02890200 $,KFOE,2023-07-07T21:53:00Z,38.93,-95.65,28.9,20.0,220,8,,10.0,29.870079,1010.7,,,TRUE,TRUE,,,,,,FEW,3400,,,,,,,VFR,,,,,,,,,,,,METAR,315.0
KFNT 072153Z 16004KT 10SM BKN060 25/12 A2996 RMK AO2 SLP140 T02500117,KFNT,2023-07-07T21:53:00Z,42.97,-83.75,25.0,11.7,160,4,,10.0,29.958662,1014.0,,,TRUE,,,,,,,BKN,6000,,,,,,,VFR,,,,,,,,,,,,METAR,235.0
KFMY 072153Z 27012KT 10SM SCT044 33/23 A2992 RMK VA RWY 23 ATIS L,KFMY,2023-07-07T21:53:00Z,26.58,-81.87,33.0,23.0,270,12,,10.0,29.920275,,,,,,,,,,,SCT,4400,,,,,,,VFR,,,,,,,,,,,,METAR,4.0
KFMN 072153Z 26019G31KT 10SM CLR 36/M04 A2996 RMK AO2 PK WND 28035/2113 SLP069 T03561039,KFMN,2023-07-07T21:53:00Z,36.75,-108.23,35.6,-3.9,260,19,31,10.0,29.958662,1006.9,,,TRUE,,,,,,,CLR,,,,,,,,VFR,,,,,,,,,,,,METAR,1677.0
KFLO 072153Z 35008KT 10SM TS FEW060 SCT075 29/23 A2981 RMK AO2 LTG DSNT N-SE RAE50 SLP093 P0032 T02890228,KFLO,2023-07-07T21:53:00Z,34.18,-79.73,28.9,22.8,350,8,,10.0,29.811024,1009.3,,,TRUE,,,,,,TS,FEW,6000,SCT,7500,,,,,VFR,,,,,,0.32,,,,,,METAR,43.0
KFLL 072153Z VRB05KT 10SM TS FEW030CB SCT110 BKN170 OVC250 28/26 A2995 RMK AO2 RAB20E38 TSE18B45 SLP142 OCNL LTGICCG SW-W TS SW-W MOV NE P0000 T02780256,KFLL,2023-07-07T21:53:00Z,26.07,-80.15,27.8,25.6,0,5,,10.0,29.949802,1014.2,,,TRUE,,,,,,TS,FEW,3000,SCT,11000,BKN,17000,OVC,25000,VFR,,,,,,0.005,,,,,,METAR,1.0
KFLD 072153Z AUTO 07004KT 10SM BKN049 OVC060 24/13 A2994 RMK AO2 SLP138 T02440133,KFLD,2023-07-07T21:53:00Z,43.77,-88.48,24.4,13.3,70,4,,10.0,29.940945,1013.8,,TRUE,TRUE,,,,,,,BKN,4900,OVC,6000,,,,,VFR,,,,,,,,,,,,METAR,242.0
KFHR 072153Z AUTO 21010G15KT 10SM CLR 24/11 A2989 RMK AO2 SLP121 T02390111,KFHR,2023-07-07T21:53:00Z,48.52,-123.03,23.9,11.1,210,10,15,10.0,29.890747,1012.1,,TRUE,TRUE,,,,,,,CLR,,,,,,,,VFR,,,,,,,,,,,,METAR,34.0
KFFT 072153Z AUTO 03003KT 10SM CLR 31/15 A2992 RMK AO2 SLP123 T03060150,KFFT,2023-07-07T21:53:00Z,38.18,-84.9,30.6,15.0,30,3,,10.0,29.920275,1012.3,,TRUE,TRUE,,,,,,,CLR,,,,,,,,VFR,,,,,,,,,,,,METAR,235.0
KFFC 072153Z AUTO 00000KT 10SM SCT100 26/22 A2991 RMK AO2 LTG DSNT NE AND E SLP123 T02610222,KFFC,2023-07-07T21:53:00Z,33.35,-84.57,26.1,22.2,0,0,,10.0,29.911417,1012.3,,TRUE,TRUE,,,,,,,SCT,10000,,,,,,,VFR,,,,,,,,,,,,METAR,242.0
KFDY 072153Z AUTO VRB03KT 10SM FEW065 28/16 A2992 RMK AO2 SLP121 T02780156,KFDY,2023-07-07T21:53:00Z,41.02,-83.67,27.8,15.6,0,3,,10.0,29.920275,1012.1,,TRUE,TRUE,,,,,,,FEW,6500,,,,,,,VFR,,,,,,,,,,,,METAR,247.0
KFDR 072153Z AUTO 17020G27KT 10SM CLR 36/20 A2980 RMK AO2 PK WND 19030/2125 SLP068 T03560200,KFDR,2023-07-07T21:53:00Z,34.35,-98.98,35.6,20.0,170,20,27,10.0,29.799213,1006.8,,TRUE,TRUE,,,,,,,CLR,,,,,,,,VFR,,,,,,,,,,,,METAR,378.0
KFCM 072153Z 22006KT 10SM CLR 22/11 A2994 RMK AO2 SLP139 T02220106,KFCM,2023-07-07T21:53:00Z,44.83,-93.47,22.2,10.6,220,6,,10.0,29.940945,1013.9,,,TRUE,,,,,,,CLR,,,,,,,,VFR,,,,,,,,,,,,METAR,276.0
KFAY 072153Z 30007KT 10SM CLR 30/24 A2979 RMK AO2 LTG DSNT ALQDS SLP082 T03000244,KFAY,2023-07-07T21:53:00Z,34.98,-78.88,30.0,24.4,300,7,,10.0,29.790354,1008.2,,,TRUE,,,,,,,CLR,,,,,,,,VFR,,,,,,,,,,,,METAR,57.0
KFAT 072153Z 27008KT 10SM CLR 32/10 A2980 RMK AO2 SLP086 MTNS OBSC HZ DSNT N-E-S T03220100,KFAT,2023-07-07T21:53:00Z,36.78,-119.72,32.2,10.0,270,8,,10.0,29.799213,1008.6,,,TRUE,,,,,,,CLR,,,,,,,,VFR,,,,,,,,,,,,METAR,102.0
KFAR 072153Z AUTO 35013KT 10SM FEW044 BKN060 24/16 A2988 RMK AO2 LTG DSNT SE AND S TSE06 SLP118 T02440161,KFAR,2023-07-07T21:53:00Z,46.9,-96.82,24.4,16.1,350,13,,10.0,29.878937,1011.8,,TRUE,TRUE,,,,,,,FEW,4400,BKN,6000,,,,,VFR,,,,,,,,,,,,METAR,276.0
KEYW 072153Z 24008KT 10SM CLR 32/24 A2997 RMK AO2 SLP153 T03170239,KEYW,2023-07-07T21:53:00Z,24.55,-81.75,31.7,23.9,240,8,,10.0,29.970472,1015.3,,,TRUE,,,,,,,CLR,,,,,,,,VFR,,,,,,,,,,,,METAR,1.0
KEYE 072153Z AUTO 10SM CLR 29/16 A2992 RMK AO2 SLP125 T02940161,KEYE,2023-07-07T21:53:00Z,39.83,-86.3,29.4,16.1,,,,10.0,29.920275,1012.5,,TRUE,TRUE,,,,,,,CLR,,,,,,,,VFR,,,,,,,,,,,,METAR,248.0
KEWB 072153Z COR 20008KT 10SM BKN019 26/22 A2986 RMK AO2 SLP110 T02560217,KEWB,2023-07-07T21:53:00Z,41.68,-70.95,25.6,21.7,200,8,,10.0,29.861221,1011.0,TRUE,,TRUE,,,,,,,BKN,1900,,,,,,,MVFR,,,,,,,,,,,,SPECI,22.0
KEVW 072153Z AUTO 01015G20KT 10SM VCTS SCT090 BKN110 21/07 A3009 RMK AO2 LTG DSNT NW-NE SLP098 T02110072,KEVW,2023-07-07T21:53:00Z,41.27,-111.03,21.1,7.2,10,15,20,10.0,30.088583,1009.8,,TRUE,TRUE,,,,,,VCTS,SCT,9000,BKN,11000,,,,,VFR,,,,,,,,,,,,METAR,2178.0
KETH 072153Z AUTO 23011G14KT 10SM SCT070 25/14 A2990 RMK AO2 LTG DSNT N AND NW,KETH,2023-07-07T21:53:00Z,45.78,-96.55,25.0,14.0,230,11,14,10.0,29.899607,,,TRUE,TRUE,,,,,,,SCT,7000,,,,,,,VFR,,,,,,,,,,,,METAR,309.0
KESF 072153Z AUTO 10SM CLR 36/19 A2990 RMK AO2 SLP124 T03560194,KESF,2023-07-07T21:53:00Z,31.4,-92.28,35.6,19.4,,,,10.0,29.899607,1012.4,,TRUE,TRUE,,,,,,,CLR,,,,,,,,VFR,,,,,,,,,,,,METAR,27.0
KEQY 072153Z AUTO 21008KT 10SM VCTS -RA SCT120 24/23 A2985 RMK AO2 LTG DSNT ALQDS TSB2055E52 SLP106 P0001 T02440228,KEQY,2023-07-07T21:53:00Z,35.02,-80.62,24.4,22.8,210,8,,10.0,29.84941,1010.6,,TRUE,TRUE,,,,,,VCTS -RA,SCT,12000,,,,,,,VFR,,,,,,0.01,,,,,,METAR,205.0
KEPH 072153Z AUTO VRB04KT 10SM FEW120 36/05 A2975 RMK AO2 SLP062 T03560050,KEPH,2023-07-07T21:53:00Z,47.3,-119.52,35.6,5.0,0,4,,10.0,29.749016,1006.2,,TRUE,TRUE,,,,,,,FEW,12000,,,,,,,VFR,,,,,,,,,,,,METAR,382.0
KENW 072153Z 09008KT 10SM CLR 24/13 A2994 RMK AO2 SLP138 T02390133,KENW,2023-07-07T21:53:00Z,42.6,-87.93,23.9,13.3,90,8,,10.0,29.940945,1013.8,,,TRUE,,,,,,,CLR,,,,,,,,VFR,,,,,,,,,,,,METAR,222.0
KELY 072153Z AUTO A2997 RMK AO2 SLPNO PWINO FZRANO $,KELY,2023-07-07T21:53:00Z,39.3,-114.85,,,,,,,29.970472,,,TRUE,TRUE,TRUE,,,TRUE,TRUE,,,,,,,,,,,,,,,,,,,,,,METAR,1906.0
KELN 072153Z AUTO 10SM CLR 36/06 A2979 RMK AO2 SLP069 T03560056,KELN,2023-07-07T21:53:00Z,47.03,-120.53,35.6,5.6,,,,10.0,29.790354,1006.9,,TRUE,TRUE,,,,,,,CLR,,,,,,,,VFR,,,,,,,,,,,,METAR,532.0
KELM 072153Z AUTO 04008KT 10SM FEW029 27/21 A2988 RMK AO2 SLP110 T02670211,KELM,2023-07-07T21:53:00Z,42.15,-76.9,26.7,21.1,40,8,,10.0,29.878937,1011.0,,TRUE,TRUE,,,,,,,FEW,2900,,,,,,,VFR,,,,,,,,,,,,METAR,287.0
KELD 072153Z AUTO 23006KT 10SM FEW039 32/24 A2990 RMK AO2 SLP122 T03170239,KELD,2023-07-07T21:53:00Z,33.22,-92.82,31.7,23.9,230,6,,10.0,29.899607,1012.2,,TRUE,TRUE,,,,,,,FEW,3900,,,,,,,VFR,,,,,,,,,,,,METAR,76.0
KEET 072153Z AUTO VRB05KT 10SM FEW049 FEW070 32/22 A2989 RMK AO2 LTG DSNT NW-E SLP115 T03220217,KEET,2023-07-07T21:53:00Z,33.18,-86.78,32.2,21.7,0,5,,10.0,29.890747,1011.5,,TRUE,TRUE,,,,,,,FEW,4900,FEW,7000,,,,,VFR,,,,,,,,,,,,METAR,172.0
KEEO 072153Z AUTO 01008KT 10SM CLR 27/04 A3003 RMK AO2 SLP085 T02670044,KEEO,2023-07-07T21:53:00Z,40.05,-107.88,26.7,4.4,10,8,,10.0,30.029528,1008.5,,TRUE,TRUE,,,,,,,CLR,,,,,,,,VFR,,,,,,,,,,,,METAR,1957.0
KECP 072153Z 22013G17KT 10SM SCT034 SCT041 32/24 A2988 RMK AO1 SLP129 T03170239,KECP,2023-07-07T21:53:00Z,30.35,-85.8,31.7,23.9,220,13,17,10.0,29.878937,1012.9,,,TRUE,,,,,,,SCT,3400,SCT,4100,,,,,VFR,,,,,,,,,,,,METAR,17.0
KDXR 072153Z 17009KT 10SM CLR 28/22 A2985 RMK AO2 SLP102 T02830217,KDXR,2023-07-07T21:53:00Z,41.37,-73.48,28.3,21.7,170,9,,10.0,29.84941,1010.2,,,TRUE,,,,,,,CLR,,,,,,,,VFR,,,,,,,,,,,,METAR,138.0
KDWH 072153Z 21006KT 10SM SCT100 32/24 A2993 RMK AO2 SLP131 T03220239,KDWH,2023-07-07T21:53:00Z,30.07,-95.55,32.2,23.9,210,6,,10.0,29.929134,1013.1,,,TRUE,,,,,,,SCT,10000,,,,,,,VFR,,,,,,,,,,,,METAR,46.0
KDVT 072153Z 00000KT 39/04 A2973 RMK AO2 SLP036 T03940039 $,KDVT,2023-07-07T21:53:00Z,33.68,-112.07,39.4,3.9,0,0,,,29.731298,1003.6,,,TRUE,TRUE,,,,,,,,,,,,,,,,,,,,,,,,,,METAR,454.0
KDVP 072153Z AUTO 21004KT 10SM SCT022 SCT029 17/12 A3000 RMK AO2 T01710122,KDVP,2023-07-07T21:53:00Z,43.98,-95.78,17.1,12.2,210,4,,10.0,30.0,,,TRUE,TRUE,,,,,,,SCT,2200,SCT,2900,,,,,VFR,,,,,,,,,,,,METAR,493.0
KDUJ 072153Z AUTO 32007KT 10SM FEW030 26/17 A2993 RMK AO2 SLP120 T02560172,KDUJ,2023-07-07T21:53:00Z,41.17,-78.9,25.6,17.2,320,7,,10.0,29.929134,1012.0,,TRUE,TRUE,,,,,,,FEW,3000,,,,,,,VFR,,,,,,,,,,,,METAR,552.0
KDTW 072153Z 00000KT 10SM SCT055 28/13 A2993 RMK SLPNO,KDTW,2023-07-07T21:53:00Z,42.23,-83.33,28.0,13.0,0,0,,10.0,29.929134,,,,,,,,,,,SCT,5500,,,,,,,VFR,,,,,,,,,,,,METAR,192.0
KDTS 072153Z 26007KT 200V310 10SM TS FEW050 31/24 A2990 RMK AO2 LTG DSNT W-N TSB43 SLP123 T03110239,KDTS,2023-07-07T21:53:00Z,30.4,-86.47,31.1,23.9,260,7,,10.0,29.899607,1012.3,,,TRUE,,,,,,TS,FEW,5000,,,,,,,VFR,,,,,,,,,,,,METAR,5.0
KDTO 072153Z 18019G25KT 10SM CLR 36/21 A2986 RMK AO2 PK WND 19026/2139 SLP099 T03560206,KDTO,2023-07-07T21:53:00Z,33.2,-97.2,35.6,20.6,180,19,25,10.0,29.861221,1009.9,,,TRUE,,,,,,,CLR,,,,,,,,VFR,,,,,,,,,,,,METAR,199.0
KDTN 072153Z AUTO 25006KT 10SM CLR 34/23 A2989 RMK AO2 SLP119 T03390228,KDTN,2023-07-07T21:53:00Z,32.55,-93.75,33.9,22.8,250,6,,10.0,29.890747,1011.9,,TRUE,TRUE,,,,,,,CLR,,,,,,,,VFR,,,,,,,,,,,,METAR,53.0
KDRT 072153Z AUTO 09011G17KT 10SM CLR 35/21 A2984 RMK AO2 SLP093 T03500211,KDRT,2023-07-07T21:53:00Z,29.37,-100.92,35.0,21.1,90,11,17,10.0,29.840551,1009.3,,TRUE,TRUE,,,,,,,CLR,,,,,,,,VFR,,,,,,,,,,,,METAR,303.0
KDRO 072153Z AUTO 25024G33KT 10SM CLR 32/M01 A3007 RMK AO2 PK WND 23036/2108 SLP083 T03221006,KDRO,2023-07-07T21:53:00Z,37.15,-107.77,32.2,-0.6,250,24,33,10.0,30.070866,1008.3,,TRUE,TRUE,,,,,,,CLR,,,,,,,,VFR,,,,,,,,,,,,METAR,2021.0
KDRA 072153Z AUTO VRB03KT 10SM CLR 36/M02 A2979 RMK AO2 SLP032 T03611017,KDRA,2023-07-07T21:53:00Z,36.62,-116.03,36.1,-1.7,0,3,,10.0,29.790354,1003.2,,TRUE,TRUE,,,,,,,CLR,,,,,,,,VFR,,,,,,,,,,,,METAR,988.0
KDNL 072153Z AUTO VRB04KT 10SM CLR 29/21 A2984 RMK AO2 LTG DSNT SE AND S SLP100 T02890206,KDNL,2023-07-07T21:53:00Z,33.47,-82.03,28.9,20.6,0,4,,10.0,29.840551,1010.0,,TRUE,TRUE,,,,,,,CLR,,,,,,,,VFR,,,,,,,,,,,,METAR,126.0
KDMN 072153Z AUTO 19009G17KT 10SM CLR 40/03 A2991 RMK AO2 SLP032 T04000033,KDMN,2023-07-07T21:53:00Z,32.27,-107.72,40.0,3.3,190,9,17,10.0,29.911417,1003.2,,TRUE,TRUE,,,,,,,CLR,,,,,,,,VFR,,,,,,,,,,,,METAR,1310.0
KDLS 072153Z AUTO 32019G28KT 10SM CLR 29/12 A2972 RMK AO2 PK WND 32028/2151 SLP062 T02940122,KDLS,2023-07-07T21:53:00Z,45.62,-121.17,29.4,12.2,320,19,28,10.0,29.719488,1006.2,,TRUE,TRUE,,,,,,,CLR,,,,,,,,VFR,,,,,,,,,,,,METAR,71.0
KDLN 072153Z AUTO 03009KT 10SM CLR 25/07 A3001 RMK AO2 SLP120 T02500067,KDLN,2023-07-07T21:53:00Z,45.25,-112.55,25.0,6.7,30,9,,10.0,30.008858,1012.0,,TRUE,TRUE,,,,,,,CLR,,,,,,,,VFR,,,,,,,,,,,,METAR,1586.0
KDKK 072153Z AUTO 26009G18KT 10SM CLR 25/16 A2993 RMK AO2 SLP131 T02500161,KDKK,2023-07-07T21:53:00Z,42.5,-79.28,25.0,16.1,260,9,18,10.0,29.929134,1013.1,,TRUE,TRUE,,,,,,,CLR,,,,,,,,VFR,,,,,,,,,,,,METAR,205.0
KDGW 072153Z AUTO 03007KT 10SM CLR 23/07 A3010 RMK AO2 SLP150 T02280072,KDGW,2023-07-07T21:53:00Z,42.8,-105.38,22.8,7.2,30,7,,10.0,30.100393,1015.0,,TRUE,TRUE,,,,,,,CLR,,,,,,,,VFR,,,,,,,,,,,,METAR,1503.0
KDFW 072153Z 16018G25KT 10SM FEW055 FEW250 35/21 A2984 RMK AO2 SLP094 T03500206,KDFW,2023-07-07T21:53:00Z,32.9,-97.02,35.0,20.6,160,18,25,10.0,29.840551,1009.4,,,TRUE,,,,,,,FEW,5500,FEW,25000,,,,,VFR,,,,,,,,,,,,METAR,168.0
KDFI 072153Z AUTO 00000KT 10SM FEW060 SCT080 27/16 A2992 RMK AO2 SLP127 T02720156,KDFI,2023-07-07T21:53:00Z,41.33,-84.43,27.2,15.6,0,0,,10.0,29.920275,1012.7,,TRUE,TRUE,,,,,,,FEW,6000,SCT,8000,,,,,VFR,,,,,,,,,,,,METAR,215.0
KDEW 072153Z AUTO 10SM CLR 34/05 A2984 RMK AO2 SLP088 T03390050 $,KDEW,2023-07-07T21:53:00Z,47.97,-117.43,33.9,5.0,,,,10.0,29.840551,1008.8,,TRUE,TRUE,TRUE,,,,,,CLR,,,,,,,,VFR,,,,,,,,,,,,METAR,672.0
KDET 072153Z 10004KT 10SM FEW070 26/12 A2994 RMK AO2 SLP136 T02560117,KDET,2023-07-07T21:53:00Z,42.4,-83.02,25.6,11.7,100,4,,10.0,29.940945,1013.6,,,TRUE,,,,,,,FEW,7000,,,,,,,VFR,,,,,,,,,,,,METAR,190.0
KDEQ 072153Z AUTO 23005G16KT 10SM FEW040 32/22 A2988 RMK AO2 LTG DSNT N SLP112 T03170222,KDEQ,2023-07-07T21:53:00Z,34.05,-94.4,31.7,22.2,230,5,16,10.0,29.878937,1011.2,,TRUE,TRUE,,,,,,,FEW,4000,,,,,,,VFR,,,,,,,,,,,,METAR,107.0
KDEN 072153Z 08011KT 10SM SCT045 BKN070 BKN130 22/13 A3011 RMK AO2 SLP128 T02170128,KDEN,2023-07-07T21:53:00Z,39.85,-104.65,21.7,12.8,80,11,,10.0,30.109253,1012.8,,,TRUE,,,,,,,SCT,4500,BKN,7000,BKN,13000,,,VFR,,,,,,,,,,,,METAR,1656.0
KDCU 072153Z AUTO 30008KT 10SM CLR 30/22 A2992 RMK AO2 LTG DSNT E AND S SLP124 T03000222,KDCU,2023-07-07T21:53:00Z,34.65,-86.95,30.0,22.2,300,8,,10.0,29.920275,1012.4,,TRUE,TRUE,,,,,,,CLR,,,,,,,,VFR,,,,,,,,,,,,METAR,180.0
KDBQ 072153Z 24004KT 7SM -RA OVC100 17/14 A2999 RMK AO2 SLP154 P0005 T01720144,KDBQ,2023-07-07T21:53:00Z,42.4,-90.7,17.2,14.4,240,4,,7.0,29.991142,1015.4,,,TRUE,,,,,,-RA,OVC,10000,,,,,,,VFR,,,,,,0.05,,,,,,METAR,317.0
KDAN 072153Z AUTO 29004KT 10SM CLR 31/21 A2981 RMK AO2 LTG DSNT S SLP084 T03110211,KDAN,2023-07-07T21:53:00Z,36.57,-79.33,31.1,21.1,290,4,,10.0,29.811024,1008.4,,TRUE,TRUE,,,,,,,CLR,,,,,,,,VFR,,,,,,,,,,,,METAR,170.0
KDAL 072153Z 18010G17KT 10SM FEW055 FEW250 34/21 A2985 RMK AO2 SLP101 T03440206,KDAL,2023-07-07T21:53:00Z,32.85,-96.85,34.4,20.6,180,10,17,10.0,29.84941,1010.1,,,TRUE,,,,,,,FEW,5500,FEW,25000,,,,,VFR,,,,,,,,,,,,METAR,148.0
KDAB 072153Z 24003KT 10SM TSRA FEW037CB SCT075 BKN095 BKN200 26/24 A2990 RMK AO2 LTG DSNT ALQDS RAB2057 SLP122 OCNL LTGICCG SE-S TS SE-S MOV E CB DSNT W P0089 T02610244,KDAB,2023-07-07T21:53:00Z,29.18,-81.07,26.1,24.4,240,3,,10.0,29.899607,1012.2,,,TRUE,,,,,,TSRA,FEW,3700,SCT,7500,BKN,9500,BKN,20000,VFR,,,,,,0.89,,,,,,METAR,8.0
KCYS 072153Z AUTO 08008KT 10SM -RA SCT060 BKN080 BKN100 16/10 A3016 RMK AO2 LTG DSNT S AND SW RAB11 SLP157 P0001 T01560100,KCYS,2023-07-07T21:53:00Z,41.15,-104.8,15.6,10.0,80,8,,10.0,30.159449,1015.7,,TRUE,TRUE,,,,,,-RA,SCT,6000,BKN,8000,BKN,10000,,,VFR,,,,,,0.01,,,,,,METAR,1868.0
KCXO 072153Z 21010KT 10SM SCT042 SCT075 33/22 A2993 RMK AO2 SLP132 T03330222,KCXO,2023-07-07T21:53:00Z,30.35,-95.42,33.3,22.2,210,10,,10.0,29.929134,1013.2,,,TRUE,,,,,,,SCT,4200,SCT,7500,,,,,VFR,,,,,,,,,,,,METAR,69.0
KCUT 072153Z AUTO 03007G15KT 10SM SCT065 21/06 A3013 RMK AO2 SLP148 T02110056,KCUT,2023-07-07T21:53:00Z,43.73,-103.62,21.1,5.6,30,7,15,10.0,30.129921,1014.8,,TRUE,TRUE,,,,,,,SCT,6500,,,,,,,VFR,,,,,,,,,,,,METAR,1700.0
KCSV 072153Z AUTO 03007KT 10SM FEW042 29/19 A2997 RMK AO2 SLP125 T02890189,KCSV,2023-07-07T21:53:00Z,35.95,-85.08,28.9,18.9,30,7,,10.0,29.970472,1012.5,,TRUE,TRUE,,,,,,,FEW,4200,,,,,,,VFR,,,,,,,,,,,,METAR,569.0
KCSM 072153Z 13012KT 10SM FEW042 31/22 A2989 RMK AO2 SLP095 T03060222,KCSM,2023-07-07T21:53:00Z,35.35,-99.2,30.6,22.2,130,12,,10.0,29.890747,1009.5,,,TRUE,,,,,,,FEW,4200,,,,,,,VFR,,,,,,,,,,,,METAR,586.0
KCRS 072153Z AUTO 17012KT 10SM SCT050 34/21 A2990 RMK AO2 SLP119 T03440211,KCRS,2023-07-07T21:53:00Z,32.03,-96.4,34.4,21.1,170,12,,10.0,29.899607,1011.9,,TRUE,TRUE,,,,,,,SCT,5000,,,,,,,VFR,,,,,,,,,,,,METAR,136.0
KCRQ 072153Z 24008KT 10SM CLR 19/12 A2985 RMK AO2 SLP105 T01940122,KCRQ,2023-07-07T21:53:00Z,33.13,-117.28,19.4,12.2,240,8,,10.0,29.84941,1010.5,,,TRUE,,,,,,,CLR,,,,,,,,VFR,,,,,,,,,,,,METAR,96.0
KCRE 072153Z 19010KT 10SM CLR 29/25 A2980 RMK AO1 LTG DSNT SW AND W SLP091 T02940250,KCRE,2023-07-07T21:53:00Z,33.82,-78.72,29.4,25.0,190,10,,10.0,29.799213,1009.1,,,TRUE,,,,,,,CLR,,,,,,,,VFR,,,,,,,,,,,,METAR,9.0
KCQC 072153Z AUTO 29013G25KT 10SM CLR 31/02 A3013 RMK AO2 PK WND 29031/2128 SLP079 T03110017,KCQC,2023-07-07T21:53:00Z,35.0,-105.67,31.1,1.7,290,13,25,10.0,30.129921,1007.9,,TRUE,TRUE,,,,,,,CLR,,,,,,,,VFR,,,,,,,,,,,,METAR,2163.0
KCPR 072153Z 04007KT 10SM FEW060 22/07 A3011 RMK AO2 SLP148 T02220067,KCPR,2023-07-07T21:53:00Z,42.9,-106.47,22.2,6.7,40,7,,10.0,30.109253,1014.8,,,TRUE,,,,,,,FEW,6000,,,,,,,VFR,,,,,,,,,,,,METAR,1623.0
KCOT 072153Z AUTO 13010G18KT 10SM FEW040 SCT049 SCT060 34/23 A2986 RMK AO2 SLP102 T03390233,KCOT,2023-07-07T21:53:00Z,28.45,-99.22,33.9,23.3,130,10,18,10.0,29.861221,1010.2,,TRUE,TRUE,,,,,,,FEW,4000,SCT,4900,SCT,6000,,,VFR,,,,,,,,,,,,METAR,144.0
KCNY 072153Z AUTO 20011KT 10SM CLR 36/M06 A2984 RMK AO2 PK WND 27028/2122 SLP029 T03611056,KCNY,2023-07-07T21:53:00Z,38.77,-109.75,36.1,-5.6,200,11,,10.0,29.840551,1002.9,,TRUE,TRUE,,,,,,,CLR,,,,,,,,VFR,,,,,,,,,,,,METAR,1392.0
KCNO 072153Z 25012KT 10SM CLR 30/10 A2982 RMK AO2 SLP091 T03000100,KCNO,2023-07-07T21:53:00Z,33.98,-117.62,30.0,10.0,250,12,,10.0,29.819881,1009.1,,,TRUE,,,,,,,CLR,,,,,,,,VFR,,,,,,,,,,,,METAR,191.0
KCNM 072153Z AUTO 15013G24KT 10SM CLR 39/13 A2983 RMK AO2 LTG DSNT SW-N SLP032 T03890133,KCNM,2023-07-07T21:53:00Z,32.33,-104.25,38.9,13.3,150,13,24,10.0,29.828741,1003.2,,TRUE,TRUE,,,,,,,CLR,,,,,,,,VFR,,,,,,,,,,,,METAR,993.0
KCMX 072153Z AUTO 28012KT 10SM CLR 24/12 A2989 RMK AO2 SLP119 T02390117,KCMX,2023-07-07T21:53:00Z,47.17,-88.48,23.9,11.7,280,12,,10.0,29.890747,1011.9,,TRUE,TRUE,,,,,,,CLR,,,,,,,,VFR,,,,,,,,,,,,METAR,326.0
KCMI 072153Z 23007KT 10SM SCT110 26/17 A2995 RMK AO2 SLP140 T02610172,KCMI,2023-07-07T21:53:00Z,40.03,-88.27,26.1,17.2,230,7,,10.0,29.949802,1014.0,,,TRUE,,,,,,,SCT,11000,,,,,,,VFR,,,,,,,,,,,,METAR,227.0
KCLM 072153Z AUTO 30012G19KT 10SM CLR 18/11 A2990 RMK AO2 SLP126 T01830106,KCLM,2023-07-07T21:53:00Z,48.12,-123.5,18.3,10.6,300,12,19,10.0,29.899607,1012.6,,TRUE,TRUE,,,,,,,CLR,,,,,,,,VFR,,,,,,,,,,,,METAR,81.0
KCLL 072153Z 20009G18KT 10SM FEW045 SCT065 BKN090 34/22 A2991 RMK AO2 SLP123 T03390217,KCLL,2023-07-07T21:53:00Z,30.58,-96.37,33.9,21.7,200,9,18,10.0,29.911417,1012.3,,,TRUE,,,,,,,FEW,4500,SCT,6500,BKN,9000,,,VFR,,,,,,,,,,,,METAR,96.0
KCKB 072153Z 30008KT 10SM CLR 28/18 A2991 RMK AO2 SLP110 T02830178,KCKB,2023-07-07T21:53:00Z,39.3,-80.22,28.3,17.8,300,8,,10.0,29.911417,1011.0,,,TRUE,,,,,,,CLR,,,,,,,,VFR,,,,,,,,,,,,METAR,368.0
KCHO 072153Z 02004KT 10SM TS SCT050 31/23 A2983 RMK AO2 LTG DSNT N AND NE TSB46 SLP092 T03110228,KCHO,2023-07-07T21:53:00Z,38.13,-78.45,31.1,22.8,20,4,,10.0,29.828741,1009.2,,,TRUE,,,,,,TS,SCT,5000,,,,,,,VFR,,,,,,,,,,,,METAR,193.0
KCHA 072153Z VRB06KT 10SM SCT048 SCT160 SCT250 32/21 A2988 RMK AO2 SLPNO CB DSNT N AND S T03220206,KCHA,2023-07-07T21:53:00Z,35.03,-85.2,32.2,20.6,0,6,,10.0,29.878937,,,,TRUE,,,,,,,SCT,4800,SCT,16000,SCT,25000,,,VFR,,,,,,,,,,,,METAR,203.0
KCEZ 072153Z AUTO 27014G20KT 10SM CLR 33/M02 A3002 RMK AO2 PK WND 26029/2102 SLP072 T03331017,KCEZ,2023-07-07T21:53:00Z,37.3,-108.63,33.3,-1.7,270,14,20,10.0,30.02067,1007.2,,TRUE,TRUE,,,,,,,CLR,,,,,,,,VFR,,,,,,,,,,,,METAR,1801.0
KCEW 072153Z AUTO 19008KT 5SM VCTS -RA FEW044 BKN060 BKN085 27/24 A2991 RMK AO2 LTG DSNT ALQDS RAB43 SLP126 P0001 T02720239,KCEW,2023-07-07T21:53:00Z,30.78,-86.52,27.2,23.9,190,8,,5.0,29.911417,1012.6,,TRUE,TRUE,,,,,,VCTS -RA,FEW,4400,BKN,6000,BKN,8500,,,MVFR,,,,,,0.01,,,,,,METAR,47.0
KCDW 072153Z 16007KT 10SM CLR 28/20 A2981 RMK AO2 SLP098 T02830200,KCDW,2023-07-07T21:53:00Z,40.88,-74.28,28.3,20.0,160,7,,10.0,29.811024,1009.8,,,TRUE,,,,,,,CLR,,,,,,,,VFR,,,,,,,,,,,,METAR,52.0
KCDS 072153Z AUTO 17018G26KT 10SM CLR 35/18 A2982 RMK AO2 PK WND 20031/2056 SLP067 T03500178,KCDS,2023-07-07T21:53:00Z,34.43,-100.28,35.0,17.8,170,18,26,10.0,29.819881,1006.7,,TRUE,TRUE,,,,,,,CLR,,,,,,,,VFR,,,,,,,,,,,,METAR,595.0
KCDR 072153Z AUTO 01008KT 10SM FEW060 26/11 A3003 RMK AO2 SLP154 T02560111,KCDR,2023-07-07T21:53:00Z,42.83,-103.1,25.6,11.1,10,8,,10.0,30.029528,1015.4,,TRUE,TRUE,,,,,,,FEW,6000,,,,,,,VFR,,,,,,,,,,,,METAR,1002.0
KCDC 072153Z AUTO 22015G26KT 10SM CLR 32/M06 A2997 RMK AO2 PK WND 23027/2137 SLP059 T03171061,KCDC,2023-07-07T21:53:00Z,37.7,-113.1,31.7,-6.1,220,15,26,10.0,29.970472,1005.9,,TRUE,TRUE,,,,,,,CLR,,,,,,,,VFR,,,,,,,,,,,,METAR,1703.0
KCCR 072153Z 18019KT 10SM CLR 22/11 A2986 RMK AO2 SLP098 T02170111,KCCR,2023-07-07T21:53:00Z,38.0,-122.05,21.7,11.1,180,19,,10.0,29.861221,1009.8,,,TRUE,,,,,,,CLR,,,,,,,,VFR,,,,,,,,,,,,METAR,6.0
KCAG 072153Z AUTO VRB03KT 10SM CLR 29/02 A3003 RMK AO2 LTG DSNT E AND SE SLP098 T02890022,KCAG,2023-07-07T21:53:00Z,40.5,-107.52,28.9,2.2,0,3,,10.0,30.029528,1009.8,,TRUE,TRUE,,,,,,,CLR,,,,,,,,VFR,,,,,,,,,,,,METAR,1888.0
KBYI 072153Z AUTO 11009KT 10SM CLR 31/04 A2986 RMK AO2 SLP066 T03060044,KBYI,2023-07-07T21:53:00Z,42.55,-113.77,30.6,4.4,110,9,,10.0,29.861221,1006.6,,TRUE,TRUE,,,,,,,CLR,,,,,,,,VFR,,,,,,,,,,,,METAR,1263.0
KBYG 072153Z AUTO VRB03KT 10SM SCT090 23/07 A3013 RMK AO2 SLP162 T02280067,KBYG,2023-07-07T21:53:00Z,44.38,-106.72,22.8,6.7,0,3,,10.0,30.129921,1016.2,,TRUE,TRUE,,,,,,,SCT,9000,,,,,,,VFR,,,,,,,,,,,,METAR,1503.0
KBVY 072153Z 13010KT 10SM CLR 26/20 A2982 RMK AO2 SLP091 T02610200 $,KBVY,2023-07-07T21:53:00Z,42.58,-70.92,26.1,20.0,130,10,,10.0,29.819881,1009.1,,,TRUE,TRUE,,,,,,CLR,,,,,,,,VFR,,,,,,,,,,,,METAR,28.0
KBUR 072153Z 20011KT 10SM CLR 25/13 A2983 RMK AO2 SLP089 T02500128,KBUR,2023-07-07T21:53:00Z,34.2,-118.37,25.0,12.8,200,11,,10.0,29.828741,1008.9,,,TRUE,,,,,,,CLR,,,,,,,,VFR,,,,,,,,,,,,METAR,221.0
KBTR 072153Z 24006KT 10SM CLR 33/22 A2992 RMK AO2 SLP130 T03330217,KBTR,2023-07-07T21:53:00Z,30.53,-91.15,33.3,21.7,240,6,,10.0,29.920275,1013.0,,,TRUE,,,,,,,CLR,,,,,,,,VFR,,,,,,,,,,,,METAR,20.0
KBTM 072153Z AUTO 12007KT 10SM SCT110 22/02 A3007 RMK AO2 LTG DSNT SW AND W SLP144 T02220017,KBTM,2023-07-07T21:53:00Z,45.97,-112.5,22.2,1.7,120,7,,10.0,30.070866,1014.4,,TRUE,TRUE,,,,,,,SCT,11000,,,,,,,VFR,,,,,,,,,,,,METAR,1680.0
KBTL 072153Z 00000KT 10SM FEW070 28/11 A2994 RMK AO2 SLP132 T02830111,KBTL,2023-07-07T21:53:00Z,42.32,-85.25,28.3,11.1,0,0,,10.0,29.940945,1013.2,,,TRUE,,,,,,,FEW,7000,,,,,,,VFR,,,,,,,,,,,,METAR,282.0
KBRO 072153Z 12012KT 10SM FEW034 FEW046 33/25 A2986 RMK AO2 SLP111 T03280250,KBRO,2023-07-07T21:53:00Z,25.92,-97.42,32.8,25.0,120,12,,10.0,29.861221,1011.1,,,TRUE,,,,,,,FEW,3400,FEW,4600,,,,,VFR,,,,,,,,,,,,METAR,6.0
KBPT 072153Z 19010G17KT 10SM CLR 34/24 A2992 RMK AO2 SLP133 T03440239,KBPT,2023-07-07T21:53:00Z,29.95,-94.03,34.4,23.9,190,10,17,10.0,29.920275,1013.3,,,TRUE,,,,,,,CLR,,,,,,,,VFR,,,,,,,,,,,,METAR,6.0
KBPK 072153Z AUTO 22008KT 10SM VCTS SCT060 31/21 A2988 RMK AO2 LTG DSNT SW TSB2055E10 SLP108 T03060211,KBPK,2023-07-07T21:53:00Z,36.37,-92.47,30.6,21.1,220,8,,10.0,29.878937,1010.8,,TRUE,TRUE,,,,,,VCTS,SCT,6000,,,,,,,VFR,,,,,,,,,,,,METAR,279.0
KBPI 072153Z AUTO 06010G18KT 10SM SCT080 SCT110 22/02 A3013 RMK AO2 LTG DSNT ALQDS RAE17 SLP123 P0000 T02170022,KBPI,2023-07-07T21:53:00Z,42.58,-110.1,21.7,2.2,60,10,18,10.0,30.129921,1012.3,,TRUE,TRUE,,,,,,,SCT,8000,SCT,11000,,,,,VFR,,,,,,0.005,,,,,,METAR,2120.0
KBOI 072153Z 32009KT 10SM CLR 34/07 A2979 RMK AO2 SLP052 T03440072,KBOI,2023-07-07T21:53:00Z,43.57,-116.23,34.4,7.2,320,9,,10.0,29.790354,1005.2,,,TRUE,,,,,,,CLR,,,,,,,,VFR,,,,,,,,,,,,METAR,860.0
KBNO 072153Z AUTO 16005KT 10SM CLR 32/04 A2988 RMK AO2 LTG DSNT N SLP077 T03170044,KBNO,2023-07-07T21:53:00Z,43.6,-118.95,31.7,4.4,160,5,,10.0,29.878937,1007.7,,TRUE,TRUE,,,,,,,CLR,,,,,,,,VFR,,,,,,,,,,,,METAR,1263.0
KBNA 072153Z 00000KT 10SM SCT055 SCT180 BKN250 33/19 A2991 RMK AO2 SLP121 T03280189,KBNA,2023-07-07T21:53:00Z,36.12,-86.68,32.8,18.9,0,0,,10.0,29.911417,1012.1,,,TRUE,,,,,,,SCT,5500,SCT,18000,BKN,25000,,,VFR,,,,,,,,,,,,METAR,168.0
KBMQ 072153Z AUTO 20007KT 10SM BKN047 33/21 A2994 RMK AO2 SLP117 T03330206,KBMQ,2023-07-07T21:53:00Z,30.73,-98.23,33.3,20.6,200,7,,10.0,29.940945,1011.7,,TRUE,TRUE,,,,,,,BKN,4700,,,,,,,VFR,,,,,,,,,,,,METAR,387.0
KBMG 072153Z VRB05KT 10SM CLR 29/17 A2993 RMK AO2 SLP127 T02940172,KBMG,2023-07-07T21:53:00Z,39.15,-86.62,29.4,17.2,0,5,,10.0,29.929134,1012.7,,,TRUE,,,,,,,CLR,,,,,,,,VFR,,,,,,,,,,,,METAR,254.0
KBLI 072153Z 19009G19KT 10SM CLR 18/14 A2987 RMK AO2 SLP120 T01780139,KBLI,2023-07-07T21:53:00Z,48.8,-122.53,17.8,13.9,190,9,19,10.0,29.870079,1012.0,,,TRUE,,,,,,,CLR,,,,,,,,VFR,,,,,,,,,,,,METAR,46.0
KBKV 072153Z 26013KT 10SM FEW030 SCT035 31/24 A2993 RMK AO2 LTG DSNT E AND SE SLP134 T03110239,KBKV,2023-07-07T21:53:00Z,28.47,-82.45,31.1,23.9,260,13,,10.0,29.929134,1013.4,,,TRUE,,,,,,,FEW,3000,SCT,3500,,,,,VFR,,,,,,,,,,,,METAR,21.0
KBKL 072153Z 02006KT 10SM CLR 24/15 A2996 RMK AO2 SLP140 T02440150,KBKL,2023-07-07T21:53:00Z,41.53,-81.67,24.4,15.0,20,6,,10.0,29.958662,1014.0,,,TRUE,,,,,,,CLR,,,,,,,,VFR,,,,,,,,,,,,METAR,177.0
KBKE 072153Z AUTO 35004KT 10SM CLR 32/04 A2986 RMK AO2 SLP085 T03170039,KBKE,2023-07-07T21:53:00Z,44.85,-117.82,31.7,3.9,350,4,,10.0,29.861221,1008.5,,TRUE,TRUE,,,,,,,CLR,,,,,,,,VFR,,,,,,,,,,,,METAR,1025.0
KBIV 072153Z AUTO 30007KT 10SM CLR 26/12 A2995 RMK AO2 SLP138 T02610122,KBIV,2023-07-07T21:53:00Z,42.75,-86.1,26.1,12.2,300,7,,10.0,29.949802,1013.8,,TRUE,TRUE,,,,,,,CLR,,,,,,,,VFR,,,,,,,,,,,,METAR,207.0
KBIL 072153Z 06011KT 10SM SCT075 SCT250 26/07 A3006 RMK AO2 SLP155 CB DSNT NE NW T02560072,KBIL,2023-07-07T21:53:00Z,45.8,-108.55,25.6,7.2,60,11,,10.0,30.059055,1015.5,,,TRUE,,,,,,,SCT,7500,SCT,25000,,,,,VFR,,,,,,,,,,,,METAR,1089.0
KBHM 072153Z 36010KT 10SM FEW050 BKN110 29/21 A2992 RMK AO2 LTG DSNT ALQDS TSB24E39 SLP124 TS MOV SE T02940211,KBHM,2023-07-07T21:53:00Z,33.57,-86.75,29.4,21.1,360,10,,10.0,29.920275,1012.4,,,TRUE,,,,,,,FEW,5000,BKN,11000,,,,,VFR,,,,,,,,,,,,METAR,191.0
KBGR 072153Z 19011KT 10SM FEW030TCU FEW085 SCT220 26/19 A2985 RMK AO2 SLP103 TCU NW T02560194,KBGR,2023-07-07T21:53:00Z,44.8,-68.82,25.6,19.4,190,11,,10.0,29.84941,1010.3,,,TRUE,,,,,,,FEW,3000,FEW,8500,SCT,22000,,,VFR,,,,,,,,,,,,METAR,45.0
KBFM 072153Z COR 08012KT 10SM VCTS -RA BKN040CB 29/22 A2993 RMK AO2 WSHFT 2121 LTG DSNT E RAB53 SLP134 CB NE AND E P0000 T02890217,KBFM,2023-07-07T21:53:00Z,30.62,-88.07,28.9,21.7,80,12,,10.0,29.929134,1013.4,TRUE,,TRUE,,,,,,VCTS -RA,BKN,4000,,,,,,,VFR,,,,,,0.005,,,,,,METAR,7.0
KBFI 072153Z 15008KT 10SM FU CLR 22/12 A2989 RMK AO2 SLP122 T02220122,KBFI,2023-07-07T21:53:00Z,47.55,-122.32,22.2,12.2,150,8,,10.0,29.890747,1012.2,,,TRUE,,,,,,FU,CLR,,,,,,,,VFR,,,,,,,,,,,,METAR,7.0
KBFD 072153Z AUTO 34007KT 10SM BKN049 24/16 A2996 RMK AO2 SLP128 T02440161,KBFD,2023-07-07T21:53:00Z,41.8,-78.63,24.4,16.1,340,7,,10.0,29.958662,1012.8,,TRUE,TRUE,,,,,,,BKN,4900,,,,,,,VFR,,,,,,,,,,,,METAR,642.0
KBEH 072153Z AUTO VRB04KT 10SM CLR 24/16 A2993 RMK AO2 SLP132 T02390161,KBEH,2023-07-07T21:53:00Z,42.13,-86.42,23.9,16.1,0,4,,10.0,29.929134,1013.2,,TRUE,TRUE,,,,,,,CLR,,,,,,,,VFR,,,,,,,,,,,,METAR,196.0
KBDE 072153Z AUTO 33009KT 10SM CLR 23/10 A2991 RMK AO2 SLP129 T02330100,KBDE,2023-07-07T21:53:00Z,48.73,-94.62,23.3,10.0,330,9,,10.0,29.911417,1012.9,,TRUE,TRUE,,,,,,,CLR,,,,,,,,VFR,,,,,,,,,,,,METAR,330.0
KBCT 072153Z 00000KT 10SM SCT040 26/24 A2995,KBCT,2023-07-07T21:53:00Z,26.38,-80.1,26.0,24.0,0,0,,10.0,29.949802,,,,,,,,,,,SCT,4000,,,,,,,VFR,,,,,,,,,,,,METAR,3.0
KBCE 072153Z AUTO 20013G20KT 10SM CLR 27/M03 A3014 RMK AO2 SLP089 T02671033,KBCE,2023-07-07T21:53:00Z,37.7,-112.15,26.7,-3.3,200,13,20,10.0,30.138779,1008.9,,TRUE,TRUE,,,,,,,CLR,,,,,,,,VFR,,,,,,,,,,,,METAR,2311.0
KBBW 072153Z AUTO 36011G18KT 10SM FEW050 FEW070 27/16 A2994 RMK AO2 SLP117 T02670161,KBBW,2023-07-07T21:53:00Z,41.43,-99.63,26.7,16.1,360,11,18,10.0,29.940945,1011.7,,TRUE,TRUE,,,,,,,FEW,5000,FEW,7000,,,,,VFR,,,,,,,,,,,,METAR,771.0
KBAF 072153Z 18006KT 10SM CLR 28/20 A2983 RMK AO2 LTG DSNT N SLP097 T02830200,KBAF,2023-07-07T21:53:00Z,42.17,-72.72,28.3,20.0,180,6,,10.0,29.828741,1009.7,,,TRUE,,,,,,,CLR,,,,,,,,VFR,,,,,,,,,,,,METAR,80.0
KAZO 072153Z 18006KT 10SM FEW070 28/11 A2993 RMK AO2 SLP132 T02780106,KAZO,2023-07-07T21:53:00Z,42.23,-85.55,27.8,10.6,180,6,,10.0,29.929134,1013.2,,,TRUE,,,,,,,FEW,7000,,,,,,,VFR,,,,,,,,,,,,METAR,264.0
KAXN 072153Z AUTO 20012KT 10SM CLR 24/13 A2993 RMK AO2 SLP132 T02390128,KAXN,2023-07-07T21:53:00Z,45.87,-95.4,23.9,12.8,200,12,,10.0,29.929134,1013.2,,TRUE,TRUE,,,,,,,CLR,,,,,,,,VFR,,,,,,,,,,,,METAR,433.0
KAWM 072153Z AUTO 00000KT 10SM SCT040 31/22 A2990 RMK AO2 SLP118 T03060217,KAWM,2023-07-07T21:53:00Z,35.13,-90.23,30.6,21.7,0,0,,10.0,29.899607,1011.8,,TRUE,TRUE,,,,,,,SCT,4000,,,,,,,VFR,,,,,,,,,,,,METAR,64.0
KAUS 072153Z 16010G18KT 10SM FEW043 BKN110 32/22 A2990 RMK AO2 SLP114 T03220222 $,KAUS,2023-07-07T21:53:00Z,30.18,-97.68,32.2,22.2,160,10,18,10.0,29.899607,1011.4,,,TRUE,TRUE,,,,,,FEW,4300,BKN,11000,,,,,VFR,,,,,,,,,,,,METAR,148.0
KAUG 072153Z AUTO 17007KT 10SM CLR 27/19 A2986 RMK AO2 LTG DSNT NW SLP109 T02670189,KAUG,2023-07-07T21:53:00Z,44.32,-69.8,26.7,18.9,170,7,,10.0,29.861221,1010.9,,TRUE,TRUE,,,,,,,CLR,,,,,,,,VFR,,,,,,,,,,,,METAR,107.0
KATY 072153Z AUTO 20008KT 10SM FEW027 22/14 A2995 RMK AO2 SLP138 T02170144,KATY,2023-07-07T21:53:00Z,44.9,-97.15,21.7,14.4,200,8,,10.0,29.949802,1013.8,,TRUE,TRUE,,,,,,,FEW,2700,,,,,,,VFR,,,,,,,,,,,,METAR,531.0
KASX 072153Z AUTO 22009KT 10SM BKN095 24/13 A2991 RMK AO2 SLP130 T02390133,KASX,2023-07-07T21:53:00Z,46.55,-90.92,23.9,13.3,220,9,,10.0,29.911417,1013.0,,TRUE,TRUE,,,,,,,BKN,9500,,,,,,,VFR,,,,,,,,,,,,METAR,249.0
KASE 072153Z 34009G17KT 300V010 10SM CLR 27/M04 A3013 RMK AO2 PK WND 27026/2055 WSHFT 2046 SLP074 T02721039,KASE,2023-07-07T21:53:00Z,39.23,-106.87,27.2,-3.9,340,9,17,10.0,30.129921,1007.4,,,TRUE,,,,,,,CLR,,,,,,,,VFR,,,,,,,,,,,,METAR,2384.0
KARB 072153Z VRB04KT 10SM CLR 26/13 A2993 RMK AO2 SLP132 T02610133,KARB,2023-07-07T21:53:00Z,42.22,-83.73,26.1,13.3,0,4,,10.0,29.929134,1013.2,,,TRUE,,,,,,,CLR,,,,,,,,VFR,,,,,,,,,,,,METAR,251.0
KARA 072153Z 24008KT 10SM FEW120 30/22 A2994 RMK AO2 LTG DSNT N SLP138 T03000217,KARA,2023-07-07T21:53:00Z,30.03,-91.88,30.0,21.7,240,8,,10.0,29.940945,1013.8,,,TRUE,,,,,,,FEW,12000,,,,,,,VFR,,,,,,,,,,,,METAR,5.0
KAQP 072153Z AUTO 27005KT 10SM SCT031 BKN038 BKN080 24/14 A2992 RMK AO2,KAQP,2023-07-07T21:53:00Z,45.22,-96.0,24.0,14.0,270,5,,10.0,29.920275,,,TRUE,TRUE,,,,,,,SCT,3100,BKN,3800,BKN,8000,,,VFR,,,,,,,,,,,,METAR,312.0
KAPA 072153Z VRB06KT 10SM FEW038 BKN055 BKN130 22/13 A3013 RMK AO2 SLP141 T02220128,KAPA,2023-07-07T21:53:00Z,39.57,-104.85,22.2,12.8,0,6,,10.0,30.129921,1014.1,,,TRUE,,,,,,,FEW,3800,BKN,5500,BKN,13000,,,VFR,,,,,,,,,,,,METAR,1791.0
KAOO 072153Z AUTO 32008KT 10SM SCT050 BKN070 27/19 A2990 RMK AO2 SLP112 T02720194,KAOO,2023-07-07T21:53:00Z,40.3,-78.32,27.2,19.4,320,8,,10.0,29.899607,1011.2,,TRUE,TRUE,,,,,,,SCT,5000,BKN,7000,,,,,VFR,,,,,,,,,,,,METAR,450.0
KAOH 072153Z AUTO 19004KT 10SM SCT065 27/15 A2993 RMK AO2 SLP127 T02720150,KAOH,2023-07-07T21:53:00Z,40.7,-84.02,27.2,15.0,190,4,,10.0,29.929134,1012.7,,TRUE,TRUE,,,,,,,SCT,6500,,,,,,,VFR,,,,,,,,,,,,METAR,294.0
KANB 072153Z AUTO 22007KT 10SM CLR 27/22 A2989 RMK AO2 LTG DSNT N AND NE AND SW RAE2055 SLP114 P0000 T02670222,KANB,2023-07-07T21:53:00Z,33.58,-85.85,26.7,22.2,220,7,,10.0,29.890747,1011.4,,TRUE,TRUE,,,,,,,CLR,,,,,,,,VFR,,,,,,0.005,,,,,,METAR,187.0
KAMW 072153Z AUTO 13003KT 10SM -RA OVC041 17/14 A2997 RMK AO2 SLP146 P0004 T01720139,KAMW,2023-07-07T21:53:00Z,41.98,-93.62,17.2,13.9,130,3,,10.0,29.970472,1014.6,,TRUE,TRUE,,,,,,-RA,OVC,4100,,,,,,,VFR,,,,,,0.04,,,,,,METAR,282.0
KAMA 072153Z 18019G30KT 10SM CLR 33/18 A2985 RMK AO2 PK WND 18033/2057 SLP048 T03280178,KAMA,2023-07-07T21:53:00Z,35.22,-101.72,32.8,17.8,180,19,30,10.0,29.84941,1004.8,,,TRUE,,,,,,,CLR,,,,,,,,VFR,,,,,,,,,,,,METAR,1102.0
KALW 072153Z 07006KT 10SM CLR 36/07 A2973 RMK AO2 SLP055 T03610072,KALW,2023-07-07T21:53:00Z,46.1,-118.28,36.1,7.2,70,6,,10.0,29.731298,1005.5,,,TRUE,,,,,,,CLR,,,,,,,,VFR,,,,,,,,,,,,METAR,355.0
KALI 072153Z AUTO 19017G30KT 5SM VCTS -SN SCT035 BKN047 OVC090 A2992 RMK AO2 PK WND 19032/2138 WSHFT 2110 LTG DSNT S-NW UPB43E45SNB45 TSB27E45 SLPNO PNO $,KALI,2023-07-07T21:53:00Z,27.73,-98.02,,,190,17,30,5.0,29.920275,,,TRUE,TRUE,TRUE,,,,,VCTS -SN,SCT,3500,BKN,4700,OVC,9000,,,MVFR,,,,,,,,,,,,METAR,52.0
KAKO 072153Z AUTO 03014G20KT 10SM CLR 24/13 A3007 RMK AO2 SLP129 T02390133,KAKO,2023-07-07T21:53:00Z,40.17,-103.22,23.9,13.3,30,14,20,10.0,30.070866,1012.9,,TRUE,TRUE,,,,,,,CLR,,,,,,,,VFR,,,,,,,,,,,,METAR,1431.0
KAIA 072153Z AUTO 01008KT 10SM FEW050 SCT065 24/13 A3004 RMK AO2 SLP144 T02390128,KAIA,2023-07-07T21:53:00Z,42.05,-102.8,23.9,12.8,10,8,,10.0,30.041338,1014.4,,TRUE,TRUE,,,,,,,FEW,5000,SCT,6500,,,,,VFR,,,,,,,,,,,,METAR,1198.0
KAGS 072153Z 26010KT 10SM FEW065 28/21 A2981 RMK AO2 PK WND 26030/2126 LTG DSNT SE AND S TSB10E25 SLP094 T02830211,KAGS,2023-07-07T21:53:00Z,33.37,-81.97,28.3,21.1,260,10,,10.0,29.811024,1009.4,,,TRUE,,,,,,,FEW,6500,,,,,,,VFR,,,,,,,,,,,,METAR,40.0
KAGC 072153Z 34007G17KT 10SM FEW036 28/18 A2990 RMK AO2 SLP121 T02780183,KAGC,2023-07-07T21:53:00Z,40.35,-79.92,27.8,18.3,340,7,17,10.0,29.899607,1012.1,,,TRUE,,,,,,,FEW,3600,,,,,,,VFR,,,,,,,,,,,,METAR,380.0
KAFW 072153Z 18017KT 10SM SCT060 SCT250 35/19 A2985 RMK AO2 PK WND 17029/2123 SLP088 T03500194,KAFW,2023-07-07T21:53:00Z,32.97,-97.32,35.0,19.4,180,17,,10.0,29.84941,1008.8,,,TRUE,,,,,,,SCT,6000,SCT,25000,,,,,VFR,,,,,,,,,,,,METAR,208.0
KAEX 072153Z 22005KT 10SM FEW070 34/21 A2990 RMK AO2 SLP126 T03390206,KAEX,2023-07-07T21:53:00Z,31.33,-92.57,33.9,20.6,220,5,,10.0,29.899607,1012.6,,,TRUE,,,,,,,FEW,7000,,,,,,,VFR,,,,,,,,,,,,METAR,25.0
KADG 072153Z AUTO 26003KT 10SM CLR 27/14 A2994 RMK AO2 SLP135 T02720139,KADG,2023-07-07T21:53:00Z,41.87,-84.08,27.2,13.9,260,3,,10.0,29.940945,1013.5,,TRUE,TRUE,,,,,,,CLR,,,,,,,,VFR,,,,,,,,,,,,METAR,244.0
KACV 072153Z AUTO 31012KT 10SM OVC022 17/11 A2999 RMK AO2 SLP161 T01670106,KACV,2023-07-07T21:53:00Z,40.98,-124.1,16.7,10.6,310,12,,10.0,29.991142,1016.1,,TRUE,TRUE,,,,,,,OVC,2200,,,,,,,MVFR,,,,,,,,,,,,METAR,63.0
KACK 072153Z 13007KT 1/4SM R24/2600FT FG VV002 20/20 A2987 RMK AO2 SLP115 T02000200,KACK,2023-07-07T21:53:00Z,41.25,-70.07,20.0,20.0,130,7,,0.25,29.870079,1011.5,,,TRUE,,,,,,FG,OVX,0,,,,,,,LIFR,,,,,,,,,,,200,METAR,12.0
KABY 072153Z 25005KT 10SM VCTS FEW070 SCT100 32/22 A2986 RMK AO2 LTG DSNT W AND NW SLP110 T03170222,KABY,2023-07-07T21:53:00Z,31.53,-84.2,31.7,22.2,250,5,,10.0,29.861221,1011.0,,,TRUE,,,,,,VCTS,FEW,7000,SCT,10000,,,,,VFR,,,,,,,,,,,,METAR,60.0
KABR 072153Z AUTO 28007G18KT 6SM VCTS -RA SCT039 BKN060 BKN070 22/16 A2994 RMK AO2 LTG DSNT SW AND W RAB53 SLP136 P0000 T02220156,KABR,2023-07-07T21:53:00Z,45.45,-98.42,22.2,15.6,280,7,18,6.0,29.940945,1013.6,,TRUE,TRUE,,,,,,VCTS -RA,SCT,3900,BKN,6000,BKN,7000,,,VFR,,,,,,0.005,,,,,,METAR,397.0
KAAF 072153Z AUTO 25015G20KT 10SM CLR 32/24 A2988 RMK AO2 LTG DSNT SW SLP119 T03220244,KAAF,2023-07-07T21:53:00Z,29.73,-85.03,32.2,24.4,250,15,20,10.0,29.878937,1011.9,,TRUE,TRUE,,,,,,,CLR,,,,,,,,VFR,,,,,,,,,,,,METAR,5.0
RJOF 072152Z 09004KT 050V120 9999 -SHRA FEW001 BKN030 BKN060 26/23 Q1005 RMK 1ST001 5CU030 7SC060 A2970,RJOF,2023-07-07T21:52:00Z,34.03,131.55,26.0,23.0,90,4,,6.21,29.675198,,,,,,,,,,-SHRA,FEW,100,BKN,3000,BKN,6000,,,MVFR,,,,,,,,,,,,METAR,2.0
PATA 072152Z 23004KT 10SM BKN080 OVC090 18/13 A2977 RMK AO2 SLP082 CB ALQDS T01830133 $,PATA,2023-07-07T21:52:00Z,65.17,-152.1,18.3,13.3,230,4,,10.0,29.769686,1008.2,,,TRUE,TRUE,,,,,,BKN,8000,OVC,9000,,,,,VFR,,,,,,,,,,,,METAR,62.0
MMCM 072152Z 12018KT 7SM SCT020 BKN200 30/24 A2986 RMK 8/504 HZY,MMCM,2023-07-07T21:52:00Z,18.5,-88.33,30.0,24.0,120,18,,7.0,29.861221,,,,,,,,,,,SCT,2000,BKN,20000,,,,,VFR,,,,,,,,,,,,METAR,10.0
KVTN 072152Z AUTO 02010G17KT 10SM FEW037 SCT120 24/14 A2998 RMK AO2 LTG DSNT NW SLP140 T02390144,KVTN,2023-07-07T21:52:00Z,42.87,-100.55,23.9,14.4,20,10,17,10.0,29.97933,1014.0,,TRUE,TRUE,,,,,,,FEW,3700,SCT,12000,,,,,VFR,,,,,,,,,,,,METAR,790.0
KTRM 072152Z AUTO VRB03KT 9SM CLR 40/04 A2961 RMK AO2 SLP030 T04000044,KTRM,2023-07-07T21:52:00Z,33.63,-116.17,40.0,4.4,0,3,,9.0,29.610237,1003.0,,TRUE,TRUE,,,,,,,CLR,,,,,,,,VFR,,,,,,,,,,,,METAR,-39.0
KTOL 072152Z VRB04KT 10SM CLR 28/15 A2992 RMK AO2 SLP128 T02830150,KTOL,2023-07-07T21:52:00Z,41.58,-83.8,28.3,15.0,0,4,,10.0,29.920275,1012.8,,,TRUE,,,,,,,CLR,,,,,,,,VFR,,,,,,,,,,,,METAR,206.0
KTAN 072152Z AUTO 22007KT 10SM CLR 27/21 A2985 RMK AO2 SLP107 T02720211,KTAN,2023-07-07T21:52:00Z,41.88,-71.02,27.2,21.1,220,7,,10.0,29.84941,1010.7,,TRUE,TRUE,,,,,,,CLR,,,,,,,,VFR,,,,,,,,,,,,METAR,8.0
KSUX 072152Z 08012G18KT 2 1/2SM -RA BR BKN006 OVC011 16/15 A2996 RMK AO2 SLP143 P0002 T01560150,KSUX,2023-07-07T21:52:00Z,42.38,-96.38,15.6,15.0,80,12,18,2.5,29.958662,1014.3,,,TRUE,,,,,,-RA BR,BKN,600,OVC,1100,,,,,IFR,,,,,,0.02,,,,,,METAR,332.0
KSPS 072152Z 18015G26KT 10SM FEW060 SCT250 34/21 A2980 RMK AO2 PK WND 16029/2106 SLP077 T03440211,KSPS,2023-07-07T21:52:00Z,33.98,-98.5,34.4,21.1,180,15,26,10.0,29.799213,1007.7,,,TRUE,,,,,,,FEW,6000,SCT,25000,,,,,VFR,,,,,,,,,,,,METAR,310.0
KSGF 072152Z 23007KT 10SM CLR 31/21 A2988 RMK AO2 SLP103 T03110206,KSGF,2023-07-07T21:52:00Z,37.23,-93.38,31.1,20.6,230,7,,10.0,29.878937,1010.3,,,TRUE,,,,,,,CLR,,,,,,,,VFR,,,,,,,,,,,,METAR,387.0
KREO 072152Z AUTO 19012G21KT 33/06 A2983 RMK AO1 SLP053 T03280056,KREO,2023-07-07T21:52:00Z,42.58,-117.87,32.8,5.6,190,12,21,,29.828741,1005.3,,TRUE,TRUE,,,,,,,,,,,,,,,,,,,,,,,,,,,METAR,1237.0
KRAP 072152Z 05009KT 10SM CLR 24/12 A3003 RMK AO2 PK WND 02033/2107 WSHFT 2059 SLP151 T02440117,KRAP,2023-07-07T21:52:00Z,44.05,-103.05,24.4,11.7,50,9,,10.0,30.029528,1015.1,,,TRUE,,,,,,,CLR,,,,,,,,VFR,,,,,,,,,,,,METAR,965.0
KPYM 072152Z AUTO 22009KT 10SM CLR 27/20 A2985 RMK AO2 SLP110 T02720200,KPYM,2023-07-07T21:52:00Z,41.92,-70.73,27.2,20.0,220,9,,10.0,29.84941,1011.0,,TRUE,TRUE,,,,,,,CLR,,,,,,,,VFR,,,,,,,,,,,,METAR,42.0
KPWK 072152Z 06007KT 10SM CLR 24/16 A2994 RMK AO2 SLP136 T02390156,KPWK,2023-07-07T21:52:00Z,42.12,-87.9,23.9,15.6,60,7,,10.0,29.940945,1013.6,,,TRUE,,,,,,,CLR,,,,,,,,VFR,,,,,,,,,,,,METAR,194.0
KP69 072152Z AUTO 00000KT 34/11 A2974 RMK AO1 SLP046 T03390106,KP69,2023-07-07T21:52:00Z,46.15,-115.6,33.9,10.6,0,0,,,29.740158,1004.6,,TRUE,TRUE,,,,,,,,,,,,,,,,,,,,,,,,,,,METAR,447.0
KORE 072152Z AUTO 20004KT 10SM CLR 29/19 A2985 RMK AO2 LTG DSNT W-N SLP105 T02940194,KORE,2023-07-07T21:52:00Z,42.57,-72.28,29.4,19.4,200,4,,10.0,29.84941,1010.5,,TRUE,TRUE,,,,,,,CLR,,,,,,,,VFR,,,,,,,,,,,,METAR,165.0
KOMA 072152Z 04006KT 10SM -RA FEW020 OVC047 21/17 A2990 RMK AO2 RAB00E18B36 SLP121 P0000 T02060167,KOMA,2023-07-07T21:52:00Z,41.32,-95.9,20.6,16.7,40,6,,10.0,29.899607,1012.1,,,TRUE,,,,,,-RA,FEW,2000,OVC,4700,,,,,VFR,,,,,,0.005,,,,,,METAR,299.0
KOKC 072152Z 11008KT 10SM FEW070 BKN130 BKN200 27/20 A2990 RMK AO2 SLP112 T02670200,KOKC,2023-07-07T21:52:00Z,35.38,-97.6,26.7,20.0,110,8,,10.0,29.899607,1011.2,,,TRUE,,,,,,,FEW,7000,BKN,13000,BKN,20000,,,VFR,,,,,,,,,,,,METAR,391.0
KOKB 072152Z AUTO 26009KT 10SM CLR 22/13 A2984 RMK AO2 SLP104 T02170133,KOKB,2023-07-07T21:52:00Z,33.22,-117.35,21.7,13.3,260,9,,10.0,29.840551,1010.4,,TRUE,TRUE,,,,,,,CLR,,,,,,,,VFR,,,,,,,,,,,,METAR,7.0
KNZY 072152Z 28009KT 10SM CLR 20/13 A2985 RMK AO2 SLP106 T02000128,KNZY,2023-07-07T21:52:00Z,32.7,-117.22,20.0,12.8,280,9,,10.0,29.84941,1010.6,,,TRUE,,,,,,,CLR,,,,,,,,VFR,,,,,,,,,,,,METAR,4.0
KNRB 072152Z 22014G19KT 10SM SCT040 BKN100 OVC250 27/24 A2988 RMK AO2 RAE00 TSE00 PRESRR SLP116 FRQ LTG DSNT SW CB DSNT SW T2 SET P0000 T02670239 $,KNRB,2023-07-07T21:52:00Z,30.38,-81.42,26.7,23.9,220,14,19,10.0,29.878937,1011.6,,,TRUE,TRUE,,,,,,SCT,4000,BKN,10000,OVC,25000,,,VFR,,,,,,0.005,,,,,,METAR,4.0
KNHK 072152Z 00000KT 10SM FEW040 FEW110 SCT160 BKN250 29/23 A2982 RMK AO2 SLP097 CB DSNT SE T2 SET T02890228 $,KNHK,2023-07-07T21:52:00Z,38.28,-76.4,28.9,22.8,0,0,,10.0,29.819881,1009.7,,,TRUE,TRUE,,,,,,FEW,4000,FEW,11000,SCT,16000,BKN,25000,VFR,,,,,,,,,,,,METAR,5.0
KN60 072152Z AUTO VRB06G20KT 23/07 A3001 RMK AO1 SLP161 T02330067,KN60,2023-07-07T21:52:00Z,47.65,-101.43,23.3,6.7,0,6,20,,30.008858,1016.1,,TRUE,TRUE,,,,,,,,,,,,,,,,,,,,,,,,,,,METAR,582.0
KMWH 072152Z 00000KT 10SM SCT110 37/08 A2975 RMK AO2 SLP064 T03670078 $,KMWH,2023-07-07T21:52:00Z,47.2,-119.32,36.7,7.8,0,0,,10.0,29.749016,1006.4,,,TRUE,TRUE,,,,,,SCT,11000,,,,,,,VFR,,,,,,,,,,,,METAR,355.0
KMLI 072152Z 00000KT 7SM -RA SCT090 OVC110 21/16 A2994 RMK AO2 SLP138 P0004 T02060156,KMLI,2023-07-07T21:52:00Z,41.45,-90.52,20.6,15.6,0,0,,7.0,29.940945,1013.8,,,TRUE,,,,,,-RA,SCT,9000,OVC,11000,,,,,VFR,,,,,,0.04,,,,,,METAR,174.0
KMLF 072152Z AUTO 21013G21KT 10SM CLR 33/M08 A2990 RMK AO2 SLP056 T03331078,KMLF,2023-07-07T21:52:00Z,38.42,-113.02,33.3,-7.8,210,13,21,10.0,29.899607,1005.6,,TRUE,TRUE,,,,,,,CLR,,,,,,,,VFR,,,,,,,,,,,,METAR,1537.0
KMKE 072152Z 11008KT 10SM FEW060 BKN250 23/14 A2994 RMK AO2 SLP134 T02330144,KMKE,2023-07-07T21:52:00Z,42.95,-87.9,23.3,14.4,110,8,,10.0,29.940945,1013.4,,,TRUE,,,,,,,FEW,6000,BKN,25000,,,,,VFR,,,,,,,,,,,,METAR,203.0
KMHK 072152Z 22007KT 7SM FEW009 BKN100 29/20 A2987 RMK AO2 SLP104 T02890200,KMHK,2023-07-07T21:52:00Z,39.13,-96.68,28.9,20.0,220,7,,7.0,29.870079,1010.4,,,TRUE,,,,,,,FEW,900,BKN,10000,,,,,VFR,,,,,,,,,,,,METAR,320.0
KMFD 072152Z 01007KT 10SM CLR 27/16 A2996 RMK AO2 SLP134 T02670161,KMFD,2023-07-07T21:52:00Z,40.82,-82.52,26.7,16.1,10,7,,10.0,29.958662,1013.4,,,TRUE,,,,,,,CLR,,,,,,,,VFR,,,,,,,,,,,,METAR,394.0
KMEB 072152Z AUTO 27011KT 10SM VCTS FEW050 SCT070 BKN110 27/21 A2982 RMK AO2 LTG DSNT ALQDS TSB2056E25B31E46 SLP097 T02670211,KMEB,2023-07-07T21:52:00Z,34.78,-79.37,26.7,21.1,270,11,,10.0,29.819881,1009.7,,TRUE,TRUE,,,,,,VCTS,FEW,5000,SCT,7000,BKN,11000,,,VFR,,,,,,,,,,,,METAR,65.0
KMDH 072152Z 00000KT 10SM SCT075 30/18 A2991 RMK AO2 SLP123 T03000183,KMDH,2023-07-07T21:52:00Z,37.78,-89.25,30.0,18.3,0,0,,10.0,29.911417,1012.3,,,TRUE,,,,,,,SCT,7500,,,,,,,VFR,,,,,,,,,,,,METAR,122.0
KLWC 072152Z AUTO 00000KT 10SM CLR 28/20 A2987 RMK AO1 SLP107 T02780200,KLWC,2023-07-07T21:52:00Z,39.02,-95.22,27.8,20.0,0,0,,10.0,29.870079,1010.7,,TRUE,TRUE,,,,,,,CLR,,,,,,,,VFR,,,,,,,,,,,,METAR,252.0
KIWA 072152Z 27008KT 10SM CLR 41/02 A2972,KIWA,2023-07-07T21:52:00Z,33.3,-111.65,41.0,2.0,270,8,,10.0,29.719488,,,,,,,,,,,CLR,,,,,,,,VFR,,,,,,,,,,,,METAR,420.0
KIOW 072152Z AUTO 31005KT 10SM FEW043 SCT055 OVC110 19/15 A2998 RMK AO2 RAE43 SLP151 P0000 T01940150,KIOW,2023-07-07T21:52:00Z,41.63,-91.55,19.4,15.0,310,5,,10.0,29.97933,1015.1,,TRUE,TRUE,,,,,,,FEW,4300,SCT,5500,OVC,11000,,,VFR,,,,,,0.005,,,,,,METAR,199.0
KIJD 072152Z AUTO 21008KT 10SM CLR 28/20 A2985 RMK AO2 SLP104 T02830200,KIJD,2023-07-07T21:52:00Z,41.75,-72.18,28.3,20.0,210,8,,10.0,29.84941,1010.4,,TRUE,TRUE,,,,,,,CLR,,,,,,,,VFR,,,,,,,,,,,,METAR,73.0
KIFP 072152Z 20012KT 10SM CLR 40/M03 A2964,KIFP,2023-07-07T21:52:00Z,35.15,-114.57,40.0,-3.0,200,12,,10.0,29.639763,,,,,,,,,,,CLR,,,,,,,,VFR,,,,,,,,,,,,METAR,210.0
KIEN 072152Z AUTO 36006KT 10SM SCT055 24/11 A3002 RMK AO2 SLP143 T02440106,KIEN,2023-07-07T21:52:00Z,43.03,-102.52,24.4,10.6,360,6,,10.0,30.02067,1014.3,,TRUE,TRUE,,,,,,,SCT,5500,,,,,,,VFR,,,,,,,,,,,,METAR,1002.0
KIAD 072152Z 17003KT 10SM FEW050 SCT080 SCT130 BKN150 BKN250 30/22 A2982 RMK AO2 SLP094 TCU DSNT SW-NW T03000222,KIAD,2023-07-07T21:52:00Z,38.93,-77.45,30.0,22.2,170,3,,10.0,29.819881,1009.4,,,TRUE,,,,,,,FEW,5000,SCT,8000,SCT,13000,BKN,15000,VFR,,,,,,,,,,,,METAR,90.0
KHUT 072152Z 17010KT 10SM OVC065 23/19 A2993 RMK AO2 LTG DSNT SE AND S RAB2057E12 TSB03E12 SLP116 P0006 T02330194,KHUT,2023-07-07T21:52:00Z,38.07,-97.87,23.3,19.4,170,10,,10.0,29.929134,1011.6,,,TRUE,,,,,,,OVC,6500,,,,,,,VFR,,,,,,0.06,,,,,,METAR,464.0
KHRL 072152Z 12011KT 10SM SCT039 BKN046 OVC055 31/26 A2986 RMK AO2 RAB24E33 SLP111 P0000 T03110256,KHRL,2023-07-07T21:52:00Z,26.23,-97.65,31.1,25.6,120,11,,10.0,29.861221,1011.1,,,TRUE,,,,,,,SCT,3900,BKN,4600,OVC,5500,,,VFR,,,,,,0.005,,,,,,METAR,9.0
KHIE 072152Z AUTO 00000KT 3SM -RA BR SCT090 OVC110 20/19 A2991 RMK AO2 LTG DSNT E-S TSE25 SLP127 P0014 T02000194,KHIE,2023-07-07T21:52:00Z,44.37,-71.55,20.0,19.4,0,0,,3.0,29.911417,1012.7,,TRUE,TRUE,,,,,,-RA BR,SCT,9000,OVC,11000,,,,,MVFR,,,,,,0.14,,,,,,METAR,321.0
KFIT 072152Z AUTO 20008KT 10SM CLR 31/18 A2984 RMK AO2 SLP102 T03060183,KFIT,2023-07-07T21:52:00Z,42.55,-71.75,30.6,18.3,200,8,,10.0,29.840551,1010.2,,TRUE,TRUE,,,,,,,CLR,,,,,,,,VFR,,,,,,,,,,,,METAR,102.0
KEVB 072152Z 11005KT 10SM FEW030 RMK AWOS OTS. T MOV SE,KEVB,2023-07-07T21:52:00Z,29.05,-80.95,,,110,5,,10.0,,,,,TRUE,,,,,,,FEW,3000,,,,,,,VFR,,,,,,,,,,,,METAR,2.0
KEST 072152Z AUTO 17008KT 10SM SCT017 BKN023 OVC085 17/13 A2998 RMK AO2 SLP151 T01670133,KEST,2023-07-07T21:52:00Z,43.4,-94.75,16.7,13.3,170,8,,10.0,29.97933,1015.1,,TRUE,TRUE,,,,,,,SCT,1700,BKN,2300,OVC,8500,,,MVFR,,,,,,,,,,,,METAR,401.0
KDVN 072152Z AUTO 02004KT 10SM FEW038 SCT075 OVC095 19/16 A2997 RMK AO2 RAE45 SLP145 P0004 T01940156,KDVN,2023-07-07T21:52:00Z,41.62,-90.58,19.4,15.6,20,4,,10.0,29.970472,1014.5,,TRUE,TRUE,,,,,,,FEW,3800,SCT,7500,OVC,9500,,,VFR,,,,,,0.04,,,,,,METAR,227.0
KDPA 072152Z 19007KT 10SM FEW060 27/15 A2991 RMK AO2 SLP124 T02720150,KDPA,2023-07-07T21:52:00Z,41.88,-88.25,27.2,15.0,190,7,,10.0,29.911417,1012.4,,,TRUE,,,,,,,FEW,6000,,,,,,,VFR,,,,,,,,,,,,METAR,228.0
KDDC 072152Z AUTO 14009KT 9SM SCT060 BKN070 25/19 A2993 RMK AO2 SLP106 T02500189,KDDC,2023-07-07T21:52:00Z,37.77,-99.97,25.0,18.9,140,9,,9.0,29.929134,1010.6,,TRUE,TRUE,,,,,,,SCT,6000,BKN,7000,,,,,VFR,,,,,,,,,,,,METAR,786.0
KDCA 072152Z 20005KT 10SM FEW055 FEW085 SCT140 BKN250 29/22 A2982 RMK AO2 LTG DSNT NE SLP097 T02890222,KDCA,2023-07-07T21:52:00Z,38.85,-77.03,28.9,22.2,200,5,,10.0,29.819881,1009.7,,,TRUE,,,,,,,FEW,5500,FEW,8500,SCT,14000,BKN,25000,VFR,,,,,,,,,,,,METAR,4.0
KCVG 072152Z 28004KT 10SM FEW300 30/16 A2991 RMK AO2 SLP118 T03000156,KCVG,2023-07-07T21:52:00Z,39.05,-84.67,30.0,15.6,280,4,,10.0,29.911417,1011.8,,,TRUE,,,,,,,FEW,30000,,,,,,,VFR,,,,,,,,,,,,METAR,264.0
KCQX 072152Z AUTO VRB05KT 2SM HZ OVC002 22/18 A2988 RMK AO2 VIS 1 1/4V2 1/2 SLP119 T02170183,KCQX,2023-07-07T21:52:00Z,41.68,-70.0,21.7,18.3,0,5,,2.0,29.878937,1011.9,,TRUE,TRUE,,,,,,HZ,OVC,200,,,,,,,LIFR,,,,,,,,,,,,METAR,17.0
KCNU 072152Z AUTO 22008KT 10SM CLR 28/21 A2989 RMK AO2 SLP111 T02780211,KCNU,2023-07-07T21:52:00Z,37.67,-95.48,27.8,21.1,220,8,,10.0,29.890747,1011.1,,TRUE,TRUE,,,,,,,CLR,,,,,,,,VFR,,,,,,,,,,,,METAR,301.0
KCLT 072152Z 35008KT 10SM SCT060TCU SCT160 BKN250 32/19 A2984 RMK AO2 LTG DSNT E-SW SLP108 CB DSNT E-S TCU NE T03170189,KCLT,2023-07-07T21:52:00Z,35.22,-80.95,31.7,18.9,350,8,,10.0,29.840551,1010.8,,,TRUE,,,,,,,SCT,6000,SCT,16000,BKN,25000,,,VFR,,,,,,,,,,,,METAR,223.0
KCKV 072152Z AUTO 26007KT 10SM CLR 32/18 A2991 RMK AO2 SLP123 T03170183,KCKV,2023-07-07T21:52:00Z,36.62,-87.42,31.7,18.3,260,7,,10.0,29.911417,1012.3,,TRUE,TRUE,,,,,,,CLR,,,,,,,,VFR,,,,,,,,,,,,METAR,166.0
KCID 072152Z 16004KT 10SM -RA BKN045 OVC055 17/13 A2997 RMK AO2 RAE13B47 SLP149 P0001 T01720128 $,KCID,2023-07-07T21:52:00Z,41.88,-91.72,17.2,12.8,160,4,,10.0,29.970472,1014.9,,,TRUE,TRUE,,,,,-RA,BKN,4500,OVC,5500,,,,,VFR,,,,,,0.01,,,,,,METAR,257.0
KCFV 072152Z AUTO 32005KT 10SM CLR 26/22 A2988 RMK AO2 SLP111 T02610222,KCFV,2023-07-07T21:52:00Z,37.08,-95.57,26.1,22.2,320,5,,10.0,29.878937,1011.1,,TRUE,TRUE,,,,,,,CLR,,,,,,,,VFR,,,,,,,,,,,,METAR,228.0
KBML 072152Z AUTO 17003KT 5SM VCTS -RA BR FEW055 BKN110 21/20 A2991 RMK AO2 LTG DSNT E-SW TSE03 SLP125 P0002 T02060200,KBML,2023-07-07T21:52:00Z,44.58,-71.18,20.6,20.0,170,3,,5.0,29.911417,1012.5,,TRUE,TRUE,,,,,,VCTS -RA BR,FEW,5500,BKN,11000,,,,,MVFR,,,,,,0.02,,,,,,METAR,344.0
KBLU 072152Z AUTO 19007KT 170V300 10SM CLR 23/07 A3007 RMK AO2 SLP088 T02280072,KBLU,2023-07-07T21:52:00Z,39.28,-120.7,22.8,7.2,190,7,,10.0,30.070866,1008.8,,TRUE,TRUE,,,,,,,CLR,,,,,,,,VFR,,,,,,,,,,,,METAR,1605.0
KBLH 072152Z AUTO 21013G21KT 10SM CLR 41/M06 A2965 RMK AO2 SLP031 T04111061,KBLH,2023-07-07T21:52:00Z,33.62,-114.72,41.1,-6.1,210,13,21,10.0,29.648623,1003.1,,TRUE,TRUE,,,,,,,CLR,,,,,,,,VFR,,,,,,,,,,,,METAR,119.0
KBLF 072152Z AUTO 35005KT 10SM FEW033 BKN055 OVC070 24/17 A3001 RMK AO2 SLP126 T02390172,KBLF,2023-07-07T21:52:00Z,37.3,-81.2,23.9,17.2,350,5,,10.0,30.008858,1012.6,,TRUE,TRUE,,,,,,,FEW,3300,BKN,5500,OVC,7000,,,VFR,,,,,,,,,,,,METAR,871.0
KBKB 072152Z AUTO 21008G23KT 10SM FEW090 32/22 A2990 RMK AO2 SLP151 T03220217,KBKB,2023-07-07T21:52:00Z,31.02,-92.92,32.2,21.7,210,8,23,10.0,29.899607,1015.1,,TRUE,TRUE,,,,,,,FEW,9000,,,,,,,VFR,,,,,,,,,,,,METAR,74.0
KBIS 072152Z AUTO 02013G22KT 10SM BKN065 25/09 A2999 RMK AO2 SLP150 T02500094,KBIS,2023-07-07T21:52:00Z,46.77,-100.75,25.0,9.4,20,13,22,10.0,29.991142,1015.0,,TRUE,TRUE,,,,,,,BKN,6500,,,,,,,VFR,,,,,,,,,,,,METAR,506.0
KBDR 072152Z 09006KT 10SM CLR 26/23 A2983 RMK AO2 SLP102 T02610228,KBDR,2023-07-07T21:52:00Z,41.17,-73.13,26.1,22.8,90,6,,10.0,29.828741,1010.2,,,TRUE,,,,,,,CLR,,,,,,,,VFR,,,,,,,,,,,,METAR,5.0
KBAN 072152Z AUTO 20009KT 10SM CLR 26/M02 A3004 RMK AO2 SLP071 T02611017 PWINO $,KBAN,2023-07-07T21:52:00Z,38.35,-119.52,26.1,-1.7,200,9,,10.0,30.041338,1007.1,,TRUE,TRUE,TRUE,,,,TRUE,,CLR,,,,,,,,VFR,,,,,,,,,,,,METAR,2067.0
KATL 072152Z 13006KT 10SM FEW025TCU SCT050 BKN150 BKN200 27/22 A2991 RMK AO2 RAB20E45 TSB2058E52 SLP119 LTG DSNT NE-SE TS MOVD SE CB DSNT NE-SE TCU OHD-NW P0000 T02670217 $,KATL,2023-07-07T21:52:00Z,33.63,-84.45,26.7,21.7,130,6,,10.0,29.911417,1011.9,,,TRUE,TRUE,,,,,,FEW,2500,SCT,5000,BKN,15000,BKN,20000,VFR,,,,,,0.005,,,,,,METAR,309.0
KARR 072152Z 23005KT 9SM CLR 26/14 A2992 RMK AO2 SLP129 T02560139,KARR,2023-07-07T21:52:00Z,41.77,-88.48,25.6,13.9,230,5,,9.0,29.920275,1012.9,,,TRUE,,,,,,,CLR,,,,,,,,VFR,,,,,,,,,,,,METAR,213.0
KAQW 072152Z AUTO 26006KT 10SM FEW002 BKN039 28/20 A2986 RMK AO2 LTG DSNT N-SE SLP106 T02780200 $,KAQW,2023-07-07T21:52:00Z,42.7,-73.17,27.8,20.0,260,6,,10.0,29.861221,1010.6,,TRUE,TRUE,TRUE,,,,,,FEW,200,BKN,3900,,,,,VFR,,,,,,,,,,,,METAR,196.0
KALS 072152Z AUTO 26018G29KT 10SM CLR 32/M01 A3011 RMK AO2 PK WND 25036/2109 SLP085 T03171011,KALS,2023-07-07T21:52:00Z,37.43,-105.87,31.7,-1.1,260,18,29,10.0,30.109253,1008.5,,TRUE,TRUE,,,,,,,CLR,,,,,,,,VFR,,,,,,,,,,,,METAR,2299.0
KAFP 072152Z AUTO 09003KT 10SM CLR 26/24 A2984 RMK AO2 P0005 T02570240,KAFP,2023-07-07T21:52:00Z,35.02,-80.08,25.7,24.0,90,3,,10.0,29.840551,,,TRUE,TRUE,,,,,,,CLR,,,,,,,,VFR,,,,,,0.05,,,,,,SPECI,91.0
KAFN 072152Z AUTO 22006KT 10SM CLR 29/18 A2988 RMK AO2 LTG DSNT W AND NW SLP115 T02890178,KAFN,2023-07-07T21:52:00Z,42.8,-72.0,28.9,17.8,220,6,,10.0,29.878937,1011.5,,TRUE,TRUE,,,,,,,CLR,,,,,,,,VFR,,,,,,,,,,,,METAR,308.0
KABQ 072152Z 21021G29KT 10SM -RA SCT120 BKN140 33/04 A3001 RMK AO2 PK WND 18035/2115 WSHFT 2039 RAB50 SLP060 VIRGA P0000 T03330044,KABQ,2023-07-07T21:52:00Z,35.05,-106.62,33.3,4.4,210,21,29,10.0,30.008858,1006.0,,,TRUE,,,,,,-RA,SCT,12000,BKN,14000,,,,,VFR,,,,,,0.005,,,,,,METAR,1620.0
KABI 072152Z 16013G20KT 10SM CLR 33/20 A2989 RMK AO2 SLP093 T03280200,KABI,2023-07-07T21:52:00Z,32.42,-99.68,32.8,20.0,160,13,20,10.0,29.890747,1009.3,,,TRUE,,,,,,,CLR,,,,,,,,VFR,,,,,,,,,,,,METAR,543.0
CZPC 072152Z AUTO 18014KT 9SM BKN066 OVC083 22/09 A3006 RMK WSHFT AT 2142Z TS/LTNG TEMPO UNAVBL SLP155 DENSITY ALT 5400FT,CZPC,2023-07-07T21:52:00Z,49.52,-114.0,22.0,9.0,180,14,,9.0,30.059055,1015.5,,TRUE,,,,,,,,BKN,6600,OVC,8300,,,,,VFR,,,,,,,,,,,,SPECI,1187.0
PHBK 072151Z AUTO 29010KT 10SM FEW060 29/17 A3006 RMK AO2 SLP182 T02940172,PHBK,2023-07-07T21:51:00Z,22.03,-159.78,29.4,17.2,290,10,,10.0,30.059055,1018.2,,TRUE,TRUE,,,,,,,FEW,6000,,,,,,,VFR,,,,,,,,,,,,METAR,5.0
MUGM 072151Z 13011KT 8SM FEW030 FEW250 31/27 A2995 RMK AO2 SLP141 T03110267 $,MUGM,2023-07-07T21:51:00Z,19.9,-75.2,31.1,26.7,130,11,,8.0,29.949802,1014.1,,,TRUE,TRUE,,,,,,FEW,3000,FEW,25000,,,,,VFR,,,,,,,,,,,,METAR,21.0
MMZH 072151Z 17008G18KT 7SM FEW020CB BKN090 BKN250 33/24 A2981 RMK 8/363 HZY,MMZH,2023-07-07T21:51:00Z,17.6,-101.47,33.0,24.0,170,8,18,7.0,29.811024,,,,,,,,,,,FEW,2000,BKN,9000,BKN,25000,,,VFR,,,,,,,,,,,,METAR,9.0
MMML 072151Z 17003KT 10SM SKC 41/M13 A2965,MMML,2023-07-07T21:51:00Z,32.62,-115.23,41.0,-13.0,170,3,,10.0,29.648623,,,,,,,,,,,SKC,,,,,,,,VFR,,,,,,,,,,,,METAR,21.0
MMCU 072151Z 36004KT 10SM FEW030 36/08 A2999 RMK 8/100 VCTCU,MMCU,2023-07-07T21:51:00Z,28.7,-105.97,36.0,8.0,360,4,,10.0,29.991142,,,,,,,,,,,FEW,3000,,,,,,,VFR,,,,,,,,,,,,SPECI,1349.0
KYNG 072151Z 35011KT 10SM FEW065 FEW250 26/14 A2996 RMK AO2 SLP137 T02560144,KYNG,2023-07-07T21:51:00Z,41.25,-80.67,25.6,14.4,350,11,,10.0,29.958662,1013.7,,,TRUE,,,,,,,FEW,6500,FEW,25000,,,,,VFR,,,,,,,,,,,,METAR,356.0
KXWA 072151Z AUTO 01014G21KT 10SM SCT070 SCT090 25/06 A3006 RMK AO2 SLP178 T02500056,KXWA,2023-07-07T21:51:00Z,48.27,-103.75,25.0,5.6,10,14,21,10.0,30.059055,1017.8,,TRUE,TRUE,,,,,,,SCT,7000,SCT,9000,,,,,VFR,,,,,,,,,,,,METAR,717.0
KVNY 072151Z 13007KT 10SM CLR 28/13 A2982 RMK AO2 SLP088 T02780133,KVNY,2023-07-07T21:51:00Z,34.22,-118.48,27.8,13.3,130,7,,10.0,29.819881,1008.8,,,TRUE,,,,,,,CLR,,,,,,,,VFR,,,,,,,,,,,,METAR,241.0
KVCT 072151Z 16011KT 10SM SCT041 SCT090 33/23 A2991 RMK AO2 SLP125 T03280233,KVCT,2023-07-07T21:51:00Z,28.87,-96.93,32.8,23.3,160,11,,10.0,29.911417,1012.5,,,TRUE,,,,,,,SCT,4100,SCT,9000,,,,,VFR,,,,,,,,,,,,METAR,33.0
KUGN 072151Z 10007KT 10SM CLR 23/13 A2994 RMK AO2 SLP129 T02330128,KUGN,2023-07-07T21:51:00Z,42.42,-87.87,23.3,12.8,100,7,,10.0,29.940945,1012.9,,,TRUE,,,,,,,CLR,,,,,,,,VFR,,,,,,,,,,,,METAR,217.0
KTPL 072151Z AUTO 15009KT 10SM CLR 34/21 A2990 RMK AO2 SLP115 T03440206,KTPL,2023-07-07T21:51:00Z,31.15,-97.4,34.4,20.6,150,9,,10.0,29.899607,1011.5,,TRUE,TRUE,,,,,,,CLR,,,,,,,,VFR,,,,,,,,,,,,METAR,206.0
KTEB 072151Z 16007KT 10SM CLR 28/22 A2981 RMK AO2 SLP093 T02830217,KTEB,2023-07-07T21:51:00Z,40.87,-74.05,28.3,21.7,160,7,,10.0,29.811024,1009.3,,,TRUE,,,,,,,CLR,,,,,,,,VFR,,,,,,,,,,,,METAR,3.0
KSTL 072151Z 10008KT 10SM SCT070 SCT190 OVC250 29/18 A2991 RMK AO2 SLP118 T02940178,KSTL,2023-07-07T21:51:00Z,38.75,-90.37,29.4,17.8,100,8,,10.0,29.911417,1011.8,,,TRUE,,,,,,,SCT,7000,SCT,19000,OVC,25000,,,VFR,,,,,,,,,,,,METAR,163.0
KSNT 072151Z AUTO 33007KT 25/01 A3005 RMK AO1 SLP089 T02500006,KSNT,2023-07-07T21:51:00Z,44.17,-114.93,25.0,0.6,330,7,,,30.050198,1008.9,,TRUE,TRUE,,,,,,,,,,,,,,,,,,,,,,,,,,,METAR,1980.0
KSMX 072151Z 29017KT 10SM FEW010 19/13 A2990 RMK AO2 SLP127 T01890128,KSMX,2023-07-07T21:51:00Z,34.9,-120.45,18.9,12.8,290,17,,10.0,29.899607,1012.7,,,TRUE,,,,,,,FEW,1000,,,,,,,VFR,,,,,,,,,,,,METAR,73.0
KSMO 072151Z 24008KT 10SM CLR 20/13 A2986 RMK AO2 SLP109 T02000128,KSMO,2023-07-07T21:51:00Z,34.02,-118.45,20.0,12.8,240,8,,10.0,29.861221,1010.9,,,TRUE,,,,,,,CLR,,,,,,,,VFR,,,,,,,,,,,,METAR,56.0
KSJT 072151Z 13009G19KT 10SM CLR 34/19 A2989 RMK AO2 SLP094 T03440194,KSJT,2023-07-07T21:51:00Z,31.37,-100.5,34.4,19.4,130,9,19,10.0,29.890747,1009.4,,,TRUE,,,,,,,CLR,,,,,,,,VFR,,,,,,,,,,,,METAR,582.0
KSDB 072151Z AUTO 34012G26KT 310V010 10SM CLR 27/04 A2998 RMK AO2 PK WND 32029/2136 SLP096 T02670039,KSDB,2023-07-07T21:51:00Z,34.75,-118.72,26.7,3.9,340,12,26,10.0,29.97933,1009.6,,TRUE,TRUE,,,,,,,CLR,,,,,,,,VFR,,,,,,,,,,,,METAR,1377.0
KSAT 072151Z 14010KT 10SM FEW041 BKN075 BKN250 33/21 A2991 RMK AO2 RAB01E11 SLP108 TCU SHRA DSNT NE P0000 T03280211,KSAT,2023-07-07T21:51:00Z,29.53,-98.48,32.8,21.1,140,10,,10.0,29.911417,1010.8,,,TRUE,,,,,,,FEW,4100,BKN,7500,BKN,25000,,,VFR,,,,,,0.005,,,,,,METAR,246.0
KSAN 072151Z 29007G17KT 10SM FEW020 21/13 A2986 RMK AO2 SLP112 T02060128,KSAN,2023-07-07T21:51:00Z,32.73,-117.18,20.6,12.8,290,7,17,10.0,29.861221,1011.2,,,TRUE,,,,,,,FEW,2000,,,,,,,VFR,,,,,,,,,,,,METAR,3.0
KSAD 072151Z AUTO 27009G18KT 240V310 10SM CLR 41/05 A2981 RMK AO2 SLP023 T04110050,KSAD,2023-07-07T21:51:00Z,32.85,-109.63,41.1,5.0,270,9,18,10.0,29.811024,1002.3,,TRUE,TRUE,,,,,,,CLR,,,,,,,,VFR,,,,,,,,,,,,METAR,937.0
KROW 072151Z 18016G25KT 10SM CLR 36/14 A2984 RMK AO2 PK WND 19033/2131 LTG DSNT E-S RAE05 TSE06 SLP025 P0000 T03560139,KROW,2023-07-07T21:51:00Z,33.3,-104.5,35.6,13.9,180,16,25,10.0,29.840551,1002.5,,,TRUE,,,,,,,CLR,,,,,,,,VFR,,,,,,0.005,,,,,,METAR,1105.0
KRDU 072151Z 08008KT 10SM TS SCT045CB SCT075 SCT250 29/21 A2981 RMK AO2 WSHFT 2125 TSB24 SLP088 OCNL LTGIC OHD-E TS OHD-E MOV SLWLY E T02940211,KRDU,2023-07-07T21:51:00Z,35.9,-78.78,29.4,21.1,80,8,,10.0,29.811024,1008.8,,,TRUE,,,,,,TS,SCT,4500,SCT,7500,SCT,25000,,,VFR,,,,,,,,,,,,METAR,121.0
KPWM 072151Z 16010KT 10SM CLR 23/20 A2984 RMK AO2 SLP105 T02280200,KPWM,2023-07-07T21:51:00Z,43.65,-70.3,22.8,20.0,160,10,,10.0,29.840551,1010.5,,,TRUE,,,,,,,CLR,,,,,,,,VFR,,,,,,,,,,,,METAR,15.0
KPVD 072151Z 17013KT 10SM FEW009 SCT013 BKN250 26/22 A2986 RMK AO2 SLP111 T02560217,KPVD,2023-07-07T21:51:00Z,41.72,-71.43,25.6,21.7,170,13,,10.0,29.861221,1011.1,,,TRUE,,,,,,,FEW,900,SCT,1300,BKN,25000,,,VFR,,,,,,,,,,,,METAR,15.0
KPIT 072151Z 34012G17KT 10SM SCT039 BKN250 28/17 A2992 RMK AO2 SLP128 T02780172,KPIT,2023-07-07T21:51:00Z,40.47,-80.2,27.8,17.2,340,12,17,10.0,29.920275,1012.8,,,TRUE,,,,,,,SCT,3900,BKN,25000,,,,,VFR,,,,,,,,,,,,METAR,339.0
KPHX 072151Z 22006KT 10SM FEW150 FEW180 44/M01 A2967 RMK AO2 SLP024 T04391006,KPHX,2023-07-07T21:51:00Z,33.43,-112.02,43.9,-0.6,220,6,,10.0,29.66929,1002.4,,,TRUE,,,,,,,FEW,15000,FEW,18000,,,,,VFR,,,,,,,,,,,,METAR,338.0
KP59 072151Z AUTO 33005KT 25/11 A2986 RMK AO1 SLP105 T02500111,KP59,2023-07-07T21:51:00Z,47.47,-87.88,25.0,11.1,330,5,,,29.861221,1010.5,,TRUE,TRUE,,,,,,,,,,,,,,,,,,,,,,,,,,,METAR,185.0
KOXR 072151Z 28011KT 10SM CLR 19/13 A2986 RMK AO2 SLPNO T01940133 $,KOXR,2023-07-07T21:51:00Z,34.2,-119.2,19.4,13.3,280,11,,10.0,29.861221,,,,TRUE,TRUE,,,,,,CLR,,,,,,,,VFR,,,,,,,,,,,,METAR,12.0
KOXC 072151Z 15009KT 10SM CLR 27/22 A2987 RMK AO2 SLP118 T02720222,KOXC,2023-07-07T21:51:00Z,41.47,-73.13,27.2,22.2,150,9,,10.0,29.870079,1011.8,,,TRUE,,,,,,,CLR,,,,,,,,VFR,,,,,,,,,,,,METAR,211.0
KORF 072151Z 10004KT 10SM CLR 29/24 A2981 RMK AO2 LTG DSNT SW SLP093 T02890239,KORF,2023-07-07T21:51:00Z,36.9,-76.2,28.9,23.9,100,4,,10.0,29.811024,1009.3,,,TRUE,,,,,,,CLR,,,,,,,,VFR,,,,,,,,,,,,METAR,5.0
KORD 072151Z 06008KT 10SM SCT050 BKN300 26/16 A2992 RMK AO2 SLP127 T02610156,KORD,2023-07-07T21:51:00Z,41.95,-87.93,26.1,15.6,60,8,,10.0,29.920275,1012.7,,,TRUE,,,,,,,SCT,5000,BKN,30000,,,,,VFR,,,,,,,,,,,,METAR,202.0
KNYC 072151Z AUTO 00000KT 10SM CLR 27/21 A2985 RMK AO2 SLP098 T02670211 $,KNYC,2023-07-07T21:51:00Z,40.78,-73.97,26.7,21.1,0,0,,10.0,29.84941,1009.8,,TRUE,TRUE,TRUE,,,,,,CLR,,,,,,,,VFR,,,,,,,,,,,,METAR,33.0
KNBT 072151Z AUTO 17010KT 10SM CLR 34/24 A2980 RMK AO2 SLP096 T03390239,KNBT,2023-07-07T21:51:00Z,35.02,-76.47,33.9,23.9,170,10,,10.0,29.799213,1009.6,,TRUE,TRUE,,,,,,,CLR,,,,,,,,VFR,,,,,,,,,,,,METAR,5.0
KMYL 072151Z AUTO 34009KT 10SM FEW100 28/03 A2995 RMK AO2 SLP094 T02780033,KMYL,2023-07-07T21:51:00Z,44.9,-116.1,27.8,3.3,340,9,,10.0,29.949802,1009.4,,TRUE,TRUE,,,,,,,FEW,10000,,,,,,,VFR,,,,,,,,,,,,METAR,1532.0
KMPV 072151Z AUTO 00000KT 4SM RA BR FEW070 OVC100 20/19 A2994 RMK AO2 RAB05 SLP134 P0005 T02000189,KMPV,2023-07-07T21:51:00Z,44.2,-72.57,20.0,18.9,0,0,,4.0,29.940945,1013.4,,TRUE,TRUE,,,,,,RA BR,FEW,7000,OVC,10000,,,,,MVFR,,,,,,0.05,,,,,,METAR,336.0
KLGU 072151Z AUTO 35007KT 10SM CLR 31/06 A2989 RMK AO2 SLP069 T03110056,KLGU,2023-07-07T21:51:00Z,41.78,-111.85,31.1,5.6,350,7,,10.0,29.890747,1006.9,,TRUE,TRUE,,,,,,,CLR,,,,,,,,VFR,,,,,,,,,,,,METAR,1359.0
KLGA 072151Z 17010KT 10SM SCT030 SCT220 BKN260 28/21 A2981 RMK AO2 SLP096 T02780211 $,KLGA,2023-07-07T21:51:00Z,40.78,-73.88,27.8,21.1,170,10,,10.0,29.811024,1009.6,,,TRUE,TRUE,,,,,,SCT,3000,SCT,22000,BKN,26000,,,VFR,,,,,,,,,,,,METAR,9.0
KJFK 072151Z 14009KT 10SM SCT013 BKN250 26/22 A2984 RMK AO2 SLP103 T02560222,KJFK,2023-07-07T21:51:00Z,40.63,-73.77,25.6,22.2,140,9,,10.0,29.840551,1010.3,,,TRUE,,,,,,,SCT,1300,BKN,25000,,,,,VFR,,,,,,,,,,,,METAR,3.0
KJCT 072151Z AUTO 14011G18KT 10SM FEW043 32/21 A2993 RMK AO2 SLP096 T03220211,KJCT,2023-07-07T21:51:00Z,30.5,-99.77,32.2,21.1,140,11,18,10.0,29.929134,1009.6,,TRUE,TRUE,,,,,,,FEW,4300,,,,,,,VFR,,,,,,,,,,,,METAR,522.0
KILG 072151Z AUTO 15013KT 10SM CLR 29/22 A2982 RMK AO2 SLP096 T02940217,KILG,2023-07-07T21:51:00Z,39.67,-75.6,29.4,21.7,150,13,,10.0,29.819881,1009.6,,TRUE,TRUE,,,,,,,CLR,,,,,,,,VFR,,,,,,,,,,,,METAR,22.0
KIGM 072151Z AUTO 23019G28KT 10SM CLR 37/M17 A2986 RMK AO2 PK WND 22033/2103 SLP033 T03671172,KIGM,2023-07-07T21:51:00Z,35.25,-113.93,36.7,-17.2,230,19,28,10.0,29.861221,1003.3,,TRUE,TRUE,,,,,,,CLR,,,,,,,,VFR,,,,,,,,,,,,METAR,1045.0
KHTS 072151Z 27005KT 10SM BKN065 32/15 A2990 RMK AO2 SLP115 T03170150,KHTS,2023-07-07T21:51:00Z,38.37,-82.55,31.7,15.0,270,5,,10.0,29.899607,1011.5,,,TRUE,,,,,,,BKN,6500,,,,,,,VFR,,,,,,,,,,,,METAR,252.0
KHSE 072151Z AUTO VRB06KT 10SM CLR 26/25 A2981 RMK AO2 SLP095 T02610250,KHSE,2023-07-07T21:51:00Z,35.23,-75.62,26.1,25.0,0,6,,10.0,29.811024,1009.5,,TRUE,TRUE,,,,,,,CLR,,,,,,,,VFR,,,,,,,,,,,,METAR,4.0
KHDO 072151Z AUTO 13010KT 10SM BKN060 BKN100 32/23 A2991 RMK AO2 SLP110 T03170233,KHDO,2023-07-07T21:51:00Z,29.37,-99.17,31.7,23.3,130,10,,10.0,29.911417,1011.0,,TRUE,TRUE,,,,,,,BKN,6000,BKN,10000,,,,,VFR,,,,,,,,,,,,METAR,280.0
KEWR 072151Z 12007KT 10SM FEW017 FEW040 SCT180 BKN250 28/22 A2982 RMK AO2 SLP097 T02780222,KEWR,2023-07-07T21:51:00Z,40.68,-74.17,27.8,22.2,120,7,,10.0,29.819881,1009.7,,,TRUE,,,,,,,FEW,1700,FEW,4000,SCT,18000,BKN,25000,VFR,,,,,,,,,,,,METAR,2.0
KERI 072151Z 30008KT 10SM CLR 24/15 A2995 RMK AO2 SLP139 T02390150,KERI,2023-07-07T21:51:00Z,42.08,-80.18,23.9,15.0,300,8,,10.0,29.949802,1013.9,,,TRUE,,,,,,,CLR,,,,,,,,VFR,,,,,,,,,,,,METAR,222.0
KELP 072151Z 18011G15KT 10SM SCT140 41/04 A2987 RMK AO2 SLP023 T04060044,KELP,2023-07-07T21:51:00Z,31.82,-106.35,40.6,4.4,180,11,15,10.0,29.870079,1002.3,,,TRUE,,,,,,,SCT,14000,,,,,,,VFR,,,,,,,,,,,,METAR,1205.0
KEKN 072151Z AUTO 31007KT 10SM FEW036 28/19 A2995 RMK AO2 SLP127 T02780189,KEKN,2023-07-07T21:51:00Z,38.88,-79.85,27.8,18.9,310,7,,10.0,29.949802,1012.7,,TRUE,TRUE,,,,,,,FEW,3600,,,,,,,VFR,,,,,,,,,,,,METAR,596.0
KDAW 072151Z AUTO 13006KT 10SM CLR 28/22 A2982 RMK AO2 SLP094 T02830217,KDAW,2023-07-07T21:51:00Z,43.28,-70.92,28.3,21.7,130,6,,10.0,29.819881,1009.4,,TRUE,TRUE,,,,,,,CLR,,,,,,,,VFR,,,,,,,,,,,,METAR,100.0
KCRP 072151Z 16015G23KT 10SM FEW024 SCT038 BKN100 BKN180 BKN250 33/25 A2989 RMK AO2 LTG DSNT SW SLP121 CB DSNT SW-W MOV NW T03330250,KCRP,2023-07-07T21:51:00Z,27.77,-97.5,33.3,25.0,160,15,23,10.0,29.890747,1012.1,,,TRUE,,,,,,,FEW,2400,SCT,3800,BKN,10000,BKN,18000,VFR,,,,,,,,,,,,METAR,11.0
KCON 072151Z AUTO 17006KT 10SM CLR 29/19 A2982 RMK AO2 SLP095 T02940189,KCON,2023-07-07T21:51:00Z,43.2,-71.5,29.4,18.9,170,6,,10.0,29.819881,1009.5,,TRUE,TRUE,,,,,,,CLR,,,,,,,,VFR,,,,,,,,,,,,METAR,102.0
KCMH 072151Z 02005KT 10SM SCT065 29/17 A2991 RMK AO2 SLP121 T02890172,KCMH,2023-07-07T21:51:00Z,40.0,-82.88,28.9,17.2,20,5,,10.0,29.911417,1012.1,,,TRUE,,,,,,,SCT,6500,,,,,,,VFR,,,,,,,,,,,,METAR,257.0
KCLE 072151Z 01007KT 10SM CLR 24/14 A2995 RMK AO2 SLP152 T02440139,KCLE,2023-07-07T21:51:00Z,41.42,-81.85,24.4,13.9,10,7,,10.0,29.949802,1015.2,,,TRUE,,,,,,,CLR,,,,,,,,VFR,,,,,,,,,,,,METAR,237.0
KCDJ 072151Z AUTO 12007KT 24/17 A2990 RMK AO1 SLP118 T02390172,KCDJ,2023-07-07T21:51:00Z,39.82,-93.57,23.9,17.2,120,7,,,29.899607,1011.8,,TRUE,TRUE,,,,,,,,,,,,,,,,,,,,,,,,,,,METAR,234.0
KCAK 072151Z 35009KT 10SM SCT050 26/16 A2995 RMK AO2 SLP132 T02560156,KCAK,2023-07-07T21:51:00Z,40.92,-81.45,25.6,15.6,350,9,,10.0,29.949802,1013.2,,,TRUE,,,,,,,SCT,5000,,,,,,,VFR,,,,,,,,,,,,METAR,369.0
KBKW 072151Z AUTO 33006KT 10SM CLR 26/18 A2999 RMK AO2 SLP119 T02560183,KBKW,2023-07-07T21:51:00Z,37.8,-81.12,25.6,18.3,330,6,,10.0,29.991142,1011.9,,TRUE,TRUE,,,,,,,CLR,,,,,,,,VFR,,,,,,,,,,,,METAR,762.0
KBHK 072151Z AUTO 36008G15KT 10SM FEW065 FEW090 25/08 A3006 RMK AO2 LTG DSNT E AND SE SLP160 T02500083,KBHK,2023-07-07T21:51:00Z,46.35,-104.25,25.0,8.3,360,8,15,10.0,30.059055,1016.0,,TRUE,TRUE,,,,,,,FEW,6500,FEW,9000,,,,,VFR,,,,,,,,,,,,METAR,904.0
KBGD 072151Z AUTO 17014G23KT 10SM CLR 36/18 A2984 RMK AO2 SLP052 T03610183,KBGD,2023-07-07T21:51:00Z,35.7,-101.4,36.1,18.3,170,14,23,10.0,29.840551,1005.2,,TRUE,TRUE,,,,,,,CLR,,,,,,,,VFR,,,,,,,,,,,,METAR,928.0
KBED 072151Z 19009KT 10SM CLR 28/21 A2981 RMK AO2 SLPNO T02830211,KBED,2023-07-07T21:51:00Z,42.47,-71.3,28.3,21.1,190,9,,10.0,29.811024,,,,TRUE,,,,,,,CLR,,,,,,,,VFR,,,,,,,,,,,,METAR,39.0
KBDL 072151Z 20007KT 10SM FEW044 SCT100 BKN200 BKN250 30/21 A2982 RMK AO2 SLP097 T03000206,KBDL,2023-07-07T21:51:00Z,41.93,-72.68,30.0,20.6,200,7,,10.0,29.819881,1009.7,,,TRUE,,,,,,,FEW,4400,SCT,10000,BKN,20000,BKN,25000,VFR,,,,,,,,,,,,METAR,52.0
KBAZ 072151Z 12008KT 10SM SCT044 BKN095 33/22 A2989,KBAZ,2023-07-07T21:51:00Z,29.72,-98.05,33.0,22.0,120,8,,10.0,29.890747,,,,,,,,,,,SCT,4400,BKN,9500,,,,,VFR,,,,,,,,,,,,METAR,199.0
KAVX 072151Z AUTO 27007KT 10SM CLR 18/13 A2989 RMK AO2 SLP109 T01830128,KAVX,2023-07-07T21:51:00Z,33.4,-118.42,18.3,12.8,270,7,,10.0,29.890747,1010.9,,TRUE,TRUE,,,,,,,CLR,,,,,,,,VFR,,,,,,,,,,,,METAR,482.0
KATT 072151Z AUTO VRB03KT 10SM FEW090 33/21 A2992 RMK AO2 SLP118 T03280211 $,KATT,2023-07-07T21:51:00Z,30.32,-97.77,32.8,21.1,0,3,,10.0,29.920275,1011.8,,TRUE,TRUE,TRUE,,,,,,FEW,9000,,,,,,,VFR,,,,,,,,,,,,METAR,203.0
KALB 072151Z 34006KT 10SM BKN065 BKN130 BKN160 OVC250 24/20 A2988 RMK AO2 LTG DSNT SW-NW SLP116 T02440200,KALB,2023-07-07T21:51:00Z,42.75,-73.8,24.4,20.0,340,6,,10.0,29.878937,1011.6,,,TRUE,,,,,,,BKN,6500,BKN,13000,BKN,16000,OVC,25000,VFR,,,,,,,,,,,,METAR,82.0
KACT 072151Z 18008KT 10SM CLR 34/21 A2988 RMK AO2 SLP109 T03440206,KACT,2023-07-07T21:51:00Z,31.62,-97.23,34.4,20.6,180,8,,10.0,29.878937,1010.9,,,TRUE,,,,,,,CLR,,,,,,,,VFR,,,,,,,,,,,,METAR,150.0
KABE 072151Z AUTO 00000KT 10SM CLR 26/21 A2983 RMK AO2 LTG DSNT NW SLP099 T02610211,KABE,2023-07-07T21:51:00Z,40.65,-75.45,26.1,21.1,0,0,,10.0,29.828741,1009.9,,TRUE,TRUE,,,,,,,CLR,,,,,,,,VFR,,,,,,,,,,,,METAR,117.0
K6R6 072151Z AUTO 11011G23KT 34/19 A2990 RMK AO1 SLP084 T03440189,K6R6,2023-07-07T21:51:00Z,30.05,-102.22,34.4,18.9,110,11,23,,29.899607,1008.4,,TRUE,TRUE,,,,,,,,,,,,,,,,,,,,,,,,,,,METAR,702.0
TJBQ 072150Z 07017G22KT 10SM SCT021 29/24 A2999,TJBQ,2023-07-07T21:50:00Z,18.5,-67.13,29.0,24.0,70,17,22,10.0,29.991142,,,,,,,,,,,SCT,2100,,,,,,,VFR,,,,,,,,,,,,METAR,69.0
PTTP 072150Z 15003KT 15SM BKN018 OVC130 26/25 A2984 RMK SLP105 T02600254,PTTP,2023-07-07T21:50:00Z,6.97,158.22,26.0,25.4,150,3,,15.0,29.840551,1010.5,,,,,,,,,,BKN,1800,OVC,13000,,,,,MVFR,,,,,,,,,,,,METAR,36.0
PGWT 072150Z 07012KT 7SM -RA BR BKN016 OVC100 26/22 RMK FIRST,PGWT,2023-07-07T21:50:00Z,14.98,145.62,26.0,22.0,70,12,,7.0,,,,,,,,,,,-RA BR,BKN,1600,OVC,10000,,,,,MVFR,,,,,,,,,,,,METAR,84.0
PGRO 072150Z 08014KT 7SM BKN010 BKN100 25/25 A2986,PGRO,2023-07-07T21:50:00Z,14.18,145.25,25.0,25.0,80,14,,7.0,29.861221,,,,,,,,,,,BKN,1000,BKN,10000,,,,,MVFR,,,,,,,,,,,,METAR,181.0
OOSA 072150Z 16006KT 6000 SCT007 BKN012 OVC020 27/26 Q1003 NOSIG,OOSA,2023-07-07T21:50:00Z,17.03,54.1,27.0,26.0,160,6,,3.73,29.616142,,,,,,TRUE,,,,,SCT,700,BKN,1200,OVC,2000,,,MVFR,,,,,,,,,,,,METAR,20.0
OOMS 072150Z 30002KT 9000 NSC 32/26 Q0998 NOSIG,OOMS,2023-07-07T21:50:00Z,23.58,58.28,32.0,26.0,300,2,,5.59,29.468504,,,,,,TRUE,,,,,CLR,,,,,,,,VFR,,,,,,,,,,,,METAR,8.0
OOKB 072150Z AUTO 01004KT 9999 R01///// NCD 36/24 Q0997 NOSIG,OOKB,2023-07-07T21:50:00Z,26.17,56.23,36.0,24.0,10,4,,6.21,29.438976,,,TRUE,,,TRUE,,,,,CLR,,,,,,,,VFR,,,,,,,,,,,,METAR,30.0
OODQ 072150Z AUTO 21026KT 8000 OVC004 24/24 Q1000 NOSIG,OODQ,2023-07-07T21:50:00Z,19.52,57.65,24.0,24.0,210,26,,4.97,29.52756,,,TRUE,,,TRUE,,,,,OVC,400,,,,,,,LIFR,,,,,,,,,,,,METAR,116.0
NSTU 072150Z 12013KT 12SM FEW018TCU SCT045 BKN110 30/27 A2991 RMK TCU SE-S-SW SLP129 T03010268,NSTU,2023-07-07T21:50:00Z,-14.33,-170.72,30.1,26.8,120,13,,12.0,29.911417,1012.9,,,,,,,,,,FEW,1800,SCT,4500,BKN,11000,,,VFR,,,,,,,,,,,,METAR,8.0
MUVR 072150Z 03009KT 9000 FEW020 32/23 Q1014,MUVR,2023-07-07T21:50:00Z,23.03,-81.43,32.0,23.0,30,9,,5.59,29.940945,,,,,,,,,,,FEW,2000,,,,,,,VFR,,,,,,,,,,,,METAR,65.0
MUSC 072150Z 09010KT 050V110 9000 FEW025 33/21 Q1014,MUSC,2023-07-07T21:50:00Z,22.5,-79.92,33.0,21.0,90,10,,5.59,29.940945,,,,,,,,,,,FEW,2500,,,,,,,VFR,,,,,,,,,,,,METAR,97.0
MUHG 072150Z 09011KT 9000 FEW030 32/25 Q1014,MUHG,2023-07-07T21:50:00Z,20.78,-76.32,32.0,25.0,90,11,,5.59,29.940945,,,,,,,,,,,FEW,3000,,,,,,,VFR,,,,,,,,,,,,METAR,100.0
MUHA 072150Z VRB05KT 9000 SCT030 34/20 Q1014,MUHA,2023-07-07T21:50:00Z,22.98,-82.42,34.0,20.0,0,5,,5.59,29.940945,,,,,,,,,,,SCT,3000,,,,,,,VFR,,,,,,,,,,,,METAR,61.0
MUCU 072150Z 21005KT 180V260 9000 FEW020 31/24 Q1014,MUCU,2023-07-07T21:50:00Z,19.97,-75.83,31.0,24.0,210,5,,5.59,29.940945,,,,,,,,,,,FEW,2000,,,,,,,VFR,,,,,,,,,,,,METAR,70.0
MUCM 072150Z 07006KT 040V100 9000 SCT025 33/23 Q1014,MUCM,2023-07-07T21:50:00Z,21.42,-77.85,33.0,23.0,70,6,,5.59,29.940945,,,,,,,,,,,SCT,2500,,,,,,,VFR,,,,,,,,,,,,METAR,125.0
MUCL 072150Z 13009KT 9000 SKC 32/23 Q1014,MUCL,2023-07-07T21:50:00Z,21.63,-81.55,32.0,23.0,130,9,,5.59,29.940945,,,,,,,,,,,SKC,,,,,,,,VFR,,,,,,,,,,,,METAR,5.0
MUCC 072150Z 09011KT 060V120 9000 SCT020 32/25 Q1014,MUCC,2023-07-07T21:50:00Z,22.47,-78.33,32.0,25.0,90,11,,5.59,29.940945,,,,,,,,,,,SCT,2000,,,,,,,VFR,,,,,,,,,,,,METAR,7.0
MSLP 072150Z 21004KT 150V260 9999 FEW037 FEW040CB 31/22 Q1008 A2979 NOSIG RMK CB N NE NW,MSLP,2023-07-07T21:50:00Z,13.43,-89.05,31.0,22.0,210,4,,6.21,29.763779,,,,,,TRUE,,,,,FEW,3700,FEW,4000,,,,,VFR,,,,,,,,,,,,METAR,25.0
MMSD 072150Z 12012KT 10SM SKC 33/15 A2977,MMSD,2023-07-07T21:50:00Z,23.15,-109.72,33.0,15.0,120,12,,10.0,29.769686,,,,,,,,,,,SKC,,,,,,,,VFR,,,,,,,,,,,,METAR,107.0
MMLP 072150Z 01008KT 10SM SKC 36/13 A2972 RMK ISOL CI,MMLP,2023-07-07T21:50:00Z,24.07,-110.37,36.0,13.0,10,8,,10.0,29.719488,,,,,,,,,,,SKC,,,,,,,,VFR,,,,,,,,,,,,METAR,16.0
MMDO 072150Z 35007KT 9SM SCT025TCU SCT200 30/07 A3008 RMK 8/202 ISOL CB HZY,MMDO,2023-07-07T21:50:00Z,24.12,-104.52,30.0,7.0,350,7,,9.0,30.079725,,,,,,,,,,,SCT,2500,SCT,20000,,,,,VFR,,,,,,,,,,,,METAR,1863.0
MMCN 072150Z 23015KT 10SM SKC 36/15 A2969 RMK ISOL CU HZY,MMCN,2023-07-07T21:50:00Z,27.4,-109.83,36.0,15.0,230,15,,10.0,29.68996,,,,,,,,,,,SKC,,,,,,,,VFR,,,,,,,,,,,,METAR,57.0
MMAA 072150Z 19009KT 7SM FEW015TCU SCT300 31/25 A2980 RMK 8/202 HZY,MMAA,2023-07-07T21:50:00Z,16.75,-99.75,31.0,25.0,190,9,,7.0,29.799213,,,,,,,,,,,FEW,1500,SCT,30000,,,,,VFR,,,,,,,,,,,,METAR,5.0
LXGB 072150Z AUTO 29014KT 9999 NCD 23/18 Q1016,LXGB,2023-07-07T21:50:00Z,36.15,-5.33,23.0,18.0,290,14,,6.21,30.0,,,TRUE,,,,,,,,CLR,,,,,,,,VFR,,,,,,,,,,,,METAR,5.0
LTFO 072150Z 23010KT 9999 FEW020CB BKN035 25/21 Q1006 RESHRA,LTFO,2023-07-07T21:50:00Z,41.18,40.85,25.0,21.0,230,10,,6.21,29.704725,,,,,,,,,,,FEW,2000,BKN,3500,,,,,VFR,,,,,,,,,,,,METAR,5.0
LTFM 072150Z 33008G19KT 290V350 CAVOK 25/16 Q1013 NOSIG RMK RWY17L 31009KT RWY34L 31006KT RWY16R 32006KT RWY36 33011KT RWY18 33010KT,LTFM,2023-07-07T21:50:00Z,41.27,28.75,25.0,16.0,330,8,19,6.21,29.911417,,,,,,TRUE,,,,,CAVOK,,,,,,,,VFR,,,,,,,,,,,,METAR,99.0
LTFJ 072150Z 07005KT 9999 FEW035 SCT100 25/19 Q1012 NOSIG RMK RWY24 06004KT 030V090,LTFJ,2023-07-07T21:50:00Z,40.9,29.3,25.0,19.0,70,5,,6.21,29.88189,,,,,,TRUE,,,,,FEW,3500,SCT,10000,,,,,VFR,,,,,,,,,,,,METAR,83.0
LTFH 072150Z 15004KT 9999 FEW036 21/20 Q1009 NOSIG,LTFH,2023-07-07T21:50:00Z,41.27,36.57,21.0,20.0,150,4,,6.21,29.793306,,,,,,TRUE,,,,,FEW,3600,,,,,,,VFR,,,,,,,,,,,,METAR,7.0
LTFG 072150Z 06003KT CAVOK 26/23 Q1005,LTFG,2023-07-07T21:50:00Z,36.3,32.3,26.0,23.0,60,3,,6.21,29.675198,,,,,,,,,,,CAVOK,,,,,,,,VFR,,,,,,,,,,,,METAR,26.0
LTFE 072150Z VRB02KT CAVOK 29/16 Q1008 NOSIG RMK RWY10 07006KT 010V090,LTFE,2023-07-07T21:50:00Z,37.25,27.67,29.0,16.0,0,2,,6.21,29.763779,,,,,,TRUE,,,,,CAVOK,,,,,,,,VFR,,,,,,,,,,,,METAR,6.0
LTFD 072150Z 08007KT CAVOK 25/16 Q1012,LTFD,2023-07-07T21:50:00Z,39.55,27.02,25.0,16.0,80,7,,6.21,29.88189,,,,,,,,,,,CAVOK,,,,,,,,VFR,,,,,,,,,,,,METAR,15.0
LTFC 072150Z 33019KT CAVOK 23/15 Q1013 RMK RWY23 35008KT 320V040,LTFC,2023-07-07T21:50:00Z,37.87,30.38,23.0,15.0,330,19,,6.21,29.911417,,,,,,,,,,,CAVOK,,,,,,,,VFR,,,,,,,,,,,,METAR,862.0
LTDA 072150Z 25010KT 210V290 9999 FEW040 26/20 Q1004 NOSIG,LTDA,2023-07-07T21:50:00Z,36.37,36.28,26.0,20.0,250,10,,6.21,29.64567,,,,,,TRUE,,,,,FEW,4000,,,,,,,VFR,,,,,,,,,,,,METAR,80.0
LTCW 072150Z VRB01KT 9000 FEW040 14/09 Q1016,LTCW,2023-07-07T21:50:00Z,37.55,44.23,14.0,9.0,0,1,,5.59,30.0,,,,,,,,,,,FEW,4000,,,,,,,VFR,,,,,,,,,,,,METAR,1852.0
LTCV 072150Z 27007KT CAVOK 29/08 Q1003,LTCV,2023-07-07T21:50:00Z,37.37,42.07,29.0,8.0,270,7,,6.21,29.616142,,,,,,,,,,,CAVOK,,,,,,,,VFR,,,,,,,,,,,,METAR,620.0
LTCT 072150Z 01001KT 9999 SCT100 25/14 Q1009,LTCT,2023-07-07T21:50:00Z,39.98,43.87,25.0,14.0,10,1,,6.21,29.793306,,,,,,,,,,,SCT,10000,,,,,,,VFR,,,,,,,,,,,,METAR,936.0
LTCS 072150Z VRB04KT CAVOK 26/17 Q1005 RMK RWY22 24008KT SKC,LTCS,2023-07-07T21:50:00Z,37.45,38.9,26.0,17.0,0,4,,6.21,29.675198,,,,,,,,,,,CAVOK,,,,,,,,VFR,,,,,,,,,,,,METAR,825.0
LTCN 072150Z 26017KT CAVOK 26/19 Q1005,LTCN,2023-07-07T21:50:00Z,37.53,36.95,26.0,19.0,260,17,,6.21,29.675198,,,,,,,,,,,CAVOK,,,,,,,,VFR,,,,,,,,,,,,METAR,505.0
LTCJ 072150Z 28003KT 240V320 CAVOK 25/14 Q1003 NOSIG RMK RWY20 24004KT SKC,LTCJ,2023-07-07T21:50:00Z,37.93,41.12,25.0,14.0,280,3,,6.21,29.616142,,,,,,TRUE,,,,,CAVOK,,,,,,,,VFR,,,,,,,,,,,,METAR,559.0
LTCI 072150Z 31004KT 260V330 9999 FEW040 21/10 Q1015 NOSIG,LTCI,2023-07-07T21:50:00Z,38.47,43.33,21.0,10.0,310,4,,6.21,29.970472,,,,,,TRUE,,,,,FEW,4000,,,,,,,VFR,,,,,,,,,,,,METAR,1654.0
LTCG 072150Z 24008KT 9999 FEW015 BKN028 24/22 Q1008 NOSIG RMK RWY29 25008KT,LTCG,2023-07-07T21:50:00Z,41.0,39.77,24.0,22.0,240,8,,6.21,29.763779,,,,,,TRUE,,,,,FEW,1500,BKN,2800,,,,,MVFR,,,,,,,,,,,,METAR,28.0
LTCF 072150Z 03009KT 9999 FEW040 15/11 Q1016 NOSIG,LTCF,2023-07-07T21:50:00Z,40.57,43.12,15.0,11.0,30,9,,6.21,30.0,,,,,,TRUE,,,,,FEW,4000,,,,,,,VFR,,,,,,,,,,,,METAR,1794.0
LTCE 072150Z 28004KT 170V330 9999 FEW040 17/11 Q1016 NOSIG RMK RWY08R 26004KT 230V290 RWY26R 28004KT 240V300 RWY08L 27004KT 2CU040,LTCE,2023-07-07T21:50:00Z,39.95,41.17,17.0,11.0,280,4,,6.21,30.0,,,,,,TRUE,,,,,FEW,4000,,,,,,,VFR,,,,,,,,,,,,METAR,1758.0
LTCD 072150Z VRB02KT 9999 FEW080 18/14 Q1012 NOSIG,LTCD,2023-07-07T21:50:00Z,39.72,39.52,18.0,14.0,0,2,,6.21,29.88189,,,,,,TRUE,,,,,FEW,8000,,,,,,,VFR,,,,,,,,,,,,METAR,1146.0
LTCC 072150Z 32004KT CAVOK 28/14 Q1003 NOSIG RMK RWY16 32006KT 270V360 SKC,LTCC,2023-07-07T21:50:00Z,37.88,40.2,28.0,14.0,320,4,,6.21,29.616142,,,,,,TRUE,,,,,CAVOK,,,,,,,,VFR,,,,,,,,,,,,METAR,676.0
LTCB 072150Z 20003KT 150V230 9999 SCT035 BKN090 24/21 Q1009 NOSIG,LTCB,2023-07-07T21:50:00Z,40.97,38.07,24.0,21.0,200,3,,6.21,29.793306,,,,,,TRUE,,,,,SCT,3500,BKN,9000,,,,,VFR,,,,,,,,,,,,METAR,5.0
LTCA 072150Z 24007KT CAVOK 24/10 Q1007 NOSIG,LTCA,2023-07-07T21:50:00Z,38.6,39.28,24.0,10.0,240,7,,6.21,29.734253,,,,,,TRUE,,,,,CAVOK,,,,,,,,VFR,,,,,,,,,,,,METAR,887.0
LTBY 072150Z 28008KT 9999 FEW040 20/17 Q1015,LTBY,2023-07-07T21:50:00Z,39.82,30.52,20.0,17.0,280,8,,6.21,29.970472,,,,,,,,,,,FEW,4000,,,,,,,VFR,,,,,,,,,,,,METAR,788.0
LTBU 072150Z 33012KT 9999 SCT035 BKN080 21/17 Q1013 RMK RWY22 32010KT,LTBU,2023-07-07T21:50:00Z,41.13,27.92,21.0,17.0,330,12,,6.21,29.911417,,,,,,,,,,,SCT,3500,BKN,8000,,,,,VFR,,,,,,,,,,,,METAR,165.0
LTBS 072150Z VRB03KT CAVOK 28/17 Q1005 NOSIG RMK RWY19 35010KT SKC,LTBS,2023-07-07T21:50:00Z,36.7,28.78,28.0,17.0,0,3,,6.21,29.675198,,,,,,TRUE,,,,,CAVOK,,,,,,,,VFR,,,,,,,,,,,,METAR,2.0
LTBR 072150Z VRB02KT CAVOK 21/19 Q1013 NOSIG RMK RWY07 32004KT 290V350,LTBR,2023-07-07T21:50:00Z,40.25,29.57,21.0,19.0,0,2,,6.21,29.911417,,,,,,TRUE,,,,,CAVOK,,,,,,,,VFR,,,,,,,,,,,,METAR,233.0
LTBQ 072150Z 22003KT 200V260 9999 SCT035 20/20 Q1013 NOSIG,LTBQ,2023-07-07T21:50:00Z,40.73,30.07,20.0,20.0,220,3,,6.21,29.911417,,,,,,TRUE,,,,,SCT,3500,,,,,,,VFR,,,,,,,,,,,,METAR,51.0
LTBJ 072150Z 36009KT CAVOK 27/18 Q1011 NOSIG RMK RWY16 36008KT,LTBJ,2023-07-07T21:50:00Z,38.28,27.15,27.0,18.0,360,9,,6.21,29.852362,,,,,,TRUE,,,,,CAVOK,,,,,,,,VFR,,,,,,,,,,,,METAR,123.0
LTBH 072150Z 12004KT CAVOK 22/18 Q1013,LTBH,2023-07-07T21:50:00Z,40.13,26.42,22.0,18.0,120,4,,6.21,29.911417,,,,,,,,,,,CAVOK,,,,,,,,VFR,,,,,,,,,,,,METAR,8.0
LTBF 072150Z 35008KT 9999 FEW035 24/19 Q1013 NOSIG,LTBF,2023-07-07T21:50:00Z,39.62,27.92,24.0,19.0,350,8,,6.21,29.911417,,,,,,TRUE,,,,,FEW,3500,,,,,,,VFR,,,,,,,,,,,,METAR,95.0
LTBD 072150Z 00000KT CAVOK 25/18 Q1009,LTBD,2023-07-07T21:50:00Z,37.82,27.88,25.0,18.0,0,0,,6.21,29.793306,,,,,,,,,,,CAVOK,,,,,,,,VFR,,,,,,,,,,,,METAR,29.0
LTBA 072150Z 33005KT CAVOK 26/16 Q1012 RMK RWY23 01006KT,LTBA,2023-07-07T21:50:00Z,40.97,28.82,26.0,16.0,330,5,,6.21,29.88189,,,,,,,,,,,CAVOK,,,,,,,,VFR,,,,,,,,,,,,METAR,33.0
LTAZ 072150Z 24005KT 200V300 CAVOK 22/15 Q1012 RMK RWY29 25006KT,LTAZ,2023-07-07T21:50:00Z,38.77,34.52,22.0,15.0,240,5,,6.21,29.88189,,,,,,,,,,,CAVOK,,,,,,,,VFR,,,,,,,,,,,,METAR,944.0
LTAY 072150Z 26005KT 230V300 CAVOK 23/14 Q1014 NOSIG,LTAY,2023-07-07T21:50:00Z,37.78,29.7,23.0,14.0,260,5,,6.21,29.940945,,,,,,TRUE,,,,,CAVOK,,,,,,,,VFR,,,,,,,,,,,,METAR,851.0
LTAU 072150Z 04006KT CAVOK 19/15 Q1012 NOSIG RMK RWY07 01003KT,LTAU,2023-07-07T21:50:00Z,38.77,35.48,19.0,15.0,40,6,,6.21,29.88189,,,,,,TRUE,,,,,CAVOK,,,,,,,,VFR,,,,,,,,,,,,METAR,1053.0
LTAT 072150Z 22004KT 190V340 CAVOK 26/09 Q1007 NOSIG RMK RWY03 VRB03KT,LTAT,2023-07-07T21:50:00Z,38.43,38.08,26.0,9.0,220,4,,6.21,29.734253,,,,,,TRUE,,,,,CAVOK,,,,,,,,VFR,,,,,,,,,,,,METAR,850.0
LTAR 072150Z 01007KT CAVOK 14/13 Q1016,LTAR,2023-07-07T21:50:00Z,39.8,36.9,14.0,13.0,10,7,,6.21,30.0,,,,,,,,,,,CAVOK,,,,,,,,VFR,,,,,,,,,,,,METAR,1601.0
LTAP 072150Z 28006KT 9999 FEW040 19/16 Q1011 NOSIG RMK RWY23 29006KT,LTAP,2023-07-07T21:50:00Z,40.83,35.52,19.0,16.0,280,6,,6.21,29.852362,,,,,,TRUE,,,,,FEW,4000,,,,,,,VFR,,,,,,,,,,,,METAR,536.0
LTAN 072150Z 33015KT 9999 FEW040 23/12 Q1014 NOSIG,LTAN,2023-07-07T21:50:00Z,37.97,32.55,23.0,12.0,330,15,,6.21,29.940945,,,,,,TRUE,,,,,FEW,4000,,,,,,,VFR,,,,,,,,,,,,METAR,1029.0
LTAJ 072150Z 24004KT CAVOK 24/18 Q1004 NOSIG RMK RWY10 26007KT SKC,LTAJ,2023-07-07T21:50:00Z,36.95,37.48,24.0,18.0,240,4,,6.21,29.64567,,,,,,TRUE,,,,,CAVOK,,,,,,,,VFR,,,,,,,,,,,,METAR,684.0
LTAI 072150Z 33004KT CAVOK 27/25 Q1005 NOSIG RMK RWY18C 34005KT RWY36R 02003KT RWY18L 01003KT 330V040,LTAI,2023-07-07T21:50:00Z,36.9,30.8,27.0,25.0,330,4,,6.21,29.675198,,,,,,TRUE,,,,,CAVOK,,,,,,,,VFR,,,,,,,,,,,,METAR,50.0
LTAG 072150Z 16003KT 9999 BKN030 25/23 Q1005 NOSIG RMK 5CU030,LTAG,2023-07-07T21:50:00Z,37.0,35.42,25.0,23.0,160,3,,6.21,29.675198,,,,,,TRUE,,,,,BKN,3000,,,,,,,MVFR,,,,,,,,,,,,METAR,62.0
LTAF 072150Z 16003KT 130V200 9999 BKN025 26/24 Q1005 NOSIG RMK RWY23 20004KT 5CU025,LTAF,2023-07-07T21:50:00Z,36.98,35.28,26.0,24.0,160,3,,6.21,29.675198,,,,,,TRUE,,,,,BKN,2500,,,,,,,MVFR,,,0.4,,,,,,,,,METAR,19.0
LTAE 072150Z 01004KT 9999 SCT040 19/12 Q1014 NOSIG RMK RWY21 02007KT,LTAE,2023-07-07T21:50:00Z,40.07,32.57,19.0,12.0,10,4,,6.21,29.940945,,,,,,TRUE,,,,,SCT,4000,,,,,,,VFR,,,,,,,,,,,,METAR,836.0
LTAC 072150Z VRB01KT CAVOK 21/13 Q1014 NOSIG RMK RWY21L 09003KT RWY03L 07003KT 040V110 RWY21R 11003KT 020V170,LTAC,2023-07-07T21:50:00Z,40.12,32.98,21.0,13.0,0,1,,6.21,29.940945,,,,,,TRUE,,,,,CAVOK,,,,,,,,VFR,,-0.3,,,,,,,,,,METAR,952.0
LSZS 072150Z AUTO 18005KT 140V210 9999 NSC 10/08 Q1028,LSZS,2023-07-07T21:50:00Z,46.53,9.88,10.0,8.0,180,5,,6.21,30.35433,,,TRUE,,,,,,,,CLR,,,,,,,,VFR,,,,,,,,,,,,METAR,1708.0
LSZR 072150Z AUTO VRB02KT CAVOK 20/12 Q1018,LSZR,2023-07-07T21:50:00Z,47.48,9.57,20.0,12.0,0,2,,6.21,30.059055,,,TRUE,,,,,,,,CAVOK,,,,,,,,VFR,,,,,,,,,,,,METAR,396.0
LSZL 072150Z AUTO 00000KT 9999NDV NCD 21/17 Q1022 RMK,LSZL,2023-07-07T21:50:00Z,46.17,8.88,21.0,17.0,0,0,,,30.177166,,,TRUE,,,,,,,,CLR,,,,,,,,,,,,,,,,,,,,METAR,198.0
LSZH 072150Z AUTO 01003KT 9999 NCD 20/11 Q1018 NOSIG,LSZH,2023-07-07T21:50:00Z,47.48,8.53,20.0,11.0,10,3,,6.21,30.059055,,,TRUE,,,TRUE,,,,,CLR,,,,,,,,VFR,,,,,,,,,,,,METAR,424.0
LSZG 072150Z AUTO VRB01KT 9999 FEW060 21/13 Q1018,LSZG,2023-07-07T21:50:00Z,47.17,7.42,21.0,13.0,0,1,,6.21,30.059055,,,TRUE,,,,,,,,FEW,6000,,,,,,,VFR,,,,,,,,,,,,METAR,428.0
LSZC 072150Z AUTO 26005KT CAVOK 21/13 Q1018,LSZC,2023-07-07T21:50:00Z,46.97,8.38,21.0,13.0,260,5,,6.21,30.059055,,,TRUE,,,,,,,,CAVOK,,,,,,,,VFR,,,,,,,,,,,,METAR,445.0
LSZB 072150Z AUTO 10007KT 9999 FEW100 22/14 Q1018,LSZB,2023-07-07T21:50:00Z,46.92,7.5,22.0,14.0,100,7,,6.21,30.059055,,,TRUE,,,,,,,,FEW,10000,,,,,,,VFR,,,,,,,,,,,,METAR,510.0
LSZA 072150Z AUTO VRB01KT CAVOK 21/17 Q1022,LSZA,2023-07-07T21:50:00Z,46.0,8.92,21.0,17.0,0,1,,6.21,30.177166,,,TRUE,,,,,,,,CAVOK,,,,,,,,VFR,,,,,,,,,,,,METAR,276.0
LSMP 072150Z AUTO 20004KT 170V240 9999NDV BKN097 BKN140 23/16 Q1018 RMK,LSMP,2023-07-07T21:50:00Z,46.83,6.92,23.0,16.0,200,4,,,30.059055,,,TRUE,,,,,,,,BKN,9700,BKN,14000,,,,,,,,,,,,,,,,,METAR,490.0
LSMM 072150Z AUTO VRB01KT 9999NDV FEW230 19/13 Q1019 RMK,LSMM,2023-07-07T21:50:00Z,46.75,8.12,19.0,13.0,0,1,,,30.088583,,,TRUE,,,,,,,,FEW,23000,,,,,,,,,,,,,,,,,,,METAR,570.0
LSME 072150Z AUTO 00000KT 9999NDV SCT230 21/16 Q1018 RMK,LSME,2023-07-07T21:50:00Z,47.1,8.3,21.0,16.0,0,0,,,30.059055,,,TRUE,,,,,,,,SCT,23000,,,,,,,,,,,,,,,,,,,METAR,427.0
LSMD 072150Z AUTO 12003KT 9999NDV NCD 20/13 Q1018 RMK,LSMD,2023-07-07T21:50:00Z,47.4,8.65,20.0,13.0,120,3,,,30.059055,,,TRUE,,,,,,,,CLR,,,,,,,,,,,,,,,,,,,,METAR,436.0
LSMA 072150Z AUTO VRB04KT 9999NDV FEW190 21/14 Q1018 RMK,LSMA,2023-07-07T21:50:00Z,46.95,8.28,21.0,14.0,0,4,,,30.059055,,,TRUE,,,,,,,,FEW,19000,,,,,,,,,,,,,,,,,,,METAR,441.0
LSGS 072150Z AUTO VRB01KT CAVOK 23/12 Q1020,LSGS,2023-07-07T21:50:00Z,46.22,7.32,23.0,12.0,0,1,,6.21,30.11811,,,TRUE,,,,,,,,CAVOK,,,,,,,,VFR,,,,,,,,,,,,METAR,482.0
LSGG 072150Z AUTO 30001KT CAVOK 22/14 Q1018 NOSIG,LSGG,2023-07-07T21:50:00Z,46.25,6.12,22.0,14.0,300,1,,6.21,30.059055,,,TRUE,,,TRUE,,,,,CAVOK,,,,,,,,VFR,,,,,,,,,,,,METAR,411.0
LSGC 072150Z AUTO VRB01KT 9999 NCD 18/10 Q1021,LSGC,2023-07-07T21:50:00Z,47.08,6.8,18.0,10.0,0,1,,6.21,30.147638,,,TRUE,,,,,,,,CLR,,,,,,,,VFR,,,,,,,,,,,,METAR,1018.0
LOWW 072150Z 23003KT CAVOK 19/10 Q1022 NOSIG,LOWW,2023-07-07T21:50:00Z,48.12,16.57,19.0,10.0,230,3,,6.21,30.177166,,,,,,TRUE,,,,,CAVOK,,,,,,,,VFR,,,,,,,,,,,,METAR,179.0
LOWS 072150Z AUTO 16005KT 9999 NCD 16/11 Q1021,LOWS,2023-07-07T21:50:00Z,47.78,13.02,16.0,11.0,160,5,,6.21,30.147638,,,TRUE,,,,,,,,CLR,,,,,,,,VFR,,,,,,,,,,,,METAR,427.0
LOWL 072150Z AUTO 07007KT 9999 NCD 19/10 Q1021,LOWL,2023-07-07T21:50:00Z,48.22,14.18,19.0,10.0,70,7,,6.21,30.147638,,,TRUE,,,,,,,,CLR,,,,,,,,VFR,,,,,,,,,,,,METAR,290.0
LOWK 072150Z AUTO 30004KT 9999 NCD 17/14 Q1024,LOWK,2023-07-07T21:50:00Z,46.65,14.32,17.0,14.0,300,4,,6.21,30.236221,,,TRUE,,,,,,,,CLR,,,,,,,,VFR,,,,,,,,,,,,METAR,450.0
LOWI 072150Z AUTO VRB01KT 9999 NCD 18/12 Q1021,LOWI,2023-07-07T21:50:00Z,47.27,11.33,18.0,12.0,0,1,,6.21,30.147638,,,TRUE,,,,,,,,CLR,,,,,,,,VFR,,,,,,,,,,,,METAR,570.0
LOWG 072150Z AUTO VRB01KT 9999 NCD 16/14 Q1023,LOWG,2023-07-07T21:50:00Z,47.0,15.43,16.0,14.0,0,1,,6.21,30.206694,,,TRUE,,,,,,,,CLR,,,,,,,,VFR,,,,,,,,,,,,METAR,337.0
LLBG 072150Z 20006KT 9999 FEW025 26/22 Q1008 NOSIG,LLBG,2023-07-07T21:50:00Z,32.0,34.88,26.0,22.0,200,6,,6.21,29.763779,,,,,,TRUE,,,,,FEW,2500,,,,,,,VFR,,,,,,,,,,,,METAR,35.0
LIRZ 072150Z AUTO 01009KT 9999 NCD 22/15 Q1020,LIRZ,2023-07-07T21:50:00Z,43.1,12.5,22.0,15.0,10,9,,6.21,30.11811,,,TRUE,,,,,,,,CLR,,,,,,,,VFR,,,,,,,,,,,,METAR,206.0
LIRQ 072150Z VRB02KT CAVOK 25/17 Q1019,LIRQ,2023-07-07T21:50:00Z,43.8,11.2,25.0,17.0,0,2,,6.21,30.088583,,,,,,,,,,,CAVOK,,,,,,,,VFR,,,,,,,,,,,,METAR,33.0
LIRN 072150Z 35003KT CAVOK 26/19 Q1019 NOSIG,LIRN,2023-07-07T21:50:00Z,40.88,14.3,26.0,19.0,350,3,,6.21,30.088583,,,,,,TRUE,,,,,CAVOK,,,,,,,,VFR,,,,,,,,,,,,METAR,76.0
LIRF 072150Z 36004KT CAVOK 22/20 Q1018 NOSIG,LIRF,2023-07-07T21:50:00Z,41.78,12.23,22.0,20.0,360,4,,6.21,30.059055,,,,,,TRUE,,,,,CAVOK,,,,,,,,VFR,,,,,,,,,,,,METAR,2.0
LIRA 072150Z AUTO 14004KT 9999 NCD 26/17 Q1019,LIRA,2023-07-07T21:50:00Z,41.8,12.58,26.0,17.0,140,4,,6.21,30.088583,,,TRUE,,,,,,,,CLR,,,,,,,,VFR,,,,,,,,,,,,METAR,101.0
LIPZ 072150Z 17002KT CAVOK 23/17 Q1020 NOSIG,LIPZ,2023-07-07T21:50:00Z,45.5,12.35,23.0,17.0,170,2,,6.21,30.11811,,,,,,TRUE,,,,,CAVOK,,,,,,,,VFR,,,,,,,,,,,,METAR,3.0
LIPY 072150Z AUTO 20005KT 9999 NCD 19/17 Q1021,LIPY,2023-07-07T21:50:00Z,43.62,13.37,19.0,17.0,200,5,,6.21,30.147638,,,TRUE,,,,,,,,CLR,,,,,,,,VFR,,,,,,,,,,,,METAR,11.0
LIPX 072150Z 05003KT CAVOK 23/16 Q1021,LIPX,2023-07-07T21:50:00Z,45.38,10.87,23.0,16.0,50,3,,6.21,30.147638,,,,,,,,,,,CAVOK,,,,,,,,VFR,,,,,,,,,,,,METAR,67.0
LIPR 072150Z AUTO 21005KT 9999 NCD 20/17 Q1020,LIPR,2023-07-07T21:50:00Z,44.02,12.62,20.0,17.0,210,5,,6.21,30.11811,,,TRUE,,,,,,,,CLR,,,,,,,,VFR,,,,,,,,,,,,METAR,10.0
LIPQ 072150Z AUTO 10005KT 9999 NCD 22/14 Q1021,LIPQ,2023-07-07T21:50:00Z,45.82,13.47,22.0,14.0,100,5,,6.21,30.147638,,,TRUE,,,,,,,,CLR,,,,,,,,VFR,,,,,,,,,,,,METAR,6.0
LIPO 072150Z AUTO 02005KT 9999 NCD 24/17 Q1021,LIPO,2023-07-07T21:50:00Z,45.42,10.33,24.0,17.0,20,5,,6.21,30.147638,,,TRUE,,,,,,,,CLR,,,,,,,,VFR,,,,,,,,,,,,METAR,104.0
LIPK 072150Z 00000KT CAVOK 19/14 Q1020,LIPK,2023-07-07T21:50:00Z,44.2,12.07,19.0,14.0,0,0,,6.21,30.11811,,,,,,,,,,,CAVOK,,,,,,,,VFR,,,,,,,,,,,,METAR,24.0
LIPH 072150Z AUTO VRB02KT 9999 NCD 22/17 Q1021,LIPH,2023-07-07T21:50:00Z,45.63,12.18,22.0,17.0,0,2,,6.21,30.147638,,,TRUE,,,,,,,,CLR,,,,,,,,VFR,,,,,,,,,,,,METAR,10.0
LIPE 072150Z 08003KT CAVOK 22/15 Q1020,LIPE,2023-07-07T21:50:00Z,44.52,11.3,22.0,15.0,80,3,,6.21,30.11811,,,,,,,,,,,CAVOK,,,,,,,,VFR,,,,,,,,,,,,METAR,37.0
LIPB 072150Z VRB03KT CAVOK 22/15 Q1021,LIPB,2023-07-07T21:50:00Z,46.47,11.32,22.0,15.0,0,3,,6.21,30.147638,,,,,,,,,,,CAVOK,,,,,,,,VFR,,,,,,,,,,,,METAR,239.0
LIMZ 072150Z AUTO 26004KT 9999 SCT220/// 22/19 Q1022,LIMZ,2023-07-07T21:50:00Z,44.53,7.62,22.0,19.0,260,4,,6.21,30.177166,,,TRUE,,,,,,,,SCT,22000,,,,,,,VFR,,,,,,,,,,,,METAR,377.0
LIML 072150Z 34001KT CAVOK 22/17 Q1021 NOSIG,LIML,2023-07-07T21:50:00Z,45.47,9.27,22.0,17.0,340,1,,6.21,30.147638,,,,,,TRUE,,,,,CAVOK,,,,,,,,VFR,,,,,,,,,,,,METAR,109.0
LIMJ 072150Z 04010KT CAVOK 28/17 Q1019,LIMJ,2023-07-07T21:50:00Z,44.42,8.83,28.0,17.0,40,10,,6.21,30.088583,,,,,,,,,,,CAVOK,,,,,,,,VFR,,,,,,,,,,,,METAR,3.0
LIMF 072150Z 34004KT 9999 BKN070 24/18 Q1022,LIMF,2023-07-07T21:50:00Z,45.22,7.65,24.0,18.0,340,4,,6.21,30.177166,,,,,,,,,,,BKN,7000,,,,,,,VFR,,,,,,,,,,,,METAR,295.0
LIME 072150Z 36005KT CAVOK 22/17 Q1021 NOSIG,LIME,2023-07-07T21:50:00Z,45.67,9.7,22.0,17.0,360,5,,6.21,30.147638,,,,,,TRUE,,,,,CAVOK,,,,,,,,VFR,,,,,,,,,,,,METAR,239.0
LIMC 072150Z 02003KT CAVOK 21/16 Q1022 NOSIG,LIMC,2023-07-07T21:50:00Z,45.62,8.72,21.0,16.0,20,3,,6.21,30.177166,,,,,,TRUE,,,,,CAVOK,,,,,,,,VFR,,,,,,,,,,,,METAR,221.0
LIEO 072150Z 11004KT 080V150 9999 FEW018 25/23 Q1017,LIEO,2023-07-07T21:50:00Z,40.88,9.52,25.0,23.0,110,4,,6.21,30.029528,,,,,,,,,,,FEW,1800,,,,,,,VFR,,,,,,,,,,,,METAR,8.0
LIEE 072150Z 16017KT 9999 -DZ SCT060 28/19 Q1014,LIEE,2023-07-07T21:50:00Z,39.25,9.07,28.0,19.0,160,17,,6.21,29.940945,,,,,,,,,,-DZ,SCT,6000,,,,,,,VFR,,,,,,,,,,,,METAR,1.0
LIEA 072150Z 02006KT CAVOK 27/20 Q1015,LIEA,2023-07-07T21:50:00Z,40.62,8.28,27.0,20.0,20,6,,6.21,29.970472,,,,,,,,,,,CAVOK,,,,,,,,VFR,,,,,,,,,,,,METAR,22.0
LICR 072150Z AUTO VRB02KT 9999 NCD 24/15 Q1019,LICR,2023-07-07T21:50:00Z,38.07,15.65,24.0,15.0,0,2,,6.21,30.088583,,,TRUE,,,,,,,,CLR,,,,,,,,VFR,,,,,,,,,,,,METAR,16.0
LICJ 072150Z 17003KT 130V210 CAVOK 26/19 Q1018,LICJ,2023-07-07T21:50:00Z,38.17,13.08,26.0,19.0,170,3,,6.21,30.059055,,,,,,,,,,,CAVOK,,,,,,,,VFR,,,,,,,,,,,,METAR,20.0
LICD 072150Z AUTO 14010KT 9999 NCD 26/24 Q1018,LICD,2023-07-07T21:50:00Z,35.5,12.62,26.0,24.0,140,10,,6.21,30.059055,,,TRUE,,,,,,,,CLR,,,,,,,,VFR,,,,,,,,,,,,METAR,20.0
LICC 072150Z VRB01KT CAVOK 24/18 Q1019,LICC,2023-07-07T21:50:00Z,37.47,15.05,24.0,18.0,0,1,,6.21,30.088583,,,,,,,,,,,CAVOK,,,,,,,,VFR,,,,,,,,,,,,METAR,6.0
LICB 072150Z AUTO 09003KT 9999 NCD 22/11 Q1020,LICB,2023-07-07T21:50:00Z,37.0,14.62,22.0,11.0,90,3,,6.21,30.11811,,,TRUE,,,,,,,,CLR,,,,,,,,VFR,,,,,,,,,,,,METAR,212.0
LICA 072150Z AUTO 06004KT 9999 NCD 23/22 Q1019,LICA,2023-07-07T21:50:00Z,38.9,16.25,23.0,22.0,60,4,,6.21,30.088583,,,TRUE,,,,,,,,CLR,,,,,,,,VFR,,,,,,,,,,,,METAR,7.0
LIBR 072150Z 33011KT CAVOK 24/20 Q1018,LIBR,2023-07-07T21:50:00Z,40.65,17.95,24.0,20.0,330,11,,6.21,30.059055,,,,,,,,,,,CAVOK,,,,,,,,VFR,,,,,,,,,,,,METAR,5.0
LIBP 072150Z AUTO 23005KT 9999 SCT041/// 22/19 Q1021,LIBP,2023-07-07T21:50:00Z,42.42,14.18,22.0,19.0,230,5,,6.21,30.147638,,,TRUE,,,,,,,,SCT,4100,,,,,,,VFR,,,,,,,,,,,,METAR,10.0
LIBD 072150Z 28005KT CAVOK 23/16 Q1019,LIBD,2023-07-07T21:50:00Z,41.13,16.77,23.0,16.0,280,5,,6.21,30.088583,,,,,,,,,,,CAVOK,,,,,,,,VFR,,,,,,,,,,,,METAR,42.0
LGTS 072150Z 35008KT 320V020 9999 FEW025 28/17 Q1014 NOSIG,LGTS,2023-07-07T21:50:00Z,40.52,22.97,28.0,17.0,350,8,,6.21,29.940945,,,,,,TRUE,,,,,FEW,2500,,,,,,,VFR,,,,,,,,,,,,METAR,4.0
LGSR 072150Z 28008KT CAVOK 27/19 Q1012,LGSR,2023-07-07T21:50:00Z,36.4,25.48,27.0,19.0,280,8,,6.21,29.88189,,,,,,,,,,,CAVOK,,,,,,,,VFR,,,,,,,,,,,,METAR,31.0
LGSO 072150Z AUTO 01008KT //// // ////// 26/19 Q1013 RE//,LGSO,2023-07-07T21:50:00Z,37.42,24.95,26.0,19.0,10,8,,,29.911417,,,TRUE,,,,,,,,,,,,,,,,,,,,,,,,,,,,METAR,71.0
LGSA 072150Z VRB03KT CAVOK 25/20 Q1013,LGSA,2023-07-07T21:50:00Z,35.53,24.13,25.0,20.0,0,3,,6.21,29.911417,,,,,,,,,,,CAVOK,,,,,,,,VFR,,,,,,,,,,,,METAR,122.0
LGRX 072150Z 00000KT CAVOK 25/19 Q1014,LGRX,2023-07-07T21:50:00Z,38.17,21.42,25.0,19.0,0,0,,6.21,29.940945,,,,,,,,,,,CAVOK,,,,,,,,VFR,,,,,,,,,,,,METAR,16.0
LGRP 072150Z 24011KT CAVOK 28/18 Q1007 NOSIG,LGRP,2023-07-07T21:50:00Z,36.4,28.08,28.0,18.0,240,11,,6.21,29.734253,,,,,,TRUE,,,,,CAVOK,,,,,,,,VFR,,,,,,,,,,,,METAR,3.0
LGPZ 072150Z 00000KT 9999 FEW025 24/20 Q1015,LGPZ,2023-07-07T21:50:00Z,38.92,20.77,24.0,20.0,0,0,,6.21,29.970472,,,,,,,,,,,FEW,2500,,,,,,,VFR,,,,,,,,,,,,METAR,3.0
LGMK 072150Z 33005KT CAVOK 25/19 Q1012,LGMK,2023-07-07T21:50:00Z,37.43,25.35,25.0,19.0,330,5,,6.21,29.88189,,,,,,,,,,,CAVOK,,,,,,,,VFR,,,,,,,,,,,,METAR,126.0
LGLM 072150Z 34003KT CAVOK 23/20 Q1013,LGLM,2023-07-07T21:50:00Z,39.92,25.23,23.0,20.0,340,3,,6.21,29.911417,,,,,,,,,,,CAVOK,,,,,,,,VFR,,,,,,,,,,,,METAR,4.0
LGKZ 072150Z AUTO 33006KT 310V010 //// // ////// 21/13 Q1019 RE//,LGKZ,2023-07-07T21:50:00Z,40.28,21.83,21.0,13.0,330,6,,,30.088583,,,TRUE,,,,,,,,,,,,,,,,,,,,,,,,,,,,METAR,615.0
LGKR 072150Z 16005KT CAVOK 25/16 Q1015 NOSIG,LGKR,2023-07-07T21:50:00Z,39.62,19.92,25.0,16.0,160,5,,6.21,29.970472,,,,,,TRUE,,,,,CAVOK,,,,,,,,VFR,,,,,,,,,,,,METAR,2.0
LGKO 072150Z 36006KT CAVOK 27/19 Q1009,LGKO,2023-07-07T21:50:00Z,36.8,27.08,27.0,19.0,360,6,,6.21,29.793306,,,,,,,,,,,CAVOK,,,,,,,,VFR,,,,,,,,,,,,METAR,130.0
LGKL 072150Z AUTO 33007KT //// // ////// 26/18 Q1013 RE//,LGKL,2023-07-07T21:50:00Z,37.07,22.02,26.0,18.0,330,7,,,29.911417,,,TRUE,,,,,,,,,,,,,,,,,,,,,,,,,,,,METAR,4.0
LGIR 072150Z 00000KT CAVOK 26/22 Q1012 NOSIG,LGIR,2023-07-07T21:50:00Z,35.33,25.17,26.0,22.0,0,0,,6.21,29.88189,,,,,,TRUE,,,,,CAVOK,,,,,,,,VFR,,,,,,,,,,,,METAR,37.0
LGIO 072150Z AUTO VRB02KT //// // ////// 20/15 Q1018 RE//,LGIO,2023-07-07T21:50:00Z,39.7,20.82,20.0,15.0,0,2,,,30.059055,,,TRUE,,,,,,,,,,,,,,,,,,,,,,,,,,,,METAR,476.0
LGEL 072150Z VRB03KT 9999 FEW070 28/15 Q1013,LGEL,2023-07-07T21:50:00Z,38.07,23.55,28.0,15.0,0,3,,6.21,29.911417,,,,,,,,,,,FEW,7000,,,,,,,VFR,,,,,,,,,,,,METAR,21.0
LGBL 072150Z 29004KT 9999 FEW035 26/16 Q1013,LGBL,2023-07-07T21:50:00Z,39.22,22.8,26.0,16.0,290,4,,6.21,29.911417,,,,,,,,,,,FEW,3500,,,,,,,VFR,,,,,,,,,,,,METAR,13.0
LGAV 072150Z 21003KT CAVOK 25/17 Q1014 NOSIG,LGAV,2023-07-07T21:50:00Z,37.93,23.95,25.0,17.0,210,3,,6.21,29.940945,,,,,,TRUE,,,,,CAVOK,,,,,,,,VFR,,,,,,,,,,,,METAR,83.0
LGAL 072150Z 00000KT 9999 FEW025 22/19 Q1013,LGAL,2023-07-07T21:50:00Z,40.85,25.95,22.0,19.0,0,0,,6.21,29.911417,,,,,,,,,,,FEW,2500,,,,,,,VFR,,,,,,,,,,,,METAR,5.0
LGAD 072150Z 00000KT CAVOK 25/19 Q1014,LGAD,2023-07-07T21:50:00Z,37.92,21.28,25.0,19.0,0,0,,6.21,29.940945,,,,,,,,,,,CAVOK,,,,,,,,VFR,,,,,,,,,,,,METAR,8.0
LCRA 072150Z 27008KT CAVOK 26/24 Q1005 TEMPO 7000 HZ SCT015,LCRA,2023-07-07T21:50:00Z,34.58,32.98,26.0,24.0,270,8,,6.21,29.675198,,,,,,,,,,,CAVOK,,,,,,,,VFR,,,,,,,,,,,,METAR,23.0
LCEN 072150Z 00000KT CAVOK 25/21 Q1006 NOSIG RMK RWY11 00000KT,LCEN,2023-07-07T21:50:00Z,35.15,33.5,25.0,21.0,0,0,,6.21,29.704725,,,,,,TRUE,,,,,CAVOK,,,,,,,,VFR,,,,,,,,,,,,SPECI,91.0
LATI 072150Z VRB02KT 9999 FEW030 SCT070 23/22 Q1018 NOSIG,LATI,2023-07-07T21:50:00Z,41.42,19.72,23.0,22.0,0,2,,6.21,30.059055,,,,,,TRUE,,,,,FEW,3000,SCT,7000,,,,,VFR,,,,,,,,,,,,METAR,32.0
KXBP 072150Z AUTO 17015G20KT 10SM CLR 36/18 A2986 RMK AO2 T03580176,KXBP,2023-07-07T21:50:00Z,33.18,-97.83,35.8,17.6,170,15,20,10.0,29.861221,,,TRUE,TRUE,,,,,,,CLR,,,,,,,,VFR,,,,,,,,,,,,METAR,256.0
KW29 072150Z AUTO 11005KT 10SM SCT024 29/25 A2983 RMK AO2 T02930245,KW29,2023-07-07T21:50:00Z,38.98,-76.33,29.3,24.5,110,5,,10.0,29.828741,,,TRUE,TRUE,,,,,,,SCT,2400,,,,,,,VFR,,,,,,,,,,,,METAR,1.0
KVVS 072150Z AUTO 32005KT 10SM BKN036 BKN050 OVC055 27/20 A2991 RMK AO2 T02720203,KVVS,2023-07-07T21:50:00Z,39.95,-79.65,27.2,20.3,320,5,,10.0,29.911417,,,TRUE,TRUE,,,,,,,BKN,3600,BKN,5000,OVC,5500,,,VFR,,,,,,,,,,,,SPECI,386.0
KVQQ 072150Z 15007KT 10SM BKN045 26/26 A2987 RMK TSE50,KVQQ,2023-07-07T21:50:00Z,30.22,-81.88,26.0,26.0,150,7,,10.0,29.870079,,,,,,,,,,,BKN,4500,,,,,,,VFR,,,,,,,,,,,,METAR,21.0
KVES 072150Z AUTO 00000KT 10SM CLR 28/10 A2993 RMK AO2,KVES,2023-07-07T21:50:00Z,40.2,-84.53,28.0,10.0,0,0,,10.0,29.929134,,,TRUE,TRUE,,,,,,,CLR,,,,,,,,VFR,,,,,,,,,,,,SPECI,308.0
KTQV 072150Z AUTO 31009KT 10SM FEW055 FEW070 SCT120 32/20 A2982 RMK A01,KTQV,2023-07-07T21:50:00Z,36.0,-78.93,32.0,20.0,310,9,,10.0,29.819881,,,TRUE,TRUE,,,,,,,FEW,5500,FEW,7000,SCT,12000,,,VFR,,,,,,,,,,,,METAR,230.0
KTIX 072150Z 19008KT 7SM SCT037 SCT050 30/26 A2992,KTIX,2023-07-07T21:50:00Z,28.5,-80.8,30.0,26.0,190,8,,7.0,29.920275,,,,,,,,,,,SCT,3700,SCT,5000,,,,,VFR,,,,,,,,,,,,METAR,10.0
KSUT 072150Z AUTO 17005KT 10SM CLR 32/25 A2981 RMK AO2 T03230250,KSUT,2023-07-07T21:50:00Z,33.93,-78.08,32.3,25.0,170,5,,10.0,29.811024,,,TRUE,TRUE,,,,,,,CLR,,,,,,,,VFR,,,,,,,,,,,,SPECI,6.0
KSUA 072150Z 12005KT 5SM VCTS SCT016 BKN030 27/23 A2996 RMK TSE2145,KSUA,2023-07-07T21:50:00Z,27.18,-80.22,27.0,23.0,120,5,,5.0,29.958662,,,,,,,,,,VCTS,SCT,1600,BKN,3000,,,,,MVFR,,,,,,,,,,,,METAR,4.0
KSNH 072150Z AUTO 17006KT 10SM FEW011 FEW065 BKN090 25/24 A2994 RMK A01,KSNH,2023-07-07T21:50:00Z,35.17,-88.22,25.0,24.0,170,6,,10.0,29.940945,,,TRUE,TRUE,,,,,,,FEW,1100,FEW,6500,BKN,9000,,,VFR,,,,,,,,,,,,METAR,142.0
KRYY 072150Z 00000KT 10SM SCT039 32/22 A2990 RMK AO2 LTG DSNT SE SLP112 T03170217 $,KRYY,2023-07-07T21:50:00Z,34.02,-84.6,31.7,21.7,0,0,,10.0,29.899607,1011.2,,,TRUE,TRUE,,,,,,SCT,3900,,,,,,,VFR,,,,,,,,,,,,METAR,306.0
KRHP 072150Z AUTO 35004KT 10SM CLR 30/18 A2993 RMK AO2 T03000178,KRHP,2023-07-07T21:50:00Z,35.18,-83.85,30.0,17.8,350,4,,10.0,29.929134,,,TRUE,TRUE,,,,,,,CLR,,,,,,,,VFR,,,,,,,,,,,,SPECI,515.0
KRCZ 072150Z AUTO 00000KT 10SM -RA CLR 24/22 A2985 RMK AO2 P0001 T02370218,KRCZ,2023-07-07T21:50:00Z,34.88,-79.77,23.7,21.8,0,0,,10.0,29.84941,,,TRUE,TRUE,,,,,,-RA,CLR,,,,,,,,VFR,,,,,,0.01,,,,,,SPECI,110.0
KQER 072150Z AUTO 11001KT 9999 CLR 19/19 A2962 RMK A02 TSNO,KQER,2023-07-07T21:50:00Z,,,19.0,19.0,110,1,,6.21,29.619095,,,TRUE,TRUE,,,TRUE,,,,CLR,,,,,,,,VFR,,,,,,,,,,,,METAR,
KPUJ 072150Z AUTO 00000KT CLR 28/21 A2992 RMK AO2 PWINO,KPUJ,2023-07-07T21:50:00Z,33.92,-84.93,28.0,21.0,0,0,,,29.920275,,,TRUE,TRUE,,,,,TRUE,,CLR,,,,,,,,,,,,,,,,,,,,SPECI,385.0
KOZA 072150Z AUTO 17014G21KT 10SM CLR 35/15 A2994 RMK AO2,KOZA,2023-07-07T21:50:00Z,30.73,-101.2,35.0,15.0,170,14,21,10.0,29.940945,,,TRUE,TRUE,,,,,,,CLR,,,,,,,,VFR,,,,,,,,,,,,METAR,721.0
KOQU 072150Z 19012KT 8SM BKN025 26/21 A2988,KOQU,2023-07-07T21:50:00Z,41.6,-71.42,26.0,21.0,190,12,,8.0,29.878937,,,,,,,,,,,BKN,2500,,,,,,,MVFR,,,,,,,,,,,,METAR,6.0
KOMN 072150Z 00000KT 7SM SCT050 25/25 A2989,KOMN,2023-07-07T21:50:00Z,29.3,-81.12,25.0,25.0,0,0,,7.0,29.890747,,,,,,,,,,,SCT,5000,,,,,,,VFR,,,,,,,,,,,,METAR,7.0
KOLV 072150Z 01004KT 10SM SCT040 30/22 A2991,KOLV,2023-07-07T21:50:00Z,34.98,-89.78,30.0,22.0,10,4,,10.0,29.911417,,,,,,,,,,,SCT,4000,,,,,,,VFR,,,,,,,,,,,,METAR,124.0
KNQA 072150Z 11004KT 10SM SCT034 30/23 A2990,KNQA,2023-07-07T21:50:00Z,35.35,-89.87,30.0,23.0,110,4,,10.0,29.899607,,,,,,,,,,,SCT,3400,,,,,,,VFR,,,,,,,,,,,,METAR,90.0
KMRC 072150Z AUTO 00000KT 10SM CLR 30/20 A2992 RMK A01,KMRC,2023-07-07T21:50:00Z,35.55,-87.18,30.0,20.0,0,0,,10.0,29.920275,,,TRUE,TRUE,,,,,,,CLR,,,,,,,,VFR,,,,,,,,,,,,METAR,205.0
KMQI 072150Z AUTO 21007KT 10SM CLR 29/24 A2982 RMK AO2 T02890236,KMQI,2023-07-07T21:50:00Z,35.92,-75.7,28.9,23.6,210,7,,10.0,29.819881,,,TRUE,TRUE,,,,,,,CLR,,,,,,,,VFR,,,,,,,,,,,,SPECI,3.0
KM54 072150Z AUTO 35006KT 10SM CLR 31/21 A2988 RMK A01,KM54,2023-07-07T21:50:00Z,36.18,-86.32,31.0,21.0,350,6,,10.0,29.878937,,,TRUE,TRUE,,,,,,,CLR,,,,,,,,VFR,,,,,,,,,,,,METAR,168.0
KM04 072150Z AUTO 00000KT 10SM CLR 30/22 A2991 RMK A01,KM04,2023-07-07T21:50:00Z,35.58,-89.58,30.0,22.0,0,0,,10.0,29.911417,,,TRUE,TRUE,,,,,,,CLR,,,,,,,,VFR,,,,,,,,,,,,METAR,83.0
KLHZ 072150Z AUTO 10012G21KT 10SM SCT060 SCT070 SCT085 25/21 A2985 RMK AO2,KLHZ,2023-07-07T21:50:00Z,36.02,-78.33,25.0,21.0,100,12,21,10.0,29.84941,,,TRUE,TRUE,,,,,,,SCT,6000,SCT,7000,SCT,8500,,,VFR,,,,,,,,,,,,SPECI,104.0
KLAL 072150Z 31006KT 7SM TSRA BKN060 BKN090 24/22 A2995 RMK LTG VCT AND DSNT ALQDS,KLAL,2023-07-07T21:50:00Z,27.98,-82.02,24.0,22.0,310,6,,7.0,29.949802,,,,,,,,,,TSRA,BKN,6000,BKN,9000,,,,,VFR,,,,,,,,,,,,METAR,39.0
KJWN 072150Z 29007KT 10SM CLR 31/22 A2990,KJWN,2023-07-07T21:50:00Z,36.18,-86.88,31.0,22.0,290,7,,10.0,29.899607,,,,,,,,,,,CLR,,,,,,,,VFR,,,,,,,,,,,,METAR,149.0
KJQF 072150Z 35013G17KT 10SM BKN050 31/21 A2987,KJQF,2023-07-07T21:50:00Z,35.38,-80.72,31.0,21.0,350,13,17,10.0,29.870079,,,,,,,,,,,BKN,5000,,,,,,,VFR,,,,,,,,,,,,METAR,204.0
KJAU 072150Z AUTO 36004KT 10SM FEW060 FEW070 29/19 A2996 RMK A01,KJAU,2023-07-07T21:50:00Z,36.33,-84.17,29.0,19.0,360,4,,10.0,29.958662,,,TRUE,TRUE,,,,,,,FEW,6000,FEW,7000,,,,,VFR,,,,,,,,,,,,METAR,350.0
KIJX 072150Z AUTO 27003KT 10SM SCT050 BKN075 BKN110 26/18 A2995 RMK AO2 T02550178,KIJX,2023-07-07T21:50:00Z,39.77,-90.25,25.5,17.8,270,3,,10.0,29.949802,,,TRUE,TRUE,,,,,,,SCT,5000,BKN,7500,BKN,11000,,,VFR,,,,,,,,,,,,SPECI,187.0
KHUM 072150Z 27005KT 7SM SCT065 32/26 A2995,KHUM,2023-07-07T21:50:00Z,29.57,-90.67,32.0,26.0,270,5,,7.0,29.949802,,,,,,,,,,,SCT,6500,,,,,,,VFR,,,,,,,,,,,,METAR,1.0
KHQZ 072150Z 17015G21KT 10SM CLR 34/20 A2986,KHQZ,2023-07-07T21:50:00Z,32.75,-96.53,34.0,20.0,170,15,21,10.0,29.861221,,,,,,,,,,,CLR,,,,,,,,VFR,,,,,,,,,,,,METAR,136.0
KHOB 072150Z 14018G25KT 10SM SKC 36/13 A2988,KHOB,2023-07-07T21:50:00Z,32.67,-103.22,36.0,13.0,140,18,25,10.0,29.878937,,,,,,,,,,,SKC,,,,,,,,VFR,,,,,,,,,,,,METAR,1112.0
KHNZ 072150Z AUTO 00000KT 10SM SCT049 32/19 A2982 RMK AO2 T03150192,KHNZ,2023-07-07T21:50:00Z,36.37,-78.53,31.5,19.2,0,0,,10.0,29.819881,,,TRUE,TRUE,,,,,,,SCT,4900,,,,,,,VFR,,,,,,,,,,,,SPECI,158.0
KGYI 072150Z 20015G19KT 10SM CLR 33/20 A2987,KGYI,2023-07-07T21:50:00Z,33.72,-96.67,33.0,20.0,200,15,19,10.0,29.870079,,,,,,,,,,,CLR,,,,,,,,VFR,,,,,,,,,,,,METAR,227.0
KGWW 072150Z AUTO 09007G17KT 10SM OVC060 30/23 A2980 RMK AO2 T02950225,KGWW,2023-07-07T21:50:00Z,35.47,-77.97,29.5,22.5,90,7,17,10.0,29.799213,,,TRUE,TRUE,,,,,,,OVC,6000,,,,,,,VFR,,,,,,,,,,,,SPECI,40.0
KGPM 072150Z 17011G16KT 10SM SCT060 35/19 A2988,KGPM,2023-07-07T21:50:00Z,32.7,-97.05,35.0,19.0,170,11,16,10.0,29.878937,,,,,,,,,,,SCT,6000,,,,,,,VFR,,,,,,,,,,,,METAR,178.0
KGNC 072150Z AUTO 17015G26KT 10SM CLR 37/15 A2992 RMK AO2 T03650153,KGNC,2023-07-07T21:50:00Z,32.68,-102.65,36.5,15.3,170,15,26,10.0,29.920275,,,TRUE,TRUE,,,,,,,CLR,,,,,,,,VFR,,,,,,,,,,,,METAR,1002.0
KGEU 072150Z VRB06KT 10SM SKC 41/01 A2968,KGEU,2023-07-07T21:50:00Z,33.53,-112.3,41.0,1.0,0,6,,10.0,29.681103,,,,,,,,,,,SKC,,,,,,,,VFR,,,,,,,,,,,,METAR,319.0
KFYM 072150Z AUTO 34006KT 9SM SCT035 30/22 A2994 RMK A01,KFYM,2023-07-07T21:50:00Z,35.07,-86.57,30.0,22.0,340,6,,9.0,29.940945,,,TRUE,TRUE,,,,,,,SCT,3500,,,,,,,VFR,,,,,,,,,,,,METAR,297.0
KFIN 072150Z 00000KT 10SM SCT060 28/27 A2991,KFIN,2023-07-07T21:50:00Z,29.47,-81.2,28.0,27.0,0,0,,10.0,29.911417,,,,,,,,,,,SCT,6000,,,,,,,VFR,,,,,,,,,,,,METAR,10.0
KEYF 072150Z AUTO 18004KT 10SM SCT050 OVC065 33/23 A2979 RMK AO2 LTG DSNT W THRU N T03270232,KEYF,2023-07-07T21:50:00Z,34.6,-78.58,32.7,23.2,180,4,,10.0,29.790354,,,TRUE,TRUE,,,,,,,SCT,5000,OVC,6500,,,,,VFR,,,,,,,,,,,,SPECI,39.0
KEXX 072150Z AUTO 00000KT 10SM CLR 28/21 A2984 RMK AO2 T02800206,KEXX,2023-07-07T21:50:00Z,35.78,-80.3,28.0,20.6,0,0,,10.0,29.840551,,,TRUE,TRUE,,,,,,,CLR,,,,,,,,VFR,,,,,,,,,,,,SPECI,221.0
KEDE 072150Z AUTO 01005KT 10SM DZ SCT023 BKN044 OVC080 26/25 A2984 RMK AO2 T02640254,KEDE,2023-07-07T21:50:00Z,36.03,-76.57,26.4,25.4,10,5,,10.0,29.840551,,,TRUE,TRUE,,,,,,DZ,SCT,2300,BKN,4400,OVC,8000,,,VFR,,,,,,,,,,,,SPECI,4.0
KEAN 072150Z AUTO 03006KT 10SM CLR 25/05 A3009 RMK AO2 T02450049,KEAN,2023-07-07T21:50:00Z,42.05,-104.93,24.5,4.9,30,6,,10.0,30.088583,,,TRUE,TRUE,,,,,,,CLR,,,,,,,,VFR,,,,,,,,,,,,METAR,1452.0
KDVK 072150Z AUTO 00000KT 10SM CLR 29/15 A2995 RMK AO2,KDVK,2023-07-07T21:50:00Z,37.58,-84.77,29.0,15.0,0,0,,10.0,29.949802,,,TRUE,TRUE,,,,,,,CLR,,,,,,,,VFR,,,,,,,,,,,,SPECI,309.0
KDAG 072150Z AUTO 26010G22KT 230V300 10SM CLR 38/M07 A2972 RMK AO2 SLP034 T03781067,KDAG,2023-07-07T21:50:00Z,34.85,-116.78,37.8,-6.7,260,10,22,10.0,29.719488,1003.4,,TRUE,TRUE,,,,,,,CLR,,,,,,,,VFR,,,,,,,,,,,,METAR,584.0
KCGS 072150Z AUTO 16003KT 10SM CLR 31/21 A2982 RMK AO2 T03080214,KCGS,2023-07-07T21:50:00Z,38.98,-76.92,30.8,21.4,160,3,,10.0,29.819881,,,TRUE,TRUE,,,,,,,CLR,,,,,,,,VFR,,,,,,,,,,,,METAR,15.0
KBMC 072150Z AUTO 32007KT 10SM CLR 32/M03 A2988 RMK AO1 T03201031,KBMC,2023-07-07T21:50:00Z,41.55,-112.07,32.0,-3.1,320,7,,10.0,29.878937,,,TRUE,TRUE,,,,,,,CLR,,,,,,,,VFR,,,,,,,,,,,,METAR,1289.0
KBAK 072150Z 00000KT 10SM CLR 28/16 A2992,KBAK,2023-07-07T21:50:00Z,39.27,-85.9,28.0,16.0,0,0,,10.0,29.920275,,,,,,,,,,,CLR,,,,,,,,VFR,,,,,,,,,,,,METAR,199.0
KANK 072150Z AUTO 26012G28KT 10SM CLR A3017 RMK AO1,KANK,2023-07-07T21:50:00Z,38.53,-106.05,,,260,12,28,10.0,30.171259,,,TRUE,TRUE,,,,,,,CLR,,,,,,,,VFR,,,,,,,,,,,,METAR,2293.0
KANE 072150Z 23008KT 10SM OVC200 24/07 A2995,KANE,2023-07-07T21:50:00Z,45.15,-93.22,24.0,7.0,230,8,,10.0,29.949802,,,,,,,,,,,OVC,20000,,,,,,,VFR,,,,,,,,,,,,METAR,276.0
KALN 072150Z 09009KT 10SM CLR 27/18 A2993,KALN,2023-07-07T21:50:00Z,38.88,-90.03,27.0,18.0,90,9,,10.0,29.929134,,,,,,,,,,,CLR,,,,,,,,VFR,,,,,,,,,,,,METAR,159.0
KADT 072150Z AUTO 10SM CLR A3001 RMK AO2,KADT,2023-07-07T21:50:00Z,39.83,-101.05,,,,,,10.0,30.008858,,,TRUE,TRUE,,,,,,,CLR,,,,,,,,VFR,,,,,,,,,,,,SPECI,899.0
KADM 072150Z 17005KT 10SM CLR 34/22 A2986,KADM,2023-07-07T21:50:00Z,34.3,-97.02,34.0,22.0,170,5,,10.0,29.861221,,,,,,,,,,,CLR,,,,,,,,VFR,,,,,,,,,,,,METAR,223.0
K8A3 072150Z AUTO 00000KT 10SM FEW048 29/19 A2993 RMK A01,K8A3,2023-07-07T21:50:00Z,36.42,-85.32,29.0,19.0,0,0,,10.0,29.929134,,,TRUE,TRUE,,,,,,,FEW,4800,,,,,,,VFR,,,,,,,,,,,,METAR,413.0
K2W6 072150Z AUTO 00000KT 10SM CLR 26/25 A2984 RMK AO1 P0003,K2W6,2023-07-07T21:50:00Z,38.32,-76.55,26.0,25.0,0,0,,10.0,29.840551,,,TRUE,TRUE,,,,,,,CLR,,,,,,,,VFR,,,,,,0.03,,,,,,METAR,40.0
K05U 072150Z AUTO 02006G14KT 10SM CLR 32/M05 A2995 RMK A01,K05U,2023-07-07T21:50:00Z,39.6,-116.0,32.0,-5.0,20,6,14,10.0,29.949802,,,TRUE,TRUE,,,,,,,CLR,,,,,,,,VFR,,,,,,,,,,,,METAR,1813.0
FHAW 072150Z 13013KT 9999 FEW030 25/18 Q1016 NOSIG RMK BLU BLU,FHAW,2023-07-07T21:50:00Z,-7.97,-14.4,25.0,18.0,130,13,,6.21,30.0,,,,,,TRUE,,,,,FEW,3000,,,,,,,VFR,,,,,,,,,,,,METAR,79.0
EYVI 072150Z 28003KT CAVOK 16/07 Q1022 NOSIG,EYVI,2023-07-07T21:50:00Z,54.63,25.28,16.0,7.0,280,3,,6.21,30.177166,,,,,,TRUE,,,,,CAVOK,,,,,,,,VFR,,,,,,,,,,,,METAR,180.0
EYSA 072150Z 24006KT CAVOK 13/09 Q1021 NOSIG,EYSA,2023-07-07T21:50:00Z,55.9,23.4,13.0,9.0,240,6,,6.21,30.147638,,,,,,TRUE,,,,,CAVOK,,,,,,,,VFR,,,,,,,,,,,,METAR,135.0
EYPA 072150Z 25005KT 190V320 CAVOK 17/13 Q1021,EYPA,2023-07-07T21:50:00Z,55.97,21.08,17.0,13.0,250,5,,6.21,30.147638,,,,,,,,,,,CAVOK,,,,,,,,VFR,,,,,,,,,,,,METAR,15.0
EYKA 072150Z 27001KT CAVOK 12/08 Q1022,EYKA,2023-07-07T21:50:00Z,54.97,24.08,12.0,8.0,270,1,,6.21,30.177166,,,,,,,,,,,CAVOK,,,,,,,,VFR,,,,,,,,,,,,METAR,68.0
EVVA 072150Z AUTO 22009KT CAVOK 16/15 Q1018,EVVA,2023-07-07T21:50:00Z,57.35,21.55,16.0,15.0,220,9,,6.21,30.059055,,,TRUE,,,,,,,,CAVOK,,,,,,,,VFR,,,,,,,,,,,,METAR,1.0
EVRA 072150Z 20003KT CAVOK 13/10 Q1019 NOSIG,EVRA,2023-07-07T21:50:00Z,56.92,23.97,13.0,10.0,200,3,,6.21,30.088583,,,,,,TRUE,,,,,CAVOK,,,,,,,,VFR,,,,,,,,,,,,METAR,7.0
EVLA 072150Z AUTO 24008KT CAVOK 16/14 Q1020,EVLA,2023-07-07T21:50:00Z,56.52,21.1,16.0,14.0,240,8,,6.21,30.11811,,,TRUE,,,,,,,,CAVOK,,,,,,,,VFR,,,,,,,,,,,,METAR,5.0
EVGA 072150Z AUTO 20003KT CAVOK 12/10 Q1020,EVGA,2023-07-07T21:50:00Z,56.78,24.85,12.0,10.0,200,3,,6.21,30.11811,,,TRUE,,,,,,,,CAVOK,,,,,,,,VFR,,,,,,,,,,,,METAR,61.0
ESUT 072150Z AUTO 29005KT 9999 BKN098/// OVC110/// 12/11 Q1019,ESUT,2023-07-07T21:50:00Z,65.8,15.08,12.0,11.0,290,5,,6.21,30.088583,,,TRUE,,,,,,,,BKN,9800,OVC,11000,,,,,VFR,,,,,,,,,,,,METAR,457.0
ESUP 072150Z AUTO 06006KT 030V110 9999 // FEW058/// SCT100/// 13/09 Q1019,ESUP,2023-07-07T21:50:00Z,67.25,23.07,13.0,9.0,60,6,,6.21,30.088583,,,TRUE,,,,,,,,FEW,5800,SCT,10000,,,,,VFR,,,,,,,,,,,,METAR,164.0
ESTA 072150Z AUTO 00000KT 9999 NCD 13/12 Q1023,ESTA,2023-07-07T21:50:00Z,56.28,12.83,13.0,12.0,0,0,,6.21,30.206694,,,TRUE,,,,,,,,CLR,,,,,,,,VFR,,,,,,,,,,,,METAR,19.0
ESSV 072150Z AUTO 30008KT 9999 NCD 17/12 Q1019,ESSV,2023-07-07T21:50:00Z,57.67,18.35,17.0,12.0,300,8,,6.21,30.088583,,,TRUE,,,,,,,,CLR,,,,,,,,VFR,,,,,,,,,,,,METAR,38.0
ESST 072150Z AUTO 33002KT 4700 NCD 14/14 Q1019,ESST,2023-07-07T21:50:00Z,60.15,12.98,14.0,14.0,330,2,,2.92,30.088583,,,TRUE,,,,,,,,CLR,,,,,,,,IFR,,,,,,,,,,,,METAR,110.0
ESSP 072150Z AUTO 26009KT 9999 FEW088/// 16/10 Q1019,ESSP,2023-07-07T21:50:00Z,58.58,16.25,16.0,10.0,260,9,,6.21,30.088583,,,TRUE,,,,,,,,FEW,8800,,,,,,,VFR,,,,,,,,,,,,METAR,3.0
ESSL 072150Z AUTO 26008KT 9999 NCD 16/09 Q1020,ESSL,2023-07-07T21:50:00Z,58.4,15.67,16.0,9.0,260,8,,6.21,30.11811,,,TRUE,,,,,,,,CLR,,,,,,,,VFR,,,,,,,,,,,,METAR,51.0
ESSD 072150Z AUTO 26005KT 9999 FEW090/// 13/12 Q1018,ESSD,2023-07-07T21:50:00Z,60.42,15.5,13.0,12.0,260,5,,6.21,30.059055,,,TRUE,,,,,,,,FEW,9000,,,,,,,VFR,,,,,,,,,,,,METAR,151.0
ESSB 072150Z AUTO 26005KT 9999 SCT038/// 15/13 Q1018,ESSB,2023-07-07T21:50:00Z,59.35,17.93,15.0,13.0,260,5,,6.21,30.059055,,,TRUE,,,,,,,,SCT,3800,,,,,,,VFR,,,,,,,,,,,,METAR,14.0
ESSA 072150Z 24003KT CAVOK 12/12 Q1017 NOSIG,ESSA,2023-07-07T21:50:00Z,59.65,17.93,12.0,12.0,240,3,,6.21,30.029528,,,,,,TRUE,,,,,CAVOK,,,,,,,,VFR,,,,,,,,,,,,METAR,36.0
ESPE 072150Z AUTO VRB02KT 9999 SCT076/// OVC098/// 14/14 Q1017,ESPE,2023-07-07T21:50:00Z,65.88,20.15,14.0,14.0,0,2,,6.21,30.029528,,,TRUE,,,,,,,,SCT,7600,OVC,9800,,,,,VFR,,,,,,,,,,,,METAR,182.0
ESPA 072150Z 36004KT 9999 -RA NSC 17/14 Q1016,ESPA,2023-07-07T21:50:00Z,65.53,22.12,17.0,14.0,360,4,,6.21,30.0,,,,,,,,,,-RA,CLR,,,,,,,,VFR,,,,,,,,,,,,METAR,12.0
ESOK 072150Z AUTO 24003KT 9999 NCD 14/12 Q1019 REDZ,ESOK,2023-07-07T21:50:00Z,59.45,13.33,14.0,12.0,240,3,,6.21,30.088583,,,TRUE,,,,,,,,CLR,,,,,,,,VFR,,,,,,,,,,,,METAR,101.0
ESOH 072150Z AUTO 00000KT 9999 NCD 12/11 Q1019,ESOH,2023-07-07T21:50:00Z,60.02,13.58,12.0,11.0,0,0,,6.21,30.088583,,,TRUE,,,,,,,,CLR,,,,,,,,VFR,,,,,,,,,,,,METAR,145.0
ESOE 072150Z AUTO 24005KT 200V270 9999 NCD 14/12 Q1019,ESOE,2023-07-07T21:50:00Z,59.22,15.05,14.0,12.0,240,5,,6.21,30.088583,,,TRUE,,,,,,,,CLR,,,,,,,,VFR,,,,,,,,,,,,METAR,57.0
ESNZ 072150Z AUTO 28014KT 9999 FEW066/// 13/M02 Q1019,ESNZ,2023-07-07T21:50:00Z,63.18,14.5,13.0,-2.0,280,14,,6.21,30.088583,,,TRUE,,,,,,,,FEW,6600,,,,,,,VFR,,,,,,,,,,,,METAR,360.0
ESNX 072150Z AUTO /////KT 9999 ///////// 13/13 Q1018,ESNX,2023-07-07T21:50:00Z,65.58,19.28,13.0,13.0,,,,6.21,30.059055,,,TRUE,,,,,,,,,,,,,,,,,,,,,,,,,,,,METAR,380.0
ESNV 072150Z AUTO 00000KT 9999 FEW081/// SCT098/// 11/09 Q1018,ESNV,2023-07-07T21:50:00Z,64.58,16.83,11.0,9.0,0,0,,6.21,30.059055,,,TRUE,,,,,,,,FEW,8100,SCT,9800,,,,,VFR,,,,,,,,,,,,METAR,348.0
ESNU 072150Z 00000KT CAVOK 12/11 Q1016,ESNU,2023-07-07T21:50:00Z,63.78,20.28,12.0,11.0,0,0,,6.21,30.0,,,,,,,,,,,CAVOK,,,,,,,,VFR,,,,,,,,,,,,METAR,8.0
ESNS 072150Z AUTO 26003KT 9999 FEW100/// 13/13 Q1016,ESNS,2023-07-07T21:50:00Z,64.62,21.07,13.0,13.0,260,3,,6.21,30.0,,,TRUE,,,,,,,,FEW,10000,,,,,,,VFR,,,,,,,,,,,,METAR,41.0
ESNQ 072150Z AUTO 10003KT 070V140 9999 OVC090/// 12/08 Q1019,ESNQ,2023-07-07T21:50:00Z,67.82,20.33,12.0,8.0,100,3,,6.21,30.088583,,,TRUE,,,,,,,,OVC,9000,,,,,,,VFR,,,,,,,,,,,,METAR,447.0
ESNO 072150Z AUTO 32004KT 9999 NCD 13/13 Q1016,ESNO,2023-07-07T21:50:00Z,63.4,18.97,13.0,13.0,320,4,,6.21,30.0,,,TRUE,,,,,,,,CLR,,,,,,,,VFR,,,,,,,,,,,,METAR,100.0
ESNN 072150Z AUTO 33003KT 0050 R16/0550N R34/0200N FG VV001 14/13 Q1017,ESNN,2023-07-07T21:50:00Z,62.52,17.43,14.0,13.0,330,3,,0.03,30.029528,,,TRUE,,,,,,,FG,OVX,0,,,,,,,LIFR,,,,,,,,,,,100,METAR,4.0
ESNL 072150Z AUTO 00000KT 9999 NCD 12/11 Q1017,ESNL,2023-07-07T21:50:00Z,64.55,18.72,12.0,11.0,0,0,,6.21,30.029528,,,TRUE,,,,,,,,CLR,,,,,,,,VFR,,,,,,,,,,,,METAR,220.0
ESNK 072150Z AUTO VRB02KT //// R17///// R35///// NCD 13/13 Q1017,ESNK,2023-07-07T21:50:00Z,63.03,17.77,13.0,13.0,0,2,,,30.029528,,,TRUE,,,,,,,,CLR,,,,,,,,,,,,,,,,,,,,METAR,4.0
ESNG 072150Z AUTO 10003KT 9999 ////// 14/10 Q1018,ESNG,2023-07-07T21:50:00Z,67.13,20.82,14.0,10.0,100,3,,6.21,30.059055,,,TRUE,,,,,,,,,,,,,,,,,,,,,,,,,,,,METAR,300.0
ESND 072150Z AUTO /////KT //// R09///// BKN070/// 13/10 Q1020,ESND,2023-07-07T21:50:00Z,62.05,14.42,13.0,10.0,,,,,30.11811,,,TRUE,,,,,,,,BKN,7000,,,,,,,,,,,,,,,,,,,METAR,352.0
ESMX 072150Z AUTO 28004KT 9999 NCD 14/11 Q1022,ESMX,2023-07-07T21:50:00Z,56.92,14.72,14.0,11.0,280,4,,6.21,30.177166,,,TRUE,,,,,,,,CLR,,,,,,,,VFR,,,,,,,,,,,,METAR,176.0
ESMV 072150Z AUTO 23004KT 9999 NCD 12/09 Q1022,ESMV,2023-07-07T21:50:00Z,57.28,14.13,12.0,9.0,230,4,,6.21,30.177166,,,TRUE,,,,,,,,CLR,,,,,,,,VFR,,,,,,,,,,,,METAR,167.0
ESMT 072150Z AUTO 00000KT 9999 NCD 15/13 Q1022,ESMT,2023-07-07T21:50:00Z,56.68,12.82,15.0,13.0,0,0,,6.21,30.177166,,,TRUE,,,,,,,,CLR,,,,,,,,VFR,,,,,,,,,,,,METAR,24.0
ESMS 072150Z VRB01KT CAVOK 11/09 Q1023,ESMS,2023-07-07T21:50:00Z,55.53,13.37,11.0,9.0,0,1,,6.21,30.206694,,,,,,,,,,,CAVOK,,,,,,,,VFR,,,,,,,,,,,,METAR,68.0
ESMQ 072150Z AUTO 27007KT 9999 NCD 16/10 Q1021,ESMQ,2023-07-07T21:50:00Z,56.68,16.3,16.0,10.0,270,7,,6.21,30.147638,,,TRUE,,,,,,,,CLR,,,,,,,,VFR,,,,,,,,,,,,METAR,3.0
ESMK 072150Z AUTO 27004KT 9999 NCD 14/09 Q1022,ESMK,2023-07-07T21:50:00Z,55.92,14.08,14.0,9.0,270,4,,6.21,30.177166,,,TRUE,,,,,,,,CLR,,,,,,,,VFR,,,,,,,,,,,,METAR,20.0
ESKN 072150Z 27007KT CAVOK 14/12 Q1019,ESKN,2023-07-07T21:50:00Z,58.78,16.92,14.0,12.0,270,7,,6.21,30.088583,,,,,,,,,,,CAVOK,,,,,,,,VFR,,,,,,,,,,,,METAR,41.0
ESKM 072150Z AUTO VRB01KT 0250 R16/P2000N R34/0700N NCD 12/12 Q1019,ESKM,2023-07-07T21:50:00Z,60.97,14.52,12.0,12.0,0,1,,0.16,30.088583,,,TRUE,,,,,,,,CLR,,,,,,,,LIFR,,,,,,,,,,,,METAR,184.0
ESIB 072150Z AUTO 20005KT 9999 OVC180/// 14/12 Q1020,ESIB,2023-07-07T21:50:00Z,58.42,12.7,14.0,12.0,200,5,,6.21,30.11811,,,TRUE,,,,,,,,OVC,18000,,,,,,,VFR,,,,,,,,,,,,METAR,51.0
ESIA 072150Z AUTO 26006KT 9999 BKN100/// 15/11 Q1020,ESIA,2023-07-07T21:50:00Z,58.52,14.5,15.0,11.0,260,6,,6.21,30.11811,,,TRUE,,,,,,,,BKN,10000,,,,,,,VFR,,,,,,,,,,,,METAR,94.0
ESGT 072150Z AUTO 16006KT 9999 FEW150/// 12/10 Q1021,ESGT,2023-07-07T21:50:00Z,58.32,12.33,12.0,10.0,160,6,,6.21,30.147638,,,TRUE,,,,,,,,FEW,15000,,,,,,,VFR,,,,,,,,,,,,METAR,40.0
ESGP 072150Z AUTO 24007KT 9999 SCT150/// 15/13 Q1021,ESGP,2023-07-07T21:50:00Z,57.77,11.87,15.0,13.0,240,7,,6.21,30.147638,,,TRUE,,,,,,,,SCT,15000,,,,,,,VFR,,,,,,,,,,,,METAR,15.0
ESGJ 072150Z 25007KT CAVOK 13/10 Q1021,ESGJ,2023-07-07T21:50:00Z,57.77,14.07,13.0,10.0,250,7,,6.21,30.147638,,,,,,,,,,,CAVOK,,,,,,,,VFR,,,,,,,,,,,,METAR,224.0
ESGG 072150Z 22005KT CAVOK 13/11 Q1022,ESGG,2023-07-07T21:50:00Z,57.67,12.3,13.0,11.0,220,5,,6.21,30.177166,,,,,,,,,,,CAVOK,,,,,,,,VFR,,,,,,,,,,,,METAR,152.0
ESDF 072150Z AUTO 00000KT 9999 NCD 12/10 Q1022,ESDF,2023-07-07T21:50:00Z,56.27,15.27,12.0,10.0,0,0,,6.21,30.177166,,,TRUE,,,,,,,,CLR,,,,,,,,VFR,,,,,,,,,,,,METAR,52.0
ESCM 072150Z AUTO 00000KT 9999 4400// NCD 12/12 Q1018,ESCM,2023-07-07T21:50:00Z,59.88,17.6,12.0,12.0,0,0,,6.21,30.059055,,,TRUE,,,,,,,,CLR,,,,,,,,VFR,,,,,,,,,,,,METAR,21.0
ESCF 072150Z AUTO 25007KT 9999 FEW096/// 15/10 Q1020,ESCF,2023-07-07T21:50:00Z,58.38,15.52,15.0,10.0,250,7,,6.21,30.11811,,,TRUE,,,,,,,,FEW,9600,,,,,,,VFR,,,,,,,,,,,,METAR,86.0
ENZV 072150Z 17003KT CAVOK 15/11 Q1022,ENZV,2023-07-07T21:50:00Z,58.88,5.63,15.0,11.0,170,3,,6.21,30.177166,,,,,,,,,,,CAVOK,,,,,,,,VFR,,,,,,,,,,,,METAR,7.0
ENWV 072150Z AUTO 14021KT 9999NDV NCD 16/13 Q1020 W///S3,ENWV,2023-07-07T21:50:00Z,56.28,3.4,16.0,13.0,140,21,,,30.11811,,,TRUE,,,,,,,,CLR,,,,,,,,,,,,,,,,,,,,METAR,30.0
ENVD 072150Z VRB02KT 9999 BKN010 07/05 Q1021,ENVD,2023-07-07T21:50:00Z,70.07,29.85,7.0,5.0,0,2,,6.21,30.147638,,,,,,,,,,,BKN,1000,,,,,,,MVFR,,,,,,,,,,,,METAR,39.0
ENVA 072150Z 27010KT 9999 SCT026 BKN083 15/12 Q1022 RMK WIND 670FT 28014KT,ENVA,2023-07-07T21:50:00Z,63.47,10.92,15.0,12.0,270,10,,6.21,30.177166,,,,,,,,,,,SCT,2600,BKN,8300,,,,,VFR,,,,,,,,,,,,METAR,12.0
ENUN 072150Z AUTO 31008KT 9999NDV OVC005/// 09/09 Q1022 W11/S3,ENUN,2023-07-07T21:50:00Z,,,9.0,9.0,310,8,,,30.177166,,,TRUE,,,,,,,,OVC,500,,,,,,,,,,,,,,,,,,,METAR,
ENUG 072150Z AUTO 09013G23KT 9999NDV NCD 09/06 Q1020 W///S3,ENUG,2023-07-07T21:50:00Z,71.3,22.25,9.0,6.0,90,13,23,,30.11811,,,TRUE,,,,,,,,CLR,,,,,,,,,,,,,,,,,,,,METAR,30.0
ENTO 072150Z 36003KT 310V030 CAVOK 17/12 Q1019,ENTO,2023-07-07T21:50:00Z,59.2,10.27,17.0,12.0,360,3,,6.21,30.088583,,,,,,,,,,,CAVOK,,,,,,,,VFR,,,,,,,,,,,,METAR,84.0
ENTC 072150Z 01006KT CAVOK 12/08 Q1018 RMK WIND 2600FT 22004KT,ENTC,2023-07-07T21:50:00Z,69.68,18.92,12.0,8.0,10,6,,6.21,30.059055,,,,,,,,,,,CAVOK,,,,,,,,VFR,,,,,,,,,,,,METAR,9.0
ENSS 072150Z AUTO 32005KT 9999 NCD 06/05 Q1021 RMK WIND 0500FT 35014KT,ENSS,2023-07-07T21:50:00Z,70.35,31.05,6.0,5.0,320,5,,6.21,30.147638,,,TRUE,,,,,,,,CLR,,,,,,,,VFR,,,,,,,,,,,,METAR,13.0
ENSR 072150Z AUTO 15008KT 9999 NCD 15/08 Q1018 RMK WIND RWY32 14007KT WIND 1118FT 14017KT,ENSR,2023-07-07T21:50:00Z,69.78,20.97,15.0,8.0,150,8,,6.21,30.059055,,,TRUE,,,,,,,,CLR,,,,,,,,VFR,,,,,,,,,,,,METAR,5.0
ENSL 072150Z AUTO 18019KT 9999NDV NCD 15/14 Q1019 W12/S3,ENSL,2023-07-07T21:50:00Z,58.37,1.9,15.0,14.0,180,19,,,30.088583,,,TRUE,,,,,,,,CLR,,,,,,,,,,,,,,,,,,,,METAR,50.0
ENSK 072150Z AUTO VRB03KT 9999 NCD 11/10 Q1019,ENSK,2023-07-07T21:50:00Z,68.57,15.02,11.0,10.0,0,3,,6.21,30.088583,,,TRUE,,,,,,,,CLR,,,,,,,,VFR,,,,,,,,,,,,METAR,3.0
ENSH 072150Z AUTO 22009KT 5000 OVC003/// 11/11 Q1020 RMK WIND 0150FT 19012KT,ENSH,2023-07-07T21:50:00Z,68.25,14.67,11.0,11.0,220,9,,3.11,30.11811,,,TRUE,,,,,,,,OVC,300,,,,,,,LIFR,,,,,,,,,,,,METAR,9.0
ENSG 072150Z AUTO 00000KT 9999 SCT080/// BKN108/// 11/07 Q1022 RMK WIND 3806FT 29007KT,ENSG,2023-07-07T21:50:00Z,61.15,7.13,11.0,7.0,0,0,,6.21,30.177166,,,TRUE,,,,,,,,SCT,8000,BKN,10800,,,,,VFR,,,,,,,,,,,,METAR,493.0
ENSE 072150Z AUTO 13021KT //// OVC004/// 14/13 Q1020 W///S4,ENSE,2023-07-07T21:50:00Z,61.45,2.15,14.0,13.0,130,21,,,30.11811,,,TRUE,,,,,,,,OVC,400,,,,,,,,,,,,,,,,,,,METAR,10.0
ENSD 072150Z AUTO VRB03KT 9999 FEW100/// 16/12 Q1022 RMK WIND RWY26 VRB03KT WIND 1140FT 29005KT,ENSD,2023-07-07T21:50:00Z,61.82,6.12,16.0,12.0,0,3,,6.21,30.177166,,,TRUE,,,,,,,,FEW,10000,,,,,,,VFR,,,,,,,,,,,,METAR,61.0
ENSB 072150Z 26018KT 9999 FEW001 09/06 Q1022 RMK WIND 1400FT VRB01KT,ENSB,2023-07-07T21:50:00Z,78.25,15.47,9.0,6.0,260,18,,6.21,30.177166,,,,,,,,,,,FEW,100,,,,,,,VFR,,,,,,,,,,,,METAR,30.0
ENRY 072150Z AUTO 16006KT 9999 NCD 16/13 Q1019,ENRY,2023-07-07T21:50:00Z,59.37,10.77,16.0,13.0,160,6,,6.21,30.088583,,,TRUE,,,,,,,,CLR,,,,,,,,VFR,,,,,,,,,,,,METAR,45.0
ENRS 072150Z AUTO 29008KT 8000 OVC004/// 10/10 Q1021,ENRS,2023-07-07T21:50:00Z,67.52,12.1,10.0,10.0,290,8,,4.97,30.147638,,,TRUE,,,,,,,,OVC,400,,,,,,,LIFR,,,,,,,,,,,,METAR,4.0
ENRO 072150Z AUTO 28002KT 9999 OVC027/// 12/09 Q1022,ENRO,2023-07-07T21:50:00Z,62.57,11.33,12.0,9.0,280,2,,6.21,30.177166,,,TRUE,,,,,,,,OVC,2700,,,,,,,MVFR,,,,,,,,,,,,METAR,624.0
ENRM 072150Z AUTO 29003KT 260V330 9999 OVC015/// 12/09 Q1023,ENRM,2023-07-07T21:50:00Z,64.83,11.13,12.0,9.0,290,3,,6.21,30.206694,,,TRUE,,,,,,,,OVC,1500,,,,,,,MVFR,,,,,,,,,,,,METAR,4.0
ENRA 072150Z AUTO 27004KT 210V330 9999 SCT019/// 12/10 Q1020,ENRA,2023-07-07T21:50:00Z,66.37,14.3,12.0,10.0,270,4,,6.21,30.11811,,,TRUE,,,,,,,,SCT,1900,,,,,,,VFR,,,,,,,,,,,,METAR,66.0
ENQR 072150Z AUTO 13017KT 5000NDV OVC004/// 14/13 Q1020 W11/S4,ENQR,2023-07-07T21:50:00Z,61.52,2.22,14.0,13.0,130,17,,,30.11811,,,TRUE,,,,,,,,OVC,400,,,,,,,,,,,,,,,,,,,METAR,10.0
ENQC 072150Z AUTO 13020KT 9999NDV OVC034/// 17/13 Q1020 W///S3,ENQC,2023-07-07T21:50:00Z,60.88,3.62,17.0,13.0,130,20,,,30.11811,,,TRUE,,,,,,,,OVC,3400,,,,,,,,,,,,,,,,,,,METAR,20.0
ENQA 072150Z AUTO 14019KT 9999NDV FEW013/// SCT034/// BKN054/// 15/12 Q1021 W18/S3,ENQA,2023-07-07T21:50:00Z,60.65,3.72,15.0,12.0,140,19,,,30.147638,,,TRUE,,,,,,,,FEW,1300,SCT,3400,BKN,5400,,,,,,,,,,,,,,,METAR,90.0
ENOL 072150Z 33003KT 9999 FEW009 12/12 Q1022,ENOL,2023-07-07T21:50:00Z,63.7,9.6,12.0,12.0,330,3,,6.21,30.177166,,,,,,,,,,,FEW,900,,,,,,,VFR,,,,,,,,,,,,METAR,9.0
ENNM 072150Z AUTO 30004KT 270V340 9999 OVC011/// 13/11 Q1022,ENNM,2023-07-07T21:50:00Z,64.47,11.57,13.0,11.0,300,4,,6.21,30.177166,,,TRUE,,,,,,,,OVC,1100,,,,,,,MVFR,,,,,,,,,,,,METAR,2.0
ENNE 072150Z AUTO 35009KT 5000NDV OVC011/// 10/09 Q1022 W///S3,ENNE,2023-07-07T21:50:00Z,66.03,8.08,10.0,9.0,350,9,,,30.177166,,,TRUE,,,,,,,,OVC,1100,,,,,,,,,,,,,,,,,,,METAR,10.0
ENNA 072150Z AUTO VRB02KT 9999 NCD 08/06 Q1021 RMK WIND 1800FT 07005KT,ENNA,2023-07-07T21:50:00Z,70.07,24.97,8.0,6.0,0,2,,6.21,30.147638,,,TRUE,,,,,,,,CLR,,,,,,,,VFR,,,,,,,,,,,,METAR,12.0
ENMS 072150Z AUTO 35006KT 9999 NCD 13/10 Q1021 RMK WIND 412FT VRB05KT,ENMS,2023-07-07T21:50:00Z,65.78,13.22,13.0,10.0,350,6,,6.21,30.147638,,,TRUE,,,,,,,,CLR,,,,,,,,VFR,,,,,,,,,,,,METAR,44.0
ENML 072150Z 03006KT 010V070 CAVOK 13/11 Q1023,ENML,2023-07-07T21:50:00Z,62.75,7.27,13.0,11.0,30,6,,6.21,30.206694,,,,,,,,,,,CAVOK,,,,,,,,VFR,,,,,,,,,,,,METAR,3.0
ENMH 072150Z VRB02KT CAVOK 06/05 Q1022,ENMH,2023-07-07T21:50:00Z,71.02,27.82,6.0,5.0,0,2,,6.21,30.177166,,,,,,,,,,,CAVOK,,,,,,,,VFR,,,,,,,,,,,,METAR,10.0
ENLE 072150Z 13021KT CAVOK 16/11 Q1020 W15/S3,ENLE,2023-07-07T21:50:00Z,56.53,3.22,16.0,11.0,130,21,,6.21,30.11811,,,,,,,,,,,CAVOK,,,,,,,,VFR,,,,,,,,,,,,METAR,10.0
ENLA 072150Z AUTO 15010KT 9999NDV NCD 15/13 Q1019 W///S3,ENLA,2023-07-07T21:50:00Z,57.1,2.83,15.0,13.0,150,10,,,30.088583,,,TRUE,,,,,,,,CLR,,,,,,,,,,,,,,,,,,,,METAR,10.0
ENKR 072150Z 09003KT CAVOK 06/04 Q1021 RMK WIND 731FT 11004KT,ENKR,2023-07-07T21:50:00Z,69.72,29.88,6.0,4.0,90,3,,6.21,30.147638,,,,,,,,,,,CAVOK,,,,,,,,VFR,,-0.4,,,,,,,,,,METAR,86.0
ENKB 072150Z AUTO VRB02KT 9999 NCD 13/11 Q1023 RMK WIND 745FT 34003KT,ENKB,2023-07-07T21:50:00Z,63.12,7.82,13.0,11.0,0,2,,6.21,30.206694,,,TRUE,,,,,,,,CLR,,,,,,,,VFR,,,,,,,,,,,,METAR,62.0
ENJS 072150Z 17017KT 9000 NSC 14/14 Q1020 W14/S/,ENJS,2023-07-07T21:50:00Z,,,14.0,14.0,170,17,,5.59,30.11811,,,,,,,,,,,CLR,,,,,,,,VFR,,,,,,,,,,,,METAR,
ENHV 072150Z AUTO 01007KT 9999 NCD 08/07 Q1022,ENHV,2023-07-07T21:50:00Z,71.02,25.97,8.0,7.0,10,7,,6.21,30.177166,,,TRUE,,,,,,,,CLR,,,,,,,,VFR,,,,,,,,,,,,METAR,13.0
ENHM 072150Z AUTO 16016KT //// NCD 14/14 Q1020 W15/S/,ENHM,2023-07-07T21:50:00Z,59.57,2.23,14.0,14.0,160,16,,,30.11811,,,TRUE,,,,,,,,CLR,,,,,,,,,,,,,,,,,,,,METAR,10.0
ENHK 072150Z AUTO 10010KT 9999 NCD 14/08 Q1019,ENHK,2023-07-07T21:50:00Z,70.48,22.13,14.0,8.0,100,10,,6.21,30.088583,,,TRUE,,,,,,,,CLR,,,,,,,,VFR,,,,,,,,,,,,METAR,6.0
ENHF 072150Z 04007KT CAVOK 11/06 Q1020 RMK WIND 1254FT 10009KT,ENHF,2023-07-07T21:50:00Z,70.67,23.67,11.0,6.0,40,7,,6.21,30.11811,,,,,,,,,,,CAVOK,,,,,,,,VFR,,0.9,,,,,,,,,,METAR,79.0
ENHE 072150Z 32004KT 270V350 9999 BKN015 11/08 Q1023 W///S3,ENHE,2023-07-07T21:50:00Z,65.33,2.33,11.0,8.0,320,4,,6.21,30.206694,,,,,,,,,,,BKN,1500,,,,,,,MVFR,,,,,,,,,,,,METAR,10.0
ENHD 072150Z 17005KT CAVOK 15/11 Q1021,ENHD,2023-07-07T21:50:00Z,59.35,5.22,15.0,11.0,170,5,,6.21,30.147638,,,,,,,,,,,CAVOK,,,,,,,,VFR,,,,,,,,,,,,METAR,22.0
ENGM 072150Z 36003KT CAVOK 15/13 Q1020,ENGM,2023-07-07T21:50:00Z,60.2,11.07,15.0,13.0,360,3,,6.21,30.11811,,,,,,,,,,,CAVOK,,,,,,,,VFR,,,,,,,,,,,,METAR,204.0
ENGC 072150Z 15022KT 9999 BKN008 15/13 Q1020 W13/S4,ENGC,2023-07-07T21:50:00Z,61.02,2.02,15.0,13.0,150,22,,6.21,30.11811,,,,,,,,,,,BKN,800,,,,,,,IFR,,,,,,,,,,,,METAR,10.0
ENFL 072150Z AUTO 36004KT 9999NDV OVC068/// 16/10 Q1022,ENFL,2023-07-07T21:50:00Z,61.57,5.02,16.0,10.0,360,4,,,30.177166,,,TRUE,,,,,,,,OVC,6800,,,,,,,,,,,,,,,,,,,METAR,1.0
ENFB 072150Z AUTO 14020KT 9999NDV FEW007/// OVC038/// 15/14 Q1020 W///S4,ENFB,2023-07-07T21:50:00Z,61.2,1.83,15.0,14.0,140,20,,,30.11811,,,TRUE,,,,,,,,FEW,700,OVC,3800,,,,,,,,,,,,,,,,,METAR,10.0
ENEV 072150Z 14005KT 9999 VCFG SCT070 13/11 Q1019 RMK WIND 1400FT 24013KT,ENEV,2023-07-07T21:50:00Z,68.48,16.67,13.0,11.0,140,5,,6.21,30.088583,,,,,,,,,,VCFG,SCT,7000,,,,,,,VFR,,,,,,,,,,,,METAR,26.0
ENDU 072150Z VRB01KT 9999 FEW050TCU SCT060 16/11 Q1018 RMK WIND 1100FT 21003KT WIND 2200FT 16003KT,ENDU,2023-07-07T21:50:00Z,69.05,18.55,16.0,11.0,0,1,,6.21,30.059055,,,,,,,,,,,FEW,5000,SCT,6000,,,,,VFR,,,-0.3,,,,,,,,,METAR,65.0
ENDR 072150Z AUTO 02005KT 300V050 9999NDV OVC015/// 12/09 Q1023 W///S4,ENDR,2023-07-07T21:50:00Z,64.35,7.77,12.0,9.0,20,5,,,30.206694,,,TRUE,,,,,,,,OVC,1500,,,,,,,,,,,,,,,,,,,METAR,10.0
ENCN 072150Z 16004KT CAVOK 16/13 Q1022,ENCN,2023-07-07T21:50:00Z,58.2,8.07,16.0,13.0,160,4,,6.21,30.177166,,,,,,,,,,,CAVOK,,,,,,,,VFR,,,,,,,,,,,,METAR,17.0
ENBV 072150Z AUTO 26003KT 9999 OVC009/// 07/05 Q1022,ENBV,2023-07-07T21:50:00Z,70.87,29.02,7.0,5.0,260,3,,6.21,30.177166,,,TRUE,,,,,,,,OVC,900,,,,,,,IFR,,,,,,,,,,,,METAR,13.0
ENBS 072150Z AUTO 28001KT 9999 FEW007/// 05/04 Q1021,ENBS,2023-07-07T21:50:00Z,70.62,29.68,5.0,4.0,280,1,,6.21,30.147638,,,TRUE,,,,,,,,FEW,700,,,,,,,VFR,,,,,,,,,,,,METAR,144.0
ENBR 072150Z 11004KT 9999 SCT048 BKN059 16/11 Q1021 RMK WIND 1200FT 12013KT,ENBR,2023-07-07T21:50:00Z,60.28,5.22,16.0,11.0,110,4,,6.21,30.147638,,,,,,,,,,,SCT,4800,BKN,5900,,,,,VFR,,,,,,,,,,,,METAR,49.0
ENBO 072150Z 28011KT 6000 OVC004 10/10 Q1021,ENBO,2023-07-07T21:50:00Z,67.27,14.37,10.0,10.0,280,11,,3.73,30.147638,,,,,,,,,,,OVC,400,,,,,,,LIFR,,,,,,,,,,,,METAR,13.0
ENBN 072150Z AUTO 24007KT 8000NDV SCT006/// BKN008/// OVC011/// 12/11 Q1022,ENBN,2023-07-07T21:50:00Z,65.47,12.22,12.0,11.0,240,7,,,30.177166,,,TRUE,,,,,,,,SCT,600,BKN,800,OVC,1100,,,,,,,,,,,,,,,METAR,3.0
ENBL 072150Z 00000KT 9999 SCT055 14/11 Q1022,ENBL,2023-07-07T21:50:00Z,61.4,5.77,14.0,11.0,0,0,,6.21,30.177166,,,,,,,,,,,SCT,5500,,,,,,,VFR,,,,,,,,,,,,METAR,313.0
ENAT 072150Z 07006KT CAVOK 14/09 Q1020 RMK WIND 700FT 14009KT,ENAT,2023-07-07T21:50:00Z,69.97,23.37,14.0,9.0,70,6,,6.21,30.11811,,,,,,,,,,,CAVOK,,,,,,,,VFR,,,,,,,,,,,,METAR,3.0
ENAN 072150Z AUTO 30007KT 9999 NCD 10/08 Q1019,ENAN,2023-07-07T21:50:00Z,69.3,16.13,10.0,8.0,300,7,,6.21,30.088583,,,TRUE,,,,,,,,CLR,,,,,,,,VFR,,,,,,,,,,,,METAR,13.0
ENAL 072150Z 05007KT CAVOK 13/11 Q1023,ENAL,2023-07-07T21:50:00Z,62.57,6.12,13.0,11.0,50,7,,6.21,30.206694,,,,,,,,,,,CAVOK,,,,,,,,VFR,,,,,,,,,,,,METAR,21.0
ELLX 072150Z 04006KT CAVOK 22/09 Q1018 NOSIG,ELLX,2023-07-07T21:50:00Z,49.63,6.2,22.0,9.0,40,6,,6.21,30.059055,,,,,,TRUE,,,,,CAVOK,,,,,,,,VFR,,,,,,,,,,,,METAR,374.0
EKYT 072150Z AUTO 27004KT 9999 NCD 15/10 Q1023,EKYT,2023-07-07T21:50:00Z,57.1,9.87,15.0,10.0,270,4,,6.21,30.206694,,,TRUE,,,,,,,,CLR,,,,,,,,VFR,,,,,,,,,,,,METAR,2.0
EKVG 072150Z AUTO 13013KT 9999 BKN032/// 13/12 Q1015 RMK BKN031/// OVC057/// WIND SKEID 13020KT,EKVG,2023-07-07T21:50:00Z,62.07,-7.27,13.0,12.0,130,13,,6.21,29.970472,,,TRUE,,,,,,,,BKN,3200,,,,,,,VFR,,,,,,,,,,,,METAR,89.0
EKVD 072150Z AUTO 00000KT //// ///////// 13/11 Q1023,EKVD,2023-07-07T21:50:00Z,55.43,9.32,13.0,11.0,0,0,,,30.206694,,,TRUE,,,,,,,,,,,,,,,,,,,,,,,,,,,,METAR,41.0
EKSP 072150Z 00000KT CAVOK 14/12 Q1023 RMK FEW250,EKSP,2023-07-07T21:50:00Z,55.22,9.27,14.0,12.0,0,0,,6.21,30.206694,,,,,,,,,,,CAVOK,,,,,,,,VFR,,,,,,,,,,,,METAR,40.0
EKSB 072150Z AUTO 02001KT 9999 NCD 16/12 Q1022,EKSB,2023-07-07T21:50:00Z,54.97,9.8,16.0,12.0,20,1,,6.21,30.177166,,,TRUE,,,,,,,,CLR,,,,,,,,VFR,,,,,,,,,,,,METAR,23.0
EKRS 072150Z AUTO VRB01KT 9999 NCD 13/13 Q1023,EKRS,2023-07-07T21:50:00Z,55.42,11.8,13.0,13.0,0,1,,6.21,30.206694,,,TRUE,,,,,,,,CLR,,,,,,,,VFR,,,,,,,,,,,,METAR,34.0
EKRN 072150Z AUTO 03002KT 9999 NCD 15/12 Q1022,EKRN,2023-07-07T21:50:00Z,55.07,14.75,15.0,12.0,30,2,,6.21,30.177166,,,TRUE,,,,,,,,CLR,,,,,,,,VFR,,,,,,,,,,,,METAR,14.0
EKRK 072150Z AUTO 00000KT 9999 NCD 12/10 Q1023,EKRK,2023-07-07T21:50:00Z,55.58,12.13,12.0,10.0,0,0,,6.21,30.206694,,,TRUE,,,,,,,,CLR,,,,,,,,VFR,,,,,,,,,,,,METAR,40.0
EKKA 072150Z AUTO 00000KT 9999 NCD 14/10 Q1022,EKKA,2023-07-07T21:50:00Z,56.3,9.12,14.0,10.0,0,0,,6.21,30.177166,,,TRUE,,,,,,,,CLR,,,,,,,,VFR,,,,,,,,,,,,METAR,50.0
EKEB 072150Z AUTO 08004KT 9999 NCD 14/11 Q1023,EKEB,2023-07-07T21:50:00Z,55.52,8.55,14.0,11.0,80,4,,6.21,30.206694,,,TRUE,,,,,,,,CLR,,,,,,,,VFR,,,,,,,,,,,,METAR,29.0
EKCH 072150Z AUTO 01001KT 9999 NCD 16/11 Q1023 NOSIG,EKCH,2023-07-07T21:50:00Z,55.62,12.67,16.0,11.0,10,1,,6.21,30.206694,,,TRUE,,,TRUE,,,,,CLR,,,,,,,,VFR,,,,,,,,,,,,METAR,4.0
EKBI 072150Z AUTO 06001KT 9999 NCD 12/10 Q1023,EKBI,2023-07-07T21:50:00Z,55.73,9.15,12.0,10.0,60,1,,6.21,30.206694,,,TRUE,,,,,,,,CLR,,,,,,,,VFR,,,,,,,,,,,,METAR,67.0
EKAH 072150Z AUTO 00000KT 9999 BKN270/// 15/11 Q1023,EKAH,2023-07-07T21:50:00Z,56.28,10.62,15.0,11.0,0,0,,6.21,30.206694,,,TRUE,,,,,,,,BKN,27000,,,,,,,VFR,,,,,,,,,,,,METAR,25.0
EGYP 072150Z 23011KT 9999 BKN029 01/M02 Q1006,EGYP,2023-07-07T21:50:00Z,-51.82,-58.45,1.0,-2.0,230,11,,6.21,29.704725,,,,,,,,,,,BKN,2900,,,,,,,MVFR,,,,,,,,,,,,METAR,70.0
EGYM 072150Z AUTO 10011KT 9999 NCD 20/09 Q1015,EGYM,2023-07-07T21:50:00Z,52.63,0.57,20.0,9.0,100,11,,6.21,29.970472,,,TRUE,,,,,,,,CLR,,,,,,,,VFR,,,,,,,,,,,,METAR,25.0
EGYH 072150Z AUTO 13010KT 9999 NCD 18/13 Q1015,EGYH,2023-07-07T21:50:00Z,52.87,0.15,18.0,13.0,130,10,,6.21,29.970472,,,TRUE,,,,,,,,CLR,,,,,,,,VFR,,,,,,,,,,,,METAR,5.0
EGYD 072150Z AUTO 14009KT 9999 NCD 18/11 Q1015,EGYD,2023-07-07T21:50:00Z,53.03,-0.5,18.0,11.0,140,9,,6.21,29.970472,,,TRUE,,,,,,,,CLR,,,,,,,,VFR,,,,,,,,,,,,METAR,65.0
EGXZ 072150Z AUTO 11011KT 9999 NCD 18/13 Q1014,EGXZ,2023-07-07T21:50:00Z,54.2,-1.38,18.0,13.0,110,11,,6.21,29.940945,,,TRUE,,,,,,,,CLR,,,,,,,,VFR,,,,,,,,,,,,METAR,24.0
EGXW 072150Z AUTO 13010KT 9999 NCD 19/11 Q1014,EGXW,2023-07-07T21:50:00Z,53.18,-0.52,19.0,11.0,130,10,,6.21,29.940945,,,TRUE,,,,,,,,CLR,,,,,,,,VFR,,,,,,,,,,,,METAR,70.0
EGXV 072150Z AUTO 12005KT 9999 NCD 18/12 Q1015,EGXV,2023-07-07T21:50:00Z,53.87,-0.45,18.0,12.0,120,5,,6.21,29.970472,,,TRUE,,,,,,,,CLR,,,,,,,,VFR,,,,,,,,,,,,METAR,6.0
EGXT 072150Z AUTO 11006KT 9999 NCD 19/11 Q1014,EGXT,2023-07-07T21:50:00Z,52.62,-0.47,19.0,11.0,110,6,,6.21,29.940945,,,TRUE,,,,,,,,CLR,,,,,,,,VFR,,,,,,,,,,,,METAR,74.0
EGXS 072150Z AUTO 11013KT 9999 NCD 18/14 Q1015,EGXS,2023-07-07T21:50:00Z,53.48,0.15,18.0,14.0,110,13,,6.21,29.970472,,,TRUE,,,,,,,,CLR,,,,,,,,VFR,,,,,,,,,,,,METAR,6.0
EGXE 072150Z AUTO 21004KT 9999 NCD 17/12 Q1014,EGXE,2023-07-07T21:50:00Z,54.28,-1.52,17.0,12.0,210,4,,6.21,29.940945,,,TRUE,,,,,,,,CLR,,,,,,,,VFR,,,,,,,,,,,,METAR,30.0
EGXC 072150Z 12009KT CAVOK 19/11 Q1014 RMK BLU,EGXC,2023-07-07T21:50:00Z,53.1,-0.17,19.0,11.0,120,9,,6.21,29.940945,,,,,,,,,,,CAVOK,,,,,,,,VFR,,,,,,,,,,,,METAR,9.0
EGWU 072150Z AUTO 10006KT 9999 NCD 21/11 Q1014,EGWU,2023-07-07T21:50:00Z,51.55,-0.42,21.0,11.0,100,6,,6.21,29.940945,,,TRUE,,,,,,,,CLR,,,,,,,,VFR,,,,,,,,,,,,METAR,33.0
EGWC 072150Z AUTO 12006KT //// ///////// ///// Q////,EGWC,2023-07-07T21:50:00Z,52.63,-2.3,,,120,6,,,,,,TRUE,,,,,,,,,,,,,,,,,,,,,,,,,,,,METAR,79.0
EGVP 072150Z AUTO 09006KT 9999 BKN080/// 21/13 Q1012,EGVP,2023-07-07T21:50:00Z,51.13,-1.57,21.0,13.0,90,6,,6.21,29.88189,,,TRUE,,,,,,,,BKN,8000,,,,,,,VFR,,,,,,,,,,,,METAR,80.0
EGVO 072150Z AUTO 10006KT 9999 NCD 20/13 Q1013,EGVO,2023-07-07T21:50:00Z,51.23,-0.95,20.0,13.0,100,6,,6.21,29.911417,,,TRUE,,,,,,,,CLR,,,,,,,,VFR,,,,,,,,,,,,METAR,118.0
EGVN 072150Z 09004KT CAVOK 20/13 Q1013 NOSIG RMK BLU BLU,EGVN,2023-07-07T21:50:00Z,51.77,-1.58,20.0,13.0,90,4,,6.21,29.911417,,,,,,TRUE,,,,,CAVOK,,,,,,,,VFR,,,,,,,,,,,,METAR,83.0
EGUW 072150Z AUTO 09007KT 9999 NCD 19/11 Q1015,EGUW,2023-07-07T21:50:00Z,52.12,0.97,19.0,11.0,90,7,,6.21,29.970472,,,TRUE,,,,,,,,CLR,,,,,,,,VFR,,,,,,,,,,,,METAR,86.0
EGUB 072150Z AUTO 10008KT 9999 NCD 21/14 Q1013,EGUB,2023-07-07T21:50:00Z,51.62,-1.08,21.0,14.0,100,8,,6.21,29.911417,,,TRUE,,,,,,,,CLR,,,,,,,,VFR,,,,,,,,,,,,METAR,56.0
EGTE 072150Z 11012KT CAVOK 22/12 Q1010,EGTE,2023-07-07T21:50:00Z,50.73,-3.42,22.0,12.0,110,12,,6.21,29.822834,,,,,,,,,,,CAVOK,,,,,,,,VFR,,,,,,,,,,,,METAR,30.0
EGSY 072150Z AUTO 09009KT 9999 NCD 21/12 Q1010,EGSY,2023-07-07T21:50:00Z,51.4,-3.43,21.0,12.0,90,9,,6.21,29.822834,,,TRUE,,,,,,,,CLR,,,,,,,,VFR,,,,,,,,,,,,METAR,46.0
EGSS 072150Z AUTO 09009KT 9999 NCD 20/12 Q1015,EGSS,2023-07-07T21:50:00Z,51.88,0.22,20.0,12.0,90,9,,6.21,29.970472,,,TRUE,,,,,,,,CLR,,,,,,,,VFR,,,,,,,,,,,,METAR,101.0
EGSH 072150Z 10006KT CAVOK 17/11 Q1016,EGSH,2023-07-07T21:50:00Z,52.68,1.28,17.0,11.0,100,6,,6.21,30.0,,,,,,,,,,,CAVOK,,,,,,,,VFR,,,,,,,,,,,,METAR,21.0
EGQS 072150Z 15011KT CAVOK 19/13 Q1014 RMK BLU,EGQS,2023-07-07T21:50:00Z,57.72,-3.32,19.0,13.0,150,11,,6.21,29.940945,,,,,,,,,,,CAVOK,,,,,,,,VFR,,,,,,,,,,,,METAR,6.0
EGQM 072150Z AUTO 16003KT 9999 BR NCD 14/13 Q1015,EGQM,2023-07-07T21:50:00Z,55.42,-1.6,14.0,13.0,160,3,,6.21,29.970472,,,TRUE,,,,,,,BR,CLR,,,,,,,,VFR,,,,,,,,,,,,METAR,24.0
EGQL 072150Z 07006KT CAVOK 14/12 Q1015 RMK BLU,EGQL,2023-07-07T21:50:00Z,56.38,-2.87,14.0,12.0,70,6,,6.21,29.970472,,,,,,,,,,,CAVOK,,,,,,,,VFR,,,,,,,,,,,,METAR,11.0
EGQK 072150Z AUTO 10005KT 9999 FEW240/// 17/13 Q1014,EGQK,2023-07-07T21:50:00Z,57.65,-3.57,17.0,13.0,100,5,,6.21,29.940945,,,TRUE,,,,,,,,FEW,24000,,,,,,,VFR,,,,,,,,,,,,METAR,5.0
EGQA 072150Z AUTO 17011KT 9999 NCD 18/13 Q1014,EGQA,2023-07-07T21:50:00Z,57.83,-3.95,18.0,13.0,170,11,,6.21,29.940945,,,TRUE,,,,,,,,CLR,,,,,,,,VFR,,,,,,,,,,,,METAR,4.0
EGPU 072150Z AUTO 12016KT 9999 NCD 16/13 Q1010,EGPU,2023-07-07T21:50:00Z,56.5,-6.88,16.0,13.0,120,16,,6.21,29.822834,,,TRUE,,,,,,,,CLR,,,,,,,,VFR,,,,,,,,,,,,METAR,12.0
EGPO 072150Z AUTO 17004KT 9999 NCD 15/13 Q1012,EGPO,2023-07-07T21:50:00Z,58.22,-6.32,15.0,13.0,170,4,,6.21,29.88189,,,TRUE,,,,,,,,CLR,,,,,,,,VFR,,,,,,,,,,,,METAR,10.0
EGPL 072150Z AUTO 15018KT 9999 NCD 16/13 Q1010,EGPL,2023-07-07T21:50:00Z,57.47,-7.37,16.0,13.0,150,18,,6.21,29.822834,,,TRUE,,,,,,,,CLR,,,,,,,,VFR,,,,,,,,,,,,METAR,3.0
EGPK 072150Z 09009KT CAVOK 17/14 Q1012,EGPK,2023-07-07T21:50:00Z,55.5,-4.58,17.0,14.0,90,9,,6.21,29.88189,,,,,,,,,,,CAVOK,,,,,,,,VFR,,,,,,,,,,,,METAR,14.0
EGPI 072150Z AUTO 14013KT 9999 NCD 16/14 Q1010,EGPI,2023-07-07T21:50:00Z,55.68,-6.25,16.0,14.0,140,13,,6.21,29.822834,,,TRUE,,,,,,,,CLR,,,,,,,,VFR,,,,,,,,,,,,METAR,17.0
EGPH 072150Z 04005KT CAVOK 14/12 Q1014,EGPH,2023-07-07T21:50:00Z,55.95,-3.35,14.0,12.0,40,5,,6.21,29.940945,,,,,,,,,,,CAVOK,,,,,,,,VFR,,,,,,,,,,,,METAR,29.0
EGPF 072150Z AUTO 06008KT 9999 NCD 16/14 Q1013,EGPF,2023-07-07T21:50:00Z,55.87,-4.42,16.0,14.0,60,8,,6.21,29.911417,,,TRUE,,,,,,,,CLR,,,,,,,,VFR,,,,,,,,,,,,METAR,8.0
EGPE 072150Z 16004KT 130V210 9999 FEW038 18/13 Q1014,EGPE,2023-07-07T21:50:00Z,57.53,-4.05,18.0,13.0,160,4,,6.21,29.940945,,,,,,,,,,,FEW,3800,,,,,,,VFR,,,,,,,,,,,,METAR,7.0
EGPD 072150Z AUTO 17003KT 9999 NCD 14/12 Q1016,EGPD,2023-07-07T21:50:00Z,57.2,-2.22,14.0,12.0,170,3,,6.21,30.0,,,TRUE,,,,,,,,CLR,,,,,,,,VFR,,,,,,,,,,,,METAR,65.0
EGPC 072150Z AUTO 15006KT 120V180 9999 NCD 15/13 Q1015,EGPC,2023-07-07T21:50:00Z,58.45,-3.08,15.0,13.0,150,6,,6.21,29.970472,,,TRUE,,,,,,,,CLR,,,,,,,,VFR,,,,,,,,,,,,METAR,38.0
EGPA 072150Z AUTO 16011KT 9999 NCD 15/13 Q1014,EGPA,2023-07-07T21:50:00Z,58.95,-2.9,15.0,13.0,160,11,,6.21,29.940945,,,TRUE,,,,,,,,CLR,,,,,,,,VFR,,,,,,,,,,,,METAR,15.0
EGOV 072150Z AUTO 07007KT 9999 NCD 17/13 Q1009,EGOV,2023-07-07T21:50:00Z,53.25,-4.53,17.0,13.0,70,7,,6.21,29.793306,,,TRUE,,,,,,,,CLR,,,,,,,,VFR,,,,,,,,,,,,METAR,11.0
EGOS 072150Z AUTO 13005KT 9999 NCD 21/10 Q1012,EGOS,2023-07-07T21:50:00Z,52.8,-2.67,21.0,10.0,130,5,,6.21,29.88189,,,TRUE,,,,,,,,CLR,,,,,,,,VFR,,,,,,,,,,,,METAR,76.0
EGOP 072150Z AUTO 12012KT 9999 SCT074/// 22/12 Q1009,EGOP,2023-07-07T21:50:00Z,51.72,-4.37,22.0,12.0,120,12,,6.21,29.793306,,,TRUE,,,,,,,,SCT,7400,,,,,,,VFR,,,,,,,,,,,,METAR,8.0
EGOM 072150Z AUTO 09007KT 9999 NCD 15/12 Q1014,EGOM,2023-07-07T21:50:00Z,55.05,-2.55,15.0,12.0,90,7,,6.21,29.940945,,,TRUE,,,,,,,,CLR,,,,,,,,VFR,,,,,,,,,,,,METAR,286.0
EGNX 072150Z 11009KT CAVOK 21/11 Q1014,EGNX,2023-07-07T21:50:00Z,52.82,-1.32,21.0,11.0,110,9,,6.21,29.940945,,,,,,,,,,,CAVOK,,,,,,,,VFR,,,,,,,,,,,,METAR,91.0
EGNT 072150Z VRB02KT CAVOK 15/13 Q1015,EGNT,2023-07-07T21:50:00Z,55.03,-1.7,15.0,13.0,0,2,,6.21,29.970472,,,,,,,,,,,CAVOK,,,,,,,,VFR,,,,,,,,,,,,METAR,77.0
EGNS 072150Z 07011KT CAVOK 18/13 Q1010 NOSIG,EGNS,2023-07-07T21:50:00Z,54.08,-4.63,18.0,13.0,70,11,,6.21,29.822834,,,,,,TRUE,,,,,CAVOK,,,,,,,,VFR,,,,,,,,,,,,METAR,18.0
EGNM 072150Z 11007KT CAVOK 19/14 Q1014,EGNM,2023-07-07T21:50:00Z,53.87,-1.65,19.0,14.0,110,7,,6.21,29.940945,,,,,,,,,,,CAVOK,,,,,,,,VFR,,,,,,,,,,,,METAR,221.0
EGNJ 072150Z AUTO 11011KT 9999 NCD 19/14 Q1015,EGNJ,2023-07-07T21:50:00Z,53.57,-0.35,19.0,14.0,110,11,,6.21,29.970472,,,TRUE,,,,,,,,CLR,,,,,,,,VFR,,,,,,,,,,,,METAR,23.0
EGMD 072150Z AUTO 08008KT 9999 NCD 18/16 Q1014,EGMD,2023-07-07T21:50:00Z,50.95,0.93,18.0,16.0,80,8,,6.21,29.940945,,,TRUE,,,,,,,,CLR,,,,,,,,VFR,,,,,,,,,,,,METAR,4.0
EGLL 072150Z AUTO 10007KT 9999 NCD 22/12 Q1014,EGLL,2023-07-07T21:50:00Z,51.48,-0.45,22.0,12.0,100,7,,6.21,29.940945,,,TRUE,,,,,,,,CLR,,,,,,,,VFR,,,,,,,,,,,,METAR,26.0
EGLF 072150Z AUTO 12002KT 9999 NCD 21/13 Q1013,EGLF,2023-07-07T21:50:00Z,51.28,-0.77,21.0,13.0,120,2,,6.21,29.911417,,,TRUE,,,,,,,,CLR,,,,,,,,VFR,,,,,,,,,,,,METAR,65.0
EGLC 072150Z AUTO 08008KT 9999 NCD 21/14 Q1014,EGLC,2023-07-07T21:50:00Z,51.5,0.05,21.0,14.0,80,8,,6.21,29.940945,,,TRUE,,,,,,,,CLR,,,,,,,,VFR,,,,,,,,,,,,METAR,10.0
EGKK 072150Z 08006KT CAVOK 19/12 Q1014,EGKK,2023-07-07T21:50:00Z,51.13,-0.18,19.0,12.0,80,6,,6.21,29.940945,,,,,,,,,,,CAVOK,,,,,,,,VFR,,,,,,,,,,,,METAR,58.0
EGJJ 072150Z AUTO 11012KT 9999 NCD 23/15 Q1011,EGJJ,2023-07-07T21:50:00Z,49.22,-2.2,23.0,15.0,110,12,,6.21,29.852362,,,TRUE,,,,,,,,CLR,,,,,,,,VFR,,,,,,,,,,,,METAR,84.0
EGJB 072150Z 12007KT CAVOK 22/14 Q1011,EGJB,2023-07-07T21:50:00Z,49.42,-2.6,22.0,14.0,120,7,,6.21,29.852362,,,,,,,,,,,CAVOK,,,,,,,,VFR,,,,,,,,,,,,METAR,102.0
EGHQ 072150Z AUTO 15018KT 9999 FEW049/// 19/13 Q1008,EGHQ,2023-07-07T21:50:00Z,50.43,-5.0,19.0,13.0,150,18,,6.21,29.763779,,,TRUE,,,,,,,,FEW,4900,,,,,,,VFR,,,,,,,,,,,,METAR,101.0
EGHH 072150Z 10007KT CAVOK 22/12 Q1012,EGHH,2023-07-07T21:50:00Z,50.78,-1.83,22.0,12.0,100,7,,6.21,29.88189,,,,,,,,,,,CAVOK,,,,,,,,VFR,,,,,,,,,,,,METAR,9.0
EGGW 072150Z AUTO 10005KT 9999 NCD 18/12 Q1015,EGGW,2023-07-07T21:50:00Z,51.87,-0.37,18.0,12.0,100,5,,6.21,29.970472,,,TRUE,,,,,,,,CLR,,,,,,,,VFR,,,,,,,,,,,,METAR,159.0
EGGP 072150Z 10007KT CAVOK 21/14 Q1011,EGGP,2023-07-07T21:50:00Z,53.33,-2.85,21.0,14.0,100,7,,6.21,29.852362,,,,,,,,,,,CAVOK,,,,,,,,VFR,,,,,,,,,,,,METAR,23.0
EGGD 072150Z AUTO 09009KT 9999 NCD 19/12 Q1012,EGGD,2023-07-07T21:50:00Z,51.37,-2.72,19.0,12.0,90,9,,6.21,29.88189,,,TRUE,,,,,,,,CLR,,,,,,,,VFR,,,,,,,,,,,,METAR,182.0
EGFF 072150Z AUTO 10008KT 9999 NCD 21/13 Q1011,EGFF,2023-07-07T21:50:00Z,51.38,-3.35,21.0,13.0,100,8,,6.21,29.852362,,,TRUE,,,,,,,,CLR,,,,,,,,VFR,,,,,,,,,,,,METAR,65.0
EGDY 072150Z AUTO 12009KT 9999 FEW069/// 21/13 Q1011,EGDY,2023-07-07T21:50:00Z,51.0,-2.63,21.0,13.0,120,9,,6.21,29.852362,,,TRUE,,,,,,,,FEW,6900,,,,,,,VFR,,,,,,,,,,,,METAR,21.0
EGDR 072150Z AUTO 16008KT 9999 OVC045/// 18/15 Q1008,EGDR,2023-07-07T21:50:00Z,50.08,-5.25,18.0,15.0,160,8,,6.21,29.763779,,,TRUE,,,,,,,,OVC,4500,,,,,,,VFR,,,,,,,,,,,,METAR,74.0
EGDM 072150Z AUTO 11008KT 9999 SCT074/// 19/13 Q1012,EGDM,2023-07-07T21:50:00Z,51.17,-1.75,19.0,13.0,110,8,,6.21,29.88189,,,TRUE,,,,,,,,SCT,7400,,,,,,,VFR,,,,,,,,,,,,METAR,122.0
EGCK 072150Z AUTO VRB01KT 9999 NCD 17/14 Q1010,EGCK,2023-07-07T21:50:00Z,53.1,-4.33,17.0,14.0,0,1,,6.21,29.822834,,,TRUE,,,,,,,,CLR,,,,,,,,VFR,,,,,,,,,,,,METAR,6.0
EGCC 072150Z AUTO 09004KT 050V120 9999 NCD 21/12 Q1012,EGCC,2023-07-07T21:50:00Z,53.35,-2.27,21.0,12.0,90,4,,6.21,29.88189,,,TRUE,,,,,,,,CLR,,,,,,,,VFR,,,,,,,,,,,,METAR,78.0
EGBB 072150Z 14004KT CAVOK 19/12 Q1013,EGBB,2023-07-07T21:50:00Z,52.47,-1.75,19.0,12.0,140,4,,6.21,29.911417,,,,,,,,,,,CAVOK,,,,,,,,VFR,,,,,,,,,,,,METAR,91.0
EGAC 072150Z AUTO VRB01KT 9999 NCD 16/13 Q1010,EGAC,2023-07-07T21:50:00Z,54.62,-5.87,16.0,13.0,0,1,,6.21,29.822834,,,TRUE,,,,,,,,CLR,,,,,,,,VFR,,,,,,,,,,,,METAR,2.0
EGAA 072150Z AUTO 10008KT 9999 NCD 15/13 Q1009,EGAA,2023-07-07T21:50:00Z,54.65,-6.22,15.0,13.0,100,8,,6.21,29.793306,,,TRUE,,,,,,,,CLR,,,,,,,,VFR,,,,,,,,,,,,METAR,65.0
EFVA 072150Z AUTO 33004KT CAVOK 14/13 Q1015,EFVA,2023-07-07T21:50:00Z,63.05,21.77,14.0,13.0,330,4,,6.21,29.970472,,,TRUE,,,,,,,,CAVOK,,,,,,,,VFR,,,,,,,,,,,,METAR,4.0
EFUT 072150Z AUTO 24004KT CAVOK 13/11 Q1014,EFUT,2023-07-07T21:50:00Z,60.88,26.93,13.0,11.0,240,4,,6.21,29.940945,,,TRUE,,,,,,,,CAVOK,,,,,,,,VFR,,,,,,,,,,,,METAR,104.0
EFTU 072150Z AUTO 29004KT 9999 FEW021 BKN041 13/12 Q1016,EFTU,2023-07-07T21:50:00Z,60.52,22.27,13.0,12.0,290,4,,6.21,30.0,,,TRUE,,,,,,,,FEW,2100,BKN,4100,,,,,VFR,,,,,,,,,,,,METAR,47.0
EFTP 072150Z AUTO 26002KT CAVOK 13/12 Q1015,EFTP,2023-07-07T21:50:00Z,61.42,23.62,13.0,12.0,260,2,,6.21,29.970472,,,TRUE,,,,,,,,CAVOK,,,,,,,,VFR,,,,,,,,,,,,METAR,111.0
EFSI 072150Z AUTO 30003KT 9999 //////CB 13/13 Q1015,EFSI,2023-07-07T21:50:00Z,62.7,22.83,13.0,13.0,300,3,,6.21,29.970472,,,TRUE,,,,,,,,,,,,,,,,,,,,,,,,,,,,METAR,90.0
EFSA 072150Z AUTO 13001KT 1700 0500 R12/2000N BCFG FEW001 BKN027 13/13 Q1014,EFSA,2023-07-07T21:50:00Z,61.95,28.93,13.0,13.0,130,1,,1.06,29.940945,,,TRUE,,,,,,,BCFG,FEW,100,BKN,2700,,,,,IFR,,,,,,,,,,,,METAR,90.0
EFRO 072150Z AUTO 03009KT CAVOK 13/09 Q1017,EFRO,2023-07-07T21:50:00Z,66.57,25.82,13.0,9.0,30,9,,6.21,30.029528,,,TRUE,,,,,,,,CAVOK,,,,,,,,VFR,,,,,,,,,,,,METAR,201.0
EFPO 072150Z AUTO 29003KT 9999 //////CB 14/13 Q1016,EFPO,2023-07-07T21:50:00Z,61.47,21.8,14.0,13.0,290,3,,6.21,30.0,,,TRUE,,,,,,,,,,,,,,,,,,,,,,,,,,,,METAR,10.0
EFOU 072150Z AUTO VRB01KT CAVOK 15/14 Q1015,EFOU,2023-07-07T21:50:00Z,64.92,25.37,15.0,14.0,0,1,,6.21,29.970472,,,TRUE,,,,,,,,CAVOK,,,,,,,,VFR,,,,,,,,,,,,METAR,15.0
EFMI 072150Z AUTO 27002KT CAVOK 14/13 Q1014,EFMI,2023-07-07T21:50:00Z,61.68,27.2,14.0,13.0,270,2,,6.21,29.940945,,,TRUE,,,,,,,,CAVOK,,,,,,,,VFR,,,,,,,,,,,,METAR,99.0
EFMA 072150Z AUTO 33002KT 9999 3200 NCD 11/11 Q1017,EFMA,2023-07-07T21:50:00Z,60.12,19.9,11.0,11.0,330,2,,6.21,30.029528,,,TRUE,,,,,,,,CLR,,,,,,,,VFR,,,,,,,,,,,,METAR,6.0
EFLP 072150Z AUTO 22005KT CAVOK 14/11 Q1014,EFLP,2023-07-07T21:50:00Z,61.03,28.15,14.0,11.0,220,5,,6.21,29.940945,,,TRUE,,,,,,,,CAVOK,,,,,,,,VFR,,,,,,,,,,,,METAR,102.0
EFKU 072150Z AUTO 15003KT 120V190 CAVOK 15/14 Q1013,EFKU,2023-07-07T21:50:00Z,63.02,27.8,15.0,14.0,150,3,,6.21,29.911417,,,TRUE,,,,,,,,CAVOK,,,,,,,,VFR,,,,,,,,,,,,METAR,92.0
EFKT 072150Z AUTO 05005KT 9999 FEW025 OVC035 12/07 Q1019,EFKT,2023-07-07T21:50:00Z,67.7,24.85,12.0,7.0,50,5,,6.21,30.088583,,,TRUE,,,,,,,,FEW,2500,OVC,3500,,,,,VFR,,,,,,,,,,,,METAR,190.0
EFKS 072150Z AUTO 04004KT 010V090 CAVOK 11/09 Q1016,EFKS,2023-07-07T21:50:00Z,66.0,29.23,11.0,9.0,40,4,,6.21,30.0,,,TRUE,,,,,,,,CAVOK,,,,,,,,VFR,,,,,,,,,,,,METAR,270.0
EFKK 072150Z AUTO 31003KT CAVOK 14/14 Q1015,EFKK,2023-07-07T21:50:00Z,63.72,23.13,14.0,14.0,310,3,,6.21,29.970472,,,TRUE,,,,,,,,CAVOK,,,,,,,,VFR,,,,,,,,,,,,METAR,25.0
EFKI 072150Z AUTO 07002KT 9999 BKN013 BKN047 //////CB 14/14 Q1014,EFKI,2023-07-07T21:50:00Z,64.27,27.67,14.0,14.0,70,2,,6.21,29.940945,,,TRUE,,,,,,,,BKN,1300,BKN,4700,,,,,MVFR,,,,,,,,,,,,METAR,132.0
EFKE 072150Z AUTO 03006KT CAVOK 14/09 Q1016,EFKE,2023-07-07T21:50:00Z,65.78,24.57,14.0,9.0,30,6,,6.21,30.0,,,TRUE,,,,,,,,CAVOK,,,,,,,,VFR,,,,,,,,,,,,METAR,15.0
EFJY 072150Z AUTO 30005KT CAVOK 14/12 Q1014,EFJY,2023-07-07T21:50:00Z,62.4,25.68,14.0,12.0,300,5,,6.21,29.940945,,,TRUE,,,,,,,,CAVOK,,,,,,,,VFR,,,,,,,,,,,,METAR,139.0
EFJO 072150Z AUTO 29002KT 9999 OVC024 //////CB 14/14 Q1014,EFJO,2023-07-07T21:50:00Z,62.67,29.62,14.0,14.0,290,2,,6.21,29.940945,,,TRUE,,,,,,,,OVC,2400,,,,,,,MVFR,,,,,,,,,,,,METAR,118.0
EFIV 072150Z AUTO 06004KT CAVOK 08/05 Q1020,EFIV,2023-07-07T21:50:00Z,68.62,27.42,8.0,5.0,60,4,,6.21,30.11811,,,TRUE,,,,,,,,CAVOK,,,,,,,,VFR,,,,,,,,,,,,METAR,145.0
EFHK 072150Z 24006KT 9999 BKN025 15/12 Q1015 NOSIG,EFHK,2023-07-07T21:50:00Z,60.32,24.97,15.0,12.0,240,6,,6.21,29.970472,,,,,,TRUE,,,,,BKN,2500,,,,,,,MVFR,,,,,,,,,,,,METAR,56.0
EFHA 072150Z AUTO 26005KT CAVOK 14/11 Q1014,EFHA,2023-07-07T21:50:00Z,61.85,24.8,14.0,11.0,260,5,,6.21,29.940945,,,TRUE,,,,,,,,CAVOK,,,,,,,,VFR,,,,,,,,,,,,METAR,144.0
EFET 072150Z AUTO 07004KT 040V110 9999 BKN031 12/06 Q1019,EFET,2023-07-07T21:50:00Z,68.37,23.43,12.0,6.0,70,4,,6.21,30.088583,,,TRUE,,,,,,,,BKN,3100,,,,,,,VFR,,,,,,,,,,,,METAR,300.0
EETU 072150Z AUTO 24006KT 9999 FEW092/// 12/09 Q1018,EETU,2023-07-07T21:50:00Z,58.32,26.68,12.0,9.0,240,6,,6.21,30.059055,,,TRUE,,,,,,,,FEW,9200,,,,,,,VFR,,,,,,,,,,,,METAR,67.0
EETN 072150Z 18004KT 9999 BKN032 15/12 Q1016 TEMPO 4000 SHRA SCT020CB,EETN,2023-07-07T21:50:00Z,59.4,24.82,15.0,12.0,180,4,,6.21,30.0,,,,,,,,,,,BKN,3200,,,,,,,VFR,,,,,,,,,,,,METAR,41.0
EEPU 072150Z AUTO 23007KT 9999 BKN046/// BKN053/// OVC068/// 15/13 Q1017,EEPU,2023-07-07T21:50:00Z,58.42,24.47,15.0,13.0,230,7,,6.21,30.029528,,,TRUE,,,,,,,,BKN,4600,BKN,5300,OVC,6800,,,VFR,,,,,,,,,,,,METAR,13.0
EEKE 072150Z AUTO 22006KT 9999NDV FEW043 15/13 Q1017,EEKE,2023-07-07T21:50:00Z,58.23,22.52,15.0,13.0,220,6,,,30.029528,,,TRUE,,,,,,,,FEW,4300,,,,,,,,,,,,,,,,,,,METAR,4.0
EEEI 072150Z AUTO 18004KT 9999 -RA FEW027/// BKN036/// 14/12 Q1016,EEEI,2023-07-07T21:50:00Z,59.27,24.2,14.0,12.0,180,4,,6.21,30.0,,,TRUE,,,,,,,-RA,FEW,2700,BKN,3600,,,,,VFR,,,,,,,,,,,,METAR,19.0
EDWE 072150Z AUTO 06006KT 9999 // NCD 15/11 Q1021,EDWE,2023-07-07T21:50:00Z,53.38,7.23,15.0,11.0,60,6,,6.21,30.147638,,,TRUE,,,,,,,,CLR,,,,,,,,VFR,,,,,,,,,,,,METAR,0.0
EDVK 072150Z AUTO VRB01KT 9999 // NCD 18/10 Q1020,EDVK,2023-07-07T21:50:00Z,51.4,9.37,18.0,10.0,0,1,,6.21,30.11811,,,TRUE,,,,,,,,CLR,,,,,,,,VFR,,,,,,,,,,,,METAR,277.0
EDVE 072150Z AUTO 08003KT 9999 NCD 16/10 Q1021,EDVE,2023-07-07T21:50:00Z,52.32,10.55,16.0,10.0,80,3,,6.21,30.147638,,,TRUE,,,,,,,,CLR,,,,,,,,VFR,,,,,,,,,,,,METAR,83.0
EDTY 072150Z AUTO 09007KT 9999 // NCD 16/09 Q1019,EDTY,2023-07-07T21:50:00Z,49.12,9.78,16.0,9.0,90,7,,6.21,30.088583,,,TRUE,,,,,,,,CLR,,,,,,,,VFR,,,,,,,,,,,,METAR,398.0
EDTL 072150Z AUTO VRB02KT 9999 // NCD 21/13 Q1016,EDTL,2023-07-07T21:50:00Z,48.37,7.83,21.0,13.0,0,2,,6.21,30.0,,,TRUE,,,,,,,,CLR,,,,,,,,VFR,,,,,,,,,,,,METAR,152.0
EDSB 072150Z AUTO VRB02KT 9999 // NCD 22/12 Q1015,EDSB,2023-07-07T21:50:00Z,48.78,8.08,22.0,12.0,0,2,,6.21,29.970472,,,TRUE,,,,,,,,CLR,,,,,,,,VFR,,,,,,,,,,,,METAR,122.0
EDQM 072150Z AUTO VRB01KT 9999 // NCD 15/10 Q1022,EDQM,2023-07-07T21:50:00Z,50.3,11.85,15.0,10.0,0,1,,6.21,30.177166,,,TRUE,,,,,,,,CLR,,,,,,,,VFR,,,,,,,,,,,,METAR,578.0
EDNY 072150Z AUTO 02004KT 340V060 9999 FEW230/// 22/09 Q1018,EDNY,2023-07-07T21:50:00Z,47.67,9.52,22.0,9.0,20,4,,6.21,30.059055,,,TRUE,,,,,,,,FEW,23000,,,,,,,VFR,,,,,,,,,,,,METAR,411.0
EDMO 072150Z AUTO VRB01KT 9999 // NCD 16/09 Q1021,EDMO,2023-07-07T21:50:00Z,48.07,11.27,16.0,9.0,0,1,,6.21,30.147638,,,TRUE,,,,,,,,CLR,,,,,,,,VFR,,,,,,,,,,,,METAR,587.0
EDMA 072150Z AUTO VRB02KT 9999 // NCD 16/08 Q1020,EDMA,2023-07-07T21:50:00Z,48.42,10.92,16.0,8.0,0,2,,6.21,30.11811,,,TRUE,,,,,,,,CLR,,,,,,,,VFR,,,,,,,,,,,,METAR,462.0
EDLW 072150Z AUTO 09007KT 9999 // NCD 20/10 Q1019,EDLW,2023-07-07T21:50:00Z,51.52,7.62,20.0,10.0,90,7,,6.21,30.088583,,,TRUE,,,,,,,,CLR,,,,,,,,VFR,,,,,,,,,,,,METAR,122.0
EDLV 072150Z 05003KT 010V100 CAVOK 22/12 Q1018,EDLV,2023-07-07T21:50:00Z,51.6,6.15,22.0,12.0,50,3,,6.21,30.059055,,,,,,,,,,,CAVOK,,,,,,,,VFR,,,,,,,,,,,,METAR,27.0
EDLP 072150Z 11005KT 090V150 CAVOK 20/09 Q1020,EDLP,2023-07-07T21:50:00Z,51.62,8.62,20.0,9.0,110,5,,6.21,30.11811,,,,,,,,,,,CAVOK,,,,,,,,VFR,,,,,,,,,,,,METAR,211.0
EDLN 072150Z AUTO 06003KT 9999 // BKN150/// 22/11 Q1017,EDLN,2023-07-07T21:50:00Z,51.23,6.5,22.0,11.0,60,3,,6.21,30.029528,,,TRUE,,,,,,,,BKN,15000,,,,,,,VFR,,,,,,,,,,,,METAR,38.0
EDJA 072150Z AUTO 07006KT 9999 // NCD 18/09 Q1020,EDJA,2023-07-07T21:50:00Z,47.98,10.23,18.0,9.0,70,6,,6.21,30.11811,,,TRUE,,,,,,,,CLR,,,,,,,,VFR,,,,,,,,,,,,METAR,625.0
EDHL 072150Z AUTO 00000KT 9999 // NCD 15/11 Q1023,EDHL,2023-07-07T21:50:00Z,53.8,10.72,15.0,11.0,0,0,,6.21,30.206694,,,TRUE,,,,,,,,CLR,,,,,,,,VFR,,,,,,,,,,,,METAR,13.0
EDHK 072150Z AUTO 08002KT 9999 // NCD 15/12 Q1023,EDHK,2023-07-07T21:50:00Z,54.38,10.15,15.0,12.0,80,2,,6.21,30.206694,,,TRUE,,,,,,,,CLR,,,,,,,,VFR,,,,,,,,,,,,METAR,24.0
EDHI 072150Z AUTO 06005KT 9999 // NCD 19/12 Q1022,EDHI,2023-07-07T21:50:00Z,53.53,9.83,19.0,12.0,60,5,,6.21,30.177166,,,TRUE,,,,,,,,CLR,,,,,,,,VFR,,,,,,,,,,,,METAR,5.0
EDGS 072150Z AUTO 07007KT 9999 // NCD 20/07 Q1021,EDGS,2023-07-07T21:50:00Z,50.7,8.08,20.0,7.0,70,7,,6.21,30.147638,,,TRUE,,,,,,,,CLR,,,,,,,,VFR,,,,,,,,,,,,METAR,595.0
EDFM 072150Z AUTO 09003KT 060V120 9999 // NCD 25/08 Q1017,EDFM,2023-07-07T21:50:00Z,49.47,8.52,25.0,8.0,90,3,,6.21,30.029528,,,TRUE,,,,,,,,CLR,,,,,,,,VFR,,,,,,,,,,,,METAR,94.0
EDFH 072150Z 14007KT CAVOK 21/07 Q1019,EDFH,2023-07-07T21:50:00Z,49.95,7.27,21.0,7.0,140,7,,6.21,30.088583,,,,,,,,,,,CAVOK,,,,,,,,VFR,,,,,,,,,,,,METAR,494.0
EDDW 072150Z AUTO 06010KT CAVOK 18/11 Q1021,EDDW,2023-07-07T21:50:00Z,53.03,8.8,18.0,11.0,60,10,,6.21,30.147638,,,TRUE,,,,,,,,CAVOK,,,,,,,,VFR,,,,,,,,,,,,METAR,5.0
EDDV 072150Z AUTO 09002KT CAVOK 18/10 Q1021,EDDV,2023-07-07T21:50:00Z,52.47,9.68,18.0,10.0,90,2,,6.21,30.147638,,,TRUE,,,,,,,,CAVOK,,,,,,,,VFR,,,,,,,,,,,,METAR,53.0
EDDS 072150Z AUTO 09003KT CAVOK 21/09 Q1019,EDDS,2023-07-07T21:50:00Z,48.68,9.22,21.0,9.0,90,3,,6.21,30.088583,,,TRUE,,,,,,,,CAVOK,,,,,,,,VFR,,,,,,,,,,,,METAR,374.0
EDDR 072150Z AUTO 04007KT CAVOK 24/09 Q1017 RESHRA,EDDR,2023-07-07T21:50:00Z,49.22,7.1,24.0,9.0,40,7,,6.21,30.029528,,,TRUE,,,,,,,,CAVOK,,,,,,,,VFR,,,,,,,,,,,,METAR,317.0
EDDP 072150Z AUTO 06007KT CAVOK 20/10 Q1021 NOSIG,EDDP,2023-07-07T21:50:00Z,51.43,12.23,20.0,10.0,60,7,,6.21,30.147638,,,TRUE,,,TRUE,,,,,CAVOK,,,,,,,,VFR,,,,,,,,,,,,METAR,129.0
EDDN 072150Z AUTO 10007KT CAVOK 19/07 Q1020,EDDN,2023-07-07T21:50:00Z,49.5,11.05,19.0,7.0,100,7,,6.21,30.11811,,,TRUE,,,,,,,,CAVOK,,,,,,,,VFR,,,,,,,,,,,,METAR,312.0
EDDM 072150Z AUTO VRB02KT CAVOK 15/10 Q1021 NOSIG,EDDM,2023-07-07T21:50:00Z,48.35,11.82,15.0,10.0,0,2,,6.21,30.147638,,,TRUE,,,TRUE,,,,,CAVOK,,,,,,,,VFR,,,,,,,,,,,,METAR,445.0
EDDL 072150Z AUTO 06007KT CAVOK 21/11 Q1017 NOSIG,EDDL,2023-07-07T21:50:00Z,51.3,6.77,21.0,11.0,60,7,,6.21,30.029528,,,TRUE,,,TRUE,,,,,CAVOK,,,,,,,,VFR,,,,,,,,,,,,METAR,37.0
EDDK 072150Z AUTO 07008KT CAVOK 22/08 Q1017 NOSIG,EDDK,2023-07-07T21:50:00Z,50.87,7.15,22.0,8.0,70,8,,6.21,30.029528,,,TRUE,,,TRUE,,,,,CAVOK,,,,,,,,VFR,,,,,,,,,,,,METAR,92.0
EDDH 072150Z AUTO 04004KT 010V070 CAVOK 17/12 Q1022 NOSIG,EDDH,2023-07-07T21:50:00Z,53.63,10.0,17.0,12.0,40,4,,6.21,30.177166,,,TRUE,,,TRUE,,,,,CAVOK,,,,,,,,VFR,,,,,,,,,,,,METAR,8.0
EDDG 072150Z AUTO 06003KT 030V090 CAVOK 19/11 Q1019 NOSIG,EDDG,2023-07-07T21:50:00Z,52.13,7.7,19.0,11.0,60,3,,6.21,30.088583,,,TRUE,,,TRUE,,,,,CAVOK,,,,,,,,VFR,,,,,,,,,,,,METAR,46.0
EDDF 072150Z AUTO 06006KT CAVOK 22/11 Q1017 NOSIG,EDDF,2023-07-07T21:50:00Z,50.05,8.6,22.0,11.0,60,6,,6.21,30.029528,,,TRUE,,,TRUE,,,,,CAVOK,,,,,,,,VFR,,,,,,,,,,,,METAR,113.0
EDDE 072150Z AUTO 06005KT CAVOK 22/09 Q1021,EDDE,2023-07-07T21:50:00Z,50.98,10.97,22.0,9.0,60,5,,6.21,30.147638,,,TRUE,,,,,,,,CAVOK,,,,,,,,VFR,,,,,,,,,,,,METAR,314.0
EDDC 072150Z AUTO VRB01KT CAVOK 21/09 Q1021,EDDC,2023-07-07T21:50:00Z,51.13,13.75,21.0,9.0,0,1,,6.21,30.147638,,,TRUE,,,,,,,,CAVOK,,,,,,,,VFR,,,,,,,,,,,,METAR,227.0
EDDB 072150Z AUTO 07005KT CAVOK 18/10 Q1021 NOSIG,EDDB,2023-07-07T21:50:00Z,52.38,13.53,18.0,10.0,70,5,,6.21,30.147638,,,TRUE,,,TRUE,,,,,CAVOK,,,,,,,,VFR,,,,,,,,,,,,METAR,48.0
EDBC 072150Z AUTO 06004KT 9999 // NCD 20/09 Q1021,EDBC,2023-07-07T21:50:00Z,51.85,11.42,20.0,9.0,60,4,,6.21,30.147638,,,TRUE,,,,,,,,CLR,,,,,,,,VFR,,,,,,,,,,,,METAR,178.0
EDAH 072150Z AUTO 05004KT 020V080 9999 // NCD 18/11 Q1022,EDAH,2023-07-07T21:50:00Z,53.87,14.15,18.0,11.0,50,4,,6.21,30.177166,,,TRUE,,,,,,,,CLR,,,,,,,,VFR,,,,,,,,,,,,METAR,22.0
EDAC 072150Z AUTO VRB01KT 9999 // NCD 17/12 Q1021,EDAC,2023-07-07T21:50:00Z,50.98,12.5,17.0,12.0,0,1,,6.21,30.147638,,,TRUE,,,,,,,,CLR,,,,,,,,VFR,,,,,,,,,,,,METAR,193.0
EBOS 072150Z 09006KT CAVOK 20/11 Q1016 NOSIG,EBOS,2023-07-07T21:50:00Z,51.2,2.87,20.0,11.0,90,6,,6.21,30.0,,,,,,TRUE,,,,,CAVOK,,,,,,,,VFR,,,,,,,,,,,,METAR,5.0
EBLG 072150Z 13007KT 110V170 CAVOK 23/10 Q1017 NOSIG,EBLG,2023-07-07T21:50:00Z,50.63,5.45,23.0,10.0,130,7,,6.21,30.029528,,,,,,TRUE,,,,,CAVOK,,,,,,,,VFR,,,,,,,,,,,,METAR,187.0
EBCI 072150Z 10005KT 070V130 CAVOK 21/11 Q1017 NOSIG,EBCI,2023-07-07T21:50:00Z,50.47,4.45,21.0,11.0,100,5,,6.21,30.029528,,,,,,TRUE,,,,,CAVOK,,,,,,,,VFR,,,,,,,,,,,,METAR,176.0
EBBR 072150Z 09004KT CAVOK 21/12 Q1016 NOSIG,EBBR,2023-07-07T21:50:00Z,50.9,4.52,21.0,12.0,90,4,,6.21,30.0,,,,,,TRUE,,,,,CAVOK,,,,,,,,VFR,,,,,,,,,,,,METAR,49.0
EBAW 072150Z AUTO 06005KT 9999 // VV/// 20/11 Q1016,EBAW,2023-07-07T21:50:00Z,51.2,4.47,20.0,11.0,60,5,,6.21,30.0,,,TRUE,,,,,,,,OVX,0,,,,,,,LIFR,,,,,,,,,,,,METAR,7.0
CZMT 072150Z 35007KT 330V070 15SM FEW004 SCT008 14/11 A2989 RMK SF2SF1 SLP122,CZMT,2023-07-07T21:50:00Z,54.03,-132.13,14.0,11.0,350,7,,15.0,29.890747,1012.2,,,,,,,,,,FEW,400,SCT,800,,,,,VFR,,,,,,,,,,,,SPECI,11.0
BGSF 072150Z AUTO 05010KT 9999NDV SCT060/// BKN095/// 15/05 Q1019,BGSF,2023-07-07T21:50:00Z,67.0,-50.72,15.0,5.0,50,10,,,30.088583,,,TRUE,,,,,,,,SCT,6000,BKN,9500,,,,,,,,,,,,,,,,,METAR,75.0
BGKK 072150Z AUTO 25007KT //// NCD 07/02 Q1020,BGKK,2023-07-07T21:50:00Z,65.57,-37.13,7.0,2.0,250,7,,,30.11811,,,TRUE,,,,,,,,CLR,,,,,,,,,,,,,,,,,,,,METAR,37.0
BGJN 072150Z 18012KT 9999 BCFG SCT003 BKN014 BKN022 08/07 Q1020,BGJN,2023-07-07T21:50:00Z,69.25,-51.07,8.0,7.0,180,12,,6.21,30.11811,,,,,,,,,,BCFG,SCT,300,BKN,1400,BKN,2200,,,MVFR,,,,,,,,,,,,METAR,22.0
BGGH 072150Z 22007KT 9999 4000W VCFG SCT003 BKN180 06/04 Q1022,BGGH,2023-07-07T21:50:00Z,64.2,-51.68,6.0,4.0,220,7,,6.21,30.177166,,,,,,,,,,VCFG,SCT,300,BKN,18000,,,,,VFR,,,,,,,,,,,,METAR,76.0
BGBW 072150Z 05005KT 9999 SCT200 16/06 Q1021,BGBW,2023-07-07T21:50:00Z,61.17,-45.42,16.0,6.0,50,5,,6.21,30.147638,,,,,,,,,,,SCT,20000,,,,,,,VFR,,,,,,,,,,,,METAR,49.0
MMPB 072149Z 17010KT 11SM FEW025 SCT230 24/10 A3022 RMK 8/102 DSNT CB SE,MMPB,2023-07-07T21:49:00Z,19.17,-98.37,24.0,10.0,170,10,,11.0,30.221457,,,,,,,,,,,FEW,2500,SCT,23000,,,,,VFR,,,,,,,,,,,,METAR,2250.0
MMOX 072149Z 09006KT 7SM -RA BKN025 BKN040 OVC080 21/15 A3009 RMK 60275 8/81/ RAB48 VCCB NE,MMOX,2023-07-07T21:49:00Z,17.0,-96.72,21.0,15.0,90,6,,7.0,30.088583,,,,,,,,,,-RA,BKN,2500,BKN,4000,OVC,8000,,,MVFR,,,,,,,,,,,,METAR,1528.0
KMWA 072149Z 00000KT 15SM FEW050 SCT200 29/20 A2992,KMWA,2023-07-07T21:49:00Z,37.77,-89.02,29.0,20.0,0,0,,15.0,29.920275,,,,,,,,,,,FEW,5000,SCT,20000,,,,,VFR,,,,,,,,,,,,METAR,142.0
KFME 072149Z AUTO 19006KT 10SM SCT120 29/23 A2984 RMK AO1,KFME,2023-07-07T21:49:00Z,39.08,-76.77,29.0,23.0,190,6,,10.0,29.840551,,,TRUE,TRUE,,,,,,,SCT,12000,,,,,,,VFR,,,,,,,,,,,,SPECI,43.0
KAEG 072149Z 17017G25KT 10SM CLR 31/04 A3005,KAEG,2023-07-07T21:49:00Z,35.13,-106.8,31.0,4.0,170,17,25,10.0,30.050198,,,,,,,,,,,CLR,,,,,,,,VFR,,,,,,,,,,,,METAR,1771.0
MMCT 072148Z 10005KT 6SM SCT025CB SCT100 BKN250 28/24 A2988 RMK 8/363,MMCT,2023-07-07T21:48:00Z,20.63,-88.45,28.0,24.0,100,5,,6.0,29.878937,,,,,,,,,,,SCT,2500,SCT,10000,BKN,25000,,,VFR,,,,,,,,,,,,METAR,29.0
KTRK 072148Z 27012G19KT 10SM SCT120 26/06 A3004,KTRK,2023-07-07T21:48:00Z,39.32,-120.13,26.0,6.0,270,12,19,10.0,30.041338,,,,,,,,,,,SCT,12000,,,,,,,VFR,,,,,,,,,,,,METAR,1800.0
KJDN 072148Z AUTO VRB03KT 26/06 A3004 RMK AO1 SLP159 T02610061,KJDN,2023-07-07T21:48:00Z,47.33,-106.95,26.1,6.1,0,3,,,30.041338,1015.9,,TRUE,TRUE,,,,,,,,,,,,,,,,,,,,,,,,,,,METAR,802.0
KASG 072148Z 20013KT 10SM CLR 29/25 A2991,KASG,2023-07-07T21:48:00Z,36.17,-94.12,29.0,25.0,200,13,,10.0,29.911417,,,,,,,,,,,CLR,,,,,,,,VFR,,,,,,,,,,,,METAR,410.0
CZBF 072148Z AUTO 34006G20KT 290V010 6SM RA BR BKN044 BKN066 OVC075 21/21 A2982 RMK PCPN 3.3MM PAST HR TS/LTNG TEMPO UNAVBL SLP099 DENSITY ALT 1200FT,CZBF,2023-07-07T21:48:00Z,47.62,-65.75,21.0,21.0,340,6,20,6.0,29.819881,1009.9,,TRUE,,,,,,,RA BR,BKN,4400,BKN,6600,OVC,7500,,,VFR,,,,,,,,,,,,SPECI,60.0
MMSM 072147Z 14006KT 8SM SCT020CB BKN080 BKN200 22/08 A3022 RMK 8/363 HZY DSNT PCPN SW/W,MMSM,2023-07-07T21:47:00Z,19.75,-99.02,22.0,8.0,140,6,,8.0,30.221457,,,,,,,,,,,SCT,2000,BKN,8000,BKN,20000,,,VFR,,,,,,,,,,,,METAR,2250.0
MMPS 072147Z 26005KT 10SM FEW030 SCT150 31/21 A2982 RMK 8/470 HZY,MMPS,2023-07-07T21:47:00Z,15.87,-97.08,31.0,21.0,260,5,,10.0,29.819881,,,,,,,,,,,FEW,3000,SCT,15000,,,,,VFR,,,,,,,,,,,,METAR,65.0
MMMD 072147Z 09012KT 7SM FEW020 SCT070 BKN100 BKN300 30/23 A2989 RMK 8/463 DSNT CB S,MMMD,2023-07-07T21:47:00Z,20.95,-89.65,30.0,23.0,90,12,,7.0,29.890747,,,,,,,,,,,FEW,2000,SCT,7000,BKN,10000,BKN,30000,VFR,,,,,,,,,,,,METAR,10.0
KTOA 072147Z 27014KT 10SM SKC 23/14 A2985,KTOA,2023-07-07T21:47:00Z,33.8,-118.33,23.0,14.0,270,14,,10.0,29.84941,,,,,,,,,,,SKC,,,,,,,,VFR,,,,,,,,,,,,METAR,30.0
KSQL 072147Z 26018G26KT 10SM SCT020 17/11 A2995,KSQL,2023-07-07T21:47:00Z,37.52,-122.25,17.0,11.0,260,18,26,10.0,29.949802,,,,,,,,,,,SCT,2000,,,,,,,VFR,,,,,,,,,,,,METAR,1.0
KSEE 072147Z 22008KT 10SM SKC 26/11 A2982,KSEE,2023-07-07T21:47:00Z,32.82,-116.97,26.0,11.0,220,8,,10.0,29.819881,,,,,,,,,,,SKC,,,,,,,,VFR,,,,,,,,,,,,METAR,113.0
KRHV 072147Z 29011KT 10SM SKC 22/12 A2991,KRHV,2023-07-07T21:47:00Z,37.33,-121.82,22.0,12.0,290,11,,10.0,29.911417,,,,,,,,,,,SKC,,,,,,,,VFR,,,,,,,,,,,,METAR,37.0
KPOC 072147Z 25008G15KT 10SM CLR 27/11 A2984,KPOC,2023-07-07T21:47:00Z,34.1,-117.77,27.0,11.0,250,8,15,10.0,29.840551,,,,,,,,,,,CLR,,,,,,,,VFR,,,,,,,,,,,,METAR,304.0
KPAO 072147Z 32013G20KT 10SM FEW020 19/12 A2992,KPAO,2023-07-07T21:47:00Z,37.47,-122.12,19.0,12.0,320,13,20,10.0,29.920275,,,,,,,,,,,FEW,2000,,,,,,,VFR,,,,,,,,,,,,METAR,2.0
KLBE 072147Z 32008KT 10SM SCT032 SCT080 27/20 A2990,KLBE,2023-07-07T21:47:00Z,40.27,-79.4,27.0,20.0,320,8,,10.0,29.899607,,,,,,,,,,,SCT,3200,SCT,8000,,,,,VFR,,,,,,,,,,,,METAR,345.0
KHSA 072147Z 22005KT 10SM SCT050 31/24 A2992 VCTS,KHSA,2023-07-07T21:47:00Z,30.37,-89.45,31.0,24.0,220,5,,10.0,29.920275,,,,,,,,,,VCTS,SCT,5000,,,,,,,VFR,,,,,,,,,,,,METAR,6.0
KGYR 072147Z 2701G15KT 10SM FEW180 42/04 A2969,KGYR,2023-07-07T21:47:00Z,33.42,-112.37,42.0,4.0,,,,10.0,29.68996,,,,,,,,,,,FEW,18000,,,,,,,VFR,,,,,,,,,,,,METAR,292.0
KGYH 072147Z 01009KT 10SM SCT120 24/22 A2988,KGYH,2023-07-07T21:47:00Z,34.75,-82.38,24.0,22.0,10,9,,10.0,29.878937,,,,,,,,,,,SCT,12000,,,,,,,VFR,,,,,,,,,,,,METAR,283.0
KFWS 072147Z 17011G17KT 10SM SCT050 36/19 A2989,KFWS,2023-07-07T21:47:00Z,32.57,-97.3,36.0,19.0,170,11,17,10.0,29.890747,,,,,,,,,,,SCT,5000,,,,,,,VFR,,,,,,,,,,,,METAR,211.0
KFDK 072147Z 00000KT 10SM SCT060 SCT075 32/23 A2983,KFDK,2023-07-07T21:47:00Z,39.42,-77.37,32.0,23.0,0,0,,10.0,29.828741,,,,,,,,,,,SCT,6000,SCT,7500,,,,,VFR,,,,,,,,,,,,METAR,82.0
KCWA 072147Z 32004KT 10SM SCT020 23/09 A2997,KCWA,2023-07-07T21:47:00Z,44.78,-89.67,23.0,9.0,320,4,,10.0,29.970472,,,,,,,,,,,SCT,2000,,,,,,,VFR,,,,,,,,,,,,METAR,387.0
KCQT 072147Z AUTO 26006KT 10SM CLR 23/14 A2985 RMK AO2 SLP105 T02280139,KCQT,2023-07-07T21:47:00Z,34.02,-118.28,22.8,13.9,260,6,,10.0,29.84941,1010.5,,TRUE,TRUE,,,,,,,CLR,,,,,,,,VFR,,,,,,,,,,,,METAR,51.0
KCIC 072147Z 17008KT 10SM CLR 30/12 A2979,KCIC,2023-07-07T21:47:00Z,39.78,-121.85,30.0,12.0,170,8,,10.0,29.790354,,,,,,,,,,,CLR,,,,,,,,VFR,,,,,,,,,,,,METAR,72.0
KCHD 072147Z 22006G16KT 10SM CLR 42/01 A2970,KCHD,2023-07-07T21:47:00Z,33.27,-111.82,42.0,1.0,220,6,16,10.0,29.698818,,,,,,,,,,,CLR,,,,,,,,VFR,,,,,,,,,,,,METAR,378.0
KCFO 072147Z 05010KT 10SM BKN042 23/12 A3013,KCFO,2023-07-07T21:47:00Z,39.78,-104.55,23.0,12.0,50,10,,10.0,30.129921,,,,,,,,,,,BKN,4200,,,,,,,VFR,,,,,,,,,,,,METAR,1672.0
KAQV 072147Z AUTO VRB03KT 10SM BKN070 OVC100 36/18 A2989 RMK AO2 SLPNO T03560178,KAQV,2023-07-07T21:47:00Z,31.4,-93.3,35.6,17.8,0,3,,10.0,29.890747,,,TRUE,TRUE,,,,,,,BKN,7000,OVC,10000,,,,,VFR,,,,,,,,,,,,METAR,123.0
KADS 072147Z 19011G20KT 13SM SCT060 35/19 A2987,KADS,2023-07-07T21:47:00Z,32.97,-96.83,35.0,19.0,190,11,20,13.0,29.870079,,,,,,,,,,,SCT,6000,,,,,,,VFR,,,,,,,,,,,,METAR,198.0
CYBD 072147Z 21008KT 200V290 10SM TSRA SCT030CB BKN110 OVC150 23/17 A2981 RMK CB3AC3AC2 SLP096 DENSITY ALT 1200FT,CYBD,2023-07-07T21:47:00Z,52.38,-126.58,23.0,17.0,210,8,,10.0,29.811024,1009.6,,,,,,,,,TSRA,SCT,3000,BKN,11000,OVC,15000,,,VFR,,,,,,,,,,,,SPECI,40.0
MMVA 072146Z 07009KT 8SM FEW015 SCT210 34/21 A2978 RMK 8/103,MMVA,2023-07-07T21:46:00Z,18.0,-92.82,34.0,21.0,70,9,,8.0,29.778543,,,,,,,,,,,FEW,1500,SCT,21000,,,,,VFR,,,,,,,,,,,,METAR,13.0
MMMM 072146Z 20014KT 8SM FEW030 SCT070 26/13 A3013 RMK 8/130 HZY TCU E S,MMMM,2023-07-07T21:46:00Z,19.85,-101.03,26.0,13.0,200,14,,8.0,30.129921,,,,,,,,,,,FEW,3000,SCT,7000,,,,,VFR,,,,,,,,,,,,SPECI,1840.0
MMIO 072146Z 36010KT 10SM BKN040TCU 29/12 A3010 RMK 8/200,MMIO,2023-07-07T21:46:00Z,25.55,-100.93,29.0,12.0,360,10,,10.0,30.100393,,,,,,,,,,,BKN,4000,,,,,,,VFR,,,,,,,,,,,,METAR,1430.0
KSAW 072146Z 19009KT 10SM SCT060 24/09 A2991,KSAW,2023-07-07T21:46:00Z,46.35,-87.4,24.0,9.0,190,9,,10.0,29.911417,,,,,,,,,,,SCT,6000,,,,,,,VFR,,,,,,,,,,,,METAR,359.0
CYYW 072146Z AUTO VRB02KT 9SM FEW050 OVC100 16/14 A2981 RMK PCPN 2.0MM PAST HR TS/LTNG TEMPO UNAVBL SLP090 DENSITY ALT 1600FT,CYYW,2023-07-07T21:46:00Z,50.3,-88.9,16.0,14.0,0,2,,9.0,29.811024,1009.0,,TRUE,,,,,,,,FEW,5000,OVC,10000,,,,,VFR,,,,,,,,,,,,SPECI,320.0
CYXQ 072146Z 09013KT 070V150 30SM SCT140 BKN250 31/03 A2976 RMK ACC3CI3 WSHFT 2131 SLP078 DENSITY ALT 4700FT,CYXQ,2023-07-07T21:46:00Z,62.42,-140.87,31.0,3.0,90,13,,30.0,29.760826,1007.8,,,,,,,,,,SCT,14000,BKN,25000,,,,,VFR,,,,,,,,,,,,SPECI,663.0
TJIG 072145Z 08013G19KT 6SM HZ SCT030 SCT080 30/26 A2997,TJIG,2023-07-07T21:45:00Z,18.45,-66.1,30.0,26.0,80,13,19,6.0,29.970472,,,,,,,,,,HZ,SCT,3000,SCT,8000,,,,,VFR,,,,,,,,,,,,METAR,3.0
SBPB 072145Z /////KT 9999 FEW016 28/23 Q1011,SBPB,2023-07-07T21:45:00Z,-2.88,-41.72,28.0,23.0,,,,6.21,29.852362,,,,,,,,,,,FEW,1600,,,,,,,VFR,,,,,,,,,,,,SPECI,3.0
PAKU 072145Z 09008KT 10SM R06/P6000FT BKN080 17/13 A2972,PAKU,2023-07-07T21:45:00Z,70.32,-149.6,17.0,13.0,90,8,,10.0,29.719488,,,,,,,,,,,BKN,8000,,,,,,,VFR,,,,,,,,,,,,METAR,23.0
LMML 072145Z 20005KT CAVOK 26/15 Q1019 NOSIG,LMML,2023-07-07T21:45:00Z,35.85,14.47,26.0,15.0,200,5,,6.21,30.088583,,,,,,TRUE,,,,,CAVOK,,,,,,,,VFR,,,,,,,,,,,,METAR,78.0
LIRP 072145Z 17003KT CAVOK 23/21 Q1018 NOSIG,LIRP,2023-07-07T21:45:00Z,43.68,10.38,23.0,21.0,170,3,,6.21,30.059055,,,,,,TRUE,,,,,CAVOK,,,,,,,,VFR,,,,,,,,,,,,METAR,1.0
LHSN 072145Z 01004KT CAVOK 18/11 Q1021 NOSIG RMK BLU,LHSN,2023-07-07T21:45:00Z,47.12,20.23,18.0,11.0,10,4,,6.21,30.147638,,,,,,TRUE,,,,,CAVOK,,,,,,,,VFR,,,,,,,,,,,,SPECI,89.0
LHSM 072145Z AUTO VRB03KT CAVOK 17/13 Q1022,LHSM,2023-07-07T21:45:00Z,46.68,17.17,17.0,13.0,0,3,,6.21,30.177166,,,TRUE,,,,,,,,CAVOK,,,,,,,,VFR,,,,,,,,,,,,METAR,119.0
LHPR 072145Z AUTO 26004KT CAVOK 16/11 Q1021,LHPR,2023-07-07T21:45:00Z,47.63,17.82,16.0,11.0,260,4,,6.21,30.147638,,,TRUE,,,,,,,,CAVOK,,,,,,,,VFR,,,,,,,,,,,,METAR,127.0
LHPP 072145Z AUTO 34004KT CAVOK 19/12 Q1022,LHPP,2023-07-07T21:45:00Z,45.98,18.23,19.0,12.0,340,4,,6.21,30.177166,,,TRUE,,,,,,,,CAVOK,,,,,,,,VFR,,,,,,,,,,,,METAR,193.0
LHPA 072145Z 14002KT CAVOK 14/12 Q1022 NOSIG RMK BLU,LHPA,2023-07-07T21:45:00Z,47.35,17.5,14.0,12.0,140,2,,6.21,30.177166,,,,,,TRUE,,,,,CAVOK,,,,,,,,VFR,,,,,,,,,,,,METAR,143.0
LHKE 072145Z 05004KT CAVOK 19/10 Q1022 NOSIG RMK BLU,LHKE,2023-07-07T21:45:00Z,46.92,19.75,19.0,10.0,50,4,,6.21,30.177166,,,,,,TRUE,,,,,CAVOK,,,,,,,,VFR,,,,,,,,,,,,SPECI,113.0
LHDC 072145Z AUTO 01007KT CAVOK 20/13 Q1020 NOSIG,LHDC,2023-07-07T21:45:00Z,47.48,21.62,20.0,13.0,10,7,,6.21,30.11811,,,TRUE,,,TRUE,,,,,CAVOK,,,,,,,,VFR,,,,,,,,,,,,METAR,105.0
KWDG 072145Z 10010KT 10SM FEW030 BKN120 26/21 A2990,KWDG,2023-07-07T21:45:00Z,36.37,-97.78,26.0,21.0,100,10,,10.0,29.899607,,,,,,,,,,,FEW,3000,BKN,12000,,,,,VFR,,,,,,,,,,,,METAR,352.0
KVUJ 072145Z AUTO 01003KT 10SM SCT055 33/20 A2987 RMK AO2 T03340199,KVUJ,2023-07-07T21:45:00Z,35.42,-80.15,33.4,19.9,10,3,,10.0,29.870079,,,TRUE,TRUE,,,,,,,SCT,5500,,,,,,,VFR,,,,,,,,,,,,SPECI,174.0
KUKF 072145Z AUTO 00000KT 10SM CLR 27/21 A2992 RMK AO2 LTG DSNT S,KUKF,2023-07-07T21:45:00Z,36.22,-81.1,27.0,21.0,0,0,,10.0,29.920275,,,TRUE,TRUE,,,,,,,CLR,,,,,,,,VFR,,,,,,,,,,,,SPECI,383.0
KUES 072145Z 12010KT 10SM SCT048 BKN050 23/12 A2995,KUES,2023-07-07T21:45:00Z,43.05,-88.25,23.0,12.0,120,10,,10.0,29.949802,,,,,,,,,,,SCT,4800,BKN,5000,,,,,VFR,,,,,,,,,,,,METAR,273.0
KTZR 072145Z 30010KT 10SM CLR 28/17 A2994,KTZR,2023-07-07T21:45:00Z,39.9,-83.13,28.0,17.0,300,10,,10.0,29.940945,,,,,,,,,,,CLR,,,,,,,,VFR,,,,,,,,,,,,METAR,275.0
KTTA 072145Z AUTO 28004KT 10SM CLR 33/21 A2980 RMK AO2 T03320207,KTTA,2023-07-07T21:45:00Z,35.58,-79.1,33.2,20.7,280,4,,10.0,29.799213,,,TRUE,TRUE,,,,,,,CLR,,,,,,,,VFR,,,,,,,,,,,,SPECI,71.0
KTDF 072145Z AUTO 28004KT 10SM 32/20 A2984 RMK AO2,KTDF,2023-07-07T21:45:00Z,36.28,-78.98,32.0,20.0,280,4,,10.0,29.840551,,,TRUE,TRUE,,,,,,,,,,,,,,,,,,,,,,,,,,,SPECI,180.0
KSWF 072145Z 22005KT 10SM BKN050 29/21 A2983,KSWF,2023-07-07T21:45:00Z,41.5,-74.08,29.0,21.0,220,5,,10.0,29.828741,,,,,,,,,,,BKN,5000,,,,,,,VFR,,,,,,,,,,,,METAR,139.0
KSVH 072145Z AUTO 31005KT 10SM CLR 26/21 A2986 RMK AO2 T02600205,KSVH,2023-07-07T21:45:00Z,35.75,-80.95,26.0,20.5,310,5,,10.0,29.861221,,,TRUE,TRUE,,,,,,,CLR,,,,,,,,VFR,,,,,,,,,,,,SPECI,286.0
KSIF 072145Z AUTO 23003KT 10SM CLR 28/23 A2983 RMK AO2 T02810231,KSIF,2023-07-07T21:45:00Z,36.43,-79.85,28.1,23.1,230,3,,10.0,29.828741,,,TRUE,TRUE,,,,,,,CLR,,,,,,,,VFR,,,,,,,,,,,,SPECI,206.0
KSCR 072145Z AUTO 36003KT 10SM CLR 31/24 A2983 RMK AO2 T03110235,KSCR,2023-07-07T21:45:00Z,35.7,-79.5,31.1,23.5,360,3,,10.0,29.828741,,,TRUE,TRUE,,,,,,,CLR,,,,,,,,VFR,,,,,,,,,,,,SPECI,182.0
KSCH 072145Z 28003KT 15SM SCT010 BKN045 OVC050 23/22 A2988,KSCH,2023-07-07T21:45:00Z,42.85,-73.92,23.0,22.0,280,3,,15.0,29.878937,,,,,,,,,,,SCT,1000,BKN,4500,OVC,5000,,,VFR,,,,,,,,,,,,METAR,100.0
KRUQ 072145Z AUTO 00000KT 10SM SCT037 SCT050 BKN090 25/21 A2985 RMK AO2 T02510208,KRUQ,2023-07-07T21:45:00Z,35.65,-80.52,25.1,20.8,0,0,,10.0,29.84941,,,TRUE,TRUE,,,,,,,SCT,3700,SCT,5000,BKN,9000,,,VFR,,,,,,,,,,,,SPECI,231.0
KPGV 072145Z AUTO 00000KT 10SM CLR 26/25 A2980 RMK AO2,KPGV,2023-07-07T21:45:00Z,35.63,-77.4,26.0,25.0,0,0,,10.0,29.799213,,,TRUE,TRUE,,,,,,,CLR,,,,,,,,VFR,,,,,,,,,,,,METAR,6.0
KOUN 072145Z 08010KT 10SM CLR 27/21 A2990,KOUN,2023-07-07T21:45:00Z,35.25,-97.47,27.0,21.0,80,10,,10.0,29.899607,,,,,,,,,,,CLR,,,,,,,,VFR,,,,,,,,,,,,METAR,359.0
KONX 072145Z AUTO 09003KT 10SM CLR 28/19 A2982 RMK AO2 T02780193,KONX,2023-07-07T21:45:00Z,36.4,-76.02,27.8,19.3,90,3,,10.0,29.819881,,,TRUE,TRUE,,,,,,,CLR,,,,,,,,VFR,,,,,,,,,,,,SPECI,4.0
KMWK 072145Z AUTO 22004KT 10SM SCT050 SCT060 29/21 A2989 RMK AO2 T02890213,KMWK,2023-07-07T21:45:00Z,36.47,-80.55,28.9,21.3,220,4,,10.0,29.890747,,,TRUE,TRUE,,,,,,,SCT,5000,SCT,6000,,,,,VFR,,,,,,,,,,,,SPECI,374.0
KMWC 072145Z 14010KT 10SM CLR 23/13 A2995,KMWC,2023-07-07T21:45:00Z,43.12,-88.03,23.0,13.0,140,10,,10.0,29.949802,,,,,,,,,,,CLR,,,,,,,,VFR,,,,,,,,,,,,METAR,225.0
KMMU 072145Z 15007KT 10SM BKN250 30/20 A2983,KMMU,2023-07-07T21:45:00Z,40.78,-74.42,30.0,20.0,150,7,,10.0,29.828741,,,,,,,,,,,BKN,25000,,,,,,,VFR,,,,,,,,,,,,METAR,55.0
KMCZ 072145Z AUTO 22004KT 10SM -RA BKN120 24/23 A2982 RMK AO2 P0004 T02370228,KMCZ,2023-07-07T21:45:00Z,,,23.7,22.8,220,4,,10.0,29.819881,,,TRUE,TRUE,,,,,,-RA,BKN,12000,,,,,,,VFR,,,,,,0.04,,,,,,SPECI,
KLWB 072145Z 33007KT 10SM CLR 27/18 A2996,KLWB,2023-07-07T21:45:00Z,37.87,-80.4,27.0,18.0,330,7,,10.0,29.958662,,,,,,,,,,,CLR,,,,,,,,VFR,,,,,,,,,,,,METAR,702.0
KLOT 072145Z 18010KT 10SM SCT055 27/16 A2993,KLOT,2023-07-07T21:45:00Z,41.6,-88.1,27.0,16.0,180,10,,10.0,29.929134,,,,,,,,,,,SCT,5500,,,,,,,VFR,,,,,,,,,,,,METAR,205.0
KJVL 072145Z 28008KT 10SM BKN060 OVC250 26/11 A2994,KJVL,2023-07-07T21:45:00Z,42.62,-89.05,26.0,11.0,280,8,,10.0,29.940945,,,,,,,,,,,BKN,6000,OVC,25000,,,,,VFR,,,,,,,,,,,,METAR,244.0
KJNX 072145Z AUTO 35003KT 10SM SCT060 SCT070 SCT090 28/21 A2980 RMK AO2 LTG DSNT ALQS,KJNX,2023-07-07T21:45:00Z,35.53,-78.38,28.0,21.0,350,3,,10.0,29.799213,,,TRUE,TRUE,,,,,,,SCT,6000,SCT,7000,SCT,9000,,,VFR,,,,,,,,,,,,SPECI,41.0
KIPJ 072145Z AUTO 00000KT 10SM CLR 26/20 A2987 RMK AO2 T02610195,KIPJ,2023-07-07T21:45:00Z,35.48,-81.17,26.1,19.5,0,0,,10.0,29.870079,,,TRUE,TRUE,,,,,,,CLR,,,,,,,,VFR,,,,,,,,,,,,METAR,266.0
KHRJ 072145Z AUTO 23011KT 10SM BKN080 33/23 A2980 RMK AO2 T03290234,KHRJ,2023-07-07T21:45:00Z,35.38,-78.73,32.9,23.4,230,11,,10.0,29.799213,,,TRUE,TRUE,,,,,,,BKN,8000,,,,,,,VFR,,,,,,,,,,,,METAR,55.0
KHBI 072145Z AUTO 32009KT 290V350 10SM SCT042 SCT048 SCT055 32/22 A2985 RMK AO2 T03150218,KHBI,2023-07-07T21:45:00Z,35.65,-79.9,31.5,21.8,320,9,,10.0,29.84941,,,TRUE,TRUE,,,,,,,SCT,4200,SCT,4800,SCT,5500,,,VFR,,,,,,,,,,,,SPECI,199.0
KGYY 072145Z 03007KT 10SM FEW020 24/19 A2993,KGYY,2023-07-07T21:45:00Z,41.62,-87.42,24.0,19.0,30,7,,10.0,29.929134,,,,,,,,,,,FEW,2000,,,,,,,VFR,,,,,,,,,,,,METAR,179.0
KGEV 072145Z AUTO 00000KT 10SM SCT085 SCT090 24/18 A3001 RMK AO2 T02440177,KGEV,2023-07-07T21:45:00Z,36.43,-81.42,24.4,17.7,0,0,,10.0,30.008858,,,TRUE,TRUE,,,,,,,SCT,8500,SCT,9000,,,,,VFR,,,,,,,,,,,,SPECI,961.0
KFQD 072145Z AUTO 00000KT 10SM CLR 26/21 A2989 RMK AO2,KFQD,2023-07-07T21:45:00Z,35.42,-81.93,26.0,21.0,0,0,,10.0,29.890747,,,TRUE,TRUE,,,,,,,CLR,,,,,,,,VFR,,,,,,,,,,,,SPECI,325.0
KFMH 072145Z 17010KT 10SM SCT012 24/21 A2987,KFMH,2023-07-07T21:45:00Z,41.65,-70.52,24.0,21.0,170,10,,10.0,29.870079,,,,,,,,,,,SCT,1200,,,,,,,VFR,,,,,,,,,,,,METAR,35.0
KESN 072145Z 00000KT 10SM CLR 26/22 A2984,KESN,2023-07-07T21:45:00Z,38.8,-76.07,26.0,22.0,0,0,,10.0,29.840551,,,,,,,,,,,CLR,,,,,,,,VFR,,,,,,,,,,,,METAR,14.0
KEMT 072145Z 20012G17KT 10SM CLR 27/12 A2982,KEMT,2023-07-07T21:45:00Z,34.08,-118.03,27.0,12.0,200,12,17,10.0,29.819881,,,,,,,,,,,CLR,,,,,,,,VFR,,,,,,,,,,,,METAR,84.0
KEHO 072145Z AUTO 05004KT 10SM CLR 27/20 A2987 RMK AO2 T02700197,KEHO,2023-07-07T21:45:00Z,35.25,-81.6,27.0,19.7,50,4,,10.0,29.870079,,,TRUE,TRUE,,,,,,,CLR,,,,,,,,VFR,,,,,,,,,,,,SPECI,261.0
KDMW 072145Z AUTO 29009KT 10SM SCT045 31/22 A2985 RMK AO2,KDMW,2023-07-07T21:45:00Z,39.6,-77.0,31.0,22.0,290,9,,10.0,29.84941,,,TRUE,TRUE,,,,,,,SCT,4500,,,,,,,VFR,,,,,,,,,,,,METAR,239.0
KCWF 072145Z 12006KT 10SM BKN035 27/22 A2996 RMK RAB 41,KCWF,2023-07-07T21:45:00Z,30.22,-93.15,27.0,22.0,120,6,,10.0,29.958662,,,,,,,,,,,BKN,3500,,,,,,,VFR,,,,,,,,,,,,METAR,4.0
KCTZ 072145Z AUTO 00000KT 10SM CLR 33/25 A2980 RMK AO2 T03250252,KCTZ,2023-07-07T21:45:00Z,34.98,-78.37,32.5,25.2,0,0,,10.0,29.799213,,,TRUE,TRUE,,,,,,,CLR,,,,,,,,VFR,,,,,,,,,,,,SPECI,43.0
KCPC 072145Z AUTO 22003KT 4SM HZ CLR 33/22 A2980 RMK AO2 T03300220,KCPC,2023-07-07T21:45:00Z,34.28,-78.72,33.0,22.0,220,3,,4.0,29.799213,,,TRUE,TRUE,,,,,,HZ,CLR,,,,,,,,MVFR,,,,,,,,,,,,SPECI,27.0
KCGF 072145Z 03006KT 10SM CLR 23/14 A2997,KCGF,2023-07-07T21:45:00Z,41.57,-81.47,23.0,14.0,30,6,,10.0,29.970472,,,,,,,,,,,CLR,,,,,,,,VFR,,,,,,,,,,,,METAR,265.0
KCGE 072145Z AUTO 12009KT 10SM SCT025 27/25 A2984 RMK A01,KCGE,2023-07-07T21:45:00Z,38.53,-76.03,27.0,25.0,120,9,,10.0,29.840551,,,TRUE,TRUE,,,,,,,SCT,2500,,,,,,,VFR,,,,,,,,,,,,METAR,5.0
KCBE 072145Z AUTO 31009KT 10SM SCT080 30/20 A2989 RMK AO2 T03010197,KCBE,2023-07-07T21:45:00Z,39.62,-78.77,30.1,19.7,310,9,,10.0,29.890747,,,TRUE,TRUE,,,,,,,SCT,8000,,,,,,,VFR,,,,,,,,,,,,SPECI,226.0
KBJC 072145Z 04009KT 10SM BKN070 23/09 A3014,KBJC,2023-07-07T21:45:00Z,39.9,-105.1,23.0,9.0,40,9,,10.0,30.138779,,,,,,,,,,,BKN,7000,,,,,,,VFR,,,,,,,,,,,,METAR,1694.0
KBBG 072145Z 00000KT 10SM FEW045 30/22 A2991,KBBG,2023-07-07T21:45:00Z,36.53,-93.2,30.0,22.0,0,0,,10.0,29.911417,,,,,,,,,,,FEW,4500,,,,,,,VFR,,,,,,,,,,,,METAR,403.0
KATW 072145Z 16004KT 10SM SCT050 25/08 A2996,KATW,2023-07-07T21:45:00Z,44.27,-88.52,25.0,8.0,160,4,,10.0,29.958662,,,,,,,,,,,SCT,5000,,,,,,,VFR,,,,,,,,,,,,METAR,266.0
KASJ 072145Z AUTO 00000KT 10SM CLR 25/25 A2983 RMK AO2 T02450245,KASJ,2023-07-07T21:45:00Z,36.28,-77.17,24.5,24.5,0,0,,10.0,29.828741,,,TRUE,TRUE,,,,,,,CLR,,,,,,,,VFR,,,,,,,,,,,,SPECI,20.0
KACZ 072145Z AUTO 00000KT 10SM CLR 33/23 A2979 RMK AO2 T03310233,KACZ,2023-07-07T21:45:00Z,,,33.1,23.3,0,0,,10.0,29.790354,,,TRUE,TRUE,,,,,,,CLR,,,,,,,,VFR,,,,,,,,,,,,SPECI,
K7W6 072145Z AUTO 15008KT 10SM CLR 30/24 A2981 RMK AO2 T02960241,K7W6,2023-07-07T21:45:00Z,35.55,-75.95,29.6,24.1,150,8,,10.0,29.811024,,,TRUE,TRUE,,,,,,,CLR,,,,,,,,VFR,,,,,,,,,,,,SPECI,1.0
K2G4 072145Z AUTO 31007KT 10SM SCT014 SCT026 SCT039 23/20 A3000 RMK AO2,K2G4,2023-07-07T21:45:00Z,39.58,-79.33,23.0,20.0,310,7,,10.0,30.0,,,TRUE,TRUE,,,,,,,SCT,1400,SCT,2600,SCT,3900,,,VFR,,,,,,,,,,,,METAR,908.0
K24A 072145Z AUTO 00000KT 10SM CLR 26/19 A3001 RMK AO2 LTG DSNT SE T02560186,K24A,2023-07-07T21:45:00Z,35.32,-83.2,25.6,18.6,0,0,,10.0,30.008858,,,TRUE,TRUE,,,,,,,CLR,,,,,,,,VFR,,,,,,,,,,,,SPECI,864.0
CWPF 072145Z AUTO 18010KT 18/11 RMK AO1 SLP107 T01770106 58013,CWPF,2023-07-07T21:45:00Z,48.43,-123.43,17.7,10.6,180,10,,,,1010.7,,TRUE,TRUE,,,,,,,,,,,,,,,,-1.3,,,,,,,,,,,METAR,5.0
RJTE 072144Z 22015KT 8000 SCT005 BKN/// 26/25 Q1009 RMK 4ST005 A2980 PEAK GUST 23KT,RJTE,2023-07-07T21:44:00Z,34.98,139.82,26.0,25.0,220,15,,4.97,29.793306,,,,,,,,,,,SCT,500,,,,,,,MVFR,,,,,,,,,,,,METAR,3.0
MMUN 072144Z 13011KT 7SM FEW015TCU SCT250 31/24 A2993 RMK 8/208 HZY,MMUN,2023-07-07T21:44:00Z,21.03,-86.85,31.0,24.0,130,11,,7.0,29.929134,,,,,,,,,,,FEW,1500,SCT,25000,,,,,VFR,,,,,,,,,,,,METAR,13.0
MMCZ 072144Z 10008KT 8SM SCT015TCU SCT250 32/25 A2991 RMK 8/206,MMCZ,2023-07-07T21:44:00Z,20.52,-86.92,32.0,25.0,100,8,,8.0,29.911417,,,,,,,,,,,SCT,1500,SCT,25000,,,,,VFR,,,,,,,,,,,,METAR,7.0
MMVR 072143Z 06007KT 6SM SKC 32/25 A2982 RMK HZY DSNT CBS S,MMVR,2023-07-07T21:43:00Z,19.15,-96.18,32.0,25.0,60,7,,6.0,29.819881,,,,,,,,,,,SKC,,,,,,,,VFR,,,,,,,,,,,,METAR,26.0
MMPG 072143Z 08008KT 8SM BKN030 34/25 A2989 RMK 8/500 HZY,MMPG,2023-07-07T21:43:00Z,28.62,-100.53,34.0,25.0,80,8,,8.0,29.890747,,,,,,,,,,,BKN,3000,,,,,,,MVFR,,,,,,,,,,,,METAR,224.0
MMMZ 072143Z 22005KT 15SM FEW030 SCT250 33/24 A2978 RMK 8/403 DSNT CB 1ST QUAD,MMMZ,2023-07-07T21:43:00Z,23.17,-106.27,33.0,24.0,220,5,,15.0,29.778543,,,,,,,,,,,FEW,3000,SCT,25000,,,,,VFR,,,,,,,,,,,,METAR,7.0
MMMX 072143Z 10012G22KT 10SM SCT020CB BKN080 BKN220 23/10 A3023 NOSIG RMK 8/363 HZY DSNT PCPN NW,MMMX,2023-07-07T21:43:00Z,19.43,-99.08,23.0,10.0,100,12,22,10.0,30.230314,,,,,,TRUE,,,,,SCT,2000,BKN,8000,BKN,22000,,,VFR,,,,,,,,,,,,METAR,2224.0
MMLO 072143Z 00000KT 10SM SCT030 BKN090 BKN250 28/11 A3014 RMK 8/263 CB NE W,MMLO,2023-07-07T21:43:00Z,21.0,-101.47,28.0,11.0,0,0,,10.0,30.138779,,,,,,,,,,,SCT,3000,BKN,9000,BKN,25000,,,VFR,,,,,,,,,,,,METAR,1805.0
MMCE 072143Z 36008KT 7SM SCT020TCU SCT260 32/26 A2979 RMK 8/208 CB FRMG NE HZY,MMCE,2023-07-07T21:43:00Z,18.65,-91.8,32.0,26.0,360,8,,7.0,29.790354,,,,,,,,,,,SCT,2000,SCT,26000,,,,,VFR,,,,,,,,,,,,METAR,5.0
MMTG 072142Z 30014KT 6SM TS SCT040CB BKN070 BKN300 26/19 A2985 RMK 8/963 LWR VSBY AND +SHRA 1ST AND 4TH QUAD / VRBL COND,MMTG,2023-07-07T21:42:00Z,16.57,-93.03,26.0,19.0,300,14,,6.0,29.84941,,,,,,,,,,TS,SCT,4000,BKN,7000,BKN,30000,,,VFR,,,,,,,,,,,,METAR,463.0
MMPR 072142Z 23011KT 13SM SCT030TCU BKN130 31/24 A2973 RMK 8/230 CB 2ND QUAD,MMPR,2023-07-07T21:42:00Z,20.67,-105.25,31.0,24.0,230,11,,13.0,29.731298,,,,,,,,,,,SCT,3000,BKN,13000,,,,,VFR,,,,,,,,,,,,METAR,6.0
MMCB 072142Z 16007KT 10SM BKN020TCU 30/17 A3001 RMK 8/200 DSNT CB N/NE AC S,MMCB,2023-07-07T21:42:00Z,18.83,-99.27,30.0,17.0,160,7,,10.0,30.008858,,,,,,,,,,,BKN,2000,,,,,,,MVFR,,,,,,,,,,,,METAR,1281.0
KMYP 072142Z AUTO 28037G44KT 10SM SCT060 BKN080 BKN120 17/M05 A3058 RMK AO2,KMYP,2023-07-07T21:42:00Z,38.48,-106.32,17.0,-5.0,280,37,44,10.0,30.578741,,,TRUE,TRUE,,,,,,,SCT,6000,BKN,8000,BKN,12000,,,VFR,,,,,,,,,,,,SPECI,3629.0
MMTO 072141Z 17013KT 8SM SCT020CB SCT070 21/09 A3030 RMK 8/360,MMTO,2023-07-07T21:41:00Z,19.35,-99.57,21.0,9.0,170,13,,8.0,30.301182,,,,,,,,,,,SCT,2000,SCT,7000,,,,,VFR,,,,,,,,,,,,METAR,2582.0
MMTM 072141Z 11012KT 8SM SCT200 32/25 A2985 RMK 8/002 CU,MMTM,2023-07-07T21:41:00Z,22.28,-97.87,32.0,25.0,110,12,,8.0,29.84941,,,,,,,,,,,SCT,20000,,,,,,,VFR,,,,,,,,,,,,METAR,21.0
MMSL 072141Z 23013KT 10SM SKC 31/17 A2977 RMK ISOL SC,MMSL,2023-07-07T21:41:00Z,22.95,-109.93,31.0,17.0,230,13,,10.0,29.769686,,,,,,,,,,,SKC,,,,,,,,VFR,,,,,,,,,,,,METAR,205.0
MMPQ 072141Z 00000KT 6SM FEW030 SCT200 34/24 A2967 RMK 8/104,MMPQ,2023-07-07T21:41:00Z,17.53,-92.02,34.0,24.0,0,0,,6.0,29.66929,,,,,,,,,,,FEW,3000,SCT,20000,,,,,VFR,,,,,,,,,,,,METAR,48.0
MMMA 072141Z 15009KT 9SM BKN025TCU 33/25 A2987 RMK 8/200 ISOL AC,MMMA,2023-07-07T21:41:00Z,25.77,-97.52,33.0,25.0,150,9,,9.0,29.870079,,,,,,,,,,,BKN,2500,,,,,,,MVFR,,,,,,,,,,,,SPECI,7.0
MMLM 072141Z 19017KT 10SM SKC 34/21 A2974,MMLM,2023-07-07T21:41:00Z,25.68,-109.08,34.0,21.0,190,17,,10.0,29.740158,,,,,,,,,,,SKC,,,,,,,,VFR,,,,,,,,,,,,METAR,6.0
MMCL 072141Z 19008G18KT 8SM FEW030 SCT130 34/22 A2974 RMK 8/130 HZY,MMCL,2023-07-07T21:41:00Z,24.77,-107.47,34.0,22.0,190,8,18,8.0,29.740158,,,,,,,,,,,FEW,3000,SCT,13000,,,,,VFR,,,,,,,,,,,,METAR,35.0
CYPA 072141Z 23010KT 15SM FEW062 FEW085 SCT250 20/08 A3008 RMK SC2AC1CI1 AC TR WSHFT 2133 CU ASOCTD SLP197 DENSITY ALT 2200FT,CYPA,2023-07-07T21:41:00Z,53.22,-105.67,20.0,8.0,230,10,,15.0,30.079725,1019.7,,,,,,,,,,FEW,6200,FEW,8500,SCT,25000,,,VFR,,,,,,,,,,,,SPECI,428.0
MMZO 072140Z 15006KT 10SM FEW020 SCT210 32/27 A2976 RMK 8/104 DSNT CB NE,MMZO,2023-07-07T21:40:00Z,19.13,-104.57,32.0,27.0,150,6,,10.0,29.760826,,,,,,,,,,,FEW,2000,SCT,21000,,,,,VFR,,,,,,,,,,,,METAR,11.0
MMZC 072140Z E14010KT 10SM OVC050 24/13 A3015 RMK 8/2// CB SE/ RA SE,MMZC,2023-07-07T21:40:00Z,22.9,-102.68,24.0,13.0,140,10,,10.0,30.15059,,,,,,,,,,,OVC,5000,,,,,,,VFR,,,,,,,,,,,,METAR,2175.0
MMTP 072140Z 22010KT 6SM SCT025CB SCT070 BKN200 31/26 A2979 RMK 8/358 PCPN N NE OCNL LGTIC HZY,MMTP,2023-07-07T21:40:00Z,14.78,-92.37,31.0,26.0,220,10,,6.0,29.790354,,,,,,,,,,,SCT,2500,SCT,7000,BKN,20000,,,VFR,,,,,,,,,,,,METAR,27.0
MMTJ 072140Z 27011KT 8SM SKC 22/14 A2987 RMK HZY,MMTJ,2023-07-07T21:40:00Z,32.53,-116.97,22.0,14.0,270,11,,8.0,29.870079,,,,,,,,,,,SKC,,,,,,,,VFR,,,,,,,,,,,,METAR,150.0
MMTC 072140Z 31005KT 15SM SCT035TCU 34/15 A2992 RMK 8/200 CB DSNT NNE SW,MMTC,2023-07-07T21:40:00Z,25.57,-103.4,34.0,15.0,310,5,,15.0,29.920275,,,,,,,,,,,SCT,3500,,,,,,,VFR,,,,,,,,,,,,METAR,1128.0
MMSP 072140Z 06016KT 10SM BKN025CB 26/12 A3010 RMK 8/300 ISOL AC,MMSP,2023-07-07T21:40:00Z,22.25,-100.93,26.0,12.0,60,16,,10.0,30.100393,,,,,,,,,,,BKN,2500,,,,,,,MVFR,,,,,,,,,,,,METAR,1841.0
MMRX 072140Z 16012G22KT 8SM SCT040 BKN090 33/21 A2985 RMK 8/530,MMRX,2023-07-07T21:40:00Z,26.02,-98.22,33.0,21.0,160,12,22,8.0,29.84941,,,,,,,,,,,SCT,4000,BKN,9000,,,,,VFR,,,,,,,,,,,,SPECI,45.0
MMQT 072140Z 00000KT 7SM SCT025TCU SCT100 BKN250 29/11 A3016 RMK 8/238,MMQT,2023-07-07T21:40:00Z,20.62,-100.18,29.0,11.0,0,0,,7.0,30.159449,,,,,,,,,,,SCT,2500,SCT,10000,BKN,25000,,,VFR,,,,,,,,,,,,METAR,1909.0
MMPN 072140Z 19006KT 12SM FEW040TCU OVC080 24/18 A3010 RMK 8/25/ HZY BINOVC,MMPN,2023-07-07T21:40:00Z,19.38,-102.03,24.0,18.0,190,6,,12.0,30.100393,,,,,,,,,,,FEW,4000,OVC,8000,,,,,VFR,,,,,,,,,,,,METAR,1602.0
MMPA 072140Z 08005KT 4SM SCT030 BKN280 36/26 A2985 RMK 8/108 HZY,MMPA,2023-07-07T21:40:00Z,20.6,-97.47,36.0,26.0,80,5,,4.0,29.84941,,,,,,,,,,,SCT,3000,BKN,28000,,,,,MVFR,,,,,,,,,,,,METAR,153.0
MMNL 072140Z 14010G20KT 10SM SCT035 SCT080 38/18 A2982 RMK 8/170,MMNL,2023-07-07T21:40:00Z,27.43,-99.57,38.0,18.0,140,10,20,10.0,29.819881,,,,,,,,,,,SCT,3500,SCT,8000,,,,,VFR,,,,,,,,,,,,SPECI,146.0
MMMY 072140Z 14011KT 12SM BKN040TCU 33/20 A2985 RMK 8/200,MMMY,2023-07-07T21:40:00Z,25.77,-100.1,33.0,20.0,140,11,,12.0,29.84941,,,,,,,,,,,BKN,4000,,,,,,,VFR,,,,,,,,,,,,METAR,382.0
MMMT 072140Z 34015KT 7SM FEW030 SCT100 29/27 A2977 RMK 8/170 HZY,MMMT,2023-07-07T21:40:00Z,18.1,-94.57,29.0,27.0,340,15,,7.0,29.769686,,,,,,,,,,,FEW,3000,SCT,10000,,,,,VFR,,,,,,,,,,,,METAR,15.0
MMLT 072140Z 16014KT 8SM SKC 34/20 A2969 RMK HZY,MMLT,2023-07-07T21:40:00Z,25.98,-111.33,34.0,20.0,160,14,,8.0,29.68996,,,,,,,,,,,SKC,,,,,,,,VFR,,,,,,,,,,,,METAR,4.0
MMIA 072140Z 22014KT 6SM BKN020 BKN050 31/24 A2984 RMK 8/800,MMIA,2023-07-07T21:40:00Z,19.27,-103.57,31.0,24.0,220,14,,6.0,29.840551,,,,,,,,,,,BKN,2000,BKN,5000,,,,,MVFR,,,,,,,,,,,,METAR,744.0
MMHO 072140Z 23004KT 10SM SKC 44/16 A2971 RMK DSNT CB 1ST QUAD,MMHO,2023-07-07T21:40:00Z,29.08,-111.05,44.0,16.0,230,4,,10.0,29.71063,,,,,,,,,,,SKC,,,,,,,,VFR,,,,,,,,,,,,METAR,186.0
MMGL 072140Z 00000KT 8SM FEW030 31/07 A3000 RMK 8/200 CB SE,MMGL,2023-07-07T21:40:00Z,20.52,-103.32,31.0,7.0,0,0,,8.0,30.0,,,,,,,,,,,FEW,3000,,,,,,,VFR,,,,,,,,,,,,METAR,1531.0
MMCV 072140Z 19008KT 8SM FEW020 BKN100 30/18 A2989 RMK 8/460 DSNT TCU NE/W,MMCV,2023-07-07T21:40:00Z,23.72,-98.97,30.0,18.0,190,8,,8.0,29.890747,,,,,,,,,,,FEW,2000,BKN,10000,,,,,VFR,,,,,,,,,,,,METAR,230.0
MMCS 072140Z 20008KT 10SM BKN030 39/06 A2990 RMK 8/100,MMCS,2023-07-07T21:40:00Z,31.63,-106.42,39.0,6.0,200,8,,10.0,29.899607,,,,,,,,,,,BKN,3000,,,,,,,MVFR,,,,,,,,,,,,SPECI,1194.0
MMCP 072140Z 15010KT 6SM BKN030CB BKN200 30/24 A2984 RMK 8/302 DSNT RA SW -RAE20,MMCP,2023-07-07T21:40:00Z,19.82,-90.5,30.0,24.0,150,10,,6.0,29.840551,,,,,,,,,,,BKN,3000,BKN,20000,,,,,MVFR,,,,,,,,,,,,METAR,9.0
MMBT 072140Z 21007KT 8SM BKN020 BKN100 29/25 A2985 RMK 8/420,MMBT,2023-07-07T21:40:00Z,15.77,-96.27,29.0,25.0,210,7,,8.0,29.84941,,,,,,,,,,,BKN,2000,BKN,10000,,,,,MVFR,,,,,,,,,,,,METAR,137.0
MMAN 072140Z 13011KT 12SM BKN035 33/19 A2988 RMK 8/500,MMAN,2023-07-07T21:40:00Z,25.87,-100.23,33.0,19.0,130,11,,12.0,29.878937,,,,,,,,,,,BKN,3500,,,,,,,VFR,,,,,,,,,,,,METAR,447.0
KW40 072140Z AUTO 17007KT 10SM CLR 32/24 A2979 RMK AO2 T03230238,KW40,2023-07-07T21:40:00Z,35.22,-78.03,32.3,23.8,170,7,,10.0,29.790354,,,TRUE,TRUE,,,,,,,CLR,,,,,,,,VFR,,,,,,,,,,,,SPECI,50.0
KPRG 072140Z AUTO 26006KT 10SM SCT120 27/19 A2997 RMK AO2 T02650194,KPRG,2023-07-07T21:40:00Z,39.7,-87.67,26.5,19.4,260,6,,10.0,29.970472,,,TRUE,TRUE,,,,,,,SCT,12000,,,,,,,VFR,,,,,,,,,,,,METAR,197.0
KOCW 072140Z AUTO 06006KT 2 1/2SM -RA SCT026 BKN060 OVC100 24/22 A2982 RMK AO2 VIS 3/4V5 P0010 T02430220,KOCW,2023-07-07T21:40:00Z,35.57,-77.05,24.3,22.0,60,6,,2.5,29.819881,,,TRUE,TRUE,,,,,,-RA,SCT,2600,BKN,6000,OVC,10000,,,IFR,,,,,,0.1,,,,,,SPECI,10.0
KMNE 072140Z AUTO 24006KT 10SM SCT049 SCT070 34/24 A2992 RMK AO2,KMNE,2023-07-07T21:40:00Z,32.65,-93.3,34.0,24.0,240,6,,10.0,29.920275,,,TRUE,TRUE,,,,,,,SCT,4900,SCT,7000,,,,,VFR,,,,,,,,,,,,METAR,84.0
KMHV 072140Z AUTO 30021G27KT 10SM CLR 33/01 A2981 RMK AO2,KMHV,2023-07-07T21:40:00Z,35.07,-118.15,33.0,1.0,300,21,27,10.0,29.811024,,,TRUE,TRUE,,,,,,,CLR,,,,,,,,VFR,,,,,,,,,,,,SPECI,841.0
KGZN 072140Z AUTO 17013KT 10SM FEW050 33/19 A2990 RMK AO2,KGZN,2023-07-07T21:40:00Z,32.37,-99.02,33.0,19.0,170,13,,10.0,29.899607,,,TRUE,TRUE,,,,,,,FEW,5000,,,,,,,VFR,,,,,,,,,,,,SPECI,522.0
KETC 072140Z AUTO 00000KT 5SM BR SCT060 SCT120 25/23 A2982 RMK AO2 T02460230,KETC,2023-07-07T21:40:00Z,35.93,-77.55,24.6,23.0,0,0,,5.0,29.819881,,,TRUE,TRUE,,,,,,BR,SCT,6000,SCT,12000,,,,,MVFR,,,,,,,,,,,,SPECI,15.0
KDPL 072140Z AUTO 00000KT 7SM SCT048 31/25 A2980 RMK AO2,KDPL,2023-07-07T21:40:00Z,35.0,-77.97,31.0,25.0,0,0,,7.0,29.799213,,,TRUE,TRUE,,,,,,,SCT,4800,,,,,,,VFR,,,,,,,,,,,,SPECI,39.0
KVIH 072138Z AUTO 18011G15KT 10SM TS BKN041 OVC055 28/19 A2989 RMK AO2 LTG DSNT ALQDS RAE16 TSB32 P0000 T02830194,KVIH,2023-07-07T21:38:00Z,38.13,-91.77,28.3,19.4,180,11,15,10.0,29.890747,,,TRUE,TRUE,,,,,,TS,BKN,4100,OVC,5500,,,,,VFR,,,,,,0.005,,,,,,SPECI,342.0
KAPS 072138Z AUTO 22004KT 10SM CLR 32/23 A2995 RMK AO2,KAPS,2023-07-07T21:38:00Z,30.08,-90.58,32.0,23.0,220,4,,10.0,29.949802,,,TRUE,TRUE,,,,,,,CLR,,,,,,,,VFR,,,,,,,,,,,,METAR,1.0
CYGE 072138Z 27010KT 220V300 25SM FEW065TCU SCT070CB 30/07 A2993 RMK TCU2CB1 CB W TCU N E S SLP126 DENSITY ALT 4900FT,CYGE,2023-07-07T21:38:00Z,51.3,-116.98,30.0,7.0,270,10,,25.0,29.929134,1012.6,,,,,,,,,,FEW,6500,SCT,7000,,,,,VFR,,,,,,,,,,,,SPECI,786.0
CYVP 072137Z 02007KT 15SM BKN012 OVC049 10/09 A2989 RMK SC7SC1 CIG RAG SLP127,CYVP,2023-07-07T21:37:00Z,58.12,-68.42,10.0,9.0,20,7,,15.0,29.890747,1012.7,,,,,,,,,,BKN,1200,OVC,4900,,,,,MVFR,,,,,,,,,,,,SPECI,28.0
CWSW 072136Z 07010G21KT 040V110 20SM BKN060CB BKN093 OVC230 25/06 A3003 RMK CB5AS2CS1 SLP159 DENSITY ALT 5800FT,CWSW,2023-07-07T21:36:00Z,49.83,-114.87,25.0,6.0,70,10,21,20.0,30.029528,1015.9,,,,,,,,,,BKN,6000,BKN,9300,OVC,23000,,,VFR,,,,,,,,,,,,SPECI,1173.0
KRCM 072135Z AUTO 04008KT 10SM SCT044 BKN050 26/17 A2987 RMK AO2,KRCM,2023-07-07T21:35:00Z,38.78,-93.8,26.0,17.0,40,8,,10.0,29.870079,,,TRUE,TRUE,,,,,,,SCT,4400,BKN,5000,,,,,VFR,,,,,,,,,,,,SPECI,242.0
KLZZ 072135Z AUTO 19009KT 160V230 10SM SCT050 SCT080 34/20 RMK AO2 T03370197,KLZZ,2023-07-07T21:35:00Z,31.1,-98.2,33.7,19.7,190,9,,10.0,,,,TRUE,TRUE,,,,,,,SCT,5000,SCT,8000,,,,,VFR,,,,,,,,,,,,SPECI,356.0
KEMV 072135Z AUTO 7SM +VCTSRA SCT046 BKN075 OVC110 RMK AO2 LTG DSNT S AND SW PNO,KEMV,2023-07-07T21:35:00Z,36.68,-77.48,,,,,,7.0,,,,TRUE,TRUE,,,,,,VCTS +RA,SCT,4600,BKN,7500,OVC,11000,,,VFR,,,,,,,,,,,,SPECI,35.0
KEGT 072135Z AUTO 33003KT 7SM RA SCT028 SCT047 OVC100 20/19 A2996 RMK AO2 P0013 T02010191,KEGT,2023-07-07T21:35:00Z,37.32,-97.38,20.1,19.1,330,3,,7.0,29.958662,,,TRUE,TRUE,,,,,,RA,SCT,2800,SCT,4700,OVC,10000,,,VFR,,,,,,0.13,,,,,,METAR,387.0
KDUB 072135Z AUTO 12015G23KT 10SM SCT037 SCT048 BKN090 16/06 A3017 RMK AO2,KDUB,2023-07-07T21:35:00Z,43.55,-109.68,16.0,6.0,120,15,23,10.0,30.171259,,,TRUE,TRUE,,,,,,,SCT,3700,SCT,4800,BKN,9000,,,VFR,,,,,,,,,,,,SPECI,2205.0
KDCM 072135Z AUTO 22003KT 10SM VCTS CLR 26/22 A2986 RMK AO2 LTG DSNT NE THRU SW,KDCM,2023-07-07T21:35:00Z,34.78,-81.2,26.0,22.0,220,3,,10.0,29.861221,,,TRUE,TRUE,,,,,,VCTS,CLR,,,,,,,,VFR,,,,,,,,,,,,SPECI,191.0
KBWD 072135Z AUTO 18008G17KT 10SM SCT050 34/18 A2991 RMK AO1,KBWD,2023-07-07T21:35:00Z,31.8,-98.95,34.0,18.0,180,8,17,10.0,29.911417,,,TRUE,TRUE,,,,,,,SCT,5000,,,,,,,VFR,,,,,,,,,,,,METAR,420.0
KAIT 072135Z AUTO 23005KT 10SM CLR 24/11 A2994 RMK AO2,KAIT,2023-07-07T21:35:00Z,46.53,-93.67,24.0,11.0,230,5,,10.0,29.940945,,,TRUE,TRUE,,,,,,,CLR,,,,,,,,VFR,,,,,,,,,,,,SPECI,367.0
K4S2 072135Z AUTO 29009G19KT 230V320 10SM CLR 26/12 A2978 RMK AO2,K4S2,2023-07-07T21:35:00Z,45.68,-121.55,26.0,12.0,290,9,19,10.0,29.778543,,,TRUE,TRUE,,,,,,,CLR,,,,,,,,VFR,,,,,,,,,,,,SPECI,183.0
SARL 072133Z 14013KT 6000 RA OVC005 19/17 Q1009,SARL,2023-07-07T21:33:00Z,-29.68,-57.15,19.0,17.0,140,13,,3.73,29.793306,,,,,,,,,,RA,OVC,500,,,,,,,IFR,,,,,,,,,,,,SPECI,70.0
CYYT 072131Z 08003KT 360V140 15SM BKN016 15/14 A2980 RMK SC7 LWR VIS E 3 SLP095 DENSITY ALT 700FT,CYYT,2023-07-07T21:31:00Z,47.62,-52.73,15.0,14.0,80,3,,15.0,29.799213,1009.5,,,,,,,,,,BKN,1600,,,,,,,MVFR,,,,,,,,,,,,SPECI,128.0
WMKP 072130Z 00000KT 8000 -RA FEW010 SCT025 26/23 Q1010 NOSIG,WMKP,2023-07-07T21:30:00Z,5.28,100.27,26.0,23.0,0,0,,4.97,29.822834,,,,,,TRUE,,,,-RA,FEW,1000,SCT,2500,,,,,MVFR,,,,,,,,,,,,METAR,4.0
WMKK 072130Z 00000KT 8000 FEW008 SCT030 24/23 Q1010 NOSIG,WMKK,2023-07-07T21:30:00Z,2.75,101.72,24.0,23.0,0,0,,4.97,29.822834,,,,,,TRUE,,,,,FEW,800,SCT,3000,,,,,MVFR,,,,,,,,,,,,METAR,21.0
WIPP 072130Z AUTO VRB02KT 5000NDV OVC095 24/24 Q1012,WIPP,2023-07-07T21:30:00Z,-2.88,104.7,24.0,24.0,0,2,,,29.88189,,,TRUE,,,,,,,,OVC,9500,,,,,,,,,,,,,,,,,,,METAR,7.0
WIOO 072130Z AUTO 09003KT 9999 -RA SCT260 BKN270 24/24 Q1011,WIOO,2023-07-07T21:30:00Z,-0.15,109.4,24.0,24.0,90,3,,6.21,29.852362,,,TRUE,,,,,,,-RA,SCT,26000,BKN,27000,,,,,VFR,,,,,,,,,,,,METAR,4.0
WIMM 072130Z 28003KT 5000 BR BKN017 24/24 Q1010 NOSIG,WIMM,2023-07-07T21:30:00Z,3.57,98.67,24.0,24.0,280,3,,3.11,29.822834,,,,,,TRUE,,,,BR,BKN,1700,,,,,,,MVFR,,,,,,,,,,,,METAR,27.0
WIHH 072130Z 24003KT 3000 BR SCT020 24/24 Q1011 NOSIG ,WIHH,2023-07-07T21:30:00Z,-6.27,106.88,24.0,24.0,240,3,,1.86,29.852362,,,,,,TRUE,,,,BR,SCT,2000,,,,,,,IFR,,,,,,,,,,,,METAR,26.0
WIDD 072130Z 24003KT 9999 FEW014 26/25 Q1012 NOSIG,WIDD,2023-07-07T21:30:00Z,1.12,104.12,26.0,25.0,240,3,,6.21,29.88189,,,,,,TRUE,,,,,FEW,1400,,,,,,,VFR,,,,,,,,,,,,METAR,26.0
WIBB 072130Z AUTO 18002KT 9999 FEW130 SCT200 OVC240 23/22 Q1009,WIBB,2023-07-07T21:30:00Z,0.47,101.45,23.0,22.0,180,2,,6.21,29.793306,,,TRUE,,,,,,,,FEW,13000,SCT,20000,OVC,24000,,,VFR,,,,,,,,,,,,METAR,41.0
WBSB 072130Z 15002KT 9999 FEW003 FEW015CB BKN140 25/25 Q1012 NOSIG,WBSB,2023-07-07T21:30:00Z,4.93,114.92,25.0,25.0,150,2,,6.21,29.88189,,,,,,TRUE,,,,,FEW,300,FEW,1500,BKN,14000,,,VFR,,,,,,,,,,,,METAR,15.0
WBKK 072130Z 12004KT 9999 FEW014 23/23 Q1011 NOSIG,WBKK,2023-07-07T21:30:00Z,5.93,116.05,23.0,23.0,120,4,,6.21,29.852362,,,,,,TRUE,,,,,FEW,1400,,,,,,,VFR,,,,,,,,,,,,METAR,9.0
WBGG 072130Z 12003KT 9999 FEW020 25/23 Q1011 NOSIG,WBGG,2023-07-07T21:30:00Z,1.48,110.35,25.0,23.0,120,3,,6.21,29.852362,,,,,,TRUE,,,,,FEW,2000,,,,,,,VFR,,,,,,,,,,,,METAR,26.0
WAYY 072130Z 00000KT 9999 FEW013 23/22 Q1013 NOSIG,WAYY,2023-07-07T21:30:00Z,-4.53,136.88,23.0,22.0,0,0,,6.21,29.911417,,,,,,TRUE,,,,,FEW,1300,,,,,,,VFR,,,,,,,,,,,,METAR,32.0
WATT 072130Z 12005KT 8000 FEW017 24/22 Q1014 NOSIG,WATT,2023-07-07T21:30:00Z,-10.17,123.67,24.0,22.0,120,5,,4.97,29.940945,,,,,,TRUE,,,,,FEW,1700,,,,,,,MVFR,,,,,,,,,,,,METAR,104.0
WAQQ 072130Z 09003KT 7000 -RA BKN013 25/24 Q1011 NOSIG,WAQQ,2023-07-07T21:30:00Z,3.33,117.57,25.0,24.0,90,3,,4.35,29.852362,,,,,,TRUE,,,,-RA,BKN,1300,,,,,,,MVFR,,,,,,,,,,,,METAR,6.0
WAPP 072130Z 15009KT 100V190 9000 -RA SCT017 28/23 Q1011 NOSIG,WAPP,2023-07-07T21:30:00Z,-3.7,128.08,28.0,23.0,150,9,,5.59,29.852362,,,,,,TRUE,,,,-RA,SCT,1700,,,,,,,VFR,,,,,,,,,,,,METAR,20.0
WAOO 072130Z AUTO VRB02KT 5000 FEW002 BKN050 OVC080 25/25 Q1011,WAOO,2023-07-07T21:30:00Z,-3.45,114.77,25.0,25.0,0,2,,3.11,29.852362,,,TRUE,,,,,,,,FEW,200,BKN,5000,OVC,8000,,,MVFR,,,,,,,,,,,,METAR,23.0
WALL 072130Z 29004KT 9000 SCT022 26/25 Q1011 NOSIG,WALL,2023-07-07T21:30:00Z,-1.27,116.9,26.0,25.0,290,4,,5.59,29.852362,,,,,,TRUE,,,,,SCT,2200,,,,,,,VFR,,,,,,,,,,,,METAR,3.0
WAKK 072130Z 07005KT 1000 -RA BR FEW013CB OVC015 24/24 Q1012,WAKK,2023-07-07T21:30:00Z,-8.52,140.42,24.0,24.0,70,5,,0.62,29.88189,,,,,,,,,,-RA BR,FEW,1300,OVC,1500,,,,,LIFR,,,,,,,,,,,,METAR,5.0
WAHS 072130Z 00000KT 6000 -RA SCT014 25/24 Q1011 NOSIG,WAHS,2023-07-07T21:30:00Z,-6.98,110.38,25.0,24.0,0,0,,3.73,29.852362,,,,,,TRUE,,,,-RA,SCT,1400,,,,,,,MVFR,,,,,,,,,,,,METAR,3.0
WADD 072130Z 12014KT 9999 SCT016 26/24 Q1012 NOSIG,WADD,2023-07-07T21:30:00Z,-8.73,115.17,26.0,24.0,120,14,,6.21,29.88189,,,,,,TRUE,,,,,SCT,1600,,,,,,,VFR,,,,,,,,,,,,METAR,3.0
WABB 072130Z 31004KT 130V310 9999 FEW018 BKN100 25/24 Q1010 NOSIG,WABB,2023-07-07T21:30:00Z,-1.18,136.12,25.0,24.0,310,4,,6.21,29.822834,,,,,,TRUE,,,,,FEW,1800,BKN,10000,,,,,VFR,,,,,,,,,,,,METAR,12.0
WAAA 072130Z 28003KT 210V010 8000 FEW019 25/22 Q1010 NOSIG,WAAA,2023-07-07T21:30:00Z,-5.07,119.55,25.0,22.0,280,3,,4.97,29.822834,,,,,,TRUE,,,,,FEW,1900,,,,,,,MVFR,,,,,,,,,,,,METAR,13.0
VVPB 072130Z VRB02KT 9999 FEW020 28/24 Q1009 NOSIG,VVPB,2023-07-07T21:30:00Z,16.38,107.7,28.0,24.0,0,2,,6.21,29.793306,,,,,,TRUE,,,,,FEW,2000,,,,,,,VFR,,,,,,,,,,,,METAR,15.0
VVCI 072130Z 16009KT 9999 FEW020 30/26 Q1007 NOSIG,VVCI,2023-07-07T21:30:00Z,20.82,106.73,30.0,26.0,160,9,,6.21,29.734253,,,,,,TRUE,,,,,FEW,2000,,,,,,,VFR,,,,,,,,,,,,METAR,6.0
VILK 072130Z 09006KT 3000 BR SCT018 FEW030CB BKN090 28/27 Q1001 NOSIG,VILK,2023-07-07T21:30:00Z,26.75,80.88,28.0,27.0,90,6,,1.86,29.557087,,,,,,TRUE,,,,BR,SCT,1800,FEW,3000,BKN,9000,,,IFR,,,,,,,,,,,,METAR,121.0
VIAR 072130Z 11005KT 3500 BR SCT030 BKN090 28/26 Q1002 NOSIG,VIAR,2023-07-07T21:30:00Z,31.7,74.8,28.0,26.0,110,5,,2.17,29.586615,,,,,,TRUE,,,,BR,SCT,3000,BKN,9000,,,,,IFR,,,,,,,,,,,,METAR,226.0
VEPT 072130Z 09008KT 2500 BR SCT018 BKN100 29/27 Q1002 NOSIG,VEPT,2023-07-07T21:30:00Z,25.6,85.08,29.0,27.0,90,8,,1.55,29.586615,,,,,,TRUE,,,,BR,SCT,1800,BKN,10000,,,,,IFR,,,,,,,,,,,,METAR,53.0
VANP 072130Z 21003KT 2500 -RA SCT018 FEW030CB BKN080 26/25 Q1004 TEMPO 1800 -RA,VANP,2023-07-07T21:30:00Z,21.08,79.05,26.0,25.0,210,3,,1.55,29.64567,,,,,,,,,,-RA,SCT,1800,FEW,3000,BKN,8000,,,IFR,,,,,,,,,,,,SPECI,309.0
UTSA 072130Z 12002KT 9999 NSC 23/06 Q1009 R07/CLRD70 NOSIG,UTSA,2023-07-07T21:30:00Z,40.12,65.17,23.0,6.0,120,2,,6.21,29.793306,,,,,,TRUE,,,,,CLR,,,,,,,,VFR,,,,,,,,,,,,METAR,346.0
SBCJ 072130Z 00000KT CAVOK 24/19 Q1016,SBCJ,2023-07-07T21:30:00Z,-6.12,-50.0,24.0,19.0,0,0,,6.21,30.0,,,,,,,,,,,CAVOK,,,,,,,,VFR,,,,,,,,,,,,METAR,634.0
LPCS 072130Z 27004KT 240V310 9999 FEW010 19/18 Q1018,LPCS,2023-07-07T21:30:00Z,38.73,-9.35,19.0,18.0,270,4,,6.21,30.059055,,,,,,,,,,,FEW,1000,,,,,,,VFR,,,,,,,,,,,,METAR,99.0
KDED 072130Z AUTO 16006KT 10SM SCT120 26/23 A2992 RMK AO2 LTG DSNT ALQDS T02570229,KDED,2023-07-07T21:30:00Z,29.07,-81.28,25.7,22.9,160,6,,10.0,29.920275,,,TRUE,TRUE,,,,,,,SCT,12000,,,,,,,VFR,,,,,,,,,,,,METAR,21.0
K2J3 072130Z AUTO 33007KT 10SM VCTS CLR 28/22 A2986 RMK AO2 LTG DSNT NE E AND W T02830219,K2J3,2023-07-07T21:30:00Z,32.98,-82.38,28.3,21.9,330,7,,10.0,29.861221,,,TRUE,TRUE,,,,,,VCTS,CLR,,,,,,,,VFR,,,,,,,,,,,,METAR,97.0
HUEN 072130Z 16008KT 9999 FEW021 FEW023CB 22/17 Q1020,HUEN,2023-07-07T21:30:00Z,0.03,32.45,22.0,17.0,160,8,,6.21,30.11811,,,,,,,,,,,FEW,2100,FEW,2300,,,,,VFR,,,,,,,,,,,,METAR,1147.0
HKJK 072130Z 16006KT 9999 BKN018 17/10 Q1025 NOSIG,HKJK,2023-07-07T21:30:00Z,-1.32,36.92,17.0,10.0,160,6,,6.21,30.265747,,,,,,TRUE,,,,,BKN,1800,,,,,,,MVFR,,,,,,,,,,,,METAR,1615.0
GQNO 072130Z 28011KT 6000 FEW010 28/25 Q1014 NOSIG,GQNO,2023-07-07T21:30:00Z,18.3,-15.97,28.0,25.0,280,11,,3.73,29.940945,,,,,,TRUE,,,,,FEW,1000,,,,,,,MVFR,,,,,,,,,,,,METAR,1.0
GOBD 072130Z 25004KT 9999 FEW015 29/23 Q1015 NOSIG,GOBD,2023-07-07T21:30:00Z,14.67,-17.07,29.0,23.0,250,4,,6.21,29.970472,,,,,,TRUE,,,,,FEW,1500,,,,,,,VFR,,,,,,,,,,,,METAR,90.0
GABS 072130Z VRB02KT 9999 FEW020 29/21 Q1014 NOSIG,GABS,2023-07-07T21:30:00Z,12.53,-7.95,29.0,21.0,0,2,,6.21,29.940945,,,,,,TRUE,,,,,FEW,2000,,,,,,,VFR,,,,,,,,,,,,METAR,375.0
FMEP 072130Z AUTO 11011KT 9999 SCT027 BKN034 BKN044 22/18 Q1025,FMEP,2023-07-07T21:30:00Z,-21.32,55.42,22.0,18.0,110,11,,6.21,30.265747,,,TRUE,,,,,,,,SCT,2700,BKN,3400,BKN,4400,,,VFR,,,,,,,,,,,,METAR,21.0
FMEE 072130Z AUTO 14017KT 9999 SCT080 23/17 Q1024 NOSIG,FMEE,2023-07-07T21:30:00Z,-20.88,55.52,23.0,17.0,140,17,,6.21,30.236221,,,TRUE,,,TRUE,,,,,SCT,8000,,,,,,,VFR,,,,,,,,,,,,METAR,20.0
KCYD 072127Z AUTO 12010KT 7SM HZ CLR 27/23 A3001 RMK A02 LTG DSNT W T02730234,KCYD,2023-07-07T21:27:00Z,28.17,-89.22,27.3,23.4,120,10,,7.0,30.008858,,,TRUE,TRUE,,,,,,HZ,CLR,,,,,,,,VFR,,,,,,,,,,,,METAR,30.0
KW99 072126Z AUTO 29008KT 10SM CLR 32/20 A2986 RMK AO2 LTG DSNT SE,KW99,2023-07-07T21:26:00Z,39.0,-79.15,32.0,20.0,290,8,,10.0,29.861221,,,TRUE,TRUE,,,,,,,CLR,,,,,,,,VFR,,,,,,,,,,,,METAR,288.0
SAAP 072124Z 09005KT 8000 RA SCT020 BKN050 14/13 Q1012,SAAP,2023-07-07T21:24:00Z,-31.77,-60.47,14.0,13.0,90,5,,4.97,29.88189,,,,,,,,,,RA,SCT,2000,BKN,5000,,,,,MVFR,,,,,,,,,,,,SPECI,78.0
CYBK 072124Z 00000KT 25SM -RA BKN030 OVC040 10/07 A2975 RMK SC7SC1 SLP076,CYBK,2023-07-07T21:24:00Z,64.3,-96.07,10.0,7.0,0,0,,25.0,29.749016,1007.6,,,,,,,,,-RA,BKN,3000,OVC,4000,,,,,MVFR,,,,,,,,,,,,SPECI,14.0
KPNC 072123Z AUTO 27005KT 10SM VCTS OVC110 22/20 A2989 RMK AO2 LTG DSNT NW-NE RAE2058 TSE2058B02E17 P0000 T02220200,KPNC,2023-07-07T21:23:00Z,36.73,-97.1,22.2,20.0,270,5,,10.0,29.890747,,,TRUE,TRUE,,,,,,VCTS,OVC,11000,,,,,,,VFR,,,,,,0.005,,,,,,SPECI,304.0
CYXZ 072123Z 24004KT 190V300 15SM SKC 18/09 A2993 RMK SLP144 DENSITY ALT 1500FT,CYXZ,2023-07-07T21:23:00Z,47.97,-84.77,18.0,9.0,240,4,,15.0,29.929134,1014.4,,,,,,,,,,SKC,,,,,,,,VFR,,,,,,,,,,,,SPECI,287.0
KSLR 072121Z AUTO 21020G25KT 10SM CLR 33/21 A2988 RMK AO2,KSLR,2023-07-07T21:21:00Z,33.17,-95.62,33.0,21.0,210,20,25,10.0,29.878937,,,TRUE,TRUE,,,,,,,CLR,,,,,,,,VFR,,,,,,,,,,,,SPECI,144.0
CYTZ 072121Z AUTO 30013G18KT 9SM CLR 27/10 A2988 RMK WSHFT AT 2106Z TS/LTNG TEMPO UNAVBL SLP120 DENSITY ALT 1800FT,CYTZ,2023-07-07T21:21:00Z,43.63,-79.4,27.0,10.0,300,13,18,9.0,29.878937,1012.0,,TRUE,,,,,,,,CLR,,,,,,,,VFR,,,,,,,,,,,,SPECI,76.0
PAIL 072120Z 11005KT 9SM -RA SCT007 BKN039 OVC046 10/08 A2996,PAIL,2023-07-07T21:20:00Z,59.75,-154.92,10.0,8.0,110,5,,9.0,29.958662,,,,,,,,,,-RA,SCT,700,BKN,3900,OVC,4600,,,VFR,,,,,,,,,,,,SPECI,44.0
ETWM 072120Z AUTO 06005KT //// // ////// 19/12 Q1020 ///,ETWM,2023-07-07T21:20:00Z,52.72,7.33,19.0,12.0,60,5,,,30.11811,,,TRUE,,,,,,,,,,,,,,,,,,,,,,,,,,,,METAR,18.0
ETSN 072120Z 04003KT 9999 FEW320 19/09 Q1020 BLU+,ETSN,2023-07-07T21:20:00Z,48.72,11.22,19.0,9.0,40,3,,6.21,30.11811,,,,,,,,,,,FEW,32000,,,,,,,VFR,,,,,,,,,,,,METAR,378.0
ETSL 072120Z AUTO 07005KT //// // ////// 17/08 Q1020 ///,ETSL,2023-07-07T21:20:00Z,48.18,10.87,17.0,8.0,70,5,,,30.11811,,,TRUE,,,,,,,,,,,,,,,,,,,,,,,,,,,,METAR,548.0
ETSI 072120Z AUTO 06002KT 6000 // ////// 19/09 Q1020 ///,ETSI,2023-07-07T21:20:00Z,48.72,11.53,19.0,9.0,60,2,,3.73,30.11811,,,TRUE,,,,,,,,,,,,,,,,,,,,,,,,,,,,METAR,366.0
ETSH 072120Z 07003KT 9999 FEW300 19/09 Q1021 BLU+,ETSH,2023-07-07T21:20:00Z,51.77,13.17,19.0,9.0,70,3,,6.21,30.147638,,,,,,,,,,,FEW,30000,,,,,,,VFR,,,,,,,,,,,,METAR,79.0
ETSB 072120Z AUTO 08005KT //// // ////// 22/05 Q1019 ///,ETSB,2023-07-07T21:20:00Z,50.17,7.07,22.0,5.0,80,5,,,30.088583,,,TRUE,,,,,,,,,,,,,,,,,,,,,,,,,,,,METAR,477.0
ETNW 072120Z 08002KT 9999 18/12 Q1020 BLU+,ETNW,2023-07-07T21:20:00Z,52.45,9.42,18.0,12.0,80,2,,6.21,30.11811,,,,,,,,,,,,,,,,,,,,,,,,,,,,,,,METAR,57.0
ETNT 072120Z AUTO 08003KT //// // ////// 16/12 Q1021 ///,ETNT,2023-07-07T21:20:00Z,53.53,7.67,16.0,12.0,80,3,,,30.147638,,,TRUE,,,,,,,,,,,,,,,,,,,,,,,,,,,,METAR,5.0
ETNS 072120Z AUTO 08003KT 7000 // ////// 16/12 Q1022 ///,ETNS,2023-07-07T21:20:00Z,54.47,9.52,16.0,12.0,80,3,,4.35,30.177166,,,TRUE,,,,,,,,,,,,,,,,,,,,,,,,,,,,METAR,22.0
ETNN 072120Z AUTO 23002KT 9999 // ////// 18/10 Q1017 ///,ETNN,2023-07-07T21:20:00Z,50.82,6.67,18.0,10.0,230,2,,6.21,30.029528,,,TRUE,,,,,,,,,,,,,,,,,,,,,,,,,,,,METAR,108.0
ETNL 072120Z 05004KT 9999 FEW310 17/11 Q1022 BLU+,ETNL,2023-07-07T21:20:00Z,53.92,12.27,17.0,11.0,50,4,,6.21,30.177166,,,,,,,,,,,FEW,31000,,,,,,,VFR,,,,,,,,,,,,METAR,40.0
ETNH 072120Z AUTO 01002KT 5000 // ////// 13/11 Q1022 ///,ETNH,2023-07-07T21:20:00Z,54.32,9.55,13.0,11.0,10,2,,3.11,30.177166,,,TRUE,,,,,,,,,,,,,,,,,,,,,,,,,,,,METAR,6.0
ETMN 072120Z 09005KT 9999 FEW360 17/12 Q1021 BLU+,ETMN,2023-07-07T21:20:00Z,53.77,8.67,17.0,12.0,90,5,,6.21,30.147638,,,,,,,,,,,FEW,36000,,,,,,,VFR,,,,,,,,,,,,METAR,23.0
ETHS 072120Z AUTO 05006KT 7000 // ////// 17/10 Q1021 ///,ETHS,2023-07-07T21:20:00Z,52.92,10.18,17.0,10.0,50,6,,4.35,30.147638,,,TRUE,,,,,,,,,,,,,,,,,,,,,,,,,,,,METAR,71.0
ETHN 072120Z 12008KT 9999 FEW300 20/05 Q1020 BLU+,ETHN,2023-07-07T21:20:00Z,49.38,9.97,20.0,5.0,120,8,,6.21,30.11811,,,,,,,,,,,FEW,30000,,,,,,,VFR,,,,,,,,,,,,METAR,466.0
ETHL 072120Z AUTO 08006KT 9999 // ////// 22/07 Q1020 ///,ETHL,2023-07-07T21:20:00Z,48.22,9.92,22.0,7.0,80,6,,6.21,30.11811,,,TRUE,,,,,,,,,,,,,,,,,,,,,,,,,,,,METAR,536.0
ETHF 072120Z AUTO 29004KT 9000 // ////// 16/11 Q1019 ///,ETHF,2023-07-07T21:20:00Z,51.12,9.28,16.0,11.0,290,4,,5.59,30.088583,,,TRUE,,,,,,,,,,,,,,,,,,,,,,,,,,,,METAR,171.0
ETHC 072120Z AUTO 09001KT 9999 // ////// 18/10 Q1020 ///,ETHC,2023-07-07T21:20:00Z,52.6,10.02,18.0,10.0,90,1,,6.21,30.11811,,,TRUE,,,,,,,,,,,,,,,,,,,,,,,,,,,,METAR,35.0
ETHB 072120Z AUTO 09001KT 9999 // ////// 18/12 Q1020 ///,ETHB,2023-07-07T21:20:00Z,52.27,9.07,18.0,12.0,90,1,,6.21,30.11811,,,TRUE,,,,,,,,,,,,,,,,,,,,,,,,,,,,METAR,69.0
ETHA 072120Z AUTO 07004KT 9999 // ////// 19/08 Q1021 ///,ETHA,2023-07-07T21:20:00Z,47.83,10.87,19.0,8.0,70,4,,6.21,30.147638,,,TRUE,,,,,,,,,,,,,,,,,,,,,,,,,,,,METAR,738.0
ETGG 072120Z AUTO 17005KT //// // ////// 14/13 Q1022 ///,ETGG,2023-07-07T21:20:00Z,54.83,9.5,14.0,13.0,170,5,,,30.177166,,,TRUE,,,,,,,,,,,,,,,,,,,,,,,,,,,,METAR,33.0
ENST 072120Z 27003KT 190V350 9999 -DZ SCT004 BKN006 12/11 Q1022 RMK WIND 300FT 25005KT,ENST,2023-07-07T21:20:00Z,65.97,12.47,12.0,11.0,270,3,,6.21,30.177166,,,,,,,,,,-DZ,SCT,400,BKN,600,,,,,IFR,,,,,,,,,,,,SPECI,17.0
ENOA 072120Z 15020KT 9000 SCT030 SCT045 BKN070 15/14 Q1019 W///S3,ENOA,2023-07-07T21:20:00Z,60.5,2.83,15.0,14.0,150,20,,5.59,30.088583,,,,,,,,,,,SCT,3000,SCT,4500,BKN,7000,,,VFR,,,,,,,,,,,,SPECI,5.0
EGYE 072120Z AUTO 13008KT //// ///////// ///// Q////,EGYE,2023-07-07T21:20:00Z,52.97,-0.57,,,130,8,,,,,,TRUE,,,,,,,,,,,,,,,,,,,,,,,,,,,,METAR,105.0
EGTK 072120Z 08003KT CAVOK 20/13 Q1013,EGTK,2023-07-07T21:20:00Z,51.83,-1.32,20.0,13.0,80,3,,6.21,29.911417,,,,,,,,,,,CAVOK,,,,,,,,VFR,,,,,,,,,,,,METAR,78.0
EGPB 072120Z AUTO 11004KT 070V140 9999 NCD 14/13 Q1016,EGPB,2023-07-07T21:20:00Z,59.87,-1.3,14.0,13.0,110,4,,6.21,30.0,,,TRUE,,,,,,,,CLR,,,,,,,,VFR,,,,,,,,,,,,METAR,2.0
EGMC 072120Z 07004KT CAVOK 18/15 Q1014,EGMC,2023-07-07T21:20:00Z,51.57,0.7,18.0,15.0,70,4,,6.21,29.940945,,,,,,,,,,,CAVOK,,,,,,,,VFR,,,,,,,,,,,,METAR,15.0
EGKB 072120Z 12006KT 080V140 CAVOK 21/10 Q1015,EGKB,2023-07-07T21:20:00Z,51.32,0.02,21.0,10.0,120,6,,6.21,29.970472,,,,,,,,,,,CAVOK,,,,,,,,VFR,,,,,,,,,,,,METAR,183.0
CYLH 072120Z AUTO 36009G18KT 320V020 9SM BKN018 BKN030 BKN042 OVC150 15/13 A2978 RMK TS/LTNG TEMPO UNAVBL SLP093 DENSITY ALT 1300FT,CYLH,2023-07-07T21:20:00Z,52.2,-87.93,15.0,13.0,360,9,18,9.0,29.778543,1009.3,,TRUE,,,,,,,,BKN,1800,BKN,3000,BKN,4200,OVC,15000,MVFR,,,,,,,,,,,,SPECI,245.0
KMRT 072119Z AUTO 01005KT 10SM SCT047 BKN050 28/16 A2995 RMK AO1,KMRT,2023-07-07T21:19:00Z,40.22,-83.35,28.0,16.0,10,5,,10.0,29.949802,,,TRUE,TRUE,,,,,,,SCT,4700,BKN,5000,,,,,VFR,,,,,,,,,,,,SPECI,302.0
PAGA 072118Z 14008KT 10SM SCT034 BKN042 OVC110 16/08 A2980 RMK TSNO,PAGA,2023-07-07T21:18:00Z,64.73,-156.93,16.0,8.0,140,8,,10.0,29.799213,,,,,,,TRUE,,,,SCT,3400,BKN,4200,OVC,11000,,,VFR,,,,,,,,,,,,METAR,39.0
PAPB 072117Z AUTO 16018KT 2SM -RA BKN004 OVC009 A2968 RMK AO2 P0001 TSNO $,PAPB,2023-07-07T21:17:00Z,56.58,-169.67,,,160,18,,2.0,29.681103,,,TRUE,TRUE,TRUE,,TRUE,,,-RA,BKN,400,OVC,900,,,,,LIFR,,,,,,0.01,,,,,,METAR,33.0
K40B 072116Z AUTO 00000KT 22/20 A2984 RMK AO1 SLP093 T02150200 50012 60024,K40B,2023-07-07T21:16:00Z,46.62,-69.52,21.5,20.0,0,0,,,29.840551,1009.3,,TRUE,TRUE,,,,,,,,,,,,,,,,1.2,,,,,,0.24,,,,,SPECI,344.0
KJVW 072115Z AUTO 30007KT 10SM FEW035 FEW050 32/29 A2993 RMK AO2,KJVW,2023-07-07T21:15:00Z,32.3,-90.42,32.0,29.0,300,7,,10.0,29.929134,,,TRUE,TRUE,,,,,,,FEW,3500,FEW,5000,,,,,VFR,,,,,,,,,,,,METAR,73.0
CYSC 072113Z AUTO 16003KT 9SM SCT003 21/20 A2985 RMK TS/LTNG TEMPO UNAVBL SLP109 DENSITY ALT 1800FT,CYSC,2023-07-07T21:13:00Z,45.43,-71.68,21.0,20.0,160,3,,9.0,29.84941,1010.9,,TRUE,,,,,,,,SCT,300,,,,,,,VFR,,,,,,,,,,,,SPECI,236.0
VCRI 072110Z 24004KT 9999 FEW018 25/23 Q1010 NOSIG,VCRI,2023-07-07T21:10:00Z,6.28,81.13,25.0,23.0,240,4,,6.21,29.822834,,,,,,TRUE,,,,,FEW,1800,,,,,,,VFR,,,,,,,,,,,,METAR,50.0
VCBI 072110Z 15003KT 090V170 9999 FEW016 25/24 Q1011 NOSIG,VCBI,2023-07-07T21:10:00Z,7.17,79.88,25.0,24.0,150,3,,6.21,29.852362,,,,,,TRUE,,,,,FEW,1600,,,,,,,VFR,,,,,,,,,,,,METAR,10.0
RJTL 072107Z 20005KT 150V280 9999 -SHRA FEW004 BKN007 BKN100 25/24 Q1007 RMK 2ST004 6ST007 7AC100 A2977,RJTL,2023-07-07T21:07:00Z,35.78,140.02,25.0,24.0,200,5,,6.21,29.734253,,,,,,,,,,-SHRA,FEW,400,BKN,700,BKN,10000,,,IFR,,,,,,,,,,,,SPECI,29.0
WMSA 072100Z 15003KT 9999 FEW010 25/24 Q1010,WMSA,2023-07-07T21:00:00Z,3.13,101.55,25.0,24.0,150,3,,6.21,29.822834,,,,,,,,,,,FEW,1000,,,,,,,VFR,,,,,,,,,,,,METAR,19.0
WMKN 072100Z 19003KT 150V240 9999 SCT022 25/24 Q1008,WMKN,2023-07-07T21:00:00Z,5.37,103.1,25.0,24.0,190,3,,6.21,29.763779,,,,,,,,,,,SCT,2200,,,,,,,VFR,,,,,,,,,,,,METAR,12.0
WMKM 072100Z 00000KT 9999 FEW010 25/24 Q1011,WMKM,2023-07-07T21:00:00Z,2.27,102.25,25.0,24.0,0,0,,6.21,29.852362,,,,,,,,,,,FEW,1000,,,,,,,VFR,,,,,,,,,,,,METAR,9.0
WMKL 072100Z VRB02KT 9999 FEW026 27/25 Q1009,WMKL,2023-07-07T21:00:00Z,6.32,99.72,27.0,25.0,0,2,,6.21,29.793306,,,,,,,,,,,FEW,2600,,,,,,,VFR,,,,,,,,,,,,METAR,4.0
WMKJ 072100Z VRB01KT 7000 FEW008 25/24 Q1010,WMKJ,2023-07-07T21:00:00Z,1.63,103.67,25.0,24.0,0,1,,4.35,29.822834,,,,,,,,,,,FEW,800,,,,,,,MVFR,,,,,,,,,,,,METAR,38.0
WMKI 072100Z 00000KT 8000 FEW026 24/23 Q1010,WMKI,2023-07-07T21:00:00Z,4.57,101.08,24.0,23.0,0,0,,4.97,29.822834,,,,,,,,,,,FEW,2600,,,,,,,MVFR,,,,,,,,,,,,METAR,37.0
WMKE 072100Z AUTO 00000KT //// // ////// 25/24 Q1008,WMKE,2023-07-07T21:00:00Z,4.53,103.43,25.0,24.0,0,0,,,29.763779,,,TRUE,,,,,,,,,,,,,,,,,,,,,,,,,,,,METAR,5.0
WMKD 072100Z 21004KT 160V250 9000 FEW000 24/23 Q1009 NOSIG,WMKD,2023-07-07T21:00:00Z,3.77,103.22,24.0,23.0,210,4,,5.59,29.793306,,,,,,TRUE,,,,,FEW,0,,,,,,,VFR,,,,,,,,,,,,METAR,18.0
WMKC 072100Z 21005KT 140V260 9999 FEW020 25/23 Q1008,WMKC,2023-07-07T21:00:00Z,6.17,102.28,25.0,23.0,210,5,,6.21,29.763779,,,,,,,,,,,FEW,2000,,,,,,,VFR,,,,,,,,,,,,METAR,7.0
WMKB 072100Z VRB02KT 8000 FEW024 26/25 Q1009 NOSIG,WMKB,2023-07-07T21:00:00Z,5.47,100.38,26.0,25.0,0,2,,4.97,29.793306,,,,,,TRUE,,,,,FEW,2400,,,,,,,MVFR,,,,,,,,,,,,METAR,4.0
WMKA 072100Z VRB02KT 9999 FEW017CB 26/24 Q1009,WMKA,2023-07-07T21:00:00Z,6.2,100.4,26.0,24.0,0,2,,6.21,29.793306,,,,,,,,,,,FEW,1700,,,,,,,VFR,,,,,,,,,,,,METAR,5.0
WMBA 072100Z 00000KT 9000 SCT031 25/24 Q1010,WMBA,2023-07-07T21:00:00Z,4.22,100.7,25.0,24.0,0,0,,5.59,29.822834,,,,,,,,,,,SCT,3100,,,,,,,VFR,,,,,,,,,,,,METAR,9.0
WMAU 072100Z VRB02KT 7000 FEW002 24/23 Q1011,WMAU,2023-07-07T21:00:00Z,2.38,103.88,24.0,23.0,0,2,,4.35,29.852362,,,,,,,,,,,FEW,200,,,,,,,MVFR,,,,,,,,,,,,METAR,5.0
WIEE 072100Z AUTO 00000KT 9999 BKN180 OVC190 24/24 Q1010 NOSIG,WIEE,2023-07-07T21:00:00Z,-0.78,100.28,24.0,24.0,0,0,,6.21,29.822834,,,TRUE,,,TRUE,,,,,BKN,18000,OVC,19000,,,,,VFR,,,,,,,,,,,,METAR,5.0
WBKW 072100Z 00000KT 9999 FEW016 24/23 Q1011,WBKW,2023-07-07T21:00:00Z,4.32,118.12,24.0,23.0,0,0,,6.21,29.852362,,,,,,,,,,,FEW,1600,,,,,,,VFR,,,,,,,,,,,,METAR,17.0
WBKT 072100Z 22003KT 190V250 9999 FEW014 24/24 Q1011,WBKT,2023-07-07T21:00:00Z,6.92,116.83,24.0,24.0,220,3,,6.21,29.852362,,,,,,,,,,,FEW,1400,,,,,,,VFR,,,,,,,,,,,,METAR,11.0
WBKS 072100Z 24004KT 210V270 9999 FEW016 24/24 Q1011,WBKS,2023-07-07T21:00:00Z,5.9,118.07,24.0,24.0,240,4,,6.21,29.852362,,,,,,,,,,,FEW,1600,,,,,,,VFR,,,,,,,,,,,,METAR,13.0
WBKL 072100Z 00000KT 9999 FEW017CB 24/23 Q1012,WBKL,2023-07-07T21:00:00Z,5.3,115.25,24.0,23.0,0,0,,6.21,29.88189,,,,,,,,,,,FEW,1700,,,,,,,VFR,,,,,,,,,,,,METAR,29.0
WBGY 072100Z AUTO VRB02KT //// // ////// 24/23 Q1012,WBGY,2023-07-07T21:00:00Z,1.22,111.45,24.0,23.0,0,2,,,29.88189,,,TRUE,,,,,,,,,,,,,,,,,,,,,,,,,,,,METAR,13.0
WBGS 072100Z 16004KT 080V220 8000 -RA FEW007 SCT016 24/24 Q1013,WBGS,2023-07-07T21:00:00Z,2.27,111.98,24.0,24.0,160,4,,4.97,29.911417,,,,,,,,,,-RA,FEW,700,SCT,1600,,,,,MVFR,,,,,,,,,,,,METAR,26.0
WBGR 072100Z 12003KT 9999 SCT014 25/24 Q1012,WBGR,2023-07-07T21:00:00Z,4.32,113.98,25.0,24.0,120,3,,6.21,29.88189,,,,,,,,,,,SCT,1400,,,,,,,VFR,,,,,,,,,,,,METAR,18.0
WBGB 072100Z 14002KT 9999 -RA SCT016 24/23 Q1013,WBGB,2023-07-07T21:00:00Z,3.12,113.02,24.0,23.0,140,2,,6.21,29.911417,,,,,,,,,,-RA,SCT,1600,,,,,,,VFR,,,,,,,,,,,,METAR,34.0
VOVZ 072100Z 26008KT 4500 BR SCT018 FEW022TCU BKN080 29/25 Q1005 NOSIG,VOVZ,2023-07-07T21:00:00Z,17.72,83.22,29.0,25.0,260,8,,2.8,29.675198,,,,,,TRUE,,,,BR,SCT,1800,FEW,2200,BKN,8000,,,IFR,,,,,,,,,,,,METAR,4.0
VOPB 072100Z 28004KT 5000 DZ BR SCT014 OVC080 27/26 Q1009 TEMPO 4000 -RA,VOPB,2023-07-07T21:00:00Z,11.63,92.73,27.0,26.0,280,4,,3.11,29.793306,,,,,,,,,,DZ BR,SCT,1400,OVC,8000,,,,,MVFR,,,,,,,,,,,,METAR,1.0
VEGY 072100Z 08006KT 3000 BR FEW020 SCT100 25/25 Q1002,VEGY,2023-07-07T21:00:00Z,24.75,84.95,25.0,25.0,80,6,,1.86,29.586615,,,,,,,,,,BR,FEW,2000,SCT,10000,,,,,IFR,,,,,,,,,,,,METAR,115.0
VEBN 072100Z 09006KT 2500 BR SCT020 FEW030CB BKN100 28/28 Q1001 NOSIG,VEBN,2023-07-07T21:00:00Z,25.45,82.85,28.0,28.0,90,6,,1.55,29.557087,,,,,,TRUE,,,,BR,SCT,2000,FEW,3000,BKN,10000,,,IFR,,,,,,,,,,,,METAR,81.0
UTO8 M M M 090/32/10/0907/M/M SOG 01 7028 77MM,UTO8,2023-07-07T21:00:00Z,,,,,,,,4.37,,,,,,,,,,,,,,,,,,,,,,,,,,,,,,,,SPECI,
ULWC 072100Z 27003MPS 5000 -SHRA BKN004 OVC013CB 18/18 Q1011 R21/290260 NOSIG RMK QBB140 QFE748/0997,ULWC,2023-07-07T21:00:00Z,59.28,38.02,18.0,18.0,270,6,,3.11,29.852362,,,,,,TRUE,,,,-SHRA,BKN,400,OVC,1300,,,,,LIFR,,,,,,,,,,,,METAR,113.0
TGPY 072100Z 10014KT 9999 FEW015CB SCT035 30/26 Q1011 NOSIG RMK CB-S/VCSH-N/NE,TGPY,2023-07-07T21:00:00Z,12.0,-61.78,30.0,26.0,100,14,,6.21,29.852362,,,,,,TRUE,,,,,FEW,1500,SCT,3500,,,,,VFR,,,,,,,,,,,,METAR,12.0
SYMB 072100Z 22006KT 9999 FEW020CB BKN021 28/25 Q//// NOSIG RMK CB-N,SYMB,2023-07-07T21:00:00Z,8.2,-59.78,28.0,25.0,220,6,,6.21,,,,,,,TRUE,,,,,FEW,2000,BKN,2100,,,,,MVFR,,,,,,,,,,,,METAR,13.0
"SYLT 072100Z 09012KT 9999 FEW012CB SCT014 32/23 Q//// NOSIG RMK CB E,SE & S",SYLT,2023-07-07T21:00:00Z,3.37,-59.78,32.0,23.0,90,12,,6.21,,,,,,,TRUE,,,,,FEW,1200,SCT,1400,,,,,VFR,,,,,,,,,,,,METAR,88.0
SYEC 072100Z 08012KT 9999 SCT024 30/24 Q1011 NOSIG,SYEC,2023-07-07T21:00:00Z,6.8,-58.1,30.0,24.0,80,12,,6.21,29.852362,,,,,,TRUE,,,,,SCT,2400,,,,,,,VFR,,,,,,,,,,,,METAR,2.0
SPPY 072100Z 04006KT 9999 FEW025 SCT070 19/11 Q1024 RMK TX22.2 PP000,SPPY,2023-07-07T21:00:00Z,-6.22,-77.85,19.0,11.0,40,6,,6.21,30.236221,,,,,,,,,,,FEW,2500,SCT,7000,,,,,VFR,,,,,,,,,,,,SPECI,2536.0
SPMS 072100Z 03005KT 9999 SCT015 33/24 Q1008 RMK BIRD HAZARD RWY 09/27 PP000,SPMS,2023-07-07T21:00:00Z,-5.9,-76.12,33.0,24.0,30,5,,6.21,29.763779,,,,,,,,,,,SCT,1500,,,,,,,VFR,,,,,,,,,,,,SPECI,149.0
SPLO 072100Z 19008KT 9999 OVC025 21/17 Q1014 RMK TX22.8 PP000,SPLO,2023-07-07T21:00:00Z,-17.7,-71.35,21.0,17.0,190,8,,6.21,29.940945,,,,,,,,,,,OVC,2500,,,,,,,MVFR,,,,,,,,,,,,METAR,25.0
SPJE 072100Z 33005KT 9999 VCSH SCT040 SCT090 32/21 Q1010 RMK TX34.0 BIRD HAZARD RWY 16/34 PP000,SPJE,2023-07-07T21:00:00Z,,,32.0,21.0,330,5,,6.21,29.822834,,,,,,,,,,VCSH,SCT,4000,SCT,9000,,,,,VFR,,,,,,,,,,,,METAR,
SPEO 072100Z 19017KT 9999 FEW015 24/18 Q1012 RMK PP000,SPEO,2023-07-07T21:00:00Z,-9.17,-78.52,24.0,18.0,190,17,,6.21,29.88189,,,,,,,,,,,FEW,1500,,,,,,,VFR,,,,,,,,,,,,SPECI,13.0
SMZO 072100Z 03007KT 9999 FEW012CB SCT015 30/23 Q1010 NOSIG,SMZO,2023-07-07T21:00:00Z,5.82,-55.18,30.0,23.0,30,7,,6.21,29.822834,,,,,,TRUE,,,,,FEW,1200,SCT,1500,,,,,VFR,,,,,,,,,,,,METAR,7.0
SMJP 072100Z 06002KT 9999 FEW010 FEW015CB SCT020 26/24 Q1010 NOSIG,SMJP,2023-07-07T21:00:00Z,5.45,-55.18,26.0,24.0,60,2,,6.21,29.822834,,,,,,TRUE,,,,,FEW,1000,FEW,1500,SCT,2000,,,VFR,,,,,,,,,,,,METAR,14.0
SLTR 072100Z 35008KT 9999 FEW025 BKN080 32/21 Q1008,SLTR,2023-07-07T21:00:00Z,-14.83,-64.92,32.0,21.0,350,8,,6.21,29.763779,,,,,,,,,,,FEW,2500,BKN,8000,,,,,VFR,,,,,,,,,,,,METAR,157.0
SKVV 072100Z 21008KT 8000 VCSH SCT015 BKN080 26/23 Q1012 REDZ RMK VCSH/S/SW,SKVV,2023-07-07T21:00:00Z,4.17,-73.62,26.0,23.0,210,8,,4.97,29.88189,,,,,,,,,,VCSH,SCT,1500,BKN,8000,,,,,MVFR,,,,,,,,,,,,SPECI,421.0
SKVP 072100Z 110V200 9999 VCSH FEW020TCU SCT070 33/24 Q1010 RMK TCU VCSH/NE/E,SKVP,2023-07-07T21:00:00Z,10.43,-73.25,33.0,24.0,,,,6.21,29.822834,,,,,,,,,,VCSH,FEW,2000,SCT,7000,,,,,VFR,,,,,,,,,,,,SPECI,137.0
SKUI 072100Z 25005KT 9999 OVC015TCU 27/25 Q1008 RMK TCUS/SW,SKUI,2023-07-07T21:00:00Z,5.68,-76.63,27.0,25.0,250,5,,6.21,29.763779,,,,,,,,,,,OVC,1500,,,,,,,MVFR,,,,,,,,,,,,SPECI,55.0
SKUC 072100Z 08004KT 9999 SCT023 31/24 Q1010,SKUC,2023-07-07T21:00:00Z,7.07,-70.73,31.0,24.0,80,4,,6.21,29.822834,,,,,,,,,,,SCT,2300,,,,,,,VFR,,,,,,,,,,,,METAR,127.0
SKSP 072100Z 08013KT 050V110 9999 SCT016 29/26 Q1009 RMK VCSH/S,SKSP,2023-07-07T21:00:00Z,12.58,-81.72,29.0,26.0,80,13,,6.21,29.793306,,,,,,,,,,,SCT,1600,,,,,,,VFR,,,,,,,,,,,,METAR,6.0
SKSM 072100Z 33007KT 9999 FEW017 BKN100 32/26 Q1009,SKSM,2023-07-07T21:00:00Z,11.12,-74.22,32.0,26.0,330,7,,6.21,29.793306,,,,,,,,,,,FEW,1700,BKN,10000,,,,,VFR,,,,,,,,,,,,METAR,5.0
SKRH 072100Z 04011KT 010V080 9999 FEW018 30/26 Q1008,SKRH,2023-07-07T21:00:00Z,11.52,-72.92,30.0,26.0,40,11,,6.21,29.763779,,,,,,,,,,,FEW,1800,,,,,,,VFR,,,,,,,,,,,,METAR,11.0
SKRG 072100Z 06005KT 010V180 9999 VCSH SCT018CB 22/14 Q1023 TEMPO FM2200 5000 RA SCT015CB RMK CB VCSH/SE/S,SKRG,2023-07-07T21:00:00Z,6.17,-75.42,22.0,14.0,60,5,,6.21,30.206694,,,,,,,,,,VCSH,SCT,1800,,,,,,,VFR,,,,,,,,,,,,METAR,2132.0
SKPV 072100Z 07010KT 9999 SCT017 26/24 Q1010 REDZ,SKPV,2023-07-07T21:00:00Z,13.37,-81.35,26.0,24.0,70,10,,6.21,29.822834,,,,,,,,,,,SCT,1700,,,,,,,VFR,,,,,,,,,,,,SPECI,7.0
SKPS 072100Z VRB04KT 9999 VCSH BKN020 22/15 Q1019 RMK VCSH/S,SKPS,2023-07-07T21:00:00Z,1.4,-77.28,22.0,15.0,0,4,,6.21,30.088583,,,,,,,,,,VCSH,BKN,2000,,,,,,,MVFR,,,,,,,,,,,,SPECI,1798.0
SKPE 072100Z 13007KT 8000 -RA BKN010 SCT080 20/18 Q1017,SKPE,2023-07-07T21:00:00Z,4.82,-75.73,20.0,18.0,130,7,,4.97,30.029528,,,,,,,,,,-RA,BKN,1000,SCT,8000,,,,,MVFR,,,,,,,,,,,,METAR,1341.0
SKPC 072100Z 22005KT 9999 FEW015 25/24 Q1008,SKPC,2023-07-07T21:00:00Z,6.18,-67.5,25.0,24.0,220,5,,6.21,29.763779,,,,,,,,,,,FEW,1500,,,,,,,VFR,,,,,,,,,,,,METAR,51.0
SKNV 072100Z 12005KT 9000 -DZ FEW030 OVC100 24/21 Q1011,SKNV,2023-07-07T21:00:00Z,2.93,-75.28,24.0,21.0,120,5,,5.59,29.852362,,,,,,,,,,-DZ,FEW,3000,OVC,10000,,,,,VFR,,,,,,,,,,,,METAR,449.0
SKMZ 072100Z 00000KT 7000 VCFG BKN015 16/16 Q1025,SKMZ,2023-07-07T21:00:00Z,5.03,-75.47,16.0,16.0,0,0,,4.35,30.265747,,,,,,,,,,VCFG,BKN,1500,,,,,,,MVFR,,,,,,,,,,,,METAR,2075.0
SKMR 072100Z 36004KT 310V050 9999 FEW017 31/26 Q1008,SKMR,2023-07-07T21:00:00Z,8.82,-75.83,31.0,26.0,360,4,,6.21,29.763779,,,,,,,,,,,FEW,1700,,,,,,,VFR,,,,,,,,,,,,METAR,12.0
SKMD 072100Z VRB02KT 9999 VCSH SCT035TCU SCT080 27/17 Q1018 RMK TCUVCSH//E/SE,SKMD,2023-07-07T21:00:00Z,6.22,-75.58,27.0,17.0,0,2,,6.21,30.059055,,,,,,,,,,VCSH,SCT,3500,SCT,8000,,,,,VFR,,,,,,,,,,,,SPECI,1491.0
SKLT 072100Z VRB02KT 9999 SCT020 30/25 Q1008,SKLT,2023-07-07T21:00:00Z,-4.2,-69.93,30.0,25.0,0,2,,6.21,29.763779,,,,,,,,,,,SCT,2000,,,,,,,VFR,,,,,,,,,,,,METAR,78.0
SKLC 072100Z 23005KT 9999 SCT020 33/24 Q1008,SKLC,2023-07-07T21:00:00Z,7.82,-76.72,33.0,24.0,230,5,,6.21,29.763779,,,,,,,,,,,SCT,2000,,,,,,,VFR,,,,,,,,,,,,METAR,20.0
SKIP 072100Z 00000KT 9999 BKN018 14/10 Q1027 RERA,SKIP,2023-07-07T21:00:00Z,0.85,-77.67,14.0,10.0,0,0,,6.21,30.324802,,,,,,,,,,,BKN,1800,,,,,,,MVFR,,,,,,,,,,,,METAR,2964.0
SKIB 072100Z 10005KT 9999 BKN010 BKN080 23/21 Q1018,SKIB,2023-07-07T21:00:00Z,4.42,-75.12,23.0,21.0,100,5,,6.21,30.059055,,,,,,,,,,,BKN,1000,BKN,8000,,,,,MVFR,,,,,,,,,,,,METAR,899.0
SKEJ 072100Z 04003KT 9999 FEW017 31/22 Q1007,SKEJ,2023-07-07T21:00:00Z,7.02,-73.8,31.0,22.0,40,3,,6.21,29.734253,,,,,,,,,,,FEW,1700,,,,,,,VFR,,,,,,,,,,,,METAR,123.0
SKCL 072100Z 03007KT 350V070 9999 SCT020TCU SCT100 29/19 Q1013 NOSIG RMK TCUSE/NW,SKCL,2023-07-07T21:00:00Z,3.53,-76.37,29.0,19.0,30,7,,6.21,29.911417,,,,,,TRUE,,,,,SCT,2000,SCT,10000,,,,,VFR,,,,,,,,,,,,METAR,967.0
SKCG 072100Z 23005KT 200V270 9999 FEW017 28/25 Q1009,SKCG,2023-07-07T21:00:00Z,10.43,-75.52,28.0,25.0,230,5,,6.21,29.793306,,,,,,,,,,,FEW,1700,,,,,,,VFR,,,,,,,,,,,,METAR,6.0
SKCC 072100Z VRB06KT 9999 SCT023 33/22 Q1010,SKCC,2023-07-07T21:00:00Z,7.92,-72.52,33.0,22.0,0,6,,6.21,29.822834,,,,,,,,,,,SCT,2300,,,,,,,VFR,,,,,,,,,,,,METAR,308.0
SKBQ 072100Z 05008KT 350V070 9999 VCSH FEW015CB 30/26 Q1008 NOSIG RMK CB VCSH/SW,SKBQ,2023-07-07T21:00:00Z,10.87,-74.77,30.0,26.0,50,8,,6.21,29.763779,,,,,,TRUE,,,,VCSH,FEW,1500,,,,,,,VFR,,,,,,,,,,,,METAR,23.0
SKBO 072100Z 23010KT 9999 VCSH SCT018 SCT070 16/14 Q1025 NOSIG RMK VCSH/NE/S,SKBO,2023-07-07T21:00:00Z,4.7,-74.15,16.0,14.0,230,10,,6.21,30.265747,,,,,,TRUE,,,,VCSH,SCT,1800,SCT,7000,,,,,VFR,,,,,,,,,,,,METAR,2547.0
SKBG 072100Z 32006KT 9999 SCT012 25/21 Q1013,SKBG,2023-07-07T21:00:00Z,7.13,-73.18,25.0,21.0,320,6,,6.21,29.911417,,,,,,,,,,,SCT,1200,,,,,,,VFR,,,,,,,,,,,,METAR,1187.0
SKAR 072100Z 00000KT 9999 VCSH FEW015 BKN023 21/20 Q1016 RMK VCSH/N/NE,SKAR,2023-07-07T21:00:00Z,4.45,-75.77,21.0,20.0,0,0,,6.21,30.0,,,,,,,,,,VCSH,FEW,1500,BKN,2300,,,,,MVFR,,,,,,,,,,,,SPECI,1214.0
SGSP 072100Z 00000KT CAVOK 26/20 Q1004,SGSP,2023-07-07T21:00:00Z,-24.03,-57.02,26.0,20.0,0,0,,6.21,29.64567,,,,,,,,,,,CAVOK,,,,,,,,VFR,,,,,,,,,,,,METAR,81.0
SGSJ 072100Z 07004KT 9999 OVC020 24/14 Q1010,SGSJ,2023-07-07T21:00:00Z,-26.67,-57.13,24.0,14.0,70,4,,6.21,29.822834,,,,,,,,,,,OVC,2000,,,,,,,MVFR,,,,,,,,,,,,METAR,131.0
SGPJ 072100Z 36012KT CAVOK 25/15 Q1012,SGPJ,2023-07-07T21:00:00Z,-22.63,-55.83,25.0,15.0,360,12,,6.21,29.88189,,,,,,,,,,,CAVOK,,,,,,,,VFR,,,,,,,,,,,,METAR,571.0
SGPI 072100Z 09002KT 9999 BKN027 25/19 Q1004,SGPI,2023-07-07T21:00:00Z,-26.87,-58.32,25.0,19.0,90,2,,6.21,29.64567,,,,,,,,,,,BKN,2700,,,,,,,MVFR,,,,,,,,,,,,METAR,59.0
SGPC 072100Z 02006KT CAVOK 29/18 Q1005,SGPC,2023-07-07T21:00:00Z,-23.5,-58.78,29.0,18.0,20,6,,6.21,29.675198,,,,,,,,,,,CAVOK,,,,,,,,VFR,,,,,,,,,,,,METAR,98.0
SGME 072100Z 03010KT CAVOK 31/19 Q1003,SGME,2023-07-07T21:00:00Z,-22.03,-60.62,31.0,19.0,30,10,,6.21,29.616142,,,,,,,,,,,CAVOK,,,,,,,,VFR,,,,,,,,,,,,METAR,166.0
SGGR 072100Z 09004KT 9999 OVC020 23/16 Q1009,SGGR,2023-07-07T21:00:00Z,-24.03,-54.35,23.0,16.0,90,4,,6.21,29.793306,,,,,,,,,,,OVC,2000,,,,,,,MVFR,,,,,,,,,,,,METAR,297.0
SGEN 072100Z 08008KT 5000 RA BKN020 OVC070 19/18 Q1008,SGEN,2023-07-07T21:00:00Z,-27.23,-55.83,19.0,18.0,80,8,,3.11,29.763779,,,,,,,,,,RA,BKN,2000,OVC,7000,,,,,MVFR,,,,,,,,,,,,METAR,202.0
SGCO 072100Z 08006KT 9999 FEW040 BKN070 28/19 Q1005,SGCO,2023-07-07T21:00:00Z,-23.43,-57.42,28.0,19.0,80,6,,6.21,29.675198,,,,,,,,,,,FEW,4000,BKN,7000,,,,,VFR,,,,,,,,,,,,METAR,74.0
SETU 072100Z 03005KT 9999 BKN020 15/11 Q1030,SETU,2023-07-07T21:00:00Z,0.82,-77.7,15.0,11.0,30,5,,6.21,30.413385,,,,,,,,,,,BKN,2000,,,,,,,MVFR,,,,,,,,,,,,METAR,2936.0
SERB 072100Z 09012KT 9999 BKN040 20/11 Q1026,SERB,2023-07-07T21:00:00Z,-1.65,-78.67,20.0,11.0,90,12,,6.21,30.295275,,,,,,,,,,,BKN,4000,,,,,,,VFR,,,,,,,,,,,,METAR,2788.0
SEJD 072100Z 08003KT 9999 SCT023 29/23 Q1010 RMK A2985,SEJD,2023-07-07T21:00:00Z,-1.07,-77.58,29.0,23.0,80,3,,6.21,29.822834,,,,,,,,,,,SCT,2300,,,,,,,VFR,,,,,,,,,,,,METAR,376.0
SECO 072100Z 14004KT 9999 BKN020 30/24 Q1009 RMK A2981,SECO,2023-07-07T21:00:00Z,-0.45,-76.98,30.0,24.0,140,4,,6.21,29.793306,,,,,,,,,,,BKN,2000,,,,,,,MVFR,,,,,,,,,,,,METAR,256.0
SBYS 072100Z 00000KT CAVOK 20/11 Q1017,SBYS,2023-07-07T21:00:00Z,-21.97,-47.33,20.0,11.0,0,0,,6.21,30.029528,,,,,,,,,,,CAVOK,,,,,,,,VFR,,,,,,,,,,,,METAR,600.0
SBVH 072100Z 36009KT CAVOK 29/17 Q1014,SBVH,2023-07-07T21:00:00Z,-12.68,-60.08,29.0,17.0,360,9,,6.21,29.940945,,,,,,,,,,,CAVOK,,,,,,,,VFR,,,,,,,,,,,,METAR,615.0
SBUY 072100Z 16002KT 9999 SCT025 BKN100 26/25 Q1008,SBUY,2023-07-07T21:00:00Z,-4.88,-65.35,26.0,25.0,160,2,,6.21,29.763779,,,,,,,,,,,SCT,2500,BKN,10000,,,,,VFR,,,,,,,,,,,,METAR,44.0
SBUR 072100Z 00000KT CAVOK 24/06 Q1018,SBUR,2023-07-07T21:00:00Z,-19.77,-47.97,24.0,6.0,0,0,,6.21,30.059055,,,,,,,,,,,CAVOK,,,,,,,,VFR,,,,,,,,,,,,METAR,807.0
SBUL 072100Z 34006KT CAVOK 23/06 Q1019,SBUL,2023-07-07T21:00:00Z,-18.87,-48.22,23.0,6.0,340,6,,6.21,30.088583,,,,,,,,,,,CAVOK,,,,,,,,VFR,,,,,,,,,,,,METAR,945.0
SBTU 072100Z AUTO 28005KT 250V310 //// // NCD 30/21 Q1012,SBTU,2023-07-07T21:00:00Z,-3.78,-49.72,30.0,21.0,280,5,,,29.88189,,,TRUE,,,,,,,,CLR,,,,,,,,,,,,,,,,,,,,METAR,250.0
SBTA 072100Z VRB01KT 9999 FEW030 17/10 Q1017,SBTA,2023-07-07T21:00:00Z,-23.03,-45.5,17.0,10.0,0,1,,6.21,30.029528,,,,,,,,,,,FEW,3000,,,,,,,VFR,,,,,,,,,,,,METAR,578.0
SBST 072100Z 00000KT 7000 FEW042 22/16 Q1013,SBST,2023-07-07T21:00:00Z,-23.92,-46.3,22.0,16.0,0,0,,4.35,29.911417,,,,,,,,,,,FEW,4200,,,,,,,MVFR,,,,,,,,,,,,METAR,5.0
SBSR 072100Z 00000KT CAVOK 25/06 Q1016,SBSR,2023-07-07T21:00:00Z,-20.8,-49.4,25.0,6.0,0,0,,6.21,30.0,,,,,,,,,,,CAVOK,,,,,,,,VFR,,,,,,,,,,,,METAR,537.0
SBSM 072100Z 10009KT 3000 -RA BKN002 OVC010 17/16 Q1011,SBSM,2023-07-07T21:00:00Z,-29.72,-53.7,17.0,16.0,100,9,,1.86,29.852362,,,,,,,,,,-RA,BKN,200,OVC,1000,,,,,LIFR,,,,,,,,,,,,METAR,86.0
SBSC 072100Z 03001KT CAVOK 19/13 Q1014,SBSC,2023-07-07T21:00:00Z,-22.92,-43.72,19.0,13.0,30,1,,6.21,29.940945,,,,,,,,,,,CAVOK,,,,,,,,VFR,,,,,,,,,,,,METAR,6.0
SBPF 072100Z 15006KT 2000 -RA BR FEW005 BKN040 OVC100 16/16 Q1013,SBPF,2023-07-07T21:00:00Z,-28.25,-52.33,16.0,16.0,150,6,,1.24,29.911417,,,,,,,,,,-RA BR,FEW,500,BKN,4000,OVC,10000,,,IFR,,,,,,,,,,,,METAR,720.0
SBMY 072100Z AUTO 09006KT 060V120 CAVOK 32/23 Q1009,SBMY,2023-07-07T21:00:00Z,-5.82,-61.28,32.0,23.0,90,6,,6.21,29.793306,,,TRUE,,,,,,,,CAVOK,,,,,,,,VFR,,,,,,,,,,,,METAR,44.0
SBMT 072100Z 31003KT CAVOK 20/08 Q1017,SBMT,2023-07-07T21:00:00Z,-23.52,-46.63,20.0,8.0,310,3,,6.21,30.029528,,,,,,,,,,,CAVOK,,,,,,,,VFR,,,,,,,,,,,,METAR,722.0
SBMS 072100Z 05008KT 9999 FEW030 29/21 Q1012,SBMS,2023-07-07T21:00:00Z,-5.2,-37.37,29.0,21.0,50,8,,6.21,29.88189,,,,,,,,,,,FEW,3000,,,,,,,VFR,,,,,,,,,,,,METAR,23.0
SBMK 072100Z 00000KT CAVOK 24/08 Q1017,SBMK,2023-07-07T21:00:00Z,-16.7,-43.82,24.0,8.0,0,0,,6.21,30.029528,,,,,,,,,,,CAVOK,,,,,,,,VFR,,,,,,,,,,,,METAR,665.0
SBMG 072100Z 03010KT CAVOK 23/13 Q1013,SBMG,2023-07-07T21:00:00Z,-23.48,-52.02,23.0,13.0,30,10,,6.21,29.911417,,,,,,,,,,,CAVOK,,,,,,,,VFR,,,,,,,,,,,,METAR,543.0
SBME 072100Z 08002KT CAVOK 21/14 Q1015,SBME,2023-07-07T21:00:00Z,-22.35,-41.77,21.0,14.0,80,2,,6.21,29.970472,,,,,,,,,,,CAVOK,,,,,,,,VFR,,,,,,,,,,,,METAR,2.0
SBLS 072100Z 07003KT CAVOK 19/06 Q1019,SBLS,2023-07-07T21:00:00Z,-19.67,-43.88,19.0,6.0,70,3,,6.21,30.088583,,,,,,,,,,,CAVOK,,,,,,,,VFR,,,,,,,,,,,,METAR,850.0
SBLE 072100Z AUTO VRB01KT CAVOK 20/18 Q1018,SBLE,2023-07-07T21:00:00Z,-12.48,-41.28,20.0,18.0,0,1,,6.21,30.059055,,,TRUE,,,,,,,,CAVOK,,,,,,,,VFR,,,,,,,,,,,,METAR,495.0
SBLB 072100Z AUTO 01019KT 9999 NCD 24/18 Q1016 W24/S4,SBLB,2023-07-07T21:00:00Z,-22.1,-39.92,24.0,18.0,10,19,,6.21,30.0,,,TRUE,,,,,,,,CLR,,,,,,,,VFR,,,,,,,,,,,,METAR,10.0
SBKG 072100Z 10006KT 9999 BKN015 BKN070 22/21 Q1016,SBKG,2023-07-07T21:00:00Z,-7.27,-35.88,22.0,21.0,100,6,,6.21,30.0,,,,,,,,,,,BKN,1500,BKN,7000,,,,,MVFR,,,,,,,,,,,,METAR,499.0
SBJV 072100Z 14001KT CAVOK 19/18 Q1013,SBJV,2023-07-07T21:00:00Z,-26.22,-48.8,19.0,18.0,140,1,,6.21,29.911417,,,,,,,,,,,CAVOK,,,,,,,,VFR,,,,,,,,,,,,METAR,3.0
SBJU 072100Z 18005KT 9999 SCT020 BKN070 30/20 Q1016,SBJU,2023-07-07T21:00:00Z,-7.22,-39.27,30.0,20.0,180,5,,6.21,30.0,,,,,,,,,,,SCT,2000,BKN,7000,,,,,VFR,,,,,,,,,,,,METAR,407.0
SBJR 072100Z 00000KT CAVOK 17/15 Q1015,SBJR,2023-07-07T21:00:00Z,-22.98,-43.37,17.0,15.0,0,0,,6.21,29.970472,,,,,,,,,,,CAVOK,,,,,,,,VFR,,,,,,,,,,,,METAR,5.0
SBJE 072100Z 04007KT CAVOK 30/22 Q1011,SBJE,2023-07-07T21:00:00Z,-2.9,-40.35,30.0,22.0,40,7,,6.21,29.852362,,,,,,,,,,,CAVOK,,,,,,,,VFR,,,,,,,,,,,,METAR,25.0
SBIP 072100Z AUTO VRB01KT CAVOK 20/09 Q1017,SBIP,2023-07-07T21:00:00Z,-19.47,-42.48,20.0,9.0,0,1,,6.21,30.029528,,,TRUE,,,,,,,,CAVOK,,,,,,,,VFR,,,,,,,,,,,,METAR,240.0
SBIL 072100Z 14002KT 9999 FEW020 BKN065 25/23 Q1017,SBIL,2023-07-07T21:00:00Z,-14.8,-39.02,25.0,23.0,140,2,,6.21,30.029528,,,,,,,,,,,FEW,2000,BKN,6500,,,,,VFR,,,,,,,,,,,,METAR,9.0
SBIH 072100Z 03004KT 9999 FEW020 33/21 Q1009,SBIH,2023-07-07T21:00:00Z,-4.25,-56.0,33.0,21.0,30,4,,6.21,29.793306,,,,,,,,,,,FEW,2000,,,,,,,VFR,,,,,,,,,,,,METAR,30.0
SBHT 072100Z 12003KT 9999 FEW030 31/23 Q1010,SBHT,2023-07-07T21:00:00Z,-3.25,-52.27,31.0,23.0,120,3,,6.21,29.822834,,,,,,,,,,,FEW,3000,,,,,,,VFR,,,,,,,,,,,,METAR,105.0
SBGW 072100Z 36004KT CAVOK 17/09 Q1017,SBGW,2023-07-07T21:00:00Z,-22.78,-45.2,17.0,9.0,360,4,,6.21,30.029528,,,,,,,,,,,CAVOK,,,,,,,,VFR,,,,,,,,,,,,METAR,539.0
SBFS 072100Z 02004KT CAVOK 22/18 Q1016,SBFS,2023-07-07T21:00:00Z,-22.02,-41.07,22.0,18.0,20,4,,6.21,30.0,,,,,,,,,,,CAVOK,,,,,,,,VFR,,,,,,,,,,,,METAR,3.0
SBES 072100Z 05002KT CAVOK 18/14 Q1015,SBES,2023-07-07T21:00:00Z,-22.82,-42.1,18.0,14.0,50,2,,6.21,29.970472,,,,,,,,,,,CAVOK,,,,,,,,VFR,,,,,,,,,,,,METAR,16.0
SBDN 072100Z 05005KT CAVOK 23/12 Q1014,SBDN,2023-07-07T21:00:00Z,-22.18,-51.43,23.0,12.0,50,5,,6.21,29.940945,,,,,,,,,,,CAVOK,,,,,,,,VFR,,,,,,,,,,,,METAR,438.0
SBCX 072100Z 12002KT 1800 0800SE -DZ BCFG OVC001 15/15 Q1015,SBCX,2023-07-07T21:00:00Z,-29.2,-51.18,15.0,15.0,120,2,,1.12,29.970472,,,,,,,,,,BCFG -DZ,OVC,100,,,,,,,LIFR,,,,,,,,,,,,METAR,752.0
SBCR 072100Z 05007KT CAVOK 29/20 Q1008,SBCR,2023-07-07T21:00:00Z,-19.0,-57.67,29.0,20.0,50,7,,6.21,29.763779,,,,,,,,,,,CAVOK,,,,,,,,VFR,,,,,,,,,,,,METAR,142.0
SBCO 072100Z 10009KT 3000 -RA FEW005 BKN008 OVC020 17/17 Q1014 RERA,SBCO,2023-07-07T21:00:00Z,-29.95,-51.15,17.0,17.0,100,9,,1.86,29.940945,,,,,,,,,,-RA,FEW,500,BKN,800,OVC,2000,,,IFR,,,,,,,,,,,,METAR,8.0
SBCH 072100Z 01010KT 9999 SCT030 SCT100 23/16 Q1011,SBCH,2023-07-07T21:00:00Z,-27.13,-52.67,23.0,16.0,10,10,,6.21,29.852362,,,,,,,,,,,SCT,3000,SCT,10000,,,,,VFR,,,,,,,,,,,,METAR,639.0
SBCA 072100Z 03015KT 9999 SCT040 BKN100 21/13 Q1014,SBCA,2023-07-07T21:00:00Z,-25.0,-53.5,21.0,13.0,30,15,,6.21,29.940945,,,,,,,,,,,SCT,4000,BKN,10000,,,,,VFR,,,,,,,,,,,,METAR,753.0
SBBW 072100Z 00000KT CAVOK 28/15 Q1014,SBBW,2023-07-07T21:00:00Z,-15.87,-52.38,28.0,15.0,0,0,,6.21,29.940945,,,,,,,,,,,CAVOK,,,,,,,,VFR,,,,,,,,,,,,METAR,354.0
SBBU 072100Z 04002KT CAVOK 25/12 Q1016,SBBU,2023-07-07T21:00:00Z,-22.33,-49.07,25.0,12.0,40,2,,6.21,30.0,,,,,,,,,,,CAVOK,,,,,,,,VFR,,,,,,,,,,,,METAR,616.0
SBBQ 072100Z 00000KT CAVOK 15/04 Q1022,SBBQ,2023-07-07T21:00:00Z,-21.25,-43.77,15.0,4.0,0,0,,6.21,30.177166,,,,,,,,,,,CAVOK,,,,,,,,VFR,,,,,,,,,,,,METAR,1106.0
SBBI 072100Z 36005KT CAVOK 18/11 Q1017,SBBI,2023-07-07T21:00:00Z,-25.4,-49.23,18.0,11.0,360,5,,6.21,30.029528,,,,,,,,,,,CAVOK,,,,,,,,VFR,,,,,,,,,,,,METAR,928.0
SBBH 072100Z 05002KT CAVOK 20/05 Q1019,SBBH,2023-07-07T21:00:00Z,-19.85,-43.95,20.0,5.0,50,2,,6.21,30.088583,,,,,,,,,,,CAVOK,,,,,,,,VFR,,,,,,,,,,,,METAR,799.0
SBAX 072100Z 00000KT CAVOK 21/10 Q1018,SBAX,2023-07-07T21:00:00Z,-19.57,-46.97,21.0,10.0,0,0,,6.21,30.059055,,,,,,,,,,,CAVOK,,,,,,,,VFR,,,,,,,,,,,,METAR,989.0
SBAU 072100Z 06008KT CAVOK 24/08 Q1014,SBAU,2023-07-07T21:00:00Z,-21.13,-50.43,24.0,8.0,60,8,,6.21,29.940945,,,,,,,,,,,CAVOK,,,,,,,,VFR,,,,,,,,,,,,METAR,415.0
SBAN 072100Z 08002KT CAVOK 23/06 Q1020,SBAN,2023-07-07T21:00:00Z,-16.22,-48.97,23.0,6.0,80,2,,6.21,30.11811,,,,,,,,,,,CAVOK,,,,,,,,VFR,,,,,,,,,,,,METAR,1131.0
SBAF 072100Z 26005KT CAVOK 19/11 Q1015,SBAF,2023-07-07T21:00:00Z,-22.87,-43.38,19.0,11.0,260,5,,6.21,29.970472,,,,,,,,,,,CAVOK,,,,,,,,VFR,,,,,,,,,,,,METAR,34.0
SAWG 072100Z 25008KT 9999 VCSH FEW012 SCT025 M00/M03 Q1015,SAWG,2023-07-07T21:00:00Z,-51.62,-69.27,0.0,-3.0,250,8,,6.21,29.970472,,,,,,,,,,VCSH,FEW,1200,SCT,2500,,,,,VFR,,,,,,,,,,,,METAR,15.0
SARC 072100Z 18004KT 7000 FEW040TCU OVC100 22/20 Q1006,SARC,2023-07-07T21:00:00Z,-27.43,-58.77,22.0,20.0,180,4,,4.35,29.704725,,,,,,,,,,,FEW,4000,OVC,10000,,,,,MVFR,,,,,,,,,,,,METAR,60.0
RPVD 072100Z 27002KT 9999 SCT015 25/24 Q1010 RMK A2983,RPVD,2023-07-07T21:00:00Z,9.33,123.3,25.0,24.0,270,2,,6.21,29.822834,,,,,,,,,,,SCT,1500,,,,,,,VFR,,,,,,,,,,,,METAR,11.0
RKSM 072100Z 21005KT 9999 BKN015 BKN030 22/20 A2961,RKSM,2023-07-07T21:00:00Z,37.43,127.12,22.0,20.0,210,5,,6.21,29.610237,,,,,,,,,,,BKN,1500,BKN,3000,,,,,MVFR,,,,,,,,,,,,METAR,18.0
RJAW 072100Z 13010KT 9999 VCSH FEW010 SCT015 BKN/// 26/24 Q1014 RMK 1CU010 3CU015 A2996 WIND BY EQPT/25,RJAW,2023-07-07T21:00:00Z,24.78,141.32,26.0,24.0,130,10,,6.21,29.940945,,,,,,,,,,VCSH,FEW,1000,SCT,1500,,,,,VFR,,,,,,,,,,,,METAR,116.0
OSAP 072100Z 26024KT CAVOK 25/19 Q1006,OSAP,2023-07-07T21:00:00Z,36.17,37.22,25.0,19.0,260,24,,6.21,29.704725,,,,,,,,,,,CAVOK,,,,,,,,VFR,,,,,,,,,,,,METAR,390.0
OIZJ 072100Z 13006KT 5000 BR NSC 32/29 Q0997,OIZJ,2023-07-07T21:00:00Z,25.65,57.8,32.0,29.0,130,6,,3.11,29.438976,,,,,,,,,,BR,CLR,,,,,,,,MVFR,,,,,,,,,,,,METAR,6.0
OIZI 072100Z 36006KT CAVOK 36/03 Q1003,OIZI,2023-07-07T21:00:00Z,27.23,60.72,36.0,3.0,360,6,,6.21,29.616142,,,,,,,,,,,CAVOK,,,,,,,,VFR,,,,,,,,,,,,METAR,622.0
OIZB 072100Z 33021KT CAVOK 32/03 Q1002,OIZB,2023-07-07T21:00:00Z,31.1,61.55,32.0,3.0,330,21,,6.21,29.586615,,,,,,,,,,,CAVOK,,,,,,,,VFR,,,,,,,,,,,,METAR,483.0
OITP 072100Z 14010KT CAVOK 25/20 Q1006,OITP,2023-07-07T21:00:00Z,39.6,47.88,25.0,20.0,140,10,,6.21,29.704725,,,,,,,,,,,CAVOK,,,,,,,,VFR,,,,,,,,,,,,METAR,72.0
OITM 072100Z 09019KT CAVOK 28/08 Q1010,OITM,2023-07-07T21:00:00Z,37.35,46.15,28.0,8.0,90,19,,6.21,29.822834,,,,,,,,,,,CAVOK,,,,,,,,VFR,,,,,,,,,,,,METAR,1340.0
OISL 072100Z 00000KT CAVOK 33/15 Q1003 A2963,OISL,2023-07-07T21:00:00Z,27.67,54.37,33.0,15.0,0,0,,6.21,29.616142,,,,,,,,,,,CAVOK,,,,,,,,VFR,,,,,,,,,,,,METAR,804.0
OINR 072100Z 00000KT 9999 FEW027 25/22 Q1007,OINR,2023-07-07T21:00:00Z,36.9,50.67,25.0,22.0,0,0,,6.21,29.734253,,,,,,,,,,,FEW,2700,,,,,,,VFR,,,,,,,,,,,,METAR,-19.0
OINE 072100Z 00000KT CAVOK 26/16 Q1009,OINE,2023-07-07T21:00:00Z,37.38,55.45,26.0,16.0,0,0,,6.21,29.793306,,,,,,,,,,,CAVOK,,,,,,,,VFR,,,,,,,,,,,,METAR,125.0
OICC 072100Z 29008KT CAVOK 30/01 Q1010 A2984,OICC,2023-07-07T21:00:00Z,34.35,47.17,30.0,1.0,290,8,,6.21,29.822834,,,,,,,,,,,CAVOK,,,,,,,,VFR,,,,,,,,,,,,METAR,1310.0
OIBP 072100Z 00000KT CAVOK 30/24 Q0996 A2942,OIBP,2023-07-07T21:00:00Z,27.38,52.73,30.0,24.0,0,0,,6.21,29.409449,,,,,,,,,,,CAVOK,,,,,,,,VFR,,,,,,,,,,,,METAR,13.0
OIBL 072100Z 00000KT 5000 HZ NSC 34/26 Q0997,OIBL,2023-07-07T21:00:00Z,26.53,54.82,34.0,26.0,0,0,,3.11,29.438976,,,,,,,,,,HZ,CLR,,,,,,,,MVFR,,,,,,,,,,,,METAR,25.0
OEYN 072100Z 25010KT CAVOK 32/17 Q1002 NOSIG,OEYN,2023-07-07T21:00:00Z,24.13,38.07,32.0,17.0,250,10,,6.21,29.586615,,,,,,TRUE,,,,,CAVOK,,,,,,,,VFR,,,,,,,,,,,,METAR,20.0
OEWJ 072100Z 26005KT CAVOK 28/23 Q1005 NOSIG,OEWJ,2023-07-07T21:00:00Z,26.18,36.47,28.0,23.0,260,5,,6.21,29.675198,,,,,,TRUE,,,,,CAVOK,,,,,,,,VFR,,,,,,,,,,,,METAR,8.0
OEWD 072100Z 15004KT CAVOK 34/M06 Q1004,OEWD,2023-07-07T21:00:00Z,20.5,45.2,34.0,-6.0,150,4,,6.21,29.64567,,,,,,,,,,,CAVOK,,,,,,,,VFR,,,,,,,,,,,,METAR,629.0
OETR 072100Z 28012KT CAVOK 26/12 Q1010 NOSIG,OETR,2023-07-07T21:00:00Z,31.7,38.73,26.0,12.0,280,12,,6.21,29.822834,,,,,,TRUE,,,,,CAVOK,,,,,,,,VFR,,,,,,,,,,,,METAR,854.0
OETF 072100Z 31015KT CAVOK 29/M01 Q1017 NOSIG,OETF,2023-07-07T21:00:00Z,21.47,40.53,29.0,-1.0,310,15,,6.21,30.029528,,,,,,TRUE,,,,,CAVOK,,,,,,,,VFR,,,,,,,,,,,,METAR,1460.0
OETB 072100Z 36014KT CAVOK 30/06 Q1009 NOSIG,OETB,2023-07-07T21:00:00Z,28.37,36.62,30.0,6.0,360,14,,6.21,29.793306,,,,,,TRUE,,,,,CAVOK,,,,,,,,VFR,,,,,,,,,,,,METAR,770.0
OESK 072100Z 30005KT CAVOK 30/00 Q1009 NOSIG,OESK,2023-07-07T21:00:00Z,29.78,40.1,30.0,0.0,300,5,,6.21,29.793306,,,,,,TRUE,,,,,CAVOK,,,,,,,,VFR,,,,,,,,,,,,METAR,671.0
OESH 072100Z 00000KT CAVOK 33/00 Q1006 NOSIG,OESH,2023-07-07T21:00:00Z,17.47,47.12,33.0,0.0,0,0,,6.21,29.704725,,,,,,TRUE,,,,,CAVOK,,,,,,,,VFR,,,,,,,,,,,,METAR,720.0
OERR 072100Z 32013KT CAVOK 34/M02 Q1005 NOSIG,OERR,2023-07-07T21:00:00Z,30.9,41.13,34.0,-2.0,320,13,,6.21,29.675198,,,,,,TRUE,,,,,CAVOK,,,,,,,,VFR,,,,,,,,,,,,METAR,554.0
OERF 072100Z 00000KT CAVOK 32/M02 Q1004 NOSIG,OERF,2023-07-07T21:00:00Z,29.62,43.48,32.0,-2.0,0,0,,6.21,29.64567,,,,,,TRUE,,,,,CAVOK,,,,,,,,VFR,,,,,,,,,,,,METAR,441.0
OEPA 072100Z 32004KT CAVOK 35/02 Q1002 NOSIG,OEPA,2023-07-07T21:00:00Z,28.33,46.12,35.0,2.0,320,4,,6.21,29.586615,,,,,,TRUE,,,,,CAVOK,,,,,,,,VFR,,,,,,,,,,,,METAR,361.0
OENG 072100Z 34004KT CAVOK 32/M06 Q1012 NOSIG,OENG,2023-07-07T21:00:00Z,17.62,44.42,32.0,-6.0,340,4,,6.21,29.88189,,,,,,TRUE,,,,,CAVOK,,,,,,,,VFR,,,,,,,,,,,,METAR,1210.0
OEMN 072100Z 00000KT CAVOK 33/14 Q1007,OEMN,2023-07-07T21:00:00Z,,,33.0,14.0,0,0,,6.21,29.734253,,,,,,,,,,,CAVOK,,,,,,,,VFR,,,,,,,,,,,,METAR,
OEKM 072100Z 12006KT CAVOK 24/08 Q1022 NOSIG,OEKM,2023-07-07T21:00:00Z,18.3,42.78,24.0,8.0,120,6,,6.21,30.177166,,,,,,TRUE,,,,,CAVOK,,,,,,,,VFR,,,,,,,,,,,,METAR,2038.0
OEKJ 072100Z 03002KT CAVOK 32/M05 Q1006,OEKJ,2023-07-07T21:00:00Z,24.07,47.58,32.0,-5.0,30,2,,6.21,29.704725,,,,,,,,,,,CAVOK,,,,,,,,VFR,,,,,,,,,,,,METAR,487.0
OEHL 072100Z 27006KT CAVOK 32/02 Q1010,OEHL,2023-07-07T21:00:00Z,27.43,41.68,32.0,2.0,270,6,,6.21,29.822834,,,,,,,,,,,CAVOK,,,,,,,,VFR,,,,,,,,,,,,METAR,1002.0
OEGT 072100Z 30010KT CAVOK 25/14 Q1008 NOSIG,OEGT,2023-07-07T21:00:00Z,31.42,37.27,25.0,14.0,300,10,,6.21,29.763779,,,,,,TRUE,,,,,CAVOK,,,,,,,,VFR,,,,,,,,,,,,METAR,512.0
OEGS 072100Z 09006KT CAVOK 33/00 Q1004,OEGS,2023-07-07T21:00:00Z,26.3,43.77,33.0,0.0,90,6,,6.21,29.64567,,,,,,,,,,,CAVOK,,,,,,,,VFR,,,,,,,,,,,,METAR,647.0
OEGN 072100Z 29004KT 9999 FEW030 34/26 Q1004 NOSIG,OEGN,2023-07-07T21:00:00Z,16.9,42.58,34.0,26.0,290,4,,6.21,29.64567,,,,,,TRUE,,,,,FEW,3000,,,,,,,VFR,,,,,,,,,,,,METAR,5.0
OEDM 072100Z 07010KT CAVOK 30/M05 Q1008,OEDM,2023-07-07T21:00:00Z,24.45,44.12,30.0,-5.0,70,10,,6.21,29.763779,,,,,,,,,,,CAVOK,,,,,,,,VFR,,,,,,,,,,,,METAR,922.0
OEBH 072100Z 24004KT CAVOK 32/16 Q1011 NOSIG,OEBH,2023-07-07T21:00:00Z,19.98,42.62,32.0,16.0,240,4,,6.21,29.852362,,,,,,TRUE,,,,,CAVOK,,,,,,,,VFR,,,,,,,,,,,,METAR,1167.0
OEBA 072100Z 25004KT 9999 FEW025CB SCT030 29/11 Q1018 NOSIG,OEBA,2023-07-07T21:00:00Z,20.3,41.63,29.0,11.0,250,4,,6.21,30.059055,,,,,,TRUE,,,,,FEW,2500,SCT,3000,,,,,VFR,,,,,,,,,,,,METAR,1659.0
OEAO 072100Z 22002KT CAVOK 34/05 Q1008 NOSIG,OEAO,2023-07-07T21:00:00Z,26.48,38.12,34.0,5.0,220,2,,6.21,29.763779,,,,,,TRUE,,,,,CAVOK,,,,,,,,VFR,,,,,,,,,,,,METAR,615.0
OEAH 072100Z 23006KT CAVOK 34/01 Q0999 NOSIG,OEAH,2023-07-07T21:00:00Z,25.28,49.48,34.0,1.0,230,6,,6.21,29.498032,,,,,,TRUE,,,,,CAVOK,,,,,,,,VFR,,,,,,,,,,,,METAR,180.0
NVVA 072100Z 00000KT 9999 BKN020 22/21 Q1016,NVVA,2023-07-07T21:00:00Z,-20.25,169.77,22.0,21.0,0,0,,6.21,30.0,,,,,,,,,,,BKN,2000,,,,,,,MVFR,,,,,,,,,,,,METAR,7.0
NVSG 072100Z 13007KT 9999 FEW020 SCT040 27/23 Q1014,NVSG,2023-07-07T21:00:00Z,-15.3,167.97,27.0,23.0,130,7,,6.21,29.940945,,,,,,,,,,,FEW,2000,SCT,4000,,,,,VFR,,,,,,,,,,,,METAR,31.0
NVSC 072100Z 12008KT 9999 BKN018 OVC040 27/24 Q1013,NVSC,2023-07-07T21:00:00Z,-13.85,167.55,27.0,24.0,120,8,,6.21,29.911417,,,,,,,,,,,BKN,1800,OVC,4000,,,,,MVFR,,,,,,,,,,,,METAR,11.0
MNRS 072100Z 00000KT 9999 FEW015CB BKN200 30/25 Q1009 CB/N/NE/E/SE,MNRS,2023-07-07T21:00:00Z,11.42,-85.82,30.0,25.0,0,0,,6.21,29.793306,,,,,,,,,,,FEW,1500,BKN,20000,,,,,VFR,,,,,,,,,,,,METAR,53.0
MNPC 072100Z 07004KT 6000 VCRA FEW014CB BKN016TCU 28/26 Q1009 2AC100 CBRA/E/SE TCURA/N/W/SW/W/NW,MNPC,2023-07-07T21:00:00Z,14.05,-83.38,28.0,26.0,70,4,,3.73,29.793306,,,,,,,,,,VCRA RA RA,FEW,1400,BKN,1600,,,,,MVFR,,,,,,,,,,,,METAR,10.0
MNJU 072100Z 09004KT 9999 SCT020 33/23 Q1008 2AC080 2CI300,MNJU,2023-07-07T21:00:00Z,12.08,-85.37,33.0,23.0,90,4,,6.21,29.763779,,,,,,,,,,,SCT,2000,,,,,,,VFR,,,,,,,,,,,,METAR,85.0
MNJG 072100Z 32004KT 9999 BKN012 25/18 Q1010,MNJG,2023-07-07T21:00:00Z,13.13,-86.02,25.0,18.0,320,4,,6.21,29.822834,,,,,,,,,,,BKN,1200,,,,,,,MVFR,,,,,,,,,,,,METAR,981.0
MNCH 072100Z 18006KT 5000 TSRA FEW024CB SCT025 27/27 Q1008 4AC090 CB/NE/E/SE TCU/N/NW,MNCH,2023-07-07T21:00:00Z,12.63,-87.13,27.0,27.0,180,6,,3.11,29.763779,,,,,,,,,,TSRA,FEW,2400,SCT,2500,,,,,MVFR,,,,,,,,,,,,METAR,70.0
MNBL 072100Z 12008KT 8000 SCT016CB SCT070 29/27 Q1010 CBRA/N/SW/W/NW,MNBL,2023-07-07T21:00:00Z,12.0,-83.77,29.0,27.0,120,8,,4.97,29.822834,,,,,,,,,,RA,SCT,1600,SCT,7000,,,,,MVFR,,,,,,,,,,,,METAR,10.0
MDAB 072100Z 09006KT 9999 FEW020 31/25 Q1014,MDAB,2023-07-07T21:00:00Z,19.2,-69.43,31.0,25.0,90,6,,6.21,29.940945,,,,,,,,,,,FEW,2000,,,,,,,VFR,,,,,,,,,,,,METAR,28.0
LPMT 072100Z 25009KT CAVOK 20/18 Q1017,LPMT,2023-07-07T21:00:00Z,38.7,-9.05,20.0,18.0,250,9,,6.21,30.029528,,,,,,,,,,,CAVOK,,,,,,,,VFR,,,,,,,,,,,,METAR,4.0
LPMR 072100Z 23005KT 9999 FEW018 20/18 Q1017,LPMR,2023-07-07T21:00:00Z,39.82,-8.88,20.0,18.0,230,5,,6.21,30.029528,,,,,,,,,,,FEW,1800,,,,,,,VFR,,,,,,,,,,,,METAR,50.0
LFRO 072100Z AUTO 16003KT CAVOK 22/16 Q1010,LFRO,2023-07-07T21:00:00Z,48.75,-3.47,22.0,16.0,160,3,,6.21,29.822834,,,TRUE,,,,,,,,CAVOK,,,,,,,,VFR,,,,,,,,,,,,METAR,86.0
LEAO 072100Z 22004KT 160V260 CAVOK 28/07 Q1016,LEAO,2023-07-07T21:00:00Z,38.95,-3.73,28.0,7.0,220,4,,6.21,30.0,,,,,,,,,,,CAVOK,,,,,,,,VFR,,,,,,,,,,,,METAR,621.0
LBPL 072100Z 28008KT 9999 FEW100 24/17 Q1014,LBPL,2023-07-07T21:00:00Z,43.45,24.5,24.0,17.0,280,8,,6.21,29.940945,,,,,,,,,,,FEW,10000,,,,,,,VFR,,,,,,,,,,,,METAR,93.0
HTZA 072100Z 13010KT 9999 SCT015 25/22 Q1019 NOSIG,HTZA,2023-07-07T21:00:00Z,-6.22,39.22,25.0,22.0,130,10,,6.21,30.088583,,,,,,TRUE,,,,,SCT,1500,,,,,,,VFR,,,,,,,,,,,,METAR,19.0
HTTB 072100Z 12008KT 9999 FEW018 18/09 Q1023 NOSIG,HTTB,2023-07-07T21:00:00Z,-5.07,32.82,18.0,9.0,120,8,,6.21,30.206694,,,,,,TRUE,,,,,FEW,1800,,,,,,,VFR,,,,,,,,,,,,METAR,1185.0
HTSO 072100Z 00000KT 9999 SCT017 18/11 Q1026,HTSO,2023-07-07T21:00:00Z,-10.67,35.58,18.0,11.0,0,0,,6.21,30.295275,,,,,,,,,,,SCT,1700,,,,,,,VFR,,,,,,,,,,,,METAR,1058.0
HTMW 072100Z 12008KT 9999 FEW018 FEW019CB 20/11 Q1021 NOSIG,HTMW,2023-07-07T21:00:00Z,-2.43,32.92,20.0,11.0,120,8,,6.21,30.147638,,,,,,TRUE,,,,,FEW,1800,FEW,1900,,,,,VFR,,,,,,,,,,,,METAR,1144.0
HTMU 072100Z 00000KT 9999 FEW020 FEW022CB BKN080 20/14 Q1022,HTMU,2023-07-07T21:00:00Z,-1.5,33.8,20.0,14.0,0,0,,6.21,30.177166,,,,,,,,,,,FEW,2000,FEW,2200,BKN,8000,,,VFR,,,,,,,,,,,,METAR,1154.0
HTMT 072100Z 18012KT 9999 FEW020 21/19 Q1021 NOSIG,HTMT,2023-07-07T21:00:00Z,-10.33,40.18,21.0,19.0,180,12,,6.21,30.147638,,,,,,TRUE,,,,,FEW,2000,,,,,,,VFR,,,,,,,,,,,,METAR,114.0
HTMG 072100Z 00000KT 9999 BKN021 22/13 Q1021,HTMG,2023-07-07T21:00:00Z,-6.78,37.65,22.0,13.0,0,0,,6.21,30.147638,,,,,,,,,,,BKN,2100,,,,,,,MVFR,,,,,,,,,,,,METAR,512.0
HTKA 072100Z 00000KT CAVOK 19/14 Q1019 NOSIG,HTKA,2023-07-07T21:00:00Z,-4.88,29.67,19.0,14.0,0,0,,6.21,30.088583,,,,,,TRUE,,,,,CAVOK,,,,,,,,VFR,,,,,,,,,,,,METAR,819.0
HTIR 072100Z 17005KT 9999 FEW018 15/09 Q1026,HTIR,2023-07-07T21:00:00Z,-7.67,35.75,15.0,9.0,170,5,,6.21,30.295275,,,,,,,,,,,FEW,1800,,,,,,,VFR,,,,,,,,,,,,METAR,1432.0
HTIB 072100Z 12009KT 9999 FEW021 FEW022CB BKN080 21/10 Q1020,HTIB,2023-07-07T21:00:00Z,,,21.0,10.0,120,9,,6.21,30.11811,,,,,,,,,,,FEW,2100,FEW,2200,BKN,8000,,,VFR,,,,,,,,,,,,METAR,
HTDO 072100Z 05007KT 9999 FEW021 SCT080 18/10 Q1023 NOSIG,HTDO,2023-07-07T21:00:00Z,-6.17,35.77,18.0,10.0,50,7,,6.21,30.206694,,,,,,TRUE,,,,,FEW,2100,SCT,8000,,,,,VFR,,,,,,,,,,,,METAR,1119.0
HTDA 072100Z 16006KT 9999 FEW012 22/20 Q1020 NOSIG,HTDA,2023-07-07T21:00:00Z,-6.88,39.2,22.0,20.0,160,6,,6.21,30.11811,,,,,,TRUE,,,,,FEW,1200,,,,,,,VFR,,,,,,,,,,,,METAR,53.0
HTBU 072100Z 00000KT 9999 FEW018 FEW020CB BKN080 21/16 Q1020,HTBU,2023-07-07T21:00:00Z,-1.32,31.82,21.0,16.0,0,0,,6.21,30.11811,,,,,,,,,,,FEW,1800,FEW,2000,BKN,8000,,,VFR,,,,,,,,,,,,METAR,1144.0
HTAR 072100Z 12010KT 9999 SCT024 14/11 Q1027 NOSIG,HTAR,2023-07-07T21:00:00Z,-3.37,36.63,14.0,11.0,120,10,,6.21,30.324802,,,,,,TRUE,,,,,SCT,2400,,,,,,,VFR,,,,,,,,,,,,METAR,1386.0
HKNW 072100Z 12006KT 9999 BKN018 BKN080 16/10 Q1027,HKNW,2023-07-07T21:00:00Z,-1.32,36.82,16.0,10.0,120,6,,6.21,30.324802,,,,,,,,,,,BKN,1800,BKN,8000,,,,,MVFR,,,,,,,,,,,,METAR,1666.0
HKNI 072100Z 00000KT 9999 BKN018 14/12,HKNI,2023-07-07T21:00:00Z,-0.33,36.92,14.0,12.0,0,0,,6.21,,,,,,,,,,,,BKN,1800,,,,,,,MVFR,,,,,,,,,,,,METAR,1769.0
HKLO 072100Z 00000KT CAVOK 28/13 Q1014,HKLO,2023-07-07T21:00:00Z,3.12,35.62,28.0,13.0,0,0,,6.21,29.940945,,,,,,,,,,,CAVOK,,,,,,,,VFR,,,,,,,,,,,,METAR,503.0
HKKT 072100Z 00000KT 9999 -RA FEW017 BKN080 16/14,HKKT,2023-07-07T21:00:00Z,0.97,34.97,16.0,14.0,0,0,,6.21,,,,,,,,,,,-RA,FEW,1700,BKN,8000,,,,,VFR,,,,,,,,,,,,METAR,1829.0
HKGO 072100Z AUTO 11005KT 14/11 Q1030 A30.41,HKGO,2023-07-07T21:00:00Z,,,14.0,11.0,110,5,,,30.413385,,,TRUE,,,,,,,,,,,,,,,,,,,,,,,,,,,,METAR,
HESW 072100Z 01011KT CAVOK 28/18 Q1013,HESW,2023-07-07T21:00:00Z,29.35,25.5,28.0,18.0,10,11,,6.21,29.911417,,,,,,,,,,,CAVOK,,,,,,,,VFR,,,,,,,,,,,,METAR,101.0
HESN 072100Z 33004KT CAVOK 33/07 Q1008 NOSIG,HESN,2023-07-07T21:00:00Z,23.97,32.82,33.0,7.0,330,4,,6.21,29.763779,,,,,,TRUE,,,,,CAVOK,,,,,,,,VFR,,,,,,,,,,,,METAR,197.0
HESH 072100Z 35010KT CAVOK 33/15 Q1004 NOSIG,HESH,2023-07-07T21:00:00Z,27.97,34.38,33.0,15.0,350,10,,6.21,29.64567,,,,,,TRUE,,,,,CAVOK,,,,,,,,VFR,,,,,,,,,,,,METAR,50.0
HESG 072100Z 30007KT CAVOK 30/11 Q1006 NOSIG,HESG,2023-07-07T21:00:00Z,26.33,31.75,30.0,11.0,300,7,,6.21,29.704725,,,,,,TRUE,,,,,CAVOK,,,,,,,,VFR,,,,,,,,,,,,METAR,70.0
HERT 072100Z 31018KT CAVOK 30/19 Q1004,HERT,2023-07-07T21:00:00Z,,,30.0,19.0,310,18,,6.21,29.64567,,,,,,,,,,,CAVOK,,,,,,,,VFR,,,,,,,,,,,,METAR,
HEPS 072100Z 30010KT 9999 SCT030 26/23 Q1009 NOSIG,HEPS,2023-07-07T21:00:00Z,31.28,32.25,26.0,23.0,300,10,,6.21,29.793306,,,,,,TRUE,,,,,SCT,3000,,,,,,,VFR,,,,,,,,,,,,METAR,2.0
HEMM 072100Z 27011KT 9999 SCT020 25/23 Q1012 NOSIG,HEMM,2023-07-07T21:00:00Z,31.32,27.22,25.0,23.0,270,11,,6.21,29.88189,,,,,,TRUE,,,,,SCT,2000,,,,,,,VFR,,,,,,,,,,,,METAR,26.0
HEMA 072100Z 30008KT CAVOK 30/05 Q1006 NOSIG,HEMA,2023-07-07T21:00:00Z,25.55,34.58,30.0,5.0,300,8,,6.21,29.704725,,,,,,TRUE,,,,,CAVOK,,,,,,,,VFR,,,,,,,,,,,,METAR,77.0
HELX 072100Z 27004KT CAVOK 31/11 Q1007 NOSIG,HELX,2023-07-07T21:00:00Z,25.67,32.7,31.0,11.0,270,4,,6.21,29.734253,,,,,,TRUE,,,,,CAVOK,,,,,,,,VFR,,,,,,,,,,,,METAR,86.0
HEGN 072100Z 29010KT CAVOK 32/11 Q1005 NOSIG,HEGN,2023-07-07T21:00:00Z,27.18,33.8,32.0,11.0,290,10,,6.21,29.675198,,,,,,TRUE,,,,,CAVOK,,,,,,,,VFR,,,,,,,,,,,,METAR,14.0
HEBA 072100Z 30008KT CAVOK 25/22 Q1010 NOSIG,HEBA,2023-07-07T21:00:00Z,30.92,29.7,25.0,22.0,300,8,,6.21,29.822834,,,,,,TRUE,,,,,CAVOK,,,,,,,,VFR,,,,,,,,,,,,METAR,41.0
HEAT 072100Z 35006KT CAVOK 29/14 Q1010 NOSIG,HEAT,2023-07-07T21:00:00Z,27.05,31.02,29.0,14.0,350,6,,6.21,29.822834,,,,,,TRUE,,,,,CAVOK,,,,,,,,VFR,,,,,,,,,,,,METAR,229.0
HAAB 072100Z 04003KT 9999 BKN025 14/14 Q1028 NOSIG,HAAB,2023-07-07T21:00:00Z,8.97,38.78,14.0,14.0,40,3,,6.21,30.35433,,,,,,TRUE,,,,,BKN,2500,,,,,,,MVFR,,,,,,,,,,,,METAR,2319.0
GUCY 072100Z 33006KT 9999 BKN015 BKN110 26/23 Q1015 NOSIG,GUCY,2023-07-07T21:00:00Z,9.57,-13.62,26.0,23.0,330,6,,6.21,29.970472,,,,,,TRUE,,,,,BKN,1500,BKN,11000,,,,,MVFR,,,,,,,,,,,,METAR,10.0
GQPP 072100Z 36017KT 7000 NSC 23/18 Q1013 NOSIG,GQPP,2023-07-07T21:00:00Z,20.92,-17.02,23.0,18.0,360,17,,4.35,29.911417,,,,,,TRUE,,,,,CLR,,,,,,,,MVFR,,,,,,,,,,,,METAR,5.0
GOTT 072100Z 22006KT 9999 TS SCT026CB 32/24 Q1013,GOTT,2023-07-07T21:00:00Z,13.73,-13.65,32.0,24.0,220,6,,6.21,29.911417,,,,,,,,,,TS,SCT,2600,,,,,,,VFR,,,,,,,,,,,,METAR,53.0
GOTK 072100Z 10008KT 9999 TS FEW013 SCT030CB 29/23 Q1015,GOTK,2023-07-07T21:00:00Z,12.57,-12.22,29.0,23.0,100,8,,6.21,29.970472,,,,,,,,,,TS,FEW,1300,SCT,3000,,,,,VFR,,,,,,,,,,,,METAR,165.0
GOSS 072100Z 30008KT 250V350 9999 CAVOK 29/26 Q1014,GOSS,2023-07-07T21:00:00Z,16.05,-16.45,29.0,26.0,300,8,,6.21,29.940945,,,,,,,,,,,CAVOK,,,,,,,,VFR,,,,,,,,,,,,METAR,3.0
GOSP 072100Z 28004KT CAVOK 35/23 Q1012,GOSP,2023-07-07T21:00:00Z,16.68,-14.97,35.0,23.0,280,4,,6.21,29.88189,,,,,,,,,,,CAVOK,,,,,,,,VFR,,,,,,,,,,,,METAR,10.0
GOSM 072100Z 22012KT 9999 SCT030CB 30/22 Q1013,GOSM,2023-07-07T21:00:00Z,15.6,-13.33,30.0,22.0,220,12,,6.21,29.911417,,,,,,,,,,,SCT,3000,,,,,,,VFR,,,,,,,,,,,,METAR,28.0
GOOY 072100Z 24004KT 9999 FEW030CB 30/24 Q1014,GOOY,2023-07-07T21:00:00Z,14.73,-17.5,30.0,24.0,240,4,,6.21,29.940945,,,,,,,,,,,FEW,3000,,,,,,,VFR,,,,,,,,,,,,METAR,21.0
GOOK 072100Z 22008KT CAVOK 32/24 Q1014,GOOK,2023-07-07T21:00:00Z,14.15,-16.07,32.0,24.0,220,8,,6.21,29.940945,,,,,,,,,,,CAVOK,,,,,,,,VFR,,,,,,,,,,,,METAR,8.0
GOOG 072100Z 22004KT CAVOK 35/22 Q1010,GOOG,2023-07-07T21:00:00Z,15.4,-15.08,35.0,22.0,220,4,,6.21,29.822834,,,,,,,,,,,CAVOK,,,,,,,,VFR,,,,,,,,,,,,METAR,38.0
GOOD 072100Z 24008KT 9999 SCT013 SCT015TCU 32/23 Q1014,GOOD,2023-07-07T21:00:00Z,14.65,-16.22,32.0,23.0,240,8,,6.21,29.940945,,,,,,,,,,,SCT,1300,SCT,1500,,,,,VFR,,,,,,,,,,,,METAR,9.0
GOGS 072100Z 18006KT 9999 SCT013 28/24 Q1014,GOGS,2023-07-07T21:00:00Z,12.4,-16.75,28.0,24.0,180,6,,6.21,29.940945,,,,,,,,,,,SCT,1300,,,,,,,VFR,,,,,,,,,,,,METAR,13.0
GOGK 072100Z 22004KT CAVOK 29/24 Q1013,GOGK,2023-07-07T21:00:00Z,12.9,-14.97,29.0,24.0,220,4,,6.21,29.911417,,,,,,,,,,,CAVOK,,,,,,,,VFR,,,,,,,,,,,,METAR,37.0
GOGG 072100Z 19008KT CAVOK 26/24 Q1015,GOGG,2023-07-07T21:00:00Z,12.55,-16.27,26.0,24.0,190,8,,6.21,29.970472,,,,,,,,,,,CAVOK,,,,,,,,VFR,,,,,,,,,,,,METAR,24.0
GMMH 072100Z 01015KT 6000 NSC 22/18 Q1017 NOSIG,GMMH,2023-07-07T21:00:00Z,23.72,-15.93,22.0,18.0,10,15,,3.73,30.029528,,,,,,TRUE,,,,,CLR,,,,,,,,MVFR,,,,,,,,,,,,METAR,11.0
GLRB 072100Z 00000KT 9999 BKN014 FEW024CB 26/25 Q1015 NOSIG RMK CB-NE,GLRB,2023-07-07T21:00:00Z,6.25,-10.35,26.0,25.0,0,0,,6.21,29.970472,,,,,,TRUE,,,,,BKN,1400,FEW,2400,,,,,MVFR,,,,,,,,,,,,SPECI,12.0
GGOV 072100Z 18005KT 8000 FEW010 26/23 Q1014 NOSIG,GGOV,2023-07-07T21:00:00Z,11.88,-15.65,26.0,23.0,180,5,,4.97,29.940945,,,,,,TRUE,,,,,FEW,1000,,,,,,,MVFR,,,,,,,,,,,,METAR,31.0
GANR 072100Z 24004KT CAVOK 27/22 Q1014,GANR,2023-07-07T21:00:00Z,15.23,-9.58,27.0,22.0,240,4,,6.21,29.940945,,,,,,,,,,,CAVOK,,,,,,,,VFR,,,,,,,,,,,,METAR,237.0
GAMB 072100Z 27003KT CAVOK 35/23 Q1010,GAMB,2023-07-07T21:00:00Z,14.52,-4.08,35.0,23.0,270,3,,6.21,29.822834,,,,,,,,,,,CAVOK,,,,,,,,VFR,,,,,,,,,,,,METAR,271.0
GAKD 072100Z 22010KT 9999 TS FEW030 FEW033CB 30/22 Q1014,GAKD,2023-07-07T21:00:00Z,14.48,-11.4,30.0,22.0,220,10,,6.21,29.940945,,,,,,,,,,TS,FEW,3000,FEW,3300,,,,,VFR,,,,,,,,,,,,METAR,53.0
FYWW 072100Z AUTO 10007KT //// // ////// 11/M03 Q1028,FYWW,2023-07-07T21:00:00Z,-22.57,17.1,11.0,-3.0,100,7,,,30.35433,,,TRUE,,,,,,,,,,,,,,,,,,,,,,,,,,,,METAR,1672.0
FYWB 072100Z AUTO 02003KT //// // ////// 13/11 Q1020,FYWB,2023-07-07T21:00:00Z,-22.98,14.65,13.0,11.0,20,3,,,30.11811,,,TRUE,,,,,,,,,,,,,,,,,,,,,,,,,,,,SPECI,87.0
FYOA 072100Z AUTO 00000KT //// // ////// 15/M00 Q1021,FYOA,2023-07-07T21:00:00Z,-17.88,15.97,15.0,0.0,0,0,,,30.147638,,,TRUE,,,,,,,,,,,,,,,,,,,,,,,,,,,,METAR,1099.0
FYLZ 072100Z AUTO /////KT //// // ////// 14/12 Q1021,FYLZ,2023-07-07T21:00:00Z,-26.68,15.25,14.0,12.0,,,,,30.147638,,,TRUE,,,,,,,,,,,,,,,,,,,,,,,,,,,,METAR,129.0
FYKT 072100Z AUTO 28007KT //// // ////// 18/M02 Q1023,FYKT,2023-07-07T21:00:00Z,-26.53,18.12,18.0,-2.0,280,7,,,30.206694,,,TRUE,,,,,,,,,,,,,,,,,,,,,,,,,,,,METAR,1064.0
FYKM 072100Z AUTO 10003KT //// // ////// 15/05 Q1024,FYKM,2023-07-07T21:00:00Z,-17.63,24.18,15.0,5.0,100,3,,,30.236221,,,TRUE,,,,,,,,,,,,,,,,,,,,,,,,,,,,METAR,959.0
FYGF 072100Z AUTO 35001KT //// // ////// 08/M00 Q1028,FYGF,2023-07-07T21:00:00Z,-19.6,18.12,8.0,0.0,350,1,,,30.35433,,,TRUE,,,,,,,,,,,,,,,,,,,,,,,,,,,,METAR,1407.0
FTTJ 072100Z 14007KT 110V170 8000 -RA SCT026 25/20 Q1012 RETS NOSIG,FTTJ,2023-07-07T21:00:00Z,12.13,15.03,25.0,20.0,140,7,,4.97,29.88189,,,,,,TRUE,,,,-RA,SCT,2600,,,,,,,MVFR,,,,,,,,,,,,METAR,295.0
FTTA 072100Z 19005KT 9999 TS FEW050CB 26/25 Q1015,FTTA,2023-07-07T21:00:00Z,9.15,18.37,26.0,25.0,190,5,,6.21,29.970472,,,,,,,,,,TS,FEW,5000,,,,,,,VFR,,,,,,,,,,,,METAR,361.0
FQNP 072100Z 21007KT 9999 BKN020 19/18 Q1024,FQNP,2023-07-07T21:00:00Z,-15.1,39.27,19.0,18.0,210,7,,6.21,30.236221,,,,,,,,,,,BKN,2000,,,,,,,MVFR,,,,,,,,,,,,METAR,434.0
FOOL 072100Z 20006KT 170V230 9999 FEW012 26/21 Q1015 NOSIG,FOOL,2023-07-07T21:00:00Z,0.45,9.42,26.0,21.0,200,6,,6.21,29.970472,,,,,,TRUE,,,,,FEW,1200,,,,,,,VFR,,,,,,,,,,,,METAR,9.0
FOOG 072100Z 18010KT 8000 FEW010 23/21 Q1015,FOOG,2023-07-07T21:00:00Z,-0.7,8.75,23.0,21.0,180,10,,4.97,29.970472,,,,,,,,,,,FEW,1000,,,,,,,MVFR,,,,,,,,,,,,METAR,4.0
FNUE 072100Z AUTO 15006KT 120V180 9999 NCD 18/06 Q1026,FNUE,2023-07-07T21:00:00Z,-11.77,19.9,18.0,6.0,150,6,,6.21,30.295275,,,TRUE,,,,,,,,CLR,,,,,,,,VFR,,,,,,,,,,,,METAR,1354.0
FNUB 072100Z AUTO 19007KT 9999 ////// 16/01 Q1028,FNUB,2023-07-07T21:00:00Z,-14.93,13.57,16.0,1.0,190,7,,6.21,30.35433,,,TRUE,,,,,,,,,,,,,,,,,,,,,,,,,,,,METAR,1749.0
FNHU 072100Z AUTO 12005KT 9999 // NCD 15/04 Q1026,FNHU,2023-07-07T21:00:00Z,-12.82,15.77,15.0,4.0,120,5,,6.21,30.295275,,,TRUE,,,,,,,,CLR,,,,,,,,VFR,,,,,,,,,,,,METAR,1697.0
FNGI 072100Z AUTO VRB02KT 9999 // ////// 14/02 Q1024,FNGI,2023-07-07T21:00:00Z,-17.05,15.68,14.0,2.0,0,2,,6.21,30.236221,,,TRUE,,,,,,,,,,,,,,,,,,,,,,,,,,,,METAR,1116.0
FNCT 072100Z AUTO 26007KT //// ////// ///// Q////,FNCT,2023-07-07T21:00:00Z,-12.48,13.48,,,260,7,,,,,,TRUE,,,,,,,,,,,,,,,,,,,,,,,,,,,,METAR,6.0
FNCA 072100Z AUTO 19004KT 9000 OVC037 22/21 Q1016,FNCA,2023-07-07T21:00:00Z,-5.58,12.18,22.0,21.0,190,4,,5.59,30.0,,,TRUE,,,,,,,,OVC,3700,,,,,,,VFR,,,,,,,,,,,,METAR,14.0
FMSD 072100Z 10006KT 9999 FEW016 SCT033 19/18 Q1027,FMSD,2023-07-07T21:00:00Z,-25.03,46.95,19.0,18.0,100,6,,6.21,30.324802,,,,,,,,,,,FEW,1600,SCT,3300,,,,,VFR,,,,,,,,,,,,METAR,7.0
FMNM 072100Z 14007KT 9999 FEW040 21/11 Q1022,FMNM,2023-07-07T21:00:00Z,-15.67,46.35,21.0,11.0,140,7,,6.21,30.177166,,,,,,,,,,,FEW,4000,,,,,,,VFR,,,,,,,,,,,,METAR,18.0
FMCH 072100Z 19004KT 140V220 9999 FEW020 24/20 Q1019 NOSIG,FMCH,2023-07-07T21:00:00Z,-11.53,43.27,24.0,20.0,190,4,,6.21,30.088583,,,,,,TRUE,,,,,FEW,2000,,,,,,,VFR,,,,,,,,,,,,METAR,30.0
FKYS 072100Z 28002KT 9999 SCT010 23/23 Q1019 NOSIG,FKYS,2023-07-07T21:00:00Z,3.82,11.52,23.0,23.0,280,2,,6.21,30.088583,,,,,,TRUE,,,,,SCT,1000,,,,,,,VFR,,,,,,,,,,,,METAR,694.0
FKKD 072100Z VRB03KT 9999 SCT013 FEW016CB 26/25 Q1014 BECMG BKN013 FEW016CB,FKKD,2023-07-07T21:00:00Z,4.0,9.72,26.0,25.0,0,3,,6.21,29.940945,,,,,,,,,,,SCT,1300,FEW,1600,,,,,VFR,,,,,,,,,,,,METAR,10.0
FEFF 072100Z 32004KT 8000 FEW010 22/21 Q1014 NOSIG,FEFF,2023-07-07T21:00:00Z,4.4,18.52,22.0,21.0,320,4,,4.97,29.940945,,,,,,TRUE,,,,,FEW,1000,,,,,,,MVFR,,,,,,,,,,,,METAR,364.0
FCPP 072100Z 19004KT 150V220 6000 FEW010 OVC023 23/21 Q1016 NOSIG,FCPP,2023-07-07T21:00:00Z,-4.82,11.9,23.0,21.0,190,4,,3.73,30.0,,,,,,TRUE,,,,,FEW,1000,OVC,2300,,,,,MVFR,,,,,,,,,,,,METAR,18.0
FCBB 072100Z 23007KT 8000 NSC 23/20 Q1016 NOSIG,FCBB,2023-07-07T21:00:00Z,-4.25,15.25,23.0,20.0,230,7,,4.97,30.0,,,,,,TRUE,,,,,CLR,,,,,,,,MVFR,,,,,,,,,,,,METAR,316.0
FAPN 072100Z AUTO 24001KT //// // ////// 06/01 Q1027,FAPN,2023-07-07T21:00:00Z,-25.33,27.17,6.0,1.0,240,1,,,30.324802,,,TRUE,,,,,,,,,,,,,,,,,,,,,,,,,,,,METAR,1045.0
FAPE 072100Z 23008KT 9999 FEW017 15/13 Q1013 NOSIG,FAPE,2023-07-07T21:00:00Z,-33.98,25.6,15.0,13.0,230,8,,6.21,29.911417,,,,,,TRUE,,,,,FEW,1700,,,,,,,VFR,,,,,,,,,,,,METAR,58.0
FALW 072100Z AUTO 34003KT //// // ////// 12/11 Q1017,FALW,2023-07-07T21:00:00Z,-32.97,18.17,12.0,11.0,340,3,,,30.029528,,,TRUE,,,,,,,,,,,,,,,,,,,,,,,,,,,,SPECI,31.0
FALA 072100Z AUTO 00000KT //// // ////// 09/02 Q1029,FALA,2023-07-07T21:00:00Z,-25.93,27.92,9.0,2.0,0,0,,,30.383858,,,TRUE,,,,,,,,,,,,,,,,,,,,,,,,,,,,SPECI,1365.0
FAGG 072100Z AUTO 34004KT 310V010 9999 // FEW073/// 10/10 Q1014,FAGG,2023-07-07T21:00:00Z,-34.0,22.37,10.0,10.0,340,4,,6.21,29.940945,,,TRUE,,,,,,,,FEW,7300,,,,,,,VFR,,,,,,,,,,,,SPECI,196.0
FABL 072100Z AUTO VRB02KT //// R02///// // ///////// 08/M01 Q1026,FABL,2023-07-07T21:00:00Z,-29.1,26.3,8.0,-1.0,0,2,,,30.295275,,,TRUE,,,,,,,,,,,,,,,,,,,,,,,,,,,,SPECI,1348.0
DXXX 072100Z 21009KT 9999 SCT012 27/24 Q1014 NOSIG,DXXX,2023-07-07T21:00:00Z,6.17,1.25,27.0,24.0,210,9,,6.21,29.940945,,,,,,TRUE,,,,,SCT,1200,,,,,,,VFR,,,,,,,,,,,,METAR,22.0
DXSK 072100Z 00000KT 6000 TSRA FEW020CB BKN120 25/24 Q////,DXSK,2023-07-07T21:00:00Z,9.0,1.15,25.0,24.0,0,0,,3.73,,,,,,,,,,,TSRA,FEW,2000,BKN,12000,,,,,MVFR,,,,,,,,,,,,METAR,381.0
DXNG 072100Z 00000KT 9999 -TSRA BKN006 FEW016CB 22/22 Q1015,DXNG,2023-07-07T21:00:00Z,9.77,1.1,22.0,22.0,0,0,,6.21,29.970472,,,,,,,,,,-TSRA,BKN,600,FEW,1600,,,,,IFR,,,,,,,,,,,,METAR,343.0
DTTZ 072100Z 08008KT CAVOK 40/09 Q1015 NOSIG,DTTZ,2023-07-07T21:00:00Z,33.93,8.1,40.0,9.0,80,8,,6.21,29.970472,,,,,,TRUE,,,,,CAVOK,,,,,,,,VFR,,,,,,,,,,,,METAR,87.0
DTTN 072100Z 25003KT 8000 SCT020 31/20 Q1014,DTTN,2023-07-07T21:00:00Z,36.47,8.8,31.0,20.0,250,3,,4.97,29.940945,,,,,,,,,,,SCT,2000,,,,,,,MVFR,,,,,,,,,,,,METAR,145.0
DTTL 072100Z 15006KT CAVOK 27/23 Q1017,DTTL,2023-07-07T21:00:00Z,36.85,11.07,27.0,23.0,150,6,,6.21,30.029528,,,,,,,,,,,CAVOK,,,,,,,,VFR,,,,,,,,,,,,METAR,18.0
DTTK 072100Z 13005KT 050V180 9999 FEW023 34/10 Q1016,DTTK,2023-07-07T21:00:00Z,35.67,10.08,34.0,10.0,130,5,,6.21,30.0,,,,,,,,,,,FEW,2300,,,,,,,VFR,,,,,,,,,,,,METAR,65.0
DTTD 072100Z AUTO 08003KT 050V120 NCD 35/07 Q1019,DTTD,2023-07-07T21:00:00Z,32.32,10.4,35.0,7.0,80,3,,,30.088583,,,TRUE,,,,,,,,CLR,,,,,,,,,,,,,,,,,,,,METAR,306.0
DTTB 072100Z 09011KT 9999 FEW020 30/22 Q1014,DTTB,2023-07-07T21:00:00Z,37.25,9.8,30.0,22.0,90,11,,6.21,29.940945,,,,,,,,,,,FEW,2000,,,,,,,VFR,,,,,,,,,,,,METAR,4.0
DRRT 072100Z 00000KT 9999 FEW050CB 31/21 Q1011,DRRT,2023-07-07T21:00:00Z,14.87,5.27,31.0,21.0,0,0,,6.21,29.852362,,,,,,,,,,,FEW,5000,,,,,,,VFR,,,,,,,,,,,,METAR,387.0
DRRN 072100Z 20004KT 8000 NSC 35/19 Q1010 NOSIG,DRRN,2023-07-07T21:00:00Z,13.47,2.17,35.0,19.0,200,4,,4.97,29.822834,,,,,,TRUE,,,,,CLR,,,,,,,,MVFR,,,,,,,,,,,,METAR,223.0
DNZA 072100Z 26004KT 9999 TS FEW010 FEW020CB 26/23 Q1017,DNZA,2023-07-07T21:00:00Z,11.12,7.68,26.0,23.0,260,4,,6.21,30.029528,,,,,,,,,,TS,FEW,1000,FEW,2000,,,,,VFR,,,,,,,,,,,,METAR,655.0
DNYO 072100Z 20009KT 9999 DZ SCT009 24/23 Q1014,DNYO,2023-07-07T21:00:00Z,9.27,12.42,24.0,23.0,200,9,,6.21,29.940945,,,,,,,,,,DZ,SCT,900,,,,,,,VFR,,,,,,,,,,,,METAR,178.0
DNPO 072100Z 00000KT 7000 -TSRA BKN007 FEW018CB 25/24 Q1013 NOSIG,DNPO,2023-07-07T21:00:00Z,4.83,7.02,25.0,24.0,0,0,,4.35,29.911417,,,,,,TRUE,,,,-TSRA,BKN,700,FEW,1800,,,,,IFR,,,,,,,,,,,,METAR,17.0
DNMM 072100Z 23005KT 8000 FEW010 26/24 Q1014 NOSIG,DNMM,2023-07-07T21:00:00Z,6.57,3.32,26.0,24.0,230,5,,4.97,29.940945,,,,,,TRUE,,,,,FEW,1000,,,,,,,MVFR,,,,,,,,,,,,METAR,27.0
DNKN 072100Z 24008KT 9999 -TSRA BKN009 FEW018CB 23/21 Q1016 NOSIG,DNKN,2023-07-07T21:00:00Z,12.05,8.52,23.0,21.0,240,8,,6.21,30.0,,,,,,TRUE,,,,-TSRA,BKN,900,FEW,1800,,,,,IFR,,,,,,,,,,,,METAR,471.0
DNIL 072100Z 09003KT 9999 TS SCT009 FEW020CB 23/22 Q1014,DNIL,2023-07-07T21:00:00Z,8.43,4.48,23.0,22.0,90,3,,6.21,29.940945,,,,,,,,,,TS,SCT,900,FEW,2000,,,,,VFR,,,,,,,,,,,,METAR,341.0
DNIB 072100Z 23005KT 9999 SCT010 25/24 Q1014,DNIB,2023-07-07T21:00:00Z,7.37,3.98,25.0,24.0,230,5,,6.21,29.940945,,,,,,,,,,,SCT,1000,,,,,,,VFR,,,,,,,,,,,,METAR,220.0
DNAA 072100Z 23002KT 9999 SCT009 27/25 Q1015 NOSIG,DNAA,2023-07-07T21:00:00Z,9.0,7.27,27.0,25.0,230,2,,6.21,29.970472,,,,,,TRUE,,,,,SCT,900,,,,,,,VFR,,,,,,,,,,,,METAR,338.0
DIYO 072100Z 24002KT CAVOK 25/23 Q1014 NOSIG,DIYO,2023-07-07T21:00:00Z,6.9,-5.35,25.0,23.0,240,2,,6.21,29.940945,,,,,,TRUE,,,,,CAVOK,,,,,,,,VFR,,,,,,,,,,,,METAR,202.0
DIBK 072100Z 22004KT 8000 FEW011 25/24 Q1015 NOSIG,DIBK,2023-07-07T21:00:00Z,7.73,-5.07,25.0,24.0,220,4,,4.97,29.970472,,,,,,TRUE,,,,,FEW,1100,,,,,,,MVFR,,,,,,,,,,,,METAR,363.0
DGAA 072100Z 22012KT 9999 FEW011 SCT036 26/24 Q1014 NOSIG,DGAA,2023-07-07T21:00:00Z,5.58,-0.17,26.0,24.0,220,12,,6.21,29.940945,,,,,,TRUE,,,,,FEW,1100,SCT,3600,,,,,VFR,,,,,,,,,,,,METAR,68.0
DFOO 072100Z VRB02KT 9999 TS FEW016 FEW033CB 26/22 Q1014,DFOO,2023-07-07T21:00:00Z,11.17,-4.32,26.0,22.0,0,2,,6.21,29.940945,,,,,,,,,,TS,FEW,1600,FEW,3300,,,,,VFR,,,,,,,,,,,,METAR,461.0
DFFD 072100Z 24003KT 200V290 9999 TS FEW020 FEW040CB 32/22 Q1012 TEMPO 4000 TSRA,DFFD,2023-07-07T21:00:00Z,12.35,-1.52,32.0,22.0,240,3,,6.21,29.88189,,,,,,,,,,TS,FEW,2000,FEW,4000,,,,,VFR,,,,,,,,,,,,METAR,309.0
DBBB 072100Z 22012KT 9999 SCT011 27/25 Q1013 NOSIG,DBBB,2023-07-07T21:00:00Z,6.35,2.38,27.0,25.0,220,12,,6.21,29.911417,,,,,,TRUE,,,,,SCT,1100,,,,,,,VFR,,,,,,,,,,,,METAR,4.0
CZZJ 072100Z AUTO 07007KT 23/13 RMK AO1 SLP180 T02250127 58008,CZZJ,2023-07-07T21:00:00Z,53.58,-116.47,22.5,12.7,70,7,,,,1018.0,,TRUE,TRUE,,,,,,,,,,,,,,,,-0.8,,,,,,,,,,,METAR,927.0
CZVL 072100Z AUTO 01005KT 350V100 9SM FEW055 24/10 A3006 RMK TS/LTNG TEMPO UNAVBL SLP182 DENSITY ALT 3700FT,CZVL,2023-07-07T21:00:00Z,53.67,-113.85,24.0,10.0,10,5,,9.0,30.059055,1018.2,,TRUE,,,,,,,,FEW,5500,,,,,,,VFR,,,,,,,,,,,,METAR,685.0
CZUM 072100Z AUTO 33014G19KT 9SM CLR 22/18 A2972 RMK TS/LTNG TEMPO UNAVBL SLP069 DENSITY ALT 2900FT,CZUM,2023-07-07T21:00:00Z,53.55,-64.1,22.0,18.0,330,14,19,9.0,29.719488,1006.9,,TRUE,,,,,,,,CLR,,,,,,,,VFR,,,,,,,,,,,,METAR,431.0
CZTB 072100Z AUTO 25005KT 23/16 RMK AO1 8PAST HR 8003 SLP105 P0003 T02340160 50008,CZTB,2023-07-07T21:00:00Z,48.37,-89.32,23.4,16.0,250,5,,,,1010.5,,TRUE,TRUE,,,,,,,,,,,,,,,,0.8,,,,,0.03,,,,,,METAR,197.0
CZST 072100Z 20004KT 160V230 12SM SKC 26/18 A2985 RMK FU ALQUADS SLP111 DENSITY ALT 1500FT,CZST,2023-07-07T21:00:00Z,55.93,-129.98,26.0,18.0,200,4,,12.0,29.84941,1011.1,,,,,,,,,,SKC,,,,,,,,VFR,,,,,,,,,,,,METAR,10.0
CZSP 072100Z AUTO 13006KT 26/21 RMK AO1 SLP097 T02550213 57008,CZSP,2023-07-07T21:00:00Z,46.45,-62.58,25.5,21.3,130,6,,,,1009.7,,TRUE,TRUE,,,,,,,,,,,,,,,,-0.8,,,,,,,,,,,METAR,31.0
CZSM 072100Z AUTO 27002KT 25/10 RMK AO1 SLP137 T02530096 58017,CZSM,2023-07-07T21:00:00Z,60.03,-111.93,25.3,9.6,270,2,,,,1013.7,,TRUE,TRUE,,,,,,,,,,,,,,,,-1.7,,,,,,,,,,,METAR,203.0
CZSJ 072100Z AUTO /////KT 9SM FEW055 SCT080 BKN092 17/05 A2990 RMK WIND MISG TS/LTNG TEMPO UNAVBL SLP134 DENSITY ALT 1400FT,CZSJ,2023-07-07T21:00:00Z,53.07,-93.35,17.0,5.0,,,,9.0,29.899607,1013.4,,TRUE,,,,,,,,FEW,5500,SCT,8000,BKN,9200,,,VFR,,,,,,,,,,,,METAR,286.0
CZPS 072100Z AUTO 11003KT 21/14 RMK AO1 T02060142,CZPS,2023-07-07T21:00:00Z,52.43,-113.6,20.6,14.2,110,3,,,,,,TRUE,TRUE,,,,,,,,,,,,,,,,,,,,,,,,,,,METAR,953.0
CZOL 072100Z AUTO 11003KT 24/12 RMK AO1 T02420115,CZOL,2023-07-07T21:00:00Z,53.65,-113.35,24.2,11.5,110,3,,,,,,TRUE,TRUE,,,,,,,,,,,,,,,,,,,,,,,,,,,METAR,645.0
CZMJ 072100Z AUTO 04006KT 22/06 RMK AO1 SLP192 T02150064 58006,CZMJ,2023-07-07T21:00:00Z,50.33,-105.53,21.5,6.4,40,6,,,,1019.2,,TRUE,TRUE,,,,,,,,,,,,,,,,-0.6,,,,,,,,,,,METAR,571.0
CZMD 072100Z AUTO 36009KT 340V050 9SM BKN055 BKN070 16/06 A2988 RMK TS/LTNG TEMPO UNAVBL SLP126 DENSITY ALT 1400FT,CZMD,2023-07-07T21:00:00Z,53.43,-91.77,16.0,6.0,360,9,,9.0,29.878937,1012.6,,TRUE,,,,,,,,BKN,5500,BKN,7000,,,,,VFR,,,,,,,,,,,,METAR,276.0
CZKD 072100Z AUTO 31009KT 19/03 RMK AO1 SLP132 T01940032 56005,CZKD,2023-07-07T21:00:00Z,56.03,-96.52,19.4,3.2,310,9,,,,1013.2,,TRUE,TRUE,,,,,,,,,,,,,,,,-0.5,,,,,,,,,,,METAR,190.0
CZHY 072100Z AUTO 33007KT 26/14 RMK AO1 SLP125 T02560139 58012,CZHY,2023-07-07T21:00:00Z,60.83,-115.78,25.6,13.9,330,7,,,,1012.5,,TRUE,TRUE,,,,,,,,,,,,,,,,-1.2,,,,,,,,,,,METAR,159.0
CZFS 072100Z AUTO 11004KT 27/12 RMK AO1 SLP120 T02710117 57015,CZFS,2023-07-07T21:00:00Z,61.77,-121.23,27.1,11.7,110,4,,,,1012.0,,TRUE,TRUE,,,,,,,,,,,,,,,,-1.5,,,,,,,,,,,METAR,174.0
CZFN 072100Z VRB04KT 2 1/2SM FU FEW002 FEW180 30/11 A2979 RMK FU2AC1 AC TR SLP092 DENSITY ALT 2300FT,CZFN,2023-07-07T21:00:00Z,64.92,-125.57,30.0,11.0,0,4,,2.5,29.790354,1009.2,,,,,,,,,FU,FEW,200,FEW,18000,,,,,IFR,,,,,,,,,,,,METAR,135.0
CZFM 072100Z 07005KT 35SM SCT110 28/16 A2972 RMK AC3 SLP066 DENSITY ALT 2000FT,CZFM,2023-07-07T21:00:00Z,67.4,-134.87,28.0,16.0,70,5,,35.0,29.719488,1006.6,,,,,,,,,,SCT,11000,,,,,,,VFR,,,,,,,,,,,,METAR,33.0
CZFA 072100Z VRB02KT 30SM FEW080 29/07 A2988 RMK CF1 CF TR SLP124 DENSITY ALT 4600FT,CZFA,2023-07-07T21:00:00Z,62.2,-133.38,29.0,7.0,0,2,,30.0,29.878937,1012.4,,,,,,,,,,FEW,8000,,,,,,,VFR,,,,,,,,,,,,METAR,702.0
CZEV 072100Z AUTO 04004KT 28/13 RMK AO1 SLP079 T02760130 56007,CZEV,2023-07-07T21:00:00Z,68.32,-133.48,27.6,13.0,40,4,,,,1007.9,,TRUE,TRUE,,,,,,,,,,,,,,,,-0.7,,,,,,,,,,,METAR,92.0
CZEL 072100Z AUTO 31011G16KT 21/10 RMK AO1 PK WND 30020/2008 SLP143 T02140099 56006,CZEL,2023-07-07T21:00:00Z,43.65,-80.42,21.4,9.9,310,11,16,,,1014.3,,TRUE,TRUE,,,,,,,,,,,,,,,,-0.6,,,,,,,,,,,METAR,370.0
CZDB 072100Z AUTO 23008KT 24/19 RMK AO1 SLP106 T02400189 56011,CZDB,2023-07-07T21:00:00Z,45.42,-63.47,24.0,18.9,230,8,,,,1010.6,,TRUE,TRUE,,,,,,,,,,,,,,,,-1.1,,,,,,,,,,,METAR,38.0
CZCR 072100Z AUTO 23002KT 22/22 RMK AO1 8PAST HR 0010 SLP095 P0003 T02210220 50008,CZCR,2023-07-07T21:00:00Z,47.98,-66.33,22.1,22.0,230,2,,,,1009.5,,TRUE,TRUE,,,,,,,,,,,,,,,,0.8,,,,,0.03,,,,,,METAR,39.0
CZCP 072100Z AUTO 10005KT ////SM OVC060 10/07 A2983,CZCP,2023-07-07T21:00:00Z,70.17,-124.68,10.0,7.0,100,5,,,29.828741,,,TRUE,,,,,,,,OVC,6000,,,,,,,,,,,,,,,,,,,METAR,23.0
CYZY 072100Z AUTO 34005KT 280V030 9SM BKN066 BKN075 27/11 A2997 RMK TS/LTNG TEMPO UNAVBL SLP148 DENSITY ALT 4200FT,CYZY,2023-07-07T21:00:00Z,55.3,-123.13,27.0,11.0,340,5,,9.0,29.970472,1014.8,,TRUE,,,,,,,,BKN,6600,BKN,7500,,,,,VFR,,,,,,,,,,,,METAR,694.0
CYZX 072100Z 30012KT 15SM FEW050 26/19 A2986 RMK CU2 DENSITY ALT 1782FT SLP111,CYZX,2023-07-07T21:00:00Z,44.98,-64.92,26.0,19.0,300,12,,15.0,29.861221,1011.1,,,,,,,,,,FEW,5000,,,,,,,VFR,,,,,,,,,,,,METAR,28.0
CYZW 072100Z 18006KT 30SM FEW055 28/06 A2994 RMK CU1 CU TR SLP140 DENSITY ALT 4400FT,CYZW,2023-07-07T21:00:00Z,60.17,-132.75,28.0,6.0,180,6,,30.0,29.940945,1014.0,,,,,,,,,,FEW,5500,,,,,,,VFR,,,,,,,,,,,,METAR,700.0
CYZU 072100Z 09003KT 040V200 15SM FEW040 SCT240 22/11 A3007 RMK CU1CI3 HZ SLP186 DENSITY ALT 3800FT,CYZU,2023-07-07T21:00:00Z,54.15,-115.78,22.0,11.0,90,3,,15.0,30.070866,1018.6,,,,,,,,,,FEW,4000,SCT,24000,,,,,VFR,,,,,,,,,,,,METAR,785.0
CYZT 072100Z 03005KT 20SM FEW120 SCT210 16/13 A2988 RMK AC2CI1 FG OVR WTR DIST N-E SLP119 DENSITY ALT 300FT,CYZT,2023-07-07T21:00:00Z,50.68,-127.37,16.0,13.0,30,5,,20.0,29.878937,1011.9,,,,,,,,,,FEW,12000,SCT,21000,,,,,VFR,,,,,,,,,,,,METAR,13.0
CYZS 072100Z 17007KT 12SM BKN004 OVC029 06/06 A2986 RMK ST5SC3 SLP118,CYZS,2023-07-07T21:00:00Z,64.2,-83.35,6.0,6.0,170,7,,12.0,29.861221,1011.8,,,,,,,,,,BKN,400,OVC,2900,,,,,LIFR,,,,,,,,,,,,METAR,60.0
CYZR 072100Z AUTO 04012KT 9SM CLR 22/12 A2996 RMK TS/LTNG TEMPO UNAVBL SLP148 DENSITY ALT 1500FT,CYZR,2023-07-07T21:00:00Z,43.0,-82.3,22.0,12.0,40,12,,9.0,29.958662,1014.8,,TRUE,,,,,,,,CLR,,,,,,,,VFR,,,,,,,,,,,,METAR,181.0
CYZP 072100Z AUTO 13008KT 9SM CLR 18/12 A2988 RMK TS/LTNG TEMPO UNAVBL SLP119 DENSITY ALT 500FT,CYZP,2023-07-07T21:00:00Z,53.25,-131.82,18.0,12.0,130,8,,9.0,29.878937,1011.9,,TRUE,,,,,,,,CLR,,,,,,,,VFR,,,,,,,,,,,,METAR,7.0
CYZH 072100Z AUTO VRB06KT 9SM CLR 24/07 A3006 RMK TS/LTNG TEMPO UNAVBL SLP186 DENSITY ALT 3300FT,CYZH,2023-07-07T21:00:00Z,55.28,-114.77,24.0,7.0,0,6,,9.0,30.059055,1018.6,,TRUE,,,,,,,,CLR,,,,,,,,VFR,,,,,,,,,,,,METAR,583.0
CYZG 072100Z 08018G24KT 15SM FEW050 SCT110 14/04 A2989 RMK SC2AC1 LST STFD OB/ NXT 081200Z SLP137,CYZG,2023-07-07T21:00:00Z,62.17,-75.67,14.0,4.0,80,18,24,15.0,29.890747,1013.7,,,,,,,,,,FEW,5000,SCT,11000,,,,,VFR,,,,,,,,,,,,METAR,217.0
CYZF 072100Z 31015G22KT 270V330 15SM BKN065TCU BKN240 26/11 A2984 RMK TCU5CI2 SLP111 DENSITY ALT 2200FT,CYZF,2023-07-07T21:00:00Z,62.47,-114.45,26.0,11.0,310,15,22,15.0,29.840551,1011.1,,,,,,,,,,BKN,6500,BKN,24000,,,,,VFR,,,,,,,,,,,,METAR,202.0
CYZE 072100Z AUTO 31015G22KT 9SM CLR 24/12 A2991 RMK TS/LTNG TEMPO UNAVBL SLP131 DENSITY ALT 1800FT,CYZE,2023-07-07T21:00:00Z,45.88,-82.57,24.0,12.0,310,15,22,9.0,29.911417,1013.1,,TRUE,,,,,,,,CLR,,,,,,,,VFR,,,,,,,,,,,,METAR,189.0
CYYZ 072100Z 25012G17KT 230V300 15SM FEW030 FEW250 25/11 A2990 RMK CU1CI1 CU TR CI TR SLP125 DENSITY ALT 2000FT,CYYZ,2023-07-07T21:00:00Z,43.67,-79.62,25.0,11.0,250,12,17,15.0,29.899607,1012.5,,,,,,,,,,FEW,3000,FEW,25000,,,,,VFR,,,,,,,,,,,,METAR,171.0
CYYY 072100Z 25006KT 15SM FEW030TCU BKN220 23/19 A2977 RMK TCU2CI5 SLP084 DENSITY ALT 1400FT,CYYY,2023-07-07T21:00:00Z,48.6,-68.22,23.0,19.0,250,6,,15.0,29.769686,1008.4,,,,,,,,,,FEW,3000,BKN,22000,,,,,VFR,,,,,,,,,,,,METAR,43.0
CYYU 072100Z 26011G19KT 15SM FEW068 SCT075 SCT080 BKN085 24/08 A2983 RMK AC2AC1AC1AC2 SLP107 DENSITY ALT 2100FT,CYYU,2023-07-07T21:00:00Z,49.42,-82.47,24.0,8.0,260,11,19,15.0,29.828741,1010.7,,,,,,,,,,FEW,6800,SCT,7500,SCT,8000,BKN,8500,VFR,,,,,,,,,,,,METAR,228.0
CYYR 072100Z 04014KT 15SM FEW055 BKN300 26/16 A2970 RMK CU1CI6 DENSITY ALT 1959FT SLP060,CYYR,2023-07-07T21:00:00Z,53.32,-60.42,26.0,16.0,40,14,,15.0,29.698818,1006.0,,,,,,,,,,FEW,5500,BKN,30000,,,,,VFR,,,,,,,,,,,,METAR,42.0
CYYQ 072100Z VRB02KT 15SM FEW050 BKN060 BKN120 12/09 A2984 RMK SC1SC4AC1 SLP107,CYYQ,2023-07-07T21:00:00Z,58.75,-94.07,12.0,9.0,0,2,,15.0,29.840551,1010.7,,,,,,,,,,FEW,5000,BKN,6000,BKN,12000,,,VFR,,,,,,,,,,,,METAR,20.0
CYYN 072100Z AUTO VRB05KT 9SM BKN071 25/08 A3004 RMK TS/LTNG TEMPO UNAVBL SLP173 DENSITY ALT 4300FT,CYYN,2023-07-07T21:00:00Z,50.28,-107.68,25.0,8.0,0,5,,9.0,30.041338,1017.3,,TRUE,,,,,,,,BKN,7100,,,,,,,VFR,,,,,,,,,,,,METAR,814.0
CYYL 072100Z AUTO 29010G18KT 250V330 9SM FEW071 SCT092 SCT110 21/05 A2992 RMK TS/LTNG TEMPO UNAVBL SLP142 DENSITY ALT 2100FT,CYYL,2023-07-07T21:00:00Z,56.87,-101.07,21.0,5.0,290,10,18,9.0,29.920275,1014.2,,TRUE,,,,,,,,FEW,7100,SCT,9200,SCT,11000,,,VFR,,,,,,,,,,,,METAR,351.0
CYYJ 072100Z 12011KT 30SM FEW200 16/12 A2987 RMK CI1 SLP116 DENSITY ALT 300FT,CYYJ,2023-07-07T21:00:00Z,48.63,-123.42,16.0,12.0,120,11,,30.0,29.870079,1011.6,,,,,,,,,,FEW,20000,,,,,,,VFR,,,,,,,,,,,,METAR,16.0
CYYH 072100Z CCA 06010KT 15SM -SHRA FEW011 BKN020 OVC025 05/03 A2977 RMK SC2SC5SC1 SLP085,CYYH,2023-07-07T21:00:00Z,69.53,-93.57,5.0,3.0,60,10,,15.0,29.769686,1008.5,,,,,,,,,-SHRA,FEW,1100,BKN,2000,OVC,2500,,,MVFR,,,,,,,,,,,,METAR,19.0
CYYG 072100Z 25007KT 15SM BKN250 29/20 A2981 RMK CI5 SLP096 DENSITY ALT 2000FT,CYYG,2023-07-07T21:00:00Z,46.28,-63.12,29.0,20.0,250,7,,15.0,29.811024,1009.6,,,,,,,,,,BKN,25000,,,,,,,VFR,,,,,,,,,,,,METAR,48.0
CYYE 072100Z VRB03KT 6SM FU FEW050 FEW230 26/13 A2997 RMK CF1CI1 SLP154 DENSITY ALT 2800FT,CYYE,2023-07-07T21:00:00Z,58.83,-122.58,26.0,13.0,0,3,,6.0,29.970472,1015.4,,,,,,,,,FU,FEW,5000,FEW,23000,,,,,VFR,,,,,,,,,,,,METAR,379.0
CYYD 072100Z 23005KT 130V240 6SM FU SCT060TCU BKN230 29/10 A2992 RMK TCU3CI2 SLP128 DENSITY ALT 3700FT,CYYD,2023-07-07T21:00:00Z,54.82,-127.18,29.0,10.0,230,5,,6.0,29.920275,1012.8,,,,,,,,,FU,SCT,6000,BKN,23000,,,,,VFR,,,,,,,,,,,,METAR,527.0
CYYC 072100Z 36011KT 350V080 12SM VCSH SCT048 BKN059CB BKN100 BKN250 22/11 A3008 RMK HZ1CU2CB4AC1CI1 AC TR CI TR CB SW-NE AND OHD MOVG S SLP185 DENSITY ALT 5100FT,CYYC,2023-07-07T21:00:00Z,51.12,-114.02,22.0,11.0,360,11,,12.0,30.079725,1018.5,,,,,,,,,VCSH,SCT,4800,BKN,5900,BKN,10000,BKN,25000,VFR,,,,,,,,,,,,METAR,1085.0
CYYB 072100Z 23008KT 190V250 30SM SCT035 BKN075 BKN280 24/16 A2989 RMK CU4AC1CI1 SLP122 DENSITY ALT 2700FT,CYYB,2023-07-07T21:00:00Z,46.35,-79.42,24.0,16.0,230,8,,30.0,29.890747,1012.2,,,,,,,,,,SCT,3500,BKN,7500,BKN,28000,,,VFR,,,,,,,,,,,,METAR,360.0
CYXY 072100Z 14010KT 060V190 40SM FEW140 FEW260 30/07 A2987 RMK FU1CI1 SLP117 DENSITY ALT 4700FT,CYXY,2023-07-07T21:00:00Z,60.72,-135.07,30.0,7.0,140,10,,40.0,29.870079,1011.7,,,,,,,,,,FEW,14000,FEW,26000,,,,,VFR,,,,,,,,,,,,METAR,677.0
CYXX 072100Z 21008G15KT 25SM FEW130TCU FEW200 BKN270 22/15 A2986 RMK TCU1CC1CI5 CC TR TCU TR DIST E-SE HZ SLP113 DENSITY ALT 1200FT,CYXX,2023-07-07T21:00:00Z,49.03,-122.38,22.0,15.0,210,8,15,25.0,29.861221,1011.3,,,,,,,,,,FEW,13000,FEW,20000,BKN,27000,,,VFR,,,,,,,,,,,,METAR,54.0
CYXU 072100Z 31009G16KT 15SM FEW050 FEW250 22/12 A2997 RMK CU1CI1 CU TR CI TR SLP151 DENSITY ALT 1900FT,CYXU,2023-07-07T21:00:00Z,43.03,-81.15,22.0,12.0,310,9,16,15.0,29.970472,1015.1,,,,,,,,,,FEW,5000,FEW,25000,,,,,VFR,,,,,,,,,,,,METAR,278.0
CYXT 072100Z 32009KT 280V360 20SM FEW065 FEW130 FEW230 31/12 A2985 RMK CU1AC1CI1 CU TR CI TR SLP110 DENSITY ALT 2800FT,CYXT,2023-07-07T21:00:00Z,54.47,-128.57,31.0,12.0,320,9,,20.0,29.84941,1011.0,,,,,,,,,,FEW,6500,FEW,13000,FEW,23000,,,VFR,,,,,,,,,,,,METAR,213.0
CYXS 072100Z AUTO 34005KT 290V010 9SM CLR 26/12 A2993 RMK TS/LTNG TEMPO UNAVBL SLP139 DENSITY ALT 4100FT,CYXS,2023-07-07T21:00:00Z,53.88,-122.68,26.0,12.0,340,5,,9.0,29.929134,1013.9,,TRUE,,,,,,,,CLR,,,,,,,,VFR,,,,,,,,,,,,METAR,685.0
CYXR 072100Z AUTO /////KT RMK WIND MISG CLD MISG WX MISG VIS MISG PCPN MISG PRES MISG T MISG DP MISG ICE MISG TS/LTNG TEMPO UNAVBL DENSITY ALT MISG,CYXR,2023-07-07T21:00:00Z,47.7,-79.85,,,,,,,,,,TRUE,,,,,,,,,,,,,,,,,,,,,,,,,,,,METAR,244.0
CYXP 072100Z 25012KT 15SM FEW250 12/05 A3001 RMK CI1 SLP167,CYXP,2023-07-07T21:00:00Z,66.15,-65.72,12.0,5.0,250,12,,15.0,30.008858,1016.7,,,,,,,,,,FEW,25000,,,,,,,VFR,,,,,,,,,,,,METAR,29.0
CYXN 072100Z 31011KT 15SM BKN069 13/02 A2976 RMK AC5 SLP080,CYXN,2023-07-07T21:00:00Z,62.23,-92.58,13.0,2.0,310,11,,15.0,29.760826,1008.0,,,,,,,,,,BKN,6900,,,,,,,VFR,,,,,,,,,,,,METAR,9.0
CYXL 072100Z 36013G22KT 330V060 15SM FEW055 22/08 A2983 RMK CU2 CB TOP DIST SE SLP107 DENSITY ALT 2500FT,CYXL,2023-07-07T21:00:00Z,50.12,-91.9,22.0,8.0,360,13,22,15.0,29.828741,1010.7,,,,,,,,,,FEW,5500,,,,,,,VFR,,,,,,,,,,,,METAR,381.0
CYXJ 072100Z 13008KT 070V150 15SM BKN220 25/08 A3006 RMK FU5CI2 SLP182 DENSITY ALT 3800FT,CYXJ,2023-07-07T21:00:00Z,56.25,-120.73,25.0,8.0,130,8,,15.0,30.059055,1018.2,,,,,,,,,,BKN,22000,,,,,,,VFR,,,,,,,,,,,,METAR,700.0
CYXH 072100Z 31004KT 230V350 10SM FEW080TCU BKN130 OVC300 27/07 A3003 RMK TCU1AC4CI3 SLP161 DENSITY ALT 4200FT,CYXH,2023-07-07T21:00:00Z,50.02,-110.72,27.0,7.0,310,4,,10.0,30.029528,1016.1,,,,,,,,,,FEW,8000,BKN,13000,OVC,30000,,,VFR,,,,,,,,,,,,METAR,717.0
CYXE 072100Z 03005KT 310V080 15SM BKN075 BKN300 23/07 A3006 RMK AC6CI1 SLP186 DENSITY ALT 2900FT,CYXE,2023-07-07T21:00:00Z,52.17,-106.7,23.0,7.0,30,5,,15.0,30.059055,1018.6,,,,,,,,,,BKN,7500,BKN,30000,,,,,VFR,,,,,,,,,,,,METAR,504.0
CYXC 072100Z 10005KT 020V110 25SM FEW090TCU SCT250 28/04 A2996 RMK TCU2CI1 CB TOPS DIST NE+NW FU LYR ALFT SLP129 DENSITY ALT 5300FT,CYXC,2023-07-07T21:00:00Z,49.6,-115.78,28.0,4.0,100,5,,25.0,29.958662,1012.9,,,,,,,,,,FEW,9000,SCT,25000,,,,,VFR,,,,,,,,,,,,METAR,928.0
CYWL 072100Z 00000KT 15SM FEW060 BKN150 25/07 A2996 RMK CU1AC5 SLP138 DENSITY ALT 5000FT,CYWL,2023-07-07T21:00:00Z,52.18,-122.07,25.0,7.0,0,0,,15.0,29.958662,1013.8,,,,,,,,,,FEW,6000,BKN,15000,,,,,VFR,,,,,,,,,,,,METAR,942.0
CYWJ 072100Z 10011G18KT 40SM SCT120 BKN170 BKN230 24/08 A2985 RMK AC3AS2CC1 FU DIST W-NW SLP115 DENSITY ALT 2100FT,CYWJ,2023-07-07T21:00:00Z,65.22,-123.43,24.0,8.0,100,11,18,40.0,29.84941,1011.5,,,,,,,,,,SCT,12000,BKN,17000,BKN,23000,,,VFR,,,,,,,,,,,,METAR,208.0
CYWH 072100Z CCA 19005G15KT 130V220 15SM FEW005 SCT230 18/12 A2987 RMK ST1CI3 ST TR SLP117 DENSITY ALT 400FT,CYWH,2023-07-07T21:00:00Z,48.42,-123.38,18.0,12.0,190,5,15,15.0,29.870079,1011.7,,,,,,,,,,FEW,500,SCT,23000,,,,,VFR,,,,,,,,,,,,SPECI,4.0
CYWG 072100Z 36013G20KT 15SM FEW040TCU SCT067 SCT075 SCT085 SCT100 20/10 A2997 RMK TCU2AC1AC1AC1AC1 AC TR AC TR DIST VIRGA NE SLP152 DENSITY ALT 1500FT,CYWG,2023-07-07T21:00:00Z,49.9,-97.23,20.0,10.0,360,13,20,15.0,29.970472,1015.2,,,,,,,,,,FEW,4000,SCT,6700,SCT,7500,SCT,8500,VFR,,,,,,,,,,,,METAR,238.0
CYVV 072100Z 26008KT 15SM FEW040 FEW050 19/15 A2994 RMK SC1CU1 SLP142 DENSITY ALT 1400FT,CYVV,2023-07-07T21:00:00Z,44.75,-81.1,19.0,15.0,260,8,,15.0,29.940945,1014.2,,,,,,,,,,FEW,4000,FEW,5000,,,,,VFR,,,,,,,,,,,,METAR,221.0
CYVT 072100Z AUTO 32006KT 9SM SCT210 SCT230 21/06 A3004 RMK TS/LTNG TEMPO UNAVBL SLP183 DENSITY ALT 2400FT,CYVT,2023-07-07T21:00:00Z,55.83,-108.42,21.0,6.0,320,6,,9.0,30.041338,1018.3,,TRUE,,,,,,,,SCT,21000,SCT,23000,,,,,VFR,,,,,,,,,,,,METAR,438.0
CYVR 072100Z 12008KT 100V160 20SM FEW140 FEW230 22/13 A2986 RMK AC1CI1 CI TR ACC ASOCTD SLP115 DENSITY ALT 900FT,CYVR,2023-07-07T21:00:00Z,49.17,-123.17,22.0,13.0,120,8,,20.0,29.861221,1011.5,,,,,,,,,,FEW,14000,FEW,23000,,,,,VFR,,,,,,,,,,,,METAR,2.0
CYVQ 072100Z 18005KT 12SM FEW120 SCT250 30/09 A2979 RMK FU2AC1CI2 AC TR SLP092 DENSITY ALT 2200FT,CYVQ,2023-07-07T21:00:00Z,65.27,-126.78,30.0,9.0,180,5,,12.0,29.790354,1009.2,,,,,,,,,,FEW,12000,SCT,25000,,,,,VFR,,,,,,,,,,,,METAR,63.0
CYVO 072100Z 32008KT 250V010 15SM SCT040 BKN090 24/12 A2988 RMK CU4AC1 SLP124 DENSITY ALT 2500FT,CYVO,2023-07-07T21:00:00Z,48.07,-77.77,24.0,12.0,320,8,,15.0,29.878937,1012.4,,,,,,,,,,SCT,4000,BKN,9000,,,,,VFR,,,,,,,,,,,,METAR,329.0
CYVM 072100Z 21013KT 15SM SKC 04/02 A2997 RMK SLP150,CYVM,2023-07-07T21:00:00Z,67.55,-64.02,4.0,2.0,210,13,,15.0,29.970472,1015.0,,,,,,,,,,SKC,,,,,,,,VFR,,,,,,,,,,,,METAR,3.0
CYVL 072100Z AUTO 24006KT 190V260 9SM CLR 25/09 A2982 RMK SLP106 DENSITY ALT 2500FT,CYVL,2023-07-07T21:00:00Z,67.02,-126.13,25.0,9.0,240,6,,9.0,29.819881,1010.6,,TRUE,,,,,,,,CLR,,,,,,,,VFR,,,,,,,,,,,,METAR,261.0
CYVC 072100Z 15006KT 15SM SCT080 BKN250 20/06 A3004 RMK CU4CI1 SLP184 DENSITY ALT 2000FT,CYVC,2023-07-07T21:00:00Z,55.15,-105.27,20.0,6.0,150,6,,15.0,30.041338,1018.4,,,,,,,,,,SCT,8000,BKN,25000,,,,,VFR,,,,,,,,,,,,METAR,378.0
CYUY 072100Z 20006KT 190V290 15SM SCT035 BKN085 24/13 A2988 RMK CU3AC2 SLP122 DENSITY ALT 2300FT,CYUY,2023-07-07T21:00:00Z,48.2,-78.82,24.0,13.0,200,6,,15.0,29.878937,1012.2,,,,,,,,,,SCT,3500,BKN,8500,,,,,VFR,,,,,,,,,,,,METAR,304.0
CYUX 072100Z 16008KT 10SM SCT025 05/04 A2984 RMK SC4 BR OVR BASIN SLP106,CYUX,2023-07-07T21:00:00Z,68.77,-81.22,5.0,4.0,160,8,,10.0,29.840551,1010.6,,,,,,,,,,SCT,2500,,,,,,,VFR,,,,,,,,,,,,METAR,8.0
CYUT 072100Z 13013KT 25SM SCT020 BKN050 07/03 A2979 RMK CU4SC2 SLP091,CYUT,2023-07-07T21:00:00Z,66.52,-86.22,7.0,3.0,130,13,,25.0,29.790354,1009.1,,,,,,,,,,SCT,2000,BKN,5000,,,,,VFR,,,,,,,,,,,,METAR,22.0
CYUL 072100Z 18008KT 15SM FEW030 SCT050 BKN140 BKN240 27/21 A2981 RMK CF1CU4AC1CC2 CF TR SLP097 DENSITY ALT 1700FT,CYUL,2023-07-07T21:00:00Z,45.47,-73.73,27.0,21.0,180,8,,15.0,29.811024,1009.7,,,,,,,,,,FEW,3000,SCT,5000,BKN,14000,BKN,24000,VFR,,,,,,,,,,,,METAR,31.0
CYUB 072100Z 29004KT 15SM FEW009 BKN072 19/15 A2977 RMK SC1AS7 SC TR SLP082 DENSITY ALT 700FT,CYUB,2023-07-07T21:00:00Z,69.43,-133.02,19.0,15.0,290,4,,15.0,29.769686,1008.2,,,,,,,,,,FEW,900,BKN,7200,,,,,VFR,,,,,,,,,,,,METAR,5.0
CYUA 072100Z AUTO 36005KT 290V030 ////SM SCT008 17/12 A2977,CYUA,2023-07-07T21:00:00Z,68.92,-137.23,17.0,12.0,360,5,,,29.769686,,,TRUE,,,,,,,,SCT,800,,,,,,,,,,,,,,,,,,,METAR,25.0
CYTS 072100Z 22005KT 200V300 15SM BKN060 24/09 A2988 RMK SC6 SLP122 DENSITY ALT 2300FT,CYTS,2023-07-07T21:00:00Z,48.57,-81.37,24.0,9.0,220,5,,15.0,29.878937,1012.2,,,,,,,,,,BKN,6000,,,,,,,VFR,,,,,,,,,,,,METAR,290.0
CYTR 072100Z 20009G15KT 15SM FEW030 FEW250 27/20 A2983 RMK SC1CI1 DENSITY ALT 2177FT SLP101,CYTR,2023-07-07T21:00:00Z,44.12,-77.52,27.0,20.0,200,9,15,15.0,29.828741,1010.1,,,,,,,,,,FEW,3000,FEW,25000,,,,,VFR,,,,,,,,,,,,METAR,80.0
CYTL 072100Z AUTO 36008KT 310V050 9SM BKN026 OVC130 13/08 A2987 RMK TS/LTNG TEMPO UNAVBL SLP122,CYTL,2023-07-07T21:00:00Z,53.82,-89.88,13.0,8.0,360,8,,9.0,29.870079,1012.2,,TRUE,,,,,,,,BKN,2600,OVC,13000,,,,,MVFR,,,,,,,,,,,,METAR,218.0
CYTH 072100Z 30006KT 260V320 15SM SCT068 BKN230 20/06 A2991 RMK CU4CI1 SLP136 DENSITY ALT 1600FT,CYTH,2023-07-07T21:00:00Z,55.8,-97.83,20.0,6.0,300,6,,15.0,29.911417,1013.6,,,,,,,,,,SCT,6800,BKN,23000,,,,,VFR,,,,,,,,,,,,METAR,212.0
CYTE 072100Z AUTO 26005KT 9SM OVC081 06/02 A2996 RMK SLP150,CYTE,2023-07-07T21:00:00Z,64.22,-76.52,6.0,2.0,260,5,,9.0,29.958662,1015.0,,TRUE,,,,,,,,OVC,8100,,,,,,,VFR,,,,,,,,,,,,METAR,49.0
CYSP 072100Z 21003G17KT 15SM FEW070 SCT075 18/08 A2989 RMK AS2AC2 LAST STFD OBS/NEXT 081200UTC SLP131 DENSITY ALT 1700FT,CYSP,2023-07-07T21:00:00Z,48.75,-86.35,18.0,8.0,210,3,17,15.0,29.890747,1013.1,,,,,,,,,,FEW,7000,SCT,7500,,,,,VFR,,,,,,,,,,,,METAR,312.0
CYSN 072100Z 31010KT 15SM FEW050 FEW250 26/14 A2989 RMK SC1CI1 SLP122 DENSITY ALT 1800FT,CYSN,2023-07-07T21:00:00Z,43.2,-79.17,26.0,14.0,310,10,,15.0,29.890747,1012.2,,,,,,,,,,FEW,5000,FEW,25000,,,,,VFR,,,,,,,,,,,,METAR,96.0
CYSM 072100Z 19003KT 160V270 4SM FU FEW080 BKN090 25/10 A2990 RMK AC1ACC7 AC TR SLP133 DENSITY ALT 2100FT,CYSM,2023-07-07T21:00:00Z,60.03,-111.92,25.0,10.0,190,3,,4.0,29.899607,1013.3,,,,,,,,,FU,FEW,8000,BKN,9000,,,,,MVFR,,,,,,,,,,,,METAR,203.0
CYSK 072100Z 21013KT 15SM BKN130 19/10 A2979 RMK AC5 SLP092 DENSITY ALT 800FT,CYSK,2023-07-07T21:00:00Z,56.53,-79.25,19.0,10.0,210,13,,15.0,29.790354,1009.2,,,,,,,,,,BKN,13000,,,,,,,VFR,,,,,,,,,,,,METAR,28.0
CYSJ 072100Z 19011KT 15SM FEW005 20/17 A2987 RMK SF1 SLP119 DENSITY ALT 1100FT,CYSJ,2023-07-07T21:00:00Z,45.32,-65.88,20.0,17.0,190,11,,15.0,29.870079,1011.9,,,,,,,,,,FEW,500,,,,,,,VFR,,,,,,,,,,,,METAR,89.0
CYSF 072100Z AUTO 28010G15KT 9SM FEW071 SCT094 BKN110 22/08 A2991 RMK TS/LTNG TEMPO UNAVBL SLP137 DENSITY ALT 1800FT,CYSF,2023-07-07T21:00:00Z,59.25,-105.83,22.0,8.0,280,10,15,9.0,29.911417,1013.7,,TRUE,,,,,,,,FEW,7100,SCT,9400,BKN,11000,,,VFR,,,,,,,,,,,,METAR,238.0
CYSB 072100Z 02003KT 20SM SCT030 BKN085 BKN210 23/14 A2990 RMK CU3AC2CI1 SLP126 DENSITY ALT 2400FT,CYSB,2023-07-07T21:00:00Z,46.63,-80.8,23.0,14.0,20,3,,20.0,29.899607,1012.6,,,,,,,,,,SCT,3000,BKN,8500,BKN,21000,,,VFR,,,,,,,,,,,,METAR,349.0
CYRV 072100Z AUTO VRB04KT 9SM SCT110 BKN130 OVC150 30/11 A2985 RMK TS/LTNG TEMPO UNAVBL SLP103 DENSITY ALT 3700FT,CYRV,2023-07-07T21:00:00Z,50.97,-118.17,30.0,11.0,0,4,,9.0,29.84941,1010.3,,TRUE,,,,,,,,SCT,11000,BKN,13000,OVC,15000,,,VFR,,,,,,,,,,,,METAR,456.0
CYRT 072100Z CCA 30011G17KT 15SM SCT048 SCT170 BKN260 14/02 A2974 RMK SC3AC1CI1 TCU EMBD SH DIST E SLP076,CYRT,2023-07-07T21:00:00Z,62.82,-92.12,14.0,2.0,300,11,17,15.0,29.740158,1007.6,,,,,,,,,,SCT,4800,SCT,17000,BKN,26000,,,VFR,,,,,,,,,,,,METAR,29.0
CYRQ 072100Z AUTO 20010KT 9SM BKN071 BKN089 27/20 A2980 RMK TS/LTNG TEMPO UNAVBL SLP091 DENSITY ALT 1800FT,CYRQ,2023-07-07T21:00:00Z,46.35,-72.68,27.0,20.0,200,10,,9.0,29.799213,1009.1,,TRUE,,,,,,,,BKN,7100,BKN,8900,,,,,VFR,,,,,,,,,,,,METAR,58.0
CYRL 072100Z 01007KT 240V030 15SM BKN020TCU 17/07 A2990 RMK TCU7 OCNL -SHRA SLP133 DENSITY ALT 1900FT,CYRL,2023-07-07T21:00:00Z,51.07,-93.78,17.0,7.0,10,7,,15.0,29.899607,1013.3,,,,,,,,,,BKN,2000,,,,,,,MVFR,,,,,,,,,,,,METAR,370.0
CYRJ 072100Z 30010KT 40SM SCT055 BKN070 BKN230 26/18 A2980 RMK CU3AC2CI2 SLP092 DENSITY ALT 2100FT,CYRJ,2023-07-07T21:00:00Z,48.52,-72.27,26.0,18.0,300,10,,40.0,29.799213,1009.2,,,,,,,,,,SCT,5500,BKN,7000,BKN,23000,,,VFR,,,,,,,,,,,,METAR,173.0
CYRB 072100Z 30008KT 30SM BKN034 OVC052 06/03 A2982 RMK SC6SC2 SLP105,CYRB,2023-07-07T21:00:00Z,74.72,-94.97,6.0,3.0,300,8,,30.0,29.819881,1010.5,,,,,,,,,,BKN,3400,OVC,5200,,,,,VFR,,,,,,,,,,,,METAR,59.0
CYRA 072100Z 34009KT 15SM SCT150 BKN200 BKN220 25/07 A2986 RMK AS3CI2CS1 SLP118 DENSITY ALT 2200FT,CYRA,2023-07-07T21:00:00Z,64.12,-117.32,25.0,7.0,340,9,,15.0,29.861221,1011.8,,,,,,,,,,SCT,15000,BKN,20000,BKN,22000,,,VFR,,,,,,,,,,,,METAR,232.0
CYQZ 072100Z AUTO VRB04KT 9SM CLR 28/08 A2990 RMK TS/LTNG TEMPO UNAVBL SLP126 DENSITY ALT 3800FT,CYQZ,2023-07-07T21:00:00Z,53.02,-122.52,28.0,8.0,0,4,,9.0,29.899607,1012.6,,TRUE,,,,,,,,CLR,,,,,,,,VFR,,,,,,,,,,,,METAR,548.0
CYQY 072100Z 12004KT 070V160 15SM FEW220 BKN250 21/17 A2985 RMK CI1CI5 SLP110 DENSITY ALT 1100FT,CYQY,2023-07-07T21:00:00Z,46.17,-60.03,21.0,17.0,120,4,,15.0,29.84941,1011.0,,,,,,,,,,FEW,22000,BKN,25000,,,,,VFR,,,,,,,,,,,,METAR,58.0
CYQX 072100Z 31009G17KT 20SM OVC010 15/13 A2981 RMK SC8 SLP098 DENSITY ALT 800FT,CYQX,2023-07-07T21:00:00Z,48.95,-54.58,15.0,13.0,310,9,17,20.0,29.811024,1009.8,,,,,,,,,,OVC,1000,,,,,,,MVFR,,,,,,,,,,,,METAR,144.0
CYQW 072100Z AUTO 11006KT 9SM BKN060 BKN075 23/09 A3008 RMK TS/LTNG TEMPO UNAVBL SLP192 DENSITY ALT 3000FT,CYQW,2023-07-07T21:00:00Z,52.77,-108.25,23.0,9.0,110,6,,9.0,30.079725,1019.2,,TRUE,,,,,,,,BKN,6000,BKN,7500,,,,,VFR,,,,,,,,,,,,METAR,545.0
CYQV 072100Z AUTO VRB07KT 9SM FEW066 20/04 A3006 RMK TS/LTNG TEMPO UNAVBL SLP188 DENSITY ALT 2500FT,CYQV,2023-07-07T21:00:00Z,51.27,-102.47,20.0,4.0,0,7,,9.0,30.059055,1018.8,,TRUE,,,,,,,,FEW,6600,,,,,,,VFR,,,,,,,,,,,,METAR,493.0
CYQU 072100Z 08011G18KT 15SM SCT160 26/08 A3004 RMK AC4 SLP179 DENSITY ALT 3800FT,CYQU,2023-07-07T21:00:00Z,55.18,-118.88,26.0,8.0,80,11,18,15.0,30.041338,1017.9,,,,,,,,,,SCT,16000,,,,,,,VFR,,,,,,,,,,,,METAR,668.0
CYQT 072100Z 25007KT 220V290 20SM FEW030 SCT120 BKN270 24/16 A2982 RMK CU2AC1CI2 SLP103 DENSITY ALT 1900FT,CYQT,2023-07-07T21:00:00Z,48.37,-89.32,24.0,16.0,250,7,,20.0,29.819881,1010.3,,,,,,,,,,FEW,3000,SCT,12000,BKN,27000,,,VFR,,,,,,,,,,,,METAR,197.0
CYQR 072100Z 34008KT 260V020 15SM BKN064 23/07 A3005 RMK CU5 SLP186 DENSITY ALT 3200FT,CYQR,2023-07-07T21:00:00Z,50.43,-104.67,23.0,7.0,340,8,,15.0,30.050198,1018.6,,,,,,,,,,BKN,6400,,,,,,,VFR,,,,,,,,,,,,METAR,576.0
CYQQ 072100Z 13009KT 20SM FEW043 FEW100 SCT250 23/12 A2985 RMK CF1AC2CI1 DENSITY ALT 1303FT SLP107,CYQQ,2023-07-07T21:00:00Z,49.72,-124.9,23.0,12.0,130,9,,20.0,29.84941,1010.7,,,,,,,,,,FEW,4300,FEW,10000,SCT,25000,,,VFR,,,,,,,,,,,,METAR,24.0
CYQM 072100Z 21008KT 150V230 12SM FEW056 SCT230 32/21 A2979 RMK CF1CI3 CF TR CONTRAILS SLP091 DENSITY ALT 2400FT,CYQM,2023-07-07T21:00:00Z,46.12,-64.67,32.0,21.0,210,8,,12.0,29.790354,1009.1,,,,,,,,,,FEW,5600,SCT,23000,,,,,VFR,,,,,,,,,,,,METAR,67.0
CYQL 072100Z 10009G15KT 20SM FEW075 FEW290 27/08 A3003 RMK CU1CI1 SLP162 DENSITY ALT 5000FT,CYQL,2023-07-07T21:00:00Z,49.63,-112.8,27.0,8.0,100,9,15,20.0,30.029528,1016.2,,,,,,,,,,FEW,7500,FEW,29000,,,,,VFR,,,,,,,,,,,,METAR,923.0
CYQK 072100Z 32010KT 290V010 20SM BKN070 BKN210 21/05 A2989 RMK CU5CI1 SLP126 DENSITY ALT 2400FT,CYQK,2023-07-07T21:00:00Z,49.78,-94.37,21.0,5.0,320,10,,20.0,29.890747,1012.6,,,,,,,,,,BKN,7000,BKN,21000,,,,,VFR,,,,,,,,,,,,METAR,413.0
CYQI 072100Z 18008KT 12SM FEW008 FEW250 18/16 A2992 RMK SC2CI2 SLP133 DENSITY ALT 500FT,CYQI,2023-07-07T21:00:00Z,43.83,-66.08,18.0,16.0,180,8,,12.0,29.920275,1013.3,,,,,,,,,,FEW,800,FEW,25000,,,,,VFR,,,,,,,,,,,,METAR,37.0
CYQH 072100Z 12004KT 100V210 40SM FEW040 FEW220 26/07 A2998 RMK CU1CI1 SLP153 DENSITY ALT 4000FT,CYQH,2023-07-07T21:00:00Z,60.12,-128.82,26.0,7.0,120,4,,40.0,29.97933,1015.3,,,,,,,,,,FEW,4000,FEW,22000,,,,,VFR,,,,,,,,,,,,METAR,692.0
CYQG 072100Z AUTO 07007KT 020V090 9SM BKN066 26/13 A2995 RMK TS/LTNG TEMPO UNAVBL SLP140 DENSITY ALT 2000FT,CYQG,2023-07-07T21:00:00Z,42.27,-82.97,26.0,13.0,70,7,,9.0,29.949802,1014.0,,TRUE,,,,,,,,BKN,6600,,,,,,,VFR,,,,,,,,,,,,METAR,189.0
CYQF 072100Z AUTO 02005KT 330V070 9SM CLR 22/13 A3008 RMK TS/LTNG TEMPO UNAVBL SLP193 DENSITY ALT 4300FT,CYQF,2023-07-07T21:00:00Z,52.17,-113.9,22.0,13.0,20,5,,9.0,30.079725,1019.3,,TRUE,,,,,,,,CLR,,,,,,,,VFR,,,,,,,,,,,,METAR,912.0
CYQD 072100Z AUTO 28005KT 250V010 9SM SCT096 20/04 A3001 RMK TS/LTNG TEMPO UNAVBL SLP168 DENSITY ALT 1700FT,CYQD,2023-07-07T21:00:00Z,53.97,-101.08,20.0,4.0,280,5,,9.0,30.008858,1016.8,,TRUE,,,,,,,,SCT,9600,,,,,,,VFR,,,,,,,,,,,,METAR,268.0
CYQB 072100Z 22008KT 15SM FEW030 SCT170 BKN240 25/22 A2979 RMK CU1AC2CI4 HAZY SLP091 DENSITY ALT 1700FT,CYQB,2023-07-07T21:00:00Z,46.78,-71.38,25.0,22.0,220,8,,15.0,29.790354,1009.1,,,,,,,,,,FEW,3000,SCT,17000,BKN,24000,,,VFR,,,,,,,,,,,,METAR,73.0
CYQA 072100Z AUTO 29008KT 240V320 9SM CLR 22/08 A2991 RMK TS/LTNG TEMPO UNAVBL SLP130 DENSITY ALT 2000FT,CYQA,2023-07-07T21:00:00Z,44.97,-79.3,22.0,8.0,290,8,,9.0,29.911417,1013.0,,TRUE,,,,,,,,CLR,,,,,,,,VFR,,,,,,,,,,,,METAR,277.0
CYPY 072100Z AUTO 27008KT 6SM HZ FEW110 25/11 A2994 RMK TS/LTNG TEMPO UNAVBL SLP146 DENSITY ALT 2100FT,CYPY,2023-07-07T21:00:00Z,58.77,-111.12,25.0,11.0,270,8,,6.0,29.940945,1014.6,,TRUE,,,,,,,HZ,FEW,11000,,,,,,,VFR,,,,,,,,,,,,METAR,225.0
CYPX 072100Z AUTO 13015G20KT 9SM BKN130 18/07 A2983 RMK TS/LTNG TEMPO UNAVBL SLP106 DENSITY ALT 600FT,CYPX,2023-07-07T21:00:00Z,60.03,-77.27,18.0,7.0,130,15,20,9.0,29.828741,1010.6,,TRUE,,,,,,,,BKN,13000,,,,,,,VFR,,,,,,,,,,,,METAR,10.0
CYPW 072100Z 28007KT 25SM FEW210 26/13 A2985 RMK CC1 CC TR FU ALF SLP110 DENSITY ALT 1900FT,CYPW,2023-07-07T21:00:00Z,49.83,-124.5,26.0,13.0,280,7,,25.0,29.84941,1011.0,,,,,,,,,,FEW,21000,,,,,,,VFR,,,,,,,,,,,,METAR,122.0
CYPR 072100Z AUTO 29004KT 250V310 9SM CLR 18/14 A2986 RMK TS/LTNG TEMPO UNAVBL SLP114 DENSITY ALT 600FT,CYPR,2023-07-07T21:00:00Z,54.28,-130.45,18.0,14.0,290,4,,9.0,29.861221,1011.4,,TRUE,,,,,,,,CLR,,,,,,,,VFR,,,,,,,,,,,,METAR,30.0
CYPQ 072100Z AUTO 29012KT 9SM CLR 26/11 A2989 RMK TS/LTNG TEMPO UNAVBL SLP121 DENSITY ALT 2100FT,CYPQ,2023-07-07T21:00:00Z,44.22,-78.37,26.0,11.0,290,12,,9.0,29.890747,1012.1,,TRUE,,,,,,,,CLR,,,,,,,,VFR,,,,,,,,,,,,METAR,190.0
CYPL 072100Z AUTO 35008G20KT 290V070 9SM SCT024 SCT028 BKN034 15/09 A2984 RMK TS/LTNG TEMPO UNAVBL SLP113 DENSITY ALT 1800FT,CYPL,2023-07-07T21:00:00Z,51.43,-90.22,15.0,9.0,350,8,20,9.0,29.840551,1011.3,,TRUE,,,,,,,,SCT,2400,SCT,2800,BKN,3400,,,VFR,,,,,,,,,,,,METAR,390.0
CYPH 072100Z AUTO 20013KT 9SM FEW076 12/07 A2984 RMK TS/LTNG TEMPO UNAVBL SLP106,CYPH,2023-07-07T21:00:00Z,58.47,-78.08,12.0,7.0,200,13,,9.0,29.840551,1010.6,,TRUE,,,,,,,,FEW,7600,,,,,,,VFR,,,,,,,,,,,,METAR,24.0
CYPG 072100Z 36013G18KT 15SM SCT042 BKN080 18/09 A3000 RMK CU4AC1 DENSITY ALT 1536FT SLP162,CYPG,2023-07-07T21:00:00Z,49.9,-98.28,18.0,9.0,360,13,18,15.0,30.0,1016.2,,,,,,,,,,SCT,4200,BKN,8000,,,,,VFR,,,,,,,,,,,,METAR,270.0
CYPE 072100Z VRB04KT 8SM SKC 25/03 A3005 RMK FU1 SLP183 DENSITY ALT 3400FT,CYPE,2023-07-07T21:00:00Z,56.22,-117.45,25.0,3.0,0,4,,8.0,30.050198,1018.3,,,,,,,,,,SKC,,,,,,,,VFR,,,,,,,,,,,,METAR,572.0
CYPD 072100Z AUTO VRB02KT 9SM FEW086 27/20 A2983 RMK TS/LTNG TEMPO UNAVBL SLP104 DENSITY ALT 2000FT,CYPD,2023-07-07T21:00:00Z,45.67,-61.37,27.0,20.0,0,2,,9.0,29.828741,1010.4,,TRUE,,,,,,,,FEW,8600,,,,,,,VFR,,,,,,,,,,,,METAR,106.0
CYPC 072100Z 07006KT 15SM BKN075 OVC130 14/10 A2980 RMK AC5AC3 -RA INTMNT SLP094,CYPC,2023-07-07T21:00:00Z,69.37,-124.07,14.0,10.0,70,6,,15.0,29.799213,1009.4,,,,,,,,,,BKN,7500,OVC,13000,,,,,VFR,,,,,,,,,,,,METAR,5.0
CYOW 072100Z VRB07G17KT 15SM FEW044 FEW150 SCT240 29/18 A2982 RMK CU2AC1CI2 AC TR SLP097 DENSITY ALT 2200FT,CYOW,2023-07-07T21:00:00Z,45.32,-75.67,29.0,18.0,0,7,17,15.0,29.819881,1009.7,,,,,,,,,,FEW,4400,FEW,15000,SCT,24000,,,VFR,,,,,,,,,,,,METAR,111.0
CYOO 072100Z AUTO 28008G16KT 9SM CLR 27/12 A2988 RMK TS/LTNG TEMPO UNAVBL SLP118 DENSITY ALT 2000FT,CYOO,2023-07-07T21:00:00Z,43.92,-78.9,27.0,12.0,280,8,16,9.0,29.878937,1011.8,,TRUE,,,,,,,,CLR,,,,,,,,VFR,,,,,,,,,,,,METAR,136.0
CYOJ 072100Z 25005KT 210V300 6SM FU SCT030 BKN250 27/07 A2998 RMK FU4CI1 SLP162 DENSITY ALT 2700FT,CYOJ,2023-07-07T21:00:00Z,58.62,-117.17,27.0,7.0,250,5,,6.0,29.97933,1016.2,,,,,,,,,FU,SCT,3000,BKN,25000,,,,,VFR,,,,,,,,,,,,METAR,339.0
CYOD 072100Z 13004KT 15SM SCT060 BKN250 23/07 A3006 RMK CU3CI3 DENSITY ALT 3118FT SLP187,CYOD,2023-07-07T21:00:00Z,54.4,-110.28,23.0,7.0,130,4,,15.0,30.059055,1018.7,,,,,,,,,,SCT,6000,BKN,25000,,,,,VFR,,,,,,,,,,,,METAR,540.0
CYNM 072100Z AUTO 00000KT 9SM BKN066 BKN084 23/09 A2985 RMK TS/LTNG TEMPO UNAVBL SLP114 DENSITY ALT 2200FT,CYNM,2023-07-07T21:00:00Z,49.77,-77.78,23.0,9.0,0,0,,9.0,29.84941,1011.4,,TRUE,,,,,,,,BKN,6600,BKN,8400,,,,,VFR,,,,,,,,,,,,METAR,276.0
CYNE 072100Z AUTO 31010G20KT 230V340 9SM BKN071 19/05 A2997 RMK TS/LTNG TEMPO UNAVBL SLP155 DENSITY ALT 1400FT,CYNE,2023-07-07T21:00:00Z,53.97,-97.83,19.0,5.0,310,10,20,9.0,29.970472,1015.5,,TRUE,,,,,,,,BKN,7100,,,,,,,VFR,,,,,,,,,,,,METAR,220.0
CYND 072100Z 27010G15KT 15SM SCT044 BKN240 28/19 A2980 RMK CU3CI2 SLP093 DENSITY ALT 2000FT,CYND,2023-07-07T21:00:00Z,45.52,-75.57,28.0,19.0,270,10,15,15.0,29.799213,1009.3,,,,,,,,,,SCT,4400,BKN,24000,,,,,VFR,,,,,,,,,,,,METAR,57.0
CYNA 072100Z AUTO 15008KT 9SM CLR 20/14 A2983 RMK TS/LTNG TEMPO UNAVBL SLP102 DENSITY ALT 800FT,CYNA,2023-07-07T21:00:00Z,50.18,-61.78,20.0,14.0,150,8,,9.0,29.828741,1010.2,,TRUE,,,,,,,,CLR,,,,,,,,VFR,,,,,,,,,,,,METAR,9.0
CYMX 072100Z 22006KT 30SM FEW050TCU SCT140 BKN250 26/21 A2982 RMK TCU1AC3CI2 SLP100 DENSITY ALT 1800FT,CYMX,2023-07-07T21:00:00Z,45.67,-74.03,26.0,21.0,220,6,,30.0,29.819881,1010.0,,,,,,,,,,FEW,5000,SCT,14000,BKN,25000,,,VFR,,,,,,,,,,,,METAR,78.0
CYMT 072100Z AUTO 26003KT 190V340 9SM FEW029 22/15 A2985 RMK TS/LTNG TEMPO UNAVBL SLP114 DENSITY ALT 2500FT,CYMT,2023-07-07T21:00:00Z,49.77,-74.52,22.0,15.0,260,3,,9.0,29.84941,1011.4,,TRUE,,,,,,,,FEW,2900,,,,,,,VFR,,,,,,,,,,,,METAR,388.0
CYMO 072100Z AUTO 07011G16KT 9SM FEW086 23/13 A2979 RMK TS/LTNG TEMPO UNAVBL SLP090 DENSITY ALT 1100FT,CYMO,2023-07-07T21:00:00Z,51.28,-80.62,23.0,13.0,70,11,16,9.0,29.790354,1009.0,,TRUE,,,,,,,,FEW,8600,,,,,,,VFR,,,,,,,,,,,,METAR,8.0
CYMM 072100Z AUTO 32006KT 250V340 9SM CLR 24/08 A3002 RMK TS/LTNG TEMPO UNAVBL SLP177 DENSITY ALT 2400FT,CYMM,2023-07-07T21:00:00Z,56.65,-111.22,24.0,8.0,320,6,,9.0,30.02067,1017.7,,TRUE,,,,,,,,CLR,,,,,,,,VFR,,,,,,,,,,,,METAR,371.0
CYMJ 072100Z 03005KT 350V050 12SM FEW065 BKN090 BKN300 24/07 A3005 RMK CU2AC3CI1 DENSITY ALT 3449FT TCU ASOCTD HZ SLP180,CYMJ,2023-07-07T21:00:00Z,50.32,-105.55,24.0,7.0,30,5,,12.0,30.050198,1018.0,,,,,,,,,,FEW,6500,BKN,9000,BKN,30000,,,VFR,,,,,,,,,,,,METAR,578.0
CYMA 072100Z 01005KT 300V110 20SM FEW060 31/10 A2980 RMK CU1 SLP096 DENSITY ALT 4000FT,CYMA,2023-07-07T21:00:00Z,63.62,-135.87,31.0,10.0,10,5,,20.0,29.799213,1009.6,,,,,,,,,,FEW,6000,,,,,,,VFR,,,,,,,,,,,,METAR,519.0
CYLW 072100Z AUTO 10015G28KT 9SM CLR 31/07 A2983 RMK TS/LTNG TEMPO UNAVBL SLP096 DENSITY ALT 3700FT,CYLW,2023-07-07T21:00:00Z,49.95,-119.37,31.0,7.0,100,15,28,9.0,29.828741,1009.6,,TRUE,,,,,,,,CLR,,,,,,,,VFR,,,,,,,,,,,,METAR,420.0
CYLL 072100Z 33004KT 300V360 15SM SCT052 SCT270 22/08 A3007 RMK CU3CI1 SLP190 DENSITY ALT 3400FT,CYLL,2023-07-07T21:00:00Z,53.32,-110.07,22.0,8.0,330,4,,15.0,30.070866,1019.0,,,,,,,,,,SCT,5200,SCT,27000,,,,,VFR,,,,,,,,,,,,METAR,664.0
CYLJ 072100Z VRB04KT 15SM FEW058 SCT200 21/07 A3006 RMK CU2CI1 SLP191 DENSITY ALT 2600FT,CYLJ,2023-07-07T21:00:00Z,54.12,-108.52,21.0,7.0,0,4,,15.0,30.059055,1019.1,,,,,,,,,,FEW,5800,SCT,20000,,,,,VFR,,,,,,,,,,,,METAR,481.0
CYLD 072100Z 26007KT 190V320 15SM SCT070 24/06 A2990 RMK AC4 SLP132 DENSITY ALT 2900FT,CYLD,2023-07-07T21:00:00Z,47.82,-83.35,24.0,6.0,260,7,,15.0,29.899607,1013.2,,,,,,,,,,SCT,7000,,,,,,,VFR,,,,,,,,,,,,METAR,449.0
CYLA 072100Z 04011KT 15SM SCT013 BKN120 BKN220 07/05 A2994 RMK SC3AC3CI1 LAST STFD OBS/ NXT 081200Z SLP141,CYLA,2023-07-07T21:00:00Z,59.3,-69.58,7.0,5.0,40,11,,15.0,29.940945,1014.1,,,,,,,,,,SCT,1300,BKN,12000,BKN,22000,,,VFR,,,,,,,,,,,,METAR,35.0
CYKY 072100Z 36003KT 260V030 13SM SCT071 SCT150 25/08 A3002 RMK CU3AC1 AC TR SLP163 DENSITY ALT 3900FT,CYKY,2023-07-07T21:00:00Z,51.52,-109.17,25.0,8.0,360,3,,13.0,30.02067,1016.3,,,,,,,,,,SCT,7100,SCT,15000,,,,,VFR,,,,,,,,,,,,METAR,692.0
CYKQ 072100Z 32005KT 300V360 15SM FEW060 FEW220 FEW260 23/07 A2982 RMK CU1CI1CS1 CU TR CI TR CS TR LAST STFD OBS/NEXT 091300 UTC VIA CYQB SLP101 DENSITY ALT 1200FT,CYKQ,2023-07-07T21:00:00Z,51.47,-78.75,23.0,7.0,320,5,,15.0,29.819881,1010.1,,,,,,,,,,FEW,6000,FEW,22000,FEW,26000,,,VFR,,,,,,,,,,,,SPECI,28.0
CYKJ 072100Z AUTO 29010G15KT 240V320 9SM BKN076 BKN089 21/03 A2998 RMK TS/LTNG TEMPO UNAVBL SLP169 DENSITY ALT 2700FT,CYKJ,2023-07-07T21:00:00Z,57.25,-105.62,21.0,3.0,290,10,15,9.0,29.97933,1016.9,,TRUE,,,,,,,,BKN,7600,BKN,8900,,,,,VFR,,,,,,,,,,,,METAR,519.0
CYKF 072100Z AUTO 30012G19KT 9SM CLR 23/09 A2995 RMK TS/LTNG TEMPO UNAVBL SLP140 DENSITY ALT 2200FT,CYKF,2023-07-07T21:00:00Z,43.47,-80.38,23.0,9.0,300,12,19,9.0,29.949802,1014.0,,TRUE,,,,,,,,CLR,,,,,,,,VFR,,,,,,,,,,,,METAR,312.0
CYKD 072100Z 01008KT 340V040 15SM FEW050 FEW160 SCT240 25/18 A2974 RMK SC1AC1CI1 SC TR SLP074 DENSITY ALT 1400FT,CYKD,2023-07-07T21:00:00Z,68.22,-135.0,25.0,18.0,10,8,,15.0,29.740158,1007.4,,,,,,,,,,FEW,5000,FEW,16000,SCT,24000,,,VFR,,,,,,,,,,,,METAR,7.0
CYKA 072100Z 19004KT 30SM FEW080CB SCT120 30/10 A2982 RMK CB2AC2 VIS LWR E FU SLP095 DENSITY ALT 3300FT,CYKA,2023-07-07T21:00:00Z,50.7,-120.45,30.0,10.0,190,4,,30.0,29.819881,1009.5,,,,,,,,,,FEW,8000,SCT,12000,,,,,VFR,,,,,,,,,,,,METAR,344.0
CYJT 072100Z 25010KT 15SM FEW035 SCT240 19/15 A2980 RMK SC1CI2 SLP095 DENSITY ALT 700FT,CYJT,2023-07-07T21:00:00Z,48.55,-58.57,19.0,15.0,250,10,,15.0,29.799213,1009.5,,,,,,,,,,FEW,3500,SCT,24000,,,,,VFR,,,,,,,,,,,,METAR,7.0
CYIV 072100Z AUTO 27009KT 9SM SCT055 BKN079 17/08 A2993 RMK TS/LTNG TEMPO UNAVBL SLP143 DENSITY ALT 1200FT,CYIV,2023-07-07T21:00:00Z,53.85,-94.65,17.0,8.0,270,9,,9.0,29.929134,1014.3,,TRUE,,,,,,,,SCT,5500,BKN,7900,,,,,VFR,,,,,,,,,,,,METAR,234.0
CYIO 072100Z 23014KT 15SM -RA FEW003 BKN018 OVC027 03/03 A2978 RMK ST1SC5SC3 ST TR SLP091,CYIO,2023-07-07T21:00:00Z,72.68,-77.97,3.0,3.0,230,14,,15.0,29.778543,1009.1,,,,,,,,,-RA,FEW,300,BKN,1800,OVC,2700,,,MVFR,,,,,,,,,,,,METAR,61.0
CYIN 072100Z AUTO 35005KT 300V090 9SM CLR 25/09 A2998 RMK TS/LTNG TEMPO UNAVBL SLP136 DENSITY ALT 5600FT,CYIN,2023-07-07T21:00:00Z,51.27,-121.68,25.0,9.0,350,5,,9.0,29.97933,1013.6,,TRUE,,,,,,,,CLR,,,,,,,,VFR,,,,,,,,,,,,METAR,1127.0
CYHZ 072100Z 22010G16KT 15SM FEW055TCU SCT120 29/20 A2986 RMK TCU2AC1 DIST SH NE QUAD SLP111 DENSITY ALT 2300FT,CYHZ,2023-07-07T21:00:00Z,44.87,-63.5,29.0,20.0,220,10,16,15.0,29.861221,1011.1,,,,,,,,,,FEW,5500,SCT,12000,,,,,VFR,,,,,,,,,,,,METAR,136.0
CYHY 072100Z 33007KT 15SM FEW100 FEW130 OVC250 25/14 A2989 RMK AC1AC1CI8 AC TR AC TR SLP128 DENSITY ALT 1900FT,CYHY,2023-07-07T21:00:00Z,60.83,-115.77,25.0,14.0,330,7,,15.0,29.890747,1012.8,,,,,,,,,,FEW,10000,FEW,13000,OVC,25000,,,VFR,,,,,,,,,,,,METAR,159.0
CYHU 072100Z AUTO 21012G17KT 9SM FEW055 26/21 A2981 RMK TS/LTNG TEMPO UNAVBL SLP098 DENSITY ALT 1600FT,CYHU,2023-07-07T21:00:00Z,45.52,-73.42,26.0,21.0,210,12,17,9.0,29.811024,1009.8,,TRUE,,,,,,,,FEW,5500,,,,,,,VFR,,,,,,,,,,,,METAR,26.0
CYHM 072100Z 27010G15KT 15SM FEW045 FEW290 24/13 A2993 RMK CF1CI1 CF TR SLP135 DENSITY ALT 2000FT,CYHM,2023-07-07T21:00:00Z,43.17,-79.93,24.0,13.0,270,10,15,15.0,29.929134,1013.5,,,,,,,,,,FEW,4500,FEW,29000,,,,,VFR,,,,,,,,,,,,METAR,237.0
CYHK 072100Z 20005KT 4SM -DZ BR OVC019 05/05 A2978 RMK ST8 SLP090,CYHK,2023-07-07T21:00:00Z,68.62,-95.85,5.0,5.0,200,5,,4.0,29.778543,1009.0,,,,,,,,,-DZ BR,OVC,1900,,,,,,,MVFR,,,,,,,,,,,,METAR,36.0
CYHD 072100Z AUTO 29008G16KT 270V340 9SM FEW071 21/07 A2985 RMK TS/LTNG TEMPO UNAVBL SLP114 DENSITY ALT 2400FT,CYHD,2023-07-07T21:00:00Z,49.82,-92.75,21.0,7.0,290,8,16,9.0,29.84941,1011.4,,TRUE,,,,,,,,FEW,7100,,,,,,,VFR,,,,,,,,,,,,METAR,414.0
CYGX 072100Z 28006KT 250V320 15SM SCT045 BKN260 19/07 A2986 RMK CU4CI3 SLP117 DENSITY ALT 1200FT,CYGX,2023-07-07T21:00:00Z,56.35,-94.7,19.0,7.0,280,6,,15.0,29.861221,1011.7,,,,,,,,,,SCT,4500,BKN,26000,,,,,VFR,,,,,,,,,,,,METAR,145.0
CYGW 072100Z AUTO 01006KT 310V030 9SM CLR 20/02 A2981 RMK TS/LTNG TEMPO UNAVBL SLP097 DENSITY ALT 800FT,CYGW,2023-07-07T21:00:00Z,55.27,-77.77,20.0,2.0,10,6,,9.0,29.811024,1009.7,,TRUE,,,,,,,,CLR,,,,,,,,VFR,,,,,,,,,,,,METAR,13.0
CYGV 072100Z AUTO 15006KT 9SM CLR 20/14 A2981 RMK TS/LTNG TEMPO UNAVBL SLP098 DENSITY ALT 900FT,CYGV,2023-07-07T21:00:00Z,50.28,-63.62,20.0,14.0,150,6,,9.0,29.811024,1009.8,,TRUE,,,,,,,,CLR,,,,,,,,VFR,,,,,,,,,,,,METAR,32.0
CYGT 072100Z 11006KT 15SM SCT017 BKN022 07/03 A2983 RMK SC3SC4 LAST STFD OBS/NXT/ 081500Z SLP106,CYGT,2023-07-07T21:00:00Z,69.37,-81.82,7.0,3.0,110,6,,15.0,29.828741,1010.6,,,,,,,,,,SCT,1700,BKN,2200,,,,,MVFR,,,,,,,,,,,,METAR,49.0
CYGR 072100Z 13006KT 20SM SCT270 18/15 A2984 RMK CI4 SLP108 DENSITY ALT 500FT,CYGR,2023-07-07T21:00:00Z,47.42,-61.77,18.0,15.0,130,6,,20.0,29.840551,1010.8,,,,,,,,,,SCT,27000,,,,,,,VFR,,,,,,,,,,,,METAR,4.0
CYGP 072100Z CCA VRB02KT 15SM FEW077 BKN130 BKN220 19/18 A2981 RMK AC2ACC3CI2 SLP095 DENSITY ALT 800FT,CYGP,2023-07-07T21:00:00Z,48.77,-64.47,19.0,18.0,0,2,,15.0,29.811024,1009.5,,,,,,,,,,FEW,7700,BKN,13000,BKN,22000,,,VFR,,,,,,,,,,,,SPECI,31.0
CYGL 072100Z 13009KT 100V170 15SM SCT075 SCT240 22/04 A2982 RMK AC3CI1 SLP105 DENSITY ALT 1800FT,CYGL,2023-07-07T21:00:00Z,53.62,-77.7,22.0,4.0,130,9,,15.0,29.819881,1010.5,,,,,,,,,,SCT,7500,SCT,24000,,,,,VFR,,,,,,,,,,,,METAR,192.0
CYGK 072100Z 19013KT 15SM FEW040 FEW140 SCT250 26/22 A2984 RMK CU1AC1CI2 SLP105 DENSITY ALT 1800FT,CYGK,2023-07-07T21:00:00Z,44.22,-76.58,26.0,22.0,190,13,,15.0,29.840551,1010.5,,,,,,,,,,FEW,4000,FEW,14000,SCT,25000,,,VFR,,,,,,,,,,,,METAR,91.0
CYGH 072100Z 13005KT 100V200 20SM FEW120 FEW210 31/11 A2976 RMK AC1CI1 AC TR SLP083 DENSITY ALT 2300FT,CYGH,2023-07-07T21:00:00Z,66.23,-128.63,31.0,11.0,130,5,,20.0,29.760826,1008.3,,,,,,,,,,FEW,12000,FEW,21000,,,,,VFR,,,,,,,,,,,,METAR,72.0
CYFS 072100Z 13004KT 070V200 15SM FEW230 SCT250 27/11 A2987 RMK CS2CI2 SLP120 DENSITY ALT 2200FT,CYFS,2023-07-07T21:00:00Z,61.75,-121.22,27.0,11.0,130,4,,15.0,29.870079,1012.0,,,,,,,,,,FEW,23000,SCT,25000,,,,,VFR,,,,,,,,,,,,METAR,174.0
CYFR 072100Z 27005KT 230V330 15SM FEW110 SCT230 BKN270 24/12 A2988 RMK AC1CC2CS3 SLP124 DENSITY ALT 1800FT,CYFR,2023-07-07T21:00:00Z,61.17,-113.68,24.0,12.0,270,5,,15.0,29.878937,1012.4,,,,,,,,,,FEW,11000,SCT,23000,BKN,27000,,,VFR,,,,,,,,,,,,METAR,159.0
CYFO 072100Z 33007G16KT 280V360 15SM BKN065 21/04 A3000 RMK CU5 SLP167 DENSITY ALT 1900FT,CYFO,2023-07-07T21:00:00Z,54.67,-101.67,21.0,4.0,330,7,16,15.0,30.0,1016.7,,,,,,,,,,BKN,6500,,,,,,,VFR,,,,,,,,,,,,METAR,303.0
CYFC 072100Z AUTO 17008KT 9SM CLR 31/22 A2977 RMK TS/LTNG TEMPO UNAVBL SLP083 DENSITY ALT 2100FT,CYFC,2023-07-07T21:00:00Z,45.87,-66.53,31.0,22.0,170,8,,9.0,29.769686,1008.3,,TRUE,,,,,,,,CLR,,,,,,,,VFR,,,,,,,,,,,,METAR,16.0
CYFB 072100Z 15003KT 30SM FEW028 BKN250 13/06 A3000 RMK SC1CI6 SC TR SLP162,CYFB,2023-07-07T21:00:00Z,63.75,-68.55,13.0,6.0,150,3,,30.0,30.0,1016.2,,,,,,,,,,FEW,2800,BKN,25000,,,,,VFR,,,,,,,,,,,,METAR,23.0
CYEV 072100Z 06003KT 320V130 15SM FEW062 FEW100 FEW260 28/12 A2974 RMK CU1AC1CI1 CU TR CI TR SLP074 DENSITY ALT 2000FT,CYEV,2023-07-07T21:00:00Z,68.32,-133.5,28.0,12.0,60,3,,15.0,29.740158,1007.4,,,,,,,,,,FEW,6200,FEW,10000,FEW,26000,,,VFR,,,,,,,,,,,,METAR,74.0
CYET 072100Z AUTO 06009KT 030V120 9SM FEW043 24/13 A3005 RMK TS/LTNG TEMPO UNAVBL SLP176 DENSITY ALT 4600FT,CYET,2023-07-07T21:00:00Z,53.57,-116.47,24.0,13.0,60,9,,9.0,30.050198,1017.6,,TRUE,,,,,,,,FEW,4300,,,,,,,VFR,,,,,,,,,,,,METAR,925.0
CYER 072100Z AUTO 04007KT 9SM FEW240 08/07 A2986 RMK TS/LTNG TEMPO UNAVBL SLP115,CYER,2023-07-07T21:00:00Z,56.02,-87.68,8.0,7.0,40,7,,9.0,29.861221,1011.5,,TRUE,,,,,,,,FEW,24000,,,,,,,VFR,,,,,,,,,,,,METAR,11.0
CYEN 072100Z AUTO 33010G19KT 9SM CLR 24/06 A3004 RMK TS/LTNG TEMPO UNAVBL SLP178 DENSITY ALT 3300FT,CYEN,2023-07-07T21:00:00Z,49.22,-102.97,24.0,6.0,330,10,19,9.0,30.041338,1017.8,,TRUE,,,,,,,,CLR,,,,,,,,VFR,,,,,,,,,,,,METAR,580.0
CYEK 072100Z 33006KT 15SM BKN055 13/03 A2980 RMK SC7 SLP095,CYEK,2023-07-07T21:00:00Z,61.1,-94.07,13.0,3.0,330,6,,15.0,29.799213,1009.5,,,,,,,,,,BKN,5500,,,,,,,VFR,,,,,,,,,,,,METAR,7.0
CYEG 072100Z 16006KT 130V220 15SM BKN049 BKN220 24/13 A3006 RMK CU5CI1 CI TR SLP182 DENSITY ALT 3800FT,CYEG,2023-07-07T21:00:00Z,53.3,-113.58,24.0,13.0,160,6,,15.0,30.059055,1018.2,,,,,,,,,,BKN,4900,BKN,22000,,,,,VFR,,,,,,,,,,,,METAR,710.0
CYED 072100Z 06007KT 10SM FEW056 BKN250 24/10 A3008 RMK CU1CI7 DENSITY ALT 3848FT FU SLP188,CYED,2023-07-07T21:00:00Z,53.67,-113.47,24.0,10.0,60,7,,10.0,30.079725,1018.8,,,,,,,,,,FEW,5600,BKN,25000,,,,,VFR,,,,,,,,,,,,METAR,688.0
CYDQ 072100Z AUTO 12008KT 070V160 9SM CLR 26/07 A3003 RMK TS/LTNG TEMPO UNAVBL SLP176 DENSITY ALT 3800FT,CYDQ,2023-07-07T21:00:00Z,55.75,-120.18,26.0,7.0,120,8,,9.0,30.029528,1017.6,,TRUE,,,,,,,,CLR,,,,,,,,VFR,,,,,,,,,,,,METAR,658.0
CYDP 072100Z 06008KT 15SM FEW005 FEW008 FEW012 BKN230 07/05 A2986 RMK SC1SC1SF1CS6 SC TR SF TR SLP115,CYDP,2023-07-07T21:00:00Z,56.53,-61.68,7.0,5.0,60,8,,15.0,29.861221,1011.5,,,,,,,,,,FEW,500,FEW,800,FEW,1200,BKN,23000,VFR,,,,,,,,,,,,METAR,14.0
CYDN 072100Z AUTO 02009G15KT 9SM SCT071 SCT086 20/07 A3003 RMK TS/LTNG TEMPO UNAVBL SLP176 DENSITY ALT 1800FT,CYDN,2023-07-07T21:00:00Z,51.1,-100.05,20.0,7.0,20,9,15,9.0,30.029528,1017.6,,TRUE,,,,,,,,SCT,7100,SCT,8600,,,,,VFR,,,,,,,,,,,,METAR,302.0
CYDL 072100Z AUTO 02006KT 300V070 9SM CLR 28/05 A2996 RMK TS/LTNG TEMPO UNAVBL SLP135 DENSITY ALT 4700FT,CYDL,2023-07-07T21:00:00Z,58.42,-130.02,28.0,5.0,20,6,,9.0,29.958662,1013.5,,TRUE,,,,,,,,CLR,,,,,,,,VFR,,,,,,,,,,,,METAR,804.0
CYDF 072100Z 09003KT 15SM BKN027 22/18 A2979 RMK SC6 SLP092 DENSITY ALT 1100FT,CYDF,2023-07-07T21:00:00Z,49.22,-57.4,22.0,18.0,90,3,,15.0,29.790354,1009.2,,,,,,,,,,BKN,2700,,,,,,,MVFR,,,,,,,,,,,,METAR,15.0
CYDC 072100Z 11012G25KT 25SM SCT090CB BKN097 BKN130 27/08 A2992 RMK CB3AC2AC2 SLP113 DENSITY ALT 4200FT,CYDC,2023-07-07T21:00:00Z,49.47,-120.52,27.0,8.0,110,12,25,25.0,29.920275,1011.3,,,,,,,,,,SCT,9000,BKN,9700,BKN,13000,,,VFR,,,,,,,,,,,,METAR,703.0
CYDB 072100Z 11009G15KT 15SM FEW100 26/08 A2985 RMK AC1 AC TR SLP118 DENSITY ALT 4600FT,CYDB,2023-07-07T21:00:00Z,61.37,-139.02,26.0,8.0,110,9,15,15.0,29.84941,1011.8,,,,,,,,,,FEW,10000,,,,,,,VFR,,,,,,,,,,,,METAR,807.0
CYDA 072100Z 36004KT 320V080 20SM FEW230 31/13 A2974 RMK CI1 SLP075 DENSITY ALT 3500FT,CYDA,2023-07-07T21:00:00Z,64.03,-139.12,31.0,13.0,360,4,,20.0,29.740158,1007.5,,,,,,,,,,FEW,23000,,,,,,,VFR,,,,,,,,,,,,METAR,338.0
CYCY 072100Z AUTO 11009KT 9SM OVC096 03/02 A2981 RMK SLP099,CYCY,2023-07-07T21:00:00Z,70.48,-68.52,3.0,2.0,110,9,,9.0,29.811024,1009.9,,TRUE,,,,,,,,OVC,9600,,,,,,,VFR,,,,,,,,,,,,METAR,73.0
CYCS 072100Z 17007KT 15SM BKN039 BKN240 12/06 A2974 RMK SC5CI2 SLP073,CYCS,2023-07-07T21:00:00Z,63.35,-90.72,12.0,6.0,170,7,,15.0,29.740158,1007.3,,,,,,,,,,BKN,3900,BKN,24000,,,,,VFR,,,,,,,,,,,,METAR,7.0
CYCQ 072100Z 10004KT 020V130 7SM FEW025 FEW030 FEW100 BKN220 26/12 A2999 RMK SC1CU1AC1CI3 CU TR FU ALQDS VIS SW15 SLP161 DENSITY ALT 3700FT,CYCQ,2023-07-07T21:00:00Z,55.7,-121.62,26.0,12.0,100,4,,7.0,29.991142,1016.1,,,,,,,,,,FEW,2500,FEW,3000,FEW,10000,BKN,22000,VFR,,,,,,,,,,,,METAR,614.0
CYCP 072100Z VRB03KT 15SM SCT055TCU BKN080 BKN230 30/07 A2988 RMK TCU4CU1CC1 CC TR HZ ALQDS SLP116 DENSITY ALT 4500FT,CYCP,2023-07-07T21:00:00Z,52.13,-119.28,30.0,7.0,0,3,,15.0,29.878937,1011.6,,,,,,,,,,SCT,5500,BKN,8000,BKN,23000,,,VFR,,,,,,,,,,,,METAR,677.0
CYCO 072100Z 02008KT 010V070 15SM FEW056 BKN100 22/08 A2977 RMK CU1AC4 SLP084 DENSITY ALT 1100FT,CYCO,2023-07-07T21:00:00Z,67.82,-115.15,22.0,8.0,20,8,,15.0,29.769686,1008.4,,,,,,,,,,FEW,5600,BKN,10000,,,,,VFR,,,,,,,,,,,,METAR,20.0
CYCK 072100Z AUTO 19009KT 9SM CLR 24/17 A2995 RMK TS/LTNG TEMPO UNAVBL SLP142 DENSITY ALT 1900FT,CYCK,2023-07-07T21:00:00Z,42.3,-82.08,24.0,17.0,190,9,,9.0,29.949802,1014.2,,TRUE,,,,,,,,CLR,,,,,,,,VFR,,,,,,,,,,,,METAR,196.0
CYCG 072100Z 12004KT 040V180 15SM BKN060CB BKN160 BKN250 33/06 A2985 RMK CB6AC1CI1 AC TR SLP099 DENSITY ALT 4100FT,CYCG,2023-07-07T21:00:00Z,49.28,-117.63,33.0,6.0,120,4,,15.0,29.84941,1009.9,,,,,,,,,,BKN,6000,BKN,16000,BKN,25000,,,VFR,,,,,,,,,,,,METAR,487.0
CYCD 072100Z 07007KT 040V140 20SM FEW028 24/13 A2984 RMK CF1 CF TR HZ ALOF SLP108 DENSITY ALT 1200FT,CYCD,2023-07-07T21:00:00Z,49.05,-123.87,24.0,13.0,70,7,,20.0,29.840551,1010.8,,,,,,,,,,FEW,2800,,,,,,,VFR,,,,,,,,,,,,METAR,30.0
CYCB 072100Z 24007KT 15SM FEW025 FEW047 SCT190 BKN240 09/03 A2980 RMK CU1SC2AC2CI1 CU TR SLP096,CYCB,2023-07-07T21:00:00Z,69.1,-105.12,9.0,3.0,240,7,,15.0,29.799213,1009.6,,,,,,,,,,FEW,2500,FEW,4700,SCT,19000,BKN,24000,VFR,,,,,,,,,,,,METAR,19.0
CYCA 072100Z AUTO 10010G18KT 9SM CLR 25/16 A2979 RMK TS/LTNG TEMPO UNAVBL SLP089 DENSITY ALT 1500FT,CYCA,2023-07-07T21:00:00Z,53.68,-57.03,25.0,16.0,100,10,18,9.0,29.790354,1008.9,,TRUE,,,,,,,,CLR,,,,,,,,VFR,,,,,,,,,,,,METAR,12.0
CYBX 072100Z 11006KT 090V150 15SM FEW025 SCT250 20/16 A2983 RMK SC1CI2 SLP103 DENSITY ALT 800FT,CYBX,2023-07-07T21:00:00Z,51.45,-57.18,20.0,16.0,110,6,,15.0,29.828741,1010.3,,,,,,,,,,FEW,2500,SCT,25000,,,,,VFR,,,,,,,,,,,,METAR,32.0
CYBW 072100Z AUTO 08011KT 040V140 9SM SCT060 22/12 A3009 RMK TS/LTNG TEMPO UNAVBL SLP187 DENSITY ALT 5500FT,CYBW,2023-07-07T21:00:00Z,51.1,-114.37,22.0,12.0,80,11,,9.0,30.088583,1018.7,,TRUE,,,,,,,,SCT,6000,,,,,,,VFR,,,,,,,,,,,,METAR,1197.0
CYBV 072100Z 33012G18KT 15SM FEW045 SCT097 17/05 A2998 RMK CU1AC3 CU TR LAST STFD OBS/NEXT 101200UTC SLP160 DENSITY ALT 1100FT,CYBV,2023-07-07T21:00:00Z,52.35,-97.03,17.0,5.0,330,12,18,15.0,29.97933,1016.0,,,,,,,,,,FEW,4500,SCT,9700,,,,,VFR,,12.0,,,,,,,,,,METAR,219.0
CYBU 072100Z AUTO VRB02KT 9SM FEW071 20/02 A3007 RMK TS/LTNG TEMPO UNAVBL SLP192 DENSITY ALT 2000FT,CYBU,2023-07-07T21:00:00Z,53.32,-104.0,20.0,2.0,0,2,,9.0,30.070866,1019.2,,TRUE,,,,,,,,FEW,7100,,,,,,,VFR,,,,,,,,,,,,METAR,369.0
CYBQ 072100Z AUTO 36011KT 310V040 9SM CLR 18/05 A2986 RMK TS/LTNG TEMPO UNAVBL SLP122 DENSITY ALT 1600FT,CYBQ,2023-07-07T21:00:00Z,58.7,-98.5,18.0,5.0,360,11,,9.0,29.861221,1012.2,,TRUE,,,,,,,,CLR,,,,,,,,VFR,,,,,,,,,,,,METAR,272.0
CYBL 072100Z 08007KT 070V130 30SM FEW050 SCT250 23/13 A2985 RMK CU1CI2 SLP108 DENSITY ALT 1500FT,CYBL,2023-07-07T21:00:00Z,49.95,-125.27,23.0,13.0,80,7,,30.0,29.84941,1010.8,,,,,,,,,,FEW,5000,SCT,25000,,,,,VFR,,,,,,,,,,,,METAR,94.0
CYBG 072100Z 31008KT 20SM BKN035TCU BKN180 25/21 A2978 RMK TCU6AC1 DENSITY ALT 2269FT TCU OHD SLP085,CYBG,2023-07-07T21:00:00Z,48.33,-70.98,25.0,21.0,310,8,,20.0,29.778543,1008.5,,,,,,,,,,BKN,3500,BKN,18000,,,,,VFR,,,,,,,,,,,,METAR,151.0
CYBC 072100Z AUTO 05008KT 6SM BR OVC003 16/15 A2978 RMK TS/LTNG TEMPO UNAVBL SLP088 DENSITY ALT 400FT,CYBC,2023-07-07T21:00:00Z,49.13,-68.2,16.0,15.0,50,8,,6.0,29.778543,1008.8,,TRUE,,,,,,,BR,OVC,300,,,,,,,LIFR,,,,,,,,,,,,METAR,20.0
CYBB 072100Z 27006KT 15SM BKN040 08/03 A2976 RMK SC6 SLP081,CYBB,2023-07-07T21:00:00Z,68.53,-89.78,8.0,3.0,270,6,,15.0,29.760826,1008.1,,,,,,,,,,BKN,4000,,,,,,,VFR,,,,,,,,,,,,SPECI,13.0
CYAZ 072100Z 16007KT 15SM SCT003 BKN015 BKN021TCU 15/13 A2995 RMK SF1SC4TCU2 VIS LWR SW/TCU NW SLP143,CYAZ,2023-07-07T21:00:00Z,49.08,-125.77,15.0,13.0,160,7,,15.0,29.949802,1014.3,,,,,,,,,,SCT,300,BKN,1500,BKN,2100,,,MVFR,,,,,,,,,,,,METAR,26.0
CYAT 072100Z AUTO 16011G17KT 110V220 9SM 25/12 A2973 RMK CLD MISG TS/LTNG TEMPO UNAVBL SLP069 DENSITY ALT 1400FT,CYAT,2023-07-07T21:00:00Z,52.93,-82.43,25.0,12.0,160,11,17,9.0,29.731298,1006.9,,TRUE,,,,,,,,,,,,,,,,,,,,,,,,,,,,METAR,4.0
CYAM 072100Z 30004KT 260V360 20SM FEW044 FEW160 SCT220 24/09 A2992 RMK CU1AC1CI3 CU TR AC TR SLP134 DENSITY ALT 1900FT,CYAM,2023-07-07T21:00:00Z,46.48,-84.52,24.0,9.0,300,4,,20.0,29.920275,1013.4,,,,,,,,,,FEW,4400,FEW,16000,SCT,22000,,,VFR,,,,,,,,,,,,METAR,186.0
CYAH 072100Z AUTO VRB07KT 9SM CLR 21/08 A2982 RMK TS/LTNG TEMPO UNAVBL SLP108 DENSITY ALT 2000FT,CYAH,2023-07-07T21:00:00Z,53.75,-73.67,21.0,8.0,0,7,,9.0,29.819881,1010.8,,TRUE,,,,,,,,CLR,,,,,,,,VFR,,,,,,,,,,,,METAR,298.0
CXZV 072100Z AUTO 09006KT 16/15 RMK AO1 SLP089 T01600146 58008,CXZV,2023-07-07T21:00:00Z,50.22,-66.25,16.0,14.6,90,6,,,,1008.9,,TRUE,TRUE,,,,,,,,,,,,,,,,-0.8,,,,,,,,,,,METAR,43.0
CXZC 072100Z AUTO 06006KT 23/14 RMK AO1 SLP092 T02300136 57011,CXZC,2023-07-07T21:00:00Z,51.3,-80.62,23.0,13.6,60,6,,,,1009.2,,TRUE,TRUE,,,,,,,,,,,,,,,,-1.1,,,,,,,,,,,METAR,8.0
CXYH 072100Z AUTO 20004KT 29/14 RMK AO1 SLP104 T02920140 57019,CXYH,2023-07-07T21:00:00Z,61.25,-123.75,29.2,14.0,200,4,,,,1010.4,,TRUE,TRUE,,,,,,,,,,,,,,,,-1.9,,,,,,,,,,,METAR,197.0
CXWN 072100Z AUTO 36009G15KT 20/08 RMK AO1 SLP150 T02030077 53006,CXWN,2023-07-07T21:00:00Z,49.88,-97.13,20.3,7.7,360,9,15,,,1015.0,,TRUE,TRUE,,,,,,,,,,,,,,,,0.6,,,,,,,,,,,METAR,232.0
CXWM 072100Z AUTO 08004KT 24/07 RMK AO1 T02350074,CXWM,2023-07-07T21:00:00Z,49.5,-112.12,23.5,7.4,80,4,,,,,,TRUE,TRUE,,,,,,,,,,,,,,,,,,,,,,,,,,,METAR,947.0
CXWB 072100Z AUTO 14005KT 13/01 RMK AO1 SLP069 T01260008 50001,CXWB,2023-07-07T21:00:00Z,65.88,-89.45,12.6,0.8,140,5,,,,1006.9,,TRUE,TRUE,,,,,,,,,,,,,,,,0.1,,,,,,,,,,,METAR,14.0
CXVW 072100Z AUTO 03003KT 23/07 RMK AO1 SLP180 T02270070 58006,CXVW,2023-07-07T21:00:00Z,55.1,-117.2,22.7,7.0,30,3,,,,1018.0,,TRUE,TRUE,,,,,,,,,,,,,,,,-0.6,,,,,,,,,,,METAR,696.0
CXVN 072100Z AUTO 31006KT 26/14 RMK AO1 SLP126 T02560135 58006,CXVN,2023-07-07T21:00:00Z,43.18,-79.4,25.6,13.5,310,6,,,,1012.6,,TRUE,TRUE,,,,,,,,,,,,,,,,-0.6,,,,,,,,,,,METAR,86.0
CXVM 072100Z AUTO 34005KT 23/09 RMK AO1 T02260091,CXVM,2023-07-07T21:00:00Z,53.35,-110.88,22.6,9.1,340,5,,,,,,TRUE,TRUE,,,,,,,,,,,,,,,,,,,,,,,,,,,METAR,622.0
CXTV 072100Z AUTO 35009KT 24/16 RMK AO1 SLP086 T02430158 56001,CXTV,2023-07-07T21:00:00Z,68.75,-133.5,24.3,15.8,350,9,,,,1008.6,,TRUE,TRUE,,,,,,,,,,,,,,,,-0.1,,,,,,,,,,,METAR,91.0
CXTP 072100Z AUTO 34003KT 18/15 RMK AO1 SLP087 T01790151 53001,CXTP,2023-07-07T21:00:00Z,48.55,-53.97,17.9,15.1,340,3,,,,1008.7,,TRUE,TRUE,,,,,,,,,,,,,,,,0.1,,,,,,,,,,,METAR,104.0
CXTO 072100Z AUTO 27/10 RMK AO1 SLP122 T02720098 58007,CXTO,2023-07-07T21:00:00Z,43.67,-79.4,27.2,9.8,,,,,,1012.2,,TRUE,TRUE,,,,,,,,,,,,,,,,-0.7,,,,,,,,,,,METAR,115.0
CXTN 072100Z AUTO 21006KT 16/08 RMK AO1 SLP126 T01550082 50002,CXTN,2023-07-07T21:00:00Z,69.2,-122.35,15.5,8.2,210,6,,,,1012.6,,TRUE,TRUE,,,,,,,,,,,,,,,,0.2,,,,,,,,,,,METAR,564.0
CXTH 072100Z AUTO 36006KT 23/08 RMK AO1 T02290076,CXTH,2023-07-07T21:00:00Z,53.63,-111.68,22.9,7.6,360,6,,,,,,TRUE,TRUE,,,,,,,,,,,,,,,,,,,,,,,,,,,METAR,679.0
CXTD 072100Z AUTO 03004KT 25/20 RMK AO1 SLP115 T02460195 58012,CXTD,2023-07-07T21:00:00Z,45.62,-61.68,24.6,19.5,30,4,,,,1011.5,,TRUE,TRUE,,,,,,,,,,,,,,,,-1.2,,,,,,,,,,,METAR,58.0
CXSP 072100Z AUTO 33006KT 22/07 RMK AO1 T02190072,CXSP,2023-07-07T21:00:00Z,54.02,-111.27,21.9,7.2,330,6,,,,,,TRUE,TRUE,,,,,,,,,,,,,,,,,,,,,,,,,,,METAR,652.0
CXSL 072100Z AUTO 35006KT 22/08 RMK AO1 T02240081,CXSL,2023-07-07T21:00:00Z,54.28,-112.5,22.4,8.1,350,6,,,,,,TRUE,TRUE,,,,,,,,,,,,,,,,,,,,,,,,,,,METAR,680.0
CXSH 072100Z AUTO 19007KT 27/21 RMK AO1 SLP093 T02710214 56006,CXSH,2023-07-07T21:00:00Z,46.55,-72.73,27.1,21.4,190,7,,,,1009.3,,TRUE,TRUE,,,,,,,,,,,,,,,,-0.6,,,,,,,,,,,METAR,106.0
CXSE 072100Z AUTO 07004KT 03/M00 RMK AO1 SLP103 T00271001 53012,CXSE,2023-07-07T21:00:00Z,73.77,-105.28,2.7,-0.1,70,4,,,,1010.3,,TRUE,TRUE,,,,,,,,,,,,,,,,1.2,,,,,,,,,,,METAR,11.0
CXSC 072100Z AUTO 24006KT 26/06 RMK AO1 T02620058,CXSC,2023-07-07T21:00:00Z,50.3,-110.08,26.2,5.8,240,6,,,,,,TRUE,TRUE,,,,,,,,,,,,,,,,,,,,,,,,,,,METAR,809.0
CXRL 072100Z AUTO 01003KT 22/07 RMK AO1 T02200073,CXRL,2023-07-07T21:00:00Z,54.5,-111.7,22.0,7.3,10,3,,,,,,TRUE,TRUE,,,,,,,,,,,,,,,,,,,,,,,,,,,METAR,585.0
CXRH 072100Z AUTO 32005KT 18/14 RMK AO1 SLP100 T01760143 58011,CXRH,2023-07-07T21:00:00Z,49.57,-57.88,17.6,14.3,320,5,,,,1010.0,,TRUE,TRUE,,,,,,,,,,,,,,,,-1.1,,,,,,,,,,,METAR,68.0
CXRB 072100Z AUTO 31007KT 06/03 RMK AO1 SLP100 T00580026 53007,CXRB,2023-07-07T21:00:00Z,74.72,-94.98,5.8,2.6,310,7,,,,1010.0,,TRUE,TRUE,,,,,,,,,,,,,,,,0.7,,,,,,,,,,,METAR,30.0
CXPL 072100Z AUTO 01008KT 24/10 RMK AO1 T02410095,CXPL,2023-07-07T21:00:00Z,51.13,-111.7,24.1,9.5,10,8,,,,,,TRUE,TRUE,,,,,,,,,,,,,,,,,,,,,,,,,,,METAR,735.0
CXPC 072100Z AUTO 20/14 RMK AO1 SLP136 T01950135 58002,CXPC,2023-07-07T21:00:00Z,45.35,-80.05,19.5,13.5,,,,,,1013.6,,TRUE,TRUE,,,,,,,,,,,,,,,,-0.2,,,,,,,,,,,METAR,176.0
CXPA 072100Z AUTO 09006KT 23/13 RMK AO1 T02260127,CXPA,2023-07-07T21:00:00Z,55.62,-118.3,22.6,12.7,90,6,,,,,,TRUE,TRUE,,,,,,,,,,,,,,,,,,,,,,,,,,,METAR,628.0
CXOY 072100Z AUTO 36009KT 27/09 RMK AO1 T02670089,CXOY,2023-07-07T21:00:00Z,51.35,-110.35,26.7,8.9,360,9,,,,,,TRUE,TRUE,,,,,,,,,,,,,,,,,,,,,,,,,,,METAR,784.0
CXOX 072100Z AUTO 13008KT 20/03 RMK AO1 SLP178 T01960028 58013,CXOX,2023-07-07T21:00:00Z,55.15,-105.27,19.6,2.8,130,8,,,,1017.8,,TRUE,TRUE,,,,,,,,,,,,,,,,-1.3,,,,,,,,,,,METAR,381.0
CXOL 072100Z AUTO 03005KT 23/12 RMK AO1 T02280121,CXOL,2023-07-07T21:00:00Z,51.77,-114.08,22.8,12.1,30,5,,,,,,TRUE,TRUE,,,,,,,,,,,,,,,,,,,,,,,,,,,METAR,1026.0
CXNP 072100Z AUTO 24011G16KT 26/18 RMK AO1 PK WND 25017/2006 SLP103 T02570175 55004,CXNP,2023-07-07T21:00:00Z,45.75,-64.23,25.7,17.5,240,11,16,,,1010.3,,TRUE,TRUE,,,,,,,,,,,,,,,,-0.4,,,,,,,,,,,METAR,19.0
CXNM 072100Z AUTO 27003KT 24/14 RMK AO1 T02410135,CXNM,2023-07-07T21:00:00Z,46.82,-60.67,24.1,13.5,270,3,,,,,,TRUE,TRUE,,,,,,,,,,,,,,,,,,,,,,,,,,,METAR,452.0
CXMY 072100Z AUTO 29/22 RMK AO1 T02920216,CXMY,2023-07-07T21:00:00Z,44.98,-62.48,29.2,21.6,,,,,,,,TRUE,TRUE,,,,,,,,,,,,,,,,,,,,,,,,,,,METAR,37.0
CXMO 072100Z AUTO 05009KT 20/15 RMK AO1 T01990151,CXMO,2023-07-07T21:00:00Z,51.67,-112.68,19.9,15.1,50,9,,,,,,TRUE,TRUE,,,,,,,,,,,,,,,,,,,,,,,,,,,METAR,837.0
CXMM 072100Z AUTO 29006KT 24/08 RMK AO1 SLP180 T02360081 58011,CXMM,2023-07-07T21:00:00Z,56.65,-111.22,23.6,8.1,290,6,,,,1018.0,,TRUE,TRUE,,,,,,,,,,,,,,,,-1.1,,,,,,,,,,,METAR,372.0
CXMI 072100Z AUTO 22014KT 25/18 RMK AO1 PK WND 22020/2044 SLP103 T02500179 56006,CXMI,2023-07-07T21:00:00Z,44.6,-63.53,25.0,17.9,220,14,,,,1010.3,,TRUE,TRUE,,,,,,,,,,,,,,,,-0.6,,,,,,,,,,,METAR,15.0
CXMG 072100Z AUTO 18002KT 27/05 RMK AO1 T02660052,CXMG,2023-07-07T21:00:00Z,56.97,-117.45,26.6,5.2,180,2,,,,,,TRUE,TRUE,,,,,,,,,,,,,,,,,,,,,,,,,,,METAR,467.0
CXMD 072100Z AUTO 36013G20KT 21/06 RMK AO1 PK WND 35023/2004 SLP159 T02080060 53005,CXMD,2023-07-07T21:00:00Z,49.18,-98.08,20.8,6.0,360,13,20,,,1015.9,,TRUE,TRUE,,,,,,,,,,,,,,,,0.5,,,,,,,,,,,METAR,297.0
CXLL 072100Z AUTO 28/14 RMK AO1 SLP122 T02750138 58016,CXLL,2023-07-07T21:00:00Z,61.12,-122.85,27.5,13.8,,,,,,1012.2,,TRUE,TRUE,,,,,,,,,,,,,,,,-1.6,,,,,,,,,,,METAR,180.0
CXLC 072100Z AUTO 32010G18KT 23/08 RMK AO1 PK WND 33018/2057 SLP117 T02280077 58005,CXLC,2023-07-07T21:00:00Z,63.6,-113.85,22.8,7.7,320,10,18,,,1011.7,,TRUE,TRUE,,,,,,,,,,,,,,,,-0.5,,,,,,,,,,,METAR,370.0
CXLB 072100Z AUTO 20017KT 23/17 RMK AO1 PK WND 20022/2013 SLP104 T02260168 56009,CXLB,2023-07-07T21:00:00Z,44.37,-64.3,22.6,16.8,200,17,,,,1010.4,,TRUE,TRUE,,,,,,,,,,,,,,,,-0.9,,,,,,,,,,,METAR,4.0
CXKT 072100Z AUTO 27007KT 28/20 RMK AO1 SLP104 T02840196 55009,CXKT,2023-07-07T21:00:00Z,45.07,-64.48,28.4,19.6,270,7,,,,1010.4,,TRUE,TRUE,,,,,,,,,,,,,,,,-0.9,,,,,,,,,,,METAR,48.0
CXKM 072100Z AUTO 02003KT 24/11 RMK AO1 T02360107,CXKM,2023-07-07T21:00:00Z,52.83,-111.87,23.6,10.7,20,3,,,,,,TRUE,TRUE,,,,,,,,,,,,,,,,,,,,,,,,,,,METAR,679.0
CXKI 072100Z AUTO 19003KT 24/13 RMK AO1 SLP110 T02360127 57006,CXKI,2023-07-07T21:00:00Z,48.13,-80.0,23.6,12.7,190,3,,,,1011.0,,TRUE,TRUE,,,,,,,,,,,,,,,,-0.6,,,,,,,,,,,METAR,328.0
CXKE 072100Z AUTO 07001KT 27/18 RMK AO1 SLP099 T02650184 56006,CXKE,2023-07-07T21:00:00Z,45.0,-75.63,26.5,18.4,70,1,,,,1009.9,,TRUE,TRUE,,,,,,,,,,,,,,,,-0.6,,,,,,,,,,,METAR,99.0
CXKA 072100Z AUTO 23009G22KT 24/10 RMK AO1 PK WND 21022/2052 SLP109 T02440100 58009,CXKA,2023-07-07T21:00:00Z,49.4,-82.45,24.4,10.0,230,9,22,,,1010.9,,TRUE,TRUE,,,,,,,,,,,,,,,,-0.9,,,,,,,,,,,METAR,221.0
CXIB 072100Z AUTO 08003KT 17/14 RMK AO1 SLP107 T01680143 57005,CXIB,2023-07-07T21:00:00Z,46.67,-60.4,16.8,14.3,80,3,,,,1010.7,,TRUE,TRUE,,,,,,,,,,,,,,,,-0.5,,,,,,,,,,,METAR,6.0
CXHR 072100Z AUTO 29004KT 24/10 RMK AO1 T02360095,CXHR,2023-07-07T21:00:00Z,51.18,-112.5,23.6,9.5,290,4,,,,,,TRUE,TRUE,,,,,,,,,,,,,,,,,,,,,,,,,,,METAR,975.0
CXHP 072100Z AUTO 07006KT 24/05 RMK AO1 T02370046,CXHP,2023-07-07T21:00:00Z,55.4,-116.48,23.7,4.6,70,6,,,,,,TRUE,TRUE,,,,,,,,,,,,,,,,,,,,,,,,,,,METAR,601.0
CXHD 072100Z AUTO 02005KT 23/10 RMK AO1 T02320100,CXHD,2023-07-07T21:00:00Z,53.18,-112.25,23.2,10.0,20,5,,,,,,TRUE,TRUE,,,,,,,,,,,,,,,,,,,,,,,,,,,METAR,688.0
CXHA 072100Z AUTO 19006KT 24/16 RMK AO1 SLP140 T02440155 56013,CXHA,2023-07-07T21:00:00Z,42.03,-82.9,24.4,15.5,190,6,,,,1014.0,,TRUE,TRUE,,,,,,,,,,,,,,,,-1.3,,,,,,,,,,,METAR,193.0
CXGH 072100Z AUTO 03014G25KT 17/12 RMK AO1 PK WND 01025/2059 SLP152 T01730116 53005,CXGH,2023-07-07T21:00:00Z,50.63,-97.0,17.3,11.6,30,14,25,,,1015.2,,TRUE,TRUE,,,,,,,,,,,,,,,,0.5,,,,,,,,,,,METAR,217.0
CXFR 072100Z AUTO 11006KT 24/04 RMK AO1 T02410044,CXFR,2023-07-07T21:00:00Z,56.08,-118.43,24.1,4.4,110,6,,,,,,TRUE,TRUE,,,,,,,,,,,,,,,,,,,,,,,,,,,METAR,657.0
CXFM 072100Z AUTO 05005KT 25/07 RMK AO1 T02450074,CXFM,2023-07-07T21:00:00Z,49.48,-111.48,24.5,7.4,50,5,,,,,,TRUE,TRUE,,,,,,,,,,,,,,,,,,,,,,,,,,,METAR,884.0
CXET 072100Z AUTO 35008KT 23/13 RMK AO1 SLP134 T02270127 55003,CXET,2023-07-07T21:00:00Z,44.23,-79.78,22.7,12.7,350,8,,,,1013.4,,TRUE,TRUE,,,,,,,,,,,,,,,,-0.3,,,,,,,,,,,METAR,250.0
CXEG 072100Z AUTO 16005KT 24/11 RMK AO1 SLP181 T02360109 58006,CXEG,2023-07-07T21:00:00Z,53.3,-113.6,23.6,10.9,160,5,,,,1018.1,,TRUE,TRUE,,,,,,,,,,,,,,,,-0.6,,,,,,,,,,,METAR,706.0
CXEC 072100Z AUTO 11006KT 25/08 RMK AO1 SLP173 T02470077 58007,CXEC,2023-07-07T21:00:00Z,53.57,-113.52,24.7,7.7,110,6,,,,1017.3,,TRUE,TRUE,,,,,,,,,,,,,,,,-0.7,,,,,,,,,,,METAR,666.0
CXEA 072100Z AUTO 34009G15KT 18/08 RMK AO1 PK WND 33017/2001 SLP114 T01770075 51009,CXEA,2023-07-07T21:00:00Z,50.63,-93.22,17.7,7.5,340,9,15,,,1011.4,,TRUE,TRUE,,,,,,,,,,,,,,,,0.9,,,,,,,,,,,METAR,351.0
CXDW 072100Z AUTO 35012G17KT 19/08 RMK AO1 PK WND 35020/2020 SLP163 T01930081 51007,CXDW,2023-07-07T21:00:00Z,49.4,-98.32,19.3,8.1,350,12,17,,,1016.3,,TRUE,TRUE,,,,,,,,,,,,,,,,0.7,,,,,,,,,,,METAR,341.0
CXDK 072100Z AUTO 30/12 RMK AO1 SLP120 T02980121 56019,CXDK,2023-07-07T21:00:00Z,61.27,-124.47,29.8,12.1,,,,,,1012.0,,TRUE,TRUE,,,,,,,,,,,,,,,,-1.9,,,,,,,,,,,METAR,269.0
CXDI 072100Z AUTO 33011G16KT 24/07 RMK AO1 PK WND 34018/2033 SLP140 T02400074 56006,CXDI,2023-07-07T21:00:00Z,42.87,-80.55,24.0,7.4,330,11,16,,,1014.0,,TRUE,TRUE,,,,,,,,,,,,,,,,-0.6,,,,,,,,,,,METAR,234.0
CXDE 072100Z AUTO 12009KT 24/08 RMK AO1 SLP117 T02430077 58009,CXDE,2023-07-07T21:00:00Z,65.22,-123.43,24.3,7.7,120,9,,,,1011.7,,TRUE,TRUE,,,,,,,,,,,,,,,,-0.9,,,,,,,,,,,METAR,208.0
CXDB 072100Z AUTO 11008KT 25/06 RMK AO1 T02490060,CXDB,2023-07-07T21:00:00Z,49.05,-112.82,24.9,6.0,110,8,,,,,,TRUE,TRUE,,,,,,,,,,,,,,,,,,,,,,,,,,,METAR,1311.0
CXCS 072100Z AUTO 35007KT 24/05 RMK AO1 T02430052,CXCS,2023-07-07T21:00:00Z,51.93,-110.72,24.3,5.2,350,7,,,,,,TRUE,TRUE,,,,,,,,,,,,,,,,,,,,,,,,,,,METAR,771.0
CXCP 072100Z AUTO 13009KT 24/07 RMK AO1 T02410068,CXCP,2023-07-07T21:00:00Z,50.28,-113.35,24.1,6.8,130,9,,,,,,TRUE,TRUE,,,,,,,,,,,,,,,,,,,,,,,,,,,METAR,999.0
CXCK 072100Z AUTO 13009G20KT 33/08 RMK AO1 PK WND 14026/2007 SLP097 T03270084 56024,CXCK,2023-07-07T21:00:00Z,62.12,-136.2,32.7,8.4,130,9,20,,,1009.7,,TRUE,TRUE,,,,,,,,,,,,,,,,-2.4,,,,,,,,,,,METAR,526.0
CXCD 072100Z AUTO 10006KT 25/04 RMK AO1 T02470044,CXCD,2023-07-07T21:00:00Z,56.32,-119.75,24.7,4.4,100,6,,,,,,TRUE,TRUE,,,,,,,,,,,,,,,,,,,,,,,,,,,METAR,628.0
CXCA 072100Z AUTO 15005KT 18/16 RMK AO1 3PAST HR 3005 SLP106 P0001 T01780156 50080,CXCA,2023-07-07T21:00:00Z,49.15,-88.35,17.8,15.6,150,5,,,,1010.6,,TRUE,TRUE,,,,,,,,,,,,,,,,8.0,,,,,0.01,,,,,,METAR,228.0
CXBW 072100Z AUTO 13007KT 27/10 RMK AO1 T02660102,CXBW,2023-07-07T21:00:00Z,49.8,-112.3,26.6,10.2,130,7,,,,,,TRUE,TRUE,,,,,,,,,,,,,,,,,,,,,,,,,,,METAR,823.0
CXBR 072100Z AUTO 05007KT 25/08 RMK AO1 T02510083,CXBR,2023-07-07T21:00:00Z,49.62,-113.82,25.1,8.3,50,7,,,,,,TRUE,TRUE,,,,,,,,,,,,,,,,,,,,,,,,,,,METAR,1137.0
CXBO 072100Z AUTO 22007KT 26/21 RMK AO1 T02620212,CXBO,2023-07-07T21:00:00Z,46.83,-71.2,26.2,21.2,220,7,,,,,,TRUE,TRUE,,,,,,,,,,,,,,,,,,,,,,,,,,,METAR,8.0
CXBK 072100Z AUTO 32008KT 24/05 RMK AO1 SLP185 T02390050 58003,CXBK,2023-07-07T21:00:00Z,50.2,-104.7,23.9,5.0,320,8,,,,1018.5,,TRUE,TRUE,,,,,,,,,,,,,,,,-0.3,,,,,,,,,,,METAR,585.0
CXBI 072100Z AUTO 30009KT 22/12 RMK AO1 SLP138 T02220123 58004,CXBI,2023-07-07T21:00:00Z,44.48,-79.55,22.2,12.3,300,9,,,,1013.8,,TRUE,TRUE,,,,,,,,,,,,,,,,-0.4,,,,,,,,,,,METAR,287.0
CXBA 072100Z AUTO 34008KT 25/09 RMK AO1 T02480087,CXBA,2023-07-07T21:00:00Z,52.12,-110.1,24.8,8.7,340,8,,,,,,TRUE,TRUE,,,,,,,,,,,,,,,,,,,,,,,,,,,METAR,696.0
CXAK 072100Z AUTO 03007KT 24/10 RMK AO1 T02430103,CXAK,2023-07-07T21:00:00Z,52.35,-112.6,24.3,10.3,30,7,,,,,,TRUE,TRUE,,,,,,,,,,,,,,,,,,,,,,,,,,,METAR,799.0
CXAJ 072100Z AUTO 03003KT 23/07 RMK AO1 T02310071,CXAJ,2023-07-07T21:00:00Z,54.78,-112.82,23.1,7.1,30,3,,,,,,TRUE,TRUE,,,,,,,,,,,,,,,,,,,,,,,,,,,METAR,586.0
CXAG 072100Z AUTO 05004KT 23/08 RMK AO1 T02270082,CXAG,2023-07-07T21:00:00Z,53.92,-112.28,22.7,8.2,50,4,,,,,,TRUE,TRUE,,,,,,,,,,,,,,,,,,,,,,,,,,,METAR,632.0
CXAF 072100Z AUTO 11003KT 23/10 RMK AO1 T02290103,CXAF,2023-07-07T21:00:00Z,54.28,-112.97,22.9,10.3,110,3,,,,,,TRUE,TRUE,,,,,,,,,,,,,,,,,,,,,,,,,,,METAR,667.0
CWZW 072100Z AUTO 19004KT 28/05 RMK AO1 SLP143 T02800048 58019,CWZW,2023-07-07T21:00:00Z,60.17,-132.73,28.0,4.8,190,4,,,,1014.3,,TRUE,TRUE,,,,,,,,,,,,,,,,-1.9,,,,,,,,,,,METAR,683.0
CWZQ 072100Z AUTO 32002KT 20/17 RMK AO1 SLP107 T02030170 58002,CWZQ,2023-07-07T21:00:00Z,46.53,-61.05,20.3,17.0,320,2,,,,1010.7,,TRUE,TRUE,,,,,,,,,,,,,,,,-0.2,,,,,,,,,,,METAR,13.0
CWZO 072100Z AUTO 16015KT RMK AO1 PK WND 18017/2003,CWZO,2023-07-07T21:00:00Z,48.57,-123.25,,,160,15,,,,,,TRUE,TRUE,,,,,,,,,,,,,,,,,,,,,,,,,,,METAR,5.0
CWZN 072100Z AUTO 27012KT 14/14 RMK AO1 SLP088 T01370137 58004,CWZN,2023-07-07T21:00:00Z,47.37,-55.8,13.7,13.7,270,12,,,,1008.8,,TRUE,TRUE,,,,,,,,,,,,,,,,-0.4,,,,,,,,,,,METAR,63.0
CWZL 072100Z AUTO 12004KT 16/13 RMK AO1 SLP126 T01550127 50001,CWZL,2023-07-07T21:00:00Z,53.03,-131.6,15.5,12.7,120,4,,,,1012.6,,TRUE,TRUE,,,,,,,,,,,,,,,,0.1,,,,,,,,,,,METAR,17.0
CWZG 072100Z AUTO 12004KT 16/11 RMK AO1 3PAST HR 5008 PK WND 05020/2038 SLP185 P0009 T01580110 50023,CWZG,2023-07-07T21:00:00Z,51.2,-115.55,15.8,11.0,120,4,,,,1018.5,,TRUE,TRUE,,,,,,,,,,,,,,,,2.3,,,,,0.09,,,,,,METAR,1402.0
CWZA 072100Z AUTO 24005KT 25/14 RMK AO1 SLP103 T02520135 58014,CWZA,2023-07-07T21:00:00Z,49.25,-121.77,25.2,13.5,240,5,,,,1010.3,,TRUE,TRUE,,,,,,,,,,,,,,,,-1.4,,,,,,,,,,,METAR,18.0
CWYY 072100Z AUTO 18003KT 33/11 RMK AO1 SLP081 T03280110 56012,CWYY,2023-07-07T21:00:00Z,49.03,-119.43,32.8,11.0,180,3,,,,1008.1,,TRUE,TRUE,,,,,,,,,,,,,,,,-1.2,,,,,,,,,,,METAR,284.0
CWYL 072100Z AUTO 23004KT 20/08 RMK AO1 SLP169 T02030075 56008,CWYL,2023-07-07T21:00:00Z,51.45,-116.33,20.3,7.5,230,4,,,,1016.9,,TRUE,TRUE,,,,,,,,,,,,,,,,-0.8,,,,,,,,,,,METAR,1602.0
CWYJ 072100Z AUTO 12002KT 19/12 RMK AO1 SLP118 T01880115 58009,CWYJ,2023-07-07T21:00:00Z,48.45,-123.3,18.8,11.5,120,2,,,,1011.8,,TRUE,TRUE,,,,,,,,,,,,,,,,-0.9,,,,,,,,,,,METAR,59.0
CWXL 072100Z AUTO 03007KT 26/11 RMK AO1 SLP169 T02600108 58013,CWXL,2023-07-07T21:00:00Z,49.73,-111.45,26.0,10.8,30,7,,,,1016.9,,TRUE,TRUE,,,,,,,,,,,,,,,,-1.3,,,,,,,,,,,METAR,815.0
CWXI 072100Z AUTO 05010KT 11/09 RMK AO1 SLP094 T01050087 58008,CWXI,2023-07-07T21:00:00Z,51.02,-57.1,10.5,8.7,50,10,,,,1009.4,,TRUE,TRUE,,,,,,,,,,,,,,,,-0.8,,,,,,,,,,,METAR,15.0
CWXC 072100Z AUTO 35003KT 25/19 RMK AO1 SLP091 T02530193 53007,CWXC,2023-07-07T21:00:00Z,48.88,-71.03,25.3,19.3,350,3,,,,1009.1,,TRUE,TRUE,,,,,,,,,,,,,,,,0.7,,,,,,,,,,,METAR,306.0
CWXA 072100Z AUTO 00005KT 21/05 RMK AO1 SLP208 T02140050 56007,CWXA,2023-07-07T21:00:00Z,51.07,-115.07,21.4,5.0,0,5,,,,1020.8,,TRUE,TRUE,,,,,,,,,,,,,,,,-0.7,,,,,,,,,,,METAR,1303.0
CWWZ 072100Z AUTO 29011KT 27/18 RMK AO1 SLP125 T02720178 58007,CWWZ,2023-07-07T21:00:00Z,43.25,-79.22,27.2,17.8,290,11,,,,1012.5,,TRUE,TRUE,,,,,,,,,,,,,,,,-0.7,,,,,,,,,,,METAR,75.0
CWWS 072100Z AUTO 31011KT 17/08 RMK AO1 SLP162 T01730081 50002,CWWS,2023-07-07T21:00:00Z,52.82,-97.62,17.3,8.1,310,11,,,,1016.2,,TRUE,TRUE,,,,,,,,,,,,,,,,0.2,,,,,,,,,,,METAR,220.0
CWWL 072100Z AUTO 36003KT 13/11 RMK AO1 SLP115 T01290113 50001,CWWL,2023-07-07T21:00:00Z,53.5,-130.63,12.9,11.3,360,3,,,,1011.5,,TRUE,TRUE,,,,,,,,,,,,,,,,0.1,,,,,,,,,,,METAR,8.0
CWWK 072100Z AUTO 24005KT 18/13 RMK AO1 SLP127 T01790127 58006,CWWK,2023-07-07T21:00:00Z,49.02,-122.78,17.9,12.7,240,5,,,,1012.7,,TRUE,TRUE,,,,,,,,,,,,,,,,-0.6,,,,,,,,,,,METAR,10.0
CWWF 072100Z AUTO 36011G16KT 24/06 RMK AO1 PK WND 03018/2024 SLP181 T02400055 57002,CWWF,2023-07-07T21:00:00Z,49.7,-103.8,24.0,5.5,360,11,16,,,1018.1,,TRUE,TRUE,,,,,,,,,,,,,,,,-0.2,,,,,,,,,,,METAR,583.0
CWWE 072100Z AUTO 20012KT 16/14 RMK AO1 PK WND 21018/2048 SLP121 T01590140 56006,CWWE,2023-07-07T21:00:00Z,43.98,-64.67,15.9,14.0,200,12,,,,1012.1,,TRUE,TRUE,,,,,,,,,,,,,,,,-0.6,,,,,,,,,,,METAR,4.0
CWWB 072100Z AUTO 28008G15KT 25/12 RMK AO1 SLP128 T02540121 58005,CWWB,2023-07-07T21:00:00Z,43.3,-79.78,25.4,12.1,280,8,15,,,1012.8,,TRUE,TRUE,,,,,,,,,,,,,,,,-0.5,,,,,,,,,,,METAR,77.0
CWWA 072100Z AUTO 22002KT 23/12 RMK AO1 SLP116 T02290115 58007,CWWA,2023-07-07T21:00:00Z,49.35,-123.18,22.9,11.5,220,2,,,,1011.6,,TRUE,TRUE,,,,,,,,,,,,,,,,-0.7,,,,,,,,,,,METAR,172.0
CWVU 072100Z AUTO 14010KT 14/13 RMK AO1 SLP122 T01360126 55006,CWVU,2023-07-07T21:00:00Z,44.28,-66.33,13.6,12.6,140,10,,,,1012.2,,TRUE,TRUE,,,,,,,,,,,,,,,,-0.6,,,,,,,,,,,METAR,4.0
CWVT 072100Z AUTO 32005KT 21/06 RMK AO1 SLP197 T02100059 58009,CWVT,2023-07-07T21:00:00Z,55.83,-108.42,21.0,5.9,320,5,,,,1019.7,,TRUE,TRUE,,,,,,,,,,,,,,,,-0.9,,,,,,,,,,,METAR,431.0
CWVQ 072100Z AUTO 24007KT 28/19 RMK AO1 SLP097 T02750191 53001,CWVQ,2023-07-07T21:00:00Z,45.42,-73.92,27.5,19.1,240,7,,,,1009.7,,TRUE,TRUE,,,,,,,,,,,,,,,,0.1,,,,,,,,,,,METAR,38.0
CWVP 072100Z AUTO 23008KT 17/07 RMK AO1 4PAST HR 6003 SLP186 P0002 T01650072 50004,CWVP,2023-07-07T21:00:00Z,49.63,-109.52,16.5,7.2,230,8,,,,1018.6,,TRUE,TRUE,,,,,,,,,,,,,,,,0.4,,,,,0.02,,,,,,METAR,1269.0
CWVN 072100Z AUTO 34003KT 25/03 RMK AO1 SLP173 T02540029 58007,CWVN,2023-07-07T21:00:00Z,49.07,-107.58,25.4,2.9,340,3,,,,1017.3,,TRUE,TRUE,,,,,,,,,,,,,,,,-0.7,,,,,,,,,,,METAR,792.0
CWVI 072100Z AUTO 02006KT 23/10 RMK AO1 SLP187 T02330100 58004,CWVI,2023-07-07T21:00:00Z,53.52,-112.1,23.3,10.0,20,6,,,,1018.7,,TRUE,TRUE,,,,,,,,,,,,,,,,-0.4,,,,,,,,,,,METAR,640.0
CWVF 072100Z AUTO 14011KT 17/13 RMK AO1 T01660133,CWVF,2023-07-07T21:00:00Z,49.1,-123.3,16.6,13.3,140,11,,,,,,TRUE,TRUE,,,,,,,,,,,,,,,,,,,,,,,,,,,METAR,13.0
CWVD 072100Z AUTO 13006KT ////SM NCD 08/02 A2994,CWVD,2023-07-07T21:00:00Z,67.53,-63.78,8.0,2.0,130,6,,,29.940945,,,TRUE,,,,,,,,CLR,,,,,,,,,,,,,,,,,,,,METAR,584.0
CWUX 072100Z AUTO 07003KT 26/21 RMK AO1 SLP084 T02620211,CWUX,2023-07-07T21:00:00Z,48.3,-70.93,26.2,21.1,70,3,,,,1008.4,,TRUE,TRUE,,,,,,,,,,,,,,,,,,,,,,,,,,,METAR,150.0
CWUW 072100Z AUTO 23016G21KT ////SM ////// 05/03 A2990,CWUW,2023-07-07T21:00:00Z,68.62,-71.12,5.0,3.0,230,16,21,,29.899607,,,TRUE,,,,,,,,,,,,,,,,,,,,,,,,,,,,METAR,173.0
CWUS 072100Z AUTO 34008KT 32/07 RMK AO1 SLP091 T03170071 56013,CWUS,2023-07-07T21:00:00Z,49.57,-119.65,31.7,7.1,340,8,,,,1009.1,,TRUE,TRUE,,,,,,,,,,,,,,,,-1.3,,,,,,,,,,,METAR,455.0
CWTY 072100Z AUTO 21011KT 25/21 RMK AO1 SLP092 T02520213 56002,CWTY,2023-07-07T21:00:00Z,46.35,-72.52,25.2,21.3,210,11,,,,1009.2,,TRUE,TRUE,,,,,,,,,,,,,,,,-0.2,,,,,,,,,,,METAR,8.0
CWTT 072100Z AUTO 19003KT 20/18 RMK AO1 T02040182,CWTT,2023-07-07T21:00:00Z,45.27,-72.17,20.4,18.2,190,3,,,,,,TRUE,TRUE,,,,,,,,,,,,,,,,,,,,,,,,,,,METAR,210.0
CWTN 072100Z AUTO 01002KT 24/24 RMK AO1 5005 SLP088 T02350235 50002,CWTN,2023-07-07T21:00:00Z,47.07,-70.78,23.5,23.5,10,2,,,,1008.8,,TRUE,TRUE,,,,,,,,,,,,,,,,0.2,,,,,,,,,,,METAR,5.0
CWTG 072100Z AUTO 05016KT 17/15 RMK AO1 PK WND 05019/2045 SLP085 T01660149 50000,CWTG,2023-07-07T21:00:00Z,49.32,-67.37,16.6,14.9,50,16,,,,1008.5,,TRUE,TRUE,,,,,,,,,,,,,,,,0.0,,,,,,,,,,,METAR,6.0
CWTA 072100Z AUTO 19004KT 26/21 RMK AO1 SLP098 T02640213 53002,CWTA,2023-07-07T21:00:00Z,45.5,-73.58,26.4,21.3,190,4,,,,1009.8,,TRUE,TRUE,,,,,,,,,,,,,,,,0.2,,,,,,,,,,,METAR,71.0
CWST 072100Z AUTO 02001KT 22/19 RMK AO1 SLP086 T02150190 55002,CWST,2023-07-07T21:00:00Z,47.35,-70.02,21.5,19.0,20,1,,,,1008.6,,TRUE,TRUE,,,,,,,,,,,,,,,,-0.2,,,,,,,,,,,METAR,31.0
CWSS 072100Z AUTO 19008KT 28/19 RMK AO1 PK WND 19018/2036 SLP099 T02750192 56002,CWSS,2023-07-07T21:00:00Z,45.2,-67.25,27.5,19.2,190,8,,,,1009.9,,TRUE,TRUE,,,,,,,,,,,,,,,,-0.2,,,,,,,,,,,METAR,27.0
CWSR 072100Z AUTO 03003KT 20/04 RMK AO1 SLP197 T01980044 58004,CWSR,2023-07-07T21:00:00Z,53.37,-107.55,19.8,4.4,30,3,,,,1019.7,,TRUE,TRUE,,,,,,,,,,,,,,,,-0.4,,,,,,,,,,,METAR,589.0
CWSP 072100Z AUTO 29028KT 14/10 RMK AO1 PK WND 29032/2040 SLP121 T01350102 58004,CWSP,2023-07-07T21:00:00Z,48.38,-123.92,13.5,10.2,290,28,,,,1012.1,,TRUE,TRUE,,,,,,,,,,,,,,,,-0.4,,,,,,,,,,,METAR,2.0
CWSL 072100Z AUTO 02007KT 33/14 RMK AO1 SLP100 T03310139 56019,CWSL,2023-07-07T21:00:00Z,50.7,-119.28,33.1,13.9,20,7,,,,1010.0,,TRUE,TRUE,,,,,,,,,,,,,,,,-1.9,,,,,,,,,,,METAR,353.0
CWSK 072100Z AUTO 18009KT 27/13 RMK AO1 SLP096 T02690131 58010,CWSK,2023-07-07T21:00:00Z,49.78,-123.17,26.9,13.1,180,9,,,,1009.6,,TRUE,TRUE,,,,,,,,,,,,,,,,-1.0,,,,,,,,,,,METAR,59.0
CWSG 072100Z AUTO 03005KT 18/16 RMK AO1 SLP084 T01800162 56006,CWSG,2023-07-07T21:00:00Z,49.12,-66.65,18.0,16.2,30,5,,,,1008.4,,TRUE,TRUE,,,,,,,,,,,,,,,,-0.6,,,,,,,,,,,METAR,5.0
CWSF 072100Z AUTO 00000KT 17/16 RMK AO1 SLP084 T01670158 58006,CWSF,2023-07-07T21:00:00Z,49.25,-65.32,16.7,15.8,0,0,,,,1008.4,,TRUE,TRUE,,,,,,,,,,,,,,,,-0.6,,,,,,,,,,,METAR,15.0
CWSD 072100Z AUTO 21009KT 27/20 RMK AO1 SLP094 T02730201 56007,CWSD,2023-07-07T21:00:00Z,46.43,-63.85,27.3,20.1,210,9,,,,1009.4,,TRUE,TRUE,,,,,,,,,,,,,,,,-0.7,,,,,,,,,,,METAR,12.0
CWRZ 072100Z AUTO 24005KT 17/16 RMK AO1 SLP099 T01660163 55000,CWRZ,2023-07-07T21:00:00Z,48.42,-64.32,16.6,16.3,240,5,,,,1009.9,,TRUE,TRUE,,,,,,,,,,,,,,,,0.0,,,,,,,,,,,METAR,16.0
CWRY 072100Z AUTO 04006KT 26/06 RMK AO1 SLP165 T02550063 58013,CWRY,2023-07-07T21:00:00Z,49.12,-112.05,25.5,6.3,40,6,,,,1016.5,,TRUE,TRUE,,,,,,,,,,,,,,,,-1.3,,,,,,,,,,,METAR,1048.0
CWRX 072100Z AUTO ///// ////SM ////// 10/04 A2984,CWRX,2023-07-07T21:00:00Z,69.07,-79.07,10.0,4.0,,,,,29.840551,,,TRUE,,,,,,,,,,,,,,,,,,,,,,,,,,,,METAR,39.0
CWRU 072100Z AUTO 15012KT 11/ RMK AO1 SLP132 T0105 52005,CWRU,2023-07-07T21:00:00Z,50.12,-127.93,10.5,,150,12,,,,1013.2,,TRUE,TRUE,,,,,,,,,,,,,,,,0.5,,,,,,,,,,,METAR,76.0
CWRT 072100Z AUTO 13008G17KT 22/08 RMK AO1 PK WND 13017/2054 SLP177 T02150082 56012,CWRT,2023-07-07T21:00:00Z,49.62,-114.47,21.5,8.2,130,8,17,,,1017.7,,TRUE,TRUE,,,,,,,,,,,,,,,,-1.2,,,,,,,,,,,METAR,1311.0
CWRO 072100Z AUTO 28009KT 14/11 RMK AO1 SLP121 T01400109 56002,CWRO,2023-07-07T21:00:00Z,54.17,-131.67,14.0,10.9,280,9,,,,1012.1,,TRUE,TRUE,,,,,,,,,,,,,,,,-0.2,,,,,,,,,,,METAR,7.0
CWRN 072100Z AUTO 20009KT 26/20 RMK AO1 SLP105 T02570197 56008,CWRN,2023-07-07T21:00:00Z,45.35,-60.98,25.7,19.7,200,9,,,,1010.5,,TRUE,TRUE,,,,,,,,,,,,,,,,-0.8,,,,,,,,,,,METAR,8.0
CWRM 072100Z AUTO 10005KT 23/12 RMK AO1 SLP164 T02330116 58010,CWRM,2023-07-07T21:00:00Z,52.42,-114.92,23.3,11.6,100,5,,,,1016.4,,TRUE,TRUE,,,,,,,,,,,,,,,,-1.0,,,,,,,,,,,METAR,986.0
CWRK 072100Z AUTO 31005KT 27/17 RMK AO1 SLP110 T02660166 56006,CWRK,2023-07-07T21:00:00Z,45.07,-77.87,26.6,16.6,310,5,,,,1011.0,,TRUE,TRUE,,,,,,,,,,,,,,,,-0.6,,,,,,,,,,,METAR,328.0
CWRJ 072100Z AUTO 04004KT 24/06 RMK AO1 SLP173 T02390058 57011,CWRJ,2023-07-07T21:00:00Z,51.57,-107.92,23.9,5.8,40,4,,,,1017.3,,TRUE,TRUE,,,,,,,,,,,,,,,,-1.1,,,,,,,,,,,METAR,586.0
CWRA 072100Z AUTO 26013KT 15/13 RMK AO1 PK WND 25018/2012 SLP094 T01500131 55000,CWRA,2023-07-07T21:00:00Z,46.65,-53.07,15.0,13.1,260,13,,,,1009.4,,TRUE,TRUE,,,,,,,,,,,,,,,,0.0,,,,,,,,,,,METAR,4.0
CWQV 072100Z AUTO 09005KT 20/ RMK AO1 T0199,CWQV,2023-07-07T21:00:00Z,48.27,-70.12,19.9,,90,5,,,,,,TRUE,TRUE,,,,,,,,,,,,,,,,,,,,,,,,,,,METAR,4.0
CWQS 072100Z AUTO 32015KT 10/10 RMK AO1 PK WND 32017/2029 SLP114 T01010096 55000,CWQS,2023-07-07T21:00:00Z,53.32,-132.77,10.1,9.6,320,15,,,,1011.4,,TRUE,TRUE,,,,,,,,,,,,,,,,0.0,,,,,,,,,,,METAR,10.0
CWQR 072100Z AUTO 12011KT 13/11 RMK AO1 T01290113,CWQR,2023-07-07T21:00:00Z,50.22,-64.22,12.9,11.3,120,11,,,,,,TRUE,TRUE,,,,,,,,,,,,,,,,,,,,,,,,,,,METAR,9.0
CWQP 072100Z AUTO 25012G17KT 25/20 RMK AO1 PK WND 25017/2059 SLP114 T02460200 57003,CWQP,2023-07-07T21:00:00Z,43.83,-77.15,24.6,20.0,250,12,17,,,1011.4,,TRUE,TRUE,,,,,,,,,,,,,,,,-0.3,,,,,,,,,,,METAR,77.0
CWQO 072100Z AUTO 07004KT 14/14 RMK AO1 T01400139,CWQO,2023-07-07T21:00:00Z,48.42,-68.9,14.0,13.9,70,4,,,,,,TRUE,TRUE,,,,,,,,,,,,,,,,,,,,,,,,,,,METAR,7.0
CWQK 072100Z AUTO 28031KT 13/10 RMK AO1 PK WND 28033/2050 SLP113 T01290102 58012,CWQK,2023-07-07T21:00:00Z,48.3,-123.53,12.9,10.2,280,31,,,,1011.3,,TRUE,TRUE,,,,,,,,,,,,,,,,-1.2,,,,,,,,,,,METAR,5.0
CWQH 072100Z AUTO 17002KT 22/21 RMK AO1 0011 SLP108 T02190209 50292,CWQH,2023-07-07T21:00:00Z,45.37,-71.82,21.9,20.9,170,2,,,,1010.8,,TRUE,TRUE,,,,,,,,,,,,,,,,0.0,,,,,,,,,,,METAR,181.0
CWPZ 072100Z AUTO 10003KT 28/10 RMK AO1 SLP139 T02760098 58009,CWPZ,2023-07-07T21:00:00Z,54.38,-125.97,27.6,9.8,100,3,,,,1013.9,,TRUE,TRUE,,,,,,,,,,,,,,,,-0.9,,,,,,,,,,,METAR,715.0
CWPR 072100Z AUTO 09010G20KT 27/07 RMK AO1 PK WND 07020/2050 SLP111 T02660073 53001,CWPR,2023-07-07T21:00:00Z,49.47,-120.52,26.6,7.3,90,10,20,,,1011.1,,TRUE,TRUE,,,,,,,,,,,,,,,,0.1,,,,,,,,,,,METAR,703.0
CWPO 072100Z AUTO 01011G16KT 20/09 RMK AO1 PK WND 00018/2022 SLP174 T01970090 53003,CWPO,2023-07-07T21:00:00Z,49.2,-98.9,19.7,9.0,10,11,16,,,1017.4,,TRUE,TRUE,,,,,,,,,,,,,,,,0.3,,,,,,,,,,,METAR,471.0
CWPK 072100Z AUTO 01004KT 25/14 RMK AO1 SLP111 T02530140 53002,CWPK,2023-07-07T21:00:00Z,47.92,-74.62,25.3,14.0,10,4,,,,1011.1,,TRUE,TRUE,,,,,,,,,,,,,,,,0.2,,,,,,,,,,,METAR,443.0
CWPE 072100Z AUTO 12002KT 14/14 RMK AO1 SLP117 T01440139 55004,CWPE,2023-07-07T21:00:00Z,45.07,-66.47,14.4,13.9,120,2,,,,1011.7,,TRUE,TRUE,,,,,,,,,,,,,,,,-0.4,,,,,,,,,,,METAR,9.0
CWPD 072100Z AUTO 13003KT 22/16 RMK AO1 SLP077 T02200163 55001,CWPD,2023-07-07T21:00:00Z,47.57,-71.22,22.0,16.3,130,3,,,,1007.7,,TRUE,TRUE,,,,,,,,,,,,,,,,-0.1,,,,,,,,,,,METAR,795.0
CWOY 072100Z AUTO 31004KT 19/06 RMK AO1 SLP195 T01890057 58004,CWOY,2023-07-07T21:00:00Z,51.77,-104.2,18.9,5.7,310,4,,,,1019.5,,TRUE,TRUE,,,,,,,,,,,,,,,,-0.4,,,,,,,,,,,METAR,557.0
CWOD 072100Z AUTO 32003KT 26/17 RMK AO1 SLP091 T02570173 57003,CWOD,2023-07-07T21:00:00Z,48.85,-72.55,25.7,17.3,320,3,,,,1009.1,,TRUE,TRUE,,,,,,,,,,,,,,,,-0.3,,,,,,,,,,,METAR,150.0
CWOC 072100Z AUTO 32001KT 22/20 RMK AO1 SLP087 T02220200 58003,CWOC,2023-07-07T21:00:00Z,48.02,-65.32,22.2,20.0,320,1,,,,1008.7,,TRUE,TRUE,,,,,,,,,,,,,,,,-0.3,,,,,,,,,,,METAR,42.0
CWOB 072100Z AUTO 06012KT ////SM ////// ///// A3002,CWOB,2023-07-07T21:00:00Z,63.33,-64.15,,,60,12,,,30.02067,,,TRUE,,,,,,,,,,,,,,,,,,,,,,,,,,,,METAR,369.0
CWNZ 072100Z AUTO 24009G15KT 23/07 RMK AO1 PK WND 27020/2002 SLP104 T02320072 56009,CWNZ,2023-07-07T21:00:00Z,49.75,-84.17,23.2,7.2,240,9,15,,,1010.4,,TRUE,TRUE,,,,,,,,,,,,,,,,-0.9,,,,,,,,,,,METAR,261.0
CWNQ 072100Z AUTO 22005KT 27/21 RMK AO1 SLP090 T02680214 58001,CWNQ,2023-07-07T21:00:00Z,46.22,-72.65,26.8,21.4,220,5,,,,1009.0,,TRUE,TRUE,,,,,,,,,,,,,,,,-0.1,,,,,,,,,,,METAR,9.0
CWNP 072100Z AUTO 24002KT 28/10 RMK AO1 SLP102 T02800104 56024,CWNP,2023-07-07T21:00:00Z,50.27,-117.82,28.0,10.4,240,2,,,,1010.2,,TRUE,TRUE,,,,,,,,,,,,,,,,-2.4,,,,,,,,,,,METAR,517.0
CWNM 072100Z AUTO 17008G19KT 29/10 RMK AO1 PK WND 16019/2051 SLP112 T02920100 56011,CWNM,2023-07-07T21:00:00Z,49.5,-117.3,29.2,10.0,170,8,19,,,1011.2,,TRUE,TRUE,,,,,,,,,,,,,,,,-1.1,,,,,,,,,,,METAR,533.0
CWNK 072100Z AUTO 34012G19KT 20/08 RMK AO1 PK WND 31019/2052 SLP160 T02030080 53006,CWNK,2023-07-07T21:00:00Z,49.5,-98.03,20.3,8.0,340,12,19,,,1016.0,,TRUE,TRUE,,,,,,,,,,,,,,,,0.6,,,,,,,,,,,METAR,271.0
CWNH 072100Z AUTO 24004KT 21/17 RMK AO1 SLP093 T02050172 53003,CWNH,2023-07-07T21:00:00Z,47.8,-69.53,20.5,17.2,240,4,,,,1009.3,,TRUE,TRUE,,,,,,,,,,,,,,,,0.3,,,,,,,,,,,METAR,147.0
CWNE 072100Z AUTO 12011KT 20/19 RMK AO1 SLP088 T02040193 56011,CWNE,2023-07-07T21:00:00Z,47.07,-64.0,20.4,19.3,120,11,,,,1008.8,,TRUE,TRUE,,,,,,,,,,,,,,,,-1.1,,,,,,,,,,,METAR,5.0
CWND 072100Z AUTO 02006KT 13/10 RMK AO1 SLP067 T01340099 53003,CWND,2023-07-07T21:00:00Z,69.63,-135.43,13.4,9.9,20,6,,,,1006.7,,TRUE,TRUE,,,,,,,,,,,,,,,,0.3,,,,,,,,,,,METAR,14.0
CWNC 072100Z AUTO 32006KT 27/12 RMK AO1 SLP115 T02730124 53001,CWNC,2023-07-07T21:00:00Z,43.95,-78.17,27.3,12.4,320,6,,,,1011.5,,TRUE,TRUE,,,,,,,,,,,,,,,,0.1,,,,,,,,,,,METAR,71.0
CWMT 072100Z AUTO 28006KT 24/11 RMK AO1 SOG 01 8007 SLP123 T02430106,CWMT,2023-07-07T21:00:00Z,63.13,-117.25,24.3,10.6,280,6,,,,1012.3,,TRUE,TRUE,,,,,,,,,,,,,,,,,,,,,,,,,,,METAR,274.0
CWMQ 072100Z AUTO 33003KT 26/05 RMK AO1 SLP167 T02630051 58010,CWMQ,2023-07-07T21:00:00Z,49.9,-109.47,26.3,5.1,330,3,,,,1016.7,,TRUE,TRUE,,,,,,,,,,,,,,,,-1.0,,,,,,,,,,,METAR,767.0
CWMM 072100Z AUTO 20005KT 22/13 RMK AO1 SLP116 T02230127 57009,CWMM,2023-07-07T21:00:00Z,49.22,-122.68,22.3,12.7,200,5,,,,1011.6,,TRUE,TRUE,,,,,,,,,,,,,,,,-0.9,,,,,,,,,,,METAR,2.0
CWMJ 072100Z AUTO 01007KT 28/17 RMK AO1 SLP102 T02820173 55003,CWMJ,2023-07-07T21:00:00Z,46.27,-76.0,28.2,17.3,10,7,,,,1010.2,,TRUE,TRUE,,,,,,,,,,,,,,,,-0.3,,,,,,,,,,,METAR,198.0
CWME 072100Z AUTO 23009KT 19/15 RMK AO1 SLP105 T01910147 57003,CWME,2023-07-07T21:00:00Z,52.18,-127.47,19.1,14.7,230,9,,,,1010.5,,TRUE,TRUE,,,,,,,,,,,,,,,,-0.3,,,,,,,,,,,METAR,23.0
CWLY 072100Z AUTO 01006KT 310V030 9SM CLR 36/10 A2976 RMK TS/LTNG TEMPO UNAVBL SLP072 DENSITY ALT 3500FT,CWLY,2023-07-07T21:00:00Z,50.22,-121.58,36.0,10.0,10,6,,9.0,29.760826,1007.2,,TRUE,,,,,,,,CLR,,,,,,,,VFR,,,,,,,,,,,,METAR,228.0
CWLX 072100Z AUTO ///// ////SM ////// 06/02 A2989,CWLX,2023-07-07T21:00:00Z,68.9,-75.15,6.0,2.0,,,,,29.890747,,,TRUE,,,,,,,,,,,,,,,,,,,,,,,,,,,,METAR,129.0
CWLS 072100Z AUTO 30009KT 20/11 RMK AO1 SLP149 T02010113 56004,CWLS,2023-07-07T21:00:00Z,43.97,-80.75,20.1,11.3,300,9,,,,1014.9,,TRUE,TRUE,,,,,,,,,,,,,,,,-0.4,,,,,,,,,,,METAR,413.0
CWLP 072100Z AUTO 31011KT 11/ RMK AO1 SLP124 T0105 55000,CWLP,2023-07-07T21:00:00Z,50.93,-127.63,10.5,,310,11,,,,1012.4,,TRUE,TRUE,,,,,,,,,,,,,,,,0.0,,,,,,,,,,,METAR,15.0
CWLM 072100Z AUTO 21010KT 15/10 RMK AO1 SLP119 T01460104 58009,CWLM,2023-07-07T21:00:00Z,48.42,-123.32,14.6,10.4,210,10,,,,1011.9,,TRUE,TRUE,,,,,,,,,,,,,,,,-0.9,,,,,,,,,,,METAR,62.0
CWLE 072100Z AUTO 17002KT 24/04 RMK AO1 SLP182 T02400037 57010,CWLE,2023-07-07T21:00:00Z,50.95,-107.15,24.0,3.7,170,2,,,,1018.2,,TRUE,TRUE,,,,,,,,,,,,,,,,-1.0,,,,,,,,,,,METAR,666.0
CWLC 072100Z AUTO 28010KT 16/13 RMK AO1 T01610133,CWLC,2023-07-07T21:00:00Z,54.3,-130.62,16.1,13.3,280,10,,,,,,TRUE,TRUE,,,,,,,,,,,,,,,,,,,,,,,,,,,METAR,27.0
CWLB 072100Z AUTO 05004KT 22/05 RMK AO1 SLP193 T02230053 58006,CWLB,2023-07-07T21:00:00Z,54.77,-112.02,22.3,5.3,50,4,,,,1019.3,,TRUE,TRUE,,,,,,,,,,,,,,,,-0.6,,,,,,,,,,,METAR,561.0
CWKX 072100Z AUTO 01004KT 27/04 RMK AO1 SLP148 T02730038 58017,CWKX,2023-07-07T21:00:00Z,58.43,-130.02,27.3,3.8,10,4,,,,1014.8,,TRUE,TRUE,,,,,,,,,,,,,,,,-1.7,,,,,,,,,,,METAR,807.0
CWKO 072100Z AUTO 04003KT 22/03 RMK AO1 SLP190 T02150031 58004,CWKO,2023-07-07T21:00:00Z,49.17,-105.97,21.5,3.1,40,3,,,,1019.0,,TRUE,TRUE,,,,,,,,,,,,,,,,-0.4,,,,,,,,,,,METAR,914.0
CWKK 072100Z AUTO 17002KT 20/16 RMK AO1 1008 SLP105 T01950159 50018,CWKK,2023-07-07T21:00:00Z,49.72,-88.33,19.5,15.9,170,2,,,,1010.5,,TRUE,TRUE,,,,,,,,,,,,,,,,1.8,,,,,,,,,,,METAR,259.0
CWKH 072100Z AUTO 22/13 RMK AO1 SLP106 T02200131 58005,CWKH,2023-07-07T21:00:00Z,48.57,-123.55,22.0,13.1,,,,,,1010.6,,TRUE,TRUE,,,,,,,,,,,,,,,,-0.5,,,,,,,,,,,METAR,327.0
CWKG 072100Z AUTO 23005KT 29/20 RMK AO1 SLP117 T02940196 56007,CWKG,2023-07-07T21:00:00Z,44.43,-65.2,29.4,19.6,230,5,,,,1011.7,,TRUE,TRUE,,,,,,,,,,,,,,,,-0.7,,,,,,,,,,,METAR,154.0
CWKD 072100Z AUTO 21/15 RMK AO1 SLP107 T02100149 53006,CWKD,2023-07-07T21:00:00Z,50.73,-71.02,21.0,14.9,,,,,,1010.7,,TRUE,TRUE,,,,,,,,,,,,,,,,0.6,,,,,,,,,,,METAR,496.0
CWJX 072100Z AUTO 25009KT 27/03 RMK AO1 SLP157 T02650028 58015,CWJX,2023-07-07T21:00:00Z,50.88,-109.5,26.5,2.8,250,9,,,,1015.7,,TRUE,TRUE,,,,,,,,,,,,,,,,-1.5,,,,,,,,,,,METAR,671.0
CWJW 072100Z AUTO 29006KT 27/09 RMK AO1 SOG 01 8019 SLP144 T02660094,CWJW,2023-07-07T21:00:00Z,52.93,-118.03,26.6,9.4,290,6,,,,1014.4,,TRUE,TRUE,,,,,,,,,,,,,,,,,,,,,,,,,,,METAR,1022.0
CWJV 072100Z AUTO 15011G16KT 29/07 RMK AO1 PK WND 17023/2032 SLP100 T02920068 56011,CWJV,2023-07-07T21:00:00Z,50.22,-119.18,29.2,6.8,150,11,16,,,1010.0,,TRUE,TRUE,,,,,,,,,,,,,,,,-1.1,,,,,,,,,,,METAR,487.0
CWJU 072100Z AUTO 28007KT 11/10 RMK AO1 SLP131 T01110101 55003,CWJU,2023-07-07T21:00:00Z,54.25,-133.07,11.1,10.1,280,7,,,,1013.1,,TRUE,TRUE,,,,,,,,,,,,,,,,-0.3,,,,,,,,,,,METAR,47.0
CWJT 072100Z AUTO 25001KT 26/21 RMK AO1 SLP096 T02640207 55001,CWJT,2023-07-07T21:00:00Z,46.07,-74.57,26.4,20.7,250,1,,,,1009.6,,TRUE,TRUE,,,,,,,,,,,,,,,,-0.1,,,,,,,,,,,METAR,236.0
CWJR 072100Z AUTO 27005KT 32/12 RMK AO1 SLP106 T03240123 57022,CWJR,2023-07-07T21:00:00Z,49.03,-116.5,32.4,12.3,270,5,,,,1010.6,,TRUE,TRUE,,,,,,,,,,,,,,,,-2.2,,,,,,,,,,,METAR,642.0
CWJO 072100Z AUTO 31010KT 25/20 RMK AO1 SLP085 T02530195 53003,CWJO,2023-07-07T21:00:00Z,48.43,-71.15,25.3,19.5,310,10,,,,1008.5,,TRUE,TRUE,,,,,,,,,,,,,,,,0.3,,,,,,,,,,,METAR,113.0
CWJI 072100Z AUTO 01005KT 23/04 RMK AO1 SLP185 T02270035 57006,CWJI,2023-07-07T21:00:00Z,49.72,-105.93,22.7,3.5,10,5,,,,1018.5,,TRUE,TRUE,,,,,,,,,,,,,,,,-0.6,,,,,,,,,,,METAR,724.0
CWJH 072100Z AUTO 28006KT 21/03 RMK AO1 PK WND 29017/2032 SLP158 T02090030 58012,CWJH,2023-07-07T21:00:00Z,56.32,-103.27,20.9,3.0,280,6,,,,1015.8,,TRUE,TRUE,,,,,,,,,,,,,,,,-1.2,,,,,,,,,,,METAR,345.0
CWJD 072100Z AUTO 24004KT 18/07 RMK AO1 SLP164 T01800067 58002,CWJD,2023-07-07T21:00:00Z,53.18,-99.27,18.0,6.7,240,4,,,,1016.4,,TRUE,TRUE,,,,,,,,,,,,,,,,-0.2,,,,,,,,,,,METAR,222.0
CWJC 072100Z AUTO 33013KT 18/04 RMK AO1 PK WND 33017/2050 SLP115 T01750040 58014,CWJC,2023-07-07T21:00:00Z,61.13,-100.9,17.5,4.0,330,13,,,,1011.5,,TRUE,TRUE,,,,,,,,,,,,,,,,-1.4,,,,,,,,,,,METAR,340.0
CWJB 072100Z AUTO 25/21 RMK AO1 T02510213,CWJB,2023-07-07T21:00:00Z,46.78,-71.28,25.1,21.3,,,,,,,,TRUE,TRUE,,,,,,,,,,,,,,,,,,,,,,,,,,,METAR,90.0
CWIZ 072100Z AUTO 20005KT 22/21 RMK AO1 5PAST HR M PK WND 19022/2008 P0033 T02230214 50092,CWIZ,2023-07-07T21:00:00Z,45.28,-73.33,22.3,21.4,200,5,,,,,,TRUE,TRUE,,,,,,,,,,,,,,,,9.2,,,,,0.33,,,,,,METAR,45.0
CWIW 072100Z AUTO 02004KT 21/06 RMK AO1 SLP189 T02060064 58004,CWIW,2023-07-07T21:00:00Z,51.67,-105.4,20.6,6.4,20,4,,,,1018.9,,TRUE,TRUE,,,,,,,,,,,,,,,,-0.4,,,,,,,,,,,METAR,524.0
CWIT 072100Z AUTO 15003KT 24/21 RMK AO1 SLP098 T02350210 53001,CWIT,2023-07-07T21:00:00Z,45.17,-73.67,23.5,21.0,150,3,,,,1009.8,,TRUE,TRUE,,,,,,,,,,,,,,,,0.1,,,,,,,,,,,METAR,53.0
CWIS 072100Z AUTO 23003KT 21/19 RMK AO1 5002 SLP111 T02050194 50001,CWIS,2023-07-07T21:00:00Z,47.28,-70.63,20.5,19.4,230,3,,,,1011.1,,TRUE,TRUE,,,,,,,,,,,,,,,,0.1,,,,,,,,,,,METAR,720.0
CWIP 072100Z AUTO 08005KT 16/15 RMK AO1 T01560152,CWIP,2023-07-07T21:00:00Z,50.17,-66.43,15.6,15.2,80,5,,,,,,TRUE,TRUE,,,,,,,,,,,,,,,,,,,,,,,,,,,METAR,27.0
CWIL 072100Z AUTO ///// ////SM FEW021 OVC027 05/05 A2979,CWIL,2023-07-07T21:00:00Z,68.32,-100.07,5.0,5.0,,,,,29.790354,,,TRUE,,,,,,,,FEW,2100,OVC,2700,,,,,,,,,,,,,,,,,METAR,28.0
CWIK 072100Z AUTO 01007KT 21/05 RMK AO1 PK WND 35017/2030 SLP187 T02050054 58001,CWIK,2023-07-07T21:00:00Z,50.37,-102.58,20.5,5.4,10,7,,,,1018.7,,TRUE,TRUE,,,,,,,,,,,,,,,,-0.1,,,,,,,,,,,METAR,597.0
CWIJ 072100Z AUTO 20006KT 16/05 RMK AO1 SLP120 T01590052 58016,CWIJ,2023-07-07T21:00:00Z,65.77,-111.23,15.9,5.2,200,6,,,,1012.0,,TRUE,TRUE,,,,,,,,,,,,,,,,-1.6,,,,,,,,,,,METAR,490.0
CWII 072100Z AUTO 36009G15KT 18/09 RMK AO1 PK WND 03017/2000 SLP150 T01790091 52006,CWII,2023-07-07T21:00:00Z,50.7,-96.57,17.9,9.1,360,9,15,,,1015.0,,TRUE,TRUE,,,,,,,,,,,,,,,,0.6,,,,,,,,,,,METAR,216.0
CWIG 072100Z AUTO 21010KT RMK AO1,CWIG,2023-07-07T21:00:00Z,47.07,-70.53,,,210,10,,,,,,TRUE,TRUE,,,,,,,,,,,,,,,,,,,,,,,,,,,METAR,12.0
CWID 072100Z AUTO 34007KT 27/12 RMK AO1 SLP125 T02670117 57012,CWID,2023-07-07T21:00:00Z,61.32,-117.6,26.7,11.7,340,7,,,,1012.5,,TRUE,TRUE,,,,,,,,,,,,,,,,-1.2,,,,,,,,,,,METAR,160.0
CWHV 072100Z AUTO 16003KT 24/21 RMK AO1 SLP101 T02380208 55000,CWHV,2023-07-07T21:00:00Z,46.2,-70.78,23.8,20.8,160,3,,,,1010.1,,TRUE,TRUE,,,,,,,,,,,,,,,,0.0,,,,,,,,,,,METAR,227.0
CWHT 072100Z AUTO 25005KT 27/08 RMK AO1 SLP123 T02720081 56024,CWHT,2023-07-07T21:00:00Z,60.77,-137.58,27.2,8.1,250,5,,,,1012.3,,TRUE,TRUE,,,,,,,,,,,,,,,,-2.4,,,,,,,,,,,METAR,601.0
CWHQ 072100Z AUTO 16002KT 25/21 RMK AO1 T02540208,CWHQ,2023-07-07T21:00:00Z,46.68,-71.97,25.4,20.8,160,2,,,,,,TRUE,TRUE,,,,,,,,,,,,,,,,,,,,,,,,,,,METAR,56.0
CWHP 072100Z AUTO 15004KT 14/12 RMK AO1 SLP101 T01380118 57010,CWHP,2023-07-07T21:00:00Z,49.08,-61.7,13.8,11.8,150,4,,,,1010.1,,TRUE,TRUE,,,,,,,,,,,,,,,,-1.0,,,,,,,,,,,METAR,7.0
CWHO 072100Z AUTO 00001KT 07/06 RMK AO1 SLP097 T00710057 58011,CWHO,2023-07-07T21:00:00Z,55.45,-60.22,7.1,5.7,0,1,,,,1009.7,,TRUE,TRUE,,,,,,,,,,,,,,,,-1.1,,,,,,,,,,,METAR,16.0
CWHL 072100Z AUTO 30005KT 15/13 RMK AO1 SLP115 T01450131 58001,CWHL,2023-07-07T21:00:00Z,54.17,-130.35,14.5,13.1,300,5,,,,1011.5,,TRUE,TRUE,,,,,,,,,,,,,,,,-0.1,,,,,,,,,,,METAR,5.0
CWHI 072100Z AUTO 02002KT 26/11 RMK AO1 T02550113,CWHI,2023-07-07T21:00:00Z,51.7,-113.22,25.5,11.3,20,2,,,,,,TRUE,TRUE,,,,,,,,,,,,,,,,,,,,,,,,,,,METAR,906.0
CWGY 072100Z AUTO 01010G18KT 25/08 RMK AO1 PK WND 00018/2050 SLP168 T02510075 56008,CWGY,2023-07-07T21:00:00Z,51.67,-110.2,25.1,7.5,10,10,18,,,1016.8,,TRUE,TRUE,,,,,,,,,,,,,,,,-0.8,,,,,,,,,,,METAR,709.0
CWGW 072100Z AUTO 07015G22KT 23/05 RMK AO1 PK WND 06022/2041 SLP159 T02300054 55014,CWGW,2023-07-07T21:00:00Z,49.75,-114.9,23.0,5.4,70,15,22,,,1015.9,,TRUE,TRUE,,,,,,,,,,,,,,,,-1.4,,,,,,,,,,,METAR,1137.0
CWGT 072100Z AUTO 14019KT 18/15 RMK AO1 PK WND 14020/2026 SLP106 T01840152 58011,CWGT,2023-07-07T21:00:00Z,49.48,-124.43,18.4,15.2,140,19,,,,1010.6,,TRUE,TRUE,,,,,,,,,,,,,,,,-1.1,,,,,,,,,,,METAR,5.0
CWGR 072100Z AUTO 12006KT 18/15 RMK AO1 SLP105 T01810148 56006,CWGR,2023-07-07T21:00:00Z,47.42,-61.77,18.1,14.8,120,6,,,,1010.5,,TRUE,TRUE,,,,,,,,,,,,,,,,-0.6,,,,,,,,,,,METAR,4.0
CWGM 072100Z AUTO 15004KT 19/09 RMK AO1 SLP188 T01850087 56006,CWGM,2023-07-07T21:00:00Z,49.13,-113.8,18.5,8.7,150,4,,,,1018.8,,TRUE,TRUE,,,,,,,,,,,,,,,,-0.6,,,,,,,,,,,METAR,1292.0
CWGL 072100Z AUTO 29011KT 23/13 RMK AO1 SLP113 T02270126 58005,CWGL,2023-07-07T21:00:00Z,44.53,-79.22,22.7,12.6,290,11,,,,1011.3,,TRUE,TRUE,,,,,,,,,,,,,,,,-0.5,,,,,,,,,,,METAR,220.0
CWGH 072100Z AUTO 19003KT 28/22 RMK AO1 SLP100 T02760215 56004,CWGH,2023-07-07T21:00:00Z,44.42,-75.85,27.6,21.5,190,3,,,,1010.0,,TRUE,TRUE,,,,,,,,,,,,,,,,-0.4,,,,,,,,,,,METAR,76.0
CWGD 072100Z AUTO 33006KT 20/11 RMK AO1 SLP150 T02030106 58013,CWGD,2023-07-07T21:00:00Z,43.77,-81.72,20.3,10.6,330,6,,,,1015.0,,TRUE,TRUE,,,,,,,,,,,,,,,,-1.3,,,,,,,,,,,METAR,214.0
CWGB 072100Z AUTO 11013KT 18/ RMK AO1 SLP105 T0180 58009,CWGB,2023-07-07T21:00:00Z,49.35,-124.13,18.0,,110,13,,,,1010.5,,TRUE,TRUE,,,,,,,,,,,,,,,,-0.9,,,,,,,,,,,METAR,6.0
CWFQ 072100Z AUTO 30003KT 23/20 RMK AO1 SLP110 T02260195 53007,CWFQ,2023-07-07T21:00:00Z,45.03,-72.85,22.6,19.5,300,3,,,,1011.0,,TRUE,TRUE,,,,,,,,,,,,,,,,0.7,,,,,,,,,,,METAR,190.0
CWFJ 072100Z AUTO 13002KT 25/09 RMK AO1 T02460088,CWFJ,2023-07-07T21:00:00Z,49.2,-113.27,24.6,8.8,130,2,,,,,,TRUE,TRUE,,,,,,,,,,,,,,,,,,,,,,,,,,,METAR,1142.0
CWFF 072100Z AUTO 36004KT 20/02 RMK AO1 SLP193 T01950018 58007,CWFF,2023-07-07T21:00:00Z,52.82,-104.6,19.5,1.8,360,4,,,,1019.3,,TRUE,TRUE,,,,,,,,,,,,,,,,-0.7,,,,,,,,,,,METAR,482.0
CWEZ 072100Z AUTO 22017KT 20/12 RMK AO1 PK WND 23018/2056 SLP114 T02000120 58007,CWEZ,2023-07-07T21:00:00Z,48.78,-123.05,20.0,12.0,220,17,,,,1011.4,,TRUE,TRUE,,,,,,,,,,,,,,,,-0.7,,,,,,,,,,,METAR,23.0
CWEW 072100Z AUTO 25004KT 28/21 RMK AO1 SLP095 T02840209 55000,CWEW,2023-07-07T21:00:00Z,45.82,-73.43,28.4,20.9,250,4,,,,1009.5,,TRUE,TRUE,,,,,,,,,,,,,,,,0.0,,,,,,,,,,,METAR,17.0
CWEU 072100Z 27019KT 15SM FEW047 FEW086 09/01 A2970 RMK SC1AC1 SC TR AC TR SLP067,CWEU,2023-07-07T21:00:00Z,80.0,-85.93,9.0,1.0,270,19,,15.0,29.698818,1006.7,,,,,,,,,,FEW,4700,FEW,8600,,,,,VFR,,,,,,,,,,,,METAR,2.0
CWER 072100Z AUTO 23014KT RMK AO1 PK WND 22017/2015,CWER,2023-07-07T21:00:00Z,47.0,-70.82,,,230,14,,,,,,TRUE,TRUE,,,,,,,,,,,,,,,,,,,,,,,,,,,METAR,4.0
CWEQ 072100Z AUTO 04004KT 19/03 RMK AO1 SLP178 T01850031 58003,CWEQ,2023-07-07T21:00:00Z,52.12,-101.22,18.5,3.1,40,4,,,,1017.8,,TRUE,TRUE,,,,,,,,,,,,,,,,-0.3,,,,,,,,,,,METAR,331.0
CWEP 072100Z AUTO 09005KT 19/17 RMK AO1 SLP106 T01910168 57010,CWEP,2023-07-07T21:00:00Z,46.45,-61.98,19.1,16.8,90,5,,,,1010.6,,TRUE,TRUE,,,,,,,,,,,,,,,,-1.0,,,,,,,,,,,METAR,9.0
CWEL 072100Z AUTO 10015KT 17/14 RMK AO1 PK WND 10018/2002 SLP106 T01730137 58008,CWEL,2023-07-07T21:00:00Z,49.22,-123.8,17.3,13.7,100,15,,,,1010.6,,TRUE,TRUE,,,,,,,,,,,,,,,,-0.8,,,,,,,,,,,METAR,0.0
CWEK 072100Z AUTO 16004KT 18/14 RMK AO1 SLP115 T01780144 51001,CWEK,2023-07-07T21:00:00Z,54.58,-130.7,17.8,14.4,160,4,,,,1011.5,,TRUE,TRUE,,,,,,,,,,,,,,,,0.1,,,,,,,,,,,METAR,8.0
CWEH 072100Z AUTO 11005KT 23/05 RMK AO1 SLP174 T02300047 57006,CWEH,2023-07-07T21:00:00Z,49.43,-108.98,23.0,4.7,110,5,,,,1017.4,,TRUE,TRUE,,,,,,,,,,,,,,,,-0.6,,,,,,,,,,,METAR,1077.0
CWEF 072100Z AUTO 31008KT 15/14 RMK AO1 SLP100 T01520137 56007,CWEF,2023-07-07T21:00:00Z,47.22,-60.13,15.2,13.7,310,8,,,,1010.0,,TRUE,TRUE,,,,,,,,,,,,,,,,-0.7,,,,,,,,,,,METAR,27.0
CWEE 072100Z AUTO 24/15 RMK AO1 SLP091 T02400152 55004,CWEE,2023-07-07T21:00:00Z,49.27,-73.35,24.0,15.2,,,,,,1009.1,,TRUE,TRUE,,,,,,,,,,,,,,,,-0.4,,,,,,,,,,,METAR,302.0
CWDZ 072100Z AUTO 05005KT 26/13 RMK AO1 SLP160 T02620127 58012,CWDZ,2023-07-07T21:00:00Z,51.43,-112.67,26.2,12.7,50,5,,,,1016.0,,TRUE,TRUE,,,,,,,,,,,,,,,,-1.2,,,,,,,,,,,METAR,689.0
CWDV 072100Z AUTO 24012G18KT 21/14 RMK AO1 PK WND 23018/2050 SLP108 T02130143 55004,CWDV,2023-07-07T21:00:00Z,49.02,-90.47,21.3,14.3,240,12,18,,,1010.8,,TRUE,TRUE,,,,,,,,,,,,,,,,-0.4,,,,,,,,,,,METAR,487.0
CWDQ 072100Z AUTO 18005KT 28/19 RMK AO1 SLP087 T02840186 55005,CWDQ,2023-07-07T21:00:00Z,47.42,-72.78,28.4,18.6,180,5,,,,1008.7,,TRUE,TRUE,,,,,,,,,,,,,,,,-0.5,,,,,,,,,,,METAR,174.0
CWDO 072100Z AUTO 33004KT 11/11 RMK AO1 SLP088 T01050105 56005,CWDO,2023-07-07T21:00:00Z,49.68,-54.78,10.5,10.5,330,4,,,,1008.8,,TRUE,TRUE,,,,,,,,,,,,,,,,-0.5,,,,,,,,,,,METAR,89.0
CWDM 072100Z AUTO 19005KT 15/13 RMK AO1 SLP101 T01480126 56010,CWDM,2023-07-07T21:00:00Z,50.47,-59.63,14.8,12.6,190,5,,,,1010.1,,TRUE,TRUE,,,,,,,,,,,,,,,,-1.0,,,,,,,,,,,METAR,2.0
CWDK 072100Z AUTO 13009G17KT 25/08 RMK AO1 PK WND 14017/2050 SLP166 T02530082 56014,CWDK,2023-07-07T21:00:00Z,50.02,-113.62,25.3,8.2,130,9,17,,,1016.6,,TRUE,TRUE,,,,,,,,,,,,,,,,-1.4,,,,,,,,,,,METAR,1014.0
CWDJ 072100Z AUTO 33006KT 23/04 RMK AO1 SLP181 T02300044 58004,CWDJ,2023-07-07T21:00:00Z,50.4,-104.58,23.0,4.4,330,6,,,,1018.1,,TRUE,TRUE,,,,,,,,,,,,,,,,-0.4,,,,,,,,,,,METAR,576.0
CWDC 072100Z AUTO 25006KT 22/07 RMK AO1 PK WND 27017/2020 SLP147 T02150074 58012,CWDC,2023-07-07T21:00:00Z,59.57,-108.48,21.5,7.4,250,6,,,,1014.7,,TRUE,TRUE,,,,,,,,,,,,,,,,-1.2,,,,,,,,,,,METAR,311.0
CWDA 072100Z AUTO 00008KT 14/ RMK AO1 T0140,CWDA,2023-07-07T21:00:00Z,50.72,-56.12,14.0,,0,8,,,,,,TRUE,TRUE,,,,,,,,,,,,,,,,,,,,,,,,,,,METAR,30.0
CWCT 072100Z AUTO 04009KT 25/08 RMK AO1 SLP188 T02490076 58005,CWCT,2023-07-07T21:00:00Z,52.07,-111.43,24.9,7.6,40,9,,,,1018.8,,TRUE,TRUE,,,,,,,,,,,,,,,,-0.5,,,,,,,,,,,METAR,793.0
CWCJ 072100Z AUTO 19007G16KT 17/08 RMK AO1 SLP133 T01690078 56011,CWCJ,2023-07-07T21:00:00Z,48.6,-86.28,16.9,7.8,190,7,16,,,1013.3,,TRUE,TRUE,,,,,,,,,,,,,,,,-1.1,,,,,,,,,,,METAR,207.0
CWCI 072100Z AUTO 11007KT 15/09 RMK AO1 SLP131 T01480093 58022,CWCI,2023-07-07T21:00:00Z,47.33,-85.82,14.8,9.3,110,7,,,,1013.1,,TRUE,TRUE,,,,,,,,,,,,,,,,-2.2,,,,,,,,,,,METAR,167.0
CWCF 072100Z AUTO 32011KT 17/05 RMK AO1 PK WND 32020/2021 SLP162 T01650046 50004,CWCF,2023-07-07T21:00:00Z,52.35,-97.03,16.5,4.6,320,11,,,,1016.2,,TRUE,TRUE,,,,,,,,,,,,,,,,0.4,,,,,,,,,,,METAR,219.0
CWBZ 072100Z AUTO 27004KT 26/20 RMK AO1 SLP097 T02620202 53001,CWBZ,2023-07-07T21:00:00Z,45.12,-74.28,26.2,20.2,270,4,,,,1009.7,,TRUE,TRUE,,,,,,,,,,,,,,,,0.1,,,,,,,,,,,METAR,49.0
CWBY 072100Z AUTO 13012G19KT 21/16 RMK AO1 PK WND 13019/2053 SLP098 T02070159 58003,CWBY,2023-07-07T21:00:00Z,49.83,-64.28,20.7,15.9,130,12,19,,,1009.8,,TRUE,TRUE,,,,,,,,,,,,,,,,-0.3,,,,,,,,,,,METAR,56.0
CWBV 072100Z AUTO 24017KT 17/15 RMK AO1 PK WND 24019/2057 SLP094 T01670153 56006,CWBV,2023-07-07T21:00:00Z,44.82,-62.33,16.7,15.3,240,17,,,,1009.4,,TRUE,TRUE,,,,,,,,,,,,,,,,-0.6,,,,,,,,,,,METAR,16.0
CWBU 072100Z AUTO 33004KT 20/01 RMK AO1 SLP186 T02020005 58008,CWBU,2023-07-07T21:00:00Z,53.33,-104.02,20.2,0.5,330,4,,,,1018.6,,TRUE,TRUE,,,,,,,,,,,,,,,,-0.8,,,,,,,,,,,METAR,369.0
CWBT 072100Z AUTO 13004KT 18/13 RMK AO1 SLP098 T01800129 56006,CWBT,2023-07-07T21:00:00Z,50.27,-64.23,18.0,12.9,130,4,,,,1009.8,,TRUE,TRUE,,,,,,,,,,,,,,,,-0.6,,,,,,,,,,,METAR,12.0
CWBS 072100Z AUTO 20009KT 25/22 RMK AO1 T02450215,CWBS,2023-07-07T21:00:00Z,46.18,-72.92,24.5,21.5,200,9,,,,,,TRUE,TRUE,,,,,,,,,,,,,,,,,,,,,,,,,,,METAR,3.0
CWBO 072100Z AUTO 21005KT 27/10 RMK AO1 SLP167 T02700099 58013,CWBO,2023-07-07T21:00:00Z,50.53,-111.83,27.0,9.9,210,5,,,,1016.7,,TRUE,TRUE,,,,,,,,,,,,,,,,-1.3,,,,,,,,,,,METAR,752.0
CWBK 072100Z AUTO 11007KT 20/18 RMK AO1 SLP096 T02030180 56010,CWBK,2023-07-07T21:00:00Z,45.77,-62.67,20.3,18.0,110,7,,,,1009.6,,TRUE,TRUE,,,,,,,,,,,,,,,,-1.0,,,,,,,,,,,METAR,2.0
CWBA 072100Z AUTO 34004KT 24/14 RMK AO1 T02370143,CWBA,2023-07-07T21:00:00Z,46.72,-79.1,23.7,14.3,340,4,,,,,,TRUE,TRUE,,,,,,,,,,,,,,,,,,,,,,,,,,,METAR,181.0
CWAV 072100Z AUTO 07005KT 22/10 RMK AO1 SLP190 T02180098 58008,CWAV,2023-07-07T21:00:00Z,51.77,-114.67,21.8,9.8,70,5,,,,1019.0,,TRUE,TRUE,,,,,,,,,,,,,,,,-0.8,,,,,,,,,,,METAR,1115.0
CWAR 072100Z AUTO 16010KT 13/12 RMK AO1 SLP092 T01340123 58002,CWAR,2023-07-07T21:00:00Z,47.28,-54.0,13.4,12.3,160,10,,,,1009.2,,TRUE,TRUE,,,,,,,,,,,,,,,,-0.2,,,,,,,,,,,METAR,6.0
CWAQ 072100Z AUTO 33007KT 25/04 RMK AO1 SLP182 T02490044 58004,CWAQ,2023-07-07T21:00:00Z,49.05,-105.48,24.9,4.4,330,7,,,,1018.2,,TRUE,TRUE,,,,,,,,,,,,,,,,-0.4,,,,,,,,,,,METAR,761.0
CWAF 072100Z AUTO 34004KT 12/11 RMK AO1 T01170109,CWAF,2023-07-07T21:00:00Z,48.07,-69.55,11.7,10.9,340,4,,,,,,TRUE,TRUE,,,,,,,,,,,,,,,,,,,,,,,,,,,METAR,6.0
CTRA 072100Z AUTO 32005KT 20/06 RMK AO1 SLP120 T02040055 53001,CTRA,2023-07-07T21:00:00Z,49.67,-93.73,20.4,5.5,320,5,,,,1012.0,,TRUE,TRUE,,,,,,,,,,,,,,,,0.1,,,,,,,,,,,METAR,432.0
CTNK 072100Z AUTO 35002KT 25/15 RMK AO1 SLP116 T02500151 56006,CTNK,2023-07-07T21:00:00Z,45.53,-78.27,25.0,15.1,350,2,,,,1011.6,,TRUE,TRUE,,,,,,,,,,,,,,,,-0.6,,,,,,,,,,,METAR,405.0
CTCK 072100Z AUTO 29003KT 27/18 RMK AO1 SLP094 T02680182 55002,CTCK,2023-07-07T21:00:00Z,45.25,-74.97,26.8,18.2,290,3,,,,1009.4,,TRUE,TRUE,,,,,,,,,,,,,,,,-0.2,,,,,,,,,,,METAR,84.0
CPSV 072100Z AUTO 02002KT 26/05 RMK AO1 T02620054,CPSV,2023-07-07T21:00:00Z,49.92,-110.92,26.2,5.4,20,2,,,,,,TRUE,TRUE,,,,,,,,,,,,,,,,,,,,,,,,,,,METAR,766.0
CPST 072100Z AUTO 13004KT 23/08 RMK AO1 T02330075,CPST,2023-07-07T21:00:00Z,51.03,-113.28,23.3,7.5,130,4,,,,,,TRUE,TRUE,,,,,,,,,,,,,,,,,,,,,,,,,,,METAR,1005.0
CPRY 072100Z AUTO 12008KT 25/06 RMK AO1 T02480063,CPRY,2023-07-07T21:00:00Z,49.48,-112.68,24.8,6.3,120,8,,,,,,TRUE,TRUE,,,,,,,,,,,,,,,,,,,,,,,,,,,METAR,947.0
CPRO 072100Z AUTO 20008KT 26/09 RMK AO1 T02550090,CPRO,2023-07-07T21:00:00Z,50.83,-112.05,25.5,9.0,200,8,,,,,,TRUE,TRUE,,,,,,,,,,,,,,,,,,,,,,,,,,,METAR,733.0
CPIR 072100Z AUTO 15004KT 25/07 RMK AO1 T02540071,CPIR,2023-07-07T21:00:00Z,49.9,-112.73,25.4,7.1,150,4,,,,,,TRUE,TRUE,,,,,,,,,,,,,,,,,,,,,,,,,,,METAR,895.0
CPIN 072100Z AUTO 35006KT 330V030 ////SM ////// 16/08 A2981,CPIN,2023-07-07T21:00:00Z,,,16.0,8.0,350,6,,,29.811024,,,TRUE,,,,,,,,,,,,,,,,,,,,,,,,,,,,METAR,
CPFI 072100Z AUTO 08010KT 26/07 RMK AO1 T02640071,CPFI,2023-07-07T21:00:00Z,49.8,-112.03,26.4,7.1,80,10,,,,,,TRUE,TRUE,,,,,,,,,,,,,,,,,,,,,,,,,,,METAR,804.0
CPEH 072100Z AUTO 24/12 RMK AO1 T02430119,CPEH,2023-07-07T21:00:00Z,50.18,-112.43,24.3,11.9,,,,,,,,TRUE,TRUE,,,,,,,,,,,,,,,,,,,,,,,,,,,METAR,814.0
CPBT 072100Z AUTO 11009KT 25/06 RMK AO1 T02450062,CPBT,2023-07-07T21:00:00Z,49.53,-113.05,24.5,6.2,110,9,,,,,,TRUE,TRUE,,,,,,,,,,,,,,,,,,,,,,,,,,,METAR,998.0
CMGB 072100Z AUTO 20003KT 25/22 RMK AO1 SLP104 T02460218 53002,CMGB,2023-07-07T21:00:00Z,45.37,-72.77,24.6,21.8,200,3,,,,1010.4,,TRUE,TRUE,,,,,,,,,,,,,,,,0.2,,,,,,,,,,,METAR,87.0
CMFM 072100Z AUTO 24002KT 23/18 RMK AO1 SLP110 T02260179 55003,CMFM,2023-07-07T21:00:00Z,47.32,-71.15,22.6,17.9,240,2,,,,1011.0,,TRUE,TRUE,,,,,,,,,,,,,,,,-0.3,,,,,,,,,,,METAR,663.0
CERM 072100Z AUTO 22003KT 22/21 RMK AO1 SLP102 T02160206 53015,CERM,2023-07-07T21:00:00Z,47.42,-68.32,21.6,20.6,220,3,,,,1010.2,,TRUE,TRUE,,,,,,,,,,,,,,,,1.5,,,,,,,,,,,METAR,151.0
CBBC 072100Z AUTO 34006KT 320V020 9SM CLR 21/14 A2987 RMK TS/LTNG TEMPO UNAVBL SLP117 DENSITY ALT 900FT,CBBC,2023-07-07T21:00:00Z,52.18,-128.15,21.0,14.0,340,6,,9.0,29.870079,1011.7,,TRUE,,,,,,,,CLR,,,,,,,,VFR,,,,,,,,,,,,METAR,36.0
CBAR 072100Z AUTO 07006KT ////SM ////// ///// A////,CBAR,2023-07-07T21:00:00Z,,,,,70,6,,,,,,TRUE,,,,,,,,,,,,,,,,,,,,,,,,,,,,METAR,
CAHR 072100Z AUTO 23007KT 28/20 RMK AO1 SLP097 T02750203 56009,CAHR,2023-07-07T21:00:00Z,46.35,-63.17,27.5,20.3,230,7,,,,1009.7,,TRUE,TRUE,,,,,,,,,,,,,,,,-0.9,,,,,,,,,,,METAR,52.0
AYPY 072100Z VRB03KT 9999 FEW010 SCT025 BKN050 24/23 Q1011,AYPY,2023-07-07T21:00:00Z,-9.43,147.22,24.0,23.0,0,3,,6.21,29.852362,,,,,,,,,,,FEW,1000,SCT,2500,BKN,5000,,,VFR,,,,,,,,,,,,METAR,44.0
AGGH 072100Z 00000KT 9999 FEW015 BKN100 24/23 Q1010,AGGH,2023-07-07T21:00:00Z,-9.42,160.05,24.0,23.0,0,0,,6.21,29.822834,,,,,,,,,,,FEW,1500,BKN,10000,,,,,VFR,,,,,,,,,,,,METAR,6.0
PAPT 072059Z 17010G16KT 25SM BKN065 16/07 A2978 RMK NO SPECI,PAPT,2023-07-07T20:59:00Z,62.1,-152.72,16.0,7.0,170,10,16,25.0,29.778543,,,,,,,,,,,BKN,6500,,,,,,,VFR,,,,,,,,,,,,METAR,577.0
KPMH 072059Z AUTO 00000KT 10SM SCT060 SCT065 BKN085 31/14 A2993 RMK AO2,KPMH,2023-07-07T20:59:00Z,38.83,-82.85,31.0,14.0,0,0,,10.0,29.929134,,,TRUE,TRUE,,,,,,,SCT,6000,SCT,6500,BKN,8500,,,VFR,,,,,,,,,,,,METAR,200.0
KOXD 072059Z AUTO 35004KT 10SM CLR 30/11 A2996 RMK AO2,KOXD,2023-07-07T20:59:00Z,39.5,-84.78,30.0,11.0,350,4,,10.0,29.958662,,,TRUE,TRUE,,,,,,,CLR,,,,,,,,VFR,,,,,,,,,,,,METAR,317.0
KPRN 072058Z AUTO 27006KT 10SM SCT031 29/22 A2990 RMK AO2 SLP070 T02890222 56018,KPRN,2023-07-07T20:58:00Z,31.85,-86.62,28.9,22.2,270,6,,10.0,29.899607,1007.0,,TRUE,TRUE,,,,,,,SCT,3100,,,,,,,VFR,-1.8,,,,,,,,,,,SPECI,137.0
KNJW 072057Z AUTO 14007KT 10SM CLR 27/21 A2997 RMK AO2 TSB01B04E20 SLP062 T02720206 56012 $,KNJW,2023-07-07T20:57:00Z,32.78,-88.82,27.2,20.6,140,7,,10.0,29.970472,1006.2,,TRUE,TRUE,TRUE,,,,,,CLR,,,,,,,,VFR,-1.2,,,,,,,,,,,METAR,165.0
PASL 072056Z AUTO VRB04KT 10SM BKN017 BKN023 OVC028 12/08 A2989 RMK AO2 RAE07 SLP115 P0000 60000 T01170083 56003,PASL,2023-07-07T20:56:00Z,61.68,-157.15,11.7,8.3,0,4,,10.0,29.890747,1011.5,,TRUE,TRUE,,,,,,,BKN,1700,BKN,2300,OVC,2800,,,MVFR,-0.3,,,,,0.005,0.005,,,,,METAR,64.0
TNCB 072055Z 09014KT 060V130 9999 SCT018 BKN022 BKN029 30/24 Q1011,TNCB,2023-07-07T20:55:00Z,12.13,-68.28,30.0,24.0,90,14,,6.21,29.852362,,,,,,,,,,,SCT,1800,BKN,2200,BKN,2900,,,MVFR,,,,,,,,,,,,METAR,6.0
RKSG 072055Z 10005KT 10SM OVC013 21/21 A2958 RMK AO2A SLP019 T02140212 53005 $,RKSG,2023-07-07T20:55:00Z,36.97,127.02,21.4,21.2,100,5,,10.0,29.58071,1001.9,,,TRUE,TRUE,,,,,,OVC,1300,,,,,,,MVFR,0.5,,,,,,,,,,,SPECI,12.0
RJTY 072055Z AUTO 00000KT 10SM FEW047 SCT060 23/21 A2980 RMK AO2 RAB20E21 SLP091 P0000 60002 T02330212 53004 $,RJTY,2023-07-07T20:55:00Z,35.75,139.33,23.3,21.2,0,0,,10.0,29.799213,1009.1,,TRUE,TRUE,TRUE,,,,,,FEW,4700,SCT,6000,,,,,VFR,0.4,,,,,0.005,,,,,,SPECI,136.0
PTYA 072055Z VRB02KT 12SM FEW016 BKN300 27/26 A2982 RMK SLP098 8/101 T02670259 55002,PTYA,2023-07-07T20:55:00Z,9.48,138.08,26.7,25.9,0,2,,12.0,29.819881,1009.8,,,,,,,,,,FEW,1600,BKN,30000,,,,,VFR,-0.2,,,,,,,,,,,SPECI,4.0
OTBH 072055Z 21005KT 9999 CLR 34/18 A2949 Q0998 RMK AO2A SLPNO FZRANO TSNO VISNO RWY34 CHINO RWY34 $,OTBH,2023-07-07T20:55:00Z,25.12,51.32,34.0,18.0,210,5,,6.21,29.468504,,,,TRUE,TRUE,,TRUE,TRUE,,,CLR,,,,,,,,VFR,,,,,,,,,,,,SPECI,40.0
OEPS 072055Z 00000KT 9999 CLR 34/M02 A2970 RMK AO2A SLP031 WND DATA ESTMD T03391017 58002,OEPS,2023-07-07T20:55:00Z,24.07,47.58,33.9,-1.7,0,0,,6.21,29.698818,1003.1,,,TRUE,,,,,,,CLR,,,,,,,,VFR,-0.2,,,,,,,,,,,SPECI,503.0
LIVE 072055Z 00000KT CAVOK 16/09 Q1026 RMK SCT SCT180 VIS MIN 9999,LIVE,2023-07-07T20:55:00Z,46.82,10.5,16.0,9.0,0,0,,6.21,30.295275,,,,,,,,,,,CAVOK,,,,,,,,VFR,,,,,,,,,,,,SPECI,1684.0
LIRM 072055Z 09004KT CAVOK 24/22 Q1018 RMK FEW FEW200 VIS MIN 9999 WIND THR06 10005KT BLU,LIRM,2023-07-07T20:55:00Z,41.05,14.07,24.0,22.0,90,4,,6.21,30.059055,,,,,,,,,,,CAVOK,,,,,,,,VFR,,0.5,,,,,,,,,,SPECI,6.0
LIQC 072055Z 05005KT CAVOK 26/19 Q1019 RMK SKC QUK / QUL / VIS MAR 20 KM VIS MIN 9999,LIQC,2023-07-07T20:55:00Z,40.55,14.2,26.0,19.0,50,5,,6.21,30.088583,,,,,,,,,,,CAVOK,,,,,,,,VFR,,,,,,,,,,,,SPECI,154.0
LIEB 072055Z 22008KT CAVOK 24/21 Q1017 RMK FEW FEW070 QUK / QUL / VIS MAR 20 KM MON INVIS VIS MIN 9999,LIEB,2023-07-07T20:55:00Z,39.93,9.72,24.0,21.0,220,8,,6.21,30.029528,,,,,,,,,,,CAVOK,,,,,,,,VFR,,,,,,,,,,,,METAR,126.0
KTIK 072055Z AUTO 10006KT 10SM FEW130 FEW160 27/20 A2990 RMK AO2 PK WND 01026/1956 RAB08E20 TSE11 SLP120 P0001 60001 T02660204 50011 $,KTIK,2023-07-07T20:55:00Z,35.4,-97.38,26.6,20.4,100,6,,10.0,29.899607,1012.0,,TRUE,TRUE,TRUE,,,,,,FEW,13000,FEW,16000,,,,,VFR,1.1,,,,,0.01,0.01,,,,,METAR,387.0
KTHM 072055Z AUTO 07009G14KT 10SM 31/06 A2993 RMK Thompson Falls ,KTHM,2023-07-07T20:55:00Z,47.57,-115.28,31.0,6.0,70,9,14,10.0,29.929134,,,TRUE,,,,,,,,,,,,,,,,,,,,,,,,,,,,METAR,751.0
KSSC 072055Z AUTO 16007KT 10SM FEW045 FEW130 33/23 A2980 RMK AO2 LTG DSNT SE AND W SLP090 T03270233 57016 $,KSSC,2023-07-07T20:55:00Z,33.97,-80.47,32.7,23.3,160,7,,10.0,29.799213,1009.0,,TRUE,TRUE,TRUE,,,,,,FEW,4500,FEW,13000,,,,,VFR,-1.6,,,,,,,,,,,SPECI,71.0
KSBD 072055Z 27006KT 5SM HZ CLR 30/05 A2983,KSBD,2023-07-07T20:55:00Z,34.08,-117.25,30.0,5.0,270,6,,5.0,29.828741,,,,,,,,,,HZ,CLR,,,,,,,,MVFR,,,,,,,,,,,,METAR,353.0
KRPX 072055Z AUTO 00000KT 25/04 A2999 RMK Roundup ,KRPX,2023-07-07T20:55:00Z,46.47,-108.55,25.0,4.0,0,0,,,29.991142,,,TRUE,,,,,,,,,,,,,,,,,,,,,,,,,,,,METAR,1062.0
KQN3 072055Z 20005KT 9999 FEW200 36/21 A2987 RMK AO2A SLP096 T03560212 53019,KQN3,2023-07-07T20:55:00Z,,,35.6,21.2,200,5,,6.21,29.870079,1009.6,,,TRUE,,,,,,,FEW,20000,,,,,,,VFR,1.9,,,,,,,,,,,METAR,
KOXV 072055Z AUTO VRB06KT 10SM FEW100 18/13 A2997 RMK AO2,KOXV,2023-07-07T20:55:00Z,41.28,-93.12,18.0,13.0,0,6,,10.0,29.970472,,,TRUE,TRUE,,,,,,,FEW,10000,,,,,,,VFR,,,,,,,,,,,,METAR,280.0
KFRI 072055Z AUTO 18006KT 10SM CLR 26/20 A2987 RMK AO2 SLP106 T02640197 57020 $,KFRI,2023-07-07T20:55:00Z,39.05,-96.77,26.4,19.7,180,6,,10.0,29.870079,1010.6,,TRUE,TRUE,TRUE,,,,,,CLR,,,,,,,,VFR,-2.0,,,,,,,,,,,METAR,232.0
KEFD 072054Z 14008KT 10SM SCT024 BKN110 32/23 A2993,KEFD,2023-07-07T20:54:00Z,29.6,-95.17,32.0,23.0,140,8,,10.0,29.929134,,,,,,,,,,,SCT,2400,BKN,11000,,,,,VFR,,,,,,,,,,,,METAR,9.0
PAKW 072053Z AUTO 20007KT 10SM SCT110 23/13 A2986 RMK AO2 SLP109 T02280133 55000 TSNO,PAKW,2023-07-07T20:53:00Z,55.58,-133.07,22.8,13.3,200,7,,10.0,29.861221,1010.9,,TRUE,TRUE,,,TRUE,,,,SCT,11000,,,,,,,VFR,0.0,,,,,,,,,,,METAR,7.0
KTUL 072053Z 26005KT 10SM -RA FEW015 BKN060 OVC110 27/22 A2992 RMK AO2 RAB48 SLP126 P0000 60000 T02670222 51016,KTUL,2023-07-07T20:53:00Z,36.2,-95.88,26.7,22.2,260,5,,10.0,29.920275,1012.6,,,TRUE,,,,,,-RA,FEW,1500,BKN,6000,OVC,11000,,,VFR,1.6,,,,,0.005,0.005,,,,,METAR,196.0
KRVS 072053Z VRB03KT 10SM -RA FEW090 SCT110 26/21 A2993 RMK AO2 RAB51 SLP138 P0000 60000 T02610206 51023,KRVS,2023-07-07T20:53:00Z,36.05,-95.98,26.1,20.6,0,3,,10.0,29.929134,1013.8,,,TRUE,,,,,,-RA,FEW,9000,SCT,11000,,,,,VFR,2.3,,,,,0.005,0.005,,,,,METAR,191.0
KOTM 072053Z AUTO 15005KT 10SM BKN120 18/15 A2996 RMK AO2 SLP145 60016 T01830150 55015,KOTM,2023-07-07T20:53:00Z,41.1,-92.45,18.3,15.0,150,5,,10.0,29.958662,1014.5,,TRUE,TRUE,,,,,,,BKN,12000,,,,,,,VFR,-1.5,,,,,,0.16,,,,,METAR,254.0
KICT 072053Z 22011KT 10SM -TSRA SCT040CB SCT080 BKN120 21/19 A2991 RMK AO2 LTG DSNT ALQDS RAB1957 SLP117 FRQ LGTICCG ALQDS TS ALQDS MOV SE P0003 60003 T02110189 56012,KICT,2023-07-07T20:53:00Z,37.65,-97.43,21.1,18.9,220,11,,10.0,29.911417,1011.7,,,TRUE,,,,,,-TSRA,SCT,4000,SCT,8000,BKN,12000,,,VFR,-1.2,,,,,0.03,0.03,,,,,METAR,428.0
KGUY 072053Z AUTO 13007KT 10SM FEW037 31/23 A2988 RMK AO2 SLP069 T03060233 56025,KGUY,2023-07-07T20:53:00Z,36.68,-101.5,30.6,23.3,130,7,,10.0,29.878937,1006.9,,TRUE,TRUE,,,,,,,FEW,3700,,,,,,,VFR,-2.5,,,,,,,,,,,METAR,950.0
KGLD 072053Z AUTO 02013G21KT 10SM CLR 27/17 A2998 RMK AO2 SLP109 T02670167 58005,KGLD,2023-07-07T20:53:00Z,39.37,-101.7,26.7,16.7,20,13,21,10.0,29.97933,1010.9,,TRUE,TRUE,,,,,,,CLR,,,,,,,,VFR,-0.5,,,,,,,,,,,METAR,1111.0
KGAG 072053Z AUTO A2990 RMK AO2 SLPNO 57009 PWINO,KGAG,2023-07-07T20:53:00Z,36.3,-99.77,,,,,,,29.899607,,,TRUE,TRUE,,,,,TRUE,,,,,,,,,,,-0.9,,,,,,,,,,,METAR,670.0
KFNB 072053Z AUTO 13009KT 10SM SCT090 24/19 A2988 RMK AO2 SLP110 T02440189 58015,KFNB,2023-07-07T20:53:00Z,40.07,-95.58,24.4,18.9,130,9,,10.0,29.878937,1011.0,,TRUE,TRUE,,,,,,,SCT,9000,,,,,,,VFR,-1.5,,,,,,,,,,,METAR,301.0
KEMP 072053Z AUTO 23005KT 10SM CLR 28/19 A2990 RMK AO2 SLP114 T02830189 56017,KEMP,2023-07-07T20:53:00Z,38.33,-96.2,28.3,18.9,230,5,,10.0,29.899607,1011.4,,TRUE,TRUE,,,,,,,CLR,,,,,,,,VFR,-1.7,,,,,,,,,,,METAR,366.0
KCGI 072053Z 19007KT 10SM FEW047 SCT090 SCT110 30/22 A2992 RMK AO2 SLP126 T03000217 58018,KCGI,2023-07-07T20:53:00Z,37.23,-89.58,30.0,21.7,190,7,,10.0,29.920275,1012.6,,,TRUE,,,,,,,FEW,4700,SCT,9000,SCT,11000,,,VFR,-1.8,,,,,,,,,,,METAR,103.0
KBVO 072053Z AUTO 10SM FEW075 FEW090 SCT110 24/21 A2988 RMK AO2 LTG DSNT W AND NW RAB39E48 SLP107 P0000 60000 T02440206 58018,KBVO,2023-07-07T20:53:00Z,36.77,-96.02,24.4,20.6,,,,10.0,29.878937,1010.7,,TRUE,TRUE,,,,,,,FEW,7500,FEW,9000,SCT,11000,,,VFR,-1.8,,,,,0.005,0.005,,,,,METAR,210.0
KBRL 072053Z AUTO 00000KT 10SM -RA FEW075 BKN090 OVC110 20/16 A2997 RMK AO2 RAB24 SLP146 P0002 60002 T02000161 58007,KBRL,2023-07-07T20:53:00Z,40.77,-91.13,20.0,16.1,0,0,,10.0,29.970472,1014.6,,TRUE,TRUE,,,,,,-RA,FEW,7500,BKN,9000,OVC,11000,,,VFR,-0.7,,,,,0.02,0.02,,,,,METAR,208.0
