{"station_id": ["AGGA", "AGGC", "AGGH", "AGGK", "AGGL", "AGGM", "AGGN", "AGGR", "ANYN", "AYPY", "BGGH", "BGSF", "BGTL", "BIAR", "BIEG", "BIIS", "BIKF", "BIRK", "BIVM", "BKPR", "CWWU", "CYAM", "CYAT", "CYAY", "CYBC", "CYBG", "CYBK", "CYBR", "CYBX", "CYCA", "CYCB", "CYCO", "CYCY", "CYDB", "CYDF", "CYDN", "CYDP", "CYEG", "CYEK", "CYER", "CYEV", "CYFB", "CYFC", "CYFS", "CYGL", "CYGP", "CYGQ", "CYGV", "CYGW", "CYGX", "CYHD", "CYHK", "CYHM", "CYHU", "CYHY", "CYHZ", "CYIO", "CYIV", "CYJT", "CYKA", "CYKF", "CYKJ", "CYKL", "CYLL", "CYLW", "CYMA", "CYMH", "CYMM", "CYMO", "CYMX", "CYNA", "CYNE", "CYOD", "CYOJ", "CYOO", "CYOW", "CYPA", "CYPE", "CYPH", "CYPL", "CYPQ", "CYPR", "CYPX", "CYQB", "CYQD", "CYQF", "CYQG", "CYQH", "CYQI", "CYQK", "CYQL", "CYQM", "CYQQ", "CYQR", "CYQT", "CYQU", "CYQW", "CYQX", "CYQY", "CYRB", "CYRQ", "CYRT", "CYSB", "CYSF", "CYSJ", "CYSM", "CYTE", "CYTH", "CYTL", "CYTR", "CYTS", "CYTZ", "CYUL", "CYUX", "CYUY", "CYVC", "CYVM", "CYVO", "CYVP", "CYVQ", "CYVR", "CYWG", "CYWK", "CYWL", "CYXC", "CYXE", "CYXH", "CYXJ", "CYXL", "CYXS", "CYXT", "CYXU", "CYXX", "CYXY", "CYYB", "CYYC", "CYYE", "CYYF", "CYYG", "CYYH", "CYYJ", "CYYL", "CYYN", "CYYQ", "CYYR", "CYYT", "CYYU", "CYYY", "CYYZ", "CYZE", "CYZF", "CYZH", "CYZR", "CYZS", "CYZT", "CYZV", "CYZX", "CZBF", "CZMD", "CZSJ", "CZUM", "CZVL", "DAAD", "DAAE", "DAAG", "DAAJ", "DAAP", "DAAS", "DAAT", "DAAV", "DAAY", "DABB", "DABC", "DABS", "DABT", "DAFH", "DAOB", "DAOF", "DAOI", "DAON", "DAOO", "DAOR", "DAOV", "DATM", "DAUA", "DAUB", "DAUG", "DAUH", "DAUI", "DAUK", "DAUL", "DAUO", "DAUT", "DAUU", "DAUZ", "DBBB", "DFFD", "DFOO", "DGAA", "DGLE", "DGSI", "DIAP", "DIBK", "DIYO", "DNAA", "DNAK", "DNBE", "DNGO", "DNIB", "DNIL", "DNJO", "DNKA", "DNKN", "DNKT", "DNMA", "DNMM", "DNSO", "DNSU", "DNYO", "DRRN", "DRZA", "DRZR", "DTKA", "DTMB", "DTNH", "DTTA", "DTTB", "DTTF", "DTTG", "DTTJ", "DTTR", "DTTX", "DTTZ", "DXNG", "DXXX", "EBAW", "EBBR", "EBCI", "EBCV", "EBFN", "EBLG", "EBOS", "EDAH", "EDDB", "EDDC", "EDDE", "EDDF", "EDDG", "EDDH", "EDDK", "EDDL", "EDDM", "EDDN", "EDDP", "EDDR", "EDDS", "EDDV", "EDDW", "EDFH", "EDGS", "EDHK", "EDHL", "EDJA", "EDLN", "EDLP", "EDLV", "EDLW", "EDMA", "EDNY", "EDQM", "EDSB", "EDTL", "EDTY", "EDVE", "EDVK", "EDWE", "EDXW", "EEEI", "EETN", "EFHK", "EFJY", "EFKE", "EFKU", "EFMA", "EFOU", "EFRO", "EFSI", "EFTP", "EFTU", "EFVA", "EGAA", "EGAC", "EGAE", "EGBB", "EGBJ", "EGCC", "EGCK", "EGEO", "EGFF", "EGGD", "EGGP", "EGGW", "EGHH", "EGHI", "EGHQ", "EGJA", "EGJB", "EGJJ", "EGKA", "EGKB", "EGKK", "EGLC", "EGLF", "EGLL", "EGMC", "EGMD", "EGNH", "EGNJ", "EGNM", "EGNR", "EGNS", "EGNT", "EGNV", "EGNX", "EGPA", "EGPB", "EGPC", "EGPD", "EGPE", "EGPF", "EGPH", "EGPI", "EGPK", "EGPN", "EGPO", "EGPU", "EGQL", "EGQS", "EGSH", "EGSS", "EGSY", "EGTC", "EGTE", "EGTK", "EGUN", "EGVA", "EGVN", "EGWC", "EGWU", "EGXC", "EGYP", "EHAM", "EHBK", "EHEH", "EHGG", "EHKD", "EHLE", "EHLW", "EHRD", "EHVK", "EICK", "EIDL", "EIDW", "EIKN", "EIKY", "EIME", "EINN", "EISG", "EIWF", "EKAH", "EKBI", "EKCH", "EKEB", "EKGC", "EKHD", "EKKA", "EKOD", "EKRK", "EKRN", "EKSP", "EKVD", "EKVG", "EKYT", "ELLX", "ENAL", "ENAN", "ENAT", "ENBN", "ENBO", "ENBR", "ENCN", "ENDU", "ENEV", "ENFL", "ENGC", "ENGM", "ENHD", "ENHE", "ENHF", "ENKB", "ENKR", "ENLE", "ENML", "ENNA", "ENNE", "ENOA", "ENOL", "ENOV", "ENRA", "ENRO", "ENRY", "ENSB", "ENSD", "ENSH", "ENSR", "ENTC", "ENTO", "ENVA", "ENVD", "ENZV", "EPBY", "EPCE", "EPDA", "EPDE", "EPGD", "EPKK", "EPKS", "EPKT", "EPLB", "EPLK", "EPLL", "EPMB", "EPMM", "EPMO", "EPOK", "EPPO", "EPPW", "EPRA", "EPRZ", "EPSC", "EPSN", "EPSY", "EPWA", "EPWR", "EPZG", "ESDF", "ESGG", "ESGP", "ESIA", "ESKN", "ESMK", "ESMS", "ESMT", "ESMX", "ESNN", "ESNS", "ESNU", "ESNZ", "ESOE", "ESPA", "ESSA", "ESSB", "ESSP", "ESSV", "ESTA", "ETAD", "ETAR", "ETNL", "ETNW", "ETSL", "EVGA", "EVLA", "EVRA", "EYKA", "EYPA", "EYSA", "EYVI", "FAEL", "FAHS", "FAKM", "FAKN", "FAMM", "FAPM", "FARB", "FAUT", "FAWB", "FCBB", "FCPP", "FEFF", "FGBT", "FGSL", "FHAW", "FIMP", "FIMR", "FJDG", "FKKD", "FKKL", "FKKR", "FKYS", "FLCP", "FLHN", "FLKK", "FLKS", "FLMA", "FLMF", "FLSK", "FLSW", "FMCH", "FMCZ", "FMEE", "FMEP", "FMMI", "FMMS", "FMMT", "FMNA", "FMNM", "FMNN", "FMSD", "FMST", "FNBG", "FNCA", "FNCT", "FNDU", "FNGI", "FNHU", "FNKU", "FNLU", "FNMA", "FNME", "FNMO", "FNSA", "FNSO", "FNUB", "FNUE", "FOOG", "FOOL", "FQBR", "FQCH", "FQIN", "FQLC", "FQMA", "FQNC", "FQNP", "FQPB", "FQQL", "FQTT", "FQVL", "FQXA", "FSIA", "FTTJ", "FVJN", "FVRG", "FWKI", "FYGF", "FYKM", "FYLZ", "FYOA", "FYWE", "FZAA", "FZIC", "FZNA", "FZQA", "GABS", "GAGO", "GBYD", "GCFV", "GCGM", "GCHI", "GCLA", "GCLP", "GCRR", "GCTS", "GCXO", "GECE", "GEML", "GFLL", "GGOV", "GLRB", "GMAD", "GMAG", "GMFF", "GMFK", "GMFM", "GMFO", "GMME", "GMMH", "GMMI", "GMML", "GMMN", "GMMW", "GMMX", "GMMZ", "GMTA", "GMTT", "GOBD", "GOGS", "GOOY", "GOSS", "GQNO", "GQPP", "GUCY", "GVAC", "GVBA", "GVNP", "GVSV", "HABD", "HADC", "HAGN", "HAJJ", "HALA", "HAMK", "HBBA", "HCMM", "HDAM", "HEAL", "HEAR", "HEAT", "HEAX", "HEBA", "HEBL", "HECA", "HEGN", "HELX", "HEMA", "HEMM", "HEOW", "HEPS", "HESC", "HESG", "HESH", "HESN", "HETB", "HETR", "HKEL", "HKJK", "HKKI", "HKML", "HKMO", "HKNW", "HLGD", "HLGT", "HLKF", "HLLB", "HLLM", "HLLQ", "HLLS", "HLMS", "HLON", "HLTD", "HLTQ", "HLUB", "HRYR", "HRZA", "HSSJ", "HSSM", "HTAR", "HTBU", "HTDA", "HTDO", "HTKA", "HTKJ", "HTMW", "HTTB", "HTZA", "HUEN", "HUSO", "KABE", "KABI", "KABQ", "KABR", "KABY", "KACK", "KACT", "KACV", "KACY", "KADF", "KADW", "KAEG", "KAEX", "KAFF", "KAFW", "KAGC", "KAGS", "KAHN", "KAIA", "KALB", "KALI", "KALO", "KALS", "KALW", "KAMA", "KANB", "KAND", "KAOO", "KAPA", "KAPC", "KAPF", "KAPN", "KARA", "KART", "KASD", "KASE", "KASN", "KAST", "KATL", "KATW", "KATY", "KAUG", "KAUS", "KAUW", "KAVL", "KAVP", "KAXN", "KAZO", "KBAD", "KBAF", "KBAM", "KBBD", "KBBG", "KBCB", "KBCE", "KBDL", "KBDN", "KBDR", "KBED", "KBFD", "KBFF", "KBFI", "KBFL", "KBFM", "KBGM", "KBGR", "KBHB", "KBHM", "KBIF", "KBIH", "KBIL", "KBIS", "KBIX", "KBJC", "KBJI", "KBKE", "KBKF", "KBKW", "KBLF", "KBLH", "KBLI", "KBLV", "KBMG", "KBMI", "KBNA", "KBNO", "KBOI", "KBOS", "KBPI", "KBPK", "KBPT", "KBRD", "KBRL", "KBRO", "KBTL", "KBTM", "KBTR", "KBTV", "KBUF", "KBUR", "KBVI", "KBVO", "KBWG", "KBWI", "KBYI", "KBZN", "KCAE", "KCAK", "KCAR", "KCDC", "KCDR", "KCDS", "KCEC", "KCEF", "KCGI", "KCHA", "KCHO", "KCHS", "KCID", "KCIU", "KCKB", "KCKV", "KCLE", "KCLL", "KCLM", "KCLT", "KCMA", "KCMH", "KCMI", "KCMX", "KCNM", "KCNU", "KCNY", "KCOD", "KCOE", "KCON", "KCOS", "KCOT", "KCOU", "KCPR", "KCPS", "KCRE", "KCRG", "KCRP", "KCRQ", "KCRW", "KCSG", "KCSM", "KCSV", "KCTB", "KCUB", "KCVG", "KCVS", "KCWA", "KCXO", "KCXP", "KCYS", "KDAB", "KDAG", "KDAL", "KDAN", "KDAY", "KDBQ", "KDCA", "KDDC", "KDEC", "KDEN", "KDET", "KDFW", "KDHN", "KDHT", "KDIJ", "KDIK", "KDLH", "KDLS", "KDMA", "KDMN", "KDNL", "KDOV", "KDPA", "KDRO", "KDRT", "KDSM", "KDTW", "KDUG", "KDUJ", "KDVL", "KDVT", "KDYS", "KEAR", "KEAT", "KEAU", "KECG", "KECP", "KEDW", "KEED", "KEET", "KEFD", "KEFK", "KEGE", "KEGI", "KEKN", "KEKO", "KEKS", "KELD", "KELM", "KELP", "KELY", "KENV", "KENW", "KERI", "KEUG", "KEUL", "KEVV", "KEVW", "KEWN", "KEWR", "KEYW", "KFAF", "KFAR", "KFAT", "KFAY", "KFBG", "KFCS", "KFDY", "KFFO", "KFKL", "KFLG", "KFLL", "KFLO", "KFMH", "KFMN", "KFMY", "KFNT", "KFOD", "KFOE", "KFPR", "KFSD", "KFSM", "KFST", "KFTW", "KFTY", "KFVE", "KFWA", "KFXE", "KFYV", "KGBD", "KGCC", "KGCK", "KGCN", "KGDV", "KGEG", "KGFK", "KGFL", "KGGG", "KGGW", "KGJT", "KGKY", "KGLD", "KGLH", "KGLS", "KGMU", "KGNV", "KGON", "KGPI", "KGPT", "KGRB", "KGRF", "KGRI", "KGRK", "KGRR", "KGSB", "KGSO", "KGSP", "KGTF", "KGTR", "KGUC", "KGUP", "KGUS", "KGUY", "KGWO", "KGYY", "KHBG", "KHCR", "KHDC", "KHDN", "KHIB", "KHIE", "KHIF", "KHIO", "KHKS", "KHKY", "KHLG", "KHLN", "KHNB", "KHND", "KHOB", "KHON", "KHOP", "KHOT", "KHOU", "KHPN", "KHQM", "KHRF", "KHRL", "KHRO", "KHRT", "KHST", "KHSV", "KHTS", "KHUA", "KHUF", "KHUL", "KHUM", "KHUT", "KHVR", "KHYA", "KHYR", "KHYS", "KIAB", "KIAD", "KIAG", "KIAH", "KICT", "KIDA", "KIFP", "KILG", "KILM", "KILN", "KIND", "KINK", "KINL", "KINS", "KINT", "KINW", "KIPL", "KIPT", "KISM", "KISO", "KISP", "KITH", "KIWA", "KIWD", "KIXD", "KJAC", "KJAN", "KJAX", "KJBR", "KJCT", "KJEF", "KJER", "KJFK", "KJHW", "KJKA", "KJKL", "KJLN", "KJMS", "KJST", "KJVL", "KJXN", "KJZI", "KLAF", "KLAL", "KLAN", "KLAR", "KLAS", "KLAW", "KLAX", "KLBB", "KLBE", "KLBF", "KLBL", "KLBT", "KLBX", "KLCH", "KLCK", "KLEB", "KLEE", "KLEX", "KLFI", "KLFK", "KLFT", "KLGA", "KLGB", "KLGU", "KLIT", "KLLQ", "KLMT", "KLND", "KLNK", "KLNS", "KLOZ", "KLRD", "KLRF", "KLRU", "KLSE", "KLSV", "KLUK", "KLVK", "KLVM", "KLVS", "KLWB", "KLWS", "KLWT", "KLYH", "KMAF", "KMBG", "KMBL", "KMBS", "KMCB", "KMCC", "KMCE", "KMCF", "KMCI", "KMCK", "KMCN", "KMCO", "KMCW", "KMDT", "KMDW", "KMEI", "KMEM", "KMER", "KMEV", "KMFD", "KMFE", "KMFR", "KMGE", "KMGM", "KMGW", "KMHK", "KMHR", "KMHT", "KMIA", "KMIV", "KMKC", "KMKE", "KMKG", "KMKL", "KMKT", "KMLB", "KMLC", "KMLI", "KMLS", "KMLU", "KMMH", "KMMT", "KMOB", "KMOD", "KMOT", "KMPV", "KMQY", "KMRB", "KMRY", "KMSL", "KMSN", "KMSO", "KMSP", "KMSS", "KMSY", "KMTC", "KMTH", "KMTJ", "KMTN", "KMTW", "KMUO", "KMVN", "KMWH", "KMXF", "KMYL", "KMYR", "KNBG", "KNCA", "KNEW", "KNFG", "KNFW", "KNGP", "KNGU", "KNHK", "KNIP", "KNJK", "KNKT", "KNKX", "KNLC", "KNQX", "KNSE", "KNTD", "KNTU", "KNUW", "KNXP", "KNYL", "KNZY", "KOAJ", "KOAK", "KOFF", "KOFK", "KOGB", "KOGD", "KOKC", "KOLF", "KOLM", "KOLS", "KOMA", "KONP", "KONT", "KOPF", "KORD", "KORF", "KORH", "KOTH", "KOTM", "KOUN", "KOWB", "KOXR", "KPAE", "KPAH", "KPAM", "KPBF", "KPBG", "KPBI", "KPDK", "KPDT", "KPDX", "KPEQ", "KPGA", "KPGD", "KPGV", "KPHF", "KPHL", "KPHX", "KPIA", "KPIB", "KPIE", "KPIH", "KPIR", "KPIT", "KPKB", "KPLN", "KPMD", "KPNA", "KPNC", "KPNE", "KPNS", "KPOE", "KPOU", "KPQI", "KPRB", "KPRC", "KPSC", "KPSF", "KPSM", "KPSP", "KPTK", "KPUB", "KPUW", "KPVD", "KPVU", "KPVW", "KPWM", "KPWT", "KRAP", "KRBG", "KRBL", "KRDD", "KRDG", "KRDM", "KRDR", "KRDU", "KRFD", "KRHI", "KRIC", "KRIL", "KRIV", "KRIW", "KRKD", "KRKS", "KRME", "KRNH", "KRNO", "KROA", "KROC", "KROG", "KROW", "KRSL", "KRST", "KRSW", "KRUT", "KRVS", "KRWF", "KRWI", "KRWL", "KRYY", "KSAC", "KSAF", "KSAN", "KSAT", "KSAV", "KSAW", "KSBA", "KSBD", "KSBM", "KSBN", "KSBP", "KSBY", "KSCK", "KSDF", "KSDL", "KSDY", "KSEA", "KSEZ", "KSFB", "KSFF", "KSFO", "KSGF", "KSGJ", "KSGR", "KSGU", "KSHR", "KSHV", "KSJC", "KSJS", "KSJT", "KSKA", "KSKF", "KSLC", "KSLE", "KSLI", "KSLK", "KSLN", "KSME", "KSMF", "KSMN", "KSMO", "KSMX", "KSNA", "KSNS", "KSNY", "KSOA", "KSPI", "KSPS", "KSRQ", "KSSC", "KSSF", "KSSI", "KSTC", "KSTJ", "KSTL", "KSTS", "KSUA", "KSUN", "KSUS", "KSUU", "KSUX", "KSWF", "KSWO", "KSYM", "KSYR", "KSZL", "KTCC", "KTCL", "KTCM", "KTCS", "KTEB", "KTEX", "KTIK", "KTIX", "KTLH", "KTMB", "KTOI", "KTOL", "KTOP", "KTPA", "KTPH", "KTRI", "KTRK", "KTRM", "KTTD", "KTTN", "KTUL", "KTUP", "KTUS", "KTVC", "KTVF", "KTVL", "KTWF", "KTXK", "KTYR", "KTYS", "KUAO", "KUES", "KUIN", "KUKI", "KUNV", "KUTS", "KVCT", "KVEL", "KVGT", "KVIS", "KVLD", "KVNY", "KVOK", "KVPS", "KVQQ", "KVRB", "KVTN", "KWJF", "KWMC", "KWRB", "KWRI", "KWRL", "KWWR", "KXNA", "KXWA", "KYIP", "KYKM", "KYNG", "KZZV", "LAKU", "LATI", "LBBG", "LBGO", "LBPD", "LBSF", "LBWN", "LCEN", "LCLK", "LCPH", "LCRA", "LDDU", "LDLO", "LDOS", "LDPL", "LDRI", "LDSB", "LDSP", "LDZA", "LDZD", "LEAB", "LEAG", "LEAL", "LEAM", "LEAO", "LEAS", "LEBA", "LEBB", "LEBG", "LEBL", "LEBZ", "LECO", "LECV", "LEGE", "LEGR", "LEGT", "LEHC", "LEIB", "LEJR", "LELC", "LELL", "LELN", "LELO", "LEMD", "LEMG", "LEMH", "LEMO", "LEPA", "LEPP", "LERI", "LERL", "LERS", "LERT", "LESA", "LESO", "LEST", "LESU", "LETO", "LEVC", "LEVD", "LEVS", "LEVT", "LEVX", "LEXJ", "LEZG", "LEZL", "LFAQ", "LFAT", "LFBA", "LFBD", "LFBE", "LFBH", "LFBI", "LFBL", "LFBM", "LFBO", "LFBP", "LFBT", "LFBU", "LFBZ", "LFCK", "LFCR", "LFGJ", "LFJL", "LFKB", "LFKC", "LFKF", "LFKJ", "LFKS", "LFLB", "LFLC", "LFLL", "LFLN", "LFLP", "LFLS", "LFLW", "LFLX", "LFLY", "LFMD", "LFMI", "LFMK", "LFML", "LFMN", "LFMO", "LFMP", "LFMT", "LFMU", "LFMV", "LFMY", "LFOB", "LFOE", "LFOH", "LFOJ", "LFOK", "LFOP", "LFOT", "LFPB", "LFPG", "LFPN", "LFPO", "LFPV", "LFQQ", "LFRB", "LFRC", "LFRD", "LFRG", "LFRH", "LFRI", "LFRK", "LFRM", "LFRN", "LFRQ", "LFRS", "LFRZ", "LFSB", "LFSL", "LFST", "LFSX", "LFTH", "LFTW", "LFVP", "LGAD", "LGAL", "LGAV", "LGBL", "LGEL", "LGHI", "LGIO", "LGIR", "LGKC", "LGKF", "LGKL", "LGKO", "LGKP", "LGKR", "LGKV", "LGLM", "LGLR", "LGMK", "LGMT", "LGPZ", "LGRP", "LGRX", "LGSA", "LGSK", "LGSM", "LGSR", "LGST", "LGSY", "LGTG", "LGTL", "LGTS", "LGZA", "LHBP", "LHDC", "LHKE", "LHPA", "LHPP", "LHPR", "LHSM", "LHSN", "LIBA", "LIBC", "LIBD", "LIBF", "LIBG", "LIBP", "LIBR", "LIBV", "LICA", "LICB", "LICC", "LICD", "LICG", "LICJ", "LICR", "LICT", "LICZ", "LIEA", "LIED", "LIEE", "LIEO", "LIMC", "LIME", "LIMF", "LIMG", "LIMJ", "LIML", "LIMP", "LIMW", "LIMZ", "LIPB", "LIPC", "LIPE", "LIPH", "LIPI", "LIPK", "LIPL", "LIPO", "LIPQ", "LIPR", "LIPS", "LIPX", "LIPY", "LIPZ", "LIRA", "LIRE", "LIRF", "LIRM", "LIRN", "LIRP", "LIRQ", "LIRS", "LIRU", "LIRV", "LIRZ", "LJCE", "LJLJ", "LJMB", "LJPZ", "LKCV", "LKKB", "LKKV", "LKMT", "LKNA", "LKPR", "LKTB", "LLBG", "LLER", "LLHA", "LLHZ", "LLIB", "LMML", "LOAN", "LOAV", "LOWG", "LOWI", "LOWK", "LOWL", "LOWS", "LOWW", "LOXZ", "LPAZ", "LPBJ", "LPCS", "LPFR", "LPHR", "LPLA", "LPMA", "LPMR", "LPMT", "LPOV", "LPPD", "LPPR", "LPPS", "LPPT", "LQBK", "LQMO", "LQSA", "LQTZ", "LRAR", "LRBC", "LRBM", "LRBS", "LRCK", "LRCL", "LRCV", "LRIA", "LROD", "LROP", "LRSB", "LRSM", "LRSV", "LRTM", "LRTR", "LSGC", "LSGG", "LSGS", "LSZA", "LSZB", "LSZG", "LSZH", "LSZL", "LSZR", "LSZS", "LTAB", "LTAC", "LTAD", "LTAE", "LTAF", "LTAG", "LTAH", "LTAI", "LTAJ", "LTAL", "LTAN", "LTAO", "LTAP", "LTAR", "LTAS", "LTAT", "LTAU", "LTAV", "LTAW", "LTAY", "LTAZ", "LTBA", "LTBD", "LTBF", "LTBG", "LTBH", "LTBI", "LTBJ", "LTBK", "LTBL", "LTBN", "LTBO", "LTBP", "LTBQ", "LTBR", "LTBS", "LTBT", "LTBU", "LTBV", "LTBX", "LTBY", "LTBZ", "LTCA", "LTCB", "LTCC", "LTCD", "LTCE", "LTCF", "LTCG", "LTCI", "LTCJ", "LTCK", "LTCL", "LTCM", "LTCN", "LTCO", "LTCP", "LTCR", "LTCS", "LTCT", "LTCU", "LTCV", "LTCW", "LTDA", "LTFA", "LTFB", "LTFC", "LTFD", "LTFE", "LTFG", "LTFH", "LTFJ", "LTFK", "LTFM", "LTFO", "LUKK", "LWOH", "LWSK", "LXGB", "LYBE", "LYBT", "LYKV", "LYNI", "LYPG", "LYTV", "LYVR", "LZIB", "LZKZ", "LZMC", "LZPP", "LZPW", "LZSL", "LZTT", "LZZI", "MBGT", "MBPV", "MGGT", "MGMM", "MGPB", "MHLC", "MHLM", "MHPR", "MHRO", "MHTG", "MKJP", "MKJS", "MMAA", "MMAN", "MMAS", "MMBT", "MMCB", "MMCE", "MMCL", "MMCM", "MMCN", "MMCP", "MMCS", "MMCU", "MMCV", "MMCZ", "MMDO", "MMEP", "MMGL", "MMGM", "MMHO", "MMIA", "MMIO", "MMLM", "MMLO", "MMLP", "MMLT", "MMMA", "MMMD", "MMML", "MMMM", "MMMT", "MMMV", "MMMX", "MMMY", "MMMZ", "MMNL", "MMOX", "MMPA", "MMPB", "MMPG", "MMPN", "MMPQ", "MMPR", "MMPS", "MMQT", "MMRX", "MMSD", "MMSL", "MMSM", "MMSP", "MMTC", "MMTG", "MMTJ", "MMTM", "MMTO", "MMTP", "MMUN", "MMVA", "MMVR", "MMZC", "MMZH", "MMZO", "MNBL", "MNMG", "MNPC", "MPDA", "MPMG", "MPPA", "MPSM", "MPTO", "MRLB", "MRLM", "MROC", "MRPV", "MTCH", "MTPP", "MUCC", "MUCM", "MUCU", "MUGM", "MUHA", "MUHG", "MUSC", "MUVR", "MWCB", "MWCR", "MYGF", "MYNN", "MZBZ", "NCRG", "NFFN", "NFNA", "NFTF", "NFTV", "NGFU", "NGTA", "NIUE", "NLWF", "NLWW", "NSFA", "NSTU", "NTAA", "NVSC", "NVSG", "NVSL", "NVSP", "NVSS", "NVVA", "NVVV", "NVVW", "NWWD", "NWWE", "NWWK", "NWWL", "NWWM", "NWWR", "NWWU", "NWWW", "NZAA", "NZCH", "NZQN", "NZWN", "OEAB", "OEAH", "OEAO", "OEBA", "OEBH", "OEDF", "OEDM", "OEDR", "OEGN", "OEGS", "OEGT", "OEHL", "OEJN", "OEKJ", "OEKM", "OEMA", "OENG", "OEPA", "OEPS", "OERF", "OERK", "OERR", "OESH", "OESK", "OETB", "OETF", "OETR", "OEWD", "OEWJ", "OEYN", "OIAA", "OIAW", "OIBB", "OIBK", "OIBP", "OICC", "OICI", "OIFM", "OIGG", "OIIE", "OIII", "OIIP", "OIKB", "OIKK", "OIMM", "OING", "OINZ", "OISL", "OISS", "OITL", "OITR", "OITT", "OIYY", "OIZH", "OJAI", "OJAM", "OJAQ", "OKAS", "OMAA", "OMAD", "OMAL", "OMDB", "OMDW", "OMFJ", "OMRK", "OMSJ", "OODQ", "OOMS", "OOSA", "OOSH", "OPFA", "OPGD", "OPIS", "OPKC", "OPLA", "OPNH", "OPPS", "OPSK", "OPST", "ORBI", "ORER", "ORMM", "ORSU", "OTBD", "OTBH", "OTHH", "OYAA", "PAAQ", "PABE", "PABR", "PABT", "PACD", "PACV", "PADL", "PADQ", "PADU", "PAED", "PAEI", "PAEN", "PAFA", "PAFB", "PAGA", "PAGK", "PAGS", "PAGY", "PAHN", "PAHO", "PAIL", "PAJN", "PAKN", "PAKT", "PAKW", "PAMC", "PANC", "PAOM", "PAOR", "PAOT", "PAPG", "PAQT", "PASC", "PASD", "PASI", "PASN", "PASY", "PATA", "PATK", "PAUN", "PAVD", "PAWG", "PAYA", "PGRO", "PGSN", "PGUA", "PGUM", "PGWT", "PHHI", "PHJH", "PHJR", "PHKO", "PHLI", "PHMK", "PHNL", "PHNY", "PHOG", "PHTO", "PKMJ", "PKWA", "PLCH", "PMDY", "PTKK", "PTPN", "PTRO", "PTYA", "PWAK", "RCFN", "RCKH", "RCMQ", "RCNN", "RCSS", "RCTP", "RJAA", "RJAH", "RJBB", "RJCB", "RJCC", "RJCH", "RJCK", "RJCM", "RJEC", "RJFF", "RJFK", "RJFM", "RJFO", "RJFR", "RJFS", "RJFT", "RJFU", "RJGG", "RJNK", "RJNS", "RJNT", "RJOA", "RJOB", "RJOC", "RJOH", "RJOI", "RJOK", "RJOM", "RJOO", "RJOT", "RJSA", "RJSF", "RJSI", "RJSK", "RJSN", "RJSS", "RJTT", "RJTY", "RKJB", "RKNN", "RKNW", "RKNY", "RKPC", "RKPK", "RKSG", "RKSI", "RKSM", "RKSO", "RKSS", "RKSW", "RKTE", "RKTI", "RKTN", "RKTP", "RKTU", "RKTY", "ROAH", "RODN", "ROIG", "ROTM", "RPLB", "RPLC", "RPLI", "RPLL", "RPMD", "RPMR", "RPMZ", "RPVD", "RPVM", "RPVP", "SAAR", "SABE", "SACO", "SADF", "SAEZ", "SAME", "SANR", "SANT", "SARC", "SARE", "SARF", "SARI", "SARP", "SASA", "SASJ", "SAVC", "SAVT", "SAWE", "SAWG", "SAWH", "SAZM", "SAZN", "SAZS", "SBAF", "SBAN", "SBAT", "SBBI", "SBBU", "SBBW", "SBCO", "SBCZ", "SBDN", "SBGW", "SBIH", "SBIL", "SBIZ", "SBJV", "SBKG", "SBME", "SBNT", "SBSC", "SBSM", "SBUG", "SBUL", "SBUR", "SBVH", "SBYS", "SCBA", "SCCI", "SCEL", "SCIE", "SCIP", "SCQP", "SCSE", "SCTE", "SCVM", "SEGU", "SELT", "SEMT", "SEQM", "SGAS", "SGCO", "SGEN", "SGES", "SKAR", "SKBG", "SKBO", "SKBQ", "SKCC", "SKCG", "SKCL", "SKLT", "SKPE", "SKRG", "SKSM", "SKSP", "SLAL", "SLCB", "SLCO", "SLET", "SLLP", "SLTJ", "SLTR", "SLVR", "SLYA", "SOCA", "SPCL", "SPEO", "SPGM", "SPHI", "SPHO", "SPHZ", "SPJC", "SPJI", "SPJJ", "SPJL", "SPJR", "SPLO", "SPME", "SPMS", "SPNC", "SPPY", "SPQT", "SPQU", "SPRU", "SPSO", "SPST", "SPTN", "SPTU", "SPUR", "SPYL", "SPZA", "SPZO", "SUAA", "SUCA", "SUDU", "SULS", "SUMU", "SURV", "SUSO", "SVVA", "SYCJ", "SYEC", "TAPA", "TBPB", "TDPD", "TFFF", "TFFR", "TIST", "TISX", "TJBQ", "TJPS", "TJSJ", "TKPK", "TKPN", "TLPC", "TLPL", "TNCA", "TNCB", "TNCC", "TQPF", "TRPG", "TTCP", "TTPP", "TUPJ", "TVSA", "TXKF", "UAAA", "UAAH", "UAAT", "UACC", "UACK", "UACP", "UADD", "UAII", "UAIT", "UAKD", "UAKK", "UAOO", "UARR", "UASK", "UASP", "UASS", "UATE", "UATG", "UATT", "UAUU", "UBBB", "UBBF", "UBBG", "UBBL", "UBBN", "UBBQ", "UBBY", "UBBZ", "UBEE", "UCFL", "UCFM", "UCFO", "UDSG", "UDYZ", "UEEE", "UERP", "UERR", "UGKO", "UGSB", "UGTB", "UHBB", "UHHH", "UHMA", "UHMM", "UHPP", "UHSS", "UHWW", "UIAA", "UIBB", "UIII", "UIUU", "ULAA", "ULLI", "ULMM", "ULOO", "ULPB", "ULWC", "UMBB", "UMGG", "UMII", "UMIO", "UMKK", "UMMG", "UMMS", "UMOO", "UNAA", "UNBB", "UNEE", "UNKL", "UNNT", "UNOO", "UNTT", "UNWW", "UOOO", "URKA", "URKK", "URMG", "URML", "URMM", "URMN", "URMO", "URMT", "URRP", "URSS", "URWA", "URWI", "URWW", "USCC", "USCM", "USDA", "USHH", "USNN", "USPP", "USRR", "USSS", "USTR", "UTAA", "UTAK", "UTAM", "UTAT", "UTAV", "UTDD", "UTDK", "UTDL", "UTDT", "UTFF", "UTFN", "UTNN", "UTNU", "UTSA", "UTSB", "UTSK", "UTSS", "UTST", "UTTT", "UUBC", "UUBP", "UUBW", "UUDD", "UUDL", "UUEE", "UUMO", "UUOB", "UUOK", "UUOL", "UUOO", "UUWW", "UUYY", "UWGG", "UWKD", "UWKE", "UWKS", "UWLL", "UWLW", "UWOO", "UWOR", "UWPS", "UWSG", "UWUU", "UWWW", "VAAH", "VAAU", "VABB", "VABO", "VABP", "VABV", "VADU", "VAID", "VAJB", "VAJL", "VAJM", "VAKE", "VAKP", "VANP", "VAPO", "VAPR", "VARK", "VASD", "VASL", "VASU", "VAUD", "VCBI", "VCRI", "VDPP", "VDSR", "VDSV", "VEAN", "VEAT", "VEBD", "VEBI", "VEBN", "VEBS", "VEBU", "VECC", "VECO", "VEDG", "VEDO", "VEDZ", "VEGK", "VEGT", "VEGY", "VEIM", "VEJH", "VEJR", "VEJS", "VEKI", "VEKO", "VELP", "VELR", "VEMN", "VEMR", "VEPT", "VEPY", "VERC", "VERK", "VERP", "VERU", "VETJ", "VEZO", "VGEG", "VGHS", "VHHH", "VIAG", "VIAR", "VIBR", "VICG", "VIDN", "VIDP", "VIGG", "VIJP", "VIJR", "VILK", "VIPT", "VISM", "VISP", "VLLB", "VLLN", "VLPS", "VLSK", "VLVT", "VMMC", "VNKT", "VOBG", "VOBL", "VOBM", "VOBZ", "VOCB", "VOCI", "VOCP", "VOGB", "VOHB", "VOHS", "VOHY", "VOJV", "VOKU", "VOLT", "VOMD", "VOML", "VOMM", "VOMY", "VOND", "VOPC", "VORY", "VOSM", "VOSR", "VOTK", "VOTP", "VOTR", "VOTV", "VOVZ", "VRMG", "VRMH", "VRMM", "VTBD", "VTBO", "VTBS", "VTBU", "VTCC", "VTCH", "VTCL", "VTCN", "VTCP", "VTCT", "VTPB", "VTPH", "VTPM", "VTPO", "VTPP", "VTPT", "VTSB", "VTSC", "VTSE", "VTSF", "VTSG", "VTSM", "VTSP", "VTSR", "VTSS", "VTST", "VTSY", "VTUD", "VTUI", "VTUK", "VTUL", "VTUO", "VTUQ", "VTUU", "VTUV", "VTUW", "VVCI", "VVCR", "VVCT", "VVDN", "VVNB", "VVPB", "VVPQ", "VVTS", "VVVD", "VYMD", "VYNT", "VYYY", "WAAA", "WABB", "WADD", "WADL", "WAMM", "WAOO", "WAPP", "WARR", "WATT", "WBGB", "WBGG", "WBGR", "WBGS", "WBKK", "WBKL", "WBKS", "WBKW", "WBSB", "WIDD", "WIEE", "WIHH", "WIII", "WIMM", "WIPB", "WIPP", "WIPY", "WITT", "WMAP", "WMBT", "WMKA", "WMKB", "WMKC", "WMKE", "WMKI", "WMKJ", "WMKK", "WMKL", "WMKM", "WMKN", "WMKP", "WMPA", "WMSA", "WPDL", "WSAP", "WSSL", "WSSS", "YAMB", "YBAS", "YBBN", "YBCG", "YBCS", "YBHM", "YBLN", "YBMA", "YBRK", "YBRM", "YBSU", "YBTL", "YBWW", "YCFS", "YCIN", "YFRT", "YGEL", "YGLA", "YHID", "YLHI", "YMAV", "YMHB", "YMLT", "YMML", "YPAD", "YPCC", "YPDN", "YPEA", "YPGV", "YPJT", "YPKG", "YPKU", "YPLM", "YPPD", "YPPH", "YPTN", "YPWR", "YPXM", "YSCB", "YSDU", "YSNF", "YSRI", "YSSY", "YSTW", "YWLM", "ZBHH", "ZKPY", "ZKWS", "ZMCK", "ZMUB"], "raw_text": ["TAF AGGA 292310Z 3000/3024 14010KT 9999 SCT020 PROB40 INTER 3001/3006 8000 -TSSH BKN015 FEW016CB Q 1007 1005 1004 1006", "TAF AGGC 292310Z 3000/3024 09008KT 9999 SCT018 PROB40 INTER 3001/3006 8000 -TSSH BKN015 FEW016CB Q 1006 1008 1008 1006", "TAF AGGH 300520Z 3006/0106 11006KT 9999 SCT018 T 28 27 25 24 Q 1006 1008 1009 1007", "TAF AGGK 292310Z 3000/3024 05012KT 9999 SCT020 PROB40 INTER 3001/3006 8000 -TSSH BKN015 FEW016CB", "TAF AGGL 292310Z 3000/3024 12018KT 9999 SCT019 SCT029 Q 1010 1008 1007 1009", "TAF AGGM 300520Z 3006/0106 11010KT 9999 SCT018 Q 1005 1007 1008 1006", "TAF AGGN 300520Z 3006/0106 09008KT 9999 SCT018", "TAF AGGR 292310Z 3000/3024 08015KT 9999 SCT019 SCT030", "TAF ANYN 300320Z 3006/0106 08008KT 9999 -SHRA SCT018 SCT040 BKN130 T 30 28 27 27 Q 1007 1009 1008 1006", "TAF AYPY 300310Z 3006/0106 15008KT 9999 -SHRA SCT017 SCT030 BKN130 INTER 3006/0109 5000 -TSRA BKN010 FEW017CB", "TAF BGGH 300958Z 3010/3018 22010KT 0500 FZFG BKN001 TEMPO 3010/3011 9000 NSW BKN004 BECMG 3011/3013 20020KT 9999 NSW BKN004 BECMG 3013/3015 SCT005 TEMPO 3013/3018 20020G30KT", "TAF COR BGSF 300913Z 3009/3023 05010KT 9999 FEW200 BECMG 3013/3016 23008KT", "TAF AMD BGTL 291810Z 2918/3017 VRB06KT 9999 BKN030 620305 QNH3032INS BECMG 2919/2920 VRB06KT 9999 SCT030 BKN060 620602 QNH3028INS BECMG 3002/3003 VRB06KT 9999 FEW080 QNH3020INS TXM07/2921Z TNM13/3011Z LAST NO AMDS AFT 2918 NEXT 0108", "TAF BIAR 300753Z 3009/0109 VRB02KT CAVOK TX02/3012Z TNM03/0104Z BECMG 3009/3011 35012KT PROB40 TEMPO 3021/0109 4000 -SHSN BKN014 BECMG 3022/0100 VRB03KT", "TAF BIEG 300757Z 3009/0109 33012KT CAVOK TX03/3015Z TNM03/0102Z", "TAF BIIS 300916Z 3010/3019 03012KT CAVOK", "TAF BIKF 300759Z 3009/0109 04014KT 9999 SCT035 TX07/3016Z TNM01/0103Z", "TAF BIRK 300800Z 3009/0109 08007KT CAVOK TX08/3015Z TNM02/0106Z TEMPO 3016/0104 02012KT", "TAF BIVM 300918Z 3010/3016 10015KT 9999 SCT040 BKN060 BECMG 3014/3016 VRB02KT", "TAF BKPR 300530Z 3006/0106 01010KT 9999 FEW040 BKN080 PROB30 TEMPO 3011/3015 5000 -TSRA SCT025CB PROB40 0103/0106 0300 FG BKN003", "TAF AMD CWWU 300807Z 3008/0106 32013G22KT P6SM FEW050 BKN100 FM301300 33015G25KT P6SM FEW040 SCT080 BKN120 FM302000 34013G22KT P6SM FEW040 SCT070 BKN150 FM010200 33012G20KT P6SM SCT050 BKN100 RMK NXT FCST BY 301200Z", "TAF CYAM 300743Z 3008/3020 07006KT 1 1/2SM -RA BR OVC003 TEMPO 3008/3009 6SM BR OVC008 FM300900 08006KT 1/2SM -DZ FG VV002 TEMPO 3009/3012 2SM BR OVC004 FM301200 11006KT 1 1/2SM -DZ BR OVC003 TEMPO 3012/3014 6SM BR SCT003 OVC030 FM301400 09006KT P6SM FEW008 BKN015 OVC030 TEMPO 3014/3020 BKN030 RMK NXT FCST BY 301400Z", "TAF CYAT 300840Z 3009/3019 03012KT 6SM -RA BR SCT008 OVC025 TEMPO 3009/3012 2 1/2SM -SHRA BR OVC008 FM301200 04010KT 2SM -RA BR OVC003 TEMPO 3012/3019 5SM -SHRA BR OVC006 RMK FCST BASED ON AUTO OBS. NXT FCST BY 301500Z", "TAF CYAY 300740Z 3008/3020 33005KT P6SM FEW020 BECMG 3010/3012 36008KT RMK FCST BASED ON AUTO OBS. NXT FCST BY 301400Z", "TAF CYBC 300740Z 3008/3020 09012KT P6SM FEW012 BKN090 FM301300 08012G22KT P6SM OVC120 BECMG 3013/3015 08015G25KT FM301900 09017G27KT P6SM BKN050 OVC100 RMK FCST BASED ON AUTO OBS. NXT FCST BY 301400Z", "TAF CYBG 300540Z 3006/0106 10010KT P6SM SCT050 OVC100 FM301000 10012KT P6SM SCT030 OVC050 TEMPO 3010/3018 P6SM -RA OVC030 FM301800 11020KT P6SM SCT025 OVC040 FM010200 10020G30KT P6SM -RA OVC025 FM010500 10020G32KT P6SM -RA OVC020 RMK NXT FCST BY 301200Z", "TAF AMD CYBK 300912Z 3009/3018 VRB03KT 1/2SM FZFG VV005 TEMPO 3009/3013 6SM -SN BR SCT006 OVC060 FM301300 30006KT P6SM FEW020 OVC050 TEMPO 3013/3018 5SM -SN OVC020 RMK NXT FCST BY 301200Z", "TAF CYBR 300540Z 3006/3018 36010KT P6SM SKC RMK NXT FCST BY 301200Z", "TAF CYBX 300740Z 3008/3020 VRB03KT P6SM SCT050 RMK NXT FCST BY 301400Z", "TAF CYCA 300740Z 3008/3020 VRB03KT 1/2SM FZFG VV002 TEMPO 3008/3011 6SM -SN BR OVC005 BECMG 3011/3013 P6SM NSW SCT004 FM301300 01005KT P6SM SCT004 PROB30 3013/3016 BKN004 RMK FCST BASED ON AUTO OBS. NXT FCST BY 301400Z", "TAF CYCB 300640Z 3007/3019 VRB03KT P6SM -SN SCT006 BKN010 TEMPO 3007/3010 2SM BR BKN006 OVC010 FM301000 04005KT 3SM BR SCT003 BKN010 TEMPO 3010/3019 1SM BR BKN003 OVC010 PROB30 3010/3018 1/2SM FZFG BKN002 RMK NXT FCST BY 301300Z", "TAF AMD CYCO 300747Z 3007/3019 VRB03KT 3SM BR SCT004 BKN008 TEMPO 3007/3019 3/4SM BR BKN004 OVC008 RMK NXT FCST BY 301300Z", "TAF CYCY 300640Z 3007/3019 10006KT P6SM SCT040 OVC090 TEMPO 3007/3019 2SM -SHSN BKN020 OVC060 RMK FCST BASED ON AUTO OBS. NXT FCST BY 301300Z", "TAF CYDB 300540Z 3006/3018 VRB03KT P6SM SCT040 FM301200 VRB03KT P6SM SCT120 RMK FCST BASED ON AUTO OBS. NXT FCST BY 301200Z", "TAF CYDF 300740Z 3008/3020 VRB03KT P6SM FEW050 FM301400 11005KT P6SM BKN040 RMK NXT FCST BY 301400Z", "TAF CYDN 300540Z 3006/3018 33006KT P6SM SKC FM300900 33005KT P6SM FEW015 PROB30 3009/3014 1SM BR BKN005 FM301400 35010KT P6SM FEW025 RMK FCST BASED ON AUTO OBS. NXT FCST BY 301200Z", "TAF CYDP 301002Z 3010/3022 08010KT 1SM -SHSN BR BKN004 OVC015 TEMPO 3010/3014 P6SM NSW BKN015 FM301400 13005KT P6SM BKN015 TEMPO 3014/3022 BKN012 RMK NXT FCST BY 301400Z", "TAF CYEG 300840Z 3009/0106 13015KT P6SM FEW230 BECMG 3013/3015 16015G25KT FM302100 15015G25KT P6SM SKC BECMG 0102/0104 14015KT RMK NXT FCST BY 301200Z", "TAF AMD CYEK 300622Z 3006/3018 15006KT P6SM FEW001 SCT010 OVC090 TEMPO 3006/3012 2SM -SN BR SCT001 OVC006 FM301200 VRB03KT P6SM SCT015 OVC080 TEMPO 3012/3018 3SM -SN BR BKN006 RMK FCST BASED ON AUTO OBS. NXT FCST BY 301200Z", "TAF AMD CYER 300933Z 3009/3019 02010KT P6SM FEW015 BKN040 TEMPO 3009/3014 2SM BR BKN005 OVC040 FM301400 03012KT P6SM SCT008 TEMPO 3014/3019 BKN008 RMK FCST BASED ON AUTO OBS. NXT FCST BY 301500Z", "TAF CYEV 300640Z 3007/3019 02005KT P6SM FEW240 FM300900 04008KT P6SM FEW080 SCT240 RMK NXT FCST BY 301300Z", "TAF AMD CYFB 300610Z 3006/0106 15005KT P6SM -SN FEW006 SCT015 OVC025 TEMPO 3006/3012 2SM -SN BR BKN006 OVC015 PROB30 3006/3008 1SM -FZDZ BR OVC004 FM301200 33005KT P6SM SCT006 BKN015 TEMPO 3012/3016 3SM -SN BR BKN006 OVC015 FM301800 32010KT P6SM SCT009 BKN020 TEMPO 3018/3022 P6SM -SN BKN009 FM302200 34010KT P6SM FEW200 BECMG 0104/0106 VRB03KT RMK NXT FCST BY 301200Z", "TAF CYFC 300540Z 3006/3018 18005KT P6SM BKN150 BECMG 3006/3008 09005KT FM301700 13010KT P6SM -SHRA BKN030 OVC080 RMK FCST BASED ON AUTO OBS. NXT FCST BY 301200Z", "TAF CYFS 300540Z 3006/3018 VRB03KT P6SM SCT240 BECMG 3007/3009 32008KT FM301500 32010KT P6SM SCT100 BKN240 RMK NXT FCST BY 301200Z", "TAF CYGL 300540Z 3006/0106 06008KT P6SM -RA OVC080 TEMPO 3006/3015 6SM -SHRA BR BKN040 OVC080 FM301500 13010G20KT P6SM -SHRA FEW020 OVC040 TEMPO 3015/3019 5SM -SHRA BR BKN020 OVC040 FM301900 14010G20KT 4SM -SHRA BR OVC020 FM302300 13010G20KT P6SM -SHRA BKN020 OVC030 RMK NXT FCST BY 301200Z", "TAF CYGP 300740Z 3008/3020 VRB03KT P6SM FEW090 OVC200 PROB30 3008/3011 2SM BR FM301300 12010G20KT P6SM BKN200 RMK NXT FCST BY 301400Z", "TAF CYGQ 300740Z 3008/3020 02012KT 2SM -SN BR OVC004 TEMPO 3008/3015 6SM -SN BR OVC008 FM301500 01012G22KT 6SM -RASN BR OVC010 TEMPO 3015/3020 3SM -SNRA BR OVC005 RMK FCST BASED ON AUTO OBS. NXT FCST BY 301400Z", "TAF CYGV 300740Z 3008/3020 05005KT P6SM SCT220 PROB30 3008/3012 1SM BR FM301300 11010KT P6SM FEW060 BKN200 BECMG 3014/3016 17010KT RMK FCST BASED ON AUTO OBS. NXT FCST BY 301400Z", "TAF CYGW 300540Z 3006/3018 06005KT P6SM OVC090 BECMG 3009/3011 09012KT RMK FCST BASED ON AUTO OBS. NXT FCST BY 301200Z", "TAF AMD CYGX 300905Z 3009/3019 03005KT P6SM FEW004 SCT040 TEMPO 3009/3014 1SM BR OVC004 PROB40 3009/3014 1/2SM FZFG VV002 FM301400 01005KT P6SM FEW006 BKN040 RMK NXT FCST BY 301300Z", "TAF CYHD 300740Z 3008/3020 02012KT 3SM -RA BR OVC015 TEMPO 3008/3012 P6SM -RA OVC025 FM301200 02012G22KT P6SM OVC040 TEMPO 3012/3016 P6SM -SHRA BKN020 OVC040 RMK FCST BASED ON AUTO OBS. NXT FCST BY 301400Z", "TAF AMD CYHK 300912Z 3009/3018 21006KT P6SM SCT009 OVC050 TEMPO 3009/3018 3SM -SN BR OVC004 BECMG 3013/3015 19008KT RMK FCST BASED ON AUTO OBS. NXT FCST BY 301200Z", "TAF CYHM 300540Z 3006/0106 14008KT P6SM FEW040 TEMPO 3006/3012 4SM BR SCT003 BKN020 PROB30 3006/3012 2SM BR BKN003 OVC020 FM301200 13008KT P6SM -SHRA FEW003 OVC020 FM301500 13008KT 3SM -RA BR SCT005 BKN006 OVC015 PROB30 3015/3021 2SM SHRA BR BKN005 FM302100 28013G23KT 5SM -SHRA BR BKN006 OVC040 FM302300 28010G20KT P6SM BKN012 OVC040 FM010200 26010KT P6SM SCT020 SCT180 RMK NXT FCST BY 301200Z", "TAF CYHU 300540Z 3006/0106 10008KT P6SM -RA SCT015 OVC040 TEMPO 3006/3009 3SM -DZ BR SCT008 OVC015 FM300900 09010KT 6SM BR SCT015 OVC025 TEMPO 3009/3012 4SM -DZ BR BKN008 OVC015 FM301200 09010KT P6SM SCT008 OVC020 TEMPO 3012/3015 SCT015 OVC025 FM301500 13012G22KT P6SM -SHRA OVC030 FM301800 09012KT P6SM BKN030 OVC100 BECMG 3020/3022 10015G25KT FM010100 07020G30KT 2SM RA BR BKN006 OVC020 RMK FCST BASED ON AUTO OBS. NXT FCST BY 301200Z", "TAF CYHY 300540Z 3006/3018 14012KT P6SM SCT100 FM300700 15010KT P6SM SCT180 RMK NXT FCST BY 301200Z", "TAF AMD CYHZ 300903Z 3009/0106 13007KT 1/2SM FZFG SKC BECMG 3009/3011 P6SM NSW FM301200 14010KT P6SM BKN160 BECMG 3014/3016 14015G25KT FM302000 14012G22KT P6SM SCT140 FM010400 12015G25KT P6SM BKN030 RMK NXT FCST BY 301200Z", "TAF CYIO 300640Z 3007/3019 VRB03KT P6SM -SN SCT020 OVC050 TEMPO 3007/3010 06010KT 2SM -SN BKN015 OVC040 FM301000 08008KT P6SM -SN SCT020 OVC040 TEMPO 3010/3019 3SM -SN BKN020 OVC040 RMK FCST BASED ON AUTO OBS. NXT FCST BY 301300Z", "TAF CYIV 300640Z 3007/3019 01010KT P6SM SCT080 FM300900 01008KT P6SM SKC RMK FCST BASED ON AUTO OBS. NXT FCST BY 301300Z", "TAF CYJT 300552Z 3006/0106 VRB03KT P6SM FEW040 BECMG 3013/3015 30010KT FM302300 VRB03KT P6SM SKC RMK NXT FCST BY 301200Z", "TAF CYKA 300640Z 3007/3019 20005KT P6SM FEW260 BECMG 3012/3014 11007KT RMK NXT FCST BY 301300Z", "TAF CYKF 300740Z 3008/3020 14008KT 6SM BR FEW005 BKN030 TEMPO 3008/3011 2SM -RA BR BKN008 PROB30 3008/3011 2SM -DZ BR BKN003 FM301100 13012KT 5SM -RA BR FEW003 OVC008 TEMPO 3011/3020 3/4SM SHRA BR OVC004 RMK FCST BASED ON AUTO OBS. NXT FCST BY 301400Z", "TAF CYKJ 300940Z 3010/3022 VRB03KT P6SM SCT210 BECMG 3013/3015 18005KT RMK FCST BASED ON AUTO OBS. NXT FCST BY 301300Z", "TAF CYKL 300740Z 3008/3020 00000KT P6SM FEW140 TEMPO 3008/3015 4SM BR PROB40 3011/3013 2SM BR FM301500 12012KT P6SM SCT120 RMK FCST BASED ON AUTO OBS. NXT FCST BY 301400Z", "TAF CYLL 300540Z 3006/3018 12008KT P6SM SCT260 BECMG 3007/3009 14012KT FM300900 14012KT P6SM SCT080 FM301500 15012G22KT P6SM SKC RMK FCST BASED ON AUTO OBS. NXT FCST BY 301200Z", "TAF CYLW 300640Z 3007/3019 VRB03KT P6SM SKC BECMG 3014/3016 33008KT RMK FCST BASED ON AUTO OBS. NXT FCST BY 301300Z", "TAF CYMA 300540Z 3006/3018 36008KT P6SM SCT040 BKN080 TEMPO 3006/3010 P6SM -SHRA BKN040 OVC080 FM301000 02008KT P6SM SCT015 BKN040 TEMPO 3010/3018 5SM -SHRA BR SCT008 BKN015 RMK NXT FCST BY 301200Z", "TAF CYMH 300848Z 3009/3021 30007KT P6SM SKC BECMG 3010/3012 01010KT RMK FCST BASED ON AUTO OBS. NXT FCST BY 301400Z", "TAF CYMM 300640Z 3007/3019 13012KT P6SM SCT200 RMK FCST BASED ON AUTO OBS. NXT FCST BY 301300Z", "TAF CYMO 300540Z 3006/3018 06008KT 6SM -RA BR OVC040 TEMPO 3006/3012 4SM -RA BR FEW005 BKN020 OVC040 PROB30 3006/3012 2SM -DZ BR OVC005 FM301200 07008KT 2SM -RA BKN005 OVC020 TEMPO 3012/3018 6SM -RA BR SCT005 OVC020 RMK FCST BASED ON AUTO OBS. NXT FCST BY 301200Z", "TAF CYMX 300540Z 3006/0106 08010KT 6SM -RA BR SCT012 OVC030 TEMPO 3006/3010 3SM -DZ BR BKN005 OVC012 FM301000 09010G20KT 3SM -DZ BR BKN008 OVC015 TEMPO 3010/3016 6SM BR SCT015 OVC025 FM301600 10010G20KT P6SM -SHRA OVC015 FM301900 08012G22KT P6SM FEW020 BKN030 OVC100 FM010100 07020G30KT 2SM RA BR BKN006 OVC020 RMK NXT FCST BY 301200Z", "TAF CYNA 300740Z 3008/3020 VRB03KT P6SM FEW008 PROB30 3008/3012 3/4SM BR FM301200 07005KT P6SM FEW060 BECMG 3014/3016 17010KT RMK FCST BASED ON AUTO OBS. NXT FCST BY 301400Z", "TAF CYNE 300640Z 3007/3019 36005KT P6SM SKC FM301800 33008KT P6SM SCT050 RMK FCST BASED ON AUTO OBS. NXT FCST BY 301300Z", "TAF CYOD 300540Z 3006/0106 11008KT P6SM BKN200 BECMG 3013/3015 14010KT RMK NXT FCST BY 301200Z", "TAF CYOJ 300640Z 3007/3019 12012KT P6SM BKN260 FM301800 12012KT P6SM BKN140 BKN240 RMK FCST BASED ON AUTO OBS. NXT FCST BY 301300Z", "TAF CYOO 300740Z 3008/3020 11010KT 1SM -DZ BR OVC003 TEMPO 3008/3015 6SM BR OVC030 PROB40 3008/3012 1/2SM FG VV002 FM301500 12015G25KT 3SM -RA BR BKN006 OVC012 TEMPO 3015/3017 6SM BR OVC025 PROB30 3017/3020 2SM SHRA BR BKN003 RMK FCST BASED ON AUTO OBS. NXT FCST BY 301400Z", "TAF CYOW 300840Z 3009/0106 08012G22KT P6SM SCT015 OVC025 TEMPO 3009/3012 5SM -RA BR OVC015 PROB30 3009/3012 2 1/2SM -DZ BR OVC006 FM301200 09012KT P6SM BKN015 OVC030 TEMPO 3012/3015 FEW015 OVC030 FM301500 10012G22KT P6SM OVC030 BECMG 3015/3017 09015G25KT FM301900 09015G25KT P6SM -SHRA SCT020 OVC050 FM302300 08020G30KT 2SM RA BR BKN006 OVC020 RMK NXT FCST BY 301200Z", "TAF CYPA 300640Z 3007/3019 12008KT P6SM FEW250 RMK NXT FCST BY 301300Z", "TAF CYPE 300640Z 3007/3019 09008KT P6SM SCT210 BECMG 3014/3016 12008KT FM301800 12012KT P6SM FEW240 RMK NXT FCST BY 301300Z", "TAF CYPH 300540Z 3006/3018 06016KT P6SM OVC010 TEMPO 3006/3014 1 1/2SM -SN BKN005 PROB40 3006/3014 3/4SM BR BKN003 FM301400 06012G22KT P6SM SCT010 BKN050 BKN120 TEMPO 3014/3018 P6SM -SHRA BKN010 OVC050 RMK FCST BASED ON AUTO OBS. NXT FCST BY 301200Z", "TAF CYPL 300740Z 3008/3020 02012G22KT 3SM -SN OVC012 TEMPO 3008/3012 P6SM -SNRA SCT012 OVC025 FM301200 36012G22KT P6SM -RASN OVC025 TEMPO 3012/3020 3SM -SNRA BR BKN012 OVC025 RMK FCST BASED ON AUTO OBS. NXT FCST BY 301400Z", "TAF CYPQ 300940Z 3010/3022 13010KT 2SM BR OVC004 TEMPO 3010/3015 6SM -RA BR BKN008 OVC012 FM301500 13010G20KT 2SM -RA BR OVC005 TEMPO 3015/3020 6SM BR BKN008 OVC012 PROB30 3015/3020 1SM BR OVC004 FM302000 12015G25KT 2SM -RA BR OVC005 TEMPO 3020/3022 6SM SHRA BR BKN008 OVC012 PROB30 3020/3022 1SM -RA BR OVC004 RMK FCST BASED ON AUTO OBS. NXT FCST BY 301400Z", "TAF CYPR 300640Z 3007/3019 35005KT P6SM SCT080 OVC120 TEMPO 3007/3009 BKN080 OVC120 FM300900 VRB03KT P6SM SCT040 OVC080 TEMPO 3009/3011 P6SM -SHRA BKN040 OVC080 FM301100 09005KT P6SM -RA FEW008 SCT015 OVC030 TEMPO 3011/3017 5SM SHRA BR SCT008 OVC015 PROB30 3011/3017 2SM SHRA BKN006 OVC015 FM301700 11005KT P6SM SCT012 OVC025 TEMPO 3017/3019 P6SM -SHRA BKN012 OVC025 RMK FCST BASED ON AUTO OBS. NXT FCST BY 301300Z", "TAF CYPX 300540Z 3006/3018 01008KT P6SM SCT015 BKN030 TEMPO 3006/3018 3SM -SN BR SCT005 OVC020 BECMG 3013/3015 07016KT RMK FCST BASED ON AUTO OBS. NXT FCST BY 301200Z", "TAF CYQB 300540Z 3006/0106 10010KT P6SM -RA OVC040 TEMPO 3006/3009 3SM -RA BR OVC015 PROB30 3006/3009 2SM -RA BR OVC006 FM300900 07010KT 6SM -RA BR FEW006 BKN012 OVC030 TEMPO 3009/3012 2SM RA BR BKN006 OVC012 FM301200 07015KT 2 1/2SM -RA BR OVC005 TEMPO 3012/3015 6SM BR SCT005 OVC020 FM301500 07015G25KT 5SM -DZ SCT005 OVC015 TEMPO 3015/3017 P6SM NSW OVC025 FM301700 07015G25KT P6SM OVC030 FM010300 07020G30KT 4SM -RA BR SCT007 OVC012 PROB30 0103/0106 2SM RA BR OVC006 RMK NXT FCST BY 301200Z", "TAF CYQD 300640Z 3007/3019 33005KT P6SM FEW030 FM301000 33005KT P6SM FEW020 PROB30 3010/3014 1SM BR BKN004 FM301400 33006KT P6SM FEW030 RMK FCST BASED ON AUTO OBS. NXT FCST BY 301300Z", "TAF CYQF 300540Z 3006/3018 14012KT P6SM SKC BECMG 3014/3016 15015G25KT RMK FCST BASED ON AUTO OBS. NXT FCST BY 301200Z", "TAF AMD CYQG 300909Z 3009/0106 VRB03KT 3SM BR FEW005 BKN012 TEMPO 3009/3012 6SM BR BKN080 FM301200 30012KT 5SM -RA BR BKN020 OVC060 TEMPO 3012/3017 2SM SHRA BR BKN008 FM301700 27012KT P6SM -SHRA BKN020 OVC030 FM302100 25012KT P6SM SCT030 FM010500 26012KT 2 1/2SM -SHRA BR BKN006 OVC012 RMK FCST BASED ON AUTO OBS. NXT FCST BY 301200Z", "TAF CYQH 300547Z 3006/3018 VRB03KT P6SM SCT120 FM301600 VRB03KT P6SM BKN080 TEMPO 3016/3018 P6SM -SHRA RMK NXT FCST BY 301200Z", "TAF CYQI 300540Z 3006/3018 11007KT P6SM FEW007 BKN160 BECMG 3010/3012 11015G25KT FM301200 11015G25KT P6SM BKN120 TEMPO 3012/3017 P6SM -SHRA FM301700 11018G28KT P6SM BKN030 BKN080 RMK NXT FCST BY 301200Z", "TAF CYQK 300740Z 3008/3020 03010G20KT P6SM BKN060 FM301200 02012G22KT P6SM SCT040 OVC080 BECMG 3012/3014 02015G25KT FM301800 01012G22KT P6SM SCT080 RMK NXT FCST BY 301400Z", "TAF CYQL 300540Z 3006/3018 12008KT P6SM SCT300 FM301700 14012G22KT P6SM SKC RMK FCST BASED ON AUTO OBS. NXT FCST BY 301200Z", "TAF CYQM 300540Z 3006/0106 09007KT P6SM BKN200 PROB30 3008/3011 1SM BR FM301500 16010KT P6SM BKN150 BECMG 3018/3020 17012G22KT FM302100 17012G22KT P6SM BKN120 BECMG 3023/0101 12012KT RMK NXT FCST BY 301200Z", "TAF CYQQ 300540Z 3006/0106 16005KT P6SM SCT100 BKN200 FM301200 15008KT P6SM SCT060 BKN160 FM301500 14010KT P6SM BKN040 OVC160 FM302100 14010KT P6SM SCT040 BKN200 FM010000 15006KT P6SM SCT060 FM010500 VRB03KT P6SM BKN060 RMK NXT FCST BY 301200Z", "TAF CYQR 300540Z 3006/0106 06008KT P6SM SKC FM301500 10008KT P6SM SCT240 RMK NXT FCST BY 301200Z", "TAF CYQT 300740Z 3008/3020 01012KT P6SM -RA SCT012 OVC025 TEMPO 3008/3014 3SM -RASN BR OVC012 FM301400 35012G22KT P6SM -RA OVC020 TEMPO 3014/3020 4SM -SHRA BR OVC010 RMK NXT FCST BY 301400Z", "TAF CYQU 300640Z 3007/3019 06008KT P6SM SCT250 BECMG 3010/3012 VRB03KT FM301800 05005KT P6SM SCT250 RMK NXT FCST BY 301300Z", "TAF CYQW 300540Z 3006/3018 12010KT P6SM SKC RMK FCST BASED ON AUTO OBS. NXT FCST BY 301200Z", "TAF CYQX 300540Z 3006/0106 34012G22KT P6SM FEW210 BECMG 3012/3014 34018G28KT BECMG 3019/3021 36010G20KT FM302300 34010KT P6SM SKC RMK NXT FCST BY 301200Z", "TAF CYQY 300540Z 3006/3018 24007KT P6SM SCT240 PROB30 3006/3010 2SM BR FM301200 29005KT P6SM SKC BECMG 3014/3016 09012KT RMK NXT FCST BY 301200Z", "TAF AMD CYRB 300841Z 3008/0106 10010KT P6SM -SN FEW008 SCT010 OVC060 TEMPO 3008/3015 3SM -SN BLSN SCT005 OVC010 FM301500 08015KT P6SM -SN SCT010 OVC020 TEMPO 3015/0106 3SM -SN OVC009 RMK NXT FCST BY 301200Z", "TAF CYRQ 300740Z 3008/3020 09010KT 6SM -RA BR OVC050 TEMPO 3008/3015 3SM -RA BR BKN020 OVC050 PROB30 3008/3014 2 1/2SM -RA BR OVC005 FM301500 12012G22KT P6SM -SHRA OVC030 FM301800 11012G22KT P6SM BKN040 BECMG 3018/3020 08015G25KT RMK FCST BASED ON AUTO OBS. NXT FCST BY 301400Z", "TAF AMD CYRT 300857Z 3008/3018 16008KT 1SM -SN BR OVC004 TEMPO 3008/3016 4SM BR SCT008 OVC150 PROB30 3008/3016 1/2SM FZDZ FZFG FM301600 20006KT P6SM BKN015 TEMPO 3016/3018 3SM -SN BR OVC006 RMK NXT FCST BY 301200Z", "TAF AMD CYSB 300823Z 3008/3020 13008KT 1/2SM -DZ FG VV001 TEMPO 3008/3012 3SM -RA BR OVC008 FM301200 12010G20KT 3SM -RA BR BKN006 OVC015 TEMPO 3012/3015 1SM -DZ BR OVC004 FM301700 10013G23KT 3SM -RA BR BKN006 OVC015 RMK NXT FCST BY 301400Z", "TAF CYSF 300540Z 3006/3018 VRB03KT P6SM SCT200 BECMG 3007/3009 08006KT FM300900 08006KT P6SM BKN120 BKN220 FM301500 10006KT P6SM SCT120 SCT240 BECMG 3016/3018 12008KT RMK FCST BASED ON AUTO OBS. NXT FCST BY 301200Z", "TAF CYSJ 300540Z 3006/3018 VRB03KT P6SM BKN150 OVC220 PROB30 3006/3010 BKN007 FM301200 12010KT P6SM BKN120 FM301700 09012G22KT P6SM -SHRA SCT030 BKN100 RMK NXT FCST BY 301200Z", "TAF CYSM 300540Z 3006/3018 14008KT P6SM FEW060 FEW220 FM301600 15012KT P6SM BKN180 RMK NXT FCST BY 301200Z", "TAF AMD CYTE 300712Z 3007/3019 26012KT P6SM SCT005 OVC040 TEMPO 3007/3019 5SM -SN BR BKN006 BKN020 BECMG 3011/3013 VRB03KT RMK FCST BASED ON AUTO OBS. NXT FCST BY 301300Z", "TAF CYTH 300640Z 3007/3019 36005KT P6SM SCT060 TEMPO 3007/3012 BKN060 FM301200 36005KT P6SM FEW015 SCT040 TEMPO 3012/3015 BKN015 BKN040 FM301500 35008KT P6SM BKN030 TEMPO 3015/3019 SCT030 RMK NXT FCST BY 301300Z", "TAF AMD CYTL 300745Z 3008/3020 02012KT P6SM SCT008 TEMPO 3008/3013 BKN008 FM301300 02012G22KT P6SM SCT030 BKN100 RMK FCST BASED ON AUTO OBS. NXT FCST BY 301400Z", "TAF CYTR 300540Z 3006/0106 14010G20KT P6SM FEW008 SCT012 OVC025 TEMPO 3006/3012 3SM -RA BR SCT008 OVC012 FM301300 11012G22KT 3SM -SHRA BR OVC008 FM301700 10012G24KT 2SM SHRA BR OVC006 BECMG 0100/0102 19008KT RMK NXT FCST BY 301200Z", "TAF CYTS 300740Z 3008/3020 11008KT 1 1/2SM -RA BR OVC004 TEMPO 3008/3014 4SM BR OVC010 FM301400 11010KT P6SM -SHRA SCT008 OVC015 TEMPO 3014/3020 P6SM NSW SCT015 OVC030 RMK NXT FCST BY 301400Z", "TAF CYTZ 300740Z 3008/0108 06015KT 6SM BR SCT005 BKN030 TEMPO 3008/3013 1SM -DZ -RA BR OVC002 FM301300 07015KT P6SM BKN025 TEMPO 3013/3016 2SM -SHRA BR OVC004 FM301600 08018KT 2SM -RA BR OVC004 TEMPO 3016/3022 6SM SHRA OVC007 FM302200 30012G22KT 3SM -RA BR BKN004 OVC020 FM010000 30012G22KT 6SM -RA BR BKN008 OVC040 FM010400 32010G20KT P6SM SCT020 BKN150 FM010700 24015KT P6SM FEW020 SCT180 RMK FCST BASED ON AUTO OBS. NXT FCST BY 301400Z", "TAF CYUL 300840Z 3009/0106 08010KT 6SM -RA BR SCT015 OVC040 TEMPO 3009/3010 4SM -RA BR OVC015 FM301000 08010KT 6SM BR SCT015 OVC025 TEMPO 3010/3012 3SM -DZ BR BKN008 OVC015 FM301200 09010KT P6SM SCT008 OVC015 TEMPO 3012/3015 SCT015 OVC025 FM301500 12012G22KT P6SM -SHRA OVC025 FM301800 11012G22KT P6SM BKN040 BECMG 3018/3020 08015G25KT FM010100 07020G30KT 2SM RA BR BKN006 OVC020 RMK NXT FCST BY 301200Z", "TAF AMD CYUX 300950Z 3009/3019 27005KT P6SM OVC025 TEMPO 3009/3015 2SM BR OVC005 PROB40 3009/3015 1/2SM -FZDZ FZFG OVC002 FM301500 32006KT P6SM -SN SCT005 OVC015 TEMPO 3015/3019 4SM -SN BR OVC005 PROB30 3015/3019 3/4SM -FZDZ BR OVC003 RMK FCST BASED ON AUTO OBS. NXT FCST BY 301300Z", "TAF CYUY 300540Z 3006/3018 14012KT 6SM -RA BR OVC008 TEMPO 3006/3014 2 1/2SM -RA BR OVC007 FM301400 14010G20KT P6SM FEW009 OVC020 TEMPO 3014/3018 OVC025 RMK NXT FCST BY 301200Z", "TAF CYVC 300640Z 3007/3019 08005KT P6SM SKC BECMG 3016/3018 08010KT RMK NXT FCST BY 301300Z", "TAF CYVM 300640Z 3007/3019 VRB03KT 2SM BR BKN006 TEMPO 3007/3019 P6SM NSW SCT006 BKN010 OVC200 RMK FCST BASED ON AUTO OBS. NXT FCST BY 301300Z", "TAF CYVO 300540Z 3006/3018 13012KT 6SM -RA BR OVC010 TEMPO 3006/3014 2 1/2SM -RA BR OVC007 FM301400 14010G20KT P6SM FEW009 OVC020 TEMPO 3014/3018 OVC025 RMK FCST BASED ON AUTO OBS. NXT FCST BY 301200Z", "TAF AMD CYVP 300933Z 3009/3018 03005KT P6SM SCT005 BKN025 TEMPO 3009/3014 2SM BR BKN005 OVC060 PROB40 3009/3012 1/2SM FZFG VV002 FM301400 06008KT P6SM FEW020 BKN060 RMK NXT FCST BY 301200Z", "TAF CYVQ 300540Z 3006/3018 VRB03KT P6SM FEW140 SCT240 FM301000 12005KT P6SM BKN060 OVC140 TEMPO 3010/3018 P6SM -SHRA BECMG 3016/3018 12012KT RMK NXT FCST BY 301200Z", "TAF CYVR 300840Z 3009/0112 09008KT P6SM FEW120 SCT230 FM301200 11010KT P6SM SCT050 SCT240 FM301600 10012KT P6SM FEW020 SCT040 BKN130 TEMPO 3016/3019 SCT020 BKN040 OVC130 FM301900 10008KT P6SM SCT020 OVC040 TEMPO 3019/0102 6SM -SHRA BR FEW008 OVC020 BECMG 3022/3024 VRB03KT FM010200 VRB03KT P6SM SCT020 BKN030 TEMPO 0102/0106 P6SM -SHRA FEW008 BKN020 OVC030 FM010600 30005KT P6SM SCT008 BKN020 OVC030 TEMPO 0106/0110 5SM -DZ BR BKN008 OVC020 FM011000 30008KT P6SM SCT020 BKN030 OVC060 TEMPO 0110/0112 P6SM -SHRA BKN020 OVC030 RMK NXT FCST BY 301200Z", "TAF CYWG 300540Z 3006/0106 36010KT P6SM FEW060 FM301700 36020G30KT P6SM SCT050 FM010100 36012KT P6SM SKC RMK NXT FCST BY 301200Z", "TAF CYWK 300740Z 3008/3020 VRB03KT P6SM BKN180 PROB30 3011/3013 2SM BR FM301900 10008KT P6SM BKN040 RMK FCST BASED ON AUTO OBS. NXT FCST BY 301400Z", "TAF CYWL 300640Z 3007/3019 19005KT P6SM FEW120 SCT230 BECMG 3008/3010 11008KT FM301800 13008KT P6SM SCT150 RMK NXT FCST BY 301300Z", "TAF CYXC 300640Z 3007/3019 29010G20KT P6SM SKC BECMG 3009/3011 28007KT BECMG 3014/3016 VRB03KT RMK NXT FCST BY 301300Z", "TAF CYXE 300540Z 3006/0106 08008KT P6SM SKC BECMG 3008/3010 14008KT FM301800 14015KT P6SM SCT240 FM010200 12010KT P6SM SKC RMK NXT FCST BY 301200Z", "TAF CYXH 300540Z 3006/3018 09008KT P6SM SCT270 BECMG 3010/3012 VRB03KT FM301700 12005KT P6SM SKC RMK FCST BASED ON AUTO OBS. NXT FCST BY 301200Z", "TAF CYXJ 300640Z 3007/3019 09012KT P6SM SCT240 FM300900 09006KT P6SM SCT240 BECMG 3010/3012 VRB03KT FM301800 VRB03KT P6SM SKC RMK NXT FCST BY 301300Z", "TAF AMD CYXL 300930Z 3009/3020 36012G22KT 2 1/2SM -SN BR OVC008 TEMPO 3009/3014 6SM -RASN BR SCT008 OVC025 FM301400 01015G25KT P6SM -RA OVC025 TEMPO 3014/3020 5SM -SHRA BR OVC020 RMK NXT FCST BY 301400Z", "TAF CYXS 300646Z 3007/3019 35008KT P6SM FEW100 FM300900 VRB03KT P6SM SCT240 BECMG 3013/3015 16008KT RMK FCST BASED ON AUTO OBS. NXT FCST BY 301300Z", "TAF CYXT 300640Z 3007/3019 VRB03KT P6SM OVC120 FM301100 VRB03KT P6SM SCT090 OVC120 TEMPO 3011/3014 BKN090 OVC120 FM301400 18005KT P6SM SCT020 BKN050 OVC090 TEMPO 3014/3019 P6SM -SHRA BKN020 OVC050 RMK NXT FCST BY 301300Z", "TAF AMD CYXU 301011Z 3010/0106 16005KT 3/4SM -DZ BR OVC001 TEMPO 3010/3013 2 1/2SM -RA BR OVC004 FM301300 19008KT 2SM -DZ -RA BR OVC006 TEMPO 3013/3015 3/4SM -DZ BR OVC002 FM301500 32012KT 2SM -RA BR BKN006 OVC020 TEMPO 3015/3017 6SM -RA SCT006 OVC020 PROB30 3015/3017 1SM SHRA BR OVC005 FM301700 30012KT 5SM -SHRA BKN006 OVC020 FM302000 28012KT P6SM BKN012 OVC040 FM010000 27007KT P6SM BKN020 PROB30 0100/0106 1SM BR RMK NXT FCST BY 301200Z", "TAF CYXX 300540Z 3006/0106 22005KT P6SM FEW230 FM301000 VRB03KT P6SM FEW020 SCT140 SCT220 FM301400 VRB03KT P6SM FEW020 SCT040 BKN120 TEMPO 3014/3019 SCT020 BKN040 OVC120 FM301900 23010KT P6SM BKN030 OVC100 TEMPO 3019/0106 P6SM -SHRA BKN020 OVC100 RMK NXT FCST BY 301200Z", "TAF CYXY 300541Z 3006/3018 17010KT P6SM SCT040 BKN060 TEMPO 3006/3009 P6SM -SHRA BKN040 FM300900 17012KT P6SM SCT020 BKN040 TEMPO 3009/3018 5SM -RA BR BKN020 OVC030 RMK NXT FCST BY 301200Z", "TAF AMD CYYB 300906Z 3009/3020 13010KT 3SM BR OVC004 TEMPO 3009/3013 6SM -RA BR BKN006 OVC010 FM301300 13012G22KT 5SM BR BKN006 OVC020 TEMPO 3013/3018 6SM -RA BR OVC020 FM301800 10015G25KT 3SM -RA BR BKN009 OVC015 RMK FCST BASED ON AUTO OBS. NXT FCST BY 301400Z", "TAF CYYC 300840Z 3009/0106 16008KT P6SM SKC FM302000 14012G22KT P6SM SKC BECMG 0102/0104 13012KT RMK NXT FCST BY 301200Z", "TAF CYYE 300640Z 3007/3019 VRB03KT P6SM FEW150 SCT210 FM301800 VRB03KT P6SM BKN160 OVC200 RMK NXT FCST BY 301300Z", "TAF CYYF 300640Z 3007/3019 VRB03KT P6SM SKC BECMG 3015/3017 36010KT FM301700 36010KT P6SM SCT100 RMK NXT FCST BY 301300Z", "TAF CYYG 300540Z 3006/3018 11005KT P6SM SCT220 PROB30 3009/3011 2SM BR FM301600 17010KT P6SM BKN180 RMK NXT FCST BY 301200Z", "TAF CYYH 300540Z 3006/3018 24008KT P6SM SCT005 OVC015 TEMPO 3006/3018 2SM -SN BR OVC005 BECMG 3013/3015 21010KT RMK NXT FCST BY 301200Z", "TAF CYYJ 300540Z 3006/0106 28005KT P6SM FEW250 FM301300 VRB03KT P6SM SCT040 BKN160 BECMG 3014/3016 14008KT FM301600 14008KT P6SM BKN030 OVC120 FM302000 13008KT P6SM BKN030 OVC050 TEMPO 3020/0103 P6SM -SHRA BKN020 OVC050 BECMG 0100/0102 28008KT FM010300 28008KT P6SM SCT030 OVC050 TEMPO 0103/0106 P6SM -SHRA RMK NXT FCST BY 301200Z", "TAF AMD CYYL 300904Z 3009/3019 30005KT P6SM FEW020 BKN060 FM301200 35005KT P6SM SCT015 SCT060 TEMPO 3012/3016 BKN015 BKN060 FM301600 36006KT P6SM BKN020 TEMPO 3016/3019 SCT020 RMK FCST BASED ON AUTO OBS. NXT FCST BY 301300Z", "TAF CYYN 300540Z 3006/3018 12012KT P6SM SKC RMK FCST BASED ON AUTO OBS. NXT FCST BY 301200Z", "TAF AMD CYYQ 300919Z 3009/0106 04005KT P6SM SCT002 OVC040 TEMPO 3009/3013 1 1/2SM BR OVC002 FM301300 02005KT P6SM SCT004 OVC030 TEMPO 3013/3018 2 1/2SM BR BKN004 OVC020 PROB30 3013/3018 1/2SM FZFG OVC002 FM301800 01008KT P6SM SCT006 BKN040 PROB30 3018/3021 5SM BR BKN005 FM302300 01008KT P6SM FEW006 SCT050 FM010100 36006KT P6SM SCT004 TEMPO 0101/0106 1SM BR OVC004 PROB40 0101/0106 1/2SM FZFG OVC002 RMK NXT FCST BY 301200Z", "TAF CYYR 300540Z 3006/0106 04005KT P6SM SKC PROB30 3006/3012 2SM BR SCT005 FM301300 07005KT P6SM SCT050 SCT250 BECMG 3017/3019 07010KT BECMG 3022/3024 04005KT FM010200 04005KT P6SM SCT015 FM010400 VRB03KT P6SM BKN012 RMK NXT FCST BY 301200Z", "TAF CYYT 300540Z 3006/0106 34015G25KT P6SM BKN050 TEMPO 3008/3010 BKN015 OVC050 FM301000 34018G28KT P6SM SCT007 OVC015 TEMPO 3010/3015 5SM -SNRA BKN007 OVC015 FM301500 34020G30KT 6SM -SNRA BR OVC015 TEMPO 3015/3023 P6SM NSW BKN025 FM302300 25015G25KT P6SM OVC015 RMK NXT FCST BY 301200Z", "TAF CYYU 300740Z 3008/3020 08008KT 1 1/2SM -RA BR OVC004 TEMPO 3008/3015 4SM BR OVC010 FM301500 11010KT P6SM -SHRA SCT008 OVC015 TEMPO 3015/3020 P6SM NSW SCT015 OVC030 RMK NXT FCST BY 301400Z", "TAF CYYY 300740Z 3008/3020 15012G22KT P6SM BKN080 OVC200 FM301800 13012G22KT P6SM BKN050 OVC100 TEMPO 3018/3020 P6SM -SHRA RMK NXT FCST BY 301400Z", "TAF CYYZ 300840Z 3009/0112 11008KT 6SM BR BKN120 TEMPO 3009/3014 1 1/2SM -DZ -RA BR OVC002 PROB30 3009/3011 1/2SM FG OVC001 FM301400 10012KT 3SM -RA BR BKN006 OVC012 TEMPO 3014/3016 6SM BR OVC025 PROB30 3016/3022 2SM SHRA BR BKN003 FM302200 28012G22KT P6SM -RA SCT006 BKN012 OVC040 FM010200 30012G22KT 5SM -RA BR BKN008 OVC040 FM010400 32010KT P6SM SCT020 BKN150 FM010700 24010KT P6SM FEW020 SCT180 RMK NXT FCST BY 301200Z", "TAF AMD CYZE 301009Z 3010/3022 16010KT 1/2SM FG VV001 TEMPO 3010/3013 6SM BR BKN012 FM301300 16010KT 2SM -RA BR OVC005 TEMPO 3013/3018 6SM BR BKN008 OVC012 FM301800 30010KT 2SM -RA BR OVC005 TEMPO 3018/3022 6SM SHRA BR BKN008 OVC012 RMK FCST BASED ON AUTO OBS. NXT FCST BY 301400Z", "TAF CYZF 300540Z 3006/0106 14012KT P6SM SCT060 BKN100 FM301500 14012KT P6SM SCT100 FM302100 15008KT P6SM SCT160 BECMG 0101/0103 07008KT RMK NXT FCST BY 301200Z", "TAF CYZH 300640Z 3007/3019 09008KT P6SM SCT220 BECMG 3014/3016 13012KT RMK FCST BASED ON AUTO OBS. NXT FCST BY 301300Z", "TAF AMD CYZR 301005Z 3010/3020 VRB03KT 3/8SM FG OVC001 TEMPO 3010/3012 2SM BR SCT002 BKN100 FM301200 VRB03KT P6SM SCT025 TEMPO 3012/3014 1SM BR OVC003 PROB30 3012/3014 1/2SM FG OVC002 FM301400 32008KT 2SM -RA BKN008 OVC012 FM301900 30008KT 6SM -SHRA BR BKN020 RMK FCST BASED ON AUTO OBS. NXT FCST BY 301400Z", "TAF AMD CYZS 300210Z 3002/3013 VRB03KT P6SM SCT006 BKN025 TEMPO 3002/3013 4SM -SN BKN006 OVC015 BECMG 3004/3006 01008KT RMK NXT FCST BY 300700Z", "TAF CYZT 300640Z 3007/3019 33005KT P6SM BKN080 OVC100 FM300800 VRB03KT P6SM SCT040 OVC060 TEMPO 3008/3014 P6SM -SHRA BKN040 OVC060 FM301400 06005KT P6SM -RA SCT008 OVC025 TEMPO 3014/3019 3SM -SHRA BR BKN008 OVC025 PROB40 3016/3019 2SM SHRA BR OVC005 RMK NXT FCST BY 301300Z", "TAF CYZV 300540Z 3006/0106 VRB03KT P6SM FEW030 BKN080 BECMG 3011/3013 10010KT BKN200 FM302100 09012G22KT P6SM BKN040 BKN140 FM010000 08012KT P6SM FEW040 BKN120 BECMG 0104/0106 08015G30KT RMK NXT FCST BY 301200Z", "TAF CYZX 300540Z 3006/0106 12005KT P6SM SCT180 BKN250 FM301300 12010KT P6SM BKN120 OVC200 FM301900 14012G22KT P6SM FEW030 BKN100 OVC200 FM010200 12012G22KT P6SM SCT020 BKN100 OVC200 FM010500 12015G25KT P6SM BKN020 OVC100 RMK NXT FCST BY 301200Z", "TAF CZBF 300840Z 3009/3021 VRB03KT P6SM BKN180 PROB30 3009/3011 2SM BR FM301300 08007KT P6SM SCT040 BKN160 BECMG 3016/3018 12008KT RMK FCST BASED ON AUTO OBS. NXT FCST BY 301400Z", "TAF CZMD 300940Z 3010/3022 03008KT P6SM FEW020 BKN100 FM301500 03012KT P6SM FEW030 BKN120 BECMG 3015/3017 03010G20KT RMK FCST BASED ON AUTO OBS. NXT FCST BY 301600Z", "TAF CZSJ 300940Z 3010/3022 36008KT P6SM SCT030 BKN120 FM301500 03010KT P6SM SCT040 BECMG 3015/3017 02010G20KT RMK FCST BASED ON AUTO OBS. NXT FCST BY 301600Z", "TAF CZUM 300740Z 3008/3020 VRB03KT P6SM OVC090 PROB30 3008/3015 2SM BR BKN004 FM301500 07007KT P6SM SKC RMK FCST BASED ON AUTO OBS. NXT FCST BY 301400Z", "TAF CZVL 300540Z 3006/3018 13012KT P6SM SCT230 BECMG 3013/3015 16015G25KT RMK FCST BASED ON AUTO OBS. NXT FCST BY 301200Z", "TAF DAAD 300800Z 3009/3018 30016KT CAVOK PROB30 TEMPO 3012/3018 34016G30KT 4000 DRSA", "TAF DAAE 300500Z 3006/0106 25014KT 9999 FEW020 SCT100 TEMPO 3006/3015 30020G30KT FEW023CB BECMG 3010/3012 35014KT BECMG 3020/3022 06006KT", "TAF DAAG 300500Z 3006/0106 32012KT 9999 FEW026 SCT100 BECMG 3012/3014 04010KT BECMG 3018/3021 VRB02KT", "TAF DAAJ 300500Z 3006/0106 02006KT 6000 SCT046 BECMG 3006/3009 18010KT TEMPO 3014/3018 VRB02KT BECMG 3018/3021 02010KT", "TAF DAAP 300800Z 3009/3018 08006KT CAVOK", "TAF DAAS 300500Z 3006/0106 25008KT 9999 SCT023 SCT100 BECMG 3008/3012 34015KT TEMPO 3009/3018 30020G30KT FEW026CB BECMG 3019/3021 06006KT", "TAF DAAT 300500Z 3006/0106 02008KT 9999 FEW040 SCT046 BECMG 3006/3009 26008KT PROB30 TEMPO 3014/3018 SCT040TCU BECMG 3018/3021 02006KT", "TAF DAAV 300500Z 3006/0106 06008KT 9999 FEW020 SCT100 TEMPO 3006/3015 30020G30KT FEW023CB BECMG 3010/3012 35014KT BECMG 3020/3022 10006KT", "TAF DAAY 300800Z 3009/3018 02012KT 9999 FEW030 SCT233 PROB40 TEMPO 3015/3018 5000 -TSRA FEW026CB BKN100", "TAF DABB 300500Z 3006/0106 34014KT 9999 SCT020 SCT100 TEMPO 3006/3015 30020G30KT FEW023CB", "TAF DABC 300500Z 3006/0106 25008KT 9999 SCT023 SCT100 BECMG 3010/3012 34015KT TEMPO 3012/3020 32020G30KT FEW026CB BECMG 3019/3021 22006KT", "TAF DABS 300500Z 3006/0106 26008KT 9999 SCT033 SCT100 BECMG 3008/3010 34015KT TEMPO 3012/3020 31020G30KT FEW033CB BECMG 3019/3021 28006KT", "TAF DABT 300500Z 3006/0106 26008KT 9999 SCT023 SCT100 BECMG 3008/3010 34015KT TEMPO 3012/3020 30020G30KT FEW026CB BECMG 3022/3024 28008KT", "TAF DAFH 300800Z 3009/3018 32015KT 9999 FEW040 PROB30 TEMPO 3009/3012 34015G25KT 4000 DRSA", "TAF COR DAOB 300500Z 3006/0106 26010KT 9999 FEW030 BECMG 3007/3010 33008KT BECMG 3019/3022 VRB02KT 9999 FEW030 BKN233 BECMG 0101/0104 32005KT", "TAF DAOF 300800Z 3009/3018 34008KT CAVOK PROB40 3015/3018 30018KT", "TAF DAOI 300500Z 3006/0106 24006KT 9999 FEW026 BECMG 3011/3013 04010KT BECMG 3018/3021 VRB02KT", "TAF COR DAON 300500Z 3006/0106 VRB02KT CAVOK BECMG 3010/3013 34010KT 9999 FEW030 BKN233 BECMG 3016/3019 VRB02KT BECMG 3019/3022 26005KT BECMG 3022/3024 VRB02KT BECMG 0101/0104 10005KT BECMG 0104/0106 VRB02KT", "TAF COR DAOO 300500Z 3006/0106 21010KT 9999 FEW033 SCT233 BECMG 3007/3009 VRB02KT BECMG 3009/3012 28008KT BECMG 3016/3019 VRB02KT BECMG 3019/3022 30008KT 9999 FEW026 SCT100 BKN233 PROB40 TEMPO 0104/0106 VRB02KT 4000 BR BKN010", "TAF DAOR 300800Z 3009/3018 10010KT 4000 DU NSC BECMG 3010/3013 18010KT 6000 NSW", "TAF DAOV 300800Z 3009/3018 VRB02KT CAVOK BECMG 3010/3013 35012KT PROB40 TEMPO 3015/3018 5000 -TSRA FEW026CB BKN100", "TAF DATM 300800Z 3009/3018 VRB02KT CAVOK", "TAF DAUA 300500Z 3006/0106 08010KT CAVOK BECMG 3016/3017 VRB02KT", "TAF AMD DAUB 300800Z 3006/0106 33014KT 5000 DRSA NSC TEMPO 3010/3018 30020G30KT 2000 BLSA FEW033TCU BECMG 3016/3018 26008KT 8000 SCT040", "TAF DAUG 300500Z 3006/0106 02018KT 8000 NSC TEMPO 3012/3015 30010KT PROB30 TEMPO 3018/3022 32015G30KT 1500 BLSA FEW033CB", "TAF COR DAUH 300516Z 3006/0106 02008KT 1500 SA NSC BECMG 3006/3008 4000 BECMG 3008/3012 6000 NSW BECMG 3020/3023 04012KT", "TAF DAUI 300500Z 3006/0106 06010KT CAVOK", "TAF DAUK 300800Z 3009/3018 32010KT 8000 NSC PROB30 TEMPO 3009/3012 32015G25KT 4000 DRSA", "TAF DAUL 300800Z 3009/3018 30010KT 9999 FEW033 PROB30 TEMPO 3009/3012 32015G25KT", "TAF DAUO 300800Z 3009/3018 34005KT 1500 SA NSC BECMG 3009/3011 34015KT 6000 NSW PROB30 TEMPO 3011/3014 34015G25KT 4000 DRSA", "TAF DAUT 300800Z 3009/3018 08006KT CAVOK", "TAF DAUU 300800Z 3009/3018 36008KT 6000 NSC PROB30 TEMPO 3009/3012 36015G25KT 2000 DRSA", "TAF DAUZ 300500Z 3006/0106 04008KT CAVOK", "TAF DBBB 300500Z 3006/0112 VRB02KT 9999 SCT010 TEMPO 3006/3010 BKN010 BECMG 3008/3010 22010KT TEMPO 3013/3019 TS BKN012 FEW023CB", "TAF DFFD 300500Z 3006/0112 18008KT 9999 FEW026 PROB40 TEMPO 3014/3021 TS SCT026 FEW040CB", "TAF DFOO 300500Z 3005/0106 18008KT 9999 FEW020 TEMPO 3012/3020 4000 TSRA SCT020 FEW033CB", "TAF DGAA 300500Z 3006/0112 27007KT 9999 SCT015 BECMG 19014KT PROB30 TEMPO 3017/3021 TS SCT012 FEW030CB", "TAF DGLE 300500Z 3006/0106 23010KT 9999 BKN014 TEMPO 3006/3008 TS FEW030CB BECMG 3013/3015 FEW015", "TAF DGSI 300500Z 3006/0106 23010KT 9999 BKN012 BECMG 3010/3012 SCT016 PROB30 TEMPO 3017/3021 6000 TSRA BKN010 FEW030CB", "TAF DIAP 300632Z 3006/0112 22006KT 9999 SCT012 PROB30 TEMPO 3006/3011 BKN012 FEW020CB TEMPO 3014/3020 TS BKN012 FEW020CB PROB30 TEMPO 0102/0106 BKN012 FEW020CB", "TAF DIBK 300636Z 3006/0106 22005KT 9999 SCT013 PROB30 TEMPO 3006/3011 TS BKN013 FEW030CB TEMPO 3017/3023 TS BKN013 FEW030CB", "TAF DIYO 300639Z 3006/0106 24005KT 9999 SCT013 PROB30 TEMPO 3006/3011 TS BKN013 FEW025CB TEMPO 3016/3022 TS BKN013 FEW025CB", "TAF DNAA 300500Z 3006/0112 07004KT CAVOK BECMG 3008/3010 23010KT BKN012 TEMPO 3015/3022 TS SCT013 FEW020CB PROB30 3016/3021 06016G34KT 5000 -TSRA BKN008 FEW018CB BECMG 3022/3024 VRB02KT CAVOK BECMG 0108/0110 24010KT BKN012", "TAF DNAK 300500Z 3006/0112 VRB02KT 9999 SCT010 TEMPO 3006/3008 5000 BR BECMG 3008/3010 26010KT BKN014 TEMPO 3013/3017 SCT013 FEW020CB BECMG 3017/3019 VRB02KT SCT011", "TAF DNBE 300500Z 3006/0112 VRB02KT 9999 SCT009 TEMPO 3006/3008 5000 BR BECMG 3008/3010 22010KT BKN013 FEW020CB TEMPO 3015/3019 TS PROB30 3016/3019 5000 -TSRA BKN008 FEW019CB BECMG 3019/3021 VRB02KT SCT011", "TAF DNGO 300500Z 3006/0112 22010KT CAVOK TEMPO 3012/3016 TS SCT014 FEW022CB", "TAF DNIB 300500Z 3006/0112 VRB02KT 9999 SCT010 TEMPO 3006/3008 5000 BR BECMG 3008/3010 24010KT BKN014 TEMPO 313/3017 SCT013 FEW020CB BECMG 3017/3019 VRBB02KT SCT011", "TAF DNIL 300500Z 3006/0112 VRB02KT 9999 FEW010 BECMG 3008/3010 20010KT BKN012 TEMPO 3015/3021 TS SCT013 FEW020CB PROB30 3016/3020 07015G34KT 5000 -TSRA BKN009 FEW018CB BECMG 3021/3024 VRB02KT BECMG 0107/0110 21010KT BKN012", "TAF DNJO 300500Z 3006/0112 26010KT 7000 SCT007 TEMPO 3006/3008 3000 BR BECMG 3008/3011 9999 BKN009 TEMPO 3013/3019 TS SCT010 FEW018CB PROB30 3014/3018 09015G32KT 5000 -TSRA BKN005 FEW016CB BECMG 3019/3022 13005KT CAVOK BECMG 0108/0111 25010KT CAVOK", "TAF DNKA 300500Z 3006/0112 22010KT CAVOK BECMG 3009/3011 BKN012 TEMPO 3016/3021 TS SCT014 FEW021CB BECMG 3021/3024 VRB02KT CAVOK BECMG 0109/0112 23010KT BKN013", "TAF DNKN 300500Z 3006/0112 22010KT CAVOK TEMPO 3014/3018 TS SCT013 FEW022CB", "TAF DNKT 300500Z 3006/0112 23010KT CAVOK TEMPO 3014/3018 TS SCT014 FEW022CB", "TAF DNMA 300500Z 3006/0112 22010KT CAVOK TEMPO 3013/3017 TS SCT013 FEW022CB", "TAF DNMM 300500Z 3006/0112 VRB02KT 9999 SCT008 TEMPO 3006/3008 5000 BR BECMG 3008/3010 23010KT BKN013 FEW020CB TEMPO 3015/3020 TS PROB30 3016/3020 5000 -TSRA BKN008 FEW019CB BECMG 3018/3020 SCT011 BECMG 3022/3024 VRB02KT", "TAF DNSO 300500Z 3006/0112 24012KT CAVOK TEMPO 3016/3020 FEW014 FEW022CB", "TAF DNSU 300500Z 3006/0112 VRB02KT 9999 SCT008 TEMPO 3006/3008 5000 BR BECMG 3008/3010 21010KT BKN013 FEW020CB TEMPO 3016/3020 TS PROB30 3017/3020 5000 -TSRA BKN008 FEW019CB BECMG 3020/3022 VRB02KT SCT011", "TAF DNYO 300500Z 3006/0112 24010KT CAVOK TEMPO 3010/3014 TS BKN013 FEW021CB TEMPO 3014/3018 5000 TSRA BKN011 FEW020CB", "TAF DRRN 300500Z 3006/0112 26010KT 8000 NSC PROB40 3015/3020 TS FEW045CB", "TAF DRZA 300500Z 3006/0106 10010KT 8000 NSC PROB30 3006/3010 4000 DU", "TAF DRZR 300500Z 3006/0106 26008KT 6000 NSC BECMG 3006/3008 2000 DU TEMPO 3008/3012 10012KT 0800 BLDU BECMG 3014/3016 04010KT 4000", "TAF DTKA 300900Z 3010/3019 28010KT 9999 SCT020 PROB30 TEMPO 3010/3014 RA FEW026TCU", "TAF DTMB 300500Z 3006/0106 20006KT 9999 SCT030 BECMG 3006/3008 06010KT PROB40 TEMPO 3016/3021 RA FEW026TCU BECMG 3021/3023 VRB02KT BECMG 0103/0105 33010KT", "TAF DTNH 300500Z 3006/0106 VRB02KT CAVOK BECMG 3010/3012 08010KT BECMG 3016/3018 02010KT BECMG 3015/3017 VRB02KT TEMPO 3015/3021 TSRA FEW026CB", "TAF DTTA 300500Z 3006/0106 VRB02KT 9999 FEW030 BECMG 3013/3015 06010KT BECMG 3016/3018 28012KT PROB30 TEMPO 3013/3018 TSRA FEW026TCU FEW030CB", "TAF DTTB 300900Z 3010/3019 28006KT 9999 SCT020 BECMG 3010/3012 27015KT PROB30 TEMPO 3010/3014 RA FEW020TCU TEMPO 3013/3016 29020G35KT", "TAF DTTF 300900Z 3010/3019 02012KT 9999 SCT030", "TAF DTTG 300900Z 3010/3019 08014KT 9999 FEW030", "TAF DTTJ 300500Z 3006/0106 15005KT 9999 FEW030 BECMG 3007/3009 04012KT", "TAF DTTR 300900Z 3010/3019 18010KT 9999 FEW040 BECMG 3013/3015 27010KT", "TAF DTTX 300500Z 3006/0106 03006KT 9999 FEW033 BECMG 3010/3012 05018KT TEMPO 3016/3018 05008KT", "TAF DTTZ 300500Z 3006/0106 VRB02KT CAVOK BECMG 3010/3012 04010KT BECMG 3015/3018 10022KT BECMG 3021/3023 08012KT", "TAF DXNG 300500Z 3006/0106 VRB05KT 9999 FEW007 PROB30 TEMPO 3014/3020 TS", "TAF DXXX 300500Z 3006/0112 VRB03KT 9999 FEW012 BECMG 3009/3011 20012KT BECMG 3022/3024 26005KT", "TAF EBAW 300810Z 3009/3018 09007KT CAVOK", "TAF EBBR 300501Z 3006/0112 08007KT 9999 FEW045", "TAF EBCI 300501Z 3006/0112 08007KT 4000 BR FEW045 BECMG 3006/3007 9999 NSW", "TAF EBCV 300841Z 3010/3019 10008KT 9999 SCT040 SCT250 BY EBWM", "TAF EBFN 300841Z 3010/3019 11005KT 9999 SCT250 BECMG 3011/3013 08010KT 9999 FEW045 BKN050 BY EBWM", "TAF EBLG 300501Z 3006/0112 08007KT 4000 BR FEW045 BECMG 3006/3007 9999 NSW", "TAF EBOS 300501Z 3006/0112 10006KT 9999 FEW040 TEMPO 3013/3018 04010KT", "TAF EDAH 300800Z 3009/3018 29008KT 9999 SCT035 BECMG 3014/3016 35004KT", "TAF EDDB 300500Z 3006/0106 32005KT CAVOK BECMG 3014/3017 02004KT", "TAF EDDC 300500Z 3006/0106 30005KT 9999 FEW008 SCT030 PROB30 TEMPO 3006/3008 BKN010 BECMG 3011/3014 36005KT BECMG 3017/3020 08004KT", "TAF EDDE 300500Z 3006/0106 04006KT 9000 SCT015 PROB30 TEMPO 3006/3008 4000 BR BECMG 3019/3021 10004KT", "TAF EDDF 300500Z 3006/0112 03010KT CAVOK BECMG 3023/0102 04005KT BECMG 0108/0111 16005KT", "TAF EDDG 300500Z 3006/0106 VRB02KT CAVOK PROB30 TEMPO 3006/3008 4000 BR BECMG 3007/3009 06005KT BECMG 3022/3024 VRB03KT", "TAF EDDH 300500Z 3006/0112 31005KT 9999 FEW030 BECMG 3016/3018 VRB03KT BECMG 0102/0104 14005KT", "TAF EDDK 300500Z 3006/0112 06007KT 4000 BR NSC TEMPO 3006/3008 1400 BR BECMG 3007/3009 CAVOK BECMG 0101/0103 14004KT BECMG 0110/0112 30008KT", "TAF EDDL 300500Z 3006/0112 02004KT CAVOK PROB30 TEMPO 3006/3008 4500 BR BECMG 3009/3012 05009KT BECMG 3022/3024 10004KT BECMG 0107/0110 24005KT BECMG 0110/0112 30008KT", "TAF EDDM 300500Z 3006/0112 02003KT 9999 SCT030 BECMG 3007/3009 07012KT BECMG 3016/3018 07005KT BECMG 0107/0109 24005KT PROB30 TEMPO 0110/0112 SHRA BKN020TCU", "TAF EDDN 300500Z 3006/0106 VRB02KT 9999 SCT030 BECMG 3006/3008 07007KT", "TAF EDDP 300500Z 3006/0106 33005KT 9999 FEW012 PROB30 TEMPO 3006/3008 BKN012 BECMG 3013/3016 03004KT", "TAF EDDR 300500Z 3006/0106 05011KT CAVOK BECMG 3018/3020 05006KT", "TAF EDDS 300500Z 3006/0106 04005KT CAVOK BECMG 3007/3009 06010KT BECMG 3018/3021 05004KT", "TAF EDDV 300500Z 3006/0106 VRB03KT CAVOK BECMG 3007/3009 05005KT BECMG 3017/3019 VRB03KT BECMG 0102/0104 13005KT", "TAF EDDW 300500Z 3006/0106 VRB03KT 9999 FEW030 BECMG 3012/3014 02005KT BECMG 3017/3019 08003KT BECMG 0101/0103 14005KT", "TAF EDFH 300500Z 3006/0106 05007KT 9999 BKN045 PROB30 TEMPO 3006/3007 3000 BR", "TAF EDGS 300800Z 3009/3018 08009KT CAVOK", "TAF EDHK 300800Z 3009/3018 31007KT 9999 SCT035", "TAF EDHL 300800Z 3009/3018 31004KT 9999 FEW035", "TAF EDJA 300800Z 3009/3018 06013KT 9999 SCT015", "TAF EDLN 300800Z 3009/3018 05007KT CAVOK", "TAF EDLP 300500Z 3006/0106 VRB03KT 9999 OVC014 BECMG 3006/3008 CAVOK BECMG 3008/3011 06008KT BECMG 3021/3023 14006KT", "TAF EDLV 300500Z 3006/0106 VRB03KT 7000 NSC BECMG 3007/3010 05006KT BECMG 3018/3021 VRB03KT", "TAF EDLW 300500Z 3006/0106 11005KT 8000 NSC BECMG 3006/3009 05008KT BECMG 3020/3023 12004KT", "TAF EDMA 300800Z 3009/3018 07010KT 9999 SCT025", "TAF EDNY 300500Z 3006/0106 04008KT 9999 FEW025 BECMG 3007/3009 04013KT PROB30 TEMPO 3012/3016 04015G25KT BECMG 3018/3020 02005KT BECMG 0100/0103 VRB03KT PROB30 TEMPO 0100/0106 4000 RA BKN014", "TAF EDQM 300800Z 3009/3018 03008KT 9999 BKN011 BECMG 3009/3011 CAVOK", "TAF EDSB 300500Z 3006/0106 03012KT CAVOK BECMG 3018/3021 03007KT BECMG 0103/0106 VRB03KT", "TAF EDTL 300800Z 3009/3018 02010KT CAVOK", "TAF EDTY 300800Z 3009/3018 06010KT 9999 FEW025", "TAF EDVE 300800Z 3009/3018 03004KT 9999 FEW035", "TAF EDVK 300800Z 3009/3018 VRB02KT 9999 FEW020 BECMG 3009/3011 03006KT", "TAF EDWE 300800Z 3009/3018 09004KT 9999 FEW035", "TAF EDXW 300800Z 3009/3018 29008KT 9999 FEW035", "TAF EEEI 300530Z 3006/0106 25014KT 9999 SCT014 BKN025 PROB40 TEMPO 3006/3015 26015G25KT TEMPO 3008/3016 6000 SHRA BKN014 FEW030TCU PROB40 TEMPO 3012/3015 BKN008 BECMG 3017/3019 FEW013", "TAF EETN 300530Z 3006/0106 26012KT 9999 SCT008 BKN015 TEMPO 3006/3017 3000 SHRASN BKN005 SCT015CB TEMPO 3008/3017 27018G30KT BECMG 3017/3019 SCT015", "TAF AMD EFHK 300923Z 3009/0109 22010KT 9999 BKN025 TEMPO 3009/3018 BKN013 FEW020TCU BECMG 3009/3012 24015G25KT BECMG 3012/3015 27010KT", "TAF AMD EFJY 300923Z 3009/0109 17007KT 9999 -RA BKN013 TEMPO 3009/3011 23010KT BKN008 SCT020CB TEMPO 3011/3018 6000 SHRA BKN015 BKN030CB BECMG 3018/3020 BKN040", "TAF EFKE 300837Z 3009/3018 13006KT 9999 BKN006 TEMPO 3014/3018 3000 -RASN OVC003", "TAF EFKU 300833Z 3009/0109 17010KT 9999 -RA OVC008 TEMPO 3009/3011 5000 RA BKN004 TEMPO 3011/3017 6000 SHRA BKN012 BKN025TCU BECMG 3017/3019 BKN015", "TAF COR EFMA 300840Z 3009/3018 30012KT 9999 -RA OVC006 BECMG 3009/3011 SCT020 TEMPO 3009/3012 30015G25KT", "TAF EFOU 300837Z 3009/0109 10010KT 9999 -RA SCT006 BKN020 TEMPO 3009/3017 3000 -RASN BKN005 BECMG 3017/3019 25006KT BKN004 TEMPO 3019/0104 0800 FG -SN BECMG 0104/0106 SCT015", "TAF EFRO 300837Z 3009/0109 18008KT 9999 BKN008 TEMPO 3009/3019 BKN004 BECMG 3016/3018 4000 -RASN BECMG 3019/3021 2000 -SN BKN002 TEMPO 3021/0106 4000 BKN005", "TAF EFSI 300823Z 3009/3018 34009KT 9999 -RASN BKN003 TEMPO 3009/3012 4000 SNRA BKN005 BECMG 3012/3014 BKN015", "TAF AMD EFTP 300923Z 3009/0109 21008KT 9999 SCT013 BKN040 TEMPO 3009/3013 6000 SHRA BKN013 SCT035CB PROB40 TEMPO 3009/3011 BKN008 BECMG 3013/3015 28010KT BECMG 3019/3021 22006KT", "TAF EFTU 300829Z 3009/0109 24010KT 9999 BKN010 TEMPO 3009/3012 7000 -DZ BKN008 BECMG 3012/3015 30010KT BKN015 BECMG 3018/3021 24007KT", "TAF EFVA 300823Z 3009/0109 34010KT 9999 -RA OVC004 TEMPO 3009/3011 4000 BKN005 BECMG 3011/3013 SCT020 BECMG 3015/3017 27010KT", "TAF AMD EGAA 300858Z 3009/0106 22007KT 9999 BKN004 BECMG 3009/3012 SCT030 PROB30 TEMPO 3009/3011 7000 TEMPO 3011/3022 7000 SHRA PROB40 TEMPO 3011/3021 3000 +SHRA +TSRAGR BECMG 3012/3015 30010KT BECMG 3018/3021 VRB05KT BECMG 3022/0101 BKN008 BECMG 0100/0103 32010KT TEMPO 0101/0106 8000 -RADZ PROB30 TEMPO 0101/0103 4000 RADZ BKN004 BECMG 0103/0106 BKN012", "TAF EGAC 300758Z 3009/3018 22006KT 9999 FEW005 BKN014 BECMG 3009/3012 SCT030 PROB40 TEMPO 3009/3011 3000 RADZ BR BKN004 TEMPO 3011/3018 3000 +SHRA +TSRAGR", "TAF EGAE 300934Z 3009/3018 25009KT 9999 SCT025 TEMPO 3009/3018 7000 SHRA PROB30 TEMPO 3009/3012 BKN008 PROB40 TEMPO 3010/3018 3000 +SHRA +TSRAGR", "TAF EGBB 300454Z 3006/0106 18006KT 9999 SCT030 PROB30 TEMPO 3006/3008 8000 TEMPO 3008/3018 7000 SHRA TEMPO 3012/3018 BKN014 PROB30 TEMPO 3018/3021 4000 +SHRA BKN014 PROB30 TEMPO 0103/0106 6000 SHRA BKN009", "TAF EGBJ 300805Z 3009/3018 18006KT 9999 SCT035 PROB40 TEMPO 3009/3015 6000 RADZ BKN014 TEMPO 3015/3018 6000 SHRA BKN014 PROB30 TEMPO 3015/3018 3000 +SHRA BKN009", "TAF EGCC 300458Z 3006/0112 18004KT 9999 SCT030 PROB30 TEMPO 3006/3007 9000 -SHRA BKN014 TEMPO 3007/3022 6000 SHRA BKN014 PROB30 TEMPO 3009/3019 3000 +SHRA BKN009 BKN014CB PROB40 TEMPO 0102/0112 9000 -SHRA BECMG 0103/0106 BKN004 BECMG 0109/0112 SCT020", "TAF EGCK 300757Z 3009/3018 18012KT 9999 SCT020 TEMPO 3009/3018 6000 RADZ BKN004 PROB40 TEMPO 3009/3012 0300 +RADZ FG BKN001", "TAF EGEO 300953Z 3009/3015 VRB03KT 9999 SCT012 BKN020 TEMPO 3009/3015 7000 -RA BKN012 PROB30 TEMPO 3009/3014 4000 RADZ BKN009", "TAF AMD EGFF 301002Z 3010/0106 15005KT 9999 SCT025 TEMPO 3010/3016 6000 RA SHRA BKN004 PROB30 TEMPO 3010/3016 0300 DZ FG BKN001 BECMG 3016/3019 26010KT BKN004 PROB40 TEMPO 3016/3022 0600 FG OVC001 TEMPO 3022/0106 2000 BR", "TAF AMD EGGD 300836Z 3008/0106 17009KT 9999 SCT020 TEMPO 3008/3013 4000 RA SHRA BKN009 PROB30 TEMPO 3008/3009 1400 +RA BKN004 TEMPO 3013/3021 6000 SHRA BKN009 PROB30 TEMPO 3013/3020 4000 +SHRAGS BECMG 3018/3021 26010KT BKN003 PROB40 3020/0106 0300 FG OVC001", "TAF EGGP 300458Z 3006/0106 14005KT 9999 SCT030 PROB30 TEMPO 3006/3007 9000 -SHRA BKN014 TEMPO 3007/3022 6000 SHRA PROB30 TEMPO 3009/3019 3000 +SHRA BKN010 BKN020CB BECMG 0100/0103 28010KT BKN006", "TAF AMD EGGW 300906Z 3009/0106 17005KT 8000 FEW040 BECMG 3009/3011 9999 NSW PROB40 TEMPO 3016/0101 7000 RA SHRA BECMG 0101/0104 26010KT 6000 BKN004", "TAF AMD EGHH 300930Z 3009/3018 12008KT 9999 SCT020 PROB40 TEMPO 3009/3018 6000 SHRA", "TAF AMD EGHI 300930Z 3009/3018 12005KT 9999 SCT035 PROB40 TEMPO 3010/3018 6000 SHRA", "TAF AMD EGHQ 300900Z 3009/3018 21006KT 9999 BKN005 BECMG 3009/3012 27010KT TEMPO 3009/3012 4000 BR BKN002 PROB40 TEMPO 3009/3012 0300 FG DZ BKN001 BECMG 3012/3015 BKN020 PROB40 TEMPO 3015/3018 BKN004", "TAF EGJA 300803Z 3009/3018 VRB03KT 9999 SCT030 PROB40 TEMPO 3009/3010 7000 RA BKN008 PROB30 TEMPO 3009/3015 4000 BR BKN003 PROB30 TEMPO 3015/3018 0600 FG BKN001", "TAF EGJB 300803Z 3009/3018 VRB03KT 9999 SCT030 PROB30 TEMPO 3009/3015 4000 BR BKN003 PROB30 TEMPO 3015/3018 0600 FG BKN001", "TAF EGJJ 300803Z 3009/3018 VRB03KT 9999 SCT030 PROB40 TEMPO 3009/3010 7000 RA BKN008 PROB30 TEMPO 3009/3017 4000 BR BKN003 PROB30 TEMPO 3017/3018 0600 FG BKN001", "TAF AMD EGKA 300955Z 3009/3018 14005KT 6000 FEW045 BECMG 3009/3012 9999 PROB30 TEMPO 3017/3018 7000 SHRA", "TAF EGKB 300802Z 3009/3018 17007KT 9999 FEW045 PROB30 TEMPO 3009/3010 9000", "TAF AMD EGKK 300905Z 3009/0112 12005KT 7000 FEW040 BECMG 3009/3011 9999 BECMG 3015/3018 23010KT PROB40 TEMPO 3019/0101 7000 SHRA BECMG 0100/0103 BKN010 BECMG 0101/0104 29007KT TEMPO 0102/0107 7000 BKN006 PROB30 0102/0107 4000 BR BKN003 BECMG 0107/0110 SCT020 TEMPO 0110/0112 7000 SHRA PROB30 TEMPO 0110/0112 4000 +SHRA", "TAF EGLC 300802Z 3009/3018 11005KT 9999 FEW040 BECMG 3009/3012 18010KT PROB30 TEMPO 3009/3010 9000", "TAF EGLF 300802Z 3009/3018 17007KT 9999 FEW040 PROB30 TEMPO 3009/3010 8000 PROB30 TEMPO 3016/3018 7000 RA SHRA", "TAF EGLL 300454Z 3006/0112 13004KT 7000 FEW045 BECMG 3006/3008 9999 BECMG 3009/3012 20010KT PROB30 TEMPO 3013/3023 8000 RA SHRA PROB40 TEMPO 3022/0109 BKN007 BECMG 3023/0102 29006KT TEMPO 0110/0112 7000 SHRA PROB30 TEMPO 0110/0112 3500 +SHRA", "TAF EGMC 300802Z 3009/3018 11005KT 9999 FEW045", "TAF AMD EGMD 300955Z 3009/3018 14005KT 9000 FEW045 PROB30 TEMPO 3009/3012 9999", "TAF EGNH 300757Z 3009/3018 18007KT 9999 SCT012 TEMPO 3009/3012 2000 RA BR BKN004 TEMPO 3012/3015 6000 RA BKN012 PROB30 TEMPO 3012/3015 2000 +SHRA BKN009 BKN014CB", "TAF EGNJ 300757Z 3009/3018 19010KT 9999 SCT040 TEMPO 3009/3010 8000 -SHRA PROB30 TEMPO 3017/3018 7000 SHRA", "TAF AMD EGNM 300710Z 3007/0106 14006KT 2000 BR SCT002 BECMG 3008/3011 20010KT 9999 NSW SCT030 TEMPO 3009/3024 6000 SHRA PROB30 TEMPO 3011/3019 3000 +SHRA BKN012 BKN020CB BECMG 3020/3023 30002KT PROB40 TEMPO 0100/0106 6000 RADZ BKN008", "TAF EGNR 300757Z 3009/3018 16007KT 9999 SCT030 TEMPO 3009/3018 6000 SHRA BKN014 PROB30 TEMPO 3009/3015 3000 +SHRA BKN009 BKN014CB", "TAF EGNS 300800Z 3009/3018 21012KT 3000 BR SCT002 OVC003 TEMPO 3009/3018 0300 FG BKN000 PROB30 TEMPO 3009/3012 5000 -RA SCT003 BKN005", "TAF AMD EGNT 300909Z 3009/0106 14006KT 9999 BKN006 BECMG 3009/3011 SCT020 TEMPO 3009/3011 3000 BR -RADZ BKN003 PROB40 TEMPO 3011/3019 6000 SHRA BKN012 BECMG 3013/3016 20010KT BECMG 3020/3023 26005KT PROB40 TEMPO 0100/0106 RADZ BKN008", "TAF EGNV 300757Z 3009/3018 18005KT 9999 SCT015 TEMPO 3009/3010 3000 BR BKN004 PROB40 TEMPO 3010/3018 6000 SHRA BKN012", "TAF EGNX 300454Z 3006/0106 19007KT 9999 SCT035 PROB30 TEMPO 3006/3008 8000 TEMPO 3012/3020 7000 SHRA TEMPO 3018/3024 BKN014 PROB30 TEMPO 0103/0106 6000 SHRA BKN009", "TAF EGPA 300754Z 3009/3018 15011KT 9999 SCT010 TEMPO 3009/3012 7000 -RA BKN008 PROB40 TEMPO 3009/3012 4000 RADZ BKN005 PROB40 TEMPO 3012/3018 BKN010", "TAF EGPB 300754Z 3009/3018 VRB03KT 9999 FEW015 SCT040 BECMG 3009/3012 12012KT BKN010 TEMPO 3009/3018 7000 -RA BKN007 PROB40 TEMPO 3009/3018 4000 RADZ BKN004", "TAF AMD EGPC 300907Z 3009/3018 16012KT 9999 SCT010 TEMPO 3009/3011 7000 -RA BKN008 BECMG 3015/3018 23003KT", "TAF EGPD 300454Z 3006/0106 15008KT 6000 -DZ BKN006 TEMPO 3006/3012 2000 DZRA BR BKN004 PROB30 TEMPO 3006/3011 0300 FG OVC001 BECMG 3013/3016 9999 NSW SCT030 BECMG 3015/3018 26010KT", "TAF EGPE 300754Z 3009/3018 VRB03KT 9999 SCT020 BKN030 PROB30 TEMPO 3009/3018 8000 -RA BKN014", "TAF EGPF 300454Z 3006/0106 07005KT 9999 BKN010 TEMPO 3006/3013 5000 RADZ BKN008 PROB30 TEMPO 3006/3012 3000 DZRA BR BKN004 BECMG 3010/3013 24010KT SCT030 TEMPO 3013/3018 5000 SHRA BKN012 PROB30 TEMPO 3014/3018 3000 +SHRA BKN009 BKN015CB TEMPO 0100/0106 BKN010 PROB30 TEMPO 0101/0106 8000 -RA", "TAF EGPH 300454Z 3006/0106 06005KT 9999 SCT010 BKN015 TEMPO 3006/3015 6000 -DZ BKN006 PROB40 TEMPO 3006/3014 2000 DZRA BR BKN003 BECMG 3011/3014 24010KT TEMPO 3015/3020 5000 SHRA BKN012 PROB30 TEMPO 3015/3020 3000 +SHRA BKN009 BKN015CB", "TAF AMD EGPI 301008Z 3010/3018 17012KT 9999 BKN012 BECMG 3010/3012 25007KT SCT020 TEMPO 3010/3012 7000 -RA BKN007 PROB40 TEMPO 3010/3012 3000 DZRA BR BKN001 TEMPO 3012/3018 5000 SHRA BKN012 PROB30 TEMPO 3012/3018 3000 +SHRA BKN009 BKN015CB", "TAF EGPK 300454Z 3006/0106 05007KT 9999 SCT012 BKN020 TEMPO 3006/3013 6000 RADZ BKN010 PROB40 TEMPO 3006/3012 2000 DZRA BR BKN005 BECMG 3010/3013 24010KT TEMPO 3013/3018 5000 SHRA BKN012 PROB40 TEMPO 3013/3018 3000 +SHRA -SHGS BKN007 BKN015CB TEMPO 0101/0106 BKN010 PROB40 TEMPO 0102/0106 8000 -RA", "TAF EGPN 300756Z 3009/3018 09004KT 9999 SCT010 TEMPO 3009/3018 5000 -RADZ BR BKN005 PROB30 TEMPO 3009/3016 2000 DZRA BKN003", "TAF EGPO 300754Z 3009/3018 18009KT 9999 SCT010 BKN015 TEMPO 3009/3018 6000 -RA BKN008 PROB40 TEMPO 3009/3018 3000 RADZ BKN004", "TAF EGPU 300756Z 3009/3018 15013KT 9999 SCT010 BKN015 TEMPO 3009/3018 7000 -RA BKN007 PROB40 TEMPO 3009/3018 3000 DZRA BR BKN004 BECMG 3012/3015 26010KT", "TAF EGQL 300726Z 3009/3018 13006KT 9999 BKN014 TEMPO 3009/3016 3000 -DZ BR BKN005 PROB40 TEMPO 3009/3014 2000 RADZ BKN004 BECMG 3015/3018 FEW014 SCT025", "TAF EGQS 300724Z 3009/0103 13006KT 9999 BKN030 PROB40 TEMPO 3009/3020 7000 RA SCT024 PROB30 TEMPO 3013/3017 4000 RADZ SCT007 BKN024 PROB30 TEMPO 3020/0103 SCT014", "TAF EGSH 300752Z 3009/3018 18007KT 9999 FEW040", "TAF AMD EGSS 300906Z 3009/0112 16005KT 8000 FEW040 BECMG 3009/3011 9999 NSW PROB40 TEMPO 3017/0102 7000 RA SHRA BECMG 0102/0105 27010KT 6000 BKN004 BECMG 0106/0109 9999 SCT020 TEMPO 0110/0112 7000 SHRA PROB30 TEMPO 0110/0112 3000 +SHRAGS BKN014 BKN020CB", "TAF AMD EGSY 300935Z 3009/3018 13006KT 9999 BKN006 TEMPO 3009/3015 2000 RADZ BR BKN002 PROB30 TEMPO 3009/3014 1200 +RADZ BKN001 TEMPO 3015/3018 BKN004 PROB40 TEMPO 3015/3018 6000 RA", "TAF EGTC 300801Z 3009/3018 19008KT 9999 FEW045 PROB30 TEMPO 3009/3010 9000 PROB30 TEMPO 3016/3017 7000 RA SHRA", "TAF EGTE 300804Z 3009/3018 15006KT 6000 BKN015 TEMPO 3009/3013 BKN008 PROB30 TEMPO 3009/3013 3000 DZ BKN004 BECMG 3010/3013 9999 TEMPO 3013/3018 6000 SHRA BKN010 PROB30 TEMPO 3013/3018 3000 +SHRA BKN007", "TAF AMD EGTK 300955Z 3009/3018 19007KT 9999 FEW045 PROB30 TEMPO 3009/3012 9000 PROB30 TEMPO 3016/3018 7000 RA SHRA", "TAF EGUN 300400Z 3004/0110 VRB03KT 6000 BR FEW003 FEW080 SCT300 QNH3016INS TEMPO 3004/3007 4000 BR SCT003 BECMG 3007/3008 18012KT 9999 NSW FEW012 SCT100 BKN180 QNH3016INS BECMG 3009/3010 18012G18KT 9999 SCT025 SCT100 BKN180 QNH3005INS BECMG 3017/3018 16010KT 9999 SCT030 BKN050 BKN160 620557 QNH2995INS BECMG 0102/0104 22008KT 8000 -RA BR SCT007 BKN015 OVC030 620606 QNH2995INS BECMG 0106/0107 27013KT 6000 BR BKN008 OVC015 QNH2997INS BECMG 0108/0109 28013KT 9999 VCSH SCT008 BKN015 QNH2996INS TEMPO 0109/0110 8000 -SHRA BR TX18/3014Z TN05/3006Z LAST NO AMDS AFT 3004 NEXT 3012", "TAF AMD EGVA 291600Z 2916/3019 VRB06KT 9999 VCSH FEW025 BKN050 QNH3012INS BECMG 3003/3004 16006KT 8000 BR SCT020 OVC035 QNH3013INS BECMG 3004/3005 16006KT 5000 BR BKN002 OVC030 QNH3013INS BECMG 3010/3011 17012KT 9999 NSW BKN016 OVC023 QNH3012INS BECMG 3017/3018 VRB06KT 8000 -SHRA SCT023 OVC035 QNH3008INS TX17/2916Z TN08/3002Z LAST NO AMDS AFT 2916 NEXT 0104", "TAF EGVN 300725Z 3009/0109 18006KT 9999 FEW020 PROB30 TEMPO 3016/3020 7000 SHRA BKN022 TEMPO 3020/0109 BKN010 PROB30 TEMPO 3021/0106 7000 -DZ BKN005", "TAF EGWC 300733Z 3009/3018 18010KT 9999 FEW008 BKN045 TEMPO 3009/3018 BKN008 PROB30 TEMPO 3009/3014 7000 RA BECMG 3011/3013 BKN016 PROB40 TEMPO 3014/3018 7000 SHRA", "TAF EGWU 300740Z 3009/0103 16006KT CAVOK BECMG 3021/3024 BKN010 PROB30 TEMPO 3021/0102 6000 -RA", "TAF EGXC 300738Z 3009/0103 18010KT 9999 FEW025 PROB30 TEMPO 3018/3021 7000 SHRA TEMPO 3021/0102 4000 RA BKN008 PROB30 TEMPO 0100/0103 SCT005", "TAF EGYP 300717Z 3009/0103 21025G35KT 9999 FEW015 SCT025 BECMG 3009/3012 23015G25KT PROB40 TEMPO 3009/3012 5000 -SHRASN BKN015 PROB30 TEMPO 3009/3012 2000 SHSN BKN012CB PROB40 TEMPO 3012/3014 4000 -SHSN BKN018CB PROB30 TEMPO 3014/3019 5000 -SHSN BKN022 BECMG 3015/3018 23015KT BECMG 3020/3023 30007KT", "TAF EHAM 300419Z 3006/0112 11005KT CAVOK BECMG 0106/0109 30007KT", "TAF EHBK 300436Z 3006/0112 06007KT CAVOK", "TAF EHEH 300509Z 3006/0112 08005KT CAVOK", "TAF EHGG 300437Z 3006/0112 09004KT 9999 FEW030 BECMG 0108/0112 30006KT", "TAF EHKD 300810Z 3009/3021 11008KT CAVOK TEMPO 3009/3010 BKN013", "TAF EHLE 300418Z 3006/0112 11005KT CAVOK BECMG 0106/0109 33005KT", "TAF COR EHLW 300805Z 3009/3021 12006KT 9999 BKN025", "TAF EHRD 300418Z 3006/0112 12005KT CAVOK BECMG 0106/0109 30005KT", "TAF EHVK 300801Z 3009/3021 09007KT CAVOK", "TAF EICK 300500Z 3006/0106 20005KT 0200 FG BKN001 TEMPO 3006/3008 1200 BR BKN002 BECMG 3008/3010 27010KT 9999 NSW SCT020 BECMG 3015/3017 30010KT", "TAF EIDL 300800Z 3009/3018 24014KT 9999 SCT010 BKN020 PROB40 TEMPO 3009/3014 4000 -SHRA BKN010 SCT018CB", "TAF EIDW 300500Z 3006/0106 VRB03KT 9999 FEW007 BKN025 TEMPO 3006/3007 3000 -SHRA BR BKN007 FEW018CB BECMG 3007/3009 26010KT TEMPO 3010/3024 -SHRA FEW018CB PROB30 TEMPO 3015/3020 28015G25KT 3000 SHRA BKN012 SCT018CB BECMG 0102/0104 31010KT", "TAF EIKN 300500Z 3006/0106 21008KT 8000 SCT003 BKN005 TEMPO 3006/3008 2000 -RA BR BKN002 BECMG 3007/3009 25010KT 9999 NSW SCT010 BKN020 TEMPO 3008/3022 -SHRA FEW017CB PROB40 TEMPO 3014/3019 3000 SHRA BKN010 SCT016CB BECMG 3017/3019 29010KT TEMPO 0100/0106 3000 -DZ BR BKN004", "TAF EIKY 300800Z 3009/3018 27010KT 9999 SCT010 BKN020 TEMPO 3009/3016 -SHRA FEW018CB", "TAF EIME 300800Z 3009/3018 23010KT 9999 FEW010 BKN030 TEMPO 3012/3018 -SHRA FEW018CB PROB30 TEMPO 3012/3018 4000 +SHRA BKN012 SCT018CB BECMG 3013/3015 26012KT", "TAF EINN 300500Z 3006/0106 16005KT 9999 SCT012 BKN020 BECMG 3007/3009 26010KT PROB40 TEMPO 3007/3017 4000 -SHRA BKN012 FEW018CB BECMG 3017/3019 29010KT", "TAF EISG 300800Z 3009/3018 25008KT 9999 FEW020 SCT040 PROB40 TEMPO 3009/3016 4000 -SHRA BKN012 FEW018CB BECMG 3011/3013 29010KT", "TAF AMD EIWF 300800Z 3007/3015 25007KT 8000 SCT004 BKN006 TEMPO 3007/3010 0800 FG BKN002 BECMG 3010/3012 FEW007 SCT016", "TAF EKAH 300500Z 3006/0106 29012KT 9999 FEW035 BECMG 3018/3021 19005KT", "TAF EKBI 300500Z 3006/0106 28008KT 9999 FEW035", "TAF EKCH 300500Z 3006/0106 30012KT 9999 FEW040 BECMG 3017/3020 19005KT", "TAF EKEB 300811Z 3009/3018 29007KT 9999 SCT030", "TAF EKGC 300811Z 3009/3018 17015KT 9999 OVC030", "TAF EKHD 300811Z 3009/3018 18015KT 9999 OVC030", "TAF EKKA 300805Z 3009/0109 29010KT 9999 SCT030 BECMG 3021/3024 19006KT", "TAF EKOD 300900Z 3009/3015 29012KT 9999 SCT030", "TAF EKRK 300811Z 3009/3018 28012KT 9999 SCT030", "TAF EKRN 300805Z 3009/3018 29016KT 9999 FEW200 TEMPO 3009/3018 30012G22KT", "TAF EKSP 300805Z 3009/0109 28009KT 9999 SCT030 BECMG 3021/3024 18004KT", "TAF EKVD 300900Z 3009/3015 28010KT 9999 BKN030", "TAF EKVG 300821Z 3009/3018 04005KT 9999 SCT030", "TAF EKYT 300805Z 3009/0109 29015KT 9999 FEW020 TEMPO 3009/3016 30015G25KT BECMG 3021/3024 19008KT TEMPO 3022/0103 7000 -RA", "TAF ELLX 300500Z 3006/0112 04008KT 9999 BKN045 BECMG 0100/0103 SCT020 BKN030 TEMPO 0109/0112 6000 -SHRA SCT030CB BKN035", "TAF ENAL 300800Z 3009/3018 25015KT 9999 -SHRA SCT018TCU BKN025 TEMPO 3009/3018 26018G28KT 3000 SHSNRAGS VV007 TEMPO 3009/3018 SCT018CB", "TAF ENAN 300500Z 3006/0106 24015KT 9999 -RADZ BKN015 TEMPO 3006/3009 0800 SHSNRA VV005 TEMPO 3006/3010 24020G30KT SCT008 BKN012CB BECMG 3010/3012 18018KT", "TAF ENAT 300800Z 3009/3018 15012KT 9999 SCT030 BKN070", "TAF ENBN 300800Z 3009/3018 19009KT 9999 FEW020 SCT040 PROB40 TEMPO 3009/3018 SHRA SCT040CB", "TAF ENBO 300500Z 3006/0106 21009KT 9999 -SHRA FEW015 SCT050 TEMPO 3006/3106 FEW035CB TEMPO 3006/3016 27018KT TEMPO 3006/3010 4000 SHRASN BKN014 TEMPO 3015/3106 2500 SHSNRA VV008", "TAF ENBR 300500Z 3006/0106 28005KT 9999 FEW015TCU BKN030 TEMPO 3006/3008 4000 SHRASNGS SCT020CB BECMG 3017/3019 BKN012 TEMPO 3020/0106 4000 RA BR OVC004", "TAF ENCN 300800Z 3009/3018 28008KT CAVOK", "TAF ENDU 300500Z 3006/0106 22005KT 9999 FEW005 SCT020 BKN040 TEMPO 3006/3010 1200 SN VV008 PROB30 TEMPO 3009/3015 21015G25KT", "TAF ENEV 300500Z 3006/0106 22008KT 9999 FEW005 BKN030 TEMPO 3006/3009 3000 SHRASN VV008 TEMPO 3006/3012 SCT030CB TEMPO 3006/3014 22015G25KT", "TAF ENFL 300800Z 3009/3018 28015KT 9999 -SHRA FEW015TCU BKN025 PROB40 TEMPO 3009/3012 4000 SHSNRA VV012 TEMPO 3015/3018 24005KT", "TAF ENGC 300800Z 3009/0109 29018KT 9999 BKN035 BECMG 3015/3017 VRB07KT TEMPO 3017/0103 3000 RADZ BR OVC004 BECMG 3023/0101 02015KT BECMG 0105/0107 02025KT", "TAF ENGM 300500Z 3006/0106 33008KT CAVOK BECMG 0101/0103 3000 -SNRA BKN010 TEMPO 0103/0106 1200 SN VV006", "TAF ENHD 300800Z 3009/3018 30008KT 9999 FEW030 BKN050 PROB30 TEMPO 3015/3018 -RADZ BKN014", "TAF ENHE 300800Z 3009/3018 30012KT 9999 FEW015TCU BKN030 TEMPO 3009/3018 34025KT 3000 SHSNRA BKN012 SCT020CB", "TAF ENHF 300800Z 3010/3018 12018KT 9999 SCT050 BKN070 BECMG 3014/3016 16008KT", "TAF ENKB 300800Z 3009/3018 25020KT 9999 -SHRASN FEW015TCU BKN020 TEMPO 3009/3018 25022G32KT 2000 SHSNRAGS VV009 TEMPO 3009/3018 SCT015CB", "TAF ENKR 300800Z 3009/3018 15015KT 9999 SCT050 BECMG 3017/3018 15005KT", "TAF ENLE 300800Z 3009/3018 17015KT 9999 SCT025 BKN040 PROB30 TEMPO 3013/3015 BKN008 BECMG 3015/3017 17025KT TEMPO 3015/3018 4000 SHRAGS BKN005 SCT020CB", "TAF AMD ENML 300947Z 3009/3018 25012KT 9999 -SHRA SCT010 BKN025 TEMPO 3009/3018 26020G30KT 3000 SHRASNGS BKN012 SCT020CB", "TAF ENNA 300500Z 3006/0106 18017KT 9999 FEW010 BKN030 BECMG 3015/3018 VRB05KT TEMPO 0100/0106 3000 -SNRA VV008", "TAF ENNE 300800Z 3009/3017 26015KT 9999 FEW025TCU SCT040 TEMPO 3009/3017 4000 SHRASN BKN014 SCT020CB BECMG 3012/3015 28025KT", "TAF ENOA 300800Z 3009/0109 30015KT 9999 BKN040 BECMG 3013/3015 24015KT TEMPO 3015/0104 3000 RADZ BR OVC004 BECMG 3016/3019 16009KT BECMG 3020/3022 10015KT BECMG 0102/0104 02025KT", "TAF ENOL 300500Z 3006/0106 25025KT 9999 FEW012CB SCT040 TEMPO 3006/3014 25028G38KT 2000 SHRASNGS VV008 PROB30 TEMPO 3006/3012 TS TEMPO 3014/3106 SHRA BKN012CB BECMG 3022/3024 24015KT", "TAF ENOV 300800Z 3009/3018 24008KT 9999 -SHSNRA FEW012 BKN020 TEMPO 3009/3018 3000 SHSN VV010 TEMPO 3009/3015 BKN015CB TEMPO 3015/3018 SCT015TCU", "TAF ENRA 300800Z 3009/3018 VRB03KT 9999 FEW030 SCT040 TEMPO 3014/3018 SHRA BKN014CB", "TAF ENRO 300800Z 3009/3018 26008KT 9999 FEW030 BKN080 TEMPO 3010/3015 29015G25KT FEW030CB BKN050", "TAF ENRY 300500Z 3006/0106 28010KT CAVOK BECMG 0101/0103 20010KT BKN012 TEMPO 0101/0106 2000 SNRA VV006", "TAF AMD ENSB 300957Z 3009/0106 04016KT 9999 FEW010 BKN020 TEMPO 3009/3016 04020G30KT DRSN", "TAF ENSD 300800Z 3009/3018 32005KT 9999 -SHRA FEW012 BKN030 TEMPO 3009/3012 3000 SHRASNGS BKN010 TEMPO 3009/3015 FEW020CB", "TAF ENSH 300800Z 3009/3012 22015KT 9999 SCT050 TEMPO 3009/3012 FEW020CB", "TAF ENSR 300800Z 3009/3018 13009KT 9999 FEW075 TEMPO 3010/3014 3000 SHRASN VV008", "TAF ENTC 300500Z 3006/0106 20008KT 9999 FEW025 SCT060 TEMPO 3006/3012 2000 SHRASN BKN008CB TEMPO 3007/3015 20020KT", "TAF ENTO 300500Z 3006/0106 28010KT CAVOK BECMG 0100/0102 20010KT BKN012 TEMPO 0101/0106 2000 SNRA VV006", "TAF ENVA 300500Z 3006/0106 23018KT 9999 -SHRASN FEW012CB BKN030 TEMPO 3006/3022 2000 SHSNRAGS VV010 PROB30 TEMPO 3006/3012 TS BECMG 3016/3019 24008KT", "TAF ENVD 300800Z 3009/3014 14009KT 9999 FEW020 BKN025", "TAF ENZV 300500Z 3006/0106 30010KT 9999 FEW020 BKN040 BECMG 3012/3014 24005KT TEMPO 3019/3024 4000 RA BR BKN014 BECMG 0100/0102 4000 RA BR BKN006", "TAF EPBY 300530Z 3006/0106 32008KT CAVOK BECMG 3019/3021 VRB02KT PROB40 TEMPO 3022/0106 0700 FG", "TAF AMD EPCE 300553Z 3006/3018 28010KT 9999 BKN013 BECMG 3006/3008 CAVOK TEMPO 3008/3016 28015G25KT", "TAF EPDA 300500Z 3006/3018 28012KT CAVOK TEMPO 3009/3015 28015G26KT", "TAF EPDE 300500Z 3006/3018 32006KT 9999 BKN040 BKN100 PROB30 3006/3007 7000 -RA SCT007 BKN020 BKN070 BECMG 3007/3009 32014KT CAVOK", "TAF EPGD 300530Z 3006/0106 29012KT CAVOK TEMPO 3009/3015 29015G27KT", "TAF EPKK 300830Z 3009/0109 32010KT 9999 SCT040 BECMG 3020/3023 VRB02KT BECMG 0106/0109 06010KT", "TAF EPKS 300500Z 3006/3018 31010KT CAVOK", "TAF EPKT 300530Z 3006/0106 34010KT CAVOK BECMG 3022/3024 08007KT", "TAF EPLB 300530Z 3006/0106 VRB03KT CAVOK TEMPO 3006/3010 4000 -SHRA BKN008 BKN014CB BECMG 3006/3009 33012KT PROB40 TEMPO 3010/3015 32015G25KT BECMG 0103/0106 VRB02KT", "TAF EPLK 300500Z 3006/3018 31015KT CAVOK TEMPO 3008/3016 31015G25KT", "TAF EPLL 300530Z 3006/0106 30010KT CAVOK BECMG 0103/0106 10005KT", "TAF EPMB 300500Z 3006/3018 28008KT CAVOK", "TAF EPMM 300500Z 3006/3018 32010KT CAVOK TEMPO 3006/3009 SCT014 BKN033", "TAF EPMO 300530Z 3006/0106 32010KT CAVOK TEMPO 3006/3016 34015G28KT BECMG 3021/3024 VRB02KT BECMG 0103/0106 15010KT", "TAF EPOK 300500Z 3006/3018 30015KT CAVOK PROB30 3006/3012 30015G25KT", "TAF EPPO 300530Z 3006/0106 31010KT CAVOK BECMG 3021/3024 08004KT", "TAF EPPW 300500Z 3006/3018 32012KT CAVOK", "TAF EPRA 300830Z 3009/3018 33010KT 9999 SCT040 PROB30 TEMPO 3010/3015 34015G25KT", "TAF EPRZ 300530Z 3006/0106 31010KT 9999 BKN012 TEMPO 3006/3012 4000 SHRA BKN006 BKN012CB BECMG 3012/3015 SCT025 BECMG 0103/0106 10008KT", "TAF EPSC 300530Z 3006/0106 28010KT 9999 SCT030 BECMG 3015/3017 VRB02KT", "TAF EPSN 300500Z 3006/3018 31010KT 9999 SCT033", "TAF EPSY 300830Z 3009/3018 32010KT CAVOK PROB30 TEMPO 3009/3016 33015G25KT", "TAF EPWA 300830Z 3009/0109 32010KT 9999 FEW040 BECMG 3020/3023 VRB02KT", "TAF EPWR 300830Z 3009/0109 32007KT 9999 SCT025 BECMG 3010/3013 02010KT BECMG 3019/3022 VRB02KT BECMG 0103/0106 07010KT", "TAF EPZG 300830Z 3009/3018 30010KT CAVOK", "TAF ESDF 300830Z 3009/3018 30012G22KT CAVOK", "TAF ESGG 300830Z 3009/0109 30010KT CAVOK BECMG 3009/3011 27015G25KT BECMG 3020/3022 24007KT BECMG 0102/0104 RA BKN008 BECMG 0104/0106 18010KT -RA SCT012 BKN030 TEMPO 0106/0109 RADZ BKN012", "TAF ESGP 300830Z 3009/3018 30014KT CAVOK BECMG 3009/3011 27015G25KT", "TAF ESIA 300830Z 3009/3018 28008KT CAVOK BECMG 3009/3010 30012G22KT", "TAF ESKN 300830Z 3009/0109 29015G25KT CAVOK BECMG 3017/3019 23005KT BECMG 0107/0109 RA BKN012", "TAF ESMK 300924Z 3010/3018 30015KT 9999 SCT040", "TAF ESMS 300810Z 3009/0109 29015KT 9999 FEW030 BECMG 3018/3021 18005KT", "TAF ESMT 300810Z 3009/3018 30012KT 9999 SCT035", "TAF ESMX 300830Z 3009/3018 29015G25KT CAVOK", "TAF ESNN 300830Z 3009/3014 29014KT CAVOK", "TAF ESNS 300830Z 3009/3017 02005KT CAVOK PROB40 3013/3017 BKN005", "TAF ESNU 300830Z 3009/3018 35004KT CAVOK BECMG 3013/3015 17010KT", "TAF ESNZ 300830Z 3009/3018 25008KT 9999 SCT030 BECMG 3009/3012 28015G25KT PROB40 3009/3018 4000 SHSNRA BKN012 BKN030CB", "TAF ESOE 300830Z 3009/3018 28010KT CAVOK TEMPO 3010/3015 27015G25KT", "TAF ESPA 300830Z 3009/3018 13004KT CAVOK TEMPO 3012/3018 4000 -RASN BKN008", "TAF ESSA 300830Z 3009/0109 28013KT 9999 SCT020 PROB40 3010/3015 SHRAGS SCT030CB", "TAF ESSB 300830Z 3009/3018 28014KT 9999 SCT020 PROB40 3010/3015 SCT030TCU", "TAF ESSP 300830Z 3009/3015 28018KT CAVOK", "TAF ESSV 300830Z 3009/3018 27017KT CAVOK", "TAF ESTA 300924Z 3010/3018 30015KT 9999 SCT035 BECMG 3016/3018 26005KT", "TAF ETAD 300500Z 3005/0111 07009KT 9999 SCT025 BKN050 QNH3012INS BECMG 3006/3007 09012G18KT 9999 FEW025 SCT050 QNH3003INS BECMG 3018/3019 07009KT 9999 BKN050 QNH2992INS TX17/3014Z TN07/0105Z", "TAF ETAR 301000Z 3010/0116 08010G20KT 9999 BKN055 510005 QNH3013INS BECMG 3016/3017 08006KT 9999 BKN055 QNH3005INS BECMG 3021/3022 VRB06KT 9999 SCT050 SCT150 QNH3004INS BECMG 0108/0109 32009KT 9999 BKN020 QNH2996INS BECMG 0114/0115 29012KT 9000 -RA BKN030 QNH2993INS TX17/3014Z TN08/0103Z", "TAF ETNL 300413Z 3005/3017 31010KT 9999 NSW SCT040 BY ETGL", "TAF ETNW 300405Z 3005/0105 VRB03KT 9999 NSW FEW040 BECMG 3005/3007 04005KT 9999 NSW FEW030 BY ETGL", "TAF ETSL 300638Z 3008/3017 06010KT 9999 NSW SCT050 BY ETGL", "TAF AMD EVGA 300930Z 3009/0109 27012KT CAVOK BECMG 3017/3019 VRB02KT", "TAF EVLA 300803Z 3009/0109 27012KT CAVOK TEMPO 3009/3014 27015G25KT SCT035CB BECMG 3019/3021 VRB02KT PROB40 TEMPO 3021/0104 0700 FG", "TAF EVRA 300801Z 3009/0109 27007KT CAVOK TEMPO 3010/3015 30012G25KT SCT035CB", "TAF EYKA 300513Z 3006/0106 30010KT 9000 SCT040 TEMPO 3006/3008 5000 BR SCT010 BKN040 BECMG 3008/3012 NSC TEMPO 3012/3018 28015G25KT TEMPO 0100/0104 0500 FG SCT002", "TAF EYPA 300500Z 3006/0106 VRB05KT 9000 NSC TEMPO 3006/3012 28015KT SCT015 TEMPO 3012/3018 30015G25KT TEMPO 0100/0104 3000 BR", "TAF EYSA 300800Z 3009/3018 29014KT 9000 NSC TEMPO 3009/3012 SCT040", "TAF EYVI 300500Z 3006/0106 VRB05KT 7000 BKN030 TEMPO 3006/3011 3000 SHRA BKN010 BKN020CB BECMG 3011/3013 NSC TEMPO 3013/3017 31015KT SCT040", "TAF FAEL 300900Z 3010/3019 18005KT 9999 BKN017 TX21/3010Z TN17/3019Z TEMPO 3010/3012 4000 -RA BKN010 PROB40 TEMPO 3010/3011 3000 -RA BR BKN005 BECMG 3012/3014 07014KT BKN025", "TAF FAHS 300900Z 3010/3018 15012KT 9999 BKN020 TX27/3013Z TN22/3018Z PROB30 TEMPO 3012/3016 -SHRA FEW035TCU", "TAF FAKM 300900Z 3010/3018 VRB03KT CAVOK TX26/3012Z TN17/3018Z", "TAF FAKN 300911Z 3010/3018 10010KT 9999 BKN020 TX25/3013Z TN19/3018Z PROB30 TEMPO 3012/3016 -SHRA FEW030TCU", "TAF FAMM 300600Z 3007/3018 VRB03KT CAVOK TX29/3013Z TN21/3007Z", "TAF AMD FAPM 301005Z 3010/3021 15005KT 9999 BKN030 TX21/3012Z TN13/3021Z PROB30 TEMPO 3016/3018 5000 -RA BKN015 BECMG 3018/3020 02002KT", "TAF FARB 300900Z 3010/3018 20008KT 9999 BKN020 TX22/3012Z TN19/3018Z PROB30 TEMPO 3010/3014 5000 SHRA BKN015 FEW030TCU BECMG 3013/3015 14013KT", "TAF FAUT 300900Z 3010/3018 VRB03KT 9999 BKN030 TX18/3010Z TN14/3018Z BECMG 3015/3017 BKN010 PROB30 TEMPO 3016/3018 5000 BR BKN008", "TAF FAWB 300908Z 3010/3018 03010KT CAVOK TX28/3013Z TN20/3018Z FM301200 VRB03KT 9999 SCT040 PROB30 TEMPO 3013/3016 FEW040TCU", "TAF FCBB 300500Z 3006/0112 24006KT 9999 SCT015 BECMG 3012/3014 SCT020 FEW030CB PROB30 3016/3020 TS BECMG 3021/3023 SCT015", "TAF FCPP 300500Z 3006/0106 22006KT 9000 TS SCT010 FEW030CB BECMG 3007/3009 NSW FEW010 BKN020 BECMG 3014/3016 SCT016 FEW30CB PROB30 3018/3022 TS BECMG 3022/3024 SCT010", "TAF FEFF 300500Z 3006/0112 19005KT 9999 FEW010 BECMG 3008/3010 BKN013 TEMPO 3011/3012 SCT023 FEW040CB TEMPO 3013/3018 4000 TSRA", "TAF FGBT 300500Z 3006/0106 21006KT 9999 SCT010 FEW010CB TEMPO 3015/3018 TS SCT010 FEW020CB", "TAF FGSL 300500Z 3006/0112 24006KT 9999 SCT012 PROB30 TEMPO 3013/3018 4500 TSRA BKN008 FEW018CB", "TAF FHAW 300730Z 3009/0103 14011KT 9999 FEW020 PROB40 TEMPO 3009/0103 SCT016", "TAF FIMP 300600Z 3006/0112 15005KT 9999 SCT019", "TAF FIMR 300605Z 3006/0100 09015G25KT 9999 SCT017 TEMPO 3006/3018 7000 -SHRA BKN016 PROB40 TEMPO 3009/3015 4000 SHRA FEW008 FEW012TCU BKN014", "TAF FJDG 300900Z 3009/0115 11010KT 9000 -SHRA SCT024 QNH2970INS TX32/3015Z TN25/0100Z FOR MIL USE ONLY", "TAF FKKD 300500Z 3006/0112 VRB02KT 8000 BKN013 FEW016CB TEMPO 3006/3008 3000 BR BECMG 3008/3010 BKN016 FEW020CB TEMPO 3017/3022 3000 TSRA BECMG 3020/3022 BKN013 FEW016CB", "TAF FKKL 300500Z 3006/3018 VRB08KT 9999 FEW020 PROB30 TEMPO 3008/3012 3000 TSRA SCT020 FEW023CB", "TAF FKKR 300500Z 3006/3018 26010KT 9999 FEW020 PROB30 TEMPO 3008/3012 3000 TSRA SCT020 FEW023CB", "TAF FKYS 300500Z 3006/0106 VRB02KT 2000 BR BKN006 TEMPO 3006/3007 0800 FG BKN003 BECMG 3008/3010 8000 NSW BKN016 TEMPO 3014/3018 4000 TSRA BKN013 FEW016CB BECMG 3020/3022 BKN006", "TAF FLCP 290400Z 2906/3012 15010KT CAVOK BECMG 2908/2910 18005KT FM291600 15005KT", "TAF FLHN 290400Z 2906/3012 VRB03KT CAVOK BECMG 2907/2909 09005KT 9999 FEW015 BECMG 2910/2912 15010KT SCT035 FM291600 VRB03KT CAVOK", "TAF FLKK 290400Z 2906/3012 12005KT CAVOK BECMG 2907/2909 09010KT 9999 FEW015 BECMG 2910/2914 15005KT SCT035 FM291600 VRB03KT CAVOK", "TAF FLKS 290400Z 2906/3012 15005KT CAVOK BECMG 2908/2910 09005KT 9999 SCT020 BECMG 2912/2914 13005KT FEW040 FM291600 CAVOK", "TAF FLMA 290400Z 2906/3012 15010KT 9999 SCT010 BECMG 2909/2911 09010KT SCT030 BECMG 2912/2914 VRB03KT SCT045 FM291600 CAVOK", "TAF FLMF 290400Z 2906/3012 15010KT CAVOK BECMG 2908/2910 18005KT FM291600 15005KT", "TAF FLSK 290400Z 2906/3012 11005KT 9000 FU NSC BECMG 2910/2912 VRB03KT SCT035 FM291600 15005KT CAVOK", "TAF FLSW 290400Z 2906/3012 VRB03KT CAVOK BECMG 2907/2909 09005KT 9999 SCT020 BECMG 2910/2914 15005KT SCT035 FM291600 VRB03KT CAVOK", "TAF FMCH 300500Z 3006/0112 20015KT 9999 FEW020 BECMG 3015/3017 10007KT BECMG 0105/0107 20012KT", "TAF FMCZ 300500Z 3006/0106 19015KT 9999 FEW025", "TAF AMD FMEE 300818Z 3008/0112 10015KT 9999 FEW020 SCT060 PROB30 TEMPO 3009/3012 4500 SHRA SCT015TCU BECMG 3016/3018 18008KT BECMG 0104/0106 06010KT", "TAF FMEP 300800Z 3009/3018 12012KT 9999 SCT020", "TAF FMMI 300500Z 3006/0112 12004KT 9999 FEW020 PROB40 0100/0106 0800 FG BKN005", "TAF FMMS 300500Z 3006/0106 18010KT 9999 SCT017 BKN033 PROB40 TEMPO 3006/3013 4000 SHRA PROB30 TEMPO 0102/0106 4000 SHRA", "TAF FMMT 300500Z 3006/0106 24007KT 9999 SCT017 SCT033 BECMG 3008/3010 18010KT BECMG 3018/3020 26005KT", "TAF FMNA 300500Z 3006/0106 14008KT 9999 FEW020", "TAF FMNM 300500Z 3006/0106 14006KT 9999 FEW020 BECMG 3010/3013 30012KT BECMG 3020/3023 12006KT", "TAF FMNN 300500Z 3006/0106 VRB05KT 9999 SCT020", "TAF FMSD 300500Z 3006/0106 08010KT 9999 FEW016 SCT033 PROB30 TEMPO 0102/0106 4500 SHRA SCT016TCU", "TAF FMST 300500Z 3006/0106 VRB02KT 9999 FEW020 BECMG 3008/3011 22012KT BECMG 3018/3021 16007KT", "TAF FNBG 292300Z 3000/3012 VRB03KT 9000 SCT022 BECMG 3009/3012 30007KT", "TAF FNCA 292300Z 3000/3012 03005KT 9000 SCT018 TEMPO 3003/3008 7000 DZ FEW022 FEW030CB", "TAF FNCT 292300Z 3000/3012 VRB03KT 9999 FEW018 BECMG 3003/3008 31010KT", "TAF FNDU 292300Z 3000/3012 VRB02KT 9000 FEW030", "TAF FNGI 292300Z 3000/3012 03005KT 9999 FEW018", "TAF FNHU 292300Z 3000/3012 VRB03KT 9999 FEW018", "TAF FNKU 292300Z 3000/3012 08006KT 9999 FEW018", "TAF FNLU 300500Z 3006/0112 11004KT 8000 BKN040 TEMPO 3008/3012 VRB02KT BECMG 3012/3015 27007K", "TAF FNMA 292300Z 3000/3012 28005KT 9000 SCT022 TEMPO 3008/3012 VRB02KT BKN022 FEW030CB", "TAF FNME 292300Z 3000/3012 07006KT 9000 FEW025", "TAF FNMO 292300Z 3000/3012 VRB02KT 9999 FEW022 BECMG 3009/3012 29010KT", "TAF FNSA 292300Z 3000/3012 18005KT 9999 FEW022", "TAF FNSO 292300Z 3000/3012 VRB02KT 9000 SCT018 TEMPO 3003/3008 BKN022 FEW030CB", "TAF FNUB 292300Z 3000/3012 08010KT 9999 FEW020", "TAF FNUE 292300Z 3000/3012 15005KT 9999 SCT015", "TAF FOOG 300500Z 3006/0106 0904KT 9999 SCT010 PROB30 3014/3020 TS BKN012 FEW020CB", "TAF FOOL 300500Z 3006/0112 10005KT 9999 SCT010 TEMPO 3013/3019 TS BKN012 FEW020CB", "TAF FQBR 292200Z 3000/0106 28006KT 9999 FEW020 TX30/3013Z TN20/3003Z PROB30 TEMPO 3001/3004 5000 BR FEW012 BECMG 3012/3014 10012KT SCT020 BECMG 3020/3022 19008KT SCT015 BKN020", "TAF FQCH 292200Z 3000/0100 25006KT CAVOK TX27/3013Z TN15/3003Z PROB30 TEMPO 3001/3005 5000 BR FEW012 BECMG 3008/3010 15010KT 9999 FEW020 BECMG 3015/3017 19006KT BKN020", "TAF FQIN 292200Z 3000/0100 19008KT 9999 FEW020 TX29/3013Z TN20/3003Z PROB30 TEMPO 3001/3004 5000 BR FEW012 BECMG 3008/3010 16012KT BKN020", "TAF FQLC 292200Z 3000/0100 25006KT 9999 FEW018 TX23/3013Z TN12/3003Z PROB30 TEMPO 3003/3006 5000 BR FEW015 BECMG 3008/3010 17010KT SCT018 BECMG 3015/3017 12006KT FEW020", "TAF FQMA 292200Z 3000/0106 19008KT 9999 BKN020 FEW030CB TX27/3013Z TN17/3003Z PROB30 TEMPO 3001/3005 5000 -DZ SCT015 BECMG 3010/3012 17012KT BECMG 3020/3022 23008KT SCT025", "TAF FQNC 292200Z 3000/0106 23006KT 9999 FEW025 TX30/3013Z TN20/3003Z BECMG 3012/3014 15014KT BECMG 3018/3020 23008KT", "TAF FQNP 292200Z 3000/0100 19008KT 9999 SCT020 TX29/3013Z TN19/3003Z PROB30 TEMPO 3002/3005 5000 BR FEW015 BECMG 3010/3012 17012KT BECMG 3015/3017 24006KT", "TAF FQPB 292200Z 3000/0100 19008KT 9999 SCT020 TX30/3013Z TN20/3003Z PROB30 TEMPO 3001/3006 5000 -DZ SCT015 BECMG 3010/3012 16014KT BECMG 3015/3017 22006KT FEW025", "TAF FQQL 292200Z 3000/0100 28006KT 9999 SCT020 TX31/3013Z TN18/3003Z PROB30 TEMPO 3001/3004 5000 BR FEW015 BECMG 3012/3014 17010KT BECMG 3015/3017 09006KT", "TAF FQTT 292200Z 3000/0100 19008KT CAVOK TX33/3013Z TN19/3003Z PROB30 TEMPO 3001/3005 5000 BR NSC BECMG 3008/3010 12010KT SCT020 BECMG 3015/3017 09006KT FEW020", "TAF FQVL 292200Z 3000/0100 23006KT CAVOK TX30/3013Z TN20/3003Z PROB30 TEMPO 3002/3005 5000 BR FEW015 BECMG 3010/3012 16012KT 9999 SCT020", "TAF FQXA 292200Z 3000/0100 19008KT 9999 SCT020 TX27/3013Z TN18/3003Z PROB30 TEMPO 3005/3010 5000 -DZ SCT015 BECMG 3010/3012 16012KT", "TAF FSIA 300501Z 3006/0106 13007KT 9999 SCT021 PROB40 TEMPO 3011/3014 8000 SHRA FEW016CB BKN019", "TAF FTTJ 300500Z 3006/0112 24006KT 7000 NSC PROB30 TEMPO 3015/3018 VRB15G35KT 3000 BLDU TS", "TAF FVJN 300400Z 3006/0112 10010KT CAVOK BECMG 0102/0104 SCT010 BECMG 0106/0108 SCT040", "TAF FVRG 300400Z 3006/0112 16008KT CAVOK", "TAF FWKI 300400Z 3006/0112 04003KT CAVOK BECMG 3008/3010 17005KT 9999 FEW028 BECMG 3015/3017 14009KT 9999 SCT035 BECMG 3019/3021 VRB06KT CAVOK", "TAF FYGF 300800Z 3009/3018 26005KT CAVOK BECMG 3010/3012 03007KT 9999 SCT040 PROB30 TEMPO 3014/3018 -TSRA FEW035CB", "TAF FYKM 300800Z 3009/3018 06004KT CAVOK BECMG 3010/3012 9999 SCT045", "TAF FYLZ 300800Z 3009/3018 19010KT CAVOK", "TAF FYOA 300800Z 3009/3018 30005KT CAVOK BECMG 3010/3012 9999 SCT050", "TAF FYWE 300800Z 3009/3018 07010KT CAVOK BECMG 3010/3012 9999 SCT050 PROB30 TEMPO 3013/3018 -TSRA FEW040CB", "TAF FZAA 300500Z 3006/0112 24004KT 8000 BKN016 BECMG 3011/3013 30010KT SCT022 FEW30CB PROB30 TEMPO 3014/3019 -TSRA BECMG 3020/3022 18004KT FEW018", "TAF FZIC 300500Z 3006/0112 16006KT 8000 SCT010 BECMG 3008/3010 SCT024 FEW034CB TEMPO 3012/3016 TS BECMG 3016/3018 00000KT NSC BECMG 0100/0102 2000 BR FM 01060014006KT 8000 SCT010", "TAF FZNA 300500Z 3006/0112 05004KT 7000 SCT014 BECMG 3007/3009 21010KT SCT016 FEW020CB TEMPO 3010/3015 -TSRA BECMG 3017/3019 04004KT SCT014 BECMG 0108/0110 23010KT SCT018 FEW030CB", "TAF FZQA 300500Z 3006/0112 09010KT CAVOK BECMG 3009/3011 16015G22KT FEW016 BECMG 3015/3017 VRB03KT CAVOK", "TAF GABS 300530Z 3006/0112 20010KT 9999 FEW030 PROB40 TEMPO 3014/3022 VRB20G35KT 4000 TSRA BLDU SCT030 SCT040CB", "TAF GAGO 300530Z 3006/0106 18012KT 8000 NSC PROB40 TEMPO 3006/3011 4000 DU PROB40 TEMPO 3014/3020 VRB18G30KT 3000 TSDU FEW040 FEW045CB", "TAF GBYD 300500Z 3006/0112 28008KT 8000 BKN010 BECMG 3008/3010 SCT012 PROB40 0103/0109 4000 BR BKN008", "TAF GCFV 300800Z 3009/0109 03013KT CAVOK TX25/3014Z TN19/0106Z", "TAF GCGM 300800Z 3009/0109 20006KT CAVOK TX26/3014Z TN20/0106Z", "TAF GCHI 300800Z 3009/0109 36012KT CAVOK TX26/3014Z TN20/0106Z", "TAF GCLA 300800Z 3009/0109 02007KT CAVOK TX26/3014Z TN21/0106Z", "TAF GCLP 300800Z 3009/0109 01016KT CAVOK TX28/3014Z TN20/0106Z", "TAF GCRR 300800Z 3009/0109 03016KT CAVOK TX29/3014Z TN19/0106Z", "TAF GCTS 300800Z 3009/0109 08018KT CAVOK TX29/3014Z TN19/0106Z PROB30 TEMPO 3009/3011 07008KT PROB40 TEMPO 3009/3018 08020G30KT PROB30 TEMPO 3015/3020 24007KT BECMG 3019/3021 06007KT", "TAF GCXO 300800Z 3009/0109 12010KT CAVOK TX26/3014Z TN16/0106Z BECMG 3017/3020 VRB05KT", "TAF GECE 300800Z 3009/0109 30009KT CAVOK TX24/3012Z TN19/0106Z", "TAF GEML 300500Z 3006/0106 26008KT CAVOK TX29/3013Z TN20/0106Z", "TAF GFLL 300353Z 3006/0106 21008KT 9999 FEW011 TEMPO 0104/0108 VRB03KT FEW027CB PROB30 BECMG 0109/011 21008KT 9999 SCT011", "TAF GGOV 291700Z 2918/3018 22010KT 7000 NSC TEMPO 3005/3008 4000 BR TEMPO 3002/3010 VRB05KT", "TAF GLRB 300500Z 3006/0106 24008KT 9999 TS BKN015 FEW024CB BECMG 3006/3008 06005KT 7000 -TSRA BKN011 FEW022CB TEMPO 3009/3013 23010KT 9000 BKN015", "TAF GMAD 300500Z 3006/0112 09005KT 8000 FEW023 TEMPO 3006/3010 BKN016 BECMG 3012/3014 28012KT BECMG 3019/3022 10005KT", "TAF GMAG 300500Z 3006/0112 16013KT 8000 NSC", "TAF GMFF 300500Z 3006/0112 24006KT CAVOK BECMG 3011/3014 32012KT FEW033 SCT200", "TAF GMFK 300500Z 3006/0112 15006KT 9999 FEW030 TEMPO 3015/3021 30022G33KT FEW033CB", "TAF GMFM 300500Z 3006/0112 VRB03KT CAVOK TEMPO 3013/3019 34010KT 9999 FEW020 SCT100", "TAF GMFO 300500Z 3006/0112 VRB03KT 9999 FEW030 TEMPO 3012/3018 35014KT PROB30 3013/3018 TS FEW030CB", "TAF GMME 300500Z 3006/0112 00000KT 5000 SCT016 TEMPO 3011/3018 31010KT TEMPO 3019/3023 22008KT", "TAF GMMH 300500Z 3006/0112 12017KT 8000 NSC", "TAF GMMI 300500Z 3006/0112 06013KT 8000 NSC", "TAF GMML 300500Z 3006/0112 01016KT 7000 NSC", "TAF GMMN 300500Z 3006/0112 02004KT CAVOK BECMG 3012/3014 34014KT BECMG 3020/3022 06004KT 9999 SCT010 PROB30 TEMPO 0100/0108 2000 BR BKN005", "TAF GMMW 300500Z 3006/0112 17008KT CAVOK", "TAF GMMX 300500Z 3006/0112 24006KT CAVOK TEMPO 3015/3021 02015KT SCT030", "TAF GMMZ 300500Z 3006/0112 30003KT 9999 SCT040 FEW050TCU TEMPO 3014/3020 26016G26KT", "TAF GMTA 300500Z 3006/0112 VRB02KT CAVOK", "TAF GMTT 300500Z 3006/0112 09005KT CAVOK", "TAF GOBD 300500Z 3006/0112 28008KT 3000 BR BKN005 BECMG 3008/3010 6000 NSW SCT010 PROB40 0103/0109 3000 BR BKN006", "TAF GOGS 300500Z 3006/0106 26008KT 9999 BKN010 BECMG 3009/3011 SCT010 TEMPO 0102/0106 BKN010", "TAF GOOY 300500Z 3006/0112 34010KT 6000 BKN006 BECMG 3008/3010 SCT010 PROB40 0103/0109 4000 BR BKN006", "TAF GOSS 300500Z 3006/0106 34012KT CAVOK", "TAF GQNO 300500Z 3006/0112 36008G18KT 7000 NSC TEMPO 3010/3016 07012KT", "TAF GQPP 300500Z 3006/0106 36010G20KT 7000 NSC", "TAF GUCY 300500Z 3006/0112 23006KT 9999 FEW015 SCT110 TEMPO 3010/3016 29012KT BKN015", "TAF GVAC 300500Z 3006/0112 36015KT 9999 FEW013", "TAF GVBA 292300Z 3000/0106 01006KT 9999 FEW014 BECMG 3009/3012 36017KT BECMG 3020/3023 36007KT", "TAF GVNP 300500Z 3006/0112 02006KT 9999 FEW016 BECMG3009/3011 36016KT", "TAF GVSV 300500Z 3006/0112 06010KT 9999 FEW020 BECMG 3010/3012 06020KT", "HABD 300330Z 3006/0112 28006KT 9999 BKN026 SCT090 TEMPO 3012/3016 7000M TSRA FEW025 CB", "HADC 300330Z 3006/0112 35004KT 8000M -RA BKN025 BKN080 BECMG 3006/3010 5000M RA", "HAGN 300330Z 3006/0112 32007KT 8000M -RA BKN025 BKN080 BECMG 3010/3015 2000M TSRA FEW025 CB", "HAJJ 300330Z 3006/0112 19006KT 9999 BKN026 SCT090 BECMG 3013/3017 6000M TSRA FEW3025 CB", "HALA 300330Z 3006/0112 VRB05KT 8000M -RA BKN026 BKN080 BECMG 3007/3011 6000M TSRA FEW023 CB BECMG 3013/3017 6000M TSRA FEW025 CB", "HAMK 300330Z 3006/0112 27005KT 8000M -RA BKN025 BKN080 BECMG 3006/3010 5000M RA", "TAF HBBA 292300Z 3000/0106 36004KT 9999 FEW025 BECMG 3007/3009 18010G 20KT 9999 FEW030 SCT00 BECMG 3019/3021 VRB03KT 9999 FEW025 SCT090", "TAF HCMM 291100Z 2912/3018 23007KT 9999 BKN024 TEMPO 2913/2916 6000 SHRA FEW022CB SCT023 TEMPO 3001/3004 7000 -SHRA FEW019 SCT020", "HDAM 300500Z 3006/0106 05010KT 9999 SCT023 SCT030 FEW133 BECMG 3018/0100 VRB05KT SCT020 BECMG 0100/0106 25008KT 9000 -SHRA SCT020 BKN030", "TAF HEAL 300500Z 3006/0112 29008KT 9999 SCT020", "TAF HEAR 300500Z 3006/0112 25012KT 9999 SCT025", "TAF HEAT 300500Z 3006/0112 30010KT CAVOK TEMPO 3006/3008 VRB04KT 5000 BR NSC", "TAF HEAX 300500Z 3006/0112 30010KT 9999 FEW020", "TAF HEBA 300500Z 3006/0112 30010KT 9999 SCT020", "TAF HEBL 300500Z 3006/0112 01010KT CAVOK", "TAF COR HECA 300630Z 3006/0112 29009KT CAVOK BECMG 3017/3019 02007KT PROB30 TEMPO 0100/0106 08005KT 4000 HZ", "TAF HEGN 300500Z 3006/0112 32015G28KT CAVOK", "TAF HELX 300500Z 3006/0112 30008KT CAVOK TEMPO 3006/3009 VRB04KT 5000 HZ NSC", "TAF HEMA 300500Z 3006/0112 02015G25KT CAVOK", "TAF HEMM 300500Z 3006/0112 27008KT 9999 FEW020", "TAF HEOW 300500Z 3006/0112 35014KT CAVOK", "TAF HEPS 300500Z 3006/0112 27014KT 9999 SCT020 BECMG 3010/3012 33015KT TEMPO 3012/3016 34019G29KT BECMG 0110/0112 02012KT", "TAF HESC 300500Z 3006/0112 28010KT CAVOK", "TAF HESG 300500Z 3006/0112 33010KT CAVOK TEMPO 3006/3008 VRB03KT 6000 NSC", "TAF HESH 300500Z 3006/0112 02015KT CAVOK", "TAF HESN 300500Z 3006/0112 35010KT CAVOK", "TAF HETB 300500Z 3006/0112 03015KT CAVOK", "TAF HETR 300500Z 3006/0112 31018G28KT 6000 NSC TEMPO 3009/3017 3000 SA", "TAF HKEL 292300Z 3000/0106 VRB03KT 9999 -RA FEW017CB SCT018 BKN080 BE CMG 3008/3011 NSW FEW025CB BKN080 TEMPO 3013/3017 -SHRA FEW020CB SCT0 21 BKN080 BECMG 3010/3023 VRB03KT SCT018 BKN080", "TAF HKJK 292300Z 3000/0106 VRB03KT 9999 BKN018 BKN080 TEMPO 3001/3005 -RA SCT008 BKN016 BKN080 BECMG 3008/3011 08010KT NSW BKN024 TEMPO 30 13/3017 -SHRA FEW023CB BKN080 BECMG 3019/3022 VRB03KT NSW BKN018", "TAF HKKI 300500Z 3006/0112 VRB03KT 9999 SCT017 BKN080 BECMG 3008/3011 23010KT FEW025CB BKN080 TEMPO 3014/3018 VRB10KT -TSRA FEW022CB SCT023 BKN080 BECMG 3021/3024 VRB03KT NSW SCT018 BKN080 BECMG 0108/0111 23010KT FEW025CB BKN080", "TAF HKML 300500Z 3006/0106 22010KT 9999 SCT018 TEMPO 3009/3012 -RA BKN018 OVC080 BECMG 3015/3018 18010KT NSW FEW018CB BKN080 TEMPO 0100/0104 00000KT -RA SCT016 OVC080", "TAF HKMO 300500Z 3006/0112 21010KT 9999 SCT022 BKN080 TEMPO 3010/3014 -RA BKN018 OVC080 BECMG 3018/3021 NSW FEW022 SCT080 TEMPO 0100/0104 -RA SCT018 BKN080", "TAF HKNW 300500Z 3006/0106 VRB03KT 9999 -RA SCT009 OVC018 BECMG 3008/3011 17010KT NSW BKN025 TEMPO 3012/3016 FEW024CB BKN025 BECMG 3020/3023 VRB03KT BKN018 TEMPO 0101/0105 -RA SCT009 BKN018 BKN080", "TAF HLGD 300500Z 3006/0106 VRB02KT 8000 NSC BECMG3022/3024 18015G30KT PROB40 TEMPO 0100/0106 3000 BLSA", "TAF HLGT 300500Z 3006/0106 VRB02KT 8000 NSC BECMG3015/3017 36010KT ", "TAF HLKF 300500Z 3006/0106 VRB02KT CAVOK ", "TAF HLLB 292300Z 2300/3024 VRB02KT 8000 FEW025 BECMG3015/3017 36010KT ", "TAF HLLM 300500Z 3006/0106 VRB02KT 8000 NSC BECMG3012/3014 06010KT BECMG3020/3022 16015G30KT PROB40 TEMPO 0100/0106 3000 BLSA ", "TAF HLLQ 300500Z 3006/0106 VRB02KT 8000 NSC ", "TAF HLLS 300500Z 3006/0106 16010KT 8000 NSC BECMG3012/3014 VRB02KT BECMG0100/0102 15012KT ", "TAF HLMS 300500Z 3006/0106 20010KT 8000 NSC BECMG3020/3022 16015G35KT PROB40 TEMPO0100/0106 3000 BLSA ", "TAF HLON 300500Z 3006/0106 VRB02KT 8000 NSC ", "TAF HLTD 300500Z 3006/0106 VRB02KT 8000 NSC BECMG3015/3017 27010KT BECMG0102/0104 VRB02KT ", "TAF HLTQ 300500Z 3006/0106 VRB02KT 8000 NSC", "TAF HLUB 300500Z 3006/0106 VRB02KT 8000 NSC BECMG0100/0102 14012KT ", "TAF COR HRYR 300515Z 3006/0112 24003KT 8000 SCT020 SCT100 BECMG 3008/3011 12006KT 9999 BKN023 TEMPO 3012/3017 14010G20KT TSRA FEW022CB BKN024 BECMG 3020/3023 17005KT RA BKN023 BKN100 BECMG 0102/0105 00000KT 0800 FG SCT004 SCT020 FM010800 16004KT 9999 BKN023", "TAF HRZA 291100Z 2912/3018 12008KT 9999 -TSRA FEW023CB BKN025 BECMG 2914/2916 22008KT NSW BKN025 BECMG 2920/2922 30004KT BECMG 3001/3003 00000KT 9000 BECMG 3006/3008 VRB03KT 9999 SCT025 TEMPO 3010/3014 22008KT -TSRA FEW023CB BKN025", "TAF HSSJ 300400Z 3006/0112 21005KT 9999 SCT040 BKN140 PROB30 TEMPO 3908/3014 18006G16KT 6000 TSRA FEW045CB BKN090", "TAF HSSM 300400Z 3006/0112 09005KT 9999 SCT040 BKN40 PROB30 TEMPO 3009/3015 15005KT 6000 HZ", "TAF HTAR 300500Z 3006/0106 12005KT 9999 BKN022 TEMPO 3007/3011 5000 RA BECMG 3012/3015 9999 NSW BKN026 FEW028CB", "TAF HTBU 300500Z 3006/0106 00000KT 99999 TSRA SCT012 FEW014CB BKN080", "TAF HTDA 300500Z 3006/0112 19010KT 9999 BKN018 FEW020CB TEMPO 3009/3015 5000 TSRA BECMG 3017/3020 SCT013 FEW015CB", "TAF HTDO 300500Z 3006/0106 00000KT 9999 FEW017 BKN080", "TAF HTKA 300500Z 3006/0106 00000KT 9999 SCT018 FEW019CB BKN080 TEMPO 3006/3013 -TSRA", "TAF HTKJ 300500Z 3006/0106 09005KT 9999 BKN025 BECMG 3008/3009 FEW025CB BKN026 PROB40 TEMPO 3009/3015 RA BECMG 3020/3021 BKN020 BECMG 0103/0105 FEW008 BKN018", "TAF HTMW 300500Z 3006/0106 12010KT 9999 TSRA BKN019 FEW020CB BECMG 3010/3012 30010KT NSW SCT023 FEW024CB BECMG 3017/3019 00000KT", "TAF HTTB 300500Z 3006/0106 12010KT 9999 SCT018 FEW019CB BKN080 BECMG 3009/3012 TSRA", "TAF HTZA 300500Z 3006/0106 21010KT 9999 BKN018 FEW020CB BECMG 3010/3012 15015KT BECMG 3020/0105 21010KT", "TAF HUEN 300500Z 3006/0112 24010KT 9999 FEW021 FEW023CB BECMG 0102/0106 VRB10G25KT 8000 TSRA BKN018 FEW020CB", "TAF HUSO 291100Z 2912/3012 29006KT 9999 SCT019 FEW021CB FM 291700 9000 TSRA BKN018 FEW020CB BECMG 3002/3006 RA FEW017 OVC090 BECMG 3008/3012 BKN019 FEW021CB", "KABE 300540Z 3006/0106 07005KT 6SM BR OVC004 TEMPO 3006/3010 2SM -DZ BR OVC003 FM301400 10004KT 2SM -SHRA BR OVC004 FM301800 10012KT 3SM -SHRA BR OVC005 FM302300 16012KT 3SM -SHRA BR OVC008 FM010300 26015G25KT 5SM BR VCSH BKN015", "KABI 300520Z 3006/0106 18005KT P6SM SKC FM301500 23010G17KT P6SM SKC FM010000 08012KT P6SM SCT240", "KABQ 300532Z 3006/0106 VRB06KT P6SM SKC FM301800 29012KT P6SM FEW250 FM302100 29014G24KT P6SM FEW220 FM010200 35010KT P6SM FEW200", "KABR 300523Z 3006/0106 33011KT P6SM BKN040 FM301500 35020G32KT P6SM SCT080 FM010200 34015G22KT P6SM SCT250", "KABY 300520Z 3006/0106 21011KT P6SM BKN015 FM300700 22011G22KT 6SM -RA OVC015 FM301100 23013G25KT P6SM VCSH SCT015 BKN025 FM301400 28015G23KT P6SM SCT040 FM010200 25009KT P6SM SKC", "KACK 300536Z 3006/0106 11023G32KT 5SM -RA BR OVC015 WS020/13050KT FM300800 12023G33KT 5SM BR VCSH OVC008 FM301100 12021G30KT 1SM BR VCSH OVC003 FM301700 12019G27KT 1SM BR VCSH OVC003 FM302100 11021G31KT 1SM RA BR OVC003 FM302300 10022G30KT 1SM +RA BR OVC003 WS020/16050KT FM010400 14024G34KT 1 1/2SM RA BR OVC003 WS020/18055KT", "KACT 300901Z 3009/0106 23005KT P6SM SKC FM301800 16008KT P6SM SKC FM010000 11007KT P6SM FEW180", "KACV 300537Z 3006/0106 00000KT 4SM BR OVC003 FM301700 32006KT 6SM BR OVC008 FM302100 32009KT P6SM SCT015 FM010040 34004KT 4SM -DZ BR SCT007 BKN020 OVC040", "TAF COR KACY 300541Z 3006/0106 11006KT 1/2SM FG OVC002 TEMPO 3006/3010 1/4SM FG FM301200 11012G20KT 2SM -SHRA BR OVC003 FM301900 15018G27KT 2SM -SHRA BR OVC004 FM010100 21016G24KT 3SM -SHRA BR BKN005 FM010300 26016G24KT 4SM BR VCSH BKN020", "KADF 300521Z 3006/0106 30004KT P6SM SKC FM300700 VRB02KT P6SM SKC WS020/33035KT FM301500 32007G14KT P6SM FEW250 FM010000 31005KT P6SM BKN250", "TAF AMD KADW 301000Z 3010/0115 06006KT 9999 VCSH OVC008 QNH2942INS TEMPO 3012/3014 07015G25KT 4800 -SHRA BR VCTS OVC006CB BECMG 3013/3014 07006KT 3200 SHRA BR OVC002 QNH2911INS BECMG 3018/3019 11006KT 4800 SHRA BR VCTS OVC003CB QNH2900INS BECMG 3021/3022 31012KT 6000 -SHRA BR BKN006 OVC020 QNH2900INS BECMG 3023/3024 29018G30KT 9999 NSW BKN020 OVC050 520006 QNH2904INS BECMG 0102/0103 28015G25KT 9999 FEW030 510004 QNH2919INS BECMG 0109/0110 23015G25KT 9999 FEW220 QNH2930INS TX19/3019Z TN07/0109Z", "KAEG 300532Z 3006/0106 VRB06KT P6SM SKC FM301800 30012G22KT P6SM FEW250 FM302100 31014G24KT P6SM FEW220 FM010200 31010KT P6SM FEW200", "KAEX 300520Z 3006/0106 31010KT P6SM SKC FM301300 29007KT P6SM SKC", "TAF KAFF 291904Z 2919/0101 35012G20KT 9999 SCT110 BKN200 510009 QNH3003INS TEMPO 2919/2923 35015G25KT 520005 BECMG 3001/3002 35009KT 9999 FEW120 SCT200 QNH2997INS WND 14009KT AFT 3016 BECMG 3021/3022 17015KT 9999 VCSH SCT065 BKN090 QNH2993INS TX19/2922Z TNM02/3012Z LAST NO AMDS AFT 2921 NEXT 0111", "KAFW 300901Z 3009/0106 25005KT P6SM SKC FM301600 35006KT P6SM FEW250 FM010500 06007KT P6SM SCT180", "KAGC 300536Z 3006/0106 14003KT P6SM BKN060 FM301400 23008KT 5SM -SHRA BR OVC015 FM302000 29010G18KT P6SM OVC015 FM302300 26010KT P6SM BKN040 FM010500 23012KT P6SM VCSH OVC025", "KAGS 300810Z 3008/0106 VRB05KT P6SM -SHRA SCT005 OVC015 TEMPO 3008/3012 3SM BR BKN005 FM301200 22008KT P6SM -SHRA SCT005 OVC010 FM301400 24012G22KT P6SM OVC025 FM301800 29014G25KT P6SM SCT045", "KAHN 300917Z 3009/0106 04006KT 6SM RA SCT015 OVC045 FM301300 32008KT 5SM RA BR FEW015 OVC050 FM301500 29015G25KT P6SM SCT050 FM301700 28020G28KT P6SM SCT050 FM010000 27012KT P6SM SKC", "KAIA 300520Z 3006/0106 36007KT P6SM FEW100 FM301800 36013G21KT P6SM SKC FM302300 04008KT P6SM SKC", "KALB 300557Z 3006/0106 35004KT P6SM OVC028 FM301700 01009G16KT 6SM -RA BR BKN015 OVC150 FM302100 04008G16KT 2SM RA BR OVC015 FM010000 08006G14KT 5SM -RA BR OVC030 PROB30 0102/0104 2SM RA BR OVC015 FM010400 03004KT 5SM -RA BR OVC020", "KALI 300520Z 3006/0106 VRB04KT P6SM SKC FM302100 16008KT P6SM SKC", "KALO 300520Z 3006/0106 30011G18KT P6SM SCT050 BKN080 FM301200 31017G24KT P6SM BKN030 FM301400 32022G34KT P6SM VCSH OVC020 FM010100 33018G27KT P6SM OVC040", "KALS 300529Z 3006/0106 VRB05KT P6SM SKC FM302000 33012G25KT P6SM SCT080 SCT200 FM010100 34007KT P6SM FEW080 SCT200 FM010400 VRB05KT P6SM SKC", "KALW 300520Z 3006/0106 13006KT P6SM SCT250 FM301500 22008KT P6SM BKN250", "KAMA 300520Z 3006/0106 VRB06KT P6SM SKC FM301500 14008KT P6SM SKC FM301800 10013KT P6SM FEW250", "KANB 301011Z 3010/0106 VRB04KT 6SM SHRA BR BKN006 OVC018 FM301400 30013KT P6SM BKN070 FM301900 29018G28KT P6SM SKC FM010300 28006KT P6SM SKC", "KAND 300904Z 3009/0106 07007KT P6SM -SHRA OVC050 TEMPO 3009/3013 2SM SHRA BR BKN008 FM301400 29008KT P6SM VCSH OVC045 FM301700 28019G25KT P6SM FEW070 SCT200 FM010200 27013G21KT P6SM FEW250", "KAOO 300925Z 3009/0106 14005KT 4SM SHRA BR OVC007 FM301200 12004KT 2SM -RA BR OVC007 FM301900 33008G15KT 2SM -SHRA BR OVC007 FM302200 31009KT 4SM -RA BR OVC015 FM010200 32008KT P6SM BKN050", "KAPA 300520Z 3006/0106 13005KT P6SM SCT110 SCT220 FM300800 VRB05KT P6SM FEW110 SCT220 FM301600 01007KT P6SM FEW110 SCT220 FM301900 03010KT P6SM BKN100 BKN220 FM010300 13008KT P6SM SCT100 SCT220", "KAPC 300827Z 3008/0106 VRB03KT P6SM SKC TEMPO 3008/3010 BKN007 FM301000 24009KT P6SM OVC007 FM301800 24014KT P6SM SKC FM302100 23020G25KT P6SM SKC FM010400 23015KT P6SM SCT015", "KAPF 300839Z 3009/0106 20015G25KT P6SM FEW030 BKN250 FM301100 25019G29KT P6SM VCTS SCT030CB BKN050 OVC250 TEMPO 3011/3014 VRB20G30KT 3SM TSRA BKN020CB FM301800 29020G30KT P6SM SCT030 SCT050 FM010000 26010KT P6SM FEW040 FEW250", "KAPN 300938Z 3010/0106 23005KT P6SM VCSH SCT008 OVC015 FM301800 11006KT 6SM -SHRA OVC025 FM010300 27006KT P6SM VCSH OVC015", "KARA 300520Z 3006/0106 30007KT P6SM SKC", "KART 300836Z 3009/0106 15010G20KT P6SM OVC040 FM301500 13015KT 6SM -RA BR OVC030 FM302000 08012KT 6SM -RA BR OVC020 FM302200 07014KT 6SM -RA BR OVC015 FM010400 10010KT 4SM RA BR OVC007 FM010500 18012KT 4SM RA BR OVC007", "KASD 300520Z 3006/0106 30008KT P6SM BKN025 OVC035 FM300900 30008KT P6SM SCT020 BKN035 FM301400 31011KT P6SM SKC FM010300 VRB03KT P6SM SKC", "KASE 300520Z 3006/0106 21009KT P6SM SKC FM301500 VRB04KT P6SM FEW250 FM301800 34010G17KT P6SM FEW250 FM010200 21009KT P6SM FEW250", "KASN 300540Z 3006/0106 VRB04KT 6SM SHRA BR SCT015 OVC070 FM300900 33006KT 6SM SHRA BR OVC018 FM301400 30013KT P6SM BKN070 FM301900 29018G28KT P6SM SKC FM010300 28006KT P6SM SKC", "KAST 300520Z 3006/0106 23007KT 6SM BR OVC007 FM301000 21006KT 3SM -DZ BR SCT003 OVC006 FM301800 23010KT P6SM BKN015 OVC025 FM302100 22012G18KT P6SM SCT025 BKN035 FM010200 21007KT P6SM OVC025", "KATL 300922Z 3009/0112 01008KT 3SM RA BR SCT006 BKN035 OVC045 FM301200 33013KT 6SM -RA BR SCT015 OVC045 FM301400 31015G25KT P6SM BKN045 FM301700 29020G28KT P6SM SCT050 FM010000 29012KT P6SM SKC FM010300 28008KT P6SM SKC", "KATW 301006Z 3010/0106 31010KT P6SM VCSH OVC010 FM302000 34009G15KT 6SM -RA BR OVC008 FM302200 34011G19KT P6SM -RA OVC012", "KATY 300756Z 3008/0106 34020G27KT P6SM OVC015 FM301300 34022G32KT P6SM BKN035 FM301900 34025G38KT P6SM SCT050 FM010200 34017G27KT P6SM SCT250", "KAUG 300906Z 3009/0106 08008KT P6SM -SHRA OVC040 FM301100 10009KT P6SM -SHRA BKN008 FM301400 09012KT 4SM -SHRA BR OVC006 FM302000 10014G22KT 3SM -RA BR OVC004 FM010200 09015G25KT 2SM RA BR OVC003 WS020/12050KT", "KAUS 300855Z 3009/0112 24004KT P6SM SKC FM301500 23007KT P6SM SKC FM302100 18010KT P6SM SKC", "KAUW 301007Z 3010/0106 31010KT 6SM -SHRASN SCT008 OVC015 FM301600 34012G22KT 3SM -RA OVC009 FM302100 33014G25KT 5SM -RA OVC012 FM010000 33014G25KT 5SM -RASN OVC015", "KAVL 300542Z 3006/0106 16005KT P6SM -SHRA OVC080 FM301000 03005KT P6SM OVC028 TEMPO 3010/3013 4SM -SHRA BR OVC014 FM301400 33010KT P6SM VCSH BKN030 OVC040 FM301600 33013G20KT P6SM BKN045 FM302100 31020G28KT P6SM FEW100 SCT250 FM010300 33015KT P6SM FEW190", "KAVP 300655Z 3007/0106 VRB05KT 3SM SHRA VCTS SCT010 OVC018CB TEMPO 3007/3010 1SM +RA OVC010 FM301000 09007G13KT 3SM -SHRA BR OVC008 FM301300 10009G17KT 4SM -SHRA BR OVC012 FM301900 09012G21KT 2SM SHRA BR OVC009 WS020/12040KT FM010100 28007G12KT 1 1/2SM SHRA BR OVC005 FM010500 28011G20KT 6SM -SHRA BKN040", "KAXN 300554Z 3006/0106 33015G22KT P6SM SCT070 FM301200 34023G39KT P6SM SCT025 BKN040 FM301800 34025G39KT P6SM BKN070 FM010100 34016G28KT P6SM SKC", "KAZO 300948Z 3010/0106 25005KT P6SM FEW007 BKN025 FM301500 26007KT P6SM VCSH BKN015 FM301700 26012G20KT P6SM BKN035 FM302200 27010KT 5SM -SHRA BKN025 FM010500 27008KT 4SM -RA BR OVC007", "TAF AMD KBAD 292205Z 2922/0102 31015G25KT 9999 SCT020 BKN170 QNH2981INS BECMG 2923/2924 32015G25KT 9999 SCT020 SCT040 QNH2982INS BECMG 3002/3003 30010KT 9999 SKC QNH2984INS TX18/2922Z TN10/3012Z LAST NO AMDS AFT 2922 NEXT 3012", "KBAF 300536Z 3006/0106 03007KT 5SM -DZ BR OVC008 FM301800 04010G17KT 4SM -RA BR OVC008 FM302100 06011G21KT 2SM +RA BR OVC008 FM010300 08010G20KT 3SM +RA BR OVC003", "KBAM 300520Z 3006/0106 VRB04KT P6SM SCT250 FM301900 25010KT P6SM BKN250", "KBBD 300520Z 3006/0106 VRB03KT P6SM SKC FM301800 23010KT P6SM SKC", "KBBG 300520Z 3006/0106 33010G15KT P6SM SKC FM300700 30008KT P6SM SKC FM301400 31016G26KT P6SM SKC FM010100 31010KT P6SM SKC", "KBCB 301006Z 3010/0106 00000KT P6SM -SHRA SCT030 OVC070 TEMPO 3010/3014 5SM -SHRA BKN030 FM301400 VRB02KT P6SM -SHRA VCTS OVC018CB FM301700 28006KT P6SM VCTS BKN022CB FM302000 29013G22KT P6SM BKN035", "KBCE 300525Z 3006/0106 27006KT P6SM SCT200 FM301700 19008KT P6SM FEW200 FM302000 24008G18KT P6SM FEW200 FM010300 28006KT P6SM SCT200", "KBDL 300812Z 3008/0112 01007KT 3SM -DZ BR OVC008 FM301800 05008KT 3SM -RA BR OVC008 FM302100 07011G22KT 2SM +RA BR OVC008 FM010600 15009KT 3SM -RA BR OVC008 FM010800 21009KT P6SM VCSH BKN025 FM011000 24009KT P6SM BKN035", "KBDN 300520Z 3006/0106 32008KT P6SM SCT080 SCT250 FM300800 VRB06KT P6SM FEW040 SCT080 SCT250 FM301900 32012G22KT P6SM BKN100 FM010400 33009KT P6SM BKN100", "KBDR 300837Z 3009/0106 07010KT 3/4SM -RADZ BR OVC004 FM301400 08011KT 1SM -RADZ BR OVC004 FM301500 08012KT 2SM -RA BR OVC004 FM302100 10019KT 2SM RA BR OVC004 PROB30 3021/0103 TSRA BKN004CB FM010300 13012KT 2SM -RA BR OVC004", "KBED 300536Z 3006/0106 09012KT 3SM RA BR OVC008 FM300900 08009KT 2SM -RA BR OVC003 FM301400 08012KT 3/4SM -RA BR OVC003 FM302200 09016KT 1 1/2SM -RA BR OVC003 WS020/12045KT FM010000 10018G26KT 2SM +RA BR OVC003 WS020/12060KT", "KBFD 300925Z 3009/0106 15009KT P6SM VCSH OVC007 FM301400 15007KT 3SM SHRA OVC008 FM302000 27006KT 2SM SHRA OVC004", "KBFF 300520Z 3006/0106 06007KT P6SM BKN100 FM301800 34011KT P6SM FEW250 FM302300 04008KT P6SM SCT100", "KBFI 300531Z 3006/0106 20004KT P6SM FEW150 SCT250 FM301200 17006KT P6SM BKN120 FM301400 17006KT P6SM BKN045 FM301900 22006KT P6SM BKN050 OVC070 FM010200 20005KT P6SM OVC045", "KBFL 300520Z 3006/0106 VRB04KT P6SM BKN250 FM301800 30010KT P6SM BKN250", "KBFM 301011Z 3010/0106 30008KT P6SM BKN015 FM301400 30011KT P6SM FEW050 SCT250", "KBGM 300532Z 3006/0106 15009KT 6SM BR OVC008 FM300700 13008KT 4SM -SHRA BR OVC005 TEMPO 3009/3013 2SM RA BR OVC003 FM301400 11013G22KT 2SM SHRA BR OVC006 FM302200 10009KT 2SM SHRA BR OVC007 WS020/13040KT FM010300 29013G22KT 2SM SHRA BR OVC007", "KBGR 300534Z 3006/0106 13005KT P6SM BKN060 FM301200 11010G18KT P6SM VCSH OVC045 FM301600 11012G22KT 6SM BR VCSH OVC030 FM302200 10018G30KT 5SM -RA BR OVC022 WS020/11045KT FM010000 10021G37KT 6SM -RA BR OVC019 WS020/11045KT FM010500 10026G42KT 4SM -RA BR OVC009 WS019/11045KT", "KBHB 300534Z 3006/0106 11006KT P6SM BKN009 FM301100 10009KT P6SM OVC040 FM301200 10011G21KT P6SM OVC040 FM301800 10016G30KT 6SM BR VCSH OVC020 FM302300 10022G39KT 6SM -RA BR OVC019 WS020/11055KT FM010500 10027G44KT 3SM -RA BR OVC006 WS020/11055KT", "KBHM 301004Z 3010/0106 32008KT 6SM SHRA BR OVC015 TEMPO 3010/3012 BKN006 FM301200 31010KT P6SM BKN060 FM302000 29018G28KT P6SM SKC FM010300 28007KT P6SM SCT100", "TAF KBIF 292200Z 2922/0104 VRB06KT 9999 SKC QNH2989INS BECMG 3022/3023 26010G15KT 9999 SKC 510083 QNH2984INS BECMG 0102/0103 VRB06KT 9999 SKC 510083 QNH2985INS TX32/3020Z TN09/3011Z", "KBIH 300520Z 3006/0106 35009KT P6SM BKN200 FM301400 VRB05KT P6SM BKN200 FM301700 17008KT P6SM BKN200 FM302000 18012G20KT P6SM BKN200 FM010100 23012G20KT P6SM SCT250 FM010400 35010KT P6SM SCT250", "KBIL 300520Z 3006/0106 05006KT P6SM FEW200 FM301600 10010KT P6SM FEW100 SCT200", "KBIS 300520Z 3006/0106 34008KT P6SM SKC FM301500 35012KT P6SM FEW050", "TAF AMD KBIX 292100Z 2921/0100 16009KT 9999 SCT016 BKN200 QNH2967INS TEMPO 2918/2923 24018G25KT 3200 -TSRA BKN005 OVC015CB BECMG 3002/3003 28012KT 9000 -SHRA SCT022 QNH2966INS BECMG 3004/3005 27015KT 9999 NSW BKN015 QNH2965INS BECMG 3009/3010 30015KT 9000 BR SCT008 QNH2967INS BECMG 3013/3014 31015G20KT 9999 NSW SCT016 QNH2978INS BECMG 3019/3020 30020G25KT 9999 SKC QNH2979INS BECMG 3023/3024 29009KT 9999 SKC QNH2979INS TX26/2921Z TN16/3012Z LAST NO AMDS AFT 2921 NEXT 3012", "KBJC 300520Z 3006/0106 33006KT P6SM SCT110 SCT220 FM301700 08007KT P6SM SCT100 BKN220 FM302000 05009KT P6SM BKN100 BKN220 FM010300 VRB04KT P6SM SCT100 SCT220", "KBJI 300520Z 3006/0106 34013KT P6SM SCT040 FM301400 34015G22KT P6SM BKN030 FM301700 35018G28KT P6SM BKN035", "KBKE 300540Z 3006/0106 VRB04KT P6SM SKC FM301800 17011KT P6SM FEW250", "TAF KBKF 300900Z 3009/0115 VRB06KT 9999 SKC QNH2996INS TX17/0100Z TN04/3012Z", "KBKW 300838Z 3009/0106 17004KT 6SM SHRA BKN040 TEMPO 3009/3012 1SM BR BKN025 FM301200 18004G10KT 3SM SHRA OVC006 FM301700 29008G15KT P6SM VCTS OVC016CB FM302000 29013G21KT P6SM BKN040 FM010200 28014G22KT P6SM VCSH SCT060", "KBLF 301003Z 3010/0106 28004KT P6SM -SHRA SCT010 OVC060 TEMPO 3010/3012 6SM -SHRA BR OVC012 FM301200 VRB03KT 5SM -SHRA BR VCTS BKN027CB FM301600 29010KT P6SM -SHRA VCTS BKN022CB FM301700 29011KT P6SM VCTS BKN022CB FM302200 29014G24KT P6SM BKN060", "KBLH 300520Z 3006/0106 18006KT P6SM SCT250 FM302000 18015G25KT P6SM SCT250", "KBLI 300531Z 3006/0106 19007KT P6SM FEW250 FM301100 18009G15KT P6SM SCT200 FM301500 19010G16KT P6SM BKN045 FM302000 19008KT P6SM BKN045 OVC070 FM010300 VRB04KT P6SM OVC050", "TAF KBLV 300800Z 3008/0114 29009KT 9999 BKN050 QNH2962INS BECMG 3012/3013 31012G25KT 9999 SCT020 BKN050 QNH2963INS BECMG 3017/3018 31020G35KT 9999 SCT020 BKN050 QNH2962INS BECMG 0104/0105 30012G25KT 9999 BKN050 QNH2960INS BECMG 0112/0113 30020G30KT 9999 OVC030 QNH2963INS TX14/3020Z TN06/3011Z", "KBMG 300908Z 3009/0106 29007KT P6SM SCT018 BKN030 TEMPO 3009/3011 BKN018 FM301400 27008KT P6SM BKN035 FM302100 28017G28KT 6SM -SHRA BR OVC060 FM010000 28017G27KT P6SM BKN022", "KBMI 300633Z 3007/0106 26009KT P6SM BKN006 FM300800 27008KT P6SM SCT060 FM301300 30015G22KT P6SM BKN060 FM301600 29020G30KT P6SM VCSH OVC030 FM302000 29022G33KT P6SM VCSH OVC018 FM010200 29020G30KT P6SM OVC022", "KBNA 300521Z 3006/0106 32005KT P6SM BKN080 FM301000 31010KT P6SM BKN015 FM301400 30015G25KT P6SM FEW030 SCT060 FM301800 29016G26KT P6SM VCSH BKN060", "KBNO 300540Z 3006/0106 VRB05KT P6SM SKC FM301800 17009KT P6SM FEW200", "KBOI 300540Z 3006/0106 13007KT P6SM SKC FM301500 VRB04KT P6SM FEW250 FM010300 08008KT P6SM VCSH BKN150", "KBOS 300809Z 3008/0112 09014KT 4SM -RA BR OVC010 FM301000 09013KT 3SM -RA BR OVC008 FM301200 09013KT 1 1/2SM -RA BR OVC003 FM301500 08016KT 3/4SM -RA BR OVC003 FM010000 11023G31KT 1SM +RA BR OVC003 WS020/12060KT FM010500 12017G25KT 2SM RA BR OVC003 WS020/17040KT FM010800 15013G20KT 3SM BR VCSH OVC003 FM011000 19012G20KT 5SM BR BKN008", "KBPI 300520Z 3006/0106 VRB06KT P6SM SCT250 FM302100 30012G18KT P6SM SCT250 FM010200 32008KT P6SM SCT250", "KBPK 300521Z 3006/0106 VRB03KT P6SM SKC WS020/30040KT FM300800 31004KT P6SM SKC FM301500 31011G24KT P6SM SKC FM010000 31005KT P6SM SKC", "KBPT 300520Z 3006/0106 30008KT P6SM SKC", "KBRD 300532Z 3006/0106 34012G20KT P6SM BKN070 FM301100 34019G31KT P6SM VCSH BKN025 FM301600 35020G32KT P6SM VCSH OVC050 FM010000 35021G33KT P6SM BKN080", "KBRL 300520Z 3006/0106 29008KT P6SM SCT090 FM301400 30018G30KT P6SM SCT060 TEMPO 3016/3020 -SHRA OVC025 FM302000 31019G33KT P6SM OVC025 FM302100 31019G33KT P6SM OVC035", "KBRO 300531Z 3006/0106 15003KT P6SM SKC FM301500 23006KT P6SM SKC FM302200 14008KT P6SM SKC", "KBTL 300813Z 3008/0106 25005KT P6SM BKN015 OVC025 FM300900 25005KT P6SM VCSH OVC020 FM301700 26011G19KT P6SM -SHRA BKN035 FM010000 26006KT 4SM -RA BR OVC025 FM010500 27007KT 4SM -RA BR OVC007", "KBTM 300520Z 3006/0106 18005KT P6SM SKC FM302000 16008KT P6SM SKC", "KBTR 300520Z 3006/0106 29010G20KT P6SM SCT025 BKN070 FM300800 30009KT P6SM SKC FM010200 23005KT P6SM SKC", "KBTV 300938Z 3010/0106 VRB05KT P6SM OVC040 WS020/14040KT FM301300 14014G21KT P6SM BKN080 FM302000 12013G21KT P6SM VCSH OVC090 FM302200 12013G20KT 6SM -SHRA BR OVC060 FM010000 11012G19KT 5SM -SHRA BR OVC040 WS020/12045KT", "KBUF 300836Z 3009/0106 15009KT P6SM FEW040 SCT150 FM301400 15009KT P6SM VCSH OVC025 FM301800 14012G21KT 4SM RA BR OVC015 FM302100 22012G19KT 4SM RA BR OVC007 FM010200 25015KT P6SM OVC012 FM010500 24015KT P6SM BKN045", "KBUR 300906Z 3009/0106 13005KT 6SM BR OVC007 FM301600 15005KT 6SM HZ SCT200 FM302000 15010KT P6SM SCT200 FM010400 13005KT P6SM SKC", "KBVI 300536Z 3006/0106 14003KT P6SM BKN050 FM301300 23008KT 5SM -SHRA BR OVC015 FM301900 29010G18KT P6SM OVC015 FM302200 26010KT P6SM BKN040 FM010500 23012KT P6SM VCSH OVC025", "KBVO 300530Z 3006/0106 VRB04KT P6SM FEW120 FM301600 35011G17KT P6SM SCT120 FM010000 34005KT P6SM SKC", "KBWG 300520Z 3006/0106 21004KT P6SM BKN070 FM300900 31012KT P6SM BKN080 TEMPO 3011/3014 SCT015 OVC022 FM301500 28015G25KT P6SM BKN060 PROB30 3018/3023 28020G30KT 4SM -SHRA BR OVC050 FM010300 25013KT P6SM BKN100", "KBWI 300915Z 3009/0112 07007KT P6SM OVC006 FM301200 06005KT 6SM -SHRA BR OVC005 FM301400 05007KT 2SM SHRA BR OVC005 FM302000 01006KT 3SM SHRA VCTS OVC010CB FM010000 29016G29KT P6SM OVC035 FM010200 29014G24KT P6SM BKN090 FM010500 28008G16KT P6SM FEW200", "KBYI 300520Z 3006/0106 VRB05KT P6SM SCT100 FM302000 11009KT P6SM FEW090 SCT200 FM010100 09009KT P6SM VCSH SCT080 BKN200", "KBZN 300533Z 3006/0112 VRB06KT P6SM FEW150 FEW250 FM010300 11012G20KT P6SM FEW150 FEW250", "KCAE 300810Z 3008/0106 VRB05KT P6SM -SHRA SCT005 OVC010 TEMPO 3008/3012 2SM BR BKN003 FM301200 22008KT P6SM -SHRA SCT005 OVC010 FM301500 24012G22KT P6SM OVC025 FM301900 29014G25KT P6SM SCT045", "KCAK 300529Z 3006/0106 20005KT P6SM SCT030 BKN100 FM301100 18004KT 5SM -SHRA BKN023 FM301300 19008KT 5SM -SHRA BR BKN009 FM301800 30012KT P6SM BKN014 FM302300 27008KT P6SM SCT060 FM010500 24010KT P6SM BKN008", "KCAR 300534Z 3006/0106 14006KT P6SM BKN090 FM301000 14007KT P6SM BKN080 FM301800 14011G21KT P6SM VCSH BKN040 FM010000 12011G21KT P6SM BKN060 FM010300 11014G26KT P6SM OVC050 FM010500 10016G29KT P6SM BKN040", "KCDC 300525Z 3006/0106 16005KT P6SM SCT200 FM301800 21012G20KT P6SM FEW200 FM010300 17009KT P6SM SCT200", "KCDR 300520Z 3006/0106 03006KT P6SM FEW100 FM301100 25007KT P6SM FEW100 FM301600 02007KT P6SM FEW250 FM302300 06007KT P6SM SKC", "KCDS 300520Z 3006/0106 30011KT P6SM SKC FM301900 08011KT P6SM SKC", "KCEC 300537Z 3006/0106 20004KT 6SM BR OVC008 FM300900 16004KT 2SM -DZ BR OVC004 FM301700 22007KT 6SM BR OVC010 FM302000 20008KT P6SM SCT015 FM010300 VRB04KT 4SM -DZ BR BKN007 OVC015", "TAF KCEF 291714Z 2917/3023 08012KT 9999 -RA BKN055 OVC065 620609 510009 QNH2998INS TEMPO 2917/2918 11012G18KT TEMPO 2918/2922 11020G30KT 520009 BECMG 2923/2924 08009KT 8000 -RA BR SCT015 OVC030 620804 510108 QNH2991INS BECMG 3002/3003 06007KT 3200 -RA BR SCT008 OVC010 WS020/12030KT 620804 QNH2977INS BECMG 3014/3015 07010G15KT 4800 -DZ BR OVC010 510002 540204 520603 QNH2968INS BECMG 3019/3020 08009KT 6000 -SHRA BR OVC007 540103 520407 QNH2935INS TX13/2919Z TN08/3010Z LAST NO AMDS AFT 2923 NEXT 3012", "KCGI 300809Z 3008/0106 32008KT P6SM SKC FM301400 32012KT P6SM SCT040 FM301600 30016G25KT P6SM BKN050 FM010100 29012KT P6SM SCT150", "KCHA 300537Z 3006/0106 VRB03KT P6SM VCSH BKN080 FM301100 31007KT P6SM BKN050 FM301500 30015G30KT P6SM SCT070 FM010200 30007KT P6SM SKC", "KCHO 300927Z 3009/0106 12005KT 6SM SHRA BR SCT003 OVC030 TEMPO 3010/3012 2SM TSRA BKN010CB FM301200 07006KT 2SM SHRA BR VCTS OVC004CB FM301700 35004KT 3SM SHRA BR OVC008 FM302100 27008KT P6SM BKN050", "KCHS 300654Z 3007/0106 19008KT P6SM VCSH SCT007 OVC045 TEMPO 3007/3008 4SM -SHRA BR FM301100 22013G23KT 6SM -SHRA BKN025 TEMPO 3011/3013 4SM -SHRA BR FM301300 25015G25KT P6SM BKN050 FM301600 25017G28KT P6SM VCSH BKN060 FM301900 26022G32KT P6SM SCT060 FM010000 27008KT P6SM FEW250", "KCID 300520Z 3006/0106 30009KT P6SM BKN070 FM301000 30013G25KT P6SM SCT100 FM301300 30018G30KT P6SM BKN030 FM301500 31021G33KT P6SM -SHRA OVC020 FM302100 32024G36KT P6SM OVC025", "KCIU 300726Z 3007/0106 09009KT 6SM -RA OVC003 FM301200 16007KT P6SM VCSH OVC002 FM010000 30008KT 4SM -SHRA BR OVC008", "KCKB 301008Z 3010/0106 10003KT P6SM VCSH BKN040 TEMPO 3010/3012 5SM BR FM301200 16003KT 5SM -RA OVC028 FM301800 27009G16KT P6SM VCTS OVC014CB FM302200 28011G18KT P6SM BKN050 FM010300 26013G19KT P6SM VCSH SCT080", "KCKV 300935Z 3010/0106 34013KT P6SM SCT015 FM301100 31014KT P6SM BKN012 FM301300 30015G25KT P6SM FEW025 SCT060 FM301700 29017G27KT P6SM VCSH BKN060 FM302000 29020G30KT P6SM SCT060", "KCLE 300903Z 3009/0112 00000KT P6SM BKN019 BKN024 OVC100 FM301200 VRB02KT 5SM -SHRA BR BKN014 FM301600 30010KT P6SM BKN008 FM302100 28008KT P6SM SCT035 FM010500 24011G19KT P6SM BKN013", "KCLL 300520Z 3006/0106 VRB03KT P6SM SKC FM301500 23007KT P6SM SKC FM010000 18007KT P6SM SKC", "KCLM 300531Z 3006/0106 27009KT P6SM SCT250 FM301400 29006KT P6SM BKN120 FM301700 32006KT P6SM BKN050 OVC080 FM010100 28008KT P6SM OVC050", "KCLT 300933Z 3010/0112 14005KT 6SM -SHRA BR FEW004 OVC100 TEMPO 3010/3012 3SM SHRA BR BKN004 BKN025 OVC090 FM301200 35006KT 6SM SHRA BR OVC009 FM301500 32008KT P6SM -SHRA OVC015 FM301700 28009KT P6SM BKN045 PROB30 3019/3021 4SM TSRA BR OVC025CB FM302100 28012G23KT P6SM SCT200", "KCMA 300535Z 3006/0106 VRB03KT 4SM BR OVC003 FM301200 VRB03KT 4SM BR OVC008 FM301600 VRB03KT P6SM OVC012 FM301900 24008KT P6SM SCT015 FM010100 24008KT 4SM BR OVC008 FM010400 VRB03KT 4SM BR OVC003", "KCMH 300530Z 3006/0106 20006KT P6SM VCSH BKN050 FM300900 23006KT 6SM BR VCSH BKN012 TEMPO 3011/3014 5SM -SHRA OVC008 FM301500 26010KT P6SM BKN022 FM301700 28012G19KT P6SM BKN040 FM301900 28014G21KT P6SM VCSH BKN050 TEMPO 3020/3024 -SHRA OVC050 FM010000 27015G23KT P6SM VCSH BKN050 FM010400 25015G25KT 5SM -SHRA BR OVC018", "KCMI 300520Z 3006/0106 28010KT P6SM SCT050 FM300900 28011KT P6SM BKN100 FM301500 28018KT P6SM VCSH BKN045 FM301800 28022G32KT P6SM VCSH OVC030 FM010300 29020G30KT P6SM OVC035", "KCMX 300540Z 3006/0106 01015G25KT 4SM -RA BR OVC005 FM301700 36015G29KT 2SM -RA BR OVC004 FM301900 36015G29KT 1 1/2SM -RA BR OVC004 FM302100 36015G30KT 2SM -RASN BR OVC004 FM010100 35015G33KT 2SM -RA BR OVC003 FM010200 35016G36KT 2SM -RASN BR OVC004", "KCNM 300520Z 3006/0106 21009KT P6SM SKC FM301800 26013G23KT P6SM SKC", "KCNU 300520Z 3006/0106 33006KT P6SM SKC FM301500 34019G29KT P6SM SCT250 FM010100 33010KT P6SM SCT250", "KCNY 300520Z 3006/0106 VRB03KT P6SM FEW250", "KCOD 300520Z 3006/0106 VRB06KT P6SM SCT250", "KCOE 300520Z 3006/0106 06006KT P6SM FEW100 FEW250 FM301400 06009KT P6SM FEW100 FEW250 FM302200 25006KT P6SM FEW100 FEW250 FM010300 15006KT P6SM FEW100 BKN250", "KCON 300906Z 3009/0106 09009KT 3SM -SHRA BR OVC010 FM301500 08012G20KT 4SM -RA BR OVC005 FM302200 09015G25KT 2SM RA BR OVC005 WS020/12045KT", "KCOS 300529Z 3006/0106 02007KT P6SM FEW110 SCT250 FM300800 36010KT P6SM SCT250 FM301800 12010KT P6SM SCT100 SCT200 FM010200 09005KT P6SM FEW200", "KCOT 300520Z 3006/0106 VRB04KT P6SM SKC FM302100 16008KT P6SM SKC", "KCOU 300520Z 3006/0106 28007KT P6SM SKC FM301400 31015G25KT P6SM FEW090 FM301800 31020G32KT P6SM SCT060 FM010200 31012G22KT P6SM SCT070", "KCPR 300520Z 3006/0106 03009KT P6SM SCT250", "KCPS 300520Z 3006/0106 29007KT P6SM SKC FM301400 30014G24KT P6SM BKN060 FM301800 29018G28KT P6SM BKN060 FM010200 29012G22KT P6SM SCT060", "KCRE 300539Z 3006/0106 19011KT P6SM -SHRA SCT015 OVC070 TEMPO 3006/3010 4SM SHRA BR BKN015 OVC030 FM301000 20013G20KT P6SM -SHRA VCTS BKN020 OVC030CB TEMPO 3011/3015 VRB25G40KT 3SM TSRA BR BKN015 OVC025CB FM301600 22020G32KT P6SM VCSH BKN025 FM302200 26013G20KT P6SM SCT250", "KCRG 300810Z 3008/0106 20012KT P6SM VCSH SCT030 BKN040 TEMPO 3009/3011 VRB30G45KT 1SM +TSRA BR BKN010 BKN020CB OVC070 FM301200 24016G26KT P6SM VCSH SCT015 BKN030 FM301700 27016G30KT P6SM SCT035", "KCRP 300520Z 3006/0106 VRB05KT P6SM SKC FM301800 16010KT P6SM SKC TEMPO 3018/3022 16010G16KT", "KCRQ 300520Z 3006/0106 20003KT P6SM OVC009 FM301100 00000KT P6SM OVC008 FM301700 22005KT P6SM OVC010 FM302100 22008KT P6SM BKN015 FM010200 20007KT P6SM OVC018", "KCRW 300838Z 3009/0106 00000KT P6SM VCSH BKN060 FM301300 25008KT P6SM VCSH OVC024 FM301700 27010G17KT P6SM TSRA BKN035CB FM302000 28012G19KT P6SM BKN060 FM010100 27012G20KT P6SM VCSH SCT080", "KCSG 300909Z 3009/0106 29010G18KT P6SM BKN015 OVC050 FM301130 30012G20KT 4SM -RA BR OVC015 FM301400 31015G25KT P6SM BKN025 OVC050 FM301700 29022G30KT P6SM FEW050 FM010000 27008KT P6SM SKC", "KCSM 300520Z 3006/0106 33006KT P6SM SKC FM301500 06012G19KT P6SM BKN150 FM010100 07007KT P6SM SCT150", "KCSV 301003Z 3010/0106 30005KT P6SM SCT029 BKN040 FM301400 30015G25KT P6SM SCT020 FM301900 29017G27KT P6SM VCSH BKN050", "KCTB 300533Z 3006/0106 13011KT P6SM FEW150 FEW250", "KCUB 300810Z 3008/0106 VRB03KT P6SM -SHRA SCT005 OVC015 TEMPO 3008/3012 3SM BR BKN003 FM301200 22008KT P6SM -SHRA SCT005 OVC010 FM301500 24012G22KT P6SM OVC025 FM301900 29014G25KT P6SM SCT045", "KCVG 300854Z 3009/0112 30011KT P6SM VCSH BKN012 FM301300 29011G17KT P6SM BKN022 FM301600 28014G22KT P6SM VCSH BKN050 TEMPO 3018/3022 -SHRA OVC050 FM302200 27015G24KT P6SM VCSH BKN050 FM010300 26013G22KT P6SM VCSH OVC018", "TAF KCVS 301000Z 3010/0116 VRB06KT 9999 SKC QNH2997INS BECMG 3014/3015 26012KT 9999 SKC QNH2997INS BECMG 3016/3017 32012G22KT 9999 SKC QNH2991INS BECMG 3020/3021 03010G20KT 9999 SKC QNH2984INS BECMG 0102/0103 10012KT 9999 SKC QNH2994INS TX29/3022Z TN06/3012Z", "KCWA 301008Z 3010/0106 31010KT 6SM -SHRASN BKN007 OVC012 FM301600 34012G22KT 3SM -RA OVC007 FM302100 33014G25KT 5SM -RA OVC010 FM010000 33014G25KT 5SM -RASN OVC015", "KCXO 300520Z 3006/0106 VRB03KT P6SM SKC FM301500 25007KT P6SM SKC FM010100 19007KT P6SM SKC", "KCXP 300520Z 3006/0106 VRB06KT P6SM FEW110 FEW250 FM301800 22013G23KT P6SM FEW110 SCT250 FM010300 23009KT P6SM SCT090 BKN250", "KCYS 300520Z 3006/0106 01008KT P6SM FEW100 SCT250 FM301800 03012G19KT P6SM BKN100 FM010000 15008KT P6SM SCT100", "KDAB 300539Z 3006/0106 20007KT P6SM BKN110 WS015/22040KT FM300900 18016KT P6SM VCTS BKN015 OVC025CB TEMPO 3009/3012 VRB25G35KT 2SM +TSRA BKN010 OVC020CB FM301400 24018G27KT P6SM SCT020 BKN035 FM301800 26020G30KT P6SM SCT060 FM010000 26010KT P6SM SKC", "KDAG 300843Z 3009/0106 28010KT P6SM FEW250 FM301900 27018G26KT P6SM SCT250 FM010100 25025G35KT P6SM SCT250", "KDAL 300901Z 3009/0106 25005KT P6SM SKC FM301600 35006KT P6SM FEW250 FM010500 06007KT P6SM SCT180", "KDAN 301002Z 3010/0106 VRB04KT P6SM VCSH SCT015 OVC050 TEMPO 3010/3013 5SM -SHRA BR OVC012 FM301300 VRB02KT 3SM -SHRA BR VCTS BKN006CB FM301600 VRB03KT 5SM -SHRA BR VCTS OVC009CB FM301700 VRB04KT P6SM VCTS OVC009CB FM302000 28007KT P6SM BKN035", "KDAY 300839Z 3009/0106 24005KT P6SM VCSH BKN025 TEMPO 3009/3011 30011KT 4SM -SHRA SCT005 OVC015 FM301300 29010G17KT P6SM BKN022 FM301600 28013G20KT P6SM VCSH BKN040 TEMPO 3018/3022 -SHRA OVC050 FM302200 27017G26KT P6SM VCSH BKN050 FM010200 26015G25KT 5SM -SHRA BR OVC018", "KDBQ 300520Z 3006/0106 29009KT P6SM SCT060 FM301200 30016G27KT P6SM BKN020 FM301300 30017G29KT 6SM -SHSNRA BR OVC011 FM301500 31020G32KT 6SM -SHRA OVC009 FM302100 32022G35KT P6SM -SHRA OVC011", "KDCA 300915Z 3009/0112 05005KT P6SM VCSH OVC010 FM301100 05005KT 4SM -SHRA BR OVC008 FM301400 06006KT 2SM SHRA BR OVC006 FM301900 02008KT 4SM SHRA VCTS OVC015CB FM302300 32018G29KT P6SM BKN035 FM010200 28014G24KT P6SM SCT120 FM010500 24009G18KT P6SM FEW200", "KDDC 300520Z 3006/0106 34007KT P6SM SCT200 FM300900 34007KT P6SM BKN100 FM301500 36013G23KT P6SM SCT100 SCT200 FM302100 36012KT P6SM SCT200 FM010000 05005KT P6SM SKC", "KDEC 300719Z 3007/0106 27009KT P6SM BKN009 FM300900 29011KT P6SM BKN100 FM301500 29017G26KT P6SM VCSH OVC045 FM301900 29021G30KT P6SM VCSH OVC030 FM010200 29019G28KT P6SM OVC035", "KDEN 300830Z 3009/0112 09008KT P6SM SCT110 SCT220 FM301000 VRB05KT P6SM FEW110 SCT220 FM301500 10007KT P6SM FEW110 SCT220 FM301900 07010KT P6SM BKN100 BKN220 FM010300 13008KT P6SM SCT100 SCT220 FM010600 21008KT P6SM FEW220", "KDET 300540Z 3006/0106 24008KT P6SM BKN045 TEMPO 3007/3010 3SM BR FM301000 23008KT 5SM -RA BKN010 OVC035 FM301600 25010KT P6SM OVC040 FM302100 25010KT 5SM -SHRA OVC025 FM010500 25010KT P6SM BKN015", "KDFW 300901Z 3009/0112 25005KT P6SM SKC FM301600 35006KT P6SM FEW250 FM010500 06007KT P6SM SCT180", "KDHN 300800Z 3008/0106 27015G25KT P6SM VCSH SCT012 BKN030 FM301300 28016G22KT P6SM SCT040 FM010200 27009KT P6SM SKC", "KDHT 300520Z 3006/0106 VRB05KT P6SM SKC FM301500 06012KT P6SM SKC FM302300 09009KT P6SM FEW250", "KDIJ 300520Z 3006/0106 13005KT P6SM SCT090 AMD LTD TO CLD VIS AND WIND", "KDIK 300520Z 3006/0106 02008KT P6SM SKC", "KDLH 300716Z 3007/0106 34013G28KT 4SM -SN BR BKN015 OVC025 TEMPO 3007/3011 1 1/2SM -SN BR OVC009 FM301100 34022G34KT 5SM -RASN BR OVC013 FM301900 34022G36KT 4SM -RA BR OVC015 FM010000 34022G36KT P6SM VCSH OVC024", "KDLS 300520Z 3006/0106 29015KT P6SM FEW250 FM301100 31010G20KT P6SM SCT080 BKN250 FM301800 32020G30KT P6SM BKN100 FM010300 30011G21KT P6SM BKN100", "TAF KDMA 300601Z 3006/0112 VRB06KT 9999 SKC QNH2989INS TEMPO 3021/0102 27012KT SCT210 TX35/3022Z TN15/3012Z", "KDMN 300528Z 3006/0106 VRB05KT P6SM SKC FM301900 24010G19KT P6SM FEW250 FM010200 29008KT P6SM FEW250", "KDNL 300810Z 3008/0106 VRB05KT P6SM -SHRA SCT005 OVC025 TEMPO 3008/3012 3SM BR BKN005 FM301200 22008KT P6SM -SHRA SCT005 OVC010 FM301400 24012G22KT P6SM OVC025 FM301800 29014G25KT P6SM SCT045", "TAF AMD KDOV 300859Z 3008/0114 12009KT 9999 OVC002 510103 QNH2955INS TEMPO 3010/3012 8000 -SHRA BECMG 3011/3012 12012G20KT 2400 +RA OVC005 540105 QNH2939INS BECMG 3015/3016 12015G25KT 3200 RA OVC010 540105 QNH2900INS TEMPO 3020/3022 2400 -TSRA OVC010CB BECMG 3021/3022 19012G20KT 3200 RA OVC010 540105 QNH2895INS TEMPO 3022/0102 2400 -TSRA OVC010CB BECMG 0101/0102 26015G25KT 4800 -SHRA OVC020 540205 QNH2908INS BECMG 0105/0106 26012KT 9999 NSW BKN040 520103 QNH2926INS BECMG 0111/0112 22012G20KT 9999 BKN040 QNH2939INS TX19/3020Z TN12/0108Z", "KDPA 300834Z 3009/0106 27008KT P6SM BKN060 FM301600 28014G22KT 5SM -SHRA OVC018 TEMPO 3020/3024 2SM SHRA OVC010 FM010100 29013G22KT P6SM VCSH OVC014", "KDRO 300520Z 3006/0106 VRB04KT P6SM SKC FM301800 24007KT P6SM FEW250 FM302100 27013G23KT P6SM FEW250 FM010200 32006KT P6SM SCT250", "KDRT 300522Z 3006/0106 VRB04KT P6SM SKC FM301700 15012KT P6SM SKC FM010300 12008KT P6SM SKC", "KDSM 300520Z 3006/0106 31011KT P6SM SCT045 BKN070 FM301500 32022G34KT P6SM BKN040 FM010000 32018G27KT P6SM BKN050", "KDTW 300851Z 3009/0112 23003KT P6SM SCT030 OVC060 FM300930 23006KT 5SM -SHRA SCT010 BKN028 OVC040 FM301400 25010KT P6SM BKN040 OVC100 FM302100 25010KT 5SM -SHRA BKN030 OVC060 FM010100 25008KT P6SM SCT020 BKN040 FM010500 25008KT 6SM -SHRA BKN020 OVC040", "KDUG 300520Z 3006/0106 08006KT P6SM SKC FM301700 21005KT P6SM SCT250 FM301900 24010KT P6SM BKN250 FM302100 25012G20KT P6SM BKN250 FM010200 27008KT P6SM BKN250", "KDUJ 300736Z 3008/0106 13003KT 5SM BR OVC004 FM301000 15008KT 4SM -RA BR OVC004 FM301200 26008KT 3SM -RA BR OVC008 FM010000 28010KT P6SM OVC025 FM010200 26010KT P6SM BKN040 FM010500 24012KT P6SM VCSH OVC025", "KDVL 300520Z 3006/0106 35017KT P6SM FEW024 BKN040 FM301400 34017G26KT P6SM BKN025 FM302300 34018G24KT P6SM SCT035", "KDVT 300520Z 3006/0106 04004KT P6SM SKC FM301200 11004KT P6SM SKC FM302100 23009KT P6SM SCT250", "TAF AMD KDYS 291645Z 2917/3020 34015G25KT 9999 SKC QNH3005INS BECMG 2920/2921 34012G18KT 9999 FEW120 QNH2996INS BECMG 3001/3002 VRB06KT 9999 SKC QNH2995INS BECMG 3008/3009 22009KT 9999 SKC QNH2993INS BECMG 3015/3016 22010G15KT 9999 FEW120 QNH2983INS TX24/2922Z TN12/3012Z LAST NO AMDS AFT 2922 NEXT 3013", "KEAR 300539Z 3006/0106 32008KT P6SM SKC FM301300 32016G22KT P6SM FEW200 FM301600 34023G34KT P6SM FEW050 FEW250 FM302300 34019G28KT P6SM FEW070 FEW250 FM010100 35013KT P6SM FEW070", "KEAT 300520Z 3006/0106 31007KT P6SM FEW100 FEW250 FM301800 28007KT P6SM SCT110 SCT250 FM010000 30013G23KT P6SM BKN100 BKN200", "KEAU 300713Z 3007/0106 31010KT P6SM -SHRA SCT020 OVC040 FM300900 31015G24KT 3SM -SN BR OVC007 FM301400 33018G33KT P6SM -SHRA OVC015", "KECG 300856Z 3009/0106 18010KT P6SM -SHRA SCT010 OVC030 FM301200 19012G20KT 5SM SHRA BR VCTS OVC025CB FM302000 21016G24KT 6SM SHRA BR OVC025 FM010400 27012KT P6SM BKN100", "KECP 300759Z 3008/0106 26010G18KT P6SM SCT025 BKN070 FM301600 30016G24KT P6SM SCT040 FM302000 27015G23KT P6SM SKC FM010300 24011KT P6SM SKC", "TAF AMD KEDW 291650Z 2916/3019 VRB06KT 9999 FEW250 QNH2998INS BECMG 2922/2923 24012G18KT 9999 FEW250 520009 QNH2990INS BECMG 3006/3007 22010KT 9999 FEW250 QNH2988INS BECMG 3017/3018 25012G30KT 9999 FEW250 530009 QNH2989INS TX34/2922Z TN14/3013Z LAST NO AMDS AFT 2917 NEXT 0113", "KEED 300520Z 3006/0106 24008KT P6SM SKC FM301000 VRB06KT P6SM SCT250 FM302100 20015G23KT P6SM SCT250 FM010300 20010KT P6SM SCT250", "KEET 300540Z 3006/0106 33007KT 6SM SHRA BR SCT015 OVC035 TEMPO 3006/3008 4SM SHRA BKN007 FM300800 32008KT 6SM SHRA BR SCT007 OVC015 TEMPO 3008/3012 4SM SHRA OVC007 FM301200 31010KT P6SM BKN060 FM302000 29016G26KT P6SM SKC FM010300 28007KT P6SM SCT100", "TAF KEFD 300400Z 3004/0110 VRB06KT 9999 SKC QNH2984INS TX26/3022Z TN12/3012Z", "KEFK 300526Z 3006/0106 17005KT P6SM -SHRA OVC060 WS020/14045KT FM301200 14010KT P6SM OVC035 FM301500 13014G22KT P6SM BKN080 FM302300 11017G26KT 6SM -SHRA BR OVC080 WS020/13050KT FM010100 11017G26KT 5SM -SHRA BR OVC050 WS020/13055KT", "KEGE 300520Z 3006/0106 09005KT P6SM FEW250 FM301000 VRB03KT P6SM SCT250 FM302000 25010G15KT P6SM SCT250 FM010200 24007KT P6SM FEW250 FM010400 00000KT P6SM FEW250", "TAF AMD KEGI 291356Z 2913/3015 36005KT 9999 BKN002 QNH2974INS BECMG 2914/2915 18006KT 9999 NSW FEW005 SCT015 QNH2969INS BECMG 2916/2917 14012G18KT 6000 -SHRA VCTS BKN007 BKN015CB QNH2960INS TEMPO 2917/2921 18020G40KT 3200 TSRA BKN005 OVC015CB BECMG 2922/2923 21010G20KT 9999 VCTS SCT007 BKN010CB QNH2954INS BECMG 3001/3002 23020G40KT 4800 TSRA BKN010CB QNH2945INS BECMG 3004/3005 27010G20KT 9999 NSW SCT012 BKN020 QNH2944INS BECMG 3009/3010 30010G20KT 9999 SCT025 SCT150 QNH2952INS TX25/2921Z TN16/3011Z LAST NO AMDS AFT 2914 NEXT 0109", "KEKN 300838Z 3009/0106 13004KT P6SM -SHRA BKN035 TEMPO 3009/3012 4SM -SHRA BR BKN020 FM301200 17003KT P6SM -SHRA OVC007 FM301800 29010G18KT P6SM VCTS OVC019CB FM010000 28010KT P6SM SCT050 FM010300 27011G22KT P6SM VCSH SCT045", "KEKO 300520Z 3006/0106 05004KT P6SM SCT250 FM301900 19010KT P6SM BKN250", "KEKS 300533Z 3006/0106 VRB06KT P6SM FEW150 FEW250", "KELD 300539Z 3006/0106 00000KT P6SM SKC FM301500 32006KT P6SM FEW250 FM010300 35003KT P6SM FEW250", "KELM 300532Z 3006/0106 12003KT P6SM OVC010 FM300800 12007G13KT 2SM SHRA BR OVC007 FM301900 11009G15KT 1 1/2SM SHRA BR OVC006 FM010300 29013G22KT 2SM SHRA BR OVC007", "KELP 300528Z 3006/0106 VRB05KT P6SM SKC FM302100 25010G18KT P6SM FEW250 FM010200 27008KT P6SM FEW250", "KELY 300520Z 3006/0106 VRB05KT P6SM SCT200 FM301900 19010G20KT P6SM SCT250 FM010200 18015KT P6SM SCT250", "KENV 300525Z 3006/0106 VRB05KT P6SM FEW150 SCT200 FM301700 11010KT P6SM SCT150 SCT200 FM010500 33005KT P6SM BKN220", "KENW 300919Z 3009/0106 26011KT P6SM BKN035 FM301100 26011G19KT P6SM VCSH BKN022 FM301400 27011G19KT P6SM VCSH OVC013 FM301600 27012KT 4SM -RA BR OVC009 FM302100 29012G20KT 2SM -RA BR OVC005 FM302300 30012G21KT P6SM VCSH OVC005", "KERI 300529Z 3006/0106 17009KT P6SM OVC100 FM301100 17007KT 5SM -SHRA BKN035 FM301200 16006KT 3SM -SHRA BR BKN013 FM301500 19009KT 3SM -SHRA BR BKN008 FM302300 25009KT 6SM BR BKN012 FM010500 23010KT P6SM FEW035", "KEUG 300520Z 3006/0106 24007KT P6SM FEW060 SCT250 FM300800 20006KT P6SM SCT015 FM301000 19005KT P6SM VCSH OVC015 FM301600 20005KT P6SM VCSH OVC025 FM302000 24007KT P6SM SCT025 BKN040", "KEUL 300540Z 3006/0106 VRB05KT P6SM FEW200 FM301500 14008KT P6SM FEW250 FM010300 10006KT P6SM VCSH BKN150", "KEVV 300811Z 3008/0106 33007KT P6SM VCSH BKN045 OVC080 FM301400 29012KT P6SM BKN030 FM301700 28017G26KT P6SM SHRA BKN045 PROB30 3017/3020 3SM TSRA BKN040CB FM302300 29017KT P6SM VCSH SCT070 FM010300 28016KT P6SM BKN090", "KEVW 300525Z 3006/0106 17006KT P6SM SCT180 FM301800 27009KT P6SM FEW120 FEW180 FM010300 09007KT P6SM FEW120 SCT200", "KEWN 300538Z 3006/0106 19008KT 6SM -SHRA VCTS OVC025CB FM300800 16006KT 6SM SHRA BR OVC015 TEMPO 3008/3012 4SM TSRA BR OVC008CB FM301300 19011KT 5SM -SHRA BR VCTS BKN008 OVC015CB FM301600 20012G21KT 6SM -RA BR OVC015 FM301900 21014G25KT P6SM VCTS SCT040CB FM010000 26010G18KT P6SM BKN100", "KEWR 300837Z 3009/0112 VRB04KT 3/4SM -DZ BR OVC004 FM301200 07007KT 3/4SM -RADZ BR OVC004 FM301500 08008KT 2SM -RA BR OVC004 FM302100 12014G23KT 2SM RA BR OVC004 PROB30 3021/0102 TSRA BKN004CB FM010200 19010KT 2SM RA BR OVC004 FM010500 25012KT 4SM -RA BR BKN004 FM010600 27013KT P6SM BKN013 FM010900 25012KT P6SM FEW045", "KEYW 300859Z 3009/0106 21021G30KT P6SM SCT025 BKN040 FM301300 27018G25KT P6SM VCTS BKN020CB TEMPO 3014/3016 27022G30KT 1SM +TSRA BKN015CB FM301700 31016G23KT P6SM SCT025", "TAF KFAF 300600Z 3006/0112 09006KT 9999 BKN007 OVC020 QNH2962INS BECMG 3008/3009 VRB06KT 3200 -SHRA BKN007 QNH2952INS TEMPO 3008/3012 18018G28KT 3200 -TSRA OVC007CB BECMG 3012/3013 15012G18KT 6000 RA BKN007 OVC015 520853 QNH2934INS TEMPO 3017/3023 16015G25KT 1600 -TSRA OVC007CB TEMPO 3020/3023 23020G30KT BECMG 3023/3024 26015G25KT 8000 -SHRA OVC020 510043 QNH2924INS BECMG 0104/0105 26012G20KT 8000 -SHRA BKN015 OVC030 510053 QNH2933INS BECMG 0105/0106 27015KT 9999 NSW BKN040 QNH2945INS TX21/3017Z TN11/0106Z LAST NO AMDS AFT 3006 NEXT 0110", "KFAR 300520Z 3006/0106 34016KT P6SM SCT035 FM301400 34017G25KT P6SM SCT035 FM301700 35018G33KT P6SM SCT035", "KFAT 300520Z 3006/0106 31010KT P6SM BKN250", "KFAY 300536Z 3006/0106 20005KT 6SM -SHRA BKN050 FM300900 17008KT 5SM -SHRA BKN012 FM301100 22012KT 5SM BR VCSH BKN007 FM301500 23010KT 4SM -SHRA BKN020 TEMPO 3015/3019 2SM -TSRA BKN015CB FM301900 28012G22KT P6SM SCT025 BKN050", "TAF AMD KFBG 300930Z 3009/0115 18006KT 9000 -RA BKN006 BKN011 QNH2926INS TEMPO 3012/3016 06010G20KT 6000 VCTS -RA BKN009 BECMG 3015/3016 05008KT 9999 NSW SCT015 BKN150 QNH2923INS TEMPO 3022/0102 8000 -RA BKN025 BECMG 0102/0103 29010G15KT 9999 NSW BKN055 QNH2940INS BECMG 0105/0106 29010KT 9999 SKC QNH2943INS TX24/3019Z TN10/0109Z", "TAF KFCS 290500Z 2905/3011 34009KT 9999 FEW100 QNH3020INS BECMG 2918/2919 01010G15KT 9999 FEW060 QNH3011INS BECMG 3000/3001 33009KT 9999 FEW060 QNH3012INS TX20/2922Z TN01/2912Z LAST NO AMDS AFT 2905 NEXT 0105", "KFDY 300529Z 3006/0106 22004KT 5SM BR SCT010 SCT070 FM300900 VRB02KT 3SM BR BKN035 FM301100 27008KT 3SM -SHRA OVC012 FM301300 28011KT P6SM BKN014 FM302100 26013G22KT P6SM SCT060 FM010500 25011KT 5SM -SHRA BKN012", "TAF AMD KFFO 300852Z 3008/0109 29009KT 9000 -SHRA SCT015 OVC025 610606 510073 QNH2940INS TEMPO 3009/3010 30015G25KT 6000 -SHRA BR BKN015 BECMG 3015/3016 27012KT 9999 NSW SCT025 QNH2938INS BECMG 3018/3019 27012G18KT 9999 VCSH BKN040 OVC070 610605 QNH2938INS TEMPO 3019/0101 25015G25KT 9000 -SHRA BKN015 OVC025 BECMG 0102/0103 26012G18KT 9999 VCSH OVC015 610408 QNH2939INS TX16/3021Z TN07/3011Z", "KFKL 300536Z 3006/0106 14003KT P6SM BKN040 FM301000 15008KT 5SM BR OVC015 FM301200 26008KT 3SM -RA BR OVC008 FM302200 28010G18KT P6SM OVC015 FM010200 26010KT P6SM BKN040 FM010500 24012KT P6SM VCSH OVC025", "KFLG 300520Z 3006/0106 VRB05KT P6SM SKC FM301700 24007KT P6SM SKC FM302000 22010G16KT P6SM SCT250 FM010400 23009KT P6SM SKC", "KFLL 300839Z 3009/0112 21010KT P6SM FEW030 BKN250 FM301200 26015G25KT P6SM VCTS SCT030CB BKN050 OVC250 TEMPO 3013/3016 VRB20G30KT 3SM TSRA BKN020CB FM302000 28011G21KT P6SM SCT030 BKN050 FM010200 27006KT P6SM FEW040 SCT100 SCT250", "KFLO 300549Z 3006/0106 17008KT P6SM -SHRA BKN015 OVC040 TEMPO 3006/3010 3SM SHRA BR BKN007 OVC015 FM301200 20010G17KT P6SM -SHRA BKN020 OVC030 TEMPO 3012/3016 VRB20G35KT 3SM TSRA BR BKN015 OVC030CB FM301600 23015G25KT P6SM VCSH BKN030 FM301900 26016G23KT P6SM BKN060 FM302300 28015G23KT P6SM SCT250", "KFMH 300536Z 3006/0106 11018G30KT 3SM -RA BR OVC008 FM300800 12018G27KT 1 1/2SM -RA BR OVC003 FM301400 13014G24KT 2SM BR VCSH OVC003 FM302000 12017G27KT 1 1/2SM RA BR OVC003 FM010200 15024G34KT 1 1/2SM +RA BR OVC003 WS020/18055KT", "KFMN 300532Z 3006/0106 VRB05KT P6SM SKC FM301800 29012G22KT P6SM FEW200 FM010200 31006KT P6SM FEW200", "KFMY 300540Z 3006/0106 20010KT P6SM BKN030 BKN100 WS010/18035KT FM301000 22016G26KT 6SM SHRA BKN025 TEMPO 3010/3012 VRB25G35KT TSRA BKN035CB OVC060 FM301300 28025G35KT P6SM OVC050 FM010000 29015KT P6SM FEW250", "KFNT 300540Z 3006/0106 23007KT P6SM SCT020 FM300700 25008KT P6SM OVC020 FM301100 23008KT 5SM -RA BKN010 OVC035 FM301600 25010KT P6SM OVC040 FM302100 25010KT P6SM VCSH OVC025 FM010000 25010KT P6SM BKN015", "KFOD 300520Z 3006/0106 32011G18KT P6SM SCT045 BKN070 FM301400 33018G27KT P6SM BKN035 FM301800 33022G33KT P6SM BKN040 FM010500 33015G23KT P6SM SCT100", "KFOE 300534Z 3006/0106 28007KT P6SM SKC FM301300 31017G27KT P6SM SKC FM301800 31021G34KT P6SM FEW250 FM010200 33013KT P6SM SKC", "KFPR 300539Z 3006/0106 19010G18KT P6SM SCT040 BKN200 FM301100 18016KT P6SM VCTS BKN015 OVC025CB TEMPO 3012/3015 3SM TSRA BKN010 OVC020CB FM301600 24018G27KT P6SM SCT020 BKN035 FM301800 26020G30KT P6SM SCT060 FM010000 26011KT P6SM SKC", "KFSD 300738Z 3008/0106 33013G21KT P6SM BKN019 FM301200 33016G29KT P6SM BKN030 FM301600 33021G33KT P6SM SCT050 FM010200 33018G29KT P6SM FEW250", "KFSM 300530Z 3006/0106 28005KT P6SM SKC FM301700 31014G22KT P6SM SCT120 FM010100 30005KT P6SM SKC", "KFST 300520Z 3006/0106 20009KT P6SM SKC FM301800 27012G22KT P6SM SKC", "KFTW 300901Z 3009/0106 25005KT P6SM SKC FM301600 35006KT P6SM FEW250 FM010500 06007KT P6SM SCT180", "KFTY 300929Z 3009/0106 VRB03KT 5SM -RA BR SCT015 OVC045 FM301100 33008KT 6SM -RA BR OVC045 FM301400 30015G25KT P6SM BKN045 FM301700 29020G28KT P6SM SCT050 FM010000 29012KT P6SM SKC", "KFVE 300534Z 3006/0106 14006KT P6SM BKN080 FM301200 14009KT P6SM OVC060 FM302200 13012G22KT P6SM BKN035 FM010300 11015G30KT P6SM BKN045", "KFWA 300548Z 3006/0106 24005KT P6SM VCSH SCT035 BKN060 TEMPO 3006/3010 5SM -SHRA BR SCT020 BKN030 FM301100 27007KT P6SM BKN050 FM301800 26015G25KT P6SM -SHRA SCT025 BKN050 TEMPO 0103/0106 4SM -SHRA BR SCT015 BKN025", "KFXE 300839Z 3009/0106 20010KT P6SM FEW030 BKN250 FM301200 26015G25KT P6SM VCTS SCT030CB BKN050 OVC250 TEMPO 3012/3015 VRB20G30KT 3SM TSRA BKN020CB FM302000 27012G22KT P6SM SCT030 BKN050 FM010200 26007KT P6SM FEW040 SCT100 SCT250", "KFYV 300530Z 3006/0106 35008KT P6SM SKC FM300700 VRB04KT P6SM SKC FM301700 33014G22KT P6SM FEW120 FM010100 30005KT P6SM SKC", "KGBD 300520Z 3006/0106 34006KT P6SM FEW200 FM300900 35009KT P6SM BKN150 FM301600 35017G26KT P6SM SCT200 FM010100 36007KT P6SM FEW250", "KGCC 300520Z 3006/0106 VRB05KT P6SM SCT250 FM301500 04005KT P6SM SCT250", "KGCK 300520Z 3006/0106 36007KT P6SM SCT200 FM301200 03012KT P6SM BKN100 FM301500 01014G24KT P6SM BKN150 FM302100 36012KT P6SM SCT200 FM010000 05009KT P6SM SKC", "KGCN 300520Z 3006/0106 VRB04KT P6SM SKC FM301800 24010G16KT P6SM FEW200 FM010300 23008KT P6SM SKC", "KGDV 300520Z 3006/0106 VRB05KT P6SM SKC FM302200 06007KT P6SM SKC", "KGEG 300520Z 3006/0106 07004KT P6SM FEW100 FEW250 FM301900 15010KT P6SM FEW100 FEW250 FM010200 19005KT P6SM FEW100 BKN250", "KGFK 300520Z 3006/0106 34015KT P6SM SCT050 FM301400 34016G26KT P6SM SCT025 FM301700 35022G30KT P6SM SCT035", "KGFL 300556Z 3006/0106 36003KT P6SM OVC035 FM300800 02005KT P6SM OVC025 FM301900 03006KT 6SM -RA BR OVC020 FM302300 03010KT 2SM RA BR OVC020 PROB30 0102/0104 5SM -RA BR OVC025 FM010400 01012KT 2SM RA BR OVC015", "KGGG 300539Z 3006/0106 27004KT P6SM SKC FM301500 29006KT P6SM SKC FM010000 VRB04KT P6SM SKC", "KGGW 300653Z 3007/0106 07009KT P6SM FEW100 WS009/13045KT FM301500 13011KT P6SM FEW200 FM010300 10010KT P6SM FEW140", "KGJT 300520Z 3006/0106 VRB04KT P6SM SKC FM301000 10007KT P6SM SKC FM301600 VRB04KT P6SM FEW250 FM302000 29008KT P6SM FEW250 FM010200 09006KT P6SM FEW250", "KGKY 300901Z 3009/0106 25005KT P6SM SKC FM301600 35006KT P6SM FEW250 FM010500 06007KT P6SM SCT180", "KGLD 300520Z 3006/0106 36004KT P6SM SCT100 FM300800 01009KT P6SM BKN100", "KGLH 300527Z 3006/0106 28009KT P6SM SKC FM301800 31015G18KT P6SM SKC", "KGLS 300520Z 3006/0106 30007KT P6SM SKC FM301600 26008KT P6SM SKC FM302100 21012KT P6SM SKC", "KGMU 300901Z 3009/0106 02003KT P6SM -SHRA BKN050 OVC090 TEMPO 3010/3013 2SM SHRA BR OVC008 FM301400 33005KT P6SM VCSH OVC020 FM301500 29008G15KT P6SM OVC035 PROB30 3018/3020 4SM TSRA BR OVC025CB FM302000 28013G25KT P6SM SCT100 FM010300 27010KT P6SM SKC", "KGNV 300941Z 3010/0106 25015G30KT 3SM BR VCSH FEW010 BKN020 FM301100 24016G26KT P6SM VCSH SCT015 BKN030 FM301600 27016G30KT P6SM SCT035", "KGON 300837Z 3009/0106 09013KT 1SM -RADZ BR OVC004 FM301000 09013KT 3/4SM -RADZ BR OVC004 FM301500 10011KT 2SM -RA BR OVC004 FM302100 11019KT 2SM RA BR OVC004 PROB30 3022/0101 TSRA BKN004CB FM010100 13020KT 2SM RA BR OVC004 WS020/18040KT PROB30 0101/0104 TSRA BKN004CB FM010500 16013KT 1SM -RA BR OVC004", "KGPI 300520Z 3006/0106 VRB03KT P6SM SKC FM301200 04010KT P6SM SKC FM301900 15008KT P6SM SKC", "KGPT 300520Z 3006/0106 30012KT P6SM BKN020 FM301000 31011G21KT P6SM SCT025 FM301400 30014KT P6SM SKC FM010400 28005KT P6SM SKC", "KGRB 301005Z 3010/0106 28008KT P6SM VCSH SCT010 BKN017 FM302000 34009G15KT 6SM -RA BR OVC010 FM302200 34010G18KT P6SM -RA OVC015", "TAF KGRF 300500Z 3005/0111 22009KT 9999 SKC QNH2997INS BECMG 3011/3012 20010KT 9999 SCT020 BKN030 QNH2993INS TEMPO 3019/3021 9000 -SHRA BKN020 BECMG 3021/3022 27005KT 9999 SCT035 QNH2993INS BECMG 0108/0109 26004KT 8000 -SHRA BKN015 QNH2986INS TX17/0101Z TN09/3014Z", "KGRI 300539Z 3006/0106 32008KT P6SM FEW200 FM301300 32016G22KT P6SM FEW200 FM301600 34023G34KT P6SM FEW050 FEW250 FM302300 34019G28KT P6SM FEW070 FEW250 FM010100 35013KT P6SM FEW070", "TAF KGRK 300800Z 3008/0114 25006KT 9999 SKC QNH2993INS BECMG 3020/3021 17015G20KT 9999 SKC QNH2979INS BECMG 0105/0106 07006KT 9999 FEW250 QNH2983INS TX30/3021Z TN12/3009Z", "KGRR 300708Z 3007/0106 22006KT P6SM VCSH BKN020 FM301700 25010G18KT P6SM BKN035 FM010000 25007KT 4SM -RA OVC025 FM010400 27005KT 5SM BR OVC015", "TAF KGSB 300400Z 3004/0110 VRB06KT 9999 FEW025 SCT030 BKN050 QNH2963INS BECMG 3005/3006 VRB06KT 4800 -SHRA BR BKN010 OVC025 QNH2950INS BECMG 3007/3008 14009KT 4800 -SHRA BR BKN005 OVC015 QNH2916INS TEMPO 3012/3016 21015G30KT TSRA BKN005CB BKN010 OVC030 TEMPO 3018/3022 28020G40KT 3200 TSRA BKN015CB BKN030 BECMG 3023/3024 26009KT 9999 NSW FEW030 SCT050 QNH2935INS TX26/3018Z TN19/3011Z LAST NO AMDS AFT 3004 NEXT 3012", "KGSO 300536Z 3006/0106 18004KT 6SM -SHRA OVC050 TEMPO 3006/3009 3SM -TSRA BKN025CB FM301000 VRB03KT 4SM -RA BR OVC012 FM301200 VRB05KT 4SM -SHRA BR OVC007 FM301500 30006KT P6SM VCSH OVC015 FM301800 30007KT P6SM SCT025 BKN050 FM302100 29012G22KT P6SM SCT070", "KGSP 300900Z 3009/0106 03003KT P6SM -SHRA BKN050 OVC090 TEMPO 3010/3013 2SM SHRA BR OVC008 FM301400 33005KT P6SM VCSH OVC020 FM301500 29007KT P6SM OVC035 PROB30 3018/3020 4SM TSRA OVC035CB FM302000 28013G25KT P6SM SCT100 FM010300 27010KT P6SM SKC", "KGTF 300533Z 3006/0106 08009KT P6SM FEW150 FEW250", "KGTR 300527Z 3006/0106 32003KT P6SM SCT007 FM300700 33008KT P6SM BKN015 FM301600 30012G23KT P6SM SKC", "KGUC 300520Z 3006/0106 VRB04KT P6SM SKC FM301900 27009KT P6SM FEW250 FM302100 30015G22KT P6SM FEW250 FM010200 00000KT P6SM FEW250", "KGUP 300532Z 3006/0106 VRB03KT P6SM SKC FM301800 27011G18KT P6SM FEW250 FM010200 28009KT P6SM FEW200 FM010400 VRB04KT P6SM FEW200", "TAF KGUS 292100Z 2921/0103 29015G25KT 9000 -SHRA BKN060 QNH2957INS TEMPO 2921/2924 VRB25G35KT 4800 -TSRA BKN015CB BECMG 2923/2924 VRB06KT 9999 NSW SCT060 QNH2956INS BECMG 3005/3006 VRB06KT 9000 -SHRA BKN040 QNH2951INS BECMG 3008/3009 VRB06KT 9999 NSW SCT080 QNH2947INS BECMG 3013/3014 27012G18KT 9999 SCT060 QNH2942INS BECMG 3017/3018 27015G25KT 9000 -SHRA BKN025 QNH2942INS TX15/2921Z TN05/3011Z LAST NO AMDS AFT 3003 NEXT 3013", "KGUY 300520Z 3006/0106 VRB05KT P6SM SKC FM301400 07010KT P6SM SKC FM010100 10007KT P6SM FEW250", "KGWO 300527Z 3006/0106 00000KT P6SM OVC080 FM301700 30010G20KT P6SM SKC", "KGYY 300834Z 3009/0106 27008KT P6SM BKN060 FM301700 27012G20KT 5SM -SHRA OVC018 TEMPO 3021/0101 2SM SHRA OVC010 FM010200 28013G22KT P6SM VCSH OVC014", "KHBG 300527Z 3006/0106 28004KT P6SM BKN013 FM301100 27004KT 4SM BR SCT015 FM301500 30011G23KT P6SM SKC", "KHCR 300525Z 3006/0106 VRB04KT P6SM FEW150 SCT200", "KHDC 300520Z 3006/0106 30010KT P6SM OVC020 FM300800 30008KT P6SM SCT025 BKN045 FM301300 31010KT P6SM SKC FM010000 29005KT P6SM SKC", "KHDN 300520Z 3006/0106 VRB03KT P6SM FEW250 FM300900 10006KT P6SM SKC FM301600 VRB04KT P6SM FEW250 FM302100 30009G15KT P6SM FEW250 FM010200 VRB04KT P6SM SCT250", "KHIB 300532Z 3006/0106 35017G28KT P6SM VCSH OVC016 FM300800 35018G30KT 4SM -SN OVC015 FM301100 35020G32KT 6SM -RASN OVC018 FM301600 35022G35KT 6SM -RA OVC016 FM010000 35021G35KT P6SM VCSH OVC022", "KHIE 300906Z 3009/0106 13010G17KT P6SM -SHRA OVC035 FM301800 12015G25KT P6SM -RA OVC030 FM302200 13016G30KT 5SM -RA OVC030 WS020/12035KT", "TAF KHIF 292100Z 2921/0103 25006KT 9999 SKC QNH3000INS BECMG 3004/3005 07014KT 9999 FEW200 QNH2986INS BECMG 3017/3018 20006KT 9999 SCT200 QNH2986INS TX24/2923Z TN10/3013Z LAST NO AMDS AFT 2923 NEXT 3013", "KHIO 300520Z 3006/0106 22005KT P6SM FEW070 SCT250 FM301400 20005KT P6SM VCSH BKN025 OVC035 FM302000 22005KT P6SM SCT025 BKN035", "KHKS 300527Z 3006/0106 32008G16KT P6SM BKN012 FM300700 32009KT P6SM SCT014 FM301100 32007KT P6SM FEW060 FM301500 30012G21KT P6SM SKC", "KHKY 300903Z 3009/0106 VRB03KT P6SM -SHRA SCT070 OVC090 TEMPO 3010/3013 3SM SHRA BR OVC008 FM301600 29008KT P6SM BKN035 PROB30 3018/3020 3SM +SHRA BR OVC025 FM302000 28016G24KT P6SM SCT200", "KHLG 300536Z 3006/0106 16003KT P6SM BKN050 FM301400 24008KT 6SM -SHRA BR OVC015 FM302100 28010G18KT P6SM BKN040 FM010200 26010KT P6SM VCSH BKN040 FM010500 24012G20KT P6SM -SHRA OVC025", "KHLN 300533Z 3006/0106 VRB06KT P6SM FEW150 FEW250", "KHNB 300520Z 3006/0106 32013G24KT P6SM OVC080 FM300700 31011KT P6SM VCSH SCT021 OVC050 FM301000 29011KT P6SM SCT021 OVC050 TEMPO 3010/3014 OVC021 FM301500 28015G25KT P6SM BKN060 PROB30 3016/3022 29020G30KT 4SM -SHRA BR OVC050", "KHND 300520Z 3006/0106 20008KT P6SM FEW200 FM301500 VRB05KT P6SM SCT250 FM301900 18014G22KT P6SM BKN200 FM302300 21015G25KT P6SM SCT250", "KHOB 300520Z 3006/0106 24007KT P6SM SKC FM301700 26014G25KT P6SM SKC", "KHON 300520Z 3006/0106 34012G21KT P6SM FEW100 FM301500 34017G25KT P6SM BKN060 FM301900 34022G30KT P6SM SCT070 FM010200 34015G23KT P6SM FEW250 FM010500 33012G20KT P6SM FEW250", "TAF KHOP 300800Z 3008/0114 VRB05KT 9999 BKN020 QNH2957INS TEMPO 3008/3012 1600 BR BECMG 3012/3013 30010G15KT 9999 FEW060 QNH2964INS BECMG 3017/3018 29015G30KT 9999 SCT080 QNH2965INS BECMG 3023/3024 28009KT 9999 BKN050 QNH2968INS BECMG 0113/0114 27015G35KT 9999 SCT030 OVC050 QNH2969INS TX14/3016Z TN08/0108Z", "KHOT 300521Z 3006/0106 30004KT P6SM SKC FM300700 VRB04KT P6SM SKC WS018/32035KT FM301400 32008G18KT P6SM FEW250 FM010000 31005KT P6SM BKN250", "KHOU 300854Z 3009/0106 VRB04KT P6SM SKC FM301500 25008KT P6SM SKC FM010000 19008KT P6SM SKC", "KHPN 300837Z 3009/0106 08006KT 3/4SM -DZ BR OVC004 FM301200 09007KT 3/4SM -RADZ BR OVC004 FM301500 09009KT 2SM -RA BR OVC004 FM302100 11015KT 2SM RA BR OVC004 PROB30 3021/0101 TSRA BKN004CB FM010100 13013KT 2SM RA BR OVC004 PROB30 0101/0103 TSRA BKN004CB FM010300 16010KT 2SM RA BR OVC004 FM010500 24011KT 1SM -RA BR BKN004 AMD NOT SKED", "KHQM 300531Z 3006/0106 19006KT P6SM OVC010 FM300900 16008KT P6SM -RA OVC009 FM301600 23008KT P6SM SCT012 BKN025 OVC040 FM301900 20009KT P6SM SCT012 FM010000 21009KT P6SM OVC050 FM010400 19006KT P6SM OVC025", "KHRF 300520Z 3006/0106 19008KT P6SM SKC FM302200 34008KT P6SM SKC", "KHRL 300531Z 3006/0106 12005KT P6SM SKC FM301500 23006KT P6SM SKC FM302200 13005KT P6SM SKC", "KHRO 300521Z 3006/0106 28008KT P6SM SKC WS020/30042KT FM300800 30006KT P6SM SKC FM301400 32014G26KT P6SM SKC FM010200 31007KT P6SM SKC", "TAF KHRT 292300Z 2923/0105 20006KT 9999 BKN025 BKN080 QNH2963INS TEMPO 3001/3004 18015G25KT 4800 TSRA BKN025CB BECMG 3003/3004 24012G18KT 8000 SHRA BKN020 QNH2967INS BECMG 3005/3006 26012KT 9999 NSW BKN030 QNH2966INS BECMG 3015/3016 30010G15KT 9999 SCT050 QNH2964INS TX25/3019Z TN15/3012Z LAST NO AMDS AFT 3001 NEXT 0204", "TAF AMD KHST 300921Z 3009/0109 18012G18KT 9999 FEW025CB SCT035 QNH2974INS BECMG 3011/3012 22016G30KT 9999 -SHRA VCTS SCT014 BKN022 OVC040CB 540006 QNH2973INS TEMPO 3014/3020 VRB20G35KT 0800 TSRA BR SCT005 BKN012 OVC024CB BECMG 3020/3021 27012G18KT 9999 -SHRA VCTS BKN024 BKN045CB QNH2977INS BECMG 0100/0101 27009KT 9999 NSW FEW025 QNH2986INS TX29/3019Z TN24/3011Z", "KHSV 300520Z 3006/0106 36008KT P6SM SCT025 BKN040 OVC080 FM301000 33010G18KT P6SM SCT250 FM301400 30012G20KT P6SM FEW025 SCT050 FM010100 33006KT P6SM SKC", "KHTS 300838Z 3009/0106 00000KT 5SM -SHRA BR BKN050 FM301200 23004KT P6SM VCSH BKN014 FM301600 28011G17KT P6SM SCT040 FM302200 27011G18KT P6SM VCSH SCT070", "TAF AMD KHUA 300000Z 3000/0102 VRB06KT 9999 FEW120 BKN160 BKN230 QNH2964INS BECMG 3002/3003 VRB06KT 8000 -SHRA FEW016 BKN023 BKN035 QNH2965INS BECMG 3005/3006 VRB06KT 8000 BR SCT008 BKN015 OVC023 510013 QNH2959INS BECMG 3014/3015 29010G15KT 9999 NSW SKC 510013 QNH2962INS BECMG 3016/3017 29020G25KT 9999 FEW023 510013 QNH2965INS BECMG 3023/3024 29025G35KT 9999 SCT055 BKN080 510013 QNH2971INS BECMG 0100/0101 29009KT 9999 FEW055 FEW080 510013 QNH2971INS TX20/2921Z TN11/0102Z LAST NO AMDS AFT 3000 NEXT 0112", "KHUF 301001Z 3010/0106 27006KT P6SM SCT008 BKN015 FM301200 28006KT P6SM SCT030 FM301700 27013G21KT P6SM BKN045 FM010000 29018G30KT P6SM BKN027", "KHUL 300534Z 3006/0106 15005KT P6SM BKN100 FM301200 13008KT P6SM VCSH OVC070 FM301700 13010G20KT P6SM BKN060 FM302100 12010G20KT P6SM OVC060 FM010000 11014G25KT P6SM BKN050 WS020/13040KT FM010200 11015G28KT P6SM OVC040 WS020/13040KT", "KHUM 300520Z 3006/0106 30011G21KT P6SM FEW020 SCT035 FM301100 29007KT P6SM FEW250 FM301400 30011KT P6SM SKC FM010300 24005KT P6SM SKC", "KHUT 300520Z 3006/0106 34006KT P6SM SKC FM301000 34008KT P6SM BKN200 FM301600 34016G24KT P6SM BKN200 FM010100 35007KT P6SM FEW250", "KHVR 300533Z 3006/0106 12012KT P6SM FEW150 FEW250 FM010000 10014G22KT P6SM FEW150 FEW250", "KHYA 300536Z 3006/0106 11017G28KT 4SM -RA BR OVC008 FM301100 12015G27KT 1SM BR VCSH OVC003 FM302000 12018G27KT 1 1/2SM -RA BR OVC003 FM302200 10011G19KT 1 1/2SM RA BR OVC003 WS020/14050KT FM010200 13023G34KT 1 1/2SM +RA BR OVC003 WS020/17055KT FM010500 15021G33KT 2SM RA BR OVC003 WS020/18055KT", "KHYR 300818Z 3008/0106 33010KT 2SM -SN OVC015 FM301000 34011G20KT 2SM -SN BR OVC012 FM301700 34016G27KT 3SM -RASN OVC008 FM302000 34016G27KT 4SM -RA OVC010 FM010000 34015G27KT 2SM -RASN BR OVC008 FM010400 34015G27KT 4SM -SN OVC007", "KHYS 300520Z 3006/0106 35008KT P6SM SCT200 FM300900 34010KT P6SM BKN100 FM301500 35018G28KT P6SM SCT200 FM302100 36014KT P6SM SKC FM010000 01006KT P6SM SKC", "TAF KIAB 301000Z 3010/0116 32009KT 9999 SCT140 QNH2987INS BECMG 3014/3015 34020G30KT 9999 FEW200 QNH2990INS BECMG 0101/0102 34006KT 9999 SKC QNH2991INS TX18/3021Z TN06/3012Z", "KIAD 300915Z 3009/0112 07004KT P6SM VCSH OVC007 FM301100 06005KT 5SM -SHRA BR OVC007 FM301400 05006KT 2SM SHRA BR OVC005 FM301900 01007KT 4SM SHRA VCTS OVC015CB FM302300 30016G28KT P6SM BKN040 FM010200 28012G20KT P6SM SCT120 FM010500 24008KT P6SM FEW200", "KIAG 300836Z 3009/0106 14008KT P6SM SCT120 FM301400 14009KT P6SM VCSH OVC025 FM301600 15008KT 4SM RA BR BKN015 FM302100 20010KT 4SM RA BR OVC007 FM010000 25013KT 6SM -RA BR OVC012 FM010500 24014KT P6SM BKN040 AMD LTD TO WX CLD AND VIS", "KIAH 300854Z 3009/0112 VRB04KT P6SM SKC FM301500 25008KT P6SM SKC FM010100 19008KT P6SM SKC FM010800 VRB04KT P6SM SKC", "KICT 300520Z 3006/0106 34006KT P6SM SKC FM301000 33007KT P6SM BKN250 FM301600 35016G24KT P6SM SCT250 FM010100 35007KT P6SM FEW250", "KIDA 300520Z 3006/0106 VRB05KT P6SM SCT100 FM301900 20007KT P6SM SCT200 FM010300 02006KT P6SM SCT200", "KIFP 300520Z 3006/0106 VRB05KT P6SM SKC FM301800 20008KT P6SM SCT250 FM302100 19014G22KT P6SM SCT250 FM010300 16010G18KT P6SM SCT250", "KILG 300540Z 3006/0106 07008KT 2SM -DZ BR OVC003 TEMPO 3006/3010 1SM -DZ BR OVC002 FM301100 10010KT 2SM -SHRA BR OVC004 FM301900 12014G21KT 3SM -SHRA BR OVC005 FM010100 22014G22KT 3SM -SHRA BR BKN006 FM010300 27014G22KT 5SM BR VCSH BKN015", "KILM 300539Z 3006/0106 19010KT P6SM -SHRA SCT015 OVC060 TEMPO 3006/3010 4SM SHRA BR BKN015 OVC030 FM301100 20014G23KT P6SM -SHRA VCTS BKN020 OVC030CB TEMPO 3012/3016 VRB25G40KT 3SM TSRA BR BKN015 OVC025CB FM301700 22022G33KT P6SM VCSH BKN030 FM302300 26013G23KT P6SM SCT250", "KILN 300913Z 3009/0106 20004KT 2SM BR SCT015 FM301000 30014G22KT P6SM VCSH BKN009 FM301300 29011G18KT P6SM BKN022 FM301600 28013G20KT P6SM VCSH BKN050 TEMPO 3019/3023 -SHRA OVC050 FM302300 27017G26KT P6SM VCSH BKN050 FM010300 26015G25KT 5SM -SHRA BR OVC018", "KIND 301003Z 3010/0112 27008KT P6SM SCT020 FM301100 28008KT P6SM SCT009 BKN015 FM301400 28009KT P6SM SCT030 BKN050 FM301700 27013KT P6SM BKN045 FM010000 27018G30KT 6SM -SHRA BR BKN018", "KINK 300520Z 3006/0106 21005KT P6SM SKC FM301700 25013G23KT P6SM SKC", "KINL 300532Z 3006/0106 35014G22KT P6SM OVC025 FM300900 35014G24KT P6SM VCSH OVC015 FM301200 35018G31KT P6SM VCSH OVC024 FM301900 36020G31KT P6SM VCSH OVC040 FM010000 36018G29KT P6SM OVC040 FM010300 36017G29KT P6SM OVC028", "TAF KINS 290444Z 2905/3011 VRB06KT 9999 SKC QNH2994INS BECMG 2922/2923 22010G15KT 9999 SKC QNH2992INS BECMG 3003/3004 23008KT 9999 SKC QNH2991INS TX33/2923Z TN11/2913Z LAST NO AMDS AFT 2905 NEXT 0105", "KINT 300703Z 3007/0106 18004KT 5SM -SHRA OVC050 TEMPO 3007/3008 1SM -TSRA BKN025CB FM301000 VRB03KT 4SM -RA BR OVC012 FM301200 VRB05KT 4SM -SHRA BR OVC007 FM301500 30006KT P6SM VCSH OVC015 FM301800 30007KT P6SM SCT025 BKN050 FM302100 29012G22KT P6SM SCT070", "KINW 300520Z 3006/0106 VRB06KT P6SM SKC FM302100 30008G15KT P6SM SKC FM302300 25010G19KT P6SM FEW200", "KIPL 300520Z 3006/0106 26008KT P6SM FEW250 FM301400 16005KT P6SM SCT250 TEMPO 3020/3024 09005KT FM010000 23015G25KT P6SM SKC", "KIPT 300925Z 3009/0106 09006KT 4SM SHRA BR OVC015 FM301000 11006KT 2SM -SHRA BR OVC015 FM301600 11006KT 4SM -RA BR OVC007 FM302000 VRB05KT 2SM -RA BR OVC007 FM010000 31003KT 4SM -RA BR OVC015", "KISM 300539Z 3006/0106 22006KT P6SM SCT025 BKN200 WS015/24040KT FM300800 18016G24KT P6SM VCTS BKN015 OVC025CB TEMPO 3008/3011 VRB25G35KT 2SM +TSRA BKN010 OVC020CB FM301400 24018G27KT P6SM SCT020 BKN035 FM301800 26022G30KT P6SM SCT060 FM010000 27012KT P6SM SKC", "KISO 300538Z 3006/0106 18008KT P6SM SHRA VCTS OVC050CB FM300800 16007KT 6SM -SHRA VCTS SCT008 BKN015CB TEMPO 3008/3012 4SM TSRA BR OVC008CB FM301200 17007KT P6SM VCSH BKN008 FM301700 21013G21KT P6SM VCTS BKN020CB FM302300 25014G22KT P6SM BKN040 AMD LTD TO CLD VIS AND WIND", "KISP 300837Z 3009/0106 10007KT 3/4SM -DZ BR OVC004 FM301200 10008KT 3/4SM -RADZ BR OVC004 FM301400 11009KT 1SM -RADZ BR OVC004 FM301500 11010KT 2SM -RA BR OVC004 FM302000 13020KT 2SM RA BR OVC004 PROB30 3021/0103 TSRA BKN004CB FM010400 18014KT 1SM -RA BR OVC004", "KITH 300532Z 3006/0106 14011G18KT 6SM BR FEW012 OVC050 TEMPO 3006/3009 OVC012 FM301000 14012G20KT 5SM -SHRA BR OVC008 FM301200 12012G20KT 2SM SHRA BR OVC005 TEMPO 3012/3016 1SM +RA OVC003 FM302200 10008KT 2SM -SHRA BR OVC007 WS020/13040KT FM010100 30009KT 2SM SHRA BR OVC007 FM010400 28011G20KT 3SM SHRA BR OVC015", "KIWA 300520Z 3006/0106 12006KT P6SM SKC FM302100 24005KT P6SM BKN250 AMD LTD TO CLD VIS AND WIND TIL 301200", "KIWD 300540Z 3006/0106 31010KT 1 1/2SM -SN BR OVC010 FM300800 34012G18KT 3/4SM -SN BR OVC004 FM301200 35012G23KT 1/2SM SN FZFG OVC004 FM301600 35012G23KT 3/4SM -SN BR OVC005 FM010300 34011G23KT 1 1/2SM -SN BR OVC003", "KIXD 300520Z 3006/0106 31006KT P6SM FEW060 FM301300 34015G25KT P6SM SCT050 FM301600 33020G30KT P6SM SCT050 FM010100 32010KT P6SM SKC", "KJAC 300520Z 3006/0106 VRB04KT P6SM FEW250", "KJAN 300527Z 3006/0106 33011G20KT P6SM BKN014 FM300700 32009KT P6SM SCT014 FM301100 32007KT P6SM FEW060 FM301500 30012G21KT P6SM SKC", "KJAX 300809Z 3008/0106 19010KT P6SM VCSH SCT030 BKN040 TEMPO 3009/3011 VRB30G45KT 1SM +TSRA BR BKN010 BKN020CB OVC070 FM301200 24016G26KT P6SM VCSH SCT015 BKN030 FM301700 27016G30KT P6SM SCT035", "KJBR 300520Z 3006/0106 30006KT P6SM SKC FM300800 34011KT P6SM SCT090 FM301400 30013G19KT P6SM BKN080 FM301700 29017G27KT P6SM BKN080 FM302200 30014G23KT P6SM SCT080 FM010100 28007KT P6SM FEW250", "KJCT 300520Z 3006/0106 VRB03KT P6SM SKC FM301800 21010G17KT P6SM SKC FM010100 19007KT P6SM SKC", "KJEF 300520Z 3006/0106 30007KT P6SM SKC FM301400 31014G24KT P6SM FEW250 FM301800 30018G30KT P6SM SCT060 FM010200 30010G20KT P6SM SKC", "KJER 300540Z 3006/0106 07010KT P6SM FEW250 FM010100 09011KT P6SM VCSH BKN100", "KJFK 300837Z 3009/0112 09007KT 3/4SM -DZ BR OVC003 FM301400 10010KT 1SM -RADZ BR OVC004 FM301500 10011KT 2SM -RA BR OVC004 FM302100 12018G26KT 2SM RA BR OVC004 PROB30 3021/0103 TSRA BKN004CB FM010600 27015G23KT P6SM BKN004 FM010700 26015G23KT P6SM SCT015 FM011100 24016KT P6SM FEW070", "KJHW 300908Z 3009/0106 17008KT P6SM SCT020 BKN150 TEMPO 3009/3011 BKN010 FM301100 16008KT P6SM BKN010 FM301200 14009KT P6SM VCSH OVC010 FM301500 17012G18KT 4SM RA BR OVC007 FM302300 27010KT 6SM -RA BR OVC012 FM010500 24010KT P6SM BKN035", "KJKA 300520Z 3006/0106 31005KT P6SM FEW015 SCT040 TEMPO 3008/3012 BKN025 FM301500 30015KT P6SM FEW050 SCT250", "KJKL 300524Z 3006/0106 VRB03KT P6SM OVC060 FM301200 28005KT P6SM SCT250 FM301500 28006KT P6SM BKN010 FM301600 28009G16KT P6SM BKN025 FM301800 28010G17KT P6SM SCT035 FM302100 28010G21KT P6SM VCTS SCT050CB BKN150 FM010400 27009KT P6SM BKN060", "KJLN 300520Z 3006/0106 36006KT P6SM SKC FM300800 VRB04KT P6SM SKC FM301500 33017G27KT P6SM SKC FM010100 30006KT P6SM SKC", "KJMS 300520Z 3006/0106 34012KT P6SM BKN060 FM301600 34016G26KT P6SM BKN015", "KJST 300925Z 3009/0106 13007KT 4SM -RA BR OVC007 FM301900 28008G17KT 2SM -SHRA BR OVC007 FM010000 29008G16KT P6SM OVC025", "KJVL 300917Z 3009/0106 28009KT P6SM BKN035 FM301200 28011G22KT P6SM VCSH BKN022 FM301400 29013G21KT 4SM -RA BR OVC007 FM301900 30015G24KT 2SM -RA BR OVC007 FM302200 31016G26KT P6SM VCSH OVC007", "KJXN 300530Z 3006/0106 25004KT P6SM VCSH BKN060 FM300800 23007KT P6SM VCSH BKN015 FM301600 25010G18KT P6SM -SHRA BKN035 FM010300 26004KT 4SM -RA BR OVC025 FM010500 25004KT 4SM -RA BR OVC007", "KJZI 300733Z 3008/0106 19008KT P6SM VCSH SCT015 BKN045 TEMPO 3008/3011 4SM -SHRA BR FM301100 22013G23KT 5SM -SHRA BKN025 TEMPO 3011/3013 3SM -SHRA BR FM301300 25015G25KT P6SM BKN050 FM301600 25016G27KT P6SM VCSH BKN060 FM301900 26018G31KT P6SM SCT060 FM010000 27008KT P6SM FEW250", "KLAF 300520Z 3006/0106 28007KT 6SM -SHRA BR OVC050 FM300800 28007KT P6SM BKN060 FM301600 27014KT P6SM VCSH BKN045 FM302200 28018G28KT 6SM -SHRA BR OVC027 FM010200 27017G26KT 6SM -SHRA BR OVC013", "KLAL 300540Z 3006/0106 21008KT P6SM SCT025 OVC250 WS010/18035KT FM300900 20015G25KT 5SM SHRA BKN025 TEMPO 3009/3011 VRB25G35KT TSRA BKN020CB OVC060 FM301200 28020G30KT P6SM SCT020 BKN050 FM010000 29015KT P6SM FEW250", "KLAN 300813Z 3008/0106 25007KT 5SM BR FEW025 OVC035 FM300900 23007KT P6SM VCSH BKN015 FM301700 25010G18KT P6SM -SHRA BKN035 FM010300 26004KT P6SM -RA OVC025", "KLAR 300520Z 3006/0106 VRB06KT P6SM FEW100 SCT250 FM301800 34013G21KT P6SM BKN100 FM010000 15011KT P6SM FEW100", "KLAS 300842Z 3009/0112 VRB06KT P6SM FEW250 FM301800 16012G20KT P6SM BKN200 FM302300 21015G23KT P6SM SCT250 FM010900 20010KT P6SM FEW250", "KLAW 300520Z 3006/0106 VRB05KT P6SM SKC FM301500 07014G21KT P6SM BKN150 FM010100 05006KT P6SM SCT150", "KLAX 300906Z 3009/0112 VRB03KT 3/4SM BR OVC005 FM301400 VRB03KT 2SM BR OVC005 FM301600 VRB03KT 5SM BR OVC008 FM301700 26006KT P6SM OVC013 FM301900 26012KT P6SM BKN015 FM010400 25006KT P6SM OVC008 FM010800 VRB03KT P6SM OVC004", "KLBB 300520Z 3006/0106 20011KT P6SM SKC FM302200 03015KT P6SM SKC", "KLBE 300832Z 3009/0106 13005KT P6SM BKN040 FM301200 20008KT 4SM -RA BR OVC015 FM302000 29010G18KT 5SM -SHRA BR OVC008 FM302200 28010KT P6SM OVC025 FM010200 26010KT P6SM BKN035 FM010500 23012G20KT P6SM VCSH OVC025", "KLBF 300520Z 3006/0106 36009KT P6SM SKC FM300900 32006KT P6SM SKC FM301500 34014KT P6SM SKC FM301700 35017G27KT P6SM SKC FM010200 04006KT P6SM SKC", "KLBL 300520Z 3006/0106 32007KT P6SM SCT200 FM301200 02010KT P6SM SKC FM301500 05014G24KT P6SM SKC FM302100 02010KT P6SM SKC FM010000 06006KT P6SM SKC", "KLBT 300552Z 3006/0106 18008KT P6SM -SHRA BKN030 OVC080 TEMPO 3006/3010 4SM SHRA BR BKN007 OVC015 FM301300 20010G17KT P6SM -SHRA BKN015 OVC030 TEMPO 3013/3017 VRB20G35KT 3SM TSRA BR BKN015 OVC030CB FM301700 24015G25KT P6SM VCSH BKN030 FM302000 26016G24KT P6SM BKN060 FM302300 28012G19KT P6SM SCT250", "KLBX 300520Z 3006/0106 VRB03KT P6SM SKC FM301500 25007KT P6SM SKC FM302300 20008KT P6SM SKC AMD NOT SKED", "KLCH 300520Z 3006/0106 29008KT P6SM SKC", "KLCK 300530Z 3006/0106 20006KT P6SM VCSH BKN050 FM300900 23006KT 6SM BR VCSH BKN012 TEMPO 3011/3014 5SM -SHRA OVC008 FM301500 26010KT P6SM BKN022 FM301700 28012G19KT P6SM BKN040 FM301900 28014G21KT P6SM VCSH BKN050 TEMPO 3020/3024 -SHRA OVC050 FM010000 27015G23KT P6SM VCSH BKN050 FM010400 25015G25KT 5SM -SHRA BR OVC018", "KLEB 300906Z 3009/0106 19007KT 6SM -SHRA BR OVC015 FM301200 04006KT 5SM -SHRA BR OVC009 FM301900 10012KT 5SM -RA BR OVC007 FM302200 10012G20KT 4SM RA BR OVC007 WS020/12045KT", "KLEE 300949Z 3010/0106 19011KT P6SM VCTS BKN035CB BKN045 BKN070 WS015/22040KT TEMPO 3010/3012 VRB25G35KT 2SM +TSRA BKN025CB FM301400 24018G27KT P6SM SCT020 BKN035 FM301800 26020G30KT P6SM SCT060 FM010000 27012KT P6SM SKC", "KLEX 300520Z 3006/0106 20005KT P6SM OVC080 FM301100 30012KT P6SM SCT015 BKN025 OVC040 FM301500 28015G25KT P6SM BKN060 PROB30 3019/3023 4SM -SHRA BR OVC040", "TAF AMD KLFI 300100Z 3001/3024 VRB06KT 9999 FEW015 SCT150 QNH2959INS BECMG 3003/3004 12009KT 4800 BR SCT007 BKN020 QNH2956INS BECMG 3006/3007 11009KT 4800 -SHRA OVC006 QNH2950INS TEMPO 3009/3013 11015G25KT 6000 TSRA OVC005CB BECMG 3014/3015 11009KT 4800 -SHRA OVC009 QNH2943INS BECMG 3016/3017 12012KT 8000 -SHRA OVC010 510052 QNH2925INS TEMPO 3018/3022 20020G25KT 6000 -TSRA OVC008CB BECMG 3022/3023 21009KT 9000 -SHRA FEW015 BKN025 OVC040 510033 QNH2910INS TX22/3001Z TN16/3003Z LAST NO AMENDS UNTIL 300900Z", "KLFK 300539Z 3006/0106 00000KT P6SM SKC FM301500 27008KT P6SM SKC FM010000 VRB03KT P6SM SKC", "KLFT 300520Z 3006/0106 30012KT P6SM SKC FM301100 30005KT P6SM SKC", "KLGA 300837Z 3009/0112 07006KT 3/4SM -DZ BR OVC004 FM301200 08008KT 3/4SM -RADZ BR OVC004 FM301500 08010KT 2SM -RA BR OVC004 FM302100 12016G24KT 2SM RA BR OVC004 PROB30 3021/0103 TSRA BKN004CB FM010300 18012KT 2SM -RA BR OVC004 FM010700 27013KT P6SM SCT015 FM011100 24014KT P6SM FEW070", "KLGB 300906Z 3009/0106 VRB03KT P6SM OVC006 FM301200 VRB03KT P6SM OVC012 FM301600 17006KT P6SM BKN015 FM301900 20008KT P6SM SKC FM010000 30008KT P6SM SKC FM010500 VRB03KT P6SM SKC", "KLGU 300525Z 3006/0106 VRB04KT P6SM SCT200 FM010200 11009KT P6SM FEW150 SCT200", "KLIT 300521Z 3006/0106 30008KT P6SM FEW060 BKN100 FM300700 29009KT P6SM SKC WS020/32040KT FM301400 32012G24KT P6SM FEW250 FM010000 32008KT P6SM SCT250", "KLLQ 300521Z 3006/0106 29004KT P6SM FEW100 FM301000 27005KT P6SM SKC WS020/33035KT FM301500 31008G16KT P6SM FEW250 FM010000 33005KT P6SM SKC", "KLMT 300520Z 3006/0106 18006KT P6SM SKC FM301800 19009KT P6SM FEW200 FM302000 20015G23KT P6SM SCT200 FM010000 25012G18KT P6SM BKN200 FM010300 28007KT P6SM BKN200", "KLND 300520Z 3006/0106 VRB06KT P6SM SCT250", "KLNK 300520Z 3006/0106 32010KT P6SM SKC FM301100 32015G21KT P6SM SKC FM301300 33023G30KT P6SM FEW250 FM010000 33011KT P6SM SKC", "KLNS 300925Z 3009/0106 11006KT 2SM -SHRA BR VCTS OVC004CB FM301300 09004KT 4SM RA BR OVC006 FM302300 32018G25KT 2SM -RA BR OVC015 FM010400 31016G24KT P6SM OVC050", "KLOZ 300524Z 3006/0106 00000KT P6SM OVC060 FM301100 27005KT P6SM SCT250 FM301400 28010KT P6SM BKN010 FM301600 28010G16KT P6SM BKN025 FM301700 28012G19KT P6SM SCT035 FM302000 28014G21KT P6SM VCTS SCT050CB BKN150 FM010300 27010KT P6SM BKN060", "KLRD 300520Z 3006/0106 VRB04KT P6SM SKC FM301500 17008KT P6SM SKC", "TAF KLRF 300700Z 3007/0113 29007KT 9999 FEW220 QNH2972INS BECMG 3014/3015 32020G30KT 9999 SKC QNH2978INS BECMG 3022/3023 29012KT 9999 FEW180 QNH2978INS BECMG 0100/0101 32009KT 9999 FEW065 QNH2982INS TX20/3021Z TN09/0107Z", "KLRU 300528Z 3006/0106 VRB05KT P6SM SKC FM301900 23010G19KT P6SM FEW250 FM010200 25008KT P6SM FEW250", "KLSE 300520Z 3006/0106 32010KT P6SM OVC050 FM300900 31017G27KT 6SM -SHRA OVC015 FM301200 32018G29KT 3SM -SHRASN OVC007 FM301600 32019G30KT 4SM -SHRA OVC010 FM302100 32015G30KT P6SM OVC009", "TAF KLSV 300700Z 3007/0113 36006KT 9999 SCT250 QNH2984INS BECMG 3012/3013 08006KT 9999 BKN180 QNH2960INS TEMPO 0103/0107 21015G25KT 520009 BECMG 0107/0108 18010G15KT 9999 SCT180 QNH2964INS TX37/3022Z TN19/3012Z", "KLUK 300728Z 3007/0106 00000KT 2SM BR BKN050 FM300900 30009KT P6SM VCSH BKN015 FM301300 29010G16KT P6SM BKN025 FM301600 28013G21KT P6SM VCSH BKN050 TEMPO 3018/3022 -SHRA OVC050 FM302200 27014G23KT P6SM VCSH BKN050 FM010300 26012G20KT P6SM VCSH OVC020", "KLVK 300539Z 3006/0106 25008KT P6SM SKC FM301400 26008KT P6SM BKN150 FM301800 27015G25KT P6SM SCT250 FM010300 25012KT P6SM SCT250 AMD NOT SKED", "KLVM 300520Z 3006/0106 09010KT P6SM SCT200", "KLVS 300532Z 3006/0106 VRB06KT P6SM SKC FM301500 32012G18KT P6SM FEW220 FM010200 09010KT P6SM FEW120 SCT180", "KLWB 301005Z 3010/0106 00000KT P6SM VCSH SCT025 OVC060 TEMPO 3010/3014 5SM -SHRA OVC025 FM301400 VRB03KT 3SM -SHRA BR VCTS BKN022CB FM301700 28008KT P6SM VCTS BKN018CB FM302100 30013G22KT P6SM BKN060", "KLWS 300520Z 3006/0106 VRB03KT P6SM FEW250 FM302200 31006KT P6SM FEW250 FM010100 25006KT P6SM FEW100 BKN250", "KLWT 300533Z 3006/0106 10009KT P6SM FEW150 FEW250", "KLYH 300526Z 3006/0106 18005KT P6SM SCT050 OVC100 FM300900 00000KT P6SM -SHRA VCTS SCT011CB OVC022 FM301000 00000KT 4SM -SHRA BR VCTS SCT011CB OVC022 FM301500 VRB04KT 3SM -SHRA BR VCTS OVC008CB FM301700 VRB04KT P6SM VCTS OVC008CB FM302100 28010KT P6SM BKN060", "KMAF 300520Z 3006/0106 25008KT P6SM SKC FM301700 23013G23KT P6SM SKC", "KMBG 300523Z 3006/0106 01007KT P6SM SKC FM301500 35015G23KT P6SM FEW250 FM010200 02007KT P6SM SKC", "KMBL 300520Z 3006/0106 23006KT P6SM OVC015 FM301800 30007KT P6SM VCSH OVC025 FM010300 30005KT P6SM VCSH OVC015", "KMBS 300540Z 3006/0106 25007KT P6SM SCT015 FM300700 25008KT P6SM OVC012 FM301100 23008KT P6SM BKN010 OVC035 FM301600 25010KT P6SM OVC040 FM302100 25010KT P6SM VCSH OVC025 FM010000 25010KT P6SM BKN015", "KMCB 300520Z 3006/0106 31011KT P6SM BKN008 OVC015 FM300700 31009KT P6SM SCT015 BKN020 FM300900 30008KT P6SM SCT025 FM301300 30008KT P6SM FEW250", "KMCC 300639Z 3007/0106 15008KT P6SM FEW250 FM301800 20010KT P6SM SCT250", "KMCE 300520Z 3006/0106 32010KT P6SM BKN250", "TAF KMCF 3009/0115 23020G30KT 9999 VCSH SCT020 BKN030 QNH2959INS TEMPO 3010/3011 18025G35KT 4800 -TSRA BKN015CB OVC020 BECMG 3011/3012 27020G30KT 9999 NSW SCT040 QNH2967INS BECMG 3022/3023 28015G20KT 9999 FEW100 QNH2965INS TX29/3018Z TN22/3010Z", "KMCI 300520Z 3006/0106 31006KT P6SM FEW060 FM301300 34015G25KT P6SM SCT050 FM301600 33020G30KT P6SM SCT050 FM010100 32010KT P6SM SKC", "KMCK 300520Z 3006/0106 34008KT P6SM BKN110 FM301400 35016G24KT P6SM SKC FM010100 02009KT P6SM FEW250", "KMCN 301008Z 3010/0106 22008KT P6SM VCSH SCT008 BKN015 OVC045 FM301230 28012G20KT 4SM -RA BR SCT008 BKN015 FM301400 29015G25KT P6SM VCSH SCT025 BKN035 FM301700 28020G28KT P6SM SCT050 FM010000 27012KT P6SM SKC", "KMCO 300900Z 3009/0112 20012KT P6SM VCTS SCT025 BKN035CB BKN070 WS015/22040KT TEMPO 3009/3012 VRB25G35KT 2SM +TSRA BKN020CB FM301400 24018G27KT P6SM SCT020 BKN035 FM301800 26022G30KT P6SM SCT060 FM010000 27012KT P6SM SKC", "KMCW 300520Z 3006/0106 31014G21KT P6SM SCT045 BKN070 FM301200 32018G26KT P6SM VCSH BKN030 FM301400 33024G36KT P6SM OVC020 FM010100 33020G29KT P6SM OVC035", "KMDT 300925Z 3009/0106 11006KT 6SM -SHRA BR VCTS OVC007CB FM301300 09004KT 4SM RA BR OVC007 FM302300 32018G25KT 2SM -RA BR OVC015 FM010400 31016G24KT P6SM OVC050", "KMDW 300834Z 3009/0112 27008KT P6SM BKN060 FM301600 28014G22KT 5SM -SHRA OVC018 TEMPO 3020/3024 2SM SHRA OVC010 FM010100 29013G22KT P6SM VCSH OVC014", "KMEI 300527Z 3006/0106 00000KT P6SM BKN050 FM300900 31006KT P6SM SCT012 FM301400 31014G23KT P6SM SKC", "KMEM 300900Z 3009/0112 31009KT P6SM SKC FM301400 31012G18KT P6SM SCT080 FM301800 30016G25KT P6SM BKN080 FM302300 30013G19KT P6SM SCT080 FM010100 29006KT P6SM FEW080 SCT250", "KMER 300520Z 3006/0106 33010KT P6SM BKN250 AMD NOT SKED", "KMEV 300520Z 3006/0106 11007KT P6SM FEW120 FEW250 FM301800 19012G20KT P6SM FEW120 SCT250 FM010300 12008KT P6SM SCT090 BKN250", "KMFD 300529Z 3006/0106 18006KT P6SM OVC080 FM300900 VRB02KT 3SM -SHRA BR BKN014 FM301300 24008KT 4SM -SHRA BR BKN008 FM301600 29012KT P6SM BKN021 FM302100 26012KT P6SM SCT060 FM010500 25011KT 5SM -SHRA BKN008", "KMFE 300531Z 3006/0106 VRB03KT P6SM SKC FM301500 19007KT P6SM SKC FM302200 14007KT P6SM SKC", "KMFR 300535Z 3006/0106 31007KT P6SM SCT110 FM300800 32004KT P6SM SCT100 FM301800 33008KT P6SM SCT050 BKN120 FM302300 30012G18KT P6SM SCT050 FM010300 32009KT P6SM BKN100", "TAF KMGE 291300Z 2913/3019 29006KT 9999 FEW200 QNH2981INS BECMG 2921/2922 25009KT 9999 VCSH SCT050 BKN200 QNH2968INS BECMG 3001/3002 19015G20KT 3200 -TSRA BR BKN008 BKN015CB OVC050 QNH2960INS BECMG 3008/3009 31010G15KT 4800 -SHRA BR VCTS BKN008 BKN015CB OVC050 QNH2950INS BECMG 3011/3012 31015G25KT 9999 NSW BKN015 BKN050 QNH2943INS BECMG 3014/3015 31020G25KT 9999 BKN025 BKN050 QNH2952INS BECMG 3018/3019 27020G30KT 9999 SCT025 SCT050 QNH2958INS TX26/2920Z TN14/3012Z LAST NO AMDS AFT 2920 NEXT 3011", "KMGM 300540Z 3006/0106 30010KT 6SM SHRA BR SCT007 BKN035 FM300900 30013G24KT 6SM SHRA BR OVC008 FM301200 29014KT P6SM VCSH BKN013 FM301430 30014KT P6SM BKN060 FM301900 28016G25KT P6SM SKC FM010300 24005KT P6SM SKC", "KMGW 300703Z 3007/0106 16003KT P6SM VCSH BKN060 FM301400 26008KT 5SM -RA OVC015 FM302200 25010G18KT P6SM VCSH BKN040 FM010500 23012G20KT P6SM -SHRA OVC025", "KMHK 300534Z 3006/0106 29005KT P6SM FEW250 FM301300 32013G23KT P6SM SKC FM301800 33018G30KT P6SM FEW250 FM010200 33011KT P6SM SKC", "KMHR 300639Z 3007/0106 15008KT P6SM FEW250 FM301800 20010KT P6SM SCT250", "KMHT 300906Z 3009/0106 06009KT 4SM -RA BR OVC008 FM301500 09014G22KT 3SM -RA BR OVC003 FM302200 09018G25KT 2SM RA BR OVC003 WS020/12040KT", "KMIA 300839Z 3009/0112 18008KT P6SM FEW030 BKN250 FM301300 25016G26KT P6SM VCTS SCT030CB BKN050 OVC250 TEMPO 3013/3016 VRB20G30KT 3SM TSRA BKN020CB FM302000 27013G23KT P6SM SCT030 BKN050 FM010200 26008KT P6SM FEW040 SCT100 SCT250", "KMIV 300540Z 3006/0106 08004KT 3SM -DZ BR OVC002 TEMPO 3006/3010 1SM -DZ BR FM301200 11012G20KT 2SM -SHRA BR OVC004 FM301900 15016G25KT 3SM -SHRA BR OVC005 FM010100 22013G22KT 3SM -SHRA BR BKN006 FM010300 26016G24KT 5SM BR VCSH BKN030", "KMKC 300520Z 3006/0106 30006KT P6SM FEW060 FM301300 34015G25KT P6SM SCT050 FM301600 33020G30KT P6SM SCT050 FM010100 32010KT P6SM SKC", "KMKE 300919Z 3009/0112 26011KT P6SM BKN029 FM301000 26009KT P6SM VCSH BKN022 FM301500 27010KT 3SM -RA BR OVC007 FM302300 31012KT P6SM VCSH OVC005 FM010600 30015G27KT 4SM -RASN BR OVC005", "KMKG 300708Z 3007/0106 25006KT P6SM VCSH BKN018 FM301700 25010KT 5SM -SHRA BR OVC012 FM010300 30006KT 5SM BR OVC015", "KMKL 300520Z 3006/0106 29006KT P6SM FEW090 SCT200 FM300900 29010KT P6SM FEW080 FM301400 31014G20KT P6SM SCT070 FM301700 30019G28KT P6SM BKN070 FM010100 28008KT P6SM FEW080", "KMKT 300554Z 3006/0106 32014G22KT P6SM SCT080 FM301200 32021G37KT P6SM VCSH OVC022 FM301700 33026G39KT P6SM OVC040 FM010100 33018G26KT P6SM BKN070", "KMLB 300539Z 3006/0106 19010G17KT P6SM BKN200 WS015/22040KT FM300900 18016G22KT P6SM VCTS BKN015 OVC025CB TEMPO 3010/3013 VRB25G35KT 2SM +TSRA BKN010 OVC020CB FM301500 26020G30KT P6SM SCT020 BKN035 FM301800 26020G30KT P6SM SCT060 FM010000 26011KT P6SM SKC", "KMLC 300530Z 3006/0106 VRB03KT P6SM SKC FM301600 35011KT P6SM SCT120 FM010000 36005KT P6SM SKC", "KMLI 300520Z 3006/0106 29012KT P6SM SCT090 FM301400 30017G29KT P6SM -SHRA OVC015 FM010000 31021G34KT P6SM OVC022", "KMLS 300520Z 3006/0106 06006KT P6SM SCT150 FM301600 10007KT P6SM FEW150", "KMLU 300539Z 3006/0106 30007KT P6SM SKC FM301500 31012G18KT P6SM SKC FM010300 34007KT P6SM SKC", "KMMH 300520Z 3006/0106 23007KT P6SM SCT250 FM302200 23010G19KT P6SM FEW080 SCT250 FM010000 24013G25KT P6SM FEW070 SCT250", "TAF KMMT 300700Z 3007/0113 13006KT 8000 -SHRA BKN004 OVC016 QNH2933INS BECMG 3015/3016 25010G15KT 9999 NSW BKN024 QNH2934INS TEMPO 3015/3019 25015G25KT 9000 -SHRA BECMG 0105/0106 27009KT 9999 SCT060 QNH2964INS TX26/3021Z TN10/0107Z", "KMOB 301010Z 3010/0106 30008KT P6SM BKN010 OVC020 FM301400 30012KT P6SM FEW050 SCT250", "KMOD 300639Z 3007/0106 34009KT P6SM SCT250 FM301900 32010G16KT P6SM SKC", "KMOT 300520Z 3006/0106 32008KT P6SM FEW100 FM301500 35011KT P6SM SCT050", "KMPV 300526Z 3006/0106 17006KT P6SM -SHRA BKN018 OVC025 WS020/14050KT FM301100 14011G17KT P6SM OVC015 FM301800 12013G21KT P6SM VCSH OVC025 FM302100 11013G20KT 6SM -SHRA BR OVC050 WS020/14040KT FM010000 11015G23KT 5SM -SHRA BR OVC028 WS020/12060KT", "KMQY 300521Z 3006/0106 32004KT P6SM BKN080 FM301000 31008KT P6SM BKN015 FM301400 30013G23KT P6SM FEW030 SCT060 FM301800 29015G25KT P6SM VCSH BKN060", "KMRB 300533Z 3006/0106 14004KT P6SM VCTS OVC016CB FM301000 06004KT 5SM -SHRA BR VCTS OVC010CB FM301500 01003KT 2SM SHRA BR OVC004 FM302000 32007KT 4SM SHRA BR OVC010 FM302200 30016G28KT P6SM BKN035 FM010400 27011KT P6SM SCT035", "KMRY 300642Z 3007/0106 29004KT P6SM OVC004 TEMPO 3007/3011 2SM BR OVC003 FM301100 25003KT 3SM BR OVC003 TEMPO 3011/3015 1SM BR OVC001 FM301630 29005KT 5SM BR OVC015 FM301800 29012KT 6SM -DZ BR BKN012 OVC015 FM010200 25010KT P6SM OVC025", "KMSL 300520Z 3006/0106 36008KT P6SM SCT025 BKN040 OVC080 FM300800 33011KT P6SM SCT250 FM301400 30012G20KT P6SM FEW025 SCT050 FM010100 33006KT P6SM SKC", "KMSN 300917Z 3009/0106 28009KT P6SM SCT025 BKN035 FM301100 29011G22KT 4SM -RASN BR OVC014 FM301500 30012G22KT 3SM -RASN BR OVC006 FM301900 31014G25KT 3SM -RA BR OVC006 FM302200 32015G26KT P6SM VCSH OVC006", "KMSO 300520Z 3006/0106 VRB05KT P6SM SKC FM301300 12007KT P6SM SKC FM301700 12007G15KT P6SM SKC", "KMSP 300856Z 3009/0112 33013G22KT P6SM OVC050 FM301100 32019G31KT 4SM -RASN BR OVC020 FM301400 33021G35KT P6SM VCSH OVC025 FM301800 33022G37KT P6SM VCSH OVC040 FM010100 32017G28KT P6SM BKN050", "KMSS 300526Z 3006/0106 07007KT P6SM -SHRA OVC050 FM300900 08007KT P6SM OVC050 FM301800 09012G18KT P6SM VCSH OVC050 FM302000 09013G20KT 6SM -SHRA BR OVC040 FM302100 09014G21KT 5SM -SHRA BR OVC080 FM010300 08018G28KT 5SM -SHRA BR OVC025 WS020/10045KT", "KMSY 300520Z 3006/0112 31016G26KT P6SM BKN025 OVC035 FM300700 30015G24KT P6SM SCT020 BKN035 FM301000 30011G20KT P6SM FEW020 SCT250 FM301400 29012KT P6SM SKC FM010000 29008KT P6SM SKC", "TAF AMD KMTC 292130Z 2921/0101 VRB06KT 9999 BKN020 620609 QNH2955INS BECMG 2922/2923 VRB06KT 9999 BKN030 620609 QNH2953INS BECMG 3000/3001 VRB06KT 9000 -RA BKN020 620609 QNH2950INS BECMG 3004/3005 VRB06KT 9999 NSW BKN020 620609 QNH2940INS BECMG 3014/3015 25009KT 9999 SCT030 BKN045 620609 QNH2935INS BECMG 3022/3023 25010G15KT 9000 -SHRA SCT050 BKN070 QNH2930INS TX16/2921Z TN08/3007Z LAST NO AMDS AFT 3003 NEXT 3011", "KMTH 300859Z 3009/0106 19012G18KT P6SM FEW025 FM301000 24019G28KT P6SM SCT025 BKN040 FM301500 27017G24KT P6SM VCTS BKN020CB TEMPO 3015/3017 27019G28KT 1SM +TSRA BKN015CB FM301800 30015G22KT P6SM SCT025", "KMTJ 300520Z 3006/0106 14008KT P6SM SKC FM301500 VRB04KT P6SM FEW250 FM301800 34007KT P6SM FEW250 FM010200 13008KT P6SM FEW250", "KMTN 300802Z 3008/0106 07006KT P6SM OVC008 FM301200 07006KT 5SM -SHRA BR OVC007 FM301400 06008KT 2SM SHRA BR OVC005 FM302000 05009KT 3SM SHRA VCTS OVC010CB FM302300 30012G20KT P6SM -SHRA OVC025 FM010200 28019G27KT P6SM BKN090", "KMTW 301006Z 3010/0106 28008KT P6SM VCSH OVC012 FM301100 31009KT 4SM -RA BR OVC008 FM302000 33009KT P6SM VCSH OVC012 FM302200 33010KT P6SM VCSH OVC015", "TAF AMD KMUO 292131Z 2921/3024 VRB06KT 9999 FEW110 QNH2990INS BECMG 3003/3004 12012KT 9999 FEW100 SCT140 QNH2990INS BECMG 3013/3014 12012G18KT 9999 FEW100 SCT210 QNH2979INS BECMG 3019/3020 VRB06KT 9999 SCT120 SCT200 QNH2964INS TX30/2922Z TN06/3012Z LAST NO AMDS AFT 2921 NEXT 0110", "KMVN 300520Z 3006/0106 36010G18KT P6SM SCT070 TEMPO 3006/3007 -SHRA BKN070 FM300700 32007KT P6SM SCT018 FM301400 29011KT P6SM SHRA VCTS BKN030CB FM301700 29015G25KT P6SM VCSH BKN050 FM301900 29018G26KT P6SM VCSH BKN060 FM010100 30017G26KT P6SM SCT080", "KMWH 300520Z 3006/0106 VRB04KT P6SM FEW250 FM301100 36006KT P6SM FEW100 FEW250 FM301800 17005KT P6SM SCT250 FM010000 21008G15KT P6SM FEW090 BKN200", "TAF AMD KMXF 292327Z 2923/0101 VRB06KT 9999 FEW130 SCT190 BKN270 QNH2957INS BECMG 3003/3004 VRB06KT 8000 -SHRA FEW020 SCT028 OVC040 QNH2957INS BECMG 3004/3005 VRB06KT 8000 -SHRA FEW012 SCT020 OVC028 QNH2954INS TEMPO 3004/3010 21020G25KT 8000 -TSRA BKN005CB OVC020 BECMG 3010/3011 31009KT 8000 -SHRA BKN005 OVC012 510053 QNH2952INS BECMG 3011/3012 30009KT 8000 BR OVC012 510053 QNH2955INS BECMG 3014/3015 32020G30KT 9999 NSW SCT013 SCT021 510063 QNH2964INS BECMG 3017/3018 29025G35KT 9999 SKC 510063 QNH2967INS BECMG 3023/3024 29012KT 9999 SKC QNH2970INS TX25/2923Z TN16/3012Z LAST NO AMDS AFT 2923 NEXT 3011", "KMYL 300540Z 3006/0106 VRB05KT P6SM FEW200 FM301700 17007KT P6SM FEW250 FM302300 09005KT P6SM VCSH BKN080", "KMYR 300542Z 3006/0106 19012KT P6SM -SHRA SCT015 OVC070 TEMPO 3006/3010 4SM SHRA BR SCT007 BKN015 OVC030 FM301000 20013G20KT P6SM -SHRA VCTS BKN020 OVC030CB TEMPO 3011/3015 VRB25G40KT 3SM TSRA BR BKN015 OVC025CB FM301600 24023G34KT P6SM VCSH BKN025 FM302200 26014G22KT P6SM SCT250", "TAF KNBG 3007/0107 29010G15KT 9999 BKN030 QNH2970INS FM301200 30014KT 9999 SCT020 QNH2982INS FM301500 30010KT 9999 SKC QNH2981INS BECMG 3022/0100 VRB06KT SKC QNH2985INS AUTOMATED SENSOR METWATCH 3007 TIL 3013 TX27/3021Z TN15/3012Z FN00262", "TAF KNCA 3009/0109 VRB06KT 8000 -RA BR BKN020 OVC060 QNH2955INS BECMG 3011/3012 19009KT 6000 SHRA BR BKN013 OVC021 QNH2949INS FM301300 20010G20KT 8000 -SHRA BR FEW019 BKN027 OVC040 QNH2935INS TEMPO 3020/0102 21015G25KT 8000 VCTS BKN080CB FM010300 26010G18KT 9999 BKN100 QNH2945INS T23/3016Z T11/0108Z", "KNEW 300520Z 3006/0106 31022G32KT P6SM SCT020 BKN025 OVC035 FM300800 30020G29KT P6SM SCT020 BKN045 FM301400 30016KT P6SM SKC FM010300 27009KT P6SM SKC", "TAF KNFG 3003/0103 VRB05KT 9999 OVC008 QNH2990INS TEMPO 3004/3010 4000 BR OVC005 BECMG 3016/3018 22008KT 9999 BKN010 QNH2987INS T12/3013Z T19/3021Z", "TAF KNFW 3007/0107 VRB06KT SKC QNH2979INS BECMG 3019/321 04008KT SKC QNH2972INS AUTOMATED SENSOR METWATCH 3007 TIL 3011 TX32/3022Z TN11/3012Z FN00262", "TAF KNGP 3007/0107 VRB06KT 9999 SKC QNH2991INS BECMG 3010/3012 24007KT 9999 SKC QNH2988INS BECMG 3018/3020 16010G18KT 9999 SKC QNH2978INS AUTOMATED SENSOR METWATCH 3007 TIL 3023 TX28/3023Z TN17/3012Z FN00262", "TAF KNGU 3007/0107 13010KT 9999 VCTS FEW040 BKN100 BKN250 QNH2944INS TEMPO 3009/3012 4800 TSRA BKN008 OVC100 FM301200 16010G15KT 6000 SHRA BKN030 OVC100 QNH2938INS TEMPO 3012/3018 VRB20G30KT 0800 TSRA OVC010 FM301800 24015G25KT 4800 SHRA OVC040 QNH2920INS TX23/3018Z TN16/3008Z FN00262", "TAF KNHK 3007/0107 12008G13KT 9999 SCT010 BKN250 QNH2958INS BECMG 3008/3010 10005KT 4800 SHRA BKN010 OVC040 QNH2945INS BECMG 3010/3012 6000 SHRA VCTS BKN010CB QNH2933INS TEMPO 3012/3018 0800 TSRA OVC002 BECMG 3018/3020 11007KT 8000 SHRA BKN010 OVC030 QNH2936INS FM010000 27015G25KT 9999 NSW SCT030 SCT180 QNH2943INS AUTOMATED SENSOR METWATCH 0107 TIL 0111 TX20/3021Z TN14/3009Z FN00262", "TAF KNIP 3007/0107 22017G30KT 8000 SHRA VCTS BKN030CB OVC100 QNH2950INS TEMPO 3007/3011 1600 TSRA OVC010CB BECMG 3013/3015 27015G25KT 9999 FEW050 QNH2955INS TX27/3021Z TN18/3012Z FN00262", "TAF KNJK 2923/3023 16008KT 9999 SCT250 9999 QNH2973INS FM300600 VRB06KT9999 9999 SCT250 QNH2962INS LAST NO AMDS AFT 2922 NEXT 0115 TX38/3000Z TN22/3012Z FS30171", "TAF KNKT 3009/0109 VRB06KT 8000 -RA BR BKN020 OVC060 QNH2955INS BECMG 3011/3012 19009KT 6000 SHRA BR BKN013 OVC021 QNH2949INS FM301300 20010G20KT 8000 -SHRA BR FEW019 BKN027 OVC040 QNH2935INS TEMPO 3020/0102 21015G25KT 8000 VCTS BKN080CB FM010300 26010G18KT 9999 BKN100 QNH2945INS T23/3016Z T11/0108Z", "TAF KNKX 3003/0103 VRB03KT 9999 FEW010 QNH2991INS FM300930 VRB05KT 4800 BR OVC003 QNH2987INS TEMPO 3010/3015 0800 FG VV002 BECMG 3016/3018 25006KT 9999 BKN010 T13/3013Z T19/3021Z", "TAF KNLC 3007/0107 32009KT 9999 SCT250 QNH2981INS FM302100 30012KT 9999 FEW050 BKN250 QNH2977INS FM010000 33020G28KT 9999 SCT120 BKN220 QNH2975INS TEMPO 0100/0106 30017G25KT AUTOMATED SENSOR METWATCH 3007 TIL 3015 TX34/3022Z TN15/3013Z FS30201", "TAF KNQX 3007/0107 21018G25KT 9999 VCSH SCT020 SCT080 BKN250 QNH2972INS FM301300 22020G30KT 9999 VCTS SCT020CB BKN080CB BKN250 QNH2973INS TEMPO 3013/3019 VRB25G35 1600 TSRA AUTOMATED SENSOR METWATCH 3007 TIL 3016 TX27/3009Z TN24/3021Z FN00262", "TAF KNSE 3007/0107 27015G25KT 9999 VCSH SCT020 BKN040 OVC110 QNH2956INS TEMPO 3007/3010 31008KT 8000 SHRA BKN020CB OVC040 FM30100 29010G20KT 9999 NSW BKN020 QNH2962INS BECMG 3015/3017 30013G21KT 9999 FEW020 QNH2974INS AUTOMATED SENSOR METWATCH 3007 TIL 3022 TX23/3021Z TN13/3011Z FN00262", "TAF KNTD 3007/0107 VRB06KT 3200 BR OVC004 QNH2993INS TEMPO 3007/3010 0800 FG VV002 FM301000 VRB06KT 1600 BR OVC002 QNH2991INS BECMG 3014/3016 23007KT 4800 BR BKN004 QNH2990INS FM302100 27012KT 8000 HZ BKN008 QNH2991INS FM010200 VRB06KT 4800 BR BKN006 QNH2982INS TEMPO 0102/0107 0800 FG VV002 AUTOMATED SENSOR METWATCH 3007 TIL 3013 TX14/3020Z TN12/3013Z FS30201", "TAF AMD KNTU 3008/0107 13010KT 9999 VCTS BKN030 BKN100 BKN250 QNH2942INS TEMPO 3009/3012 6000 TSRA BKN008 OVC100 FM301200 16010G15KT 6000 SHRA BKN030 OVC100 QNH2938INS TEMPO 3012/3018 VRB20G30KT 0800 TSRA OVC010 FM301800 24015G25KT 4800 SHRA OVC040 QNH2920INS AUTOMATED SENSOR METWATCH 0107 TIL 3012 TX20/3021Z TN15/3015Z AMD 0825FN00262", "TAF KNUW 3007/0107 24007KT 9999 FEW060 FEW250 QNH2985INS FM301500 13010G15KT 9999 VCSH FEW020 BKN050 BKN200 640609 QNH2987INS TEMPO 3021/0100 27008KT 9999 -RA BR SCT015 BKN030 OVC060 FM010000 27010KT 9999 BKN030 BKN050 BKN200 640609 QNH2986INS TX13/3023Z TN08/3013Z FS30201", "TAF KNXP 3003/0103 23010KT 9999 SKC QNH2993INS BECMG 3006/3008 28006KT FM301430 VRB05KT 9999 SKC QNH ONH2987INS BECMG 3019/3021 21015KT QNH2976INS TEMPO 3021/0103 22020G30KT T20/3014Z T35/3021Z", "TAF KNYL 3003/0103 22006KT 9999 SKC QNH2975INS FM300530 15005KT FEW250 9999 SKC QNH2975INS BECMG 3016/3018 17008KT QNH2061INS TEMPO 3019/0101 20012G22KT T21/3013Z T39/3021Z", "TAF KNZY 3007/0107 VRB06KT 9999 OVC010 QNH2990INS TEMPO 3009/3014 8000 BR OVC008 FM301800 26009KT 9999 BKN015 QNH2987INS TEMPO 3018/0100 VRB06KT SCT015 FM010600 19006KT 9999 OVC020 QNH2987INS TX19/3023Z TN13/3012Z FS30208", "KOAJ 300538Z 3006/0106 18007KT 5SM SHRA BR VCTS SCT008 OVC015CB TEMPO 3008/3012 2SM TSRA BR OVC008CB FM301200 16006KT P6SM VCTS BKN008 OVC015CB FM301600 20011G19KT 5SM SHRA BR VCTS BKN012CB FM302200 23015G23KT P6SM BKN100 AMD LTD TO CLD VIS AND WIND", "KOAK 300829Z 3008/0112 29008KT P6SM FEW008 BKN012 TEMPO 3008/3011 BKN008 BKN200 FM301100 28010KT P6SM OVC008 FM301800 27013KT P6SM SCT012 SCT250 FM302200 27018G28KT P6SM SCT250 FM010600 27018KT P6SM SCT015", "TAF KOFF 301000Z 3010/0116 32012KT 9999 FEW050 WS020/34035KT QNH2984INS BECMG 3013/3014 32015G25KT 9999 FEW050 510003 QNH2988INS BECMG 3015/3016 32020G30KT 9999 FEW050 510003 QNH2989INS BECMG 3017/3018 32025G35KT 9999 SKC 530003 QNH2985INS BECMG 0101/0102 32012KT 9999 FEW050 WS020/34035KT QNH2989INS BECMG 0105/0106 32012KT 9999 SKC WS020/34035KT QNH2988INS BECMG 0113/0114 33020G30KT 9999 SKC QNH2992INS TX14/3018Z TN01/0110Z", "KOFK 300520Z 3006/0106 31012KT P6SM SKC FM300900 33017G22KT P6SM SKC FM301300 34022G32KT P6SM SKC FM010200 34012KT P6SM SKC", "KOGB 300810Z 3008/0106 VRB05KT P6SM -SHRA SCT005 OVC015 TEMPO 3008/3012 3SM BR BKN005 FM301200 22008KT P6SM -SHRA SCT005 OVC010 FM301500 24012G22KT P6SM OVC025 FM301900 29014G25KT P6SM SCT045", "KOGD 300525Z 3006/0106 17007KT P6SM SCT200 FM302000 26005KT P6SM FEW150 SCT200 FM010100 12009KT P6SM FEW150 SCT200", "KOKC 300520Z 3006/0106 35006KT P6SM SKC FM301600 03011G17KT P6SM BKN150 FM010100 04006KT P6SM SCT150", "KOLF 300520Z 3006/0106 VRB06KT P6SM SKC FM301800 09007KT P6SM SKC", "KOLM 300531Z 3006/0106 22004KT P6SM SCT250 FM301100 19007KT P6SM BKN120 FM301400 21008KT P6SM BKN040 OVC070 FM302300 24006KT P6SM BKN045 OVC070", "KOLS 300520Z 3006/0106 VRB03KT P6SM SKC FM301700 22005KT P6SM SCT250 FM301900 23012KT P6SM BKN250 FM302100 24012G20KT P6SM BKN250 FM010200 23007KT P6SM BKN250", "KOMA 300520Z 3006/0106 33010KT P6SM SKC FM301000 32014G21KT P6SM FEW250 FM301200 33024G34KT P6SM FEW250 FM010200 33013KT P6SM SKC", "KONP 300904Z 3009/0106 20010KT 6SM BR OVC007 TEMPO 3011/3014 3SM -DZ BR FM301800 20012G20KT P6SM SCT008 OVC012", "KONT 300520Z 3006/0112 26006KT P6SM SCT280 FM301200 00000KT 2SM BR BKN005 FM301630 00000KT 5SM HZ SCT250 FM302000 25013KT P6SM SCT250 FM010400 25007KT P6SM SKC FM011000 24006KT 5SM BR BKN007", "KOPF 300839Z 3009/0106 20011KT P6SM FEW030 BKN250 FM301300 24018G28KT P6SM VCTS SCT030CB BKN050 OVC250 TEMPO 3013/3016 VRB20G30KT 3SM TSRA BKN020CB FM302000 29015G25KT P6SM SCT030 BKN050 FM010200 26010KT P6SM FEW040 SCT100 SCT250", "KORD 300834Z 3009/0112 27008KT P6SM BKN060 FM301600 28014G23KT 4SM -SHRA OVC018 TEMPO 3020/3024 2SM SHRA OVC010 FM010100 29013G22KT P6SM VCSH OVC014", "KORF 300916Z 3009/0106 16006KT P6SM -SHRA SCT005 BKN025 TEMPO 3009/3011 4SM -SHRA BR OVC005 FM301100 18008KT 5SM SHRA BR OVC020 FM301500 19013G20KT 6SM -SHRA BR OVC007 FM302000 22013G20KT 6SM -SHRA BR OVC010 FM010100 27013G20KT P6SM BKN025", "KORH 300536Z 3006/0106 07009KT 1SM -RA BR OVC003 FM300900 06008KT 1/2SM FG VCSH OVC003 FM301200 06008KT 1SM BR VCSH OVC003 FM301900 06011G19KT 1SM RA BR OVC003 FM302300 10015G24KT 1 1/2SM +RA BR OVC003", "KOTH 300520Z 3006/0106 23004KT P6SM OVC008 FM300800 18005KT 4SM BR OVC005 FM301800 26010KT P6SM OVC015 FM302100 26010KT P6SM BKN035 FM010000 25008KT P6SM BKN050 FM010200 25005KT P6SM OVC015", "KOTM 300520Z 3006/0106 29007KT P6SM VCSH SCT035 BKN060 FM300800 30011KT P6SM SCT045 BKN070 FM301500 31021G32KT P6SM BKN040 FM010100 32017G26KT P6SM BKN050", "KOUN 300520Z 3006/0106 VRB05KT P6SM SKC FM301600 36009G15KT P6SM BKN150 FM010100 04003KT P6SM SCT150", "KOWB 300812Z 3008/0106 34010KT P6SM BKN035 OVC110 FM301400 30012KT P6SM VCSH BKN030 FM301700 28017G26KT P6SM SHRA BKN045 PROB30 3018/3021 4SM -TSRA BKN040CB FM302300 29017KT P6SM VCSH SCT070 FM010300 28016KT P6SM BKN090", "KOXR 300535Z 3006/0106 VRB03KT 4SM BR OVC003 FM301400 VRB03KT 4SM BR OVC008 FM301600 VRB03KT P6SM OVC012 FM301900 26010KT P6SM BKN015 FM010000 26008KT 4SM BR OVC008 FM010300 VRB03KT 4SM BR OVC003", "KPAE 300531Z 3006/0106 01007KT P6SM FEW250 FM300800 11006KT P6SM SCT250 FM301000 17006KT P6SM BKN120 FM301600 18006KT P6SM BKN040 OVC070 FM010000 25007KT P6SM OVC050", "KPAH 300810Z 3008/0106 34006KT P6SM SKC FM301400 29011KT P6SM SCT040 FM301600 29015G24KT P6SM VCSH BKN050 FM010100 29012KT P6SM SCT150", "TAF AMD KPAM 300700Z 3007/0109 28015G26KT 9999 SCT020 QNH2956INS BECMG 3008/3009 31015G26KT 9999 SKC QNH2961INS TX23/3017Z TN18/3011Z", "KPBF 300521Z 3006/0106 30010KT P6SM BKN050 OVC100 FM300900 29008KT P6SM SKC WS020/33040KT FM301200 30008KT P6SM SKC FM301600 32010G20KT P6SM FEW250 FM010000 31006KT P6SM BKN250", "KPBG 300526Z 3006/0106 16010KT P6SM VCSH OVC045 FM301200 16010G16KT P6SM OVC028 FM301700 14013G19KT P6SM OVC035 FM302300 11009KT 6SM -SHRA BR OVC040 FM010100 07009KT 5SM -SHRA BR OVC027 WS020/12045KT", "KPBI 300839Z 3009/0106 20011KT P6SM FEW030 BKN250 FM301200 23018G28KT P6SM VCTS SCT030CB BKN050 OVC250 TEMPO 3012/3015 VRB20G30KT 3SM TSRA BKN020CB FM302000 27015G25KT P6SM SCT030 BKN050 FM010200 26008KT P6SM FEW040 SCT100 SCT250", "KPDK 300930Z 3010/0106 VRB03KT 5SM -RA SCT015 OVC045 FM301100 32008KT 6SM -RA BR OVC045 FM301400 30015G25KT P6SM BKN045 FM301700 29020G28KT P6SM SCT050 FM010000 29012KT P6SM SKC", "KPDT 300520Z 3006/0106 14006KT P6SM SCT250 FM301600 26010G20KT P6SM SCT250 FM302200 29012G22KT P6SM BKN250 FM010100 26013KT P6SM BKN250", "KPDX 300910Z 3009/0106 VRB03KT P6SM FEW070 SCT250 FM301300 17005KT P6SM VCSH BKN025 OVC035 FM302000 24005KT P6SM SCT025 BKN035", "KPEQ 300520Z 3006/0106 20007KT P6SM SKC FM301900 26012G22KT P6SM SKC", "KPGA 300520Z 3006/0106 VRB05KT P6SM SKC FM302300 30008G15KT P6SM FEW250 FM010400 22008G14KT P6SM FEW250", "KPGD 300540Z 3006/0106 18010KT P6SM BKN030 BKN100 WS010/18035KT FM300900 22020G30KT 6SM SHRA BKN025 TEMPO 3010/3012 VRB25G35KT TSRA BKN035CB OVC060 FM301300 28025G35KT P6SM OVC050 FM010000 29015KT P6SM FEW250", "KPGV 300538Z 3006/0106 17007KT P6SM VCTS SCT008 OVC050CB TEMPO 3006/3010 3SM TSRA OVC008CB FM301000 16006KT P6SM VCTS BKN008 OVC015CB FM301200 16007KT 6SM SHRA BR OVC010 FM301600 20011G19KT 5SM -SHRA BR BKN012 FM302000 25013G22KT P6SM VCTS BKN035CB FM010000 26010KT P6SM SCT250 AMD LTD TO CLD VIS AND WIND", "KPHF 300918Z 3009/0106 11005KT P6SM -SHRA SCT007 OVC025 TEMPO 3009/3011 3SM -SHRA BR OVC007 FM301100 15007KT 5SM -SHRA BR OVC020 FM301600 16007KT 5SM -SHRA BR OVC007 FM302200 25011KT 6SM -SHRA BR OVC010 FM010100 27011KT P6SM BKN025", "KPHL 300830Z 3008/0112 07006KT 1SM BR OVC002 TEMPO 3008/3010 1/2SM FG FM301200 10010G18KT 2SM -SHRA BR OVC004 FM301900 12014G21KT 3SM -SHRA BR OVC004 FM010100 21012G20KT 3SM -SHRA BR BKN006 FM010300 26015G22KT 5SM BR VCSH BKN015 FM010600 26013KT P6SM SCT070", "KPHX 300855Z 3009/0112 13004KT P6SM SKC FM302100 25007KT P6SM SCT250 FM010800 12005KT P6SM FEW250", "KPIA 300520Z 3006/0106 27008KT P6SM SCT080 FM301200 29012G21KT P6SM BKN100 FM301500 30020G30KT P6SM VCSH OVC030 FM302000 30021G32KT P6SM VCSH OVC018 FM010100 30019G29KT P6SM OVC025", "KPIB 300527Z 3006/0106 00000KT P6SM BKN025 FM301100 27004KT 4SM BR SCT015 FM301500 30011G23KT P6SM SKC", "KPIE 300540Z 3006/0106 20015KT P6SM SCT015 OVC250 WS010/19040KT FM300800 23025KT 6SM SHRA BKN025 TEMPO 3008/3010 VRB20G30KT TSRA BKN020CB OVC060 FM301100 27025G35KT P6SM SCT020 BKN050 FM010000 29015KT P6SM FEW250", "KPIH 300520Z 3006/0106 VRB06KT P6SM SCT100 FM302000 13008KT P6SM SCT250", "KPIR 300523Z 3006/0106 35011KT P6SM SKC FM301500 34015G23KT P6SM SKC FM010200 01008KT P6SM SKC", "KPIT 300851Z 3009/0112 14003KT 6SM -SHRA BR BKN045 FM301500 23008KT 5SM -SHRA BR OVC022 FM301800 29010G18KT P6SM OVC015 FM302300 26010KT P6SM BKN040 FM010500 23012KT P6SM VCSH OVC025 FM010800 23015G20KT 6SM -SHRA BR OVC012", "KPKB 300838Z 3009/0106 16002KT P6SM VCSH OVC026 FM301500 24007G16KT P6SM VCSH OVC014 FM301900 28011G18KT P6SM BKN040 FM010300 25011KT P6SM VCSH SCT060 AMD NOT SKED", "KPLN 300855Z 3009/0106 VRB03KT P6SM VCSH SCT025 OVC035 FM301500 VRB03KT P6SM VCSH OVC015 FM302200 30007KT 5SM -SHRA BR OVC008", "KPMD 300535Z 3006/0106 23008KT P6SM SKC FM301800 24020G28KT P6SM SCT200 FM010000 24025G32KT P6SM SKC FM010400 23015KT P6SM SKC", "KPNA 300520Z 3006/0106 VRB06KT P6SM SCT250 FM302100 31012G18KT P6SM SCT250 FM010200 VRB04KT P6SM SCT250", "KPNC 300520Z 3006/0106 VRB05KT P6SM SKC FM301500 33013G21KT P6SM BKN150 FM010100 01005KT P6SM SCT150", "KPNE 300540Z 3006/0106 07006KT 1SM -DZ BR OVC002 TEMPO 3006/3010 1/2SM FG FM301200 10010G18KT 2SM -SHRA BR OVC004 FM301900 11013G21KT 3SM -SHRA BR OVC004 FM010100 20012G22KT 3SM -SHRA BR BKN006 FM010300 26014G22KT 5SM BR VCSH BKN015", "KPNS 300520Z 3006/0106 21007KT P6SM BKN060 BKN110 TEMPO 3008/3012 BKN025 FM301500 30015KT P6SM FEW050 SCT250", "TAF KPOE 300700Z 3007/0113 30006KT 9999 SKC QNH2982INS BECMG 3018/3019 29010G18KT 9999 SKC QNH2984INS BECMG 3022/3023 VRB06KT 9999 SKC QNH2983INS TX21/3021Z TN12/3012Z", "KPOU 300857Z 3009/0106 36003KT 4SM BR OVC008 TEMPO 3009/3012 5SM BKN005 FM301200 03005KT P6SM OVC015 FM301600 04006KT 6SM -RA BR BKN010 OVC150 FM302100 07007G15KT 2SM RA BR OVC010 FM302300 08005KT 5SM -RA BR OVC030 PROB30 0102/0106 2SM RA BR OVC015", "KPQI 300534Z 3006/0106 14005KT P6SM BKN100 FM301200 15010G19KT P6SM OVC070 FM301700 13010G19KT P6SM VCSH OVC050 FM010100 12013G24KT P6SM BKN060 WS020/13040KT FM010200 11014G25KT P6SM OVC050 WS020/13040KT FM010500 11017G29KT P6SM BKN045 WS020/11040KT", "KPRB 300906Z 3009/0106 VRB03KT P6SM SKC FM301100 VRB03KT 1SM BR OVC003 FM301500 30008KT P6SM BKN006 FM301700 30012KT P6SM SCT200 FM010300 28015KT P6SM SCT200", "KPRC 300520Z 3006/0106 VRB06KT P6SM SKC FM301700 24010G16KT P6SM FEW250 FM010300 20007KT P6SM SKC", "KPSC 300520Z 3006/0106 VRB04KT P6SM FEW250 FM301800 22008KT P6SM BKN250", "KPSF 300858Z 3009/0106 06005KT P6SM OVC011 FM301400 09014G28KT 6SM BR OVC015 FM301700 09015G30KT 5SM -RA BR OVC008 FM302100 09017G33KT 2SM RA BR OVC008 PROB30 3023/0101 2SM RA BR FM010100 10012G20KT 5SM -RA BR OVC007 PROB30 0103/0105 2SM RA BR", "KPSM 300906Z 3009/0106 08012G18KT 2SM -RA BR OVC006 FM301700 09015G25KT 3SM -RA BR OVC003 FM302100 09019G28KT 2SM RA BR OVC003 WS020/13045KT", "KPSP 300520Z 3006/0106 33011KT P6SM SCT200 FM300800 33006KT P6SM SCT200 FM301700 11006KT P6SM SCT250 FM302200 34012G22KT P6SM SCT250", "KPTK 300540Z 3006/0106 24008KT P6SM BKN045 TEMPO 3007/3010 3SM BR FM301000 23008KT 5SM -RA BKN010 OVC035 FM301600 25010KT P6SM OVC040 FM302100 25010KT 5SM -SHRA OVC025 FM010500 25010KT P6SM BKN015", "KPUB 300529Z 3006/0106 VRB06KT P6SM SKC FM301200 06008KT P6SM SKC FM301800 10010KT P6SM SCT100 SCT200 FM010300 06005KT P6SM FEW200", "KPUW 300520Z 3006/0106 10004KT P6SM FEW250 FM301800 15006KT P6SM FEW250 FM010100 23006KT P6SM FEW100 BKN250", "KPVD 300814Z 3008/0106 07008KT 3SM -RA BR OVC008 FM301200 10007KT 1SM BR VCSH OVC003 FM301900 11012G20KT 1 1/2SM -RA BR OVC003 FM302200 12016G27KT 1 1/2SM +RA BR OVC003 FM010400 15018G29KT 1 1/2SM +RA BR OVC003 WS020/18045KT", "KPVU 300525Z 3006/0106 VRB05KT P6SM FEW150 SCT200 FM302100 30007KT P6SM BKN200 FM010300 VRB05KT P6SM SCT200", "KPVW 300520Z 3006/0106 24011KT P6SM SKC FM302000 31015KT P6SM SKC", "KPWM 300906Z 3009/0106 09010KT 3SM -RA BR OVC008 FM301100 09012G18KT 5SM -SHRA BR OVC005 FM301600 09014G22KT 3SM -RA BR OVC003 FM010000 09018G27KT 2SM RA BR OVC003 WS020/13045KT", "KPWT 300531Z 3006/0106 20005KT P6SM SCT250 FM301200 20006KT P6SM BKN040 OVC050 FM301400 20005KT P6SM BKN025 FM302000 21011KT P6SM OVC025 FM010100 21008KT P6SM BKN050", "KRAP 300520Z 3006/0106 35011KT P6SM SCT250 FM301700 36015KT P6SM SCT250 FM010100 05007KT P6SM SCT250", "KRBG 300520Z 3006/0106 35003KT P6SM SKC FM301100 VRB02KT P6SM OVC020 FM302000 36004KT P6SM BKN025 FM302200 35005KT P6SM SCT025 BKN050", "KRBL 300639Z 3007/0106 VRB05KT P6SM FEW250 FM302000 16011G18KT P6SM SCT250", "KRDD 300639Z 3007/0106 VRB05KT P6SM FEW250 FM302000 19009KT P6SM SCT250", "KRDG 300540Z 3006/0106 09006KT 4SM -DZ BR OVC005 TEMPO 3006/3010 2SM -DZ BR OVC003 FM301200 10004KT 2SM -SHRA BR OVC004 FM301700 10012KT 3SM -SHRA BR OVC005 FM302300 16012KT 3SM -SHRA BR OVC008 FM010200 26015G25KT 5SM BR VCSH BKN015", "KRDM 300520Z 3006/0106 32008KT P6SM SCT080 SCT250 FM300800 VRB06KT P6SM FEW040 SCT080 SCT250 FM301900 32012G22KT P6SM BKN100 FM010400 33009KT P6SM BKN100", "TAF AMD KRDR 291930Z 2919/3024 35012G18KT 9000 -SHRA BKN020 QNH2989INS BECMG 3000/3001 34012G18KT 9999 NSW BKN030 620304 QNH2997INS BECMG 3013/3014 34015G20KT 9999 BKN050 520053 QNH3003INS BECMG 3015/3016 01020G25KT 9999 FEW100 520023 QNH3003INS TEMPO 3016/3023 35025G30KT 520003 TX10/3018Z TN02/3011Z LAST NO AMDS AFT 2919 NEXT 0111", "KRDU 300536Z 3006/0106 17006KT 5SM -SHRA BKN050 BKN100 TEMPO 3006/3007 3SM -TSRA BKN025CB FM301100 15006KT 4SM -SHRA OVC007 FM301600 21008KT 5SM -SHRA OVC012 TEMPO 3016/3019 2SM -TSRA OVC015CB FM302100 27012G18KT P6SM SCT070", "KRFD 300834Z 3009/0106 28009KT P6SM SCT030 BKN050 FM301400 30014G22KT 5SM -SHRA OVC018 TEMPO 3019/3023 2SM -SHRA OVC010 FM010100 30013G22KT P6SM VCSH OVC012", "KRHI 301009Z 3010/0106 32008KT 3SM -SN BR SCT009 OVC014 TEMPO 3010/3012 1 1/2SM -SN BR BKN009 FM301200 32010G17KT 2SM -SN BR BKN007 FM301700 34010G21KT 4SM -SNRA BR OVC008 FM302200 34010G21KT 2SM -SN BR OVC008", "KRIC 300915Z 3009/0106 11006KT 5SM -SHRA BR SCT003 OVC010 TEMPO 3009/3012 2SM -SHRA BR OVC003 FM301200 10004KT 5SM -SHRA BR OVC007 FM301900 22006KT 6SM -SHRA BR OVC007 FM302000 27008KT 6SM -SHRA BR OVC007 FM010000 30009KT P6SM BKN080", "KRIL 300520Z 3006/0106 VRB04KT P6SM FEW250 FM302100 28008KT P6SM FEW250 FM010200 VRB04KT P6SM FEW250", "TAF KRIV 300400Z 3004/0110 29006KT 9999 SCT250 QNH2994INS BECMG 3008/3009 30004KT 9000 HZ SCT250 QNH2990INS BECMG 3012/3013 30004KT 0400 FG BKN001 BKN250 QNH2990INS BECMG 3014/3015 30004KT 3200 BR BKN003 BKN250 QNH2990INS BECMG 3015/3016 31006KT 9000 HZ FEW004 BKN250 QNH2989INS BECMG 3017/3018 32009KT 9999 NSW FEW250 QNH2980INS TEMPO 3021/0102 32012G18KT BECMG 0103/0104 32006KT 9999 FEW010 QNH2982INS BECMG 0106/0107 14004KT 4800 BR OVC005 QNH2982INS TEMPO 0107/0110 3200 -DZ BR BKN003 TX27/3022Z TN11/3013Z", "KRIW 300520Z 3006/0106 01009KT P6SM FEW250", "KRKD 300906Z 3009/0106 10012KT P6SM -SHRA OVC010 FM301100 09012G20KT 5SM -SHRA BR OVC008 FM302000 09015G25KT 2SM -RA BR OVC003 FM010000 10020G30KT 2SM RA BR OVC003 WS020/12045KT", "KRKS 300520Z 3006/0106 26012KT P6SM SCT250 FM300800 VRB04KT P6SM SCT250 FM302100 28012G18KT P6SM SCT250 FM010200 28008KT P6SM SCT250", "KRME 300532Z 3006/0106 11011G19KT P6SM OVC018 FM301200 11013G22KT 5SM BR OVC012 FM301700 11015G26KT 4SM -SHRA BR OVC012 FM302300 10014G24KT 4SM SHRA BR OVC009 WS020/11045KT FM010300 13012G20KT 3SM SHRA BR OVC007", "KRNH 300554Z 3006/0106 33012G18KT P6SM SCT050 BKN080 FM300900 33016G28KT 2SM -SN BR OVC015 FM301400 33020G35KT P6SM -SHRA OVC018 FM302100 30020G35KT P6SM VCSH OVC035 FM010100 34016G25KT P6SM OVC035", "KRNO 300520Z 3006/0106 VRB05KT P6SM FEW110 FEW250 FM302000 23015G25KT P6SM FEW110 SCT250 FM010300 29010KT P6SM SCT100 BKN250", "KROA 301000Z 3010/0106 15005KT 4SM -SHRA BR SCT008 OVC015 TEMPO 3010/3012 2SM -SHRA BR OVC008 FM301200 15005KT 3SM -SHRA BR VCTS OVC009CB FM301800 27006KT P6SM OVC035 FM302000 29011G21KT P6SM BKN035", "KROC 300836Z 3009/0106 13009KT P6SM BKN150 FM301400 13012KT 6SM -RA BR OVC030 FM301900 12012G21KT 3SM RA BR OVC015 FM302100 09010KT 3SM RA BR OVC012 FM302200 05010KT 4SM RA BR OVC007 FM010200 27013KT 4SM RA BR OVC012", "KROG 300530Z 3006/0106 VRB05KT P6SM SKC FM301700 31015G25KT P6SM FEW120 FM010100 30005KT P6SM SKC", "KROW 300532Z 3006/0106 VRB06KT P6SM SKC FM301900 30010KT P6SM SKC FM010100 35009KT P6SM SKC FM010300 07011KT P6SM SKC", "KRSL 300520Z 3006/0106 33007KT P6SM FEW200 FM300900 35009KT P6SM BKN150 FM301600 35017G26KT P6SM SCT200 FM010100 36007KT P6SM FEW250", "KRST 300520Z 3006/0106 32012KT P6SM BKN090 FM300900 32015G30KT P6SM OVC025 FM301200 32020G33KT 3SM -SHRASN OVC010 FM301700 33022G35KT P6SM OVC010 FM010300 34017G35KT P6SM OVC015", "KRSW 300540Z 3006/0106 20012KT P6SM BKN030 BKN100 WS010/18035KT FM301000 22016G26KT 6SM SHRA BKN025 TEMPO 3010/3012 VRB25G35KT TSRA BKN035CB OVC060 FM301300 28025G35KT P6SM OVC050 FM010000 29015KT P6SM FEW250", "KRUT 300739Z 3008/0106 15010G22KT P6SM OVC040 WS020/14050KT FM301100 14017G26KT P6SM BKN090 FM301800 14018G28KT P6SM VCSH BKN080 FM302100 12018G28KT 6SM -SHRA BR OVC080 WS020/12045KT FM010000 12024G36KT 5SM -SHRA BR OVC025 WS020/12065KT", "KRVS 300530Z 3006/0106 VRB04KT P6SM FEW120 FM301600 35011G18KT P6SM BKN120 FM010000 34004KT P6SM SKC", "KRWF 300554Z 3006/0106 31015G24KT P6SM SCT080 FM301200 32023G40KT P6SM SCT025 BKN040 FM301800 33025G40KT P6SM BKN070 FM010100 32016G28KT P6SM SCT060", "KRWI 300546Z 3006/0106 15005KT 5SM -SHRA BKN050 TEMPO 3006/3008 BKN007 FM301100 16005KT 4SM -SHRA BR OVC012 FM301200 18004KT 4SM -SHRA OVC007 FM301600 22009KT P6SM OVC015 TEMPO 3016/3020 2SM -TSRA BR OVC015CB FM302200 28012G22KT P6SM BKN050", "KRWL 300520Z 3006/0106 31006KT P6SM SCT200 FM301300 VRB04KT P6SM SCT200 FM301800 30012G20KT P6SM SCT100 FM010000 04007KT P6SM SKC", "KRYY 300920Z 3009/0106 30005KT 6SM -RA BR SCT015 OVC045 FM301400 30014G24KT P6SM BKN045 FM301700 29018G28KT P6SM SCT050 FM010000 29012KT P6SM SKC", "KSAC 300639Z 3007/0106 20009KT P6SM SCT250 FM301800 20011G17KT P6SM SCT250", "KSAF 300532Z 3006/0106 VRB05KT P6SM SKC FM301800 28012KT P6SM FEW250 FM302100 29015G25KT P6SM FEW220 FM010200 36009KT P6SM FEW180 FM010400 13012KT P6SM FEW200", "KSAN 300850Z 3009/0112 VRB04KT P6SM OVC008 FM301800 26010KT P6SM BKN014 FM010200 21006KT P6SM OVC017 FM011100 20009KT P6SM OVC020", "KSAT 300855Z 3009/0112 30004KT P6SM SKC FM301500 22008KT P6SM SKC FM302100 18010KT P6SM SKC", "KSAV 301001Z 3010/0106 22012G18KT 6SM -SHRA BR BKN025 TEMPO 3010/3013 4SM SHRA BR BKN020 FM301300 23014G23KT P6SM VCSH SCT020 BKN050 FM301700 27017G28KT P6SM SCT060 FM010000 27008KT P6SM FEW250", "KSAW 300542Z 3006/0106 03008KT 6SM -RA BR OVC003 FM301200 03008KT 1SM -RA BR OVC002 FM302100 01008KT 6SM BR VCSH OVC009 FM010000 34008KT 3SM -RA BR OVC005 FM010400 34010G20KT 1 1/2SM -RASN BR OVC003", "KSBA 300906Z 3009/0106 VRB03KT 2SM BR OVC003 FM301000 VRB03KT 5SM BR OVC006 FM301600 17006KT P6SM BKN012 FM302000 21008KT P6SM SCT015 FM010400 13006KT P6SM BKN007", "KSBD 300520Z 3006/0106 25005KT P6SM SCT250 FM301300 25003KT 5SM HZ SCT250 FM302100 25009KT P6SM SCT250 FM010400 25004KT P6SM SKC", "KSBM 300918Z 3009/0106 28014KT 6SM -RA OVC015 FM301400 27008KT P6SM -RASN OVC006 FM301800 29007KT 3SM -RA BR OVC005 FM302200 30007KT P6SM VCSH OVC005 FM010400 32012G21KT P6SM OVC004", "KSBN 300548Z 3006/0106 27010KT P6SM SCT050 BKN200 TEMPO 3009/3013 4SM BR BKN025 FM301600 27013KT P6SM VCSH SCT025 BKN050 FM302000 27015G23KT 5SM -SHRA BR SCT015 OVC025 TEMPO 3020/3024 2SM BR SCT007 BKN015 FM010100 27015KT 4SM -SHRA BR OVC007", "KSBP 300906Z 3009/0106 30006KT 3SM BR OVC002 FM301600 32008KT P6SM OVC006 FM301900 32018G25KT P6SM SCT200 FM010200 31012G18KT P6SM BKN015", "KSBY 300734Z 3008/0106 11006KT P6SM SCT004 BKN040 TEMPO 3008/3010 3SM BR OVC004 FM301000 11006KT 6SM -SHRA BR OVC015 FM301100 11008KT 4SM SHRA BR OVC007 FM301700 15011KT 4SM -SHRA BR OVC006 FM010100 27012G19KT 6SM -SHRA BR BKN007 FM010400 28013G20KT P6SM BKN050", "KSCK 300639Z 3007/0106 29011KT P6SM SCT250 FM301900 29013G20KT P6SM SKC", "KSDF 300642Z 3007/0112 21006KT P6SM FEW150 FM300725 32015G27KT P6SM SCT080 FM300830 31012KT P6SM SCT021 OVC050 TEMPO 3010/3014 OVC021 FM301500 28015G25KT P6SM BKN070 PROB30 3017/3023 28022G34KT 4SM -SHRA BR OVC050", "KSDL 300520Z 3006/0106 VRB03KT P6SM SKC FM301600 13005KT P6SM SKC FM302100 23005KT P6SM SCT250", "KSDY 300520Z 3006/0106 VRB06KT P6SM SKC FM302200 04007KT P6SM SKC", "KSEA 300853Z 3009/0112 21008KT P6SM FEW140 SCT200 FM301200 19006KT P6SM BKN120 FM301300 20007KT P6SM BKN035 FM302000 23008KT P6SM BKN050 OVC070 FM010200 24005KT P6SM BKN040 OVC070", "KSEZ 300520Z 3006/0106 04009KT P6SM SKC FM302200 20010G17KT P6SM FEW250 FM010500 07007KT P6SM SKC", "KSFB 300539Z 3006/0106 22011KT P6SM SCT025 BKN200 WS015/24040KT FM300800 18016G24KT P6SM VCTS BKN015 OVC025CB TEMPO 3009/3012 VRB25G35KT 2SM +TSRA BKN010 OVC020CB FM301400 24018G27KT P6SM SCT020 BKN035 FM301800 26022G30KT P6SM SCT060 FM010000 27012KT P6SM SKC", "KSFF 300520Z 3006/0106 VRB02KT P6SM FEW100 FEW250 FM302200 23006KT P6SM FEW100 FEW250 FM010200 VRB02KT P6SM FEW100 BKN250", "KSFO 300900Z 3009/0112 29010KT P6SM OVC010 FM301000 28014G19KT P6SM OVC008 FM301730 27019G24KT P6SM BKN012 BKN250 FM302100 29025G34KT P6SM FEW010 SCT250 FM010500 26018G28KT P6SM SCT010 SCT250", "KSGF 300520Z 3006/0106 34010KT P6SM SKC FM300800 30006KT P6SM SKC FM010000 31018G28KT P6SM SKC FM010100 VRB04KT P6SM SKC", "KSGJ 300812Z 3008/0106 20011KT P6SM VCSH SCT030 BKN040 TEMPO 3009/3012 VRB25G40KT 1SM +TSRA BR BKN020CB OVC060 FM301200 24016G26KT P6SM VCSH SCT015 BKN030 FM301600 27016G30KT P6SM SCT035", "KSGR 300520Z 3006/0106 VRB03KT P6SM SKC FM301500 25008KT P6SM SKC FM010000 19008KT P6SM SKC", "KSGU 300525Z 3006/0106 VRB04KT P6SM FEW250 FM302100 25012G20KT P6SM SCT250 FM010300 18008KT P6SM FEW250", "KSHR 300520Z 3006/0106 VRB04KT P6SM FEW090 SCT200 FM301600 08006KT P6SM FEW100", "KSHV 300539Z 3006/0106 26007KT P6SM SKC FM301500 29010KT P6SM SKC FM010000 33006KT P6SM FEW250", "KSJC 300539Z 3006/0106 32008KT P6SM FEW045 SCT180 BKN250 FM301000 31003KT P6SM BKN010 FM301700 30009KT P6SM SCT250 FM302100 31018G25KT P6SM SCT250 FM010400 31014KT P6SM SCT015", "KSJS 300524Z 3006/0106 VRB03KT P6SM OVC060 FM301300 28005KT P6SM SCT250 FM301500 28008G15KT P6SM BKN025 FM301800 28010G17KT P6SM SCT035 FM302100 28010G21KT P6SM VCTS SCT050CB BKN150 FM010500 27009KT P6SM BKN060", "KSJT 300520Z 3006/0106 24005KT P6SM SKC FM301600 21012G20KT P6SM SKC FM010100 18010KT P6SM SKC", "TAF KSKA 300300Z 3003/0109 VRB06KT 9999 SKC QNH2970INS WND 18007KT AFT 3019 TX23/3022Z TN10/3013Z", "TAF KSKF 301000Z 3010/0116 27009KT 9999 SKC QNH2989INS BECMG 0100/0101 14006KT 9999 SKC QNH2979INS TX31/3022Z TN10/3011Z", "KSLC 300926Z 3009/0112 15007KT P6SM FEW200 FM302100 32007KT P6SM FEW150 SCT200 FM010100 12008KT P6SM SCT220", "KSLE 300520Z 3006/0106 22006KT P6SM FEW060 SCT250 FM301200 18006KT P6SM VCSH BKN025 OVC035 FM301900 21006KT P6SM SCT025 BKN035", "TAF KSLI 300500Z 3005/0111 VRB06KT 9000 BR SKC QNH2997INS BECMG 3009/3010 VRB06KT 8000 BR SCT003 BKN010 QNH2993INS BECMG 3011/3012 VRB06KT 8000 BR BKN003 OVC010 QNH2992INS BECMG 3018/3019 VRB06KT 8000 BR BKN010 BKN017 QNH2993INS BECMG 3019/3020 VRB06KT 8000 BR FEW010 QNH2982INS BECMG 0106/0107 VRB06KT 9000 BR BKN009 OVC016 QNH2980INS TX19/3023Z TN12/3014Z", "KSLK 300526Z 3006/0106 14006KT P6SM -SHRA SCT025 OVC035 WS020/16050KT FM300800 14008KT P6SM OVC028 FM301700 10008KT P6SM VCSH OVC040 FM302200 10015G23KT 5SM -SHRA BR OVC050 WS020/13045KT FM010100 10017G26KT 5SM -SHRA BR OVC015 WS020/12060KT", "KSLN 301001Z 3010/0106 33008KT P6SM BKN200 FM301600 33020G30KT P6SM SCT200 FM010100 34007KT P6SM FEW250", "KSME 300524Z 3006/0106 00000KT P6SM OVC060 FM301000 27005KT P6SM SCT250 FM301300 28010KT P6SM BKN010 FM301500 28010G16KT P6SM BKN025 FM301700 28012G19KT P6SM SCT035 FM302000 28014G21KT P6SM VCTS SCT050CB BKN150 FM010200 27010KT P6SM BKN060", "KSMF 300639Z 3007/0106 17008KT P6SM SCT250 FM301800 18012KT P6SM SCT250", "KSMN 300520Z 3006/0106 VRB05KT P6SM SKC", "KSMO 300906Z 3009/0106 VRB03KT 5SM BR OVC004 FM301500 VRB03KT 6SM BR OVC007 FM301900 24008KT P6SM BKN015 FM010000 26008KT 6SM BR OVC008 FM010200 VRB03KT 4SM BR OVC004", "KSMX 300906Z 3009/0106 VRB03KT 1SM BR VV002 FM301500 30005KT 3SM BR OVC005 FM301900 30015G22KT P6SM SCT200 FM010200 30015G22KT 4SM BR BKN007 FM010400 30010KT 1/2SM FG OVC003", "KSNA 300520Z 3006/0106 13003KT P6SM OVC010 FM301000 VRB04KT P6SM OVC009 FM301800 26007KT P6SM BKN015 TEMPO 3021/0101 SCT018 FM010100 20007KT P6SM BKN018", "KSNS 300645Z 3007/0106 30007KT 6SM BR OVC004 FM301700 29008KT P6SM OVC015 FM301800 27015G19KT 6SM -DZ BR OVC020 FM010300 27014KT P6SM OVC030", "KSNY 300520Z 3006/0106 01008KT P6SM BKN100 FM301800 36013KT P6SM SKC FM302300 06008KT P6SM SCT100", "KSOA 300520Z 3006/0106 VRB03KT P6SM SKC FM301800 20012G20KT P6SM SKC", "KSPI 300520Z 3006/0106 27008KT P6SM SCT070 FM301200 28011KT P6SM BKN060 FM301400 30015G24KT P6SM OVC050 FM301800 30020G30KT P6SM VCSH OVC035 FM010300 30017G28KT P6SM BKN045", "KSPS 300520Z 3006/0106 23005KT P6SM SKC FM301100 33005KT P6SM SCT150 FM301600 05012G20KT P6SM BKN150 FM010100 07008KT P6SM SCT150", "KSRQ 300540Z 3006/0106 22015KT P6SM SCT015 OVC250 WS010/19040KT FM300800 24026G36KT 6SM SHRA BKN025 TEMPO 3009/3011 VRB25G35KT TSRA BKN035CB OVC060 FM301200 27022G32KT P6SM SCT020 BKN040 FM010000 29015KT P6SM FEW250", "TAF KSSC 300700Z 3007/0113 16006KT 8000 -RA BR OVC003 QNH2954INS BECMG 3010/3011 16006KT 9999 NSW OVC005 QNH2942INS BECMG 3014/3015 24010G15KT 9999 -RA OVC010 QNH2933INS BECMG 3019/3020 26015G25KT 9999 VCSH OVC015 QNH2939INS BECMG 3021/3022 25009KT 9999 NSW SCT050 QNH2940INS TX23/3019Z TN09/3011Z LAST NO AMDS AFT 3007 NEXT 3015", "KSSF 300522Z 3006/0106 VRB03KT P6SM SKC FM301500 22007KT P6SM SKC FM302100 17010KT P6SM SKC", "KSSI 300521Z 3006/0106 17010G18KT P6SM VCSH OVC040 FM300900 23013G25KT P6SM VCTS SCT015 SCT025CB OVC120 TEMPO 3009/3012 VRB20G35KT 3SM +TSRA BR BKN025CB OVC070 FM301300 26018G32KT P6SM FEW025 SCT040", "KSTC 300554Z 3006/0106 33011KT P6SM SCT080 FM300800 32015G25KT P6SM SCT080 FM301200 33021G37KT P6SM OVC025 FM301700 33023G38KT P6SM BKN050 FM010100 33015G25KT P6SM FEW060", "KSTJ 300520Z 3006/0106 28006KT P6SM FEW060 FM301300 34015G25KT P6SM SCT050 FM301600 33020G30KT P6SM SCT050 FM010100 32010KT P6SM SKC", "KSTL 300910Z 3009/0112 29008KT P6SM SKC FM301400 30014G24KT P6SM BKN050 FM301800 30020G32KT P6SM BKN050 FM010200 30014G22KT P6SM SCT060", "KSTS 300827Z 3008/0106 19004KT 1SM BR OVC002 FM301300 19003KT 2SM BR OVC005 FM301730 VRB03KT P6SM SCT009 FM301900 19009KT P6SM SKC FM302300 21012KT P6SM SKC FM010300 21008KT P6SM SCT015", "KSUA 300539Z 3006/0106 16013G18KT P6SM SCT050 BKN080 BKN110 FM301100 18016KT P6SM VCTS BKN015 OVC025CB TEMPO 3012/3015 3SM TSRA BKN010 OVC020CB FM301600 24018G27KT P6SM SCT020 BKN035 FM301800 26020G30KT P6SM SCT060 FM010000 26011KT P6SM SKC AMD NOT SKED", "KSUN 300520Z 3006/0112 31009KT P6SM SCT100 FM301800 15007KT P6SM FEW200 FM010300 31008KT P6SM VCSH SCT050 BKN100 FM010800 31008KT P6SM BKN100 AMD LTD TO CLD VIS AND WIND TIL 301300", "KSUS 300520Z 3006/0106 29006KT P6SM SKC FM301400 30012G22KT P6SM BKN060 FM301800 30018G30KT P6SM BKN060 FM010200 30012G22KT P6SM FEW060", "TAF KSUU 300300Z 3003/0109 23015G25KT 9999 SKC QNH2991INS BECMG 3010/3011 23025G35KT 9999 SKC 510003 QNH2986INS BECMG 3018/3019 23015G25KT 9999 SKC QNH2977INS TX23/3022Z TN09/3013Z", "KSUX 300520Z 3006/0106 32012G18KT P6SM FEW100 FM301200 32016G28KT P6SM SCT090 FM301400 33019G30KT P6SM SCT070 FM010200 33018G27KT P6SM FEW240", "KSWF 300837Z 3009/0112 08006KT 1SM -RADZ BR OVC004 FM301000 08007KT 1/2SM -RADZ FG OVC004 FM301100 08007KT 1SM -RADZ BR OVC004 FM301500 08009KT 4SM -RA BR OVC004 FM302100 10014KT 2SM RA BR OVC004 PROB30 3021/0103 TSRA BKN004CB FM010400 18009KT 2SM -RA BR OVC004 FM010800 26012KT 4SM BR SCT006 FM011100 24012KT P6SM FEW024 AMD NOT SKED", "KSWO 300520Z 3006/0106 VRB05KT P6SM SKC FM301500 34011G17KT P6SM BKN150 FM010100 35005KT P6SM SCT150", "KSYM 300524Z 3006/0106 VRB03KT P6SM OVC060 FM300900 28007KT P6SM SCT030 SCT060 SCT250 FM301300 28010KT P6SM BKN010 FM301500 28010G16KT P6SM BKN025 FM301600 28011G17KT P6SM SCT035 FM301800 28013G21KT P6SM VCTS SCT050CB BKN150 FM010200 27011KT P6SM VCSH BKN040", "KSYR 300532Z 3006/0106 08010KT P6SM SCT025 BKN030 FM301200 11011G18KT 4SM -SHRA BR OVC015 FM301600 11011G19KT 3SM SHRA BR OVC009 FM302200 09013G21KT 2SM SHRA BR OVC009 WS020/11045KT FM010400 26012G21KT 3SM SHRA BR OVC007", "TAF KSZL 300300Z 3003/0109 35012KT 9999 SKC QNH2975INS BECMG 3014/3015 31020G30KT 9999 SCT040 QNH2978INS BECMG 3023/3024 31009KT 9999 FEW080 QNH2980INS TX15/3021Z TN05/3006Z", "KTCC 300532Z 3006/0106 24007KT P6SM SKC FM301700 02011KT P6SM FEW250 FM302000 05011KT P6SM FEW220 FM010000 08012G19KT P6SM FEW200 AMD NOT SKED", "KTCL 300936Z 3010/0106 31010KT P6SM SCT008 BKN050 FM301800 29018G28KT P6SM SKC FM010300 28005KT P6SM FEW250", "TAF KTCM 300500Z 3005/0111 VRB05KT 9999 FEW050 QNH2991INS BECMG 3014/3015 20006KT 9999 BKN020 OVC035 QNH2989INS BECMG 3022/3023 25006KT 9999 BKN035 620703 QNH2987INS BECMG 0106/0107 22006KT 9999 BKN020 OVC030 620603 QNH2986INS TX15/3023Z TN09/3013Z", "KTCS 300528Z 3006/0106 VRB05KT P6SM SKC FM301800 18010G18KT P6SM FEW250 FM010200 28009KT P6SM FEW250", "KTEB 300837Z 3009/0112 04005KT 1SM -DZ BR OVC004 FM301000 05005KT 3/4SM -DZ BR OVC004 FM301500 08007KT 2SM -RA BR OVC004 FM302100 11013G21KT 2SM RA BR OVC004 PROB30 3021/0102 TSRA BKN004CB FM010600 28012KT 6SM BR BKN013 FM010900 25010KT P6SM FEW045", "KTEX 300520Z 3006/0106 14004KT P6SM SKC FM301500 VRB04KT P6SM FEW250 FM301800 26007KT P6SM FEW250 FM010200 13004KT P6SM FEW250", "TAF KTIK 300900Z 3009/0115 VRB06KT 9999 FEW100 QNH2980INS BECMG 3015/3016 36012G18KT 9999 SCT120 QNH2991INS BECMG 3023/3024 01009KT 9999 FEW250 QNH2988INS TX21/3021Z TN09/3012Z", "KTIX 300539Z 3006/0106 20009KT P6SM SCT025 BKN200 WS015/22040KT FM300900 18016KT P6SM VCTS BKN015 OVC025CB TEMPO 3010/3013 VRB25G35KT 2SM +TSRA BKN010 OVC020CB FM301500 24018G27KT P6SM SCT020 BKN035 FM301800 26020G30KT P6SM SCT060 FM010000 26010KT P6SM SKC AMD NOT SKED TIL 301100", "KTLH 300758Z 3008/0106 23010KT P6SM VCSH SCT015 BKN070 FM301000 28016G25KT P6SM SCT015 BKN025 FM301500 29015G23KT P6SM SCT040 FM010200 27010KT P6SM SKC", "KTMB 300839Z 3009/0106 20008KT P6SM FEW030 BKN250 FM301300 27018G28KT P6SM VCTS SCT030CB BKN050 OVC250 TEMPO 3013/3016 VRB20G30KT 3SM TSRA BKN020CB FM302000 26015G25KT P6SM SCT030 BKN050 FM010200 26008KT P6SM FEW040 SCT100 SCT250", "KTOI 300540Z 3006/0106 30010KT 6SM SHRA BR SCT007 BKN035 FM300900 30013G24KT 6SM SHRA BR OVC008 FM301200 29014KT P6SM VCSH BKN013 FM301430 30014KT P6SM BKN060 FM301900 28016G25KT P6SM SKC FM010300 24005KT P6SM SKC", "KTOL 300529Z 3006/0106 29005KT P6SM SCT070 FM301000 25004KT 4SM -SHRA BR OVC022 FM301100 27006KT 5SM -SHRA BR OVC014 FM301400 27008KT P6SM BKN022 FM301800 26013KT P6SM BKN045 FM010500 25009KT 6SM -SHRA BKN022", "KTOP 300534Z 3006/0106 28004KT P6SM SKC FM301300 32015G26KT P6SM SKC FM301800 32020G33KT P6SM FEW250 FM010200 33011KT P6SM SKC", "KTPA 300901Z 3009/0112 22025KT 6SM SHRA SCT015 BKN025 TEMPO 3009/3010 VRB25G35KT TSRA BKN020CB OVC060 FM301100 28025G35KT P6SM SCT020 BKN050 FM010000 28015KT P6SM FEW250", "KTPH 300520Z 3006/0106 VRB06KT P6SM SCT200 FM301900 19010G20KT P6SM BKN250 FM302100 20015G25KT P6SM BKN250 FM010500 20015KT P6SM FEW250 AMD NOT SKED", "KTRI 300942Z 3010/0106 27004KT 6SM -RA BR OVC050 FM301500 27010G20KT P6SM VCSH BKN035 FM301800 27015G30KT P6SM SCT040 PROB30 3020/3024 -RA BKN050", "KTRK 300520Z 3006/0106 VRB05KT P6SM FEW090 FEW250 FM301800 22012G22KT P6SM FEW100 SCT250 FM010400 18009KT P6SM SCT090 BKN250 WS020/21030KT", "KTRM 300520Z 3006/0106 34005KT P6SM SKC FM301800 14009KT P6SM SCT250 FM010200 33012KT P6SM SCT250", "KTTD 300520Z 3006/0106 23005KT P6SM FEW070 SCT250 FM301400 VRB04KT P6SM VCSH BKN025 OVC035 FM302000 23005KT P6SM SCT025 BKN035", "KTTN 300540Z 3006/0106 07006KT 1SM -DZ BR OVC002 TEMPO 3006/3010 1/2SM FG FM301300 09010KT 2SM -SHRA BR OVC004 FM301900 11012G20KT 3SM -SHRA BR OVC005 FM010100 20010G22KT 3SM -SHRA BR BKN006 FM010300 25011G19KT 5SM BR VCSH BKN015", "KTUL 300530Z 3006/0106 VRB05KT P6SM FEW120 FM301600 33012G19KT P6SM BKN120 FM010000 35007KT P6SM SKC", "KTUP 300520Z 3006/0106 32007KT P6SM VCSH BKN080 FM300800 31008KT P6SM SCT080 SCT250 FM301500 32012G19KT P6SM SKC FM301800 30016G25KT P6SM FEW100 FM010000 31007KT P6SM FEW250", "KTUS 300520Z 3006/0106 28006KT P6SM SKC FM300800 15005KT P6SM SKC FM301900 27007KT P6SM BKN250 FM302100 28012G20KT P6SM BKN250 FM010300 25008KT P6SM BKN250", "KTVC 300856Z 3009/0106 19005KT P6SM VCSH SCT015 OVC025 FM301800 33006KT P6SM VCSH OVC025 FM010300 29006KT P6SM VCSH OVC015", "KTVF 300520Z 3006/0106 35014KT P6SM BKN040 FM301400 35016G23KT P6SM SCT025 FM301700 35021G28KT P6SM SCT035", "KTVL 300520Z 3006/0106 19005KT P6SM FEW090 FEW250 FM301800 20011G18KT P6SM FEW100 SCT250 FM010400 19007KT P6SM SCT070 BKN250 WS020/21035KT", "KTWF 300540Z 3006/0106 18009KT P6SM SKC FM301100 VRB06KT P6SM FEW200 FM302300 17008KT P6SM VCSH BKN100", "KTXK 300539Z 3006/0106 24005KT P6SM SKC FM301500 29010KT P6SM SKC FM010000 32008KT P6SM FEW250 FM010300 02004KT P6SM SCT250", "KTYR 300539Z 3006/0106 25004KT P6SM SKC FM301500 26008KT P6SM SKC FM302100 29004KT P6SM SKC FM010000 04007KT P6SM SKC", "KTYS 300939Z 3010/0106 VRB03KT P6SM VCSH BKN080 TEMPO 3010/3013 6SM -RA BR OVC040 FM301300 26009KT P6SM BKN040 FM301600 27015G30KT P6SM SCT050 PROB30 3020/3024 -RA BKN050 FM010300 26010KT P6SM SCT050", "KUAO 300520Z 3006/0106 22005KT P6SM FEW070 SCT250 FM301300 20005KT P6SM VCSH BKN025 OVC035 FM302000 22005KT P6SM SCT025 BKN035", "KUES 300917Z 3009/0106 25008KT P6SM BKN029 OVC035 FM301100 27012KT P6SM VCSH BKN018 FM301300 28012KT 3SM -RASN BR OVC005 FM301800 28012KT 2SM -RA BR OVC006 FM302300 31012G21KT P6SM VCSH OVC005", "KUIN 300520Z 3006/0106 28008KT P6SM SKC FM301000 28008KT P6SM BKN070 FM301400 31015G27KT P6SM FEW070 FM301900 30022G35KT P6SM OVC035 FM010400 30015G25KT P6SM BKN060", "KUKI 300934Z 3010/0106 VRB02KT P6SM SKC TEMPO 3010/3014 5SM BR OVC005 FM301800 34011KT 5SM BR OVC015 FM010300 35014KT P6SM OVC020", "KUNV 300925Z 3009/0106 05002KT 4SM -RA BR OVC012 FM301000 10006KT 4SM -SHRA BR OVC012 FM302100 30006KT 4SM -SHRA OVC015 FM010000 29007G15KT 4SM -RA BR OVC025", "KUTS 300520Z 3006/0106 VRB03KT P6SM SKC FM301500 25006KT P6SM SKC FM010100 19006KT P6SM SKC", "KVCT 300520Z 3006/0106 VRB05KT P6SM SKC FM302100 17009KT P6SM SKC", "KVEL 300520Z 3006/0106 31007KT P6SM FEW250 FM301500 VRB04KT P6SM SKC", "KVGT 300520Z 3006/0106 VRB05KT P6SM FEW250 FM301600 15010KT P6SM SCT250 FM301900 18014G24KT P6SM BKN200 FM010100 21015G25KT P6SM SCT250", "KVIS 300520Z 3006/0106 31009KT P6SM BKN250", "KVLD 300520Z 3006/0106 22011KT P6SM SCT007 BKN015 OVC025 FM300800 23012G25KT 6SM -TSRA SCT007 OVC015CB FM301200 25012G24KT P6SM BKN025 FM302000 28012G20KT P6SM SKC FM010100 24007KT P6SM SKC", "KVNY 300906Z 3009/0106 12005KT 6SM BR BKN007 FM301600 14005KT 6SM HZ SCT200 FM302000 15008KT P6SM SCT200 FM010400 11005KT P6SM SKC", "TAF KVOK 300900Z 3009/0115 31012KT 9000 -RA BKN005 OVC010 510043 QNH2942INS BECMG 3011/3012 32025G35KT 8000 -RA OVC010 510003 QNH2943INS BECMG 0105/0106 32020G30KT 9999 NSW OVC015 510003 QNH2942INS TX04/3022Z TNM00/0109Z", "TAF KVPS 300900Z 3009/0115 30012KT 9999 SCT010 BKN040 QNH2954INS TEMPO 3009/3014 30012G18KT BKN008 BECMG 3015/3016 30010G18KT 9999 FEW040 QNH2973INS BECMG 3020/3021 28010KT 9999 SKC QNH2980INS TX25/3021Z TN16/3009Z", "KVQQ 300811Z 3008/0106 18010KT P6SM VCSH SCT030 BKN040 TEMPO 3009/3011 VRB30G45KT 1SM +TSRA BR BKN010 BKN020CB OVC070 FM301200 24016G26KT P6SM VCSH SCT015 BKN030 FM301600 27016G30KT P6SM SCT035", "KVRB 300539Z 3006/0106 19015G24KT P6SM SCT025 BKN200 FM301000 18016KT P6SM VCTS BKN015 OVC025CB TEMPO 3011/3014 3SM TSRA BKN010 OVC020CB FM301500 24018G27KT P6SM SCT020 BKN035 FM301800 26020G30KT P6SM SCT060 BKN250 FM010000 26011KT P6SM SKC", "KVTN 300520Z 3006/0106 35009KT P6SM SKC FM300900 32010KT P6SM SKC FM301400 34015KT P6SM SKC FM301600 35018G29KT P6SM SKC FM010000 01008KT P6SM SKC", "KWJF 300535Z 3006/0106 26007KT P6SM SKC FM302000 24020G28KT P6SM SCT200", "KWMC 300520Z 3006/0106 VRB06KT P6SM SCT250 FM301800 25010KT P6SM BKN250 FM010200 26010G20KT P6SM OVC250", "TAF KWRB 300800Z 3008/0114 VRB06KT 6000 -SHRA BKN004 OVC015 QNH2954INS TEMPO 3009/3012 21010G25KT 4800 -TSRA BKN004CB BECMG 3013/3014 27010G20KT 6000 -SHRA SCT008 BKN015 QNH2948INS BECMG 3017/3018 28015G25KT 9999 NSW SCT050 QNH2960INS BECMG 3020/3021 28015G30KT 9999 FEW060 QNH2963INS BECMG 3023/3024 27012KT 9999 SCT050 510053 QNH2967INS BECMG 0104/0105 28008KT 9999 FEW250 QNH2972INS TX23/3020Z TN16/3012Z", "TAF AMD KWRI 300325Z 3003/0108 04006KT 3200 BR OVC001 QNH2979INS BECMG 3010/3011 08009KT 8000 BR OVC005 QNH2960INS BECMG 3013/3014 12012G20KT 8000 -SHRA OVC007 QNH2954INS TEMPO 3018/3020 12015G25KT VCTS BECMG 0103/0104 25010KT 9999 NSW SCT020 QNH2912INS TX16/3022Z TN11/3010Z", "KWRL 300520Z 3006/0106 VRB06KT P6SM SCT250", "KWWR 300520Z 3006/0106 01008KT P6SM SCT150 FM301500 03009G16KT P6SM BKN150 FM010100 07007KT P6SM SCT150", "KXNA 300530Z 3006/0106 VRB05KT P6SM SKC FM301700 33015G25KT P6SM FEW120 FM010100 30006KT P6SM SKC", "KXWA 300520Z 3006/0106 03008KT P6SM SKC", "KYIP 300540Z 3006/0106 24008KT P6SM BKN045 TEMPO 3007/3010 3SM BR FM301000 23008KT 5SM -RA BKN010 OVC035 FM301600 25010KT P6SM OVC040 FM302100 25010KT 5SM -SHRA OVC025 FM010500 25010KT P6SM BKN015", "KYKM 300520Z 3006/0106 28006KT P6SM SCT100 SCT250 FM302200 28012KT P6SM BKN100 FM010400 33006KT P6SM OVC100", "KYNG 300529Z 3006/0106 16007KT P6SM SCT100 FM301200 16004KT 3SM -SHRA BR OVC008 FM301600 22010KT 3SM -SHRA BR BKN008 FM302200 29009KT P6SM BKN013 FM010100 26004KT P6SM SCT045 FM010500 24008KT P6SM BKN015", "KZZV 300536Z 3006/0106 19003KT 6SM -RA BKN035 FM301200 28008KT P6SM OVC015 FM301700 26010KT P6SM VCSH BKN060 FM010400 24012G20KT 6SM -SHRA OVC015", "TAF LAKU 300500Z 3006/0106 VRB02KT CAVOK TX19/3012Z BECMG 3008/3010 02012KT BECMG 3016/3018 VRB02KT", "TAF LATI 300500Z 3006/0106 VRB02KT CAVOK TX24/3012Z TN10/0104Z BECMG 3008/3010 30012KT BECMG 3016/3018 VRB02KT", "TAF LBBG 300500Z 3006/0106 26010KT 9999 SCT040 BECMG 3009/3011 12012KT PROB30 TEMPO 3013/3018 5000 SHRA FEW030CB BKN050 BECMG 3018/3020 VRB04KT", "TAF LBGO 300500Z 3006/0106 VRB04KT 9999 SCT050 BECMG 3009/3011 35010KT PROB40 TEMPO 3011/3016 5000 SHRA FEW030CB SCT040 BECMG 3016/3018 VRB04KT TEMPO 0101/0106 5000 RA SCT030 BKN060", "TAF LBPD 300500Z 3006/0106 VRB04KT 9999 SCT050 TEMPO 3011/3018 3000 TSRA SCT030CB BKN040", "TAF LBSF 300500Z 3006/0106 VRB04KT 9999 SCT050 BKN070 BECMG 3009/3011 32010KT TEMPO 3011/3017 4000 TSRA SCT030CB BKN040 BECMG 3017/3018 VRB04KT TEMPO 0100/0106 4000 BR BKN010", "TAF LBWN 300500Z 3006/0106 VRB04KT 9999 SCT040 BECMG 3007/3009 32010KT BECMG 3015/3017 12012KT BECMG 3018/3020 VRB04KT TEMPO 0101/0104 5000 RA SCT030 BKN050", "TAF LCEN 300440Z 3006/0106 23015KT 9999 SCT025 SCT100 PROB30 TEMPO 3010/3014 -SHRA FEW020CB SCT025 BKN080", "TAF COR LCLK 300530Z 3006/0106 28006KT 9999 FEW020 BECMG 3007/3010 21018KT PROB30 TEMPO 3010/3015 5000 SHRA SCT020TCU BECMG 3017/3020 32007KT", "TAF LCPH 300530Z 3006/0106 04006KT 9999 FEW020 BECMG 3008/3011 29014KT BECMG 3016/3018 02008KT", "TAF LCRA 300746Z 3009/0103 24010KT 9999 FEW040 TEMPO 3009/3015 25015G25KT", "TAF LDDU 300525Z 3006/0106 VRB02KT CAVOK TX18/3011Z TN13/0103Z TEMPO 3009/3011 20010KT BECMG 3012/3014 29008KT PROB30 TEMPO 3012/3015 TS FEW050CB BECMG 3018/3020 05008KT", "TAF LDLO 300525Z 3006/0106 VRB02KT CAVOK TX20/3012Z TN14/0105Z BECMG 3018/3020 02008KT BECMG 0100/0102 VRB02KT", "TAF LDOS 300525Z 3006/0106 29008KT CAVOK TX21/3013Z TN10/0104Z BECMG 3008/3010 02008KT", "TAF LDPL 300525Z 3006/0106 09005KT CAVOK TX21/3013Z TN10/3006Z BECMG 3006/3008 08010KT PROB30 TEMPO 3018/0102 06015G25KT", "TAF LDRI 300525Z 3006/0106 VRB02KT CAVOK TX22/3013Z TN14/3006Z BECMG 3008/3010 07010KT PROB30 TEMPO 3018/0102 06015G30KT", "TAF COR LDSB 291126Z 2912/3012 VRB02KT 9999 SCT050 TX19/3011Z TN12/3003Z PROB40 TEMPO 2913/2917 22008KT", "TAF LDSP 300525Z 3006/0106 VRB02KT CAVOK TX21/3013Z TN14/0105Z BECMG 3009/3011 23008KT PROB30 TEMPO 3012/3017 33010KT -TSRA FEW040CB SCT050 BECMG 3016/3018 VRB02KT PROB40 TEMPO 3021/0104 05008KT", "TAF LDZA 300525Z 3006/0106 04008KT CAVOK TX21/3013Z TN08/0104Z BECMG 3019/3021 VRB02KT", "TAF LDZD 300525Z 3006/0106 VRB02KT 9999 SCT040 TX22/3012Z TN12/0104Z BECMG 3007/3009 04009KT PROB30 TEMPO 3012/3016 33009KT TS FEW040CB SCT050 PROB30 TEMPO 3018/3022 04015KT", "TAF LEAB 300500Z 3006/0106 VRB05KT CAVOK TX28/3015Z TN11/0106Z PROB40 TEMPO 3015/3019 35010KT FEW045TCU BECMG 3018/3020 18012KT", "TAF LEAG 300800Z 3009/0109 28008KT CAVOK TX28/3013Z TN19/0106Z", "TAF LEAL 300500Z 3006/0106 VRB03KT 9999 FEW050 TX24/3012Z TN17/3006Z BECMG 3008/3010 16010KT BECMG 3014/3017 VRB03KT", "TAF AMD LEAM 300841Z 3008/0106 16008KT CAVOK TX26/3013Z TN17/0103Z", "TAF LEAO 300800Z 3009/0109 05006KT CAVOK TX28/3015Z TN11/0106Z PROB40 TEMPO 3015/3020 FEW050TCU PROB30 TEMPO 3017/3020 VRB15G25KT TSRA FEW050CB", "TAF LEAS 300800Z 3009/0109 33008KT 8000 SCT010 BKN020 TX16/3016Z TN10/0105Z TEMPO 3009/3014 BKN010 TEMPO 3009/3014 3000 RA BR BCFG BKN005 BKN010 TEMPO 3011/3019 04010KT", "TAF LEBA 300800Z 3009/0109 VRB02KT CAVOK TX33/3015Z TN13/0106Z BECMG 3012/3014 25010KT BECMG 3023/0101 VRB02KT", "TAF LEBB 300500Z 3006/0106 31008KT 9999 SCT010 BKN020 TX15/3012Z TN11/0106Z TEMPO 3006/3021 3000 RA BKN010 PROB40 TEMPO 3006/3009 3000 BR BCFG BKN010 PROB40 TEMPO 3006/3009 0800 BCFG BKN002 BKN005", "TAF AMD LEBG 300908Z 3009/0109 03012KT 9999 FEW020 SCT030 TX18/3015Z TN05/0106Z PROB30 TEMPO 3011/3015 SCT030TCU PROB30 TEMPO 0103/0107 BKN008", "TAF AMD LEBL 300812Z 3008/0106 20010KT 9999 FEW040 TX20/3012Z TN16/0105Z TEMPO 3008/3012 07009KT PROB30 TEMPO 3012/3015 SHRA FEW045CB BECMG 3014/3016 10010KT TEMPO 3019/3024 16010KT BECMG 3023/0101 VRB04KT", "TAF LEBZ 300800Z 3009/0109 29006KT CAVOK TX30/3015Z TN13/0106Z", "TAF LECO 300800Z 3009/0109 36008KT 8000 SCT010 BKN020 TX18/3015Z TN09/0106Z PROB30 TEMPO 3009/3012 3000 BR BCFG BKN010", "TAF LECV 300500Z 3006/0106 03006KT 9999 FEW050 TX25/3015Z TN12/0101Z PROB30 TEMPO 3010/3016 22010KT", "TAF LEGE 300500Z 3006/0106 VRB02KT 9999 FEW040 TX24/3012Z TN14/3006Z TEMPO 3010/3020 3000 TSRA FEW040CB TEMPO 3010/3016 20010KT", "TAF LEGR 300500Z 3006/0106 VRB02KT 9999 FEW080 TX30/3015Z TN12/3006Z BECMG 3012/3014 24010KT BECMG 3019/3021 VRB02KT", "TAF LEGT 300500Z 3006/0106 05007KT CAVOK TX27/3015Z TN11/0106Z PROB30 TEMPO 3019/3023 36015G25KT", "TAF LEHC 300800Z 3009/0109 28012KT 9999 FEW050 TX25/3015Z TN10/0105Z TEMPO 3010/3019 28020G32KT TEMPO 0100/0109 VRB03KT", "TAF LEIB 300800Z 3009/0109 VRB03KT 9999 FEW020 TX23/3012Z TN14/0105Z BECMG 3009/3011 11010KT BECMG 3019/3022 VRB03KT", "TAF LEJR 300800Z 3009/0109 VRB02KT CAVOK TX29/3013Z TN13/0106Z BECMG 3011/3013 27010KT BECMG 3020/3022 18006KT PROB40 TEMPO 0100/0108 2000 BR BKN006", "TAF LELC 300500Z 3006/0106 VRB03KT CAVOK TX25/3011Z TN18/3006Z BECMG 3011/3013 13010KT BECMG 3019/3021 03006KT PROB30 TEMPO 3021/3024 TSRA FEW070CB", "TAF LELL 300800Z 3009/0109 25005KT 9999 FEW040 TX26/3013Z TN12/0105Z BECMG 3010/3012 18010KT PROB30 TEMPO 3012/3018 3000 SHRA FEW050CB BECMG 3013/3015 12008KT", "TAF LELN 300800Z 3009/0109 VRB05KT 9999 FEW040 TX24/3015Z TN04/0106Z BECMG 3015/3017 01012KT BECMG 3022/3024 VRB03KT", "TAF LELO 300800Z 3009/0109 29008KT 9999 SCT040 TX22/3015Z TN10/0106Z PROB30 TEMPO 3012/3017 32015G25KT", "TAF LEMD 300500Z 3006/0112 04007KT CAVOK TX28/3015Z TN12/0106Z PROB30 TEMPO 3019/3023 36015G25KT", "TAF LEMG 300500Z 3006/0106 29010KT CAVOK TX29/3013Z TN19/0106Z BECMG 3009/3011 13010KT BECMG 3018/3020 VRB02KT", "TAF LEMH 300800Z 3009/0109 01015KT 9999 FEW015 TX22/3012Z TN13/0105Z TEMPO 3009/3018 01018G28KT", "TAF LEMO 300800Z 3009/0109 VRB02KT CAVOK TX31/3015Z TN14/0106Z BECMG 3013/3015 25010KT BECMG 3021/3023 19005KT", "TAF LEPA 300500Z 3006/0106 05008KT 9999 BKN025 TX23/3012Z TN15/3006Z PROB30 TEMPO 3006/3012 SHRA FEW025TCU TEMPO 3012/3018 22010KT BECMG 3018/3020 VRB03KT", "TAF LEPP 300800Z 3009/0109 35009KT 9999 FEW010 BKN020 TX16/3011Z TN10/0105Z PROB30 TEMPO 3009/3015 3000 RA BR BCFG BKN010 PROB40 TEMPO 3009/3020 34015G25KT PROB30 TEMPO 3020/0109 3000 BR BKN010", "TAF LERI 300500Z 3006/0106 VRB02KT CAVOK TX30/3013Z TN15/3006Z BECMG 3011/3013 14010KT BECMG 3019/3021 06005KT PROB30 TEMPO 3019/3022 TSRA FEW070CB", "TAF LERL 300800Z 3009/0109 05006KT CAVOK TX28/3015Z TN10/0106Z PROB40 TEMPO 3015/3020 FEW050TCU PROB30 TEMPO 3017/3020 VRB15G25KT TSRA FEW050CB", "TAF AMD LERS 300933Z 3009/0109 29007KT 9999 FEW020 TX27/3012Z TN13/0105Z BECMG 3012/3014 20013KT TEMPO 3013/3019 20020G32KT TEMPO 3019/3024 05008KT", "TAF LERT 300800Z 3009/0109 33006KT CAVOK TX25/3012Z TN16/0106Z BECMG 3010/3012 27012KT BECMG 3020/3022 18006KT PROB30 TEMPO 0100/0109 4000 BR BKN006", "TAF AMD LESA 300909Z 3009/0109 06010KT CAVOK TX22/3015Z TN08/0106Z", "TAF LESO 300500Z 3006/0106 28009KT 9999 SCT010 BKN020 TX16/3015Z TN12/0106Z TEMPO 3006/0106 BKN010 TEMPO 3006/0106 3000 RA BR BCFG BKN005 BKN010 PROB40 TEMPO 3006/3009 0800 BCFG BKN002", "TAF AMD LEST 300824Z 3008/0106 36008KT 8000 FEW015 SCT030 TX20/3014Z TN10/0106Z TEMPO 3008/0106 BKN010 PROB40 TEMPO 0100/0106 3000 BR BCFG PROB40 TEMPO 0102/0106 0800 FG BKN002", "TAF LESU 300800Z 3009/0109 34007KT 9999 SCT070 TX24/3015Z TN07/0105Z PROB30 TEMPO 3018/3022 4000 TSRA FEW050CB BECMG 3019/3022 VRB02KT", "TAF AMD LETO 300910Z 3009/0106 04010KT CAVOK TX28/3015Z TN10/0106Z PROB30 TEMPO 3019/3023 36015G25KT", "TAF LEVC 300500Z 3006/0106 30005KT 9999 FEW040 TX27/3012Z TN15/3006Z BECMG 3008/3011 12010KT BECMG 3018/3020 VRB03KT TEMPO 3021/0101 07010KT 4000 SHRA FEW030TCU", "TAF LEVD 300800Z 3009/0109 04006KT CAVOK TX22/3015Z TN05/0106Z", "TAF LEVS 300500Z 3006/0106 06007KT CAVOK TX26/3015Z TN12/0106Z", "TAF LEVT 300500Z 3006/0106 01009KT 8000 SCT025 BKN040 TX16/3014Z TN06/0106Z PROB30 TEMPO 3006/3016 3000 RA BR BCFG BKN010 PROB30 TEMPO 3006/3008 0800 BCFG BKN002", "TAF LEVX 300500Z 3006/0106 35007KT 9999 FEW010 SCT020 TX21/3014Z TN10/0106Z TEMPO 3006/3009 3000 BR BKN010 TEMPO 3006/3009 0800 BCFG BKN002 PROB40 TEMPO 3006/3009 0350 BCFG BKN001", "TAF LEXJ 300800Z 3009/0109 34009KT 9999 SCT010 BKN020 TX18/3015Z TN13/0105Z TEMPO 3009/0109 BKN010 PROB40 TEMPO 3009/3015 3000 RA BR BCFG BKN005", "TAF LEZG 300500Z 3006/0106 30020KT 9999 FEW040 TX25/3015Z TN14/3006Z TEMPO 3006/3021 30025G35KT", "TAF LEZL 300800Z 3009/0109 06005KT CAVOK TX32/3015Z TN16/0106Z BECMG 3013/3015 23010KT PROB30 TEMPO 0105/0109 BKN008", "TAF LFAQ 300800Z 3009/3018 05005KT CAVOK", "TAF LFAT 300800Z 3009/3018 15003KT CAVOK BECMG 3014/3016 34010KT", "TAF LFBA 300800Z 3009/3018 29010KT 9999 BKN008 BECMG 3010/3012 SCT020 BKN045 PROB40 TEMPO 3012/3018 4000 SHRA SCT030CB", "TAF AMD LFBD 300808Z 3008/0112 33010KT 9999 BKN010 TX21/3014Z TN13/0100Z BECMG 3009/3011 SCT025 PROB30 TEMPO 3011/3014 -SHRA SCT020TCU BKN025 BECMG 3018/3020 BKN010 BECMG 0107/0109 BKN020 TEMPO 0109/0112 4000 SHRA BKN020TCU", "TAF AMD LFBE 300806Z 3008/0106 30010KT 9999 OVC008 BECMG 3009/3011 BKN020 PROB30 TEMPO 3011/3014 -SHRA SCT020TCU BKN030 BECMG 3022/3024 OVC010", "TAF LFBH 300500Z 3006/0106 01004KT 7000 SCT046 BKN130 BECMG 3011/3013 29013KT TEMPO 3011/3018 27015G25KT 3000 SHRA BKN020CB PROB40 TEMPO 3014/3018 TSRA BECMG 3021/3023 4000 BR BKN006 TEMPO 3023/0106 2800 BKN003", "TAF LFBI 300500Z 3006/0106 34005KT CAVOK TEMPO 3014/3020 27015G25KT 4000 SHRA BKN030CB PROB40 TEMPO 3015/3020 28015G25KT 2000 TSRA BKN020CB BECMG 0100/0102 BKN014 TEMPO 0102/0106 BKN004", "TAF LFBL 300500Z 3006/0106 33010KT 9999 SCT040 PROB30 TEMPO 3006/3008 BKN003 BECMG 3020/3022 27005KT BECMG 0100/0102 OVC003 PROB40 0102/0106 0500 FG VV///", "TAF LFBM 300800Z 3009/0109 27006KT 9999 BKN014 BECMG 3009/3011 SCT030 TEMPO 3011/3019 2500 SHRA SCT020TCU TEMPO 3022/0102 BKN014 OVC025", "TAF LFBO 300500Z 3006/0112 28010KT 9999 BKN007 TEMPO 3006/3021 SCT025TCU BECMG 3009/3011 BKN020 BECMG 0103/0106 BKN008 BECMG 0109/0111 SCT015 BKN040", "TAF LFBP 300500Z 3006/0106 27010KT 9999 BKN007 OVC013 TEMPO 3006/3008 3000 -RADZ OVC004 BECMG 3010/3012 BKN020 TEMPO 3012/3014 SCT030TCU BECMG 3021/3023 BKN012 TEMPO 0103/0106 BKN007", "TAF LFBT 300500Z 3006/0106 27010KT 9999 -DZRA BKN005 BECMG 3009/3011 9999 NSW SCT013 BKN020 TEMPO 3008/3018 SCT020TCU BECMG 3021/3023 BKN010 PROB40 TEMPO 0100/0106 BKN003", "TAF LFBU 300500Z 3006/0106 35010KT 9999 SCT040 TEMPO 3015/3018 4000 SHRA BKN030TCU BECMG 3019/3021 28005KT BECMG 3022/3024 OVC005", "TAF LFBZ 300500Z 3006/0106 30010KT 9999 SCT007 BKN015 TEMPO 3006/3010 BKN007 TEMPO 3012/3018 SCT020 TEMPO 3018/0106 BKN007", "TAF LFCK 300800Z 3009/3018 29012KT 9999 BKN011 TEMPO 3009/3011 4000 -DZ OVC007 BECMG 3011/3013 BKN030 TEMPO 3013/3018 4000 SHRA SCT025CB", "TAF LFCR 300500Z 3006/0106 30008KT 9999 BKN004 BKN020 SCT030TCU TEMPO 3006/3008 4000 -RA OVC002 BECMG 3008/3010 BKN006 BECMG 3010/3012 BKN020 TEMPO 3010/3019 SCT025TCU BECMG 3019/3021 CAVOK BECMG 0103/0105 BKN003 BKN025", "TAF LFGJ 300800Z 3009/3018 01010KT 9999 FEW025", "TAF LFJL 300500Z 3006/0106 05010KT 8000 FEW045 TEMPO 3022/0106 4000 SHRA BKN030TCU", "TAF LFKB 300800Z 3009/0109 VRB03KT 9999 BKN025 OVC030 TX19/3012Z TN14/0103Z TEMPO 3009/0109 SHRA BKN012 SCT030TCU PROB30 TEMPO 3011/0109 3500 BR BKN005 SCT030CB", "TAF LFKC 300800Z 3009/0109 VRB05KT 9999 SCT070 BKN150 TX18/3011Z TN14/3022Z BECMG 3009/3011 BKN025 TEMPO 3009/0106 3000 SHRA BKN008 SCT025CB", "TAF LFKF 300800Z 3009/0109 06010KT 9999 BKN030 TEMPO 3009/3023 4000 SHRA BKN010 FEW030CB PROB40 TEMPO 3016/3023 2000 BR BKN003 BECMG 3023/0101 VRB03KT BKN014 TEMPO 3023/0109 2000 -RA BR BKN003", "TAF LFKJ 300800Z 3009/0109 VRB05KT 9999 BKN020 TEMPO 3009/3015 36010KT 4000 SHRA BKN010 SCT030CB TEMPO 3015/0103 2500 SHRA BR BKN005 SCT030CB TEMPO 0103/0107 2000 BR OVC003", "TAF LFKS 291400Z 2915/3015 05006KT 9999 SCT012 BKN140 TEMPO 2919/3009 BKN008 TEMPO 3009/3015 4000 SHRA SCT020TCU", "TAF LFLB 300800Z 3009/0109 36010KT 9999 BKN050 BECMG 3014/3016 VRB03KT PROB40 TEMPO 3016/0105 SHRA SCT030TCU PROB30 TEMPO 0103/0106 BKN012", "TAF LFLC 300500Z 3006/0106 36006KT 9999 BKN050 BECMG 3020/3022 VRB02KT PROB40 TEMPO 0103/0106 4000 SHRA SCT015 BKN025TCU", "TAF LFLL 300500Z 3006/0112 32006KT 9999 SCT021 PROB30 TEMPO 3006/3009 BKN013 PROB30 TEMPO 3018/3020 -SHRA FEW036TCU PROB40 TEMPO 0109/0112 4000 SHRA SCT040TCU", "TAF LFLN 300800Z 3009/3018 30005KT 9999 BKN035", "TAF LFLP 300800Z 3009/0109 32004KT 9999 BKN025 TEMPO 3016/0106 SHRA SCT030TCU PROB40 TEMPO 0100/0106 BKN007", "TAF LFLS 300800Z 3009/0109 32008KT 9999 SCT010 BKN035 TEMPO 3015/3019 CAVOK TEMPO 3019/0108 VRB03KT PROB30 TEMPO 3021/0104 -SHRA SCT030TCU ", "TAF LFLW 300800Z 3009/3018 31008KT 9999 BKN020 PROB40 TEMPO 3009/3011 OVC009 TEMPO 3012/3015 SCT040TCU PROB40 TEMPO 3013/3015 32015G25KT 4000 SHRA BKN040TCU", "TAF LFLX 300500Z 3006/0112 02010KT CAVOK PROB40 TEMPO 0100/0106 27015G25KT 4000 -SHRA BKN030CB BKN050 PROB40 TEMPO 0106/0109 3000 -SHRA BKN004 BKN008TCU", "TAF LFLY 300500Z 3006/0106 32006KT 9999 SCT021 PROB30 TEMPO 3006/3009 BKN013 PROB30 TEMPO 3018/3020 -SHRA FEW036TCU", "TAF LFMD 300800Z 3009/0109 VRB03KT 9999 BKN027 TEMPO 3009/3018 06010KT RA SCT025TCU TEMPO 0107/0109 FEW050TCU", "TAF LFMI 300800Z 3009/0109 35010KT 9999 SCT030 BKN100 TX25/3015Z TN14/0105Z PROB30 TEMPO 3017/3019 21005KT BECMG 0106/0108 34018G28KT", "TAF LFMK 300800Z 3009/0109 27012KT 9999 SCT012 BKN020 PROB30 TEMPO 3009/3011 4000 -DZ OVC009 BECMG 3011/3013 SCT035 PROB30 TEMPO 3014/3019 29020G30KT 4000 SHRA SCT025CB BECMG 3019/3021 BKN018 BECMG 3023/0101 BKN012 PROB30 TEMPO 0102/0106 4000 -DZ OVC008 BECMG 0106/0108 SCT018", "TAF LFML 300800Z 3009/0115 30005KT 9999 SCT025 BKN060 TX24/3015Z TN14/0105Z TEMPO 3009/3012 4500 SHRA SCT030TCU PROB40 3015/3018 18010KT BECMG 0106/0108 32015KT TEMPO 0110/0115 32020G30KT", "TAF LFMN 300800Z 3009/0115 08007KT 9999 FEW036 BKN056 BKN100 TEMPO 3009/3018 33010KT RA SCT025TCU BECMG 3020/3022 34010KT BECMG 0107/0109 17007KT TEMPO 0110/0115 FEW050CB PROB40 TEMPO 0112/0115 VRB10G20KT TSRA SCT040CB", "TAF LFMO 300800Z 3009/0109 34010G25KT CAVOK TX24/3015Z TN14/0104Z", "TAF AMD LFMP 300950Z 3009/0109 32020G30KT CAVOK PROB40 TEMPO 3009/3017 32025G40KT BECMG 3017/3019 32012KT BECMG 0108/0109 32020G30KT", "TAF LFMT 300800Z 3009/0109 VRB03KT CAVOK BECMG 3010/3012 16010KT BECMG 3013/3015 32010KT TEMPO 3013/3018 SHRA FEW040CB PROB30 TEMPO 3014/3017 TSRA", "TAF LFMU 300800Z 3009/0109 28012KT 9999 SCT030 BKN040 OVC080 BECMG 3009/3011 28018G28KT CAVOK PROB40 TEMPO 3013/3017 SHRA FEW040TCU BECMG 3017/3019 28012KT", "TAF LFMV 300800Z 3009/0109 35012KT CAVOK TEMPO 3011/3017 35015G25KT BECMG 0107/0109 35015G25KT", "TAF LFMY 300800Z 3009/0109 33005KT 9999 BKN018 TX23/3014Z TN10/0103Z BECMG 3009/3011 33012KT CAVOK BECMG 0107/0109 33015G25KT", "TAF LFOB 300500Z 3006/0106 VRB03KT 4000 BR NSC BECMG 3006/3008 CAVOK BECMG 0103/0105 30010KT", "TAF LFOE 300800Z 3009/0109 10005KT 9999 SCT030 BECMG 3015/3018 02010KT PROB30 TEMPO 3018/3021 SCT050TCU BECMG 3021/3022 32005KT PROB40 TEMPO 3022/0103 4500 -SHRA SCT040TCU BECMG 0103/0105 4000 BR BKN009 TEMPO 0105/0108 1500 BCFG OVC004 PROB30 TEMPO 0105/0108 0800 FG VV/// BECMG 0108/0109 9999 NSW", "TAF LFOH 300500Z 3006/0106 VRB03KT CAVOK BECMG 0100/0102 29010KT OVC005 TEMPO 0102/0106 2000 RA OVC002 PROB30 TEMPO 0102/0106 0400 FG VV///", "TAF LFOJ 300800Z 3009/0109 03006KT CAVOK TX18/3015Z TN10/0106Z PROB40 TEMPO 0101/0104 4000 -SHRA SCT025TCU BECMG 0105/0107 31010KT BKN010", "TAF LFOK 300500Z 3006/0106 02005KT CAVOK PROB30 TEMPO 3016/3024 4000 SHRA BKN050TCU", "TAF LFOP 300800Z 3009/3018 08007KT CAVOK", "TAF LFOT 300500Z 3006/0106 04005KT CAVOK PROB40 TEMPO 3020/3024 4000 -SHRA BKN030CB BKN050 TEMPO 0100/0106 4000 BR PROB40 TEMPO 0102/0106 -SHRA BKN004 BECMG 0104/0106 34010KT", "TAF LFPB 300500Z 3006/0106 01005KT 8000 FEW040", "TAF LFPG 300500Z 3006/0112 04005KT 8000 FEW040 TX18/3015Z TN07/3006Z BECMG 0104/0106 30005KT TEMPO 0111/0112 -SHRA SCT030TCU", "TAF LFPN 300822Z 3009/3018 05006KT 9999 FEW035 BKN200", "TAF LFPO 300500Z 3006/0112 03005KT CAVOK BECMG 0107/0109 33010KT", "TAF LFPV 300800Z 3009/0109 02004KT CAVOK TX18/3015Z TN10/0105Z PROB30 TEMPO 0104/0108 SCT030TCU", "TAF LFQQ 300500Z 3006/0112 VRB03KT CAVOK PROB30 TEMPO 3016/3024 4000 SHRA BKN050TCU BECMG 0105/0107 30010KT", "TAF AMD LFRB 300910Z 3009/0112 VRB05KT 9999 OVC004 BECMG 3009/3011 BKN016 TEMPO 3009/3015 3000 SHRA BKN008 BKN015CB BECMG 3014/3016 32010KT BECMG 3017/3019 BKN006 PROB30 TEMPO 3018/3022 3000 BR BKN003 BECMG 3022/3024 VRB05KT BKN020 PROB30 TEMPO 0100/0106 BKN014", "TAF LFRC 300800Z 3009/3018 13008KT 7000 NSC TEMPO 3009/3016 4000 SHRA BKN008 BKN015CB PROB30 TEMPO 3012/3016 TSRA TEMPO 3016/3018 BKN008", "TAF AMD LFRD 300904Z 3009/0106 VRB05KT 6000 OVC004 TEMPO 3009/3016 3000 SHRA BKN008 BKN015CB BECMG 3009/3011 BKN020 PROB40 TEMPO 3010/3016 TSRAGS BECMG 3013/3015 32010KT BECMG 3015/3017 BKN005 PROB40 TEMPO 3020/0103 BKN002 BECMG 0103/0105 BKN020", "TAF LFRG 300800Z 3009/3018 12008KT CAVOK", "TAF AMD LFRH 300858Z 3008/0106 28005KT 9999 BKN008 BKN040 TEMPO 3008/3019 4000 SHRA SCT012CB BKN020 PROB30 TEMPO 3013/3017 25015G25KT 2000 TSRA BKN008CB TEMPO 3021/0102 BKN006 TEMPO 0102/0106 BKN012", "TAF LFRI 300500Z 3006/0106 01002KT 6000 FEW003 BKN160 TEMPO 3006/3008 3000 BR BKN003 PROB40 TEMPO 3006/3007 0600 FG VV/// TEMPO 3011/3018 29015G25KT 3000 SHRA BKN020CB BECMG 3014/3016 30010KT PROB40 TEMPO 3014/3018 TSRA BECMG 3023/0101 4000 BR BKN005 TEMPO 0101/0106 2500 BKN002", "TAF LFRK 300800Z 3009/3018 12008KT CAVOK TEMPO 3014/3018 4000 SHRA BKN015CB", "TAF LFRM 300500Z 3006/0106 02004KT 8000 NSC TEMPO 3015/3024 4000 SHRA BKN030CB PROB40 TEMPO 3015/3020 2800 -TSRA BKN025CB BECMG 3023/0101 BKN014 TEMPO 0100/0106 BKN007", "TAF LFRN 300500Z 3006/0106 VRB05KT 7000 FEW003 BKN030 TEMPO 3006/3008 2000 BR BKN003 PROB40 TEMPO 3006/3007 0500 FG VV/// TEMPO 3006/3018 3000 SHRA BKN008 BKN015CB PROB40 TEMPO 3010/3017 VRB15G25KT 1200 TSRAGS BECMG 3019/3021 BKN006 PROB40 TEMPO 3020/0103 BKN003 BECMG 0104/0106 BKN020", "TAF LFRQ 300500Z 3006/0106 VRB05KT 9999 BKN006 PROB40 TEMPO 3006/3009 1200 BR BKN002 BECMG 3007/3009 BKN016 TEMPO 3008/3018 3000 SHRA BKN008 BKN015CB BECMG 3010/3012 30010KT BECMG 3017/3019 BKN006 BECMG 3022/3024 VRB05KT BKN020 PROB30 TEMPO 0100/0106 BKN014", "TAF LFRS 300500Z 3006/0112 VRB02KT 6000 SCT045 BKN130 TEMPO 3006/3007 3000 BR TEMPO 3007/3021 4000 -SHRA SCT020CB PROB40 3012/3018 26015G25KT 2000 TSRAGS SCT012 BKN015CB BECMG 3022/3024 4000 BR BKN006 TEMPO 0101/0107 BKN004 BECMG 0107/0109 9999 NSW SCT012", "TAF AMD LFRZ 300829Z 3008/0106 35003KT 6000 SCT030TCU BKN110 TEMPO 3008/3010 4000 -RA BR BKN005 PROB40 3014/3018 27015G25KT 2500 TSRA SCT011 BKN015CB BECMG 0100/0102 4000 BR BKN005 TEMPO 0102/0104 BKN003 BECMG 0104/0106 9999 NSW SCT012", "TAF LFSB 300500Z 3006/0106 34008KT 9000 FEW010 BKN050 TEMPO 3006/3008 BKN007 TEMPO 3016/3024 -SHRA FEW040TCU TEMPO 0100/0106 4000 SHRA BKN030TCU", "TAF LFSL 300800Z 3009/3018 33005KT CAVOK PROB30 TEMPO 3012/3015 4000 -SHRA BKN030TCU", "TAF LFST 300500Z 3006/0106 04010KT 9999 BKN055 TEMPO 0104/0106 4000 SHRA SCT040TCU", "TAF AMD LFSX 300953Z 3009/0109 22010KT CAVOK BECMG 3015/3016 30005KT SCT030TCU BKN050 PROB40 TEMPO 3016/3020 2000 SHRA BECMG 3020/3022 VRB02KT 2000 BR PROB30 TEMPO 3022/0102 0200 FG BECMG 0102/0103 3000 RA SCT010 OVC020 BECMG 0105/0106 21010KT 9999 NSW SCT015TCU OVC040 TEMPO 0106/0109 VRB10G20KT 2000 SHRA", "TAF LFTH 300800Z 3009/0109 32005KT 9999 SCT030 BKN060 PROB40 TEMPO 3009/3018 4500 SHRA SCT030TCU", "TAF LFTW 300800Z 3009/0109 36010KT CAVOK PROB30 TEMPO 3013/3018 VRB10KT 4500 SHRA SCT060TCU TEMPO 3020/0106 VRB03KT", "TAF LFVP 300800Z 3009/3018 31012KT CAVOK FM301600 29015KT CAVOK", "TAF LGAD 300800Z 3009/3018 22006KT 9999 FEW020 BKN080", "TAF LGAL 300800Z 3009/3018 24010KT 9999 SCT025 PROB30 TEMPO 3010/3014 5000 SHRA FEW018CB BKN030", "TAF LGAV 300500Z 3006/0106 VRB03KT 9999 SCT025 BKN070 TEMPO 3010/3016 13010KT PROB40 TEMPO 3009/3015 5000 RA FEW018TCU BKN025 BKN070 PROB30 TEMPO 3010/3015 3000 TSRA SCT010 FEW018CB BKN020 BKN070 BECMG 3015/3017 FEW025", "TAF LGBL 300800Z 3009/3018 10010KT 9999 FEW025 SCT080", "TAF LGEL 300500Z 3006/0106 VRB03KT 9999 SCT025 BKN070 BECMG 3010/3012 18012KT PROB40 TEMPO 3009/3015 5000 RA FEW018TCU SCT025 BKN070 PROB30 TEMPO 3010/3015 4000 TSRA FEW010 FEW018CB BKN025 BKN070 BECMG 3016/3018 VRB05KT FEW025", "TAF LGHI 300800Z 3009/3018 VRB05KT 9999 FEW030", "TAF LGIO 300800Z 3009/3018 VRB03KT 9999 FEW025 BKN080 PROB30 TEMPO 3013/3017 5000 SHRA FEW018TCU SCT025 BKN080", "TAF LGIR 300500Z 3006/0106 VRB05KT 9999 FEW018 SCT080 TEMPO 3007/3016 01010KT PROB30 TEMPO 3010/3016 RA SCT020 BKN070 BECMG 0101/0103 FEW020 BKN080", "TAF LGKC 300800Z 3009/3018 26010KT 9999 SCT016", "TAF LGKF 300800Z 3009/3018 VRB05KT 9999 FEW018 SCT025 BKN070 TEMPO 3010/3017 16010KT", "TAF LGKL 300800Z 3009/3018 15006KT 9999 FEW025 BKN080 BECMG 3016/3018 34005KT", "TAF LGKO 300500Z 3006/0106 33012KT 9999 FEW016", "TAF LGKP 300800Z 3009/3018 31018KT 9999 FEW020", "TAF LGKR 300500Z 3006/0106 14010KT 9999 FEW020 SCT080 TEMPO 3010/3016 20010KT BECMG 3022/3024 SCT020 BKN080 PROB30 TEMPO 0103/0106 5000 RA SCT020 BKN070", "TAF LGKV 300500Z 3006/0106 VRB03KT 9999 FEW025 SCT080 PROB30 TEMPO 3011/3018 6000 SHRA FEW018TCU SCT025 BKN080 BECMG 3022/3024 FEW025", "TAF LGLM 300800Z 3009/3018 16006KT 9999 FEW020", "TAF LGLR 300800Z 3009/3018 VRB03KT 9999 FEW025 SCT080 TEMPO 3012/3018 08010KT", "TAF LGMK 300800Z 3009/3018 VRB05KT 9999 FEW018", "TAF LGMT 300800Z 3009/3018 14008KT 9999 FEW025", "TAF LGPZ 300500Z 3006/0106 06008KT 9999 FEW025 SCT080 BECMG 3010/3012 27010KT BECMG 3016/3018 VRB05KT BECMG 3022/3024 SCT020 BKN080 PROB30 TEMPO 0103/0106 5000 RA SCT020 BKN070", "TAF LGRP 300500Z 3006/0106 25012KT 9999 FEW018", "TAF LGRX 300800Z 3009/3018 24006KT 9999 FEW020 BKN080", "TAF LGSA 300500Z 3006/0106 VRB05KT 9999 FEW020 SCT080 PROB30 TEMPO 3009/3015 RA SCT020 BKN070 BECMG 3022/3024 FEW020 BKN080", "TAF LGSK 300800Z 3009/3018 VRB03KT 9999 SCT025 TEMPO 3014/3018 13010KT", "TAF LGSM 300800Z 3009/3018 33010KT 9999 FEW025", "TAF LGSR 300500Z 3006/0106 VRB03KT 9999 FEW025 TEMPO 3012/3022 22010KT", "TAF LGST 300800Z 3009/3018 30010KT 9999 FEW025 SCT080 BECMG 3012/3014 VRB03KT", "TAF LGSY 300800Z 3009/3018 14006KT 9999 FEW020", "TAF LGTG 300800Z 3009/3018 VRB03KT 9999 FEW025 BKN070 PROB30 TEMPO 3012/3015 5000 RA", "TAF LGTL 300800Z 3009/3018 VRB03KT 9999 FEW020 BKN080", "TAF LGTS 300500Z 3006/0106 VRB03KT 9999 FEW025 BECMG 3011/3013 14013KT PROB30 TEMPO 3012/3016 FEW020TCU SCT030 BECMG 0100/0102 VRB03KT", "TAF LGZA 300800Z 3009/3018 VRB05KT 9999 FEW018 BKN070 TEMPO 3012/3017 20010KT", "TAF LHBP 300515Z 3006/0106 32004KT CAVOK BECMG 3006/3009 34009KT BKN040 TEMPO 3011/3018 VRB15G25KT 4000 SHRA TSRA SCT030CB BKN060 BECMG 3018/3021 07007KT TEMPO 3021/0104 VRB03KT", "TAF LHDC 300815Z 3009/3018 36006KT CAVOK BECMG 3009/3012 02012G22KT SCT040 PROB40 TEMPO 3012/3017 4000 SHRA TSRA BKN030CB", "TAF LHKE 300815Z 3009/3018 36008KT 9999 SCT040 SCT080 PROB30 TEMPO 3012/3018 VRB16G28KT 6000 SHRA TSRA SCT035CB BKN040TCU BKN080", "TAF LHPA 300515Z 3006/0106 34012KT CAVOK TEMPO 3006/3008 30005KT TEMPO 3007/3015 9999 SCT035 BECMG 3015/3018 35006KT TEMPO 3022/0106 VRB03KT 9999 BKN030", "TAF LHPP 300815Z 3009/3018 34012G22KT CAVOK TEMPO 3009/3014 BKN040", "TAF LHPR 300815Z 3009/3018 33018G28KT CAVOK TEMPO 3009/3012 BKN040 BECMG 3015/3018 36008KT", "TAF LHSM 300815Z 3009/3018 35014G24KT CAVOK TEMPO 3009/3014 BKN035 BECMG 3015/3018 36008KT", "TAF LHSN 300815Z 3009/3018 34006KT 9999 SCT035 BECMG 3010/3012 04008KT FEW040TCU SCT050 TEMPO 3011/3016 07012KT 8000 SHRA SCT033TCU BKN050 PROB30 TEMPO 3012/3015 VRB16G29KT 5000 TSRA SCT030CB BKN045 BECMG 3015/3017 CAVOK", "TAF LIBA 300800Z 3009/3018 VRB03KT 7000 SCT030 BKN050 TEMPO 3009/3015 4000 RABR SCT020 BKN040", "TAF LIBC 300614Z 3007/0106 04013KT 9999 SCT030 BECMG 3015/3017 VRB05KT BECMG 3018/3020 3000 RA BKN007 TEMPO 3022/0103 TSRA", "TAF LIBD 300500Z 3006/0106 VRB05KT 9999 SCT030 TEMPO 3006/3008 4000 RA BECMG 3010/3012 06010KT BECMG 3016/3018 VRB05KT", "TAF LIBF 300500Z 3006/0106 VRB05KT 8000 BKN030 TEMPO 3006/3009 4000 RA BECMG 3010/3012 09010KT BECMG 3017/3019 VRB04KT BECMG 3022/3024 3000 BR TEMPO 0103/0106 RA", "TAF LIBG 300800Z 3009/3018 VRB03KT 9999 SCT030 BECMG 3012/3014 20010KT BECMG 3016/3018 VRB04KT", "TAF LIBP 300500Z 3006/0106 VRB04KT 9999 BKN040 TEMPO 3006/3008 2000 RA BR BECMG 3010/3012 08010KT BECMG 3015/3017 VRB04KT BECMG 0104/0106 2000 RA", "TAF LIBR 300500Z 3006/0106 32005KT 9999 SCT045 TEMPO 3006/3009 4000 RA BECMG 3010/3012 04010KT BECMG 3018/3020 15006KT", "TAF LIBV 300800Z 3009/3018 18007KT 7000 SCT020 SCT040 TEMPO 3009/3011 RA", "TAF AMD LICA 300749Z 3007/0106 08018KT 9999 FEW020 TEMPO 3007/3012 08020G30KT BECMG 3013/3015 27012KT TEMPO 3016/3024 SHRA TEMPO 0100/0106 3000 TSRA", "TAF AMD LICB 300603Z 3007/0106 VRB05KT CAVOK BECMG 3009/3011 24010KT TEMPO 3012/3018 SHRA BKN014 BKN030", "TAF LICC 300500Z 3006/0106 26007KT CAVOK BECMG 3010/3012 07013KT TEMPO 3012/3018 TSRA BKN014 BECMG 3020/3022 VRB05KT", "TAF LICD 300500Z 3006/0106 15012KT CAVOK BECMG 3012/3014 04012KT BECMG 0102/0104 34014KT", "TAF LICG 300800Z 3009/3018 21013KT 9999 SCT050", "TAF LICJ 300500Z 3006/0106 21010KT 9999 SCT040 BECMG 3010/3012 VRB05KT TEMPO 3010/3016 4000 TSRA BKN014 BECMG 3020/3022 22012KT", "TAF LICR 300500Z 3006/0106 VRB05KT 9999 SCT040 BECMG 3006/3008 20012KT TEMPO 3014/3018 TSRA TEMPO 3018/0106 SHRA", "TAF LICT 300800Z 3009/3018 16010KT 9999 SCT020 SCT050 TEMPO 3009/3018 20012KT 5000 RA SCT015 BKN025 PROB40 TEMPO 3011/3015 27015KT 3000 TSRA SCT015CB BKN020", "TAF LICZ 300500Z 3006/0106 25007KT 9999 BKN100 BECMG 3010/3012 27011KT TEMPO 3011/3016 5000 RA BR SCT015 BKN040 PROB40 TEMPO 3013/3015 SHRA FEW015TCU BECMG 3018/3020 07005KT PROB40 TEMPO 3021/0102 3000 TSRA FEW015CB SCT020", "TAF LIEA 300500Z 3006/0106 VRB05KT 9999 SCT030 TEMPO 3009/3015 4000 SHRA BECMG 3010/3012 04012KT BECMG 0100/0102 32010KT", "TAF LIED 300800Z 3009/3018 12010KT 9999 SCT025 BKN060 TEMPO 3011/3017 5000 RA BKN025", "TAF LIEE 300500Z 3006/0106 VRB05KT 9999 SCT030 PROB40 TEMPO 3006/3010 TSRA BECMG 3006/3008 16010KT BECMG 3012/3014 33013KT TEMPO 3014/3018 33016G28KT 4000 TSRA", "TAF LIEO 300500Z 3006/0106 VRB05KT 9999 FEW030 BECMG 3007/3009 06014KT TEMPO 3009/3016 4000 SHRA BECMG 3016/3018 36011KT BECMG 0100/0102 28007KT", "TAF LIMC 300500Z 3006/0112 VRB05KT 9999 BKN050 TEMPO 3006/0112 RA", "TAF LIME 300500Z 3006/0106 VRB05KT 9999 BKN030 BECMG 3006/3008 12010KT TEMPO 3012/0106 RA", "TAF AMD LIMF 300603Z 3006/0106 VRB05KT 4000 RA BKN015 BKN030 TEMPO 3006/3012 0900 FG BKN007", "TAF LIMG 300704Z 3007/0106 VRB05KT 8000 SCT040", "TAF LIMJ 300500Z 3006/0106 14009KT 6000 SCT010 BKN020 TEMPO 3012/3024 4000 RA", "TAF LIML 300500Z 3006/0106 VRB05KT 9999 BKN030 BECMG 3006/3008 10010KT TEMPO 3012/0106 RA", "TAF AMD LIMP 300559Z 3006/0106 VRB05KT 2000 BR SCT030 BECMG 3006/3009 10010KT 8000", "TAF LIMW 300800Z 3009/3018 10007KT 9999 BKN025 BKN035 TEMPO 3012/3018 4000 RA", "TAF LIMZ 300500Z 3006/0106 VRB05KT 9999 BKN030 TEMPO 3006/3024 4000 RA", "TAF LIPB 300500Z 3006/0106 VRB05KT 9999 FEW030 SCT110 TEMPO 3011/3017 19010KT TEMPO 3012/3020 4000 TSRA TEMPO 3020/3024 4000 SHRA", "TAF LIPC 300800Z 3009/3018 VRB03KT 9999 SCT020 SCT030 BECMG 3009/3010 08010KT CAVOK", "TAF LIPE 300500Z 3006/0106 VRB05KT 1500 BR BKN005 BKN010 BECMG 3008/3010 08011KT 9999 BKN020 BECMG 3018/3020 VRB05KT", "TAF LIPH 300500Z 3006/0106 05007KT 9999 BKN080", "TAF LIPI 300800Z 3009/3018 02007KT 9999 FEW040 SCT090 PROB40 TEMPO 3012/3018 4000 TSRA FEW030CB BKN050", "TAF LIPK 300500Z 3006/0106 VRB04KT 2000 BR BKN008 BECMG 3006/3008 7000 SCT040 BECMG 3009/3011 07012KT BECMG 3017/3019 VRB04KT TEMPO 0100/0105 3000 BR", "TAF LIPL 300800Z 3009/3018 08005KT 7000 SCT050 SCT070 TEMPO 3011/3015 11010G20KT 4000 TSRA FEW015CB BKN025 BECMG 3016/3018 09008KT 5000 BR BKN050", "TAF LIPO 300500Z 3006/0106 VRB05KT 9999 SCT050 BECMG 3006/3008 11012KT", "TAF LIPQ 300500Z 3006/0106 VRB05KT 9999 FEW080 BECMG 3008/3010 09011KT TEMPO 3012/3015 19010KT BECMG 3023/0101 03007KT", "TAF LIPR 300500Z 3006/0106 VRB05KT 9999 BKN070 BECMG 3008/3010 07012KT BECMG 3016/3018 VRB04KT", "TAF LIPS 300800Z 3009/3018 03005KT 9999 BKN080 BECMG 3012/3014 08008KT FEW020 BKN070", "TAF LIPX 300500Z 3006/0106 VRB05KT 9999 SCT050 BECMG 3006/3008 10012KT", "TAF LIPY 300500Z 3006/0106 VRB04KT CAVOK BECMG 3007/3009 13010KT BECMG 3011/3013 07010KT BECMG 3016/3018 VRB04KT TEMPO 0100/0105 2000 BCFG", "TAF LIPZ 300500Z 3006/0112 03005KT 9999 SCT040 BECMG 3009/3011 09010KT BECMG 3018/3020 03014KT BECMG 0109/0111 09010KT", "TAF LIRA 300500Z 3006/0106 VRB05KT 9999 FEW060 BECMG 3010/3012 18010KT TEMPO 3015/0106 4000 SHRA BKN014 BECMG 3017/3019 VRB05KT", "TAF LIRE 300800Z 3009/3018 15013KT CAVOK BECMG 3012/3014 9999 SCT020 BKN050 TEMPO 3013/3017 5000 RA", "TAF LIRF 300500Z 3006/0112 07006KT 9999 FEW040 BECMG 3010/3012 17010KT TEMPO 3016/0108 4000 SHRA BECMG 3018/3020 03007KT", "TAF LIRM 300800Z 3009/3018 36007KT 9999 SCT070 BECMG 3012/3014 10007KT SCT035 BKN070 PROB40 TEMPO 3015/3018 RA", "TAF LIRN 300500Z 3006/0106 07006KT 9999 FEW040 BECMG 3009/3011 16010KT BECMG 3016/3018 VRB05KT TEMPO 3016/3024 4000 SHRA BKN014", "TAF LIRP 300500Z 3006/0106 VRB02KT 0200 FG BKN001 BECMG 3006/3008 5000 BR FEW001 TEMPO 3007/3010 08011KT 9999 TEMPO 3011/3018 4000 RA BR SCT015 BKN020 PROB40 TEMPO 3012/3015 SHRA FEW015TCU", "TAF LIRQ 300500Z 3006/0106 VRB05KT 9999 SCT020 BECMG 3007/3009 03010KT TEMPO 3015/3018 RA", "TAF LIRS 300800Z 3009/3018 20005KT 9999 FEW020 BECMG 3012/3014 33005KT 4000 RA BR SCT015 BKN020", "TAF LIRU 300800Z 3009/3018 VRB05KT CAVOK TEMPO 3012/3018 RA", "TAF LIRV 300800Z 3009/3018 07007KT CAVOK BECMG 3011/3013 9999 SCT030 SCT050 TEMPO 3013/3015 7000 RA BECMG 3015/3017 4000 RA BR", "TAF LIRZ 300500Z 3006/0106 VRB05KT 9999 BKN060 BECMG 3008/3010 04010KT TEMPO 3014/3018 SHRA", "TAF LJCE 300800Z 3009/3018 08008KT 9999 SCT030 PROB30 TEMPO 3011/3014 -SHRA FEW040TCU SCT045", "TAF AMD LJLJ 300605Z 3006/0106 12005KT 9999 SCT060 TEMPO 3006/3008 1000 BCFG BR BKN001 PROB40 TEMPO 3009/3016 SHRA BKN040TCU TEMPO 3010/3020 12012KT", "TAF LJMB 300500Z 3006/0106 02005KT 9999 BKN040 PROB30 TEMPO 3010/3015 -SHRA BKN040TCU", "TAF LJPZ 300800Z 3009/3018 30005KT CAVOK PROB40 TEMPO 3010/3016 SHRA FEW045TCU PROB30 TEMPO 3011/3014 TSRA FEW045CB", "TAF LKCV 300500Z 3006/0106 31008KT CAVOK PROB30 TEMPO 3006/3008 BKN024 TEMPO 3008/3012 31013KT 9999 BKN030 BECMG 3020/3022 14004KT", "TAF LKKB 300500Z 3006/0106 31006KT CAVOK TEMPO 3006/3010 BKN020 BECMG 3009/3011 02010KT BECMG 3020/3022 07010KT", "TAF LKKV 300500Z 3006/0106 VRB02KT 9999 SCT025 PROB30 TEMPO 3006/3012 BKN017 BECMG 3007/3009 34006KT BECMG 3012/3014 04006KT CAVOK", "TAF LKMT 300500Z 3006/0106 36009KT 9999 BKN035 PROB30 TEMPO 3006/3008 8000 -RA BKN010 TEMPO 3009/3015 01010G20KT BECMG 3015/3017 CAVOK BECMG 3022/0100 03005KT", "TAF LKNA 300500Z 3006/0106 33008KT 9999 BKN030 TEMPO 3008/3014 35017KT SCT035 BECMG 3016/3018 05006KT CAVOK", "TAF LKPR 300800Z 3009/0115 34008KT 9999 SCT020 BECMG 3010/3012 02008KT CAVOK BECMG 0100/0103 09006KT BECMG 0106/0108 14012KT", "TAF LKTB 300500Z 3006/0106 VRB02KT 9999 SCT035 BECMG 3006/3008 34011KT TEMPO 3007/3014 BKN025 BECMG 3014/3016 05009KT CAVOK", "TAF LLBG 300503Z 3006/0106 20010KT 9999 BKN035 BECMG 3007/3009 26015KT SCT045 TEMPO 3009/3015 BKN045 BECMG 3015/3017 VRB03KT SCT035 TEMPO 3021/0106 15005KT TX22/3011Z TN14/0104Z", "TAF LLER 300502Z 3006/0106 35010KT CAVOK TX27/3013Z TN15/0103Z", "TAF LLHA 300504Z 3006/0106 23006KT 9999 SCT035 BECMG 3007/3009 26012KT SCT045 PROB40 TEMPO 3009/3012 -RA BKN030 BECMG 3015/3017 VRB03KT TEMPO 3023/0106 16005KT BKN035 TX22/3012Z TN13/0104Z", "TAF LLHZ 300504Z 3006/0106 26005KT 9999 BKN035 BECMG 3007/3009 26014KT SCT045 BECMG 3015/3017 VRB03KT SCT035 TEMPO 3021/0106 16005KT TX21/3012Z TN14/0104Z", "TAF LLIB 300505Z 3006/0106 VRB04KT 9999 FEW045 SCT070 FM300700 22006KT 9999 SCT050 BECMG 3009/3011 26012KT BKN045 BECMG 3015/3017 VRB03KT FEW030 TX20/3012Z TN08/0102Z", "TAF LMML 300500Z 3006/0106 17009KT 9999 FEW012 PROB30 TEMPO 3010/3024 7000 SHRA PROB40 3020/0106 7000 BKN005", "TAF LOAN 300815Z 3009/3018 36010KT 9999 FEW030 SCT040 TEMPO 3009/3016 36015G25KT", "TAF LOAV 300815Z 3009/3018 35010KT 9999 SCT030 TEMPO 3009/3016 36015G25KT", "TAF LOWG 300515Z 3006/0106 VRB05KT 9999 SCT050 TX18/3014Z TN05/0104Z PROB30 TEMPO 3009/3012 SHRA TEMPO 3013/3018 09012KT", "TAF LOWI 300515Z 3006/0106 VRB02KT 9999 SCT010 BKN030 TX19/3014Z TN09/0103Z BECMG 3009/3011 09010KT SCT060 BECMG 3017/3019 VRB02KT TEMPO 0100/0106 -RA", "TAF LOWK 300515Z 3006/0106 VRB05KT 9999 SCT060 TX18/3013Z TN07/0104Z TEMPO 3010/3020 10014KT", "TAF LOWL 300515Z 3006/0106 08008KT CAVOK TX17/3015Z TN07/0104Z", "TAF AMD LOWS 300545Z 3006/0106 VRB02KT 9999 SCT010 BKN025 TX15/3014Z TN06/0103Z BECMG 3007/3009 03006KT BECMG 3018/3020 15005KT PROB40 TEMPO 0100/0106 2000 BCFG BKN003", "TAF LOWW 300815Z 3009/0115 01012KT 9999 SCT050 TX18/0114Z TN04/0104Z FM301900 02005KT CAVOK BECMG 0107/0109 15010KT", "TAF LOXZ 300815Z 3009/3018 VRB03KT 9999 FEW040 SCT070 TEMPO 3010/3017 07012KT", "TAF LPAZ 300500Z 3006/0112 17018KT 9999 SCT006 BKN018 TEMPO 3006/3012 17020G32KT 5000 RADZ BR SCT003 BKN006 PROB30 TEMPO 3006/3012 17023G38KT 3000 TSRA BKN003 FEW015CB BECMG 3012/3015 23015KT SCT020 PROB30 TEMPO 3015/0112 8000 SHRA BKN015", "TAF LPBJ 300503Z 3006/0106 34008KT CAVOK PROB30 TEMPO 3006/3009 4000 BCFG BKN006", "TAF LPCS 300800Z 3009/3018 35018KT 9999 FEW020 TEMPO 3009/3018 35020G32KT", "TAF LPFR 300500Z 3006/0106 31005KT CAVOK BECMG 3010/3012 24013KT BECMG 3017/3019 30013KT BECMG 0102/0104 VRB02KT", "TAF LPHR 300800Z 3009/3018 23017KT 9999 SCT015 TEMPO 3009/3018 24023G35KT 8000 SHRA BKN015", "TAF LPLA 300504Z 3006/0106 18020KT 9999 SCT008 BKN018 TEMPO 3006/3009 18025G42KT 2000 RADZ BR SCT004 BKN008 SCT015CB BECMG 3009/3011 20012KT FEW025 TEMPO 3012/3018 20015G25KT", "TAF LPMA 300500Z 3006/0106 03010KT 9999 SCT015 PROB30 TEMPO 3006/3009 BKN012 BECMG 3021/3024 VRB05KT", "TAF AMD LPMR 300907Z 3009/0106 33010KT 9999 BKN010 BECMG 3010/3012 FEW022 TEMPO 3010/3018 33012G22KT BECMG 3022/3024 36005KT PROB40 TEMPO 3102/3106 1500 BR BKN003", "TAF LPMT 300503Z 3006/0106 34010KT 9999 FEW025 TEMPO 3014/3019 34012G22KT", "TAF LPOV 291702Z 2918/3018 32010KT 9999 FEW025 PROB40 2922/3008 VRB02KT 0500 FG BKN002 TEMPO 3011/3018 32012G22KT", "TAF LPPD 300500Z 3006/0106 18015KT 9999 SCT006 BKN018 TEMPO 3006/3010 18018G30KT 5000 RADZ BR SCT003 BKN006 PROB30 TEMPO 3006/3010 18023G38KT 3000 TSRA BKN003 FEW015CB BECMG 3010/3013 24013KT SCT020 PROB30 TEMPO 3013/0106 8000 SHRA BKN015", "TAF LPPR 300500Z 3006/0106 VRB02KT 9999 SCT006 TEMPO 3006/3009 3000 BR BKN003 BECMG 3009/3012 33013KT FEW030 BECMG 3022/3024 VRB02KT FEW012 PROB40 TEMPO 0100/0106 5000 BR SCT006", "TAF LPPS 300500Z 3006/0112 09008KT 9999 SCT015 TEMPO 3006/3009 BKN012", "TAF LPPT 300500Z 3006/0112 35010KT 9999 SCT012 PROB30 TEMPO 3006/3008 BKN010 BECMG 3008/3010 32015KT FEW030 PROB30 TEMPO 3014/3022 32018G28KT BECMG 0103/0106 34008KT", "TAF LQBK 300500Z 3006/0106 33005KT 9999 SCT040 TX21/3014Z TN10/0104Z PROB40 TEMPO 3008/3016 03010KT SHRA FEW035TCU SCT045 PROB30 TEMPO 3010/3015 VRB15KT TSRA FEW030CB BKN040", "TAF LQMO 300500Z 3006/0106 VRB02KT 9999 FEW050 TX22/3014Z TN08/3006Z TEMPO 3012/3016 22010KT PROB30 TEMPO 3012/3017 VRB15KT TSRA FEW030CB BKN040 BECMG 3020/3022 02012KT", "TAF LQSA 300500Z 3006/0106 VRB02KT CAVOK TX19/3012Z TN06/0104Z PROB40 TEMPO 3010/3016 31012KT TSRA FEW035CB BKN045", "TAF LQTZ 300500Z 3006/0106 VRB02KT 9999 SCT040 TX19/3014Z TN07/0104Z PROB40 TEMPO 3006/3017 03010KT SHRA FEW030TCU SCT040 PROB30 TEMPO 3010/3016 VRB15KT TSRA FEW030CB BKN040 PROB40 0102/0106 2000 BR", "TAF LRAR 300800Z 3009/3018 VRB04KT CAVOK BECMG 3015/3017 02010KT", "TAF LRBC 300800Z 3009/3018 35012KT CAVOK BECMG 3015/3017 VRB04KT", "TAF LRBM 300800Z 3009/3018 28010KT CAVOK PROB40 TEMPO 3014/3018 SCT040CB BECMG 3015/3017 VRB04KT", "TAF LRBS 300500Z 3006/0106 VRB04KT CAVOK TEMPO 3011/3017 30010KT SCT035CB PROB30 TEMPO 3012/3016 5000 -SHRA PROB30 TEMPO 3022/0104 5000 BR", "TAF LRCK 300500Z 3006/0106 27007KT CAVOK BECMG 3006/3008 33014KT PROB40 TEMPO 3010/3014 32015G25KT BECMG 3015/3017 VRB04KT BECMG 0104/0106 33010KT", "TAF LRCL 300800Z 3009/3018 34010KT 9999 SCT045", "TAF LRCV 300800Z 3009/3018 26008KT CAVOK PROB30 TEMPO 3012/3015 31010KT SCT030CB", "TAF LRIA 300800Z 3009/3018 35012KT CAVOK BECMG 3014/3016 VRB04KT", "TAF LROD 300800Z 3009/3018 VRB04KT CAVOK BECMG 3012/3014 02010KT PROB40 TEMPO 3014/3018 SCT040CB", "TAF LROP 300500Z 3006/0106 VRB04KT CAVOK TEMPO 3011/3017 30010KT SCT035CB PROB30 TEMPO 3012/3016 5000 -SHRA PROB30 TEMPO 3022/0104 5000 BR", "TAF LRSB 300500Z 3006/0106 VRB04KT 9999 SCT060 PROB40 TEMPO 3011/3017 5000 -SHRA SCT035CB PROB30 TEMPO 3022/0104 5000 BR", "TAF LRSM 300200Z 3003/3012 VRB04KT CAVOK BECMG 3007/3009 32010KT", "TAF LRSV 300800Z 3009/3018 VRB04KT CAVOK BECMG 3009/3011 01010KT BECMG 3016/3018 VRB04KT", "TAF LRTM 300800Z 3009/3018 VRB04KT 9999 FEW040 BECMG 3009/3011 32010KT PROB30 TEMPO 3011/3017 SCT035CB", "TAF LRTR 300500Z 3006/0106 VRB04KT CAVOK BECMG 3016/3018 02010KT BECMG 0102/0104 VRB04KT 5000 BR", "TAF LSGC 300825Z 3009/3018 05010KT 9999 FEW020", "TAF LSGG 300825Z 3009/0115 04010KT 9999 BKN025 TX17/3015Z TN09/0105Z TX15/0115Z BECMG 3015/3017 VRB02KT TEMPO 3018/3024 SHRA", "TAF LSGS 300825Z 3009/3018 VRB02KT 9999 FEW030 SCT050 TEMPO 3014/3018 SHRA SCT040TCU", "TAF LSZA 300825Z 3009/3018 VRB02KT 8000 SCT025 BKN040 TEMPO 3009/3018 SHRA SCT030TCU PROB30 TEMPO 3010/3015 TSRA FEW030CB", "TAF LSZB 300825Z 3009/3018 04004KT 9999 BKN020 PROB30 TEMPO 3016/3018 SHRA FEW030TCU", "TAF LSZG 300825Z 3009/3018 07011KT 9999 FEW020 BKN025 TEMPO 3009/3017 08015G25KT", "TAF LSZH 300825Z 3009/0115 06010KT 9999 BKN018 BKN055 TX18/3014Z TN08/0105Z TX15/0114Z BECMG 3018/3020 34004KT TEMPO 3021/0115 SHRA FEW050TCU PROB30 0102/0107 BKN012", "TAF LSZL 300525Z 3006/3015 08003KT 9999 FEW025 SCT045 TEMPO 3011/3015 SHRA FEW030TCU BKN040", "TAF LSZR 300825Z 3009/3018 28004KT 9999 SCT025 BKN040 BECMG 3009/3011 05010KT", "TAF LSZS 300825Z 3009/3018 04009KT 9999 SCT020 TX13/3013Z PROB30 TEMPO 3013/3017 20010KT", "TAF LTAB 300740Z 3009/3018 27008KT 9999 SCT040 BKN100", "TAF LTAC 300440Z 3006/0106 VRB02KT 9999 SCT030 BKN100 BECMG 3006/3008 29012KT PROB30 TEMPO 3010/3014 -SHRA BKN030 BKN080 BECMG 3016/3019 VRB02KT CAVOK BECMG 0103/0106 SCT040", "TAF LTAD 300740Z 3009/3018 30012KT 9999 SCT040 BKN100 BECMG 3016/3018 VRB02KT CAVOK", "TAF LTAE 300740Z 3009/3018 VRB02KT 9999 SCT035 BKN090 BECMG 3010/3014 27012KT", "TAF LTAF 300440Z 3006/0106 VRB02KT 9999 SCT035 BKN100 TEMPO 3010/3014 VRB15G25KT TSRA FEW020CB BKN030 PROB40 TEMPO 3015/3019 -TSRA FEW020CB BKN030 PROB30 TEMPO 3023/0102 4000 BR BECMG 0100/0102 CAVOK", "TAF LTAG 300440Z 3006/0106 VRB02KT 9999 SCT035 BKN100 TEMPO 3010/3014 VRB15G25KT -TSRA FEW025CB BKN030", "TAF LTAH 300740Z 3009/3018 32012KT 9999 SCT035 BECMG 3015/3018 VRB02KT", "TAF LTAI 300440Z 3006/0106 34014KT CAVOK BECMG 3009/3012 20014KT SCT030 BECMG 3014/3017 34008KT CAVOK", "TAF LTAJ 300440Z 3006/0106 VRB02KT CAVOK BECMG 3006/3009 24012KT SCT040 BKN100 PROB40 TEMPO 3010/3014 25015G28KT -TSRA FEW020CB BKN028 PROB30 TEMPO 3014/3017 25015G28KT -TSRA FEW020CB BKN030 BECMG 3017/3020 VRB02KT CAVOK", "TAF LTAL 300740Z 3009/3018 25014KT 9999 FEW010 BKN027 BKN080 TEMPO 3009/3012 -SHRA", "TAF LTAN 300740Z 3009/3018 VRB02KT 9999 SCT040 BKN100 TEMPO 3012/3015 36012KT -SHRA BKN035 BKN090", "TAF LTAO 300740Z 3009/3018 23008KT 9999 SCT035 BKN100 TEMPO 3009/3012 -SHRA BKN030 BKN080 TEMPO 3012/3015 -SHRA BKN030 BKN080", "TAF LTAP 300440Z 3006/0106 VRB02KT 9999 SCT035 BKN080 TEMPO 3011/3015 -SHRA FEW030CB BKN035 BKN080", "TAF LTAR 300740Z 3009/3018 29010KT 9999 SCT010 BKN030 TEMPO 3009/3012 -SHRA TEMPO 3012/3016 -SHRA FEW020CB BKN025", "TAF LTAS 300740Z 3009/3018 21009KT 9999 SCT040 BKN100", "TAF LTAT 300440Z 3006/0106 22008KT 9999 SCT035 BKN100 TEMPO 3006/3009 -SHRA FEW025CB BKN030 BKN080 TEMPO 3009/3013 16015G25KT -TSRA FEW025CB BKN030 TEMPO 3013/3017 16015G25KT -TSRA FEW025CB BKN030 TEMPO 3017/3021 -SHRA BKN030 BKN080", "TAF LTAU 300440Z 3006/0106 26008KT 9999 SCT015 BKN025 BKN080 BECMG 3007/3009 BKN035 TEMPO 3007/3011 -SHRA TEMPO 3012/3016 -SHRA FEW025CB BKN030 TEMPO 3019/3023 -SHRA BECMG 0100/0103 SCT033", "TAF LTAV 300740Z 3009/3018 33012KT 9999 SCT040", "TAF LTAW 300740Z 3009/3018 VRB02KT 9999 SCT035 BKN080 TEMPO 3012/3016 25012KT -SHRA", "TAF LTAY 300440Z 3006/0106 VRB02KT CAVOK BECMG 3011/3013 27012KT SCT035 BECMG 3017/3019 VRB02KT CAVOK", "TAF LTAZ 300440Z 3006/0106 26008KT 9999 BKN033 TEMPO 3007/3011 -SHRA TEMPO 3012/3016 -SHRA FEW025CB BKN030 BECMG 3020/3023 CAVOK", "TAF LTBA 300440Z 3006/0106 22012KT CAVOK BECMG 3009/3012 SCT040 BKN100 BECMG 3015/3018 VRB02KT BECMG 3020/3023 CAVOK", "TAF LTBD 300740Z 3009/3018 VRB02KT CAVOK BECMG 3009/3012 FEW035 SCT100 TEMPO 3013/3017 27012KT BECMG 3016/3018 CAVOK", "TAF LTBF 300740Z 3009/3018 VRB02KT 9999 FEW035 SCT100", "TAF LTBG 300740Z 3009/3018 VRB02KT 9999 FEW035 BECMG 3009/3010 CAVOK", "TAF LTBH 300740Z 3009/3018 VRB02KT CAVOK", "TAF LTBI 300740Z 3009/3018 33012KT 9999 SCT040", "TAF LTBJ 300440Z 3006/0106 35009KT CAVOK BECMG 3006/3009 FEW035 SCT100 BECMG 3013/3016 CAVOK", "TAF LTBK 300740Z 3009/3018 34009KT 9999 FEW035 SCT100 BECMG 3013/3016 CAVOK", "TAF LTBL 300740Z 3009/3018 VRB02KT 9999 FEW040 SCT100", "TAF LTBN 300740Z 3009/3018 33012KT 9999 SCT040", "TAF LTBO 300740Z 3009/3018 VRB02KT CAVOK BECMG 3009/3013 SCT035 TEMPO 3010/3014 32012KT", "TAF LTBP 300740Z 3009/3018 VRB02KT CAVOK", "TAF LTBQ 300740Z 3009/3018 27009KT 9999 SCT050", "TAF LTBR 300440Z 3006/0106 VRB02KT CAVOK BECMG 3006/3010 SCT035 TEMPO 3011/3014 35012KT BECMG 3014/3016 CAVOK PROB30 0104/0106 4000 BR", "TAF LTBS 300440Z 3006/0106 35012KT CAVOK BECMG 3008/3010 24014KT FEW030 BECMG 3016/3018 01009KT CAVOK", "TAF LTBT 300740Z 3009/3018 VRB02KT 9999 FEW040 SCT100", "TAF LTBU 300440Z 3006/0106 34008KT CAVOK BECMG 3009/3012 24012KT SCT040 BKN100 BECMG 3018/3021 VRB02KT CAVOK BECMG 0103/0106 SCT040 BKN100", "TAF LTBV 300740Z 3009/3018 26012KT CAVOK BECMG 3009/3012 FEW035 BECMG 3014/3017 VRB02KT CAVOK", "TAF LTBX 300740Z 3009/3018 24009KT CAVOK", "TAF LTBY 300740Z 3009/3018 33012KT 9999 SCT040", "TAF LTBZ 300740Z 3009/3018 33012KT 9999 SCT040", "TAF LTCA 300740Z 3009/3018 09008KT 9999 SCT035 BKN100 TEMPO 3009/3012 -SHRA BKN030 BKN080 TEMPO 3012/3016 03012KT -TSRA FEW025CB BKN030 BKN080", "TAF LTCB 300740Z 3009/3018 07006KT 9999 -SHRA SCT015 BKN035", "TAF LTCC 300440Z 3006/0106 VRB02KT 9999 SCT040 BKN100 TEMPO 3006/3009 18015G25KT -TSRA FEW025CB BKN035 PROB40 TEMPO 3009/3013 VRB15G25KT -TSRA FEW025CB BKN035 TEMPO 3013/3017 VRB15G25KT -TSRA FEW025CB BKN035 BECMG 3018/3021 CAVOK", "TAF LTCD 300740Z 3009/3018 27013KT 9999 FEW030CB SCT040 BKN070 TEMPO 3009/3011 -SHRA TEMPO 3011/3014 12015KT -TSRA", "TAF LTCE 300440Z 3006/0106 11008KT 9999 BKN025 BKN070 BECMG 3006/3008 23012KT FEW025CB BKN035 TEMPO 3006/3008 -SHRA TEMPO 3008/3012 26015G25KT -TSRA TEMPO 3012/3016 -SHRA BECMG 3014/3016 BKN035 BKN070 BECMG 3017/3019 VRB02KT TEMPO 3019/3022 -SHRA TEMPO 0100/0103 -SHRA", "TAF LTCF 300440Z 3006/0106 22014KT 9999 SCT040 BKN080 TEMPO 3008/3012 24020G40KT TEMPO 3010/3012 TSRA FEW025CB BECMG 3010/3014 BKN035 BKN070 TEMPO 3011/3014 -TSRA FEW025CB", "TAF LTCG 300440Z 3006/0106 VRB02KT 9999 BKN035 TEMPO 3008/3012 32012KT 4000 -SHRA BR BKN006 FEW020CB BKN025 PROB40 TEMPO 3012/3016 4000 -SHRA BR BKN006 FEW020CB BKN025", "TAF LTCI 300740Z 3009/3018 22013KT 9999 SCT030 BKN070 TEMPO 3011/3015 -TSRA FEW020CB BKN030 PROB40 TEMPO 3015/3018 -TSRA FEW020CB BKN030 BECMG 3017/3018 12009KT", "TAF LTCJ 300440Z 3006/0106 12008KT 9999 SCT040 BKN100 TEMPO 3006/3010 VRB15G25KT -TSRA FEW025CB BKN030 BKN090 TEMPO 3010/3014 VRB15G25KT -TSRA FEW025CB BKN030 BKN090 TEMPO 3014/3016 VRB15G25KT -TSRA FEW025CB BKN030 BKN090 PROB40 TEMPO 3016/3018 VRB15G25KT -TSRA FEW025CB BKN030 BKN090 BECMG 3018/3020 CAVOK BECMG 0101/0103 FEW040 SCT100", "TAF LTCK 300740Z 3009/3018 23012KT 6000 SCT030 BKN070 TEMPO 3009/3013 07012G22KT -TSRA FEW020CB BKN030 PROB40 TEMPO 3013/3017 07012G22KT -TSRA FEW020CB BKN030 BECMG 3017/3018 13010KT", "TAF LTCL 300740Z 3009/3018 05012KT 9999 SCT040 BKN100 TEMPO 3009/3013 03015G25KT -TSRA FEW025CB BKN030 BKN090 TEMPO 3016/3018 -SHRA BKN030 BKN080", "TAF LTCM 300740Z 3009/3018 27014KT 9999 BKN033 TEMPO 3009/3012 -SHRA", "TAF LTCN 300740Z 3009/3018 25008KT 9999 SCT035 BKN090 TEMPO 3011/3015 30018KT -TSRA FEW025CB BKN035", "TAF LTCO 300740Z 3009/3018 VRB02KT 9999 SCT035 BKN070 TEMPO 3009/3011 FEW025CB SCT035 BKN070 BECMG 3009/3012 22014KT TEMPO 3009/3012 24020G40KT TEMPO 3009/3013 -TSRA FEW025CB TEMPO 3011/3013 TSRA FEW025CB", "TAF LTCP 300740Z 3009/3018 23009KT 9999 SCT035 BKN100 TEMPO 3009/3012 33012KT -TSRA FEW025CB BKN030 BKN080 TEMPO 3012/3015 33012KT -TSRA FEW025CB BKN030 BKN080", "TAF LTCR 300740Z 3009/3018 24007KT 9999 SCT040 TEMPO 3009/3012 VRB15G25KT -TSRA FEW025CB SCT035 TEMPO 3012/3016 VRB15G25KT -TSRA FEW025CB SCT035 BECMG 3016/3018 CAVOK", "TAF LTCS 300440Z 3006/0106 VRB02KT 9999 SCT040 SCT100 TEMPO 3007/3010 VRB12G22KT -TSRA FEW025CB BKN035 TEMPO 3010/3014 27012G22KT -TSRA FEW025CB BKN030 BECMG 3016/3019 CAVOK BECMG 0103/0106 FEW040 SCT100", "TAF AMD LTCT 300908Z 3009/3018 VRB02KT 9999 FEW045 SCT080 BKN180 TEMPO 3010/3012 -SHRA BECMG 3010/3012 25020G40KT", "TAF LTCU 300740Z 3009/3018 23012KT 9999 SCT035 BKN100 TEMPO 3009/3012 -SHRA BKN030 BKN080 TEMPO 3012/3016 -TSRA FEW025CB BKN030 BKN080", "TAF LTCV 300440Z 3006/0106 24006KT 9999 SCT040 BKN100 TEMPO 3010/3014 VRB15G25KT -TSRA FEW025CB BKN030 BKN090", "TAF LTCW 300740Z 3009/3018 20014G24KT 9999 SCT030 BKN070 TEMPO 3011/3015 -TSRA FEW020CB BKN030 PROB40 TEMPO 3015/3018 -TSRA FEW020CB BKN030 BECMG 3017/3018 08010KT", "TAF LTDA 300740Z 3009/3018 24013KT 9999 SCT035 BKN100 TEMPO 3009/3011 -SHRA", "TAF LTFA 300740Z 3009/3018 VRB02KT 9999 FEW040 SCT100", "TAF LTFB 300740Z 3009/3018 VRB02KT 9999 FEW035 SCT100 BECMG 3009/3012 26012KT BECMG 3015/3018 VRB02KT CAVOK", "TAF LTFC 300440Z 3006/0106 VRB02KT 9999 SCT035 BECMG 3006/3009 33012KT BECMG 3015/3018 VRB02KT CAVOK", "TAF LTFD 300740Z 3009/3018 24012KT 9999 FEW035 BKN100", "TAF LTFE 300440Z 3006/0106 VRB02KT CAVOK BECMG 3009/3012 26012KT FEW035 SCT100 BECMG 3015/3018 VRB02KT CAVOK", "TAF LTFG 300740Z 3009/3018 24010KT 9999 SCT030 BECMG 3015/3018 11006KT", "TAF LTFH 300740Z 3009/3018 35009KT 9999 SCT036 BKN100", "TAF LTFJ 300440Z 3006/0106 VRB02KT CAVOK TEMPO 3007/3011 24013KT SCT035", "TAF LTFK 300740Z 3009/3018 VRB02KT CAVOK", "TAF LTFM 300440Z 3006/0112 21009KT CAVOK BECMG 3006/3009 36010KT SCT040 BKN100 BECMG 3015/3018 22010KT BECMG 3018/3021 CAVOK BECMG 0106/0109 35008KT SCT040 BKN100", "TAF LTFO 300740Z 3009/3018 24009KT 9999 SCT009 BKN028 TEMPO 3009/3013 -SHRA BKN008 BKN025 TEMPO 3013/3017 3500 -SHRA BR BKN006 BKN025", "TAF LUKK 300502Z 3006/0106 36014KT CAVOK BECMG 3017/3019 32006KT", "TAF LWOH 300830Z 3009/0109 VRB02KT 9999 FEW050 TEMPO 3014/3020 -RA BKN040", "TAF LWSK 300830Z 3009/0109 VRB02KT 9999 FEW050 SCT060 TEMPO 3012/3018 35010KT -RA SCT040 SCT080", "TAF LXGB 300738Z 3009/3018 25012KT CAVOK PROB40 TEMPO 3010/3018 21012KT 520002", "TAF LYBE 300500Z 3006/0106 33008KT 9999 SCT045 TX20/3013Z TN08/0104Z TEMPO 3010/3014 34015G25KT 4000 SHRA SCT027TCU SCT040 TEMPO 0102/0105 4000 BR", "TAF LYBT 300500Z 3006/0106 32008KT 9999 SCT045 TX20/3013Z TN08/0104Z TEMPO 3010/3015 35015G25KT 5000 SHRA SCT030TCU SCT040 TEMPO 0102/0105 3000 BR", "TAF LYKV 300500Z 3006/0106 32006KT 9999 SCT040 TX20/3013Z TN06/0104Z TEMPO 3010/3017 35015G25KT 5000 SHRA SCT027TCU SCT035 PROB30 TEMPO 3011/3015 VRB15G25KT 4000 TSRA SCT025CB SCT030 BECMG 3023/0101 1500 BR TEMPO 0102/0105 0600 FG", "TAF LYNI 300500Z 3006/0106 25005KT 9999 SCT050 TX19/3013Z TN06/0104Z BECMG 3007/3009 32012KT TEMPO 3011/3015 33015G25KT 4000 SHRA SCT033TCU BKN040 BECMG 3018/3020 02004KT TEMPO 0102/0105 3000 BR", "TAF LYPG 300500Z 3006/0106 17006KT 9999 SCT040 TX22/3013Z TN11/0104Z", "TAF LYTV 300500Z 3006/0106 VRB02KT 9999 FEW050 TX20/3013Z TN08/0104Z", "TAF LYVR 300500Z 3006/0106 33008KT 9999 SCT045 TX19/3013Z TN05/0104Z TEMPO 3011/3015 34015G25KT 4000 SHRA SCT027TCU SCT040 TEMPO 0102/0105 2000 BR", "TAF LZIB 300515Z 3006/0106 33008KT CAVOK TEMPO 3006/3009 9999 FEW010 BKN030 TEMPO 3006/3018 36018KT TEMPO 3020/0104 VRB02KT BECMG 0104/0106 07004KT", "TAF LZKZ 300515Z 3006/0106 VRB02KT CAVOK TEMPO 3006/3009 9999 -RA SCT015 BKN025 TEMPO 3009/3014 9999 -SHRA FEW030TCU BKN040 BECMG 3009/3011 36010KT TEMPO 3012/0103 36015G30KT", "TAF LZMC 300730Z 3009/3018 35008KT 9999 SCT035 TEMPO 3009/3018 34016KT BECMG 3012/3015 CAVOK", "TAF LZPP 300815Z 3009/3018 35014KT 9999 FEW035 TEMPO 3009/3016 36018G35KT", "TAF LZPW 300730Z 3009/3018 VRB04KT 9999 SCT040 BKN060 TEMPO 3009/3011 8000 -RA BKN020 BECMG 3011/3013 01010G24KT CAVOK", "TAF LZSL 300730Z 3009/3018 35010G22KT 9999 SCT050 TEMPO 3010/3014 BKN050 BECMG 3014/3016 CAVOK", "TAF LZTT 300515Z 3006/0106 27007KT 9999 FEW045 PROB40 TEMPO 3006/3008 SCT005 BKN020 TEMPO 3008/3014 SHRA FEW025TCU BKN035 TEMPO 3010/3018 05015G25KT", "TAF LZZI 300815Z 3009/3018 05008KT CAVOK TEMPO 3009/3016 06015KT", "MBGT 292200Z 3000/3024 10007KT 9999 FEW025 FM301200 13012KT 9999 SCT022", "MBPV 292200Z 3000/3024 10007KT 9999 FEW025 FM301200 13012KT 9999 SCT022", "MGGT 300500Z 3006/0106 03010KT 9999 BKN014 SCT080 TX28/3020Z TN17/3012Z BECMG 3008/3010 36014KT SCT014 BECMG 3015/3017 SCT018 SCT080 BECMG 3021/3023 FEW020 BECMG 0102/0104 36010KT CAVOK", "MGMM 300500Z 3006/0106 14006KT 8000 SCT020 SCT080 TX40/3020Z TN23/3012Z BECMG 3008/3010 9999 BKN012 BECMG 3014/3016 09008KT SCT018 SCT090 BECMG 3020/3022 SCT022 BECMG 0101/0103 00000KT FEW016", "MGPB 300500Z 3006/0106 00000KT 7000 BKN016 TX35/3020Z TN23/3012Z TEMPO 3006/3010 8000 TSRA SCT020TCU FEW025CB BECMG 3014/3016 36008KT SCT018 BKN080 BECMG 3020/3022 SCT022 BECMG 0101/0103 00000KT SCT016 SCT080", "TAF MHLC 300500Z 3006/0106 27012KT 4000 FU SCT028TCU BKN070 TX29/3020Z TN24/3012Z TEMPO 3009/3013 4000 RA BECMG 3018/3020 33008KT TEMPO 3022/0102 3000 RA", "TAF MHLM 300500Z 3006/0106 VRB04KT 5000 FU SCT028CB BKN080 TX34/3021Z TN25/3012Z TEMPO 3006/3010 3000 TSSHRA BECMG 3012/3014 SCT030TCU BECMG 3019/3021 05012KT", "TAF MHPR 300500Z 3006/0106 VRB05KT 7000 SCT048 BKN080 TX33/3021Z TN22/3012Z BECMG 3017/3019 35016KT 5000 FU SCT050TCU FEW052CB BECMG 0101/0103 VRB05KT 7000 SCT048 BKN080", "TAF MHRO 300500Z 3006/0106 30018KT 3000 FU SCT028TCU BKN070 TX30/3021Z TN27/3012Z TEMPO 3008/3012 3000 RA", "TAF MHTG 300500Z 3006/0106 VRB04KT 8000 BKN028 TX30/3021Z TN19/3012Z BECMG 3010/3012 5000 FU BECMG 3015/3017 03010KT 8000 SCT032TCU TEMPO 3023/0103 4000 TSSHRA SCT034CB BECMG 0103/0105 VRB04KT BKN028", "MKJP 300515Z 3006/0106 13010KT 9999 SCT022 BECMG 3014/3016 14020KT BECMG 0102/0104 35005KT", "MKJS 300515Z 3006/0106 15005KT 9999 FEW022 SCT034 BECMG 3014/3016 06018KT PROB30 TEMPO 3018/3024 SHRA BKN020 BECMG 0101/0103 15005KT", "TAF MMAA 300504Z 3006/0106 00000KT 6SM HZ BKN300 TX31/3019Z TN24/3012Z FM301800 24010KT 6SM HZ SCT020 BKN300 FM010300 23005KT 6SM HZ BKN300", "TAF MMAN 300535Z 3006/0106 14005KT P6SM SKC FM301900 13010KT P6SM SKC FM010300 13005KT 6SM HZ SKC", "TAF MMAS 300519Z 3006/0106 03010KT P6SM SKC BECMG 3013/3015 00000KT FM301600 20010KT P6SM SKC TEMPO 3021/0101 21015KT", "TAF MMBT 300518Z 3006/0106 00000KT P6SM SCT030 BECMG 3014/3016 18010KT FM302300 00000KT P6SM SCT200", "TAF MMCB 300518Z 3006/0106 35005KT P6SM SKC BECMG 3016/3018 18010KT FM302100 20010KT P6SM SCT020 BECMG 0103/0105 00000KT", "TAF MMCE 300522Z 3006/0106 35015KT 4SM HZ SCT020 SCT250 TEMPO 3008/3012 35010G20KT BECMG 3012/3014 35010KT 6SM HZ FM302100 35015KT 6SM HZ SCT020 BECMG 0100/0102 03010KT 6SM HZ SCT020", "TAF MMCL 300520Z 3006/0106 00000KT P6SM SCT230 FM301900 20010KT P6SM BKN200 FM010300 16005KT P6SM BKN200", "TAF MMCM 300522Z 3006/0106 35010KT 4SM HZ SCT020 TEMPO 3006/3010 2SM BR BKN015 FM301300 35010KT 5SM HZ BKN020 BKN300 BECMG 3015/3016 SCT020 BKN300 FM010000 15010KT 6SM HZ SCT020CB", "TAF MMCN 300521Z 3006/0106 12005KT P6SM SCT210 BECMG 3018/3020 25010KT FM010000 18005KT P6SM BKN210", "TAF MMCP 300522Z 3006/0106 36010G20KT 6SM HZ SCT020 BKN300 BECMG 3012/3014 35012KT 5SM HZ FM301800 35015KT 6SM HZ SCT020 FM010000 36005KT 6SM HZ SCT020", "TAF MMCS 300535Z 3006/0106 16005KT P6SM SKC FM302000 24010KT P6SM BKN250 FM010300 24010KT P6SM BKN250", "TAF MMCU 300535Z 3006/0106 14005KT P6SM SKC FM301900 14010KT P6SM BKN200 FM010300 24005KT P6SM BKN200", "TAF MMCV 300523Z 3006/0106 18005KT P6SM SKC BECMG 3016/3018 17010KT FM010300 15005KT P6SM SKC", "TAF MMCZ 300531Z 3006/0106 33010KT 6SM HZ SCT015 BKN080 BKN250 FM301000 33010G20KT 6SM HZ BKN015 OVC050 TEMPO 3010/3014 5SM RA BKN010CB FM301800 33010KT 6SM HZ BKN020 FM010300 03015KT 6SM HZ BKN015", "TAF MMDO 300521Z 3006/0106 03005KT P6SM SCT200 BECMG 3015/3016 02010KT FM010300 27010KT P6SM BKN200", "TAF MMEP 300519Z 3006/0106 00000KT P6SM SCT250 BECMG 3019/3021 29010KT FM302300 35005KT P6SM SCT250", "TAF MMGL 300511Z 3006/0106 30005KT P6SM SKC TX31/3021Z TN11/3012Z FM301800 20010KT P6SM SCT300 TEMPO 3022/0102 23010G20KT FM010300 23010KT P6SM BKN300", "TAF MMGM 300521Z 3006/0106 25005KT P6SM SCT200 BECMG 3018/3020 20010KT FM010000 20005KT P6SM SKC", "TAF MMHO 300520Z 3006/0106 00000KT P6SM SCT200 FM302000 24010KT P6SM BKN200 FM010300 24005KT P6SM BKN200", "TAF MMIA 300519Z 3006/0106 00000KT 5SM HZ SCT180 FM301200 03005KT 6SM HZ SCT180 BECMG 3017/3019 25010KT FM010300 00000KT 5SM HZ SCT180", "TAF MMIO 300535Z 3006/0106 00000KT P6SM SKC FM301800 02010KT P6SM SKC FM010300 03005KT P6SM BKN200", "TAF MMLM 300521Z 3006/0106 23005KT P6SM BKN220 BECMG 3017/3019 23012KT FM010000 25005KT P6SM BKN220", "TAF MMLO 300519Z 3006/0106 09005KT P6SM SKC BECMG 3013/3015 00000KT FM302000 20005KT P6SM SKC BECMG 0103/0105 25010KT", "TAF MMLP 300520Z 3006/0106 16008KT P6SM BKN200 FM301900 34010KT P6SM BKN200 FM010300 16005KT P6SM BKN200", "TAF MMLT 300521Z 3006/0106 00000KT P6SM SCT200 FM301600 07005KT P6SM BKN200 BECMG 3019/3021 13010KT FM010300 27010KT P6SM SCT200", "TAF MMMA 300523Z 3006/0106 35005KT P6SM SKC BECMG 3012/3014 20010KT FM301800 18010KT P6SM SKC BECMG 3022/0100 16012KT", "TAF AMD MMMD 300902Z 3009/0106 33012KT 6SM HZ OVC015 TX28/3018Z TN24/3012Z TEMPO 3010/3014 5SM -RA FM301800 33015KT P6SM BKN030 FM010300 03010KT 6SM HZ BKN020", "TAF MMML 300520Z 3006/0106 24005KT P6SM SKC FM301800 16010KT P6SM SKC FM010300 15005KT P6SM SKC", "TAF MMMM 300511Z 3006/0106 00000KT 6SM HZ SKC FM301900 20010KT P6SM SKC FM010300 16005KT P6SM SKC", "TAF MMMT 300522Z 3006/0106 36015KT 5SM HZ SCT015 BKN040 FM300900 35010KT 6SM HZ SCT020 BECMG 3017/3019 03015KT SKC FM010000 03010KT 6SM HZ SKC", "TAF MMMV 300535Z 3006/0106 13005KT P6SM SKC FM301900 06010KT P6SM SKC FM010300 14005KT 6SM HZ BKN200", "TAF MMMX 300504Z 3006/0106 05005KT 6SM HZ SKC TX27/3021Z TN13/3012Z FM301800 23005KT 6SM HZ SKC TEMPO 3021/0101 23010G20KT SCT020 FM010300 23005KT 6SM HZ SKC", "TAF COR MMMY 300538Z 3006/0106 14005KT P6SM SKC TX24/3021Z TN16/3012Z FM301800 13010KT P6SM SKC FM010300 13005KT 6SM HZ SKC", "TAF AMD MMMZ 300953Z 3010/0106 00000KT 6SM HZ SCT240 TX28/3019Z TN18/3012Z FM301800 24010KT P6SM SCT020 BKN240 FM010300 24005KT P6SM BKN240", "TAF MMNL 300523Z 3006/0106 27005KT P6SM SKC FM301500 18005KT P6SM SKC BECMG 3021/3023 17012KT", "TAF MMOX 300518Z 3006/0106 03005KT P6SM SCT020 BKN200 TEMPO 3010/3014 5SM DZ BKN015 FM301500 18005KT P6SM SCT200 BECMG 3018/3020 09012KT SCT020 TEMPO 3020/0100 BKN020CB FM010000 15010KT P6SM SCT020", "TAF MMPA 300523Z 3006/0106 09005KT 5SM HZ BKN180 BECMG 3012/3014 6SM HZ FM301600 00000KT P6SM SKC BECMG 3021/3023 SCT020 FM010000 00000KT P6SM SKC", "TAF MMPB 300518Z 3006/0106 03005KT P6SM SCT020 FM300900 00000KT P6SM SKC BECMG 3016/3018 18012KT SCT020 FM010300 00000KT P6SM SCT020", "TAF MMPG 300523Z 3006/0106 23010KT P6SM SKC BECMG 3018/3020 18010KT FM010000 16010KT P6SM SKC", "TAF MMPN 300519Z 3006/0106 00000KT P6SM SCT300 BECMG 3017/3019 18010KT SKC FM010000 20005KT P6SM SKC", "TAF MMPQ 300522Z 3006/0106 33010KT 3SM DZ BKN020 FM300900 00000KT 3SM BR DZ BKN020 BECMG 3012/3014 00000KT 5SM HZ SCT020 FM301800 30010KT 6SM HZ SCT020 FM010000 00000KT 6SM HZ SCT020CB", "TAF MMPR 300511Z 3006/0106 00000KT P6SM SKC TX27/3021Z TN20/3012Z TEMPO 3011/3015 BKN015 FM301800 22010KT P6SM SKC FM010400 24005KT P6SM SKC", "TAF MMPS 300518Z 3006/0106 35005KT P6SM SCT010 SCT210 FM301200 00000KT P6SM SKC BECMG 3015/3016 25010KT FM010300 27005KT P6SM SCT030", "TAF MMQT 300519Z 3006/0106 09010KT P6SM SCT020 BECMG 3008/3009 09005KT SCT010 FM301200 00000KT P6SM SKC BECMG 3018/3020 30010KT SCT020 FM010000 00000KT P6SM SKC", "TAF MMRX 300523Z 3006/0106 27005KT P6SM SKC BECMG 3012/3014 20005KT FM302100 16010KT P6SM SKC BECMG 0102/0104 16015KT", "TAF MMSD 300521Z 3006/0106 35005KT P6SM SCT250 BECMG 3017/3019 15010KT FM010200 00000KT P6SM SCT250", "TAF MMSL 300521Z 3006/0106 31010KT P6SM SCT240 BECMG 3014/3016 18005KT FM301800 27010KT P6SM SCT240 TEMPO 3020/0100 30015KT", "TAF AMD MMSM 300917Z 3009/0106 06005KT 6SM HZ SKC TEMPO 3012/3015 3SM BR HZ FM302000 23010KT P6SM SCT020 FM010300 23005KT 6SM HZ SCT015", "TAF MMSP 300511Z 3006/0106 12005KT 6SM HZ SKC TX30/3020Z TN12/3012Z FM301800 12010KT P6SM SKC TEMPO 3021/3024 12010G20KT FM010300 13005KT 6SM HZ SKC", "TAF MMTC 300535Z 3006/0106 33005KT 6SM HZ SKC FM301900 08010KT P6SM SCT200 FM010300 08005KT 6SM HZ BKN200", "TAF MMTG 300531Z 3006/0106 33010G20KT 6SM HZ SCT020 BKN070 TEMPO 3006/3010 4SM -RA BR OVC015 FM301000 33015KT 5SM HZ BKN015 OVC050 TEMPO 3011/3015 2SM BR -DZ OVC010 FM301800 33010G20KT P6SM BKN030 FM010200 33010KT 6SM HZ BKN020", "TAF COR MMTJ 300541Z 3006/0106 28005KT 6SM HZ BKN015 TX20/3019Z TN13/3012Z TEMPO 3006/3010 4SM BR OVC008 FM301000 00000KT 3SM BR OVC008 TEMPO 3010/3014 2SM BR BKN005 OVC008 FM301600 00000KT 6SM HZ BKN010 FM301800 24010KT 6SM HZ SCT020 FM010300 24005KT 6SM HZ BKN015", "TAF MMTM 300504Z 3006/0106 13005KT 6SM HZ SKC FM302000 13015KT 6SM HZ SKC FM010300 13012KT 6SM HZ SCT015", "TAF MMTO 300504Z 3006/0106 03005KT 6SM HZ SCT200 TX25/3021Z TN06/3012Z TEMPO 3012/3015 3SM HZ FM301800 24010KT 6SM HZ SCT020 FM010300 24005KT 6SM HZ SKC", "TAF MMTP 300531Z 3006/0106 00000KT 6SM HZ SKC FM301800 23010KT P6SM SCT030 TEMPO 3023/0103 6SM TSRA BKN020CB", "TAF MMUN 300531Z 3006/0106 30015KT 6SM HZ SCT015 BKN080 BKN250 TX28/3019Z TN22/3012Z TEMPO 3006/3010 5SM -TSRA BKN010CB FM301000 33010G20KT 6SM HZ BKN015 OVC070 TEMPO 3011/3015 5SM RA BKN010CB FM301800 33010KT 6SM HZ BKN020 BKN070 FM010300 33010KT 6SM HZ BKN015", "TAF MMVA 300522Z 3006/0106 35010G20KT 4SM DZ BKN015 FM300900 35010KT 3SM DZ SCT020 BECMG 3011/3013 27005KT 5SM HZ FM301800 00000KT 6SM HZ SCT020 BECMG 3022/0100 35010KT", "TAF MMVR 300504Z 3006/0106 02010KT 6SM HZ BKN015 BKN050 TX29/3020Z TN22/3012Z TEMPO 3011/3015 2SM BR OVC010 FM301800 06010KT 6SM HZ SCT015 FM010300 08005KT 6SM HZ BKN015", "TAF MMZC 300511Z 3006/0106 03008KT P6SM SKC TX25/3020Z TN08/3012Z FM301800 16010KT P6SM SCT200 FM010300 24005KT P6SM BKN200", "TAF MMZH 300518Z 3006/0106 30005KT P6SM SCT020 BECMG 3012/3014 SKC FM301600 20010KT P6SM SKC BECMG 0100/0102 25005KT SCT020", "TAF MMZO 300511Z 3006/0106 00000KT P6SM SCT200 FM301800 24010KT P6SM BKN200 FM010300 24005KT 6SM HZ SCT200", "MNBL 292119Z 3000/3024 14008KT 9999 SCT018 SCT300 TEMPO 3012/3018 11010KT BKN018", "MNMG 300240Z 3006/0106 VRB04KT 9999/8000 -DZ SCT020 SCT080 TEMPO 3014/3018 11008KT 110V270 9000 FU FEW024 SCT300 PROB30 BECMG 3020/3022 8000 -TSRA FEW020CB SCT080 TEMPO 0100/0104 9999 FEW020 SCT300", "MNPC 292119Z 3000/3024 12006KT 7000 HZ FEW016 TEMPO 3012/3018 11010KT SCT016 SCT300", "TAF MPDA 292300Z 3000/3012 20010KT 9999 SCT015 PROB30 3001/3004 7000 TSRA FEW013CB TEMPO 3005/3008 VRB02KT NSW", "TAF MPMG 292300Z 3000/3012 36010KT 9999 SCT016 TEMPO 3003/3006 27006KT NSW TEMPO 3006/3010 VRB02KT", "TAF MPPA 291700Z 2918/3024 35006KT 9999 SCT020 SCT090 TEMPO 2919/2923 18008KT 6000 TSRA SCT016CB SCT080 TEMPO 2923/3002 VRB02KT NSW TEMPO 3005/3009 00000KT FEW020", "TAF MPSM 291700Z 2918/3024 16007KT 9999 FEW020 PROB30 2919/2923 17011KT 7000 SHRA SCT018CB SCT090 TEMPO 3000/3004 34006KT", "TAF MPTO 300500Z 3006/0112 27006KT 9999 FEW018 SCT090 TEMPO 3006/3010 VRB02KT TEMPO 3016/3018 16008KT PROB40 TEMPO 3018/3022 16006KT 6000 TSRA SCT014CB BKN080", "MRLB 300500Z 3006/0106 08003KT 9999 FEW045 SCT200 TX35/3020Z TN20/3011Z TEMPO 3017/3019 27006KT TEMPO 3021/3024 RA FEW020TCU ", "MRLM 300500Z 3006/0106 25004KT 9999 FEW030 TX30/3021Z TN21/3011Z BECMG 3015/3017 07006KT BECMG 0100/0103 23005KT ", "MROC 300500Z 3006/0106 08005KT 9999 FEW035 TX30/3019Z TN20/3011Z BECMG 3015/3017 25010KT TEMPO 3020/3023 RA FEW015CB BKN030 TEMPO 0100/0104 VRB02KT SCT010 ", "MRPV 300500Z 3000/3024 10005KT 9999 FEW030 TX29/3019Z TN19/3011Z BECMG 3016/3019 28010KT TEMPO 3020/3024 RA FEW020TCU ", "TAF MTCH 291640Z 2918/3018 03010KT 9000 SCT028 BKN060 PROB30 TEMPO 3000/3006 4500 -TSRA FM300800 VRB02KT 7000 FEW020 BECMG 3014/3018 02012KT", "TAF MTPP 291630Z 2918/3018 10009KT 9999 SCT026 BKN050 BECMG 2919/2921 30012KT PROB40 TEMPO 2922/3002 4000 TSRA BKN024CB BECMG 3004/3008 VRB02KT 8000 NSW FEW022 FM301300 09010KT 9999 FEW024", "MUCC 300500Z 3006/0106 18008KT 9000 SCT020 TEMPO 3017/3024 VRB10KT 5000 TSRA FEW018CB BKN040 BECMG 0100/0102 VRB03KT", "MUCM 300500Z 3006/0106 VRB04KT 9000 SCT020 TEMPO 3009/3013 5000 BR BECMG 3015/3018 19009KT", "MUCU 300500Z 3006/0106 VRB03KT 9000 SCT020 BECMG 3015/3017 18009KT", "TAF MUGM 3007/0107 VRB06KT 9999 VCSH SCT020 BKN050 QNH2990INS BECMG 3013/3015 19010G18KT 9999 VCSH SCT020 SCT250 QNH2986INS BECMG 3020/3022 VRB06KT 9999 NSW FEW015 QNH2989INS TX30/3018Z TN24/3010Z FN00262", "MUHA 300500Z 3006/0106 23005KT 9000 SCT030 TEMPO 3014/3023 22019KT 3000 TSRA SCT018CB BKN020 BECMG 0100/0102 30007KT", "MUHG 300500Z 3006/0106 VRB03KT 9000 SCT020 TEMPO 3009/3013 5000 BR TEMPO 3015/3024 18009KT BKN030", "MUSC 300500Z 3006/0106 VRB04KT 9000 SCT020 BECMG 3011/3013 20010KT TEMPO 3019/3024 VRB10KT 4000 TSRA SCT018CB BKN030", "MUVR 300500Z 3006/0106 18009KT 9000 SCT020 BECMG 3012/3015 20014KT TEMPO 3016/3024 VRB10KT 4000 TSRA SCT018CB BKN030 BECMG 0100/0102 VRB03KT", "TAF MWCB 291100Z 2912/3012 14010KT 9999 FEW018 PROB30 TEMPO 3018/3024 9000 SCT016", "TAF MWCR 292300Z 3000/3024 15010KT 9999 FEW018 BECMG 3016/3018 20013KT TEMPO 3018/3024 9000 SHRA SCT016", "MYGF 292200Z 3000/3024 18012KT 9999 VCTS FEW018CB BKN100 OVC200 FM301400 22015G25KT 9999 VCSH FEW015CB SCT025 BKN100 TEMPO 3016/3020 8000 TSRA SCT012CB BKN018 BKN080 FM302000 26016KT 9999 SCT030 SCT120 BKN200", "MYNN 292200Z 3000/3024 18013KT 9999 FEW022 SCT220 FM301400 21015G25KT 9999 VCSH FEW015CB SCT020 BKN200 TEMPO 3018/3024 9000 SHRA VCTS FEW012CB BKN020 BKN150 BECMG 3020/3022 24015KT", "TAF MZBZ 300300Z 3006/0106 32008KT 8000 SCT022 PROB30 TEMPO 3003/3010 5000 RA SCT018 BKN040 BECMG 3018/3020 05007KT PROB30 TEMPO 3022/0106 4000 SHRA BKN015", "TAF NCRG 300510Z 3006/0106 11006KT 9999 OVC055", "TAF NFFN 300504Z 3006/0106 12006KT 9999 FEW018 SCT022 PROB30 TEMPO 3006/3010 5000 TSRA FEW018CB BECMG 3022/3024 30010KT PROB30 TEMPO 0104/0106 5000 TSRA BKN014 FEW017CB BECMG 0104/0106 13005KT", "TAF NFNA 300508Z 3006/0106 13005KT 9999 FEW018 SCT100 TEMPO 3006/3012 5000 TSRA BKN015 FEW018CB PROB30 TEMPO 0104/0106 5000 TSRA BKN014 FEW017CB", "TAF NFTF 300509Z 3006/0106 11008KT 9999 -TSRA SCT008 FEW011 BKN100 TEMPO 3006/3012 3000 +TSRA BKN012 SCT017CB", "TAF NFTV 300506Z 3006/0106 11006KT 9999 FEW012 SCT016 OVC100", "TAF NGFU 300507Z 3006/0106 09007KT 9999 FEW016 SCT018 BKN100 TEMPO 3006/3018 5000 TSRA BKN015 FEW017CB", "TAF NGTA 300507Z 3006/0106 07007KT 9999 FEW019 PROB40 TEMPO 3006/3012 5000 TSRA BKN016 FEW017CB", "TAF NIUE 300506Z 3006/0106 10008KT 9999 SCT018 BKN030 PROB30 TEMPO 3012/3018 5000 SHRA SCT009 BKN015", "TAF NLWF 300500Z 3006/0106 10012KT 9999 SCT020 SCT050 PROB40 TEMPO 3006/0106 4000 SHRA BKN012 SCT020TCU PROB30 TEMPO 3008/3021 3000 SHRA BKN010 FEW015CB SCT020TCU", "TAF AMD NLWW 300611Z 3006/0106 11010KT 9999 SCT020 SCT040 PROB40 TEMPO 3006/3018 3000 SHRA BKN012 FEW015CB SCT020TCU TEMPO 0100/0106 SHRA SCT020TCU", "TAF NSFA 300509Z 3006/0106 10005KT 9999 FEW022 BKN100 PROB30 TEMPO 3006/3008 5000 TSRA BKN015 FEW018CB", "NSTU 300541Z 3006/0106 11016KT P6SM VCSH SCT021 SCT040", "TAF NTAA 300500Z 3006/0112 VRB04KT 9999 FEW025 BECMG 3019/3021 05013KT TEMPO 3021/0112 3000 SHRA FEW015CB BKN040 PROB30 TEMPO 3021/0110 05017G27KT 1400 TSRA SCT015CB BKN040", "TAF NVSC 300500Z 3006/3024 08005KT 9999 SCT020 BECMG 3006/3008 11010G20KT", "TAF NVSG 300500Z 3006/3024 10008KT 9999 SCT020 BECMG 3006/3008 12010G20KT", "TAF NVSL 300500Z 3006/3024 10010KT 9999 SCT020 BECMG 3006/3008 VRB04KT", "TAF NVSP 300500Z 3006/3024 10010KT 9999 SCT020 BECMG 3006/3008 VRB04KT", "TAF NVSS 300500Z 3006/3024 10010KT 9999 SCT020 BECMG 3006/3008 11005KT", "TAF NVVA 300500Z 3006/3024 09005KT 9999 SCT020", "TAF NVVV 300500Z 3006/3024 11010KT 9999 SCT020 PROB40 INTER 3009/3013 SHRA SCT012 BKN018", "TAF NVVW 300500Z 3006/3024 09008KT 9999 SCT020 PROB40 INTER 3009/3013 SHRA SCT012 BKN018", "TAF NWWD 300500Z 3006/0106 VRB02KT 9999 SCT040 SCT050 BECMG 3023/0101 25012KT", "TAF NWWE 291700Z 2918/3018 21006KT 9999 SCT025 PROB30 TEMPO 2918/2920 SHRA BKN012 FEW020TCU", "TAF NWWK 300500Z 3006/0106 VRB02KT 9999 SCT020 SCT045 BECMG 3021/3023 16012KT", "TAF NWWL 291700Z 2918/3018 VRB03KT 9999 FEW030 PROB30 TEMPO 2918/2920 SHRA BKN014 FEW018TCU", "TAF NWWM 291700Z 2918/3018 VRB03KT 9999 SCT025 BECMG 2921/2924 15012KT", "TAF NWWR 291700Z 2918/3018 20006KT 9999 SCT025 PROB30 TEMPO 2918/2920 SHRA FEW018TCU", "TAF NWWU 291700Z 2918/3018 VRB02KT 9999 SCT045 PROB30 TEMPO 2921/3003 SHRA", "TAF NWWW 300500Z 3006/0106 VRB02KT 9999 FEW030 SCT040 BECMG 3021/3023 18012KT", "TAF NZAA 300836Z 3009/0112 08020G30KT 9999 -RA SCT012 BKN020 TEMPO 3009/3016 5000 RA BKN012 SCT020TCU PROB30 TEMPO 3012/3016 2500 +RA BKN009 TEMPO 3016/3022 5000 RA BKN012 BECMG 3022/0100 04015KT TEMPO 3022/0104 6000 RA", "TAF NZCH 300835Z 3009/0112 VRB02KT 1500 BR BKN008 FM301000 VRB02KT 0400 FG BKN004 BECMG 3020/3022 9999 NSW BKN008 TEMPO 3021/0104 4000 RADZ BECMG 0100/0102 06010KT TEMPO 0104/0112 2000 RADZ BKN004", "TAF NZQN 291707Z 2918/3012 02008KT 9999 SKC BECMG 3000/3002 25010KT BECMG 3005/3007 03008KT", "TAF NZWN 300836Z 3009/0112 03010KT 9999 BKN060 BECMG 3018/3020 15005KT PROB30 3018/3021 BKN005 BECMG 0100/0102 02010KT", "TAF OEAB 292300Z 3000/0106 VRB03KT 7000 SCT020 TEMPO 3000/3006 3000 BR PROB30 TEMPO 3001/3004 FG FEW025CB BECMG 3006/3008 22012KT TEMPO 3009/3018 4000 TSRA BKN020 FEW025CB BECMG 3018/3020 19005KT", "TAF OEAH 292200Z 3000/0106 26009KT 8000 NSC PROB30 TEMPO 3000/3006 4000 DU BECMG 3010/3012 VRB03KT", "TAF OEAO 292300Z 3000/0106 34010KT CAVOK BECMG 3003/3005 35014KT 7000 FEW040 BECMG 3018/3020 VRB03KT", "TAF OEBA 292300Z 3000/0106 VRB03KT 7000 FEW030 TEMPO 3000/3010 TS FEW025CB BECMG 3008/3010 24014KT 7000 TEMPO 3010/3020 VRB24KT 4000 TSRA FEW025CB SCT030", "TAF OEBH 292300Z 3000/0106 VRB03KT 7000 FEW030 TEMPO 3003/3010 3000 DU TSRA FEW025CB BECMG 3010/3012 24015KT 7000 TEMPO 3010/3020 VRB25KT 2000 BLDU TSRA FEW025CB SCT030", "TAF OEDF 300345Z 3006/0112 VRB03KT 8000 NSC PROB30 TEMPO 3006/3012 3000 DU BECMG 3011/3013 06010KT", "TAF OEDM 292300Z 3000/0106 20006KT 7000 FEW040 BECMG 3008/3010 26012KT BECMG 3018/3020 VRB03KT", "TAF AMD OEDR 300245Z 3003/0106 15006KT 8000 NSC TEMPO 3003/3007 1500 HZ PROB30 TEMPO 3007/3012 4000 DU BECMG 3010/3012 05010KT", "TAF OEGN 292300Z 3000/0106 VRB03KT 7000 FEW030 PROB30 TEMPO 3000/3006 FEW025CB BECMG 3006/3008 30012KT SCT030 TEMPO 3012/0102 4000 DU FEW035CB", "TAF OEGS 292300Z 3000/0106 30010KT CAVOK BECMG 3007/3009 24015KT 7000 FEW030 PROB30 TEMPO 3007/3016 4000 BLDU BECMG 3018/3020 35010KT", "TAF OEGT 292300Z 3000/0106 26012KT 9999 FEW040 BECMG 3006/3008 30016KT BECMG 3020/3022 34008KT", "TAF OEHL 292300Z 3000/0106 29012KT CAVOK BECMG 3007/3009 04010KT 7000 FEW030 BECMG 3018/3020 34012KT", "TAF OEJN 300500Z 3006/0112 34015KT CAVOK BECMG 3018/3020 02005KT 7000 NSC", "TAF OEKJ 292300Z 3000/0106 27010KT 7000 SCT040 BECMG 3006/3008 24014KT PROB30 TEMPO 3008/3014 FEW035CB BECMG 3018/3020 VRB03KT", "TAF OEKM 292300Z 3000/0106 VRB03KT 7000 SCT020 TEMPO 3000/3006 3000 BR PROB30 TEMPO 3001/3004 FG FEW025CB BECMG 3006/3008 22012KT TEMPO 3009/3018 4000 TSRA BKN020 FEW025CB BECMG 3018/3020 19005KT", "TAF OEMA 300500Z 3006/0112 28012KT CAVOK BECMG 3020/3022 VRB03KT", "TAF OENG 292300Z 3000/0106 30014KT 7000 SCT040 TEMPO 3000/3012 2000 BLDU TSRA FEW025CB BKN030 BECMG 3006/3008 36014KT TEMPO 3012/3020 VRB20KT 2000 BLDU TSRA FEW025CB SCT030 BECMG 3020/3022 28005KT", "TAF OEPA 292200Z 3000/0106 35013KT 8000 NSC BECMG 3008/3010 06010KT", "TAF OEPS 300900Z 3009/0115 25010G15KT 8000 HZ SKC QNH2982INS BECMG 3018/3019 VRB06KT 9999 NSW SKC QNH2988INS BECMG 0105/0106 32010G15KT 6000 HZ SKC QNH2997INS BECMG 0110/0111 VRB06KT 9999 NSW FEW110 QNH2988INS TX37/3012Z TN20/0101Z", "TAF OERF 292300Z 3000/0106 32008KT 7000 FEW040 BECMG 3006/3008 34012KT", "TAF OERK 300500Z 3006/0112 26015KT 7000 FEW040 TEMPO 3006/3014 4000 BLDU PROB30 TEMPO 3008/3013 FEW035CB SCT040 BECMG 3016/3018 32010KT", "TAF OERR 292300Z 3000/0106 32010KT 7000 FEW040 BECMG 3008/3010 28012KT BECMG 3020/3022 30008KT ", "TAF OESH 292300Z 3000/0106 18014KT 7000 FEW040 TEMPO 3000/3012 2000 TS FEW025CB SCT030 BECMG 3012/3014 06010KT SCT040 TEMPO 3012/3020 VRB20KT 2000 BLDU TSRA FEW025CB BKN030 BECMG 3020/3022 30005KT", "TAF OESK 292300Z 3000/0106 VRB03KT 7000 FEW040 BECMG 3008/3010 27010KT BECMG 3018/3020 35006KT", "TAF OETB 292300Z 3000/0106 34010KT 7000 FEW030 BECMG 3008/3010 28010KT BECMG 3018/3020 35006KT", "TAF OETF 292300Z 3000/0106 29010KT 7000 FEW030 TEMPO 3000/3006 3000 BR FEW025CB SCT030 BECMG 3010/3012 31015KT SCT030 TEMPO 3010/3018 3000 TSRA FEW025CB BECMG 3018/3020 VRB03KT", "TAF OETR 292300Z 3000/0106 24010KT 9999 FEW040 BECMG 3006/3008 27012KT BECMG 3018/3020 VRB03KT", "TAF OEWD 292300Z 3000/0106 36013KT 7000 SCT040 TEMPO 3000/3012 3000 BLDU TSRA FEW025CB BKN030 BECMG 3012/3014 06010KT BECMG 3020/3022 VRB03KT", "TAF OEWJ 292300Z 3000/0106 04012KT 6000 FEW030 BECMG 3006/3008 29016KT BECMG 3018/3020 35006KT CAVOK", "TAF OEYN 292300Z 3000/0106 30012KT CAVOK BECMG 3006/3008 27016KT 6000 FEW030 BECMG 3016/3018 31010KT CAVOK", "TAF OIAA 300545Z 3006/0112 30008KT 7000 NSC TEMPO 3023/0106 4000 HZ", "TAF OIAW 300545Z 3006/0112 14008KT 8000 NSC TEMPO 3022/3106 4000 HZ", "TAF OIBB 300800Z 3009/3018 24008KT 8000 NSC TEMPO 3009/3015 24016KT BECMG 3016/3018 10006KT", "TAF OIBK 300545Z 3006/0112 32010KT 6000 NSC TEMPO 3010/3016 26018KT TEMPO 0100/0105 4000 HZ TEMPO 0109/0112 26016G24KT 4000 SA", "TAF OIBP 300800Z 3009/3018 26008KT 8000 NSC TEMPO 3009/3015 27014KT BECMG 3016/3018 34006KT", "TAF OICC 300800Z 3009/3018 12008KT FEW030 SCT100 TEMPO 3009/3018 21018KT FEW030CB SCT035 BKN100", "TAF OICI 300545Z 3006/0112 14008KT 8000 NSC", "TAF OIFM 300545Z 3006/0112 28008KT 8000 FEW040 TEMPO 3009/3017 25014G24KT 4000 SA FEW035CB SCT040 SCT090 PROB30 TEMPO 0102/0106 5000 HZ TEMPO 0109/0112 25014G24KT 4000 SA FEW035CB SCT040 SCT100", "TAF OIGG 300800Z 3009/3018 02008KT 8000 FEW020 SCT100 TEMPO 3010/3016 34016KT 5000 RA/DZ BR FEW020CB SCT025 BKN090", "TAF OIIE 300545Z 3006/0112 17008KT 8000 FEW040 BECMG 3009/3011 FEW035TCU SCT040 TEMPO 3012/3017 31022G32KT 3000 TS/SA FEW030CB SCT035 SCT100 BECMG 3019/3020 31010KT FEW040", "TAF OIII 300545Z 3006/0112 21008KT 9999 FEW040 SCT100 BECMG 3010/3012 FEW035CB SCT040 TEMPO 3012/3018 26020G30KT 4000 SHRA/TS SCT030CB SCT035 BKN090 BECMG 3019/3021 33008KT FEW040 SCT100", "TAF OIIP 300800Z 3009/3018 20010KT 9999 FEW035 SCT100 TEMPO 3010/3016 30016G26KT 3000 TSRA SA SCT035CB SCT040 BKN080 PROB40 3011/3014 30018G30KT 1500 TSRA SA SCT035CB SCT040 BKN080", "TAF OIKB 300545Z 3006/0112 20008KT 5000 HZ NSC TEMPO 3009/3016 24020KT 4000 SA FEW030TCU BECMG 3019/3021 06008KT 4000 HZ/BR FEW030 TEMPO 0100/0104 3000 SCT025 BECMG 0106/0108 20010KT 6000 NSC TEMPO 0109/0112 24020KT 4000 SA FEW030TCU", "TAF OIKK 300545Z 3006/0112 12008KT 8000 FEW400 TEMPO 3008/3016 32012G20KT FEW035CB SCT040 SCT090 PROB40 3010/3015 5000 TS SCT030CB TEMPO 0108/0112 28018KT FEW035CB SCT040 SCT100", "TAF OIMM 300545Z 3006/0112 13008KT 8000 FEW035 TEMPO 3012/3018 13018KT FEW035CB SCT040 BECMG 3018/3020 24008KT", "TAF OING 300800Z 3009/3018 24008KT 8000 FEW040 TEMPO 3009/3013 24018KT FEW030CB SCT035 SCT100", "TAF OINZ 300800Z 3009/3018 34008KT 8000 FEW020 BKN100 TEMPO 3009/3018 34016KT FEW030CB SCT040 BKN100", "TAF OISL 300545Z 3006/0112 27008KT 8000 NSC", "TAF OISS 300545Z 3006/0112 28006KT 8000 NSC TEMPO 3009/3017 27012G22KT FEW035TCU SCT040", "TAF OITL 300800Z 3009/3018 21014KT 9999 FEW030 SCT100 TEMPO 3009/3016 19018G34KT FEW030CB ST040 BKN100 PROB30 TEMPO 3009/3013 19014G34KT TSRA SCT030CB ST040 BKN100", "TAF OITR 300545Z 3006/0112 18016KT 8000 FEW035 SCT100 TEMPO 3008/3017 20022G32KT FEW035CB SCT040 SCT100 BECMG 3019/3021 14008KT TEMPO 0108/0112 22018KT FEW035CB SCT040", "TAF OITT 300545Z 3006/0112 25014KT 7000 FEW030 SCT100 TEMPO 3006/3014 24020G32KT 3000 SA FEW027TCU SCT032CB BECMG 3019/3021 25008KT TEMPO 0108/0112 25018KT FEW030CB SCT035", "TAF OIYY 300800Z 3009/3018 10008KT 9999 FEW035", "TAF OIZH 300545Z 3006/0112 20008KT 7000 FEW040 SCT100 TEMPO 3008/3018 16014G24KT 3000 TSRA SA SCT035CB SCT040 BKN100 TEMPO 0108/0112 28012G20KT 5000 SA TS FEW035CB SCT040 SCT100", "TAF OJAI 300500Z 3006/0112 28012KT 5000 HZ NSC TEMPO 3012/3018 27018KT BLDU", "TAF OJAM 300500Z 3006/0112 25010KT 5000 HZ SCT025 TEMPO 3012/3018 27016KT BLDU", "TAF OJAQ 300500Z 3006/0112 36012KT 6000 NSC", "TAF OKAS 300800Z 3008/0114 04012KT 9000 DU SKC QNH2968INS BECMG 3012/3013 08009KT 9000 HZ FEW160 QNH2966INS BECMG 3015/3016 VRB05KT 8000 HZ SKC QNH2967INS BECMG 3020/3021 33012G20KT 9000 BLDU SKC QNH2975INS TEMPO 3022/3024 35015G25KT 8000 BLDU BECMG 0104/0105 35015G25KT 8000 BLDU SKC QNH2981INS TEMPO 0105/0109 35020G30KT 5000 BLDU 510003 TX37/3011Z TN24/0102Z", "TAF OMAA 300500Z 3006/0112 22005KT CAVOK BECMG 3006/3008 32012KT BECMG 3016/3018 14005KT BECMG 0106/0108 32011KT", "TAF OMAD 300500Z 3006/0112 22004KT CAVOK BECMG 3006/3008 34009KT BECMG 3016/3018 14005KT BECMG 0106/0108 33010KT", "TAF OMAL 300500Z 3006/0112 10005KT CAVOK BECMG 3007/3009 32015KT BECMG 3016/3018 09005KT BECMG 0106/0108 32014KT", "TAF OMDB 300500Z 3006/0112 17005KT CAVOK BECMG 3006/3008 29010KT BECMG 3016/3018 16005KT BECMG 0107/0109 28013KT", "TAF OMDW 300500Z 3006/0112 16005KT CAVOK BECMG 3007/3009 30012KT BECMG 3016/3018 16005KT BECMG 0107/0109 29014KT", "TAF OMFJ 300500Z 3006/0112 08008KT 8000 NSC BECMG 3014/3016 29006KT BECMG 0105/0107 08008KT", "TAF OMRK 300500Z 3006/0112 17004KT CAVOK BECMG 3006/3008 30010KT BECMG 3015/3017 VRB02KT BECMG 0106/0108 29011KT", "TAF OMSJ 300500Z 3006/0112 16005KT CAVOK BECMG 3006/3008 30010KT BECMG 3016/3018 16005KT BECMG 0107/0109 28012KT", "TAF OODQ 300500Z 3006/0106 20012KT 8000 NSC PROB30 TEMPO 3022/0102 0900 FG BKN010", "TAF OOMS 300500Z 3006/0112 05012KT 8000 NSC BECMG 3018/3020 21007KT BECMG 0106/0108 03012KT", "TAF OOSA 300540Z 3006/0112 19014KT 9999 BKN020 BECMG 3016/3018 VRB03KT BECMG 0107/0109 19014KT", "TAF OOSH 300500Z 3006/0112 07012KT 8000 NSC BECMG 3016/3018 VRB02KT BECMG 0106/0108 08012KT", "TAF OPFA 300500Z 3006/0112 18004KT 4000 HZ SCT100 TX35/3009Z TN19/0101Z FM300800 18006KT 6000 SCT100 FM301300 18004KT 4000 FU SCT100 TEMPO 0100/0104 VRB02KT 2000 FU FEW040 SCT100 BECMG 0104/0106 18004KT 3000 HZ FEW040 SCT100", "TAF OPGD 300500Z 3006/0106 24007G17KT 6000 SCT030 BECMG 3018/3020 VRB03KT 3000 HZ SCT030 TEMPO 0101/0105 00000KT 6000 NSC", "TAF OPIS 300500Z 3006/0112 27010KT 5000 HZ FEW040 SCT100 TEMPO 3006/3012 09010G20KT 6000 TEMPO 0100/0106 14020G40KT 3000 TSRA FEW030CB SCT040 BKN100 FM010600 09010G20KT 3000 RA SCT040 BKN100", "TAF OPKC 300500Z 3006/0112 23007G17KT 6000 SCT030 SCT100 BECMG 3020/3022 29005KT 4000 HZ SCT030 FM300600 23005G15KT 6000 SCT030", "TAF OPLA 300500Z 3006/0112 29008KT 5000 FU SCT040 SCT100 TX34/3010Z TN22/0100Z TEMPO 3008/3012 21015G30KT FM301800 22008KT 4000 FU SCT040 BKN100 TEMPO 3022/0102 09015G35KT 2000 TSRA FEW030CB SCT040 BKN100 FM010500 20010KT 5000 FU SCT040 SCT100", "TAF OPNH 292335Z 3000/0106 23010KT 6000 SCT040 SCT100 TEMPO 3001/3005KT 00000KT 3000 -TSRA FEW025CB SCT030 BKN100 TEMPO 3020/3022 17010KT 4000 HZ SCT030 BKN100", "TAF OPPS 300500Z 3006/0112 05006KT 5000 HZ FEW100 BECMG 3010/3012 18008KT 5000 HZ FEW050 SCT100 BECMG 0102/0104 05006KT 6000 FEW060 SCT100", "TAF OPSK 300500Z 3006/0106 36010KT 4000 HZ SCT030 SCT100 BECMG 3018/3020 33005KT 3000 FU SCT030 SCT100 BECMG 0100/0300 14010KT 6000 NSC", "TAF OPST 300500Z 3006/0112 23008KT 4000 HZ FEW040 SCT100 TX36/3010Z TN19/0100Z PROB30 TEMPO 3012/3016 13015G25KT 2500 -TSRA FEW030CB SCT040 BKN100", "TAF ORBI 300400Z 3006/0106 33006KT CAVOK", "TAF ORER 300500Z 3006/0106 20008KT 7000 SCT040 PROB30 3008/3012 21010G20KT 4000 BLDU BECMG 3018/3020 VRB02KT", "TAF ORMM 300400Z 3006/0106 33010KT CAVOK TEMPO 3016/0102 G25KT 6000 NSC", "TAF ORSU 300500Z 3006/0106 VRB02KT 4000 DU NSC BECMG 3008/3010 23012KT 6000 SCT045 BKN080 BECMG 3016/3018 30008KT CAVOK", "TAF OTBD 300511Z 3006/0112 21013KT 8000 NSC TEMPO 3006/3017 14013KT TEMPO 3012/3016 07009KT", "TAF OTBH 300800Z 3008/0114 16012G18KT 9999 FEW120 QNH2961INS BECMG 3016/3017 09010KT 9999 SKC QNH2965INS BECMG 0102/0103 VRB06KT 9999 SKC QNH2970INS BECMG 0106/0107 15010KT 9999 SKC QNH2968INS TX40/3010Z TN22/0102Z", "TAF OTHH 300510Z 3006/0112 21013KT 8000 NSC TEMPO 3006/3017 14013KT TEMPO 3012/3016 07009KT", "TAF OYAA 300514Z 3006/0112 08012KT 9999 SCT020 BKN100 TEMPO 3010/3016 FEW035CB SCT100", "PAAQ 300523Z 3006/0106 14006KT P6SM BKN100 FM302200 14012G22KT P6SM BKN080 BKN200", "PABE 300520Z 3006/0106 06007KT P6SM BKN040 OVC050 FM010200 06015G22KT 6SM -RA OVC025", "PABR 300520Z 3006/0106 07015KT 4SM BR OVC011", "PABT 300520Z 3006/0106 04006KT P6SM FEW060 SCT200", "PACD 300537Z 3006/0106 14023G33KT P6SM VCSH SCT015 OVC025 TEMPO 3006/3008 SCT025 OVC090 FM300800 13030G45KT 4SM -RA BR SCT007 OVC015 FM301800 16022G30KT P6SM VCSH SCT015 BKN030 FM010000 14030G40KT 5SM -RA BR OVC015", "PACV 300523Z 3006/0106 VRB05KT P6SM -RA OVC035 TEMPO 3006/3009 6SM -RA BR OVC030 FM300900 VRB03KT 6SM -RA BR OVC025 FM301500 VRB03KT P6SM OVC035", "PADL 300520Z 3006/0106 07010KT P6SM BKN060 FM301400 05015G25KT P6SM OVC030 FM301800 05018G28KT 6SM -RA OVC025 FM010000 09015G25KT 2SM -RA BR OVC007", "PADQ 300523Z 3006/0106 VRB06KT P6SM SCT100 FM301500 13009KT P6SM VCSH OVC025 FM301900 11015KT 5SM -RA BKN015 OVC025 FM010000 11012KT P6SM -RA SCT015 OVC025 FM010300 18009KT P6SM VCSH SCT025 OVC050", "PADU 300537Z 3006/0106 12015G25KT 4SM -RA BR SCT007 OVC015 TEMPO 3006/3009 2SM -RA BR FM301000 15011G20KT P6SM -SHRA SCT015 OVC025 FM301700 14015G25KT 4SM -RA BR SCT010 OVC020 FM010100 26011G20KT 5SM -SHRA SCT015 OVC025", "TAF PAED 300513Z 3005/0111 22009KT 9999 FEW050 BKN070 BKN100 600705 QNH2970INS BECMG 3007/3008 VRB06KT 9999 FEW040 BKN060 BKN080 600606 QNH2969INS BECMG 3014/3015 VRB06KT 9999 FEW060 FEW180 QNH2968INS TX08/3021Z TNM01/3015Z", "TAF PAEI 300600Z 3006/0112 VRB06KT 9999 BKN050 620505 QNH2980INS BECMG 3012/3013 VRB06KT 8000 -RA SCT005 BKN020 OVC050 620208 QNH2972INS BECMG 3017/3018 VRB06KT 9999 NSW SCT005 BKN020 BKN050 620208 QNH2970INS BECMG 0102/0103 VRB06KT 9999 FEW050 SCT100 QNH2968INS TX09/0100Z TN01/3012Z", "PAEN 300523Z 3006/0106 26007KT P6SM SCT200 FM302200 02009KT P6SM BKN100 FM010300 04011KT P6SM VCSH OVC050", "PAFA 300658Z 3007/0112 08005KT P6SM VCSH BKN050 FM301200 02005KT 5SM -SN BR OVC020 FM301800 03002KT 5SM -SHRA OVC025 FM302300 05005KT P6SM VCSH BKN050", "TAF PAFB 290600Z 2906/3012 VRB04KT 9999 SCT080 SCT180 QNH2990INS BECMG 3006/3007 05009KT 9999 BKN070 QNH2971INS TX08/3002Z TNM02/2914Z LAST NO AMDS AFT 2906 NEXT 0114", "PAGA 300520Z 3006/0106 11005KT P6SM FEW025 SCT080 BKN200 AMD NOT SKED", "PAGK 300523Z 3006/0106 00000KT 1 1/2SM -SN BR SCT005 OVC015 TEMPO 3006/3009 3/4SM -SN BR VV008 FM300900 VRB05KT 2SM -SN BR SCT007 OVC015 FM301500 17007KT P6SM BKN030 FM302100 16015G25KT P6SM SCT050", "PAGS 300537Z 3006/0106 11005KT P6SM -RA OVC050 FM301300 13005KT 5SM -RA BR BKN015 OVC040 AMD LTD TO CLD VIS AND WIND", "PAGY 300537Z 3006/0106 21005KT P6SM BKN080 FM301500 20008G17KT 6SM -RA FEW015 BKN035 AMD LTD TO CLD VIS AND WIND", "PAHN 300537Z 3006/0106 10008KT P6SM FEW025 BKN080 FM301500 VRB05KT 6SM -RA FEW015 BKN035 AMD NOT SKED", "PAHO 300523Z 3006/0106 25007KT P6SM BKN060 FM302200 07008KT P6SM VCSH BKN050 OVC100 FM010100 08009KT P6SM -SHRA OVC025", "PAIL 300520Z 3006/0106 18007KT P6SM BKN060 OVC080 FM300900 08005KT P6SM SCT100 FM301900 09015G25KT P6SM BKN100 FM010100 09020G27KT 6SM -RA OVC015", "PAJN 300537Z 3006/0106 11007KT P6SM -RA BKN070 FM301300 13005KT 5SM -RA BR BKN015 OVC040", "PAKN 300520Z 3006/0106 14011KT P6SM BKN080 FM301700 09015G25KT P6SM -RA OVC035 FM302200 10020G30KT 5SM -RA BR OVC025", "PAKT 300537Z 3006/0106 14008KT P6SM BKN100 WS020/16025KT FM300900 14006KT P6SM BKN100 AMD LTD TO CLD VIS AND WIND TIL 301500", "PAKW 300537Z 3006/0106 VRB05KT P6SM OVC050 FM301800 05005KT 6SM -RA SCT025 OVC040 AMD LTD TO CLD VIS AND WIND", "PAMC 300520Z 3006/0106 00000KT P6SM FEW025 SCT100 FM010300 06008KT P6SM BKN035 AMD NOT SKED", "PANC 300523Z 3006/0112 21006KT P6SM SCT090 SCT200 FM010000 15012G20KT P6SM VCSH BKN070 OVC100", "PAOM 300520Z 3006/0106 09008KT 3SM -SHSN FEW007 BKN015 OVC025 FM301000 06005KT P6SM BKN050", "PAOR 300520Z 3006/0106 VRB05KT P6SM VCSH OVC050 FM301200 30004KT P6SM VCSH OVC025", "PAOT 300520Z 3006/0106 12009KT P6SM VCSH SCT015 BKN050", "PAPG 300537Z 3006/0106 08005KT P6SM BKN100 FM301500 VRB03KT 6SM -RA SCT015 BKN025 OVC040 FM302300 VRB03KT P6SM OVC035 AMD LTD TO CLD VIS AND WIND TIL 301500", "PAQT 300950Z 3010/0106 07013KT 2SM -SN BR BKN008 FM301700 08013G23KT 3SM BLSN BR FEW007 BKN015", "TAF COR PASC 300701Z 3007/0106 08015G25KT 2SM BLSN BR OVC008 FM301600 08018KT 3/4SM BLSN BR OVC004 FM302300 08018G24KT 1SM BLSN BR FEW007 OVC012", "PASD 300537Z 3006/0106 14008KT P6SM VCSH OVC020 FM300800 15012G20KT 4SM -RA BR SCT007 OVC015 FM301300 13011KT 2SM -RA BR OVC011 FM302000 18015G25KT P6SM BKN030 FM010200 18020G35KT 4SM -RA BR OVC015", "PASI 300537Z 3006/0106 27004KT P6SM VCSH OVC050 FM301400 14004KT P6SM -RA OVC025", "PASN 300537Z 3006/0106 06015KT 3SM BR BKN007 OVC015 TEMPO 3006/3010 P6SM NSW BKN015 FM301300 05020G30KT 2SM -RASN BR OVC005 FM301600 03022G30KT 1 1/2SM -RA BR OVC004", "TAF PASY 300600Z 3006/0112 31025KT 9999 BKN020 OVC040 QNH2985INS BECMG 3022/3023 27015KT 9999 BKN035 OVC050 QNH2999INS BECMG 0107/0108 VRB06KT 9999 BKN030 QNH2995INS TX02/3017Z TNM01/3007Z LIMITED METWATCH 3006 TIL 3009", "PATA 300520Z 3006/0106 01006KT P6SM FEW060 SCT100 FM301600 05002KT P6SM BKN050 FM010000 VRB03KT P6SM VCSH SCT025 OVC050", "PATK 300523Z 3006/0106 VRB05KT P6SM SCT090 FM301500 18005KT P6SM SCT050 BKN100", "PAUN 300520Z 3006/0106 10010KT P6SM FEW040 BKN070 FM010000 07015KT P6SM SKC", "PAVD 300523Z 3006/0106 22003KT P6SM -RA FEW008 BKN015 OVC035 FM301600 VRB03KT P6SM SCT007 OVC025 FM302100 24008KT P6SM SCT025 BKN050", "PAWG 300537Z 3006/0106 VRB05KT P6SM OVC070 FM301600 14005KT 6SM -RA SCT015 BKN025 OVC040 AMD NOT SKED", "PAYA 300848Z 3009/0106 17005KT 3SM -RA BR FEW003 OVC007 FM302000 21004KT 6SM -SHRA BR SCT015 OVC035 AMD LTD TO CLD VIS AND WIND", "PGRO 300521Z 3006/0106 08014KT P6SM VCSH SCT018 TEMPO 3006/3008 BKN015", "PGSN 300521Z 3006/0106 08015KT P6SM VCSH SCT020 SCT030", "TAF PGUA 301000Z 3010/0116 07010G15KT 9999 SCT014 QNH2980INS TEMPO 3010/3018 07020G25KT 6000 -SHRA BKN014 BECMG 3017/3018 08015G25KT 9999 VCSH BKN014 QNH2983INS TEMPO 3020/0108 08020G28KT 6000 -SHRA TX29/0102Z TN25/3018Z", "PGUM 300521Z 3006/0112 07015G21KT P6SM VCSH FEW020 SCT030 FM300800 07011KT P6SM FEW020 SCT035", "PGWT 300521Z 3006/0106 09016KT P6SM VCSH FEW018 SCT025", "TAF PHHI 290700Z 2907/3013 15006KT 9999 SCT015 BKN025 BKN040 QNH3003INS BECMG 2918/2919 09009KT 9999 BKN015 BKN035 QNH3006INS TEMPO 2922/3004 03012KT 6000 -SHRA SCT009 BKN015 BKN020 TX26/2923Z TN19/2915Z LAST NO AMDS AFT 2907 NEXT 0115", "PHJH 292323Z 3000/3024 06012G20KT P6SM FEW020 BKN050 FM300600 04009KT P6SM FEW030 SCT050 FM302100 05012G20KT P6SM FEW020 SCT050", "PHJR 300541Z 3006/0106 06006KT P6SM FEW030 SCT050 FM302000 10008KT P6SM FEW030 SCT050 FM010500 VRB05KT P6SM FEW030 SCT050", "PHKO 300541Z 3006/0106 VRB06KT P6SM VCSH FEW035 BKN060 FM302000 22009KT P6SM SCT035 SCT050 FM010500 VRB05KT P6SM FEW035 BKN050", "PHLI 300541Z 3006/0106 06013KT P6SM SCT030 SCT040", "PHMK 300541Z 3006/0106 04012G20KT P6SM SCT025 SCT050 FM300700 04008KT P6SM SCT025 BKN050 FM302000 04013G20KT P6SM SCT030 SCT050 FM010500 05008KT P6SM SCT025 SCT040", "PHNL 300918Z 3009/0112 06010KT P6SM FEW025 SCT040 FM302000 06014G21KT P6SM FEW025 SCT040 FM010500 06008KT P6SM FEW025 SCT040", "PHNY 300541Z 3006/0106 05008KT P6SM SCT020 SCT030 FM302000 03009KT P6SM SCT020 SCT030 FM010500 07005KT P6SM SCT020 SCT030", "PHOG 300541Z 3006/0106 03009KT P6SM FEW030 SCT050 FM302000 05018G26KT P6SM SCT030 SCT040 FM010500 05008KT P6SM FEW030 SCT050", "PHTO 300541Z 3006/0106 VRB05KT P6SM VCSH SCT035 OVC045 FM302000 05008KT P6SM VCSH SCT025 OVC045 FM010500 23005KT P6SM VCSH SCT035 BKN040", "PKMJ 300521Z 3006/0106 08016KT P6SM VCSH FEW015 SCT120", "PKWA 300521Z 3006/0106 07014KT P6SM VCSH FEW018 BKN050", "TAF PLCH 300505Z 3006/0106 07005KT 9999 FEW019 SCT040 BKN100 PROB30 TEMPO 3006/3018 8000 SHRA BKN016", "PMDY 300541Z 3006/0106 33004KT P6SM FEW020 SCT040 FM302300 35011KT P6SM SCT020 SCT050 AMD NOT SKED", "PTKK 300531Z 3006/0106 04010KT P6SM VCSH FEW015 SCT030 TEMPO 3006/3009 3SM SHRA SCT015 BKN030", "PTPN 291138Z 2912/3012 08010KT P6SM VCSH SCT017 BKN120", "PTRO 300851Z 3009/0106 06011KT P6SM VCTS SCT015CB BKN040 TEMPO 3009/3012 VRB08G19KT 3SM TSRA BKN015CB BKN035 FM301400 10011KT P6SM VCSH SCT015 BKN050", "PTYA 300521Z 3006/0106 11011KT P6SM VCSH SCT015 BKN040 TEMPO 3008/3012 5SM SHRA SCT015 BKN030", "TAF PWAK 300600Z 3006/0112 06018KT 9999 FEW030 510043 QNH2996INS TEMPO 3006/3012 8000 HZ BECMG 0109/0110 07020G30KT 9999 BKN027 510043 QNH3006INS TX30/3009Z TN23/3016Z FOR MIL USE ONLY", "TAF RCFN 300500Z 3006/0106 06010KT 9999 FEW012 BKN032 TEMPO 3006/3011 FEW010 BKN017 BKN040 BECMG 3011/3013 35005KT TEMPO 0101/0106 06010KT", "TAF RCKH 300500Z 3006/0112 34005KT 9999 FEW012 BKN032 TEMPO 3006/3012 26010KT TEMPO 3018/3024 04005KT BECMG 0101/0109 26010KT", "TAF RCMQ 300500Z 3006/0106 36010KT 9999 FEW008 SCT030 BKN080 TX29/0105Z TN21/3020Z TEMPO 3009/3014 8000 -RA FEW008 BKN040 BECMG 3015/3017 36004KT FEW010 BKN040 TEMPO 3018/3023 6000 FEW008 SCT040 BECMG 0101/0104 01010KT FEW010 SCT040", "TAF RCNN 300500Z 3006/0106 33010KT 9999 FEW012 SCT100 TX31/0105Z TN22/3021Z TEMPO 3007/3011 FEW012 BKN080 BECMG 3012/3015 36004KT FEW012 BKN050 BECMG 3018/3021 7000 FEW012 SCT050 BECMG 0102/0105 02008KT 9999 FEW012 BKN080", "TAF RCSS 300500Z 3006/0106 09008KT 9999 SCT010 BKN020 BKN040 TEMPO 3006/3012 08015KT BECMG 3012/3014 09005KT FEW012 BKN032 TEMPO 3019/0101 FEW010 BKN020 BKN040", "TAF RCTP 300500Z 3006/0112 04012KT 9999 SCT010 BKN032 TEMPO 3006/3012 03018KT SCT006 BKN017 BKN030 TEMPO 3018/3024 SCT006 BKN017 BKN040", "TAF AMD RJAA 300618Z 3006/0112 27006KT 9999 -SHRA FEW015 SCT030 BECMG 3008/3010 20004KT BECMG 3013/3015 36008KT BECMG 0100/0103 14012KT BECMG 0109/0112 36014KT", "TAF RJAH 300513Z 3006/0112 20006KT 8000 -SHRA FEW008 BKN015 TEMPO 3006/3009 4000 -SHRA BR FEW005 BKN008 BECMG 3009/3011 03006KT TEMPO 3009/3012 3000 SHRA BR FEW005 BKN008 BECMG 0100/0103 15010KT BECMG 0109/0112 36010KT", "TAF RJBB 300505Z 3006/0112 24007KT 9999 FEW030 BECMG 3008/3010 06008KT BECMG 0100/0103 27012KT", "TAF RJCB 300505Z 3006/0112 16007KT 9999 FEW030 BECMG 3012/3014 29005KT", "TAF RJCC 300505Z 3006/0112 21018KT 9999 FEW015 SCT030 TEMPO 3006/3009 21020G30KT BECMG 3011/3013 16006KT BECMG 3021/0100 18016KT TEMPO 0103/0109 FEW008 BKN025 FEW025CB BECMG 0109/0112 34010KT", "TAF RJCH 300508Z 3006/0112 24015KT 9999 FEW015 BKN030 TEMPO 0103/0109 4000 -TSRA BR FEW006 BKN008 FEW025CB", "TAF AMD RJCK 300724Z 3007/0112 22007KT 9999 FEW006 BKN015 TEMPO 3007/3011 0700 FG VV001 BECMG 0109/0112 02004KT", "TAF RJCM 300508Z 3006/0112 19015KT 9999 FEW040 BECMG 3007/3009 01005KT BECMG 3012/3014 19012KT BECMG 0100/0103 03011KT", "TAF RJEC 300505Z 3006/0112 21013KT 9999 FEW020 BKN040 TEMPO 3006/3009 24018G28KT TEMPO 0100/0109 24016G28KT BECMG 0109/0112 33004KT", "TAF RJFF 300506Z 3006/0112 31011KT 9999 FEW030 BECMG 3011/3013 15004KT BECMG 0100/0103 31011KT BECMG 0109/0112 15005KT", "TAF RJFK 300506Z 3006/0112 31005KT 9999 FEW030", "TAF RJFM 300506Z 3006/0112 25006KT 9999 FEW030 BECMG 3006/3008 14008KT BECMG 3009/3011 27008KT BECMG 0100/0103 13005KT", "TAF RJFO 300507Z 3006/0112 29007KT 9999 FEW030 BECMG 3013/3015 26007KT BECMG 0100/0103 32007KT", "TAF RJFR 300506Z 3006/0112 31013KT 9999 FEW030 BECMG 3013/3015 25010KT BECMG 3021/0100 29013KT BECMG 0109/0112 23004KT", "TAF RJFS 300505Z 3006/0112 26012KT 9999 FEW030 BECMG 3018/3021 18006KT BECMG 0100/0103 33007KT", "TAF RJFT 300505Z 3006/0112 23009KT 9999 FEW030 BECMG 3012/3014 06004KT BECMG 3021/0100 28010KT BECMG 0109/0112 06005KT", "TAF RJFU 300505Z 3006/0112 33010KT 9999 FEW030 BECMG 3015/3017 14003KT BECMG 0100/0103 31010KT", "TAF RJGG 300509Z 3006/0112 32020KT 9999 FEW030 BECMG 3018/3021 32006KT BECMG 0100/0103 24008KT BECMG 0106/0109 32028KT", "TAF RJNK 300506Z 3006/0112 22014KT 9999 FEW030 BECMG 3010/3012 18004KT BECMG 0100/0103 25016KT TEMPO 0103/0106 25018G28KT TS FEW020 BKN030 FEW030CB", "TAF RJNS 300506Z 3006/0112 26016KT 9999 FEW030 SCT060 BECMG 3018/3021 30004KT BECMG 0100/0103 24018KT TEMPO 0103/0109 24020G30KT", "TAF RJNT 300505Z 3006/0112 25012KT 9999 FEW030 TEMPO 0100/0103 26020G30KT TEMPO 0103/0106 26020G30KT TS FEW020 FEW030CB BKN040 TEMPO 0106/0109 TS FEW020 FEW030CB BKN040", "TAF RJOA 300505Z 3006/0112 32005KT 9999 FEW030 BECMG 0100/0103 30015KT TEMPO 0103/0106 30017G27KT", "TAF RJOB 300510Z 3006/0112 24005KT 9999 FEW030 BECMG 3007/3009 35005KT BECMG 3021/0100 27014KT TEMPO 0100/0106 27016G26KT", "TAF RJOC 300510Z 3006/0112 25012KT 9999 FEW030 TEMPO 3021/0106 26020G30KT", "TAF RJOH 300510Z 3006/0112 24010KT 9999 FEW030 TEMPO 3021/0106 26018G28KT", "TAF RJOI 3009/0109 16012KT FEW030 SCT150 BKN200 511809 QNH2982INS BECMG 3009/3011 33006KT 9999 FEW030 511809 QNH2986INS FM302100 28006KT 9999 FEW030 SCT080 511505 522005 QNH2993INS BECMG 0100/0102 34012KT 9999 FEW050 521809 QNH2999INS TEMPO 0102/0105 34012G18KT FM010900 35010KT 9999 SKC 511809 QNH3006INS T19/3009Z T11/3018Z", "TAF RJOK 300505Z 3006/0112 20007KT 9999 FEW020 BECMG 3006/3008 35007KT", "TAF RJOM 300505Z 3006/0112 21008KT 9999 FEW030 BECMG 0100/0103 29009KT BECMG 0109/0112 12006KT", "TAF RJOO 300505Z 3006/0112 21008KT 9999 FEW025 BECMG 3006/3008 34010KT BECMG 3021/0100 22008KT BECMG 0103/0106 32014KT", "TAF RJOT 300505Z 3006/0112 25006KT 9999 FEW030 BECMG 3010/3012 15006KT BECMG 3021/0100 27015KT TEMPO 0100/0106 27017G28KT BECMG 0109/0112 20006KT", "TAF RJSA 300505Z 3006/0112 24020KT 9999 FEW020 BKN040 TEMPO 3006/3009 24034G44KT TEMPO 3009/3012 24020G30KT TEMPO 0106/0109 4000 -TSRA BR FEW010 FEW020CB BKN030", "TAF RJSF 300505Z 3006/0112 32010KT 9999 FEW030 BECMG 0100/0103 22008KT BECMG 0106/0109 32015KT", "TAF RJSI 300505Z 3006/0112 27013KT 9999 FEW030 SCT040 BECMG 3013/3015 18004KT BECMG 0100/0103 27013KT TEMPO 0106/0109 -TSRA FEW010 SCT020 BKN030 FEW030CB", "TAF RJSK 300505Z 3006/0112 24012KT 9999 FEW010 BKN030 TEMPO 0100/0106 24015G25KT TEMPO 0106/0109 28020G30KT 4000 -TSRA BR FEW010 FEW020CB BKN030", "TAF RJSN 300505Z 3006/0112 24012KT 9999 FEW020 BECMG 3018/3021 17008KT BECMG 0100/0103 26010KT TEMPO 0103/0109 TS FEW020 FEW025CB BKN050", "TAF RJSS 300505Z 3006/0112 28010KT 9999 FEW030 BECMG 3021/0100 14013KT BECMG 0106/0109 30010KT", "TAF RJTT 300505Z 3006/0112 22014KT 9999 FEW010 SCT060 BECMG 3011/3013 35012KT BECMG 0100/0103 17007KT BECMG 0103/0106 18020KT BECMG 0109/0112 36020KT", "TAF RJTY 300500Z 3005/0111 VRB06KT 9999 SCT010 BKN020 OVC040 QNH2962INS TEMPO 3005/3007 8000 -SHRA BR BECMG 3006/3007 VRB06KT 9999 SCT025 BKN040 BKN150 QNH2964INS BECMG 3012/3013 03006KT 9999 SCT005 SCT120 BKN180 QNH2980INS BECMG 3022/3023 12006KT 9999 SCT075 QNH2986INS TX22/0105Z TN12/3021Z", "TAF RKJB 300500Z 3006/0112 23010KT CAVOK TN06/3021Z TX21/0105Z BECMG 3011/3012 17005KT BECMG 3014/3015 26006KT 4000 BR NSC TEMPO 3020/3021 09005KT 1600 FEW003 BECMG 3022/3023 11005KT 7000 NSW BECMG 0100/0101 33007KT", "TAF RKNN 300500Z 3006/0112 27016G26KT 9999 SCT050 SCT200 BECMG 3012/3013 27006G16KT 9999 SCT050 SCT200 BECMG 3020/3021 27006KT 9999 SCT050 SCT150 WND 03006KT 0102/0111 TX21/3007Z TN11/3021Z ", "TAF AMD RKNW 300625Z 3006/0112 21006G16KT 9999 BKN100 WND 21010KT AFT 3009 WND 21006KT AFT 3012 BECMG 3017/3018 21006KT 9999 BKN020 BECMG 0100/0101 21006KT 9999 SCT030 BECMG 0103/0104 21006G16KT 9999 SCT030 BECMG 0109/0110 21006KT 9999 SCT030 TN08/3021Z TX20/0106Z ", "TAF AMD RKNY 300610Z 3006/0112 28018G35KT CAVOK TN11/3020Z TX20/0105Z BECMG 3009/3010 36010KT BECMG 3015/3017 27010KT BECMG 3023/0101 28015G30KT BECMG 0103/0105 34007KT BECMG 0108/0110 07006KT", "TAF RKPC 300500Z 3006/0112 26010KT CAVOK TN13/3020Z TX19/0105Z BECMG 3010/3011 22015G25KT BECMG 0100/0102 34006KT BECMG 0109/0110 04007KT", "TAF RKPK 300500Z 3006/0112 21012G22KT 9999 SCT030 TN10/3021Z TX24/0106Z BECMG 3012/3013 33008KT", "TAF RKSG 300300Z 3003/0109 23012G18KT 9999 FEW085 520055 QNH2982INS TEMPO 3004/3008 25015G25KT BECMG 3010/3011 26006KT 9999 SCT100 510055 QNH2980INS BECMG 0102/0103 29010G15KT 9999 SKC 510055 QNH3007INS TX18/3004Z TN06/3021Z", "TAF RKSI 300500Z 3006/0112 21015G25KT CAVOK TN08/3020Z TX17/0105Z BECMG 3010/3012 28006KT 6000 NSC BECMG 3018/3020 4000 BR FEW010 BECMG 3021/3023 6000 NSW NSC BECMG 0103/0105 22007KT CAVOK", "TAF RKSM 300500Z 3006/0112 24006G16KT 9999 BKN100 TN10/3021Z TX22/0106Z ", "TAF RKSO 300500Z 3005/0111 24010G20KT 9999 FEW095 520023 QNH2979INS TEMPO 3005/3010 24015G25KT BECMG 3009/3010 26010G15KT 9999 FEW100 510023 QNH2981INS BECMG 3010/3011 VRB06KT 9999 FEW095 510023 QNH2982INS BECMG 0103/0104 29010G15KT 9999 FEW080 510043 QNH3007INS BECMG 0109/0110 VRB06KT 9999 SKC QNH3010INS TX20/3006Z TN06/3021Z", "TAF RKSS 300500Z 3006/0112 21011G25KT CAVOK TN07/3021Z TX21/0105Z BECMG 3011/3013 27005KT 6000 NSC BECMG 3019/3021 22005KT 4000 BR FEW010 BECMG 3022/3024 25007KT 6000 NSW NSC", "TAF RKSW 300500Z 3006/0112 27010KT 9999 SCT030 SCT150 WND 24006KT 9999 AFT 3009 BECMG 3017/3018 24006KT 4800 BR SCT030 SCT120 VIS 9999 NSW AFT 0102 TN05/3021Z TX21/0106Z ", "TAF RKTE 300500Z 3006/0112 24010KT 9999 SCT200 WND 18006KT 3010/0101 TN06/3021Z TX21/0105Z ", "TAF RKTI 300500Z 3006/0112 28006G16KT 9999 BKN080 BECMG 3009/3010 30006KT 9999 SCT030 BECMG 3017/3018 30006KT 4800 BR BKN015 BECMG 3022/3023 30006KT 9999 NSW SCT030 SCT200 WND 30012KT AFT 3103 TN05/3021Z TX21/0106Z ", "TAF RKTN 300500Z 3006/0112 30005G15KT 9999 SCT030 TN07/3021Z TX25/0106Z BECMG 3009/3010 30006KT", "TAF RKTP 300500Z 3006/0112 21010G20KT 9999 SCT030 SCT100 BECMG 3010/3011 21008KT 9999 SCT020 TN06/3021Z TX21/0106Z ", "TAF RKTU 300500Z 3006/0112 24010G20KT 9999 SCT030 SCT200 TN07/3021Z TX23/0106Z BECMG 3009/3010 30010KT", "TAF RKTY 300500Z 3006/0112 28010KT 9999 SCT030 SCT200 TN04/3021Z TX22/0106Z ", "TAF ROAH 300513Z 3006/0112 02014KT 9999 FEW010 BKN020", "TAF RODN 300800Z 3008/0114 01012KT 9000 BR BKN015 OVC020 QNH2979INS BECMG 3012/3013 07012KT 8000 -SHRA BR SCT009 BKN012 QNH2978INS TEMPO 3014/3020 BKN009 BECMG 3020/3021 03012KT 9999 VCSH SCT015 BKN020 QNH2985INS TX25/0103Z TN20/3020Z", "TAF AMD ROIG 300730Z 3007/0112 03012KT 9999 FEW008 BKN012 TEMPO 3007/0100 FEW006 BKN008 BKN012", "TAF ROTM 3009/0109 04009KT 9999 OVC020 510204 QNH2985INS TEMPO 3012/3018 05010KT 9000 SHRA OVC025 BECMG 3018/30120 05010G20KT 9999 FEW020 SCT050 BKN100 510402 QNH2998INS FM010400 06010G15KT 9999 SCT015 BKN060 QNH3002INS 510303 611609 T20/3019Z T24/3003Z", "TAF RPLB 300500Z 3006/0106 08008KT 9999 FEW020 SCT300 TX35/3006Z TN25/3021Z TEMPO 3006/3012 10012KT FEW018CB SCT020 BKN080", "TAF RPLC 300500Z 3006/0112 11010KT 9999 SCT020 BKN300 TX35/3006Z TN26/3021Z TEMPO 3006/3012 18008KT FEW020 BKN300", "TAF RPLI 300500Z 3006/0106 32007KT 9999 FEW018 SCT240 TEMPO 3008/3011 36010KT 8000 TS VCSH FEW017CB SCT018 BKN090 BECMG 3012/3016 09004KT FEW018 TEMPO 0102/0106 29010KT", "TAF RPLL 300500Z 3006/0112 10006KT 9999 FEW025 TX35/3006Z TN27/3021Z TEMPO 3006/3012 14015KT FEW022CB SCT025 TEMPO 3015/3021 VRB03KT FEW022CB SCT025 SCT100", "TAF RPMD 300500Z 3006/0106 36006KT 9999 FEW016 SCT090 BKN260 TEMPO 3006/3012 02010KT -SHRA FEW015CB SCT016 BKN080", "TAF RPMR 300500Z 3006/0106 02006KT 9999 FEW018 BKN080 TEMPO 3006/3012 17015KT -SHRA FEW017CB SCT018 BKN080", "TAF RPMZ 300500Z 3006/0106 08005KT 9999 FEW017 SCT090 BKN300 TEMPO 3006/3012 25012KT -SHRA FEW016CB SCT017 BKN090", "TAF RPVD 300500Z 3006/0106 02006KT 9999 FEW015 SCT080 BKN220 TEMPO 3006/3012 04012KT FEW014CB SCT015 BKN080", "TAF RPVM 300500Z 3006/0112 04006KT 9999 FEW020 BKN300 TEMPO 3006/3012 03007KT FEW018CB BKN250 TEMPO 3012/3018 05009KT FEW020 SCT300", "TAF RPVP 300500Z 3006/0106 27005KT 9999 FEW019 SCT080 TEMPO 3006/3012 09012KT FEW017CB SCT019 BKN080 TEMPO 0104/0106 09012KT", "TAF SAAR 300500Z 3006/0106 05010KT CAVOK TX27/3019Z TN14/0106Z BECMG 3015/3017 25015G25KT 9999 SCT030 BKN050 TEMPO 3016/3019 7000 SHRA BKN030 OVC050 BECMG 3023/0102 20010KT CAVOK", "TAF SABE 300500Z 3006/0106 34005KT 9999 BKN040 TX23/3019Z TN15/0106Z BECMG 3012/3013 34015KT 9999 SCT030 BKN050 BECMG 3016/3018 25015KT 8000 -RA BKN030 OVC050 PROB40 TEMPO 3020/3024 25015G25KT 5000 TSRA BKN040 FEW050CB OVC050 BECMG 3023/0101 9999 NSW SCT030 BKN050", "TAF SACO 300500Z 3006/0106 36005KT 9999 SCT030 TX27/3015Z TN17/3010Z PROB40 TEMPO 3008/3011 VRB03KT 2000 BR SCT020 BECMG 3013/3016 18020G35KT 5000 BLDU BKN030 PROB30 TEMPO 3016/3020 7000 -RA SCT020 OVC030", "TAF SADF 300500Z 3006/0106 02005KT CAVOK TX25/3019Z TN14/0106Z BECMG 3012/3014 34015KT 9999 SCT030 BKN050 BECMG 3016/3018 25015KT 9000 -RA BKN030 OVC050 PROB30 TEMPO 3018/3022 6000 TSRA BKN040 FEW050CB OVC050 BECMG 3021/3023 20010KT 9999 NSW SCT030 BKN050", "TAF COR SAEZ 300530Z 3006/0106 36010KT CAVOK TX24/3018Z TN10/0106Z BECMG 3012/3014 8000 RA BKN040 TEMPO 3020/0100 18015G25KT 5000 TSRA OVC040 FEW050CB BECMG 0100/0103 27005KT CAVOK", "TAF SAME 300500Z 3006/0106 20005KT CAVOK TX16/3006Z TN07/0106Z BECMG 3010/3012 18010KT 9999 SCT050 BECMG 3016/3018 BKN045 BECMG 0100/0102 32005KT 9999 FEW050", "TAF SANR 292300Z 3000/3024 27005KT 9999 BKN030 TX30/3018Z TN15/3010Z BECMG 3006/3008 02005KT 3000 BR SCT020 BKN060 PROB40 TEMPO 3007/3011 VRB03KT 0500 FG BR OVC008 BECMG 3013/3016 23010KT 9999 SCT030 BKN060", "TAF SANT 300500Z 3006/0106 02005KT 7000 BKN030 TX31/3018Z TN18/3010Z PROB30 TEMPO 3007/3011 VRB02KT 3000 BR SCT015 BKN025 BECMG 3014/3017 23010KT 9999 SCT030 BECMG 3002/3005 18010KT 4000 +RA SCT010 OVC020", "TAF SARC 291700Z 2918/3018 02010KT 9999 SCT025 TX30/2919Z TN18/3010Z TEMPO 3002/3009 36010G20KT NSC PROB30 3009/3011 6000 BECMG 3013/3015 05015KT CAVOK ", "TAF SARE 300500Z 3006/0106 07005KT CAVOK TX30/3019Z TN19/3010Z PROB30 3008/3011 3000 BR NSC BECMG 3012/3014 05015KT ", "TAF SARF 300500Z 3006/0106 07010KT CAVOK TX32/3019Z TN20/3010Z PROB30 3008/3011 04005KT 3000 BR NSC BECMG 3012/3014 05015KT ", "TAF SARI 300500Z 3006/0106 VRB02KT CAVOK TX28/3018Z TN15/3010Z PROB30 3007/3011 1000 BCFG NSC BECMG 3012/3014 05010KT ", "TAF SARP 300500Z 3006/0106 05005KT CAVOK TX30/3019Z TN18/3010Z PROB30 3008/3011 3000 BR NSC BECMG 3012/3014 05015KT ", "TAF SASA 300500Z 3006/0106 VRB02KT 7000 SCT015 BKN020 TX31/3018Z TN17/3010Z PROB40 TEMPO 3008/3011 2000 BR BKN010 OVC020 BECMG 3015/3018 02010KT 9999 SCT030", "TAF SASJ 300500Z 3006/0106 VRB02KT 9999 BKN030 TX32/3018Z TN18/3010Z PROB40 3006/3011 VRB02KT 4000 BR SCT015 OVC025 BECMG 3016/3019 05010KT 9999 SCT030", "TAF AMD SAVC 300655Z 3006/0106 18005KT 9999 SCT035 BKN040 TX11/3019Z TN05/3011Z TEMPO 3016/3020 7000 SHRA SCT025 BKN050 BECMG 0100/0102 27025KT", "TAF SAVT 300500Z 3006/0106 25010KT CAVOK TX18/3019Z TN07/0106Z BECMG 3014/3016 25015KT BECMG 0100/0102 27010KT", "TAF AMD SAWE 300655Z 3006/0106 25005KT CAVOK TX06/3019Z TNM06/3010Z BECMG 3014/3016 29020G30KT 9999 BKN020", "TAF AMD SAWG 300655Z 3006/0106 25015KT 9999 SCT020 TX08/3019Z TNM03/3011Z BECMG 3017/3019 34020KT 9999 BKN040", "TAF AMD SAWH 300655Z 3006/0106 25010KT 9999 SCT020 BKN035 TX05/3019Z TNM01/3011Z BECMG 3010/3012 34015KT BECMG 3023/0101 25015KT 8000 -RASN BKN015 OVC030", "TAF SAZM 300500Z 3006/0106 32005KT 8000 NSC TX20/3019Z TN10/0106Z BECMG 3012/3014 25015KT 5000 RA SCT020 BKN050 TEMPO 3015/3019 25015G25KT 2000 +TSRA SCT015 FEW045CB OVC050 BECMG 3016/3018 22010KT 9000 -RA BKN040 BECMG 3020/3022 27010KT 9999 NSW BKN040", "TAF SAZN 300500Z 3006/0106 VRB03KT CAVOK TX17/3019Z TN07/3011Z BECMG 3013/3015 25015G30KT", "TAF AMD SAZS 300835Z 3008/0106 32005KT 9000 -RA BKN009 OVC025 TX08/3019Z TN01/3011Z TEMPO 3008/3012 5000 RA BKN005 OVC020 BECMG 3012/3015 29015KT 9999 NSW BKN040", "TAF SBAF 300300Z 3006/3018 04004KT 9999 SCT015 BKN030 TN20/3009Z TX25/3017Z BECMG 3014/3015 FEW020 BKN025 RMK PEC", "TAF SBAN 300300Z 3006/3018 13005KT 9999 SCT025 TN18/3009Z TX27/3017Z BECMG 3013/3014 BKN030 FEW035TCU RMK PEC", "TAF SBAT 292300Z 3006/3018 09005KT 7000 FEW015 TN24/3009Z TX35/3017Z BECMG 3009/3012 11007KT SCT025 BECMG 3015/3018 SCT023 FEW030TCU RMK PHN", "TAF SBBI 300300Z 3006/3018 08007KT 9999 BKN003 TN14/3009Z TX20/3017Z PROB40 3006/3011 3000 BR BKN001 BECMG 3011/3012 BKN013 RMK PEC", "TAF SBBU 292330Z 3006/3018 15008KT CAVOK TN16/3008Z TX28/3018Z BECMG 3012/3014 14004KT BECMG 3014/3016 32005KT SCT030 BECMG 3016/3018 22005KT BKN030 RMK PGQ", "TAF SBBW 292330Z 3006/3018 VRB03KT CAVOK TN21/3008Z TX33/3012Z BECMG 3013/3015 FEW020 BECMG 3015/3017 SCT020 RMK PGQ", "TAF SBCO 300300Z 3006/3018 02005KT CAVOK TN15/3007Z TX28/3018Z RMK PFP", "TAF SBCZ 291500Z 2918/3018 07005KT 9999 BKN025 TX31/2918Z TN23/3006Z PROB30 2920/2922 TS BKN025 FEW030CB BECMG 3000/3002 04005KT FEW020 PROB30 3011/3013 00000KT 4000 BR BKN005 BECMG 3014/3016 09005KT SCT020 RMK PHD", "TAF SBDN 292330Z 3006/3018 12008KT CAVOK TN16/3008Z TX27/3018Z BECMG 3012/3014 07005KT BECMG 3014/3016 35005KT BKN030 BECMG 3016/3018 24005KT SCT045 RMK PGQ", "TAF SBGW 300300Z 3006/3018 04007KT 9999 BKN006 TN17/3009Z TX25/3017Z PROB40 3006/3010 3000 BR BECMG 3014/3015 BKN022 RMK PEC", "TAF SBIH 292300Z 3006/3018 04005KT 9999 SCT020 FEW025TCU TN25/3009Z TX34/3017Z BECMG 3009/3012 4000 BR SCT007 BECMG 3012/3014 06008KT 8000 NSW SCT015 BECMG 3015/3018 03010KT SCT020 FEW025TCU RMK PHN", "TAF SBIL 292330Z 3006/3018 27005KT 9999 SCT020 TN24/3006Z TX31/3017Z BECMG 3010/3012 06005KT SCT020 RMK PGQ", "TAF SBIZ 292300Z 3006/3018 30005KT 9999 SCT030 TN24/3009Z TX33/3018Z BECMG 3009/3012 07005KT 7000 SCT013 BECMG 3013/3015 10007KT BKN020 BECMG 3016/3018 14010KT BKN025 FEW030TCU RMK PHN", "TAF SBJV 300400Z 3006/3018 23005KT 3500 -DZ BKN005 BKN027 TN17/3008Z TX25/3017Z BECMG 3012/3014 8000 -RA BKN010 BKN030 BECMG 3015/3017 02005KT RMK PEM", "TAF SBKG 300045Z 3006/3018 09005KT 7000 BKN020 TN22/3009Z TX27/3018Z TEMPO 3006/3012 3600 BR SCT007 BKN012 TEMPO 3014/3018 11010KT 6000 SCT020 FEW030TCU RMK PGW", "TAF SBME 300045Z 3006/3018 32005KT 7000 BKN020 TN21/3008Z TX26/3018Z TEMPO 3006/3012 4000 BR BKN016 BECMG 3012/3014 06006KT TEMPO 3014/3018 6000 BKN016 RMK PGW", "TAF SBNT 300045Z 3006/3018 13005KT 7000 BKN020 TN24/3008Z TX29/3018Z BECMG 3006/3008 18005KT TEMPO 3008/3012 6000 BKN016 BECMG 3012/3014 11006KT TEMPO 3014/3018 13012KT 6000 BKN020 FEW030TCU RMK PGW", "TAF SBSC 300300Z 3006/3018 15004KT 9999 SCT020 TN19/3009Z TX26/3017Z PROB30 3006/3010 3000 BR BKN010 BECMG 3012/3013 SCT015 BKN025 RMK PEC", "TAF SBSM 300300Z 3006/3018 02005KT CAVOK TN15/3007Z TX29/3017Z BECMG 3015/3017 35012KT RMK PFP", "TAF SBUG 300300Z 3006/3018 03010KT CAVOK TN18/3007Z TX31/3018Z PROB40 3012/3018 01012G25KT RMK PFP", "TAF SBUL 292330Z 3006/3018 10005KT CAVOK TN18/3008Z TX29/3018Z BECMG 3009/3011 05005KT BECMG 3012/3014 33005KT FEW030 BECMG 3014/3016 30008KT SCT040 RMK PGQ", "TAF SBUR 292330Z 3006/3018 06005KT CAVOK TN19/3008Z TX28/3018Z BECMG 3011/3013 03003KT BECMG 3013/3015 30008KT BKN040 BECMG 3016/3018 25005KT RMK PGQ", "TAF SBVH 292300Z 3006/3018 05005KT 9999 FEW025 TN22/3009Z TX31/3017Z PROB40 3010/3012 09005KT 4000 BR BKN007 BECMG 3015/3018 04010KT 7000 BKN025 FEW030TCU RMK PHN", "TAF SBYS 300300Z 3006/3018 18004KT 9999 SCT020 TN15/3008Z TX28/3017Z TEMPO 3008/3013 2000 BR BKN006 BECMG 3015/3016 9999 BKN018 RMK PEC", "TAF SCBA 300434Z 3006/0106 30015KT CAVOK TN01/3012Z TX08/3019Z BECMG 3017/3019 31025KT BECMG 3021/3023 BKN030", "TAF SCCI 300450Z 3006/0106 27012KT 9999 SCT045 TN00/3006Z TX07/3018Z TEMPO 3006/3012 BKN045 BECMG 3012/3014 30015G25KT SCT035 BECMG 3016/3018 30025G35KT TEMPO 3018/0102 29030G47KT BECMG 0104/0106 24015G25KT", "TAF SCEL 300400Z 3006/0106 17004KT 9999 BKN010 BKN025 TX16/3018Z TN10/3010Z TEMPO 3006/3015 8000 -SHRA BECMG 3016/3018 20010KT SCT025 BKN050 BECMG 3020/3022 FEW060 BECMG 3021/3023 VRB02KT", "TAF SCIE 300400Z 3006/0106 29008KT 9999 SCT040 TX14/3018Z TN10/3010Z BECMG 3016/3018 26010KT BECMG 3021/3023 FEW040", "TAF SCIP 300444Z 3006/0106 11015KT 9999 FEW030 SCT050 TX24/3019Z TN18/3010Z TEMPO 3015/3019 5000 -SHRA SCT025 BKN030 BECMG 3020/3022 10020G30KT TEMPO 0100/0106 5000 -SHRA SCT025 BKN035", "TAF SCQP 300433Z 3006/0106 31008KT 9999 SCT020 BKN035 TN06/3012Z TX14/3019Z TEMPO 3006/3011 8000 SHRA OVC020 BECMG 3018/3020 24008KT", "TAF AMD SCSE 300738Z 3008/0106 VRB02KT 9999 BKN040 TX18/3018Z TN10/3010Z TEMPO 3008/3013 5000 BR OVC010 BECMG 3015/3017 24010KT FEW025 BECMG 3023/0101 VRB02KT", "TAF SCTE 300434Z 3006/0106 01004KT 9999 SCT025 BKN050 TN05/3011Z TX11/3019Z TEMPO 3006/3012 7000 -SHRA SCT005 BKN025 BKN035 BECMG 3014/3016 19008KT BECMG 3018/3020 SCT040 BECMG 0101/0103 01004KT BKN020 OVC030", "TAF AMD SCVM 300806Z 3009/0106 30004KT 8000 SCT015 TX18/3018Z TN10/3010Z TEMPO 3009/3010 VRB02KT 3000 BR BKN008 BECMG 3010/3012 BKN025 BECMG 3015/3017 19012KT 9999 SCT045 BECMG 3020/3022 FEW035", "SEGU 300430Z 3006/0106 06006KT 9999 FEW015 SCT020 BKN080 BECMG 3012/3014 30005KT BKN023 BKN100 BECMG 3022/3024 22005KT SCT010 BKN020 BKN090 TEMPO 0102/0104 RA FEW005 BKN020 BKN090 TX32/3020Z TN25/3010Z", "SELT 300430Z 3006/0106 21005KT 9999 BKN030 BKN100 TEMPO 3008/3011 6000 BCFG BKN010 BKN020 BECMG 3017/3019 18016KT TEMPO 3020/3022 FEW026TCU BKN030 BECMG 3023/0101 20004KT SCT010 BKN026 BKN090 TX17/3019Z TN08/3011Z", "SEMT 300430Z 3006/0106 12004KT 9999 BKN020 BECMG 3011/3013 SCT020 BECMG 3015/3017 32006KT BECMG 3022/3024 27005KT BKN023 BKN100 TX30/3020Z TN25/3010Z", "SEQM 300430Z 3006/0106 02004KT 9999 FEW010 BKN020 BKN080 TEMPO 3007/3010 6000 BCFG SCT005 BKN016 BKN030 BECMG 3016/3018 36015KT BKN030 BKN090 TEMPO 3020/3022 FEW020TCU SCT030 BECMG 3023/0101 03004KT FEW008 BKN020 BKN080 TX22/3019Z TN11/3011Z", "TAF SGAS 300450Z 3006/0106 07006KT CAVOK TX32/3019Z TN20/3010Z BECMG 3017/3019 02012KT 9999 SCT033", "TAF SGCO 300450Z 3006/0106 09006KT CAVOK TX34/3019Z TN22/3010Z BECMG 3014/3017 02012KT 9999 SCT033", "TAF SGEN 300450Z 3006/0106 05010KT CAVOK TX30/3019Z TN18/3010Z BECMG 3014/3017 9999 BKN033", "TAF SGES 300450Z 3006/0106 09004KT 8000 NSC TX28/3019Z TN17/3010Z PROB30 3008/3011 3000 BR NSC BECMG 3015/3018 02012KT 9999 SCT033", "TAF SKAR 300430Z 3006/0106 00000KT 9999 SCT015 BECMG 3010/3012 3000 BR BKN010 BECMG 3014/3016 9999 NSW SCT020 BECMG 3019/3020 SCT020TCU BECMG 0101/0102 SCT018 TX29/3019Z TN17/3011Z", "TAF SKBG 300430Z 3006/0106 VRB02KT 9999 DZ BKN010 BECMG 3010/3012 31010KT 3000 BCFG BKN008 BECMG 3016/3018 9999 NSW SCT015 PROB40 TEMPO 3018/3021 5000 TSRA SCT015CB BECMG 0101/0103 VRB02KT SCT015 TX27/3019Z TN19/2911Z", "TAF SKBO 300430Z 3006/0106 VRB02KT 9999 FEW015 BECMG 3015/3017 16012KT SCT020 BECMG 0101/0103 VRB02KT SCT015 TX21/3018Z TN10/3011Z", "TAF SKBQ 300430Z 3006/0106 18003KT 9999 FEW010 TEMPO 3008/3012 TSRA SCT010CB TEMPO 3016/3018 RA SCT015TCU TEMPO 3019/3022 RA SCT015CB TX31/3017Z TN25/3009Z", "TAF SKCC 300430Z 3006/0106 VRB02KT 9999 SCT015 TEMPO 3010/3014 4000 BCFG SCT010 BECMG 3015/3017 35010KT SCT020 PROB40 TEMPO 3018/3021 RA SCT020TCU TX32/3019Z TN22/3011Z", "TAF SKCG 300430Z 3006/0106 18003KT 9999 FEW017 TEMPO 3008/3012 TSRA SCT015CB BECMG 3016/3018 31010KT TEMPO 3016/3019 RA SCT017TCU TEMPO 3019/3023 TSRA BKN015CB TX34/3016Z TN26/3009Z", "TAF SKCL 300430Z 3006/0106 VRB02KT 9999 SCT025 BKN100 BECMG 3019/3020 32014KT SCT023TCU BECMG 0101/0102 VRB04KT SCT020 TX31/3019Z TN19/3010Z", "TAF SKLT 300430Z 3006/0106 VRB02KT 9999 SCT010 TEMPO 3009/3012 DZ BKN010 PROB40 TEMPO 3018/3021 5000 TSRA BKN015CB TX32/3018Z TN24/3011Z", "TAF SKPE 300430Z 3006/0106 VRB02KT 9999 SCT015 BECMG 3019/3020 SCT020TCU BECMG 0101/0102 SCT018 TX29/3019Z TN17/3011Z", "TAF SKRG 300430Z 3006/0106 VRB02KT 9999 BKN008 TEMPO 3008/3012 4000 BCFG BKN005 BECMG 3013/3015 12010KT SCT015 TEMPO 3020/3023 DZ BKN020TCU BECMG 0100/0102 VRB02KT TX23/3019Z TN13/3010Z", "TAF SKSM 300430Z 3006/0106 16003KT 9999 FEW020 TEMPO 3009/3013 DZRA SCT015TCU 3018/3022 TSRA SCT015CB TX33/3018Z TN27/3011Z", "TAF SKSP 300430Z 3006/0106 10005KT 9999 FEW016 TX32/3019Z TN26/3010Z", "TAF SLAL 300400Z 3006/0106 00000KT 9999 NSC TX25/3019Z TN07/3010Z BECMG 3017/3019 02012KT BECMG 0102/0104 00000KT", "TAF SLCB 300400Z 3006/0106 00000KT 9999 NSC TX32/3019Z TN09/3010Z BECMG 3017/3019 28010KT BECMG 3023/0101 13010KT", "TAF SLCO 300400Z 3006/0106 00000KT 9999 BKN010 TX34/3019Z TN24/3010Z PROB30 TEMPO 3009/3012 3000 BR BECMG 3013/3015 32006KT PROB40 TEMPO 3017/3020 8000 SHRA FEW025CB BECMG 3022/0102 00000KT", "TAF SLET 300400Z 3006/0106 34012KT 9999 FEW012 TX32/3019Z TN22/3009Z TEMPO 3009/3012 BKN012 BECMG 3014/3018 34020G32KT BKN017 BECMG 3023/0103 34012KT SCT017", "TAF SLLP 300400Z 3006/0106 06005KT 9999 FEW015 TX18/3019Z TNM03/3010Z TEMPO 3008/3011 3000E BCFG FEW002 BECMG 3013/3016 13012KT BECMG 3023/0102 06006KT", "TAF SLTJ 300400Z 3006/0106 00000KT 9999 NSC TX34/3019Z TN08/3010Z BECMG 3016/3018 13010KT BECMG 3023/0101 00000KT", "TAF SLTR 300400Z 3006/0106 00000KT 9999 NSC TX34/3019Z TN23/3010Z BECMG 3015/3018 32007KT PROB30 TEMPO 3018/3021 FEW025CB BECMG 3022/0102 00000KT", "TAF SLVR 300400Z 3006/0106 34012KT 9999 FEW012 TX32/3019Z TN22/3009Z TEMPO 3009/3012 BKN012 BECMG 3014/3018 34020G32KT BKN017 BECMG 3023/0103 34012KT SCT017", "TAF SLYA 291000Z 2912/3012 00000KT 9999 SCT017 BKN070 TX27/2919Z TN14/3010Z BECMG 2916/2918 01010KT SCT020 BECMG 3000/3002 00000KT", "TAF SOCA 300500Z 3006/0106 VRB02KT 9999 FEW020 PROB40 TEMPO 3006/3015 4500 -SHRA SCT015TCU BKN025 BECMG 3013/3015 07012KT BECMG 3022/3024 VRB02KT", "TAF SPCL 292300Z 3000/3024 03003KT 9999 SCT020 SCT080 TX32/3019Z TN23/3011Z TEMPO 3008/3012 5000 BCFG BKN008 TEMPO 3020/3023 10015KT 3000 SHRA BKN010 FEW025TCU BKN080", "SPEO 291710Z 2918/3018 20017KT 9999 FEW050 TX30/2919Z TN23/3011Z BECMG 3013/3014 8000 FEW030", "TAF SPGM 291700Z 2918/3018 05006KT 9999 SCT040 TX32/2919Z TN21/3010Z FM300800 VRB04KT 8000 BKN050 TEMPO 3011/3013 5000 BR FM301330 06006KT 9999 SCT040", "TAF SPHI 300500Z 3006/0106 19005KT 9999 BKN040 TX31/3019Z TN23/3011Z FM301400 18005KT CAVOK FM301930 17018KT 9999 BKN030", "SPHO 291700Z 2918/3018 08003KT 9999 FEW035 SCT080 TX24/2920Z TN11/3011Z TEMPO 2918/2922 FEW040TCU SCT080", "TAF AMD SPHZ 291220Z 2912/3012 07005KT 9999 SCT050 TX26/2919Z TN05/3011Z BECMG 2915/2917 01013KT BECMG 3000/3002 11004KT", "TAF SPJC 300505Z 3006/0106 17011KT 9999 SCT010 BKN020 TX27/3019Z TN23/3011Z", "TAF SPJI 291700Z 2918/3018 10004KT 9999 SCT020 BKN080 TX32/2920Z TN22/3011Z TEMPO 2919/2923 4000 RA BKN015 BKN080 TEMPO 3010/3013 3000 BCFG BKN010 BKN100", "SPJJ 291700Z 2918/3018 16006KT 9999 FEW030 TX20/2919Z TN04/3011Z TEMPO 2918/2922 05010KT FEW040TCU", "TAF SPJL 291700Z 2918/3018 14004KT CAVOK TX19/2919Z TNM01/3010Z FM292100 11010KT CAVOK BECMG 3012/3014 29003KT", "TAF SPJR 291700Z 2918/3018 14008KT 9999 SCT023 SCT050 TX22/2919Z TN09/3010Z FM301000 VRB03KT 9999 FEW025 FM301400 15008KT 9999 SCT023 SCT060", "TAF SPLO 291700Z 2918/3018 17012KT 9999 BKN040 TX26/2919Z TN18/3010Z FM301300 19006KT CAVOK", "TAF SPME 292310Z 3000/3024 21006KT 9999 BKN020 SCT100 TX31/3019Z TN24/3011Z BECMG 3003/3004 07010KT BKN012 BECMG 3014/3015 SCT015 BKN060", "TAF SPMS 291700Z 2918/3018 04005KT 9999 SCT015 SCT070 TX32/2920Z TN22/3011Z TEMPO 2918/2922 3000 RA BKN010 FEW025TCU BKN080 TEMPO 3010/3014 1000 BR BKN005", "TAF SPNC 291700Z 2918/3018 07013KT 9999 FEW040 SCT120 TX29/2919Z TN15/3010Z BECMG 3000/3002 VRB03KT BECMG 3016/3018 07013KT", "TAF SPPY 291700Z 2918/3018 10010KT 9999 SCT020 SCT040 TX20/2919Z TN11/3011Z TEMPO 2919/2923 4000 SHRA SCT010 FEW012TCU BKN040 TEMPO 3012/3016 2000 BCFG BKN010", "TAF SPQT 300500Z 3006/0106 00000KT 9999 FEW010 BKN100 TX33/3019Z TN23/3011Z TEMPO 3008/3012 2000 DZ BR BKN002 BKN100 BECMG 3013/3016 BKN015 SCT100 TEMPO 3017/3021 12015KT 2000 SHRA BKN010 FEW025TCU BKN080", "TAF SPQU 292300Z 3000/3024 03004KT CAVOK TX21/3016Z TN07/3010Z FM301430 24005KT CAVOK FM301800 27011KT CAVOK", "TAF SPRU 300500Z 3006/0106 15005KT 6000 SCT100 TX27/3019Z TN22/3011Z TEMPO 3007/3009 4900 BR TEMPO 3011/3013 4500 BR BECMG 3016/3019 18013KT 8000", "TAF SPSO 300500Z 3006/0106 21006KT 7000 NSC TX27/3019Z TN19/3011Z BECMG 3009/3012 2500 BR BECMG 3013/3016 27015KT CAVOK BECMG 3019/3021 23021KT BECMG 0102/0105 VRB04KT ", "TAF SPST 292300Z 3000/3024 15003KT 9999 SCT020 SCT080 TX32/3019Z TN22/3010Z FM300400 VRB03KT 8000 FEW005 BKN060 TEMPO 3008/3012 3000 BR FM301430 12007KT 9999 SCT015 SCT080", "TAF SPTN 292300Z 3000/3024 22005KT CAVOK TX26/3019Z TN15/3010Z FM300300 VRB01KT 9999 BKN020 FM301530 22007KT CAVOK", "SPTU 291700Z 2918/3018 26003KT 9999 BKN020 TX35/2920Z TN22/3011Z", "TAF SPUR 300500Z 3006/0106 22003KT 9999 BKN030 SCT100 TX31/3019Z TN23/3011Z TEMPO 3006/3007 RA FM301300 28005KT CAVOK BECMG 3020/3022 17012KT TEMPO 3022/0102 RA BKN025", "SPYL 292310Z 3000/3024 17007KT 9999 SCT030 TX29/3019Z TN22/3011Z BECMG 3005/3006 BKN020 BECMG 3014/3015 CAVOK", "TAF AMD SPZA 291820Z 2918/3018 22013KT 8000 NSC TX31/2919Z TN18/3010Z TEMPO 2920/2923 4900 BLDU FM292330 18005KT 9000 NSC", "TAF SPZO 292300Z 3000/3024 33005KT 9999 NSC TX23/3019Z TN04/3011Z TEMPO 3018/3023 33015KT", "TAF SUAA 300530Z 3006/0106 03010KT CAVOK TX30/3018Z TN17/3010Z BECMG 3012/3015 33015KT TEMPO 3014/3021 33018G28KT TEMPO 3021/0104 VRB18G28KT 3000 TSRA BKN015 FEW040CB OVC060", "TAF SUCA 300530Z 3006/0106 01010KT CAVOK TX29/3018Z TN18/3010Z BECMG 3011/3015 33016KT TEMPO 3012/3020 33018G28KT TEMPO 3020/0102 VRB18G28KT 3000 TSRA BKN015 FEW040CB OVC060", "TAF SUDU 300530Z 3006/0106 01010KT CAVOK TX31/3018Z TN15/3010Z BECMG 3012/3015 33015KT TEMPO 3015/3023 33018G28KT TEMPO 3023/0106 VRB18G28KT 3000 TSRA BKN015 FEW040CB OVC060", "TAF SULS 300530Z 3006/0106 04010KT CAVOK TX30/3018Z TN16/3010Z BECMG 3013/3016 34015KT TEMPO 3015/3022 34018G28KT TEMPO 3022/0105 VRB18G28KT 3000 TSRA BKN015 FEW040CB OVC060", "TAF SUMU 300530Z 3006/0106 03010KT CAVOK TX30/3018Z TN17/3010Z BECMG 3012/3015 33015KT TEMPO 3014/3021 33018G28KT TEMPO 3021/0104 VRB18G28KT 3000 TSRA BKN015 FEW040CB OVC060", "TAF SURV 300530Z 3006/0106 03008KT CAVOK TX30/3018Z TN14/3010Z BECMG 3012/3015 33015KT TEMPO 0103/0106 VRB18G28KT 3000 TSRA BKN015 FEW040CB OVC060", "TAF SUSO 300530Z 3006/0106 01010KT CAVOK TX31/3018Z TN18/3010Z BECMG 3012/3015 34015KT TEMPO 3018/3024 34015G25KT TEMPO 3024/0106 VRB18G28KT 3000 TSRA BKN015 FEW040CB OVC060", "TAF SVVA 291600Z 2918/3018 05002KT 9999 OVC020 TX30/2919 TN20/3009 TEMPO 2922/3002 12004KT 9999 BKN016 TEMPO 3006/3010 20003KT 9000 -DZ BKN016", "TAF SYCJ 300500Z 3006/0106 06004KT 9999 FEW018 TEMPO 3007/3011 VRB02KT 3000 BR BECMG 3011/3013 06012KT 9999 SCT020", "TAF SYEC 291740Z 2918/3018 07012KT 9999 SCT021 TEMPO 3008/3010 3000 BR FEW016", "TAF TAPA 300500Z 3006/0106 12010KT 9999 SCT020 PROB30 TEMPO 3012/3022 SHRA", "TAF TBPB 300500Z 3006/0106 12010KT 9999 SCT020", "TAF TDPD 300500Z 3006/0106 07005KT 9999 BKN016 PROB30 TEMPO 3012/3015 SHRA", "TAF TFFF 300500Z 3006/0106 VRB02KT CAVOK BECMG 3011/3013 13013KT BECMG 3022/3024 07003KT", "TAF TFFR 300500Z 3006/0106 VRB02KT CAVOK BECMG 3013/3015 14012KT PROB40 TEMPO 3015/0102 FEW012CB SCT025TCU BKN035 BECMG 0100/0102 VRB02KT", "TIST 300539Z 3006/0106 VRB05KT P6SM FEW020 SCT040 FM301400 13013KT P6SM FEW030 FM302200 VRB05KT P6SM FEW030 SCT050", "TISX 300539Z 3006/0106 VRB04KT P6SM FEW025 FM301300 12013KT P6SM FEW025 FM302200 VRB05KT P6SM FEW030 SCT050", "TJBQ 300539Z 3006/0106 VRB04KT P6SM SCT025 SCT040 OVC060 FM301300 08011KT P6SM SCT025 FM301700 05013G20KT P6SM SHRA SCT020 BKN040 OVC050 FM302300 VRB05KT P6SM SCT025 AMD NOT SKED TIL 301100", "TJPS 300539Z 3006/0106 VRB02KT P6SM FEW020 FM301400 15011G17KT P6SM FEW024 FM302230 VRB02KT P6SM FEW020", "TJSJ 300539Z 3006/0106 VRB05KT P6SM -SHRA FEW030 SCT050 FM301400 07013G22KT P6SM FEW030 SCT060 FM302200 VRB05KT P6SM FEW035 SCT050", "TAF TKPK 292300Z 3000/3024 11008KT 9999 SCT020 PROB30 TEMPO 3000/3010 SHRA PROB30 TEMPO 3016/3020 SHRA", "TAF TKPN 291700Z 2918/3018 10009KT 9999 SCT020 PROB30 TEMPO 2918/2924 SHRA PROB30 TEMPO 3009/3018 SHRA", "TAF TLPC 300500Z 3006/0106 12008KT 9999 SCT024", "TAF TLPL 300500Z 3006/0106 11015KT 9999 SCT024", "TAF TNCA 300010Z 3000/3024 08015KT 9999 SCT016 TEMPO 3006/3014 BKN012", "TAF TNCB 300416Z 3006/0112 09014KT 9999 SCT020", "TAF TNCC 300515Z 3006/0106 10009KT 9999 FEW016 TEMPO 3008/3014 BKN012", "TAF TQPF 291700Z 2918/3018 10009KT 9999 SCT020 PROB30 TEMPO 2918/2924 SHRA PROB30 TEMPO 3009/3018 SHRA", "TAF TRPG 291700Z 2918/3018 10009KT 9999 SCT020 PROB30 TEMPO 2918/2924 SHRA PROB30 TEMPO 3009/3018 SHRA", "TAF TTCP 300400Z 3006/0106 09004KT 9999 FEW016 FM301300 12013KT 9999 FEW020 FM302300 07004KT 9999 FEW016", "TAF TTPP 300400Z 3006/0106 00000KT 9999 FEW016 FM301300 12013KT 9999 SCT023 FM302300 00000KT 9999 FEW016", "TAF TUPJ 292300Z 3000/3024 12008KT 9999 SCT020 PROB30 TEMPO 3000/3010 SHRA ", "TAF TVSA 300500Z 3006/0106 07005KT 9999 FEW020", "TAF TXKF 300537Z 3006/0106 23008KT 9999 FEW015 SCT020 BKN035 PROB40 TEMPO 3006/3018 6000 -SHRA SCT005 BKN010 PROB30 TEMPO 3006/3012 SCT004 BKN008 BECMG 3018/3022 20018KT FEW006 SCT010 BKN025 PROB30 TEMPO 3018/0106 BKN010 ", "TAF AMD UAAA 300649Z 3007/0106 24005G10MPS 9999 SCT050CB BKN100 TX24/3007Z TN11/0101Z TEMPO 3007/3013 32010G21MPS 3100 -TSRA BLDU BKN030CB OVC100 BECMG 3013/3014 21003MPS BKN050CB OVC100 TEMPO 3013/3024 16004G10MPS 5000 -TSRA BR BKN020CB OVC100 TEMPO 0100/0106 27004G12MPS 5000 -TSRA", "TAF UAAH 300841Z 3009/3018 04010G15MPS 7000 DRDU SCT080", "TAF UAAT 300802Z 3009/3018 32003G10MPS 9999 BKN030CB BKN100 TEMPO 3009/3015 VRB05G13MPS 5000 -TSRA", "TAF UACC 300507Z 3006/0106 35005MPS 9999 SCT020 BKN100 TX17/3009Z TN01/3023Z TEMPO 3006/3012 02007G12MPS BECMG 3015/3017 04004MPS BKN011 BKN030 TEMPO 3018/3022 VRB02MPS 3100 BR FEW005 TEMPO 3022/0103 06004MPS 3100 -SHRA BKN030CB TEMPO 0103/0106 05006MPS", "TAF UACK 300804Z 3009/3018 31006MPS CAVOK TEMPO 3009/3018 33008G13MPS", "TAF UACP 300801Z 3009/3018 32006MPS CAVOK TEMPO 3009/3015 35009G14MPS BKN030", "TAF UADD 300800Z 3009/3018 30003G08MPS 9999 SCT050 BKN100 TEMPO 3009/3015 VRB15MPS TS BKN050CB", "TAF UAII 300503Z 3006/0106 32003G08MPS 8000 SCT040 TX31/3010Z TN14/0101Z TEMPO 3006/3016 22003G08MPS SCT033CB TEMPO 3016/0104 12005G10MPS", "TAF UAIT 300806Z 3009/3018 13003G08MPS CAVOK TEMPO 3009/3012 32004G09MPS BECMG 3012/3014 06005G10MPS TEMPO 3014/3018 07007G12MPS", "TAF UAKD 300802Z 3009/3018 04010MPS 9999 SCT040 TEMPO 3009/3012 06013G18MPS 5000 BLDU TEMPO 3012/3018 06013MPS", "TAF UAKK 300504Z 3006/0106 03008MPS 9999 SCT030 BKN100 TX15/3010Z TNM05/0101Z TEMPO 3006/3012 03015MPS BECMG 3016/3018 04004MPS", "TAF UAOO 300800Z 3009/3018 04009G14MPS CAVOK", "TAF UARR 300801Z 3009/3018 12006MPS 9999 SCT033 TEMPO 3009/3015 13006G12MPS SCT033CB TEMPO 3015/3018 13006G13MPS", "TAF UASK 300800Z 3009/3018 31011G16MPS 9999 BKN100 TEMPO 3009/3012 32017G22MPS SCT040 TEMPO 3012/3018 33010G15MPS BKN025CB", "TAF UASP 300800Z 3009/3018 31010G18MPS CAVOK TEMPO 3009/3015 34018MPS 5000 FU", "TAF UASS 300800Z 3009/3018 33007G15MPS 9999 SCT100", "TAF UATE 300503Z 3006/0106 14007G13MPS CAVOK TX32/3010Z TN16/0103Z BECMG 3008/3010 24007G13MPS BECMG 3012/3014 30006MPS BECMG 3014/3016 VRB03MPS", "TAF UATG 300501Z 3006/0106 12011G16MPS 9999 SCT033CB TX33/3011Z TN17/0102Z TEMPO 3006/3012 3100 BLDU BECMG 3013/3015 09011MPS", "TAF UATT 300501Z 3006/0106 12004MPS CAVOK TX27/3012Z TN10/0101Z TEMPO 3006/3012 12010MPS", "TAF UAUU 300801Z 3009/3018 15003G08MPS CAVOK TEMPO 3009/3018 19007MPS", "TAF UBBB 300509Z 3006/0106 35010KT 9999 FEW050CB TX23/3009Z TN13/0102Z TEMPO 3006/3014 02016KT -SHRA SCT012 SCT040CB BECMG 3014/3016 34018G28KT TEMPO 3016/0106 34026G36KT -SHRA SCT012 SCT040CB PROB40 TEMPO 3014/0106 TS BKN040CB", "TAF UBBF 300800Z 3009/3018 09010KT 9999 FEW040CB BKN080 TEMPO 3009/3015 13016G26KT 3000 -TSRA SCT010 SCT030CB BKN030", "TAF AMD UBBG 300844Z 3009/0106 VRB04KT 9999 FEW030CB OVC060 TX20/3011Z TN13/0102Z TEMPO 3009/3018 VRB20KT -TSRA SCT030CB BECMG 3021/3023 23008KT SCT100", "TAF UBBL 300514Z 3006/0106 16006KT 9999 SCT040 BKN100 TX22/3009Z TN15/0102Z TEMPO 3006/3018 13012KT -SHRA SCT030CB PROB40 TEMPO 3012/3018 TS SCT030CB", "TAF UBBN 300458Z 3006/0106 16012KT 9999 FEW046CB BKN100 TX25/3012Z TN10/0103Z TEMPO 3008/3018 19018G28KT -TSRA SCT040CB BKN080 TEMPO 3018/3024 05010KT", "TAF UBBQ 300511Z 3006/0106 06008KT 9999 SCT040 BKN100 TX26/3010Z TN12/0102Z BECMG 3008/3010 16014KT SCT020 SCT050CB BKN080 PROB40 TEMPO 3010/3018 10016KT 5000 -TSRA SCT010 BKN030CB BECMG 3018/3020 VRB04KT TEMPO 3020/0106 3000 BR BKN004", "TAF UBBY 300800Z 3009/3018 VRB04KT 9999 FEW040 BKN080 TEMPO 3010/3015 VRB14KT -TSRA SCT030CB BKN060", "TAF UBBZ 300800Z 3009/3018 18008KT 9999 FEW050CB BKN080 TEMPO 3009/3015 23018G28KT 3000 -TSRA SCT030CB BKN030", "TAF UBEE 300800Z 3009/3018 12008KT 9999 FEW040 BKN080", "TAF UCFL 300439Z 3006/0106 13003G08MPS 9999 BKN030CB OVC100 TEMPO 3006/3015 VRB07G12MPS 2000 TSRA BKN015CB BECMG 3015/3017 35003G08MPS TEMPO 3015/3021 24003G08MPS 2000 SHRA BKN015CB TEMPO 3021/0103 23003G08MPS 2000 SHRA BKN015CB", "TAF UCFM 300451Z 3006/0106 32003G08MPS 9999 SCT050CB BKN100 TEMPO 3006/3014 VRB12G17MPS 2000 TSRAGR FEW003 SCT007 BKN020CB BECMG 3014/3016 12003G08MPS TEMPO 3014/3020 18003G08MPS 2000 SHRA SCT007 BKN020CB TEMPO 3020/0102 20003G08MPS 2000 BR FU", "TAF UCFO 300444Z 3006/0106 32003G08MPS 9999 SCT050CB BKN100 TEMPO 3006/3012 09006G11MPS 3000 -SHRA BR SCT010 BKN030CB PROB40 TEMPO 3006/3012 VRB15MPS -TSRA BECMG 3012/3014 17003G08MPS TEMPO 3012/3018 27003G08MPS 3000 BR SCT030CB PROB40 TEMPO 3012/3018 VRB12MPS -TSRA", "TAF UDSG 300500Z 3006/0106 22006KT 9999 BKN040 TEMPO 3006/3018 VRB16G26KT -TSRA BKN030CB", "TAF UDYZ 300500Z 3006/0106 19006KT 9999 FEW040CB TEMPO 3006/3018 VRB16G26KT -TSRA BKN030CB", "TAF UEEE 300800Z 3009/0115 13003G08MPS 9999 SCT030 BKN100", "TAF UERP 300800Z 3009/0109 12006G12MPS 8000 BKN020CB OVC100 TEMPO 3009/3015 10007G14MPS 2100 -SHRASN BKN010CB OVC100", "TAF UERR 300800Z 3009/0109 26004MPS 4000 -SHSN BKN015CB OVC100 TEMPO 3009/3015 1100 SHSN SCT003 OVC015CB TEMPO 3017/3024 0500 FZFG VV002", "TAF UGKO 300500Z 3006/0106 26007KT 9999 SCT020 OVC040 TX14/3011Z TN10/0102Z TEMPO 3006/3012 3000 RA BR SCT008 BKN022 TEMPO 3015/0101 3000 SHRA BR SCT008 BKN017CB", "TAF COR UGSB 300500Z 3006/0106 VRB02KT 9999 SCT026 BKN055 TX13/3011Z TN11/0100Z BECMG 3010/3012 23012KT TEMPO 3013/3020 4000 RA SCT006 BKN017 TEMPO 3020/3024 4000 SHRA SCT007 BKN020CB BECMG 0100/0103 VRB02KT -RA SCT013 BKN020", "TAF UGTB 300500Z 3006/0106 31020KT 9999 SCT055CB TX18/3012Z TN09/0102Z TEMPO 3007/3012 VRB25KT TSRA BKN040CB TEMPO 3014/3018 32030G40KT TSRA BKN030CB", "TAF UHBB 300745Z 3009/0109 36003G08MPS 9999 SCT030 BECMG 3010/3012 30003MPS BECMG 3021/3024 25003G08MPS", "TAF UHHH 300756Z 3009/0115 04008MPS 3100 -SHSNRA BKN005 OVC020CB TEMPO 3009/3012 05008G13MPS 1200 SHSN BLSN BKN004 OVC015CB FM301500 02003MPS 9999 BKN011 BKN020CB TEMPO 3015/3021 36003G08MPS 5000 -SHSNRA FM010200 25003MPS 9999 SCT020 TEMPO 0102/0112 20003G08MPS", "TAF UHMA 300750Z 3009/0109 33003G08MPS 9999 SCT030 TEMPO 3009/0109 02008G13MPS 5000 BR BKN003 BKN015", "TAF UHMM 300744Z 3009/0115 25003G08MPS 9999 BKN030 TEMPO 3011/3021 3100 BR VV005", "TAF UHPP 300731Z 3009/0115 36003G12MPS 9999 SCT040 FM301800 11005G15MPS 4000 -SHSNRA BKN012 OVC020CB TEMPO 3021/0115 15010G20MPS 1000 SHSNRA VV004", "TAF UHSS 300750Z 3009/0115 01003G08MPS 9999 BKN020CB TEMPO 3009/3022 2100 -SHRA BR BKN005 BKN016CB BECMG 3018/3020 31003MPS", "TAF UHWW 300750Z 3009/0109 35003G08MPS 6000 -SHRA FEW010 BKN020CB TEMPO 3009/0109 36007G12MPS", "TAF UIAA 300800Z 3009/0109 15003G08MPS 9999 SCT030CB TEMPO 3009/3015 22005G10MPS TEMPO 0103/0109 21005MPS", "TAF UIBB 300800Z 3009/0109 27008G15MPS 9999 NSC BECMG 3013/3015 28003G08MPS", "TAF UIII 300800Z 3009/0109 18005MPS 9999 SCT050CB TEMPO 3009/3014 VRB10MPS BECMG 3014/3016 32012G20MPS BECMG 3016/3017 2900 -SHRASN BKN004 BKN007CB TEMPO 3017/0106 0900 +SHSNRA VV001 BECMG 0106/0108 9999 NSW BKN030CB", "TAF UIUU 300800Z 3009/0109 23006G11MPS 9999 SCT050CB TEMPO 3009/3014 33005G10MPS BECMG 3014/3016 04005G10MPS TEMPO 3016/0109 33009G16MPS", "TAF ULAA 300800Z 3009/0109 14003MPS 9999 BKN018 TEMPO 3009/3018 16003G09MPS BKN016 TEMPO 3018/0104 16005G11MPS", "TAF ULLI 300755Z 3009/0109 21006G12MPS 6000 BKN016 TEMPO 3009/3012 20010G16MPS 3000 -SHRA BKN016CB BECMG 3016/3017 28005G10MPS TEMPO 3018/3024 24003MPS", "TAF ULMM 300750Z 3009/0109 17005G10MPS 9999 SCT016 BECMG 3018/3020 13003G08MPS TEMPO 3020/0109 4000 -SHRASN BKN011CB", "TAF ULOO 300754Z 3009/3018 20006G13MPS 6000 BKN016 TEMPO 3009/3013 3000 -SHRA BKN011 BKN016CB BECMG 3013/3015 28005G11MPS", "TAF ULPB 300754Z 3009/3018 14006G12MPS 9999 BKN020 TEMPO 3009/3016 17009G16MPS", "TAF ULWC 300756Z 3009/3018 15003G09MPS 9999 FEW017CB BKN020", "TAF UMBB 300800Z 3009/3018 30003MPS 9999 BKN020 TEMPO 3009/3015 32005G10MPS 3100 -SHRA BR BKN011CB", "TAF UMGG 300507Z 3006/0106 03006MPS 9999 SCT030 TEMPO 3006/3018 06006MPS BECMG 3018/3020 34006MPS BKN025 TEMPO 3020/0106 31006G11MPS 2000 BR BKN005 SCT025CB", "TAF UMII 300816Z 3009/3018 22004G09MPS 9999 SCT020 TEMPO 3009/3012 19007G12MPS TEMPO 3012/3015 24004G09MPS 5000 -SHRA SCT010 BKN017CB FM301500 28005G10MPS 6000 BKN015 TEMPO 3015/3018 31008G13MPS 2000 SHRA BKN005 BKN017CB", "TAF UMIO 300804Z 3009/3018 20006G11MPS CAVOK FM301500 34006G11MPS 9999 BKN020 TEMPO 3015/3018 32008G13MPS 3000 -SHRA BKN010 BKN015CB", "TAF UMKK 300757Z 3009/0109 30007G12MPS CAVOK BECMG 3018/3020 25003G08MPS PROB40 TEMPO 3021/0104 0400 PRFG", "TAF AMD UMMG 300854Z 3009/3018 32003G08MPS 9999 BKN020 TEMPO 3009/3012 34004G09MPS 5000 -SHRA BKN007CB TEMPO 3013/3018 29003G08MPS", "TAF UMMS 300500Z 3006/0106 19005MPS 9999 SCT030 TEMPO 3006/3012 21006G11MPS BECMG 3012/3014 28005G10MPS TEMPO 3014/0106 30008G13MPS 3000 -SHRA BKN010 BKN015CB", "TAF UMOO 300802Z 3009/3018 16003G08MPS 9999 BKN025 TEMPO 3009/3018 21003G08MPS", "TAF UNAA 300757Z 3009/0109 35003G08MPS 9999 SCT020CB TEMPO 3009/3015 34008G16MPS TEMPO 0103/0109 30005G12MPS", "TAF UNBB 300800Z 3009/0109 30003G08MPS 9999 SCT030 TEMPO 3009/0109 35008G16MPS", "TAF UNEE 300800Z 3009/0109 32007G15MPS 8000 BKN040CB TEMPO 3009/3015 27003G08MPS TEMPO 3015/0109 -SHSN BKN016CB BECMG 3015/3019 27005G10MPS BECMG 3023/0103 32007G15MPS", "TAF UNKL 300751Z 3009/0109 28008G16MPS 9999 SCT016CB BECMG 3012/3014 29003G08MPS TEMPO 3018/0103 3000 -SHSN", "TAF UNNT 300800Z 3009/0109 31008G16MPS 8000 BKN040CB BECMG 3015/3018 31003G08MPS -SHSN TEMPO 3018/0109 BKN011CB BECMG 0100/0103 31007G15MPS", "TAF UNOO 300755Z 3009/0109 32007G15MPS 9999 SCT030 BECMG 3012/3014 32003G08MPS BECMG 0104/0106 34006G13MPS", "TAF UNTT 300800Z 3009/3018 29005G10MPS 8000 -SHSN BKN040CB TEMPO 3009/3012 33006G12MPS", "TAF UNWW 300800Z 3009/0109 29003G08MPS 8000 BKN040CB TEMPO 3009/3016 35007G15MPS TEMPO 3023/0109 32008G13MPS -SHRASN BKN016CB", "TAF UOOO 300800Z 3009/0109 02012G20MPS 1500 BLSN SCT006 TEMPO 3009/3021 0800 BLSN BKN003 TEMPO 3021/0103 3200 BLSN FEW006 FM010300 02008G18MPS 6000 BLSN SCT016", "TAF URKA 300750Z 3009/0109 20008G16MPS 9999 SCT016 BKN020CB TEMPO 3009/0109 22015G20MPS 6000 -SHRA SCT005 BKN016CB PROB40 3009/3018 -TSRA", "TAF URKK 300758Z 3009/0109 23006G11MPS 9999 SCT020CB TEMPO 3009/0109 6000 -SHRA FEW011 BKN016CB PROB40 TEMPO 3009/3018 -TSRA BECMG 3018/3020 18003G09MPS", "TAF URMG 300800Z 3009/3018 30006G14MPS 9999 BKN016 TEMPO 3009/3018 6000 -SHRA BKN016 BKN025CB", "TAF URML 300800Z 3009/3018 35006G13MPS 9999 SCT025 SCT033CB TEMPO 3009/3011 03009G16MPS BKN002 PROB40 TEMPO 3011/3017 VRB07G14MPS 6000 -TSRA SCT020 BKN025CB", "TAF URMM 300800Z 3009/0109 29005G13MPS 9999 BKN016 TX14/3012Z TN07/0103Z TEMPO 3009/0109 6000 -SHRA BKN016 BKN030CB", "TAF URMN 300800Z 3009/3018 12003G08MPS 9999 BKN020CB TEMPO 3009/3018 6000 -SHRA FEW007 BKN016CB", "TAF URMO 300800Z 3009/3018 27003G08MPS 9999 BKN016 TEMPO 3009/3018 6000 -SHRA BKN011 BKN025CB", "TAF URMT 300800Z 3009/3018 29003G10MPS 9999 SCT020 TEMPO 3009/3018 28006G13MPS 6000 -SHRA SCT016 BKN030CB", "TAF URRP 300756Z 3009/0109 24003G12MPS 6000 -SHRA SCT012 BKN020CB TEMPO 3009/3015 25008G16MPS 3100 -TSRA FEW003 BKN020CB", "TAF URSS 300755Z 3009/0109 30003G08MPS 9999 SCT010 SCT040CB OVC100 TEMPO 3009/3016 6000 -SHRA BKN006 BKN020CB OVC100 BECMG 3016/3017 05003G08MPS BKN010 SCT030CB BKN100 TEMPO 3017/0106 2100 -SHRA BR BKN004 BKN020CB OVC100 BECMG 0106/0107 20003G08MPS SCT007 SCT030CB BKN100", "TAF URWA 300758Z 3009/3018 24003G09MPS 9999 FEW007 SCT016CB TEMPO 3009/3015 19005G13MPS -SHRA SCT008 BKN016CB", "TAF URWI 300755Z 3009/3018 30007G13MPS 6000 -SHRA BKN016 BKN030CB TEMPO 3009/3018 28009G16MPS 1000 TSRAGR SCT003 BKN020CB", "TAF URWW 300754Z 3009/3018 23007G13MPS 6000 -SHRA BKN016 BKN030CB TEMPO 3009/3018 26009G16MPS -TSRAGR BKN011 BKN020CB", "TAF USCC 300800Z 3009/0109 18005G10MPS 9999 SCT040 TEMPO 3009/3015 16010G15MPS FM301500 04003G08MPS 9999 SCT020", "TAF USCM 300800Z 3009/3018 16005G12MPS 9999 NSC TEMPO 3009/3018 18010G16MPS", "TAF USDA 300752Z 3009/3018 31005G10MPS 6000 FEW003 TEMPO 3016/3018 29002G07MPS 0500 FZFG VV002", "TAF USHH 300739Z 3009/0109 36005G12MPS 9999 SCT030 TEMPO 3009/3015 5000 -SN SCT016 BECMG 3011/3013 02003G12MPS TEMPO 3015/0103 5000 BR FEW004 BKN016", "TAF USNN 300751Z 3009/0109 33005G11MPS 9999 BKN020CB TEMPO 3009/3012 32006G15MPS -SHSN FEW010 BKN016CB BECMG 3015/3017 34003G10MPS SCT016", "TAF USPP 300755Z 3009/0109 24004G12MPS 9999 BKN030 TEMPO 3009/3012 16005G14MPS -SHRA BKN016CB BECMG 3012/3013 35003G13MPS BECMG 3015/3016 05003G12MPS", "TAF USRR 300755Z 3009/0109 35007G14MPS 9999 BKN020 TEMPO 3009/3018 5000 -SHSN FEW007 BKN016CB", "TAF USSS 300753Z 3009/0109 09003G13MPS 9999 SCT020CB BECMG 3016/3019 BKN016CB BECMG 0106/0108 13003G13MPS", "TAF USTR 300800Z 3009/0109 04003G08MPS 9999 BKN016CB TEMPO 3012/3019 36003G10MPS 3100 -SHRASN BECMG 3019/3021 06003G10MPS", "TAF UTAA 300445Z 3006/0106 09018KT 6000 SCT050CB SCT050 TEMPO 3006/3009 04014KT TEMPO 3009/3015 12016G26KT PROB30 TEMPO 3010/3016 VRB26KT -TSRA BECMG 3016/3018 14014KT", "TAF UTAK 300430Z 3006/0106 14014KT 9999 SCT030 SCT100 TEMPO 3006/3008 09016KT TEMPO 3009/3012 24014KT BECMG 3012/3014 32016KT SCT026 BKN100 TEMPO 3014/3017 28016KT", "TAF UTAM 300430Z 3006/0106 02014KT 6000 SCT050 BKN100 TEMPO 3006/3015 09012G22KT 3000 DRDU BKN030 SCT050CB BECMG 3015/3016 06012KT", "TAF AMD UTAT 300658Z 3006/0106 05012KT CAVOK TEMPO 3007/3012 07012G22KT", "TAF UTAV 300430Z 3006/0106 34014KT 6000 SCT070 BKN100 TEMPO 3006/3014 04016G26KT 3000 DRDU SCT050", "TAF UTDD 300900Z 3010/3022 VRB02MPS 9999 SCT066CB BKN100 PROB40 TEMPO 3010/3022 TS", "TAF UTDK 300900Z 3010/3019 VRB02MPS 9999 FEW066CB SCT100 TEMPO 3010/3014 21006MPS BECMG 3015/3016 03005MPS", "TAF UTDL 300900Z 3010/3022 24005MPS 9999 FEW060CB SCT080 BECMG 3013/3015 VRB02MPS", "TAF UTDT 300900Z 3010/3019 VRB02MPS 9999 FEW066CB SCT100", "TAF UTFF 300900Z 3010/3019 14010KT 9999 NSC TEMPO 3010/3015 10012G22KT FEW050CB TEMPO 3015/3019 14012G22KT 7000 -SHRA SCT050CB", "TAF UTFN 300500Z 3006/0106 14010KT 9999 NSC TEMPO 3006/3012 12012G22KT FEW050 TEMPO 3012/3020 24012G22KT 7000 -SHRA SCT050CB", "TAF UTNN 300500Z 3006/0106 05008G18KT CAVOK TX35/3011Z TN17/0101Z TEMPO 3016/0102 VRB04KT", "TAF UTNU 300500Z 3006/0106 03008G18KT CAVOK TX35/3011Z TN17/0101Z TEMPO 3016/0102 VRB04KT", "TAF UTSA 300501Z 3006/0106 VRB03KT 7000 NSC TEMPO 3006/3017 08014KT 4500 FU SCT033", "TAF UTSB 300501Z 3006/0106 VRB03KT 7000 NSC TX35/3011Z TN17/0101Z TEMPO 3006/3017 36014KT SCT033", "TAF UTSK 300855Z 3010/3019 32010KT CAVOK TEMPO 3010/3019 VRB04KT", "TAF UTSS 300500Z 3006/0106 13010G20KT 9999 NSC TEMPO 3006/3015 33012G22KT SCT066CB", "TAF UTST 300500Z 3006/0106 VRB06KT 6000 NSC TEMPO 3006/3013 25012G22KT 3000 HZ SCT060CB BKN100", "TAF UTTT 300500Z 3006/0106 09010KT 7000 NSC TEMPO 3006/3016 28015KT FEW060CB PROB40 TEMPO 3006/3016 TS SCT050CB", "TAF UUBC 300752Z 3009/3018 03006G13MPS 6000 -RA BKN016", "TAF UUBP 300754Z 3009/3018 01006G11MPS 9999 BKN017 TEMPO 3012/3015 4000 -SHRA BKN015CB", "TAF UUBW 300754Z 3009/0109 06006G12MPS 9000 BKN016 TX13/3012Z TN06/0101Z TEMPO 3014/0106 2900 -SHRA FEW007 BKN011CB BECMG 3019/3021 33003MPS", "TAF UUDD 300757Z 3009/0115 06006G12MPS 9999 SCT016 TX12/3012Z TN05/0102Z TEMPO 3015/0106 3000 -SHRA BKN004 BKN012CB BECMG 3018/3020 36005MPS BECMG 0104/0106 30006MPS TEMPO 0109/0115 30010G17MPS PROB40 TEMPO 0109/0115 -TSRA BKN016CB", "TAF UUDL 300800Z 3009/0109 07003G08MPS 9999 BKN040 TX14/3012Z TN05/0103Z TEMPO 3018/0109 3000 -RA BR OVC010", "TAF UUEE 300755Z 3009/0109 06006G12MPS 9000 BKN016 TX12/3013Z TN04/3021Z TEMPO 3015/0103 2900 -SHRA SCT007 BKN016CB BECMG 3020/3022 32006MPS", "TAF UUMO 300752Z 3009/3018 08006G11MPS 9999 BKN020 TEMPO 3012/3015 4000 -SHRA BKN014CB", "TAF UUOB 300755Z 3009/3018 03003G08MPS 6000 OVC016 TEMPO 3009/3011 2100 -RA BR OVC005", "TAF UUOK 300753Z 3009/3018 03006G13MPS 6000 -RA BKN008", "TAF UUOL 300759Z 3009/3018 03009MPS 9999 BKN016 BECMG 3015/3017 36003MPS", "TAF UUOO 300800Z 3009/3018 01003MPS 9999 OVC012", "TAF UUWW 300752Z 3009/0109 06005G12MPS 9999 BKN020 TX13/3012Z TN05/0103Z TEMPO 3016/0106 -SHRA BKN007 SCT020CB BECMG 3020/3022 33003MPS", "TAF UUYY 300800Z 3009/0109 30003G14MPS 6000 -SHRA BKN007 BKN011CB TEMPO 3009/3012 1000 SHRA BR BKN003 BKN016CB BECMG 3012/3013 33003G12MPS FEW011 BKN017CB BECMG 3015/3017 08003MPS BECMG 0103/0105 10005G14MPS", "TAF UWGG 300755Z 3009/0109 03006G14MPS 9999 SCT030 TX14/0109Z TN08/0103Z TEMPO 3012/0106 09009G16MPS BKN010CB", "TAF UWKD 300800Z 3009/0109 36006G13MPS 9999 BKN020 TX20/3012Z TN13/0103Z TEMPO 3009/3021 2000 SHRA BKN006 BKN016CB BECMG 3013/3015 05005G12MPS BECMG 0100/0102 14005G12MPS", "TAF UWKE 300759Z 3009/0109 21005G12MPS 9999 SCT040 TEMPO 3009/3017 32007G14MPS SCT020CB BECMG 3017/3019 09005G12MPS", "TAF UWKS 300759Z 3009/3018 05006G13MPS 8000 -SHRA BKN013CB TX11/3018Z TN06/3009Z TEMPO 3009/3017 BKN006CB", "TAF UWLL 300754Z 3009/0109 05003G10MPS 9999 SCT030 TX23/3011Z TN12/0103Z TEMPO 3009/3021 10007G14MPS 3000 -SHRA BKN016CB BECMG 3021/3023 16006G12MPS", "TAF UWLW 300755Z 3009/0109 04003G09MPS 9999 BKN020 TX22/3010Z TN13/0101Z TEMPO 3009/3021 09006G12MPS 6000 -SHRA BKN016CB", "TAF UWOO 300743Z 3009/0109 14007G14MPS 9999 SCT033 TX28/3010Z TN13/3023Z TEMPO 3009/3015 17009G17MPS SCT020CB TEMPO 3015/0106 12005G12MPS", "TAF UWOR 300743Z 3009/3018 12003G10MPS 9999 SCT033 TX24/3012Z TN15/3018Z TEMPO 3009/3018 14005G12MPS", "TAF UWPS 300756Z 3009/3018 05008G14MPS 8000 -SHRA BKN020CB TX17/3012Z TN13/3018Z PROB40 TEMPO 3011/3018 -TSRA", "TAF UWSG 300754Z 3009/3018 14008G13MPS 9999 BKN030 TX27/3012Z TN18/3018Z TEMPO 3009/3018 15015MPS 2100 -TSRAGR BKN016CB", "TAF UWUU 300749Z 3009/0109 18003G08MPS 9999 BKN040 TX26/3012Z TN06/0103Z TEMPO 3009/3016 22006G14MPS TEMPO 3016/0103 13003G08MPS TEMPO 0103/0109 14006G14MPS -SHRA BKN020CB", "TAF UWWW 300753Z 3009/0109 15006G13MPS 9999 BKN030 TX26/3011Z TN12/0102Z TEMPO 3009/3021 10010G17MPS 3000 -TSRA BKN020CB", "TAF VAAH 300800Z 3009/3018 23006KT 4000 FU SCT020 FEW030TCU BKN080 TEMPO 3009/3012 25005G15KT 2500 -TSRA SCT015 FEW030CB BKN080 BECMG 3013/3015 4000 HZ FU FEW020 SCT080", "TAF VAAU 300800Z 3009/3018 29010KT 6000 SCT020 SCT025 TEMPO 3009/3015 32008G18KT 2000 -TSRA -RA SCT015 FEW030TCU/CB BKN090 BECMG 3016/3018 09007KT 4000 HZ FEW020 SCT100", "TAF VABB 300800Z 3009/3018 28011KT 6000 FEW020 SCT025 TEMPO 3009/3012 28008G18KT 5000 FU FEW020 FEW025TCU BECMG 3014/3016 30008KT 4000 HZ FU", "TAF VABO 300800Z 3009/3018 25008KT 6000 FEW015 SCT020 SCT080 BECMG 3013/3015 FEW080", "TAF VABP 300800Z 3009/3018 05010KT 6000 SCT020 BKN100 TEMPO 3009/3013 23015G25KT 3000 -TSRA FEW030CB BECMG 3015/3017 4000 -RA/HZ", "TAF VABV 300800Z 3009/3018 14008KT 6000 FEW020 SCT025 TEMPO 3009/3012 10005G15KT 2000 -TSRA RA SCT015 FEW030CB BKN080 BECMG 3013/3015 22006KT 4000 HZ FU FEW020 SCT080", "TAF VADU 300800Z 3009/3018 25010KT 6000 FEW020 BECMG 3013/3015 4000 HZ", "TAF VAID 300800Z 3009/3018 16010KT 5000 HZ SCT020 BKN100 TEMPO 3009/3013 23015G25KT 3000 -TSRA FEW030CB BECMG 3015/3017 4000 -RA/HZ", "TAF VAJB 300800Z 3009/3018 21010KT 5000 SCT020 BKN080 TEMPO 3009/3013 23015G25KT 2500 TSRA FEW030CB BECMG 3015/3017 4000 -RA/HZ", "TAF VAJL 300500Z 3006/3015 23006KT 5000 HZ FU FEW020 SCT100 BECMG 3008/3010 29010KT 6000 SCT020 SCT025 TEMPO 3008/3015 32008G18KT 2000 -TSRA -RA SCT015 FEW030TCU/CB BKN090", "TAF VAJM 300800Z 3009/3018 29006KT 6000 SCT020 TEMPO 3009/3013 29005G15KT 3000 -TSRA -RA SCT015 FEW030CB BKN080 BECMG 3013/3015 4000 BR HZ FEW020 SCT080", "TAF VAKE 300800Z 3009/3018 22008KT 4000 FU HZ SCT015 FEW030CB BKN080 TEMPO 3009/3013 23010G20KT 2000 TSRA -RA BECMG 3013/3015 4000 HZ FU FEW020 SCT080", "TAF VAKP 300800Z 3009/3018 26008KT 5000 FU FEW020 BECMG 3014/3016 28008KT 5000 HZ FU", "TAF VANP 300800Z 3009/3018 14007KT 3000 -TSRA -RA BR SCT015 FEW030CB OVC080 TEMPO 3010/3016 25015G25KT TSRA TSGR SCT015 FEW030CB OVC080 BECMG 3012/3014 2000 TSRA RA BR BECMG 3016/3018 1500", "TAF VAPO 300500Z 3006/0112 12005KT 6000 SCT030 SCT090 BECMG 3009/3012 23005KT TEMPO 3011/3013 SCT030 FEW030CB SCT090 TEMPO 0100/0102 VRB02KT 5000 HZ FEW030 SCT100 TEMPO 0110/0112 25010G20KT 6000 TS SCT030 FEW030CB SCT100", "TAF VAPR 300800Z 3009/3018 25010KT 6000 FEW020 SCT025 BECMG 3016/3018 FEW020", "TAF VARK 300800Z 3009/3018 27008KT 6000 FEW020 SCT025 TEMPO 3009/3012 30008G18KT 3000 -TSRA -RA SCT015 FEW030CB BKN080 BECMG 3013/3015 32008KT 6000 FEW020 SCT080", "TAF VASD 300800Z 3009/3018 29010KT 6000 SCT020 SCT025 TEMPO 3009/3015 32008G18KT 2000 -TSRA -RA SCT015 FEW030TCU/CB BKN090 BECMG 3016/3018 09007KT 4000 HZ FEW020 SCT100", "TAF VASL 300800Z 3009/3018 26008KT 5000 HZ SCT020 SCT025 TEMPO 3009/3015 28008G18KT 2000 -TSRA -SHRA SCT015 FEW030TCU/CB BKN090 BECMG 3016/3018 09006KT 3000 -RA HZ SCT018 FEW025TCU BKN100", "TAF VASU 300800Z 3009/3018 22008KT 6000 FEW020 SCT080", "TAF VAUD 300800Z 3009/3018 23005KT 4000 HZ -RA SCT030 SCT100 TEMPO 3010/3013 29008G18KT 2000 DS/-TSRA SCT030 FEW035CB SCT100 BECMG 3015/3017 VRB03KT 3000 HZ FEW030 SCT100", "TAF VCBI 300500Z 3006/0112 VRB05KT 9999 SCT017 TX33/3007Z TN24/0100Z TEMPO 3008/3015 VRB15G25KT 6000 -TSRA/SHRA SCT015 FEW018CB OVC080", "TAF VCRI 300500Z 3006/0112 23006KT 9999 FEW018 TX32/3008Z TN24/0100Z PROB40 TEMPO 3008/3015 7000 -TSRA/SHRA SCT018 FEW020CB BKN080 BECMG 3013/3015 VRB05KT", "TAF VDPP 300500Z 3006/3024 10007KT 9999 SCT017 TEMPO 3007/3012 10015G26KT 5000 TSRA SCT015 FEW017CB BKN040", "TAF VDSR 300500Z 3006/3024 14007KT 9999 SCT017 TEMPO 3007/3012 14015G27KT 5000 TSRA SCT015 FEW017CB BKN040", "TAF VDSV 300500Z 3006/3024 18008KT 9999 SCT017 TEMPO 3007/3012 18015G27KT 5000 TSRA SCT015 FEW017CB BKN040", "TAF VEAN 300500Z 3006/3015 32005KT 3000 -TSRA FEW010 SCT018 FEW025CB BKN090", "TAF VEAT 300800Z 3009/3018 33005KT 6000 SCT100 TEMPO 3011/3014 27010KT 2500 -TSRA SCT018 FEW030CB BKN100 BECMG 3015/3018 00000KT 4000 BR", "TAF VEBD 300500Z 3006/0112 10005KT 6000 SCT025 BKN090 TEMPO 3011/3014 5000 TSRABR SCT025 FEW030CB BKN090 TEMPO 0101/0103 4000 RABR SCT025 FEW030CB BKN090", "TAF VEBI 300800Z 3009/3018 32005KT 5000 HZ SCT020 SCT100 TEMPO 3010/3012 29008KT 1500 -TSRA FEW005 SCT018 FEW025CB OVC090", "TAF VEBN 300500Z 3006/0115 23004KT 3000 BR SCT020 BKN100 BECMG 3007/3009 23006KT 4000 HZ BECMG 3013/3015 VRB02KT 3000 HZ BR", "TAF VEBS 300800Z 3009/3018 29006KT 5000 HZ FEW020 SCT100 TEMPO 3010/3014 1500 TSRA BKN015 FEW030CB OVC090 BECMG 3012/3014 18003KT 3500 HZ", "TAF VEBU 300200Z 3003/3012 31005KT 4000 HZ FEW020 SCT100 TEMPO 3005/3009 22005KT 2000 TSRA/HZ FEW030CB BKN090", "TAF VECC 300800Z 3009/3018 09005KT 3000 -RA HZ SCT018 BKN100 TEMPO 3009/3013 17015G25KT 1500 TSRA SCT015 FEW025CB OVC090 BECMG 3014/3016 15005KT 2800 HZ SCT020 SCT100", "TAF VECO 300200Z 3003/3012 06005KT 4000 HZ SCT020 SCT100 TEMPO 3007/3011 1500 TSRA SCT015 FEW025CB OVC090", "TAF VEDG 300800Z 3009/3018 20005KT 4000 HZ SCT020 SCT100 TEMPO 3009/3013 28015G25KT 1500 TSRA SCT015 FEW025CB OVC090 BECMG 3014/3016 28005KT 2800 HZ", "TAF VEDO 300500Z 3006/3015 32005KT 5000 -RA HZ FEW018 SCT100 BECMG 3007/3009 SCT018 FEW030B BKN090 BECMG 3013/3014 3000 -RA HZ FEW020 SCT100", "TAF VEDZ 300500Z 3006/3015 27003KT 4000 -RA BR SCT018 FEW025CB BKN090 BECMG 3013/3015 25008KT 3000 -TSRA BR FEW009 SCT018 FEW025CB BKN090", "TAF VEGK 300330Z 3006/3018 23005KT 4000 BR SCT020 BKN100 TEMPO 3006/3009 23020G30KT 1500 +TSRA SCT015 SCT020 FEW030CB BKN100 BECMG 3012/3015 5000 -RABR", "TAF VEGT 300800Z 3009/3018 01005KT 5000 HZ SCT018 BKN100 BECMG 3013/3015 00000KT 3000 BR", "TAF VEGY 300800Z 3009/3018 06008KT 3500 -RA HZ SCT018 FEW030CB BKN090 TEMPO 3010/3012 2500 -TSRA BECMG 3015/3017 00000KT 3000 HZ FEW020 SCT100", "TAF VEIM 300800Z 3009/3018 30006KT 5000 HZ SCT018 BKN100 BECMG 3013/3015 25005KT 3000 BR", "TAF VEJH 300800Z 3009/3018 25005KT 5000 HZ SCT020 SCT100 TEMPO 3010/3014 1500 TSRA BKN015 FEW030CB OVC090 BECMG 3012/3014 3500 HZ", "TAF VEJR 300200Z 3003/3012 22005KT 4000 HZ FEW020 SCT100 TEMPO 3009/3012 22005KT 2000 RA/HZ SCT030 BKN090", "TAF VEJS 300800Z 3009/3018 32005KT 5000 -RA HZ SCT020 BKN100 BECMG 3015/3017 00000KT 3000 HZ SCT018 SCT090", "TAF VEKI 300500Z 3006/3015 VRB02KT 2000 -TSRA SCT015 OVC090 BECMG 3007/3009 29005KT 3000 BR BECMG 3013/3015 VRB02KT 2000 BR", "TAF VEKO 300800Z 3009/3018 21010KT 5000 SCT020 BKN080 TEMPO 3009/3013 23015G25KT 2500 TSRA FEW030CB BECMG 3015/3017 4000 -RA/HZ", "TAF VELP 300800Z 3009/3018 34005KT 4000 HZ FEW020 SCT100 TEMPO 3011/3014 27010KT 2500 -TSRA SCT018 FEW030CB BKN100", "TAF VELR 300800Z 3009/3018 07005KT 5000 HZ SCT020 BKN100 BECMG 3013/3015 00000KT 3000 BR", "TAF VEMN 300800Z 3009/3018 05008KT 4000 HZ SCT018 FEW025CB BKN100 TEMPO 3015/3018 14010KT 1500 -TSRA -RA FEW008 SCT016 FEW025CB OVC090", "TAF VEMR 300800Z 3009/3018 05005KT 4000 -RA BT FEW010 SCT018 BKN090 BECMG 3013/3015 00000KT 3000 BR SCT020 BKN100", "TAF VEPT 300800Z 3009/3018 05010KT 4000 -TSRA HZ SCT018 FEW030CB BKN090 TEMPO 3010/3012 2500 -TSRA BECMG 3015/3017 00000KT 3000 HZ FEW020 SCT100", "TAF VEPY 300800Z 3009/3018 20005KT 4000 HZ SCT012 BKN100 TEMPO 3009/3013 1500 TSRA FEW010 SCT012 FEW025CB OVC080 BECMG 3014/3016 2500 -RA HZ", "TAF VERC 300800Z 3009/3018 30008KT 4000 -TSRA HZ SCT018 FEW030CB BKN090 TEMPO 3010/3012 2500 -TSRA BECMG 3015/3017 00000KT 3000 HZ SCT100", "TAF VERK 300200Z 3009/3018 29006KT 5000 HZ SCT020 BKN100 TEMPO 3010/3014 1500 TSRA BKN015 FEW030CB OVC090", "TAF VERP 300800Z 3009/3018 32005KT 4000 -TSRA SCT020 FEW030CB BKN090 TEMPO 3011/3015 32010G20KT 3000 TSRA SHRA FEW015 SCT020 FEW030CB BKN090", "TAF VERU 300500Z 3006/3015 12004KT 5000 -RA BR SCT018 FEW025CB BKN100 BECMG 3013/3015 23012KT 3000 -TSRA FEW010 SCT018 FEW025CB BKN090", "TAF VETJ 300500Z 3006/3015 29005KT 5000 HZ SCT018 BKN100 BECMG 3013/3015 3000 -RA BR FEW009 SCT018 FEW025CB BKN090", "TAF VEZO 300500Z 3006/3015 25003KT 3000 -RA BR FEW009 SCT018 FEW025CB BKN090", "TAF VGEG 300500Z 3006/0112 10010KT 5000 SCT018 BECMG 3011/3013 33008KT 4000 HZ SCT017 TEMPO 3016/0102 27035KTG45KT 2000 RA/TSRA BKN008 FEW027CB OVC090 BECMG 0103/0105 09010KT 4500 HZ SCT018 BECMG 0110/0112 30010KT 4000 HZ SCT016 BKN100", "TAF VGHS 300500Z 3006/0112 19008KT 4000 HZ FEW015 SCT100 TEMPO 3008/3014 28020G30KT 2000 RA/TSRA BKN008 FEW025CB OVC090 BECMG 3005/3007 18009KT 3300 HZ SCT100 TEMP0 3016/3018 24006KT 3500 HZ FEW012 SCT100", "TAF VHHH 300800Z 3009/0115 10010KT 9999 FEW030 SCT045 TX27/0106Z TN23/3023Z TEMPO 3009/3011 VRB05KT", "TAF VIAG 300500Z 3006/0112 16003KT 5000 HZ SCT030 FEW030TCU BKN100 BKN250 TEMPO 3008/3010 23010G20KT 5000 TSRA SCT030 FEW030CB BKN100 BECMG 3015/3019 VRB02KT SCT030 BKN100 BECMG 0102/0104 16005KT TEMPO 0108/0110 26015G25KT 3000 TSRA SCT025 FEW030CB BKN100 BKN250", "TAF VIAR 300500Z 3006/3015 VRB02KT 6000 FEW035 SCT100 ", "TAF VIBR 300500Z 3006/3015 VRB02KT 6000 FEW030 SCT080 TEMPO 3008/3012 FEW030CB", "TAF VICG 300500Z 3006/0112 16010G20KT 6000 SCT025 BKN100 TEMPO 3009/3014 5000 -TSRA SCT025 FEW030CB BKN100 BECMG 3014/3016 RABR SCT020 BKN100 TEMPO 0109/0112 SCT025 FEW030CB BKN100", "TAF VIDN 300500Z 3006/3015 VRB02KT 3000 HZ -RA SCT030 BKN080 TEMPO 3009/30013 FEW040CB BECMG 3012/3014 VRB02KT 2500 HZ -RA", "TAF VIDP 300500Z 3006/3015 VRB02KT 3000 HZ SCT035 BKN100 TEMPO 3010/3014 15010G20KT 1800 -TSRA FEW040CB OVC080 ", "TAF VIGG 300500Z 3006/3015 VRB02KT 6000 FEW035 SCT100 TEMPO 3009/3012 FEW035CB", "TAF VIJP 300800Z 3009/3018 23010KT 4000 HZ -RA SCT035 SCT100 TEMPO 3011/3014 27006G16KT 3000 DS/-TSRA SCT030 FEW035CB BKN090 BECMG 3015/3017 30004KT 3000 HZ SCT030 SCT100", "TAF VIJR 300330Z 3006/3018 26010KT 6000 SCT100 SCT250 TEMPO 3010/3014 26010G20KT 4000 TSDU SCT030 FEW030TCUCB BKN100", "TAF VILK 300500Z 3006/3015 06005KT 3000 FBLTSRA SCT020 BKN100 TEMPO 3006/3010 26015G25KT 1500 -TSRA -RA FEW030CB OVC090 BECMG 3013/3015 VRB02KT 3000 BR", "TAF VIPT 300500Z 3006/3015 13003KT 4000 HZ FEW030 SCT090 TEMPO 3009/3013 11010G20KT 1500 -TSRA FEW035CB OVC080", "TAF VISM 300500Z 3006/3015 00000KT 5000 HZ FEW030 SCT080 TEMPO 3006/3009 FEW035CB", "TAF VISP 300330Z 3006/3018 16005KT 6000 SCT025 FEW030CB BKN100 TEMPO 3013/3016 29010G20KT 4000 TSRA SCT020 FEW030CB BKN080", "TAF VLLB 300500Z 3006/0106 12004KT 9999 SCT016 BKN060", "TAF VLLN 300500Z 3006/0106 27004KT 7000 SCT020 SCT100", "TAF VLPS 300500Z 3006/0106 14004KT 5000 HZ FEW020 SCT050 SCT200", "TAF VLSK 300500Z 3006/0106 12006KT 8000 SCT016 FEW050 SCT100", "TAF VLVT 300500Z 3006/0106 04004KT 8000 BKN020 SCT050", "TAF VMMC 300500Z 3006/0112 02008KT CAVOK BECMG 3010/3012 09010KT", "TAF VNKT 300500Z 3006/0106 11004KT 6000 FEW015 SCT025 BKN100 BECMG 3007/3009 24010KT 7000 FEW020 SCT030 BKN100 PROB40 3006/3012 VRB12KT 3000 TSRA FEW025CB OVC090 BECMG 3014/3015 13004KT 6000 FEW015 SCT100 BECMG 0100/0102 VRB02KT 3000 BR FEW010 SCT025 BKN100 BECMG 0104/0105 10003KT 5000 HZ FEW015 SCT030 BKN100", "TAF VOBG 300800Z 3009/3018 14010KT 6000 SCT012 SCT020 TEMPO 3009/3015 3000 TSRA RA SCT012 SCT020 FEW025CB BKN080", "TAF VOBL 300800Z 3009/3018 14010KT 6000 SCT012 SCT020 TEMPO 3009/3015 3000 TSRA RA SCT012 SCT020 FEW025CB BKN080", "TAF VOBM 300800Z 3009/3018 27010KT 6000 SCT012 SCT020 TEMPO 3009/3015 3000 TSRA RA SCT012 SCT020 FEW025CB BKN080", "TAF VOBZ 300500Z 3006/3015 24006KT 6000 FEW020 SCT025 TEMPO 3009/3014 27010KT 3000 TSRA SCT015 FEW030CB BKN080", "TAF VOCB 300500Z 3006/3015 11010KT 6000 SCT015 SCT080 TEMPO 3009/3015 4000 -TSRA/RA SCT015 FEW020TCU/CB BKN080 BECMG 3012/3013 23005KT 5000 BR", "TAF VOCI 292300Z 3000/0106 VRB02KT 2500 -RA BR SCT012 BKN080 BECMG 3003/3005 12005KT 5000 HZ FEW015 FEW025TCU SCT080 TEMPO 3009/3014 25010KT 3000 TSRA RA FEW008 SCT012 FEW025CB OVC080 BECMG 3014/3016 19005KT 3500 -RA BR SCT012 FEW025CB SCT080 TEMPO 3022/0102 VRB02KT 2500 BR -RA SCT015 FEW025CB BKN080 BECMG 0103/0105 11005KT 5000 HZ SCT015 FEW025TCU SCT080", "TAF VOCP 300500Z 3006/3015 17006KT 6000 SCT020 TEMPO 3009/3014 32010KT 3000 TSRA SCT015 SCT025 FEW030CB", "TAF VOGB 300800Z 3009/3018 14010KT 6000 SCT012 TEMPO 3009/3015 3000 TSRA RA SCT012 SCT020 FEW025CB BKN080", "TAF VOHB 300800Z 3009/3018 27010KT 6000 SCT012 SCT020 TEMPO 3009/3015 3000 TSRA RA SCT012 SCT020 FEW025CB BKN080", "TAF VOHS 300500Z 3006/0112 22006KT 5000 HZ SCT015 SCT100 BKN080 TEMPO 3009/3014 22010KT 3000 TSRA SCT015 FEW030CB BKN080 BECMG 3020/3022 13005KT 5000 -TSRA SCT020 FEW030CB BKN100 TEMPO 0100/0103 VRB04KT 3000 TSRA SCT015 FEW030CB SCT100 BECMG 0104/0106 09010KT 6000 FEW020 SCT025", "TAF VOHY 300500Z 3006/3015 22006KT 5000 HZ SCT015 BKN080 TEMPO 3009/3014 32010KT 3000 TSRA SCT015 FEW030CB BKN080", "TAF VOJV 300800Z 3009/3018 29010KT 6000 SCT012 TEMPO 3009/3015 3000 TSRA RA SCT012 SCT020 FEW025CB BKN080", "TAF VOKU 300500Z 3006/3015 14006KT 6000 FEW020 TEMPO 3009/3014 32010KT 3000 TSRA SCT015 SCT025 FEW030CB", "TAF VOLT 300800Z 3009/3018 26008KT 5000 HZ SCT020 SCT025 TEMPO 3009/3015 28008G18KT 2000 -TSRA -SHRA SCT015 FEW030TCU/CB BKN090 BECMG 3016/3018 09006KT 3000 -RA HZ SCT018 FEW025TCU BKN100", "TAF VOMD 300500Z 3006/3015 14010KT 6000 SCT020 SCT100 TEMPO 3009/3015 4000 -TSRA/RA SCT018 FEW025TCU/CB BKN080 ", "TAF VOML 300800Z 3009/3018 27010KT 6000 SCT015 TEMPO 3009/3015 3000 TSRA RA SCT012 SCT020 FEW025CB BKN080", "TAF VOMM 300500Z 3006/0112 14010KT 6000 SCT020 SCT100 TEMPO 3009/3015 SCT020 FEW025TCU/CB BKN100 BECMG 3018/3019 23010KT 5000 BR TEMPO 0100/0103 3000 BR BECMG 0103/0104 6000 BECMG 0106/0107 14010KT", "TAF VOMY 300800Z 3009/3018 14010KT 6000 SCT012 SCT020 TEMPO 3009/3015 3000 TSRA RA SCT012 SCT020 FEW025CB BKN080", "TAF VOND 300800Z 3009/3018 29010KT 6000 SCT020 SCT025 TEMPO 3009/3015 32008G18KT 2000 -TSRA -RA SCT015 FEW030TCU/CB BKN090 BECMG 3016/3018 09007KT 4000 HZ FEW020 SCT100", "TAF VOPC 300500Z 3006/3015 14010KT 6000 SCT020 SCT100 TEMPO 3009/3015 SCT020 FEW025TCU/CB SCT100", "TAF VORY 300500Z 3006/3015 30005KT 6000 SCT020 SCT025 TEMPO 3009/3014 32010KT 3000 TSRA SCT015 SCT025 FEW030CB", "TAF VOSM 300500Z 3006/3015 14010KT 6000 SCT020 SCT100 TEMPO 3009/3015 SCT020 FEW025TCU/CB SCT100", "TAF VOSR 300800Z 3009/3018 29010KT 6000 FEW020 TEMPO 3009/3014 28008G18KT 7000 BECMG 3016/3018 33010KT 5000 HZ FU", "TAF VOTK 300500Z 3006/3015 11010KT 6000 SCT020 SCT100 TEMPO 3009/3015 SCT020 FEW025TCU/CB SCT100", "TAF VOTP 300500Z 3006/3015 30006KT 6000 SCT020 TEMPO 3009/3014 22010KT 3000 TSRA SCT015 SCT025 FEW030CB", "TAF VOTR 300500Z 3006/0112 14010KT 5000 HZ SCT018 SCT100 TEMPO 3009/3015 4000 -TSRA/RA SCT016 FEW025TCU/CB BKN080 BECMG 3015/3016 3000 BR BECMG 3021/3022 VRB02KT BECMG 0103/0104 23005KT 5000 BR BECMG 0106/0107 14010KT 6000", "TAF VOTV 292300Z 3000/0106 VRB02KT 3000 -RA BR SCT012 BKN080 BECMG 3003/3005 23005KT 5000 HZ SCT015 FEW025TCU SCT080 TEMPO 3008/3013 21010KT 3000 TSRA RA FEW008 SCT012 FEW025CB BKN080 BECMG 3014/3016 20005KT 3500 -RA BR SCT012 SCT080 TEMPO 3022/0102 VRB02KT 2500 BR -RA SCT015 FEW025CB BKN080 BECMG 0103/0105 22005KT 5000 HZ SCT015 FEW025TCU SCT080", "TAF COR VOVZ 300500Z 3006/3015 25009KT 4000 HZ SCT018 SCT080 TEMPO 3009/3013 25010G20KT 3000 TSRA/RA SCT018 FEW025TCU/CB SCT080", "TAF VRMG 300500Z 3006/0112 26010KT 9999 SCT017TCU BKN110 TEMPO 3006/3012 3000 TSRA SCT016CB", "TAF VRMH 300500Z 3006/0112 08005KT 9999 FEW018TCU TEMPO 3006/3012 5000 TSRA FEW017CB", "TAF VRMM 300500Z 3006/0112 28005KT 9999 FEW017TCU TEMPO 3006/3012 3000 TSRA SCT016CB", "TAF VTBD 300500Z 3006/0112 10005KT 9000 SCT020 TEMPO 3006/3008 VRB15KT -TSRA FEW018CB SCT030 BKN080 BECMG 3010/3012 18005KT BECMG 3018/3020 08005KT TEMPO 0101/0105 VRB15G25KT 3000 TSRA FEW018CB SCT030 BKN080", "TAF VTBO 300500Z 3006/0106 08005KT 8000 SCT020 TEMPO 3006/3010 VRB20KT 4000 TSRA FEW018CB SCT030 BKN080 TEMPO 0100/0104 VRB20KT 4000 TSRA FEW018CB SCT030 BKN080", "TAF VTBS 300500Z 3006/0112 10005KT 9000 SCT020 TEMPO 3006/3008 VRB20KT 4000 TSRA FEW018CB SCT030 BKN080 BECMG 3010/3012 18005KT BECMG 3018/3020 08005KT TEMPO 0101/0105 VRB15G25KT 3000 TSRA FEW018CB SCT030 BKN080", "TAF VTBU 300500Z 3006/0106 18008KT 8000 FEW020 SCT040 TEMPO 3006/3011 VRB15KT 5000 TSRA FEW018CB SCT035 BKN100 TEMPO 0100/0105 VRB15KT 5000 TSRA FEW018CB SCT035 BKN100", "TAF VTCC 300500Z 3006/0112 15008KT 8000 SCT035 BECMG 3010/3012 21007KT TEMPO 3015/3021 -TSRA FEW025CB SCT035 TEMPO 3023/0103 -TSRA FEW025CB SCT035 BECMG 0101/0103 15005KT", "TAF VTCH 300500Z 3006/0106 04005KT 6000 SCT025 BECMG 3007/3009 17005KT BECMG 3020/3022 30005KT TEMPO 3022/0104 -TSRA FEW018CB BKN025", "TAF VTCL 300500Z 3006/0106 20005KT 9999 SCT025 TEMPO 3009/3015 -TSRA FEW020CB BKN025 TEMPO 3020/0102 -TSRA FEW020CB BKN025", "TAF VTCN 300500Z 3006/0106 22008KT 9999 SCT035 TEMPO 3006/3012 -TSRA FEW018CB BKN035 BECMG 3011/3013 36005KT TEMPO 3018/3024 -TSRA FEW018CB BKN035", "TAF VTCP 300500Z 3006/0106 22005KT 9999 SCT035 TEMPO 3006/3012 03010G25KT 4000 TSRA FEW025CB BKN035 TEMPO 3018/3024 -TSRA FEW025CB BKN035", "TAF VTCT 300500Z 3006/0112 05005KT 9999 SCT040 TEMPO 3012/3018 02010G25KT 4000 TSRA FEW020CB BKN025 TEMPO 3020/0102 -TSRA FEW020CB BKN025", "TAF VTPB 300500Z 3006/0106 02005KT 9999 FEW030 TEMPO 3015/3021 36015G25KT 4000 TSRA FEW018CB BKN030", "TAF VTPH 300500Z 3006/0106 14008KT 9999 FEW020 BECMG 3014/3016 00000KT TEMPO 0100/0106 4000 RA", "TAF COR VTPM 300500Z 3006/0106 07005KT 9999 SCT030 BECMG 3007/3009 25005KT TEMPO 3011/3017 -TSRA FEW018CB BKN030", "TAF VTPO 300500Z 3006/0106 14005KT 9999 FEW030 TEMPO 3014/3020 -TSRA FEW018CB BKN025", "TAF VTPP 300500Z 3006/0106 13007KT 9999 FEW035 TEMPO 3012/3018 -TSRA FEW025CB BKN030", "TAF VTPT 300500Z 3006/0106 14005KT 9999 SCT026 TEMPO 3011/3017 05010G25KT 4000 TSRA FEW018CB BKN026", "TAF VTSB 300500Z 3006/0106 04010KT 9999 SCT020 TEMPO 3007/3013 VRB15G25KT 4000 TSRA FEW016CB SCT018 BKN100 BECMG 3016/3018 23003KT BECMG 0103/0105 05008KT", "TAF VTSC 300500Z 3006/0106 06008KT 9999 SCT020 SCT100 TEMPO 3006/3014 VRB15G25KT 4000 TSRA FEW016CB SCT018 BKN100 BECMG 3014/3016 20004KT TEMPO 0100/0106 4000 RA", "TAF VTSE 300500Z 3006/0106 12008KT 9999 FEW020 BECMG 3013/3015 30003KT TEMPO 0100/0106 4000 RA", "TAF VTSF 300500Z 3006/0106 07008KT 9999 SCT020 PROB40 TEMPO 3006/3012 VRB15G25KT 4000 TSRA FEW016CB SCT018 BKN100 BECMG 3013/3015 30003KT TEMPO 0100/0106 4000 RA", "TAF VTSG 300500Z 3006/0106 06006KT 9999 SCT020 BECMG 3006/3008 20007KT TEMPO 3008/3012 -TSRA FEW018CB SCT020 BKN100 BECMG 3012/3014 08006KT", "TAF VTSM 300500Z 3006/0106 12008KT 9999 FEW020 BECMG 3016/3018 00000KT TEMPO 0100/0104 4000 RA BECMG 0104/0106 14008KT", "TAF VTSP 300500Z 3006/0112 10008KT 9999 SCT020 BECMG 3006/3008 30007KT TEMPO 3008/3014 -TSRA FEW018CB SCT020 BKN100 BECMG 3014/3016 08006KT", "TAF VTSR 300500Z 3006/0106 11006KT 9999 SCT030 BECMG 3006/3008 30007KT TEMPO 3008/3012 -TSRA FEW018CB SCT020 BKN100 BECMG 3012/3014 00000KT BECMG 0102/0104 10006KT", "TAF VTSS 300500Z 3006/0106 06010KT 9999 SCT020 PROB40 TEMPO 3006/3013 VRB15G25KT 4000 TSRA FEW016CB SCT018 BKN100 BECMG 3013/3015 00000KT PROB40 TEMPO 3020/0103 4000 RA BECMG 0103/0105 06010KT", "TAF VTST 300500Z 3006/0106 06006KT 9999 SCT020 TEMPO 3006/3012 -TSRA FEW018CB SCT020 BKN100", "TAF VTSY 300500Z 3006/0106 05006KT 9999 SCT020 TEMPO 3007/3013 VRB15G25KT 3000 TSRA FEW016CB SCT018 BKN100 BECMG 3013/3015 00000KT BECMG 3021/3023 1500 BR BKN005 BECMG 0104/0106 05006KT 9999 NSW FEW020", "TAF VTUD 300500Z 3006/0106 05005KT 8000 FEW030 TEMPO 3008/3016 VRB15KT 4000 TSRA FEW018CB BKN030", "TAF VTUI 300500Z 3006/0106 11005KT 8000 FEW030 TEMPO 3007/3015 VRB15KT 4000 TSRA FEW018CB BKN030", "TAF VTUK 300500Z 3006/0106 10005KT 8000 FEW030 TEMPO 3008/3016 VRB15KT 4000 TSRA FEW018CB BKN030", "TAF VTUL 300500Z 3006/0106 10005KT 7000 FEW030 TEMPO 3007/3015 VRB15KT 4000 TSRA FEW018CB BKN030", "TAF VTUO 300500Z 3006/0106 03005KT 9000 SCT020 BECMG 3020/3021 10005KT", "TAF VTUQ 300500Z 3006/0106 12005KT 9000 FEW030 BECMG 3007/3009 05005KT BECMG 3020/3021 13005KT", "TAF VTUU 300500Z 3006/0106 03005KT 9000 SCT020 BECMG 3020/3021 13005KT", "TAF VTUV 300500Z 3006/0106 07005KT 9000 SCT020 BECMG 0101/0103 12005KT", "TAF VTUW 300500Z 3006/0106 11005KT 8000 FEW030 TEMPO 3007/3015 VRB15KT 4000 TSRA FEW018CB BKN030", "TAF VVCI 300500Z 3006/0106 07005KT 9999 SCT020 BKN060", "TAF VVCR 300500Z 3006/0106 04012KT 8000 SCT015 SCT060 BECMG 3015/3016 32007KT TEMPO 3022/0102 4500 RA BECMG 0102/0103 04010KT", "TAF VVCT 300500Z 3006/0106 10008KT 9999 SCT015 TEMPO 3007/3012 5000 TSRA BKN015 FEW017CB", "TAF VVDN 300500Z 3006/0106 35012KT 8000 SCT015 SCT060 PROB30 TEMPO 3007/3011 4000 SHRA SCT013 FEW015CB BKN060", "TAF VVNB 300500Z 3006/0106 09005KT 8000 SCT025 BKN060 BECMG 3021/3022 4000 BR BECMG 0102/0103 6000 NSW", "TAF VVPB 300500Z 3006/0106 28007KT 6000 SCT013 BKN040 TEMPO 3006/3012 2000 RA BR SCT008 BKN040 TEMPO 3012/3015 4000 RA BR TEMPO 3020/0102 4000 RA BR", "TAF VVPQ 300500Z 3006/0106 10008KT 9999 SCT015 TEMPO 3012/3015 5000 TSRA BKN015 FEW017CB", "TAF VVTS 300500Z 3006/0112 11008KT 9999 SCT017 TEMPO 3007/3011 25016G27KT 3000 TSRA BKN013 SCT015CB TEMPO 0108/0112 5000 TSRA BKN013 SCT015CB", "TAF VVVD 300500Z 3006/0106 08005KT 9999 SCT020 BKN060", "TAF VYMD 300500Z 3006/0106 18005KT 7000 FEW025 TEMPO 3006/3012 18007KT 6000 HZ SCT020", "TAF VYNT 300500Z 3006/0106 20008KT 7000 SCT020 SCT120 TEMPO 3006/3012 16010KT 7000 TS SCT020 FEW025CB SCT110", "TAF VYYY 300500Z 3006/0106 20008KT 7000 SCT025 TEMPO 3006/3012 24005KT 6000 HZ SCT025", "TAF WAAA 300500Z 3006/0112 28010KT 9999 SCT019 TEMPO 3006/3008 5000 RA FEW018CB BECMG 3011/3012 11003KT", "TAF WABB 292300Z 3000/0106 06005KT 9999 SCT018 PROB40 TEMPO 3008/3010 5000 RA", "TAF WADD 300500Z 3006/0106 11010KT 9999 SCT016", "TAF AMD WADL 300900Z 3009/0106 13010KT 8000 SCT016", "TAF WAMM 300500Z 3006/0112 24009KT 9999 SCT020 BECMG 3011/3012 VRB03KT", "TAF WAOO 291700Z 2918/3018 02005KT 9000 SCT017 BECMG 3003/3005 19010KT PROB40 TEMPO 3006/3010 3000 TSRA FEW015CB", "TAF WAPP 300500Z 3006/0106 24007KT 9999 SCT017", "TAF WARR 300500Z 3006/0106 09008KT 9999 FEW020 PROB40 TEMPO 3006/3010 4000 TSRA SCT020CB BECMG 3017/3019 25003KT 5000 HZ BECMG 3022/0100 9999 NSW", "TAF WATT 300500Z 3006/0106 14008KT 9999 FEW018", "TAF WBGB 300500Z 3006/0106 13005KT 9999 FEW016 TEMPO 3007/3011 5000 RA SCT016", "TAF WBGG 300500Z 3006/0106 VRB03KT 9999 FEW020 TEMPO 3007/3011 33010KT 4000 TSRA FEW015CB SCT020", "TAF WBGR 300500Z 3006/0106 22005KT 9999 SCT016 TEMPO 3006/3009 27010KT 5000 TSRA FEW015CB SCT016 TEMPO 3010/3013 5000 RA FEW005 SCT016", "TAF WBGS 300500Z 3006/0106 VRB03KT 9999 SCT017 TEMPO 3006/3009 31010KT 3000 TSRA FEW015CB SCT016 TEMPO 3010/3013 14005KT 5000 RA FEW005 SCT016", "TAF WBKK 300500Z 3006/0106 23005KT 9999 FEW014 TEMPO 3006/3010 4000 TSRA FEW010 FEW016CB SCT035 BECMG 3010/3012 11005KT", "TAF WBKL 300500Z 3006/0106 VRB03KT 9999 FEW014 TEMPO 3007/3011 5000 TSRA FEW010 FEW016CB SCT030", "TAF WBKS 300500Z 3006/0106 04007KT 9999 FEW016", "TAF WBKW 300500Z 3006/0106 16006KT 9999 FEW016 PROB40 TEMPO 3006/3009 6000 -TSRA FEW015CB SCT027", "TAF WBSB 300500Z 3006/0112 33008KT 9999 FEW015 FEW016CB TEMPO 3008/3012 6000 -TSRA BECMG 3012/3014 04005KT FEW014 FEW015CB", "TAF WIDD 300500Z 3006/0106 02005KT 9999 SCT014 TEMPO 3008/3012 5000 TSRA FEW013CB", "TAF WIEE 300500Z 3006/0106 21005KT 9999 FEW020 TEMPO 3007/3011 2000 RA BKN015", "TAF WIHH 300500Z 3006/0106 26010KT 7000 SCT020 TEMPO 3008/3011 35012KT 3000 RA FEW018CB BECMG 3012/3014 33006KT 5000 HZ TEMPO 3016/3019 24010KT 3000 TSRA FEW017CB BKN018", "TAF WIII 300500Z 3006/0112 VRB05KT 8000 FEW020 TEMPO 3012/3016 5000 TSRA FEW020CB BKN020 BECMG 3016/3018 4000 BR SCT020 BECMG 3023/0101 8000 NSW", "TAF WIMM 300500Z 3006/0106 35010KT 9999 FEW016CB SCT017 BECMG 3011/3013 VRB05KT 5000 HZ SCT017", "TAF WIPB 300500Z 3006/3018 36006KT 9999 SCT010 TEMPO 3012/3016 5000 -TSRA FEW010CB BKN010", "TAF WIPP 300500Z 3006/0106 29008KT 9999 SCT010 TEMPO 3007/3011 3000 TSRA FEW010CB BKN010", "TAF WIPY 300500Z 3006/3018 29006KT 9999 SCT010 TEMPO 3008/3012 3000 TSRA FEW009CB BKN010", "TAF WITT 300500Z 3006/0106 34006KT 8000 SCT018 PROB40 TEMPO 3008/3012 4000 TSRA FEW016CB BECMG 3013/3015 16005KT", "TAF WMAP 300500Z 3006/0106 VRB02KT 9999 FEW018 TEMPO 3006/3009 4000 TSRA FEW017CB", "TAF WMBT 300500Z 3006/0106 24004KT 9999 FEW020 PROB30 TEMPO 3006/3009 8000 TSRA FEW017CB", "TAF WMKA 300500Z 3006/0106 VRB06KT 9999 FEW020 TEMPO 3007/3013 5000 TSRA FEW017CB SCT020", "TAF WMKB 300500Z 3006/0106 31003KT 9000 FEW020 TEMPO 3010/3015 5000 TSRA FEW017CB", "TAF WMKC 300500Z 3006/0106 VRB02KT 9999 FEW018 TEMPO 3006/3010 6000 TSRA FEW017CB", "TAF WMKE 300500Z 3006/0106 VRB02KT 9999 FEW017 TEMPO 3006/3010 6000 TSRA FEW014CB", "TAF WMKI 300500Z 3006/0106 04005KT 9999 FEW020 TEMPO 3007/3012 22010KT 5000 TSRA FEW017CB", "TAF WMKJ 300500Z 3006/0106 VRB02KT 9999 FEW018 TEMPO 3006/3010 4000 TSRA FEW017CB", "TAF AMD WMKK 300751Z 3007/0112 VRB02KT 9999 FEW018 TEMPO 3007/3010 4000 TSRA FEW017CB TEMPO 3012/3017 4000 TSRA FEW017CB SCT022", "TAF WMKL 300500Z 3006/0106 VRB07KT 9999 FEW020 PROB30 TEMPO 3007/3012 6000 TSRA FEW017CB SCT020", "TAF WMKM 300500Z 3006/0106 VRB02KT 9999 FEW018 TEMPO 3009/3015 4000 TSRA FEW017CB", "TAF WMKN 300500Z 3006/0106 VRB02KT 9999 FEW020 TEMPO 3006/3010 6000 TSRA FEW016CB", "TAF AMD WMKP 300924Z 3009/0106 23008KT 9000 FEW017CB TEMPO 3010/3014 6000 TSRA FEW010 FEW017CB BECMG 3013/3015 04004KT FEW025", "TAF WMPA 300500Z 3006/0106 VRB02KT 9999 FEW021 TEMPO 3006/3011 6000 TSRA FEW017CB", "TAF AMD WMSA 300752Z 3007/0106 VRB02KT 9999 FEW018 TEMPO 3007/3010 4000 TSRA FEW017CB TEMPO 3012/3017 4000 TSRA FEW017CB SCT022", "TAF WPDL 300530Z 3006/3018 35010KT 9999 FEW030", "TAF AMD WSAP 300800Z 3008/0112 03007KT 9999 FEW015 SCT020 TEMPO 3008/3010 3000 TSRA FEW012CB BKN015", "TAF AMD WSSL 300800Z 3008/0112 03007KT 9999 FEW015 SCT020 TEMPO 3008/3010 3000 TSRA FEW012CB BKN015", "TAF AMD WSSS 300800Z 3008/0112 03007KT 9999 FEW015 SCT020 TEMPO 3008/3010 3000 TSRA FEW012CB BKN015", "TAF YAMB 300502Z 3006/0106 28011KT CAVOK FM300900 VRB03KT CAVOK FM302300 25012KT CAVOK", "TAF YBAS 300525Z 3006/0106 12010KT CAVOK FM300900 12006KT CAVOK FM301500 08006KT CAVOK FM010000 01010KT CAVOK", "TAF YBBN 300804Z 3009/0112 26008KT CAVOK FM302300 25013KT CAVOK", "TAF YBCG 300811Z 3009/0106 25005KT 9999 FEW030 FM010000 06008KT CAVOK", "TAF YBCS 300808Z 3009/0106 19005KT 9999 SCT025 FM010030 10010KT 9999 FEW035", "TAF YBHM 300507Z 3006/3018 10010KT 9999 FEW030 FM301200 14010KT 9999 -SHRA SCT025", "TAF YBLN 300508Z 3006/0106 22009KT 9999 SCT035 SCT050 FM301300 15005KT 9999 SCT030 SCT045 FM301700 15005KT 9999 -SHRA SCT018 BKN030 FM302200 14009KT 9999 NSW BKN030 FM010500 17010KT 9999 BKN050", "TAF YBMA 300505Z 3006/3018 18010KT CAVOK FM300800 17008KT CAVOK", "TAF YBRK 300507Z 3006/0106 22007KT 9999 FEW050 FM301200 18005KT CAVOK", "TAF YBRM 300504Z 3006/0106 14010KT CAVOK FM300700 20010KT CAVOK FM301400 13005KT CAVOK", "TAF YBSU 300506Z 3006/0106 11008KT 9999 SCT045 FM300900 26006KT 9999 FEW040 FM010000 24010KT CAVOK", "TAF YBTL 300519Z 3006/0106 05008KT 9999 -SHRA SCT045 FM301000 13006KT 9999 NSW SCT025 FM301400 22007KT 9999 SCT030 FM010100 08012KT 9999 FEW035", "TAF YBWW 300507Z 3006/0106 25010KT 9999 SCT045 FM300800 24006KT 9999 FEW030 FM010000 25014KT CAVOK", "TAF YCFS 300539Z 3006/0106 10005KT 9999 FEW025 FM300900 30005KT 9999 SCT050 FM301500 23005KT 9999 SCT040 FM010000 18008KT 9999 SCT030", "TAF YCIN 300717Z 3008/3020 17007KT CAVOK", "TAF YFRT 300712Z 3008/3020 17008KT 9999 BKN050 FM300900 05006KT 9999 SCT050", "TAF AMD YGEL 300923Z 3009/0100 17017KT CAVOK FM301200 14010KT CAVOK", "TAF YGLA 300506Z 3006/3018 03008KT 9999 SCT050 FM300900 20005KT 9999 FEW045", "TAF YHID 300518Z 3006/0106 12014KT CAVOK FM300900 12012KT 9999 -SHRA FEW018 FM010000 12016KT CAVOK", "TAF AMD YLHI 300502Z 3005/0106 06012KT 9999 SCT025 FM301600 04014KT 9999 -SHRA SCT015 BKN025 FM010000 35016KT 9999 -SHRA SCT015 BKN025 INTER 3016/3018 5000 SHRA BKN015 TEMPO 3018/0106 VRB18G30KT 3000 SHRA SCT008 BKN010 SCT025TCU PROB30 TEMPO 3022/0106 VRB20G35KT 1000 TSRA BKN008 SCT025CB", "TAF YMAV 300507Z 3006/0106 16005KT CAVOK FM301200 27005KT 9999 SCT040 FM010000 VRB04KT CAVOK", "TAF YMHB 300804Z 3009/0106 34008KT CAVOK FM010000 34006KT 9999 -RA BKN045", "TAF AMD YMLT 300804Z 3008/0106 33010KT 9999 SCT025 BKN035 FM300900 36006KT 9999 SCT020 FM301300 VRB04KT 9999 SCT015 FM302100 18004KT 9999 -RA FEW015 BKN040 FM010000 17005KT 9999 -RA BKN040 PROB30 3012/3014 3000 BR PROB30 3014/3021 0300 FG BKN001", "TAF YMML 300811Z 3009/0112 19006KT CAVOK FM301300 28005KT CAVOK FM010200 20004KT 9999 SCT040 FM011000 33005KT 9999 FEW020 BKN030", "TAF AMD YPAD 300910Z 3009/0112 07004KT 9999 -SHRA SCT015 BKN035 FM301100 03005KT 9999 -SHRA SCT015 BKN020 BECMG 3018/3020 03005KT 9999 -SHRA BKN010 BECMG 0100/0102 32005KT 9999 -SHRA SCT020 BKN050 FM010600 26005KT 9999 -SHRA SCT030 INTER 3009/3020 4000 SHRA BKN010 TEMPO 3020/0102 4000 SHRA BKN006 INTER 0102/0106 4000 SHRA BKN010", "TAF YPCC 300526Z 3006/0106 09010KT 9999 SCT015 SCT050 FM300800 13012KT 9999 SCT012 BKN040 INTER 3006/0104 2000 SHRA BKN010 PROB30 TEMPO 3006/3010 VRB20G35KT 1000 TSRA BKN008 SCT020CB", "TAF YPDN 300813Z 3009/0112 31008KT CAVOK FM301200 22005KT CAVOK FM301600 14005KT 9999 FEW020 FM010000 12012KT 9999 SCT025 FM011000 01005KT 9999 SCT025", "TAF YPEA 300509Z 3006/0100 20010KT CAVOK FM301100 18007KT CAVOK FM301500 14005KT CAVOK", "TAF YPGV 300737Z 3008/3020 14014KT 9999 SCT020 INTER 3008/3012 3000 SHRA SCT012", "TAF YPJT 300509Z 3006/0100 19010KT CAVOK FM301100 18007KT CAVOK FM301500 15005KT CAVOK", "TAF YPKG 300510Z 3006/0106 VRB05KT CAVOK FM300900 02005KT CAVOK FM301400 10004KT CAVOK FM301700 15004KT CAVOK", "TAF YPKU 300731Z 3008/3020 10008KT 9999 FU NSC", "TAF AMD YPLM 300519Z 3006/0106 35012KT 9999 SCT030 FM300900 22010KT 9999 SCT030 FM302000 16007KT 9999 FEW040 INTER 3006/3020 4000 SHRA SCT015 PROB30 TEMPO 3012/3018 VRB20G35KT 1000 TSRA BKN010 SCT040CB", "TAF YPPD 300521Z 3006/0106 12010KT CAVOK", "TAF YPPH 300807Z 3009/0112 19012KT CAVOK FM301200 17008KT CAVOK FM301800 13005KT CAVOK FM010100 11010KT CAVOK FM010700 16009KT CAVOK", "TAF YPTN 300534Z 3006/0106 12010KT 9999 FU NSC FM300900 12005KT 9999 FU NSC FM010000 10010KT 9999 FU NSC", "TAF YPWR 300512Z 3006/0100 19008KT CAVOK FM300900 VRB03KT CAVOK", "TAF AMD YPXM 300534Z 3006/0106 20010KT 9999 BKN008 FM010000 29010KT 9999 BKN005 TEMPO 3006/0100 2000 SHRA BKN005 TEMPO 0100/0106 2000 SHRA BKN003", "TAF AMD YSCB 300827Z 3008/0106 20006KT 9999 -RA SCT020 BKN030 BECMG 3014/3016 33005KT 9999 -DZ BKN010 FM302000 33005KT 9999 -DZ BKN005 BECMG 3023/0101 33008KT 9999 -SHRA BKN020 FM010200 33010KT 9999 NSW BKN025 INTER 3008/3016 3000 RA SCT005 BKN008 TEMPO 3016/0100 3000 DZ BKN004", "TAF YSDU 300447Z 3006/0100 25010KT 9999 SCT045 FM300900 27005KT 9999 SCT045 FM302200 27010KT 9999 SCT010 PROB30 3016/3023 0500 FG BKN001", "TAF YSNF 300505Z 3006/0106 25014KT 9999 SCT025 FM302100 32010KT 9999 SCT025", "TAF YSRI 300513Z 3006/0106 25005KT 9999 SCT030 FM301200 VRB03KT 9999 FEW030 FM010200 26005KT 9999 FEW035 PROB30 3016/3021 0500 FG", "TAF YSSY 300806Z 3009/0112 25008KT 9999 FEW035 FM301300 30007KT 9999 FEW030 FM010400 25010KT 9999 FEW040", "TAF YSTW 300438Z 3006/0100 30010KT 9999 SCT035 FM300900 34005KT 9999 SCT045 FM302300 30008KT 9999 FEW050 PROB30 3018/3022 0500 FG", "TAF YWLM 300537Z 3006/0106 30014KT 9999 FEW030 FM300900 30005KT CAVOK FM302200 28014KT CAVOK PROB30 3016/3022 0500 FG", "TAF AMD ZBHH 301004Z 3006/0106 22004MPS CAVOK TX21/3007Z TN02/3022Z", "TAF ZKPY 300410Z 3006/0106 28007MPS CAVOK TX19/3006Z TN06/3021Z BECMG 3010/3012 24004MPS", "TAF COR ZKWS 300410Z 3006/0106 27004MPS CAVOK TX20/3006Z TN10/3021Z", "TAF ZMCK 300454Z 3006/0112 26005MPS 9999 SCT033 TX21/3007Z TN08/3023Z BECMG 3011/3013 VRB02MPS BECMG 0104/0106 26005MPS FEW030CB SCT033", "TAF ZMUB 300452Z 3006/0112 25006MPS 9999 SCT033 TX21/3007Z TN05/3023Z BECMG 3009/3011 VRB02MPS BECMG 3013/3015 17008MPS SCT033 SCT100 BECMG 3020/3022 VRB02MPS BECMG 0103/0105 27007MPS"]}