{"station_id": ["AGGH", "AYMH", "AYPY", "AZUH", "BGBW", "BGGH", "BGJN", "BGKK", "BGSF", "BGTL", "BIAR", "BIEG", "BIHN", "BIKF", "BIRK", "BKPR", "CAHR", "CBAR", "CBBC", "CERM", "CFOX", "CMFM", "CMGB", "CPBT", "CPEH", "CPFI", "CPIN", "CPIR", "CPRO", "CPRY", "CPST", "CPSV", "CTCK", "CTNK", "CTRA", "CWAE", "CWAF", "CWAJ", "CWAQ", "CWAR", "CWAV", "CWBA", "CWBK", "CWBO", "CWBS", "CWBT", "CWBU", "CWBV", "CWBY", "CWBZ", "CWCF", "CWCJ", "CWCO", "CWCT", "CWDA", "CWDC", "CWDJ", "CWDK", "CWDM", "CWDO", "CWDQ", "CWDT", "CWDV", "CWDZ", "CWEB", "CWEE", "CWEF", "CWEH", "CWEK", "CWEL", "CWEP", "CWEQ", "CWER", "CWEU", "CWEW", "CWEZ", "CWFD", "CWFF", "CWFJ", "CWFQ", "CWGB", "CWGD", "CWGH", "CWGL", "CWGM", "CWGR", "CWGT", "CWGW", "CWGY", "CWHI", "CWHL", "CWHO", "CWHP", "CWHQ", "CWHT", "CWHV", "CWID", "CWIG", "CWIJ", "CWIK", "CWIL", "CWIP", "CWIS", "CWIT", "CWIW", "CWIX", "CWIZ", "CWJB", "CWJC", "CWJD", "CWJH", "CWJI", "CWJO", "CWJR", "CWJT", "CWJU", "CWJV", "CWJW", "CWJX", "CWKG", "CWKH", "CWKK", "CWKM", "CWKO", "CWKP", "CWKX", "CWLC", "CWLE", "CWLI", "CWLM", "CWLS", "CWLX", "CWLY", "CWME", "CWMJ", "CWMM", "CWMQ", "CWMT", "CWMZ", "CWNC", "CWND", "CWNE", "CWNH", "CWNK", "CWNM", "CWNP", "CWNQ", "CWNZ", "CWOB", "CWOC", "CWOD", "CWOE", "CWOY", "CWPC", "CWPD", "CWPE", "CWPF", "CWPK", "CWPO", "CWPR", "CWPX", "CWPZ", "CWQH", "CWQK", "CWQO", "CWQP", "CWQR", "CWQS", "CWQV", "CWRA", "CWRH", "CWRJ", "CWRK", "CWRM", "CWRN", "CWRO", "CWRT", "CWRU", "CWRX", "CWRY", "CWRZ", "CWSA", "CWSD", "CWSF", "CWSG", "CWSK", "CWSL", "CWSP", "CWSR", "CWSS", "CWST", "CWSW", "CWTA", "CWTG", "CWTN", "CWTT", "CWTY", "CWUS", "CWUW", "CWUX", "CWVF", "CWVH", "CWVI", "CWVN", "CWVP", "CWVQ", "CWVT", "CWVU", "CWWA", "CWWB", "CWWE", "CWWF", "CWWK", "CWWL", "CWWS", "CWWZ", "CWXA", "CWXC", "CWXI", "CWXL", "CWYJ", "CWYL", "CWYY", "CWZA", "CWZG", "CWZL", "CWZN", "CWZO", "CWZQ", "CWZW", "CXAF", "CXAG", "CXAJ", "CXAK", "CXAT", "CXBA", "CXBI", "CXBK", "CXBO", "CXBR", "CXBW", "CXCA", "CXCD", "CXCK", "CXCP", "CXCS", "CXDB", "CXDE", "CXDI", "CXDK", "CXDW", "CXEA", "CXEC", "CXEG", "CXET", "CXFM", "CXFR", "CXGH", "CXHA", "CXHD", "CXHM", "CXHP", "CXHR", "CXIB", "CXKA", "CXKE", "CXKI", "CXKM", "CXKT", "CXLB", "CXLL", "CXMD", "CXMG", "CXMI", "CXMM", "CXMO", "CXMY", "CXNM", "CXNP", "CXOL", "CXOX", "CXOY", "CXPA", "CXPC", "CXPL", "CXRB", "CXRH", "CXRL", "CXSC", "CXSE", "CXSH", "CXSL", "CXSP", "CXTD", "CXTH", "CXTN", "CXTO", "CXTP", "CXTV", "CXVM", "CXVN", "CXVW", "CXWN", "CXYH", "CXZC", "CXZV", "CYAB", "CYAH", "CYAM", "CYAS", "CYAT", "CYAW", "CYAY", "CYAZ", "CYBB", "CYBC", "CYBD", "CYBG", "CYBK", "CYBL", "CYBQ", "CYBR", "CYBU", "CYBV", "CYBW", "CYBX", "CYCA", "CYCB", "CYCD", "CYCG", "CYCK", "CYCO", "CYCP", "CYCQ", "CYCS", "CYCX", "CYCY", "CYDA", "CYDB", "CYDC", "CYDF", "CYDL", "CYDN", "CYDP", "CYDQ", "CYED", "CYEG", "CYEK", "CYEN", "CYER", "CYET", "CYEV", "CYFB", "CYFC", "CYFO", "CYFR", "CYFS", "CYFT", "CYGE", "CYGH", "CYGK", "CYGL", "CYGP", "CYGR", "CYGT", "CYGV", "CYGW", "CYGX", "CYHA", "CYHD", "CYHE", "CYHI", "CYHK", "CYHM", "CYHU", "CYHY", "CYHZ", "CYIK", "CYIN", "CYIO", "CYIV", "CYJF", "CYJT", "CYKA", "CYKD", "CYKF", "CYKG", "CYKJ", "CYKL", "CYKQ", "CYKY", "CYLA", "CYLC", "CYLD", "CYLH", "CYLJ", "CYLL", "CYLT", "CYLU", "CYLW", "CYMA", "CYMH", "CYMM", "CYMO", "CYMT", "CYMU", "CYMX", "CYNA", "CYND", "CYNE", "CYNM", "CYOC", "CYOD", "CYOJ", "CYOO", "CYOW", "CYOY", "CYPA", "CYPC", "CYPD", "CYPE", "CYPG", "CYPH", "CYPL", "CYPO", "CYPQ", "CYPR", "CYPW", "CYPX", "CYPY", "CYQA", "CYQB", "CYQD", "CYQF", "CYQG", "CYQH", "CYQI", "CYQK", "CYQL", "CYQM", "CYQQ", "CYQR", "CYQT", "CYQU", "CYQV", "CYQW", "CYQX", "CYQY", "CYQZ", "CYRA", "CYRB", "CYRJ", "CYRL", "CYRQ", "CYRT", "CYRV", "CYSB", "CYSC", "CYSF", "CYSJ", "CYSK", "CYSM", "CYSN", "CYSP", "CYSY", "CYTE", "CYTH", "CYTL", "CYTQ", "CYTR", "CYTS", "CYTZ", "CYUA", "CYUB", "CYUL", "CYUS", "CYUT", "CYUX", "CYUY", "CYVC", "CYVL", "CYVM", "CYVO", "CYVP", "CYVQ", "CYVR", "CYVT", "CYVV", "CYWA", "CYWE", "CYWG", "CYWH", "CYWJ", "CYWK", "CYWL", "CYWY", "CYXC", "CYXE", "CYXH", "CYXJ", "CYXL", "CYXN", "CYXP", "CYXQ", "CYXR", "CYXS", "CYXT", "CYXU", "CYXX", "CYXY", "CYXZ", "CYYB", "CYYC", "CYYD", "CYYE", "CYYF", "CYYG", "CYYH", "CYYJ", "CYYL", "CYYN", "CYYQ", "CYYR", "CYYT", "CYYU", "CYYW", "CYYY", "CYYZ", "CYZE", "CYZF", "CYZG", "CYZH", "CYZP", "CYZR", "CYZS", "CYZT", "CYZU", "CYZV", "CYZW", "CYZX", "CYZY", "CZBF", "CZCP", "CZCR", "CZDB", "CZEL", "CZEM", "CZEV", "CZFA", "CZFM", "CZFN", "CZFS", "CZHY", "CZKD", "CZMD", "CZMJ", "CZMT", "CZOL", "CZPC", "CZPS", "CZRP", "CZSJ", "CZSM", "CZSP", "CZST", "CZTB", "CZUM", "CZVL", "CZZJ", "DAAE", "DAAG", "DAAJ", "DAAP", "DAAS", "DAAT", "DAAV", "DAAY", "DABB", "DABC", "DABS", "DABT", "DAOB", "DAOI", "DAOL", "DAON", "DAOO", "DAOR", "DAOV", "DAOY", "DAUA", "DAUB", "DAUE", "DAUG", "DAUH", "DAUI", "DAUK", "DAUL", "DAUO", "DAUT", "DAUU", "DAUZ", "DBBB", "DFFD", "DFOO", "DGAA", "DIAP", "DIBK", "DIYO", "DNAA", "DNIL", "DNKA", "DNKN", "DNKT", "DNMN", "DRRN", "DTKA", "DTMB", "DTNH", "DTTA", "DTTB", "DTTD", "DTTF", "DTTG", "DTTJ", "DTTK", "DTTL", "DTTN", "DTTX", "DTTZ", "DXXX", "EBAW", "EBBE", "EBBL", "EBBR", "EBCI", "EBCV", "EBDT", "EBFN", "EBFS", "EBLB", "EBLG", "EBOS", "EDAC", "EDBC", "EDDB", "EDDC", "EDDE", "EDDF", "EDDG", "EDDH", "EDDK", "EDDL", "EDDM", "EDDN", "EDDP", "EDDR", "EDDS", "EDDV", "EDDW", "EDFH", "EDFM", "EDGS", "EDHI", "EDHK", "EDHL", "EDJA", "EDLN", "EDLP", "EDLV", "EDLW", "EDMA", "EDMO", "EDNY", "EDQM", "EDSB", "EDTL", "EDTY", "EDVE", "EDVK", "EDWE", "EDXW", "EEEI", "EEKE", "EEPU", "EETN", "EETU", "EFET", "EFHA", "EFHK", "EFIV", "EFJO", "EFJY", "EFKE", "EFKI", "EFKK", "EFKS", "EFKT", "EFKU", "EFLP", "EFMA", "EFMI", "EFOU", "EFPO", "EFRO", "EFSA", "EFSI", "EFTP", "EFTU", "EFUT", "EFVA", "EGAA", "EGAC", "EGAE", "EGBB", "EGCC", "EGCK", "EGCN", "EGDM", "EGDR", "EGDY", "EGFF", "EGGD", "EGGP", "EGGW", "EGHH", "EGHI", "EGHQ", "EGJB", "EGJJ", "EGKA", "EGKB", "EGKK", "EGLC", "EGLF", "EGLL", "EGMC", "EGMD", "EGNH", "EGNJ", "EGNM", "EGNR", "EGNS", "EGNT", "EGNV", "EGNX", "EGOM", "EGOP", "EGOS", "EGOV", "EGPA", "EGPB", "EGPC", "EGPD", "EGPE", "EGPF", "EGPH", "EGPI", "EGPK", "EGPL", "EGPN", "EGPO", "EGPU", "EGQA", "EGQK", "EGQL", "EGQM", "EGQS", "EGSH", "EGSS", "EGSY", "EGTC", "EGTE", "EGTK", "EGUB", "EGUL", "EGUN", "EGUW", "EGVA", "EGVN", "EGVO", "EGVP", "EGWU", "EGXC", "EGXE", "EGXP", "EGXS", "EGXV", "EGXW", "EGXZ", "EGYD", "EGYE", "EGYH", "EGYM", "EGYP", "EHAK", "EHAM", "EHBK", "EHDL", "EHDV", "EHEH", "EHFD", "EHFS", "EHGG", "EHGR", "EHHW", "EHJA", "EHJR", "EHKD", "EHKV", "EHLE", "EHLW", "EHMA", "EHMG", "EHPG", "EHQE", "EHRD", "EHSA", "EHSC", "EHVK", "EHVL", "EHWO", "EICK", "EIDL", "EIDW", "EIME", "EINN", "EISG", "EIWF", "EKAH", "EKBI", "EKCH", "EKEB", "EKKA", "EKRK", "EKRN", "EKSB", "EKSP", "EKVD", "EKVG", "EKYT", "ELLX", "ENAL", "ENAN", "ENAT", "ENBL", "ENBN", "ENBO", "ENBR", "ENBS", "ENBV", "ENCN", "ENDR", "ENDU", "ENEV", "ENFB", "ENFL", "ENGC", "ENGM", "ENHD", "ENHE", "ENHF", "ENHK", "ENHM", "ENHV", "ENJS", "ENKB", "ENKR", "ENLA", "ENLE", "ENLK", "ENMH", "ENML", "ENMS", "ENNA", "ENNE", "ENNM", "ENOA", "ENOL", "ENOV", "ENQA", "ENQC", "ENQR", "ENRA", "ENRM", "ENRO", "ENRS", "ENRY", "ENSB", "ENSD", "ENSE", "ENSF", "ENSG", "ENSH", "ENSK", "ENSL", "ENSR", "ENSS", "ENST", "ENTC", "ENTO", "ENUG", "ENVA", "ENVD", "ENWV", "ENZV", "EPBY", "EPGD", "EPKK", "EPKT", "EPLB", "EPLL", "EPMO", "EPPO", "EPRZ", "EPSC", "EPSY", "EPWA", "EPWR", "EPZG", "ESCF", "ESCM", "ESDF", "ESGG", "ESGJ", "ESGP", "ESGT", "ESIA", "ESIB", "ESKM", "ESKN", "ESKS", "ESMK", "ESMQ", "ESMS", "ESMT", "ESMV", "ESMX", "ESND", "ESNG", "ESNK", "ESNL", "ESNN", "ESNO", "ESNQ", "ESNS", "ESNU", "ESNV", "ESNX", "ESNZ", "ESOE", "ESOH", "ESOK", "ESOW", "ESPA", "ESPE", "ESSA", "ESSB", "ESSD", "ESSP", "ESST", "ESSV", "ESTA", "ESTL", "ESUP", "ESUT", "ETAD", "ETAR", "ETEB", "ETGG", "ETHA", "ETHB", "ETHC", "ETHF", "ETHL", "ETHN", "ETHS", "ETIC", "ETIH", "ETIK", "ETMN", "ETNG", "ETNH", "ETNL", "ETNN", "ETNS", "ETNT", "ETNW", "ETOU", "ETSB", "ETSH", "ETSI", "ETSL", "ETSN", "ETWM", "EVGA", "EVLA", "EVRA", "EVVA", "EYKA", "EYPA", "EYSA", "EYVI", "FABL", "FACT", "FAGG", "FAJB", "FAKM", "FALA", "FALE", "FALW", "FAOR", "FAPE", "FAPP", "FAUP", "FAUT", "FAWK", "FBMN", "FBPM", "FBSK", "FDBB", "FDMY", "FDOT", "FDPP", "FDST", "FGSL", "FIMP", "FJDG", "FKKR", "FMCZ", "FMEE", "FMEP", "FMMI", "FMMT", "FMNM", "FMSD", "FNCA", "FNLU", "FOOG", "FQBR", "FQIN", "FQLC", "FQMA", "FQPB", "FQQL", "FQTT", "FQVL", "FQXA", "FSIA", "FTTA", "FTTJ", "FWKI", "FYLZ", "FYWB", "FYWW", "FZAA", "GABS", "GBYD", "GCFV", "GCGM", "GCHI", "GCLA", "GCLP", "GCRR", "GCTS", "GCXO", "GECE", "GEML", "GFLL", "GGOV", "GLRB", "GMAD", "GMAZ", "GMFF", "GMFK", "GMFM", "GMFO", "GMMB", "GMMC", "GMMD", "GMME", "GMMH", "GMMI", "GMML", "GMMN", "GMMW", "GMMX", "GMMZ", "GMTA", "GMTN", "GMTT", "GOBD", "GQNO", "GQPP", "GUNZ", "GVAC", "GVBA", "GVNP", "GVSV", "HEAT", "HEBA", "HEBL", "HECA", "HEGN", "HELX", "HEMA", "HEMM", "HEPS", "HESG", "HESH", "HESN", "HESW", "HETR", "HKEL", "HKGO", "HKJK", "HKKI", "HKKT", "HKME", "HKML", "HKMO", "HKNI", "HKNK", "HKNW", "HRYR", "HSDN", "HSOB", "HSPN", "HSSK", "HTDA", "HTKJ", "HTMW", "HTZA", "HUEN", "K04V", "K04W", "K05U", "K06C", "K06D", "K08D", "K0A0", "K0A9", "K0CO", "K0E0", "K0F2", "K0J4", "K0R0", "K0R4", "K0S9", "K0V4", "K0VG", "K10G", "K11R", "K12N", "K13K", "K14Y", "K15M", "K17J", "K18A", "K18H", "K19S", "K1A5", "K1A6", "K1A9", "K1AM", "K1BM", "K1CM", "K1D1", "K1F0", "K1FM", "K1H2", "K1HM", "K1IM", "K1JM", "K1K1", "K1KM", "K1LM", "K1M4", "K1M5", "K1MM", "K1MW", "K1NM", "K1OM", "K1P1", "K1R7", "K1R8", "K1S3", "K1S5", "K1U7", "K1V4", "K1V6", "K1YT", "K20U", "K20V", "K21D", "K22N", "K24A", "K24J", "K27K", "K28J", "K2A0", "K2C8", "K2D5", "K2DP", "K2G2", "K2G4", "K2G9", "K2J3", "K2J5", "K2J9", "K2M2", "K2P2", "K2R9", "K2V5", "K2W6", "K2WX", "K33N", "K33V", "K35A", "K36K", "K38S", "K3AU", "K3D2", "K3F3", "K3J7", "K3K3", "K3LF", "K3N8", "K3S8", "K3U3", "K40B", "K40U", "K41U", "K42J", "K46D", "K46U", "K48A", "K49A", "K4A6", "K4A9", "K4BM", "K4F2", "K4M9", "K4MR", "K4O4", "K4R5", "K4S1", "K4S2", "K4V0", "K4V1", "K54A", "K54J", "K57C", "K5C1", "K5H4", "K5M9", "K5R8", "K5SM", "K5T9", "K63S", "K65S", "K66R", "K6A1", "K6A2", "K6B0", "K6B9", "K6I2", "K6L4", "K6P9", "K6R6", "K6S0", "K6S2", "K6S8", "K74V", "K77S", "K79J", "K7BM", "K7L2", "K7N0", "K7W4", "K7W6", "K81R", "K82C", "K82V", "K8A0", "K8A3", "K8D3", "K8T6", "K8W2", "K96D", "K9A5", "K9D7", "K9L2", "K9MN", "K9V9", "KAAA", "KAAF", "KAAO", "KAAS", "KAAT", "KABE", "KABH", "KABI", "KABQ", "KABR", "KABY", "KACB", "KACJ", "KACK", "KACP", "KACQ", "KACT", "KACV", "KACY", "KADC", "KADF", "KADG", "KADH", "KADM", "KADS", "KADT", "KADU", "KADW", "KAEG", "KAEJ", "KAEL", "KAEX", "KAFF", "KAFJ", "KAFK", "KAFN", "KAFO", "KAFP", "KAFW", "KAGC", "KAGI", "KAGO", "KAHN", "KAHQ", "KAIA", "KAIG", "KAIK", "KAIO", "KAIT", "KAIZ", "KAJG", "KAJO", "KAJR", "KAJZ", "KAKH", "KAKO", "KAKQ", "KAKR", "KALB", "KALK", "KALM", "KALN", "KALO", "KALS", "KALW", "KALX", "KAMA", "KAMG", "KAMN", "KAMW", "KANB", "KAND", "KANE", "KANJ", "KANK", "KANQ", "KANW", "KAOH", "KAOO", "KAPA", "KAPC", "KAPF", "KAPG", "KAPN", "KAPS", "KAQO", "KAQP", "KAQV", "KAQW", "KAQX", "KARA", "KARB", "KARG", "KARM", "KARR", "KART", "KARV", "KARW", "KASD", "KASE", "KASG", "KASH", "KASJ", "KASL", "KASN", "KAST", "KASW", "KASX", "KATA", "KATL", "KATP", "KATS", "KATT", "KATW", "KATY", "KAUG", "KAUH", "KAUM", "KAUN", "KAUS", "KAUW", "KAVC", "KAVK", "KAVL", "KAVP", "KAVQ", "KAVX", "KAWG", "KAWM", "KAWO", "KAXA", "KAXH", "KAXN", "KAXS", "KAXV", "KAXX", "KAYS", "KAZC", "KAZE", "KAZO", "KBAB", "KBAC", "KBAD", "KBAF", "KBAK", "KBAM", "KBAN", "KBAX", "KBAZ", "KBBB", "KBBD", "KBBG", "KBBP", "KBBW", "KBCB", "KBCK", "KBCR", "KBCT", "KBDE", "KBDG", "KBDH", "KBDL", "KBDR", "KBDU", "KBEA", "KBEC", "KBED", "KBEH", "KBFD", "KBFF", "KBFI", "KBFL", "KBFM", "KBGD", "KBGE", "KBGF", "KBGM", "KBGR", "KBHB", "KBHC", "KBHK", "KBHM", "KBID", "KBIE", "KBIF", "KBIH", "KBIJ", "KBIL", "KBIS", "KBIV", "KBIX", "KBJC", "KBJI", "KBJJ", "KBKB", "KBKD", "KBKE", "KBKF", "KBKL", "KBKS", "KBKT", "KBKV", "KBKW", "KBKX", "KBLF", "KBLH", "KBLI", "KBLM", "KBLU", "KBLV", "KBMC", "KBMG", "KBMI", "KBML", "KBMQ", "KBMT", "KBNA", "KBNL", "KBNO", "KBNW", "KBOI", "KBOK", "KBOS", "KBOW", "KBPG", "KBPI", "KBPK", "KBPT", "KBQK", "KBQP", "KBQX", "KBRD", "KBRG", "KBRL", "KBRO", "KBRY", "KBTA", "KBTL", "KBTM", "KBTP", "KBTR", "KBTV", "KBUF", "KBUR", "KBUU", "KBUY", "KBVI", "KBVN", "KBVO", "KBVS", "KBVU", "KBVX", "KBVY", "KBWG", "KBWI", "KBWP", "KBWW", "KBXA", "KBXK", "KBYG", "KBYI", "KBYL", "KBYS", "KBYY", "KBZN", "KC07", "KC09", "KC29", "KC35", "KC65", "KC75", "KC83", "KC99", "KCAD", "KCAE", "KCAG", "KCAK", "KCAO", "KCAR", "KCAV", "KCBE", "KCBF", "KCBG", "KCBK", "KCBM", "KCCA", "KCCB", "KCCO", "KCCR", "KCCU", "KCCY", "KCDA", "KCDC", "KCDD", "KCDH", "KCDI", "KCDJ", "KCDN", "KCDR", "KCDS", "KCDW", "KCEC", "KCEF", "KCEU", "KCEW", "KCEY", "KCEZ", "KCFD", "KCFE", "KCFJ", "KCFS", "KCFV", "KCGC", "KCGE", "KCGF", "KCGI", "KCGS", "KCGZ", "KCHA", "KCHD", "KCHK", "KCHO", "KCHS", "KCIC", "KCID", "KCIN", "KCIR", "KCIU", "KCJR", "KCKB", "KCKC", "KCKF", "KCKI", "KCKM", "KCKN", "KCKP", "KCKV", "KCKZ", "KCLE", "KCLI", "KCLK", "KCLL", "KCLM", "KCLS", "KCLT", "KCLW", "KCMA", "KCMD", "KCMH", "KCMI", "KCMR", "KCMX", "KCMY", "KCNB", "KCNC", "KCNI", "KCNK", "KCNM", "KCNO", "KCNU", "KCNW", "KCNY", "KCOD", "KCOE", "KCOF", "KCOM", "KCON", "KCOQ", "KCOS", "KCOT", "KCOU", "KCPC", "KCPF", "KCPK", "KCPR", "KCPS", "KCPT", "KCPU", "KCPW", "KCQB", "KCQC", "KCQF", "KCQM", "KCQT", "KCQW", "KCQX", "KCRE", "KCRG", "KCRP", "KCRQ", "KCRS", "KCRW", "KCRX", "KCSG", "KCSM", "KCSQ", "KCSV", "KCTB", "KCTJ", "KCTY", "KCTZ", "KCUB", "KCUH", "KCUL", "KCUT", "KCVC", "KCVG", "KCVH", "KCVN", "KCVO", "KCVS", "KCVX", "KCWA", "KCWC", "KCWF", "KCWI", "KCWN", "KCWV", "KCXE", "KCXO", "KCXP", "KCXU", "KCXW", "KCXY", "KCYD", "KCYS", "KCZL", "KCZT", "KD07", "KD25", "KD39", "KD50", "KD55", "KD57", "KD60", "KD73", "KD95", "KDAA", "KDAB", "KDAG", "KDAL", "KDAN", "KDAW", "KDAY", "KDBN", "KDBQ", "KDCA", "KDCM", "KDCU", "KDCY", "KDDC", "KDDH", "KDEC", "KDED", "KDEH", "KDEN", "KDEQ", "KDET", "KDEW", "KDFI", "KDFW", "KDGW", "KDHN", "KDHT", "KDIJ", "KDIK", "KDKB", "KDKK", "KDKR", "KDKX", "KDLF", "KDLH", "KDLL", "KDLN", "KDLO", "KDLS", "KDLZ", "KDMA", "KDMH", "KDMN", "KDMO", "KDMW", "KDNA", "KDNL", "KDNN", "KDNV", "KDOV", "KDPA", "KDPG", "KDPL", "KDQH", "KDRA", "KDRI", "KDRM", "KDRO", "KDRT", "KDSF", "KDSM", "KDSV", "KDTA", "KDTL", "KDTN", "KDTO", "KDTS", "KDTW", "KDUA", "KDUB", "KDUC", "KDUH", "KDUJ", "KDUX", "KDVK", "KDVL", "KDVN", "KDVO", "KDVP", "KDVT", "KDWA", "KDWH", "KDWU", "KDWX", "KDXR", "KDXX", "KDYA", "KDYB", "KDYL", "KDYR", "KDYS", "KDYT", "KDZB", "KDZJ", "KE11", "KE16", "KE38", "KE41", "KE42", "KEAN", "KEAR", "KEAT", "KEAU", "KEBA", "KEBG", "KEBS", "KECG", "KECP", "KECS", "KECU", "KEDE", "KEDJ", "KEDN", "KEDU", "KEDW", "KEED", "KEEN", "KEEO", "KEET", "KEFD", "KEFK", "KEFT", "KEGE", "KEGI", "KEGT", "KEGV", "KEHA", "KEHO", "KEHR", "KEIK", "KEKM", "KEKN", "KEKO", "KEKQ", "KEKS", "KEKX", "KEKY", "KELA", "KELD", "KELK", "KELM", "KELN", "KELO", "KELP", "KELY", "KELZ", "KEMM", "KEMP", "KEMT", "KEMV", "KEND", "KENV", "KENW", "KEOE", "KEPH", "KEQA", "KEQY", "KERI", "KERV", "KERY", "KESC", "KESF", "KESN", "KEST", "KETB", "KETC", "KETH", "KETN", "KEUF", "KEUG", "KEVB", "KEVM", "KEVU", "KEVV", "KEVW", "KEWB", "KEWK", "KEWN", "KEWR", "KEXX", "KEYE", "KEYF", "KEYW", "KEZF", "KEZM", "KEZS", "KEZZ", "KF00", "KF05", "KF17", "KF44", "KF46", "KF70", "KFAF", "KFAM", "KFAR", "KFAT", "KFAY", "KFBG", "KFBL", "KFCI", "KFCM", "KFCS", "KFDR", "KFDW", "KFDY", "KFEP", "KFET", "KFEW", "KFFA", "KFFC", "KFFL", "KFFM", "KFFO", "KFFT", "KFFX", "KFFZ", "KFGX", "KFHB", "KFHR", "KFHU", "KFIG", "KFIN", "KFIT", "KFKA", "KFKL", "KFKN", "KFKR", "KFKS", "KFLD", "KFLG", "KFLL", "KFLO", "KFLP", "KFLY", "KFME", "KFMH", "KFMM", "KFMN", "KFMY", "KFNB", "KFNL", "KFNT", "KFOA", "KFOD", "KFOE", "KFOK", "KFOT", "KFOZ", "KFPK", "KFPR", "KFPY", "KFQD", "KFRG", "KFRH", "KFRI", "KFRM", "KFRR", "KFSD", "KFSE", "KFSI", "KFSK", "KFSM", "KFSO", "KFST", "KFSW", "KFTK", "KFTN", "KFTW", "KFTY", "KFUL", "KFVE", "KFVX", "KFWA", "KFWB", "KFWC", "KFWN", "KFWS", "KFWZ", "KFXE", "KFXY", "KFYE", "KFYG", "KFYJ", "KFYV", "KFZG", "KGAD", "KGAF", "KGAG", "KGAI", "KGAO", "KGBD", "KGBG", "KGBK", "KGCC", "KGCD", "KGCK", "KGCM", "KGCN", "KGCY", "KGDB", "KGDJ", "KGDP", "KGDV", "KGED", "KGEG", "KGEU", "KGEV", "KGEY", "KGEZ", "KGFA", "KGFK", "KGFL", "KGGE", "KGGF", "KGGG", "KGGP", "KGGW", "KGHB", "KGHG", "KGHW", "KGIC", "KGIF", "KGJT", "KGKJ", "KGKT", "KGKY", "KGLD", "KGLE", "KGLH", "KGLR", "KGLS", "KGLW", "KGLX", "KGLY", "KGMJ", "KGMU", "KGNA", "KGNB", "KGNC", "KGNG", "KGNR", "KGNT", "KGNV", "KGOK", "KGON", "KGOO", "KGOP", "KGOV", "KGPC", "KGPH", "KGPI", "KGPM", "KGPT", "KGPZ", "KGRB", "KGRD", "KGRF", "KGRI", "KGRK", "KGRN", "KGRR", "KGRY", "KGSB", "KGSH", "KGSO", "KGSP", "KGTB", "KGTF", "KGTR", "KGTU", "KGUC", "KGUP", "KGUR", "KGUS", "KGUY", "KGVL", "KGVQ", "KGVT", "KGVW", "KGWB", "KGWO", "KGWR", "KGWW", "KGXF", "KGXY", "KGYB", "KGYF", "KGYH", "KGYI", "KGYL", "KGYR", "KGYY", "KGZH", "KGZL", "KGZN", "KGZS", "KH71", "KHAE", "KHAF", "KHAI", "KHAO", "KHBG", "KHBI", "KHBR", "KHBV", "KHCD", "KHCO", "KHCR", "KHDE", "KHDL", "KHDN", "KHDO", "KHEF", "KHEG", "KHEI", "KHEQ", "KHEY", "KHEZ", "KHFD", "KHFF", "KHFJ", "KHFY", "KHGR", "KHHF", "KHHG", "KHHR", "KHHV", "KHHW", "KHIB", "KHIE", "KHIF", "KHII", "KHIO", "KHJH", "KHJO", "KHKA", "KHKS", "KHKY", "KHLB", "KHLC", "KHLG", "KHLN", "KHLR", "KHLX", "KHME", "KHMN", "KHMP", "KHMT", "KHMZ", "KHNB", "KHND", "KHNR", "KHNZ", "KHOB", "KHOE", "KHON", "KHOP", "KHOT", "KHOU", "KHPN", "KHPT", "KHQG", "KHQG", "KHQM", "KHQU", "KHQZ", "KHRF", "KHRI", "KHRJ", "KHRL", "KHRO", "KHRT", "KHRX", "KHSA", "KHSB", "KHSD", "KHSE", "KHSI", "KHSP", "KHST", "KHSV", "KHTL", "KHTS", "KHUA", "KHUF", "KHUL", "KHUM", "KHUT", "KHVE", "KHVN", "KHVR", "KHVS", "KHWD", "KHWO", "KHWV", "KHWY", "KHXD", "KHYA", "KHYI", "KHYR", "KHYS", "KHYW", "KHYX", "KHZD", "KHZE", "KHZL", "KHZR", "KHZX", "KHZY", "KI23", "KI35", "KI63", "KI67", "KI68", "KI69", "KI74", "KI75", "KIAB", "KIAD", "KIAG", "KIAH", "KIBM", "KICL", "KICR", "KICT", "KIDA", "KIDI", "KIDP", "KIEN", "KIER", "KIFA", "KIFP", "KIGM", "KIGQ", "KIIY", "KIJD", "KIJX", "KIKK", "KIKV", "KIKW", "KILE", "KILG", "KILM", "KILN", "KIML", "KIMS", "KIMT", "KIND", "KINF", "KINJ", "KINK", "KINL", "KINS", "KINT", "KINW", "KIOB", "KIOW", "KIPJ", "KIPL", "KIPT", "KIRK", "KIRS", "KISM", "KISO", "KISP", "KISQ", "KISW", "KITH", "KITR", "KIUA", "KIWA", "KIWD", "KIWI", "KIXA", "KIXD", "KIYA", "KIZA", "KIZG", "KJAC", "KJAN", "KJAQ", "KJAS", "KJAU", "KJAX", "KJBR", "KJCA", "KJCT", "KJDD", "KJDN", "KJEF", "KJER", "KJES", "KJFK", "KJFX", "KJFZ", "KJHN", "KJHW", "KJKA", "KJKJ", "KJKL", "KJLN", "KJMR", "KJMS", "KJNX", "KJOT", "KJPX", "KJQF", "KJRB", "KJRO", "KJSL", "KJSO", "KJST", "KJSV", "KJSY", "KJTC", "KJVL", "KJVW", "KJVY", "KJWG", "KJWY", "KJXI", "KJXN", "KJYG", "KJYL", "KJYM", "KJYO", "KJYR", "KJZI", "KK62", "KK70", "KK88", "KKLS", "KKY8", "KL08", "KL18", "KL35", "KL52", "KLAA", "KLAF", "KLAL", "KLAM", "KLAN", "KLAR", "KLAS", "KLAW", "KLAX", "KLBB", "KLBE", "KLBF", "KLBL", "KLBO", "KLBT", "KLCG", "KLCH", "KLCI", "KLCK", "KLCQ", "KLDJ", "KLDM", "KLEB", "KLEE", "KLEW", "KLEX", "KLFI", "KLFK", "KLFT", "KLGA", "KLGB", "KLGC", "KLGD", "KLGF", "KLGU", "KLHB", "KLHM", "KLHQ", "KLHW", "KLHX", "KLHZ", "KLIC", "KLIT", "KLJF", "KLKR", "KLKU", "KLKV", "KLLJ", "KLLN", "KLLQ", "KLMO", "KLMT", "KLNA", "KLNC", "KLND", "KLNK", "KLNL", "KLNN", "KLNP", "KLNQ", "KLNR", "KLNS", "KLOL", "KLOM", "KLOR", "KLOT", "KLOU", "KLOZ", "KLPR", "KLQK", "KLRD", "KLRF", "KLRJ", "KLRO", "KLRU", "KLRY", "KLSE", "KLSF", "KLSV", "KLTS", "KLUA", "KLUD", "KLUF", "KLUG", "KLUK", "KLUL", "KLUM", "KLUV", "KLUX", "KLVJ", "KLVK", "KLVL", "KLVM", "KLVN", "KLVS", "KLWA", "KLWB", "KLWC", "KLWD", "KLWM", "KLWS", "KLWT", "KLWV", "KLXL", "KLXN", "KLXT", "KLXV", "KLXY", "KLYH", "KLYO", "KLYV", "KLZU", "KLZZ", "KM01", "KM02", "KM04", "KM08", "KM19", "KM21", "KM25", "KM30", "KM40", "KM54", "KM75", "KM91", "KMAE", "KMAF", "KMAI", "KMAN", "KMAO", "KMAW", "KMBG", "KMBL", "KMBO", "KMBS", "KMBT", "KMBY", "KMCB", "KMCC", "KMCD", "KMCE", "KMCF", "KMCI", "KMCJ", "KMCK", "KMCN", "KMCO", "KMCW", "KMDD", "KMDH", "KMDS", "KMDT", "KMDW", "KMDZ", "KMEB", "KMEH", "KMEI", "KMEM", "KMER", "KMEV", "KMEZ", "KMFD", "KMFE", "KMFI", "KMFR", "KMFV", "KMGC", "KMGE", "KMGG", "KMGJ", "KMGM", "KMGN", "KMGR", "KMGW", "KMGY", "KMHE", "KMHK", "KMHL", "KMHP", "KMHR", "KMHS", "KMHT", "KMIA", "KMIB", "KMIC", "KMIE", "KMIO", "KMIV", "KMIW", "KMJD", "KMJQ", "KMKC", "KMKE", "KMKG", "KMKJ", "KMKL", "KMKN", "KMKO", "KMKS", "KMLB", "KMLC", "KMLE", "KMLF", "KMLI", "KMLJ", "KMLP", "KMLS", "KMLT", "KMLU", "KMMH", "KMMI", "KMMK", "KMMT", "KMMU", "KMNE", "KMNH", "KMNI", "KMNM", "KMNN", "KMNV", "KMNZ", "KMOB", "KMOD", "KMOP", "KMOR", "KMOT", "KMOX", "KMPR", "KMPV", "KMPZ", "KMQB", "KMQI", "KMQJ", "KMQS", "KMQW", "KMQY", "KMRB", "KMRC", "KMRF", "KMRH", "KMRJ", "KMRN", "KMRT", "KMRY", "KMSL", "KMSN", "KMSO", "KMSP", "KMSS", "KMSV", "KMSY", "KMTC", "KMTH", "KMTJ", "KMTK", "KMTN", "KMTO", "KMTP", "KMTV", "KMTW", "KMUI", "KMUO", "KMUT", "KMVE", "KMVH", "KMVL", "KMVN", "KMVY", "KMWA", "KMWC", "KMWH", "KMWK", "KMWL", "KMWM", "KMWN", "KMWO", "KMXF", "KMYF", "KMYJ", "KMYL", "KMYR", "KMYV", "KMYZ", "KMZH", "KMZZ", "KN03", "KN38", "KN60", "KNAK", "KNBC", "KNBG", "KNBT", "KNCA", "KNDZ", "KNEL", "KNEW", "KNFE", "KNFG", "KNFL", "KNFW", "KNGP", "KNGU", "KNHK", "KNID", "KNIP", "KNJK", "KNJM", "KNJW", "KNKT", "KNKX", "KNLC", "KNMM", "KNOG", "KNOW", "KNOZ", "KNPA", "KNQA", "KNQI", "KNQX", "KNRB", "KNRN", "KNRS", "KNSE", "KNSI", "KNTD", "KNTU", "KNUC", "KNUI", "KNUQ", "KNUW", "KNXF", "KNXP", "KNY0", "KNYC", "KNYG", "KNYL", "KNZY", "KO05", "KO22", "KO32", "KO69", "KOAJ", "KOAK", "KOAR", "KOBE", "KOCF", "KOCH", "KOCQ", "KOCW", "KODO", "KODX", "KOEB", "KOEL", "KOEO", "KOFF", "KOFK", "KOFP", "KOGA", "KOGB", "KOGD", "KOGS", "KOIC", "KOIN", "KOJA", "KOJC", "KOKB", "KOKC", "KOKK", "KOKM", "KOKV", "KOKZ", "KOLE", "KOLF", "KOLG", "KOLM", "KOLS", "KOLU", "KOLV", "KOLY", "KOLZ", "KOMA", "KOMH", "KOMK", "KOMN", "KONA", "KONL", "KONM", "KONO", "KONT", "KONX", "KONZ", "KOOA", "KOPF", "KOPL", "KOPN", "KOQN", "KOQT", "KORB", "KORD", "KORE", "KORF", "KORG", "KORH", "KORL", "KORS", "KOSA", "KOSC", "KOSH", "KOSU", "KOTH", "KOTM", "KOUN", "KOVE", "KOVL", "KOVS", "KOWA", "KOWB", "KOWD", "KOWP", "KOWX", "KOXC", "KOXD", "KOXI", "KOXR", "KOXV", "KOZA", "KOZR", "KOZS", "KOZW", "KP08", "KP28", "KP53", "KP58", "KP59", "KP60", "KP68", "KP69", "KPAE", "KPAH", "KPAM", "KPAN", "KPAO", "KPBF", "KPBG", "KPBH", "KPBI", "KPBX", "KPCD", "KPCM", "KPCW", "KPCZ", "KPDC", "KPDK", "KPDT", "KPDX", "KPEA", "KPEO", "KPEQ", "KPEX", "KPEZ", "KPGA", "KPGD", "KPGV", "KPHD", "KPHF", "KPHL", "KPHN", "KPHP", "KPHT", "KPHX", "KPIA", "KPIB", "KPIE", "KPIH", "KPIL", "KPIM", "KPIR", "KPIT", "KPKB", "KPKD", "KPKV", "KPLN", "KPLR", "KPLU", "KPMD", "KPMH", "KPMP", "KPMU", "KPMV", "KPNA", "KPNC", "KPNE", "KPNM", "KPNS", "KPNT", "KPOB", "KPOE", "KPOF", "KPOU", "KPOV", "KPOY", "KPPA", "KPPF", "KPPO", "KPPQ", "KPQI", "KPQL", "KPRB", "KPRC", "KPRG", "KPRN", "KPRO", "KPRS", "KPRX", "KPSC", "KPSF", "KPSK", "KPSM", "KPSN", "KPSO", "KPSP", "KPSX", "KPTB", "KPTD", "KPTK", "KPTN", "KPTS", "KPTT", "KPTV", "KPTW", "KPUB", "KPUC", "KPUJ", "KPUW", "KPVB", "KPVC", "KPVD", "KPVF", "KPVG", "KPVJ", "KPVU", "KPVW", "KPWA", "KPWC", "KPWD", "KPWG", "KPWK", "KPWM", "KPWT", "KPXE", "KPYM", "KPYX", "KPZQ", "KPZZ", "KQAZ", "KQBL", "KQD3", "KQEI", "KQEJ", "KQEN", "KQEP", "KQEQ", "KQER", "KQEV", "KQEW", "KQEX", "KQEY", "KQFB", "KQFT", "KQFU", "KQFV", "KQFW", "KQFX", "KQN3", "KQRH", "KQTZ", "KQVF", "KRAC", "KRAL", "KRAP", "KRAS", "KRAW", "KRBD", "KRBG", "KRBL", "KRBO", "KRBW", "KRCA", "KRCE", "KRCM", "KRCR", "KRCV", "KRCX", "KRCZ", "KRDG", "KRDK", "KRDM", "KRDR", "KRDU", "KREG", "KREO", "KRFD", "KRFI", "KRGA", "KRGK", "KRHI", "KRHP", "KRHV", "KRIC", "KRIL", "KRIV", "KRIW", "KRKP", "KRKR", "KRKS", "KRKW", "KRLD", "KRME", "KRMG", "KRMN", "KRMY", "KRNC", "KRND", "KRNH", "KRNM", "KRNO", "KRNP", "KRNT", "KRNV", "KROA", "KROC", "KROG", "KROS", "KROW", "KROX", "KRPD", "KRPH", "KRPJ", "KRPX", "KRQB", "KRQE", "KRRL", "KRRT", "KRSL", "KRSV", "KRSW", "KRTN", "KRTS", "KRUE", "KRUG", "KRUQ", "KRUT", "KRVF", "KRVJ", "KRVL", "KRVS", "KRWF", "KRWI", "KRWL", "KRWV", "KRXE", "KRYM", "KRYN", "KRYV", "KRYW", "KRYY", "KRZL", "KRZN", "KRZR", "KRZT", "KS21", "KS24", "KS25", "KS32", "KS33", "KS39", "KS52", "KS59", "KS71", "KS85", "KSAA", "KSAC", "KSAD", "KSAF", "KSAN", "KSAR", "KSAT", "KSAV", "KSAW", "KSAZ", "KSBD", "KSBM", "KSBN", "KSBO", "KSBP", "KSBS", "KSBY", "KSCD", "KSCH", "KSCK", "KSCR", "KSCX", "KSDA", "KSDB", "KSDC", "KSDF", "KSDL", "KSDM", "KSDY", "KSEA", "KSEE", "KSEF", "KSEG", "KSEM", "KSEP", "KSEQ", "KSET", "KSEZ", "KSFB", "KSFF", "KSFM", "KSFO", "KSFQ", "KSFY", "KSFZ", "KSGF", "KSGH", "KSGJ", "KSGR", "KSGS", "KSGT", "KSGU", "KSHD", "KSHL", "KSHN", "KSHR", "KSHV", "KSIF", "KSIK", "KSIY", "KSJC", "KSJS", "KSJT", "KSJX", "KSKA", "KSKF", "KSKX", "KSLB", "KSLC", "KSLE", "KSLG", "KSLH", "KSLI", "KSLK", "KSLN", "KSLO", "KSLR", "KSME", "KSMF", "KSMN", "KSMO", "KSMP", "KSMQ", "KSMS", "KSMX", "KSNA", "KSNC", "KSNH", "KSNK", "KSNL", "KSNS", "KSNT", "KSNY", "KSOA", "KSOP", "KSOW", "KSPA", "KSPB", "KSPD", "KSPF", "KSPG", "KSPI", "KSPS", "KSPW", "KSQI", "KSRB", "KSRC", "KSRQ", "KSRR", "KSSC", "KSSF", "KSSI", "KSTC", "KSTE", "KSTF", "KSTJ", "KSTK", "KSTL", "KSTP", "KSTS", "KSUA", "KSUE", "KSUN", "KSUS", "KSUT", "KSUU", "KSUW", "KSUX", "KSUZ", "KSVC", "KSVE", "KSVH", "KSVN", "KSWF", "KSWO", "KSWW", "KSXK", "KSXS", "KSXT", "KSXU", "KSYF", "KSYI", "KSYM", "KSYN", "KSYR", "KSZL", "KSZT", "KSZY", "KT20", "KT41", "KT69", "KT70", "KT74", "KT78", "KT82", "KT89", "KTAD", "KTAN", "KTAZ", "KTBN", "KTBR", "KTCC", "KTCL", "KTCM", "KTCS", "KTCY", "KTDF", "KTDR", "KTDZ", "KTEB", "KTEW", "KTEX", "KTFP", "KTGI", "KTHA", "KTHV", "KTIF", "KTIK", "KTIP", "KTIW", "KTIX", "KTKC", "KTKI", "KTKV", "KTKX", "KTLH", "KTMB", "KTME", "KTMK", "KTMT", "KTNB", "KTNU", "KTOA", "KTOB", "KTOC", "KTOI", "KTOL", "KTOP", "KTOR", "KTPA", "KTPH", "KTPL", "KTQE", "KTQH", "KTQK", "KTQV", "KTRI", "KTRK", "KTRL", "KTRM", "KTSP", "KTTA", "KTTD", "KTTF", "KTTN", "KTTS", "KTUL", "KTUP", "KTUS", "KTVC", "KTVF", "KTVI", "KTVL", "KTVR", "KTVY", "KTWF", "KTWM", "KTWT", "KTXK", "KTXW", "KTYL", "KTYQ", "KTYR", "KTYS", "KTZR", "KU42", "KU55", "KU68", "KUAO", "KUBE", "KUCP", "KUCY", "KUDG", "KUES", "KUGN", "KUIL", "KUIN", "KUKF", "KUKI", "KUKL", "KUKT", "KULM", "KULS", "KUMP", "KUNI", "KUNO", "KUNU", "KUNV", "KUOX", "KUSE", "KUTA", "KUTS", "KUUU", "KUVA", "KUXL", "KUYF", "KUZA", "KVAD", "KVAF", "KVAY", "KVBG", "KVBT", "KVCB", "KVCT", "KVCV", "KVDF", "KVDI", "KVEL", "KVER", "KVES", "KVGC", "KVGT", "KVHN", "KVIH", "KVIS", "KVJI", "KVKS", "KVLD", "KVLL", "KVNW", "KVNY", "KVOA", "KVOK", "KVPC", "KVPS", "KVPZ", "KVQQ", "KVRB", "KVSF", "KVTA", "KVTI", "KVTN", "KVTP", "KVUJ", "KVUO", "KVVS", "KVVV", "KVWU", "KVYS", "KW13", "KW22", "KW29", "KW31", "KW63", "KW75", "KW78", "KW81", "KW96", "KW99", "KWAL", "KWBF", "KWDG", "KWDR", "KWHP", "KWJF", "KWLD", "KWMC", "KWRB", "KWRI", "KWRL", "KWST", "KWVI", "KWVL", "KWWD", "KWWR", "KX07", "KX26", "KX60", "KXBP", "KXER", "KXIF", "KXLL", "KXMR", "KXNA", "KXNO", "KXNX", "KXSA", "KXVG", "KXWA", "KY19", "KY23", "KY31", "KY49", "KY50", "KY51", "KY63", "KY70", "KYIP", "KYKM", "KYKN", "KYNG", "KZER", "KZPH", "KZZV", "LATI", "LBBG", "LBGO", "LBIA", "LBPD", "LBPG", "LBPL", "LBSF", "LBWN", "LCEN", "LCLK", "LCPH", "LCRA", "LDDU", "LDOS", "LDPL", "LDRI", "LDSP", "LDZA", "LDZD", "LEAB", "LEAG", "LEAL", "LEAM", "LEAO", "LEAS", "LEBA", "LEBB", "LEBG", "LEBL", "LEBR", "LEBT", "LEBZ", "LECH", "LECO", "LEDA", "LEGE", "LEGR", "LEHC", "LEIB", "LEJR", "LELC", "LELN", "LELO", "LEMD", "LEMG", "LEMH", "LEMI", "LEMO", "LEPA", "LEPP", "LERS", "LERT", "LESA", "LESB", "LESO", "LEST", "LETL", "LETO", "LETU", "LEVC", "LEVD", "LEVS", "LEVT", "LEVX", "LEXJ", "LEZG", "LEZL", "LFAC", "LFAQ", "LFAT", "LFBA", "LFBC", "LFBD", "LFBE", "LFBF", "LFBG", "LFBH", "LFBI", "LFBL", "LFBM", "LFBO", "LFBP", "LFBT", "LFBU", "LFBX", "LFBY", "LFBZ", "LFCK", "LFCR", "LFGA", "LFGJ", "LFHP", "LFJL", "LFJR", "LFKB", "LFKC", "LFKF", "LFKJ", "LFKS", "LFLB", "LFLC", "LFLL", "LFLN", "LFLP", "LFLS", "LFLW", "LFLX", "LFLY", "LFMC", "LFMD", "LFMH", "LFMI", "LFMK", "LFML", "LFMN", "LFMO", "LFMP", "LFMT", "LFMU", "LFMV", "LFMY", "LFOA", "LFOB", "LFOE", "LFOH", "LFOJ", "LFOK", "LFOP", "LFOT", "LFOV", "LFOZ", "LFPB", "LFPG", "LFPM", "LFPN", "LFPO", "LFPT", "LFPV", "LFQA", "LFQB", "LFQQ", "LFRB", "LFRC", "LFRD", "LFRG", "LFRH", "LFRI", "LFRJ", "LFRK", "LFRL", "LFRM", "LFRN", "LFRO", "LFRQ", "LFRS", "LFRT", "LFRU", "LFRV", "LFRZ", "LFSB", "LFSD", "LFSG", "LFSI", "LFSL", "LFSN", "LFSO", "LFST", "LFSX", "LFTH", "LFTW", "LFVP", "LFYR", "LGAD", "LGAL", "LGAV", "LGBL", "LGEL", "LGHI", "LGIO", "LGIR", "LGKF", "LGKL", "LGKO", "LGKP", "LGKR", "LGKV", "LGKZ", "LGLM", "LGMK", "LGMT", "LGPA", "LGPZ", "LGRP", "LGRX", "LGSA", "LGSM", "LGSR", "LGTS", "LGZA", "LHBP", "LHDC", "LHKE", "LHPA", "LHPP", "LHPR", "LHSM", "LHSN", "LIBA", "LIBD", "LIBF", "LIBN", "LIBP", "LIBQ", "LIBR", "LIBV", "LICA", "LICB", "LICC", "LICD", "LICF", "LICJ", "LICR", "LICT", "LICZ", "LIEA", "LIEB", "LIED", "LIEE", "LIEO", "LIMC", "LIME", "LIMF", "LIMJ", "LIML", "LIMP", "LIMS", "LIMU", "LIMZ", "LIPA", "LIPB", "LIPC", "LIPE", "LIPH", "LIPI", "LIPK", "LIPL", "LIPO", "LIPQ", "LIPR", "LIPS", "LIPX", "LIPY", "LIPZ", "LIQC", "LIQO", "LIRA", "LIRE", "LIRF", "LIRK", "LIRM", "LIRN", "LIRP", "LIRQ", "LIRS", "LIRZ", "LIVC", "LIVD", "LIVE", "LIVF", "LIVM", "LIVP", "LIVT", "LJCE", "LJLJ", "LJMB", "LJPZ", "LKCV", "LKKB", "LKKV", "LKLN", "LKMT", "LKNA", "LKPD", "LKPR", "LKTB", "LLBG", "LLER", "LMML", "LOWG", "LOWI", "LOWK", "LOWL", "LOWS", "LOWW", "LOXZ", "LPAZ", "LPBJ", "LPCS", "LPFR", "LPHR", "LPLA", "LPMA", "LPMR", "LPMT", "LPPD", "LPPR", "LPPS", "LPPT", "LQBK", "LQMO", "LQSA", "LQTZ", "LRAR", "LRBC", "LRBM", "LRBO", "LRBS", "LRCK", "LRCL", "LRCT", "LRCV", "LRFT", "LRIA", "LROD", "LROP", "LRSB", "LRSM", "LRSV", "LRTC", "LRTM", "LRTR", "LRTZ", "LSGC", "LSGG", "LSGS", "LSMA", "LSMD", "LSME", "LSMM", "LSMP", "LSZA", "LSZB", "LSZC", "LSZG", "LSZH", "LSZL", "LSZR", "LSZS", "LTAC", "LTAE", "LTAF", "LTAG", "LTAI", "LTAJ", "LTAN", "LTAP", "LTAR", "LTAT", "LTAU", "LTAY", "LTAZ", "LTBA", "LTBF", "LTBH", "LTBJ", "LTBQ", "LTBR", "LTBS", "LTBU", "LTBY", "LTCA", "LTCB", "LTCC", "LTCD", "LTCE", "LTCF", "LTCG", "LTCI", "LTCJ", "LTCN", "LTCS", "LTCT", "LTCV", "LTCW", "LTDA", "LTFC", "LTFD", "LTFE", "LTFG", "LTFH", "LTFJ", "LTFM", "LTFO", "LUKK", "LWOH", "LWSK", "LXGB", "LYBE", "LYBT", "LYKV", "LYNI", "LYPG", "LYTV", "LYVR", "LZIB", "LZKZ", "LZPP", "LZTT", "LZZI", "MBGT", "MBPV", "MDAB", "MDBH", "MDCY", "MDJB", "MDLR", "MDPC", "MDPP", "MDSD", "MDST", "MGCB", "MGES", "MGGT", "MGHT", "MGMM", "MGMT", "MGPB", "MGQZ", "MGRT", "MGSJ", "MGTU", "MGZA", "MHCA", "MHCH", "MHGS", "MHLC", "MHLE", "MHLM", "MHNO", "MHPL", "MHPR", "MHRO", "MHSR", "MHTE", "MHTG", "MHTR", "MHYR", "MKJP", "MKJS", "MMAA", "MMAN", "MMAS", "MMBT", "MMCB", "MMCE", "MMCL", "MMCM", "MMCN", "MMCP", "MMCS", "MMCT", "MMCU", "MMCV", "MMCZ", "MMDO", "MMEP", "MMGL", "MMGM", "MMHO", "MMIA", "MMIO", "MMLM", "MMLO", "MMLP", "MMLT", "MMMA", "MMMD", "MMML", "MMMM", "MMMT", "MMMV", "MMMX", "MMMY", "MMMZ", "MMNL", "MMOX", "MMPA", "MMPB", "MMPG", "MMPN", "MMPQ", "MMPR", "MMPS", "MMQT", "MMRX", "MMSD", "MMSL", "MMSM", "MMSP", "MMTC", "MMTG", "MMTJ", "MMTM", "MMTO", "MMTP", "MMUN", "MMVA", "MMVR", "MMZC", "MMZH", "MMZO", "MNBL", "MNCH", "MNJG", "MNJU", "MNMG", "MNPC", "MNRS", "MPBO", "MPDA", "MPMG", "MPPA", "MPSM", "MPTO", "MRLB", "MRLM", "MROC", "MRPV", "MSAC", "MSLP", "MSLU", "MSSA", "MSSM", "MSSS", "MTPP", "MUCC", "MUCF", "MUCL", "MUCM", "MUCU", "MUGM", "MUHA", "MUHG", "MUSC", "MUVR", "MWCB", "MWCR", "MYGF", "MYNN", "MYSM", "MZBZ", "NCAI", "NCAT", "NCMG", "NCMH", "NCMK", "NCMR", "NCNS", "NCPK", "NCPL", "NCPY", "NCRG", "NCRK", "NCSW", "NFFN", "NFNA", "NFNL", "NFNM", "NFTF", "NFTL", "NFTV", "NGFU", "NGTA", "NIUE", "NLWW", "NSFA", "NSTU", "NTAA", "NWWW", "NZAA", "NZCH", "NZCM", "NZFX", "NZWN", "OBBI", "OEAB", "OEAH", "OEAO", "OEBA", "OEBH", "OEDF", "OEDM", "OEDR", "OEGN", "OEGS", "OEGT", "OEHL", "OEJB", "OEJN", "OEKJ", "OEKM", "OEMA", "OEMN", "OENG", "OEPA", "OERF", "OERK", "OERR", "OESH", "OESK", "OETB", "OETF", "OETR", "OEWD", "OEWJ", "OEYN", "OIAA", "OIAH", "OIAI", "OIAM", "OIAW", "OIBB", "OIBJ", "OIBK", "OIBP", "OICC", "OICI", "OICK", "OICS", "OIFK", "OIFM", "OIFS", "OIGG", "OIHH", "OIHM", "OIIE", "OIII", "OIIK", "OIIP", "OIIS", "OIKB", "OIKK", "OIKO", "OIKQ", "OIMB", "OIMJ", "OIMM", "OIMN", "OIMS", "OIMT", "OINB", "OING", "OINK", "OINN", "OINR", "OINZ", "OISA", "OISF", "OISL", "OISS", "OISY", "OITL", "OITR", "OITT", "OITU", "OIYY", "OIZB", "OIZH", "OIZI", "OJAI", "OJAM", "OJAQ", "OKBK", "OLBA", "OMAA", "OMAD", "OMAL", "OMDB", "OMDW", "OMFJ", "OMRK", "OMSJ", "OOAD", "OODQ", "OOKB", "OOMS", "OOSA", "OOSH", "OPFA", "OPIS", "OPKC", "OPLA", "OPMT", "OPPS", "OPSK", "OPST", "ORBI", "ORER", "ORMM", "ORSU", "OSDI", "OSLK", "OTBD", "OTBH", "OTHH", "PAAD", "PAAK", "PAAQ", "PABA", "PABE", "PABI", "PABL", "PABR", "PABT", "PABV", "PACD", "PACV", "PACZ", "PADG", "PADK", "PADL", "PADM", "PADQ", "PADU", "PAED", "PAEH", "PAEI", "PAEL", "PAEN", "PAFA", "PAFB", "PAFE", "PAFM", "PAFR", "PAFS", "PAGA", "PAGK", "PAGL", "PAGN", "PAGS", "PAGY", "PAHC", "PAHL", "PAHN", "PAHO", "PAHX", "PAHY", "PAIG", "PAIK", "PAIL", "PAIM", "PAIN", "PAIW", "PAJC", "PAJN", "PAJZ", "PAKF", "PAKH", "PAKI", "PAKK", "PAKN", "PAKP", "PAKT", "PAKU", "PAKV", "PAKW", "PAKX", "PALH", "PALJ", "PALP", "PALU", "PAMB", "PAMD", "PAMH", "PAMK", "PAMR", "PANA", "PANC", "PANI", "PANN", "PANV", "PANW", "PAOH", "PAOM", "PAOO", "PAOR", "PAOT", "PAOU", "PAPB", "PAPG", "PAPH", "PAPM", "PAPN", "PAPO", "PAQH", "PAQT", "PARC", "PARS", "PARY", "PASA", "PASC", "PASD", "PASH", "PASI", "PASK", "PASL", "PASM", "PASN", "PASO", "PASV", "PASX", "PASY", "PATA", "PATC", "PATE", "PATG", "PATK", "PATL", "PATO", "PATQ", "PAUN", "PAUT", "PAVA", "PAVC", "PAVD", "PAWD", "PAWG", "PAWI", "PAWM", "PAWN", "PAWS", "PAYA", "PAZK", "PFCL", "PFEL", "PFKT", "PFKW", "PFNO", "PFSH", "PFWS", "PFYU", "PGSN", "PGUA", "PGUM", "PHBK", "PHHI", "PHJR", "PHKO", "PHLI", "PHMK", "PHNG", "PHNL", "PHNY", "PHOG", "PHSF", "PHTO", "PKMR", "PKWA", "PLCH", "PMDY", "PPIZ", "PTKK", "PTTP", "PTYA", "PWAK", "RCKH", "RCMQ", "RCNN", "RCSS", "RCTP", "RJAA", "RJAH", "RJBB", "RJCC", "RJDB", "RJFF", "RJFR", "RJGG", "RJKA", "RJKI", "RJNK", "RJOH", "RJOI", "RJOO", "RJOP", "RJOS", "RJSM", "RJTR", "RJTT", "RJTY", "RKJB", "RKJK", "RKNN", "RKNY", "RKPC", "RKPK", "RKSG", "RKSI", "RKSM", "RKSO", "RKSS", "RKTN", "RKTU", "ROAH", "RODN", "ROIG", "ROMD", "RORK", "RORY", "ROTM", "ROYN", "RPLB", "RPLC", "RPLL", "RPMD", "RPVM", "SAAR", "SABE", "SACO", "SADF", "SAEZ", "SAME", "SANT", "SAOC", "SARC", "SARE", "SARF", "SARI", "SARL", "SARP", "SASA", "SASJ", "SAVC", "SAWE", "SAWG", "SAWH", "SAZM", "SAZN", "SAZS", "SBAF", "SBAN", "SBAR", "SBAT", "SBBE", "SBBG", "SBBH", "SBBI", "SBBQ", "SBBR", "SBBU", "SBBV", "SBBW", "SBCA", "SBCB", "SBCC", "SBCF", "SBCG", "SBCH", "SBCJ", "SBCO", "SBCP", "SBCR", "SBCT", "SBCX", "SBCY", "SBCZ", "SBDN", "SBEG", "SBES", "SBFI", "SBFL", "SBFN", "SBFS", "SBFZ", "SBGL", "SBGM", "SBGO", "SBGR", "SBGW", "SBHT", "SBIH", "SBIL", "SBIP", "SBIZ", "SBJE", "SBJP", "SBJR", "SBJU", "SBJV", "SBKG", "SBKP", "SBLE", "SBLO", "SBLS", "SBMA", "SBME", "SBMG", "SBMK", "SBMN", "SBMO", "SBMQ", "SBMS", "SBMT", "SBMY", "SBNF", "SBNT", "SBOI", "SBPA", "SBPB", "SBPF", "SBPJ", "SBPK", "SBPL", "SBPP", "SBPR", "SBPS", "SBPV", "SBRB", "SBRF", "SBRJ", "SBRP", "SBSC", "SBSG", "SBSJ", "SBSL", "SBSM", "SBSN", "SBSP", "SBSR", "SBST", "SBSV", "SBTA", "SBTD", "SBTE", "SBTF", "SBTT", "SBTU", "SBUA", "SBUF", "SBUL", "SBUR", "SBUY", "SBVH", "SBVT", "SBYS", "SCAP", "SCAR", "SCAS", "SCAT", "SCBA", "SCCC", "SCCF", "SCCH", "SCCI", "SCCY", "SCDA", "SCEL", "SCFA", "SCFM", "SCFT", "SCGE", "SCGZ", "SCHR", "SCIC", "SCIE", "SCIP", "SCIR", "SCJO", "SCMK", "SCNT", "SCON", "SCPD", "SCPQ", "SCQP", "SCRD", "SCRG", "SCRM", "SCSE", "SCSN", "SCTB", "SCTN", "SCVD", "SCVM", "SEAM", "SECA", "SECO", "SECU", "SEGS", "SEGU", "SEGZ", "SEJD", "SELT", "SEMC", "SEMT", "SENL", "SEQM", "SERB", "SERO", "SESA", "SESM", "SEST", "SETN", "SETU", "SFAL", "SGAS", "SGEN", "SGES", "SKAR", "SKBG", "SKBO", "SKBQ", "SKCC", "SKCG", "SKCL", "SKEJ", "SKIB", "SKIP", "SKLC", "SKLT", "SKMD", "SKMR", "SKMZ", "SKNV", "SKPC", "SKPE", "SKPS", "SKPV", "SKRG", "SKRH", "SKSM", "SKSP", "SKUC", "SKUI", "SKVP", "SKVV", "SLAL", "SLCA", "SLCB", "SLCO", "SLCP", "SLET", "SLJE", "SLLP", "SLMG", "SLOR", "SLPS", "SLRB", "SLRI", "SLRQ", "SLRY", "SLSA", "SLSV", "SLTJ", "SLTR", "SLVR", "SLYA", "SMJP", "SMZO", "SOCA", "SPCL", "SPGM", "SPHI", "SPHO", "SPHY", "SPJC", "SPJI", "SPJR", "SPLO", "SPME", "SPMS", "SPQT", "SPQU", "SPRU", "SPSO", "SPST", "SPTN", "SPTU", "SPYL", "SPZO", "SUAA", "SUCA", "SUDU", "SULS", "SUMU", "SUSO", "SVBC", "SVBI", "SVBM", "SVBS", "SVCB", "SVCJ", "SVCS", "SVFM", "SVGD", "SVGU", "SVJC", "SVJM", "SVLO", "SVMC", "SVMG", "SVMI", "SVMT", "SVPA", "SVPR", "SVSR", "SVVA", "SVVG", "SYCJ", "SYEC", "TAPA", "TDCF", "TDPD", "TFFF", "TFFR", "TGPY", "TIST", "TISX", "TJBQ", "TJIG", "TJNR", "TJSJ", "TKPK", "TKPN", "TLPC", "TLPL", "TNCA", "TNCB", "TNCC", "TNCE", "TNCM", "TQPF", "TRPG", "TTCP", "TTPP", "TUPJ", "TVSA", "TXKF", "UAAA", "UACC", "UADD", "UAII", "UAIT", "UAKK", "UAOO", "UARR", "UASK", "UASP", "UATE", "UATG", "UATT", "UAUU", "UBBB", "UBBF", "UBBG", "UBBL", "UBBN", "UBBQ", "UBBY", "UBBZ", "UBEE", "UCFL", "UCFM", "UCFO", "UDSG", "UDYZ", "UEEE", "UERP", "UERR", "UGAM", "UGKO", "UGMS", "UGSB", "UGTB", "UHBB", "UHHH", "UHMA", "UHMM", "UHPP", "UHSS", "UHWW", "UIAA", "UIBB", "UIII", "UIUU", "ULAA", "ULLI", "ULMM", "ULOO", "ULPB", "ULWC", "UMGG", "UMII", "UMIO", "UMKK", "UMMS", "UNAA", "UNBB", "UNEE", "UNKL", "UNNT", "UNOO", "UNTT", "UNWW", "UOOO", "URKA", "URKK", "URMG", "URML", "URMM", "URMN", "URMO", "URMT", "URRP", "URSS", "URWA", "URWI", "URWW", "USCC", "USCM", "USDA", "USHH", "USNN", "USPP", "USRR", "USSS", "USTR", "UTAA", "UTAK", "UTAM", "UTAT", "UTAV", "UTDD", "UTDK", "UTDL", "UTDT", "UTFF", "UTFN", "UTNN", "UTNU", "UTSA", "UTSB", "UTSK", "UTSS", "UTST", "UTTT", "UUBC", "UUBP", "UUBW", "UUDD", "UUDL", "UUEE", "UUMO", "UUOB", "UUOK", "UUOL", "UUOO", "UUWW", "UUYY", "UWGG", "UWKD", "UWKE", "UWKS", "UWLL", "UWLW", "UWOO", "UWOR", "UWPS", "UWSG", "UWUU", "UWWW", "VAAH", "VABB", "VANP", "VCBI", "VDPP", "VEBS", "VECC", "VEGT", "VEGY", "VEPT", "VGHS", "VHHH", "VIAR", "VIDP", "VIJP", "VILK", "VMMC", "VNKT", "VOBL", "VOCB", "VOCI", "VOCL", "VOGO", "VOHS", "VOKN", "VOMD", "VOML", "VOMM", "VOTR", "VOTV", "VOVZ", "VRMG", "VRMH", "VRMM", "VTBD", "VTBS", "VTBU", "VTCC", "VTCT", "VTSG", "VTSP", "VTSS", "VTUK", "VTUU", "VVCI", "VVCR", "VVCT", "VVDN", "VVNB", "VVPB", "VVPQ", "VVTS", "VYYY", "WAAA", "WABB", "WADD", "WALL", "WAOO", "WAPP", "WARR", "WBGB", "WBGG", "WBGR", "WBGS", "WBGY", "WBKK", "WBKL", "WBKS", "WBKT", "WBKW", "WBSB", "WIDD", "WIII", "WIMM", "WIOO", "WMAU", "WMBA", "WMKA", "WMKB", "WMKC", "WMKD", "WMKE", "WMKI", "WMKJ", "WMKK", "WMKL", "WMKM", "WMKN", "WMKP", "WMSA", "WSAP", "WSSL", "WSSS", "YAMB", "YAYE", "YBAS", "YBBN", "YBCG", "YBCS", "YBHM", "YBLN", "YBMA", "YBRK", "YBRM", "YBTL", "YBUD", "YBWP", "YBWW", "YCFS", "YCIN", "YCOM", "YFRT", "YGEL", "YGFN", "YGLA", "YGTH", "YHID", "YKRY", "YLHI", "YMAV", "YMAY", "YMDG", "YMEN", "YMER", "YMHB", "YMIA", "YMLT", "YMML", "YMTG", "YNAR", "YPAD", "YPCC", "YPDN", "YPEA", "YPGV", "YPJT", "YPKG", "YPKU", "YPLM", "YPPD", "YPPH", "YPTN", "YPWR", "YPXM", "YSCB", "YSDU", "YSNF", "YSNW", "YSRI", "YSSY", "YSTW", "YTRE", "YWHA", "YWLM", "ZBAA", "ZBAD", "ZBHH", "ZBSJ", "ZBTJ", "ZBYN", "ZGGG", "ZGHA", "ZGKL", "ZGNN", "ZGOW", "ZGSZ", "ZHCC", "ZHHH", "ZJHK", "ZJSY", "ZLLL", "ZLXY", "ZMCK", "ZMUB", "ZPPP", "ZSAM", "ZSFZ", "ZSHC", "ZSNB", "ZSNJ", "ZSOF", "ZSPD", "ZSQD", "ZSSS", "ZUCK", "ZUGY", "ZUTF", "ZUUU", "ZWSH", "ZWWW", "ZYCC", "ZYHB", "ZYTL", "ZYTX"], "observation_time": ["2022-10-24T19:00:00Z", "2022-10-24T19:00:00Z", "2022-10-24T19:00:00Z", "2022-10-24T19:00:00Z", "2022-10-24T18:50:00Z", "2022-10-24T18:50:00Z", "2022-10-24T18:50:00Z", "2022-10-24T18:50:00Z", "2022-10-24T18:50:00Z", "2022-10-24T18:55:00Z", "2022-10-24T19:00:00Z", "2022-10-24T19:00:00Z", "2022-10-24T19:00:00Z", "2022-10-24T19:30:00Z", "2022-10-24T19:00:00Z", "2022-10-24T19:30:00Z", "2022-10-24T19:00:00Z", "2022-10-24T19:18:00Z", "2022-10-24T19:33:00Z", "2022-10-24T19:00:00Z", "2022-10-24T19:00:00Z", "2022-10-24T19:00:00Z", "2022-10-24T19:00:00Z", "2022-10-24T19:00:00Z", "2022-10-24T19:00:00Z", "2022-10-24T19:00:00Z", "2022-10-24T19:30:00Z", "2022-10-24T19:00:00Z", "2022-10-24T19:00:00Z", "2022-10-24T19:00:00Z", "2022-10-24T19:00:00Z", "2022-10-24T19:00:00Z", "2022-10-24T19:00:00Z", "2022-10-24T19:00:00Z", "2022-10-24T19:00:00Z", "2022-10-24T19:00:00Z", "2022-10-24T19:00:00Z", "2022-10-24T19:00:00Z", "2022-10-24T19:00:00Z", "2022-10-24T19:00:00Z", "2022-10-24T19:00:00Z", "2022-10-24T19:00:00Z", "2022-10-24T19:00:00Z", "2022-10-24T19:00:00Z", "2022-10-24T19:00:00Z", "2022-10-24T19:00:00Z", "2022-10-24T19:00:00Z", "2022-10-24T19:00:00Z", "2022-10-24T19:00:00Z", "2022-10-24T19:00:00Z", "2022-10-24T19:00:00Z", "2022-10-24T19:00:00Z", "2022-10-24T19:00:00Z", "2022-10-24T19:00:00Z", "2022-10-24T19:00:00Z", "2022-10-24T19:00:00Z", "2022-10-24T19:00:00Z", "2022-10-24T19:00:00Z", "2022-10-24T19:00:00Z", "2022-10-24T19:00:00Z", "2022-10-24T19:00:00Z", "2022-10-24T19:00:00Z", "2022-10-24T19:00:00Z", "2022-10-24T19:00:00Z", "2022-10-24T19:00:00Z", "2022-10-24T19:00:00Z", "2022-10-24T19:00:00Z", "2022-10-24T19:00:00Z", "2022-10-24T19:00:00Z", "2022-10-24T19:00:00Z", "2022-10-24T19:00:00Z", "2022-10-24T19:00:00Z", "2022-10-24T19:00:00Z", "2022-10-24T19:00:00Z", "2022-10-24T19:00:00Z", "2022-10-24T19:00:00Z", "2022-10-24T19:15:00Z", "2022-10-24T19:00:00Z", "2022-10-24T19:00:00Z", "2022-10-24T19:00:00Z", "2022-10-24T19:00:00Z", "2022-10-24T19:00:00Z", "2022-10-24T19:00:00Z", "2022-10-24T19:00:00Z", "2022-10-24T19:00:00Z", "2022-10-24T19:00:00Z", "2022-10-24T19:00:00Z", "2022-10-24T19:00:00Z", "2022-10-24T19:00:00Z", "2022-10-24T19:00:00Z", "2022-10-24T19:00:00Z", "2022-10-24T19:00:00Z", "2022-10-24T19:00:00Z", "2022-10-24T19:00:00Z", "2022-10-24T19:00:00Z", "2022-10-24T19:00:00Z", "2022-10-24T19:00:00Z", "2022-10-24T19:00:00Z", "2022-10-24T19:00:00Z", "2022-10-24T19:00:00Z", "2022-10-24T19:17:00Z", "2022-10-24T19:00:00Z", "2022-10-24T19:00:00Z", "2022-10-24T19:00:00Z", "2022-10-24T19:00:00Z", "2022-10-24T19:00:00Z", "2022-10-24T19:00:00Z", "2022-10-24T19:00:00Z", "2022-10-24T19:00:00Z", "2022-10-24T19:00:00Z", "2022-10-24T19:00:00Z", "2022-10-24T19:00:00Z", "2022-10-24T19:00:00Z", "2022-10-24T19:00:00Z", "2022-10-24T19:00:00Z", "2022-10-24T19:00:00Z", "2022-10-24T19:00:00Z", "2022-10-24T19:00:00Z", "2022-10-24T19:00:00Z", "2022-10-24T19:00:00Z", "2022-10-24T19:00:00Z", "2022-10-24T19:00:00Z", "2022-10-24T19:00:00Z", "2022-10-24T19:00:00Z", "2022-10-24T19:33:00Z", "2022-10-24T19:00:00Z", "2022-10-24T19:00:00Z", "2022-10-24T19:00:00Z", "2022-10-24T19:00:00Z", "2022-10-24T19:00:00Z", "2022-10-24T19:00:00Z", "2022-10-24T19:00:00Z", "2022-10-24T19:00:00Z", "2022-10-24T19:00:00Z", "2022-10-24T19:00:00Z", "2022-10-24T19:00:00Z", "2022-10-24T19:00:00Z", "2022-10-24T19:00:00Z", "2022-10-24T19:00:00Z", "2022-10-24T19:00:00Z", "2022-10-24T19:00:00Z", "2022-10-24T19:00:00Z", "2022-10-24T19:00:00Z", "2022-10-24T19:00:00Z", "2022-10-24T19:00:00Z", "2022-10-24T19:00:00Z", "2022-10-24T19:00:00Z", "2022-10-24T19:00:00Z", "2022-10-24T19:00:00Z", "2022-10-24T19:00:00Z", "2022-10-24T19:00:00Z", "2022-10-24T19:00:00Z", "2022-10-24T19:00:00Z", "2022-10-24T19:00:00Z", "2022-10-24T19:00:00Z", "2022-10-24T19:00:00Z", "2022-10-24T19:15:00Z", "2022-10-24T19:00:00Z", "2022-10-24T19:00:00Z", "2022-10-24T19:00:00Z", "2022-10-24T19:25:00Z", "2022-10-24T19:00:00Z", "2022-10-24T19:00:00Z", "2022-10-24T19:00:00Z", "2022-10-24T19:00:00Z", "2022-10-24T19:00:00Z", "2022-10-24T19:00:00Z", "2022-10-24T19:00:00Z", "2022-10-24T19:00:00Z", "2022-10-24T19:00:00Z", "2022-10-24T19:00:00Z", "2022-10-24T19:00:00Z", "2022-10-24T19:00:00Z", "2022-10-24T19:00:00Z", "2022-10-24T19:00:00Z", "2022-10-24T19:00:00Z", "2022-10-24T19:00:00Z", "2022-10-24T19:00:00Z", "2022-10-24T19:00:00Z", "2022-10-24T19:00:00Z", "2022-10-24T19:00:00Z", "2022-10-24T19:28:00Z", "2022-10-24T19:00:00Z", "2022-10-24T19:00:00Z", "2022-10-24T19:00:00Z", "2022-10-24T19:00:00Z", "2022-10-24T19:00:00Z", "2022-10-24T19:00:00Z", "2022-10-24T19:00:00Z", "2022-10-24T19:00:00Z", "2022-10-24T19:00:00Z", "2022-10-24T19:07:00Z", "2022-10-24T19:00:00Z", "2022-10-24T19:00:00Z", "2022-10-24T19:00:00Z", "2022-10-24T19:00:00Z", "2022-10-24T19:00:00Z", "2022-10-24T19:00:00Z", "2022-10-24T19:00:00Z", "2022-10-24T19:00:00Z", "2022-10-24T19:00:00Z", "2022-10-24T19:00:00Z", "2022-10-24T19:00:00Z", "2022-10-24T19:00:00Z", "2022-10-24T19:00:00Z", "2022-10-24T19:00:00Z", "2022-10-24T19:00:00Z", "2022-10-24T19:00:00Z", "2022-10-24T19:00:00Z", "2022-10-24T19:00:00Z", "2022-10-24T19:00:00Z", "2022-10-24T19:00:00Z", "2022-10-24T19:00:00Z", "2022-10-24T19:00:00Z", "2022-10-24T19:00:00Z", "2022-10-24T19:00:00Z", "2022-10-24T19:00:00Z", "2022-10-24T19:00:00Z", "2022-10-24T19:00:00Z", "2022-10-24T19:00:00Z", "2022-10-24T19:00:00Z", "2022-10-24T19:00:00Z", "2022-10-24T19:00:00Z", "2022-10-24T19:00:00Z", "2022-10-24T19:00:00Z", "2022-10-24T19:00:00Z", "2022-10-24T19:00:00Z", "2022-10-24T19:00:00Z", "2022-10-24T19:00:00Z", "2022-10-24T19:00:00Z", "2022-10-24T19:00:00Z", "2022-10-24T19:00:00Z", "2022-10-24T19:00:00Z", "2022-10-24T19:00:00Z", "2022-10-24T19:00:00Z", "2022-10-24T19:00:00Z", "2022-10-24T19:00:00Z", "2022-10-24T19:00:00Z", "2022-10-24T19:00:00Z", "2022-10-24T19:00:00Z", "2022-10-24T19:00:00Z", "2022-10-24T19:00:00Z", "2022-10-24T19:00:00Z", "2022-10-24T19:00:00Z", "2022-10-24T19:00:00Z", "2022-10-24T19:00:00Z", "2022-10-24T19:00:00Z", "2022-10-24T19:00:00Z", "2022-10-24T19:00:00Z", "2022-10-24T19:00:00Z", "2022-10-24T19:00:00Z", "2022-10-24T19:00:00Z", "2022-10-24T19:00:00Z", "2022-10-24T19:00:00Z", "2022-10-24T19:00:00Z", "2022-10-24T19:00:00Z", "2022-10-24T19:00:00Z", "2022-10-24T19:00:00Z", "2022-10-24T19:00:00Z", "2022-10-24T19:00:00Z", "2022-10-24T19:00:00Z", "2022-10-24T19:00:00Z", "2022-10-24T19:00:00Z", "2022-10-24T19:00:00Z", "2022-10-24T19:00:00Z", "2022-10-24T19:00:00Z", "2022-10-24T19:00:00Z", "2022-10-24T19:00:00Z", "2022-10-24T19:00:00Z", "2022-10-24T19:00:00Z", "2022-10-24T19:00:00Z", "2022-10-24T19:00:00Z", "2022-10-24T19:00:00Z", "2022-10-24T19:00:00Z", "2022-10-24T19:00:00Z", "2022-10-24T19:00:00Z", "2022-10-24T19:00:00Z", "2022-10-24T19:00:00Z", "2022-10-24T19:00:00Z", "2022-10-24T19:00:00Z", "2022-10-24T19:00:00Z", "2022-10-24T19:00:00Z", "2022-10-24T19:00:00Z", "2022-10-24T19:00:00Z", "2022-10-24T19:00:00Z", "2022-10-24T19:00:00Z", "2022-10-24T19:00:00Z", "2022-10-24T19:00:00Z", "2022-10-24T19:00:00Z", "2022-10-24T19:00:00Z", "2022-10-24T19:00:00Z", "2022-10-24T19:00:00Z", "2022-10-24T19:00:00Z", "2022-10-24T19:00:00Z", "2022-10-24T19:00:00Z", "2022-10-24T19:00:00Z", "2022-10-24T19:00:00Z", "2022-10-24T19:00:00Z", "2022-10-24T19:00:00Z", "2022-10-24T19:00:00Z", "2022-10-24T19:00:00Z", "2022-10-24T19:00:00Z", "2022-10-24T19:00:00Z", "2022-10-24T19:00:00Z", "2022-10-24T19:00:00Z", "2022-10-24T19:00:00Z", "2022-10-24T19:00:00Z", "2022-10-24T19:00:00Z", "2022-10-24T19:00:00Z", "2022-10-24T19:00:00Z", "2022-10-24T19:27:00Z", "2022-10-24T19:27:00Z", "2022-10-24T19:00:00Z", "2022-10-24T19:00:00Z", "2022-10-24T19:00:00Z", "2022-10-24T19:00:00Z", "2022-10-24T19:00:00Z", "2022-10-24T19:00:00Z", "2022-10-24T19:00:00Z", "2022-10-24T19:00:00Z", "2022-10-24T19:00:00Z", "2022-10-24T19:00:00Z", "2022-10-24T19:00:00Z", "2022-10-24T19:00:00Z", "2022-10-24T19:00:00Z", "2022-10-24T19:00:00Z", "2022-10-24T19:00:00Z", "2022-10-24T19:14:00Z", "2022-10-24T19:00:00Z", "2022-10-24T19:27:00Z", "2022-10-24T19:00:00Z", "2022-10-24T19:00:00Z", "2022-10-24T19:00:00Z", "2022-10-24T19:00:00Z", "2022-10-24T19:00:00Z", "2022-10-24T19:00:00Z", "2022-10-24T19:00:00Z", "2022-10-24T19:00:00Z", "2022-10-24T19:00:00Z", "2022-10-24T19:00:00Z", "2022-10-24T19:00:00Z", "2022-10-24T19:32:00Z", "2022-10-24T19:19:00Z", "2022-10-24T19:00:00Z", "2022-10-24T19:00:00Z", "2022-10-24T19:00:00Z", "2022-10-24T19:21:00Z", "2022-10-24T19:00:00Z", "2022-10-24T19:19:00Z", "2022-10-24T19:24:00Z", "2022-10-24T19:21:00Z", "2022-10-24T19:00:00Z", "2022-10-24T19:00:00Z", "2022-10-24T19:00:00Z", "2022-10-24T19:00:00Z", "2022-10-24T19:00:00Z", "2022-10-24T19:35:00Z", "2022-10-24T19:00:00Z", "2022-10-24T19:00:00Z", "2022-10-24T19:00:00Z", "2022-10-24T19:00:00Z", "2022-10-24T19:00:00Z", "2022-10-24T19:00:00Z", "2022-10-24T19:00:00Z", "2022-10-24T19:00:00Z", "2022-10-24T19:00:00Z", "2022-10-24T19:00:00Z", "2022-10-24T19:00:00Z", "2022-10-24T19:00:00Z", "2022-10-24T19:00:00Z", "2022-10-24T19:12:00Z", "2022-10-24T19:00:00Z", "2022-10-24T19:33:00Z", "2022-10-24T19:00:00Z", "2022-10-24T19:00:00Z", "2022-10-24T19:33:00Z", "2022-10-24T19:31:00Z", "2022-10-24T19:00:00Z", "2022-10-24T19:00:00Z", "2022-10-24T19:28:00Z", "2022-10-24T19:37:00Z", "2022-10-24T19:00:00Z", "2022-10-24T19:00:00Z", "2022-10-24T19:00:00Z", "2022-10-24T19:14:00Z", "2022-10-24T19:28:00Z", "2022-10-24T19:00:00Z", "2022-10-24T19:00:00Z", "2022-10-24T19:00:00Z", "2022-10-24T19:00:00Z", "2022-10-24T19:00:00Z", "2022-10-24T19:00:00Z", "2022-10-24T19:00:00Z", "2022-10-24T19:00:00Z", "2022-10-24T19:00:00Z", "2022-10-24T19:00:00Z", "2022-10-24T19:00:00Z", "2022-10-24T19:00:00Z", "2022-10-24T19:00:00Z", "2022-10-24T19:00:00Z", "2022-10-24T19:00:00Z", "2022-10-24T19:00:00Z", "2022-10-24T19:11:00Z", "2022-10-24T19:00:00Z", "2022-10-24T19:00:00Z", "2022-10-24T19:00:00Z", "2022-10-24T19:00:00Z", "2022-10-24T19:00:00Z", "2022-10-24T19:00:00Z", "2022-10-24T19:36:00Z", "2022-10-24T19:00:00Z", "2022-10-24T19:00:00Z", "2022-10-24T19:00:00Z", "2022-10-24T19:25:00Z", "2022-10-24T19:00:00Z", "2022-10-24T19:00:00Z", "2022-10-24T19:00:00Z", "2022-10-24T19:00:00Z", "2022-10-24T19:00:00Z", "2022-10-24T19:00:00Z", "2022-10-24T19:00:00Z", "2022-10-24T19:22:00Z", "2022-10-24T19:00:00Z", "2022-10-24T19:36:00Z", "2022-10-24T19:19:00Z", "2022-10-24T19:00:00Z", "2022-10-24T19:00:00Z", "2022-10-24T19:27:00Z", "2022-10-24T19:00:00Z", "2022-10-24T19:00:00Z", "2022-10-24T19:00:00Z", "2022-10-24T19:00:00Z", "2022-10-24T19:36:00Z", "2022-10-24T19:00:00Z", "2022-10-24T19:00:00Z", "2022-10-24T19:07:00Z", "2022-10-24T19:19:00Z", "2022-10-24T19:00:00Z", "2022-10-24T19:00:00Z", "2022-10-24T19:00:00Z", "2022-10-24T19:00:00Z", "2022-10-24T19:00:00Z", "2022-10-24T19:00:00Z", "2022-10-24T19:00:00Z", "2022-10-24T19:00:00Z", "2022-10-24T19:00:00Z", "2022-10-24T19:00:00Z", "2022-10-24T19:00:00Z", "2022-10-24T19:34:00Z", "2022-10-24T19:00:00Z", "2022-10-24T19:00:00Z", "2022-10-24T19:00:00Z", "2022-10-24T19:32:00Z", "2022-10-24T19:00:00Z", "2022-10-24T19:00:00Z", "2022-10-24T19:00:00Z", "2022-10-24T19:00:00Z", "2022-10-24T19:00:00Z", "2022-10-24T19:00:00Z", "2022-10-24T19:00:00Z", "2022-10-24T19:00:00Z", "2022-10-24T19:00:00Z", "2022-10-24T19:00:00Z", "2022-10-24T19:00:00Z", "2022-10-24T19:00:00Z", "2022-10-24T19:00:00Z", "2022-10-24T19:08:00Z", "2022-10-24T19:00:00Z", "2022-10-24T19:00:00Z", "2022-10-24T19:00:00Z", "2022-10-24T19:00:00Z", "2022-10-24T19:00:00Z", "2022-10-24T19:00:00Z", "2022-10-24T19:00:00Z", "2022-10-24T19:00:00Z", "2022-10-24T19:00:00Z", "2022-10-24T19:00:00Z", "2022-10-24T19:00:00Z", "2022-10-24T19:00:00Z", "2022-10-24T19:00:00Z", "2022-10-24T19:00:00Z", "2022-10-24T19:00:00Z", "2022-10-24T19:00:00Z", "2022-10-24T19:00:00Z", "2022-10-24T19:00:00Z", "2022-10-24T19:00:00Z", "2022-10-24T19:00:00Z", "2022-10-24T19:00:00Z", "2022-10-24T19:00:00Z", "2022-10-24T19:00:00Z", "2022-10-24T19:00:00Z", "2022-10-24T19:00:00Z", "2022-10-24T19:00:00Z", "2022-10-24T19:00:00Z", "2022-10-24T19:00:00Z", "2022-10-24T19:00:00Z", "2022-10-24T19:00:00Z", "2022-10-24T19:00:00Z", "2022-10-24T19:00:00Z", "2022-10-24T19:00:00Z", "2022-10-24T19:22:00Z", "2022-10-24T19:00:00Z", "2022-10-24T19:00:00Z", "2022-10-24T19:00:00Z", "2022-10-24T19:00:00Z", "2022-10-24T19:07:00Z", "2022-10-24T19:00:00Z", "2022-10-24T19:00:00Z", "2022-10-24T19:12:00Z", "2022-10-24T19:00:00Z", "2022-10-24T19:00:00Z", "2022-10-24T19:00:00Z", "2022-10-24T19:00:00Z", "2022-10-24T19:00:00Z", "2022-10-24T19:18:00Z", "2022-10-24T19:00:00Z", "2022-10-24T19:00:00Z", "2022-10-24T19:00:00Z", "2022-10-24T19:00:00Z", "2022-10-24T19:00:00Z", "2022-10-24T19:05:00Z", "2022-10-24T19:26:00Z", "2022-10-24T19:00:00Z", "2022-10-24T19:00:00Z", "2022-10-24T19:00:00Z", "2022-10-24T19:00:00Z", "2022-10-24T19:00:00Z", "2022-10-24T19:00:00Z", "2022-10-24T19:00:00Z", "2022-10-24T19:00:00Z", "2022-10-24T19:00:00Z", "2022-10-24T19:02:00Z", "2022-10-24T19:00:00Z", "2022-10-24T19:00:00Z", "2022-10-24T19:00:00Z", "2022-10-24T19:00:00Z", "2022-10-24T19:00:00Z", "2022-10-24T19:00:00Z", "2022-10-24T19:00:00Z", "2022-10-24T19:00:00Z", "2022-10-24T19:27:00Z", "2022-10-24T19:00:00Z", "2022-10-24T19:00:00Z", "2022-10-24T19:00:00Z", "2022-10-24T19:00:00Z", "2022-10-24T19:00:00Z", "2022-10-24T19:00:00Z", "2022-10-24T19:00:00Z", "2022-10-24T19:00:00Z", "2022-10-24T19:00:00Z", "2022-10-24T19:27:00Z", "2022-10-24T19:00:00Z", "2022-10-24T19:00:00Z", "2022-10-24T19:00:00Z", "2022-10-24T19:00:00Z", "2022-10-24T19:00:00Z", "2022-10-24T19:00:00Z", "2022-10-24T19:00:00Z", "2022-10-24T19:00:00Z", "2022-10-24T19:00:00Z", "2022-10-24T19:00:00Z", "2022-10-24T19:23:00Z", "2022-10-24T19:00:00Z", "2022-10-24T19:00:00Z", "2022-10-24T19:00:00Z", "2022-10-24T19:00:00Z", "2022-10-24T19:00:00Z", "2022-10-24T19:25:00Z", "2022-10-24T19:00:00Z", "2022-10-24T19:00:00Z", "2022-10-24T19:30:00Z", "2022-10-24T19:00:00Z", "2022-10-24T19:00:00Z", "2022-10-24T19:00:00Z", "2022-10-24T19:30:00Z", "2022-10-24T19:00:00Z", "2022-10-24T19:00:00Z", "2022-10-24T19:30:00Z", "2022-10-24T19:30:00Z", "2022-10-24T19:00:00Z", "2022-10-24T19:00:00Z", "2022-10-24T19:00:00Z", "2022-10-24T19:00:00Z", "2022-10-24T19:00:00Z", "2022-10-24T19:30:00Z", "2022-10-24T19:30:00Z", "2022-10-24T19:00:00Z", "2022-10-24T19:00:00Z", "2022-10-24T19:00:00Z", "2022-10-24T19:00:00Z", "2022-10-24T19:00:00Z", "2022-10-24T19:00:00Z", "2022-10-24T19:00:00Z", "2022-10-24T19:00:00Z", "2022-10-24T19:00:00Z", "2022-10-24T19:00:00Z", "2022-10-24T19:00:00Z", "2022-10-24T19:00:00Z", "2022-10-24T19:00:00Z", "2022-10-24T19:00:00Z", "2022-10-24T19:00:00Z", "2022-10-24T19:00:00Z", "2022-10-24T19:00:00Z", "2022-10-24T19:00:00Z", "2022-10-24T19:00:00Z", "2022-10-24T19:30:00Z", "2022-10-24T19:00:00Z", "2022-10-24T19:00:00Z", "2022-10-24T19:00:00Z", "2022-10-24T19:00:00Z", "2022-10-24T19:00:00Z", "2022-10-24T19:00:00Z", "2022-10-24T19:00:00Z", "2022-10-24T19:00:00Z", "2022-10-24T19:00:00Z", "2022-10-24T19:00:00Z", "2022-10-24T19:30:00Z", "2022-10-24T19:30:00Z", "2022-10-24T19:30:00Z", "2022-10-24T19:00:00Z", "2022-10-24T19:00:00Z", "2022-10-24T19:00:00Z", "2022-10-24T19:00:00Z", "2022-10-24T19:30:00Z", "2022-10-24T19:00:00Z", "2022-10-24T19:00:00Z", "2022-10-24T19:00:00Z", "2022-10-24T19:00:00Z", "2022-10-24T19:00:00Z", "2022-10-24T19:00:00Z", "2022-10-24T19:20:00Z", "2022-10-24T19:25:00Z", "2022-10-24T19:25:00Z", "2022-10-24T19:20:00Z", "2022-10-24T19:20:00Z", "2022-10-24T19:25:00Z", "2022-10-24T19:25:00Z", "2022-10-24T19:25:00Z", "2022-10-24T19:25:00Z", "2022-10-24T19:25:00Z", "2022-10-24T19:20:00Z", "2022-10-24T19:20:00Z", "2022-10-24T19:20:00Z", "2022-10-24T19:20:00Z", "2022-10-24T19:20:00Z", "2022-10-24T19:20:00Z", "2022-10-24T19:20:00Z", "2022-10-24T19:20:00Z", "2022-10-24T19:20:00Z", "2022-10-24T19:20:00Z", "2022-10-24T19:20:00Z", "2022-10-24T19:20:00Z", "2022-10-24T19:20:00Z", "2022-10-24T19:20:00Z", "2022-10-24T19:20:00Z", "2022-10-24T19:20:00Z", "2022-10-24T19:20:00Z", "2022-10-24T19:20:00Z", "2022-10-24T19:20:00Z", "2022-10-24T19:20:00Z", "2022-10-24T19:20:00Z", "2022-10-24T19:20:00Z", "2022-10-24T19:20:00Z", "2022-10-24T19:20:00Z", "2022-10-24T19:20:00Z", "2022-10-24T19:20:00Z", "2022-10-24T19:20:00Z", "2022-10-24T19:20:00Z", "2022-10-24T19:20:00Z", "2022-10-24T19:20:00Z", "2022-10-24T19:20:00Z", "2022-10-24T19:20:00Z", "2022-10-24T19:20:00Z", "2022-10-24T19:20:00Z", "2022-10-24T19:20:00Z", "2022-10-24T19:20:00Z", "2022-10-24T19:20:00Z", "2022-10-24T19:20:00Z", "2022-10-24T19:20:00Z", "2022-10-24T19:20:00Z", "2022-10-24T19:20:00Z", "2022-10-24T18:50:00Z", "2022-10-24T19:20:00Z", "2022-10-24T19:20:00Z", "2022-10-24T19:20:00Z", "2022-10-24T19:20:00Z", "2022-10-24T19:20:00Z", "2022-10-24T19:20:00Z", "2022-10-24T19:20:00Z", "2022-10-24T19:20:00Z", "2022-10-24T19:20:00Z", "2022-10-24T19:20:00Z", "2022-10-24T19:20:00Z", "2022-10-24T19:20:00Z", "2022-10-24T19:20:00Z", "2022-10-24T19:20:00Z", "2022-10-24T19:20:00Z", "2022-10-24T19:20:00Z", "2022-10-24T19:20:00Z", "2022-10-24T19:20:00Z", "2022-10-24T19:20:00Z", "2022-10-24T19:20:00Z", "2022-10-24T19:20:00Z", "2022-10-24T19:20:00Z", "2022-10-24T19:20:00Z", "2022-10-24T19:20:00Z", "2022-10-24T19:20:00Z", "2022-10-24T19:20:00Z", "2022-10-24T19:20:00Z", "2022-10-24T19:20:00Z", "2022-10-24T19:20:00Z", "2022-10-24T19:20:00Z", "2022-10-24T19:20:00Z", "2022-10-24T19:20:00Z", "2022-10-24T19:20:00Z", "2022-10-24T19:20:00Z", "2022-10-24T19:20:00Z", "2022-10-24T19:20:00Z", "2022-10-24T19:20:00Z", "2022-10-24T19:20:00Z", "2022-10-24T19:20:00Z", "2022-10-24T19:20:00Z", "2022-10-24T19:20:00Z", "2022-10-24T19:20:00Z", "2022-10-24T19:20:00Z", "2022-10-24T19:20:00Z", "2022-10-24T19:20:00Z", "2022-10-24T19:20:00Z", "2022-10-24T19:20:00Z", "2022-10-24T18:50:00Z", "2022-10-24T19:20:00Z", "2022-10-24T19:20:00Z", "2022-10-24T19:20:00Z", "2022-10-24T19:20:00Z", "2022-10-24T19:20:00Z", "2022-10-24T19:20:00Z", "2022-10-24T19:20:00Z", "2022-10-24T19:20:00Z", "2022-10-24T19:20:00Z", "2022-10-24T19:20:00Z", "2022-10-24T19:20:00Z", "2022-10-24T19:20:00Z", "2022-10-24T18:50:00Z", "2022-10-24T18:50:00Z", "2022-10-24T19:20:00Z", "2022-10-24T19:20:00Z", "2022-10-24T19:20:00Z", "2022-10-24T19:20:00Z", "2022-10-24T19:20:00Z", "2022-10-24T19:20:00Z", "2022-10-24T19:20:00Z", "2022-10-24T19:20:00Z", "2022-10-24T19:20:00Z", "2022-10-24T19:20:00Z", "2022-10-24T19:20:00Z", "2022-10-24T19:20:00Z", "2022-10-24T19:20:00Z", "2022-10-24T19:20:00Z", "2022-10-24T19:20:00Z", "2022-10-24T19:20:00Z", "2022-10-24T19:20:00Z", "2022-10-24T19:20:00Z", "2022-10-24T18:50:00Z", "2022-10-24T19:20:00Z", "2022-10-24T18:50:00Z", "2022-10-24T18:50:00Z", "2022-10-24T18:50:00Z", "2022-10-24T19:20:00Z", "2022-10-24T19:20:00Z", "2022-10-24T19:20:00Z", "2022-10-24T18:50:00Z", "2022-10-24T19:20:00Z", "2022-10-24T19:20:00Z", "2022-10-24T19:20:00Z", "2022-10-24T18:55:00Z", "2022-10-24T18:55:00Z", "2022-10-24T18:50:00Z", "2022-10-24T18:55:00Z", "2022-10-24T19:20:00Z", "2022-10-24T19:20:00Z", "2022-10-24T19:20:00Z", "2022-10-24T19:20:00Z", "2022-10-24T19:20:00Z", "2022-10-24T19:20:00Z", "2022-10-24T18:50:00Z", "2022-10-24T18:50:00Z", "2022-10-24T19:20:00Z", "2022-10-24T19:21:00Z", "2022-10-24T19:20:00Z", "2022-10-24T19:20:00Z", "2022-10-24T19:20:00Z", "2022-10-24T19:20:00Z", "2022-10-24T18:50:00Z", "2022-10-24T19:20:00Z", "2022-10-24T19:25:00Z", "2022-10-24T19:25:00Z", "2022-10-24T19:25:00Z", "2022-10-24T19:25:00Z", "2022-10-24T19:25:00Z", "2022-10-24T19:25:00Z", "2022-10-24T19:25:00Z", "2022-10-24T19:25:00Z", "2022-10-24T19:25:00Z", "2022-10-24T19:25:00Z", "2022-10-24T19:25:00Z", "2022-10-24T19:25:00Z", "2022-10-24T19:25:00Z", "2022-10-24T19:35:00Z", "2022-10-24T19:25:00Z", "2022-10-24T19:25:00Z", "2022-10-24T19:25:00Z", "2022-10-24T19:25:00Z", "2022-10-24T19:25:00Z", "2022-10-24T19:25:00Z", "2022-10-24T19:25:00Z", "2022-10-24T19:25:00Z", "2022-10-24T19:25:00Z", "2022-10-24T19:25:00Z", "2022-10-24T19:25:00Z", "2022-10-24T19:25:00Z", "2022-10-24T19:25:00Z", "2022-10-24T19:30:00Z", "2022-10-24T19:30:00Z", "2022-10-24T19:30:00Z", "2022-10-24T19:00:00Z", "2022-10-24T19:30:00Z", "2022-10-24T19:00:00Z", "2022-10-24T19:30:00Z", "2022-10-24T19:20:00Z", "2022-10-24T19:20:00Z", "2022-10-24T19:20:00Z", "2022-10-24T19:20:00Z", "2022-10-24T19:20:00Z", "2022-10-24T19:20:00Z", "2022-10-24T19:20:00Z", "2022-10-24T19:20:00Z", "2022-10-24T19:20:00Z", "2022-10-24T19:20:00Z", "2022-10-24T19:20:00Z", "2022-10-24T19:20:00Z", "2022-10-24T19:20:00Z", "2022-10-24T19:20:00Z", "2022-10-24T19:20:00Z", "2022-10-24T19:20:00Z", "2022-10-24T19:20:00Z", "2022-10-24T19:20:00Z", "2022-10-24T19:20:00Z", "2022-10-24T19:20:00Z", "2022-10-24T19:20:00Z", "2022-10-24T19:20:00Z", "2022-10-24T19:20:00Z", "2022-10-24T19:20:00Z", "2022-10-24T19:20:00Z", "2022-10-24T19:20:00Z", "2022-10-24T19:20:00Z", "2022-10-24T19:20:00Z", "2022-10-24T19:20:00Z", "2022-10-24T19:20:00Z", "2022-10-24T19:20:00Z", "2022-10-24T19:20:00Z", "2022-10-24T19:20:00Z", "2022-10-24T19:20:00Z", "2022-10-24T19:20:00Z", "2022-10-24T19:20:00Z", "2022-10-24T19:20:00Z", "2022-10-24T19:20:00Z", "2022-10-24T19:20:00Z", "2022-10-24T19:20:00Z", "2022-10-24T19:20:00Z", "2022-10-24T19:20:00Z", "2022-10-24T19:20:00Z", "2022-10-24T19:20:00Z", "2022-10-24T19:20:00Z", "2022-10-24T19:20:00Z", "2022-10-24T19:20:00Z", "2022-10-24T19:20:00Z", "2022-10-24T18:50:00Z", "2022-10-24T19:20:00Z", "2022-10-24T19:20:00Z", "2022-10-24T19:20:00Z", "2022-10-24T19:20:00Z", "2022-10-24T19:20:00Z", "2022-10-24T19:20:00Z", "2022-10-24T19:20:00Z", "2022-10-24T19:20:00Z", "2022-10-24T18:50:00Z", "2022-10-24T19:20:00Z", "2022-10-24T19:20:00Z", "2022-10-24T19:20:00Z", "2022-10-24T19:20:00Z", "2022-10-24T19:20:00Z", "2022-10-24T18:50:00Z", "2022-10-24T19:20:00Z", "2022-10-24T19:20:00Z", "2022-10-24T19:20:00Z", "2022-10-24T19:20:00Z", "2022-10-24T19:20:00Z", "2022-10-24T19:20:00Z", "2022-10-24T19:20:00Z", "2022-10-24T19:20:00Z", "2022-10-24T19:20:00Z", "2022-10-24T19:20:00Z", "2022-10-24T19:20:00Z", "2022-10-24T19:20:00Z", "2022-10-24T19:20:00Z", "2022-10-24T19:30:00Z", "2022-10-24T19:30:00Z", "2022-10-24T19:30:00Z", "2022-10-24T19:30:00Z", "2022-10-24T19:30:00Z", "2022-10-24T19:30:00Z", "2022-10-24T19:30:00Z", "2022-10-24T19:30:00Z", "2022-10-24T19:30:00Z", "2022-10-24T19:30:00Z", "2022-10-24T19:30:00Z", "2022-10-24T19:30:00Z", "2022-10-24T19:30:00Z", "2022-10-24T19:30:00Z", "2022-10-24T19:20:00Z", "2022-10-24T19:20:00Z", "2022-10-24T19:20:00Z", "2022-10-24T19:20:00Z", "2022-10-24T19:20:00Z", "2022-10-24T19:20:00Z", "2022-10-24T19:20:00Z", "2022-10-24T19:20:00Z", "2022-10-24T19:20:00Z", "2022-10-24T19:20:00Z", "2022-10-24T19:20:00Z", "2022-10-24T19:20:00Z", "2022-10-24T19:20:00Z", "2022-10-24T19:20:00Z", "2022-10-24T19:20:00Z", "2022-10-24T19:20:00Z", "2022-10-24T19:20:00Z", "2022-10-24T19:20:00Z", "2022-10-24T19:20:00Z", "2022-10-24T19:20:00Z", "2022-10-24T19:20:00Z", "2022-10-24T19:20:00Z", "2022-10-24T19:20:00Z", "2022-10-24T19:20:00Z", "2022-10-24T19:20:00Z", "2022-10-24T19:20:00Z", "2022-10-24T19:20:00Z", "2022-10-24T19:20:00Z", "2022-10-24T19:20:00Z", "2022-10-24T19:20:00Z", "2022-10-24T19:20:00Z", "2022-10-24T19:20:00Z", "2022-10-24T19:20:00Z", "2022-10-24T19:20:00Z", "2022-10-24T19:20:00Z", "2022-10-24T19:20:00Z", "2022-10-24T19:20:00Z", "2022-10-24T19:20:00Z", "2022-10-24T19:20:00Z", "2022-10-24T19:20:00Z", "2022-10-24T19:20:00Z", "2022-10-24T19:20:00Z", "2022-10-24T19:20:00Z", "2022-10-24T19:20:00Z", "2022-10-24T19:20:00Z", "2022-10-24T19:20:00Z", "2022-10-24T18:55:00Z", "2022-10-24T18:55:00Z", "2022-10-24T18:55:00Z", "2022-10-24T19:20:00Z", "2022-10-24T19:20:00Z", "2022-10-24T19:20:00Z", "2022-10-24T19:20:00Z", "2022-10-24T19:20:00Z", "2022-10-24T19:30:00Z", "2022-10-24T19:20:00Z", "2022-10-24T19:20:00Z", "2022-10-24T18:55:00Z", "2022-10-24T18:55:00Z", "2022-10-24T19:19:00Z", "2022-10-24T19:20:00Z", "2022-10-24T18:50:00Z", "2022-10-24T19:20:00Z", "2022-10-24T19:20:00Z", "2022-10-24T19:20:00Z", "2022-10-24T19:20:00Z", "2022-10-24T19:20:00Z", "2022-10-24T19:20:00Z", "2022-10-24T18:55:00Z", "2022-10-24T19:20:00Z", "2022-10-24T19:20:00Z", "2022-10-24T19:20:00Z", "2022-10-24T19:20:00Z", "2022-10-24T19:20:00Z", "2022-10-24T19:20:00Z", "2022-10-24T19:20:00Z", "2022-10-24T19:20:00Z", "2022-10-24T19:20:00Z", "2022-10-24T19:20:00Z", "2022-10-24T19:20:00Z", "2022-10-24T19:20:00Z", "2022-10-24T19:20:00Z", "2022-10-24T19:20:00Z", "2022-10-24T19:00:00Z", "2022-10-24T19:00:00Z", "2022-10-24T19:25:00Z", "2022-10-24T19:00:00Z", "2022-10-24T19:00:00Z", "2022-10-24T19:00:00Z", "2022-10-24T19:00:00Z", "2022-10-24T19:00:00Z", "2022-10-24T19:30:00Z", "2022-10-24T19:00:00Z", "2022-10-24T19:00:00Z", "2022-10-24T19:00:00Z", "2022-10-24T19:00:00Z", "2022-10-24T19:00:00Z", "2022-10-24T19:00:00Z", "2022-10-24T19:00:00Z", "2022-10-24T19:00:00Z", "2022-10-24T19:00:00Z", "2022-10-24T19:00:00Z", "2022-10-24T19:00:00Z", "2022-10-24T19:00:00Z", "2022-10-24T19:00:00Z", "2022-10-24T19:00:00Z", "2022-10-24T19:00:00Z", "2022-10-24T18:55:00Z", "2022-10-24T19:00:00Z", "2022-10-24T19:30:00Z", "2022-10-24T19:30:00Z", "2022-10-24T19:30:00Z", "2022-10-24T19:30:00Z", "2022-10-24T19:00:00Z", "2022-10-24T19:00:00Z", "2022-10-24T19:00:00Z", "2022-10-24T19:00:00Z", "2022-10-24T19:00:00Z", "2022-10-24T19:30:00Z", "2022-10-24T19:00:00Z", "2022-10-24T19:00:00Z", "2022-10-24T19:00:00Z", "2022-10-24T19:00:00Z", "2022-10-24T19:00:00Z", "2022-10-24T19:00:00Z", "2022-10-24T19:00:00Z", "2022-10-24T19:00:00Z", "2022-10-24T19:00:00Z", "2022-10-24T19:00:00Z", "2022-10-24T19:00:00Z", "2022-10-24T19:00:00Z", "2022-10-24T19:00:00Z", "2022-10-24T19:00:00Z", "2022-10-24T19:00:00Z", "2022-10-24T19:00:00Z", "2022-10-24T19:00:00Z", "2022-10-24T19:00:00Z", "2022-10-24T19:00:00Z", "2022-10-24T19:30:00Z", "2022-10-24T19:30:00Z", "2022-10-24T19:30:00Z", "2022-10-24T19:30:00Z", "2022-10-24T19:30:00Z", "2022-10-24T19:30:00Z", "2022-10-24T19:30:00Z", "2022-10-24T19:30:00Z", "2022-10-24T19:30:00Z", "2022-10-24T19:30:00Z", "2022-10-24T19:00:00Z", "2022-10-24T19:00:00Z", "2022-10-24T19:30:00Z", "2022-10-24T19:30:00Z", "2022-10-24T19:00:00Z", "2022-10-24T19:30:00Z", "2022-10-24T19:00:00Z", "2022-10-24T19:00:00Z", "2022-10-24T19:30:00Z", "2022-10-24T19:00:00Z", "2022-10-24T19:00:00Z", "2022-10-24T19:00:00Z", "2022-10-24T19:30:00Z", "2022-10-24T19:00:00Z", "2022-10-24T19:00:00Z", "2022-10-24T19:00:00Z", "2022-10-24T19:30:00Z", "2022-10-24T19:00:00Z", "2022-10-24T19:30:00Z", "2022-10-24T19:00:00Z", "2022-10-24T19:00:00Z", "2022-10-24T19:00:00Z", "2022-10-24T19:30:00Z", "2022-10-24T19:00:00Z", "2022-10-24T19:00:00Z", "2022-10-24T19:00:00Z", "2022-10-24T19:00:00Z", "2022-10-24T19:00:00Z", "2022-10-24T19:00:00Z", "2022-10-24T19:00:00Z", "2022-10-24T19:00:00Z", "2022-10-24T19:00:00Z", "2022-10-24T19:00:00Z", "2022-10-24T19:00:00Z", "2022-10-24T19:30:00Z", "2022-10-24T19:00:00Z", "2022-10-24T19:00:00Z", "2022-10-24T19:00:00Z", "2022-10-24T19:00:00Z", "2022-10-24T19:00:00Z", "2022-10-24T19:00:00Z", "2022-10-24T19:00:00Z", "2022-10-24T19:00:00Z", "2022-10-24T19:00:00Z", "2022-10-24T19:00:00Z", "2022-10-24T19:00:00Z", "2022-10-24T19:00:00Z", "2022-10-24T19:00:00Z", "2022-10-24T19:00:00Z", "2022-10-24T19:00:00Z", "2022-10-24T19:00:00Z", "2022-10-24T19:00:00Z", "2022-10-24T19:00:00Z", "2022-10-24T19:00:00Z", "2022-10-24T19:00:00Z", "2022-10-24T19:00:00Z", "2022-10-24T19:30:00Z", "2022-10-24T19:00:00Z", "2022-10-24T19:00:00Z", "2022-10-24T19:00:00Z", "2022-10-24T19:30:00Z", "2022-10-24T19:00:00Z", "2022-10-24T19:00:00Z", "2022-10-24T19:00:00Z", "2022-10-24T19:00:00Z", "2022-10-24T19:00:00Z", "2022-10-24T19:15:00Z", "2022-10-24T19:35:00Z", "2022-10-24T19:30:00Z", "2022-10-24T19:15:00Z", "2022-10-24T19:35:00Z", "2022-10-24T19:35:00Z", "2022-10-24T19:35:00Z", "2022-10-24T19:35:00Z", "2022-10-24T19:15:00Z", "2022-10-24T19:35:00Z", "2022-10-24T19:35:00Z", "2022-10-24T18:58:00Z", "2022-10-24T19:35:00Z", "2022-10-24T19:15:00Z", "2022-10-24T19:35:00Z", "2022-10-24T18:35:00Z", "2022-10-24T19:35:00Z", "2022-10-24T19:35:00Z", "2022-10-24T19:15:00Z", "2022-10-24T18:54:00Z", "2022-10-24T19:15:00Z", "2022-10-24T19:35:00Z", "2022-10-24T19:35:00Z", "2022-10-24T19:15:00Z", "2022-10-24T19:15:00Z", "2022-10-24T19:15:00Z", "2022-10-24T19:15:00Z", "2022-10-24T19:35:00Z", "2022-10-24T19:15:00Z", "2022-10-24T19:35:00Z", "2022-10-24T18:55:00Z", "2022-10-24T18:55:00Z", "2022-10-24T18:55:00Z", "2022-10-24T19:35:00Z", "2022-10-24T19:15:00Z", "2022-10-24T18:55:00Z", "2022-10-24T19:15:00Z", "2022-10-24T18:55:00Z", "2022-10-24T18:55:00Z", "2022-10-24T18:55:00Z", "2022-10-24T19:35:00Z", "2022-10-24T18:55:00Z", "2022-10-24T18:55:00Z", "2022-10-24T18:56:00Z", "2022-10-24T19:35:00Z", "2022-10-24T18:55:00Z", "2022-10-24T18:55:00Z", "2022-10-24T18:55:00Z", "2022-10-24T18:55:00Z", "2022-10-24T19:35:00Z", "2022-10-24T19:35:00Z", "2022-10-24T19:15:00Z", "2022-10-24T19:30:00Z", "2022-10-24T19:35:00Z", "2022-10-24T19:35:00Z", "2022-10-24T18:54:00Z", "2022-10-24T19:35:00Z", "2022-10-24T18:55:00Z", "2022-10-24T19:35:00Z", "2022-10-24T19:15:00Z", "2022-10-24T19:35:00Z", "2022-10-24T19:35:00Z", "2022-10-24T19:35:00Z", "2022-10-24T19:35:00Z", "2022-10-24T19:35:00Z", "2022-10-24T19:35:00Z", "2022-10-24T19:35:00Z", "2022-10-24T19:35:00Z", "2022-10-24T19:35:00Z", "2022-10-24T18:55:00Z", "2022-10-24T19:35:00Z", "2022-10-24T19:20:00Z", "2022-10-24T19:15:00Z", "2022-10-24T19:15:00Z", "2022-10-24T19:15:00Z", "2022-10-24T19:35:00Z", "2022-10-24T19:35:00Z", "2022-10-24T19:35:00Z", "2022-10-24T19:15:00Z", "2022-10-24T19:15:00Z", "2022-10-24T19:19:00Z", "2022-10-24T18:56:00Z", "2022-10-24T19:35:00Z", "2022-10-24T19:15:00Z", "2022-10-24T19:35:00Z", "2022-10-24T19:30:00Z", "2022-10-24T19:30:00Z", "2022-10-24T19:35:00Z", "2022-10-24T19:15:00Z", "2022-10-24T19:15:00Z", "2022-10-24T19:35:00Z", "2022-10-24T19:15:00Z", "2022-10-24T19:35:00Z", "2022-10-24T19:35:00Z", "2022-10-24T19:35:00Z", "2022-10-24T19:30:00Z", "2022-10-24T19:16:00Z", "2022-10-24T19:15:00Z", "2022-10-24T19:35:00Z", "2022-10-24T19:35:00Z", "2022-10-24T19:35:00Z", "2022-10-24T19:35:00Z", "2022-10-24T19:15:00Z", "2022-10-24T19:15:00Z", "2022-10-24T19:35:00Z", "2022-10-24T19:15:00Z", "2022-10-24T19:15:00Z", "2022-10-24T19:15:00Z", "2022-10-24T19:35:00Z", "2022-10-24T19:24:00Z", "2022-10-24T19:15:00Z", "2022-10-24T19:35:00Z", "2022-10-24T19:35:00Z", "2022-10-24T19:35:00Z", "2022-10-24T19:35:00Z", "2022-10-24T19:10:00Z", "2022-10-24T19:35:00Z", "2022-10-24T19:35:00Z", "2022-10-24T19:15:00Z", "2022-10-24T19:15:00Z", "2022-10-24T19:35:00Z", "2022-10-24T19:15:00Z", "2022-10-24T19:15:00Z", "2022-10-24T19:15:00Z", "2022-10-24T19:35:00Z", "2022-10-24T19:35:00Z", "2022-10-24T19:35:00Z", "2022-10-24T19:15:00Z", "2022-10-24T19:15:00Z", "2022-10-24T19:35:00Z", "2022-10-24T19:35:00Z", "2022-10-24T19:35:00Z", "2022-10-24T19:15:00Z", "2022-10-24T19:35:00Z", "2022-10-24T19:15:00Z", "2022-10-24T18:51:00Z", "2022-10-24T19:35:00Z", "2022-10-24T19:35:00Z", "2022-10-24T19:25:00Z", "2022-10-24T19:15:00Z", "2022-10-24T19:35:00Z", "2022-10-24T18:56:00Z", "2022-10-24T19:15:00Z", "2022-10-24T19:35:00Z", "2022-10-24T18:56:00Z", "2022-10-24T19:35:00Z", "2022-10-24T19:35:00Z", "2022-10-24T19:15:00Z", "2022-10-24T19:35:00Z", "2022-10-24T19:35:00Z", "2022-10-24T19:15:00Z", "2022-10-24T19:35:00Z", "2022-10-24T18:56:00Z", "2022-10-24T19:15:00Z", "2022-10-24T19:35:00Z", "2022-10-24T19:35:00Z", "2022-10-24T19:15:00Z", "2022-10-24T19:15:00Z", "2022-10-24T18:55:00Z", "2022-10-24T19:15:00Z", "2022-10-24T19:15:00Z", "2022-10-24T19:15:00Z", "2022-10-24T18:53:00Z", "2022-10-24T19:08:00Z", "2022-10-24T19:35:00Z", "2022-10-24T18:55:00Z", "2022-10-24T19:13:00Z", "2022-10-24T18:55:00Z", "2022-10-24T18:52:00Z", "2022-10-24T18:52:00Z", "2022-10-24T18:53:00Z", "2022-10-24T18:53:00Z", "2022-10-24T19:35:00Z", "2022-10-24T19:35:00Z", "2022-10-24T18:53:00Z", "2022-10-24T19:35:00Z", "2022-10-24T19:35:00Z", "2022-10-24T18:56:00Z", "2022-10-24T18:53:00Z", "2022-10-24T19:26:00Z", "2022-10-24T19:16:00Z", "2022-10-24T18:56:00Z", "2022-10-24T18:53:00Z", "2022-10-24T19:15:00Z", "2022-10-24T18:50:00Z", "2022-10-24T18:47:00Z", "2022-10-24T19:15:00Z", "2022-10-24T19:15:00Z", "2022-10-24T19:10:00Z", "2022-10-24T18:50:00Z", "2022-10-24T19:35:00Z", "2022-10-24T19:15:00Z", "2022-10-24T18:53:00Z", "2022-10-24T18:55:00Z", "2022-10-24T18:56:00Z", "2022-10-24T19:15:00Z", "2022-10-24T18:52:00Z", "2022-10-24T19:15:00Z", "2022-10-24T19:35:00Z", "2022-10-24T18:53:00Z", "2022-10-24T18:53:00Z", "2022-10-24T19:35:00Z", "2022-10-24T19:35:00Z", "2022-10-24T18:51:00Z", "2022-10-24T19:15:00Z", "2022-10-24T18:53:00Z", "2022-10-24T19:35:00Z", "2022-10-24T19:35:00Z", "2022-10-24T19:15:00Z", "2022-10-24T19:35:00Z", "2022-10-24T18:56:00Z", "2022-10-24T19:15:00Z", "2022-10-24T18:56:00Z", "2022-10-24T19:15:00Z", "2022-10-24T19:15:00Z", "2022-10-24T18:54:00Z", "2022-10-24T18:53:00Z", "2022-10-24T19:20:00Z", "2022-10-24T18:54:00Z", "2022-10-24T19:28:00Z", "2022-10-24T18:56:00Z", "2022-10-24T19:35:00Z", "2022-10-24T18:50:00Z", "2022-10-24T18:54:00Z", "2022-10-24T18:52:00Z", "2022-10-24T18:53:00Z", "2022-10-24T19:35:00Z", "2022-10-24T19:31:00Z", "2022-10-24T18:53:00Z", "2022-10-24T19:35:00Z", "2022-10-24T18:53:00Z", "2022-10-24T18:53:00Z", "2022-10-24T18:56:00Z", "2022-10-24T18:45:00Z", "2022-10-24T18:55:00Z", "2022-10-24T19:10:00Z", "2022-10-24T19:35:00Z", "2022-10-24T19:35:00Z", "2022-10-24T18:53:00Z", "2022-10-24T18:53:00Z", "2022-10-24T18:53:00Z", "2022-10-24T18:54:00Z", "2022-10-24T18:53:00Z", "2022-10-24T18:55:00Z", "2022-10-24T18:54:00Z", "2022-10-24T19:17:00Z", "2022-10-24T19:15:00Z", "2022-10-24T19:33:00Z", "2022-10-24T18:57:00Z", "2022-10-24T18:52:00Z", "2022-10-24T19:35:00Z", "2022-10-24T18:53:00Z", "2022-10-24T18:53:00Z", "2022-10-24T18:56:00Z", "2022-10-24T19:35:00Z", "2022-10-24T18:52:00Z", "2022-10-24T19:33:00Z", "2022-10-24T19:35:00Z", "2022-10-24T19:35:00Z", "2022-10-24T18:53:00Z", "2022-10-24T18:53:00Z", "2022-10-24T18:48:00Z", "2022-10-24T18:56:00Z", "2022-10-24T19:35:00Z", "2022-10-24T19:15:00Z", "2022-10-24T19:35:00Z", "2022-10-24T19:06:00Z", "2022-10-24T19:15:00Z", "2022-10-24T18:53:00Z", "2022-10-24T19:35:00Z", "2022-10-24T18:52:00Z", "2022-10-24T19:15:00Z", "2022-10-24T19:35:00Z", "2022-10-24T18:51:00Z", "2022-10-24T18:45:00Z", "2022-10-24T18:53:00Z", "2022-10-24T19:31:00Z", "2022-10-24T19:15:00Z", "2022-10-24T19:36:00Z", "2022-10-24T19:15:00Z", "2022-10-24T19:17:00Z", "2022-10-24T18:54:00Z", "2022-10-24T19:35:00Z", "2022-10-24T19:35:00Z", "2022-10-24T18:54:00Z", "2022-10-24T19:35:00Z", "2022-10-24T19:35:00Z", "2022-10-24T18:51:00Z", "2022-10-24T19:15:00Z", "2022-10-24T18:53:00Z", "2022-10-24T19:08:00Z", "2022-10-24T19:15:00Z", "2022-10-24T19:35:00Z", "2022-10-24T18:53:00Z", "2022-10-24T19:35:00Z", "2022-10-24T19:35:00Z", "2022-10-24T19:15:00Z", "2022-10-24T19:15:00Z", "2022-10-24T19:35:00Z", "2022-10-24T19:15:00Z", "2022-10-24T18:53:00Z", "2022-10-24T18:55:00Z", "2022-10-24T19:35:00Z", "2022-10-24T18:55:00Z", "2022-10-24T18:53:00Z", "2022-10-24T18:55:00Z", "2022-10-24T19:35:00Z", "2022-10-24T18:52:00Z", "2022-10-24T19:15:00Z", "2022-10-24T18:51:00Z", "2022-10-24T19:15:00Z", "2022-10-24T19:15:00Z", "2022-10-24T18:45:00Z", "2022-10-24T19:15:00Z", "2022-10-24T18:53:00Z", "2022-10-24T19:35:00Z", "2022-10-24T19:15:00Z", "2022-10-24T18:58:00Z", "2022-10-24T18:53:00Z", "2022-10-24T19:22:00Z", "2022-10-24T19:15:00Z", "2022-10-24T19:35:00Z", "2022-10-24T19:35:00Z", "2022-10-24T18:52:00Z", "2022-10-24T19:35:00Z", "2022-10-24T19:35:00Z", "2022-10-24T19:15:00Z", "2022-10-24T18:51:00Z", "2022-10-24T18:53:00Z", "2022-10-24T18:53:00Z", "2022-10-24T18:53:00Z", "2022-10-24T18:53:00Z", "2022-10-24T18:54:00Z", "2022-10-24T18:53:00Z", "2022-10-24T19:29:00Z", "2022-10-24T19:15:00Z", "2022-10-24T19:35:00Z", "2022-10-24T18:53:00Z", "2022-10-24T18:53:00Z", "2022-10-24T19:15:00Z", "2022-10-24T19:15:00Z", "2022-10-24T18:51:00Z", "2022-10-24T18:53:00Z", "2022-10-24T19:33:00Z", "2022-10-24T19:15:00Z", "2022-10-24T18:55:00Z", "2022-10-24T18:56:00Z", "2022-10-24T19:15:00Z", "2022-10-24T18:53:00Z", "2022-10-24T18:52:00Z", "2022-10-24T18:53:00Z", "2022-10-24T19:30:00Z", "2022-10-24T18:47:00Z", "2022-10-24T19:15:00Z", "2022-10-24T18:56:00Z", "2022-10-24T18:52:00Z", "2022-10-24T19:35:00Z", "2022-10-24T19:34:00Z", "2022-10-24T18:58:00Z", "2022-10-24T18:53:00Z", "2022-10-24T19:35:00Z", "2022-10-24T19:35:00Z", "2022-10-24T18:53:00Z", "2022-10-24T18:51:00Z", "2022-10-24T18:56:00Z", "2022-10-24T18:52:00Z", "2022-10-24T18:52:00Z", "2022-10-24T18:53:00Z", "2022-10-24T18:56:00Z", "2022-10-24T18:52:00Z", "2022-10-24T18:55:00Z", "2022-10-24T19:10:00Z", "2022-10-24T18:53:00Z", "2022-10-24T18:56:00Z", "2022-10-24T19:24:00Z", "2022-10-24T18:53:00Z", "2022-10-24T19:15:00Z", "2022-10-24T18:53:00Z", "2022-10-24T19:35:00Z", "2022-10-24T19:11:00Z", "2022-10-24T19:35:00Z", "2022-10-24T18:53:00Z", "2022-10-24T19:24:00Z", "2022-10-24T18:54:00Z", "2022-10-24T18:50:00Z", "2022-10-24T19:15:00Z", "2022-10-24T18:53:00Z", "2022-10-24T18:53:00Z", "2022-10-24T18:53:00Z", "2022-10-24T19:15:00Z", "2022-10-24T19:10:00Z", "2022-10-24T19:15:00Z", "2022-10-24T19:01:00Z", "2022-10-24T19:35:00Z", "2022-10-24T18:53:00Z", "2022-10-24T19:31:00Z", "2022-10-24T19:35:00Z", "2022-10-24T19:35:00Z", "2022-10-24T18:53:00Z", "2022-10-24T18:53:00Z", "2022-10-24T18:56:00Z", "2022-10-24T18:53:00Z", "2022-10-24T18:54:00Z", "2022-10-24T18:54:00Z", "2022-10-24T18:53:00Z", "2022-10-24T19:15:00Z", "2022-10-24T18:54:00Z", "2022-10-24T19:35:00Z", "2022-10-24T19:15:00Z", "2022-10-24T19:09:00Z", "2022-10-24T19:15:00Z", "2022-10-24T19:35:00Z", "2022-10-24T18:56:00Z", "2022-10-24T18:53:00Z", "2022-10-24T18:53:00Z", "2022-10-24T18:54:00Z", "2022-10-24T19:35:00Z", "2022-10-24T19:35:00Z", "2022-10-24T19:35:00Z", "2022-10-24T19:35:00Z", "2022-10-24T18:53:00Z", "2022-10-24T18:53:00Z", "2022-10-24T19:15:00Z", "2022-10-24T18:55:00Z", "2022-10-24T19:15:00Z", "2022-10-24T18:56:00Z", "2022-10-24T19:35:00Z", "2022-10-24T19:35:00Z", "2022-10-24T19:35:00Z", "2022-10-24T19:15:00Z", "2022-10-24T19:15:00Z", "2022-10-24T19:15:00Z", "2022-10-24T19:35:00Z", "2022-10-24T19:11:00Z", "2022-10-24T19:35:00Z", "2022-10-24T18:56:00Z", "2022-10-24T18:53:00Z", "2022-10-24T18:51:00Z", "2022-10-24T18:55:00Z", "2022-10-24T18:54:00Z", "2022-10-24T19:15:00Z", "2022-10-24T19:15:00Z", "2022-10-24T19:15:00Z", "2022-10-24T19:35:00Z", "2022-10-24T19:15:00Z", "2022-10-24T18:55:00Z", "2022-10-24T19:35:00Z", "2022-10-24T19:35:00Z", "2022-10-24T19:15:00Z", "2022-10-24T18:53:00Z", "2022-10-24T19:15:00Z", "2022-10-24T19:35:00Z", "2022-10-24T19:35:00Z", "2022-10-24T18:53:00Z", "2022-10-24T19:13:00Z", "2022-10-24T19:35:00Z", "2022-10-24T19:35:00Z", "2022-10-24T18:51:00Z", "2022-10-24T19:35:00Z", "2022-10-24T19:28:00Z", "2022-10-24T18:53:00Z", "2022-10-24T19:28:00Z", "2022-10-24T18:56:00Z", "2022-10-24T19:29:00Z", "2022-10-24T18:54:00Z", "2022-10-24T18:53:00Z", "2022-10-24T19:35:00Z", "2022-10-24T18:53:00Z", "2022-10-24T19:15:00Z", "2022-10-24T19:35:00Z", "2022-10-24T19:35:00Z", "2022-10-24T19:15:00Z", "2022-10-24T19:14:00Z", "2022-10-24T19:35:00Z", "2022-10-24T19:15:00Z", "2022-10-24T18:45:00Z", "2022-10-24T18:53:00Z", "2022-10-24T19:15:00Z", "2022-10-24T18:56:00Z", "2022-10-24T18:53:00Z", "2022-10-24T18:47:00Z", "2022-10-24T19:20:00Z", "2022-10-24T18:53:00Z", "2022-10-24T18:56:00Z", "2022-10-24T18:47:00Z", "2022-10-24T18:52:00Z", "2022-10-24T19:15:00Z", "2022-10-24T19:35:00Z", "2022-10-24T18:56:00Z", "2022-10-24T19:35:00Z", "2022-10-24T18:53:00Z", "2022-10-24T19:15:00Z", "2022-10-24T19:15:00Z", "2022-10-24T19:35:00Z", "2022-10-24T19:35:00Z", "2022-10-24T19:15:00Z", "2022-10-24T19:15:00Z", "2022-10-24T18:52:00Z", "2022-10-24T19:35:00Z", "2022-10-24T18:51:00Z", "2022-10-24T19:35:00Z", "2022-10-24T19:35:00Z", "2022-10-24T18:53:00Z", "2022-10-24T18:53:00Z", "2022-10-24T19:35:00Z", "2022-10-24T18:52:00Z", "2022-10-24T19:35:00Z", "2022-10-24T18:55:00Z", "2022-10-24T19:15:00Z", "2022-10-24T18:51:00Z", "2022-10-24T18:53:00Z", "2022-10-24T19:35:00Z", "2022-10-24T18:53:00Z", "2022-10-24T18:58:00Z", "2022-10-24T19:35:00Z", "2022-10-24T19:15:00Z", "2022-10-24T19:15:00Z", "2022-10-24T18:55:00Z", "2022-10-24T18:53:00Z", "2022-10-24T18:53:00Z", "2022-10-24T19:29:00Z", "2022-10-24T18:56:00Z", "2022-10-24T18:53:00Z", "2022-10-24T18:56:00Z", "2022-10-24T18:56:00Z", "2022-10-24T18:55:00Z", "2022-10-24T19:15:00Z", "2022-10-24T19:31:00Z", "2022-10-24T19:35:00Z", "2022-10-24T18:54:00Z", "2022-10-24T18:53:00Z", "2022-10-24T18:54:00Z", "2022-10-24T19:15:00Z", "2022-10-24T19:35:00Z", "2022-10-24T19:35:00Z", "2022-10-24T19:26:00Z", "2022-10-24T18:53:00Z", "2022-10-24T19:35:00Z", "2022-10-24T19:15:00Z", "2022-10-24T19:15:00Z", "2022-10-24T19:15:00Z", "2022-10-24T19:06:00Z", "2022-10-24T19:15:00Z", "2022-10-24T19:36:00Z", "2022-10-24T18:47:00Z", "2022-10-24T19:35:00Z", "2022-10-24T18:52:00Z", "2022-10-24T18:53:00Z", "2022-10-24T18:53:00Z", "2022-10-24T18:51:00Z", "2022-10-24T18:53:00Z", "2022-10-24T19:04:00Z", "2022-10-24T18:54:00Z", "2022-10-24T19:35:00Z", "2022-10-24T18:51:00Z", "2022-10-24T18:53:00Z", "2022-10-24T19:35:00Z", "2022-10-24T18:53:00Z", "2022-10-24T18:56:00Z", "2022-10-24T19:15:00Z", "2022-10-24T19:15:00Z", "2022-10-24T19:35:00Z", "2022-10-24T18:53:00Z", "2022-10-24T19:15:00Z", "2022-10-24T19:16:00Z", "2022-10-24T18:53:00Z", "2022-10-24T19:35:00Z", "2022-10-24T18:52:00Z", "2022-10-24T19:35:00Z", "2022-10-24T18:56:00Z", "2022-10-24T19:32:00Z", "2022-10-24T19:10:00Z", "2022-10-24T19:35:00Z", "2022-10-24T18:47:00Z", "2022-10-24T19:35:00Z", "2022-10-24T18:52:00Z", "2022-10-24T18:56:00Z", "2022-10-24T19:15:00Z", "2022-10-24T19:15:00Z", "2022-10-24T19:35:00Z", "2022-10-24T18:53:00Z", "2022-10-24T19:35:00Z", "2022-10-24T19:35:00Z", "2022-10-24T19:30:00Z", "2022-10-24T18:56:00Z", "2022-10-24T19:13:00Z", "2022-10-24T18:53:00Z", "2022-10-24T19:35:00Z", "2022-10-24T19:15:00Z", "2022-10-24T18:56:00Z", "2022-10-24T19:35:00Z", "2022-10-24T19:15:00Z", "2022-10-24T19:35:00Z", "2022-10-24T19:35:00Z", "2022-10-24T19:35:00Z", "2022-10-24T19:35:00Z", "2022-10-24T19:15:00Z", "2022-10-24T19:35:00Z", "2022-10-24T18:55:00Z", "2022-10-24T18:53:00Z", "2022-10-24T18:50:00Z", "2022-10-24T19:28:00Z", "2022-10-24T18:53:00Z", "2022-10-24T18:51:00Z", "2022-10-24T18:56:00Z", "2022-10-24T19:15:00Z", "2022-10-24T18:53:00Z", "2022-10-24T18:52:00Z", "2022-10-24T19:35:00Z", "2022-10-24T18:53:00Z", "2022-10-24T19:15:00Z", "2022-10-24T18:52:00Z", "2022-10-24T19:28:00Z", "2022-10-24T18:54:00Z", "2022-10-24T19:15:00Z", "2022-10-24T19:35:00Z", "2022-10-24T18:53:00Z", "2022-10-24T18:53:00Z", "2022-10-24T18:53:00Z", "2022-10-24T18:53:00Z", "2022-10-24T18:53:00Z", "2022-10-24T19:21:00Z", "2022-10-24T18:53:00Z", "2022-10-24T18:53:00Z", "2022-10-24T18:53:00Z", "2022-10-24T18:56:00Z", "2022-10-24T18:56:00Z", "2022-10-24T19:15:00Z", "2022-10-24T18:53:00Z", "2022-10-24T19:15:00Z", "2022-10-24T19:35:00Z", "2022-10-24T18:55:00Z", "2022-10-24T18:55:00Z", "2022-10-24T19:35:00Z", "2022-10-24T18:53:00Z", "2022-10-24T19:15:00Z", "2022-10-24T19:07:00Z", "2022-10-24T19:35:00Z", "2022-10-24T18:55:00Z", "2022-10-24T18:54:00Z", "2022-10-24T18:53:00Z", "2022-10-24T19:21:00Z", "2022-10-24T19:10:00Z", "2022-10-24T19:35:00Z", "2022-10-24T18:53:00Z", "2022-10-24T19:35:00Z", "2022-10-24T19:15:00Z", "2022-10-24T19:33:00Z", "2022-10-24T18:52:00Z", "2022-10-24T18:55:00Z", "2022-10-24T19:15:00Z", "2022-10-24T19:15:00Z", "2022-10-24T18:53:00Z", "2022-10-24T19:35:00Z", "2022-10-24T19:35:00Z", "2022-10-24T18:53:00Z", "2022-10-24T18:53:00Z", "2022-10-24T19:15:00Z", "2022-10-24T19:20:00Z", "2022-10-24T18:54:00Z", "2022-10-24T19:35:00Z", "2022-10-24T19:35:00Z", "2022-10-24T18:53:00Z", "2022-10-24T19:00:00Z", "2022-10-24T18:53:00Z", "2022-10-24T18:53:00Z", "2022-10-24T19:35:00Z", "2022-10-24T19:16:00Z", "2022-10-24T19:15:00Z", "2022-10-24T19:35:00Z", "2022-10-24T18:53:00Z", "2022-10-24T19:15:00Z", "2022-10-24T19:10:00Z", "2022-10-24T19:07:00Z", "2022-10-24T18:52:00Z", "2022-10-24T19:15:00Z", "2022-10-24T19:33:00Z", "2022-10-24T18:53:00Z", "2022-10-24T19:35:00Z", "2022-10-24T18:53:00Z", "2022-10-24T18:56:00Z", "2022-10-24T19:10:00Z", "2022-10-24T18:53:00Z", "2022-10-24T19:35:00Z", "2022-10-24T19:35:00Z", "2022-10-24T19:35:00Z", "2022-10-24T18:54:00Z", "2022-10-24T18:56:00Z", "2022-10-24T18:55:00Z", "2022-10-24T19:35:00Z", "2022-10-24T19:35:00Z", "2022-10-24T19:15:00Z", "2022-10-24T19:15:00Z", "2022-10-24T19:15:00Z", "2022-10-24T19:15:00Z", "2022-10-24T19:15:00Z", "2022-10-24T19:15:00Z", "2022-10-24T19:10:00Z", "2022-10-24T18:56:00Z", "2022-10-24T18:55:00Z", "2022-10-24T18:56:00Z", "2022-10-24T19:15:00Z", "2022-10-24T19:15:00Z", "2022-10-24T19:15:00Z", "2022-10-24T18:54:00Z", "2022-10-24T18:53:00Z", "2022-10-24T19:35:00Z", "2022-10-24T19:15:00Z", "2022-10-24T19:35:00Z", "2022-10-24T19:35:00Z", "2022-10-24T19:35:00Z", "2022-10-24T19:35:00Z", "2022-10-24T18:55:00Z", "2022-10-24T18:56:00Z", "2022-10-24T19:33:00Z", "2022-10-24T18:53:00Z", "2022-10-24T18:53:00Z", "2022-10-24T18:54:00Z", "2022-10-24T19:35:00Z", "2022-10-24T19:35:00Z", "2022-10-24T18:56:00Z", "2022-10-24T18:55:00Z", "2022-10-24T19:15:00Z", "2022-10-24T19:35:00Z", "2022-10-24T19:15:00Z", "2022-10-24T19:35:00Z", "2022-10-24T18:56:00Z", "2022-10-24T19:35:00Z", "2022-10-24T19:35:00Z", "2022-10-24T18:51:00Z", "2022-10-24T18:56:00Z", "2022-10-24T19:21:00Z", "2022-10-24T19:30:00Z", "2022-10-24T19:35:00Z", "2022-10-24T18:56:00Z", "2022-10-24T19:15:00Z", "2022-10-24T18:53:00Z", "2022-10-24T19:35:00Z", "2022-10-24T18:53:00Z", "2022-10-24T18:53:00Z", "2022-10-24T19:35:00Z", "2022-10-24T18:51:00Z", "2022-10-24T18:53:00Z", "2022-10-24T18:56:00Z", "2022-10-24T19:15:00Z", "2022-10-24T19:29:00Z", "2022-10-24T18:45:00Z", "2022-10-24T19:35:00Z", "2022-10-24T19:10:00Z", "2022-10-24T18:56:00Z", "2022-10-24T18:53:00Z", "2022-10-24T19:35:00Z", "2022-10-24T18:53:00Z", "2022-10-24T19:15:00Z", "2022-10-24T18:53:00Z", "2022-10-24T18:51:00Z", "2022-10-24T19:35:00Z", "2022-10-24T19:15:00Z", "2022-10-24T18:56:00Z", "2022-10-24T18:53:00Z", "2022-10-24T18:45:00Z", "2022-10-24T18:52:00Z", "2022-10-24T19:35:00Z", "2022-10-24T19:15:00Z", "2022-10-24T19:33:00Z", "2022-10-24T19:15:00Z", "2022-10-24T18:58:00Z", "2022-10-24T18:54:00Z", "2022-10-24T18:47:00Z", "2022-10-24T19:21:00Z", "2022-10-24T19:35:00Z", "2022-10-24T18:54:00Z", "2022-10-24T19:14:00Z", "2022-10-24T18:53:00Z", "2022-10-24T18:56:00Z", "2022-10-24T18:54:00Z", "2022-10-24T18:51:00Z", "2022-10-24T19:35:00Z", "2022-10-24T18:53:00Z", "2022-10-24T19:35:00Z", "2022-10-24T18:53:00Z", "2022-10-24T19:35:00Z", "2022-10-24T19:35:00Z", "2022-10-24T19:35:00Z", "2022-10-24T19:15:00Z", "2022-10-24T19:15:00Z", "2022-10-24T19:35:00Z", "2022-10-24T19:35:00Z", "2022-10-24T19:35:00Z", "2022-10-24T19:35:00Z", "2022-10-24T19:35:00Z", "2022-10-24T18:55:00Z", "2022-10-24T18:56:00Z", "2022-10-24T18:55:00Z", "2022-10-24T18:53:00Z", "2022-10-24T18:53:00Z", "2022-10-24T18:55:00Z", "2022-10-24T19:35:00Z", "2022-10-24T18:56:00Z", "2022-10-24T18:53:00Z", "2022-10-24T18:55:00Z", "2022-10-24T18:53:00Z", "2022-10-24T19:35:00Z", "2022-10-24T18:53:00Z", "2022-10-24T19:15:00Z", "2022-10-24T19:15:00Z", "2022-10-24T18:58:00Z", "2022-10-24T19:35:00Z", "2022-10-24T18:53:00Z", "2022-10-24T19:15:00Z", "2022-10-24T19:35:00Z", "2022-10-24T18:55:00Z", "2022-10-24T18:53:00Z", "2022-10-24T19:35:00Z", "2022-10-24T18:54:00Z", "2022-10-24T19:35:00Z", "2022-10-24T19:15:00Z", "2022-10-24T18:53:00Z", "2022-10-24T18:55:00Z", "2022-10-24T18:54:00Z", "2022-10-24T18:50:00Z", "2022-10-24T18:52:00Z", "2022-10-24T19:35:00Z", "2022-10-24T18:56:00Z", "2022-10-24T19:35:00Z", "2022-10-24T19:15:00Z", "2022-10-24T19:35:00Z", "2022-10-24T18:53:00Z", "2022-10-24T18:57:00Z", "2022-10-24T18:53:00Z", "2022-10-24T18:53:00Z", "2022-10-24T18:56:00Z", "2022-10-24T19:35:00Z", "2022-10-24T19:19:00Z", "2022-10-24T19:15:00Z", "2022-10-24T19:15:00Z", "2022-10-24T18:53:00Z", "2022-10-24T18:53:00Z", "2022-10-24T18:53:00Z", "2022-10-24T18:56:00Z", "2022-10-24T18:53:00Z", "2022-10-24T19:15:00Z", "2022-10-24T18:56:00Z", "2022-10-24T19:22:00Z", "2022-10-24T18:53:00Z", "2022-10-24T19:30:00Z", "2022-10-24T19:33:00Z", "2022-10-24T19:35:00Z", "2022-10-24T18:53:00Z", "2022-10-24T19:15:00Z", "2022-10-24T19:15:00Z", "2022-10-24T18:53:00Z", "2022-10-24T19:35:00Z", "2022-10-24T19:28:00Z", "2022-10-24T18:56:00Z", "2022-10-24T19:35:00Z", "2022-10-24T18:56:00Z", "2022-10-24T19:35:00Z", "2022-10-24T18:55:00Z", "2022-10-24T19:15:00Z", "2022-10-24T18:53:00Z", "2022-10-24T19:35:00Z", "2022-10-24T19:29:00Z", "2022-10-24T19:15:00Z", "2022-10-24T19:12:00Z", "2022-10-24T19:35:00Z", "2022-10-24T18:53:00Z", "2022-10-24T18:53:00Z", "2022-10-24T18:53:00Z", "2022-10-24T18:53:00Z", "2022-10-24T19:35:00Z", "2022-10-24T18:54:00Z", "2022-10-24T19:35:00Z", "2022-10-24T19:15:00Z", "2022-10-24T19:28:00Z", "2022-10-24T18:50:00Z", "2022-10-24T19:15:00Z", "2022-10-24T18:53:00Z", "2022-10-24T19:15:00Z", "2022-10-24T19:35:00Z", "2022-10-24T19:15:00Z", "2022-10-24T19:15:00Z", "2022-10-24T18:53:00Z", "2022-10-24T19:15:00Z", "2022-10-24T18:56:00Z", "2022-10-24T19:35:00Z", "2022-10-24T18:53:00Z", "2022-10-24T18:56:00Z", "2022-10-24T19:35:00Z", "2022-10-24T18:56:00Z", "2022-10-24T19:15:00Z", "2022-10-24T19:15:00Z", "2022-10-24T18:53:00Z", "2022-10-24T19:15:00Z", "2022-10-24T18:54:00Z", "2022-10-24T19:15:00Z", "2022-10-24T18:54:00Z", "2022-10-24T19:35:00Z", "2022-10-24T19:15:00Z", "2022-10-24T19:35:00Z", "2022-10-24T19:31:00Z", "2022-10-24T19:19:00Z", "2022-10-24T19:33:00Z", "2022-10-24T18:53:00Z", "2022-10-24T18:53:00Z", "2022-10-24T19:15:00Z", "2022-10-24T18:53:00Z", "2022-10-24T18:53:00Z", "2022-10-24T18:55:00Z", "2022-10-24T18:53:00Z", "2022-10-24T19:32:00Z", "2022-10-24T19:35:00Z", "2022-10-24T19:15:00Z", "2022-10-24T19:25:00Z", "2022-10-24T19:15:00Z", "2022-10-24T19:16:00Z", "2022-10-24T19:20:00Z", "2022-10-24T19:15:00Z", "2022-10-24T19:35:00Z", "2022-10-24T19:15:00Z", "2022-10-24T18:53:00Z", "2022-10-24T18:53:00Z", "2022-10-24T18:53:00Z", "2022-10-24T19:35:00Z", "2022-10-24T19:17:00Z", "2022-10-24T18:53:00Z", "2022-10-24T19:15:00Z", "2022-10-24T18:53:00Z", "2022-10-24T18:53:00Z", "2022-10-24T18:52:00Z", "2022-10-24T19:15:00Z", "2022-10-24T19:15:00Z", "2022-10-24T19:35:00Z", "2022-10-24T19:15:00Z", "2022-10-24T18:53:00Z", "2022-10-24T18:56:00Z", "2022-10-24T19:15:00Z", "2022-10-24T19:15:00Z", "2022-10-24T19:35:00Z", "2022-10-24T18:56:00Z", "2022-10-24T19:35:00Z", "2022-10-24T18:53:00Z", "2022-10-24T18:53:00Z", "2022-10-24T18:56:00Z", "2022-10-24T19:30:00Z", "2022-10-24T19:15:00Z", "2022-10-24T18:58:00Z", "2022-10-24T19:15:00Z", "2022-10-24T18:35:00Z", "2022-10-24T18:55:00Z", "2022-10-24T18:50:00Z", "2022-10-24T19:09:00Z", "2022-10-24T18:56:00Z", "2022-10-24T18:53:00Z", "2022-10-24T18:56:00Z", "2022-10-24T18:55:00Z", "2022-10-24T18:53:00Z", "2022-10-24T19:30:00Z", "2022-10-24T19:35:00Z", "2022-10-24T18:53:00Z", "2022-10-24T19:15:00Z", "2022-10-24T18:55:00Z", "2022-10-24T18:53:00Z", "2022-10-24T18:54:00Z", "2022-10-24T18:53:00Z", "2022-10-24T18:55:00Z", "2022-10-24T18:53:00Z", "2022-10-24T18:56:00Z", "2022-10-24T18:56:00Z", "2022-10-24T18:56:00Z", "2022-10-24T18:53:00Z", "2022-10-24T19:04:00Z", "2022-10-24T18:55:00Z", "2022-10-24T18:53:00Z", "2022-10-24T18:53:00Z", "2022-10-24T18:56:00Z", "2022-10-24T19:15:00Z", "2022-10-24T19:10:00Z", "2022-10-24T19:15:00Z", "2022-10-24T18:53:00Z", "2022-10-24T19:35:00Z", "2022-10-24T19:35:00Z", "2022-10-24T18:55:00Z", "2022-10-24T18:56:00Z", "2022-10-24T19:35:00Z", "2022-10-24T19:15:00Z", "2022-10-24T18:47:00Z", "2022-10-24T18:50:00Z", "2022-10-24T19:35:00Z", "2022-10-24T18:47:00Z", "2022-10-24T18:45:00Z", "2022-10-24T18:53:00Z", "2022-10-24T19:15:00Z", "2022-10-24T19:20:00Z", "2022-10-24T19:35:00Z", "2022-10-24T19:35:00Z", "2022-10-24T19:35:00Z", "2022-10-24T19:35:00Z", "2022-10-24T19:35:00Z", "2022-10-24T18:53:00Z", "2022-10-24T18:53:00Z", "2022-10-24T19:35:00Z", "2022-10-24T18:53:00Z", "2022-10-24T19:10:00Z", "2022-10-24T19:15:00Z", "2022-10-24T19:35:00Z", "2022-10-24T19:15:00Z", "2022-10-24T19:15:00Z", "2022-10-24T19:15:00Z", "2022-10-24T19:06:00Z", "2022-10-24T18:51:00Z", "2022-10-24T18:56:00Z", "2022-10-24T19:35:00Z", "2022-10-24T19:31:00Z", "2022-10-24T19:15:00Z", "2022-10-24T18:55:00Z", "2022-10-24T18:56:00Z", "2022-10-24T18:53:00Z", "2022-10-24T18:55:00Z", "2022-10-24T19:35:00Z", "2022-10-24T19:35:00Z", "2022-10-24T18:53:00Z", "2022-10-24T19:35:00Z", "2022-10-24T19:15:00Z", "2022-10-24T18:53:00Z", "2022-10-24T19:15:00Z", "2022-10-24T19:15:00Z", "2022-10-24T18:53:00Z", "2022-10-24T18:52:00Z", "2022-10-24T19:28:00Z", "2022-10-24T19:15:00Z", "2022-10-24T18:53:00Z", "2022-10-24T19:15:00Z", "2022-10-24T18:53:00Z", "2022-10-24T18:53:00Z", "2022-10-24T18:53:00Z", "2022-10-24T18:53:00Z", "2022-10-24T19:35:00Z", "2022-10-24T18:53:00Z", "2022-10-24T18:53:00Z", "2022-10-24T18:53:00Z", "2022-10-24T19:26:00Z", "2022-10-24T19:35:00Z", "2022-10-24T18:50:00Z", "2022-10-24T18:55:00Z", "2022-10-24T19:15:00Z", "2022-10-24T19:35:00Z", "2022-10-24T19:15:00Z", "2022-10-24T18:56:00Z", "2022-10-24T18:56:00Z", "2022-10-24T19:15:00Z", "2022-10-24T19:35:00Z", "2022-10-24T18:50:00Z", "2022-10-24T19:35:00Z", "2022-10-24T18:55:00Z", "2022-10-24T18:55:00Z", "2022-10-24T18:53:00Z", "2022-10-24T18:53:00Z", "2022-10-24T19:10:00Z", "2022-10-24T19:15:00Z", "2022-10-24T19:35:00Z", "2022-10-24T19:35:00Z", "2022-10-24T18:53:00Z", "2022-10-24T19:15:00Z", "2022-10-24T18:50:00Z", "2022-10-24T19:35:00Z", "2022-10-24T18:53:00Z", "2022-10-24T19:35:00Z", "2022-10-24T18:52:00Z", "2022-10-24T19:29:00Z", "2022-10-24T18:55:00Z", "2022-10-24T19:35:00Z", "2022-10-24T18:47:00Z", "2022-10-24T18:48:00Z", "2022-10-24T19:35:00Z", "2022-10-24T18:51:00Z", "2022-10-24T18:53:00Z", "2022-10-24T19:35:00Z", "2022-10-24T18:55:00Z", "2022-10-24T18:53:00Z", "2022-10-24T18:53:00Z", "2022-10-24T18:51:00Z", "2022-10-24T18:58:00Z", "2022-10-24T18:53:00Z", "2022-10-24T18:53:00Z", "2022-10-24T18:47:00Z", "2022-10-24T18:52:00Z", "2022-10-24T19:15:00Z", "2022-10-24T19:10:00Z", "2022-10-24T18:53:00Z", "2022-10-24T19:15:00Z", "2022-10-24T18:54:00Z", "2022-10-24T18:53:00Z", "2022-10-24T18:56:00Z", "2022-10-24T19:35:00Z", "2022-10-24T18:50:00Z", "2022-10-24T19:35:00Z", "2022-10-24T18:56:00Z", "2022-10-24T19:34:00Z", "2022-10-24T18:56:00Z", "2022-10-24T19:35:00Z", "2022-10-24T19:15:00Z", "2022-10-24T19:35:00Z", "2022-10-24T19:35:00Z", "2022-10-24T19:35:00Z", "2022-10-24T19:15:00Z", "2022-10-24T19:15:00Z", "2022-10-24T18:53:00Z", "2022-10-24T19:35:00Z", "2022-10-24T19:35:00Z", "2022-10-24T19:15:00Z", "2022-10-24T19:35:00Z", "2022-10-24T19:15:00Z", "2022-10-24T19:35:00Z", "2022-10-24T19:15:00Z", "2022-10-24T19:15:00Z", "2022-10-24T19:10:00Z", "2022-10-24T18:52:00Z", "2022-10-24T18:53:00Z", "2022-10-24T18:53:00Z", "2022-10-24T19:15:00Z", "2022-10-24T19:15:00Z", "2022-10-24T18:53:00Z", "2022-10-24T19:00:00Z", "2022-10-24T19:00:00Z", "2022-10-24T19:35:00Z", "2022-10-24T19:15:00Z", "2022-10-24T18:52:00Z", "2022-10-24T19:35:00Z", "2022-10-24T19:35:00Z", "2022-10-24T18:50:00Z", "2022-10-24T18:51:00Z", "2022-10-24T19:35:00Z", "2022-10-24T19:15:00Z", "2022-10-24T18:52:00Z", "2022-10-24T19:15:00Z", "2022-10-24T19:15:00Z", "2022-10-24T19:15:00Z", "2022-10-24T19:35:00Z", "2022-10-24T19:22:00Z", "2022-10-24T18:58:00Z", "2022-10-24T18:53:00Z", "2022-10-24T18:54:00Z", "2022-10-24T18:53:00Z", "2022-10-24T19:15:00Z", "2022-10-24T18:54:00Z", "2022-10-24T18:54:00Z", "2022-10-24T19:35:00Z", "2022-10-24T19:35:00Z", "2022-10-24T18:53:00Z", "2022-10-24T18:54:00Z", "2022-10-24T18:55:00Z", "2022-10-24T18:54:00Z", "2022-10-24T18:56:00Z", "2022-10-24T19:35:00Z", "2022-10-24T18:52:00Z", "2022-10-24T19:35:00Z", "2022-10-24T18:53:00Z", "2022-10-24T18:54:00Z", "2022-10-24T18:55:00Z", "2022-10-24T19:35:00Z", "2022-10-24T18:56:00Z", "2022-10-24T18:56:00Z", "2022-10-24T18:56:00Z", "2022-10-24T19:35:00Z", "2022-10-24T18:54:00Z", "2022-10-24T18:56:00Z", "2022-10-24T18:53:00Z", "2022-10-24T19:35:00Z", "2022-10-24T18:47:00Z", "2022-10-24T19:34:00Z", "2022-10-24T19:35:00Z", "2022-10-24T19:35:00Z", "2022-10-24T19:02:00Z", "2022-10-24T19:15:00Z", "2022-10-24T19:15:00Z", "2022-10-24T19:03:00Z", "2022-10-24T18:56:00Z", "2022-10-24T18:54:00Z", "2022-10-24T19:35:00Z", "2022-10-24T19:15:00Z", "2022-10-24T19:35:00Z", "2022-10-24T18:56:00Z", "2022-10-24T18:53:00Z", "2022-10-24T19:15:00Z", "2022-10-24T18:51:00Z", "2022-10-24T19:15:00Z", "2022-10-24T18:48:00Z", "2022-10-24T18:53:00Z", "2022-10-24T18:53:00Z", "2022-10-24T19:15:00Z", "2022-10-24T18:51:00Z", "2022-10-24T19:35:00Z", "2022-10-24T19:35:00Z", "2022-10-24T19:35:00Z", "2022-10-24T18:56:00Z", "2022-10-24T18:55:00Z", "2022-10-24T19:35:00Z", "2022-10-24T18:53:00Z", "2022-10-24T18:53:00Z", "2022-10-24T19:35:00Z", "2022-10-24T18:56:00Z", "2022-10-24T19:15:00Z", "2022-10-24T19:15:00Z", "2022-10-24T19:35:00Z", "2022-10-24T18:50:00Z", "2022-10-24T18:56:00Z", "2022-10-24T19:35:00Z", "2022-10-24T19:20:00Z", "2022-10-24T19:35:00Z", "2022-10-24T18:54:00Z", "2022-10-24T19:15:00Z", "2022-10-24T19:35:00Z", "2022-10-24T19:35:00Z", "2022-10-24T18:45:00Z", "2022-10-24T19:15:00Z", "2022-10-24T19:15:00Z", "2022-10-24T19:35:00Z", "2022-10-24T19:35:00Z", "2022-10-24T19:35:00Z", "2022-10-24T18:56:00Z", "2022-10-24T19:35:00Z", "2022-10-24T19:35:00Z", "2022-10-24T19:35:00Z", "2022-10-24T19:35:00Z", "2022-10-24T19:15:00Z", "2022-10-24T19:35:00Z", "2022-10-24T19:15:00Z", "2022-10-24T19:35:00Z", "2022-10-24T19:15:00Z", "2022-10-24T18:56:00Z", "2022-10-24T19:35:00Z", "2022-10-24T19:35:00Z", "2022-10-24T19:35:00Z", "2022-10-24T19:35:00Z", "2022-10-24T19:35:00Z", "2022-10-24T18:53:00Z", "2022-10-24T18:54:00Z", "2022-10-24T18:50:00Z", "2022-10-24T19:15:00Z", "2022-10-24T18:53:00Z", "2022-10-24T19:35:00Z", "2022-10-24T18:56:00Z", "2022-10-24T18:53:00Z", "2022-10-24T18:53:00Z", "2022-10-24T18:53:00Z", "2022-10-24T18:50:00Z", "2022-10-24T18:53:00Z", "2022-10-24T18:56:00Z", "2022-10-24T19:35:00Z", "2022-10-24T18:56:00Z", "2022-10-24T19:35:00Z", "2022-10-24T18:53:00Z", "2022-10-24T19:35:00Z", "2022-10-24T18:55:00Z", "2022-10-24T19:15:00Z", "2022-10-24T19:35:00Z", "2022-10-24T19:35:00Z", "2022-10-24T18:53:00Z", "2022-10-24T18:53:00Z", "2022-10-24T18:56:00Z", "2022-10-24T18:54:00Z", "2022-10-24T19:10:00Z", "2022-10-24T19:24:00Z", "2022-10-24T18:53:00Z", "2022-10-24T19:25:00Z", "2022-10-24T18:53:00Z", "2022-10-24T19:15:00Z", "2022-10-24T19:07:00Z", "2022-10-24T18:55:00Z", "2022-10-24T18:51:00Z", "2022-10-24T19:15:00Z", "2022-10-24T19:15:00Z", "2022-10-24T18:53:00Z", "2022-10-24T18:55:00Z", "2022-10-24T18:53:00Z", "2022-10-24T19:35:00Z", "2022-10-24T18:55:00Z", "2022-10-24T18:53:00Z", "2022-10-24T19:35:00Z", "2022-10-24T19:35:00Z", "2022-10-24T19:35:00Z", "2022-10-24T19:13:00Z", "2022-10-24T18:55:00Z", "2022-10-24T19:15:00Z", "2022-10-24T18:53:00Z", "2022-10-24T19:15:00Z", "2022-10-24T18:53:00Z", "2022-10-24T19:35:00Z", "2022-10-24T19:35:00Z", "2022-10-24T18:53:00Z", "2022-10-24T18:54:00Z", "2022-10-24T19:35:00Z", "2022-10-24T19:15:00Z", "2022-10-24T19:35:00Z", "2022-10-24T19:35:00Z", "2022-10-24T18:56:00Z", "2022-10-24T19:18:00Z", "2022-10-24T18:53:00Z", "2022-10-24T19:15:00Z", "2022-10-24T18:55:00Z", "2022-10-24T19:15:00Z", "2022-10-24T18:53:00Z", "2022-10-24T18:53:00Z", "2022-10-24T18:53:00Z", "2022-10-24T19:35:00Z", "2022-10-24T18:56:00Z", "2022-10-24T19:15:00Z", "2022-10-24T19:15:00Z", "2022-10-24T19:35:00Z", "2022-10-24T19:35:00Z", "2022-10-24T19:35:00Z", "2022-10-24T18:53:00Z", "2022-10-24T18:55:00Z", "2022-10-24T18:55:00Z", "2022-10-24T18:55:00Z", "2022-10-24T19:15:00Z", "2022-10-24T19:15:00Z", "2022-10-24T18:55:00Z", "2022-10-24T19:35:00Z", "2022-10-24T18:53:00Z", "2022-10-24T19:15:00Z", "2022-10-24T19:35:00Z", "2022-10-24T19:15:00Z", "2022-10-24T19:35:00Z", "2022-10-24T18:53:00Z", "2022-10-24T18:53:00Z", "2022-10-24T19:35:00Z", "2022-10-24T18:53:00Z", "2022-10-24T19:15:00Z", "2022-10-24T19:20:00Z", "2022-10-24T19:35:00Z", "2022-10-24T18:50:00Z", "2022-10-24T19:14:00Z", "2022-10-24T19:26:00Z", "2022-10-24T18:54:00Z", "2022-10-24T18:56:00Z", "2022-10-24T18:54:00Z", "2022-10-24T18:53:00Z", "2022-10-24T19:35:00Z", "2022-10-24T19:15:00Z", "2022-10-24T19:28:00Z", "2022-10-24T18:53:00Z", "2022-10-24T19:35:00Z", "2022-10-24T18:54:00Z", "2022-10-24T19:35:00Z", "2022-10-24T19:35:00Z", "2022-10-24T18:56:00Z", "2022-10-24T19:15:00Z", "2022-10-24T19:35:00Z", "2022-10-24T19:35:00Z", "2022-10-24T19:35:00Z", "2022-10-24T19:35:00Z", "2022-10-24T18:56:00Z", "2022-10-24T19:35:00Z", "2022-10-24T19:35:00Z", "2022-10-24T19:35:00Z", "2022-10-24T19:35:00Z", "2022-10-24T19:30:00Z", "2022-10-24T19:35:00Z", "2022-10-24T19:35:00Z", "2022-10-24T18:53:00Z", "2022-10-24T18:53:00Z", "2022-10-24T18:53:00Z", "2022-10-24T19:35:00Z", "2022-10-24T19:35:00Z", "2022-10-24T19:35:00Z", "2022-10-24T18:52:00Z", "2022-10-24T18:56:00Z", "2022-10-24T19:35:00Z", "2022-10-24T18:53:00Z", "2022-10-24T19:35:00Z", "2022-10-24T19:35:00Z", "2022-10-24T18:53:00Z", "2022-10-24T19:35:00Z", "2022-10-24T19:35:00Z", "2022-10-24T18:53:00Z", "2022-10-24T18:55:00Z", "2022-10-24T18:53:00Z", "2022-10-24T19:35:00Z", "2022-10-24T18:53:00Z", "2022-10-24T18:53:00Z", "2022-10-24T18:53:00Z", "2022-10-24T18:53:00Z", "2022-10-24T19:15:00Z", "2022-10-24T18:52:00Z", "2022-10-24T19:35:00Z", "2022-10-24T18:56:00Z", "2022-10-24T18:53:00Z", "2022-10-24T19:35:00Z", "2022-10-24T18:52:00Z", "2022-10-24T19:29:00Z", "2022-10-24T18:58:00Z", "2022-10-24T18:54:00Z", "2022-10-24T18:53:00Z", "2022-10-24T19:35:00Z", "2022-10-24T19:35:00Z", "2022-10-24T18:52:00Z", "2022-10-24T18:53:00Z", "2022-10-24T18:54:00Z", "2022-10-24T19:12:00Z", "2022-10-24T19:15:00Z", "2022-10-24T19:15:00Z", "2022-10-24T18:55:00Z", "2022-10-24T19:35:00Z", "2022-10-24T18:54:00Z", "2022-10-24T18:53:00Z", "2022-10-24T19:35:00Z", "2022-10-24T19:15:00Z", "2022-10-24T18:53:00Z", "2022-10-24T18:53:00Z", "2022-10-24T18:53:00Z", "2022-10-24T19:14:00Z", "2022-10-24T19:35:00Z", "2022-10-24T19:15:00Z", "2022-10-24T18:45:00Z", "2022-10-24T18:56:00Z", "2022-10-24T18:53:00Z", "2022-10-24T18:53:00Z", "2022-10-24T19:11:00Z", "2022-10-24T18:53:00Z", "2022-10-24T18:53:00Z", "2022-10-24T19:35:00Z", "2022-10-24T18:54:00Z", "2022-10-24T19:30:00Z", "2022-10-24T19:15:00Z", "2022-10-24T19:15:00Z", "2022-10-24T19:25:00Z", "2022-10-24T18:52:00Z", "2022-10-24T18:55:00Z", "2022-10-24T19:35:00Z", "2022-10-24T18:53:00Z", "2022-10-24T19:35:00Z", "2022-10-24T19:35:00Z", "2022-10-24T19:15:00Z", "2022-10-24T18:53:00Z", "2022-10-24T19:27:00Z", "2022-10-24T19:15:00Z", "2022-10-24T18:52:00Z", "2022-10-24T18:52:00Z", "2022-10-24T19:15:00Z", "2022-10-24T19:31:00Z", "2022-10-24T18:53:00Z", "2022-10-24T19:31:00Z", "2022-10-24T18:53:00Z", "2022-10-24T19:15:00Z", "2022-10-24T19:35:00Z", "2022-10-24T18:53:00Z", "2022-10-24T18:55:00Z", "2022-10-24T18:50:00Z", "2022-10-24T19:35:00Z", "2022-10-24T19:15:00Z", "2022-10-24T19:35:00Z", "2022-10-24T18:56:00Z", "2022-10-24T18:53:00Z", "2022-10-24T19:35:00Z", "2022-10-24T19:35:00Z", "2022-10-24T18:56:00Z", "2022-10-24T18:53:00Z", "2022-10-24T19:15:00Z", "2022-10-24T19:35:00Z", "2022-10-24T18:54:00Z", "2022-10-24T19:15:00Z", "2022-10-24T19:15:00Z", "2022-10-24T18:51:00Z", "2022-10-24T19:10:00Z", "2022-10-24T19:15:00Z", "2022-10-24T19:15:00Z", "2022-10-24T19:35:00Z", "2022-10-24T19:15:00Z", "2022-10-24T19:15:00Z", "2022-10-24T18:56:00Z", "2022-10-24T18:53:00Z", "2022-10-24T19:30:00Z", "2022-10-24T18:56:00Z", "2022-10-24T18:58:00Z", "2022-10-24T19:35:00Z", "2022-10-24T19:35:00Z", "2022-10-24T19:15:00Z", "2022-10-24T18:54:00Z", "2022-10-24T18:53:00Z", "2022-10-24T18:53:00Z", "2022-10-24T18:53:00Z", "2022-10-24T18:53:00Z", "2022-10-24T18:53:00Z", "2022-10-24T19:32:00Z", "2022-10-24T18:53:00Z", "2022-10-24T18:56:00Z", "2022-10-24T18:53:00Z", "2022-10-24T18:53:00Z", "2022-10-24T19:20:00Z", "2022-10-24T18:55:00Z", "2022-10-24T18:53:00Z", "2022-10-24T18:54:00Z", "2022-10-24T19:35:00Z", "2022-10-24T18:56:00Z", "2022-10-24T18:55:00Z", "2022-10-24T18:56:00Z", "2022-10-24T19:35:00Z", "2022-10-24T19:35:00Z", "2022-10-24T19:35:00Z", "2022-10-24T18:54:00Z", "2022-10-24T18:56:00Z", "2022-10-24T18:53:00Z", "2022-10-24T18:47:00Z", "2022-10-24T18:45:00Z", "2022-10-24T18:52:00Z", "2022-10-24T19:15:00Z", "2022-10-24T19:16:00Z", "2022-10-24T19:35:00Z", "2022-10-24T18:48:00Z", "2022-10-24T19:15:00Z", "2022-10-24T18:55:00Z", "2022-10-24T18:53:00Z", "2022-10-24T19:35:00Z", "2022-10-24T18:57:00Z", "2022-10-24T19:14:00Z", "2022-10-24T18:53:00Z", "2022-10-24T19:10:00Z", "2022-10-24T19:35:00Z", "2022-10-24T19:15:00Z", "2022-10-24T19:15:00Z", "2022-10-24T19:35:00Z", "2022-10-24T18:52:00Z", "2022-10-24T18:54:00Z", "2022-10-24T18:56:00Z", "2022-10-24T18:55:00Z", "2022-10-24T19:34:00Z", "2022-10-24T18:56:00Z", "2022-10-24T18:56:00Z", "2022-10-24T19:00:00Z", "2022-10-24T18:53:00Z", "2022-10-24T18:56:00Z", "2022-10-24T18:52:00Z", "2022-10-24T18:56:00Z", "2022-10-24T18:52:00Z", "2022-10-24T18:56:00Z", "2022-10-24T19:34:00Z", "2022-10-24T18:52:00Z", "2022-10-24T18:56:00Z", "2022-10-24T18:53:00Z", "2022-10-24T18:56:00Z", "2022-10-24T18:57:00Z", "2022-10-24T18:57:00Z", "2022-10-24T18:56:00Z", "2022-10-24T18:55:00Z", "2022-10-24T18:56:00Z", "2022-10-24T18:56:00Z", "2022-10-24T18:56:00Z", "2022-10-24T19:15:00Z", "2022-10-24T18:59:00Z", "2022-10-24T18:56:00Z", "2022-10-24T18:50:00Z", "2022-10-24T18:56:00Z", "2022-10-24T18:53:00Z", "2022-10-24T18:52:00Z", "2022-10-24T19:15:00Z", "2022-10-24T18:53:00Z", "2022-10-24T18:56:00Z", "2022-10-24T18:53:00Z", "2022-10-24T18:55:00Z", "2022-10-24T18:56:00Z", "2022-10-24T18:56:00Z", "2022-10-24T19:05:00Z", "2022-10-24T19:35:00Z", "2022-10-24T18:53:00Z", "2022-10-24T18:56:00Z", "2022-10-24T18:56:00Z", "2022-10-24T19:15:00Z", "2022-10-24T19:31:00Z", "2022-10-24T18:56:00Z", "2022-10-24T18:57:00Z", "2022-10-24T18:52:00Z", "2022-10-24T19:35:00Z", "2022-10-24T19:35:00Z", "2022-10-24T19:35:00Z", "2022-10-24T19:35:00Z", "2022-10-24T18:56:00Z", "2022-10-24T18:53:00Z", "2022-10-24T19:35:00Z", "2022-10-24T19:15:00Z", "2022-10-24T18:51:00Z", "2022-10-24T19:28:00Z", "2022-10-24T19:35:00Z", "2022-10-24T19:15:00Z", "2022-10-24T19:08:00Z", "2022-10-24T18:53:00Z", "2022-10-24T19:35:00Z", "2022-10-24T19:15:00Z", "2022-10-24T19:35:00Z", "2022-10-24T18:55:00Z", "2022-10-24T18:56:00Z", "2022-10-24T18:54:00Z", "2022-10-24T19:15:00Z", "2022-10-24T18:53:00Z", "2022-10-24T18:53:00Z", "2022-10-24T19:15:00Z", "2022-10-24T19:35:00Z", "2022-10-24T19:35:00Z", "2022-10-24T19:35:00Z", "2022-10-24T18:53:00Z", "2022-10-24T18:52:00Z", "2022-10-24T19:22:00Z", "2022-10-24T18:56:00Z", "2022-10-24T19:15:00Z", "2022-10-24T19:35:00Z", "2022-10-24T19:15:00Z", "2022-10-24T19:15:00Z", "2022-10-24T18:53:00Z", "2022-10-24T19:35:00Z", "2022-10-24T19:03:00Z", "2022-10-24T18:54:00Z", "2022-10-24T18:56:00Z", "2022-10-24T18:50:00Z", "2022-10-24T19:15:00Z", "2022-10-24T19:15:00Z", "2022-10-24T18:52:00Z", "2022-10-24T19:35:00Z", "2022-10-24T18:53:00Z", "2022-10-24T18:50:00Z", "2022-10-24T19:18:00Z", "2022-10-24T19:15:00Z", "2022-10-24T19:35:00Z", "2022-10-24T18:53:00Z", "2022-10-24T18:53:00Z", "2022-10-24T19:15:00Z", "2022-10-24T19:35:00Z", "2022-10-24T19:15:00Z", "2022-10-24T18:53:00Z", "2022-10-24T19:15:00Z", "2022-10-24T19:15:00Z", "2022-10-24T19:15:00Z", "2022-10-24T18:53:00Z", "2022-10-24T19:33:00Z", "2022-10-24T18:51:00Z", "2022-10-24T19:30:00Z", "2022-10-24T19:34:00Z", "2022-10-24T19:15:00Z", "2022-10-24T19:30:00Z", "2022-10-24T18:53:00Z", "2022-10-24T19:35:00Z", "2022-10-24T19:10:00Z", "2022-10-24T19:35:00Z", "2022-10-24T18:53:00Z", "2022-10-24T18:53:00Z", "2022-10-24T19:21:00Z", "2022-10-24T19:36:00Z", "2022-10-24T18:51:00Z", "2022-10-24T18:53:00Z", "2022-10-24T19:35:00Z", "2022-10-24T18:53:00Z", "2022-10-24T19:33:00Z", "2022-10-24T18:56:00Z", "2022-10-24T19:35:00Z", "2022-10-24T19:15:00Z", "2022-10-24T19:15:00Z", "2022-10-24T18:51:00Z", "2022-10-24T19:35:00Z", "2022-10-24T19:35:00Z", "2022-10-24T18:51:00Z", "2022-10-24T19:35:00Z", "2022-10-24T19:15:00Z", "2022-10-24T18:55:00Z", "2022-10-24T19:35:00Z", "2022-10-24T19:35:00Z", "2022-10-24T19:35:00Z", "2022-10-24T18:56:00Z", "2022-10-24T18:56:00Z", "2022-10-24T18:55:00Z", "2022-10-24T18:51:00Z", "2022-10-24T18:56:00Z", "2022-10-24T18:53:00Z", "2022-10-24T18:52:00Z", "2022-10-24T19:02:00Z", "2022-10-24T18:53:00Z", "2022-10-24T18:55:00Z", "2022-10-24T19:35:00Z", "2022-10-24T18:47:00Z", "2022-10-24T18:53:00Z", "2022-10-24T18:53:00Z", "2022-10-24T19:35:00Z", "2022-10-24T18:53:00Z", "2022-10-24T19:10:00Z", "2022-10-24T19:15:00Z", "2022-10-24T19:35:00Z", "2022-10-24T19:35:00Z", "2022-10-24T19:35:00Z", "2022-10-24T19:35:00Z", "2022-10-24T18:53:00Z", "2022-10-24T18:53:00Z", "2022-10-24T18:53:00Z", "2022-10-24T19:15:00Z", "2022-10-24T18:53:00Z", "2022-10-24T19:15:00Z", "2022-10-24T19:35:00Z", "2022-10-24T19:15:00Z", "2022-10-24T18:53:00Z", "2022-10-24T18:53:00Z", "2022-10-24T19:35:00Z", "2022-10-24T18:53:00Z", "2022-10-24T18:54:00Z", "2022-10-24T18:54:00Z", "2022-10-24T19:15:00Z", "2022-10-24T18:55:00Z", "2022-10-24T19:35:00Z", "2022-10-24T18:51:00Z", "2022-10-24T18:54:00Z", "2022-10-24T18:56:00Z", "2022-10-24T18:53:00Z", "2022-10-24T18:56:00Z", "2022-10-24T19:30:00Z", "2022-10-24T19:15:00Z", "2022-10-24T18:53:00Z", "2022-10-24T18:51:00Z", "2022-10-24T18:53:00Z", "2022-10-24T18:53:00Z", "2022-10-24T19:35:00Z", "2022-10-24T18:54:00Z", "2022-10-24T19:35:00Z", "2022-10-24T19:15:00Z", "2022-10-24T18:53:00Z", "2022-10-24T19:15:00Z", "2022-10-24T18:53:00Z", "2022-10-24T19:15:00Z", "2022-10-24T19:15:00Z", "2022-10-24T19:15:00Z", "2022-10-24T19:26:00Z", "2022-10-24T18:54:00Z", "2022-10-24T19:35:00Z", "2022-10-24T18:53:00Z", "2022-10-24T19:15:00Z", "2022-10-24T18:55:00Z", "2022-10-24T18:55:00Z", "2022-10-24T18:53:00Z", "2022-10-24T19:00:00Z", "2022-10-24T19:35:00Z", "2022-10-24T19:15:00Z", "2022-10-24T19:15:00Z", "2022-10-24T19:01:00Z", "2022-10-24T19:15:00Z", "2022-10-24T19:15:00Z", "2022-10-24T18:56:00Z", "2022-10-24T18:53:00Z", "2022-10-24T18:53:00Z", "2022-10-24T18:53:00Z", "2022-10-24T19:15:00Z", "2022-10-24T18:58:00Z", "2022-10-24T19:35:00Z", "2022-10-24T19:35:00Z", "2022-10-24T19:33:00Z", "2022-10-24T18:53:00Z", "2022-10-24T19:06:00Z", "2022-10-24T19:35:00Z", "2022-10-24T19:12:00Z", "2022-10-24T19:15:00Z", "2022-10-24T19:15:00Z", "2022-10-24T18:53:00Z", "2022-10-24T18:53:00Z", "2022-10-24T19:35:00Z", "2022-10-24T19:35:00Z", "2022-10-24T18:53:00Z", "2022-10-24T18:56:00Z", "2022-10-24T19:35:00Z", "2022-10-24T19:15:00Z", "2022-10-24T18:56:00Z", "2022-10-24T19:23:00Z", "2022-10-24T18:53:00Z", "2022-10-24T18:53:00Z", "2022-10-24T19:35:00Z", "2022-10-24T19:28:00Z", "2022-10-24T19:35:00Z", "2022-10-24T18:56:00Z", "2022-10-24T19:30:00Z", "2022-10-24T19:35:00Z", "2022-10-24T18:56:00Z", "2022-10-24T19:35:00Z", "2022-10-24T18:56:00Z", "2022-10-24T19:10:00Z", "2022-10-24T19:34:00Z", "2022-10-24T19:35:00Z", "2022-10-24T19:35:00Z", "2022-10-24T19:18:00Z", "2022-10-24T18:52:00Z", "2022-10-24T19:06:00Z", "2022-10-24T19:34:00Z", "2022-10-24T19:15:00Z", "2022-10-24T19:25:00Z", "2022-10-24T19:35:00Z", "2022-10-24T19:35:00Z", "2022-10-24T19:15:00Z", "2022-10-24T18:55:00Z", "2022-10-24T18:55:00Z", "2022-10-24T19:22:00Z", "2022-10-24T19:30:00Z", "2022-10-24T19:30:00Z", "2022-10-24T19:30:00Z", "2022-10-24T19:30:00Z", "2022-10-24T19:30:00Z", "2022-10-24T19:30:00Z", "2022-10-24T19:30:00Z", "2022-10-24T19:30:00Z", "2022-10-24T19:30:00Z", "2022-10-24T19:30:00Z", "2022-10-24T19:30:00Z", "2022-10-24T19:30:00Z", "2022-10-24T19:30:00Z", "2022-10-24T19:30:00Z", "2022-10-24T19:30:00Z", "2022-10-24T19:30:00Z", "2022-10-24T18:55:00Z", "2022-10-24T18:55:00Z", "2022-10-24T18:55:00Z", "2022-10-24T18:55:00Z", "2022-10-24T18:53:00Z", "2022-10-24T18:53:00Z", "2022-10-24T19:05:00Z", "2022-10-24T19:15:00Z", "2022-10-24T19:35:00Z", "2022-10-24T18:53:00Z", "2022-10-24T19:15:00Z", "2022-10-24T18:54:00Z", "2022-10-24T19:15:00Z", "2022-10-24T19:15:00Z", "2022-10-24T19:20:00Z", "2022-10-24T19:35:00Z", "2022-10-24T19:35:00Z", "2022-10-24T19:15:00Z", "2022-10-24T19:15:00Z", "2022-10-24T19:35:00Z", "2022-10-24T19:35:00Z", "2022-10-24T19:18:00Z", "2022-10-24T19:15:00Z", "2022-10-24T18:56:00Z", "2022-10-24T18:55:00Z", "2022-10-24T18:51:00Z", "2022-10-24T19:15:00Z", "2022-10-24T18:52:00Z", "2022-10-24T18:54:00Z", "2022-10-24T19:35:00Z", "2022-10-24T19:19:00Z", "2022-10-24T19:35:00Z", "2022-10-24T18:53:00Z", "2022-10-24T19:35:00Z", "2022-10-24T18:47:00Z", "2022-10-24T18:54:00Z", "2022-10-24T18:53:00Z", "2022-10-24T18:55:00Z", "2022-10-24T18:53:00Z", "2022-10-24T18:53:00Z", "2022-10-24T19:15:00Z", "2022-10-24T18:54:00Z", "2022-10-24T19:30:00Z", "2022-10-24T19:35:00Z", "2022-10-24T18:53:00Z", "2022-10-24T18:53:00Z", "2022-10-24T19:35:00Z", "2022-10-24T19:35:00Z", "2022-10-24T19:35:00Z", "2022-10-24T19:25:00Z", "2022-10-24T19:35:00Z", "2022-10-24T18:53:00Z", "2022-10-24T18:55:00Z", "2022-10-24T19:35:00Z", "2022-10-24T18:53:00Z", "2022-10-24T19:35:00Z", "2022-10-24T18:54:00Z", "2022-10-24T18:54:00Z", "2022-10-24T19:21:00Z", "2022-10-24T19:24:00Z", "2022-10-24T18:51:00Z", "2022-10-24T19:35:00Z", "2022-10-24T19:35:00Z", "2022-10-24T19:35:00Z", "2022-10-24T19:15:00Z", "2022-10-24T18:46:00Z", "2022-10-24T19:35:00Z", "2022-10-24T18:53:00Z", "2022-10-24T19:35:00Z", "2022-10-24T19:15:00Z", "2022-10-24T18:53:00Z", "2022-10-24T19:15:00Z", "2022-10-24T18:53:00Z", "2022-10-24T19:11:00Z", "2022-10-24T19:35:00Z", "2022-10-24T18:53:00Z", "2022-10-24T19:35:00Z", "2022-10-24T19:35:00Z", "2022-10-24T18:56:00Z", "2022-10-24T19:35:00Z", "2022-10-24T19:15:00Z", "2022-10-24T19:35:00Z", "2022-10-24T18:53:00Z", "2022-10-24T18:53:00Z", "2022-10-24T18:53:00Z", "2022-10-24T18:53:00Z", "2022-10-24T19:15:00Z", "2022-10-24T18:53:00Z", "2022-10-24T18:55:00Z", "2022-10-24T18:45:00Z", "2022-10-24T19:35:00Z", "2022-10-24T18:55:00Z", "2022-10-24T18:50:00Z", "2022-10-24T19:35:00Z", "2022-10-24T19:35:00Z", "2022-10-24T19:35:00Z", "2022-10-24T19:35:00Z", "2022-10-24T19:35:00Z", "2022-10-24T19:35:00Z", "2022-10-24T19:35:00Z", "2022-10-24T19:35:00Z", "2022-10-24T19:15:00Z", "2022-10-24T19:35:00Z", "2022-10-24T19:15:00Z", "2022-10-24T19:30:00Z", "2022-10-24T19:30:00Z", "2022-10-24T19:25:00Z", "2022-10-24T19:15:00Z", "2022-10-24T18:53:00Z", "2022-10-24T18:51:00Z", "2022-10-24T18:53:00Z", "2022-10-24T18:51:00Z", "2022-10-24T19:35:00Z", "2022-10-24T18:51:00Z", "2022-10-24T18:53:00Z", "2022-10-24T18:46:00Z", "2022-10-24T19:35:00Z", "2022-10-24T18:53:00Z", "2022-10-24T18:53:00Z", "2022-10-24T18:54:00Z", "2022-10-24T19:15:00Z", "2022-10-24T18:56:00Z", "2022-10-24T19:15:00Z", "2022-10-24T18:54:00Z", "2022-10-24T19:35:00Z", "2022-10-24T18:45:00Z", "2022-10-24T18:55:00Z", "2022-10-24T19:35:00Z", "2022-10-24T19:35:00Z", "2022-10-24T19:15:00Z", "2022-10-24T18:53:00Z", "2022-10-24T19:35:00Z", "2022-10-24T18:56:00Z", "2022-10-24T18:53:00Z", "2022-10-24T18:53:00Z", "2022-10-24T19:19:00Z", "2022-10-24T18:53:00Z", "2022-10-24T18:47:00Z", "2022-10-24T19:15:00Z", "2022-10-24T18:53:00Z", "2022-10-24T19:35:00Z", "2022-10-24T19:35:00Z", "2022-10-24T18:55:00Z", "2022-10-24T18:54:00Z", "2022-10-24T19:35:00Z", "2022-10-24T18:53:00Z", "2022-10-24T18:53:00Z", "2022-10-24T19:22:00Z", "2022-10-24T18:56:00Z", "2022-10-24T19:35:00Z", "2022-10-24T19:23:00Z", "2022-10-24T19:29:00Z", "2022-10-24T18:52:00Z", "2022-10-24T18:56:00Z", "2022-10-24T18:56:00Z", "2022-10-24T18:53:00Z", "2022-10-24T19:35:00Z", "2022-10-24T18:56:00Z", "2022-10-24T18:56:00Z", "2022-10-24T19:35:00Z", "2022-10-24T19:15:00Z", "2022-10-24T18:53:00Z", "2022-10-24T18:53:00Z", "2022-10-24T18:56:00Z", "2022-10-24T19:15:00Z", "2022-10-24T19:35:00Z", "2022-10-24T18:53:00Z", "2022-10-24T18:53:00Z", "2022-10-24T19:15:00Z", "2022-10-24T18:51:00Z", "2022-10-24T19:35:00Z", "2022-10-24T19:35:00Z", "2022-10-24T19:35:00Z", "2022-10-24T18:56:00Z", "2022-10-24T19:15:00Z", "2022-10-24T18:54:00Z", "2022-10-24T19:03:00Z", "2022-10-24T19:14:00Z", "2022-10-24T19:35:00Z", "2022-10-24T18:55:00Z", "2022-10-24T18:51:00Z", "2022-10-24T18:53:00Z", "2022-10-24T19:35:00Z", "2022-10-24T19:10:00Z", "2022-10-24T19:15:00Z", "2022-10-24T18:53:00Z", "2022-10-24T18:56:00Z", "2022-10-24T18:51:00Z", "2022-10-24T19:35:00Z", "2022-10-24T19:26:00Z", "2022-10-24T19:35:00Z", "2022-10-24T18:51:00Z", "2022-10-24T18:53:00Z", "2022-10-24T19:35:00Z", "2022-10-24T19:30:00Z", "2022-10-24T19:35:00Z", "2022-10-24T19:15:00Z", "2022-10-24T18:53:00Z", "2022-10-24T18:51:00Z", "2022-10-24T18:53:00Z", "2022-10-24T19:15:00Z", "2022-10-24T18:56:00Z", "2022-10-24T19:35:00Z", "2022-10-24T19:35:00Z", "2022-10-24T19:34:00Z", "2022-10-24T18:56:00Z", "2022-10-24T19:35:00Z", "2022-10-24T18:53:00Z", "2022-10-24T18:52:00Z", "2022-10-24T19:06:00Z", "2022-10-24T18:53:00Z", "2022-10-24T18:56:00Z", "2022-10-24T19:35:00Z", "2022-10-24T18:56:00Z", "2022-10-24T18:53:00Z", "2022-10-24T19:35:00Z", "2022-10-24T18:55:00Z", "2022-10-24T18:53:00Z", "2022-10-24T18:53:00Z", "2022-10-24T18:53:00Z", "2022-10-24T19:15:00Z", "2022-10-24T19:35:00Z", "2022-10-24T19:29:00Z", "2022-10-24T19:15:00Z", "2022-10-24T18:51:00Z", "2022-10-24T18:53:00Z", "2022-10-24T18:53:00Z", "2022-10-24T18:50:00Z", "2022-10-24T18:56:00Z", "2022-10-24T18:47:00Z", "2022-10-24T18:54:00Z", "2022-10-24T18:35:00Z", "2022-10-24T18:55:00Z", "2022-10-24T19:35:00Z", "2022-10-24T18:52:00Z", "2022-10-24T19:35:00Z", "2022-10-24T19:35:00Z", "2022-10-24T19:35:00Z", "2022-10-24T19:35:00Z", "2022-10-24T18:55:00Z", "2022-10-24T18:45:00Z", "2022-10-24T19:34:00Z", "2022-10-24T19:35:00Z", "2022-10-24T19:15:00Z", "2022-10-24T18:55:00Z", "2022-10-24T19:34:00Z", "2022-10-24T19:35:00Z", "2022-10-24T19:35:00Z", "2022-10-24T19:35:00Z", "2022-10-24T19:35:00Z", "2022-10-24T19:35:00Z", "2022-10-24T18:54:00Z", "2022-10-24T18:55:00Z", "2022-10-24T19:35:00Z", "2022-10-24T19:35:00Z", "2022-10-24T19:15:00Z", "2022-10-24T19:15:00Z", "2022-10-24T19:35:00Z", "2022-10-24T18:55:00Z", "2022-10-24T19:15:00Z", "2022-10-24T19:35:00Z", "2022-10-24T19:15:00Z", "2022-10-24T19:35:00Z", "2022-10-24T19:26:00Z", "2022-10-24T18:52:00Z", "2022-10-24T19:15:00Z", "2022-10-24T18:55:00Z", "2022-10-24T19:15:00Z", "2022-10-24T18:53:00Z", "2022-10-24T18:53:00Z", "2022-10-24T18:55:00Z", "2022-10-24T18:53:00Z", "2022-10-24T19:35:00Z", "2022-10-24T19:35:00Z", "2022-10-24T18:55:00Z", "2022-10-24T18:53:00Z", "2022-10-24T19:19:00Z", "2022-10-24T19:35:00Z", "2022-10-24T19:15:00Z", "2022-10-24T18:55:00Z", "2022-10-24T19:35:00Z", "2022-10-24T19:35:00Z", "2022-10-24T18:53:00Z", "2022-10-24T19:15:00Z", "2022-10-24T18:55:00Z", "2022-10-24T19:15:00Z", "2022-10-24T18:53:00Z", "2022-10-24T18:47:00Z", "2022-10-24T19:15:00Z", "2022-10-24T19:13:00Z", "2022-10-24T19:35:00Z", "2022-10-24T19:35:00Z", "2022-10-24T18:53:00Z", "2022-10-24T18:53:00Z", "2022-10-24T19:35:00Z", "2022-10-24T19:15:00Z", "2022-10-24T19:15:00Z", "2022-10-24T19:10:00Z", "2022-10-24T19:15:00Z", "2022-10-24T18:50:00Z", "2022-10-24T19:35:00Z", "2022-10-24T19:15:00Z", "2022-10-24T18:53:00Z", "2022-10-24T18:52:00Z", "2022-10-24T19:14:00Z", "2022-10-24T18:53:00Z", "2022-10-24T18:53:00Z", "2022-10-24T18:56:00Z", "2022-10-24T18:51:00Z", "2022-10-24T18:54:00Z", "2022-10-24T19:35:00Z", "2022-10-24T19:15:00Z", "2022-10-24T19:35:00Z", "2022-10-24T18:53:00Z", "2022-10-24T18:45:00Z", "2022-10-24T19:16:00Z", "2022-10-24T18:52:00Z", "2022-10-24T19:35:00Z", "2022-10-24T19:15:00Z", "2022-10-24T19:18:00Z", "2022-10-24T19:35:00Z", "2022-10-24T19:09:00Z", "2022-10-24T18:55:00Z", "2022-10-24T18:53:00Z", "2022-10-24T18:53:00Z", "2022-10-24T18:53:00Z", "2022-10-24T18:53:00Z", "2022-10-24T18:56:00Z", "2022-10-24T19:15:00Z", "2022-10-24T18:53:00Z", "2022-10-24T18:53:00Z", "2022-10-24T19:35:00Z", "2022-10-24T18:53:00Z", "2022-10-24T19:35:00Z", "2022-10-24T19:35:00Z", "2022-10-24T18:53:00Z", "2022-10-24T19:10:00Z", "2022-10-24T19:15:00Z", "2022-10-24T19:15:00Z", "2022-10-24T18:53:00Z", "2022-10-24T18:53:00Z", "2022-10-24T18:47:00Z", "2022-10-24T19:35:00Z", "2022-10-24T19:35:00Z", "2022-10-24T19:15:00Z", "2022-10-24T18:53:00Z", "2022-10-24T19:35:00Z", "2022-10-24T18:56:00Z", "2022-10-24T19:35:00Z", "2022-10-24T18:56:00Z", "2022-10-24T18:45:00Z", "2022-10-24T18:55:00Z", "2022-10-24T18:53:00Z", "2022-10-24T18:54:00Z", "2022-10-24T19:15:00Z", "2022-10-24T18:56:00Z", "2022-10-24T19:15:00Z", "2022-10-24T19:35:00Z", "2022-10-24T19:35:00Z", "2022-10-24T19:15:00Z", "2022-10-24T19:15:00Z", "2022-10-24T19:15:00Z", "2022-10-24T18:53:00Z", "2022-10-24T19:35:00Z", "2022-10-24T18:53:00Z", "2022-10-24T19:35:00Z", "2022-10-24T19:35:00Z", "2022-10-24T19:35:00Z", "2022-10-24T18:53:00Z", "2022-10-24T19:26:00Z", "2022-10-24T19:35:00Z", "2022-10-24T19:35:00Z", "2022-10-24T19:15:00Z", "2022-10-24T18:54:00Z", "2022-10-24T18:55:00Z", "2022-10-24T19:15:00Z", "2022-10-24T18:54:00Z", "2022-10-24T18:55:00Z", "2022-10-24T19:32:00Z", "2022-10-24T18:53:00Z", "2022-10-24T18:51:00Z", "2022-10-24T19:35:00Z", "2022-10-24T19:35:00Z", "2022-10-24T19:15:00Z", "2022-10-24T18:53:00Z", "2022-10-24T19:35:00Z", "2022-10-24T19:15:00Z", "2022-10-24T19:35:00Z", "2022-10-24T18:53:00Z", "2022-10-24T19:15:00Z", "2022-10-24T18:53:00Z", "2022-10-24T18:56:00Z", "2022-10-24T19:35:00Z", "2022-10-24T19:15:00Z", "2022-10-24T18:53:00Z", "2022-10-24T19:35:00Z", "2022-10-24T19:35:00Z", "2022-10-24T18:51:00Z", "2022-10-24T19:20:00Z", "2022-10-24T18:55:00Z", "2022-10-24T19:15:00Z", "2022-10-24T18:55:00Z", "2022-10-24T18:56:00Z", "2022-10-24T18:50:00Z", "2022-10-24T18:53:00Z", "2022-10-24T18:54:00Z", "2022-10-24T18:54:00Z", "2022-10-24T19:35:00Z", "2022-10-24T18:52:00Z", "2022-10-24T19:15:00Z", "2022-10-24T19:15:00Z", "2022-10-24T18:53:00Z", "2022-10-24T19:15:00Z", "2022-10-24T19:35:00Z", "2022-10-24T19:35:00Z", "2022-10-24T19:15:00Z", "2022-10-24T19:35:00Z", "2022-10-24T19:15:00Z", "2022-10-24T19:15:00Z", "2022-10-24T19:35:00Z", "2022-10-24T19:35:00Z", "2022-10-24T19:35:00Z", "2022-10-24T19:35:00Z", "2022-10-24T19:35:00Z", "2022-10-24T19:35:00Z", "2022-10-24T19:19:00Z", "2022-10-24T19:15:00Z", "2022-10-24T19:15:00Z", "2022-10-24T18:45:00Z", "2022-10-24T19:15:00Z", "2022-10-24T18:50:00Z", "2022-10-24T18:56:00Z", "2022-10-24T18:54:00Z", "2022-10-24T18:56:00Z", "2022-10-24T18:55:00Z", "2022-10-24T19:30:00Z", "2022-10-24T18:53:00Z", "2022-10-24T18:53:00Z", "2022-10-24T18:53:00Z", "2022-10-24T19:25:00Z", "2022-10-24T18:56:00Z", "2022-10-24T19:15:00Z", "2022-10-24T19:35:00Z", "2022-10-24T19:15:00Z", "2022-10-24T19:35:00Z", "2022-10-24T19:15:00Z", "2022-10-24T19:15:00Z", "2022-10-24T18:55:00Z", "2022-10-24T19:15:00Z", "2022-10-24T18:55:00Z", "2022-10-24T18:53:00Z", "2022-10-24T18:55:00Z", "2022-10-24T19:35:00Z", "2022-10-24T19:35:00Z", "2022-10-24T19:33:00Z", "2022-10-24T19:06:00Z", "2022-10-24T19:35:00Z", "2022-10-24T19:35:00Z", "2022-10-24T19:15:00Z", "2022-10-24T19:15:00Z", "2022-10-24T18:56:00Z", "2022-10-24T19:35:00Z", "2022-10-24T19:35:00Z", "2022-10-24T19:35:00Z", "2022-10-24T18:53:00Z", "2022-10-24T18:53:00Z", "2022-10-24T18:56:00Z", "2022-10-24T18:51:00Z", "2022-10-24T19:15:00Z", "2022-10-24T19:15:00Z", "2022-10-24T18:53:00Z", "2022-10-24T19:20:00Z", "2022-10-24T19:30:00Z", "2022-10-24T19:30:00Z", "2022-10-24T19:00:00Z", "2022-10-24T19:30:00Z", "2022-10-24T19:00:00Z", "2022-10-24T19:00:00Z", "2022-10-24T19:30:00Z", "2022-10-24T19:30:00Z", "2022-10-24T19:20:00Z", "2022-10-24T19:30:00Z", "2022-10-24T19:30:00Z", "2022-10-24T19:20:00Z", "2022-10-24T19:30:00Z", "2022-10-24T19:30:00Z", "2022-10-24T19:30:00Z", "2022-10-24T19:30:00Z", "2022-10-24T19:30:00Z", "2022-10-24T19:30:00Z", "2022-10-24T19:30:00Z", "2022-10-24T19:30:00Z", "2022-10-24T19:30:00Z", "2022-10-24T19:30:00Z", "2022-10-24T19:30:00Z", "2022-10-24T19:30:00Z", "2022-10-24T19:30:00Z", "2022-10-24T19:30:00Z", "2022-10-24T19:30:00Z", "2022-10-24T19:30:00Z", "2022-10-24T19:30:00Z", "2022-10-24T19:30:00Z", "2022-10-24T19:30:00Z", "2022-10-24T19:00:00Z", "2022-10-24T19:30:00Z", "2022-10-24T19:30:00Z", "2022-10-24T19:30:00Z", "2022-10-24T19:30:00Z", "2022-10-24T19:30:00Z", "2022-10-24T19:30:00Z", "2022-10-24T19:30:00Z", "2022-10-24T19:30:00Z", "2022-10-24T19:30:00Z", "2022-10-24T19:30:00Z", "2022-10-24T19:30:00Z", "2022-10-24T19:30:00Z", "2022-10-24T19:30:00Z", "2022-10-24T19:30:00Z", "2022-10-24T19:30:00Z", "2022-10-24T19:30:00Z", "2022-10-24T19:30:00Z", "2022-10-24T19:30:00Z", "2022-10-24T19:30:00Z", "2022-10-24T19:30:00Z", "2022-10-24T19:30:00Z", "2022-10-24T19:30:00Z", "2022-10-24T19:30:00Z", "2022-10-24T19:30:00Z", "2022-10-24T19:30:00Z", "2022-10-24T19:00:00Z", "2022-10-24T19:30:00Z", "2022-10-24T19:30:00Z", "2022-10-24T19:30:00Z", "2022-10-24T19:30:00Z", "2022-10-24T19:30:00Z", "2022-10-24T19:30:00Z", "2022-10-24T19:30:00Z", "2022-10-24T19:30:00Z", "2022-10-24T19:30:00Z", "2022-10-24T19:30:00Z", "2022-10-24T19:30:00Z", "2022-10-24T19:30:00Z", "2022-10-24T19:30:00Z", "2022-10-24T19:30:00Z", "2022-10-24T19:30:00Z", "2022-10-24T19:30:00Z", "2022-10-24T19:00:00Z", "2022-10-24T19:30:00Z", "2022-10-24T19:30:00Z", "2022-10-24T19:30:00Z", "2022-10-24T19:30:00Z", "2022-10-24T19:30:00Z", "2022-10-24T19:30:00Z", "2022-10-24T19:30:00Z", "2022-10-24T19:30:00Z", "2022-10-24T19:30:00Z", "2022-10-24T19:30:00Z", "2022-10-24T19:30:00Z", "2022-10-24T19:30:00Z", "2022-10-24T19:30:00Z", "2022-10-24T19:30:00Z", "2022-10-24T19:30:00Z", "2022-10-24T19:30:00Z", "2022-10-24T19:00:00Z", "2022-10-24T19:30:00Z", "2022-10-24T19:30:00Z", "2022-10-24T19:30:00Z", "2022-10-24T19:30:00Z", "2022-10-24T19:30:00Z", "2022-10-24T19:30:00Z", "2022-10-24T19:30:00Z", "2022-10-24T19:30:00Z", "2022-10-24T19:30:00Z", "2022-10-24T19:30:00Z", "2022-10-24T19:30:00Z", "2022-10-24T19:30:00Z", "2022-10-24T19:30:00Z", "2022-10-24T19:30:00Z", "2022-10-24T19:30:00Z", "2022-10-24T19:30:00Z", "2022-10-24T19:30:00Z", "2022-10-24T19:30:00Z", "2022-10-24T19:30:00Z", "2022-10-24T19:30:00Z", "2022-10-24T19:30:00Z", "2022-10-24T19:30:00Z", "2022-10-24T19:30:00Z", "2022-10-24T19:30:00Z", "2022-10-24T19:30:00Z", "2022-10-24T19:30:00Z", "2022-10-24T19:30:00Z", "2022-10-24T19:30:00Z", "2022-10-24T19:30:00Z", "2022-10-24T19:30:00Z", "2022-10-24T19:30:00Z", "2022-10-24T19:30:00Z", "2022-10-24T19:30:00Z", "2022-10-24T19:30:00Z", "2022-10-24T19:30:00Z", "2022-10-24T19:30:00Z", "2022-10-24T19:30:00Z", "2022-10-24T19:30:00Z", "2022-10-24T19:30:00Z", "2022-10-24T19:30:00Z", "2022-10-24T19:30:00Z", "2022-10-24T19:30:00Z", "2022-10-24T19:30:00Z", "2022-10-24T19:30:00Z", "2022-10-24T19:30:00Z", "2022-10-24T19:30:00Z", "2022-10-24T19:30:00Z", "2022-10-24T19:30:00Z", "2022-10-24T19:30:00Z", "2022-10-24T19:30:00Z", "2022-10-24T19:30:00Z", "2022-10-24T19:30:00Z", "2022-10-24T19:30:00Z", "2022-10-24T19:30:00Z", "2022-10-24T19:30:00Z", "2022-10-24T19:30:00Z", "2022-10-24T19:30:00Z", "2022-10-24T19:30:00Z", "2022-10-24T19:30:00Z", "2022-10-24T19:30:00Z", "2022-10-24T19:30:00Z", "2022-10-24T19:30:00Z", "2022-10-24T19:30:00Z", "2022-10-24T19:30:00Z", "2022-10-24T19:30:00Z", "2022-10-24T19:30:00Z", "2022-10-24T19:30:00Z", "2022-10-24T19:30:00Z", "2022-10-24T19:30:00Z", "2022-10-24T19:30:00Z", "2022-10-24T19:30:00Z", "2022-10-24T19:30:00Z", "2022-10-24T19:30:00Z", "2022-10-24T19:30:00Z", "2022-10-24T19:30:00Z", "2022-10-24T19:30:00Z", "2022-10-24T19:30:00Z", "2022-10-24T19:30:00Z", "2022-10-24T19:30:00Z", "2022-10-24T19:30:00Z", "2022-10-24T19:20:00Z", "2022-10-24T19:20:00Z", "2022-10-24T19:20:00Z", "2022-10-24T18:50:00Z", "2022-10-24T19:20:00Z", "2022-10-24T18:50:00Z", "2022-10-24T19:20:00Z", "2022-10-24T19:20:00Z", "2022-10-24T18:50:00Z", "2022-10-24T19:20:00Z", "2022-10-24T19:20:00Z", "2022-10-24T19:30:00Z", "2022-10-24T19:20:00Z", "2022-10-24T19:20:00Z", "2022-10-24T19:20:00Z", "2022-10-24T18:50:00Z", "2022-10-24T19:20:00Z", "2022-10-24T19:20:00Z", "2022-10-24T18:50:00Z", "2022-10-24T18:50:00Z", "2022-10-24T19:20:00Z", "2022-10-24T18:50:00Z", "2022-10-24T19:20:00Z", "2022-10-24T18:50:00Z", "2022-10-24T19:20:00Z", "2022-10-24T19:20:00Z", "2022-10-24T18:50:00Z", "2022-10-24T19:30:00Z", "2022-10-24T19:15:00Z", "2022-10-24T19:15:00Z", "2022-10-24T19:15:00Z", "2022-10-24T19:15:00Z", "2022-10-24T19:15:00Z", "2022-10-24T19:15:00Z", "2022-10-24T19:15:00Z", "2022-10-24T18:55:00Z", "2022-10-24T19:20:00Z", "2022-10-24T18:50:00Z", "2022-10-24T18:55:00Z", "2022-10-24T19:20:00Z", "2022-10-24T18:55:00Z", "2022-10-24T19:20:00Z", "2022-10-24T18:55:00Z", "2022-10-24T19:20:00Z", "2022-10-24T19:20:00Z", "2022-10-24T19:20:00Z", "2022-10-24T19:20:00Z", "2022-10-24T18:55:00Z", "2022-10-24T19:20:00Z", "2022-10-24T19:20:00Z", "2022-10-24T18:55:00Z", "2022-10-24T18:55:00Z", "2022-10-24T19:20:00Z", "2022-10-24T18:55:00Z", "2022-10-24T18:55:00Z", "2022-10-24T19:20:00Z", "2022-10-24T19:20:00Z", "2022-10-24T19:20:00Z", "2022-10-24T19:20:00Z", "2022-10-24T19:20:00Z", "2022-10-24T19:20:00Z", "2022-10-24T19:20:00Z", "2022-10-24T18:50:00Z", "2022-10-24T18:55:00Z", "2022-10-24T18:55:00Z", "2022-10-24T19:20:00Z", "2022-10-24T18:55:00Z", "2022-10-24T19:25:00Z", "2022-10-24T18:55:00Z", "2022-10-24T19:20:00Z", "2022-10-24T19:20:00Z", "2022-10-24T18:55:00Z", "2022-10-24T18:50:00Z", "2022-10-24T18:55:00Z", "2022-10-24T19:20:00Z", "2022-10-24T19:20:00Z", "2022-10-24T19:20:00Z", "2022-10-24T18:55:00Z", "2022-10-24T19:20:00Z", "2022-10-24T19:20:00Z", "2022-10-24T19:20:00Z", "2022-10-24T18:55:00Z", "2022-10-24T18:55:00Z", "2022-10-24T19:20:00Z", "2022-10-24T18:55:00Z", "2022-10-24T19:20:00Z", "2022-10-24T18:55:00Z", "2022-10-24T18:55:00Z", "2022-10-24T19:20:00Z", "2022-10-24T19:15:00Z", "2022-10-24T19:20:00Z", "2022-10-24T18:55:00Z", "2022-10-24T19:20:00Z", "2022-10-24T19:06:00Z", "2022-10-24T18:55:00Z", "2022-10-24T18:55:00Z", "2022-10-24T18:55:00Z", "2022-10-24T18:55:00Z", "2022-10-24T18:55:00Z", "2022-10-24T18:55:00Z", "2022-10-24T19:30:00Z", "2022-10-24T19:30:00Z", "2022-10-24T19:30:00Z", "2022-10-24T19:30:00Z", "2022-10-24T19:30:00Z", "2022-10-24T19:00:00Z", "2022-10-24T19:00:00Z", "2022-10-24T19:00:00Z", "2022-10-24T19:30:00Z", "2022-10-24T19:30:00Z", "2022-10-24T19:30:00Z", "2022-10-24T19:30:00Z", "2022-10-24T19:30:00Z", "2022-10-24T19:20:00Z", "2022-10-24T18:50:00Z", "2022-10-24T19:15:00Z", "2022-10-24T19:20:00Z", "2022-10-24T19:20:00Z", "2022-10-24T19:20:00Z", "2022-10-24T19:20:00Z", "2022-10-24T19:20:00Z", "2022-10-24T19:20:00Z", "2022-10-24T18:50:00Z", "2022-10-24T19:30:00Z", "2022-10-24T19:00:00Z", "2022-10-24T19:30:00Z", "2022-10-24T19:30:00Z", "2022-10-24T19:30:00Z", "2022-10-24T19:00:00Z", "2022-10-24T19:30:00Z", "2022-10-24T19:00:00Z", "2022-10-24T19:00:00Z", "2022-10-24T19:30:00Z", "2022-10-24T19:30:00Z", "2022-10-24T19:30:00Z", "2022-10-24T19:30:00Z", "2022-10-24T19:30:00Z", "2022-10-24T19:00:00Z", "2022-10-24T19:30:00Z", "2022-10-24T19:30:00Z", "2022-10-24T19:30:00Z", "2022-10-24T19:30:00Z", "2022-10-24T19:30:00Z", "2022-10-24T19:00:00Z", "2022-10-24T19:30:00Z", "2022-10-24T19:30:00Z", "2022-10-24T19:30:00Z", "2022-10-24T19:00:00Z", "2022-10-24T19:30:00Z", "2022-10-24T19:00:00Z", "2022-10-24T19:30:00Z", "2022-10-24T19:30:00Z", "2022-10-24T19:30:00Z", "2022-10-24T19:30:00Z", "2022-10-24T19:30:00Z", "2022-10-24T19:30:00Z", "2022-10-24T19:30:00Z", "2022-10-24T19:30:00Z", "2022-10-24T19:30:00Z", "2022-10-24T19:00:00Z", "2022-10-24T19:20:00Z", "2022-10-24T19:20:00Z", "2022-10-24T19:20:00Z", "2022-10-24T19:20:00Z", "2022-10-24T19:20:00Z", "2022-10-24T19:20:00Z", "2022-10-24T19:20:00Z", "2022-10-24T19:20:00Z", "2022-10-24T19:20:00Z", "2022-10-24T19:20:00Z", "2022-10-24T19:20:00Z", "2022-10-24T19:20:00Z", "2022-10-24T19:20:00Z", "2022-10-24T19:20:00Z", "2022-10-24T19:20:00Z", "2022-10-24T19:20:00Z", "2022-10-24T19:20:00Z", "2022-10-24T18:50:00Z", "2022-10-24T19:20:00Z", "2022-10-24T19:20:00Z", "2022-10-24T19:20:00Z", "2022-10-24T19:20:00Z", "2022-10-24T18:50:00Z", "2022-10-24T19:20:00Z", "2022-10-24T18:50:00Z", "2022-10-24T19:20:00Z", "2022-10-24T19:20:00Z", "2022-10-24T18:50:00Z", "2022-10-24T19:20:00Z", "2022-10-24T18:50:00Z", "2022-10-24T18:50:00Z", "2022-10-24T18:50:00Z", "2022-10-24T19:20:00Z", "2022-10-24T18:50:00Z", "2022-10-24T19:20:00Z", "2022-10-24T19:20:00Z", "2022-10-24T19:20:00Z", "2022-10-24T18:50:00Z", "2022-10-24T18:50:00Z", "2022-10-24T18:50:00Z", "2022-10-24T19:20:00Z", "2022-10-24T18:50:00Z", "2022-10-24T19:20:00Z", "2022-10-24T18:50:00Z", "2022-10-24T19:20:00Z", "2022-10-24T18:50:00Z", "2022-10-24T19:20:00Z", "2022-10-24T18:50:00Z", "2022-10-24T19:20:00Z", "2022-10-24T18:50:00Z", "2022-10-24T18:50:00Z", "2022-10-24T18:50:00Z", "2022-10-24T18:50:00Z", "2022-10-24T19:20:00Z", "2022-10-24T18:50:00Z", "2022-10-24T19:20:00Z", "2022-10-24T18:50:00Z", "2022-10-24T18:50:00Z", "2022-10-24T19:20:00Z", "2022-10-24T19:20:00Z", "2022-10-24T18:50:00Z", "2022-10-24T19:30:00Z", "2022-10-24T19:00:00Z", "2022-10-24T19:30:00Z", "2022-10-24T19:20:00Z", "2022-10-24T19:30:00Z", "2022-10-24T19:30:00Z", "2022-10-24T19:30:00Z", "2022-10-24T19:30:00Z", "2022-10-24T19:30:00Z", "2022-10-24T19:30:00Z", "2022-10-24T19:30:00Z", "2022-10-24T19:30:00Z", "2022-10-24T19:30:00Z", "2022-10-24T19:30:00Z", "2022-10-24T19:30:00Z", "2022-10-24T19:30:00Z", "2022-10-24T19:00:00Z", "2022-10-24T19:00:00Z", "2022-10-24T19:00:00Z", "2022-10-24T19:00:00Z", "2022-10-24T19:00:00Z", "2022-10-24T19:00:00Z", "2022-10-24T19:00:00Z", "2022-10-24T19:00:00Z", "2022-10-24T19:00:00Z", "2022-10-24T19:00:00Z", "2022-10-24T19:00:00Z", "2022-10-24T19:00:00Z", "2022-10-24T19:00:00Z", "2022-10-24T19:00:00Z", "2022-10-24T19:00:00Z", "2022-10-24T19:00:00Z", "2022-10-24T19:00:00Z", "2022-10-24T19:00:00Z", "2022-10-24T19:00:00Z", "2022-10-24T19:00:00Z", "2022-10-24T19:00:00Z", "2022-10-24T19:00:00Z", "2022-10-24T19:00:00Z", "2022-10-24T19:00:00Z", "2022-10-24T19:00:00Z", "2022-10-24T19:00:00Z", "2022-10-24T19:00:00Z", "2022-10-24T19:00:00Z", "2022-10-24T19:00:00Z", "2022-10-24T19:00:00Z", "2022-10-24T19:00:00Z", "2022-10-24T19:00:00Z", "2022-10-24T19:00:00Z", "2022-10-24T19:00:00Z", "2022-10-24T19:00:00Z", "2022-10-24T19:00:00Z", "2022-10-24T19:00:00Z", "2022-10-24T19:00:00Z", "2022-10-24T19:00:00Z", "2022-10-24T19:00:00Z", "2022-10-24T18:42:00Z", "2022-10-24T18:40:00Z", "2022-10-24T18:43:00Z", "2022-10-24T18:41:00Z", "2022-10-24T18:52:00Z", "2022-10-24T18:40:00Z", "2022-10-24T18:42:00Z", "2022-10-24T18:47:00Z", "2022-10-24T18:41:00Z", "2022-10-24T18:40:00Z", "2022-10-24T18:46:00Z", "2022-10-24T18:48:00Z", "2022-10-24T18:40:00Z", "2022-10-24T18:42:00Z", "2022-10-24T18:45:00Z", "2022-10-24T18:51:00Z", "2022-10-24T18:40:00Z", "2022-10-24T18:45:00Z", "2022-10-24T18:41:00Z", "2022-10-24T18:40:00Z", "2022-10-24T18:40:00Z", "2022-10-24T18:47:00Z", "2022-10-24T18:44:00Z", "2022-10-24T18:46:00Z", "2022-10-24T18:40:00Z", "2022-10-24T18:44:00Z", "2022-10-24T18:40:00Z", "2022-10-24T18:49:00Z", "2022-10-24T18:40:00Z", "2022-10-24T18:48:00Z", "2022-10-24T18:48:00Z", "2022-10-24T18:48:00Z", "2022-10-24T18:42:00Z", "2022-10-24T19:12:00Z", "2022-10-24T18:42:00Z", "2022-10-24T18:40:00Z", "2022-10-24T18:46:00Z", "2022-10-24T18:48:00Z", "2022-10-24T18:44:00Z", "2022-10-24T18:44:00Z", "2022-10-24T18:40:00Z", "2022-10-24T18:40:00Z", "2022-10-24T18:40:00Z", "2022-10-24T18:43:00Z", "2022-10-24T18:40:00Z", "2022-10-24T18:40:00Z", "2022-10-24T18:45:00Z", "2022-10-24T18:43:00Z", "2022-10-24T18:44:00Z", "2022-10-24T18:40:00Z", "2022-10-24T18:41:00Z", "2022-10-24T18:40:00Z", "2022-10-24T18:41:00Z", "2022-10-24T18:47:00Z", "2022-10-24T18:48:00Z", "2022-10-24T18:40:00Z", "2022-10-24T18:41:00Z", "2022-10-24T18:44:00Z", "2022-10-24T18:47:00Z", "2022-10-24T18:40:00Z", "2022-10-24T18:40:00Z", "2022-10-24T18:40:00Z", "2022-10-24T19:00:00Z", "2022-10-24T19:00:00Z", "2022-10-24T19:00:00Z", "2022-10-24T19:00:00Z", "2022-10-24T19:00:00Z", "2022-10-24T19:00:00Z", "2022-10-24T19:00:00Z", "2022-10-24T19:00:00Z", "2022-10-24T19:00:00Z", "2022-10-24T19:17:00Z", "2022-10-24T19:00:00Z", "2022-10-24T19:00:00Z", "2022-10-24T19:00:00Z", "2022-10-24T19:00:00Z", "2022-10-24T19:00:00Z", "2022-10-24T19:00:00Z", "2022-10-24T19:00:00Z", "2022-10-24T18:50:00Z", "2022-10-24T18:50:00Z", "2022-10-24T18:50:00Z", "2022-10-24T18:50:00Z", "2022-10-24T18:50:00Z", "2022-10-24T18:50:00Z", "2022-10-24T19:00:00Z", "2022-10-24T18:50:00Z", "2022-10-24T18:50:00Z", "2022-10-24T18:50:00Z", "2022-10-24T18:50:00Z", "2022-10-24T18:50:00Z", "2022-10-24T18:51:00Z", "2022-10-24T18:50:00Z", "2022-10-24T18:50:00Z", "2022-10-24T18:50:00Z", "2022-10-24T18:50:00Z", "2022-10-24T19:00:00Z", "2022-10-24T19:00:00Z", "2022-10-24T19:00:00Z", "2022-10-24T19:00:00Z", "2022-10-24T19:00:00Z", "2022-10-24T19:00:00Z", "2022-10-24T19:00:00Z", "2022-10-24T19:00:00Z", "2022-10-24T19:00:00Z", "2022-10-24T19:00:00Z", "2022-10-24T19:00:00Z", "2022-10-24T19:00:00Z", "2022-10-24T19:00:00Z", "2022-10-24T19:00:00Z", "2022-10-24T19:00:00Z", "2022-10-24T19:00:00Z", "2022-10-24T19:30:00Z", "2022-10-24T19:00:00Z", "2022-10-24T19:00:00Z", "2022-10-24T19:00:00Z", "2022-10-24T19:00:00Z", "2022-10-24T19:00:00Z", "2022-10-24T19:00:00Z", "2022-10-24T19:00:00Z", "2022-10-24T19:00:00Z", "2022-10-24T19:00:00Z", "2022-10-24T19:00:00Z", "2022-10-24T19:00:00Z", "2022-10-24T19:00:00Z", "2022-10-24T19:23:00Z", "2022-10-24T19:00:00Z", "2022-10-24T18:50:00Z", "2022-10-24T19:30:00Z", "2022-10-24T19:30:00Z", "2022-10-24T19:30:00Z", "2022-10-24T19:30:00Z", "2022-10-24T18:55:00Z", "2022-10-24T18:55:00Z", "2022-10-24T19:30:00Z", "2022-10-24T19:30:00Z", "2022-10-24T19:00:00Z", "2022-10-24T19:00:00Z", "2022-10-24T19:00:00Z", "2022-10-24T19:00:00Z", "2022-10-24T19:00:00Z", "2022-10-24T19:00:00Z", "2022-10-24T19:00:00Z", "2022-10-24T19:00:00Z", "2022-10-24T19:00:00Z", "2022-10-24T19:00:00Z", "2022-10-24T19:00:00Z", "2022-10-24T19:00:00Z", "2022-10-24T19:00:00Z", "2022-10-24T19:00:00Z", "2022-10-24T19:00:00Z", "2022-10-24T19:00:00Z", "2022-10-24T19:00:00Z", "2022-10-24T19:00:00Z", "2022-10-24T19:00:00Z", "2022-10-24T19:00:00Z", "2022-10-24T19:00:00Z", "2022-10-24T19:00:00Z", "2022-10-24T19:00:00Z", "2022-10-24T19:00:00Z", "2022-10-24T19:00:00Z", "2022-10-24T19:00:00Z", "2022-10-24T19:00:00Z", "2022-10-24T19:00:00Z", "2022-10-24T19:00:00Z", "2022-10-24T19:00:00Z", "2022-10-24T19:00:00Z", "2022-10-24T19:00:00Z", "2022-10-24T19:00:00Z", "2022-10-24T18:51:00Z", "2022-10-24T19:00:00Z", "2022-10-24T19:30:00Z", "2022-10-24T19:00:00Z", "2022-10-24T19:00:00Z", "2022-10-24T19:00:00Z", "2022-10-24T19:00:00Z", "2022-10-24T19:00:00Z", "2022-10-24T19:00:00Z", "2022-10-24T19:00:00Z", "2022-10-24T19:00:00Z", "2022-10-24T19:00:00Z", "2022-10-24T19:30:00Z", "2022-10-24T19:00:00Z", "2022-10-24T19:00:00Z", "2022-10-24T19:00:00Z", "2022-10-24T19:00:00Z", "2022-10-24T19:30:00Z", "2022-10-24T19:30:00Z", "2022-10-24T19:00:00Z", "2022-10-24T19:00:00Z", "2022-10-24T19:00:00Z", "2022-10-24T19:30:00Z", "2022-10-24T19:00:00Z", "2022-10-24T19:00:00Z", "2022-10-24T19:00:00Z", "2022-10-24T19:00:00Z", "2022-10-24T19:00:00Z", "2022-10-24T19:30:00Z", "2022-10-24T19:00:00Z", "2022-10-24T19:00:00Z", "2022-10-24T19:00:00Z", "2022-10-24T19:00:00Z", "2022-10-24T19:00:00Z", "2022-10-24T19:00:00Z", "2022-10-24T19:00:00Z", "2022-10-24T19:00:00Z", "2022-10-24T19:00:00Z", "2022-10-24T19:00:00Z", "2022-10-24T19:00:00Z", "2022-10-24T19:00:00Z", "2022-10-24T19:30:00Z", "2022-10-24T19:00:00Z", "2022-10-24T19:00:00Z", "2022-10-24T19:30:00Z", "2022-10-24T19:30:00Z", "2022-10-24T18:53:00Z", "2022-10-24T19:30:00Z", "2022-10-24T19:00:00Z", "2022-10-24T19:00:00Z", "2022-10-24T19:00:00Z", "2022-10-24T19:00:00Z", "2022-10-24T19:00:00Z", "2022-10-24T19:00:00Z", "2022-10-24T19:00:00Z", "2022-10-24T19:00:00Z", "2022-10-24T19:00:00Z", "2022-10-24T19:00:00Z", "2022-10-24T19:00:00Z", "2022-10-24T19:00:00Z", "2022-10-24T19:00:00Z", "2022-10-24T19:00:00Z", "2022-10-24T19:00:00Z", "2022-10-24T19:00:00Z", "2022-10-24T18:50:00Z", "2022-10-24T18:50:00Z", "2022-10-24T18:50:00Z", "2022-10-24T18:50:00Z", "2022-10-24T18:50:00Z", "2022-10-24T18:50:00Z", "2022-10-24T18:55:00Z", "2022-10-24T19:30:00Z", "2022-10-24T19:30:00Z", "2022-10-24T19:25:00Z", "2022-10-24T19:30:00Z", "2022-10-24T19:00:00Z", "2022-10-24T19:00:00Z", "2022-10-24T19:00:00Z", "2022-10-24T19:00:00Z", "2022-10-24T19:00:00Z", "2022-10-24T19:00:00Z", "2022-10-24T19:00:00Z", "2022-10-24T19:00:00Z", "2022-10-24T19:00:00Z", "2022-10-24T19:30:00Z", "2022-10-24T18:55:00Z", "2022-10-24T19:00:00Z", "2022-10-24T19:35:00Z", "2022-10-24T19:32:00Z", "2022-10-24T18:53:00Z", "2022-10-24T19:25:00Z", "2022-10-24T18:53:00Z", "2022-10-24T18:53:00Z", "2022-10-24T19:29:00Z", "2022-10-24T18:53:00Z", "2022-10-24T18:53:00Z", "2022-10-24T18:56:00Z", "2022-10-24T18:53:00Z", "2022-10-24T18:53:00Z", "2022-10-24T18:55:00Z", "2022-10-24T18:58:00Z", "2022-10-24T18:56:00Z", "2022-10-24T18:56:00Z", "2022-10-24T19:17:00Z", "2022-10-24T19:06:00Z", "2022-10-24T18:56:00Z", "2022-10-24T18:55:00Z", "2022-10-24T19:32:00Z", "2022-10-24T18:55:00Z", "2022-10-24T18:50:00Z", "2022-10-24T18:53:00Z", "2022-10-24T18:53:00Z", "2022-10-24T19:05:00Z", "2022-10-24T18:56:00Z", "2022-10-24T18:56:00Z", "2022-10-24T18:55:00Z", "2022-10-24T19:01:00Z", "2022-10-24T18:56:00Z", "2022-10-24T18:53:00Z", "2022-10-24T18:56:00Z", "2022-10-24T18:56:00Z", "2022-10-24T18:56:00Z", "2022-10-24T18:53:00Z", "2022-10-24T19:35:00Z", "2022-10-24T18:56:00Z", "2022-10-24T18:54:00Z", "2022-10-24T18:53:00Z", "2022-10-24T19:30:00Z", "2022-10-24T18:56:00Z", "2022-10-24T19:36:00Z", "2022-10-24T19:14:00Z", "2022-10-24T18:53:00Z", "2022-10-24T18:55:00Z", "2022-10-24T18:56:00Z", "2022-10-24T18:56:00Z", "2022-10-24T19:18:00Z", "2022-10-24T18:53:00Z", "2022-10-24T19:32:00Z", "2022-10-24T18:56:00Z", "2022-10-24T19:36:00Z", "2022-10-24T19:24:00Z", "2022-10-24T19:25:00Z", "2022-10-24T19:08:00Z", "2022-10-24T19:35:00Z", "2022-10-24T18:53:00Z", "2022-10-24T18:45:00Z", "2022-10-24T19:33:00Z", "2022-10-24T18:53:00Z", "2022-10-24T19:35:00Z", "2022-10-24T18:53:00Z", "2022-10-24T18:50:00Z", "2022-10-24T18:45:00Z", "2022-10-24T19:19:00Z", "2022-10-24T18:56:00Z", "2022-10-24T18:51:00Z", "2022-10-24T18:56:00Z", "2022-10-24T18:56:00Z", "2022-10-24T18:53:00Z", "2022-10-24T18:56:00Z", "2022-10-24T18:53:00Z", "2022-10-24T19:32:00Z", "2022-10-24T18:53:00Z", "2022-10-24T19:28:00Z", "2022-10-24T18:56:00Z", "2022-10-24T18:56:00Z", "2022-10-24T18:53:00Z", "2022-10-24T18:56:00Z", "2022-10-24T18:53:00Z", "2022-10-24T19:13:00Z", "2022-10-24T18:56:00Z", "2022-10-24T19:28:00Z", "2022-10-24T18:56:00Z", "2022-10-24T18:56:00Z", "2022-10-24T18:56:00Z", "2022-10-24T19:14:00Z", "2022-10-24T18:56:00Z", "2022-10-24T18:56:00Z", "2022-10-24T18:53:00Z", "2022-10-24T18:56:00Z", "2022-10-24T18:56:00Z", "2022-10-24T18:56:00Z", "2022-10-24T18:56:00Z", "2022-10-24T18:53:00Z", "2022-10-24T19:14:00Z", "2022-10-24T19:26:00Z", "2022-10-24T18:53:00Z", "2022-10-24T19:21:00Z", "2022-10-24T19:22:00Z", "2022-10-24T19:22:00Z", "2022-10-24T18:53:00Z", "2022-10-24T18:53:00Z", "2022-10-24T19:09:00Z", "2022-10-24T18:56:00Z", "2022-10-24T18:55:00Z", "2022-10-24T18:52:00Z", "2022-10-24T18:55:00Z", "2022-10-24T18:56:00Z", "2022-10-24T18:56:00Z", "2022-10-24T18:53:00Z", "2022-10-24T18:55:00Z", "2022-10-24T18:53:00Z", "2022-10-24T18:56:00Z", "2022-10-24T19:20:00Z", "2022-10-24T19:35:00Z", "2022-10-24T18:56:00Z", "2022-10-24T18:56:00Z", "2022-10-24T18:56:00Z", "2022-10-24T18:53:00Z", "2022-10-24T18:56:00Z", "2022-10-24T18:53:00Z", "2022-10-24T18:56:00Z", "2022-10-24T19:32:00Z", "2022-10-24T18:56:00Z", "2022-10-24T18:53:00Z", "2022-10-24T18:56:00Z", "2022-10-24T18:56:00Z", "2022-10-24T18:56:00Z", "2022-10-24T18:56:00Z", "2022-10-24T18:56:00Z", "2022-10-24T19:36:00Z", "2022-10-24T18:56:00Z", "2022-10-24T18:56:00Z", "2022-10-24T18:56:00Z", "2022-10-24T19:35:00Z", "2022-10-24T19:25:00Z", "2022-10-24T18:54:00Z", "2022-10-24T18:51:00Z", "2022-10-24T19:09:00Z", "2022-10-24T18:53:00Z", "2022-10-24T18:53:00Z", "2022-10-24T19:00:00Z", "2022-10-24T18:54:00Z", "2022-10-24T18:57:00Z", "2022-10-24T18:53:00Z", "2022-10-24T18:56:00Z", "2022-10-24T18:54:00Z", "2022-10-24T18:58:00Z", "2022-10-24T18:53:00Z", "2022-10-24T18:55:00Z", "2022-10-24T19:20:00Z", "2022-10-24T19:00:00Z", "2022-10-24T18:56:00Z", "2022-10-24T18:56:00Z", "2022-10-24T18:53:00Z", "2022-10-24T18:53:00Z", "2022-10-24T18:50:00Z", "2022-10-24T18:55:00Z", "2022-10-24T19:00:00Z", "2022-10-24T19:00:00Z", "2022-10-24T19:00:00Z", "2022-10-24T19:00:00Z", "2022-10-24T19:00:00Z", "2022-10-24T19:00:00Z", "2022-10-24T19:00:00Z", "2022-10-24T19:00:00Z", "2022-10-24T19:00:00Z", "2022-10-24T19:00:00Z", "2022-10-24T19:00:00Z", "2022-10-24T19:00:00Z", "2022-10-24T19:00:00Z", "2022-10-24T19:00:00Z", "2022-10-24T19:00:00Z", "2022-10-24T19:00:00Z", "2022-10-24T19:00:00Z", "2022-10-24T18:56:00Z", "2022-10-24T19:00:00Z", "2022-10-24T19:15:00Z", "2022-10-24T19:00:00Z", "2022-10-24T19:00:00Z", "2022-10-24T18:49:00Z", "2022-10-24T19:00:00Z", "2022-10-24T18:55:00Z", "2022-10-24T19:00:00Z", "2022-10-24T18:55:00Z", "2022-10-24T19:09:00Z", "2022-10-24T19:00:00Z", "2022-10-24T19:00:00Z", "2022-10-24T19:00:00Z", "2022-10-24T18:55:00Z", "2022-10-24T19:30:00Z", "2022-10-24T19:00:00Z", "2022-10-24T18:55:00Z", "2022-10-24T19:00:00Z", "2022-10-24T19:00:00Z", "2022-10-24T19:00:00Z", "2022-10-24T19:00:00Z", "2022-10-24T18:55:00Z", "2022-10-24T19:26:00Z", "2022-10-24T19:00:00Z", "2022-10-24T19:00:00Z", "2022-10-24T19:00:00Z", "2022-10-24T18:56:00Z", "2022-10-24T19:00:00Z", "2022-10-24T19:00:00Z", "2022-10-24T19:00:00Z", "2022-10-24T19:00:00Z", "2022-10-24T19:00:00Z", "2022-10-24T19:00:00Z", "2022-10-24T19:00:00Z", "2022-10-24T19:00:00Z", "2022-10-24T19:00:00Z", "2022-10-24T19:00:00Z", "2022-10-24T19:00:00Z", "2022-10-24T19:00:00Z", "2022-10-24T19:00:00Z", "2022-10-24T19:00:00Z", "2022-10-24T19:00:00Z", "2022-10-24T19:00:00Z", "2022-10-24T19:00:00Z", "2022-10-24T19:00:00Z", "2022-10-24T19:00:00Z", "2022-10-24T19:00:00Z", "2022-10-24T19:00:00Z", "2022-10-24T19:00:00Z", "2022-10-24T19:00:00Z", "2022-10-24T19:00:00Z", "2022-10-24T19:00:00Z", "2022-10-24T19:00:00Z", "2022-10-24T19:00:00Z", "2022-10-24T19:00:00Z", "2022-10-24T19:00:00Z", "2022-10-24T19:00:00Z", "2022-10-24T19:00:00Z", "2022-10-24T19:00:00Z", "2022-10-24T19:00:00Z", "2022-10-24T19:00:00Z", "2022-10-24T19:17:00Z", "2022-10-24T19:00:00Z", "2022-10-24T19:00:00Z", "2022-10-24T19:00:00Z", "2022-10-24T19:00:00Z", "2022-10-24T19:00:00Z", "2022-10-24T19:00:00Z", "2022-10-24T19:00:00Z", "2022-10-24T19:00:00Z", "2022-10-24T19:00:00Z", "2022-10-24T19:00:00Z", "2022-10-24T19:00:00Z", "2022-10-24T19:00:00Z", "2022-10-24T19:00:00Z", "2022-10-24T19:00:00Z", "2022-10-24T19:00:00Z", "2022-10-24T19:00:00Z", "2022-10-24T19:00:00Z", "2022-10-24T19:00:00Z", "2022-10-24T19:00:00Z", "2022-10-24T19:00:00Z", "2022-10-24T19:00:00Z", "2022-10-24T19:00:00Z", "2022-10-24T19:17:00Z", "2022-10-24T19:00:00Z", "2022-10-24T19:00:00Z", "2022-10-24T19:00:00Z", "2022-10-24T19:00:00Z", "2022-10-24T19:00:00Z", "2022-10-24T19:00:00Z", "2022-10-24T19:00:00Z", "2022-10-24T19:00:00Z", "2022-10-24T19:06:00Z", "2022-10-24T19:00:00Z", "2022-10-24T19:00:00Z", "2022-10-24T19:00:00Z", "2022-10-24T19:00:00Z", "2022-10-24T19:00:00Z", "2022-10-24T19:00:00Z", "2022-10-24T19:00:00Z", "2022-10-24T19:00:00Z", "2022-10-24T19:00:00Z", "2022-10-24T19:00:00Z", "2022-10-24T19:00:00Z", "2022-10-24T19:00:00Z", "2022-10-24T19:00:00Z", "2022-10-24T19:00:00Z", "2022-10-24T19:00:00Z", "2022-10-24T19:00:00Z", "2022-10-24T19:00:00Z", "2022-10-24T19:00:00Z", "2022-10-24T19:00:00Z", "2022-10-24T19:00:00Z", "2022-10-24T19:00:00Z", "2022-10-24T19:00:00Z", "2022-10-24T19:00:00Z", "2022-10-24T19:00:00Z", "2022-10-24T19:00:00Z", "2022-10-24T19:00:00Z", "2022-10-24T19:00:00Z", "2022-10-24T19:00:00Z", "2022-10-24T19:00:00Z", "2022-10-24T19:00:00Z", "2022-10-24T19:00:00Z", "2022-10-24T19:00:00Z", "2022-10-24T19:00:00Z", "2022-10-24T19:00:00Z", "2022-10-24T19:00:00Z", "2022-10-24T19:00:00Z", "2022-10-24T19:00:00Z", "2022-10-24T19:00:00Z", "2022-10-24T19:00:00Z", "2022-10-24T19:00:00Z", "2022-10-24T19:00:00Z", "2022-10-24T19:00:00Z", "2022-10-24T19:00:00Z", "2022-10-24T19:00:00Z", "2022-10-24T19:00:00Z", "2022-10-24T19:00:00Z", "2022-10-24T19:00:00Z", "2022-10-24T19:00:00Z", "2022-10-24T19:00:00Z", "2022-10-24T19:00:00Z", "2022-10-24T19:18:00Z", "2022-10-24T19:00:00Z", "2022-10-24T19:00:00Z", "2022-10-24T19:00:00Z", "2022-10-24T19:00:00Z", "2022-10-24T19:00:00Z", "2022-10-24T19:00:00Z", "2022-10-24T19:00:00Z", "2022-10-24T19:00:00Z", "2022-10-24T19:00:00Z", "2022-10-24T19:00:00Z", "2022-10-24T19:00:00Z", "2022-10-24T19:00:00Z", "2022-10-24T19:00:00Z", "2022-10-24T19:00:00Z", "2022-10-24T19:00:00Z", "2022-10-24T19:00:00Z", "2022-10-24T19:00:00Z", "2022-10-24T19:00:00Z", "2022-10-24T19:00:00Z", "2022-10-24T19:00:00Z", "2022-10-24T19:00:00Z", "2022-10-24T19:00:00Z", "2022-10-24T19:00:00Z", "2022-10-24T19:00:00Z", "2022-10-24T19:00:00Z", "2022-10-24T19:00:00Z", "2022-10-24T19:00:00Z", "2022-10-24T19:00:00Z", "2022-10-24T19:00:00Z", "2022-10-24T19:00:00Z", "2022-10-24T19:00:00Z", "2022-10-24T19:00:00Z", "2022-10-24T19:00:00Z", "2022-10-24T19:00:00Z", "2022-10-24T19:00:00Z", "2022-10-24T19:00:00Z", "2022-10-24T19:00:00Z", "2022-10-24T19:00:00Z", "2022-10-24T19:00:00Z", "2022-10-24T19:00:00Z", "2022-10-24T19:00:00Z", "2022-10-24T19:00:00Z", "2022-10-24T19:00:00Z", "2022-10-24T19:00:00Z", "2022-10-24T19:00:00Z", "2022-10-24T19:00:00Z", "2022-10-24T19:00:00Z", "2022-10-24T19:00:00Z", "2022-10-24T19:00:00Z", "2022-10-24T19:00:00Z", "2022-10-24T19:00:00Z", "2022-10-24T19:00:00Z", "2022-10-24T19:00:00Z", "2022-10-24T19:00:00Z", "2022-10-24T19:00:00Z", "2022-10-24T19:00:00Z", "2022-10-24T19:00:00Z", "2022-10-24T19:00:00Z", "2022-10-24T19:00:00Z", "2022-10-24T19:00:00Z", "2022-10-24T19:00:00Z", "2022-10-24T19:00:00Z", "2022-10-24T19:00:00Z", "2022-10-24T19:00:00Z", "2022-10-24T19:00:00Z", "2022-10-24T19:00:00Z", "2022-10-24T19:00:00Z", "2022-10-24T19:00:00Z", "2022-10-24T19:00:00Z", "2022-10-24T19:00:00Z", "2022-10-24T19:00:00Z", "2022-10-24T19:00:00Z", "2022-10-24T19:00:00Z", "2022-10-24T19:00:00Z", "2022-10-24T19:00:00Z", "2022-10-24T18:50:00Z", "2022-10-24T19:00:00Z", "2022-10-24T19:00:00Z", "2022-10-24T19:00:00Z", "2022-10-24T19:00:00Z", "2022-10-24T19:00:00Z", "2022-10-24T19:00:00Z", "2022-10-24T19:30:00Z", "2022-10-24T19:00:00Z", "2022-10-24T19:00:00Z", "2022-10-24T19:00:00Z", "2022-10-24T19:00:00Z", "2022-10-24T19:00:00Z", "2022-10-24T19:00:00Z", "2022-10-24T19:00:00Z", "2022-10-24T19:00:00Z", "2022-10-24T19:00:00Z", "2022-10-24T19:00:00Z", "2022-10-24T19:00:00Z", "2022-10-24T19:00:00Z", "2022-10-24T19:00:00Z", "2022-10-24T19:00:00Z", "2022-10-24T19:00:00Z", "2022-10-24T19:00:00Z", "2022-10-24T19:00:00Z", "2022-10-24T19:00:00Z", "2022-10-24T19:00:00Z", "2022-10-24T19:00:00Z", "2022-10-24T19:00:00Z", "2022-10-24T19:00:00Z", "2022-10-24T19:00:00Z", "2022-10-24T19:00:00Z", "2022-10-24T19:00:00Z", "2022-10-24T19:00:00Z", "2022-10-24T19:00:00Z", "2022-10-24T19:00:00Z", "2022-10-24T19:00:00Z", "2022-10-24T19:00:00Z", "2022-10-24T19:00:00Z", "2022-10-24T19:00:00Z", "2022-10-24T19:00:00Z", "2022-10-24T19:00:00Z", "2022-10-24T19:00:00Z", "2022-10-24T19:00:00Z", "2022-10-24T19:00:00Z", "2022-10-24T19:00:00Z", "2022-10-24T19:00:00Z", "2022-10-24T19:00:00Z", "2022-10-24T19:00:00Z", "2022-10-24T19:00:00Z", "2022-10-24T19:00:00Z", "2022-10-24T19:00:00Z", "2022-10-24T19:00:00Z", "2022-10-24T19:00:00Z", "2022-10-24T19:00:00Z", "2022-10-24T19:30:00Z", "2022-10-24T19:00:00Z", "2022-10-24T19:00:00Z", "2022-10-24T19:00:00Z", "2022-10-24T19:00:00Z", "2022-10-24T19:00:00Z", "2022-10-24T19:00:00Z", "2022-10-24T19:00:00Z", "2022-10-24T19:30:00Z", "2022-10-24T19:00:00Z", "2022-10-24T19:00:00Z", "2022-10-24T19:00:00Z", "2022-10-24T19:00:00Z", "2022-10-24T19:00:00Z", "2022-10-24T19:00:00Z", "2022-10-24T19:00:00Z", "2022-10-24T19:00:00Z", "2022-10-24T19:00:00Z", "2022-10-24T19:00:00Z", "2022-10-24T19:00:00Z", "2022-10-24T19:30:00Z", "2022-10-24T19:00:00Z", "2022-10-24T19:00:00Z", "2022-10-24T19:00:00Z", "2022-10-24T19:00:00Z", "2022-10-24T19:00:00Z", "2022-10-24T19:00:00Z", "2022-10-24T19:03:00Z", "2022-10-24T19:03:00Z", "2022-10-24T19:03:00Z", "2022-10-24T19:03:00Z", "2022-10-24T19:03:00Z", "2022-10-24T19:03:00Z", "2022-10-24T19:03:00Z", "2022-10-24T19:03:00Z", "2022-10-24T19:03:00Z", "2022-10-24T19:03:00Z", "2022-10-24T19:00:00Z", "2022-10-24T19:03:00Z", "2022-10-24T19:03:00Z", "2022-10-24T19:03:00Z", "2022-10-24T19:03:00Z", "2022-10-24T19:03:00Z", "2022-10-24T19:03:00Z", "2022-10-24T19:03:00Z", "2022-10-24T19:03:00Z", "2022-10-24T19:03:00Z", "2022-10-24T19:03:00Z", "2022-10-24T19:00:00Z", "2022-10-24T19:00:00Z", "2022-10-24T19:00:00Z", "2022-10-24T19:00:00Z", "2022-10-24T19:00:00Z", "2022-10-24T19:00:00Z", "2022-10-24T19:30:00Z", "2022-10-24T19:30:00Z", "2022-10-24T19:00:00Z", "2022-10-24T18:53:00Z", "2022-10-24T18:53:00Z", "2022-10-24T18:50:00Z", "2022-10-24T18:45:00Z", "2022-10-24T18:53:00Z", "2022-10-24T18:56:00Z", "2022-10-24T19:00:00Z", "2022-10-24T19:00:00Z", "2022-10-24T19:00:00Z", "2022-10-24T19:00:00Z", "2022-10-24T19:00:00Z", "2022-10-24T18:55:00Z", "2022-10-24T19:00:00Z", "2022-10-24T18:55:00Z", "2022-10-24T19:00:00Z", "2022-10-24T19:00:00Z", "2022-10-24T19:00:00Z", "2022-10-24T19:00:00Z", "2022-10-24T19:00:00Z", "2022-10-24T19:00:00Z", "2022-10-24T19:00:00Z", "2022-10-24T18:55:00Z", "2022-10-24T19:30:00Z", "2022-10-24T19:30:00Z", "2022-10-24T19:30:00Z", "2022-10-24T19:30:00Z", "2022-10-24T19:30:00Z", "2022-10-24T19:30:00Z", "2022-10-24T19:00:00Z", "2022-10-24T19:30:00Z", "2022-10-24T19:00:00Z", "2022-10-24T19:30:00Z", "2022-10-24T19:30:00Z", "2022-10-24T19:30:00Z", "2022-10-24T19:30:00Z", "2022-10-24T19:30:00Z", "2022-10-24T19:30:00Z", "2022-10-24T19:30:00Z", "2022-10-24T19:30:00Z", "2022-10-24T19:00:00Z", "2022-10-24T19:30:00Z", "2022-10-24T19:00:00Z", "2022-10-24T19:00:00Z", "2022-10-24T19:30:00Z", "2022-10-24T19:00:00Z", "2022-10-24T19:00:00Z", "2022-10-24T19:30:00Z", "2022-10-24T19:30:00Z", "2022-10-24T19:30:00Z", "2022-10-24T19:30:00Z", "2022-10-24T19:30:00Z", "2022-10-24T19:00:00Z", "2022-10-24T19:00:00Z", "2022-10-24T19:30:00Z", "2022-10-24T19:30:00Z", "2022-10-24T19:30:00Z", "2022-10-24T19:30:00Z", "2022-10-24T19:30:00Z", "2022-10-24T19:00:00Z", "2022-10-24T19:30:00Z", "2022-10-24T19:00:00Z", "2022-10-24T19:00:00Z", "2022-10-24T19:30:00Z", "2022-10-24T19:30:00Z", "2022-10-24T19:30:00Z", "2022-10-24T19:30:00Z", "2022-10-24T19:30:00Z", "2022-10-24T19:30:00Z", "2022-10-24T19:30:00Z", "2022-10-24T19:30:00Z", "2022-10-24T19:30:00Z", "2022-10-24T19:30:00Z", "2022-10-24T19:30:00Z", "2022-10-24T19:00:00Z", "2022-10-24T19:30:00Z", "2022-10-24T19:00:00Z", "2022-10-24T19:00:00Z", "2022-10-24T19:30:00Z", "2022-10-24T19:30:00Z", "2022-10-24T19:30:00Z", "2022-10-24T19:30:00Z", "2022-10-24T19:30:00Z", "2022-10-24T19:30:00Z", "2022-10-24T19:30:00Z", "2022-10-24T19:30:00Z", "2022-10-24T19:30:00Z", "2022-10-24T19:30:00Z", "2022-10-24T19:30:00Z", "2022-10-24T19:00:00Z", "2022-10-24T19:30:00Z", "2022-10-24T19:30:00Z", "2022-10-24T19:30:00Z", "2022-10-24T19:30:00Z", "2022-10-24T19:30:00Z", "2022-10-24T19:00:00Z", "2022-10-24T19:30:00Z", "2022-10-24T19:30:00Z", "2022-10-24T19:30:00Z", "2022-10-24T19:30:00Z", "2022-10-24T19:30:00Z", "2022-10-24T19:30:00Z", "2022-10-24T19:30:00Z", "2022-10-24T19:30:00Z", "2022-10-24T19:30:00Z", "2022-10-24T19:30:00Z", "2022-10-24T19:30:00Z", "2022-10-24T19:30:00Z", "2022-10-24T19:30:00Z", "2022-10-24T19:30:00Z", "2022-10-24T19:30:00Z", "2022-10-24T19:30:00Z", "2022-10-24T19:00:00Z", "2022-10-24T19:00:00Z", "2022-10-24T19:00:00Z", "2022-10-24T19:00:00Z", "2022-10-24T19:00:00Z", "2022-10-24T19:30:00Z", "2022-10-24T19:30:00Z", "2022-10-24T19:30:00Z", "2022-10-24T19:30:00Z", "2022-10-24T19:00:00Z", "2022-10-24T19:00:00Z", "2022-10-24T19:00:00Z", "2022-10-24T19:30:00Z", "2022-10-24T19:00:00Z", "2022-10-24T19:00:00Z", "2022-10-24T19:00:00Z", "2022-10-24T19:00:00Z", "2022-10-24T19:00:00Z", "2022-10-24T19:00:00Z", "2022-10-24T19:30:00Z", "2022-10-24T19:30:00Z", "2022-10-24T19:30:00Z", "2022-10-24T19:30:00Z", "2022-10-24T19:30:00Z", "2022-10-24T19:30:00Z", "2022-10-24T19:30:00Z", "2022-10-24T19:30:00Z", "2022-10-24T19:30:00Z", "2022-10-24T19:30:00Z", "2022-10-24T19:30:00Z", "2022-10-24T19:30:00Z", "2022-10-24T19:30:00Z", "2022-10-24T19:30:00Z", "2022-10-24T19:30:00Z", "2022-10-24T19:30:00Z", "2022-10-24T19:30:00Z", "2022-10-24T19:30:00Z", "2022-10-24T19:00:00Z", "2022-10-24T19:30:00Z", "2022-10-24T19:00:00Z", "2022-10-24T19:30:00Z", "2022-10-24T19:30:00Z", "2022-10-24T19:30:00Z", "2022-10-24T19:30:00Z", "2022-10-24T19:30:00Z", "2022-10-24T19:30:00Z", "2022-10-24T19:00:00Z", "2022-10-24T19:10:00Z", "2022-10-24T19:00:00Z", "2022-10-24T19:00:00Z", "2022-10-24T19:30:00Z", "2022-10-24T18:30:00Z", "2022-10-24T19:00:00Z", "2022-10-24T19:30:00Z", "2022-10-24T19:30:00Z", "2022-10-24T19:30:00Z", "2022-10-24T19:30:00Z", "2022-10-24T19:30:00Z", "2022-10-24T19:30:00Z", "2022-10-24T19:30:00Z", "2022-10-24T19:00:00Z", "2022-10-24T19:30:00Z", "2022-10-24T19:30:00Z", "2022-10-24T19:30:00Z", "2022-10-24T19:00:00Z", "2022-10-24T19:30:00Z", "2022-10-24T19:30:00Z", "2022-10-24T19:30:00Z", "2022-10-24T19:00:00Z", "2022-10-24T19:00:00Z", "2022-10-24T19:30:00Z", "2022-10-24T19:30:00Z", "2022-10-24T19:00:00Z", "2022-10-24T19:30:00Z", "2022-10-24T18:30:00Z", "2022-10-24T19:00:00Z", "2022-10-24T19:00:00Z", "2022-10-24T19:00:00Z", "2022-10-24T19:30:00Z", "2022-10-24T19:30:00Z", "2022-10-24T19:30:00Z", "2022-10-24T19:30:00Z", "2022-10-24T19:00:00Z", "2022-10-24T19:00:00Z", "2022-10-24T19:30:00Z", "2022-10-24T19:30:00Z", "2022-10-24T19:00:00Z", "2022-10-24T19:00:00Z", "2022-10-24T19:30:00Z", "2022-10-24T19:30:00Z", "2022-10-24T19:30:00Z", "2022-10-24T19:30:00Z", "2022-10-24T19:30:00Z", "2022-10-24T19:30:00Z", "2022-10-24T19:30:00Z", "2022-10-24T19:30:00Z", "2022-10-24T19:30:00Z", "2022-10-24T19:00:00Z", "2022-10-24T19:00:00Z", "2022-10-24T19:00:00Z", "2022-10-24T19:00:00Z", "2022-10-24T19:00:00Z", "2022-10-24T19:00:00Z", "2022-10-24T19:00:00Z", "2022-10-24T19:00:00Z", "2022-10-24T19:00:00Z", "2022-10-24T19:00:00Z", "2022-10-24T19:00:00Z", "2022-10-24T19:00:00Z", "2022-10-24T19:00:00Z", "2022-10-24T19:00:00Z", "2022-10-24T19:00:00Z", "2022-10-24T19:00:00Z", "2022-10-24T19:00:00Z", "2022-10-24T19:00:00Z", "2022-10-24T19:00:00Z", "2022-10-24T19:00:00Z", "2022-10-24T19:00:00Z", "2022-10-24T19:00:00Z", "2022-10-24T19:00:00Z", "2022-10-24T19:00:00Z", "2022-10-24T19:00:00Z", "2022-10-24T19:00:00Z", "2022-10-24T19:00:00Z", "2022-10-24T19:00:00Z", "2022-10-24T19:00:00Z", "2022-10-24T19:00:00Z", "2022-10-24T19:00:00Z", "2022-10-24T19:00:00Z", "2022-10-24T19:00:00Z", "2022-10-24T19:00:00Z", "2022-10-24T19:00:00Z", "2022-10-24T19:00:00Z", "2022-10-24T19:00:00Z", "2022-10-24T19:00:00Z", "2022-10-24T19:00:00Z", "2022-10-24T19:30:00Z", "2022-10-24T19:30:00Z", "2022-10-24T19:33:00Z", "2022-10-24T19:30:00Z", "2022-10-24T19:30:00Z", "2022-10-24T19:30:00Z", "2022-10-24T19:30:00Z", "2022-10-24T19:30:00Z", "2022-10-24T19:30:00Z", "2022-10-24T19:30:00Z", "2022-10-24T19:30:00Z", "2022-10-24T19:30:00Z", "2022-10-24T19:30:00Z", "2022-10-24T19:30:00Z", "2022-10-24T19:28:00Z", "2022-10-24T19:30:00Z", "2022-10-24T19:30:00Z", "2022-10-24T19:30:00Z", "2022-10-24T19:33:00Z", "2022-10-24T19:35:00Z", "2022-10-24T19:30:00Z", "2022-10-24T19:01:00Z", "2022-10-24T19:30:00Z", "2022-10-24T18:25:00Z", "2022-10-24T19:30:00Z", "2022-10-24T19:27:00Z", "2022-10-24T19:30:00Z", "2022-10-24T19:31:00Z", "2022-10-24T18:30:00Z", "2022-10-24T19:30:00Z", "2022-10-24T19:30:00Z", "2022-10-24T19:30:00Z", "2022-10-24T19:30:00Z", "2022-10-24T19:30:00Z", "2022-10-24T19:30:00Z", "2022-10-24T19:30:00Z", "2022-10-24T19:30:00Z", "2022-10-24T19:30:00Z", "2022-10-24T19:30:00Z", "2022-10-24T19:30:00Z", "2022-10-24T19:30:00Z", "2022-10-24T19:30:00Z", "2022-10-24T19:30:00Z", "2022-10-24T19:30:00Z", "2022-10-24T19:30:00Z", "2022-10-24T19:30:00Z", "2022-10-24T19:30:00Z", "2022-10-24T19:30:00Z", "2022-10-24T19:30:00Z", "2022-10-24T19:30:00Z", "2022-10-24T19:30:00Z", "2022-10-24T19:30:00Z", "2022-10-24T19:30:00Z", "2022-10-24T19:30:00Z", "2022-10-24T19:30:00Z", "2022-10-24T19:30:00Z", "2022-10-24T19:30:00Z", "2022-10-24T19:30:00Z", "2022-10-24T19:30:00Z", "2022-10-24T19:34:00Z", "2022-10-24T19:30:00Z", "2022-10-24T19:30:00Z", "2022-10-24T19:30:00Z", "2022-10-24T19:30:00Z", "2022-10-24T19:00:00Z", "2022-10-24T19:00:00Z", "2022-10-24T19:30:00Z", "2022-10-24T19:30:00Z", "2022-10-24T19:30:00Z", "2022-10-24T19:00:00Z", "2022-10-24T19:00:00Z", "2022-10-24T19:00:00Z", "2022-10-24T19:00:00Z", "2022-10-24T19:00:00Z", "2022-10-24T19:00:00Z", "2022-10-24T19:00:00Z", "2022-10-24T19:00:00Z", "2022-10-24T19:00:00Z", "2022-10-24T19:00:00Z", "2022-10-24T19:00:00Z", "2022-10-24T19:30:00Z", "2022-10-24T19:00:00Z", "2022-10-24T19:00:00Z", "2022-10-24T19:00:00Z", "2022-10-24T19:00:00Z", "2022-10-24T19:30:00Z", "2022-10-24T19:00:00Z", "2022-10-24T19:00:00Z", "2022-10-24T19:00:00Z", "2022-10-24T19:30:00Z", "2022-10-24T19:00:00Z", "2022-10-24T19:30:00Z", "2022-10-24T19:00:00Z", "2022-10-24T19:00:00Z", "2022-10-24T19:00:00Z", "2022-10-24T19:00:00Z", "2022-10-24T19:00:00Z", "2022-10-24T19:30:00Z", "2022-10-24T19:00:00Z", "2022-10-24T19:00:00Z", "2022-10-24T19:30:00Z", "2022-10-24T19:30:00Z"], "raw_text": ["AGGH 241900Z 16003KT 9999 FEW014 23/23 Q1008", "AYMH 241900Z 00000KT 9999 FG BKN020 16/16 Q1020", "AYPY 241900Z VRB03KT 9999 FEW040 25/23 Q1008", "AZUH 241900Z 00000KT CAVOK 09/06 Q1020", "BGBW 241850Z 07003KT 9999 FEW002 SCT039 BKN180 00/M01 Q0998", "BGGH 241850Z 04004KT 9999 3500W BCFG SCT003 00/M00 Q1003", "BGJN 241850Z 00000KT 9999 BKN088 00/M04 Q1003", "BGKK 241850Z AUTO 08023G38KT 9999NDV -RA BKN014/// 03/M00 Q0999", "BGSF 241850Z AUTO 04007KT 9999NDV -SN SCT014/// BKN018/// OVC023/// M00/M01 Q1004", "BGTL 241855Z AUTO 08007KT 9999 CLR M11/M14 A2956 RMK AO2 SLP999 T11101136 TSNO $", "BIAR 241900Z VRB02KT CAVOK M02/M04 Q1002", "BIEG 241900Z 36007KT 9999 FEW030 SCT060 02/01 Q1003", "BIHN 241900Z 02009KT 9999 FEW017 FEW028 BKN060 06/02 Q1002", "BIKF 241930Z 05006KT 9999 FEW040 SCT065 BKN085 06/03 Q0998", "BIRK 241900Z 09007KT 9999 -SHRA OVC050 07/02 Q0999", "BKPR 241930Z VRB01KT CAVOK 13/09 Q1021 NOSIG", "CAHR 241900Z AUTO 17004KT 18/10 RMK AO1 SLP273 T01790104 56011", "CBAR 241918Z AUTO 31006KT ////SM BKN008 BKN012 BKN027 M08/M09 A3005", "CBBC 241933Z AUTO 31004KT 200V330 9SM -RA SCT044 SCT055 BKN097 10/06 A2984 RMK SLP109", "CERM 241900Z AUTO 12003KT 13/11 RMK AO1 SLP271 T01270111 56009", "CFOX 241900Z AUTO ///// ////SM OVC036 M08/M11 A2990", "CMFM 241900Z AUTO 16003KT 16/11 RMK AO1 SLP260 T01610111 58018", "CMGB 241900Z AUTO 02003KT 20/14 RMK AO1 SLP226 T02020136 58022", "CPBT 241900Z AUTO 28015KT 04/M02 RMK AO1 PK WND 26020/1817 T00361018", "CPEH 241900Z AUTO 00000KT 06/M01 RMK AO1 T00641006", "CPFI 241900Z AUTO 25015KT 08/01 RMK AO1 PK WND 24021/1827 T00800008", "CPIN 241930Z AUTO 27006KT ////SM BKN020 OVC029 ///// A////", "CPIR 241900Z AUTO 25021KT 07/M00 RMK AO1 PK WND 25026/1815 T00661003", "CPRO 241900Z AUTO 12001KT 02/01 RMK AO1 T00150012", "CPRY 241900Z AUTO 25010KT 04/M01 RMK AO1 PK WND 25022/1827 T00381012", "CPST 241900Z AUTO 23005KT 01/M01 RMK AO1 T00141010", "CPSV 241900Z AUTO 20019KT 04/01 RMK AO1 PK WND 20024/1828 T00420006", "CTCK 241900Z AUTO 09005KT 21/09 RMK AO1 SLP210 T02110087 56025", "CTNK 241900Z AUTO 16003KT 21/02 RMK AO1 SLP209 T02110015 56022", "CTRA 241900Z AUTO 23009G23KT 14/09 RMK AO1 PK WND 18027/1818 SLP911 T01350089 55002", "CWAE 241900Z 00000KT 15SM OVC006 02/01 A2983 RMK ST8 WIND ESTD SLP118", "CWAF 241900Z AUTO 03002KT 06/04 RMK AO1 T00630035", "CWAJ 241900Z AUTO 07007KT RMK AO1 57021", "CWAQ 241900Z AUTO 30022G28KT M01/M02 RMK AO1 SOG 02 0001 PK WND 30029/1840 SLP077 T10061021", "CWAR 241900Z AUTO 16006KT 13/10 RMK AO1 SLP279 T01310096 55002", "CWAV 241900Z AUTO 21001KT 02/M02 RMK AO1 SLP054 T00201016 56017", "CWBA 241900Z AUTO 16008KT 20/08 RMK AO1 T02030079", "CWBK 241900Z AUTO 13005KT 16/14 RMK AO1 SLP278 T01610135 56010", "CWBO 241900Z AUTO 21004KT 06/01 RMK AO1 SLP049 T00550013 57031", "CWBS 241900Z AUTO 07012KT 16/10 RMK AO1 T01610104", "CWBT 241900Z AUTO 13001KT 11/06 RMK AO1 SLP264 T01100062 56014", "CWBU 241900Z AUTO 36015KT M01/M02 RMK AO1 6PAST HR SOG 12 6024 PK WND 00021/1849 SLP053 P0006 T10091020 50016", "CWBV 241900Z AUTO 05004KT 15/12 RMK AO1 SLP270 T01500124 56008", "CWBY 241900Z AUTO 16003KT 13/08 RMK AO1 SLP264 T01320082 55012", "CWBZ 241900Z AUTO 07007KT 21/13 RMK AO1 SLP209 T02070130 56029", "CWCF 241900Z AUTO 36006KT 04/03 RMK AO1 SLP860 T00410033 56042", "CWCJ 241900Z AUTO 18009G21KT 18/12 RMK AO1 PK WND 17025/1845 SLP058 T01750122 58016", "CWCO 241900Z AUTO 15005KT 23/07 RMK AO1 SLP183 T02330072 56022", "CWCT 241900Z AUTO 16013KT 03/M03 RMK AO1 PK WND 16019/1824 SLP070 T00271029 58024", "CWDA 241900Z AUTO 33003KT 12/ RMK AO1 T0119", "CWDC 241900Z AUTO 13006KT 01/M02 RMK AO1 SLP116 T00121017 58020", "CWDJ 241900Z AUTO 33020G25KT M01/M02 RMK AO1 SOG 02 8006 PK WND 34028/1801 SLP056 T10091015", "CWDK 241900Z AUTO 24015G21KT 05/M03 RMK AO1 SOG 10 7010 PK WND 25029/1816 SLP071 T00491031", "CWDM 241900Z AUTO 10002KT 10/05 RMK AO1 SLP267 T01000047 56017", "CWDO 241900Z AUTO 24003KT 10/04 RMK AO1 SLP266 T01030043 56004", "CWDQ 241900Z AUTO 19004KT 20/07 RMK AO1 SOG 01 6031 SLP235 T02020067", "CWDT 241900Z AUTO 13003KT RMK AO1 58019", "CWDV 241900Z AUTO 17008G21KT 16/15 RMK AO1 PK WND 17021/1851 SLP979 T01580146 58010", "CWDZ 241900Z AUTO 15003KT 02/M02 RMK AO1 SLP056 T00211016 58023", "CWEB 241900Z AUTO 00031KT 10/09 RMK AO1 SLP137 T01040086 52021", "CWEE 241900Z AUTO 19/07 RMK AO1 SLP215 T01930074 56025", "CWEF 241900Z AUTO 16012KT 13/10 RMK AO1 SLP272 T01330104 56007", "CWEH 241900Z AUTO 24010KT M03/M05 RMK AO1 SOG 02 8025 SLP086 T10341046", "CWEK 241900Z AUTO 24006KT 10/ RMK AO1 SLP042 T0095 51037", "CWEL 241900Z AUTO 09011KT 10/08 RMK AO1 SLP117 T01020076 51010", "CWEP 241900Z AUTO 19007KT 16/10 RMK AO1 SLP278 T01570095 55011", "CWEQ 241900Z AUTO 33004KT M00/M02 RMK AO1 SLP984 T10021015 58015", "CWER 241900Z AUTO 06003KT RMK AO1", "CWEU 241900Z 35008KT 15SM IC FEW090 FEW180 M21/M25 A2994 RMK AC1AC1 SLP155", "CWEW 241900Z AUTO 08006KT 20/10 RMK AO1 SLP229 T02000104 56029", "CWEZ 241900Z AUTO 24008KT 14/09 RMK AO1 PK WND 22018/1812 SLP121 T01420094 52014", "CWFD 241915Z AUTO ///// ////SM FEW005 SCT011 BKN065 M09/M09 A2964", "CWFF 241900Z AUTO 36010G15KT M01/M04 RMK AO1 SLP059 T10101037 58020", "CWFJ 241900Z AUTO 26013G20KT 05/M04 RMK AO1 PK WND 25020/1853 T00481041", "CWFQ 241900Z AUTO 03001KT 17/14 RMK AO1 SLP226 T01740135 58015", "CWGB 241900Z AUTO 10012KT 10/ RMK AO1 SLP114 T0102 51009", "CWGD 241900Z AUTO 17013KT 23/08 RMK AO1 PK WND 15019/1811 SLP171 T02320081 56024", "CWGH 241900Z AUTO 03002KT 22/04 RMK AO1 SLP209 T02170043 56025", "CWGL 241900Z AUTO 17010KT 17/08 RMK AO1 SLP186 T01740081 56022", "CWGM 241900Z AUTO 23019G32KT 03/M05 RMK AO1 SOG 17 8011 PK WND 25032/1858 SLP074 T00331053", "CWGR 241900Z AUTO 33003KT 15/11 RMK AO1 SLP272 T01460107 56008", "CWGT 241900Z AUTO 12015KT 11/08 RMK AO1 PK WND 12020/1820 SLP117 T01080079 51007", "CWGW 241900Z AUTO 17009G15KT 01/M01 RMK AO1 1PAST HR 8013 PK WND 16018/1833 SLP109 P0000 T00121008 50001", "CWGY 241900Z AUTO 15011KT 03/M03 RMK AO1 SLP079 T00281034 56028", "CWHI 241900Z AUTO 21002KT 01/01 RMK AO1 T00110005", "CWHL 241900Z AUTO 30015KT 10/05 RMK AO1 PK WND 30021/1808 SLP068 T01030054 51034", "CWHO 241900Z AUTO 00035KT 06/M03 RMK AO1 SLP254 T00611026 53003", "CWHP 241900Z AUTO 18007KT 09/08 RMK AO1 SLP262 T00920082 56016", "CWHQ 241900Z AUTO 11005KT 18/09 RMK AO1 T01800088", "CWHT 241900Z AUTO 32008G15KT M03/M09 RMK AO1 SLP104 T10271088 51002", "CWHV 241900Z AUTO 13005KT 14/14 RMK AO1 2PAST HR 7019 SLP250 P0001 T01420137 50002", "CWID 241900Z AUTO 03001KT M01/M02 RMK AO1 SLP100 T10111021 57006", "CWIG 241900Z AUTO 36003KT RMK AO1", "CWIJ 241900Z AUTO 21002KT M09/M12 RMK AO1 SOG 06 8007 SLP155 T10851120", "CWIK 241900Z AUTO 32001KT M02/M03 RMK AO1 SLP011 T10231033 50000", "CWIL 241917Z AUTO ///// ////SM BKN004 BKN008 BKN021 ///// A////", "CWIP 241900Z AUTO 15002KT 11/07 RMK AO1 T01080066", "CWIS 241900Z AUTO 21004KT 15/11 RMK AO1 SLP265 T01510106 58015", "CWIT 241900Z AUTO 11006KT 19/13 RMK AO1 SLP216 T01860127 58027", "CWIW 241900Z AUTO 33016KT 01/M02 RMK AO1 SOG 02 7016 PK WND 33020/1856 SLP069 T00051024", "CWIX 241900Z AUTO 15006KT 21/06 RMK AO1 SLP230 T02070059 56020", "CWIZ 241900Z AUTO 10004KT 19/10 RMK AO1 T01890099", "CWJB 241900Z AUTO 33007KT 17/10 RMK AO1 T01670098", "CWJC 241900Z AUTO 17015KT M07/M09 RMK AO1 SOG 08 6021 PK WND 16024/1815 SLP191 T10671089", "CWJD 241900Z AUTO 35008G19KT M00/M00 RMK AO1 6PAST HR 8034 PK WND 34019/1850 SLP945 P0006 T10021002 50016", "CWJH 241900Z AUTO 03008KT 01/M02 RMK AO1 SLP108 T00051023 58032", "CWJI 241900Z AUTO 31017KT M01/M02 RMK AO1 2PAST HR SOG 10 8010 PK WND 31021/1807 SLP079 P0001 T10101020 50002", "CWJO 241900Z AUTO 01003KT 18/08 RMK AO1 SLP238 T01840084 56020", "CWJR 241900Z AUTO 16007KT 05/03 RMK AO1 PK WND 17017/1830 SLP126 T00530027 58013", "CWJT 241900Z AUTO 15002KT 23/ RMK AO1 SLP219 T0234 56024", "CWJU 241900Z AUTO 27024G30KT 10/05 RMK AO1 PK WND 25032/1819 SLP095 T00950054 53027", "CWJV 241900Z AUTO 08002KT 06/03 RMK AO1 SLP091 T00620033 57017", "CWJW 241900Z AUTO 15005KT 04/M00 RMK AO1 SLP056 T00431003 58008", "CWJX 241900Z AUTO 14009KT 02/M02 RMK AO1 SLP074 T00211021 58028", "CWKG 241900Z AUTO 10005KT 16/15 RMK AO1 6PAST HR 6010 SLP266 P0014 T01570152 50036", "CWKH 241900Z AUTO 10/05 RMK AO1 SLP118 T00980052 51013", "CWKK 241900Z AUTO 18004KT 12/ RMK AO1 SLP014 T0121 58019", "CWKM 241900Z AUTO 10016G21KT ////SM NCD M11/M12 A3003", "CWKO 241900Z AUTO 31005KT M02/M03 RMK AO1 SOG 03 8004 SLP085 T10191031", "CWKP 241933Z AUTO 30007KT ////SM BKN020 OVC048 M11/M12 A2990", "CWKX 241900Z AUTO 34004KT M02/M04 RMK AO1 7PAST HR SOG 03 2017 SLP046 P0003 T10231040 50007", "CWLC 241900Z AUTO 28019KT 10/05 RMK AO1 PK WND 28024/1818 T00950053", "CWLE 241900Z AUTO 31009KT M00/M01 RMK AO1 SOG 11 8018 SLP088 T10041011", "CWLI 241900Z AUTO 04002KT ////SM SCT055 OVC070 M08/M11 A3006", "CWLM 241900Z AUTO 26013G25KT 13/08 RMK AO1 PK WND 25025/1859 SLP127 T01290084 51010", "CWLS 241900Z AUTO 16009KT 20/05 RMK AO1 SLP188 T02040054 56024", "CWLX 241900Z AUTO ///// ////SM ////// M09/M12 A2991", "CWLY 241900Z AUTO 20018G30KT 160V240 9SM SCT091 09/03 A2976 RMK SLP082", "CWME 241900Z AUTO 18008G15KT 09/06 RMK AO1 2PAST HR 3041 PK WND 17019/1834 SLP096 P0001 T00870056 50002", "CWMJ 241900Z AUTO 17006KT 20/06 RMK AO1 SLP220 T01950062 56022", "CWMM 241900Z AUTO 03003KT 07/06 RMK AO1 SLP133 T00720063 52011", "CWMQ 241900Z AUTO 21007KT 02/01 RMK AO1 SOG 10 8036 SLP073 T00200010", "CWMT 241900Z AUTO 03008KT M04/M06 RMK AO1 SLP139 T10371056 58001", "CWMZ 241900Z AUTO 10004KT 17/10 RMK AO1 SLP187 T01660100 57024", "CWNC 241900Z AUTO 10004KT 14/10 RMK AO1 SLP210 T01430104 57019", "CWND 241900Z AUTO 16004KT M08/M11 RMK AO1 SLP162 T10811114 54000", "CWNE 241900Z AUTO 25001KT 14/12 RMK AO1 SLP266 T01360120 56011", "CWNH 241900Z AUTO 20003KT 17/07 RMK AO1 SLP255 T01700066 58012", "CWNK 241900Z AUTO 30012KT 04/03 RMK AO1 2PAST HR 3021 PK WND 30018/1809 SLP903 P0001 T00410033 50002", "CWNM 241900Z AUTO 27009KT 04/03 RMK AO1 2PAST HR 8011 PK WND 29017/1838 SLP124 P0001 T00350032 50002", "CWNP 241900Z AUTO 16003KT 04/04 RMK AO1 2PAST HR 8016 SLP102 P0001 T00400040 50002", "CWNQ 241900Z AUTO 11004KT 19/11 RMK AO1 SLP231 T01930114 56023", "CWNZ 241900Z AUTO 17010G20KT 19/12 RMK AO1 PK WND 17020/1827 SLP074 T01860118 58030", "CWOB 241900Z AUTO 34023KT ////SM NCD M08/M12 A2999", "CWOC 241900Z AUTO 28001KT 13/10 RMK AO1 SLP262 T01340104 56011", "CWOD 241900Z AUTO 06002KT 16/09 RMK AO1 SLP234 T01640087 56025", "CWOE 241900Z AUTO 17003KT 02/M00 RMK AO1 SLP090 T00221002 58021", "CWOY 241900Z AUTO 34009KT M02/M04 RMK AO1 SOG 08 8012 PK WND 34018/1809 SLP050 T10151036", "CWPC 241900Z AUTO 13002KT 17/09 RMK AO1 SLP206 T01740091 58029", "CWPD 241900Z AUTO 22005KT 15/07 RMK AO1 SLP236 T01500067 58016", "CWPE 241900Z AUTO 07008KT 15/13 RMK AO1 SLP256 T01540126 56015", "CWPF 241915Z AUTO 23014KT 12/08 RMK AO1 PK WND 24019/1900 SLP131 T01230079 53011", "CWPK 241900Z AUTO 18004KT 20/M00 RMK AO1 SLP230 T02001002 56017", "CWPO 241900Z AUTO 31015KT 03/03 RMK AO1 4PAST HR 1028 PK WND 32022/1822 SLP935 P0002 T00270027 50004", "CWPR 241900Z AUTO 02003KT 07/01 RMK AO1 SOG 01 8006 SLP096 T00660009", "CWPX 241925Z AUTO 36014KT ////SM //// FEW002 BKN060 M19/M21 A2987", "CWPZ 241900Z AUTO 16004KT 06/01 RMK AO1 SLP012 T00620011 52011", "CWQH 241900Z AUTO 05007KT 18/14 RMK AO1 SLP232 T01840143 56026", "CWQK 241900Z AUTO 25024KT 12/ RMK AO1 PK WND 25031/1819 SLP128 T0116 53006", "CWQO 241900Z AUTO 09004KT 08/06 RMK AO1 T00810063", "CWQP 241900Z AUTO 11001KT 15/11 RMK AO1 SLP213 T01480109 58020", "CWQR 241900Z AUTO 13004KT 09/07 RMK AO1 T00940073", "CWQS 241900Z AUTO 31023KT 10/05 RMK AO1 PK WND 30037/1826 SLP110 T01040048 51028", "CWQV 241900Z AUTO 09009KT 14/08 RMK AO1 T01390075", "CWRA 241900Z AUTO 00031KT 16/07 RMK AO1 SLP273 T01590073 53001", "CWRH 241900Z AUTO 30026G34KT ////SM ////// ///// A3011", "CWRJ 241900Z AUTO 28004KT M02/M02 RMK AO1 SLP089 T10151023 58019", "CWRK 241900Z AUTO 17003KT 21/04 RMK AO1 SLP208 T02100041 58024", "CWRM 241900Z AUTO 14006KT 03/M00 RMK AO1 SLP030 T00251003 58006", "CWRN 241900Z AUTO 13005KT 15/13 RMK AO1 SLP281 T01460127 56006", "CWRO 241900Z AUTO 29022G27KT 10/ RMK AO1 PK WND 29038/1826 SLP082 T0098 53035", "CWRT 241900Z AUTO 32011G16KT 02/M03 RMK AO1 PK WND 30017/1845 SLP101 T00181026 57008", "CWRU 241900Z AUTO 30024KT 11/ RMK AO1 PK WND 31027/1850 SLP127 T0114 53024", "CWRX 241900Z AUTO ///// ////SM OVC032 M08/M12 A2992", "CWRY 241900Z AUTO 24015G21KT 04/M00 RMK AO1 PK WND 24022/1802 SLP074 T00401002 56023", "CWRZ 241900Z AUTO 22005KT 10/08 RMK AO1 SLP258 T00990081 56011", "CWSA 241928Z AUTO 06009KT 9SM FEW019 SCT030 OVC066 15/14 A3035 RMK SLP280", "CWSD 241900Z AUTO 15003KT 18/10 RMK AO1 SLP272 T01780097 56009", "CWSF 241900Z AUTO 16003KT 10/06 RMK AO1 SLP258 T00970060 56015", "CWSG 241900Z AUTO 09/07 RMK AO1 SLP261 T00880066 55011", "CWSK 241900Z AUTO 24002KT 07/06 RMK AO1 SLP125 T00740058 51006", "CWSL 241900Z AUTO 01003KT 08/04 RMK AO1 SLP097 T00760038 56010", "CWSP 241900Z AUTO 28018G23KT 11/09 RMK AO1 8PAST HR 1013 PK WND 28028/1840 SLP135 P0003 T01050090 50008", "CWSR 241900Z AUTO 35005KT 02/M05 RMK AO1 SLP081 T00211050 56025", "CWSS 241900Z AUTO 11002KT 15/14 RMK AO1 5PAST HR 6013 SLP256 P0002 T01450144 50005", "CWST 241900Z AUTO 34002KT 14/08 RMK AO1 SLP250 T01430084 58013", "CWSW 241907Z 16008G17KT 130V230 3SM -SN SCT009 OVC028 01/M01 A2975 RMK SC4SC4 SLP110", "CWTA 241900Z AUTO 02002KT 19/08 RMK AO1 SLP222 T01880075 56027", "CWTG 241900Z AUTO 05009KT 09/06 RMK AO1 SLP258 T00860063 56012", "CWTN 241900Z AUTO 10004KT 14/08 RMK AO1 SLP248 T01440083 58021", "CWTT 241900Z AUTO 11001KT 19/13 RMK AO1 T01860133", "CWTY 241900Z AUTO 05008KT 17/08 RMK AO1 SLP236 T01690077 58026", "CWUS 241900Z AUTO 14012G24KT 11/M00 RMK AO1 PK WND 13024/1850 SLP097 T01051002 58011", "CWUW 241900Z AUTO 26022KT ////SM OVC004 M11/M12 A2981", "CWUX 241900Z AUTO 02002KT 15/08 RMK AO1 SLP242 T01460082 56023", "CWVF 241900Z AUTO 07009KT 10/08 RMK AO1 T00980082", "CWVH 241900Z AUTO 10012KT ////SM NCD ///// A////", "CWVI 241900Z AUTO 17011KT 02/M03 RMK AO1 SLP068 T00211029 56024", "CWVN 241900Z AUTO 32002KT M02/M03 RMK AO1 SOG 03 8019 SLP100 T10191034", "CWVP 241900Z AUTO 23007KT M02/M03 RMK AO1 6PAST HR SOG 15 8024 SLP074 P0002 T10151031 50006", "CWVQ 241900Z AUTO 11008KT 19/08 RMK AO1 SLP220 T01930078 57027", "CWVT 241900Z AUTO 15003KT M00/M05 RMK AO1 SLP119 T10031050 58022", "CWVU 241900Z AUTO 11009KT 18/16 RMK AO1 SLP246 T01770158 56013", "CWWA 241900Z AUTO 00000KT 09/08 RMK AO1 SLP126 T00880082 52012", "CWWB 241900Z AUTO 10003KT 09/08 RMK AO1 SLP204 T00860078 57024", "CWWE 241900Z AUTO 04006KT 14/13 RMK AO1 5PAST HR 6007 SLP267 P0002 T01350134 50005", "CWWF 241900Z AUTO 34019G25KT M01/M02 RMK AO1 SOG 01 3002 PK WND 23027/1842 SLP038 T10081015", "CWWK 241900Z AUTO 17004KT 12/09 RMK AO1 SLP129 T01170088 53012", "CWWL 241900Z AUTO 30022G27KT 10/05 RMK AO1 PK WND 30031/1803 SLP094 T00960052 52038", "CWWS 241900Z AUTO 01026KT 03/02 RMK AO1 0PAST HR 7037 PK WND 02031/1806 SLP890 P0004 T00300020 50010", "CWWZ 241900Z AUTO 02005KT 12/10 RMK AO1 SLP205 T01180100 57022", "CWXA 241900Z AUTO 00025KT 04/M05 RMK AO1 SLP065 T00431051 58015", "CWXC 241900Z AUTO 19007KT 20/04 RMK AO1 SLP240 T01950037 56019", "CWXI 241900Z AUTO 24011KT 10/05 RMK AO1 SLP260 T01000047 56012", "CWXL 241900Z AUTO 21010KT 05/M00 RMK AO1 SLP070 T00511004 56024", "CWYJ 241900Z AUTO 25006KT 12/09 RMK AO1 PK WND 23017/1847 SLP130 T01200089 53009", "CWYL 241900Z AUTO 27010KT M00/M02 RMK AO1 SOG 02 6015 SLP073 T10031020", "CWYY 241900Z AUTO 14009KT 10/01 RMK AO1 PK WND 14017/1821 SLP112 T00960010 58007", "CWZA 241900Z AUTO 00000KT 07/06 RMK AO1 7PAST HR 3005 SLP133 P0011 T00660056 50027", "CWZG 241900Z AUTO 23006KT 03/M03 RMK AO1 SOG 03 8017 SLP060 T00261029", "CWZL 241900Z AUTO 28013G22KT 10/05 RMK AO1 PK WND 27022/1853 SLP114 T00990046 52029", "CWZN 241900Z AUTO 26006KT 12/09 RMK AO1 SLP279 T01150091 56007", "CWZO 241900Z AUTO 26012KT RMK AO1", "CWZQ 241900Z AUTO 26003KT 16/11 RMK AO1 SLP278 T01560109 56013", "CWZW 241900Z AUTO 09004KT M01/M05 RMK AO1 SLP064 T10091051 51008", "CXAF 241900Z AUTO 14008KT M02/M02 RMK AO1 T10161018", "CXAG 241900Z AUTO 13008KT M01/M02 RMK AO1 T10111018", "CXAJ 241900Z AUTO 14005KT M00/M02 RMK AO1 T10041020", "CXAK 241900Z AUTO 19007KT 02/02 RMK AO1 T00240024", "CXAT 241900Z AUTO 06005KT M11/M14 RMK AO1 SOG 05 2014 SLP103 T11061143", "CXBA 241900Z AUTO 16009KT 03/M05 RMK AO1 T00251050", "CXBI 241900Z AUTO 17008KT 19/06 RMK AO1 SLP210 T01910064 56019", "CXBK 241900Z AUTO 32022KT M01/M02 RMK AO1 SOG 07 8001 PK WND 32028/1801 SLP062 T10121016", "CXBO 241900Z AUTO 08006KT 14/08 RMK AO1 T01440077", "CXBR 241900Z AUTO 24021KT RMK AO1 PK WND 24032/1854", "CXBW 241900Z AUTO 25027KT 08/M02 RMK AO1 PK WND 25033/1858 T00801015", "CXCA 241900Z AUTO 16011G17KT 11/10 RMK AO1 PK WND 16020/1825 SLP021 T01090098 56020", "CXCD 241900Z AUTO 01004KT 01/00 RMK AO1 T00090000", "CXCK 241900Z AUTO 33007KT M04/M07 RMK AO1 SLP102 T10361070 50003", "CXCP 241900Z AUTO 25011KT 07/01 RMK AO1 T00700005", "CXCS 241900Z AUTO 14012KT 02/M04 RMK AO1 T00221037", "CXDB 241900Z AUTO 24020KT 01/M03 RMK AO1 PK WND 21026/1803 T00061029", "CXDE 241900Z AUTO 26002KT M05/M07 RMK AO1 SOG 03 4000 SLP162 T10481068", "CXDI 241900Z AUTO 16005KT 21/07 RMK AO1 SLP195 T02130067 56025", "CXDK 241900Z AUTO M03/M08 RMK AO1 SLP120 T10311082 54000", "CXDW 241900Z AUTO 30016G23KT 03/02 RMK AO1 PK WND 31023/1859 SLP910 T00330015 51024", "CXEA 241900Z AUTO 15011G21KT 19/15 RMK AO1 PRESFR PK WND 13021/1855 SLP862 T01920146 58037", "CXEC 241900Z AUTO 19004KT 02/M02 RMK AO1 SLP053 T00181022 58011", "CXEG 241900Z AUTO 16004KT 01/M01 RMK AO1 SLP056 T00101008 56012", "CXET 241900Z AUTO 15010G18KT 20/08 RMK AO1 PK WND 14018/1853 SLP199 T01980076 56025", "CXFM 241900Z AUTO 18010KT 02/M01 RMK AO1 T00161012", "CXFR 241900Z AUTO 13002KT 04/01 RMK AO1 T00430011", "CXGH 241900Z AUTO 19015G20KT 10/08 RMK AO1 PK WND 19021/1816 SLP869 T01010075 51006", "CXHA 241900Z AUTO 16007KT 22/08 RMK AO1 SLP172 T02170080 56024", "CXHD 241900Z AUTO 15010KT 01/M02 RMK AO1 T00091017", "CXHM 241900Z AUTO 13004KT 16/09 RMK AO1 SLP202 T01600090 57026", "CXHP 241900Z AUTO 23005KT 05/M00 RMK AO1 T00501003", "CXHR 241900Z AUTO 17007KT M01/M01 RMK AO1 T10111012", "CXIB 241900Z AUTO 01005KT 15/11 RMK AO1 SLP274 T01470108 55009", "CXKA 241900Z AUTO 15012KT 18/09 RMK AO1 PK WND 16021/1803 SLP113 T01800089 58028", "CXKE 241900Z AUTO 05003KT 22/04 RMK AO1 SLP214 T02150044 56023", "CXKI 241900Z AUTO 00016KT 17/08 RMK AO1 SLP172 T01720077 56016", "CXKM 241900Z AUTO 16009KT 02/M02 RMK AO1 PK WND 16017/1819 T00231024", "CXKT 241900Z AUTO 09003KT 18/13 RMK AO1 SLP270 T01790128 56012", "CXLB 241900Z AUTO 09008KT 14/14 RMK AO1 SLP270 T01410136 56009", "CXLL 241900Z AUTO 36004KT M03/M06 RMK AO1 SOG 04 6004 SLP130 T10251059", "CXMD 241900Z AUTO 31012G18KT 04/03 RMK AO1 PK WND 31020/1842 SLP906 T00410029 53014", "CXMG 241900Z AUTO 27003KT 01/M00 RMK AO1 T00061004", "CXMI 241900Z AUTO 11005KT 15/12 RMK AO1 SLP275 T01530116 56010", "CXMM 241900Z AUTO 13012G17KT M00/M02 RMK AO1 PK WND 12018/1827 SLP086 T10031023 57022", "CXMO 241900Z AUTO 21005KT M01/M01 RMK AO1 T10131013", "CXMY 241900Z AUTO 18/09 RMK AO1 T01840092", "CXNM 241900Z AUTO 27004KT 17/06 RMK AO1 T01740059", "CXNP 241900Z AUTO 19007KT 21/09 RMK AO1 SLP266 T02110092 56012", "CXOL 241900Z AUTO 14004KT 02/M02 RMK AO1 T00191022", "CXOX 241900Z AUTO 04006KT 02/M04 RMK AO1 SLP094 T00161044 58024", "CXOY 241900Z AUTO 15014KT 02/M02 RMK AO1 PK WND 14017/1854 T00211019", "CXPA 241900Z AUTO 17003KT 04/M00 RMK AO1 T00361002", "CXPC 241900Z AUTO 22/04 RMK AO1 SLP188 T02230035 56019", "CXPL 241900Z AUTO 12006KT 03/01 RMK AO1 T00300014", "CXRB 241900Z AUTO 05001KT M16/M18 RMK AO1 SOG 02 3012 SLP099 T11611180", "CXRH 241900Z AUTO 27003KT 12/07 RMK AO1 SLP271 T01230074 56014", "CXRL 241900Z AUTO 14006KT 01/M03 RMK AO1 T00081026", "CXSC 241900Z AUTO 16006KT 02/M01 RMK AO1 T00171011", "CXSE 241900Z AUTO 01008KT M15/M18 RMK AO1 SOG 05 3008 SLP113 T11501175", "CXSH 241900Z AUTO 14007KT 19/13 RMK AO1 SLP237 T01890132 58024", "CXSL 241900Z AUTO 14006KT M02/M02 RMK AO1 T10181019", "CXSP 241900Z AUTO 13005KT M00/M03 RMK AO1 T10041031", "CXTD 241900Z AUTO 36001KT 20/09 RMK AO1 SLP290 T01980089 56009", "CXTH 241900Z AUTO 15012KT 02/M04 RMK AO1 PK WND 15020/1829 T00221038", "CXTN 241900Z AUTO 24005KT M12/M13 RMK AO1 SOG 28 1001 SLP165 T11181134", "CXTO 241900Z AUTO 18/09 RMK AO1 SLP202 T01780094 58024", "CXTP 241900Z AUTO 31002KT 13/04 RMK AO1 SLP274 T01280040 55000", "CXTV 241900Z AUTO 00000KT M16/M18 RMK AO1 3PAST HR SOG 08 5000 SLP190 P0001 T11561179 50003", "CXVM 241900Z AUTO 17007KT 02/M03 RMK AO1 T00221026", "CXVN 241900Z AUTO 04003KT 12/09 RMK AO1 SLP204 T01220094 58021", "CXVW 241900Z AUTO 15002KT 02/M00 RMK AO1 SLP036 T00181003 50001", "CXWN 241900Z AUTO 21007KT 08/06 RMK AO1 SLP880 T00830063 53005", "CXYH 241900Z AUTO 27002KT M03/M06 RMK AO1 SLP116 T10271059 57002", "CXZC 241900Z AUTO 17005KT 20/10 RMK AO1 SLP115 T02010098 58023", "CXZV 241900Z AUTO 14003KT 11/07 RMK AO1 SLP260 T01060066 56015", "CYAB 241900Z 20005KT 080V220 10SM -SN BKN020 BKN100 M10/M14 A2982 RMK SC5AC1 CIG EST SLP101", "CYAH 241900Z AUTO 19010KT 9SM CLR 17/10 A3006 RMK SLP193 DENSITY ALT 1400FT", "CYAM 241900Z 10008KT 15SM FEW130 BKN190 18/11 A2989 RMK AC1AC6 AC TR PRESFR SLP124 DENSITY ALT 1200FT", "CYAS 241900Z 31009KT 15SM SCT024 BKN140 M04/M09 A3030 RMK SC4AC2 LAST STFD OBS/NEXT 251200UTC SLP273", "CYAT 241927Z AUTO 10006KT 6SM -RA BR BKN047 OVC066 10/10 A2973 RMK PRESFR PCPN 1.0MM PAST HR SLP068", "CYAW 241927Z 09007KT 12SM SCT009 OVC012 15/12 A3035 RMK SC4SC4 DENSITY ALT -113FT SLP279", "CYAY 241900Z AUTO 24011G17KT 9SM OVC110 09/01 A3029 RMK SLP260", "CYAZ 241900Z 28009KT 15SM FEW015 11/09 A2992 RMK CU1 WND EST VIA CYXY SLP133", "CYBB 241900Z 21013G21KT 15SM OVC017 M10/M13 A3000 RMK SC8 SLP162", "CYBC 241900Z AUTO 09005KT 9SM CLR 09/07 A3029 RMK SLP261", "CYBD 241900Z 32003KT 4SM -SHRA BR FEW009 FEW018 SCT036 BKN048 OVC056 07/06 A2975 RMK SC1SC2SC2SC3SC1 SC TR WND EST CVCTV CLD EMBD WIND ESTD SLP078", "CYBG 241900Z 09007KT 20SM SCT180 BKN250 16/09 A3023 RMK AC3CI3 SLP242", "CYBK 241900Z 20015KT 25SM -SN BKN045 M05/M09 A3012 RMK SC7 SLP205", "CYBL 241900Z VRB03KT 10SM OVC013 09/07 A2988 RMK SC8 SLP121", "CYBQ 241900Z AUTO /////KT 9SM OVC013 M04/M06 A2995 RMK WIND MISG SLP168", "CYBR 241900Z 31018KT 10SM -SHRA BKN019 OVC037 02/01 A2932 RMK SC5SC3 CVCTV CLD EMBD SLP948", "CYBU 241900Z AUTO 33015G22KT 9SM OVC016 M01/M01 A2964 RMK ICE SLP059", "CYBV 241900Z 01005KT 340V050 6SM -RA BKN008 OVC015 04/04 A2909 RMK SC7SC1 SLP861", "CYBW 241900Z AUTO 00000KT 9SM FEW150 02/M01 A2957 RMK SLP063", "CYBX 241900Z 25010KT 15SM FEW110 SCT250 09/05 A3031 RMK AC1CI3 SLP268", "CYCA 241900Z AUTO 05009KT 9SM CLR 07/00 A3026 RMK SLP248", "CYCB 241914Z 01006KT 14SM -SN FEW008 BKN025 BKN220 M19/M21 A2995 RMK SF2SC3CI1 SLP149", "CYCD 241900Z 12003KT 080V240 10SM FEW005 SCT010 BKN100 11/08 A2988 RMK SF2SC2AC2 SLP122", "CYCG 241927Z 19005KT 10SM -RA FEW005 FEW018 FEW026 BKN033 05/05 A2987 RMK CF1CF1SC2SC5 CF TR CF TR CIG VRB 029-037 CIG LWR S SLP129", "CYCK 241900Z AUTO 16011KT 9SM CLR 20/08 A3006 RMK SLP183 DENSITY ALT 1200FT", "CYCO 241900Z 23010KT 5SM -SN DRSN FEW025 BKN036 M09/M12 A2997 RMK SC2SC5 SLP153", "CYCP 241900Z 00000KT 4SM -RA BR FEW003 BKN015 OVC026 01/01 A2973 RMK ST2SC3SC3 VIS E-SW 11/2 SLP097", "CYCQ 241900Z 01005KT 350V050 35SM OVC045 M00/M02 A2956 RMK SC8 VIRGA N + E + S + W FU DIST VLY W SLP042", "CYCS 241900Z 22006KT 15SM FEW028 SCT220 M08/M12 A3026 RMK SC1CI3 SLP249", "CYCX 241900Z 00000KT 12SM -SHRA BKN040 OVC100 17/12 A3030 RMK SC6AC2 DENSITY ALT 125FT SLP262", "CYCY 241900Z AUTO 22008KT 9SM FEW055 M09/M15 A2977 RMK SLP086", "CYDA 241900Z 00000KT 20SM FEW003 FEW005 SCT050 SCT100 M14/M16 A2987 RMK ST1ST2SC1AC1 ST TR FROIN SLP149", "CYDB 241900Z 32006KT 270V340 10SM SCT055 BKN067 BKN075 OVC110 M07/M10 A2974 RMK SC4CF1AC1AS2 SLP127", "CYDC 241900Z 02004KT 330V070 25SM SCT047 BKN062 BKN087 07/02 A2978 RMK SC3SC3AC1 SLP099", "CYDF 241900Z 21005KT 15SM BKN210 15/09 A3033 RMK CI7 SLP273", "CYDL 241932Z AUTO 36005KT 290V030 3SM -SN BKN015 BKN023 OVC038 M02/M04 A2955 RMK SLP032", "CYDN 241919Z AUTO 32013G21KT 9SM -RA SCT014 OVC019 01/ A2935 RMK DP MISG SLP954", "CYDP 241900Z 30017KT 15SM SCT062 SCT150 SCT180 BKN230 06/M03 A3024 RMK SC3AC1AS1CS3 AS TR PRESFR SLP241", "CYDQ 241900Z AUTO VRB02KT 9SM FEW240 03/00 A2956 RMK SLP039", "CYED 241900Z 17004KT 12SM FEW060 OVC085 03/M02 A2963 RMK SC1AS8 DENSITY ALT 1571FT SLP060", "CYEG 241921Z 00000KT 5SM -SN BKN020 OVC060 01/M01 A2960 RMK SC6SC2 SLP058", "CYEK 241900Z 09005KT 15SM OVC020 M02/M07 RMK SC8 ALTM 3018 WND ESTD VIA CYQB DENSITY ALT MISG", "CYEN 241919Z AUTO 32026G35KT 9SM OVC010 M01/M02 A2954 RMK ICE PAST HR SLP031", "CYER 241924Z AUTO 08020G31KT 2 1/2SM RA BR BKN008 OVC014 03/03 A2965 RMK PCPN 3.2MM PAST HR SLP045", "CYET 241921Z AUTO VRB02KT 9SM OVC044 03/03 A2957 RMK SLP044", "CYEV 241900Z 09005KT 15SM FEW050 M13/M15 A3004 RMK SC1 SC TR SLP184", "CYFB 241900Z 32014G23KT 20SM OVC033 M06/M10 A3023 RMK SC8 INTMT -SN SLP241", "CYFC 241900Z AUTO 34003KT 330V050 9SM -RA BKN044 OVC055 17/13 A3030 RMK SLP264", "CYFO 241900Z 36015G22KT 15SM -SN DRSN OVC010 M02/M04 A2961 RMK SN6SC2 CIG RAG SLP046", "CYFR 241900Z 08006KT 060V130 15SM FEW010 OVC016 M00/M03 A2979 RMK SF1SC8 SF TR SLP102", "CYFS 241935Z 35007KT 1SM -SN FEW008 OVC030 M03/M04 A2985 RMK SF2SC6 SLP123", "CYFT 241900Z 31009KT 15SM FEW030 SCT220 06/M02 A3027 RMK SC1CI3 SC TR SLP255", "CYGE 241900Z 15013G20KT 10SM FEW025 SCT035 BKN045 OVC065 06/M02 A2971 RMK SC2SC2SC2ST2 SH DIST S SLP083", "CYGH 241900Z 07002KT 15SM -SN BKN012 BKN024 M07/M08 A2998 RMK SC6SC1 SLP163", "CYGK 241900Z 22005KT 15SM FEW120 FEW250 19/07 A3016 RMK AC1CI1 AC TR CI TR SLP215 DENSITY ALT 600FT", "CYGL 241900Z 19011G18KT 15SM SCT076 BKN240 19/11 A2994 RMK AC3CI3 SLP148 DENSITY ALT 1200FT", "CYGP 241900Z 10004KT 15SM OVC140 13/09 A3028 RMK AS8 SLP258", "CYGR 241900Z 33004KT 20SM FEW220 OVC270 15/11 A3033 RMK CI2CS6 SLP274", "CYGT 241900Z 31022KT 15SM DRSN BKN035 M09/M14 A2992 RMK SC7 SLP141", "CYGV 241900Z AUTO 16003KT 9SM CLR 13/07 A3029 RMK SLP261", "CYGW 241900Z AUTO 12011G17KT 9SM FEW066 12/06 A2992 RMK SLP134", "CYGX 241900Z 06015G30KT 2 1/2SM -SN OVC020 01/M00 A2960 RMK SC8 SLP037", "CYHA 241900Z 30009G15KT 15SM -SHSN BKN028 M02/M08 A3030 RMK SC7 LAST OBS/NEXT 251200 UTC SLP266", "CYHD 241900Z AUTO 16017G28KT 9SM SCT240 18/13 A2921 RMK SLP897 DENSITY ALT 2900FT", "CYHE 241912Z AUTO 00000KT 5SM -RA BR OVC012 07/06 A2991 RMK SLP132", "CYHI 241900Z 04007KT 15SM -SN OVC015 M13/M16 A3000 RMK SC8 CIG RAG/SH AT A DIST N STTN SLP164", "CYHK 241933Z AUTO 27011G16KT 9SM -SN OVC010 M09/M10 A2992 RMK SLP140", "CYHM 241900Z 13009KT 080V150 15SM FEW250 20/09 A3010 RMK CI1 SLP197 DENSITY ALT 1400FT", "CYHU 241900Z AUTO 10006KT 9SM CLR 19/09 A3018 RMK SLP224 DENSITY ALT 400FT", "CYHY 241933Z 08008KT 3/4SM -SN BKN009 OVC019 M02/M03 A2976 RMK SC5SC3 SLP094", "CYHZ 241931Z 12006KT 080V150 12SM BKN013 OVC027 17/13 A3034 RMK SC5SC3 SLP278", "CYIK 241900Z VRB02KT 15SM -SHGS BKN024 OVC027 M04/M09 A3030 RMK SC6SC2 LAST STFD OB/NEXT 251200UTC SLP266", "CYIN 241900Z AUTO VRB02KT 9SM BKN091 BKN110 07/M06 A2964 RMK SLP057 DENSITY ALT 3900FT", "CYIO 241928Z 28017G22KT 2SM -SN DRSN BKN017 OVC023 M10/M12 A2980 RMK SC5SC3 SLP102", "CYIV 241937Z AUTO 07012G23KT 010V090 6SM -RA BR FEW009 BKN036 OVC071 02/02 A2921 RMK PCPN 2.8MM PAST HR SLP905", "CYJF 241900Z 02009G16KT 7SM -SN BKN015 BKN047 OVC060 M03/M06 A2984 RMK ST5SC1SC2 ST VRB 13-18/AS ASOCTD SLP118", "CYJT 241900Z 26003KT 15SM SCT140 BKN220 13/08 A3034 RMK AC3CI4 SLP278", "CYKA 241900Z 12008KT 40SM FEW055 FEW160 11/02 A2972 RMK CU1AC1 AC TR SLP074 DENSITY ALT 1200FT", "CYKD 241914Z VRB02KT 15SM VCFG BKN003 BKN070 M15/M17 A3007 RMK ST5AC1 VIS SE 2 SLP185", "CYKF 241928Z AUTO 15007KT 7SM CLR 21/07 A3009 RMK SLP188 DENSITY ALT 1800FT", "CYKG 241900Z 28011G18KT 15SM -SN OVC029 M03/M09 A3026 RMK SC8 CIG RAG SLP264", "CYKJ 241900Z AUTO 09008KT 060V120 9SM CLR M01/M05 A2980 RMK SLP125", "CYKL 241900Z AUTO 13004KT 9SM BKN066 BKN240 05/01 A3022 RMK SLP264", "CYKQ 241900Z 18015G24KT 15SM FEW110 BKN170 BKN250 22/09 A2993 RMK AC2AC5CI1 CI TR SLP139 DENSITY ALT 1000FT", "CYKY 241900Z 19006KT 15SM FEW010 FEW100 FEW260 02/M02 A2969 RMK ST1AC1CI2 ST TR AC TR SLP083", "CYLA 241900Z 32009KT 15SM BKN025 BKN250 M02/M07 A3034 RMK SC5CI2 SLP278", "CYLC 241900Z 30012KT 15SM -SHSN SCT035 BKN044 M04/M09 A3024 RMK SC3SC4 LASTSTFD OBS/NXT 251200Z SLP248", "CYLD 241900Z 17012G22KT 15SM SCT230 BKN250 19/10 A2988 RMK CC3CI2 SLP129 DENSITY ALT 2300FT", "CYLH 241900Z AUTO 13008KT 9SM OVC016 13/13 A2947 RMK SLP990 DENSITY ALT 1300FT", "CYLJ 241900Z 03005KT 360V170 10SM OVC006 M01/M02 A2975 RMK SC8 BR SLP103", "CYLL 241900Z 15007KT 15SM FEW030 BKN260 02/M04 A2968 RMK CU1CI7 CU TR SLP086", "CYLT 241900Z 24006KT 10SM BKN006 OVC012 M22/M26 A3012 RMK SF6SC2 SLP204", "CYLU 241900Z 30009KT 15SM OVC021 M01/M05 A3033 RMK SC8 LAST STFD OBS/NEXT 251200 UTC SLP279", "CYLW 241900Z AUTO 15004KT 120V210 9SM OVC066 10/01 A2978 RMK SLP094", "CYMA 241900Z 31006KT 20SM SCT038 OVC130 M05/M09 A2977 RMK SC4AC4 SLP119", "CYMH 241900Z AUTO 07004KT 020V130 9SM CLR 11/M00 A3024 RMK SLP244", "CYMM 241911Z AUTO 12013G18KT 9SM BKN010 OVC055 00/M02 A2971 RMK SLP084", "CYMO 241900Z AUTO 17009KT 9SM BKN110 BKN130 BKN180 20/10 A2986 RMK SLP115 DENSITY ALT 700FT", "CYMT 241900Z AUTO 16011G16KT 9SM CLR 19/04 A3014 RMK SLP216 DENSITY ALT 1900FT", "CYMU 241900Z 07029G36KT 15SM FEW009 BKN068 BKN200 03/01 A3001 RMK SF1AC7CI1 SF TR CI TR SLP170", "CYMX 241900Z 09004KT 20SM SCT026 BKN100 BKN250 20/08 A3018 RMK SC4AC1CI1 SLP223 DENSITY ALT 700FT", "CYNA 241900Z AUTO 14004KT 9SM CLR 13/08 A3030 RMK ICE MISG SLP264", "CYND 241900Z 06005KT 030V090 15SM FEW240 21/07 A3016 RMK CI1 CI TR SLP217 DENSITY ALT 700FT", "CYNE 241936Z AUTO 01009G23KT 340V040 3SM -SN -UP OVC016 00/00 A2930 RMK PCPN 1.5MM PAST HR SLP936", "CYNM 241900Z AUTO 17014G19KT 9SM CLR 20/02 A3004 RMK SLP181 DENSITY ALT 1600FT", "CYOC 241900Z 00000KT 30SM -SN FEW017 SCT037 OVC056 M09/M11 A2996 RMK ST2SC2SC4 SLP173", "CYOD 241900Z 09006KT 8SM OVC005 M01/M02 A2973 RMK ST8 DENSITY ALT 406FT SLP095", "CYOJ 241925Z 12003KT 2 1/2SM -SN OVC007 M01/M01 A2964 RMK SC8 SLP062", "CYOO 241900Z AUTO 13007KT 9SM CLR 19/09 A3013 RMK SLP205 DENSITY ALT 800FT", "CYOW 241900Z 00000KT 15SM FEW220 21/07 A3016 RMK CI1 CI TR SLP217 DENSITY ALT 900FT", "CYOY 241900Z 11003KT 080V140 15SM SCT060 BKN120 18/10 A3026 RMK SC3AC3 DENSITY ALT 798FT SLP250", "CYPA 241900Z 35006KT 15SM FEW016 BKN052 02/M02 A2971 RMK SC2SC4 SLP083", "CYPC 241900Z 28012KT 3SM -SN BKN012 OVC026 M07/M10 A3003 RMK SC7SC1 SLP171", "CYPD 241900Z AUTO 16004KT 9SM CLR 19/09 A3035 RMK SLP283 DENSITY ALT 500FT", "CYPE 241900Z 20004KT 130V230 15SM OVC048 04/00 A2958 RMK SC8 SLP043", "CYPG 241922Z 31016G31KT 3SM -SHRA BR OVC009 04/03 A2923 RMK SF8 SLP908", "CYPH 241900Z AUTO 08021G26KT 9SM FEW130 M01/M04 A3018 RMK SLP223", "CYPL 241936Z AUTO 15015G23KT 7SM -RA OVC004 14/14 A2934 RMK PRESFR SLP943 DENSITY ALT 2200FT", "CYPO 241919Z AUTO 11012G25KT 9SM -RA OVC008 04/04 A2963 RMK SLP038", "CYPQ 241900Z AUTO 13006KT 100V200 9SM CLR 22/09 A3013 RMK SLP207 DENSITY ALT 1400FT", "CYPR 241900Z AUTO 30009G15KT 250V320 9SM SCT036 OVC045 10/05 A2974 RMK SLP074", "CYPW 241927Z 12005KT 20SM FEW012 BKN020 OVC060 10/08 A2989 RMK SF1SC6SC2 SF TR LWR VIS N-NE 4 LOW CLD BR SLP125", "CYPX 241900Z AUTO 07007KT 9SM OVC027 M01/M06 A3029 RMK SLP260", "CYPY 241900Z AUTO 13006KT 110V180 9SM FEW010 BKN071 02/00 A2975 RMK SLP091", "CYQA 241900Z AUTO 17012KT 9SM CLR 21/05 A3009 RMK SLP196 DENSITY ALT 1700FT", "CYQB 241900Z 06006KT 25SM BKN032 BKN120 BKN200 17/09 A3024 RMK SC5AC1CI1 SLP244", "CYQD 241936Z AUTO 35014G30KT 1 3/4SM -SN BKN012 OVC017 M01/M02 A2951 RMK SLP008", "CYQF 241900Z AUTO 18005KT 150V220 9SM SCT086 BKN190 02/M01 A2959 RMK PCPN 6.3MM PAST HR SLP061", "CYQG 241900Z AUTO 19013G19KT 9SM CLR 24/07 A3004 RMK SLP173 DENSITY ALT 1800FT", "CYQH 241907Z 08008KT 20SM -SN OVC030 M03/M08 A2965 RMK SC8 SLP081", "CYQI 241919Z 11007KT 3SM BR OVC004 18/17 A3026 RMK SF8 VIS S 12 SLP250", "CYQK 241900Z 21018G29KT 20SM BKN014 10/07 A2926 RMK SC7 SLP916 DENSITY ALT 1900FT", "CYQL 241900Z 25013KT 60SM SCT100 BKN270 05/M02 A2965 RMK AC3CI3 SLP074", "CYQM 241900Z 09002KT 15SM -RA FEW055 BKN120 BKN160 19/09 A3031 RMK SC1AC5AC1 AC TR SLP267 DENSITY ALT 400FT", "CYQQ 241900Z 09005KT 20SM BKN012 BKN070 10/07 A2987 RMK SC5AC2 SLP116", "CYQR 241900Z 33021KT 15SM OVC006 M01/M02 A2962 RMK SC8 CIG RAG SLP061", "CYQT 241900Z 16011KT 20SM FEW010 BKN031 BKN120 18/14 A2952 RMK SF1SC5AC1 VIS N-NE 10 SLP000 DENSITY ALT 1600FT", "CYQU 241900Z 20003KT 160V230 25SM BKN065 04/01 A2957 RMK SC7 SLP041", "CYQV 241900Z AUTO 33015G22KT 9SM OVC016 M01/M03 A2948 RMK SLP011", "CYQW 241900Z AUTO 35004KT 290V010 9SM OVC004 M00/M02 A2974 RMK SLP103", "CYQX 241900Z 31007KT 20SM FEW170 SCT210 BKN260 13/04 A3034 RMK AC2CC1CI3 CONTRAILS SLP280", "CYQY 241900Z 16009KT 15SM BKN120 BKN250 18/12 A3035 RMK AC5CI1 SLP281", "CYQZ 241934Z AUTO 16007KT 9SM -RA OVC042 06/01 A2964 RMK SLP058", "CYRA 241900Z 35005KT 15SM BKN061 M05/M10 A2993 RMK SC7 SLP156", "CYRB 241900Z 05004KT 15SM OVC008 M16/M18 A2980 RMK ST8 SLP103", "CYRJ 241900Z 08004KT 060V130 25SM FEW100 16/08 A3021 RMK AC1 AC TR SLP236", "CYRL 241932Z 19015G36KT 100V260 5SM -TSRA BR BKN009 BKN020CB 14/12 A2916 RMK FG1SF4CB2 CB E MOV NE PRESRR SLP882 DENSITY ALT 2400FT", "CYRQ 241900Z AUTO 08006KT 040V140 9SM FEW025 BKN230 20/11 A3021 RMK SLP234 DENSITY ALT 500FT", "CYRT 241900Z 22006KT 15SM FEW015 FEW040 BKN250 M06/M11 A3023 RMK SC1SC1CI4 SC TR SLP241", "CYRV 241900Z AUTO 19008G16KT 9SM -RA FEW014 BKN021 OVC027 05/03 A2979 RMK PCPN 0.5MM PAST HR SLP102", "CYSB 241900Z 19015G21KT 20SM BKN140 BKN190 21/06 A3006 RMK AC5CI1 SLP183 DENSITY ALT 2000FT", "CYSC 241900Z AUTO 06005KT 020V090 9SM FEW029 A3021 RMK PRESFR T MISG DP MISG DENSITY ALT MISG", "CYSF 241900Z AUTO 10008KT 080V150 9SM CLR 01/M07 A2989 RMK SLP140", "CYSJ 241900Z 10007KT 15SM FEW011 OVC023 17/13 A3031 RMK SC2SC6 SLP267", "CYSK 241900Z 06021G28KT 15SM BKN051 04/02 A2998 RMK SC7 SLP158", "CYSM 241900Z 12003KT 090V160 8SM OVC008 01/01 A2977 RMK SC8 SLP095", "CYSN 241900Z 02006KT 15SM SKC 16/11 A3011 RMK SLP201", "CYSP 241900Z 18013G26KT 150V210 15SM FEW025 BKN042 BKN090 16/12 A2970 RMK SC2SC4AC1 SLP061 DENSITY ALT 1700FT", "CYSY 241900Z 02017KT 15SM DRSN FEW022 FEW080 M18/M19 A3003 RMK SC1AC1 SC TR SLP184", "CYTE 241900Z 29011KT 15SM -SN OVC028 M06/M09 A3023 RMK SC8 SLP245", "CYTH 241908Z 03017G25KT 3/4SM R06/P6000FT/U -SNPL VV010 M01/M02 A2956 RMK SN8 SLP028", "CYTL 241900Z AUTO 13007G15KT 090V160 2 1/2SM -RA BR OVC003 05/05 A2942 RMK SLP975", "CYTQ 241900Z 36005KT 15SM BKN030 BKN040 00/M06 A3032 RMK SC6SC1 SLP273", "CYTR 241900Z 12004KT 100V160 15SM FEW150 21/10 A3013 RMK AC1 DENSITY ALT 975FT SLP205", "CYTS 241900Z 16010G16KT 15SM SCT100 BKN120 19/08 A2995 RMK AC4AC3 SLP149 DENSITY ALT 1600FT", "CYTZ 241900Z AUTO VRB04KT 9SM CLR 16/09 A3012 RMK SLP203", "CYUA 241900Z AUTO 20003KT ////SM OVC003 M15/M18 A3004", "CYUB 241900Z 21004KT 15SM BKN027 M10/M12 A3008 RMK SC7 SLP187", "CYUL 241900Z 10010KT 30SM FEW100 SCT200 BKN250 20/06 A3018 RMK AC1CI2CC2 SLP221 DENSITY ALT 500FT", "CYUS 241900Z AUTO 23003KT 200V330 ////SM //// FEW003 SCT007 BKN012 M08/M10 A2992", "CYUT 241900Z 28014G22KT 15SM DRSN SCT025 M10/M15 A3016 RMK SC4 SLP219", "CYUX 241900Z 25009KT 10SM -SN FEW025 BKN050 M09/M11 A2999 RMK SC2SC5 -SN INTMT VIA CYXU SLP158", "CYUY 241900Z 18010KT 15SM SCT140 BKN170 19/04 A3005 RMK AC4AC3 SLP183 DENSITY ALT 1600FT", "CYVC 241900Z 03007KT 15SM BKN020 OVC060 02/M04 A2977 RMK SC7SC1 SLP102", "CYVL 241900Z AUTO 04005KT 9SM -SN OVC011 M08/M09 A2994 RMK SLP169", "CYVM 241900Z 20003KT 180V270 15SM FEW006 M07/M14 A2987 RMK ST1 ST TR SLP118", "CYVO 241900Z 17011G16KT 15SM SCT180 20/04 A3009 RMK AC4 SLP200 DENSITY ALT 1800FT", "CYVP 241900Z 36003KT 330V050 15SM BKN026 BKN240 02/M04 A3032 RMK CU6CI1 SLP273", "CYVQ 241900Z VRB02KT 6SM -SN BKN007 OVC010 M04/M06 A2998 RMK ST7ST1 VIS E 20 NW 1 3/4 SLP162", "CYVR 241900Z 08007KT 15SM BKN010 BKN016 BKN210 10/09 A2989 RMK SC6SC1CI1 CI TR SLP125", "CYVT 241900Z AUTO 00000KT 9SM OVC018 00/M04 A2976 RMK SLP105", "CYVV 241900Z 16011G17KT 15SM FEW150 SCT250 24/08 A3003 RMK AC2CI1 SLP173 DENSITY ALT 1800FT", "CYWA 241900Z 12007KT 15SM SKC 19/09 A3014 RMK DENSITY ALT 862FT SLP210", "CYWE 241900Z AUTO 01003KT 340V040 9SM -SN OVC050 M06/M07 A2986 RMK ICE MISG SLP143", "CYWG 241900Z 25009KT 10SM -RA OVC007 07/06 A2916 RMK SC8 SLP881 DENSITY ALT 1000FT", "CYWH 241900Z 25020G28KT 15SM FEW012 SCT035TCU BKN150 12/08 A2991 RMK CF1TCU3AC1 SLP131", "CYWJ 241900Z 26004KT 30SM BKN011 BKN066 M05/M07 A2995 RMK SC5AS1 SLP161", "CYWK 241900Z 21008KT 15SM FEW050 BKN230 17/09 A3019 RMK SC1CI4 SLP244 DENSITY ALT 2200FT", "CYWL 241900Z 12007KT 15SM BKN079 OVC230 05/M01 A2964 RMK AC7CI1 SLP063", "CYWY 241900Z 30003KT 280V040 12SM -SN FEW008 BKN059 BKN086 BKN140 M04/M06 A2994 RMK SF2SC4AC1AC1 AC TR PCP VRY LGT SLP154", "CYXC 241900Z 12008KT 25SM FEW024 BKN046 OVC068 04/01 A2979 RMK SC2SC4AC2 SLP111", "CYXE 241900Z 34008KT 15SM BKN014 OVC050 01/M02 A2969 RMK SC5SC3 SLP082", "CYXH 241900Z 21015G21KT 30SM FEW080 FEW270 06/M00 A2965 RMK AC1CI2 AC TR SLP064", "CYXJ 241900Z CCA 03004KT 320V050 10SM -SN BKN007 BKN038 01/M00 A2957 RMK SF6SC1 SLP047", "CYXL 241922Z 17014G22KT 15SM FEW019 SCT030 SCT070 BKN200 18/15 A2929 RMK SC1SC2AC1CS2 TCU EMBD SLP924 DENSITY ALT 2600FT", "CYXN 241900Z 07006KT 15SM BKN018 BKN230 M06/M10 A3023 RMK SC5CS2 SLP239", "CYXP 241900Z 29016G21KT 15SM SCT035 BKN048 M05/M11 A3004 RMK SC3SC3 SLP177", "CYXQ 241900Z 19002KT 20SM BKN040 OVC080 M08/M09 A2979 RMK SC6AC2 SLP136", "CYXR 241900Z AUTO 14008KT 9SM SCT110 BKN140 BKN160 18/10 A3003 RMK SLP177 DENSITY ALT 1200FT", "CYXS 241907Z AUTO 19012G19KT 9SM -RA FEW028 BKN037 BKN048 04/03 A2957 RMK SLP040", "CYXT 241900Z 20008G15KT 20SM SCT008 BKN025 BKN090 BKN210 07/04 A2966 RMK SF3CU2AC1CI1 SLP052", "CYXU 241900Z 15012KT 15SM FEW260 21/08 A3008 RMK CI1 SLP191 DENSITY ALT 1700FT", "CYXX 241912Z CCA 35007KT 250V010 15SM FEW003 SCT008TCU BKN015 BKN022 BKN030 08/07 A2990 RMK SF1TCU3CU2CU1SC1 SF TR CIG LWR N-E VIS LWR N-NE SLP130", "CYXY 241900Z 35007KT 1SM R32L/P6000FT/D -SN SCT008 OVC020 M03/M05 A2964 RMK SF4SC4 SLP078", "CYXZ 241900Z 18010KT 15SM BKN030 20/12 A2983 RMK SC7 AWOS O/S T-12 ESTD WIND ESTD SLP106 DENSITY ALT 1900FT", "CYYB 241900Z 19010G16KT 30SM FEW180 FEW250 22/05 A3008 RMK AC1CI1 AC TR SLP192 DENSITY ALT 2200FT", "CYYC 241900Z 16003KT 150V240 15SM BKN140 BKN300 04/M03 A2957 RMK AC5CI2 SLP057", "CYYD 241900Z 00000KT 20SM -RA SCT020 OVC055 04/02 A2953 RMK SC3SC5 SLP016", "CYYE 241918Z 30009KT 2SM -SN OVC012 M03/M05 A2973 RMK SC8 SLP093", "CYYF 241900Z 18019G25KT 15SM BKN060 11/01 A2980 RMK SC5 SLP100", "CYYG 241900Z 15004KT 15SM BKN140 BKN250 18/10 A3033 RMK AC7CI1 CI TR SLP274", "CYYH 241900Z 30008KT 4SM -SN OVC017 M12/M14 A2992 RMK SN2SC6 SLP139", "CYYJ 241900Z 26005KT 200V310 20SM FEW045 BKN130 14/08 A2989 RMK SC1AC5 SLP124", "CYYL 241900Z AUTO 04014G20KT 3/4SM -SN VV015 M04/M05 A2979 RMK SLP114", "CYYN 241905Z AUTO 23010KT 3/8SM FZFG OVC002 M04/M05 A2969 RMK ICE MISG SLP092", "CYYQ 241926Z 07021G27KT 3SM R33/5000VP6000FT/U -SHSN BKN009 OVC120 M00/M01 A2993 RMK ST7AC1 CVCTV CLD EMBD VIS VRB 2-4 PRESFR SLP141", "CYYR 241900Z 36002KT 15SM BKN100 BKN150 BKN250 10/02 A3028 RMK AC6AC1CI1 SLP257", "CYYT 241900Z 34009KT 15SM FEW160 BKN230 BKN240 12/06 A3034 RMK AC1CI5CS1 SLP280", "CYYU 241900Z 16012G21KT 15SM BKN110 OVC120 18/09 A2985 RMK AC5AC3 SLP113 DENSITY ALT 1400FT", "CYYW 241900Z AUTO 16012G24KT 7SM OVC004 12/ A2950 RMK DP MISG SLP988 DENSITY ALT 1500FT", "CYYY 241900Z 14003KT 10SM BKN180 13/08 A3029 RMK AC7 SLP259", "CYYZ 241900Z 16004KT 100V180 15SM FEW250 18/09 A3013 RMK CI1 CI TR SLP206 DENSITY ALT 900FT", "CYZE 241900Z AUTO 18012KT 9SM CLR 19/10 A2997 RMK SLP153 DENSITY ALT 1300FT", "CYZF 241900Z 05010KT 15SM -SN FEW010 BKN035 M02/M06 A2984 RMK SC1SC7 SC TR SLP123", "CYZG 241900Z 30011KT 15SM -SN FEW013 BKN016 OVC020 M07/M10 A3027 RMK ST2SC5SC1 CIG RAG/LAST STFD OBS/NEXT251200 UTC SLP274", "CYZH 241902Z AUTO 11011KT 9SM BKN012 OVC180 01/M01 A2960 RMK SLP051", "CYZP 241900Z AUTO 27024G29KT 9SM FEW036 11/05 A2983 RMK SLP103", "CYZR 241900Z AUTO 19010G22KT 150V210 9SM CLR 24/08 A3003 RMK SLP171 DENSITY ALT 1700FT", "CYZS 241900Z 26007KT 15SM -SN OVC022 M10/M15 A3027 RMK SC8 SLP259", "CYZT 241900Z 26009G15KT 12SM -SHRA SCT033 BKN047 BKN130 11/08 A2988 RMK CU4SC2AC1 SLP121", "CYZU 241900Z 00000KT 8SM SCT008 BKN071 BKN100 BKN240 00/M00 A2959 RMK SF4AC1AC1CI1 SLP056", "CYZV 241900Z 15006KT 30SM FEW180 FEW220 OVC260 12/07 A3030 RMK AC1CI2CS6 AC TR SLP263", "CYZW 241900Z 06004KT 4SM -SN OVC045 M01/M05 A2959 RMK SC8 SLP061", "CYZX 241900Z 09004KT 15SM OVC018 18/15 A3032 RMK SC8 SLP268", "CYZY 241927Z AUTO 14006KT 9SM -RA SCT009 OVC014 03/02 A2953 RMK SLP026", "CZBF 241900Z AUTO 05003KT 020V080 9SM BKN160 17/10 A3031 RMK SLP268", "CZCP 241900Z AUTO VRB05KT ////SM //// OVC015 M08/M11 A3000", "CZCR 241900Z AUTO 01001KT 13/10 RMK AO1 SLP263 T01290100 56014", "CZDB 241900Z AUTO 18003KT 20/ RMK AO1 SLP281 T0197 56007", "CZEL 241900Z AUTO 15009KT 20/06 RMK AO1 SLP195 T02020055 57028", "CZEM 241900Z 19017G24KT 15SM FEW025 SCT180 22/10 A2993 RMK SC1AC3 SLP136 DENSITY ALT 900FT", "CZEV 241900Z AUTO 09005KT M12/M15 RMK AO1 SOG 06 5000 SLP186 T11171147", "CZFA 241900Z 30003KT 280V350 10SM -SN FEW012 SCT026 BKN035 BKN050 OVC100 M03/M05 A2965 RMK ST1SC2SC2SC1AC2 SLP084", "CZFM 241900Z 33003KT 290V360 2SM -SN SCT005 BKN035 M10/M11 A3004 RMK ST3NS3 SLP180", "CZFN 241927Z 00000KT 10SM SCT010 BKN015 BKN120 M04/M06 A2996 RMK ST3ST3AC1 SLP157", "CZFS 241900Z AUTO 33008KT M03/M04 RMK AO1 SOG 02 8006 SLP122 T10321044", "CZHY 241900Z AUTO 08005KT M02/M04 RMK AO1 SLP093 T10191035 58012", "CZKD 241900Z AUTO 05013G22KT 00/M01 RMK AO1 8PAST HR 6055 PK WND 05022/1856 SLP028 P0007 T00001007 50018", "CZMD 241900Z AUTO 07007KT 040V110 2 1/4SM TSRA BR OVC004 05/05 A2930 RMK VIS VRB 1-3 SLP935", "CZMJ 241900Z AUTO 31016G21KT M01/M01 RMK AO1 8PAST HR SOG 20 8010 PK WND 30023/1838 SLP083 P0011 T10081011 50028", "CZMT 241900Z 29007KT 240V320 15SM SCT030TCU SCT260 10/05 A2980 RMK TCU3CI1 SLP093", "CZOL 241900Z AUTO 20003KT 02/02 RMK AO1 T00220021", "CZPC 241900Z AUTO 28014KT 9SM OVC160 03/M03 A2968 RMK PCPN 0.5MM PAST HR SLP094", "CZPS 241900Z AUTO 19001KT 02/M02 RMK AO1 T00191016", "CZRP 241900Z AUTO 32010KT M23/M26 RMK AO1 SOG 53 1012 SLP127 T12331257", "CZSJ 241923Z AUTO 08007KT 040V120 9SM -RA OVC003 05/05 A2920 RMK SLP900", "CZSM 241900Z AUTO 11003KT 01/M00 RMK AO1 SLP094 T00131001 58013", "CZSP 241900Z AUTO 01002KT 17/12 RMK AO1 SLP274 T01700121 56011", "CZST 241900Z 21009G16KT 10SM SCT035 OVC070 06/03 A2965 RMK SC3AS5 SLP042", "CZTB 241900Z AUTO 17008KT 18/14 RMK AO1 PK WND 16017/1822 SLP003 T01820144 58022", "CZUM 241900Z AUTO 07004KT 030V100 9SM SCT043 OVC076 11/03 A3023 RMK SLP261", "CZVL 241925Z AUTO 19004KT 130V200 9SM SCT008 BKN040 01/00 A2960 RMK SLP052", "CZZJ 241900Z AUTO 25001KT 03/M00 RMK AO1 SLP050 T00311003 58002", "DAAE 241900Z 25004KT CAVOK 20/07 Q1020", "DAAG 241930Z VRB01KT CAVOK 22/06 Q1020", "DAAJ 241900Z 09009KT CAVOK 21/M07 Q1024", "DAAP 241900Z 11006KT CAVOK 21/M09 Q1023", "DAAS 241900Z 28004KT CAVOK 17/M02 Q1027", "DAAT 241930Z 20003KT CAVOK 20/M06 Q1026", "DAAV 241900Z 17003KT CAVOK 20/08 Q1021", "DAAY 241900Z 18004KT CAVOK 19/00 Q1027", "DABB 241930Z VRB01KT CAVOK 21/16 Q1021", "DABC 241930Z VRB02KT CAVOK 18/00 Q1025", "DABS 241900Z 13002KT CAVOK 18/M05 Q1026", "DABT 241900Z 13003KT CAVOK 17/M05 Q1027", "DAOB 241900Z 13005KT CAVOK 18/M04 Q1026", "DAOI 241900Z VRB02KT CAVOK 27/M08 Q1020", "DAOL 241900Z 10006KT 7000 NSC 25/04 Q1019", "DAON 241930Z VRB02KT CAVOK 23/03 Q1019", "DAOO 241930Z 01004KT CAVOK 22/06 Q1018", "DAOR 241900Z 00000KT CAVOK 22/M01 Q1025", "DAOV 241900Z 16007KT CAVOK 24/M03 Q1021", "DAOY 241900Z 20004KT CAVOK 16/00 Q1028", "DAUA 241900Z 30007KT CAVOK 27/00 Q1018", "DAUB 241900Z VRB02KT CAVOK 24/02 Q1023", "DAUE 241900Z 09003KT CAVOK 25/03 Q1024", "DAUG 241900Z 05005KT CAVOK 22/02 Q1025", "DAUH 241900Z 09004KT CAVOK 24/04 Q1023", "DAUI 241900Z 05005KT CAVOK 26/M02 Q1018", "DAUK 241900Z 02004KT CAVOK 23/05 Q1023", "DAUL 241900Z 00000KT CAVOK 20/05 Q1025", "DAUO 241900Z VRB02KT CAVOK 22/03 Q1023", "DAUT 241900Z 05010KT CAVOK 27/02 Q1020", "DAUU 241900Z 11004KT CAVOK 25/03 Q1022", "DAUZ 241900Z 08010KT CAVOK 21/M01 Q1025", "DBBB 241900Z 23008KT 9999 SCT012 28/25 Q1011 NOSIG", "DFFD 241900Z 03001KT 7000 NSC 29/13 Q1012 NOSIG", "DFOO 241900Z 01003KT CAVOK 27/17 Q1013", "DGAA 241900Z 20011KT 9999 FEW014 28/25 Q1012 NOSIG", "DIAP 241930Z 23008KT 9999 FEW010 27/26 Q1012 NOSIG", "DIBK 241900Z 12002KT 8000 FEW013 28/22 Q1013 NOSIG", "DIYO 241900Z 34004KT 9999 FEW011 27/25 Q1012 NOSIG", "DNAA 241900Z 35006KT 9999 TS FEW011 FEW020CB 26/23 Q1012 TEMPO 5000 -TSRA BKN008", "DNIL 241900Z 20005KT 9999 TS FEW010 FEW020CB 28/24 Q1012", "DNKA 241900Z 03006KT CAVOK 27/17 Q1015", "DNKN 241900Z 00000KT 8000 NSC 26/21 Q1015 NOSIG", "DNKT 241900Z 11004KT 4000 HZ NSC 30/18 Q1013", "DNMN 241900Z 13002KT 9999 TS SCT012 FEW020CB 25/25 Q1011", "DRRN 241900Z 10003KT 9000 NSC 34/06 Q1012 NOSIG", "DTKA 241900Z 13003KT CAVOK 18/07 Q1021 NOSIG", "DTMB 241930Z 17003KT CAVOK 23/11 Q1021", "DTNH 241930Z 36005KT CAVOK 20/17 Q1021", "DTTA 241930Z 01003KT CAVOK 21/15 Q1021", "DTTB 241900Z /////KT CAVOK Q////", "DTTD 241900Z VRB01KT CAVOK 24/03 Q1025", "DTTF 241900Z 24006KT 8000 NSC 22/04 Q1024 NOSIG", "DTTG 241900Z 20008KT CAVOK 22/03 Q1024 NOSIG", "DTTJ 241930Z 13008KT CAVOK 23/13 Q1023 NOSIG", "DTTK 241900Z VRB02KT CAVOK 25/04 Q1021", "DTTL 241900Z 15003KT 110V200 CAVOK 24/21 Q1022", "DTTN 241900Z VRB02KT 9999 FEW020 23/02 Q1021", "DTTX 241900Z 19004KT CAVOK 22/12 Q1022", "DTTZ 241900Z 22009KT CAVOK 24/04 Q1023", "DXXX 241900Z 22006KT 9999 FEW012 28/24 Q1012 NOSIG", "EBAW 241920Z AUTO 21009KT 9999 DZ FEW036/// 13/11 Q1010", "EBBE 241925Z 23007KT 9999 FEW030TCU SCT090 14/12 Q1010 BLU BLU", "EBBL 241925Z 21008KT 9999 TSRA BKN040 13/12 Q1010 BLU BLU TEMPO YLO", "EBBR 241920Z 21007KT 9999 -SHRA FEW040 13/11 Q1010 TEMPO 4000 SHRA", "EBCI 241920Z 21011KT 9999 FEW035 14/11 Q1011 TEMPO 4000 TSRA", "EBCV 241925Z AUTO 21009KT 9999 BKN046/// 15/12 Q1010 BLU", "EBDT 241925Z AUTO 23005KT 9999 OVC072/// 13/12 Q1010 BLU", "EBFN 241925Z AUTO 22005KT 9999 -RA BKN028/// 14/13 Q1009 BLU", "EBFS 241925Z 21014KT 9999 FEW020 SCT120 BKN220 13/11 Q1012 BLU BLU TEMPO WHT", "EBLB 241925Z AUTO 23008KT 9999 BKN014/// 12/11 Q1012 GRN", "EBLG 241920Z 21014KT 9999 FEW023 14/11 Q1011 NOSIG", "EBOS 241920Z 22011KT 9999 -SHRA SCT030TCU 13/12 Q1009 TEMPO 23020G30KT 4000 SHRA", "EDAC 241920Z AUTO 20013KT 9999 // NCD 15/12 Q1013", "EDBC 241920Z AUTO 21012KT 9999 // FEW069/// BKN082/// BKN240/// 16/11 Q1011", "EDDB 241920Z AUTO 22013KT CAVOK 16/12 Q1010 NOSIG", "EDDC 241920Z AUTO 18007KT CAVOK 14/11 Q1013 NOSIG", "EDDE 241920Z AUTO 21010KT CAVOK 15/11 Q1012 NOSIG", "EDDF 241920Z AUTO 19007KT CAVOK 16/10 Q1013", "EDDG 241920Z AUTO 20006KT 160V220 CAVOK 14/12 Q1009 NOSIG", "EDDH 241920Z AUTO 23013KT 9999 FEW022 15/11 Q1007 NOSIG", "EDDK 241920Z AUTO 19010KT 9999 VCSH FEW///CB 16/12 Q1011 RESHRA NOSIG", "EDDL 241920Z AUTO 18006KT 9999 VCSH SCT036 FEW///TCU 14/12 Q1010 RETSRA TEMPO SHRA", "EDDM 241920Z AUTO 18006KT CAVOK 12/11 Q1018 NOSIG", "EDDN 241920Z AUTO 14004KT 110V170 9999 -SHRA SCT///TCU 13/11 Q1016 TEMPO 23010KT SHRA BKN040CB", "EDDP 241920Z AUTO 18008KT CAVOK 15/12 Q1012 NOSIG", "EDDR 241920Z AUTO 22009KT CAVOK 14/11 Q1015", "EDDS 241920Z AUTO 25007KT 210V270 9999 SHRA SCT///TCU 13/09 Q1017", "EDDV 241920Z AUTO 22007KT 190V250 9999 FEW040 15/11 Q1009 NOSIG", "EDDW 241920Z AUTO 21006KT 9999 FEW028 SCT048 14/12 Q1008 NOSIG", "EDFH 241920Z 22010KT 180V250 9999 FEW025 14/10 Q1013", "EDFM 241920Z AUTO 19008KT 170V230 9999 SCT050/// BKN170/// BKN230/// 17/13 Q1015", "EDGS 241920Z AUTO 22008KT 180V240 9999 // FEW021/// SCT030/// OVC042/// 12/10 Q1013", "EDHI 241920Z AUTO 23011KT 190V250 9999 // FEW026/// 14/12 Q1007", "EDHK 241920Z AUTO 23009KT 200V260 9999 // FEW018/// BKN060/// 13/11 Q1006", "EDHL 241920Z AUTO VRB04KT 9999 // SCT030/// BKN069/// 15/11 Q1007", "EDJA 241920Z 22007KT CAVOK 10/09 Q1018", "EDLN 241920Z AUTO 17003KT 9999 // FEW040/// BKN058/// BKN083/// 13/12 Q1010", "EDLP 241920Z 21010KT 9999 FEW032 SCT045 14/10 Q1011", "EDLV 241920Z 19007KT 160V220 9999 -RA SCT024 15/13 Q1009", "EDLW 241920Z 19011KT 9999 SCT048 13/11 Q1010", "EDMA 241920Z AUTO 14005KT 120V180 9999 // BKN140/// BKN190/// 11/10 Q1018", "EDMO 241920Z AUTO 17008KT 9999 // BKN091/// OVC120/// 12/10 Q1018", "EDNY 241920Z 35003KT CAVOK 11/10 Q1018", "EDQM 241920Z AUTO 21014KT 170V230 9999 // FEW009/// BKN011/// BKN013/// 13/11 Q1015", "EDSB 241920Z 21014KT 6000 SHRA SCT022CB BKN060 14/12 Q1016", "EDTL 241920Z AUTO 27007G19KT 220V320 9999 // FEW001/// SCT022/// BKN035/// 12/12 Q1017", "EDTY 241920Z AUTO 22011KT 9999 // FEW023/// SCT026/// OVC067/// 13/11 Q1017", "EDVE 241920Z 22005KT 190V250 CAVOK 15/10 Q1010", "EDVK 241920Z 20009KT CAVOK 15/09 Q1011", "EDWE 241920Z AUTO 21008KT 180V240 9999 // NCD 14/12 Q1007", "EDXW 241920Z AUTO 24015KT 9999 // SCT019/// BKN023/// BKN240/// 14/12 Q1004", "EEEI 241850Z 12004KT 9999 SCT060 01/M02 Q1015", "EEKE 241920Z AUTO 14009KT 9999NDV -DZ OVC009 10/08 Q1013", "EEPU 241920Z AUTO 09004KT 9999 SCT033/// SCT044/// OVC055/// 06/03 Q1014", "EETN 241920Z 10005KT CAVOK 01/M02 Q1015 NOSIG", "EETU 241920Z AUTO 10004KT 9999 SCT028/// OVC062/// 01/M00 Q1015", "EFET 241920Z AUTO 01002KT CAVOK M07/M07 Q1012", "EFHA 241920Z AUTO 14002KT 1200 R26/1500D BCFG FEW001 M03/M03 Q1015", "EFHK 241920Z 05005KT CAVOK M03/M04 Q1015 NOSIG", "EFIV 241920Z AUTO 22004KT 9999 SCT037 M02/M03 Q1012", "EFJO 241920Z AUTO 29002KT CAVOK M03/M04 Q1015", "EFJY 241920Z AUTO VRB01KT CAVOK M02/M03 Q1015", "EFKE 241920Z AUTO VRB01KT CAVOK M08/M10 Q1015", "EFKI 241920Z AUTO 10001KT CAVOK M05/M06 Q1015", "EFKK 241920Z AUTO 12002KT CAVOK M04/M04 Q1015", "EFKS 241920Z AUTO VRB01KT CAVOK M07/M07 Q1013", "EFKT 241920Z AUTO 19001KT CAVOK M06/M07 Q1012", "EFKU 241920Z AUTO VRB01KT CAVOK M02/M03 Q1015", "EFLP 241920Z AUTO VRB01KT CAVOK M03/M04 Q1016", "EFMA 241920Z 10004KT 060V140 CAVOK 06/03 Q1012", "EFMI 241920Z AUTO VRB01KT 5000 NCD M04/M04 Q1016", "EFOU 241920Z AUTO 14002KT 9999 SCT023 M03/M04 Q1015 REFZUP", "EFPO 241920Z AUTO 14002KT CAVOK M02/M04 Q1014", "EFRO 241920Z AUTO 22001KT CAVOK M05/M05 Q1013", "EFSA 241920Z AUTO VRB01KT 9999 NSC M03/M04 Q1015", "EFSI 241920Z AUTO 14005KT CAVOK M05/M06 Q1015", "EFTP 241920Z AUTO VRB01KT CAVOK M03/M04 Q1015", "EFTU 241920Z AUTO 09004KT CAVOK M01/M03 Q1014", "EFUT 241920Z AUTO 10001KT CAVOK M03/M04 Q1016", "EFVA 241920Z AUTO 13004KT 9999 SCT029 01/M02 Q1014", "EGAA 241920Z AUTO 20006KT 160V230 9999 FEW024 SCT029 11/10 Q0999", "EGAC 241920Z AUTO 21007KT 9999 NCD 11/10 Q0999", "EGAE 241920Z 21007KT 9999 FEW020 12/11 Q0998", "EGBB 241920Z 20005KT 180V240 9999 FEW029 12/10 Q1005", "EGCC 241920Z AUTO 20006KT 150V220 9999 SCT045 12/10 Q1003 NOSIG", "EGCK 241920Z AUTO 22015KT 9999 OVC015/// 14/11 Q1003", "EGCN 241920Z 19006KT CAVOK 12/09 Q1004", "EGDM 241920Z AUTO 22006KT 9999 FEW019/// 12/11 Q1008", "EGDR 241920Z AUTO 21006KT 9999 FEW021/// SCT046/// 14/12 Q1008", "EGDY 241920Z 18007KT 9999 FEW010 SCT200 13/11 Q1008 TEMPO 7000 -SHRA SCT020 RMK BLU TEMPO WHT", "EGFF 241920Z AUTO 25011KT 9999 FEW022 SCT039 14/11 Q1007", "EGGD 241920Z AUTO 22007KT 180V260 9999 BKN017 BKN042 12/10 Q1007", "EGGP 241920Z 15004KT 090V210 9999 SCT040 12/10 Q1003", "EGGW 241920Z AUTO 21006KT 9999 NCD 12/09 Q1007", "EGHH 241920Z 24007KT 9999 FEW022 14/12 Q1008", "EGHI 241920Z 23005KT 9999 FEW022 14/11 Q1008", "EGHQ 241920Z 20006KT 9999 FEW020 12/11 Q1008", "EGJB 241920Z 24016KT 9999 FEW008 SCT011 15/12 Q1011", "EGJJ 241920Z 24017KT 9999 FEW014 SCT038 15/13 Q1011", "EGKA 241850Z 25011KT 9999 SCT017 15/12 Q1008", "EGKB 241920Z 22011KT 9999 FEW035 13/11 Q1008", "EGKK 241920Z 20006KT 9999 SCT019 13/12 Q1008", "EGLC 241920Z AUTO 24007KT 180V320 9999 SCT020 BKN033 15/12 Q1008", "EGLF 241920Z AUTO 21010KT 9999 NCD 13/11 Q1008", "EGLL 241920Z AUTO 22008KT 9999 //////CB 13/12 Q1007 NOSIG", "EGMC 241920Z 22009KT CAVOK 13/11 Q1007", "EGMD 241920Z AUTO 24012KT 9999 NCD 15/13 Q1009", "EGNH 241920Z 25017KT 9999 FEW017 SCT042 14/12 Q1002", "EGNJ 241920Z AUTO 19011KT 9999 NCD 12/11 Q1003", "EGNM 241920Z 23007KT 9999 SCT013 SCT031 12/09 Q1002", "EGNR 241920Z 20008KT 9999 FEW038 12/10 Q1004", "EGNS 241920Z 25011KT 210V280 9999 FEW010 13/11 Q1001 NOSIG", "EGNT 241850Z 25005KT 9999 FEW025 11/10 Q1000", "EGNV 241850Z 21008KT 9999 FEW025 11/09 Q1001", "EGNX 241920Z 22011KT 9999 FEW029 SCT047 13/10 Q1004", "EGOM 241920Z AUTO 24008KT 9999 OVC008/// 10/10 Q0999", "EGOP 241920Z AUTO 25020KT 9999 BKN019/// BKN042/// 15/11 Q1006", "EGOS 241920Z 22013KT 9999 FEW030 12/10 Q1004 NOSIG RMK BLU BLU", "EGOV 241920Z AUTO 22019KT 9999 OVC014/// 14/12 Q1002", "EGPA 241920Z AUTO 19007KT 9999 FEW013/// SCT027/// BKN037/// 12/11 Q0994", "EGPB 241920Z 14010KT 4500 -DZ BR OVC003 11/11 Q0995", "EGPC 241920Z AUTO VRB02KT 9999 FEW040/// 11/10 Q0994", "EGPD 241920Z AUTO 23010KT 9999 NCD 12/09 Q0996 NOSIG", "EGPE 241920Z 24004KT 9999 FEW038 10/08 Q0995", "EGPF 241920Z AUTO 24008KT 9999 SCT013/// BKN018/// BKN028/// //////CB 12/11 Q0998", "EGPH 241920Z 22006KT 9999 SCT032 11/09 Q0998", "EGPI 241920Z AUTO 21015KT 9999 NCD 12/11 Q0997", "EGPK 241920Z 19007KT 9999 -RA FEW044 12/10 Q0998", "EGPL 241920Z AUTO 20012KT 9999 BKN003/// 12/11 Q0993", "EGPN 241920Z 25004KT 9999 BKN020 12/11 Q0997", "EGPO 241920Z AUTO 19011KT 9999 FEW027/// BKN031/// 12/11 Q0993", "EGPU 241920Z AUTO 23011KT 190V260 9999 SCT012/// 12/11 Q0995 RERA", "EGQA 241850Z 21007KT 9999 FEW006 BKN080 13/// Q0995 RMK BLU", "EGQK 241920Z AUTO 22008KT 9999 FEW240/// 11/09 Q0995", "EGQL 241850Z 24009KT 9999 FEW037 BKN056 12/11 Q0997 RMK BLU", "EGQM 241850Z AUTO 24007KT 9999 NCD 11/09 Q0999", "EGQS 241850Z 23007KT CAVOK 12/09 Q0995 RMK BLU", "EGSH 241920Z 22010KT CAVOK 14/12 Q1005", "EGSS 241920Z AUTO 22008KT 9999 NCD 13/11 Q1007", "EGSY 241920Z AUTO 23014KT 9999 BKN019/// BKN048/// 14/11 Q1007", "EGTC 241850Z 21010KT CAVOK 12/11 Q1006", "EGTE 241920Z 21008KT 9999 FEW025 12/10 Q1008", "EGTK 241920Z 23009KT 9999 FEW021 12/11 Q1006", "EGUB 241920Z 19005KT 9999 BKN030 12/10 Q1007 NOSIG RMK BLU BLU", "EGUL 241855Z 21009KT 9999 SCT050 13/13 A2968 RMK AO2A SLP054 T01290127 $", "EGUN 241855Z 22012KT 9999 FEW030 13/13 A2969 RMK AO2A SLP057 T01270127 $", "EGUW 241850Z 22008KT 9999 FEW030 13/11 Q1006 NOSIG RMK BLU BLU", "EGVA 241855Z AUTO 23006KT 9999 FEW021 SCT034 11/11 A2970 RMK AO2 DZE21 SLP061 P0000 T01110109 $", "EGVN 241920Z 21005KT 9999 FEW020 BKN220 12/11 Q1006 NOSIG RMK BLU BLU", "EGVO 241920Z 22009KT 9999 FEW015 SCT200 13/12 Q1008 NOSIG RMK BLU BLU", "EGVP 241920Z 21007KT 9999 FEW029 BKN220 12/12 Q1008 NOSIG RMK BLU BLU", "EGWU 241920Z 23005KT 9999 FEW020 SCT060 BKN230 13/12 Q1007 NOSIG RMK BLU BLU", "EGXC 241920Z 21008KT 9999 FEW040 13/11 Q1004 NOSIG RMK BLU BLU", "EGXE 241920Z AUTO 16006KT 9999 BR OVC021/// 13/10 Q1001", "EGXP 241850Z AUTO 21008KT 9999 // NCD 12/10 Q1003", "EGXS 241850Z AUTO 20011KT 9999 NCD 13/11 Q1003", "EGXV 241920Z AUTO 22008KT 9999 BKN065/// 13/10 Q1002", "EGXW 241921Z 23009KT 9999 FEW028 12/11 Q1004 NOSIG RMK BLU BLU", "EGXZ 241920Z AUTO 17007KT 9999 BKN019/// SCT039/// BKN050/// 12/10 Q1002", "EGYD 241920Z AUTO 22013KT 9999 NCD 12/11 Q1004", "EGYE 241920Z AUTO 22012KT //// VV/// ///// Q////", "EGYH 241920Z AUTO 21011KT 9999 NCD 12/11 Q1004", "EGYM 241850Z 20009KT 9999 FEW035 FEW080 13/11 Q1005 RMK BLU", "EGYP 241920Z 20008KT 9999 FEW010 BKN050 09/07 Q0999 NOSIG", "EHAK 241925Z AUTO 24026KT 9999 FEW029/// 14/12 Q1000", "EHAM 241925Z 20009KT CAVOK 13/12 Q1007 NOSIG", "EHBK 241925Z AUTO 21014KT 9999 TS FEW015CB 15/12 Q1010 TEMPO 4500 TSRA SCT020CB", "EHDL 241925Z AUTO 20008KT 150V280 9999 FEW015CB BKN065 OVC071 13/12 Q1008 REDZ BLU", "EHDV 241925Z AUTO 23022KT 9999 FEW028/// SCT035/// BKN040/// 15/12 Q1002", "EHEH 241925Z AUTO 20009KT 9999 FEW033 SCT040 OVC180 14/13 Q1009 BLU NOSIG", "EHFD 241925Z AUTO 24025KT 9999 FEW023/// 14/13 Q1002", "EHFS 241925Z AUTO 21014KT 9999 NSC 14/13 Q1008", "EHGG 241925Z AUTO 21009KT 9999 NCD 13/11 Q1007 NOSIG", "EHGR 241925Z AUTO 20008KT 180V250 9999 NCD 14/13 Q1009 BLU NOSIG", "EHHW 241925Z AUTO 22023KT 9999 FEW012/// SCT016/// BKN026/// 15/13 Q1005", "EHJA 241925Z AUTO 22026KT 9999 NCD 15/12 Q1003", "EHJR 241925Z AUTO 22022KT //// // ///////// 16/13 Q1005 RE// W16/H20", "EHKD 241935Z AUTO 22013KT 180V250 9999 SCT017 SCT046 15/13 Q1006 WHT NOSIG", "EHKV 241925Z AUTO 23024KT 9999 FEW034 16/12 Q1005", "EHLE 241925Z AUTO 20007KT 9999 NSC 13/12 Q1007 NOSIG", "EHLW 241925Z AUTO 20008KT 170V230 9999 NCD 12/12 Q1006 BLU", "EHMA 241925Z AUTO VRB19KT 9999 NCD 13/12 Q1006", "EHMG 241925Z AUTO 23027KT 9999 NCD 16/12 Q1006", "EHPG 241925Z AUTO 23026KT 9999 FEW013 16/13 Q1006", "EHQE 241925Z AUTO /////KT 9999 FEW030 16/13 Q1006", "EHRD 241925Z AUTO 21012KT 180V240 9999 NSC 15/13 Q1008 NOSIG", "EHSA 241925Z AUTO 20022KT 9999 ///////// 16/14 Q1007 W16/H14", "EHSC 241925Z AUTO 21023KT 9999 ///////// 15/13 Q1008 W16/H12", "EHVK 241925Z AUTO 22013KT 180V250 9999 FEW015CB SCT068 BKN100 14/12 Q1009 BLU", "EHVL 241925Z AUTO 22017KT 9999 NCD 15/12 Q1005 BLU", "EHWO 241925Z AUTO 22009KT 190V250 9999 SCT078 OVC083 14/12 Q1009 BLU", "EICK 241930Z 24006KT 9999 FEW016 10/09 Q1004 NOSIG", "EIDL 241930Z 24011KT 9999 FEW019 12/10 Q0998", "EIDW 241930Z 22007KT 170V270 9999 FEW018 12/10 Q1001 NOSIG", "EIME 241900Z 22013KT 9999 FEW018 SCT250 11/10 Q1001", "EINN 241930Z 22007KT 9999 FEW010 FEW018CB SCT026 12/11 Q1002 NOSIG", "EISG 241900Z 20004KT 160V240 9999 FEW028 BKN035 12/09 Q0999", "EIWF 241930Z 25007KT 200V310 CAVOK 12/11 Q1004", "EKAH 241920Z AUTO 20007G20KT 150V270 9999 -RA BKN008/// BKN053/// 13/13 Q1001", "EKBI 241920Z AUTO 22012KT 9999 BKN013/// 13/12 Q1002 REDZRA", "EKCH 241920Z 23014KT 9999 -SHRA SCT020CB BKN070 13/11 Q1005 TEMPO 22015G25KT SHRA SCT020", "EKEB 241920Z AUTO 20015KT 9999 BKN019/// 14/12 Q1002", "EKKA 241920Z AUTO 22015KT 9999 -RA BKN009/// 13/12 Q0999 RESHRA", "EKRK 241920Z AUTO 21011KT 9999 SCT060/// BKN100/// 13/11 Q1005 RERA", "EKRN 241920Z 21009KT 170V240 9999 FEW028TCU SCT042 14/13 Q1007", "EKSB 241920Z 23010G20KT 180V270 9999 BKN015 14/12 Q1004", "EKSP 241920Z 22014KT 9999 SCT011 BKN028 13/12 Q1003", "EKVD 241920Z AUTO 22016KT //// ///////// 14/12 Q1003", "EKVG 241920Z AUTO 09011KT 9999 OVC032/// 11/07 Q0997 RMK OVC041/// WIND SKEID 10012KT", "EKYT 241920Z AUTO 18011KT 9999 -RA BKN012/// BKN032/// 13/12 Q0998", "ELLX 241920Z 22012KT CAVOK 14/11 Q1014 NOSIG", "ENAL 241920Z 06006KT CAVOK 08/06 Q0999", "ENAN 241920Z 10009KT CAVOK M00/M04 Q1011", "ENAT 241920Z 18003KT CAVOK M00/M00 Q1012 RMK WIND 700FT 17006KT", "ENBL 241920Z 34004KT 9999 FEW056 08/03 Q0999", "ENBN 241920Z 08011KT 040V100 CAVOK 06/00 Q1005", "ENBO 241920Z 08021KT CAVOK 01/M05 Q1008 NOSIG", "ENBR 241920Z 02003KT CAVOK 09/06 Q0998 NOSIG RMK WIND 1200FT 10009KT", "ENBS 241920Z 21009KT 190V240 9999 BKN045 M00/M04 Q1011", "ENBV 241920Z 20009KT 9999 FEW034 SCT049 OVC061 01/M02 Q1011", "ENCN 241920Z 05012KT 4000 RA SCT003 BKN010 09/09 Q0997", "ENDR 241920Z AUTO 07014KT 9999NDV NCD 10/06 Q1001 W///S4", "ENDU 241920Z 00000KT CAVOK M08/M09 Q1012 RMK WIND 1100FT 10006KT WIND 2200FT 10008KT", "ENEV 241920Z 00000KT CAVOK M04/M04 Q1011 RMK WIND 1400FT 09015KT", "ENFB 241920Z AUTO 08016KT 4300NDV BR OVC035/// 11/08 Q0999 W///S4", "ENFL 241920Z 08008KT CAVOK 09/05 Q0999", "ENGC 241920Z 09014KT 9999 BKN035 12/04 Q0998 W10/S4", "ENGM 241920Z 03007KT 7000 -RA BKN004 06/06 Q1003 TEMPO 4000 -RADZ BR", "ENHD 241920Z 08012KT 9999 FEW045 BKN055 11/07 Q0996", "ENHE 241920Z 08023KT 9999 BKN025 06/02 Q1003 W///S4", "ENHF 241920Z 25008KT 9999 VCSH FEW010 SCT016 02/00 Q1010 RMK WIND 1254FT 26010KT", "ENHK 241920Z 23006KT 9999 VCSH SCT033 02/M00 Q1011", "ENHM 241920Z AUTO 10009G22KT 5000NDV SHRA FEW025/// SCT033/// BKN038/// 11/11 Q0996 W12/S/", "ENHV 241920Z 26012KT 9999 SCT014 BKN074 03/01 Q1010", "ENJS 241920Z 13026KT 9000 -RA BKN012 11/10 Q0996 W11/S/", "ENKB 241920Z 09005KT CAVOK 08/02 Q1000 RMK WIND 745FT 14011KT", "ENKR 241920Z 23006KT CAVOK M01/M03 Q1012 RMK WIND 731FT 26008KT", "ENLA 241920Z AUTO 24022KT 9999NDV BKN003/// 12/12 Q0996 W///S4", "ENLE 241920Z 24026KT 9999 SCT005 BKN012 12/10 Q0998 W13/S4", "ENLK 241920Z 34002KT 9999 FEW030 M02/M04 Q1010", "ENMH 241920Z AUTO 20006KT 9999 FEW021 SCT025 BKN034 01/M01 Q1010", "ENML 241920Z 05005KT CAVOK 05/03 Q1000", "ENMS 241920Z 00000KT 9999 FEW034 M03/M04 Q1007 RMK WIND 412FT VRB02KT", "ENNA 241920Z AUTO 18008KT 9999 FEW100/// M00/M02 Q1012 RMK WIND 1800FT 27014KT", "ENNE 241920Z AUTO 06021KT 9999NDV NCD 06/00 Q1005 W///S4", "ENNM 241920Z 11013KT 080V150 CAVOK 05/01 Q1004", "ENOA 241850Z 09022KT 9999 BKN035 12/08 Q0998 W///S4", "ENOL 241920Z 12009KT CAVOK 08/04 Q1001 NOSIG", "ENOV 241920Z 00000KT 9999 BKN061 04/03 Q0999 RMK WIND RWY24 VRB01KT WIND 2090FT 13008KT", "ENQA 241920Z AUTO 09013KT 9999NDV OVC043/// 12/07 Q0998 W17/S4", "ENQC 241920Z AUTO 07012KT 9999NDV OVC040/// 14/08 Q0998 W///S4", "ENQR 241920Z AUTO 08002KT 9999NDV FEW043/// BKN050/// 12/09 Q0998 W10/S4", "ENRA 241920Z 10005KT 060V170 CAVOK 01/M04 Q1009", "ENRM 241920Z 07007KT 040V100 CAVOK 05/01 Q1004", "ENRO 241920Z AUTO 12009KT 9999 FEW012 BKN019 02/01 Q1005", "ENRS 241850Z 07014KT CAVOK 05/M02 Q1008", "ENRY 241920Z 08007KT 9999 RA BKN008 10/09 Q1001 RESHRA", "ENSB 241920Z 29012KT 9999 FEW035 BKN060 M06/M11 Q1008 RMK WIND 1400FT 29009KT", "ENSD 241920Z 00000KT 9999 FEW070 06/05 Q0999 RMK WIND RWY26 26004KT WIND 1140FT VRB03KT", "ENSE 241920Z AUTO 09011KT 9999NDV OVC044/// 11/08 Q0999 W///S4", "ENSF 241920Z AUTO 08015KT 9999NDV OVC036/// 14/08 Q0998 W///S4", "ENSG 241850Z 05010KT 9999 BKN045 07/02 Q1001 RMK WIND 3306FT 10022KT", "ENSH 241920Z 06014KT 9999 FEW030 03/M05 Q1010 RMK WIND 150FT 07017KT", "ENSK 241920Z AUTO 06007KT 9999 NCD 00/M04 Q1010", "ENSL 241920Z AUTO 26010KT 1000NDV BR NCD 11/11 Q0997 W10/S5", "ENSR 241920Z AUTO VRB02KT 9999 BKN036/// M00/M04 Q1013 RMK WIND RWY32 VRB02KT WIND 1118FT 12004KT", "ENSS 241920Z 26010KT CAVOK 00/M03 Q1012 RMK WIND 0500FT 26008KT", "ENST 241920Z VRB03KT 9999 FEW053 02/M02 Q1006 RMK WIND 300FT 11006KT", "ENTC 241920Z 00000KT 9999 SCT009 M01/M02 Q1012 NOSIG RMK WIND 2600FT 09004KT", "ENTO 241920Z 01006KT 350V080 5000 DZ BR VV005 07/07 Q1001 TEMPO 4000 DZ BR BKN004", "ENUG 241920Z AUTO 27011KT 9999NDV FEW027/// BKN110/// 05/M02 Q1010 W///S4", "ENVA 241920Z 12009KT 090V170 CAVOK 09/03 Q1003 TEMPO 15015G25KT RMK WIND 670FT 17017KT", "ENVD 241920Z 30008KT CAVOK M00/M04 Q1012", "ENWV 241920Z AUTO 24026KT 9999NDV NCD 12/12 Q0998 W///S4", "ENZV 241920Z 04004KT 330V100 9999 -RA FEW040 BKN060 12/08 Q0996", "EPBY 241930Z 22008KT CAVOK 15/13 Q1011", "EPGD 241930Z 23006KT 8000 NSC 13/12 Q1009", "EPKK 241930Z VRB01KT CAVOK 13/12 Q1015", "EPKT 241930Z 22006KT CAVOK 14/12 Q1015", "EPLB 241930Z 26003KT CAVOK 13/12 Q1014", "EPLL 241930Z 21004KT 170V240 CAVOK 15/13 Q1013", "EPMO 241930Z 18007KT CAVOK 12/12 Q1012", "EPPO 241930Z 20004KT 9999 -SHRA BKN059CB 16/12 Q1012", "EPRZ 241930Z 21007KT CAVOK 13/10 Q1015", "EPSC 241930Z 17004KT CAVOK 14/12 Q1009", "EPSY 241930Z 17004KT 0150 R01/0600N FG OVC001 12/12 Q1012", "EPWA 241930Z 15003KT 9999 2100E MIFG NSC 12/12 Q1013 TEMPO 2000 BR", "EPWR 241930Z 18003KT CAVOK 15/13 Q1014", "EPZG 241930Z 21005KT CAVOK 14/12 Q1012", "ESCF 241920Z AUTO 11004KT 080V210 9999 OVC003/// 11/11 Q1004", "ESCM 241920Z AUTO 10007KT 9999 -RA SCT010/// BKN011/// OVC014/// 08/08 Q1009", "ESDF 241920Z AUTO 00000KT 0650 0250// R01/1300VP2000N R19/P2000N FG SCT027/// BKN046/// BKN064/// OVC090/// 12/12 Q1006", "ESGG 241920Z 17010KT 9999 SCT008 BKN012 12/11 Q1002", "ESGJ 241920Z 16006KT 8000 BKN009 12/12 Q1003", "ESGP 241920Z 16008KT 9999 FEW014 BKN057 OVC072 13/11 Q1001", "ESGT 241920Z AUTO 13008KT 9999 -DZ FEW010/// OVC061/// 12/11 Q1001 REDZ", "ESIA 241920Z AUTO 11006KT 9999 OVC003/// 11/10 Q1004 RERA", "ESIB 241920Z AUTO 14007KT 9999 SCT010/// BKN012/// BKN054/// OVC120/// 12/12 Q1002", "ESKM 241920Z AUTO 07003KT 9000 -RA OVC003/// 05/05 Q1008", "ESKN 241920Z 11014KT 9999 -RA BKN003 11/10 Q1006", "ESKS 241920Z AUTO 10005KT 070V140 9999 -RA OVC007/// 04/03 Q1005", "ESMK 241920Z AUTO 20008KT 9999 SCT062/// OVC080/// 14/13 Q1005", "ESMQ 241920Z AUTO 18006KT 3500 BR BKN001/// OVC003/// 13/13 Q1006", "ESMS 241920Z 22010KT 9999 FEW036 SCT066 14/11 Q1005", "ESMT 241920Z AUTO 19010KT 9999 R01///// R19/P2000N FEW067/// SCT087/// 14/12 Q1003", "ESMV 241920Z AUTO 17004KT 130V210 9999 OVC006/// 13/// Q1004", "ESMX 241920Z AUTO 17006KT 4700 -RA OVC003/// 12/12 Q1005 REDZ", "ESND 241920Z AUTO 10005KT 070V140 9999 OVC003/// 03/02 Q1008", "ESNG 241920Z 31005KT CAVOK M10/// Q1012", "ESNK 241920Z AUTO 00000KT 9999 FEW012/// SCT023/// OVC035/// 01/01 Q1012", "ESNL 241920Z AUTO 11007KT 3700 -SN SCT005/// OVC010/// M01/M01 Q1012", "ESNN 241920Z AUTO 08002KT 9999 SCT024/// OVC043/// 03/02 Q1012", "ESNO 241920Z AUTO 09003KT 9999 -DZ SCT027/// OVC038/// 01/01 Q1012", "ESNQ 241920Z AUTO 22005KT 9999 NCD M06/M07 Q1011", "ESNS 241920Z 00000KT 9999 FEW036 OVC043 M01/M02 Q1014", "ESNU 241920Z VRB01KT 9999 FEW035 OVC053 02/M02 Q1013", "ESNV 241920Z 09004KT 3700 -SN BKN005 OVC009 M01/M02 Q1010", "ESNX 241920Z AUTO 11005KT 9999 OVC029/// M03/M04 Q1011", "ESNZ 241920Z 14013KT 9999 OVC008 04/04 Q1007", "ESOE 241920Z 08009KT 4000 DZ BKN004 10/09 Q1005", "ESOH 241920Z AUTO VRB05KT 9000 -DZ BKN008/// OVC010/// 08/07 Q1005 REDZ", "ESOK 241920Z AUTO 09008KT 7000 -RA FEW003/// OVC004/// 09/// Q1003", "ESOW 241920Z AUTO 08007KT 050V120 9999 DZ OVC007/// 09/07 Q1007", "ESPA 241920Z 32003KT CAVOK M05/M05 Q1014", "ESPE 241920Z AUTO 00000KT 9999 OVC050/// M06/M07 Q1013", "ESSA 241920Z 11010KT 4100 RA SCT007 BKN009 BKN014 08/07 Q1009 TEMPO BKN009", "ESSB 241920Z 10013KT 5000 -RA BKN006 09/08 Q1008 RERA", "ESSD 241920Z AUTO 09006KT 9999 DZ OVC003/// 06/06 Q1008", "ESSP 241920Z AUTO 12007KT 6000 OVC004/// 11/11 Q1005 RERA REDZ", "ESST 241920Z AUTO VRB02KT 3500 BR BKN012/// 07/07 Q1005 REDZ", "ESSV 241920Z 15010KT 3600 BR OVC003 12/11 Q1007", "ESTA 241920Z 19008KT 9999 FEW029 14/11 Q1004", "ESTL 241920Z AUTO 19006KT 9999 FEW074/// 14/13 Q1005", "ESUP 241920Z AUTO 00000KT 9999 NCD M09/M09 Q1013", "ESUT 241920Z AUTO 16011KT 9999 OVC017/// M01/M03 Q1008", "ETAD 241855Z 24008KT 9999 FEW037 13/11 A2990 RMK AO2A DZB1759E02RAB02E19 TSB1754E10 SLP114 P0010 T01310106", "ETAR 241855Z 20004KT 9999 FEW046 15/11 A2994 RMK AO2A SLP138 T01530105", "ETEB 241855Z AUTO 18004KT 9999 SCT120 12/10 A3000 RMK AO2 SLP170 T01220101 $", "ETGG 241920Z AUTO 24015KT 9999 // ////// 14/12 Q1004 ///", "ETHA 241920Z AUTO 19005KT 9999 // ////// 11/09 Q1018 ///", "ETHB 241920Z 23013KT 9999 FEW035 15/11 Q1009 BLU+BLU TEMPO GRN", "ETHC 241920Z 21007KT 9999 FEW090 SCT290 15/10 Q1009 BLU+", "ETHF 241920Z AUTO 23009KT 9999 // ////// 15/10 Q1012 ///", "ETHL 241930Z 25006KT 9999 FEW070 SCT160 11/10 Q1018 BLU+FCST CNL", "ETHN 241920Z 22012G25KT 9999 -SHRA FEW035CB BKN055 13/11 Q1016 BLU", "ETHS 241920Z 22009KT 9999 FEW040 BKN280 14/10 Q1008 BLACKBLU+", "ETIC 241855Z AUTO 17005KT 9999 CLR 12/11 A2998 RMK AO2 SLP154 T01230112 $", "ETIH 241855Z AUTO 20003KT 9999 CLR 12/10 A3003 RMK AO2 SLP168 T01220103", "ETIK 241919Z 21010KT 9999 -RA BKN080 15/09 A2999 RMK AO2A DZB19 SLP155 $", "ETMN 241920Z 23010KT 9999 FEW022 SCT130 13/11 Q1006 BLU+BLU+ TEMPO GRN", "ETNG 241850Z 22010G20KT 9999 SCT035 SCT070 17/12 Q1010", "ETNH 241920Z 22009KT 9999 SCT030 13/11 Q1005 BLU+", "ETNL 241920Z 21005KT 9999 SCT078 15/10 Q1007 BLU+", "ETNN 241920Z 19006KT 9999 SCT070 15/11 Q1011 BLU+", "ETNS 241920Z AUTO 22011KT 9999 // ////// 13/11 Q1005 ///", "ETNT 241920Z 21007KT 9999 FEW300 13/12 Q1006 BLACKBLU+", "ETNW 241920Z 23009KT 9999 FEW035 15/11 Q1009 BLU+", "ETOU 241855Z 00000KT 9999 CLR 16/10 A2993 RMK AO2A SLPNO ALSTG ESTMD", "ETSB 241920Z AUTO 23008KT //// // ////// 12/10 Q1013 ///", "ETSH 241920Z 22011KT 9999 FEW070 BKN200 16/12 Q1011 BLU+", "ETSI 241920Z AUTO 18003KT //// // ////// 11/10 Q1017 ///", "ETSL 241920Z 20008KT 9999 FEW080 BKN110 13/09 Q1018 BLU", "ETSN 241920Z 18003KT 9999 BKN060 11/10 Q1017 BLU", "ETWM 241920Z AUTO 20004KT //// // ////// 13/11 Q1008 ///", "EVGA 241920Z 11006KT 070V140 9999 OVC018 08/06 Q1014 NOSIG", "EVLA 241920Z AUTO 16005KT 130V190 8000 OVC005/// 12/11 Q1010", "EVRA 241920Z 14005KT 110V170 9999 OVC016 09/08 Q1013 NOSIG", "EVVA 241920Z AUTO 11006KT 8000 OVC006 10/10 Q1011", "EYKA 241920Z 14005KT 100V160 9999 OVC009 12/09 Q1013", "EYPA 241920Z 16007KT 120V180 7000 BKN007 12/11 Q1011", "EYSA 241920Z 14007KT 9999 OVC006 11/10 Q1013 NOSIG", "EYVI 241920Z 14004KT 9999 BKN005 10/10 Q1014 NOSIG", "FABL 241900Z AUTO 02005KT //// R02///// // ///////// 17/12 Q1017", "FACT 241900Z 20015KT 9999 FEW025 17/14 Q1014 NOSIG", "FAGG 241925Z AUTO VRB02KT 9999 // OVC005/// 18/17 Q1014", "FAJB 241900Z AUTO 32001KT //// // ////// 15/12 Q1021", "FAKM 241900Z AUTO 02004KT //// // ////// 19/12 Q1015", "FALA 241900Z 10008KT 9999 SCT040 16/14 Q1022 RETSRA NOSIG", "FALE 241900Z 28003KT 8000 -SHRA FEW025 BKN032 FEW045CB 21/19 Q1015 RETSRA NOSIG", "FALW 241900Z AUTO 20010KT //// // ////// 16/13 Q1013", "FAOR 241930Z 33006KT 300V360 CAVOK 14/10 Q1023 NOSIG", "FAPE 241900Z 09008KT CAVOK 19/18 Q1011 NOSIG", "FAPP 241900Z AUTO 19009KT //// // ////// 19/11 Q1021", "FAUP 241900Z AUTO 29006KT //// // ////// 25/M03 Q1013", "FAUT 241900Z AUTO 12004KT //// // ////// 18/16 Q1014", "FAWK 241900Z AUTO 04007KT //// // ////// 15/14 Q1023", "FBMN 241900Z 08003KT CAVOK 29/14 Q1014", "FBPM 241900Z 14004KT CAVOK 22/17 Q1017", "FBSK 241900Z 13011KT 9999 FEW035CB BKN070 25/15 Q1016 RETS NOSIG", "FDBB 241900Z AUTO 28003KT //// // ////// 21/20 Q1015", "FDMY 241900Z AUTO 08002KT //// // ////// 20/19 Q1027", "FDOT 241900Z AUTO 08001KT //// // ////// 22/22 Q1017", "FDPP 241900Z AUTO /////KT //// // ////// 17/M02 Q1017", "FDST 241900Z AUTO 32004KT //// // ////// 19/18 Q1016", "FGSL 241900Z 23006KT 9999 SCT012 27/26 Q1012 NOSIG", "FIMP 241900Z 04003KT 9999 FEW018 22/18 Q1020", "FJDG 241855Z 14010KT 9999 SCT021 BKN230 27/24 A2990 RMK SLP122 T02710235", "FKKR 241900Z 30002KT CAVOK 29/21 Q1010 NOSIG", "FMCZ 241930Z AUTO 01006KT 9999 FEW023 SCT032 26/23 Q1015 BECMG 08010KT", "FMEE 241930Z AUTO 15007KT 9999 SCT074/// BKN140/// 22/18 Q1019 TEMPO 4000 SHRA SCT021TCU", "FMEP 241930Z AUTO 01005KT CAVOK 22/16 Q1019", "FMMI 241930Z VRB02KT 9999 FEW017 BKN020 17/14 Q1022 NOSIG", "FMMT 241900Z 35004KT 9999 SCT017TCU 22/20 Q1018 NOSIG", "FMNM 241900Z 27007KT 240V310 9999 FEW020CB 26/22 Q1014 NOSIG", "FMSD 241900Z 00000KT 9999 FEW016 SCT033 24/21 Q1016", "FNCA 241900Z 36007KT 9000 -RA FEW010 BKN015 25/24 Q1013", "FNLU 241900Z 14008KT 9999 BKN020 26/23 Q1012 NOSIG", "FOOG 241930Z 19009KT 9999 SCT010 BKN030 27/24 Q1012", "FQBR 241900Z 09010KT 9999 FEW018 26/22 Q1013", "FQIN 241900Z 08005KT 9999 TSRA SCT020 FEW025CB 26/22 Q1015 RMK CB TO S/SW", "FQLC 241900Z 08008KT CAVOK 22/11 Q1020", "FQMA 241900Z 14005KT 360V160 9999 BKN020 BKN025 FEW030CB 23/22 Q1015 NOSIG RMK CB TO SW/W/N/NE", "FQPB 241900Z 04009KT 9999 FEW020 24/21 Q1015", "FQQL 241900Z 09013KT CAVOK 26/23 Q1011", "FQTT 241900Z 08005KT CAVOK 34/14 Q1010", "FQVL 241900Z 07012KT 9999 SCT020 26/23 Q1013", "FQXA 241900Z 07009KT 040V110 9999 BKN020 FEW025CB SCT070 26/21 Q1014 RMK CB TO SW", "FSIA 241900Z 13013KT 9999 FEW024 27/21 Q1014 NOSIG", "FTTA 241900Z 03004KT CAVOK 26/20 Q1011", "FTTJ 241900Z 01006KT 6000 NSC 30/11 Q1010 NOSIG", "FWKI 241900Z 05005KT CAVOK 22/12 Q1018 NOSIG", "FYLZ 241900Z AUTO 20016KT //// // ////// 15/13 Q1012", "FYWB 241900Z AUTO 03008KT //// // ////// 15/12 Q1014", "FYWW 241900Z AUTO 21004KT //// // ////// 26/03 Q1021", "FZAA 241900Z 20006KT 6000 BKN014 21/21 Q1012 NOSIG", "GABS 241900Z 31008KT 9999 FEW020 30/21 Q1014 NOSIG", "GBYD 241900Z 00000KT 9999 SCT011 BKN110 24/23 Q1013 NOSIG", "GCFV 241930Z 31009KT 9999 FEW020 24/19 Q1014", "GCGM 241930Z AUTO VRB02KT 9999 BKN019 21/19 Q1016 RMK R09/VRB02KT ARP/VRB01KT", "GCHI 241930Z AUTO 34007KT 300V010 9999 OVC023 22/17 Q1015", "GCLA 241930Z VRB02KT 9999 FEW030 23/17 Q1015", "GCLP 241930Z 01011KT CAVOK 23/19 Q1015 NOSIG", "GCRR 241930Z VRB04KT 9999 FEW020 24/19 Q1015", "GCTS 241930Z 08006KT 9999 FEW030 22/18 Q1016 NOSIG", "GCXO 241930Z 27005KT 230V290 CAVOK 17/16 Q1018 NOSIG", "GECE 241930Z AUTO VRB02KT CAVOK 21/19 Q1017", "GEML 241930Z AUTO 30004KT 260V340 CAVOK 23/16 Q1018", "GFLL 241900Z 33008KT 9999 BKN012 FEW026CB 28/23 Q1011 RMK CB-NE", "GGOV 241900Z 06003KT 8000 FEW010 25/23 Q1013 NOSIG", "GLRB 241930Z 00000KT 9999 SCT012 FEW023CB 26/24 Q1011 NOSIG RMK CB/NE-SE", "GMAD 241930Z 00000KT CAVOK 29/05 Q1014 NOSIG", "GMAZ 241900Z AUTO 08004KT CAVOK 25/M04 Q1023", "GMFF 241930Z 20007KT CAVOK 21/01 Q1020 NOSIG", "GMFK 241900Z 16004KT CAVOK 22/M05 Q1026 NOSIG", "GMFM 241900Z VRB02KT CAVOK 24/06 Q1019 NOSIG", "GMFO 241930Z 18010KT CAVOK 25/M01 Q1020 NOSIG", "GMMB 241900Z 03004KT 300V050 8000 NSC 25/09 Q1017 NOSIG", "GMMC 241900Z 08004KT 6000 NSC 23/17 Q1015", "GMMD 241900Z 08008KT CAVOK 24/M00 Q1018 NOSIG", "GMME 241930Z 00000KT 5000 NSC 18/09 Q1015 NOSIG", "GMMH 241900Z 01015KT 6000 NSC 21/19 Q1013 NOSIG", "GMMI 241900Z AUTO VRB06KT //// ////// 24/09 Q1015 NOSIG", "GMML 241900Z 36009KT 8000 NSC 23/19 Q1014 NOSIG", "GMMN 241930Z 09004KT CAVOK 25/03 Q1017 NOSIG", "GMMW 241900Z 00000KT CAVOK 20/13 Q1018 NOSIG", "GMMX 241930Z VRB02KT CAVOK 28/04 Q1017 NOSIG", "GMMZ 241900Z 16003KT CAVOK 24/M06 Q1024 NOSIG", "GMTA 241900Z VRB01KT CAVOK 20/16 Q1017 NOSIG", "GMTN 241900Z 35003KT CAVOK 19/16 Q1017 NOSIG", "GMTT 241930Z 09006KT CAVOK 23/17 Q1016 NOSIG", "GOBD 241900Z 20003KT 9999 FEW018 27/22 Q1013 NOSIG", "GQNO 241900Z 27012KT 8000 NSC 27/24 Q1012 NOSIG", "GQPP 241900Z 34010KT 300V360 0700 R02/0800 FG OVC005 19/18 Q1012 NOSIG", "GUNZ 241900Z 28006KT 9999 SCT015 FEW020CB SCT110 28/25 Q1012 CB/NE RETS NOSIG", "GVAC 241900Z 08011KT 9999 BKN014 26/20 Q1014 NOSIG", "GVBA 241900Z 06009KT 9999 FEW014 27/20 Q1014 NOSIG", "GVNP 241900Z 05009KT 9999 FEW016 26/20 Q1013 NOSIG", "GVSV 241900Z 05014KT 9999 SCT022 27/20 Q1013 NOSIG", "HEAT 241900Z 35012KT CAVOK 21/10 Q1017 NOSIG", "HEBA 241900Z 33002KT CAVOK 17/11 Q1018 NOSIG", "HEBL 241900Z 31004KT CAVOK 22/06 Q1016 NOSIG", "HECA 241930Z 01008KT 9999 BKN025 22/15 Q1017 NOSIG", "HEGN 241900Z 32011KT CAVOK 25/13 Q1013 NOSIG", "HELX 241900Z 25005KT CAVOK 23/09 Q1014 NOSIG", "HEMA 241900Z 27005KT CAVOK 23/15 Q1014 NOSIG", "HEMM 241900Z 34008KT CAVOK 22/15 Q1019 NOSIG", "HEPS 241900Z 01010KT 9999 BKN030 23/17 Q1017 NOSIG", "HESG 241900Z 30010KT CAVOK 22/09 Q1013 NOSIG", "HESH 241900Z 24004KT CAVOK 25/12 Q1012 NOSIG", "HESN 241900Z 36005KT CAVOK 24/04 Q1014 NOSIG", "HESW 241900Z 02011KT CAVOK 21/13 Q1018", "HETR 241900Z 30009KT CAVOK 25/19 Q1012", "HKEL 241900Z 14011KT 9999 FEW015 16/08 Q1024", "HKGO 241900Z AUTO 08008KT 18/13 Q1023 A30.20", "HKJK 241900Z 09011KT CAVOK 21/11 Q1021 NOSIG", "HKKI 241900Z 30003KT CAVOK 22/17 Q1015", "HKKT 241900Z 00000KT CAVOK 18/10", "HKME 241900Z 00000KT SKC 19/13", "HKML 241900Z 16010KT 9999 SCT021 26/22 Q1013", "HKMO 241900Z 15008KT 9999 SCT023 26/22 Q1014 NOSIG", "HKNI 241900Z 20001KT 9999 FEW021 19/10", "HKNK 241900Z 00000KT CAVOK 19/11", "HKNW 241900Z 09011KT 9999 FEW021 21/10 Q1021", "HRYR 241930Z 32008KT 9999 FEW025 SCT100 22/15 Q1019 NOSIG", "HSDN 241900Z 36010KT CAVOK 25/05 Q1016", "HSOB 241900Z 36009KT CAVOK 28/02 Q1014", "HSPN 241900Z 36009KT CAVOK 29/22 Q1012", "HSSK 241930Z 34014KT CAVOK 30/M01 Q1013 NOSIG", "HTDA 241900Z 10004KT 9999 FEW011 24/22 Q1015 NOSIG", "HTKJ 241900Z 11013KT 9999 FEW030 26/15 Q1017 NOSIG", "HTMW 241900Z 00000KT 9999 FEW020 22/19 Q1014 NOSIG", "HTZA 241900Z 09007KT 9999 FEW018 25/22 Q1014 NOSIG", "HUEN 241900Z 35005KT 9999 FEW021 FEW023CB 23/17 Q1015", "K04V 241915Z AUTO 30016G22KT 10SM CLR 03/M13 A2997 RMK AO2", "K04W 241935Z AUTO 21011G22KT 10SM CLR 13/05 A2960 RMK AO2", "K05U 241930Z AUTO VRB04KT 10SM 03/M07 A3029 RMK A01", "K06C 241915Z AUTO 17011G16KT 10SM CLR 22/16 A2983 RMK AO2 T02220158", "K06D 241935Z AUTO 31019G31KT 10SM BKN013 BKN017 BKN024 01/01 A2935 RMK AO2", "K08D 241935Z AUTO 31022G32KT 9SM -RA M01/M01 A2953 RMK AO2", "K0A0 241935Z AUTO 32026G35KT 10SM CLR 12/M05 A3000 RMK AO2", "K0A9 241935Z AUTO 00000KT 10SM CLR 24/04 A3010 RMK A01", "K0CO 241915Z AUTO 35019G26KT 321V021 M1/4SM +SN OVC001 M13/M15 A2990 RMK AO2", "K0E0 241935Z AUTO 32017G21KT 10SM SCT020 SCT026 BKN060 04/M01 A2991 RMK AO2 T00411011 TSNO", "K0F2 241935Z AUTO 00000KT 10SM OVC006 16/14 A2974 RMK AO2 T01630142", "K0J4 241858Z AUTO 10SM CLR 28/10 A3008 RMK AO2 SLP185 T02780100", "K0R0 241935Z AUTO 16011G18KT 10SM FEW055 30/15 A2998 RMK AO2", "K0R4 241915Z AUTO 18012KT 10SM SCT075 29/16 A2992 RMK AO2 T02920161", "K0S9 241935Z AUTO 11007KT 10SM SCT026 BKN033 BKN065 14/10 A2994 RMK AO2", "K0V4 241835Z AUTO 36003KT 10SM CLR 24/10 A3011 RMK AO1 T02370103", "K0VG 241935Z AUTO 00000KT 1 1/4SM HZ CLR 23/02 A3012 RMK AO2", "K10G 241935Z AUTO 15008KT 10SM CLR 23/03 A3009 RMK AO2", "K11R 241915Z AUTO 18013G21KT 10SM OVC035 28/20 A2977 RMK AO2 T02770199 PNO", "K12N 241854Z AUTO VRB03KT 14/12 A3015 RMK AO1 SLP209 P0018 T01440122 $", "K13K 241915Z AUTO 01010KT 10SM -RA BKN006 BKN019 OVC090 10/10 A2972 RMK AO2 T01040101", "K14Y 241935Z AUTO 22014G23KT 10SM SCT025 07/01 A2960 RMK AO2", "K15M 241935Z AUTO 14007KT 10SM FEW250 SCT290 24/11 A2999 RMK AO2 T02440114 $", "K17J 241915Z AUTO 23009KT 10SM SCT055 28/12 A3008 RMK AO2 T02770121", "K18A 241915Z AUTO 16004KT 10SM CLR 24/08 A3013 RMK AO2 T02440078", "K18H 241915Z AUTO 16014G20KT 7SM CLR 28/21 A2989 RMK A01", "K19S 241915Z AUTO 02023G26KT 10SM CLR 12/M02 A2982 RMK AO2 T01221024", "K1A5 241935Z AUTO 00000KT 10SM CLR 25/M02 A3015 RMK AO2 T02511018", "K1A6 241915Z AUTO 18006KT 10SM CLR 24/04 A3011 RMK AO2 T02380037", "K1A9 241935Z AUTO 00000KT 10SM CLR 26/10 A3006 RMK AO2 T02600104", "K1AM 241855Z AUTO 22013KT 10SM FEW200 04/M03 A2975 RMK AO2 SLP098 T00411032 $", "K1BM 241855Z AUTO 25014KT 10SM SCT200 06/M02 A2974 RMK AO2 SLP094 T00591017 $", "K1CM 241855Z AUTO 00000KT 10SM CLR 05/M04 A2974 RMK AO2 SLP093 T00501038 $", "K1D1 241935Z AUTO 25018KT 10SM CLR 09/01 A2961 RMK AO2", "K1F0 241915Z AUTO 14004KT 10SM OVC006 15/14 A2975 RMK AO2 T01460137", "K1FM 241855Z AUTO 22014KT 10SM OVC140 02/M04 A2972 RMK AO2 SLP095 T00231042 $", "K1H2 241915Z AUTO 14014G22KT 10SM SCT055 26/13 A2990 RMK AO2 T02560128", "K1HM 241855Z AUTO 28018G26KT 10SM CLR 03/M04 A2970 RMK AO2 PK WND 28027/13 SLP084 T00331042 $", "K1IM 241855Z AUTO 24018G23KT 10SM FEW090 BKN210 04/M04 A2974 RMK AO2 SLP096 T00441041 $", "K1JM 241855Z AUTO 22016KT 10SM SCT200 03/M03 A2972 RMK AO2 PK WND 22027/38 SLP091 T00331035 PWINO $", "K1K1 241935Z AUTO 03004KT 10SM OVC007 09/08 A2976 RMK AO2 T00920077", "K1KM 241855Z AUTO 27033G41KT 10SM CLR 06/M05 A2976 RMK AO2 PK WND 27041/50 SLP096 T00581055 $", "K1LM 241855Z AUTO 29006KT 10SM CLR 04/M03 A2975 RMK AO2 SLP095 T00401028 $", "K1M4 241856Z AUTO 17009KT 10SM CLR 24/09 A3008 RMK AO2 SLP170 T02440089", "K1M5 241935Z AUTO 17015KT 10SM CLR 25/04 A3001 RMK A01", "K1MM 241855Z AUTO 24014KT 10SM CLR 04/M02 A2974 RMK AO2 SLP096 T00371021 $", "K1MW 241855Z AUTO 31021G28KT 10SM M 09/M07 A2551 RMK AO2 PK WND 34030/07 SLP598 T00921067 FZRANO $", "K1NM 241855Z AUTO 28017G22KT 10SM CLR 06/M03 A2971 RMK AO2 SLP082 T00571034 $", "K1OM 241855Z AUTO 27020G27KT 10SM CLR 06/M02 A2972 RMK AO2 PK WND 28027/51 SLP089 T00561018 $", "K1P1 241935Z AUTO 00000KT 10SM BKN016 OVC026 17/13 A3024 RMK AO2 T01680131", "K1R7 241935Z AUTO 15008G15KT 10SM SCT055 28/17 A2995 RMK AO2 PWINO", "K1R8 241915Z AUTO 14005G11KT 10SM SCT036 BKN041 BKN047 26/17 A3004 RMK AO2", "K1S3 241930Z AUTO 28007KT 10SM 06/M01 A2978 ", "K1S5 241935Z AUTO 09006KT 10SM OVC110 12/07 A2991 RMK AO2 T01210065", "K1U7 241935Z AUTO 31012KT 10SM SCT032 02/M03 A3013 RMK A01", "K1V4 241854Z AUTO 19/11 A3020 RMK AO1 SLP225 T01890106 PNO", "K1V6 241935Z AUTO 11011KT 10SM CLR 10/M02 A2988 RMK AO2", "K1YT 241855Z AUTO 36005KT 10SM CLR 09/02 A2984 RMK AO2 SLP114 T00920016 $", "K20U 241935Z AUTO 30027G38KT 10SM BKN016 OVC025 01/M01 A2967 RMK AO2", "K20V 241915Z AUTO 31006KT 10SM SCT028 SCT038 OVC050 00/M08 A3004 RMK AO2", "K21D 241935Z AUTO 21011KT 10SM -RA SCT044 BKN065 OVC090 12/07 A2967 RMK AO2", "K22N 241935Z AUTO 00000KT 1 1/2SM BR OVC008 15/13 A3015 RMK AO2", "K24A 241935Z AUTO 00000KT 10SM CLR 23/M02 A3015 RMK AO2 T02301017", "K24J 241935Z AUTO 00000KT 10SM 28/10 A3007 RMK A01", "K27K 241935Z AUTO 15010KT 10SM CLR 24/02 A3005 RMK AO1", "K28J 241935Z AUTO 10006KT 10SM BKN050 25/13 A3008 RMK AO2 TSNO", "K2A0 241935Z AUTO 25005KT 10SM CLR 25/08 A3007 RMK A01", "K2C8 241935Z AUTO 30013KT 1SM BR BKN008 OVC013 05/05 A2926 RMK AO2", "K2D5 241935Z AUTO 25022G28KT 9SM OVC028 07/M01 A2952 RMK AO2", "K2DP 241855Z AUTO 01003KT 10SM OVC009 17/17 A3009 RMK AO2 LTG DSNT NE SLPNO T01670167 $", "K2G2 241935Z AUTO 00000KT 3SM HZ CLR 23/02 A3009 RMK A01", "K2G4 241920Z AUTO 33003KT 10SM CLR 18/M01 A3016 RMK AO1", "K2G9 241915Z AUTO 00000KT 10SM CLR 19/10 A3014 RMK AO2", "K2J3 241915Z AUTO 00000KT 10SM CLR 25/09 A3012 RMK AO2 T02490090", "K2J5 241915Z AUTO 02005KT 10SM CLR 25/08 A3012 RMK AO2 T02520075", "K2J9 241935Z AUTO VRB05KT 10SM SCT055 29/14 A3008 RMK AO2", "K2M2 241935Z AUTO 20009G19KT 10SM CLR 24/04 A3001 RMK A01", "K2P2 241935Z AUTO 19012G20KT 10SM CLR 13/11 A2978 RMK AO2 T01260108", "K2R9 241915Z AUTO 16013G19KT 10SM SCT035 BKN042 31/21 A2973 RMK AO2", "K2V5 241915Z AUTO 32021G27KT 10SM CLR 12/M07 A2986 RMK AO2", "K2W6 241919Z AUTO 30003KT 10SM OVC012 16/13 A3013 RMK AO1", "K2WX 241856Z AUTO 30031G41KT 00/M02 A2964 RMK AO1 PK WND 29046/1759 SLP061 T00001022", "K33N 241935Z AUTO 34005KT 3/4SM BR OVC004 15/15 A3010 RMK A01", "K33V 241915Z AUTO 24013G19KT 10SM SCT024 BKN031 OVC043 M02/M07 A2999 RMK AO1", "K35A 241935Z AUTO 05005KT 10SM CLR 24/06 A3016 RMK A02 T02400065", "K36K 241930Z AUTO 35021KT 10SM CLR 13/M06 A2985 RMK AO2", "K38S 241930Z AUTO 15014G19KT 10SM 07/M06 A2989 ", "K3AU 241935Z AUTO 36008KT 10SM OVC009 09/07 A2975 RMK AO2", "K3D2 241915Z AUTO 17012G18KT 10SM CLR 14/10 A2978 RMK AO2 T01400097", "K3F3 241915Z AUTO 16012G24KT 10SM SCT043 OVC055 27/17 A2987 RMK AO2 T02700170", "K3J7 241935Z AUTO 08003KT 10SM CLR 25/07 A3012 RMK AO2", "K3K3 241915Z AUTO 02017G25KT 10SM SCT120 11/M05 A2985 RMK AO2", "K3LF 241935Z AUTO 17022G26KT 10SM BKN040 BKN050 BKN070 23/13 A2985 RMK AO2 T02270133", "K3N8 241935Z AUTO 21020G28KT 10SM OVC025 07/02 A2945 RMK AO2 T00710019", "K3S8 241935Z AUTO 32003KT 10SM BKN009 OVC014 09/07 A3027 RMK AO2", "K3U3 241930Z AUTO 20011G18KT 10SM 07/M08 A2989 ", "K40B 241916Z AUTO VRB03KT 12/ A3031 RMK AO1 SLP272 T0121 56012 P0003", "K40U 241915Z AUTO 31014G21KT 10SM CLR 06/M08 A3008 RMK AO2 T00631083", "K41U 241935Z AUTO 17008KT 10SM SCT036 BKN042 OVC050 04/M03 A3022 RMK AO1 T00361035", "K42J 241935Z AUTO VRB05KT 10SM CLR 27/09 A3007 RMK A01", "K46D 241935Z AUTO 29020G27KT 2 1/2SM BR BKN010 OVC016 03/02 A2945 RMK AO2", "K46U 241935Z AUTO 30011G18KT 10SM BKN038 BKN044 01/M05 A3014 RMK A01", "K48A 241915Z AUTO 01003KT 10SM CLR 26/11 A3011 RMK AO2 T02570109", "K49A 241915Z AUTO 18004KT 10SM CLR 24/05 A3014 RMK AO2 T02400051", "K4A6 241935Z AUTO VRB06KT 10SM CLR 25/09 A3006 RMK AO2", "K4A9 241915Z AUTO 20007G14KT 10SM CLR 24/07 A3008 RMK AO2 T02420072", "K4BM 241915Z AUTO 29004KT 10SM CLR M05/M17 A2993 RMK AO2", "K4F2 241915Z AUTO 18018G26KT 10SM SCT037 BKN048 OVC070 27/19 A2980 RMK AO2 T02660185", "K4M9 241935Z AUTO 17014G19KT 10SM SCT065 25/16 A2987 RMK AO2 PWINO", "K4MR 241924Z AUTO 00000KT 10SM FEW017 SCT028 BKN037 BKN047 OVC055 10/06 A2975 RMK AO2 RAB09E18DZB18E24 SLP023 $", "K4O4 241915Z AUTO 16014G22KT 1/2SM +RA HZ SCT006 BKN026 OVC033 21/19 A2973 RMK AO2", "K4R5 241935Z AUTO 20010G19KT 150V240 10SM SCT043 BKN050 OVC065 22/15 A2952 RMK AO2 T02200145", "K4S1 241935Z AUTO 17017G25KT 4SM HZ SCT019 BKN027 13/10 A3021 RMK AO2", "K4S2 241935Z AUTO 30006KT 10SM -DZ SCT013 SCT023 OVC036 09/08 A2999 RMK AO2", "K4V0 241935Z AUTO 22007KT 200V260 10SM OVC047 05/M04 A3012 RMK AO2 T00521043", "K4V1 241910Z AUTO 24008KT 7SM BKN029 OVC035 02/01 A2993 RMK AO2 T00170006", "K54A 241935Z AUTO 09008KT 10SM FEW044 FEW055 31/20 A3000 RMK AO2", "K54J 241935Z AUTO 00000KT 10SM CLR 27/11 A3006 RMK AO2 T02720111", "K57C 241915Z AUTO 17007KT 10SM CLR 21/12 A2980 RMK AO2 T02050117", "K5C1 241915Z AUTO 19008G14KT 10SM SCT027 SCT041 BKN110 27/19 A2975 RMK AO1", "K5H4 241935Z AUTO 31022G32KT 9SM -UP FEW014 BKN022 BKN028 02/M10 A2945 RMK AO2", "K5M9 241915Z AUTO 18008G14KT 140V200 10SM CLR 24/07 A2996 RMK AO2 T02440065", "K5R8 241915Z AUTO 16012G19KT 10SM SCT045 OVC060 28/18 A2988 RMK AO2 T02750177", "K5SM 241915Z AUTO 1 3/4SM BR OVC003 A3008 RMK AO2 VIS 1/2V5", "K5T9 241935Z AUTO VRB03KT 9SM CLR 31/21 A2966 RMK A01", "K63S 241935Z AUTO 00000KT 10SM OVC022 05/02 A2988 RMK A01", "K65S 241935Z AUTO 18007G13KT 140V230 10SM FEW043 FEW049 FEW060 05/02 A2986 RMK AO2", "K66R 241915Z AUTO 17011G18KT 5SM HZ OVC032 27/20 A2978 RMK AO2 T02700197", "K6A1 241915Z AUTO 19003KT 10SM CLR 26/07 A3012 RMK AO2 T02590068", "K6A2 241935Z AUTO 14003KT 10SM CLR 25/08 A3012 RMK AO2", "K6B0 241935Z AUTO 00000KT 10SM OVC031 17/14 A3020 RMK AO2 T01680136", "K6B9 241935Z AUTO 01006KT 9SM FEW036 20/11 A3013 RMK AO2", "K6I2 241915Z AUTO 12008KT 090V150 10SM CLR 25/02 A3005 RMK AO2", "K6L4 241935Z AUTO VRB04KT 10SM CLR 24/03 A3010 RMK AO2", "K6P9 241915Z AUTO 00000KT 10SM OVC010 18/16 A2975 RMK AO2 T01840159", "K6R6 241851Z AUTO VRB04KT 26/15 A2977 RMK AO1 SLP049 T02560150", "K6S0 241935Z AUTO 27041G47KT 10SM CLR 06/M07 A2976 RMK A01", "K6S2 241935Z AUTO 20008G14KT 7SM BKN003 OVC011 12/12 A3016 RMK AO2", "K6S8 241925Z AUTO 22012G18KT 10SM 10/M04 A2980 RMK A01 Laurel", "K74V 241915Z AUTO 26010G18KT 10SM 09/M08 A3009 RMK AO2", "K77S 241935Z AUTO 26006KT 6SM BR BKN011 BKN018 OVC023 12/12 A3014 RMK A01", "K79J 241856Z AUTO 09004KT 10SM CLR 29/11 A3007 RMK AO2 SLP179 T02940111", "K7BM 241915Z AUTO 25013G20KT 10SM SCT050 M02/M13 A2994 RMK AO2", "K7L2 241935Z AUTO 29022G27KT 10SM BKN017 OVC023 02/M00 A2959 RMK AO2", "K7N0 241856Z AUTO 16009G15KT 120V190 10SM FEW039 SCT070 28/18 A3000 RMK AO2 SLP156 T02780183 PNO $", "K7W4 241935Z AUTO 31003KT 10SM SCT034 22/13 A3010 RMK AO1 T02220133", "K7W6 241935Z AUTO 35004KT 10SM OVC008 16/16 A3011 RMK AO2 T01570157", "K81R 241915Z AUTO 10006KT 10SM OVC024 21/16 A2976 RMK AO2 T02110161", "K82C 241935Z AUTO 19011G21KT 10SM SCT032 SCT060 BKN090 22/15 A2969 RMK AO2 T02160148", "K82V 241935Z AUTO 32024G31KT 10SM SCT048 SCT075 BKN110 06/M07 A2987 RMK AO2", "K8A0 241915Z AUTO 21006KT 10SM CLR 24/06 A3008 RMK AO2", "K8A3 241935Z AUTO 20008KT 10SM CLR 25/03 A3004 RMK A01", "K8D3 241856Z AUTO 25023G36KT 09/00 A2955 RMK AO1 PK WND 24036/1817 SLP003 T00940000", "K8T6 241915Z AUTO 15010G16KT 130V190 10SM FEW043 33/22 A2970 RMK AO2", "K8W2 241935Z AUTO 06004KT 10SM CLR 24/06 A3009 RMK AO1 T02440057", "K96D 241935Z AUTO 30009G15KT 9SM BKN014 BKN020 04/04 A2928 RMK AO2", "K9A5 241915Z AUTO 24008KT 10SM CLR 24/07 A3010 RMK AO2 T02380070", "K9D7 241915Z AUTO 30016KT 2 1/2SM BR SCT009 SCT016 03/03 A2936 RMK AO2 TSNO", "K9L2 241855Z AUTO 00000KT 9SM CLR 15/M12 A3026 RMK AO2 SLP243 T01541120 $", "K9MN 241915Z AUTO 25006KT 10SM OVC028 12/07 A2969 RMK AO1 T01210070", "K9V9 241915Z AUTO 27022G27KT 10SM OVC045 08/M03 A2972 RMK AO2 T00791034", "KAAA 241915Z AUTO 18021G26KT 10SM CLR 24/15 A2982 RMK AO2 T02380148", "KAAF 241853Z AUTO 09009KT 10SM CLR 24/20 A3008 RMK AO2 SLP187 T02440200 $", "KAAO 241908Z AUTO 35013G21KT 10SM OVC009 10/08 A2976 RMK AO2 CIG 008V012 T01000078", "KAAS 241935Z AUTO 19009KT 10SM CLR 26/04 A3009 RMK AO1", "KAAT 241855Z AUTO 00000KT 10SM SCT033 BKN044 OVC065 06/M03 A3023 RMK AO2 RAB15E41 SLP254 P0000 T00611033", "KABE 241913Z 04007KT 5SM BR OVC010 15/13 A3014 RMK AO2 RAE1858 CIG 005V013 P0001 T01500133", "KABH 241855Z AUTO 06008KT 10SM BKN055 07/M08 A2989 RMK AO2 SLP129 T00691079", "KABI 241852Z 17007KT 10SM BKN085 BKN110 21/14 A2974 RMK AO2 SLP049 T02110144", "KABQ 241852Z 31020G32KT 10SM SCT043 SCT100 08/M03 A2995 RMK AO2 PK WND 32032/1852 SLP114 MTN TOPS OBSC NE AND SE T00831028", "KABR 241853Z AUTO 26017G29KT 10SM OVC033 08/M01 A2958 RMK AO2 PK WND 24030/1757 SLP021 T00781011", "KABY 241853Z 22006KT 10SM CLR 27/11 A3010 RMK AO2 SLP192 T02670111", "KACB 241935Z AUTO 18007KT 10SM CLR 23/13 A2985 RMK AO2 T02260126", "KACJ 241935Z AUTO 00000KT 10SM CLR 26/09 A3009 RMK AO2 T02570093", "KACK 241853Z 12007KT 1 1/4SM BR OVC003 22/21 A3018 RMK AO2 SLP221 T02170206", "KACP 241935Z AUTO 16005KT 10SM SCT041 BKN060 OVC070 28/17 A2988 RMK AO2", "KACQ 241935Z AUTO 24007KT 10SM -RA SCT038 BKN065 OVC090 08/06 A2970 RMK AO2 P0001", "KACT 241856Z 36015KT 4SM RA BR SCT007 SCT012 OVC018 17/16 A2976 RMK AO2 P0001 T01720161", "KACV 241853Z AUTO VRB05KT 10SM OVC027 14/08 A3027 RMK AO2 SLP256 T01390078", "KACY 241926Z 03007KT 1SM BR OVC003 17/17 A3008 RMK AO2 T01720167", "KADC 241916Z AUTO 23017G24KT 10SM BKN028 08/02 A2952 RMK AO2 TSNO", "KADF 241856Z AUTO 16009G19KT 10SM CLR 27/17 A2982 RMK AO2 SLP094 T02670172", "KADG 241853Z AUTO 20010KT 10SM CLR 24/06 A3003 RMK AO2 SLP167 T02440056", "KADH 241915Z AUTO 04008KT 10SM -RA BKN007 BKN013 OVC031 13/13 A2969 RMK AO2 P0001", "KADM 241850Z 04004KT 10SM -RA FEW090 BKN070 15/14 A2971", "KADS 241847Z 34006G12KT 5SM -RA SCT008 SCT018 OVC037 18/16 A2978", "KADT 241915Z AUTO 32021G30KT 10SM CLR 14/M05 A2987 RMK AO2 T01351055", "KADU 241915Z AUTO 34003KT 10SM -RA BKN009 BKN018 OVC032 08/06 A2974 RMK AO2 P0001", "KADW 241910Z AUTO 35005KT 10SM OVC014 16/12 A3010 RMK AO2 SLP199 $", "KAEG 241850Z 30026G38KT 10SM SCT080 06/M05 A2994", "KAEJ 241935Z AUTO 32017G28KT 10SM 03/M14 A2994 RMK AO2 T00281137", "KAEL 241915Z AUTO 27005KT 10SM -RA SCT100 10/07 A2966 RMK AO2", "KAEX 241853Z 17017G30KT 10SM FU BKN041 BKN055 BKN085 29/17 A2989 RMK AO2 PK WND 19030/1851 SLP123 T02890172", "KAFF 241855Z AUTO 26004KT 10SM CLR 06/M10 A2986 RMK AO2 SLP111 T00611102 $", "KAFJ 241856Z AUTO 06005KT 8SM CLR 22/06 A3014 RMK AO2 SLP207 T02220061", "KAFK 241915Z AUTO 02006KT 7SM -RA SCT070 OVC080 08/07 A2972 RMK AO2 P0001 T00770065", "KAFN 241852Z AUTO VRB03KT 6SM RA BR OVC003 13/12 A3024 RMK AO2 SLP247 P0005 T01330122", "KAFO 241915Z AUTO 03009KT 10SM OVC033 00/M07 A3013 RMK AO2", "KAFP 241935Z AUTO 33006KT 10SM CLR 23/07 A3011 RMK AO2 T02340074", "KAFW 241853Z 13008KT 10SM -RA FEW012 BKN080 OVC095 19/16 A2972 RMK AO2 SLP054 P0019 T01890156 $", "KAGC 241853Z 00000KT 10SM CLR 21/05 A3012 RMK AO2 SLP203 T02110050", "KAGI 241935Z AUTO 15023KT 10SM CLR 27/21 A2988 RMK AO2 T02750208", "KAGO 241935Z AUTO 18018G23KT 10SM BKN049 OVC060 27/16 A2979 RMK A01", "KAHN 241851Z 00000KT 10SM CLR 25/08 A3014 RMK AO2 SLP203 T02500078", "KAHQ 241915Z AUTO 00000KT 10SM -DZ CLR 09/03 A2976 RMK AO2 T00910034", "KAIA 241853Z AUTO 31024G38KT 10SM SCT034 BKN045 BKN090 04/M03 A2986 RMK AO2 PK WND 30043/1801 SLP120 T00391028", "KAIG 241935Z AUTO 16012G16KT 10SM OVC041 18/14 A2972 RMK AO2 T01820142", "KAIK 241935Z AUTO 06003KT 10SM CLR 24/07 A3012 RMK AO2 T02400067", "KAIO 241915Z AUTO 33008KT 3SM RA CLR 08/08 A2972 RMK AO2", "KAIT 241935Z AUTO 20008G22KT 10SM SCT032 11/04 A2956 RMK AO2", "KAIZ 241856Z AUTO 18009G21KT 10SM -RA OVC026 22/17 RMK AO2 PK WND 16027/1843 RAB49 SLPNO P0000 T02170167 $", "KAJG 241915Z AUTO 17016G22KT 10SM CLR 26/10 A2993 RMK AO2 T02600100", "KAJO 241856Z AUTO 01007KT 10SM CLR 23/M02 A3016 RMK AO2 SLP208 T02281017", "KAJR 241915Z AUTO 20004KT 7SM CLR 24/07 A3013 RMK AO2 T02360065", "KAJZ 241915Z AUTO 28012G17KT 10SM SCT050 SCT060 OVC075 07/M03 A3011 RMK AO2 T00661032", "KAKH 241854Z AUTO VRB03KT 10SM CLR 23/10 A3014 RMK AO2 SLP203 T02330100", "KAKO 241853Z AUTO 32025G32KT 10SM CLR 09/M06 A2986 RMK AO2 PK WND 31037/1832 SLP109 T00891056", "KAKQ 241920Z AUTO 35004KT 10SM SCT029 22/14 A3009 RMK AO2 T02220139", "KAKR 241854Z AUTO VRB04KT 10SM CLR 24/05 A3008 RMK AO2 SLP184 T02440050", "KALB 241928Z 00000KT 2SM -RA BR BKN006 BKN012 OVC024 14/13 A3020 RMK AO2 SFC VIS 2 1/2 PCPN VRY LGT P0000 T01440128", "KALK 241856Z AUTO 34013G19KT 10SM CLR 13/M09 A3016 RMK AO2 SLP154 T01281094", "KALM 241935Z AUTO 30016G22KT 10SM BKN060 BKN070 12/00 A2996 RMK AO2", "KALN 241850Z 17015G26KT 10SM BKN075 23/13 A2984", "KALO 241854Z 31009KT 9SM -RA BKN016 OVC065 12/10 A2968 RMK AO2 RAE1757B47 SLP051 P0000 T01220100", "KALS 241852Z AUTO 36012G25KT 10SM FEW065 06/M12 A2990 RMK AO2 PK WND 36026/1826 SLP120 T00561122 $", "KALW 241853Z 18015KT 10SM -RA BKN046 OVC055 09/05 A2995 RMK AO2 SLP148 P0003 T00940050", "KALX 241935Z AUTO 12007KT 10SM CLR 25/10 A3009 RMK AO2 T02470098", "KAMA 241931Z 01019G24KT 2 1/2SM RA BR FEW006 SCT018 OVC042 07/06 A2978 RMK AO2 SFC VIS 3 LTG DSNT E AND SE P0022 T00720061", "KAMG 241853Z AUTO 00000KT 10SM CLR 26/10 A3011 RMK AO2 SLP193 T02610100", "KAMN 241935Z AUTO 16010G18KT 10SM CLR 25/10 A2994 RMK AO2 T02500095", "KAMW 241853Z AUTO 31008KT 10SM -RA BKN060 BKN075 OVC090 11/07 A2972 RMK AO2 RAB19 SLP060 P0001 T01110072", "KANB 241853Z AUTO 20007KT 10SM CLR 26/08 A3010 RMK AO2 SLP190 T02560078", "KAND 241856Z AUTO VRB03KT 10SM CLR 24/05 A3014 RMK AO2 SLP200 T02390050", "KANE 241845Z 21007KT 10SM OVC120 14/05 A2964", "KANJ 241855Z AUTO 14010G19KT 10SM CLR 18/11 A2991 RMK AO2 SLP125 T01780106", "KANK 241910Z AUTO 36016G22KT 10SM CLR 06/M15 A2999 RMK AO1 T00581155", "KANQ 241935Z AUTO 19010G18KT 10SM CLR 24/11 A2998 RMK AO2", "KANW 241935Z AUTO 30015G23KT 10SM SCT055 09/M07 A2974 RMK AO2 T00921070", "KAOH 241853Z AUTO 16014G22KT 10SM CLR 24/06 A3004 RMK AO2 SLP167 T02440056", "KAOO 241853Z AUTO 06006KT 10SM SCT033 23/12 A3013 RMK AO2 SLP198 T02280117", "KAPA 241853Z 33006KT 10SM FEW080 FEW220 08/M14 A2987 RMK AO2 SLP112 T00781139", "KAPC 241854Z 21006KT 10SM CLR 21/00 A3021 RMK AO2 SLP222 T02060000", "KAPF 241853Z 08007KT 10SM FEW050 30/19 A3000 RMK AO2 SLP156 T03000189 $", "KAPG 241855Z 03005KT 2SM -DZ BR OVC004 16/15 A3010 RMK SLP196", "KAPN 241854Z AUTO 16015G21KT 10SM CLR 23/08 A2993 RMK AO2 SLP134 T02330083", "KAPS 241917Z AUTO 14011G17KT 10SM SCT050 29/16 A2996 RMK AO2", "KAQO 241915Z AUTO 00000KT 10SM CLR 24/17 A2973 RMK AO2", "KAQP 241933Z AUTO 27014G22KT 10SM SCT085 09/01 A2962 RMK AO2", "KAQV 241857Z AUTO 10SM SCT045 BKN065 OVC080 28/17 A2986 RMK AO2 SLP107 T02830167", "KAQW 241852Z AUTO VRB03KT 10SM BKN020 OVC045 16/14 A3020 RMK AO2 RAE50 SLP229 P0007 T01560144", "KAQX 241935Z AUTO 00000KT 10SM CLR 25/07 A3010 RMK AO2", "KARA 241853Z 15016G25KT 10SM BKN080 30/17 A2993 RMK AO2 PK WND 15027/1831 SLP135 T03000167", "KARB 241853Z 18008G17KT 10SM CLR 24/08 A3001 RMK AO2 SLP163 T02440078", "KARG 241856Z AUTO 18019G27KT 10SM OVC070 25/14 A2987 RMK AO2 PK WND 17027/1852 SLP115 T02500139", "KARM 241935Z AUTO 16021G25KT 10SM OVC034 27/19 A2978 RMK AO2 T02710192 TSNO", "KARR 241852Z 16013G23KT 10SM CLR 23/13 A2981 RMK AO2 PK WND 13027/1755 SLP092 T02280128", "KART 241933Z AUTO 23008KT 3SM HZ BKN040 18/08 A3013 RMK AO2 T01830078", "KARV 241935Z AUTO 19016G21KT 10SM OVC018 17/14 A2967 RMK AO2 T01730142", "KARW 241935Z AUTO 00000KT 10SM CLR 23/08 A3011 RMK AO2", "KASD 241853Z AUTO 17010G16KT 10SM CLR 29/17 A2998 RMK AO2 SLP153 T02940172", "KASE 241853Z 33009G18KT 10SM SCT034 BKN047 OVC060 M01/M08 A3004 RMK AO2 SLP160 T10111078", "KASG 241848Z 17010G17KT 10SM OVC019 20/20 A2971", "KASH 241856Z 31008KT 5SM BR OVC004 14/ A3024 RMK AO2 TSE1759RAE17 SLP245 P0000 T0139 $", "KASJ 241935Z AUTO 31005KT 10SM CLR 21/14 A3010 RMK AO2 T02120137", "KASL 241915Z AUTO 00000KT 10SM OVC090 26/18 A2976 RMK AO2 T02630185 TSNO $", "KASN 241935Z AUTO 15004KT 10SM CLR 26/08 A3009 RMK AO2 T02600076", "KAST 241906Z AUTO 26010KT 8SM FEW014 SCT020 BKN031 14/12 A3004 RMK AO2 RAE00 P0000 T01390117", "KASW 241915Z AUTO 20004KT 10SM CLR 22/10 A2997 RMK AO2 T02220099", "KASX 241853Z AUTO 19016G32KT 10SM BKN041 BKN050 OVC060 23/15 A2952 RMK AO2 PK WND 19037/1835 SLP993 T02330150", "KATA 241935Z AUTO 15013G19KT 10SM FEW035 BKN090 BKN140 26/19 A2974 RMK AO2 SLP972 T02600187 $", "KATL 241852Z 19005KT 10SM FEW250 24/10 A3013 RMK AO2 SLP199 T02440100 $", "KATP 241915Z AUTO 14013KT 10SM SCT038 BKN047 BKN070 26/23 A2996 RMK A01", "KATS 241935Z AUTO VRB06KT 10SM FEW075 SCT085 11/08 A2987 RMK AO2", "KATT 241851Z AUTO VRB04KT 10SM FEW024 SCT038 SCT070 27/24 A2975 RMK AO2 RAB27E41 SLP061 P0000 T02720239", "KATW 241845Z 16009G15KT 10SM BKN120 21/13 A2973", "KATY 241853Z AUTO 24025G35KT 10SM CLR 08/00 A2959 RMK AO2 PK WND 26036/1810 SLP024 T00830000", "KAUG 241931Z AUTO 01005KT 3SM -RA BR OVC003 14/13 A3026 RMK AO2 RAB1858 P0003 T01440133", "KAUH 241915Z AUTO 30009G15KT 10SM CLR 10/M02 A2977 RMK AO2 T00991022", "KAUM 241936Z AUTO 28006KT 10SM SCT110 12/06 A2967 RMK AO2", "KAUN 241915Z AUTO 23005KT 10SM CLR 20/M08 A3021 RMK A01", "KAUS 241917Z 18016G28KT 10SM BKN031 BKN045 BKN055 28/21 A2971 RMK AO2 PK WND 17028/1913 T02830211", "KAUW 241854Z AUTO 15013G22KT 10SM OVC065 19/13 A2969 RMK AO2 SLP052 T01940133", "KAVC 241935Z AUTO 00000KT 10SM CLR 23/14 A3015 RMK AO2 T02340138", "KAVK 241935Z AUTO 02014KT 10SM OVC021 12/08 A2978 RMK AO2 PWINO", "KAVL 241854Z VRB03KT 10SM CLR 22/M01 A3015 RMK AO2 SLP199 T02221011", "KAVP 241935Z 04005KT 10SM OVC009 16/14 A3014 RMK AO2 CIG 006V012 T01610144", "KAVQ 241935Z AUTO 33007KT 10SM CLR 17/M04 A3013 RMK AO2 T01741043", "KAVX 241851Z AUTO VRB06KT 10SM CLR 19/M03 A3019 RMK AO2 SLP207 T01941033", "KAWG 241915Z AUTO 18017KT 10SM FEW033 24/18 A2964 RMK AO2", "KAWM 241853Z AUTO 17020G27KT 10SM FEW043 26/14 A2990 RMK AO2 PK WND 16027/1851 SLP122 T02610144", "KAWO 241908Z AUTO 15009KT 10SM SCT008 BKN015 OVC021 10/08 A2997 RMK AO2", "KAXA 241915Z AUTO 26011KT 4SM BR CLR 08/08 A2971 RMK A01", "KAXH 241935Z AUTO 18007G19KT 10SM SCT035 OVC043 27/19 A2981 RMK AO2 T02720193", "KAXN 241853Z AUTO 23014G26KT 10SM OVC023 07/02 A2958 RMK AO2 PK WND 22030/1800 SLP021 T00720017", "KAXS 241935Z AUTO 05009KT 10SM BKN024 BKN030 OVC038 18/11 A2976 RMK AO2 T01760106", "KAXV 241935Z AUTO 18010KT 10SM CLR 23/03 A3003 RMK AO2", "KAXX 241915Z AUTO 25008KT 10SM BKN022 BKN030 OVC046 00/M04 A2988 RMK AO2 T10041042", "KAYS 241915Z AUTO 34003KT 10SM CLR 26/10 A3011 RMK AO2 T02590096", "KAZC 241935Z AUTO 00000KT 10SM CLR 10/M05 A3023 RMK AO2", "KAZE 241915Z AUTO 07003KT 10SM CLR 25/10 A3010 RMK AO2 T02520095", "KAZO 241853Z 17010KT 10SM CLR 24/12 A2997 RMK AO2 SLP146 T02390122", "KBAB 241855Z AUTO 00000KT 10SM CLR 19/M04 A3018 RMK AO2 SLP223 T01941042 $", "KBAC 241935Z AUTO 25021G27KT 10SM BKN017 BKN022 OVC031 05/02 A2946 RMK AO2", "KBAD 241855Z AUTO 17016G21KT 10SM SCT039 BKN050 OVC060 26/16 A2982 RMK AO2 SLP101 T02600159", "KBAF 241853Z 01007KT 10SM -RA BKN008 OVC017 13/12 A3020 RMK AO2 SLP229 P0000 T01330122", "KBAK 241855Z 17012G20KT 10SM BKN200 24/06 A2999", "KBAM 241935Z AUTO 23009G14KT 10SM CLR 10/M06 A3026 RMK AO1", "KBAN 241852Z AUTO 00000KT 10SM CLR 14/M14 A3024 RMK AO2 SLP230 T01391139 $", "KBAX 241915Z AUTO 17010G21KT 10SM CLR 23/08 A3000 RMK AO2 T02340078", "KBAZ 241851Z 19014KT 10SM FEW028 BKN049 OVC055 28/21 A2974 RMK AO2 SLP062 T02830211", "KBBB 241915Z AUTO 27018G23KT 10SM CLR 08/01 A2962 RMK AO2", "KBBD 241915Z AUTO 07005KT 10SM SCT024 SCT029 22/14 A2974 RMK AO2", "KBBG 241845Z 16012G17KT 10SM OVC018 20/17 A2979", "KBBP 241915Z AUTO 00000KT 10SM CLR 22/14 A3011 RMK AO2", "KBBW 241853Z AUTO 30019G29KT 10SM CLR 11/M05 A2976 RMK AO2 PK WND 31031/1759 SLP076 T01111050", "KBCB 241935Z AUTO 00000KT 10SM CLR 23/05 A3017 RMK AO2 T02290045", "KBCK 241915Z AUTO 20006KT 10SM -DZ OVC032 20/15 A2967 RMK AO2 T01990145", "KBCR 241858Z AUTO 18005KT 10SM CLR 28/14 A3008 RMK AO2 SLP144 T02830139 $", "KBCT 241853Z 08010G17KT 360V090 10SM SCT035 30/20 A3002", "KBDE 241922Z AUTO 20023G36KT 10SM OVC032 11/04 A2934 RMK AO2 PK WND 20037/1905 T01110044", "KBDG 241915Z AUTO 30011G19KT 10SM 06/M07 A3020 RMK AO1 T00571073", "KBDH 241935Z AUTO 23013G20KT 10SM SCT100 09/01 A2968 RMK AO2", "KBDL 241935Z 03007KT 9SM -RA FEW005 OVC012 14/13 A3018 RMK AO2 RAB15 P0001 T01390128", "KBDR 241852Z 03006KT 10SM OVC007 15/14 A3015 RMK AO2 RAE29 SLP210 P0008 T01500144", "KBDU 241935Z AUTO 24005KT 10SM CLR 11/M13 A2984 RMK AO2", "KBEA 241935Z AUTO 17014G19KT 10SM BKN040 BKN046 31/20 A2971 RMK AO2 T03050195", "KBEC 241915Z AUTO 36013KT 10SM OVC010 10/08 A2975 RMK AO2 T00960081", "KBED 241851Z 35004KT 5SM BR OVC006 15/14 A3022 RMK AO2 SLP245 T01500139", "KBEH 241853Z AUTO 15010G20KT 10SM CLR 23/13 A2989 RMK AO2 SLP119 T02280128", "KBFD 241853Z AUTO 14005KT 10SM CLR 22/11 A3014 RMK AO2 SLP202 T02220106", "KBFF 241853Z AUTO 31016G27KT 10SM FEW035 BKN048 OVC055 06/M03 A2989 RMK AO2 PK WND 32037/1809 SLP127 T00611028", "KBFI 241853Z 00000KT 3SM -RA BR SCT004 OVC012 10/09 A2997 RMK AO2 SLP147 P0002 T01000094", "KBFL 241854Z VRB04KT 9SM CLR 19/M02 A3022 RMK AO2 SLP229 T01891017", "KBFM 241853Z 16010KT 10SM OVC060 25/17 A3005 RMK AO2 SLP176 T02500172", "KBGD 241929Z AUTO 34016G26KT 5SM RA BR FEW023 BKN029 OVC034 08/06 A2984 RMK AO2 PK WND 34026/1928 LTG DSNT S P0012 T00780056", "KBGE 241915Z AUTO 15005KT 10SM SCT055 28/14 A3008 RMK AO2 T02790136", "KBGF 241935Z AUTO 19013KT 10SM CLR 24/05 A3005 RMK A01", "KBGM 241853Z 12007KT 10SM OVC005 14/13 A3016 RMK AO2 SLP212 T01440133", "KBGR 241853Z 02006KT 1 1/4SM -DZ BR OVC003 14/14 A3027 RMK AO2 SFC VIS 1 1/2 DZB29 SLP249 P0000 T01440139", "KBHB 241915Z AUTO 00000KT 1 1/2SM -RA BR OVC003 14/14 A3028 RMK AO2 PNO $", "KBHC 241915Z AUTO 06004KT 10SM CLR A3010 RMK AO2", "KBHK 241851Z AUTO 30023G32KT 10SM OVC013 00/M02 A2971 RMK AO2 PK WND 30037/1828 SLP083 T00001022", "KBHM 241853Z VRB06KT 10SM FEW250 25/07 A3011 RMK AO2 SLP191 T02500072", "KBID 241933Z AUTO 05008KT 1/2SM FG OVC002 14/14 A3018 RMK AO2", "KBIE 241915Z AUTO 35005KT 10SM -RA SCT016 SCT037 OVC090 09/07 A2973 RMK AO2 P0001 T00900069", "KBIF 241855Z AUTO 20024G34KT 10SM CLR 14/M04 A2996 RMK AO2 PK WND 34034/42 SLP101 T01401042 $", "KBIH 241856Z AUTO VRB04KT 10SM CLR 14/M14 A3021 RMK AO2 SLP213 T01441144", "KBIJ 241915Z AUTO 00000KT 10SM CLR 27/09 A3008 RMK AO2", "KBIL 241853Z 27029G38KT 10SM FEW080 FEW120 09/M05 A2980 RMK AO2 PK WND 26038/1851 SLP103 T00891050", "KBIS 241852Z 29014G28KT 9SM OVC017 02/M01 A2954 RMK AO2 PK WND 27029/1756 UPB03E20SNE03 SLP015 P0001 T00171006", "KBIV 241853Z AUTO 18014G20KT 10SM CLR 23/13 A2991 RMK AO2 SLP127 T02330128", "KBIX 241930Z AUTO 13013KT 10SM BKN023 BKN028 BKN075 27/19 A2999 RMK AO2 CIG 023V075 SLP158", "KBJC 241847Z 32007KT 10SM FEW020 09/M14 A2987", "KBJI 241915Z AUTO 20015G24KT 10SM OVC023 08/03 A2944 RMK AO2 T00800025", "KBJJ 241856Z AUTO 17009KT 10SM CLR 23/07 A3010 RMK AO2 SLP192 T02330072", "KBKB 241852Z AUTO 16007KT 080V210 10SM SCT040 BKN049 OVC080 28/18 A2987 RMK AO2 SLP139 T02780178", "KBKD 241935Z AUTO 00000KT 10SM BKN021 OVC090 22/16 A2973 RMK AO2 T02160156", "KBKE 241934Z AUTO 11010KT 1 3/4SM -SN BR OVC018 01/M01 A3007 RMK AO2 P0001 T00111006", "KBKF 241858Z 01003KT 10SM FEW090 FEW220 08/M13 A2986 RMK AO2A SLP106 T00801130", "KBKL 241853Z 17008KT 10SM CLR 25/07 A3006 RMK AO2 SLP176 T02500072", "KBKS 241935Z AUTO 15014KT 9SM FEW042 33/23 A2969 RMK AO2 SLP014 T03340226 $", "KBKT 241935Z AUTO 03004KT 10SM CLR 23/12 A3010 RMK AO1 T02250124", "KBKV 241853Z VRB03KT 10SM CLR 31/18 A3006 RMK AO2 SLP177 T03060183", "KBKW 241851Z AUTO 00000KT 10SM CLR 22/02 A3016 RMK AO2 SLP195 T02170022", "KBKX 241856Z AUTO 25020G24KT 10SM CLR A2965 RMK AO2 SLPNO FZRANO $", "KBLF 241852Z AUTO VRB04KT 10SM CLR 21/03 A3017 RMK AO2 SLP198 T02110028", "KBLH 241852Z AUTO 36010G23KT 10SM CLR 22/M09 A3019 RMK AO2 SLP219 T02171089 TSNO", "KBLI 241853Z 17009KT 10SM SCT016 12/09 A2990 RMK AO2 SLP133 T01170094", "KBLM 241856Z AUTO 03008KT 1 1/4SM BR OVC002 A3013 RMK AO2 RAB01E27UPB10E39 SLPNO P0000 FZRANO $", "KBLU 241852Z AUTO 28006KT 10SM CLR 12/M10 A3028 RMK AO2 SLP223 T01221100", "KBLV 241855Z 17016G23KT 10SM FEW035 SCT065 BKN080 OVC200 23/14 A2985 RMK AO2A PK WND 16027/32 SLP108 T02330140 $", "KBMC 241910Z AUTO 10SM OVC045 06/M04 A3022 RMK AO1 T00621044", "KBMG 241853Z 16012KT 10SM CLR 25/09 A2998 RMK AO2 SLP145 T02500094", "KBMI 241856Z 18024G29KT 10SM FEW060 24/14 A2984 RMK AO2 PK WND 17030/1801 SLP099 T02390144", "KBML 241924Z AUTO 35003KT 10SM FEW018 OVC090 17/13 A3024 RMK AO2 T01720128", "KBMQ 241853Z AUTO 33004KT 10SM BKN022 OVC028 23/20 A2976 RMK AO2 SLP061 T02330200", "KBMT 241915Z AUTO 17015G24KT 10SM SCT039 SCT065 BKN085 30/19 A2984 RMK AO2 T02960186", "KBNA 241853Z 18007G17KT 10SM FEW180 BKN250 27/03 A3004 RMK AO2 SLP165 T02670028", "KBNL 241935Z AUTO 02004KT 10SM CLR 25/06 A3012 RMK AO2", "KBNO 241911Z AUTO 00000KT 10SM OVC031 05/M02 A3012 RMK AO2 T00501022", "KBNW 241935Z AUTO 31010KT 4SM RA FEW028 SCT065 BKN095 10/08 A2974 RMK AO2", "KBOI 241853Z 11009KT 10SM FEW070 OVC090 09/M03 A3015 RMK AO2 SLP218 T00891033", "KBOK 241924Z AUTO 15005KT 3SM -RA BR OVC003 09/09 A3026 RMK AO2 CIG 002V007 P0000 $", "KBOS 241854Z 02006KT 7SM OVC007 16/14 A3023 RMK AO2 SLP235 T01560144", "KBOW 241850Z 36010KT 10SM SCT050 29/18 A3004", "KBPG 241915Z AUTO 23018G23KT 7SM SCT075 SCT085 25/07 A2973 RMK AO2 T02500071", "KBPI 241853Z AUTO 31016G22KT 10SM CLR 04/M13 A3002 RMK AO2 PK WND 35027/1817 SLP161 T00391128", "KBPK 241853Z AUTO 21013G20KT 10SM FEW038 SCT100 24/15 A2980 RMK AO2 RAE05 SLP080 P0000 T02390150", "KBPT 241853Z 17018G30KT 10SM SCT085 29/20 A2986 RMK AO2 PK WND 16030/1847 SLP112 T02940200", "KBQK 241915Z AUTO 09006KT 10SM CLR 24/11 A3011 RMK AO2 T02420109", "KBQP 241910Z AUTO 16010G18KT 10SM CLR 28/14 A2990 RMK AO2 T02800140", "KBQX 241915Z AUTO 17023KT 7SM BKN049 27/21 A2981 RMK A01", "KBRD 241901Z AUTO 22019G32KT 10SM BKN031 11/04 A2956 RMK AO2 PK WND 21032/1900 T01110039", "KBRG 241935Z AUTO 32025G33KT 10SM BKN065 09/M07 A2998 RMK AO2 LTG DSNT E T00921074", "KBRL 241853Z AUTO 16014G24KT 10SM OVC034 22/15 A2971 RMK AO2 SLP056 T02220150", "KBRO 241931Z 18019G26KT 10SM BKN027 BKN036 OVC048 31/23 A2977 RMK AO2 PK WND 18028/1854 T03060228", "KBRY 241935Z AUTO 14008KT 10SM FEW310 27/02 A2999 RMK AO2 T02690025", "KBTA 241935Z AUTO 32003KT 10SM -RA SCT037 SCT050 BKN090 08/06 A2972 RMK AO2 P0001 T00760055", "KBTL 241853Z 19012G21KT 10SM CLR 24/12 A2998 RMK AO2 SLP147 T02440122", "KBTM 241853Z AUTO 04004KT 10SM BKN060 04/M07 A2992 RMK AO2 SLP146 T00391067", "KBTP 241856Z AUTO VRB04KT 10SM CLR 21/07 A3013 RMK AO2 SLP207 T02110067 TSNO", "KBTR 241853Z 17016KT 10SM CLR 31/16 A2994 RMK AO2 SLP137 T03060156", "KBTV 241854Z 00000KT 10SM SCT032 BKN120 18/13 A3020 RMK AO2 SLP227 T01830133", "KBUF 241854Z 00000KT 10SM FEW250 23/11 A3011 RMK AO2 SLP196 T02280111", "KBUR 241853Z 12005KT 10SM CLR 22/M01 A3015 RMK AO2 SLP200 T02171006", "KBUU 241915Z AUTO 17006KT 10SM CLR 21/13 A2980 RMK AO2 T02110127 PWINO", "KBUY 241854Z AUTO 34005KT 10SM CLR 24/09 A3012 RMK AO2 SLP196 T02440089", "KBVI 241935Z AUTO 13004KT 10SM CLR 25/04 A3010 RMK AO2 T02470043", "KBVN 241915Z AUTO 30007KT 10SM CLR 09/00 A2975 RMK AO2 T00941004", "KBVO 241909Z AUTO 04009KT 4SM RA BR FEW008 BKN090 OVC110 12/12 A2969 RMK AO2 PRESFR P0003 T01220117", "KBVS 241915Z AUTO VRB03KT 10SM BKN016 OVC022 11/10 A2994 RMK A01", "KBVU 241935Z AUTO 35012KT 10SM CLR 16/M10 A3025 RMK AO2", "KBVX 241856Z AUTO 18011G20KT 10SM CLR 26/16 A2985 RMK AO2 SLP105 T02610156", "KBVY 241853Z 36010KT 10SM OVC005 14/14 A3021 RMK AO2 SLP225 T01440139", "KBWG 241853Z AUTO 19012KT 10SM CLR 26/04 A3003 RMK AO2 SLP165 T02610039", "KBWI 241854Z 36007KT 10SM BKN014 OVC020 17/14 A3011 RMK AO2 SLP196 T01720139", "KBWP 241935Z AUTO 25025G31KT 10SM OVC029 08/01 A2953 RMK AO2", "KBWW 241935Z AUTO 31026G34KT 10SM OVC014 00/M00 A2963 RMK AO2", "KBXA 241935Z AUTO 18008KT 10SM CLR 31/15 A2997 RMK AO2 T03070147", "KBXK 241935Z AUTO VRB05KT 10SM CLR 19/M07 A3014 RMK A01", "KBYG 241853Z AUTO 00000KT 10SM OVC036 04/M03 A2983 RMK AO2 SLP116 T00391033", "KBYI 241853Z AUTO 26015G22KT 10SM SCT085 07/M05 A3015 RMK AO2 PK WND 25027/1814 SLP216 T00721050", "KBYL 241915Z AUTO 16008KT 10SM CLR 24/03 A3009 RMK AO1", "KBYS 241855Z AUTO 36005KT 10SM CLR 15/M13 A3022 RMK AO2 SLP226 T01471126", "KBYY 241915Z AUTO 18019G27KT 10SM BKN035 OVC044 27/20 A2981 RMK AO2 T02760198", "KBZN 241856Z 06006KT 10SM SCT085 04/M05 A2994 RMK AO2 SLP159 T00391050", "KC07 241935Z AUTO 29010G20KT 240V310 OVC001 A2999 RMK AO2 PWINO", "KC09 241935Z AUTO 17015G23KT 10SM BKN060 25/14 A2980 RMK AO2 T02460140", "KC29 241935Z AUTO 19011KT 10SM BKN050 BKN065 22/14 A2974 RMK AO1 T02210143", "KC35 241915Z AUTO 17010G17KT 10SM SCT034 BKN055 BKN070 21/14 A2971 RMK AO2 T02090142 PWINO", "KC65 241915Z AUTO 15008KT 10SM CLR 22/10 A2994 RMK A01", "KC75 241915Z AUTO 18014G20KT 10SM SCT065 24/16 A2978 RMK AO2 T02400155", "KC83 241935Z AUTO 35009KT 10SM CLR 21/M03 A3021 RMK AO2", "KC99 241911Z AUTO 31022G33KT 7SM BKN008 BKN016 M08/M13 A2988 RMK AO2", "KCAD 241935Z AUTO 17009G14KT 10SM CLR 21/12 A2989 RMK AO2 T02050115", "KCAE 241856Z 00000KT 10SM FEW150 23/08 A3013 RMK AO2 SLP201 T02330078", "KCAG 241853Z AUTO 26010KT 10SM OVC065 01/M04 A3010 RMK AO2 SLP219 T00061044", "KCAK 241851Z 16007KT 10SM FEW250 24/06 A3009 RMK AO2 SLP187 T02440061", "KCAO 241855Z AUTO 05018G28KT 10SM BKN042 OVC050 07/M04 A2985 RMK AO2 PK WND 04030/1813 SLP085 T00671044", "KCAR 241854Z AUTO 31003KT 4SM -RA BR OVC090 14/12 A3032 RMK AO2 RAB29 SLP274 P0002 T01440122", "KCAV 241915Z AUTO 29012KT 10SM FEW095 11/05 A2972 RMK A01", "KCBE 241915Z AUTO 30003KT 10SM CLR 23/11 A3013 RMK AO2 T02340114", "KCBF 241915Z AUTO 33004KT 4SM BR CLR 08/07 A2971 RMK AO2", "KCBG 241935Z AUTO 00000KT 10SM CLR 13/03 A2964 RMK AO2", "KCBK 241915Z AUTO 34020G30KT 10SM CLR 13/M05 A2983 RMK AO2 T01251052", "KCBM 241855Z 16011G19KT 10SM CLR 27/13 A3002 RMK AO2A SLP247 ALSTG/SLP ESTMD T02660133 $", "KCCA 241935Z AUTO 16010G19KT 10SM SCT070 BKN090 25/15 A2980 RMK AO2", "KCCB 241935Z AUTO VRB04KT 10SM CLR 20/M04 A3016 RMK AO2", "KCCO 241915Z AUTO 00000KT 10SM CLR 25/09 A3012 RMK AO2 T02450093", "KCCR 241853Z 03004KT 10SM CLR 22/M03 A3022 RMK AO2 SLP218 T02171028", "KCCU 241915Z AUTO 30008KT 1SM -SN BKN004 OVC012 M09/M12 A2996 RMK AO2", "KCCY 241935Z AUTO 29007KT 4SM -RA OVC024 11/11 A2969 RMK AO2", "KCDA 241935Z AUTO 15003KT 10SM 18/12 A3024 RMK AO2 T01810117", "KCDC 241853Z AUTO 02009KT 10SM CLR 03/M04 A3025 RMK AO2 SLP257 T00281039", "KCDD 241913Z AUTO 18008G20KT 160V220 10SM CLR 18/05 A2939 RMK AO2", "KCDH 241935Z AUTO 16014G23KT 9SM FEW050 29/17 A2980 RMK AO2", "KCDI 241935Z AUTO 08003KT 7SM CLR 24/08 A3008 RMK AO2 T02420077", "KCDJ 241851Z AUTO 13/13 A2968 RMK AO1 SLP045 P0047 T01330128", "KCDN 241935Z AUTO 29006KT 10SM CLR 24/08 A3012 RMK AO2", "KCDR 241928Z AUTO 29016G33KT 1/2SM SN FG VV010 01/M01 A2986 RMK AO2 PK WND 28033/1921 P0001 T00061011", "KCDS 241853Z AUTO 12008KT 10SM FEW022 SCT048 BKN060 18/12 A2974 RMK AO2 SLP052 T01830122", "KCDW 241928Z 05004KT 1 3/4SM BR OVC006 16/14 A3015 RMK AO2 T01560139", "KCEC 241856Z AUTO 16013G21KT 6SM HZ OVC024 13/08 A3025 RMK AO2 RAB11E55 SLP245 P0001 T01280083", "KCEF 241929Z 36007KT 5SM BR BKN005 OVC013 13/13 A3015 RMK AO2A PRESFR SLP216", "KCEU 241854Z AUTO 15003KT 10SM CLR 22/04 A3014 RMK AO2 SLP202 T02220044", "KCEW 241853Z AUTO VRB04KT 10SM CLR 29/12 A3007 RMK AO2 SLP181 T02940122", "KCEY 241935Z AUTO 17012G18KT 10SM CLR 26/02 A2995 RMK A01", "KCEZ 241853Z AUTO 34012G28KT 10SM BKN055 05/M09 A3010 RMK AO2 PK WND 33028/1846 SLP180 T00501094 $", "KCFD 241915Z AUTO 16014G20KT 10SM OVC034 27/19 A2977 RMK AO2 T02690190", "KCFE 241935Z AUTO 22012G18KT 10SM CLR 11/04 A2966 RMK AO2", "KCFJ 241935Z AUTO 18014G18KT 10SM CLR 23/07 A2994 RMK AO2 T02320071", "KCFS 241915Z AUTO 18013G18KT 10SM CLR 25/06 A2999 RMK AO2 T02500055", "KCFV 241914Z AUTO 01009G18KT 4SM BR FEW007 BKN075 OVC095 12/11 A2969 RMK AO2 PRESFR T01220111 PWINO $", "KCGC 241935Z AUTO 35004KT 10SM CLR 28/16 A3005 RMK AO2", "KCGE 241915Z AUTO 32006KT 9SM OVC006 15/15 A3011 RMK A01", "KCGF 241845Z 18007KT 20SM CLR 24/08 A3008", "KCGI 241853Z 17011G20KT 10SM OVC065 25/12 A2990 RMK AO2 PK WND 19026/1803 SLP122 T02500122", "KCGS 241915Z AUTO 01005KT 10SM OVC017 17/14 A3013 RMK AO2 T01670137", "KCGZ 241856Z AUTO 10SM CLR 18/M04 RMK AO2 SLPNO T01781039 $", "KCHA 241853Z VRB05KT 10SM FEW200 SCT250 25/08 A3010 RMK AO2 SLP188 T02500078", "KCHD 241847Z VRB05KT 10SM CLR 16/M06 A3012", "KCHK 241920Z AUTO 36011G17KT 10SM OVC013 15/11 A2973 RMK AO2 T01490114", "KCHO 241853Z 00000KT 10SM CLR 24/10 A3010 RMK AO2 SLP188 T02440100", "KCHS 241856Z 32005KT 10SM FEW250 24/08 A3012 RMK AO2 SLP197 T02390078", "KCIC 241847Z 15003KT 10SM CLR 19/M04 A3020", "KCID 241852Z 16010KT 10SM BKN034 BKN047 BKN065 23/15 A2965 RMK AO2 SLP034 T02280150", "KCIN 241915Z AUTO 31009KT 7SM -RA CLR 08/08 A2972 RMK AO2", "KCIR 241935Z AUTO 20011G16KT 10SM CLR 27/09 A2991 RMK AO2 T02660090", "KCIU 241856Z AUTO 14014KT 10SM CLR 18/11 A2991 RMK AO2 SLP127 T01780111", "KCJR 241935Z AUTO 09004KT 10SM BKN038 22/13 A3011 RMK AO2 T02190130", "KCKB 241853Z VRB03KT 10SM CLR 24/04 A3012 RMK AO2 SLP192 T02390044", "KCKC 241915Z AUTO 17008G16KT 10SM SCT027 SCT031 BKN037 16/14 A2952 RMK AO2", "KCKF 241915Z AUTO 19003KT 10SM CLR 27/10 A3010 RMK AO2 T02660095", "KCKI 241935Z AUTO 03004KT 10SM CLR 21/11 A3012 RMK AO2", "KCKM 241935Z AUTO 16017G22KT 10SM CLR 28/12 A2989 RMK A01", "KCKN 241915Z AUTO 22022G34KT 10SM CLR 08/02 A2938 RMK AO2", "KCKP 241915Z AUTO 23003KT 10SM -RA SCT043 BKN050 OVC060 07/03 A2973 RMK AO2 T00700032", "KCKV 241852Z AUTO 18010G19KT 10SM CLR 27/07 A3000 RMK AO2 SLP153 T02670067", "KCKZ 241935Z AUTO 03005KT 1 1/2SM BR OVC004 15/15 A3014 RMK AO2", "KCLE 241851Z 19009KT 10SM FEW250 24/07 A3006 RMK AO2 SLP191 T02440067", "KCLI 241935Z AUTO 19012KT 10SM OVC048 21/14 A2974 RMK AO2 T02060138", "KCLK 241935Z AUTO 07007KT 10SM SCT022 BKN044 OVC055 15/09 A2976 RMK AO2", "KCLL 241853Z 17020G30KT 10SM OVC035 27/19 A2976 RMK AO2 PK WND 17030/1844 SLP073 T02720189", "KCLM 241853Z AUTO 27011G22KT 10SM SCT050 BKN060 14/07 A2994 RMK AO2 SLP138 T01440067", "KCLS 241935Z AUTO 15010KT 10SM FEW029 BKN048 BKN070 11/09 A3003 RMK AO2", "KCLT 241852Z 00000KT 10SM FEW250 22/09 A3014 RMK SLP204 T02220094", "KCLW 241935Z AUTO 34007KT 10SM CLR 26/18 A3004 RMK AO2", "KCMA 241855Z 07015G28KT 10SM CLR 24/M08 A3016 RMK AO2 PK WND 08033/1806 SLP220 T02441078", "KCMD 241915Z AUTO 18011KT 10SM CLR 25/05 A3008 RMK AO2", "KCMH 241851Z 17007KT 10SM SCT250 24/06 A3007 RMK AO2 SLP181 T02440061 $", "KCMI 241853Z 16020G27KT 10SM CLR 26/13 A2989 RMK AO2 PK WND 16029/1816 SLP116 T02560128", "KCMR 241935Z AUTO VRB04KT 10SM CLR 07/M11 A3019 RMK AO2", "KCMX 241853Z AUTO 17010KT 10SM SCT023 20/14 A2960 RMK AO2 PK WND 18026/1831 SLP020 T02000144", "KCMY 241858Z AUTO 18009G20KT 9SM FEW036 OVC060 21/15 A2968 RMK AO2 SLP050 T02100149 $", "KCNB 241935Z AUTO 22012G19KT 10SM CLR 09/00 A2965 RMK AO2 T00900001", "KCNC 241915Z AUTO 34015KT 4SM RA FEW008 BKN021 OVC032 10/10 A2968 RMK AO2", "KCNI 241915Z AUTO 17003KT 10SM CLR 24/07 A3013 RMK AO2 T02440075", "KCNK 241855Z AUTO 33008KT 10SM SCT085 OVC110 11/04 A2975 RMK AO2 RAE04 SLP069 P0000 T01060044", "KCNM 241853Z AUTO 24015G21KT 10SM OVC095 12/03 A2988 RMK AO2 RAB1755E21 SLP082 P0001 T01170028", "KCNO 241853Z 00000KT 10SM CLR 23/01 A3017 RMK AO2 SLP212 T02280006", "KCNU 241929Z AUTO 01006KT 6SM -RA BR FEW005 BKN055 OVC080 12/11 A2972 RMK AO2 P0004 T01220111 $", "KCNW 241856Z 32012KT 3SM -RA OVC006 20/17 A2977", "KCNY 241853Z AUTO 30006KT 10SM CLR 07/M04 A3013 RMK AO2 SLP206 T00671039", "KCOD 241856Z AUTO 26016G27KT 10SM CLR 07/M11 A2984 RMK AO2 PK WND 26031/1832 SLP111 T00721106", "KCOE 241856Z AUTO 19010KT 10SM -RA OVC018 03/02 A2993 RMK AO2 SLP168 T00280017 PNO $", "KCOF 241855Z AUTO 04008KT 10SM CLR 27/27 A3004 RMK AO2 SLP177 T02710269", "KCOM 241915Z AUTO 15006KT SCT070 SCT080 SCT110 22/15 A2975 RMK AO2 T02160150 PWINO", "KCON 241931Z AUTO 00000KT 10SM -RA SCT005 OVC028 14/14 A3024 RMK AO2 RAE15B25 P0003 T01440139", "KCOQ 241935Z AUTO 20011G16KT 10SM CLR 15/06 A2953 RMK AO2 TSNO", "KCOS 241854Z 22003KT 10SM SCT045 SCT250 07/M06 A2989 RMK AO2 SLP121 T00671056", "KCOT 241853Z AUTO 19010G15KT 6SM HZ CLR 33/21 A2970 RMK AO2 SLP050 T03280206", "KCOU 241854Z 15018G26KT 10SM BKN030 OVC080 23/16 A2972 RMK AO2 PK WND 17027/1819 SLP057 T02280161", "KCPC 241915Z AUTO 33004KT 7SM CLR 24/13 A3011 RMK AO2 T02380132", "KCPF 241935Z AUTO 00000KT 10SM CLR 26/01 A3009 RMK AO2", "KCPK 241935Z AUTO 34003KT 16/12 A3011 RMK AO2 T01640123", "KCPR 241926Z 23019G24KT 10SM CLR 06/M04 A2986 RMK AO2 PK WND 25026/1859 T00561044", "KCPS 241853Z 16010G19KT 10SM BKN040 OVC050 23/14 A2984 RMK AO2 SLP101 T02330144 $", "KCPT 241935Z AUTO 07008KT 6SM BR FEW002 FEW006 BKN036 17/17 A2975 RMK A01", "KCPU 241915Z AUTO 00000KT 10SM CLR 20/M06 A3022 RMK AO2 T01951062", "KCPW 241915Z AUTO 30006KT 10SM CLR M09/M17 A3002 RMK AO2", "KCQB 241915Z AUTO 31008KT 10SM OVC007 13/12 A2975 RMK AO2 T01290120", "KCQC 241906Z AUTO 31020G28KT 5SM -SN BR BKN006 OVC012 00/M01 A2988 RMK AO2 PK WND 31028/1859 P0000 T00001011 FZRANO", "KCQF 241915Z AUTO 09008KT 10SM SCT042 SCT048 BKN065 25/17 A3004 RMK AO2", "KCQM 241936Z AUTO 22010G16KT 10SM SCT075 15/06 A2944 RMK AO2", "KCQT 241847Z AUTO 00000KT 10SM CLR 22/M01 A3016 RMK AO2 SLP210 T02171006 $", "KCQW 241935Z AUTO 31006KT 10SM CLR 24/10 A3010 RMK AO2 PWINO", "KCQX 241852Z AUTO 00000KT 10SM OVC003 19/17 A3020 RMK AO2 SLP229 T01890172", "KCRE 241853Z 36008KT 10SM OVC010 17/14 A3012 RMK AO1 SLP199 T01720144", "KCRG 241853Z 04008KT 360V070 10SM FEW028 24/17 A3011 RMK AO2 SLP196 T02440167", "KCRP 241851Z 17023G29KT 10SM SCT029 BKN033 BKN040 BKN160 BKN250 31/23 A2974 RMK AO2 PK WND 17030/1804 SLP069 T03110233", "KCRQ 241853Z AUTO VRB03KT 10SM CLR 23/M03 A3013 RMK AO2 SLP199 T02331033", "KCRS 241904Z AUTO 34011G19KT 3SM +RA BR FEW007 OVC013 17/16 A2977 RMK AO2 P0003 T01720161", "KCRW 241854Z 34005KT 10SM FEW200 25/04 A3010 RMK AO2 SLP189 T02500039", "KCRX 241935Z AUTO 16013G21KT 10SM CLR 25/12 A2996 RMK AO2", "KCSG 241851Z 17008KT 10SM CLR 26/13 A3010 RMK AO2 SLP190 T02560128", "KCSM 241853Z 04012KT 10SM SCT017 OVC044 14/10 A2977 RMK AO2 SLP064 T01440100", "KCSQ 241935Z AUTO 36008KT 3SM RA SCT037 SCT048 BKN055 09/08 A2970 RMK AO2", "KCSV 241853Z AUTO 18007KT 10SM CLR 21/06 A3012 RMK AO2 SLP190 T02110056", "KCTB 241856Z AUTO 25030G39KT 10SM CLR 02/M03 A2968 RMK AO2 PK WND 25039/1855 PRESFR SLP083 T00221028", "KCTJ 241915Z AUTO 21003KT 10SM CLR 23/09 A3015 RMK AO2 T02300085", "KCTY 241915Z AUTO 07006KT 10SM CLR 29/12 A3008 RMK AO2 T02920124", "KCTZ 241935Z AUTO 04003KT 10SM CLR 25/13 A3010 RMK AO2 T02470133", "KCUB 241853Z AUTO 00000KT 10SM CLR 25/08 A3014 RMK AO2 SLP205 T02500078", "KCUH 241915Z AUTO 31009KT 10SM OVC009 13/13 A2973 RMK AO2 T01260125", "KCUL 241916Z AUTO 17017G24KT 10SM CLR 27/08 A2992 RMK AO2", "KCUT 241853Z AUTO 28013G23KT 10SM OVC026 M01/M07 A2973 RMK AO2 PK WND 27028/1826 SLP090 T10111067", "KCVC 241935Z AUTO 21003KT 10SM CLR 24/08 A3012 RMK AO2", "KCVG 241852Z 18010KT 10SM FEW250 OVC300 24/05 A3005 RMK AO2 SLP169 T02390050", "KCVH 241935Z AUTO 00000KT 10SM CLR 20/M01 A3022 RMK A01", "KCVN 241856Z AUTO 00000KT 10SM OVC047 09/04 A2982 RMK AO2 RAE49 SLP079 P0000 T00890044", "KCVO 241932Z AUTO 16008KT 10SM -RA FEW020 BKN027 OVC044 12/11 A3012 RMK AO2 P0000", "KCVS 241910Z AUTO 00000KT 10SM BKN049 OVC070 09/06 A2978 RMK AO2 RAB00E10 PRESFR SLP051 $", "KCVX 241935Z AUTO 16006KT 10SM CLR 20/13 A2984 RMK AO2 T02020130", "KCWA 241847Z 16011KT 10SM SCT060 18/14 A2972", "KCWC 241935Z AUTO 11003KT 10SM BKN017 17/12 A2975 RMK AO2 T01690122", "KCWF 241852Z 18020G26KT 10SM BKN047 29/19 A2990", "KCWI 241856Z AUTO 16012KT 10SM BKN055 22/15 A2974 RMK AO2 SLP069 T02170150", "KCWN 241915Z AUTO 15006KT 10SM SCT028 BKN042 02/M05 A2929 RMK AO2 SLP826 $", "KCWV 241915Z AUTO 01003KT 10SM CLR 26/09 A3011 RMK AO2 T02600089", "KCXE 241935Z AUTO 00000KT 10SM CLR 23/11 A3010 RMK AO1 T02250106", "KCXO 241853Z 19014G31KT 8SM -RA BKN035 OVC041 24/21 A2981 RMK AO2 PK WND 19031/1848 RAB43 SLP091 P0000 T02390206", "KCXP 241935Z AUTO 00000KT 10SM CLR 10/M11 A3028 RMK AO2", "KCXU 241935Z AUTO 00000KT 10SM CLR 28/09 A3008 RMK AO1 T02770085", "KCXW 241930Z AUTO 17016G25KT 10SM FEW049 FEW055 27/15 A2978 RMK A01", "KCXY 241856Z 32004KT 10SM OVC014 17/13 A3013 RMK AO2 SLP204 T01720128", "KCYD 241913Z AUTO 11010KT 10SM OVC050 26/22 A3001 RMK A02 T02570218", "KCYS 241853Z 31018G31KT 10SM FEW095 SCT110 04/M09 A2986 RMK AO2 PK WND 30034/1759 SLP111 T00441089", "KCZL 241935Z AUTO 17005KT 10SM CLR 26/09 A3011 RMK AO2", "KCZT 241915Z AUTO 18006KT 10SM CLR 33/19 A2968 RMK AO2", "KD07 241856Z AUTO 30020G28KT 00/M01 A2968 RMK AO1 PK WND 29030/1841 SLP076 P0002 T00001011", "KD25 241935Z AUTO 18008G15KT 10SM DZ OVC017 17/15 A2964 RMK AO2 T01700147", "KD39 241915Z AUTO 22017G22KT 10SM SCT026 SCT032 08/02 A2960 RMK AO2 T00800024", "KD50 241935Z AUTO 32024KT 10SM OVC008 M01/M02 A2958 RMK AO2", "KD55 241935Z AUTO 29019KT 1 3/4SM BR BKN007 OVC013 04/04 A2929 RMK AO2", "KD57 241935Z AUTO 31022G35KT 4SM -SN BKN015 BKN021 M00/M03 A2957 RMK AO2", "KD60 241935Z AUTO 31024G33KT 5SM BR OVC007 M02/M01 A2957 RMK AO2", "KD73 241915Z AUTO 36006KT 10SM CLR 24/09 A3013 RMK AO2 T02410089", "KD95 241935Z AUTO 18013G19KT 10SM CLR 24/M01 A3001 RMK AO2 T02421006", "KDAA 241855Z AUTO 32003KT 10SM OVC024 19/13 A3010 RMK AO2 SLP196 T01850129", "KDAB 241853Z 01011KT 10SM FEW033 SCT046 27/17 A3009 RMK AO2 SLP187 T02670167", "KDAG 241850Z AUTO 01011G17KT 10SM CLR 17/M12 A3025 RMK AO2 SLP232 T01721117", "KDAL 241928Z VRB04KT 4SM RA BR FEW008 SCT017 OVC047 17/17 A2975 RMK AO2 P0008 T01720167", "KDAN 241853Z AUTO 00000KT 10SM CLR 23/09 A3012 RMK AO2 SLP191 T02280089", "KDAW 241851Z AUTO 01003KT 10SM -RA OVC006 15/13 A3024 RMK AO2 RAB11 SLP238 P0000 T01500133", "KDAY 241856Z 20012KT 10SM BKN230 23/04 A3006 RMK AO2 SLP176 T02330044", "KDBN 241915Z AUTO 11004KT 10SM CLR 26/08 A3014 RMK AO2", "KDBQ 241853Z 18015G23KT 10SM SCT060 21/16 A2971 RMK AO2 SLP057 T02110156", "KDCA 241852Z 36009KT 10SM OVC019 18/13 A3013 RMK AO2 SLP202 T01780133", "KDCM 241935Z AUTO 00000KT 10SM CLR 22/07 A3014 RMK AO2", "KDCU 241853Z AUTO 18011G16KT 10SM CLR 26/05 A3007 RMK AO2 SLP177 T02560050", "KDCY 241915Z AUTO 17014KT 10SM CLR 25/10 A2995 RMK AO2 T02480095", "KDDC 241852Z AUTO 01024G31KT 10SM CLR 14/M03 A2980 RMK AO2 PK WND 02035/1841 SLP075 T01441028", "KDDH 241928Z AUTO 21003KT 10SM BKN021 BKN042 OVC070 17/13 A3019 RMK AO2 RAE19 P0003 T01720128", "KDEC 241854Z 19022G32KT 10SM FEW048 SCT065 24/14 A2986 RMK AO2 PK WND 19033/1843 SLP108 T02440144", "KDED 241915Z AUTO 36008KT 10SM SCT050 26/18 A3008 RMK AO2 T02640177", "KDEH 241935Z AUTO 29007G13KT 250V330 9SM -RA OVC020 17/14 A2965 RMK AO2", "KDEN 241853Z VRB04KT 10SM FEW080 FEW120 SCT220 09/M11 A2987 RMK AO2 SLP097 T00941106", "KDEQ 241853Z AUTO 18010G25KT 10SM FEW060 SCT080 26/16 A2973 RMK AO2 SLP062 T02560156", "KDET 241853Z 18014KT 8SM CLR 25/06 A3003 RMK AO2 SLP169 T02500061", "KDEW 241853Z AUTO 9SM BKN006 OVC010 03/02 A2992 RMK AO2 RAE1759B19E26SNB1759E53 SLP147 P0002 T00280017", "KDFI 241853Z AUTO 19014G22KT 10SM CLR 26/07 A3001 RMK AO2 SLP161 T02560072", "KDFW 241921Z 15005KT 4SM -RA BR FEW008 BKN045 OVC060 17/16 A2972 RMK AO2 RAB1858 P0011 T01720161", "KDGW 241853Z AUTO 28017G32KT 10SM BKN120 05/M05 A2987 RMK AO2 PK WND 29035/1802 SLP122 T00501050", "KDHN 241853Z 10SM CLR 28/13 A3011 RMK AO2 SLP193 T02780128", "KDHT 241853Z AUTO 05016G27KT 10SM SCT049 BKN060 OVC070 07/02 A2984 RMK AO2 PK WND 05027/1844 SLP082 T00720017", "KDIJ 241856Z AUTO 20010G14KT 10SM OVC030 02/M04 A3011 RMK AO2 SLP226 T00171044", "KDIK 241856Z AUTO 30026G37KT 10SM UP OVC013 M01/M03 A2957 RMK AO2 PK WND 29037/1759 UPB39SNE39 SLP036 P0000 T10061028", "KDKB 241915Z AUTO 17017G21KT 10SM CLR 23/15 A2981 RMK AO2 T02260145", "KDKK 241853Z AUTO 05007KT 10SM CLR 22/09 A3011 RMK AO2 SLP193 T02170094", "KDKR 241915Z AUTO 16014G20KT 4SM -RA HZ SCT023 BKN028 OVC042 24/22 A2977 RMK AO2", "KDKX 241935Z AUTO 13003KT 10SM 25/03 A3009 RMK A01", "KDLF 241855Z AUTO 15010KT 10SM CLR 28/20 A2968 RMK AO2 SLP038 T02840204 $", "KDLH 241855Z 20017G29KT 10SM SCT025 SCT045 19/07 A2951 RMK AO2 PK WND 20029/1855 SLP994 T01890067", "KDLL 241935Z AUTO 18008G16KT 10SM SCT034 BKN050 BKN075 20/14 A2972 RMK AO2 T02000137", "KDLN 241853Z AUTO 21017G24KT 10SM OVC065 02/M06 A2993 RMK AO2 SLP163 T00171056 $", "KDLO 241915Z AUTO 00000KT 10SM CLR 18/M02 A3023 RMK AO2 T01761017", "KDLS 241907Z AUTO 00000KT 10SM -RA SCT010 BKN029 OVC090 11/07 A3000 RMK AO2 P0000 T01110072", "KDLZ 241935Z AUTO 17008KT 7SM CLR 22/04 A3008 RMK AO2", "KDMA 241855Z AUTO 27010KT 10SM CLR 16/M07 A3011 RMK AO2 SLP174 T01611069 $", "KDMH 241854Z AUTO 17/13 A3012 RMK AO1 SLP200 T01720133", "KDMN 241853Z AUTO 31017G34KT 10SM CLR 13/M07 A3005 RMK AO2 PK WND 28037/1840 SLP132 T01331067", "KDMO 241921Z AUTO 16011KT 2 1/2SM RA BR BKN009 BKN024 OVC035 19/18 A2969 RMK AO2 P0017 T01940178", "KDMW 241910Z AUTO 36003KT 10SM OVC006 16/15 A3014 RMK AO2 LTG DSNT SE", "KDNA 241935Z AUTO 28024G34KT 10SM CLR 15/M08 A3000 RMK AO2", "KDNL 241853Z AUTO 07003KT 10SM CLR 24/06 A3013 RMK AO2 SLP200 T02440061", "KDNN 241935Z AUTO 14005KT 10SM CLR 26/07 A3009 RMK AO2 T02550074", "KDNV 241915Z AUTO 17011G20KT 10SM CLR 24/12 A2992 RMK AO2 T02370122", "KDOV 241933Z 31006KT 5SM BR OVC006 15/15 A3008 RMK AO2A TWR VIS 1/2 DZB02E09RAB09E27DZB27E30 CIG 004 RWY14 CIG 004 RWY19 SLP190", "KDPA 241852Z 16012G22KT 10SM CLR 22/13 A2982 RMK AO2 SLP094 T02220133", "KDPG 241855Z 33004KT 50SM FEW050 06/M07 A3027 RMK SLP246 T00601071", "KDPL 241915Z AUTO 35004KT 10SM CLR 24/14 A3009 RMK AO2", "KDQH 241915Z AUTO 00000KT 10SM CLR 26/09 A3012 RMK AO2 T02600085", "KDRA 241853Z AUTO 03008KT 10SM CLR 13/M11 A3026 RMK AO2 SLP229 T01331106", "KDRI 241935Z AUTO 18016G22KT 9SM SCT060 OVC080 29/16 A2987 RMK AO2 PK WND 17028/1854 T02890165 $", "KDRM 241935Z AUTO 15010G19KT 10SM CLR 15/09 A2992 RMK AO2 T01540091", "KDRO 241853Z AUTO 33021G30KT 290V360 10SM CLR 07/M13 A2995 RMK AO2 PK WND 30030/1851 SLP139 T00721128 $", "KDRT 241853Z AUTO 12009KT 10SM CLR 29/21 A2969 RMK AO2 SLP044 T02890206", "KDSF 241915Z AUTO 08018KT 26/21 RMK A01", "KDSM 241920Z 33007KT 3SM -RA BR FEW014 BKN055 OVC070 10/09 A2971 RMK AO2 SFC VIS 4 PRESFR P0013 T01000094", "KDSV 241854Z AUTO 00000KT 8SM CLR 23/11 A3012 RMK AO2 SLP206 T02280106", "KDTA 241935Z AUTO 16009KT 10SM CLR 04/M03 A3026 RMK AO1", "KDTL 241935Z AUTO 23017G31KT 10SM OVC023 07/02 A2950 RMK AO2", "KDTN 241853Z AUTO 15015G22KT 10SM SCT042 BKN049 OVC055 27/17 A2983 RMK AO2 PK WND 16026/1813 SLP099 T02670167", "KDTO 241900Z AUTO 11005KT 10SM -RA OVC085 17/16 A2974", "KDTS 241853Z 12010KT 10SM CLR 27/18 A3007 RMK AO2 SLP182 T02720178", "KDTW 241853Z 16014KT 10SM BKN240 24/07 A3003 RMK AO2 SLP168 T02440072", "KDUA 241935Z AUTO 05003KT 10SM RA SCT060 BKN070 OVC080 15/14 A2975 RMK AO2", "KDUB 241916Z AUTO 30032G41KT 10SM CLR 02/M12 A2990 RMK AO2", "KDUC 241915Z AUTO 02010KT 10SM OVC012 15/12 A2976 RMK AO2 T01500123", "KDUH 241935Z AUTO 18009KT 130V190 10SM CLR 25/04 A3002 RMK AO2 T02460036", "KDUJ 241853Z AUTO 00000KT 10SM CLR 23/11 A3012 RMK AO2 SLP196 T02280106", "KDUX 241915Z AUTO 02012G18KT 10SM SCT005 SCT011 BKN023 05/03 A2982 RMK AO2 T00520034", "KDVK 241910Z AUTO 20006KT 140V230 10SM CLR 23/03 A3008 RMK AO2", "KDVL 241907Z AUTO 29017KT 5SM -RA BR BKN010 OVC014 04/03 A2935 RMK AO2 CIG 007V013 P0000", "KDVN 241852Z AUTO 15008G17KT 10SM FEW060 22/14 A2973 RMK AO2 SLP061 T02220144", "KDVO 241915Z AUTO VRB04KT 10SM CLR 22/02 A3021 RMK AO2", "KDVP 241933Z AUTO 25016G19KT 10SM BKN110 07/M01 A2967 RMK AO2 T00671012", "KDVT 241853Z 10SM CLR 19/M07 A3012 RMK AO2 SLP185 T01891067", "KDWA 241935Z AUTO 35006KT 10SM CLR 21/M04 A3022 RMK AO2", "KDWH 241853Z 16008G24KT 130V200 9SM -RA BKN025 BKN048 OVC060 26/20 A2980 RMK AO2 PK WND 17027/1840 RAB07 PRESFR SLP089 P0000 T02560200", "KDWU 241856Z AUTO 07003KT 10SM CLR 26/07 A3009 RMK AO2 SLP188 T02560067", "KDWX 241910Z AUTO 20008G14KT 10SM M09/M14 A3008 RMK AO2 T10881139", "KDXR 241853Z 07004KT 10SM OVC005 16/13 A3017 RMK AO2 SLP216 T01560133", "KDXX 241935Z AUTO 24011KT 10SM CLR 09/01 A2964 RMK AO2", "KDYA 241935Z AUTO 13006KT 10SM BKN047 BKN060 26/15 A3002 RMK AO2 T02550146", "KDYB 241935Z AUTO 32004KT 10SM CLR 24/08 A3010 RMK AO2", "KDYL 241854Z AUTO 04005KT 10SM OVC006 16/13 A3012 RMK AO2 SLP201 T01560133", "KDYR 241856Z AUTO 15011G20KT 10SM CLR 25/12 A2994 RMK AO2 SLP143 T02500122", "KDYS 241855Z AUTO 13009KT 10SM FEW110 22/13 A2970 RMK AO2 RAB15E26 SLP019 P0000 T02210134", "KDYT 241935Z AUTO 20022G27KT 10SM CLR 19/07 A2950 RMK AO2", "KDZB 241935Z AUTO 19011G16KT 160V220 7SM BKN033 BKN044 OVC050 29/19 A2972 RMK AO2 T02890189", "KDZJ 241915Z AUTO 02005KT 10SM CLR 24/06 A3013 RMK AO2 T02390058", "KE11 241915Z AUTO 30021G29KT 10SM BKN070 OVC080 16/07 A2983 RMK AO2 T01620069", "KE16 241915Z AUTO 00000KT 10SM CLR 20/00 A3022 RMK AO2", "KE38 241915Z AUTO 26024G29KT 10SM CLR 23/M02 A2992 RMK AO2 T02341022", "KE41 241915Z AUTO 20012G16KT 10SM SCT047 25/13 A2976 RMK AO2 T02530132", "KE42 241915Z AUTO 36014G19KT 10SM -RA BKN038 OVC048 08/03 A2983 RMK AO2 T00820032", "KEAN 241910Z AUTO 28011G19KT 10SM SCT031 BKN041 OVC050 06/M05 A2988 RMK AO2 T00561051", "KEAR 241856Z AUTO 31017G23KT 10SM CLR 11/M04 A2977 RMK AO2 SLP081 T01111044", "KEAT 241855Z AUTO 13007KT 10SM SCT046 BKN070 BKN090 10/01 A2985 RMK AO2 SLP110 T01000011", "KEAU 241856Z 25008G17KT 10SM -RA BKN020 BKN030 OVC049 16/13 A2963 RMK AO2 PK WND 15029/1758 WSHFT 1833 RAB22 SLP031 P0002 T01610128", "KEBA 241915Z AUTO 11003KT 10SM CLR 24/07 A3013 RMK AO2 T02410066", "KEBG 241915Z AUTO 16012G21KT 10SM SCT041 33/23 A2973 RMK AO2 T03330230 PWINO", "KEBS 241915Z AUTO 28012G18KT 9SM -RA FEW065 FEW080 FEW095 11/06 A2972 RMK AO2", "KECG 241854Z 33006KT 10SM OVC010 17/14 A3011 RMK AO2 SLP197 T01670139", "KECP 241853Z 16009KT 10SM CLR 27/18 A3007 RMK AO1 SLP193 T02670178", "KECS 241935Z AUTO 31022G31KT 10SM SCT032 OVC041 02/M04 A2982 RMK AO2", "KECU 241915Z AUTO 15011KT 10SM CLR 26/19 A2980 RMK AO2", "KEDE 241935Z AUTO 02003KT 10SM OVC016 19/16 A3012 RMK AO2 T01870163", "KEDJ 241935Z AUTO 18008G13KT 10SM CLR 23/05 A3006 RMK A01", "KEDN 241935Z AUTO 00000KT 10SM CLR 26/10 A3006 RMK AO2 T02630100", "KEDU 241935Z AUTO 01004KT 10SM CLR 20/M03 A3021 RMK AO1", "KEDW 241855Z 10007KT 90SM CLR 15/M10 A3024 RMK AO2A SLP238 T01521105", "KEED 241856Z AUTO 01014G25KT 10SM CLR 19/M07 A3022 RMK AO2 PK WND 01028/1825 SLP215 T01941067", "KEEN 241933Z AUTO 00000KT 10SM BKN005 BKN011 OVC027 13/13 A3022 RMK AO2 RAE33 CIG 003V009 P0001 $", "KEEO 241853Z AUTO 32003KT 10SM OVC050 M01/M04 A3011 RMK AO2 SNB14E39 SLP213 P0000 T10061044", "KEET 241853Z AUTO 14004KT 10SM CLR 25/08 A3008 RMK AO2 SLP184 T02500083", "KEFD 241854Z 15021G29KT 10SM OVC060 28/19 A2980", "KEFK 241935Z AUTO 00000KT 10SM OVC031 19/12 A3023 RMK AO2 T01860124", "KEFT 241935Z AUTO 19015G21KT 10SM OVC048 21/13 A2974 RMK AO2 T02110129", "KEGE 241856Z 25006KT 10SM OVC070 01/M07 A3008 RMK AO2 SLP096 T00111072", "KEGI 241855Z AUTO 13007KT 10SM CLR 28/13 A3006 RMK AO2 SLPNO T02770125 $", "KEGT 241915Z AUTO 02010KT 10SM OVC009 10/09 A2976 RMK AO2 T01040090", "KEGV 241935Z AUTO 21005KT 10SM OVC019 17/13 A2968 RMK AO2 T01680132", "KEHA 241915Z AUTO 03018G24KT 10SM SCT065 BKN120 11/M04 A2986 RMK AO2 T01081039", "KEHO 241935Z AUTO 00000KT 10SM CLR 23/05 A3013 RMK AO2 T02290052", "KEHR 241856Z AUTO 19014KT 10SM CLR 26/08 A2996 RMK AO2 SLP144 T02610083", "KEIK 241935Z AUTO 12003KT 10SM CLR 10/M14 A2985 RMK AO2 T01021140 PWINO", "KEKM 241935Z 17008KT 7SM CLR 23/12 A2995 RMK AO2 T02260118", "KEKN 241851Z AUTO 00000KT 10SM CLR 23/01 A3014 RMK AO2 SLP212 T02330011", "KEKO 241856Z AUTO 25012G20KT 10SM CLR 06/M06 A3025 RMK AO2 SLP258 T00561061", "KEKQ 241921Z AUTO 14007KT 10SM CLR 26/05 A3007 RMK AO2", "KEKS 241930Z AUTO 18015KT 10SM FEW120 00/M06 A2999 RMK AO2", "KEKX 241935Z AUTO 16011KT 10SM CLR 25/03 A3002 RMK AO2 T02450029", "KEKY 241856Z AUTO VRB03KT 10SM CLR 25/08 A3009 RMK AO2 SLP036 T02500083", "KELA 241915Z AUTO 18019G26KT 10SM OVC034 28/20 A2977 RMK AO2 T02810197", "KELD 241853Z AUTO 17014G25KT 10SM SCT049 BKN075 BKN090 27/16 A2985 RMK AO2 SLP105 T02720161", "KELK 241935Z AUTO 06013KT 10SM OVC048 15/09 A2973 RMK AO2 SLP358 T01530087 $", "KELM 241853Z 00000KT 10SM BKN050 19/14 A3014 RMK AO2 SLP206 T01890139", "KELN 241853Z AUTO 00000KT 10SM OVC046 10/02 A2987 RMK AO2 SLP120 T01000022", "KELO 241935Z AUTO 20017G24KT 10SM CLR 19/07 A2944 RMK AO2", "KELP 241851Z 30022G33KT 10SM FEW055 FEW085 SCT110 16/M04 A2997 RMK AO2 PK WND 30035/1830 SLP100 SHRA DSNT N-NE AND S T01561039", "KELY 241853Z AUTO 02003KT 10SM CLR 03/M07 A3025 RMK AO2 SLP250 T00281067", "KELZ 241856Z AUTO 00000KT 10SM SCT039 22/11 A3016 RMK AO2 SLP209 T02220106", "KEMM 241915Z AUTO 27021G31KT 10SM BKN025 BKN033 00/M06 A3007 RMK AO2", "KEMP 241929Z AUTO 10SM -RA BKN005 BKN010 OVC095 11/09 A2972 RMK AO2 CIG 005V008 P0003 T01060094", "KEMT 241845Z 26004KT 10SM CLR 22/M01 A3016", "KEMV 241935Z AUTO 32003KT 10SM CLR 23/14 A3011 RMK AO2 T02260137", "KEND 241910Z AUTO 34009KT 10SM OVC010 12/10 A2974 RMK AO2 SLP066", "KENV 241856Z AUTO 18007KT 10SM CLR 08/M10 A3022 RMK AO2 SLP243 T00781100", "KENW 241853Z 18011G19KT 10SM CLR 22/13 A2982 RMK AO2 SLP095 T02220128", "KEOE 241935Z AUTO 00000KT 10SM CLR 23/04 A3015 RMK AO2", "KEPH 241853Z AUTO 19009KT 10SM CLR 10/03 A2986 RMK AO2 SLP118 T01000033", "KEQA 241915Z AUTO 35009KT 10SM -RA OVC007 11/10 A2974 RMK AO2", "KEQY 241853Z AUTO VRB05KT 10SM CLR 22/09 A3013 RMK AO2 SLP209 T02220089", "KERI 241851Z 04006KT 10SM R06/2000VP6000FT CLR 22/10 A3009 RMK AO2 SLP189 T02170100", "KERV 241935Z AUTO 17012G16KT 10SM BKN033 28/20 A2974 RMK AO2 T02820195", "KERY 241915Z AUTO 17010G15KT 10SM CLR 17/11 A2984 RMK AO2 T01650110", "KESC 241856Z AUTO 16012G16KT 10SM CLR 14/11 A2977 RMK AO2 SLP082 T01440106 PNO $", "KESF 241853Z AUTO 16011G20KT 10SM BKN043 28/18 A2990 RMK AO2 SLP124 T02830178", "KESN 241845Z 33006KT 10SM OVC007 16/16 A3015", "KEST 241852Z AUTO 24010KT 10SM SCT075 OVC095 08/02 A2972 RMK AO2 RAB31E49 SLP062 P0000 T00830022", "KETB 241935Z AUTO 17011G16KT 10SM CLR 21/12 A2978 RMK AO2", "KETC 241915Z AUTO 36004KT 10SM CLR 23/14 A3009 RMK AO2 T02250141", "KETH 241933Z AUTO 24013G21KT 10SM 10/01 A2959 RMK AO2", "KETN 241915Z AUTO 12007KT 10SM OVC010 18/16 A2974 RMK AO2 T01850155", "KEUF 241858Z AUTO 21006KT 10SM CLR 27/12 A3010 RMK AO2 SLP188 T02720117", "KEUG 241854Z 19011KT 2SM -RA BR FEW007 OVC023 11/11 A3013 RMK AO2 TWR VIS 2 1/2 SLP204 P0000 T01110106", "KEVB 241847Z 04011G16KT 10SM SCT040 26/18 A3008", "KEVM 241921Z AUTO 22020G26KT 10SM CLR 15/07 A2948 RMK AO2", "KEVU 241935Z AUTO 34007KT 7SM -RA BKN009 OVC021 10/08 A2973 RMK AO2 P0002 T01000089", "KEVV 241854Z 18016G24KT 10SM CLR 27/09 A2996 RMK AO2 SLP142 T02670094", "KEVW 241914Z AUTO 25016G26KT 10SM SCT026 00/M06 A3012 RMK AO2 PK WND 25026/1907 T00001056", "KEWB 241853Z 02003KT 10SM OVC004 17/17 A3019 RMK AO2 RAE19 SLP223 P0004 T01670167", "KEWK 241856Z AUTO 36015KT 10SM -RA OVC009 09/08 A2974 RMK AO2 SLP063 P0001 T00890078", "KEWN 241854Z VRB06KT 10SM CLR 21/14 A3011 RMK AO2 SLP197 T02060144", "KEWR 241851Z 01008KT 5SM BR OVC006 16/14 A3014 RMK AO2 SLP204 T01610144", "KEXX 241935Z AUTO 00000KT 10SM CLR 23/10 A3011 RMK AO2 T02310099", "KEYE 241853Z AUTO 20011G21KT 10SM CLR 24/09 A2997 RMK AO2 SLP143 T02390094", "KEYF 241935Z AUTO 36003KT 10SM CLR 24/13 A3010 RMK AO2 T02440126", "KEYW 241853Z 04008KT 10SM CLR 28/21 A3000 RMK AO2 SLP159 T02830211", "KEZF 241935Z AUTO 02005KT 10SM OVC028 20/13 A3009 RMK AO2 T01960130", "KEZM 241935Z AUTO 00000KT 10SM CLR 26/09 A3011 RMK AO2", "KEZS 241935Z AUTO 19006KT 10SM OVC048 22/15 A2973 RMK AO2 T02180149", "KEZZ 241915Z AUTO 34009KT 5SM -RA BR OVC005 10/09 A2973 RMK AO2 P0003 T00980093", "KF00 241915Z AUTO 01008KT 4SM RA BR SCT007 SCT014 OVC040 16/15 A2975 RMK AO2 P0005 T01570151", "KF05 241935Z AUTO 00000KT 10SM SCT027 SCT032 19/12 A2973 RMK AO2 T01900117", "KF17 241935Z AUTO 15011G18KT 10SM BKN038 OVC047 26/17 A2982 RMK AO2", "KF44 241935Z AUTO 18007KT 4SM -RA SCT013 BKN020 OVC028 22/21 A2972 RMK AO2 P0005", "KF46 241935Z AUTO 01006KT 4SM +RA BKN006 OVC013 17/17 A2977 RMK AO2 P0001 T01700170", "KF70 241935Z AUTO 06003KT 10SM CLR 21/M05 A3016 RMK AO2", "KFAF 241855Z 31004KT 10SM OVC023 19/13 A3009 RMK AO2A SLP193 T01860132 $", "KFAM 241856Z AUTO 19016G23KT 10SM OVC032 22/14 A2988 RMK AO2 SLP120 T02220139", "KFAR 241855Z COR 22024G30KT 10SM OVC028 07/01 A2945", "KFAT 241853Z 13007KT 10SM CLR 19/00 A3023 RMK AO2 SLP235 MTNS OBSC HZ DSNT N-E-S T01890000", "KFAY 241853Z 00000KT 10SM CLR 24/13 A3010 RMK AO2 SLP187 T02440133", "KFBG 241855Z AUTO 36005KT 10SM CLR 24/12 A3008 RMK AO2 SLP188 T02410117", "KFBL 241935Z AUTO 23006KT 10SM -RA SCT060 SCT090 11/07 A2969 RMK AO2", "KFCI 241856Z AUTO VRB04KT 10SM SCT033 22/14 RMK AO2 SLPNO T02220139 $", "KFCM 241853Z 20010KT 10SM -RA OVC100 11/05 A2964 RMK AO2 RAB02 SLP036 P0000 T01060050", "KFCS 241855Z AUTO 21003KT M M M M A2987 RMK AO2 SLPNO ALSTG ESTMD RVRNO $", "KFDR 241853Z AUTO 03006KT 10SM SCT013 18/12 A2972 RMK AO2 SLP049 T01830117", "KFDW 241935Z AUTO 00000KT 10SM CLR 23/07 A3013 RMK AO1", "KFDY 241853Z AUTO 17012KT 10SM CLR 26/07 A3002 RMK AO2 SLP160 T02610067", "KFEP 241915Z AUTO 18015G20KT 10SM SCT050 22/15 A2977 RMK AO2 T02180154", "KFET 241915Z AUTO 33005KT 10SM BKN080 10/03 A2974 RMK AO2 T00960025", "KFEW 241858Z 30010G18KT 7SM SCT060 BKN200 06/M10 A2992 RMK SLPNO WND DATA ESTMD ALSTG ESTMD", "KFFA 241935Z AUTO 00000KT 10SM OVC007 15/14 A3010 RMK AO2 T01510141", "KFFC 241853Z AUTO VRB03KT 10SM CLR 25/09 A3012 RMK AO2 SLP199 T02500089", "KFFL 241915Z AUTO 16015G21KT 10SM BKN032 BKN060 23/15 A2965 RMK A01", "KFFM 241935Z AUTO 24019G23KT 10SM OVC031 08/02 A2953 RMK AO2", "KFFO 241855Z AUTO 16010KT 10SM CLR 24/04 A3003 RMK AO2 SLP169 T02380042", "KFFT 241853Z AUTO 18008G15KT 10SM CLR 26/04 A3005 RMK AO2 SLP170 T02610039", "KFFX 241935Z AUTO 15005KT 10SM CLR 24/12 A2987 RMK AO2 T02430123", "KFFZ 241854Z 00000KT 10SM CLR 18/M05 A3011 RMK AO2 SLP181 T01831050", "KFGX 241935Z AUTO 22006KT 10SM CLR 24/04 A3008 RMK AO2 T02430043", "KFHB 241915Z AUTO 03008KT 10SM CLR 23/15 A3011 RMK AO2", "KFHR 241853Z AUTO 23009G19KT 10SM BKN090 BKN110 12/08 A2993 RMK AO2 SLP133 T01220083", "KFHU 241855Z AUTO 32015G20KT 10SM CLR 13/M12 A3016 RMK AO2 SLP184 T01271118", "KFIG 241854Z AUTO 06004KT 10SM OVC039 21/11 A3013 RMK AO2 SLP202 T02110111", "KFIN 241850Z 04005KT 10SM CLR 26/16 A3010", "KFIT 241852Z AUTO 33004KT 6SM -RA BR OVC006 14/13 A3024 RMK AO2 RAB02E11B41 CIG 004V009 SLP240 P0000 T01390128", "KFKA 241935Z AUTO 29007KT 7SM SCT006 SCT010 SCT015 11/09 A2967 RMK AO2 T01090086", "KFKL 241856Z AUTO 12007KT 10SM CLR 22/09 A3012 RMK AO2 SLP199 T02170094", "KFKN 241935Z AUTO 30003KT 10SM BKN031 22/13 A3009 RMK AO2 T02220133", "KFKR 241915Z AUTO 17012G17KT 10SM CLR 24/10 A2994 RMK AO2", "KFKS 241935Z AUTO 16010G17KT 10SM CLR 21/12 A2983 RMK AO2 T02070116", "KFLD 241853Z AUTO 18011KT 10SM CLR 23/13 A2975 RMK AO2 SLP071 T02280128", "KFLG 241857Z 06011KT 10SM CLR 06/M13 A3016 RMK AO2 SLP191 T00611128", "KFLL 241853Z 06010G16KT 10SM SCT035 SCT065 28/20 A3000 RMK AO2 SLP158 T02830200 $", "KFLO 241853Z 31005KT 10SM FEW012 18/13 A3014 RMK AO2 SLP204 T01830133", "KFLP 241856Z AUTO VRB06KT 10SM SCT050 BKN070 BKN090 23/16 A2980 RMK AO2 RAE02 SLP084 P0000 T02330161", "KFLY 241935Z AUTO 00000KT SCT060 07/M11 A2988 RMK AO2 T00671109 PWINO", "KFME 241919Z AUTO 31003KT 10SM OVC014 16/12 A3015 RMK AO1", "KFMH 241915Z 03005KT 8SM OVC002 16/16 A3020 RMK LTG DSNT N AND NW", "KFMM 241915Z AUTO 30017KT 10SM CLR 10/M08 A2986 RMK AO2", "KFMN 241853Z 31022G37KT 10SM CLR 09/M10 A3000 RMK AO2 PK WND 31037/1848 SLP153 T00941100", "KFMY 241853Z 11008KT 10SM FEW049 FEW060 31/18 A3000 RMK AO2 SLP161 T03060183", "KFNB 241853Z AUTO 34009KT 7SM -RA FEW013 BKN070 OVC090 09/08 A2975 RMK AO2 PRESFR SLP070 P0005 T00890078", "KFNL 241856Z 00000KT 10SM CLR 11/M09 A2986 RMK AO2 SLP098 T01061094", "KFNT 241853Z AUTO 18015G23KT 10SM CLR 24/08 A2999 RMK AO2 PK WND 19027/1802 SLP155 T02440083", "KFOA 241915Z AUTO 17021G24KT 10SM SCT060 26/12 A2991 RMK AO2", "KFOD 241856Z AUTO 30009G17KT 10SM -RA FEW042 OVC090 09/05 A2974 RMK AO2 SLP082 P0000 T00940050", "KFOE 241922Z 35007KT 6SM -RA BR SCT006 BKN010 OVC085 11/11 A2973 RMK AO2 P0003 T01060106", "KFOK 241853Z 06008KT 10SM OVC004 17/16 A3016 RMK AO2 RAE1755 SLP212 P0000 T01670161", "KFOT 241930Z AUTO 13005KT 9SM OVC025 14/07 A3027 RMK AO1", "KFOZ 241933Z AUTO 20015G28KT 10SM BKN031 12/06 A2950 RMK AO2", "KFPK 241935Z AUTO 18014G19KT 10SM CLR 24/11 A2996 RMK AO2 T02360113", "KFPR 241853Z 06008KT 10SM SCT034 SCT055 28/19 A3004 RMK AO2 SLP172 T02780189", "KFPY 241915Z AUTO 00000KT 10SM CLR 29/11 A3008 RMK AO2 T02880111 TSNO", "KFQD 241915Z AUTO 00000KT 10SM CLR 23/04 A3014 RMK AO2", "KFRG 241853Z 05006KT 10SM OVC006 17/15 A3014 RMK AO2 SLP204 T01720150 $", "KFRH 241935Z AUTO 17008KT 10SM CLR 24/05 A2998 RMK AO1", "KFRI 241928Z AUTO 35003KT 10SM OVC010 10/08 A2977 RMK AO2 RAE14DZB14E28 PRESFR SLP075 FZRANO $", "KFRM 241856Z AUTO 23007KT 10SM -RA FEW070 OVC090 08/04 A2972 RMK AO2 SLP066 P0000 T00830044", "KFRR 241935Z AUTO 09005KT 7SM CLR 22/12 A3009 RMK AO1", "KFSD 241856Z 27011G22KT 10SM SCT140 OVC250 08/M02 A2970 RMK AO2 SLP061 T00831022", "KFSE 241935Z AUTO 20026G38KT 10SM OVC023 07/02 A2942 RMK AO2", "KFSI 241855Z AUTO 03011G20KT 10SM FEW016 16/11 A2973 RMK AO2 SLP061 T01620113", "KFSK 241915Z AUTO 31009KT 5SM RA BR OVC007 12/11 A2973 RMK AO2 P0008 T01180113", "KFSM 241853Z 17015G25KT 10SM OVC034 24/19 A2971 RMK AO2 PK WND 16030/1843 SLP055 T02390194", "KFSO 241935Z AUTO 00000KT 10SM CLR 19/15 A3019 RMK AO2 T01940146", "KFST 241929Z AUTO 30031G46KT 7SM BKN023 BKN034 OVC110 21/05 A2981 RMK AO2 PK WND 30046/1923 T02060050", "KFSW 241915Z AUTO 17013G18KT 10SM BKN034 OVC042 22/16 A2970 RMK AO2", "KFTK 241912Z AUTO 17011G15KT 10SM FEW200 27/05 A2999 RMK AO2 PRESFR SLP153", "KFTN 241935Z AUTO 21009G14KT 10SM CLR 33/19 A2970 RMK A01", "KFTW 241853Z 15009KT 5SM RA BR OVC060 17/17 A2974 RMK AO2 SLP063 P0025 T01720172", "KFTY 241853Z 13007KT 10SM CLR 25/10 A3012 RMK AO2 SLP196 T02500100", "KFUL 241853Z VRB03KT 10SM CLR 24/M01 A3013 RMK AO2 SLP203 T02391011", "KFVE 241853Z AUTO 19006KT 10SM -RA OVC095 13/09 A3032 RMK AO2 SLP267 P0002 T01280094", "KFVX 241935Z AUTO 01003KT 10SM CLR 24/09 A3009 RMK AO2 T02360094", "KFWA 241854Z 19010KT 10SM FEW150 BKN250 23/09 A3001 RMK AO2 SLP159 T02330094", "KFWB 241935Z AUTO 17009G19KT 120V240 10SM OVC024 21/17 A2972 RMK AO2", "KFWC 241915Z AUTO 17013G21KT CLR 26/09 A2990 RMK AO1 T02590092 PWINO", "KFWN 241928Z AUTO 03005KT 4SM BR BKN005 OVC009 14/13 A3016 RMK AO2 RAB10E23 P0000 T01440133", "KFWS 241850Z 35004KT 2 1/2SM RA BKN009 BKN017 OVC042 17/16 A2979", "KFWZ 241915Z AUTO 26012G16KT 10SM CLR M01/M06 A2988 RMK AO2", "KFXE 241853Z 07008KT 10SM CLR 29/19 A3000 RMK AO2 SLP162 T02940194 $", "KFXY 241915Z AUTO 27010KT 10SM CLR 11/05 A2969 RMK AO2", "KFYE 241935Z AUTO 16006G17KT 10SM FEW042 24/14 A2992 RMK A01", "KFYG 241915Z AUTO 16021G26KT 10SM CLR 24/16 A2977 RMK AO2", "KFYJ 241915Z AUTO 00000KT 10SM OVC024 18/13 A3012 RMK AO1 T01840134", "KFYV 241853Z 16016G28KT 10SM OVC020 21/17 A2971 RMK AO2 PK WND 17028/1848 PRESFR SLP048 T02110172", "KFZG 241915Z AUTO 00000KT 10SM CLR 26/11 A3011 RMK AO2 T02580111", "KGAD 241856Z AUTO 14005KT 10SM CLR 25/07 A3009 RMK AO2 SLP192 T02500067 $", "KGAF 241935Z AUTO 29019KT 1SM BR BKN005 OVC009 07/07 A2926 RMK AO2", "KGAG 241853Z AUTO 04015KT 10SM BKN024 OVC070 12/06 A2977 RMK AO2 SLP065 T01220061", "KGAI 241856Z AUTO VRB03KT 10SM OVC015 17/13 A3014 RMK AO2 SLP218 T01670133", "KGAO 241935Z AUTO 13009G15KT 10SM OVC070 28/19 A2998 RMK AO2 T02760191", "KGBD 241856Z AUTO 35014G22KT 10SM CLR 14/00 A2980 RMK AO2 SLP085 T01390000", "KGBG 241915Z AUTO 16010G16KT 10SM BKN035 BKN049 OVC080 22/16 A2975 RMK AO2 T02180155", "KGBK 241915Z AUTO 14020G26KT 8SM FEW032 27/21 A2989 RMK A01", "KGCC 241853Z AUTO 31017G30KT 10SM CLR 04/M03 A2982 RMK AO2 PK WND 32032/1834 SLP116 T00391033", "KGCD 241915Z AUTO 17011KT 10SM -RA OVC028 04/01 A3006 RMK AO2 T00430006", "KGCK 241854Z 36021G28KT 10SM CLR 14/M04 A2982 RMK AO2 PK WND 36031/1817 SLP085 T01391039", "KGCM 241915Z AUTO 34007KT 3SM +RA OVC008 12/12 A2973 RMK AO2 P0005", "KGCN 241854Z VRB06KT 10SM CLR 07/M12 A3019 RMK AO2 SLP207 T00671122", "KGCY 241935Z AUTO 00000KT 10SM CLR 23/02 A3010 RMK A01", "KGDB 241915Z AUTO 23011G15KT 10SM CLR 10/01 A2968 RMK AO2 T00950011", "KGDJ 241935Z AUTO 12008KT 10SM -RA BKN006 BKN047 OVC070 17/16 A2974 RMK AO2 P0002 T01660160", "KGDP 241931Z AUTO 24030G44KT 9SM SCT012 SCT020 OVC080 06/03 A2986 RMK AO2 PK WND 24048/1919 T00560028", "KGDV 241919Z AUTO 31021G27KT 10SM BKN019 02/M01 A2973 RMK AO2 PK WND 30027/1911 FZRANO", "KGED 241933Z AUTO VRB05KT 2 1/2SM BR OVC004 17/16 A3008 RMK AO2 CIG 003V008 T01670156", "KGEG 241853Z 19012KT 9SM -RA BKN008 OVC015 03/02 A2991 RMK AO2 DZB43E44 SLP142 P0001 T00330017", "KGEU 241853Z 31005KT 10SM SKC 19/M08 A3012", "KGEV 241915Z AUTO 00000KT 10SM CLR 21/M03 A3018 RMK AO2 T02051026", "KGEY 241853Z AUTO 13009G17KT 10SM SCT029 06/00 A2988 RMK AO2 SLP136 T00560000", "KGEZ 241853Z AUTO 17012G19KT 10SM CLR 25/08 A3000 RMK AO2 SLP154 T02500078", "KGFA 241855Z AUTO 23022G26KT 10SM BKN100 BKN200 04/M01 A2976 RMK AO2 PK WND 23026/52 SLP104 T00441014 $", "KGFK 241853Z 22018G29KT 10SM OVC015 07/05 A2930 RMK AO2 PK WND 21038/1804 RAB1754E33 SLP926 P0000 T00720050", "KGFL 241932Z AUTO 30005KT 7SM -RA OVC032 15/14 A3019 RMK AO2 P0003 T01500139", "KGGE 241935Z AUTO 34005KT 10SM CLR 22/11 A3011 RMK AO2", "KGGF 241915Z AUTO 31021G28KT 10SM FEW050 10/M05 A2982 RMK AO2", "KGGG 241925Z 16016G25KT 10SM BKN028 BKN035 OVC070 26/19 A2975 RMK AO2 PK WND 16028/1908 T02610194", "KGGP 241915Z AUTO 17010G13KT 10SM CLR 23/08 A2996 RMK AO2", "KGGW 241916Z AUTO 31011KT 10SM BKN010 02/M01 A2975 RMK AO2 T00221011", "KGHB 241920Z AUTO VRB04G13KT 7SM FEW027 FEW033 SCT055 27/21 A2991 RMK A01", "KGHG 241915Z AUTO VRB04KT 1/4SM FG OVC003 14/13 A3021 RMK AO2 LTG DSNT N AND W", "KGHW 241935Z AUTO 21015G19KT 10SM CLR 08/02 A2961 RMK AO2", "KGIC 241915Z AUTO 03005KT 3/4SM BKN002 OVC015 00/00 A2997 RMK AO1", "KGIF 241853Z AUTO 07005KT 10SM SCT044 A3006 RMK AO2 SLPNO $", "KGJT 241853Z 30005KT 10SM OVC070 04/M03 A3014 RMK AO2 SLP207 T00441033", "KGKJ 241853Z AUTO VRB03KT 10SM CLR 22/04 A3011 RMK AO2 SLP194 T02170044", "KGKT 241935Z AUTO 31004KT 10SM CLR 25/05 A3009 RMK A01", "KGKY 241917Z 05005KT 4SM -RA BR FEW016 BKN033 OVC042 17/16 A2975 RMK AO2 T01720161 PNO $", "KGLD 241853Z AUTO 33025G37KT 10SM CLR 12/M06 A2982 RMK AO2 PK WND 34037/1849 SLP089 T01171061", "KGLE 241915Z AUTO 08004KT 10SM OVC005 15/15 A2975 RMK AO2 T01500150", "KGLH 241853Z 20016G23KT 10SM CLR 31/13 A2990 RMK AO2 PK WND 17026/1833 SLP130 T03060133", "KGLR 241853Z AUTO 18018G25KT 10SM CLR 22/11 A2990 RMK AO2 PK WND 18027/1806 SLP119 T02220111", "KGLS 241852Z 17013KT 10SM OVC065 27/21 A2985 RMK AO2 SLP108 T02670211", "KGLW 241915Z AUTO 18007KT 140V220 10SM CLR 25/05 A3003 RMK AO2 T02460052", "KGLX 241915Z AUTO 07005G14KT 10SM FEW050 OVC075 26/22 A3000 RMK A01", "KGLY 241935Z AUTO 17011G16KT 1 1/4SM -RA BR BKN008 BKN013 OVC021 19/19 A2965 RMK AO2", "KGMJ 241915Z AUTO 17015G23KT 2 1/2SM -RA HZ FEW014 SCT020 BKN035 13/11 A2963 RMK AO2 VIS 2V3", "KGMU 241853Z VRB03KT 10SM CLR 24/03 A3015 RMK AO2 SLP203 T02440028 $", "KGNA 241856Z AUTO VRB03KT 14/12 A2951 RMK AO1 SLP991 T01440117", "KGNB 241915Z AUTO 26011KT 10SM SCT033 SCT042 OVC050 M02/M11 A3001 RMK AO2 T10191110", "KGNC 241915Z AUTO 31018G30KT 10SM -RA BKN070 OVC100 12/07 A2989 RMK AO2 T01240066", "KGNG 241935Z AUTO 27011KT 10SM CLR 07/M04 A3019 RMK AO2", "KGNR 241856Z AUTO 03004KT 13/12 A3026 RMK AO1 SLP253 P0003 T01330122", "KGNT 241935Z AUTO 30020G28KT 10SM BKN047 BKN050 05/M06 A3007 RMK AO2 T00491057", "KGNV 241853Z VRB03KT 10SM CLR 28/12 A3010 RMK AO2 SLP192 T02780122", "KGOK 241853Z AUTO 35006KT 10SM BKN010 BKN015 12/11 A2975 RMK AO2 CIG 007V013 SLP070 T01220111", "KGON 241856Z 01008KT 4SM BR OVC006 16/14 A3017 RMK AO2 RAE23 SLP217 P0001 T01610144", "KGOO 241930Z AUTO 00000KT 7SM CLR 17/M09 A3022 RMK A01", "KGOP 241915Z AUTO 10SM BKN006 OVC021 18/18 A2977 RMK AO2", "KGOV 241858Z AUTO 17012G19KT 10SM SCT220 22/12 A2991 RMK AO2 SLP131 T02190116 $", "KGPC 241915Z AUTO 18012KT 10SM SCT050 24/12 A2996 RMK AO2 T02390116", "KGPH 241835Z AUTO 30011KT 7SM RA OVC007 11/10 A2974 RMK AO2", "KGPI 241855Z 17009G15KT 10SM SCT036 OVC048 04/M01 A2987 RMK AO2 SLP134 T00441006", "KGPM 241850Z 36006KT 1 3/4SM -RA SCT008 BKN029 OVC044 17/17 A2979", "KGPT 241909Z 13014KT 10SM BKN027 27/22 A3000 RMK AO2 T02720217", "KGPZ 241856Z AUTO 21015G21KT 10SM FEW029 12/06 A2949 RMK AO2 SLP988 T01170056", "KGRB 241853Z 16014KT 10SM CLR 23/15 A2973 RMK AO2 SLP067 T02280150", "KGRD 241856Z AUTO 11006KT 10SM CLR 23/05 A3014 RMK AO2 SLP204 T02330050", "KGRF 241855Z AUTO 18016G20KT 10SM FEW200 11/07 A2995 RMK AO2 SLP146 T01140073 $", "KGRI 241853Z 30014G20KT 10SM CLR 11/M04 A2977 RMK AO2 SLP087 T01111039", "KGRK 241930Z AUTO 01011KT 10SM SCT014 19/17 A2971 RMK AO2 RAE00 SLP052", "KGRN 241935Z AUTO 30019G29KT 10SM OVC027 03/M03 A2980 RMK AO2 T00311031", "KGRR 241853Z 19013G19KT 10SM FEW110 BKN220 24/12 A2994 RMK AO2 SLP136 T02390122", "KGRY 241915Z AUTO 12013KT 10SM FEW026 BKN065 25/20 A2996 RMK A01", "KGSB 241855Z AUTO 00000KT 10SM CLR 24/11 A3007 RMK AO2 SLP186 T02430109 $", "KGSH 241853Z AUTO 17014KT 10SM CLR 24/11 A2998 RMK AO2 SLP147 T02390111", "KGSO 241854Z 11004KT 10SM FEW250 23/08 A3012 RMK AO2 SLP193 T02280083", "KGSP 241853Z VRB04KT 10SM CLR 23/04 A3014 RMK AO2 SLP203 T02280039", "KGTB 241855Z VRB05KT 10SM SCT026 22/15 A3012 RMK SLP199 T02150149", "KGTF 241853Z 23026G36KT 10SM CLR 04/M02 A2976 RMK AO2 PK WND 23036/1853 SLP108 T00441022 $", "KGTR 241856Z 15015G19KT 10SM CLR 27/14 A3001 RMK AO2 SLP167 T02720144", "KGTU 241856Z 18016G20KT 10SM FEW012 BKN015 OVC080 27/22 A2975 RMK AO2 SLP067 T02670217", "KGUC 241856Z AUTO 35007G15KT 10SM CLR 01/M13 A3001 RMK AO2 SLP176 T00111133 FZRANO", "KGUP 241853Z AUTO 32014G19KT 10SM SCT043 04/M05 A3011 RMK AO2 PK WND 29027/1756 SLP184 T00391050", "KGUR 241904Z AUTO 33010KT 10SM FEW045 OVC060 06/M07 A2986 RMK AO2 WSHFT 00 SLP124 $", "KGUS 241855Z AUTO 17011KT 10SM FEW180 24/10 A2996 RMK AO2 SLP146 T02410096 VISNO RWY05 $", "KGUY 241853Z AUTO 02018G27KT 10SM -RA 11/M01 A2983 RMK AO2 PK WND 02027/1842 RAB28 SLP078 P0000 T01061006", "KGVL 241853Z AUTO VRB03KT 10SM CLR 23/08 A3016 RMK AO2 SLP203 T02330078", "KGVQ 241856Z AUTO 10006KT 10SM CLR 21/12 A3013 RMK AO2 SLP203 T02110117", "KGVT 241915Z AUTO 32007KT 2 1/2SM -RA BR BKN008 BKN024 OVC042 18/17 A2976 RMK AO2 TSNO T01800172", "KGVW 241910Z AUTO 13012G18KT 7SM OVC075 26/21 A2986 RMK A01", "KGWB 241915Z AUTO 18007KT 10SM CLR 24/11 A3001 RMK AO2", "KGWO 241853Z AUTO 18014G22KT 10SM CLR 27/14 A2993 RMK AO2 PK WND 17027/1754 SLP133 T02720139", "KGWR 241935Z AUTO 25021G26KT 10SM OVC030 07/01 A2952 RMK A01", "KGWW 241935Z AUTO 35003KT 10SM CLR 23/13 A3010 RMK AO2 T02330130", "KGXF 241855Z AUTO 35006KT 10SM CLR 19/M09 A3014 RMK AO2 SLP199 T01941088 FZRANO $", "KGXY 241856Z 25014KT 10SM CLR 11/M11 A2987 RMK AO2 SLP119 T01061111 $", "KGYB 241935Z AUTO 17004KT 7SM -RA SCT028 BKN035 BKN050 24/22 A2975 RMK AO2 P0003 T02440217", "KGYF 241915Z AUTO 18019KT 10SM SCT028 SCT035 28/20 A2983 RMK AO2 T02820200", "KGYH 241847Z 09003KT 10SM CLR 23/03 A3014", "KGYI 241850Z 05006KT 5SM -RA SCT031 SCT038 OVC060 15/14 A2976", "KGYL 241935Z AUTO 22009KT 5SM HZ CLR 10/02 A2968 RMK AO2 T01030023", "KGYR 241847Z 31005KT 10SM SKC 19/M06 A3013", "KGYY 241845Z 17012KT 10SM CLR 24/12 A2987", "KGZH 241853Z AUTO VRB05KT 10SM SCT060 27/12 A3006 RMK AO2 SLP178 T02670122", "KGZL 241915Z AUTO 18007KT 1 1/4SM RA BKN026 OVC032 20/20 A2965 RMK AO2 P0005", "KGZN 241920Z AUTO 12006KT 10SM 20/15 A2972 RMK AO2", "KGZS 241935Z AUTO 16014KT 10SM CLR 25/04 A3001 RMK A01", "KH71 241935Z AUTO 35011G17KT 1 1/4SM RA 14/12 A2971 RMK AO2", "KHAE 241935Z AUTO 15014G20KT 10SM SCT031 SCT040 OVC050 23/15 A2971 RMK AO2", "KHAF 241935Z AUTO 32010KT 8SM CLR 16/12 A3023 RMK AO2", "KHAI 241935Z AUTO 16008KT 10SM CLR 23/11 A2995 RMK AO2 T02280109", "KHAO 241853Z AUTO VRB03KT 10SM CLR 24/05 A3006 RMK AO2 SLP177 T02440050", "KHBG 241853Z AUTO 16010G20KT 10SM FEW044 SCT055 28/16 A3000 RMK AO2 SLP157 T02780161", "KHBI 241935Z AUTO 33005KT 10SM CLR 23/08 A3013 RMK AO2 T02250075", "KHBR 241853Z AUTO 04012KT 10SM OVC025 16/11 A2977 RMK AO2 SLP068 T01560111", "KHBV 241910Z AUTO 17010G14KT 10SM CLR 33/20 A2973 RMK AO2 T03310202", "KHCD 241915Z AUTO 21011G15KT 10SM CLR 11/02 A2967 RMK AO2 T01050020", "KHCO 241935Z AUTO 21014KT 1 3/4SM BR OVC006 08/08 A2921 RMK AO2", "KHCR 241915Z AUTO 20003KT 10SM BKN038 OVC045 03/M06 A3015 RMK AO2", "KHDE 241915Z AUTO 32018G23KT 10SM CLR 12/M05 A2976 RMK AO2 T01231049", "KHDL 241915Z AUTO 20009G14KT 10SM CLR 27/13 A3007 RMK AO2", "KHDN 241906Z AUTO 27014G20KT 10SM BKN025 OVC040 M01/M05 A3009 RMK AO2 FZRANO", "KHDO 241851Z AUTO 17006KT 10SM FEW028 SCT039 29/21 A2974 RMK AO2 SLP055 T02890211", "KHEF 241856Z 35008KT 10SM OVC027 19/13 A3012 RMK AO2 SLP205 T01940133", "KHEG 241935Z AUTO 08006KT 10SM FEW040 28/15 A3011 RMK AO2", "KHEI 241931Z AUTO 30021G32KT 4SM -SN BR BKN014 OVC019 01/M02 A2963 RMK AO2 PK WND 30034/1903 P0000 T00061017", "KHEQ 241915Z AUTO 33017G27KT 10SM SCT050 11/M02 A2986 RMK AO2", "KHEY 241855Z AUTO 21003KT 9SM CLR 27/11 A3005 RMK AO2 SLP177 T02710107 $", "KHEZ 241856Z AUTO 15011G17KT 10SM SCT075 28/17 A2994 RMK AO2 SLP137 T02830167", "KHFD 241853Z 01009KT 2SM -RA BR OVC005 13/12 A3018 RMK AO2 RAB13 SLP218 P0001 T01330122", "KHFF 241855Z AUTO 35003KT 10SM CLR 24/11 A3009 RMK AO2 SLP192 T02390109 $", "KHFJ 241935Z AUTO 16015G21KT 5SM -DZ OVC013 18/18 A2968 RMK AO2", "KHFY 241935Z AUTO 16011G16KT 10SM CLR 24/10 A2998 RMK AO2 T02430097", "KHGR 241853Z 05007KT 010V080 10SM FEW047 OVC055 21/13 A3012 RMK AO2 SLP207 T02060128", "KHHF 241935Z AUTO 05012G16KT 10SM BKN022 OVC028 12/06 A2976 RMK AO2 LTG DSNT SW T01160061", "KHHG 241915Z AUTO 18009G14KT 10SM CLR 01/M10 A2999 RMK AO2 T00061105", "KHHR 241853Z 27004KT 10SM CLR 22/M01 A3016 RMK AO2 SLP210 T02221011", "KHHV 241915Z AUTO 19013G23KT 10SM FEW034 FEW044 27/19 A2982 RMK A01", "KHHW 241915Z AUTO 30010KT 3SM +RA BKN008 BKN016 OVC030 16/15 A2974 RMK AO2", "KHIB 241853Z AUTO 21012G23KT 170V240 10SM CLR 14/07 A2946 RMK AO2 PK WND 20029/1815 SLP978 T01390067", "KHIE 241852Z AUTO 08006KT 10SM SCT085 BKN120 18/13 A3022 RMK AO2 SLP238 T01780128", "KHIF 241928Z AUTO 24010KT 10SM BKN036 05/M04 A3019 RMK AO2 WSHFT 27 SLP225", "KHII 241915Z AUTO 32012G17KT 10SM CLR 20/M07 A3018 RMK AO2", "KHIO 241853Z 00000KT 2SM -RA BR BKN006 OVC010 09/08 A3007 RMK AO2 RAB15 CIG 004V008 SLP184 P0001 T00890083", "KHJH 241915Z AUTO 33010KT 10SM SCT120 11/00 A2975 RMK AO2 T01060003", "KHJO 241853Z AUTO 16004KT 10SM CLR 18/00 A3024 RMK AO2 SLP240 T01830000", "KHKA 241853Z AUTO 19015G21KT 10SM CLR 26/13 A2992 RMK AO2 SLP129 T02560133 $", "KHKS 241853Z 19015G20KT 10SM CLR 29/14 A2996 RMK AO2 PK WND 18027/1817 SLP136 T02890139", "KHKY 241853Z 20004KT 10SM CLR 23/08 A3014 RMK AO2 SLP191 T02280083", "KHLB 241935Z AUTO 16008KT 10SM CLR 23/06 A3002 RMK A01", "KHLC 241853Z AUTO 33017G32KT 10SM CLR 14/M04 A2982 RMK AO2 PK WND 35034/1820 SLP089 T01441044", "KHLG 241853Z 00000KT 10SM CLR 23/06 A3011 RMK AO2 SLP195 T02280056", "KHLN 241853Z 16006KT 10SM BKN075 OVC120 06/M04 A2988 RMK AO2 SLP150 T00561044", "KHLR 241926Z AUTO 01008KT 10SM FEW003 OVC013 19/18 A2974 RMK AO2 RAE06 SLP062 $", "KHLX 241935Z AUTO 00000KT 10SM CLR 21/M09 A3016 RMK AO2 T02121093", "KHME 241850Z 07006KT CAVOK 19/05 Q1016", "KHMN 241855Z AUTO 33009KT 10SM CLR 10/02 A2999 RMK AO2 PK WND 32042/17 SLP117 T01030019 RVRNO $", "KHMP 241915Z AUTO 15005KT 10SM CLR 26/11 A3015 RMK AO2 T02550107", "KHMT 241935Z AUTO 21003KT 10SM CLR 21/M04 A3016 RMK AO2 T02121042", "KHMZ 241915Z AUTO 09003KT 10SM CLR 22/11 A3010 RMK AO2 T02220114", "KHNB 241856Z AUTO 18011G19KT 10SM CLR 25/09 A2999 RMK AO2 SLP153 T02500094", "KHND 241856Z 04007G14KT 10SM CLR 14/M09 A3027 RMK AO2 SLP263 T01441094", "KHNR 241915Z AUTO 32007KT 5SM BR SCT043 SCT050 08/07 A2973 RMK A01", "KHNZ 241935Z AUTO 00000KT 10SM CLR 22/10 A3011 RMK AO2 T02160099", "KHOB 241850Z 29017G23KT 09SM -DZ FEW030 OVC038 09/07 A2987", "KHOE 241935Z AUTO 05003KT 10SM CLR 26/10 A3010 RMK AO2 T02660103", "KHON 241855Z AUTO 27018G32KT 10SM BKN044 10/M02 A2967 RMK AO2 PK WND 29033/1819 SLP049 T01001022", "KHOP 241855Z AUTO 17010G15KT 10SM CLR 24/06 A2998 RMK AO2 SLP151 T02390062", "KHOT 241853Z AUTO 17011G15KT 130V190 10SM SCT044 BKN060 OVC080 26/16 A2981 RMK AO2 SLP090 T02560161", "KHOU 241853Z 17017G26KT 10SM BKN040 OVC055 27/19 A2982 RMK AO2 PK WND 18030/1840 SLP101 T02720189", "KHPN 241910Z 06006KT 1 1/2SM BR VV003 16/14 A3015 RMK AO2 T01560144 $", "KHPT 241915Z AUTO 29008KT 10SM -RA SCT032 SCT046 BKN075 11/07 A2970 RMK AO2 P0001", "KHQG 241935Z AUTO 02014KT 10SM CLR 12/M03 A2983 RMK AO2 T01151033", "KHQG 241935Z AUTO 02014KT 10SM CLR 12/M03 A2983 RMK AO2 T01151033", "KHQM 241853Z AUTO 30008KT 10SM FEW027 SCT041 BKN075 13/09 A3001 RMK AO2 RAB30E46 SLP165 P0001 T01330089", "KHQU 241915Z AUTO 00000KT 10SM CLR 24/08 A3013 RMK AO2 T02420080", "KHQZ 241850Z 32006KT 5SM -RA BR BKN010 BKN020 OVC065 17/17 A2978", "KHRF 241935Z AUTO 18016G22KT 10SM SCT065 BKN075 OVC085 09/M07 A2989 RMK AO2", "KHRI 241853Z AUTO 26007KT 10SM -RA BKN070 OVC085 11/05 A2998 RMK AO2 SLP152 P0001 T01060050", "KHRJ 241935Z AUTO 00000KT 10SM CLR 23/13 A3011 RMK AO2 T02340126", "KHRL 241852Z 16021G28KT 10SM SCT033 BKN044 32/23 A2975 RMK AO2 PK WND 18028/1845 PRESFR SLP075 T03220233", "KHRO 241929Z AUTO 15019G26KT 10SM SCT029 OVC034 22/15 A2976 RMK AO2 PK WND 15029/1908 RAB16E29 P0000 T02170150", "KHRT 241855Z 15010KT 10SM CLR 25/18 A3006 RMK AO2A SLP181 T02520184 $", "KHRX 241935Z AUTO 33014KT 10SM RA SCT003 BKN009 OVC015 09/08 A2978 RMK AO2 LTG DSNT E AND W T00870079", "KHSA 241847Z 17012G19KT 10SM CLR 28/17 A3001", "KHSB 241848Z AUTO 17016G22KT 10SM CLR 27/14 A2994 RMK AO2", "KHSD 241935Z AUTO 36007KT 10SM 14/11 A2975 RMK A01", "KHSE 241851Z AUTO VRB03KT 10SM OVC007 16/14 A3011 RMK AO2 SLP195 T01560144", "KHSI 241853Z AUTO 31016G22KT 10SM CLR 11/M04 A2978 RMK AO2 SLP084 T01111039", "KHSP 241935Z AUTO 12004KT 5SM HZ CLR 19/02 A3021 RMK AO2 T01920017", "KHST 241855Z AUTO 06011KT 10SM BKN080 28/21 A2999 RMK AO2 DZB45E53 SLP159 P0000 T02780206", "KHSV 241853Z 14006G18KT 10SM FEW200 26/05 A3007 RMK AO2 SLP176 T02610050", "KHTL 241853Z AUTO 17010KT 10SM CLR 22/12 A2993 RMK AO2 SLP134 T02220117", "KHTS 241851Z 00000KT 10SM CLR 25/03 A3009 RMK AO2 SLP186 T02500033", "KHUA 241858Z 18010KT 7SM SKC 26/06 A3005 RMK SLPNO RVRNO $", "KHUF 241853Z 17014G21KT 10SM CLR 24/13 A2994 RMK AO2 PK WND 20026/1754 SLP134 T02440128", "KHUL 241853Z AUTO 02007KT 6SM -RA BKN042 OVC050 14/11 A3031 RMK AO2 RAB02 SLP265 P0002 T01390111", "KHUM 241847Z 14015KT 7SM CLR 27/19 A2998", "KHUT 241852Z 35008KT 10SM FEW020 OVC090 10/07 A2976 RMK AO2 PRESFR SLP064 T01000067", "KHVE 241915Z AUTO 29004KT 10SM CLR 09/M06 A3017 RMK AO2", "KHVN 241910Z 35005KT 10SM SCT005 BKN012 BKN110 16/15 A3016 RMK AO2 T01560150", "KHVR 241853Z AUTO 23019KT CLR 07/02 A2974 RMK AO2 SLP088 T00720017 $", "KHVS 241915Z AUTO VRB03G10KT 10SM CLR 23/10 A3012 RMK AO2", "KHWD 241854Z 23006KT 10SM CLR 18/07 A3022 RMK AO2 SLP242 T01830067", "KHWO 241853Z 07011KT 10SM FEW036 29/19 A3001 RMK AO2 SLP163 T02890194", "KHWV 241856Z AUTO 00000KT 10SM BKN004 BKN030 OVC042 17/15 A3014 RMK AO2 RAE09 SLP207 P0001 T01670150", "KHWY 241935Z AUTO 03009KT 10SM BKN031 22/12 A3014 RMK AO2 T02150121", "KHXD 241850Z 02008KT 10SM CLR 24/09 A3013", "KHYA 241935Z 34006KT 2SM BR OVC002 15/14 A3019 RMK AO2 LTG DSNT N RAB05E18 P0000 T01500144", "KHYI 241856Z 19014G19KT 10SM FEW027 BKN060 26/22 A2977 RMK AO2 SLPNO T02600220 $", "KHYR 241934Z AUTO 22013G30KT 10SM -RA BKN028 BKN037 OVC048 17/11 A2960 RMK AO2 PK WND 22030/1930 RAB06 P0001 T01670111", "KHYS 241856Z AUTO 33021G27KT 10SM CLR 14/M04 A2979 RMK AO2 PK WND 34027/1854 SLP086 T01391044 $", "KHYW 241935Z AUTO 30005KT 10SM OVC013 17/14 A3012 RMK AO2", "KHYX 241915Z AUTO 19016G22KT 10SM CLR 25/06 A2997 RMK AO2 T02480059", "KHZD 241935Z AUTO 17012G18KT 10SM CLR 25/09 A2994 RMK A01", "KHZE 241935Z AUTO 31022G30KT 9SM -DZ OVC013 01/00 A2957 RMK AO2", "KHZL 241935Z AUTO 00000KT 2 1/2SM BR OVC003 14/13 A3018 RMK AO2", "KHZR 241915Z AUTO 16011G17KT 10SM SCT050 BKN075 28/16 A2993 RMK AO2 T02810160", "KHZX 241915Z AUTO 20017G26KT 10SM CLR 12/06 A2956 RMK AO2", "KHZY 241853Z AUTO 14007KT 10SM CLR 23/07 A3011 RMK AO2 SLP194 T02330067", "KI23 241935Z AUTO 17010KT 10SM CLR 24/03 A3006 RMK AO1", "KI35 241935Z AUTO 00000KT 10SM CLR 23/02 A3011 RMK AO2 T02300023", "KI63 241915Z AUTO 16013G19KT 10SM SCT031 OVC037 22/14 A2975 RMK AO2 T02150140", "KI67 241935Z AUTO 19006KT 10SM CLR 23/04 A3002 RMK AO1", "KI68 241915Z AUTO 17007KT 10SM CLR 24/05 A3006 RMK AO1 T02380049", "KI69 241935Z AUTO 15005KT 10SM CLR 24/04 A3006 RMK AO2 T02410039", "KI74 241915Z AUTO 17008KT 10SM CLR 23/05 A3006 RMK AO2", "KI75 241915Z AUTO 32013G16KT 7SM -RA BKN008 BKN042 OVC047 10/10 A2968 RMK AO2 P0003 T01020095", "KIAB 241910Z AUTO 36012KT 10SM OVC008 10/08 A2972 RMK AO2 SLP061", "KIAD 241852Z 36005KT 10SM BKN025 19/13 A3012 RMK AO2 SLP198 T01940128", "KIAG 241853Z 03003KT 10SM CLR 23/11 A3011 RMK AO2 SLP199 T02280111", "KIAH 241853Z 16019G27KT 10SM BKN034 OVC060 26/19 A2982 RMK AO2 PK WND 18027/1847 SLP097 VCSH W-N T02610194", "KIBM 241915Z AUTO 33021G30KT 10SM OVC050 06/M05 A2985 RMK AO2 T00631050", "KICL 241915Z AUTO 34009KT 5SM -RA CLR 09/08 A2975 RMK AO2", "KICR 241853Z AUTO 28018G31KT OVC044 07/M04 A2975 RMK AO2 PK WND 30040/1808 SLP080 T00721039 $", "KICT 241900Z 01014G21KT 10SM SCT009 BKN011 OVC040 10/08 A2974 RMK AO2 T01000078", "KIDA 241900Z 21019KT 10SM BKN022 04/M03 A3012 RMK AO2 T00391033", "KIDI 241935Z AUTO 00000KT 9SM CLR 22/13 A3014 RMK A01", "KIDP 241915Z AUTO 02003KT 10SM RA SCT006 BKN090 OVC110 12/11 A2970 RMK AO2 P0002 T01180110", "KIEN 241852Z AUTO 29021G35KT 10SM BKN024 BKN028 OVC090 04/M02 A2981 RMK AO2 PK WND 29035/1820 SLP109 T00391017", "KIER 241935Z AUTO 17016G21KT 10SM BKN047 SCT070 OVC085 29/17 A2985 RMK AO2 T02880170", "KIFA 241935Z AUTO 29007KT 10SM RA SCT029 SCT050 OVC070 11/09 A2970 RMK AO2 P0001 T01140086", "KIFP 241850Z 35018KT 20SM CLR 18/M08 A3020", "KIGM 241851Z AUTO 02006KT 10SM CLR 13/M07 A3023 RMK AO2 SLP202 T01331067", "KIGQ 241935Z AUTO 17015G21KT 10SM CLR 24/13 A2986 RMK AO2 T02350130", "KIIY 241915Z AUTO 05003KT 10SM CLR 24/08 A3014 RMK AO2 T02430075", "KIJD 241852Z AUTO 36008KT 10SM -RA OVC006 14/14 A3016 RMK AO2 PRESFR SLP214 P0001 T01440139", "KIJX 241915Z AUTO 16014G20KT 10SM SCT050 SCT065 OVC090 22/14 A2979 RMK AO2 T02160141", "KIKK 241915Z AUTO 19010G17KT 10SM CLR 24/12 A2987 RMK AO2 T02350121", "KIKV 241915Z AUTO 31005KT 1 3/4SM -RA SCT027 SCT033 BKN045 10/09 A2973 RMK AO2", "KIKW 241935Z AUTO 17011G17KT 10SM CLR 26/11 A2994 RMK AO2 T02550107", "KILE 241922Z AUTO 31008KT 10SM FEW004 BKN019 OVC028 19/18 A2975 RMK AO2", "KILG 241858Z 03007KT 1 1/2SM R01/5500VP6000FT BR OVC007 16/14 A3012 RMK AO2 CIG 004V008 T01610144", "KILM 241853Z 04003KT 10SM FEW018 22/16 A3010 RMK AO2 SLP192 T02170156 PWINO", "KILN 241854Z AUTO 19009KT 10SM CLR 24/03 A3007 RMK AO2 SLP181 T02390033", "KIML 241853Z AUTO 32021G30KT 10SM CLR 11/M05 A2984 RMK AO2 PK WND 29039/1809 SLP108 T01111050", "KIMS 241915Z AUTO 16008KT 10SM CLR 25/05 A3005 RMK AO2", "KIMT 241854Z AUTO 15010G20KT 10SM CLR 20/14 A2970 RMK AO2 SLP057 T02000139", "KIND 241854Z 20011KT 10SM SCT190 BKN250 24/09 A2997 RMK AO2 SLP146 T02390089", "KINF 241935Z AUTO 04005KT 7SM SCT042 28/18 A3006 RMK AO2", "KINJ 241935Z AUTO 03009KT 10SM SCT009 SCT028 OVC033 17/17 A2975 RMK AO2 P0002 T01740174", "KINK 241853Z AUTO 31025G36KT 10SM OVC100 18/06 A2984 RMK AO2 PK WND 29041/1757 RAB1759E11 SLP071 P0000 T01780056 $", "KINL 241854Z AUTO 22010G28KT 10SM CLR 16/08 A2934 RMK AO2 PK WND 17031/1757 SLP936 T01560078", "KINS 241855Z AUTO 05003KT 10SM CLR 12/M11 A3027 RMK AO2 SLP236 T01161113 $", "KINT 241854Z 00000KT 10SM CLR 23/07 A3014 RMK AO2 SLP200 T02330072", "KINW 241856Z AUTO 35016G24KT 10SM CLR 10/M10 A3018 RMK AO2 SLP200 T01001100", "KIOB 241935Z AUTO 17005KT 10SM CLR 24/04 A3009 RMK AO2 PWINO", "KIOW 241852Z AUTO 17013KT 10SM FEW038 OVC060 23/16 A2969 RMK AO2 SLP049 T02280156", "KIPJ 241935Z AUTO 00000KT 10SM CLR 23/09 A3013 RMK AO2 T02320089", "KIPL 241853Z AUTO 02007G17KT 10SM CLR 22/M08 A3018 RMK AO2 SLP220 T02171078 $", "KIPT 241854Z 17003KT 10SM OVC020 17/13 A3014 RMK AO2 SLP205 T01720128", "KIRK 241855Z AUTO 17009KT 5SM -RA BR BKN027 OVC032 19/17 A2969 RMK AO2 RAB36 SLP051 P0015 T01890172", "KIRS 241935Z AUTO 18011KT 10SM CLR 23/09 A2996 RMK AO2 T02250092", "KISM 241856Z 11006KT 10SM CLR 28/18 A3006 RMK AO2 SLP178 T02780183 PNO $", "KISO 241856Z 07004KT 10SM CLR 23/14 A3010", "KISP 241856Z 08004KT 2 1/2SM R06/6000VP6000FT RA BR BKN005 OVC026 16/16 A3014 RMK AO2 SLP206 P0009 T01610156", "KISQ 241935Z AUTO 17006KT 10SM CLR 13/11 A2981 RMK AO2 T01310105", "KISW 241854Z AUTO 18008G19KT 10SM SCT047 OVC055 20/14 A2972 RMK AO2 SLP060 T02000139", "KITH 241856Z 21006KT 10SM BKN030 19/14 A3016 RMK AO2 SLP210 T01940144", "KITR 241853Z AUTO 35016G29KT 10SM CLR 11/M07 A2985 RMK AO2 PK WND 36033/1806 SLP092 T01111067 $", "KIUA 241935Z AUTO 11004KT 1/4SM HZ BKN042 23/12 A3013 RMK AO2 T02270121", "KIWA 241847Z 00000KT 10SM CLR 18/M05 A3013", "KIWD 241934Z AUTO 18013G17KT 10SM OVC028 19/15 A2959 RMK AO2", "KIWI 241935Z AUTO 00000KT 1SM -RA BR SCT004 BKN011 OVC075 16/15 A3025 RMK AO2 RAB1854 P0030 T01610150", "KIXA 241935Z AUTO 00000KT 10SM 21/16 A3010 RMK AO2", "KIXD 241902Z 33011KT 3SM -RA OVC007 11/ A2975 RMK AO2 CIG 004V010 P0001 T0106 $", "KIYA 241915Z AUTO 14017G21KT 10SM SCT075 29/16 A2993 RMK AO2 T02860158", "KIZA 241915Z AUTO 28006KT 10SM CLR 22/M05 A3017 RMK AO2", "KIZG 241903Z AUTO 00000KT 10SM FEW006 OVC013 15/14 A3027 RMK AO2 T01500139", "KJAC 241856Z 22015G22KT 10SM CLR 02/M07 A3004 RMK AO2 RAB08E20B46E48UPB20E30 SLP201 T00171072 PNO $", "KJAN 241854Z 18016G22KT 10SM SCT045 SCT250 29/13 A2995 RMK AO2 SLP140 T02890128", "KJAQ 241935Z AUTO 21003KT 10SM CLR 17/M04 A3022 RMK AO1 T01721042", "KJAS 241915Z AUTO 18016G23KT 9SM FEW045 SCT060 29/19 A2983 RMK AO2", "KJAU 241935Z AUTO VRB05KT 10SM CLR 22/04 A3013 RMK A01", "KJAX 241856Z 00000KT 10SM FEW036 FEW250 25/14 A3010 RMK AO2 SLP193 T02500144", "KJBR 241853Z AUTO 18014G23KT 10SM OVC050 25/14 A2990 RMK AO2 SLP122 T02500139 $", "KJCA 241915Z AUTO 15008KT 10SM CLR 24/08 A3013 RMK AO2 T02440082", "KJCT 241851Z AUTO VRB04KT 10SM FEW035 28/19 A2974 RMK AO2 SLP033 T02830189", "KJDD 241915Z AUTO 15006KT 10SM -RA BKN028 OVC034 24/20 A2973 RMK AO2", "KJDN 241848Z AUTO 27010KT 04/00 A2977 RMK AO1 SLP104 T00440000", "KJEF 241853Z 17015G24KT 10SM OVC032 24/16 A2973 RMK AO2 PK WND 19026/1754 SLP052 T02390161 $", "KJER 241853Z AUTO 26013KT 10SM CLR 08/M04 A3017 RMK AO2 SLP226 T00781039", "KJES 241915Z AUTO 00000KT 10SM CLR M28/M39 A3013 RMK AO2", "KJFK 241851Z 04008KT 10SM OVC009 17/15 A3015 RMK AO2 SLP208 T01720150", "KJFX 241935Z AUTO VRB04G11KT 10SM CLR 26/08 A3004 RMK AO2", "KJFZ 241935Z AUTO 00000KT 10SM CLR 21/00 A3015 RMK AO2 T02140004", "KJHN 241935Z AUTO 35020G27KT 10SM CLR 13/M07 A2983 RMK AO2 T01261068", "KJHW 241856Z AUTO VRB05KT 7SM CLR 21/11 A3013 RMK AO2 SLP204 T02060106", "KJKA 241855Z 12010G17KT 10SM FEW025 25/19 A3005", "KJKJ 241935Z AUTO 23018G26KT 10SM OVC031 08/02 A2949 RMK AO2 TSNO", "KJKL 241853Z AUTO VRB03KT 10SM CLR 25/02 A3011 RMK AO2 SLP184 T02500017", "KJLN 241853Z 15010KT 7SM -RA FEW010 BKN025 OVC050 19/18 A2965 RMK AO2 SLP030 P0033 T01940178 $", "KJMR 241935Z AUTO 22011G16KT 10SM SCT120 13/04 A2964 RMK AO2", "KJMS 241856Z AUTO 27021G33KT 10SM SCT015 BKN019 OVC024 04/02 A2943 RMK AO2 PK WND 27033/1851 RAB14E34 SLP971 P0000 T00390017", "KJNX 241915Z AUTO 23003KT 10SM CLR 23/13 A3010 RMK AO2 LTG DSNT E", "KJOT 241915Z AUTO 17011G18KT 10SM SCT060 24/14 A2983 RMK AO2 T02420139", "KJPX 241935Z AUTO 06006KT 4SM BR OVC002 15/15 A3016 RMK AO2 P0002 T01530153", "KJQF 241850Z 31004KT 10SM CLR 22/08 A3016", "KJRB 241856Z AUTO 03011KT 5SM HZ OVC006 A3014 RMK AO2 SLPNO FZRANO $", "KJRO 241935Z AUTO 18004KT 10SM CLR 25/03 A3008 RMK AO2", "KJSL 241920Z AUTO 16013KT 10SM CLR 28/20 A2992 RMK A01", "KJSO 241935Z AUTO 19016G22KT 10SM SCT026 BKN045 OVC050 25/20 A2977 RMK AO2 T02450195 TSNO", "KJST 241854Z VRB05KT 10SM CLR 21/12 A3014", "KJSV 241915Z AUTO 16004KT 5SM -RA BR OVC029 21/19 A2966 RMK AO2", "KJSY 241935Z AUTO 10SM -DZ SCT036 OVC044 00/M01 A2999 RMK AO2 T00031013 TSNO", "KJTC 241935Z AUTO 31016G23KT 10SM FEW047 FEW100 05/M07 A3014 RMK AO2", "KJVL 241845Z 17013KT 10SM SCT055 22/10 A2978", "KJVW 241915Z AUTO 16008KT 100V180 10SM BKN060 BKN070 28/13 A2994 RMK AO2", "KJVY 241915Z AUTO 19008KT 10SM CLR 26/06 A3000 RMK AO2 PWINO", "KJWG 241935Z AUTO 02009KT 10SM OVC010 13/10 A2979 RMK AO2 T01290103", "KJWY 241935Z AUTO 36005KT 3SM +RA SCT009 BKN031 OVC039 17/16 A2978 RMK AO2 P0002 T01660156", "KJXI 241935Z AUTO 14009G16KT 10SM BKN026 BKN035 BKN060 24/18 A2975 RMK AO2 T02400178", "KJXN 241856Z 14010G19KT 10SM CLR 24/09 A3001 RMK AO2 SLP158 T02390094", "KJYG 241935Z AUTO 24012KT 10SM -RA CLR 09/01 A2970 RMK AO2", "KJYL 241935Z AUTO 00000KT 10SM CLR 26/07 A3012 RMK AO2 T02580070", "KJYM 241935Z AUTO 19008G14KT 10SM CLR 22/08 A3001 RMK AO2 T02210081", "KJYO 241935Z AUTO 02004KT 10SM OVC026 20/15 A3013 RMK AO2", "KJYR 241915Z AUTO 28009KT 10SM CLR 10/M01 A2976 RMK AO2", "KJZI 241935Z AUTO 31007KT 10SM CLR 25/11 A3010 RMK AO2", "KK62 241915Z AUTO 16006KT 10SM CLR 23/02 A3005 RMK AO2", "KK70 241935Z AUTO 04007G15KT 360V080 10SM BKN049 BKN060 BKN085 29/22 A2998 RMK AO2", "KK88 241915Z AUTO 36007KT 5SM BKN007 OVC011 11/10 A2973 RMK AO1 P0004 T01070102", "KKLS 241856Z AUTO 15005KT 10SM SCT013 BKN050 OVC060 10/08 A3007 RMK AO2 RAE33 SLP186 P0002 T01000083", "KKY8 241935Z AUTO 15010G18KT 9SM CLR 26/09 A2997 RMK A01", "KL08 241935Z AUTO 11012KT 10SM CLR 23/M13 A3017 RMK AO2", "KL18 241935Z AUTO 01004KT 10SM CLR 23/M06 A3014 RMK AO2", "KL35 241935Z AUTO 10007KT 10SM CLR 09/M20 A3028 RMK AO2", "KL52 241935Z AUTO VRB05KT 9SM CLR 20/04 A3018 RMK A01", "KLAA 241853Z AUTO 01010KT 10SM CLR 12/M06 A2986 RMK AO2 SLP097 T01171061", "KLAF 241854Z 20010G23KT 10SM FEW050 24/12 A2992 RMK AO2 PK WND 15027/1842 SLP130 T02440117", "KLAL 241850Z 09006KT 10SM BKN030 28/17 A3005", "KLAM 241915Z AUTO 33010G22KT 290V020 10SM SCT038 BKN046 OVC065 03/M06 A2991 RMK AO2 T00261061", "KLAN 241853Z 18013G23KT 10SM CLR 25/12 A2998 RMK AO2 SLP150 T02500117", "KLAR 241935Z AUTO 27015G22KT 9SM FEW016 BKN032 OVC041 01/M08 A2989 RMK AO2 SNB17E34 P0000 T00111083", "KLAS 241856Z VRB03KT 10SM CLR 14/M09 A3026 RMK AO2 SLP241 T01441094", "KLAW 241853Z 01012KT 10SM FEW018 18/12 A2976 RMK AO2 SLP069 T01780117", "KLAX 241853Z 26009KT 10SM CLR 23/M01 A3015 RMK AO2 SLP210 T02281011", "KLBB 241853Z 30013KT 10SM FEW042CB SCT065 BKN100 14/09 A2976 RMK AO2 PK WND 30026/1759 WSHFT 1745 SLP042 CB E MOV E T01440089", "KLBE 241850Z 00000KT 15SM CLR 21/08 A3012", "KLBF 241853Z AUTO 30026G35KT 10SM CLR 12/M04 A2981 RMK AO2 PK WND 30035/1853 SLP094 T01221044", "KLBL 241856Z AUTO 36018KT 10SM BKN070 OVC090 12/M02 A2983 RMK AO2 PK WND 02027/1831 SLP085 T01171022", "KLBO 241935Z AUTO 16014G25KT 123V183 10SM OVC018 20/15 A2975 RMK AO2", "KLBT 241856Z AUTO 00000KT 10SM CLR 25/13 A3010 RMK AO2 SLP191 T02500133 TSNO", "KLCG 241935Z AUTO 30012G16KT 10SM CLR 10/M03 A2972 RMK AO2 T00981031", "KLCH 241853Z AUTO 17019G29KT 10SM CLR 28/17 A2989 RMK AO2 PK WND 19030/1806 SLP130 T02830172 $", "KLCI 241935Z AUTO 05003KT 3SM RA BR SCT020 BKN047 OVC085 14/14 A3025 RMK AO2 P0014", "KLCK 241855Z AUTO 15005KT 10SM CLR 25/06 A3007 RMK AO2 T02450056", "KLCQ 241915Z AUTO 02003KT 10SM CLR 26/12 A3009 RMK AO2", "KLDJ 241935Z AUTO 06005KT 3SM BR OVC006 15/14 A3014 RMK AO2 T01530142", "KLDM 241935Z AUTO 17012G17KT 10SM CLR 22/12 A2983 RMK AO2 T02230121", "KLEB 241853Z 00000KT 10SM OVC009 15/12 A3023 RMK AO2 SLP235 T01500117", "KLEE 241853Z 01006KT 10SM BKN038 BKN047 BKN075 27/18 A3007 RMK AO2 SLP182 T02720183", "KLEW 241856Z AUTO 01004KT 9SM OVC003 13/ A3026 RMK AO2 RAE56 SLP254 P0000 T0133", "KLEX 241854Z 19011KT 10SM CLR 26/03 A3007 RMK AO2 SLP176 T02560033", "KLFI 241910Z AUTO 36004KT 10SM OVC016 17/16 A3010 RMK AO2 CIG 015 RWY08 SLP199 $", "KLFK 241924Z AUTO 17014G23KT 10SM FEW029 BKN037 OVC070 27/20 A2979 RMK AO2 T02670200", "KLFT 241853Z 17010G23KT 10SM BKN060 28/17 A2993 RMK AO2 SLP135 T02830167", "KLGA 241925Z 05012KT 1SM -DZ BR OVC005 15/13 A3014 RMK AO2 SFC VIS 2 1/2 DZB17 P0000 T01500128", "KLGB 241853Z 29007KT 10SM CLR 24/M01 A3015 RMK AO2 SLP208 T02441011", "KLGC 241915Z AUTO 19005KT 10SM CLR 26/08 A3011 RMK AO2 T02570084", "KLGD 241907Z AUTO 17013KT 10SM -RA SCT018 SCT023 OVC037 03/01 A3005 RMK AO2 P0000", "KLGF 241855Z AUTO 36009G21KT 10SM CLR 21/M06 A3015 RMK AO2 SLP209 T02121056 RVRNO TSNO $", "KLGU 241851Z AUTO 00000KT 10SM FEW039 FEW046 04/M04 A3020 RMK AO2 SLP233 T00391039", "KLHB 241915Z AUTO 17015G24KT 10SM BKN032 OVC038 28/20 A2975 RMK AO2 T02790200", "KLHM 241915Z AUTO 19006KT 10SM CLR 20/M03 A3019 RMK AO1", "KLHQ 241853Z AUTO 14006KT 10SM CLR 25/07 A3008 RMK AO2 SLP184 T02500067", "KLHW 241855Z AUTO 00000KT 10SM CLR 25/11 A3009 RMK AO2 SLP192 T02480106 $", "KLHX 241853Z AUTO 28006KT 10SM BKN060 OVC080 09/M01 A2990 RMK AO2 WSHFT 1759 RAB09E18 SLP112 P0000 T00891011 $", "KLHZ 241935Z AUTO 01004KT 10SM CLR 22/13 A3012 RMK AO2", "KLIC 241855Z AUTO 33009G19KT 10SM CLR 09/M10 A2987 RMK AO2 SLP101 T00891100 $", "KLIT 241853Z 17017KT 10SM FEW048 FEW080 BKN250 29/15 A2984 RMK AO2 SLP103 T02890150", "KLJF 241935Z AUTO 23006KT 10SM CLR 09/01 A2965 RMK AO2", "KLKR 241935Z AUTO 27003KT 10SM CLR 23/09 A3013 RMK AO2", "KLKU 241935Z AUTO 04006KT 10SM CLR 22/13 A3010 RMK AO2 T02250129", "KLKV 241913Z AUTO 19010KT 10SM BKN027 OVC037 07/M04 A3023 RMK AO2", "KLLJ 241855Z AUTO 00000KT 10SM CLR 03/M08 A3005 RMK AO2 SLP189 T00281078", "KLLN 241915Z AUTO 29019G30KT 10SM FEW031 BKN046 OVC060 10/05 A2983 RMK AO2", "KLLQ 241853Z AUTO 16007G16KT 10SM BKN060 27/14 A2989 RMK AO2 SLP119 T02670139", "KLMO 241915Z AUTO 09007G14KT 10SM CLR 13/M10 A2987 RMK AO2 T01301105", "KLMT 241853Z 18003KT 10SM BKN015 OVC021 04/01 A3023 RMK AO2 SLP250 T00440006", "KLNA 241935Z AUTO 05007KT 10SM CLR 29/20 A3002 RMK AO2 T02900203 PNO", "KLNC 241935Z AUTO 36007KT 7SM DZ BKN037 OVC047 17/16 A2977 RMK AO2 P0001 T01710160", "KLND 241853Z AUTO 18007KT 10SM CLR 07/M07 A2988 RMK AO2 SLP119 T00671072", "KLNK 241854Z 08003KT 10SM -RA FEW049 SCT075 BKN090 09/06 A2975 RMK AO2 SLP069 P0001 T00940056", "KLNL 241935Z AUTO 17009G16KT 140V200 10SM OVC016 18/14 A2969 RMK AO2 T01750137", "KLNN 241915Z AUTO 36006KT 10SM CLR 23/06 A3006 RMK AO1 T02340056", "KLNP 241935Z AUTO 15004KT 10SM CLR 21/02 A3016 RMK AO2", "KLNQ 241935Z AUTO 15008KT 10SM CLR 31/18 A2999 RMK AO2 T03090180", "KLNR 241856Z AUTO 18014G21KT 10SM SCT060 24/14 A2971 RMK AO2 SLP050 T02390144", "KLNS 241918Z 04006KT 3SM -RA BR BKN006 OVC014 16/14 A3013 RMK AO2 RAB1855E05B13 P0001 T01610144", "KLOL 241853Z AUTO 20008G14KT 10SM CLR A3028 RMK AO2 SLPNO $", "KLOM 241915Z AUTO 04004KT 7SM OVC006 15/14 A3013 RMK AO2 T01510144", "KLOR 241855Z AUTO 11004KT 10SM CLR 27/11 A3007 RMK AO2 SLP165 T02710111", "KLOT 241915Z AUTO 16019G25KT 10SM CLR 23/14 A2983 RMK AO2", "KLOU 241853Z 14007KT 10SM CLR 25/06 A3002 RMK AO2 SLP162 T02500061", "KLOZ 241853Z AUTO 14007KT 110V180 10SM CLR 24/02 A3009 RMK AO2 SLP185 T02390017", "KLPR 241853Z AUTO 20011KT 10SM CLR 24/07 A3007 RMK AO2 SLP181 T02440067", "KLQK 241935Z AUTO 10SM CLR 24/03 A3012 RMK AO2 T02410034", "KLRD 241856Z 20009KT 10SM CLR 33/22 A2970 RMK AO2 SLP054 T03330217", "KLRF 241915Z AUTO 21013G20KT 10SM FEW046 FEW210 27/15 A2980 RMK AO2 WSHFT 10 SLP091", "KLRJ 241915Z AUTO 26007G14KT 10SM CLR 09/M02 A2972 RMK AO2", "KLRO 241935Z AUTO 00000KT 9SM CLR 24/11 A3010 RMK AO2", "KLRU 241935Z AUTO 30013G25KT 10SM BKN080 BKN090 13/M05 A3002 RMK AO2 T01251054", "KLRY 241935Z AUTO 33009KT 5SM RA BKN005 OVC010 12/11 A2975 RMK AO2 P0006", "KLSE 241853Z 20009KT 10SM OVC032 19/16 A2966 RMK AO2 RAE19 SLP037 P0000 T01940156", "KLSF 241855Z AUTO 17004KT 10SM CLR 27/13 A3008 RMK AO2 SLP190 T02670127 VISNO RWY15 CHINO RWY15 $", "KLSV 241855Z AUTO 28006KT 10SM CLR 18/M07 A3023 RMK AO2 SLP229 T01811074", "KLTS 241855Z 07014KT 10SM OVC026 18/11 A2974 RMK AO2A OVC V BKN SLP060 T01780109 $", "KLUA 241915Z AUTO 00000KT 10SM CLR 23/08 A3011 RMK AO2", "KLUD 241915Z AUTO 10004KT 10SM OVC003 17/16 A2974 RMK AO2 T01670160", "KLUF 241855Z AUTO 34005KT 10SM CLR 20/M06 A3011 RMK AO2 SLP190 T01971061 $", "KLUG 241935Z AUTO 15009KT 10SM CLR 26/03 A3001 RMK A01", "KLUK 241853Z 17007KT 10SM CLR 24/04 A3005 RMK AO2 SLP176 T02440044", "KLUL 241915Z AUTO 18012G16KT 10SM BKN043 BKN050 28/16 A2999 RMK A02 T02760161", "KLUM 241935Z AUTO 21008KT 7SM OVC028 15/13 A2968 RMK AO2 P0001 T01470134 PWINO", "KLUV 241915Z AUTO 29027G34KT 4SM -RA SCT037 SCT050 BKN120 20/07 A2976 RMK AO2", "KLUX 241935Z AUTO 00000KT 10SM CLR 23/04 A3012 RMK AO2", "KLVJ 241853Z AUTO 17016G27KT 10SM FEW041 OVC055 28/19 A2983 RMK AO2 PK WND 15027/1847 SLP101 T02780194", "KLVK 241853Z 00000KT 10SM CLR 21/M03 A3021 RMK AO2 SLP226 T02061033", "KLVL 241935Z AUTO 07004KT 10SM CLR 24/14 A3010 RMK AO1 T02380138", "KLVM 241853Z AUTO 27012KT 10SM CLR 04/M04 A2988 RMK AO2 SLP140 T00391039", "KLVN 241915Z AUTO 23003KT 10SM -RA CLR 11/05 A2968 RMK AO2 P0001", "KLVS 241920Z AUTO 03013KT 3/4SM -SN BR FEW004 OVC016 00/M01 A2985 RMK AO2 P0000 T00001011", "KLWA 241935Z AUTO 16006G15KT 10SM CLR 23/11 A2990 RMK AO2 T02310114", "KLWB 241850Z 27003KT 10SM SKC 22/04 A3016", "KLWC 241914Z AUTO 36010KT 5SM RA BR SCT008 OVC065 11/09 A2975 RMK AO1 P0003 T01110094", "KLWD 241926Z AUTO 35008KT 2 1/2SM RA BR SCT006 OVC037 10/09 A2970 RMK AO2 P0010 T01000089", "KLWM 241854Z 02004KT 10SM OVC007 15/14 A3025 RMK AO2 RAE16 CIG 004V010 SLP242 P0001 T01500139", "KLWS 241856Z 18013KT 10SM -RA BKN043 OVC050 07/02 A2998 RMK AO2 SLP159 P0002 T00670022", "KLWT 241854Z AUTO 24014KT 10SM CLR 03/M02 A2976 RMK AO2 SLP101 T00281022", "KLWV 241853Z AUTO 17017KT 10SM CLR 25/11 A2995 RMK AO2 PK WND 19026/1824 SLP138 T02500106", "KLXL 241935Z AUTO 22012G21KT 10SM CLR 10/03 A2961 RMK AO2", "KLXN 241915Z AUTO 32021G32KT 10SM CLR 13/M04 A2977 RMK AO2 T01251044", "KLXT 241928Z AUTO 32009KT 5SM -RA BR BKN007 OVC041 11/11 A2972 RMK AO2 P0003 T01060106", "KLXV 241853Z AUTO 36008G20KT 10SM BKN033 OVC043 M06/M13 A2996 RMK AO2 SLP128 T10611128 $", "KLXY 241935Z AUTO 16010G18KT 10SM OVC032 23/21 A2973 RMK AO2 T02300206", "KLYH 241854Z 00000KT 10SM CLR 24/07 A3012 RMK AO2 SLP192 T02440067", "KLYO 241935Z AUTO 34017KT 10SM SCT100 12/02 A2977 RMK AO2 T01190020", "KLYV 241935Z AUTO 27016G19KT 10SM CLR 07/M01 A2970 RMK AO2", "KLZU 241856Z 13007KT 10SM CLR 24/09 A3014 RMK AO2 SLP212 T02390094", "KLZZ 241915Z AUTO 04005KT 10SM SCT007 BKN020 BKN029 19/17 A2973 RMK AO2 T01900169", "KM01 241935Z AUTO 16013KT 9SM BKN040 25/16 A2989 RMK AO2 T02490165 $", "KM02 241935Z AUTO 19007G16KT 140V200 10SM 27/05 A2998 RMK A01", "KM04 241935Z AUTO 18008G15KT 140V210 10SM CLR 24/15 A2992 RMK A01", "KM08 241935Z AUTO 16012G19KT 140V210 10SM CLR 25/14 A2994 RMK A01", "KM19 241856Z AUTO 17016KT 10SM OVC065 26/14 A2987 RMK AO2 PK WND 18026/1814 SLP111 T02560139 PNO $", "KM21 241935Z AUTO 17011G21KT 10SM CLR 26/05 A2997 RMK AO2 T02630048", "KM25 241935Z AUTO 17011G19KT 10SM CLR 27/03 A2995 RMK AO2 PWINO", "KM30 241935Z AUTO 16009G18KT 130V200 10SM CLR 27/M01 A2992 RMK AO2 T02671007", "KM40 241935Z AUTO 15010G18KT 130V190 10SM CLR 26/14 A2998 RMK AO2", "KM54 241930Z AUTO 21009KT 10SM CLR 25/05 A3000 RMK A01", "KM75 241935Z AUTO 00000KT 10SM CLR 02/M00 A2973 RMK A01", "KM91 241935Z AUTO 15011KT 120V180 10SM CLR 26/04 A2998 RMK A01", "KMAE 241853Z AUTO 12004KT 10SM CLR 18/01 A3023 RMK AO2 SLP234 T01830011 $", "KMAF 241853Z 24018G29KT 10SM FEW060 SCT070 BKN090 23/08 A2976 RMK AO2 PK WND 21034/1842 SLP037 T02280083", "KMAI 241853Z AUTO VRB05KT 10SM SCT050 28/14 A3007 RMK AO1 SLP181 T02830144 $", "KMAN 241935Z AUTO 13007KT 10SM CLR 10/M03 A3015 RMK A01", "KMAO 241935Z AUTO 27005KT 10SM CLR 19/12 A3013 RMK AO2", "KMAW 241935Z AUTO 17015G20KT 10SM OVC050 26/12 A2990 RMK AO1", "KMBG 241852Z AUTO 30023G36KT 10SM FEW025 BKN033 OVC070 04/M02 A2959 RMK AO2 PK WND 31036/1848 SLP030 T00441022", "KMBL 241856Z AUTO 17010G18KT 10SM CLR 22/12 A2984 RMK AO2 SLP102 T02170122", "KMBO 241935Z AUTO VRB05G12KT 9SM SCT055 27/14 A2994 RMK AO2", "KMBS 241853Z 18013G21KT 10SM CLR 25/08 A2998 RMK AO2 SLP149 T02500083", "KMBT 241935Z AUTO 18010G16KT 160V220 10SM CLR 26/04 A3001 RMK A01", "KMBY 241935Z AUTO 17011G17KT 10SM -RA SCT030 21/16 A2968 RMK AO2", "KMCB 241853Z AUTO 17014G20KT 10SM SCT060 29/13 A2996 RMK AO2 SLP141 T02940133", "KMCC 241935Z AUTO 00000KT 10SM CLR 19/M05 A3020 RMK AO2", "KMCD 241935Z AUTO 09009G14KT 10SM CLR 12/09 A2988 RMK AO2 T01170086", "KMCE 241853Z AUTO 00000KT 10SM CLR 18/00 A3022 RMK AO2 SLP232 T01780000", "KMCF 241855Z AUTO 26005KT 10SM CLR 28/19 A3000 RMK AO2 DZB14E20 SLP162 P0000 T02810193 FZRANO $", "KMCI 241853Z 31007KT 3SM -RA BR SCT008 SCT035 OVC050 11/09 A2973 RMK AO2 SFC VIS 5 SLP061 P0010 T01110094", "KMCJ 241935Z AUTO 16018G28KT 120V190 6SM HZ SCT035 BKN045 OVC050 26/20 A2977 RMK A01", "KMCK 241853Z AUTO 32022G34KT 10SM CLR 13/M06 A2981 RMK AO2 PK WND 32041/1825 SLP094 T01281056", "KMCN 241853Z VRB05KT 10SM CLR 26/09 A3011 RMK AO2 SLP193 T02610094", "KMCO 241853Z 05007KT 10SM SCT043 29/17 A3005 RMK AO2 SLP173 T02890172", "KMCW 241853Z AUTO 30010KT 10SM -RA FEW043 BKN090 11/06 A2969 RMK AO2 RAB1759 SLP048 P0001 T01060056", "KMDD 241915Z AUTO 27027G31KT 10SM SCT070 SCT085 BKN110 23/07 A2979 RMK AO2 T02280070", "KMDH 241852Z 17013G22KT 10SM FEW047 OVC070 24/09 A2990 RMK AO2 SLP123 T02440089", "KMDS 241935Z AUTO 26018G24KT 10SM CLR 08/M01 A2965 RMK AO2", "KMDT 241856Z VRB03KT 10SM OVC012 17/14 A3013 RMK AO2 SLP202 T01670139", "KMDW 241853Z 17015G25KT 10SM FEW050 FEW150 BKN200 OVC250 25/13 A2983 RMK AO2 PK WND 17027/1834 SLP094 T02500128", "KMDZ 241935Z AUTO 17011KT 10SM OVC026 17/17 A2967 RMK AO2 T01650165 PWINO", "KMEB 241852Z AUTO VRB04KT 10SM CLR 26/11 A3011 RMK AO2 SLP195 T02560111", "KMEH 241929Z AUTO 00000KT 2SM RA BR OVC014 02/02 A2998 RMK AO2 P0005 T00220017", "KMEI 241858Z 16012G18KT 10SM BKN043 27/17 A3001 RMK AO2 SLP158 T02720167", "KMEM 241854Z 17012KT 10SM SCT033 BKN048 BKN250 24/16 A2993 RMK AO2 SLP133 T02390156 $", "KMER 241853Z 00000KT 5SM CLR 20/00 A3022 HZ", "KMEV 241935Z AUTO VRB04KT 10SM CLR 10/M11 A3026 RMK AO2", "KMEZ 241935Z AUTO 14008KT 080V220 10SM FEW060 BKN110 BKN130 24/16 A2973 RMK AO2 T02390163", "KMFD 241852Z 16008KT 10SM CLR 24/06 A3009 RMK AO2 SLP186 T02390056", "KMFE 241853Z 15014G23KT 10SM CLR 33/22 A2974 RMK AO2 PK WND 14026/1833 SLP068 T03280217", "KMFI 241854Z AUTO 18010KT 10SM SCT035 OVC065 18/14 A2969 RMK AO2 SLP051 T01830144", "KMFR 241912Z 00000KT 2SM R14/4000VP6000FT -RA BR BKN006 OVC028 07/06 A3025 RMK AO2 P0002 T00720061", "KMFV 241915Z AUTO 34007KT 300V010 10SM OVC008 14/12 A3010 RMK AO2 LTG DSNT E T01400115", "KMGC 241915Z AUTO 18010G20KT 10SM CLR 22/11 A2991 RMK AO2", "KMGE 241855Z 17005KT 10SM FEW250 24/08 A3011 RMK AO2A SLP194 T02380078 $", "KMGG 241935Z AUTO 20005KT 10SM CLR 11/03 A2967 RMK AO2 T01120028 PWINO", "KMGJ 241854Z AUTO 02006KT 10SM BKN006 OVC009 14/13 A3016 RMK AO2 CIG 004V008 SLP212 T01390128", "KMGM 241853Z 09006KT 10SM CLR 27/11 A3008 RMK AO2 SLP184 T02720106", "KMGN 241935Z AUTO 18004KT 10SM CLR 22/12 A2986 RMK AO2 T02200128", "KMGR 241915Z AUTO 15003KT 10SM CLR 26/12 A3010 RMK AO2", "KMGW 241853Z 00000KT 10SM CLR 22/05 A3014 RMK AO2 SLP201 T02220050", "KMGY 241853Z AUTO 18009KT 10SM CLR 23/06 A3005 RMK AO2 SLP171 T02330056", "KMHE 241853Z AUTO 28016G28KT 10SM CLR 10/M03 A2970 RMK AO2 PK WND 29030/1840 SLP061 T01001028", "KMHK 241914Z 34003KT 10SM -RA BKN015 BKN085 OVC110 10/07 A2979 RMK AO2 PRESRR P0001 T01000072", "KMHL 241935Z AUTO 15011KT 3SM +RA BKN008 BKN012 OVC022 18/18 A2967 RMK AO2 P0001", "KMHP 241915Z AUTO 08003KT 10SM CLR 26/11 A3011 RMK AO2 T02570108", "KMHR 241845Z E00000KT 10SM FEW250 18/M06 A3020", "KMHS 241856Z AUTO VRB03KT 10SM OVC048 12/00 A3022 RMK AO2 SLP256 T01220000", "KMHT 241853Z 33006KT 3SM OVC003 15/14 A3023 RMK AO2 SFC VIS 7 RAE35 TSE04 SLP249 T01500139 PNO $", "KMIA 241853Z 05009KT 030V090 10SM FEW036 SCT080 29/19 A3001 RMK AO2 SLP161 T02940189", "KMIB 241911Z 33027G33KT 5SM -SN OVC015 01/M02 A2945 RMK CIG 012 RWY12 SLP992", "KMIC 241853Z 19008KT 10SM -RA FEW080 OVC100 12/05 A2963 RMK AO2 RAB14 SLP032 P0000 T01220050", "KMIE 241853Z 18010G20KT 10SM CLR 24/06 A3000 RMK AO2 SLP150 T02440061", "KMIO 241935Z AUTO 33016G21KT 2 1/2SM RA FEW003 FEW009 SCT023 13/13 A2970 RMK AO2", "KMIV 241854Z AUTO 05008KT 4SM BR OVC004 16/16 A3010 RMK AO2 SLP190 T01610156", "KMIW 241930Z AUTO 31009KT 1 3/4SM +RA BR OVC024 11/09 A2970 RMK AO2 P0006 T01060089", "KMJD 241915Z AUTO 18007G14KT 10SM SCT070 29/17 A2997 RMK AO2", "KMJQ 241915Z AUTO 24010KT 10SM -DZ SCT019 SCT048 SCT055 07/00 A2972 RMK AO2", "KMKC 241925Z 31007KT 3SM RA BR OVC009 11/11 A2973 RMK AO2 CIG 006V012 P0004 T01110106", "KMKE 241852Z 17013KT 10SM FEW070 BKN230 OVC250 21/12 A2981 RMK AO2 SLP092 T02060122", "KMKG 241855Z 16015G21KT 10SM BKN230 24/14 A2988 RMK AO2 PK WND 18027/1808 SLP116 T02440139", "KMKJ 241935Z AUTO 00000KT 10SM CLR 23/02 A3017 RMK AO2 T02340015", "KMKL 241853Z 17008G16KT 10SM CLR 23/13 A2997 RMK AO2 SLP145 T02280128", "KMKN 241935Z AUTO 13006KT 10SM SCT013 BKN046 BKN050 21/20 A2975 RMK AO2 T02080198", "KMKO 241935Z AUTO 34009KT 1 1/4SM +RA BR SCT008 BKN029 OVC060 14/13 A2975 RMK AO2 P0026 T01390133", "KMKS 241915Z AUTO 01005KT 10SM CLR 22/12 A3012 RMK AO2", "KMLB 241853Z 03010KT 10SM BKN037 27/18 A3006 RMK AO2 SLP178 T02670183", "KMLC 241927Z AUTO 35008KT 4SM RA BR FEW050 SCT070 OVC090 14/13 A2972 RMK AO2 PRESFR P0018 T01440133", "KMLE 241915Z AUTO 00000KT 10SM DZ SCT036 BKN070 OVC120 08/05 A2973 RMK AO2 T00780052", "KMLF 241852Z AUTO 07004KT 10SM CLR 04/M06 A3026 RMK AO2 SLP256 T00441056", "KMLI 241852Z 18015G23KT 10SM SCT055 SCT070 23/14 A2973 RMK AO2 SLP065 T02280144", "KMLJ 241915Z AUTO 00000KT 9SM CLR 26/10 A3010 RMK AO2", "KMLP 241931Z AUTO VRB03KT 1/4SM SN FZFG VV001 M04/M05 A2982 RMK AO2 P0003 T10391050", "KMLS 241853Z AUTO 30017KT 10SM FEW020 03/M01 A2980 RMK AO2 SLP110 T00281011", "KMLT 241931Z AUTO 36005KT 1 1/2SM RA BR OVC012 12/12 A3032 RMK AO2 P0005 T01220117", "KMLU 241853Z 17012G21KT 10SM CLR 29/16 A2989 RMK AO2 SLP120 T02890161", "KMMH 241915Z AUTO 36004G14KT 10SM CLR 16/M11 A3029 RMK AO2", "KMMI 241935Z AUTO VRB03KT 10SM CLR 25/06 A3010 RMK A01", "KMMK 241853Z AUTO 36009G14KT 10SM -RA BKN005 OVC019 13/12 A3015 RMK AO2 SLP209 P0007 T01330117", "KMMT 241855Z 36006KT 10SM FEW250 24/06 A3011 RMK AO2A SLP199 T02390062 $", "KMMU 241850Z 06004KT 2 1/4SM BR OVC005 19/19 A3015", "KMNE 241935Z AUTO 14007G15KT 090V170 10SM BKN060 OVC085 26/19 A2984 RMK AO2 T02630188", "KMNH 241915Z AUTO 30007KT 10SM CLR 05/M13 A2988 RMK AO2", "KMNI 241935Z AUTO 01005KT 10SM CLR 22/10 A3012 RMK AO2", "KMNM 241856Z AUTO 20007G14KT 10SM CLR 16/11 A2976 RMK AO2 SLP078 T01560111 PNO $", "KMNN 241853Z AUTO 19011KT 7SM CLR 23/06 A3007 RMK AO2 SLP182 T02330061", "KMNV 241935Z AUTO 00000G10KT 10SM 26/05 A3008 RMK A01", "KMNZ 241935Z AUTO 10006KT 10SM BKN029 OVC034 19/17 A2976 RMK AO2 T01910172", "KMOB 241856Z 15011G18KT 10SM SCT028 BKN047 24/16 A3005 RMK AO2 SLP174 T02440161", "KMOD 241853Z 00000KT 10SM CLR 17/M02 A3022 RMK AO2 SLP231 T01721022", "KMOP 241915Z AUTO 18011G18KT 10SM CLR 24/11 A2993 RMK AO2 T02400112", "KMOR 241935Z AUTO 00000KT 10SM CLR 24/03 A3009 RMK A01", "KMOT 241854Z 29022G34KT 9SM BKN015 OVC020 01/M01 A2947 RMK AO2 PK WND 29037/1757 UPE08 SLP996 P0000 T00111011 $", "KMOX 241915Z AUTO 24011G22KT 10SM 08/01 RMK AO2", "KMPR 241915Z AUTO 35016KT 10SM BKN085 BKN110 10/06 A2976 RMK AO2 T01040058", "KMPV 241851Z AUTO 00000KT 10SM OVC012 16/11 A3028 RMK AO2 SLP257 T01560111", "KMPZ 241910Z AUTO 17012G20KT 10SM OVC033 23/18 A2969 RMK AO2", "KMQB 241915Z AUTO 16015G22KT 10SM BKN036 BKN042 BKN070 22/13 A2977 RMK AO2 T02160125", "KMQI 241915Z AUTO 00000KT 10SM OVC007 15/14 A3012 RMK AO2 T01500135", "KMQJ 241935Z AUTO 16007G16KT 10SM CLR 23/09 A2999 RMK AO1", "KMQS 241915Z AUTO 02005KT 3/4SM BR OVC003 14/14 A3015 RMK AO2", "KMQW 241915Z AUTO 14003KT 10SM CLR 26/11 A3011 RMK AO2 T02570108", "KMQY 241856Z 16008KT 10SM CLR 26/06 A3005 RMK AO2 SLP179 T02560061", "KMRB 241853Z 10SM SCT038 21/13 A3011 RMK AO2 SLP192 T02110128", "KMRC 241930Z AUTO 16009G16KT 130V200 9SM CLR 26/03 A2999 RMK A01", "KMRF 241856Z AUTO 26020G29KT 10SM SCT080 21/01 A2993 RMK AO2 PK WND 23029/1850 SLP074 T02060006", "KMRH 241858Z AUTO 34003KT 10SM OVC011 18/15 A3010 RMK AO2 SLP195 T01780150", "KMRJ 241935Z AUTO 16011G15KT 10SM SCT030 BKN050 OVC065 20/12 A2972 RMK AO2", "KMRN 241935Z AUTO 00000KT 10SM CLR 25/06 A3016 RMK AO2 T02510057", "KMRT 241915Z AUTO 20009KT 10SM CLR 24/03 A3008 RMK AO2 T02350033", "KMRY 241854Z 33008KT 10SM CLR 19/00 A3022 RMK AO2 SLP244 T01890000", "KMSL 241853Z AUTO 20011KT 10SM CLR 26/06 A3002 RMK AO2 SLP163 T02610056", "KMSN 241853Z 18011G19KT 10SM BKN060 OVC075 21/13 A2974 RMK AO2 SLP068 T02110133", "KMSO 241853Z 13007KT 10SM BKN070 OVC090 07/M02 A2991 RMK AO2 SLP144 T00721017", "KMSP 241853Z 21011G17KT 10SM -RA OVC100 13/04 A2965 RMK AO2 RAB32 SLP038 P0000 T01280044", "KMSS 241853Z AUTO 04008KT 10SM CLR 21/07 A3017 RMK AO2 SLP218 T02060067", "KMSV 241932Z AUTO 08006KT 1 3/4SM BR OVC004 14/14 A3017 RMK AO2 VIS 1 1/4V4 RAE25 CIG 002V007 P0001", "KMSY 241853Z 15012KT 10SM FEW050 SCT075 BKN250 28/17 A2998 RMK AO2 SLP154 T02830167", "KMTC 241856Z 15010KT 10SM BKN250 23/09 A3001 RMK AO2A SLP167 T02250086", "KMTH 241853Z AUTO 05009KT 10SM CLR 29/19 A2999 RMK AO2 SLP156 T02890194 $", "KMTJ 241853Z AUTO 33011KT 10SM BKN043 OVC070 04/M04 A3011 RMK AO2 SLP188 T00391044 $", "KMTK 241920Z AUTO 13016KT 10SM FEW019 SCT025 SCT033 26/21 A2998 RMK A01", "KMTN 241855Z 00000KT 10SM BKN010 OVC014 16/15 A3013", "KMTO 241853Z AUTO 16016G29KT 10SM CLR 23/12 A2990 RMK AO2 PK WND 15030/1843 SLP120 T02330122", "KMTP 241854Z AUTO 06006KT 16/16 A3017 RMK AO1 SLP217 T01610156", "KMTV 241935Z AUTO 00000KT 10SM CLR 24/02 A3014 RMK AO2 T02440021", "KMTW 241856Z AUTO 16015G20KT 10SM CLR 15/11 A2980 RMK AO2 SLP090 T01500111", "KMUI 241855Z 00000KT 10SM OVC013 17/13 A3011 RMK AO2A SLP199 T01700127", "KMUO 241856Z 07006KT 10SM SCT100 BKN120 BKN190 08/M05 A3014 RMK AO2A SLP218 T00831049 $", "KMUT 241935Z AUTO 16016G21KT 10SM BKN035 BKN055 23/16 A2967 RMK AO2", "KMVE 241935Z AUTO 25010G21KT 10SM CLR 08/01 A2965 RMK AO2", "KMVH 241935Z AUTO 30013G20KT 10SM CLR 06/M07 A2975 RMK AO2 PWINO", "KMVL 241854Z AUTO 19005KT 10SM OVC024 17/12 A3024 RMK AO2 SLP242 T01720122", "KMVN 241856Z AUTO 20019G24KT 10SM OVC060 25/11 A2991 RMK AO2 SLP130 T02500106", "KMVY 241853Z 07007KT 1SM R24/P6000FT BR OVC002 18/17 A3019 RMK AO2 RAE12 SLP222 P0000 T01780172", "KMWA 241847Z 19015G20KT 20SM BKN060 BKN200 24/09 A2992", "KMWC 241845Z 17015KT 10SM CLR 22/11 A2981", "KMWH 241852Z 16009KT 10SM FEW055 09/04 A2988 RMK AO2 SLP172 T00940039", "KMWK 241915Z AUTO 15004KT 10SM CLR 23/08 A3014 RMK AO2 T02290081", "KMWL 241916Z AUTO VRB03KT 10SM -RA BKN011 BKN045 OVC110 19/17 A2972 RMK AO2 RAB16 P0000 T01890167", "KMWM 241935Z AUTO 22012KT 10SM CLR 08/00 A2969 RMK AO2", "KMWN 241848Z 21015G22KT 1/16SM FG VV002 11/11 RMK", "KMWO 241915Z AUTO 19007KT 10SM CLR 24/04 A3005 RMK AO2 T02350038", "KMXF 241855Z AUTO 16004KT 10SM CLR 27/06 A3006 RMK AO2 SLP181 T02650060", "KMYF 241853Z 24006KT 10SM CLR 23/05 A3014 RMK AO2 SLP201 T02280050", "KMYJ 241935Z AUTO 15013G21KT 10SM BKN031 BKN060 22/16 A2972 RMK AO2", "KMYL 241857Z AUTO 18012G16KT 2SM -SN BKN026 OVC035 02/M05 A3005 RMK AO2 P0000 T00221050", "KMYR 241914Z 35006KT 10SM SCT018 19/15 A3012 RMK AO2", "KMYV 241853Z AUTO 01003KT 10SM CLR 21/M04 A3020 RMK AO2 SLP231 T02061044", "KMYZ 241910Z AUTO 00000KT 10SM -RA BKN008 BKN034 OVC100 08/07 A2972 RMK AO2", "KMZH 241935Z AUTO 22012G20KT 10SM CLR 14/05 A2956 RMK AO2", "KMZZ 241915Z AUTO 17011G16KT 7SM CLR 24/09 A3000 RMK AO2 T02370092", "KN03 241915Z AUTO 11005KT 10SM BKN029 18/13 A3016 RMK AO2", "KN38 241935Z AUTO VRB06KT 10SM OVC027 17/13 A3014 RMK AO2", "KN60 241852Z AUTO 31024G34KT 01/M02 A2951 RMK AO1 PK WND 29039/1826 SLP008 T00061017", "KNAK 241854Z AUTO 34006KT 10SM OVC015 17/13 A3011 RMK AO2 SLP199 T01670133", "KNBC 241856Z 36006KT 10SM CLR 25/08 A3012 RMK AO2 SLP200 T02500083", "KNBG 241855Z 14013KT 10SM SCT070 BKN250 28/19 A2998 RMK AO2 SLP153 T02780189 $", "KNBT 241934Z AUTO 01006KT 10SM OVC009 19/14 A3011 RMK AO2 T01940144", "KNCA 241856Z 09005KT 10SM FEW040 21/16 A3009 RMK AO2 SLP193 T02060156", "KNDZ 241856Z 20008G17KT 10SM FEW040 SCT060 BKN250 27/13 A3006 RMK AO2 SLP164 T02720133 $", "KNEL 241900Z AUTO VRB03KT 1 1/4SM BR OVC003 16/16 A3010 RMK AO2 SLP190 T01610156 PNO $", "KNEW 241853Z 16011KT 10SM CLR 29/17 A2999 RMK AO2 SLP148 T02940167", "KNFE 241856Z AUTO VRB03KT 10SM OVC012 17/13 A3012 RMK AO2 SLP200 T01670128", "KNFG 241852Z 10007KT 10SM CLR 26/M05 A3013 RMK AO2 SLP202 T02561050", "KNFL 241856Z 16007KT 10SM SCT100 SCT220 10/M09 A3028 RMK AO2 SLP214 T01001094", "KNFW 241852Z 14008G16KT 8SM -RA BKN065 OVC080 17/16 A2974 RMK AO2 SLP057 P0019 T01720161 $", "KNGP 241856Z 17017G27KT 9SM FEW020 SCT035 BKN250 31/24 A2975 RMK AO2 PK WND 18036/1815 SLP074 T03060239", "KNGU 241934Z 28003KT 10SM OVC016 17/13 A3013 RMK AO2 T01670128 $", "KNHK 241852Z 35006KT 10SM OVC011 17/13 A3012 RMK AO2 SLP198 T01720133 $", "KNID 241856Z VRB03KT 10SM CLR 16/M11 A3025 RMK AO2 SLP240 T01561111 $", "KNIP 241853Z 01007KT 10SM FEW040 FEW250 26/16 A3011 RMK AO2 SLP191 T02560156", "KNJK 241856Z 03009KT 10SM CLR 24/M06 A3020 RMK AO2 SLP242 T02391061 $", "KNJM 241857Z AUTO 01006KT 9SM CLR 23/15 A3010 RMK AO2 SLP197 T02330150", "KNJW 241857Z AUTO 14007G17KT 10SM BKN044 26/15 A3003 RMK AO2 SLP082 T02610150", "KNKT 241856Z 10SM FEW014 20/14 A3012 RMK AO2 SLP195 T02000144", "KNKX 241855Z 24008KT 10SM CLR 22/05 A3013 RMK AO2 SLP199 T02220050", "KNLC 241856Z 34008KT 10SM CLR 20/M03 A3023 RMK AO2 SLP235 RH/20 T02001033", "KNMM 241856Z 11010KT 10SM BKN049 26/16 A3003 RMK AO2 SLP177 T02560156", "KNOG 241856Z AUTO 17014G23KT 10SM CLR 32/21 A2973 RMK AO2 PK WND 17026/1836 SLP047 T03170211 PNO $", "KNOW 241915Z AUTO 29013G19KT 10SM SCT050 13/08 A2993 RMK AO2 T01300076", "KNOZ 241859Z AUTO 36010G21KT 10SM CLR 22/M05 A3016 RMK AO2 SLP164 T02171050", "KNPA 241856Z 12014KT 10SM FEW030 SCT065 BKN250 27/18 A3005 RMK AO2 SLP178 T02670178", "KNQA 241850Z 17011KT 10SM CLR 25/15 A2992", "KNQI 241856Z 18015G25KT 10SM SCT044 SCT250 34/22 A2973 RMK AO2 PK WND 18028/1812 SLP063 T03390222 $", "KNQX 241853Z 03010KT 10SM FEW030 FEW250 31/21 A3000 RMK AO2 SLP157 T03110211 $", "KNRB 241852Z 02011KT 10SM FEW030 23/16 A3011 RMK AO2 SLP196 T02280161 $", "KNRN 241915Z AUTO 34016G25KT 10SM CLR 13/M05 A2982 RMK AO2", "KNRS 241853Z 32011KT 10SM CLR 23/00 A3013 RMK AO2 SLP203 T02280000", "KNSE 241856Z 16008KT 10SM FEW035 SCT055 SCT250 28/13 A3006 RMK AO2 SLP164 T02780133 $", "KNSI 241853Z 06009KT 8SM CLR 21/03 A3017 RMK AO2 SLP211 T02110028 $", "KNTD 241855Z 04016G22KT 10SM CLR 24/M04 A3016 RMK AO2 PK WND 04027/1813 SLP213 T02391039", "KNTU 241856Z 34008KT 10SM OVC010 16/13 A3011 RMK AO2 SLP197 T01560133", "KNUC 241856Z 35008KT 10SM CLR 21/13 A3017 RMK AO2 SLP215 T02060128 $", "KNUI 241905Z AUTO VRB04KT 10SM OVC014 18/13 A3011 RMK AO2 T01830133", "KNUQ 241935Z AUTO 32004KT 10SM CLR 22/M04 A3021 RMK AO2", "KNUW 241853Z 24009KT 10SM SCT023 SCT040 BKN060 BKN180 13/09 A2997 RMK AO2 SLP149 T01280089 VISNO $", "KNXF 241856Z AUTO 10SM 22/06 A3013 RMK AO2 SLP287 T02220061 PWINO $", "KNXP 241856Z AUTO 32009KT 10SM CLR 17/M12 A3031 RMK AO2 SLP241 T01721117 $", "KNY0 241915Z AUTO 13004KT 3SM OVC014 14/14 A3020 RMK AO2", "KNYC 241931Z AUTO 05007KT 1 3/4SM BR OVC005 15/14 A3017 RMK AO2 T01500139 $", "KNYG 241856Z 04006KT 6SM HZ OVC028 21/13 A3013 RMK AO2 SLP202 T02110133", "KNYL 241857Z 36013G19KT 7SM CLR 22/M04 A3016 RMK AO2 SLP209 T02171044", "KNZY 241852Z 30008KT 10SM CLR 22/08 A3013 RMK AO2 SLP203 T02170078 $", "KO05 241935Z AUTO 10004KT 10SM CLR 10/M07 A3025 RMK A01", "KO22 241935Z AUTO 22005KT 10SM CLR 19/M06 A3022 RMK A01", "KO32 241935Z AUTO 17007KT 130V190 10SM CLR 20/M00 A3021 RMK AO2 T01981001 $", "KO69 241935Z AUTO 27006KT 10SM CLR 22/M02 A3021 RMK A01", "KOAJ 241856Z 01005KT 10SM CLR 23/15 A3010 RMK AO2 SLP196 T02280150", "KOAK 241853Z 25005KT 10SM CLR 18/05 A3023 RMK AO2 SLP237 T01830050", "KOAR 241935Z AUTO 00000KT 10SM CLR A3021 RMK AO2", "KOBE 241915Z AUTO 00000KT 10SM OVC050 26/23 A3003 RMK AO2", "KOCF 241851Z 01006KT 10SM FEW043 BKN060 27/17 A3008 RMK AO2 SLP187 T02670167 PNO $", "KOCH 241928Z AUTO 15017G21KT 10SM BKN025 BKN070 26/21 A2979 RMK AO2", "KOCQ 241935Z AUTO 16010G15KT 10SM CLR 17/13 A2974 RMK AO1 T01700130", "KOCW 241915Z AUTO 00000KT 10SM CLR 21/14 A3011 RMK AO2 T02130140", "KODO 241908Z AUTO 30032G41KT 10SM -RA SCT070 SCT090 20/08 A2979 RMK AO2 PK WND 28042/1854 WSHFT 1848 RAB1857 P0000 T02000078 $", "KODX 241853Z AUTO 30015G24KT 10SM CLR 12/M03 A2974 RMK AO2 SLP074 T01171028", "KOEB 241935Z AUTO 16010G16KT 10SM CLR 24/11 A2998 RMK AO2 T02400108", "KOEL 241915Z AUTO 36024G30KT 10SM CLR 13/M09 A2981 RMK AO1 T01281088", "KOEO 241935Z AUTO 21008KT 10SM -RA OVC090 13/10 A2967 RMK AO2 T01300095", "KOFF 241855Z 33004KT 8SM -RA OVC085 09/06 A2977 RMK AO2A SLP082 P0006 T00860055 PWINO PNO FZRANO TSNO VISNO RWY13 $", "KOFK 241856Z AUTO 31010KT 10SM CLR 10/M03 A2973 RMK AO2 PRESFR SLP070 T01001028", "KOFP 241854Z AUTO VRB04KT 10SM BKN030 21/14 A3012 RMK AO2 SLP198 T02110139", "KOGA 241915Z AUTO 31023G33KT 10SM SCT050 11/M04 A2983 RMK AO2 T01111036", "KOGB 241853Z AUTO 00000KT 10SM CLR 24/08 A3013 RMK AO2 SLP201 T02440078", "KOGD 241853Z 25007KT 10SM FEW036 SCT045 07/M03 A3021 RMK AO2 SLP226 T00671033", "KOGS 241915Z AUTO VRB05KT 10SM CLR 23/04 A3013 RMK AO2", "KOIC 241935Z AUTO 18004KT 10SM OVC011 15/13 A3018 RMK AO2 T01500131", "KOIN 241935Z AUTO 34020G33KT 10SM CLR 13/M04 A2983 RMK AO1 T01341042", "KOJA 241935Z AUTO 06011KT 10SM SCT016 BKN043 OVC060 14/10 A2975 RMK AO2 T01440097", "KOJC 241853Z 33010G18KT 4SM RA BR OVC008 11/09 A2973 RMK AO2 CIG 005V010 SLP061 P0006 T01060094", "KOKB 241852Z AUTO 11006KT 10SM CLR 25/M02 A3012 RMK AO2 SLP199 T02501022", "KOKC 241922Z 34010KT 10SM SCT010 BKN017 BKN120 14/12 A2975 RMK AO2 T01390122", "KOKK 241856Z AUTO 18017G21KT 10SM CLR 24/09 A2999 RMK AO2 SLP153 T02440094 PNO $", "KOKM 241915Z AUTO 02011G18KT 7SM -RA SCT009 BKN070 OVC095 14/14 A2971 RMK AO2 P0003 T01360136", "KOKV 241935Z AUTO 07003KT 7SM BKN039 20/12 A3009 RMK AO2", "KOKZ 241915Z AUTO 15004KT 10SM CLR 25/09 A3012 RMK AO2 T02470087", "KOLE 241915Z AUTO 06005KT 10SM CLR 20/10 A3015 RMK AO2", "KOLF 241853Z AUTO 28018G26KT FEW019 03/M01 A2974 RMK AO2 PK WND 28029/1824 SLP091 T00331011 $", "KOLG 241935Z AUTO 21010G18KT 10SM SCT110 17/05 A2957 RMK AO1", "KOLM 241903Z 19011KT 10SM FEW008 FEW015 SCT043 11/09 A3000 RMK AO2 T01110094", "KOLS 241854Z AUTO 31009G19KT 250V360 10SM CLR 15/M09 A3014 RMK AO2 SLP168 T01501089", "KOLU 241856Z AUTO 31009KT 10SM CLR 10/01 A2975 RMK AO2 SLP078 T01000011", "KOLV 241850Z 15013G19KT 10SM BKN035 24/15 A2993", "KOLY 241915Z AUTO 16011KT 10SM CLR 26/09 A2993 RMK AO2 T02560087", "KOLZ 241915Z AUTO 27010KT 10SM OVC027 19/16 A2966 RMK A01", "KOMA 241852Z 34006KT 9SM -RA SCT050 OVC090 08/05 A2976 RMK AO2 SLP073 P0004 T00830050", "KOMH 241935Z AUTO 01005KT 10SM CLR 22/12 A3011 RMK AO2", "KOMK 241853Z AUTO 16009KT 10SM OVC032 09/02 A2987 RMK AO2 SLP118 T00940017", "KOMN 241850Z 03010G16KT 10SM SCT030 BKN060 25/17 A3009", "KONA 241918Z AUTO 27008KT 5SM RA SCT014 BKN019 OVC050 14/11 A2969 RMK AO2 P0006", "KONL 241915Z AUTO 29018G25KT 10SM CLR 10/M06 A2973 RMK AO2 T01031057", "KONM 241935Z AUTO 31018G25KT 10SM SCT065 SCT075 BKN085 10/M05 A2998 RMK AO2 T01031051", "KONO 241853Z AUTO VRB03KT 10SM FEW037 OVC055 07/01 A3017 RMK AO2 RAB35E48 SLP231 P0000 T00670011", "KONT 241853Z 27005KT 10SM CLR 21/M01 A3016 RMK AO2 SLP206 T02111011", "KONX 241915Z AUTO 34003KT 10SM OVC008 15/13 A3011 RMK AO2 T01520130", "KONZ 241935Z AUTO 15009KT 10SM CLR 22/01 A3003 RMK AO2 T02200011", "KOOA 241915Z AUTO 21021G28KT 2SM SCT007 SCT027 OVC033 22/20 A2968 RMK AO2 P0004 T02160198", "KOPF 241853Z 07010KT 10SM CLR 29/18 A3001 RMK AO2 SLP163 T02890183", "KOPL 241915Z AUTO 17012G22KT 10SM BKN055 BKN065 OVC080 28/17 A2992 RMK AO2 T02780166", "KOPN 241915Z AUTO 00000KT 10SM CLR 28/07 A3013 RMK AO2", "KOQN 241915Z AUTO 04003KT 1 1/4SM BR OVC004 15/13 A3013 RMK AO2", "KOQT 241853Z AUTO 00000KT 10SM CLR 23/06 A3012 RMK AO2 SLP195 T02330056", "KORB 241933Z AUTO 20011G18KT 10SM CLR 16/08 A2940 RMK AO2", "KORD 241851Z 17014G23KT 10SM BKN220 OVC250 23/13 A2982 RMK AO2 SLP094 T02330128", "KORE 241930Z AUTO 34004KT 10SM -RA FEW006 OVC014 14/13 A3021 RMK AO2 RAE11B28 P0000 T01390128", "KORF 241934Z 02004KT 10SM OVC016 16/13 A3011 RMK AO2 T01610133", "KORG 241915Z AUTO 19014G20KT 10SM SCT037 BKN085 31/20 A2989 RMK AO2 T03060196", "KORH 241930Z 06007KT 1/4SM R11/1200V1800FT -RA FG VV002 13/13 A3020 RMK AO2 P0001 T01280128", "KORL 241853Z 05007KT 10SM FEW042 BKN065 28/18 A3006 RMK AO2 SLP180 T02780178", "KORS 241935Z AUTO 18009KT 10SM FEW050 14/09 A2990 RMK AO2", "KOSA 241910Z AUTO 15015G26KT 10SM BKN030 BKN041 OVC065 24/19 A2973 RMK AO2 T02440189", "KOSC 241935Z AUTO 17011G17KT 10SM CLR 24/07 A2996 RMK AO2 T02360074", "KOSH 241853Z 18015G24KT 10SM CLR 21/14 A2974 RMK AO2 PK WND 18027/1820 SLP061 T02110139", "KOSU 241853Z 16011KT 10SM CLR 24/06 A3007 RMK AO2 SLP180 T02440056", "KOTH 241921Z 24017G22KT 2SM -RA BR FEW008 OVC017 12/12 A3020 RMK AO2 P0000", "KOTM 241936Z AUTO 18005KT 6SM -RA BR OVC027 19/18 A2965 RMK AO2 RAB01 P0009 T01940178", "KOUN 241851Z 33009KT 10SM OVC010 13/12 A2974", "KOVE 241853Z AUTO VRB04KT 10SM CLR 20/M01 A3021 RMK AO2 SLP232 T02001011", "KOVL 241935Z AUTO 23012G16KT 10SM CLR 09/00 A2966 RMK AO2", "KOVS 241853Z AUTO 18009G20KT 10SM OVC055 22/14 A2969 RMK AO2 SLP052 T02220144", "KOWA 241933Z AUTO 25010KT 10SM -RA SCT047 SCT070 BKN100 11/07 A2967 RMK AO2", "KOWB 241856Z 17012G22KT 10SM CLR 27/07 A2999 RMK AO2 SLP152 T02670067", "KOWD 241935Z VRB06KT 1 3/4SM -TSRA BR OVC003 16/15 A3021 RMK AO2 RAB29 TSB34 P0009 T01560150", "KOWP 241915Z AUTO 04011G18KT 10SM SCT110 14/13 A2968 RMK AO2 T01410132", "KOWX 241915Z AUTO 18010G19KT 10SM CLR 26/M01 A3004 RMK AO1", "KOXC 241851Z 03007KT 10SM -RA OVC003 14/13 A3016 RMK AO2 RAB39 SLP228 T01390133", "KOXD 241935Z AUTO 00000KT 10SM CLR 25/00 A3003 RMK AO2 T02511003", "KOXI 241935Z AUTO 16012G16KT 10SM CLR 23/10 A2992 RMK AO1", "KOXR 241851Z 08011KT 10SM CLR 24/M06 A3015 RMK AO2 PK WND 06027/1752 SLP209 T02391056", "KOXV 241935Z AUTO 31013KT 1 1/2SM +RA SCT004 BKN007 OVC023 11/10 A2970 RMK AO2", "KOZA 241915Z AUTO 20012G19KT 10SM CLR 26/15 A2977 RMK AO2", "KOZR 241855Z AUTO 22005KT 10SM CLR 28/09 A3007 RMK AO2 SLP183 T02750093 $", "KOZS 241935Z AUTO 16013G19KT 10SM -RA OVC021 20/15 A2973 RMK AO2", "KOZW 241935Z AUTO 18013G18KT 10SM CLR 25/06 A3000 RMK AO2 T02480059", "KP08 241935Z AUTO VRB03G11KT 10SM CLR 18/M05 A3013 RMK AO2", "KP28 241856Z AUTO 35018G24KT 13/06 A2976 RMK AO1 SLP067 T01280061 $", "KP53 241856Z AUTO 18017G29KT 18/11 A2973 RMK AO1 PK WND 18031/1839 SLP068 T01780106", "KP58 241855Z AUTO 14010G19KT 18/12 A2999 RMK AO1 SLP153 T01830117", "KP59 241851Z AUTO 20012G28KT 17/12 A2959 RMK AO1 PK WND 21028/1847 SLP018 T01720122", "KP60 241856Z AUTO VRB04KT M04/M08 A3002 RMK AO1 SLP195 T10391083", "KP68 241853Z AUTO 13006KT 02/M06 A3026 RMK AO1 SLP258 T00171056", "KP69 241852Z AUTO VRB03KT 06/04 A3006 RMK AO1 SLP191 P0004 T00560039", "KPAE 241902Z 20006KT 10SM BKN006 BKN029 OVC035 10/08 A2996 RMK AO2 T01000078", "KPAH 241853Z 17012G23KT 10SM CLR 26/02 A2993 RMK AO2 SLP130 T02610022", "KPAM 241855Z AUTO 18013KT 10SM CLR 26/18 A3007 RMK AO2 SLP186 T02630184 $", "KPAN 241935Z AUTO 36011G17KT 10SM CLR 11/M14 A3016 RMK AO2 PWINO TSNO", "KPAO 241847Z 00000KT 10SM SKC 18/03 A3022", "KPBF 241853Z AUTO 17020G25KT 10SM FEW050 29/14 A2987 RMK AO2 PK WND 18028/1819 SLP111 T02890144", "KPBG 241853Z AUTO 11004KT 10SM CLR 17/12 A3019 RMK AO2 SLP225 T01670122", "KPBH 241935Z AUTO 18010G16KT 10SM -DZ OVC012 16/16 A2963 RMK AO2 P0001 T01630163", "KPBI 241853Z 04011KT 10SM BKN034 BKN049 BKN250 28/18 A3003 RMK AO2 SLP167 T02830183", "KPBX 241910Z AUTO 18005KT 10SM CLR 23/04 A3012 RMK AO2 T02290037", "KPCD 241915Z AUTO 17018G22KT 10SM SCT046 SCT060 SCT080 25/16 A2986 RMK AO2 T02500155", "KPCM 241935Z AUTO 12005KT 10SM CLR 31/19 A3005 RMK AO2", "KPCW 241935Z AUTO 19011G16KT 10SM CLR 25/06 A3003 RMK AO2", "KPCZ 241935Z AUTO 17008KT 10SM SCT050 SCT070 21/14 A2973 RMK AO2 T02120142", "KPDC 241935Z AUTO 15008KT 10SM BKN038 BKN055 BKN065 21/14 A2965 RMK AO2 T02100137", "KPDK 241853Z 15005KT 10SM CLR 23/09 A3013 RMK AO2 SLP201 T02280089", "KPDT 241853Z 19007KT 6SM -RA BKN041 OVC055 09/07 A2997 RMK AO2 SLP148 P0002 T00940067", "KPDX 241853Z VRB03KT 10SM BKN011 OVC030 11/08 A3007 RMK AO2 RAE11B34E48 SLP181 P0001 T01060083", "KPEA 241915Z AUTO 31014G19KT 2SM +RA BR OVC015 11/10 A2970 RMK AO2 P0009 T01090100", "KPEO 241853Z AUTO 00000KT 10SM FEW036 21/11 A3015 RMK AO2 SLP206 T02110106", "KPEQ 241915Z AUTO 28035G40KT 10SM BKN110 18/04 A2988 RMK AO2 T01790037", "KPEX 241935Z AUTO 22014G20KT 10SM CLR 08/01 A2964 RMK AO2", "KPEZ 241915Z AUTO 17010G14KT 10SM BKN042 32/21 A2972 RMK AO2 T03170210", "KPGA 241853Z AUTO VRB03KT 10SM CLR 10/M12 A3018 RMK AO2 SLP206 T01001117", "KPGD 241853Z 08010KT 10SM SCT050 29/19 A3003 RMK AO2 SLP167 T02890189", "KPGV 241935Z AUTO 03005KT 10SM CLR 22/15 A3009 RMK AO2", "KPHD 241853Z AUTO 19005KT 10SM CLR 24/06 A3009 RMK AO2 SLP189 T02390056", "KPHF 241854Z 33006KT 10SM OVC020 18/13 A3011 RMK AO2 SLP196 T01780133", "KPHL 241854Z 05009KT 8SM OVC007 16/14 A3012 RMK AO2 SLP200 T01610144", "KPHN 241915Z AUTO 17011G19KT 140V210 10SM CLR 25/02 A3004 RMK AO2", "KPHP 241855Z AUTO 29022G28KT 10SM -RA SCT019 BKN027 OVC075 03/01 A2976 RMK AO2 PK WND 30036/1805 RAB53 SLP089 P0000 T00330006", "KPHT 241935Z AUTO 18015KT 10SM CLR 25/06 A2994 RMK A01", "KPHX 241851Z 22007KT 10SM CLR 19/M06 A3011 RMK AO2 SLP184 T01891061 $", "KPIA 241854Z 18021G28KT 10SM SCT049 BKN080 24/13 A2980 RMK AO2 PK WND 17035/1804 SLP086 T02440133", "KPIB 241856Z AUTO 17014G22KT 10SM SCT047 BKN055 29/17 A3001 RMK AO2 SLP159 T02890172 PNO $", "KPIE 241853Z AUTO 35004KT 10SM CLR 29/19 A3005 RMK AO2 SLP174 T02890194", "KPIH 241856Z 24017G25KT 10SM SCT039 06/M04 A3015 RMK AO2 T00611044", "KPIL 241930Z AUTO 16021G28KT 10SM -RA SCT027 BKN032 BKN042 30/23 A2975 RMK AO2 PK WND 17028/1928 P0000 T03000233", "KPIM 241915Z AUTO 25004KT 10SM CLR 25/08 A3012 RMK AO2 T02500081", "KPIR 241853Z AUTO 30023G35KT 10SM OVC033 06/M03 A2969 RMK AO2 PK WND 30037/1825 SLP062 T00561033", "KPIT 241851Z 00000KT 10SM FEW250 22/04 A3012 RMK AO2 SLP204 T02220044", "KPKB 241853Z 00000KT 10SM CLR 24/06 A3010 RMK AO2 SLP191 T02440061", "KPKD 241853Z AUTO 22024G32KT 10SM OVC023 08/02 A2950 RMK AO2 PK WND 21032/1853 SLP993 T00780022", "KPKV 241935Z AUTO 17018G24KT 10SM OVC032 29/21 A2977 RMK AO2 T02850207", "KPLN 241854Z AUTO 12004KT 10SM CLR 21/13 A2988 RMK AO2 SLP116 T02110128", "KPLR 241935Z AUTO 22006KT 10SM CLR 26/08 A3008 RMK A01", "KPLU 241915Z AUTO 23006G13KT 10SM SCT021 13/09 A2998 RMK AO2", "KPMD 241853Z 10012KT 10SM CLR 16/M11 A3025 RMK AO2 SLP239 T01611106", "KPMH 241915Z AUTO 00000KT 10SM CLR 26/01 A3008 RMK AO2 T02600010", "KPMP 241853Z 07011KT 10SM SCT025 29/19 A3001 RMK AO2 SLP162 T02890194", "KPMU 241915Z AUTO 17005G14KT 10SM CLR 26/14 A2993 RMK AO2", "KPMV 241915Z AUTO 35004KT 10SM RA SCT030 BKN037 OVC045 07/06 A2972 RMK AO2 T00720058", "KPNA 241915Z AUTO 31019G26KT 10SM CLR 02/M12 A3001 RMK AO2", "KPNC 241926Z AUTO 35008KT 10SM BKN011 13/11 A2973 RMK AO2 T01280111", "KPNE 241854Z 05009KT 5SM BR OVC005 16/14 A3013 RMK AO2 SLP203 T01560139", "KPNM 241935Z AUTO 20009G16KT 10SM 12/04 A2964 RMK AO2 TSNO", "KPNS 241853Z 14010KT 10SM FEW048 BKN065 26/19 A3006 RMK AO2 SLP180 T02610189", "KPNT 241915Z AUTO 17021G25KT 10SM CLR 25/16 A2984 RMK AO2 T02450155", "KPOB 241855Z AUTO 00000KT 10SM CLR 24/11 A3009 RMK AO2 SLP192 T02410107 $", "KPOE 241855Z AUTO 15014KT 9SM BKN045 BKN070 OVC080 28/17 A2987 RMK AO2 SLP115 T02780173", "KPOF 241853Z AUTO 18014G24KT 10SM OVC041 24/14 A2988 RMK AO2 SLP115 T02390139", "KPOU 241900Z 34006KT 10SM OVC006 14/13 A3016 RMK AO2 T01440128", "KPOV 241935Z AUTO 15005KT 10SM CLR 25/03 A3008 RMK AO2 T02460026 PWINO", "KPOY 241915Z AUTO 11009G15KT 10SM CLR 07/M07 A2980 RMK AO2", "KPPA 241915Z AUTO 36015G18KT 10SM RA SCT020 BKN025 OVC030 11/09 A2978 RMK AO2 LTG DSNT SW T01070085", "KPPF 241901Z AUTO 34011KT 3SM BR SCT006 BKN045 OVC060 12/11 A2974 RMK AO2 T01170106 PWINO $", "KPPO 241915Z AUTO 18013G19KT 10SM CLR 23/15 A2992 RMK AO2 T02260146", "KPPQ 241915Z AUTO 16011G17KT 10SM BKN050 BKN065 OVC075 21/16 A2979 RMK AO2 T02130157", "KPQI 241856Z AUTO 21003KT 10SM -RA FEW048 OVC070 13/11 A3034 RMK AO2 RAB05 SLP301 P0003 T01280106", "KPQL 241853Z 12011KT 10SM FEW030 SCT038 SCT047 27/19 A3004 RMK AO2 SLP173 T02670189", "KPRB 241853Z AUTO 32003KT 10SM CLR 18/M03 A3025 RMK AO2 SLP240 T01831028 $", "KPRC 241853Z 35003KT 10SM CLR 09/M10 A3019 RMK AO2 SLP202 T00891100", "KPRG 241915Z AUTO 17016G23KT 10SM SCT055 24/14 A2994 RMK AO2 T02360141", "KPRN 241858Z AUTO 11006KT 10SM FEW050 26/11 A3006 RMK AO2 SLP128 T02610111", "KPRO 241935Z AUTO 34009KT 5SM RA BKN048 OVC055 10/07 A2972 RMK AO2 P0007 T00950068", "KPRS 241935Z AUTO 26016G21KT 10SM CLR 28/03 A2983 RMK AO2 T02760033", "KPRX 241933Z AUTO 33017G21KT 2 1/2SM +RA BR FEW008 SCT012 OVC023 17/16 A2974 RMK AO2 RAB30 P0010", "KPSC 241853Z 18012KT 10SM -RA OVC090 11/04 A2995 RMK AO2 RAB1758 SLP143 P0002 T01060039", "KPSF 241906Z AUTO 03004KT 5SM -RA BR SCT003 BKN016 OVC042 14/13 A3019 RMK AO2 P0001 T01440133", "KPSK 241935Z AUTO 00000KT 10SM CLR 22/04 A3014 RMK AO2 T02200044", "KPSM 241912Z 33006KT 4SM BR BKN005 OVC011 15/15 A3022 RMK AO2A LTG DSNT NE RAE12 SLP236", "KPSN 241915Z AUTO 19012G17KT 1 1/4SM -RA BR BKN030 BKN036 22/22 A2975 RMK AO2 VIS 1/2V2", "KPSO 241915Z AUTO 34011G18KT 10SM CLR 05/M16 A2995 RMK AO2 T00501157", "KPSP 241853Z 24003KT 10SM CLR 22/M12 A3021 RMK AO2 SLP227 T02221117", "KPSX 241853Z AUTO 16019G29KT 10SM BKN043 BKN050 OVC060 28/21 A2979 RMK AO2 PK WND 17029/1852 SLP089 T02780211", "KPTB 241935Z AUTO 32004KT 10SM SCT035 23/13 A3010 RMK AO2 T02250125", "KPTD 241935Z AUTO 01006KT 10SM CLR 22/05 A3015 RMK AO2", "KPTK 241853Z 15010G18KT 10SM SCT250 24/06 A3002 RMK AO2 SLP163 T02390061", "KPTN 241856Z AUTO 14010KT 10SM CLR 27/18 A2996 RMK AO2 SLP145 T02720183 $", "KPTS 241935Z AUTO 32008G16KT 1SM OVC005 12/12 A2970 RMK AO2 P0003 T01210120 PWINO", "KPTT 241915Z AUTO 36020KT 10SM SCT100 13/02 A2978 RMK AO2 T01320018", "KPTV 241856Z AUTO 25009KT 10SM CLR 20/01 A3023 RMK AO2 SLP238 T02000006", "KPTW 241923Z AUTO 03004KT 2 1/2SM BR OVC006 13/13 A3015 RMK AO2 T01330133", "KPUB 241853Z 11008KT 10SM SCT110 06/00 A2991 RMK AO2 SLP120 T00610000", "KPUC 241853Z AUTO 32011G18KT 10SM CLR 06/M08 A3012 RMK AO2 PK WND 31026/1808 SLP216 T00611083", "KPUJ 241935Z AUTO 15005KT 7SM CLR 24/07 A3011 RMK AO2", "KPUW 241928Z AUTO 13009KT 3SM -SN BR FEW013 OVC021 01/01 A2996 RMK AO2 P0004 T00110011", "KPVB 241935Z AUTO 16017G20KT 10SM BKN060 BKN065 21/15 A2971 RMK AO1 T02130147", "KPVC 241856Z AUTO 36005KT 1/4SM FG OVC003 14/14 A3021 RMK AO2 SLP229 T01440144", "KPVD 241930Z 36006KT 10SM BKN004 OVC009 14/14 A3020 RMK AO2 TSB1854E11 RAE25 TS MOV N P0002 T01440139", "KPVF 241935Z AUTO 21005KT 10SM CLR 19/M08 A3024 RMK AO1", "KPVG 241856Z AUTO VRB03KT 10SM OVC016 17/13 A3012 RMK AO2 SLP200 T01720133 PNO $", "KPVJ 241935Z AUTO 36003KT 10SM OVC011 14/13 A2975 RMK AO2 T01390134", "KPVU 241856Z 28005KT 10SM SCT050 05/M03 A3024 RMK AO2 SLP249 T00501028", "KPVW 241910Z AUTO 28012G18KT 10SM SCT018 BKN110 13/09 A2973 RMK AO2 T01340094", "KPWA 241934Z 35008KT 10SM FEW008 BKN012 BKN017 14/11 A2975 RMK AO2 T01440111", "KPWC 241935Z AUTO 19013G21KT 10SM BKN029 10/04 A2956 RMK AO2", "KPWD 241935Z AUTO 32022G32KT 10SM BKN009 OVC012 00/M01 A2963 RMK AO2", "KPWG 241918Z AUTO 02009KT 7SM -RA OVC014 17/17 A2976 RMK AO2 P0001", "KPWK 241852Z 16015G22KT 10SM CLR 23/13 A2983 RMK AO2 SLP098 T02280133", "KPWM 241906Z 01005KT 3SM -RA BR BKN006 OVC010 14/14 A3025 RMK AO2 LTG DSNT NE AND E P0002 T01390139", "KPWT 241934Z AUTO 00000KT 10SM BKN005 10/09 A2996 RMK AO2 CIG 002V008", "KPXE 241915Z AUTO 00000KT 10SM CLR 26/10 A3011 RMK AO2 T02640096", "KPYM 241925Z AUTO 03007KT 4SM BR OVC002 15/14 A3020 RMK AO2 LTG DSNT W RAE21 P0001 T01500144", "KPYX 241935Z AUTO 01013G20KT 10SM SCT040 BKN045 OVC065 10/01 A2981 RMK AO2 T00980011", "KPZQ 241935Z AUTO 14009KT 10SM CLR 22/11 A2989 RMK AO2 T02210111", "KPZZ 241915Z AUTO 12020KT 8SM SCT070 26/21 A2994 RMK A01", "KQAZ 241855Z AUTO VRB04KT 9999 CLR 31/05 A3003 RMK AO2 SLP166 WND DATA ESTMD T03050050", "KQBL 241855Z AUTO VRB03KT 10SM CLR 25/19 A3008 RMK AO2 SLP192 WND DATA ESTMD T02520190", "KQD3 241922Z AUTO 07006KT 9999 FEW020 SCT024 29/24 A2992 RMK AO2 SHRAE04RAB04E06 SLP116 WND DATA ESTMD", "KQEI 241930Z AUTO 15001KT 9999 BKN005 02/01 A3035 RMK A02 TSNO", "KQEJ 241930Z AUTO 19001KT 9999 // FEW002 21/21 / RMK A02 TSNO", "KQEN 241930Z AUTO 10002KT 9999 // BKN029 OVC048 / / RMK A02 TSNO", "KQEP 241930Z AUTO 00000KT 9999 CLR 03/01 A3036 RMK A02 TSNO", "KQEQ 241930Z AUTO 06003KT 9999 CLR 03/01 A3039 RMK A02 TSNO", "KQER 241930Z AUTO 30001KT 9999 CLR 01/M00 A3032 RMK A02 TSNO", "KQEV 241930Z AUTO 26001KT 9999 CLR 01/01 A3030 RMK A02 TSNO", "KQEW 241930Z AUTO 36001KT 9999 // CLR 03/01 A3030 RMK A02 TSNO", "KQEX 241930Z AUTO 04004KT 9999 CLR 05/03 A3023 RMK A02 TSNO", "KQEY 241930Z AUTO 12001KT 9999 CLR 01/M01 A3002 RMK A02 TSNO", "KQFB 241930Z AUTO 19001KT 9999 CLR 05/03 A3034 RMK A02 TSNO", "KQFT 241930Z AUTO 03001KT 9999 CLR 04/03 A3034 RMK A02 TSNO", "KQFU 241930Z AUTO 00000KT 9999 CLR 02/M00 A3039 RMK A02 TSNO", "KQFV 241930Z AUTO 25001KT 9999 CLR M01/M01 A3038 RMK A02 TSNO", "KQFW 241930Z AUTO 03001KT 6000 CLR 00/M00 A3019 RMK A02 TSNO", "KQFX 241930Z AUTO 09001KT 9999 FEW001 18/16 / RMK A02 TSNO", "KQN3 241855Z AUTO 00000KT 9999 CLR 35/07 A2991 RMK AO2 SLP117 WND DATA ESTMD T03480070", "KQRH 241855Z AUTO 08007KT 9999 SCT021 BKN033 30/24 A2987 RMK AO2 SLP117 WND DATA ESTMD T02950235", "KQTZ 241855Z 01004KT 9999 FEW150 SCT180 24/11 A2994 RMK SLP137 WND DATA ESTMD ALSTG/SLP ESTMD", "KQVF 241855Z AUTO 14007KT 9999 FEW014 26/23 A2995 RMK AO2 SLP144 WND DATA ESTMD T02570233", "KRAC 241853Z AUTO 18010KT 10SM CLR 18/11 A2985 RMK AO2 SLP105 T01780111", "KRAL 241853Z 03011G19KT 10SM CLR 23/M08 A3015 RMK AO2 SLP199 T02281083", "KRAP 241905Z 22006KT 5SM -SN BR SCT004 OVC036 00/00 A2978 RMK AO2 P0000 T00000000", "KRAS 241915Z AUTO 16017G26KT 7SM HZ OVC020 A2977 RMK AO2", "KRAW 241935Z AUTO 18009KT 7SM -RA OVC007 18/17 A2968 RMK AO2 P0014", "KRBD 241853Z 34008KT 4SM -RA BR SCT008 OVC041 17/16 A2977 RMK AO2 RAE08B45 SLP075 P0001 T01670161", "KRBG 241915Z AUTO 00000KT 9SM -RA SCT010 OVC017 11/09 A3018 RMK AO2 RAB14 P0000 T01110089", "KRBL 241854Z AUTO 35008KT 10SM CLR 20/M04 A3019 RMK AO2 SLP220 T02001044", "KRBO 241915Z AUTO 10SM SCT001 SCT036 BKN047 32/23 A2973 RMK AO2 T03190225", "KRBW 241915Z AUTO 30007KT 10SM CLR 23/08 A3012 RMK AO2", "KRCA 241920Z AUTO 31011G20KT 10SM CLR 03/M02 A2972 RMK AO2 RAB03E20 PRESFR SLP086 $", "KRCE 241935Z AUTO 36010KT 10SM OVC013 14/11 A2975 RMK AO2", "KRCM 241935Z AUTO 31013G23KT 2 1/2SM RA SCT006 OVC020 12/11 A2969 RMK AO2 P0011", "KRCR 241915Z AUTO 16009G16KT 10SM CLR 22/10 A2995 RMK AO2", "KRCV 241915Z AUTO 32013G17KT 10SM CLR 03/M14 A2995 RMK AO2 T00331140", "KRCX 241935Z AUTO 17011G16KT 7SM -RA BKN012 BKN043 OVC095 18/18 A2964 RMK AO2 P0002 T01770177", "KRCZ 241935Z AUTO 30005KT 10SM CLR 24/12 A3010 RMK AO2 T02350117", "KRDG 241918Z 04004KT 1SM R36/5000VP6000FT -RA BR OVC008 16/14 A3013 RMK AO2 RAB00 P0000 T01560144", "KRDK 241915Z AUTO 33009G16KT 7SM -RA CLR 08/08 A2972 RMK AO2", "KRDM 241856Z 22006KT 10SM BKN045 OVC055 12/04 A3000 RMK AO2 SLP162 T01220044", "KRDR 241855Z 23016KT 10SM OVC015 07/03 A2928 RMK AO2A PK WND 24030/05 SHRAE1755RAB1756E05 SLP922 P0000 T00730033 $", "KRDU 241851Z 01005KT 10SM FEW045 FEW250 24/12 A3011 RMK AO2 SLP195 T02390122 $", "KREG 241915Z AUTO 18013G16KT 10SM SCT075 29/16 A2995 RMK AO2 T02930160", "KREO 241852Z AUTO 22012KT 10/M06 A3013 RMK AO1 SLP215 T01001061", "KRFD 241854Z 18014G22KT 10SM FEW065 SCT200 OVC250 23/13 A2979 RMK AO2 PK WND 17026/1838 SLP085 T02280133", "KRFI 241935Z AUTO 15012G25KT 10SM BKN025 OVC035 27/17 A2977 RMK AO2 T02650166", "KRGA 241919Z AUTO 14011KT 10SM CLR 26/04 A3008 RMK AO2", "KRGK 241935Z AUTO 26003KT 10SM SCT050 BKN095 13/07 A2966 RMK AO2", "KRHI 241853Z AUTO 18011G19KT 10SM OVC016 17/13 A2969 RMK AO2 SLP051 T01720128", "KRHP 241935Z AUTO 26007KT 10SM CLR 25/02 A3011 RMK AO2 T02530016", "KRHV 241847Z 00000KT 10SM SKC 18/01 A3022", "KRIC 241854Z 00000KT 10SM BKN028 23/14 A3011 RMK AO2 SLP198 T02280139", "KRIL 241853Z AUTO VRB03KT 10SM FEW060 OVC075 03/M03 A3011 RMK AO2 SLP207 T00281028", "KRIV 241855Z AUTO 32003KT 10SM CLR 20/M11 A3017 RMK AO2 SLP211 T01991115 $", "KRIW 241853Z AUTO 26003KT 10SM CLR 04/M04 A2989 RMK AO2 SLP132 T00441039", "KRKP 241853Z AUTO 17016G30KT 10SM BKN026 30/23 A2976 RMK AO2 PK WND 17030/1852 SLP079 T03000228", "KRKR 241915Z AUTO 16013G26KT 10SM -RA BKN035 OVC044 22/16 A2968 RMK AO2", "KRKS 241854Z AUTO 28022G39KT 10SM CLR 02/M08 A3003 RMK AO2 PK WND 27039/1846 SLP188 T00171078", "KRKW 241930Z AUTO 13007KT 080V160 10SM CLR 22/06 A3010 RMK A01", "KRLD 241935Z AUTO 20015G21KT 10SM BKN085 OVC110 12/06 A2992 RMK AO2 T01150055", "KRME 241853Z 15008KT 10SM OVC025 18/13 A3017 RMK AO2 SLP216 T01830128", "KRMG 241853Z AUTO 20008KT 10SM CLR 26/09 A3009 RMK AO2 SLP182 T02560089", "KRMN 241935Z AUTO 08004KT 10SM OVC028 20/13 A3015 RMK AO2 T02030133", "KRMY 241935Z AUTO 16008G14KT 10SM CLR 23/12 A2997 RMK AO2 T02300117", "KRNC 241935Z AUTO 24006KT 10SM CLR 25/04 A3004 RMK A01", "KRND 241925Z AUTO 21011KT 10SM BKN029 OVC038 28/21 A2971 RMK AO2 SLP052", "KRNH 241935Z AUTO 21009KT 10SM -DZ SCT035 BKN070 OVC100 12/10 A2965 RMK AO2 T01200101", "KRNM 241853Z 07010G16KT 10SM CLR 22/M08 A3014 RMK AO2 SLP199 T02221083", "KRNO 241855Z 00000KT 10SM BKN230 09/M09 A3027 RMK AO2 SLP246 T00941094", "KRNP 241935Z AUTO 16010G18KT 10SM CLR 25/04 A2997 RMK AO2 T02520044", "KRNT 241853Z 00000KT 10SM OVC015 11/08 A2997 RMK AO2 SLP152 T01060078", "KRNV 241935Z AUTO 16015G22KT 10SM SCT060 A2989 RMK AO2 TSNO", "KROA 241854Z 00000KT 10SM CLR 24/06 A3014 RMK AO2 SLP201 T02390061", "KROC 241854Z 06009KT 10SM FEW230 21/11 A3013 RMK AO2 SLP207 P0000 T02060111", "KROG 241921Z 10SM -RA OVC016 18/18 A2971 RMK AO2 RAB20 P0000 $", "KROS 241924Z AUTO 21008KT 10SM -DZ SCT060 SCT075 BKN100 15/07 A2962 RMK AO2", "KROW 241851Z 32013G22KT 10SM FEW035 BKN048 BKN055 13/05 A2984 RMK AO2 SLP060 T01330050", "KROX 241935Z AUTO 20020G38KT 10SM OVC023 09/05 A2929 RMK AO2", "KRPD 241935Z AUTO 21007KT 10SM -DZ OVC027 14/12 A2964 RMK AO2 P0001 T01400121", "KRPH 241935Z AUTO VRB03KT 10SM SCT022 BKN100 19/14 A2971 RMK AO2 T01930143 $", "KRPJ 241915Z AUTO 17014G20KT 10SM CLR 23/15 A2978 RMK AO2 T02320151 TSNO", "KRPX 241846Z AUTO 10SM 08/M05 A2972 RMK Roundup ", "KRQB 241935Z AUTO 18012G18KT 10SM CLR 23/12 A2990 RMK AO2 T02270123", "KRQE 241853Z AUTO 32019G24KT 10SM CLR 04/M06 A3011 RMK AO2 SLP163 T00441056", "KRRL 241935Z AUTO 19009G14KT 10SM OVC026 18/14 A2968 RMK AO2 T01810140 TSNO", "KRRT 241915Z AUTO 19017G27KT 10SM 09/06 A2930 RMK AO2", "KRSL 241853Z AUTO 34019G28KT 10SM CLR 14/M04 A2978 RMK AO2 PK WND 33028/1846 SLP079 T01441039", "KRSV 241915Z AUTO 19011KT 10SM CLR 24/11 A2994 RMK AO2 T02420107", "KRSW 241853Z 08006KT 10SM FEW049 29/18 A3001 RMK AO2 SLP159 T02940183", "KRTN 241911Z AUTO 03009KT 3/4SM -SN BR SCT005 BKN012 OVC016 01/00 A2988 RMK AO2 P0001 T00060000", "KRTS 241935Z AUTO 00000KT 10SM CLR 10/M11 A3026 RMK AO2", "KRUE 241853Z AUTO 17008G20KT 130V220 10SM FEW044 OVC060 25/16 A2978 RMK AO2 SLP078 T02500156", "KRUG 241935Z AUTO 31024G32KT 2 1/2SM -RA FEW016 01/01 A2940 RMK AO2", "KRUQ 241935Z AUTO 26004KT 10SM CLR 22/09 A3012 RMK AO2 T02150092", "KRUT 241856Z AUTO 14005KT 9SM -RA FEW021 BKN039 OVC055 16/13 A3022 RMK AO2 RAB38 SLP228 P0000 T01610133 $", "KRVF 241935Z AUTO 14017KT 10SM CLR 05/M06 A2995 RMK AO2", "KRVJ 241915Z AUTO 33003KT 10SM CLR 26/11 A3011 RMK AO2 T02560108", "KRVL 241935Z AUTO 13005KT 6SM HZ OVC022 18/13 A3013 RMK AO2", "KRVS 241853Z 36005KT 6SM RA BR FEW011 BKN090 OVC100 14/12 A2972 RMK AO2 SLP068 P0019 T01390122", "KRWF 241853Z AUTO 22015G21KT 10SM CLR 09/01 A2966 RMK AO2 SLP044 T00940011", "KRWI 241853Z AUTO 34004KT 10SM CLR 23/13 A3010 RMK AO2 SLP193 T02330128", "KRWL 241853Z AUTO 25018G28KT 10SM CLR 01/M05 A2997 RMK AO2 PK WND 25029/1816 SLP161 T00111050", "KRWV 241915Z AUTO 18015G23KT 10SM OVC030 27/20 A2976 RMK AO2 T02700198", "KRXE 241853Z AUTO 23014G22KT 10SM BKN019 02/M04 A3013 RMK AO2 SLP222 T00171044", "KRYM 241855Z AUTO 21011G18KT 10SM SCT030 11/04 A2956 RMK AO2 SLP014 T01100042 $", "KRYN 241845Z 33011KT 10SM CLR 16/M07 A3013", "KRYV 241935Z AUTO 16008G16KT 10SM SCT050 21/12 A2976 RMK AO2 T02080117", "KRYW 241855Z AUTO 19005G19KT 10SM BKN016 OVC021 25/21 A2976 RMK AO2 T02510213", "KRYY 241850Z 11008KT 10SM CLR 24/09 A3014 RMK AO2 SLP199 T02440094 $", "KRZL 241935Z AUTO 17011KT 10SM CLR 23/11 A2992 RMK AO2", "KRZN 241935Z AUTO 24008KT 10SM RA CLR 15/07 A2960 RMK AO2 T01470068", "KRZR 241935Z AUTO 22008KT 10SM CLR 25/06 A3006 RMK A01", "KRZT 241935Z AUTO 13007KT 10SM CLR 23/01 A3007 RMK AO2 PWINO", "KS21 241935Z AUTO 17016KT 3SM BR OVC014 07/06 A3008 RMK AO2", "KS24 241935Z AUTO 20010KT 10SM CLR 25/06 A3004 RMK AO2", "KS25 241935Z AUTO 31017G29KT 10SM OVC011 M00/M00 A2963 RMK AO2", "KS32 241935Z AUTO 26023G31KT 9SM OVC011 05/05 A2940 RMK AO2 TSNO", "KS33 241915Z AUTO 20004G16KT 10SM OVC040 13/05 A3000 RMK AO2", "KS39 241935Z AUTO 04006KT 2 1/2SM -RA FEW027 SCT031 BKN041 07/05 A3002 RMK AO2", "KS52 241915Z AUTO 00000KT 10SM SCT032 BKN070 OVC120 08/00 A2987 RMK AO2 T00800003", "KS59 241930Z AUTO 17003KT 10SM 06/01 A2983 ", "KS71 241930Z AUTO 00000KT 10SM 04/03 A2976 ", "KS85 241925Z AUTO 29020G28KT 10SM OVC020 02/00 A2966 RMK A01 Culbertson ", "KSAA 241915Z AUTO 24019G28KT 10SM OVC075 00/M05 A3000 RMK AO2", "KSAC 241853Z VRB05KT 10SM CLR 18/M03 A3021 RMK AO2 SLP231 T01831028", "KSAD 241851Z AUTO 27017G27KT 10SM CLR 14/M02 A3007 RMK AO2 PK WND 26027/1848 SLP162 T01441022", "KSAF 241853Z 30018G27KT 10SM BKN044 BKN050 BKN060 04/M03 A2989 RMK AO2 PK WND 34030/1802 SLP093 T00441028", "KSAN 241851Z VRB06KT 10SM CLR 23/07 A3015 RMK AO2 SLP208 T02280072", "KSAR 241935Z AUTO 16009G21KT 10SM SCT060 SCT070 SCT080 23/12 A2988 RMK AO2 T02340122", "KSAT 241851Z 17011KT 10SM SCT027 BKN033 OVC044 28/21 A2975 RMK AO2 SLP056 T02780206", "KSAV 241853Z 01006KT 10SM FEW250 25/07 A3012 RMK AO2 SLP197 T02500067", "KSAW 241846Z 17019G23KT 10SM CLR 20/13 A2971", "KSAZ 241935Z 21014G19KT 10SM 09/02 A2957 RMK AO2", "KSBD 241853Z 00000KT 10SM CLR 22/M10 A3016", "KSBM 241853Z AUTO 17012G24KT 10SM CLR 18/12 A2979 RMK AO2 SLP086 T01830122", "KSBN 241854Z 17013KT 10SM CLR 23/12 A2993 RMK AO2 SLP132 T02280117", "KSBO 241915Z AUTO 12006KT 10SM CLR 26/07 A3013 RMK AO2", "KSBP 241856Z 00000KT 10SM CLR 23/M01 A3017 RMK AO2 SLP214 T02281011", "KSBS 241915Z AUTO 23010G14KT 10SM SCT034 BKN043 OVC049 M02/M06 A3006 RMK AO1 T10221057", "KSBY 241854Z 33007KT 7SM OVC006 17/16 A3009 RMK AO2 CIG 004V009 SLP190 T01670156", "KSCD 241935Z AUTO 18004KT 10SM BKN110 26/09 A3009 RMK AO2 T02590091", "KSCH 241845Z 00000KT 04SM -DZ OVC023 14/14 A3022", "KSCK 241855Z 00000KT 10SM CLR 18/M02 A3022 RMK AO2 SLP233 T01831017", "KSCR 241935Z AUTO 04003KT 10SM CLR 24/07 A3011 RMK AO2 T02420071", "KSCX 241935Z AUTO 22007KT 10SM CLR 24/03 A3008 RMK A01", "KSDA 241915Z AUTO VRB04G10KT 10SM -RA FEW090 09/08 A2973 RMK AO2", "KSDB 241853Z AUTO 07011G20KT 10SM CLR 12/M11 A3027 RMK AO2 PK WND 06028/1801 SLP227 T01171106 $", "KSDC 241935Z AUTO 07004KT 10SM CLR 19/06 A3014 RMK AO2", "KSDF 241856Z 15010KT 10SM FEW150 BKN300 26/06 A3002 RMK AO2 SLP161 T02610061", "KSDL 241853Z 00000KT 10SM CLR 19/M06 A3013 RMK AO2 SLP188 T01891061", "KSDM 241853Z 00000KT 10SM CLR 24/M03 A3012 RMK AO2 SLP197 T02391033", "KSDY 241919Z AUTO 30020G26KT 10SM SCT020 BKN033 03/M01 A2966 RMK AO2 PK WND 30029/1900 PNO $", "KSEA 241853Z 21008KT 10SM OVC010 10/08 A2996 RMK AO2 SLP153 T01000078", "KSEE 241847Z 00000KT 10SM SKC 23/M03 A3014", "KSEF 241915Z AUTO 11007KT 10SM SCT038 SCT065 BKN080 28/20 A3004 RMK AO2", "KSEG 241853Z AUTO VRB03KT 10SM OVC015 17/13 A3015 RMK AO2 SLP209 T01670133", "KSEM 241935Z AUTO 17007KT 080V210 10SM BKN055 27/12 A3004 RMK AO2", "KSEP 241935Z AUTO 12006KT 10SM BKN007 BKN070 OVC085 17/16 A2976 RMK AO2 T01660160", "KSEQ 241855Z AUTO 19011KT 10SM FEW026 SCT034 BKN043 OVC055 28/21 A2973 RMK AO2 SLP063 T02840206", "KSET 241854Z AUTO 17015G23KT 10SM OVC080 24/15 A2980 RMK AO2 PK WND 17029/1820 RAE39 SLP087 P0000 T02390150", "KSEZ 241935Z AUTO 34005G08KT 10SM 13/M08 A3015 RMK AO2", "KSFB 241853Z 06011G16KT 10SM FEW060 28/18 A3006 RMK AO2 SLP178 T02780183", "KSFF 241853Z 23005KT 10SM -RA BKN012 OVC020 04/01 A2994 RMK AO2 RAE22B52 SLP147 P0000 T00390011", "KSFM 241922Z AUTO 03004KT 10SM -RA 14/13 A3025 RMK AO2 TSB07E22 P0001", "KSFO 241856Z 00000KT 10SM FEW200 19/07 A3022 RMK AO2 SLP232 T01890067", "KSFQ 241935Z AUTO 04005KT 10SM SCT021 20/15 A3011 RMK AO2 T02000145", "KSFY 241923Z AUTO 16012KT 10SM OVC050 22/13 A2973 RMK AO2", "KSFZ 241929Z AUTO 36005KT 1 1/4SM -RA BR OVC003 13/13 A3021 RMK AO2 TSE28 P0005", "KSGF 241852Z 17011KT 10SM -RA BKN025 BKN034 OVC070 19/18 A2972 RMK AO2 SLP054 P0002 T01890178 $", "KSGH 241856Z AUTO 17007G14KT 10SM CLR 24/05 A3007 RMK AO2 SLP179 T02390050", "KSGJ 241856Z 04007KT 10SM CLR 24/16 A3012 RMK AO2 SLP197 T02440156", "KSGR 241853Z 17018G25KT 10SM SCT031 OVC043 27/20 A2980 RMK AO2 PK WND 17027/1757 SLP094 T02670200", "KSGS 241935Z AUTO 22008KT 10SM -RA OVC090 12/06 A2967 RMK AO2 T01240060", "KSGT 241856Z AUTO 18020G26KT 10SM CLR 28/14 A2987 RMK AO2 PK WND 19028/1846 SLP114 T02830139", "KSGU 241856Z AUTO VRB04KT 10SM CLR 11/M04 A3024 RMK AO2 SLP240 T01111039", "KSHD 241935Z AUTO 00000KT 10SM CLR 22/10 A3013 RMK AO2 T02160101", "KSHL 241915Z AUTO 25011KT 10SM CLR 08/M02 A2969 RMK AO2", "KSHN 241853Z AUTO 24013KT 10SM CLR 13/10 A2994 RMK AO2 SLP141 T01330100", "KSHR 241853Z AUTO 34016KT 10SM CLR 07/M03 A2980 RMK AO2 PK WND 33027/1812 SLP109 T00721033", "KSHV 241856Z 16014G27KT 10SM FEW040 SCT060 BKN160 28/17 A2982 RMK SLPNO", "KSIF 241915Z AUTO 00000KT 10SM CLR 24/07 A3011 RMK AO2 T02380071", "KSIK 241935Z AUTO 16011G20KT 10SM SCT070 26/12 A2990 RMK AO2", "KSIY 241853Z AUTO 01005KT 10SM FEW034 OVC047 08/01 A3027 RMK AO2 SLP270 T00780011", "KSJC 241853Z VRB05KT 10SM FEW110 21/M02 A3021 RMK AO2 SLP229 T02061017", "KSJS 241915Z AUTO 20003KT 10SM CLR 24/04 A3011 RMK AO2 T02420042", "KSJT 241851Z 16009KT 10SM BKN038 26/14 A2973 RMK AO2 SLP045 T02560144", "KSJX 241935Z AUTO 17006KT 10SM CLR 20/13 A2983 RMK AO2 T01980125", "KSKA 241935Z 18012G18KT 10SM BKN009 OVC028 04/02 A2987 RMK AO2A CIG 007V009 CIG 008 RWY05 SLP389 $", "KSKF 241935Z AUTO 14010KT 9SM SCT034 SCT046 BKN180 30/21 A2968 RMK AO2 PRESFR SLP043 $", "KSKX 241856Z AUTO 34016G24KT 10SM SCT060 05/M07 A2991 RMK AO2 SLP123 T00501072", "KSLB 241915Z AUTO 29007KT 6SM -RA CLR 06/04 A2972 RMK AO2", "KSLC 241854Z 25007KT 10SM FEW037 BKN049 BKN055 06/M02 A3022 RMK AO2 SLP232 T00611022", "KSLE 241903Z 19014KT 4SM -RA BR BKN009 BKN034 OVC049 11/09 A3007 RMK AO2 P0000 T01060089", "KSLG 241914Z AUTO 18014KT 6SM RA BR OVC013 19/19 A2970 RMK AO2 P0005", "KSLH 241935Z AUTO 06005KT 10SM CLR 19/13 A2987 RMK AO2", "KSLI 241855Z 35005KT 10SM CLR 24/M02 A3012 RMK AO2A SLP203 T02391019", "KSLK 241851Z AUTO 09007KT 10SM CLR 20/13 A3017 RMK AO2 SLP220 T02000128", "KSLN 241853Z 33011KT 10SM SCT080 OVC095 10/06 A2980 RMK AO2 RAB1757E13 SLP084 P0001 T01000056", "KSLO 241935Z AUTO 17016G21KT 10SM SCT055 OVC065 26/11 A2989 RMK AO2 T02580111", "KSLR 241910Z AUTO 28011G21KT 3SM +RA BKN009 BKN017 OVC034 20/19 A2976 RMK AO2 P0010 T02000186", "KSME 241915Z AUTO 00000KT 10SM CLR 25/04 A3005 RMK AO2", "KSMF 241853Z 00000KT 10SM FEW250 20/M01 A3021 RMK AO2 SLP228 T02001011", "KSMN 241856Z AUTO 08010KT 10SM CLR 06/M07 A3003 RMK AO2 SLP865 T00561067", "KSMO 241851Z 18005KT 10SM CLR 22/M04 A3015 RMK AO2 SLP210 T02221039", "KSMP 241935Z AUTO 27009G27KT 200V340 10SM SCT004 BKN007 OVC012 03/02 A2987 RMK AO2 PK WND 19031/1922 T00330022 ", "KSMQ 241926Z AUTO 03004KT 1 3/4SM BR OVC007 16/15 A3012 RMK AO2 T01560150", "KSMS 241935Z AUTO VRB05KT 10SM CLR 24/10 A3012 RMK AO2", "KSMX 241851Z 15003KT 10SM CLR 20/01 A3018 RMK AO2 SLP222 T02000006", "KSNA 241853Z 07009G15KT 10SM CLR 27/M11 A3013 RMK AO2 SLP203 T02671106", "KSNC 241935Z AUTO 00000KT 9SM OVC001 15/15 A3018 RMK AO2", "KSNH 241930Z AUTO 17013KT 140V200 10SM CLR 26/10 A2996 RMK A01", "KSNK 241935Z AUTO 25016G23KT 10SM SCT080 BKN095 BKN120 23/08 A2970 RMK AO2 T02320075", "KSNL 241915Z AUTO 35007KT 10SM -RA OVC009 13/12 A2973 RMK AO2 T01280117", "KSNS 241853Z 00000KT 10SM CLR 20/00 A3021 RMK AO2 SLP237 T02000000", "KSNT 241851Z AUTO 33005KT M01/M07 A3009 RMK AO1 SLP195 T10111067", "KSNY 241853Z AUTO 32025G42KT 10SM FEW047 08/M04 A2984 RMK AO2 PK WND 33042/1848 SLP105 T00831044", "KSOA 241915Z AUTO 20008G16KT 10SM FEW043 28/17 A2977 RMK AO2", "KSOP 241856Z AUTO 02005KT 10SM CLR 23/11 A3013 RMK AO2 SLP205 T02330111 TSNO", "KSOW 241935Z AUTO 35015G20KT 10SM CLR 06/M09 A3017 RMK AO2", "KSPA 241935Z AUTO 00000KT 7SM CLR 23/03 A3012 RMK AO2", "KSPB 241934Z AUTO 00000KT 10SM FEW007 SCT060 BKN090 11/09 A3006 RMK AO2 T01110094", "KSPD 241856Z AUTO 03014G25KT 10/M05 A2986 RMK AO1 PK WND 36027/1835 SLP079 T01001050", "KSPF 241935Z AUTO 28020G30KT 10SM SCT033 02/M04 A2975 RMK AO2", "KSPG 241853Z 04003KT 10SM CLR 28/22 A3003 RMK AO2 SLP168 T02830217", "KSPI 241852Z 18015G31KT 10SM CLR 23/14 A2982 RMK AO2 PK WND 19031/1849 SLP094 T02330139", "KSPS 241906Z VRB04KT 10SM BKN014 17/13 A2975 RMK AO2 T01720128", "KSPW 241853Z AUTO 25014KT 10SM -RA SCT075 OVC100 09/M02 A2974 RMK AO2 RAB52 SLP068 P0000 T00941017", "KSQI 241856Z AUTO 15007KT 120V190 10SM CLR 22/14 A2977 RMK AO2 SLP946 T02220139", "KSRB 241935Z AUTO 21005KT 10SM CLR 24/06 A3005 RMK A01", "KSRC 241856Z AUTO 16015G21KT 10SM CLR 27/15 A2986 RMK AO2 SLP108 T02720150", "KSRQ 241853Z 29010KT 10SM BKN046 BKN055 BKN070 28/20 A3002 RMK AO2 RAB01E11 SLP164 P0000 T02780200", "KSRR 241935Z AUTO 29025G34KT 10SM -RA 03/M03 A2991 RMK AO2", "KSSC 241855Z 04005KT 10SM FEW250 23/09 A3011 RMK AO2A SLP197 T02330093 $", "KSSF 241853Z 17010KT 10SM BKN031 BKN040 29/21 A2971 RMK AO2 SLP050 T02940211", "KSSI 241853Z AUTO 08007KT 10SM CLR 24/09 A3012 RMK AO2 SLP200 T02440094", "KSTC 241853Z 22014G25KT 10SM CLR 11/03 A2962 RMK AO2 SLP037 T01110033", "KSTE 241915Z AUTO 17012G15KT 10SM BKN045 OVC050 20/12 A2972 RMK AO2 T02020122", "KSTF 241935Z AUTO 16015G22KT 10SM FEW047 27/15 A2995 RMK AO2", "KSTJ 241929Z 33009KT 6SM -RA BR SCT008 SCT048 OVC075 09/09 A2974 RMK AO2 P0005 T00940094", "KSTK 241915Z AUTO 30022G27KT 10SM SCT060 10/M04 A2985 RMK AO2", "KSTL 241851Z 17014G28KT 10SM SCT037 BKN085 BKN250 24/14 A2982 RMK AO2 PK WND 17028/1843 SLP088 T02390144 $", "KSTP 241853Z 20006KT 10SM -RA OVC100 13/06 A2966 RMK AO2 RAB32 SLP040 P0000 T01330061", "KSTS 241853Z AUTO 00000KT 10SM CLR 20/01 A3021 RMK AO2 SLP225 T02000006", "KSUA 241850Z 05010G15KT 10SM SCT028 28/18 A3005", "KSUE 241856Z AUTO 18017G23KT 10SM CLR 15/11 A2977 RMK AO2 SLP080 T01500106", "KSUN 241847Z 12010G18KT 10SM SCT120 04/M05 A3012", "KSUS 241854Z 16008G24KT 10SM SCT085 BKN200 24/15 A2979 RMK AO2 SLP081 T02390150", "KSUT 241835Z AUTO 00000KT 10SM OVC009 18/15 A3012 RMK AO2 T01830151", "KSUU 241855Z AUTO 36006KT 10SM CLR 23/M03 A3020 RMK AO2 SLP233 T02291035 $", "KSUW 241935Z AUTO 22011G26KT 10SM CLR 20/06 A2952 RMK AO2 T01960064", "KSUX 241852Z 29009KT 10SM OVC100 09/M01 A2975 RMK AO2 SLP073 T00941006", "KSUZ 241935Z AUTO 18021G26KT 10SM FEW055 BKN065 BKN080 28/15 A2980 RMK A01", "KSVC 241935Z AUTO 30021G29KT 10SM CLR 12/M05 A3007 RMK AO2 T01171046", "KSVE 241935Z AUTO 14004KT 10SM CLR M14/M26 A3025 RMK AO2", "KSVH 241935Z AUTO 30003KT 10SM CLR 23/08 A3012 RMK AO2 T02330082", "KSVN 241855Z AUTO 34005KT 10SM CLR 26/10 A3009 RMK AO2 SLP193 T02560098 $", "KSWF 241845Z 07006KT 2SM -DZ BR OVC005 14/14 A3016", "KSWO 241934Z 34005KT 10SM BKN008 OVC015 14/12 A2973 RMK AO2 CIG 006V012 T01390122", "KSWW 241935Z AUTO 20011KT 10SM CLR 25/13 A2974 RMK AO2 T02450133", "KSXK 241915Z AUTO 28012KT 10SM CLR 08/M02 A2970 RMK AO2", "KSXS 241855Z AUTO 18003KT 8SM CLR 27/10 A3006 RMK AO2 SLP179 T02670095 $", "KSXT 241934Z AUTO 21010KT 1/4SM FG VV002 06/06 A3019 RMK AO2 T00560056 ", "KSXU 241935Z AUTO 36014G23KT 10SM SCT032 SCT047 OVC055 06/02 A2979 RMK AO2 T00620022", "KSYF 241935Z AUTO 33016G25KT 10SM CLR 11/M06 A2983 RMK AO2 T01131060 PWINO", "KSYI 241935Z AUTO 20013KT 10SM CLR 25/03 A3003 RMK A01", "KSYM 241935Z AUTO 17006KT 10SM CLR 25/01 A3009 RMK AO2", "KSYN 241935Z AUTO 23009KT 10SM -RA SCT028 SCT036 SCT085 11/07 A2968 RMK AO2 T01120069", "KSYR 241854Z 03008KT 10SM FEW025 BKN034 BKN110 20/13 A3015 RMK AO2 SLP206 T02000128", "KSZL 241855Z 16013KT 4SM -RA BKN007 OVC013 19/18 A2961 RMK AO2A SLP024 P0018 T01870177", "KSZT 241935Z AUTO 22006KT 10SM -RA OVC011 03/02 A2990 RMK AO2", "KSZY 241935Z AUTO 17009G17KT 140V200 10SM CLR 24/12 A2996 RMK A01", "KT20 241915Z AUTO 18009KT 10SM BKN029 OVC038 29/22 A2974 RMK AO2 T02900222", "KT41 241915Z AUTO 10SM BKN055 OVC075 28/19 A2982 RMK AO2 T02780186", "KT69 241935Z AUTO 18016G22KT 9SM SCT032 SCT040 31/24 A2972 RMK A01", "KT70 241855Z AUTO 05009KT 10SM CLR 29/20 A2969 RMK AO2 SLP041 T02910202 $", "KT74 241915Z AUTO 18010KT 10SM BKN025 BKN039 BKN060 26/22 A2973 RMK AO2 T02630218", "KT78 241935Z AUTO 17011G22KT 140V200 10SM OVC065 28/19 A2980 RMK AO2", "KT82 241915Z AUTO 21015G19KT 10SM BKN032 BKN042 28/19 A2975 RMK AO2 T02760185", "KT89 241935Z AUTO 28021G27KT 10SM CLR 30/M02 A2977 RMK A01", "KTAD 241926Z AUTO 04007KT 1 3/4SM -SN BR BKN008 OVC015 02/01 A2993 RMK AO2 P0002 T00170006", "KTAN 241852Z AUTO A3020 RMK AO2 SLPNO PWINO FZRANO TSNO $", "KTAZ 241915Z AUTO 17012G20KT 10SM BKN060 24/14 A2985 RMK AO2 T02350140", "KTBN 241855Z AUTO 16013G26KT 10SM OVC022 21/15 A2977 RMK AO2 PK WND 15027/32 CIG 021 RWY33 SLP075 T02060147", "KTBR 241915Z AUTO 00000KT 10SM CLR 25/07 A3011 RMK AO2 T02490066", "KTCC 241853Z AUTO 06013KT 10SM BKN015 BKN032 OVC048 07/05 A2979 RMK AO2 RAE1759 SLP064 P0000 T00670050", "KTCL 241853Z 18005KT 10SM FEW050 SCT060 26/11 A3005 RMK AO2 SLP175 T02610111", "KTCM 241855Z AUTO 22014G22KT 10SM CLR 12/10 A2995 RMK AO2 SLP146 T01190098 $", "KTCS 241853Z AUTO 31019G28KT 10SM FEW060 11/M04 A3000 RMK AO2 PK WND 31044/1809 SLP111 T01061044", "KTCY 241935Z AUTO 35007KT 330V030 10SM CLR 19/M02 A3022 RMK A01", "KTDF 241935Z AUTO 34004KT 10SM CLR 22/08 A3012 RMK AO2", "KTDR 241855Z AUTO 18010KT 10SM CLR 29/20 A3004 RMK AO2 SLP176 T02910197 $", "KTDZ 241853Z AUTO 16013G20KT 10SM CLR 25/07 A3003 RMK AO2 SLP166 T02500072", "KTEB 241919Z 07004KT 1 1/2SM BR OVC004 16/14 A3013 RMK AO2 SFC VIS 2 1/2 T01560144", "KTEW 241935Z AUTO 18007G16KT 130V210 10SM CLR 25/08 A2999 RMK AO2 T02470078", "KTEX 241915Z AUTO 02005KT 10SM SCT040 BKN046 M03/M12 A3008 RMK AO2", "KTFP 241855Z AUTO 19017G25KT 10SM SCT018 SCT025 30/23 A2974 RMK AO2 T02950234", "KTGI 241935Z AUTO 33011G15KT 10SM BKN011 OVC018 17/14 A3010 RMK AO1 T01650143", "KTHA 241935Z AUTO 19007G12KT 10SM CLR 24/05 A3004 RMK A01", "KTHV 241853Z AUTO 35004KT 10SM OVC009 16/13 A3013 RMK AO2 SLP205 T01560133", "KTIF 241915Z AUTO 30015G26KT 10SM SCT055 10/M04 A2977 RMK AO2 T00951045", "KTIK 241855Z 36010KT 10SM OVC008 12/12 A2973 RMK AO2A CIG 007 RWY13 SLP068 T01240122", "KTIP 241915Z AUTO 16016G23KT 10SM CLR 24/12 A2988 RMK AO2 T02350123", "KTIW 241853Z 22015G23KT 10SM FEW012 11/08 A2994 RMK AO2 SLP140 T01110083", "KTIX 241847Z 07010KT 7SM SCT035 29/18 A3007", "KTKC 241915Z AUTO 24012KT 10SM 08/M02 A2969 RMK AO2 T00821019", "KTKI 241913Z 01004KT 3SM -RA BR FEW009 BKN044 OVC055 17/17 A2976 RMK AO2 P0007 T01720167", "KTKV 241935Z AUTO 00000KT 10SM OVC018 17/14 A2968 RMK AO2 T01710140 PWINO", "KTKX 241935Z AUTO 18015G24KT 9SM BKN055 26/14 A2988 RMK AO2 TSNO", "KTLH 241853Z COR 13004KT 10SM BKN050 BKN250 28/14 A3008 RMK AO2 SLP185 T02830139", "KTMB 241853Z 09008KT 10SM OVC075 28/21 A3001 RMK AO2 SLP161 T02780211", "KTME 241935Z AUTO 18014G24KT 9SM OVC037 28/20 A2978 RMK AO2", "KTMK 241915Z AUTO 17004KT 10SM OVC055 13/11 A3009 RMK AO2", "KTMT 241915Z AUTO 22005KT 10SM CLR 07/M13 A3029 RMK AO2 T00671130", "KTNB 241910Z AUTO 16005KT 10SM CLR 21/05 A3018 RMK AO2 T02120051", "KTNU 241915Z AUTO 31016KT 3SM BR OVC020 11/11 A2969 RMK A01", "KTOA 241850Z 00000KT 10SM SKC 25/00 A3016", "KTOB 241935Z AUTO 29006KT 10SM RA SCT025 SCT090 11/06 A2963 RMK AO2", "KTOC 241915Z AUTO 13004KT 10SM CLR 24/07 A3013 RMK AO2 T02380067", "KTOI 241853Z AUTO VRB03KT 10SM CLR 28/08 A3009 RMK AO2 SLP185 T02830078", "KTOL 241852Z 20007G16KT 10SM CLR 26/07 A3002 RMK AO2 SLP162 T02560067", "KTOP 241914Z 34008KT 9SM -RA BKN011 BKN026 OVC080 11/09 A2975 RMK AO2 P0002 T01110089", "KTOR 241853Z AUTO 32014KT 10SM FEW045 04/M02 A2987 RMK AO2 RAB35E41 SLP124 P0000 T00441022", "KTPA 241853Z 28008KT 10SM SCT048 29/19 A3005 RMK AO2 SLP174 T02890189 $", "KTPH 241856Z AUTO VRB03KT 10SM CLR 08/M10 A3027 RMK AO2 SLP248 T00831100", "KTPL 241851Z AUTO 18015KT 10SM OVC015 24/22 A2975 RMK AO2 SLP062 T02440222", "KTQE 241854Z AUTO 33004KT 10SM -RA FEW075 OVC095 09/04 A2976 RMK AO2 SLP069 P0003 T00940044", "KTQH 241935Z AUTO 33012KT 1 1/4SM HZ BKN009 OVC017 16/13 A2971 RMK AO2", "KTQK 241915Z AUTO 35018G26KT 10SM CLR 14/M05 A2983 RMK AO2 T01351052", "KTQV 241935Z AUTO 00000KT 10SM CLR 24/10 A3010 RMK A01", "KTRI 241853Z 11004KT 10SM FEW250 24/05 A3013 RMK AO2 SLP188 T02390050", "KTRK 241845Z 00000KT 10SM CLR 09/M08 A3029", "KTRL 241916Z AUTO 32008KT 2SM +RA BR FEW007 BKN026 OVC049 18/16 A2977 RMK AO2 P0002 T01780161", "KTRM 241852Z AUTO 30008KT 10SM CLR 22/M12 A3018 RMK AO2 SLP221 T02221117", "KTSP 241935Z AUTO 13009KT 8SM CLR 14/M12 A3026 RMK AO2", "KTTA 241915Z AUTO 00000KT 10SM CLR 24/09 A3010 RMK AO2 T02350088", "KTTD 241918Z VRB05KT 7SM -RA OVC010 11/09 A3007 RMK AO2 P0001 T01110089", "KTTF 241935Z AUTO 16008KT 120V190 10SM CLR 24/07 A3002 RMK AO2 T02350072", "KTTN 241909Z 03006KT 6SM BR OVC004 14/14 A3012 RMK AO2 T01440139", "KTTS 241855Z AUTO 07009KT 10SM SCT038 27/17 A3004 RMK AO2 VIS 3/4 RWY15/33 SLP177 T02730171 $", "KTUL 241853Z 35014KT 4SM RA BR SCT009 BKN028 OVC050 13/13 A2972 RMK AO2 PK WND 31026/1803 SLP058 P0022 T01330133 $", "KTUP 241853Z 15013G22KT 10SM CLR 26/13 A2998 RMK AO2 SLP147 T02610133 $", "KTUS 241853Z 34011KT 10SM CLR 17/M08 A3014 RMK AO2 SLP179 T01721078 $", "KTVC 241853Z 18010G20KT 10SM FEW110 OVC220 22/12 A2984 RMK AO2 SLP103 T02220117", "KTVF 241856Z AUTO 21031G45KT 10SM OVC023 08/03 A2932 RMK AO2 PK WND 21045/1848 SLP934 T00780033", "KTVI 241915Z AUTO 00000KT 10SM CLR 26/11 A3010 RMK AO2", "KTVL 241853Z AUTO 04003KT 10SM CLR 12/M13 A3028 RMK AO2 SLP235 T01221128", "KTVR 241853Z AUTO 17013KT 10SM FEW070 FEW080 29/15 A2994 RMK AO2 SLP143 T02890150", "KTVY 241935Z AUTO 11006KT 10SM CLR 06/M01 A3023 RMK AO2", "KTWF 241853Z 26012KT 10SM CLR 09/M06 A3017 RMK AO2 SLP210 T00891061", "KTWM 241935Z AUTO 20011G21KT 10SM CLR 19/08 A2950 RMK AO2", "KTWT 241935Z AUTO 19014KT 10SM CLR 26/06 A2995 RMK AO2", "KTXK 241853Z 15018G28KT 10SM CLR 27/17 A2979 RMK AO2 PK WND 15028/1847 SLP081 T02720167", "KTXW 241910Z AUTO 16017G22KT 1SM HZ OVC036 31/23 A2974 RMK AO2 VIS 1/4V5 T03140227", "KTYL 241915Z AUTO 36014G21KT 300V010 10SM CLR 08/M11 A3018 RMK AO2", "KTYQ 241915Z AUTO 19012KT 10SM CLR 24/09 A2998 RMK AO2 T02370090", "KTYR 241853Z 16015G25KT 10SM FEW028 OVC050 26/19 A2974 RMK AO2 PK WND 19028/1819 SLP062 T02560189", "KTYS 241853Z 00000KT 10SM SCT250 24/04 A3010 RMK AO2 SLP188 T02390044", "KTZR 241847Z 18004G18KT 10SM CLR 24/06 A3008", "KU42 241935Z AUTO 00000KT 10SM BKN043 05/M01 A3022 RMK AO1 T00451011", "KU55 241935Z AUTO 31007KT 10SM 02/M06 A3024 RMK A01", "KU68 241915Z AUTO 11010KT 10SM CLR 06/M01 A2985 RMK AO2", "KUAO 241853Z 20009KT 10SM BKN009 OVC021 10/09 A3008 RMK AO2 RAE18 SLP184 P0000 T01000089", "KUBE 241935Z AUTO 20008KT 10SM -RA SCT034 BKN047 OVC100 13/13 A2963 RMK AO2 P0003", "KUCP 241856Z AUTO 07006KT 10SM CLR 22/06 A3012 RMK AO2 SLP214 T02220061", "KUCY 241935Z AUTO 18017KT 10SM CLR 27/07 A2991 RMK A01", "KUDG 241856Z AUTO VRB03KT 10SM CLR 22/14 A3013 RMK AO2 SLP204 T02220139", "KUES 241845Z 15010G19KT 10SM SCT120 20/12 A2981", "KUGN 241855Z 15007KT 10SM CLR 19/12 A2982 RMK AO2 SLP090 T01940117", "KUIL 241853Z AUTO 26009KT 6SM -RA BR FEW029 SCT040 BKN048 12/10 A2998 RMK AO2 RAB49 SLP150 P0000 T01220100", "KUIN 241854Z AUTO 17013G25KT 10SM BKN036 OVC095 22/15 A2974 RMK AO2 PK WND 16027/1837 SLP065 T02220150", "KUKF 241915Z AUTO 17004KT 10SM CLR 24/06 A3017 RMK AO2", "KUKI 241856Z AUTO 00000KT 10SM CLR 18/01 A3022 RMK AO2 SLP231 T01780006", "KUKL 241915Z AUTO 01007KT 5SM RA SCT006 BKN028 OVC040 A2973 RMK AO2 P0003", "KUKT 241935Z AUTO 04004KT 2SM BR OVC005 15/15 A3013 RMK A01", "KULM 241935Z AUTO 23012KT 10SM CLR 09/01 A2969 RMK AO2", "KULS 241915Z AUTO 01017G25KT 10SM CLR 12/M06 A2982 RMK AO2", "KUMP 241915Z AUTO 15011KT 10SM CLR 25/09 A2999 RMK AO2 T02480089", "KUNI 241915Z AUTO 15006G14KT 10SM CLR 26/05 A3008 RMK AO2 T02550045", "KUNO 241853Z AUTO 18017G27KT 10SM SCT032 BKN075 22/14 A2984 RMK AO2 PK WND 17027/1852 SLP093 T02220144", "KUNU 241935Z AUTO 16013KT 10SM CLR 20/13 A2977 RMK AO2 T02030130", "KUNV 241853Z 07004KT 10SM SCT025 18/12 A3015", "KUOX 241935Z AUTO 17009G16KT 140V230 10SM FEW045 24/14 A2995 RMK AO2 PWINO", "KUSE 241935Z AUTO 20011KT 10SM CLR 25/05 A3001 RMK AO2", "KUTA 241935Z AUTO 17016G22KT 10SM CLR 28/14 A2989 RMK AO2 T02810145 $", "KUTS 241853Z AUTO 19007KT 7SM -RA FEW026 BKN035 OVC041 25/22 A2980 RMK AO2 RAB26 SLP085 P0000 T02500217", "KUUU 241926Z AUTO 04008KT 1 3/4SM -RA BR OVC002 15/15 A3018 RMK AO2 LTG DSNT N RAB24 P0000 T01500150", "KUVA 241935Z AUTO 12005KT 100V160 10SM SCT035 29/21 A2972 RMK AO2 T02940206", "KUXL 241935Z AUTO 15018KT 10SM SCT032 SCT080 29/20 A2988 RMK AO2 T02890195", "KUYF 241915Z AUTO 16005G15KT 10SM CLR 25/01 A3007 RMK AO2", "KUZA 241854Z AUTO VRB03KT 10SM CLR 23/09 A3015 RMK AO2 SLP206 T02280094", "KVAD 241855Z AUTO 00000KT 10SM CLR 26/11 A3009 RMK AO2 SLP191 T02590112 $", "KVAF 241915Z AUTO 18015G22KT 10SM CLR 29/20 A2986 RMK A01", "KVAY 241854Z AUTO 03005KT 2 1/2SM BR OVC004 15/14 A3011 RMK AO2 SLP196 T01500144", "KVBG 241855Z 27004KT 10SM CLR 20/01 A3020 RMK AO2A SLP229 T02010005", "KVBT 241932Z AUTO 17012G18KT 5SM +RA BR BKN015 OVC022 19/18 A2971 RMK AO2 RAB18 P0005", "KVCB 241853Z AUTO 36008KT 10SM CLR 22/M03 A3022 RMK AO2 SLP232 T02221028", "KVCT 241851Z 16020G28KT 9SM BKN028 OVC033 28/21 A2977 RMK AO2 PK WND 16030/1800 SLP080 T02780211", "KVCV 241935Z AUTO 02006G11KT 10SM CLR 14/M13 A3028 RMK AO2", "KVDF 241935Z AUTO 10005KT 10SM SCT050 BKN070 31/20 A3004 RMK AO2", "KVDI 241915Z AUTO 00000KT 10SM CLR 26/10 A3012 RMK AO2", "KVEL 241853Z AUTO 13008KT 10SM CLR 07/M04 A3010 RMK AO2 SLP196 T00671044", "KVER 241935Z AUTO 18010KT 4SM RA SCT045 OVC055 20/19 A2969 RMK AO2 P0019 T01980193", "KVES 241915Z AUTO 17009G15KT 10SM CLR 22/00 A3004 RMK AO2", "KVGC 241935Z AUTO 16007KT 10SM SCT013 16/12 A3015 RMK AO2", "KVGT 241853Z VRB04KT 10SM CLR 16/M09 A3025 RMK AO2 SLP255 T01611089", "KVHN 241915Z AUTO 30027G34KT 7SM SCT070 OVC090 09/02 A3003 RMK AO2 T00890025", "KVIH 241853Z AUTO 17017G25KT 10SM OVC026 22/15 A2978 RMK AO2 PK WND 18030/1757 PRESFR SLP075 T02170150", "KVIS 241856Z AUTO 21005KT 10SM CLR 18/01 A3024 RMK AO2 SLP248 T01830006", "KVJI 241935Z AUTO 00000KT 10SM CLR 26/00 A3013 RMK AO2 T02570000", "KVKS 241915Z AUTO 20011G16KT 10SM FEW070 29/14 A2991 RMK A01", "KVLD 241853Z 36005KT 10SM CLR 27/12 A3010 RMK AO2 SLP201 T02720117", "KVLL 241935Z AUTO 17010G16KT 10SM CLR 24/05 A3005 RMK AO2 T02430049", "KVNW 241935Z AUTO 18009KT 10SM CLR 23/06 A3002 RMK AO2", "KVNY 241851Z 00000KT 10SM CLR 23/M01 A3015 RMK AO2 SLP202 T02331006 $", "KVOA 241920Z AUTO 12016KT 10SM CLR 26/20 A3003 RMK A01", "KVOK 241855Z 18009KT 10SM OVC049 20/14 A2967 RMK AO2A SLP047", "KVPC 241915Z AUTO VRB05KT 10SM CLR 26/09 A3010 RMK AO2", "KVPS 241855Z AUTO 15011KT 10SM CLR 27/16 A3005 RMK AO2 SLP182 T02650161 $", "KVPZ 241856Z AUTO 17014G24KT 10SM CLR 24/11 A2991 RMK AO2 SLP124 T02440111", "KVQQ 241850Z 06006KT 10SM FEW050 28/15 A3010", "KVRB 241853Z 03011KT 10SM CLR 27/19 A3005 RMK AO2 SLP175 T02720194", "KVSF 241854Z AUTO 00000KT 10SM -RA OVC012 14/12 A3023 RMK AO2 RAB04 SLP239 P0000 T01440122", "KVTA 241854Z AUTO 16007KT 10SM CLR 25/05 A3008 RMK AO2 SLP182 T02500050", "KVTI 241935Z AUTO 28012KT 10SM OVC031 19/14 A2964 RMK AO2 T01930140", "KVTN 241852Z AUTO 28020G31KT 10SM OVC055 09/M07 A2976 RMK AO2 PK WND 33035/1757 SLP088 T00891067", "KVTP 241915Z AUTO 00000KT 10SM SCT009 BKN017 OVC024 M06/M09 A2991 RMK AO2", "KVUJ 241915Z AUTO 31003KT 10SM CLR 23/09 A3017 RMK AO2 T02270089", "KVUO 241853Z AUTO 29005KT 10SM OVC013 11/08 A3008 RMK AO2 RAE01 SLP184 P0000 T01060078", "KVVS 241915Z AUTO 30005KT 10SM CLR 21/05 A3013 RMK AO2 T02150047", "KVVV 241935Z 25015G22KT 10SM 08/01 A2960 RMK AO2", "KVWU 241935Z AUTO 21013G22KT 10SM OVC029 11/05 A2941 RMK AO2", "KVYS 241915Z AUTO 17018G23KT 10SM BKN065 24/14 A2979 RMK AO2 T02420136", "KW13 241935Z AUTO 7SM CLR 21/08 A3012 RMK AO1 T02110081", "KW22 241915Z AUTO 00000KT 10SM CLR 24/03 A3012 RMK AO2", "KW29 241915Z AUTO 36005KT 10SM OVC010 15/ A3012 RMK AO2 T0153////", "KW31 241935Z AUTO 36004KT 10SM CLR 22/11 A3010 RMK AO1 T02230109", "KW63 241935Z AUTO 35004KT 10SM CLR 22/12 A3010 RMK AO1", "KW75 241935Z AUTO 32005KT 10SM OVC015 16/13 A3011 RMK AO1 T01600130", "KW78 241935Z AUTO 25003KT 10SM CLR 23/09 A3010 RMK AO1 T02340091", "KW81 241935Z AUTO 03003KT 10SM CLR 22/09 A3010 RMK AO1 T02170090", "KW96 241935Z AUTO 04005KT 10SM OVC025 20/13 A3010 RMK AO1 T01950132", "KW99 241919Z AUTO 14004KT 10SM CLR 24/08 A3011 RMK AO2", "KWAL 241915Z AUTO 30004KT 6SM BR OVC005 17/15 A3009 RMK AO2 T01670150", "KWBF 241915Z AUTO 00000KT 10SM 27/23 A2995 RMK A01", "KWDG 241845Z 33010KT 10SM OVC010 13/11 A2975", "KWDR 241915Z AUTO 00000KT 10SM CLR 24/06 A3015 RMK AO2", "KWHP 241850Z 10006KT 10SM SKC 20/M02 A3019 RMK OBSERVER PT.", "KWJF 241856Z 07010KT 10SM CLR 17/M09 A3026 RMK AO2 SLP249 T01671094", "KWLD 241854Z AUTO 36007KT 10SM OVC008 11/M01 A2976 RMK AO2 RAE12 SLP071 P0001 T01111006", "KWMC 241856Z AUTO A3025 RMK AO2 SLPNO PWINO FZRANO $", "KWRB 241855Z AUTO 25003KT 10SM CLR 26/10 A3010 RMK AO2 SLP194 T02630096", "KWRI 241930Z 02007KT 1 1/2SM BR OVC002 16/16 A3010 RMK AO2A TWR VIS 1 SLP192 $", "KWRL 241853Z AUTO VRB05KT 10SM CLR 04/M03 A2988 RMK AO2 SLP139 T00441033", "KWST 241853Z AUTO 01007KT 10SM OVC005 16/15 A3017 RMK AO2 RAE24 CIG 002V009 SLP215 P0003 T01560150", "KWVI 241853Z AUTO 14004KT 10SM CLR 19/01 A3022 RMK AO2 SLP231 T01940011", "KWVL 241925Z AUTO 01005KT 2 1/2SM -RA BR OVC003 14/13 A3024 RMK AO2 RAB00 P0000", "KWWD 241856Z AUTO 03008KT 4SM -RA BR OVC004 18/18 A3008 RMK AO2 SLP187 P0000 T01830178 $", "KWWR 241915Z AUTO 03014G19KT 10SM SCT026 BKN075 13/05 A2979 RMK AO2", "KX07 241935Z AUTO 05006KT 10SM SCT043 BKN070 29/19 A3003 RMK A01", "KX26 241915Z AUTO 02011KT 10SM CLR 27/18 A3005 RMK AO2 T02710183", "KX60 241935Z AUTO 07006KT 10SM SCT050 28/15 A3007 RMK AO2", "KXBP 241915Z AUTO 11003KT 10SM BKN007 BKN110 16/16 A2975 RMK AO2 T01640164", "KXER 241915Z AUTO 13012KT 10SM 27/21 A2987 RMK A01", "KXIF 241855Z AUTO 06007KT 3SM HZ BKN021 OVC031 17/12 A3012 RMK AO2 LTG DSNT SE-S SLP202 T01670124 $", "KXLL 241915Z AUTO 03003KT 5SM BR OVC006 14/13 A3015 RMK AO2", "KXMR 241855Z AUTO 05007KT 10SM CLR 27/17 A3004 RMK AO2 SLP176 T02740172 $", "KXNA 241853Z 17016G25KT 10SM BKN015 OVC021 19/18 A2971 RMK AO2 RAE1759 SLP047 P0000 T01940178", "KXNO 241855Z AUTO 00000KT 10SM CLR 24/06 A3014 RMK AO2 SLP208 T02390062 $", "KXNX 241935Z AUTO 17010G16KT 10SM CLR 25/04 A3004 RMK A01", "KXSA 241935Z AUTO 00000KT 10SM OVC020 17/15 A3012 RMK AO2 T01720150", "KXVG 241933Z AUTO 20015G21KT 164V224 10SM SCT030 10/03 A2950 RMK AO2", "KXWA 241906Z AUTO 32022G32KT 8SM UP OVC009 00/M02 A2961 RMK AO2 PK WND 32036/1853 P0000 T00001022", "KY19 241935Z AUTO 30021G27KT 10SM OVC015 00/00 A2955 RMK AO2", "KY23 241935Z AUTO 23009KT 10SM -RA BKN027 OVC034 16/12 A2964 RMK AO2 T01560119", "KY31 241915Z AUTO 16013G18KT 10SM CLR 25/10 A2993 RMK AO2 T02460100", "KY49 241915Z AUTO 21013G30KT 10SM OVC024 08/03 A2948 RMK AO2 T00770027", "KY50 241856Z AUTO 18008G16KT 10SM OVC048 21/14 A2973 RMK AO2 SLP063 T02060144 $", "KY51 241935Z AUTO 17011G15KT 10SM OVC029 20/16 A2967 RMK AO1 T01970164", "KY63 241935Z AUTO 24021G24KT 10SM OVC030 08/02 A2957 RMK AO2 T00750016", "KY70 241935Z AUTO 18012G17KT 10SM CLR 25/10 A2993 RMK AO2 T02460100", "KYIP 241853Z 17011KT 10SM CLR 27/07 A3002 RMK AO2 SLP162 T02670072", "KYKM 241853Z AUTO 04004KT 10SM CLR 09/02 A2989 RMK AO2 SLP126 T00940022", "KYKN 241856Z AUTO 27021G25KT 10SM CLR 09/M03 A2973 RMK AO2 PK WND 28026/1855 SLP083 T00941033", "KYNG 241851Z 19006KT 10SM FEW250 23/06 A3011 RMK AO2 SLP194 T02280061", "KZER 241915Z AUTO 03003KT 7SM OVC003 13/12 A3016 RMK AO2", "KZPH 241915Z AUTO 03006KT 10SM SCT042 BKN050 OVC065 28/18 A3005 RMK A02 T02800180", "KZZV 241853Z AUTO 18005KT 10SM CLR 24/07 A3009 RMK AO2 SLP186 T02440072", "LATI 241920Z 15002KT CAVOK 16/14 Q1021 NOSIG", "LBBG 241930Z AUTO 05008KT 9999 NCD 15/12 Q1020 NOSIG", "LBGO 241930Z AUTO 09006KT 9999 NCD 09/09 Q1020", "LBIA 241900Z 07004KT 9999 SKC 15/06 Q1020", "LBPD 241930Z AUTO 26004KT 9999 NCD 14/06 Q1020", "LBPG 241900Z 29002KT 9999 SKC 14/07 Q1020", "LBPL 241900Z 04004KT 9999 SKC 16/09 Q1020", "LBSF 241930Z AUTO 13003KT 070V170 9999 NCD 12/08 Q1022 NOSIG", "LBWN 241930Z AUTO 36003KT 9999 NCD 12/08 Q1020 NOSIG", "LCEN 241920Z 30009KT CAVOK 17/12 Q1017 NOSIG RMK RWY11 30006KT", "LCLK 241930Z 30006KT 260V320 CAVOK 20/14 Q1016 NOSIG", "LCPH 241930Z 01005KT CAVOK 20/14 Q1017", "LCRA 241920Z 34002KT CAVOK 19/12 Q1016 NOSIG", "LDDU 241930Z 09005KT 070V130 CAVOK 18/11 Q1021 NOSIG", "LDOS 241930Z 09002KT CAVOK 14/13 Q1017", "LDPL 241930Z 11004KT 090V160 9999 BKN010 19/17 Q1019 NOSIG", "LDRI 241930Z 16005KT 120V190 9999 FEW025 BKN035 19/16 Q1019", "LDSP 241930Z 24001KT CAVOK 18/13 Q1020 NOSIG", "LDZA 241930Z 24005KT CAVOK 16/12 Q1017 NOSIG", "LDZD 241930Z 13003KT CAVOK 13/12 Q1020 NOSIG", "LEAB 241930Z 16005KT CAVOK 16/09 Q1021 NOSIG", "LEAG 241930Z AUTO 00000KT CAVOK 22/17 Q1018", "LEAL 241930Z 04003KT 010V090 CAVOK 22/20 Q1018 NOSIG", "LEAM 241930Z 35003KT 300V050 CAVOK 23/09 Q1017", "LEAO 241930Z 11003KT CAVOK 17/12 Q1019", "LEAS 241930Z VRB02KT 9999 FEW080 16/14 Q1015 NOSIG", "LEBA 241930Z AUTO 00000KT CAVOK 19/16 Q1017", "LEBB 241930Z 08003KT 040V110 CAVOK 18/11 Q1017 NOSIG", "LEBG 241930Z AUTO 19005KT CAVOK 12/07 Q1020", "LEBL 241930Z 25005KT CAVOK 21/19 Q1018 NOSIG", "LEBR 241930Z AUTO 10009KT 9999 NSC 19/08 Q1019", "LEBT 241930Z AUTO 36005KT CAVOK 19/13 Q1018", "LEBZ 241900Z 07003KT CAVOK 19/16 Q1017", "LECH 241930Z AUTO 09004KT 9000 NSC 19/16 Q1019", "LECO 241930Z 15006KT 080V210 9999 FEW030 18/14 Q1014 NOSIG", "LEDA 241930Z AUTO 21003KT CAVOK 17/14 Q1019", "LEGE 241930Z 24004KT 210V290 CAVOK 20/11 Q1017", "LEGR 241930Z 26004KT 230V290 CAVOK 22/00 Q1019", "LEHC 241930Z AUTO 00000KT CAVOK 15/10 Q1020", "LEIB 241930Z VRB01KT CAVOK 21/19 Q1018 NOSIG", "LEJR 241930Z 30003KT CAVOK 20/15 Q1016", "LELC 241930Z 21003KT CAVOK 21/19 Q1018 NOSIG", "LELN 241930Z AUTO 18005KT 150V210 9999 SCT024 BKN032 BKN050 13/10 Q1019", "LELO 241930Z AUTO 00000KT CAVOK 15/09 Q1019", "LEMD 241930Z 36002KT CAVOK 16/12 Q1020 NOSIG", "LEMG 241930Z 00000KT CAVOK 20/15 Q1018 NOSIG", "LEMH 241930Z 23008KT 200V260 9999 FEW014 BKN020 22/21 Q1019", "LEMI 241930Z 26004KT CAVOK 21/09 Q1018", "LEMO 241930Z 01004KT CAVOK 19/15 Q1016 NOSIG", "LEPA 241930Z VRB02KT 7000 FEW025 21/19 Q1019 NOSIG", "LEPP 241930Z 15005KT 100V190 CAVOK 17/07 Q1019", "LERS 241930Z 01001KT 9000 FEW015 19/19 Q1018", "LERT 241930Z VRB02KT CAVOK 19/17 Q1016 NOSIG", "LESA 241930Z 16002KT CAVOK 13/09 Q1020", "LESB 241930Z AUTO 33004KT CAVOK 21/18 Q1019", "LESO 241930Z VRB03KT CAVOK 17/12 Q1017", "LEST 241930Z 19010KT 9999 SCT018 SCT025 15/13 Q1015 NOSIG", "LETL 241930Z AUTO 20002KT CAVOK 16/09 Q1022", "LETO 241900Z 36004KT CAVOK 15/13 Q1020 NOSIG", "LETU 241930Z AUTO 12004KT 9999 NSC 18/08 Q1019", "LEVC 241930Z VRB01KT CAVOK 21/15 Q1018 NOSIG", "LEVD 241930Z 18004KT CAVOK 13/09 Q1020", "LEVS 241930Z 01003KT 320V050 CAVOK 15/11 Q1020", "LEVT 241930Z VRB02KT 9999 FEW070 13/07 Q1019", "LEVX 241930Z 21005KT 180V240 9999 -RA BKN016 16/15 Q1015 TEMPO 3000 RA BR", "LEXJ 241930Z 24003KT 200V280 CAVOK 17/15 Q1016", "LEZG 241930Z 14003KT CAVOK 20/11 Q1019", "LEZL 241930Z 04001KT CAVOK 21/17 Q1016 NOSIG", "LFAC 241930Z AUTO 24010KT 9999 -RA SCT016/// SCT024/// BKN036/// ///CB 14/13 Q1009", "LFAQ 241930Z AUTO 22012KT 9999 FEW037 BKN043 BKN050 14/12 Q1011", "LFAT 241930Z AUTO 26011KT 230V290 9999 BKN020/// ///TCU 16/13 Q1010", "LFBA 241930Z AUTO 12001KT CAVOK 14/09 Q1018 NOSIG", "LFBC 241930Z AUTO 35002KT CAVOK 14/12 Q1017", "LFBD 241930Z AUTO 00000KT CAVOK 14/12 Q1018 NOSIG", "LFBE 241930Z AUTO 08003KT CAVOK 12/10 Q1018 NOSIG", "LFBF 241900Z AUTO 16002KT CAVOK 19/11 Q1018", "LFBG 241930Z AUTO 00000KT CAVOK 14/12 Q1017", "LFBH 241930Z AUTO 23010KT 9999 BKN019 BKN070 17/14 Q1016 NOSIG", "LFBI 241930Z AUTO 22007KT CAVOK 13/11 Q1017 NOSIG", "LFBL 241930Z AUTO 21003KT CAVOK 13/11 Q1018 NOSIG", "LFBM 241930Z AUTO 04002KT 9999 // NSC 14/10 Q1018", "LFBO 241930Z AUTO 33002KT CAVOK 19/10 Q1018 NOSIG", "LFBP 241930Z AUTO 11005KT CAVOK 15/10 Q1018 NOSIG", "LFBT 241930Z AUTO 18003KT CAVOK 13/09 Q1019 NOSIG", "LFBU 241930Z AUTO VRB02KT CAVOK 14/11 Q1018 NOSIG", "LFBX 241930Z AUTO 00000KT CAVOK 12/10 Q1018", "LFBY 241930Z AUTO VRB01KT 9999 // ////// 16/12 Q1017", "LFBZ 241930Z AUTO VRB02KT CAVOK 18/09 Q1017 NOSIG", "LFCK 241930Z AUTO VRB03KT CAVOK 16/11 Q1019 NOSIG", "LFCR 241930Z AUTO 16002KT CAVOK 12/09 Q1020 NOSIG", "LFGA 241930Z AUTO 20005KT CAVOK 13/10 Q1017", "LFGJ 241930Z AUTO 22002KT 9999 ///CB 15/13 Q1017", "LFHP 241900Z AUTO 25004KT CAVOK 13/07 Q1020", "LFJL 241930Z AUTO 20008KT CAVOK 13/09 Q1015 TEMPO 4000 SHRA SCT030CB", "LFJR 241930Z AUTO 20008KT 9999 FEW019 SCT044 BKN050 15/13 Q1015", "LFKB 241930Z AUTO 20003KT 3600 BR SCT013 18/17 Q1019 BECMG 9999 NSW", "LFKC 241930Z AUTO 22007KT CAVOK 26/03 Q1017 NOSIG", "LFKF 241930Z AUTO VRB02KT CAVOK 14/11 Q1020 NOSIG", "LFKJ 241930Z AUTO 03006KT CAVOK 18/10 Q1019 NOSIG", "LFKS 241930Z AUTO VRB03KT 9999 FEW010 18/15 Q1019", "LFLB 241930Z AUTO 27003KT 170V310 9999 -TSRA FEW005/// BKN024/// BKN042/// ///CB 15/15 Q1019", "LFLC 241930Z AUTO 22005KT 9999 FEW064 13/08 Q1018 NOSIG", "LFLL 241930Z 15011KT CAVOK 16/14 Q1018 NOSIG", "LFLN 241930Z AUTO 23003KT CAVOK 13/10 Q1018", "LFLP 241930Z AUTO 05005KT 9999 FEW013/// BKN064/// OVC094/// ///TCU 13/12 Q1020", "LFLS 241930Z AUTO 09009KT 9999 VCTS ///CB 15/14 Q1018", "LFLW 241930Z AUTO 09006KT CAVOK 12/10 Q1020", "LFLX 241930Z AUTO 17008KT CAVOK 13/12 Q1017 NOSIG", "LFLY 241930Z AUTO 13005KT 100V160 CAVOK 16/14 Q1018 NOSIG", "LFMC 241930Z AUTO 08001KT 9999 ////// 19/17 Q1017", "LFMD 241930Z AUTO VRB02KT 9000 NSC 18/17 Q1017 TEMPO BKN008", "LFMH 241930Z AUTO 17004KT CAVOK 14/09 Q1018", "LFMI 241930Z AUTO 11004KT CAVOK 22/19 Q1016 TEMPO BKN008", "LFMK 241930Z AUTO 25003KT 220V300 9999 BKN074 OVC190 20/11 Q1017", "LFML 241930Z AUTO 11007KT CAVOK 22/18 Q1016 TEMPO FEW008 BKN014", "LFMN 241930Z 32005KT 9999 FEW007 20/18 Q1017 NOSIG", "LFMO 241930Z AUTO 05003KT CAVOK 18/17 Q1017 NOSIG", "LFMP 241930Z AUTO 24001KT CAVOK 20/16 Q1017 NOSIG", "LFMT 241930Z AUTO 01004KT CAVOK 19/18 Q1017 NOSIG", "LFMU 241930Z AUTO 34004KT CAVOK 20/18 Q1017 NOSIG", "LFMV 241930Z AUTO VRB01KT CAVOK 19/17 Q1017 NOSIG", "LFMY 241930Z AUTO 00000KT CAVOK 20/17 Q1017", "LFOA 241930Z AUTO 21005KT CAVOK 15/12 Q1017", "LFOB 241930Z AUTO 22008KT 9999 FEW026 BKN140 BKN160 15/12 Q1012 TEMPO 2000 SHRA BKN013CB", "LFOE 241930Z AUTO /////KT CAVOK 14/13 Q1013", "LFOH 241930Z AUTO 24013KT 7000 -RA SCT018/// BKN031/// BKN040/// ///CB 14/13 Q1011", "LFOJ 241930Z AUTO 22008KT 9999 FEW033 14/12 Q1015 NOSIG", "LFOK 241930Z AUTO 21012KT 9999 FEW030 13/12 Q1015 NOSIG", "LFOP 241930Z AUTO 20007KT 9999 FEW037 13/11 Q1012 NOSIG", "LFOT 241930Z AUTO 22005KT 9999 FEW029 15/12 Q1015 NOSIG", "LFOV 241930Z AUTO 20007KT CAVOK 14/12 Q1014", "LFOZ 241930Z AUTO 18004KT CAVOK 13/12 Q1015", "LFPB 241930Z AUTO 22010KT CAVOK 16/12 Q1013 NOSIG", "LFPG 241930Z 22013KT CAVOK 16/12 Q1013 NOSIG", "LFPM 241930Z AUTO 22010KT CAVOK 14/13 Q1014", "LFPN 241930Z AUTO 22011KT CAVOK 15/12 Q1014 TEMPO BKN013", "LFPO 241930Z 22009KT CAVOK 15/13 Q1014 NOSIG", "LFPT 241930Z AUTO 23009KT CAVOK 15/12 Q1013", "LFPV 241930Z AUTO 23009KT CAVOK 15/12 Q1014 NOSIG", "LFQA 241930Z AUTO 21009KT CAVOK 14/12 Q1014", "LFQB 241930Z AUTO 21010KT 9999 FEW041 SCT072 14/12 Q1015", "LFQQ 241930Z AUTO 21009KT 9999 SCT026/// BKN035/// BKN094/// ///TCU 15/13 Q1010 TEMPO 22017G27KT 1200 TSRAGS BKN013CB", "LFRB 241930Z AUTO 22009KT 9999 BKN008 BKN012 14/13 Q1012 TEMPO 4000 SHRA BKN012TCU", "LFRC 241930Z AUTO 24009KT 9999 SCT019 BKN170 13/12 Q1011", "LFRD 241930Z AUTO 21008KT CAVOK 14/12 Q1012 NOSIG", "LFRG 241930Z AUTO 21007KT 9999 FEW031/// BKN039/// BKN060/// ///CB 14/12 Q1012 TEMPO 3000 SHRA BECMG SCT020", "LFRH 241930Z AUTO 23010KT 9999 FEW014 OVC062 15/14 Q1013 TEMPO SHRA BKN012 OVC020TCU", "LFRI 241930Z AUTO 22007KT 9999 FEW017 SCT023 16/13 Q1016 NOSIG", "LFRJ 241930Z AUTO 21007KT 9999 BKN010 BKN015 BKN020 13/13 Q1012", "LFRK 241930Z AUTO 22008KT 9999 FEW040/// ///CB 14/12 Q1012 TEMPO 3000 SHRA BECMG SCT020", "LFRL 241930Z AUTO 21008KT 9999 SCT013 14/13 Q1012 TEMPO 3000 SHRA SCT020TCU", "LFRM 241930Z AUTO 20005KT 170V230 9999 FEW018 15/13 Q1015 NOSIG", "LFRN 241930Z AUTO 20006KT CAVOK 14/13 Q1013 NOSIG", "LFRO 241930Z AUTO 21006KT 9999 FEW017 13/12 Q1012", "LFRQ 241930Z AUTO 21007KT 9999 FEW012 SCT017 OVC060 14/14 Q1012 TEMPO 4000 SHRA BKN012TCU", "LFRS 241930Z AUTO 22007KT 9999 FEW013 15/14 Q1015 TEMPO 4500 SHRA BKN030CB", "LFRT 241930Z AUTO 24007KT 9999 -DZ BKN014 BKN024 BKN032 14/12 Q1012", "LFRU 241930Z AUTO 22007KT CAVOK 14/12 Q1012", "LFRV 241930Z AUTO 21005KT 180V250 9999 BKN010 OVC015 15/14 Q1013", "LFRZ 241930Z AUTO 23009KT 9999 SCT017 SCT023 16/14 Q1014 TEMPO 4500 SHRA BKN025CB", "LFSB 241930Z AUTO 14005KT 090V190 CAVOK 15/12 Q1017 TEMPO SHRA FEW050CB BKN080", "LFSD 241930Z AUTO 24004KT 9999 ////// 16/11 Q1017", "LFSG 241930Z AUTO 16002KT CAVOK 11/09 Q1016", "LFSI 241930Z AUTO 18004KT CAVOK 13/11 Q1015", "LFSL 241930Z AUTO 00000KT CAVOK 13/10 Q1018 NOSIG", "LFSN 241930Z AUTO 11008KT 090V150 CAVOK 11/10 Q1016", "LFSO 241930Z AUTO 19008KT CAVOK 11/10 Q1016", "LFST 241930Z AUTO VRB02KT 9999 ///CB 13/11 Q1016 TEMPO SHRA BECMG SCT050 BKN090", "LFSX 241930Z AUTO VRB02KT 9999 ///CB 12/10 Q1017", "LFTH 241930Z AUTO 00000KT 4800 BR BKN004 BKN024 BKN190 20/17 Q1017 TEMPO 11010KT SCT015 OVC250 BECMG 9999 NSW", "LFTW 241930Z AUTO 05002KT 9000 NSC 19/18 Q1017", "LFVP 241930Z AUTO 17004KT CAVOK 15/10 Q1028 NOSIG", "LFYR 241930Z AUTO 21003KT CAVOK 15/12 Q1016", "LGAD 241920Z 00000KT CAVOK 15/14 Q1021", "LGAL 241920Z 00000KT CAVOK 14/12 Q1020", "LGAV 241920Z 25002KT CAVOK 17/10 Q1021 NOSIG", "LGBL 241850Z 27004KT CAVOK 17/15 Q1021", "LGEL 241920Z 00000KT CAVOK 18/14 Q1021", "LGHI 241850Z 31004KT CAVOK 16/09 Q1019", "LGIO 241920Z AUTO VRB01KT //// // ////// 13/11 Q1023 RE//", "LGIR 241920Z 17006KT 9999 FEW020 18/17 Q1020 NOSIG", "LGKF 241850Z 00000KT CAVOK 19/13 Q1021", "LGKL 241920Z 00000KT CAVOK 16/14 Q1021", "LGKO 241920Z 36015KT CAVOK 19/12 Q1018", "LGKP 241930Z AUTO 30009KT //// // ////// 20/16 Q1018 RE//", "LGKR 241920Z 00000KT CAVOK 17/15 Q1021 NOSIG", "LGKV 241920Z 00000KT CAVOK 15/13 Q1020", "LGKZ 241920Z AUTO VRB02KT //// // ////// 15/06 Q1023 RE//", "LGLM 241850Z 00000KT CAVOK 15/13 Q1021", "LGMK 241920Z 03006KT CAVOK 19/12 Q1020", "LGMT 241920Z 30005KT CAVOK 20/11 Q1020", "LGPA 241850Z VRB02KT CAVOK 19/11 Q1020", "LGPZ 241850Z 00000KT CAVOK 17/16 Q1021", "LGRP 241920Z VRB01KT CAVOK 19/10 Q1017 NOSIG", "LGRX 241850Z 00000KT CAVOK 17/16 Q1021", "LGSA 241920Z 00000KT CAVOK 18/16 Q1020", "LGSM 241850Z 01008KT CAVOK 21/13 Q1019", "LGSR 241920Z 31005KT CAVOK 20/11 Q1020", "LGTS 241920Z 11004KT CAVOK 16/16 Q1021 NOSIG", "LGZA 241850Z 00000KT CAVOK 19/18 Q1021", "LHBP 241930Z 10004KT 060V120 4000 BR NSC 13/12 Q1017 NOSIG", "LHDC 241915Z AUTO VRB03KT 9999 BKN027 15/13 Q1017 NOSIG", "LHKE 241915Z 01002KT 1000 BR BCFG NSC 11/11 Q1017 TEMPO 0800 FG RMK AMB", "LHPA 241915Z 26008KT 200V330 CAVOK 17/14 Q1016 NOSIG RMK BLU", "LHPP 241915Z AUTO 23005KT CAVOK 17/13 Q1017", "LHPR 241915Z AUTO 11006KT 6000 BKN067 OVC098 //////TCU 14/13 Q1016", "LHSM 241915Z AUTO 16005KT CAVOK 15/14 Q1016", "LHSN 241915Z 31002KT 6000 NSC 12/11 Q1017 BECMG 3000 MIFG BR RMK WHT", "LIBA 241855Z 27006KT CAVOK 18/15 Q1020 RMK SKC VIS MIN 9999 WIND THR11 27006KT WIND THR29 /////KT BLU", "LIBD 241920Z 22003KT CAVOK 16/13 Q1020", "LIBF 241850Z 26011KT CAVOK 21/12 Q1020", "LIBN 241855Z 17004KT 4000 BR SCT006 18/17 Q1020 RMK SCT VIS MIN 4000 WIND THR14 17005KT WIND THR32 19006KT GRN", "LIBP 241920Z AUTO VRB02KT 5000 BR NCD 15/15 Q1019", "LIBQ 241855Z AUTO 25005KT //// 15/M14 Q1029", "LIBR 241920Z 22009KT 7000 BKN004 19/18 Q1020", "LIBV 241855Z 08005KT 7000 NSC 17/16 Q1020 RMK FEW FEW200 VIS MIN 7000 WIND THR32 10005KT WIND THR14 09003KT WHT", "LICA 241920Z AUTO 24006KT 9999 SCT014/// 20/18 Q1023", "LICB 241920Z AUTO 09003KT 9999 NCD 16/16 Q1024", "LICC 241920Z 27010KT CAVOK 21/18 Q1022", "LICD 241920Z AUTO 20008KT 9999 NCD 24/21 Q1023", "LICF 241855Z 01002KT CAVOK 22/01 Q1023 RMK SKC QUK / QUL / VIS MAR 20 KM MON INVIS NC VIS MIN 9999", "LICJ 241920Z VRB02KT CAVOK 22/14 Q1022", "LICR 241920Z AUTO 35014KT 9999 NCD 20/18 Q1022", "LICT 241855Z 15008KT CAVOK 21/19 Q1022 RMK SKC VIS MIN 9999 WIND THR13 16007KT BLU", "LICZ 241855Z /////KT CAVOK 21/18 Q1021", "LIEA 241920Z 21007KT CAVOK 22/20 Q1020", "LIEB 241855Z 35004KT CAVOK 21/17 Q1019 RMK SCT SCT200 QUK / QUL / VIS MAR 20 KM MON INVIS VIS MIN 9999", "LIED 241855Z 09002KT 9999 FEW004 21/19 Q1020 RMK FEW VIS MIN 9999 WIND THR35 /////KT WIND THR17 08002KT BLU", "LIEE 241920Z AUTO 34003KT 9999 NCD 19/18 Q1020", "LIEO 241920Z VRB02KT CAVOK 18/17 Q1020", "LIMC 241920Z 34005KT 6000 BKN050 18/17 Q1017 NOSIG", "LIME 241920Z 03003KT 360V060 9999 BKN050 20/16 Q1016 NOSIG", "LIMF 241920Z 04002KT 2500 BR SCT010 BKN030 17/17 Q1017", "LIMJ 241920Z 13016KT 8000 SCT007 BKN020 21/20 Q1017", "LIML 241920Z VRB06KT 9999 SCT045 21/16 Q1016 NOSIG", "LIMP 241850Z 22011KT 6000 NSC 23/14 Q1016", "LIMS 241855Z 26010KT CAVOK 21/16 Q1014 RMK SKC VIS MIN 9999 WIND THR30 18005KT BLU", "LIMU 241855Z ///12KT 2000 BR BKN010 20/17 Q1018 RMK OVC QUK / QUL / VIS MAR 2000 M VIS MIN 2000", "LIMZ 241920Z AUTO 27003KT 4500 BR SCT013/// 15/15 Q1017", "LIPA 241855Z 16004KT 9000 BKN035 18/17 Q1017 RMK BKN VIS MIN 9000 WIND THR05 /////KT WIND THR23 /////KT A3006 BLU", "LIPB 241925Z 31003KT 250V010 5000 SHRA VCTS FEW010 BKN035 SCT050CB BKN090 15/15 Q1019", "LIPC 241855Z 03002KT CAVOK 19/17 Q1017 RMK FEW FEW200 VIS MIN 9999 WIND THR11 04003KT WIND THR29 02002KT BLU", "LIPE 241920Z 16007KT CAVOK 23/14 Q1017", "LIPH 241920Z 05004KT 9999 SCT010 19/18 Q1017", "LIPI 241855Z 15007KT 6000 SCT010 BKN020 19/17 Q1017 RMK OVC VIS MIN 6000 WIND THR06 18006KT WIND THR24 15004KT WHT", "LIPK 241850Z VRB02KT CAVOK 17/13 Q1017", "LIPL 241855Z 07008KT 6000 FEW070 19/17 Q1016 RMK FEW VIS MIN 6000 WIND THR31 06008KT WIND THR13 06009KT WHT", "LIPO 241920Z AUTO 03006KT 9999 NCD 19/16 Q1016", "LIPQ 241920Z AUTO 14004KT 9999 SCT067/// 18/16 Q1018", "LIPR 241920Z AUTO 18006KT 9999 FEW140/// 22/14 Q1018", "LIPS 241855Z /////KT 9999 BKN015 20/18 Q1018 RMK BKN VIS MIN 9999 WIND THR26 02004KT WIND THR08 06006KT WHT", "LIPX 241920Z 05003KT 030V090 CAVOK 17/15 Q1017", "LIPY 241920Z AUTO 18003KT 140V240 9999 FEW190/// 17/15 Q1018", "LIPZ 241920Z 17007KT 9000 NSC 20/18 Q1017 NOSIG", "LIQC 241855Z 00000KT CAVOK 18/16 Q1023 RMK SKC QUK / QUL / VIS MAR 15 KM VIS MIN 9999", "LIQO 241855Z AUTO /////KT //// ///// Q////", "LIRA 241920Z 16006KT CAVOK 19/15 Q1022", "LIRE 241855Z 12009KT CAVOK 21/19 Q1021 RMK SKC VIS MIN 9999 WIND THR13 12009KT WIND THR31 /////KT BLU", "LIRF 241920Z 10003KT CAVOK 19/18 Q1022 NOSIG", "LIRK 241855Z AUTO 29011KT //// 11/M01 Q1032", "LIRM 241855Z 05003KT 7000 SCT070 17/15 Q1023 RMK SCT VIS MIN 7000 WIND THR06 06003KT WHT", "LIRN 241920Z 23003KT 9000 FEW020 19/18 Q1023 NOSIG", "LIRP 241915Z 10006KT 9999 SCT025 20/18 Q1019 NOSIG", "LIRQ 241920Z 15005KT CAVOK 21/16 Q1019", "LIRS 241855Z 14008KT 9000 FEW015 SCT025 20/18 Q1019 RMK BKN VIS MIN 9000 WIND", "LIRZ 241920Z AUTO 20006KT 9999 NCD 19/16 Q1021", "LIVC 241906Z AUTO 22043G59KT ///// 07/05 Q1023", "LIVD 241855Z AUTO 11002KT //// 10/10 Q1023", "LIVE 241855Z 02006KT 5000 BR SCT025 08/04 Q1021 RMK BKN BKN080 VIS MIN 5000", "LIVF 241855Z 14006G16KT 080V200 9999 FEW028 18/12 Q1020", "LIVM 241855Z AUTO VRB02KT //// 21/18 Q1017", "LIVP 241855Z 18015KT 0000 -RA FG VV/// 07/07 Q1022 RMK MON INVIS VAL INVIS VIS MIN 0000", "LIVT 241855Z AUTO VRB03KT //// 20/15 Q1017", "LJCE 241930Z AUTO 00000KT 9999 NSC 15/12 Q1018", "LJLJ 241930Z 18002KT 9999 BKN040 17/14 Q1018 NOSIG", "LJMB 241930Z 26007KT 220V340 CAVOK 19/13 Q1018", "LJPZ 241930Z 11008KT CAVOK 18/15 Q1018", "LKCV 241930Z VRB02KT CAVOK 13/12 Q1016 NOSIG RMK BLU BLU", "LKKB 241900Z 19007KT CAVOK 14/12 Q1015 NOSIG", "LKKV 241900Z 21004KT 9999 BKN016 OVC023 12/11 Q1016", "LKLN 241900Z AUTO 23009KT 210V270 9999 SCT041 BKN048 BKN084 14/11 Q1017", "LKMT 241930Z 23010KT 9999 BKN043 14/13 Q1016 TEMPO RA", "LKNA 241930Z 23005KT 8000 BKN011 OVC110 13/12 Q1017 NOSIG RMK GRN GRN", "LKPD 241930Z 08002KT CAVOK 13/13 Q1016 NOSIG RMK BLU BLU", "LKPR 241930Z 23018KT CAVOK 14/12 Q1015 NOSIG", "LKTB 241930Z 28011KT 3000 -RA BR FEW049 13/13 Q1017 NOSIG", "LLBG 241920Z VRB03KT CAVOK 22/17 Q1014 NOSIG", "LLER 241850Z 01011KT CAVOK 24/11 Q1013", "LMML 241915Z 24004KT CAVOK 20/19 Q1023 NOSIG", "LOWG 241920Z 30003KT 250V330 9999 RA OVC080 14/13 Q1018 TEMPO -RA", "LOWI 241920Z 33002KT 9999 FEW004 SCT015 BKN090 11/11 Q1021 TEMPO BKN008", "LOWK 241920Z AUTO 24005KT 210V290 9999 RA FEW015 BKN065 13/12 Q1021 TEMPO -RA", "LOWL 241920Z AUTO 27004KT CAVOK 13/13 Q1018 NOSIG", "LOWS 241920Z AUTO 15011KT 9999 FEW080 BKN110 12/10 Q1019 NOSIG", "LOWW 241920Z 31007KT 9999 -SHRA FEW006 BKN010 FEW030TCU 15/14 Q1018 RESHRA TEMPO SHRA BKN006", "LOXZ 241850Z 30005KT 280V360 9999 -SHRA FEW033 SCT040 BKN070 12/11 Q1020", "LPAZ 241930Z 28012KT 9999 SCT023 SCT042 17/15 Q1012", "LPBJ 241900Z 10006KT 9999 FEW022 19/16 Q1016", "LPCS 241930Z 15007KT 9999 FEW016 SCT028 18/16 Q1015", "LPFR 241930Z 03003KT 9999 FEW012 20/17 Q1016", "LPHR 241930Z 31006KT 270V330 9999 FEW020 BKN040 18/12 Q1013", "LPLA 241900Z /////KT 9999 FEW022 BKN040 17/14 Q1012", "LPMA 241930Z 25008KT 200V290 9999 SCT015 SCT060 21/17 Q1013", "LPMR 241900Z 12004KT 9999 FEW020 SCT030 19/15 Q1014", "LPMT 241900Z 13004KT 9999 SCT025 18/15 Q1015", "LPPD 241930Z VRB02KT 9999 FEW020 BKN045 17/13 Q1012", "LPPR 241930Z 13007KT 090V150 9999 FEW040 18/16 Q1015", "LPPS 241930Z 22013KT 9999 FEW015 22/17 Q1013", "LPPT 241930Z 16008KT CAVOK 19/16 Q1015", "LQBK 241930Z 16002KT CAVOK 13/13 Q1017 NOSIG", "LQMO 241900Z VRB02KT CAVOK 17/12 Q1019", "LQSA 241930Z VRB03KT CAVOK 13/09 Q1021 NOSIG", "LQTZ 241930Z VRB01KT CAVOK 11/11 Q1018", "LRAR 241930Z 15004KT CAVOK 14/12 Q1017", "LRBC 241930Z 17001KT CAVOK 13/06 Q1018", "LRBM 241930Z AUTO 08003KT 9999 FEW041/// BKN049/// BKN075/// 15/12 Q1018", "LRBO 241900Z 25010KT 9999 FEW170 14/07 Q1019 BLU BLU", "LRBS 241930Z 00000KT CAVOK 11/08 Q1019 NOSIG", "LRCK 241930Z 17007KT 8000 MIFG NSC 11/10 Q1020 NOSIG", "LRCL 241930Z 23001KT 8000 NSC 09/08 Q1018", "LRCT 241900Z 23002KT 9000 FEW200 10/08 Q1019 BLU BLU", "LRCV 241930Z 04002KT CAVOK 13/08 Q1019", "LRFT 241900Z 14006KT 9999 FEW200 12/07 Q1020 BLU BLU", "LRIA 241930Z AUTO 09003KT 9999 SCT120/// 15/07 Q1018", "LROD 241930Z AUTO 22007KT 9999 NCD 15/13 Q1018", "LROP 241930Z 00000KT CAVOK 12/09 Q1019 NOSIG", "LRSB 241930Z AUTO 28003KT 8000 NCD 11/09 Q1019", "LRSM 241930Z AUTO 12005KT 9999 FEW031/// SCT044/// OVC055/// 16/12 Q1017", "LRSV 241930Z 26007KT CAVOK 16/11 Q1017", "LRTC 241930Z AUTO 14007KT 7000 NCD 13/09 Q1020", "LRTM 241930Z AUTO 09006KT 5000 BR NCD 11/10 Q1019", "LRTR 241930Z 10006KT CAVOK 12/12 Q1018", "LRTZ 241900Z 18004KT 9999 FEW200 14/11 Q1020 BLU BLU", "LSGC 241920Z AUTO VRB01KT 9999 //////TCU 08/08 Q1019", "LSGG 241920Z 34002KT 7000 R04/P2000N R22/0900D BCFG FEW004 SCT007 12/12 Q1020 BECMG 0800 FG BKN007", "LSGS 241920Z AUTO 34001KT CAVOK 13/12 Q1021", "LSMA 241920Z AUTO VRB01KT 9999NDV SCT079 SCT110 12/10 Q1019 RMK", "LSMD 241920Z AUTO 00000KT 1400NDV R11/1000VP2000U R29/P2000N FEW087 11/10 Q1019 RMK", "LSME 241920Z AUTO VRB02KT 9999NDV SCT085 SCT110 11/11 Q1019 RMK", "LSMM 241920Z AUTO 00000KT 1300NDV R10/1000VP2000D R28/P2000N SCT002 BKN110 11/11 Q1020 RMK", "LSMP 241920Z AUTO VRB01KT 0500NDV R23/1000VP2000U R05/0500N FG FEW001 12/11 Q1019 RMK", "LSZA 241920Z AUTO VRB01KT 1200 -TSRA SCT006 SCT008 SCT///CB 17/17 Q1017 RERA", "LSZB 241920Z AUTO VRB01KT 9999 R14/0600D FG FEW001 SCT100 10/09 Q1019", "LSZC 241920Z AUTO VRB02KT 9999 NCD 13/11 Q1019", "LSZG 241920Z AUTO VRB01KT 0150 FG VV001 11/11 Q1019", "LSZH 241920Z VRB02KT CAVOK 11/09 Q1019 NOSIG", "LSZL 241920Z AUTO VRB02KT 3900NDV BR FEW012 SCT014 BKN016 16/16 Q1017 RMK", "LSZR 241920Z AUTO 19003KT 090V270 9999 FEW090 14/10 Q1018", "LSZS 241920Z AUTO VRB02KT 9999 RA SCT005 OVC017 SCT///CB 06/05 Q1022", "LTAC 241920Z 00000KT CAVOK 08/03 Q1024 NOSIG RMK RWY21L 04003KT RWY03L VRB01KT RWY21R 06002KT", "LTAE 241850Z 32005KT CAVOK 09/03 Q1024 NOSIG RMK RWY21 01008KT", "LTAF 241920Z 04003KT CAVOK 18/10 Q1017 NOSIG RMK RWY23 05003KT SKC", "LTAG 241920Z 05003KT CAVOK 16/05 Q1016 NOSIG RMK SKC", "LTAI 241920Z 35005KT CAVOK 17/13 Q1018 NOSIG RMK RWY18C VRB05KT RWY36R 35004KT RWY18L 32003KT", "LTAJ 241920Z VRB02KT CAVOK 13/05 Q1019 NOSIG RMK RWY10 27005KT SKC", "LTAN 241850Z 31007KT CAVOK 12/04 Q1024 NOSIG", "LTAP 241920Z 36008KT 9999 FEW040 12/08 Q1023 NOSIG RMK RWY23 36008KT", "LTAR 241850Z VRB02KT CAVOK 04/01 Q1026", "LTAT 241920Z 27006KT CAVOK 15/00 Q1022 NOSIG RMK RWY03 29007KT", "LTAU 241920Z 07002KT CAVOK 05/02 Q1024 NOSIG RMK RWY07 06004KT 020V090", "LTAY 241850Z 29003KT 260V320 CAVOK 11/M00 Q1022", "LTAZ 241920Z 13004KT CAVOK 08/M00 Q1024 RMK RWY29 VRB03KT", "LTBA 241850Z 04002KT CAVOK 16/11 Q1021 RMK RWY23 00000KT", "LTBF 241850Z VRB01KT CAVOK 12/06 Q1022 NOSIG", "LTBH 241850Z 07005KT CAVOK 16/09 Q1021", "LTBJ 241920Z VRB06KT CAVOK 20/07 Q1019 NOSIG RMK RWY16 36012KT", "LTBQ 241850Z 31002KT CAVOK 07/06 Q1022 NOSIG", "LTBR 241920Z 03003KT CAVOK 09/07 Q1022 NOSIG RMK RWY07 VRB01KT", "LTBS 241920Z 03004KT CAVOK 14/11 Q1017 NOSIG RMK RWY19 35004KT SKC", "LTBU 241920Z 00000KT CAVOK 11/07 Q1021 RMK RWY22 23003KT", "LTBY 241850Z 20002KT CAVOK 07/04 Q1023", "LTCA 241850Z 27006KT 230V310 CAVOK 13/M00 Q1020 NOSIG", "LTCB 241850Z VRB02KT 9999 SCT035 14/10 Q1024", "LTCC 241920Z 29003KT 210V310 CAVOK 12/03 Q1019 NOSIG RMK RWY16 31005KT 270V350 SKC", "LTCD 241850Z 25008KT CAVOK 10/03 Q1023 NOSIG", "LTCE 241920Z 27006KT CAVOK 04/M02 Q1024 NOSIG RMK RWY08R 28006KT RWY26R 27008KT RWY08L 30004KT SKC", "LTCF 241850Z VRB02KT 9999 FEW035 07/01 Q1023", "LTCG 241920Z 23007KT 150V260 9999 BKN035 17/10 Q1024 NOSIG RMK RWY29 23006KT 210V330", "LTCI 241850Z 10003KT 9999 FEW040 06/03 Q1025 NOSIG", "LTCJ 241920Z 05003KT CAVOK 11/09 Q1018 NOSIG RMK RWY20 00000KT SKC", "LTCN 241850Z 09005KT CAVOK 16/02 Q1019 NOSIG", "LTCS 241920Z 34005KT CAVOK 16/M02 Q1020 RMK RWY22 31002KT SKC", "LTCT 241850Z 24007KT 9999 SCT080 11/04 Q1021", "LTCV 241850Z 28006KT CAVOK 16/08 Q1017", "LTCW 241850Z VRB01KT 9999 FEW040 05/03 Q1023", "LTDA 241850Z 20004KT 140V230 CAVOK 18/08 Q1016 NOSIG", "LTFC 241920Z 01006KT CAVOK 12/02 Q1022 RMK RWY23 01006KT", "LTFD 241850Z 03008KT CAVOK 16/08 Q1020", "LTFE 241920Z 18005KT 120V190 CAVOK 17/07 Q1018 NOSIG RMK RWY10 VRB02KT", "LTFG 241850Z 13006KT CAVOK 17/09 Q1018", "LTFH 241850Z 20003KT 9999 SCT030 12/11 Q1024 NOSIG", "LTFJ 241920Z 00000KT CAVOK 17/12 Q1021 NOSIG RMK RWY24 00000KT", "LTFM 241920Z 19005KT CAVOK 14/10 Q1022 NOSIG RMK RWY17L 19007KT RWY34L 17004KT 100V190 RWY16R 17005KT RWY36 18005KT RWY18 19006KT", "LTFO 241850Z 17009KT 6000 TSRA SCT015 FEW020CB BKN028 16/13 Q1024", "LUKK 241930Z 23006KT 190V250 CAVOK 14/09 Q1018 NOSIG", "LWOH 241900Z 34002KT CAVOK 09/07 Q1024", "LWSK 241930Z 00000KT CAVOK 12/10 Q1021 NOSIG", "LXGB 241920Z 00000KT CAVOK 20/18 Q1017 TEMPO 7000 HZ", "LYBE 241930Z 14005KT CAVOK 15/11 Q1018 NOSIG", "LYBT 241930Z 00000KT CAVOK 14/14 Q1018 NOSIG", "LYKV 241930Z 00000KT CAVOK 13/13 Q1019 NOSIG", "LYNI 241930Z 11005KT CAVOK 15/12 Q1019 NOSIG", "LYPG 241930Z 07002KT CAVOK 16/13 Q1021 NOSIG", "LYTV 241930Z AUTO 00000KT CAVOK 13/12 Q1021", "LYVR 241930Z AUTO VRB01KT CAVOK 17/11 Q1018", "LZIB 241930Z VRB01KT 2500 BR -RA FEW007 OVC024 15/14 Q1017 NOSIG", "LZKZ 241930Z 34003KT 9999 OVC017 14/11 Q1017 TEMPO OVC013", "LZPP 241930Z 28004KT 2500 -RA BR FEW010 SCT018 14/13 Q1017", "LZTT 241930Z VRB01KT 9999 FEW030 BKN083 09/09 Q1017", "LZZI 241930Z VRB02KT 2200 BR FEW004 OVC013 13/13 Q1017", "MBGT 241900Z 00000KT 9999 SCT015TCU SCT040 29/21 Q1013", "MBPV 241900Z 04004KT 9000 FEW008 BKN020 23/21 Q1012", "MDAB 241900Z 09006KT 9999 FEW020CB SCT022 SCT300 31/26 Q1012 CB/SW", "MDBH 241900Z 13016KT 9999 FEW020CB FEW026 SCT070 31/25 Q1012 CB/SW/NW", "MDCY 241900Z 06004KT 9999 FEW020CB FEW022 BKN300 29/24 Q1011", "MDJB 241900Z 18005KT 9999 FEW016CB BKN020 30/22 Q1012 CB/E/SE", "MDLR 241900Z 17006KT 9999 FEW018 BKN300 32/27 Q1011", "MDPC 241900Z 11008KT 9999 FEW024 BKN300 30/23 Q1012", "MDPP 241900Z 10008KT 9999 FEW023 SCT300 32/25 Q1010", "MDSD 241900Z 16006KT 9999 FEW023 BKN300 32/24 Q1012", "MDST 241900Z 14008KT 9999 FEW022 BKN300 32/22 Q1012", "MGCB 241900Z 07006KT 9999 SCT018 28/18 QFE869.2", "MGES 241900Z 09004KT 9999 BKN020TCU 30/17 QFE909.6 TCU N/SE/SSE/NW", "MGGT 241900Z 21012KT 9999 SCT020TCU 26/17 Q1020 A3012 TCU N/NE/WSW", "MGHT 241900Z 00000KT 9999 SCT038 26/13", "MGMM 241900Z 32004KT 9999 SCT026 31/24 Q1012 A2988", "MGMT 241900Z 18004KT 9999 FEW014TCU 33/26 TCU E", "MGPB 241900Z 36008KT 9999 SCT018 30/25 Q1011 A2985", "MGQZ 241900Z 14008KT 9999 FEW020 21/14 QFE773/1", "MGRT 241900Z 21006KT 9999 SCT020 33/22 Q1014 A2994 VOL. SANTA MARIA Y SANTIAGUITO EN ACTIVIDAD", "MGSJ 241900Z 15010KT 9999 SCT025CB BKN200 32/24 Q1013 A2991 CB SMC N", "MGTU 241900Z 27006KT 9999 SCT018 32/22", "MGZA 241900Z 05004KT 9999 FEW024 33/19 QFE986/4", "MHCA 241900Z 00000KT 9999 SCT028TCU 31/21", "MHCH 241900Z 02004KT 9999 FEW030 34/25", "MHGS 241900Z 36010KT 9999 FEW054TCU 29/20", "MHLC 241900Z 02005KT 9999 SCT028 29/24 Q1010 A2983 NOSIG", "MHLE 241900Z 05004KT 9999 SCT022TCU FEW024CB 21/17", "MHLM 241900Z VRB03KT 9999 FEW028 32/23 Q1011 A2986 NOSIG", "MHNO 241900Z 18008KT 9999 SCT040TCU 27/20", "MHPL 241900Z 05012KT 9999 BKN025TCU 28/24 Q1012", "MHPR 241900Z 01004KT 9999 SCT050 30/20 Q1016 A3000 NOSIG", "MHRO 241900Z 10007KT 9999 SCT034 30/23 Q1012 A2989 NOSIG", "MHSR 241900Z 35004KT 9999 BKN028TCU 29/18", "MHTE 241900Z 36010KT 9999 SCT024TCU 30/23 Q1010 A2983", "MHTG 241900Z VRB05KT 9999 SCT034TCU 28/16 Q1017 A3003 NOSIG", "MHTR 241900Z 01003KT 9999 SCT028TCU 29/24", "MHYR 241900Z 27005KT 9999 SCT024TCU 29/20", "MKJP 241900Z 16011KT 9999 FEW018 FEW020CB 32/23 Q1011", "MKJS 241900Z 06013KT 9999 FEW022 30/25 Q1011", "MMAA 241842Z 24003KT 6SM FEW010TCU BKN100 29/25 A2989 RMK 8/230 HZY", "MMAN 241840Z 10003KT 10SM SCT200 32/18 A2978 RMK 8/001 HZY ISOL SC S", "MMAS 241843Z 22011KT 10SM FEW030 SCT200 22/08 A3023 RMK 8/102", "MMBT 241841Z 25006KT 10SM FEW030 31/25 A2994 RMK 8/100 DSNT TCU ALQDS", "MMCB 241852Z 20003KT 6SM BKN015 BKN250 27/19 A3011 RMK 8/108 HZY", "MMCE 241840Z 14010KT 7SM SKC 30/22 A2988 RMK HZY", "MMCL 241842Z 18005KT 10SM BKN025TCU 31/22 A2993 RMK 8/200 HZY", "MMCM 241847Z 14011KT 6SM SCT020 31/25 A2991 RMK 8/100", "MMCN 241841Z 34008KT 10SM FEW030 28/08 A2998 RMK 8/100 HZY", "MMCP 241840Z 12010KT 7SM BKN030TCU 33/24 A2989 RMK 8/200", "MMCS 241846Z 31017KT 10SM BKN040 BKN080 13/M05 A3001 RMK 8/530", "MMCT 241848Z 00000KT 7SM SCT020TCU BKN100 BKN250 30/26 A2991 RMK 8/231", "MMCU 241840Z 23014KT 10SM SKC 25/M06 A2996", "MMCV 241842Z 18012G23KT 6SM BKN200 29/20 A2977 RMK 8/008 HZ", "MMCZ 241845Z 09007KT 8SM BKN015TCU 30/24 A2993 RMK 8/200 SC", "MMDO 241851Z 25012KT 9SM SCT200 24/02 A3018 RMK 8/001 HZY", "MMEP 241840Z 00000KT 12SM SCT020 27/19 A3009 RMK 8/100", "MMGL 241845Z 14004KT 10SM SCT020 26/13 A3018 RMK 8/100", "MMGM 241841Z 24010KT 10SM SCT020 26/19 A2997 RMK 8/100", "MMHO 241840Z 21003KT 10SM BKN025 25/13 A3006 RMK 8/500", "MMIA 241840Z 21008KT 6SM SCT020CB 27/23 A3002 RMK 8/300", "MMIO 241847Z 18010KT 10SM SKC 27/12 A3013", "MMLM 241844Z 36008KT 10SM SCT020 29/14 A2998 RMK 8/100 HZY", "MMLO 241846Z 00000KT 10SM SCT030 SCT220 25/13 A3028 RMK 8/502", "MMLP 241840Z 35010KT 10SM FEW030 FEW220 25/14 A3000 RMK 8/108", "MMLT 241844Z 09011KT 10SM FEW020 27/16 A3000 RMK 8/100", "MMMA 241840Z 17016G27KT 9SM OVC020TCU 30/23 A2979 RMK 8/2// HZY BINOVC", "MMMD 241849Z 13008KT 7SM BKN020TCU 32/24 A2991 RMK 8/200 CI", "MMML 241840Z 32014KT 10SM SKC 22/M11 A3019", "MMMM 241848Z 30005KT 8SM FEW030 25/14 A3023 RMK 8/100", "MMMT 241848Z 25003KT 7SM BKN015 BKN200 30/25 A2981 RMK 8/101 HZY VC", "MMMV 241848Z 22021KT 10SM SCT040 32/12 A2978 RMK 8/100", "MMMX 241842Z 05006KT 4SM SCT020 25/09 A3030 NOSIG RMK 8/100 HZY", "MMMY 241912Z 10006KT 10SM SCT200 32/19 A2973 RMK 8/008", "MMMZ 241842Z 00000KT 15SM SCT020 SCT240 30/24 A2993 RMK 8/202", "MMNL 241840Z 18010KT 7SM BKN220 33/21 A2972 RMK 8/002 HZY", "MMOX 241846Z 27003KT 10SM SCT030 BKN210 26/10 A3016 RMK 8/101 HZY", "MMPA 241848Z 30006KT 5SM SCT020 BKN280 31/24 A2986 RMK 8/108 HZY", "MMPB 241844Z 17010KT 7SM FEW020 24/13 A3029 RMK 8/100 HZY", "MMPG 241844Z 12008KT 8SM SKC 30/22 A2973 RMK HZY", "MMPN 241840Z 20006KT 10SM BKN030TCU 23/19 A3020 RMK 8/200 HZY LWR LCDS S", "MMPQ 241840Z 00000KT 7SM FEW040 31/23 A2976 RMK 8/100", "MMPR 241840Z 24007KT 15SM SCT028 30/24 A2993 RMK 8/400", "MMPS 241843Z 20007KT 14SM FEW020TCU 30/20 A2992 RMK 8/200 HZY", "MMQT 241840Z 26014KT 10SM FEW020 24/12 A3029 RMK 8/100", "MMRX 241840Z 20010G20KT 7SM FEW045 OVC250 33/19 A2974 RMK 8/507 HZY", "MMSD 241845Z 07008KT 10SM SCT040 30/14 A2996 RMK 8/400 CI", "MMSL 241843Z 22010KT 9SM FEW035 26/15 A2999 RMK 8/100 ISOL CI", "MMSM 241844Z 20007KT 7SM SCT020 SCT200 26/13 A3028 RMK 8/102 HZY DSNT TCU S", "MMSP 241840Z 20011KT 10SM FEW025 SCT230 26/08 A3017 RMK 8/101", "MMTC 241841Z 26015KT 10SM BKN220 29/06 A2996 RMK 8/008", "MMTG 241840Z 13008KT 8SM SCT020TCU 31/19 A2994 RMK 8/200", "MMTJ 241841Z 14006KT 10SM SKC 23/M08 A3015 RMK HZY", "MMTM 241847Z 13010KT 5SM BKN015 29/24 A2981 RMK 8/100 HZ", "MMTO 241848Z 28008KT 7SM SCT020 SCT220 22/09 A3037 RMK 8/202 HZY", "MMTP 241840Z 24008KT 8SM FEW030TCU 33/24 A2989 RMK 8/200 HZY DSNT CB N NE", "MMUN 241841Z 12010KT 7SM SCT015TCU 31/23 A2995 RMK 8/200", "MMVA 241844Z 07010KT 7SM SKC 31/24 A2986", "MMVR 241847Z 06005KT 5SM SCT015TCU OVC250 30/24 A2983 RMK 8/207 HZY", "MMZC 241840Z E19015KT 10SM FEW020 SCT200 22/11 A3024 RMK 8/101", "MMZH 241840Z 21007KT 7SM FEW020 32/24 A2992 RMK 8/100 HZY", "MMZO 241840Z 24010KT 15SM FEW020 30/25 A2999 RMK 8/100", "MNBL 241900Z 10004KT 8000 VCRA FEW018CB 29/26 Q1011 CBRA/W/SW", "MNCH 241900Z 00000KT 9999 SCT025TCU 32/23 Q1011 TCU/N/NE", "MNJG 241900Z 36004KT 9999 SCT020 25/19 Q1011", "MNJU 241900Z 08004KT 9999 SCT020TCU 32/24 Q1011 TCU/S/SE", "MNMG 241900Z 11006KT 9999 TS FEW020CB SCT025 32/23 Q1010 A2983 CB/E/NE/SE NOSIG", "MNPC 241900Z 09004KT 7000 SCT016 30/26 Q1010 HZ", "MNRS 241900Z 01004KT 9999 FEW012CB 31/25 Q1010 CB/E/S/SE", "MPBO 241900Z 05008KT 9999 FEW010 SCT020 SCT100 30/27 Q1010", "MPDA 241900Z 22010KT 9999 SCT015TCU 30/25 Q1011", "MPMG 241917Z 24004KT 180V270 8000 -TSRA FEW010 SCT016CB SCT080 24/23 Q1010 RETS TEMPO AT 2030 NSW", "MPPA 241900Z 36008KT 3200 0500N +TSRA SCT012CB BKN070 23/23 Q1010", "MPSM 241900Z 05007KT 9999 FEW020 SCT080 29/24 Q1010", "MPTO 241900Z 24007KT 8000 -TSRA SCT016CB BKN070 24/23 Q1011 TEMPO RA", "MRLB 241900Z 26010KT 9999 SCT040 30/26 A2984", "MRLM 241900Z 06007KT 9999 FEW025 BKN220 28/25 A2986", "MROC 241900Z 26007KT 9999 FEW020 SCT035 BKN130 23/21 A3005 NOSIG", "MRPV 241900Z 29007KT 9999 SCT020 BKN180 23/19 A3004 NOSIG", "MSAC 241850Z 16003KT 9999 SCT027 31/25 Q1011 A2986", "MSLP 241850Z 19006KT 130V230 9999 VCSH SCT027 FEW033TCU FEW037CB 32/24 Q1011 A2986 NOSIG RMK TCU E CB NW", "MSLU 241850Z 13004KT 9999 FEW030 31/25 Q1010 A2984", "MSSA 241850Z 08003KT 9999 FEW033 29/20 Q1017 A3004", "MSSM 241850Z 00000KT 9999 FEW030 34/24 Q1011 A2988", "MSSS 241850Z 15005KT 9999 SCT027 SCT040CB 28/21 Q1015 A2999", "MTPP 241900Z 27009KT 9000 -RA SCT026CB SCT060 30/23 Q1010 A2984 RMK/CB/NNE/SE/SW", "MUCC 241850Z 04012KT 9000 SCT020 30/23 Q1014", "MUCF 241850Z 06005KT 030V100 9999 BKN025 29/22 Q1014", "MUCL 241850Z 01006KT 310V060 9000 SCT020 30/24 Q1014", "MUCM 241850Z 05010KT 9000 SCT020 31/22 Q1013", "MUCU 241850Z 16006KT 120V200 9000 SCT020 30/21 Q1012", "MUGM 241851Z 12007KT 10SM FEW030 FEW250 31/24 A2989 RMK SLP122 SHRA DSNT N AND NE T03060239", "MUHA 241850Z 06012KT 020V090 9000 SCT030 29/21 Q1015", "MUHG 241850Z 02009KT 340V050 9999 FEW039TCU SCT045 30/22 Q1013", "MUSC 241850Z 05010KT 020V080 9000 BKN025 29/21 Q1015", "MUVR 241850Z 04012KT 9000 FEW020 BKN070 28/22 Q1015", "MWCB 241900Z 05005KT 9999 SCT018TCU 30/24 Q1013", "MWCR 241900Z 05010KT 9999 FEW018 31/24 Q1012", "MYGF 241900Z 03014KT 9999 SCT030 27/21 A3001", "MYNN 241900Z 06010KT 9999 SCT018TCU SCT120 28/20 A2999", "MYSM 241900Z AUTO 06011KT 030V090 9999 VCTS SCT021 //////CB 27/23 A2995", "MZBZ 241900Z 15006KT 9999 SCT028 31/25 A2990 Q1012 NOSIG", "NCAI 241900Z AUTO 01006KT //// ////// 24/22 Q1009", "NCAT 241900Z AUTO 32008KT //// ////// ///// Q////", "NCMG 241900Z AUTO 33010KT //// ////// ///// Q////", "NCMH 241900Z AUTO 36002KT //// ////// ///// Q1012", "NCMK 241900Z AUTO NIL", "NCMR 241900Z AUTO 32004KT //// ////// ///// Q1008", "NCNS 241900Z AUTO 27002KT //// ////// 29/23 Q1012", "NCPK 241900Z AUTO NIL", "NCPL 241900Z AUTO 27004KT //// ////// 25/23 Q1008", "NCPY 241900Z AUTO 03010KT //// ////// 28/23 Q1012", "NCRG 241930Z AUTO 33016KT 4400 HZ BKN013/// 24/23 Q1006", "NCRK 241900Z AUTO 35002KT //// ////// 28/22 Q1011", "NCSW 241900Z AUTO 26004KT //// ////// 26/23 Q1011", "NFFN 241900Z 12006KT 9999 -SHRA FEW028 SCT048 BKN110 23/19 Q1011 TEMPO 5000 SHRA BKN018", "NFNA 241900Z 13007KT 9999 -SHRA BKN018 BKN045 24/20 Q1012", "NFNL 241900Z 10010KT 9999 VCSH SCT026 BKN048 25/21 Q1012", "NFNM 241900Z 13015KT 9999 SCT018 BKN048 26/17 Q////", "NFTF 241900Z 15012KT 9999 FEW016 22/12 Q1015 RMK DRY AIR 53?", "NFTL 241900Z 08010KT 9999 FEW017 SCT300 23/11 Q1013 RMK DRY AIR 52?", "NFTV 241900Z 17006KT 9999 FEW017 BKN040 24/17 Q1013", "NGFU 241900Z VRB02KT 9999 FEW018TCU SCT020 28/23 Q1010", "NGTA 241900Z 08009KT 9999 SCT019 27/23 Q1010", "NIUE 241900Z 18012KT 160V220 9999 SCT018 24/17 Q1011", "NLWW 241923Z 14010KT 100V170 9999 SCT013 BKN023 BKN033 26/24 Q1010 TEMPO 4000 SHRA FEW020CB", "NSFA 241900Z 19006KT 9999 FEW018CB SCT022 BKN150 25/24 Q1011 RMK CB TO NE", "NSTU 241850Z 00000KT 5SM SHRA SCT015TCU BKN035 OVC100 24/24 A2985 RMK TCU ALQDS SLP110 T02440242", "NTAA 241930Z 06015KT 9999 FEW023 SCT260 28/23 Q1012 NOSIG", "NWWW 241930Z AUTO 07010KT 020V110 CAVOK 24/18 Q1012 NOSIG", "NZAA 241930Z AUTO 14005KT 9999 OVC035/// 14/12 Q1025 NOSIG", "NZCH 241930Z AUTO 19001KT 9999 NCD 07/04 Q1032 NOSIG", "NZCM 241855Z AUTO 06014G27KT 9999 CLR M24/M31 A2947 RMK AO2 PK WND 06029/1817 SLP987 T12391310 $", "NZFX 241855Z 06015KT 9999 DRSN FEW060 BKN100 M25/M29 A2951 RMK SLP987 LSR11 GRID23015KT SDG/HDG", "NZWN 241930Z AUTO 15014KT 9999 BKN080/// OVC100/// 11/04 Q1031 NOSIG", "OBBI 241930Z 10004KT CAVOK 29/22 Q1012 NOSIG", "OEAB 241900Z 00000KT 9999 FEW020 18/10 Q1026 NOSIG", "OEAH 241900Z 00000KT CAVOK 25/04 Q1013 NOSIG", "OEAO 241900Z 00000KT CAVOK 28/08 Q1015 NOSIG", "OEBA 241900Z 12006KT CAVOK 23/08 Q1022 NOSIG", "OEBH 241900Z 09010KT CAVOK 24/04 Q1018 NOSIG", "OEDF 241900Z 00000KT CAVOK 24/19 Q1012 NOSIG", "OEDM 241900Z 09008KT CAVOK 24/M05 Q1017", "OEDR 241900Z 07004KT CAVOK 26/24 Q1011", "OEGN 241900Z 10006KT CAVOK 30/21 Q1012 NOSIG", "OEGS 241900Z 07003KT CAVOK 26/06 Q1015", "OEGT 241900Z 00000KT CAVOK 21/08 Q1015 NOSIG", "OEHL 241900Z 24004KT CAVOK 24/M01 Q1017", "OEJB 241900Z AUTO 05008KT CAVOK 25/18 Q1012 NOSIG", "OEJN 241900Z 34005KT CAVOK 29/21 Q1011 NOSIG", "OEKJ 241900Z 17006KT CAVOK 27/M04 Q1018", "OEKM 241900Z 24006KT 9999 SCT022 FEW025CB 18/12 Q1025 NOSIG", "OEMA 241900Z 31003KT CAVOK 31/09 Q1015 NOSIG", "OEMN 241900Z 30004KT CAVOK 29/21 Q1014", "OENG 241900Z 09006KT CAVOK 24/03 Q1020 NOSIG", "OEPA 241900Z 15006KT CAVOK 27/05 Q1013 NOSIG", "OERF 241900Z 00000KT CAVOK 25/M01 Q1013 NOSIG", "OERK 241900Z 00000KT CAVOK 24/05 Q1017 NOSIG", "OERR 241900Z 03011KT CAVOK 22/07 Q1016 NOSIG", "OESH 241900Z 07007KT CAVOK 27/01 Q1016 NOSIG", "OESK 241900Z 06010KT 6000 NSC 25/05 Q1018 NOSIG", "OETB 241900Z 33003KT CAVOK 24/04 Q1015 NOSIG", "OETF 241900Z 33006KT 8000 NSC 22/16 Q1022 NOSIG", "OETR 241900Z 06016KT CAVOK 20/11 Q1017 NOSIG", "OEWD 241900Z 12006KT CAVOK 25/08 Q1015 NOSIG", "OEWJ 241900Z 33005KT CAVOK 26/18 Q1011 NOSIG", "OEYN 241900Z 27008KT CAVOK 28/21 Q1009 NOSIG", "OIAA 241900Z 13004KT 5000 HZ NSC 27/22 Q1011", "OIAH 241900Z 00000KT CAVOK 22/10 Q1017", "OIAI 241851Z 14004KT CAVOK 26/06 Q1012", "OIAM 241900Z 00000KT CAVOK 25/21 Q1011", "OIAW 241930Z 00000KT 7000 NSC 22/11 Q1011", "OIBB 241900Z 12004KT CAVOK 25/21 Q1011 A2988", "OIBJ 241900Z AUTO VRB01KT //// // ////// 22/17 Q1016", "OIBK 241900Z 28006KT CAVOK 27/21 Q1011", "OIBP 241900Z 00000KT CAVOK 24/20 Q1011 A2985", "OICC 241900Z 32012KT 9999 FEW045CB SCT050 BKN100 20/01 Q1020 A3015", "OICI 241900Z 16004KT 9000 SCT040CB SCT045 BKN090 21/01 Q1022 A3018 RETS", "OICK 241900Z 00000KT CAVOK 18/M01 Q1018", "OICS 241900Z 20004KT 9999 SCT040 SCT080 12/08 Q1020 A3014", "OIFK 241900Z 11004KT 5000 DU FEW040 BKN200 19/05 Q1019 A3011", "OIFM 241930Z 25004KT CAVOK 11/M12 Q1021 A3017", "OIFS 241900Z 23004KT CAVOK 08/M13 Q1025", "OIGG 241900Z 00000KT 9999 FEW020CB BKN025 BKN080 17/16 Q1017", "OIHH 241900Z 12006KT 9999 FEW040 11/03 Q1022 A3018", "OIHM 241900Z 30002KT 9999 FEW040 BKN190 13/03 Q1022", "OIIE 241930Z 29014KT 9999 -SHRA FEW035CB SCT040 OVC100 20/04 Q1018", "OIII 241930Z 30014KT 9999 FEW030CB SCT035 BKN090 21/02 Q1018 A3008", "OIIK 241900Z 14002KT 9999 FEW040 BKN100 13/06 Q1020", "OIIP 241900Z 32012KT 6000 -RA FEW030CB SCT040 OVC100 15/06 Q1018 A3007", "OIIS 241900Z 15002KT CAVOK 21/01 Q1016", "OIKB 241930Z VRB02KT 7000 NSC 26/20 Q1011 A2986", "OIKK 241900Z 04004KT CAVOK 15/M07 Q1022 A3019", "OIKO 241900Z AUTO 00000KT //// // ////// 25/20 Q1012", "OIKQ 241900Z 15004KT 7000 NSC 26/20 Q1010", "OIMB 241900Z 00000KT CAVOK 13/M08 Q1020 A3014", "OIMJ 241900Z AUTO 01006KT //// // ////// 18/04 Q1016", "OIMM 241930Z 21006KT CAVOK 14/07 Q1017 A3006", "OIMN 241900Z 29016KT 9999 -SHRA FEW030CB SCT040 BKN100 16/09 Q1017", "OIMS 241900Z 04006KT CAVOK 17/08 Q1017", "OIMT 241900Z AUTO 09002KT //// // ////// 22/M02 Q1013", "OINB 241900Z 00000KT 9999 FEW020 SCT090 20/18 Q1014", "OING 241900Z 21004KT 9999 SCT020 FEW025CB OVC090 19/18 Q1018", "OINK 241900Z AUTO 19003KT //// // ////// 21/13 Q1013", "OINN 241900Z 26006KT 9999 FEW023CB BKN028 OVC090 19/17 Q1015", "OINR 241900Z 20002KT 8000 -SHRA FEW020CB SCT025 BKN080 19/17 Q1015", "OINZ 241900Z 15006KT 8000 -RA BKN030 OVC080 19/18 Q1015", "OISA 241900Z 33002KT CAVOK 11/M10 Q1025 A3028", "OISF 241900Z 35004KT CAVOK 16/M02 Q1020 A3014", "OISL 241900Z 00000KT CAVOK 22/06 Q1015 A2998", "OISS 241930Z 00000KT CAVOK 17/04 Q1021 A3017", "OISY 241900Z 00000KT CAVOK 13/M00 Q1025", "OITL 241900Z 04004KT 9999 FEW045 09/05 Q1019", "OITR 241930Z 28006KT 6000 NSC 06/06 Q1020", "OITT 241930Z 01006KT 9999 FEW032 SCT080 10/05 Q1021 A3017", "OITU 241853Z 00000KT 9999 SCT040 07/05 Q1021", "OIYY 241930Z 19006KT 8000 NSC 20/M04 Q1019", "OIZB 241900Z 35008KT CAVOK 20/04 Q1014", "OIZH 241900Z 20004KT CAVOK 14/M05 Q1020 A3013", "OIZI 241900Z 00000KT CAVOK 24/M00 Q1014", "OJAI 241900Z 28006KT 5000 HZ NSC 17/11 Q1018 NOSIG", "OJAM 241900Z 00000KT 5000 HZ NSC 20/11 Q1018 NOSIG", "OJAQ 241900Z 36008KT 9999 24/15 Q1012 NOSIG", "OKBK 241900Z 18006KT CAVOK 24/20 Q1012 NOSIG", "OLBA 241900Z 05005KT 360V130 9999 FEW030 24/18 Q1017 NOSIG", "OMAA 241900Z 05005KT CAVOK 28/22 Q1011 NOSIG", "OMAD 241900Z 04004KT 010V070 CAVOK 29/23 Q1012 NOSIG", "OMAL 241900Z 02007KT CAVOK 27/14 Q1014 BECMG 08006KT", "OMDB 241900Z 05003KT 360V120 CAVOK 31/18 Q1012 NOSIG", "OMDW 241900Z 08006KT 8000 NSC 26/21 Q1013 NOSIG", "OMFJ 241900Z 21003KT 8000 NSC 29/22 Q1011 A2988", "OMRK 241900Z 21002KT 6000 NSC 24/21 Q1012 A2991", "OMSJ 241900Z 11003KT CAVOK 26/18 Q1012 NOSIG", "OOAD 241850Z AUTO 19003KT 9999 R31///// // NCD 27/06 Q1014 NOSIG", "OODQ 241850Z AUTO 19006KT CAVOK ////// 23/21 Q1013 NOSIG RMK RH88? 0", "OOKB 241850Z AUTO 23005KT 190V280 CAVOK 32/07 Q1011 NOSIG", "OOMS 241850Z 25002KT CAVOK 27/09 Q1011 NOSIG", "OOSA 241850Z 36003KT 9999 SCT025 27/22 Q1014 NOSIG", "OOSH 241850Z AUTO 30003KT //// ////// 28/13 Q1011 RMK 1007", "OPFA 241855Z 00000KT 4000 FU NSC 22/17 Q1010 NOSIG", "OPIS 241930Z 18004KT 5000 FU NSC 15/10 Q1011 NOSIG", "OPKC 241930Z 23006KT 6000 NSC 26/22 Q1011 NOSIG", "OPLA 241925Z 00000KT 4000 FU NSC 22/14 Q1009 NOSIG RMK QFE983 A29.80", "OPMT 241930Z 00000KT 4000 FU NSC 23/17 Q1009 NOSIG", "OPPS 241900Z 23004KT 4000 HZ SCT100 FEW200 19/12 Q1011", "OPSK 241900Z 00000KT 4000 HZ NSC 23/18 Q1008 NOSIG", "OPST 241900Z 00000KT 4000 FU NSC 19/14 Q1010 NOSIG 72%", "ORBI 241900Z 32007KT CAVOK 22/11 Q1014 NOSIG", "ORER 241900Z 01003KT CAVOK 17/05 Q1018", "ORMM 241900Z 10006KT 8000 NSC 25/20 Q1012 NOSIG ", "ORSU 241900Z 35004KT CAVOK 13/13 Q1019", "OSDI 241900Z 02008KT CAVOK 18/07 Q1018", "OSLK 241900Z 04004KT CAVOK 20/15 Q1016", "OTBD 241930Z 04001KT CAVOK 28/20 Q1012 NOSIG", "OTBH 241855Z AUTO M 9999 M M A2989", "OTHH 241900Z 05003KT 360V100 CAVOK 31/19 Q1012 NOSIG", "PAAD 241935Z AUTO 13009KT 7SM OVC003 M10/M11 A3000 RMK AO2 T11031111", "PAAK 241932Z AUTO 22007G22KT 180V270 9SM OVC011 A3029 RMK AO2 FZRANO $", "PAAQ 241853Z 00000KT 10SM CLR M03/M07 A2981 RMK AO2 SLP100 T10331067", "PABA 241925Z AUTO 09022KT 10SM OVC016 M05/M08 A3002 RMK AO2 FZRANO PNO $", "PABE 241853Z 26011KT 10SM CLR M01/ A3007 RMK AO2 SLP183 T1011 $", "PABI 241853Z 25004KT 10SM SCT004 BKN009 OVC050 M09/M12 A2989 RMK AO2 SLP155 T10891122", "PABL 241929Z AUTO 28007KT 3SM -SN BR OVC012 00/M01 A2990 RMK AO2 P0000 FZRANO $", "PABR 241853Z 11019G28KT 5SM BR OVC005 M06/M07 A2992 RMK AO2 PK WND 10031/1811 SLP134 T10561067", "PABT 241853Z 01003KT 10SM -SN OVC020 M08/M10 A2998 RMK AO2 SLP170 PCPN VRY LGT P0000 T10781100", "PABV 241856Z AUTO 00000KT 10SM CLR M06/M09 A2985 RMK AO2 SLP114 T10561089 FZRANO", "PACD 241853Z 00000KT 10SM BKN028 OVC034 06/06 A3024 RMK AO2 SLP240 T00560056", "PACV 241853Z 03006KT 10SM FEW150 05/M12 A2970 RMK AO2 SLP056 T00501117", "PACZ 241855Z 32016KT 10SM BKN026 01/M04 A3000 RMK AO2A SLP166", "PADG 241858Z 13012KT 2SM -SN BR SCT006 BKN010 BKN015 OVC020 M03/M03 A2976", "PADK 241856Z AUTO 20025G33KT SCT039 12/08 A3015 RMK AO2 PK WND 20035/1846 SLP210 T01220078 PWINO $", "PADL 241856Z 24012G19KT 10SM CLR 02/00 A3000 RMK AO2 SLP163 T00220000", "PADM 241917Z AUTO 20005KT 10SM OVC004 00/M01 A3006 RMK AO2 FZRANO", "PADQ 241906Z 29013KT 5SM -RA FEW012 OVC029 07/03 A2983 RMK AO2 P0002 T00670028", "PADU 241856Z 21019G26KT 7SM -RA FEW035 BKN046 OVC060 13/08 A3023 RMK AO2 PK WND 22026/1851 SLP240 T01280078 PNO $", "PAED 241855Z 36006KT 10SM SCT200 M03/M06 A2981 RMK AO2A SLP093 T10341062 $", "PAEH 241932Z AUTO 00000KT 10SM BKN023 02/01 A3012 RMK AO2 SLP205", "PAEI 241855Z 00000KT 1/4SM R32/2200V2400FT FZFG VV002 M06/M07 A2989 RMK AO2A SLP133 T10621072", "PAEL 241850Z 00000KT 20SM FEW025 BKN040 05/02 A2962 RMK SEA 0 SWELL 3 SW NOSPECI", "PAEN 241853Z 02003KT 10SM CLR M02/M05 A2986 RMK AO2 SLP114 T10221050", "PAFA 241853Z 00000KT 10SM FEW012 FEW060 M07/M09 A2992 RMK AO2 SLP143 T10671089", "PAFB 241905Z AUTO 00000KT 4SM BR CLR M11/M13 A2992 RMK AO2 SLP145", "PAFE 241856Z AUTO 00000KT 10SM FEW050 BKN075 OVC100 07/02 A2970 RMK AO2 SLP069 T00720017", "PAFM 241856Z AUTO 14010G15KT 10SM OVC029 M03/M06 A2996 RMK AO2 SNE41 SLP154 P0000 T10331056 FZRANO", "PAFR 241855Z AUTO 00000KT 10SM CLR M07/M08 A2978 RMK AO2 SLP096 T10661083 VISNO RWY35 CHINO RWY35 $", "PAFS 241901Z AUTO 00000KT 10SM OVC008 M04/M05 A2993 RMK AO2 CIG 006V010 FZRANO", "PAGA 241856Z AUTO 10SM BKN075 OVC110 M04/M06 A2995 RMK AO2 SLP144 T10391056 FZRANO $", "PAGK 241853Z AUTO 34005KT 10SM CLR M12/M15 A2985 RMK AO2 SLP153 T11221150 TSNO", "PAGL 241856Z AUTO 31008KT 10SM OVC035 M01/M02 A2993 RMK AO2 SLP130 T10061022 PWINO FZRANO $", "PAGN 241856Z AUTO VRB03KT 10SM OVC100 07/04 A2968 RMK AO2 SLP041 T00670044", "PAGS 241856Z AUTO 00000KT 10SM OVC110 04/02 A2966 RMK AO2 SLP042 T00390022", "PAGY 241853Z AUTO 00000KT 10SM SCT045 OVC055 07/M02 A2964 RMK AO2 SLP037 T00671017 TSNO", "PAHC 241935Z AUTO 20003KT 2SM -SN BR BKN007 BKN030 OVC046 M01/M01 A2997 RMK AO2 VIS 1V4 P0000 FZRANO $", "PAHL 241856Z AUTO 10004KT 10SM FEW065 BKN080 OVC100 M06/M07 A2995 RMK AO2 SLP146 T10561067 FZRANO", "PAHN 241854Z AUTO 33009KT 10SM FEW095 FEW120 06/M03 A2966 RMK AO2 SLP046 T00561028 TSNO", "PAHO 241853Z 05004KT 10SM BKN065 03/M06 A2984 RMK AO2 SLP104 T00281061", "PAHX 241930Z AUTO 29003KT 1 1/2SM -SN BR FEW007 BKN025 OVC037 M02/M02 A2996 RMK AO2 P0001 FZRANO", "PAHY 241856Z AUTO 27008KT 10SM FEW022 BKN041 OVC070 08/04 A2974 RMK AO2 RAB08E56 SLP068 P0000 T00780039 $", "PAIG 241936Z AUTO 23008KT 10SM OVC006 01/01 A2998 RMK AO2 CIG 004V008 FZRANO $", "PAIK 241914Z AUTO 11006KT 2SM -SN BR FEW004 OVC019 M02/M03 A2990 RMK AO2 P0000 FZRANO", "PAIL 241853Z 32004KT 10SM SCT018 BKN025 OVC034 01/01 A2992 RMK AO2 SLP134 T00060006", "PAIM 241855Z AUTO 00000KT 10SM OVC015 M06/M07 A2990 RMK AO2 SLP153 T10581073", "PAIN 241856Z AUTO 00000KT 10SM CLR M16/M18 A2985 RMK AO2 SLP162 T11561178 FZRANO $", "PAIW 241856Z AUTO 23009KT 10SM BKN023 OVC049 01/M03 A2990 RMK AO2 RAB32E42 SLP126 P0000 T00061033 FZRANO", "PAJC 241918Z AUTO 26019G28KT 10SM SCT028 BKN033 07/01 A3014 RMK AO2 PK WND 25028/1915 RAE18 PRESFR PNO $", "PAJN 241853Z 00000KT 10SM SCT085 BKN100 03/02 A2964 RMK AO2 SLP037 T00330022", "PAJZ 241932Z AUTO 00000KT 8SM -RA FEW003 SCT043 OVC060 01/00 A3003 RMK AO2 UPB14E32RAB32SNE14 P0000 FZRANO $", "PAKF 241856Z AUTO 00000KT 10SM -RA OVC024 A3024 RMK AO2 UPB1757E01RAB01 SLPNO P0000 FZRANO $", "PAKH 241936Z AUTO 9SM SCT025 BKN032 OVC041 A2999 RMK AO2 UPB1857E27 P0000 FZRANO TSNO $", "PAKI 241924Z AUTO 27006KT 10SM OVC030 01/01 A3009 RMK AO2 FZRANO PNO $", "PAKK 241925Z AUTO 18003KT 3/4SM -SN BR OVC003 M01/M01 A2987 RMK AO2 P0001 FZRANO", "PAKN 241908Z 26006KT 10SM SCT002 OVC055 02/02 A2997 RMK AO2 T00220022", "PAKP 241935Z AUTO 19009KT 10SM SCT011 M12/M14 A2984 RMK AO2 SNB13E22 P0000 FZRANO", "PAKT 241853Z COR 00000KT 10SM FEW030 BKN055 08/04 A2971 RMK AO2 RAB34 SLP062 HARBOR WIND 32007KT P0000 T00780039", "PAKU 241845Z 10017KT 3SM R06/P6000FT BR OVC003 M08/M08 A2997", "PAKV 241933Z AUTO 00000KT 1SM -SN BR BKN007 OVC026 M03/M04 A2996 RMK AO2 P0000 T10331044 TSNO", "PAKW 241853Z AUTO 00000KT 10SM FEW042 BKN060 OVC075 09/04 A2971 RMK AO2 SLP061 T00890044 TSNO", "PAKX 241935Z AUTO 00000KT 10SM BKN022 OVC041 01/00 A2990 RMK AO2", "PALH 241853Z 01006KT 10SM CLR M03/M06 A2984 RMK AO2 SLP107 T10331061", "PALJ 241850Z 00000KT 20SM BKN040 02/M01 A2988 RMK EST PASS CLSD NOSPECI", "PALP 241845Z 10010KT 3SM BR BKN004 M09/M10 A2998", "PALU 241919Z AUTO 19022KT 10SM -SHRA BKN008 01/M01 A2970 RMK AO2 PK WND 19028/1906 SLP058", "PAMB 241856Z AUTO 26009KT 9SM CLR 02/M01 A3003 RMK AO2 SLP174 T00221011 FZRANO $", "PAMD 241851Z AUTO 34007KT 10SM CLR 06/M04 A2970 RMK AO2 SLP045 T00561039 PNO $", "PAMH 241856Z AUTO 00000KT 10SM OVC007 M05/M07 A2991 RMK AO2 SLP135 T10501067 FZRANO", "PAMK 241856Z AUTO 26010KT 10SM -RA SCT026 BKN035 01/M01 A2994 RMK AO2 RAB55 SLP139 P0000 T00061011 FZRANO", "PAMR 241853Z 34003KT 10SM CLR M03/M07 A2983 RMK AO2 SLP103 T10331072", "PANA 241856Z AUTO 27007KT 10SM CLR M01/M01 A3007 RMK AO2 SLP182 T10111011 FZRANO TSNO $", "PANC 241853Z 33004KT 10SM BKN200 M04/M07 A2983 RMK AO2 SLP103 T10391072 $", "PANI 241932Z AUTO 29005KT 5SM -SN BR BKN023 BKN030 OVC035 00/M01 A3004 RMK AO2 P0000 FZRANO $", "PANN 241853Z AUTO 06005KT 10SM BKN008 M04/M06 A2990 RMK AO2 SLP137 T10441061 TSNO", "PANV 241928Z AUTO 22003KT 2SM -SN BR OVC009 M02/M02 A2993 RMK AO2 VIS 1 1/2V3 P0000 FZRANO TSNO", "PANW 241856Z AUTO 25003KT 10SM UP FEW015 SCT042 OVC060 M01/M01 A2999 RMK AO2 UPE11B38SNB11E38 SLP162 P0000 T10061006 FZRANO", "PAOH 241856Z AUTO 00000KT 10SM OVC110 01/01 A2965 RMK AO2 SLP041 T00110011 FZRANO", "PAOM 241853Z 00000KT 10SM SCT080 M02/M04 A2992 RMK AO2 SLP130 T10221039", "PAOO 241856Z AUTO 25009KT FEW021 SCT034 OVC045 01/00 A3008 RMK AO2 SLP192 T00110000 PWINO FZRANO TSNO $", "PAOR 241853Z 00000KT 10SM OVC042 M07/M08 A2982 RMK AO2 SLP138 T10721083", "PAOT 241913Z 29012KT 1 1/2SM -SN BR BKN007 OVC010 M01/M01 A2984 RMK AO2 P0000 T10111011", "PAOU 241856Z AUTO 28011KT 6SM HZ FEW021 OVC060 06/02 A3023 RMK AO2 SLP236 T00560022 PNO $", "PAPB 241928Z AUTO 13017KT 2SM -RA BKN005 OVC009 06/ A3002 RMK AO2 P0001 T0061 TSNO $", "PAPG 241856Z 00000KT 10SM SCT045 SCT095 05/03 A2968 RMK AO2 SLP055 T00500033", "PAPH 241856Z AUTO 29017G22KT 10SM -RA FEW024 SCT033 OVC045 06/03 A3016 RMK AO2 PK WND 29027/1815 RAB21 SLP212 P0000 T00560028", "PAPM 241856Z AUTO 34007KT 10SM CLR A3011 RMK AO2 SLPNO FZRANO $", "PAPN 241914Z AUTO 30021G27KT 8SM BKN026 06/01 A3009 RMK AO2 PK WND 30028/1903 PNO $", "PAPO 241856Z AUTO 24019KT 10SM UP FEW010 BKN017 BKN023 01/M01 A2974 RMK AO2 RAB07E16B39E48UPB16E21B48 SLP069 T00061011 FZRANO PNO $", "PAQH 241856Z AUTO 28006KT 10SM CLR 01/M01 A3011 RMK AO2 SLP195 T00061006 FZRANO", "PAQT 241853Z AUTO 09009KT 10SM CLR M13/M15 A2999 RMK AO2 SLP156 T11331150 TSNO", "PARC 241856Z AUTO 00000KT 5SM -SN BR OVC018 M14/M16 A2987 RMK AO2 SLP186 P0000 T11391161 FZRANO", "PARS 241856Z AUTO 27005KT 10SM OVC039 A3000 RMK AO2 SLPNO FZRANO $", "PARY 241856Z AUTO 09009KT 10SM FEW110 M06/M07 A2992 RMK AO2 SLP147 T10611072 FZRANO", "PASA 241856Z AUTO 23011KT 10SM OVC033 M02/M04 A2996 RMK AO2 SLP146 T10171044 FZRANO", "PASC 241853Z 12009KT 3/4SM R06/4000V5000FT BR BKN002 M11/M12 A2998 RMK AO2 SLP154 I1003 T11111122", "PASD 241914Z 28010KT 10SM FEW019 SCT035 OVC047 07/03 A3023 RMK AO2 PNO $", "PASH 241926Z AUTO 29009KT 10SM SCT028 OVC034 00/M04 A2989 RMK AO2 FZRANO PNO $", "PASI 241853Z 36004KT 10SM -RA FEW023 BKN042 OVC055 08/02 A2967 RMK P0000", "PASK 241921Z AUTO 14009KT 3SM -SN BR OVC018 M02/M03 A2990 RMK AO2 P0000 FZRANO", "PASL 241922Z AUTO 00000KT 1SM UP BR OVC016 M01/M02 A2999 RMK AO2 VIS 1/2V1 3/4 UPB05SNE05B09E20 P0001 FZRANO", "PASM 241922Z AUTO 23005KT 10SM OVC029 M01/M01 A3002 RMK AO2 FZRANO", "PASN 241853Z AUTO 14016KT 7SM -RA OVC009 05/03 A3002 RMK AO2 SLP167 P0001 T00500033 TSNO $", "PASO 241853Z AUTO 00000KT 10SM CLR M01/M02 A2983 RMK AO2 SLP102 T10111022 TSNO", "PASV 241909Z VRB01KT 8SM BKN005 M02/M03 A2985 RMK AO2A SLP137", "PASX 241856Z AUTO 00000KT 10SM CLR M04/M05 A2988 RMK AO2 SLP125 T10441050 FZRANO", "PASY 241855Z 22010KT 2SM -RA BR OVC002 09/08 A2964 RMK AO2A SLP039 ALSTG/SLP ESTMD WND DATA ESTMD T00860080 RVRNO PNO $", "PATA 241852Z 32003KT 10SM BKN065 M10/M12 A2997 RMK AO2 SLP154 T11001117", "PATC 241855Z AUTO 26009KT OVC020 00/M03 A2987 RMK AO2 SLP119 T10031035 PWINO FZRANO $", "PATE 241856Z AUTO 14004KT 10SM OVC040 M02/M03 A2988 RMK AO2 SLP127 T10221028 FZRANO", "PATG 241856Z AUTO 29007G18KT 10SM CLR 02/M01 A3010 RMK AO2 PRESRR SLP193 T00171011 FZRANO", "PATK 241853Z 05004KT 10SM CLR M07/M12 A2983 RMK AO2 SLP110 T10671117", "PATL 241855Z AUTO 00000KT 10SM BKN070 OVC110 M06/M06 A2993 RMK AO2 SLP156 T10561059 TSNO $", "PATO 241853Z AUTO 27004KT 10SM CLR M03/M06 A2981 RMK AO2 SLP094 T10281056 TSNO", "PATQ 241856Z AUTO 10013KT 10SM CLR M12/M14 A2988 RMK AO2 SLP123 T11221139 FZRANO TSNO", "PAUN 241920Z AUTO 07009KT 9SM -SN SCT011 BKN017 OVC060 M02/M03 A2994 RMK AO2 P0000 FZRANO", "PAUT 241935Z AUTO 22013KT 7SM -RA SCT034 BKN047 OVC070 10/08 A3023 RMK AO2", "PAVA 241856Z AUTO 28006KT 10SM BKN034 OVC044 00/M01 A3004 RMK AO2 SLP176 T00001006 FZRANO", "PAVC 241856Z AUTO 24009KT 10SM FEW015 OVC034 06/04 A3025 RMK AO2 SLP245 T00560039 PNO $", "PAVD 241856Z 03006KT 10SM FEW200 FEW300 A2983 RMK AO2 SLPNO 02/M07 PNO $", "PAWD 241853Z AUTO 36017G30KT 10SM CLR 02/M09 A2976 RMK AO2 PK WND 35030/1846 SLP077 T00221089 TSNO", "PAWG 241856Z 09005KT 10SM FEW005 SCT045 BKN065 08/03 A2971 RMK AO2 SLP062 T00810031 $", "PAWI 241853Z AUTO 09017KT 10SM CLR M12/M15 A2981 RMK AO2 SLP097 T11221150 TSNO $", "PAWM 241856Z AUTO 34007KT 10SM CLR M03/M03 A2991 RMK AO2 SLP135 T10281028 FZRANO PNO $", "PAWN 241932Z AUTO 16010KT 2 1/2SM -SN BR OVC006 M02/M02 A2984 RMK AO2 CIG 004V009 P0000 FZRANO", "PAWS 241856Z AUTO 00000KT 10SM CLR M05/M08 A2983 RMK AO2 SLP111 T10501078 FZRANO", "PAYA 241853Z AUTO 00000KT 10SM CLR 01/M01 A2964 RMK AO2 SLP035 T00111006 TSNO $", "PAZK 241856Z AUTO 04004KT 10SM CLR M11/M13 A2970 RMK AO2 SLP133 T11061133 FZRANO", "PFCL 241856Z AUTO 27014G20KT 10SM CLR A3002 RMK AO2 SLPNO FZRANO TSNO $", "PFEL 241856Z AUTO 00000KT 10SM OVC070 00/M01 A2988 RMK AO2 SLP121 T00001006 FZRANO", "PFKT 241856Z AUTO 08007KT 10SM OVC039 M01/M02 A2991 RMK AO2 SLP129 T10111022 FZRANO", "PFKW 241856Z AUTO 26008KT 10SM CLR 00/M01 A3005 RMK AO2 SLP176 T00001006 FZRANO", "PFNO 241936Z AUTO 12014KT 3SM -SN BR OVC026 M02/M03 A2987 RMK AO2 P0000 FZRANO", "PFSH 241856Z AUTO 16012KT 10SM UP BKN012 OVC036 00/M01 A2991 RMK AO2 UPB21 SLP129 P0000 T00001011 FZRANO", "PFWS 241856Z AUTO 28005KT 10SM OVC070 02/01 A3001 RMK AO2 SLP207 T00220011 FZRANO", "PFYU 241856Z 00000KT 10SM SCT007 OVC030 M08/M09 A2999 RMK AO2 SLP172 T10781089", "PGSN 241935Z 08008KT 10SM FEW017 FEW026 SCT033 27/23 A2983 RMK AO2 RAE1856B23E32 P0000 T02670233 $", "PGUA 241925Z AUTO 12009KT 10SM FEW014 26/23 A2982 RMK AO2 SLP088 $", "PGUM 241854Z 11004KT 10SM FEW020 27/25 A2981 RMK AO2 SLP087 T02720250", "PHBK 241851Z AUTO 00000KT 10SM FEW060 OVC080 28/16 A3005 RMK AO2 SLP177 T02830161", "PHHI 241909Z AUTO 03006KT 10SM SCT049 SCT060 25/18 A3009 RMK AO2 DZB1854E07RAB07E09 SLP179 $", "PHJR 241853Z 05007KT 10SM FEW046 FEW080 28/19 A3006 RMK AO2 SLP185 T02780194", "PHKO 241853Z 17003KT 10SM CLR 29/19 A3001 RMK AO2 SLP162 T02890189", "PHLI 241900Z 09014KT 10SM FEW055 OVC080 27/21 A3009 RMK AO2 T02670211", "PHMK 241854Z 05008G16KT 10SM FEW037 27/20 A3006 RMK AO2 SLP181 T02720200", "PHNG 241857Z 07011G20KT 10SM SCT025 A3003 RMK AO2 SLP166 $", "PHNL 241853Z 06008KT 10SM FEW024 FEW045 SCT065 28/21 A3005 RMK AO2 SLP174 VCSH NW T02830211", "PHNY 241856Z AUTO VRB05KT 10SM SCT002 25/19 A3011 RMK AO2 SLP174 T02500189 $", "PHOG 241854Z 08014G20KT 10SM FEW050 30/17 A3004 RMK AO2 SLP177 T03000167", "PHSF 241858Z AUTO 25005KT 10SM CLR 18/07 A3036 RMK AO2 SLP168 T01760074 $", "PHTO 241853Z 19005KT 10SM FEW034 27/20 A3007 RMK AO2 SLP182 T02720200", "PKMR 241855Z 08009KT 15SM FEW015 FEW050 SCT300 27/22 A2985 RMK SLP110 T02740219", "PKWA 241920Z AUTO 07009KT 10SM CLR 27/24 A2988 RMK AO2 T02660240", "PLCH 241900Z 11010KT 9999 FEW019 SCT041 28/22 Q1012", "PMDY 241856Z AUTO 04014KT 10SM SCT020 SCT027 BKN110 23/19 A3019 RMK AO2 SLP223 T02330194 TSNO", "PPIZ 241856Z AUTO 11007KT 10SM FEW045 SCT050 M07/M08 A2978 RMK AO2 SLP089 T10671078 FZRANO", "PTKK 241853Z VRB05KT 15SM FEW014 SCT120 BKN280 27/24 A2975 RMK SLP076 T02740243", "PTTP 241853Z 14004KT 15SM BKN018 OVC130 24/23 A2984 RMK SLP103 T02400228", "PTYA 241850Z VRB06KT 12SM SCT016CB BKN120 OVC300 26/25 A2972 RMK CB ALQDS SLP066 T02580252", "PWAK 241855Z AUTO 06019KT 9999 FEW027 27/22 A2999 RMK AO2 SLP162 T02710218 $", "RCKH 241900Z 07003KT 9999 FEW012 BKN022 BKN035 24/19 Q1014 NOSIG RMK A2995", "RCMQ 241900Z 01012KT 9999 FEW012 BKN030 19/13 Q1015 RMK A3000", "RCNN 241900Z 00000KT 9999 FEW012 SCT080 19/14 Q1014 RMK A2997", "RCSS 241900Z 07008KT 040V100 9999 FEW020 SCT060 21/14 Q1020 NOSIG RMK A3012", "RCTP 241900Z 05017KT 9999 FEW015 SCT050 21/15 Q1019 NOSIG RMK A3010", "RJAA 241900Z AUTO 04007KT 010V090 9999 -RA FEW031 SCT034 BKN046 10/07 Q1016 NOSIG RMK A3000", "RJAH 241900Z 36008KT 9999 FEW030 BKN120 10/04 Q1015", "RJBB 241900Z AUTO 04010KT 9999 NSC 14/08 Q1015 NOSIG", "RJCC 241900Z 33008KT 9999 FEW015 01/00 Q1023 RMK 1ST015 A3022", "RJDB 241900Z AUTO 02020KT 9999 FEW031 //////TCU 14/09 Q1020", "RJFF 241900Z AUTO 06003KT 320V100 9999 -RA FEW030 SCT038 BKN050 12/09 Q1020 BECMG 01015KT TEMPO 01015G25KT 4000 -SHRA BR RMK A3015", "RJFR 241900Z 01017KT 9999 FEW020 SCT050 BKN100 12/08 Q1020", "RJGG 241900Z AUTO 36012KT 9999 NCD 13/06 Q1013 NOSIG", "RJKA 241900Z AUTO 34010G20KT 290V010 9999 SCT046 OVC050 20/10 Q1017", "RJKI 241900Z AUTO 36016KT 9999 FEW045 21/11 Q1017", "RJNK 241900Z 06004KT 9999 SCT120 BKN150 10/05 Q1016", "RJOH 241900Z 25006KT 210V300 8000 -SHRA FEW008 SCT020 BKN045 11/09 Q1018", "RJOI 241856Z 30009KT 9999 FEW035 SCT060 BKN100 11/05 A3009 RMK AO2 SLP187 T01110050", "RJOO 241900Z AUTO 34008KT 9999 NSC 11/07 Q1015 RMK A2999", "RJOP 241915Z 29015KT 9999 -SHRA FEW008 BKN020 BKN045 13/09 Q1016 RMK 1ST008 6CU020 7SC045 A3001", "RJOS 241900Z 28011KT 9999 -SHRA FEW012 BKN025 FEW025CB BKN050 11/09 Q1016", "RJSM 241900Z 35011KT 9999 -SHRA FEW010 SCT030 BKN050 08/05 Q1020", "RJTR 241849Z AUTO 30009KT 9SM SCT100 10/06 A3002 RMK AO2 LTG DSNT W RAE1755RAB04E21RAB44E49 SLP169 $", "RJTT 241900Z 36016KT 9999 FEW020 SCT045 BKN100 13/07 Q1016 NOSIG RMK 1CU020 3SC045 7AC100 A3000", "RJTY 241855Z AUTO 34009KT 10SM BKN075 10/06 A3005 RMK AO2 RAE25DZB25E26 SLP181 P0004 T00950060 $", "RKJB 241900Z AUTO 07003KT 9999 NCD 05/01 Q1026", "RKJK 241855Z 00000KT 10SM CLR 05/M02 A3028 RMK AO2A SLP258 T00511023 $", "RKNN 241909Z 20005KT 9999 -RA FEW040 BKN070 08/06 A3034 RMK CIG070", "RKNY 241900Z AUTO 26007KT 9999 ///060/// 08/04 Q1026", "RKPC 241900Z 04010KT 010V070 CAVOK 13/02 Q1024 NOSIG", "RKPK 241900Z 34005KT 9999 FEW050 08/03 Q1025", "RKSG 241855Z AUTO 00000KT 10SM CLR 03/03 A3031 RMK AO2 SLP268 T00330027 TSNO $", "RKSI 241930Z 05006KT CAVOK 07/02 Q1027 NOSIG", "RKSM 241900Z 26001KT 9999 SKC 05/02 A3034", "RKSO 241855Z AUTO 00000KT 10SM CLR 02/02 A3033 RMK AO2 SLP275 T00180017 TSNO CHINO RWY09 $", "RKSS 241900Z 33003KT CAVOK 03/01 Q1027 NOSIG", "RKTN 241900Z 09001KT 9999 FEW050 06/02 Q1026", "RKTU 241900Z 12003KT CAVOK 02/01 Q1027", "ROAH 241900Z AUTO 01020KT 9999 FEW039 SCT043 BKN050 22/14 Q1017 RMK A3003", "RODN 241855Z AUTO 01012KT 10SM BKN045 BKN050 21/13 A3001 RMK AO2 SLP168 T02130129 $", "ROIG 241926Z AUTO 02015G25KT 9999 -RA FEW036 SCT040 BKN042 22/16 Q1017 RMK A3005", "ROMD 241900Z AUTO 36014KT 9999 FEW038 SCT043 23/15 Q1014", "RORK 241900Z AUTO 36016KT 9999 FEW039 SCT043 23/15 Q1014", "RORY 241900Z AUTO 02014KT 9999 NSC 22/13 Q1017", "ROTM 241856Z 01011G19KT 9999 SCT040 SCT150 19/14 A3001 RMK SLP163 T01940142", "ROYN 241900Z AUTO 03025KT 9999 SCT032 BKN060 23/18 Q1018", "RPLB 241900Z 06005KT 9999 FEW020 26/23 Q1009 NOSIG RMK A2980", "RPLC 241900Z 25002KT 9999 SCT020 BKN300 27/22 Q1010 NOSIG RMK A2983", "RPLL 241900Z 33004KT 9999 FEW025 28/23 Q1008 NOSIG RMK A2977", "RPMD 241900Z 35003KT 9999 -SHRA SCT015 BKN090 OVC260 25/25 Q1008 RMK A2977", "RPVM 241900Z 20003KT 9999 FEW018CB SCT300 25/24 Q1008 RMK A2977 CB/OCNL LTG NE-SE", "SAAR 241900Z 07010KT 040V120 CAVOK 29/13 Q1012 RMK PP000", "SABE 241900Z 10011KT CAVOK 22/14 Q1016 NOSIG RMK PP000", "SACO 241900Z 04018KT 9999 FEW048 31/14 Q1010 NOSIG RMK PP000", "SADF 241900Z 07010KT CAVOK 24/14 Q1015 RMK PP000", "SAEZ 241900Z 03010KT CAVOK 25/09 Q1015 NOSIG RMK PP000", "SAME 241900Z 14005KT CAVOK 29/08 Q1009", "SANT 241900Z 23007KT 180V280 9000 FEW090 34/15 Q1007 RMK PP000", "SAOC 241900Z 02017G28KT 9999 SCT030 30/12 Q1009", "SARC 241900Z 09008KT CAVOK 31/15 Q1012", "SARE 241900Z 08014KT CAVOK 32/12 Q1012 RMK PP///", "SARF 241900Z 09007KT CAVOK 31/17 Q1011", "SARI 241900Z 17005KT 120V230 CAVOK 31/12 Q1013 RMK PP000", "SARL 241900Z 05007KT CAVOK 28/13 Q1014", "SARP 241900Z 25005KT CAVOK 31/11 Q1013", "SASA 241900Z VRB06KT 9999 FEW050 30/10 Q1013 RMK PP000", "SASJ 241900Z 07013KT 030V100 9999 FEW050TCU 32/11 Q1011 RMK PP000", "SAVC 241900Z 27020G30KT 9999 FEW045 23/M00 Q1007 RMK PP000", "SAWE 241900Z 28022KT 9999 FEW048 11/00 Q0998 RMK PP000", "SAWG 241900Z 30020G30KT 8000 VCSH FEW015 SCT25 OVC100 16/M03 Q1000", "SAWH 241900Z 33007KT 290V020 9999 FEW045 BKN080 10/M04 Q0995 RMK PP000", "SAZM 241900Z 07016KT CAVOK 19/14 Q1016 RMK PP///", "SAZN 241900Z 23005KT CAVOK 25/01 Q1012", "SAZS 241900Z 30021KT 9999 FEW049 BKN200 15/00 Q1015 RMK PP///", "SBAF 241900Z 24009KT 9999 FEW025 OVC045 25/// Q1014", "SBAN 241900Z 15010KT 110V180 9999 3000S TSRA BKN040 FEW045CB 24/18 Q1016", "SBAR 241900Z 08014KT 9999 FEW013 28/23 Q1010", "SBAT 241900Z 04004KT 9999 SCT040 FEW045TCU SCT090 32/24 Q1008", "SBBE 241900Z 35009KT 9999 SCT048 30/24 Q1008", "SBBG 241917Z AUTO 08011KT 050V110 CAVOK 25/13 Q1016", "SBBH 241900Z 06007KT 9999 FEW040 FEW045TCU 28/15 Q1014", "SBBI 241900Z 11010KT 9999 SCT040 22/16 Q1017", "SBBQ 241900Z 09008KT 050V120 9999 TS BKN030 FEW035CB 23/16 Q1018", "SBBR 241900Z 11005KT 020V140 9999 SCT040 BKN100 27/17 Q1016", "SBBU 241900Z 30006KT CAVOK 32/14 Q1013", "SBBV 241900Z 19004KT 9999 SCT040 FEW045TCU SCT080 34/22 Q1008", "SBBW 241900Z 00000KT 9999 SCT020 34/20 Q1009", "SBCA 241900Z 21009KT 170V250 9999 FEW020 29/09 Q1015", "SBCB 241900Z 10013KT 9999 SCT025 BKN040 25/19 Q1014", "SBCC 241900Z 19004KT 9999 SCT020 BKN100 22/21 Q1010", "SBCF 241900Z 03006KT 9999 VCSH SCT040 FEW045TCU 26/15 Q1015", "SBCG 241900Z VRB03KT 9999 FEW045 33/13 Q1012", "SBCH 241900Z 21006KT CAVOK 27/07 Q1016", "SBCJ 241900Z 01001KT 7000 FEW030 28/22 Q1012", "SBCO 241900Z 11013KT 9999 SCT040 24/15 Q1017", "SBCP 241900Z 13010KT 9999 FEW020 SCT080 27/21 Q1013", "SBCR 241900Z VRB04KT 9999 FEW040 35/18 Q1008", "SBCT 241900Z 11010KT 9999 FEW006 SCT040 22/17 Q1017", "SBCX 241900Z 21008KT 9999 FEW015 19/// Q1019", "SBCY 241900Z 13008KT 9999 SCT020 35/21 Q1007", "SBCZ 241900Z 03003KT 9999 BKN030 30/22 Q1010", "SBDN 241900Z 22004KT CAVOK 32/10 Q1012", "SBEG 241917Z 05019KT 2000 1200E R29/P2000 R11/P2000 TSRA SCT020 FEW025CB SCT100 27/24 Q1007", "SBES 241900Z 09009KT 070V130 9999 FEW020 SCT050 26/18 Q1014", "SBFI 241900Z 22004KT CAVOK 31/10 Q1012", "SBFL 241900Z 14010KT 9999 BKN023 21/16 Q1017", "SBFN 241900Z AUTO 15006KT 010V180 9999 BKN018 27/23 Q1011", "SBFS 241900Z 12011KT 9999 FEW020 SCT090 25/24 Q1014", "SBFZ 241900Z 09012KT 9999 BKN025 28/23 Q1010", "SBGL 241900Z 13013KT 9999 FEW020 BKN046 24/19 Q1013", "SBGM 241900Z 20006KT 150V250 9000 SCT043 34/22 Q1007", "SBGO 241906Z 04012KT 9999 -TSRA SCT040 FEW045CB SCT070 28/16 Q1013", "SBGR 241900Z 17010KT 9999 BKN017 21/16 Q1017", "SBGW 241900Z 15005KT 090V190 8000 TS BKN030 FEW035CB 24/16 Q1014", "SBHT 241900Z 02003KT 9999 BKN030 33/23 Q1007", "SBIH 241900Z 04004KT 9999 SCT020 FEW023TCU 33/27 Q1006", "SBIL 241900Z 22009KT 2000 RA BR SCT010 BKN015 OVC020 23/23 Q1013", "SBIP 241900Z AUTO 01006KT 330V040 CAVOK 28/15 Q1013", "SBIZ 241900Z 14004KT 9999 SCT030 35/22 Q1007", "SBJE 241900Z 05017KT 9999 SCT020 32/22 Q1008", "SBJP 241900Z 07011KT 040V100 9999 BKN025 27/23 Q1011", "SBJR 241900Z 14009KT 9999 SCT020 BKN060 27/21 Q1014", "SBJU 241900Z 00000KT 9999 FEW022 35/16 Q1011", "SBJV 241900Z 12009KT 9999 BKN018 22/18 Q1016", "SBKG 241900Z 08016KT 9999 SCT028 27/20 Q1012", "SBKP 241900Z 22011KT 180V250 9999 SCT040 31/12 Q1014", "SBLE 241900Z AUTO 18007KT 140V240 9999 FEW046 29/20 Q1012", "SBLO 241900Z 13005KT 9999 FEW040 32/13 Q1013", "SBLS 241900Z VRB05KT 9999 VCSH SCT040 FEW045TCU 27/16 Q1015", "SBMA 241900Z 35005KT 9999 SCT030 FEW033TCU 33/26 Q1006", "SBME 241900Z 15008KT 9999 SCT020 SCT030 BKN090 26/22 Q1014", "SBMG 241900Z 14005KT 9999 FEW045 32/14 Q1012", "SBMK 241900Z 00000KT 9999 FEW020TCU 25/17 Q1015", "SBMN 241900Z 20004KT 110V280 9999 TS VCSH SCT025 FEW030CB SCT100 32/25 Q1007", "SBMO 241900Z 08015KT 9999 FEW033 28/21 Q1011", "SBMQ 241900Z 07011KT 9999 SCT025 34/22 Q1008", "SBMS 241900Z 04021KT 9999 FEW030 32/23 Q1008", "SBMT 241900Z 15009KT 8000 FEW013 BKN015 20/17 Q1017", "SBMY 241900Z AUTO 34008KT 310V010 9999 FEW046 33/25 Q1007 RETS", "SBNF 241900Z 13011KT 100V160 9999 FEW022 22/17 Q1016", "SBNT 241900Z 09010KT 9999 FEW018 SCT021 BKN066 26/22 Q1010", "SBOI 241900Z 12005KT 9999 FEW040 SCT100 34/21 Q1008", "SBPA 241900Z 13012KT 100V160 9999 BKN040 24/14 Q1017", "SBPB 241900Z 12018KT 9999 SCT020 30/24 Q1008", "SBPF 241900Z 15006KT CAVOK 24/07 Q1017", "SBPJ 241900Z 25005KT 230V300 9999 SCT030 SCT050 31/25 Q1008", "SBPK 241900Z 11011KT 9999 SCT030 24/15 Q1019", "SBPL 241900Z 17007KT 9999 SCT040 36/15 Q1008", "SBPP 241900Z 18006KT 9999 FEW030 32/13 Q1014", "SBPR 241900Z 04008KT 9999 SCT030 FEW035TCU 30/16 Q1016", "SBPS 241900Z 03006KT 350V050 8000 -RA FEW007 SCT020 OVC090 23/21 Q1013", "SBPV 241900Z 22003KT 9999 FEW035 FEW040TCU 35/23 Q1006", "SBRB 241900Z 28009KT 9999 VCSH SCT030 FEW040TCU 29/24 Q1009", "SBRF 241900Z 08008KT 050V110 9999 BKN023 28/22 Q1011", "SBRJ 241900Z 16008KT 9999 SCT015 BKN035 BKN050 25/20 Q1013", "SBRP 241900Z 29008KT 250V320 9999 SCT045 33/12 Q1011", "SBSC 241900Z 12007KT 9999 FEW015 OVC035 24/20 Q1014", "SBSG 241900Z 15012KT 9999 VCSH SCT021 BKN050 27/23 Q1011", "SBSJ 241900Z 14018KT 9999 VCSH SCT025 FEW030TCU 24/16 Q1015", "SBSL 241900Z 05014KT 9999 FEW025 31/23 Q1008", "SBSM 241900Z 09012KT 9999 FEW040 25/12 Q1015", "SBSN 241900Z 09010KT 9999 FEW023 BKN023 32/24 Q1007", "SBSP 241918Z 16014KT 9999 SCT006 BKN007 18/17 Q1018", "SBSR 241900Z 21004KT 9999 SCT040 32/13 Q1012", "SBST 241900Z 17007KT 9999 4000N SCT013 OVC020 23/20 Q1015", "SBSV 241900Z 07017KT 9999 SCT020 FEW023TCU 27/23 Q1017", "SBTA 241900Z 18010KT 150V220 9999 VCTS SCT040 FEW045CB 19/14 Q1014 RETS", "SBTD 241900Z 23010KT 9999 FEW030 30/15 Q1014", "SBTE 241900Z 31003KT CAVOK 37/20 Q1005", "SBTF 241900Z 34008KT 9999 FEW020 33/27 Q1007", "SBTT 241900Z 31006KT 9999 VCSH SCT035 FEW040TCU 31/24 Q1009", "SBTU 241900Z AUTO 19007KT 160V220 //// // FEW064/// 32/22 Q1009", "SBUA 241900Z VRB02KT 9999 FEW023 26/24 Q1009 RETS", "SBUF 241900Z 14009KT 9999 SCT024 35/14 Q1008", "SBUL 241900Z 30004KT 9999 FEW035 29/13 Q1015", "SBUR 241900Z 29006KT 9999 VCSH SCT040 FEW045TCU 30/12 Q1014", "SBUY 241900Z 02003KT 9999 SCT030 33/24 Q1005", "SBVH 241900Z 26005KT 210V290 9999 SCT040 FEW045TCU SCT080 24/22 Q1011 RETS", "SBVT 241900Z 04010KT 9999 BKN016 BKN050 26/21 Q1013", "SBYS 241900Z 27005KT 210V360 CAVOK 32/10 Q1012", "SCAP 241900Z 21006KT 150V270 9999 BKN040 17/08 Q1016", "SCAR 241900Z 22011KT CAVOK 18/11 Q1014", "SCAS 241900Z 25010KT 8000 -SHRA SCT023 BKN036 12/09 Q1014", "SCAT 241900Z 29009KT 250V010 9999 FEW020 17/10 Q1015", "SCBA 241900Z ", "SCCC 241900Z 29022G32KT 9999 FEW046 17/M05 Q1008", "SCCF 241900Z 28022KT CAVOK 25/M15 Q1023", "SCCH 241900Z 24006KT CAVOK 22/06 Q1015", "SCCI 241900Z 29022KT 9999 FEW025 BKN200 10/04 Q0998 NOSIG", "SCCY 241900Z VRB04KT 9999 -SHRA BKN040 12/05 Q1011", "SCDA 241900Z 23013KT CAVOK 18/10 Q1014", "SCEL 241900Z 21011KT 180V240 CAVOK 26/03 Q1014 NOSIG", "SCFA 241900Z 19012KT 160V220 9999 SCT016 16/10 Q1015 NOSIG", "SCFM 241900Z 31019KT 9999 SCT030 BKN100 09/03 Q0999", "SCFT 241900Z 29011KT 9000 -SHRA SCT025 BKN040 13/09 Q1014", "SCGE 241900Z 28007KT 9999 SCT040 24/09 Q1016", "SCGZ 241900Z 28003KT 9999 FEW050 SCT066 BKN086 09/M01 Q0995", "SCHR 241900Z 31023KT 9999 BKN040 15/M03 Q1006", "SCIC 241900Z 21005KT 130V290 CAVOK 24/07 Q1014", "SCIE 241900Z 27008KT 230V310 9999 SCT020 16/12 Q1018", "SCIP 241900Z 23010KT 180V250 9999 SCT025 BKN046 20/14 Q1025 NOSIG", "SCIR 241900Z 32015KT 5000 HZ OVC010 15/14 Q1019", "SCJO 241900Z 05008KT 9999 BKN040 OVC120 16/11 Q1017", "SCMK 241900Z 32007KT 9999 BKN020 OVC060 ///// Q1015", "SCNT 241900Z 28019KT 9999 VCSH BKN030 12/00 Q1001", "SCON 241900Z VRB06KT 9999 BKN030 BKN070 17/11 Q1016", "SCPD 241900Z 16011KT CAVOK 27/05 Q1014", "SCPQ 241900Z 33008KT 290V360 9999 SCT010 BKN025 14/10 Q1015", "SCQP 241900Z 28004KT 240V020 9999 SCT027 19/12 Q1017", "SCRD 241900Z 22007KT CAVOK 23/09 Q1018", "SCRG 241900Z 19008KT CAVOK 25/06 Q1015", "SCRM 241900Z 01022KT 3000 -SN OVC009 M02/M03 Q0991 NOSIG", "SCSE 241900Z 28011KT 9999 SCT016 15/10 Q1016", "SCSN 241900Z 25014KT CAVOK 16/10 Q1016", "SCTB 241900Z 22005KT CAVOK 27/04 Q1015", "SCTN 241900Z 34014KT 310V010 9999 SCT030 BKN050 15/12 Q1016", "SCVD 241900Z 29006KT 250V320 9999 SCT018 BKN033 OVC130 16/12 Q1017", "SCVM 241900Z 34015KT CAVOK 18/08 Q1016", "SEAM 241900Z 12007KT 9999 SCT020 OVC100 18/12 Q1026", "SECA 241900Z 27003KT 9999 SCT040 BKN100 30/14 Q1016 RMK A2998", "SECO 241900Z 09005KT 9999 SCT025 SCT100 32/25 Q1011 RMK A2986", "SECU 241900Z 08002KT 9999 BKN040 19/11 Q1024", "SEGS 241900Z 31016KT 9999 FEW023 SCT200 25/16 Q1015 RMK A2998", "SEGU 241900Z 18008KT 150V220 9999 BKN020 OVC100 26/19 Q1012 NOSIG RMK A2989", "SEGZ 241900Z 10002KT 9999 FEW020 SCT100 27/22 Q1015", "SEJD 241900Z 14002KT 9999 SCT020 28/24 Q1012 RMK A2989", "SELT 241900Z 16010KT 9999 -RA BKN030 OVC080 13/10 Q1028 RETS", "SEMC 241900Z 03008KT 9999 FEW040 SCT100 27/17 Q1015 RMK A2998", "SEMT 241900Z 29008KT 9999 BKN020 26/20 Q1012 RMK A2990", "SENL 241900Z 03003KT 9999 SCT020 31/22 Q1012 RMK A2989", "SEQM 241900Z 35017KT 9999 VCSH SCT030TCU BKN100 22/11 Q1024 NOSIG RMK A3024", "SERB 241900Z 12012KT 9999 BKN040 OVC100 18/15 Q1027", "SERO 241900Z 28004KT 9999 FEW013 OVC020 23/19 Q1013", "SESA 241900Z 20011KT 9999 SCT009 OVC013 21/19 Q1014 RMK A2994", "SESM 241900Z 00000KT 9999 SCT030 26/19 Q1015 RMK A2998", "SEST 241900Z 17012KT 9999 FEW026 BKN030 22/16 Q1013 RMK A2992", "SETN 241900Z 29013KT 9999 SCT026 BKN100 29/23 Q1011 RMK A2986", "SETU 241900Z 16006KT 9999 SCT020 SCT080 17/08 Q1031", "SFAL 241850Z 20017KT 9999 FEW013 SCT090 08/06 Q0998 TEMPO SCT013", "SGAS 241900Z VRB04KT CAVOK 33/13 Q1012", "SGEN 241900Z 00000KT CAVOK 30/09 Q1012", "SGES 241900Z 20007KT CAVOK 32/15 Q1012", "SKAR 241900Z 27004KT 9999 BKN012 BKN090 22/19 Q1020 RMK A3011", "SKBG 241900Z 31005KT 9999 SCT015 BKN270 25/20 Q1014 RMK A2996", "SKBO 241900Z 15006KT 9999 SCT020 20/10 Q1025 NOSIG RMK A3029", "SKBQ 241930Z 28005KT 210V020 9999 TC VCSH SCT015CB SCT100 29/23 Q1009 NOSIG RMK CB VCSH/NW/N A2982", "SKCC 241900Z 04004KT 9999 SCT023 32/22 Q1010 RMK A2985", "SKCG 241900Z 27005KT 230V290 9999 SCT017TCU BKN140 31/25 Q1009 RMK TCUVCSH/E A2982", "SKCL 241900Z VRB02KT 9999 SCT020 BKN100 24/18 Q1016 TEMPO SCT020TCU", "SKEJ 241900Z VRB02KT 9999 SCT010TCU SCT200 30/24 Q1010 RMK TCU /E A2979", "SKIB 241900Z 16008KT 9999 BKN030 SCT100 27/20 Q1017 RMK A3003", "SKIP 241900Z 09004KT 9999 BKN018 16/09 Q1029 RMK A3039", "SKLC 241900Z 20006KT 9999 SCT018 31/25 Q1009 RMK A2981", "SKLT 241900Z 07004KT 9999 SCT020 SCT200 32/25 Q1008 RMK A2977", "SKMD 241900Z 18006KT 9999 -TSRA SCT040CB BKN100 22/18 Q1019 RMK CB VCSH/E/SE A3009", "SKMR 241900Z 00000KT 9999 BKN017 29/26 Q1009 RMK REDZ A2980", "SKMZ 241900Z 30005KT 7000 VCFG BKN012 18/18 Q1026 RMK A3031", "SKNV 241900Z 17004KT 9999 FEW030 BKN120 30/21 Q1011 RMK A2986", "SKPC 241900Z VRB02KT 9999 -DZ SCT015 26/23 Q1010 RMK A2984", "SKPE 241900Z 28004KT 9999 SCT012 BKN080 22/18 Q1018 A3007", "SKPS 241900Z VRB04KT 9999 SCT020 SCT080 22/17 Q1020 RMK A3011", "SKPV 241900Z 01010KT 9999 STC017 TCU BKN200 28/25 Q1012 RMK A2989", "SKRG 241900Z 36010KT 3000 +TSRA BKN0008 BKN012CB 15/15 BECMG FM1930 4000 RA A3027", "SKRH 241900Z 35006KT 9999 FEW015 SCT200 31/26 Q1008 RMK A2978", "SKSM 241900Z 30006KT 9999 FEW020TCU BKN070 31/27 Q1010 RMK TCU/E/SE A2985", "SKSP 241900Z 07009KT 040V100 9999 SCT018 BKN200 30/24 Q1011 RMK A2987", "SKUC 241900Z 07003KT 9999 BKN020 31/24 Q1010 RMK A2985", "SKUI 241900Z 20003KT 170V290 4500 -DZ BKN010 OVC080 25/24 Q1011 RMK A2988", "SKVP 241900Z 24006KT 220V290 9999 TS SCT015CB BKN200 30/25 Q1011 RMK CB VCSH/SE A2987", "SKVV 241900Z 241900Z 08006KT 9999 BKN023 30/22 Q1012 RMK A2989", "SLAL 241900Z 01014KT 9999 FEW020 22/02 Q1026", "SLCA 241900Z 00000KT 9999 SCT033 35/12 Q1011", "SLCB 241900Z 33010G23KT 270V030 9999 FEW036 FEW040CB SCT200 30/ 00 Q1019", "SLCO 241900Z 15005KT 9999 SCT025 33/25 Q1007", "SLCP 241900Z 00000KT 9999 SCT017 32/20 Q1012", "SLET 241900Z 32009KT 9999 FEW020 34/16 Q1008", "SLJE 241900Z 00000KT 9999 FEW020 35/21 Q1012", "SLLP 241900Z 07009KT 9999 SCT020 BKN200 17/M06 Q1035", "SLMG 241900Z 16004KT 9999 SCT017 34/23 Q1005", "SLOR 241900Z 20008KT 9999 FEW023 FEW025CB 22/M01 Q1031", "SLPS 241900Z 09004KT 9999 SCT017 35/19 Q1012", "SLRB 241900Z 00000KT 9999 NSC 35/20 Q1011", "SLRI 241900Z 36006KT 8000 VCSH SCT017 FEW020CB BKN200 34/23 Q1008", "SLRQ 241900Z 01005KT 9999 FEW023 35/23 Q1006", "SLRY 241900Z 00000KT 9999 FEW020 35/22 Q1009", "SLSA 241900Z 14005KT 9999 SCT020 BKN200 34/22 Q1007", "SLSV 241900Z 00000KT 9999 BKN017 33/24 Q1008", "SLTJ 241900Z 13010KT 9999 SCT050 28/11 Q1016", "SLTR 241900Z 33004KT 9999 FEW025 34/22 Q1008", "SLVR 241900Z 34005KT 9999 FEW020 35/19 Q1009", "SLYA 241900Z 02008KT 9999 SCT023 35/18 Q1007", "SMJP 241900Z 14004KT 9999 FEW018CB SCT035 34/22 Q1008 NOSIG", "SMZO 241900Z 03006KT 9999 FEW035 33/24 Q1008 NOSIG", "SOCA 241930Z AUTO 07010KT 040V100 CAVOK 31/24 Q1008 NOSIG", "SPCL 241900Z 24004KT 9999 BKN015 31/23 Q1011 RMK BIRD HAZARD RWY 02/20 PP000", "SPGM 241900Z 03006KT 9999 SCT030 BKN090 25/22 Q1013 RMK PP000", "SPHI 241900Z 19014KT 170V230 CAVOK 21/14 Q1014 RMK BIRD HAZARD RWY 19/01 PP000", "SPHO 241900Z 18004KT 9999 VCSH FEW015 FEW050TCU 28/04 Q1022 RMK SH NE PP000", "SPHY 241900Z /////KT 9999 FEW012 SCT070 16/07 Q1033 RMK BIRD HAZARD RWY03/21 PP000", "SPJC 241900Z 19010KT 160V240 9999 OVC016 18/12 Q1015 NOSIG RMK PP000", "SPJI 241900Z 11003KT 9999 SCT020 BKN090 31/24 Q1019 RMK PP000", "SPJR 241930Z 14006KT 120V180 9999 VCSH SCT020 OVC047 18/11 Q1025", "SPLO 241900Z 19013KT CAVOK 20/14 Q1014 RMK PP000", "SPME 241900Z 29006KT 9999 SCT013 SCT017 23/19 Q1013 RMK BIRD HAZARD RWY 32/14 PP000", "SPMS 241900Z 26003KT 9999 FEW015 SCT080 32/22 Q1010 RMK BIRD HAZARD RWY 09/27 PP000", "SPQT 241900Z VRB03KT 9999 BKN020 30/24 Q1009 NOSIG RMK BIRD HAZARD RWY 06/24 PP000", "SPQU 241900Z 25010KT 210V280 CAVOK 21/M05 Q1025 NOSIG RMK PP000", "SPRU 241900Z 17010KT 7000 BCFG FEW020 18/14 Q1015 RMK PP000", "SPSO 241900Z 27007KT 240V300 CAVOK 20/14 Q1014 RMK BIRD HAZARD RWY 22/04 PP000", "SPST 241900Z 04008KT 9999 SCT015TCU SCT080 30/23 Q1010 RMK BIRD HAZARD RWY 17/35 PP000", "SPTN 241900Z 22010KT 180V250 CAVOK 21/11 Q1014 RMK PP000", "SPTU 241900Z 22004KT 160V260 9999 SCT025 34/23 Q1007 RMK BIRD HAZARD RWY 01/19 PP000", "SPYL 241900Z 18013KT CAVOK 23/15 Q1014 RMK BIRD HAZARD RWY 17/35 PP000", "SPZO 241930Z VRB12KT 9999 SCT050 SCT100 22/02 Q1026 RETS NOSIG RMK BIRD HAZARD RWY 10/28", "SUAA 241900Z 05009KT 9999 FEW033 24/11 Q1016", "SUCA 241900Z 14011KT 100V160 9999 FEW033 21/16 Q1015", "SUDU 241900Z 02010KT 9999 FEW033 25/13 Q1016", "SULS 241900Z 11013KT 9999 FEW040 23/14 Q1016", "SUMU 241900Z 11012KT 9999 FEW040 21/15 Q1017 NOSIG", "SUSO 241900Z VRB01KT CAVOK 27/13 Q1014", "SVBC 241903Z AUTO 28006KT NCD 28/26 Q1012", "SVBI 241903Z AUTO 34002KT NCD 25/25 Q1018", "SVBM 241903Z AUTO NIL", "SVBS 241903Z AUTO 22007KT NCD 24/// Q1015", "SVCB 241903Z AUTO 13004KT NCD 34/20 Q1008", "SVCJ 241903Z AUTO NIL", "SVCS 241903Z AUTO 04003KT NCD ///49 Q1015", "SVFM 241903Z AUTO 00000KT NCD 26/20 Q1013", "SVGD 241903Z AUTO 36004KT NCD 31/24 Q1012", "SVGU 241903Z AUTO NIL", "SVJC 241900Z 09020KT 9999 FEW015 XX/XX Q////", "SVJM 241903Z AUTO 34006KT NCD 22/22 Q1013", "SVLO 241903Z AUTO NIL", "SVMC 241903Z AUTO NIL", "SVMG 241903Z AUTO 12008KT NCD 33/24 Q1010", "SVMI 241903Z AUTO 28008KT NCD ///// Q1012", "SVMT 241903Z AUTO 01004KT NCD 29/29 Q1010", "SVPA 241903Z AUTO NIL", "SVPR 241903Z AUTO 25004KT NCD 33/19 Q1011", "SVSR 241903Z AUTO NIL", "SVVA 241903Z AUTO 00000KT NCD 26/23 Q1014", "SVVG 241900Z 00000KT 9999 BKN020 33/25 Q1009", "SYCJ 241900Z 33012KT 9999 SCT022 30/26 Q1008 NOSIG", "SYEC 241900Z 09008KT 9999 FEW019CB 30/24 Q1008 NOSIG RMK CB NE & SW-WNW", "TAPA 241900Z 08009KT 040V130 9999 SCT020 29/24 Q1012 NOSIG", "TDCF 241900Z 24001KT 9999 SCT018TCU 30/25 Q1010", "TDPD 241900Z 06006KT 9999 SCT014 29/27 Q1012", "TFFF 241930Z AUTO 10009KT 9999 SCT021/// ///CB 30/25 Q1011 TEMPO 4000 SHRA BECMG SCT025 SCT030", "TFFR 241930Z AUTO 07007KT 9999 FEW022/// SCT049/// BKN056/// ///CB 29/25 Q1011 TEMPO 4000 SHRA", "TGPY 241900Z 11012KT 9999 FEW020 31/26 Q1010 NOSIG", "TIST 241853Z 13010KT 10SM FEW030 31/24 A2989 RMK AO2 SLP123 T03060239", "TISX 241853Z 11009KT 10SM SCT027 31/24 A2990 RMK AO2 SLP122 T03110244", "TJBQ 241850Z 06007KT 10SM SCT028 BKN032 29/23 A2991", "TJIG 241845Z 10014KT 10SM SCT030 BKN090 30/25 A2988", "TJNR 241853Z AUTO 11009KT 10SM SCT028 30/24 A2991 RMK AO2 SLP127 T03000239", "TJSJ 241856Z 07013KT 10SM FEW035 SCT060 BKN110 31/25 A2989 RMK AO2 SLP120 T03110250", "TKPK 241900Z 06009KT 06009KT 9999 FEW020 30/24 Q1012", "TKPN 241900Z 07009KT 9999 FEW016TCU SCT021 30/26 Q1012", "TLPC 241900Z 09009KT 9999 FEW026 31/24 Q1011 NOSIG", "TLPL 241900Z 10012KT 9999 FEW029 31/26 Q1011 NOSIG", "TNCA 241900Z 10016KT 9999 FEW023 30/24 Q1010 NOSIG", "TNCB 241855Z 09008KT 070V130 CAVOK 29/24 Q1010", "TNCC 241900Z 11008KT 9999 FEW018 29/24 Q1010 NOSIG", "TNCE 241855Z AUTO 08008KT 050V110 //// // ///////// 30/25 Q1012 RE//", "TNCM 241900Z 09007KT 060V120 9999 SCT016 30/24 Q1013 NOSIG ", "TQPF 241900Z 10009KT 9999 SCT019 29/25 Q1012", "TRPG 241900Z 09007KT 9999 SCT015 28/25 Q1013", "TTCP 241900Z 10009KT 9999 FEW018 31/27 Q1009 NOSIG", "TTPP 241900Z 12005KT 9999 VCSH FEW010CB FEW020TCU 32/24 Q1009 NOSIG RMK CB/TCU-SW. VCSH-SW/NW", "TUPJ 241900Z 11006KT 10SM SCT022 31/26 A2991 RMK Q1012 VIS16KM", "TVSA 241900Z 00000KT 9999 FEW022 30/26 Q1010 NOSIG ", "TXKF 241855Z 05011KT 9999 FEW014 BKN130 BKN300 26/23 Q1014 ", "UAAA 241930Z VRB01MPS 9999 BKN050CB OVC100 07/03 Q1019 NOSIG", "UACC 241930Z 20003MPS CAVOK M07/M10 Q1024 NOSIG RMK QFE737/0983", "UADD 241930Z 00000MPS 5000 BR SCT002 OVC050 06/06 Q1019 NOSIG RMK QBB070 MT OBSC QFE707/0943", "UAII 241930Z 07001MPS 1500 R28/P2000 SHRA BR BKN003 OVC024CB 11/10 Q1019 NOSIG RMK QBB100 QFE727/0969", "UAIT 241930Z 08004MPS 9999 SCT046CB 09/03 Q1018 NOSIG RMK QFE739/0986", "UAKK 241930Z 09002MPS 060V120 CAVOK M14/M16 Q1025 NOSIG RMK QFE721/0962", "UAOO 241900Z 05003MPS CAVOK 02/M03 Q1019 NOSIG RMK QFE753/1004", "UARR 241930Z 17004MPS 9999 -SHRA BKN041CB 06/04 Q1011 NOSIG RMK QFE755/1007", "UASK 241900Z 32001MPS 5000 BR FU NSC M08/M09 Q1028 NOSIG RMK QFE746/0994", "UASP 241930Z 16002MPS CAVOK M06/M09 Q1027 NOSIG RMK QFE758/1011", "UATE 241930Z 26002MPS 9999 -SHRA SCT033CB 12/09 Q1016 NOSIG RMK QFE760/1014", "UATG 241930Z 16005MPS 9999 BKN033CB 10/04 Q1012 NOSIG RMK QFE761/1015", "UATT 241930Z 15003MPS CAVOK 02/M02 Q1016 NOSIG RMK QFE742/0990", "UAUU 241930Z 16006MPS 130V190 CAVOK 00/M03 Q1017 NOSIG RMK QFE746/0995", "UBBB 241930Z 33012KT 9999 FEW017 17/13 Q1017 NOSIG", "UBBF 241930Z AUTO 31010KT 9999 // ///////// 11/07 Q1018", "UBBG 241930Z 28008KT 9999 SCT100 13/05 Q1018 NOSIG", "UBBL 241900Z 21004KT 9999 FEW100 13/11 Q1018 NOSIG RMK MT OP", "UBBN 241930Z 01008KT 9999 NSC 09/06 Q1019 NOSIG RMK MT OP QFE689", "UBBQ 241900Z 09004KT 9999 SCT150 09/05 Q1017 NOSIG RMK MT OP", "UBBY 241900Z 13006KT 9999 SCT100 11/05 Q1020 NOSIG RMK MT OP", "UBBZ 241930Z AUTO 28004KT 9999 // ///////// 11/08 Q1019", "UBEE 241900Z 31009KT CAVOK 17/06 Q1016 NOSIG", "UCFL 241900Z 31001MPS 9999 BKN030CB BKN100 08/06 Q1017 R07/CLRD//", "UCFM 241930Z 28001MPS 9999 SCT066 05/04 Q1019 R08/0///95 NOSIG", "UCFO 241930Z 06002MPS 1000 R12/P1500N BR BKN033CB 10/09 Q1020 R12/2///95 NOSIG", "UDSG 241930Z 11003KT 9999 SCT049 06/01 Q1023 R02/////// NOSIG", "UDYZ 241930Z VRB01KT 6000 SCT046 08/06 Q1021 R09/010070 NOSIG", "UEEE 241930Z 30005MPS 9999 SCT040CB 01/M04 Q0999 R23L/550237 NOSIG RMK QFE741", "UERP 241900Z 26007G12MPS 9999 DRSN BKN025 OVC100 M07/M11 Q0994 R35/499328 RMK QFE701", "UERR 241900Z 24005G10MPS 9999 -SHSN SCT023CB M03/M06 Q1004 R25/910250 NOSIG RMK QFE723/0964", "UGAM 241930Z AUTO VRB01KT //// ////// 09/09 Q1022", "UGKO 241930Z VRB02KT 9999 -SHRA SCT020CB OVC050 12/11 Q1022 NOSIG", "UGMS 241930Z AUTO VRB02KT //// ////// 04/04 Q1024", "UGSB 241930Z 21013KT 170V240 9999 -SHRA SCT015 BKN023CB 15/14 Q1024 NOSIG", "UGTB 241930Z 32020KT CAVOK 13/08 Q1019 NOSIG", "UHBB 241900Z 16005MPS CAVOK M00/M07 Q1017 R36/090060 NOSIG RMK QFE746/0994", "UHHH 241930Z 27005MPS CAVOK 01/M07 Q1024 R23R/090060 NOSIG RMK QFE761/1015", "UHMA 241900Z 03002MPS CAVOK M14/M16 Q1014 R01/////// NOSIG RMK TDZ R01/03002G03MPS END R01/01002G03MPS QFE756/1009", "UHMM 241900Z 00000MPS 9999 NSC M23/M26 Q1009 RMK QFE742 R28/09003MPS", "UHPP 241930Z VRB01MPS CAVOK M07/M09 Q1011 R34L/CLRD65 NOSIG RMK QFE754/1006", "UHSS 241930Z 00000MPS 9999 NSC M05/M06 Q1024 R01/CLRD70 NOSIG RMK QFE767/1023", "UHWW 241930Z VRB01MPS 9999 NSC M06/M07 Q1029 R25L/0///70 NOSIG RMK QFE770", "UIAA 241930Z 28003MPS 9999 SCT036CB 03/M04 Q1015 R29/CLRD70 NOSIG RMK QFE702/0937", "UIBB 241930Z AUTO 23003MPS 200V260 9999 // NCD M04/M07 Q1024 RMK QFE725/0967", "UIII 241930Z 30003MPS CAVOK M03/M07 Q1029 R30/CLRD60 NOSIG RMK QFE726/0968", "UIUU 241930Z 33003MPS 300V360 9999 SCT050CB 00/M09 Q1025 R26/CLRD60 NOSIG RMK QFE724/0965", "ULAA 241930Z 32002MPS CAVOK 00/00 Q1010 R26/190065 NOSIG RMK QFE756/1008", "ULLI 241930Z 29002MPS CAVOK M01/M05 Q1017 R28R/090060 NOSIG", "ULMM 241930Z 18001MPS CAVOK M01/M01 Q1012 R31/690056 NOSIG RMK QFE752", "ULOO 241930Z 09001MPS 8000 SCT027 M02/M02 Q1016 R19/090060 NOSIG RMK QFE758", "ULPB 241900Z AUTO 26002MPS 9999 // 01/M02 Q1015 RMK QFE757/1010", "ULWC 241930Z 27002MPS 9999 BKN026 M00/M02 Q1015 R21/110060 NOSIG RMK QFE751/1001", "UMGG 241900Z 07002MPS 8000 OVC018 10/09 Q1018 NOSIG", "UMII 241900Z 00000MPS CAVOK 06/04 Q1016 NOSIG", "UMIO 241930Z 17001MPS CAVOK 05/04 Q1017 NOSIG RMK QFE745/0994", "UMKK 241930Z 16003MPS 140V200 2100 R24/P2000D -DZ BR OVC004 13/13 Q1011 R24/290095 NOSIG RMK QBB120 OBST OBSC QFE757/1009", "UMMS 241930Z 12003MPS 9999 OVC005 08/07 Q1016 NOSIG RMK QBB160", "UNAA 241930Z 00000MPS CAVOK M06/M08 Q1030 R20/CLRD65 NOSIG RMK QFE749", "UNBB 241930Z 18003MPS CAVOK M02/M05 Q1028 R24/CLRD60 NOSIG RMK QFE749", "UNEE 241930Z 21005MPS 9999 SCT033 M01/M06 Q1026 R23/CLRD60 NOSIG RMK QFE747", "UNKL 241930Z 24004MPS 9999 SCT042 M00/M07 Q1025 R29/320140 NOSIG RMK QFE743", "UNNT 241930Z 19005MPS 9999 SCT040 M00/M05 Q1026 R25/120065 R34/290150 NOSIG RMK QFE759/1012", "UNOO 241930Z 21006MPS CAVOK M01/M05 Q1021 R25/190055 NOSIG RMK QFE757", "UNTT 241930Z 22006MPS 9999 FEW030 M02/M06 Q1023 R21/////// NOSIG RMK QFE752", "UNWW 241930Z 00000MPS CAVOK M04/M06 Q1029 R19/210255 NOSIG RMK QFE745", "UOOO 241900Z 22009MPS 1800 R19/P2000U -SHSN BLSN SCT007 BKN016CB M05/M05 Q0989 R19/420244 NOSIG RMK QFE726/0968", "URKA 241930Z 14003MPS 9999 SCT044 10/09 Q1022 R22/010070 NOSIG RMK QFE762/1016", "URKK 241930Z 23003MPS CAVOK 12/09 Q1022 R23L/CLRD70 NOSIG RMK QFE763", "URMG 241930Z 33010MPS 9999 BKN041 14/07 Q1019 R26/090070 NOSIG RMK QFE750/1000", "URML 241930Z 29002MPS 250V330 9999 FEW052CB 14/07 Q1018 R32/01//70 NOSIG RMK QFE763/1017", "URMM 241930Z 27009G14MPS 9999 OVC027 12/06 Q1021 R30/090070 NOSIG RMK QFE737/0983", "URMN 241900Z 13001MPS 9999 OVC033CB 12/08 Q1019 R24/////// NOSIG RMK QFE728", "URMO 241930Z AUTO VRB01MPS 9999 // ///058/// 09/06 Q1020 RMK QFE721/0962", "URMT 241930Z 29008MPS 9999 BKN020 09/06 Q1020 R25/010070 NOSIG RMK QFE726", "URRP 241930Z 31003MPS 9999 FEW/// 10/10 Q1019 R23/CLRD70 TEMPO 3000 BR BKN005 RMK QFE756/1008", "URSS 241930Z 04004MPS 9999 OVC080 12/10 Q1022 R02/290060 R06/290060 NOSIG RMK R06/03001MPS QFE765", "URWA 241930Z 25007MPS 9999 SCT008 BKN027CB 11/10 Q1013 R27/290050 TEMPO 1500 SHRA BKN005 BKN020CB RMK QFE761/1015", "URWI 241930Z AUTO 29011MPS 9000 // ///010/// 09/06 Q1016", "URWW 241930Z 31009MPS 9999 BKN006 OVC020 09/08 Q1012 R24/290058 TEMPO 0300 FG OVC002 RMK OBST OBSC", "USCC 241930Z 20007MPS 3300 -SHSNRA BKN030CB 02/02 Q1009 R27/290042 NOSIG RMK QFE737", "USCM 241930Z 19006MPS 9999 OVC017CB 02/M01 Q1012 R18/090060 TEMPO 18013MPS 2000 SHRASN BKN007CB RMK QFE721", "USDA 241930Z AUTO 32005MPS 9999 NCD M03/M04 Q0995 RMK QFE745/0993", "USHH 241930Z 19006MPS 3900 -SHSN BKN021CB 01/M00 Q0999 R24/290050 TEMPO 1000 SHSN BKN005 OVC010CB", "USNN 241930Z 22006MPS CAVOK 02/M04 Q1005 R21/32//60 NOSIG RMK QFE749", "USPP 241930Z 29005MPS 250V320 9000 -RASN BKN009 03/02 Q1000 R21/290350 TEMPO 1100 SNRA OVC004 RMK QFE740", "USRR 241930Z 21006MPS 9999 SCT038CB 02/M04 Q1002 R25/510250 NOSIG RMK QFE746", "USSS 241930Z 21007MPS 9999 BKN017 03/01 Q1005 R26R/010060 R26L/010060 NOSIG RMK QFE733/0977", "USTR 241930Z 22008MPS 9999 SCT019CB 02/M01 Q1007 R21/CLRD65 R30/CLRD65 TEMPO 21014MPS", "UTAA 241900Z 34004KT 8000 FEW050 BKN100 14/12 Q1013 R88/70D NOSIG", "UTAK 241900Z 23008KT 9999 -RA BKN022 OVC100 16/13 Q1014 R16R/29//50 TEMPO 3000 -SHRA BR BKN005", "UTAM 241900Z 07008KT 6000 NSC 14/09 Q1016 R88/CLRD7 NOSIG", "UTAT 241900Z 12008KT CAVOK 10/02 Q1017 R08/CLRD70 NOSIG", "UTAV 241900Z 09004KT CAVOK 11/08 Q1017 R31/CLRD70 NOSIG", "UTDD 241930Z 08003MPS 9999 FEW046CB 12/09 Q1020 R09/29//50 NOSIG RMK QFE697/0929", "UTDK 241930Z 01005MPS 9999 SCT066CB BKN089 14/12 Q1020 R01/29//50 RMK QFE707/0943", "UTDL 241930Z 00000MPS 0600 0350W R26/P2000U FG VV003 10/10 Q1019 R26/29//50 NOSIG RMK QBB100 QFE726/0969", "UTDT 241930Z 36002MPS 8000 SCT043CB BKN110 14/13 Q1018 R35/29//50 RMK QFE724/0965", "UTFF 241900Z 02004KT 3500 -SHRA BR BKN040CB 11/09 Q1019 R18/29//50", "UTFN 241900Z 00000KT 2600 -SHRA BR OVC010CB 12/10 Q1020 R28/290160 NOSIG", "UTNN 241900Z 08006KT CAVOK 09/M01 Q1018 R33/CLRD60 NOSIG", "UTNU 241930Z 10004KT CAVOK 08/00 Q1017 R31/CLRD70 NOSIG", "UTSA 241900Z 10004KT 3400 BR FU NSC 09/08 Q1018 R07/CLRD70 NOSIG", "UTSB 241900Z VRB02KT CAVOK 09/08 Q1017 R01/CLRD70 NOSIG", "UTSK 241900Z VRB02KT CAVOK 12/11 Q1018 R16/CLRD70", "UTSS 241900Z 10004KT 7000 OVC009 11/10 Q1018 R09/29//55 NOSIG", "UTST 241900Z VRB02KT 9999 FEW066CB 13/08 Q1018 R25/CLRD70 NOSIG", "UTTT 241900Z 00000KT 3000 BR OVC031 11/11 Q1019 R08L/29//50 NOSIG", "UUBC 241930Z AUTO 00000MPS 9999 // ///////// M01/M01 Q1017 RMK QFE746/0994", "UUBP 241930Z AUTO 34002MPS 9999 ///032 ///037 07/04 Q1018 RMK QFE745/0993", "UUBW 241930Z 00000MPS CAVOK 01/M02 Q1016 R30/010060 NOSIG", "UUDD 241930Z 30003MPS CAVOK 01/M03 Q1016 R32L/CLRD60 NOSIG", "UUDL 241930Z 31002MPS 9999 BKN031 03/M02 Q1014 R23/010060 NOSIG RMK QFE752", "UUEE 241930Z 30002MPS CAVOK 01/M03 Q1016 R24L/CLRD62 R24C/CLRD62 NOSIG", "UUMO 241930Z 26001MPS CAVOK M01/M01 Q1016 R25/CLRD60 NOSIG RMK QFE747/0996", "UUOB 241930Z 27002MPS 9999 BKN035 08/06 Q1018 R29/010070 NOSIG", "UUOK 241930Z 33002MPS 9999 BKN038 08/06 Q1017 R30/090060 NOSIG RMK QFE744/0992", "UUOL 241930Z 32003MPS CAVOK 05/03 Q1016 R15/190055 NOSIG", "UUOO 241930Z 28003MPS CAVOK 06/04 Q1016 R30/190060 NOSIG RMK QFE749", "UUWW 241930Z 27002MPS CAVOK 01/M04 Q1016 R24/000065 NOSIG", "UUYY 241930Z 29002MPS 260V340 9999 SCT010 BKN021CB 00/M00 Q1000 R18/29//51 NOSIG RMK QFE742/0989", "UWGG 241930Z 29003MPS CAVOK M01/M04 Q1012 R36R/190055 NOSIG", "UWKD 241930Z 33005MPS CAVOK 02/M00 Q1008 R29/2/0050 NOSIG RMK QFE745/0993", "UWKE 241930Z 31006MPS 9999 -RA SCT011 OVC046 04/04 Q1005 R21/210355 NOSIG RMK QFE737/0983", "UWKS 241930Z 31002MPS 9999 SCT016 01/M01 Q1009 R24/290355 NOSIG RMK QFE743", "UWLL 241930Z 32007MPS 9999 BKN034 06/04 Q1009 R02/290250 NOSIG RMK QFE744/0993", "UWLW 241900Z 33004MPS 9999 BKN016 06/05 Q1008 R20/290250 NOSIG RMK QFE751/1001", "UWOO 241930Z 19004MPS CAVOK 06/00 Q1014 R08/CLRD65 NOSIG RMK QFE750/1000", "UWOR 241900Z 19003MPS CAVOK 01/M03 Q1016 R25/CLRD65 NOSIG RMK QFE739/0985", "UWPS 241930Z 34005MPS 9999 BKN013 03/01 Q1011 R02/290255 NOSIG RMK QFE739", "UWSG 241930Z 27002MPS 1900 1300SE R26/P2000D BR BKN005 OVC012 08/07 Q1009 R26/290158 TEMPO 1000 BR BKN004 RMK QFE754/1006", "UWUU 241930Z 19007MPS 9999 -RA OVC020 04/02 Q1008 R14R/290246 NOSIG", "UWWW 241930Z 23004MPS 9999 -RA OVC012 06/05 Q1008 R15/290150 NOSIG RMK QFE744/0993", "VAAH 241930Z 02005KT 4000 FU NSC 23/15 Q1009 NOSIG", "VABB 241930Z 10005KT 2500 HZ NSC 26/21 Q1010 NOSIG", "VANP 241900Z 33002KT 2500 HZ NSC 20/16 Q1012 NOSIG", "VCBI 241910Z 24005KT 210V280 9999 SCT016 27/25 Q1011 RESHRA NOSIG", "VDPP 241900Z 31005KT 9999 SCT015 SCT040 28/26 Q1009", "VEBS 241900Z 27004KT 3500 HZ SCT018 BKN100 24/22 Q1007 NOSIG", "VECC 241930Z 32007KT 3500 HZ FEW018 BKN100 23/19 Q1004 NOSIG", "VEGT 241830Z 03002KT 2500 RA FEW010 SCT015 FEW025CB OVC090 20/20 Q1005 NOSIG", "VEGY 241900Z 00000KT 3000 BR NSC 23/20 Q1007", "VEPT 241930Z 17003KT 2500 BR SCT100 24/21 Q1005 NOSIG", "VGHS 241930Z 30022KT 2200 RA BKN008 OVC080 21/20 Q0996 NOSIG", "VHHH 241930Z 10012KT CAVOK 23/16 Q1017 NOSIG", "VIAR 241930Z 00000KT 3000 BR NSC 17/17 Q1009 NOSIG", "VIDP 241930Z 00000KT 3000 HZ NSC 22/11 Q1009 NOSIG", "VIJP 241930Z 00000KT 1800 FU NSC 20/13 Q1011 NOSIG", "VILK 241930Z 00000KT 2500 BR NSC 21/19 Q1006 NOSIG", "VMMC 241900Z 09016KT 9999 FEW035 24/19 Q1016 NOSIG", "VNKT 241930Z 13003KT 8000 FEW020 15/12 Q1013 NOSIG", "VOBL 241930Z 33005KT 6000 NSC 20/10 Q1015 NOSIG", "VOCB 241930Z 22006KT 4000 BR FEW012 SCT080 24/23 Q1012 NOSIG", "VOCI 241900Z 11002KT 3500 BR SCT015 25/24 Q1011 NOSIG", "VOCL 241930Z 05002KT 6000 FEW012 SCT090 24/22 Q1010 NOSIG", "VOGO 241930Z 07003KT 6000 NSC 25/21 Q1010 NOSIG", "VOHS 241930Z VRB04KT 4000 HZ FEW020 18/14 Q1013 TEMPO 3000", "VOKN 241900Z 09003KT 4000 BR SCT012 26/24 Q1010 TEMPO 3000 BR", "VOMD 241900Z 00000KT 4000 BR FEW020 SCT100 26/24 Q1010 NOSIG", "VOML 241930Z 00000KT 6000 NSC 23/20 Q1010 NOSIG", "VOMM 241930Z 25003KT 1500 BR FU FEW020 26/21 Q1009 BECMG 3000 BR FU", "VOTR 241900Z VRB02KT 3000 BR FEW016 SCT100 26/24 Q1010 NOSIG", "VOTV 241930Z 00000KT 2000 BR FEW015 SCT080 27/24 Q1010 NOSIG", "VOVZ 241830Z VRB02KT 3500 BR FEW018 SCT220 24/23 Q1008 NOSIG", "VRMG 241900Z 26005KT 9999 FEW018 SCT270 27/25 Q1011 NOSIG", "VRMH 241900Z 24006KT 9999 FEW018TCU BKN270 27/25 Q1011", "VRMM 241900Z 24017KT 7000 -SHRA SCT017 FEW018CB 26/25 Q1012 CB SW,W,NW TEMPO FEW018CB", "VTBD 241930Z 00000KT 7000 FEW020 27/27 Q1011 NOSIG", "VTBS 241930Z VRB02KT 8000 FEW020 SCT070 29/23 Q1010 NOSIG", "VTBU 241930Z 01003KT 2000 BR FEW020 25/22 Q1011 NOSIG", "VTCC 241930Z 34003KT 9999 BKN035 25/22 Q1013 NOSIG", "VTCT 241900Z 00000KT CAVOK 22/22 Q1014 NOSIG", "VTSG 241900Z 09003KT 9999 FEW020 24/24 Q1011 NOSIG", "VTSP 241930Z VRB01KT 9999 FEW020 24/23 Q1010 NOSIG", "VTSS 241930Z 00000KT 9999 FEW020 SCT028 BKN100 25/25 Q1011 NOSIG", "VTUK 241900Z 10003KT 9000 NSC 25/20 Q1013 NOSIG", "VTUU 241900Z 02008KT CAVOK 24/21 Q1012 NOSIG", "VVCI 241930Z VRB02KT CAVOK 25/22 Q1015 NOSIG", "VVCR 241930Z VRB01KT 9999 FEW015 25/23 Q1010 NOSIG", "VVCT 241930Z VRB02KT 8000 SCT013 BKN040 24/24 Q1010 NOSIG", "VVDN 241930Z 00000KT 6000 FEW015 BKN050 25/23 Q1011 NOSIG", "VVNB 241930Z 16004KT 120V180 CAVOK 25/21 Q1015 NOSIG", "VVPB 241930Z 21002KT 6000 SCT013 BKN040 24/23 Q1012 NOSIG", "VVPQ 241930Z 00000KT 9999 SCT015 SCT040 26/25 Q1009 NOSIG", "VVTS 241930Z VRB02KT 8000 SCT017 BKN050 25/24 Q1010 NOSIG", "VYYY 241930Z 17002KT 6000 BKN017 FEW020CB BKN110 26/25 Q1009", "WAAA 241900Z 08003KT 8000 FEW019 24/23 Q1009 NOSIG", "WABB 241900Z 07004KT 200V070 9999 SCT018 BKN100 27/25 Q1008 NOSIG", "WADD 241900Z 27011KT 6000 RA BKN015 26/25 Q1009 TEMPO TL2000 6000 RA", "WALL 241900Z 26001KT 9000 FEW020CB FEW020 26/26 Q1009 RMK CB TO SE", "WAOO 241900Z AUTO 04004KT 6000 FEW021 BKN030 BKN040 25/25 Q1009", "WAPP 241900Z 35002KT 9999 FEW017 25/23 Q1008 NOSIG", "WARR 241900Z 17002KT 3000 BR FEW020 25/24 Q1008 NOSIG", "WBGB 241900Z VRB02KT 9999 FEW016 25/24 Q1009", "WBGG 241900Z VRB02KT 9999 FEW020 24/24 Q1009 NOSIG", "WBGR 241900Z VRB03KT 9999 FEW014 25/24 Q1009", "WBGS 241900Z VRB01KT 9999 FEW007 SCT016 24/24 Q1009", "WBGY 241900Z AUTO 00000KT //// // ////// 24/23 Q1009", "WBKK 241900Z 10004KT 9999 FEW014 25/23 Q1008 NOSIG", "WBKL 241900Z VRB02KT 8000 -RA FEW010 SCT030 24/23 Q1010 RERA", "WBKS 241900Z 22003KT 160V280 9999 FEW015 24/23 Q1008", "WBKT 241900Z 23003KT 9999 FEW014 25/25 Q1008", "WBKW 241900Z 00000KT 9999 TS FEW014CB 25/24 Q1009", "WBSB 241900Z 19005KT 4000 TSRA SCT012 FEW015CB SCT018 BKN150 24/24 Q1010 NOSIG", "WIDD 241900Z 32003KT 9999 FEW014 27/25 Q1012 NOSIG", "WIII 241900Z 25006KT 5000 HZ FEW020 26/24 Q1010 NOSIG", "WIMM 241900Z 32008KT 1800 R23/1800 TSRA FEW016CB BKN017 24/23 Q1010 TEMPO TL1930 5000 -TSRA RMK CB TO NW", "WIOO 241900Z AUTO 11003KT 8000 BKN003 BKN170 25/25 Q1009", "WMAU 241900Z 24006KT 230V310 7000 -RA SCT025 26/24 Q1010", "WMBA 241900Z VRB02KT 9000 SCT030 26/24 Q1010", "WMKA 241900Z VRB02KT 9999 FEW030 26/24 Q1011", "WMKB 241900Z 06004KT 8000 FEW024 26/25 Q1010 NOSIG", "WMKC 241900Z 00000KT 9999 FEW020 26/25 Q1011", "WMKD 241900Z 00000KT 9000 -RA FEW000 SCT024 25/24 Q1010 NOSIG", "WMKE 241900Z AUTO 00000KT //// // ////// 25/24 Q1010", "WMKI 241900Z 00000KT 8000 FEW005 25/24 Q1011", "WMKJ 241900Z VRB03KT 9999 FEW022 26/24 Q1010", "WMKK 241900Z VRB02KT 9000 FEW010 24/23 Q1010 NOSIG", "WMKL 241900Z 00000KT 9999 FEW025 26/25 Q1011 RERA", "WMKM 241900Z 00000KT 8000 FEW010 24/24 Q1011", "WMKN 241900Z VRB02KT 9999 SCT022 25/25 Q1010", "WMKP 241900Z 00000KT 9000 FEW025 27/25 Q1010 NOSIG", "WMSA 241900Z 00000KT 4000 BR FEW005 24/23 Q1011", "WSAP 241900Z 28002KT 9999 FEW016 BKN150 27/23 Q1010", "WSSL 241900Z VRB02KT 9999 FEW016 BKN150 27/24 Q1010", "WSSS 241930Z VRB02KT 9999 FEW018 BKN160 27/24 Q1010 NOSIG", "YAMB 241930Z AUTO 32007KT 9999 // SCT110 19/17 Q1009", "YAYE 241933Z AUTO 27015KT 260V050 9999 // SCT094 OVC120 24/08 Q1008", "YBAS 241930Z AUTO 08009KT 9999 // NCD 19/08 Q1008 RF00.0/000.0", "YBBN 241930Z 29005KT 9999 FEW035 BKN120 20/17 Q1008", "YBCG 241930Z AUTO 01009KT 9999 -SHRA SCT077 SCT099 BKN110 21/16 Q1006", "YBCS 241930Z AUTO 33004KT 9999 // NCD 26/24 Q1008", "YBHM 241930Z AUTO 32011KT 9999 // BKN016 BKN020 BKN033 26/24 Q1010", "YBLN 241930Z AUTO 21007KT 9999 // SCT045 13/11 Q1014 RF00.0/000.6", "YBMA 241930Z AUTO 18008KT 9999 // NCD 25/08 Q1009 RF00.0/000.0", "YBRK 241930Z AUTO 30004KT 9999 // NCD 20/19 Q1008 RF00.0////./", "YBRM 241930Z AUTO 27009KT 9999 // SCT025 26/21 Q1007 RF00.0/000.0", "YBTL 241930Z AUTO 34005KT 300V360 9999 // BKN018 BKN027 BKN115 27/25 Q1009", "YBUD 241930Z AUTO 25011KT 9999 TS SCT008 BKN115 21/21 Q1009", "YBWP 241928Z AUTO 09004KT 9999 // NCD 23/21 Q1009", "YBWW 241930Z AUTO 02008KT 010V070 9999 VCTS SCT075 OVC100 OVC125 17/15 Q1010", "YCFS 241930Z AUTO 33006KT 9999 // NCD 21/17 Q1005 RF00.0/004.2", "YCIN 241930Z AUTO 32004KT 9999 // NCD 22/21 Q1007 RF00.0/000.0", "YCOM 241933Z AUTO 02005KT //// // SCT012 SCT021 OVC066 ///// Q1006", "YFRT 241935Z AUTO 17015KT 9999 TS SCT014 13/11 Q1007 RF00.0/000.4 TS", "YGEL 241930Z AUTO 20008KT 9999 // SCT037 SCT047 SCT052 16/10 Q1014", "YGFN 241901Z AUTO 10003KT 9999 -SHRA SCT006 SCT046 OVC120 18/18 Q1006", "YGLA 241930Z AUTO 29002KT 9999 // NCD 20/19 Q1008 RF00.0/003.4", "YGTH 241825Z AUTO 00000KT 9999 // SCT090 12/11 Q1004", "YHID 241930Z AUTO 14005KT 9999 // SCT018 BKN028 26/17 Q1009", "YKRY 241927Z AUTO 20010KT 9999 VCTS SCT073 BKN087 BKN100 17/17 Q1011 RETS", "YLHI 241930Z AUTO 06022KT 3600 BR OVC005 20/19 Q1012 RF00.0/003.8", "YMAV 241931Z AUTO 00000KT 6000 DZ SCT031 OVC038 15/15 Q1004", "YMAY 241830Z AUTO 00000KT 9999 // BKN096 OVC110 15/15 Q1004", "YMDG 241930Z AUTO 00000KT 9999 // BKN008 OVC094 15/15 Q1007 RESHRA", "YMEN 241930Z AUTO 28006KT 4500 -SHRA SCT005 BKN029 BKN041 15/15 Q1004 RESHRA", "YMER 241930Z AUTO 07011KT 5000 -SHRA BKN010 BKN017 OVC022 18/17 Q1006", "YMHB 241930Z 17005KT 9999 VCSH FEW001 SCT018 BKN080 13/13 Q1016", "YMIA 241930Z AUTO 27005KT 9999 // BKN005 OVC011 15/15 Q1003", "YMLT 241930Z AUTO 16011KT 9999 // SCT067 OVC079 13/12 Q1013", "YMML 241930Z 28005KT 4500 -DZ BKN003 SCT016 BKN041 14/14 Q1004", "YMTG 241930Z AUTO 12004KT 4600 BR OVC002 13/13 Q1005", "YNAR 241930Z AUTO 13004KT 9999 // BKN013 OVC100 14/14 Q1005", "YPAD 241930Z 28008KT 7000 +DZ FEW004 OVC008 14/13 Q1006 RF00/0/000/8", "YPCC 241930Z AUTO 11010KT 9999 // SCT023 SCT047 26/22 Q1011", "YPDN 241930Z AUTO 31013KT 9999 // NCD 29/24 Q1007", "YPEA 241930Z AUTO 00000KT 9999 // SCT013 11/09 Q1013", "YPGV 241930Z AUTO 34006KT 9999 // NCD 27/24 Q1007 RF00.0/000.0", "YPJT 241930Z AUTO 19007KT //// // ////// 13/11 Q1014 RF00.0/000.0", "YPKG 241930Z AUTO 26008KT 9999 // NCD 13/09 Q1008 RF00.0/000.0", "YPKU 241930Z AUTO 00000KT 9999 // NCD 27/25 Q1005 RF00.0/000.0", "YPLM 241930Z AUTO 20013KT 9999 // NCD 16/10 Q1012 RF00.0/000.0", "YPPD 241930Z AUTO 26011KT 9999 // NCD 21/18 Q1007 RF00.0/000.2", "YPPH 241930Z 21007KT 9999 FEW037 13/11 Q1014", "YPTN 241930Z AUTO 32005KT 9999 // OVC017 26/24 Q1006 RF00.0/000.0", "YPWR 241930Z AUTO 20004KT 9999 // NCD 11/11 Q1009 RF00.0/000.0", "YPXM 241930Z AUTO 14006KT 9999 // OVC014 22/22 Q1012 RF00/0/094/4", "YSCB 241930Z AUTO 00000KT 9999 // OVC016 15/15 Q1006 RF00/0/002/6", "YSDU 241930Z AUTO 00000KT 9999 // NCD 14/13 Q1006 RF00.0/001.6", "YSNF 241930Z AUTO 06012KT 9999 // SCT022 BKN041 19/15 Q1020", "YSNW 241930Z 00000KT 3100 -SHRA BKN004 18/18 Q1004", "YSRI 241930Z AUTO 05003KT 9999 // NCD 16/16 Q1004 RF00.0/003.8", "YSSY 241930Z 30005KT 9999 VCFG FEW003 BKN017 BKN300 19/18 Q1004", "YSTW 241930Z AUTO 33007KT 9999 // OVC100 17/15 Q1008 RF00.0/000.0", "YTRE 241934Z AUTO 28002KT 9999 // SCT001 15/15 Q1005", "YWHA 241930Z AUTO 28004KT 240V300 9999 // OVC015 14/12 Q1008", "YWLM 241930Z AUTO 33006KT 9999 // NCD 16/16 Q1005 RF00.0/005.6", "ZBAA 241930Z 36002MPS CAVOK 05/05 Q1022 NOSIG", "ZBAD 241930Z 36003MPS 6000 NSC 07/05 Q1022 NOSIG", "ZBHH 241900Z 05002MPS 030V140 CAVOK 04/M04 Q1021 NOSIG", "ZBSJ 241900Z 32002MPS 4000 BR NSC 09/04 Q1021 NOSIG", "ZBTJ 241930Z 16002MPS 4000 BR NSC 09/07 Q1022 NOSIG", "ZBYN 241930Z 09001MPS CAVOK 06/01 Q1023 NOSIG", "ZGGG 241930Z 09003MPS CAVOK 23/20 Q1017 NOSIG", "ZGHA 241900Z VRB01MPS 8000 NSC 19/12 Q1021 NOSIG", "ZGKL 241900Z 00000MPS CAVOK 17/11 Q1018 NOSIG", "ZGNN 241900Z 36001MPS CAVOK 23/20 Q1016 NOSIG", "ZGOW 241900Z 00000MPS CAVOK 17/14 Q1018 NOSIG", "ZGSZ 241900Z 09003MPS 050V140 CAVOK 23/18 Q1017 NOSIG", "ZHCC 241900Z VRB01MPS CAVOK 11/06 Q1023 NOSIG", "ZHHH 241900Z 11002MPS 7000 NSC 20/11 Q1022 NOSIG", "ZJHK 241900Z 08005MPS 9999 BKN040 24/23 Q1014 NOSIG", "ZJSY 241900Z 08005MPS 9999 SCT016 SCT020 25/24 Q1012 NOSIG", "ZLLL 241900Z 30002MPS CAVOK 08/03 Q1021 NOSIG", "ZLXY 241900Z VRB01MPS 4000 BR NSC 10/09 Q1020 NOSIG", "ZMCK 241930Z 31009MPS 9999 SCT033 BKN100 00/M03 Q1016 NOSIG RMK QFE646.7 77 NT", "ZMUB 241900Z 33005MPS 9999 FEW033 BKN100 00/M04 Q1016 NOSIG RMK QFE655.0 74 NT", "ZPPP 241900Z 18005MPS 9999 FEW023 15/13 Q1026 NOSIG", "ZSAM 241900Z 03006MPS CAVOK 20/12 Q1019 NOSIG", "ZSFZ 241900Z 03009MPS 9999 BKN046 20/13 Q1021 NOSIG", "ZSHC 241930Z 06003MPS CAVOK 15/11 Q1025 NOSIG", "ZSNB 241900Z VRB01MPS CAVOK 15/11 Q1025 NOSIG", "ZSNJ 241900Z 06002MPS CAVOK 12/10 Q1025 NOSIG", "ZSOF 241900Z 09003MPS CAVOK 15/07 Q1024 NOSIG", "ZSPD 241930Z 02004MPS CAVOK 16/09 Q1025 NOSIG", "ZSQD 241900Z 14002MPS CAVOK 11/10 Q1025 NOSIG", "ZSSS 241930Z 04002MPS CAVOK 15/09 Q1026 NOSIG", "ZUCK 241900Z 03007MPS CAVOK 15/13 Q1020 NOSIG", "ZUGY 241900Z 15005MPS CAVOK 16/09 Q1021 NOSIG", "ZUTF 241900Z VRB01MPS 8000 -RA SCT040 17/15 Q1020 NOSIG", "ZUUU 241900Z 01002MPS 2700 -RA BR FEW004 SCT006 BKN020 16/16 Q1020 NOSIG", "ZWSH 241900Z AUTO VRB03MPS 7000 // ///////// 12/M04 Q1018", "ZWWW 241930Z 25001MPS CAVOK 06/01 Q1025 NOSIG", "ZYCC 241900Z 18005MPS CAVOK 02/M06 Q1025 NOSIG", "ZYHB 241900Z 16004MPS 120V180 CAVOK M01/M05 Q1025 NOSIG", "ZYTL 241930Z 04001MPS CAVOK 07/04 Q1026 NOSIG", "ZYTX 241930Z 13002MPS CAVOK 05/M05 Q1025 NOSIG"]}