{"station_id": ["AGGA", "AGGC", "AGGH", "AGGK", "AGGL", "AGGM", "AGGN", "AGGR", "ANYN", "AYPY", "BGAA", "BGBW", "BGCO", "BGGH", "BGJN", "BGKK", "BGMQ", "BGPT", "BGQQ", "BGSF", "BGSS", "BGTL", "BGUK", "BGUQ", "BIAR", "BIBD", "BIEG", "BIGJ", "BIHN", "BIHU", "BIIS", "BIKF", "BIRK", "BIVM", "BKPR", "CBBC", "CWSA", "CWWU", "CYAH", "CYAM", "CYAT", "CYAW", "CYAY", "CYBC", "CYBG", "CYBK", "CYBR", "CYBW", "CYBX", "CYCA", "CYCB", "CYCO", "CYCX", "CYCY", "CYDB", "CYDF", "CYDL", "CYDN", "CYDP", "CYDQ", "CYEG", "CYEK", "CYEN", "CYER", "CYEU", "CYEV", "CYFB", "CYFC", "CYFS", "CYGK", "CYGL", "CYGP", "CYGQ", "CYGR", "CYGT", "CYGV", "CYGW", "CYGX", "CYHD", "CYHK", "CYHM", "CYHU", "CYHY", "CYHZ", "CYIO", "CYIV", "CYJT", "CYKA", "CYKF", "CYKJ", "CYKL", "CYLD", "CYLL", "CYLT", "CYLW", "CYMA", "CYMH", "CYMJ", "CYMM", "CYMO", "CYMT", "CYMX", "CYNA", "CYND", "CYNE", "CYOD", "CYOJ", "CYOO", "CYOW", "CYOY", "CYPA", "CYPE", "CYPG", "CYPH", "CYPL", "CYPQ", "CYPR", "CYPX", "CYPY", "CYQA", "CYQB", "CYQD", "CYQF", "CYQG", "CYQH", "CYQI", "CYQK", "CYQL", "CYQM", "CYQQ", "CYQR", "CYQT", "CYQU", "CYQV", "CYQW", "CYQX", "CYQY", "CYQZ", "CYRB", "CYRJ", "CYRL", "CYRQ", "CYRT", "CYSB", "CYSC", "CYSF", "CYSJ", "CYSM", "CYSN", "CYTE", "CYTH", "CYTL", "CYTR", "CYTS", "CYTZ", "CYUL", "CYUX", "CYUY", "CYVC", "CYVM", "CYVO", "CYVP", "CYVQ", "CYVR", "CYVV", "CYWA", "CYWE", "CYWG", "CYWK", "CYWL", "CYXC", "CYXE", "CYXH", "CYXJ", "CYXL", "CYXP", "CYXR", "CYXS", "CYXT", "CYXU", "CYXX", "CYXY", "CYXZ", "CYYB", "CYYC", "CYYE", "CYYF", "CYYG", "CYYH", "CYYJ", "CYYL", "CYYN", "CYYQ", "CYYR", "CYYT", "CYYU", "CYYY", "CYYZ", "CYZE", "CYZF", "CYZH", "CYZP", "CYZR", "CYZS", "CYZT", "CYZV", "CYZX", "CZBF", "CZMD", "CZSJ", "CZUM", "CZVL", "DAAD", "DAAE", "DAAG", "DAAJ", "DAAP", "DAAS", "DAAT", "DAAV", "DAAY", "DABB", "DABC", "DABS", "DABT", "DAFH", "DAOB", "DAOF", "DAOI", "DAON", "DAOO", "DAOR", "DAOV", "DATM", "DAUA", "DAUB", "DAUG", "DAUH", "DAUI", "DAUK", "DAUL", "DAUO", "DAUT", "DAUU", "DAUZ", "DBBB", "DFFD", "DFOO", "DGAA", "DGLE", "DGSI", "DIAP", "DIBK", "DIYO", "DNAA", "DNAK", "DNBE", "DNGO", "DNIB", "DNIL", "DNJO", "DNKA", "DNKN", "DNKT", "DNMA", "DNMM", "DNSO", "DNSU", "DNYO", "DRRN", "DRZA", "DRZR", "DTKA", "DTMB", "DTNH", "DTTA", "DTTB", "DTTF", "DTTG", "DTTJ", "DTTR", "DTTX", "DTTZ", "DXNG", "DXXX", "EBAW", "EBBE", "EBBL", "EBBR", "EBCI", "EBCV", "EBDT", "EBFN", "EBFS", "EBLG", "EBOS", "EDAC", "EDAH", "EDDB", "EDDC", "EDDE", "EDDF", "EDDG", "EDDH", "EDDK", "EDDL", "EDDM", "EDDN", "EDDP", "EDDR", "EDDS", "EDDV", "EDDW", "EDFH", "EDFM", "EDGS", "EDHI", "EDHK", "EDHL", "EDJA", "EDLN", "EDLP", "EDLV", "EDLW", "EDMA", "EDMO", "EDNY", "EDQM", "EDSB", "EDTL", "EDTY", "EDVE", "EDVK", "EDXW", "EEEI", "EEKA", "EETN", "EFHA", "EFHK", "EFIV", "EFJY", "EFKK", "EFKS", "EFKT", "EFKU", "EFMA", "EFOU", "EFPO", "EFRO", "EFSA", "EFSI", "EFTP", "EFTU", "EFUT", "EFVA", "EGAA", "EGAC", "EGAE", "EGBB", "EGBJ", "EGCC", "EGCK", "EGCN", "EGDM", "EGDR", "EGDY", "EGEC", "EGEO", "EGFF", "EGGD", "EGGP", "EGGW", "EGHC", "EGHE", "EGHH", "EGHI", "EGHQ", "EGJA", "EGJB", "EGJJ", "EGKA", "EGKB", "EGKK", "EGLC", "EGLF", "EGLL", "EGMC", "EGMD", "EGNH", "EGNJ", "EGNM", "EGNO", "EGNR", "EGNS", "EGNT", "EGNV", "EGNX", "EGOS", "EGOV", "EGOW", "EGPA", "EGPB", "EGPC", "EGPD", "EGPE", "EGPF", "EGPH", "EGPI", "EGPK", "EGPL", "EGPN", "EGPO", "EGPU", "EGQL", "EGQS", "EGSC", "EGSH", "EGSS", "EGSY", "EGTC", "EGTE", "EGTK", "EGUB", "EGUL", "EGUN", "EGUW", "EGVA", "EGVN", "EGVO", "EGVP", "EGWC", "EGWU", "EGXC", "EGXE", "EGXP", "EGXT", "EGXW", "EGYM", "EGYP", "EHAM", "EHBK", "EHDL", "EHEH", "EHGG", "EHGR", "EHKD", "EHLE", "EHLW", "EHRD", "EHVK", "EHWO", "EICK", "EIDL", "EIDW", "EIKN", "EIKY", "EIME", "EINN", "EISG", "EIWF", "EKAH", "EKBI", "EKCH", "EKEB", "EKGC", "EKHD", "EKKA", "EKOD", "EKRK", "EKRN", "EKSB", "EKSP", "EKVD", "EKVG", "EKVJ", "EKYT", "ELLX", "ENAL", "ENAN", "ENAT", "ENBN", "ENBO", "ENBR", "ENBS", "ENBV", "ENCN", "ENDU", "ENEV", "ENFL", "ENGC", "ENGM", "ENHD", "ENHE", "ENHF", "ENHV", "ENKB", "ENKR", "ENLE", "ENML", "ENMS", "ENNA", "ENNE", "ENNO", "ENOA", "ENOL", "ENOV", "ENRA", "ENRO", "ENRY", "ENSB", "ENSD", "ENSK", "ENSO", "ENSR", "ENTC", "ENTO", "ENVA", "ENVD", "ENZV", "EPBY", "EPCE", "EPDA", "EPDE", "EPGD", "EPIR", "EPKK", "EPKS", "EPKT", "EPLB", "EPLK", "EPLL", "EPLY", "EPMB", "EPMI", "EPMM", "EPMO", "EPOK", "EPPO", "EPPR", "EPPW", "EPRA", "EPRZ", "EPSC", "EPSN", "EPSY", "EPTM", "EPWA", "EPWR", "EPZG", "ESCF", "ESCM", "ESDF", "ESGG", "ESGJ", "ESGP", "ESGT", "ESIA", "ESIB", "ESKN", "ESMK", "ESMQ", "ESMS", "ESMT", "ESMX", "ESNG", "ESNK", "ESNN", "ESNQ", "ESNS", "ESNU", "ESNX", "ESNZ", "ESOE", "ESOK", "ESOW", "ESPA", "ESSA", "ESSB", "ESSD", "ESSL", "ESSP", "ESSV", "ESTA", "ESTL", "ETAD", "ETAR", "ETEB", "ETHA", "ETHB", "ETHC", "ETHF", "ETHL", "ETHN", "ETHS", "ETIC", "ETIK", "ETMN", "ETND", "ETNG", "ETNH", "ETNL", "ETNN", "ETNS", "ETNW", "ETOU", "ETSB", "ETSH", "ETSI", "ETSL", "ETSN", "EVGA", "EVLA", "EVRA", "EYKA", "EYPA", "EYSA", "EYVI", "FABL", "FACT", "FAEL", "FAGG", "FAHS", "FAKM", "FAKN", "FALA", "FALE", "FAMM", "FAOR", "FAPE", "FAPM", "FAPP", "FARB", "FAUP", "FAUT", "FAWB", "FAWK", "FBMN", "FBSK", "FCBB", "FCPP", "FDMS", "FDSK", "FEFF", "FGBT", "FGSL", "FIMP", "FIMR", "FJDG", "FKKD", "FKKL", "FKKR", "FKYS", "FLCP", "FLHN", "FLKK", "FLKS", "FLMA", "FLMF", "FLSK", "FLSW", "FMCH", "FMCZ", "FMEE", "FMEP", "FMMI", "FMMS", "FMMT", "FMNA", "FMNM", "FMNN", "FMSD", "FMST", "FNBG", "FNCA", "FNCT", "FNDU", "FNGI", "FNHU", "FNKU", "FNLU", "FNMA", "FNME", "FNMO", "FNSA", "FNSO", "FNUB", "FNUE", "FOOG", "FOOL", "FQBR", "FQCH", "FQIN", "FQLC", "FQMA", "FQNC", "FQNP", "FQPB", "FQQL", "FQTT", "FQVL", "FQXA", "FSIA", "FTTJ", "FVJN", "FVRG", "FWCL", "FWKI", "FYGF", "FYLZ", "FYOA", "FYRU", "FYWB", "FYWE", "FYWH", "FZAA", "FZIC", "FZNA", "FZQA", "GABS", "GAGO", "GBYD", "GCFV", "GCGM", "GCHI", "GCLA", "GCLP", "GCRR", "GCTS", "GCXO", "GECE", "GEML", "GFLL", "GGOV", "GLRB", "GMAD", "GMAG", "GMFF", "GMFK", "GMFM", "GMFO", "GMME", "GMMH", "GMMI", "GMML", "GMMN", "GMMW", "GMMX", "GMMZ", "GMTA", "GMTT", "GOBD", "GOGS", "GOOY", "GOSS", "GQNO", "GQPP", "GUCY", "GVAC", "GVBA", "GVNP", "GVSV", "HAAB", "HADR", "HBBA", "HCMM", "HDAM", "HEAL", "HEAR", "HEAT", "HEAX", "HEBA", "HEBL", "HECA", "HEGN", "HELX", "HEMA", "HEMM", "HEOW", "HEPS", "HESC", "HESG", "HESH", "HESN", "HETB", "HETR", "HKEL", "HKJK", "HKKI", "HKML", "HKMO", "HKNW", "HLGD", "HLGT", "HLKF", "HLLB", "HLLM", "HLLQ", "HLLS", "HLMS", "HLON", "HLTD", "HLTQ", "HLUB", "HRYR", "HRZA", "HSKA", "HSOB", "HSPN", "HSSJ", "HSSK", "HTAR", "HTDA", "HTDO", "HTKA", "HTKJ", "HTMW", "HTTB", "HTZA", "HUEN", "HUSO", "KABE", "KABI", "KABQ", "KABR", "KABY", "KACK", "KACT", "KACV", "KACY", "KADF", "KADW", "KAEG", "KAEX", "KAFF", "KAFW", "KAGC", "KAGS", "KAHN", "KAIA", "KALB", "KALI", "KALO", "KALS", "KALW", "KAMA", "KANB", "KAND", "KAOO", "KAPA", "KAPC", "KAPF", "KAPN", "KARA", "KART", "KASD", "KASE", "KASN", "KAST", "KATL", "KATW", "KATY", "KAUG", "KAUS", "KAUW", "KAVL", "KAVP", "KAXN", "KAZO", "KBAB", "KBAD", "KBAF", "KBAM", "KBBD", "KBBG", "KBCB", "KBCE", "KBDL", "KBDN", "KBDR", "KBED", "KBFD", "KBFF", "KBFI", "KBFL", "KBFM", "KBGM", "KBGR", "KBHB", "KBHM", "KBIF", "KBIH", "KBIL", "KBIS", "KBIX", "KBJC", "KBJI", "KBKE", "KBKF", "KBKW", "KBLF", "KBLH", "KBLI", "KBLV", "KBMG", "KBMI", "KBNA", "KBNO", "KBOI", "KBOS", "KBPI", "KBPK", "KBPT", "KBRD", "KBRL", "KBRO", "KBTL", "KBTM", "KBTR", "KBTV", "KBUF", "KBUR", "KBVI", "KBVO", "KBWG", "KBWI", "KBYI", "KBZN", "KCAE", "KCAK", "KCAR", "KCBM", "KCDC", "KCDR", "KCDS", "KCEC", "KCEF", "KCGI", "KCHA", "KCHO", "KCHS", "KCID", "KCIU", "KCKB", "KCKV", "KCLE", "KCLL", "KCLM", "KCLT", "KCMA", "KCMH", "KCMI", "KCMX", "KCNM", "KCNU", "KCNY", "KCOD", "KCOE", "KCOF", "KCON", "KCOS", "KCOT", "KCOU", "KCPR", "KCPS", "KCRE", "KCRG", "KCRP", "KCRQ", "KCRW", "KCSG", "KCSM", "KCSV", "KCTB", "KCUB", "KCVG", "KCVS", "KCWA", "KCXO", "KCXP", "KCYS", "KDAA", "KDAB", "KDAG", "KDAL", "KDAN", "KDAY", "KDBQ", "KDCA", "KDDC", "KDEC", "KDEN", "KDET", "KDFW", "KDHN", "KDHT", "KDIJ", "KDIK", "KDLF", "KDLH", "KDLS", "KDMA", "KDMN", "KDNL", "KDOV", "KDPA", "KDRO", "KDRT", "KDSM", "KDTW", "KDUJ", "KDVL", "KDVT", "KDYS", "KEAR", "KEAT", "KEAU", "KECG", "KECP", "KEDW", "KEED", "KEET", "KEFD", "KEFK", "KEGE", "KEGI", "KEKN", "KEKO", "KEKS", "KELD", "KELM", "KELP", "KELY", "KEND", "KENV", "KENW", "KERI", "KEUG", "KEUL", "KEVV", "KEVW", "KEWN", "KEWR", "KEYW", "KFAF", "KFAR", "KFAT", "KFAY", "KFBG", "KFCS", "KFDY", "KFFO", "KFHU", "KFKL", "KFLG", "KFLL", "KFLO", "KFMH", "KFMN", "KFMY", "KFNT", "KFOD", "KFOE", "KFPR", "KFRI", "KFSD", "KFSM", "KFST", "KFTK", "KFTW", "KFTY", "KFVE", "KFWA", "KFXE", "KFYV", "KGBD", "KGCC", "KGCK", "KGCN", "KGDV", "KGEG", "KGFA", "KGFK", "KGFL", "KGGG", "KGGW", "KGJT", "KGKY", "KGLD", "KGLH", "KGLS", "KGMU", "KGNV", "KGON", "KGPI", "KGPT", "KGRB", "KGRF", "KGRI", "KGRK", "KGRR", "KGSB", "KGSO", "KGSP", "KGTB", "KGTF", "KGTR", "KGUC", "KGUP", "KGUR", "KGUS", "KGUY", "KGWO", "KGYY", "KHBG", "KHCR", "KHDC", "KHDN", "KHIB", "KHIE", "KHIF", "KHIO", "KHKS", "KHKY", "KHLG", "KHLN", "KHMN", "KHNB", "KHND", "KHOB", "KHON", "KHOP", "KHOT", "KHOU", "KHPN", "KHQM", "KHRL", "KHRO", "KHRT", "KHST", "KHSV", "KHTS", "KHUA", "KHUF", "KHUL", "KHUM", "KHUT", "KHVR", "KHYA", "KHYR", "KHYS", "KIAB", "KIAD", "KIAG", "KIAH", "KICT", "KIDA", "KIFP", "KILG", "KILM", "KILN", "KIND", "KINK", "KINL", "KINS", "KINT", "KINW", "KIPL", "KIPT", "KISM", "KISO", "KISP", "KITH", "KIWA", "KIWD", "KIXD", "KJAC", "KJAN", "KJAX", "KJBR", "KJCT", "KJEF", "KJER", "KJFK", "KJHW", "KJKA", "KJKL", "KJLN", "KJMS", "KJST", "KJVL", "KJXN", "KJZI", "KLAF", "KLAL", "KLAN", "KLAR", "KLAS", "KLAW", "KLAX", "KLBB", "KLBE", "KLBF", "KLBL", "KLBT", "KLBX", "KLCH", "KLCK", "KLEB", "KLEE", "KLEX", "KLFI", "KLFK", "KLFT", "KLGA", "KLGB", "KLGU", "KLIT", "KLLQ", "KLMT", "KLND", "KLNK", "KLNS", "KLOZ", "KLRD", "KLRF", "KLRU", "KLSE", "KLSF", "KLSV", "KLTS", "KLUF", "KLUK", "KLVK", "KLVM", "KLVS", "KLWB", "KLWS", "KLWT", "KLYH", "KMAF", "KMBG", "KMBL", "KMBS", "KMCB", "KMCC", "KMCE", "KMCF", "KMCI", "KMCK", "KMCN", "KMCO", "KMCW", "KMDT", "KMDW", "KMEI", "KMEM", "KMER", "KMEV", "KMFD", "KMFE", "KMFR", "KMGE", "KMGM", "KMGW", "KMHK", "KMHR", "KMHT", "KMIA", "KMIB", "KMIV", "KMKC", "KMKE", "KMKG", "KMKL", "KMKT", "KMLB", "KMLC", "KMLI", "KMLS", "KMLU", "KMMH", "KMMT", "KMOB", "KMOD", "KMOT", "KMPV", "KMQY", "KMRB", "KMRY", "KMSL", "KMSN", "KMSO", "KMSP", "KMSS", "KMSY", "KMTC", "KMTH", "KMTJ", "KMTN", "KMTW", "KMUI", "KMUO", "KMVN", "KMWH", "KMXF", "KMYL", "KMYR", "KNBC", "KNBG", "KNCA", "KNEW", "KNFG", "KNFL", "KNFW", "KNGP", "KNGU", "KNHK", "KNID", "KNIP", "KNJK", "KNKT", "KNKX", "KNLC", "KNMM", "KNPA", "KNQI", "KNQX", "KNRB", "KNSE", "KNTD", "KNTU", "KNUC", "KNUW", "KNXP", "KNYG", "KNYL", "KNZY", "KOAJ", "KOAK", "KOFF", "KOFK", "KOGB", "KOGD", "KOKC", "KOLF", "KOLM", "KOLS", "KOMA", "KONP", "KONT", "KOPF", "KORD", "KORF", "KORH", "KOTH", "KOTM", "KOUN", "KOWB", "KOXR", "KOZR", "KPAE", "KPAH", "KPAM", "KPBF", "KPBG", "KPBI", "KPDK", "KPDT", "KPDX", "KPEQ", "KPGA", "KPGD", "KPGV", "KPHF", "KPHL", "KPHX", "KPIA", "KPIB", "KPIE", "KPIH", "KPIR", "KPIT", "KPKB", "KPLN", "KPMD", "KPNA", "KPNC", "KPNE", "KPNS", "KPOB", "KPOE", "KPOU", "KPQI", "KPRB", "KPRC", "KPSC", "KPSF", "KPSM", "KPSP", "KPTK", "KPUB", "KPUW", "KPVD", "KPVU", "KPVW", "KPWM", "KPWT", "KRAP", "KRBG", "KRBL", "KRCA", "KRDD", "KRDG", "KRDM", "KRDR", "KRDU", "KRFD", "KRHI", "KRIC", "KRIL", "KRIV", "KRIW", "KRKD", "KRKS", "KRME", "KRND", "KRNH", "KRNO", "KROA", "KROC", "KROG", "KROW", "KRSL", "KRST", "KRSW", "KRUT", "KRVS", "KRWF", "KRWI", "KRWL", "KRYY", "KSAC", "KSAF", "KSAN", "KSAT", "KSAV", "KSAW", "KSBA", "KSBD", "KSBM", "KSBN", "KSBP", "KSBY", "KSCK", "KSDF", "KSDL", "KSDY", "KSEA", "KSEZ", "KSFB", "KSFF", "KSFO", "KSGF", "KSGJ", "KSGR", "KSGU", "KSHR", "KSHV", "KSJC", "KSJS", "KSJT", "KSKA", "KSKF", "KSLC", "KSLE", "KSLI", "KSLK", "KSLN", "KSME", "KSMF", "KSMN", "KSMO", "KSMX", "KSNA", "KSNS", "KSNY", "KSOA", "KSPI", "KSPS", "KSRQ", "KSSC", "KSSF", "KSSI", "KSTC", "KSTJ", "KSTL", "KSTS", "KSUA", "KSUN", "KSUS", "KSUU", "KSUX", "KSVN", "KSWF", "KSWO", "KSYM", "KSYR", "KSZL", "KTBN", "KTCC", "KTCL", "KTCM", "KTCS", "KTEB", "KTEX", "KTIK", "KTIX", "KTLH", "KTMB", "KTOI", "KTOL", "KTOP", "KTPA", "KTPH", "KTRI", "KTRK", "KTRM", "KTTD", "KTTN", "KTUL", "KTUP", "KTUS", "KTVC", "KTVF", "KTVL", "KTWF", "KTXK", "KTYR", "KTYS", "KUAO", "KUES", "KUIN", "KUKI", "KUNV", "KUTS", "KVAD", "KVBG", "KVCT", "KVEL", "KVGT", "KVIS", "KVLD", "KVNY", "KVOK", "KVPS", "KVQQ", "KVRB", "KVTN", "KWJF", "KWMC", "KWRB", "KWRI", "KWRL", "KWWR", "KWYS", "KXNA", "KXWA", "KYIP", "KYKM", "KYNG", "KZZV", "LATI", "LBBG", "LBGO", "LBPD", "LBSF", "LBWN", "LCEN", "LCLK", "LCPH", "LCRA", "LDDU", "LDOS", "LDPL", "LDRI", "LDSP", "LDZA", "LDZD", "LEAB", "LEAG", "LEAL", "LEAM", "LEAO", "LEAS", "LEBA", "LEBB", "LEBG", "LEBL", "LEBR", "LEBZ", "LECO", "LECV", "LEGA", "LEGE", "LEGR", "LEGT", "LEHC", "LEIB", "LEJR", "LELC", "LELL", "LELN", "LELO", "LEMD", "LEMG", "LEMH", "LEMO", "LEPA", "LEPP", "LERI", "LERL", "LERS", "LERT", "LESA", "LESO", "LEST", "LETO", "LEVC", "LEVD", "LEVS", "LEVT", "LEVX", "LEXJ", "LEZG", "LEZL", "LFAQ", "LFAT", "LFBA", "LFBC", "LFBD", "LFBE", "LFBG", "LFBH", "LFBI", "LFBL", "LFBM", "LFBO", "LFBP", "LFBT", "LFBU", "LFBZ", "LFCK", "LFCR", "LFGJ", "LFJL", "LFKB", "LFKC", "LFKF", "LFKJ", "LFKS", "LFLB", "LFLC", "LFLL", "LFLN", "LFLP", "LFLS", "LFLW", "LFLX", "LFLY", "LFMD", "LFMI", "LFMK", "LFML", "LFMN", "LFMO", "LFMP", "LFMT", "LFMU", "LFMV", "LFMY", "LFOA", "LFOB", "LFOE", "LFOH", "LFOJ", "LFOK", "LFOP", "LFOT", "LFPB", "LFPG", "LFPN", "LFPO", "LFPV", "LFQQ", "LFRB", "LFRC", "LFRD", "LFRG", "LFRH", "LFRI", "LFRJ", "LFRK", "LFRL", "LFRM", "LFRN", "LFRQ", "LFRS", "LFRZ", "LFSB", "LFSI", "LFSL", "LFSO", "LFST", "LFSX", "LFTH", "LFTW", "LFVP", "LFYR", "LGAD", "LGAL", "LGAV", "LGBL", "LGEL", "LGHI", "LGIO", "LGIR", "LGKC", "LGKF", "LGKL", "LGKO", "LGKP", "LGKR", "LGKV", "LGLM", "LGLR", "LGMK", "LGMT", "LGPZ", "LGRP", "LGRX", "LGSA", "LGSK", "LGSM", "LGSR", "LGST", "LGSY", "LGTG", "LGTL", "LGTS", "LGZA", "LHBP", "LHDC", "LHKE", "LHPA", "LHPP", "LHPR", "LHSM", "LHSN", "LIBA", "LIBC", "LIBD", "LIBF", "LIBG", "LIBN", "LIBP", "LIBR", "LIBV", "LICA", "LICB", "LICC", "LICD", "LICG", "LICJ", "LICR", "LICT", "LICZ", "LIEA", "LIED", "LIEE", "LIEO", "LIMC", "LIME", "LIMF", "LIMG", "LIMJ", "LIML", "LIMN", "LIMP", "LIMW", "LIMZ", "LIPA", "LIPB", "LIPC", "LIPE", "LIPH", "LIPI", "LIPK", "LIPL", "LIPO", "LIPQ", "LIPR", "LIPS", "LIPX", "LIPY", "LIPZ", "LIQW", "LIRA", "LIRE", "LIRF", "LIRG", "LIRH", "LIRL", "LIRM", "LIRN", "LIRP", "LIRQ", "LIRS", "LIRU", "LIRV", "LIRZ", "LJCE", "LJLJ", "LJMB", "LJPZ", "LKKB", "LKKV", "LKMT", "LKNA", "LKPD", "LKPR", "LKTB", "LLBG", "LLER", "LLHA", "LLHZ", "LLIB", "LMML", "LOAN", "LOAV", "LOWG", "LOWI", "LOWK", "LOWL", "LOWS", "LOWW", "LOXA", "LOXN", "LOXT", "LOXZ", "LPAR", "LPAZ", "LPBJ", "LPCS", "LPFR", "LPHR", "LPLA", "LPMA", "LPMR", "LPMT", "LPOV", "LPPD", "LPPR", "LPPS", "LPPT", "LPST", "LQBK", "LQMO", "LQSA", "LQTZ", "LRAR", "LRBC", "LRBM", "LRBO", "LRBS", "LRCK", "LRCL", "LRCT", "LRCV", "LRFT", "LRIA", "LROD", "LROP", "LRSB", "LRSM", "LRSV", "LRTC", "LRTM", "LRTR", "LRTZ", "LSGC", "LSGG", "LSGS", "LSZA", "LSZB", "LSZC", "LSZG", "LSZH", "LSZL", "LSZR", "LSZS", "LTAB", "LTAC", "LTAD", "LTAE", "LTAF", "LTAG", "LTAH", "LTAI", "LTAJ", "LTAL", "LTAN", "LTAO", "LTAP", "LTAR", "LTAS", "LTAT", "LTAU", "LTAV", "LTAW", "LTAY", "LTAZ", "LTBA", "LTBD", "LTBF", "LTBG", "LTBH", "LTBI", "LTBJ", "LTBK", "LTBL", "LTBN", "LTBO", "LTBP", "LTBQ", "LTBR", "LTBS", "LTBT", "LTBU", "LTBV", "LTBX", "LTBY", "LTBZ", "LTCA", "LTCB", "LTCC", "LTCD", "LTCE", "LTCF", "LTCG", "LTCI", "LTCJ", "LTCK", "LTCL", "LTCM", "LTCN", "LTCO", "LTCP", "LTCR", "LTCS", "LTCT", "LTCU", "LTCV", "LTCW", "LTDA", "LTFA", "LTFB", "LTFC", "LTFD", "LTFE", "LTFG", "LTFH", "LTFJ", "LTFK", "LTFM", "LTFO", "LUKK", "LWOH", "LWSK", "LXGB", "LYBE", "LYBT", "LYKV", "LYNI", "LYPG", "LYTV", "LYVR", "LZIB", "LZKZ", "LZMC", "LZPP", "LZPW", "LZSL", "LZTT", "LZZI", "MBGT", "MBPV", "MDBH", "MDCY", "MDJB", "MDLR", "MDPC", "MDPP", "MDSD", "MDST", "MGGT", "MGMM", "MGPB", "MGSJ", "MHLC", "MHLM", "MHPR", "MHRO", "MHTG", "MKJP", "MKJS", "MMAA", "MMAN", "MMAS", "MMBT", "MMCB", "MMCE", "MMCL", "MMCM", "MMCN", "MMCP", "MMCS", "MMCU", "MMCV", "MMCZ", "MMDO", "MMEP", "MMGL", "MMGM", "MMHO", "MMIA", "MMIO", "MMLM", "MMLO", "MMLP", "MMLT", "MMMA", "MMMD", "MMML", "MMMM", "MMMT", "MMMV", "MMMX", "MMMY", "MMMZ", "MMNL", "MMOX", "MMPA", "MMPB", "MMPG", "MMPN", "MMPQ", "MMPR", "MMPS", "MMQT", "MMRX", "MMSD", "MMSL", "MMSM", "MMSP", "MMTC", "MMTG", "MMTJ", "MMTM", "MMTO", "MMTP", "MMUN", "MMVA", "MMVR", "MMZC", "MMZH", "MMZO", "MNBL", "MNMG", "MNPC", "MPDA", "MPMG", "MPPA", "MPSM", "MPTO", "MRLB", "MRLM", "MROC", "MRPV", "MSLP", "MSSS", "MTCH", "MTPP", "MUCC", "MUCF", "MUCL", "MUCM", "MUCU", "MUGM", "MUHA", "MUHG", "MUSC", "MUVR", "MWCB", "MWCR", "MYGF", "MYNN", "MZBZ", "NCRG", "NFFN", "NFNA", "NFTF", "NFTV", "NGFU", "NGTA", "NIUE", "NLWF", "NLWW", "NSFA", "NSTU", "NTAA", "NVSC", "NVSG", "NVSL", "NVSP", "NVSS", "NVVA", "NVVV", "NVVW", "NWWD", "NWWE", "NWWK", "NWWL", "NWWM", "NWWR", "NWWU", "NWWW", "NZAA", "NZCH", "NZFX", "NZQN", "NZWN", "OBBI", "OEAB", "OEAH", "OEAO", "OEBA", "OEBH", "OEDF", "OEDM", "OEDR", "OEGN", "OEGS", "OEGT", "OEHL", "OEJN", "OEKJ", "OEKM", "OEMA", "OENG", "OEPA", "OEPS", "OERF", "OERK", "OERR", "OESH", "OESK", "OETB", "OETF", "OETR", "OEWD", "OEWJ", "OEYN", "OIAA", "OIAW", "OIBB", "OIBK", "OIBP", "OICC", "OICI", "OIFM", "OIGG", "OIIE", "OIII", "OIIP", "OIKB", "OIKK", "OIMM", "OING", "OINZ", "OISL", "OISS", "OITL", "OITR", "OITT", "OIYY", "OIZH", "OJAI", "OJAM", "OJAQ", "OKAS", "OKBK", "OLBA", "OMAA", "OMAD", "OMAL", "OMDB", "OMDW", "OMFJ", "OMRK", "OMSJ", "OODQ", "OOMS", "OOSA", "OOSH", "OPBW", "OPDG", "OPFA", "OPGD", "OPIS", "OPKC", "OPLA", "OPMT", "OPNH", "OPPS", "OPRK", "OPSK", "OPST", "ORBI", "ORER", "ORMM", "ORNI", "ORSU", "OSAP", "OSDI", "OSLK", "OTBD", "OTBH", "OTHH", "PAAQ", "PABE", "PABI", "PABR", "PABT", "PACD", "PACV", "PADL", "PADQ", "PADU", "PAED", "PAEI", "PAEN", "PAFA", "PAFB", "PAGA", "PAGK", "PAGS", "PAGY", "PAHN", "PAHO", "PAIL", "PAJN", "PAKN", "PAKT", "PAKW", "PAMC", "PANC", "PAOM", "PAOR", "PAOT", "PAPG", "PAQT", "PASC", "PASD", "PASI", "PASN", "PASY", "PATA", "PATK", "PAUN", "PAVD", "PAWG", "PAYA", "PGRO", "PGSN", "PGUA", "PGUM", "PGWT", "PHHI", "PHJH", "PHJR", "PHKO", "PHLI", "PHMK", "PHNG", "PHNL", "PHNY", "PHOG", "PHTO", "PKMJ", "PKWA", "PLCH", "PMDY", "PTKK", "PTPN", "PTRO", "PTSA", "PTYA", "PWAK", "RCFN", "RCKH", "RCMQ", "RCNN", "RCSS", "RCTP", "RJAA", "RJAH", "RJBB", "RJCB", "RJCC", "RJCH", "RJCK", "RJCM", "RJEC", "RJFF", "RJFK", "RJFM", "RJFO", "RJFR", "RJFS", "RJFT", "RJFU", "RJGG", "RJNK", "RJNS", "RJNT", "RJOA", "RJOB", "RJOC", "RJOH", "RJOI", "RJOK", "RJOM", "RJOO", "RJOT", "RJSA", "RJSF", "RJSI", "RJSK", "RJSN", "RJSS", "RJTT", "RJTY", "RKJB", "RKJK", "RKNY", "RKPC", "RKPK", "RKSG", "RKSI", "RKSM", "RKSO", "RKSS", "RKTN", "RKTU", "ROAH", "RODN", "ROIG", "ROTM", "RPLB", "RPLC", "RPLI", "RPLL", "RPMD", "RPMR", "RPMZ", "RPVD", "RPVM", "RPVP", "SAAR", "SABE", "SACO", "SADF", "SAEZ", "SAME", "SANR", "SANT", "SARE", "SARF", "SARI", "SARP", "SASA", "SASJ", "SAVC", "SAWE", "SAWG", "SAWH", "SAZM", "SAZN", "SAZS", "SBAC", "SBAF", "SBAN", "SBAR", "SBAT", "SBBE", "SBBG", "SBBI", "SBBR", "SBBU", "SBBV", "SBBW", "SBCB", "SBCF", "SBCG", "SBCJ", "SBCO", "SBCP", "SBCR", "SBCT", "SBCY", "SBCZ", "SBDN", "SBEG", "SBFI", "SBFL", "SBFN", "SBFZ", "SBGL", "SBGO", "SBGR", "SBGW", "SBIH", "SBIL", "SBIZ", "SBJE", "SBJP", "SBJV", "SBKG", "SBKP", "SBLO", "SBMA", "SBME", "SBMN", "SBMO", "SBMQ", "SBNF", "SBNT", "SBOI", "SBPA", "SBPB", "SBPJ", "SBPK", "SBPL", "SBPP", "SBPS", "SBPV", "SBRB", "SBRF", "SBRJ", "SBRP", "SBSC", "SBSG", "SBSJ", "SBSL", "SBSM", "SBSN", "SBSP", "SBSV", "SBTD", "SBTE", "SBTF", "SBTT", "SBUG", "SBUL", "SBUR", "SBVH", "SBVT", "SBYS", "SCAR", "SCAT", "SCBA", "SCCF", "SCCI", "SCCY", "SCDA", "SCEL", "SCFA", "SCIE", "SCIP", "SCJO", "SCNT", "SCQP", "SCSE", "SCTE", "SCVM", "SEGU", "SELT", "SEMT", "SEQM", "SGAS", "SGCO", "SGEN", "SGES", "SKAR", "SKBG", "SKBO", "SKBQ", "SKCC", "SKCG", "SKCL", "SKLT", "SKPE", "SKRG", "SKSM", "SKSP", "SLAL", "SLCB", "SLCO", "SLET", "SLLP", "SLTJ", "SLTR", "SLVR", "SMJP", "SMZO", "SOCA", "SPCL", "SPEO", "SPGM", "SPHI", "SPHO", "SPHY", "SPJC", "SPJI", "SPJL", "SPJR", "SPLO", "SPME", "SPMS", "SPNC", "SPPY", "SPQT", "SPQU", "SPRU", "SPSO", "SPST", "SPTN", "SPTU", "SPYL", "SPZO", "SUAA", "SUCA", "SUDU", "SULS", "SUMU", "SURV", "SUSO", "SVBC", "SVJC", "SVMC", "SVMG", "SVMI", "SVPR", "SVSA", "SVVA", "SYCJ", "SYEB", "SYEC", "SYKA", "SYKM", "SYLT", "SYMB", "TAPA", "TBPB", "TDPD", "TFFF", "TFFR", "TGPY", "TIST", "TISX", "TJBQ", "TJPS", "TJSJ", "TKPK", "TKPN", "TLPC", "TLPL", "TNCA", "TNCB", "TNCC", "TNCM", "TQPF", "TRPG", "TTCP", "TTPP", "TUPJ", "TVSA", "TXKF", "UAAA", "UAAH", "UAAT", "UACC", "UACK", "UACP", "UADD", "UAII", "UAIT", "UAKD", "UAKK", "UAOO", "UARR", "UASK", "UASP", "UASS", "UATE", "UATG", "UATT", "UAUU", "UBBB", "UBBF", "UBBG", "UBBL", "UBBN", "UBBQ", "UBBY", "UBEE", "UCFL", "UCFM", "UCFO", "UDSG", "UDYZ", "UEEE", "UERP", "UERR", "UGAM", "UGKO", "UGMS", "UGSB", "UGTB", "UHBB", "UHHH", "UHMA", "UHMM", "UHPP", "UHSS", "UHWW", "UIAA", "UIBB", "UIII", "UIUU", "ULAA", "ULLI", "ULMM", "ULOO", "ULPB", "ULWC", "UMBB", "UMGG", "UMII", "UMIO", "UMKK", "UMMG", "UMMS", "UMOO", "UNAA", "UNBB", "UNEE", "UNKL", "UNNT", "UNOO", "UNTT", "UNWW", "UOOO", "URKA", "URKK", "URMG", "URML", "URMM", "URMN", "URMO", "URMT", "URRP", "URSS", "URWA", "URWI", "URWW", "USCC", "USCM", "USDA", "USHH", "USNN", "USPP", "USRR", "USSS", "USTR", "UTAA", "UTAK", "UTAM", "UTAT", "UTAV", "UTDD", "UTDK", "UTDL", "UTDT", "UTFA", "UTFF", "UTFN", "UTNN", "UTNU", "UTSA", "UTSB", "UTSK", "UTSS", "UTST", "UTTT", "UUBC", "UUBP", "UUBW", "UUDD", "UUDL", "UUEE", "UUMO", "UUOB", "UUOK", "UUOL", "UUOO", "UUWW", "UUYY", "UWGG", "UWKD", "UWKE", "UWKS", "UWLL", "UWLW", "UWOO", "UWOR", "UWPS", "UWSG", "UWUU", "UWWW", "VAAH", "VAAU", "VABB", "VABJ", "VABO", "VABP", "VABV", "VADU", "VAID", "VAJB", "VAJL", "VAJM", "VAKE", "VAKP", "VANP", "VAOZ", "VAPO", "VAPR", "VARK", "VASD", "VASL", "VASU", "VAUD", "VCBI", "VCRI", "VDPP", "VDSR", "VDSV", "VEAB", "VEAN", "VEAT", "VEBD", "VEBI", "VEBN", "VEBS", "VEBU", "VECC", "VECX", "VEDG", "VEDZ", "VEGK", "VEGT", "VEGY", "VEIM", "VEJH", "VEJR", "VEJS", "VEJT", "VEKO", "VELP", "VELR", "VEMN", "VEMR", "VEPT", "VEPY", "VERC", "VERP", "VERU", "VETJ", "VETZ", "VEZO", "VGEG", "VGHS", "VHHH", "VIAG", "VIAR", "VIBR", "VIBT", "VIBY", "VICG", "VIDN", "VIDP", "VIGG", "VIGR", "VIJO", "VIJP", "VIKG", "VILK", "VIPT", "VISR", "VLLB", "VLLN", "VLPS", "VLSK", "VLVT", "VMMC", "VNKT", "VOAR", "VOBG", "VOBL", "VOBM", "VOBZ", "VOCB", "VOCI", "VOCL", "VOCP", "VOGB", "VOGO", "VOHB", "VOHS", "VOHY", "VOJV", "VOKN", "VOKU", "VOLT", "VOMD", "VOML", "VOMM", "VOMY", "VOND", "VORY", "VOSR", "VOTP", "VOTR", "VOTV", "VOVZ", "VRMG", "VRMH", "VRMM", "VTBD", "VTBO", "VTBS", "VTBU", "VTCC", "VTCH", "VTCL", "VTCN", "VTCP", "VTCT", "VTPB", "VTPH", "VTPM", "VTPO", "VTPP", "VTSB", "VTSC", "VTSE", "VTSF", "VTSG", "VTSM", "VTSP", "VTSR", "VTSS", "VTST", "VTUD", "VTUI", "VTUK", "VTUL", "VTUO", "VTUQ", "VTUU", "VTUV", "VTUW", "VVCI", "VVCR", "VVCT", "VVDN", "VVNB", "VVPB", "VVPQ", "VVTS", "VYMD", "VYNT", "VYYY", "WAAA", "WABB", "WADD", "WADL", "WALL", "WALS", "WAMM", "WAOO", "WAPP", "WAQA", "WAQD", "WAQJ", "WAQQ", "WAQT", "WARR", "WATT", "WBGB", "WBGG", "WBGR", "WBGS", "WBKK", "WBKL", "WBKS", "WBKW", "WBSB", "WIDD", "WIEE", "WIHH", "WIII", "WIMM", "WIPP", "WIPY", "WITT", "WMAP", "WMBT", "WMKA", "WMKB", "WMKC", "WMKE", "WMKI", "WMKJ", "WMKK", "WMKL", "WMKM", "WMKN", "WMKP", "WMPA", "WMSA", "WPDL", "WSAP", "WSSL", "WSSS", "YAMB", "YBAS", "YBBN", "YBCG", "YBCS", "YBHM", "YBLN", "YBMA", "YBRK", "YBRM", "YBTL", "YBWW", "YCFS", "YCIN", "YFRT", "YGEL", "YGLA", "YHID", "YLHI", "YMAV", "YMHB", "YMLT", "YMML", "YPAD", "YPCC", "YPDN", "YPEA", "YPGV", "YPJT", "YPKG", "YPKU", "YPLM", "YPPD", "YPPH", "YPTN", "YPWR", "YPXM", "YSCB", "YSDU", "YSNF", "YSRI", "YSSY", "YSTW", "YWLM", "ZBAA", "ZBAD", "ZBHH", "ZBSJ", "ZBTJ", "ZBYN", "ZGGG", "ZGHA", "ZGKL", "ZGNN", "ZGOW", "ZGSZ", "ZHCC", "ZHHH", "ZJHK", "ZJSY", "ZKPY", "ZKWS", "ZLLL", "ZLXY", "ZMCK", "ZMUB", "ZPPP", "ZSAM", "ZSFZ", "ZSHC", "ZSJN", "ZSNB", "ZSNJ", "ZSOF", "ZSPD", "ZSQD", "ZSSS", "ZUCK", "ZUGY", "ZUUU", "ZWSH", "ZWWW", "ZYCC", "ZYHB", "ZYTL", "ZYTX"], "raw_text": ["TAF AGGA 112310Z 1200/1224 18007KT 9999 FEW020", "TAF AGGC 112310Z 1200/1224 05007KT 9999 FEW020", "TAF AGGH 121110Z 1212/1312 18007KT 9999 FEW015 SCT027 T 26 25 23 27 Q 1009 1007 1006 1008", "TAF AGGK 112310Z 1200/1224 05010KT 9999 FEW020", "TAF AGGL 112310Z 1200/1224 05010KT 9999 FEW020", "TAF AGGM 121110Z 1212/1312 00000KT 9999 FEW015 SCT027 Q 1009 1007 1006 1008", "TAF AGGN 121110Z 1212/1312 VRB03KT 9999 FEW015 SCT027 Q 1009 1007 1006 1008", "TAF AGGR 112310Z 1200/1224 09012KT 9999 FEW020", "TAF ANYN 112152Z 1200/1300 10008KT 9999 FEW020 T 30 29 28 27 Q 1009 1007 1008 1010", "TAF AYPY 120900Z 1212/1312 15012KT 9999 SCT030 FM121800 13010KT 9999 SCT040 FM122200 12006KT 9999 SCT018 SCT130 FM130400 18010KT 9999 -SHRA SCT018 BKN045 PROB30 INTER 1305/1309 5000 TSRA BKN010 FW018CB PROB30 1219/1221 VRB03KT 0700 FG", "TAF BGAA 121159Z 1212/1217 34010KT 9999 FEW020 BKN050 TEMPO 1212/1217 32015KT 3000 -SHSNRA FEW006 BKN020", "TAF BGBW 121112Z 1212/1221 05010KT 9999 SCT035", "TAF BGCO 121159Z 1212/1216 35015KT 8000 -SN SCT012 BKN025 TEMPO 1212/1216 35015G25KT 2000 SN FEW006 BKN012", "TAF BGGH 121112Z 1212/1221 02008KT 9999 FEW005 BKN100", "TAF BGJN 121112Z 1212/1221 VRB05KT 9999 FEW030 BKN060 TEMPO 1214/1221 BKN030", "TAF BGKK 121112Z 1212/1221 04006KT 8000 -SNRA FEW004 SCT012 BKN040 TEMPO 1212/1221 3000 -SN SCT004 BKN012", "TAF BGMQ 121159Z 1212/1218 02008KT 9999 SCT020 BKN120", "TAF BGPT 121159Z 1212/1219 34007KT 9999 SCT090", "TAF BGQQ 121159Z 1212/1219 05005KT 9999 FEW200", "TAF BGSF 121111Z 1212/1224 VRB06KT 9999 SCT050 BKN120 TEMPO 1212/1224 2500-SHSN BKN018", "TAF BGSS 121159Z 1212/1217 35012KT 9999 FEW010 SCT020 BKN090 TEMPO 1212/1217 28012G25KT 4000 -SHSN SCT010 BKN020", "TAF BGTL 121100Z 1211/1317 VRB06KT 9999 SKC QNH2972INS BECMG 1300/1301 12009KT 9999 SKC QNH2980INS TXM06/1215Z TNM15/1302Z", "TAF BGUK 121159Z 1212/1219 04006KT 9999 BKN050", "TAF BGUQ 121159Z 1212/1219 23008KT 9999 BKN045", "TAF BIAR 121045Z 1212/1312 17010KT 9999 FEW035 SCT050 TX05/1214Z TN00/1303Z", "TAF BIBD 121315Z 1214/1216 19010KT 9999 SCT020 BKN030 TEMPO 1214/1216 20017G27KT SHRA BKN015CB", "TAF BIEG 121045Z 1212/1312 20008KT 9999 SCT050 TX07/1214Z TNM02/1306Z TEMPO 1308/1311 -RASN BKN018", "TAF BIGJ 121035Z 1211/1216 20013KT 9999 -SHRA BKN020", "TAF BIHN 121317Z 1214/1220 29007KT 9999 FEW040", "TAF BIHU 121033Z 1211/1216 19010KT 9999 FEW040", "TAF BIIS 121314Z 1214/1218 22008KT 9999 FEW020 SCT030 TEMPO 1214/1218 SHRA BKN020CB", "TAF BIKF 121046Z 1212/1312 21015KT 9999 -SHRA SCT020 BKN035 TX08/1215Z TN04/1221Z TEMPO 1212/1219 19018G28KT SHRA BKN012CB TEMPO 1219/1221 3000 RADZ BR OVC007 BECMG 1305/1307 11010KT", "TAF BIRK 121046Z 1212/1312 20013KT 9999 -SHRA SCT020 BKN035 TX08/1215Z TN02/1222Z TEMPO 1212/1219 20017G27KT SHRA BKN014CB TEMPO 1219/1222 3000 RADZ BR OVC007 BECMG 1221/1223 16008KT BECMG 1306/1308 10010KT", "TAF BIVM 121318Z 1214/1218 23010KT 9999 -SHRA SCT015 BKN030 TEMPO 1214/1218 19017G27KT SHRA BKN010CB", "TAF BKPR 121130Z 1212/1312 VRB04KT 9999 SCT030 SCT070 TEMPO 1302/1307 1500 BR PROB30 1303/1306 0700 BCFG", "TAF CBBC 121240Z 1213/1301 VRB03KT P6SM SKC TEMPO 1213/1218 2SM BR OVC006 FM121800 VRB03KT P6SM FEW030 RMK FCST BASED ON AUTO OBS. NXT FCST BY 121900Z", "TAF CWSA 120740Z 1208/1220 30010G20KT P6SM SCT030 BECMG 1217/1219 23010KT RMK FCST BASED ON AUTO OBS. NXT FCST BY 121400Z", "TAF CWWU 121200Z 1212/1312 22007KT P6SM FEW040 FM121800 VRB05KT P6SM SKC FM130200 19008KT P6SM FEW020 SCT040 FM130700 20010G16KT P6SM FEW015 SCT030 BKN060 RMK NXT FCST BY 121800Z", "TAF CYAH 121040Z 1211/1221 23007KT P6SM SKC PROB30 1211/1213 1SM BR FM121300 21010G20KT P6SM SCT120 RMK FCST BASED ON AUTO OBS. NXT FCST BY 121800Z", "TAF CYAM 120740Z 1208/1220 13008KT P6SM SCT015 OVC030 TEMPO 1208/1210 4SM -SHRA BR BKN008 OVC015 FM121000 13010G20KT 6SM -DZ -RA BR SCT006 OVC015 TEMPO 1210/1216 2 1/2SM -SHRA BR OVC006 BECMG 1212/1214 16012G22KT FM121600 16012G22KT 4SM -SHRA BR BKN006 OVC015 PROB30 1216/1220 2SM SHRA RMK NXT FCST BY 121400Z", "TAF CYAT 120840Z 1209/1219 19007KT P6SM SCT150 FM121500 19012G22KT P6SM BKN030 TEMPO 1215/1219 BKN020 RMK FCST BASED ON AUTO OBS. NXT FCST BY 121500Z", "TAF CYAW 121140Z 1212/1224 00000KT P6SM FEW030 BECMG 1216/1218 22012KT RMK NXT FCST BY 121800Z", "TAF CYAY 120740Z 1208/1220 28007KT P6SM SKC FM121200 26010KT P6SM FEW020 FM121900 23012KT P6SM SCT050 RMK FCST BASED ON AUTO OBS. NXT FCST BY 121400Z", "TAF CYBC 120740Z 1208/1220 VRB03KT P6SM SKC TEMPO 1208/1212 1/2SM FZFG SCT002 BECMG 1212/1214 23012KT RMK FCST BASED ON AUTO OBS. NXT FCST BY 121400Z", "TAF CYBG 121140Z 1212/1312 10008KT P6SM FEW030 SCT240 FM122100 10008KT P6SM SCT080 BKN150 FM130100 10010KT P6SM OVC070 TEMPO 1301/1312 P6SM -SHRA RMK NXT FCST BY 121500Z", "TAF CYBK 121140Z 1212/1224 11028G38KT P6SM -SN OVC012 TEMPO 1212/1215 5SM -RA BR OVC008 BECMG 1212/1214 11025G35KT FM121500 11022G32KT P6SM -RASN OVC012 TEMPO 1215/1221 OVC008 FM122100 10020G30KT P6SM -RA OVC012 TEMPO 1221/1224 5SM -RASN BR OVC008 PROB30 1221/1224 2SM -PL BR OVC006 RMK NXT FCST BY 121800Z", "TAF CYBR 121140Z 1212/1224 28012KT P6SM SCT060 TEMPO 1212/1224 P6SM -SHRA BKN060 BECMG 1214/1216 30020G30KT RMK NXT FCST BY 121800Z", "TAF CYBW 121140Z 1212/1224 VRB03KT P6SM SKC BECMG 1214/1216 32008KT RMK FCST BASED ON AUTO OBS. NXT FCST BY 121800Z", "TAF CYBX 120742Z 1208/1220 31005KT P6SM SCT020 FM121700 23010KT P6SM BKN030 TEMPO 1217/1220 P6SM -RASN OVC015 RMK NXT FCST BY 121400Z", "TAF CYCA 120743Z 1208/1220 31012G22KT P6SM SCT020 BKN025 TEMPO 1208/1212 6SM -SHRASN BR BKN020 FM121200 27012KT P6SM SCT020 TEMPO 1212/1216 BKN020 RMK FCST BASED ON AUTO OBS. NXT FCST BY 121400Z", "TAF CYCB 121240Z 1213/1301 11018KT 5SM -SN BR SCT005 OVC012 TEMPO 1213/1220 1SM -SN BR BKN003 BECMG 1214/1216 08010KT FM122000 03010KT 3SM -SN SCT002 OVC010 TEMPO 1220/1301 1/2SM SN BKN002 BECMG 1222/1224 24012KT RMK NXT FCST BY 121900Z", "TAF CYCO 121240Z 1213/1301 33025G35KT P6SM SCT012 BKN025 TEMPO 1213/1217 4SM -SHSN SCT004 BKN012 FM121700 33020G30KT P6SM BKN025 TEMPO 1217/1301 BKN015 BECMG 1221/1223 32015KT RMK NXT FCST BY 121900Z", "TAF AMD CYCX 121003Z 1210/1221 24005KT P6SM SKC PROB30 1210/1212 1SM BR FM121200 24005KT P6SM FEW240 BECMG 1216/1218 24010KT RMK NXT FCST BY 121500Z", "TAF AMD CYCY 121319Z 1213/1301 29014G24KT P6SM -SN SCT025 BKN040 TEMPO 1213/1222 3SM -SNSG BR OVC020 FM122200 29012KT P6SM BKN030 TEMPO 1222/1301 P6SM -SN BKN020 RMK NXT FCST BY 121900Z", "TAF CYDB 121140Z 1212/1224 31010KT P6SM SCT012 BKN030 TEMPO 1212/1217 4SM -SN BR OVC008 FM121700 31008KT P6SM SCT012 BKN040 TEMPO 1217/1224 5SM -SN BKN012 RMK FCST BASED ON AUTO OBS. NXT FCST BY 121800Z", "TAF CYDF 120740Z 1208/1220 24008KT P6SM BKN030 BKN120 TEMPO 1208/1220 P6SM -SHRA FEW009 BKN020 BKN120 RMK NXT FCST BY 121400Z", "TAF CYDL 121240Z 1213/1224 VRB03KT P6SM SCT020 BKN070 TEMPO 1213/1217 4SM -RA BR BKN020 FM121700 21010G20KT P6SM BKN060 TEMPO 1217/1224 P6SM -RA BECMG 1219/1221 21015G25KT RMK FCST BASED ON AUTO OBS. NXT FCST BY 121800Z", "TAF CYDN 121140Z 1212/1224 28010KT P6SM SCT060 TEMPO 1212/1224 P6SM -SHRA BKN060 BECMG 1214/1216 30015G25KT RMK FCST BASED ON AUTO OBS. NXT FCST BY 121800Z", "TAF CYDP 120940Z 1210/1222 29015KT P6SM SKC BECMG 1212/1214 29010KT RMK NXT FCST BY 121400Z", "TAF CYDQ 121240Z 1213/1301 VRB03KT P6SM SCT140 BECMG 1214/1216 27010KT RMK FCST BASED ON AUTO OBS. NXT FCST BY 121900Z", "TAF CYEG 121140Z 1212/1312 29006KT P6SM FEW120 BECMG 1214/1216 30012KT FM121800 30015G25KT P6SM SKC BECMG 1301/1303 30008KT BECMG 1304/1306 VRB03KT RMK NXT FCST BY 121500Z", "TAF AMD CYEK 121317Z 1213/1224 14025G35KT 1 1/2SM -DZ BR OVC008 TEMPO 1213/1222 3SM -RA BR OVC012 FM122200 10020G30KT 3SM -SHRA BR SCT005 BKN010 OVC060 PROB40 1222/1224 1SM -RA BR OVC005 RMK WIND SENSOR INOP. NXT FCST BY 121800Z", "TAF CYEN 121140Z 1212/1224 30015G25KT P6SM SCT040 TEMPO 1212/1219 P6SM -SHRA BKN040 BECMG 1214/1216 32028G40KT FM121900 32030G40KT P6SM SKC RMK FCST BASED ON AUTO OBS. NXT FCST BY 121800Z", "TAF CYER 120840Z 1209/1219 17007KT P6SM SCT240 BECMG 1216/1218 25007KT SCT030 RMK FCST BASED ON AUTO OBS. NXT FCST BY 121500Z", "TAF CYEU 121040Z 1211/1223 10010KT P6SM FEW020 FEW090 FM122100 12008KT P6SM BKN150 TEMPO 1221/1223 BKN100 RMK ADVISORY OFFSITE. NXT FCST BY 121800Z", "TAF CYEV 121240Z 1213/1301 12006KT P6SM BKN040 TEMPO 1213/1218 SCT040 FM121800 19006KT P6SM SCT040 RMK NXT FCST BY 121900Z", "TAF CYFB 121140Z 1212/1312 31005KT P6SM FEW015 BKN030 TEMPO 1212/1303 5SM -SN OVC020 BECMG 1213/1215 33010KT FM130400 VRB03KT P6SM SCT015 RMK NXT FCST BY 121800Z", "TAF CYFC 121140Z 1212/1224 VRB03KT 1/2SM FG BKN002 BECMG 1212/1213 P6SM NSW SKC FM121500 21005KT P6SM SKC BECMG 1216/1218 22010KT FM122300 18007KT P6SM SCT200 RMK FCST BASED ON AUTO OBS. NXT FCST BY 121800Z", "TAF CYFS 121140Z 1212/1224 30006KT P6SM SCT090 SCT250 BECMG 1212/1214 VRB03KT BECMG 1219/1221 10005KT RMK NXT FCST BY 121800Z", "TAF CYGK 121142Z 1212/1224 19010KT P6SM BKN140 BKN220 FM121400 19010G20KT P6SM BKN100 OVC180 BECMG 1218/1220 19015G25KT RMK NXT FCST BY 121400Z", "TAF CYGL 121141Z 1212/1312 17010KT P6SM SCT120 BECMG 1212/1214 17010G20KT FM121700 16012G22KT P6SM BKN030 BKN120 FM130500 13012G22KT P6SM -RA OVC020 RMK NXT FCST BY 121800Z", "TAF AMD CYGP 121109Z 1211/1220 VRB03KT P6SM FEW180 BECMG 1211/1213 26005KT BECMG 1216/1218 26010KT RMK NXT FCST BY 121400Z", "TAF AMD CYGQ 121121Z 1211/1220 16015G25KT 4SM -SHRA BR OVC007 TEMPO 1211/1214 P6SM NSW OVC030 FM121400 18012G22KT 2SM -RA BR OVC006 TEMPO 1214/1218 6SM -RA BR OVC012 PROB30 1214/1217 1SM +TSRA BR BKN003 OVC012CB FM121800 31010G20KT 3SM -SHRA BR BKN009 OVC040 TEMPO 1218/1220 P6SM NSW OVC040 RMK FCST BASED ON AUTO OBS. NXT FCST BY 121400Z", "TAF CYGR 121040Z 1211/1223 24010KT P6SM FEW120 BECMG 1219/1221 21020KT RMK NXT FCST BY 121400Z", "TAF CYGT 121240Z 1213/1220 25005KT P6SM FEW007 TEMPO 1213/1216 BKN007 FM121600 VRB03KT P6SM OVC012 TEMPO 1216/1220 P6SM -SN OVC008 BECMG 1217/1219 19008KT RMK NXT FCST BY 131100Z", "TAF AMD CYGV 121248Z 1212/1220 09007KT P6SM SCT015 BKN080 TEMPO 1212/1215 BKN015 BKN080 FM121500 25010KT P6SM SCT015 BKN050 BECMG 1217/1219 SCT050 RMK FCST BASED ON AUTO OBS. NXT FCST BY 121400Z", "TAF CYGW 121141Z 1212/1224 13010G20KT P6SM SCT100 FM121700 15012KT P6SM BKN030 RMK FCST BASED ON AUTO OBS. NXT FCST BY 121800Z", "TAF CYGX 121240Z 1213/1301 32012G22KT P6SM -RA OVC020 TEMPO 1213/1216 P6SM NSW OVC030 FM121600 30018G28KT 5SM -RA BR BKN012 OVC030 TEMPO 1216/1301 P6SM -RA SCT012 OVC030 PROB40 1216/1219 OVC006 RMK NXT FCST BY 121900Z", "TAF CYHD 120740Z 1208/1220 28012G22KT P6SM SCT020 OVC040 TEMPO 1208/1211 P6SM -SHRA BKN020 OVC040 FM121100 26010G20KT 6SM -SHRA BR OVC020 TEMPO 1211/1216 P6SM NSW OVC030 FM121600 29012G22KT P6SM BKN030 TEMPO 1216/1220 P6SM -SHRA BKN020 RMK FCST BASED ON AUTO OBS. NXT FCST BY 121400Z", "TAF CYHK 121140Z 1212/1224 13017KT P6SM FEW012 BKN120 TEMPO 1212/1217 BKN012 BKN090 BECMG 1213/1215 14020G30KT FM121700 14020G30KT P6SM BKN025 BKN100 TEMPO 1217/1219 P6SM -SN BKN020 OVC050 FM121900 14018G28KT 2SM -SN OVC006 TEMPO 1219/1224 6SM -SN SCT006 OVC015 RMK FCST BASED ON AUTO OBS. NXT FCST BY 121800Z", "TAF CYHM 121142Z 1212/1312 19010KT P6SM BKN090 OVC230 BECMG 1213/1215 20012G22KT FM121700 20018G30KT P6SM FEW050 OVC120 FM130200 19015G25KT P6SM -SHRA OVC050 FM130500 19020G35KT P6SM -SHRA OVC030 TEMPO 1305/1310 2SM SHRA BR SCT007 OVC015 PROB30 1305/1310 VRB20G35KT 1SM TSRA BR OVC007CB FM131000 18020G30KT 2SM -SHRA BR BKN007 OVC015 BECMG 1310/1312 25010G20KT RMK NXT FCST BY 121800Z", "TAF CYHU 121140Z 1212/1312 VRB03KT P6SM BKN070 FM121400 18012KT P6SM FEW070 SCT180 FM121800 18010G20KT P6SM BKN100 TEMPO 1222/1304 P6SM -SHRA BKN080 BECMG 1222/1224 17012KT FM130400 17012KT P6SM BKN120 BECMG 1310/1312 17010G20KT SCT120 RMK FCST BASED ON AUTO OBS. NXT FCST BY 121800Z", "TAF CYHY 121140Z 1212/1224 30020G30KT P6SM SCT030 SCT220 BECMG 1216/1218 30012G22KT BECMG 1219/1221 31010KT FM122200 31010KT P6SM SCT070 RMK NXT FCST BY 121800Z", "TAF CYHZ 121140Z 1212/1312 23007KT P6SM FEW240 FM122000 21010KT P6SM FEW030 PROB30 1306/1312 1SM BR BKN003 RMK NXT FCST BY 121500Z", "TAF CYIO 121240Z 1213/1301 VRB03KT P6SM -SN SCT012 OVC025 TEMPO 1213/1218 5SM -SHSN BKN012 FM121800 VRB03KT P6SM BKN025 TEMPO 1218/1301 P6SM -SN OVC020 RMK FCST BASED ON AUTO OBS. NXT FCST BY 121900Z", "TAF CYIV 121240Z 1213/1301 28015G25KT P6SM SCT015 BKN030 TEMPO 1213/1301 P6SM -SHRA BKN015 OVC030 RMK FCST BASED ON AUTO OBS. NXT FCST BY 121900Z", "TAF CYJT 121140Z 1212/1312 26005KT P6SM SCT040 BKN120 FM122200 24012KT P6SM FEW010 FEW060 FM130000 23008KT P6SM FEW010 BECMG 1301/1303 17006KT BECMG 1304/1306 08005KT RMK NXT FCST BY 121800Z", "TAF CYKA 121240Z 1213/1301 VRB03KT P6SM FEW080 FM121800 25006KT P6SM SKC RMK NXT FCST BY 121900Z", "TAF CYKF 120740Z 1208/1220 18010KT P6SM OVC080 TEMPO 1208/1211 P6SM -SHRA BECMG 1212/1214 20015G25KT FM121900 19018G28KT P6SM BKN090 RMK FCST BASED ON AUTO OBS. NXT FCST BY 121400Z", "TAF CYKJ 121240Z 1213/1224 31016G32KT P6SM SCT020 OVC025 TEMPO 1213/1216 3SM -SHSN OVC020 PROB30 1213/1216 2SM -SHSN FM121600 31020G35KT P6SM BKN030 TEMPO 1216/1224 5SM -SHSN RMK FCST BASED ON AUTO OBS. NXT FCST BY 121900Z", "TAF AMD CYKL 120947Z 1209/1220 13008KT P6SM SCT005 OVC012 TEMPO 1209/1220 2SM -SN BR BKN005 OVC012 PROB30 1210/1214 2SM -FZDZ BR RMK FCST BASED ON AUTO OBS. NXT FCST BY 121400Z", "TAF CYLD 121140Z 1212/1224 18012G22KT 5SM -SHRA BR SCT008 OVC012 TEMPO 1212/1217 P6SM NSW SCT012 BKN030 BECMG 1212/1214 17015G30KT FM121700 17015G30KT 5SM -SHRA BR BKN008 OVC012 TEMPO 1217/1220 P6SM NSW SCT010 OVC020 FM122000 17015G30KT 4SM SHRA BR BKN008 OVC020 TEMPO 1220/1224 P6SM -RA SCT010 OVC020 PROB30 1220/1223 VRB20G40KT 2SM TSRA BR BKN006 OVC012CB RMK NXT FCST BY 121400Z", "TAF CYLL 121140Z 1212/1224 30018G28KT P6SM FEW090 BECMG 1213/1215 32020G35KT FM121800 32025G35KT P6SM SKC RMK FCST BASED ON AUTO OBS. NXT FCST BY 121800Z", "TAF CYLT 121140Z 1212/1224 VRB03KT P6SM BKN025 OVC040 TEMPO 1212/1217 5SM -SN BKN020 OVC040 FM121700 20005KT P6SM FEW025 BKN040 BECMG 1218/1220 FEW040 RMK NXT FCST BY 121800Z", "TAF CYLW 121240Z 1213/1301 VRB03KT P6SM SKC BECMG 1216/1218 33006KT RMK FCST BASED ON AUTO OBS. NXT FCST BY 121900Z", "TAF CYMA 121140Z 1212/1224 VRB03KT P6SM -SN SCT020 OVC040 TEMPO 1212/1214 2SM -SHSN SCT008 BKN020 FM121400 VRB03KT P6SM SCT012 SCT060 BKN200 TEMPO 1214/1222 BKN012 FM122200 06006KT P6SM -SN SCT015 BKN030 TEMPO 1222/1224 3SM -SN BKN012 RMK NXT FCST BY 121800Z", "TAF CYMH 120902Z 1209/1221 28008KT P6SM SKC RMK FCST BASED ON AUTO OBS. NXT FCST BY 121400Z", "TAF CYMJ 121140Z 1212/1224 29022G32KT P6SM FEW060 BECMG 1213/1215 30025G35KT BECMG 1216/1218 30025G40KT RMK NXT FCST BY 121800Z", "TAF CYMM 121240Z 1213/1301 27012KT P6SM SKC BECMG 1215/1217 30015G25KT RMK FCST BASED ON AUTO OBS. NXT FCST BY 121900Z", "TAF CYMO 121143Z 1212/1224 18010KT P6SM SKC FM121400 19015G25KT P6SM BKN040 BECMG 1222/1224 19012KT RMK FCST BASED ON AUTO OBS. NXT FCST BY 121800Z", "TAF CYMT 121143Z 1212/1224 16005KT P6SM SKC BECMG 1212/1214 18012G22KT FM121800 18015G25KT P6SM BKN060 FM122000 18015G25KT 4SM -SHRA BR SCT008 OVC020 RMK FCST BASED ON AUTO OBS. NXT FCST BY 121800Z", "TAF CYMX 121141Z 1212/1312 VRB03KT P6SM FEW050 BKN080 FM121400 VRB03KT P6SM FEW060 SCT180 FM121800 19010G20KT P6SM BKN100 TEMPO 1222/1304 P6SM -SHRA BKN080 BECMG 1222/1224 16005KT FM130400 15005KT P6SM BKN120 BECMG 1310/1312 SCT120 RMK NXT FCST BY 121800Z", "TAF CYNA 120740Z 1208/1220 VRB03KT P6SM FEW040 TEMPO 1208/1212 P6SM -RA BKN040 BECMG 1208/1210 09007KT FM121600 20010KT P6SM BKN050 BECMG 1218/1220 SCT050 RMK FCST BASED ON AUTO OBS. NXT FCST BY 121400Z", "TAF CYND 121240Z 1213/1301 09005KT P6SM BKN080 BECMG 1215/1217 17010G20KT FM121900 17010G20KT P6SM BKN060 TEMPO 1219/1224 P6SM -SHRA FM130000 12007KT P6SM BKN080 RMK NXT FCST BY 121800Z", "TAF CYNE 121240Z 1213/1301 30012G22KT P6SM SCT020 OVC040 TEMPO 1213/1301 P6SM -SHRA BKN020 OVC040 BECMG 1214/1216 32018G28KT RMK FCST BASED ON AUTO OBS. NXT FCST BY 121900Z", "TAF CYOD 121140Z 1212/1312 30010G20KT P6SM SKC BECMG 1216/1218 31020G30KT FM130100 32012KT P6SM FEW220 BECMG 1308/1310 30005KT RMK NXT FCST BY 121500Z", "TAF CYOJ 121240Z 1213/1301 30008KT P6SM SKC BECMG 1218/1220 VRB03KT RMK FCST BASED ON AUTO OBS. NXT FCST BY 121900Z", "TAF CYOO 120740Z 1208/1220 VRB03KT P6SM SCT080 OVC180 FM121000 18006KT P6SM BKN080 OVC160 BECMG 1213/1215 19012G22KT RMK FCST BASED ON AUTO OBS. NXT FCST BY 121400Z", "TAF CYOW 121143Z 1212/1312 17005KT P6SM SCT180 FM121400 20012G22KT P6SM BKN100 TEMPO 1218/1312 P6SM -SHRA BKN080 BECMG 1222/1224 15008KT RMK NXT FCST BY 121500Z", "TAF CYOY 121140Z 1212/1224 VRB03KT P6SM FEW015 FEW240 FM121500 23006KT P6SM FEW150 BKN220 FM122100 VRB03KT P6SM BKN120 RMK NXT FCST BY 121800Z", "TAF CYPA 121240Z 1213/1301 32018G28KT P6SM OVC040 TEMPO 1213/1216 SCT040 FM121600 32020G30KT P6SM SKC RMK NXT FCST BY 121900Z", "TAF CYPE 121240Z 1213/1301 33005KT P6SM SCT090 TEMPO 1213/1215 BKN090 BECMG 1213/1215 33010KT FM121800 27012KT P6SM SKC RMK NXT FCST BY 121900Z", "TAF AMD CYPG 121213Z 1212/1224 30010G20KT P6SM SCT040 BKN070 TEMPO 1212/1215 P6SM -SHRA OVC040 BECMG 1213/1215 32018G28KT FM121500 32018G28KT P6SM BKN040 BKN150 TEMPO 1215/1224 P6SM -SHRA RMK NXT FCST BY 121800Z", "TAF CYPH 121141Z 1212/1224 11018G28KT P6SM SCT015 BKN160 TEMPO 1212/1215 BKN015 OVC160 BECMG 1212/1214 11020G30KT FM121500 11022G32KT P6SM BKN015 TEMPO 1215/1220 SCT015 FM122000 12020G30KT P6SM BKN025 OVC080 TEMPO 1220/1224 P6SM -SHRA BKN020 RMK FCST BASED ON AUTO OBS. NXT FCST BY 121800Z", "TAF AMD CYPL 121004Z 1210/1220 25010G20KT 5SM -SHRA BR SCT006 OVC015 TEMPO 1210/1216 P6SM NSW OVC030 PROB30 1210/1216 3SM -RA BR BKN006 OVC015 FM121600 29012G22KT P6SM -SHRA BKN020 BKN120 RMK FCST BASED ON AUTO OBS. NXT FCST BY 121400Z", "TAF CYPQ 120940Z 1210/1222 18005KT P6SM FEW080 OVC150 FM121200 18006KT P6SM BKN080 OVC150 BECMG 1213/1215 19012G22KT FM122000 18015G30KT P6SM SCT050 BKN120 RMK FCST BASED ON AUTO OBS. NXT FCST BY 121400Z", "TAF CYPR 121240Z 1213/1301 10005KT P6SM SCT060 BKN080 TEMPO 1213/1301 SCT080 BECMG 1216/1218 16006KT RMK FCST BASED ON AUTO OBS. NXT FCST BY 121900Z", "TAF CYPX 121140Z 1212/1224 08018G28KT P6SM SKC BECMG 1215/1217 10025G35KT RMK FCST BASED ON AUTO OBS. NXT FCST BY 121800Z", "TAF CYPY 121140Z 1212/1224 30015G25KT P6SM OVC040 FM121500 30018G28KT P6SM SCT040 RMK FCST BASED ON AUTO OBS. NXT FCST BY 121800Z", "TAF CYQA 121142Z 1212/1224 16006KT P6SM -RA FEW008 SCT020 OVC040 TEMPO 1212/1214 5SM -RA BR BKN008 OVC020 FM121400 16010KT P6SM OVC050 FM122000 16015G25KT P6SM FEW060 BKN100 RMK FCST BASED ON AUTO OBS. NXT FCST BY 121400Z", "TAF CYQB 121142Z 1212/1312 VRB03KT P6SM FEW004 TEMPO 1212/1214 2 1/2SM BR SCT004 PROB40 1212/1214 1/2SM FZFG BKN002 FM121400 24010KT P6SM SCT015 TEMPO 1214/1216 BKN015 FM121600 26010KT P6SM FEW060 BKN180 FM122200 05007KT P6SM -SHRA SCT080 BKN120 FM130500 05005KT P6SM SCT120 RMK NXT FCST BY 121800Z", "TAF CYQD 121240Z 1213/1301 30022G32KT P6SM BKN040 RMK FCST BASED ON AUTO OBS. NXT FCST BY 121900Z", "TAF CYQF 121140Z 1212/1224 30010KT P6SM SCT090 TEMPO 1212/1214 BKN090 FM121600 31012G22KT P6SM SKC RMK NXT FCST BY 121800Z", "TAF CYQG 121142Z 1212/1312 20012G22KT P6SM SCT090 OVC140 BECMG 1215/1217 20017G27KT FM121900 19018G28KT P6SM BKN080 FM122300 22020G35KT P6SM -SHRA OVC050 FM130000 22020G35KT P6SM -SHRA OVC030 TEMPO 1300/1304 3SM SHRA BR SCT008 OVC020 PROB30 1300/1304 VRB20G35KT 1SM TSRA BR OVC008CB FM130400 29010G20KT P6SM BKN010 BKN030 BECMG 1304/1306 30010KT BECMG 1309/1311 24008KT RMK FCST BASED ON AUTO OBS. NXT FCST BY 121800Z", "TAF CYQH 121140Z 1212/1224 VRB03KT P6SM SCT060 BKN120 TEMPO 1212/1220 P6SM -RA BKN040 BKN100 BECMG 1213/1215 24006KT FM122000 12008KT P6SM BKN060 TEMPO 1220/1224 5SM -RA BR BKN050 RMK NXT FCST BY 121800Z", "TAF CYQI 121140Z 1212/1224 VRB03KT P6SM SKC TEMPO 1212/1213 2SM BR FEW008 BECMG 1213/1215 23010KT RMK NXT FCST BY 121800Z", "TAF CYQK 120740Z 1208/1220 28007KT P6SM SCT020 OVC030 TEMPO 1208/1210 BKN020 OVC030 FM121000 27010G20KT P6SM -SHRA OVC020 TEMPO 1210/1218 P6SM NSW OVC030 FM121800 29012G22KT P6SM -SHRA BKN030 RMK NXT FCST BY 121400Z", "TAF CYQL 121140Z 1212/1224 26008KT P6SM BKN070 FM121800 31010KT P6SM SKC RMK FCST BASED ON AUTO OBS. NXT FCST BY 121800Z", "TAF CYQM 121140Z 1212/1312 23008KT P6SM FEW220 BECMG 1214/1216 21010G20KT BECMG 1221/1223 21008KT FM130500 20005KT P6SM BKN180 RMK NXT FCST BY 121800Z", "TAF CYQQ 121140Z 1212/1312 VRB03KT P6SM SKC BECMG 1217/1219 02005KT BECMG 1223/1301 VRB03KT RMK NXT FCST BY 121800Z", "TAF CYQR 121140Z 1212/1312 28015G25KT P6SM BKN060 OVC110 TEMPO 1212/1216 SCT060 BKN110 BECMG 1214/1216 32030G40KT FM121600 32030G40KT P6SM SKC BECMG 1301/1303 32020G30KT RMK NXT FCST BY 121800Z", "TAF AMD CYQT 121143Z 1211/1220 23010G20KT 2SM TSRA BR BKN008 OVC040CB TEMPO 1211/1212 P6SM -SHRA BKN040 FM121215 21010G20KT 4SM SHRA BR OVC020 TEMPO 1212/1217 P6SM -SHRA OVC030 PROB30 1214/1217 1SM TSRA BR OVC008CB FM121700 28012G22KT P6SM OVC030 TEMPO 1217/1220 OVC020 RMK NXT FCST BY 121400Z", "TAF CYQU 121240Z 1213/1301 24005KT P6SM SCT140 TEMPO 1213/1216 BKN140 BECMG 1214/1216 27012KT FM121800 27015KT P6SM SKC RMK NXT FCST BY 121900Z", "TAF CYQV 121140Z 1212/1224 28010G20KT P6SM SCT080 BKN140 TEMPO 1212/1215 P6SM -SHRA BKN080 OVC140 BECMG 1213/1215 32020G35KT FM121500 32020G35KT P6SM BKN060 TEMPO 1215/1224 SCT060 RMK FCST BASED ON AUTO OBS. NXT FCST BY 121800Z", "TAF CYQW 121140Z 1212/1224 30020G30KT P6SM SKC BECMG 1215/1217 30028G38KT RMK FCST BASED ON AUTO OBS. NXT FCST BY 121800Z", "TAF AMD CYQX 121303Z 1213/1312 35013KT P6SM BKN015 TEMPO 1213/1215 SCT030 FM121500 31010KT P6SM BKN040 FM122200 22008KT P6SM FEW010 BKN050 FM130600 24008KT P6SM SCT060 RMK NXT FCST BY 121800Z", "TAF CYQY 121140Z 1212/1224 24008KT P6SM FEW210 FM121500 25010KT P6SM SKC BECMG 1222/1224 21007KT RMK NXT FCST BY 121800Z", "TAF CYQZ 121140Z 1212/1224 VRB03KT P6SM SCT040 SCT100 TEMPO 1212/1217 1/2SM FG FM121700 VRB03KT P6SM SCT010 SCT080 BECMG 1219/1221 12008KT SCT030 SCT080 RMK FCST BASED ON AUTO OBS. NXT FCST BY 121900Z", "TAF AMD CYRB 121224Z 1212/1312 12012KT P6SM FEW010 OVC130 TEMPO 1212/1215 BKN007 FM121500 13012KT P6SM BKN015 BKN160 TEMPO 1215/1224 5SM -SN BR BKN008 OVC120 BECMG 1217/1219 15015G25KT FM130000 14017G27KT P6SM -SN SCT006 OVC012 TEMPO 1300/1306 2SM -SN BLSN OVC006 FM130600 16015KT 1SM -SN BKN003 OVC010 RMK NXT FCST BY 121800Z", "TAF CYRJ 121140Z 1212/1224 23015KT P6SM FEW030 FM122000 22010KT P6SM OVC120 FM122200 20008KT P6SM -RA OVC040 RMK NXT FCST BY 121400Z", "TAF CYRL 121040Z 1211/1223 27010KT P6SM OVC030 TEMPO 1211/1223 5SM -SHRA BR OVC020 BECMG 1211/1213 29010G20KT RMK NXT FCST BY 121400Z", "TAF AMD CYRQ 121241Z 1212/1220 VRB03KT P6SM FEW007 BKN080 TEMPO 1212/1214 3SM BR BKN007 FM121400 22008KT P6SM SCT012 SCT070 TEMPO 1214/1216 BKN012 BKN070 FM121600 22010KT P6SM BKN160 RMK FCST BASED ON AUTO OBS. NXT FCST BY 121400Z", "TAF CYRT 121140Z 1212/1224 12027G37KT P6SM OVC012 TEMPO 1212/1224 P6SM -RA RMK NXT FCST BY 121800Z", "TAF CYSB 120742Z 1208/1220 18012KT P6SM FEW005 BKN040 TEMPO 1208/1210 5SM -RA BR BKN005 OVC040 FM121000 19012G22KT 2SM -RA BR OVC004 TEMPO 1210/1220 6SM -RA BR SCT004 OVC020 BECMG 1214/1216 18018G28KT RMK NXT FCST BY 121400Z", "TAF CYSC 121040Z 1211/1223 VRB03KT P6SM SKC BECMG 1215/1217 21010KT RMK FCST BASED ON AUTO OBS. NXT FCST BY 121800Z", "TAF CYSF 121140Z 1212/1224 28015G25KT P6SM SCT020 BKN030 TEMPO 1212/1216 5SM -SHSNRA OVC020 PROB30 1212/1216 2SM -SHSN FM121600 28020G35KT P6SM BKN030 TEMPO 1216/1224 3SM -SHSN RMK FCST BASED ON AUTO OBS. NXT FCST BY 121800Z", "TAF CYSJ 121140Z 1212/1224 VRB03KT 1/2SM FZFG SKC BECMG 1212/1213 P6SM NSW BECMG 1213/1215 22010KT FM121700 21012KT P6SM SKC RMK NXT FCST BY 121800Z", "TAF CYSM 121140Z 1212/1224 29016G26KT P6SM -SN SCT010 OVC030 TEMPO 1212/1215 3SM -SHSN OVC010 FM121500 30020G35KT P6SM BKN030 TEMPO 1215/1218 P6SM -SHSN FM121800 31018G28KT P6SM BKN040 TEMPO 1218/1224 SCT040 RMK NXT FCST BY 121800Z", "TAF CYSN 121240Z 1213/1301 18012KT P6SM SCT090 BKN140 OVC250 BECMG 1215/1217 19015G25KT FM122200 18015G30KT P6SM BKN100 RMK NXT FCST BY 122000Z", "TAF CYTE 121240Z 1213/1301 06005KT P6SM BKN025 TEMPO 1213/1301 P6SM -SN BKN020 BECMG 1213/1215 09010KT RMK FCST BASED ON AUTO OBS. NXT FCST BY 121900Z", "TAF CYTH 121240Z 1213/1301 30010G20KT 2 1/2SM -RASN BR BKN004 OVC010 TEMPO 1213/1216 P6SM -RA SCT004 OVC010 FM121600 30015G25KT P6SM -RA FEW008 BKN015 OVC030 TEMPO 1216/1301 P6SM NSW SCT015 OVC030 BECMG 1217/1219 30028G38KT RMK NXT FCST BY 121900Z", "TAF AMD CYTL 121138Z 1211/1220 20005KT P6SM BKN030 OVC100 TEMPO 1211/1217 P6SM -SHRA BKN020 OVC100 BECMG 1214/1216 24012KT FM121700 24012KT P6SM BKN040 BECMG 1219/1220 27010G20KT RMK FCST BASED ON AUTO OBS. NXT FCST BY 121400Z", "TAF CYTR 121140Z 1212/1312 18005KT P6SM BKN080 BKN120 TEMPO 1212/1214 P6SM -SHRA FM121400 18010KT P6SM BKN080 BKN120 BECMG 1215/1217 18010G20KT FM121900 18010G20KT P6SM OVC080 BECMG 1300/1302 16012G22KT FM130500 16012G22KT P6SM -SHRA FEW050 BKN090 BKN240 FM131000 16012G22KT 4SM -SHRA BR BKN015 OVC050 RMK NXT FCST BY 121800Z", "TAF CYTS 120740Z 1208/1220 17010KT P6SM SKC BECMG 1208/1210 BKN040 FM121200 17012KT P6SM OVC030 TEMPO 1212/1220 OVC020 BECMG 1212/1214 18015G25KT RMK NXT FCST BY 121400Z", "TAF CYTZ 120740Z 1208/1308 20008KT P6SM SCT080 BKN180 TEMPO 1208/1211 P6SM -SHRA BKN080 OVC180 FM121500 16010G20KT P6SM BKN080 OVC140 FM130300 18015G25KT P6SM -SHRA OVC030 RMK FCST BASED ON AUTO OBS. NXT FCST BY 121400Z", "TAF CYUL 121140Z 1212/1312 13005KT P6SM BKN080 BECMG 1212/1214 17012KT FM121800 16010G20KT P6SM BKN100 TEMPO 1222/1304 P6SM -SHRA BECMG 1222/1224 16010KT FM130400 15012KT P6SM BKN120 BECMG 1310/1312 14012G22KT SCT120 RMK NXT FCST BY 121500Z", "TAF CYUX 121240Z 1213/1301 28007KT P6SM BKN012 TEMPO 1213/1216 P6SM -SN OVC008 FM121600 27005KT P6SM OVC015 TEMPO 1216/1301 P6SM -SN RMK FCST BASED ON AUTO OBS. NXT FCST BY 121900Z", "TAF CYUY 121142Z 1212/1224 18012KT 5SM -SHRA BR SCT008 OVC020 TEMPO 1212/1214 P6SM NSW SCT025 BKN100 BECMG 1212/1214 20015G25KT FM121400 20015G25KT 5SM -SHRA SCT008 OVC020 TEMPO 1214/1216 P6SM NSW OVC025 PROB30 1214/1216 OVC008 FM121600 20015G30KT 5SM -SHRA SCT008 OVC020 TEMPO 1216/1224 P6SM NSW OVC025 PROB30 1216/1224 OVC008 RMK NXT FCST BY 121800Z", "TAF CYVC 121240Z 1213/1301 32020G30KT P6SM BKN040 TEMPO 1213/1301 SCT040 RMK NXT FCST BY 121900Z", "TAF CYVM 121240Z 1213/1301 29012KT P6SM FEW020 BKN060 TEMPO 1213/1215 P6SM -SHSN OVC040 FM121500 30012KT P6SM SCT030 TEMPO 1215/1301 BKN025 BECMG 1218/1220 30015KT RMK FCST BASED ON AUTO OBS. NXT FCST BY 121900Z", "TAF CYVO 121140Z 1212/1224 17008KT P6SM SCT070 TEMPO 1212/1214 OVC020 BECMG 1212/1214 18015G25KT FM121400 18015G25KT P6SM SCT015 OVC030 TEMPO 1214/1219 5SM -SHRA OVC015 FM121900 18015G25KT 4SM -SHRA SCT010 OVC020 BECMG 1221/1223 17012KT RMK NXT FCST BY 121800Z", "TAF CYVP 121141Z 1212/1224 VRB03KT P6SM BKN030 TEMPO 1212/1216 6SM -SN BKN020 FM121600 11005KT P6SM SCT020 BECMG 1219/1221 08008KT RMK NXT FCST BY 121800Z", "TAF CYVQ 121140Z 1212/1224 33005KT P6SM SCT060 TEMPO 1212/1215 2SM BR BKN060 FM121500 VRB03KT P6SM BKN060 BECMG 1221/1223 14008KT RMK NXT FCST BY 121800Z", "TAF CYVR 121140Z 1212/1318 VRB03KT P6SM SKC FM121600 30008KT P6SM FEW200 FM122200 29010KT P6SM SKC BECMG 1304/1306 VRB03KT FM130800 10005KT P6SM SKC RMK NXT FCST BY 121500Z", "TAF CYVV 121040Z 1211/1223 18010G20KT P6SM -RA SCT008 OVC025 TEMPO 1211/1215 3SM RA BR BKN008 OVC020 BECMG 1212/1214 20015G30KT FM121600 20015G30KT P6SM BKN080 OVC120 RMK NXT FCST BY 121400Z", "TAF CYWA 112340Z 1200/1224 VRB03KT P6SM SKC FM120300 VRB03KT P6SM SCT250 PROB30 1204/1210 3/4SM BR FM121000 14005KT P6SM SCT070 BKN130 OVC250 FM121400 14008KT P6SM -SHRA BKN060 OVC080 BECMG 1216/1218 15010G20KT RMK NXT FCST BY 120600Z", "TAF CYWE 121240Z 1213/1301 32015G35KT P6SM BKN025 TEMPO 1213/1218 5SM -SN BKN020 FM121800 32010G30KT P6SM SCT003 TEMPO 1218/1221 BKN002 FM122100 32010G25KT P6SM SCT003 RMK FCST BASED ON AUTO OBS. NXT FCST BY 121900Z", "TAF CYWG 121140Z 1212/1312 27008KT P6SM SCT040 TEMPO 1212/1216 BKN040 BECMG 1214/1216 32018G28KT FM121600 32018G28KT P6SM BKN040 TEMPO 1216/1222 P6SM -SHRA FM122200 33020G30KT P6SM SCT040 FM130200 32012G22KT P6SM BKN040 RMK NXT FCST BY 121800Z", "TAF AMD CYWK 121130Z 1211/1220 19006KT 4SM -RA BR BKN007 OVC015 TEMPO 1211/1220 P6SM NSW SCT009 OVC015 BECMG 1214/1216 25010KT RMK FCST BASED ON AUTO OBS. NXT FCST BY 121400Z", "TAF CYWL 121240Z 1213/1301 VRB03KT P6SM SKC PROB30 1213/1217 1/2SM FG FM121700 12005KT P6SM SCT012 SCT050 BECMG 1219/1221 10006KT SCT060 RMK NXT FCST BY 121900Z", "TAF CYXC 121240Z 1213/1301 VRB03KT P6SM SKC FM121800 05006KT P6SM FEW080 RMK NXT FCST BY 121900Z", "TAF AMD CYXE 121305Z 1213/1312 31012G30KT P6SM SKC BECMG 1214/1216 30028G38KT BECMG 1302/1304 32015G25KT RMK NXT FCST BY 121800Z", "TAF CYXH 121140Z 1212/1224 27010KT P6SM BKN100 BECMG 1214/1216 30015G25KT FM121600 30015G25KT P6SM SKC RMK FCST BASED ON AUTO OBS. NXT FCST BY 121800Z", "TAF CYXJ 121240Z 1213/1301 VRB03KT P6SM SCT130 BECMG 1214/1216 25012KT RMK NXT FCST BY 121900Z", "TAF AMD CYXL 120822Z 1208/1220 26008G18KT 5SM -SHRA BR OVC020 TEMPO 1208/1217 P6SM NSW OVC030 FM121700 30012G22KT P6SM BKN030 TEMPO 1217/1220 P6SM -SHRA BKN020 RMK NXT FCST BY 121400Z", "TAF CYXP 121240Z 1213/1222 VRB03KT P6SM SCT030 TEMPO 1213/1216 BKN030 RMK NXT FCST BY 121900Z", "TAF CYXR 121140Z 1212/1224 13007KT P6SM SCT008 OVC015 TEMPO 1212/1217 4SM -SHRA BR OVC008 BECMG 1212/1214 18015G25KT FM121700 18015G30KT P6SM OVC030 TEMPO 1217/1224 5SM -SHRA BR OVC020 BECMG 1222/1224 15012KT RMK FCST BASED ON AUTO OBS. NXT FCST BY 121800Z", "TAF CYXS 121240Z 1213/1301 18005KT P6SM SCT040 SCT100 TEMPO 1213/1216 SCT040 BKN100 FM121600 18008KT P6SM SCT050 SCT080 RMK FCST BASED ON AUTO OBS. NXT FCST BY 121900Z", "TAF CYXT 121240Z 1213/1301 VRB03KT P6SM SCT015 BKN080 TEMPO 1213/1216 2SM -RA BR SCT008 BKN015 FM121600 01006KT P6SM SCT015 TEMPO 1216/1218 BKN015 FM121800 36008KT P6SM SCT030 SCT200 RMK NXT FCST BY 121900Z", "TAF CYXU 121142Z 1212/1312 18010KT P6SM FEW060 SCT080 BKN110 BECMG 1213/1215 19015G25KT FM121900 18018G28KT P6SM BKN080 FM130100 20020G35KT P6SM -SHRA OVC050 FM130300 20020G35KT 6SM -SHRA BR SCT006 OVC020 TEMPO 1303/1309 2SM SHRA BR BKN006 OVC020 PROB30 1303/1307 VRB20G35KT 1SM TSRA BR OVC005CB FM130900 26010KT 5SM BR OVC004 RMK NXT FCST BY 121800Z", "TAF CYXX 121140Z 1212/1312 VRB03KT P6SM SKC PROB30 1212/1216 2SM BR SCT002 FM121600 VRB03KT P6SM FEW200 BECMG 1219/1221 24010KT BECMG 1301/1303 VRB03KT RMK NXT FCST BY 121800Z", "TAF CYXY 121140Z 1212/1224 17010G20KT P6SM SCT012 SCT060 BKN120 TEMPO 1212/1220 1SM -RA BR SCT005 BKN012 BKN060 FM122000 16012G22KT P6SM SCT030 BKN060 BECMG 1221/1223 16025G35KT BKN080 RMK NXT FCST BY 121800Z", "TAF CYXZ 121240Z 1213/1224 17010G20KT 4SM -SHRA BR OVC008 TEMPO 1213/1216 P6SM NSW OVC012 FM121800 18015G25KT 2SM SHRA BR OVC008 TEMPO 1218/1221 6SM -SHRA BR OVC012 FM122100 23012G22KT 5SM -SHRA OVC005 TEMPO 1221/1224 P6SM NSW OVC008 RMK NXT FCST BY 122000Z", "TAF AMD CYYB 120904Z 1209/1220 20012KT P6SM OVC030 TEMPO 1209/1212 4SM -RA BR BKN008 OVC020 FM121200 18012G22KT 4SM -RA BR BKN008 OVC020 TEMPO 1212/1220 6SM -RA FEW008 OVC025 BECMG 1214/1216 18018G28KT RMK FCST BASED ON AUTO OBS. NXT FCST BY 121400Z", "TAF CYYC 121140Z 1212/1312 27006KT P6SM SCT070 TEMPO 1212/1214 BKN070 BECMG 1218/1220 36010KT FM130400 30008KT P6SM SKC RMK NXT FCST BY 121500Z", "TAF CYYE 121240Z 1213/1301 VRB03KT P6SM BKN100 FM121800 VRB03KT P6SM SCT080 RMK NXT FCST BY 121900Z", "TAF CYYF 121240Z 1213/1301 35008KT P6SM SKC BECMG 1219/1221 36012KT RMK NXT FCST BY 121900Z", "TAF CYYG 121140Z 1212/1224 24008KT P6SM SKC RMK NXT FCST BY 121800Z", "TAF CYYH 121140Z 1212/1224 10007KT P6SM SCT013 BKN140 TEMPO 1212/1222 BKN013 OVC120 BECMG 1215/1217 14015KT FM122200 14012G22KT P6SM BKN025 OVC060 TEMPO 1222/1224 3SM -SN OVC020 RMK NXT FCST BY 121800Z", "TAF CYYJ 121140Z 1212/1312 29006KT P6SM SKC FM121800 05006KT P6SM SKC BECMG 1301/1303 VRB03KT BECMG 1308/1310 26005KT RMK NXT FCST BY 121800Z", "TAF AMD CYYL 121302Z 1213/1301 31015G25KT P6SM BKN040 TEMPO 1213/1220 BKN020 OVC040 BECMG 1214/1216 30022G32KT RMK FCST BASED ON AUTO OBS. NXT FCST BY 121900Z", "TAF CYYN 121140Z 1212/1224 30015G25KT P6SM SKC BECMG 1215/1217 32028G38KT RMK FCST BASED ON AUTO OBS. NXT FCST BY 121800Z", "TAF AMD CYYQ 121310Z 1213/1312 10012KT P6SM SCT005 OVC080 TEMPO 1213/1218 3SM -SHRA BR OVC003 BECMG 1216/1218 22008KT FM121800 22008KT P6SM FEW008 OVC012 TEMPO 1218/1220 SCT012 OVC030 FM122000 19010KT P6SM OVC008 TEMPO 1220/1305 OVC012 BECMG 1303/1305 09008KT FM130500 09008KT 4SM BR OVC006 FM131000 04010KT 1/2SM -RA FG VV002 RMK NXT FCST BY 121800Z", "TAF CYYR 121140Z 1212/1312 24005KT P6SM FEW020 SCT080 FM121600 24008KT P6SM FEW040 BKN070 FM122000 25005KT P6SM SCT020 BKN040 TEMPO 1220/1223 BKN020 OVC030 FM122300 VRB03KT P6SM BKN015 OVC030 TEMPO 1223/1305 SCT015 BKN030 FM130500 VRB03KT P6SM SCT008 BKN015 PROB30 1305/1312 2SM BR RMK NXT FCST BY 121800Z", "TAF CYYT 121140Z 1212/1312 29012KT P6SM FEW030 FM122200 25008KT P6SM FEW010 BKN040 FM130000 24008KT P6SM FEW010 SCT040 RMK NXT FCST BY 121800Z", "TAF CYYU 120740Z 1208/1220 18012G22KT P6SM SCT250 BECMG 1208/1210 BKN040 FM121200 18012G22KT P6SM BKN030 TEMPO 1212/1220 OVC020 BECMG 1212/1214 18015G30KT RMK NXT FCST BY 121400Z", "TAF CYYY 120740Z 1208/1220 20012KT P6SM FEW060 BECMG 1212/1214 25010KT SKC RMK NXT FCST BY 121400Z", "TAF CYYZ 121142Z 1212/1318 16008KT P6SM BKN080 OVC120 BECMG 1214/1216 18010G20KT FM121700 18015G25KT P6SM FEW050 BKN120 FM130300 18015G25KT P6SM -SHRA OVC030 FM130600 18015G30KT P6SM -SHRA OVC040 TEMPO 1306/1311 2SM SHRA BR FEW007 OVC020 PROB30 1306/1310 VRB25G35KT 1SM TSRA BR OVC007CB FM131100 18010KT 3SM -SHRA BR BKN008 OVC020 FM131300 18008KT P6SM BKN020 OVC100 BECMG 1313/1315 26012KT FM131700 23012KT P6SM BKN040 RMK NXT FCST BY 121500Z", "TAF AMD CYZE 121305Z 1213/1222 19018G28KT P6SM SCT007 OVC030 TEMPO 1213/1215 3SM -SHRA BR OVC007 FM121500 19018G32KT P6SM SCT008 OVC020 TEMPO 1215/1218 4SM -SHRA BR OVC008 BECMG 1215/1217 19020G40KT FM121800 19020G40KT P6SM -SHRA SCT012 OVC040 RMK FCST BASED ON AUTO OBS. NXT FCST BY 121400Z", "TAF CYZF 121140Z 1212/1312 30022G32KT P6SM BKN030 TEMPO 1212/1217 5SM -SN BKN020 FM121700 31020G35KT P6SM SCT030 BECMG 1218/1220 32015G25KT BECMG 1222/1224 32010G20KT FM130300 VRB03KT P6SM SCT025 SCT080 TEMPO 1303/1308 SCT025 BKN060 BECMG 1308/1310 10010KT SCT050 BKN080 RMK NXT FCST BY 121800Z", "TAF CYZH 121240Z 1213/1301 25008KT P6SM SCT100 TEMPO 1213/1216 BKN100 BECMG 1214/1216 30010G20KT RMK FCST BASED ON AUTO OBS. NXT FCST BY 121900Z", "TAF CYZP 121240Z 1213/1301 VRB03KT P6SM FEW020 BECMG 1216/1218 17008KT FM121800 17008KT P6SM FEW040 RMK FCST BASED ON AUTO OBS. NXT FCST BY 121900Z", "TAF CYZR 120740Z 1208/1220 18006KT P6SM BKN080 OVC120 TEMPO 1208/1211 P6SM -SHRA BECMG 1211/1213 20012G22KT FM121500 20012G22KT P6SM BKN080 OVC160 BECMG 1215/1217 20020G30KT RMK FCST BASED ON AUTO OBS. NXT FCST BY 121400Z", "TAF CYZS 121240Z 1213/1301 10015G25KT P6SM OVC012 TEMPO 1213/1215 P6SM -SN OVC008 FM121500 10018G28KT P6SM OVC012 TEMPO 1215/1220 P6SM -SN FM122000 10017G27KT P6SM SCT012 TEMPO 1220/1222 BKN012 RMK NXT FCST BY 121900Z", "TAF CYZT 121240Z 1213/1301 VRB03KT P6SM SKC PROB30 1213/1218 1/2SM FG VV002 FM121800 07006KT P6SM FEW020 RMK NXT FCST BY 121900Z", "TAF CYZV 121140Z 1212/1312 VRB03KT P6SM FEW080 BKN160 FM121600 19008KT P6SM SKC BECMG 1223/1301 05005KT FM131000 06005KT P6SM -SHRA BKN060 RMK NXT FCST BY 121800Z", "TAF AMD CYZX 121308Z 1213/1312 VRB03KT 1/8SM FG VV002 TEMPO 1213/1214 2SM BR SCT002 FM121400 VRB03KT P6SM FEW002 TEMPO 1214/1215 2SM BR SCT002 FM121500 25012KT P6SM FEW030 FM122200 VRB03KT P6SM BKN250 PROB30 1308/1312 1/8SM FG VV001 RMK NXT FCST BY 121800Z", "TAF CZBF 120850Z 1209/1221 VRB03KT P6SM SKC RMK FCST BASED ON AUTO OBS. NXT FCST BY 121400Z", "TAF CZMD 120940Z 1210/1222 21008G18KT P6SM OVC030 TEMPO 1210/1222 5SM -SHRA BR OVC020 BECMG 1212/1214 27010G20KT RMK FCST BASED ON AUTO OBS. NXT FCST BY 121600Z", "TAF AMD CZSJ 121116Z 1211/1222 22010G20KT P6SM OVC030 TEMPO 1211/1214 2SM -SHRA BR BKN007 OVC020 BECMG 1211/1213 29012G22KT FM121400 30012G22KT P6SM OVC030 TEMPO 1214/1222 4SM -SHRA BR OVC020 RMK FCST BASED ON AUTO OBS. NXT FCST BY 121600Z", "TAF AMD CZUM 121049Z 1210/1220 13005KT P6SM -SN BKN040 OVC080 TEMPO 1210/1215 2SM -SN OVC020 PROB30 1210/1215 1SM -SN -FZDZ BR BKN008 FM121500 09008KT 4SM -SN OVC015 TEMPO 1215/1220 P6SM NSW OVC025 RMK FCST BASED ON AUTO OBS. NXT FCST BY 121400Z", "TAF CZVL 121140Z 1212/1224 28008KT P6SM FEW120 BECMG 1214/1216 30015G25KT RMK FCST BASED ON AUTO OBS. NXT FCST BY 121800Z", "TAF DAAD 121100Z 1212/1221 VRB02KT 8000 SCT026 SCT100 PROB30 TEMPO 1212/1218 FEW030CB", "TAF DAAE 121100Z 1212/1312 10008KT 9999 FEW020 TEMPO 1212/1224 32014KT FEW030CB PROB40 TEMPO 1214/1222 VRB15G25KT 4000 -TSRA FEW020CB BKN030 PROB40 TEMPO 1303/1312 34013KT 5000 RA FEW023CB BKN090", "TAF DAAG 121100Z 1212/1312 30008KT 9999 FEW020 BKN080 TEMPO 1212/1221 FEW026CB PROB40 TEMPO 1213/1218 -TSRA FEW033CB", "TAF DAAJ 121100Z 1212/1312 16008KT CAVOK", "TAF DAAP 121100Z 1212/1221 16008KT CAVOK", "TAF DAAS 121100Z 1212/1312 25008KT 9999 FEW026 SCT100 TEMPO 1212/1224 32013KT FEW030CB PROB40 TEMPO 1213/1221 VRB15G25KT 4000 -TSRA FEW020CB BKN030 PROB40 TEMPO 1300/1312 FEW020TCU", "TAF DAAT 121100Z 1212/1312 14018KT CAVOK", "TAF DAAV 121100Z 1212/1312 27008KT 9999 FEW020TCU SCT100 TEMPO 1212/1224 33014KT FEW030CB PROB40 TEMPO 1214/1222 VRB15G25KT 4000 -TSRA FEW020CB BKN030 PROB40 TEMPO 1303/1312 35013KT 5000 RA FEW023CB BKN090", "TAF DAAY 121100Z 1212/1221 15011KT 8000 FEW033 PROB40 TEMPO 1212/1220 5000 TSRA FEW026CB", "TAF DABB 121100Z 1212/1312 03008KT 9999 FEW020 SCT100 TEMPO 1212/1224 30014KT FEW026CB PROB40 TEMPO 1213/1221 4000 -TSRA FEW020CB BKN026 PROB40 TEMPO 1300/1310 32014KT 4000 RA FEW020CB BKN030", "TAF DABC 121100Z 1212/1312 24008KT 9999 FEW033 SCT100 TEMPO 1212/1224 30014KT FEW026CB PROB40 TEMPO 1214/1221 VRB15G25KT 4000 -TSRA FEW020CB BKN030 PROB40 TEMPO 1302/1308 3000 BR BKN010", "TAF DABS 121100Z 1212/1312 26008KT 9999 FEW033 SCT100 TEMPO 1212/1221 33013KT FEW030CB PROB40 TEMPO 1214/1220 VRB15G25KT 4000 -TSRA FEW020CB BKN030", "TAF DABT 121100Z 1212/1312 32008KT 9999 FEW026 BKN030 TEMPO 1212/1224 24013KT FEW026CB PROB40 TEMPO 1213/1222 VRB15G25KT 4000 -TSRA FEW020CB PROB40 TEMPO 1300/1312 FEW020TCU", "TAF DAFH 121100Z 1212/1221 04016KT 9999 FEW040 SCT080 TEMPO 1212/1218 FEW033CB PROB30 TEMPO 1213/1218 -TSRA FEW033CB", "TAF DAOB 121100Z 1212/1312 34006KT 9999 SCT026 TEMPO 1213/1222 FEW026CB PROB40 TEMPO 1213/1220 VRB15G25KT -TSRA FEW030CB", "TAF DAOF 121100Z 1212/1221 30018KT 6000 NSC PROB40 1212/1218 2000 DRSA", "TAF DAOI 121100Z 1212/1312 VRB02KT 9000 FEW023 SCT026 BECMG 1213/1216 01012KT PROB40 TEMPO 1218/1306 5000 TSRA FEW026CB BECMG 1300/1303 VRB02KT", "TAF DAON 121100Z 1212/1312 VRB02KT 8000 BKN026 BECMG 1213/1215 02012KT PROB40 TEMPO 1218/1303 5000 TSRA FEW026CB BECMG 1300/1303 VRB02KT", "TAF DAOO 121100Z 1212/1312 04013KT 9999 FEW020TCU BKN023 PROB40 TEMPO 1218/1308 5000 TSRA FEW026CB", "TAF DAOR 121100Z 1212/1221 10015KT 6000 NSC PROB30 TEMPO 1212/1214 10015G25KT 2000 DRDU FEW030CB BECMG 1214/1216 18014KT", "TAF DAOV 121100Z 1212/1221 03012KT 9999 SCT026 SCT100 PROB40 TEMPO 1216/1221 5000 TSRA FEW026CB", "TAF DATM 121100Z 1212/1221 12008KT CAVOK PROB30 TEMPO 1212/1215 14018KT 4000 SA", "TAF AMD DAUA 121225Z 1212/1312 30016KT 6000 DRSA SCT046 BKN133 PROB30 TEMPO 1213/1218 FEW040CB BECMG 1215/1218 NSW BECMG 1300/1302 02012KT", "TAF DAUB 121100Z 1212/1312 32008KT 9999 SCT040 SCT100 TEMPO 1214/1221 24014KT FEW033CB PROB30 1215/1220 VRB15G25KT 4000 -TSRA FEW030CB", "TAF DAUG 121100Z 1212/1312 06010KT 9999 FEW046 SCT233", "TAF DAUH 121100Z 1212/1312 12008KT 9999 FEW040", "TAF DAUI 121100Z 1212/1312 12008KT CAVOK PROB40 1215/1306 36018KT 4000 DRSA PROB30 TEMPO 1218/1224 04020G30KT 1000 BLSA", "TAF DAUK 121100Z 1212/1221 02008KT CAVOK", "TAF DAUL 120500Z 1206/1215 32008KT 9999 BKN033 TEMPO 1206/1210 FEW030CB BECMG 1207/1209 12012KT PROB40 TEMPO 1212/1215 4000 -TSRA FEW033CB", "TAF DAUO 120500Z 1206/1215 06008KT CAVOK", "TAF DAUT 120500Z 1206/1215 14008KT CAVOK", "TAF DAUU 120500Z 1206/1215 04010KT 1000 HZ FEW040 BECMG 1209/1212 3000 BECMG 1209/1212 6000 NSW", "TAF DAUZ 121100Z 1212/1312 14020KT CAVOK BECMG 1218/1221 14010KT", "TAF DBBB 121100Z 1212/1318 22010KT 9999 SCT012 TEMPO 1214/1220 TS BKN012 FEW023CB", "TAF DFFD 121100Z 1212/1318 24008KT 9999 FEW023", "TAF DFOO 121100Z 1212/1312 22008KT 9999 FEW020 PROB30 TEMPO 1216/1222 TS SCT020 FEW030CB", "TAF COR DGAA 121145Z 1212/1318 20010KT 9999 SCT016 TEMPO 1212/1214 BKN016 TEMPO 1214/1218 5000 TSRA BKN010 FEW030CB BECMG 1300/1302 27008KT", "TAF DGLE 121100Z 1212/1312 23010KT 9999 SCT016 BECMG 1213/1215 05010KT PROB30 TEMPO 1216/1220 7000 TSRA FEW030CB", "TAF DGSI 121100Z 1212/1312 23010KT 9999 FEW016 PROB30 TEMPO 1216/1222 6000 TSRA BKN010 FEW030CB TEMPO 1305/1309 8000 BKN010", "TAF DIAP 121146Z 1212/1318 20010KT 9999 SCT012 PROB30 TEMPO 1216/1222 BKN012 FEW020CB", "TAF DIBK 121146Z 1212/1312 14008KT 9999 SCT013 TEMPO 1212/1218 BKN013 TEMPO 1305/1308 3000 BR", "TAF DIYO 121146Z 1212/1312 16007KT 9999 SCT013 TEMPO 1212/1218 BKN013 TEMPO 1305/1308 3000 BR", "TAF DNAA 111700Z 1118/1224 11007KT 5000 -TSRA BKN006 FEW018CB BECMG 1119/1121 CAVOK TEMPO 1200/1205 -TSRA BKN006 FEW017CB BECMG 1205/1207 VRB02KT FEW008 TEMPO 1210/1212 23010KT BKN010", "TAF DNAK 121100Z 1212/1318 28010KT 9999 SCT012 TEMPO 1215/1220 TS SCT012 FEW020CB BECMG 1220/1222 VRB02KT SCT010 TEMPO 1304/1307 4000 BR BECMG 1309/1311 26010KT BKN012 TEMPO 1311/1317 SCT012 FEW020CB", "TAF DNBE 121100Z 1212/1318 25010KT 9999 SCT012 TEMPO 1214/1220 TS SCT012 FEW020CB BECMG 1220/1222 VRB02KT SCT010 TEMPO 1304/1308 3000 BR BECMG 1309/1311 20010KT BKN012 FEW020CB TEMPO 1311/1317 TS", "TAF DNGO 121100Z 1212/1318 07008KT CAVOK", "TAF DNIB 120500Z 1206/1312 VRB02KT 6000 SCT011 TEMPO 1206/1208 5000 BR BECMG 1208/1210 24010KT BKN013 TEMPO 1213/1218 SCT013 FEW020CB BECMG 1218/1220 VRB02KT SCT011 PROB30 TEMPO 1220/1301 TS SCT011 FEW020CB TEMPO 1304/1307 5000 BR BECMG 1308/1310 22010KT BKN013 FEW020CB", "TAF DNIL 111700Z 1118/1224 31004KT 9999 SCT012 TEMPO 1123/1204 03018KT 5000 -TSRA FEW018CB BECMG 1204/1206 VRB02KT SCT008 BECMG 1210/1212 21010KT BKN011", "TAF DNJO 111700Z 1118/1224 07010KT CAVOK TEMPO 1119/1124 TS SCT010 FEW018CB BECMG 1208/1210 23010KT BKN008 TEMPO 1214/1218 TS FEW019CB", "TAF DNKA 111700Z 1118/1224 03008KT 9999 SCT013 TEMPO 1119/1124 TS FEW020CB BECMG 1200/1204 14006KT CAVOK BECMG 1209/1211 23011KT BKN012 TEMPO 1216/1220 TS SCT010 FEW020CB", "TAF DNKN 121100Z 1212/1318 05008KT HZ NSC BECMG 1218/1220 00000KT CAVOK", "TAF DNKT 121100Z 1212/1318 09008KT 1000 DU NSC BECMG 1215/1217 5000 HZ", "TAF DNMA 121100Z 1212/1318 11010KT CAVOK", "TAF DNMM 121100Z 1212/1318 24010KT 9999 SCT013 TEMPO 1214/1220 TS SCT013 FEW020CB BECMG 1218/1220 VRB02KT BECMG 1220/1222 SCT011 TEMPO 1305/1307 5000 BR BECMG 1309/1311 23010KT BKN013 TEMPO 1311/1317 TS SCT013 FEW020CB", "TAF DNSO 121100Z 1212/1318 09010KT CAVOK", "TAF DNSU 121100Z 1212/1318 23010KT 9999 SCT012 TEMPO 1213/119 TS SCT012 FEW020CB BECMG 1219/1221 VRB02KT SCT009 TEMPO 1304/1308 4000 BR BECMG 1309/1311 21010KT BKN012 TEMPO 1311/1317 TS BKN012 FEW020CB", "TAF DNYO 121100Z 1212/1318 09008KT FEW012 TEMPO 1215/1219 TS SCT011 FEW020CB", "TAF DRRN 121100Z 1212/1318 22006KT 6000 NSC TEMPO 1217/1220 3500 DU TEMPO 1307/1310 3500 DU", "TAF DRZA 121100Z 1212/1312 08012KT 8000 NSC TEMPO 1308/1312 4000 DU", "TAF DRZR 121100Z 1212/1312 04008KT 2000 DU NSC BECMG 1216/1218 4000", "TAF DTKA 121200Z 1213/1222 28013KT 9999 SCT020 PROB40 TEMPO 1213/1222 TSRA FEW026CB", "TAF DTMB 121100Z 1212/1312 13010KT 9999 SCT020 BECMG 1222/1224 VRB02KT PROB30 TEMPO 1301/1306 RA FEW026TCU BECMG 1309/1311 36010KT", "TAF DTNH 121100Z 1212/1312 19010KT 9999 SCT020 BECMG 1213/1215 10010KT BECMG 1219/1221 VRB03KT PROB40 TEMPO 1219/1306 TSRA FEW026CB BECMG 1307/1309 05010KT BECMG 1309/1311 VRB02KT", "TAF DTTA 121100Z 1212/1312 17010KT 9999 SCT020 PROB30 TEMPO 1213/1216 RA FEW026TCU PROB40 TEMPO 1216/1306 TSRA FEW026CB BECMG 1219/1221 04006KT BECMG 1307/1309 27010KT", "TAF DTTB 121200Z 1213/1222 22006KT 9999 SCT020 SCT030 TEMPO 1213/1222 TSRA FEW026CB BECMG 1213/1215 32010KT", "TAF DTTF 121200Z 1213/1222 05008KT 9999 SCT033", "TAF DTTG 121200Z 1213/1222 VRB12KT 8000 SCT030", "TAF DTTJ 121100Z 1212/1312 08010KT 9999 FEW040", "TAF DTTR 121200Z 1213/1222 16014KT 8000 NSC BECMG 1216/1218 09006KT", "TAF DTTX 121100Z 1212/1312 10010KT 9999 SCT020 BECMG 1222/1224 VRB02KT BECMG 1307/1309 05010KT", "TAF DTTZ 121100Z 1212/1312 08012KT 9999 SCT033", "TAF DXNG 121100Z 1212/1312 VRB05KT 9999 FEW006 PROB30 TEMPO 1215/1221 TS BKN006 FEW016CB", "TAF DXXX 121100Z 1212/1318 VRB05KT 8000 BKN010 FEW020CB PROB30 TEMPO 1212/1214 4000 TSRA BECMG 1308/1310 20010KT", "TAF EBAW 121110Z 1212/1221 18004KT 9999 FEW020", "TAF EBBE 121141Z 1213/1222 22006KT 9999 FEW025 SCT150 BKN200 TEMPO 1216/1218 26008KT", "TAF EBBL 121141Z 1213/1222 19004KT 9999 BKN190 BECMG 1215/1217 FEW025 BKN140", "TAF COR EBBR 121152Z 1212/1318 20007KT 9999 FEW025 TEMPO 1306/1308 4500 RADZ SCT006 BKN010 TEMPO 1308/1310 RA SHRA BKN014TCU BECMG 1311/1313 27010KT BECMG 1316/1318 17005KT", "TAF COR EBCI 121152Z 1212/1318 19006KT 9999 FEW025 TEMPO 1307/1309 4500 RADZ SCT006 BKN010 TEMPO 1309/1312 RA SHRA BKN014TCU BECMG 1311/1313 26011KT BECMG 1316/1318 17005KT", "TAF EBCV 121141Z 1213/1222 18005KT 9999 FEW020 SCT150 BKN220 TEMPO 1214/1217 23007KT BKN150 BECMG 1217/1219 BKN030 BY EBWM", "TAF EBDT 121100Z 1213/1222 21006KT 8000 NSW FEW017 BKN180 PROB30 TEMPO 1220/1222 SCT024", "TAF EBFN 121141Z 1213/1222 20005KT 9999 BKN120 BKN150 TEMPO 1215/1220 SCT025", "TAF EBFS 121141Z 1213/1222 23008KT 9999 FEW015 SCT250 PROB30 TEMPO 1213/1218 SCT020", "TAF COR EBLG 121152Z 1212/1318 19006KT 9999 FEW025 TEMPO 1308/1312 RA SHRA SCT008 BKN014TCU BECMG 1309/1311 25011KT BECMG 1316/1318 19005KT", "TAF COR EBOS 121152Z 1212/1318 20010KT 9999 FEW025 TEMPO 1301/1305 4500 RADZ SCT006 BKN010 TEMPO 1305/1309 RA SHRA BKN014TCU BECMG 1309/1311 27015KT BECMG 1316/1318 17006KT", "TAF EDAC 121100Z 1212/1221 VRB03KT CAVOK", "TAF EDAH 121100Z 1212/1221 17005KT CAVOK", "TAF EDDB 121100Z 1212/1312 15004KT CAVOK PROB30 TEMPO 1303/1306 1200 BCFG BECMG 1309/1312 21008KT", "TAF EDDC 121100Z 1212/1312 13005KT CAVOK BECMG 1309/1312 19006KT", "TAF EDDE 121100Z 1212/1312 09003KT CAVOK PROB30 TEMPO 1303/1306 1200 BCFG BECMG 1308/1311 21010KT", "TAF EDDF 121100Z 1212/1318 16004KT 9999 FEW035 TEMPO 1300/1308 1200 BCFG BKN005 PROB30 TEMPO 1302/1307 0300 FG BKN002 BECMG 1310/1312 22005KT", "TAF EDDG 121100Z 1212/1312 17004KT CAVOK PROB30 TEMPO 1222/1302 1200 BCFG PROB30 TEMPO 1302/1305 3000 BR PROB30 TEMPO 1309/1312 RA BKN008TCU", "TAF EDDH 121100Z 1212/1318 16008KT 9999 FEW040 BECMG 1220/1222 16003KT BECMG 1307/1309 19008KT BECMG 1311/1313 BKN013 TEMPO 1314/1318 4500 -RA FEW004 BKN009", "TAF EDDK 121100Z 1212/1318 13004KT 9999 FEW020 PROB30 TEMPO 1222/1305 3000 BR TEMPO 1308/1317 19006KT SHRA BKN020TCU", "TAF EDDL 121100Z 1212/1318 17005KT CAVOK TEMPO 1308/1318 20010KT SHRA BKN014TCU", "TAF EDDM 121100Z 1212/1318 VRB01KT 9999 OVC007 BECMG 1212/1214 SCT008 BKN012 BECMG 1214/1216 SCT015 BECMG 1219/1221 4000 BCFG BECMG 1221/1223 1200 BCFG BECMG 1223/1301 0500 FG SCT001 OVC002 BECMG 1307/1309 1200 BCFG BECMG 1309/1311 4000 BR OVC006 BECMG 1311/1313 23005KT 9999 SCT015", "TAF EDDN 121100Z 1212/1312 VRB03KT 9999 SCT020 BECMG 1218/1220 11005KT TEMPO 1220/1308 1200 BCFG PROB30 TEMPO 1304/1308 4000 BR BKN004", "TAF EDDP 121100Z 1212/1312 12004KT CAVOK PROB30 TEMPO 1303/1307 1200 BCFG BECMG 1307/1310 22009KT", "TAF EDDR 121100Z 1212/1312 17004KT 9999 SCT010 BKN015 TEMPO 1212/1214 BKN008 TEMPO 1222/1308 2500 BR BKN005 PROB30 TEMPO 1302/1307 0300 FG OVC002 BECMG 1309/1311 23007KT", "TAF EDDS 121100Z 1212/1312 VRB03KT 9999 BKN015 TEMPO 1300/1306 1200 BR BKN005 PROB30 TEMPO 1300/1306 0600 FG BKN002", "TAF EDDV 121100Z 1212/1312 15006KT CAVOK BECMG 1215/1217 VRB02KT PROB30 TEMPO 1301/1307 1500 BCFG BECMG 1307/1309 20007KT", "TAF EDDW 121100Z 1212/1312 17007KT CAVOK BECMG 1215/1217 VRB02KT BECMG 1305/1307 20007KT BECMG 1310/1312 BKN013 TEMPO 1310/1312 4500 -RA BKN009", "TAF EDFH 121100Z 1212/1312 20005KT 9999 FEW025 PROB30 TEMPO 1300/1306 1200 BCFG", "TAF EDFM 121100Z 1212/1221 VRB03KT 9999 BKN025", "TAF COR EDGS 121150Z 1212/1221 19006KT 9999 FEW025 PROB30 TEMPO 1219/1221 3000 BR", "TAF EDHI 121100Z 1212/1221 18005KT CAVOK BECMG 1214/1216 VRB03KT", "TAF EDHK 121100Z 1212/1219 21006KT CAVOK BECMG 1216/1218 VRB03KT", "TAF EDHL 121100Z 1212/1221 18005KT 9999 FEW045 BECMG 1215/1217 VRB03KT", "TAF EDJA 121100Z 1212/1221 04003KT 9999 FEW010 BKN015 PROB30 TEMPO 1220/1221 2000 BCFG", "TAF EDLN 121100Z 1212/1221 VRB03KT 9999 FEW030", "TAF EDLP 121100Z 1212/1312 16006KT 9999 SCT020", "TAF EDLV 121100Z 1212/1312 19005KT CAVOK BECMG 1215/1218 VRB03KT TEMPO 1223/1302 1200 BCFG BECMG 1300/1303 19006KT TEMPO 1306/1312 RA BKN008TCU", "TAF EDLW 121100Z 1212/1312 VRB03KT 9999 FEW020 BECMG 1218/1220 19008KT TEMPO 1310/1312 SHRA BKN020TCU", "TAF EDMA 121100Z 1212/1221 08003KT 7000 FEW010 BKN015 PROB40 TEMPO 1220/1221 1200 BCFG", "TAF EDMO 121100Z 1212/1221 03005KT 9999 BKN020 PROB30 TEMPO 1220/1221 2000 BCFG", "TAF EDNY 121100Z 1212/1312 22005KT 9999 OVC020 BECMG 1215/1217 03002KT BECMG 1222/1224 OVC012 BECMG 1300/1302 OVC008 TEMPO 1302/1308 4000 BR OVC004 BECMG 1310/1312 23005KT BKN012", "TAF EDQM 121100Z 1212/1221 16004KT 9999 FEW020", "TAF EDSB 121100Z 1212/1312 VRB03KT 9999 SCT015 TEMPO 1222/1307 2000 BR BKN005 PROB30 TEMPO 1300/1306 0600 FG BKN002", "TAF EDTL 121100Z 1212/1221 VRB03KT 6000 SCT008 BKN015 BECMG 1218/1221 2500 BR", "TAF EDTY 121100Z 1212/1221 VRB03KT 9999 BKN015 PROB30 TEMPO 1220/1221 2000 BCFG", "TAF EDVE 121100Z 1212/1221 16007KT CAVOK BECMG 1215/1217 VRB03KT", "TAF EDVK 121100Z 1212/1221 12004KT 9999 FEW035", "TAF EDXW 121100Z 1212/1221 20012KT 9999 SCT025 BECMG 1215/1217 18007KT", "TAF COR EEEI 121130Z 1212/1312 27011KT 9999 SCT025 TEMPO 1221/1224 3000 MIFG BR BKN005 BECMG 1223/1301 21006KT TEMPO 1300/1306 1000 BCFG BR VV002", "TAF EEKA 121200Z 1213/1219 27010KT 9999 SCT030 PROB40 TEMPO 1218/1219 BKN010", "TAF COR EETN 121135Z 1212/1312 28012KT 9999 SCT030 BECMG 1217/1219 21005KT PROB40 TEMPO 1217/1224 0700 BCFG BKN002 TEMPO 1300/1307 0300 FG VV001", "TAF EFHA 121128Z 1212/1215 28012KT CAVOK", "TAF EFHK 121128Z 1212/1312 27014KT 9999 FEW040 BECMG 1215/1217 23003KT BECMG 1309/1311 19013KT", "TAF EFIV 121127Z 1212/1218 24010KT CAVOK PROB40 1212/1218 FEW030TCU", "TAF EFJY 121128Z 1212/1312 27008KT 9999 BKN025 PROB30 1221/1306 3000 BR PROB30 1309/1312 BKN013", "TAF EFKK 121126Z 1212/1221 25009KT 9999 BKN025", "TAF EFKS 121127Z 1212/1218 26009KT 9999 FEW020", "TAF EFKT 121127Z 1212/1218 28009KT 9999 FEW030", "TAF EFKU 121121Z 1212/1312 26010KT 9999 BKN017 BECMG 1300/1302 20003KT PROB30 1301/1303 5000", "TAF EFMA 121126Z 1212/1221 23006KT CAVOK", "TAF EFOU 121127Z 1212/1312 29008KT 9999 FEW030 PROB30 1212/1215 FEW030CB BECMG 1309/1311 BKN008", "TAF EFPO 121126Z 1212/1221 29012KT 9999 SCT030 BECMG 1216/1218 23005KT", "TAF EFRO 121127Z 1212/1312 22009KT CAVOK PROB40 1212/1213 FEW040TCU BECMG 1303/1305 5000 -RA BKN008 TEMPO 1305/1308 1200 BR BKN003 BECMG 1308/1310 0500 FG VV001 TEMPO 1310/1312 2000 BR -DZ BKN003", "TAF EFSA 121121Z 1212/1218 27010KT 9999 SCT028", "TAF EFSI 121126Z 1212/1221 25009KT 9999 SCT025", "TAF EFTP 121128Z 1212/1312 26009KT 9999 FEW025", "TAF EFTU 121128Z 1212/1312 28013KT 9999 SCT040 BECMG 1215/1217 26003KT PROB30 1222/1306 3000 BR BECMG 1308/1310 20010KT", "TAF EFUT 121121Z 1212/1215 29007KT 9999 FEW025", "TAF EFVA 121126Z 1212/1312 26009KT 9999 BKN025 BECMG 1304/1306 19010KT BKN005 TEMPO 1306/1308 4000 BR OVC004 BECMG 1308/1310 BKN012 BECMG 1310/1312 BKN015", "TAF EGAA 121058Z 1212/1312 27008KT 9999 FEW020 SCT030 PROB30 TEMPO 1212/1216 7000 SHRA PROB30 1302/1307 7000 BECMG 1307/1310 19012KT", "TAF EGAC 121059Z 1212/1221 29007KT 9999 FEW020 SCT030 PROB30 TEMPO 1212/1216 7000 SHRA", "TAF EGAE 121059Z 1212/1220 27008KT 9999 FEW020 SCT030 PROB30 TEMPO 1212/1214 8000 SHRA", "TAF EGBB 121100Z 1212/1312 22008KT 9999 SCT040 TEMPO 1212/1217 8000 -RADZ BKN012 PROB30 TEMPO 1212/1217 4000 RA BKN008 PROB40 TEMPO 1217/1221 8000 -RADZ BKN006 TEMPO 1304/1308 8000 BKN014 PROB30 TEMPO 1306/1308 4000 BR", "TAF EGBJ 121104Z 1212/1219 20009KT 9999 FEW030 TEMPO 1212/1219 8000 -RADZ BKN014 PROB30 TEMPO 1212/1219 BKN008", "TAF EGCC 121059Z 1212/1318 18010KT 9999 SCT030 TEMPO 1212/1216 8000 -RA BKN012 PROB30 TEMPO 1212/1216 4000 RA BKN007 BECMG 1216/1219 VRB03KT PROB30 TEMPO 1216/1220 7000 SHRA BKN009 PROB30 TEMPO 1220/1302 7000 SHRA TEMPO 1300/1309 4000 BR PROB30 1302/1308 0300 FG VV///", "TAF AMD EGCK 121310Z 1213/1221 19015KT 9999 SCT025 BECMG 1213/1215 27008KT TEMPO 1213/1214 2000 +RA BKN002 PROB30 TEMPO 1214/1221 6000 SHRA BKN008", "TAF EGCN 121100Z 1212/1312 18012KT 9999 FEW045 PROB40 TEMPO 1212/1214 8000 -RA TEMPO 1214/1218 8000 -RA BKN014 PROB40 TEMPO 1214/1218 4000 RA BKN009 BECMG 1216/1219 24004KT PROB30 TEMPO 1218/1221 8000 -SHRA TEMPO 1302/1309 4000 BR PROB30 1304/1308 0300 FG VV///", "TAF EGDM 121033Z 1212/1218 21010KT 9999 FEW030 BECMG 1215/1218 BKN020 PROB30 1217/1218 SCT014", "TAF EGDR 121047Z 1212/1221 22008KT 7000 -RA SCT008 BECMG 1212/1214 23012G22KT 2000 RADZ SCT004 BKN006 TEMPO 1212/1221 0500 FG -DZ SCT000 BECMG 1218/1220 26005KT 6000 BR SCT008 BKN018 TEMPO 1218/1221 0800 BCFG SCT000", "TAF EGDY 121034Z 1212/1221 22010KT 9999 SCT030 BECMG 1213/1215 BKN020 PROB30 TEMPO 1216/1221 5000 -DZ SCT008", "TAF EGEC 121058Z 1212/1218 29015KT 9999 SCT015 BKN030 PROB30 TEMPO 1212/1214 7000 -RA BKN010", "TAF EGEO 121058Z 1212/1217 30012KT 9999 SCT015 BKN030 PROB30 TEMPO 1212/1215 7000 SHRA BKN012", "TAF AMD EGFF 121329Z 1213/1312 21010KT 9999 SCT035 TEMPO 1213/1218 6000 RA BKN010 PROB40 TEMPO 1213/1219 4000 DZ BKN006 BECMG 1218/1221 33004KT PROB30 1219/1221 6000 BKN004 PROB30 1221/1307 6000 BKN010", "TAF EGGD 121056Z 1212/1312 21010KT 9999 SCT035 TEMPO 1214/1220 6000 RA BKN010 PROB40 TEMPO 1216/1221 4000 DZ BKN004 BECMG 1221/1224 27004KT TEMPO 1221/1309 3000 BR PROB30 1302/1308 0300 FG VV/// PROB30 TEMPO 1309/1312 7000 -RA BKN012", "TAF EGGP 121059Z 1212/1312 17010KT 9999 SCT040 TEMPO 1212/1215 8000 -RA BKN014 PROB30 TEMPO 1212/1215 4000 RA BKN009 BECMG 1214/1217 26004KT PROB30 TEMPO 1215/1218 7000 SHRA BKN012 PROB30 TEMPO 1218/1224 7000 SHRA TEMPO 1300/1309 4000 BR", "TAF EGGW 121056Z 1212/1312 21010KT 9999 SCT035 PROB30 TEMPO 1215/1222 6000 RA TEMPO 1218/1302 BKN010 PROB30 TEMPO 1222/1302 4000 DZ BKN006 BECMG 1300/1303 27005KT TEMPO 1302/1308 4000 BR BKN004 PROB30 TEMPO 1302/1307 0300 FG BKN000", "TAF EGHC 121100Z 1212/1221 22013KT 9999 SCT020 TEMPO 1212/1215 4000 RADZ BKN006 PROB40 TEMPO 1212/1215 BKN003 BECMG 1215/1218 28007KT TEMPO 1215/1218 BKN008 PROB30 TEMPO 1215/1221 8000 -DZ BKN004", "TAF AMD EGHE 121300Z 1213/1221 22017KT 5000 -RADZ BR BKN003 TEMPO 1213/1215 2000 DZ PROB40 1213/1215 0500 FG VV/// BECMG 1215/1218 25007KT 9999 NSW FEW008 SCT030", "TAF EGHH 121104Z 1212/1221 22006KT 9999 FEW020 PROB30 TEMPO 1216/1221 8000 -RADZ BKN014", "TAF EGHI 121104Z 1212/1221 20004KT 9999 FEW030 PROB30 TEMPO 1217/1221 8000 -RADZ BKN014", "TAF EGHQ 121100Z 1212/1221 20009KT 9999 SCT030 TEMPO 1212/1215 4000 RADZ BKN008 PROB40 TEMPO 1212/1215 BKN003 TEMPO 1215/1221 BKN008 PROB30 TEMPO 1215/1221 8000 -DZ BKN004", "TAF EGJA 121051Z 1212/1221 25015KT 9999 SCT015 BECMG 1220/1221 BKN012", "TAF EGJB 121051Z 1212/1221 25013KT 9999 SCT015 BECMG 1220/1221 BKN011", "TAF EGJJ 121051Z 1212/1221 25013KT 9999 FEW015", "TAF EGKA 121100Z 1212/1219 22009KT 9999 SCT025", "TAF EGKB 121100Z 1212/1221 21010KT 9999 SCT030 BECMG 1218/1221 BKN010 TEMPO 1220/1221 7000 -RADZ BKN008", "TAF EGKK 121102Z 1212/1318 16006KT 9999 SCT035 BECMG 1212/1215 22010KT BECMG 1219/1222 BKN012 TEMPO 1220/1223 7000 -RADZ BKN008 BECMG 1223/1302 VRB02KT 8000 BKN005 PROB30 TEMPO 1223/1303 4000 RADZ BR BKN003 PROB30 1303/1308 0300 FG OVC001 BECMG 1308/1311 9999 FEW010 SCT018 PROB40 TEMPO 1308/1318 7000 RA BKN009", "TAF EGLC 121100Z 1212/1221 21009KT 9999 SCT035 PROB30 TEMPO 1220/1221 8000 -RA BKN012", "TAF EGLF 121100Z 1212/1221 20006KT 9999 SCT035 BECMG 1218/1221 BKN012 TEMPO 1219/1221 7000 -RADZ BKN008", "TAF EGLL 121101Z 1212/1318 21007KT 9999 SCT025 BECMG 1220/1223 BKN007 BECMG 1223/1302 SCT003 BECMG 1303/1306 7000 PROB30 1304/1308 0300 FG VV/// BECMG 1308/1311 9999 PROB30 TEMPO 1315/1318 6000 RA BKN007", "TAF EGMC 121100Z 1212/1221 20009KT 9999 SCT030", "TAF EGMD 121100Z 1212/1221 17008KT 9999 SCT025 BECMG 1212/1215 23010KT PROB30 TEMPO 1215/1218 BKN014", "TAF AMD EGNH 121310Z 1213/1220 17010KT 9999 SCT020 BECMG 1213/1215 25005KT TEMPO 1213/1215 8000 -RA BKN005 PROB30 TEMPO 1213/1215 20015G25KT 2000 RA BKN004 PROB30 TEMPO 1215/1220 6000 SHRA BKN014", "TAF EGNJ 121103Z 1212/1221 21012KT 9999 SCT040 TEMPO 1212/1216 8000 -RA PROB30 TEMPO 1212/1216 4000 RA BKN014 PROB40 TEMPO 1216/1221 BKN014", "TAF EGNM 121100Z 1212/1312 21012KT 9999 SCT025 TEMPO 1212/1216 8000 -RA BKN010 PROB40 TEMPO 1212/1216 23015G25KT 4000 RA BKN005 BECMG 1215/1218 VRB04KT PROB40 TEMPO 1216/1220 8000 -RA -SHRA BKN005 TEMPO 1300/1309 4000 BR PROB30 1302/1308 0300 FG VV///", "TAF EGNO 121103Z 1212/1218 17010KT 9999 SCT030 BECMG 1212/1215 25005KT TEMPO 1212/1215 8000 -RA BKN014 PROB30 TEMPO 1212/1215 20015G25KT 4000 RA BKN009 PROB30 TEMPO 1215/1218 6000 SHRA BKN014", "TAF EGNR 121103Z 1212/1220 17010KT 9999 FEW040 BECMG 1212/1215 24005KT TEMPO 1212/1215 8000 -RA BKN014 PROB30 TEMPO 1212/1215 4000 RA BKN009 PROB30 TEMPO 1215/1220 6000 SHRA BKN014", "TAF EGNS 121100Z 1212/1221 27012KT 9999 SCT012 BKN035", "TAF EGNT 121100Z 1212/1312 18012KT 9999 FEW030 BECMG 1212/1215 25005KT PROB30 TEMPO 1212/1215 23015G25KT 4000 RADZ BKN014", "TAF EGNV 121103Z 1212/1221 18010KT 9999 SCT035 TEMPO 1212/1215 8000 -RA PROB40 TEMPO 1212/1215 23015G25KT 4000 RA BKN014 PROB30 TEMPO 1215/1218 6000 SHRA", "TAF EGNX 121100Z 1212/1312 23013KT 9999 SCT040 TEMPO 1212/1217 8000 -RADZ BKN014 PROB30 TEMPO 1212/1217 4000 RA BKN008 PROB40 TEMPO 1217/1221 8000 -RADZ BKN008 TEMPO 1304/1308 8000 BKN014 BECMG 1306/1309 30003KT PROB30 TEMPO 1306/1308 4000 BR", "TAF EGOS 121039Z 1212/1218 20012KT 9999 FEW020 BKN025 BECMG 1212/1214 -RA BKN018 TEMPO 1212/1216 6000 RA SCT010 BKN015 PROB30 TEMPO 1213/1216 4000 RADZ BECMG 1216/1218 NSW SCT030", "TAF EGOV 121053Z 1212/1219 26014KT 9999 FEW005 BKN025 PROB30 TEMPO 1212/1216 7000 SHRA SCT012 PROB30 TEMPO 1216/1219 7000 SHRA SCT020", "TAF EGOW 121053Z 1212/1218 24008KT 9999 BKN018 BECMG 1212/1215 FEW014 PROB30 TEMPO 1212/1213 5000 RA SCT012", "TAF AMD EGPA 121249Z 1212/1221 20012KT 9999 FEW015 SCT040 BECMG 1212/1215 30013KT TEMPO 1212/1214 2000 DZRA BKN002", "TAF EGPB 121056Z 1212/1221 21015KT 9999 SCT015 BKN025 TEMPO 1212/1216 7000 -RA BKN010 PROB40 TEMPO 1212/1215 4000 DZRA BKN006 BECMG 1214/1217 28015KT", "TAF AMD EGPC 121235Z 1212/1221 17012KT 9999 FEW015 BKN030 BECMG 1212/1215 28014KT PROB30 TEMPO 1212/1214 29015G25KT 7000 -RA BKN012", "TAF EGPD 121055Z 1212/1312 21008KT 9999 SCT020 BECMG 1212/1215 27010KT TEMPO 1212/1215 7000 -RADZ BKN012 PROB30 TEMPO 1212/1214 4000 DZRA BKN006 BECMG 1303/1306 VRB03KT PROB30 1303/1308 6000 BECMG 1308/1311 20010KT", "TAF EGPE 121056Z 1212/1221 23012KT 9999 FEW015 SCT035 PROB40 TEMPO 1212/1214 7000 -RA", "TAF EGPF 121055Z 1212/1312 20012KT 9999 FEW030 BECMG 1212/1215 27010KT TEMPO 1212/1214 7000 -RA BKN010 PROB40 TEMPO 1212/1213 3000 DZRA BKN006 BECMG 1219/1222 VRB03KT TEMPO 1301/1310 6000 PROB40 1302/1308 3000 BR MIFG BECMG 1310/1312 18010KT", "TAF AMD EGPH 121252Z 1212/1312 24012KT 9999 SCT020 BKN040 TEMPO 1212/1215 6000 -RADZ BKN012 PROB30 TEMPO 1212/1214 26015G25KT 4000 DZRA BKN008 BECMG 1219/1222 VRB03KT PROB30 1302/1310 6000 BECMG 1310/1312 21010KT", "TAF EGPI 121058Z 1212/1218 29015KT 9999 SCT015 BKN030 PROB30 TEMPO 1212/1214 7000 -RA", "TAF EGPK 121055Z 1212/1312 27012KT 9999 SCT030 TEMPO 1212/1214 BKN012 PROB30 TEMPO 1212/1213 BKN008 BECMG 1220/1223 12007KT PROB30 1302/1308 6000 BECMG 1308/1311 18010KT", "TAF EGPL 121056Z 1212/1218 31015KT 9999 FEW015 SCT030", "TAF EGPN 121058Z 1212/1221 25007KT 9999 SCT015 BKN030 TEMPO 1212/1215 7000 -RA BKN010 PROB30 TEMPO 1212/1214 4000 DZRA BKN007", "TAF EGPO 121056Z 1212/1221 30012KT 9999 FEW016 SCT030", "TAF EGPU 121058Z 1212/1218 29012KT 9999 FEW015 SCT035", "TAF EGQL 121029Z 1212/1221 24012KT 9999 BKN030 PROB40 TEMPO 1212/1214 -SHRA SCT024 PROB30 TEMPO 1212/1213 SCT014", "TAF AMD EGQS 121142Z 1212/1306 27014KT 9999 FEW024 SCT045 TEMPO 1212/1213 27016G27KT 7000 -RA SCT020", "TAF EGSC 121058Z 1212/1217 20010KT 9999 SCT040 PROB30 TEMPO 1212/1217 9000 -SHRA", "TAF EGSH 121100Z 1212/1221 18008KT 9999 FEW040 TEMPO 1215/1218 8000 -RA PROB30 TEMPO 1215/1218 4000 RA PROB30 TEMPO 1218/1221 8000 -SHRA BKN014", "TAF EGSS 121056Z 1212/1318 21010KT 9999 SCT035 PROB30 TEMPO 1216/1223 6000 RA TEMPO 1219/1303 BKN012 PROB30 TEMPO 1223/1303 4000 DZ BKN006 BECMG 1301/1304 28004KT TEMPO 1303/1309 4000 BR BKN006 PROB30 TEMPO 1303/1308 0400 FG BKN001 TEMPO 1312/1317 7000 RA BKN009", "TAF EGSY 121104Z 1212/1221 24008KT 9999 SCT030 TEMPO 1212/1221 8000 -RADZ BKN014 PROB30 TEMPO 1212/1221 4000 RADZ BKN008", "TAF EGTC 121058Z 1212/1218 21010KT 9999 SCT035 PROB30 TEMPO 1212/1218 9000 -SHRA", "TAF EGTE 121100Z 1212/1221 22006KT 9999 SCT030 TEMPO 1212/1219 BKN012 PROB30 TEMPO 1212/1218 8000 -RADZ BKN008", "TAF EGTK 121058Z 1212/1221 21008KT 9999 SCT030 PROB30 TEMPO 1212/1218 9000 -SHRA BECMG 1215/1218 BKN012 TEMPO 1218/1221 7000 -RADZ BKN008", "TAF EGUB 121041Z 1212/1221 20008KT 9999 FEW030 SCT048 BECMG 1216/1219 BKN016 PROB30 TEMPO 1216/1221 7000 RA BECMG 1219/1221 BKN012", "TAF EGUL 121300Z 1213/1319 19010G15KT 9999 BKN035 BKN065 QNH3007INS BECMG 1218/1219 23012KT 9999 BKN020 OVC040 QNH3003INS BECMG 1222/1223 25009KT 6000 -RA BR BKN008 QNH3000INS BECMG 1301/1302 22006KT 3200 BR BKN007 OVC025 610605 QNH2999INS TEMPO 1302/1308 27004KT 1600 BR OVC005 BECMG 1308/1309 33006KT 5000 BR SCT005 BKN020 BKN080 610504 QNH2996INS BECMG 1311/1312 34009KT 9999 NSW SCT020 BKN035 QNH2993INS BECMG 1315/1316 27006KT 9999 BKN020 BKN060 QNH2992INS TX18/1214Z TN10/1305Z", "TAF EGUN 121200Z 1212/1318 20013KT 9999 FEW040 SCT090 BKN200 QNH3004INS TEMPO 1212/1217 21010G20KT -SHRA FEW025 BKN045 BKN090 610903 BECMG 1219/1221 20010KT 9000 BR VCSH SCT017 BKN025 OVC040 610807 QNH3001INS TEMPO 1221/1224 6000 -RA BR SCT007 BKN018 OVC030 620809 BECMG 1300/1302 24005KT 4000 BR BKN008 OVC018 600708 QNH2998INS TEMPO 1303/1308 2400 -DZ BR OVC005 610708 BECMG 1308/1309 26007KT 9999 NSW FEW010 BKN025 BKN180 600702 QNH2995INS TEMPO 1309/1312 9000 HZ SCT007 BKN017 OVC030 BECMG 1312/1313 25008KT 9999 SCT020 BKN040 BKN150 QNH2992INS TX18/1215Z TN09/1306Z", "TAF AMD EGUW 121256Z 1212/1221 20010KT 9999 SCT030 TEMPO 1213/1221 SCT020 PROB30 TEMPO 1215/1218 6000 RA", "TAF EGVA 121200Z 1212/1318 22012G20KT 9999 SCT025 BKN050 OVC120 QNH3005INS BECMG 1218/1219 22012KT 9999 SCT010 BKN020 QNH3001INS BECMG 1301/1302 VRB04KT 8000 BR BKN009 OVC015 QNH2997INS TEMPO 1303/1309 4800 BR FEW003 BKN007 BECMG 1309/1310 VRB03KT 9999 NSW SCT015 BKN030 QNH2990INS TX16/1215Z TN08/1307Z", "TAF EGVN 121039Z 1212/1312 21008KT 9999 FEW040 TEMPO 1215/1221 -RA BKN020 PROB40 TEMPO 1218/1222 SCT010 PROB40 1302/1309 2500 BR SCT003 TEMPO 1309/1312 SCT012", "TAF EGVO 121044Z 1212/1224 12007KT 9999 FEW028 BECMG 1216/1219 BKN013 BECMG 1219/1221 BKN005 TEMPO 1220/1224 3500 -DZ BKN003 PROB30 TEMPO 1222/1224 2000 BR DZ BKN002", "TAF EGVP 121041Z 1212/1221 21007KT 9999 FEW030 BECMG 1215/1218 BKN020 TEMPO 1216/1221 BKN010 PROB40 TEMPO 1219/1221 4000 -RADZ SCT006", "TAF AMD EGWC 121217Z 1212/1217 20012KT 9999 -RA BKN024 TEMPO 1212/1217 6000 RA SCT010 BKN015 PROB30 TEMPO 1212/1217 3000 RADZ", "TAF EGWU 121040Z 1212/1306 20008KT 9999 SCT030 TEMPO 1218/1301 7000 -RA BKN010 PROB30 TEMPO 1221/1301 4000 RADZ BKN006 PROB40 1301/1306 5000 BR PROB30 1304/1306 0800 FG OVC002", "TAF EGXC 121054Z 1212/1306 20010KT 9999 SCT040 TEMPO 1214/1222 7000 -RA BKN018 PROB30 TEMPO 1217/1222 BKN012 PROB40 TEMPO 1301/1306 3000 BR SCT003 PROB30 1303/1306 0300 FG VV///", "TAF EGXE 121023Z 1212/1218 19014KT 9999 FEW020 BKN025 TEMPO 1212/1218 BKN018 PROB30 TEMPO 1212/1217 7000 RA SCT013", "TAF EGXP 121049Z 1212/1218 21014KT 9999 BKN040 TEMPO 1213/1218 7000 RA BKN020 PROB30 TEMPO 1216/1218 SCT012", "TAF EGXT 121053Z 1212/1218 19012KT 9999 FEW025 PROB40 TEMPO 1213/1218 5000 SHRA BECMG 1214/1217 BKN018", "TAF EGXW 121048Z 1212/1306 21014KT 9999 BKN040 TEMPO 1213/1220 7000 RA BKN020 PROB30 TEMPO 1216/1222 SCT012 PROB40 TEMPO 1223/1306 3000 BR SCT003", "TAF EGYM 121039Z 1212/1218 20010KT 9999 FEW022 SCT030 PROB30 TEMPO 1215/1218 7000 -RA SCT022", "TAF EGYP 121051Z 1212/1306 29014KT 9999 SCT030 TEMPO 1212/1214 4000 -RADZ BKN012 PROB30 TEMPO 1212/1214 2000 RADZ BKN006 BKN008CB TEMPO 1214/1218 27018G28KT 4000 -SHRASN BKN014CB PROB30 TEMPO 1215/1218 2000 SHRASN SHGS SCT006 TEMPO 1218/1221 4000 -SHRASN BKN025CB PROB30 TEMPO 1218/1302 27018G28KT 2000 SHRASN SHGS SCT010 PROB40 TEMPO 1221/1302 4000 -SHRASN BKN020CB BECMG 1302/1305 22022G34KT TEMPO 1302/1306 4000 -SHRASN BKN020CB PROB30 TEMPO 1302/1306 2000 SHRASN SHGS SCT010", "TAF EHAM 121121Z 1212/1318 19008KT CAVOK BECMG 1302/1305 7000 -RA SCT014 BKN018 TEMPO 1304/1312 3000 RADZ -SHRA BKN008 FEW020CB PROB30 TEMPO 1307/1310 2000 DZRA BKN004 BECMG 1311/1314 22010KT 9999 NSW PROB30 TEMPO 1312/1318 4500 RADZ SHRA BKN008 SCT020CB", "TAF EHBK 121119Z 1212/1318 21007KT CAVOK PROB40 TEMPO 1306/1318 6000 RA -SHRA BKN014 FEW018TCU", "TAF EHDL 121238Z 1213/1301 19007KT CAVOK", "TAF EHEH 121144Z 1212/1318 19007KT CAVOK TEMPO 1309/1316 3000 RA SHRA SCT006 BKN010 SCT025CB BECMG 1310/1312 22010KT", "TAF EHGG 121119Z 1212/1318 17005KT CAVOK BECMG 1304/1307 7000 -RA BKN014 TEMPO 1306/1314 4000 RA SHRA BKN006 FEW018CB BECMG 1309/1312 22010KT BECMG 1313/1316 9999 NSW BKN008 PROB40 TEMPO 1314/1318 4500 -DZ BKN004 BECMG 1316/1318 19005KT", "TAF EHGR 121242Z 1213/1301 18008KT CAVOK BECMG 1213/1215 21008KT TEMPO 1219/1221 16004KT", "TAF EHKD 121229Z 1213/1301 21010KT CAVOK BECMG 1219/1221 18006KT TEMPO 1223/1301 SCT015", "TAF EHLE 121122Z 1212/1318 20008KT CAVOK BECMG 1304/1307 7000 -RA BKN014 TEMPO 1305/1313 3000 RADZ -SHRA BKN008 FEW020CB PROB30 TEMPO 1307/1311 2000 DZRA BKN004 BECMG 1312/1315 9999 NSW SCT014 BKN018 PROB30 TEMPO 1313/1317 4500 RADZ SHRA BKN008 SCT020CB", "TAF EHLW 121239Z 1213/1301 19008KT CAVOK", "TAF EHRD 121121Z 1212/1318 20008KT CAVOK BECMG 1302/1305 7000 -RA BKN014 TEMPO 1304/1311 3000 RADZ -SHRA BKN008 FEW020CB PROB30 TEMPO 1306/1310 2000 DZRA BKN004 BECMG 1311/1314 9999 NSW PROB40 TEMPO 1312/1318 4500 RADZ SHRA BKN008 SCT020CB", "TAF EHVK 121239Z 1213/1301 19006KT CAVOK", "TAF EHWO 120423Z 1205/1217 10003KT 9999 NSC PROB40 TEMPO 1205/1207 1500 BCFG MIFG BECMG 1209/1212 19006KT", "TAF EICK 121100Z 1212/1312 26006KT 9999 SCT020 SCT040 BECMG 1218/1220 VRB03KT TEMPO 1302/1307 4000 BR BKN008 PROB30 TEMPO 1303/1307 0500 FG BKN001 TEMPO 1307/1312 4000 -RADZ BR BKN007 PROB30 TEMPO 1307/1312 2000 BKN003 BECMG 1309/1311 16010KT", "TAF EIDL 121100Z 1212/1221 28014KT 9999 FEW025 SCT040 BECMG 1214/1216 25008KT", "TAF EIDW 121100Z 1212/1312 26010KT 9999 SCT018 BKN040 BECMG 1216/1218 26005KT PROB30 TEMPO 1301/1305 0800 FG BKN001 BECMG 1302/1304 VRB03KT BECMG 1307/1309 16006KT BECMG 1310/1312 19008KT", "TAF EIKN 121100Z 1212/1312 27006KT 9999 SCT020 BKN045 BECMG 1217/1219 VRB03KT TEMPO 1300/1309 3000 BR BKN008 PROB40 TEMPO 1302/1308 0200 FG BKN001 BECMG 1306/1308 13010KT BECMG 1309/1311 17010KT PROB40 TEMPO 1311/1312 -RA BKN012", "TAF EIKY 121100Z 1212/1221 25006KT 9999 FEW010 BKN045", "TAF EIME 121100Z 1212/1221 25009KT 9999 SCT015 SCT040", "TAF EINN 121100Z 1212/1312 26007KT 9999 SCT020 BKN045 BECMG 1218/1220 VRB03KT TEMPO 1300/1307 3000 BR BKN008 PROB30 TEMPO 1301/1306 0500 FG BKN001 PROB40 TEMPO 1309/1312 4000 -RADZ BKN010 BECMG 1310/1312 14010KT", "TAF EISG 121100Z 1212/1221 27010KT 9999 SCT030 BKN050 BECMG 1216/1218 22007KT", "TAF EIWF 121100Z 1212/1221 29006KT 9999 FEW040", "TAF EKAH 121100Z 1212/1312 20007KT 9999 FEW035", "TAF EKBI 121100Z 1212/1312 19008KT 9999 SCT030 PROB40 1304/1308 4000 BR TEMPO 1309/1312 BKN008", "TAF EKCH 121103Z 1212/1312 19012KT 9999 SCT020", "TAF EKEB 121121Z 1212/1221 19010KT 9999 SCT020", "TAF EKGC 121121Z 1212/1221 21022KT 9999 SCT020 TEMPO 1219/1221 BKN010", "TAF EKHD 121121Z 1212/1221 21028KT 9999 SCT020 BECMG 1216/1218 BKN010 TEMPO 1218/1221 RADZ BKN008", "TAF EKKA 121103Z 1212/1312 20008KT 9999 FEW030 BKN120 TEMPO 1304/1309 4000 BR TEMPO 1309/1312 4000 RADZ BR BKN008", "TAF EKOD 121122Z 1212/1216 21008KT 9999 SCT020", "TAF EKRK 121103Z 1212/1221 19008KT 9999 SCT020 BKN040", "TAF EKRN 121102Z 1212/1221 29012KT 9999 BKN025", "TAF EKSB 121122Z 1212/1221 19008KT 9999 SCT020", "TAF EKSP 121113Z 1212/1312 20006KT 9999 SCT025 SCT050 TEMPO 1220/1308 4000 -RA BR TEMPO 1308/1312 BKN008", "TAF EKVD 121122Z 1212/1216 20008KT 9999 SCT020", "TAF EKVG 121122Z 1212/1221 28015KT 9999 SCT015 BKN030 TEMPO 1212/1215 29020G30KT BECMG 1218/1220 20012KT", "TAF EKVJ 120857Z 1209/1215 18008KT 9999 SCT030", "TAF EKYT 121104Z 1212/1312 20010KT 9999 FEW030 BKN120 TEMPO 1309/1312 4000 RADZ BR BKN008", "TAF ELLX 121100Z 1212/1318 24005KT 9999 BKN012 BECMG 1212/1214 SCT030 PROB40 1302/1309 0800 FG VV002 BECMG 1312/1314 5000 -RA BKN015", "TAF ENAL 121100Z 1212/1221 19012KT 9999 -RA FEW020 BKN035", "TAF ENAN 1212/1312 23018KT 9999 FEW010 BKN030 TEMPO 1212/1215 25020G30KT TEMPO 1212/1220 SHRA BKN020TCU BECMG 1215/1218 20008KT TEMPO 1300/1306 14018KT 4000 RADZ BKN014 TEMPO 1306/1312 24015G25KT FEW020TCU", "TAF ENAT 121100Z 1212/1221 15005KT 9999 -SHRA FEW015 BKN035 PROB40 TEMPO 1212/1218 30012KT SHRA SCT025CB", "TAF ENBN 121100Z 1212/1221 16009KT 9999 FEW030 BKN050 TEMPO 1214/1221 16015G25KT RA", "TAF ENBO 1212/1312 23009KT 9999 -SHRA FEW015 SCT035 BKN050 TEMPO 1212/1213 FEW020CB BKN030 BECMG 1214/1216 10010KT TEMPO 1216/1223 RA BECMG 1221/1224 21015KT TEMPO 1223/1309 21018G28KT", "TAF ENBR 1212/1312 15015KT 9999 SCT008 BKN018 TEMPO 1212/1218 15015G25KT RA BKN008 BECMG 1218/1220 15018G28KT 4000 RA BKN008 BECMG 1300/1304 30008KT 9999 NSW FEW015 BKN030", "TAF ENBS 121100Z 1212/1221 24015KT 9999 FEW005 SCT015 BKN025 TEMPO 1214/1221 25015G25KT SHRA SCT020CB", "TAF ENBV 121100Z 1212/1221 25015KT 9999 -SHRA FEW020 SCT035 TEMPO 1213/1221 25020G30KT SHRA SCT020CB", "TAF ENCN 121100Z 1212/1221 20008KT 9999 FEW010 BKN020 TEMPO 1212/1221 4000 -SHRA BR BKN006 FEW015TCU", "TAF ENDU 1212/1312 23008KT 9999 -SHRA FEW020 BKN040 TEMPO 1212/1218 FEW025TCU", "TAF ENEV 1212/1312 23012KT 9999 -SHRA FEW015 BKN030 TEMPO 1212/1216 21015G25KT TEMPO 1212/1218 SCT025TCU BECMG 1216/1218 16006KT TEMPO 1221/1310 RA BKN012", "TAF ENFL 121100Z 1212/1221 17022KT 9999 -RA SCT014 BKN020 TEMPO 1212/1221 RA BKN012", "TAF ENGC 1212/1312 20032KT 9999 -RA SCT012 BKN025 PROB40 1212/1215 BKN012 BECMG 1215/1217 3000 RA BKN006 BECMG 1217/1219 23020KT BECMG 1219/1222 30020KT 9999 NSW FEW015 BKN030 BECMG 1305/1308 24020KT", "TAF ENGM 1212/1312 17008KT 9999 FEW020 BKN040 TEMPO 1215/1220 BKN012 BECMG 1220/1222 BKN012 TEMPO 1222/1312 4000 -RA BR BKN006", "TAF ENHD 121100Z 1212/1220 18015KT 9999 -RA SCT015 BKN020 PROB40 TEMPO 1212/1218 RA BKN012 BECMG 1218/1220 17022G32KT 4000 RA BKN008", "TAF AMD ENHE 121232Z 1212/1221 20040KT 6000 -RA SCT006 BKN010 TEMPO 1212/1221 2500 RA BR BKN006", "TAF ENHF 121100Z 1212/1221 26015KT 9999 -SHRA FEW010 BKN025 TEMPO 1212/1221 26018G28KT SHRA BKN012 SCT020CB", "TAF ENHV 121100Z 1212/1221 28015KT 9999 -SHRA FEW015 BKN030 TEMPO 1212/1221 29018G28KT SHRA SCT015CB", "TAF ENKB 121100Z 1212/1221 14008KT 9999 -RA FEW020 BKN055", "TAF ENKR 121100Z 1212/1221 25015KT 9999 FEW008 BKN030 TEMPO 1215/1221 SHRA SCT020CB", "TAF ENLE 121100Z 1212/1221 20032KT 9999 FEW015 BKN040 BECMG 1215/1217 4000 RADZ BR BKN012 BECMG 1219/1221 26025KT 9999 NSW SCT012 BKN050", "TAF ENML 121100Z 1212/1221 07008KT 9999 -RA FEW020 BKN055", "TAF ENMS 121100Z 1212/1221 17005KT 9999 FEW020 BKN035 TEMPO 1216/1218 RA PROB40 TEMPO 1217/1221 22015G25KT", "TAF ENNA 1212/1312 19008KT 9999 FEW030 BKN050 TEMPO 1212/1224 27015G25KT PROB40 TEMPO 1212/1220 SHRA FEW030CB", "TAF AMD ENNE 121248Z 1212/1217 17028KT 6000 -RA BR SCT006 BKN010 TEMPO 1212/1217 2500 RADZ BR BKN006 BECMG 1213/1215 21038KT", "TAF ENNO 120800Z 1209/1217 12005KT 9999 FEW010 SCT030 TEMPO 1215/1217 BKN012", "ENOA 1212/1312 19032KT 9999 -RA SCT012 BKN025 PROB40 1212/1215 BKN014 BECMG 1215/1217 3000 RA BKN006 BECMG 1217/1219 20022KT BECMG 1219/1222 30018KT 9999 NSW FEW015 BKN030 BECMG 1307/1309 24015KT BECMG 1310/1312 24025KT", "TAF ENOL 1212/1312 13015KT 9999 -RA FEW008 BKN045 BECMG 1303/1305 24012KT TEMPO 1304/1312 SHRA BKN014TCU", "TAF ENOV 121100Z 1212/1221 06005KT 9999 -RA BKN035 TEMPO 1212/1221 VRB10G22KT", "TAF ENRA 121100Z 1212/1221 04004KT 9999 FEW012 SCT020 BKN030 TEMPO 1217/1221 RA BKN014", "TAF ENRO 121100Z 1212/1219 16005KT 9999 FEW015 BKN030", "TAF ENRY 1212/1312 19009KT 9999 FEW010 BKN030 TEMPO 1212/1224 4000 -SHRA BKN008 FEW015TCU TEMPO 1300/1312 21015G25KT RA BKN008", "TAF ENSB 1212/1312 09006KT 9999 FEW020 BKN045 BECMG 1219/1221 35012KT", "TAF ENSD 121100Z 1212/1221 VRB07G17KT 9999 -RA FEW020 BKN030 PROB40 TEMPO 1217/1221 19012G25KT", "TAF ENSK 121100Z 1212/1221 23008KT 9999 -SHRA FEW020 BKN030 TEMPO 1212/1217 SHRA SCT020TCU BECMG 1217/1219 17010KT", "TAF ENSO 121100Z 1212/1219 15015KT 9999 -RA FEW010 BKN018 TEMPO 1212/1216 16015G25KT RA BKN012 BECMG 1216/1218 16015G25KT RA BKN012", "TAF ENSR 121100Z 1212/1220 VRB05KT 9999 -SHRA FEW040 SCT060 PROB40 TEMPO 1212/1220 27015G30KT TEMPO 1212/1215 SHRA SCT025CB", "TAF ENTC 1212/1312 23015KT 9999 -SHRA FEW015 SCT020 BKN040 TEMPO 1212/1216 26018G28KT SHRA BKN014 SCT020CB TEMPO 1215/1221 FEW020TCU SCT030 BECMG 1223/1302 VRB03KT TEMPO 1303/1312 RA BKN012 BECMG 1306/1308 19012KT", "TAF ENTO 1212/1312 21008KT 9999 FEW010 BKN030 TEMPO 1212/1224 4000 -SHRA BKN008 FEW015TCU TEMPO 1300/1309 21015G25KT RA BKN008", "TAF ENVA 1212/1312 10008KT 9999 BKN055 PROB40 1307/1310 21010KT RA BKN012", "TAF ENVD 121100Z 1212/1221 27015KT 9999 FEW015 BKN040 TEMPO 1215/1221 SHRA SCT020CB", "TAF ENZV 1212/1312 16015KT 9999 -RA FEW015 BKN020 TEMPO 1212/1218 BKN014 TEMPO 1219/1222 16020G30KT BECMG 1219/1221 4000 RA BKN008 BECMG 1300/1303 32012KT 9999 NSW BKN020", "TAF EPBY 121130Z 1212/1312 30008KT 9999 SCT040 BECMG 1215/1218 VRB02KT PROB30 TEMPO 1223/1305 0700 FG BECMG 1305/1307 16010KT", "TAF EPCE 121100Z 1212/1221 25008KT 9999 SCT030 PROB30 TEMPO 1212/1218 8000 SHRA FEW008 BKN017TCU", "TAF EPDA 121100Z 1212/1221 24008KT 9999 SCT040 BECMG 1215/1217 13006KT TEMPO 1217/1221 VRB03KT 5000 BR MIFG PROB30 TEMPO 1218/1221 3000 BR SCT004", "TAF EPDE 121100Z 1212/1221 28006KT 9999 SCT040 BECMG 1218/1220 VRB03KT 6000 MIFG NSC", "TAF EPGD 121130Z 1212/1312 29011KT 9999 SCT030 PROB30 TEMPO 1212/1216 -SHRA BKN025TCU BECMG 1216/1219 19006KT PROB40 TEMPO 1309/1312 18015G25KT", "TAF EPIR 121100Z 1212/1221 30006KT CAVOK BECMG 1215/1217 12008KT", "TAF EPKK 121130Z 1212/1312 07003KT CAVOK PROB30 1301/1305 1400 BR", "TAF EPKS 121100Z 1212/1221 VRB03KT CAVOK", "TAF EPKT 121130Z 1212/1312 10004KT CAVOK PROB30 1300/1306 2000 BR", "TAF EPLB 121130Z 1212/1312 VRB04KT 9999 SCT040 BECMG 1221/1224 3000 BR PROB40 1222/1306 0600 FG BKN001 BECMG 1306/1309 13010KT", "TAF EPLK 121100Z 1212/1221 VRB03KT CAVOK", "TAF EPLL 121130Z 1212/1312 VRB03KT 9999 SCT040 TEMPO 1221/1306 4000 BR BECMG 1306/1309 16010KT", "TAF EPLY 121100Z 1212/1221 VRB02KT CAVOK BECMG 1216/1218 16010KT", "TAF EPMB 121100Z 1212/1221 27010KT 9999 SCT040 TEMPO 1212/1218 SCT030TCU BKN040 BECMG 1214/1217 19005KT", "TAF EPMI 121100Z 1212/1221 13006KT 9999 BKN040 BECMG 1218/1221 SCT040", "TAF EPMM 121100Z 1212/1221 28006KT 9999 SCT040 BECMG 1213/1215 CAVOK BECMG 1218/1220 VRB03KT", "TAF EPMO 121130Z 1212/1312 23005KT 9999 SCT040 BECMG 1221/1224 3000 BR PROB40 1222/1306 0600 FG BKN001 BECMG 1307/1310 16010KT", "TAF EPOK 121100Z 1212/1221 26013KT 9999 BKN030 PROB30 TEMPO 1212/1216 -SHRA BKN020TCU BECMG 1218/1220 20005KT SCT040", "TAF EPPO 121130Z 1212/1312 12004KT CAVOK", "TAF EPPR 121100Z 1212/1221 24008KT 9999 BKN030 PROB30 TEMPO 1212/1217 SHRA BKN020CB", "TAF EPPW 121100Z 1212/1221 29006KT CAVOK BECMG 1212/1214 10008KT", "TAF EPRA 121130Z 1212/1221 VRB02KT 9999 SCT040", "TAF EPRZ 121130Z 1212/1312 06004KT CAVOK PROB30 1302/1305 2000 BR", "TAF EPSC 121130Z 1212/1312 19006KT 9999 BKN045", "TAF EPSN 121100Z 1212/1221 24006KT 9999 BKN040", "TAF EPSY 121130Z 1212/1221 27006KT 9999 SCT040 PROB40 TEMPO 1217/1221 VRB03KT 3000 MIFG BR SCT005", "TAF EPTM 121100Z 1212/1224 VRB03KT 9999 SCT040", "TAF EPWA 121130Z 1212/1312 27005KT 9999 SCT040 BECMG 1221/1224 3000 BR PROB40 1222/1306 0600 FG BKN001 BECMG 1307/1310 16010KT", "TAF EPWR 121130Z 1212/1312 12004KT CAVOK", "TAF EPZG 121130Z 1212/1221 12004KT CAVOK", "TAF ESCF 121130Z 1212/1220 26006KT 9999 FEW020 PROB40 1213/1218 9999 -SHRA SCT020 BKN040TCU RMK MIL", "TAF ESCM 121130Z 1212/1214 24007KT CAVOK RMK MIL", "TAF ESDF 121130Z 1212/1219 25006KT 9999 FEW008 SCT015 BKN035 TEMPO 1212/1219 -SHRA BKN009 BKN025TCU RMK MIL", "TAF ESGG 121130Z 1212/1312 21009KT 9999 SCT012 BKN045 PROB40 1213/1216 BKN014 PROB40 1216/1223 4000 DZRA BR BKN012", "TAF AMD ESGJ 121157Z 1212/1221 21005KT 9999 -DZ SCT005 BKN020 PROB40 1212/1218 BKN014 PROB40 1218/1221 2500 BR", "TAF ESGP 121130Z 1212/1221 22010KT 9999 SCT016 BKN040 PROB40 1216/1221 RA", "TAF ESGT 121130Z 1212/1220 20009KT 9999 SCT020 BKN030 PROB40 1216/1220 4000 DZ BR BKN012", "TAF ESIA 120830Z 1209/1214 24006KT CAVOK PROB30 TEMPO 1212/1214 5000 SHRA BKN020TCU RMK MIL", "TAF ESIB 121130Z 1212/1215 20009KT 9999 BKN030 TEMPO 1212/1215 5000 SHRA BKN010TCU RMK MIL", "TAF ESKN 121130Z 1212/1312 23008KT CAVOK PROB40 1301/1308 4000 BR BKN006", "TAF ESMK 121101Z 1212/1219 22007KT 9999 SCT020", "TAF ESMQ 121130Z 1212/1219 26009KT 9999 SCT030 PROB40 1218/1219 3000 BR", "TAF ESMS 121101Z 1212/1312 19008KT 9999 SCT020 PROB40 1221/1306 2500 BR", "TAF ESMT 121101Z 1212/1219 23012KT 9999 SCT015", "TAF ESMX 121130Z 1212/1221 23005KT 9999 BKN025 PROB40 1218/1221 4000 BR DZ BKN014", "TAF ESNG 121130Z 1212/1221 28012KT CAVOK BECMG 1214/1217 22005KT", "TAF ESNK 121130Z 1212/1217 28010KT CAVOK BECMG 1213/1215 17005KT", "TAF ESNN 121130Z 1212/1221 24005KT CAVOK", "TAF ESNQ 121130Z 1212/1221 27010KT CAVOK BECMG 1214/1216 21005KT", "TAF ESNS 121130Z 1212/1221 26008KT CAVOK", "TAF ESNU 121130Z 1212/1221 25008KT CAVOK", "TAF ESNX 121130Z 1212/1220 26013KT CAVOK BECMG 1215/1217 20006KT", "TAF ESNZ 121130Z 1212/1221 19008KT 9999 SCT040", "TAF ESOE 121130Z 1212/1221 22008KT CAVOK", "TAF ESOK 121130Z 1212/1217 22006KT CAVOK", "TAF ESOW 121130Z 1212/1217 21006KT CAVOK", "TAF ESPA 121130Z 1212/1221 28010G20KT CAVOK BECMG 1212/1214 26008KT RMK MIL", "TAF ESSA 121130Z 1212/1312 21006KT CAVOK PROB40 1301/1308 4000 BR BKN006", "TAF ESSB 121130Z 1212/1221 21006KT CAVOK", "TAF ESSD 121130Z 1212/1215 21005KT CAVOK", "TAF ESSL 121130Z 1212/1216 25008KT CAVOK", "TAF ESSP 121130Z 1212/1215 25009KT CAVOK", "TAF ESSV 121130Z 1212/1220 25008KT 9999 SCT016", "TAF ESTA 121101Z 1212/1221 20008KT 9999 SCT020", "TAF ESTL 121101Z 1212/1215 20007KT 9999 SCT020", "TAF ETAD 121200Z 1212/1318 25009KT 9999 BKN012 QNH3018INS BECMG 1214/1215 23009KT 9999 SCT012 QNH3019INS BECMG 1217/1218 VRB06KT 3200 BR SCT008 BKN015 QNH3017INS BECMG 1220/1221 VRB06KT 3200 BR BKN008 QNH3016INS BECMG 1304/1305 VRB06KT 3200 BR OVC003 QNH3012INS BECMG 1311/1312 21009KT 9000 -SHRA OVC008 QNH3004INS TX15/1214Z TN06/1306Z", "TAF AMD ETAR 121046Z 1210/1316 09006KT 9999 BKN020 QNH3020INS TEMPO 1210/1216 BKN010 BECMG 1219/1220 VRB06KT 6000 BR BKN015 QNH3018INS TEMPO 1302/1307 3200 BR SCT002 BKN008 BECMG 1311/1312 20009KT 9999 NSW BKN020 QNH3013INS TX15/1213Z TN06/1303Z", "TAF AMD ETEB 121200Z 1212/1313 15006KT 4800 BR OVC005 QNH3024INS BECMG 1300/1301 21006KT 3200 BR OVC005 QNH3017INS TX15/1215Z TN11/1212Z", "TAF ETHA 121020Z 1211/1220 VRB03KT 9999 NSW BKN013 BECMG 1211/1212 VRB03KT 9999 NSW BKN015 TEMPO 1212/1216 VRB03KT 9999 NSW SCT015", "TAF ETHB 121001Z 1211/1220 17005KT 9999 NSW FEW030 SCT200 BECMG 1216/1218 VRB03KT 9999 NSW SCT150", "TAF ETHC 121020Z 1211/1220 14007KT 9999 NSW SCT030 SCT250", "TAF ETHF 121020Z 1211/1220 18005KT 9999 NSW SCT160", "TAF ETHL 121020Z 1211/1220 08004KT 7000 NSW FEW006 BKN010 BECMG 1211/1212 04003KT 8000 NSW SCT008 BKN020", "TAF AMD ETHN 121051Z 1211/1220 16005KT 6000 NSW SCT005 BECMG 1211/1213 17005KT 9999 NSW FEW040 TEMPO 1211/1213 VRB03KT 3000 BR BKN005", "TAF ETHS 121015Z 1211/1220 16006KT 9999 NSW SCT180", "TAF ETIC 121000Z 1210/1316 18003KT 9999 FEW025 BKN035 QNH3019INS BECMG 1218/1219 16003KT 5000 BR SCT015 OVC030 QNH3015INS BECMG 1304/1305 18003KT 1600 BR BKN008 OVC012 QNH3015INS BECMG 1309/1310 23006KT 9999 NSW OVC012 QNH3011INS BECMG 1313/1314 24003KT 9999 BKN030 QNH3010INS TX16/1214Z TN04/1302Z", "TAF AMD ETIK 121130Z 1211/1312 VRB06KT 6000 BR BKN010 QNH3022INS BECMG 1214/1215 VRB06KT 8000 BR BKN020 QNH3019INS BECMG 1223/1224 VRB06KT 6000 BR BKN030 QNH3016INS BECMG 1302/1303 VRB06KT 0800 FG BKN025 QNH3016INS BECMG 1309/1310 VRB06KT 8000 BR BKN010 QNH3018INS TX14/1214Z TN05/1304Z", "TAF ETMN 121012Z 1211/1220 17007KT 9999 NSW FEW030 SCT140", "TAF ETND 121023Z 1211/1220 17005KT 9999 NSW SCT150 SCT230 BY ETGL", "TAF ETNG 121100Z 1212/1303 24005KT CAVOK BECMG 1217/1219 19005KT", "TAF ETNH 121012Z 1211/1220 21007KT 9999 NSW FEW030 BY ETGL", "TAF ETNL 121012Z 1211/1223 16005KT 9999 NSW SCT050 BY ETGL", "TAF AMD ETNN 121248Z 1212/1220 19005KT 9999 NSW SCT030 BKN200 BY ETGL", "TAF ETNS 121012Z 1211/1220 21007KT 9999 NSW FEW030 BY ETGL", "TAF ETNW 121022Z 1211/1311 15005KT 9999 NSW FEW150 SCT230 PROB30 1303/1307 VRB02KT 5000 BR BKN150 BY ETGL", "TAF ETOU 121200Z 1212/1318 VRB05KT 9999 SCT040 QNH3020INS BECMG 1219/1220 VRB05KT 9999 BKN020 QNH3018INS TEMPO 1302/1308 4800 BR BECMG 1307/1308 20009KT 9999 BKN012 QNH3007INS BECMG 1315/1316 18009KT 9999 BKN020 QNH3006INS TX17/1213Z TN06/1304Z", "TAF AMD ETSB 121106Z 1211/1220 22004KT 9999 NSW BKN020 BKN160 BKN210 TEMPO 1211/1220 21005KT 9999 NSW FEW020 SCT160 BY ETGL", "TAF AMD ETSH 121200Z 1211/1220 14007KT 9999 NSW SCT030 BY ETGL", "TAF ETSI 121011Z 1211/1220 VRB01KT 6000 NSW OVC007 BECMG 1211/1213 VRB02KT 9000 NSW BKN015 TEMPO 1213/1220 07005KT 9999 NSW SCT020", "TAF ETSL 121018Z 1211/1220 03005KT 8000 NSW SCT010 BKN020 BECMG 1214/1216 18003KT 9999 NSW FEW020 SCT040 BY ETGL", "TAF AMD ETSN 121229Z 1211/1220 VRB03KT 5000 BR BKN008 BECMG 1213/1215 VRB03KT 8000 NSW SCT008 BKN020 BECMG 1215/1216 VRB03KT 9999 NSW SCT020 SCT040 BY ETGL", "TAF EVGA 121103Z 1212/1312 25005KT 9999 SCT030 TEMPO 1212/1217 SCT025CB TEMPO 1218/1307 0700 FG VV002 TEMPO 1307/1312 SCT025CB", "TAF EVLA 121105Z 1212/1312 28008KT 9999 SCT040 TEMPO 1222/1310 SCT025CB PROB40 TEMPO 1222/1303 2000 BR", "TAF EVRA 121101Z 1212/1312 26005KT 9999 SCT030 TEMPO 1212/1216 SCT025CB TEMPO 1220/1306 0700 FG TEMPO 1306/1309 SCT020CB", "TAF EYKA 121101Z 1212/1312 27010KT 9000 BKN020 TEMPO 1212/1218 SHRA SCT005 BKN015CB TEMPO 1218/1224 3000 BR SCT005 TEMPO 1300/1305 0600 FG VV002 TEMPO 1305/1309 5000 RA OVC010", "TAF EYPA 121101Z 1212/1312 VRB05KT 9000 SCT020 TEMPO 1215/1218 SCT005 BKN015CB BECMG 1218/1219 SCT005 BKN015 TEMPO 1219/1224 SHRA BKN020CB TEMPO 1300/1309 5000 SHRA SCT005 BKN020CB", "TAF EYSA 121100Z 1212/1221 27007KT 9000 SCT030", "TAF EYVI 121100Z 1212/1312 25007KT 9000 SCT015CB BKN025 BECMG 1215/1217 5000 MIFG BR NSC TEMPO 1218/1222 1000 BECMG 1222/1224 18005KT 0350 FG VV002 BECMG 1307/1308 9000 BKN015", "TAF FABL 121000Z 1212/1312 32008KT CAVOK TX33/1212Z TN14/1304Z", "TAF FACT 121000Z 1212/1318 19013KT 9999 FEW015 TX24/1212Z TN15/1304Z PROB30 TEMPO 1222/1306 1500 BCFG BKN003 FM130600 19010KT 9999 FEW010 BKN025", "TAF FAEL 120900Z 1210/1219 27005KT 9999 BKN015 TX25/1212Z TN20/1219Z BECMG 1211/1213 08010KT PROB30 TEMPO 1215/1219 4500 -TSRA FEW120CB", "TAF FAGG 121000Z 1212/1312 12008KT 9999 FEW010 BKN020 TX23/1212Z TN16/1304Z PROB40 TEMPO 1220/1306 1500 BCFG BKN003 FM130900 20012KT 9999 BKN020", "TAF FAHS 120600Z 1207/1218 VRB03KT CAVOK TX38/1213Z TN28/1218Z BECMG 1211/1213 02010KT BECMG 1216/1218 VRB03KT", "TAF FAKM 120900Z 1210/1218 36010KT CAVOK TX35/1212Z TN24/1218Z", "TAF FAKN 120934Z 1210/1218 VRB03KT CAVOK TX34/1213Z TN26/1218Z BECMG 1210/1212 08010KT BECMG 1217/1218 VRB03KT", "TAF FALA 121000Z 1212/1312 VRB03KT CAVOK TX32/1214Z TN17/1304Z PROB30 TEMPO 1214/1219 TS FEW050CB BECMG 1307/1309 02009KT SCT045", "TAF FALE 121000Z 1212/1318 13012KT CAVOK TX33/1312Z TN19/1303Z BECMG 1217/1219 VRB03KT PROB30 TEMPO 1221/1302 4000 BR NSC BECMG 1310/1312 05010KT PROB30 TEMPO 1315/1318 5000 TSRA SCT025 FEW035CB", "TAF FAMM 120900Z 1210/1218 04013KT CAVOK TX34/1213Z TN24/1218Z BECMG 1213/1215 SCT040 FM121600 VRB03KT CAVOK", "TAF FAOR 121000Z 1212/1318 31009KT 9999 SCT049 TX29/1213Z TN16/1304Z PROB30 TEMPO 1214/1219 -TSRA FEW045CB BECMG 1219/1221 07010KT CAVOK BECMG 1306/1308 33010KT BECMG 1308/1310 SCT045 PROB40 TEMPO 1314/1318 -TSRA FEW040CB", "TAF FAPE 121000Z 1212/1312 12010KT 9999 BKN010 TX23/1212Z TN17/1304Z PROB30 TEMPO 1302/1306 2000 DZ BR BKN005 BECMG 1304/1306 25015KT", "TAF FAPM 120900Z 1210/1221 10010KT CAVOK TX32/1212Z TN19/1218Z PROB30 TEMPO 1214/1219 5000 TSRA FEW030CB BKN040 BECMG 1218/1220 VRB02KT", "TAF FAPP 120900Z 1210/1218 VRB03KT CAVOK TX33/1213Z TN24/1218Z FM121200 06010KT 9999 SCT040 PROB30 TEMPO 1213/1215 FEW045TCU", "TAF FARB 120900Z 1210/1218 18010KT 9999 SCT030 TX29/1212Z TN22/1218Z BECMG 1214/1216 12010KT CAVOK", "TAF FAUP 121000Z 1212/1312 34012KT CAVOK TX37/1212Z TN17/1304Z", "TAF FAUT 120900Z 1210/1218 VRB03KT CAVOK TX29/1212Z TN19/1218Z BECMG 1212/1214 SCT090TCU", "TAF FAWB 120900Z 1210/1218 VRB03KT CAVOK TX34/1213Z TN26/1218Z BECMG 1211/1213 SCT040 PROB30 TEMPO 1214/1215 FEW045TCU", "TAF FAWK 120900Z 1210/1218 VRB03KT CAVOK TX32/1213Z TN26/1218Z BECMG 1211/1213 SCT040 PROB30 TEMPO 1214/1215 FEW045TCU", "FBMN 121000Z 1212/1312 06006KT CAVOK", "FBSK 121000Z 1212/1312 05008KT CAVOK", "TAF AMD FCBB 121155Z 1212/1318 16006KT 8000 SCT016 FEW028CB BECMG 1213/1215 SCT018 BECMG 1313/1315 SCT020 FEW030CB", "TAF FCPP 121100Z 1212/1312 22008KT 9999 SCT013 BKN023 BECMG 1214/1216 SCT015 FEW030CB TEMPO 1216/1219 TS BECMG 1219/1221 FEW010 BKN020", "TAF FDMS 121000Z 1212/1218 08007KT CAVOK PROB30 TEMPO 1214/1217 TS FEW040CB", "TAF FDSK 121000Z 1212/1218 12011KT CAVOK", "TAF FEFF 120500Z 1206/1312 23004KT 7000 -TSRA BKN010 FEW033CB TEMPO 1206/1213 06010KT 3000 +TSRA BECMG 1212/1214 NSW BECMG 1223/1301 SCT010 TEMPO 1304/1307 2000 BR", "FGBT 121100Z 1212/1312 25005KT 9999 SCT010 PROB30 TEMPO 1213/1217 4000 TSRA BKN010 FEW020CB PROB40 TEMPO 1312/1316 4000 TSRA BKN008 FEW020CB", "TAF FGSL 121100Z 1212/1318 25005KT 9999 TS SCT009 FEW020CB PROB40 TEMPO 1212/1216 4000 TSRA BKN008 FEW020CB BECMG 1216/1218 NSW SCT010 PROB30 TEMPO 1302/1306 4000 TSRA BKN008 FEW020CB PROB40 TEMPO 1312/1316 4000 TSRA BKN008 FEW020CB", "TAF FIMP 121105Z 1212/1318 13012KT 9999 SCT018", "TAF FIMR 121110Z 1212/1306 11020G35KT 9999 SCT018", "TAF FJDG 120900Z 1209/1315 VRB06KT 9999 FEW040 QNH2981INS BECMG 1214/1215 14009KT 9999 BKN025 QNH2988INS BECMG 1219/1220 15012KT 8000 -SHRA SCT020 BKN030 QNH2983INS TX30/1211Z TN24/1222Z FOR MIL USE ONLY", "TAF FKKD 121100Z 1212/1318 VRB04KT 9999 BKN013 FEW016CB PROB40 TEMPO 1214/1220 4000 TSRA TEMPO 1304/1308 2000 TSRA", "TAF FKKL 120500Z 1206/1218 VRB08KT 9999 FEW030 PROB30 1216/1218 TS FEW030 FEW035CB", "TAF FKKR 120500Z 1206/1218 VRB08KT 9999 SCT020 PROB30 1216/1218 TS BKN016 FEW023CB", "TAF FKYS 112300Z 1200/1224 VRB04KT 9999 BKN006 BECMG 1208/1210 BKN016 TEMPO 1214/1218 4000 TSRA BKN016 FEW023CB BECMG 1220/1222 BKN006", "TAF FLCP 111600Z 1118/1224 10010G15KT CAVOK BECMG 1200/1203 07005KT 9999 SCT010 BECMG 1204/1208 09010G15KT 9000 HZ NSC BECMG 1210/1214 09010KT", "TAF FLHN 111600Z 1118/1224 09010KT CAVOK BECMG 1120/1122 07005KT BECMG 1204/1206 09010KT", "TAF FLKK 111600Z 1118/1224 10010KT CAVOK BECMG 1204/1208 09010G15KT 8000 HZ NSC BECMG 1210/1214 FEW035", "TAF FLKS 111600Z 1118/1224 16010KT CAVOK BECMG 1205/1209 09010KT BECMG 1214/1218 13010KT", "TAF FLMA 111600Z 1118/1224 09005KT CAVOK BECMG 1204/1206 09010KT BECMG 1207/1211 09010G15KT", "TAF FLMF 111600Z 1118/1224 10010G15KT CAVOK BECMG 1200/1203 07005KT 9999 SCT010 BECMG 1204/1208 09010G15KT 9000 HZ NSC BECMG 1210/1214 09010KT", "TAF FLSK 111600Z 1118/1224 16005KT CAVOK BECMG 1204/1208 10010KT 8000 FU NSC BECMG 1209/1211 FEW030", "TAF FLSW 111600Z 1118/1224 16005KT CAVOK BECMG 1204/1208 09010KT BECMG 1210/1212 09005KT 9999 FEW035", "TAF FMCH 121100Z 1212/1318 24010KT 9999 FEW020 SCT030 BECMG 1216/1218 07003KT BECMG 1304/1306 22010KT", "TAF FMCZ 121100Z 1212/1312 VRB03KT 9999 FEW025", "TAF FMEE 121100Z 1212/1318 09020KT 9999 FEW026 BECMG 1214/1216 14010KT BECMG 1304/1306 09020KT PROB40 TEMPO 1306/1312 09020G30KT BECMG 1314/1316 13010KT", "TAF FMEP 121100Z 1212/1221 13022KT CAVOK BECMG 1217/1219 06010KT", "TAF FMMI 121100Z 1212/1318 10015G25KT 9999 FEW020 PROB30 1213/1220 4500 FU BECMG 1218/1221 16008KT", "TAF FMMS 121100Z 1212/1312 16010KT 9999 SCT017 PROB30 TEMPO 1222/1303 4500 SHRA", "TAF FMMT 121100Z 1212/1312 11008KT 9999 FEW017 SCT033 PROB30 TEMPO 1222/1306 4500 SHRA", "TAF FMNA 121100Z 1212/1312 14015G35KT 9999 FEW020", "TAF FMNM 121100Z 1212/1312 34012KT 9999 FEW020 BECMG 1218/1220 12008KT", "TAF FMNN 121100Z 1212/1312 28010KT 9999 FEW020 BECMG 1215/1218 04005KT PROB30 TEMPO 1218/1222 4500 SHRA", "TAF FMSD 121100Z 1212/1312 08025G38KT 9999 FEW020 BECMG 1218/1221 08015G30KT BECMG 1306/1309 08025G35KT", "TAF FMST 121100Z 1212/1312 28013G23KT 9999 FEW020CB BECMG 1215/1218 BKN020 BECMG 1218/1221 VRB03KT BECMG 1306/1309 24013KT", "TAF FNBG 121100Z 1212/1224 31010KT CAVOK BECMG 1217/1220 9000 SCT020", "TAF FNCA 121100Z 1212/1224 20008KT 9999 FEW010 BKN020 TEMPO 1213/1216 8000 DZ FEW020TCU", "TAF FNCT 121100Z 1212/1224 29010KT CAVOK BECMG 1220/1223 22005KT 8000 SCT018", "TAF FNDU 121100Z 1212/1224 08005KT 9999 SCT022 TEMPO 1213/1217 FEW025TCU", "TAF FNGI 121100Z 1212/1224 08005KT 9999 FEW030", "TAF FNHU 121100Z 1212/1224 07005KT 8000 NSC", "TAF FNKU 121100Z 1212/1224 08005KT 9999 SCT020", "TAF FNLU 121100Z 1212/1318 25010KT 9999 FEW016 SCT020 BECMG 1215/1219 FEW020 BECMG 1220/1223 18006KT", "TAF FNMA 121100Z 1212/1224 27005KT 8000 SCT016 FEW018CB", "TAF FNME 121100Z 1212/1224 09005KT 9999 SCT030", "TAF FNMO 121100Z 1212/1224 26010KT 9999 FEW020", "TAF FNSA 121100Z 1212/1224 07004KT 9999 SCT025 FEW030CB PROB30 TEMPO 1213/1217 7000 -RADZ", "TAF FNSO 121100Z 1212/1224 21010KT 9999 SCT014 BKN022 BECMG 1213/1216 FEW020TCU", "TAF FNUB 121100Z 1212/1224 32005KT 9999 FEW025", "TAF FNUE 121100Z 1212/1224 07004KT 9999 FEW020", "TAF FOOG 121100Z 1212/1312 21010KT 9999 SCT010 BKN030 PROB30 TEMPO 1214/1220 BKN010 FEW020CB", "TAF FOOL 121100Z 1212/1318 22008KT 9999 SCT013 TEMPO 1214/1219 TS BKN012 FEW020CB PROB40 TEMPO 1302/1307 3000 TSRA BKN010 FEW020CB OVC026", "TAF FQBR 121000Z 1212/1318 11015G25KT 9999 FEW020 TX31/1213Z TN21/1303Z PROB30 TEMPO 1300/1306 0500 FG FEW018 BECMG 1300/1302 VRB03KT BECMG 1309/1311 15010KT BECMG 1315/1317 09012KT", "TAF FQCH 121000Z 1212/1312 09010KT CAVOK TX34/1213Z TN24/1303Z BECMG 1219/1221 24004KT PROB30 TEMPO 1300/1306 0400 FG FEW015 BECMG 1303/1305 VRB02KT BECMG 1309/1311 08007KT", "TAF FQIN 121000Z 1212/1312 06010KT 9999 FEW020 TX31/1213Z TN23/1303Z BECMG 1218/1220 13008KT BECMG 1306/1308 09010KT", "TAF FQLC 121000Z 1212/1312 09015G25KT CAVOK TX28/1213Z TN12/1303Z BECMG 1218/1220 03007KT 9999 SCT020 BECMG 1309/1311 10012KT", "TAF FQMA 121000Z 1212/1318 10012G22KT CAVOK TX33/1213Z TN21/1303Z BECMG 1219/1221 16007KT FEW020 PROB30 TEMPO 1300/1306 5000 BR FEW018 BECMG 1300/1302 VRB02KT BECMG 1309/1311 07010KT", "TAF FQNC 121000Z 1212/1318 06010KT 9999 BKN020 TX31/1213Z TN22/1303Z PROB30 TEMPO 1300/1306 0600 FG SCT018 BECMG 1300/1302 VRB02KT BECMG 1312/1314 05012KT", "TAF FQNP 121000Z 1212/1312 09010KT 9999 FEW020 TX33/1213Z TN19/1303Z BECMG 1219/1221 03005KT PROB30 TEMPO 1300/1306 0800 FG FEW018 BECMG 1301/1303 VRB02KT BECMG 1309/1311 06010KT", "TAF FQPB 121000Z 1212/1312 12010KT 9999 SCT018 TX30/1213Z TN20/1303Z BECMG 1218/1220 04007KT PROB30 TEMPO 1300/1306 3000 BR FEW018 BECMG 1300/1302 VRB02KT BECMG 1308/1310 07010KT", "TAF FQQL 121000Z 1212/1312 15010KT 9999 FEW020 TX32/1213Z TN21/1303Z BECMG 1300/1302 01005KT BECMG 1309/1311 14010KT", "TAF FQTT 121000Z 1212/1312 15010KT 9999 FEW020 TX40/1213Z TN24/1303Z BECMG 1218/1220 SCT020 BECMG 1300/1302 VRB02KT", "TAF FQVL 121000Z 1212/1312 07010KT 9999 SCT020 TX30/1213Z TN21/1303Z BECMG 1303/1305 13005KT BECMG 1309/1311 06008KT", "TAF FQXA 121000Z 1212/1312 12010G20KT 9999 FEW020 TX31/1213Z TN20/1303Z BECMG 1218/1220 09008KT BECMG 1300/1302 VRB02KT BECMG 1308/1310 16008KT", "TAF FSIA 120502Z 1206/1306 13014KT 9999 SCT022", "TAF COR FTTJ 121100Z 1212/1318 14007KT 7000 NSC TEMPO 1214/1218 VRB15G35KT 4000 BLDU TS PROB30 13061312 4000 TSRA", "TAF FVJN 121000Z 1212/1318 10013KT CAVOK", "TAF FVRG 121000Z 1212/1318 07013KT CAVOK", "TAF FWCL 120900Z 1212/1318 08008KT 8000 HZ SKC BECMG 1214/1218 06007KT CAVOK", "TAF FWKI 120900Z 1212/1318 09010G20KT 9999 FEW030 FM121200 10014KT CAVOK", "TAF FYGF 121100Z 1212/1221 08010KT CAVOK", "TAF FYLZ 121100Z 1212/1221 32010KT CAVOK BECMG 1213/1215 20012KT", "TAF FYOA 121100Z 1212/1221 02010KT CAVOK", "TAF FYRU 121100Z 1212/1221 10009KT CAVOK", "TAF FYWB 121000Z 1212/1312 25014KT CAVOK BECMG 1219/1221 05005KT 9999 BKN013", "TAF FYWE 121100Z 1212/1221 33011KT CAVOK BECMG 1213/1215 9999 SCT050", "TAF FYWH 121000Z 1212/1312 36012KT 9999 SCT050 BECMG 1218/1220 27005KT NSC", "TAF FZAA 120500Z 1206/1312 18004KT 7000 BKN016 BECMG 1212/1214 34010KT SCT020 FEW030CB PROB30 TEMPO 1218/1222-TSRA BECMG 1300/1302 20004KT SCT016", "TAF FZIC 120500Z 1206/1312 12008KT 8000 SCT014 BECMG 1209/1212 BKN024 FEW030CB TEMPO 1215/1218 TS BECMG 1218/1220 00000KT NSC BECMG 1223/1301 3000 BR FM 130600 18006KT 7000 BKN015", "TAF FZNA 120500Z 1206/1312 09006KT 6000 SCT016 BECMG 1208/1210 32010KT SCT018 FEW022CB TEMPO 1211/1217 TS PROB30 1212/1214 4000 TSRA BECMG 1218/1220 05004KT SCT014 BECMG 1308/1310 18010KT SCT016 FEW020CB", "TAF FZQA 120500Z 1206/1312 09010KT CAVOK BECMG 1213/1215 17014KT 9999 SCT027", "TAF GABS 121130Z 1212/1318 18008KT 9999 FEW020 PROB30 TEMPO 1213/1215 TS SCT020 FEW033CB PROB40 TEMPO 1215/1223 VRB16G30KT 4000 TSRA BKN020 FEW033CB PROB30 TEMPO 1300/1306 12020G35KT 4000 TSRA SCT020 FEW033CB", "TAF COR GAGO 121130Z 1212/1312 VRB06KT 8000 FEW030 PROB40 TEMPO 1215/1222 VRB18G30KT 3000 TSRA BLDU SCT030 FEW040CB", "TAF COR GBYD 121100Z 1212/1318 06008KT 9999 SCT012 PROB30 TEMPO 1217/1223 22010KT 4000 TSRA BKN010 FEW020CB", "TAF GCFV 120800Z 1209/1309 03014KT 9999 SCT025 TX26/1214Z TN20/1306Z PROB40 TEMPO 1209/1211 33009KT TEMPO 1303/1308 33006KT", "TAF GCGM 120800Z 1209/1309 35010KT 9999 FEW025 TX26/1214Z TN21/1306Z PROB40 TEMPO 1209/1309 23006KT PROB30 TEMPO 1212/1309 VRB15G25KT", "TAF GCHI 120800Z 1209/1309 02014KT 9999 SCT035 TX25/1214Z TN22/1306Z", "TAF GCLA 120800Z 1209/1309 03012KT 9999 SCT040 TX25/1214Z TN21/1306Z PROB40 TEMPO 1211/1309 RADZ BECMG 1218/1220 33010KT", "TAF GCLP 120800Z 1209/1309 01018KT 9999 SCT030 TX26/1214Z TN20/1306Z PROB30 TEMPO 1209/1220 01016G28KT", "TAF GCRR 120800Z 1209/1309 36014KT 9999 SCT025 TX28/1214Z TN20/1306Z PROB30 TEMPO 1212/1218 36015G25KT PROB30 TEMPO 1306/1309 01018G28KT", "TAF GCTS 120800Z 1209/1309 03010KT 9999 FEW035 TX28/1214Z TN21/1306Z PROB30 TEMPO 1209/1213 27006KT BECMG 1210/1213 09018KT PROB40 TEMPO 1212/1217 08018G28KT BECMG 1218/1220 03008KT BECMG 1301/1304 05018KT", "TAF GCXO 120800Z 1209/1309 33012KT 9999 SCT015 TX20/1214Z TN16/1306Z PROB40 TEMPO 1209/1309 BKN010 PROB30 TEMPO 1209/1309 1500 RA BCFG BKN002 PROB30 TEMPO 1213/1219 33015G25KT PROB30 TEMPO 1303/1307 VRB05KT", "TAF GECE 120800Z 1209/1309 07010KT 9999 SCT020 BKN030 TX22/1215Z TN20/1306Z TEMPO 1209/1216 RA BKN010 SCT020CB TEMPO 1210/1213 18006KT PROB40 TEMPO 1220/1303 BKN008", "TAF GEML 121100Z 1212/1312 09009KT 9999 SCT015 TX24/1213Z TN21/1306Z PROB30 TEMPO 1212/1215 RA TEMPO 1212/1215 BKN010 PROB30 TEMPO 1215/1220 BKN014 TEMPO 1220/1306 BKN012 PROB30 TEMPO 1303/1312 4000 TS -SHRA FEW025CB", "TAF GFLL 121100Z 1212/1318 15006KT 9999 BKN011 FEW027CB TEMPO 1214/1218 17008KT BKN012 TEMPO 1220/1300 16006KT BKN010 TEMPO 1304/1308 09005KT BKN009", "TAF GGOV 121100Z 1212/1312 VRB06KT 8000 FEW012 TEMPO 1216/1222 4000 TSRA BKN010 FEW015CB TEMPO 1303/1308 4000 RA BKN010", "TAF GLRB 120500Z 1206/1306 22010KT 9999 BKN016 FEW025CB BECMG 1208/1210 07004KT BKN013 TEMPO 1212/1216 21011KT BKN018", "TAF GMAD 121100Z 1212/1318 27012KT 8000 SCT020", "TAF GMAG 121100Z 1212/1318 23015KT 8000 SCT020 BECMG 1220/1223 BKN008 BECMG 1309/1312 NSC", "TAF GMFF 121100Z 1212/1318 04010KT 9999 FEW013 BKN023 PROB30 TEMPO 1213/1217 4000 TSRA FEW010 BKN020 FEW030CB BECMG 1217/1220 10006KT SCT030 SCT100 PROB30 TEMPO 1301/1307 3000 BR BKN006", "TAF GMFK 121100Z 1212/1318 07009KT 9999 FEW030 TEMPO 1215/1218 16020G30KT", "TAF GMFM 121100Z 1212/1318 06014KT 9999 FEW013 BKN020 TEMPO 1220/1304 5000 -TSRA SCT013 BKN020 FEW026CB BECMG 1306/1310 9999 SCT020", "TAF GMFO 121100Z 1212/1318 VRB02KT 9999 SCT013 BKN026 PROB30 1218/1222 TSRA SCT026 FEW033CB", "TAF GMME 121100Z 1212/1318 20006KT 6000 FEW020 SCT100 PROB40 TEMPO 1216/1303 RA BKN010 BKN016", "TAF GMMH 121100Z 1212/1318 06021KT CAVOK", "TAF GMMI 121100Z 1212/1318 32012KT 6000 NSC", "TAF GMML 121100Z 1212/1318 35016KT 9999 BKN023 SCT033 BECMG 1222/1224 BKN009 BECMG 1303/1306 SCT020", "TAF GMMN 121100Z 1212/1318 04008KT 9999 BKN030 SCT040TCU PROB40 TEMPO 1213/1218 34014KT 4000 SHRA BKN015 BKN030TCU FEW040CB BECMG 1218/1222 18004KT SCT016 PROB30 TEMPO 1304/1309 4000 BR BKN010 BECMG 1310/1314 36012KT", "TAF GMMW 121100Z 1212/1318 06010KT 8000 SCT030 PROB40 TEMPO 1212/1303 5000 -TSRA FEW020TCU BECMG 1213/1216 BKN011", "TAF GMMX 121100Z 1212/1318 28012KT 8000 SCT023 SCT080 TEMPO 1216/1221 32018KT 4000 TSRA BKN026 FEW030CB", "TAF GMMZ 121100Z 1212/1318 08011KT 9999 TS SCT030 FEW040CB TEMPO 1214/1220 35025G41KT 4500 -TSRA BKN030 FEW040CB", "TAF GMTA 121100Z 1212/1318 30004KT 8000 FEW030 BKN100 PROB40 TEMPO 1212/1218 5000 -TSRA BKN010 PROB40 TEMPO 1222/1305 5000 -TSRA FEW020TCU", "TAF GMTT 121100Z 1212/1318 06017KT 9000 SCT013 BKN086 PROB40 TEMPO 1212/1318 07018G31KT", "TAF GOBD 121100Z 1212/1318 35008KT 9999 SCT015", "TAF GOGS 121100Z 1212/1312 12006KT 9999 SCT013 PROB40 TEMPO 1216/1222 4000 TSRA BKN010 FEW020CB", "TAF GOOY 121100Z 1212/1318 03010KT 9999 SCT013", "TAF GOSS 121100Z 1212/1312 33008KT 9999 SCT013", "TAF COR GQNO 121100Z 1212/1318 09015G25KT 2000 BLSA NSC PROB30 TEMPO 1212/1216 0800 BLSA BECMG 1219/1223 36012KT 6000 NSW BECMG 1308/1310 06010KT", "TAF GQPP 121100Z 1212/1312 36012G22KT 7000 NSC PROB40 TEMPO 1214/1220 2500 DRSA", "TAF GUCY 120500Z 1206/1312 24006KT 9999 SCT015 SCT110 BECMG 1206/1210 BKN015 FEW023CB PROB30 TEMPO 1217/1221 09012KT 6000 -TSRA BKN011 FEW020CB BKN100", "TAF GVAC 121100Z 1212/1318 04015KT 8000 SCT014 TEMPO 1212/1218 SCT012 BKN014", "TAF GVBA 121100Z 1212/1318 04012KT 8000 SCT014 TEMPO 1212/1218 SCT012 BKN014", "TAF GVNP 121100Z 1212/1318 03012KT 8000 SCT015 TEMPO 1212/1218 FEW010 BKN015", "TAF GVSV 121100Z 1212/1318 06018KT 8000 SCT018 TEMPO 1214/1220 06020G32KT", "TAF HAAB 120330Z 1206/1312 12007KT 9999 SCT025 BKN090 TEMPO 1209/1213 8000M SHRA BKN026", "TAF HADR 120330Z 1206/1312 35008KT 9999 SCT026 SCT090", "TAF HBBA 121100Z 1212/1318 18010G27KT 9999 FEW030 SCT100 BECMG 1218/1220 00000KT CAVOK BECMG 1302/1304 36004KT 9999 FEW020 SCT100 BECMG 1308/1310 18008KT", "TAF HCMM 120500Z 1206/1312 20012KT 9999 FEW020 BECMG 1209/1212 19017KT SCT023 BECMG 1223/1303 18010KT FEW019 SCT080 BECMG 1308/1311 20017KT SCT023", "HDAM 121100Z 1212/1312 07012KT 9999 FEW023 BECMG 1215/1221 VRB06KT CAVOK BECMG 1300/1306 16004KT SCT020 SCT133", "TAF HEAL 121100Z 1212/1318 33012KT 9999 SCT020", "TAF HEAR 121100Z 1212/1318 34012KT 9999 SCT025", "TAF HEAT 121100Z 1212/1318 36012KT CAVOK", "TAF HEAX 121100Z 1212/1318 35011KT 9999 SCT020", "TAF HEBA 121100Z 1212/1318 34012KT 9999 SCT020", "TAF HEBL 121100Z 1212/1318 02010KT CAVOK", "TAF HECA 121100Z 1212/1318 36008KT 9999 SCT025 TEMPO 1222/1307 VRB02KT 4000 BR", "TAF HEGN 121100Z 1212/1318 01015KT CAVOK", "TAF HELX 121100Z 1212/1318 34008KT CAVOK", "TAF HEMA 121100Z 1212/1318 02015KT CAVOK", "TAF HEMM 121100Z 1212/1318 33012KT 9999 SCT020", "TAF HEOW 121100Z 1212/1318 35008KT CAVOK", "TAF HEPS 121100Z 1212/1318 33012KT 9999 SCT025", "TAF HESC 121100Z 1212/1318 32010KT CAVOK", "TAF HESG 121100Z 1212/1318 32010KT CAVOK", "TAF HESH 121100Z 1212/1318 04015KT CAVOK", "TAF HESN 121100Z 1112/1318 36010KT CAVOK", "TAF HETB 121100Z 1212/1318 03015KT CAVOK", "TAF HETR 121100Z 1212/1318 31018G28KT CAVOK", "TAF HKEL 121100Z 1212/1318 14010KT 9999 FEW023CB SCT024 PROB30 TEMPO 1212/1216 VRB10KT -TSRA FEW019CB SCT020 BKN080 BECMG 1220/1223 14010KT CAVOK BECMG 1308/1311 FEW023CB SCT024 TEMPO 1312/1316 VRB10KT -TSRA FEW019CB SCT020 BKN080", "TAF HKJK 121100Z 1212/1318 09010KT 9999 SCT028 BECMG 1220/1223 04005KT CAVOK BECMG 1301/1305 9999 FEW018 BECMG 1308/1311 09010KT SCT028", "TAF HKKI 121100Z 1212/1318 22010KT 9999 FEW027CB SCT028 PROB30 TEMPO 1213/1217 VRB10KT -TSRA FEW022CB SCT023 BKN080 BECMG 1220/1223 06005KT NSW SCT018 BECMG 1308/1311 22010KT FEW026CB SCT027 BKN080 PROB30 TEMPO 1312/1316 -TSRA FEW022CB BKN023 BKN080", "TAF HKML 121100Z 1212/1312 18010KT 9999 FEW022 BECMG 1300/1303 SCT020 BECMG 1309/1312 18020KT FEW025", "TAF HKMO 121100Z 1212/1318 16010KT 9999 FEW023 BECMG 1300/1303 22005KT SCT020 BECMG 1309/1312 15015KT FEW026", "TAF HKNW 121100Z 1212/1312 09010KT 9999 SCT028 BECMG 1220/123 04005KT CAVOK BECMG 1301/1305 9999 FEW018 BECMG 1308/1311 09010KT SCT028", "TAF HLGD 121100Z 1212/1312 20010KT 8000 NSC BECMG1218/1220 33010KT BECMG 1306/1308 VRB02KT", "TAF HLGT 121100Z 1212/1312 16010KT 8000 NSC BECMG 1303/1305 VRB02KT", "TAF HLKF 121100Z 1212/1312 03008KT CAVOK", "TAF HLLB 121100Z 1212/1312 15014KT CAVOK BECMG1215/1217 22010KT BECMG1300/1302 VRB02KT", "TAF HLLM 121100Z 1212/1312 04010KT 8000 FEW025 SCT080", "TAF HLLQ 121100Z 1212/1312 03008KT 8000 NSC BECMG 1221/1223 VRB02KT PROB40 TEMPO 1302/1306 3000 BR BECMG 1309/1311 03010KT 9999 FEW023 ", "TAF HLLS 121100Z 1212/1312 14010KT CAVOK ", "TAF HLMS 121100Z 1212/1312 VRB02KT 8000 FEW025 SCT080 BECMG 1215/1217 04010KT BECMG 1221/1223 VRB02KT PROB40 TEMPO 1302/1306 3000 BR ", "TAF HLON 121100Z 1212/1312 VRB02KT CAVOK", "TAF HLTD 121100Z 1212/1312 16010KT 8000 NSC BECMG1300/1302 VRB02KT", "TAF HLTQ 121100Z 1212/1312 34010KT 8000 NSC BECMG 1221/123 VRB02KT PROB40 TEMPO 1302/1306 3000 BR", "TAF HLUB 121100Z 1212/1312 09010KT CAVOK BECMG 1303/1305 VRB02KT ", "HRYR 121100Z 1212/1318 05010KT 9999 SCT025 SCT100 PROB30 TEMPO 1214/1218 -TSRA FEW023CB BKN025 BECMNG 1222/1302 34005KT NSW FEW026 SCT100 BECMNG 1308/1311 17008KT FEW023CB SCT025", "TAF HRZA 121100Z 1212/1318 14010KT 9999 SCT025 TEMPO 1216/1220 28006KT -TSRA FEW023CB BKN025 FM 130200 00000KT NSW 9000 SCT025 BECMG 1305/1307 34005KT 9999 TEMPO 1311/1316 12010G20KT TS FEW023CB BKN025", "HSKA 121100Z 1212/1318 18005KT CAVOK PROB30 TEMPO 1212/1216 9999 FEW040 SCT140 PROB30 TEMPO 1216/1220 18015G25KT 6000 TSRA FEW040CB", "HSOB 121100Z 1212/1318 21008G18KT CAVOK PROB30 TEMPO 1212/1216 9999 FEW040 SCT140 PROB30 TEMPO 1216/1220 18015G25KT 6000 TSRA FEW040CB", "HSPN 121100Z 1212/1318 05010G20KT CAVOK BECMG 1219/1221 31008KT", "TAF HSSJ 121100Z 1212/1318 08005KT 9999 FEW030 SCT120 NSC TEMPO 1218/1300 30007KT PROB30 TEMPO 1300/1306 VRB04KT 7000 FG FEW026 SCT090", "HSSK 121100Z 1212/1318 18008G18KT CAVOK PROB30 TEMPO 1212/1216 9999 FEW040 SCT140 PROB30 TEMPO 1216/1220 18015G25KT 6000 TSRA FEW040CB", "HTAR 121100Z 1212/1312 12015KT 9999 FEW035", "TAF HTDA 121100Z 1212/1318 13015KT 9999 BKN030 BECMG 1216/1218 12005KT SCT014", "HTDO 120500Z 1206/1306 09010KT 9999 NSC", "HTKA 121100Z 1212/1312 21022KT 9999 FEW030 BECMG 1216/1220 00000KT", "TAF HTKJ 121100Z 1212/1312 09010KT 9999 FEW036", "HTMW 120500Z 1206/1306 13010KT 9999 FEW022 FEW023CB BECMG 1211/1213 33010KT", "HTTB 121100Z 1212/1312 13010KT CAVOK", "HTZA 121100Z 1212/1312 13015KT 9999 FEW020 BECMG 1218/1220 13005KT BECMG 1302/1304 21010KT SCT018 BECMG 1310/1312 13015KT", "TAF HUEN 121056Z 1212/1318 16008KT 9999 FEW023 FEW025CB FM 130000 34010KT", "TAF HUSO 121100Z 1212/1312 11007KT 9999 FEW021 FEW023CB FM 121400 VRB05KT TS FEW020 FEW022CB BECMG 1301/1306 02004KT FEW018 BECMG 1308/1312 11007KT SCT021 FEW023CB", "KABE 121301Z 1213/1312 VRB02KT P6SM SCT200 FM121400 20007KT P6SM SCT200 FM121800 19010G18KT P6SM BKN200 FM122100 18007KT P6SM OVC200 FM130600 15005KT 6SM BR OVC035", "KABI 121129Z 1212/1312 22013KT P6SM SKC FM121400 26014KT P6SM SKC FM121500 29015G22KT P6SM SKC FM121700 32015G22KT P6SM SKC FM121900 34014G21KT P6SM SKC FM122200 36008KT P6SM SKC", "KABQ 121120Z 1212/1312 VRB06KT P6SM SKC FM121900 28010KT P6SM SKC FM130100 VRB06KT P6SM SKC", "KABR 121120Z 1212/1312 30013G22KT P6SM VCSH BKN100 OVC120 TEMPO 1212/1214 -SHRA FM121400 30018G27KT P6SM SCT200 FM121700 31025G37KT P6SM SCT120 FM130100 31017G28KT P6SM FEW250", "KABY 121120Z 1212/1312 09005KT P6SM SCT250 TEMPO 1212/1214 BKN015 FM121800 12004KT P6SM BKN050 FM122200 09006KT 6SM -SHRA VCTS BKN025CB OVC050 FM130000 14004KT 6SM -TSRA FEW007 BKN015CB OVC030 FM130500 VRB03KT 4SM BR FEW007 BKN030", "KACK 121120Z 1212/1312 24007KT P6SM SKC FM121900 22010KT P6SM FEW250 FM130300 18009KT P6SM BKN200 FM130600 17011KT P6SM BKN150", "KACT 121120Z 1212/1312 18010KT P6SM FEW015 SCT150 FM121500 22012KT P6SM SCT250 FM122100 30013KT P6SM FEW040 SCT250 FM130200 35008KT P6SM FEW250", "KACV 121240Z 1213/1312 00000KT 3SM BR OVC002 TEMPO 1213/1216 1SM BR VV002 FM121600 23005KT 2SM BR OVC002 FM121900 26005KT P6SM SCT005 FM130100 VRB03KT 3SM BR OVC003 TEMPO 1302/1305 1SM BR OVC001 FM130500 VRB03KT 1/2SM FG OVC001", "KACY 121121Z 1212/1312 22005KT P6SM FEW250 FM121700 18008KT P6SM SCT200 FM131100 17007KT 6SM BR BKN080", "KADF 121121Z 1212/1312 VRB04KT P6SM SCT100 SCT250 FM121600 21008KT P6SM VCSH SCT040 BKN100 FM122200 25012G17KT P6SM VCTS SCT050CB BKN120 PROB30 1223/1302 5SM -TSRA BR BKN030CB FM130200 34005KT P6SM SCT250", "TAF KADW 120900Z 1209/1315 19006KT 9999 SCT250 QNH3024INS BECMG 1214/1215 18010G15KT 9999 FEW050 BKN250 QNH3008INS BECMG 1222/1223 16008KT 9999 BKN050 OVC200 510052 QNH2988INS BECMG 1311/1312 17012KT 9999 -SHRA FEW010 OVC050 520053 QNH2982INS BECMG 1313/1314 17012G20KT 9000 -SHRA SCT007 BKN010 OVC050 550104 QNH2980INS TX21/1220Z TN08/1211Z", "KAEG 121120Z 1212/1312 VRB06KT P6SM SKC FM122000 30010KT P6SM SKC FM130100 30006KT P6SM SKC", "KAEX 121124Z 1212/1312 VRB05KT P6SM SCT025 BKN200 TEMPO 1212/1216 BKN025 FM121600 21008KT P6SM VCSH BKN035 FM130100 18004KT P6SM SCT035 BKN200 FM130500 VRB05KT P6SM VCTS SCT030CB BKN150", "TAF KAFF 121102Z 1211/1317 VRB06KT 9999 SKC 520205 QNH3010INS ROTOR CONDS EXIST TEMPO 1213/1215 30012KT 510005 BECMG 1215/1216 15009KT 9999 SKC QNH3016INS WND 080V310 BECMG 1220/1221 01016KT 9999 FEW080 QNH3012INS WND 330V070 BECMG 1302/1304 VRB06KT 9999 SKC QNH3022INS BECMG 1313/1314 36009KT 9999 SKC QNH3031INS TX20/1221Z TN01/1310Z", "KAFW 121120Z 1212/1312 18010KT P6SM SCT100 FM121400 22012G22KT P6SM SCT250 FM121900 31015KT P6SM FEW050 SCT250 FM122200 35014KT P6SM FEW250 FM130200 35008KT P6SM SKC", "KAGC 121126Z 1212/1312 17004KT P6SM BKN250 FM121500 19009G18KT P6SM BKN250 FM130500 21010KT 5SM -RA OVC015 WS020/20050KT FM130900 19009KT 2SM -RA BR OVC007", "KAGS 121124Z 1212/1312 11005KT P6SM SCT010 BKN035 FM122000 13006KT P6SM VCSH SCT018 BKN025 TEMPO 1220/1224 4SM -SHRA BKN030 FM130000 VRB03KT 6SM -SHRA BR BKN025 FM130400 VRB03KT 4SM BR BKN007", "KAHN 121149Z 1212/1312 11004KT 4SM -DZ OVC005 FM121400 12004KT P6SM OVC007 FM121900 15006KT 6SM SHRA BR BKN008 TEMPO 1222/1302 4SM TSRA BR OVC004CB FM130600 VRB03KT 2SM BR VCSH BKN007", "KAIA 121122Z 1212/1312 29012KT P6SM SKC FM121600 33022G32KT P6SM BKN050 FM130200 31012KT P6SM SCT100", "KALB 121130Z 1212/1312 VRB03KT P6SM SKC FM121500 17009KT P6SM SCT200 FM130000 VRB03KT P6SM OVC120 FM130800 VRB03KT P6SM BKN015", "KALI 121120Z 1212/1312 VRB03KT 4SM BR BKN010 TEMPO 1212/1213 1/2SM FG VV003 FM121500 18007KT P6SM FEW025 SCT050 FM130800 31005KT P6SM FEW250", "KALO 121125Z 1212/1312 30008KT P6SM OVC070 FM121600 29015G26KT P6SM SKC FM122000 29020G31KT P6SM VCSH BKN100 FM130000 30015G25KT P6SM FEW210 FM130200 30011KT P6SM FEW250", "KALS 121120Z 1212/1312 VRB06KT P6SM SKC FM122100 32007KT P6SM SKC FM130200 35009KT P6SM SKC FM130600 VRB04KT P6SM SKC", "KALW 121120Z 1212/1312 12005KT P6SM SKC FM121600 VRB06KT P6SM SKC FM130300 11005KT P6SM SKC", "KAMA 121120Z 1212/1312 35016KT P6SM SKC FM121500 36016KT P6SM SKC FM121900 36008KT P6SM SKC FM130400 18008KT P6SM SKC", "KANB 121135Z 1212/1312 10007KT P6SM BKN060 FM121800 18009KT 6SM SHRA BR OVC022 TEMPO 1218/1221 4SM TSRA BR OVC015CB FM122100 16007KT 5SM SHRA BR VCTS OVC019CB PROB30 1300/1306 4SM TSRA BR OVC015CB FM130600 19005KT 6SM SHRA BR BKN007 PROB30 1306/1311 4SM TSRA BR OVC015CB FM131100 23006KT 4SM BR OVC009 PROB30 1311/1312 2SM SHRA BR OVC006", "KAND 121132Z 1212/1312 01003KT P6SM VCSH SCT009 OVC019 TEMPO 1212/1215 6SM -RA OVC009 FM121500 09005KT P6SM -SHRA OVC008 FM121900 12006KT P6SM -RA BKN012 FM130000 10004KT 6SM -RA BR OVC009 FM130300 13003KT 5SM -RA BR OVC005", "KAOO 121120Z 1212/1312 18004KT P6SM SCT250 FM121500 18008G15KT P6SM BKN120 OVC200 FM130500 18006KT P6SM VCSH OVC050 FM130800 18009KT P6SM -RA OVC030 WS020/21035KT", "KAPA 121120Z 1212/1312 18004KT P6SM SKC FM121800 33010KT P6SM SKC FM122100 06012KT P6SM FEW090 FM130100 15008KT P6SM SKC", "KAPC 121130Z 1212/1312 VRB03KT 5SM BR OVC004 FM121700 VRB05KT P6SM SKC FM122000 22012KT P6SM SKC FM130500 VRB04KT P6SM SKC", "KAPF 121120Z 1212/1312 08004KT P6SM FEW030 SCT150 FM121500 12008KT P6SM FEW030 SCT250 FM121900 23008KT P6SM VCSH SCT030 BKN140 FM130200 VRB03KT P6SM VCSH SCT035 OVC150", "KAPN 121131Z 1212/1312 19010G16KT P6SM VCSH OVC020 WS020/22040KT FM121400 19012G24KT 6SM -SHRA BR OVC030 FM121800 19014G30KT P6SM OVC045 FM122300 23009G25KT 6SM -SHRA BR OVC021 FM130100 26007KT P6SM -SHRA OVC019 FM130300 26005KT P6SM SCT100", "KARA 121314Z 1213/1312 VRB05KT P6SM SCT007 SCT040 BKN200 TEMPO 1213/1214 1/4SM FG OVC002 FM121600 21010KT P6SM VCSH SCT050 BKN150 FM130100 22005KT P6SM SCT035 BKN200 FM130700 VRB05KT 4SM BR VCSH SCT015 BKN120", "KART 121120Z 1212/1312 19005KT P6SM BKN250 FM121400 18010G18KT P6SM BKN250 FM121800 19012G22KT P6SM SCT130 OVC250 FM130000 18012G18KT P6SM BKN100 FM130600 17012G18KT P6SM VCSH BKN060 FM130900 17012KT 5SM -RA BR BKN040", "KASD 121136Z 1212/1312 00000KT 1SM BR OVC002 FM121330 00000KT 4SM BR SCT003 BKN008 FM121415 VRB03KT P6SM SCT035 BKN080 FM121700 18005KT P6SM VCSH SCT040 BKN060 BKN120 TEMPO 1218/1222 4SM TSRA OVC025CB FM130900 VRB03KT 5SM BR SCT008 BKN026 FM131100 00000KT 1SM BR BKN003", "KASE 121120Z 1212/1312 VRB04KT P6SM SKC FM121800 31008KT P6SM SKC FM122000 34012G20KT P6SM SKC FM130200 24008KT P6SM SKC", "KASN 121135Z 1212/1312 09005KT P6SM BKN060 FM121800 18009KT 6SM SHRA BR OVC027 TEMPO 1218/1221 2SM TSRA BR OVC015CB FM122100 17007KT 6SM SHRA BR VCTS BKN015CB PROB30 1300/1306 4SM TSRA BR OVC015CB FM130600 VRB04KT 6SM SHRA BR BKN007 PROB30 1306/1311 4SM TSRA BR OVC015CB FM131100 22005KT 4SM BR OVC010 PROB30 1311/1312 2SM SHRA BR OVC008", "KAST 121123Z 1212/1312 VRB03KT P6SM SKC FM122000 35009KT P6SM SKC FM130200 07003KT P6SM SKC", "KATL 121149Z 1212/1318 15007KT 6SM -DZ OVC007 FM121800 17009KT P6SM SHRA BKN008 TEMPO 1221/1301 4SM TSRA BR OVC003CB FM130100 15006KT 6SM BR VCSH BKN010 FM130600 19005KT 5SM BR VCSH OVC012 PROB30 1306/1309 3SM SHRA BR OVC006 FM131200 23006KT 4SM BR OVC007 FM131700 30009KT P6SM SCT020", "KATW 121314Z 1213/1312 23015G25KT P6SM OVC014 WS020/22040KT TEMPO 1213/1215 P6SM SHRA FM121630 26017G32KT P6SM OVC014 FM121800 28012G23KT P6SM SCT050 FM122300 25008G15KT P6SM BKN040 PROB30 1301/1307 -SHRA BKN022", "KATY 121120Z 1212/1312 25009KT P6SM BKN150 FM121300 29013G21KT P6SM VCSH BKN110 OVC150 TEMPO 1213/1215 -SHRA FM121500 31024G34KT P6SM BKN120 FM130300 31015G24KT P6SM FEW250 FM131100 30015G27KT P6SM SKC", "KAUG 121121Z 1212/1312 33004KT 3SM BR SKC FM121300 17004KT P6SM SKC FM130600 VRB03KT 6SM BR OVC250", "KAUS 121120Z 1212/1318 21005KT P6SM BKN010 TEMPO 1212/1214 BKN007 FM121500 22008KT P6SM SCT060 FM130600 36008KT P6SM FEW250", "KAUW 121122Z 1212/1312 19010G15KT P6SM -SHRA OVC014 WS020/25035KT TEMPO 1212/1213 4SM TSRA SCT014 BKN035CB FM121330 25016G29KT P6SM SHRA OVC016 FM121600 28014G26KT P6SM SCT020 BKN080 FM121800 28014G26KT P6SM SCT060 FM122200 27008G15KT P6SM BKN040 PROB30 1222/1304 -SHRA BKN022", "KAVL 121313Z 1213/1312 00000KT P6SM -SHRA OVC018 FM121700 16005KT P6SM -RA BKN009 FM122000 15006KT P6SM -RA BKN010 TEMPO 1220/1224 4SM -RA BR OVC006 FM130000 15006KT 6SM -RA BR OVC007 FM130800 18003KT 1/2SM FG BKN004", "KAVP 121120Z 1212/1312 VRB03KT P6SM SKC FM121500 20007G14KT P6SM SCT200 FM121900 19011G19KT P6SM BKN200 FM130200 17007G13KT P6SM OVC050 FM130800 16011G21KT P6SM -RA OVC025", "KAXN 121120Z 1212/1312 29012KT P6SM FEW150 FM121400 30018G26KT P6SM SCT080 FM121900 30020G30KT P6SM BKN080 TEMPO 1219/1222 -SHRA FM130400 30012KT P6SM FEW150", "KAZO 121126Z 1212/1312 17010KT 6SM -SHRA BR OVC060 WS020/21050KT FM121600 19018G28KT P6SM -SHRA OVC035 FM122100 23012G27KT 5SM SHRA BR OVC018 FM122300 32009KT 5SM SHRA BR BKN022 FM130100 30007KT P6SM SCT020", "TAF KBAB 121053Z 1211/1317 VRB06KT 9999 SKC QNH2998INS BECMG 1217/1218 26006KT 9999 SKC QNH2995INS WND VRB06KT AFT 1302 TX31/1223Z TN13/1214Z", "TAF AMD KBAD 121302Z 1213/1318 19010KT 9999 OVC008 QNH2997INS TEMPO 1212/1215 20010KT OVC006 BECMG 1213/1214 20010KT 9999 OVC015 QNH2988INS BECMG 1214/1215 19007KT 9999 BKN020 QNH2988INS BECMG 1215/1216 23012G18KT 9999 SCT040 QNH2984INS BECMG 1301/1302 34008KT 9999 VCTS BKN040CB QNH2984INS BECMG 1304/1305 36006KT 9999 NSW SKC QNH2986INS TX32/1221Z TN16/1213Z", "KBAF 121120Z 1212/1312 00000KT 3SM BR SCT002 FM121330 20007KT P6SM SKC FM121700 21008G15KT P6SM SCT250 FM130100 18005KT P6SM BKN100 FM130900 17005KT P6SM BKN030", "KBAM 121120Z 1212/1312 VRB06KT P6SM SKC", "KBBD 121129Z 1212/1312 21007KT P6SM SKC FM121700 26011KT P6SM SKC FM121900 29010KT P6SM SKC FM122100 32011KT P6SM SKC FM130100 35006KT P6SM SKC", "KBBG 121134Z 1212/1312 20009KT P6SM FEW100 FM121400 24010G21KT P6SM SHRA VCTS BKN150CB FM121600 29012KT P6SM BKN070 FM130000 VRB06KT P6SM SKC", "KBCB 121120Z 1212/1312 00000KT P6SM SCT250 FM121400 VRB03KT P6SM BKN100 FM122000 17006KT P6SM SCT035 BKN060 FM122300 15004KT P6SM SCT020 BKN040 FM130300 13003KT P6SM -SHRA BKN010", "KBCE 121120Z 1212/1312 30009KT P6SM SKC FM122200 32010G18KT P6SM SKC FM130300 28005KT P6SM SKC", "KBDL 121120Z 1212/1318 00000KT 6SM BR FEW003 FM121300 20004KT P6SM SKC FM121700 18010G17KT P6SM SCT250 FM130100 17006KT P6SM BKN200 FM131000 16007KT P6SM BKN040 FM131600 16012G25KT P6SM VCSH OVC030", "KBDN 121120Z 1212/1312 21006KT P6SM SKC FM122200 36006KT P6SM SKC FM130300 VRB04KT P6SM SKC", "KBDR 121122Z 1212/1312 VRB03KT P6SM SKC FM121400 23005KT P6SM FEW250 FM121600 20008G16KT P6SM FEW250 FM122000 18010KT P6SM SCT250 FM130400 17008KT P6SM FEW020 SCT100 OVC250", "KBED 121120Z 1212/1312 VRB03KT P6SM SKC FM121600 21006KT P6SM FEW250 FM130200 18005KT P6SM SCT050 FM131000 17005KT P6SM BKN035", "KBFD 121120Z 1212/1312 14004KT P6SM SCT250 FM121500 18009G16KT P6SM SCT050 OVC200 FM130200 16009G17KT P6SM VCSH OVC050 WS020/19040KT FM130800 17010G18KT 4SM -RA BR OVC009 WS020/21040KT", "KBFF 121122Z 1212/1312 32010KT P6SM SKC FM121700 33022G32KT P6SM BKN050 FM130100 30007KT P6SM SCT100", "KBFI 121120Z 1212/1312 00000KT P6SM SKC FM121500 VRB02KT P6SM SKC FM121900 33003KT P6SM SKC FM130000 33005KT P6SM SKC", "KBFL 121120Z 1212/1312 00000KT P6SM SKC FM121700 27005KT P6SM FEW120 SCT200 FM122300 31008KT P6SM SCT120 BKN200", "KBFM 121139Z 1212/1312 12006KT 6SM BR VCTS BKN007CB FM121330 13006KT 6SM -SHRA VCTS SCT007CB BKN015 FM121500 13005KT P6SM VCTS BKN020CB FM121700 14007KT P6SM VCTS SCT030CB BKN045", "KBGM 121120Z 1212/1312 20007KT P6SM FEW200 FM121500 18010G18KT P6SM SCT200 FM121900 19012G21KT P6SM BKN150 FM130300 17010G17KT P6SM OVC060 FM131000 16015G27KT P6SM VCSH OVC022", "KBGR 121246Z 1213/1312 VRB03KT 3SM BR SCT003 FM121400 22008KT P6SM SCT250 FM130000 16006KT P6SM SCT250 FM130900 18006KT P6SM BKN015", "KBHB 121303Z 1213/1312 VRB03KT 1/4SM FG OVC002 FM121400 VRB03KT 1SM BR BKN003 FM121500 20008KT P6SM SCT250 FM130900 18008KT P6SM BKN015", "KBHM 121135Z 1212/1312 13006KT P6SM VCSH SCT050 BKN140 FM121600 17009KT P6SM VCSH BKN030 TEMPO 1218/1219 4SM TSRA BR OVC015CB FM121900 17008KT 6SM SHRA BR OVC019 PROB30 1221/1303 4SM TSRA BR OVC015CB FM130400 17006KT 6SM SHRA BR VCTS BKN008CB PROB30 1306/1307 4SM TSRA BR OVC015CB FM130700 20005KT 6SM SHRA BR OVC010 PROB30 1307/1312 4SM TSRA BR OVC015CB", "TAF KBIF 120600Z 1206/1312 VRB06KT 9999 SKC QNH3011INS TX28/1222Z TN14/1213Z", "KBIH 121122Z 1212/1312 31007KT P6SM SKC FM121800 VRB06KT P6SM SKC FM122100 17007KT P6SM SKC FM130400 33006KT P6SM SKC", "KBIL 121125Z 1212/1312 02014KT P6SM BKN080 WS020/35035KT FM121500 01009KT P6SM BKN080 FM122000 33010G17KT P6SM BKN250 FM130200 35008KT P6SM FEW250", "KBIS 121127Z 1212/1312 32015G27KT P6SM -RA BKN050 OVC080 FM121400 30020G30KT P6SM SCT090 SCT180 FM121600 31028G41KT P6SM SCT090 FM130100 32018G31KT P6SM SKC FM130400 31016G21KT P6SM SKC", "TAF KBIX 121000Z 1210/1316 VRB06KT 9999 SCT014 BKN100 QNH3000INS TEMPO 1210/1213 8000 BR VCSH BKN005 OVC010 BECMG 1213/1214 VRB06KT 8000 -SHRA OVC011 QNH3001INS TEMPO 1213/1223 VRB15G25KT 4800 -TSRA BKN007 BKN015CB OVC025 BECMG 1223/1224 VRB06KT 8000 BR BKN003 QNH2986INS BECMG 1315/1316 36012KT 8000 BR SCT010 QNH2995INS TX25/1216Z TN22/1212Z", "KBJC 121120Z 1212/1312 33005KT P6SM SKC FM122100 04010KT P6SM FEW090 FM130300 33005KT P6SM SKC", "KBJI 121120Z 1212/1312 VRB05KT P6SM SKC FM121600 30013G20KT P6SM VCSH BKN060 TEMPO 1216/1220 -RA FM122100 30016G25KT P6SM VCSH BKN060", "KBKE 121140Z 1212/1312 VRB04KT P6SM SKC FM122000 32007KT P6SM SKC FM130300 VRB04KT P6SM SKC", "TAF KBKF 120900Z 1209/1315 VRB06KT 9999 SKC 520053 QNH3007INS BECMG 1210/1211 VRB06KT 9999 SKC 530053 QNH3007INS BECMG 1300/1301 05015KT 9999 SKC 520052 QNH3014INS BECMG 1303/1304 VRB06KT 9999 SKC 510023 QNH3023INS TX20/1222Z TN03/1313Z", "KBKW 121307Z 1213/1312 15007KT P6SM BKN100 FM121900 20009G16KT P6SM VCSH BKN070 FM130300 17011G23KT 6SM -SHRA VCTS BKN050CB FM130600 18009G17KT 5SM -SHRA BKN016", "KBLF 121120Z 1212/1312 VRB04KT P6SM BKN250 FM121700 19007KT P6SM BKN090 FM122100 19008KT P6SM OVC050 FM130200 18009G17KT P6SM BKN035 FM130400 18009KT 6SM -RA BR BKN015", "KBLH 121139Z 1212/1312 35005KT P6SM SKC FM121500 VRB04KT P6SM FEW100 FM122200 16008KT P6SM FEW100 FM130400 25007KT P6SM SKC FM131000 35005KT P6SM SKC", "KBLI 121120Z 1212/1312 00000KT P6SM SKC FM121800 36004KT 6SM BR HZ SKC FM130600 00000KT P6SM FEW250", "TAF AMD KBLV 121130Z 1211/1314 18009KT 9999 VCSH SCT070 BKN100 QNH2982INS TEMPO 1211/1214 VRB10G15KT 4800 -TSRA BKN060CB BECMG 1211/1212 18012KT 6000 -SHRA VCTS SCT040 BKN060CB QNH2979INS BECMG 1214/1215 23012G18KT 9999 NSW SCT030 BKN045 510003 QNH2975INS BECMG 1218/1219 27012G18KT 9999 VCSH SCT025 BKN040 510003 QNH2974INS BECMG 1220/1221 28012KT 9999 NSW SCT040 SCT100 QNH2973INS BECMG 1303/1304 31009KT 9999 SCT100 QNH2983INS TX22/1219Z TN10/1308Z", "KBMG 121120Z 1212/1312 15008KT P6SM BKN100 WS020/20035KT FM121400 20013G20KT P6SM VCSH BKN100 FM121800 21015G25KT P6SM -SHRA BKN090 FM122000 23013G26KT 6SM -SHRA OVC025 FM122300 24012G24KT 6SM -SHRA BR OVC035 FM130200 27006KT P6SM VCSH BKN050 AMD LTD TO CLD VIS AND WIND TIL 121300", "KBMI 121127Z 1212/1312 18016G25KT 6SM -SHRA BKN070 WS020/22045KT FM121300 20014G22KT P6SM VCSH BKN040 OVC080 TEMPO 1213/1216 4SM -SHRA BKN025 FM121800 24015G24KT P6SM -SHRA OVC015 FM122000 27014G23KT P6SM -SHRA BKN045 FM122300 26010KT P6SM FEW100", "KBNA 121120Z 1212/1312 15006KT P6SM OVC100 FM121700 19014G22KT P6SM OVC060 FM122300 20010G15KT 6SM -SHRA VCTS SCT050CB BKN100 TEMPO 1223/1301 4SM TSRA BKN015CB FM130500 22008KT P6SM -SHRA SCT015 OVC100 FM130900 28004KT P6SM OVC250", "KBNO 121140Z 1212/1312 VRB06KT P6SM SKC", "KBOI 121140Z 1212/1312 VRB05KT P6SM SKC TEMPO 1220/1224 32011KT", "KBOS 121120Z 1212/1318 24004KT P6SM SKC FM121600 21009KT P6SM FEW250 FM130200 18007KT P6SM SCT050 FM131200 16010KT P6SM BKN050 FM131500 16013G22KT P6SM BKN040", "KBPI 121120Z 1212/1312 VRB04KT P6SM SKC FM121900 33018G28KT P6SM SKC FM130100 35008KT P6SM SKC", "KBPK 121121Z 1212/1312 17006KT P6SM SCT250 WS020/23040KT FM121500 24010G18KT P6SM -SHRA VCTS SCT050CB BKN100 TEMPO 1215/1217 6SM -TSRA BR BKN040CB FM121900 30008G16KT P6SM BKN100 FM130100 31004KT P6SM SKC", "KBPT 121124Z 1212/1312 13005KT 6SM BR SCT015 BKN200 TEMPO 1212/1214 4SM BR BKN015 FM121400 16007KT P6SM VCSH SCT025 BKN100 FM121800 20010KT P6SM VCSH SCT030 BKN150 FM130100 19005KT P6SM BKN200 FM130600 VRB05KT 3SM BR SCT012 BKN120", "KBRD 121137Z 1212/1312 26007KT P6SM SKC FM121400 28010KT P6SM SKC FM121600 30013G21KT P6SM BKN080", "KBRL 121120Z 1212/1312 21012G20KT P6SM VCSH BKN035 OVC060 FM121600 27014G22KT P6SM OVC035 FM130100 28008KT P6SM SCT120", "KBRO 121126Z 1212/1312 VRB03KT P6SM SKC FM121400 13006KT P6SM SCT025 FM122100 11010KT P6SM FEW040 FM130300 VRB03KT P6SM FEW040", "KBTL 121126Z 1212/1312 17012KT P6SM -SHRA OVC060 WS020/21050KT FM121600 19018G28KT P6SM -SHRA OVC035 FM121900 21015G32KT P6SM SHRA OVC030 WS020/21045KT FM122300 31015G23KT 4SM SHRA BR OVC025 FM130000 30005KT P6SM VCSH BKN025 FM130400 26005KT P6SM VCSH SCT230", "KBTM 121132Z 1212/1312 32008KT P6SM SCT080 FM122100 31010G18KT P6SM SKC FM130200 VRB06KT P6SM SKC", "KBTR 121136Z 1212/1312 05003KT 6SM BR FEW045 BKN050 FM121700 20005KT P6SM VCSH SCT040 BKN070 FM130900 VRB03KT 2SM BR BKN025 FM131000 VRB03KT 1SM BR BKN003", "KBTV 121130Z 1212/1312 17007KT P6SM SCT240 FM121800 18011G20KT P6SM SCT240 FM122200 17007KT P6SM BKN220 FM130200 17011G23KT P6SM BKN250", "KBUF 121120Z 1212/1312 16008KT P6SM BKN120 FM121500 18012G24KT P6SM BKN100 FM130200 18014G22KT P6SM VCSH SCT050 OVC080 FM130400 18016G26KT 6SM -RA SCT035 OVC050 FM130800 19012KT 4SM RA BR SCT015 OVC025", "KBUR 121314Z 1213/1312 VRB03KT P6SM SCT015 FM122000 16010KT P6SM SCT100 FM130100 VRB03KT P6SM VCSH BKN015 FM130900 VRB03KT P6SM BKN018", "KBVI 121126Z 1212/1312 16004KT P6SM BKN250 FM121500 19008G17KT P6SM BKN250 FM130500 18008KT 6SM -RA OVC015 WS020/20045KT FM130700 18009KT 4SM -RA OVC007 WS020/21045KT FM130900 19010KT 3SM -RA OVC007 AMD LTD TO WIND VIS AND WX", "KBVO 121305Z 1213/1312 28003KT P6SM SCT040 BKN120 FM121500 36012G20KT P6SM OVC250 FM121800 36008KT P6SM SKC FM130900 30002KT P6SM SKC", "KBWG 121120Z 1212/1312 18005KT P6SM BKN200 FM121300 20014G23KT P6SM BKN120 FM122000 20014G26KT P6SM VCSH BKN060 PROB30 1222/1301 3SM TSRA BKN040CB FM130100 22006KT P6SM VCSH BKN045 PROB30 1301/1304 4SM -TSRA BKN035CB FM130500 25005KT P6SM OVC035 TEMPO 1305/1307 BKN021 FM130900 26005KT P6SM SKC", "KBWI 121137Z 1212/1318 VRB03KT P6SM SCT250 FM121400 19008G15KT P6SM BKN250 FM121600 18012G20KT P6SM FEW100 BKN250 FM122200 16008G15KT P6SM SCT060 BKN120 FM131000 17009G17KT P6SM VCSH SCT030 BKN060 WS020/20030KT FM131400 17010G20KT P6SM -SHRA SCT015 BKN030", "KBYI 121120Z 1212/1312 22005KT P6SM SKC FM121900 27008KT P6SM SKC FM130300 23005KT P6SM SKC", "KBZN 121125Z 1212/1318 VRB05KT P6SM SCT080 FM121800 30008KT P6SM SCT080 FM130400 15007KT P6SM FEW100", "KCAE 121322Z 1213/1312 12006KT P6SM SCT035 BKN100 FM121600 13005KT P6SM BKN040 FM122100 13007KT P6SM VCSH SCT018 BKN030 TEMPO 1221/1224 4SM -SHRA BKN030 FM130000 13004KT 6SM -SHRA BR BKN025 FM130300 13004KT 6SM BR VCSH OVC007", "KCAK 121125Z 1212/1312 18006KT P6SM BKN250 FM121500 19012G20KT P6SM OVC110 FM122300 18013G23KT P6SM VCSH OVC060 FM130100 18013G23KT 6SM -SHRA VCTS SCT015 OVC050CB FM130300 19013G23KT 4SM -SHRA VCTS SCT008 OVC015CB FM130600 21012G22KT 4SM -SHRA SCT008 OVC015 FM131100 25007KT P6SM VCSH OVC015", "KCAR 121135Z 1212/1312 22006KT P6SM SCT250 FM121600 24010KT P6SM SCT250 FM122200 18006KT P6SM SCT250 FM130900 14006KT P6SM SCT200", "TAF AMD KCBM 121235Z 1212/1315 16006KT 9999 FEW005 SCT015 BKN120 QNH2995INS TEMPO 1212/1216 BKN005 BECMG 1215/1216 18006KT 9999 SCT020 BKN050 QNH2985INS TEMPO 1216/1218 18010KT 9000 -SHRA BKN020 BECMG 1220/1221 18010KT 9999 SCT017 BKN030 QNH2980INS TEMPO 1221/1223 18010G15KT BKN020 BECMG 1302/1303 18006KT 9999 BKN005 QNH2980INS BECMG 1304/1305 19006KT 9999 VCTS BKN005CB QNH2980INS TEMPO 1305/1308 VRB15G25KT 1600 TSRA BKN005CB BECMG 1307/1308 31006KT 9999 NSW SCT005 BKN060 QNH2980INS BECMG 1310/1311 31006KT 9999 SKC QNH2990INS BECMG 1314/1315 32010G15KT 9999 SKC QNH2990INS TX25/1220Z TN18/1212Z", "KCDC 121120Z 1212/1312 05007KT P6SM SKC FM121800 35005KT P6SM SKC FM130200 VRB04KT P6SM SKC", "KCDR 121122Z 1212/1312 28012KT P6SM SKC FM121600 32022G32KT P6SM BKN050 FM130200 29012KT P6SM SCT100", "KCDS 121221Z 1212/1312 32011KT P6SM SKC FM121300 01015G25KT P6SM SKC FM122000 01011KT P6SM SKC", "KCEC 121209Z 1212/1312 00000KT 1SM BR FEW001 SCT005 TEMPO 1212/1216 1/4SM FG VV001 FM121700 19005KT 5SM HZ BKN005 FM130100 15007KT 1SM BR OVC003", "TAF KCEF 121100Z 1211/1317 21009KT 9999 FEW250 QNH3019INS BECMG 1216/1217 21012KT 9999 FEW050 BKN220 QNH3008INS WND 19009KT AFT 1222 TEMPO 1218/1221 22012G20KT 510006 BECMG 1305/1306 18009KT 9999 FEW010 BKN020 510107 QNH3001INS TEMPO 1309/1313 8000 BR SCT007 OVC015 BECMG 1312/1313 17010G15KT 9999 SCT015 BKN025 BKN040 510107 QNH2996INS TEMPO 1314/1317 18015G25KT 520008 TX23/1219Z TN04/1211Z", "KCGI 121141Z 1212/1312 18007KT P6SM VCSH SCT060 BKN080 TEMPO 1212/1213 -SHRA BKN060 FM121500 20011G25KT P6SM -SHRA VCTS SCT050 BKN070CB FM121900 23011G25KT P6SM BKN050 FM122300 25015G21KT P6SM BKN060 FM130300 27008KT P6SM SKC", "KCHA 121120Z 1212/1312 15004KT P6SM VCSH OVC018 FM121400 17008KT P6SM BKN025 PROB30 1221/1224 4SM -SHRA BR OVC015 FM130000 18007KT 6SM -SHRA BKN015 FM130400 19007KT 3SM -SHRA BR OVC008", "KCHO 121137Z 1212/1312 27003KT P6SM SKC FM121300 20004KT P6SM SCT250 FM121600 19008G15KT P6SM FEW100 BKN250 FM122200 18006KT P6SM SCT060 BKN120 FM130600 18005KT P6SM SCT030 BKN060 WS020/19030KT FM130900 17005KT P6SM VCSH SCT015 BKN025 WS020/20030KT", "KCHS 121126Z 1212/1312 06006KT P6SM SCT060 BKN150 FM121400 10009KT P6SM BKN035 FM121900 13009KT P6SM VCSH SCT020 OVC035 FM130200 10003KT 6SM -SHRA SCT010 OVC030 FM130500 VRB03KT 5SM SHRA BR OVC005", "KCID 121232Z 1213/1312 22011KT P6SM -SHRA SCT035 BKN070 FM121500 27014G22KT P6SM SCT050 FM122000 29018G28KT P6SM SCT090 FM130100 28009KT P6SM BKN090", "KCIU 121131Z 1212/1312 18008G15KT P6SM VCSH OVC006 FM121700 18013G23KT 6SM -SHRA BR OVC012 FM122100 25010G26KT 3SM +SHRA BR OVC007 FM122300 27008G18KT 6SM -SHRA BR OVC022 FM130100 27006KT P6SM VCSH OVC045 FM130300 24005KT P6SM VCSH SCT140", "KCKB 121305Z 1213/1312 00000KT P6SM BKN100 FM122000 20009G17KT P6SM VCSH BKN090 FM130100 17006G15KT P6SM -SHRA VCTS BKN060CB WS020/20040KT FM130700 19007G18KT 3SM -SHRA OVC020", "KCKV 121120Z 1212/1312 17004KT P6SM SKC FM121500 19012G20KT P6SM SCT220 FM122100 22007KT 6SM -SHRA VCTS SCT035CB OVC070 FM130400 26007KT P6SM -SHRA SCT015 OVC100 FM130700 29004KT P6SM OVC250", "KCLE 121125Z 1212/1318 19012KT P6SM OVC100 FM121400 19012G20KT P6SM OVC100 FM122200 18015G25KT P6SM VCSH OVC080 FM130000 18015G25KT 6SM -SHRA SCT025 OVC050 FM130200 20012G22KT 4SM -SHRA SCT015 OVC025 FM130800 24007KT P6SM VCSH BKN015 FM131200 26008KT P6SM BKN035", "KCLL 121256Z 1213/1312 17005KT 6SM BR OVC011 TEMPO 1213/1214 1/4SM FG VV002 FM121400 18006KT P6SM FEW010 SCT030 FM121600 22010KT P6SM SCT070 FM122300 23005KT P6SM SCT110", "KCLM 121120Z 1212/1312 22004KT P6SM SKC FM121800 09005KT P6SM SKC FM130000 VRB03KT P6SM SKC", "KCLT 121132Z 1212/1318 13006KT P6SM BKN040 OVC070 TEMPO 1221/1301 4SM -SHRA BR OVC025 FM130100 15006KT P6SM -SHRA OVC015 FM130300 16007KT 6SM -RA BR OVC008 FM130500 15006KT 5SM -RA BR OVC004 FM131200 17005KT 6SM -RA BR OVC006 FM131700 22009KT P6SM BKN015", "KCMA 121329Z 1213/1312 35005KT 6SM BR OVC009 FM121600 VRB03KT P6SM BKN014 FM121900 25008KT P6SM SCT022 FM130300 VRB03KT P6SM OVC015", "KCMH 121128Z 1212/1312 16005KT P6SM BKN250 FM121400 18010G20KT P6SM BKN110 FM121900 19014G25KT P6SM VCSH BKN070 FM122200 19013G25KT 5SM -SHRA VCTS BKN060CB FM130100 19013KT P6SM VCSH OVC045 FM130500 21012KT P6SM VCSH OVC025", "KCMI 121329Z 1213/1312 17014KT P6SM VCSH BKN080 WS020/22045KT TEMPO 1213/1215 2SM -TSRA BKN025CB FM121500 21016G26KT P6SM VCSH BKN040 OVC080 TEMPO 1215/1218 4SM -SHRA BKN025 FM121900 25015G25KT P6SM -SHRA BKN025 FM122200 27009KT P6SM BKN070 FM130200 25006KT P6SM FEW250", "KCMX 121326Z 1213/1312 24018G30KT 3SM SHRA VCTS OVC006CB FM121500 28015KT 5SM SHRA OVC018 FM121600 28015G23KT 4SM SHRA BR OVC027 FM121700 28015G24KT P6SM SHRA OVC035 FM130600 29009KT 4SM BR BKN022", "KCNM 121201Z 1212/1312 27011KT P6SM FEW150 FM121600 34010KT P6SM FEW150", "KCNU 121205Z 1212/1312 28012KT P6SM FEW120 FM121300 32010KT P6SM SCT150", "KCNY 121120Z 1212/1312 25004KT P6SM SKC", "KCOD 121120Z 1212/1312 VRB04KT P6SM SKC FM121700 01008G15KT P6SM SKC FM130100 VRB04KT P6SM SKC", "KCOE 121120Z 1212/1312 15006KT P6SM SKC FM122000 24006KT P6SM SKC FM130300 13004KT P6SM SKC", "TAF KCOF 121000Z 1210/1316 09005KT 9999 BKN060 BKN100 QNH3005INS BECMG 1214/1215 11010KT 8000 -SHRA BKN030 OVC100 QNH2996INS TEMPO 1218/1222 11012G18KT 6000 -TSRA BKN020CB OVC050 BECMG 1304/1305 19010KT 9999 NSW SCT030 BKN100 QNH2994INS TX29/1218Z TN25/1210Z", "KCON 121253Z 1213/1312 19005KT P6SM SKC FM130000 00000KT P6SM OVC250 FM130800 15002KT P6SM OVC100", "KCOS 121120Z 1212/1312 03006KT P6SM SKC FM121700 21007KT P6SM SKC FM122100 35010KT P6SM SKC FM122300 03008KT P6SM SKC FM130600 14004KT P6SM SKC", "KCOT 121140Z 1212/1312 16007KT P6SM SCT050 TEMPO 1212/1214 3SM BR BKN002", "KCOU 121311Z 1213/1312 19008KT 6SM -SHRA OVC060 TEMPO 1214/1215 5SM RA BR FM121600 25009KT P6SM BKN080 FM121800 30010KT P6SM SCT150", "KCPR 121120Z 1212/1312 27007KT P6SM SKC FM121700 32010G20KT P6SM SKC FM130200 26006KT P6SM SKC", "KCPS 121131Z 1212/1312 17007KT P6SM VCTS BKN060CB FM121400 20009KT 6SM -SHRA VCTS BKN060CB FM121600 22010G18KT P6SM VCSH OVC070 FM121800 26011G18KT P6SM BKN050 FM122000 28008KT P6SM SCT100", "KCRE 121120Z 1212/1312 05006KT P6SM SCT070 BKN150 FM121600 12008KT P6SM FEW070 BKN150 FM130600 14006KT P6SM VCSH BKN007 FM130900 16006KT 5SM SHRA OVC005", "KCRG 121130Z 1212/1312 07006KT P6SM VCSH SCT020 BKN035 OVC050 TEMPO 1212/1214 5SM SHRA BKN020 OVC035 FM121800 10008KT P6SM VCSH SCT035 BKN070 BKN150 FM130300 VRB04KT 6SM -SHRA SCT020 BKN035 OVC050 PROB30 1306/1312 3SM SHRA SCT010 OVC020", "KCRP 121210Z 1212/1312 13006KT 3SM BR SCT015 BKN100 TEMPO 1212/1214 1/2SM FG BKN015 FM121400 17009KT P6SM SCT030 BKN250", "KCRQ 121127Z 1212/1312 VRB04KT P6SM OVC015 FM121700 VRB04KT P6SM BKN022 FM121900 25008KT P6SM SCT020 SCT100 TEMPO 1223/1303 BKN015 FM130300 VRB04KT P6SM OVC012", "KCRW 121303Z 1213/1312 VRB03KT P6SM SCT045 BKN060 FM121800 21008G16KT P6SM VCSH BKN080 FM130200 18007G16KT 5SM -SHRA VCTS BKN080CB WS020/19040KT FM130800 19006G16KT 3SM -SHRA OVC015", "KCSG 121149Z 1212/1312 10004KT P6SM OVC009 FM121500 15006KT P6SM VCSH BKN012 FM121800 16006KT P6SM SHRA BKN025 TEMPO 1219/1223 4SM TSRA BR OVC004CB FM130200 VRB03KT P6SM VCSH BKN010 FM131000 25004KT 6SM BR OVC008", "KCSM 121120Z 1212/1312 25009KT P6SM FEW250 FM121300 01021G29KT P6SM SKC FM122100 01014G19KT P6SM SKC FM130000 01009KT P6SM SKC", "KCSV 121240Z 1213/1312 VRB05KT P6SM OVC120 TEMPO 1213/1214 4SM -SHRA BR BKN005 FM121500 18010G15KT P6SM SCT040 BKN120 FM122100 19009G15KT P6SM VCTS BKN040CB FM130100 22007KT 6SM -SHRA VCTS SCT035CB OVC050 TEMPO 1301/1303 4SM TSRA OVC015CB FM130800 23006KT 6SM BR OVC007", "KCTB 121125Z 1212/1312 32010KT P6SM BKN080 FM121600 33010KT P6SM SCT090 FM122300 29005KT P6SM FEW100", "KCUB 121322Z 1213/1312 15005KT P6SM SCT035 BKN100 FM121600 13005KT P6SM BKN040 FM122100 13006KT P6SM VCSH SCT018 BKN030 TEMPO 1221/1224 4SM -SHRA BKN030 FM130000 13004KT 6SM -SHRA BR BKN025 FM130300 13003KT 6SM BR VCSH OVC007", "KCVG 121128Z 1212/1318 17006KT P6SM SCT110 FM121400 19010G20KT P6SM VCSH BKN100 FM121800 20013G25KT P6SM VCSH BKN080 FM122200 21012G24KT 5SM -SHRA VCTS BKN060CB FM130000 23012KT P6SM VCSH OVC050 FM130500 26007KT P6SM BKN045", "TAF KCVS 121000Z 1210/1316 33009KT 9999 SKC QNH3003INS BECMG 1214/1215 02012KT 9999 SKC QNH3015INS BECMG 1217/1218 09009KT 9999 SKC QNH3015INS BECMG 1219/1220 20009KT 9999 SKC QNH3009INS BECMG 1300/1301 VRB06KT 9999 SKC QNH3010INS TX22/1222Z TN10/1213Z", "KCWA 121122Z 1212/1312 19010G15KT P6SM -SHRA OVC012 WS020/25035KT TEMPO 1212/1213 4SM TSRA SCT012 BKN035CB FM121330 25016G29KT P6SM SHRA OVC014 FM121600 28014G26KT P6SM SCT018 BKN070 FM121800 28014G26KT P6SM SCT040 FM122200 27008G15KT P6SM BKN040 PROB30 1222/1304 -SHRA BKN022", "KCXO 121131Z 1212/1312 00000KT 6SM BR OVC002 FM121400 22006KT P6SM FEW007 BKN030 FM121700 24008KT P6SM SCT060 FM130000 VRB04KT P6SM SCT110", "KCXP 121149Z 1212/1312 VRB04KT P6SM SKC FM122000 06009KT P6SM FEW100 FM130300 VRB04KT P6SM FEW250", "KCYS 121122Z 1212/1312 30010KT P6SM SKC FM121600 33025G35KT P6SM SKC FM130100 30005KT P6SM SKC", "TAF KDAA 121200Z 1212/1318 VRB06KT 9999 FEW200 QNH3023INS BECMG 1217/1218 19012KT 9999 FEW040 SCT200 QNH3008INS BECMG 1223/1224 17006KT 9999 SCT045 BKN200 QNH3000INS BECMG 1308/1309 16006KT 9999 VCSH FEW015 SCT025 OVC040 QNH2993INS BECMG 1311/1312 17006KT 9000 -RA FEW009 BKN015 OVC025 QNH2991INS BECMG 1314/1315 18009KT 8000 -RA BKN009 OVC015 QNH2985INS TX22/1219Z TN07/1212Z", "KDAB 121121Z 1212/1312 04004KT P6SM FEW025 BKN250 FM121400 07005KT P6SM SCT025 BKN150 FM121600 07006KT P6SM VCSH SCT035 BKN150 FM122000 06007KT P6SM VCTS SCT040CB BKN150 FM130100 15003KT P6SM VCSH SCT035 BKN120", "KDAG 121122Z 1212/1312 27009KT P6SM SKC FM121800 07008KT P6SM FEW120 FM122200 11008KT P6SM VCSH FEW120 SCT250 FM130100 27012KT P6SM SKC", "KDAL 121120Z 1212/1312 16010KT P6SM SCT100 FM121400 22012G22KT P6SM SCT250 FM121900 31015KT P6SM FEW050 SCT250 FM122200 35014KT P6SM FEW250 FM130200 35008KT P6SM SKC", "KDAN 121120Z 1212/1312 00000KT P6SM FEW045 BKN060 FM121500 20006KT P6SM BKN120 FM121800 19007KT P6SM BKN050 FM122300 VRB03KT P6SM OVC040 FM130500 18005KT P6SM -SHRA BKN030 FM130800 19005KT P6SM OVC015", "KDAY 121128Z 1212/1312 18008KT P6SM BKN110 FM121400 19013G25KT P6SM VCSH BKN090 FM121900 20018G30KT P6SM VCSH BKN070 FM122100 20018G31KT 5SM -SHRA VCTS BKN060CB FM130000 21014G20KT P6SM VCSH BKN050 FM130500 26012KT P6SM BKN035", "KDBQ 121120Z 1212/1312 23014G22KT 6SM -SHRA SCT035 OVC080 FM121600 29012G20KT P6SM SCT025 FM130100 29008KT P6SM BKN090", "KDCA 121137Z 1212/1318 19003KT P6SM FEW150 BKN250 FM121400 19008G15KT P6SM BKN250 FM121600 18012G20KT P6SM FEW100 BKN250 FM122200 16008G15KT P6SM SCT060 BKN120 FM131000 17009G17KT P6SM VCSH SCT030 BKN060 WS020/20030KT FM131400 17010G20KT P6SM -SHRA SCT015 BKN030", "KDDC 121141Z 1212/1312 36010KT P6SM SKC FM121600 33015G25KT P6SM SKC FM130800 VRB06KT P6SM SKC", "KDEC 121127Z 1211/1312 18012KT P6SM VCTS BKN080CB WS020/22045KT FM121500 21015G24KT P6SM VCSH BKN040 OVC080 TEMPO 1215/1218 4SM -SHRA BKN025 FM121900 26015G24KT P6SM -SHRA BKN025 FM130100 26006KT P6SM FEW250", "KDEN 121120Z 1212/1318 20007KT P6SM SKC FM121700 34010KT P6SM SKC FM122100 03012KT P6SM FEW090 FM130200 15007KT P6SM SKC FM130800 23005KT P6SM SKC FM131600 04010KT P6SM SKC", "KDET 121120Z 1212/1312 17010KT P6SM -SHRA SCT035 OVC070 FM121400 21013G20KT P6SM SCT025 BKN045 OVC100 FM121700 21020G30KT P6SM SCT045 BKN100 OVC250 TEMPO 1222/1302 25025G40KT 2SM SHRA OVC015 FM130200 25013G20KT P6SM SCT100 BKN250 FM131000 25009KT P6SM BKN025", "KDFW 121120Z 1212/1318 17010KT P6SM SCT100 FM121400 22012G22KT P6SM SCT250 FM121900 31015KT P6SM FEW050 SCT250 FM122200 35014KT P6SM FEW250 FM130200 35008KT P6SM SKC", "KDHN 121120Z 1212/1312 10003KT 5SM BR OVC005 FM121500 12005KT P6SM BKN050 FM122300 16005KT 6SM -TSRA BKN015CB OVC030 FM130300 14004KT 6SM BR FEW030 BKN070 FM130900 VRB03KT 5SM BR FEW004 BKN030", "KDHT 121120Z 1212/1312 35013KT P6SM SKC FM121800 29006KT P6SM SKC FM122100 23011KT P6SM SKC FM130700 04008KT P6SM SKC", "KDIJ 121120Z 1212/1312 11006KT P6SM SKC FM121900 31010KT P6SM FEW050 FM130200 08005KT P6SM SKC FM130900 12005KT P6SM SKC AMD LTD TO CLD VIS AND WIND", "KDIK 121127Z 1212/1312 31017G27KT P6SM SKC FM121400 30021G33KT P6SM SKC FM121600 31031G44KT P6SM FEW090 FM130000 31021G37KT P6SM SKC FM130300 31016G25KT P6SM FEW300", "TAF KDLF 121100Z 1211/1317 09006KT 9999 FEW110 QNH2994INS BECMG 1214/1215 16009KT 9999 FEW200 QNH2996INS BECMG 1219/1220 32010G15KT 9999 FEW200 QNH2987INS BECMG 1310/1311 34009KT 9999 SKC QNH2997INS TX34/1221Z TN17/1212Z", "KDLH 121137Z 1212/1312 29007KT P6SM BKN070 FM121300 27009G17KT P6SM BKN200 FM121700 29013G20KT P6SM FEW110", "KDLS 121120Z 1212/1312 VRB03KT P6SM SKC FM122100 03006KT P6SM SKC FM130300 VRB03KT P6SM SKC", "TAF KDMA 120607Z 1206/1312 15009KT 9999 SKC QNH3001INS BECMG 1217/1218 VRB06KT 9999 SKC QNH3012INS BECMG 1219/1220 30009KT 9999 SKC QNH3006INS BECMG 1301/1302 VRB06KT 9999 SKC QNH3002INS BECMG 1303/1304 14009KT 9999 SKC QNH3005INS TX31/1220Z TN15/1212Z", "KDMN 121123Z 1212/1312 23006KT P6SM SKC FM121800 27008KT P6SM SKC FM130600 VRB05KT P6SM SCT250", "KDNL 121250Z 1213/1312 11005KT P6SM SCT010 BKN035 TEMPO 1213/1214 6SM -SHRA BKN025 FM122000 13007KT P6SM VCSH SCT018 BKN025 TEMPO 1220/1224 4SM -SHRA BKN030 FM130000 VRB03KT 6SM -SHRA BR BKN025 FM130400 VRB03KT 4SM BR BKN007", "TAF KDOV 120800Z 1208/1314 22006KT 9999 SKC QNH3020INS BECMG 1216/1217 18009KT 9999 SKC QNH3009INS BECMG 1221/1222 15006KT 9999 SCT030 QNH2999INS BECMG 1305/1306 16009KT 9999 SCT030 OVC040 QNH2989INS BECMG 1311/1312 16009KT 6000 -SHRA BKN020 OVC030 QNH2988INS TX22/1220Z TN08/1209Z", "KDPA 121140Z 1212/1312 19016G26KT P6SM VCSH BKN050 WS020/20045KT FM121600 20016G28KT P6SM VCSH BKN020 FM121800 28016G28KT 6SM -SHRA BR BKN020 TEMPO 1218/1220 30019G32KT 2SM SHRA BR BKN010 FM122100 28010G18KT P6SM FEW250 FM122300 25007KT P6SM SCT080 TEMPO 1302/1305 28014G27KT -SHRA BKN050", "KDRO 121120Z 1212/1312 VRB04KT P6SM SKC FM121900 24009KT P6SM SKC FM130300 36007KT P6SM SKC FM130600 02002KT P6SM SKC", "KDRT 121120Z 1212/1312 VRB05KT P6SM FEW250 FM121500 27005KT P6SM BKN250 FM122000 33005KT P6SM SCT250", "KDSM 121125Z 1212/1312 30013KT P6SM BKN050 FM121700 28013G23KT P6SM SKC FM122000 30020G34KT P6SM VCSH BKN160 FM130000 30014G27KT P6SM FEW250 FM130200 29011KT P6SM FEW250", "KDTW 121120Z 1212/1318 17010KT P6SM -SHRA SCT035 OVC070 FM121400 21013G20KT P6SM SCT025 BKN045 OVC100 FM121700 21020G30KT P6SM SCT045 BKN100 OVC250 TEMPO 1222/1302 25025G40KT 2SM SHRA OVC015 FM130200 25013G20KT P6SM SCT100 BKN250 FM131000 25009KT P6SM BKN025", "KDUJ 121126Z 1212/1312 14004KT P6SM SCT250 FM121500 19010G18KT P6SM BKN250 FM130500 17010KT 3SM -RA OVC015 WS020/19045KT FM130700 17010KT 2SM -RA OVC007 WS020/20045KT FM130900 17010KT 2SM -RA OVC003", "KDVL 121120Z 1212/1312 29012KT P6SM VCSH BKN045 FM121400 30017G28KT P6SM -RA BKN090 FM121600 31023G38KT P6SM SCT100", "KDVT 121139Z 1212/1312 04005KT P6SM SKC FM121900 21006KT P6SM FEW120 FM130400 04004KT P6SM SKC", "TAF KDYS 120800Z 1208/1314 20012KT 9999 FEW040 QNH2988INS BECMG 1214/1215 25015G25KT 9999 FEW040 QNH2990INS BECMG 1216/1217 31012KT 9999 SKC QNH2990INS BECMG 1221/1222 VRB06KT 9999 SKC QNH2999INS TX28/1221Z TN15/1308Z", "KEAR 121138Z 1212/1312 28008KT P6SM SKC FM121600 30017G28KT P6SM SCT090 FM122000 32023G33KT P6SM FEW100 FM130000 32017G25KT P6SM SKC FM130200 30011KT P6SM SKC", "KEAT 121120Z 1212/1312 29004KT P6SM SKC TEMPO 1213/1216 6SM HZ FU FM122000 13004KT P6SM SKC FM130600 30005KT P6SM SKC", "KEAU 121120Z 1212/1312 30010G16KT P6SM VCSH BKN050 FM121400 28012G18KT P6SM FEW150 FM121800 28014G22KT P6SM BKN060 TEMPO 1221/1224 -SHRA FM130400 27010KT P6SM SCT100", "TAF COR KECG 121157Z 1212/1312 03004KT P6SM SKC FM121500 14007KT P6SM SCT250 FM122200 16005KT P6SM BKN150 FM130900 17006KT P6SM BKN100", "KECP 121136Z 1212/1312 VRB03KT P6SM SCT010 SCT100 TEMPO 1212/1214 BKN007 FM121800 17008KT P6SM BKN060 FM122100 20006KT P6SM VCTS BKN025CB OVC100 FM130000 18006KT 6SM -RA VCTS BKN025CB OVC050 FM130300 18004KT P6SM SCT050", "TAF KEDW 120435Z 1205/1311 21012KT 9999 FEW120 QNH3000INS BECMG 1205/1206 VRB06KT 9999 SKC QNH2992INS TEMPO 1220/1224 VRB12G18KT 9999 VCTS SCT060CB BKN120 TX31/1223Z TN13/1214Z LAST NO AMDS AFT 1205 NEXT 1213", "KEED 121122Z 1212/1312 VRB06KT P6SM SKC FM121600 07006KT P6SM SKC FM130200 24007KT P6SM SKC", "KEET 121135Z 1212/1312 VRB04KT P6SM VCSH BKN012 BKN060 FM121500 16007KT P6SM VCSH OVC029 FM121800 16007KT 6SM SHRA BR OVC017 PROB30 1300/1306 4SM TSRA BR OVC015CB FM130600 VRB03KT 6SM SHRA BR OVC007 PROB30 1306/1312 4SM TSRA BR OVC015CB", "TAF KEFD 121200Z 1212/1318 VRB06KT 8000 BR FEW040 QNH2996INS BECMG 1217/1218 VRB06KT 9000 BR SCT026 QNH2984INS BECMG 1220/1221 VRB06KT 9000 -SHRA FEW045 QNH2983INS BECMG 1314/1315 03012KT 9999 NSW SKC QNH2996INS TX31/1221Z TN22/1212Z", "KEFK 121130Z 1212/1312 VRB04KT P6SM SCT190 FM121500 19005KT P6SM SCT250 FM130100 17007KT P6SM BKN230 FM130900 16010G19KT P6SM SCT170 WS020/20035KT", "KEGE 121120Z 1212/1312 VRB04KT P6SM SKC FM122000 25011KT P6SM SKC FM122200 25014G22KT P6SM SKC FM130200 18005KT P6SM SKC AMD NOT SKED", "TAF AMD KEGI 121327Z 1213/1315 13006KT 9999 VCSH SCT030 BKN050 QNH3006INS TEMPO 1213/1215 BKN007 BECMG 1215/1216 14008KT 8000 -SHRA SCT003 BKN030 QNH3006INS BECMG 1217/1218 16008KT 8000 -SHRA VCTS BKN020CB QNH2992INS TEMPO 1218/1301 17012G18KT 4800 -TSRA BKN005 OVC015CB BECMG 1302/1303 20006KT 8000 BR BKN005 BKN020 QNH2985INS BECMG 1310/1311 32006KT 9000 BR BKN005 OVC020 QNH2986INS TX26/1217Z TN21/1309Z", "KEKN 121305Z 1213/1312 00000KT P6SM BKN100 FM122100 19008KT P6SM VCSH BKN080 FM130300 18008G17KT P6SM -SHRA VCTS BKN040CB WS015/20030KT FM130800 19006KT 2SM -SHRA OVC015 AMD NOT SKED", "KEKO 121120Z 1212/1312 VRB06KT P6SM SKC", "KEKS 121125Z 1212/1312 VRB04KT P6SM SCT100 FM121900 27008KT P6SM SCT100", "KELD 121140Z 1212/1312 00000KT P6SM SKC FM121600 21009KT P6SM BKN040 FM130000 20007KT P6SM VCTS BKN050CB BKN250 FM130300 33007KT P6SM VCTS BKN050CB BKN250 FM130600 35008KT P6SM SKC", "KELM 121120Z 1212/1312 19005KT P6SM FEW100 FM121500 18007G15KT P6SM SCT200 FM121900 20013G24KT P6SM BKN150 FM130100 17008G14KT P6SM OVC080 FM130900 17012G25KT 6SM -RA BR OVC025", "KELP 121123Z 1212/1312 VRB04KT P6SM SKC FM121800 27008KT P6SM SKC FM130600 VRB05KT P6SM FEW250", "KELY 121120Z 1212/1312 VRB06KT P6SM SKC", "TAF KEND 121000Z 1210/1316 VRB06KT 9999 FEW200 QNH2979INS BECMG 1211/1212 35015G25KT 9999 SCT100 QNH2982INS BECMG 1216/1217 33012G18KT 9999 FEW150 QNH2994INS BECMG 1306/1307 VRB06KT 9999 BKN080 QNH3009INS TX25/1221Z TN15/1211Z", "KENV 121120Z 1212/1312 VRB04KT P6SM SKC FM121700 11005KT P6SM SKC FM130200 30004KT P6SM SKC", "KENW 121126Z 1212/1312 20015G24KT 5SM -SHRA VCTS BKN060CB WS020/22045KT FM121500 23018G27KT P6SM -SHRA VCTS OVC040CB FM121700 27018G26KT P6SM -SHRA OVC016 FM122000 30015G25KT P6SM SCT100 FM122300 20005KT P6SM SCT250 FM130200 27011G26KT P6SM VCSH BKN100 FM130500 27008KT P6SM SCT070", "KERI 121125Z 1212/1312 18014KT P6SM BKN250 FM121500 18015G25KT P6SM BKN100 FM130000 17018G28KT P6SM VCSH OVC090 FM130200 18018G28KT 6SM -SHRA SCT015 OVC050 FM130400 18018G28KT 4SM -SHRA SCT008 OVC015", "KEUG 121123Z 1212/1312 35005KT P6SM SKC", "KEUL 121140Z 1212/1312 VRB06KT P6SM SKC", "KEVV 121141Z 1212/1312 19010KT P6SM VCSH BKN100 FM121500 20013G23KT P6SM VCSH SCT060 BKN080 TEMPO 1215/1218 -SHRA BKN060 FM121800 22014G25KT P6SM -SHRA VCTS BKN080CB FM122200 21014G25KT P6SM VCSH BKN080 FM130100 23009KT P6SM BKN060 FM130400 28006KT P6SM FEW150", "KEVW 121120Z 1212/1312 24008KT P6SM SKC FM121800 30012G22KT P6SM SKC FM130300 22006KT P6SM SKC", "KEWN 121138Z 1212/1312 VRB06KT P6SM FEW060 SCT250 FM121800 11008KT P6SM SCT060 BKN150 FM130900 14008KT P6SM SHRA OVC060 FM131100 15008KT P6SM SHRA BKN025", "KEWR 121122Z 1212/1318 20005KT P6SM FEW250 FM121700 18009G16KT P6SM SCT250 FM130300 17006KT P6SM FEW020 SCT100 OVC250 FM130600 16010KT P6SM FEW020 BKN035 FM131400 16016G25KT P6SM FEW020 BKN035 PROB30 1315/1318 5SM -SHRA BKN025", "KEYW 121208Z 1212/1312 10008KT P6SM VCSH SCT015 TEMPO 1212/1214 12012G18KT 2SM SHRA BKN015 FM121500 10009KT P6SM FEW020 FM130600 12006KT P6SM VCSH SCT025", "TAF AMD KFAF 121100Z 1211/1316 16005KT 9999 SKC QNH3004INS BECMG 1222/1223 16005KT 9999 VCSH BKN050 QNH2993INS BECMG 1308/1309 18009KT 8000 -SHRA BKN040 QNH2982INS TX23/1219Z TN09/1211Z", "KFAR 121120Z 1212/1312 29010KT P6SM VCSH BKN110 FM121400 29014KT P6SM VCSH BKN080 FM121800 31020G30KT P6SM BKN090", "KFAT 121120Z 1212/1312 30005KT P6SM SKC FM130000 30005KT P6SM SCT200", "KFAY 121120Z 1212/1312 09003KT P6SM SCT060 BKN250 FM121500 14006KT P6SM BKN050 BKN200 FM130300 17005KT P6SM BKN025 FM130700 17005KT P6SM OVC007", "TAF KFBG 120900Z 1209/1315 05006KT 9999 SCT050 QNH3028INS BECMG 1218/1219 09010KT 9999 OVC045 QNH3025INS BECMG 1300/1301 14007KT 9999 OVC030 QNH3009INS BECMG 1306/1307 12007KT 8000 -SHRA BKN020 OVC030 QNH2996INS TX24/1220Z TN14/1209Z", "TAF KFCS 120500Z 1205/1311 35010G20KT 9999 FEW080 520009 QNH3009INS BECMG 1207/1208 01005KT 9999 SKC QNH3007INS BECMG 1211/1212 28005KT 9999 SKC QNH3014INS BECMG 1217/1218 18010KT 9999 SKC QNH3008INS BECMG 1300/1301 35005KT 9999 SKC QNH3011INS WND 350V090 TX22/1221Z TN04/1213Z", "KFDY 121125Z 1212/1312 16011KT P6SM BKN100 FM121700 19015G25KT P6SM VCSH OVC080 FM122200 21015G25KT 6SM -SHRA SCT025 OVC060 FM130000 21017G27KT 4SM -SHRA OVC025 FM130500 26008KT P6SM VCSH OVC025 FM130700 27006KT P6SM BKN045", "TAF KFFO 121100Z 1211/1317 18012KT 9999 SCT090 OVC130 510033 QNH2994INS TEMPO 1212/1214 20012G20KT FEW040 BKN075 OVC130 BECMG 1214/1215 21015G25KT 9999 VCSH SCT040 OVC070 520103 QNH2971INS TEMPO 1218/1221 21020G30KT 6000 -SHRA BKN020 OVC040 BECMG 1222/1223 22010G15KT 9999 VCTS SCT030CB OVC040 520103 QNH2971INS TEMPO 1223/1304 24020G30KT 4800 TSRA FEW010 OVC030CB BECMG 1304/1305 26012KT 9999 NSW SCT040 BKN060 QNH2969INS BECMG 1314/1315 27012G18KT 9999 FEW045 510013 QNH2977INS TX24/1220Z TN09/1311Z", "TAF KFHU 120600Z 1206/1312 24009KT 9999 SCT070 QNH3016INS BECMG 1208/1209 14005KT 9999 FEW060 QNH3017INS BECMG 1219/1220 08009KT 9999 FEW060 SCT320 QNH3016INS BECMG 1301/1302 05004KT 9999 FEW310 QNH3017INS TX26/1221Z TN13/1213Z", "KFKL 121126Z 1212/1312 16005KT P6SM BKN250 FM121500 18011G19KT P6SM BKN250 FM130500 17010KT 4SM -RA BR OVC015 WS020/19045KT FM130800 18010KT 2SM -RA BR OVC003", "KFLG 121120Z 1212/1312 VRB04KT P6SM SKC", "KFLL 121120Z 1212/1318 07007KT P6SM SCT020 SCT250 FM121400 11010KT P6SM FEW025 SCT150 FM130200 VRB05KT P6SM BKN100 FM130600 VRB05KT P6SM VCSH SCT030 BKN100 FM131400 20007KT P6SM VCTS SCT030 OVC100CB", "KFLO 121120Z 1212/1312 07004KT P6SM SCT070 BKN150 FM121500 12007KT P6SM SCT070 BKN150 FM130400 14005KT 6SM SHRA OVC025 FM130600 18005KT 6SM SHRA OVC005", "KFMH 121120Z 1212/1312 25006KT P6SM SKC FM121700 24010KT P6SM SKC FM122200 21006KT P6SM FEW250 FM130200 19005KT P6SM BKN200 FM130700 17007KT P6SM BKN150", "KFMN 121120Z 1212/1312 VRB06KT P6SM SKC FM121900 28013G20KT P6SM SKC FM130100 30008KT P6SM SKC FM130600 05005KT P6SM SKC", "KFMY 121129Z 1212/1312 08004KT P6SM FEW040 BKN200 FM121500 13007KT P6SM SCT040 BKN200 FM122000 28006KT P6SM VCTS BKN040CB OVC100 FM130200 VRB03KT P6SM BKN040 OVC100 FM130900 14005KT 6SM SHRA BKN040 OVC080", "KFNT 121120Z 1212/1312 18010KT P6SM -SHRA OVC070 FM121400 21013G20KT P6SM SCT030 BKN045 OVC100 FM121700 21020G30KT P6SM SCT045 BKN100 OVC250 TEMPO 1222/1301 25025G40KT 2SM SHRA OVC015 FM130100 30013G20KT P6SM SCT100 BKN250 FM131000 25009KT P6SM BKN020", "KFOD 121125Z 1212/1312 30010KT P6SM BKN080 FM121600 27016G27KT P6SM SKC FM121900 30018G32KT P6SM VCSH BKN160 FM130200 30011KT P6SM FEW250", "KFOE 121120Z 1212/1312 31010KT P6SM SCT250 FM122000 30015G25KT P6SM SCT120 FM130400 28007KT P6SM SKC", "KFPR 121121Z 1212/1312 08004KT P6SM VCSH SCT025 SCT250 FM121400 13006KT P6SM SCT030 BKN200 FM121700 11008KT P6SM VCSH SCT035 BKN150 FM122100 11007KT P6SM VCTS SCT035CB BKN150 FM130100 12005KT P6SM VCSH SCT035 BKN120", "TAF KFRI 121200Z 1212/1318 33009KT 9999 SKC QNH2990INS BECMG 1221/1222 29015G25KT 9999 SCT100 QNH2985INS BECMG 1300/1301 30012KT 9999 SKC QNH2990INS TX24/1221Z TN11/1212Z", "KFSD 121127Z 1212/1312 27008KT P6SM SCT100 FM121600 29023G34KT P6SM VCSH BKN100 FM122100 31024G38KT P6SM BKN120 FM130200 29011G18KT P6SM FEW250", "KFSM 121133Z 1212/1312 06003KT P6SM VCSH FEW080 WS020/23035KT FM121600 22006KT P6SM VCTS SCT040CB OVC250 FM121800 27009KT P6SM BKN050 FM122100 29015G23KT P6SM SKC FM130300 31004KT P6SM SKC", "KFST 121120Z 1212/1312 20010KT P6SM SCT150 FM121800 34008KT P6SM SKC", "TAF KFTK 121115Z 1211/1317 18006KT 9999 SCT120 BKN150 QNH2998INS BECMG 1212/1213 19010KT 8000 -SHRA BKN090 OVC120 QNH2996INS BECMG 1214/1215 21010G20KT 9999 VCSH BKN080 OVC100 QNH2992INS BECMG 1219/1220 23015G25KT 6000 -SHRA BKN050 OVC080 QNH2990INS TEMPO 1221/1223 4800 SHRA VCTS BKN030CB OVC050 BECMG 1300/1301 25010KT 9999 VCSH BKN040 OVC050 QNH2990INS BECMG 1303/1304 27010KT 9999 NSW BKN040 BKN080 QNH2995INS TX27/1220Z TN14/1212Z", "KFTW 121120Z 1212/1312 18010KT P6SM SCT100 FM121400 22012G22KT P6SM SCT250 FM121900 31015KT P6SM FEW050 SCT250 FM122200 35014KT P6SM FEW250 FM130200 35008KT P6SM SKC", "KFTY 121149Z 1212/1312 13005KT 6SM -DZ OVC007 FM121700 15008KT P6SM SHRA BKN009 TEMPO 1220/1224 4SM TSRA BR OVC006CB FM130600 19005KT 4SM BR VCSH BKN010 PROB30 1306/1309 3SM SHRA BR OVC006", "KFVE 121135Z 1212/1312 22008KT P6SM SCT250 FM121600 24010G18KT P6SM SCT250 FM122200 18006KT P6SM SCT200 FM130900 14006KT P6SM SCT200", "KFWA 121121Z 1212/1312 17008KT P6SM SCT080 FM121400 20017G27KT P6SM VCSH BKN070 FM122100 21018G29KT P6SM SHRA OVC060 TEMPO 1223/1303 2SM +SHRA OVC020 FM130300 25010KT P6SM BKN100", "KFXE 121120Z 1212/1312 VRB05KT P6SM FEW025 FM121400 10008KT P6SM FEW025 SCT140 FM130200 VRB03KT P6SM BKN250 FM130600 VRB03KT P6SM VCSH SCT035 BKN250", "KFYV 121303Z 1213/1312 18013KT P6SM VCSH BKN080 TEMPO 1214/1218 1SM +TSRA BKN030CB FM121800 27008KT P6SM OVC050 FM122100 31013G20KT P6SM SKC FM130000 31005KT P6SM SKC", "KGBD 121132Z 1212/1312 34007KT P6SM SKC FM121800 30012KT P6SM SKC FM122000 31015G25KT P6SM SKC FM130100 34011KT P6SM FEW250", "KGCC 121209Z 1212/1312 36019G29KT P6SM BKN100 FM121600 35028G40KT P6SM BKN060 FM130200 30015KT P6SM SCT150", "KGCK 121120Z 1212/1312 34014KT P6SM SKC FM121600 30012KT P6SM SKC FM121800 32016G26KT P6SM SKC FM122300 01013KT P6SM SKC FM130300 VRB06KT P6SM SKC", "KGCN 121120Z 1212/1312 VRB05KT P6SM SKC", "KGDV 121120Z 1212/1312 31018KT P6SM FEW130 WS020/31050KT FM121500 30024G37KT P6SM FEW070 FM121800 31029G45KT P6SM FEW100 FM130100 31020G34KT P6SM FEW130 FM130600 31011G23KT P6SM FEW230 WS020/33035KT", "KGEG 121120Z 1212/1312 15004KT P6SM SKC FM122000 26006KT P6SM SKC FM130700 07004KT P6SM SKC", "TAF KGFA 121200Z 1212/1318 VRB06KT 9999 FEW070 BKN090 QNH3017INS BECMG 1219/1220 VRB06KT 9999 FEW070 SCT090 QNH3022INS TX14/1222Z TN04/1310Z", "KGFK 121120Z 1212/1312 26010G17KT P6SM VCSH BKN060 TEMPO 1212/1216 -RA FM121600 31018G27KT P6SM VCSH BKN060 TEMPO 1216/1218 -RA FM122300 32019G29KT P6SM SCT070", "KGFL 121130Z 1212/1312 00000KT 6SM BR SKC TEMPO 1212/1213 3/4SM BR VV002 FM121400 18006KT P6SM SCT200 FM130000 VRB03KT P6SM OVC120 FM130900 VRB03KT P6SM BKN015", "KGGG 121140Z 1212/1312 19008KT P6SM OVC007 FM121400 21010KT P6SM BKN015 FM121600 23012G18KT P6SM SCT035 BKN045 FM130200 35007KT P6SM SKC", "KGGW 121120Z 1212/1312 30018KT P6SM FEW100 WS020/31050KT FM121500 31023G33KT P6SM SKC FM121900 31028G42KT P6SM FEW080 FM130100 31020G33KT P6SM FEW090 FM130500 31013G24KT P6SM FEW150", "KGJT 121120Z 1212/1312 VRB04KT P6SM SKC FM121500 16006KT P6SM SKC FM122100 28006KT P6SM SKC FM130000 30007KT P6SM SKC FM130800 09007KT P6SM SKC", "KGKY 121120Z 1212/1312 17010KT P6SM SCT100 FM121400 22012G22KT P6SM SCT250 FM121900 31015KT P6SM FEW050 SCT250 FM122200 35014KT P6SM FEW250 FM130200 35008KT P6SM SKC", "KGLD 121120Z 1212/1312 32008KT P6SM SKC FM121400 28011KT P6SM SKC FM121800 30015G23KT P6SM SKC FM122000 34018G25KT P6SM SKC FM130100 01007KT P6SM SKC FM130700 29007KT P6SM SKC", "KGLH 121155Z 1212/1312 19006KT P6SM SCT120 FM121500 21012G20KT P6SM FEW100 FM130100 26012G20KT 6SM TSRA BKN050CB FM130400 34010KT P6SM VCSH BKN050 FM130700 34005KT P6SM SKC", "KGLS 121120Z 1212/1312 VRB05KT P6SM FEW015 BKN035 BKN050 FM121300 17006KT P6SM SCT035 FM122100 19012KT P6SM FEW200 FM130900 32006KT P6SM SCT250 FM131000 35008KT P6SM FEW030 SCT190", "KGMU 121311Z 1213/1312 06004KT P6SM -SHRA OVC018 TEMPO 1215/1219 4SM -RA BR OVC008 FM122300 12003KT 6SM -RA OVC008 FM130200 14003KT 5SM -RA BR OVC005 FM131000 20005KT 3SM -RA BR OVC003", "KGNV 121303Z 1213/1312 12004KT P6SM SCT005 BKN100 OVC200 FM122000 VRB06KT P6SM VCSH SCT025 BKN050 BKN100 TEMPO 1222/1302 4SM TSRA BKN025CB FM130200 VRB04KT 6SM -SHRA SCT020 BKN035 OVC050 PROB30 1306/1312 3SM SHRA SCT010 OVC020", "KGON 121122Z 1212/1312 VRB03KT P6SM SKC FM121300 23005KT P6SM FEW250 FM121600 21008G16KT P6SM FEW250 FM122200 18010KT P6SM SCT250 FM130600 17010KT P6SM FEW020 SCT100 OVC250", "KGPI 121132Z 1212/1312 VRB04KT P6SM SCT070 FM122000 21005KT P6SM SKC", "KGPT 121136Z 1212/1312 13008KT P6SM -SHRA BKN018 BKN026 OVC070 TEMPO 1212/1216 2SM TSRA BKN008 OVC020CB FM121600 17006KT P6SM SHRA VCTS BKN025CB BKN060 OVC120 FM121900 18007KT P6SM VCSH FEW030 BKN060 TEMPO 1219/1223 4SM TSRA BR OVC025CB FM130500 VRB06KT P6SM SCT020 BKN035 BKN060", "KGRB 121312Z 1213/1312 22014G25KT P6SM OVC016 WS020/22040KT TEMPO 1213/1215 P6SM -SHRA FM121600 26017G32KT P6SM OVC016 FM121800 28012G23KT P6SM SCT060 FM122300 25008G15KT P6SM BKN040 PROB30 1301/1307 -SHRA BKN025", "TAF KGRF 121300Z 1213/1319 03005KT 9999 SKC QNH3020INS BECMG 1220/1221 03007KT 9999 SKC QNH3017INS BECMG 1304/1305 15004KT 9999 SKC QNH3016INS BECMG 1313/1314 VRB03KT 8000 BR SKC QNH3017INS BECMG 1316/1317 VRB03KT 9999 NSW SKC QNH3017INS TX21/1223Z TN05/1214Z", "KGRI 121138Z 1212/1312 27009KT P6SM SKC FM121600 30017G28KT P6SM BKN080 FM122000 32022G36KT P6SM FEW090 FM130000 32017G26KT P6SM SKC FM130200 30011KT P6SM SKC", "TAF AMD KGRK 121130Z 1211/1314 17010KT 9999 SCT012 QNH2992INS BECMG 1212/1213 17010KT 9999 BKN012 QNH2992INS BECMG 1214/1215 20010G15KT 9999 SCT020 QNH2986INS BECMG 1219/1220 23010G15KT 9999 SKC QNH2980INS BECMG 1300/1301 33009KT 9999 SKC QNH2984INS TX35/1221Z TN19/1212Z", "KGRR 121126Z 1212/1312 17015KT P6SM -SHRA BKN050 WS020/21050KT FM121600 19018G28KT P6SM -SHRA OVC035 FM122000 23013G22KT 3SM SHRA BR BKN015 FM122200 31010G21KT 6SM SHRA BR OVC030 FM130200 25006KT P6SM OVC100", "TAF KGSB 121205Z 1212/1318 03004KT 6000 BR FEW040 FEW250 QNH3022INS BECMG 1212/1213 05005KT 9999 NSW SCT040 SCT250 QNH3012INS BECMG 1219/1220 09006KT 9999 BKN035 BKN110 BKN200 QNH2990INS BECMG 1308/1309 13010G18KT 6000 -SHRA BKN010 QNH2967INS TEMPO 1312/1316 15012G25KT 3200 -TSRA BKN007CB TX25/1219Z TN10/1212Z", "KGSO 121120Z 1212/1312 12002KT P6SM BKN050 BKN250 FM121300 18006KT P6SM SCT025 BKN035 OVC120 FM130000 15005KT P6SM BKN025 FM130600 20010KT P6SM BKN007 OVC012 TEMPO 1309/1312 4SM -SHRA BR OVC005", "KGSP 121309Z 1213/1312 05003KT P6SM -SHRA OVC018 TEMPO 1215/1219 4SM -RA BR OVC008 FM122300 12003KT 6SM -RA OVC008 FM130200 14003KT 5SM -RA BR OVC005 FM131000 20005KT 3SM -RA BR OVC003", "TAF KGTB 120900Z 1209/1315 18009KT 9999 FEW055 QNH3009INS BECMG 1215/1216 17015G20KT 9999 FEW120 BKN230 520053 QNH3006INS BECMG 1219/1220 17009KT 9999 FEW100 BKN200 QNH2993INS BECMG 1301/1302 16012KT 9999 FEW090 BKN130 QNH2974INS BECMG 1311/1312 16015KT 9000 -SHRA SCT015 BKN025 BKN065 QNH2967INS TX18/1218Z TN11/1211Z", "KGTF 121125Z 1212/1312 23007KT P6SM BKN090 FM130100 22007KT P6SM FEW100", "KGTR 121155Z 1212/1312 00000KT P6SM VCSH SKC FM121300 15005KT P6SM BKN015 OVC050 FM121700 20010KT P6SM SCT050 FM130000 23012G20KT 6SM TSRA BKN050CB FM130300 27005KT P6SM VCSH BKN050 FM130700 34005KT P6SM OVC015", "KGUC 121120Z 1212/1312 VRB04KT P6SM SKC FM122030 25010KT P6SM SKC FM130300 35002KT P6SM SKC", "KGUP 121120Z 1212/1312 VRB03KT P6SM SKC FM122000 27011KT P6SM SKC FM130100 VRB04KT P6SM SKC", "TAF AMD KGUR 112222Z 1122/1303 35025G35KT 9999 FEW065 BKN095 OVC120 510033 QNH2985INS BECMG 1200/1201 35009KT 9999 FEW075 BKN100 510043 QNH2994INS BECMG 1216/1217 33020G30KT 9999 SCT055 510053 QNH3014INS BECMG 1220/1221 30020G30KT 9999 SCT065 510063 QNH3013INS BECMG 1222/1223 34020KT 9999 FEW065 510063 QNH3014INS BECMG 1302/1303 34009KT 9999 SKC 510063 QNH3021INS TX16/1221Z TN00/1211Z", "TAF KGUS 121300Z 1213/1319 19012KT 9999 OVC100 WS020/19035KT QNH2983INS BECMG 1214/1215 19020G25KT 9000 -SHRA SCT040 OVC055 QNH2980INS BECMG 1217/1218 20030G40KT 9999 NSW BKN055 OVC080 520005 QNH2977INS BECMG 1220/1221 21015G20KT 8000 -RA BKN008 OVC015 QNH2976INS BECMG 1223/1224 23009KT 8000 -SHRA OVC008 QNH2980INS BECMG 1302/1303 VRB05KT 4800 BR SCT008 OVC015 QNH2979INS BECMG 1305/1306 VRB05KT 6000 -SHRA FEW030 SCT045 BKN060 QNH2977INS BECMG 1308/1309 32012G18KT 3200 -RA BKN008 OVC015 QNH2977INS BECMG 1311/1312 VRB06KT 8000 BR FEW060 QNH2975INS BECMG 1317/1318 26020G25KT 9999 NSW BKN070 QNH2972INS TX23/1217Z TN06/1311Z", "KGUY 121120Z 1212/1312 34012KT P6SM SKC FM121700 35009KT P6SM SKC FM122000 31009KT P6SM SKC FM130000 17007KT P6SM SKC", "KGWO 121155Z 1212/1312 18004KT P6SM VCSH SKC FM121500 20012KT P6SM FEW100 FM130200 26012G20KT 6SM TSRA BKN050CB FM130500 34005KT P6SM VCSH BKN050 FM130800 34005KT P6SM SKC", "KGYY 121229Z 1212/1312 19016G26KT 6SM -SHRA VCTS BKN050CB WS020/20045KT FM121400 19016G26KT P6SM VCSH BKN050 WS020/20045KT FM121700 20016G28KT P6SM VCSH BKN020 FM121900 28016G28KT 6SM -SHRA BR BKN020 TEMPO 1219/1221 30020G35KT 1 1/2SM SHRA BR BKN010 FM122200 25007KT P6SM SCT080 TEMPO 1303/1306 28014G27KT -SHRA BKN050", "KHBG 121155Z 1212/1312 00000KT 3SM BR VCSH OVC003 FM121700 19008KT P6SM SHRA VCTS BKN050CB FM122000 18005KT P6SM FEW050 FM130600 27005KT P6SM VCSH BKN009", "KHCR 121120Z 1212/1312 VRB04KT P6SM SKC FM122100 32007KT P6SM SKC FM130200 VRB02KT P6SM SKC", "KHDC 121136Z 1212/1312 00000KT P6SM OVC002 FM121500 00000KT P6SM VCSH BKN012 BKN060 TEMPO 1217/1221 4SM TSRA OVC025CB FM122100 20005KT P6SM VCSH SCT030 BKN090 FM131100 00000KT 2SM BR BKN015", "KHDN 121120Z 1212/1312 13008KT P6SM SKC FM121700 28008KT P6SM SKC FM121930 29018G27KT P6SM SKC FM130100 28011KT P6SM SKC FM130300 26005KT P6SM SKC AMD NOT SKED", "KHIB 121137Z 1212/1312 25003KT P6SM SKC FM131100 30007G16KT P6SM BKN030", "KHIE 121121Z 1212/1312 00000KT P6SM SKC FM130900 16002KT P6SM OVC100", "TAF KHIF 121300Z 1213/1319 10012G18KT 9999 SKC QNH3020INS BECMG 1216/1217 30009KT 9999 SKC QNH3025INS BECMG 1303/1304 10012G18KT 9999 SKC QNH3025INS TX22/1223Z TN09/1213Z", "KHIO 121123Z 1212/1312 30005KT P6SM SKC", "KHKS 121320Z 1213/1312 00000KT 3SM BR VCSH OVC050 FM121500 18007KT P6SM VCSH BKN050 FM130500 22010KT P6SM SHRA VCTS BKN050CB FM130800 32005KT P6SM VCSH BKN015", "KHKY 121132Z 1212/1312 00000KT P6SM OVC035 FM121400 VRB03KT P6SM BKN025 FM121800 VRB02KT P6SM VCSH OVC013 PROB30 1221/1301 4SM -SHRA BR OVC015 FM130100 16003KT 5SM -RA BR OVC007 FM130300 17003KT 4SM -RA BR OVC004", "KHLG 121126Z 1212/1312 18005KT P6SM BKN250 FM121500 19008G16KT P6SM BKN110 FM130400 19009KT 6SM -RA OVC015 WS020/20050KT FM130700 19010KT 3SM -RA OVC007 WS020/22045KT FM131000 22008KT 2SM -RA OVC007", "KHLN 121125Z 1212/1312 33008KT P6SM SCT090 FM130100 VRB04KT P6SM FEW100", "TAF KHMN 120900Z 1209/1315 VRB06KT 9999 SKC QNH3011INS BECMG 1305/1306 VRB06KT 9999 SCT240 QNH3015INS TX26/1222Z TN10/1212Z", "KHNB 121120Z 1212/1312 17007KT P6SM OVC120 FM121300 19015G25KT P6SM BKN100 FM121800 22015G25KT P6SM VCSH BKN070 PROB30 1221/1224 5SM -TSRA BKN040CB FM130100 27007KT P6SM BKN050 FM130600 27005KT P6SM SKC", "KHND 121122Z 1212/1312 19008KT P6SM SKC FM121500 VRB06KT P6SM SKC FM121700 03007KT P6SM FEW120 FM130400 19006KT P6SM SKC", "KHOB 121120Z 1212/1312 27007KT P6SM FEW150 FM121500 34011KT P6SM FEW150", "KHON 121127Z 1212/1312 26009KT P6SM BKN110 FM121500 30019G30KT P6SM BKN090 FM121900 31025G39KT P6SM BKN100 FM130000 31016G27KT P6SM BKN120 FM130600 30011G21KT P6SM FEW250", "TAF KHOP 120800Z 1208/1314 17006KT 9999 SKC QNH2997INS BECMG 1214/1215 19012G20KT 9999 SCT220 QNH2981INS BECMG 1220/1221 22007KT 9000 -SHRA SCT035 OVC070 QNH2981INS TEMPO 1300/1306 25020G25KT 6000 -TSRA BKN025CB OVC040 BECMG 1306/1307 30006KT 8000 BR SKC QNH2988INS TX25/1220Z TN13/1308Z", "KHOT 121121Z 1212/1312 VRB04KT P6SM SCT100 SCT250 FM121400 23010KT P6SM VCSH SCT040 BKN100 FM122200 25012G18KT P6SM VCTS SCT050CB BKN120 PROB30 1222/1301 6SM -TSRA BR BKN030CB FM130100 34006KT P6SM SCT250", "KHOU 121120Z 1212/1312 VRB05KT 6SM BR FEW020 SCT050 FM121500 21008KT P6SM SCT050 FM130300 19005KT P6SM SCT110 FM130800 32006KT P6SM FEW020 SCT150", "KHPN 121122Z 1212/1312 VRB03KT P6SM SKC FM121700 18009G17KT P6SM FEW250 FM122000 16006KT P6SM SCT250 FM130300 16005KT P6SM FEW020 SCT100 OVC250 FM130700 16008KT P6SM BKN035 AMD NOT SKED", "KHQM 121120Z 1212/1312 07005KT P6SM SKC FM121800 09008KT P6SM SKC FM122100 24009KT P6SM SKC", "KHRL 121126Z 1212/1312 VRB03KT 5SM BR MIFG SKC TEMPO 1212/1213 3SM BR FM121400 15005KT P6SM SCT027 FM122200 10010KT P6SM SCT040 FM130300 15004KT P6SM FEW040 FM130700 VRB03KT 4SM BR MIFG SKC", "KHRO 121121Z 1212/1312 18008G16KT P6SM SCT250 WS020/23045KT FM121400 24012G20KT P6SM -SHRA VCTS SCT050CB BKN100 TEMPO 1214/1216 6SM -TSRA BR BKN040CB FM121800 30010G18KT P6SM BKN100 FM130000 31009KT P6SM SKC", "TAF KHRT 121000Z 1210/1316 09009KT 9999 SCT030 BKN100 QNH3000INS WND 12010KT AFT 1215 BECMG 1218/1219 18010G20KT 4800 TSRA BKN015CB QNH2995INS BECMG 1223/1224 18006KT 9999 VCTS BKN015 QNH2995INS BECMG 1302/1303 18006KT 9999 NSW BKN015 QNH2990INS TEMPO 1311/1313 30010G20KT 9000 -SHRA TX26/1216Z TN21/1211Z", "TAF KHST 121100Z 1211/1317 08005KT 9999 FEW020 FEW050 SCT200 QNH3000INS BECMG 1214/1215 08009KT 9999 FEW020 SCT050 BKN200 QNH2996INS BECMG 1223/1224 VRB06KT 9999 FEW020 SCT200 QNH2989INS BECMG 1314/1315 13009KT 9999 VCSH SCT020 BKN040 QNH2986INS TEMPO 1315/1317 VRB10G15KT 6000 -SHRA VCTS BKN020CB OVC040 TX31/1219Z TN25/1311Z", "KHSV 121120Z 1212/1312 12006KT P6SM FEW130 SCT250 FM121500 17012G20KT P6SM SCT050 FM121800 18013G21KT P6SM VCSH BKN035 OVC130 FM130000 22015G25KT 6SM -TSRA BR OVC030CB TEMPO 1300/1304 3SM TSRA BR OVC020CB FM130500 28010G18KT P6SM BKN015 OVC025", "KHTS 121304Z 1213/1312 00000KT P6SM BKN050 FM121800 20009G16KT P6SM VCSH BKN080 FM130000 19007G13KT 6SM -SHRA VCTS SCT090CB FM130400 20009G15KT 5SM -SHRA VCTS OVC011CB WS015/25030KT FM130800 24007KT 5SM -SHRA OVC010", "TAF KHUA 121200Z 1212/1318 14006KT 8000 BR FEW012 BKN120 QNH3007INS BECMG 1216/1217 18015G20KT 9000 -SHRA BKN020 BKN120 QNH3005INS TEMPO 1216/1222 23020G30KT 9000 -TSRA BKN020CB OVC027 BECMG 1222/1223 17006KT 8000 BR BKN003 QNH2991INS TEMPO 1309/1310 27020G25KT 8000 -TSRA BKN003CB OVC010 BECMG 1310/1311 VRB06KT 8000 BR FEW003 QNH2989INS BECMG 1313/1314 31006KT 8000 BR OVC003 QNH2992INS BECMG 1314/1315 33012G18KT 8000 BR BKN004 QNH2995INS BECMG 1317/1318 29015G20KT 9999 NSW SKC QNH2994INS TX21/1217Z TN16/1212Z", "KHUF 121305Z 1213/1312 19012G25KT P6SM VCSH BKN100 WS020/21045KT TEMPO 1216/1218 VRB15G30KT 6SM -TSRA BR OVC050CB FM121800 21017G30KT P6SM -SHRA OVC050 FM122000 22017G30KT 6SM -SHRA OVC025 FM122300 25011G19KT P6SM -SHRA BKN050 FM130100 28006KT P6SM VCSH BKN050", "KHUL 121135Z 1212/1312 22006KT P6SM SCT250 FM121600 24010KT P6SM SCT250 FM122200 18006KT P6SM SCT250 FM131000 15006KT P6SM BKN025", "KHUM 121136Z 1212/1312 00000KT P6SM OVC002 FM121300 VRB03KT 3SM BR VCTS BKN100CB FM121800 19006KT P6SM SHRA VCTS BKN090CB FM131100 00000KT 3/4SM BR SCT045", "KHUT 121132Z 1212/1312 35010KT P6SM SKC FM121800 31012KT P6SM SKC FM122000 32015G24KT P6SM SKC FM130200 33007KT P6SM FEW250", "KHVR 121125Z 1212/1312 27010KT P6SM BKN080 FM121500 29015G23KT P6SM BKN090 FM130000 24008KT P6SM FEW100", "KHYA 121120Z 1212/1312 24007KT P6SM SKC FM121700 22010KT P6SM FEW250 FM130000 20008KT P6SM SCT250 FM130400 18005KT P6SM BKN150", "KHYR 121137Z 1212/1312 VRB03KT P6SM VCSH OVC080 FM121300 28008KT P6SM VCSH BKN070 FM121700 28011G20KT P6SM FEW210 FM130500 28007G16KT P6SM BKN070", "KHYS 121120Z 1212/1312 32014KT P6SM SKC FM121700 31016G26KT P6SM SKC FM130200 32012KT P6SM SKC", "TAF AMD KIAB 121252Z 1212/1316 02012KT 9999 FEW170 QNH2978INS TEMPO 1215/1218 35015G25KT BECMG 1304/1305 34006KT 9999 FEW220 QNH3007INS BECMG 1314/1315 33010G20KT 9999 SKC QNH3012INS TX26/1222Z TN09/1310Z", "KIAD 121137Z 1212/1318 VRB03KT P6SM SCT250 FM121400 19008G15KT P6SM BKN250 FM121600 18012G20KT P6SM FEW100 BKN250 FM122200 16008G15KT P6SM SCT060 BKN120 FM130900 17009G17KT P6SM VCSH SCT030 BKN060 WS020/20035KT FM131300 17010G20KT P6SM -SHRA SCT015 BKN030", "KIAG 121120Z 1212/1312 18010KT P6SM BKN100 FM121500 19012G20KT P6SM BKN080 FM130100 17012G22KT P6SM VCSH SCT050 BKN080 FM130400 18014G24KT 6SM -RA OVC050 FM130800 19012KT 4SM RA BR BKN025", "KIAH 121120Z 1212/1318 VRB02KT 6SM BR FEW005 BKN012 FM121400 20008KT P6SM SCT060 FM130700 33006KT P6SM SCT150 FM131100 01005KT P6SM FEW040 SCT110 FM131600 04010KT P6SM FEW150", "KICT 121159Z 1212/1312 36015KT P6SM SCT160 FM121300 35014KT P6SM FEW210 FM121800 32012KT P6SM SKC", "KIDA 121120Z 1212/1312 20007KT P6SM SKC FM122000 22010KT P6SM SKC FM130200 19007KT P6SM SKC", "KIFP 121122Z 1212/1312 VRB05KT P6SM SKC FM121800 20006KT P6SM SKC FM130200 16006KT P6SM SKC FM130500 VRB04KT P6SM SKC", "KILG 121121Z 1212/1312 18005KT P6SM SCT200 FM121700 19007KT P6SM SCT200 FM130700 17007KT 6SM BR BKN070", "KILM 121120Z 1212/1312 05004KT P6SM BKN070 FM121400 10007KT P6SM SCT070 SCT150 FM130000 12004KT P6SM BKN200 FM130800 16005KT 6SM SHRA OVC009 FM131100 16004KT 5SM SHRA OVC005", "KILN 121128Z 1212/1312 17008KT P6SM BKN250 FM121500 20014G25KT P6SM VCSH BKN100 FM121900 20017G29KT P6SM VCSH BKN070 FM122300 20014G20KT 5SM -SHRA VCTS BKN060CB FM130300 23012KT P6SM VCSH OVC035 FM130900 27009KT P6SM BKN050", "KIND 121306Z 1213/1318 16009KT P6SM VCSH BKN100 WS020/20035KT FM121400 18012G20KT P6SM VCSH BKN090 WS020/21035KT FM121800 22017G30KT 6SM +SHRA BR VCTS BKN050CB FM122100 23014G26KT 6SM -SHRA OVC025 FM130000 25010G15KT 6SM -SHRA BR OVC025 FM130200 27009KT P6SM VCSH BKN050", "KINK 121120Z 1212/1312 20007KT P6SM SCT150 FM121500 35008KT P6SM SKC", "KINL 121137Z 1212/1312 27007KT P6SM SKC FM121800 30012G20KT 6SM SHRA BR BKN030 FM121900 30012G21KT P6SM VCSH BKN030 FM122100 30012G21KT P6SM VCSH BKN035 FM130900 29008G17KT P6SM OVC026 FM131100 29007G17KT P6SM OVC017", "TAF KINS 1213/1319 VRB06KT 9999 SKC QNH3007INS BECMG 1218/1219 06007KT 9999 SKC QNH3009INS BECMG 1221/1222 06010G15KT 9999 SKC QNH3008INS BECMG 1303/1304 14008KT 9999 SKC QNH3010INS BECMG 1308/1309 VRB06KT 9999 SKC QNH3012INS TX32/1222Z TN13/1312Z", "KINT 121120Z 1212/1312 18005KT P6SM SCT025 BKN040 OVC120 FM130000 15005KT P6SM BKN025 FM130600 18005KT 5SM -SHRA BR BKN007 OVC015", "KINW 121120Z 1212/1312 VRB06KT P6SM SKC", "KIPL 121139Z 1212/1312 26006KT P6SM SKC FM121300 VRB04KT P6SM FEW100 FM122000 17007KT P6SM FEW100 FM130300 27006KT P6SM SKC", "KIPT 121120Z 1212/1312 VRB02KT P6SM VCFG SCT001 BKN250 FM121300 13004KT P6SM SCT200 FM121600 14008G15KT P6SM BKN120 OVC200 FM130400 11010G17KT P6SM OVC050 FM130900 12015G22KT P6SM -RA OVC009", "KISM 121121Z 1212/1312 07004KT P6SM SCT035 SCT060 BKN250 FM121400 11004KT P6SM SCT025 BKN150 FM121700 13005KT P6SM VCSH SCT030 BKN050 FM122000 14005KT P6SM VCTS SCT030CB BKN150 TEMPO 1221/1224 3SM TSRA BKN030CB FM130100 13005KT P6SM VCSH SCT035 BKN150", "KISO 121138Z 1212/1312 VRB06KT P6SM FEW060 SCT250 FM121300 VRB06KT P6SM SCT060 BKN250 FM130700 14008KT P6SM SHRA BKN060 FM131000 15008KT P6SM SHRA OVC025 AMD LTD TO CLD VIS AND WIND", "KISP 121122Z 1212/1312 VRB03KT P6SM SKC FM121400 23006KT P6SM FEW250 FM121600 18009G16KT P6SM FEW250 FM122000 17011KT P6SM SCT250 FM130400 16008KT P6SM FEW020 SCT100 OVC250", "KITH 121120Z 1212/1312 17005KT P6SM FEW200 FM121500 18009G17KT P6SM SCT210 FM121800 20012G23KT P6SM BKN200 FM130300 17011G18KT P6SM OVC070 FM130900 16014G25KT 6SM -RA OVC025", "KIWA 121139Z 1212/1312 11005KT P6SM SKC FM121900 27005KT P6SM FEW120 FM130400 12005KT P6SM SKC", "KIWD 121120Z 1212/1312 29010G21KT P6SM SHRA VCTS OVC009CB FM121300 28009KT P6SM SHRA VCTS BKN035CB FM121500 27009KT P6SM VCSH OVC035 FM121600 26010G18KT P6SM VCSH BKN100 FM130000 27007KT P6SM VCSH BKN070 FM130300 28008KT P6SM VCSH BKN027", "KIXD 121149Z 1212/1312 31010KT P6SM BKN120 TEMPO 1212/1214 -RA BKN007 FM121400 29012G20KT P6SM SCT100 FM130500 VRB05KT P6SM SKC", "KJAC 121120Z 1212/1312 18007KT P6SM SKC FM122000 29010G20KT P6SM SKC FM130100 36005KT P6SM SKC", "KJAN 121305Z 1213/1312 18003KT 3SM -TSRA BR BKN003 OVC030CB FM121400 18007KT P6SM VCSH BKN050 FM130500 22010KT P6SM SHRA VCTS BKN050CB FM130800 32005KT P6SM VCSH BKN015", "KJAX 121130Z 1212/1312 07006KT P6SM VCSH SCT020 BKN035 OVC050 TEMPO 1212/1214 5SM SHRA BKN020 OVC035 FM121800 10008KT P6SM VCSH SCT035 BKN070 BKN150 FM130300 VRB04KT 6SM -SHRA SCT020 BKN035 OVC050 PROB30 1306/1312 3SM SHRA SCT010 OVC020", "KJBR 121136Z 1212/1312 16010KT P6SM SCT100 FM121600 20014G21KT P6SM VCSH BKN100 TEMPO 1218/1221 4SM TSRA BKN025CB OVC060 FM122200 25010G17KT P6SM BKN100 FM130100 28005KT P6SM SKC", "KJCT 121129Z 1212/1312 23003KT P6SM SKC TEMPO 1212/1215 SCT020 FM121500 23008KT P6SM SKC FM121800 26010KT P6SM SKC FM122100 31009KT P6SM SKC FM130200 35004KT P6SM SKC", "KJEF 121300Z 1213/1312 VRB04KT 6SM -SHRA OVC080 TEMPO 1213/1214 2SM +RA FM121400 23008KT P6SM VCSH OVC080 FM121600 25009KT P6SM BKN080 FM121800 30010KT P6SM SCT150", "KJER 121140Z 1212/1312 VRB06KT P6SM SKC FM121700 25009KT P6SM SKC FM130200 07007KT P6SM SKC", "KJFK 121122Z 1212/1318 21006KT P6SM FEW250 FM121700 17012G17KT P6SM SCT250 FM130300 17011KT P6SM FEW020 SCT100 OVC250 FM130600 16014KT P6SM FEW020 BKN035 FM131400 16017G27KT P6SM FEW020 BKN035 PROB30 1316/1318 5SM -SHRA BKN025", "KJHW 121120Z 1212/1312 18006KT P6SM SCT120 OVC250 FM121500 18010G18KT P6SM BKN120 FM121800 19014G24KT P6SM BKN100 FM130100 17014G24KT P6SM VCSH SCT035 OVC080 FM130400 17012G22KT 5SM -RA BR BKN025 FM130700 18012KT 4SM RA BR OVC007", "KJKA 121139Z 1212/1312 13007KT P6SM VCSH SCT015 BKN070 FM121700 13008KT P6SM VCTS SCT030CB BKN050 FM122300 15007KT P6SM VCTS FEW030CB BKN100", "KJKL 121130Z 1212/1312 VRB04KT P6SM SCT050 BKN150 FM121600 20007G17KT P6SM VCTS BKN090CB FM130500 21007KT P6SM SHRA VCTS BKN025CB FM130700 21007KT P6SM SHRA BKN010 FM130900 25006KT P6SM -SHRA OVC007", "KJLN 121134Z 1212/1312 21011G21KT P6SM BKN090 TEMPO 1212/1213 4SM -TSRA BR OVC035CB FM121300 31013G19KT P6SM SCT070 FM122200 32009KT P6SM SKC", "KJMS 121127Z 1212/1312 28014G20KT P6SM -RA BKN070 OVC090 FM121400 30019G28KT P6SM VCSH BKN050 OVC090 FM121600 31026G38KT P6SM BKN090 FM122300 31022G34KT P6SM SCT100 FM130100 32018G31KT P6SM FEW110 FM130300 31014G22KT P6SM SKC", "KJST 121120Z 1212/1312 16006KT P6SM SCT250 FM121500 18009G16KT P6SM SCT050 OVC200 FM130400 16010KT P6SM VCSH OVC050 WS020/21035KT FM130700 18012KT P6SM -RA OVC025 WS020/21035KT", "KJVL 121325Z 1213/1312 22015G25KT P6SM VCSH BKN030 FM121500 23015G25KT P6SM -SHRA OVC017 FM121700 28012G23KT P6SM VCSH OVC025 FM121800 28012G25KT P6SM SCT150 FM122300 27015G30KT P6SM -SHRA BKN070 FM130300 27010KT P6SM SCT070", "KJXN 121126Z 1212/1312 17010KT P6SM OVC080 WS020/21040KT FM121600 19017G35KT P6SM -SHRA OVC035 FM122100 21016G28KT P6SM SHRA OVC045 FM122300 30009KT P6SM -SHRA BKN045 FM130400 28006KT P6SM VCSH SCT120", "KJZI 121126Z 1212/1312 06006KT P6SM SCT060 BKN150 FM121400 10009KT P6SM BKN035 FM121900 13009KT P6SM VCSH SCT020 OVC035 FM130200 10003KT 6SM -SHRA SCT010 OVC030 FM130500 VRB03KT 5SM SHRA BR OVC005", "KLAF 121307Z 1213/1312 19012G20KT 6SM +SHRA BR VCTS BKN050CB WS020/21045KT FM121800 21020G30KT P6SM -SHRA OVC050 FM122000 23018G27KT 6SM -SHRA BKN025 FM122300 25013G21KT P6SM -SHRA BKN050 FM130200 27005KT P6SM VCSH BKN050", "KLAL 121129Z 1212/1312 08004KT P6SM FEW040 BKN200 FM122100 10005KT P6SM VCTS SCT040CB OVC200 FM130200 VRB03KT P6SM BKN040 OVC100 FM130900 14005KT 6SM SHRA BKN040 OVC080", "KLAN 121126Z 1212/1312 18010KT P6SM OVC080 WS020/21050KT FM121600 19017G28KT P6SM -SHRA OVC035 FM122000 21017G32KT P6SM SHRA OVC040 FM122300 26013G23KT 3SM SHRA BR OVC018 FM130000 29010G20KT 6SM BR VCSH OVC022 FM130400 26007KT P6SM VCSH SCT230", "KLAR 121122Z 1212/1312 28008KT P6SM SKC FM121700 32020G30KT P6SM SKC FM130100 28005KT P6SM SKC", "KLAS 121122Z 1212/1318 VRB05KT P6SM SKC FM121800 06006KT P6SM FEW120 FM130300 24006KT P6SM SKC FM131700 04006KT P6SM SKC", "KLAW 121120Z 1212/1312 20009KT P6SM SKC FM121400 35018G28KT P6SM SKC FM130000 01006KT P6SM SKC", "KLAX 121307Z 1213/1318 VRB03KT P6SM TSRA BKN012 BKN020CB FM121330 VRB03KT P6SM OVC017 FM121600 25006KT P6SM BKN020 FM122100 25012KT P6SM SCT025 FM130100 25008KT P6SM VCSH BKN015 FM130900 VRB03KT P6SM OVC020", "KLBB 121223Z 1212/1312 33011KT P6SM SKC FM121400 01015G25KT P6SM SKC FM121900 01011KT P6SM SKC", "KLBE 121126Z 1212/1312 18005KT P6SM BKN250 FM121500 20009G18KT P6SM BKN250 FM130400 16008KT P6SM BKN060 WS020/19045KT FM130600 18009KT P6SM -RA OVC015 WS020/20045KT FM130900 18010KT 3SM -RA BR OVC007 WS020/22045KT", "KLBF 121120Z 1212/1312 28006KT P6SM SKC FM121500 28012G20KT P6SM SKC FM121800 32023G34KT P6SM SCT100 FM130100 32010KT P6SM SKC", "KLBL 121120Z 1212/1312 33013KT P6SM SKC FM130100 VRB06KT P6SM SKC", "KLBT 121120Z 1212/1312 VRB03KT P6SM BKN060 BKN150 FM121600 10006KT P6SM SCT070 BKN150 FM130300 14004KT P6SM OVC100 FM130500 16004KT 6SM SHRA OVC015 FM130800 18004KT 4SM SHRA BR OVC005 AMD NOT SKED", "KLBX 121120Z 1212/1312 VRB03KT 3SM BR SCT012 SCT050 FM121300 00000KT 6SM BR FEW015 SCT050 FM121500 21006KT P6SM SCT060 FM122300 19010KT P6SM FEW240 FM130300 VRB05KT P6SM FEW250 FM131000 36007KT P6SM FEW012 SCT050", "KLCH 121228Z 1212/1312 VRB05KT 5SM BR SCT015 BKN035 BKN200 TEMPO 1212/1214 2SM BR SCT005 BKN015 FM121400 15008KT P6SM VCSH SCT025 BKN100 FM121800 21009KT P6SM VCSH SCT030 BKN150 FM130100 23005KT P6SM BKN200 FM130600 VRB05KT 4SM BR VCSH SCT015 BKN120", "KLCK 121128Z 1212/1312 16005KT P6SM BKN250 FM121400 18010G20KT P6SM BKN110 FM121900 19014G25KT P6SM VCSH BKN070 FM122200 19013G25KT 5SM -SHRA VCTS BKN060CB FM130100 19013KT P6SM VCSH OVC045 FM130500 21012KT P6SM VCSH OVC025", "KLEB 121121Z 1212/1312 00000KT 1/2SM FG VV001 TEMPO 1212/1213 3SM BR FM121300 24001KT 5SM BR OVC001 FM121500 19005KT P6SM SKC FM130600 18002KT P6SM OVC100 FM130900 18002KT 1 1/2SM BR OVC001", "KLEE 121121Z 1212/1312 06004KT P6SM SCT035 SCT060 BKN250 FM121400 12004KT P6SM SCT020 BKN120 FM121800 13004KT P6SM VCSH SCT030 BKN150 FM122000 15004KT P6SM VCTS SCT030CB BKN150 TEMPO 1221/1224 3SM TSRA BKN030CB FM130000 10005KT P6SM VCSH SCT035 BKN150", "KLEX 121120Z 1212/1312 17008KT P6SM BKN250 FM121400 20015G25KT P6SM BKN100 FM122200 19015G25KT 6SM -SHRA BKN050 PROB30 1222/1302 2SM TSRA BKN035CB FM130300 22010KT P6SM VCSH OVC035 FM130600 24008KT P6SM OVC012 FM130900 24007KT P6SM SKC", "TAF AMD KLFI 120957Z 1209/1315 VRB06KT 6000 BR SKC QNH3026INS BECMG 1212/1213 VRB06KT 9999 NSW FEW250 QNH3026INS BECMG 1300/1301 13009KT 9999 FEW030 BKN050 QNH3010INS BECMG 1309/1310 12009KT 8000 -SHRA BKN030 OVC055 QNH2994INS TX17/1308Z TN10/1209Z", "KLFK 121140Z 1212/1312 15003KT 1/2SM FG VV002 TEMPO 1212/1214 1SM BR OVC004 FM121400 18004KT 5SM BR BKN010 FM121600 20007KT P6SM SCT025 BKN035 FM121800 22007KT P6SM BKN040 FM130000 20005KT P6SM SCT050 BKN250 FM130700 35008KT P6SM FEW250", "KLFT 121306Z 1213/1312 VRB04KT P6SM SCT005 SCT035 BKN200 TEMPO 1213/1214 1/2SM FG OVC002 FM121600 20008KT P6SM VCSH SCT050 BKN150 FM130100 22004KT P6SM SCT035 BKN200 FM130700 VRB05KT 4SM BR VCSH SCT015 BKN120", "KLGA 121122Z 1212/1318 22005KT P6SM FEW250 FM121700 18010G16KT P6SM SCT250 FM130300 17008KT P6SM FEW020 SCT100 OVC250 FM130600 16012KT P6SM FEW020 BKN035 FM131400 16016G26KT P6SM FEW020 BKN035 PROB30 1316/1318 5SM -SHRA BKN025", "KLGB 121219Z 1212/1312 VRB03KT P6SM VCTS BKN016 BKN050CB FM121245 VRB03KT P6SM OVC016 FM121500 VRB03KT P6SM OVC022 FM121900 21008KT P6SM SCT025 FM130100 30008KT P6SM VCSH BKN015 FM130900 VRB03KT P6SM BKN020", "KLGU 121120Z 1212/1312 VRB03KT P6SM SKC FM121900 31005KT P6SM SKC FM130100 VRB03KT P6SM SKC", "KLIT 121121Z 1212/1312 VRB05KT P6SM BKN100 FM121600 22012G18KT P6SM VCSH SCT040 BKN100 FM121800 24012G18KT P6SM -SHRA VCTS SCT050CB BKN100 TEMPO 1220/1224 5SM -TSRA BR BKN040CB FM130100 34008KT P6SM SCT250", "KLLQ 121121Z 1212/1312 16006KT P6SM SCT250 FM121400 21010G15KT P6SM SCT040 BKN100 FM122200 24008G18KT P6SM VCTS SCT050CB BKN100 FM130100 32008KT P6SM -SHRA VCTS SCT040CB BKN100 PROB30 1302/1304 5SM -TSRA BR BKN040CB FM130400 32006KT P6SM SCT250 AMD NOT SKED", "KLMT 121120Z 1212/1312 VRB04KT P6SM SKC", "KLND 121120Z 1212/1312 VRB04KT P6SM SKC FM121900 03009KT P6SM SKC FM130100 VRB04KT P6SM SKC", "KLNK 121122Z 1212/1312 30007KT P6SM SKC FM121600 31012G22KT P6SM FEW100 FM121800 31018G35KT P6SM FEW090 FM130100 30012G21KT P6SM SKC FM130300 28010KT P6SM SKC", "KLNS 121120Z 1212/1312 VRB02KT P6SM SCT250 FM121500 18008G15KT P6SM BKN200 FM130500 14005KT P6SM OVC050 FM131000 15009KT P6SM VCSH OVC035", "KLOZ 121130Z 1212/1312 VRB05KT P6SM VCSH SCT050 BKN150 FM121500 20010G19KT P6SM VCTS BKN080CB FM130500 22008KT P6SM SHRA VCTS OVC025CB FM130900 27007KT P6SM OVC007", "KLRD 121211Z 1212/1312 VRB04KT P6SM SCT020 BKN250 TEMPO 1212/1214 BKN009 FM130700 13007KT P6SM FEW250", "TAF KLRF 120700Z 1207/1313 14006KT 9999 BKN150 QNH2989INS BECMG 1217/1218 20010G20KT 9999 BKN080 QNH2977INS BECMG 1221/1222 24015G25KT 8000 -TSRA BKN060CB QNH2976INS BECMG 1300/1301 28009KT 9999 NSW BKN080 QNH2983INS BECMG 1303/1304 32006KT 9999 FEW100 QNH2992INS TX29/1220Z TN14/1212Z", "KLRU 121123Z 1212/1312 VRB04KT P6SM SKC FM121800 27008KT P6SM SKC FM130600 VRB05KT P6SM FEW250", "KLSE 121120Z 1212/1312 29013G23KT P6SM SCT030 BKN050 FM121400 29012KT P6SM VCSH BKN050 FM121600 28013KT P6SM SCT050 FM121800 28014G24KT P6SM VCSH BKN050 FM130000 28011KT P6SM SCT100", "TAF KLSF 121302Z 1213/1319 09006KT 9999 VCSH SCT006 OVC018 QNH3007INS TEMPO 1213/1216 14010G15KT 8000 -SHRA VCTS BKN006 OVC020CB BECMG 1216/1217 11006KT 8000 -SHRA VCTS SCT010 OVC020CB QNH2994INS TEMPO 1217/1223 22010G20KT 4800 TSRA OVC010CB BECMG 1300/1301 14005KT 6000 BR SCT010 BKN015 QNH2990INS BECMG 1304/1305 22003KT 4800 BR OVC003 WSCONDS QNH2985INS BECMG 1314/1315 28007KT 9999 NSW BKN006 WSCONDS QNH2990INS BECMG 1317/1318 31010G20KT 9999 SKC 510002 QNH2986INS TX24/1218Z TN19/1305Z", "TAF KLSV 120700Z 1207/1313 02006KT 9999 FEW150 QNH2998INS BECMG 1217/1218 11008KT 9999 FEW150 QNH3000INS BECMG 1301/1302 33008KT 9999 FEW150 QNH3001INS BECMG 1306/1307 35007KT 9999 FEW180 QNH3004INS TX33/1223Z TN17/1213Z", "TAF KLTS 120900Z 1209/1315 24009KT 9999 SKC 510102 QNH2977INS BECMG 1213/1214 01020G35KT 9999 SKC 510002 QNH2988INS BECMG 1216/1217 02010G20KT 9999 SKC QNH2992INS BECMG 1223/1224 VRB06KT 9999 SKC QNH2994INS TX27/1221Z TN16/1212Z", "TAF KLUF 121200Z 1212/1318 VRB06KT 9999 FEW180 QNH2991INS TX34/1223Z TN20/1213Z", "KLUK 121128Z 1212/1312 17006KT P6SM SCT110 FM121400 19010G20KT P6SM VCSH BKN100 FM121800 20013G25KT P6SM VCSH BKN080 FM122200 21012G24KT 5SM -SHRA VCTS BKN060CB FM130000 23012KT P6SM VCSH OVC050 FM130500 26007KT P6SM BKN045", "KLVK 121130Z 1212/1312 VRB03KT P6SM BKN008 FM121700 VRB04KT P6SM SKC FM122000 27009KT P6SM SKC FM130400 VRB04KT P6SM SKC", "KLVM 121125Z 1212/1312 28018G28KT P6SM SCT070 SCT100 FM122300 32010KT P6SM FEW100", "KLVS 121120Z 1212/1312 VRB04KT P6SM SKC FM121900 20011G20KT P6SM SKC FM130100 19008KT P6SM SKC FM130600 VRB05KT P6SM SKC", "KLWB 121120Z 1212/1312 VRB03KT P6SM SCT250 FM121300 VRB03KT P6SM BKN100 FM121700 19005KT P6SM SCT040 BKN080 FM130200 17004KT P6SM BKN040 FM130500 18005KT 6SM -SHRA BR BKN007", "KLWS 121120Z 1212/1312 VRB05KT P6SM SKC", "KLWT 121125Z 1212/1312 30010KT P6SM SCT050 BKN080 FM121700 29015G20KT P6SM BKN090 FM130000 22006KT P6SM FEW100", "KLYH 121120Z 1212/1312 00000KT P6SM BKN050 FM121500 20007KT P6SM BKN120 FM122000 18005KT P6SM OVC040 FM130400 17007KT P6SM -SHRA OVC025 FM130900 18008KT 6SM -RA OVC004", "KMAF 121120Z 1212/1312 22008KT P6SM FEW150 FM121600 33010KT P6SM SKC", "KMBG 121120Z 1212/1312 31019G29KT P6SM VCSH SCT080 BKN110 OVC150 FM121300 31024G34KT P6SM FEW250 FM121800 32033G45KT P6SM SCT250 FM130100 31022G31KT P6SM FEW250 FM130600 31015G25KT P6SM FEW250", "KMBL 121131Z 1212/1312 19012G24KT 6SM -SHRA BR OVC021 WS020/21045KT FM121400 19017G31KT 6SM -SHRA BR OVC019 FM121500 19012G28KT 6SM -SHRA BR VCTS OVC020CB FM121800 21012G26KT 6SM -SHRA BR OVC013 FM122100 28009G20KT 6SM -SHRA BR OVC035 FM122300 26007KT P6SM VCSH BKN080", "KMBS 121120Z 1212/1312 20013KT P6SM -SHRA OVC070 FM121400 21013G20KT P6SM SCT030 BKN045 OVC100 FM121700 21020G30KT P6SM SCT045 BKN100 OVC250 TEMPO 1221/1224 25025G40KT 2SM SHRA OVC015 FM130000 30013G20KT P6SM SCT100 BKN250 FM131000 25009KT P6SM BKN020", "KMCB 121228Z 1212/1312 16004KT 5SM BR BKN010 OVC090 FM121400 VRB04KT P6SM VCSH BKN035 BKN080 TEMPO 1215/1218 5SM -TSRA BKN025CB FM122300 VRB06KT P6SM VCSH SCT040 BKN110 FM131000 VRB04KT 1/2SM FG BKN003", "KMCC 121120Z 1212/1312 17007KT P6SM SKC", "KMCE 121120Z 1212/1312 30003KT P6SM SKC FM130000 32005KT P6SM FEW200", "TAF KMCF 120900Z 1209/1315 VRB06KT 9999 FEW040 BKN200 QNH2999INS BECMG 1213/1214 06006KT 9999 FEW030 BKN100 QNH2996INS TEMPO 1222/1302 VRB10G15KT 8000 -TSRA BKN030CB OVC080 BECMG 1302/1303 10006KT 9999 BKN030 BKN080 QNH2993INS TX30/1222Z TN21/1211Z", "KMCI 121239Z 1213/1312 31010KT P6SM BKN120 TEMPO 1213/1214 OVC010 FM121400 29012G20KT P6SM SCT100 FM130500 VRB05KT P6SM SKC", "KMCK 121120Z 1212/1312 28007KT P6SM SKC FM121800 31013G22KT P6SM SKC FM121900 34017G35KT P6SM SCT100 FM130100 31007KT P6SM SKC FM130600 30007KT P6SM SKC WS020/33035KT", "KMCN 121149Z 1212/1312 11004KT P6SM OVC012 FM121400 10006KT P6SM VCSH BKN015 FM121800 15007KT P6SM SHRA BKN020 TEMPO 1218/1222 4SM TSRA BR OVC004CB FM130200 13004KT 3SM BR VCSH BKN008 PROB30 1305/1308 2SM SHRA BR OVC003", "KMCO 121121Z 1212/1318 04005KT P6SM SCT035 BKN250 FM121400 12005KT P6SM SCT025 BKN150 FM121700 11006KT P6SM VCSH SCT030 BKN050 FM122000 11006KT P6SM VCTS SCT030CB BKN150 TEMPO 1221/1224 3SM TSRA BKN030CB FM130100 13005KT P6SM VCSH SCT035 BKN150 FM130600 16003KT P6SM SCT035 BKN120", "KMCW 121125Z 1212/1312 30010KT P6SM BKN060 FM121600 28016G26KT P6SM SKC FM121900 29019G30KT P6SM VCSH BKN150 FM130000 30014G24KT P6SM SCT220 FM130200 29010KT P6SM FEW240", "KMDT 121120Z 1212/1312 VRB02KT P6SM SCT250 FM121500 17008G15KT P6SM BKN200 FM130500 14004KT P6SM OVC050 FM131000 16009KT P6SM VCSH OVC035", "KMDW 121229Z 1212/1318 19016G26KT 6SM -SHRA VCTS BKN050CB WS020/20045KT FM121330 19016G26KT P6SM VCSH BKN050 WS020/20045KT FM121600 20016G28KT P6SM VCSH BKN020 FM121800 28016G28KT 6SM -SHRA BR BKN020 TEMPO 1218/1220 30020G33KT 2SM SHRA BR BKN010 FM122100 28010G18KT P6SM FEW250 FM122300 25007KT P6SM SCT080 TEMPO 1302/1305 28014G27KT -SHRA BKN050 FM131400 27012G20KT P6SM FEW050 SCT080", "KMEI 121320Z 1213/1312 00000KT 4SM -TSRA BR OVC003CB FM121700 18007KT P6SM SHRA VCTS BKN050CB FM122000 18007KT P6SM SHRA SCT050 FM130300 27010KT 6SM SHRA SCT015 BKN050 FM130800 33004KT P6SM BKN009", "KMEM 121136Z 1212/1318 18010KT P6SM SCT100 FM121800 21012G20KT P6SM VCSH SCT060 BKN090 TEMPO 1220/1224 4SM TSRA BKN025CB OVC080 FM130000 25008KT P6SM VCSH BKN060 FM130500 29005KT P6SM FEW250 FM131500 32008KT P6SM SKC", "KMER 121120Z 1212/1312 00000KT P6SM SKC FM130000 32005KT P6SM FEW200", "KMEV 121149Z 1212/1312 12006KT P6SM SKC FM121500 VRB04KT P6SM SKC FM122000 01005KT P6SM FEW100 FM130300 VRB03KT P6SM FEW250", "KMFD 121125Z 1212/1312 15010KT P6SM BKN250 FM121500 20013G22KT P6SM OVC100 FM122000 19016G26KT P6SM VCSH OVC090 FM122300 19015G25KT 6SM -SHRA VCTS SCT015 OVC060CB FM130200 21015G25KT 4SM -SHRA VCTS OVC015CB FM130400 21015G25KT 4SM -SHRA SCT008 OVC015 FM130800 26007KT P6SM VCSH OVC025", "KMFE 121126Z 1212/1312 VRB03KT P6SM FEW035 FM122200 11010KT P6SM FEW250 FM130500 14005KT P6SM SKC FM130700 VRB03KT P6SM FEW040", "KMFR 121120Z 1212/1312 VRB03KT P6SM SKC", "TAF KMGE 121300Z 1213/1319 12010KT 6000 BR OVC006 QNH3014INS BECMG 1213/1214 13010KT 8000 BR VCSH OVC007 QNH3010INS BECMG 1214/1215 14010G15KT 9999 VCSH OVC009 QNH3008INS BECMG 1217/1218 14010G15KT 9000 -SHRA BR OVC008 QNH3000INS BECMG 1220/1221 16010KT 4800 -SHRA BR VCTS OVC008CB QNH2998INS BECMG 1301/1302 15008KT 9999 VCSH OVC012 QNH2992INS BECMG 1309/1310 19005KT 4800 BR OVC008 QNH2985INS BECMG 1314/1315 22008KT 9999 NSW OVC010 QNH2982INS BECMG 1315/1316 30012G25KT 9999 SCT015 QNH2985INS TX22/1221Z TN18/1311Z", "KMGM 121135Z 1212/1312 VRB04KT P6SM VCSH BKN060 FM121800 12007KT 6SM SHRA BR OVC035 FM130000 VRB04KT P6SM BKN021 PROB30 1300/1303 4SM TSRA BR OVC015CB FM130300 VRB04KT P6SM SCT020 PROB30 1303/1308 4SM TSRA BR BKN020CB FM130800 VRB04KT P6SM BKN010 PROB30 1308/1312 2SM TSRA BR OVC008CB", "KMGW 121126Z 1212/1312 17004KT P6SM BKN250 FM121500 20009G18KT P6SM BKN250 FM130400 18007KT P6SM -RA BKN060 WS020/19045KT FM130600 19008KT P6SM -RA OVC025 WS020/19045KT FM130800 19008KT 5SM -RA OVC015 WS020/22040KT FM131000 19008KT 3SM -RA OVC007", "KMHK 121120Z 1212/1312 30008KT P6SM SKC FM121900 30014G24KT P6SM FEW120 FM130300 29007KT P6SM SKC", "KMHR 121120Z 1212/1312 VRB05KT P6SM SKC", "KMHT 121121Z 1212/1312 00000KT P6SM FEW250 FM121700 20007KT P6SM SKC FM130000 VRB03KT P6SM OVC250 FM130800 16003KT P6SM OVC100", "KMIA 121120Z 1212/1318 VRB05KT P6SM SCT020 SCT250 FM121400 10008KT P6SM FEW020 SCT150 FM130200 VRB03KT P6SM BKN250 FM130600 VRB03KT P6SM VCSH SCT035 BKN250 FM131400 20007KT P6SM VCTS SCT030 OVC250CB", "TAF AMD KMIB 121130Z 1211/1315 30015G20KT 8000 -SHRA BKN040 QNH2968INS BECMG 1213/1214 29015G25KT 9999 NSW BKN030 QNH2972INS BECMG 1214/1215 30025G35KT 9999 BKN050 520004 QNH2976INS TEMPO 1216/1221 32030G40KT SCT060 520004 BECMG 1223/1224 31012G18KT 9999 FEW080 QNH2986INS BECMG 1313/1314 31025G35KT 9999 SKC 520019 QNH2993INS TX09/1217Z TN01/1211Z", "KMIV 121121Z 1212/1312 21005KT P6SM SCT200 FM121800 18008KT P6SM BKN200 FM130900 17006KT 6SM BR BKN070", "KMKC 121241Z 1213/1312 31010KT P6SM BKN120 TEMPO 1213/1215 BKN008 OVC015 FM121500 29012G20KT P6SM SCT100 FM130500 VRB05KT P6SM SKC", "KMKE 121329Z 1213/1318 20012G24KT P6SM BKN035 FM121500 23018G27KT P6SM -SHRA VCTS OVC026CB FM121700 27018G27KT P6SM -SHRA VCTS OVC017CB FM121800 28017G26KT P6SM -SHRA OVC025 FM122000 27014G23KT P6SM VCSH SCT100 FM122300 20005KT P6SM SCT250 FM130200 27012G25KT P6SM -SHRA BKN070 FM130500 27008KT P6SM SCT070", "KMKG 121126Z 1212/1312 17014G24KT P6SM -SHRA OVC035 WS020/21050KT FM121500 19018G30KT P6SM -SHRA SCT015 OVC025 FM121900 23012G35KT 2SM SHRA BR BKN015 FM122000 32018G30KT 4SM SHRA BR OVC017 FM122300 27008KT P6SM VCSH BKN040", "KMKL 121136Z 1212/1312 19010KT P6SM BKN250 FM121900 21013G20KT P6SM VCSH SCT050 BKN100 TEMPO 1220/1224 4SM TSRA BKN025CB OVC080 FM130000 25006KT P6SM BKN060 FM130700 28005KT P6SM FEW250", "KMKT 121120Z 1212/1312 28010KT P6SM SCT100 FM121500 31018G28KT P6SM FEW250 FM121900 30020G32KT P6SM BKN070 FM130200 30013KT P6SM SCT150", "KMLB 121121Z 1212/1312 07004KT P6SM SCT035 BKN250 FM121400 12006KT P6SM SCT030 SCT060 FM121600 11007KT P6SM VCSH SCT030 SCT150 FM122000 10008KT P6SM VCTS SCT035CB BKN150 FM130100 12005KT P6SM VCSH SCT035 BKN120", "KMLC 121142Z 1212/1312 19007KT P6SM FEW070 FEW100 WS020/21040KT FM121500 22009KT P6SM BKN250 FM121800 34011KT P6SM SCT250 FM130300 01002KT P6SM SKC", "KMLI 121233Z 1213/1312 22011KT P6SM VCSH OVC040 FM121600 27014G22KT P6SM OVC035 FM130100 29008KT P6SM SCT090", "KMLS 121125Z 1212/1312 31016G23KT P6SM SCT060 FM121800 32015G37KT P6SM SCT070 FM130200 32015G22KT P6SM FEW070 SCT250", "KMLU 121140Z 1212/1312 17003KT P6SM OVC040 FM121600 23010KT P6SM SCT040 BKN050 FM130000 20007KT P6SM VCTS BKN050CB BKN250 FM130900 35008KT P6SM SKC", "KMMH 121149Z 1212/1312 25004KT P6SM FEW120 FM121800 14008KT P6SM FEW100 SCT250 FM130300 25004KT P6SM FEW250 FM130900 VRB03KT P6SM FEW250", "TAF KMMT 120700Z 1207/1313 VRB06KT 9999 SCT030 QNH3020INS BECMG 1306/1307 15006KT 8000 -SHRA BKN007 QNH2989INS TEMPO 1306/1309 23020G25KT 8000 -TSRA BKN007CB OVC015 TX24/1219Z TN13/1210Z", "KMOB 121139Z 1212/1312 13006KT 6SM BR VCTS BKN007CB FM121400 15005KT 6SM SHRA VCTS SCT008CB BKN020 FM121500 13005KT P6SM VCTS BKN020CB FM121700 14007KT P6SM VCTS SCT030CB BKN045", "KMOD 121120Z 1212/1312 32007KT P6SM SKC", "KMOT 121127Z 1212/1312 28019G28KT P6SM VCSH BKN050 BKN070 FM121400 29022G33KT P6SM BKN080 FM121600 30028G39KT P6SM SCT090 FM130100 32020G33KT P6SM SKC FM130300 31015G27KT P6SM FEW300", "KMPV 121130Z 1212/1312 17006KT P6SM FEW250 FM121700 18009G15KT P6SM SCT250 FM122300 VRB04KT P6SM BKN240 FM130100 17008KT P6SM BKN230", "KMQY 121120Z 1212/1312 14005KT P6SM SKC FM121600 19013G20KT P6SM SCT220 FM122200 20011G17KT 6SM -SHRA VCTS SCT040CB SCT080 TEMPO 1223/1301 4SM TSRA BKN015CB FM130500 22008KT P6SM -SHRA SCT015 OVC100 FM130900 28004KT P6SM OVC250", "KMRB 121137Z 1212/1312 VRB03KT P6SM SKC FM121300 18005KT P6SM BKN250 FM121600 18010G18KT P6SM FEW100 BKN250 FM122200 17008G15KT P6SM SCT050 BKN100 FM130400 17007KT P6SM VCSH SCT035 BKN070 WS020/19035KT FM131000 17010G20KT P6SM -SHRA SCT025 BKN035 WS020/20030KT", "KMRY 121130Z 1212/1312 VRB04KT 6SM BR OVC007 FM121700 VRB03KT P6SM BKN010 FM122000 29007KT P6SM FEW012 FM130000 VRB04KT P6SM BKN008 FM130500 VRB03KT P6SM OVC006 FM131000 VRB03KT P6SM OVC004", "KMSL 121120Z 1212/1312 13005KT P6SM SCT120 SCT230 FM121500 18011G18KT P6SM SCT110 FM121700 20013G21KT P6SM VCSH BKN035 OVC100 FM122300 22015G25KT 6SM -TSRA BR OVC030CB TEMPO 1223/1303 3SM TSRA BR OVC020CB FM130400 28010G18KT P6SM BKN015 OVC025", "KMSN 121323Z 1213/1312 22014G23KT P6SM VCSH OVC090 FM121400 27015G23KT P6SM -SHRA OVC014 FM121600 28014G22KT P6SM -SHRA OVC021 FM121800 25013G22KT P6SM SCT150 FM122300 27015G30KT P6SM -SHRA BKN070 FM130300 27010KT P6SM SCT070", "KMSO 121132Z 1212/1312 VRB05KT P6SM SKC FM122100 30012G19KT P6SM SKC FM130100 VRB05KT P6SM SKC", "KMSP 121120Z 1212/1318 28008KT P6SM BKN080 FM121700 29018G28KT P6SM BKN100 TEMPO 1220/1223 29022G34KT -SHRA BKN050 FM130100 30015KT P6SM SCT100 FM131200 30012G18KT P6SM BKN070", "KMSS 121156Z 1212/1312 VRB04KT P6SM SCT240 FM121400 20007KT P6SM BKN220 FM122300 18007KT P6SM BKN180 FM130900 17008G23KT P6SM SCT110 WS020/20040KT", "KMSY 121227Z 1212/1318 10005KT P6SM BKN009 BKN030 BKN150 FM121500 17005KT P6SM VCSH FEW008 BKN020 BKN035 BKN150 TEMPO 1217/1221 4SM TSRA OVC025CB FM130100 VRB06KT P6SM SCT030 SCT060 BKN110 FM131100 VRB04KT 3SM BR BKN110 FM131300 33005KT 3SM BR SCT020", "TAF KMTC 121100Z 1211/1317 17012KT 9999 BKN075 QNH2990INS BECMG 1213/1214 19009KT 9000 -SHRA BKN040 OVC075 QNH2980INS BECMG 1216/1217 18020G25KT 9999 NSW FEW055 OVC130 QNH2962INS BECMG 1300/1301 20012KT 9000 -SHRA OVC025 QNH2960INS TEMPO 1301/1304 25015G20KT 6000 -TSRA OVC015CB BECMG 1305/1306 29006KT 9999 NSW SCT015 SCT060 QNH2959INS BECMG 1313/1314 25012G18KT 9999 SCT035 QNH2961INS TX19/1221Z TN10/1310Z", "KMTH 121137Z 1212/1312 10008KT P6SM FEW016 FM130600 12006KT P6SM VCSH SCT025", "KMTJ 121120Z 1212/1312 14008KT P6SM SKC FM121400 VRB04KT P6SM SKC FM122000 33007KT P6SM SKC FM130300 15009KT P6SM SKC", "KMTN 121137Z 1212/1312 VRB03KT P6SM SKC FM121400 19007KT P6SM BKN250 FM121600 18010G18KT P6SM FEW100 BKN250 FM122200 16010G18KT P6SM SCT060 BKN120 FM131000 17010G18KT P6SM VCSH SCT030 BKN060 WS020/20030KT", "KMTW 121316Z 1213/1312 21014G20KT P6SM OVC026 WS020/22040KT TEMPO 1213/1215 P6SM -SHRA BKN015 FM121600 23015G24KT P6SM SHRA OVC016 FM121700 28012G23KT P6SM SCT060 FM122300 25008G15KT P6SM BKN040 PROB30 1302/1308 -SHRA BKN025", "TAF KMUI 121100Z 1211/1317 VRB06KT 9999 SKC QNH3022INS BECMG 1216/1217 18010G15KT 9999 SKC QNH3006INS BECMG 1223/1224 15006KT 9999 FEW021 BKN029 BKN150 QNH2988INS BECMG 1310/1311 16009KT 8000 -SHRA BKN005 OVC012 QNH2970INS TX18/1218Z TN03/1211Z", "TAF KMUO 121000Z 1210/1316 30009KT 9999 SKC QNH3017INS BECMG 1213/1214 VRB06KT 9999 SKC QNH3022INS BECMG 1217/1218 30010G15KT 9999 SKC QNH3022INS BECMG 1221/1222 VRB06KT 9999 FEW250 QNH3020INS TX25/1222Z TN08/1212Z", "KMVN 121141Z 1212/1312 21012G18KT P6SM VCSH OVC100 FM121300 21012G20KT P6SM -SHRA VCTS BKN060CB TEMPO 1213/1215 5SM TSRA BKN050CB FM121700 22014G25KT P6SM -SHRA OVC090 FM122100 25015G22KT P6SM BKN060 FM122300 27008KT P6SM SCT120", "KMWH 121120Z 1212/1312 36006KT P6SM SKC FM122200 VRB04KT P6SM SKC", "TAF KMXF 121100Z 1211/1317 11006KT 8000 BR OVC150 QNH3006INS BECMG 1215/1216 13006KT 8000 -SHRA OVC003 QNH2993INS TEMPO 1215/1222 22020G25KT 4800 -TSRA OVC003CB TEMPO 1223/1304 VRB25G35KT 8000 -TSRA OVC007CB BECMG 1304/1305 VRB06KT 8000 BR OVC007 QNH2986INS BECMG 1313/1314 VRB06KT 8000 BR FEW008 510013 QNH2989INS BECMG 1314/1315 31010G15KT 8000 BR SCT009 510013 QNH2990INS TX24/1217Z TN17/1211Z", "KMYL 121140Z 1212/1312 VRB04KT P6SM SKC FM122000 30008KT P6SM SKC FM130200 VRB04KT P6SM SKC", "KMYR 121120Z 1212/1312 07006KT P6SM SCT070 BKN150 FM121600 12008KT P6SM FEW070 BKN150 FM130600 14006KT 6SM SHRA BKN007 FM130900 16006KT 5SM SHRA OVC005 AMD NOT SKED", "TAF KNBC 1209/1309 07010KT 9999 BKN050 QNH3000INS TEMPO 1215/1221 10010G20KT 4800 TSRA BR BKN020CB FM122100 10010KT 9999 OVC030 QNH2995INS TEMPO 1221/1303 4800 SHRA BR BKN020 OVC040 QNH2996INS AUTOMATED SENSOR METWATCH 1203 UNTIL 1211 T19/1212Z T25/1217Z", "TAF AMD KNBG 1212/1307 12007KT 4800 BR VCSH FEW005 BKN015CB BKN080 OVC250 QNH2995INS TEMPO 1212/1215 VRB25G35KT 1200 +TSRA BR BKN004CB OVC030 TEMPO 1215/1220 VRB25G35KT 1600 +TSRA BR OVC008CB BECMG 1222/1300 VRB05KT 4800 BR VCSH BKN013CB BKN035 BKN120 OVC250 QNH3005INS AUTOMATED SENSOR METWATCH 1207 TIL 1211 T22/1211Z T28/1220Z AMD 1203 FN20039", "TAF KNCA 1209/1309 VRB06KT 9999 FEW040 SCT150 QNH3016INS BECMG 1218/1320 11008KT 9999 SCT040 BKN120 QNH3004INS FM130400 13010KT 9999 VCSH SCT040 BKN080 QNH2987INS TEMPO 1306/1309 15010G22KT 8000 -SHRA BR BKN030 AUTOMATED SENSOR METWATCH 1205 TIL 1211 T22/1216Z T14/1204Z", "KNEW 121226Z 1212/1312 10005KT 5SM BR OVC004 FM121500 17005KT P6SM VCSH BKN015 BKN060 OVC150 TEMPO 1218/1222 4SM TSRA BKN012 OVC025CB FM122200 19006KT P6SM SHRA VCTS FEW025 SCT040CB BKN080 FM130100 VRB06KT P6SM SCT040 BKN120 FM131000 30005KT P6SM BKN110", "TAF KNFG 1209/1309 VRB05KT 9999 BKN012 QNH3002INS FM121800 23008KT 9999 SCT018 QNH3001INS TEMPO 1220/1300 25008G18KT BECMG 1301/1303 VRB05KT 9999 BKN011 QNH3002INS T18/1214Z T25/1221Z", "TAF KNFL 1207/1307 VRB06KT 9999 SKC QNH3013INS BECMG 1220/1222 35008KT 9999 SKC QNH3018INS FM130500 VRB06KT 9999 SKC QNH3018INS AUTOMATED SENSOR METWATCH 1207 TIL 1215 T07/1212Z T27/1223Z FS30171", "TAF KNFW 1207/1307 19010KT 9999 FEW070 SCT250 QNH2984INS BECMG 1215/1217 29015G24KT 9999 FEW250 QNH2980INS BECMG 1221/1223 36008KT 9999 SKC QNH2984INS AUTOMATED SENSOR METWATCH 1207 TIL 1211 T19/1212Z T31/1222Z FN20048", "TAF AMD KNGP 1209/1307 18005KT 9999 FEW015 QNH2993INS TEMPO 1210/1213 VRB04KT 8000 BR MIFG SCT008 BKN012 FM121500 22006KT 9999 FEW018 FEW350 QNH2994INS FM121800 18006KT 9999 SCT030 BKN350 QNH2988INS FM122000 14013KT 9999 FEW032 BKN350 QNH2985INS FM130200 16012KT 9999 FEW012 FEW100 BKN350 QNH2988INS AUTOMATED SENSOR METWATCH 1209 TIL 1211 T24/1212Z T32/1220Z AMD 0910 FN20044", "TAF KNGU 1207/1307 VRB06KT 9999 SCT250 QNH3006INS BECMG 1300/1302 17007KT 9999 SCT040 BKN120 QNH2995INS T11/1210Z T24/1219Z FN00259", "TAF AMD KNHK 1211/1307 VRB04KT 9999 FEW200 QNH3021INS BECMG 1215/1216 14007KT 9999 FEW035 BKN200 QNH3008INS BECMG 1221/1223 14005KT 9999 BKN030 BKN180 QNH3000INS T22/1218Z T18/1307Z AMD 1152 FN20065", "TAF AMD KNID 1205/1223 21007KT 9999 SKC QNH3000INS WND VRB05KT AFT 1215 BECMG 1220/1222 11006KT 9999 FEW080 QNH2998INS LAST NO AMDS AFT 1205 NEXT 1215 T14/1214Z T33/1222Z AMD 0506", "TAF AMD KNIP 1207/1307 09007KT 9999 VCSH BKN040 BKN060 QNH3006INS TEMPO 1207/1213 4800 -RA BR BKN007 BKN015 BECMG 1213/1215 09006KT 9999 VCSH SCT030 BKN120 OVC250 QNH2990INS TEMPO 1215/1221 4800 SHRA BKN030 OVC120 BECMG 1223/1301 19008KT 9999 NSW SCT030 BKN080 QNH2990INS T21/1211Z T29/1219Z AMD 0718 FN00259", "TAF KNJK 1207/1307 20008KT 9999 FEW080 SCT250 QNH2987INS BECMG 1212/1216 VRB06KT 9999 FEW100 QNH2985INS AUTOMATED SENSOR METWATCH 1207 TIL 1213 T22/1212Z T36/1223Z FS30189", "TAF COR KNKT 1212/1309 VRB06KT 9999 FEW040 SCT150 QNH3018INS TEMPO 1211/1213 1600 BR BECMG 1218/1220 11008KT 9999 SCT040 BKN120 QNH3005INS FM130400 13010KT 9999 VCSH SCT040 BKN080 QNH2988INS TEMPO 1306/1309 15010G22KT 8000 -SHRA BR BKN030 T22/1216Z T14/1304Z COR 1220", "TAF KNKX 1209/1309 VRB05KT 9999 OVC012 QNH2999INS FM121730 28008KT 9999 SCT020 SCT120 QNH3001INS FM130230 VRB05KT 9999 OVC013 9999 QNH3003INS T18/1213Z T23/1221Z", "TAF KNLC 1207/1307 30008KT 9999 SKC QNH2992INS BECMG 1208/1210 VRB06KT 9999 SKC QNH2995INS BECMG 1219/1221 34010KT FEW080 QNH2994INS AUTOMATED SENSOR METWATCH 1207 TIL 1214 T13/1214Z T32/1223Z FS30171", "TAF AMD KNMM 1213/1307 VRB06KT 9999 VCSH BKN004 BKN020CB BKN080 QNH2999INS BECMG 1213/1215 16008KT 9999 VCTS SCT006 BKN025CB BKN050 QNH2988INS TEMPO 1215/1221 18010KT 4800 TSRA SCT015 BKN035CB BKN055 BECMG 1222/1300 20004KT 9999 NSW SCT008 BKN020 BKN050 QNH2989INS BECMG 1304/1306 24008KT 6000 BR VCSH SCT025 SCT050 BKN250 QNH2990INS AUTOMATED SENSOR METWATCH 1207 TIL 1211 T16/1211Z T27/1221Z AMD 1300 FN20082", "TAF AMD KNPA 1212/1307 11006KT 9999 VCSH FEW020 BKN110 BKN170 BKN250 621309 QNH3003INS FM121600 15008KT 9999 VCTS SCT020CB BKN060 BKN170 BKN250 621309 QNH2992INS FM122300 18008KT 9999 VCSH SCT020 BKN100 BKN250 600000 QNH2992INS T24/1212Z T28/1220Z AMD 1211Z FN20033", "TAF AMD KNQI 1212/1307 VRB04KT 0400 FG VV001 QNH2995INS TEMPO 1212/1214 1600 BR SCT003 SCT250 FM121400 VRB03KT 6000 BR BKN015 BKN250 QNH2996INS FM121500 20006KT 9999 SCT025 SCT250 QNH2995INS FM121700 19006KT 9999 SCT035 SCT250 QNH2986INS FM122000 13010KT 9999 FEW050 SCT250 QNH2984INS BECMG 1301/1303 VRB04KT 9999 SKC QNH2989INS T21/1212Z T34/1220Z AMD 1205 FN20081", "TAF AMD KNQX 1212/1307 11012KT 9999 VCSH SCT018 SCT150 QNH2993INS TEMPO 1212/1218 8000 -SHRA SCT018 BKN030 BECMG 1222/1300 10010KT 9999 NSW SCT022 SCT150 BKN250 QNH2994INS T32/1219Z T29/1307Z AMD 1205 FN20027", "TAF AMD KNRB 1209/1307 08007G15KT 9999 VCTS SCT015CB BKN025 BKN050 QNH3009INS TEMPO 1207/1213 1600 TSRA BKN015CB BECMG 1214/1216 10007G15KT 9999 VCSH SCT030 BKN120 QNH2996INS TEMPO 1217/1223 4800 SHRA BKN030 OVC120 BECMG 1223/1301 19010KT 9999 NSW FEW030 SCT060 BKN120 QNH2990INS AUTOMATED SENSOR METWATCH 1207 TIL 1209 T23/1211Z T27/1219Z AMD 0850 FN00259", "TAF AMD KNSE 1213/1307 12006KT 9999 VCSH SCT100 BKN150 BKN250 QNH2995INS FM121500 15008KT 9999 VCSH SCT030 SCT100 BKN150 BKN250 QNH2995INS TEMPO 1215/1219 VRB10G15KT 8000 -SHRA BR BKN050 FM122000 15005KT 9999 VCSH SCT020 BKN130 BKN250 QNH2992INS FM130100 19010KT 9999 SCT010 BKN025 BKN100 QNH3003INS T22/1214Z T28/1216Z AMD 1300 FN20071", "TAF AMD KNTD 1211/1307 30008KT 8000 BR VCTS SCT006 BKN012CB OVC100 QNH3001INS TEMPO 1211/1216 VRB30G40KT 3200 TSRA BKN009CB OVC020 FM121700 27008KT 9000 BR BKN008 OVC100 QNH3000INS TEMPO 1219/1301 27012KT 9999 SCT010 SCT100 BECMG 1301/1303 VRB06KT 9000 -TSRA BKN005 BKN012CB QNH3002INS AUTOMATED SENSOR METWATCH 1211 TIL 1213 T16/1212Z T22/1221Z AMD 1148 FS30189", "TAF KNTU 1207/1307 VRB06KT 9999 FEW030 SCT300 QNH3006INS BECMG 1221/1223 17008KT 9999 SCT040 SCT120 BKN300 QNH2998INS T12/1210Z T23/1219Z FN00259", "TAF KNUC 1123/1223 29008KT 9999 VCTS BKN015CB QNH2994INS TEMPO 1123/1205 SCT015CB LAST NO AMDS AFT 1123 NEXT 1215 T21/1123Z T16/1212Z FS30197", "TAF KNUW 1207/1307 VRB06KT 9999 FEW250 QNH3019INS FM121000 VRB06KT 9000 BR BCFG FEW002 FEW050 SCT250 QNH3020INS FM121700 29008KT 9999 FEW050 SCT250 QNH3017INS T06/1215Z T18/1223Z FS30171", "TAF KNXP 1209/1309 29006KT 9999 FEW120 QNH3005INS FM121830 14005KT 9999 FEW120 QNH3007INS FM122330 19010KT 9999 FEW120 QNH3009INS T18/1213Z T31/1222Z", "TAF KNYG 1209/1309 22009KT 9999 SKC QNH3028INS BECMG 1217/1219 19010KT 9999 OVC050 QNH3007INS TEMPO 1307/1309 6000 -RA BR BKN020 AUTOMATED SENSOR METWATCH 1123 TIL 1211 T09/1209Z T20/1221Z", "TAF KNYL 1209/1309 16006KT 9999 FEW080 QNH2988INS AUTOMATED SENSOR METWATCH 1209 TIL 1214 T23/1214Z T36/1222Z", "TAF AMD KNZY 1209/1307 VRB06KT 9000 BR BKN004 BKN018 OVC100 QNH2999INS TEMPO 1209/1213 9999 OVC018 FM121300 VRB06KT 9000 BR VCSH SCT006 SCT018 SCT100 QNH3001INS TEMPO 1213/1219 8000 BR -SHRA BKN018 BKN100 FM121900 30008KT 9000 VCSH SCT006 BKN010 QNH3000INS TEMPO 1301/1307 8000 BR BKN005 OVC020 T19/1210Z T23/1221Z AMD 0909 FS30189", "KOAJ 121138Z 1212/1312 VRB06KT P6SM SCT060 FM121300 VRB06KT P6SM BKN060 FM122100 13008KT P6SM SCT060 BKN150 FM130900 14008KT P6SM SHRA OVC050 FM131100 15008KT P6SM SHRA BKN015 OVC050 AMD LTD TO CLD VIS AND WIND", "KOAK 121241Z 1213/1318 VRB04KT P6SM OVC006 FM121800 VRB04KT P6SM SKC FM122100 29010KT P6SM SKC FM130500 30006KT P6SM SCT008 FM130700 VRB04KT P6SM BKN007", "TAF KOFF 121000Z 1210/1316 31009KT 9999 -RA BKN080 QNH2980INS BECMG 1211/1212 31009KT 9999 NSW SKC QNH2980INS TEMPO 1216/1219 28015G25KT BECMG 1219/1220 30025G35KT 9999 BKN080 510009 QNH2982INS BECMG 1302/1303 28009KT 9999 SCT080 QNH2995INS TX22/1220Z TN08/1310Z", "KOFK 121122Z 1212/1312 30009KT P6SM SKC FM121500 31019G25KT P6SM SKC FM121700 31025G35KT P6SM FEW070 FEW200 FM130000 32014G23KT P6SM FEW080 FM130200 29011KT P6SM SKC", "KOGB 121322Z 1213/1312 08005KT P6SM SCT035 BKN100 FM121600 13005KT P6SM BKN040 FM122200 12006KT P6SM VCSH SCT018 BKN030 TEMPO 1222/1302 4SM -SHRA BKN030 FM130300 VRB03KT 6SM BR VCSH OVC007", "KOGD 121120Z 1212/1312 17008KT P6SM SKC FM121800 29005KT P6SM SKC FM130200 17007KT P6SM SKC", "KOKC 121120Z 1212/1312 21012KT P6SM FEW250 FM121400 34017G25KT P6SM FEW250 FM130000 36009KT P6SM SKC", "KOLF 121120Z 1212/1312 29017KT P6SM SKC WS020/31050KT FM121500 30024G36KT P6SM FEW140 FM121800 31029G44KT P6SM SKC FM130100 31020G33KT P6SM SKC FM130600 30012G20KT P6SM FEW210", "KOLM 121120Z 1212/1312 00000KT P6SM SKC TEMPO 1212/1215 2SM BR FM121500 VRB02KT 1/4SM FG SKC FM121800 03003KT P6SM SKC FM130600 00000KT 4SM BR SKC", "KOLS 121123Z 1212/1312 VRB04KT P6SM SKC FM122000 30006KT P6SM FEW090 FM130200 VRB03KT P6SM SCT250", "KOMA 121122Z 1212/1312 30008KT P6SM FEW110 FM121600 31012G20KT P6SM FEW100 FM121800 31018G33KT P6SM FEW090 FM130100 30012G21KT P6SM FEW070 FM130300 28010KT P6SM FEW070", "KONP 121123Z 1212/1312 08003KT P6SM SKC FM121800 06009KT P6SM SKC FM122100 35011KT P6SM SKC FM130300 08006KT P6SM SKC", "KONT 121127Z 1212/1318 25005KT 5SM BR OVC011 FM121730 VRB04KT 6SM HZ SCT015 SCT100 FM122000 26011KT P6SM SCT100 SCT150 FM130400 25006KT P6SM SCT150 FM130800 25005KT 5SM BR BKN010 FM131700 VRB04KT 6SM HZ SCT012", "KOPF 121120Z 1212/1312 VRB05KT P6SM SCT025 SCT250 FM121400 10008KT P6SM FEW025 SCT200 FM130200 VRB05KT P6SM BKN100 FM130600 VRB05KT P6SM VCSH SCT035 BKN100", "KORD 121140Z 1212/1318 19016G26KT P6SM VCSH BKN050 WS020/20045KT FM121600 20016G28KT P6SM VCSH BKN020 FM121800 28016G28KT 6SM -SHRA BR BKN020 TEMPO 1218/1220 30020G33KT 2SM SHRA BR BKN010 FM122100 28010G18KT P6SM FEW250 FM122300 25007KT P6SM SCT080 TEMPO 1302/1305 28014G27KT -SHRA BKN050 FM131400 27012G20KT P6SM FEW050 SCT080", "KORF 121120Z 1212/1312 00000KT P6SM SKC FM121400 16007KT P6SM SCT250 FM122000 18009KT P6SM BKN150 FM130400 17006KT P6SM BKN090", "KORH 121120Z 1212/1312 26005KT P6SM SKC FM121600 23010KT P6SM FEW250 FM122200 20007KT P6SM SCT200 FM130800 18007KT P6SM BKN030", "KOTH 121159Z 1212/1312 12004KT 6SM BR BCFG FEW001 FM121700 16004KT P6SM SKC FM122000 31008KT P6SM SKC FM130200 12003KT P6SM SKC", "KOTM 121319Z 1213/1312 29014KT P6SM VCSH BKN018 BKN023 OVC035 FM121400 29010G18KT P6SM BKN110 FM121800 29016G27KT P6SM FEW240 FM122300 30017G29KT P6SM VCSH BKN140 FM130100 29012G20KT P6SM SCT220", "KOUN 121120Z 1212/1312 20012KT P6SM FEW250 FM121500 35015G23KT P6SM FEW250 FM130200 36008KT P6SM SKC", "KOWB 121141Z 1212/1312 17007KT P6SM SCT100 BKN250 FM121500 20013G23KT P6SM VCSH SCT060 BKN080 TEMPO 1215/1218 -SHRA BKN060 FM121800 22014G25KT P6SM -SHRA VCTS BKN080CB FM122200 21014G25KT P6SM VCSH BKN080 FM130100 23009KT P6SM BKN060 FM130400 28006KT P6SM FEW150", "KOXR 121303Z 1213/1312 VRB03KT P6SM OVC011 FM121800 26006KT P6SM BKN015 FM122100 27010KT P6SM SCT022 FM130300 27005KT P6SM OVC015 FM130600 VRB03KT P6SM OVC012", "TAF AMD KOZR 121115Z 1211/1314 08004KT 9999 FEW006 BKN150 BKN220 QNH3007INS BECMG 1211/1212 09006KT 9999 FEW003 BKN006 BKN050 BKN120 QNH3010INS TEMPO 1212/1214 3200 SHRA BR BKN004 OVC010 BECMG 1216/1217 19008KT 6000 SHRA VCTS FEW008 BKN015CB OVC040 QNH2994INS TEMPO 1217/1222 VRB12G28KT 3200 TSRA BKN008CB OVC025 BECMG 1223/1224 20005KT 9999 NSW SCT008 OVC012 QNH2992INS BECMG 1302/1303 06006KT 4800 SHRA VCTS BKN008 OVC012CB QNH2990INS BECMG 1311/1312 24006KT 9999 NSW BKN008 OVC012 QNH2992INS TX27/1219Z TN18/1211Z", "KPAE 121120Z 1212/1312 35004KT P6SM SKC FM121900 34004KT P6SM SKC FM130300 00000KT P6SM SKC", "KPAH 121141Z 1212/1312 19007KT P6SM SCT150 SCT250 FM121530 20011G25KT P6SM -SHRA VCTS SCT050 BKN070CB FM121930 23011G25KT P6SM BKN050 FM122300 25015G21KT P6SM BKN060 FM130300 27008KT P6SM SKC", "TAF KPAM 121100Z 1211/1317 12009KT 9999 SCT040 BKN130 QNH3007INS TEMPO 1211/1214 09006KT BKN004 BECMG 1218/1219 15012G18KT 9999 SCT030 BKN050 QNH2995INS TEMPO 1219/1223 BKN030 BECMG 1300/1301 13012G20KT 8000 -SHRA BKN020 QNH2996INS BECMG 1304/1305 16012G18KT 9999 NSW BKN015 QNH2991INS BECMG 1314/1315 19009KT 9000 -SHRA SCT020 BKN030 QNH2991INS TX29/1219Z TN21/1211Z", "KPBF 121121Z 1212/1312 15009KT P6SM SCT250 FM121400 21011G18KT P6SM SCT040 BKN100 FM122000 24010G18KT P6SM -SHRA VCTS SCT050CB BKN100 FM130000 32008KT P6SM -SHRA VCTS SCT040CB BKN100 PROB30 1300/1303 5SM -TSRA BR BKN040CB FM130300 32006KT P6SM SCT250", "KPBG 121130Z 1212/1312 16008KT P6SM SCT250 FM121800 16012G19KT P6SM SCT220 FM122300 17008G16KT P6SM BKN220 FM130600 17014KT P6SM BKN190", "KPBI 121120Z 1212/1312 VRB05KT P6SM SCT025 BKN250 FM121400 11008KT P6SM SCT030 SCT150 FM130200 VRB04KT P6SM BKN090 FM130600 VRB04KT P6SM VCSH SCT030 BKN090", "KPDK 121149Z 1212/1312 11004KT 6SM -DZ OVC008 FM121800 16009KT P6SM SHRA BKN008 TEMPO 1220/1224 4SM TSRA BR OVC005CB FM130500 17005KT P6SM VCSH BKN008 PROB30 1307/1310 3SM SHRA BR OVC006", "KPDT 121120Z 1212/1312 12006KT P6SM SKC FM121900 36005KT P6SM SKC FM130400 12004KT P6SM SKC", "KPDX 121123Z 1212/1312 32005KT P6SM SKC", "KPEQ 121120Z 1212/1312 24008KT P6SM SCT080 FM121800 34007KT P6SM SKC", "KPGA 121120Z 1212/1312 VRB06KT P6SM SKC", "KPGD 121129Z 1212/1312 09004KT P6SM FEW040 BKN200 FM121500 13007KT P6SM SCT040 BKN200 FM122000 27006KT P6SM VCTS BKN040CB OVC100 FM130200 VRB03KT P6SM BKN040 OVC100 FM130900 15005KT 6SM SHRA BKN040 OVC080", "KPGV 121138Z 1212/1312 00000KT 6SM BR SCT250 TEMPO 1212/1213 3SM MIFG FM121400 VRB06KT P6SM FEW060 BKN250 FM122000 15008KT P6SM SCT060 BKN150 FM130900 15008KT P6SM SHRA SCT025 OVC060 AMD LTD TO CLD VIS AND WIND", "KPHF 121302Z 1213/1312 00000KT P6SM SKC FM121500 16007KT P6SM SCT250 FM122000 18009KT P6SM BKN150 FM130900 17006KT P6SM BKN050", "KPHL 121121Z 1212/1318 20005KT P6SM SCT200 FM121700 19007KT P6SM SCT200 FM130900 16006KT 6SM BR BKN060 FM131600 17011G21KT P6SM BKN035", "KPHX 121139Z 1212/1318 09004KT P6SM SKC FM122000 25006KT P6SM FEW120 FM130700 10005KT P6SM SKC", "KPIA 121120Z 1212/1312 20014G22KT P6SM VCSH BKN040 OVC080 TEMPO 1213/1216 4SM -SHRA BKN025 FM121700 26012G20KT P6SM -SHRA BKN014 FM121900 28012G22KT P6SM VCSH BKN040 FM122300 27010KT P6SM FEW100", "KPIB 121155Z 1212/1312 00000KT 1/4SM FG VCSH OVC002 FM121430 18005KT 5SM SHRA BR BKN002 OVC025 FM121700 19008KT P6SM SHRA VCTS BKN050CB FM122000 18005KT P6SM FEW050 FM130600 27005KT P6SM VCSH BKN009", "KPIE 121129Z 1212/1312 09005KT P6SM FEW040 BKN200 FM121500 11006KT P6SM SCT040 BKN200 FM122000 28007KT P6SM VCTS SCT040CB OVC100 FM130200 VRB03KT P6SM BKN040 OVC100 FM130900 13005KT 6SM SHRA BKN040 OVC080", "KPIH 121120Z 1212/1312 21008KT P6SM SKC FM121900 27010KT P6SM SKC FM130300 20007KT P6SM SKC", "KPIR 121258Z 1213/1312 31024G34KT P6SM VCSH BKN090 OVC110 WS020/31040KT FM121400 30025G34KT P6SM SCT200 FM121800 31032G42KT P6SM FEW200 FM130100 31020G30KT P6SM FEW250 FM130900 30016KT P6SM SKC", "KPIT 121126Z 1212/1318 16005KT P6SM BKN250 FM121600 19010G18KT P6SM BKN110 FM130500 19010KT 4SM -RA OVC015 WS020/21050KT FM131100 21008KT 3SM -RA OVC007 FM131400 24007KT P6SM -RA OVC015", "KPKB 121304Z 1213/1312 18005KT P6SM BKN050 FM122000 20009G15KT P6SM VCSH BKN080 FM130000 18006G12KT P6SM -SHRA VCTS BKN090CB FM130300 18009G16KT 6SM -SHRA VCTS OVC045CB FM130600 21006KT 3SM -SHRA OVC015", "KPLN 121131Z 1212/1312 19010G22KT P6SM VCSH OVC018 WS020/21040KT FM121400 19012G25KT 6SM -SHRA BR OVC018 FM122000 23014G33KT 6SM -SHRA BR OVC013 FM122200 26011G26KT 4SM SHRA BR OVC029 FM130000 27005KT P6SM VCSH BKN080", "KPMD 121157Z 1212/1312 17006KT P6SM SKC FM122000 23010KT P6SM VCTS BKN100CB FM130100 22015G20KT P6SM VCTS BKN100CB FM130600 VRB03KT P6SM BKN250", "KPNA 121120Z 1212/1312 30008KT P6SM SKC FM121600 31018G28KT P6SM SKC FM130200 30007KT P6SM SKC", "KPNC 121120Z 1212/1312 35008KT P6SM SCT050 BKN250 FM121400 36015G22KT P6SM SCT250 FM121900 34012G17KT P6SM SKC FM122300 34005KT P6SM SKC", "KPNE 121121Z 1212/1312 22005KT P6SM SCT200 FM121500 20008KT P6SM SCT200 FM130700 16006KT 5SM BR BKN060", "KPNS 121139Z 1212/1312 VRB03KT P6SM VCSH SCT015 BKN070 FM121700 13008KT P6SM VCTS SCT030CB BKN050 FM122300 15007KT P6SM VCTS FEW030CB BKN100", "TAF KPOB 111700Z 1117/1223 06008KT 9999 FEW050 SCT200 QNH3027INS BECMG 1202/1203 12005KT 9999 SCT040 SCT080 QNH3023INS BECMG 1212/1213 13007KT 9999 FEW020 SCT040 BKN080 QNH3010INS BECMG 1218/1219 14010KT 9999 SCT020 BKN030 OVC080 QNH3006INS BECMG 1221/1222 18010G15KT 9999 BKN020 OVC030 QNH3005INS TX24/1120Z TN13/1210Z LAST NO AMDS AFT 1122 NEXT 1217", "TAF KPOE 112300Z 1123/1305 15007KT 9999 FEW040 SCT150 QNH3003INS BECMG 1205/1206 VRB06KT 9999 SCT015 SCT100 QNH3003INS BECMG 1209/1210 VRB06KT 9999 VCSH BKN010 QNH2999INS BECMG 1214/1215 19009KT 9999 VCSH BKN012 QNH2999INS BECMG 1217/1218 20012KT 9999 SCT020 QNH2995INS BECMG 1223/1224 VRB06KT 9999 SCT040 QNH2986INS TX27/1123Z TN19/1203Z LAST NO AMDS AFT 1205 NEXT 1215", "KPOU 121130Z 1212/1312 00000KT P6SM SKC FM121600 20006KT P6SM SCT200 FM130000 VRB03KT P6SM OVC035 FM130400 VRB03KT P6SM BKN015", "KPQI 121135Z 1212/1312 22006KT P6SM SCT250 FM121600 24010KT P6SM SCT250 FM122200 18006KT P6SM SCT250 FM130900 14006KT P6SM SCT200", "KPRB 121327Z 1213/1312 00000KT 1/4SM FG OVC001 FM121500 VRB03KT P6SM SKC FM122000 19010KT P6SM SKC FM130100 24008KT P6SM SKC FM130700 VRB03KT P6SM SKC", "KPRC 121120Z 1212/1312 20007KT P6SM SKC FM121500 VRB06KT P6SM SKC", "KPSC 121120Z 1212/1312 VRB05KT P6SM SKC", "KPSF 121130Z 1212/1312 31003KT 6SM BR SKC TEMPO 1212/1213 3/4SM BR VV002 FM121400 19008KT P6SM SCT200 FM130000 VRB03KT P6SM OVC050 FM130600 VRB03KT P6SM BKN015", "KPSM 121121Z 1212/1312 00000KT P6SM SKC FM121700 19007KT P6SM SCT250 FM130000 17004KT P6SM OVC250 FM130900 13004KT P6SM OVC050", "KPSP 121127Z 1212/1312 VRB05KT P6SM SKC FM121900 10008KT P6SM SCT100 SCT150 FM130100 33007KT P6SM SCT150 FM130700 VRB04KT P6SM SKC", "KPTK 121120Z 1212/1312 18010KT P6SM -SHRA SCT025 OVC050 FM121400 21013G20KT P6SM SCT030 BKN045 OVC100 FM121700 21020G30KT P6SM SCT045 BKN100 OVC250 TEMPO 1222/1302 25025G40KT 2SM SHRA OVC015 FM130200 30013G20KT P6SM SCT100 BKN250 FM131000 25009KT P6SM BKN020", "KPUB 121120Z 1212/1312 VRB06KT P6SM FEW110 FM122200 01010KT P6SM SKC FM130300 VRB04KT P6SM SKC", "KPUW 121120Z 1212/1312 10006KT P6SM SKC FM121900 26006KT P6SM SKC FM130200 00000KT P6SM SKC", "KPVD 121120Z 1212/1312 26003KT P6SM SKC FM121600 24007KT P6SM FEW250 FM121800 20010KT P6SM FEW250 FM130100 19006KT P6SM SCT050 FM131000 16009KT P6SM BKN040", "KPVU 121120Z 1212/1312 VRB05KT P6SM SKC FM121900 27005KT P6SM SKC FM130400 VRB04KT P6SM SKC", "KPVW 121222Z 1212/1312 34011KT P6SM SKC FM121400 01015G25KT P6SM SKC FM121900 02011KT P6SM SKC", "KPWM 121121Z 1212/1312 00000KT P6SM SKC FM121700 18006KT P6SM SKC FM130000 19004KT P6SM BKN250", "KPWT 121232Z 1213/1312 04004KT P6SM SKC FM121600 05003KT 6SM BR BKN020 FM121800 03003KT P6SM SKC FM130000 04003KT P6SM SKC", "KRAP 121307Z 1213/1312 35024G34KT P6SM SCT025 BKN040 TEMPO 1213/1215 P6SM -SHRA SCT015 BKN025 FM121600 34035G50KT P6SM BKN070 FM130100 34022G32KT P6SM SCT150", "KRBG 121120Z 1212/1312 VRB03KT P6SM SKC", "KRBL 121120Z 1212/1312 34006KT P6SM SKC FM122000 VRB05KT P6SM SKC", "TAF AMD KRCA 121220Z 1212/1317 35015G25KT 9999 -SHRA BKN020 OVC040 QNH2985INS BECMG 1212/1213 34015G30KT 9999 NSW SCT030 BKN050 530002 QNH2995INS BECMG 1216/1217 32035G50KT 9999 SCT100 560002 QNH2996INS BECMG 1301/1302 32015G25KT 9999 SKC QNH3000INS TX15/1221Z TN06/1309Z", "KRDD 121120Z 1212/1312 VRB05KT P6SM SKC", "KRDG 121142Z 1212/1312 14005KT 5SM BR SCT200 FM121300 19005KT P6SM SCT200 FM121600 19009KT P6SM BKN200 FM130700 16007KT 6SM BR OVC050 FM131100 16009KT 6SM -SHRA BR OVC030", "KRDM 121120Z 1212/1312 15004KT P6SM SKC FM122100 35008KT P6SM SKC FM130300 VRB04KT P6SM SKC", "TAF KRDR 121000Z 1210/1316 28012KT 9999 OVC060 650605 QNH2955INS TEMPO 1212/1214 9000 -SHRA BECMG 1214/1215 30015G25KT 9999 BKN020 OVC030 650506 510003 QNH2961INS BECMG 1216/1217 32020G30KT 9999 SCT080 510003 QNH2964INS BECMG 1300/1301 31015KT 9999 BKN070 QNH2975INS TX11/1219Z TN03/1308Z", "KRDU 121120Z 1212/1312 05004KT P6SM SCT050 BKN200 FM121500 15005KT P6SM BKN050 FM130000 18006KT P6SM BKN050 FM130700 19006KT P6SM BKN007 OVC015", "KRFD 121140Z 1212/1312 19015G25KT P6SM VCSH BKN040 WS020/20040KT FM121400 20016G28KT P6SM VCSH BKN020 FM121600 28016G28KT 5SM -SHRA BR BKN020 FM122000 28010G18KT P6SM FEW250 FM122200 25007KT P6SM SCT080 TEMPO 1300/1303 28014G27KT -SHRA BKN050", "KRHI 121154Z 1212/1312 21010G17KT P6SM -SHRA OVC012 TEMPO 1212/1213 2SM TSRA SCT012 BKN035CB FM121300 26014G26KT P6SM SHRA OVC014 FM121600 28010G19KT P6SM SCT018 BKN070 FM121800 27014G24KT P6SM SCT040 FM122100 27012G18KT P6SM -SHRA BKN040 FM130600 29008G15KT P6SM -SHRA OVC026", "KRIC 121159Z 1212/1312 00000KT P6SM SCT250 FM121300 19007KT P6SM BKN150 FM122200 16006KT P6SM OVC100 FM130600 17006KT P6SM BKN070", "KRIL 121120Z 1212/1312 VRB02KT P6SM SKC FM122030 28010KT P6SM SKC FM130200 21005KT P6SM SKC", "TAF KRIV 121205Z 1212/1318 30004KT 3200 BR OVC005 QNH3006INS BECMG 1214/1215 30004KT 4800 BR OVC006 QNH3009INS BECMG 1216/1217 30004KT 6000 HZ BKN008 QNH3010INS BECMG 1217/1218 32006KT 9999 NSW FEW010 SCT120 SCT250 QNH3007INS BECMG 1219/1220 32009KT 9999 VCTS BKN100CB BKN250 510008 QNH3001INS TS OMTNS NE-SE TEMPO 1221/1302 VRB15G25KT 9000 -TSRA BKN080CB BKN200 BECMG 1302/1303 31006KT 9999 NSW SCT100 BKN250 QNH3004INS BECMG 1308/1309 30004KT 0800 FG OVC002 QNH3002INS BECMG 1314/1315 30004KT 1600 BR OVC004 QNH3003INS BECMG 1316/1317 VRB04KT 4800 BR BKN006 QNH3004INS TX27/1222Z TN17/1212Z", "KRIW 121120Z 1212/1312 VRB06KT P6SM SKC FM121800 03009G15KT P6SM SKC FM130100 06008KT P6SM SKC", "KRKD 121252Z 1213/1312 27003KT P6SM SCT250 FM121500 VRB04KT P6SM BKN250", "KRKS 121120Z 1212/1312 26012G20KT P6SM SKC FM121700 28022G35KT P6SM SKC FM130500 25009KT P6SM SKC", "KRME 121120Z 1212/1312 VRB03KT P6SM FEW200 FM121500 16006G14KT P6SM SCT200 FM130200 12008G16KT P6SM OVC070 FM130900 13012G22KT P6SM VCSH OVC035", "TAF KRND 121000Z 1210/1316 17005KT 9999 BKN006 QNH2992INS TEMPO 1211/1214 BKN010 BECMG 1214/1215 19009KT 9999 BKN012 QNH2995INS BECMG 1215/1216 21010KT 9999 SCT025 SCT100 QNH2982INS BECMG 1306/1307 01010KT 9999 FEW090 QNH2993INS TX34/1221Z TN20/1310Z", "KRNH 121120Z 1212/1312 28008G14KT P6SM BKN050 FM121500 30014G22KT P6SM FEW150 FM121800 30015G25KT P6SM BKN080 TEMPO 1220/1223 -SHRA FM130300 28013KT P6SM SCT100", "KRNO 121149Z 1212/1312 VRB04KT P6SM SKC FM122000 07007KT P6SM FEW100 FM130300 VRB03KT P6SM FEW250", "KROA 121120Z 1212/1312 00000KT P6SM SCT040 FM121400 VRB04KT P6SM BKN250 FM121800 17008G16KT P6SM BKN060 FM122300 16006KT P6SM BKN025 FM130400 16003KT P6SM -SHRA FEW005 OVC012 FM130600 17004KT P6SM -RA OVC007", "KROC 121120Z 1212/1312 19006KT P6SM SCT130 OVC250 FM121500 19012G20KT P6SM SCT120 OVC250 FM122000 18012G22KT P6SM BKN120 FM130400 17012G22KT P6SM SCT050 OVC080 FM131000 18012KT 5SM RA BR OVC035", "KROG 121308Z 1213/1312 24010KT P6SM VCSH BKN100 TEMPO 1213/1217 1SM +TSRA BKN030CB FM121800 28014G23KT P6SM BKN050 FM122100 31011KT P6SM SKC FM130300 30006KT P6SM SKC", "KROW 121120Z 1212/1312 35011KT P6SM SKC FM121800 VRB06KT P6SM SKC", "KRSL 121132Z 1212/1312 34010KT P6SM SKC FM121700 29011KT P6SM SKC FM122000 31016G28KT P6SM FEW250 FM130300 32011KT P6SM FEW250", "KRST 121120Z 1212/1312 30014G22KT P6SM BKN090 FM121300 28012KT P6SM -SHRA BKN080 FM121500 27014KT P6SM SCT060 FM121700 27016G28KT P6SM VCSH BKN060 FM130000 29013KT P6SM SCT100", "KRSW 121129Z 1212/1312 07004KT P6SM FEW040 BKN200 FM121500 13008KT P6SM SCT040 BKN200 FM122000 25006KT P6SM VCTS BKN040CB OVC100 FM130200 VRB03KT P6SM BKN040 OVC100 FM130900 13005KT 6SM SHRA BKN040 OVC080", "KRUT 121130Z 1212/1312 14007KT P6SM FEW250 FM121600 19010KT P6SM SCT240 FM122100 17009G15KT P6SM SCT240 FM122300 14008KT P6SM SCT230 FM130400 16007KT P6SM BKN220", "KRVS 121306Z 1213/1312 28003KT P6SM BKN080 FM121500 35008KT P6SM SCT050 BKN120 FM121800 36011KT P6SM SKC FM130000 33005KT P6SM SKC", "KRWF 121120Z 1212/1312 28008KT P6SM FEW250 FM121500 30018G26KT P6SM SCT150 FM122000 30020G30KT P6SM SCT070 FM130400 31015KT P6SM FEW080", "KRWI 121120Z 1212/1312 00000KT 3SM BR BKN060 TEMPO 1212/1213 1 1/2SM BR FM121400 16005KT P6SM BKN060 BKN200 FM130000 16005KT P6SM OVC050 FM130900 19005KT P6SM OVC007", "KRWL 121122Z 1212/1312 26015G25KT P6SM SKC FM121800 28020G30KT P6SM SKC FM130100 28005KT P6SM SKC", "KRYY 121149Z 1212/1312 12006KT 5SM -DZ OVC005 FM121700 17009KT P6SM SHRA BKN009 TEMPO 1220/1224 4SM TSRA BR OVC004CB FM130700 19004KT 3SM BR VCSH BKN007 PROB30 1307/1310 2SM SHRA BR OVC005", "KSAC 121120Z 1212/1312 VRB05KT P6SM SKC", "KSAF 121120Z 1212/1312 VRB06KT P6SM SKC FM122000 29011KT P6SM SKC FM130100 33007KT P6SM SKC FM130500 36010KT P6SM SKC", "KSAN 121127Z 1212/1318 VRB04KT P6SM OVC016 FM121600 VRB04KT P6SM BKN022 FM121900 28009KT P6SM SCT022 SCT100 TEMPO 1223/1303 BKN018 FM130300 VRB04KT P6SM OVC015", "KSAT 121120Z 1212/1318 19004KT P6SM SCT007 BKN010 TEMPO 1212/1214 BKN008 FM121600 22007KT P6SM SCT060 FM130700 36007KT P6SM FEW250", "KSAV 121126Z 1212/1312 06006KT P6SM SCT030 SCT080 BKN200 FM121600 11009KT P6SM VCSH SCT025 OVC040 TEMPO 1219/1223 4SM SHRA BKN025 FM130200 09005KT 6SM SHRA BR OVC010 FM130500 VRB03KT 3SM SHRA BR OVC005", "KSAW 121120Z 1212/1312 19012G25KT 3SM BR VCTS OVC004CB FM121600 24012KT 3SM SHRA BR VCTS OVC006CB FM121800 29012G25KT 4SM SHRA BR VCTS OVC009CB FM122000 27009KT P6SM VCSH BKN015 FM122100 27008KT P6SM BKN045 FM130700 27006KT 6SM BR BKN022", "KSBA 121146Z 1212/1312 VRB03KT P6SM OVC006 FM121800 16007KT 6SM HZ BKN008 FM122000 23007KT P6SM SCT100 FM130200 VRB03KT 5SM BR OVC007", "KSBD 121127Z 1212/1312 25005KT 5SM BR OVC011 FM121700 VRB04KT 6SM HZ SCT015 SCT100 FM122100 26010KT P6SM SCT100 SCT150 FM130400 25005KT P6SM SCT150 FM131000 VRB05KT 5SM BR BKN010", "KSBM 121327Z 1213/1312 20014G24KT P6SM VCSH BKN029 FM121600 23019G27KT 6SM -SHRA BR VCTS OVC016CB FM121700 28018G27KT 6SM -SHRA BR OVC024 FM121900 29015G26KT P6SM VCSH SCT110 FM122300 21006KT P6SM SCT240 FM130000 27012G20KT P6SM -SHRA BKN070 FM130400 27008KT P6SM SCT070", "KSBN 121121Z 1212/1312 18013G25KT P6SM VCSH OVC060 WS020/21045KT FM121500 20018G33KT P6SM VCSH BKN060 WS020/21045KT FM121800 20020G32KT 4SM SHRA SCT015 OVC035 TEMPO 1219/1223 24025G37KT 2SM +SHRA OVC015 FM122300 25013G21KT 6SM -SHRA BR SCT015 BKN035 FM130030 28007KT P6SM SCT080", "KSBP 121305Z 1213/1312 VRB03KT 4SM BR OVC004 FM121700 VRB03KT 5SM BR SCT008 FM122100 30010KT P6SM SCT100 FM130200 30008KT P6SM OVC008", "KSBY 121311Z 1213/1312 00000KT P6SM FEW001 FM121500 17008KT P6SM SCT250 FM122000 19009KT P6SM BKN150 FM130900 17005KT P6SM BKN100", "KSCK 121120Z 1212/1312 30006KT P6SM SKC", "KSDF 121120Z 1212/1318 17007KT P6SM BKN200 FM121400 20015G25KT P6SM BKN100 FM122000 20015G25KT P6SM VCSH BKN070 PROB30 1221/1224 5SM -TSRA BKN040CB FM130100 24007KT P6SM VCSH BKN050 FM130500 27008KT P6SM SCT050 FM131300 27013G22KT P6SM SKC", "KSDL 121139Z 1212/1312 VRB03KT P6SM SKC FM122000 20004KT P6SM FEW120 FM130200 VRB03KT P6SM SKC", "KSDY 121120Z 1212/1312 30019KT P6SM SKC WS020/31050KT FM121500 30024G38KT P6SM FEW070 FM121800 31030G45KT P6SM FEW120 FM130100 31020G36KT P6SM FEW160 FM130600 31013G24KT P6SM FEW150", "KSEA 121300Z 1213/1318 03007KT P6SM FEW010 SCT250 TEMPO 1213/1215 2SM BR BKN004 FM121600 35005KT P6SM SKC FM121900 34007KT P6SM SKC FM130200 01004KT P6SM SKC", "KSEZ 121120Z 1212/1312 03009KT P6SM SKC FM121800 22005KT P6SM SKC FM130200 03009KT P6SM SKC", "KSFB 121121Z 1212/1312 04004KT P6SM SCT030 SCT050 BKN250 FM121400 11005KT P6SM SCT025 BKN150 FM121700 09005KT P6SM VCSH SCT025 BKN120 FM122000 11006KT P6SM VCTS SCT035CB BKN150 TEMPO 1221/1224 3SM TSRA BKN030CB FM130100 14005KT P6SM VCSH SCT035 BKN150", "KSFF 121120Z 1212/1312 VRB04KT P6SM SKC", "KSFO 121130Z 1212/1318 VRB04KT P6SM BKN008 FM121730 29008KT P6SM SKC FM122100 31018KT P6SM SKC FM130300 30010KT P6SM SKC FM130700 29007KT P6SM SCT008 FM131000 VRB04KT P6SM BKN006", "KSGF 121134Z 1212/1312 19011KT P6SM FEW090 TEMPO 1212/1214 33012G25KT 4SM TSRA BR OVC035CB FM121400 24010KT P6SM OVC070 FM121600 29012KT P6SM OVC035 FM121700 31012G20KT P6SM BKN080 FM130000 29006KT P6SM SKC", "KSGJ 121207Z 1212/1312 10006KT P6SM VCSH SCT025 BKN100 OVC200 TEMPO 1212/1214 5SM SHRA BKN020 OVC040 FM121800 11009KT P6SM VCSH SCT025 BKN050 BKN100 FM130100 VRB06KT 6SM -SHRA SCT020 BKN035 OVC050 PROB30 1304/1310 3SM SHRA SCT010 OVC020", "KSGR 121258Z 1213/1312 00000KT 5SM BR BKN070 FM121400 20007KT P6SM SCT040 FM130800 33006KT P6SM FEW020 SCT110", "KSGU 121120Z 1212/1312 VRB05KT P6SM SKC", "KSHR 121125Z 1212/1312 32017G25KT P6SM BKN070 FM130000 32010KT P6SM FEW250", "KSHV 121234Z 1213/1312 21006KT 1 1/2SM BR OVC004 TEMPO 1213/1215 1/4SM FG OVC002 FM121500 21008KT P6SM BKN015 FM121600 23010G15KT P6SM SCT035 BKN045 FM130000 24007KT P6SM VCTS BKN050CB BKN250 FM130400 34008KT P6SM SKC", "KSJC 121241Z 1213/1312 VRB03KT 6SM BR OVC009 FM121800 VRB05KT P6SM FEW014 FM122200 33010KT P6SM SKC FM130400 33005KT P6SM SKC FM130800 VRB03KT P6SM BKN013", "KSJS 121130Z 1212/1312 VRB05KT P6SM BKN120 FM121500 19007KT P6SM BKN090 FM121800 21008G17KT P6SM VCTS BKN080CB FM130600 20008KT P6SM SHRA VCTS OVC015CB FM131000 23006KT P6SM OVC015", "KSJT 121129Z 1212/1312 22008KT P6SM SKC FM121600 26013KT P6SM SKC FM121800 29012KT P6SM SKC FM122000 33012KT P6SM SKC FM130100 36007KT P6SM SKC", "TAF KSKA 121100Z 1211/1317 VRB06KT 9999 FEW220 QNH3020INS WND 33005KT AFT 1220 TX22/1222Z TN09/1211Z", "TAF KSKF 121100Z 1211/1316 18006KT 8000 BR BKN009 QNH2996INS TEMPO 1211/1214 BKN004 BECMG 1213/1214 24006KT 9999 NSW BKN017 BKN080 QNH3001INS BECMG 1215/1216 24009KT 9999 FEW100 FEW200 QNH2985INS BECMG 1304/1305 36006KT 9999 FEW200 QNH2989INS BECMG 1307/1308 03009KT 9999 SKC QNH2997INS TX33/1222Z TN19/1212Z", "KSLC 121120Z 1212/1318 16004KT P6SM FEW180 FM121700 33008KT P6SM SKC FM130400 15005KT P6SM SKC", "KSLE 121123Z 1212/1312 35004KT P6SM SKC", "TAF KSLI 121300Z 1213/1319 VRB06KT 4800 BR OVC004 QNH3004INS BECMG 1217/1218 VRB06KT 8000 BR SCT005 OVC012 QNH3009INS BECMG 1218/1219 VRB06KT 8000 BR BKN004 OVC012 QNH3009INS BECMG 1219/1220 VRB06KT 8000 BR BKN011 BKN019 BKN090 QNH3008INS BECMG 1220/1221 VRB06KT 8000 BR FEW011 FEW019 QNH3000INS BECMG 1309/1310 VRB06KT 8000 BR BKN004 OVC011 QNH2999INS BECMG 1318/1319 VRB06KT 8000 BR SCT004 BKN011 QNH2999INS TX23/1300Z TN17/1315Z", "KSLK 121130Z 1212/1312 VRB04KT P6SM FEW240 FM121500 22009G17KT P6SM BKN210 FM121800 20010G20KT P6SM SCT220 FM130100 18008G18KT P6SM BKN220 FM130800 18010G25KT P6SM SCT160 WS020/20040KT", "KSLN 121132Z 1212/1312 31008KT P6SM SKC FM121900 31012G20KT P6SM SKC FM130200 31010KT P6SM FEW250", "KSME 121130Z 1212/1312 18007KT P6SM VCSH SCT050 BKN150 FM121600 20011G23KT P6SM VCTS BKN080CB FM122200 21009KT P6SM SHRA VCTS BKN090CB FM130500 22007KT P6SM SHRA VCTS OVC020CB FM130900 23008KT P6SM VCSH OVC009", "KSMF 121120Z 1212/1312 18007KT P6SM SKC", "KSMN 121132Z 1212/1312 VRB04KT P6SM SKC", "KSMO 121306Z 1213/1312 VRB03KT P6SM SCT012 BKN050 FM121600 VRB03KT P6SM BKN020 FM122100 23008KT P6SM SCT025 FM130100 VRB03KT P6SM VCSH BKN015 FM130900 VRB03KT P6SM OVC020", "KSMX 121305Z 1213/1312 VRB03KT 5SM BR OVC004 FM121800 VRB03KT 4SM HZ BKN010 FM122100 31010KT P6SM SCT100 FM130100 31006KT P6SM BKN007 FM130300 VRB03KT P6SM BKN005 FM130600 VRB03KT 1SM BR OVC004", "KSNA 121127Z 1212/1312 VRB04KT P6SM OVC016 FM121600 VRB04KT P6SM BKN022 FM121900 23008KT P6SM SCT022 SCT100 FM130500 VRB04KT P6SM OVC015", "KSNS 121130Z 1212/1312 VRB04KT 6SM BR OVC007 FM121800 VRB05KT P6SM FEW010 FM122100 31013KT P6SM SKC FM130200 32007KT P6SM BKN009 FM130500 VRB05KT P6SM OVC007", "KSNY 121122Z 1212/1312 30010KT P6SM SKC FM121600 35022G32KT P6SM SKC FM130100 29010KT P6SM SKC", "KSOA 121129Z 1212/1312 19004KT P6SM SKC FM121500 23007KT P6SM SKC FM121800 27008KT P6SM SKC FM122100 31009KT P6SM SKC FM130000 36005KT P6SM SKC", "KSPI 121244Z 1213/1312 17012KT 6SM -SHRA VCTS BKN070CB WS020/22045KT FM121400 20014G22KT P6SM VCSH BKN040 OVC080 TEMPO 1214/1217 4SM -SHRA BKN025 FM121800 26013G21KT P6SM OVC018 FM122100 29013KT P6SM SCT110 FM130000 26006KT P6SM FEW250", "KSPS 121120Z 1212/1312 23014KT P6SM SKC WS020/24045KT FM121400 29016G24KT P6SM SKC FM121600 35019G27KT P6SM SKC FM130000 01008KT P6SM SKC", "KSRQ 121129Z 1212/1312 07006KT P6SM FEW040 BKN090 BKN200 FM121400 12007KT P6SM SCT040 BKN200 FM121900 29007KT P6SM VCTS BKN040CB OVC100 FM130200 VRB03KT P6SM BKN040 OVC100 FM130900 13005KT 6SM SHRA BKN040 OVC080", "TAF KSSC 120700Z 1207/1313 07006KT 9999 SCT025 OVC040 QNH3021INS BECMG 1216/1217 13010G15KT 9999 BKN035 OVC050 QNH3001INS BECMG 1302/1303 14009KT 8000 -TSRA OVC015CB QNH2991INS BECMG 1304/1305 13009KT 9999 NSW BKN025 OVC035 QNH2981INS TX25/1220Z TN16/1212Z", "KSSF 121120Z 1212/1312 19004KT P6SM SCT007 BKN010 TEMPO 1212/1214 BKN008 FM121600 22007KT P6SM SCT060 FM130700 36007KT P6SM FEW250", "KSSI 121304Z 1213/1312 08008KT 6SM SHRA VCTS SCT020 BKN035CB OVC050 TEMPO 1214/1218 2SM +TSRA SCT010 OVC020CB FM121900 11010KT P6SM VCSH SCT025 BKN050 OVC100 FM130300 VRB06KT 6SM SHRA SCT020 BKN035 OVC050 PROB30 1306/1312 3SM SHRA SCT010 OVC020", "KSTC 121120Z 1212/1312 29008KT P6SM FEW250 FM121600 29018G26KT P6SM BKN080 FM122000 30020G30KT P6SM BKN060 TEMPO 1220/1223 -SHRA FM130300 31012KT P6SM SCT150", "KSTJ 121129Z 1212/1312 31010KT P6SM BKN120 FM121500 29012G20KT P6SM SCT100 FM130500 VRB05KT P6SM SKC", "KSTL 121131Z 1212/1318 19009KT P6SM VCSH BKN060 FM121400 20009KT 6SM -SHRA VCTS BKN060CB FM121600 22010G18KT P6SM VCSH OVC070 FM121800 26011G18KT P6SM BKN050 FM122000 28010KT P6SM SCT100 FM131500 29015G25KT P6SM SKC", "KSTS 121217Z 1212/1312 00000KT 1 1/2SM BR OVC002 TEMPO 1212/1215 1/2SM FG VV002 FM121800 VRB04KT P6SM SKC FM122300 18008KT P6SM SKC FM130400 15004KT P6SM FEW005 FM130700 VRB03KT 6SM BR BKN005", "KSUA 121121Z 1212/1312 09004KT P6SM VCSH SCT025 SCT250 FM121400 11007KT P6SM SCT025 SCT120 FM121700 10008KT P6SM VCSH SCT030 SCT150 FM130100 12005KT P6SM VCSH SCT035 BKN120 AMD NOT SKED", "KSUN 121120Z 1212/1318 32009KT P6SM SKC FM121800 15010KT P6SM SKC FM130000 30006KT P6SM SKC FM130900 32011KT P6SM SKC AMD LTD TO CLD VIS AND WIND TIL 121400", "KSUS 121131Z 1212/1312 19007KT P6SM VCSH BKN060 FM121400 20009KT 6SM -SHRA VCTS BKN060CB FM121600 22010G18KT P6SM VCSH OVC070 FM121800 26011G18KT P6SM BKN050 FM122000 28008KT P6SM SCT100", "TAF KSUU 121100Z 1211/1317 23015G25KT 9999 SKC QNH2997INS BECMG 1213/1214 23012G18KT 9999 SKC QNH3000INS BECMG 1222/1223 23015G25KT 9999 SKC QNH2999INS TX30/1223Z TN10/1214Z", "KSUX 121127Z 1212/1312 29006KT P6SM FEW250 FM121600 27016G28KT P6SM FEW250 FM122100 31025G37KT P6SM BKN180 FM130000 30014G24KT P6SM FEW200 FM130800 28010G17KT P6SM FEW250", "TAF KSVN 1212/1318 09006KT 9999 VCSH SCT030 BKN200 QNH3008INS BECMG 1217/1218 10006KT 9999 VCTS BKN025CB OVC200 QNH3000INS TEMPO 1219/1224 10009KT 8000 SHRA BKN020 BECMG 1301/1302 10006KT 9999 VCSH BKN020 QNH2990INS TX26/1218Z TN19/1306Z", "KSWF 121122Z 1212/1318 22006KT P6SM SKC TEMPO 1212/1213 5SM BR FM121700 18010G16KT P6SM SCT250 FM122200 18007KT P6SM SCT250 FM130300 17006KT P6SM FEW020 BKN035 FM130800 16009KT P6SM BKN020 FM131600 15013G25KT 5SM -SHRA BKN020 AMD NOT SKED", "KSWO 121120Z 1212/1312 19008KT P6SM SCT070 BKN250 FM121400 35017G25KT P6SM BKN250 FM122000 34012G17KT P6SM SKC FM130000 34007KT P6SM SKC", "KSYM 121130Z 1212/1312 17006KT P6SM SCT050 BKN100 FM121700 20009G20KT P6SM VCTS BKN060CB FM130500 23007KT P6SM SHRA VCTS OVC015CB FM130900 26006KT P6SM -SHRA OVC007", "KSYR 121120Z 1212/1312 12006KT P6SM FEW200 FM121500 18009G15KT P6SM SCT200 FM121800 17015G24KT P6SM BKN150 FM130300 16008G17KT P6SM OVC080 FM130800 15012G24KT P6SM -RA OVC050", "TAF KSZL 121100Z 1211/1317 27015G25KT 8000 -SHRA VCTS OVC040CB QNH2975INS BECMG 1213/1214 31012G18KT 9999 NSW FEW080 SCT120 QNH2977INS BECMG 1221/1222 29009KT 9999 FEW100 QNH2978INS TX22/1221Z TN16/1211Z", "TAF AMD KTBN 120100Z 1121/1303 20010G25KT 9999 BKN100 QNH2995INS BECMG 1214/1215 23012G18KT 8000 -SHRA SCT015 BKN020 QNH2985INS BECMG 1217/1218 30012G18KT 9999 VCTS SCT030CB QNH2985INS BECMG 1222/1223 VRB06KT 9999 SKC QNH2989INS TX26/1122Z TN15/1212Z", "KTCC 121120Z 1212/1312 VRB06KT P6SM SKC", "KTCL 121221Z 1212/1312 VRB03KT P6SM VCSH SCT009 BKN045 FM121230 16005KT P6SM TSRA BKN012 BKN040CB FM121400 16007KT 6SM SHRA BR OVC008 TEMPO 1218/1221 2SM TSRA BR OVC010CB FM130300 VRB04KT 6SM SHRA BR VCTS BKN020CB FM130600 VRB04KT 6SM SHRA BR OVC009 PROB30 1306/1312 4SM TSRA BR OVC015CB", "TAF KTCM 121300Z 1213/1319 VRB06KT 9999 SKC QNH3020INS TEMPO 1214/1216 3200 BR BECMG 1216/1217 02009KT 9999 SKC QNH3020INS BECMG 1220/1221 02010G15KT 9999 SKC QNH3016INS BECMG 1311/1312 VRB04KT 2400 BR SKC QNH3016INS BECMG 1316/1317 04006KT 9999 NSW SKC QNH3016INS TX21/1221Z TN04/1213Z", "KTCS 121123Z 1212/1312 31010KT P6SM SKC FM121800 27008KT P6SM SKC FM130600 31008KT P6SM SKC", "KTEB 121122Z 1212/1318 21005KT P6SM FEW250 FM121700 18009G16KT P6SM SCT250 FM130300 17005KT P6SM FEW020 SCT100 OVC250 FM130600 16009KT P6SM FEW020 BKN035 FM131400 16016G26KT P6SM FEW020 BKN035 PROB30 1315/1318 5SM -SHRA BKN025", "KTEX 121120Z 1212/1312 15005KT P6SM SKC FM121900 30008KT P6SM SKC FM130200 13007KT P6SM SKC", "TAF KTIK 120900Z 1209/1315 18015KT 9999 BKN040 QNH2975INS BECMG 1214/1215 34015G20KT 9999 SKC 510052 QNH2993INS BECMG 1222/1223 05009KT 9999 SKC QNH2999INS TX25/1220Z TN17/1212Z", "KTIX 121121Z 1212/1312 06004KT P6SM SCT030 BKN250 FM121400 12006KT P6SM SCT030 BKN150 FM121600 10008KT P6SM VCSH SCT035 BKN150 FM122000 08008KT P6SM VCTS SCT040CB BKN150 FM130100 14004KT P6SM VCSH SCT035 BKN120", "KTLH 121135Z 1212/1312 09003KT 6SM BR SCT005 SCT070 TEMPO 1212/1214 OVC005 FM121600 13004KT P6SM BKN070 FM122100 19005KT P6SM -SHRA VCTS BKN025CB OVC050 FM130000 19005KT P6SM -RA VCTS BKN015CB OVC030 FM130600 VRB03KT 6SM BR FEW007 BKN050", "KTMB 121120Z 1212/1312 VRB05KT P6SM SCT025 FM121400 10008KT P6SM SCT020 SCT150 FM130200 VRB03KT P6SM BKN250 FM130600 VRB03KT P6SM VCSH SCT035 BKN250", "KTOI 121135Z 1212/1312 VRB03KT P6SM VCSH BKN070 FM130000 VRB04KT P6SM BKN030 PROB30 1300/1305 4SM TSRA BR OVC015CB FM130500 VRB04KT P6SM BKN012 PROB30 1305/1309 4SM TSRA BR OVC008CB FM130900 00000KT P6SM OVC024 PROB30 1309/1311 4SM SHRA BR OVC015 FM131100 VRB04KT 3SM BR BKN001 PROB30 1311/1312 2SM SHRA BR OVC002", "KTOL 121125Z 1212/1312 18009KT P6SM OVC080 FM121500 20012G20KT P6SM VCSH OVC070 FM122200 21018G28KT 6SM -SHRA SCT025 OVC060 FM130000 23014G22KT 4SM -SHRA OVC025 FM130300 27009KT P6SM VCSH OVC025 FM130600 26005KT P6SM BKN045", "KTOP 121120Z 1212/1312 31008KT P6SM SCT250 FM122000 30013G22KT P6SM SCT120 FM130400 28006KT P6SM SKC", "KTPA 121129Z 1212/1318 07004KT P6SM FEW040 BKN200 FM121500 12006KT P6SM SCT040 BKN200 FM121900 26006KT P6SM VCTS BKN040CB OVC100 FM130200 VRB03KT P6SM BKN040 OVC100 FM130900 15005KT 6SM SHRA BKN040 OVC080", "KTPH 121120Z 1212/1312 34010KT P6SM SKC", "KTRI 121120Z 1212/1312 00000KT P6SM SCT070 BKN150 FM121600 22009KT P6SM BKN070 FM130300 19004KT P6SM VCSH BKN050 FM130600 VRB03KT 6SM -SHRA BR OVC035", "KTRK 121149Z 1212/1312 00000KT P6SM SKC FM122100 05006KT P6SM FEW100 FM130300 VRB04KT P6SM FEW250", "KTRM 121127Z 1212/1312 33007KT P6SM SKC FM121900 14010KT P6SM SCT100 SCT150 FM130200 32006KT P6SM SKC", "KTTD 121123Z 1212/1312 09005KT P6SM SKC FM122000 09010KT P6SM SKC", "KTTN 121121Z 1212/1312 21005KT P6SM SCT250 FM121700 20007KT P6SM SCT200 FM130800 16005KT 5SM BR BKN070", "KTUL 121304Z 1213/1312 28009KT P6SM FEW040 BKN120 FM121500 32009KT P6SM SCT050 BKN120 FM121800 34012G20KT P6SM SKC FM130000 33005KT P6SM SKC", "KTUP 121136Z 1212/1312 19005KT P6SM SCT250 FM121600 20010G16KT P6SM VCSH BKN060 TEMPO 1222/1302 4SM TSRA BKN025CB OVC060 FM130300 27004KT P6SM VCSH SCT025 BKN060 FM130900 35005KT P6SM SCT100", "KTUS 121123Z 1212/1312 15007KT P6SM SKC FM122000 32007KT P6SM FEW100 FM130300 24005KT P6SM SCT250 FM130600 15006KT P6SM SCT250", "KTVC 121131Z 1212/1312 19010G22KT 6SM -SHRA BR OVC035 WS020/21045KT FM121400 19016G33KT P6SM VCSH OVC026 FM121800 20013G33KT 6SM -SHRA BR OVC015 FM122000 25012G27KT 6SM -SHRA BR OVC014 FM122200 25008G22KT 6SM -SHRA BR OVC050 FM130000 25006KT P6SM VCSH BKN060", "KTVF 121120Z 1212/1312 27009KT P6SM VCSH BKN080 TEMPO 1212/1214 -RA FM121400 29011G20KT P6SM VCSH BKN080 TEMPO 1214/1218 -RA FM121800 30018G25KT P6SM VCSH BKN050 FM130300 31011KT P6SM BKN050", "KTVL 121149Z 1212/1312 18004KT P6SM SKC FM121800 03004KT P6SM FEW100 FM131100 18004KT P6SM FEW250", "KTWF 121140Z 1212/1312 21012KT P6SM SKC FM121600 28009KT P6SM SKC FM130200 21010KT P6SM SKC", "KTXK 121140Z 1212/1312 19008KT P6SM FEW015 FM121600 23011G17KT P6SM SCT035 BKN045 FM130100 33008KT P6SM FEW050 SCT250 FM130300 36005KT P6SM SKC", "KTYR 121140Z 1212/1312 19009KT P6SM OVC008 FM121400 21010KT P6SM BKN015 FM121600 23013G20KT P6SM SCT035 BKN045 FM130100 35007KT P6SM SKC", "KTYS 121120Z 1212/1312 00000KT P6SM VCSH SCT060 OVC120 FM121600 23010G20KT P6SM BKN050 FM130000 24010KT P6SM VCSH BKN040 PROB30 1300/1304 4SM -SHRA BR OVC025 FM130400 22007KT 6SM -SHRA BR BKN020", "KUAO 121123Z 1212/1312 01004KT P6SM SKC", "KUES 121126Z 1212/1312 20015G24KT 6SM -SHRA VCTS BKN020 OVC050CB WS020/22045KT FM121500 22017G26KT 6SM SHRA BR VCTS OVC018CB FM121700 28015G26KT 6SM -SHRA BR OVC019 FM122000 29013G26KT P6SM SCT110 FM122300 20006KT P6SM SCT250 FM130100 27015G28KT P6SM -SHRA BKN070 FM130400 27008KT P6SM SCT070", "KUIN 121148Z 1212/1312 24010KT 6SM -SHRA BKN050 FM121500 28011KT P6SM BKN080 FM130600 28009KT P6SM FEW250", "KUKI 121147Z 1212/1312 00000KT P6SM SKC FM122200 27006KT P6SM SKC FM130100 VRB03KT P6SM SKC", "KUNV 121120Z 1212/1312 VRB03KT P6SM SCT250 FM121500 18008G15KT P6SM BKN120 OVC200 FM130500 17004KT P6SM OVC050 FM130700 17004KT P6SM -RA OVC025 WS020/20035KT", "KUTS 121238Z 1213/1312 17005KT 3SM BR OVC002 FM121400 21007KT P6SM SCT030 FM130600 33005KT P6SM FEW200", "TAF AMD KVAD 121030Z 1210/1314 08006KT 8000 BR OVC005 QNH3011INS BECMG 1213/1214 10006KT 9999 NSW BKN010 BKN150 QNH3010INS BECMG 1217/1218 16006KT 9999 BKN030 BKN150 QNH2987INS TEMPO 1220/1224 24015G25KT 4800 -TSRA BKN030CB BECMG 1310/1312 25006KT 0800 FG OVC002 QNH2988INS TX27/1222Z TN19/1212Z", "TAF KVBG 120615Z 1206/1312 VRB06KT 4800 -DZ BR OVC001 QNH3008INS BECMG 1207/1208 VRB06KT 9000 BR OVC004 QNH3009INS BECMG 1213/1214 34006KT 9999 NSW OVC005 QNH3011INS BECMG 1216/1217 34006KT 9999 BKN008 BKN100 QNH3011INS BECMG 1219/1220 32009KT 9999 SCT009 BKN100 QNH3009INS BECMG 1221/1222 32009KT 9999 VCSH SCT009 SCT015 BKN100 QNH3007INS TEMPO 1223/1301 9000 -SHRA SCT009 BKN015 OVC100 BECMG 1303/1304 VRB06KT 9999 NSW OVC006 QNH3008INS BECMG 1305/1306 VRB06KT 8000 BR OVC004 QNH3008INS BECMG 1307/1308 VRB06KT 4800 -DZ BR OVC003 QNH3010INS TX17/1221Z TN13/1212Z LAST NO AMDS AFT 1206 NEXT 1212", "KVCT 121120Z 1212/1312 VRB03KT 3SM BR BKN015 TEMPO 1212/1213 1/2SM FG VV002 FM121300 18009KT P6SM FEW025 SCT050 FM130800 33007KT P6SM FEW250", "KVEL 121120Z 1212/1312 06005KT P6SM SKC FM130200 33007KT P6SM SKC", "KVGT 121122Z 1212/1312 32007KT P6SM SKC FM121800 08006KT P6SM FEW120 FM130300 30007KT P6SM SKC", "KVIS 121120Z 1212/1312 30004KT P6SM SKC FM130000 30005KT P6SM FEW120 SCT200", "KVLD 121257Z 1213/1312 08004KT P6SM OVC010 TEMPO 1213/1214 2SM BR OVC002 FM121500 12005KT P6SM SCT050 FM122200 09006KT 6SM -SHRA VCTS BKN025CB FM130000 14004KT 6SM -TSRA FEW007 BKN015CB OVC030 FM130500 VRB03KT 4SM BR FEW007 BKN040", "KVNY 121327Z 1213/1312 VRB03KT P6SM SCT012 FM122000 16010KT P6SM SCT100 FM130100 VRB03KT P6SM VCSH BKN015 FM130900 VRB03KT P6SM BKN018", "TAF AMD KVOK 121245Z 1212/1315 29015G20KT 9999 BKN019 BKN050 QNH2952INS BECMG 1213/1214 29015G20KT 9000 -SHRA BKN019 BKN085 QNH2951INS BECMG 1217/1218 28020G25KT 9999 NSW BKN020 QNH2958INS BECMG 1220/1221 27009KT 9999 FEW060 SCT080 QNH2959INS TX19/1220Z TN05/1309Z", "TAF KVPS 120910Z 1209/1315 05006KT 9999 SCT045 BKN130 QNH3006INS BECMG 1213/1214 09010KT 9999 VCSH BKN035 QNH3001INS BECMG 1217/1218 14012KT 9000 -SHRA VCTS BKN015CB QNH2996INS TEMPO 1220/1300 15010G15KT 8000 -TSRA SCT010 BKN015CB OVC025 BECMG 1300/1301 17010KT 9999 NSW FEW010 BKN022 BKN080 QNH2990INS BECMG 1312/1313 29008KT 9000 -SHRA BKN010 OVC022 QNH2989INS TX26/1219Z TN20/1212Z", "KVQQ 121130Z 1212/1312 07004KT P6SM VCSH SCT020 BKN035 OVC050 TEMPO 1212/1214 5SM SHRA BKN020 OVC035 FM121800 10006KT P6SM VCSH SCT035 BKN070 BKN150 FM130300 VRB02KT 6SM -SHRA SCT020 BKN035 OVC050 PROB30 1306/1312 3SM SHRA SCT010 OVC020", "KVRB 121121Z 1212/1312 07004KT P6SM VCSH SCT030 SCT250 FM121400 12006KT P6SM SCT030 BKN200 FM121700 09007KT P6SM VCSH SCT035 BKN150 FM122100 10007KT P6SM VCTS SCT035CB BKN150 FM130100 12005KT P6SM VCSH SCT035 BKN120", "KVTN 121120Z 1212/1312 28010KT P6SM SCT110 FM121600 31020G30KT P6SM BKN110 FM121900 31026G40KT P6SM FEW250 FM130100 31015KT P6SM FEW250", "KWJF 121157Z 1212/1312 VRB03KT P6SM SKC FM122000 23010KT P6SM VCTS BKN100CB FM130100 22015G20KT P6SM VCTS BKN100CB FM130600 VRB03KT P6SM BKN250", "KWMC 121120Z 1212/1312 VRB06KT P6SM SKC", "TAF AMD KWRB 121225Z 1212/1314 12006KT 9999 OVC009 QNH3012INS TEMPO 1212/1214 OVC010 BECMG 1213/1214 12006KT 9999 OVC010 QNH3008INS BECMG 1217/1218 10010KT 8000 -SHRA VCTS BKN020CB BKN085 OVC150 QNH2992INS TEMPO 1220/1304 11010G30KT 4800 -TSRA BKN025CB OVC055 BECMG 1311/1312 23006KT 6000 BR BKN010 QNH2995INS TEMPO 1312/1314 VRB05KT 4800 BR OVC006 BECMG 1313/1314 32012G25KT 9999 NSW SCT025 BKN250 QNH2995INS TX24/1218Z TN21/1212Z", "TAF KWRI 121000Z 1210/1316 VRB03KT 9999 FEW250 QNH3026INS BECMG 1214/1215 21010G15KT 9999 SCT200 QNH3025INS BECMG 1221/1222 19008KT 9999 FEW030 BKN200 QNH3010INS BECMG 1307/1308 18010G18KT 9000 RA SCT010 BKN030 QNH2991INS TX21/1218Z TN07/1211Z", "KWRL 121120Z 1212/1312 VRB06KT P6SM SKC FM121800 34008KT P6SM SKC FM130100 VRB05KT P6SM SKC", "KWWR 121120Z 1212/1312 36012KT P6SM SKC FM121400 35015G25KT P6SM SKC FM121800 34011G17KT P6SM SKC FM122300 34006KT P6SM SKC", "KWYS 121125Z 1212/1312 VRB06KT P6SM SCT100", "KXNA 121303Z 1213/1312 20012KT P6SM VCSH BKN100 TEMPO 1213/1217 1SM +TSRA BKN030CB FM121800 30010KT P6SM BKN250 FM122100 32011KT P6SM SKC FM130300 32005KT P6SM SKC", "KXWA 121127Z 1212/1312 30020G27KT P6SM SKC TEMPO 1212/1214 -RA BKN070 OVC100 FM121400 31026G39KT P6SM FEW050 FM121700 31032G46KT P6SM SKC FM130000 31024G39KT P6SM FEW300 FM130200 31017G28KT P6SM FEW300", "KYIP 121120Z 1212/1312 17010KT P6SM -SHRA SCT035 OVC070 FM121400 21013G20KT P6SM SCT025 BKN045 OVC100 FM121700 21020G30KT P6SM SCT045 BKN100 OVC250 TEMPO 1222/1302 25025G40KT 2SM SHRA OVC015 FM130200 25013G20KT P6SM SCT100 BKN250 FM131000 25009KT P6SM BKN025", "KYKM 121120Z 1212/1312 29005KT P6SM SKC FM122100 12005KT P6SM SKC FM130300 28005KT P6SM SKC", "KYNG 121125Z 1212/1312 17007KT P6SM BKN250 FM121800 19011KT P6SM BKN100 FM122300 17010KT P6SM VCSH OVC060 FM130200 17012KT 6SM -SHRA SCT015 OVC050 FM130400 19012KT 4SM -SHRA SCT008 OVC015", "KZZV 121126Z 1212/1312 17004KT P6SM BKN250 FM121600 19010G18KT P6SM BKN100 FM130400 19007KT 5SM -RA OVC020 WS020/21045KT FM130600 20007KT 2SM -RA OVC007 FM131000 26005KT 5SM BR BKN007", "TAF LATI 121100Z 1212/1312 VRB05KT 9999 SCT025 OVC080 TX22/1212Z TN15/1304Z BECMG 1310/1312 RA", "TAF LBBG 121100Z 1212/1312 08012KT 9999 SCT050 BECMG 1218/1220 VRB04KT BECMG 1307/1309 06010KT", "TAF LBGO 121100Z 1212/1312 VRB04KT 9999 SCT030 BKN060 TEMPO 1302/1306 3000 BR BKN010", "TAF LBPD 121100Z 1212/1312 VRB04KT 9999 SCT040 BKN080", "TAF LBSF 121100Z 1212/1312 11007KT 8000 FEW015 SCT020 BKN050 PROB40 TEMPO 1212/1214 4000 DZ SCT010 OVC016 TEMPO 1302/1305 3000 BR", "TAF LBWN 121100Z 1212/1312 08010KT 9999 SCT050 BECMG 1218/1220 VRB04KT BECMG 1308/1310 09010KT", "TAF LCEN 121040Z 1212/1312 31012KT 9999 FEW030 BKN200", "TAF LCLK 121130Z 1212/1312 19012KT 9999 FEW030 BECMG 1216/1219 31008KT BECMG 1309/1312 19012KT", "TAF LCPH 121130Z 1212/1312 31012KT 9999 FEW020 BECMG 1217/1220 01008KT BECMG 1309/1312 28011KT", "TAF LCRA 121036Z 1212/1306 27012KT 9999 FEW030", "TAF LDDU 121125Z 1212/1312 20006KT 9999 SCT040 TX22/1212Z TN15/1304Z TEMPO 1213/1217 29007KT BECMG 1217/1219 09008KT PROB40 TEMPO 1309/1312 11010KT RA", "TAF LDOS 121125Z 1212/1312 35005KT CAVOK TX20/1214Z TN11/1304Z PROB40 TEMPO 1300/1310 3500 BR BKN005 PROB30 1302/1308 0200 FG VV001", "TAF LDPL 121125Z 1212/1312 07012KT CAVOK TX22/1214Z TN13/1304Z BECMG 1212/1214 06006KT", "TAF LDRI 121125Z 1212/1312 06008KT CAVOK TX23/1213Z TN15/1304Z BECMG 1308/1310 32007KT", "TAF LDSP 121125Z 1212/1312 23007KT CAVOK TX24/1212Z TN15/1304Z BECMG 1215/1217 33004KT", "TAF LDZA 121125Z 1212/1312 04004KT CAVOK TX19/1213Z TN08/1304Z PROB40 1302/1310 3000 BR BKN005", "TAF LDZD 121125Z 1212/1312 30008KT CAVOK TX23/1212Z TN11/1304Z BECMG 1216/1218 07006KT", "TAF LEAB 121100Z 1212/1312 VRB05KT 9999 FEW015 TX22/1215Z TN07/1306Z TEMPO 1219/1224 12006KT TEMPO 1222/1309 1500 BR BCFG BKN003 PROB40 TEMPO 1303/1308 0300 FG VV001", "TAF LEAG 120800Z 1209/1309 07010KT 9999 SCT020 BKN035 TX22/1215Z TN20/1306Z PROB30 TEMPO 1209/1213 BKN010 BECMG 1219/1221 VRB02KT BECMG 1223/1301 07010KT PROB40 TEMPO 1300/1308 BKN010", "TAF LEAL 121100Z 1212/1312 09010KT 9999 FEW040 TX26/1212Z TN16/1305Z TEMPO 1212/1213 33007KT BECMG 1220/1222 30005KT TEMPO 1310/1312 09010KT", "TAF LEAM 121100Z 1212/1312 09015KT 9999 FEW035 TX28/1214Z TN19/1306Z PROB30 TEMPO 1214/1217 09015G25KT BECMG 1223/1301 03007KT", "TAF LEAO 120800Z 1209/1309 07007KT CAVOK TX25/1214Z TN09/1306Z", "TAF LEAS 120800Z 1209/1309 VRB03KT 9999 SCT015 BKN025 TX19/1213Z TN12/1305Z TEMPO 1210/1218 06010KT PROB40 TEMPO 1303/1309 3000 BCFG BKN005 PROB30 TEMPO 1303/1309 0800 BCFG BKN002", "TAF LEBA 120800Z 1209/1309 07003KT CAVOK TX29/1215Z TN15/1306Z PROB40 TEMPO 1219/1222 21010KT", "TAF LEBB 121100Z 1212/1312 31009KT 9999 SCT015 BKN030 TX19/1214Z TN12/1306Z PROB30 TEMPO 1212/1218 3000 RA BKN010 PROB30 TEMPO 1218/1306 3000 BR BKN010 BECMG 1218/1220 VRB02KT", "TAF LEBG 120800Z 1209/1309 06008KT 9999 SCT007 TX20/1215Z TN09/1306Z PROB40 TEMPO 1209/1211 BKN007", "TAF LEBL 121100Z 1212/1312 09010KT 9999 FEW025 TX26/1312Z TN18/1306Z BECMG 1218/1221 33006KT BECMG 1308/1311 09010KT", "TAF LEBR 120800Z 1209/1309 32009KT 9999 FEW020 SCT040 TX21/1215Z TN11/1305Z", "TAF LEBZ 120800Z 1209/1309 05004KT CAVOK TX29/1215Z TN14/1306Z", "TAF COR LECO 120834Z 1209/1309 VRB03KT 9999 FEW024 TX20/1213Z TN13/1307Z PROB40 TEMPO 1209/1211 1500 BCFG BKN010 PROB30 TEMPO 1209/1210 0350 BCFG BKN001 BECMG 1209/1212 01010KT BECMG 1218/1220 VRB03KT TEMPO 1300/1308 0350 FG VV001", "TAF LECV 121100Z 1212/1312 VRB04KT 9999 FEW040 TX20/1215Z TN11/1306Z TEMPO 1219/1307 03006KT", "TAF LEGA 121100Z 1212/1312 VRB02KT CAVOK TX25/1215Z TN11/1306Z PROB30 TEMPO 1213/1217 RA FEW050CB SCT075 BECMG 1214/1216 18010KT BECMG 1219/1221 VRB02KT", "TAF LEGE 121100Z 1212/1312 02010KT 9999 FEW040 TX25/1213Z TN12/1305Z PROB30 TEMPO 1215/1218 SHRA FEW030TCU BECMG 1218/1220 35005KT PROB30 TEMPO 1300/1306 3000 BR BKN010", "TAF LEGR 121100Z 1212/1312 VRB02KT 9999 FEW045 TX26/1215Z TN10/1306Z PROB30 TEMPO 1214/1217 FEW050CB SCT075 BECMG 1215/1217 21010KT BECMG 1217/1221 VRB02KT", "TAF LEGT 121100Z 1212/1312 03006KT CAVOK TX24/1215Z TN12/1306Z", "TAF LEHC 120800Z 1209/1309 27009KT 9999 FEW020 TX23/1213Z TN12/1305Z PROB30 TEMPO 1212/1216 SHRA FEW040TCU", "TAF LEIB 120800Z 1209/1309 02010KT 9999 SCT040 TX24/1212Z TN18/1305Z PROB40 TEMPO 1209/1212 02015G25KT 4000 SHRA FEW020CB", "TAF LEJR 120800Z 1209/1309 VRB02KT 9999 FEW045 TX28/1214Z TN15/1306Z BECMG 1213/1215 18010KT BECMG 1219/1221 VRB02KT", "TAF LELC 121100Z 1212/1312 06016KT 9999 SCT025 TX25/1213Z TN18/1306Z PROB30 TEMPO 1217/1221 06015G25KT BECMG 1301/1303 34009KT", "TAF LELL 120800Z 1209/1309 VRB03KT 9999 FEW020 SCT025 TX24/1213Z TN13/1305Z TEMPO 1213/1215 14010KT PROB40 TEMPO 1216/1218 SHRA FEW040TCU", "TAF LELN 120800Z 1209/1309 VRB04KT 9999 SCT030 TX21/1214Z TN06/1307Z", "TAF LELO 120800Z 1209/1309 27005KT 9999 SCT050 BKN060 TX22/1214Z TN10/1306Z", "TAF LEMD 121100Z 1212/1318 03006KT CAVOK TX25/1315Z TN12/1306Z PROB30 TEMPO 1312/1318 18010KT", "TAF LEMG 121100Z 1212/1312 13007KT 9999 SCT030 TX25/1213Z TN17/1306Z BECMG 1217/1219 VRB02KT BECMG 1221/1223 29006KT", "TAF LEMH 120800Z 1209/1309 02010KT 9999 SCT020 TX22/1212Z TN16/1305Z TEMPO 1209/1213 3000 SHRA FEW020TCU PROB30 TEMPO 1209/1212 02015G25KT 1500 TS +SHRA BKN010 SCT020CB", "TAF LEMO 120800Z 1209/1309 VRB02KT 9999 FEW045 TX28/1215Z TN15/1306Z BECMG 1217/1219 24010KT BECMG 1221/1224 VRB02KT", "TAF LEPA 121100Z 1212/1312 05012KT 9999 FEW025 TX26/1213Z TN18/1306Z BECMG 1218/1220 VRB03KT BECMG 1309/1312 07008KT", "TAF LEPP 120800Z 1209/1309 36009KT 9999 FEW020 BKN030 TX18/1215Z TN11/1305Z", "TAF LERI 121100Z 1212/1312 VRB02KT 9999 SCT035 TX26/1214Z TN14/1306Z BECMG 1214/1216 08010KT BECMG 1219/1221 VRB02KT", "TAF LERL 120800Z 1209/1309 06005KT CAVOK TX25/1214Z TN09/1306Z", "TAF LERS 120800Z 1209/1309 VRB03KT 9999 FEW020 TX25/1212Z TN15/1305Z TEMPO 1212/1218 18010KT", "TAF LERT 120800Z 1209/1309 07005KT 9999 FEW045 TX27/1213Z TN17/1306Z BECMG 1211/1214 25010KT BECMG 1218/1220 VRB02KT", "TAF AMD LESA 120827Z 1209/1309 06004KT CAVOK TX23/1215Z TN06/1306Z PROB30 TEMPO 1209/1210 0500 FG BKN002 TEMPO 1209/1211 1500 BR BKN002", "TAF LESO 121100Z 1212/1312 VRB05KT 9999 SCT015 BKN030 TX19/1213Z TN16/1306Z PROB30 TEMPO 1212/1222 3000 RA BKN010 PROB30 TEMPO 1222/1306 3000 BR BKN010 PROB40 TEMPO 1212/1218 27010KT", "TAF LEST 121100Z 1212/1312 02009KT 9999 SCT025 TX20/1214Z TN11/1306Z PROB40 TEMPO 1220/1224 3000 BR BCFG BKN010 PROB40 TEMPO 1220/1224 0800 BCFG BKN002 TEMPO 1300/1310 0800 BCFG BKN002 TEMPO 1300/1310 0350 FG VV001", "TAF LETO 121100Z 1212/1312 VRB05KT CAVOK TX24/1215Z TN10/1306Z", "TAF LEVC 121100Z 1212/1312 07010KT 9999 FEW040 TX25/1212Z TN15/1305Z PROB30 TEMPO 1214/1218 SHRA FEW040TCU BECMG 1218/1220 30005KT TEMPO 1310/1312 13010KT", "TAF LEVD 120800Z 1209/1309 07008KT CAVOK TX23/1215Z TN08/1306Z", "TAF LEVS 121100Z 1212/1312 VRB05KT CAVOK TX23/1215Z TN11/1306Z", "TAF LEVT 121100Z 1212/1312 01009KT 9999 SCT020 BKN030 TX17/1214Z TN12/1306Z PROB30 TEMPO 1212/1215 3000 RA BKN010 PROB40 TEMPO 1300/1310 3000 BCFG BKN010 PROB40 TEMPO 1300/1309 0350 FG VV001", "TAF LEVX 121100Z 1212/1312 VRB05KT 9999 SCT012 TX24/1214Z TN14/1306Z PROB30 TEMPO 1212/1218 31010KT PROB30 TEMPO 1304/1307 3000 BCFG BKN010 PROB30 TEMPO 1304/1307 0800 BCFG BKN002 BKN005", "TAF LEXJ 120800Z 1209/1309 VRB05KT 9999 FEW015 BKN020 TX19/1215Z TN13/1306Z PROB40 TEMPO 1209/1214 3000 RA BKN012 PROB30 TEMPO 1210/1217 03010KT", "TAF LEZG 121100Z 1212/1312 30010KT 9999 FEW040 TX25/1213Z TN12/1305Z BECMG 1303/1306 VRB03KT", "TAF LEZL 120800Z 1209/1309 09003KT 9999 FEW045 TX29/1215Z TN16/1306Z BECMG 1217/1219 22010KT BECMG 1221/1224 VRB02KT", "TAF LFAQ 121100Z 1212/1221 18005KT CAVOK", "TAF LFAT 121100Z 1212/1221 14005KT CAVOK", "TAF LFBA 121100Z 1212/1221 32004KT 9999 BKN010 BECMG 1212/1214 SCT020 PROB40 TEMPO 1212/1218 FEW030TCU", "TAF LFBC 120800Z 1209/1309 03005KT 9999 SCT005 BKN045 BECMG 1209/1211 BKN010 BECMG 1211/1213 BKN014 BECMG 1213/1215 SCT015 BECMG 1220/1222 4000 BR PROB40 TEMPO 1301/1306 0600 FG VV/// BECMG 1306/1308 8000 NSW", "TAF LFBD 121100Z 1212/1318 34005KT 9999 FEW020 TX20/1214Z TN12/1305Z BECMG 1220/1222 VRB02KT BECMG 1222/1224 3000 BR PROB40 1300/1306 0400 FG VV/// BECMG 1307/1309 9999 NSW BKN020 BECMG 1312/1314 23010KT CAVOK", "TAF AMD LFBE 121140Z 1212/1312 30005KT CAVOK BECMG 1222/1224 3000 BR TEMPO 1300/1309 VRB02KT 0300 FG VV/// BECMG 1309/1311 9999 NSW SCT010 ", "TAF LFBG 120800Z 1209/1309 36005KT 3000 BR OVC003 BECMG 1210/1212 9999 NSW BKN006 BECMG 1212/1214 SCT020 BECMG 1215/1217 SCT030 BECMG 1222/1224 0800 FG BECMG 1308/1309 5000 NSW", "TAF LFBH 121100Z 1212/1312 20006KT CAVOK TEMPO 1220/1308 2000 BR BKN005 PROB40 TEMPO 1222/1304 0500 FG VV/// BECMG 1309/1312 20012KT -RA BKN015", "TAF LFBI 121100Z 1212/1312 VRB05KT 9999 BKN018 TEMPO 1222/1308 2000 BR PROB30 TEMPO 1300/1306 0500 FG VV/// TEMPO 1306/1309 BKN004 BECMG 1309/1311 20010KT", "TAF LFBL 121100Z 1212/1312 30005KT 8000 BKN008 BECMG 1212/1214 SCT020 BECMG 1300/1302 VRB02KT 3000 BR PROB40 1303/1309 0300 FG VV/// BECMG 1309/1311 21010KT 9999 NSW SCT010", "TAF LFBM 120800Z 1209/1309 VRB02KT 2000 BR BKN002 BECMG 1209/1210 9999 NSW BKN007 BECMG 1212/1214 BKN030 BECMG 1303/1306 0800 FG", "TAF LFBO 121100Z 1212/1318 VRB03KT CAVOK PROB40 TEMPO 1302/1308 4000 BR OVC004 PROB30 TEMPO 1304/1307 0500 FG VV/// BECMG 1308/1310 SCT010 BKN025", "TAF LFBP 121100Z 1212/1312 34004KT 9999 SCT014 BKN050 PROB30 TEMPO 1212/1218 -SHRA SCT020TCU BECMG 1218/1220 BKN007 PROB30 TEMPO 1220/1224 4000 -DZ OVC003 BECMG 1300/1302 VRB02KT 3000 BR OVC002 PROB30 TEMPO 1302/1307 0500 FG VV/// BECMG 1307/1309 9999 NSW BKN009 BECMG 1310/1312 SCT015", "TAF LFBT 121100Z 1212/1312 VRB03KT 9999 SCT020 BKN050 PROB30 TEMPO 1212/1218 4000 SHRA SCT030TCU BECMG 1218/1220 BKN008 TEMPO 1222/1307 4000 BR OVC003 BECMG 1308/1310 SCT020", "TAF LFBU 121100Z 1212/1312 36005KT 9999 BKN008 BECMG 1212/1214 BKN020 BECMG 1215/1217 CAVOK BECMG 1223/1301 VRB02KT 3000 BR PROB40 1301/1308 0300 FG VV/// BECMG 1308/1310 20010KT 9999 NSW BKN005 BECMG 1310/1312 BKN012", "TAF LFBZ 121100Z 1212/1312 32010KT 9999 SCT015 BKN030 PROB30 TEMPO 1212/1215 5000 -RA BKN010 OVC030 BECMG 1219/1221 18005KT TEMPO 1221/1306 BKN008 BECMG 1307/1309 09010KT CAVOK", "TAF AMD LFCK 121311Z 1213/1221 27004KT CAVOK TEMPO 1213/1218 SHRA SCT040TCU FEW050CB", "TAF LFCR 121100Z 1212/1312 29005KT 9999 SCT025 PROB30 TEMPO 1212/1218 4000 SHRA SCT025TCU FEW030CB BECMG 1218/1220 VRB03KT CAVOK BECMG 1301/1303 3000 BR BKN003 PROB40 TEMPO 1302/1307 0400 FG VV/// BECMG 1307/1309 9999 NSW BKN007 BECMG 1309/1311 BKN020", "TAF LFGJ 121100Z 1212/1221 VRB03KT 7000 OVC004 BECMG 1212/1215 BKN020 ", "TAF LFJL 121100Z 1212/1312 10003KT 9999 BKN009 BECMG 1212/1214 SCT025 TEMPO 1221/1305 3000 BR PROB30 TEMPO 1302/1306 BKN014 BECMG 1308/1311 20010KT FEW030TCU", "TAF LFKB 120800Z 1209/1309 10007KT 9999 FEW020 TX23/1211Z TN14/1304Z TEMPO 1211/1216 FEW030CB PROB30 TEMPO 1216/1219 TSRA SCT030CB BKN060 BECMG 1219/1221 24004KT PROB30 TEMPO 1223/1303 TSRA BKN020 FEW030CB", "TAF LFKC 120800Z 1209/1309 18004KT CAVOK TX23/1211Z TN14/1305Z TEMPO 1209/1215 35006KT TEMPO 1212/1224 FEW050CB PROB30 TEMPO 1213/1216 SHRA SCT040CB BKN070 BECMG 1308/1309 36006KT", "TAF AMD LFKF 121200Z 1212/1309 06010KT 9999 -RA SCT030 BKN080 TEMPO 1212/1305 2000 +RA SCT013 BKN030 SCT040TCU FEW050CB BECMG 1215/1217 05005KT PROB40 TEMPO 1221/1303 2000 TSRA BKN020 SCT040CB", "TAF LFKJ 120800Z 1209/1309 04005KT 9999 FEW040 BKN090 TEMPO 1210/1215 22006KT TEMPO 1209/1303 SHRA FEW040CB BKN060 PROB30 TEMPO 1223/1303 TSRA SCT040CB", "TAF LFKS 120800Z 1209/1309 27004KT 9999 FEW025 BKN080 OVC210 BECMG 1211/1212 15010KT TEMPO 1213/1217 RA TEMPO 1218/1303 4000 SHRA FEW016 SCT030TCU OVC080", "TAF LFLB 120800Z 1209/1309 36004KT 9999 BKN020 PROB40 TEMPO 1209/1211 BKN012 BECMG 1212/1214 SCT030 TEMPO 1214/1217 FEW040TCU TEMPO 1222/1309 2000 BR BKN012 PROB40 TEMPO 1303/1308 OVC006", "TAF LFLC 121100Z 1212/1312 VRB03KT 9999 BKN020 TEMPO 1220/1306 3000 BR BKN009 PROB30 TEMPO 1302/1306 0600 FG VV/// BECMG 1304/1306 18006KT", "TAF LFLL 121100Z 1212/1318 34004KT 8000 BKN012 BECMG 1212/1214 9999 SCT020 PROB40 TEMPO 1216/1221 CAVOK BECMG 1221/1223 BKN012 PROB40 TEMPO 1222/1310 0500 FG VV/// BECMG 1312/1314 SCT030 BECMG 1316/1318 BKN030", "TAF LFLN 121100Z 1212/1221 31004KT 9999 FEW010", "TAF LFLP 120800Z 1209/1309 VRB02KT 9999 BKN016 PROB40 TEMPO 1209/1211 BKN009 BECMG 1211/1213 SCT025 TEMPO 1213/1217 FEW035TCU TEMPO 1223/1309 2000 BR BKN006 PROB40 TEMPO 1303/1308 OVC003", "TAF AMD LFLS 121237Z 1212/1309 04004KT 9999 SCT030 BECMG 1219/1221 3000 BR TEMPO 1222/1308 0400 FG VV///", "TAF AMD LFLW 121217Z 1212/1221 30008KT 9999 SCT025 TEMPO 1212/1216 FEW030TCU PROB40 TEMPO 1213/1216 4000 SHRA FEW025CB SCT030TCU", "TAF LFLX 121100Z 1212/1318 VRB03KT 9999 SCT030 PROB40 TEMPO 1223/1308 4000 BR PROB30 1304/1307 0800 FG BECMG 1308/1310 24010KT", "TAF LFLY 121100Z 1212/1312 34004KT 8000 BKN012 BECMG 1212/1214 9999 SCT020 BECMG 1221/1223 BKN012 PROB40 TEMPO 1301/1310 0500 FG VV///", "TAF LFMD 120800Z 1209/1309 VRB03KT CAVOK BECMG 1209/1211 12010KT BECMG 1215/1217 VRB03KT", "TAF LFMI 120800Z 1209/1309 03004KT CAVOK TX25/1212Z TN12/1306Z TEMPO 1304/1307 2000 BR", "TAF AMD LFMK 121036Z 1210/1309 VRB02KT CAVOK TEMPO 1210/1218 FEW040CB PROB30 TEMPO 1211/1218 -SHRA PROB30 TEMPO 1302/1307 4000 BR BKN013", "TAF LFML 120800Z 1209/1315 27004KT CAVOK TX24/1213Z TN14/1305Z", "TAF LFMN 120800Z 1209/1315 33005KT CAVOK BECMG 1209/1211 10010KT BECMG 1215/1217 VRB03KT BECMG 1219/1221 33010KT BECMG 1309/1311 19010KT", "TAF LFMO 120800Z 1209/1309 30005KT CAVOK TX24/1215Z TN12/1306Z TEMPO 1212/1218 SCT060TCU PROB30 TEMPO 1306/1308 4000 BR", "TAF LFMP 120800Z 1209/1309 VRB04KT CAVOK BECMG 1210/1212 10007KT BECMG 1220/1222 30010KT BECMG 1303/1305 25005KT", "TAF LFMT 120800Z 1209/1309 02006KT CAVOK BECMG 1211/1213 18007KT BECMG 1218/1220 33005KT", "TAF LFMU 120800Z 1209/1309 28005KT CAVOK BECMG 1211/1213 17006KT PROB30 TEMPO 1214/1216 FEW045CB BECMG 1217/1219 27005KT", "TAF LFMV 120800Z 1209/1309 35004KT CAVOK PROB40 TEMPO 1302/1306 0300 FG VV///", "TAF LFMY 120800Z 1209/1309 VRB03KT CAVOK TX25/1213Z TN11/1305Z PROB30 TEMPO 1213/1218 4000 -SHRA SCT040TCU", "TAF AMD LFOA 121051Z 1210/1309 VRB02KT 9999 OVC025 TX18/1214Z TN10/1304Z PROB40 TEMPO 1221/1309 2000 BR BKN002 PROB30 TEMPO 1300/1306 0500 FG VV///", "TAF LFOB 121100Z 1212/1312 24007KT CAVOK TEMPO 1302/1306 4000 RA TEMPO 1306/1312 3000 RA BKN014", "TAF LFOE 120800Z 1209/1309 VRB03KT 9999 SCT035 BECMG 1210/1212 28005KT SCT025 BECMG 1217/1219 22005KT PROB40 TEMPO 1302/1306 4000 RA BKN035 OVC080", "TAF LFOH 121100Z 1212/1312 20006KT 9999 SCT040 TEMPO 1300/1303 4000 RA TEMPO 1303/1306 4000 RA BKN014 TEMPO 1306/1312 3000 DZRA BKN006 OVC011", "TAF LFOJ 120800Z 1209/1309 36005KT CAVOK TX20/1214Z TN11/1305Z", "TAF LFOK 121100Z 1212/1312 VRB03KT CAVOK BECMG 1218/1220 19010KT", "TAF LFOP 121100Z 1212/1312 22005KT CAVOK TEMPO 1303/1306 4000 RA TEMPO 1308/1312 3000 DZRA BKN006 OVC011", "TAF LFOT 121100Z 1212/1312 VRB03KT 9999 SCT030 PROB30 TEMPO 1304/1307 3000 BR BECMG 1307/1309 22010KT BKN015", "TAF LFPB 121100Z 1212/1312 21005KT 9999 SCT040 PROB40 TEMPO 1304/1312 4000 -RA BKN014", "TAF LFPG 121100Z 1212/1318 21005KT 9999 SCT040 TX20/1215Z TN11/1302Z PROB40 TEMPO 1304/1318 4000 -RA BKN012", "TAF LFPN 121100Z 1212/1221 VRB03KT 9999 SCT030", "TAF LFPO 121100Z 1212/1318 VRB04KT 9999 SCT035 BECMG 1307/1309 23010KT", "TAF LFPV 120800Z 1209/1309 26005KT CAVOK TX19/1215Z TN09/1305Z FM121800 24010KT CAVOK", "TAF LFQQ 121100Z 1212/1318 20007KT CAVOK TEMPO 1303/1308 3000 RA BKN007 OVC013 PROB30 1314/1318 BKN014", "TAF LFRB 121100Z 1212/1318 20010KT 9999 BKN030 BECMG 1216/1218 BKN013 PROB40 TEMPO 1218/1223 4000 RA BKN009 TEMPO 1223/1313 3000 RA BKN004 TEMPO 1306/1313 24015G25KT PROB40 TEMPO 1306/1318 1500 DZRA BKN002 BECMG 1316/1318 26010KT", "TAF LFRC 121100Z 1212/1221 23010KT 9999 BKN020 TEMPO 1212/1213 BKN012 ", "TAF LFRD 121100Z 1212/1312 VRB05KT 9999 BKN020 TEMPO 1213/1217 34010KT BECMG 1303/1306 21010KT TEMPO 1302/1312 4000 RA BKN008", "TAF LFRG 121100Z 1212/1221 22007KT 9999 SCT030", "TAF LFRH 121100Z 1212/1312 26010KT 9999 SCT020 BKN040 BECMG 1220/1222 SCT015 BKN040 TEMPO 1302/1308 -RA BKN008 OVC015 BECMG 1307/1309 20010KT 3000 RA BKN004 OVC008", "TAF LFRI 121100Z 1212/1312 20004KT 9999 BKN030 BECMG 1219/1221 2000 BR PROB40 TEMPO 1221/1306 0500 FG VV/// TEMPO 1306/1309 BKN004 BECMG 1309/1311 20010KT 9999 RA BKN014", "TAF LFRJ 121100Z 1212/1221 23010KT 9999 BKN020 BECMG 1216/1218 BKN010", "TAF LFRK 121100Z 1212/1221 21010KT 9999 BKN030", "TAF AMD LFRL 121105Z 1212/1312 25008KT 9999 BKN025 BECMG 1215/1217 OVC010 TEMPO 1217/1312 4000 -RADZ BKN005 BECMG 1223/1301 22015G25KT TEMPO 1301/1312 2500 RADZ BKN003", "TAF LFRM 121100Z 1212/1312 VRB03KT CAVOK PROB40 TEMPO 1300/1308 3000 BR BKN008 BECMG 1309/1312 20012KT 4500 -RA BKN014", "TAF LFRN 121100Z 1212/1312 VRB05KT 9999 BKN030 TEMPO 1213/1218 24010KT TEMPO 1302/1309 3000 BR BKN008 PROB30 TEMPO 1302/1306 0800 FG PROB40 TEMPO 1309/1312 4000 RA BKN008", "TAF LFRQ 121100Z 1212/1312 VRB05KT 9999 BKN025 TEMPO 1213/1218 24010KT BECMG 1218/1221 BKN013 TEMPO 1300/1312 4000 RA BKN006 BECMG 1301/1303 22010KT PROB40 TEMPO 1306/1312 2000 RA BKN004 PROB30 TEMPO 1309/1312 21015G25KT", "TAF LFRS 121100Z 1212/1318 24006KT 9999 SCT020 TEMPO 1219/1305 2000 BR BKN006 PROB30 TEMPO 1220/1303 0500 FG VV/// BECMG 1306/1309 20012KT 4500 RA BKN016 BKN060 TEMPO 1309/1312 BKN010 TEMPO 1312/1318 22015G25KT 2000 RA BKN004", "TAF LFRZ 121100Z 1212/1312 24008KT 9999 SCT025 TEMPO 1218/1303 2000 BR BKN005 BECMG 1304/1306 22012KT 4000 -RA BKN015 TEMPO 1306/1312 BKN010", "TAF LFSB 121100Z 1212/1312 35005KT 9999 BKN025 TEMPO 1221/1306 3000 BR PROB30 TEMPO 1300/1308 BKN012", "TAF LFSI 120800Z 1209/1309 VRB03KT CAVOK", "TAF AMD LFSL 121309Z 1213/1221 VRB03KT CAVOK PROB40 TEMPO 1213/1215 -SHRA SCT030TCU", "TAF LFSO 120800Z 1209/1309 VRB02KT CAVOK BECMG 1303/1305 21010KT", "TAF LFST 121100Z 1212/1312 VRB03KT 9999 FEW025 TEMPO 1220/1308 3000 BR PROB40 TEMPO 1300/1307 0400 FG VV/// PROB30 TEMPO 1307/1310 BKN003 BECMG 1310/1312 18010KT", "TAF LFSX 120800Z 1209/1309 VRB02KT 3000 BR BKN005 BECMG 1210/1212 9999 NSW SCT015 BECMG 1222/1224 4000 BR BKN014 TEMPO 1302/1306 0500 FG VV///", "TAF LFTH 120800Z 1209/1309 35005KT CAVOK BECMG 1209/1211 09010KT TEMPO 1212/1216 FEW030TCU BECMG 1218/1220 35005KT", "TAF LFTW 120800Z 1209/1309 03008KT CAVOK", "TAF LFVP 121100Z 1212/1221 28015KT 9999 SCT025 BECMG 1213/1215 26010KT BECMG 1217/1219 CAVOK", "TAF LFYR 120800Z 1209/1309 VRB02KT CAVOK BECMG 1221/1223 3000 BR BKN006 TEMPO 1223/1308 0600 FG VV/// BECMG 1308/1309 22005KT 8000 NSW BKN012", "TAF LGAD 121100Z 1212/1221 32010KT 9999 FEW020 BECMG 1219/1221 VRB03KT", "TAF LGAL 121100Z 1212/1221 06015KT 9999 FEW025", "TAF LGAV 121100Z 1212/1312 03015KT 9999 FEW020 SCT070 TEMPO 1212/1215 03015G25KT BECMG 1221/1223 36012KT FEW020", "TAF LGBL 121100Z 1212/1221 11010KT 9999 SCT025 BKN080 BECMG 1219/1221 28006KT", "TAF LGEL 121100Z 1212/1312 35010KT 9999 SCT025 PROB30 TEMPO 1212/1215 18010KT BECMG 1221/1223 FEW020", "TAF LGHI 121100Z 1212/1221 02010KT 9999 FEW025 TEMPO 1212/1221 02012G22KT", "TAF LGIO 121100Z 1212/1221 VRB03KT 9999 SCT025 BKN080 TEMPO 1212/1217 5000 RA FEW010 BKN025 OVC080 PROB40 TEMPO 1212/1216 SCT008 FEW018CB BKN020 OVC070 BECMG 1217/1219 FEW025", "TAF LGIR 121100Z 1212/1312 31012KT 9999 FEW012 SCT020 PROB30 TEMPO 1212/1216 5000 RA SCT010 FEW018TCU BKN020", "TAF LGKC 121100Z 1212/1221 06010KT 9999 FEW018TCU SCT020", "TAF AMD LGKF 121111Z 1211/1221 VRB05KT 9999 FEW014 PROB30 TEMPO 1211/1215 5000 RA SCT010 FEW018TCU BKN020 BECMG 1214/1216 34008KT", "TAF LGKL 121100Z 1212/1221 16012KT 9999 FEW025 SCT080 PROB30 TEMPO 1212/1215 5000 RA SCT020 BKN080 BECMG 1216/1218 34008KT", "TAF LGKO 121100Z 1212/1312 33015KT 9999 FEW015 TEMPO 1215/1312 33015G25KT", "TAF LGKP 121100Z 1212/1221 32017G27KT 9999 SCT020", "TAF LGKR 121100Z 1212/1312 VRB05KT 9999 FEW010 BKN025 PROB30 TEMPO 1212/1217 5000 RA FEW010 FEW018TCU BKN020 BECMG 1305/1307 17010KT PROB30 TEMPO 1309/1312 5000 RA FEW010 FEW018TCU BKN020", "TAF LGKV 121100Z 1212/1312 06010KT 9999 FEW025 SCT080 BECMG 1216/1218 FEW025", "TAF LGLM 121100Z 1212/1221 04015KT 9999 FEW018 TEMPO 1212/1221 04015G25KT", "TAF LGLR 121100Z 1212/1221 10010KT 9999 SCT025 BKN080 BECMG 1219/1221 VRB03KT", "TAF LGMK 121100Z 1212/1221 36018KT 9999 FEW012 TEMPO 1212/1218 35018G28KT", "TAF LGMT 121100Z 1212/1221 35010KT 9999 FEW020 TEMPO 1212/1218 35012G22KT", "TAF LGPZ 121100Z 1212/1312 VRB05KT 9999 FEW020 PROB30 TEMPO 1212/1216 5000 RA FEW010 FEW018TCU BKN020 PROB30 1221/1303 2000 BR SCT006 BKN020 PROB30 TEMPO 1309/1312 5000 RA FEW010 FEW018TCU BKN020", "TAF LGRP 121100Z 1212/1312 27012KT 9999 FEW010 TEMPO 1215/1312 27015G25KT", "TAF LGRX 121100Z 1212/1221 30010KT 9999 FEW020 BECMG 1219/1221 VRB03KT", "TAF LGSA 121100Z 1212/1312 36010KT 9999 FEW015 SCT020 PROB40 TEMPO 1212/1216 5000 RA SCT010 BKN020", "TAF LGSK 121100Z 1212/1221 03010KT 9999 FEW010 BKN025 PROB30 TEMPO 1212/1215 5000 RA SCT008 BKN020", "TAF LGSM 121100Z 1212/1221 35012KT 9999 FEW020 TEMPO 1212/1218 35012G22KT", "TAF LGSR 121100Z 1212/1312 35018KT 9999 FEW025", "TAF LGST 121100Z 1212/1221 30015KT 9999 FEW015 SCT020 TEMPO 1212/1221 29018G28KT PROB30 TEMPO 1212/1215 5000 RA SCT012 FEW018TCU BKN020", "TAF LGSY 121100Z 1212/1221 02015KT 9999 FEW020", "TAF LGTG 121100Z 1212/1221 01010KT 9999 SCT020 SCT070", "TAF LGTL 121100Z 1212/1221 01012KT 9999 SCT020 SCT080 PROB30 TEMPO 1212/1215 5000 RA FEW010 SCT020 BKN080", "TAF LGTS 121100Z 1212/1312 VRB03KT 9999 SCT025 PROB30 TEMPO 1302/1307 5000 BR SCT008 SCT020", "TAF LGZA 121100Z 1212/1221 VRB05KT 9999 SCT018 BECMG 1213/1215 35008KT", "TAF LHBP 121115Z 1212/1312 11005KT CAVOK TEMPO 1212/1309 VRB03KT SCT038 BKN110", "TAF LHDC 121115Z 1212/1221 02008KT CAVOK", "TAF LHKE 121115Z 1212/1221 06008KT CAVOK BECMG 1216/1218 03004KT", "TAF LHPA 121115Z 1212/1312 VRB03KT CAVOK TEMPO 1212/1216 9999 SCT030 SCT080 BKN200 TEMPO 1220/1224 5000 BR NSC BECMG 1300/1303 3000 BR MIFG BKN020 TEMPO 1303/1306 0300 FG VV002 BECMG 1306/1309 9999 NSW SCT025 BKN200 BECMG 1309/1312 20005KT", "TAF LHPP 121115Z 1212/1221 09008KT CAVOK TEMPO 1212/1216 SCT035 BKN060 BECMG 1218/1221 03005KT", "TAF LHPR 121115Z 1212/1221 VRB03KT CAVOK TEMPO 1212/1216 SCT035 BKN083 PROB40 TEMPO 1218/1221 4000 BR MIFG", "TAF LHSM 121115Z 1212/1221 VRB03KT CAVOK TEMPO 1212/1216 SCT040 BKN200 TEMPO 1218/1221 5000 BR MIFG", "TAF LHSN 121115Z 1212/1221 07007KT CAVOK BECMG 1212/1215 02005KT", "TAF LIBA 121100Z 1212/1221 09010KT 9999 SCT030", "TAF LIBC 121100Z 1212/1312 34008KT CAVOK TEMPO 1303/1306 RA TEMPO 1306/1312 TSRA BECMG 1306/1308 22015KT", "TAF LIBD 121100Z 1212/1312 35012KT 9999 SCT020 BECMG 1216/1218 VRB05KT TEMPO 1306/1312 RA", "TAF LIBF 121100Z 1212/1312 34012KT 9999 FEW030 BECMG 1216/1218 VRB05KT TEMPO 1303/1312 SHRA BECMG 1306/1308 06010KT", "TAF LIBG 121100Z 1212/1221 35008KT 9999 SCT020", "TAF LIBN 121100Z 1212/1221 33010KT 9999 SCT020 SCT035 TEMPO 1212/1215 FEW015TCU SCT025", "TAF LIBP 121100Z 1212/1312 05010KT 9999 SCT020 BECMG 1216/1218 VRB05KT TEMPO 1300/1309 SHRA TEMPO 1309/1312 TSRA", "TAF LIBR 121100Z 1212/1312 32012KT 9999 SCT020 TEMPO 1306/1312 RA BECMG 1306/1308 18010KT", "TAF LIBV 121100Z 1212/1221 36010KT 9999 SCT025 BECMG 1218/1220 VRB03KT 6000 NSC", "TAF LICA 121100Z 1212/1312 07011KT 9999 SCT020 TEMPO 1306/1312 SHRA", "TAF LICB 121100Z 1212/1312 26010KT 9999 SCT030 TEMPO 1215/1218 SHRA BECMG 1216/1218 VRB05KT TEMPO 1309/1312 TSRA", "TAF LICC 121100Z 1212/1312 08010KT 9999 SCT030 TEMPO 1215/1218 SHRA BECMG 1216/1218 VRB05KT TEMPO 1310/1312 SHRA", "TAF LICD 121100Z 1212/1312 10012KT 9999 SCT020 TEMPO 1214/1220 SHRA", "TAF LICG 121100Z 1212/1221 16013KT 9999 SCT020", "TAF LICJ 121100Z 1212/1312 05010KT 9999 SCT030 TEMPO 1215/1218 4000 SHRA BECMG 1216/1218 19012KT TEMPO 1218/1309 TSRA", "TAF LICR 121100Z 1212/1312 19012KT 9999 SCT030 BECMG 1216/1218 VRB05KT TEMPO 1306/1312 SHRA", "TAF LICT 121100Z 1212/1221 17015KT 9999 FEW020 TEMPO 1215/1221 5000 RA TSRA FEW015CB BKN018", "TAF LICZ 121100Z 1212/1312 09010KT 9999 SCT025 SCT080 BECMG 1219/1221 27006KT TEMPO 1308/1312 4000 TSRA FEW015CB BKN030", "TAF LIEA 121100Z 1212/1312 04010KT 9999 SCT025 TEMPO 1212/1220 TSRA", "TAF AMD LIED 121200Z 1212/1221 21008KT 9999 SCT015 SCT060 TEMPO 1213/1216 BKN015", "TAF LIEE 121100Z 1212/1312 VRB06KT 9999 SCT030 BECMG 1212/1214 16012KT TEMPO 1212/1214 4000 TSRA BECMG 1216/1218 VRB05KT", "TAF LIEO 121100Z 1212/1312 08011KT 9999 SCT030 TEMPO 1212/1221 TSRA BECMG 1218/1220 02012KT TEMPO 1221/1303 RA", "TAF LIMC 121100Z 1212/1318 VRB05KT 9999 SCT050", "TAF LIME 121100Z 1212/1312 VRB05KT 9999 SCT040", "TAF LIMF 121100Z 1212/1312 VRB05KT 9999 SCT050", "TAF COR LIMG 121119Z 1212/1312 07012KT CAVOK BECMG 1216/1218 VRB05KT", "TAF LIMJ 121100Z 1212/1312 02013KT 9999 FEW040", "TAF LIML 121100Z 1212/1312 VRB05KT 9999 SCT050", "TAF LIMN 121100Z 1212/1221 05005KT CAVOK", "TAF LIMP 121100Z 1212/1312 VRB05KT 9999 FEW040 TEMPO 1301/1307 3000 BR", "TAF LIMW 121100Z 1212/1221 10012KT 8000 BKN070 TEMPO 1213/1218 RA BECMG 1217/1219 VRB05KT", "TAF LIMZ 121100Z 1212/1312 VRB05KT 9999 SCT030", "TAF LIPA 121100Z 1212/1221 07005KT CAVOK", "TAF LIPB 121100Z 1212/1312 VRB05KT CAVOK", "TAF LIPC 121100Z 1212/1221 05008KT CAVOK", "TAF LIPE 121100Z 1212/1312 VRB05KT CAVOK TEMPO 1300/1306 4000 BR", "TAF LIPH 121100Z 1212/1312 08008KT CAVOK", "TAF LIPI 121100Z 1212/1221 VRB03KT CAVOK TEMPO 1212/1216 9999 FEW035", "TAF AMD LIPK 121301Z 1213/1312 VRB05KT CAVOK TEMPO 1300/1306 3000 BR", "TAF LIPL 121100Z 1212/1221 11005KT CAVOK", "TAF LIPO 121100Z 1212/1312 VRB05KT 9999 SCT040", "TAF LIPQ 121100Z 1212/1312 08008KT CAVOK", "TAF LIPR 121100Z 1212/1312 VRB05KT CAVOK", "TAF LIPS 121100Z 1212/1221 06006KT CAVOK", "TAF LIPX 121100Z 1212/1312 VRB05KT 9999 SCT050", "TAF LIPY 121100Z 1212/1312 VRB05KT 9999 SCT030 BECMG 1306/1308 34010KT TEMPO 1308/1312 RA", "TAF LIPZ 121100Z 1212/1318 09010KT CAVOK BECMG 1216/1218 03006KT BECMG 1308/1310 10010KT", "TAF LIQW 121100Z 1212/1221 30005KT CAVOK", "TAF LIRA 121100Z 1212/1312 20010KT 9999 SCT040 PROB40 TEMPO 1212/1216 SHRA FEW020CB BECMG 1214/1217 VRB05KT TEMPO 1300/1309 4000 TSRA FEW020CB", "TAF LIRE 121100Z 1212/1221 18012KT 9999 SCT020 SCT070 BECMG 1217/1219 VRB05KT RA", "TAF LIRF 121100Z 1212/1318 19010KT 9999 SCT030 BECMG 1218/1220 VRB05KT TEMPO 1220/1303 4000 SHRA FEW020CB TEMPO 1303/1312 4000 TSRA SCT016CB BECMG 1306/1308 06010KT BECMG 1314/1316 35010KT", "TAF LIRG 121100Z 1212/1221 VRB03KT 9999 SCT030 TEMPO 1212/1217 RA PROB30 TEMPO 1214/1217 5000 SHRA FEW025TCU", "TAF LIRH 121100Z 1212/1221 15005KT 9999 SCT040 PROB40 TEMPO 1212/1215 FEW035CB", "TAF LIRL 121100Z 1212/1221 18008KT 9999 SCT025 SCT070 BECMG 1217/1219 7000 RA", "TAF LIRM 120800Z 1209/1218 03005KT 9999 FEW050", "TAF LIRN 121100Z 1212/1312 VRB05KT 9999 SCT040 BECMG 1212/1214 21010KT BECMG 1216/1218 VRB05KT TEMPO 1300/1308 4000 SHRA BKN014 TEMPO 1308/1312 TSRA", "TAF LIRP 121100Z 1212/1312 12008KT CAVOK", "TAF LIRQ 121100Z 1212/1312 VRB05KT 9999 FEW050 BECMG 1212/1214 05010KT BECMG 1216/1218 VRB05KT BECMG 1310/1312 04010KT", "TAF LIRS 121100Z 1212/1221 24005KT 9999 FEW018CB PROB30 TEMPO 1214/1217 SHRA FEW018CB BKN020", "TAF LIRU 121100Z 1212/1221 VRB05KT 9999 FEW030 PROB30 TEMPO 1215/1218 RA", "TAF LIRV 121100Z 1212/1221 VRB02KT 9999 SCT025 SCT060 TEMPO 1212/1221 22010KT 5000 SHRA FEW020CB BKN030", "TAF LIRZ 121100Z 1212/1312 VRB05KT 9999 SCT030 TEMPO 1218/1306 4000 SHRA BECMG 1310/1312 03010KT", "TAF LJCE 121100Z 1212/1221 VRB02KT 9999 FEW005", "TAF LJLJ 121100Z 1212/1312 VRB02KT 9999 FEW030 PROB30 TEMPO 1213/1216 -SHRA BKN030TCU PROB40 1303/1307 0400 FG VV001", "TAF LJMB 121100Z 1212/1312 VRB02KT CAVOK", "TAF LJPZ 121100Z 1212/1221 VRB02KT CAVOK", "TAF LKKB 121100Z 1212/1312 06006KT CAVOK BECMG 1220/1222 14006KT TEMPO 1302/1306 VRB02KT 4000 MIFG BR BECMG 1306/1308 21006KT", "TAF LKKV 121100Z 1212/1318 12004KT 9999 SCT030 BECMG 1218/1220 5000 BR NSC TEMPO 1220/1307 2000 MIFG SCT004 PROB30 TEMPO 1300/1306 0700 FG BKN003 BECMG 1307/1310 26006KT 9999 SCT027 TEMPO 1316/1318 8000 RA BKN017", "TAF LKMT 121100Z 1212/1318 VRB02KT CAVOK TEMPO 1212/1220 05007KT 9999 SCT030 BECMG 1222/1300 3000 BR SCT004 TEMPO 1300/1307 1200 BCFG BKN003 PROB40 TEMPO 1301/1306 0500 FG OVC002 BECMG 1307/1310 23008KT 9999 SCT027", "TAF LKNA 121100Z 1212/1312 07007KT CAVOK BECMG 1304/1306 17002KT OVC012", "TAF LKPD 121100Z 1212/1312 11006KT CAVOK PROB40 TEMPO 1300/1306 VRB02KT 4000 MIFG BR", "TAF LKPR 121100Z 1212/1318 08005KT 9999 SCT045 TEMPO 1212/1217 BKN040 BECMG 1218/1220 18004KT TEMPO 1300/1307 3500 BR SCT003 BECMG 1316/1318 24006KT 9999 BKN027", "TAF LKTB 121100Z 1212/1318 08008KT CAVOK TEMPO 1212/1217 9999 BKN035 BECMG 1222/1300 VRB02KT 9999 BKN025", "TAF LLBG 121103Z 1212/1312 32012KT 9999 SCT035 TEMPO 1212/1216 BKN035 BECMG 1216/1218 VRB04KT SCT030 TEMPO 1221/1304 14005KT BKN030 BECMG 1307/1309 29010KT 9999 SCT035 TX28/1212Z TN20/1303Z", "TAF LLER 121101Z 1212/1312 36015KT CAVOK BECMG 1219/1221 36010KT BECMG 1306/1308 36015KT TX32/1212Z TN22/1304Z", "TAF LLHA 121105Z 1212/1312 33012KT 9999 SCT025 BECMG 1216/1218 34006KT SCT030 PROB40 TEMPO 1300/1306 24006KT 9000 -RA BKN025 BECMG 1306/1308 28010KT PROB40 TEMPO 1308/1312 -RA BKN028 TX27/1212Z TN21/1303Z", "TAF LLHZ 121103Z 1212/1312 32010KT 9999 SCT030 BECMG 1215/1217 VRB04KT PROB40 TEMPO 1300/1307 -RA BKN028 BECMG 1307/1309 29010KT PROB40 TEMPO 1309/1312 -RA BKN028 TX28/1212Z TN20/1303Z", "TAF LLIB 121106Z 1212/1312 VRB04KT CAVOK FM121300 34010KT CAVOK BECMG 1219/1221 VRB04KT 9999 SCT030 BECMG 1305/1307 16006KT 9999 SCT035 PROB30 TEMPO 1307/1312 9999 -RA BKN030 TX30/1212Z TN17/1303Z", "TAF LMML 121100Z 1212/1312 14012KT 9999 SCT015 PROB40 TEMPO 1212/1220 BKN015 TEMPO 1220/1310 BKN014 BECMG 1309/1312 20012KT", "TAF LOAN 121125Z 1212/1221 05005KT CAVOK", "TAF LOAV 121125Z 1212/1221 05005KT CAVOK", "TAF LOWG 121115Z 1212/1312 15004KT 9999 SCT030 TX18/1213Z TN08/1305Z TEMPO 1222/1308 0700 BCFG PROB40 1300/1307 0100 FG VV001 PROB30 TEMPO 1307/1309 2000 BCFG BKN004", "TAF LOWI 121115Z 1212/1312 VRB03KT 9999 FEW030 SCT080 TX19/1214Z TN06/1305Z TEMPO 1212/1218 07007KT TEMPO 1300/1307 BKN009", "TAF LOWK 121115Z 1212/1312 VRB04KT 9999 FEW030 SCT040 TX18/1214Z TN09/1305Z BECMG 1222/1300 0500 BCFG PROB30 TEMPO 1300/1306 0300 FG VV002 BECMG 1306/1308 CAVOK PROB30 1306/1310 9999 BKN007", "TAF LOWL 121115Z 1212/1312 08007KT CAVOK TX16/1214Z TN08/1305Z BECMG 1217/1219 VRB03KT TEMPO 1221/1223 1200 BCFG BECMG 1300/1302 0900 FG OVC002 PROB30 TEMPO 1303/1307 0500 VV001 BECMG 1308/1310 08005KT 4000 FEW002 BKN007 FM131100 09007KT CAVOK", "TAF LOWS 121115Z 1212/1312 33004KT 9999 FEW015 BKN090 TX16/1312Z TN07/1305Z BECMG 1216/1218 15004KT TEMPO 1219/1302 4000 BKN012 PROB40 TEMPO 1302/1309 0700 FG BKN002 BECMG 1308/1310 34004KT", "TAF LOWW 121115Z 1212/1318 VRB03KT CAVOK TX16/1314Z TN09/1302Z BECMG 1301/1303 0900 FG OVC002 PROB30 TEMPO 1303/1307 0500 VV001 BECMG 1307/1309 4000 FEW002 BKN007 FM131100 14007KT CAVOK", "TAF LOXA 121115Z 1212/1221 VRB03KT 9999 FEW020 SCT060 PROB30 TEMPO 1212/1214 -SHRA FEW015 BKN060", "TAF LOXN 121115Z 1212/1221 03004KT 9999 FEW050 SCT080", "TAF LOXT 121115Z 1212/1221 08004KT 9999 FEW050 SCT080", "TAF LOXZ 121115Z 1212/1221 VRB03KT 9999 FEW040 BKN050 TEMPO 1212/1217 -SHRA FEW030TCU BKN040", "TAF LPAR 121109Z 1212/1221 VRB02KT CAVOK BECMG 1213/1216 34012KT TEMPO 1216/1221 34012G22KT", "TAF LPAZ 121100Z 1212/1318 VRB05KT 9999 FEW020 BKN030 TEMPO 1212/1318 SCT025 BECMG 1311/1313 14008KT", "TAF LPBJ 121103Z 1212/1312 VRB02KT CAVOK TEMPO 1218/1223 33010KT", "TAF LPCS 121100Z 1212/1221 35012KT 9999 FEW015", "TAF LPFR 121100Z 1212/1312 21007KT CAVOK BECMG 1217/1219 VRB02KT BECMG 1303/1305 03005KT BECMG 1309/1311 13008KT", "TAF LPHR 121100Z 1212/1221 VRB05KT 9999 FEW015 BKN030 BECMG 1212/1215 21007KT TEMPO 1212/1221 SCT018", "TAF LPLA 121100Z 1212/1312 VRB05KT 9999 SCT020 BECMG 1212/1214 16008KT", "TAF LPMA 121100Z 1212/1312 01013KT 9999 SCT015 TEMPO 1212/1221 01018G30KT PROB30 TEMPO 1212/1224 6000 -RA SCT008 BKN013", "TAF LPMR 121102Z 1212/1312 34008KT 9999 FEW020 BECMG 1219/1222 VRB02KT 7000 SCT008 PROB40 1222/1310 0500 FG BKN002 BECMG 1310/1312 34008KT 9999 FEW020", "TAF LPMT 121103Z 1212/1312 36007KT CAVOK TEMPO 1216/1221 33015KT", "TAF LPOV 121102Z 1212/1312 34008KT 9999 FEW020 BECMG 1220/1223 VRB02KT 8000 FEW006 PROB40 1300/1310 0600 FG BKN002", "TAF LPPD 121100Z 1212/1312 VRB05KT 9999 FEW020 BKN030 TEMPO 1212/1312 SCT025", "TAF LPPR 121100Z 1212/1312 32008KT CAVOK BECMG 1218/1220 VRB02KT BECMG 1221/1224 5000 BR SCT008 TEMPO 1300/1308 3000 BCFG BR SCT002 PROB30 TEMPO 1302/1308 0200 FG VV001 BECMG 1308/1311 32008KT CAVOK", "TAF LPPS 121100Z 1212/1318 02013KT 9999 SCT015 TEMPO 1212/1318 FEW015 BKN030", "TAF LPPT 121100Z 1212/1318 04007KT CAVOK BECMG 1214/1217 32012KT BECMG 1221/1224 34007KT 9999 FEW012 BECMG 1308/1311 06007KT CAVOK BECMG 1313/1316 32010KT", "TAF LPST 121109Z 1212/1221 35010KT 9999 FEW015 TEMPO 1216/1221 33012G22KT", "TAF LQBK 121100Z 1212/1312 03005KT 9999 SCT035 TX20/1213Z TN10/1304Z BECMG 1220/1223 2000 BR BKN005 PROB40 1300/1307 0200 FG BKN002 BECMG 1308/1310 6000 NSW SCT012", "TAF LQMO 121100Z 1212/1312 32006KT 9999 FEW050 TX25/1213Z TN11/1304Z", "TAF LQSA 121100Z 1212/1312 VRB02KT 7000 BKN050 TX18/1213Z TN09/1304Z PROB30 TEMPO 1304/1309 3000 BR BKN005", "TAF LQTZ 121100Z 1212/1312 10005KT 9999 FEW020 SCT035 TX20/1213Z TN08/1304Z BECMG 1218/1220 1500 BR BKN005 PROB40 1221/1307 0200 FG BKN001 BECMG 1309/1311 6000 NSW SCT010", "TAF LRAR 121100Z 1212/1221 02006KT 8000 SCT010 PROB40 TEMPO 1212/1215 5000 -SHRA BKN015 SCT035CB", "TAF LRBC 121100Z 1212/1221 34006KT 9999 SCT060", "TAF LRBM 121100Z 1212/1221 VRB04KT 9999 SCT050 TEMPO 1212/1216 5000 -SHRA SCT015 SCT035CB PROB30 TEMPO 1212/1215 VRB15KT TSRA BECMG 1216/1218 5000 -RA BR BKN015 BKN035", "TAF LRBO 121100Z 1212/1312 04006KT 9999 SCT150 BECMG 1217/1219 SCT100 BKN200 BECMG 1302/1304 SCT070 OVC200", "TAF LRBS 121100Z 1212/1312 10006KT CAVOK", "TAF LRCK 121100Z 1212/1312 VRB04KT 9999 FEW045 TEMPO 1212/1215 07010KT PROB30 TEMPO 1223/1304 5000 BR", "TAF LRCL 121100Z 1212/1221 VRB04KT 9999 SCT050 PROB30 TEMPO 1212/1216 5000 -TSRA SCT040CB", "TAF LRCT 121100Z 1212/1312 VRB03KT 9999 SCT060 BKN080 TEMPO 1214/1218 8000 RA SCT025 BKN045", "TAF LRCV 121100Z 1212/1221 VRB04KT CAVOK", "TAF LRFT 121100Z 1212/1312 12006KT 9999 SCT050 SCT150 TEMPO 1300/1306 5000 BR PROB30 TEMPO 1302/1306 0800 FG BKN001", "TAF LRIA 121100Z 1212/1221 VRB04KT 9999 SCT045 PROB30 TEMPO 1216/1219 5000 -RA", "TAF LROD 121100Z 1212/1221 02007KT CAVOK TEMPO 1212/1214 SCT035CB", "TAF LROP 121100Z 1212/1312 10006KT CAVOK", "TAF LRSB 121100Z 1212/1312 VRB04KT 9999 SCT060 TEMPO 1214/1219 5000 -SHRA SCT045CB BKN055 PROB40 TEMPO 1302/1308 3000 SHRA BKN010 SCT030CB BKN050 TEMPO 1310/1312 5000 -TSRA SCT045CB", "TAF LRSM 121100Z 1212/1221 VRB04KT CAVOK PROB40 TEMPO 1212/1215 5000 -SHRA SCT035CB TEMPO 1218/1221 5000 -RA BR BKN015 SCT035", "TAF LRSV 121100Z 1212/1221 34008KT 9999 BKN030 PROB30 TEMPO 1214/1221 5000 -RA", "TAF LRTC 121100Z 1212/1221 VRB04KT CAVOK", "TAF LRTM 121100Z 1212/1221 VRB04KT 9999 FEW040 PROB40 TEMPO 1212/1215 FEW040CB TEMPO 1219/1221 5000 -SHRA SCT035CB", "TAF LRTR 121100Z 1212/1312 VRB04KT 9999 SCT045 TEMPO 1212/1216 5000 -SHRA SCT040CB PROB30 TEMPO 1212/1215 36010KT -TSRA TEMPO 1222/1306 3000 -RA BR BKN010 SCT030", "TAF LRTZ 121100Z 1212/1312 07010KT 9999 FEW040 BKN120 BECMG 1215/1217 VRB03KT SCT150 PROB30 TEMPO 1300/1305 5000 BR SCT010 BECMG 1306/1308 09012KT FEW040 BKN090", "TAF LSGC 121125Z 1212/1221 20003KT CAVOK", "TAF LSGG 121125Z 1212/1318 06003KT 9999 FEW015 SCT030 TX19/1215Z TN09/1305Z TX19/1314Z PROB30 1303/1308 BKN014 BECMG 1312/1315 23007KT", "TAF LSGS 121125Z 1212/1221 25004KT 9999 FEW025 SCT080", "TAF LSZA 121125Z 1212/1221 VRB02KT 9999 FEW068", "TAF LSZB 121125Z 1212/1221 29005KT 9999 OVC016", "TAF LSZC 121125Z 1212/1221 VRB02KT 9999 BKN018 TEMPO 1212/1220 SCT020", "TAF LSZG 121125Z 1212/1221 VRB02KT 9999 BKN015 OVC025 BECMG 1212/1214 SCT025", "TAF LSZH 121125Z 1212/1318 VRB02KT 9999 SCT015 BKN017 TX17/1214Z TN07/1303Z TX17/1314Z BECMG 1221/1223 4000 BR BECMG 1300/1302 1500 PRFG BKN003 BECMG 1302/1305 0500 FG VV002 BECMG 1307/1310 4500 BKN006 BECMG 1309/1312 8000 SCT012 PROB30 TEMPO 1315/1318 SHRA", "TAF LSZL 121125Z 1212/1221 VRB02KT 9999 FEW040 SCT100", "TAF LSZR 121125Z 1212/1221 VRB02KT 5000 OVC010 BECMG 1213/1216 BKN015", "TAF LSZS 121125Z 1212/1221 VRB02KT 9999 SCT060 TX14/1213Z BECMG 1212/1214 20010KT PROB40 TEMPO 1212/1216 SHRA SCT050TCU BECMG 1215/1217 VRB02KT", "TAF LTAB 121040Z 1212/1221 VRB02KT 9999 FEW040 SCT100 BKN200", "TAF LTAC 121040Z 1212/1312 VRB02KT 9999 FEW040 BKN100 BECMG 1218/1221 CAVOK BECMG 1306/1309 FEW040 SCT100", "TAF LTAD 121040Z 1212/1221 VRB02KT CAVOK BECMG 1212/1215 SCT040 BKN100 TEMPO 1218/1221 -SHRA", "TAF LTAE 121040Z 1212/1221 34006KT 9999 FEW040 SCT100 BKN200 BECMG 1216/1218 CAVOK", "TAF LTAF 121040Z 1212/1312 21012KT CAVOK BECMG 1216/1218 VRB02KT PROB30 TEMPO 1221/1224 FEW030 SCT100 TEMPO 1306/1310 FEW035", "TAF LTAG 121040Z 1212/1312 21012KT 9999 SCT030 BKN180 BECMG 1215/1217 VRB02KT BECMG 1310/1312 23012KT", "TAF LTAH 121040Z 1212/1221 VRB02KT 9999 SCT040 BKN100 TEMPO 1213/1215 04012KT -SHRA BKN035 BKN100 BECMG 1216/1219 CAVOK", "TAF LTAI 121040Z 1212/1312 17010KT 9999 FEW030 SCT180 TEMPO 1212/1215 FEW020CB SCT030 BECMG 1215/1218 34007KT CAVOK BECMG 1307/1310 17010KT FEW030", "TAF LTAJ 121040Z 1212/1312 VRB02KT CAVOK TEMPO 1212/1214 22012KT BECMG 1300/1302 FEW040 BKN180 BECMG 1305/1307 CAVOK BECMG 1307/1309 SCT040", "TAF LTAL 121040Z 1212/1221 04008KT 9999 FEW012 BKN027", "TAF LTAN 121040Z 1212/1221 04008KT CAVOK", "TAF LTAO 121040Z 1212/1221 VRB02KT 9999 FEW040 SCT100 BKN200", "TAF LTAP 121040Z 1212/1312 03015KT 9999 FEW040 BKN180", "TAF LTAR 121040Z 1212/1221 35008KT 9999 FEW040 SCT120 BKN180", "TAF LTAS 121040Z 1212/1221 VRB02KT 9999 FEW035 SCT080", "TAF LTAT 121040Z 1212/1312 VRB02KT 9999 FEW040 SCT100 BKN200 PROB30 TEMPO 1308/1312 -SHRA BKN035 BKN090", "TAF LTAU 121040Z 1212/1312 VRB02KT 9999 FEW040 SCT120 BKN180 PROB30 TEMPO 1300/1304 -SHRA BKN030 BKN090", "TAF LTAV 121040Z 1212/1221 VRB02KT 9999 SCT040 BKN100 TEMPO 1212/1216 -SHRA BKN035 BECMG 1216/1219 CAVOK", "TAF LTAW 121040Z 1212/1221 VRB02KT 9999 FEW040 BKN180", "TAF LTAY 121040Z 1212/1221 VRB02KT CAVOK BECMG 1212/1215 29013KT SCT035 SCT100 BECMG 1219/1221 VRB02KT CAVOK", "TAF LTAZ 121040Z 1212/1312 VRB02KT 9999 FEW040 SCT120 BKN180 TEMPO 1215/1219 02012KT", "TAF LTBA 121040Z 1212/1312 05018KT 9999 SCT035 BKN100 BECMG 1214/1217 03008KT BECMG 1307/1310 04018KT", "TAF LTBD 121040Z 1212/1221 27012KT 9999 FEW035 BECMG 1212/1214 CAVOK BECMG 1217/1219 VRB02KT", "TAF LTBF 121040Z 1212/1221 01012KT 9999 FEW025 SCT035", "TAF LTBG 121040Z 1212/1221 04018G28KT 9999 SCT040", "TAF LTBH 121040Z 1212/1221 06018G28KT 9999 SCT035 BKN100", "TAF LTBI 121040Z 1212/1221 VRB02KT 9999 SCT040 BKN100 BECMG 1216/1219 CAVOK", "TAF LTBJ 121040Z 1212/1312 35016G26KT CAVOK BECMG 1217/1221 35009KT BECMG 1309/1312 35015G25KT", "TAF LTBK 121040Z 1212/1221 33015G25KT CAVOK BECMG 1217/1220 33009KT", "TAF LTBL 121040Z 1212/1221 34009KT CAVOK", "TAF LTBN 121040Z 1212/1221 VRB02KT 9999 SCT040 BKN100 TEMPO 1212/1215 -SHRA BKN035 BKN100 BECMG 1216/1219 CAVOK", "TAF LTBO 121040Z 1212/1221 VRB02KT 9999 SCT035 BKN100 BECMG 1213/1215 03015KT BECMG 1218/1221 CAVOK", "TAF LTBP 121040Z 1212/1221 04012KT 9999 SCT035 SCT100", "TAF LTBQ 121040Z 1212/1221 05009KT 8000 BKN030 BKN090 PROB30 TEMPO 1215/1218 -RA PROB40 TEMPO 1218/1221 5000 -RA BR SCT010 BKN020 BKN080", "TAF LTBR 121040Z 1212/1312 35012KT 9999 SCT035 SCT100 BECMG 1216/1218 VRB02KT BECMG 1300/1303 4000 BR FEW015 BKN030 PROB30 1303/1306 2000 -SHRA BR BECMG 1309/1312 36012KT", "TAF LTBS 121040Z 1212/1312 21012KT 9999 FEW030 BECMG 1215/1217 VRB02KT CAVOK BECMG 1306/1308 20012KT", "TAF LTBT 121040Z 1212/1221 36009KT CAVOK", "TAF LTBU 121040Z 1212/1312 03018KT 9999 SCT035 BECMG 1215/1218 02007KT BECMG 1305/1308 04017KT", "TAF LTBV 121040Z 1212/1221 28012KT 9999 FEW035 BECMG 1214/1217 VRB02KT CAVOK", "TAF LTBX 121040Z 1212/1221 04015KT 9999 SCT035 SCT120", "TAF LTBY 121040Z 1212/1221 VRB02KT 9999 SCT040 BKN100 BECMG 1216/1219 CAVOK", "TAF LTBZ 121040Z 1212/1221 VRB02KT 9999 SCT040 BKN100 TEMPO 1212/1215 -SHRA BKN035 BKN100 BECMG 1216/1219 CAVOK", "TAF LTCA 121040Z 1212/1221 VRB02KT 9999 FEW035 SCT200 BECMG 1215/1217 CAVOK", "TAF LTCB 121040Z 1212/1221 08008KT 9999 SCT035 PROB40 1215/1219 SCT012 BKN028 BECMG 1219/1221 SCT012 BKN028", "TAF LTCC 121040Z 1212/1312 VRB02KT CAVOK", "TAF LTCD 121040Z 1212/1221 VRB02KT CAVOK", "TAF LTCE 121040Z 1212/1312 VRB02KT 9999 SCT040 BECMG 1216/1218 BKN040 BECMG 1303/1305 SCT040 BKN080 BECMG 1308/1310 26012KT", "TAF LTCF 121040Z 1212/1221 VRB02KT CAVOK BECMG 1218/1220 SCT040", "TAF LTCG 121040Z 1212/1312 09012KT 9999 SCT030 BECMG 1215/1219 VRB02KT TEMPO 1215/1219 BKN025 BECMG 1219/1222 BKN025", "TAF LTCI 121040Z 1212/1221 29008KT 9999 SCT040 BECMG 1216/1218 10010KT", "TAF LTCJ 120440Z 1206/1306 VRB02KT CAVOK", "TAF LTCK 121040Z 1212/1221 25009KT 9999 SCT040", "TAF LTCL 121040Z 1212/1221 19005KT 9999 FEW040 SCT200", "TAF LTCM 121040Z 1212/1221 13013KT 9999 BKN036", "TAF LTCN 121040Z 1212/1221 27007KT 9999 FEW040 BKN180", "TAF LTCO 121040Z 1212/1221 VRB02KT 9999 SCT040 BECMG 1218/1220 BKN040", "TAF LTCP 121040Z 1212/1221 19009KT CAVOK BECMG 1212/1214 FEW040 SCT100 BKN200", "TAF LTCR 121040Z 1212/1221 21007KT CAVOK", "TAF LTCS 121040Z 1212/1312 VRB02KT CAVOK BECMG 1301/1303 SCT040 BKN120 TEMPO 1309/1312 FEW025CB BKN035", "TAF LTCT 121040Z 1212/1221 VRB02KT 9999 FEW100 BKN180", "TAF LTCU 121040Z 1212/1221 VRB02KT 9999 FEW035 SCT200 BECMG 1215/1217 CAVOK", "TAF LTCV 121040Z 1212/1312 VRB02KT CAVOK", "TAF LTCW 121040Z 1212/1221 22009KT 9999 FEW040 BECMG 1216/1218 09010KT", "TAF LTDA 121040Z 1212/1221 VRB02KT 9999 FEW040 SCT180 BECMG 1212/1215 24012KT", "TAF LTFA 121040Z 1212/1221 34009KT CAVOK", "TAF LTFB 121040Z 1212/1221 25012KT 9999 FEW035 BECMG 1212/1214 CAVOK TEMPO 1214/1217 33015KT BECMG 1217/1219 VRB02KT", "TAF LTFC 121040Z 1212/1312 VRB02KT 9999 FEW035 SCT180 BECMG 1212/1214 FEW020CB SCT035 TEMPO 1214/1217 34012KT -TSRA FEW020CB BKN030 BECMG 1218/1221 CAVOK", "TAF LTFD 121040Z 1212/1221 07015KT 9999 SCT035", "TAF LTFE 121040Z 1212/1312 26014KT 9999 FEW035 BECMG 1214/1217 VRB02KT CAVOK BECMG 1308/1310 26014KT FEW035", "TAF LTFG 121040Z 1212/1221 24010KT 9999 FEW030 BKN180 BECMG 1215/1218 11007KT CAVOK", "TAF LTFH 121040Z 1212/1221 09008KT 9999 SCT033 SCT200", "TAF LTFJ 121040Z 1212/1312 04016KT 9999 SCT035 SCT170 BECMG 1218/1221 04006KT TEMPO 1304/1308 -SHRA SCT015 BKN030 BECMG 1307/1310 04016KT", "TAF LTFK 121040Z 1212/1221 02018G28KT 9999 SCT025 BKN100", "TAF LTFM 121040Z 1212/1318 05018G28KT 9999 SCT028 BKN180 BECMG 1217/1220 05014KT PROB30 TEMPO 1222/1302 -SHRA FEW012 BKN022 PROB30 TEMPO 1304/1307 -SHRA BECMG 1305/1308 05016G26KT", "TAF LTFO 121040Z 1212/1221 03009KT 9999 SCT035 PROB30 1216/1220 BKN025", "TAF LUKK 121120Z 1212/1312 36006KT 9999 SCT045", "TAF LWOH 121130Z 1212/1312 33008KT 9999 FEW015 OVC033 BECMG 1214/1216 SCT040 BKN090", "TAF LWSK 121130Z 1212/1312 VRB02KT 9999 FEW010 BKN030 BKN080", "TAF AMD LXGB 121214Z 1212/1221 08008KT 9999 FEW020 PROB30 TEMPO 1212/1218 7000 SHRA BKN015CB PROB30 1218/1221 7000 HZ SCT014", "TAF LYBE 121100Z 1212/1312 06004KT 8000 SCT025 TX20/1213Z TN12/1304Z BECMG 1220/1222 3000 BR BECMG 1222/1224 0500 FG BKN003 BECMG 1306/1308 2500 BR BKN006 BECMG 1308/1310 7000 NSW SCT016", "TAF LYBT 121100Z 1212/1312 VRB02KT 8000 BKN025 TX19/1213Z TN10/1305Z BECMG 1218/1220 3000 BR BECMG 1221/1223 0500 FG BKN002 BECMG 1307/1309 1500 BR BKN006 BECMG 1310/1311 7000 NSW SCT010", "TAF LYKV 121100Z 1212/1312 14004KT 7000 SCT015 BKN037 TX20/1213Z TN10/1304Z BECMG 1219/1221 3000 BR BECMG 1223/1301 0600 FG BKN003 BECMG 1307/1308 1500 BR BKN006 BECMG 1308/1310 6000 NSW SCT013 BKN030", "TAF LYNI 121100Z 1212/1312 02005KT 9999 SCT040 TX21/1213Z TN11/1304Z", "TAF LYPG 121100Z 1212/1312 18005KT 9999 FEW050 SCT090 TX22/1213Z TN13/1305Z", "TAF LYTV 121100Z 1212/1312 VRB02KT 9999 FEW050 TX22/1213Z TN08/1303Z PROB30 TEMPO 1303/1307 3000 BR", "TAF LYVR 121100Z 1212/1312 03004KT 9999 SCT035 TX21/1213Z TN10/1304Z TEMPO 1213/1215 SHRA SCT030TCU SCT035 BECMG 1220/1222 3000 BR BECMG 1222/1224 0500 FG OVC002 BECMG 1306/1308 2500 BR BKN006 BECMG 1308/1310 7000 NSW SCT017", "TAF LZIB 121115Z 1212/1312 08004KT CAVOK TEMPO 1300/1306 VRB02KT 2000 BR BCFG SCT002 PROB40 TEMPO 1303/1306 0500 FG BKN001", "TAF LZKZ 121115Z 1212/1312 02007KT CAVOK TEMPO 1212/1217 01020KT", "TAF LZMC 121030Z 1212/1221 VRB02KT CAVOK TEMPO 1218/1221 14004KT 9999 SCT030 BKN080 PROB30 TEMPO 1218/1221 -SHRA", "TAF LZPP 121115Z 1212/1221 01008KT CAVOK", "TAF LZPW 121030Z 1212/1221 03008KT CAVOK", "TAF LZSL 121030Z 1212/1221 VRB03KT 9999 SCT040 BKN080 BECMG 1215/1217 SCT040", "TAF LZTT 121115Z 1212/1312 09004KT 9999 FEW030 TEMPO 1300/1306 VRB02KT 2000 BR BCFG BKN002 PROB40 TEMPO 1303/1306 0300 FG BKN001", "TAF LZZI 121115Z 1212/1221 08006KT 9999 FEW025", "MBGT 120930Z 1212/1312 10010KT 9999 SCT020", "MBPV 120930Z 1212/1312 10010KT 9999 SCT020", "TAF MDBH 121000Z 1212/1312 00000KT 9999 FEW016CB SCT016 PROB30 1300/1306 7000 -TSRA FEW016CB BKN018 SCT080 BECMG 1214/1216 13008KT", "TAF MDCY 121000Z 1212/1312 00000KT 9999 FEW018 PROB30 1218/1300 7000 -TSRA FEW016CB BKN016 BECMG 1216/1218 05010KT", "TAF MDJB 121000Z 1212/1312 00000KT 9999 SCT016 PROB30 1218/1300 8000 -TSRA FEW014CB BKN016 BECMG 1214/1216 03008KT", "TAF MDLR 121000Z 1212/1312 00000KT 9999 FEW016CB SCT016 PROB30 1300/1306 7000 -TSRA FEW016CB BKN018 BKN070 BECMG 1214/1216 09006KT", "TAF MDPC 121000Z 1212/1312 07006KT 9999 SCT016 PROB30 1212/1218 8000 ?TSRA FEW017CB BKN018 SCT070", "TAF MDPP 121000Z 1212/1312 00000KT 9999 FEW016 SCT070 PROB30 1212/1218 8000 -RA BKN018 SCT070", "TAF MDSD 121000Z 1212/1312 36006KT 9999 FEW016 PROB30 1300/1306 7000 -TSRA FEW014CB BKN016 BECMG 1214/1216 09006KT", "TAF MDST 121000Z 1212/1312 10005KT 9999 SCT018 PROB30 1208/1214 4000 BR SCT014 SCT070", "MGGT 121100Z 1212/1312 00000KT 8000 SCT016 TX23/1220Z TN14/1212Z BECMG 1214/1216 18008KT 9999 SCT018 PROB30 TEMPO 1221/1224 8000 TSRA FEW025CB BECMG 1302/1304 VRB03KT 7000 BKN016 PROB40 TEMPO 1306/1312 4000 BR BKN014", "MGMM 121100Z 1212/1312 00000KT 9999 BKN012 TX29/1120Z TN20/1212Z BECMG 1214/1216 09008KT SCT018 TEMPO 1221/1224 80000 TSRA SCT020TCU FEW025CB BECMG 1302/1304 00000KT SCT016 SCT080 BECMG 1308/1310 BKN012", "MGPB 121100Z 1212/1312 00000KT 9999 FEW016 TX28/1220Z TN20/1212Z BECMG 1214/1216 33008KT FEW018 PROB30 TEMPO 1220/1224 8000 VCTSRA SC020TCU FEW025CB BECMG 1301/1303 00000KT SCT017 BECMG 1306/1308 FEW016", "MGSJ 121100Z 1212/1312 00000KT CAVOK TX27/1120Z TN20/1212Z BECMG 1214/1216 18008KT FEW018 PROB30 TEMPO 1220/1224 21010KT 8000 VCTSRA SCT020TCU FEW025CB BECMG 1300/1302 00000KT FEW016 SCT080 BECMG 1306/1308 CAVOK", "TAF MHLC 121040Z 1212/1312 VRB05KT 9999 SCT028 TX32/1219Z TN23/1312Z BECMG 1219/1220 05012KT SCT032TCU FM130100 VRB02KT 9999 SCT028", "TAF MHLM 121040Z 1212/1312 VRB03KT 9999 FEW030 TX33/1220Z TN22/1312Z BECMG 1218/1220 06012KT SCT030TCU FEW035CB TEMPO 1222/1302 7000 SHRA FM130200 VRB03KT 9999 FEW030", "TAF MHPR 121100Z 1212/1312 VRB03KT 9999 SCT040 TX30/1219Z TN21/1212Z BECMG 1215/1217 30010KT FM122000 33012KT 7000 SHRA SCT046TCU FEW058CB FM130200 VRB03KT 9999 SCT044", "TAF MHRO 121040Z 1212/1312 09020KT 9999 FEW025 TX31/1219Z TN27/1312Z TEMPO 1304/1308 6000 SHRA SCT024TCU FEW028CB", "TAF MHTG 121040Z 1212/1312 VRB05KT 9999 SCT032 TX29/1220Z TN17/1311Z TEMPO 1222/1302 7000 SHRA SCT035TCU FEW040CB", "TAF MKJP 121115Z 1212/1312 35005KT 9999 FEW022 BECMG 1214/1216 14015KT FEW022CB BECMG 1301/1303 35005KT", "TAF MKJS 121115Z 1212/1312 VRB03KT 9999 FEW022 BECMG 1214/1216 07015KT TEMPO 1218/1221 5000 TSRA SCT018 BKN020CB BECMG 1301/1303 VRB03KT", "TAF MMAA 121106Z 1212/1318 28005KT 5SM RA BKN015CB OVC080 TX31/1217Z TN25/1212Z TEMPO 1212/1215 3SM TSRA FM121500 23005KT P6SM VC RA SCT015 BKN080 PROB40 1222/1302 5SM TSRA BKN020CB FM130300 03005KT 5SM HZ SCT015 BKN300 FM131600 23010KT P6SM SCT015 BKN300", "TAF MMAN 120530Z 1206/1306 00000KT P6SM SCT015 TEMPO 1210/1214 3SM BR OVC015 FM121600 12008KT P6SM SCT020 FM130300 12005KT P6SM SCT020", "TAF MMAS 120432Z 1206/1306 00000KT 6SM HZ SKC FM122000 06010KT P6SM SCT030 FM130300 06005KT P6SM SKC", "TAF AMD MMBT 121244Z 1213/1306 09010KT P6SM SCT020 BKN250 FM122000 20010KT P6SM SCT025 PROB40 1222/1302 4SM TSRA BKN015CB", "TAF MMCB 120422Z 1206/1306 000000KT P6SM SCT020 BKN090 BKN200 FM121800 14010KT P6SM SCT030 BKN200 TEMPO 1223/1303 6SM -RA BKN020", "TAF MMCE 120457Z 1206/1306 26005KT 6SM HZ SCT020 BKN070 BKN200 TEMPO 1206/1210 3SM TSRA BKN015CB FM121200 13010KT P6SM SCT020 BKN100 BKN200 TEMPO 1212/1215 5SM -RA FM121900 13010KT P6SM SCT020 BKN100 BKN200 TEMPO 1222/1302 6SM RA BKN020CB", "TAF MMCL 120505Z 1206/1306 33005KT P6SM SKC FM122000 30010KT P6SM SKC FM130300 33005KT P6SM SCT200", "TAF MMCM 120457Z 1206/1306 12010KT 6SM HZ SCT020 SCT060 TEMPO 1212/1215 BKN015 FM121800 12015KT P6SM SCT020 SCT100 TEMPO 1218/1222 6SM RA BKN020CB FM130300 13005KT 6SM HZ SCT015", "TAF MMCN 120436Z 1206/1306 26005KT P6SM SKC FM121900 24010KT P6SM SKC FM130300 24005KT P6SM SKC", "TAF MMCP 120457Z 1206/1306 12005KT 6SM HZ SCT015 BKN280 TEMPO 1212/1215 3SM HZ SCT005 BKN008 FM121900 14012KT P6SM SCT030 BKN300 TEMPO 1222/1302 5SM RA BKN020CB", "TAF MMCS 120530Z 1206/1306 24005KT P6SM SKC FM122000 24010KT P6SM SCT030 FM130300 24005KT P6SM SKC", "TAF MMCU 120530Z 1206/1306 06005KT P6SM SCT080 SKC FM122000 06008KT P6SM SCT100 FM130300 00000KT P6SM SKC", "TAF MMCV 120516Z 1206/1306 02005KT P6SM SCT015 SCT100 TEMPO 1212/1215 BKN015 FM121800 03010KT P6SM SCT020 BKN200 TEMPO 1300/1304 6SM -RA BKN020", "TAF MMCZ 121056Z 1212/1318 120005KT P6SM SCT015 FM121600 12010KT P6SM SCT015 TEMPO 1216/1220 BKN015 FM130200 12005KT P6SM SCT015 SCT250 FM131800 12010KT P6SM SCT015", "TAF MMDO 120436Z 1206/1306 23005KT 6SM HZ SKC FM121800 08010KT P6SM SCT030 FM130300 08005KT P6SM SKC", "TAF MMEP 120432Z 1206/1306 00000KT 6SM HZ SKC TEMPO 1210/1214 2SM BR BKN010 FM122100 24010KT P6SM SCT030 FM130300 00000KT P6SM SKC", "TAF MMGL 121041Z 1212/1318 00000KT P6SM BKN200 TX28/1221Z TN14/1212Z FM121600 30005KT P6SM BKN200 FM130300 30005KT P6SM SCT020 BKN200 FM131800 06005KT P6SM SCT020 BKN200", "TAF MMGM 120436Z 1206/1306 16005KT P6SM SKC FM121800 24010KT P6SM SCT030 FM130300 24005KT P6SM SKC", "TAF MMHO 120505Z 1206/1306 00000KT P6SM SKC FM121800 24008KT P6SM SKC FM130200 25005KT P6SM SKC", "TAF MMIA 120432Z 1206/1306 00000KT 6SM HZ SCT020 FM121900 24010KT P6SM SCT025 FM130300 24005KT 6SM HZ SCT015", "TAF MMIO 120530Z 1206/1306 36005KT P6SM SKC FM121800 34010KT P6SM SKC FM130300 34005KT P6SM SCT220", "TAF MMLM 120436Z 1206/1306 32005KT P6SM SKC FM121900 25012KT P6SM SKC FM130400 30005KT P6SM SKC", "TAF MMLO 120432Z 1206/1306 05005KT 6SM HZ SCT020 BKN250 TEMPO 1212/1215 BKN015 FM122000 08010KT P6SM SCT020 SCT100 BKN250 FM130300 08005KT 6SM HZ BKN250", "TAF MMLP 120505Z 1206/1306 18005KT P6SM SKC FM121800 36010KT P6SM SKC FM130200 17005KT P6SM SKC", "TAF MMLT 120436Z 1206/1306 00000KT P6SM SKC FM122000 12010KT P6SM SCT030 FM130300 12005KT P6SM SKC", "TAF MMMA 120516Z 1206/1306 10005KT P6SM SCT020 SCT200 TEMPO 1212/1215 BKN015 FM121800 13010KT P6SM SCT020 SCT100 BKN200 TEMPO 1218/1222 6SM -RA BKN020CB FM130300 13005KT P6SM SCT015 BKN200", "TAF AMD MMMD 121154Z 1212/1318 16005KT 2SM BR HZ OVC007 TX33/1219Z TN24/1212Z FM121400 12005KT 5SM HZ SCT007 BKN200 FM121600 12010KT P6SM BKN020 BKN300 PROB40 1220/1224 5SM TSRA BKN020CB FM130200 12005KT P6SM SCT020 BKN300 FM131600 12010KT P6SM BKN020", "TAF MMML 120505Z 1206/1306 13005KT P6SM SKC FM121800 16010KT P6SM SKC FM130200 13005KT P6SM SKC", "TAF MMMM 121041Z 1212/1318 00000KT P6SM SCT020 BKN300 TEMPO 1212/1214 3SM BR FM121700 36008KT P6SM SCT020 BKN200 FM130200 03005KT P6SM SCT030 BKN200 FM131700 03005KT P6SM SCT030 BKN200", "TAF MMMT 120457Z 1206/1306 26008KT 6SM HZ BKN020 BKN090 TEMPO 1212/1215 3SM BR HZ BKN010 FM121800 14010KT P6SM SCT020 BKN070 BKN300 TEMPO 1300/1304 6SM TSRA BKN015CB", "TAF MMMV 120530Z 1206/1306 00000KT P6SM SKC FM121200 04008KT P6SM SCT030 FM130300 04005KT P6SM SKC", "TAF MMMX 121106Z 1212/1318 36005KT P6SM SCT020 BKN200 TX21/1221Z TN12/1212Z TEMPO 1212/1214 3SM BR HZ SCT010 FM121600 03005KT P6SM SCT020 BKN200 FM122200 03010KT P6SM BKN020 BKN200 PROB40 1222/1302 5SM RA FM130200 03005KT P6SM SCT020 BKN080 TEMPO 1310/1314 2SM BR HZ BKN010 FM131600 04005KT P6SM SCT020 BKN200", "TAF MMMY 121120Z 1212/1318 29005KT P6SM SCT090 TX26/1221Z TN19/1212Z FM121800 13010KT P6SM SCT030 FM130600 13005KT P6SM SKC TEMPO 1310/1314 BKN012 FM131600 12008KT P6SM SCT020", "TAF MMMZ 121115Z 1212/1318 04005KT P6SM SKC TX33/1220Z TN19/1312Z FM121600 23010KT P6SM SKC FM130300 03005KT P6SM SCT200 FM131600 23010KT P6SM SKC", "TAF MMNL 120516Z 1206/1306 00000KT P6SM SKC TEMPO 1212/1215 BKN015 FM121800 14010KT P6SM SCT030 FM130300 13005KT P6SM SKC", "TAF AMD MMOX 121252Z 1213/1306 00000KT 1SM BR OVC015 FM121400 02010KT 4SM -RA OVC015 FM121800 03015KT 5SM HZ BKN020 OVC080 TEMPO 1220/1224 3SM RA FM130000 04010KT 5SM RA OVC020", "TAF AMD MMPA 121209Z 1212/1306 30005KT 4SM HZ BKN010 OVC020 TEMPO 1212/1216 2SM -RA BR OVC010 FM121800 30010KT 5SM -RA BKN010 OVC070 TEMPO 1222/1302 3SM SHRA OVC010CB", "TAF MMPB 120422Z 1206/1306 34005KT P6SM SCT020 SCT090 BKN200 FM121800 03010KT P6SM SCT030 BKN100 BKN200 TEMPO 1222/1302 6SM -RA BKN020", "TAF MMPG 120516Z 1206/1306 12005KT P6SM SKC TEMPO 1212/1216 BKN020 FM121900 12015KT P6SM SCT030 FM130300 13005KT P6SM SKC", "TAF MMPN 120432Z 1206/1306 08005KT P6SM SCT020 BKN250 FM122000 20010KT P6SM SCT030 BKN250 FM130400 24005KT P6SM BKN250", "TAF MMPQ 120457Z 1206/1306 00000KT 6SM HZ SCT030 BKN100 TEMPO 1206/1210 5SM TSRA BKN020CB FM121000 00000KT 5SM HZ SCT105 BKN070 BKN200 TEMPO 1212/1215 2SM BR HZ BKN010 FM121900 08010KT P6SM SCT030 BKN100 BKN250 TEMPO 1223/1303 5SM TSRA BKN020CB", "TAF MMPR 121041Z 1212/1318 03005KT P6SM SCT020 SCT250 TX31/1221Z TN24/1212Z FM121600 21010KT P6SM SCT020 BKN200 FM130300 03005KT P6SM SCT020 BKN200 FM131600 21010KT P6SM SCT020 BKN200", "TAF MMPS 120422Z 1206/1306 00000KT 6SM HZ SCT020 SCT090 BKN200 FM121800 13010KT P6SM SCT030 BKN100 BKN200 TEMPO 1222/1302 6SM TSRA BKN020CB", "TAF MMQT 120432Z 1206/1306 13005KT 6SM HZ SCT020 SCT250 TEMPO 1212/1215 3SM BR BKN015 FM121900 13010KT P6SM SCT025 BKN250 TEMPO 1221/1301 BKN020 FM130300 13005KT 6SM HZ SCT015 BKN250", "TAF MMRX 120516Z 1206/1306 15005KT 6SM HZ SCT020 TEMPO 1212/1215 BKN015 FM121800 13010KT P6SM BKN030 FM130300 13005KT 6SM HZ SCT020", "TAF MMSD 120436Z 1206/1306 26005KT P6SM SKC FM122000 14015KT P6SM SKC FM130300 14005KT P6SM SKC", "TAF MMSL 120436Z 1206/1306 30005KT P6SM SKC FM121900 24010KT P6SM SKC FM130300 30005KT P6SM SKC", "TAF AMD MMSM 121247Z 1213/1318 01002KT 0SM FG VV001 FM121400 03005KT 1/2SM FG VV005 FM121500 03005KT 2SM BR SCT020 BKN200 FM121600 03005KT 5SM HZ SCT015 BKN200 FM122100 03010KT P6SM BKN020 PROB40 1222/1302 5SM RA FM130300 03005KT P6SM SCT020 BKN200 TEMPO 1310/1314 2SM BR SCT010 FM131500 03005KT P6SM SCT020 SCT200", "TAF AMD MMSP 121323Z 1213/1318 00000KT 1/4SM FG FEW003 TX23/1221Z TN10/1312Z FM121400 00000KT 1SM BR HZ SCT005 BKN200 FM121500 06005KT 4SM HZ SCT015 BKN200 FM121600 12008KT P6SM SCT020 BKN200 TEMPO 1220/1224 BKN020 FM130300 06005KT P6SM SCT020 BKN200 TEMPO 1310/1314 1/2SM FG VV005 FM131600 08005KT P6SM SCT020 SCT200", "TAF MMTC 120530Z 1206/1306 00000KT P6SM SKC FM122000 06008KT P6SM SKC FM130300 05005KT P6SM SCT200", "TAF AMD MMTG 121135Z 1212/1218 230005KT 6SM SCT010 HZ BKN300 TEMPO 1212/1214 3SM BR BKN010 FM121600 33010KT P6SM SCT020 BKN200", "TAF MMTJ 121115Z 1212/1318 00000KT 5SM HZ OVC014 TX22/1219Z TN17/1212Z TEMPO 1212/1214 3SM BR HZ BKN010 FM122000 29010KT P6SM SKC FM130500 33005KT 5SM HZ OVC012 TEMPO 1310/1314 3SM BR HZ OVC008 FM131800 30005KT 5SM HZ SCT15", "TAF MMTM 120448Z 1206/1306 03005KT 6SM HZ SCT015 BKN200 TEMPO 1210/1214 4SM RA BKN015 FM121600 03010KT P6SM BKN015 OVC080 PROB40 1216/1220 5SM RA FM122100 03010KT P6SM SCT015CB BKN020 TEMPO 1222/1302 5SM TSRA", "TAF MMTO 121106Z 1212/1318 30005KT 5SM HZ BR BKN200 TX21/1221Z TN07/1212Z TEMPO 1212/1214 1SM BR HZ BKN010 FM121500 03005KT 5SM SCT015 BKN200 FM122100 03010KT P6SM SCT015CB BKN080 PROB40 1221/1301 5SM TSRA BKN015CB FM130300 03005KT 5SM HZ SCT015 BKN080 TEMPO 1310/1314 1/2SM FG VV005 FM131600 03005KT P6SM SCT020 BKN200", "TAF MMTP 121056Z 1212/1318 00000KT P6SM SCT100 FM121800 24010KT P6SM SCT020 BKN200 PROB40 1223/1303 5SM TSRA BKN020CB FM130300 00000KT P6SM SCT020 BKN200 FM131700 24005KT P6SM SCT020 SCT200", "TAF MMUN 121056Z 1212/1318 110005KT P6SM SCT015 TX31/1218Z TN25/1212Z FM121600 12010KT P6SM SCT015 TEMPO 1216/1220 BKN015 FM130200 12005KT P6SM SCT015 FM131600 12010KT P6SM SCT015", "TAF AMD MMVA 121204Z 1212/1306 00000KT 5SM HZ SCT015 BKN060 FM121800 24010KT 6SM HZ SCT020 BKN070 BKN200 TEMPO 1223/1303 4SM TSRA BKN015CB", "TAF MMVR 120448Z 1206/1306 20005KT P6SM TX30/1221Z TN22/1212Z VC RA SCT015 BKN030 TEMPO 1208/1212 5SM TSRA BKN015CB FM121200 30005KT 5SM VC RA SCT015 OVC020 TEMPO 1212/1216 3SM TSRA BKN015CB FM121600 03015KT 5SM RA BKN020CB OVC080 TEMPO 1220/1224 3SM TSRA", "TAF MMZC 121041Z 1212/1318 08005KT P6SM BKN200 TX23/1221Z TN09/1212Z FM121600 06010KT P6SM SCT030 BKN200 FM130200 03005KT P6SM SCT030 BKN200 FM131600 08010KT P6SM SCT030 SCT200", "TAF MMZH 120422Z 1206/1306 12005KT 6SM HZ BKN020 BKN250 TEMPO 1206/1210 3SM TSRA OVC010CB FM121200 12005KT 6SM HZ BKN020 BKN100 BKN250 TEMPO 1212/1216 5SM RA BKN015CB FM121800 16010KT P6SM SCT020 BKN100 BKN250 TEMPO 1222/1302 6SM -TSRA BKN015CB", "TAF MMZO 120416Z 1206/1306 03005KT P6SM SCT020 BKN200 FM121700 21010KT P6SM SCT020 BKN200 FM122200 23010KT P6SM BKN020 BKN080 TEMPO 1222/1302 5SM SHRA FM130300 03005KT P6SM BKN020 BKN080", "MNBL 112050Z 1200/1224 VRB04KT 9000/8000 -RA BKN018 BECMG 1207/1209 5000 RA/TSRA FEW016CB BKN018 BECMG 1216/1218 07008KT 7000 -RA BKN019", "MNMG 121000Z 1212/1312 00000KT 9999 FEW020CB TEMPO 1213/1219 13006KT TEMPO 1220/1302 VRB010KT 7000 DZ/-TSRA FEW020CB SCT022", "MNPC 112050Z 1200/1224 VRB06KT 7000 HZ/VCRA BKN016 BECMG 1208/1211 5000 RA/TSRA FEW014CB BKN016 BECMG 1216/1218 06010KT 7000 -RA/HZ BKN016TCU", "TAF MPDA 121100Z 1212/1224 21008KT 9999 SCT018 TEMPO 1212/1215 VRB02KT TEMPO 1220/1224 7000 TSRA SCT015CB SCT090", "TAF MPMG 121100Z 1212/1224 32006KT 9999 SCT018 TEMPO 1216/1220 6000 TSRA SCT015CB BKN080 PROB40 1220/1223 8000 -RA SCT016 BKN090", "TAF MPPA 121100Z 1212/1318 18006KT 9999 SCT018 TEMPO 1212/1214 00000KT PROB40 1217/1221 6000 TSRA SCT015CB BKN080 TEMPO 1222/1301 9999 34004KT", "TAF MPSM 121100 1212/1318 17006KT 9999 SCT018 TEMPO 1212/1215 33004KT PROB40 1217/1221 6000 TSRA SCT015CB BKN080 TEMPO 1222/1301 13004KT", "TAF MPTO 121100Z 1212/1318 26006KT 9999 SCT018 PROB40 1216/1220 18008KT 6000 TSRA SCT015CB BKN080 PROB30 1220/1223 8000 RA SCT016 BKN090", "MRLB 121100Z 1212/1312 10005KT 9999 FEW035 TX30/1219Z TN22/1311Z TEMPO 1212/1214 00000KT BCFG FM121500 12005KT CAVOK TEMPO 1220/1224 27005KT SHRA FEW020TCU TEMPO 1301/1306 VRB02KT DZ ", "MRLM 121100Z 1212/1312 28004KT 9999 FEW030 TX30/1220Z TN22/1311Z TEMPO 1212/1215 DZ FEW020TCU FM121600 04006KT CAVOK FM130000 26003KT 9999 BKN015 ", "MROC 121100Z 1212/1312 09005KT CAVOK TX28/1218Z TN19/1311Z FM121600 24006KT 9999 FEW035 TEMPO 1220/1222 RA FEW020TCU BKN030 TEMPO 1223/1303 VRB02KT BCFG BKN015 FM130400 10003KT 9999 FEW030 ", "MRPV 121100Z 1212/1312 11006KT CAVOK TX27/1218Z TN18/1311Z FM121700 29005KT 9999 FEW035 TEMPO 1220/1222 RA FEW020TCU BKN025 TEMPO 1223/1303 VRB02KT BCFG BKN010 FM130400 09005KT 9999 FEW030 ", "TAF MSLP 120925Z 1212/1312 04005KT CAVOK TX32/1218Z TN23/1310Z BECMG 1215/1218 VRB02KT 9999 FEW020 FM121800 22010KT 9999 FEW020 FEW040CB FM130000 VRB02KT 9999 FEW020 SCT070 FM130400 04005KT CAVOK", "TAF MSSS 120925Z 1212/1312 34005KT CAVOK TX29/1220Z TN21/1312Z FM121700 13008KT 9999 SCT027 FEW040CB FM130000 18005KT 9999 FEW027 FM130400 02005KT CAVOK", "TAF MTCH 121000Z 1212/1312 VRB02KT 9000 FEW020 BECMG 1214/1217 04012KT FM121800 05010G20KT 9999 SCT026CB BECMG 1302/1306 36010KT TEMPO 1308/1312 VRB02KT", "TAF MTPP 111700Z 1118/1218 12010KT 9000 FEW020 FM111800 30012KT 9999 SCT026TCU SCT040 PROB30 TEMPO 1200/1206 4000 TSRA SCT022CB BKN030 BECMG 1206/1210 VRB02KT 9000 NSW FEW020", "MUCC 121100Z 1212/1312 VRB03KT 9000 SCT020 BECMG 1214/1216 09012KT TEMPO 1218/1224 VRB10KT 5000 TSRA SCT018CB BKN020 BECMG 1304/1305 VRB03KT", "MUCF 121100Z 1212/1224 VRB03KT 9000 SCT020 TEMPO 1218/1224 VRB10KT 5000 TSRA SCT018CB BKN020", "MUCL 121100Z 1212/1224 10010KT 9000 SCT020 TEMPO 1218/1224 VRB10KT 5000 TSRA SCT018CB BKN020", "MUCM 121100Z 1212/1312 VRB03KT 9000 SCT020 BECMG 1214/1216 07010KT TEMPO 1218/1224 VRB10KT 5000 TSRA SCT018CB BKN020 BECMG 1304/1305 VRB03KT", "MUCU 121100Z 1212/1312 36005KT 9000 SCT020 BECMG 1214/1216 15008KT TEMPO 1218/1224 VRB10KT 5000 TSRA SCT018CB BKN020 BECMG 1304/1305 36005KT", "TAF MUGM 1207/1307 VRB06KT 9999 FEW030 FEW250 QNH2993INS BECMG 1212/1214 10015KT 9999 FEW030 SCT250 QNH2986INS BECMG 1302/1304 01006KT 9999 SCT020 SCT250 QNH2988INS T24/1211Z T31/1217Z FN00259", "MUHA 121100Z 1212/1312 VRB03KT 9000 SCT030 BECMG 1213/1215 12009KT TEMPO 1220/1223 VRB10KT 3000 TSRA FEW020CB BKN030 BECMG 1301/1303 VRB03KT", "MUHG 121100Z 1212/1312 VRB03KT 9000 SCT020 TEMPO 1212/1214 3000 BR BECMG 1215/1216 08008KT TEMPO 1218/1224 VRB10KT 5000 TSRA SCT018CB BKN020 BECMG 1304/1305 VRB03KT", "MUSC 121100Z 1212/1312 VRB03KT 9000 SCT020 TEMPO 1212/1214 3000 BR BECMG 1215/1216 09010KT TEMPO 1218/1224 VRB10KT 5000 TSRA SCT018CB BKN020 BECMG 1304/1305 VRB03KT", "MUVR 121100Z 1212/1312 VRB03KT 9000 SCT020 BECMG 1214/1216 05010KT TEMPO 1218/1224 VRB10KT 5000 TSRA SCT018CB BKN020 BECMG 1304/1305 VRB03KT", "TAF MWCB 121100Z 1212/1312 09007KT 9999 VCSH SCT016 BECMG 1216/1218 9999 SCT018 BECMG 1305/1307 05005KT", "TAF MWCR 121100Z 1212/1312 09007KT 9999 VCSH SCT016 BECMG 1218/1220 06005KT 9999 SCT018 BECMG 1304/1306 09005KT", "MYGF 120930Z 1212/1312 10008KT 9999 VCSH FEW015CB SCT020 BKN250 FM130000 13008KT 9000 SHRA VCTS FEW012CB BKN020 BKN180 PROB40 TEMPO 1306/1312 VRB15KT 4800 +TSRA SCT012CB BKN018 OVC100 BECMG 1308/1310 17010KT", "MYNN 120930Z 1212/1312 11010KT 9999 SCT022 FM122200 10008KT 9999 VCSH FEW015CB SCT020 BKN250 TEMPO 1303/1309 9000 SHRA FEW012CB BKN020", "TAF MZBZ 121100Z 1211/1311 11007KT 9999 SCT023", "TAF NCRG 121106Z 1212/1312 06012KT 9999 SCT006 BKN013 BKN020 PROB40 TEMPO 1212/1215 5000 SHRA BKN015 PROB30 TEMPO 1212/1222 08020G30KT", "TAF NFFN 121104Z 1212/1312 12006KT 9999 FEW030 BECMG 1219/1221 36010KT PROB40 TEMPO 1300/1306 36015G25KT PROB40 TEMPO 1300/1308 5000 TSRA BKN015 FEW018CB PROB40 TEMPO 1308/1312 3000 +TSRA BKN015 SCT017CB", "TAF NFNA 121105Z 1212/1312 VRB03KT 9999 SCT018 BKN045 BECMG 1219/1221 02010KT PR0B40 TEMPO 1300/1306 02015G25KT PROB40 TEMPO 1300/1312 5000 TSRA BKN015 SCT017CB", "TAF NFTF 121106Z 1212/1312 22005KT 9999 FEW016", "TAF NFTV 121107Z 1212/1312 29006KT 9999 FEW017 BECMG 1219/1221 01010KT", "TAF NGFU 121107Z 1212/1312 05014KT 9999 FEW018 PROB30 TEMPO 1212/1224 5000 SHRA BON016", "TAF NGTA 121107Z 1212/1312 09009KT 9999 FEW020 BKN100 PROB30 TEMPO 1212/1312 09015G25KT", "TAF NIUE 121107Z 1212/1312 35009KT 9999 FEW017 SCT028 PROB4O TEMPO 1212/1221 5000 SHRA BKN015", "TAF NLWF 121100Z 1212/1312 VRB02KT 9999 SCT025 BKN040 TEMPO 1212/1224 4500 SHRA SCT020TCU BKN025 PROB30 TEMPO 1215/1221 1500 TSRA BKN011 SCT018CB BECMG 1221/1224 03010KT TEMPO 1303/1312 3500 SHRA BKN014 FEW018CB", "TAF AMD NLWW 121310Z 1213/1312 VRB02KT 9999 SCT035 TEMPO 1213/1303 SHRA FEW018TCU BKN020 PROB30 TEMPO 1213/1220 2500 SHRA BKN014 SCT018CB BECMG 1221/1224 04010KT", "TAF NSFA 121107Z 1212/1312 04007KT 9999 SCT024 PROB40 TEMPO 1309/1312 5000 TSRA FEW018CB", "NSTU 121123Z 1212/1312 03006KT P6SM FEW020", "TAF NTAA 121100Z 1212/1318 VRB03KT 9999 SCT020 SCT045 PROB40 TEMPO 1223/1304 3000 SHRA SCT018 BKN040", "TAF NVSC 121100Z 1212/1312 VRB04KT 9999 SCT020 INTER 1212/1218 9000 SHRA BKN018", "TAF NVSG 121100Z 1212/1312 VRB04KT 9999 SCT020 BKN110 INTER 1212/1218 8000 TSRA FEW010 BKN018 FEW025CB", "TAF NVSL 121100Z 1212/1312 09010KT 9999 BKN020 OVC040 INTER 1212/1218 8000 TSRA FEW010 BKN018 FEW025CB", "TAF NVSP 121100Z 1212/1312 10010KT 9999 BKN020 OVC040 INTER 1212/1218 9000 SHRA BKN018", "TAF NVSS 121100Z 1212/1312 10010KT 9999 SCT020 BKN040 INTER 1212/1218 8000 TSRA FEW010 BKN018 FEW025CB", "TAF NVVA 121100Z 1212/1312 10005KT 9999 BKN020 OVC040 INTER 1212/1218 8000 RA FEW008 BKN015 FEW025CB", "TAF NVVV 121100Z 1212/1312 11005KT 9999 BKN020 OVC040 INTER 1212/1218 7000 TSRA FEW006 BKN015 FEW025CB", "TAF NVVW 120500Z 1206/1306 09010KT 9999 BKN020 INTER 1206/1212 8000 RA FEW010 BKN018 FEW025CB OVC100", "TAF NWWD 120500Z 1206/1306 VRB02KT 9999 SCT030 TEMPO 1206/1209 4500 SHRA FEW020CB PROB40 TEMPO 1206/1208 2000 TSRA SCT018CB BECMG 1222/1224 18015KT", "TAF NWWE 111700Z 1118/1218 08007KT 9999 SCT020 PROB40 TEMPO 1206/1215 VRB20KT 2500 +SHRA BKN007 SCT018CB PROB40 TEMPO 1215/1218 4000 SHRA BKN010 FEW020TCU", "TAF AMD NWWK 121046Z 1210/1306 05006KT 9999 SCT025 BKN035 TEMPO 1210/1218 4000 SHRA SCT020TCU BKN030 PROB40 TEMPO 1210/1215 2000 TSRA SCT018CB BKN025 BECMG 1221/1223 14016KT PROB40 TEMPO 1300/1306 15018G28KT", "TAF NWWL 121100Z 1212/1312 11006KT 9999 SCT020 BKN030 TEMPO 1212/1222 4000 SHRA BKN014 SCT020TCU PROB30 TEMPO 1212/1220 1200 TSRA BKN009 SCT015CB BECMG 1222/1224 17010KT", "TAF NWWM 121100Z 1212/1312 14012KT 9999 SCT018 BKN035 PROB40 TEMPO 1212/1221 4000 SHRA BKN012 SCT020TCU BECMG 1307/1310 08008KT", "TAF NWWR 121100Z 1212/1312 VRB02KT 9999 SCT018 BKN040 TEMPO 1212/1222 4000 SHRA BKN014 SCT020TCU PROB40 TEMPO 1212/1220 1100 TSRA BKN007 SCT015CB BECMG 1222/1301 16010KT", "TAF NWWU 111700Z 1118/1218 15008KT 9999 SCT025 BKN040 PROB40 TEMPO 1118/1121 SHRA FEW020TCU PROB40 TEMPO 1202/1206 SHRA FEW020CB", "TAF NWWW 121100Z 1212/1312 12004KT 9999 SCT035 PROB30 TEMPO 1212/1220 4000 SHRA SCT020TCU BKN030 BECMG 1222/1224 14014KT TEMPO 1301/1305 15015G25KT BECMG 1306/1309 13004KT", "TAF NZAA 121110Z 1212/1318 VRB02KT 9999 SCT050 FM122000 02010KT 9999 SCT025 BECMG 1306/1308 08008KT TEMPO 1310/1313 6000 SHRA", "TAF NZCH 121110Z 1212/1318 02010KT 9999 SCT025 OVC055 BECMG 1212/1214 VRB02KT TEMPO 1212/1219 4000 RADZ BKN007 TEMPO 1219/1300 4000 RADZ BKN012 BECMG 1301/1303 08010KT TEMPO 1305/1309 6000 SHRA BECMG 1309/1311 VRB02KT PROB30 TEMPO 1315/1318 5000 RADZ BKN012", "TAF NZFX 120858Z 1209/1309 05013KT 9999 FEW080 FEW180 QNH2876INS GRID22013KT TEMPO 1212/1216 VRB06KT BECMG 1217/1219 15015G25KT 9999 SCT080 QNH2865INS GRID32015G25KT TEMPO 1218/1222 17025G40KT 8000 BLSN 520104 GRID34025G40KT TEMPO 1304/1309 17025G40KT 8000 BLSN 520104 GRID34025G40KT ", "TAF NZQN 121110Z 1212/1306 16005KT 9999 FEW030 BECMG 1223/1301 24010KT BECMG 1302/1304 17012KT", "TAF NZWN 121110Z 1212/1318 10008KT 9999 OVC040 FM121400 16015KT 9999 -RA SCT020 BKN030 TEMPO 1216/1223 7000 RA FM130300 16015G25KT 9999 SCT030 BECMG 1309/1311 16015KT", "TAF OBBI 121100Z 1212/1318 34012KT CAVOK", "TAF OEAB 121100Z 1212/1318 04010KT 9999 SCT020 TEMPO 1212/1218 TS FEW025CB BECMG 1220/1222 36008KT BECMG 1310/1312 19006KT", "TAF OEAH 120900Z 1212/1318 36012KT 8000 NSC BECMG 1216/1218 31008KT", "TAF OEAO 121100Z 1212/1318 27010KT CAVOK BECMG 1218/1220 36010KT BECMG 1300/1302 VRB03KT BECMG 1308/1310 20008KT", "TAF OEBA 121100Z 1212/1318 09012KT 9999 FEW030 PROB30 TEMPO 1212/1218 FEW025CB BECMG 1218/1220 19010KT CAVOK BECMG 1306/1308 20010KT", "TAF OEBH 121100Z 1212/1318 09010KT CAVOK BECMG 1220/1222 19006KT BECMG 1308/1310 15010KT", "TAF OEDF 120900Z 1212/1318 36015KT 8000 NSC BECMG 1216/1218 32008KT PROB30 TEMPO 1300/1305 5000 HZ", "TAF OEDM 120400Z 1205/1221 10010KT CAVOK", "TAF OEDR 120900Z 1212/1318 36015KT 8000 NSC BECMG 1216/1218 32008KT PROB30 TEMPO 1300/1305 5000 HZ", "TAF OEGN 121100Z 1212/1318 30012KT 7000 FEW030 TEMPO 1212/1220 TS SCT030 FEW035CB BECMG 1220/1222 06006KT SCT030 SCT100 BECMG 1306/1308 26010KT", "TAF OEGS 121100Z 1212/1318 15010KT CAVOK BECMG 1300/1302 19010KT", "TAF OEGT 121100Z 1212/1318 34013KT CAVOK BECMG 1222/1300 22014KT 7000 NSC", "TAF OEHL 121100Z 1212/1318 20010KT 7000 NSC BECMG 1218/1220 26010KT BECMG 1306/1308 22014KT", "TAF OEJN 121100Z 1212/1318 27012KT 7000 FEW040 BECMG 1218/1220 VRB03KT PROB30 TEMPO 1300/1304 5000 BR FEW020 BECMG 1306/1308 29012KT", "TAF OEKJ 121100Z 1212/1318 09008KT CAVOK BECMG 1220/1222 06006KT BECMG 1302/1304 29006KT", "TAF OEKM 121100Z 1212/1318 04010KT 9999 SCT020 TEMPO 1212/1218 TS FEW025CB BECMG 1220/1222 36008KT BECMG 1310/1312 19006KT", "TAF OEMA 121100Z 1212/1318 09010KT CAVOK BECMG 1218/1220 VRB03KT BECMG 1306/1308 14008KT", "TAF OENG 121100Z 1212/1318 06010KT CAVOK BECMG 1218/1220 35006KT BECMG 1302/1304 27006KT", "TAF OEPA 120900Z 1212/1318 07010KT 8000 NSC BECMG 1217/1219 13009KT", "TAF OEPS 120900Z 1209/1315 06012G18KT 9999 SKC QNH2999INS BECMG 1213/1214 07012KT 9999 SKC QNH3003INS BECMG 1217/1218 VRB06KT 9999 SKC QNH3005INS BECMG 1307/1308 07010G16KT 9999 SKC QNH3008INS TX37/1212Z TN22/1302Z", "TAF OERF 121100Z 1212/1318 14010KT CAVOK BECMG 1216/1218 09010KT BECMG 1308/1310 25016KT", "TAF OERK 121100Z 1212/1318 09012KT CAVOK BECMG 1218/1220 VRB03KT BECMG 1306/1308 09012KT", "TAF OERR 121100Z 1212/1318 10010KT 7000 NSC BECMG 1218/1220 06005KT BECMG 1310/1312 22014KT", "TAF OESH 121100Z 1212/1318 06013KT 9999 FEW040 BECMG 1220/1222 09010KT", "TAF OESK 121100Z 1212/1318 35006KT CAVOK BECMG 1218/1220 04006KT BECMG 1304/1306 27010KT", "TAF OETB 121100Z 1212/1318 23010KT CAVOK BECMG 1300/1302 33006KT BECMG 1308/1310 24010KT", "TAF OETF 121100Z 1212/1318 09010KT 9999 FEW030 PROB30 TEMPO 1212/1218 FEW025CB BECMG 1216/1218 30010KT CAVOK BECMG 1300/1302 19010KT", "TAF OETR 121100Z 1212/1318 20006KT CAVOK BECMG 1218/1220 02006KT BECMG 1308/1310 30006KT", "TAF OEWD 121100Z 1212/1318 02006KT CAVOK BECMG 1222/1300 20010KT", "TAF OEWJ 121100Z 1212/1318 32016KT CAVOK BECMG 1218/1220 35008KT BECMG 1306/1308 30010KT", "TAF OEYN 121100Z 1212/1318 28014KT 9999 FEW040 BECMG 1220/1222 13006KT 6000 NSC TEMPO 1300/1306 VRB03KT 3000 BR PROB30 TEMPO 1302/1306 0500 FG BECMG 1306/1308 09006KT CAVOK", "TAF OIAA 121100Z 1212/1318 32008KT 7000 NSC TEMPO 1212/1215 32014G26KT 4000 SA BECMG 1220/1222 32006KT TEMPO 1308/1314 32016KT", "TAF OIAW 121100Z 1212/1318 30008KT 7000 NSC TEMPO 1212/1215 32014G24KT 4000 SA BECMG 1216/1218 30006KT TEMPO 1308/1314 30016KT", "TAF OIBB 121100Z 1212/1221 29008KT 6000 NSC TEMPO 1212/1215 32016KT 4000 SA", "TAF OIBK 121100Z 1212/1318 12006KT 5000 HZ NSC TEMPO 1222/1304 3000 BR", "TAF OIBP 121100Z 1212/1221 12008KT 5000 HZ NSC", "TAF OICC 121100Z 1212/1221 28008KT CAVOK", "TAF OICI 121100Z 1212/1318 08006KT 7000 NSC TEMPO 1212/1215 27018KT TEMPO 1309/1315 27018KT", "TAF OIFM 121100Z 1212/1318 12006KT 7000 NSC TEMPO 1212/1218 12016KT FEW035TCU SCT100", "TAF OIGG 121100Z 1212/1221 06008KT 7000 FEW025CB SCT030 BKN080 TEMPO 1212/1216 06016KT 5000 RA", "TAF OIIE 121100Z 1212/1318 12006KT 7000 NSC BECMG 1216/1218 30010KT TEMPO 1220/1304 30020KT BECMG 1306/1308 12006KT TEMPO 1306/1312 FEW035TCU SCT100", "TAF OIII 121100Z 1212/1318 16006KT 7000 NSC TEMPO 1306/1312 16014 FEW035TCU SCT100", "TAF OIIP 121100Z 1212/1221 28008KT 7000 NSC TEMPO 1218/1221 28020KT", "TAF OIKB 121100Z 1212/1318 22006KT 7000 NSC TEMPO 1212/1215 22018KT TEMPO 1222/1304 4000 HZ/BR TEMPO 1308/1314 20016KT", "TAF OIKK 121100Z 1212/1318 12006KT 7000 NSC TEMPO 1212/1216 06020KT TEMPO 1310/1316 06014KT", "TAF OIMM 121100Z 1212/1318 12006KT 7000 NSC TEMPO 1212/1216 12020KT TEMPO 1306/1314 12020KT", "TAF OING 121100Z 1212/1221 26008KT 7000 SCT030 BKN090 TEMPO 1212/1216 FEW030CB SCT035 BKN090", "TAF OINZ 121100Z 1212/1221 21006KT 7000 SCT030 BKN090 TEMPO 1212/1216 4000 DZ BR FEW025CB SCT035 BKN090", "TAF OISL 121100Z 1212/1318 26006KT 7000 NSC TEMPO 1312/1318 24016KT FEW030TCU SCT100", "TAF OISS 121100Z 1212/1318 27006KT 6000 NSC TEMPO 1212/1215 27018KT TEMPO 1310/1314 27016KT", "TAF OITL 121100Z 1212/1221 06020KT 7000 FEW035 SCT090 TEMPO 1212/1215 3000 BR BKN010 FEW030CB BKN090 BECMG 1215/1217 06008KT 2000 BR BKN010 FEW030CB OVC090 TEMPO 1217/1221 0500 FG OVC005", "TAF OITR 121100Z 1212/1318 08006KT 7000 NSC TEMPO 1212/1215 08016KT BECMG 1218/1220 FEW030CB SCT035 BKN090 TEMPO 1309/1315 08016KT", "TAF OITT 121100Z 1212/1318 30006KT 7000 NSC TEMPO 1212/1215 27014KT FEW035TCU BECMG 1218/1220 09010KT SCT030 BKN090 TEMPO 1221/1306 09012G22KT FEW030CB SCT035 BKN100 BECMG 1306/1308 08006KT TEMPO 1306/1315 FEW030CB SCT035 BKN100", "TAF OIYY 121100Z 1212/1221 12008KT CAVOK", "TAF OIZH 121100Z 1212/1318 30006KT 7000 NSC TEMPO 12112/1215 03016KT TEMPO 1309/1315 03020KT", "TAF OJAI 121010Z 1212/1318 27008KT 6000 FEW030 PROB30 TEMPO 1301/1306 0800 FG BECMG 1304/1306 SCT030", "TAF OJAM 121010Z 1212/1318 29006KT 5000 HZ FEW030 PROB30 1301/1306 3000 BR BECMG 1304/1306 SCT030", "TAF OJAQ 121010Z 1212/1318 36014KT 6000 NSC BECMG 1304/1306 SCT040", "TAF OKAS 120800Z 1208/1314 34012G20KT 9999 SKC QNH2986INS BECMG 1210/1211 35012KT 8000 DU SKC QNH2987INS BECMG 1215/1216 36009KT 9999 SKC QNH2987INS BECMG 1304/1305 VRB06KT 9999 SKC QNH2986INS TX37/1211Z TN20/1303Z", "TAF OKBK 121100Z 1212/1318 35012KT 7000 NSC TEMPO 1301/1312 VRB03KT", "TAF OLBA 121000Z 1212/1318 32008KT 9999 FEW030 BECMG 1300/1303 21008KT 8000 SCT026 TEMPO 1303/1318 5000 -RA BKN025", "TAF OMAA 121100Z 1212/1318 33012KT 8000 NSC BECMG 1216/1218 04005KT PROB30 1223/1304 3000 BR BECMG 1304/1306 16010KT BECMG 1308/1310 33012KT BECMG 1316/1318 04005KT", "TAF OMAD 121100Z 1212/1318 33011KT 8000 NSC BECMG 1216/1218 04005KT PROB30 1223/1304 3000 BR BECMG 1304/1306 15008KT BECMG 1308/1310 33010KT BECMG 1316/1318 04005KT", "TAF OMAL 121100Z 1212/1318 33010KT 8000 NSC BECMG 1218/1220 05005KT PROB30 1223/1303 4000 HZ BECMG 1303/1305 16010KT BECMG 1310/1312 33010KT", "TAF OMDB 121100Z 1212/1318 34012KT 8000 NSC BECMG 1216/1218 10005KT PROB40 1222/1305 4000 HZ PROB30 1301/1304 3000 BR BKN005 BECMG 1308/1310 33010KT BECMG 1316/1318 09005KT", "TAF OMDW 121100Z 1212/1318 34014KT 7000 NSC BECMG 1216/1218 10005KT PROB40 1221/1305 4000 HZ PROB30 1223/1304 1500 BR BKN005 BECMG 1309/1311 33014KT BECMG 1316/1318 09005KT", "TAF OMFJ 121100Z 1212/1318 09006KT 8000 NSC BECMG 1214/1216 VRB03KT BECMG 1220/1222 29005KT BECMG 1306/1308 09008KT BECMG 1314/1316 VRB03KT", "TAF OMRK 121100Z 1212/1318 34010KT 8000 NSC BECMG 1215/1217 VRB02KT PROB40 1221/1305 4000 HZ PROB30 1223/1304 3000 BR BKN005 BECMG 1307/1309 33010KT BECMG 1315/1317 VRB02KT", "TAF OMSJ 121100Z 1212/1318 34013KT 8000 NSC BECMG 1216/1218 10005KT PROB40 1222/1305 4000 HZ PROB30 1300/1304 3000 BR BKN005 BECMG 1308/1310 33010KT BECMG 1316/1318 09005KT", "TAF OODQ 120500Z 1206/1306 22012KT 8000 NSC BECMG 1208/1210 10012KT BECMG 1215/1217 21008KT PROB30 TEMPO 1218/1303 4000 BR BKN020", "TAF OOMS 121100Z 1212/1318 05010KT 8000 NSC BECMG 1215/1217 VRB02KT TEMPO 1221/1301 25006KT BECMG 1307/1309 04012KT", "TAF OOSA 121140Z 1212/1318 19014KT CAVOK BECMG 1216/1218 VRB03KT 9999 SCT025 BECMG 1306/1308 19010KT", "TAF OOSH 121100Z 1212/1318 05010KT 8000 NSC BECMG 1215/1217 VRB02KT BECMG 1306/1308 05010KT", "TAF OPBW 120945Z 1212/1306 18010KT 4000 FU NSC TN21/1301Z PROB30 TEMPO 1300/1304 13005KT 2000 BR NSC", "TAF OPDG 120945Z 1212/1306 18010KT 4000 FU NSC TN21/1301Z", "TAF OPFA 120945Z 1212/1306 31003KT 4000 FU SCT040 TN21/1300Z TEMPO 1300/1304 00000KT 2000 BR FEW040", "TAF OPGD 120930Z 1212/1312 23008G18KT 6000 NSC FM121800 25007KT 3000 BR NSC TEMPO 1300/1304 VRB03KT 2000 BR NSC FM130400 23007G17KT 4000 HZ NSC", "TAF OPIS 120930Z 1212/1318 29010KT 5000 HZ FEW040 SCT100 PROB30 TEMPO 1212/1215 29015G25KT 4000 -TSRA FEW030CB SCT060 OVC100 TEMPO 1221/1303 11008KT 2000 BR TEMPO 1309/1312 29006G16KT 6000 NSC", "TAF OPKC 120930Z 1212/1318 24010KT 6000 NSC FM121900 04007KT 4000 FU NSC TEMPO 1300/1304 02005KT 3000 BR NSC FM130400 25010KT 6000 NSC", "TAF OPLA 120945Z 1212/1318 31008KT 4000 FU NSC TX33/1310Z TN22/1300Z TEMPO 1300/1305 05003KT 2000 BR", "TAF OPMT 120945Z 1212/1306 18010KT 4000 FU NSC TN22/1301Z PROB30 TEMPO 1301/1304 13005KT 2500 FU NSC", "TAF OPNH 120930Z 1212/1318 16010KT 6000 NSC FM121900 18007KT 4000 FU NSC TEMPO 1300/1304 VRB03KT 3000 FU NSC FM130400 16010KT 6000 NSC", "TAF OPPS 120930Z 1212/1318 13006KT 4000 FU FEW040 SCT100 TEMPO 1220/1223 31004KT 3000 BR FM130200 22006KT 5000 HZ FEW120 BECMG 1313/1317 05004KT 4000 FU FEW100", "TAF OPRK 120945Z 1212/1306 23010KT 4000 FU NSC TN20/1301Z", "TAF OPSK 120930Z 1212/1312 16010KT 5000 HZ NSC FM122000 VRB03KT 3000 HZ NSC FM130400 14010KT 5000 HZ NSC", "TAF OPST 120945Z 1212/1318 23006KT 4000 FU FEW040 TX31/1310Z TN19/1301Z TEMPO 1300/1304 05004KT 1500 BR", "TAF ORBI 121100Z 1212/1312 33007KT 8000 NSC", "TAF ORER 121100Z 1212/1312 24008KT 7000 NSC BECMG 1219/1221 VRB02KT FEW040 SCT100", "TAF ORMM 121100Z 1212/1312 30010KT CAVOK ", "TAF ORNI 121100Z 1212/1312 33007KT 7000 NSC", "TAF ORSU 121100Z 1212/1312 26010KT CAVOK BECMG 1301/1303 06006KT BECMG 1306/1308 21008KT 8000 FEW045 SCT080", "OSAP 121000Z 1212/1312 27008KT 9999 FEW030 SCT100 BECMG 1306/1309 24012KT 9999 FEW030", "OSDI 121000Z 1212/1318 22010KT CAVOK TEMPO 1212/1218 24010G20KT", "OSLK 121000Z 1212/1312 31015KT 9999 SCT030 TEMPO 1218/1306 06012KT", "TAF OTBD 121106Z 1212/1318 05007KT 8000 NSC TEMPO 1212/1216 11007KT TEMPO 1215/1301 35008KT TEMPO 1216/1303 VRB03KT TEMPO 1218/1303 28006KT PROB30 TEMPO 1221/1303 5000 HZ", "TAF OTBH 120800Z 1208/1314 29010KT 9999 SKC QNH2981INS BECMG 1212/1213 32006KT 9999 SKC QNH2978INS BECMG 1219/1220 VRB06KT 9000 HZ SKC QNH2980INS BECMG 1300/1301 VRB04KT 5000 BR SKC QNH2982INS BECMG 1304/1305 33009KT 9999 NSW SKC QNH2984INS TX39/1211Z TN23/1301Z", "TAF OTHH 121106Z 1212/1318 05007KT 8000 NSC TEMPO 1212/1216 11007KT TEMPO 1215/1301 35008KT TEMPO 1216/1303 VRB03KT TEMPO 1218/1303 28006KT PROB30 TEMPO 1221/1303 5000 HZ", "PAAQ 121126Z 1212/1312 VRB04KT P6SM BKN100 FM122100 08008KT 6SM -SN OVC050 FM130200 05010KT 5SM -SN OVC040", "PABE 121120Z 1212/1312 16011KT P6SM SCT080 FM121800 17008KT P6SM VCSH SCT015 BKN025", "TAF PABI 120600Z 1206/1312 VRB06KT 9999 SCT020 BKN030 620305 QNH3010INS BECMG 1211/1212 VRB06KT 9999 FEW030 SCT050 QNH3003INS BECMG 1304/1305 VRB06KT 9999 BKN020 OVC030 620209 QNH2965INS BECMG 1306/1308 VRB06KT 9000 -SN BKN008 OVC015 620089 QNH2953INS TXM01/1300Z TNM04/1306Z", "PABR 121152Z 1212/1312 25020G33KT 1 1/2SM -SN BLSN SCT006 OVC025 TEMPO 1212/1215 1/2SM SN BLSN BKN005 FM121500 25022KT 1/2SM SN OVC010 FM122000 27017KT 3SM -SN BR OVC015 FM130000 28013KT 5SM -SHSN OVC025", "PABT 121152Z 1212/1312 19004KT P6SM SCT025 BKN050 TEMPO 1213/1215 5SM -SN BKN025 FM121500 VRB03KT 5SM -SN BKN025 OVC050 FM122300 09005KT P6SM VCSH SCT020 BKN050", "PACD 121120Z 1212/1312 VRB04KT P6SM FEW030 FM121400 31008KT P6SM VCSH BKN035 TEMPO 1214/1218 BKN025 FM121800 31012KT P6SM VCSH BKN025 FM130200 30006KT P6SM SCT025 BKN035", "PACV 121126Z 1212/1312 VRB05KT P6SM -SHRA BKN035 FM121400 07005KT 6SM -RA BR OVC025 FM121800 07006KT 4SM -RA BR SCT015 OVC025 FM122100 08008G18KT 3SM RA BR OVC015 FM130600 08008KT 6SM -RA BKN015 OVC025", "PADL 121120Z 1212/1312 VRB06KT P6SM SKC", "PADQ 121126Z 1212/1312 35010KT P6SM BKN100 FM121400 35010KT P6SM -RA BKN050 FM121800 35018G25KT 5SM -RA SCT010 OVC020 FM130000 33020G30KT P6SM BKN035", "PADU 121120Z 1212/1312 30011KT P6SM BKN040 FM121600 VRB06KT P6SM BKN040 FM130800 13012G20KT P6SM VCSH SCT025 BKN040 FM131100 13015G25KT P6SM -SHRA BKN025", "TAF PAED 121300Z 1213/1319 35009KT 9999 VCFG SCT005 BKN070 620709 QNH2992INS TEMPO 1214/1217 BKN005 BECMG 1220/1221 36010G15KT 9999 VCSH FEW015 BKN060 BKN100 620609 QNH2971INS TEMPO 1221/1300 4800 -SN BECMG 1301/1302 34009KT 9999 NSW FEW025 BKN040 QNH2948INS BECMG 1309/1310 35006KT 9999 FEW040 SCT150 QNH2950INS TX02/1301Z TNM03/1215Z", "TAF AMD PAEI 120730Z 1207/1312 VRB03KT 9999 FEW040 BKN050 620505 QNH3008INS TEMPO 1207/1212 9000 -SHSN BKN015 620206 BECMG 1221/1222 VRB03KT 9999 FEW060 BKN120 QNH2984INS TX00/1223Z TNM07/1213Z", "PAEN 121126Z 1212/1312 02008KT P6SM BKN100 FM122000 01014KT P6SM OVC050 FM130900 34008KT P6SM BKN060", "PAFA 121222Z 1212/1318 00000KT P6SM VCFG FEW003 SCT050 TEMPO 1212/1216 1/2SM -SN FZFG BKN002 FM121800 00000KT P6SM SCT050 FM130800 30005KT P6SM VCSH BKN060", "TAF AMD PAFB 121043Z 1210/1312 VRB04KT 9999 VCSH BKN008 620009 QNH3012INS TEMPO 1211/1215 0800 -SN FZFG OVC002 620009 BECMG 1218/1219 25006KT 9999 NSW FEW005 BKN010 620108 QNH3015INS BECMG 1221/1222 28006KT 9999 SCT020 SCT050 BKN100 621002 QNH2982INS TX00/1301Z TNM05/1214Z", "PAGA 121152Z 1212/1312 23005KT P6SM VCSH OVC045 FM121700 12008KT 5SM -SN BKN025 AMD LTD TO CLD VIS WX", "PAGK 121140Z 1212/1312 33003KT 4SM -SN BR BKN035 OVC060 FM121600 35006KT 2SM -SN BR OVC025 FM122000 33005KT 1/2SM SN FG VV010 FM130000 33008G16KT 1/4SM +SN FZFG BLSN VV006", "PAGS 121122Z 1212/1312 14006KT P6SM -RA BKN030 OVC050 FM121400 13011KT 5SM -RA BR SCT015 OVC025 FM121900 14014G21KT 4SM RA BR BKN015 OVC025 WS020/19035KT FM130000 14019G29KT 4SM RA BR BKN015 OVC025 WS020/18040KT AMD LTD TO CLD VIS AND WIND", "PAGY 121122Z 1212/1312 21020G30KT P6SM -RA OVC100 FM121700 21012G22KT 6SM -RA BR SCT010 SCT015 OVC030 FM122300 21018G30KT 4SM -RA BR SCT010 OVC035 WS020/21050KT FM130200 21030G40KT 4SM RA BR SCT010 OVC025 AMD LTD TO CLD VIS AND WIND", "PAHN 121122Z 1212/1312 09010G20KT 6SM -RA BKN015 OVC035 FM121700 10008G18KT 5SM -RA BR SCT010 BKN015 OVC030 FM122200 10015G25KT 4SM RA BR BKN015 OVC025 WS020/19050KT AMD LTD TO CLD VIS AND WIND", "PAHO 121126Z 1212/1312 36010KT P6SM BKN100 FM121800 05005KT 6SM -SN OVC040 FM130000 35010KT P6SM BKN060", "PAIL 121120Z 1212/1312 36006KT P6SM SCT250", "PAJN 121122Z 1212/1312 08008KT P6SM -RA FEW020 OVC030 FM121700 11015G25KT 4SM -RA BR SCT015 OVC025 WS020/18040KT FM130200 11025G34KT 4SM RA BR BKN015 OVC025 WS020/17045KT", "PAKN 121120Z 1212/1312 31006KT P6SM SCT250", "PAKT 121122Z 1212/1312 13008KT 6SM BR VCSH FEW005 SCT010 OVC035 TEMPO 1212/1216 4SM -SHRA BR BKN005 OVC030 FM121600 13010KT P6SM SCT015 OVC045 AMD LTD TO CLD VIS AND WIND 1212/1215", "PAKW 121122Z 1212/1312 19003KT P6SM VCSH FEW020 BKN035 OVC060 TEMPO 1212/1216 VRB03KT 4SM -SHRA BR BKN020 OVC035 FM121900 17008KT P6SM -SHRA SCT015 OVC035 AMD LTD TO CLD VIS AND WIND", "PAMC 121152Z 1212/1312 VRB03KT P6SM SKC", "PANC 121126Z 1212/1318 02008KT P6SM FEW070 BKN100 FM121500 02011KT P6SM SCT050 BKN120 FM121800 02011KT 6SM -SN BKN035 OVC050 FM130000 01015G25KT 6SM -SN BKN035 OVC050 FM130600 35010KT P6SM BKN060", "PAOM 121152Z 1212/1312 04005KT P6SM BKN050 TEMPO 1212/1215 3SM -SHSN BKN025", "PAOR 121152Z 1212/1312 30005KT P6SM OVC110 FM122000 32005KT 3SM -SN BR BKN025 FM122300 31005KT 1SM -SN BR OVC010", "PAOT 121152Z 1212/1312 33011KT P6SM VCSH SCT025 BKN040", "PAPG 121122Z 1212/1312 21003KT P6SM -RA OVC025 TEMPO 1212/1216 4SM BR SCT005 OVC020 FM121800 14010KT 6SM -RA BR OVC025 FM122300 08009KT 5SM -RA BKN015 OVC025 AMD LTD TO CLD VIS AND WIND 1212/1215", "PAQT 121152Z 1212/1312 23015KT P6SM BKN100 FM121900 23022KT P6SM BKN060 FM122100 23025G33KT 6SM -SHSN BLSN SCT025 OVC060 FM130600 25015KT 5SM -SHSN BKN025", "PASC 121152Z 1212/1312 23015KT P6SM BKN100 FM122000 23022KT P6SM BKN060 FM122200 23025G33KT 6SM -SHSN BLSN SCT025 OVC060 FM130600 25015KT 5SM -SHSN BKN025", "PASD 121120Z 1212/1312 VRB06KT P6SM SKC", "PASI 121122Z 1212/1312 11007KT P6SM -RA SCT030 OVC060 TEMPO 1212/1216 4SM -RA OVC030 FM121900 12012G19KT 4SM -RA BR SCT005 OVC015 WS020/17035KT FM122300 14019G29KT 4SM -RA BR SCT005 OVC015 WS020/18040KT", "PASN 121120Z 1212/1312 24006KT P6SM SCT025 BKN050 FM130300 13012KT 6SM -SHRA BKN025 FM131000 12018G26KT 5SM -SHRA BKN015", "TAF PASY 120600Z 1206/1312 14030KT 9000 -RA OVC006 510009 QNH2978INS BECMG 1210/1212 16020KT 9000 -RA OVC005 QNH2953INS BECMG 1214/1215 25015KT 8000 BR OVC005 QNH2924INS BECMG 1302/1304 24020KT 9999 NSW OVC009 QNH2917INS TX08/1214Z TN06/1206Z LIMITED METWATCH 1206 TIL 1217", "PATA 121152Z 1212/1312 VRB03KT P6SM -SHSN BKN025 OVC040 TEMPO 1214/1217 2SM BR BKN005 FM121900 09005KT P6SM VCSH SCT020 BKN050", "PATK 121126Z 1212/1312 VRB05KT P6SM BKN100 FM130300 05010KT P6SM OVC050", "PAUN 121152Z 1212/1312 11013KT 1 1/2SM -SN BR OVC015 FM122000 27008KT 4SM -SN BR BKN012", "PAVD 121140Z 1212/1312 VRB03KT 6SM -SHRA SCT008 OVC040 FM121800 05008KT 4SM -RA BR SCT003 OVC015 FM122200 04008G18KT 3SM -RA BR SCT015 OVC030 FM130200 07016G38KT 2SM -RASN BR OVC020 FM130600 07014G35KT 1SM -SN BLSN OVC015 FM130900 07010G25KT 4SM -SHSN SCT015 BKN030 AMD LTD TO CLD VIS AND WIND", "PAWG 120524Z 1206/1306 12006KT P6SM VCSH SCT004 BKN040 FM121100 12005KT P6SM VCSH SCT006 BKN025 FM122000 13009KT P6SM SCT015 BKN035 AMD NOT SKED 1206/1215", "PAYA 121122Z 1212/1312 09005KT P6SM -RA OVC035 FM121400 08007KT 5SM -RA BR SCT015 OVC030 FM121600 10010G15KT 3SM RA BR SCT005 OVC015 WS020/10040KT FM130000 15015G30KT 3SM RA BR SCT005 OVC015 WS020/18050KT AMD LTD TO CLD VIS AND WIND", "PGRO 120549Z 1206/1306 18014KT P6SM VCSH SCT018 BKN060 BKN100", "PGSN 121137Z 1212/1312 16011KT P6SM VCSH FEW020 SCT030 TEMPO 1212/1216 14011G19KT -SHRA SCT020 BKN050 FM130200 19015KT P6SM VCSH SCT018 BKN050", "TAF PGUA 121000Z 1210/1316 20015KT 9999 VCSH SCT014 BKN045 QNH2967INS TEMPO 1215/1306 19015G20KT 8000 -SHRA BKN009 BKN012 TX30/1303Z TN24/1220Z", "PGUM 121137Z 1212/1318 17009KT P6SM VCSH FEW019 SCT040 BKN120 TEMPO 1212/1216 17010G20KT 5SM -SHRA SCT018 BKN030 FM130200 19015KT P6SM VCSH SCT018 BKN050", "PGWT 120549Z 1206/1306 17011KT P6SM VCSH FEW020 FEW050", "TAF PHHI 120700Z 1207/1313 VRB06KT 9999 BKN025 QNH3001INS TEMPO 1213/1218 6000 -SHRA BKN015 OVC025 BECMG 1220/1221 04006KT 9999 BKN015 BKN025 OVC040 QNH3006INS TEMPO 1222/1303 3200 RA BKN006 TX27/1223Z TN20/1215Z", "PHJH 120236Z 1203/1224 36012KT P6SM VCSH SCT035 FM120600 02005KT P6SM FEW025", "PHJR 121123Z 1212/1312 VRB05KT P6SM VCSH FEW020 SCT045 FM122000 22008KT P6SM VCSH SCT025 BKN045 FM130500 VRB05KT P6SM VCSH SCT020 BKN040", "PHKO 121123Z 1212/1312 11007KT P6SM FEW050 FM122000 27011KT P6SM VCSH SCT030 BKN045 FM130500 15007KT P6SM VCSH FEW030 SCT050", "PHLI 121123Z 1212/1312 28006KT P6SM VCSH FEW020 SCT040 FM122000 06009KT P6SM VCSH SCT025 BKN040 FM130600 28006KT P6SM VCSH SCT025 BKN040", "PHMK 121123Z 1212/1312 VRB04KT P6SM VCSH FEW020 SCT045 FM122000 02008KT P6SM VCSH SCT025 BKN035 FM130500 VRB06KT P6SM VCSH SCT025 BKN040", "TAF PHNG 1209/1309 VRB05KT 9999 SCT025 SCT045 QNH2993INS TEMPO 1209/1215 06005KT 8000 -SHRA BKN020 BKN045 TEMPO 1215/1221 10005KT 6000 -SHRA BKN025 OVC045 T25/1211Z T28/1222Z", "PHNL 121123Z 1212/1318 35005KT P6SM VCSH SCT020 BKN045 FM122000 20009KT P6SM VCSH SCT025 BKN045 FM130500 VRB06KT P6SM VCSH SCT025 BKN045", "PHNY 121123Z 1212/1312 VRB05KT P6SM VCSH SCT010 FM122000 27008KT P6SM VCSH BKN015 FM130600 VRB05KT P6SM VCSH SCT015", "PHOG 121123Z 1212/1312 VRB06KT P6SM FEW030 FEW045 FM122000 02012KT P6SM SCT030 SCT045 FM130600 VRB06KT P6SM FEW030 SCT050", "PHTO 121123Z 1212/1312 24006KT P6SM FEW030 FM122000 07009KT P6SM VCSH SCT030 FM130500 24005KT P6SM VCSH SCT025 BKN045", "PKMJ 121137Z 1212/1312 09015KT P6SM VCSH SCT014 SCT050 BKN110", "PKWA 121137Z 1212/1312 11012KT P6SM VCSH FEW020 SCT030", "TAF PLCH 121107Z 1212/1312 12006KT 9999 FEW020 PROB30 TEMPO 1212/1312 11015G25KT", "PMDY 121123Z 1212/1312 05012KT P6SM VCSH SCT025 BKN040", "PTKK 121137Z 1212/1312 20011KT P6SM VCSH SCT012 OVC120 TEMPO 1212/1216 VRB11G22KT 4SM SHRA SCT012 BKN025 OVC090 FM122000 17011KT P6SM VCSH SCT014 BKN120", "PTPN 120549Z 1206/1306 13009KT P6SM VCSH SCT017 OVC130 TEMPO 1206/1210 3SM SHRA BKN017 BKN050", "PTRO 121137Z 1212/1312 25008KT P6SM VCTS SCT015CB BKN110 TEMPO 1212/1216 19009G20KT 3SM +TSRA BKN014CB FM122000 25010KT P6SM VCSH SCT015 BKN120", "PTSA 120549Z 1206/1306 11008KT P6SM VCSH BKN018 BKN130", "PTYA 121137Z 1212/1312 23011KT P6SM VCSH SCT016 BKN120 TEMPO 1212/1216 24014G21KT 5SM -SHRA BKN014 OVC110", "TAF AMD PWAK 121233Z 1212/1312 15010G20KT 8000 -SHRA SCT020 QNH2981INS TEMPO 1212/1220 4800 +RA BKN020 TX27/1301Z TN24/1306Z FOR MIL USE ONLY", "TAF RCFN 121100Z 1212/1312 36007KT 9999 FEW015 BKN050 TEMPO 1221/1303 01008G18KT TEMPO 1303/1309 05012G22KT", "TAF RCKH 121100Z 1212/1318 36005KT 9999 FEW010 SCT050 TEMPO 1218/1224 06005KT 5000 BR BECMG 1300/1302 27005KT TEMPO 1303/1309 29010KT FEW015 BKN032", "TAF RCMQ 121100Z 1212/1312 01012KT 9999 FEW012 SCT080 TX27/1305Z TN19/1221Z BECMG 1214/1217 FEW010 BKN060 TEMPO 1218/1223 FEW010 BKN040 BECMG 1302/1305 01016KT FEW012 STC100", "TAF RCNN 121100Z 1212/1312 34010KT 9999 FEW012 SCT080 TX30/1305Z TN20/1220Z BECMG 1214/1217 03004KT FEW012 BKN060 TEMPO 1218/1223 8000 FEW012 SCT060 BECMG 1301/1304 32006KT FEW012 SCT100 BECMG 1308/1311 01012KT FEW012 BKN060", "TAF RCSS 121100Z 1212/1312 09010KT 9000 FEW008 SCT020 BKN032 TEMPO 1212/1218 08015KT FEW008 BKN020 BKN040 TEMPO 1218/1224 10005KT 4000 RA FEW006 BKN017 BKN030 TEMPO 1303/1309 07015KT 5000 RA FEW008 BKN020 BKN040", "TAF RCTP 121100Z 1212/1318 06018KT 9999 FEW010 BKN025 BKN040 TEMPO 1212/1218 05023KT SCT008 BKN013 BKN030 TEMPO 1218/1224 07013KT 5000 RA SCT007 BKN011 BKN025 TEMPO 1303/1309 05023G33KT FEW008 BKN015 BKN030 BECMG 1310/1312 FEW010 BKN032 BKN050", "TAF RJAA 121105Z 1212/1318 01010KT 8000 -RA FEW020 BKN040 BECMG 1218/1220 FEW005 BKN008 TEMPO 1300/1306 3000 RA BR FEW003 BKN005 BECMG 1309/1312 FEW020 BKN040", "TAF RJAH 121105Z 1212/1318 01006KT 9999 -RA FEW020 BKN040", "TAF RJBB 121105Z 1212/1318 05014KT 9999 FEW020 SCT050", "TAF RJCB 121106Z 1212/1318 36005KT 9999 FEW020 BECMG 1300/1303 15009KT BECMG 1309/1312 32005KT", "TAF RJCC 121105Z 1212/1318 35006KT 9999 FEW020 BECMG 1300/1303 16006KT", "TAF RJCH 121106Z 1212/1318 04005KT 9999 FEW030", "TAF RJCK 121106Z 1212/1318 36006KT 9999 FEW030 BECMG 1300/1303 17007KT BECMG 1309/1312 35005KT TEMPO 1312/1318 FEW005 BKN008", "TAF RJCM 121106Z 1212/1318 20005KT 9999 FEW020", "TAF RJEC 121107Z 1212/1318 17006KT 9999 FEW005 BECMG 1303/1306 32006KT BECMG 1309/1312 17005KT", "TAF RJFF 121105Z 1212/1318 08004KT 9999 FEW015 BECMG 1300/1303 04009KT BECMG 1315/1318 14003KT", "TAF RJFK 121109Z 1212/1318 34005KT 9999 FEW020 BECMG 1300/1303 09010KT", "TAF RJFM 121105Z 1212/1318 02015KT 9999 FEW030 BKN050 BECMG 1212/1214 32007KT BECMG 1221/1223 03018KT", "TAF RJFO 121105Z 1212/1318 04014KT 9999 FEW030 BECMG 1312/1315 33006KT", "TAF RJFR 121106Z 1212/1318 01010KT 9999 FEW025 BECMG 1300/1303 15005KT BECMG 1309/1312 03007KT", "TAF RJFS 121107Z 1212/1318 03008KT 9999 FEW030", "TAF RJFT 121106Z 1212/1318 05011KT 9999 FEW035", "TAF RJFU 121105Z 1212/1318 06010KT 9999 FEW030 BECMG 1215/1217 14005KT BECMG 1300/1303 03011KT", "TAF RJGG 121105Z 1212/1318 35006KT 9999 FEW030 SCT050", "TAF RJNK 121106Z 1212/1318 05010KT 9999 FEW040 BECMG 1312/1315 14004KT", "TAF RJNS 121106Z 1212/1318 06006KT 9999 FEW020 SCT070 BECMG 1309/1312 36004KT", "TAF RJNT 121107Z 1212/1318 20004KT 9999 FEW020 BECMG 1300/1303 01010KT BECMG 1309/1312 20004KT", "TAF RJOA 121105Z 1212/1318 02007KT 9999 FEW025 BECMG 1315/1318 35005KT", "TAF RJOB 121105Z 1212/1318 02006KT 9999 FEW025", "TAF RJOC 121106Z 1212/1318 12007KT 9999 FEW025 SCT050 BECMG 1213/1215 17004KT BECMG 1221/1223 07017KT BECMG 1312/1315 17006KT", "TAF RJOH 121107Z 1212/1318 06014KT 9999 FEW030 SCT045 BECMG 1312/1315 18004KT", "TAF AMD RJOI 1209/1309 09008KT FEW040 FEW090 542109 543009 QNH3018INS BECMG 1211/1213 03015KT 9999 FEW020 BKN050 510505 QNH3015INS TEMPO 1219/1223 04008KT FM130100 05015KT 9999 FEW020 SCT050 510505 QNH3010INS FM130500 07013KT 9999 FEW030 510505 QNH3007INS T14/1221Z T23/1304Z AMD 0918", "TAF RJOK 121107Z 1212/1318 35012KT 9999 FEW025 BKN050 BECMG 1300/1303 18008KT BECMG 1306/1309 35008KT", "TAF RJOM 121106Z 1212/1318 12007KT 9999 FEW025 BECMG 1300/1303 01010KT BECMG 1306/1309 12007KT", "TAF RJOO 121108Z 1212/1318 33005KT 9999 FEW025 BECMG 1300/1303 07006KT BECMG 1306/1309 34008KT", "TAF RJOT 121107Z 1212/1318 15005KT 9999 FEW020 BKN050 BECMG 1300/1303 07011KT BECMG 1309/1312 15005KT", "TAF RJSA 121107Z 1212/1318 20004KT 9999 FEW020 BECMG 1300/1303 02008KT BECMG 1309/1312 20004KT", "TAF RJSF 121108Z 1212/1318 02005KT 9999 FEW020 SCT040", "TAF RJSI 121105Z 1212/1318 01005KT 9999 FEW020 SCT030 BECMG 1300/1303 19005KT BECMG 1312/1315 01004KT", "TAF RJSK 121108Z 1212/1318 12005KT 9999 FEW020", "TAF RJSN 121107Z 1212/1318 12004KT 9999 FEW030", "TAF RJSS 121105Z 1212/1318 34005KT 9999 FEW020 BECMG 1300/1303 08008KT BECMG 1312/1315 34004KT", "TAF RJTT 121108Z 1212/1318 02012KT 9999 FEW015 BKN030", "TAF RJTY 121300Z 1213/1319 35006KT 9000 -DZ SCT015 BKN030 OVC050 QNH3030INS TEMPO 1213/1220 9999 BKN040 TEMPO 1220/1224 6000 -RA BKN015 OVC030 BECMG 1300/1301 35009KT 8000 -RA SCT015 OVC030 QNH3025INS BECMG 1306/1307 35009KT 6000 -RA SCT015 OVC020 QNH3022INS TEMPO 1307/1315 4800 -RA BR SCT008 BKN015 TX21/1305Z TN14/1220Z", "TAF RKJB 121100Z 1212/1318 05005KT CAVOK TN10/1221Z TX22/1305Z BECMG 1220/1221 11005KT 4000 BR NSC BECMG 1222/1223 CAVOK BECMG 1302/1303 35007KT BECMG 1311/1312 11005KT", "TAF RKJK 120800Z 1208/1314 35009KT 9999 SKC QNH3026INS BECMG 1212/1213 VRB06KT 6000 BR SKC QNH3029INS BECMG 1216/1217 09006KT 3200 BR SKC QNH3027INS TEMPO 1220/1223 1600 BR BECMG 1223/1224 06009KT 9999 NSW FEW030 QNH3024INS BECMG 1304/1305 03009KT 9999 SKC QNH3020INS TX18/1306Z TN06/1222Z", "TAF RKNY 121100Z 1212/1318 26006KT CAVOK TN10/1221Z TX19/1305Z BECMG 1223/1301 12005KT BECMG 1308/1310 25006KT", "TAF RKPC 121100Z 1212/1318 09012KT 9999 SCT035 TN17/1219Z TX21/1305Z BECMG 1213/1214 BKN035 BECMG 1219/1220 07017G30KT BECMG 1306/1307 SCT030 BECMG 1312/1313 08010KT", "TAF RKPK 121100Z 1212/1318 03006KT 9999 SCT030 TN10/1221Z TX24/1306Z TEMPO 1218/1221 BKN030 BECMG 1302/1303 03009KT BECMG 1309/1310 03006KT", "TAF RKSG 121100Z 1211/1317 VRB06KT 9999 FEW028 QNH3022INS TX20/1306Z TN09/1222Z", "TAF RKSI 121100Z 1212/1318 06006KT CAVOK TN12/1221Z TX20/1305Z TEMPO 1216/1219 14006KT BECMG 1304/1306 30010KT BECMG 1309/1311 06006KT", "TAF RKSM 121100Z 1212/1318 03006KT 9999 SCT030 TN09/1221Z TX21/1306Z", "TAF RKSO 121300Z 1213/1319 08006KT 8000 BR FEW030 QNH3030INS BECMG 1223/1224 07006KT 6000 BR FEW030 QNH3028INS BECMG 1301/1302 06006KT 8000 HZ FEW030 QNH3025INS BECMG 1317/1318 VRB06KT 9000 HZ FEW030 BKN180 QNH3021INS TX20/1306Z TN08/1222Z", "TAF RKSS 121100Z 1212/1318 08005KT CAVOK TN09/1221Z TX23/1305Z BECMG 1305/1307 36005KT BECMG 1317/1318 08005KT", "TAF RKTN 121100Z 1212/1318 13006KT 9999 SCT030 SCT200 TN07/1221Z TX23/1306Z", "TAF RKTU 121100Z 1212/1318 06006KT CAVOK TN06/1221Z TX23/1306Z BECMG 1217/1218 4800 BR NSC BECMG 1219/1220 1600 BECMG 1223/1224 4800 BECMG 1301/1302 9999 NSW", "TAF ROAH 121105Z 1212/1318 04016KT 9999 FEW025 BKN045 TEMPO 1300/1312 05021G33KT", "TAF RODN 120800Z 1208/1314 03012KT 9999 SCT030 OVC050 QNH2989INS BECMG 1221/1222 02012G18KT 9999 BKN030 QNH2985INS BECMG 1303/1304 03020G25KT 9999 BKN030 QNH2980INS TX28/1305Z TN23/1219Z", "TAF ROIG 121105Z 1212/1318 04020KT 9999 FEW020 BKN035", "TAF ROTM 1209/1309 04010KT 9999 SCT035 BKN080 BKN150 510505 QNH2990INS BECMG 1220/1222 04012G20KT 9999 FEW035 BKN080 OVC150 510505 QNH2993INS FM130300 04012G20KT 9999 SCT035 BKN080 OVC150 500000 QNH2995INS T22/1218Z T27/1304Z", "TAF RPLB 121100Z 1212/1312 15004KT 9999 FEW020 BKN300 TX31/1305Z TN24/1221Z TEMPO 1212/1218 17008KT 8000 -TSRA FEW016CB SCT018 BKN080", "TAF RPLC 121100Z 1212/1218 18006KT 9999 FEW020 BKN300 TX34/1306Z TN25/1221Z TEMPO 1212/1218 25008KT SCT020 BKN100", "TAF RPLI 121100Z 1212/1312 02008KT 9999 FEW018 BKN090 TEMPO 1212/1218 02014KT 6000 -TSRA FEW017CB SCT018 OVC080", "TAF RPLL 121100Z 1212/1318 25006KT 9999 FEW025 SCT100 BKN290 TX32/1305Z TN26/1221Z TEMPO 1212/1216 VRB03KT -SHRA FEW023CB SCT025 BKN100 BECMG 1216/1218 12005KT", "TAF RPMD 120500Z 1206/1306 18006KT 9999 FEW016 SCT090 BKN290 TEMPO 1206/1212 20008KT -SHRA FEW015CB SCT016 BKN090", "TAF RPMR 121100Z 1212/1312 23006KT 9999 FEW018 SCT080 TEMPO 1212/1218 28005KT FEW017CB FEW018 BKN080", "TAF RPMZ 121100Z 1212/1312 25006KT 9999 FEW017 SCT090 BKN300 TEMPO 1212/1218 32004KT -SHRA FEW016CB FEW017 BKN090", "TAF RPVD 121100Z 1212/1312 25006KT 9999 FEW015 SCT070 TEMPO 1212/1218 27008KT FEW014CB SCT015 BKN070", "TAF RPVM 121100Z 1212/1318 22006KT 9999 FEW020 SCT300 TEMPO 1212/1218 23009KT -SHRA FEW018CB BKN100 TEMPO 1218/1224 24010KT FEW020 BKN250", "TAF RPVP 121100Z 1212/1312 22006KT 9999 FEW019 SCT250 TEMPO 1212/1218 27006KT FEW017CB SCT080", "TAF SAAR 121100Z 1212/1312 36005KT CAVOK TX30/1218Z TN12/1308Z BECMG 1213/1215 33015KT BECMG 1220/1222 36010KT BECMG 1305/1307 18015G25KT ", "TAF SABE 121100Z 1212/1312 32015KT CAVOK TX26/1218Z TN14/1308Z BECMG 1222/1301 22010KT TEMPO 1304/1310 8000 -RA BKN040 BECMG 1307/1309 18015KT ", "TAF SACO 121100Z 1212/1312 36010KT CAVOK TX29/1218Z TN10/1310Z TEMPO 1214/1217 18010KT BECMG 1306/1309 20020G30KT 5000 BLDU SCT025", "TAF SADF 121100Z 1212/1312 32010KT CAVOK TX28/1219Z TN12/1310Z BECMG 1214/1216 32015G25KT BECMG 1220/1221 29010KT BECMG 1301/1303 VRB02KT BECMG 1307/1309 17020KT 9999 BKN035", "TAF SAEZ 121100Z 1212/1312 36010KT CAVOK TX28/1218Z TN10/1310Z BECMG 1213/1215 34015G28KT BECMG 1300/1302 27005KT BECMG 1306/1308 20015G25KT 9999 SCT020 BKN070 PROB40 TEMPO 1307/1310 7000 SHRA BKN15 BKN050", "TAF SAME 121100Z 1212/1312 16005KT CAVOK TX30/1220Z TN08/1311Z BECMG 1214/1216 05007KT BECMG 1303/1305 18015KT", "TAF SANR 121100Z 1212/1312 VRB03KT CAVOK TX29/1218Z TN10/1210Z BECMG 1218/1221 02010KT BECMG 1306/1309 18020KT", "TAF SANT 121100Z 1212/1312 36010KT CAVOK TX29/1218Z TN11/1310Z BECMG 1223/1302 32005KT", "TAF SARE 121100Z 1212/1312 14005KT CAVOK TX28/1218Z TN14/1310Z BECMG 1218/1220 02005KT", "TAF SARF 121100Z 1212/1312 14005KT CAVOK TX29/1218Z TN14/1310Z BECMG 1221/1222 07005KT", "TAF SARI 121100Z 1212/1312 14005KT 9999 OVC015 TX22/1218Z TN15/1310Z BECMG 1220/1221 CAVOK BECMG 1304/1305 0500 FG BKN006", "TAF SARP 121100Z 1212/1312 30005KT 9999 BKN015 TX25/1218Z TN13/1310Z BECMG 1217/1218 CAVOK PROB30 1304/1311 0800 BCFG NSC", "TAF SASA 121100Z 1212/1312 VRB03KT CAVOK TX25/1218Z TN09/1310Z TEMPO 1218/1221 05015KT", "TAF SASJ 121100Z 1212/1312 VRB03KT CAVOK TX26/1218Z TN10/1310Z BECMG 1215/1218 05010KT BECMG 1300/1303 32005KT", "TAF SAVC 121100Z 1212/1312 27025G40KT 9000 BLDU NSC TX14/1218Z TN02/1310Z BECMG 1213/1216 23025G45KT FEW030 BKN090 BECMG 1222/1224 23020KT CAVOK ", "TAF SAWE 121100Z 1212/1312 30020G30KT CAVOK TX09/1218Z TNM02/1310Z BECMG 1213/1216 25025G40KT 9999 SCT035 SCT090 BECMG 1222/1224 25020KT CAVOK ", "TAF SAWG 121100Z 1212/1312 25020G35KT 9999 SCT025 BKN060 TX09/1218Z TNM01/1310Z BECMG 1213/1216 23030G45KT PROB40 TEMPO 1218/1220 23035G52KT SHRA BECMG 1300/1302 CAVOK BECMG 1303/1305 25015G25KT ", "TAF SAWH 121100Z 1212/1312 23010G25KT 6000 -SHRASN SCT020 BKN040 TX05/1218Z TNM01/1303Z TEMPO 1212/1214 0500 SN BECMG 1215/1217 23025G45KT 5000 DZRA SCT015 OVC045 BECMG 1221/1223 23020G35KT 9999 -SHSNRA ", "TAF SAZM 121100Z 1212/1312 32017KT CAVOK TX22/1216Z TN06/1309Z BECMG 1217/1218 20015G25KT 9999 SCT040 BKN100 BECMG 1300/1301 20015KT TEMPO 1303/1306 6000 SHRA SCT030 FEW040TCU BKN080", "TAF SAZN 121100Z 1212/1312 27010KT CAVOK TX20/1218Z TN02/1309Z BECMG 1213/1216 24025G40KT BECMG 1300/1302 24015KT BECMG 1305/1307 VRB03KT ", "TAF SAZS 121100Z 1212/1312 29035G50KT 3000 DU SCT035 TX09/1218Z TNM02/1309Z BECMG 1215/1217 29025G40KT 5000 DU BKN035 BECMG 1221/1223 29010KT 9999 SCT015 BECMG 1307/1309 29003KT CAVOK ", "TAF SBAC 120856Z 1212/1224 12010KT 9999 FEW030 TX32/1217Z TN27/1224Z BECMG 1216/1218 04012KT RMK PHC", "TAF SBAF 120900Z 1212/1224 27005KT 8000 BKN010 TX32/1216Z TN21/1224Z BECMG 1212/1214 9999 SCT020 RMK PDZ", "TAF SBAN 120900Z 1212/1224 04005KT 9999 FEW030 TX31/1217Z TN24/1224Z BECMG 1214/1216 SCT030 RMK PDZ", "TAF SBAR 120856Z 1212/1312 11010KT 8000 SCT023 TX29/1216Z TN24/1309Z BECMG 1212/1214 14010KT BECMG 1220/1222 14005KT BECMG 1223/1302 10006KT BECMG 1308/1311 12010KT 7000 BKN020 RMK PHC", "TAF SBAT 120900Z 1212/1224 12005KT 7000 SCT020 TX31/1218Z TN25/1224Z TEMPO 1212/1215 4500 FU BECMG 1219/1221 36005KT FEW030 FEW035TCU BECMG 1221/1223 18010KT 3000 TSRA BKN015 FEW040CB RMK PFV", "TAF SBBE 120900Z 1212/1312 08010KT 9999 SCT017 TX32/1215Z TN23/1309Z BECMG 1214/1216 BKN040 BECMG 1216/1218 36010KT BKN035 FEW040TCU TEMPO 1218/1221 4500 TSRA BKN020 FEW030CB BECMG 1222/1224 06005KT CAVOK RMK PFV", "TAF SBBG 120900Z 1212/1224 21006KT 4000 BR BKN004 BKN008 TX20/1217Z TN12/1224Z BECMG 1212/1214 9999 NSW SCT015 BECMG 1215/1217 CAVOK RMK PEL", "TAF SBBI 120900Z 1212/1224 12005KT 8000 SCT015 TX19/1215Z TN15/1224Z TEMPO 1212/1218 4000 RA BKN008 RMK PDZ", "TAF SBBR 120800Z 1212/1312 07010KT CAVOK TX32/1218Z TN20/1309Z BECMG 1213/1215 SCT040 BECMG 1219/1221 13005KT CAVOK BECMG 1300/1302 08005KT TEMPO 1302/1311 27003KT RMK PGO", "TAF SBBU 120830Z 1212/1224 14005KT 7000 RA BKN010 TN21/1212Z TX28/1218Z BECMG 1214/1216 33010KT 9999 NSW SCT035 PROB30 1218/1221 8000 TSRA BKN030 FEW040CB RMK PGG", "TAF SBBV 120900Z 1212/1312 12005KT 9999 BKN025 FEW030TCU TX31/1218Z TN23/1309Z TEMPO 1218/1221 13010KT 6000 TSRA BKN040 FEW045CB BECMG 1300/1302 03005KT FEW040 RMK PFV", "TAF SBBW 120800Z 1212/1224 13005KT 9999 SCT020 FEW025TCU TX34/1219Z TN25/1223Z PROB30 1212/1213 22003KT 9000 FEW007 BKN015 TEMPO 1216/1224 05005KT 9999 VCTS SCT020 FEW025CB RMK PGO", "TAF SBCB 120856Z 1212/1224 06015KT 8000 FEW020 TX29/1217Z TN24/1224Z BECMG 1212/1214 06020KT BECMG 1219/1221 06015KT RMK PHC", "TAF SBCF 120800Z 1212/1312 10005KT CAVOK TX31/1218Z TN17/1309Z BECMG 1212/1214 03008KT BECMG 1220/1222 12007KT PROB30 1305/1309 15004KT BECMG 1309/1311 08007KT RMK PGO", "TAF SBCG 120800Z 1212/1312 14005KT 9999 FEW045 TX26/1219Z TN20/1310Z TEMPO 1212/1214 06005KT 4000 TSRA BR BKN010 FEW050CB TEMPO 1214/1218 03007KT 7000 TSRA BKN040 FEW050CB TEMPO 1218/1223 6000 TSRA SCT010 BKN030 FEW045CB BECMG 1223/1301 03008KT 9999 SCT035 PROB30 1304/1310 BKN004 BKN010 TEMPO 1310/1312 7000 VCSH SCT004 BKN010 RMK PGO", "TAF SBCJ 120900Z 1212/1224 06005KT 7000 SCT015 TX29/1218Z TN26/1224Z TEMPO 1212/1215 4000 FU BKN006 BECMG 1219/1221 00000KT FEW035 RMK PFV", "TAF SBCO 120900Z 1212/1224 27008KT 5000 BR BKN009 BKN020 TX21/1217Z TN17/1224Z BECMG 1212/1214 12006KT 9999 NSW BKN025 BECMG 1218/1220 CAVOK RMK PEL", "TAF SBCP 120856Z 1212/1224 06010KT 9999 FEW020 TX31/1217Z TN24/1224Z BECMG 1212/1214 09015KT BECMG 1221/1223 06010KT RMK PHC", "TAF SBCR 120800Z 1212/1312 19005KT 9999 SCT025 TX28/1218Z TN20/1310Z TEMPO 1212/1222 22007KT 7000 TSRA BKN015 FEW040CB TEMPO 1222/1307 4000 TSRA BR SCT007 BKN012 FEW040CB TEMPO 1307/1312 2000 VCTS BR BKN008 FEW040CB RMK PGO", "TAF SBCT 120900Z 1212/1312 30005KT 8000 SCT015 TX19/1215Z TN15/1309Z TEMPO 1212/1218 4000 RA BKN008 BECMG 1306/1308 BKN007 RMK PDZ", "TAF SBCY 120900Z 1212/1312 12005KT 9999 SCT020 FEW025TCU TX29/1218Z TN23/1309Z TEMPO 1212/1215 6000 TSRA SCT015 FEW030CB BECMG 1218/1220 18005KT FEW020 TEMPO 1300/1303 4500 TSRA SCT015 FEW025CB BECMG 1306/1308 35003KT RMK PFV", "TAF SBCZ 120900Z 1212/1312 00000KT CAVOK TX35/1219Z TN24/1306Z BECMG 1216/1218 30005KT BKN030 BECMG 1223/1301 00000KT FEW035 RMK PFV", "TAF SBDN 120830Z 1212/1224 15005KT 9999 SCT030 TN22/1212Z TX26/1217Z PROB30 1217/1220 8000 TSRA BKN025 FEW035CB RMK PGG", "TAF SBEG 120900Z 1212/1312 05005KT 9999 FEW015 TX32/1218Z TN24/1309Z BECMG 1217/1219 34005KT SCT020 FEW025TCU TEMPO 1219/1223 TS SCT020 FEW025CB BECMG 1300/1302 15002KT FEW020 BECMG 1309/1311 36005KT 6000 TSRA SCT020 FEW025CB RMK PFV", "TAF SBFI 120900Z 1212/1312 08005KT 8000 BKN007 TX22/1218Z TN15/1308Z BECMG 1214/1216 SCT030 RMK PDZ", "TAF SBFL 120900Z 1212/1312 35008KT 8000 BKN025 TX21/1216Z TN18/1309Z PROB30 TEMPO 1212/1214 4000 TSRA BKN012 FEW030CB BECMG 1214/1216 16008KT 4000 RA BKN012 BECMG 1304/1306 22005KT RMK PFD", "TAF SBFN 120856Z 1212/1224 14010KT 8000 BKN017 TX29/1217Z TN25/1223Z BECMG 1212/1214 14015KT RMK PHC", "TAF SBFZ 120856Z 1212/1312 14015KT 9999 FEW025 TX32/1216Z TN26/1309Z BECMG 1212/1214 11017KT BECMG 1221/1224 10012KT BECMG 1304/1307 14012KT RMK PHC", "TAF SBGL 120856Z 1212/1318 04005KT 8000 FEW023 TX32/1217Z TN22/1309Z BECMG 1212/1215 12007KT BECMG 1216/1218 15010KT BECMG 1221/1223 27005KT BECMG 1301/1303 31005KT BECMG 1309/1311 04005KT 6000 BKN010 BECMG 1311/1314 10007KT 8000 FEW025 BECMG 1315/1317 14010KT RMK PHC", "TAF SBGO 120800Z 1212/1312 05007KT CAVOK TX34/1218Z TN17/1309Z TEMPO 1214/1218 03013G27KT 9999 SCT040 FEW045TCU BECMG 1219/1221 13005KT 9999 FEW045 BECMG 1300/1302 06005KT CAVOK TEMPO 1302/1309 28003KT RMK PGO", "TAF SBGR 120830Z 1212/1318 05005KT 8000 SCT020 TX28/1218Z TN16/1309Z FM121500 31010KT 9999 SCT040 PROB30 1218/1220 16010KT 8000 TSRA BKN030 FEW040CB BECMG 1220/1222 13005KT 8000 BKN011 BECMG 1301/1303 07005KT CAVOK PROB30 1308/1311 5000 BR BKN008 BECMG 1315/1317 16008KT SCT035 RMK PGG", "TAF SBGW 120900Z 1212/1224 12005KT 9999 BKN010 TX32/1217Z TN21/1224Z BECMG 1212/1214 9999 FEW025 RMK PDZ", "TAF SBIH 120900Z 1212/1224 18005KT 7000 NSC TX34/1218Z TN28/1224Z TEMPO 1212/1215 4000 FU BECMG 1215/1217 12010KT TS FEW020 FEW025CB BECMG 1218/1220 29002KT NSW FEW015 RMK PFV", "TAF SBIL 120800Z 1212/1224 14012KT 9999 SCT025 FEW030TCU TX28/1217Z TN24/1223Z TEMPO 1212/1217 9000 VCSH BKN020 FEW030TCU BECMG 1217/1219 SCT020 RMK PGO", "TAF SBIZ 120900Z 1212/1224 09007KT 9999 FEW025 TX36/1218Z TN30/1224Z BECMG 1219/1221 36002KT RMK PFV", "TAF SBJE 120856Z 1212/1224 10010KT 9999 FEW020 TX37/1216Z TN29/1224Z BECMG 1215/1217 05015KT RMK PHC", "TAF SBJP 120856Z 1212/1312 12012KT 8000 BKN030 TX30/1217Z TN23/1309Z BECMG 1212/1214 12017KT BECMG 1221/1223 14008KT FEW020 BECMG 1301/1304 18007KT 7000 BKN017 TEMPO 1304/1309 5000 RA BECMG 1309/1311 12010KT RMK PHC", "TAF SBJV 120900Z 1212/1224 03005KT 8000 BKN025 TX23/1217Z TN19/1223Z BECMG 1212/1214 15007KT 4000 RA BKN012 PROB30 TEMPO 1218/1220 TSRA BKN012 FEW030CB BECMG 1222/1224 BKN008 RMK PFD", "TAF SBKG 120856Z 1212/1224 13012KT 8000 BKN023 TX30/1218Z TN23/1223Z BECMG 1219/1222 12008KT FEW023 RMK PHC", "TAF SBKP 120830Z 1212/1312 05010KT CAVOK TX30/1218Z TN19/1309Z BECMG 1214/1216 SCT040 BECMG 1217/1219 21008KT BECMG 1221/1223 12010KT CAVOK BECMG 1309/1311 05010KT RMK PGG", "TAF SBLO 120830Z 1212/1224 33010KT 9999 SCT035 TN22/1212Z TX25/1217Z PROB30 1212/1213 8000 RA BKN015 PROB40 1217/1221 8000 TSRA BKN020 FEW040CB BECMG 1221/1223 18007KT RMK PGG", "TAF SBMA 120900Z 1212/1224 08005KT 9999 FEW020 TX36/1218Z TN27/1224Z BECMG 1217/1219 FEW025 FEW030TCU BECMG 1222/1224 00000KT CAVOK RMK PFV", "TAF SBME 120856Z 1212/1224 06010KT 9999 FEW023 TX34/1217Z TN25/1224Z BECMG 1212/1214 09015KT BECMG 1221/1223 05010KT RMK PHC", "TAF SBMN 120900Z 1212/1224 07005KT 8000 SCT010 TX34/1217Z TN25/1223Z BECMG 1216/1218 SCT020 FEW025TCU PROB30 TEMPO 1218/1220 TSRA SCT020 FEW025CB BECMG 1222/1224 33005KT SCT020 RMK PFD", "TAF SBMO 120856Z 1212/1312 12010KT 7000 BKN025 TX29/1216Z TN23/1309Z BECMG 1212/1214 13015KT BECMG 1218/1221 15007KT 8000 FEW020 BECMG 1300/1302 12007KT BECMG 1305/1308 7000 BKN017 BECMG 1309/1312 14012KT 5000 RA BR RMK PHC", "TAF SBMQ 120900Z 1212/1312 08010KT 9999 SCT020 TX35/1218Z TN26/1309Z BECMG 1219/1221 FEW030 FEW035TCU BECMG 1223/1301 FEW020 BECMG 1305/1307 35005KT RMK PFV", "TAF SBNF 120900Z 1212/1312 33007KT 8000 BKN025 TX22/1216Z TN18/1309Z BECMG 1212/1214 15008KT 4000 RA BKN012 PROB30 TEMPO 1218/1220 TSRA BKN012 FEW030CB RMK PFD", "TAF SBNT 120856Z 1212/1224 14013KT 8000 SCT030 TX30/1217Z TN25/1224Z BECMG 1212/1214 14018KT TEMPO 1214/1218 14018G30KT BECMG 1221/1223 15012KT RMK PHC", "TAF SBOI 120900Z 1212/1224 10005KT 9999 BKN020 TX33/1218Z TN25/1224Z TEMPO 1218/1221 04010KT 6000 TSRA BKN035 FEW045CB BECMG 1222/1224 00000KT CAVOK RMK PFV", "TAF SBPA 120900Z 1212/1312 28008KT 5000 BR BKN010 BKN020 TX21/1217Z TN14/1308Z BECMG 1212/1214 11006KT 9999 NSW BKN025 BECMG 1218/1220 CAVOK PROB40 1308/1311 3000 BR BKN005 RMK PEL", "TAF SBPB 120856Z 1212/1224 14010KT 9999 FEW023 TX34/1216Z TN28/1224Z BECMG 1212/1214 10012KT RMK PHC", "TAF SBPJ 120856Z 1212/1312 11005KT 8000 SCT033 TX35/1218Z TN24/1309Z BECMG 1212/1214 25007KT BECMG 1221/1223 33005KT BECMG 1300/1302 12005KT RMK PHC", "TAF SBPK 120900Z 1212/1312 24007KT 9999 SCT030 TX23/1217Z TN13/1308Z BECMG 1217/1219 06007KT CAVOK RMK PEL", "TAF SBPL 120856Z 1212/1312 16013KT 9999 BKN030 TX35/1218Z TN24/1309Z BECMG 1219/1222 17008KT FEW025 BECMG 1308/1311 16012KT BKN030 RMK PHC", "TAF SBPP 120830Z 1212/1312 18005KT 8000 RA SCT004 BKN010 TX20/1217Z TN19/1310Z PROB30 1212/1213 5000 TSRA BR BKN008 FEW025CB BECMG 1213/1215 9999 NSW BKN020 PROB30 1216/1221 8000 TSRA BKN010 FEW025CB BECMG 1222/1224 06010KT BECMG 1303/1305 5000 BR BKN008 RMK PGG", "TAF SBPS 120856Z 1212/1312 07010KT 7000 BKN017 TX28/1215Z TN23/1309Z BECMG 1212/1214 10010KT BECMG 1306/1308 07006KT RMK PHC", "TAF SBPV 120900Z 1212/1312 10005KT 7000 FEW025 TX30/1217Z TN24/1308Z BECMG 1216/1218 SCT030 FEW035TCU TEMPO 1218/1221 34010KT 4500 TSRA BKN015 FEW045CB BECMG 1223/1301 06002KT CAVOK TEMPO 1306/1311 4000 BR NSC RMK PFV", "TAF SBRB 120900Z 1212/1224 34005KT 9999 FEW025 TX31/1218Z TN25/1224Z BECMG 1217/1219 SCT040 FEW045TCU TEMPO 1219/1222 04010KT 4000 TSRA SCT015 FEW045CB RMK PFV", "TAF SBRF 120856Z 1212/1312 15015KT 8000 SCT023 TX29/1216Z TN24/1309Z BECMG 1220/1223 15010KT 7000 BKN016 BECMG 1300/1302 12007KT TEMPO 1302/1311 5000 RA BR RMK PHC", "TAF SBRJ 120856Z 1212/1224 01005KT 8000 FEW020 TX29/1217Z TN24/1224Z BECMG 1212/1215 16010KT RMK PHC", "TAF SBRP 120800Z 1212/1224 06005KT CAVOK TX34/1218Z TN25/1223Z BECMG 1214/1216 33008KT 9999 FEW040 PROB30 1216/1221 23007KT 9999 SCT035 FEW045TCU BECMG 1221/1223 15006KT RMK PGO", "TAF SBSC 120900Z 1212/1224 24005KT 8000 BKN010 TX32/1216Z TN21/1224Z BECMG 1212/1214 9999 SCT020 RMK PDZ", "TAF SBSG 120856Z 1212/1312 19010KT 8000 SCT030 TX30/1216Z TN22/1309Z BECMG 1212/1214 17015KT TEMPO 1214/1219 17015G25KT BECMG 1220/1223 18008KT BECMG 1301/1303 24005KT BECMG 1309/1311 20008KT 7000 BKN017 RMK PHC", "TAF SBSJ 120830Z 1212/1224 00000KT 5000 BR NSC TN21/1212Z TX29/1217Z PROB40 1212/1213 2000 BR BKN008 BECMG 1213/1215 02005KT FEW035 BECMG 1219/1221 18010KT RMK PGG", "TAF SBSL 120856Z 1212/1312 06010KT 9999 FEW023 TX34/1216Z TN27/1309Z BECMG 1212/1214 09012KT BECMG 1216/1219 03010KT BECMG 1300/1302 06008KT RMK PHC", "TAF SBSM 120900Z 1212/1224 26007KT 8000 BKN005 BKN015 TX22/1217Z TN14/1224Z BECMG 1212/1214 22007KT 9999 SCT012 BKN020 BECMG 1216/1218 CAVOK RMK PEL", "TAF SBSN 120900Z 1212/1312 08010KT 9999 SCT015 TX32/1218Z TN24/1309Z BECMG 1213/1215 SCT015 FEW020TCU BECMG 1215/1217 FEW020 BECMG 1221/1223 18005KT TEMPO 1306/1312 08010KT 4000 TSRA SCT010 FEW020CB RMK PFV", "TAF SBSP 120830Z 1212/1224 07005KT CAVOK TN20/1212Z TX29/1218Z BECMG 1214/1216 32010KT SCT040 BECMG 1218/1220 16010KT BKN020 RMK PGG", "TAF SBSV 120800Z 1212/1312 12010KT 9999 SCT020 FEW023TCU TX28/1217Z TN25/1308Z TEMPO 1212/1215 12015KT 7000 SHRA SCT020 FEW023TCU BECMG 1215/1217 15010KT 9999 SCT020 BECMG 1300/1302 11007KT TEMPO 1302/1312 7000 SHRA BKN016 FEW023TCU RMK PGO", "TAF SBTD 120830Z 1212/1224 33005KT 5000 RA BR BKN005 BKN020 TN17/1212Z TX21/1218Z BECMG 1214/1216 8000 RA SCT005 BKN020 PROB30 1217/1220 8000 TSRA BKN020 FEW035CB RMK PGG", "TAF SBTE 120856Z 1212/1224 10008KT 9999 FEW030 TX37/1218Z TN29/1224Z BECMG 1212/1214 13007KT BECMG 1220/1223 35005KT RMK PHC", "TAF SBTF 120900Z 1212/1224 35005KT 9999 FEW015 TX31/1217Z TN26/1224Z BECMG 1216/1218 FEW020 FEW025TCU TEMPO 1218/1221 16010KT 6000 TSRA SCT020 FEW030CB RMK PFV", "TAF SBTT 120900Z 1212/1312 34005KT 9999 FEW010 TX30/1218Z TN24/1311Z BECMG 1217/1219 SCT030 FEW035TCU TEMPO 1219/1222 6000 TSRA BKN020 FEW030CB BECMG 1300/1302 04003KT FEW010 RMK PFV", "TAF SBUG 120900Z 1212/1224 06005KT CAVOK TX22/1217Z TN12/1224Z RMK PEL", "TAF SBUL 120800Z 1212/1224 06008KT CAVOK TX32/1218Z TN23/1223Z BECMG 1212/1214 03013KT BECMG 1221/1223 06006KT RMK PGO", "TAF SBUR 120800Z 1212/1224 02008KT CAVOK TX32/1218Z TN24/1223Z PROB30 1212/1213 04013KT 8000 NSC BECMG 1221/1223 08005KT RMK PGO", "TAF SBVH 120900Z 1212/1224 34007KT 8000 FEW015 TX27/1217Z TN23/1224Z BECMG 1215/1217 SCT015 FEW035TCU TEMPO 1218/1221 04010KT 4000 TSRA BKN025 FEW040CB RMK PFV", "TAF SBVT 120856Z 1212/1312 01008KT 9999 SCT020 TX30/1216Z TN23/1309Z BECMG 1212/1214 05015KT BECMG 1221/1223 03010KT BECMG 1300/1302 36006KT BECMG 1309/1311 03006KT RMK PHC", "TAF SBYS 120900Z 1212/1224 02005KT 9999 FEW030 TX32/1216Z TN21/1224Z BECMG 1212/1214 SCT030 RMK PDZ", "TAF SCAR 121006Z 1212/1312 21004KT 9999 OVC025 TX18/1218Z TN15/1310Z BECMG 1215/1217 22012KT CAVOK BECMG 1223/1301 21004KT OVC025", "TAF SCAT 121007Z 1212/1312 36004KT 9999 OVC014 TX17/1218Z TN11/1310Z BECMG 1214/1216 34012KT 9999 BKN018 BECMG 1221/1223 OVC015 BECMG 1300/1302 35007KT 7000 OVC007", "TAF SCBA 121015Z 1212/1312 29025KT 9999 SCT040 TN03/1213Z TX08/1219Z TEMPO 1212/1214 29015KT 8000 -SHRA BKN030 TEMPO 1218/1222 29025G35KT FEW040 BECMG 1223/1301 29010KT CAVOK", "TAF SCCF 121007Z 1212/1312 10015KT CAVOK TX21/1218Z TNM00/1310Z BECMG 1215/1217 28020KT TEMPO 1217/1221 29022G32KT BECMG 1300/1301 27010KT BECMG 1303/1305 11015KT", "TAF SCCI 121032Z 1212/1312 26025G35KT 8000 BKN030 TN00/1306Z TX05/1218Z TEMPO 1212/1221 24030G40KT TEMPO 1212/1215 3000 SHRASN SHSN SCT015 BKN020 TEMPO 1218/1223 5000 SHRASN SCT020 BKN020 BECMG 1222/1300 9999 SCT030", "TAF SCCY 121030Z 1212/1224 24007KT 8000 -RA OVC025 TN05/1213Z TX09/1219Z BECMG 1214/1216 30017KT 9999 NSW BKN030 BECMG 1220/2122 30007KT SCT040", "TAF SCDA 121006Z 1212/1312 21004KT 9999 OVC027 TX18/1218Z TN15/1310Z BECMG 1216/1218 22012KT SCT030 BECMG 1222/1300 OVC025 BECMG 1302/1304 21004KT", "TAF SCEL 121015Z 1212/1312 15004KT CAVOK TX24/1218Z TN07/1310Z BECMG 1218/1220 22015KT BECMG 1302/1303 16004KT BECMG 1308/1310 VRB02KT 7000 NSC", "TAF SCFA 121007Z 1212/1312 21004KT 9999 BKN025 TX15/1217Z TN13/1310Z BECMG 1215/1217 22012KT SCT025 BECMG 1220/1222 OVC020 BECMG 1300/1302 19004KT", "TAF SCIE 121015Z 1212/1312 21008KT 9999 SCT008 BKN025 TX15/1219Z TN06/1310Z BECMG 1213/1215 FEW020 BKN045 BECMG 1216/1218 24015KT CAVOK BECMG 1221/1223 23015G25KT TEMPO 1308/1312 20008KT", "TAF AMD SCIP 121320Z 1214/1312 08011KT 9999 SCT025 SCT080 TX23/1220Z TN18/1309Z TEMPO 1214/1216 4000 SHRA BKN017 BKN030 TEMPO 1308/1316 06004KT", "TAF SCJO 121030Z 1212/1224 32007KT 9999 SCT010 BKN025 TN08/1213Z TX12/1219Z TEMPO 1215/1219 VRB03KT 8000 -RA BECMG 1220/1222 25007KT SCT030", "TAF SCNT 121038Z 1212/1300 30020G30KT 8000 SHRASN BKN025 TN00/1212Z TX04/1218Z TEMPO 1212/1216 4000 SHSN BKN015 TEMPO 1214/1218 24030G40KT BECMG 1222/1300 24015KT 9999 SCT040", "TAF SCQP 121010Z 1212/1312 25008KT 9999 SCT010 BKN030 TN09/1212Z TX13/1219Z TEMPO 1212/1219 7000 -RA BKN015 OVC030 BECMG 1219/1221 SCT040 BECMG 1222/1224 18004KT CAVOK TEMPO 1306/1312 0800 FG SCT002", "TAF SCSE 121014Z 1212/1312 11004KT 9999 SCT008 BKN012 TX18/1219Z TN10/1310Z BECMG 1214/1216 27012KT CAVOK BECMG 1301/1303 14004KT TEMPO 1306/1312 SCT012", "TAF SCTE 121010Z 1212/1312 32007KT 9999 SCT010 BKN030 TN08/1212Z TX11/1219Z TEMPO 1212/1218 26010KT 8000 -SHRA BKN020 OVC030 BECMG 1220/1222 20012KT SCT035 BECMG 1222/1224 18004KT CAVOK BECMG 1308/1310 VRB03KT 0800 FG OVC002", "TAF SCVM 121014Z 1212/1312 10004KT CAVOK TX19/1219Z TN10/1310Z TEMPO 1212/1215 33004KT 6000 SCT012 BECMG 1215/1217 21015KT TEMPO 1217/1300 24015G25KT BECMG 1301/1303 14004KT", "SEGU 121035Z 1212/1312 22008KT 9999 FEW010 BKN026 BECMG 1216/1218 15006KT SCT026 SCT100 BECMG 1300/1302 22010KT FEW010 BKN026 BKN100 TX31/1220Z TN21/1310Z", "SELT 121035Z 1212/1312 18006KT 9999 FEW030 BECMG 1216/1218 18016KT BKN033 PROB30 TEMPO 1220/1222 RA BECMG 1300/1302 VRB03KT FEW010 BKN026 TX16/1219Z TN04/1311Z", "SEMT 121035Z 1212/1312 21008KT 9999 OVC020 BECMG 1217/1219 28010KT SCT023 BECMG 1300/1302 21010KT BKN020 TX26/1220Z TN21/1310Z", "SEQM 121035Z 1212/1312 VRB03KT 9999 FEW040 BECMG 1217/1219 36010KT SCT033 SCT100 PROB40 TEMPO 1220/1222 SHRA FEW030TCU BKN033 BECMG 1300/1302 03004KT SCT006 BKN020 TX24/1219Z TN08/1311Z", "TAF SGAS 121018Z 1212/1312 23005KT CAVOK TX25/1219Z TN15/1310Z BECMG 1215/1218 15008KT 9999 SCT033", "TAF SGCO 121018Z 1212/1312 15006KT 9999 SCT027 TX23/1219Z TN18/1310Z BECMG 1215/1218 BKN027", "TAF SGEN 121018Z 1212/1312 20005KT 9999 OVC020 TX24/1219Z TN11/1310Z BECMG 1215/1218 9999 SCT027", "TAF SGES 121018Z 1212/1312 14006KT 7000 OVC008 TX24/1219Z TN18/1310Z BECMG 1214/1217 9999 BKN015", "TAF SKAR 121030Z 1212/1312 00000KT 9999 SCT020 TEMPO 1219/1221 SCT020TCU TEMPO 1221/1301 5000 TSRA SCT015CB BKN020 BECMG 1310/1312 4000 BR BKN012 TX26/1219Z TN17/1311Z", "TAF SKBG 121030Z 1212/1312 VRB02KT 9999 FEW010 BECMG 1216/1218 34008KT SCT015 TEMPO 1218/1222 DZRA SCT012CB BKN070 PROB40 1222/1302 5000 TSRA BKN010CB BKN070 BECMG 1303/1305 VRB02KT TX26/1218Z TN18/1310Z", "TAF SKBO 121030Z 1212/1312 VRB02KT 9999 FEW020 BECMG 1214/1216 13010KT SCT020 BECMG 1304/1306 VRB02KT TEMPO 1308/1312 5000 BR SCT012 PROB40 1310/1312 0800 FG VV002 TX20/1218Z TN07/1310Z", "TAF SKBQ 121030Z 1212/1312 16007KT 9999 FEW015 TEMPO 1212/1214 5000 BR SCT012 PROB30 TEMPO 1218/1222 TSRA SCT012CB TEMPO 1310/1312 4000 BR SCT010 TX33/1217Z TN25/1310Z", "TAF SKCC 121030Z 1212/1312 VRB02KT 9999 SCT020 BECMG 1213/1215 35020KT SCT023 TEMPO 1223/1303 DZRA SCT015TCU PROB40 1302/1304 5000 TSRA SCT015CB BKN080 BECMG 1304/1306 VRB02KT TX32/1218Z TN23/1310Z", "TAF SKCG 121030Z 1212/1312 36004KT 9999 FEW017 BECMG 1214/1216 23010KT SCT018 TEMPO 1218/1222 TSRA SCT015CB BECMG 1302/1304 VRB02KT TX31/1218Z TN26/1310Z", "TAF SKCL 121030Z 1212/1312 VRB02KT 9999 SCT020 TEMPO 1218/1221 SCT020TCU TEMPO 1221/1224 32012KT TSRA SCT017CB BKN090 TEMPO 1307/1310 DZ SCT015 BKN080 TX29/1220Z TN18/1311Z", "TAF SKLT 121030Z 1212/1312 VRB02KT 9999 BKN012 BECMG 1215/1217 34007KT SCT017 PROB40 1218/1222 TSRA SCT012CB BKN080 BECMG 1300/1302 00000KT BKN012 BKN080 TX32/1219Z TN22/1310Z", "TAF AMD SKPE 121220Z 1212/1312 VRB02KT 5000 TSRA BKN012 FEW015CB BECMG 1214/1216 9999 NSW SCT015 TEMPO 1218/1221 SCT015TCU TEMPO 1221/1301 5000 TSRA SCT015CB BKN080 TEMPO 1305/1309 DZRA SCT010 BKN080 BECMG 1310/1312 4000 BR BKN010 TX26/1219Z TN18/1311Z", "TAF SKRG 121030Z 1212/1312 VRB02KT 4000 BCFG BKN010 BECMG 1213/1215 14010KT 9999 NSW SCT020 TEMPO 1220/1223 TS SCT017CB BECMG 1300/1302 VRB02KT SCT010 TEMPO 1302/1305 TS SCT010CB TX23/1219Z TN12/1310Z", "TAF SKSM 121030Z 1212/1312 26007KT 9999 FEW020 TEMPO 1218/1222 TSRA SCT020CB TX35/1218Z TN25/1310Z", "TAF SKSP 121030Z 1212/1312 06008KT 9999 FEW015 TEMPO 1212/1215 DZRA SCT015TCU BECMG 1214/1216 SCT020 TX32/1218Z TN25/1309Z", "TAF SLAL 121000Z 1212/1312 34008KT 9999 FEW020 TX23/1219Z TN06/1311Z BECMG 1216/1218 01015KT TEMPO 1222/1224 FEW017 SCT070 BECMG 1301/1303 00000KT", "TAF SLCB 121000Z 1212/1312 00000KT 9999 NSC TX30/1219Z TN07/1311Z BECMG 1215/1217 28012KT FEW036 TEMPO 1218/1221 30012G25KT BECMG 1303/ 1305 00000KT", "TAF SLCO 121000Z 1212/1312 30012KT 9999 SCT020 BKN080 TX33/1219Z TN19 /1310Z PROB40 TEMPO 1216/1220 6000 TSRA FEW023CB BECMG 1223/11301 00000KT BKN011 BKN070", "TAF SLET 121000Z 1212/1312 16006KT 9999 FEW015 BKN020 BKN070 TX24/ 1220Z TN17/1310Z PROB30 TEMPO 1215/1417 17016KT 8000 SHRA BKN017 OVC070 BECMG 1218/1222 15004KT BKN020 BKN070 BECMG 1300/1304 18016KT 7000 RA BKN013 OVC070", "TAF SLLP 121000Z 1212/1312 VRB02KT 9999 FEW015 TX17/1219Z TNM02/1310Z BECMG 1213/1215 26010KT TEMPO 1218/1222 26015G25KT BECMG 1300/1302 06005KT", "TAF SLTJ 121000Z 1212/1312 00000KT 9999 NSC TX27/1219Z TN05/1311Z BECMG 1215/1217 15012KT BECMG 1220/1222 FEW027 SCT070 BECMG 1300/1302 00000KT", "TAF SLTR 121000Z 1212/1312 23011KT 9999 SCT020 SCT080 TX32/1219Z TN18 /1310Z TEMPO 1218/1221 8000 SHRA FEW023CB BKN080 BECMG 1222/11302 00000KT SCT011 BKN070", "TAF SLVR 121000Z 1212/1312 16006KT 9999 FEW015 BKN020 BKN070 TX24/ 1220Z TN17/1310Z PROB30 TEMPO 1215/1417 17016KT 8000 SHRA BKN017 OVC070 BECMG 1218/1222 15004KT BKN020 BKN070 BECMG 1300/1304 18016KT 7000 RA BKN013 OVC070", "TAF SMJP 121000Z 1212/1312 09006KT 9999 SCT012 TX33/1217Z TN23/1309Z PROB40 TEMPO 1218/1221 VRB06G16KT 5000 TSRA FEW015CB SCT020", "TAF SMZO 121000Z 1212/1312 VRB02KT 9999 SCT030 TX33/1217Z TN24/1309Z PROB30 TEMPO 1218/1220 VRB06G16KT 5000 TSRA FEW015CB SCT020", "TAF SOCA 121000Z 1212/1312 VRB02KT 9999 SCT030 BECMG 1214/1215 07010KT PROB40 TEMPO 1215/1219 4000 SHRA SCT015CB BKN020TCU BECMG 1220/1222 VRB02KT", "TAF SPCL 121100Z 1212/1312 35005KT 9999 SCT020 SCT100 TX34/1219Z TN22/1311Z TEMPO 1219/1223 4000 SHRA BKN015 FEW025TCU BKN080 TEMPO 1309/1312 3000 BR BKN008", "TAF SPEO 121110Z 1212/1312 24010KT 9999 BKN020 TX21/1219Z TN13/1311Z PROB40 1213/1216 7000 OVC010 BECMG 1216/1218 17018KT FEW010 BKN030 TEMPO 1220/1223 CAVOK", "TAF SPGM 121100Z 1212/1312 02003KT 9999 FEW030 SCT100 TX33/1219Z TN21/1311Z TEMPO 1219/1222 01015KT", "TAF SPHI 121110Z 1212/1312 18008KT 9999 SCT010 TX23/1219Z TN15/1311Z PROB40 1213/1216 7000 OVC005 BECMG 1216/1218 14016KT CAVOK BECMG 1222/1300 16010KT", "TAF SPHO 121100Z 1212/1312 20005KT CAVOK TX30/1219Z TN08/1311Z", "TAF SPHY 121100Z 1212/1312 15005KT CAVOK TX18/1219Z TN02/1311Z", "TAF SPJC 121100Z 1212/1312 21005KT 9999 OVC012 TX18/1219Z TN14/1311Z BECMG 1213/1215 18011KT SCT013 BKN020 BECMG 1220/1222 18015KT CAVOK BECMG 1304/1306 15006KT OVC013", "TAF SPJI 121100Z 1212/1312 13005KT 9999 SCT020 BKN100 TX34/1220Z TN20/1311Z TEMPO 1213/1215 3000 BCFG BKN010 TEMPO 1218/1222 4000 SHRA SCT015 FEW025TCU BKN100", "TAF SPJL 121120Z 1212/1312 24004KT CAVOK TX20/1219Z TNM05/1310Z FM121800 25012KT CAVOK FM130000 22005KT CAVOK", "TAF SPJR 121110Z 1212/1312 00000KT 9999 SCT030 TX23/1219Z TN09/1311Z PROB40 1213/1216 BKN020 TEMPO 1220/1223 13016KT FEW010 BKN050", "TAF SPLO 121120Z 1212/1312 17009KT 9999 OVC025 TX21/1219Z TN15/1310Z FM121700 22010KT 9999 BKN035 FM130100 15005KT 9999 OVC020", "TAF SPME 121110Z 1212/1312 31004KT 9999 BKN015 TX26/1219Z TN20/1311Z PROB40 1213/1216 8000 OVC010 BECMG 1216/1218 36010KT SCT020 BECMG 1222/1300 28008KT", "TAF SPMS 121100Z 1212/1312 05005KT 9999 SCT012 BKN100 TX33/1220Z TN23/1311Z TEMPO 1218/1222 4000 RA BKN010 FEW025TCU BKN100", "TAF SPNC 121100Z 1212/1312 04003KT 9999 FEW020 BKN110 TX29/1219Z TN13/1311Z BECMG 1217/1219 06017KT BECMG 1223/1301 00000KT", "TAF SPPY 121100Z 1212/1312 10010KT 9999 SCT020 SCT050 TX19/1220Z TN13/1311Z TEMPO 1213/1216 3000 BCFG TEMPO 1218/1222 4000 RA SCT010 FEW025TCU BKN100", "TAF SPQT 121100Z 1212/1312 03005KT 9999 SCT015 BKN100 TX32/1230Z TN22/1311Z TEMPO 1219/1223 10015KT 4000 SHRA BKN012 FEW025TCU BKN080 TEMPO 1308/1312 2000 BR BKN005", "TAF SPQU 121120Z 1212/1312 01008KT CAVOK TX21/1217Z TN05/1309Z FM121500 26009KT CAVOK FM130000 04005KT CAVOK", "TAF SPRU 121110Z 1212/1312 16008KT 5000 BR OVC010 TX19/1219Z TN14/1311Z PROB40 1213/1216 3000 BR OVC005 BECMG 1216/1218 19010KT 7000 NSW SCT005 BKN020 TEMPO 1220/1223 FEW020", "TAF SPSO 121100Z 1212/1312 29006KT 3000 BR BKN012 TX22/1219Z TN11/1311Z BECMG 1215/1218 22017KT CAVOK BECMG 1302/1304 21006KT 6000 NSC", "TAF SPST 121110Z 1212/1312 12004KT 9999 FEW020 TX36/1219Z TN20/1311Z PROB40 1213/1216 BKN020 TEMPO 1218/1222 06012KT FEW010TCU SCT100 BECMG 1222/1301 00000KT CAVOK", "TAF SPTN 121120Z 1212/1312 VRB02KT 9999 OVC027 TX21/1219Z TN12/1310Z FM121530 23008KT CAVOK FM130100 VRB02KT 8000 OVC020", "TAF SPTU 121200Z 1212/1312 15005KT 9999 SCT090 TX31/1219Z TN22/1311Z", "TAF SPYL 121110Z 1212/1312 14014KT 9999 OVC015 TX27/1219Z TN14/1311Z PROB40 1213/1216 BKN030 BECMG 1216/1218 19018KT CAVOK", "TAF SPZO 121100Z 1212/1312 01005KT 9999 FEW050 TX24/1219Z TN04/1311Z BECMG 1217/1219 02015KT BECMG 1300/1302 15005KT", "SUAA 121130Z 1212/1312 32007KT 6000 SCT008 TX25/1218Z TN13/1310Z BECMG 1212/1214 30012KT CAVOK BECMG 1304/1306 22018KT SCT015 OVC070", "SUCA 121130Z 1212/1312 34010KT CAVOK TX26/1218Z TN11/1310Z TEMPO 1222/1304 35015G25KT BECMG 1302/1304 22018KT BKN015 OVC070 TEMPO 1305/1312 22015G25KT 5000 RA BKN010 OVC050", "SUDU 121130Z 1212/1312 30005KT 0500 FG BKN005 TX25/1218Z TN07/1310Z TEMPO 1212/1214 5000 BR BKN008 BECMG 1213/1215 30012KT CAVOK", "SULS 121130Z 1212/1312 32005KT 9999 SCT005 TX24/1218Z TN13/1310Z BECMG 1213/1215 30012KT CAVOK TEMPO 1300/1308 33017G27KT BECMG 1306/1308 22018KT SCT015 OVC070", "SUMU 121130Z 1212/1312 32007KT CAVOK TX25/1218Z TN13/1310Z BECMG 1304/1306 22018KT SCT015 OVC070", "SURV 121130Z 1212/1312 VRB05KT 9999 SCT010 TX24/1218Z TN07/1310Z BECMG 1212/1215 CAVOK TEMPO 1306/1312 0800 FG OVC003", "SUSO 121130Z 1212/1312 35005KT 0500 FG BKN005 TX25/1218Z TN07/1310Z TEMPO 1212/1214 5000 BR BKN008 BECMG 1213/1215 30012KT CAVOK", "TAF SVBC 121000Z 1212/1312 05005KT 9000 DZ BKN010 TX34/0218Z TN22/1207Z TEMPO 1216/1220 05006KT 9000 DZ BKN010", "TAF SVJC 120400Z 1206/1306 09007KT 8000 TSDZ BKN013 CB TX34/1219Z TN22/1207Z FM120900 07004KT 9999 SCT013", "TAF SVMC 121000Z 1212/1312 08003KT 8000 DZ BKN013 CB TX34/1219Z TN22/1208Z TEMPO 1215/1219 14005KT 8000 TSDZ BKN013 CB", "TAF SVMG 121000Z 1212/1312 09003KT 9999 SCT010 TX33/0218Z TN25/1208Z BECMG 1215/1220 09013KT 9999 SCT010 SCT080", "TAF SVMI 121000Z 1212/1312 07015KT 9000 -DZ BKN016 TX33/1218Z TN21/1207Z TEMPO 1216/1219 08002KT 9000 DZ BKN016", "TAF SVPR 121000Z 1212/1312 08012KT 9000 DZ BKN013 TX34/1219Z TN22/1208Z TEMPO 1216/1220 05005KT 9000 DZ BKN013", "TAF SVSA 121000Z 1212/1312 05011KT 9000 DZ OVC017 CB TX33/1219Z TN22/1208Z FM021300 14003KT 9999 BKN020 TEMPO 1214/1218 15005KT 9000 DZ OVC017 CB", "TAF SVVA 112200Z 1200/1300 09005KT 9999 BKN016 TX30/1219 TN23/1209 TEMPO 1204/1208 16003KT DZ 9000 BKN016 TEMPO 1212/1216 24002KT 9999 SCT016 BKN100", "TAF SYCJ 121100Z 1212/1312 09010KT 9999 BKN017 SCT036 PROB040 TEMPO 1216/1221 5000 TS SHRA FEW015CB BKN016 BECMG 1300/1303 VRB06KT 9999 SCT016 SCT040", "TAF SYEB 121100Z 1212/1223 10008KT 9999 SCT018 TEMPO 1216/1220 5000 SHRA BKN032", "TAF SYEC 121100Z 1212/1312 07012KT 9999 BKN016 SCT040 TEMPO 1214/1218 VRB10KT 5000 TS SHRA FEW014CB SCT016 BKN032 BECMG 1300/1303 06010KT 9999 SCT018", "TAF SYKA 121100Z 1212/1223 09010KT 9999 SCT016 BKN090 BECMG 1216/1218 VRB10KT 5000 TS SHRA FEW015CB SCT032", "TAF SYKM 121100Z 1212/1223 09010KT 9999 SCT017 BKN090 BECMG 1216/1218 06008KT 5000 TS SHRA FEW016CB", "TAF SYLT 121100Z 1212/1223 05010KT 9999 SCT016 BKN032 BKN070 TEMPO 1214/1220 5000 TSRA RA FEW014CB", "TAF SYMB 121100Z 1212/1223 08008KT 9999 SCT017 BKN090 BECMG 1214/1216 VRB12KT 4000 TS SHRA FEW015CB BKN032", "TAF TAPA 121100Z 1212/1312 08011KT 9999 SCT020 PROB30 TEMPO 1214/1222 SHRA", "TAF TBPB 121100Z 1212/1312 09013KT 9999 SCT018", "TAF TDPD 121100Z 1212/1312 11009KT 9999 SCT016", "TAF TFFF 121100Z 1212/1312 10012KT 9999 SCT020 SCT160 PROB30 TEMPO 1212/1216 4500 -SHRA PROB30 1214/1221 10015G25KT PROB30 TEMPO 1309/1312 4500 -SHRA", "TAF TFFR 121100Z 1212/1312 12010KT 9999 SCT025 SCT030 PROB40 TEMPO 1300/1309 VRB02KT", "TGPY 121000Z 1212/1312 10015KT 9999 FEW018 SCT038 BECMG 1222/1224 08010KT BECMG 1304/1306 SCT018", "TIST 121120Z 1212/1312 08006KT P6SM VCSH SCT025 SCT035 FM121300 10011KT 6SM HZ SCT035 FM122200 08007KT 6SM HZ FEW035", "TISX 121120Z 1212/1312 03005KT P6SM VCSH SCT025 FM121300 08011KT 6SM HZ SCT035 FM122200 04005KT 6SM HZ FEW035", "TJBQ 121120Z 1212/1312 12004KT P6SM FEW025 FM121400 07013KT 6SM HZ SCT030 SCT050 FM122300 12004KT 6SM HZ SCT020", "TJPS 121120Z 1212/1312 00000KT P6SM FEW030 FM121300 14012KT 6SM HZ SCT030 FM121800 17015KT 6SM HZ VCSH SCT035 SCT070 FM122230 10006KT 6SM HZ FEW030 SCT080 AMD NOT SKED", "TJSJ 121327Z 1213/1312 07013KT 6SM HZ VCSH FEW025 SCT060 FM121700 06015KT 6SM HZ VCSH SCT035 SCT060 FM122300 09007KT 6SM HZ FEW030 SCT080", "TAF TKPK 121100Z 1212/1312 08011KT 9999 SCT020 PROB30 TEMPO 1214/1222 SHRA", "TAF TKPN 121100Z 1212/1312 08011KT 9999 SCT020 PROB30 TEMPO 1214/1222 SHRA", "TAF TLPC 112300Z 1200/1224 09019KT 9999 SCT020 TEMPO 1200/1212 5000 SHRA FEW015CB BKN018 BKN038 PROB30 TEMPO 1200/1206 TSRA FEW008 SCT012CB", "TLPL 121100Z 1212/1312 09015KT 9999 SCT025 TEMPO 1212/1306 5000 SHRA FEW015CB BKN018", "TAF TNCA 121115Z 1212/1312 07017KT 9999 SCT018 TEMPO 1212/1312 6000 SHRA FEW012CB BKN015 PROB40 TEMPO 1212/1220 06015G25KT 3000 TSRA SCT010CB", "TAF TNCB 121122Z 1212/1318 09014KT 9999 SCT020 PROB40 TEMPO 1212/1316 4000 SHRA TSRA BKN014 SCT018CB", "TAF TNCC 121115Z 1212/1312 09012KT 9999 SCT018 TEMPO 1212/1312 6000 SHRA FEW012CB BKN015 PROB40 TEMPO 1212/1218 08015G25KT 3000 TSRA SCT010CB", "TNCM 121000Z 1212/1312 08010KT 9999 SCT018 PROB30 1215/1221 6000 SHRA BKN016 ", "TAF TQPF 121100Z 1212/1312 08011KT 9999 SCT020 PROB30 TEMPO 1216/1224 SHRA", "TAF TRPG 121100Z 1212/1312 08013KT 9999 SCT020 PROB30 TEMPO 1214/1222 SHRA", "TAF TTCP 121000Z 1212/1312 10012KT 9999 FEW016 TEMPO 1212/1216 3000 TSRA FEW012CB BKN015 FM122300 07004KT 9999 FEW016 SCT038", "TAF TTPP 121000Z 1212/1312 10012KT 9999 SCT016 TEMPO 1212/1220 3000 TSRA FEW012CB BKN015 FM122300 00000KT 9999 FEW016 SCT038", "TAF TUPJ 121100Z 1212/1312 09010KT 9999 SCT020 PROB40 TEMPO 1212/1216 SHRA", "TAF TVSA 121100Z 1212/1312 08008KT 9999 SCT016", "TAF TXKF 121134Z 1212/1312 05012KT 9999 SCT030 ", "TAF UAAA 121100Z 1212/1312 21003MPS 9999 FEW050 TX22/1309Z TN06/1301Z TEMPO 1212/1220 16003MPS 3100 FU BECMG 1302/1303 VRB01MPS TEMPO 1303/1312 02003G08MPS", "TAF UAAH 121100Z 1212/1221 10005MPS CAVOK", "TAF UAAT 121101Z 1212/1221 03003G08MPS 9999 SCT100 TEMPO 1212/1218 05003G08MPS", "TAF UACC 121104Z 1212/1312 08003MPS CAVOK TX17/1309Z TNM02/1223Z FM130400 12005MPS 9999 SCT040 BKN100 TEMPO 1304/1312 14006MPS", "TAF UACK 121102Z 1212/1221 02005MPS CAVOK TEMPO 1212/1221 VRB02MPS", "TAF UACP 120800Z 1209/1218 01002MPS 9999 BKN030 TEMPO 1209/1212 VRB02MPS", "TAF UADD 121109Z 1212/1221 36003G08MPS 9999 NSC", "TAF UAII 121101Z 1212/1312 28003G08MPS 8000 NSC TX25/1310Z TN08/1301Z TEMPO 1212/1216 32003G08MPS TEMPO 1216/1304 13003G08MPS 4000 FU", "TAF UAIT 121109Z 1212/1221 30003G08MPS CAVOK TEMPO 1212/1215 26003G10MPS BECMG 1215/1216 06003G08MPS", "TAF UAKD 121101Z 1212/1221 09005MPS CAVOK TEMPO 1212/1215 11008MPS", "TAF UAKK 121100Z 1212/1312 VRB02MPS 9999 SCT030 BKN100 TX16/1212Z TN02/1224Z TEMPO 1218/1303 3100 BR SCT011 BECMG 1305/1307 16005MPS", "TAF UAOO 121100Z 1212/1221 VRB02MPS CAVOK", "TAF UARR 121100Z 1212/1221 17006MPS 9999 BKN011 TEMPO 1212/1218 14006MPS 3100 -SHRA BR BKN005 BKN030CB TEMPO 1218/1221 VRB02MPS 0400 FG VV002", "TAF UASK 121101Z 1212/1221 08003MPS 9999 SCT100 TEMPO 1212/1218 12003MPS FEW050 TEMPO 1218/1221 VRB01MPS 3100 BR FEW005", "TAF UASP 121100Z 1212/1221 03006MPS CAVOK TEMPO 1212/1215 32006MPS", "TAF UASS 121100Z 1212/1221 26003MPS CAVOK TEMPO 1212/1218 VRB02MPS 3100 FU", "TAF UATE 121106Z 1212/1312 30006MPS 9999 SCT015 BKN040CB TX19/1309Z TN12/1302Z", "TAF UATG 121100Z 1212/1312 22010MPS 9999 BKN030CB TX17/1310Z TN06/1303Z TEMPO 1212/1216 -SHRA BKN020CB BECMG 1216/1218 26008MPS SCT033CB", "TAF UATT 121100Z 1212/1312 15004MPS 9999 SCT040CB TX18/1212Z TN05/1302Z TEMPO 1218/1304 3100 -SHRA BR BKN011 BKN033CB TEMPO 1306/1312 21006G12MPS -SHRA SCT011 BKN033CB", "TAF UAUU 121104Z 1212/1221 12003MPS CAVOK TEMPO 1212/1221 VRB02MPS", "TAF UBBB 121105Z 1212/1312 02012KT 9999 BKN030 TX20/1212Z TN16/1301Z TEMPO 1212/1218 04010KT SCT012 TEMPO 1218/1224 33008KT SCT008 BECMG 1300/1302 04008KT TEMPO 1302/1310 08012KT -SHRA SCT008 SCT030CB", "TAF UBBF 121100Z 1212/1221 03006KT 9999 SCT025 SCT100 TEMPO 1212/1217 06012KT BECMG 1217/1219 32005KT", "TAF UBBG 121100Z 1212/1312 VRB04KT 9999 FEW040 BKN080 TX22/1212Z TN13/1303Z TEMPO 1212/1218 10010KT SCT030CB BKN060 BECMG 1218/1220 22008KT", "TAF UBBL 121111Z 1212/1312 04008KT 9999 BKN030 BKN080 TX22/1212Z TN14/1302Z TEMPO 1212/1215 06012KT BECMG 1215/1217 36008KT TEMPO 1217/1309 33010KT 5000 -SHRA SCT010 SCT020CB OVC020", "TAF UBBN 121059Z 1212/1312 VRB04KT 9999 FEW050 SCT100 TX25/1212Z TN10/1303Z TEMPO 1212/1218 28012KT FEW040CB BKN080 TEMPO 1218/1303 05010KT TEMPO 1303/1312 13010KT SCT030 BKN070", "TAF UBBQ 121109Z 1212/1312 19006KT 9999 BKN030 BKN080 TX22/1212Z TN12/1302Z TEMPO 1212/1216 24008KT BECMG 1216/1218 03006KT TEMPO 1220/1305 34005KT 3000 BR BCFG BKN007 BECMG 1305/1307 23006KT TEMPO 1307/1312 -SHRA SCT020CB BKN020", "TAF UBBY 121100Z 1212/1221 VRB04KT 9999 SCT100", "TAF UBEE 121100Z 1212/1221 VRB04KT CAVOK", "TAF UCFL 121035Z 1212/1312 14003G08MPS 9999 SCT030CB BECMG 1215/1216 35003G08MPS TEMPO 1215/1224 05003G08MPS BECMG 1305/1306 15003G08MPS", "TAF UCFM 121045Z 1212/1312 14003G08MPS 9999 SCT050 TEMPO 1215/1221 20003G08MPS 1500 BR FU TEMPO 1221/1303 1500 BR FU BECMG 1305/1306 29003G08MPS", "TAF UCFO 121044Z 1212/1312 18003G08MPS 6000 FEW050 TEMPO 1212/1218 25005G10MPS 2000 FU SCT030CB BECMG 1302/1304 32003G08MPS", "TAF UDSG 121100Z 1212/1312 06006KT 9999 FEW050 TEMPO 1212/1222 VRB16KT FEW040CB", "TAF UDYZ 121100Z 1212/1312 VRB06KT 9999 FEW040", "TAF UEEE 121100Z 1212/1318 16003MPS 9999 SCT030CB TEMPO 1215/1303 0300 FZFG VV002", "TAF UERP 121100Z 1212/1312 VRB01MPS 1500 SHSN BR BKN006 BKN012CB OVC100 TEMPO 1212/1224 0500 SHSN FZFG BKN003 BKN010CB OVC100", "TAF AMD UERR 121247Z 1212/1312 20004MPS 1000 SHRASN BR VV002 TEMPO 1212/1224 0300 DZ FZFG VV001 BECMG 1303/1305 2500 SHRASN BR BKN003 OVC015CB", "TAF UGAM 121000Z 1211/1217 28006KT 9999 SCT060", "TAF UGKO 121100Z 1212/1312 08006KT CAVOK TX20/1212Z TN09/1303Z TEMPO 1212/1216 27010KT BECMG 1303/1305 OVC060", "TAF UGMS 121000Z 1211/1217 VRB02KT 9999 SCT100", "TAF UGSB 121100Z 1212/1312 34007KT CAVOK TX21/1311Z TN14/1302Z BECMG 1215/1217 12010KT TEMPO 1222/1307 13020KT BKN100 BECMG 1307/1309 33007KT", "TAF UGTB 121100Z 1212/1312 31014KT CAVOK TX19/1312Z TN11/1302Z BECMG 1300/1302 VRB02KT SCT060 TEMPO 1308/1312 16010KT BKN045", "TAF UHBB 121050Z 1212/1312 19003G08MPS 9999 SCT030 TEMPO 1215/1223 3100 BR SCT011 BECMG 1300/1302 26003G08MPS", "TAF UHHH 121046Z 1212/1318 20003MPS CAVOK FM121800 18003MPS 9999 SCT020 TEMPO 1218/1310 21003G09MPS", "TAF UHMA 121053Z 1212/1312 34003G08MPS 9999 SCT033", "TAF UHMM 121044Z 1212/1318 04003G12MPS 9999 BKN020CB OVC070 TEMPO 1215/1221 3100 -SHSN BKN017CB OVC040", "TAF UHPP 121037Z 1212/1318 14003G12MPS 3100 -SHRA BR BKN007 BKN020CB TEMPO 1212/1221 0500 -SHRA FG VV002 FM122100 32005G12MPS 9999 BKN030CB TEMPO 1221/1309 29010G18MPS", "TAF UHSS 121055Z 1212/1318 VRB01MPS 9999 NSC TEMPO 1216/1223 1400 BR BKN004 BECMG 1300/1302 20003MPS", "TAF UHWW 121100Z 1212/1312 16003MPS 9999 SCT030 BECMG 1214/1216 FEW002 BKN016 TEMPO 1216/1223 0300 FG BECMG 1223/1302 20003G08MPS SCT020", "TAF UIAA 121100Z 1212/1312 24003G08MPS 9999 SCT040CB", "TAF UIBB 121100Z 1212/1312 24003G08MPS 9999 -SHRASN FEW001 BKN016CB", "TAF UIII 121100Z 1212/1312 16003MPS 9999 NSC BECMG 1302/1304 30005G10MPS BKN040CB TEMPO 1304/1312 31010G16MPS", "TAF UIUU 121100Z 1212/1312 32003G08MPS 9999 SCT050CB TEMPO 1308/1312 32008G13MPS BKN014CB", "TAF ULAA 121100Z 1212/1312 20004MPS 9999 BKN020 TEMPO 1212/1215 21005G12MPS -SHRA BKN016CB TEMPO 1215/1309 23003MPS 6000 FEW011 BECMG 1309/1312 26003MPS", "TAF ULLI 121050Z 1212/1312 27005G10MPS 9999 BKN016 TEMPO 1212/1218 31008G13MPS BECMG 1222/1224 22003MPS PROB40 TEMPO 1300/1306 1000 BR BKN005 TEMPO 1306/1308 BKN010 TEMPO 1309/1312 18005G10MPS", "TAF ULMM 121052Z 1212/1312 24003G08MPS 6000 BKN016CB TEMPO 1212/1312 BKN011 BKN016CB", "TAF ULOO 121053Z 1212/1221 26003MPS 9999 BKN016", "TAF ULPB 121053Z 1212/1221 23004G09MPS 9999 BKN020", "TAF ULWC 121100Z 1212/1221 26003MPS 6000 SCT007 BKN017 TEMPO 1212/1215 2100 BR BKN005 BKN015CB TEMPO 1215/1221 1000 BR MIFG BKN003", "TAF UMBB 121100Z 1212/1221 27003MPS 6000 SCT020", "TAF UMGG 121101Z 1212/1312 30006G11MPS 9999 BKN014 TEMPO 1212/1216 32006G11MPS TEMPO 1218/1222 27004MPS 1200 BR BKN004 TEMPO 1222/1306 VRB02MPS 0300 FG VV002 TEMPO 1306/1312 32007MPS", "TAF UMII 121114Z 1212/1221 29003G08MPS 6000 BKN012 TEMPO 1212/1221 27003MPS 2000 BR BKN005", "TAF UMIO 121059Z 1212/1221 29005G10MPS 9999 BKN010 FM121500 VRB02MPS 9999 SCT015 TEMPO 1218/1221 3000 BCFG BR FEW002", "TAF UMKK 121055Z 1212/1312 28006G11MPS 9999 SCT020 BECMG 1215/1217 25003G10MPS TEMPO 1217/1224 3000 -SHRA BR BKN014CB BECMG 1300/1302 19003G08MPS TEMPO 1300/1306 0400 PRFG BECMG 1309/1311 18005G10MPS", "TAF UMMG 121106Z 1212/1221 28004G09MPS 9999 BKN020 TEMPO 1212/1218 29005G10MPS -SHRA SCT016CB TEMPO 1218/1221 VRB02MPS 1000 BR OVC003", "TAF UMMS 121101Z 1212/1312 29006MPS 9999 BKN015 TEMPO 1212/1218 5000 -SHRA BKN010 BKN015CB BECMG 1218/1219 VRB02MPS 5000 BR SCT004 TEMPO 1219/1308 0300 FG SCT002 BECMG 1308/1309 9999 NSW SCT012", "TAF UMOO 121101Z 1212/1221 29004G09MPS 8000 BKN016 TEMPO 1212/1221 27005G10MPS BKN006", "TAF UNAA 121053Z 1212/1312 21008G13MPS 6000 -SHRA SCT040CB BECMG 1215/1218 24003G08MPS", "TAF UNBB 121100Z 1212/1312 24003G08MPS 8000 -SHRA BKN016CB TEMPO 1212/1216 28008G13MPS FM121600 33003G08MPS 9999 SCT040", "TAF UNEE 121100Z 1212/1312 25006G15MPS 8000 BKN030CB TEMPO 1212/1215 30008G18MPS -SHRA BKN010CB BECMG 1215/1217 30003G08MPS TEMPO 1220/1302 SCT005 BKN016CB TEMPO 1302/1312 34006G13MPS -SHRA BKN016CB", "TAF UNKL 121047Z 1212/1312 27003G08MPS 6000 -SHRA BKN016CB", "TAF UNNT 121100Z 1212/1312 33007G15MPS 8000 BKN040 TEMPO 1212/1219 -SHRA BKN016CB BECMG 1214/1217 28003G08MPS TEMPO 1219/1304 0300 FG SCT002 BKN016CB BECMG 1306/1309 33003G08MPS", "TAF UNOO 121100Z 1212/1312 VRB01MPS 8000 NSC TEMPO 1215/1218 2100 BR FU TEMPO 1218/1304 0300 FG SCT002 BECMG 1304/1306 12003G08MPS", "TAF AMD UNTT 121128Z 1211/1221 29003G08MPS 6000 -SHRA BKN008 BKN016CB TEMPO 1211/1214 BKN005 BKN016CB BECMG 1214/1218 BKN016CB TEMPO 1218/1221 BKN005 BKN016CB", "TAF UNWW 121100Z 1212/1312 25007G15MPS 8000 BKN010 BKN030CB TEMPO 1212/1220 -SHRA BKN016CB BECMG 1214/1217 31003G08MPS BECMG 1303/1304 SCT040", "TAF AMD UOOO 121210Z 1212/1312 33003G08MPS 0300 FG VV002 TEMPO 1223/1304 1000 BR SCT004 BKN011 BECMG 1304/1306 6000 NSW SCT005 BKN013 TEMPO 1306/1309 2500 BR SCT008 BKN016", "TAF URKA 121055Z 1212/1312 34003G08MPS 9999 SCT030 TEMPO 1212/1218 29005G10MPS BECMG 1218/1220 07003G08MPS TEMPO 1307/1312 02005G10MPS", "TAF URKK 121050Z 1212/1312 32003G08MPS 9999 SCT030 TEMPO 1212/1218 26005G10MPS BECMG 1218/1220 04003G08MPS 6000 TEMPO 1220/1306 VRB01MPS 0200 FG SCT002", "TAF URMG 121100Z 1212/1221 28003G08MPS 9999 SCT040 TEMPO 1212/1221 32006G13MPS", "TAF URML 121100Z 1212/1221 35005G10MPS 9999 SCT025 TEMPO 1212/1214 02006G12MPS BECMG 1214/1216 27004G10MPS BKN016", "TAF URMM 121100Z 1212/1312 28005G12MPS 9999 SCT030 TX17/1312Z TN08/1303Z TEMPO 1212/1215 30008G15MPS BECMG 1215/1217 28003G08MPS BECMG 1303/1305 10003G08MPS", "TAF URMN 121100Z 1212/1221 06003G08MPS 9999 BKN030", "TAF URMO 121100Z 1212/1221 VRB01MPS 9999 BKN030", "TAF URMT 121100Z 1212/1221 30006G13MPS 9999 SCT030 BECMG 1214/1216 30003G10MPS", "TAF URRP 121056Z 1212/1312 32003G12MPS 9999 SCT016", "TAF URSS 121055Z 1212/1312 28004G09MPS 9999 SCT040 SCT100 BECMG 1215/1216 05003G08MPS BECMG 1219/1221 04006MPS BKN100 BECMG 1307/1308 24003G08MPS BECMG 1309/1310 28004G09MPS SCT030 BKN100", "TAF URWA 121100Z 1212/1221 25009G14MPS 6000 BKN016 BKN020CB BECMG 1215/1216 27005G11MPS", "TAF URWI 121055Z 1212/1221 28008G17MPS 6000 -SHRA SCT008 SCT020CB", "TAF URWW 121058Z 1212/1221 29008G13MPS 6000 -SHRA BKN016 BKN020CB TEMPO 1212/1215 26009G16MPS BKN011 BKN020CB PROB40 TEMPO 1212/1215 -TSRAGR TEMPO 1215/1221 26007G13MPS", "TAF USCC 121100Z 1212/1312 12003G08MPS 9999 SCT030 TEMPO 1212/1221 06003G10MPS -RA BKN020", "TAF USCM 121100Z 1212/1221 13003G08MPS 9999 SCT030 TEMPO 1212/1221 07003G10MPS -RA BKN020", "TAF USDA 121056Z 1212/1221 28005MPS 6000 BKN016 BECMG 1213/1215 24004MPS BECMG 1217/1219 19004MPS SCT007 TEMPO 1219/1221 1500 BR BKN003", "TAF USHH 121038Z 1212/1312 24003G08MPS 9999 SCT020 TEMPO 1212/1218 5000 BR SCT003 BKN017 TEMPO 1218/1306 0600 FG SCT002 BKN016 BECMG 1300/1302 18003G08MPS", "TAF USNN 121055Z 1212/1312 30005G10MPS 9999 BKN016 TEMPO 1212/1218 FEW003 BKN016CB BECMG 1218/1219 28003G08MPS", "TAF USPP 121055Z 1212/1312 11003G12MPS 9999 BKN020 TEMPO 1212/1215 BKN013 BECMG 1215/1217 BKN016", "TAF USRR 121055Z 1212/1312 28003G08MPS 9999 FEW011 SCT020 TEMPO 1218/1303 0800 FG VV002", "TAF USSS 121053Z 1212/1312 13003G10MPS 9999 BKN016CB FM121500 10003G08MPS 6000 SCT016 BECMG 1304/1306 13003G10MPS BECMG 1306/1308 9999 SCT020CB", "TAF USTR 121055Z 1212/1312 12003G08MPS 9999 SCT020 TEMPO 1220/1303 14003MPS 3100 BR MIFG FEW003 SCT020 BECMG 1304/1306 13005G10MPS", "TAF AMD UTAA 121230Z 1212/1312 02016KT 6000 SCT050CB SCT050 TEMPO 1212/1220 32012G22KT 3000 DRDU PROB40 TEMPO 1215/1221 -TSRA", "TAF UTAK 121030Z 1212/1312 35016G26KT 9999 SCT016 SCT100 TEMPO 1212/1218 6000 SCT006 BKN100 TEMPO 1218/1220 05014KT 2500 BR OVC003 TEMPO 1220/1304 VRB02KT 0400 FG VV001", "TAF UTAM 121035Z 1212/1312 04012KT 5000 SCT050 TEMPO 1212/1218 36012KT BECMG 1218/1220 02012KT TEMPO 1300/1306 3000 HZ FU", "TAF UTAT 121033Z 1212/1312 27012KT 6000 SCT050 BKN100 TEMPO 1212/1301 22012G22KT BECMG 1301/1303 33012KT CAVOK", "TAF UTAV 121030Z 1212/1312 36012KT CAVOK TEMPO 1212/1218 VRB04KT 3000 FU", "TAF UTDD 121200Z 1213/1301 VRB02MPS 9999 FEW066 SCT100 TEMPO 1213/1216 26006MPS", "TAF UTDK 121200Z 1213/1222 VRB02MPS 9999 FEW066 SCT100 TEMPO 1213/1214 19005MPS BECMG 1215/1216 03005MPS", "TAF UTDL 121200Z 1213/1301 24005MPS 9999 NSC BECMG 1217/1219 VRB02MPS", "TAF UTDT 121200Z 1213/1222 VRB02MPS 9999 FEW066 SCT100", "TAF UTFA 120900Z 1210/1219 24010KT 7000 NSC", "TAF UTFF 121200Z 1213/1222 14010KT 7000 NSC", "TAF UTFN 121100Z 1206/1312 33010KT 9999 NSC TEMPO 1212/1218 22010G10KT 6000", "TAF UTNN 121100Z 1212/1312 27012G22KT CAVOK TEMPO 1213/1218 20008G18KT SCT040 SCT100", "TAF UTNU 121100Z 1212/1312 20012G22KT CAVOK TEMPO 1214/1220 VRB04KT", "TAF UTSA 121101Z 1212/1312 VRB03KT 7000 NSC TEMPO 1212/1223 30010KT 4000 FU", "TAF UTSB 121100Z 1212/1312 VRB03KT 7000 NSC TEMPO 1212/1223 32010KT", "TAF UTSK 121150Z 1213/1222 25010KT CAVOK TEMPO 1213/1222 32010KT", "TAF UTSS 121100Z 1212/1312 13010G20KT 9999 NSC TEMPO 1212/1215 30010G20KT", "TAF UTST 121100Z 1212/1312 VRB06KT 6000 NSC TEMPO 1212/1221 24008G18KT", "TAF UTTT 121100Z 1212/1312 06010KT 7000 NSC TEMPO 1212/1218 30015KT", "TAF UUBC 121050Z 1212/1221 VRB01MPS 9999 BKN030", "TAF UUBP 121055Z 1212/1221 30003G08MPS 9999 SCT025", "TAF UUBW 121050Z 1212/1312 30003MPS 8000 BKN016 TX12/1212Z TN04/1303Z", "TAF UUDD 121051Z 1212/1318 30003G08MPS 9999 BKN016 TX11/1212Z TN03/1303Z PROB40 TEMPO 1221/1307 0300 FG BKN002", "TAF UUDL 121100Z 1212/1312 VRB01MPS 9999 SCT040 TX12/1212Z TN03/1303Z", "TAF UUEE 121050Z 1212/1312 31003G08MPS 9000 SCT016 TX11/1212Z TN00/1303Z PROB40 TEMPO 1221/1306 0300 FG OVC002", "TAF UUMO 121051Z 1212/1221 28003G08MPS 9999 SCT025", "TAF UUOB 121059Z 1212/1221 31003G08MPS CAVOK", "TAF UUOK 121051Z 1212/1221 30003MPS 9999 SCT030 TEMPO 1218/1221 3000 BR SCT005", "TAF UUOL 121100Z 1212/1221 31003G08MPS CAVOK", "TAF UUOO 121100Z 1212/1221 30006MPS 9999 SCT040", "TAF UUWW 121051Z 1212/1312 30003G08MPS 9000 SCT020 TX11/1213Z TN02/1302Z", "TAF UUYY 121100Z 1212/1312 15003MPS 9999 BKN017CB TEMPO 1212/1214 BKN011 BKN016CB FM121400 15003MPS 6000 BKN007 BKN017CB TEMPO 1214/1307 0300 -SHRA FG BKN002 BKN016CB BECMG 1300/1302 35003MPS BECMG 1307/1309 -SHRA SCT011 BKN016CB", "TAF UWGG 121052Z 1212/1312 35003MPS 8000 -RA OVC005 TX08/1212Z TN05/1301Z TEMPO 1212/1221 OVC007 BECMG 1306/1308 BKN016", "TAF UWKD 121059Z 1212/1312 13003MPS 6000 BKN013 TX11/1212Z TN06/1303Z TEMPO 1212/1215 2000 BR BKN005 FM121500 35003MPS 3100 -DZ BR OVC007 TEMPO 1215/1305 0500 FG VV002 BECMG 1305/1306 6000 NSW TEMPO 1306/1312 2000 SHRA BKN010CB", "TAF UWKE 121051Z 1212/1312 16003G09MPS 9999 OVC016 TEMPO 1212/1218 11003G12MPS 6000 -SHRA SCT005 BKN020CB BECMG 1218/1220 09003G09MPS TEMPO 1218/1306 6000 -SHRA FEW003 BKN011CB BECMG 1306/1307 15003G10MPS TEMPO 1306/1312 6000 -SHRA BKN020CB", "TAF UWKS 121041Z 1212/1221 35003G08MPS 8000 -RA BKN016 TX10/1212Z TN07/1221Z TEMPO 1213/1221 OVC004", "TAF UWLL 121052Z 1212/1312 27003G08MPS 9999 BKN016CB TX13/1212Z TN07/1303Z TEMPO 1212/1216 32005MPS 4000 -SHRA BR BKN006 BKN012CB TEMPO 1216/1303 0300 FG OVC002", "TAF UWLW 121052Z 1212/1312 33003MPS 6000 BKN016 TX12/1212Z TN06/1302Z TEMPO 1212/1216 02003G09MPS 3100 -RA BR OVC004 TEMPO 1216/1305 0200 DZ FG VV002", "TAF UWOO 121058Z 1212/1312 13003G10MPS 9999 SCT020CB TX13/1310Z TN05/1301Z TEMPO 1212/1303 15005G12MPS 6000 -SHRA BKN016CB TEMPO 1303/1309 18007G14MPS TEMPO 1309/1312 21008G16MPS", "TAF UWOR 121044Z 1212/1221 14004G12MPS 9999 SCT020 TX17/1212Z TN09/1221Z TEMPO 1212/1221 16006G14MPS -SHRA BKN016CB", "TAF UWPS 121056Z 1212/1221 34003G08MPS 7000 -RA OVC010 TX10/1212Z TN08/1218Z TEMPO 1212/1220 2000 RA BR OVC003", "TAF UWSG 121055Z 1212/1221 34003G08MPS 6000 BKN007 BKN020 TX12/1212Z TN07/1221Z TEMPO 1212/1221 2100 -SHRA BR FEW003 BKN005 BKN016CB", "TAF UWUU 121057Z 1212/1312 09003G11MPS 9999 OVC030 TX12/1311Z TN07/1301Z TEMPO 1212/1312 14003G08MPS 6000 -SHRA FEW007 BKN016CB", "TAF UWWW 121053Z 1212/1312 06005G10MPS 6000 BKN006 TX10/1311Z TN08/1302Z TEMPO 1212/1215 1000 RA BR OVC003 TEMPO 1215/1307 0300 FG VV001", "TAF VAAH 121100Z 1212/1221 05006KT 5000 FU HZ SCT020 BECMG 1214/1216 09006KT 4000 HZ FEW020 BECMG 1216/1218 14003KT", "TAF VAAU 121100Z 1212/1221 05007KT 3000 -RA SHRA SCT012 SCT018 FEW025TCU/CB BKN090 TEMPO 1212/1218 07008G18KT 1500 -TSRA SHRA SCT010 SCT015 FEW030CB OVC080 BECMG 1218/1220 VRB03KT 2500 -RA SHRA", "TAF VABB 121100Z 1212/1318 30010KT 3000 -RA HZ SCT018 FEW025TCU BKN090 TEMPO 1213/1219 1500 -TSRA -SHRA SCT018 FEW030CB BKN080 BECMG 1219/1221 08003KT 2500 -RA HZ BECMG 1301/1303 02003KT 1500 BR HZ FEW020 SCT100 BECMG 1305/1307 25008KT 3000 HZ SCT020 SCT025 BECMG 1313/1315 03003KT 3500 HZ", "TAF VABJ 120930Z 1212/1224 36005KT 6000 FEW025 BECMG 1214/1215 VRB02KT 6000 NSC", "TAF VABO 121100Z 1212/1221 36005KT 5000 FU SCT020 BECMG 1214/1216 4000 HZ FU BECMG 1216/1218 05004KT", "TAF VABP 121100Z 1212/1318 30008KT 6000 SCT025 BECMG 1216/1218 4000 -RA HZ BECMG 1300/1302 2000 BR BECMG 1304/1306 4000 HZ BECMG 1306/1308 6000 BECMG 1314/1316 4000 HZ", "TAF VABV 121100Z 1212/1221 03006KT 5000 HZ FEW020 SCT080 BECMG 1214/1216 36005KT 4000 HZ FEW020 BECMG 1216/1218 05005KT", "TAF VADU 121100Z 1212/1221 24005KT 4000 DZ HZ FEW020 SCT025 BECMG 1214/1216 4000 HZ BECMG 1218/1220 32005KT", "TAF VAID 121100Z 1212/1318 30008KT 6000 SCT025 BECMG 1216/1218 4000 -RA HZ BECMG 1300/1302 2000 BR BECMG 1304/1306 4000 HZ BECMG 1306/1308 6000 BECMG 1314/1316 4000 HZ", "TAF VAJB 121100Z 1212/1221 34008KT 5000 HZ SCT025 BECMG 1214/1216 3000 -RA HZ", "TAF VAJL 120500Z 1206/1215 11006KT 3000 -RA HZ FEW020 SCT025 BKN100 TEMPO 1208/1214 20008KT 1500 -TSRA SHRA SCT015 FEW030CB BKN080", "TAF VAJM 120930Z 1212/1224 30005KT 6000 FEW025 SCT200 BECMG 1217/1219 VRB02KT FEW030", "TAF VAKE 120800Z 1209/1218 20008KT 6000 NSC BECMG 1213/1215 25006KT 4000 FU HZ", "TAF VAKP 121100Z 1212/1221 27007KT 3000 -RA -SHRA SCT018 SCT025 FEW025TCU BKN090 TEMPO 1212/1218 10010G20KT 1500 -TSRA SHRA SCT015 FEW030CB OVC080 BECMG 1218/1220 VRB03KT 2500 -RA HZ", "TAF VANP 121100Z 1212/1318 29003KT 3000 -TSRA FEW020 SCT025 FEW030CB BKN090 BECMG 1216/1218 34003KT 2500 HZ -RA SCT020 BKN090 BECMG 1300/1302 02002KT 2000 BR -RA SCT020 BKN090 BECMG 1303/1305 05005KT 3000 HZ -RA SCT020 SCT090 BECMG 1306/1308 07006KT 5000 HZ -RA FEW020 SCT025 FEW030CB TEMPO 1309/1313 05010G20KT 2000 -TSRA FEW018 SCT025 FEW030CB BKN090 BECMG 1314/1316 03003KT 2500 HZ -RA SCT020 SCT090", "TAF VAOZ 120800Z 1209/1221 04005KT 6000 SCT030 SCT090 TEMPO 1210/1213 3000 TSRA SCT030 FEW030CB SCT090 TEMPO 1215/1218 5000 BR", "TAF VAPO 121100Z 1212/1318 12010KT 6000 SCT015 SCT025 BKN090 TEMPO 1213/1215 4000 RA TEMPO 1223/1303 VRB02KT 4000 BR SCT025 SCT090 BKN250 TEMPO 1311/1315 14010KT 5000 RA SCT010 SCT015 FEW025CB BKN090", "TAF VAPR 121100Z 1212/1221 28006KT 6000 FEW020 SCT080 BECMG 1213/1215 34006KT FEW080", "TAF VARK 121100Z 1212/1221 06006KT 6000 SCT020 BECMG 1210/1211 35005KT BECMG 1213/1215 08004KT FEW020 BECMG 1216/1218 17005KT", "TAF VASD 120800Z 1209/1218 30006KT 4000 -RA HZ SCT020 SCT025 BKN100 TEMPO 1209/1214 1500 -TSRA SHRA SCT015 FEW030CB BKN080 BECMG 1216/1218 05006KT 3000 -RA HZ FEW020 SCT025 BKN100", "TAF VASL 121100Z 1212/1221 02006KT 3000 -RA SHRA SCT012 SCT018 FEW030TCU/CB BKN090 TEMPO 1212/1218 02008G18KT 1500 -TSRA SHRA BKN010 SCT015 FEW030CB OVC080 BECMG 1218/1220 09006KT 2500 -RA SHRA", "TAF VASU 121100Z 1212/1221 30006KT 4000 DZ HZ FEW015 SCT025 BKN080 BECMG 1214/1216 VRB02KT 5000 HZ FEW020 SCT080 BECMG 1216/1218 10003KT 4000 HZ", "TAF VAUD 121100Z 1212/1318 VRB03KT 3000 HZ NSC BECMG 1304/1306 VRB02KT 5000 HZ NSC BECMG 1313/1315 36004KT 3000 HZ NSC", "TAF VCBI 121100Z 1212/1318 VRB05KT 9999 -TSRA/SHRA FEW014 BKN016 FEW020CB TX30/1307Z TN25/1300Z BECMG 1304/1306 23010KT", "TAF VCRI 121100Z 1212/1318 24008KT 9999 SCT018 TX33/1307Z TN25/1300Z PROB40 TEMPO 1212/1215 7000 -TSRA/SHRA SCT016 FEW018CB BKN080", "TAF VDPP 121100Z 1212/1306 34005KT 9999 SCT017 TEMPO 1212/1216 SCT015 FEW017CB SCT040", "TAF VDSR 121100Z 1212/1306 26006KT 9999 SCT017", "TAF VDSV 121100Z 1212/1306 25006KT 9000 -RA SCT015 FEW017CB SCT040 BECMG 1212/1213 9999 NSW TEMPO 1214/1218 5000 TSRA SCT015 FEW017CB SCT040", "TAF VEAB 120930Z 1212/1224 02005KT 6000 FEW025 SCT030 BECMG 1221/1222 VRB02KT 4000 BR FEW025 SCT100 BECMG 1222/1224 VRB02KT 2000 BR FEW025 SCT250", "TAF VEAN 120500Z 1206/1215 27005KT 5000 -RA BR SCT018 BKN100 BECMG 1213/1215 00000KT 3000 -RA BR", "TAF VEAT 121100Z 1212/1221 00000KT 4000 BR SCT018 FEW030CB SCT100", "TAF VEBD 121100Z 1212/1318 VRB02KT 4000 TSRABR SCT010 SCT015 FEW030CB BKN080 BECMG 1216/1218 2000 TSRABR SCT008 SCT010 FEW030CB BKN080 BECMG 1222/1300 3000 RABR BECMG 1303/1305 5000 BR SCT020 FEW030TCU SCT100 TEMPO 1309/1312 4000 TSRA SCT015 SCT020 FEW030CB BKN080", "TAF VEBI 120800Z 1209/1218 12005KT 2500 -RA BR FEW005 SCT018 FEW025CB OVC090 TEMPO 1209/1211 32008KT 1500 -TSRA", "TAF VEBN 121100Z 1212/1318 VRB02KT 3000 BR FEW020 SCT025 BECMG 1217/1219 1500 BR BECMG 1222/1224 0600 BR MIFG BECMG 1303/1305 2000 BECMG 1308/1309 3500 HZ BR", "TAF VEBS 121100Z 1212/1221 23005KT 4000 HZ SCT016 FEW030CB TEMPO 1213/1217 1500 TSRA BKN015 FEW030CB OVC090 BECMG 1215/1217 00000KT 3000 HZ FEW018", "TAF VEBU 120500Z 1206/1215 34004KT 6000 SCT018 SCT025 TEMPO 1210/1214 VRB05KT 3000 -TSRA SCT015 FEW030CB BKN090", "TAF VECC 121100Z 1212/1221 20006KT 3500 -RA HZ SCT018 SCT100 TEMPO 1212/1216 1500 TSRA SCT015 FEW025CB BKN090", "TAF VECX 120930Z 1212/1224 29005KT 6000 SCT030 FEW030TCU BECMG 1216/1218 5000 BR FEW030 BECMG 1220/1222 3000 BR SCT020", "TAF VEDG 121100Z 1212/1221 12005KT 3000 -RA HZ SCT018 SCT100 TEMPO 1212/1216 1500 TSRA SCT015 FEW025CB BKN090 BECMG 1220/1221 00000KT 2400 -RA BR", "TAF VEDZ 120500Z 1206/1215 32005KT 4000 -RA BR SCT018 BKN090 BECMG 1213/1215 00000KT 2500 -RA BR", "TAF VEGK 120930Z 1212/1224 32005KT 6000 SCT025 FEW030TCU SCT100 BECMG 1219/1221 VRB02KT 4000 TSRABR SCT025 FEW030CB BKN090 BECMG 1222/1224 02005KT 3000 BR SCT015 SCT025 BKN080", "TAF VEGT 121100Z 1212/1221 32003KT 3000 BR SCT018 BKN100", "TAF VEGY 121100Z 1212/1221 00000KT 3500 HZ SCT018 BKN100 BECMG 1218/1220 2800 BR SCT018 SCT100", "TAF VEIM 121100Z 1212/1221 25005KT 3000 BR SCT018 BKN100 TEMPO 1213/1215 09008KT 1500 -TSRA FEW008 SCT018 FEW025CB OVC090", "TAF VEJH 121100Z 1212/1221 11008KT 3000 -TSRA HZ BKN018 FEW030CB OVC080 TEMPO 1213/1217 1500 TSRA BKN015 FEW030CB OVC080", "TAF VEJR 120500Z 1206/1215 18004KT 5000 HZ SCT018 SCT025 TEMPO 1210/1214 VRB05KT 2500 -TSRA/BR SCT015 FEW030CB BKN080", "TAF VEJS 121100Z 1212/1221 00000KT 2500 -TSRA HZ SCT015 FEW030CB BKN100 BECMG 1218/1220 3000 BR SCT015 SCT100", "TAF VEJT 120930Z 1212/1224 24015G25KT 3000 TSRA SCT010 FEW030CB BKN090 BECMG 1214/1215 24005KT 4000 RA BECMG 1216/1217 VRB02KT 6000 TEMPO 1220/1223 20010G20KT 2000 TSRA SCT008 SCT012 FEW030CB BKN090", "TAF VEKO 121100Z 1212/1221 34008KT 5000 HZ SCT025 BECMG 1214/1216 3000 -RA HZ", "TAF VELP 120800Z 1209/1218 13003KT 5000 HZ SCT016 SCT100", "TAF VELR 120800Z 1209/1218 03005KT 3000 -RA BR FEW010 SCT018 OVC090", "TAF VEMN 120800Z 1209/1218 09006KT 4000 BR FEW009 SCT018 FEW025CB BKN100 BECMG 1212/1218 3000 BR -RA TEMPO 1215/1218 14010KT 1500 -TSRA RA SCT008 SCT016 FEW025CB OVC090 ", "TAF VEMR 120800Z 1209/1218 24005KT 5000 HZ SCT020 BKN100 BECMG1215/1217 00000KT 3000 BR", "TAF VEPT 121100Z 1212/1221 03004KT 4000 BR HZ SCT018 BKN100 BECMG 1218/1220 00000KT 2500 BR SCT100", "TAF VEPY 120800Z 1209/1218 00000KT 1000 -RA BR SCT008 SCT015 BKN090 TEMPO 1209/1213 0500 TSRA SCT008 SCT015 OVC090", "TAF VERC 121100Z 1212/1221 32006KT 4000 -RA HZ SCT018 FEW030CB BKN100 BECMG 1218/1220 00000KT 2900 HZ SCT100", "TAF VERP 121100Z 1212/1318 32010G20KT 3000 TSRA SHRA SCT018 FEW030CB BKN090 BECMG 1300/1302 VRB03KT 2000 HZ SCT020 BKN090 BECMG 1305/1307 23005KT 5000 HZ FEW025 SCT100 TEMPO 1308/1312 32010G20KT 3000 TSRA SHRA SCT018 FEW030CB BKN090", "TAF VERU 120500Z 1206/1215 23005KT 3500 -RA HZ SCT018 FEW025CB BKN100 BECMG 1213/1215 00000KT 2500 -RA BR", "TAF VETJ 120500Z 1206/1215 35005KT 4000 -RA BR SCT018 BKN090 BECMG 1213/1215 00000KT 2500 -RA BR", "TAF VETZ 120930Z 1212/1224 24010KT 6000 SCT010 SCT015 FEW025TCU BKN080 TEMPO 1215/1217 5000 RA SCT010 SCT015 BKN080", "TAF VEZO 120500Z 1206/1215 23005KT 4000 -RA BR SCT018 BKN100 BECMG 1213/1215 00000KT 2500 -RA BR", "TAF VGEG 121100Z 1212/1318 21010KT 5000 SCT018 SCT120 BECMG 1216/1218 16008KT 4500 HZ SCT018 BKN120 TEMPO 1220/1303 16008KT 2000 RA/TSRA SCT008 FEW025CB OVC090 BECMG 1303/1305 24007KT 5000 SCT018 SCT110 TEMPO 1315/1318 19007KT 2000 RA/RSRA SCT008 FEW025CB OVC090", "TAF VGHS 121100Z 1212/1318 18006KT 3500 HZ SCT012 BKN100 TEMPO 1215/1303 25020KT 2500 RA/TSRA BKN008 FEW025CB OVC090 BECMG 1303/1305 20006KT 4000 HZ SCT018 BKN100", "TAF VHHH 121100Z 1212/1318 07010KT CAVOK TX30/1306Z TN23/1223Z TEMPO 1304/1309 33010KT", "TAF VIAG 121100Z 1212/1318 32005KT 6000 SCT020 BECMG 1218/1220 5000 BR BECMG 1222/1223 3000 BR BECMG 1300/1301 1500 BR TEMPO 1302/1303 0800 MIFG BECMG 1304/1305 3000 BR SCT015 BECMG 1306/1307 5000 BR FEW015 SCT025", "TAF VIAR 121100Z 1212/1221 29006KT 5000 HZ NSC BECMG 1218/1220 VRB02KT 3500 BR", "TAF VIBR 120500Z 1206/1215 23003KT 6000 FEW015 SCT080 TEMPO 1208/1212 FEW030CB BECMG 1212/1214 VRB02KT 4000 HZ BR FEW080", "TAF VIBT 120930Z 1212/1224 02010KT 6000 FEW025 TEMPO 1222/1224 VRB02KT 4000 BR", "TAF VIBY 120330Z 1206/1218 26006KT 4000 HZ SCT030 BECMG 1207/1208 6000 SCT030 SCT090 TEMPO 1208/1209 28008KT 6000 SCT025 FEW030TCU SCT080 TX 28/09Z", "TAF VICG 121100Z 1212/1318 27005KT 6000 FEW025 BECMG 1222/1223 VRB02KT 5000 BR FEW100 BECMG 1302/1303 29010KT 6000 FEW030 SCT100 TEMPO 1309/1312 FEW025 FEW030TCU SCT100", "TAF VIDN 121100Z 1212/1221 32008KT 2500 BR -RA SCT020 BKN060 TEMPO 1212/1215 1500 -TSRA FEW030CB", "TAF VIDP 121100Z 1212/1221 27005KT 3000 HZ FEW035 SCT100 BECMG 1218/1220 VRB02KT 2000 BR SCT100", "TAF VIGG 120500Z 1206/1215 27003KT 5000 BR RA SCT035 BKN080 TEMPO 1206/1210 2000 TSRA FEW035CB OVC060", "TAF VIGR 120930Z 1212/1224 02005KT 6000 FEW020 SCT025 BECMG 1222/1224 VRB02KT 3000 BR SCT020", "TAF VIJO 120930Z 1212/1224 04010KT 6000 FEW030 TEMPO 1214/1216 FEW030 SCT100", "TAF VIJP 121100Z 1212/1318 36004KT 3000 HZ FEW030 BECMG 1304/1306 VRB02KT 5000 HZ NSC BECMG 1313/1315 36004KT 3000 HZ NSC", "TAF VIKG 120500Z 1206/1215 05004KT 5000 HZ FEW030 BECMG 1213/1215 34004KT 3000 HZ", "TAF VILK 121100Z 1212/1318 29003KT 3000 BR FEW020 SCT025 BECMG 1219/1221 1500 BR BECMG 1223/1301 0700 BR MIFG BECMG 1303/1305 1500 BR BECMG 1306/1308 4000 BR HZ BECMG 1312/1314 3000 BR", "TAF VIPT 120500Z 1206/1215 27004KT 3500 BR HZ SCT025 BECMG 1207/1209 5000 HZ FEW025 SCT080 BECMG 1213/1215 VRB02KT 3500 HZ BR FEW025 SCT080", "TAF VISR 120930Z 1212/1224 29005KT 5000 FU SCT025 FEW030TCU SCT090 BECMG 1214/1215 6000 FEW025 SCT090 BECMG 1222/1223 5000 FU", "TAF VLLB 121100Z 1212/1312 09004KT 5000 BR SCT013 BKN060", "TAF VLLN 121100Z 1212/1312 27004KT 4000 BR SCT017 BKN090", "TAF VLPS 121100Z 1212/1312 22006KT 5000 BR SCT020 BKN050", "TAF VLSK 121100Z 1212/1312 06004KT 4000 BR SCT020 BKN093", "TAF VLVT 121100Z 1212/1312 27004KT 5000 BR SCT016 BKN050", "TAF VMMC 121100Z 1212/1318 01012KT CAVOK TEMPO 1310/1316 09010KT", "TAF VNKT 121100Z 1212/1312 28007KT 9999 FEW015 BECMG 1214/1215 17004KT 7000 FEW015 SCT030 BECMG 1300/1302 VRB02KT 6000 FEW010 SCT030 BKN100 BECMG 1303/1305 12003KT 7000 FEW015 SCT030 BECMG 1307/1308 25008KT 9999 FEW020 SCT030", "TAF VOAR 120500Z 1206/1312 17010KT 6000 FEW020 SCT090 TEMPO 1210/1216 3500 -TSRA/RA SCT016 FEW025CB BKN090 BECMG 1217/1219 VRB02KT 4500 BR TEMPO 1223/1302 2500 BR BECMG 1304/1306 18010KT 6000 TEMPO 1309/1312 FEW025TCU/CB", "TAF VOBG 121100Z 1212/1221 25010KT 6000 SCT012 SCT080 TEMPO 1212/1218 3000 TSRA RA SCT008 SCT012 FEW025CB BKN080", "TAF VOBL 121100Z 1212/1318 25010KT 6000 SCT012 SCT080 TEMPO 1212/1218 3000 TSRA RA SCT008 SCT012 FEW025CB BKN080 BECMG 1222/1223 3000 DZ BR SCT008 SCT012 TEMPO 1300/1303 1500 BR SCT005 SCT012 TEMPO 1309/1315 3000 TSRA RA SCT008 SCT012 FEW025CB BKN080", "TAF VOBM 121100Z 1212/1221 27010KT 6000 SCT012 SCT080 TEMPO 1212/1218 3000 TSRA RA SCT008 SCT012 FEW025CB BKN080", "TAF VOBZ 120800Z 1209/1218 10010KT 6000 SCT015 SCT025 TEMPO 1210/1215 23015KT 3000 -TSRA BKN010 FEW030CB BKN080 BECMG 1215/1217 21007KT 5000 HZ SCT015 SCT100", "TAF VOCB 121100Z 1212/1318 21010KT 5000 BR SCT012 BKN080 TEMPO 1212/1218 4000 -TSRA/RA SCT012 FEW020TCU/CB BKN080 BECMG 1221/1222 VRB02KT 4000 -RA/BR SCT012 BKN080 TEMPO 1300/1303 3000 BR BECMG 1303/1304 21010KT 5000 BR BECMG 1306/1307 6000 TEMPO 1309/1315 SCT012 FEW020TCU/CB BKN080", "TAF VOCI 121100Z 1212/1318 28010KT 4500 HZ -RA SCT015 SCT080 BECMG 1214/1215 10005KT 3500 BR -RA BECMG 1303/1305 32005KT 5000 HZ SCT015 SCT080 BECMG 1311/1313 28010KT 4500 HZ -RA SCT015 FEW025CB SCT080 BECMG 1314/1315 10005KT 3500 BR -RA", "TAF VOCL 121100Z 1212/1318 25010KT 6000 SCT012 BKN080 BECMG 1214/1215 4500 BR -RA BECMG 1218/1219 07005KT 3500 BECMG 1303/1305 26005KT 5000 HZ SCT015 SCT080 BECMG 1311/1313 28010KT 4500 HZ -RA SCT015 FEW025CB SCT080 BECMG 1315/1316 07005KT 3500 BR -RA", "TAF VOCP 120800Z 1209/1218 10008KT 6000 SCT015 SCT100 TEMPO 1211/1215 FEW030CB BKN080 BECMG 1215/1217 VRB04KT 5000 HZ SCT015 SCT100", "TAF VOGB 120800Z 1209/1218 VRB02KT 6000 SCT012 SCT080 TEMPO 1209/1215 3000 RA DZ SCT008 SCT012 FEW025CB BKN080", "TAF VOGO 120800Z 1209/1218 23010KT 6000 SCT010 SCT018 BKN080 TEMPO 1212/1216 4000 -RA DZ", "TAF VOHB 121100Z 1212/1318 27010KT 6000 SCT012 SCT080 TEMPO 1212/1218 3000 TSRA RA SCT008 SCT012 FEW025CB BKN080 BECMG 1222/1223 3000 BR SCT008 SCT012 TEMPO 1300/1303 1500 BR TEMPO 1309/1315 3000 TSRA RA SCT008 SCT012 FEW025CB BKN080", "TAF VOHS 121100Z 1212/1221 14007KT 6000 SCT015 BKN100 TEMPO 1215/1218 3000 -TSRA BKN010 FEW030CB BKN080 BECMG 1218/1220 VRB04KT 5000 HZ SCT015 BKN100", "TAF VOHY 121100Z 1212/1221 14007KT 6000 SCT015 BKN100 TEMPO 1215/1218 3000 -TSRA BKN010 FEW030CB BKN080 BECMG 1218/1220 VRB04KT 5000 HZ SCT015 BKN100", "TAF VOJV 120800Z 1209/1218 VRB02KT 6000 SCT012 SCT080 TEMPO 1209/1215 3000 TSRA RA SCT008 SCT012 FEW025CB BKN080", "TAF VOKN 121100Z 1212/1318 25010KT 6000 SCT012 FEW025CB BKN080 BECMG 1213/1215 4500 BR -RA BECMG 1218/1219 12005KT 3500 TEMPO 1222/1303 1500 BR MIFG SCT008 SCT012 BKN080 BECMG 1303/1305 26005KT 5000 HZ SCT015 SCT080 BECMG 1311/1313 28010KT 4500 HZ -RA SCT015 FEW025CB SCT080 BECMG 1316/1317 12005KT 3500 BR -RA", "TAF VOKU 120800Z 1209/1218 05010KT 6000 SCT015 BKN100 TEMPO 1211/1215 15015KT 3000 -TSRA BKN010 FEW030CB BKN080 BECMG 1215/1217 VRB04KT 5000 HZ SCT015 SCT100", "TAF VOLT 121100Z 1212/1221 02006KT 3000 -RA SHRA SCT012 SCT018 FEW030TCU/CB BKN090 TEMPO 1212/1218 02008G18KT 1500 -TSRA SHRA BKN010 SCT015 FEW030CB OVC080 BECMG 1218/1220 09006KT 2500 -RA SHRA", "TAF VOMD 121100Z 1212/1318 16010KT 6000 FEW020 SCT100 TEMPO 1212/1218 SCT020 FEW025TCU/CB BKN100 BECMG 1218/1219 VRB02KT 5000 BR BECMG 1221/1222 4000 -RA/BR SCT018 BKN080 BECMG 1303/1304 16005KT 6000 TEMPO 1309/1315 SCT020 FEW025TCU/CB SCT100", "TAF VOML 121100Z 1212/1318 25010KT 6000 SCT012 SCT080 TEMPO 1212/1218 3000 RA DZ SCT005 SCT012 FEW025CB BKN080 BECMG 1217/1218 VRB02KT BECMG 1222/1223 3000 BR SCT005 SCT012 TEMPO 1300/1303 0800 FG SCT001 SCT012 BECMG 1304/1305 25010KT 6000 SCT012", "TAF VOMM 121100Z 1212/1318 16010KT 6000 SCT020 BKN100 TEMPO 1212/1218 4000 -TSRA/RA SCT018 FEW025TCU/CB BKN080 BECMG 1218/1219 VRB02KT 5000 BR BECMG 1303/1304 16010KT 6000 TEMPO 1309/1315 SCT020 FEW025TCU/CB BKN100 BECMG 1315/1316 5000 BR", "TAF VOMY 120800Z 1209/1218 25010KT 6000 SCT012 SCT080 TEMPO 1209/1215 3000 TSRA RA SCT008 SCT012 FEW025CB BKN080", "TAF VOND 121100Z 1212/1221 05007KT 3000 -RA SHRA SCT012 SCT018 FEW025TCU/CB BKN090 TEMPO 1212/1218 07008G18KT 1500 -TSRA SHRA SCT010 SCT015 FEW030CB OVC080 BECMG 1218/1220 VRB03KT 2500 -RA SHRA", "TAF VORY 120800Z 1209/1218 11012KT 6000 SCT015 SCT025 TEMPO 1209/1215 25015KT 3000 -TSRA BKN010 FEW030CB BKN100 BECMG 1215/1217 21007KT 5000 HZ SCT015 SCT100", "TAF VOSR 121100Z 1212/1221 27007KT 3000 -RA -SHRA SCT018 SCT025 FEW025TCU BKN090 TEMPO 1212/1218 10010G20KT 1500 -TSRA SHRA SCT015 FEW030CB OVC080 BECMG 1218/1220 VRB03KT 2500 -RA HZ", "TAF VOTP 120500Z 1206/1312 20010KT 6000 SCT015 SCT025 TEMPO 1209/1215 FEW030CB BKN080 BECMG 1215/1217 30006KT 5000 HZ SCT015 SCT100 TEMPO 1223/1303 VRB03KT 3000 -RA BR BKN010 FEW025TCU BKN100 BECMG 1304/1306 22010KT 6000 SCT015 SCT025 TEMPO 1309/1315 FEW030CB BKN080", "TAF VOTR 121100Z 1212/1318 16010KT 5000 HZ SCT020 BKN100 TEMPO 1212/1218 SCT020 FEW025TCU/CB BKN100 BECMG 1218/1219 VRB02KT 3000 BR BECMG 1303/1304 27010KT 5000 HZ BECMG 1306/1307 6000 TEMPO 1309/1315 SCT020 FEW025TCU/CB BKN100 BECMG 1312/1313 16010KT 5000 HZ", "TAF VOTV 121100Z 1212/1318 28010KT 4500 HZ -RA SCT015 FEW025 SCT080 BECMG 1214/1215 15005KT 3000 BR -RA BECMG 1218/1219 VRB02KT 2500 BR -RA BECMG 1302/1304 32005KT 4500 HZ SCT015 SCT080 BECMG 1306/1307 32010G20KT 6000 BECMG 1311/1313 28010KT 4500 HZ -RA SCT015 FEW025CB SCT080 BECMG 1314/1315 15005KT 3500 BR -RA", "TAF VOVZ 121100Z 1212/1318 18008KT 5000 BR SCT018 SCT080 TEMPO 1212/1215 17010G20KT -TSRA FEW012 FEW025CB BKN080 BECMG 1215/1217 VRB02KT 5000 BR FEW018 BKN080 TEMPO 1222/1302 2000 BR BECMG 1304/1306 27005KT 5000 BR/HZ TEMPO 1309/1312 4000 -TSRA/RA FEW018 BKN080 BECMG 1314/1316 VRB02KT 5000 BR", "TAF VRMG 121100Z 1212/1318 24012KT 9999 FEW017TCU TEMPO 1212/1218 5000 SHRA FEW017CB", "TAF VRMH 121100Z 1212/1318 27014KT 9999 FEW018TCU BKN120 TEMPO 1212/1218 26018G30KT 4000 TSRA FEW017CB", "TAF VRMM 121100Z 1212/1318 28020KT 9000 FEW017TCU BKN110 TEMPO 1212/1218 28025G38KT 3000 TSRA SCT017CB", "TAF VTBD 121100Z 1212/1318 36005KT 9999 FEW020", "TAF VTBO 121100Z 1212/1312 36005KT 9999 FEW020", "TAF VTBS 121100Z 1212/1318 01005KT 9999 FEW020", "TAF VTBU 121100Z 1212/1312 35004KT 9999 FEW020 BECMG 1304/1306 18008KT BECMG 1310/1312 35004KT", "TAF VTCC 121100Z 1212/1318 19005KT 9999 SCT030 BECMG 1213/1215 25005KT BECMG 1217/1219 35005KT BECMG 1222/1224 24005KT BECMG 1302/1304 18005KT", "TAF VTCH 121100Z 1212/1312 12005KT 9999 SCT025 BECMG 1220/1222 00000KT 2000 BR BECMG 1301/1303 14005KT 9999 NSW", "TAF VTCL 121100Z 1212/1312 16005KT 9999 SCT025", "TAF VTCN 121100Z 1212/1312 18005KT 9999 FEW035", "TAF VTCP 121100Z 1212/1312 14005KT 9999 FEW035", "TAF VTCT 121100Z 1212/1318 14005KT 9999 SCT030 BECMG 1214/1216 36005KT", "TAF VTPB 121100Z 1212/1312 04005KT 9999 FEW030", "TAF VTPH 121100Z 1212/1312 33003KT 9999 FEW020 SCT100 BECMG 1302/1304 04008KT", "TAF VTPM 121100Z 1212/1312 10005KT 9999 SCT035", "TAF VTPO 121100Z 1212/1312 22005KT 9999 FEW025", "TAF VTPP 121100Z 1212/1312 24005KT 9999 FEW030", "TAF VTSB 121100Z 1212/1312 35003KT 9999 FEW020 BECMG 1301/1303 05008KT TEMPO 1306/1312 VRB15G25KT 3000 TSRA FEW016CB SCT018 BKN100", "TAF VTSC 121100Z 1212/1312 32008KT 9999 FEW020 BKN100 BECMG 1213/1215 22005KT TEMPO 1221/1304 4000 RA BECMG 1304/1306 34012KT TEMPO 1306/1312 VRB15G25KT 3000 TSRA FEW016CB SCT018 BKN100", "TAF VTSE 121100Z 1212/1312 00000KT 9999 FEW020 SCT100 BECMG 1302/1304 03006KT TEMPO 1304/1312 VRB15G25KT 4000 TSRA FEW016CB SCT018 BKN100", "TAF VTSF 121100Z 1212/1312 29003KT 9999 FEW020 BECMG 1304/1306 04008KT TEMPO 1306/1312 VRB15G25KT 3000 TSRA FEW016CB SCT018 BKN100", "TAF VTSG 121100Z 1212/1312 00000KT 9999 FEW020 BECMG 1220/1222 3000 BR BECMG 1300/1302 06006KT 9999 NSW", "TAF VTSM 121100Z 1212/1312 31006KT 9999 FEW020 TEMPO 1300/1308 VRB15G25KT 4000 TSRA FEW016CB SCT018 BKN100", "TAF VTSP 121100Z 1212/1318 28006KT 9999 FEW020 BECMG 1212/1214 00000KT BECMG 1303/1305 28006KT", "TAF VTSR 121100Z 1212/1312 00000KT 9999 FEW020 BECMG 1304/1306 32006KT", "TAF VTSS 121100Z 1212/1312 00000KT 9999 FEW020 BKN100 PROB40 TEMPO 1212/1218 4000 RA BECMG 1221/1223 2000 BR BKN005 BECMG 1301/1303 03008KT 9999 NSW FEW020 TEMPO 1303/1312 VRB15G25KT 3000 TSRA FEW016CB SCT018 BKN100", "TAF VTST 121100Z 1212/1312 00000KT 9999 FEW020 BECMG 1220/1222 3000 BR BECMG 1300/1302 31006KT 9999 NSW", "TAF VTUD 121100Z 1212/1312 06005KT 9000 FEW030", "TAF VTUI 121100Z 1212/1312 07005KT 9000 NSC", "TAF VTUK 121100Z 1212/1312 06005KT 9000 FEW030", "TAF VTUL 121100Z 1212/1312 07005KT 8000 SCT030", "TAF VTUO 121100Z 1212/1312 06008KT CAVOK", "TAF VTUQ 121100Z 1212/1312 04008KT CAVOK", "TAF VTUU 121100Z 1212/1312 03008KT CAVOK", "TAF VTUV 121100Z 1212/1312 05008KT CAVOK", "TAF VTUW 121100Z 1212/1312 07005KT 9000 NSC", "TAF VVCI 121100Z 1212/1312 09005KT 9999 FEW030", "TAF VVCR 121100Z 1212/1312 01013KT 9999 SCT013 BKN050 TEMPO 1212/1216 4500 RA TEMPO 1220/1301 4500 RA", "TAF VVCT 121100Z 1212/1312 VRB03KT 9999 SCT015 SCT040 TEMPO 1212/1215 5000 SHRA SCT013 FEW015CB BKN040 BECMG 1300/1301 03010KT TEMPO 1309/1312 5000 TSRA BKN015 FEW017CB", "TAF VVDN 121100Z 1212/1312 34006KT 9999 SCT013 BKN050 TEMPO 1212/1224 4500 RA TEMPO 1306/1312 4000 SHRA SCT013 FEW015CB BKN050", "TAF VVNB 121100Z 1212/1312 05005KT 9999 FEW030 BECMG 1221/1222 3000 BR BECMG 1301/1302 6000 NSW", "TAF VVPB 121100Z 1212/1312 24005KT 9999 SCT015 BKN050 TEMPO 1216/1224 4500 RA TEMPO 1308/1312 4500 SHRA SCT013 FEW017CB BKN050", "TAF VVPQ 121100Z 1212/1312 VRB03KT 9999 SCT015 SCT040 TEMPO 1212/1216 5000 TSRA SCT012 FEW015CB BKN040 BECMG 1300/1301 04010KT TEMPO 1303/1306 TS BKN015 FEW017CB", "TAF VVTS 121100Z 1212/1318 VRB03KT 9999 SCT015 SCT040 TEMPO 1213/1217 TS SCT015 FEW017CB BKN040 BECMG 1300/1301 03010KT TEMPO 1307/1311 TS SCT015 FEW017CB BKN040", "TAF VYMD 121100Z 1212/1312 34005KT 7000 SCT025 SCT120 TEMPO 1212/1218 36008KT 6000 BKN020 FEW025CB", "TAF VYNT 121100Z 1212/1312 17008KT 7000 SCT020 FEW025CB SCT120 TEMPO 1212/1218 14006KT 6000 SCT018 FEW022CB BKN110", "TAF VYYY 121100Z 1212/1312 14005KT 7000 SCT020 FEW025TCU BKN110 TEMPO 1212/1218 14005KT 7000 SCT018 FEW022TCU BKN100", "TAF WAAA 121100Z 1212/1318 12003KT 8000 FEW019 BECMG 1300/1302 29010KT", "TAF WABB 121100Z 1212/1318 35003KT 9999 SCT018 TEMPO 1216/1220 5000 RA BECMG 1222/1300 05003KT", "TAF WADD 121100Z 1212/1312 15010KT 9999 SCT016 TEMPO 1220/1300 5000 RA BKN014", "TAF WADL 121100Z 1212/1312 15005KT 7000 SCT016", "TAF WALL 121100Z 1212/1318 26005KT 9000 SCT018 BECMG 1217/1220 FEW018CB", "TAF WALS 121100Z 1212/1224 25003KT 8000 SCT016", "TAF WAMM 121100Z 1212/1318 VRB03KT 9999 SCT020 BECMG 1301/1302 23008KT", "TAF WAOO 121100Z 1212/1312 18005KT 9999 SCT018", "TAF WAPP 121100Z 1212/1312 20007KT 9999 SCT017 BECMG 1213/1215 34008KT", "TAF WAQA 121100Z 1212/1224 00000KT 8000 SCT012 TEMPO 1219/1222 5000 RA FEW012CB", "TAF WAQD 121100Z 1212/1224 22003KT 8000 SCT015", "TAF WAQJ 121100Z 1212/1224 00000KT 5000 BKN010", "TAF WAQQ 121100Z 1212/1224 32005KT 8000 SCT015", "TAF WAQT 121100Z 1212/1224 29003KT 8000 SCT015", "TAF WARR 121100Z 1212/1312 10010KT 9999 FEW020 PROB40 TEMPO 1213/1217 4000 TSRA FEW018CB BECMG 1216/1218 26005KT 5000 HZ BECMG 1300/1302 08010KT 9999 NSW", "TAF WATT 121100Z 1212/1312 15005KT 8000 SCT017 BECMG 1302/1304 30012KT TS FEW015CB BKN016 BECMG 1312/1314 17005KT", "TAF WBGB 121100Z 1212/1312 28005KT 9999 SCT016 TEMPO 1218/1222 28010G25KT 2000 +TSRA FEW015CB", "TAF WBGG 121100Z 1212/1312 25005KT 9999 SCT020 TEMPO 1219/1223 5000 RA FEW015CB SCT018", "TAF WBGR 121100Z 1212/1312 23005KT 9999 SCT016 TEMPO 1218/1222 28010G25KT 2000 +TSRA FEW015CB", "TAF WBGS 121100Z 1212/1312 27005KT 9999 SCT018", "TAF WBKK 121100Z 1212/1312 19010KT 9999 FEW014 TEMPO 1212/1216 5000 RA FEW010 SCT030 BECMG 1216/1218 23015KT TEMPO 1220/1300 21012G28KT 5000 TSRA FEW010 FEW016CB SCT030", "TAF WBKL 121100Z 1212/1312 22010KT 9999 FEW013 TEMPO 1218/1222 23018G30KT 4000 TSRA FEW010 FEW016CB SCT030", "TAF WBKS 121100Z 1212/1312 VRB03KT 9999 FEW016 BECMG 1220/1222 24011KT", "TAF WBKW 121100Z 1212/1312 VRB03KT 9999 FEW016 TEMPO 1218/1222 5000 TSRA FEW008 FEW013CB SCT027", "TAF WBSB 121050Z 1212/1318 23011KT 9999 SCT015 FEW016CB TEMPO 1214/1218 6000 -SHRA BECMG 1218/1220 FEW004 BECMG 1302/1304 22014KT FEW015 FEW016CB", "TAF WIDD 121100Z 1212/1312 25005KT 9999 FEW014", "TAF WIEE 121100Z 1212/1312 03004KT 9999 SCT020 PROB30 TEMPO 1307/1311 3000 RA", "TAF WIHH 121100Z 1212/1312 15012KT 6000 SCT020 TEMPO 1212/1214 4000 -TSRA FEW017CB BKN018 BECMG 1215/1217 18005KT 5000 HZ FEW022", "TAF WIII 121100Z 1212/1318 22005KT 5000 HZ SCT020 BECMG 1300/1302 02010KT 9000 NSW TEMPO 1309/1312 5000 -TSRA FEW018CB", "TAF WIMM 121100Z 1212/1312 VRB05KT 5000 HZ FEW016CB SCT017 BECMG 1302/1304 03008KT 9999 SCT018", "TAF WIPP 121100Z 1212/1312 04005KT 9999 SCT010 PROB30 TEMPO 1214/1218 5000 -RA FEW010CB BKN010 TEMPO 1221/1224 3000 BR", "TAF WIPY 120500Z 1206/1218 09006KT 9999 SCT012 TEMPO 1207/1211 3000 TSRA FEW010CB BKN012", "TAF WITT 121100Z 1212/1312 33005KT 9999 BKN017 BECMG 1213/1215 14004KT", "TAF WMAP 121100Z 1212/1312 VRB03KT 8000 FEW020 TEMPO 1304/1307 4000 TSRA FEW017CB", "TAF AMD WMBT 121007Z 1212/1312 VRB03KT 9999 FEW025 TEMPO 1212/1217 VRB07G20KT 4000 TSRA FEW017CB SCT024", "TAF WMKA 121100Z 1212/1312 VRB02KT 9000 FEW017CB SCT030 TEMPO 1304/1308 6000 TSRA FEW010 FEW017CB", "TAF WMKB 121100Z 1212/1312 04004KT 9000 FEW025 TEMPO 1220/1301 6000 TSRA FEW017CB BECMG 1304/1306 24006KT FEW017CB", "TAF WMKC 121100Z 1212/1312 VRB03KT 9999 FEW020 TEMPO 1216/1220 5000 TSRA FEW017CB", "TAF WMKE 121100Z 1212/1312 VRB02KT 9999 FEW022", "TAF WMKI 121100Z 1212/1312 05005KT 9999 FEW025 TEMPO 1307/1311 22006KT 6000 TSRA FEW017CB", "TAF WMKJ 121100Z 1212/1312 29005KT 8000 FEW022 PROB30 TEMPO 1222/1300 5000 TSRA FEW017CB TEMPO 1303/1307 26005G18KT 4000 TSRA FEW017CB SCT020", "TAF WMKK 121100Z 1212/1318 32004KT 9999 FEW030 TEMPO 1221/1300 TS FEW017CB TEMPO 1304/1308 28006KT 4000 TSRA FEW017CB SCT018", "TAF WMKL 121100Z 1212/1312 VRB02KT 9999 FEW025 TEMPO 1220/1224 6000 TSRA FEW010 FEW017CB", "TAF WMKM 121100Z 1212/1312 32006KT 9999 FEW028 TEMPO 1222/1302 29008KT 4000 TSRA FEW008 FEW017CB", "TAF WMKN 121100Z 1212/1312 24005KT 9999 FEW022", "TAF WMKP 121100Z 1212/1312 00000KT 9000 FEW025 TEMPO 1220/1300 6000 TSRA FEW010 FEW017CB BECMG 1300/1304 22008KT 9999 FEW020", "TAF WMPA 120500Z 1206/1306 VRB02KT 9999 FEW021 TEMPO 1218/1223 5000 TSRA FEW017CB", "TAF WMSA 121100Z 1212/1312 32004KT 9999 FEW026 TEMPO 1304/1308 4000 TSRA FEW017CB SCT018", "TAF WPDL 121125Z 1212/1300 16006KT 9999 SCT020", "TAF WSAP 121100Z 1212/1318 26009KT 9999 FEW015 BKN020 TEMPO 1220/1300 26015G25KT 3000 TSRA FEW012CB BKN015", "TAF WSSL 121100Z 1212/1318 26009KT 9999 FEW015 BKN020 TEMPO 1220/1300 26015G25KT 3000 TSRA FEW012CB BKN015", "TAF WSSS 121100Z 1212/1318 26009KT 9999 FEW015 BKN020 TEMPO 1220/1300 26015G25KT 3000 TSRA FEW012CB BKN015", "TAF YAMB 121107Z 1212/1312 18005KT 9999 FEW020 BKN030 FM130000 08012KT 9999 SCT035 FM131100 VRB03KT 9999 -SHRA SCT015 BKN030", "TAF AMD YBAS 121123Z 1212/1312 32010KT CAVOK BECMG 1212/1213 18012KT 9999 SCT020 FM122300 16014KT 9999 BKN025 TEMPO 1218/1300 9999 -RA BKN012", "TAF YBBN 121106Z 1212/1318 20006KT 9999 FEW030 SCT050 FM121800 20006KT 9999 -SHRA FEW020 SCT025 FM122300 13008KT 9999 NSW SCT030 FM130200 07010KT 9999 SCT030 FM130900 04007KT 9999 -SHRA SCT020 BKN035", "TAF AMD YBCG 121103Z 1212/1312 20008KT 9999 SCT025 SCT040 FM121500 18010KT 9999 -SHRA BKN020 BKN050 FM130000 11012KT 9999 -SHRA SCT025 BKN050 INTER 1214/1312 4000 SHRA BKN015", "TAF YBCS 121112Z 1212/1312 16008KT 9999 -SHRA SCT025 BKN050 FM130000 11014KT 9999 -SHRA SCT035 FM130900 17008KT 9999 -SHRA SCT025 INTER 1212/1300 4000 SHRA BKN015", "TAF YBHM 121113Z 1212/1300 12020KT 9999 SCT020", "TAF YBLN 121107Z 1212/1312 17010KT 9999 SCT035 FM121500 VRB03KT 9999 SCT030 FM130200 32008KT 9999 BKN040 FM130900 23008KT 9999 BKN040", "TAF YBMA 121113Z 1212/1300 36005KT CAVOK FM122300 36014KT CAVOK", "TAF YBRK 121103Z 1212/1312 11008KT 9999 FEW020 FM121400 15008KT 9999 SCT015 FM122300 10014KT 9999 SCT035 FM130900 15008KT 9999 FEW020", "TAF AMD YBRM 121117Z 1212/1312 27008KT CAVOK FM121800 20007KT 9999 SCT025 FM122000 14014G24KT 9999 SCT025 FM122300 12014G24KT CAVOK FM130200 13014KT CAVOK FM130500 15009KT CAVOK", "TAF YBTL 121012Z 1211/1306 09014KT 9999 SCT025 FM121200 11013KT 9999 SCT025 FM130000 07017KT 9999 FEW035", "TAF AMD YBWW 121103Z 1212/1312 09010KT 9999 SCT040 FM121600 14008KT 9999 SCT018 FM122300 08016KT 9999 SCT035 FM130900 08010KT 9999 SCT020 TEMPO 1218/1221 9999 BKN015", "TAF YCFS 121102Z 1212/1312 13010KT 9999 SCT045 FM121400 30005KT 9999 SCT030 BKN045 FM130000 06008KT 9999 SCT025 FM131000 35005KT 9999 SCT020", "TAF YCIN 121207Z 1214/1302 25007KT CAVOK FM121900 19008KT CAVOK FM122300 15014KT CAVOK", "TAF YFRT 121310Z 1214/1302 23008KT CAVOK FM121900 24008KT 9999 BKN015 BECMG 1223/1300 23016G26KT 9999 BKN030", "TAF YGEL 121107Z 1212/1306 15010KT CAVOK FM122200 10006KT CAVOK FM130300 13008KT CAVOK", "TAF YGLA 121112Z 1212/1300 19007KT 9999 FEW030 SCT050 FM122300 10014KT 9999 SCT035", "TAF YHID 121113Z 1212/1312 12012KT 9999 -SHRA SCT018 FM130000 11018KT 9999 NSW SCT020 FM130900 12012KT 9999 SCT016 INTER 1218/1302 3000 SHRA BKN012", "TAF YLHI 121119Z 1212/1312 12014KT 9999 -SHRA SCT015 INTER 1212/1221 4000 SHRA BKN010", "TAF YMAV 121130Z 1212/1312 02013KT 9999 -RA SCT020 BKN040 FM130500 26012KT 9999 -SHRA BKN025 INTER 1212/1223 02018G30KT 6000 RA SCT015 BKN025 TEMPO 1223/1305 36015G25KT 4000 RA SCT015 BKN020 TEMPO 1305/1310 3000 SHRA BKN010", "TAF AMD YMHB 121113Z 1211/1312 04014KT 9999 -RA BKN020 FM121400 04015G30KT 9999 -RA BKN020 FM121700 04020G35KT 9999 -RA BKN020 BECMG 1223/1300 04018G28KT 9999 -RA BKN025", "TAF AMD YMLT 121117Z 1211/1312 03014KT 9999 -RA BKN030 BECMG 1219/1221 02015G25KT 9999 -RA BKN030 TEMPO 1215/1312 5000 RA BKN020", "TAF AMD YMML 121311Z 1213/1318 01020G30KT 9999 -RA SCT020 BKN035 FM122100 01025G35KT 9999 -RA SCT020 BKN035 FM130300 01020KT 9999 -RA SCT020 BKN030 FM130700 26012KT 9999 -SHRA BKN025 FM131400 35010KT 9999 -SHRA SCT030 TEMPO 1221/1307 01020G30KT 4000 RA BKN018 TEMPO 1307/1312 3000 SHRA BKN010", "TAF AMD YPAD 121203Z 1212/1318 01005KT 9999 BKN015 FM121800 29005KT 9999 SCT025 BECMG 1303/1304 28015KT 9999 -SHRA SCT035 TEMPO 1212/1218 9999 BKN012 INTER 1305/1318 26015G25KT 5000 SHRA SCT020 FEW030TCU PROB30 INTER 1305/1309 30020G30KT 1000 TSRA BKN015 FEW030CB", "TAF AMD YPCC 121139Z 1212/1312 07010KT 9999 -SHRA SCT014 INTER 1212/1312 3000 SHRA BKN010 SCT020TCU", "TAF AMD YPDN 121126Z 1212/1318 30005KT 9999 FEW020 FM130300 30012KT 9999 SCT025 FM131000 29005KT 9999 SCT020 PROB30 TEMPO 1220/1300 VRB20G35KT 1000 TSRA BKN010 SCT025CB", "TAF YPEA 121008Z 1211/1300 20010KT CAVOK FM121800 12005KT CAVOK", "TAF YPGV 120612Z 1208/1220 05010KT 9999 -SHRA SCT025 FM121000 07005KT 9999 NSW SCT020", "TAF YPJT 121107Z 1212/1306 19012KT CAVOK FM121600 15006KT CAVOK FM130300 22012KT CAVOK", "TAF YPKG 121107Z 1212/1312 17008KT CAVOK FM122000 20008KT 9999 BKN020 FM130000 17010KT CAVOK FM131100 13008KT CAVOK", "TAF YPKU 121207Z 1214/1302 36007KT CAVOK FM121800 VRB04KT CAVOK FM130000 22009KT CAVOK", "TAF AMD YPLM 121124Z 1212/1312 17013KT CAVOK FM130000 13017G27KT CAVOK FM130300 13012KT CAVOK FM130600 17010KT CAVOK FM130900 24014KT CAVOK", "TAF AMD YPPD 121132Z 1212/1312 26011KT CAVOK FM121300 17014KT CAVOK FM121800 13016KT CAVOK FM130000 12020G30KT CAVOK FM130500 12016KT CAVOK FM130800 12007KT CAVOK FM131100 28007KT CAVOK", "TAF YPPH 121106Z 1212/1318 18010KT CAVOK FM121600 VRB03KT CAVOK FM130300 23010KT CAVOK FM131300 16006KT CAVOK", "TAF YPTN 121105Z 1212/1312 30005KT CAVOK FM121500 34005KT 9999 SCT025 FM130200 34010KT CAVOK FM131000 33005KT CAVOK", "TAF AMD YPWR 121110Z 1212/1306 20010KT 9999 -RA SCT010 FM121600 22015KT 9999 -RA BKN010 FM122100 28006KT 9999 -RA BKN015 BECMG 1222/1300 27012KT 9999 NSW SCT050 INTER 1212/1217 7000 BKN008 INTER 1217/1221 5000 -RA BKN010 TEMPO 1221/1300 5000 -RA BKN010", "TAF YPXM 121135Z 1212/1312 13010KT 9999 BKN009 FM130300 13010KT 9999 BKN012", "TAF YSCB 121114Z 1212/1312 09005KT 9999 BKN018 FM122200 05008KT 9999 SCT025 FM130100 06010KT 9999 -RA SCT030", "TAF YSDU 121124Z 1212/1306 08012KT 9999 SCT050 BECMG 1223/1300 02015G25KT CAVOK", "TAF AMD YSNF 121326Z 1213/1312 10010KT 9999 -SHRA SCT010 SCT020 BECMG 1218/1220 14014KT 9999 -SHRA SCT015 FM131000 16008KT 9999 -SHRA BKN015 TEMPO 1213/1220 5000 SHRA BKN008 TEMPO 1220/1306 5000 SHRA BKN018", "TAF YSRI 121102Z 1212/1312 VRB03KT 9999 SCT020 BKN030 FM130000 06010KT 9999 SCT035 BKN045 FM130900 03006KT 9999 SCT015 BKN020", "TAF AMD YSSY 121101Z 1212/1318 06010KT 9999 BKN035 FM122300 04018KT 9999 SCT030 FM130800 02018KT 9999 SCT020", "TAF YSTW 121125Z 1212/1306 14008KT CAVOK FM122200 03005KT CAVOK FM130100 35008KT CAVOK", "TAF YWLM 121005Z 1211/1306 06006KT 9999 FEW030 FM121800 05006KT 9999 BKN030 FM122200 06012KT 9999 BKN030 FM130200 06016G26KT 9999 SCT030 BKN045", "TAF ZBAA 120901Z 1212/1312 18004MPS 5000 BR NSC TX20/1307Z TN05/1221Z", "TAF ZBAD 120901Z 1212/1312 20004MPS 5000 BR NSC TX19/1307Z TN05/1221Z", "TAF ZBHH 120901Z 1212/1312 06004MPS 9999 FEW040 TX16/1307Z TN01/1222Z", "TAF ZBSJ 120903Z 1212/1312 16004MPS 4000 BR NSC TX17/1307Z TN06/1221Z", "TAF ZBTJ 120904Z 1212/1312 21003MPS 5000 HZ NSC TX20/1306Z TN09/1221Z", "TAF ZBYN 120903Z 1212/1312 09003MPS 5000 HZ NSC TX15/1307Z TN04/1221Z", "TAF ZGGG 120901Z 1212/1312 36004MPS CAVOK TX30/1307Z TN19/1222Z", "TAF ZGHA 120907Z 1212/1312 35004MPS 6000 SCT040 TX25/1307Z TN13/1222Z", "TAF ZGKL 120901Z 1212/1312 05003MPS CAVOK TX28/1307Z TN13/1222Z", "TAF ZGNN 120908Z 1212/1312 02003MPS CAVOK TX29/1307Z TN18/1222Z", "TAF ZGOW 120905Z 1212/1312 11003MPS 6000 SCT050 TX31/1306Z TN18/1222Z", "TAF ZGSZ 120902Z 1212/1312 03004MPS 8000 FEW050 TX29/1306Z TN22/1222Z TEMPO 1304/1310 33004MPS", "TAF ZHCC 120908Z 1212/1312 18003MPS 5000 HZ NSC TX21/1307Z TN09/1222Z", "TAF ZHHH 120901Z 1212/1312 08003MPS 6000 NSC TX24/1307Z TN10/1222Z", "TAF ZJHK 120904Z 1212/1312 05004MPS 9999 SCT020 TX28/1306Z TN20/1221Z", "TAF ZJSY 120900Z 1212/1312 09003MPS 9999 FEW020 TX29/1306Z TN21/1221Z", "TAF ZKPY 120420Z 1206/1306 32003MPS CAVOK TX21/1207Z TN04/1221Z TEMPO 1216/1224 VRB01MPS 0300 FG VV///", "TAF ZKWS 120420Z 1206/1306 18003MPS CAVOK TX20/1207Z TN08/1221Z", "TAF ZLLL 120902Z 1212/1312 04003MPS 6000 SCT040 TX12/1308Z TN06/1223Z TEMPO 1222/1304 4000 -RA", "TAF ZLXY 120903Z 1212/1312 24003MPS 3000 HZ BKN050 TX15/1307Z TN11/1222Z", "TAF ZMCK 121028Z 1212/1318 VRB02MPS 9999 SCT100 TNM07/1222Z TX11/1307Z", "TAF ZMUB 121030Z 1212/1318 VRB02MPS 9999 SCT100 TNM10/1222Z TX11/1307Z", "TAF ZPPP 120911Z 1212/1312 16004MPS 4000 BR SCT020 BKN036 TX15/1308Z TN11/1223Z", "TAF ZSAM 120905Z 1212/1312 04007G13MPS 8000 BKN030 TX29/1306Z TN21/1221Z BECMG 1218/1219 05004G09MPS BECMG 1223/1224 04006G11MPS", "TAF ZSFZ 120911Z 1212/1312 04009G15MPS 6000 BKN020 TX25/1306Z TN18/1221Z", "TAF ZSHC 120902Z 1212/1312 06004MPS 6000 FEW033 TX23/1306Z TN12/1221Z", "TAF ZSJN 120906Z 1212/1312 21003MPS 3500 BR NSC TX21/1306Z TN07/1221Z", "TAF ZSNB 120906Z 1212/1312 02004MPS 6000 SCT030 TX23/1306Z TN15/1221Z", "TAF ZSNJ 120902Z 1212/1312 08003MPS 3000 BR NSC TX23/1306Z TN08/1221Z", "TAF ZSOF 120901Z 1212/1312 09003MPS 5000 HZ NSC TX22/1306Z TN11/1222Z", "TAF ZSPD 120903Z 1212/1312 04005MPS 6000 BKN030 TX21/1306Z TN16/1221Z", "TAF ZSQD 120906Z 1212/1312 33003MPS 5000 BR NSC TX22/1306Z TN07/1220Z BECMG 1220/1221 1200 BECMG 1223/1224 3500", "TAF ZSSS 120903Z 1212/1312 05004MPS 6000 BKN030 TX21/1306Z TN17/1221Z", "TAF ZUCK 120902Z 1212/1312 33003MPS 6000 SCT050 TX23/1308Z TN17/1222Z", "TAF ZUGY 120903Z 1212/1312 02003MPS 6000 BKN033 TX19/1307Z TN11/1222Z", "TAF ZUUU 120906Z 1212/1312 02003MPS 5000 BR FEW008 BKN030 TX18/1307Z TN14/1221Z", "TAF ZWSH 120903Z 1212/1312 12004MPS 8000 FEW040 TX19/1309Z TN10/1300Z BECMG 1214/1215 33005MPS BECMG 1304/1305 12004MPS", "TAF ZWWW 120902Z 1212/1312 02004MPS CAVOK TX18/1309Z TN07/1223Z BECMG 1213/1214 18004MPS BECMG 1302/1303 36004MPS", "TAF ZYCC 120905Z 1212/1312 23005MPS CAVOK TX16/1306Z TN07/1221Z", "TAF ZYHB 120930Z 1212/1312 17004MPS 6000 FEW030 TX16/1306Z TN07/1221Z BECMG 1300/1301 24005MPS", "TAF ZYTL 120904Z 1212/1312 19004MPS 5000 BR SCT033 TX20/1306Z TN09/1221Z", "TAF ZYTX 120902Z 1212/1312 18004MPS 6000 NSC TX21/1306Z TN09/1221Z"]}