station_id,raw_text
AGGH,TAF AGGH 080215Z 0803/0824 09007KT 9999 FEW020 BKN029 FM080300 05010KT 9999 -SHRA SCT018 SCT028 FM080500 14007KT 9999 FEW017 T 32 31 28 26 Q 1008 1010 1011 1009 TAF3
ANYN,TAF ANYN 080930Z 0812/0912 VRB03KT 9999 SCT030
AYPY,TAF AYPY 080930Z 0812/0912 15010G21KT -RADZ SCT030 SCT140
BGAA,TAF BGAA 081209Z 0812/0817 08010KT 9999 SCT025 TEMPO 0812/0814 BKN022
BGBW,TAF BGBW 081114Z 0812/0821 22006KT 9999 SCT020 SCT200
BGCO,TAF BGCO 081209Z 0812/0818 01014KT 9999 -SNRA SCT012 BKN040 TEMPO 0812/0818 2000 SN BKN010
BGGH,TAF BGGH 081114Z 0812/0821 01005KT 9999 FEW060 BKN100 TEMPO 0812/0815 BKN025 BECMG 0815/0817 20010KT BKN020 TEMPO 0817/0821 BKN010
BGJN,TAF BGJN 081114Z 0812/0821 VRB05KT 9999 SCT025
BGKK,TAF BGKK 081114Z 0812/0821 02004KT 9999 SCT005 TEMPO 0812/0814 24004KT 0400 BCFG BKN002 BECMG 0814/0817 05020KT
BGMQ,TAF BGMQ 081209Z 0812/0819 12010KT 9999 BKN035 TEMPO 0812/0819 SCT050 BECMG 0815/0818 18010KT
BGPT,TAF BGPT 081209Z 0812/0820 32018KT 9999 BKN090 TEMPO 0812/0816 BKN070 BECMG 0816/0819 31008KT SCT002 BKN050
BGQQ,TAF BGQQ 081209Z 0812/0821 12006KT 9999 FEW030 BKN050 BECMG 0812/0815 SCT050
BGSF,TAF BGSF 081101Z 0812/0824 06008KT 9999 SCT030 BKN090 TEMPO 0812/0815 BKN022 TEMPO 0815/0824 BKN035
BGSS,TAF BGSS 081209Z 0812/0817 12008KT 9999 FEW020 BKN030 TEMPO 0812/0817 SCT030 BECMG 0813/0816 22006KT
BGTL,TAF BGTL 081100Z 0811/0917 VRB06KT 9999 SCT040 BKN070 610702 510102 QNH3009INS BECMG 0813/0814 16012KT 9999 SCT035 510102 QNH3005INS BECMG 0820/0821 12008KT 9999 SCT040 BKN050 610502 QNH2987INS TX04/0821Z TNM02/0906Z
BGUK,TAF BGUK 081209Z 0812/0820 VRB05KT 9999 BKN010 BECMG 0812/0815 SCT015 BKN080 TEMPO 0815/0820 SCT080
BGUQ,TAF BGUQ 081209Z 0812/0819 09008KT 9999 FEW012 BKN030 TEMPO 0812/0819 SCT030 BECMG 0813/0816 25006KT
BIAR,TAF BIAR 081056Z 0812/0912 17012KT 9999 BKN050 TX14/0815Z TN09/0903Z
BIBD,TAF BIBD 081018Z 0811/0816 20015KT 9999 RA FEW015 OVC020 TEMPO 0811/0816 3000 RADZ BR BKN010 OVC018
BIEG,TAF BIEG 081056Z 0812/0912 19013KT 9999 SCT050 TX18/0815Z TN07/0903Z TEMPO 0814/0819 01010KT
BIHN,TAF BIHN 081016Z 0811/0820 20012KT 9999 SCT025 BKN030 PROB40 TEMPO 0812/0820 RADZ BKN010 OVC013
BIHU,TAF BIHU 081017Z 0811/0819 17008KT 9999 -SHRA FEW040
BIIS,TAF BIIS 081019Z 0811/0819 22012KT 9999 RA OVC035 PROB40 TEMPO 0811/0819 4500 RADZ BKN013
BIKF,TAF BIKF 081055Z 0812/0912 19020KT 7000 -RADZ BKN007 OVC012 TX10/0815Z TN08/0906Z TEMPO 0812/0909 2500 RADZ OVC003 BECMG 0904/0906 18022G32KT BECMG 0909/0911 BKN018
BIRK,TAF BIRK 081056Z 0812/0912 19016KT 9999 -RA SCT010 BKN014 TX10/0815Z TN08/0906Z TEMPO 0812/0909 3500 RADZ BR BKN007 OVC015 BECMG 0904/0906 18020G30KT SHRA BKN018
BIVM,TAF BIVM 081015Z 0811/0819 21010KT 7000 RA BKN008 OVC013 TEMPO 0811/0817 2500 RADZ BR OVC002 BECMG 0817/0819 BKN017
BIVO,TAF BIVO 081021Z 0811/0817 22008KT 9999 BKN050
BKPR,TAF BKPR 081130Z 0812/0912 02008KT 9999 SCT030 BKN070 TEMPO 0812/0819 VRB15G25KT 4000 TSRA SCT025CB TEMPO 0901/0907 3000 BR PROB30 0902/0905 0600 BCFG BKN005
CBBC,TAF CBBC 081240Z 0813/0901 VRB03KT P6SM SCT005 TEMPO 0813/0817 1SM BR BKN002 FM081700 VRB03KT P6SM SCT008 BKN220 FM082300 VRB03KT P6SM SKC RMK FCST BASED ON AUTO OBS. NXT FCST BY 081900Z
CWWU,TAF CWWU 081200Z 0812/0912 VRB02KT 1 1/2SM BR OVC004 FM081600 VRB04KT P6SM SCT010 BKN020 OVC030 FM082200 VRB04KT 2SM -DZ BR BKN007 OVC015 FM090300 VRB03KT P6SM SCT015 BKN025 OVC035 RMK NXT FCST BY 081800Z
CYAB,TAF CYAB 081240Z 0813/0822 30007KT P6SM FEW050 SCT200 FM081800 30007KT P6SM SCT020 TEMPO 0818/0822 BKN020 RMK NXT FCST BY 081900Z
CYAH,TAF CYAH 081040Z 0811/0821 10008KT P6SM SCT020 TEMPO 0811/0816 BKN020 RMK FCST BASED ON AUTO OBS. NXT FCST BY 081800Z
CYAM,TAF CYAM 080740Z 0808/0820 30006KT P6SM FEW240 FM081500 30012KT P6SM FEW080 TEMPO 0816/0820 5SM FU RMK NXT FCST BY 081400Z
CYAT,TAF CYAT 080840Z 0809/0819 36008KT P6SM SCT200 BECMG 0813/0815 07008KT RMK FCST BASED ON AUTO OBS. CLD SENSOR INOP. NXT FCST BY 081500Z
CYAW,TAF CYAW 081140Z 0812/0824 VRB03KT 1/8SM FG VV001 TEMPO 0812/0814 1SM BR OVC003 FM081400 VRB03KT 1SM BR OVC003 BECMG 0814/0816 P6SM NSW SCT010 FM081600 14005KT P6SM SCT010 RMK NXT FCST BY 081800Z
CYAY,TAF AMD CYAY 081002Z 0810/0820 02020G30KT 1 1/2SM -RA BR OVC002 TEMPO 0810/0815 5SM -RA BR OVC007 FM081500 06015G25KT 6SM -RA BR OVC008 TEMPO 0815/0820 2SM -RA BR OVC004 RMK FCST BASED ON AUTO OBS. NXT FCST BY 081400Z
CYBC,TAF CYBC 080740Z 0808/0820 07012G22KT P6SM -RA FEW015 OVC050 TEMPO 0808/0809 3SM -RA BR FEW006 OVC015 PROB30 0808/0809 2SM -RA -DZ BR OVC006 FM080900 06015KT 3SM -RA BR FEW006 OVC012 TEMPO 0809/0815 P6SM -RA SCT012 OVC025 PROB30 0809/0812 2SM -RA -DZ BR OVC006 FM081500 07015G30KT P6SM OVC015 TEMPO 0815/0820 OVC030 RMK FCST BASED ON AUTO OBS. NXT FCST BY 081400Z
CYBG,TAF CYBG 081140Z 0812/0912 VRB03KT P6SM SCT015 OVC030 TEMPO 0812/0903 P6SM -RA OVC015 BECMG 0814/0816 09008KT FM090300 11005KT P6SM SCT008 OVC015 RMK NXT FCST BY 081500Z
CYBK,TAF CYBK 081140Z 0812/0824 06005KT P6SM SCT060 BKN120 OVC220 TEMPO 0812/0814 P6SM -SHRA VCTS BKN050CB OVC100 PROB40 0812/0814 1/2SM FG VV002 FM081400 07012G22KT P6SM -RA BKN040 OVC080 TEMPO 0814/0824 2SM -SHRA BR BKN012 OVC025 BECMG 0819/0821 25025KT RMK NXT FCST BY 081800Z
CYBR,TAF AMD CYBR 081313Z 0813/0824 10008KT P6SM -SHRA SCT015 BKN050 OVC090 TEMPO 0813/0815 VRB15G25KT 4SM TSRA BKN015 OVC050CB FM081500 06012KT P6SM SCT020 BKN060 TEMPO 0815/0816 5SM -SHRA BR VCTS BKN020CB OVC060 FM081600 06012KT P6SM SCT060 TEMPO 0816/0820 BKN060 FM082000 06010KT P6SM BKN060 TEMPO 0820/0824 P6SM -SHRA VCTS SCT040CB BKN060 RMK NXT FCST BY 081800Z
CYBW,TAF CYBW 081140Z 0812/0824 32006KT P6SM FEW250 BECMG 0816/0818 16012KT FM081800 16012KT P6SM SCT080 TEMPO 0818/0824 BKN080 RMK FCST BASED ON AUTO OBS. NXT FCST BY 081800Z
CYBX,TAF CYBX 080740Z 0808/0820 05020G35KT 6SM -RA BR SCT010 OVC025 TEMPO 0808/0820 3SM -RA BR BKN010 OVC025 BECMG 0816/0818 05015G25KT RMK NXT FCST BY 081400Z
CYCA,TAF CYCA 080740Z 0808/0820 04010G20KT 1/2SM -RA FG VV003 TEMPO 0808/0812 3SM -DZ BR FM081200 04012G22KT 3SM -RA BR OVC004 TEMPO 0812/0815 1/2SM -RA FG RMK FCST BASED ON AUTO OBS. NXT FCST BY 081400Z
CYCB,TAF CYCB 081240Z 0813/0901 01012KT P6SM SCT008 OVC040 TEMPO 0813/0819 5SM -SN BR BKN006 OVC020 PROB30 0813/0819 2SM -FZDZ BR FM081900 34008KT P6SM FEW030 SCT100 BECMG 0819/0821 28010KT RMK NXT FCST BY 081900Z
CYCO,TAF CYCO 081240Z 0813/0901 VRB03KT P6SM SCT003 BKN015 TEMPO 0813/0816 2SM BR OVC003 FM081600 22006KT P6SM FEW008 BKN020 TEMPO 0816/0819 P6SM -RA FEW003 OVC006 FM081900 21012KT P6SM SCT030 TEMPO 0819/0901 BKN020 BECMG 0823/0901 24015KT RMK NXT FCST BY 081900Z
CYCX,TAF AMD CYCX 081305Z 0813/0901 05005KT 2SM -DZ BR OVC003 BECMG 0813/0815 P6SM NSW FEW003 OVC009 FM081500 VRB03KT 5SM -SHRA BR BKN009 OVC020 TEMPO 0815/0822 P6SM NSW SCT009 OVC020 BECMG 0818/0820 04010KT FM082200 04010KT P6SM SCT015 OVC030 TEMPO 0822/0901 5SM -SHRA BR BKN015 OVC030 RMK NXT FCST BY 081500Z
CYCY,TAF CYCY 081240Z 0813/0901 12008KT 6SM BR OVC005 TEMPO 0813/0815 1SM BR OVC003 FM081500 10010KT P6SM -SN BKN015 OVC030 TEMPO 0815/0901 2SM -SN OVC008 RMK FCST BASED ON AUTO OBS. NXT FCST BY 081900Z
CYDB,TAF CYDB 081140Z 0812/0824 12015G25KT P6SM SKC BECMG 0819/0821 12020G30KT RMK FCST BASED ON AUTO OBS. NXT FCST BY 081800Z
CYDF,TAF CYDF 080740Z 0808/0820 04012KT 2SM -RA BR OVC006 TEMPO 0808/0812 6SM BR OVC015 FM081200 06010KT 6SM -RA BR OVC015 TEMPO 0812/0818 3SM -SHRA BR OVC006 FM081800 04012KT P6SM OVC020 RMK NXT FCST BY 081400Z
CYDL,TAF CYDL 081140Z 0812/0823 07006KT P6SM SKC RMK FCST BASED ON AUTO OBS. NXT FCST BY 081800Z
CYDN,TAF CYDN 081140Z 0812/0824 VRB03KT 1/2SM FG VV003 TEMPO 0812/0813 2SM BR FEW003 BECMG 0813/0815 P6SM NSW SCT015 BKN080 FM081500 VRB03KT P6SM SCT015 BKN080 TEMPO 0815/0818 5SM -SHRA BR BKN015 BKN040 FM081800 VRB03KT P6SM SCT030 BKN060 TEMPO 0818/0824 P6SM -SHRA VCTS SCT030CB BKN050 RMK FCST BASED ON AUTO OBS. NXT FCST BY 081800Z
CYDP,TAF CYDP 080940Z 0810/0822 23009KT P6SM BKN009 TEMPO 0810/0812 FEW009 FM081200 23005KT P6SM SKC BECMG 0816/0818 15008KT RMK NXT FCST BY 081400Z
CYDQ,TAF CYDQ 081240Z 0813/0901 VRB03KT P6SM SKC TEMPO 0813/0901 3SM FU BECMG 0816/0818 09008KT RMK FCST BASED ON AUTO OBS. NXT FCST BY 081900Z
CYED,TAF CYED 080540Z 0806/0818 VRB03KT P6SM FEW250 BECMG 0816/0818 07010KT RMK NXT FCST BY 081200Z
CYEG,TAF CYEG 081140Z 0812/0912 VRB03KT P6SM SCT120 TEMPO 0812/0815 5SM FU BECMG 0813/0815 08010KT FM081500 08010KT P6SM FEW080 BECMG 0816/0818 08015KT FM090900 11010KT P6SM FEW100 TEMPO 0909/0912 5SM FU SCT100 RMK NXT FCST BY 081500Z
CYEK,TAF CYEK 081140Z 0812/0824 15010KT 1/2SM FG VV002 TEMPO 0812/0815 2SM BR BKN005 BECMG 0812/0814 19008KT FM081600 32012KT P6SM FEW005 SCT120 TEMPO 0816/0818 1SM BR BKN005 FM081800 30015KT P6SM BKN040 FM082300 30018KT P6SM SCT012 BKN040 TEMPO 0823/0824 P6SM -SHRA OVC012 RMK FCST BASED ON AUTO OBS. NXT FCST BY 081800Z
CYEN,TAF CYEN 081140Z 0812/0824 02012KT P6SM SCT100 FM081500 05012KT P6SM SCT080 TEMPO 0815/0818 BKN080 FM082000 02012KT P6SM BKN080 TEMPO 0820/0824 VRB15G25KT P6SM -SHRA VCTS SCT040CB BKN060 RMK FCST BASED ON AUTO OBS. NXT FCST BY 081800Z
CYER,TAF CYER 080840Z 0809/0819 18010KT P6SM SCT240 BECMG 0811/0812 18012G22KT BECMG 0813/0815 BKN120 RMK FCST BASED ON AUTO OBS. NXT FCST BY 081500Z
CYEU,TAF CYEU 081040Z 0811/0823 12018KT P6SM FEW012 SCT050 OVC120 TEMPO 0811/0817 4SM -SN SCT008 BKN012 OVC030 FM081700 17020KT P6SM -SN SCT012 BKN030 OVC080 TEMPO 0817/0823 2SM -SN SCT006 OVC012 RMK ADVISORY OFFSITE. NXT FCST BY 081800Z
CYEV,TAF CYEV 081240Z 0813/0901 34006KT 1/2SM FG VV001 TEMPO 0813/0814 5SM BR OVC005 FM081400 36006KT P6SM OVC008 TEMPO 0814/0817 2SM BR OVC005 FM081700 35006KT P6SM FEW020 TEMPO 0817/0819 BKN015 FM081900 35006KT P6SM FEW100 RMK NXT FCST BY 081900Z
CYFB,TAF CYFB 081140Z 0812/0912 VRB03KT P6SM BKN080 OVC120 TEMPO 0812/0816 4SM BR SCT006 BKN015 FM081600 16010KT P6SM SCT040 BKN080 TEMPO 0816/0905 P6SM -SHRA FEW008 BKN040 FM090500 14008KT P6SM BKN100 BKN220 RMK NXT FCST BY 081800Z
CYFC,TAF CYFC 081144Z 0812/0824 VRB03KT 3SM -RA BR OVC004 TEMPO 0812/0816 P6SM NSW SCT004 OVC008 FM081600 06008KT P6SM -SHRA SCT006 OVC020 TEMPO 0816/0824 5SM -SHRA BR BKN006 OVC020 RMK FCST BASED ON AUTO OBS. NXT FCST BY 081800Z
CYFS,TAF CYFS 081140Z 0812/0824 VRB03KT P6SM SCT020 BKN050 TEMPO 0812/0815 BKN020 OVC040 FM081500 VRB03KT P6SM SCT200 RMK NXT FCST BY 081800Z
CYGK,TAF CYGK 081140Z 0812/0824 33005KT P6SM BKN050 OVC090 TEMPO 0812/0821 P6SM -SHRA BKN020 OVC050 BECMG 0816/0818 17010KT FM082100 22009KT P6SM SCT015 BKN040 TEMPO 0821/0824 P6SM -SHRA RMK NXT FCST BY 081400Z
CYGL,TAF CYGL 081140Z 0812/0912 09008KT P6SM SCT220 FM081500 09012KT P6SM SCT220 BECMG 0823/0824 09005KT FM090700 12007KT 4SM FU FEW060 PROB30 0907/0912 2SM FU RMK NXT FCST BY 081800Z
CYGP,TAF AMD CYGP 081050Z 0810/0820 08008KT 1/2SM -RA -DZ FG OVC002 TEMPO 0810/0812 4SM BR OVC010 FM081200 05005KT 4SM -RA BR OVC006 TEMPO 0812/0820 1SM -RA BR OVC003 RMK NXT FCST BY 081400Z
CYGQ,TAF CYGQ 080740Z 0808/0820 04005KT P6SM SKC RMK FCST BASED ON AUTO OBS. NXT FCST BY 081400Z
CYGR,TAF AMD CYGR 081214Z 0812/0823 11012KT 5SM BR BKN002 OVC100 TEMPO 0812/0814 P6SM NSW FEW002 BKN100 FM081400 09012KT 4SM BR BKN006 TEMPO 0814/0818 P6SM NSW SCT006 BKN060 FM081800 08012KT P6SM SCT007 TEMPO 0818/0822 5SM BR BKN007 FM082200 07010KT 2SM BR BKN006 RMK NXT FCST BY 081400Z
CYGT,TAF CYGT 081240Z 0813/0821 09012KT 1/4SM -FZDZ FZFG VV002 TEMPO 0813/0816 3SM -SN BR OVC006 FM081600 04015KT 3/4SM BR OVC003 TEMPO 0816/0820 4SM -SN BR OVC008 FM082000 02018KT P6SM BKN012 OVC030 TEMPO 0820/0821 4SM -RASN OVC008 RMK NXT FCST BY 081900Z
CYGV,TAF AMD CYGV 081134Z 0811/0820 05012G22KT P6SM -RA SCT007 OVC025 TEMPO 0811/0815 3SM -RA BR BKN007 OVC025 FM081500 08012KT 3SM -RA BR BKN004 OVC008 TEMPO 0815/0820 6SM -RA BR SCT004 OVC008 RMK FCST BASED ON AUTO OBS. NXT FCST BY 081400Z
CYGW,TAF CYGW 081140Z 0812/0824 10012KT P6SM SKC BECMG 0815/0817 01010KT RMK FCST BASED ON AUTO OBS. NXT FCST BY 081800Z
CYGX,TAF AMD CYGX 081250Z 0813/0901 23008KT P6SM SCT020 BKN030 TEMPO 0813/0814 VRB20G30KT 2SM +TSRA BR OVC020CB FM081500 27008KT P6SM SCT040 BECMG 0817/0819 31010KT RMK NXT FCST BY 081900Z
CYHD,TAF CYHD 080740Z 0808/0820 14007KT P6SM SCT140 FM081200 18005KT P6SM OVC100 TEMPO 0812/0820 P6SM -SHRA BECMG 0817/0819 20008KT RMK FCST BASED ON AUTO OBS. NXT FCST BY 081400Z
CYHK,TAF AMD CYHK 081301Z 0813/0824 03015KT 1 1/2SM BR OVC004 TEMPO 0813/0816 3SM -RASN BR OVC008 FM081600 35012KT P6SM -RA BKN012 OVC025 TEMPO 0816/0819 4SM -RASN BR OVC008 FM081900 34012KT P6SM BKN015 TEMPO 0819/0823 3SM BR OVC007 RMK FCST BASED ON AUTO OBS. NXT FCST BY 081800Z
CYHM,TAF CYHM 081140Z 0812/0912 VRB03KT P6SM SCT050 BKN070 FM081400 03010KT 5SM FU BKN040 FM082000 32008KT 2SM FU OVC050 PROB30 0820/0824 3/4SM FU FM090000 31005KT 3/4SM FU BKN060 FM091000 31006KT 2SM FU SCT040 RMK NXT FCST BY 081800Z
CYHU,TAF AMD CYHU 081303Z 0813/0912 04008KT P6SM SCT020 OVC030 TEMPO 0813/0816 6SM -SHRA BR BKN020 OVC030 FM081600 03012KT P6SM BKN030 FM081900 03012KT P6SM BKN040 TEMPO 0819/0823 P6SM -SHRA FM082300 04012KT P6SM BKN040 FM090200 02010KT P6SM BKN015 PROB30 0908/0912 BKN008 RMK FCST BASED ON AUTO OBS. NXT FCST BY 081800Z
CYHY,TAF CYHY 081140Z 0812/0824 30010KT P6SM SCT020 OVC040 TEMPO 0812/0816 BKN020 FM081600 28006KT P6SM BKN025 TEMPO 0816/0824 BKN020 RMK NXT FCST BY 081800Z
CYHZ,TAF CYHZ 081140Z 0812/0912 13005KT 1SM BR OVC003 TEMPO 0812/0813 P6SM NSW SCT003 BKN020 FM081300 16004KT P6SM FEW004 BKN060 TEMPO 0813/0815 1SM BR BKN004 BKN060 FM081500 16005KT P6SM FEW020 BKN030 TEMPO 0815/0817 P6SM -SHRA BKN020 FM081700 18012KT P6SM -SHRA BKN030 FM082200 16008KT P6SM FEW025 BKN070 FM090300 15005KT 6SM BR SCT002 SCT040 PROB30 0903/0911 1SM BR VV002 RMK NXT FCST BY 081500Z
CYIO,TAF CYIO 081240Z 0813/0901 05015G25KT P6SM FEW030 SCT240 FM081600 05018G28KT P6SM SCT020 TEMPO 0816/0901 BKN020 RMK FCST BASED ON AUTO OBS. NXT FCST BY 081900Z
CYIV,TAF CYIV 081240Z 0813/0901 VRB03KT P6SM BKN040 TEMPO 0813/0815 P6SM -SHRA SCT020 OVC030 FM081500 VRB03KT P6SM SCT015 BKN040 TEMPO 0815/0818 BKN015 OVC030 FM081800 VRB03KT P6SM SCT040 TEMPO 0818/0901 BKN040 RMK FCST BASED ON AUTO OBS. NXT FCST BY 081900Z
CYJT,TAF CYJT 081140Z 0812/0912 07010KT P6SM FEW020 TEMPO 0812/0815 BKN020 BECMG 0812/0814 VRB03KT FM081500 27005KT P6SM BKN030 FM081800 29012KT P6SM BKN050 FM090000 24005KT P6SM SCT008 OVC025 TEMPO 0900/0906 5SM BR BKN008 OVC025 FM090600 15005KT P6SM FEW007 OVC015 TEMPO 0906/0912 3SM -DZ BR OVC007 RMK NXT FCST BY 081800Z
CYKA,TAF CYKA 081240Z 0813/0901 VRB03KT P6SM SCT250 BECMG 0819/0821 05008KT RMK NXT FCST BY 081900Z
CYKF,TAF CYKF 080740Z 0808/0820 32006KT P6SM BKN070 OVC120 BECMG 0811/0813 01010KT FM081400 01012KT 6SM FU BKN040 TEMPO 0814/0817 2SM FU FM081700 01012KT 5SM -SHRA FU OVC040 TEMPO 0817/0820 2SM FU PROB30 0817/0820 1SM FU RMK FCST BASED ON AUTO OBS. AUTO OBS NON-REPRESENTATIVE OF CRNT WX. NXT FCST BY 081400Z
CYKJ,TAF CYKJ 081240Z 0813/0824 VRB03KT P6SM SKC BECMG 0814/0816 31012G22KT RMK FCST BASED ON AUTO OBS. NXT FCST BY 081900Z
CYKL,TAF CYKL 080740Z 0808/0820 08006KT P6SM SCT008 BKN015 OVC040 TEMPO 0808/0813 SCT015 BKN040 BECMG 0808/0809 08008G18KT FM081300 11009KT P6SM SCT020 BKN040 FM081500 11012KT P6SM SCT040 RMK FCST BASED ON AUTO OBS. NXT FCST BY 081400Z
CYLD,TAF CYLD 081140Z 0812/0824 34005KT P6SM SCT070 TEMPO 0812/0818 BKN060 FM081800 02010G20KT P6SM BKN060 BECMG 0822/0824 02008KT RMK NXT FCST BY 081400Z
CYLL,TAF CYLL 081140Z 0812/0824 VRB03KT P6SM SKC BECMG 0813/0815 05012KT RMK FCST BASED ON AUTO OBS. NXT FCST BY 081800Z
CYLT,TAF AMD CYLT 081305Z 0813/0901 22020G30KT P6SM FEW020 SCT200 RMK NXT FCST BY 081800Z
CYLW,TAF CYLW 081240Z 0813/0901 VRB03KT P6SM BKN200 TEMPO 0813/0820 SCT120 BKN180 BECMG 0816/0818 34008KT FM082000 32008KT P6SM SCT120 SCT200 TEMPO 0820/0901 BKN120 BKN200 RMK FCST BASED ON AUTO OBS. NXT FCST BY 081900Z
CYMA,TAF CYMA 081140Z 0812/0824 01010KT P6SM SCT060 TEMPO 0812/0819 BKN060 FM081900 09008KT P6SM SCT080 BKN120 TEMPO 0819/0824 BKN080 RMK NXT FCST BY 081800Z
CYMH,TAF CYMH 080840Z 0809/0821 02012G22KT 1 1/2SM -RA BR OVC003 TEMPO 0809/0817 4SM -RA -DZ BR OVC006 FM081700 02012G22KT 5SM -RA BR OVC005 TEMPO 0817/0821 1 1/2SM -DZ BR OVC003 RMK FCST BASED ON AUTO OBS. NXT FCST BY 081400Z
CYMJ,TAF CYMJ 081140Z 0812/0824 27008KT P6SM FEW120 BKN250 TEMPO 0812/0814 5SM BR FM081800 04010KT P6SM SCT070 RMK NXT FCST BY 081800Z
CYMM,TAF CYMM 081240Z 0813/0901 24005KT 6SM FU SKC TEMPO 0813/0815 4SM FU BR FM081500 30008KT P6SM SKC TEMPO 0815/0901 6SM FU RMK FCST BASED ON AUTO OBS. NXT FCST BY 081900Z
CYMO,TAF CYMO 081140Z 0812/0824 35008KT P6SM SCT070 TEMPO 0812/0815 5SM FU BECMG 0812/0814 06010KT FM081500 06012KT P6SM SKC RMK FCST BASED ON AUTO OBS. NXT FCST BY 081800Z
CYMT,TAF CYMT 081142Z 0812/0824 05012KT P6SM SCT040 SCT100 TEMPO 0812/0818 6SM FU BKN040 BKN080 FM081800 08012KT P6SM BKN060 BKN100 TEMPO 0818/0824 5SM -SHRA FU OVC050 RMK FCST BASED ON AUTO OBS. NXT FCST BY 081800Z
CYMX,TAF AMD CYMX 081259Z 0812/0912 VRB03KT P6SM OVC030 TEMPO 0812/0815 5SM -SHRA BR BKN015 OVC030 FM081500 05008KT P6SM BKN030 FM081900 05008KT P6SM BKN040 TEMPO 0819/0903 6SM -SHRA BR BKN020 OVC040 FM090300 VRB03KT P6SM BKN020 OVC030 PROB30 0908/0912 BKN009 RMK NXT FCST BY 081800Z
CYNA,TAF CYNA 080740Z 0808/0820 05012KT P6SM SCT006 OVC015 TEMPO 0808/0811 3SM -RA BR BKN006 OVC015 FM081100 08012G22KT 6SM -RA BR OVC015 TEMPO 0811/0820 4SM -SHRA BR OVC007 RMK FCST BASED ON AUTO OBS. NXT FCST BY 081400Z
CYND,TAF CYND 081240Z 0813/0901 02007KT P6SM BKN040 OVC070 FM081900 03008KT P6SM BKN040 OVC100 TEMPO 0819/0822 6SM -SHRA BR FM082200 05006KT P6SM -SHRA SCT020 OVC030 TEMPO 0822/0824 4SM -SHRA BR OVC020 PROB30 0822/0824 2SM TSRA BR BKN006 BKN020CB FM090000 09005KT P6SM SCT020 OVC040 TEMPO 0900/0901 BKN020 RMK NXT FCST BY 081800Z
CYNE,TAF CYNE 081240Z 0813/0901 22008KT 1/2SM FG OVC003 BECMG 0813/0815 P6SM NSW FEW030 FM081600 21008KT P6SM FEW080 RMK FCST BASED ON AUTO OBS. DP SENSOR INOP. NXT FCST BY 081900Z
CYOD,TAF AMD CYOD 081306Z 0813/0912 VRB03KT P6SM FEW060 SCT160 TEMPO 0813/0909 5SM FU FM090900 VRB03KT P6SM SCT090 RMK NXT FCST BY 081500Z
CYOJ,TAF CYOJ 081240Z 0813/0901 35005KT P6SM SKC TEMPO 0813/0901 5SM FU RMK FCST BASED ON AUTO OBS. NXT FCST BY 081900Z
CYOO,TAF CYOO 080740Z 0808/0820 35008KT P6SM OVC060 TEMPO 0808/0814 3SM FU PROB40 0808/0814 1SM FU FM081400 03010KT 1 1/2SM FU OVC030 TEMPO 0814/0817 6SM FU FM081700 01008KT 5SM -SHRA FU OVC040 TEMPO 0817/0820 2SM FU RMK FCST BASED ON AUTO OBS. NXT FCST BY 081400Z
CYOW,TAF CYOW 081140Z 0812/0912 03008KT P6SM FEW015 BKN060 TEMPO 0812/0814 BKN020 OVC040 FM081400 05008KT P6SM BKN040 FM081800 05008KT P6SM -SHRA BKN040 PROB30 0821/0823 4SM TSRA BR BKN030CB FM090000 VRB03KT P6SM SCT008 OVC020 PROB30 0903/0912 BKN008 RMK NXT FCST BY 081500Z
CYOY,TAF AMD CYOY 081208Z 0812/0824 VRB03KT P6SM OVC025 TEMPO 0812/0816 5SM -RA -DZ BR FEW006 OVC020 FM081600 09008KT P6SM OVC030 TEMPO 0816/0824 P6SM -SHRA OVC020 RMK NXT FCST BY 081800Z
CYPA,TAF CYPA 081240Z 0813/0901 21010KT P6SM FEW100 SCT250 BECMG 0814/0816 32008KT RMK NXT FCST BY 081900Z
CYPE,TAF CYPE 081240Z 0813/0901 02005KT P6SM FEW250 TEMPO 0813/0901 5SM FU BECMG 0815/0817 08010KT RMK NXT FCST BY 081900Z
CYPG,TAF AMD CYPG 081211Z 0812/0824 12008KT P6SM SCT240 TEMPO 0812/0814 3SM BR FEW015 FM081400 10005KT P6SM SCT040 BKN080 TEMPO 0814/0818 6SM -SHRA BR BKN040 PROB30 0814/0818 VRB15G30KT 1SM TSRA BR OVC020CB FM081800 30005KT P6SM FEW030 BKN060 RMK NXT FCST BY 081800Z
CYPH,TAF CYPH 081140Z 0812/0824 17010KT P6SM SKC BECMG 0812/0814 18015KT RMK FCST BASED ON AUTO OBS. NXT FCST BY 081800Z
CYPL,TAF CYPL 080740Z 0808/0820 16007KT P6SM SKC BECMG 0812/0814 24008KT BKN160 FM081800 24008KT P6SM OVC080 RMK FCST BASED ON AUTO OBS. NXT FCST BY 081400Z
CYPQ,TAF AMD CYPQ 081308Z 0813/0822 36008KT P6SM BKN025 OVC040 TEMPO 0813/0818 6SM -SHRA FU BKN020 OVC040 FM081800 34010KT P6SM OVC040 TEMPO 0818/0822 3SM -SHRA FU BKN020 OVC040 PROB30 0818/0822 2SM FU RMK FCST BASED ON AUTO OBS. NXT FCST BY 081400Z
CYPR,TAF CYPR 081240Z 0813/0901 VRB03KT P6SM SCT012 SCT200 BECMG 0815/0817 BKN150 FM081900 27005KT P6SM BKN140 RMK FCST BASED ON AUTO OBS. NXT FCST BY 081900Z
CYPX,TAF CYPX 081140Z 0812/0824 19008KT P6SM BKN240 FM081700 20012G22KT P6SM SCT180 BKN220 RMK FCST BASED ON AUTO OBS. NXT FCST BY 081800Z
CYPY,TAF CYPY 081140Z 0812/0824 29006KT P6SM SCT015 TEMPO 0812/0815 BKN015 BECMG 0821/0823 22008KT RMK FCST BASED ON AUTO OBS. NXT FCST BY 081800Z
CYQA,TAF CYQA 081140Z 0812/0824 34005KT P6SM OVC060 TEMPO 0812/0819 4SM FU FM081900 31008KT P6SM BKN040 TEMPO 0819/0824 3SM -SHRA BR RMK FCST BASED ON AUTO OBS. NXT FCST BY 081400Z
CYQB,TAF CYQB 081140Z 0812/0912 07012KT P6SM -RA FEW007 SCT020 OVC025 TEMPO 0812/0815 4SM -RA BR SCT007 OVC020 FM081500 07012KT P6SM -SHRA SCT015 OVC060 TEMPO 0815/0820 5SM -SHRA BR BKN015 OVC060 FM082000 07015KT P6SM FEW015 OVC080 FM090000 07010G20KT P6SM BKN015 OVC080 RMK NXT FCST BY 081800Z
CYQD,TAF CYQD 081240Z 0813/0901 VRB03KT P6SM SCT250 FM081600 27010KT P6SM SKC BECMG 0817/0819 32012KT RMK FCST BASED ON AUTO OBS. NXT FCST BY 081900Z
CYQF,TAF CYQF 081140Z 0812/0824 VRB03KT P6SM SKC BECMG 0816/0818 11008KT FEW080 RMK FCST BASED ON AUTO OBS. NXT FCST BY 081800Z
CYQG,TAF CYQG 081140Z 0812/0912 32007KT P6SM SCT080 FM081500 01012KT P6SM BKN080 FM090000 05009KT 6SM FU SCT090 FM090700 33006KT 5SM FU SKC RMK FCST BASED ON AUTO OBS. NXT FCST BY 081800Z
CYQH,TAF CYQH 081140Z 0812/0824 VRB03KT P6SM FEW100 BECMG 0816/0818 12008KT FM081800 12008KT P6SM SKC RMK NXT FCST BY 081800Z
CYQI,TAF CYQI 081148Z 0812/0824 15007KT 2SM BR FEW003 BKN060 TEMPO 0812/0815 P6SM NSW BKN060 PROB30 0812/0814 1/2SM FG VV002 FM081500 18010KT P6SM BKN040 TEMPO 0815/0824 5SM -SHRA BR BKN020 OVC040 RMK NXT FCST BY 081800Z
CYQK,TAF CYQK 080754Z 0808/0820 15005KT P6SM BKN060 FM081000 17008KT P6SM FEW060 FM081900 17008KT P6SM BKN040 RMK NXT FCST BY 081400Z
CYQL,TAF CYQL 081140Z 0812/0824 25005KT P6SM SKC BECMG 0815/0817 36008KT FM081700 36008KT P6SM VCSH SCT060 BECMG 0820/0822 07012KT RMK FCST BASED ON AUTO OBS. NXT FCST BY 081800Z
CYQM,TAF AMD CYQM 081215Z 0812/0912 VRB03KT 3SM -RA -DZ BR BKN005 BKN012 OVC025 TEMPO 0812/0815 P6SM NSW FEW005 SCT012 OVC030 FM081500 08008KT P6SM -SHRA OVC025 TEMPO 0815/0822 4SM -SHRA BR FEW005 OVC012 BECMG 0816/0818 02008KT FM082200 02012KT 6SM -SHRA BR FEW008 OVC015 FM090000 03010KT P6SM SCT003 BKN008 PROB30 0906/0912 BKN003 OVC008 RMK NXT FCST BY 081800Z
CYQQ,TAF CYQQ 081140Z 0812/0918 VRB03KT P6SM SKC FM090800 VRB03KT P6SM BKN220 FM091500 33005KT P6SM BKN150 RMK NXT FCST BY 081800Z
CYQR,TAF CYQR 081140Z 0812/0912 36008KT P6SM SCT100 BKN200 TEMPO 0812/0818 SCT060 BKN100 FM081800 35012KT P6SM SCT080 TEMPO 0818/0821 BKN080 BECMG 0818/0820 04010KT FM082100 04010KT P6SM SCT080 TEMPO 0821/0901 VRB15G25KT P6SM -SHRA VCTS SCT060CB BKN080 FM090600 06010KT P6SM SKC RMK NXT FCST BY 081800Z
CYQT,TAF CYQT 080740Z 0808/0820 VRB03KT P6SM SKC BECMG 0816/0818 12008KT RMK NXT FCST BY 081400Z
CYQU,TAF CYQU 081240Z 0813/0901 32006KT P6SM FEW040 TEMPO 0813/0901 4SM FU BECMG 0813/0815 09012KT RMK NXT FCST BY 081900Z
CYQV,TAF CYQV 081140Z 0812/0824 VRB03KT P6SM SCT080 BKN120 TEMPO 0812/0815 P6SM VCSH SCT040 BKN080 FM081800 02008KT P6SM SCT080 TEMPO 0818/0824 P6SM -SHRA BKN080 PROB30 0818/0822 VRB20G30KT 5SM TSRA BR BKN060CB RMK FCST BASED ON AUTO OBS. NXT FCST BY 081800Z
CYQW,TAF CYQW 081140Z 0812/0824 VRB03KT P6SM SKC FM081800 02010KT P6SM FEW080 RMK FCST BASED ON AUTO OBS. NXT FCST BY 081800Z
CYQX,TAF AMD CYQX 081223Z 0812/0912 35005KT 2SM -SHRA BR OVC003 TEMPO 0812/0813 6SM BR OVC006 FM081300 35005KT 5SM -DZ BR OVC006 TEMPO 0813/0815 P6SM NSW OVC012 FM081500 34008KT P6SM OVC012 FM081800 34012KT P6SM OVC015 FM082000 34010KT P6SM SCT020 BKN030 FM082300 33005KT 1SM BR BKN004 OVC012 FM090200 34005KT 1/2SM -DZ FG OVC002 RMK NXT FCST BY 081800Z
CYQY,TAF CYQY 081155Z 0812/0824 07005KT 1/2SM FG OVC002 TEMPO 0812/0814 2SM BR OVC006 FM081400 04007KT 6SM BR BKN008 TEMPO 0814/0816 1 1/2SM BR BKN005 FM081800 07010KT P6SM BKN008 TEMPO 0818/0823 SCT008 FM082300 04005KT 2SM BR OVC005 RMK NXT FCST BY 081800Z
CYQZ,TAF CYQZ 081140Z 0812/0824 VRB03KT P6SM SKC RMK FCST BASED ON AUTO OBS. NXT FCST BY 081900Z
CYRB,TAF AMD CYRB 081231Z 0812/0912 13012KT P6SM SCT005 BKN200 TEMPO 0812/0822 BKN005 FM082200 13012KT P6SM BKN070 FM090200 12015KT P6SM SCT015 BKN050 TEMPO 0902/0912 4SM -SN BR BKN015 OVC040 RMK NXT FCST BY 081800Z
CYRJ,TAF CYRJ 081151Z 0812/0824 03007KT P6SM -SHRA FEW015 OVC025 TEMPO 0812/0822 5SM -SHRA BR FEW008 OVC015 PROB30 0812/0822 2 1/2SM SHRA BR BKN008 FM082200 05010KT 5SM -SHRA BR BKN005 OVC020 RMK NXT FCST BY 081400Z
CYRL,TAF CYRL 081040Z 0811/0823 14005KT P6SM BKN060 BECMG 0813/0815 18008KT FM082100 18008KT P6SM BKN060 TEMPO 0821/0823 P6SM -SHRA RMK NXT FCST BY 081400Z
CYRQ,TAF CYRQ 080740Z 0808/0820 VRB03KT P6SM -SHRA SCT020 OVC040 TEMPO 0808/0810 5SM -SHRA BR BKN020 FM081000 03007KT 5SM -SHRA BR BKN020 OVC030 TEMPO 0810/0820 P6SM -SHRA SCT020 OVC030 RMK FCST BASED ON AUTO OBS. NXT FCST BY 081400Z
CYRT,TAF CYRT 081140Z 0812/0824 10008KT 1/4SM FG VV002 TEMPO 0812/0816 2SM BR OVC005 FM081600 10010KT 3/4SM BR OVC004 TEMPO 0816/0819 4SM -RA BR BKN008 OVC070 FM081900 06012KT P6SM -RA BKN020 OVC040 TEMPO 0819/0824 2SM -SHRA VCTS BKN008CB OVC012 BECMG 0821/0823 36008KT RMK NXT FCST BY 081800Z
CYSB,TAF CYSB 080740Z 0808/0820 01008KT P6SM BKN070 FM081300 01008KT P6SM BKN070 TEMPO 0813/0818 6SM FU FM081800 02010KT 6SM FU BKN060 TEMPO 0818/0820 4SM -SHRA FU RMK NXT FCST BY 081400Z
CYSC,TAF CYSC 081040Z 0811/0823 VRB03KT 5SM -RA BR OVC005 TEMPO 0811/0813 P6SM -RA SCT005 OVC020 FM081300 VRB03KT 5SM -RA BR OVC009 TEMPO 0813/0816 P6SM -RA SCT009 OVC020 FM081600 02010KT 5SM -SHRA BR BKN020 TEMPO 0816/0823 P6SM -SHRA BKN030 PROB30 0820/0823 2SM TSRA BR BKN020CB RMK FCST BASED ON AUTO OBS. NXT FCST BY 081800Z
CYSF,TAF CYSF 081140Z 0812/0824 27012KT P6SM BKN060 BECMG 0814/0816 31012KT RMK FCST BASED ON AUTO OBS. NXT FCST BY 081800Z
CYSJ,TAF CYSJ 081146Z 0812/0824 VRB03KT P6SM FEW006 SCT020 BKN070 TEMPO 0812/0814 2SM -RA BR BKN005 OVC020 FM081500 17009KT P6SM -SHRA FEW020 BKN040 TEMPO 0815/0818 5SM -SHRA BR BKN020 BKN040 RMK NXT FCST BY 081800Z
CYSM,TAF CYSM 081140Z 0812/0824 30008KT P6SM BKN025 TEMPO 0812/0820 4SM FU BKN015 FM082000 32008KT P6SM SCT030 TEMPO 0820/0824 BKN030 RMK NXT FCST BY 081800Z
CYSN,TAF CYSN 081240Z 0813/0901 VRB03KT P6SM OVC070 TEMPO 0813/0815 5SM FU BKN030 FM081500 01008KT P6SM OVC060 TEMPO 0815/0901 2SM FU BKN040 BECMG 0820/0822 VRB03KT RMK NXT FCST BY 082000Z
CYTE,TAF CYTE 081240Z 0813/0901 20015G25KT P6SM SCT030 OVC060 TEMPO 0813/0817 4SM -RA BR OVC030 FM081700 24018G28KT P6SM -RA OVC030 TEMPO 0817/0901 4SM -RA BR OVC012 RMK FCST BASED ON AUTO OBS. NXT FCST BY 081900Z
CYTH,TAF CYTH 081240Z 0813/0901 VRB03KT P6SM FEW240 BECMG 0816/0818 32012G22KT RMK NXT FCST BY 081900Z
CYTL,TAF CYTL 080740Z 0808/0820 17007KT P6SM FEW120 SCT240 FM081500 20005KT P6SM BKN040 OVC080 TEMPO 0818/0820 6SM -SHRA BR BKN020 OVC040 RMK FCST BASED ON AUTO OBS. NXT FCST BY 081400Z
CYTR,TAF AMD CYTR 081227Z 0812/0912 35005KT P6SM -SHRA SCT025 BKN040 TEMPO 0812/0818 5SM -SHRA BR FU BECMG 0815/0817 20005KT FM081800 22008KT 5SM -SHRA BR FU SCT015 BKN030 FM090000 28005KT 6SM FU BKN040 BECMG 0900/0902 VRB03KT FM090900 VRB03KT P6SM -SHRA FEW008 BKN030 PROB30 0909/0912 1 1/2SM BR RMK NXT FCST BY 081800Z
CYTS,TAF CYTS 080740Z 0808/0820 36006KT P6SM BKN080 TEMPO 0811/0818 6SM FU FM081800 02007KT P6SM BKN080 RMK NXT FCST BY 081400Z
CYTZ,TAF CYTZ 080740Z 0808/0908 35008KT P6SM BKN060 OVC100 TEMPO 0808/0814 3SM FU BECMG 0811/0813 04008KT FM081400 05010KT 1 1/2SM FU OVC030 TEMPO 0814/0817 6SM FU FM081700 08008KT 5SM -SHRA FU OVC040 TEMPO 0817/0824 1SM FU FM090000 32008KT 2SM FU BKN050 FM090600 33008KT 3SM FU BKN050 RMK FCST BASED ON AUTO OBS. NXT FCST BY 081400Z
CYUL,TAF CYUL 081140Z 0812/0912 35006KT P6SM FEW020 OVC040 TEMPO 0812/0814 P6SM -SHRA BKN020 OVC040 FM081400 03012KT P6SM BKN040 FM081700 05012KT P6SM -SHRA BKN040 FM082200 05012KT P6SM BKN040 FM090200 05010KT P6SM BKN015 OVC040 RMK NXT FCST BY 081500Z
CYUX,TAF CYUX 081240Z 0813/0901 29005KT 1/2SM FZFG VV002 TEMPO 0813/0816 3SM -SN BR BKN005 FM081600 36012KT 3/4SM BR OVC003 TEMPO 0816/0820 4SM -RASN BR OVC008 FM082000 02018KT P6SM BKN012 OVC030 TEMPO 0820/0821 4SM -RASN OVC008 RMK FCST BASED ON AUTO OBS. NXT FCST BY 081900Z
CYUY,TAF CYUY 081140Z 0812/0824 03006KT P6SM BKN060 TEMPO 0812/0820 4SM FU BECMG 0814/0816 04012KT FM082000 03012KT P6SM BKN050 TEMPO 0820/0824 5SM -SHRA FU RMK NXT FCST BY 081800Z
CYVC,TAF CYVC 081240Z 0813/0901 33006KT P6SM SKC BECMG 0816/0818 32012KT RMK NXT FCST BY 081900Z
CYVM,TAF CYVM 081240Z 0813/0901 18006KT P6SM -SN FEW005 SCT015 BKN040 TEMPO 0813/0817 2SM -RASN BR SCT005 OVC015 FM081700 20008KT P6SM SCT020 BKN040 TEMPO 0817/0822 5SM -RA BR BKN020 OVC040 FM082200 20006KT P6SM BKN070 BKN240 RMK FCST BASED ON AUTO OBS. NXT FCST BY 081900Z
CYVO,TAF CYVO 081140Z 0812/0824 02008KT P6SM BKN050 TEMPO 0812/0820 4SM FU BECMG 0814/0816 04012G22KT FM082000 03012G22KT 6SM FU BKN050 TEMPO 0820/0824 3SM -SHRA FU PROB30 0820/0824 2SM -SHRA FU RMK NXT FCST BY 081800Z
CYVP,TAF CYVP 081140Z 0812/0824 17005KT P6SM FEW240 BECMG 0813/0815 18010KT RMK NXT FCST BY 081800Z
CYVQ,TAF CYVQ 081140Z 0812/0824 11010KT P6SM FEW060 SCT120 BECMG 0813/0815 12015KT RMK NXT FCST BY 081800Z
CYVR,TAF CYVR 081140Z 0812/0918 10008KT P6SM SCT180 SCT220 TEMPO 0812/0815 5SM FU BECMG 0812/0813 10015KT FM081500 10015KT P6SM SCT012 SCT120 TEMPO 0815/0817 5SM FU FM081700 16010KT P6SM SCT012 SCT120 FM082100 19008KT P6SM SCT120 BECMG 0902/0904 10010KT FM090400 10008KT P6SM SCT120 BKN200 TEMPO 0904/0909 5SM FU FM090900 10015KT P6SM SCT120 BKN150 TEMPO 0909/0915 5SM FU FM091500 10015KT P6SM SCT015 BKN080 RMK NXT FCST BY 081500Z
CYVV,TAF CYVV 081040Z 0811/0823 03005KT P6SM BKN050 FM081500 03008KT P6SM SCT050 RMK NXT FCST BY 081400Z
CYWA,TAF AMD CYWA 081309Z 0813/0912 01005KT P6SM BKN050 FM081600 03008KT P6SM BKN040 TEMPO 0816/0819 P6SM -SHRA SCT020 FM081900 20006KT P6SM -SHRA SCT020 BKN030 TEMPO 0819/0902 5SM -SHRA BR BKN020 FM090200 28005KT P6SM FEW008 BKN025 FM090700 VRB03KT 2SM BR BKN008 PROB30 0907/0912 1/2SM FG VV001 RMK NXT FCST BY 081800Z
CYWE,TAF CYWE 081240Z 0813/0901 02006KT P6SM OVC015 TEMPO 0813/0901 SCT030 BECMG 0816/0818 VRB03KT RMK FCST BASED ON AUTO OBS. NXT FCST BY 081900Z
CYWG,TAF CYWG 081140Z 0812/0912 15008KT P6SM FEW150 SCT240 FM081600 16008KT P6SM SCT080 TEMPO 0816/0822 SCT040 BKN080 FM082200 VRB03KT P6SM SCT040 BKN080 TEMPO 0822/0903 P6SM -SHRA VCTS SCT040CB BKN060 FM090300 VRB03KT P6SM SCT080 RMK NXT FCST BY 081800Z
CYWK,TAF AMD CYWK 081124Z 0811/0820 05010KT 5SM -DZ BR OVC005 TEMPO 0811/0815 P6SM NSW OVC010 BECMG 0811/0813 05010G20KT FM081500 05010G20KT P6SM OVC012 TEMPO 0815/0818 5SM -DZ -RA BR FM081800 07012G22KT P6SM OVC020 RMK FCST BASED ON AUTO OBS. NXT FCST BY 081400Z
CYWL,TAF CYWL 081240Z 0813/0901 VRB03KT P6SM SCT220 FM081600 VRB03KT P6SM SCT100 BKN240 FM082000 08005KT P6SM SKC BECMG 0822/0824 32006KT RMK NXT FCST BY 081900Z
CYXC,TAF CYXC 081240Z 0813/0901 28005KT P6SM SCT120 SCT220 TEMPO 0813/0818 BKN100 BKN220 FM081800 04006KT P6SM SCT080 SCT240 FM082100 08008KT P6SM SCT100 TEMPO 0821/0901 BKN100 RMK NXT FCST BY 081900Z
CYXE,TAF CYXE 081140Z 0812/0912 VRB03KT P6SM SCT250 BECMG 0816/0818 02010KT FM090400 02006KT P6SM SKC RMK NXT FCST BY 081800Z
CYXH,TAF CYXH 081140Z 0812/0824 07005KT P6SM SCT200 FM081500 06008KT P6SM FEW060 BECMG 0816/0818 06015KT RMK FCST BASED ON AUTO OBS. NXT FCST BY 081800Z
CYXJ,TAF CYXJ 081240Z 0813/0901 04005KT P6SM SKC TEMPO 0813/0901 2SM FU BECMG 0814/0816 11012KT RMK NXT FCST BY 081900Z
CYXL,TAF CYXL 080740Z 0808/0820 15005KT P6SM SCT220 FM081300 VRB03KT P6SM OVC080 TEMPO 0815/0820 P6SM -SHRA BECMG 0816/0818 25007KT RMK NXT FCST BY 081400Z
CYXP,TAF CYXP 081240Z 0813/0822 VRB03KT P6SM -SN SCT004 OVC040 TEMPO 0813/0816 2 1/2SM -SN BKN004 OVC012 FM081600 26008KT P6SM FEW012 BKN060 BKN120 TEMPO 0816/0819 4SM -RA BR SCT004 BKN025 FM081900 26008KT P6SM BKN080 TEMPO 0819/0822 SCT012 BKN040 RMK NXT FCST BY 081900Z
CYXR,TAF CYXR 081140Z 0812/0824 34008KT P6SM BKN060 TEMPO 0812/0815 6SM FU OVC040 FM082000 02012KT P6SM BKN060 TEMPO 0820/0824 5SM -SHRA FU OVC060 RMK FCST BASED ON AUTO OBS. NXT FCST BY 081800Z
CYXS,TAF CYXS 081240Z 0813/0901 36005KT P6SM SKC BECMG 0820/0822 05008KT RMK FCST BASED ON AUTO OBS. NXT FCST BY 081900Z
CYXT,TAF CYXT 081240Z 0813/0901 VRB03KT P6SM SCT200 BECMG 0816/0818 18006KT BECMG 0821/0823 17012G22KT RMK NXT FCST BY 081900Z
CYXU,TAF CYXU 081140Z 0812/0912 29006KT P6SM BKN080 BKN110 FM081400 35010KT P6SM BKN060 FM081800 35012KT 6SM -SHRA FU OVC040 TEMPO 0818/0901 2SM FU FM090100 04008KT 2SM FU SCT060 PROB30 0901/0905 1/2SM FU FM090500 36006KT 1SM FU FEW040 PROB30 0905/0912 1/4SM FU RMK NXT FCST BY 081800Z
CYXX,TAF CYXX 081140Z 0812/0912 VRB03KT P6SM SCT150 SCT200 BECMG 0813/0815 24008KT SCT120 FM081700 23010KT P6SM SCT020 SCT120 BECMG 0901/0903 BKN120 FM090800 VRB03KT P6SM SCT020 BKN120 RMK NXT FCST BY 081800Z
CYXY,TAF CYXY 081140Z 0812/0912 20008KT P6SM FEW120 SCT250 BECMG 0813/0815 15015G25KT RMK NXT FCST BY 081800Z
CYXZ,TAF CYXZ 081243Z 0813/0824 01007KT P6SM FEW060 FM081700 03010G20KT P6SM SCT060 TEMPO 0817/0824 3SM FU BKN060 RMK NXT FCST BY 082000Z
CYYB,TAF CYYB 080740Z 0808/0820 36005KT P6SM BKN050 TEMPO 0808/0818 5SM FU PROB30 0808/0812 2SM FU FM081800 02010KT 6SM FU BKN050 TEMPO 0818/0820 4SM -SHRA FU RMK FCST BASED ON AUTO OBS. NXT FCST BY 081400Z
CYYC,TAF CYYC 081140Z 0812/0912 33006KT P6SM FEW250 BECMG 0816/0818 16012KT FM081800 16012KT P6SM SCT080 TEMPO 0823/0905 BKN080 BECMG 0900/0902 14010KT FM090800 VRB03KT P6SM SKC RMK NXT FCST BY 081500Z
CYYE,TAF CYYE 081240Z 0813/0901 06005KT P6SM FEW080 TEMPO 0813/0814 3SM FU FM081400 09005KT 6SM FU SCT240 TEMPO 0814/0901 2SM FU RMK NXT FCST BY 081900Z
CYYF,TAF CYYF 081240Z 0813/0901 VRB03KT P6SM SCT230 BECMG 0815/0817 01008KT SCT120 SCT200 FM082300 32008KT P6SM SCT120 BKN160 RMK NXT FCST BY 081900Z
CYYG,TAF CYYG 081154Z 0812/0824 12006KT P6SM FEW008 OVC012 TEMPO 0812/0814 2 1/2SM -RA -DZ BR OVC008 FM081400 15008KT P6SM FEW012 OVC025 TEMPO 0814/0824 5SM -SHRA BR BKN012 OVC025 BECMG 0820/0822 08008KT RMK NXT FCST BY 081800Z
CYYH,TAF AMD CYYH 081301Z 0813/0824 03015KT P6SM -RASN SCT010 OVC070 TEMPO 0813/0815 1SM -SN BR OVC007 FM081500 35012KT P6SM -RA SCT012 OVC025 TEMPO 0815/0818 4SM -RASN BR OVC008 FM081900 34012KT P6SM BKN020 TEMPO 0819/0823 3SM BR OVC008 RMK NXT FCST BY 081800Z
CYYJ,TAF CYYJ 081140Z 0812/0912 VRB03KT P6SM SCT200 BECMG 0819/0821 12010KT SCT120 FM082300 09006KT P6SM SCT120 TEMPO 0823/0908 BKN120 BECMG 0903/0905 VRB03KT FM090800 VRB03KT P6SM BKN100 RMK NXT FCST BY 081800Z
CYYL,TAF CYYL 081240Z 0813/0901 VRB03KT P6SM SKC BECMG 0814/0816 32012G22KT RMK FCST BASED ON AUTO OBS. NXT FCST BY 081900Z
CYYN,TAF CYYN 081140Z 0812/0824 VRB03KT P6SM SKC FM081800 06012KT P6SM SCT080 TEMPO 0818/0824 BKN080 RMK FCST BASED ON AUTO OBS. NXT FCST BY 081800Z
CYYQ,TAF CYYQ 081140Z 0812/0912 22008KT P6SM FEW080 FM081500 28010KT P6SM SCT080 BECMG 0818/0820 32015KT FM082200 29020G30KT P6SM SKC FM090600 32018G28KT P6SM SCT020 RMK NXT FCST BY 081800Z
CYYR,TAF CYYR 081140Z 0812/0918 04018G28KT P6SM -RA OVC008 TEMPO 0812/0817 P6SM NSW SCT008 OVC015 FM081700 05015G25KT P6SM SCT008 OVC015 FM082000 05010G20KT P6SM SCT015 OVC025 FM090200 04008KT P6SM FEW008 OVC015 FM091600 06008KT P6SM OVC020 RMK NXT FCST BY 081800Z
CYYT,TAF CYYT 081140Z 0812/0912 26005KT 1SM BR OVC003 TEMPO 0812/0814 6SM BR SCT003 OVC010 FM081400 28010KT P6SM SCT010 FM081600 24006KT P6SM -SHRA BKN030 BECMG 0816/0818 20010KT FM082100 21010KT P6SM FEW007 OVC020 FM090300 26005KT 2SM BR BKN004 OVC015 FM090500 11005KT 1/2SM -DZ FG VV002 RMK NXT FCST BY 081800Z
CYYU,TAF CYYU 080740Z 0808/0820 35007KT P6SM FEW090 TEMPO 0813/0816 6SM FU FM081600 36010KT P6SM BKN050 TEMPO 0816/0820 4SM FU RMK NXT FCST BY 081400Z
CYYY,TAF AMD CYYY 081239Z 0812/0820 06015G25KT 3/4SM -RA BR VV002 TEMPO 0812/0814 6SM -RA BR SCT002 OVC012 FM081400 06015G30KT 2SM -RA -DZ BR OVC005 TEMPO 0814/0820 6SM -RA BR FEW005 OVC012 RMK NXT FCST BY 081400Z
CYYZ,TAF CYYZ 081140Z 0812/0918 35008KT P6SM OVC070 TEMPO 0812/0814 3SM FU FM081400 01010KT 6SM FU OVC030 TEMPO 0814/0817 1 1/2SM FU FM081700 03008KT 5SM -SHRA FU OVC040 TEMPO 0817/0824 2SM FU FM090000 36008KT 2SM FU BKN050 FM090600 33008KT 5SM FU BKN050 FM091300 36012KT 3SM -SHRA FU OVC040 PROB30 0913/0918 1SM FU RMK NXT FCST BY 081500Z
CYZE,TAF CYZE 080940Z 0810/0822 01007KT 6SM FU BKN080 TEMPO 0810/0818 2SM FU FM081800 30008KT P6SM BKN080 TEMPO 0818/0822 4SM FU PROB30 0818/0822 2SM FU RMK FCST BASED ON AUTO OBS. NXT FCST BY 081400Z
CYZF,TAF CYZF 081140Z 0812/0912 31010KT P6SM FEW080 SCT120 TEMPO 0812/0815 P6SM -SHRA BKN020 OVC040 PROB30 0812/0813 2SM BR FM081500 32008KT P6SM BKN040 FM090000 20008KT P6SM SCT050 RMK NXT FCST BY 081800Z
CYZH,TAF CYZH 081240Z 0813/0901 VRB03KT P6SM SKC TEMPO 0813/0901 5SM FU SCT130 BECMG 0814/0816 10008KT RMK FCST BASED ON AUTO OBS. NXT FCST BY 081900Z
CYZP,TAF CYZP 081240Z 0813/0901 VRB03KT P6SM SCT030 BKN160 FM081500 VRB03KT P6SM BKN120 BECMG 0815/0817 14008KT SCT020 BKN110 FM082100 13010KT P6SM BKN080 RMK FCST BASED ON AUTO OBS. NXT FCST BY 081900Z
CYZR,TAF CYZR 080740Z 0808/0820 36007KT P6SM BKN070 BECMG 0811/0813 36012KT FM081800 36013KT P6SM SCT080 RMK FCST BASED ON AUTO OBS. NXT FCST BY 081400Z
CYZT,TAF CYZT 081240Z 0813/0901 25006KT P6SM SKC TEMPO 0813/0817 1SM BR VV015 FM081700 04008KT P6SM SKC BECMG 0822/0824 34010KT SCT030 RMK NXT FCST BY 081900Z
CYZV,TAF CYZV 081153Z 0812/0912 04012KT 4SM -RA SCT009 BKN020 OVC040 TEMPO 0812/0815 P6SM -SHRA SCT020 OVC040 PROB30 0812/0815 BKN009 OVC025 FM081500 08012KT 6SM -SHRA BR FEW008 OVC020 TEMPO 0815/0818 2SM -SHRA BR OVC008 PROB30 0815/0818 2SM RA BR OVC005 FM081800 10012KT 2SM -RA BR BKN005 OVC008 FM090000 10005KT 1SM -RA BR OVC003 RMK NXT FCST BY 081800Z
CYZX,TAF AMD CYZX 081203Z 0812/0912 VRB03KT P6SM SCT008 BKN020 TEMPO 0812/0815 FEW008 BKN025 FM081500 VRB03KT P6SM -SHRA BKN025 OVC050 FM081900 VRB03KT P6SM -SHRA OVC020 FM090200 VRB03KT P6SM BKN030 FM090600 VRB03KT 6SM BR BKN010 PROB40 0906/0910 2SM BR OVC006 RMK NXT FCST BY 081800Z
CZBF,TAF AMD CZBF 081137Z 0811/0821 05007KT 1 1/2SM -RA -DZ BR OVC002 TEMPO 0811/0814 6SM BR OVC004 FM081400 05010G20KT 2SM -RA -DZ BR OVC004 TEMPO 0814/0821 P6SM NSW SCT004 OVC008 RMK FCST BASED ON AUTO OBS. NXT FCST BY 081400Z
CZMD,TAF AMD CZMD 081210Z 0812/0822 22009KT P6SM SCT060 BKN120 TEMPO 0812/0820 3SM -SHRA BR FM082000 26007KT P6SM BKN050 PROB30 0820/0822 4SM TSRA BR BKN020 OVC040CB RMK FCST BASED ON AUTO OBS. NXT FCST BY 081600Z
CZSJ,TAF CZSJ 080940Z 0810/0822 24005KT P6SM SCT060 TEMPO 0810/0820 P6SM -SHRA BKN060 FM082000 19005KT P6SM BKN050 PROB30 0820/0822 4SM TSRA BR BKN020 BKN050CB RMK FCST BASED ON AUTO OBS. NXT FCST BY 081600Z
CZUM,TAF CZUM 080740Z 0808/0820 07012KT 5SM BR OVC007 TEMPO 0808/0812 P6SM NSW SCT007 OVC012 FM081200 06012G22KT P6SM SCT007 OVC015 TEMPO 0812/0820 6SM -RA -DZ BR BKN007 OVC015 RMK FCST BASED ON AUTO OBS. NXT FCST BY 081400Z
CZVL,TAF CZVL 081140Z 0812/0824 VRB03KT P6SM SCT120 TEMPO 0812/0815 5SM FU BECMG 0813/0815 08010KT FM081500 08010KT P6SM FEW080 BECMG 0816/0818 08015KT RMK FCST BASED ON AUTO OBS. NXT FCST BY 081800Z
DAAD,TAF DAAD 081100Z 0812/0821 19012KT 7000 FEW033 BKN200 PROB30 TEMPO 0814/0818 18015G30KT 3000 DRSA FEW030CB
DAAE,TAF DAAE 081100Z 0812/0912 08008KT 7000 NSC PROB40 0812/0821 FEW026TCU PROB30 TEMPO 0816/0824 5000 -TSRA FEW023CB PROB40 0900/0908 3000 BR BKN010
DAAG,TAF DAAG 081100Z 0812/0912 02010KT 8000 FEW026 SCT100 PROB40 TEMPO 0814/0820 02015G25KT FEW026CB BECMG 0818/0820 VRB02KT PROB30 TEMPO 0821/0908 -TSRA FEW023CB
DAAJ,TAF DAAJ 081100Z 0812/0912 12010KT 8000 NSC
DAAP,TAF DAAP 081100Z 0812/0821 12010KT CAVOK
DAAS,TAF DAAS 081100Z 0812/0912 23008KT 8000 FEW026 SCT100 PROB40 0814/0821 FEW026TCU PROB30 TEMPO 0818/0824 20015G25KT 5000 -TSRA FEW026CB
DAAT,TAF DAAT 081100Z 0812/0912 14010KT CAVOK BECMG 0820/0822 VRB02KT BECMG 0908/0910 22010KT
DAAV,TAF DAAV 081100Z 0812/0912 33008KT 9999 FEW023 SCT200 PROB40 0812/0821 FEW026TCU PROB30 TEMPO 0816/0824 5000 -TSRA FEW023CB PROB40 0900/0908 3000 BR BKN010
DAAY,TAF DAAY 081100Z 0812/0821 18025KT 3000 DRSA FEW030 SCT100 PROB40 TEMPO 0812/0818 1500 DRSA FEW030CB BKN100 BECMG 0819/0821 02020KT 5000 DRSA FEW026CB SCT233
DABB,TAF DABB 081100Z 0812/0912 04009KT 9999 FEW023 PROB40 0812/0821 FEW026TCU PROB30 TEMPO 0816/0824 5000 -TSRA FEW023CB PROB40 0900/0908 3000 BR BKN010
DABC,TAF DABC 081100Z 0812/0912 28012KT CAVOK PROB40 0815/0821 FEW026TCU PROB30 TEMPO 0818/0824 5000 -TSRA FEW023CB BECMG 0817/0820 VRB02KT BECMG 0910/0912 36010KT
DABS,TAF DABS 081100Z 0812/0912 30011KT 9999 FEW033 SCT100 PROB40 0812/0821 FEW030TCU PROB30 TEMPO 0818/0824 5000 -TSRA FEW026CB BECMG 0817/0820 VRB02KT BECMG 0910/0912 23013KT
DABT,TAF DABT 081100Z 0812/0912 27012KT 9999 SCT023 PROB40 0812/0821 23015G25KT FEW026TCU PROB30 TEMPO 0818/0824 20015G25KT 5000 -TSRA FEW026CB BECMG 0819/0822 VRB02KT BECMG 0910/0912 23010KT
DAFH,TAF DAFH 081100Z 0812/0821 17012KT CAVOK PROB40 TEMPO 0812/0816 18015G25KT 4000 DRSA
DAOB,TAF COR DAOB 081100Z 0812/0912 20016KT 2000 DRDU FEW030 SCT100 BECMG 0813/0815 2000 DRDU FEW030CB SCT100 TEMPO 0818/0821 30010KT 6000 TSRA SCT020 FEW030CB SCT100 BECMG 0822/0901 8000 FEW020 SCT100 PROB40 TEMPO 0902/0907 4000 BR DZ BKN010 SCT026 SCT100 BECMG 0908/0910 8000 FEW020
DAOF,TAF DAOF 081100Z 0812/0821 28018KT 9999 FEW046
DAOI,TAF DAOI 081100Z 0812/0912 02010KT 8000 NSC PROB30 TEMPO 0814/0818 FEW026CB BECMG 0818/0820 24008KT PROB30 TEMPO 0820/0904 TSRA FEW023CB
DAON,TAF COR DAON 081100Z 0812/0912 31008KT 8000 FEW026 BECMG 0813/0815 9999 SCT023 FEW026CB PROB40 TEMPO 0818/0903 VRB02KT 8000 RA BKN026 BKN100 BECMG 0904/0907 9999 SCT023 SCT100
DAOO,TAF COR DAOO 081100Z 0812/0912 04010KT 9999 SCT020 FEW026CB SCT100 BECMG 0813/0815 34012KT9999 SCT020 FEW026 PROB40 TEMPO 0817/0903 VRB02KT 8000 RA SCT026 BKN100 BECMG 0901/0903 BECMG 0904/0907 24010KT 8000 SCT020 FEW026 SCT100
DAOR,TAF DAOR 081100Z 0812/0821 20015KT 9999 FEW033 PROB40 TEMPO 0812/0817 22015G30KT 3000 DRDU FEW033CB
DAOV,TAF DAOV 081100Z 0812/0821 36008KT 6000 NSC PROB40 TEMPO 0812/0815 3000 HZ FEW026CB SCT100 TEMPO 0816/0821 6000 TSRA BKN020 FEW026CB SCT100
DATM,TAF DATM 081100Z 0812/0821 06008KT CAVOK
DAUA,TAF DAUA 081100Z 0812/0912 20010KT CAVOK
DAUB,TAF DAUB 081100Z 0812/0912 14008KT CAVOK PROB30 TEMPO 0814/0824 12015G25KT FEW030TCU
DAUG,TAF DAUG 081100Z 0812/0912 18012KT 8000 NSC PROB40 0812/0816 16022KT 4000 DRSA PROB40 TEMPO 0908/0911 20022KT 3000 DRSA
DAUH,TAF DAUH 081100Z 0812/0912 14010KT 6000 NSC PROB40 TEMPO 0812/0815 14015G25KT 4000 DRSA PROB30 TEMPO 0908/0911 16022KT 4000 DRSA
DAUI,TAF DAUI 081100Z 0812/0912 08020KT 8000 NSC PROB40 0812/0814 3000 DRSA BECMG 0814/0816 08012KT
DAUK,TAF DAUK 081100Z 0812/0821 16006KT CAVOK
DAUL,TAF DAUL 081100Z 0812/0821 22014KT 8000 SCT040 SCT100 PROB40 TEMPO 0812/0816 20015G30KT 4000 DRSA FEW026CB
DAUO,TAF DAUO 081100Z 0812/0821 18008KT CAVOK
DAUT,TAF DAUT 081100Z 0812/0821 22012KT CAVOK
DAUU,TAF DAUU 081100Z 0812/0821 16010KT 8000 NSC
DAUZ,TAF DAUZ 081100Z 0812/0912 12014KT 8000 NSC PROB30 TEMPO 0812/0814 12015G25KT 4000 DRSA
DBBB,TAF DBBB 081100Z 0812/0918 22010KT 9999 SCT012 PROB30 0813/0819 TS BKN012 FEW023CB TEMPO 0904/0910 VRB02KT 4000 TSRA BKN010 FEW023CB
DFFD,TAF DFFD 081100Z 0812/0918 22010KT 9999 FEW026 PROB40 TEMPO 0817/0824 08025G40KT 4000 BLSA SQ TSRA SCT026 FEW036CB
DFOO,TAF DFOO 081100Z 0812/0912 20008KT 9999 FEW023 PROB40 TEMPO 0817/0902 10025G35KT 3500 BLSA SQ TSRA SCT023 SCT033CB
DGAA,TAF DGAA 081100Z 0812/0918 17010KT 9999 SCT020 TEMPO 0812/0818 8000 -RA BKN020 BECMG 0900/0902 27008KT FEW015
DGLE,TAF DGLE 081100Z 0812/0912 18010KT 9999 SCT017
DGSI,TAF DGSI 081100Z 0812/0912 20012KT 9999 BKN012 TEMPO 0814/0818 8000 -RA BECMG 0819/0821 SCT015
DIAP,TAF DIAP 081119Z 0812/0918 20012KT 9999 SCT012 PROB30 TEMPO 0814/0820 TS BKN012 FEW020CB TEMPO 0914/0918 TS BKN012 FEW020CB
DIBK,TAF DIBK 081119Z 0812/0912 20010KT 9999 SCT013 TEMPO 0812/0818 BKN013 PROB30 TEMPO 0818/0824 TS BKN013 FEW030CB TEMPO 0907/0909 4000 BR BKN013
DIYO,TAF DIYO 081119Z 0812/0912 22010KT 9999 SCT013 TEMPO 0812/0817 BKN013 PROB30 TEMPO 0817/0823 TS BKN013 FEW025CB TEMPO 0907/0912 BKN013
DNAA,TAF DNAA 072300Z 0800/0906 VRB02KT 9999 FEW009 TEMPO 0804/0808 5000 BR BKN007 BECMG 0808/0810 TEMPO 0817/0820 TS SCT012 FEW020CB BECMG 0820/0822 VRB02KT FEW008
DNAK,TAF DNAK 081100Z 0812/0918 24010KT 9999 BKN013 BECMG 0818/0820 VRB02KT SCT011 BECMG 0909/0911 22010KT BKN013 TEMPO 0912/0917 TS SCT013 FEW020CB
DNBE,TAF DNBE 081100Z 0812/0918 20010KT 9999 BKN012 TEMPO 0812/0817 SCT012 FEW020CB BECMG 0817/0819 VRB02KT SCT010 TEMPO 0818/0824 TS SCT010 FEW020CB BECMG 0908/0910 21010KT BKN012 FEW020CB TEMPO 0910/0915 5000 -TSRA BKN008 FEW019CB
DNGO,TAF DNGO 081100Z 0812/0918 20010KT 9999 SCT014
DNIB,TAF DNIB 081100Z 0812/0918 25010KT 9999 SCT011 BECMG 0818/0820 VRB02KT TEMPO 0819/0824 TS SCT011 FEW020CB BECMG 0909/0911 24010KT BKN013 TEMPO 0911/0916 TS SCT013 FEW020CB
DNIL,TAF DNIL 072300Z 0800/0906 18009KT 9999 TS FEW008 FEW017CB BECMG 0801/0803 VRB02KT NSW PROB30 TEMPO 0805/0808 5000 BR BKN007 BECMG 0809/0811 21010KT BKN010 PROB30 TEMPO 0816/0820 TS SCT011 FEW020CB BECMG 0820/0822 VRB02KT FEW008
DNJO,TAF DNJO 072300Z 0800/0906 25013KT CAVOK PROB30 TEMPO 0804/0808 VRB02KT 5000 BR BKN004 BECMG 0809/0811 BKN010 TEMPO 0814/0819 TS SCT010 FEW018CB BECMG 0819/0821 11005KT FEW008
DNKA,TAF DNKA 072300Z 0800/0906 VRB02KT 9999 FEW009 BECMG 0809/0811 25010KT BKN012 PROB30 TEMPO 0816/0820 TS FEW020CB BECMG 0820/0822 17005KT FEW009
DNKN,TAF DNKN 081100Z 0812/0918 23010KT CAVOK
DNKT,TAF DNKT 081100Z 0812/0918 22012KT 9999 FEW013
DNMA,TAF DNMA 081100Z 0812/0918 21010KT CAVOK TEMPO 0814/0820 TS SCT013 FEW020CB
DNMM,TAF DNMM 081100Z 0812/0918 23010KT 9999 SCT012 BECMG 0817/0819 VRB02KT TEMPO 0818/0824 TS SCT012 FEW020CB BECMG 0908/09140 22010KT BKN013 FEW020CB TEMPO 0910/0915 5000 -TSRA BKN009 FEW019CB
DNSO,TAF DNSO 081100Z 0812/0918 20010KT 9999 SCT015 TEMPO 0815/0820 TS FEW020CB
DNSU,TAF DNSU 081100Z 0812/0918 22010KT 9999 BKN012 FEW020CB BECMG 0816/0818 VRB02KT SCT010 TEMPO 0818/0824 TS SCT010 FEW020CB BECMG 0908/0910 20010KT BKN012 FEW020CB TEMPO 0910/0915 5000 -TSRA BKN008 FEW018CB
DNYO,TAF DNYO 081100Z 0812/0918 24010KT FEW013 TEMPO 0815/0821 5000 -TSRA BKN010 FEW018CB
DRRN,TAF DRRN 081100Z 0812/0918 24010KT CAVOK PROB30 TEMPO 0815/0819 TS SCT033 FEW040CB
DRZA,TAF DRZA 081100Z 0812/0912 26010KT 8000 NSC
DRZR,TAF DRZR 081100Z 0812/0912 22010KT CAVOK PROB40 TEMPO 0814/0819 VRB30KT 1200 BLDU TSRA SCT030 FEW040CB
DTKA,TAF DTKA 081200Z 0813/0822 01010KT 9999 FEW020 BECMG 0819/0821 VRB03KT
DTMB,TAF DTMB 081100Z 0812/0912 16004KT 9999 SCT033 BECMG 0813/0815 14014KT PROB30 TEMPO 0815/0822 TSRA FEW030CB BECMG 0822/0824 18004KT BECMG 0910/0912 11015KT
DTNH,TAF DTNH 081100Z 0812/0912 18008KT 9999 SCT033 BECMG 0813/0815 12014KT PROB30 TEMPO 0815/0822 TSRA FEW030CB BECMG 0822/0824 VRB02KT BECMG 0910/0912 12012KT
DTTA,TAF DTTA 081100Z 0812/0912 18006KT 9999 SCT023 BECMG 0812/0814 12012KT PROB30 TEMPO 0812/0820 -TSRA FEW030CB BECMG 0822/0824 18004KT BECMG 0910/0912 08010KT
DTTB,TAF DTTB 081200Z 0813/0822 12005KT 9999 FEW020 PROB30 TEMPO 0817/0819 10014KT
DTTF,TAF DTTF 081200Z 0813/0822 22010KT 9999 SCT033
DTTG,TAF DTTG 081200Z 0813/0822 VRB03KT 9999 FEW030 PROB40 TEMPO 0817/0819 10013KT
DTTJ,TAF DTTJ 081100Z 0812/0912 15010KT 9999 FEW030 PROB30 TEMPO 0814/0821 10020KT BECMG 0910/0912 09013KT
DTTR,TAF DTTR 081200Z 0813/0822 16007KT CAVOK BECMG 0816/0818 VRB03KT
DTTX,TAF DTTX 081100Z 0812/0912 15010KT 9999 FEW020 SCT030 BECMG 0903/0905 09004KT
DTTZ,TAF DTTZ 081100Z 0812/0912 16007KT CAVOK BECMG 0822/0824 10010KT
DXNG,TAF DXNG 081100Z 0812/0912 VRB05KT 9999 SCT007 PROB30 TEMPO 0816/0820 TS BKN006 FEW016CB
DXXX,TAF DXXX 081100Z 0812/0918 20010KT 9999 FEW012 PROB30 TEMPO 0815/0819 TS BECMG 0822/0824 26005KT BECMG 0908/0910 20010KT PROB30 TEMPO 0912/0918 4000 TSRA BKN010 FEW020CB
EBAW,TAF EBAW 081101Z 0812/0821 05008KT CAVOK 
EBBE,TAF EBBE 081141Z 0813/0822 05007KT 9999 FEW065 PROB40 TEMPO 0813/0818 07010G20KT 7000 -SHRA SCT055TCU SCT160 BECMG 0820/0822 08005KT SKC
EBBL,TAF EBBL 081141Z 0813/0822 06009KT 9999 FEW050 SCT200 PROB30 TEMPO 0813/0819 06010G20KT 6000 -SHRA SCT045TCU SCT120
EBBR,TAF EBBR 081108Z 0812/0918 05006KT CAVOK 
EBCI,TAF EBCI 081108Z 0812/0918 05007KT CAVOK PROB30 TEMPO 0813/0817 VRB15G25KT 4000 SHRA TSRA 
EBCV,TAF EBCV 081141Z 0813/0822 03008KT 9999 SCT200 PROB30 TEMPO 0813/0817 05010KT 7000 -SHRA BKN030TCU BY EBWM
EBFN,TAF EBFN 081141Z 0813/0822 03015KT 9999 SKC TEMPO 0813/0818 03015G25KT FEW050
EBFS,TAF EBFS 081155Z 0813/0822 06007KT 9999 FEW035 TEMPO 0816/0819 06010G20KT 6000 -SHRA SCT025TCU
EBLG,TAF EBLG 081108Z 0812/0918 05007KT CAVOK PROB40 TEMPO 0812/0817 VRB15G25KT 4000 SHRA TSRA
EBOS,TAF EBOS 081108Z 0812/0918 03016G27KT CAVOK BECMG 0820/0822 06007KT BECMG 0910/0912 04015G25KT 
EDAC,TAF EDAC 081100Z 0812/0821 33005KT CAVOK BECMG 0812/0814 03005KT PROB40 TEMPO 0812/0818 TSRA SCT050CB
EDAH,TAF EDAH 081100Z 0812/0821 04008KT CAVOK BECMG 0817/0819 04003KT
EDBC,TAF EDBC 081100Z 0812/0821 33005KT CAVOK BECMG 0812/0814 06005KT PROB30 TEMPO 0812/0818 TSRA SCT050CB BECMG 0817/0820 36005KT
EDDB,TAF EDDB 081100Z 0812/0912 04007KT CAVOK PROB30 TEMPO 0813/0817 TSRA SCT060CB
EDDC,TAF EDDC 081100Z 0812/0912 08006KT CAVOK PROB30 TEMPO 0812/0817 4500 TSRA SCT045CB
EDDE,TAF EDDE 081100Z 0812/0912 03005KT CAVOK BECMG 0812/0814 09005KT PROB40 TEMPO 0812/0818 TSRA SCT060CB BECMG 0818/0821 03003KT
EDDF,TAF EDDF 081100Z 0812/0918 04008KT CAVOK TEMPO 0812/0819 SHRA SCT050CB PROB40 TEMPO 0814/0817 08015G30KT TSRAGR BKN045CB
EDDG,TAF EDDG 081100Z 0812/0912 03007KT CAVOK PROB30 TEMPO 0814/0818 03014KT 4000 TSRA BKN040CB BECMG 0821/0824 VRB03KT BECMG 0906/0908 07008KT
EDDH,TAF EDDH 081100Z 0812/0918 31005KT CAVOK BECMG 0819/0821 03003KT BECMG 0907/0909 06008KT PROB40 TEMPO 0915/0918 05013KT
EDDK,TAF EDDK 081100Z 0812/0918 06006KT 9999 SCT045 PROB40 TEMPO 0812/0820 08015G25KT 3000 +TSRA BKN025CB BECMG 0823/0902 12003KT BECMG 0909/0912 11008KT
EDDL,TAF EDDL 081100Z 0812/0918 04010KT CAVOK PROB30 TEMPO 0813/0818 05015G25KT 4000 +TSRA BKN030CB BECMG 0818/0821 03005KT BECMG 0908/0910 07010KT
EDDM,TAF COR EDDM 081118Z 0812/0918 06007KT CAVOK PROB30 TEMPO 0816/0819 32015G30KT TSRA SCT040CB BECMG 0818/0820 VRB02KT PROB40 TEMPO 0902/0905 2000 BCFG BECMG 0907/0909 06007KT
EDDN,TAF EDDN 081100Z 0812/0912 06007KT CAVOK PROB40 TEMPO 0812/0818 05015G30KT 4000 TSRA BKN040CB BECMG 0818/0820 VRB02KT BECMG 0908/0910 07007KT
EDDP,TAF EDDP 081100Z 0812/0912 34008KT CAVOK BECMG 0812/0814 07008KT PROB40 TEMPO 0812/0818 SHRA SCT060CB PROB30 TEMPO 0812/0816 TSRA BECMG 0816/0819 35005KT
EDDR,TAF EDDR 081100Z 0812/0912 07007KT CAVOK TEMPO 0812/0819 SHRA SCT050CB PROB30 TEMPO 0813/0817 08015G30KT TSRAGR BKN045CB
EDDS,TAF EDDS 081100Z 0812/0912 04005KT CAVOK TEMPO 0812/0819 SHRA SCT050CB PROB40 TEMPO 0813/0818 08015G30KT TSRAGR BKN045CB BECMG 0817/0819 VRB02KT BECMG 0909/0911 07007KT
EDDV,TAF EDDV 081100Z 0812/0912 VRB03KT CAVOK BECMG 0813/0815 04005KT PROB40 TEMPO 0814/0818 SHRA BKN040CB BECMG 0819/0821 VRB03KT BECMG 0907/0909 07007KT
EDDW,TAF EDDW 081100Z 0812/0912 36008KT CAVOK PROB30 TEMPO 0816/0818 TSRA BKN040CB BECMG 0820/0822 01003KT BECMG 0907/0909 06008KT
EDFH,TAF EDFH 081100Z 0812/0912 09007KT CAVOK TEMPO 0812/0819 SHRA BKN040CB PROB40 TEMPO 0813/0817 10015G30KT TSRAGR BKN030CB
EDFM,TAF EDFM 081100Z 0812/0821 04005KT CAVOK TEMPO 0812/0819 SHRA SCT050CB PROB30 TEMPO 0813/0817 08015G30KT TSRA BKN050CB
EDGS,TAF EDGS 081100Z 0812/0821 08010KT 9999 SCT040 PROB40 TEMPO 0812/0818 09015G30KT 3000 +TSRA SCT010 BKN020CB
EDHI,TAF EDHI 081100Z 0812/0821 31005KT CAVOK BECMG 0819/0821 03003KT
EDHK,TAF EDHK 081100Z 0812/0819 VRB03KT CAVOK BECMG 0812/0814 04005KT
EDHL,TAF EDHL 081100Z 0812/0821 32004KT CAVOK BECMG 0814/0816 04006KT BECMG 0819/0821 VRB03KT
EDJA,TAF EDJA 081100Z 0812/0821 05005KT 9999 FEW050 PROB30 TEMPO 0814/0819 30020G35KT 3000 TSRA SCT045CB
EDLN,TAF EDLN 081100Z 0812/0821 03007KT CAVOK PROB30 TEMPO 0813/0818 08015G25KT 4000 +TSRA BKN040CB
EDLP,TAF EDLP 081100Z 0812/0912 08009KT CAVOK TEMPO 0813/0820 SHRA BKN040CB PROB30 TEMPO 0814/0819 08015G25KT 4000 TSRA BECMG 0819/0822 VRB03KT BECMG 0906/0908 08008KT
EDLV,TAF EDLV 081100Z 0812/0912 04006KT CAVOK PROB30 TEMPO 0815/0819 TSRA BKN040CB
EDLW,TAF EDLW 081100Z 0812/0912 07008KT CAVOK PROB30 TEMPO 0813/0819 08015G25KT 3000 +TSRA BKN040CB BECMG 0819/0822 06003KT BECMG 0906/0908 07008KT
EDMA,TAF EDMA 081100Z 0812/0821 06004KT 9999 FEW045 PROB30 TEMPO 0814/0818 30020G30KT 3000 TSRA SCT040CB
EDNY,TAF EDNY 081100Z 0812/0912 22005KT CAVOK PROB30 TEMPO 0815/0818 32015G30KT TSRA BKN050CB BECMG 0816/0818 04004KT BECMG 0910/0912 04009KT
EDQM,TAF EDQM 081100Z 0812/0821 04007KT 9999 FEW020 PROB40 TEMPO 0812/0817 05020G35KT 3000 TSRA FEW010 BKN020CB BECMG 0819/0821 VRB03KT
EDSB,TAF EDSB 081100Z 0812/0912 02006KT CAVOK TEMPO 0812/0819 SHRA SCT050CB PROB30 TEMPO 0813/0817 08015G30KT TSRA BKN050CB
EDTL,TAF EDTL 081100Z 0812/0821 01005KT CAVOK TEMPO 0812/0819 SHRA SCT045CB PROB30 TEMPO 0813/0817 02015G30KT TSRA BKN030CB
EDTY,TAF EDTY 081100Z 0812/0821 05005KT 9999 FEW035 PROB40 TEMPO 0812/0817 07020G35KT 3000 TSRA SCT035CB
EDVE,TAF EDVE 081100Z 0812/0821 VRB03KT CAVOK BECMG 0813/0815 03006KT PROB30 TEMPO 0814/0818 SHRA BKN040CB
EDVK,TAF EDVK 081100Z 0812/0821 07008KT CAVOK TEMPO 0812/0818 SHRA SCT030CB PROB30 TEMPO 0813/0817 08015G30KT TSRA BKN020CB
EDWE,TAF EDWE 081242Z 0812/0821 02011KT CAVOK BECMG 0818/0820 01006KT
EDXW,TAF EDXW 081100Z 0812/0821 34015KT CAVOK
EEEI,TAF EEEI 081130Z 0812/0912 32010KT 9999 FEW040 BECMG 0819/0821 02005KT
EEKA,TAF EEKA 081200Z 0813/0819 35010KT 9999 SCT045 PROB30 TEMPO 0815/0818 SCT020 FEW025CB
EEPU,TAF EEPU 080900Z 0810/0816 24009KT CAVOK
EETN,TAF EETN 081130Z 0812/0912 33010KT 9999 SCT045 TEMPO 0817/0820 5000 SHRA SCT020CB BKN035
EFHA,TAF EFHA 081131Z 0812/0815 29008KT 9999 SCT007 BKN014 TEMPO 0812/0813 BKN007 BECMG 0813/0815 BKN020
EFHK,TAF AMD EFHK 081250Z 0812/0912 33009KT CAVOK TEMPO 0812/0814 32015G25KT SHRA FEW040CB PROB40 TEMPO 0814/0817 7000 -SHRA FEW030CB
EFJO,TAF EFJO 081133Z 0812/0818 27006KT 9999 -RA BKN030 TEMPO 0812/0818 FEW040CB PROB40 0812/0818 7000 SHRA
EFJY,TAF EFJY 081136Z 0812/0912 23006KT 9999 -RA BKN008 TEMPO 0812/0816 7000 SHRA FEW008 SCT030CB BECMG 0813/0815 32010KT BECMG 0816/0818 CAVOK
EFKE,TAF EFKE 081137Z 0812/0821 36012KT 9999 BKN025 TEMPO 0812/0815 01016G26KT SHRA SCT030CB
EFKI,TAF EFKI 081137Z 0812/0818 31003KT 9999 -SHRA FEW008 BKN035 TEMPO 0812/0814 7000 SHRA BKN009 SCT035CB BECMG 0814/0816 33013KT TEMPO 0814/0816 SHRA SCT030CB TEMPO 0816/0818 35015G25KT SHRA SCT035CB
EFKK,TAF EFKK 081137Z 0812/0821 32009KT 9999 FEW045
EFKT,TAF EFKT 081137Z 0812/0815 35013KT 9999 BKN040 TEMPO 0812/0815 36015G25KT
EFKU,TAF EFKU 081133Z 0812/0912 24008KT 9999 -RA FEW012 BKN045 TEMPO 0812/0813 7000 SHRA BKN009 SCT030CB TEMPO 0813/0817 7000 SHRA SCT030CB PROB30 TEMPO 0813/0817 TS BECMG 0814/0817 31010KT PROB30 0820/0823 FEW020CB
EFMA,TAF EFMA 081131Z 0812/0821 02012KT CAVOK
EFOU,TAF EFOU 081137Z 0812/0912 32012KT 9999 FEW025 TEMPO 0812/0817 33017G27KT SHRA SCT030CB
EFPO,TAF EFPO 081131Z 0812/0821 31016KT CAVOK PROB40 TEMPO 0812/0816 31016G26KT BECMG 0819/0821 33006KT
EFRO,TAF EFRO 081137Z 0812/0912 01013KT 9999 SCT030 TEMPO 0812/0813 02018G28KT SHRA SCT030CB
EFSA,TAF EFSA 081133Z 0812/0818 27008KT 9999 BKN040 PROB40 0813/0817 7000 SHRA FEW040CB
EFSI,TAF EFSI 081131Z 0812/0821 31014KT 9999 BKN043 BECMG 0819/0821 33004KT
EFTP,TAF EFTP 081136Z 0812/0912 31004KT 9999 SCT011 BKN035 PROB30 TEMPO 0812/0815 FEW030CB
EFTU,TAF EFTU 081131Z 0812/0912 31006KT 9999 -SHRA BKN007 SCT050CB BECMG 0812/0814 CAVOK
EFUT,TAF EFUT 081133Z 0812/0815 29006KT CAVOK TEMPO 0812/0815 FEW060CB PROB30 0812/0815 7000 -SHRA
EFVA,TAF EFVA 081137Z 0812/0912 32009KT 9999 SCT045
EGAA,TAF EGAA 081053Z 0812/0912 09009KT 9999 SCT025 PROB30 TEMPO 0822/0904 09015G25KT PROB30 TEMPO 0904/0908 BKN014
EGAC,TAF EGAC 081056Z 0812/0821 09009KT 9999 SCT030
EGAE,TAF EGAE 081056Z 0812/0821 10009KT 9999 SCT028
EGBB,TAF EGBB 081055Z 0812/0912 08009KT CAVOK TEMPO 0822/0908 BKN014 PROB30 TEMPO 0900/0905 BKN008
EGBJ,TAF EGBJ 081056Z 0812/0819 06009KT 9999 FEW040
EGCC,TAF EGCC 081054Z 0812/0918 10006KT 9999 FEW030 PROB30 TEMPO 0901/0906 BKN014
EGCK,TAF EGCK 081055Z 0812/0821 25008KT 9999 FEW030
EGDM,TAF EGDM 081027Z 0812/0818 07013KT CAVOK
EGDR,TAF EGDR 081038Z 0812/0821 08025G38KT 6000 HZ SCT010 PROB40 TEMPO 0812/0816 08028G43KT BECMG 0812/0814 9999 FEW010 TEMPO 0814/0821 6000 HZ
EGDY,TAF EGDY 081015Z 0812/0821 05010KT CAVOK
EGEC,TAF EGEC 081055Z 0812/0817 10014KT 9999 SCT025 BECMG 0812/0815 25006KT
EGEO,TAF EGEO 081055Z 0812/0817 30008KT 9999 FEW030
EGFF,TAF EGFF 081103Z 0812/0912 06013KT CAVOK PROB40 TEMPO 0822/0909 07016G26KT PROB30 0904/0908 BKN009
EGGD,TAF EGGD 081103Z 0812/0912 06014KT CAVOK TEMPO 0903/0908 BKN006
EGGP,TAF EGGP 081054Z 0812/0912 11008KT 9999 FEW030
EGGW,TAF EGGW 081104Z 0812/0912 05012KT CAVOK BECMG 0821/0824 BKN015 TEMPO 0900/0908 BKN010 PROB30 TEMPO 0902/0907 BKN004 BECMG 0908/0911 CAVOK
EGHC,TAF EGHC 081059Z 0812/0818 09022KT 9999 FEW040 TEMPO 0812/0817 10025G35KT PROB40 TEMPO 0812/0814 8000
EGHE,TAF EGHE 081059Z 0812/0818 10022KT 9999 FEW020 TEMPO 0812/0818 11025G35KT PROB40 TEMPO 0812/0815 8000
EGHH,TAF EGHH 081056Z 0812/0821 09009KT CAVOK
EGHI,TAF EGHI 081056Z 0812/0821 07009KT CAVOK
EGHQ,TAF EGHQ 081059Z 0812/0821 10015KT CAVOK TEMPO 0812/0818 11018G28KT PROB30 TEMPO 0818/0821 12018G28KT
EGJA,TAF EGJA 081105Z 0812/0821 08019KT 4000 BR BKN003 PROB40 TEMPO 0812/0821 08021G31KT BECMG 0812/0813 9999 FEW005
EGJB,TAF EGJB 081105Z 0812/0821 07017KT 9999 FEW006 PROB40 TEMPO 0812/0821 07018G28KT
EGJJ,TAF EGJJ 081105Z 0812/0821 08019KT CAVOK TEMPO 0812/0821 08020G30KT
EGKA,TAF EGKA 081058Z 0812/0819 02012KT 9999 FEW020
EGKB,TAF EGKB 081058Z 0812/0821 05010KT 9999 SCT025
EGKK,TAF EGKK 081055Z 0812/0918 04010KT 9999 FEW045 PROB40 TEMPO 0900/0908 BKN010
EGLC,TAF EGLC 081058Z 0812/0821 05008KT 9999 FEW020
EGLF,TAF EGLF 081058Z 0812/0821 06009KT 9999 FEW020
EGLL,TAF EGLL 081055Z 0812/0918 06012KT 9999 FEW045 TEMPO 0900/0908 BKN012
EGMC,TAF EGMC 081058Z 0812/0820 05009KT 9999 SCT025
EGMD,TAF EGMD 081058Z 0812/0821 03015KT 9999 FEW020
EGNH,TAF EGNH 081055Z 0812/0821 11010KT 9999 FEW030
EGNJ,TAF EGNJ 081055Z 0812/0821 06005KT 9999 BKN020 PROB40 TEMPO 0817/0821 BKN014
EGNM,TAF EGNM 081054Z 0812/0912 07008KT 9999 SCT020 PROB40 0821/0909 BKN008
EGNO,TAF EGNO 081055Z 0812/0818 11010KT 9999 FEW030
EGNR,TAF EGNR 081055Z 0812/0820 13009KT 9999 FEW025
EGNS,TAF EGNS 081057Z 0812/0821 08016KT 9999 FEW020
EGNT,TAF EGNT 081054Z 0812/0912 09005KT 9999 SCT020 PROB30 0820/0910 BKN010
EGNV,TAF EGNV 081055Z 0812/0821 10005KT 9999 SCT025 PROB30 TEMPO 0817/0821 BKN014
EGNX,TAF EGNX 081055Z 0812/0912 07011KT CAVOK TEMPO 0821/0909 BKN012 PROB30 TEMPO 0823/0906 BKN006
EGOS,TAF EGOS 081050Z 0812/0821 09012KT 9999 FEW030
EGOV,TAF EGOV 081034Z 0812/0821 32010KT 9999 FEW026
EGOW,TAF EGOW 081027Z 0812/0818 10010KT 9999 FEW028
EGPA,TAF EGPA 081054Z 0812/0821 07007KT 9999 SCT020
EGPB,TAF EGPB 081054Z 0812/0821 06010KT 9999 SCT025
EGPC,TAF EGPC 081054Z 0812/0821 09008KT 9999 FEW035
EGPD,TAF EGPD 081053Z 0812/0912 11008KT 9999 SCT030
EGPE,TAF EGPE 081054Z 0812/0821 05011KT 9999 FEW035
EGPF,TAF EGPF 081053Z 0812/0912 07009KT 9999 SCT020
EGPH,TAF EGPH 081053Z 0812/0912 07009KT 9999 SCT020 PROB30 TEMPO 0900/0906 BKN014
EGPI,TAF EGPI 081055Z 0812/0818 13012KT 9999 FEW040
EGPK,TAF EGPK 081053Z 0812/0912 07009KT 9999 SCT020 PROB30 TEMPO 0818/0821 08015G25KT
EGPL,TAF EGPL 081054Z 0812/0817 28008KT 9999 FEW035
EGPN,TAF EGPN 081055Z 0812/0821 09008KT 9999 FEW015 SCT030
EGPO,TAF EGPO 081054Z 0812/0821 12006KT 9999 FEW035 BECMG 0815/0818 04010KT
EGPU,TAF EGPU 081055Z 0812/0818 15012KT 9999 FEW040 BECMG 0813/0816 02009KT
EGQL,TAF EGQL 081037Z 0812/0821 08010KT 9999 BKN026 PROB40 TEMPO 0812/0819 BKN024 BECMG 0819/0821 BKN020 PROB40 TEMPO 0820/0821 SCT014
EGQS,TAF EGQS 081034Z 0812/0906 07016KT 9999 FEW030 BECMG 0818/0821 10008KT
EGSC,TAF EGSC 081055Z 0812/0815 03009KT 9999 FEW020
EGSH,TAF EGSH 081054Z 0812/0821 05008KT 9999 SCT020 PROB40 TEMPO 0818/0821 BKN014
EGSS,TAF EGSS 081104Z 0812/0918 05012KT CAVOK BECMG 0821/0824 BKN016 TEMPO 0822/0908 BKN012 PROB30 TEMPO 0902/0907 BKN005 BECMG 0908/0911 CAVOK
EGSY,TAF EGSY 081056Z 0812/0821 07015KT CAVOK PROB30 TEMPO 0820/0821 08018G28KT
EGTC,TAF EGTC 081055Z 0812/0818 04008KT 9999 FEW020
EGTE,TAF EGTE 081059Z 0812/0821 04009KT CAVOK BECMG 0812/0815 10012KT
EGTK,TAF EGTK 081055Z 0812/0821 05010KT 9999 FEW020
EGUB,TAF EGUB 081020Z 0812/0821 03010KT 9999 FEW045
EGUL,TAF EGUL 081255Z 0813/0919 05012KT 9999 FEW035 FEW080 QNH3005INS BECMG 0902/0903 05006KT 9999 SCT011 BKN018 BKN025 QNH3003INS BECMG 0907/0909 06015G20KT 9999 FEW018 SCT025 OVC040 QNH3002INS TX19/0815Z TN11/0905Z
EGUN,TAF EGUN 081200Z 0812/0918 06012G18KT 9999 SCT030 QNH3006INS BECMG 0818/0820 06010G15KT 9999 BKN030 QNH3006INS BECMG 0901/0902 06010KT 9999 BKN020 QNH3003INS BECMG 0907/0909 07010G20KT 9999 SCT020 QNH3000INS BECMG 0916/0917 07010G15KT 9999 SCT020 QNH2995INS TX21/0912Z TN10/0904Z
EGUW,TAF EGUW 081040Z 0812/0821 05013KT CAVOK BECMG 0819/0821 BKN008
EGVA,TAF EGVA 081200Z 0812/0918 05012G18KT 9999 FEW013 QNH2999INS BECMG 0818/0819 06012KT 9999 SCT013 BKN020 QNH2999INS BECMG 0901/0902 06009KT 9999 BKN008 OVC015 QNH3000INS BECMG 0906/0907 06015KT 9999 BKN008 OVC020 QNH2999INS BECMG 0909/0910 07012G20KT 9999 FEW020 QNH2997INS TX20/0815Z TN07/0904Z
EGVN,TAF EGVN 081044Z 0812/0912 06012KT 9999 FEW025 BECMG 0823/0902 BKN012 BECMG 0907/0910 FEW025
EGVO,TAF EGVO 081025Z 0812/0824 06014KT CAVOK
EGVP,TAF EGVP 081043Z 0812/0821 06012KT CAVOK
EGWU,TAF EGWU 081024Z 0812/0906 06010KT 9999 BKN020 PROB40 0900/0906 BKN012
EGXC,TAF EGXC 081050Z 0812/0906 07012KT 9999 SCT025 PROB30 TEMPO 0812/0817 SCT022 BECMG 0817/0820 BKN020 PROB30 TEMPO 0822/0906 BKN012
EGXE,TAF EGXE 081028Z 0812/0818 08006KT 9999 SCT030 BECMG 0812/0815 04010KT
EGXT,TAF EGXT 081027Z 0812/0818 05013KT 9999 BKN020 BECMG 0812/0813 FEW022
EGXW,TAF EGXW 081032Z 0812/0906 06013KT 9999 SCT022 BECMG 0812/0813 SCT025 PROB30 TEMPO 0813/0817 SCT022 BECMG 0817/0820 BKN020 PROB30 TEMPO 0820/0906 SCT012
EGYD,TAF EGYD 081025Z 0812/0818 07012KT 9999 BKN025
EGYE,TAF AMD EGYE 081232Z 0812/0818 07012KT 9999 SCT022 BECMG 0812/0814 SCT025
EGYM,TAF COR EGYM 081116Z 0812/0818 06010KT 9999 FEW030 PROB30 TEMPO 0817/0818 BKN020
EGYP,TAF EGYP 081010Z 0812/0906 30010KT 9999 FEW030 BECMG 0816/0818 -RA BKN007 TEMPO 0816/0821 5000 RADZ SCT006 BECMG 0819/0821 09018KT PROB40 TEMPO 0819/0821 2500 +RA RASN SCT004 BKN006 TEMPO 0821/0906 3700 RASN SCT005 PROB40 TEMPO 0821/0906 1600 +RASN -SN SCT003 BKN005 PROB30 TEMPO 0821/0824 10018G28KT BECMG 0900/0902 12022G32KT PROB40 TEMPO 0900/0906 12032G42KT
EHAM,TAF EHAM 081117Z 0812/0918 04011KT CAVOK BECMG 0904/0907 07010KT
EHBK,TAF EHBK 081126Z 0812/0918 05010KT CAVOK PROB30 TEMPO 0813/0818 06015G25KT 7000 SHRA TSRA FEW050CB BECMG 0814/0817 08008KT
EHEH,TAF EHEH 081105Z 0812/0918 05010KT CAVOK PROB40 TEMPO 0813/0819 06010G22KT 4000 SHRA TSRA SCT045CB BECMG 0909/0911 10010KT PROB40 TEMPO 0913/0918 SCT050CB
EHGG,TAF EHGG 081125Z 0812/0918 03011KT CAVOK BECMG 0904/0907 06008KT
EHGR,TAF EHGR 080824Z 0809/0821 03008KT CAVOK PROB30 TEMPO 0814/0819 SCT050CB
EHKD,TAF EHKD 080819Z 0809/0821 04015KT 9999 FEW014
EHLE,TAF EHLE 081117Z 0812/0918 04011KT CAVOK BECMG 0904/0907 07010KT
EHLW,TAF EHLW 080822Z 0809/0821 04013KT 9999 FEW016
EHRD,TAF EHRD 081117Z 0812/0918 04011KT CAVOK BECMG 0904/0907 07010KT
EHVK,TAF EHVK 080826Z 0809/0821 05008KT CAVOK PROB40 TEMPO 0813/0820 06010G22KT 4000 SHRA TSRA SCT045CB
EHWO,TAF EHWO 080823Z 0809/0821 05008KT CAVOK
EICK,TAF EICK 081100Z 0812/0912 09016KT 9999 FEW030 SCT050 TEMPO 0812/0818 09018G28KT PROB40 TEMPO 0905/0912 4000 SHRA BKN014
EIDL,TAF EIDL 081100Z 0812/0821 09014KT 9999 FEW040
EIDW,TAF EIDW 081100Z 0812/0912 08013KT 9999 SCT017 TEMPO 0812/0815 08015G25KT BKN014 BECMG 0818/0820 06006KT BECMG 0909/0911 09011KT
EIKN,TAF EIKN 081100Z 0812/0912 09012KT 9999 FEW020
EIKY,TAF EIKY 081100Z 0812/0821 10013KT CAVOK
EIME,TAF EIME 081100Z 0812/0821 08013KT 9999 BKN013 BECMG 0813/0815 SCT020
EINN,TAF EINN 081100Z 0812/0912 09011KT 9999 BKN050 BECMG 0819/0821 05007KT BECMG 0909/0911 10010KT
EISG,TAF EISG 081100Z 0812/0821 10010KT CAVOK
EIWF,TAF EIWF 081100Z 0812/0821 09014KT CAVOK PROB40 TEMPO 0812/0816 09015G25KT
EKAH,TAF EKAH 081100Z 0812/0912 VRB02KT CAVOK PROB40 0823/0906 0300 BCFG BKN002 BECMG 0903/0906 10012KT
EKBI,TAF EKBI 081100Z 0812/0912 30005KT CAVOK BECMG 0900/0902 0300 FG OVC002 TEMPO 0902/0906 6000 NSW SCT005 BECMG 0906/0908 9999 NSW SCT030
EKCH,TAF EKCH 081100Z 0812/0912 VRB02KT CAVOK BECMG 0903/0906 09015KT
EKEB,TAF EKEB 081101Z 0812/0821 33010KT CAVOK
EKGC,TAF EKGC 081101Z 0812/0821 35015KT 9999 BKN020
EKHD,TAF EKHD 081101Z 0812/0821 35015KT 9999 BKN020
EKKA,TAF EKKA 081114Z 0812/0912 25008KT 9999 FEW010 BECMG 0821/0823 VRB02KT BECMG 0823/0901 0100 FG BKN001 TEMPO 0901/0904 1500 BCFG MIFG SCT003 BECMG 0904/0906 09005KT 9999 NSW SCT006
EKOD,TAF EKOD 081134Z 0812/0816 27008KT CAVOK
EKRK,TAF EKRK 081101Z 0812/0821 VRB02KT CAVOK
EKRN,TAF EKRN 081109Z 0812/0821 24005KT 9999 FEW010
EKSB,TAF EKSB 081134Z 0812/0821 VRB02KT CAVOK
EKSP,TAF EKSP 081107Z 0812/0912 29006KT 9999 FEW010 PROB40 0819/0823 BKN010 BECMG 0823/0901 VRB02KT 0200 FG BKN002 TEMPO 0901/0904 2000 MIFG SCT002 BECMG 0904/0906 09006KT 9999 NSW SCT005
EKVD,TAF EKVD 081134Z 0812/0816 30008KT CAVOK
EKVG,TAF EKVG 081109Z 0812/0821 15006KT 9999 FEW015 BKN035 TEMPO 0812/0821 4000 -DZRA BKN008
EKYT,TAF EKYT 081114Z 0812/0912 24010KT 9999 FEW010 BECMG 0821/0823 VRB02KT BECMG 0823/0901 0100 FG BKN001 TEMPO 0901/0904 1500 BCFG MIFG SCT003 BECMG 0904/0906 09008KT 9999 NSW SCT006
ELLX,TAF ELLX 081100Z 0812/0918 05008KT 9999 FEW045TCU TEMPO 0812/0818 SHRA SCT035TCU PROB40 TEMPO 0812/0816 4000 TSRAGR FEW012 BKN030CB BECMG 0818/0820 CAVOK PROB30 TEMPO 0902/0907 3500 BR NSC
ENAL,TAF ENAL 081100Z 0812/0821 04018KT 9999 FEW235 TEMPO 0813/0818 04022G32KT
ENAN,TAF ENAN 081100Z 0812/0912 34009KT 9999 FEW015 BKN030 TEMPO 0812/0818 SCT025TCU
ENAT,TAF ENAT 081100Z 0812/0821 33012KT 9999 BKN035
ENBL,TAF ENBL 081100Z 0812/0821 03007KT CAVOK
ENBN,TAF ENBN 081100Z 0812/0821 35010KT 9999 FEW030
ENBO,TAF ENBO 081100Z 0812/0912 34010KT 9999 FEW030 SCT050 BECMG 0821/0823 10008KT BECMG 0907/0910 02012KT
ENBR,TAF ENBR 081100Z 0812/0912 32010KT CAVOK BECMG 0819/0821 VRB03KT BECMG 0906/0908 18010KT
ENBS,TAF ENBS 081100Z 0812/0821 33015KT 9999 -SHRA FEW008 BKN025 PROB40 TEMPO 0812/0821 SHRASN BKN012 FEW015TCU
ENBV,TAF ENBV 081100Z 0812/0821 33015KT 9999 -SHRA FEW008 BKN025 PROB40 TEMPO 0812/0821 SHRASN BKN012 FEW015TCU
ENCN,TAF ENCN 081100Z 0812/0821 07015KT CAVOK BECMG 0817/0819 03005KT
ENDU,TAF ENDU 081100Z 0812/0912 29008KT 9999 -SHRA FEW025 BKN035 TEMPO 0812/0818 FEW030TCU
ENEV,TAF ENEV 081100Z 0812/0912 35008KT 9999 FEW015 BKN035 TEMPO 0812/0818 FEW025TCU
ENFL,TAF ENFL 081100Z 0812/0821 36012KT CAVOK BECMG 0818/0820 VRB05KT
ENGC,TAF ENGC 081100Z 0812/0912 02028KT 9999 FEW015 SCT025 PROB30 0900/0912 BKN012 BECMG 0903/0906 02018KT BECMG 0909/0911 35005KT
ENGM,TAF ENGM 081100Z 0812/0912 02010KT CAVOK BECMG 0904/0906 18010KT
ENHD,TAF ENHD 081100Z 0812/0821 35015KT CAVOK BECMG 0819/0821 34005KT
ENHE,TAF ENHE 081100Z 0812/0821 35015KT 9999 FEW010 SCT020 PROB30 0815/0821 07015KT
ENHF,TAF COR ENHF 081100Z 0812/0821 28012KT 9999 -SHRA FEW015TCU BKN030
ENHK,TAF ENHK 081100Z 0812/0819 30015KT 9999 -SHRA FEW015TCU BKN030
ENHV,TAF ENHV 081100Z 0812/0821 33015KT 9999 -SHRA FEW012 BKN025
ENKB,TAF ENKB 081100Z 0812/0821 03015KT 9999 FEW025 SCT040
ENKR,TAF COR ENKR 081100Z 0812/0821 32012KT 9999 FEW020 BKN040 PROB40 TEMPO 0812/0818 30015G25KT
ENLE,TAF ENLE 081100Z 0812/0821 35015KT 9999 SCT020
ENMH,TAF ENMH 081100Z 0812/0821 33015KT 9999 -SHRA FEW008 BKN025 PROB40 TEMPO 0812/0821 SHRASN BKN012 FEW015TCU
ENML,TAF ENML 081100Z 0812/0821 07010KT 9999 FEW020 SCT040
ENMS,TAF ENMS 081100Z 0812/0821 36008KT 9999 FEW045
ENNA,TAF ENNA 081100Z 0812/0912 32018KT 9999 FEW020 BKN040 TEMPO 0813/0819 34018G28KT BECMG 0820/0823 32008KT
ENNE,TAF AMD ENNE 081151Z 0811/0817 05010KT 9999 SCT030
ENNM,TAF ENNM 081100Z 0812/0821 28007KT 9999 SCT030
ENNO,TAF AMD ENNO 081306Z 0813/0817 VRB05KT CAVOK
ENOA,TAF ENOA 081100Z 0812/0912 01028KT 9999 SCT020 BECMG 0900/0903 36018KT BECMG 0907/0909 36008KT
ENOL,TAF ENOL 081100Z 0812/0912 35012KT 9999 FEW020 BECMG 0821/0824 09008KT BECMG 0909/0912 35010KT
ENOV,TAF ENOV 081100Z 0812/0821 VRB03KT 9999 FEW030 PROB40 0812/0817 07010KT
ENRA,TAF ENRA 081100Z 0812/0821 30008KT 9999 FEW050
ENRM,TAF ENRM 081100Z 0812/0821 34008KT 9999 SCT025
ENRO,TAF ENRO 081100Z 0812/0819 36008KT 9999 FEW025 BKN035
ENRS,TAF ENRS 081100Z 0812/0820 34008KT 9999 FEW020 SCT030 BKN050
ENRY,TAF ENRY 081100Z 0812/0912 04010KT CAVOK BECMG 0902/0904 10010KT
ENSB,TAF ENSB 081100Z 0812/0912 25015KT 9999 FEW010 PROB40 TEMPO 0900/0906 BKN012
ENSD,TAF ENSD 081100Z 0812/0821 30007KT CAVOK
ENSG,TAF ENSG 081100Z 0812/0820 VRB05KT 9999 FEW030 PROB30 0812/0815 26010KT
ENSH,TAF ENSH 081100Z 0812/0821 35008KT 9999 FEW030 SCT050
ENSK,TAF ENSK 081100Z 0812/0820 30008KT 9999 FEW025 SCT040 BKN050 TEMPO 0812/0820 FEW020TCU
ENSO,TAF ENSO 080800Z 0809/0815 32010KT CAVOK
ENSR,TAF ENSR 081100Z 0812/0819 32012KT 9999 SCT030 BKN050 TEMPO 0812/0819 SCT020TCU
ENSS,TAF ENSS 081100Z 0812/0821 34012KT 9999 -SHRA FEW012 BKN030 PROB40 TEMPO 0812/0821 SHRASN BKN012 FEW018TCU
ENTC,TAF ENTC 081100Z 0812/0912 30005KT 9999 FEW020 BKN035 TEMPO 0812/0909 FEW020TCU
ENTO,TAF ENTO 081100Z 0812/0912 03012KT CAVOK BECMG 0904/0906 10010KT
ENVA,TAF ENVA 081100Z 0812/0912 27010KT 9999 FEW025 SCT040 TEMPO 0812/0814 SCT015TCU BKN025 BECMG 0816/0818 05005KT PROB40 0909/0912 27010KT
ENVD,TAF ENVD 081100Z 0812/0821 33015KT 9999 -SHRA FEW020 BKN030
ENZV,TAF ENZV 081100Z 0812/0912 30015KT CAVOK BECMG 0819/0821 VRB04KT BECMG 0909/0912 27010KT
EPBY,TAF EPBY 081130Z 0812/0912 13008KT CAVOK TEMPO 0818/0908 VRB02KT
EPCE,TAF EPCE 081100Z 0812/0824 35005KT CAVOK PROB30 TEMPO 0812/0816 35008G18KT
EPDA,TAF EPDA 081100Z 0812/0824 33005KT CAVOK BECMG 0819/0821 03006KT CAVOK
EPDE,TAF EPDE 081100Z 0812/0824 06008KT CAVOK
EPGD,TAF EPGD 081130Z 0812/0912 05010KT CAVOK PROB40 TEMPO 0812/0815 VRB02KT PROB30 TEMPO 0903/0905 BKN005 TEMPO 0910/0912 02015G25KT
EPKK,TAF EPKK 081130Z 0812/0912 08008KT 9999 BKN030 TEMPO 0815/0822 -SHRA BKN020CB BECMG 0822/0824 BKN012 TEMPO 0822/0908 2000 BR BKN003 BKN010 PROB40 0900/0905 0300 FG OVC001 BECMG 0908/0910 BKN023 TEMPO 0910/0912 4000 SHRA BKN020CB
EPKS,TAF EPKS 081100Z 0812/0824 06006KT CAVOK BECMG 0815/0817 12008KT
EPKT,TAF EPKT 081130Z 0812/0912 08014KT CAVOK TEMPO 0822/0908 08004KT -SHRA BKN008 BKN012CB TEMPO 0908/0912 4000 SHRA BKN020CB
EPLB,TAF EPLB 081130Z 0812/0912 08010KT 9999 BKN045 TEMPO 0812/0822 BKN035TCU PROB30 TEMPO 0816/0820 TSRA SCT030CB BECMG 0818/0821 VRB02KT BECMG 0906/0909 07010KT PROB40 TEMPO 0907/0912 BKN040CB
EPLL,TAF EPLL 081130Z 0812/0912 08012KT CAVOK PROB40 TEMPO 0812/0817 09015G25KT BECMG 0818/0821 VRB02KT BECMG 0906/0909 07010KT TEMPO 0907/0912 SCT035TCU
EPLY,TAF EPLY 080500Z 0806/0818 09006KT CAVOK
EPMB,TAF EPMB 081100Z 0812/0824 12005KT CAVOK
EPMI,TAF EPMI 081100Z 0812/0824 03008KT CAVOK
EPMM,TAF EPMM 081100Z 0812/0824 10009KT CAVOK
EPMO,TAF EPMO 081130Z 0812/0912 09010KT CAVOK BECMG 0818/0821 VRB02KT BECMG 0906/0909 08010KT PROB40 TEMPO 0910/0912 SCT040TCU
EPOK,TAF EPOK 081100Z 0812/0824 08008KT CAVOK
EPPO,TAF EPPO 081130Z 0812/0912 VRB05KT CAVOK
EPPW,TAF EPPW 081100Z 0812/0824 09006KT CAVOK BECMG 0816/0818 VRB03KT
EPRA,TAF EPRA 081130Z 0812/0821 11008KT 9999 SCT040
EPRZ,TAF EPRZ 081130Z 0812/0912 08006KT 9999 BKN020 TEMPO 0812/0822 -SHRA BKN020CB PROB40 TEMPO 0812/0822 VRB15G26KT 4000 TSRA BKN020CB TEMPO 0900/0909 4000 BR BKN006 BKN012 PROB40 0900/0907 2000 BR OVC003
EPSC,TAF EPSC 081130Z 0812/0912 36010KT CAVOK
EPSN,TAF EPSN 081100Z 0812/0824 02008KT CAVOK BECMG 0819/0821 VRB03KT
EPSY,TAF EPSY 081130Z 0812/0821 07007KT CAVOK
EPWA,TAF EPWA 081130Z 0812/0912 09010KT CAVOK BECMG 0818/0821 VRB02KT BECMG 0906/0909 08010KT PROB40 TEMPO 0910/0912 SCT040TCU
EPWR,TAF EPWR 081130Z 0812/0912 07008KT CAVOK PROB30 TEMPO 0812/0818 SHRA BKN045CB TEMPO 0909/0912 SHRA BKN025CB PROB30 TEMPO 0910/0912 2000 TSRA
EPZG,TAF EPZG 081130Z 0812/0821 09008KT CAVOK TEMPO 0812/0821 SHRA BKN045CB PROB30 TEMPO 0812/0818 2000 TSRA
ESCF,TAF ESCF 081130Z 0812/0815 31008KT CAVOK BECMG 0814/0815 08013G23KT RMK MIL
ESCM,TAF ESCM 081130Z 0812/0814 04010KT CAVOK RMK MIL
ESDF,TAF ESDF 081115Z 0812/0819 18008KT CAVOK RMK MIL
ESGG,TAF ESGG 081130Z 0812/0912 25006KT CAVOK BECMG 0821/0823 10013KT
ESGJ,TAF ESGJ 081130Z 0812/0821 03010KT CAVOK BECMG 0817/0819 09015G25KT BECMG 0819/0821 09010KT
ESGP,TAF ESGP 081130Z 0812/0821 28010KT 9999 FEW020 BECMG 0818/0820 02005KT
ESGT,TAF ESGT 081130Z 0812/0819 02010KT CAVOK
ESIA,TAF ESIA 080630Z 0806/0814 30005KT CAVOK BECMG 0808/0810 16005KT RMK MIL
ESIB,TAF ESIB 081130Z 0812/0815 01006G16KT CAVOK RMK MIL
ESKN,TAF ESKN 081130Z 0812/0912 03010KT CAVOK TEMPO 0812/0816 03015G25KT BECMG 0819/0821 VRB03KT
ESMK,TAF ESMK 081100Z 0812/0819 12012KT CAVOK
ESMQ,TAF ESMQ 081130Z 0812/0821 18010KT CAVOK BECMG 0818/0820 03013KT
ESMS,TAF ESMS 081101Z 0812/0912 VRB02KT CAVOK BECMG 0901/0904 09015KT
ESMT,TAF ESMT 081100Z 0812/0819 27008KT CAVOK
ESMX,TAF ESMX 081130Z 0812/0821 20006KT CAVOK BECMG 0818/0820 07014KT
ESNG,TAF ESNG 081130Z 0812/0821 36012KT 9999 SCT025 PROB40 0812/0814 SHRA SCT030CB
ESNK,TAF ESNK 081130Z 0812/0818 32012KT CAVOK
ESNN,TAF ESNN 081130Z 0812/0821 32012KT 9999 FEW045
ESNO,TAF ESNO 081130Z 0812/0819 32011KT 9999 FEW045 PROB40 0812/0815 SHRA SCT040CB
ESNQ,TAF ESNQ 081130Z 0812/0820 35013KT 9999 SCT030
ESNS,TAF ESNS 081130Z 0812/0821 35010KT 9999 SCT040 PROB40 0812/0815 SHRA SCT030CB BECMG 0816/0818 27006KT
ESNU,TAF ESNU 081130Z 0812/0821 32014KT CAVOK TEMPO 0812/0818 SHRA SCT030CB
ESNX,TAF ESNX 081130Z 0812/0820 34011KT 9999 FEW015 SCT030 PROB40 0812/0814 SHRA SCT030CB
ESNZ,TAF ESNZ 081230Z 0813/0821 31013KT 9999 SCT045
ESOE,TAF ESOE 081130Z 0812/0821 05010KT CAVOK BECMG 0816/0818 11010KT
ESOK,TAF ESOK 081130Z 0812/0815 03010KT CAVOK
ESOW,TAF ESOW 081130Z 0812/0815 05012KT CAVOK
ESPA,TAF ESPA 081130Z 0812/0821 33010KT 9999 SCT040 TEMPO 0812/0815 9999 -SHRA BKN030TCU RMK MIL
ESPE,TAF ESPE 081133Z 0812/0815 02010KT 9999 SCT035TCU TEMPO 0812/0815 9999 -SHRA BKN025CB RMK MIL
ESSA,TAF ESSA 081130Z 0812/0912 03012KT 9999 SCT025 TEMPO 0812/0816 03015G25KT BECMG 0818/0820 VRB02KT
ESSB,TAF ESSB 081130Z 0812/0821 02010G20KT 9999 SCT030
ESSD,TAF ESSD 081130Z 0812/0815 05007KT CAVOK
ESSL,TAF ESSL 081130Z 0812/0816 31005KT CAVOK BECMG 0813/0815 08015G25KT
ESSP,TAF ESSP 081130Z 0812/0815 03009KT CAVOK TEMPO 0813/0815 06015G30KT
ESSV,TAF ESSV 081130Z 0812/0820 27012KT CAVOK BECMG 0813/0815 02015G25KT
ESTA,TAF ESTA 081100Z 0812/0821 30008KT CAVOK
ESTL,TAF ESTL 081100Z 0812/0815 VRB02KT CAVOK
ETAD,TAF ETAD 080500Z 0805/0911 06009KT 9999 FEW100 QNH2999INS TEMPO 0815/0818 VRB10G18KT 8000 -TSRA BKN060CB BECMG 0820/0821 06009KT 9999 SCT045 BKN060 QNH2995INS BECMG 0822/0823 07009KT 9999 FEW060 QNH2996INS TX24/0815Z TN13/0805Z
ETAR,TAF ETAR 081000Z 0810/0916 09012KT 9999 BKN080 QNH2993INS TEMPO 0813/0817 8000 -SHRA VCTS BKN050CB BECMG 0820/0821 07006KT 9999 SKC QNH2994INS BECMG 0901/0902 VRB06KT 8000 BR SKC QNH2994INS BECMG 0906/0907 09009KT 9999 NSW SKC QNH2991INS TX25/0812Z TN10/0904Z
ETEB,TAF AMD ETEB 071530Z 0715/0821 09006KT 9999 SCT050 QNH3001INS BECMG 0722/0723 10006KT 9000 BR FEW050 QNH2997INS BECMG 0808/0809 VRB03KT 9999 NSW SCT050 QNH2994INS TEMPO 0812/0817 09010G35KT8000 TSRA BKN050CB BECMG 0818/0819 VRB03KT 9999 SCT050 QNH2995INS TX23/0715Z TN13/0805Z LAST NO AMDS AFT 0722 NEXT 0807
ETHB,TAF ETHB 081001Z 0811/0820 06005KT 9999 NSW BKN110 PROB30 0813/0819 06012G28KT 2000 TSRA BKN010 BKN040CB
ETHC,TAF ETHC 081021Z 0811/0820 06005KT 9999 NSW SCT070 SCT120
ETHS,TAF ETHS 081011Z 0811/0820 07007KT 9999 NSW SCT060 SCT130 PROB30 0812/0818 VRB10G25KT 4000 TSRA SCT040 BKN060CB
ETIC,TAF AMD ETIC 081200Z 0812/0916 10006KT 9000 -SHRA FEW020 SCT035 BKN040 QNH2999INS TEMPO 0812/0819 5000 -TSRA BKN030CB BECMG 0818/0819 07003KT 9999 NSW SCT050 QNH2994INS BECMG 0908/0909 06009KT 9999 FEW035 SCT040 QNH3001INS BECMG 0911/0912 06012KT 9999 SCT060 QNH2998INS TX25/0812Z TN14/0902Z
ETIK,TAF ETIK 072200Z 0722/0904 07003KT 9999 FEW090 QNH3000INS BECMG 0802/0803 09003KT 8000 BR SCT020 SCT050 QNH2998INS BECMG 0806/0807 08009KT 9999 NSW FEW030 SCT055 QNH2990INS TEMPO 0813/0818 10010G15KT 8000 -TSRA BKN050CB BECMG 0817/0818 10009KT 9999 FEW180 QNH2991INS BECMG 0820/0821 VRB03KT 9999 SKC QNH2995INS TX25/0815Z TN13/0803Z LAST NO AMDS AFT 0722 NEXT 0906
ETMN,TAF ETMN 081002Z 0811/0820 36010KT 9999 NSW FEW012
ETND,TAF ETND 081004Z 0811/0820 03008KT 9999 NSW FEW010 BKN080 PROB30 0812/0814 12020G30KT 3000 TSRA BKN040CB BY ETGL
ETNH,TAF ETNH 081024Z 0811/0820 31008KT 9999 NSW SKC BY ETGL
ETNL,TAF ETNL 081024Z 0811/0823 34007KT 9999 NSW FEW050 BY ETGL
ETNS,TAF ETNS 081024Z 0811/0820 31008KT 9999 NSW SKC BY ETGL
ETNW,TAF ETNW 081004Z 0811/0911 03006KT 9999 NSW SCT080 BKN100 TEMPO 0811/0820 12015G25KT 4000 SHRA BKN050CB PROB30 0812/0818 12020G30KT 3000 TSRA BKN050CB BY ETGL
ETOU,TAF ETOU 081200Z 0812/0918 06009KT 9999 VCTS SCT050CB QNH2993INS TEMPO 0812/0818 06010G20KT 6000 -TSRA BKN040CB BECMG 0820/0821 05006KT 9999 NSW FEW030 QNH2995INS BECMG 0909/0910 09010G15KT 9999 SCT030 QNH2993INS TX27/0813Z TN15/0904Z
ETSH,TAF AMD ETSH 081219Z 0812/0820 07006KT 9999 NSW FEW070 BKN220 TEMPO 0812/0815 VRB15G25KT 3000 TSRAGR BKN040CB
ETSL,TAF ETSL 081038Z 0811/0823 03005KT 9999 NSW FEW040 SCT280 PROB30 0811/0819 VRB15G30KT 3000 TSRA BKN030CB BY ETGL
ETSN,TAF ETSN 081037Z 0811/0820 04007KT 9999 NSW FEW040 SCT280 PROB30 0811/0819 VRB15G30KT 3000 TSRA BKN030CB BY ETGL
EVGA,TAF EVGA 081103Z 0812/0912 VRB02KT CAVOK BECMG 0902/0904 03010KT
EVLA,TAF EVLA 081105Z 0812/0912 26007KT CAVOK BECMG 0900/0902 04010KT
EVRA,TAF AMD EVRA 081214Z 0812/0912 08005KT CAVOK BECMG 0822/0824 36010KT TEMPO 0910/0912 36014G27KT PROB40 TEMPO 0911/0912 26015G30KT
EVVA,TAF EVVA 081107Z 0812/0821 26005KT CAVOK BECMG 0818/0820 01010KT
EYKA,TAF EYKA 081100Z 0812/0912 VRB03KT 9000 NSC TEMPO 0812/0818 27013KT TEMPO 0902/0907 02013KT BECMG 0907/0909 02013KT
EYPA,TAF EYPA 081100Z 0812/0912 VRB03KT 9000 NSC TEMPO 0900/0905 01013KT BECMG 0905/0907 04013KT
EYSA,TAF EYSA 081100Z 0812/0821 VRB05KT CAVOK
EYVI,TAF EYVI 081100Z 0812/0912 VRB05KT 9000 NSC TEMPO 0812/0818 SCT049TCU BECMG 0909/0910 01015KT TEMPO 0910/0912 SCT045CB
FABL,TAF FABL 081000Z 0812/0912 31010KT CAVOK TX19/0812Z TN04/0904Z BECMG 0814/0816 26010KT BECMG 0906/0908 BKN015
FACT,TAF AMD FACT 081209Z 0812/0918 32018KT 9999 SCT008 BKN025 TX16/0812Z TN12/0905Z PROB40 TEMPO 0812/0818 4000 -DZRA BKN012 BECMG 0818/0820 33008KT FM091200 24010KT 9999 BKN030
FAEL,TAF FAEL 080900Z 0810/0819 30004KT CAVOK TX24/0811Z TN18/0818Z BECMG 0810/0812 24010KT
FAGG,TAF FAGG 081000Z 0812/0912 34008KT 9999 FEW045 TX18/0812Z TN12/0905Z FM090200 31010KT 9999 -RA BKN040 BECMG 0904/0906 24015KT PROB40 TEMPO 0909/0912 3000 RA BKN013
FAHS,TAF FAHS 080900Z 0810/0818 34008KT CAVOK TX32/0813Z TN20/0818Z BECMG 0814/0816 VRB03KT
FAKM,TAF FAKM 080900Z 0810/0818 25010KT CAVOK TX21/0812Z TN12/0818Z
FAKN,TAF FAKN 080900Z 0810/0818 VRB03KT CAVOK TX28/0813Z TN18/0818Z
FALA,TAF FALA 081000Z 0812/0912 32011KT CAVOK TX23/0813Z TN07/0905Z PROB30 TEMPO 0812/0814 31015G25KT BECMG 0816/0818 VRB03KT BECMG 0910/0912 27009KT
FALE,TAF FALE 081000Z 0812/0918 14010KT CAVOK TX25/0812Z TN13/0904Z BECMG 0820/0822 VRB03KT BECMG 0910/0912 10010KT BECMG 0916/0918 VRB03KT
FAMM,TAF FAMM 080900Z 0810/0818 30010KT CAVOK TX26/0813Z TN12/0818Z PROB30 TEMPO 0810/0813 32015G25KT
FAOR,TAF FAOR 081000Z 0812/0918 31014KT CAVOK TX21/0813Z TN08/0905Z PROB30 TEMPO 0812/0815 31016G28KT FM081600 32008KT CAVOK BECMG 0900/0902 24010KT BECMG 0915/0917 18011KT
FAPE,TAF FAPE 081000Z 0812/0912 30005KT CAVOK TX23/0812Z TN10/0902Z PROB30 TEMPO 0816/0818 4500 -SHRA FEW045TCU BECMG 0908/0910 30020G30KT TEMPO 0910/0912 30023G35KT
FAPM,TAF FAPM 080900Z 0810/0821 12010KT CAVOK TX27/0812Z TN12/0821Z FM081600 VRB03KT 9999 BKN015 PROB30 TEMPO 0819/0821 4000 BR BKN008
FAPP,TAF FAPP 080900Z 0810/0818 VRB03KT CAVOK TX29/0813Z TN18/0818Z BECMG 0810/0812 30010KT BECMG 0816/0818 VRB03KT
FARB,TAF FARB 080900Z 0810/0818 17010KT CAVOK TX27/0812Z TN21/0818Z
FAUP,TAF FAUP 081000Z 0812/0912 26010KT 9999 FEW020 TX18/0813Z TN06/0904Z BECMG 0816/0818 VRB03KT
FAUT,TAF FAUT 080900Z 0810/0818 20004KT 9999 SCT040 TX23/0811Z TN14/0818Z BECMG 0810/0812 26008KT
FAWB,TAF FAWB 080900Z 0810/0818 VRB03KT CAVOK TX23/0813Z TN16/0818Z BECMG 0810/0812 32010KT BECMG 0815/0817 VRB03KT
FBMN,FBMN 081000Z 0812/0912 02004KT CAVOK
FBPM,FBPM 081000Z 0812/0912 29004KT CAVOK
FBSK,TAF FBSK 081000Z 0812/0918 VRB03KT CAVOK BECMG 0900/0902 26004KT
FCBB,TAF FCBB 081100Z 0812/0918 24004KT 8000 BKN020 PROB30 0815/0819 SCT018 FEW028CB PROB40 0822/0902 BKN018 FEW028CB PROB30 0904/0907 4000 BR
FCPP,TAF FCPP 081100Z 0812/0912 20010KT 8000 SCT010 BKN024 BECMG 0819/0821 VRB04KT PROB40 0823/0902 3000 BR PROB30 0903/0907 4000 BR BKN010 BKN020 BECMG 0907/0909 19010KT
FDMS,FDMS 081000Z 0812/0818 32010KT 9999 SCT035 BECMG 0814/0816 CAVOK
FDSK,FDSK 081000Z 0812/0818 34013KT 9999 SCT040 BECMG 0813/0814 CAVOK
FEFF,TAF FEFF 081100Z 0812/0918 22005KT 9999 BKN023 FEW040CB TEMPO 0813/0816 4000 TSRA TEMPO 0817/0822 10015G25KT 4000 TSRA BKN013 SCT033CB BECMG 0906/0908 BKN013 BECMG 0910/0912 BKN023 FEW040CB PROB30 TEMPO 0913/0917 TS
FGBT,TAF FGBT 081100Z 0812/0912 21006KT 9999 SCT010 PROB30 TEMPO 0813/0816 4000 TSRA BKN010 FEW018CB
FGSL,TAF FGSL 081100Z 0812/0918 24006KT 9999 SCT009 FEW018CB PROB30 TEMPO 0812/0820 4500 TSRA PROB30 TEMPO 0900/0906 TS
FHAW,TAF AMD FHAW 081027Z 0812/0906 13015KT 9999 FEW029 PROB40 TEMPO 0812/0819 13017G27KT PROB40 TEMPO 0822/0906 7000 SHRA SCT016
FIMP,TAF COR FIMP 081100Z 0812/0918 09008KT 9999 SCT017 TEMPO 0819/0912 7000 -SHRA FEW010 BKN015 PROB30 TEMPO 0820/0903 3000 SHRA FEW008 BKN014
FIMR,TAF FIMR 081105Z 0812/0906 10016G30KT 9999 SCT017 TEMPO 0812/0906 7000 -SHRA FEW010 BKN016
FJDG,TAF AMD FJDG 081133Z 0811/0915 15018KT 9999 FEW020 SCT250 QNH2983INS TX31/0908Z TN27/0820Z
FKKD,TAF FKKD 081100Z 0812/0918 VRB02KT 8000 -TSRA BKN013 FEW016CB BECMG 0812/0814 NSW PROB40 TEMPO 0823/0905 3000 TSRADZ TEMPO 0905/0908 2500 BR BECMG 0909/0911 BKN016 FEW020CB
FKKL,TAF FKKL 080500Z 0806/0818 26008KT 9999 FEW040 PROB30 TEMPO 0814/0818 3000 TSRA SCT035 FEW040CB
FKKR,TAF FKKR 080500Z 0806/0818 28010KT 8000 BKN016 PROB30 TEMPO 0814/0818 3000 TSRA
FKYS,TAF FKYS 081100Z 0812/0912 25006KT 9999 BKN016 TEMPO 0815/0821 TS BKN014 FEW023CB PROB30 0817/0820 3000 TSRA BECMG 0821/0823 BKN006 BECMG 0909/0911 BKN016 FEW020CB
FLCP,TAF FLCP 080400Z 0806/0912 08010KT CAVOK BECMG 0810/0812 VRB03KT 9999 FEW040 BECMG 0816/0818 13005KT CAVOK
FLHN,TAF FLHN 080400Z 0806/0912 VRB03KT CAVOK BECMG 0807/0809 07010KT BECMG 0810/0812 VRB03KT 9999 SCT035 BECMG 0816/0818 09005KT
FLKK,TAF FLKK 080400Z 0806/0912 11010KT CAVOK BECMG 0807/0809 09010G15KT 9999 SCT020 BECMG 0811/0813 VRB03KT SCT040 FM081600 15005KT CAVOK
FLKS,TAF FLKS 080400Z 0806/0912 10005KT CAVOK BECMG 0807/0809 09010KT BECMG 0812/0814 VRB03KT 9999 SCT040 FM081600 12005KT CAVOK
FLMA,TAF FLMA 080400Z 0806/0912 09010G15KT CAVOK BECMG 0814/0816 15005KT
FLMF,TAF FLMF 080400Z 0806/0912 08010KT CAVOK BECMG 0810/0812 VRB03KT 9999 FEW040 BECMG 0816/0818 13005KT CAVOK
FLSK,TAF FLSK 080400Z 0806/0912 11005KT 8000 FU NSC BECMG 0807/0809 07010KT BECMG 0811/0813 VRB03KT 9999 SCT040 FM081600 CAVOK
FLSW,TAF FLSW 080400Z 0806/0912 VRB03KT CAVOK BECMG 0807/0809 09005KT 9999 FEW020 BECMG 0810/0812 VRB03KT BKN035 FM081600 CAVOK
FMCH,TAF FMCH 081100Z 0812/0918 20012KT 9999 FEW020TCU BKN030 PROB30 TEMPO 0812/0815 4500 SHRA BECMG 0815/0817 09005KT BECMG 0906/0908 21012KT
FMCZ,TAF FMCZ 081100Z 0812/0912 30007KT 9999 FEW025
FMEE,TAF FMEE 081100Z 0812/0918 11016KT 9999 SCT050 BKN065 TEMPO 0900/0904 18005KT TEMPO 0906/0916 10010G20KT
FMEP,TAF FMEP 081100Z 0812/0821 12024KT 9999 FEW030 BECMG 0818/0821 04005KT
FMMI,TAF COR FMMI 081100Z 0812/0918 10010KT 9999 SCT020 BECMG 0818/0821 16003KT PROB40 0901/0906 1500 BR BECMG 0906/0908 10010K
FMMS,TAF FMMS 081100Z 0812/0912 16010KT 9999 SCT017 BKN033 PROB30 TEMPO 08 12/0814 4500 SHRA PROB40 TEMPO 0900/0912 4000 SHRA
FMMT,TAF FMMT 081100Z 0812/0912 15010KT 9999 FEW007 SCT017TCU BKN033 PROB4 0 TEMPO 0812/0816 4000 SHRA BECMG 0815/0818 24008KT BECMG 0905/0908 14010KT
FMNA,TAF FMNA 081100Z 0812/0912 14014G28KT 9999 FEW020
FMNM,TAF FMNM 081100Z 0812/0912 14010KT 9999 FEW020
FMNN,TAF FMNN 081100Z 0812/0912 24010KT 9999 SCT020 BECMG 0817/0820 04005K T
FMSD,TAF FMSD 081100Z 0812/0912 08015KT 9999 FEW020
FMST,TAF FMST 081100Z 0812/0912 30010KT 9999 FEW020 BECMG 0817/0820 06008K T
FNBG,TAF FNBG 081100Z 0812/0824 29004KT 9999 BKN020
FNCA,TAF FNCA 081100Z 0812/0824 18006KT 9999 FEW015 TEMPO 0812/0816 OVC020
FNCT,TAF FNCT 081100Z 0812/0824 27005KT 9999 FEW020 OVC040
FNDU,TAF FNDU 081100Z 0812/0824 08004KT 9999 FEW012
FNGI,TAF FNGI 081100Z 0812/0824 14004KT CAVOK
FNHU,TAF FNHU 081100Z 0812/0824 10004KT 9999 FEW022
FNKU,TAF FNKU 081100Z 0812/0824 15004KT CAVOK
FNLU,TAF FNLU 081100Z 0812/0918 31004KT 9999 BKN022 TEMPO 0813/0817 25010KT
FNMA,TAF FNMA 081100Z 0812/0824 10004KT 9999 SCT012
FNME,TAF FNME 081100Z 0812/0824 12004KT 9999 FEW020
FNMO,TAF FNMO 081100Z 0812/0824 26009KT 9999 SCT014
FNSA,TAF FNSA 081100Z 0812/0824 11005KT 9999 FEW018
FNSO,TAF FNSO 081100Z 0812/0824 18006KT 9999 SCT014
FNUB,TAF FNUB 081100Z 0812/0824 08006KT CAVOK TEMPO 0814/0818 9999 BKN025
FNUE,TAF FNUE 081100Z 0812/0824 11007KT CAVOK TEMPO 0813/0818 9999 BKN015
FOOG,TAF FOOG 081100Z 0812/0912 18010KT 9999 SCT010 BKN030
FOOL,TAF FOOL 081100Z 0812/0918 24008KT 9999 SCT012 BKN033 TEMPO 0818/0824 BKN010 BKN030
FPST,TAF FPST 080400Z 0806/0912 17014KT 9999 SCT020 BKN040 BECMG 0811/0813 FEW023 SCT030
FQBR,TAF FQBR 081000Z 0812/0918 10010KT CAVOK TX32/0813Z TN21/0903Z BECMG 0818/0820 06015KT BECMG 0901/0903 34013KT BECMG 0906/0908 09017KT BECMG 0915/0917 06014KT
FQCH,TAF FQCH 081000Z 0812/0912 30010KT CAVOK TX29/0813Z TN17/0903Z BECMG 0818/0820 08006KT BECMG 0900/0902 02004KT BECMG 0906/0908 27009KT
FQIN,TAF FQIN 081000Z 0812/0912 01012KT CAVOK TX29/0813Z TN22/0903Z BECMG 0818/0820 03012G22KT BECMG 0901/0902 32012KT BECMG 0907/0909 05015KT
FQLC,TAF FQLC 081000Z 0812/0912 02010KT 9999 FEW020 TX24/0813Z TN10/0903Z BECMG 0818/0820 08005KT BECMG 0900/0902 VRB01KT BECMG 0906/0908 02004KT
FQMA,TAF FQMA 081000Z 0812/0918 03012KT 9999 FEW025 TX32/0813Z TN16/0903Z BECMG 0818/0820 33012KT CAVOK BECMG 0907/0909 10008KT BECMG 0913/0915 20010KT 9999 FEW020
FQNC,TAF FQNC 081000Z 0812/0918 15010KT 9999 SCT020 TX31/0813Z TN21/0903Z BECMG 0818/0820 VRB02KT BECMG 0900/0902 34004KT BECMG 0906/0908 08010KT BECMG 0913/0915 02008KT
FQNP,TAF FQNP 081000Z 0812/0912 15010KT 9999 FEW020 TX30/0813Z TN22/0903Z BECMG 0818/0820 VRB02KT BECMG 0900/0902 34004KT BECMG 0906/0908 08010KT BECMG 0910/0912 02008KT
FQPB,TAF FQPB 081000Z 0812/0912 13010KT 9999 SCT020 TX30/0813Z TN21/0903Z BECMG 0818/0820 VRB02KT BECMG 0906/0908 09010KT
FQQL,TAF FQQL 081000Z 0812/0912 14010KT 9999 FEW020 TX30/0813Z TN21/0903Z BECMG 0819/0821 02004KT BECMG 0907/0909 12013KT
FQTT,TAF FQTT 081000Z 0812/0912 12010KT 9999 FEW020 TX34/0813Z TN24/0903Z BECMG 0819/0821 34006KT BECMG 0906/0908 13007KT
FQVL,TAF FQVL 081000Z 0812/0912 01012KT CAVOK TX30/0813Z TN20/0903Z BECMG 0818/0820 03012G22KT BECMG 0901/0902 32012KT BECMG 0907/0909 05015KT
FQXA,TAF FQXA 081000Z 0812/0912 03012KT 9999 FEW025 TX28/0813Z TN19/0903Z BECMG 0818/0820 33012KT CAVOK BECMG 0905/0907 10008KT BECMG 0910/0912 20010KT 9999 FEW020
FSIA,TAF FSIA 081100Z 0812/0912 13015KT 9999 SCT022
FTTJ,TAF FTTJ 081100Z 0812/0918 20008KT 8000 SCT030 FEW040CB TEMPO 0814/0820 VRB16G40K 4000 TSRA
FWCL,TAF FWCL 080800Z 0812/0918 05006KT 9999 FEW025 BECMG 0814/0818 02004KT CAVOK BECMG 0908/0912 06004KT 9999 FEW020
FWKI,TAF FWKI 080930Z 0812/0918 06004KT 9999 FEW025 BECMG 0812/0814 FEW040 FM081600 05006KT CAVOK
FYGF,TAF FYGF 081100Z 0812/0821 03003KT CAVOK
FYKM,TAF FYKM 081100Z 0812/0821 09004KT CAVOK
FYKT,TAF FYKT 081000Z 0812/0912 25012KT CAVOK
FYLZ,TAF FYLZ 081100Z 0812/0821 29007KT 9999 BKN015
FYOA,TAF FYOA 081100Z 0812/0821 14005KT CAVOK
FYRU,TAF FYRU 081100Z 0812/0821 03013KT CAVOK
FYWB,TAF FYWB 081000Z 0812/0912 25012KT CAVOK
FYWE,TAF FYWE 081100Z 0812/0821 29016G28KT CAVOK BECMG 0818/0820 25006KT
FYWH,TAF FYWH 081000Z 0812/0912 32014KT CAVOK BECMG 0816/0818 25007KT
FZAA,TAF FZAA 081100Z 0812/0918 24006KT 7000 SCT018 PROB30 TEMPO 0904/0908 3500 BR
FZNA,TAF FZNA 081100Z 0812/0918 21010KT 9000 SCT018 BECMG 0814/0816 05006KT SCT016 FEW020CB BECMG 0909/0911 23010KT SCT020
FZQA,TAF FZQA 080500Z 0806/0912 00000KT CAVOK BECMG 0812/0814 09012KT FEW020 BECMG 0822/0900 15006KT CAVOK
GABS,TAF COR GABS 081120Z 0812/0918 24010KT CAVOK PROB30 TEMPO 0821/0901 08020G35KT 4000 TSRA BLDU SCT030 FEW033CB
GAGO,TAF GAGO 081100Z 0812/0912 34010KT 8000 NSC
GBYD,TAF GBYD 081100Z 0812/0918 34010KT 9999 BKN010
GCFV,TAF GCFV 080800Z 0809/0909 30010KT 9999 SCT030 TX27/0814Z TN20/0906Z TEMPO 0812/0821 12005KT
GCGM,TAF AMD GCGM 081246Z 0812/0909 VRB08KT 9999 FEW020 TX25/0814Z TN21/0906Z TEMPO 0812/0819 12010KT PROB40 TEMPO 0812/0819 28010KT PROB30 TEMPO 0812/0817 28015G25KT
GCHI,TAF AMD GCHI 081201Z 0812/0909 32009KT 9999 FEW030 TX26/0814Z TN21/0906Z TEMPO 0812/0815 32016G26KT
GCLA,TAF GCLA 080800Z 0809/0909 VRB05KT 9999 SCT030 TX26/0814Z TN19/0906Z PROB40 TEMPO 0812/0817 16010KT
GCLP,TAF GCLP 080800Z 0809/0909 13006KT 9999 BKN020 TX24/0814Z TN19/0906Z PROB30 TEMPO 0812/0818 DZ BKN014 BECMG 0814/0817 01010KT
GCRR,TAF GCRR 080800Z 0809/0909 29009KT 9999 FEW025 TX29/0814Z TN20/0906Z
GCTS,TAF GCTS 080800Z 0809/0909 VRB05KT 9999 SCT030 TX27/0814Z TN19/0906Z PROB40 TEMPO 0809/0816 26010KT TEMPO 0815/0822 09010KT
GCXO,TAF GCXO 080800Z 0809/0909 30010KT 9999 SCT015 TX23/0814Z TN15/0906Z TEMPO 0811/0819 DZ BKN010 PROB30 TEMPO 0809/0816 15005KT PROB30 TEMPO 0819/0908 BKN010
GECE,TAF GECE 080800Z 0809/0909 09004KT 9999 SCT020 TX22/0814Z TN20/0905Z PROB40 TEMPO 0809/0816 BKN010 PROB30 TEMPO 0809/0817 4000 SHRA FEW035CB
GEML,TAF GEML 081100Z 0812/0912 08008KT 9999 FEW010 SCT020 TX23/0813Z TN20/0906Z
GFLL,TAF GFLL 081100Z 0812/0918 26008KT 9999 BKN012 FEW027CB TEMPO 0816/0820 24005KT 6000 TSRA BKN010 FEW026CB PROB30 TEMPO 0824/0904 22010KT 9999 BKN010 TEMPO 0912/0916 22005KT 6000 TSRA BKN010 FEW026CB
GGOV,TAF GGOV 081100Z 0812/0912 22010KT 8000 NSC TEMPO 0900/0904 VRB05KT
GLRB,TAF GLRB 081100Z 0812/0912 25010KT 9999 BKN016 BECMG 0813/0815 18009KT SCT018 FEW025CB TEMPO 0816/0820 00000KT 8000 -TSRA BKN012 FEW023CB
GMAD,TAF GMAD 081100Z 0812/0918 28013KT 8000 SCT20 BECMG 0819/0822 08006KT BECMG 0912/0914 28013KT
GMAG,TAF AMD GMAG 081227Z 0812/0918 28012KT 8000 BKN016 BECMG 0812/0814 SCT024
GMFF,TAF GMFF 081100Z 0812/0918 34006KT 9999 SCT030 BKN200 TEMPO 0812/0819 31015G25KT TSRA SCT026 FEW030TCU FEW033CB BKN100
GMFK,TAF GMFK 081100Z 0812/0918 08005KT 9999 FEW030 PROB40 TEMPO 0815/0819 18015G25KT
GMFM,TAF GMFM 081100Z 0812/0918 29009KT 9999 BKN020 SCT200 TEMPO 0812/0821 30015KT 5000 -RA FEW013 BKN016 PROB30 TEMPO 0814/0820 -TSRA FEW026CB BECMG 0823/0903 8000 NSC
GMFO,TAF GMFO 081100Z 0812/0918 35015KT 9999 SCT025 SCT090 PROB30 0813/0819 4000 TSRA FEW030CB PROB30 0814/0817 35016G27KT
GMME,TAF GMME 081100Z 0812/0918 26012KT 5000 SCT013 BKN026 PROB30 TEMPO 0812/0815 3000 RA BKN010 TEMPO 0900/0906 18006KT
GMMH,TAF GMMH 081100Z 0812/0918 01010KT 8000 NSC BECMG 0813/0815 BKN008
GMMI,TAF GMMI 081100Z 0812/0918 25011KT 7000 SCT020 PROB30 TEMPO 0812/0818 BKN013TCU BECMG 0900/0902 BKN010 BECMG 0908/0910 SCT011
GMML,TAF GMML 081100Z 0812/0918 32007KT 8000 BKN030 BECMG 0900/0902 BKN008 BECMG 0908/0910 NSC
GMMN,TAF GMMN 081100Z 0812/0918 26014KT 9999 BKN016 BECMG 0819/0821 18006KT SCT016 BECMG 0911/0913 36012KT
GMMW,TAF GMMW 081100Z 0812/0918 03009KT 6000 BKN013 PROB40 TEMPO 0818/0906 2000 TSRA FEW030CB BECMG 0904/0906 SCT016
GMMX,TAF GMMX 081100Z 0812/0918 34006KT 8000 SCT030 SCT100 TEMPO 0812/0817 26016KT BKN020 FEW030TCU
GMMZ,TAF GMMZ 081100Z 0812/0918 21014KT 9999 FEW040 SCT220
GMTA,TAF GMTA 081100Z 0812/0918 35009KT 8000 SCT014 BKN025 PROB40 TEMPO 0812/0821 4000 TSRA FEW030CB PROB40 0900/0908 2000 BR
GMTT,TAF AMD GMTT 081310Z 0813/0918 19009KT 8000 SCT020 BKN033 PROB40 TEMPO 0813/0820 19013G24KT 4000 -RA
GOBD,TAF GOBD 081100Z 0812/0918 36014KT 9999 SCT013
GOGS,TAF GOGS 081100Z 0812/0912 30008KT 9999 SCT013
GOOY,TAF GOOY 081100Z 0812/0918 36016KT 9999 SCT013
GOSS,TAF GOSS 081100Z 0812/0912 36010KT CAVOK
GQNO,TAF GQNO 081100Z 0812/0918 36015KT 7000 NSC PROB40 TEMPO 0904/0908 BKN010
GQPP,TAF GQPP 081100Z 0812/0912 36014KT 6000 SCT010 TEMPO 0903/0908 2000 BR BKN005 PRO40 TEMPO 0905/0907 0600 FG OVC005
GUCY,TAF GUCY 081100Z 0812/0918 28006KT 9999 SCT015 SCT110 PROB30 TEMPO 0903/0909 12010KT 6000 -TSRA BKN013 FEW020CB BKN100
GVAC,TAF GVAC 081100Z 0812/0918 03010KT 9999 BKN013 TEMPO 0815/0821 SCT013
GVBA,TAF GVBA 081100Z 0812/0918 02010KT 9999 BKN014 TEMPO 0815/0821 SCT014
GVNP,TAF GVNP 081100Z 0812/0918 02010KT 9999 SCT017
GVSV,TAF GVSV 081100Z 0812/0918 06008KT 9999 SCT020
HAAB,TAF HAAB 080930Z 0812/0918 VRB05KT 9999 FEW020 SCT070 BECMG 0810/0814 8000 -SHRA/BR SCT020 BKN080
HADR,TAF HADR 080930Z 0812/0918 33008KT 9999 FEW025 SCT070
HBBA,TAF HBBA 072300Z 0800/0906 36002KT 9999 FEW025 BECMG 0808/0810 18008KT FEW030 BECMG 0818/0820 00000KT CAVOK BECMG 0903/0905 36003KT 9999 FEW020
HCMM,TAF HCMM 081100Z 0812/0918 20018KT 9999 SCT026 TEMPO 0902/0905 21012KT 9000 -SHRA SCT020 BKN070 BECMG 0909/0912 19017KT NSW SCT024
HDAM,TAF HDAM 081100Z 0812/0912 08010KT 9000 HZ FEW023 BECMG 0821/0900 17005KT FEW020 BECMG 0900/0906 VRB03KT SCT020 SCT030
HEAL,TAF HEAL 081100Z 0812/0918 06014KT 9999 SCT020 TEMPO 0812/0816 6000 TSRA FEW017CB BECMG 0904/0906 33013KT
HEAR,TAF HEAR 081100Z 0812/0918 12012KT 9999 SCT020 TEMPO 0812/0818 4000 RA BKN025 TEMPO 0812/0815 3000 TSSHRA FEW017CB
HEAT,TAF HEAT 081100Z 0812/0918 21010G20KT 6000 NSC TEMPO 0812/0818 2000 RA SA FEW025 SCT050 PROB40 TEMPO 0812/0815 0500 TSRASS FEW025CB SCT050
HEAX,TAF HEAX 081100Z 0812/0918 06012KT 9999 SCT020 TEMPO 0812/0816 4000 RASA BKN020 TEMPO 0818/0906 6000 TSRA FEW017CB BECMG 0908/0910 31013KT
HEBA,TAF HEBA 081100Z 0812/0918 07012KT 9999 SCT020 TEMPO 0812/0816 4000 RASA BKN020 TEMPO 0818/0906 6000 TSRA FEW017CB BECMG 0908/0910 32014KT
HEBL,TAF HEBL 081100Z 0812/0918 28012KT 6000 NSC TEMPO 0812/0818 2000 SA FEW025 SCT050 PROB40 TEMPO 0812/0815 0500 TSRA SS FEW025CB
HECA,TAF HECA 081100Z 0812/0918 13015KT 6000 SCT025 TEMPO 0812/0824 4000 -RA SA FEW020CB BKN020 TEMPO 0812/0821 20015G25KT 2000 PROB40 TEMPO 0812/0818 0600 -SS
HEGN,TAF HEGN 081100Z 0812/0918 02012KT 9999 SCT025 TEMPO 0812/0818 4000 RA BKN025 PROB30 TEMPO 0812/0815 3000 TSSHRA FEW017CB
HELX,TAF HELX 081100Z 0812/0918 32012KT CAVOK TEMPO 0812/0818 4000 SA FEW025 SCT050 PROB30 TEMPO 0812/0815 0500 TSRA SS FEW025CB
HEMA,TAF HEMA 081100Z 0812/0918 03015KT 9999 SCT025
HEMM,TAF HEMM 081100Z 0812/0918 06014KT 9999 SCT020 TEMPO 0812/0816 6000 TSRA FEW017CB BECMG 0904/0906 33013KT
HEOW,TAF HEOW 081100Z 0812/0918 35010KT 6000 NSC TEMPO 0812/0818 2000 SA FEW025 SCT050 PROB40 TEMPO 0812/0815 0500 TSRA SS FEW025CB
HEPS,TAF HEPS 081100Z 0812/0918 07013G23KT 9999 SCT025 TEMPO 0812/0821 4000 -RA SA BKN025 TEMPO 0812/0818 3000 TSSHRA FEW017CB
HESC,TAF HESC 081100Z 0812/0918 27010KT 9999 SCT020 TEMPO 0812/0818 4000 RA BKN025 TEMPO 0812/0815 3000 TSSHRA FEW017CB
HESG,TAF HESG 081100Z 0812/0918 30013KT 6000 NSC TEMPO 0812/0818 2000 RA SA FEW025 SCT050 PROB40 TEMPO 0812/0815 0500 TSRASS FEW025CB SCT050
HESH,TAF HESH 081100Z 0812/0918 01010G20KT 9999 SCT025 TEMPO 0812/0818 4000 RA BKN025 PROB030 TEMPO 0812/0815 3000 TSSHRA FEW017CB
HESN,TAF HESN 081100Z 0812/0918 20012KT 6000 NSC TEMPO 0812/0818 2000 SA FEW025 SCT050 PROB40 TEMPO 0812/0815 0500 TSRA SS FEW025CB
HETB,TAF HETB 081100Z 0812/0918 34012KT 9999 SCT020 TEMPO 0812/0818 4000 RA BKN025 PROB030 TEMPO 0812/0815 3000 TSSHRA FEW017CB
HETR,TAF HETR 081100Z 0812/0918 32015KT 9999 SCT020 TEMPO 0812/0818 4000 RA BKN025 TEMPO 0812/0815 3000 TSSHRA FEW017CB
HKEL,TAF HKEL 081100Z 0812/0918 12010KT 9999 FEW026CB PROB40 TEMPO 0813/0817 -TSRA FEW019CB SCT020 BKN080 BECMG 0820/0823 VRB02KT CAVOK BECMG 0908/0911 12010KT 9999 FEW023CB SCT024 PROB30 TEMPO 0913/0917 -TSRA FEW018CB SCT020 BKN080
HKJK,TAF HKJK 081100Z 0812/0918 12010KT 9999 FEW026 BECMG 0820/0823 VRB02KT CAVOK BECMG 0900/0903 9999 FEW008 BKN016 BECMG 0907/0910 12010KT SCT026
HKKI,TAF HKKI 081100Z 0812/0918 24010KT 9999 FEW025CB PROB30 TEMPO 0814/0818 -TSRA FEW021CB SCT022 BKN080 BECMG 0820/0823 06005KT CAVOK BECMG 0908/0911 24010KT 9999 FEW025CB SCT026 TEMPO 0914/0918 -TSRA FEW021CB SCT022 BKN080
HKML,TAF HKML 081100Z 0812/0912 21010KT 9999 FEW022 BKN090 TEMPO 0900/0904 -RA SCT019 BKN080 BECMG 0909/0912 NSW FEW023 SCT090
HKMO,TAF HKMO 081100Z 0812/0918 20010KT 9999 SCT022 BKN080 TEMPO 0900/0904 -SHRA FEW019CB SCT020 BKN080 BECMG 0910/0913 NSW FEW023 SCT090
HKNW,TAF HKNW 081100Z 0812/0912 12010KT 9999 FEW026 BECMG 0820/0823 VRB02KT CAVOK BECMG 0900/0903 9999 FEW008 BKN016 BECMG 0907/0910 12010KT SCT026
HLGD,TAF HLGD 081100Z 0812/0912 36014KT 8000 SCT030 BECMG0900/0902 VRB02KT
HLGT,TAF HLGT 081100Z 0812/0912 36008KT 8000 NSC BECMG0900/0902 VRB02KT
HLKF,TAF HLKF 081100Z 0812/0912 33010KT 6000 FEW040 SCT120
HLLB,TAF HLLB 081100Z 0812/0912 36014KT 8000 FEW030 SCT080
HLLM,TAF HLLM 081100Z 0812/0912 06010KT 8000 NSC BECMG0900/0902 VRB02KT
HLLQ,TAF HLLQ 081100Z 0812/0912 VRB02KT 8000 SCT025 SCT070
HLLS,TAF HLLS 081100Z 0812/0912 36010KT 8000 NSC BECMG0818/0820 VRB02KT BECMG0900/0902 06010KT
HLMS,TAF HLMS 081100Z 0812/0912 06010KT 8000 SCT030 BECMG0818/0820 VRB02KT
HLON,TAF HLON 081100Z 0812/0912 32010KT 6000 NSC BECMG0900/0902 VRB02KT
HLTD,TAF HLTD 081100Z 0812/0912 VRB02KT 8000 NSC
HLTQ,TAF HLTQ 081100Z 0812/0912 36010KT 8000 SCT025 SCT070 BECMG0900/0902 30012KT
HLUB,TAF HLUB 081100Z 0812/0912 07010KT 8000 NSC
HRYR,HRYR 081100Z 0812/0918 15012KT 9999 SCT025 BECMG 0819/0822 32006KT BECMG 0910/0914 17010KT BKN025
HSSJ,TAF HSSJ 081100Z 0812/0918 VRB15KT 9999 SCT030 BKN120 PROB40 TEMPO 0813/0819 6000 -TSRA FEW045CB BKN090 TEMPO 0819/0901 VRB05KT 8000 ?RA SCT030 TEMPO 0901/0907 VRB07KT 9999 FEW040 SCT140
HTAR,TAF HTAR 081100Z 0812/0912 12010KT 9999 BKN036 BECMG 0814/0817 FEW038
HTDA,TAF HTDA 081100Z 0812/0918 16010KT 9999 BKN017 FEW018CB TEMPO 0812/0815 5000 RA BECMG 0817/0819 9999 NSW SCT014
HTDO,TAF HTDO 081100Z 0812/0912 09010KT 9999 SCT027 BKN090
HTKA,TAF HTKA 081100Z 0812/0912 24010KT FEW025 FEW025 BECMG 0812/0816 00000KT
HTKJ,TAF HTKJ 081100Z 0812/0912 10010KT 9999 BKN025 BECMG 0822/0824 00000KT
HTMW,TAF HTMW 081100Z 0812/0912 32010KT 9999 FEW026 FEW027CB BECMG 0818/0820 13010KT
HTTB,TAF HTTB 081100Z 0812/0912 10010KT 9999 FEW026
HTZA,TAF HTZA 081100Z 0812/0912 15015KT 9999 SCT020 SCT080 BECMG 0902/0904 21010KT BKN012
HUEN,TAF HUEN 081100Z 0812/0918 18010KT 9999 FEW025 FEW027CB BECMG 0819/0823 27005KT SCT019 FEW020CB BECMG 0906/0909 VRB11KT 9000 -RA BKN021 FEW023CB
HUSO,TAF HUSO 081100Z 0812/0912 25007KT 9000 -TSRA BKN019 FEW021CB FM 081700 FEW018 FEW020CB BKN100 BECMG 0902/0906 07003KT FEW018 BECMG 0908/0912 23005KT BKN021 FEW023CB
KABE,KABE 081120Z 0812/0912 30005KT 4SM HZ FEW150 TEMPO 0812/0814 1 1/2SM HZ FU FM081800 30010G17KT 5SM HZ BKN080 FM082200 33008KT 5SM HZ SCT070 FM090600 VRB03KT 6SM HZ BKN080
KABI,KABI 081120Z 0812/0912 VRB06KT P6SM BKN250 FM082300 VRB06KT P6SM SKC FM090700 16007KT P6SM SKC
KABQ,KABQ 081132Z 0812/0912 36007KT P6SM SKC FM082000 24007KT P6SM FEW250 FM090300 15006KT P6SM SCT250
KABR,KABR 081123Z 0812/0912 VRB05KT P6SM SCT250 TEMPO 0812/0813 3SM BR FM081500 09008KT P6SM SCT250 FM090300 12006KT P6SM BKN100
KABY,KABY 081120Z 0812/0912 23005KT P6SM SCT007 TEMPO 0812/0813 6SM BR BKN007 FM081400 28009KT P6SM SCT050 FM090200 29003KT P6SM VCSH BKN070 BKN120 FM090600 32003KT P6SM SCT060
KACK,KACK 081120Z 0812/0912 00000KT P6SM OVC080 FM081800 21006KT P6SM FEW250 FM090200 15004KT 6SM BR SCT120 FM090600 19004KT 5SM BR BKN090
KACT,KACT 081120Z 0812/0912 VRB04KT P6SM FEW100 BKN250 FM081700 24007KT P6SM VCTS SCT070CB FM082000 16005KT P6SM BKN250
KACV,KACV 081127Z 0812/0912 31003KT 6SM BR BKN004 OVC010 FM081600 30006KT P6SM FEW007 OVC012 FM090300 31002KT P6SM FEW005 OVC010 FM091100 VRB02KT 4SM BR BKN004 OVC008
KACY,KACY 081120Z 0812/0912 02005KT 5SM HZ FEW150 TEMPO 0812/0816 1SM HZ FU FM081600 32008KT 5SM HZ FEW080 FM081900 18010KT 5SM HZ BKN090 FM082200 18008KT P6SM SCT090 FM090300 VRB04KT P6SM BKN080
KADF,KADF 081121Z 0812/0912 30004KT 4SM BR FEW250 FM081400 31006KT P6SM FEW060 SCT120 PROB30 0823/0904 6SM -TSRA BR BKN050CB FM090400 VRB02KT P6SM OVC120
KADW,TAF AMD KADW 081110Z 0811/0915 30008KT 2400 HZ BKN040 BKN100 QNH2965INS BECMG 0812/0813 33008KT 4800 HZ FU BKN040 QNH2964INS BECMG 0823/0824 32005KT 6000 HZ BKN040 BKN100 QNH2968INS BECMG 0912/0913 33008KT 4800 HZ FU BKN040 QNH2977INS TX25/0820Z TN13/0811Z
KAEG,KAEG 081132Z 0812/0912 34006KT P6SM SKC FM081900 19009KT P6SM FEW250 FM090600 31006KT P6SM SCT250
KAEX,KAEX 081121Z 0812/0912 VRB03KT P6SM SCT250 FM082000 30007KT P6SM VCTS FEW050CB SCT250 FM090200 VRB03KT P6SM SCT250
KAFF,TAF KAFF 081100Z 0811/0917 35008KT 9999 FEW060 BKN120 QNH3007INS BECMG 0816/0817 07009KT 9999 SCT060 BKN200 QNH3005INS WND 010V160 BECMG 0820/0821 11012KT 9999 VCTS BKN060CB BKN150 QNH3002INS WND 010V160 TEMPO 0822/0901 VRB20G30KT 6000 -TSRA BKN050CB BECMG 0900/0901 VRB15G25KT 6000 -SHRA VCTS BKN050CB QNH3004INS BECMG 0908/0909 34007KT 9999 NSW SCT070 BKN200 QNH3010INS WND 16008KT AFT 0915 TX22/0821Z TN08/0812Z
KAFW,KAFW 081120Z 0812/0912 VRB04KT P6SM VCSH BKN060 FM081300 VRB04KT P6SM SCT100 BKN250 FM082000 24007KT P6SM VCTS SCT070CB FM090200 16004KT P6SM BKN250
KAGC,KAGC 081141Z 0812/0912 32003KT P6SM FEW250 FM081500 33009KT P6SM SCT200 FM090400 31003KT 6SM HZ SCT070
KAGS,KAGS 081130Z 0812/0912 00000KT P6SM FEW040 BKN100 FM081400 32006KT P6SM SCT035 BKN080 FM082100 35005KT P6SM VCSH SCT040 SCT100 FM090300 VRB03KT P6SM FEW100
KAHN,KAHN 081308Z 0813/0912 30002KT 5SM BR OVC070 FM081500 30006KT P6SM FEW050 BKN090 FM081900 32010G20KT P6SM SCT060 FM082300 35007KT P6SM FEW060 FEW250 FM090300 02006KT P6SM FEW200
KAIA,KAIA 081225Z 0812/0912 00000KT 5SM BR SKC FM081500 16009KT P6SM FEW060 FM082300 16008KT P6SM VCTS SCT060CB FM090400 17007KT P6SM SCT100
KALB,KALB 081312Z 0813/0912 VRB03KT 2SM HZ FU VCSH OVC060 FM081500 33005KT 4SM HZ VCSH BKN025 OVC035 FM081800 32006KT 6SM HZ VCSH BKN035 TEMPO 0821/0824 3SM -SHRA BR BKN025 FM090000 32004KT 6SM HZ VCSH SCT025 OVC040 FM090600 VRB03KT 5SM HZ VCSH OVC040
KALI,KALI 081121Z 0812/0912 25010KT P6SM SCT050 OVC120 FM081500 20006KT P6SM SCT030 BKN150 FM081800 12008KT P6SM SCT050 BKN250 FM082200 12011KT P6SM VCTS SCT060CB BKN250 FM090300 14006KT P6SM SCT150 BKN250 FM090900 VRB03KT 4SM BR SCT250
KALO,KALO 081127Z 0812/0912 14005KT P6SM SCT090 FM081400 17005KT P6SM FEW250
KALS,KALS 081211Z 0812/0912 VRB04KT P6SM SCT150 BKN200 TEMPO 0812/0813 1SM BR SCT002 FM082000 22012KT P6SM SCT120 SCT200 FM090600 10012KT P6SM SCT200
KALW,KALW 081229Z 0812/0912 14006KT P6SM BKN150 TEMPO 0812/0814 -SHRA OVC100 FM081700 21006KT P6SM BKN100 FM082300 13006KT P6SM BKN100 FM090600 15008KT P6SM BKN050
KAMA,KAMA 081135Z 0812/0912 28008KT P6SM SCT250 FM090200 13006KT P6SM FEW250
KANB,KANB 081120Z 0812/0912 02005KT 6SM HZ SCT110 FM081400 34008KT 5SM HZ SCT060 FM090200 01006KT P6SM FEW250
KAND,KAND 081135Z 0812/0912 01003KT P6SM SCT022 BKN060 TEMPO 0812/0814 BKN022 FM081500 32007KT P6SM FEW040 SCT050 FM090200 03006KT P6SM FEW060
KAOO,KAOO 081139Z 0812/0912 31003KT 3SM FU BKN035 FM081400 34007KT 6SM FU BKN100 FM082000 32009G15KT P6SM VCSH OVC050 FM082200 32004KT 6SM HZ BKN100 FM091000 27003KT 6SM HZ OVC020
KAPA,KAPA 081123Z 0812/0912 22006KT P6SM FEW100 SCT220 FM081500 VRB06KT P6SM FEW100 SCT220 FM081900 07007KT P6SM SCT080 SCT150 FM082200 12007KT P6SM VCTS SCT080CB BKN150 FM090200 05007KT P6SM VCSH SCT080 SCT150 FM090400 19008KT P6SM SCT080 SCT150
KAPC,KAPC 081221Z 0812/0912 27006KT P6SM SCT018 FM081700 23013KT P6SM SKC FM090500 27008KT P6SM SCT250 FM090700 26011KT P6SM BKN025
KAPF,KAPF 081120Z 0812/0912 22005KT P6SM FEW030 FM081400 23012G18KT P6SM VCTS SCT030CB BKN050 FM082200 23007KT P6SM SCT030 SCT080 FM090600 VRB05KT P6SM FEW030
KAPN,KAPN 081136Z 0812/0912 35007KT P6SM FEW250 FM081700 02009G16KT P6SM BKN060 FM090200 33006KT P6SM SCT070 FM090500 32003KT P6SM FEW250
KARA,KARA 081123Z 0811/0912 VRB03KT P6SM SCT250 FM082000 25007KT P6SM VCTS FEW040CB SCT250 PROB30 0821/0823 4SM TSRA BR BKN050CB FM090200 VRB03KT P6SM SCT250
KART,KART 081120Z 0812/0912 VRB03KT 3SM BR BKN040 TEMPO 0812/0815 2SM FU BKN025 FM081500 02008KT 6SM HZ BKN025 FM081800 02008KT 6SM HZ BKN035 FM082300 01006KT P6SM BKN050 FM090400 VRB03KT P6SM BKN060
KASD,KASD 081134Z 0812/0912 VRB04KT P6SM FEW025 FM081500 31005KT P6SM SCT030 FM082000 26005KT P6SM VCTS SCT040CB FM090100 VRB03KT P6SM FEW025
KASE,KASE 081120Z 0812/0912 VRB04KT P6SM SCT250 FM081800 33007KT P6SM SCT100 FM082100 24008KT P6SM VCSH BKN080 FM090200 19004KT P6SM SCT100
KASN,KASN 081120Z 0812/0912 02005KT 5SM HZ SCT110 FM081400 34008KT 5SM HZ SCT060 FM090200 01006KT P6SM FEW250
KAST,KAST 081120Z 0812/0912 22006KT P6SM OVC018
KATL,KATL 081131Z 0812/0918 32006KT P6SM SCT070 BKN150 FM081700 32010G20KT P6SM FEW070 FM090100 34008KT P6SM FEW250 FM090400 02006KT P6SM FEW200 FM091300 06005KT P6SM FEW150
KATW,KATW 081122Z 0812/0912 VRB04KT P6SM FEW250 FM081400 01010KT P6SM FEW250 FM082100 05009KT P6SM FEW250 FM090100 VRB04KT P6SM FEW250
KATY,KATY 081123Z 0812/0912 10007KT P6SM BKN250 FM090300 13009KT P6SM BKN100
KAUG,KAUG 081121Z 0812/0912 33004KT P6SM OVC007 FM081400 VRB05KT P6SM BKN025 FM082000 VRB03KT P6SM BKN040 FM090300 VRB03KT P6SM OVC008
KAUS,KAUS 081121Z 0812/0918 VRB02KT P6SM BKN250 FM081600 23004KT P6SM SCT040 BKN250 TEMPO 0819/0822 VRB15G30KT 3SM TSRA SCT040CB OVC070 FM090000 VRB03KT P6SM FEW060 SCT250
KAUW,KAUW 081122Z 0812/0912 VRB03KT P6SM FEW250 FM081400 36006KT P6SM FEW250 FM090100 VRB03KT P6SM FEW250
KAVL,KAVL 081135Z 0812/0912 34007KT P6SM FEW035 BKN060 FM081700 34010KT P6SM FEW050 FM090100 34004KT P6SM SKC
KAVP,KAVP 081142Z 0812/0912 31005KT 6SM FU BKN080 TEMPO 0812/0815 2SM FU FM090000 VRB03KT P6SM BKN050
KAXN,KAXN 081129Z 0812/0912 10010KT P6SM BKN080 TEMPO 0812/0814 5SM -SHRA BR BKN050
KAZO,KAZO 081141Z 0812/0912 VRB04KT 5SM HZ SKC FM081530 35007KT 6SM HZ SKC FM082000 32009KT P6SM FEW250 FM082100 31013KT P6SM FEW250 FM090100 31007KT P6SM FEW250 FM090300 31005KT P6SM SKC
KBAB,TAF KBAB 081045Z 0811/0917 14009KT 9999 OVC060 QNH2996INS BECMG 0814/0815 17009KT 9999 SCT080 QNH2991INS BECMG 0900/0901 16012KT 9999 FEW080 QNH2990INS TX28/0823Z TN14/0812Z
KBAD,TAF KBAD 081200Z 0812/0918 29006KT 9999 SKC QNH2974INS BECMG 0820/0821 30008KT 9999 VCTS SCT055CB BKN250 QNH2973INS BECMG 0901/0902 01005KT 9999 NSW BKN250 QNH2973INS TX32/0821Z TN20/0812Z
KBAF,KBAF 081120Z 0812/0912 00000KT 4SM HZ OVC045 FM081800 31005KT P6SM VCSH BKN040 FM090000 00000KT P6SM BKN060 FM090600 00000KT 5SM BR BKN050
KBAM,KBAM 081120Z 0812/0912 VRB06KT P6SM FEW120 FM081800 20010KT P6SM VCTS SCT100CB BKN200 TEMPO 0822/0901 VRB10G30KT 3SM -TSRA BKN080CB FM090100 VRB05KT P6SM FEW120 BKN200
KBBD,KBBD 081120Z 0812/0912 VRB05KT P6SM SCT250 FM081800 27006KT P6SM VCTS SCT150CB FM082200 33006KT P6SM SCT250 FM090100 VRB05KT P6SM SKC
KBBG,KBBG 081120Z 0812/0912 VRB04KT P6SM BKN150 FM081800 36006KT P6SM SCT050 BKN100 TEMPO 0818/0822 4SM TSRA BR SCT025 BKN050CB OVC100 FM090200 VRB04KT P6SM OVC150
KBCB,KBCB 081152Z 0812/0912 VRB03KT P6SM SKC FM081400 32007KT P6SM SKC FM081800 31008G18KT P6SM SCT060 FM082300 32005KT P6SM SKC FM090300 00000KT P6SM SKC
KBCE,KBCE 081120Z 0812/0912 27008KT P6SM FEW150 FM081700 18011G22KT P6SM FEW150 FM082300 21011G22KT P6SM FEW150 FM090400 27005KT P6SM FEW180
KBDL,KBDL 081120Z 0812/0918 30003KT 5SM HZ BKN045 OVC060 FM081800 29004KT P6SM VCSH BKN045 FM090200 33003KT P6SM BKN080 FM091600 02003KT P6SM -SHRA BKN050
KBDN,KBDN 081120Z 0812/0912 VRB04KT P6SM BKN120 FM081900 34008KT P6SM BKN100 FM082100 30007KT P6SM SCT080 BKN100 TEMPO 0821/0824 -SHRA OVC050 FM090000 30010KT P6SM OVC080
KBDR,KBDR 081138Z 0812/0912 VRB03KT 5SM FU HZ VV045 FM081300 29006KT 5SM FU HZ VV040 TEMPO 0813/0815 3SM FU HZ VV040 FM081500 21008KT 5SM FU HZ VV040 TEMPO 0815/0818 3SM FU HZ VV040 FM081800 20008KT 5SM FU HZ VV040 PROB30 0823/0824 SHRA FM090100 VRB03KT 5SM FU HZ VV040 FM090800 VRB03KT 6SM FU HZ VV050
KBED,KBED 081120Z 0812/0912 00000KT P6SM OVC060 FM081400 27003KT P6SM OVC045 FM082100 10005KT P6SM VCSH OVC045 FM090200 00000KT P6SM BKN070 FM091000 02003KT P6SM OVC030
KBFD,KBFD 081139Z 0812/0912 33003KT 3SM FU BKN080 FM081500 32005KT 4SM HZ VCSH OVC025 FM081700 33006KT 6SM -SHRA HZ OVC050 FM090100 VRB03KT 4SM HZ OVC050 FM090500 VRB02KT 2SM HZ OVC050
KBFF,KBFF 081120Z 0812/0912 33006KT P6SM SKC FM081700 15008KT P6SM SKC FM082100 13008KT P6SM VCTS SCT080CB FM090400 VRB04KT P6SM SCT150
KBFI,KBFI 081132Z 0812/0912 20005KT P6SM BKN120 FM082000 23006KT P6SM BKN120 FM090600 20006KT P6SM BKN150
KBFL,KBFL 081120Z 0812/0912 34005KT P6SM BKN250 FM081700 29006KT P6SM OVC250
KBFM,KBFM 081129Z 0812/0912 28003KT P6SM SKC FM081500 02004KT P6SM SCT025 SCT060 FM081800 14007KT P6SM VCTS SCT050CB SCT130 FM090100 25003KT P6SM FEW050 SCT250
KBGM,KBGM 081314Z 0813/0912 28004KT 3SM BR OVC035 TEMPO 0813/0815 -SHRA BKN025 FM081500 31007KT 6SM -SHRA FU BKN035 FM081900 33007KT 6SM -SHRA HZ BKN040 FM082300 33005KT P6SM BKN040 FM090900 32004KT P6SM BKN025
KBGR,KBGR 081120Z 0812/0912 03003KT 4SM -SHRADZ BR OVC004 FM081400 07004KT 6SM -SHRADZ OVC015 FM081900 12004KT 6SM -SHRA OVC025 FM090700 VRB02KT 3SM BR OVC009
KBHB,KBHB 081305Z 0813/0912 08004KT 5SM -DZ BKN003 FM081600 11006KT 6SM -DZ VCSH BKN035 FM090000 VRB03KT 6SM BR SCT006 FM090300 VRB02KT 4SM BR BKN006
KBHM,KBHM 081120Z 0812/0912 02005KT 6SM HZ SCT110 FM081500 34008KT 5SM HZ SCT060 FM090200 01006KT P6SM FEW250
KBIF,TAF KBIF 080600Z 0806/0912 20009KT 9999 SKC QNH2996INS BECMG 0821/0822 20009G15KT 9999 FEW080 QNH2993INS BECMG 0903/0905 22009KT 9999 SCT080 TX33/0822Z TN13/0812Z
KBIH,KBIH 081120Z 0812/0912 33006KT P6SM FEW100 FM082000 17008KT P6SM SCT100 FM082300 34015G25KT P6SM VCTS BKN100CB FM090500 33006KT P6SM SCT100
KBIL,KBIL 081131Z 0812/0912 VRB06KT P6SM VCTS BKN060CB BKN200 FM081300 VRB06KT P6SM BKN060 FM081900 07009KT P6SM -SHRA VCTS BKN050CB FM090600 35008KT P6SM OVC100
KBIS,KBIS 081309Z 0813/0912 12004KT P6SM SKC FM081400 10007KT P6SM SKC FM082000 09007KT 6SM SHRA BR VCTS BKN070CB FM090300 06004KT P6SM VCTS BKN050CB
KBIX,TAF KBIX 081100Z 0811/0917 VRB06KT 8000 BR FEW040 FEW055 BKN080 QNH2979INS BECMG 0818/0819 VRB06KT 9000 -SHRA FEW045 FEW065 SCT090 QNH2979INS TEMPO 0818/0823 24018G25KT 4800 TSRA SCT040CB BKN065 OVC080 BECMG 0822/0823 25009KT 9999 NSW FEW045 FEW065 BKN090 QNH2974INS TX29/0818Z TN23/0811Z
KBJC,KBJC 081123Z 0812/0912 VRB05KT P6SM FEW080 SCT220 FM081700 08006KT P6SM FEW080 SCT150 FM082200 11007KT P6SM VCTS SCT080CB BKN150 FM090200 27006KT P6SM SCT080 SCT150
KBJI,KBJI 081120Z 0812/0912 13007KT P6SM BKN060 FM090100 VRB05KT P6SM SCT060 BKN150
KBKE,KBKE 081122Z 0812/0912 VRB03KT P6SM VCSH OVC060 TEMPO 0814/0818 -SHRA BKN040 FM081800 33009KT P6SM -SHRA OVC040 TEMPO 0820/0824 5SM -TSRA OVC050CB FM090000 28007KT P6SM OVC040 PROB30 0900/0906 5SM -TSRA OVC040CB FM090600 VRB04KT P6SM BKN120
KBKF,TAF KBKF 080900Z 0809/0915 VRB06KT 9999 FEW045 FEW110 QNH3000INS TX23/0823Z TN12/0812Z
KBKW,KBKW 081133Z 0812/0912 00000KT 3SM BR SCT002 FM081230 34007KT 6SM HZ SKC FM081800 32009G16KT 6SM HZ FEW200 FM090000 00000KT 6SM HZ FEW080
KBLF,KBLF 081120Z 0812/0912 27006KT 4SM BR OVC002 FM081500 30007KT P6SM SCT008 FM081700 32008G18KT P6SM SKC FM082100 31007KT P6SM SKC FM090100 VRB03KT P6SM SKC
KBLH,KBLH 081120Z 0812/0912 19005KT P6SM SCT250 FM082000 19012KT P6SM BKN250 FM090700 18005KT P6SM SCT250
KBLI,KBLI 081132Z 0812/0912 19013G23KT P6SM FEW250 FM090600 18014G21KT P6SM OVC120
KBLV,TAF KBLV 080800Z 0808/0914 04006KT 9999 SKC QNH2981INS TX25/0821Z TN13/0811Z
KBMG,KBMG 081120Z 0812/0912 02005KT P6SM FEW250 FM081800 03007KT 6SM HZ SCT250 FM090100 03004KT P6SM FEW250
KBMI,KBMI 081120Z 0812/0912 04007KT P6SM FEW250 FM081700 04007KT P6SM FEW060 FEW250 FM090100 VRB05KT P6SM FEW250
KBNA,KBNA 081135Z 0812/0912 34003KT 2SM BR SKC FM081300 04005KT 6SM HZ SCT050 SCT250
KBNO,KBNO 081122Z 0812/0912 VRB05KT P6SM -SHRA OVC060 FM081800 27010KT P6SM -SHRA OVC040 TEMPO 0820/0824 5SM -TSRA OVC060CB FM090000 VRB04KT P6SM VCSH OVC040 PROB30 0900/0906 -TSRA BKN040CB
KBOI,KBOI 081122Z 0812/0912 14008KT P6SM SCT060 BKN080 TEMPO 0812/0816 -SHRA BKN060 FM082000 32008KT P6SM SCT060 BKN120 TEMPO 0900/0904 VRB25G35KT -TSRA BKN060CB FM090400 15008KT P6SM SCT060 BKN120
KBOS,KBOS 081120Z 0812/0918 32005KT P6SM BKN060 FM081500 09010KT P6SM BKN045 FM081800 09010KT P6SM VCSH BKN045 FM082100 06010KT P6SM VCSH BKN045 FM091000 02004KT P6SM OVC027 FM091300 05005KT P6SM VCSH BKN020
KBPI,KBPI 081121Z 0812/0912 VRB06KT P6SM FEW070 SCT100 FM082000 19010KT P6SM VCTS SCT070CB BKN100 FM090300 35008KT P6SM SCT120
KBPK,KBPK 081120Z 0812/0912 VRB02KT P6SM BKN100 OVC250 TEMPO 0812/0813 5SM BR FM081400 VRB05KT P6SM VCSH SCT050 OVC100 FM081700 10005KT 6SM -SHRA BR VCTS BKN050CB OVC100 TEMPO 0819/0823 5SM -TSRA BR OVC050CB FM090200 VRB02KT P6SM OVC100
KBPT,KBPT 081121Z 0812/0912 VRB03KT P6SM SCT250 FM081900 25007KT P6SM VCTS FEW040CB SCT250 PROB30 0821/0823 4SM TSRA BR OVC035CB FM090200 VRB03KT P6SM SCT250
KBRD,KBRD 081128Z 0812/0912 08004KT P6SM VCSH BKN050 OVC100 FM081600 12006KT P6SM BKN100 FM082200 12005KT P6SM SCT100 FM090700 VRB02KT P6SM BKN060
KBRL,KBRL 081120Z 0812/0912 09009KT P6SM SKC FM081500 04009KT P6SM SCT250 FM090000 03004KT P6SM SKC
KBRO,KBRO 081300Z 0813/0912 35010G16KT P6SM RA SCT050 OVC100 FM081400 VRB05KT P6SM SCT100 BKN250 FM081800 14010KT P6SM FEW035 FM090200 16005KT P6SM SKC
KBTL,KBTL 081141Z 0812/0912 VRB04KT 5SM HZ SKC FM081530 35008KT 6SM HZ SKC FM082100 32008KT P6SM SCT250 FM082200 31012KT P6SM SCT250 FM090200 30006KT P6SM FEW250 FM090700 05005KT P6SM FEW250
KBTM,KBTM 081120Z 0812/0912 33003KT P6SM BKN090 FM081900 05008KT P6SM -SHRA VCTS BKN060CB FM082100 10015KT 4SM -TSRA BKN080CB FM090000 22009KT P6SM -SHRA VCTS BKN100CB PROB30 0900/0903 P6SM TS BKN050CB FM090400 VRB06KT P6SM VCSH OVC070
KBTR,KBTR 081134Z 0812/0912 00000KT P6SM FEW025 FM081600 31005KT P6SM SCT040 FM082100 27006KT P6SM VCTS SCT040CB FM090100 VRB03KT P6SM SCT250
KBTV,KBTV 081133Z 0812/0912 35005KT P6SM VCSH BKN025 OVC070 TEMPO 0812/0814 SCT025 BKN035 OVC070 FM081400 34006KT P6SM VCSH BKN035 OVC070 FM081800 34007KT P6SM -SHRA OVC040 FM090400 00000KT P6SM OVC035 FM090600 00000KT P6SM OVC025
KBUF,KBUF 081120Z 0812/0912 30004KT P6SM BKN040 FM081500 33006KT 6SM HZ SCT025 BKN040 FM081800 36008KT 5SM HZ FU BKN040 FM082200 35007KT 6SM HZ BKN050 FM090100 VRB03KT P6SM BKN060
KBUR,KBUR 081141Z 0812/0912 VRB03KT P6SM SCT025 FM081900 18008KT P6SM SCT040 FM090400 VRB03KT P6SM BKN035
KBVI,KBVI 081141Z 0812/0912 33004KT P6SM FEW250 FM081600 34009KT P6SM SCT080 FM090000 34006KT 6SM HZ SCT080
KBVO,KBVO 081126Z 0812/0912 VRB04KT P6SM SCT250 FM081900 VRB04KT P6SM FEW070 SCT120 FM090300 VRB03KT P6SM BKN120
KBWG,KBWG 081305Z 0813/0912 00000KT P6SM SKC TEMPO 0813/0814 1/4SM FG VV002 FM081800 01006KT P6SM SKC FM090100 00000KT P6SM SKC
KBWI,KBWI 081130Z 0812/0918 01004KT 3/4SM HZ FU BKN025 FM081500 36006KT 3SM HZ SCT035 SCT250 FM081900 31007KT 6SM HZ FEW070 SCT200 FM090300 32005KT 3SM HZ SCT090
KBYI,KBYI 081127Z 0812/0912 VRB06KT P6SM BKN200 FM082000 20010KT P6SM -SHRA VCTS BKN090CB OVC150 TEMPO 0821/0901 VRB20G35KT 6SM -TSRA SCT030 BKN060CB OVC100 FM090300 22008KT P6SM SCT100 SCT200
KBZN,KBZN 081309Z 0813/0918 VRB04KT 6SM -SHRA SCT050 BKN090 TEMPO 0813/0815 4SM TSRA SCT030 BKN050CB FM081700 VRB06KT 6SM -SHRA BR SCT035 OVC050 TEMPO 0819/0823 VRB20G35KT 4SM TSRA BR BKN025CB FM090200 15005KT P6SM SCT025 BKN060 FM091000 VRB04KT 6SM BR SCT020 BKN070
KCAE,KCAE 081204Z 0812/0912 VRB03KT P6SM FEW040 BKN100 TEMPO 0812/0814 3SM BR FM081400 34006KT P6SM SCT035 OVC060 FM082100 03005KT P6SM SCT040 SCT250
KCAK,KCAK 081120Z 0812/0912 33004KT 5SM HZ SCT250 FM081800 33010KT 4SM HZ BKN070
KCAR,KCAR 081120Z 0812/0912 04007KT 6SM -SHRA OVC005 FM081800 07007KT 6SM -SHRA OVC022 FM090200 06005KT 6SM -SHRADZ BR OVC007 FM090500 05006KT 3SM -SHRADZ BR OVC007
KCBM,TAF KCBM 080900Z 0809/0915 VRB05KT 9999 SCT100 QNH2970INS BECMG 0812/0813 36006KT 9999 BKN050 QNH2970INS BECMG 0905/0906 VRB05KT 9999 BKN050 QNH2975INS TX31/0820Z TN18/0811Z
KCDC,KCDC 081120Z 0812/0912 16007KT P6SM FEW160 FM081600 23012KT P6SM SCT160 FM090400 15006KT P6SM FEW180
KCDR,KCDR 081120Z 0812/0912 23005KT P6SM SKC FM081800 14009KT P6SM SCT070 FM082300 19009KT P6SM VCSH BKN070
KCDS,KCDS 081121Z 0812/0912 VRB06KT P6SM SCT060 OVC150
KCEC,KCEC 081127Z 0812/0912 VRB02KT P6SM FEW009 OVC014 FM081800 22005KT P6SM OVC016 FM090600 VRB02KT 5SM BR FEW005 OVC008
KCEF,TAF KCEF 081205Z 0812/0918 VRB06KT 8000 HZ SCT040 BKN060 620602 620902 QNH2964INS TEMPO 0813/0816 4800 -SHRA HZ BKN040 OVC060 610607 BECMG 0815/0816 29009KT 9999 VCSH BKN060 BKN090 610603 620904 QNH2963INS TEMPO 0816/0822 27010G15KT -SHRA 610607 BECMG 0822/0823 35006KT 9999 NSW SCT040 BKN060 620602 QNH2971INS BECMG 0917/0918 01006KT 9999 VCSH SCT015 BKN040 BKN060 610603 620903 QNH2972INS TX18/0819Z TN08/0909Z
KCGI,KCGI 081153Z 0812/0912 00000KT 3SM BR FEW002 FM081230 VRB04KT P6SM FEW250 FM081500 01007KT P6SM SCT250 FM090100 03004KT P6SM SKC
KCHA,KCHA 081120Z 0812/0912 01010KT P6SM FEW070 FM090000 00000KT P6SM FEW200
KCHO,KCHO 081130Z 0812/0912 VRB03KT P6SM FEW100 FM081400 33003KT 3SM HZ BKN035 BKN150 FM081900 31005KT 6SM HZ FEW070 SCT250
KCHS,KCHS 081120Z 0812/0912 30006KT P6SM SCT035 SCT070 SCT250 FM081900 35009KT P6SM VCTS BKN040CB TEMPO 0820/0824 VRB10G15KT 5SM -TSRA BR SCT030 BKN040CB FM090200 08005KT P6SM SCT050 BKN200 FM090800 05003KT P6SM SCT040 BKN120
KCID,KCID 081120Z 0812/0912 10006KT P6SM BKN250 FM081700 06009KT P6SM SCT250 FM090000 07004KT P6SM SKC
KCIU,KCIU 081136Z 0812/0912 34006KT P6SM FEW250 FM081700 32010G16KT P6SM SCT070 FM082000 32011G17KT P6SM BKN060 FM090100 33009KT P6SM FEW250
KCKB,KCKB 081125Z 0812/0912 00000KT 6SM HZ SKC FM082100 32007KT 6SM HZ SCT080 FM090400 00000KT 6SM HZ SCT060
KCKV,KCKV 081158Z 0812/0912 00000KT 1/4SM FG VV002 FM081400 03004KT 5SM HZ SCT250
KCLE,KCLE 081120Z 0812/0918 34005KT 5SM HZ SCT250 FM081600 34010KT 3SM HZ BKN100
KCLL,KCLL 081122Z 0812/0912 VRB04KT P6SM FEW150 FM081600 27007KT P6SM FEW050 SCT250 FM081900 25008KT P6SM VCTS BKN045CB TEMPO 0820/0822 VRB20G30KT TSRA FM082300 VRB03KT P6SM FEW040 SCT100
KCLM,KCLM 081132Z 0812/0912 28010KT P6SM OVC005 FM081500 31008KT P6SM BKN015 FM082200 30012G22KT P6SM FEW250 FM090500 28010KT P6SM OVC120
KCLT,KCLT 081135Z 0812/0918 31004KT P6SM BKN050 OVC080 FM081400 34006KT P6SM SCT070 FM091000 36006KT P6SM SKC
KCMA,KCMA 081141Z 0812/0912 VRB03KT P6SM OVC015 FM081700 23006KT P6SM BKN025 BKN040 FM082100 24010KT P6SM SCT040 FM090700 VRB03KT P6SM BKN025
KCMH,KCMH 081139Z 0812/0912 35004KT P6SM SKC FM081400 35008KT P6SM FEW250 FM081800 35008KT P6SM SCT100 FM090000 35005KT P6SM SCT100 FM090300 05003KT P6SM SCT100
KCMI,KCMI 081120Z 0812/0912 03008KT P6SM FEW250 FM081700 04007KT P6SM FEW060 FEW250 FM090100 VRB05KT P6SM FEW250
KCMX,KCMX 081120Z 0812/0912 VRB03KT P6SM SKC FM091100 28007KT P6SM FEW250
KCNM,KCNM 081120Z 0812/0912 19010KT P6SM SCT250 FM082100 22007KT P6SM SKC
KCNU,KCNU 081120Z 0812/0912 VRB04KT P6SM SKC FM081900 09005KT P6SM -SHRA BKN050 OVC250 FM090100 29007KT P6SM BKN090
KCNY,KCNY 081120Z 0812/0912 12005KT P6SM SKC FM081800 21008KT P6SM FEW120 FM090200 12005KT P6SM FEW100
KCOD,KCOD 081121Z 0812/0912 VRB04KT P6SM SCT070 OVC090 FM081400 VRB05KT P6SM VCSH OVC070 FM082000 25007KT P6SM VCTS BKN080CB FM090300 VRB05KT P6SM SCT120
KCOE,KCOE 081124Z 0812/0912 08004KT P6SM SKC FM081900 02009KT P6SM VCTS BKN080CB BKN100 OVC200 FM082100 05011KT P6SM -SHRA VCTS SCT035 BKN070CB PROB30 0822/0904 4SM TSRA BR OVC035CB FM090600 06004KT P6SM -SHRA OVC050
KCOF,TAF KCOF 081000Z 0810/0916 26010KT 9999 SCT050 SCT100 QNH2978INS BECMG 0815/0816 26010G15KT 9999 VCTS SCT050CB BKN080 QNH2973INS TEMPO 0816/0821 20025G35KT 3200 -TSRA OVC030CB BECMG 0822/0823 21010KT 9999 NSW SCT050 SCT100 QNH2973INS BECMG 0914/0915 28010KT 9999 VCSH BKN050 QNH2979INS TX29/0818Z TN23/0810Z
KCON,KCON 081121Z 0812/0912 VRB03KT P6SM BKN050
KCOS,KCOS 081126Z 0812/0912 VRB04KT P6SM FEW120 SCT250 FM081600 15010KT P6SM SCT080 BKN200 FM082200 15012KT P6SM VCTS SCT050CB BKN080 TEMPO 0901/0904 VRB15G30KT 5SM -TSRA BKN030CB FM090500 35009KT P6SM SCT080 BKN200
KCOT,KCOT 081121Z 0812/0912 14008KT P6SM SCT120 OVC250 FM081600 16004KT P6SM SCT030 BKN250 FM082200 11007KT P6SM VCTS SCT060CB BKN250 FM090300 12008KT P6SM SCT250 FM090800 13004KT P6SM SKC
KCOU,KCOU 081120Z 0812/0912 09007KT P6SM BKN100 FM082100 06007KT P6SM FEW120 SCT250
KCPR,KCPR 081121Z 0812/0912 22007KT P6SM FEW060 FM081900 24009KT P6SM VCTS BKN060CB FM090300 24007KT P6SM SCT120
KCPS,KCPS 081120Z 0812/0912 07005KT P6SM FEW120 SCT250 FM081700 02008KT P6SM SCT250 FM090200 VRB03KT P6SM FEW250
KCRE,KCRE 081135Z 0812/0912 VRB03KT P6SM BKN045 TEMPO 0812/0814 5SM RA BR FM081800 30004KT P6SM BKN070 FM090300 00000KT P6SM SCT120
KCRG,KCRG 081120Z 0812/0912 26010G15KT P6SM SCT020 SCT040 SCT250 TEMPO 0812/0813 BKN020 FM081800 25012G18KT P6SM VCTS SCT050CB SCT100 BKN250 FM090000 23008KT P6SM FEW050 SCT150 BKN250 FM090900 23007KT P6SM SCT010 SCT020 BKN250
KCRP,KCRP 081121Z 0812/0912 25011KT P6SM SCT020 OVC250 FM081400 20006KT P6SM SCT030 BKN250 FM081800 12008KT P6SM SCT045 BKN250 FM082200 12011KT P6SM VCTS SCT050CB BKN250 FM090300 14006KT P6SM SCT150 BKN250 FM091000 VRB04KT 5SM BR SCT250
KCRQ,KCRQ 081137Z 0812/0912 VRB03KT P6SM OVC018 FM081700 25006KT P6SM SCT022 BKN030 FM082000 26009KT P6SM SCT022 FM090200 27005KT P6SM BKN022 FM090500 VRB04KT P6SM OVC015
KCRW,KCRW 081125Z 0812/0912 00000KT 5SM BR FEW001 FM081230 31004KT 6SM HZ FEW200 FM082300 34004KT 6SM HZ FEW080
KCSG,KCSG 081131Z 0812/0912 30004KT P6SM FEW070 FEW250 FM081800 29010G20KT P6SM SCT070 FM090100 33006KT P6SM FEW250 FM091000 02004KT P6SM SCT250
KCSM,KCSM 081130Z 0812/0912 20007KT P6SM SCT100 SCT250
KCSV,KCSV 081135Z 0812/0912 05004KT 4SM BR OVC004 FM081400 01005KT 6SM HZ SCT230
KCTB,KCTB 081140Z 0812/0912 02007KT P6SM SCT090 BKN200 FM081800 06009KT 6SM -SHRA BR SCT040 BKN070 TEMPO 0820/0824 VRB28G45KT 3SM TSRA BR BKN025CB FM090000 07009KT 6SM SHRA BR SCT015 OVC025 PROB30 0900/0906 VRB28G45KT 2SM TSRA BR OVC012CB FM090600 08008KT 6SM -SHRA BR SCT010 OVC018
KCUB,KCUB 081204Z 0812/0912 00000KT P6SM FEW040 BKN100 TEMPO 0812/0814 5SM BR FM081400 34005KT P6SM SCT035 OVC060 FM082100 VRB03KT P6SM SCT040 SCT250
KCVG,KCVG 081139Z 0812/0918 03004KT 5SM HZ FEW100 FM081400 03006KT P6SM SKC FM081800 35008KT P6SM FEW250 FM090000 32004KT P6SM FEW250
KCVS,TAF KCVS 081000Z 0810/0916 VRB06KT 9999 FEW100 SCT150 QNH2995INS BECMG 0815/0816 22010KT 9999 FEW120 QNH3000INS BECMG 0818/0819 20012G20KT 9999 FEW120 QNH2996INS BECMG 0902/0903 18008KT 9999 SKC QNH2993INS BECMG 0909/0910 VRB06KT 9999 FEW150 QNH2996INS BECMG 0913/0914 25010KT 9999 SKC QNH2998INS TX28/0822Z TN14/0811Z
KCWA,KCWA 081122Z 0812/0912 VRB03KT P6SM FEW250 FM081400 01006KT P6SM FEW250 FM090100 VRB03KT P6SM FEW250
KCXO,KCXO 081122Z 0812/0912 VRB05KT P6SM FEW250 FM081700 28006KT P6SM SCT040 FM082100 25008KT P6SM VCTS BKN050CB PROB30 0821/0824 VRB20G30KT TSRA FM090000 VRB03KT P6SM FEW100 SCT250
KCXP,KCXP 081121Z 0812/0912 VRB03KT P6SM SCT200 FM082000 26010G16KT P6SM VCTS BKN080CB FM090400 30008KT P6SM BKN100 FM090600 VRB03KT P6SM SCT100
KCYS,KCYS 081120Z 0812/0912 31006KT P6SM FEW150 FM081800 16010KT P6SM SCT100 FM082100 15010KT P6SM VCTS BKN050CB OVC080 FM090300 27008KT P6SM SCT100
KDAA,TAF KDAA 081200Z 0812/0918 33009KT 4800 HZ FEW060 SCT085 BKN120 QNH2968INS BECMG 0913/0914 34009KT 8000 HZ FEW060 FEW085 SCT120 BKN200 QNH2977INS TX25/0820Z TN16/0812Z
KDAB,KDAB 081120Z 0812/0912 22005KT P6SM FEW040 FEW200 FM081400 25009KT P6SM SCT040 SCT120 FM081700 24009KT P6SM VCTS BKN050CB BKN250 FM082100 23007KT P6SM SCT045 BKN120 FM090200 23004KT P6SM SCT050 SCT250
KDAG,KDAG 081120Z 0812/0912 28011KT P6SM FEW100 FM090100 26016G24KT P6SM FEW100
KDAL,KDAL 081120Z 0812/0912 VRB04KT P6SM FEW060 SCT100 BKN250 FM082000 24007KT P6SM VCTS SCT070CB FM090200 16004KT P6SM BKN250
KDAN,KDAN 081120Z 0812/0912 VRB03KT P6SM FEW150 FM081400 34007KT P6SM SCT250 FM090100 31004KT P6SM SKC
KDAY,KDAY 081139Z 0812/0912 01005KT P6SM SKC FM081400 01008KT P6SM SKC FM081800 34008KT P6SM FEW100 FM090000 31005KT P6SM SCT100
KDBQ,KDBQ 081120Z 0812/0912 00000KT P6SM SKC FM081500 06008KT P6SM SCT250 FM090000 VRB02KT P6SM SKC
KDCA,KDCA 081302Z 0813/0918 04008KT 1SM HZ FU SCT015 OVC025 FM081700 34006KT 3SM HZ SCT035 SCT200 FM081900 31007KT 6SM HZ FEW070 SCT200 FM090400 33005KT 3SM HZ SCT090
KDDC,KDDC 081120Z 0812/0912 19004KT P6SM SCT150
KDEC,KDEC 081120Z 0812/0912 04007KT P6SM FEW250 FM081700 04007KT P6SM FEW060 FEW250 FM090100 VRB05KT P6SM FEW250
KDEN,KDEN 081246Z 0813/0918 23008KT P6SM BKN090 BKN110 BKN220 FM081500 VRB06KT P6SM FEW120 SCT220 FM081900 07007KT P6SM SCT080 SCT150 FM082200 12007KT P6SM VCTS SCT080CB BKN150 FM090200 05007KT P6SM VCSH SCT080 SCT150 FM090400 21008KT P6SM SCT080 SCT150 FM091700 16008KT P6SM FEW080 SCT220
KDET,KDET 081120Z 0812/0912 35006KT 5SM HZ SCT070 BKN120 FM081400 35010G17KT P6SM SCT070 BKN090 FM090100 01005KT 6SM HZ BKN100 FM090600 34003KT 5SM HZ SCT100
KDFW,KDFW 081120Z 0812/0918 VRB04KT P6SM VCSH BKN060 FM081300 VRB04KT P6SM SCT100 BKN250 FM082000 24007KT P6SM VCTS SCT070CB FM090200 16004KT P6SM BKN250
KDHN,KDHN 081120Z 0812/0912 26004KT P6SM SCT015 FM081500 30007KT P6SM SCT050
KDHT,KDHT 081135Z 0812/0912 30006KT P6SM BKN240 FM082200 11007KT P6SM SCT250
KDIJ,KDIJ 081127Z 0812/0912 VRB05KT P6SM OVC100 FM081600 21006KT P6SM VCSH FEW080 OVC150 FM081900 21010KT P6SM -SHRA VCTS BKN060CB OVC100 TEMPO 0821/0901 VRB20G35KT 6SM -TSRA SCT030 BKN060CB OVC100 FM090400 VRB06KT P6SM FEW060 SCT200 AMD LTD TO CLD VIS AND WIND
KDIK,KDIK 081123Z 0812/0912 VRB05KT P6SM FEW050 FM081900 09007KT P6SM VCTS BKN070CB
KDLF,TAF KDLF 081100Z 0811/0917 VRB06KT 9999 FEW200 QNH2981INS BECMG 0815/0816 17009KT 9999 FEW040 SCT220 QNH2975INS WND 12007KT AFT 0901 BECMG 0914/0915 16009KT 9999 FEW030 QNH2987INS TX34/0821Z TN18/0812Z
KDLH,KDLH 081128Z 0812/0912 09006KT P6SM SCT100 FM081700 11007KT P6SM SCT150 FM090400 VRB04KT P6SM SCT250
KDLS,KDLS 081120Z 0812/0912 32011G21KT P6SM SCT150 FM081600 31017G27KT P6SM SCT120 BKN150 FM090800 31015KT P6SM OVC100
KDMA,TAF KDMA 080600Z 0806/0912 VRB06KT 9999 SKC QNH2995INS BECMG 0807/0808 15009KT 9999 SKC QNH2995INS BECMG 0815/0816 25012KT 9999 SKC QNH2988INS BECMG 0902/0903 VRB06KT 9999 SKC QNH2992INS TX33/0822Z TN15/0815Z
KDMN,KDMN 081120Z 0812/0912 24008KT P6SM SKC FM082000 24010G18KT P6SM SCT250 FM090200 26009KT P6SM BKN250
KDNL,KDNL 081130Z 0812/0912 VRB03KT P6SM FEW040 BKN100 FM081400 32006KT P6SM SCT035 BKN080 FM082100 35005KT P6SM VCSH SCT040 SCT100 FM090300 VRB03KT P6SM FEW100
KDOV,TAF AMD KDOV 080957Z 0809/0914 VRB06KT 4000 FU SCT030 BKN050 QNH2963INS TEMPO 0809/0812 4800 FU BECMG 0813/0814 VRB06KT 8000 -SHRA FU BKN080 QNH2965INS TEMPO 0814/0818 6000 VCTS BKN040CB BECMG 0821/0822 VRB06KT 8000 FU SCT070 QNH2965INS BECMG 0902/0903 VRB06KT 4800 FU SCT070 QNH2972INS TX24/0818Z TN14/0809Z
KDPA,KDPA 081120Z 0812/0912 04009KT P6SM FEW250 FM090400 35004KT P6SM FEW250
KDRO,KDRO 081120Z 0812/0912 VRB04KT P6SM SKC FM081800 22007KT P6SM SKC FM090200 VRB04KT P6SM FEW200
KDRT,KDRT 081121Z 0812/0912 VRB04KT P6SM SCT250 FM081800 13006KT P6SM FEW250
KDSM,KDSM 081127Z 0812/0912 12009KT P6SM -RA BKN090 FM081500 13009KT P6SM SCT060 FM082100 10006KT P6SM FEW250
KDTW,KDTW 081120Z 0812/0918 35006KT 5SM HZ SCT070 BKN120 FM081400 35010G17KT P6SM SCT070 BKN090 FM090100 01005KT 6SM HZ BKN100 FM090600 34003KT 5SM HZ SCT100 FM091400 34008KT P6SM SKC
KDUG,KDUG 081120Z 0812/0912 VRB04KT P6SM SCT250 FM081600 19008KT P6SM BKN200 FM082000 24012G20KT P6SM OVC180 FM090300 25010KT P6SM OVC180 FM090800 VRB03KT P6SM OVC180
KDUJ,KDUJ 081146Z 0812/0912 30003KT 3SM HZ FEW040 FM081800 32009KT 6SM HZ VCSH BKN045 FM090400 35003KT 6SM HZ BKN060 FM090700 VRB02KT 2SM HZ BKN040
KDVL,KDVL 081120Z 0812/0912 11010KT 6SM BR SCT080 FM081400 12006KT P6SM VCTS BKN050CB FM081800 11006KT P6SM VCSH BKN050 FM090000 05006KT P6SM -TSRA BKN060CB FM090400 VRB05KT P6SM SCT060 BKN150
KDVT,KDVT 081120Z 0812/0912 VRB04KT P6SM FEW250 FM081800 22008KT P6SM BKN250 FM090600 VRB04KT P6SM SCT250
KDYS,TAF KDYS 081100Z 0811/0917 VRB06KT 9999 BKN070 QNH2988INS TEMPO 0811/0814 9000 -DZ BECMG 0819/0820 VRB06KT 9999 SCT080 QNH2980INS BECMG 0904/0905 17009KT 9999 FEW100 QNH2984INS BECMG 0913/0914 21009KT 9999 FEW120 QNH2989INS TX32/0823Z TN19/0811Z
KEAR,KEAR 081140Z 0812/0912 VRB06KT P6SM FEW150 FM081700 09006KT P6SM FEW150 FM082000 07007KT P6SM VCTS SCT060CB BKN150 FM090500 12005KT P6SM BKN150
KEAT,KEAT 081124Z 0812/0912 31008KT P6SM SKC FM082000 25005KT P6SM SCT080 BKN100 BKN200 PROB30 0822/0901 TSRA BKN080CB BKN100 OVC200 FM090100 12008KT P6SM -SHRA VCTS BKN080CB FM090600 33006KT P6SM OVC100
KEAU,KEAU 081129Z 0812/0912 08006KT P6SM BKN150
KECG,TAF COR KECG 081148Z 0812/0912 VRB03KT 4SM BR SCT005 TEMPO 0812/0813 1SM BR BKN005 FM081400 VRB03KT 5SM HZ BKN025 FM081600 23006KT 5SM HZ VCSH BKN040 FM082200 09007KT 5SM HZ SCT060 FM090500 VRB03KT 5SM HZ SCT250
KECP,KECP 081120Z 0812/0912 26003KT P6SM SCT015 FM081500 22008KT P6SM SCT030 FM081800 22011KT P6SM VCTS SCT030CB BKN045 FM082200 22008KT P6SM SCT045 FM090900 28003KT 5SM BR BKN006
KEDW,TAF KEDW 081345Z 0813/0919 24009KT 9999 SCT075 QNH2996INS BECMG 0820/0821 25015G25KT 9999 SCT075 520006 QNH2991INS BECMG 0903/0904 24012KT 9999 SCT075 QNH2995INS TX27/0821Z TN11/0814Z
KEED,KEED 081120Z 0812/0912 VRB06KT P6SM FEW100 FM081700 17008KT P6SM FEW100 FM082100 20012G20KT P6SM SCT100 FM090600 19008KT P6SM FEW100
KEET,KEET 081120Z 0812/0912 02005KT 5SM HZ SCT110 FM081500 34008KT 5SM HZ SCT060 FM090200 01006KT P6SM FEW250
KEFD,TAF KEFD 081200Z 0812/0918 VRB06KT 8000 BR FEW100 QNH2978INS BECMG 0822/0823 VRB06KT 9000 -SHRA FEW055 QNH2974INS BECMG 0909/0910 VRB06KT 9999 NSW SKC QNH2970INS TX32/0821Z TN22/0812Z
KEFK,KEFK 081133Z 0812/0912 00000KT 2SM -DZ OVC005 TEMPO 0812/0814 SCT005 OVC020 FM081400 35003KT P6SM VCSH OVC020 FM081800 36005KT P6SM -SHRA OVC030 FM082100 36005KT P6SM -SHRA OVC050 FM090000 VRB03KT P6SM VCSH OVC030 FM090900 00000KT P6SM OVC011
KEGE,KEGE 081120Z 0812/0912 VRB03KT P6SM BKN008 TEMPO 0812/0816 SCT010 FM081600 27005KT P6SM FEW100 SCT250 FM090200 VRB04KT P6SM SCT100
KEGI,TAF AMD KEGI 081005Z 0810/0915 17006KT 9999 SKC QNH2975INS BECMG 0812/0813 28006KT 9999 FEW060 QNH2978INS BECMG 0817/0818 29006KT 9999 VCTS SCT040CB QNH2978INS BECMG 0822/0823 24006KT 9999 NSW BKN080 QNH2978INS TX32/0821Z TN21/0906Z
KEKN,KEKN 081133Z 0812/0912 00000KT 3SM BR SCT003 FM081230 28004KT 6SM HZ FEW200 FM081600 31006KT 6SM HZ FEW200 FM090300 00000KT 5SM BR FEW070 FM090800 00000KT 1 1/2SM BR FEW015 FM090900 00000KT 3/4SM BR FEW001
KEKO,KEKO 081120Z 0812/0912 VRB04KT P6SM FEW200 FM082000 20010KT P6SM VCTS SCT100CB BKN200 TEMPO 0820/0824 VRB10G30KT 3SM -TSRA BKN080CB FM090000 VRB06KT P6SM FEW120 SCT200
KEKS,KEKS 081140Z 0812/0912 VRB03KT 6SM BR SCT060 BKN100 FM081600 VRB06KT 6SM -SHRA BR SCT035 OVC050 TEMPO 0818/0822 VRB20G35KT 4SM TSRA BR BKN025CB FM090100 17007KT P6SM SCT025 BKN060 FM090900 VRB05KT 6SM BR SCT020 SCT070
KELD,KELD 081120Z 0812/0912 31004KT P6SM FEW250 FM081600 30005KT P6SM SCT035 SCT250 FM081900 29005KT P6SM VCTS SCT050CB FM090300 VRB03KT P6SM BKN250
KELM,KELM 081142Z 0812/0912 VRB05KT 5SM FU SCT025 BKN035 TEMPO 0812/0816 -SHRA BKN025 FM081600 35006KT 6SM -SHRA HZ BKN035 FM082100 34005KT P6SM BKN050 FM091000 VRB03KT P6SM BKN030
KELP,KELP 081120Z 0812/0912 27006KT P6SM SKC FM082000 25010KT P6SM SCT250 FM090800 26010G20KT P6SM BKN250
KELY,KELY 081120Z 0812/0912 18010KT P6SM SCT150 FM081600 18007KT P6SM VCSH SCT120 BKN200 FM082000 18008KT P6SM -SHRA VCTS BKN090CB BKN200 FM090000 18008KT P6SM SCT150 BKN250
KEND,TAF KEND 081000Z 0810/0916 VRB06KT 9999 FEW050 FEW250 QNH2982INS BECMG 0819/0820 19006KT 9999 VCSH SCT050 SCT250 QNH2978INS BECMG 0900/0901 17006KT 9999 NSW FEW050 FEW250 QNH2978INS BECMG 0911/0912 15006KT 9999 SCT030 QNH2982INS TX31/0821Z TN17/0811Z
KENV,KENV 081120Z 0812/0912 VRB04KT P6SM SCT200 FM081800 15011KT P6SM SCT110 SCT200 FM082300 24014G26KT P6SM VCSH SCT110 SCT200 FM090300 30008KT P6SM FEW110 SCT200
KENW,KENW 081120Z 0812/0912 03009KT P6SM FEW250
KERI,KERI 081120Z 0812/0912 34008KT 5SM HZ BKN080 FM081500 32008KT 3SM HZ BKN050
KEUG,KEUG 081120Z 0812/0912 22005KT P6SM BKN015 FM081900 25006KT P6SM BKN025 FM082100 24008KT P6SM SCT035 BKN110 FM090000 22010KT P6SM OVC035 FM090600 22007KT P6SM OVC025
KEUL,KEUL 081122Z 0812/0912 VRB06KT P6SM SCT060 BKN080 TEMPO 0812/0816 -SHRA BKN060 FM081900 32007KT P6SM SCT080 OVC120 TEMPO 0900/0904 VRB25G35KT -TSRA BKN060CB FM090400 12007KT P6SM SCT060 BKN120
KEVV,KEVV 081132Z 0812/0912 VRB03KT P6SM SKC FM081500 36006KT P6SM FEW250 FM090100 01004KT P6SM FEW070
KEVW,KEVW 081120Z 0812/0912 17007KT P6SM FEW120 FM081900 24011G22KT P6SM VCSH SCT070 SCT120 FM082300 25011G22KT P6SM VCTS SCT060CB SCT120 FM090200 14005KT P6SM FEW120
KEWN,KEWN 081140Z 0812/0912 00000KT 5SM HZ BKN003 FM081300 VRB03KT 6SM HZ VCSH FEW005 BKN050 FM081700 27005KT 6SM HZ FEW025 BKN050 FM081900 27005KT 6SM HZ FEW025 SCT250
KEWR,KEWR 081138Z 0812/0918 33006KT 2SM FU HZ VV035 TEMPO 0812/0816 4SM FU HZ VV020 FM081700 28007KT 5SM FU HZ VV035 TEMPO 0817/0821 2SM FU HZ VV020 FM082100 12010KT 5SM FU HZ VV035 FM090200 02006KT 5SM FU HZ VV035 FM090600 35005KT 5SM FU HZ VV040 FM091100 35006KT 6SM FU HZ VV050
KEYW,KEYW 081129Z 0812/0912 21010KT P6SM SCT020 SCT080
KFAF,TAF AMD KFAF 081115Z 0811/0916 VRB06KT 0400 FG VV002 QNH2965INS TEMPO 0811/0814 0200 FG VV000 BECMG 0814/0815 VRB06KT 6000 HZ BR SCT003 OVC010 QNH2967INS BECMG 0816/0817 VRB06KT 6000 HZ BKN015 OVC060 QNH2968INS BECMG 0817/0818 VRB06KT 6000 HZ BKN025 OVC100 QNH2966INS TEMPO 0818/0820 02012G18KT 4800 -TSRA BKN020CB BECMG 0819/0820 VRB06KT 6000 -SHRA BKN020 OVC080 QNH2964INS BECMG 0823/0824 VRB06KT 8000 HZ FEW020 SCT050 OVC080 QNH2964INS TX21/0816Z TN14/0910Z
KFAR,KFAR 081120Z 0812/0912 13006KT P6SM SCT250 FM081900 15009KT P6SM SCT060 FM090100 VRB05KT P6SM BKN070
KFAT,KFAT 081120Z 0812/0912 30005KT P6SM OVC050 FM090000 30007KT P6SM BKN100
KFAY,KFAY 081120Z 0812/0912 23006KT 4SM BR SCT004 BKN080 FM081300 27007KT P6SM SCT025 SCT060 FM081700 28007KT P6SM BKN060 FM082300 29003KT P6SM SCT250
KFBG,TAF KFBG 080900Z 0809/0915 27004KT 9999 SCT120 QNH2966INS BECMG 0818/0819 29010G15KT 9999 SCT060 QNH2973INS BECMG 0823/0824 32010KT 9999 SCT070 QNH2971INS TX28/0822Z TN14/0909Z
KFCS,TAF KFCS 080500Z 0805/0911 33010KT 9999 BKN075 BKN150 QNH3006INS BECMG 0819/0820 21015G25KT 8000 -SHRA VCTS SCT030CB BKN075 QNH2999INS TEMPO 0821/0824 VRB15G30KT 8000 TSRA BKN030CB BECMG 0901/0902 32010KT 9999 VCSH BKN030 BKN075 QNH3008INS BECMG 0903/0904 35007KT 9999 NSW SCT085 QNH3002INS TX24/0821Z TN09/0911Z
KFDY,KFDY 081120Z 0812/0912 31005KT 5SM HZ SCT250 FM081600 34010KT 6SM HZ SCT250
KFFO,TAF KFFO 081100Z 0811/0917 06009KT 9000 HZ FEW070 QNH2983INS BECMG 0814/0815 01009KT 9999 NSW SCT065 QNH2978INS TEMPO 0815/0821 34010G15KT BECMG 0822/0823 VRB06KT 9999 BKN060 610803 QNH2977INS BECMG 0908/0909 35006KT 9999 FEW055 QNH2984INS TX24/0820Z TN07/0811Z
KFHU,TAF KFHU 080600Z 0806/0912 24009KT 9999 SKC QNH3007INS BECMG 0818/0819 22012KT 9999 FEW200 QNH3002INS TEMPO 0820/0901 25012G18KT 510007 BECMG 0900/0901 25009KT 9999 BKN140 621406 QNH3003INS TX30/0821Z TN13/0812Z
KFKL,KFKL 081141Z 0812/0912 33009KT P6SM BKN150 FM090500 VRB02KT 5SM HZ BKN050 FM090700 VRB02KT 2SM HZ BKN035 FM091100 33003KT 6SM HZ BKN003
KFLG,KFLG 081120Z 0812/0912 VRB05KT P6SM SKC FM081600 21010KT P6SM SKC FM081800 22012G20KT P6SM FEW100 BKN200 FM090230 23005KT P6SM SCT200
KFLL,KFLL 081120Z 0812/0918 22005KT P6SM SCT025 SCT250 FM081500 24010G18KT P6SM VCTS SCT030CB BKN050 FM090000 22008KT P6SM SCT030 SCT100 FM090800 21007KT P6SM VCSH SCT030 BKN080
KFLO,KFLO 081135Z 0812/0912 00000KT 5SM RA BR BKN080 FM081300 VRB03KT P6SM BKN070 FM082300 00000KT P6SM FEW200 FM091100 36004KT P6SM FEW200
KFMH,KFMH 081120Z 0812/0912 00000KT P6SM BKN070 FM081400 24006KT P6SM SCT110 FM082000 18004KT P6SM BKN050 FM090900 00000KT P6SM BKN021 FM091000 03003KT 6SM BR BKN017
KFMN,KFMN 081132Z 0812/0912 09006KT P6SM SKC FM081900 24009KT P6SM FEW250 FM090200 31006KT P6SM SCT220 FM090900 06007KT P6SM SCT180
KFMY,KFMY 081133Z 0812/0912 22004KT P6SM VCSH FEW040 FM081500 24009KT P6SM VCTS SCT025CB BKN120 FM081700 25013G21KT P6SM VCSH SCT030 BKN250 FM082200 24005KT P6SM SCT015 FM090600 VRB03KT P6SM BKN250
KFNT,KFNT 081120Z 0812/0912 33006KT 6SM HZ SCT080 SCT120 FM081600 35010G17KT P6SM SCT060 BKN090 FM090100 01005KT P6SM BKN100 FM090600 34003KT 6SM HZ SCT100
KFOD,KFOD 081127Z 0812/0912 14003KT 6SM -RA VCTS OVC060CB TEMPO 0812/0813 3SM -TSRA FM081400 14006KT P6SM VCSH SCT060 FM081800 14005KT P6SM FEW250
KFOE,KFOE 081120Z 0812/0912 09006KT P6SM BKN100 FM082200 08008KT P6SM VCTS BKN100CB FM090200 09005KT P6SM SCT120
KFPR,KFPR 081120Z 0812/0912 22004KT P6SM FEW040 SCT250 FM081400 24008KT P6SM SCT035 SCT130 FM081800 25009G17KT P6SM VCTS SCT050CB SCT150 FM082300 21006KT P6SM SCT045 BKN120
KFRI,TAF KFRI 081200Z 0812/0918 22006KT 9999 FEW100 QNH2980INS BECMG 0819/0820 05010G20KT 8000 -TSRA SCT030 OVC050CB QNH2975INS BECMG 0902/0903 13009KT 9999 NSW SCT050 QNH2982INS BECMG 0909/0910 12009KT 9999 BKN050 QNH2986INS TX32/0820Z TN18/0812Z
KFSD,KFSD 081120Z 0812/0912 14008KT P6SM FEW100 FM082100 11008KT P6SM SCT090 FM090800 14007KT P6SM SCT120
KFSM,KFSM 081126Z 0812/0912 VRB03KT P6SM SCT250 FM081800 VRB05KT P6SM SCT060 SCT120 FM082200 VRB06KT P6SM VCTS SCT070CB BKN120 FM090300 08003KT P6SM BKN120
KFST,KFST 081120Z 0812/0912 18011KT P6SM SCT250
KFTK,TAF KFTK 081100Z 0811/0917 32006KT 3200 BR SKC QNH2978INS BECMG 0811/0812 02006KT 9999 NSW SCT065 QNH2972INS TX24/0819Z TN12/0811Z
KFTW,KFTW 081120Z 0812/0912 VRB04KT P6SM VCSH BKN060 FM081300 VRB04KT P6SM SCT100 BKN250 FM082000 24007KT P6SM VCTS SCT070CB FM090200 16004KT P6SM BKN250
KFTY,KFTY 081131Z 0812/0912 32005KT P6SM SCT070 FM081600 32010G20KT P6SM FEW070 FEW250 FM090100 35006KT P6SM FEW200
KFVE,KFVE 081120Z 0812/0912 04008G16KT 6SM -SHRA OVC009 FM081600 06007KT 6SM -SHRA OVC020 FM090200 06007KT 6SM -DZ VCSH OVC007 FM090400 06006KT 3SM -DZ BR OVC005
KFWA,KFWA 081120Z 0812/0912 03004KT P6SM SKC FM081700 33010KT 6SM HZ FEW080 FM090200 32004KT P6SM FEW250
KFXE,KFXE 081120Z 0812/0912 20005KT P6SM SCT025 SCT080 FM081500 24010G18KT P6SM VCTS SCT025CB BKN050 FM090000 22008KT P6SM SCT030 SCT100 FM090600 VRB05KT P6SM FEW030
KFYV,KFYV 081249Z 0813/0912 VRB05KT P6SM SCT150 TEMPO 0813/0814 5SM BR FM081800 VRB05KT P6SM SCT060 SCT120 FM082200 VRB06KT P6SM VCTS SCT060CB BKN120 FM090200 VRB03KT P6SM BKN100
KGBD,KGBD 081120Z 0812/0912 VRB05KT P6SM SKC FM081900 14006KT P6SM SCT050 BKN200 FM090000 08007KT P6SM SCT170
KGCC,KGCC 081120Z 0812/0912 VRB05KT P6SM BKN100 FM081700 14008KT P6SM SCT080 TEMPO 0821/0824 5SM TSRA BKN025CB
KGCK,KGCK 081120Z 0812/0912 14005KT P6SM SCT150
KGCN,KGCN 081120Z 0812/0912 VRB05KT P6SM SKC TEMPO 0812/0814 5SM FU FM081700 21009KT P6SM SKC FM081900 22012G20KT P6SM FEW110 SCT200 FM090230 VRB04KT P6SM SCT200
KGDV,KGDV 081125Z 0812/0912 VRB05KT P6SM FEW090 FM081900 08008KT P6SM FEW100 PROB30 0821/0823 6SM TSRA BR BKN070CB FM082300 11010KT P6SM SCT100 PROB30 0823/0824 6SM TSRA BR BKN080CB FM090000 08011KT P6SM SCT100 PROB30 0900/0902 6SM TSRA BR BKN080CB FM090200 05010KT P6SM SCT100 PROB30 0902/0908 6SM TSRA BR BKN060CB
KGEG,KGEG 081124Z 0812/0912 VRB04KT P6SM FEW120 FEW160 SCT240 FM082100 26008KT P6SM VCTS BKN080CB BKN100 OVC200 FM082300 12006KT P6SM -SHRA VCTS SCT040 BKN070CB PROB30 0823/0904 4SM TSRA BR OVC040CB FM090500 08005KT P6SM -SHRA VCTS SCT040 BKN070CB FM091000 04003KT P6SM -SHRA OVC060
KGFA,TAF KGFA 081200Z 0812/0918 VRB06KT 9999 SCT055 QNH2997INS BECMG 0816/0817 VRB06KT 8000 -SHRA BKN030 OVC045 QNH2996INS TEMPO 0817/0823 07012G20KT 6000 -TSRA BKN025CB OVC040 BECMG 0823/0824 06010KT 8000 -SHRA BKN035 OVC045 QNH2992INS TEMPO 0905/0912 VRB06KT 4800 BR BECMG 0912/0913 VRB06KT 9000 BR SCT030 BKN050 QNH2993INS TX21/0821Z TN17/0812Z
KGFK,KGFK 081120Z 0812/0912 13007KT P6SM BKN250 FM081800 14010KT P6SM SCT060 FM090000 14005KT P6SM VCSH BKN050 FM090300 VRB03KT P6SM SCT050 BKN120
KGFL,KGFL 081312Z 0813/0912 00000KT P6SM VCSH BKN020 OVC040 FM081600 VRB04KT 5SM HZ VCSH BKN020 OVC035 FM081900 04005KT P6SM VCSH BKN040 TEMPO 0821/0824 3SM -SHRA BR OVC020 FM090000 VRB03KT 6SM BR VCSH OVC050 FM090400 00000KT 5SM BR OVC035
KGGG,KGGG 081120Z 0812/0912 00000KT P6SM FEW250 FM081400 VRB03KT P6SM SCT250 FM081600 27005KT P6SM SCT035 SCT250 FM081900 25005KT P6SM VCTS SCT050CB FM090300 VRB03KT P6SM BKN250
KGGW,KGGW 081125Z 0812/0912 02010KT P6SM SCT090 TEMPO 0812/0814 5SM -TSRA BR OVC080CB FM081400 05010KT P6SM SCT090 PROB30 0821/0902 4SM TSRA BR OVC050CB FM090200 08014KT P6SM BKN080 PROB30 0902/0907 4SM TSRA BR OVC050CB FM090700 05011KT P6SM BKN080 PROB30 0907/0908 6SM TSRA BR OVC050CB FM090800 10009KT P6SM BKN080 PROB30 0908/0912 6SM TSRA BR OVC050CB
KGJT,KGJT 081120Z 0812/0912 13010KT P6SM SKC FM081800 21007KT P6SM FEW100 FM090200 07005KT P6SM FEW100
KGKY,KGKY 081120Z 0812/0912 VRB04KT P6SM VCSH BKN060 FM081300 VRB04KT P6SM SCT100 BKN250 FM082000 24007KT P6SM VCTS SCT070CB FM090200 16004KT P6SM BKN250
KGLD,KGLD 081138Z 0812/0912 24004KT P6SM SKC FM081700 13005KT P6SM SKC FM090200 17007KT P6SM OVC060 FM090500 25007KT P6SM OVC060
KGLH,KGLH 081250Z 0813/0912 00000KT 4SM HZ SKC FM081500 31005KT P6SM SCT060
KGLS,KGLS 081122Z 0812/0912 27008KT P6SM FEW250 FM081800 23009KT P6SM FEW030 SCT250 FM082300 20011KT P6SM VCTS SCT030CB SCT110 PROB30 0823/0902 VRB20G30KT TSRA FM090400 VRB05KT P6SM FEW035 SCT250
KGMU,KGMU 081135Z 0812/0912 01005KT P6SM VCSH BKN040 FM081400 36005KT P6SM FEW045 SCT080 FM081900 36008KT P6SM FEW060 FM090500 01006KT P6SM FEW250
KGNV,KGNV 081120Z 0812/0912 26008KT P6SM SCT015 SCT040 SCT250 FM081400 26010G15KT P6SM VCSH SCT025 BKN040 FM081600 25012G18KT P6SM VCTS SCT025CB BKN040 TEMPO 0816/0820 VRB15G25KT 4SM TSRA BKN025CB FM082300 24008KT P6SM SCT040 SCT150 BKN250 FM090800 24005KT P6SM SCT008 BKN015 BKN250
KGON,KGON 081138Z 0812/0912 VRB02KT 4SM FU HZ VV050 FM081300 23006KT 5SM FU HZ VV040 FM081800 21007KT 5SM FU HZ VV040 PROB30 0823/0824 SHRA FM090100 VRB03KT 5SM FU HZ VV040
KGPI,KGPI 081120Z 0812/0912 15007KT P6SM SCT100 FM081500 03007KT P6SM -SHRA BKN100 FM082000 05009KT P6SM VCTS BKN080CB PROB30 0900/0903 VRB06G30KT 1/2SM TSRA BKN080CB FM090300 02015KT P6SM -SHRA OVC080 FM090600 01007KT P6SM -SHRA BKN080
KGPT,KGPT 081134Z 0812/0912 VRB04KT P6SM FEW025 FM081600 22007KT P6SM SCT040 FM082000 21009KT P6SM VCTS SCT040CB FM090100 VRB04KT P6SM SCT030
KGRB,KGRB 081122Z 0812/0912 VRB04KT P6SM FEW250 FM081400 02010KT P6SM FEW250 FM082000 05010KT P6SM FEW250 FM090100 VRB04KT P6SM FEW250
KGRF,TAF KGRF 081300Z 0813/0919 22006KT 9999 FEW110 QNH2992INS BECMG 0911/0912 22004KT 9999 BKN015 BKN100 QNH2999INS BECMG 0915/0916 21007KT 9999 SCT015 BKN100 QNH3000INS BECMG 0918/0919 23006KT 9999 BKN050 OVC095 QNH3001INS TX25/0823Z TN11/0813Z
KGRI,KGRI 081140Z 0812/0912 VRB05KT P6SM SCT150 FM081700 09006KT P6SM SCT150 FM082000 07007KT P6SM VCTS SCT060CB BKN150 FM090500 12005KT P6SM BKN150
KGRK,TAF KGRK 080800Z 0808/0914 23005KT 9999 FEW050 SCT150 QNH2982INS BECMG 0816/0817 23005KT 9999 VCTS SCT050CB SCT150 QNH2988INS TEMPO 0818/0824 VRB15G25KT 8000 -TSRA BKN050CB BECMG 0900/0901 16005KT 9999 NSW FEW050 QNH2981INS TX32/0821Z TN19/0811Z
KGRR,KGRR 081141Z 0812/0912 35005KT 6SM HZ SKC FM081500 35008KT P6SM SKC FM082100 31008KT P6SM SCT250 FM082300 32012KT P6SM FEW250 FM090200 33006KT P6SM FEW250 FM091100 VRB03KT P6SM FEW250
KGSB,TAF KGSB 081200Z 0812/0918 25009KT 8000 BR BKN120 QNH2966INS BECMG 0815/0816 29009KT 9000 HZ SCT060 QNH2965INS BECMG 0901/0902 VRB06KT 9000 HZ SCT050 QNH2971INS TX26/0819Z TN13/0909Z
KGSO,KGSO 081120Z 0812/0912 32007KT P6SM SCT060 FM082300 34003KT 5SM HZ SKC
KGSP,KGSP 081135Z 0812/0912 36004KT P6SM VCSH BKN045 FM081400 36006KT P6SM FEW045 SCT080 FM082000 01006KT P6SM FEW060 FM090700 36005KT P6SM FEW250
KGTB,TAF KGTB 080900Z 0809/0915 32006KT 9000 FU FEW015 BKN045 QNH2969INS BECMG 0811/0812 33006KT 9000 FU SCT015 BKN045 QNH2972INS TEMPO 0813/0817 8000 -SHRA BECMG 0823/0900 VRB06KT 9000 FU BKN025 OVC035 510013 QNH2971INS BECMG 0912/0913 VRB06KT 8000 -RA BKN025 OVC040 QNH2973INS TX15/0821Z TN09/0906Z
KGTF,KGTF 081140Z 0812/0912 VRB04KT 5SM BR SCT080 BKN200 TEMPO 0812/0814 2SM BR FM081700 07009KT 6SM -SHRA BR SCT035 OVC060 TEMPO 0819/0823 VRB25G40KT 2SM TSRA BR BKN015CB FM082300 VRB06KT 6SM -SHRA BR SCT015 OVC025 PROB30 0823/0903 VRB25G40KT 3SM TSRA BR OVC015CB FM090600 VRB04KT 6SM BR VCSH BKN015 BKN045
KGTR,KGTR 081120Z 0812/0912 00000KT P6SM SKC
KGUC,KGUC 081120Z 0812/0912 VRB03KT P6SM SCT200 FM081800 23006KT P6SM SCT200 FM090200 36005KT P6SM FEW100
KGUP,KGUP 081132Z 0812/0912 VRB04KT P6SM SKC FM081700 23010G19KT P6SM SCT250 FM090200 24008KT P6SM SCT160 FM090600 VRB03KT P6SM SCT150
KGUR,TAF KGUR 080503Z 0805/0911 VRB06KT 9999 FEW045 SCT065 QNH2989INS TX27/0821Z TN11/0911Z
KGUS,TAF KGUS 072100Z 0721/0903 01010G15KT 9999 FEW150 SCT200 QNH2976INS BECMG 0723/0724 VRB06KT 9999 FEW070 QNH2983INS BECMG 0816/0817 34012G18KT 9999 SCT080 QNH2982INS TX25/0721Z TN10/0810Z LAST NO AMDS AFT 0803 NEXT 0813
KGUY,KGUY 081135Z 0812/0912 VRB04KT P6SM SCT240 FM081700 11006KT P6SM FEW250 FM090800 VRB05KT P6SM FEW250
KGWO,KGWO 081120Z 0812/0912 00000KT P6SM SKC FM082300 01005KT P6SM VCTS OVC250CB FM090100 06005KT P6SM OVC250
KGYY,KGYY 081120Z 0812/0912 04011KT P6SM FEW250 FM090300 34006KT P6SM FEW250
KHBG,KHBG 081120Z 0812/0912 00000KT P6SM SKC
KHCR,KHCR 081120Z 0812/0912 12005KT P6SM FEW120 FM082000 35010G20KT P6SM VCSH SCT120 FM090200 VRB03KT P6SM FEW120
KHDC,KHDC 081134Z 0812/0912 00000KT P6SM FEW025 FM081600 VRB04KT P6SM SCT030 FM082000 27005KT P6SM VCTS SCT045CB FM090100 00000KT P6SM SCT030
KHDN,KHDN 081120Z 0812/0912 10006KT P6SM SCT100 BKN200 FM081800 27006KT P6SM SCT080 BKN200 FM090200 11009KT P6SM FEW100
KHIB,KHIB 081128Z 0812/0912 12005KT P6SM SCT100 FM090200 VRB03KT P6SM SCT250
KHIE,KHIE 081121Z 0812/0912 VRB03KT P6SM -SHRA BKN010 FM081400 VRB03KT P6SM -SHRA OVC025 FM082200 VRB03KT P6SM -SHRA OVC040 FM090500 00000KT 2SM BR OVC008
KHIF,TAF KHIF 081300Z 0813/0919 10012G18KT 9999 SCT150 QNH2996INS BECMG 0819/0820 25012G25KT 9999 SCT170 510009 QNH2995INS TEMPO 0822/0902 VRB15G35KT VCTS BKN060CB OVC150 BECMG 0903/0904 11009KT 9999 SCT100 QNH2997INS BECMG 0917/0918 27009KT 9999 SCT120 QNH2997INS TX26/0822Z TN13/0912Z
KHIO,KHIO 081301Z 0813/0912 VRB04KT P6SM OVC016 FM081900 08005KT P6SM SCT030 BKN120 FM090000 35009KT P6SM BKN035 OVC100 FM090600 32005KT P6SM OVC035
KHKS,KHKS 081120Z 0812/0912 32003KT P6SM SKC
KHKY,KHKY 081135Z 0812/0912 31004KT P6SM SCT080 FM081800 33007KT P6SM FEW060 FM090000 33003KT P6SM SKC
KHLG,KHLG 081141Z 0812/0912 33004KT P6SM FEW250 FM081600 34009KT P6SM SCT200 FM090000 33006KT 6SM HZ SCT100
KHLN,KHLN 081140Z 0812/0912 VRB04KT P6SM SCT080 BKN120 FM081700 36008KT 6SM -SHRA BR SCT035 OVC050 TEMPO 0820/0824 VRB20G35KT 4SM TSRA BR BKN025CB FM090300 VRB06KT P6SM VCSH SCT025 BKN060 FM090700 00000KT 6SM BR SCT020 BKN070
KHMN,TAF KHMN 080900Z 0809/0915 VRB06KT 9999 FEW250 QNH2999INS BECMG 0814/0815 31012KT 9999 FEW250 QNH3006INS BECMG 0817/0818 26012G18KT 9999 FEW250 QNH2995INS BECMG 0902/0903 VRB06KT 9999 SCT170 SCT250 QNH2997INS TX31/0822Z TN13/0812Z
KHNB,KHNB 081120Z 0812/0912 00000KT P6SM SKC FM081700 01005KT P6SM SKC FM090200 00000KT P6SM SKC
KHND,KHND 081120Z 0812/0912 19006KT P6SM SCT100 FM082100 22010G18KT P6SM SCT100 FM090600 22010KT P6SM FEW100
KHOB,KHOB 081120Z 0812/0912 21010KT P6SM FEW250
KHON,KHON 081120Z 0812/0912 12006KT P6SM SKC FM081800 09007KT P6SM FEW080 FM090400 12008KT P6SM SCT100
KHOP,TAF KHOP 080800Z 0808/0914 VRB06KT 9999 SKC QNH2981INS TEMPO 0808/0812 3200 BR BECMG 0817/0818 34010G15KT 9999 SKC QNH2981INS BECMG 0900/0901 VRB06KT 9999 SKC QNH2983INS TX25/0820Z TN14/0908Z
KHOT,KHOT 081120Z 0812/0912 28004KT P6SM FEW250 FM081600 31006KT P6SM SCT060 BKN120 FM082000 27006KT 6SM -SHRA BR VCTS BKN070CB OVC100 TEMPO 0823/0903 5SM -TSRA BR BKN060CB FM090300 05003KT P6SM OVC100
KHOU,KHOU 081122Z 0812/0912 VRB05KT P6SM FEW110 SCT250 FM081700 26008KT P6SM SCT045 SCT250 FM082200 27007KT P6SM VCTS BKN050CB PROB30 0822/0824 VRB20G30KT TSRA FM090100 VRB04KT P6SM FEW045 SCT150
KHPN,KHPN 081138Z 0812/0912 32008KT 2SM FU HZ VV035 TEMPO 0812/0816 4SM FU HZ FM081800 33008KT 5SM FU HZ VV035 PROB30 0821/0902 SHRA FM090200 VRB03KT 5SM FU HZ VV050 AMD NOT SKED
KHQM,KHQM 081132Z 0812/0912 24008KT P6SM OVC015 FM081800 25009KT P6SM BKN015 FM082100 27011G18KT P6SM FEW020 SCT250 FM090300 25007KT P6SM OVC015
KHRF,KHRF 081120Z 0812/0912 34011KT P6SM VCSH OVC080 FM082000 35009KT P6SM -SHRA VCTS BKN070CB FM082300 VRB06G30KT 1SM -TSRA BKN080CB PROB30 0900/0903 P6SM -TSRA BKN080CB FM090300 VRB06KT P6SM VCSH BKN060
KHRL,KHRL 081301Z 0813/0912 03008KT P6SM -RA SCT050 OVC100 FM081400 VRB05KT P6SM SCT100 BKN250 FM081800 14010KT P6SM FEW040 SCT250 FM090200 17005KT P6SM SKC
KHRO,KHRO 081120Z 0812/0912 27005KT P6SM BKN100 OVC250 TEMPO 0812/0813 5SM HZ FM081400 32006KT P6SM VCSH SCT050 BKN100 FM081800 34005KT 6SM -SHRA BR VCTS BKN050CB OVC100 TEMPO 0819/0823 5SM -TSRA BR OVC050CB FM090100 VRB02KT P6SM OVC100
KHRT,TAF COR KHRT 081110Z 0810/0916 30005KT 9999 FEW050 SCT140 QNH2975INS BECMG 0815/0816 22007KT 9999 SCT050 QNH2978INS BECMG 0818/0819 22007KT 9999 VCTS SCT050CB QNH2976INS BECMG 0819/0820 22007KT 9000 -SHRA VCTS SCT050 QNH2974INS TEMPO 0820/0822 21010G15KT 6000 -TSRA BKN030CB BECMG 0822/0823 25007KT 9999 NSW SCT120 QNH2971INS BECMG 0903/0904 25006KT 9999 SKC QNH2971INS TX30/0819Z TN21/0810Z
KHST,TAF KHST 081100Z 0811/0917 VRB06KT 9999 FEW025 SCT045 BKN200 QNH2983INS BECMG 0814/0815 20010KT 9999 SCT030 SCT045 BKN090 BKN200 QNH2981INS BECMG 0818/0819 22010KT 9999 VCTS SCT030 BKN045CB BKN090 BKN200 QNH2977INS TEMPO 0819/0823 VRB12G18KT 4800 -TSRA FEW015 BKN022 OVC030CB BECMG 0823/0824 VRB06KT 9999 NSW FEW025 SCT040 QNH2976INS BECMG 0914/0915 24009KT 9999 VCSH FEW025 SCT040 SCT090 QNH2981INS TX30/0817Z TN23/0811Z
KHSV,KHSV 081120Z 0812/0912 01007KT P6SM SCT080 FM081600 35009KT P6SM SCT250
KHTS,KHTS 081125Z 0812/0912 VRB03KT 6SM HZ SKC FM081600 33007KT 6SM HZ SCT200
KHUA,TAF KHUA 081200Z 0812/0918 VRB06KT 8000 BR FEW002 QNH2974INS BECMG 0813/0814 VRB06KT 8000 BR FEW075 QNH2978INS TX25/0820Z TN14/0911Z
KHUF,KHUF 081120Z 0812/0912 04006KT P6SM FEW250 FM081800 03008KT 6SM HZ SCT250 FM090100 02006KT P6SM FEW250
KHUL,KHUL 081249Z 0813/0912 04007KT 6SM -SHRADZ BR OVC006 FM081400 07007KT 6SM -SHRA BR SCT006 OVC012 FM081700 07006KT 6SM -SHRA OVC015 FM090200 07006KT 6SM -SHRADZ BR OVC007 FM090500 07005KT 3SM -SHRADZ BR OVC007
KHUM,KHUM 081134Z 0812/0912 VRB04KT P6SM FEW025 FM081400 33005KT P6SM SCT030 FM081900 23007KT P6SM VCTS SCT035CB BKN100 FM090200 VRB03KT P6SM SCT025
KHUT,KHUT 081120Z 0812/0912 00000KT 6SM BR SKC FM081330 VRB06KT P6SM SKC FM082000 18009KT P6SM SCT060 BKN250 FM090100 10006KT P6SM SCT110
KHVR,KHVR 081140Z 0812/0912 06006KT 6SM BR FEW020 SCT060 BKN090 FM081900 07009KT 6SM -SHRA BR SCT040 BKN070 TEMPO 0821/0901 VRB28G45KT 3SM TSRA BR BKN025CB FM090100 08011KT 6SM -SHRA BR SCT020 OVC035 PROB30 0901/0905 VRB28G45KT 3SM TSRA BR OVC020CB
KHYA,KHYA 081120Z 0812/0912 00000KT P6SM FEW070 FM081300 25006KT P6SM SCT120 FM090100 16003KT P6SM BKN080 FM091100 01003KT 5SM BR BKN023
KHYR,KHYR 081128Z 0812/0912 VRB04KT P6SM FEW150 FM081900 05006KT P6SM FEW150
KHYS,KHYS 081120Z 0812/0912 22007KT P6SM SCT150
KIAB,TAF KIAB 081000Z 0810/0916 VRB06KT 9999 FEW080 QNH2975INS BECMG 0902/0903 19009KT 9999 VCSH FEW050 BKN100 QNH2979INS TX32/0821Z TN19/0811Z
KIAD,KIAD 081130Z 0812/0918 36006KT 1SM HZ FU BKN030 BKN150 FM081600 35006KT 3SM HZ SCT035 SCT200 FM081900 31007KT 6SM HZ FEW060 SCT200 FM090300 32005KT 3SM HZ SCT090
KIAG,KIAG 081120Z 0812/0912 VRB04KT P6SM BKN040 FM081400 36006KT 6SM HZ SCT025 BKN040 FM081700 01008KT 5SM HZ FU BKN040 FM082200 36008KT 6SM HZ BKN050 FM090100 34004KT P6SM BKN060
KIAH,KIAH 081122Z 0812/0918 VRB04KT P6SM FEW120 SCT250 FM081700 29006KT P6SM SCT045 FM082200 26006KT P6SM VCTS BKN045CB PROB30 0822/0824 VRB20G30KT TSRA FM090100 VRB04KT P6SM FEW045 FEW250
KICT,KICT 081120Z 0812/0912 VRB03KT P6SM FEW250 FM082100 27005KT P6SM SCT050 BKN250 FM090100 12005KT P6SM SCT110
KIDA,KIDA 081127Z 0812/0912 VRB05KT P6SM SCT120 OVC200 FM081800 20008KT P6SM -SHRA VCTS SCT080CB OVC150 FM082100 31010KT P6SM -SHRA VCTS BKN080CB OVC150 TEMPO 0822/0902 VRB20G35KT 6SM -TSRA SCT030 BKN060CB OVC100 FM090300 18008KT P6SM SCT150
KIFP,KIFP 081120Z 0812/0912 16006KT P6SM FEW100 FM081600 19009KT P6SM FEW100 FM082000 19014G22KT P6SM SCT100 FM090400 18008KT P6SM FEW100
KILG,KILG 081120Z 0812/0912 02005KT 4SM HZ FEW150 TEMPO 0812/0815 1SM HZ FU FM081700 28010G17KT 5SM HZ BKN080 FM082300 32008KT 5SM HZ SCT070 FM090400 VRB03KT 5SM HZ BKN080
KILM,KILM 081135Z 0812/0912 28003KT P6SM VCSH BKN050 TEMPO 0812/0814 6SM RA BR FM081700 30005KT P6SM BKN060 FM090000 VRB02KT P6SM FEW200
KILN,KILN 081139Z 0812/0912 03006KT 5SM HZ FEW100 FM081400 01008KT P6SM SKC FM081800 34008KT P6SM FEW100 FM090000 31005KT P6SM SCT100
KIND,KIND 081120Z 0812/0918 06007KT P6SM FEW250 FM081800 02008KT 6SM HZ FEW060 SCT250 FM090200 35008KT P6SM FEW250
KINK,KINK 081120Z 0812/0912 22008KT P6SM SCT250 FM090300 17008KT P6SM SKC
KINL,KINL 081128Z 0812/0912 14005KT P6SM SCT060 BKN100 FM082000 09004KT P6SM SCT100 FM090600 VRB02KT P6SM BKN080
KINS,TAF KINS 081250Z 0813/0919 VRB06KT 9999 BKN090 QNH2997INS BECMG 0820/0821 22010G15KT 9999 OVC110 QNH2989INS BECMG 0905/0906 25009KT 9999 SCT110 QNH2996INS BECMG 0912/0913 VRB06KT 9999 FEW090 QNH2994INS TX28/0821Z TN14/0813Z
KINT,KINT 081120Z 0812/0912 32007KT P6SM SCT060 FM082300 34003KT 5SM HZ SKC
KINW,KINW 081120Z 0812/0912 16006KT P6SM SKC FM081800 20012G20KT P6SM SCT200 FM090230 23010KT P6SM SCT120 BKN200
KIPL,KIPL 081120Z 0812/0912 34006KT P6SM FEW250 FM081400 VRB03KT P6SM SCT250 FM081900 12007KT P6SM BKN250 FM090200 26009KT P6SM SCT250
KIPT,KIPT 081139Z 0812/0912 32006KT 4SM FU SCT250 FM081400 30004KT 4SM FU OVC050 FM081700 32007KT 6SM -SHRA HZ OVC050 FM090500 29002KT 4SM HZ OVC050
KISM,KISM 081120Z 0812/0912 24005KT P6SM SKC FM081400 25009KT P6SM SCT035 SCT150 FM081700 24009KT P6SM VCTS SCT060CB BKN250 FM082200 23006KT P6SM SCT045 BKN120 FM090200 23004KT P6SM SCT050 SCT250
KISO,KISO 081311Z 0813/0912 29005KT 5SM HZ BKN005 BKN025 FM081400 26005KT 6SM HZ VCSH BKN015 FM081600 28007KT 6SM HZ SCT035
KISP,KISP 081138Z 0812/0912 VRB02KT 2SM FU HZ VV035 TEMPO 0812/0813 3SM FU HZ VV040 FM081300 33007KT 3SM FU HZ VV025 TEMPO 0813/0817 2SM FU HZ VV020 FM081800 19008KT 5SM FU HZ VV040 FM090100 VRB03KT 5SM FU HZ VV040
KITH,KITH 081313Z 0813/0912 29006KT P6SM BKN040 TEMPO 0813/0815 5SM -SHRA FU BKN025 FM081500 32007KT 6SM -SHRA HZ BKN035 FM081900 32008KT P6SM -SHRA BKN040 FM082100 33006KT P6SM BKN050 FM090900 VRB03KT P6SM BKN025
KIWA,KIWA 081120Z 0812/0912 12006KT P6SM FEW250 FM081900 26009KT P6SM BKN250 FM090800 11006KT P6SM FEW250
KIWD,KIWD 081120Z 0812/0912 00000KT P6SM FEW250 FM081800 02007KT P6SM FEW250 FM090100 00000KT P6SM FEW250
KIXD,KIXD 081127Z 0812/0912 10007KT P6SM VCSH BKN090 FM081500 10007KT P6SM BKN100
KJAC,KJAC 081247Z 0813/0912 23005KT 1SM BR BKN003 FM081500 22006KT P6SM VCSH OVC070 FM081900 01008KT P6SM VCTS BKN070CB FM090100 VRB06KT P6SM SCT120
KJAN,KJAN 081120Z 0812/0912 32003KT P6SM SKC
KJAX,KJAX 081120Z 0812/0912 25010G15KT P6SM SCT015 SCT040 SCT250 FM081800 25012G18KT P6SM VCTS SCT050CB SCT100 BKN250 FM090000 23006KT P6SM FEW050 SCT150 BKN250 FM090900 23005KT P6SM SCT008 SCT015 BKN250
KJBR,KJBR 081120Z 0812/0912 VRB04KT P6SM VCSH BKN110 FM081800 06006KT P6SM BKN100 FM090200 VRB03KT P6SM BKN100
KJCT,KJCT 081120Z 0812/0912 VRB05KT P6SM BKN250 FM081800 26007KT P6SM VCTS SCT150CB FM082200 32007KT P6SM FEW250 FM090100 VRB04KT P6SM SKC
KJEF,KJEF 081120Z 0812/0912 09007KT P6SM BKN100 FM082100 06007KT P6SM FEW120 SCT250 FM090400 VRB04KT P6SM FEW250
KJER,KJER 081122Z 0812/0912 10009KT P6SM BKN080 BKN150 FM081900 27008KT P6SM VCSH SCT060 BKN120 TEMPO 0820/0824 VRB25G35KT -TSRA BKN060CB FM090300 VRB05KT P6SM SCT060 BKN120
KJFK,KJFK 081138Z 0812/0918 34006KT 4SM FU VV005 TEMPO 0812/0816 2SM FU HZ VV020 FM081600 22008KT 4SM FU HZ VV040 TEMPO 0816/0818 2SM FU HZ VV035 FM081800 18012KT 5SM FU HZ VV035 TEMPO 0818/0822 2SM FU HZ VV025 FM082300 14008KT 5SM FU HZ VV035 FM090300 05006KT 5SM FU HZ VV035 FM090600 35008KT 5SM FU HZ VV035 FM091200 35008KT 6SM FU HZ VV040 FM091700 18008KT 6SM FU HZ VV050
KJHW,KJHW 081120Z 0812/0912 34004KT P6SM BKN050 FM081500 32010KT 6SM HZ BKN035 FM082100 34010KT 6SM HZ BKN050 FM090100 34004KT P6SM BKN060
KJKA,KJKA 081129Z 0812/0912 00000KT P6SM FEW018 FM081400 28005KT P6SM SCT020 SCT060 FM081800 23009KT P6SM VCTS SCT040CB SCT130 FM090100 24006KT P6SM FEW040 SCT250
KJKL,KJKL 081137Z 0812/0912 VRB04KT P6SM FEW250
KJLN,KJLN 081120Z 0812/0912 VRB04KT P6SM SCT150 FM081700 32006KT P6SM SCT050 BKN100 TEMPO 0820/0824 4SM TSRA BR SCT025 BKN050CB OVC100 FM090200 VRB04KT P6SM OVC150
KJMS,KJMS 081123Z 0812/0912 11007KT 6SM BR FEW100 FM081400 12009KT P6SM FEW100 FM090000 04009KT P6SM VCTS BKN050CB
KJST,KJST 081150Z 0812/0912 30006KT 4SM FU SCT250 FM081400 31007KT 4SM HZ BKN100 FM082000 32009G15KT P6SM VCSH OVC050 FM090500 28003KT 6SM HZ OVC050 FM091000 27004KT 6SM HZ OVC020
KJVL,KJVL 081120Z 0812/0912 04006KT P6SM FEW250 FM090200 09005KT P6SM FEW250
KJXN,KJXN 081141Z 0812/0912 33007KT 5SM HZ SKC FM081700 35009KT 6SM HZ SKC FM082000 33008KT P6SM SCT250 FM090100 31008KT P6SM FEW250 FM090500 08006KT 6SM HZ FEW250 FM090900 VRB04KT 6SM HZ FEW250
KJZI,KJZI 081120Z 0812/0912 27006KT P6SM SCT035 SCT060 SCT250 FM081900 35009KT 6SM -TSRA BKN040CB TEMPO 0820/0824 VRB10G20KT 2SM TSRA BR SCT030 BKN040CB FM090300 08005KT P6SM SCT050 FM090800 00000KT P6SM SCT040 BKN120
KLAF,KLAF 081120Z 0812/0912 05006KT P6SM FEW250 FM081700 02008KT 6SM HZ SCT250 FM090200 34006KT P6SM FEW250
KLAL,KLAL 081133Z 0812/0912 22003KT P6SM BKN250 FM081500 26007KT P6SM VCSH BKN040 FM081700 27007KT P6SM VCTS BKN040CB BKN100 FM081900 26006KT P6SM VCSH SCT040 BKN250 FM082200 26007G15KT P6SM SCT250 FM090000 23003KT P6SM BKN250
KLAN,KLAN 081141Z 0812/0912 34007KT 4SM HZ SKC FM081600 34008KT 6SM HZ SKC FM090200 03006KT P6SM SCT250
KLAR,KLAR 081120Z 0812/0912 15005KT P6SM SCT060 BKN150 FM081500 14008KT P6SM BKN120 FM082000 17011KT P6SM VCTS BKN050CB OVC080 TEMPO 0820/0822 3SM TSRA BR BKN040CB OVC050 FM090100 20008KT P6SM SCT080
KLAS,KLAS 081120Z 0812/0918 23006KT P6SM FEW110 FM081500 VRB05KT P6SM FEW110 FM081900 16008KT P6SM SCT100 FM082200 20010G18KT P6SM SCT100 FM090300 22007KT P6SM FEW110
KLAW,KLAW 081130Z 0812/0912 24010KT P6SM BKN120 FM081600 20007KT P6SM SCT060 SCT250 PROB30 0821/0824 -TSRA BKN060CB
KLAX,KLAX 081141Z 0812/0918 VRB03KT P6SM SCT035 FM081900 26012KT P6SM SCT004 FM082300 24008KT P6SM SCT050 FM090800 VRB03KT P6SM BKN025 FM091600 26006KT P6SM BKN035
KLBB,KLBB 081121Z 0812/0912 VRB06KT P6SM FEW150 BKN200
KLBE,KLBE 081141Z 0812/0912 VRB02KT 6SM HZ FEW250 FM081600 31009KT 6SM HZ VCSH BKN060 FM090000 30006KT 6SM HZ BKN060
KLBF,KLBF 081120Z 0812/0912 VRB03KT P6SM FEW250 FM082100 17005KT P6SM SCT100 FM090600 11004KT P6SM OVC250
KLBL,KLBL 081120Z 0812/0912 15003KT P6SM SCT150
KLBT,KLBT 081135Z 0812/0912 VRB03KT P6SM VCSH BKN070 TEMPO 0812/0814 5SM RA BR FM081500 32006KT P6SM BKN060 FM082200 28004KT P6SM FEW200 FM090000 00000KT P6SM FEW200
KLBX,KLBX 081122Z 0812/0912 VRB04KT P6SM FEW040 SCT250 FM081700 27007KT P6SM SCT045 FM082300 20007KT P6SM VCTS SCT045CB SCT100 PROB30 0823/0901 VRB20G30KT TSRA FM090300 VRB03KT P6SM FEW030 SCT100
KLCH,KLCH 081121Z 0812/0912 VRB05KT P6SM FEW250 FM081900 25008KT P6SM VCTS FEW210CB PROB30 0821/0823 4SM TSRA BR BKN070CB BKN250 FM090000 23009KT P6SM BKN250 FM090100 26007KT P6SM SCT250
KLCK,KLCK 081139Z 0812/0912 35004KT P6SM SKC FM081400 35008KT P6SM FEW250 FM081800 35008KT P6SM SCT100 FM090000 35005KT P6SM SCT100 FM090300 05003KT P6SM SCT100
KLEB,KLEB 081121Z 0812/0912 VRB03KT P6SM OVC025 FM081700 VRB03KT P6SM OVC040 FM090400 00000KT 5SM BR OVC012
KLEE,KLEE 081120Z 0812/0912 23005KT P6SM SKC FM081400 25007KT P6SM SCT030 SCT120 FM081700 25009KT P6SM VCTS BKN050CB BKN250 FM082200 24006KT P6SM SCT045 BKN120 FM090200 22005KT P6SM SCT050 SCT250
KLEX,KLEX 081120Z 0812/0912 05005KT P6SM SKC FM081800 36007KT P6SM SKC FM090000 03004KT P6SM SKC FM090200 VRB03KT P6SM SKC
KLFI,TAF AMD KLFI 081215Z 0812/0915 VRB06KT 3200 BR OVC005 QNH2969INS BECMG 0815/0816 22012KT 8000 -SHRA SCT020 BKN050 QNH2964INS TEMPO 0817/0820 24012G18KT 8000 -TSRA SCT020CB SCT035 OVC050 BECMG 0821/0822 23012KT 9000 -SHRA FEW030 SCT045 BKN060 QNH2967INS BECMG 0823/0824 VRB06KT 9999 NSW FEW050 SCT080 QNH2968INS TX22/0820Z TN17/0812Z
KLFK,KLFK 081120Z 0812/0912 29003KT P6SM FEW250 TEMPO 0812/0814 4SM BR FM081400 VRB03KT P6SM SCT250 FM081600 26005KT P6SM SCT035 SCT250 FM081900 22005KT P6SM VCTS SCT050CB FM090300 VRB03KT P6SM BKN250
KLFT,KLFT 081122Z 0811/0912 VRB03KT P6SM SCT250 FM082000 25007KT P6SM VCTS FEW040CB SCT250 PROB30 0821/0823 4SM TSRA BR BKN050CB FM090200 VRB03KT P6SM SCT250
KLGA,KLGA 081138Z 0812/0918 02009KT 4SM FU HZ VV035 TEMPO 0812/0816 2SM FU HZ VV020 FM081900 25008KT 5SM FU HZ VV040 TEMPO 0819/0822 2SM FU HZ VV020 FM082200 12008KT 3SM FU HZ VV035 FM090300 02005KT 5SM FU HZ VV035 FM090600 35005KT 5SM FU HZ VV035 FM091200 35007KT 6SM FU HZ VV050
KLGB,KLGB 081141Z 0812/0912 VRB03KT P6SM BKN015 FM081500 VRB03KT P6SM OVC025 FM081900 20008KT P6SM SCT035 FM090000 30008KT P6SM SCT040 FM090700 VRB03KT P6SM BKN035
KLGU,KLGU 081120Z 0812/0912 VRB04KT P6SM SCT150 FM081600 28006KT P6SM FEW120 FM082300 36012G22KT P6SM VCTS SCT080CB SCT120 FM090300 VRB04KT P6SM FEW120
KLIT,KLIT 081120Z 0812/0912 27004KT P6SM SCT120 FM081400 02006KT P6SM SCT060 BKN120 FM082000 35007KT 6SM -SHRA BR VCTS BKN050CB OVC100 TEMPO 0822/0902 5SM -TSRA BR BKN050CB FM090400 VRB05KT P6SM OVC100
KLLQ,KLLQ 081120Z 0812/0912 VRB03KT P6SM SCT250 FM081400 33006KT P6SM SCT120 SCT250 FM082200 35005KT P6SM VCSH BKN100 PROB30 0823/0904 6SM -TSRA BR OVC070CB FM090500 VRB02KT P6SM OVC100
KLMT,KLMT 081120Z 0812/0912 23005KT P6SM BKN110 FM081800 23005KT P6SM SKC FM090000 28016G23KT P6SM -TSRA BKN100CB FM090200 30010KT P6SM VCTS OVC100CB FM090800 VRB03KT P6SM BKN100
KLND,KLND 081121Z 0812/0912 25007KT P6SM VCSH SCT080 BKN100 FM081800 25008KT P6SM VCTS BKN080CB FM082200 30006KT P6SM SCT120 FM090400 VRB05KT P6SM SCT100
KLNK,KLNK 081120Z 0812/0912 12008KT P6SM SCT120 FM090200 12005KT P6SM SCT100
KLNS,KLNS 081151Z 0812/0912 VRB02KT 1SM HZ FU SCT030 FM081300 31006KT 2SM FU SCT250 FM081800 31009KT 4SM FU BKN100 FM090900 32003KT 6SM HZ OVC050
KLOZ,KLOZ 081137Z 0812/0912 00000KT 5SM BR BKN006 FM081330 VRB03KT P6SM FEW250
KLRD,KLRD 081121Z 0812/0912 07009G15KT P6SM BKN150 OVC250 FM081400 15006KT P6SM SCT030 BKN150 FM082200 12009KT P6SM SCT060 SCT250 FM090300 12011KT P6SM SCT250 FM090800 14008KT P6SM SKC
KLRF,TAF KLRF 080700Z 0807/0913 VRB06KT 9999 FEW060 QNH2974INS BECMG 0816/0817 VRB06KT 9999 SCT050 BKN100 QNH2980INS TEMPO 0821/0823 32012G18KT 8000 -TSRA BKN040CB BECMG 0901/0902 06006KT 9999 SCT060 BKN120 QNH2975INS TX33/0819Z TN19/0810Z
KLRU,KLRU 081120Z 0812/0912 29008KT P6SM SKC FM082100 24010G18KT P6SM SCT250 FM090100 27009KT P6SM BKN250
KLSE,KLSE 081120Z 0812/0912 11004KT P6SM FEW150
KLSF,TAF KLSF 081300Z 0813/0919 27005KT 9999 FEW060 FEW250 QNH2971NS BECMG 0816/0817 29006KT 9999 VCSH SCT060 SCT250 QNH2970INS BECMG 0818/0819 30009KT 9999 VCTS SCT030CB BKN060 QNH2968INS TEMPO 0819/0824 VRB12G20KT 4800 -TSRA BKN025CB OVC060 BECMG 0901/0902 35005KT 9999 NSW BKN030 BKN060 QNH2971INS BECMG 0912/0913 02007KT 9999 FEW060 SCT120 QNH2980INS TX32/0820Z TN17/0912Z
KLSV,TAF KLSV 080700Z 0807/0913 26012G20KT 9999 FEW120 510009 QNH2984INS BECMG 0808/0809 23008KT 9999 FEW120 QNH2989INS BECMG 0816/0817 16010G18KT 9999 SCT120 QNH2982INS BECMG 0822/0823 24012G22KT 9999 SCT120 SCT200 510009 QNH2978INS BECMG 0906/0907 30010KT 9999 SCT140 QNH2987INS TX31/0821Z TN18/0812Z
KLTS,TAF KLTS 080900Z 0809/0915 31010G15KT 8000 -SHRA SCT070 BKN090 QNH2984INS BECMG 0811/0812 32009KT 9999 NSW FEW050 SCT070 QNH2985INS BECMG 0814/0815 16009KT 9999 FEW080 SCT100 QNH2975INS BECMG 0900/0901 VRB06KT 9999 FEW050 QNH2976INS TX32/0822Z TN18/0811Z
KLUF,TAF KLUF 081200Z 0812/0918 VRB06KT 9999 BKN270 QNH2980INS BECMG 0823/0824 23009KT 9999 BKN210 QNH2978INS BECMG 0906/0907 VRB06KT 9999 BKN210 QNH2985INS TX35/0823Z TN19/0812Z
KLUK,KLUK 081139Z 0812/0912 00000KT 4SM BR FEW100 FM081400 03006KT P6SM SKC FM081800 35008KT P6SM FEW250 FM090000 32004KT P6SM FEW250 FM090600 00000KT 4SM BR FEW250
KLVK,KLVK 081200Z 0812/0912 27006KT P6SM FEW010 FM081800 28014KT P6SM SKC FM090500 28006KT P6SM FEW012 FM090900 25007KT P6SM BKN015
KLVM,KLVM 081131Z 0812/0912 VRB06KT P6SM SCT100 FM081700 10008KT P6SM -SHRA VCTS SCT040CB BKN120 FM090700 28006KT P6SM BKN050 OVC100
KLVS,KLVS 081132Z 0812/0912 VRB05KT P6SM SCT250 FM081800 20012G20KT P6SM FEW120 FM090200 20010KT P6SM FEW250 FM090800 03005KT P6SM SCT200
KLWB,KLWB 081120Z 0812/0912 VRB03KT P6SM SKC TEMPO 0812/0813 3SM BR FM081600 33008KT P6SM SKC FM090100 00000KT P6SM SKC
KLWS,KLWS 081124Z 0812/0912 15004KT P6SM SKC FM081900 36005KT P6SM VCTS BKN070CB BKN100 OVC200 FM090000 15005KT P6SM -SHRA VCTS SCT040 BKN080CB PROB30 0900/0904 4SM TSRA BR OVC040CB FM090600 12004KT P6SM OVC080
KLWT,KLWT 081140Z 0812/0912 VRB04KT 6SM BR SCT080 BKN120 FM081700 10008KT 6SM -SHRA BR SCT035 OVC060 TEMPO 0819/0823 VRB25G40KT 2SM TSRA BR BKN015CB FM082300 07009KT 6SM -SHRA BR SCT015 OVC025 PROB30 0823/0903 3SM TSRA BR OVC015CB FM090600 VRB05KT 6SM BR BKN015 BKN045
KLYH,KLYH 081120Z 0812/0912 VRB03KT P6SM FEW150 FM081400 35004KT P6SM SCT070 FM082100 30005KT P6SM SKC FM090000 00000KT P6SM SKC
KMAF,KMAF 081120Z 0812/0912 24011KT P6SM SCT250 FM090000 15008KT P6SM SKC
KMBG,KMBG 081123Z 0812/0912 VRB05KT P6SM SCT250 FM081600 11007KT P6SM SCT250 FM082000 09009KT P6SM VCSH SCT070 BKN250 FM090300 06006KT P6SM BKN040
KMBL,KMBL 081136Z 0812/0912 01007KT P6SM FEW250 FM081700 32011G16KT P6SM SCT250 FM090200 01005KT P6SM FEW250
KMBS,KMBS 081120Z 0812/0912 36009KT P6SM SCT070 FM081600 04013G19KT P6SM BKN090 FM090100 03005KT P6SM SCT100
KMCB,KMCB 081134Z 0812/0912 VRB03KT P6SM FEW025 FM081600 32005KT P6SM SCT040 FM090100 00000KT P6SM FEW250 FM091000 00000KT 4SM BR FEW020
KMCC,KMCC 081120Z 0812/0912 18008KT P6SM BKN070 FM081700 22006KT P6SM SCT060 SCT200 FM082300 21010KT P6SM FEW100 FEW200 FM090600 16007KT P6SM FEW200
KMCE,KMCE 081120Z 0812/0912 32006KT P6SM OVC050 FM090000 32008KT P6SM BKN100
KMCF,TAF KMCF 080900Z 0809/0915 26006KT 9999 SCT015 QNH2971INS BECMG 0820/0821 28006KT 9999 SCT025 QNH2972INS BECMG 0902/0903 28003KT 9999 BKN020 QNH2974INS TX30/0817Z TN22/0909Z
KMCI,KMCI 081127Z 0812/0912 09007KT P6SM VCSH BKN090 FM081500 10007KT P6SM BKN100
KMCK,KMCK 081138Z 0812/0912 23006KT 3SM BR SKC FM081330 VRB03KT P6SM SKC FM081900 15005KT P6SM FEW050 FM082300 12005KT P6SM BKN060
KMCN,KMCN 081218Z 0812/0912 29005KT P6SM FEW070 FEW250 FM081700 29010G20KT P6SM SCT070 FM090100 32005KT P6SM FEW250 FM090500 36004KT P6SM FEW250
KMCO,KMCO 081120Z 0812/0918 23005KT P6SM FEW120 FM081400 24009KT P6SM SCT035 BKN250 FM081700 24010KT P6SM VCTS BKN050CB BKN120 FM082200 23008KT P6SM SCT045 BKN120 FM090200 VRB05KT P6SM SCT050 SCT250 FM091400 25007KT P6SM SCT035 SCT250
KMCW,KMCW 081127Z 0812/0912 16005KT P6SM BKN070 FM081600 16010KT P6SM FEW250
KMDT,KMDT 081151Z 0812/0912 VRB02KT 1SM HZ FU SCT030 FM081300 31006KT 2SM FU SCT250 FM081800 31009KT 4SM FU BKN100 FM090900 32003KT 6SM HZ OVC050
KMDW,KMDW 081120Z 0812/0918 03008KT P6SM FEW250 FM081800 04012KT P6SM FEW250 FM090300 35006KT P6SM FEW250
KMEI,KMEI 081120Z 0812/0912 21003KT P6SM SKC FM091000 36003KT P6SM VCSH OVC250
KMEM,KMEM 081120Z 0812/0918 06006KT P6SM VCSH SCT080 FM081500 36008KT P6SM BKN250 FM090300 06004KT P6SM BKN250
KMER,KMER 081120Z 0812/0912 32006KT P6SM OVC050 FM090000 32008KT P6SM BKN100
KMEV,KMEV 081121Z 0812/0912 VRB04KT P6SM SCT200 FM082000 26010G16KT P6SM VCTS BKN080CB FM090400 24009KT P6SM BKN100 FM090600 VRB04KT P6SM SCT100
KMFD,KMFD 081120Z 0812/0912 31004KT 5SM HZ SCT250 FM081700 34010KT 4SM HZ BKN100
KMFE,KMFE 081302Z 0813/0912 VRB03KT P6SM BKN250 FM081600 14010KT P6SM FEW050 SCT250 FM090200 15005KT P6SM SKC
KMFR,KMFR 081120Z 0812/0912 34003KT P6SM BKN050 BKN100 FM082100 31009KT P6SM BKN250 FM090000 30014KT P6SM VCSH BKN100 FM090600 31005KT P6SM OVC050
KMGE,TAF COR KMGE 081158Z 0811/0903 20005KT 9999 SCT100 BKN250 QNH2972INS BECMG 0817/0818 32010G20KT 9999 SCT060 SCT120 QNH2972INS TX27/0821Z TN17/0812Z
KMGM,KMGM 081120Z 0812/0912 26005KT P6SM SCT250 FM081500 30007KT P6SM FEW110 FM081900 29009KT P6SM VCTS SCT050CB PROB30 0821/0901 4SM TSRA BR BKN050CB FM090200 33005KT P6SM SCT060
KMGW,KMGW 081141Z 0812/0912 VRB02KT P6SM SKC FM081600 32009KT P6SM SCT150 FM090200 29003KT 6SM HZ SCT090
KMHK,KMHK 081120Z 0812/0912 20005KT P6SM BKN100 FM082000 08007KT P6SM VCTS BKN100CB FM090200 09006KT P6SM SCT100
KMHR,KMHR 081120Z 0812/0912 18008KT P6SM BKN060 FM081700 22006KT P6SM SCT060 SCT200 FM082300 22010KT P6SM FEW100 FEW200 FM090600 16007KT P6SM FEW200
KMHT,KMHT 081121Z 0812/0912 30005KT P6SM BKN050
KMIA,KMIA 081120Z 0812/0918 19005KT P6SM VCSH SCT025 SCT250 FM081500 24010G17KT P6SM VCTS SCT030CB BKN050 FM090000 22008KT P6SM SCT030 SCT100 FM090700 21007KT P6SM VCSH SCT030 BKN080
KMIB,TAF KMIB 080900Z 0809/0915 VRB06KT 9999 FEW100 QNH2978INS TEMPO 0810/0814 9000 BR BECMG 0815/0816 03009KT 9999 FEW100 QNH2977INS BECMG 0819/0820 03010G15KT 9999 -SHRA VCTS BKN060CB QNH2978INS TEMPO 0823/0903 03010G20KT 4800 -TSRA BKN050CB BECMG 0903/0904 02009KT 9999 NSW FEW080 QNH2983INS BECMG 0909/0910 VRB06KT 8000 BR FEW100 QNH2985INS BECMG 0913/0914 05009KT 9999 NSW FEW100 QNH2987INS TX30/0822Z TN17/0811Z
KMIV,KMIV 081120Z 0812/0912 02005KT 4SM HZ FEW150 TEMPO 0812/0816 1SM HZ FU FM081600 32008KT 5SM HZ FEW080 FM081900 20010KT 5SM HZ BKN090 FM082200 18008KT P6SM SCT090 FM090300 VRB03KT P6SM BKN080
KMKC,KMKC 081127Z 0812/0912 09007KT P6SM VCSH BKN090 FM081500 10007KT P6SM BKN100
KMKE,KMKE 081120Z 0812/0918 03009KT P6SM FEW250
KMKG,KMKG 081141Z 0812/0912 01005KT P6SM SKC FM081500 31008KT P6SM SKC FM081700 31010G18KT P6SM SKC FM082000 32012G22KT P6SM SKC FM082300 32011G19KT P6SM SKC FM090100 34007KT P6SM SKC
KMKL,KMKL 081120Z 0812/0912 00000KT 6SM BR SKC FM081500 02006KT P6SM BKN250 FM090200 00000KT P6SM SCT250
KMKT,KMKT 081129Z 0812/0912 12005KT P6SM BKN070
KMLB,KMLB 081120Z 0812/0912 23006KT P6SM FEW035 FEW120 SCT250 FM081400 24010KT P6SM SCT040 SCT120 FM081800 24011G18KT P6SM VCTS BKN050CB BKN250 FM082300 22006KT P6SM SCT045 BKN120
KMLC,KMLC 081126Z 0812/0912 VRB03KT P6SM SCT250 FM081800 VRB05KT P6SM SCT060 SCT250 FM090200 VRB03KT P6SM SCT250
KMLI,KMLI 081120Z 0812/0912 00000KT P6SM SKC FM081500 04009KT P6SM SCT250 FM090000 VRB02KT P6SM SKC
KMLS,KMLS 081131Z 0812/0912 VRB06KT P6SM FEW060 SCT200 FM082100 08012KT P6SM VCTS BKN050CB OVC100 FM090600 02008KT P6SM OVC100
KMLU,KMLU 081120Z 0812/0912 00000KT P6SM FEW250 FM081600 32005KT P6SM SCT035 SCT250 FM081900 31004KT P6SM VCTS SCT050CB SCT250 FM090300 VRB03KT P6SM BKN250
KMMH,KMMH 081121Z 0812/0912 VRB03KT P6SM FEW120 FM082000 28010KT P6SM VCTS BKN060CB FM090500 VRB05KT P6SM SCT140
KMMT,TAF AMD KMMT 081047Z 0810/0913 VRB06KT 8000 BR BKN100 QNH2967INS BECMG 0817/0818 VRB06KT 9999 NSW OVC040 QNH2975INS TX21/0821Z TN12/0811Z
KMOB,KMOB 081129Z 0812/0912 29003KT P6SM FEW050 BKN250 FM081500 31005KT P6SM SCT025 SCT060 FM081800 24007KT P6SM VCTS SCT050CB SCT130 FM090100 22004KT P6SM FEW050 SCT250
KMOD,KMOD 081120Z 0812/0912 34010KT P6SM OVC060 FM081700 32005KT P6SM SCT050 SCT200 FM082300 33012KT P6SM FEW100 FEW200 FM090600 35007KT P6SM FEW150
KMOT,KMOT 081123Z 0812/0912 VRB03KT 4SM BR FEW090 FM081400 05006KT P6SM FEW150 FM082100 05009KT 6SM SHRA BR VCTS BKN040CB FM090300 VRB06KT P6SM VCTS BKN030CB
KMPV,KMPV 081133Z 0812/0912 00000KT P6SM VCSH OVC002 TEMPO 0812/0814 SCT002 OVC025 FM081400 34003KT P6SM OVC025 FM081800 34005KT P6SM -SHRA OVC040 FM082200 VRB04KT P6SM VCSH OVC045 FM090200 00000KT P6SM VCSH OVC035 FM090900 00000KT P6SM OVC015
KMQY,KMQY 081159Z 0812/0912 00000KT 3/4SM BR OVC002 FM081300 00000KT 5SM BR BKN015 FM081500 05004KT 5SM HZ SCT250
KMRB,KMRB 081130Z 0812/0912 34004KT 1 1/2SM HZ FU OVC030 FM081400 33005KT 3SM HZ SCT035 SCT250 FM081700 32009KT 6SM HZ FEW070 SCT110 FM090300 32005KT 3SM HZ SCT090
KMRY,KMRY 081201Z 0812/0912 23006KT P6SM SKC FM081700 26010KT P6SM FEW015 FM090600 23004KT P6SM BKN018
KMSL,KMSL 081120Z 0812/0912 03005KT P6SM FEW080 FM081600 35006KT P6SM SCT250
KMSN,KMSN 081120Z 0812/0912 05005KT P6SM FEW250 FM081700 03007KT P6SM FEW250
KMSO,KMSO 081120Z 0812/0912 13010KT P6SM SCT120 FM082100 10009KT P6SM -SHRA VCTS BKN080CB FM082300 VRB06G30KT 1SM -TSRA BKN080CB PROB30 0900/0903 P6SM -TSRA BKN080CB FM090300 VRB05KT P6SM VCSH OVC050
KMSP,KMSP 081129Z 0812/0918 10009KT P6SM BKN100
KMSS,KMSS 081133Z 0812/0912 02005KT P6SM OVC050 FM081700 04005KT P6SM -SHRA OVC045 FM082200 04005KT P6SM VCSH BKN080 FM090500 00000KT P6SM BKN040 FM090900 VRB03KT P6SM BKN024
KMSY,KMSY 081134Z 0812/0918 VRB04KT P6SM FEW025 FM081600 32005KT P6SM SCT040 FM082000 24007KT P6SM VCTS SCT040CB FM090100 VRB04KT P6SM FEW025 FM091400 35005KT P6SM SCT030
KMTC,TAF KMTC 081100Z 0811/0917 VRB06KT 9999 SCT080 QNH2979INS BECMG 0814/0815 36010G15KT 9999 BKN060 620804 QNH2979INS BECMG 0903/0904 VRB06KT 9999 SCT050 QNH2982INS BECMG 0914/0915 32010G15KT 9999 SCT050 QNH2981INS TX20/0817Z TN09/0910Z
KMTH,KMTH 081258Z 0813/0912 21007KT P6SM VCSH SCT020 BKN070 BKN250 TEMPO 0813/0816 BKN020
KMTJ,KMTJ 081120Z 0812/0912 14006KT P6SM SKC FM081500 VRB04KT P6SM SKC FM081800 34005KT P6SM FEW100 FM090200 14007KT P6SM FEW100
KMTN,KMTN 081130Z 0812/0912 04004KT 1SM HZ FU OVC030 FM081500 01005KT 3SM HZ SCT035 SCT250 FM081900 31007KT 6SM HZ FEW070 SCT200 FM090300 32005KT 3SM HZ SCT090
KMTW,KMTW 081122Z 0812/0912 VRB04KT P6SM FEW250 FM081400 36009G15KT P6SM FEW250 FM082000 06010KT P6SM FEW250 FM090100 VRB04KT P6SM FEW250
KMUI,TAF KMUI 081100Z 0811/0917 VRB06KT 1600 FU SKC QNH2968INS BECMG 0814/0815 30012KT 4800 FU FEW040 QNH2967INS BECMG 0900/0901 34007KT 4800 FU BKN040 OVC060 QNH2972INS TX21/0819Z TN06/0811Z
KMUO,TAF KMUO 081000Z 0810/0916 10009KT 9999 VCSH FEW090 SCT100 BKN110 QNH2984INS BECMG 0817/0818 12012G18KT 9999 VCSH SCT080 BKN120 QNH2983INS BECMG 0820/0821 32015G25KT 9999 VCTS SCT070 BKN090CB QNH2982INS TEMPO 0821/0902 VRB20G35KT 8000 -TSRA FEW040 SCT060 BKN070CB BECMG 0904/0905 10010G15KT 9999 VCSH FEW070 SCT090 QNH2984INS BECMG 0909/0910 VRB06KT 9999 NSW FEW080 SCT100 QNH2985INS TX27/0823Z TN16/0811Z
KMVN,KMVN 081132Z 0812/0912 VRB03KT P6SM FEW250 FM081500 01007KT P6SM SCT250 FM090100 00000KT P6SM SKC
KMWH,KMWH 081124Z 0812/0912 36005KT P6SM SKC FM082000 19008KT P6SM VCTS BKN080CB BKN100 OVC200 FM090100 15005KT P6SM -SHRA VCTS BKN080CB FM090600 04008KT P6SM OVC080
KMXF,TAF KMXF 081100Z 0811/0917 VRB06KT 9999 SCT055 QNH2976INS BECMG 0817/0818 30010G15KT 9999 FEW055 QNH2976INS BECMG 0818/0819 31010G15KT 9000 -SHRA BKN055 QNH2974INS BECMG 0823/0824 VRB06KT 9000 -SHRA BKN045 QNH2970INS BECMG 0900/0901 VRB06KT 9999 NSW FEW045 QNH2972INS TX30/0817Z TN17/0911Z
KMYL,KMYL 081122Z 0812/0912 VRB04KT P6SM VCSH OVC100 FM081800 VRB04KT 6SM -SHRA OVC040 TEMPO 0820/0824 5SM -TSRA BKN040CB FM090000 VRB05KT P6SM VCSH BKN040 OVC060 PROB30 0900/0906 VRB25G35KT -TSRA BKN040CB
KMYR,KMYR 081135Z 0812/0912 31007KT P6SM BKN040 TEMPO 0812/0814 5SM RA BR FM082000 25004KT P6SM BKN060 FM090100 00000KT P6SM FEW100
KNBC,TAF KNBC 0809/0909 VRB06KT 9999 SCT100 QNH2966INS BECMG 0818/0820 27010KT 4800 TSRA BR BKN015CB QNH2964INS FM082300 VRB06KT 9999 SCT100 QNH2969INS TEMPO 0823/0903 03012KT 4800 TSRA BR BKN020CB T21/0811Z T32/0817Z
KNBG,TAF KNBG 0807/0907 23004KT 9999 SCT030 SCT120 BKN250 QNH2972INS FM081500 26005KT 9999 VCTS SCT030CB BKN120 OVC200 QNH2970INS TEMPO 0816/0822 VRB25G35KT 1200 +TSRA BKN025CB BKN050 OVC110 FM090400 27008KT 9999 FEW050 SCT180 BKN250 QNH2974INS AUTOMATED SENSOR METWATCH 0807 TIL 0811 TX29/0821Z TN21/0812Z FN00172
KNCA,TAF KNCA 0809/0909 VRB06KT 9999 BKN100 QNH2965INS TEMPO 0810/0815 4800 -RA BR BKN015 OVC030 FM081600 22008KT 9000 HZ BKN100 QNH2970INS FM082100 VRB06KT 9000 HZ SKC QNH2972INS T17/0809Z T24/0820Z
KNEW,KNEW 081134Z 0812/0912 23007KT P6SM FEW025 FM081500 32005KT P6SM SCT030 FM082000 30008KT P6SM VCTS SCT040CB FM090100 26008KT P6SM FEW030 FM090900 29008KT P6SM FEW250
KNFG,TAF KNFG 0809/0909 VRB05KT 9999 FEW040 QNH2999INS BECMG 0812/0814 BKN040 522909 523805 QNH3001INS BECMG 0817/0819 33008KT 522909 523805 QNH2997INS FM082230 34008KT 9999 SCT040 522909 523805 QNH2997INS BECMG 0902/0904 VRB05KT 522909 523805 QNH3002INS T15/0813Z T22/0821Z
KNFL,TAF KNFL 0807/0907 21006KT 9999 FEW060 SCT120 SCT200 QNH2994INS FM082200 29009KT 9999 VCTS SCT060CB BKN100 BKN200 QNH2993INS TEMPO 0823/0905 VRB20G30KT 6000 TSRA BKN060CB OVC100 FM090600 VRB06KT 9999 SCT060 BKN100 BKN200 QNH3000INS AUTOMATED SENSOR METWATCH 0807 TIL 0815 TX28/0823Z TN11/0812Z FS30020
KNFW,TAF AMD KNFW 0810/0907 VRB06KT 9999 VCTS SCT035CB BKN100 BKN180 QNH2977INS TEMPO 0811/0813 8000 -TSRA BR BKN035CB BKN080 BKN120 FM081500 VRB06KT 9999 VCTS SCT020CB BKN080 QNH2974INS TEMPO 0817/0823 VRB20G30KT 4800 TSRA BKN010CB OVC050 FM090100 VRB06KT 9999 SCT050 BKN120 OVC210 QNH2976INS TX33/0823Z TN21/0812Z AMD 1035 FN20046
KNGP,TAF AMD KNGP 0809/0907 VRB03KT 9999 FEW012 FEW080 SCT200 BKN300 QNH2978INS FM081200 25008KT 9999 SCT012 SCT080 BKN200 OVC300 QNH2983INS TEMPO 0812/0814 24014G20KT FM081400 VRB05KT 9999 SCT015 SCT080 BKN200 BKN300 QNH2985INS FM081800 11008KT 9999 FEW025 SCT050 SCT300 QNH2978INS FM082100 13013KT 9999 FEW035 FEW300 QNH2976INS FM090200 16010KT 9999 FEW015 QNH2979INS AUTOMATED SENSOR METWATCH 0809 TIL 0811 TX34/0819Z TN25/0812Z AMD 0923 FN20044
KNGU,TAF KNGU 0807/0907 VRB05KT 6000 BR SCT015 BKN035 BKN250 QNH2960INS TEMPO 0807/0813 3200 BR BKN008 OVC015 FM081400 VRB05KT 8000 HZ FEW025 SCT060 BKN300 QNH2962INS TEMPO 0818/0823 6000 BR BKN030 BKN050 FM090100 VRB06KT 8000 HZ FEW060 SCT250 QNH2963INS FM090600 VRB06KT 6000 HZ SCT050 BKN210 QNH2960INS TX24/0819Z TN16/0810Z FN00172
KNHK,TAF KNHK 0807/0907 22006KT 6000 HZ SCT110 QNH2958INS BECMG 0814/0816 13007KT 9000 HZ VCTS SCT035CB BKN110 BKN220 QNH2962INS TEMPO 0818/0822 VRB15G30KT 6000 -TSRA BKN020CB OVC110 BECMG 0900/0902 VRB06KT 9000 HZ BKN100 BKN280 QNH2962INS AUTOMATED SENSOR METWATCH 0807 TIL 0808 TX26/0820Z TN18/0810Z FN00172
KNID,TAF AMD KNID 0805/0823 21006KT 9999 FEW100 QNH2992INS WND VRB05KT AFT 0815 BECMG 0818/0820 15007KT 9999 FEW080 FEW200 QNH2986INS BECMG 0821/0823 21010G16KT 9999 FEW080 FEW120 SCT200 QNH2984INS LAST NO AMDS AFT 0805 NEXT 0815 T13/0813Z T30/0823Z AMD 0503
KNIP,TAF KNIP 0807/0907 24008KT 9999 SCT020 BKN120 OVC180 QNH2970INS TEMPO 0809/0812 BKN020 OVC090 FM081500 24010KT 9999 FEW040 SCT100 SCT250 QNH2968INS FM081800 25012KT 9999 VCSH SCT040CB SCT250 QNH2965INS TEMPO 0819/0901 VRB20G30KT 4800 TSRA BKN020CB BKN200 FM090300 25008KT 9999 FEW080 SCT250 QNH2970INS AUTOMATED SENSOR METWATCH 0807 TILL 0809 TX32/0819Z TN23/0811Z FN00172
KNJK,TAF AMD KNJK 0809/0907 25009KT 9999 FEW250 QNH2979INS FM081400 VRB06KT 9999 FEW250 QNH2971INS FM090100 25018G28KT 9999 SKC 530003 QNH2971INS AUTOMATED SENSOR METWATCH 0809 TIL 0813 TX34/0821Z TN18/0813Z AMD 0903 FS30203
KNKT,TAF KNKT 0809/0909 VRB06KT 9999 BKN100 QNH2965INS TEMPO 0810/0815 4800 -RA BR BKN015 OVC030 FM081600 22008KT 9000 HZ BKN100 QNH2970INS FM082100 VRB06KT 9000 HZ SKC QNH2972INS T17/0809Z T26/0820Z
KNKX,TAF KNKX 0809/0909 VRB05KT 9999 OVC025 QNH2998INS FM081730 27008KT 9999 BKN020 OVC025 QNH2999INS BECMG 0820/0822 27012KT 9999 SCT025 BKN035 QNH2997INS TEMPO 0823/0902 34005KT T14/0814Z T20/0822Z
KNLC,TAF KNLC 0807/0907 31006KT 9999 BKN060 BKN120 QNH2993INS FM082100 35009KT 9999 SCT060 BKN120 BKN250 QNH2986INS FM090400 31006KT 9999 FEW060 SCT120 SCT250 QNH2989INS AUTOMATED SENSOR METWATCH 0807 TIL 0815 TX29/0823Z TN16/0812Z FS30020
KNMM,TAF KNMM 0807/0907 VRB06KT 9999 FEW040 FEW250 QNH2968INS FM082100 34008KT 9999 VCTS SCT035CB SCT250 QNH2965INS TEMPO 0821/0903 VRB25G35KT 4800 TSRA BKN020CB BKN200 FM090600 VRB06KT 9999 FEW050 SCT280 QNH2967INS AUTOMATED SENSOR METWATCH 0807 TIL 0811 TX33/0819Z TN18/0810Z FN00172
KNPA,TAF KNPA 0807/0907 VRB06KT 9999 FEW020 SCT250 QNH2971INS FM081800 21008KT 9999 SCT025 BKN120 BKN250 QNH2970INS FM090000 25013G18KT FEW050 SCT180 BKN250 QNH2974INS AUTOMATED SENSOR METWATCH 0807 TIL 0811 TX30/0820Z TN20/0812Z FN00172
KNQI,TAF AMD KNQI 0812/0907 VRB06KT 9999 FEW015 SCT070 BKN250 QNH2981INS TEMPO 0812/0815 31009KT SCT015 BKN070 BKN250 FM081500 19007KT 9999 SCT020 SCT120 BKN250 QNH2982INS FM081800 15008KT 9999 SCT045 SCT250 QNH2976INS FM082100 13012G18KT 9999 VCTS SCT050CB BKN250 QNH2975INS FM090200 15008KT 9999 BKN250 QNH2980INS TX37/0821Z TN23/0812Z AMD 1215 FN20081
KNQX,TAF KNQX 0807/0907 21010KT 9999 SCT025 BKN150 BKN250 QNH2978INS FM081200 23012KT 9999 VCSH FEW020 SCT150 BKN250 QNH2975INS FM082100 25010KT 9999 FEW180 SCT250 QNH2977INS AUTOMATED SENSOR METWATCH 0807 TIL 0810 TX31/0820Z TN27/0811Z FN00172
KNRB,TAF KNRB 0807/0907 23007KT 9999 FEW030 SCT250 QNH2970INS FM081500 26010KT 9999 FEW040 SCT100 SCT250 QNH2968INS FM081700 20013G18KT 9999 VCSH SCT040CB SCT250 QNH2965INS TEMPO 0819/0901 VRB20G30KT 4800 TSRA BKN020CB BKN200 FM090300 25008KT 9999 FEW080 SCT250 QNH2970INS QNH2968INS AUTOMATED SENSOR METWATCH 0807 TIL 0809 TX32/0819Z TN23/0811Z FN00172
KNSE,TAF KNSE 0807/0907 24006KT 9999 SCT030 BKN130 QNH2972INS FM081300 26006KT 9999 FEW035 SCT160 SCT250 QNH2975INS FM081900 29006KT 9999 SCT120 SCT200 QNH2970INS AUTOMATED SENSOR METWATCH 0807 TIL 0811 TX32/0820Z TN20/0811Z FN00172
KNTD,TAF KNTD 0807/0907 VRB06KT 9999 SCT030 QNH2996INS TEMPO 0809/0815 BKN025 FM081900 25010KT 9999 SCT025 QNH2995INS FM090300 VRB06KT 9999 BKN015 QNH2997INS AUTOMATED SENSOR METWATCH 0807 TIL 0813 TX19/0820Z TN13/0812Z FS30203
KNTU,TAF AMD KNTU 0807/0907 VRB06KT 4800 BR SCT008 OVC035 QNH2961INS TEMPO 0807/0810 0800 FG VV006 FM081500 VRB06KT 8000 HZ FEW010 BKN035 OVC050 QNH2963INS TEMPO 0818/0900 6000 BR BKN030 BKN050 FM090100 VRB06KT 8000 HZ SCT050 BKN120 QNH2964INS FM090600 VRB06KT 4800 HZ SCT030 BKN080 QNH2961INS TX23/0819Z TN15/0808Z AMD 0715 FN00172
KNUC,TAF KNUC 0723/0823 28009KT 9999 FEW020 SCT030 BKN040 QNH2996INS BECMG 0809/0811 VRB06KT 9999 BKN009 BKN030 QNH3000INS BECMG 0821/0823 30011KT 9999 SCT015 BKN045 QNH2998INS TX17/0821Z TN14/0810Z FS30211
KNUW,TAF KNUW 0807/0907 23007KT 9999 FEW050 SCT150 BKN250 QNH2985INS FM081100 22007KT 9999 SCT005 BKN150 BKN250 QNH2990INS FM081900 24009KT 9999 FEW150 SCT250 QNH2986INS TX20/0822Z TN10/0812Z FS30020
KNXP,TAF KNXP 0809/0909 28013KT 9999 SCT100 QNH2997INS FM082330 21010KT 9999 SCT100 QNH2996INS T18/0814Z T31/0823Z
KNYG,TAF KNYG 0809/0909 VRB06KT 3200 HZ SCT100 BKN230 QNH2963INS TEMPO 0809/0815 4800 HZ T27/0820Z T15/0909Z
KNYL,TAF KNYL 0809/0909 18005KT 9999 FEW250 QNH2985INS BECMG 0815/0817 20008KT 9999 SCT250 QNH2984INS FM082100 20010KT 9999 SCT250 QNH2976INS FM080500 20006KT 9999 FEW250 QNH2983INS AUTOMATED SENSOR METWATCH 0806 TIL 0814 T21/0813Z T34/0823Z
KNZY,TAF KNZY 0807/0907 VRB06KT 9999 SCT030 QNH2994INS TEMPO 0809/0815 BKN025 FM081800 28011KT 9999 BKN035 QNH2993INS FM090200 31008KT 9999 BKN035 QNH2994INS FM090600 VRB06KT 9999 BKN025 QNH3000INS TX20/0820Z TN15/0812Z FS30203
KOAJ,KOAJ 081134Z 0812/0912 VRB03KT 5SM BR HZ BKN003 FM081300 26005KT 6SM HZ BKN015 BKN025 FM081400 26005KT 6SM HZ VCSH BKN050 FM081700 26005KT 6SM HZ FEW050 FM082000 29006KT 6SM HZ SCT250 AMD LTD TO CLD VIS AND WIND
KOAK,KOAK 081202Z 0812/0918 28005KT P6SM SCT025 FM081700 27012KT P6SM SKC FM090500 27007KT P6SM SCT008 FM090800 26008KT P6SM BKN015
KOFF,TAF KOFF 081000Z 0810/0916 12009KT 9999 BKN100 OVC140 QNH2983INS BECMG 0813/0814 13012G18KT 9999 VCSH OVC100 QNH2986INS BECMG 0819/0820 14009KT 9999 NSW BKN080 OVC110 QNH2982INS BECMG 0913/0914 14009KT 8000 -SHRA OVC080 QNH2992INS TX28/0820Z TN17/0910Z
KOFK,KOFK 081120Z 0812/0912 13005KT P6SM -SHRA SCT060 BKN110 FM081700 10007KT P6SM SCT120 FM082300 15005KT P6SM SCT060 SCT100
KOGB,KOGB 081130Z 0812/0912 VRB03KT P6SM FEW040 BKN100 FM081400 34006KT P6SM SCT035 OVC080 FM082100 35006KT P6SM VCSH SCT040 BKN100 FM090200 VRB03KT P6SM BKN250
KOGD,KOGD 081120Z 0812/0912 15006KT P6SM FEW100 FM081800 17010KT P6SM SCT120 FM082100 19007KT P6SM VCSH SCT120 FM090300 16006KT P6SM FEW120
KOKC,KOKC 081130Z 0812/0912 20006KT P6SM SCT060 SCT250 PROB30 0821/0901 -TSRA BKN060CB
KOLF,KOLF 081125Z 0812/0912 04008KT P6SM SCT150 FM081700 06012KT P6SM FEW100 TEMPO 0818/0821 6SM -SHRA BR BKN060 FM082300 09013KT 6SM -SHRA BR BKN080 PROB30 0823/0824 TSRA OVC060CB FM090000 10013KT 6SM SHRA BR BKN090 PROB30 0900/0901 TSRA OVC060CB FM090100 06012KT P6SM BKN080 PROB30 0901/0907 4SM TSRA BR OVC060CB
KOLM,KOLM 081132Z 0812/0912 22003KT P6SM SCT250 FM081500 21005KT P6SM SCT015 SCT250 FM081900 25007KT P6SM SCT250 FM090800 20006KT P6SM OVC100
KOLS,KOLS 081120Z 0812/0912 VRB04KT P6SM BKN250 FM081600 18008KT P6SM BKN200 FM082000 23012G20KT P6SM OVC200 FM090200 23009KT P6SM OVC200 FM090600 VRB03KT P6SM OVC200
KOMA,KOMA 081120Z 0812/0912 13009KT P6SM SCT110 FM090200 13006KT P6SM SCT100
KONP,KONP 081120Z 0812/0912 22006KT P6SM OVC018 FM090400 VRB03KT 5SM -DZ BR OVC008
KONT,KONT 081137Z 0812/0918 VRB03KT P6SM BKN025 FM081600 VRB04KT P6SM SCT025 BKN035 FM081800 22005KT P6SM SCT030 FM082100 25012G18KT P6SM SKC FM090400 25007KT P6SM SCT020 FM090700 VRB04KT P6SM OVC015 FM091700 VRB04KT P6SM BKN022
KOPF,KOPF 081120Z 0812/0912 21005KT P6SM SCT025 SCT080 FM081500 24010G17KT P6SM VCTS SCT030CB BKN050 FM090000 22008KT P6SM SCT030 SCT100
KORD,KORD 081120Z 0812/0918 03008KT P6SM FEW250 FM081800 04012KT P6SM FEW250 FM090300 35006KT P6SM FEW250
KORF,KORF 081144Z 0812/0912 17004KT 5SM HZ SCT008 BKN100 TEMPO 0812/0814 BKN008 FM081600 03007KT 5SM HZ VCSH BKN050 FM082200 08006KT 4SM HZ BKN080
KORH,KORH 081120Z 0812/0912 29005KT P6SM OVC035 FM082200 30003KT P6SM VCSH BKN050 FM090600 00000KT 3SM BR BKN045 FM090900 35003KT P6SM OVC045 FM091100 02003KT 6SM BR VCSH OVC029
KOTH,KOTH 081120Z 0812/0912 VRB03KT 3SM BR OVC005 FM081600 25004KT P6SM OVC009 FM081900 29008KT P6SM OVC015 FM090300 26004KT 4SM BR OVC015 FM090700 VRB03KT 3SM BR OVC007
KOTM,KOTM 081127Z 0812/0912 10009KT P6SM FEW250
KOUN,KOUN 081130Z 0812/0912 19006KT P6SM SCT060 SCT250 PROB30 0821/0901 -TSRA BKN060CB
KOWB,KOWB 081132Z 0812/0912 VRB03KT P6SM SKC FM081700 36007KT P6SM FEW250 FM090100 01004KT P6SM FEW070
KOXR,KOXR 081141Z 0812/0912 VRB03KT P6SM OVC015 FM081700 26006KT P6SM BKN025 BKN040 FM082100 27010KT P6SM SCT040 FM090700 VRB03KT P6SM BKN025
KOZR,TAF KOZR 081000Z 0810/0916 26006KT 9999 SCT250 QNH2974INS TEMPO 0810/0812 4800 BR FEW005 BECMG 0814/0815 27008KT 9999 SCT040 QNH2970INS BECMG 0820/0821 27008KT 9999 VCTS SCT050CB SCT250 QNH2970INS BECMG 0823/0824 24008KT 9999 NSW SCT060 SCT100 BKN250 QNH2972INS TX33/0821Z TN19/0810Z
KPAE,KPAE 081132Z 0812/0912 20007KT P6SM SCT250 FM081900 23005KT P6SM SCT250 FM090100 34006KT P6SM SCT250 FM090600 VRB04KT P6SM OVC100
KPAH,KPAH 081132Z 0812/0912 00000KT 3SM BR SKC FM081230 VRB04KT P6SM FEW250 FM081500 01008KT P6SM SCT250 FM090100 VRB03KT P6SM SKC
KPAM,TAF KPAM 081100Z 0811/0917 27009KT 9999 SCT015 BKN025 QNH2977INS TEMPO 0815/0819 27012G18KT 4800 -SHRA VCTS BKN015CB BECMG 0818/0819 24012KT 9999 FEW010 SCT030 QNH2979INS BECMG 0908/0909 24006KT 9999 FEW005 SCT015 QNH2976INS TEMPO 0909/0913 00000KT BKN002 BECMG 0912/0913 27006KT 9999 SCT010 QNH2981INS TX30/0820Z TN25/0811Z
KPBF,KPBF 081122Z 0812/0912 VRB02KT 4SM BR SCT250 FM081400 01006KT P6SM FEW100 SCT250 FM082100 34006KT 6SM -SHRA BR VCTS BKN050CB OVC100 TEMPO 0823/0903 5SM -TSRA BR BKN050CB FM090400 VRB03KT P6SM OVC120
KPBG,KPBG 081133Z 0812/0912 36008KT P6SM VCSH OVC020 TEMPO 0812/0814 SCT020 OVC035 FM081400 01008KT P6SM VCSH BKN035 OVC070 FM081700 03007KT P6SM -SHRA OVC035 FM082100 03006KT P6SM VCSH BKN060 FM090600 VRB04KT P6SM OVC025
KPBI,KPBI 081120Z 0812/0912 22005KT P6SM SCT025 BKN150 FM081500 24010G17KT P6SM VCTS SCT025CB BKN050 FM090000 22008KT P6SM SCT030 SCT100 FM090600 VRB05KT P6SM FEW030
KPDK,KPDK 081131Z 0812/0912 31005KT P6SM FEW150 FM081600 32010G20KT P6SM FEW070 FEW250 FM090200 34006KT P6SM FEW250 FM090500 02004KT P6SM FEW200
KPDT,KPDT 081231Z 0813/0912 15006KT P6SM BKN110 TEMPO 0813/0814 -SHRA OVC100 FM081700 27008KT P6SM BKN110 FM090600 22007KT P6SM OVC050
KPDX,KPDX 081120Z 0812/0912 33006KT P6SM FEW015 SCT200 FM081300 VRB03KT P6SM BKN015 FM081800 VRB04KT P6SM SCT020 BKN150 FM082000 32006KT P6SM SCT035 BKN120 FM090600 32005KT P6SM OVC035
KPEQ,KPEQ 081120Z 0812/0912 17010KT P6SM SCT250
KPGA,KPGA 081120Z 0812/0912 VRB06KT P6SM FEW120 SCT200
KPGD,KPGD 081133Z 0812/0912 21004KT P6SM VCSH SCT040 SCT250 FM081500 25011KT P6SM VCTS SCT040CB BKN250 FM081700 25013G21KT P6SM VCSH SCT040 FM082100 25011KT P6SM FEW250 FM082300 23004KT P6SM SKC
KPGV,KPGV 081312Z 0813/0912 27004KT 6SM HZ BKN010 FM081600 VRB04KT 6SM HZ SCT035 FM082000 29006KT 6SM HZ SCT250 AMD LTD TO CLD VIS AND WIND
KPHF,KPHF 081144Z 0812/0912 VRB03KT 2SM BR OVC002 FM081300 VRB03KT 3SM HZ SCT008 BKN015 TEMPO 0813/0815 2SM BR BKN007 FM081500 26004KT 5SM HZ SCT060 FM081700 07008KT 5SM HZ VCSH BKN060 FM082200 07006KT 5SM HZ SCT070
KPHL,KPHL 081120Z 0812/0918 33005KT 4SM HZ FEW150 TEMPO 0812/0815 1SM HZ FU FM081700 28010G17KT 5SM HZ BKN080 FM082300 32008KT 5SM HZ SCT070 FM090200 35005KT 6SM HZ BKN070
KPHX,KPHX 081120Z 0812/0918 11005KT P6SM FEW250 FM081800 18007KT P6SM SCT250 FM082100 27008KT P6SM BKN250 FM091100 10005KT P6SM FEW250
KPIA,KPIA 081120Z 0812/0912 04005KT P6SM FEW250 FM081700 04007KT P6SM FEW060 FEW250 FM090100 VRB05KT P6SM FEW250
KPIB,KPIB 081120Z 0812/0912 34003KT P6SM SKC
KPIE,KPIE 081133Z 0812/0912 24007KT P6SM SKC FM081400 26008KT P6SM VCSH SCT030 BKN250 FM081900 26008KT P6SM SCT030 BKN250 FM090600 23004KT P6SM BKN250
KPIH,KPIH 081127Z 0812/0912 VRB05KT P6SM BKN150 OVC200 FM081800 27008KT P6SM -SHRA VCTS SCT080CB BKN120 FM082100 24010KT P6SM -SHRA VCTS BKN090CB BKN200 TEMPO 0823/0902 VRB20G35KT 6SM -TSRA SCT030 BKN060CB OVC100 FM090200 22008KT P6SM FEW080 FEW200
KPIR,KPIR 081123Z 0812/0912 VRB05KT P6SM SCT250 FM082000 09006KT P6SM VCSH SCT080 BKN250 FM090300 10007KT P6SM BKN040
KPIT,KPIT 081141Z 0812/0918 33004KT P6SM FEW250 FM081500 33009KT P6SM SCT200 FM090600 31003KT 6SM HZ SCT060 FM091600 33009KT 6SM HZ BKN040
KPKB,KPKB 081125Z 0812/0912 VRB03KT 6SM HZ SKC FM081800 33007KT 6SM HZ SCT070
KPLN,KPLN 081136Z 0812/0912 36006KT P6SM FEW250 FM081700 04009G16KT P6SM SCT070 FM090200 33004KT P6SM FEW250
KPMD,KPMD 081141Z 0812/0912 20008KT P6SM SKC FM081900 24010KT P6SM SKC FM082200 23017G25KT P6SM SKC FM090400 22010KT P6SM SKC
KPNA,KPNA 081121Z 0812/0912 30007KT P6SM VCSH OVC070 FM082000 20010G16KT P6SM VCTS SCT070CB BKN100 FM090300 20006KT P6SM SCT120
KPNC,KPNC 081130Z 0812/0912 24006KT P6SM SCT100 SCT250
KPNE,KPNE 081120Z 0812/0912 VRB02KT 3SM HZ FEW030 TEMPO 0812/0813 1 1/2SM HZ FU FM081300 36005KT 4SM HZ FEW150 FM081700 32010G17KT 5SM HZ BKN080 FM082200 35008KT 5SM HZ SCT070 FM090400 34005KT 5SM HZ BKN060
KPNS,KPNS 081129Z 0812/0912 25005KT P6SM SKC FM081400 31005KT P6SM SCT020 SCT060 FM081800 21009KT P6SM VCTS SCT040CB SCT130 FM090100 25006KT P6SM FEW040 SCT250
KPOB,TAF KPOB 080100Z 0801/0907 VRB05KT 8000 -RA FEW050 SCT070 OVC090 QNH2968INS BECMG 0806/0807 VRB03KT 8000 BR SCT008 SCT025 BKN050 BKN100 QNH2966INS BECMG 0814/0815 31008KT 9999 NSW SCT060 SCT100 QNH2966INS BECMG 0821/0822 VRB05KT 9999 FEW060 FEW100 QNH2967INS BECMG 0906/0907 VRB03KT 9999 SKC QNH2975INS TX27/0820Z TN15/0811Z LAST NO AMDS AFT 0802 NEXT 0817
KPOE,TAF KPOE 080700Z 0807/0913 VRB06KT 9999 SKC QNH2979INS TEMPO 0807/0810 4800 BR SCT009 BECMG 0809/0810 VRB06KT 3200 BR BKN008 QNH2980INS BECMG 0812/0813 31007KT 9999 NSW SCT012 BKN030 QNH2983INS BECMG 0814/0815 33009KT 9999 SCT030 BKN050 QNH2985INS BECMG 0819/0820 33012KT 9999 VCSH SCT030 BKN050 QNH2975INS TEMPO 0820/0901 VRB10G15KT 4800 -SHRA VCTS BKN030CB BKN050 BECMG 0902/0903 22007KT 9999 NSW FEW050 SCT100 QNH2980INS BECMG 0905/0906 22007KT 9999 SKC QNH2980INS TX33/0820Z TN18/0811Z
KPOU,KPOU 081313Z 0813/0912 00000KT 2SM HZ SCT250 FM081400 32004KT 5SM HZ SCT045 BKN100 FM081800 31006KT 6SM HZ VCSH SCT045 BKN090 TEMPO 0821/0824 3SM -SHRA BR BKN035 FM090000 32004KT P6SM VCSH BKN040 OVC100
KPQI,KPQI 081120Z 0812/0912 04006KT 6SM -SHRA OVC007 FM081700 06006KT 6SM -SHRA OVC015 FM090000 06006KT 6SM -SHRADZ SCT007 OVC015 FM090500 06006KT 3SM -SHRADZ BR OVC007
KPRB,KPRB 081141Z 0812/0912 VRB03KT P6SM SCT025 FM081300 VRB03KT P6SM BKN025 FM081800 20006KT P6SM BKN035 FM082200 20012KT P6SM SCT035 FM090200 20007KT P6SM SKC
KPRC,KPRC 081120Z 0812/0912 20005KT P6SM SKC FM081600 14008G14KT P6SM FEW250 FM081900 21012G18KT P6SM BKN200 FM090200 20007KT P6SM BKN200
KPSC,KPSC 081120Z 0812/0912 15005KT P6SM FEW150 SCT200 FM082300 16009KT P6SM SCT120 BKN150 FM090600 24004KT P6SM OVC090
KPSF,KPSF 081314Z 0813/0912 29005KT 2SM HZ VCSH OVC010 TEMPO 0814/0816 4SM HZ BKN015 FM081600 30005KT 3SM HZ VCSH SCT012 BKN030 FM081800 32006KT 6SM HZ VCSH BKN035 TEMPO 0821/0824 3SM -SHRA BR OVC020 FM090000 35004KT 5SM BR VCSH OVC040
KPSM,KPSM 081121Z 0812/0912 29004KT P6SM BKN050 FM081800 14006KT P6SM SCT025 BKN040 FM082300 VRB03KT P6SM BKN040
KPSP,KPSP 081137Z 0812/0912 VRB05KT P6SM SKC FM082000 32015G25KT P6SM SKC FM090700 31006KT P6SM SKC
KPTK,KPTK 081120Z 0812/0912 33006KT 5SM HZ SCT080 BKN120 FM081400 35010G17KT P6SM SCT060 BKN090 FM090100 01005KT 6SM HZ BKN100 FM090600 34003KT 5SM HZ SCT100
KPUB,KPUB 081126Z 0812/0912 02008KT P6SM FEW120 BKN200 FM081800 15010KT P6SM BKN200 FM082100 11010KT P6SM SCT070 BKN200 FM090000 10009KT P6SM VCSH BKN070 FM090400 04012KT P6SM SCT070 BKN200 FM090700 VRB06KT P6SM SCT200
KPUW,KPUW 081124Z 0812/0912 07004KT P6SM SCT120 FM082100 28006KT P6SM VCTS BKN070CB BKN100 OVC200 FM090000 15005KT P6SM -SHRA VCTS SCT040 BKN080CB PROB30 0900/0904 4SM TSRA BR OVC040CB FM090600 VRB03KT P6SM OVC080
KPVD,KPVD 081120Z 0812/0912 00000KT P6SM SCT110 FM081500 24003KT P6SM BKN060 FM082000 17006KT P6SM VCSH BKN050 FM090000 20004KT P6SM BKN080
KPVU,KPVU 081120Z 0812/0912 14005KT P6SM SCT120 FM081600 24009KT P6SM SCT120 FM081900 24011G22KT P6SM VCSH FEW080 SCT120 FM090200 14004KT P6SM FEW120
KPVW,KPVW 081121Z 0812/0912 VRB06KT P6SM FEW100 BKN200
KPWM,KPWM 081121Z 0812/0912 30004KT P6SM BKN070 FM081400 12006KT P6SM SCT025 BKN035 FM090000 VRB03KT P6SM BKN012 FM090400 VRB03KT P6SM OVC003
KPWT,KPWT 081132Z 0812/0912 22006KT P6SM OVC010 FM081500 21009KT P6SM SCT120 FM081800 22008KT P6SM SCT150 FM091000 20006KT P6SM OVC030
KRAP,KRAP 081120Z 0812/0912 VRB06KT P6SM FEW100 FM081700 13010KT P6SM SCT080
KRBG,KRBG 081120Z 0812/0912 36004KT P6SM OVC025 FM081700 35003KT P6SM BKN030 FM082000 34007KT P6SM BKN050 FM090000 33009KT P6SM BKN100
KRBL,KRBL 081120Z 0812/0912 16007KT P6SM BKN040 OVC050 FM082200 18012KT P6SM SCT200 FM090000 17011KT P6SM VCSH SCT100 BKN150 FM090300 16008KT P6SM OVC050
KRCA,TAF KRCA 081100Z 0811/0917 VRB06KT 9999 FEW120 QNH2987INS BECMG 0816/0817 16010KT 9999 SCT050 BKN120 QNH2985INS TS OVR BLKHILS 18-02 BECMG 0905/0906 VRB06KT 9999 FEW060 FEW085 SCT320 QNH2988INS TX29/0820Z TN15/0911Z
KRDD,KRDD 081120Z 0812/0912 17009KT P6SM OVC050 FM082200 18008KT P6SM SCT200 FM090000 17011KT P6SM VCTS SCT100CB BKN150 TEMPO 0901/0904 VRB12G20KT P6SM TSRA OVC050CB FM090700 VRB06KT P6SM BKN050
KRDG,KRDG 081120Z 0812/0912 32005KT 3SM HZ FEW150 TEMPO 0812/0815 1SM HZ FU FM081800 32010G17KT 5SM HZ BKN090 FM082200 33006KT 5SM HZ SCT070 FM090600 VRB03KT 6SM HZ BKN080
KRDM,KRDM 081120Z 0812/0912 VRB04KT P6SM BKN120 FM081900 34008KT P6SM BKN100 FM082100 30007KT P6SM SCT080 BKN100 TEMPO 0821/0824 -SHRA OVC050 FM090000 30010KT P6SM OVC080
KRDR,TAF KRDR 081000Z 0810/0916 VRB06KT 9999 FEW080 QNH2982INS BECMG 0814/0815 14009KT 9999 SCT060 QNH2990INS TEMPO 0820/0824 9000 -SHRA BKN050 TX26/0821Z TN15/0812Z
KRDU,KRDU 081133Z 0812/0912 33004KT 3SM BR BKN004 BKN080 FM081300 33007KT P6SM SCT090 BKN250 FM082300 30003KT 5SM HZ SKC
KRFD,KRFD 081120Z 0812/0912 04007KT P6SM FEW250 FM090300 VRB03KT P6SM FEW250
KRHI,KRHI 081122Z 0812/0912 VRB03KT P6SM FEW250 FM081400 02006KT P6SM FEW250 FM090100 VRB03KT P6SM FEW250
KRIC,KRIC 081144Z 0812/0912 VRB03KT 1/2SM FG VV002 FM081300 35005KT 3SM HZ BKN015 TEMPO 0813/0814 2SM BR BKN006 FM081500 35008KT 4SM HZ FU VCSH SCT040 BKN060 FM081900 35007KT 3SM HZ SCT060 FM082300 VRB03KT 6SM HZ SCT080
KRIL,KRIL 081120Z 0812/0912 VRB03KT P6SM FEW250 FM081800 27006KT P6SM FEW100 FM090200 VRB04KT P6SM FEW100
KRIV,TAF KRIV 081205Z 0812/0918 31006KT 9999 OVC020 QNH2999INS TEMPO 0813/0815 OVC018 BECMG 0815/0816 31006KT 9999 SCT018 OVC025 QNH3002INS BECMG 0817/0818 31006KT 9999 SCT030 BKN250 QNH3001INS BECMG 0819/0820 32009KT 9999 FEW050 BKN250 510005 QNH2995INS TEMPO 0822/0902 32012G20KT BECMG 0903/0904 30006KT 9999 SCT025 QNH3002INS BECMG 0908/0909 30004KT 9999 BKN015 OVC025 QNH2999INS BECMG 0911/0912 30004KT 8000 BR BKN010 OVC020 QNH3001INS BECMG 0914/0915 30004KT 9000 BR BKN012 OVC020 QNH3002INS BECMG 0916/0917 30004KT 9999 NSW SCT012 OVC020 QNH3003INS TX25/0822Z TN13/0813Z
KRIW,KRIW 081121Z 0812/0912 27006KT P6SM FEW080 SCT100 FM081700 11006KT P6SM BKN080 FM082000 22010KT P6SM VCTS FEW060CB BKN080 FM082300 27010KT P6SM BKN080 FM090500 33010KT P6SM SCT120
KRKD,KRKD 081121Z 0812/0912 VRB03KT P6SM BKN060 FM081600 12006KT P6SM BKN025 FM082100 VRB03KT P6SM OVC005
KRKS,KRKS 081121Z 0812/0912 VRB05KT P6SM VCSH SCT070 BKN100 FM081900 08008KT P6SM VCTS SCT100CB FM090200 26007KT P6SM SCT120
KRME,KRME 081142Z 0812/0912 VRB03KT 4SM -SHRA FU BKN015 TEMPO 0812/0813 2SM FU BKN008 FM081500 31004KT 6SM -SHRA HZ BKN025 FM081700 31007KT P6SM -SHRA BKN040 FM082300 VRB03KT P6SM BKN050 FM090900 00000KT P6SM BKN025
KRND,TAF KRND 081000Z 0810/0916 24006KT 9999 FEW045 BKN065 BKN180 QNH2981INS BECMG 0818/0819 11009KT 9999 SCT045 BKN120 BKN200 QNH2983INS TEMPO 0818/0823 VRB15G30KT 4800 -TSRA BR BKN040CB OVC150 BECMG 0905/0906 18006KT 8000 BR FEW030 FEW050 SCT065 QNH2985INS TX33/0820Z TN21/0811Z
KRNH,KRNH 081129Z 0812/0912 10007KT P6SM BKN150
KRNO,KRNO 081121Z 0812/0912 VRB04KT P6SM SCT200 FM082000 29012G18KT P6SM VCTS BKN080CB FM090400 33006KT P6SM BKN100 FM090600 VRB04KT P6SM SCT100
KROA,KROA 081120Z 0812/0912 30005KT P6SM FEW150 FM081500 32010KT P6SM FEW060 FM090200 32004KT P6SM SKC
KROC,KROC 081120Z 0812/0912 30006KT P6SM SCT025 BKN040 TEMPO 0812/0815 BKN025 FM081500 36008KT 6SM HZ BKN040 FM090000 35006KT P6SM BKN060 FM090600 25005KT P6SM BKN060
KROG,KROG 081126Z 0812/0912 VRB03KT P6SM SCT150 FM081800 VRB05KT P6SM SCT060 SCT120 FM082100 VRB06KT P6SM VCTS SCT060CB BKN120 FM090200 VRB04KT P6SM BKN100
KROW,KROW 081132Z 0812/0912 VRB05KT P6SM SKC FM081500 16007KT P6SM SKC FM082100 18010KT P6SM SKC FM090200 21007KT P6SM SKC FM090500 25006KT P6SM FEW250
KRSL,KRSL 081120Z 0812/0912 26005KT P6SM SKC FM081700 14006KT P6SM SCT060 BKN250 FM090100 06007KT P6SM SCT110
KRST,KRST 081120Z 0812/0912 12006KT P6SM SCT120
KRSW,KRSW 081133Z 0812/0912 21004KT P6SM VCSH SKC FM081500 24009KT P6SM VCTS SCT025CB BKN120 FM081700 25012G20KT P6SM VCSH SCT030 BKN250 FM082200 22005KT P6SM SCT015 FM090600 VRB03KT P6SM BKN250
KRUT,KRUT 081133Z 0812/0912 32004KT P6SM VCSH BKN009 OVC015 TEMPO 0812/0814 SCT012 OVC050 FM081400 33004KT P6SM VCSH OVC050 FM081800 33005KT P6SM -SHRA BKN060 FM082200 35005KT P6SM VCSH BKN060 FM090900 00000KT P6SM OVC040
KRVS,KRVS 081126Z 0812/0912 VRB03KT P6SM SCT250 FM081900 VRB05KT P6SM FEW070 SCT120 FM090300 VRB03KT P6SM BKN120
KRWF,KRWF 081129Z 0812/0912 11010KT P6SM SCT050 BKN080 TEMPO 0812/0815 4SM -SHRA OVC050
KRWI,KRWI 081120Z 0812/0912 22005KT P6SM SCT005 BKN015 TEMPO 0812/0813 2SM BR BKN004 FM081400 27007KT P6SM SCT025 SCT060 FM081700 28007KT P6SM BKN060 FM082300 29003KT P6SM SCT250
KRWL,KRWL 081120Z 0812/0912 VRB05KT P6SM SCT100 FM081900 25009KT P6SM VCTS SCT080CB FM082300 18008KT P6SM SCT100
KRYY,KRYY 081131Z 0812/0912 32005KT P6SM FEW150 FM081500 32010G20KT P6SM FEW070 FEW250 FM082300 34009KT P6SM FEW250 FM090300 02005KT P6SM FEW200
KSAC,KSAC 081120Z 0812/0912 20008KT P6SM BKN070 FM081700 22006KT P6SM SCT060 SCT200 FM082300 22010KT P6SM FEW100 FEW200 FM090600 16007KT P6SM FEW200
KSAF,KSAF 081132Z 0812/0912 36009KT P6SM SKC FM081800 25011KT P6SM FEW250 FM090300 36006KT P6SM SCT250
KSAN,KSAN 081137Z 0812/0918 VRB03KT P6SM OVC025 FM081700 28007KT P6SM SCT025 BKN035 FM082000 29010KT P6SM SCT025 FM090300 30006KT P6SM BKN025 FM090800 VRB04KT P6SM OVC018 FM091600 VRB04KT P6SM BKN022
KSAT,KSAT 081121Z 0812/0918 34008KT P6SM BKN250 FM081300 VRB04KT P6SM BKN250 FM081600 21004KT P6SM SCT040 SCT250 TEMPO 0820/0823 VRB15G30KT 3SM TSRA SCT040CB OVC070 FM090000 VRB04KT P6SM FEW060 SCT250
KSAV,KSAV 081120Z 0812/0912 26008KT P6SM SCT040 BKN250 FM081900 09009KT P6SM VCTS BKN040CB TEMPO 0821/0901 VRB10G15KT 5SM -TSRA BR SCT030 BKN040CB FM090200 08005KT P6SM SCT050 FM090800 00000KT P6SM SCT040 BKN120
KSAW,KSAW 081120Z 0812/0912 36005KT P6SM SKC FM081600 02007KT P6SM SKC
KSBA,KSBA 081141Z 0812/0912 VRB03KT P6SM SCT035 FM081400 VRB03KT P6SM OVC025 FM081800 16008KT P6SM BKN040 FM082100 24008KT P6SM SCT050 FM090300 VRB03KT P6SM OVC025
KSBD,KSBD 081137Z 0812/0912 VRB03KT P6SM BKN025 FM081600 VRB04KT P6SM SCT025 BKN035 FM081800 24005KT P6SM SCT030 FM082100 25011G16KT P6SM SKC FM090400 25006KT P6SM SCT020 FM090800 VRB04KT P6SM OVC015
KSBM,KSBM 081120Z 0812/0912 36007KT P6SM FEW250 FM081700 04008KT P6SM FEW250
KSBN,KSBN 081120Z 0812/0912 VRB04KT P6SM SKC FM081600 33012G20KT 6SM HZ FEW250 FM090100 33005KT P6SM FEW250
KSBP,KSBP 081141Z 0812/0912 VRB03KT P6SM SCT025 FM081400 VRB03KT P6SM BKN025 OVC035 FM081900 30012KT P6SM SCT025 BKN050 FM090400 30006KT P6SM OVC015
KSBY,KSBY 081144Z 0812/0912 VRB03KT 4SM HZ FU BKN060 TEMPO 0812/0814 2SM HZ FU FM081500 25005KT 4SM HZ FU VCSH BKN040 FM082000 10007KT 4SM HZ SCT060 FM090100 VRB03KT 5SM HZ BKN250
KSCK,KSCK 081120Z 0812/0912 31010KT P6SM OVC060 FM081700 29005KT P6SM SCT050 SCT200 FM082300 30012KT P6SM FEW100 FEW200 FM090600 33007KT P6SM FEW150
KSDF,KSDF 081230Z 0813/0918 VRB03KT 6SM HZ SKC FM081900 35007KT 6SM HZ SCT070 FM090200 03005KT P6SM SKC FM090400 VRB03KT P6SM SKC
KSDL,KSDL 081120Z 0812/0912 VRB03KT P6SM FEW250 FM081900 23006KT P6SM BKN250 FM090300 VRB03KT P6SM SCT250
KSDY,KSDY 081125Z 0812/0912 VRB05KT P6SM FEW120 FM081600 05007KT P6SM FEW090 TEMPO 0818/0821 6SM BR BKN060 FM082200 09011KT 6SM -SHRA BR SCT090 PROB30 0822/0904 6SM TSRA BR OVC050CB FM090400 03010KT P6SM BKN100 PROB30 0904/0910 6SM TSRA BR OVC045CB
KSEA,KSEA 081249Z 0813/0918 22008KT P6SM SCT012 SCT150 FM081500 23009KT P6SM BKN120 FM090600 23007KT P6SM BKN150 FM091500 21006KT P6SM OVC050
KSEZ,KSEZ 081120Z 0812/0912 03008KT P6SM SKC FM081600 16008KT P6SM SKC FM081900 20010G18KT P6SM FEW130 BKN200 FM090230 18007KT P6SM BKN200 FM090700 05008KT P6SM SKC
KSFB,KSFB 081120Z 0812/0912 24005KT P6SM SKC FM081400 25008KT P6SM SCT035 SCT150 FM081700 24011KT P6SM VCTS BKN050CB BKN100 FM082200 24008KT P6SM SCT050 BKN100 FM090200 23005KT P6SM SCT050 SCT250
KSFF,KSFF 081124Z 0812/0912 VRB03KT P6SM FEW120 FEW160 SCT240 FM082000 23005KT P6SM VCTS BKN080CB BKN100 OVC200 FM082300 12006KT P6SM -SHRA VCTS SCT040 BKN070CB PROB30 0823/0904 4SM TSRA BR OVC040CB FM090500 08005KT P6SM -SHRA VCTS SCT040 BKN070CB FM091000 04003KT P6SM -SHRA OVC060
KSFO,KSFO 081317Z 0813/0918 27005KT P6SM SCT020 TEMPO 0813/0815 BKN025 FM081800 26012G20KT P6SM SKC FM090500 27009KT P6SM SCT008 FM090900 27005KT P6SM BKN015
KSGF,KSGF 081120Z 0812/0912 VRB04KT P6SM BKN150 FM081600 36006KT P6SM SCT050 BKN100 TEMPO 0816/0820 4SM TSRA BR SCT025 BKN050CB OVC100 FM090200 VRB04KT P6SM OVC150
KSGJ,KSGJ 081120Z 0812/0912 25010G15KT P6SM FEW015 SCT040 SCT250 FM081700 22010G15KT P6SM VCTS SCT025CB BKN040 BKN080 FM090000 23008KT P6SM SCT040 SCT150 BKN250 FM090900 25007KT P6SM SCT010 SCT020 BKN250
KSGR,KSGR 081122Z 0812/0912 VRB05KT P6SM SKC FM081700 28006KT P6SM FEW050 SCT150 FM082200 25006KT P6SM VCTS SCT040CB SCT120 PROB30 0822/0824 VRB20G30KT TSRA FM090100 VRB03KT P6SM SCT050
KSGU,KSGU 081120Z 0812/0912 VRB05KT P6SM FEW160 FM081800 25010KT P6SM FEW160 FM090400 14005KT P6SM FEW180
KSHR,KSHR 081131Z 0812/0912 VRB06KT P6SM OVC100 FM081800 10010KT P6SM VCTS BKN050CB OVC200 FM090600 VRB06KT P6SM BKN050 OVC100
KSHV,KSHV 081120Z 0812/0912 00000KT P6SM SCT280 FM081600 VRB04KT P6SM SCT035 SCT250 FM081900 29005KT P6SM VCTS SCT050CB FM090300 28005KT P6SM BKN250 FM090600 VRB03KT P6SM SCT250
KSJC,KSJC 081240Z 0812/0912 30006KT P6SM SCT024 FM081800 33016KT P6SM SKC FM090300 32011KT P6SM SKC FM090900 32005KT P6SM BKN015
KSJS,KSJS 081248Z 0813/0912 00000KT P6SM SCT002 BKN090 FM081330 VRB04KT P6SM FEW003 FM081400 34007KT P6SM SKC
KSJT,KSJT 081120Z 0812/0912 VRB05KT P6SM SCT250 FM081700 29007KT P6SM FEW250 FM090000 VRB05KT P6SM SKC
KSKA,TAF KSKA 081100Z 0811/0917 08008KT 9999 BKN100 QNH2985INS BECMG 0813/0814 VRB05KT 9999 VCSH BKN060 QNH2987INS TEMPO 0814/0819 -SHRA BKN040 BECMG 0822/0823 18006KT 9000 -SHRA VCTS SCT040 BKN060CB QNH2983INS TEMPO 0823/0905 VRB15G25KT 8000 -TSRA BKN025CB BECMG 0905/0907 18010G15KT 9999 -SHRA SCT007 BKN030 QNH2982INS TX27/0823Z TN15/0812Z
KSKF,TAF KSKF 081000Z 0810/0916 00000KT 9999 BKN060 OVC250 QNH2983INS BECMG 0813/0814 25005KT 9999 FEW040 SCT110 QNH2980INS BECMG 0819/0820 18009KT 9999 SCT055 SCT250 QNH2976INS TEMPO 0821/0901 VRB20G30KT 2400 TSRA BR SCT015 BKN035CB OVC100 BECMG 0901/0902 14007KT 9999 BKN045 BKN100 OVC250 QNH2980INS BECMG 0906/0907 16006KT 9999 FEW050 SCT250 QNH2982INS BECMG 0909/0910 15006KT 9999 FEW250 QNH2980INS TX32/0821Z TN21/0812Z
KSLC,KSLC 081120Z 0812/0918 16005KT P6SM FEW120 SCT180 FM081900 24005KT P6SM SCT120 FM082100 33006KT P6SM VCSH FEW080 SCT120 TEMPO 0821/0824 18011G22KT FM090200 15005KT P6SM FEW120 FEW200
KSLE,KSLE 081300Z 0813/0912 19005KT P6SM SCT020 BKN150 FM081900 20006KT P6SM SCT035 BKN130 FM082300 28011KT P6SM SCT040 BKN120 FM090400 26007KT P6SM OVC035 FM090900 VRB03KT P6SM OVC025
KSLI,TAF KSLI 080500Z 0805/0911 VRB06KT 9999 FEW025 FEW040 QNH2998INS BECMG 0809/0810 VRB06KT 9000 BR SCT018 BKN025 BKN040 QNH2998INS BECMG 0819/0820 VRB06KT 9999 NSW FEW026 QNH2996INS BECMG 0905/0906 VRB06KT 9000 BR BKN018 BKN025 QNH3000INS TX21/0822Z TN15/0814Z
KSLK,KSLK 081133Z 0812/0912 04003KT P6SM VCSH BKN014 OVC070 TEMPO 0812/0814 SCT014 BKN040 OVC070 FM081400 04003KT P6SM VCSH BKN040 OVC070 FM082100 03005KT P6SM -SHRA OVC050 FM090300 00000KT P6SM VCSH OVC040 FM090600 00000KT P6SM OVC030 FM090900 00000KT P6SM OVC011
KSLN,KSLN 081120Z 0812/0912 24004KT P6SM SKC FM082100 07005KT P6SM -SHRA BKN040 OVC250 TEMPO 0821/0822 5SM -TSRA BR BKN030CB OVC050 FM082300 05007KT P6SM SCT040
KSME,KSME 081137Z 0812/0912 00000KT 1/2SM FG BKN002 FM081330 00000KT 2SM BR FEW001 FM081400 VRB04KT P6SM FEW200
KSMF,KSMF 081120Z 0812/0912 16008KT P6SM BKN070 FM081700 19006KT P6SM SCT060 SCT200 FM082300 21012KT P6SM FEW100 FEW200 FM090600 16007KT P6SM FEW200
KSMN,KSMN 081120Z 0812/0912 02004KT P6SM VCSH BKN100 BKN120 FM081600 VRB03KT P6SM VCSH BKN100 FM082000 21007KT 5SM -TSRA BKN080CB PROB30 0900/0903 P6SM TS BKN050CB FM090300 VRB04KT P6SM VCSH BKN070
KSMO,KSMO 081141Z 0812/0912 VRB03KT P6SM SCT035 FM082100 23008KT P6SM SCT040 FM090700 VRB03KT P6SM BKN025
KSMX,KSMX 081141Z 0812/0912 VRB03KT P6SM OVC022 FM081800 29006KT P6SM BKN025 OVC035 FM082100 30012KT P6SM SCT035 FM090200 31007KT P6SM OVC020
KSNA,KSNA 081137Z 0812/0912 VRB03KT P6SM SCT025 FM081300 VRB04KT P6SM BKN022 FM081900 22009KT P6SM FEW025 FM090400 20005KT P6SM BKN022 FM090700 VRB03KT P6SM OVC018
KSNS,KSNS 081201Z 0812/0912 33006KT P6SM SKC FM081700 30014KT P6SM SKC FM090500 28006KT P6SM BKN017
KSNY,KSNY 081120Z 0812/0912 VRB03KT P6SM SKC FM081700 17009KT P6SM SCT070 FM090200 25009KT P6SM SKC
KSOA,KSOA 081120Z 0812/0912 VRB04KT P6SM SCT250
KSPI,KSPI 081120Z 0812/0912 04006KT P6SM FEW250
KSPS,KSPS 081130Z 0812/0912 30011KT P6SM SCT040 BKN100 TEMPO 0812/0814 5SM -RA BR BKN040 FM081700 20008KT P6SM SCT060 SCT250 PROB30 0821/0824 -TSRA BKN060CB
KSRB,KSRB 081150Z 0812/0912 00000KT 3SM BR SKC FM081500 05006KT 6SM HZ SCT240
KSRQ,KSRQ 081133Z 0812/0912 24007KT P6SM VCSH FEW015 FM081900 25008KT P6SM SCT025 BKN250 FM090600 25006KT P6SM BKN250
KSSC,TAF KSSC 080700Z 0807/0913 VRB06KT 9999 FEW025 SCT045 OVC060 QNH2970INS BECMG 0808/0809 04006KT 8000 -SHRA FEW020 SCT040 OVC060 QNH2970INS BECMG 0811/0812 01009KT 9999 NSW SCT030 OVC045 QNH2971INS BECMG 0900/0901 32004KT 9999 FEW060 QNH2973INS BECMG 0909/0910 22006KT 9999 FEW070 SCT120 QNH2977INS TX26/0820Z TN18/0810Z
KSSF,KSSF 081121Z 0812/0912 VRB02KT P6SM BKN250 FM081600 20004KT P6SM SCT040 BKN250 TEMPO 0820/0823 VRB15G30KT 3SM TSRA SCT040CB OVC070 FM090000 VRB03KT P6SM FEW060 SCT250
KSSI,KSSI 081120Z 0812/0912 24010G15KT P6SM FEW015 SCT040 SCT250 FM081700 23012G18KT P6SM VCTS SCT040CB BKN080 BKN250 FM090000 24008KT P6SM SCT040 SCT150 BKN250 FM090900 25007KT P6SM SCT010 SCT020 BKN250
KSTC,KSTC 081129Z 0812/0912 09007KT P6SM BKN070
KSTJ,KSTJ 081127Z 0812/0912 11007KT P6SM VCSH BKN090 FM081400 11007KT P6SM BKN100
KSTL,KSTL 081120Z 0812/0918 07005KT P6SM FEW120 SCT250 FM081700 01008KT P6SM SCT250 FM090200 05005KT P6SM FEW250
KSTS,KSTS 081200Z 0812/0912 VRB06KT P6SM BKN015 FM081700 22012KT P6SM SKC FM090300 19005KT P6SM FEW008 FM090900 20002KT P6SM OVC015
KSUA,KSUA 081120Z 0812/0912 24005KT P6SM FEW040 SCT250 FM081400 25009KT P6SM SCT035 SCT130 FM081800 26010G17KT P6SM VCTS SCT050CB SCT140 FM082300 23006KT P6SM SCT045 BKN120 AMD NOT SKED
KSUN,KSUN 081127Z 0812/0918 32010KT P6SM FEW080 BKN150 FM081800 13010KT P6SM -SHRA BKN070 OVC100 FM082100 16010KT P6SM VCTS SCT060 SCT100CB SCT200 TEMPO 0822/0902 VRB20G35KT 6SM -TSRA SCT030 BKN060CB OVC100 FM090200 32008KT P6SM SCT080 SCT150 AMD LTD TO CLD VIS AND WIND TIL 081300
KSUS,KSUS 081120Z 0812/0912 07005KT P6SM FEW120 SCT250 FM081700 01007KT P6SM SCT250 FM090200 VRB03KT P6SM FEW250
KSUU,TAF KSUU 081055Z 0811/0917 23010G15KT 9999 FEW050 SCT100 QNH2991INS BECMG 0823/0824 23015G25KT 9999 FEW100 QNH2992INS TX26/0823Z TN10/0813Z
KSUX,KSUX 081120Z 0812/0912 VRB04KT P6SM SCT090 FM090000 12008KT P6SM SCT120
KSVN,TAF KSVN 080900Z 0809/0915 25009KT 9999 SCT035 QNH2968INS BECMG 0813/0814 25007KT 9999 BKN015 BKN030 OVC160 QNH2966INS BECMG 0817/0818 25007KT 9999 VCSH SCT030 BKN160 QNH2966INS BECMG 0821/0822 29010G15KT 9999 VCTS BKN030CB OVC080 QNH2966INS BECMG 0900/0901 05006KT 9999 SHRA SCT015 BKN060 OVC100 QNH2968INS BECMG 0905/0906 06007KT 8000 BR BKN015 OVC080 QNH2972INS BECMG 0912/0913 04009KT 9999 NSW BKN015 BKN020 OVC045 QNH2976INS TX28/0817Z TN21/0811Z
KSWF,KSWF 081138Z 0812/0918 25008KT 3SM FU HZ VV050 FM081400 30007KT 4SM -SHRA FU HZ VV040 FM082100 30008KT 5SM -SHRA FU HZ VV040 FM090000 VRB03KT 6SM FU HZ VV050 AMD NOT SKED
KSWO,KSWO 081130Z 0812/0912 20006KT P6SM SCT100 SCT250
KSYM,KSYM 081137Z 0812/0912 00000KT 6SM HZ FEW250
KSYR,KSYR 081311Z 0813/0912 29006KT 6SM FU FEW020 OVC060 TEMPO 0813/0815 -SHRA BKN020 FM081500 33006KT 6SM HZ BKN025 FM081800 34007KT P6SM BKN035 FM090900 VRB03KT P6SM BKN025
KSZL,TAF AMD KSZL 081236Z 0812/0917 09008KT 9000 -SHRA BKN070 611408 QNH2983INS TEMPO 0812/0815 14025G35KT 4800 TSRA OVC050CB BECMG 0819/0820 10008KT 9999 NSW SCT040 OVC120 621402 QNH2980INS BECMG 0911/0912 12008KT 9999 BKN065 QNH2989INS TX26/0821Z TN16/0911Z
KTBN,TAF KTBN 071300Z 0713/0819 VRB06KT 9999 SCT250 QNH2989INS BECMG 0719/0720 VRB10G15KT 4800 -TSRA SCT060CB BKN100 OVC150 QNH2983INS BECMG 0801/0802 VRB06KT 8000 -SHRA FEW035 SCT050 OVC080 QNH2982INS BECMG 0808/0809 VRB06KT 4800 BR FEW020 SCT028 OVC045 QNH2983INS BECMG 0811/0814 VRB06KT 1600 BR SCT005 BKN015 OVC021 QNH2986INS BECMG 0814/0815 VRB06KT 9999 BKN021 OVC029 QNH2988INS TX29/0717Z TN15/0713Z LAST NO AMNDS AFT 07/1930Z NEXT 08/13Z
KTCC,KTCC 081132Z 0812/0912 28006KT P6SM SCT250 FM082000 24007KT P6SM SKC FM090200 17009KT P6SM FEW250
KTCL,KTCL 081120Z 0812/0912 VRB03KT 4SM HZ SCT250 FM081500 32009KT 5SM HZ SCT060 FM081800 35008KT P6SM VCSH SCT060 PROB30 0821/0824 4SM TSRA BR BKN050CB FM090100 02005KT P6SM SCT250
KTCM,TAF KTCM 080500Z 0805/0911 25006KT 9999 FEW100 QNH2989INS BECMG 0903/0904 25006KT 9999 SCT120 BKN170 OVC240 QNH2995INS BECMG 0908/0909 22010G15KT 9999 BKN120 OVC160 QNH2999INS TX24/0823Z TN11/0813Z
KTCS,KTCS 081120Z 0812/0912 32009KT P6SM SKC FM082000 20010G20KT P6SM FEW250 FM090200 23012KT P6SM SCT250
KTEB,KTEB 081138Z 0812/0918 VRB03KT 2SM FU HZ VV035 TEMPO 0812/0816 4SM FU HZ VV040 FM081700 29005KT 5SM FU HZ VV040 TEMPO 0817/0821 2SM FU HZ VV035 FM082300 12008KT 5SM FU HZ VV035 FM090200 01004KT 5SM FU HZ VV035 FM090600 35005KT 5SM FU HZ VV040 FM091100 35005KT 6SM FU HZ VV040
KTEX,KTEX 081120Z 0812/0912 14005KT P6SM SKC FM081400 VRB04KT P6SM SKC FM081800 20007KT P6SM FEW080 SCT120 FM090200 14004KT P6SM FEW100
KTIK,TAF KTIK 080900Z 0809/0915 VRB06KT 9999 SCT070 SCT270 QNH2980INS BECMG 0819/0820 20008KT 9999 BKN050 BKN270 QNH2975INS BECMG 0909/0910 14006KT 9999 SCT070 SCT270 QNH2979INS TX31/0820Z TN19/0812Z
KTIX,KTIX 081120Z 0812/0912 22005KT P6SM SKC FM081400 25008KT P6SM SCT040 SCT120 FM081700 24008KT P6SM VCTS BKN050CB BKN250 FM082200 22006KT P6SM SCT045 BKN120 FM090200 23005KT P6SM SCT050 SCT250
KTLH,KTLH 081302Z 0813/0912 23004KT P6SM SCT012 SCT020 FM081600 27007KT P6SM SCT030 FM081800 26008KT P6SM VCTS SCT035CB BKN050 FM082200 24005KT P6SM SCT050 FM090800 27003KT 4SM BR OVC004
KTMB,KTMB 081120Z 0812/0912 19005KT P6SM VCSH SCT025 FM081500 24009G15KT P6SM VCTS SCT030CB BKN050 FM090000 22008KT P6SM SCT030 SCT100 FM090600 19007KT P6SM VCSH SCT030
KTOI,KTOI 081124Z 0812/0912 00000KT 4SM BR SKC FM081300 26005KT P6SM SCT250 FM081500 30007KT P6SM FEW110 FM081900 29009KT P6SM VCTS SCT050CB PROB30 0821/0901 4SM TSRA BR BKN050CB FM090200 33005KT P6SM SCT060
KTOL,KTOL 081120Z 0812/0912 33007KT 5SM HZ SCT250 FM081600 34010KT 6SM HZ SCT250
KTOP,KTOP 081120Z 0812/0912 09006KT P6SM BKN100 FM082200 08008KT P6SM VCTS BKN100CB FM090200 09005KT P6SM SCT120
KTPA,KTPA 081133Z 0812/0918 24008KT P6SM SCT020 FM081500 25010KT P6SM VCSH SCT030 FM082000 25010KT P6SM SCT030 FM090100 23006KT P6SM SCT020 SCT250
KTPH,KTPH 081120Z 0812/0912 01008KT P6SM FEW100 SCT200 FM081800 18008KT P6SM VCSH BKN120 FM090100 VRB06KT P6SM BKN200
KTRI,KTRI 081120Z 0812/0912 00000KT 6SM BR BKN080 TEMPO 0812/0813 3SM BR BKN010 FM081300 33005KT P6SM SCT060
KTRK,KTRK 081121Z 0812/0912 00000KT P6SM BCFG FEW150 FM081600 VRB03KT P6SM SCT140 FM082000 25012G18KT P6SM VCTS BKN080CB FM090300 VRB03KT P6SM SCT140
KTRM,KTRM 081137Z 0812/0912 33011KT P6SM SKC FM081700 VRB06KT P6SM SKC FM090300 33014G22KT P6SM SKC
KTTD,KTTD 081120Z 0812/0912 24005KT P6SM SCT015 BKN200 FM081300 25005KT P6SM BKN015 FM081800 VRB04KT P6SM SCT020 BKN150 FM082000 32006KT P6SM SCT035 BKN120 FM090500 32005KT P6SM OVC035
KTTN,KTTN 081120Z 0812/0912 VRB05KT 4SM HZ FEW150 TEMPO 0812/0814 1SM HZ FU FM081700 32010G17KT 5SM HZ BKN080 FM082200 34008KT 5SM HZ SCT070 FM090600 VRB03KT 6SM HZ BKN080
KTUL,KTUL 081126Z 0812/0912 VRB04KT P6SM SCT250 FM081800 VRB05KT P6SM FEW070 SCT120 FM090300 VRB04KT P6SM BKN120
KTUP,KTUP 081120Z 0812/0912 01005KT P6SM VCSH SCT250 FM081500 35006KT P6SM BKN250 FM090200 01003KT P6SM SCT250
KTUS,KTUS 081120Z 0812/0912 14007KT P6SM SCT250 FM082000 25011G18KT P6SM BKN200 FM090200 23008KT P6SM BKN200 FM090700 14007KT P6SM OVC200
KTVC,KTVC 081136Z 0812/0912 36007KT P6SM FEW250 FM081800 01010G16KT P6SM FEW070 SCT250 FM090200 35006KT P6SM FEW250 FM090900 VRB03KT P6SM FEW250
KTVF,KTVF 081120Z 0812/0912 13007KT P6SM SCT060
KTVL,KTVL 081121Z 0812/0912 19003KT P6SM FEW150 FM082000 19008KT P6SM VCTS BKN080CB FM090300 17005KT P6SM SCT140
KTWF,KTWF 081122Z 0812/0912 16006KT P6SM BKN080 BKN150 FM081600 27006KT P6SM BKN100 FM082000 33008KT P6SM VCSH SCT060 BKN120 TEMPO 0820/0824 VRB25G35KT -TSRA BKN060CB FM090300 20009KT P6SM SCT060 BKN120
KTXK,KTXK 081120Z 0812/0912 23003KT P6SM SCT250 FM081600 30005KT P6SM SCT035 SCT250 FM081900 28005KT P6SM VCTS SCT050CB FM090300 VRB03KT P6SM BKN250
KTYR,KTYR 081120Z 0812/0912 24003KT P6SM FEW250 TEMPO 0812/0814 4SM BR FM081400 VRB03KT P6SM SCT250 FM081600 26005KT P6SM SCT035 SCT250 FM081900 22006KT P6SM VCTS SCT050CB FM090200 VRB03KT P6SM BKN250
KTYS,KTYS 081120Z 0812/0912 02006KT P6SM SCT050
KUAO,KUAO 081301Z 0813/0912 22005KT P6SM SCT015 BKN200 FM081430 25005KT P6SM BKN015 FM081800 VRB04KT P6SM SCT025 BKN150 FM082000 32006KT P6SM SCT035 BKN120 FM090500 32005KT P6SM OVC035
KUES,KUES 081120Z 0812/0912 03007KT P6SM FEW250
KUIN,KUIN 081120Z 0812/0912 08007KT P6SM SCT120 SCT250 FM081700 04007KT P6SM SCT250 FM090500 07004KT P6SM SKC
KUKI,KUKI 081127Z 0812/0912 14004KT P6SM OVC017 FM081600 13004KT P6SM SCT040 BKN100 FM081900 15009KT P6SM BKN080 FM090300 02004KT P6SM BKN050 FM090900 01003KT P6SM SCT010
KUNV,KUNV 081139Z 0812/0912 VRB02KT 3SM FU SCT070 FM081400 31005KT 6SM FU BKN100 FM081700 33004KT 6SM HZ VCSH OVC050 FM090300 VRB04KT 6SM HZ OVC050 FM090700 VRB02KT 4SM HZ OVC050
KUTS,KUTS 081122Z 0812/0912 VRB05KT P6SM FEW150 FM082000 26007KT P6SM VCTS BKN050CB BKN110 FM090100 VRB02KT P6SM FEW050 SCT250
KVAD,TAF KVAD 080800Z 0808/0914 26009KT 9999 SCT060 QNH2975INS BECMG 0813/0814 27010G15KT 9999 SKC QNH2968INS BECMG 0821/0822 30009KT 9999 SCT040 QNH2967INS TEMPO 0822/0902 27015G25KT 4800 TSRA BKN020CB TX33/0818Z TN21/0810Z
KVBG,TAF COR KVBG 072221Z 0722/0904 25009KT 9999 BKN010 OVC020 QNH3001INS TEMPO 0723/0801 SCT015 OVC020 BECMG 0801/0802 VRB06KT 9999 OVC010 QNH3000INS BECMG 0810/0811 VRB06KT 4800 BR OVC008 QNH3003INS BECMG 0816/0817 21009KT 8000 BR SCT008 OVC012 QNH3004INS BECMG 0820/0821 29008KT 9999 NSW SCT012 BKN020 QNH3003INS BECMG 0900/0901 29008KT 9999 BKN012 OVC020 QNH3002INS BECMG 0903/0904 VRB06KT 8000 BR OVC006 QNH3000INS TX17/0821Z TN11/0813Z LAST NO AMDS AFT 0800 NEXT 0814
KVCT,KVCT 081121Z 0812/0912 VRB04KT P6SM BKN250 TEMPO 0812/0813 5SM BR FM081400 21005KT P6SM FEW030 BKN250 FM082000 17008KT P6SM VCTS SCT050CB BKN250 TEMPO 0821/0901 4SM TSRA BR BKN030CB FM090300 18006KT P6SM SCT030 BKN150 FM090800 VRB03KT 6SM BR SCT250
KVEL,KVEL 081255Z 0813/0912 VRB04KT P6SM SKC TEMPO 0813/0815 2SM HZ FM081800 18006KT P6SM FEW100 FM090200 27005KT P6SM FEW100
KVGT,KVGT 081120Z 0812/0912 33007KT P6SM FEW110 FM081600 VRB05KT P6SM FEW110 FM081900 16007KT P6SM SCT110 FM090000 22010KT P6SM SCT110 FM090600 VRB05KT P6SM FEW110
KVIS,KVIS 081120Z 0812/0912 27005KT P6SM OVC050 FM090000 31007KT P6SM BKN100
KVLD,KVLD 081302Z 0813/0912 22003KT P6SM SCT012 SCT025 FM081500 24004KT P6SM SCT040 FM082000 24005KT P6SM VCTS BKN045CB FM090000 22003KT P6SM SCT060 FM090800 26003KT 2SM BR OVC004
KVNY,KVNY 081141Z 0812/0912 VRB03KT P6SM SCT025 FM081900 14008KT P6SM SCT040 FM090400 VRB03KT P6SM BKN035
KVOK,TAF KVOK 080900Z 0809/0915 VRB06KT 9999 SKC QNH2988INS TX23/0821Z TN04/0811Z
KVPS,TAF KVPS 080900Z 0809/0915 28006KT 9999 SKC QNH2975INS BECMG 0813/0814 28006KT 9999 BKN080 QNH2978INS BECMG 0816/0817 26006KT 9000 -SHRA VCTS BKN060CB QNH2981INS BECMG 0822/0823 22012KT 9999 NSW SCT080 QNH2978INS BECMG 0907/0908 36006KT 9999 BKN090 QNH2978INS TX30/0821Z TN22/0909Z
KVQQ,KVQQ 081120Z 0812/0912 25010G15KT P6SM SCT015 SCT040 SCT250 TEMPO 0812/0813 BKN015 FM081800 25012G18KT P6SM VCTS SCT050CB SCT100 BKN250 FM090000 23006KT P6SM FEW050 SCT150 BKN250 FM090800 23004KT 6SM BR SCT008 SCT015 BKN250
KVRB,KVRB 081120Z 0812/0912 21006KT P6SM FEW040 SCT250 FM081400 24011KT P6SM SCT035 SCT130 FM081800 24011G17KT P6SM VCTS SCT050CB SCT150 FM082300 22006KT P6SM SCT045 BKN120
KVTN,KVTN 081120Z 0812/0912 VRB04KT P6SM SCT250 FM082100 18006KT P6SM FEW100 FM090600 14004KT P6SM OVC100
KWJF,KWJF 081141Z 0812/0912 22008KT P6SM SKC FM081900 24010KT P6SM SKC FM082200 23017G25KT P6SM SKC FM090400 22010KT P6SM SKC
KWMC,KWMC 081120Z 0812/0912 VRB06KT P6SM FEW120 FM081900 21008KT P6SM -SHRA VCTS SCT100CB BKN200 TEMPO 0822/0901 VRB10G30KT 3SM -TSRA BKN080CB FM090100 35006KT P6SM VCSH SCT080 BKN200 FM090400 VRB05KT P6SM SCT080 BKN200
KWRB,TAF KWRB 080800Z 0808/0914 24009KT 9999 SCT020 BKN050 QNH2968INS BECMG 0817/0818 31012G18KT 9999 VCSH BKN045 BKN100 QNH2970INS TEMPO 0820/0822 30015G20KT 6000 -TSRA BKN035CB BECMG 0901/0902 34006KT 9999 NSW SCT050 BKN060 QNH2968INS BECMG 0908/0909 35006KT 9999 BKN020 BKN100 QNH2977INS TX32/0820Z TN19/0810Z
KWRI,TAF KWRI 081000Z 0810/0916 VRB02KT 3200 HZ BKN040 QNH2968INS BECMG 0814/0815 35006KT 4800 HZ SCT080 QNH2967INS BECMG 0821/0822 32008KT 9000 HZ BKN080 QNH2968INS BECMG 0903/0904 36005KT 9000 HZ BKN060 QNH2973INS BECMG 0911/0912 36006KT 9999 NSW BKN040 QNH2977INS TX25/0819Z TN07/0810Z
KWRL,KWRL 081121Z 0812/0912 VRB03KT P6SM BKN100 FM081400 VRB03KT P6SM VCSH OVC070 FM082100 13007KT P6SM VCTS BKN070CB FM090200 VRB05KT P6SM FEW070 SCT120
KWWR,KWWR 081130Z 0812/0912 20006KT P6SM SCT100 SCT250
KWYS,KWYS 081231Z 0813/0912 VRB03KT 1/4SM FG VV002 TEMPO 0813/0815 5SM BR SCT009 BKN015 FM081500 VRB06KT 6SM -SHRA BR SCT025 OVC040 TEMPO 0817/0821 VRB20G35KT 4SM TSRA BR BKN020CB FM090000 22007KT P6SM SCT020 BKN050 FM090800 VRB03KT 6SM BR BKN020
KXNA,KXNA 081126Z 0812/0912 VRB04KT P6SM SCT150 FM081800 VRB05KT P6SM SCT060 SCT120 FM082100 VRB06KT P6SM VCTS SCT060CB BKN120 FM090200 VRB04KT P6SM BKN100
KXWA,KXWA 081123Z 0812/0912 06011KT P6SM FEW250 FM082000 08012KT 6SM SHRA BR VCTS BKN060CB FM090300 06010KT P6SM VCTS BKN040CB
KYIP,KYIP 081120Z 0812/0912 35006KT 5SM HZ SCT070 BKN120 FM081400 35010G17KT P6SM SCT070 BKN090 FM090100 01005KT 6SM HZ BKN100 FM090600 34003KT 5SM HZ SCT100
KYKM,KYKM 081120Z 0812/0912 27006KT P6SM FEW150 SCT200 FM090200 32007KT P6SM OVC100
KYNG,KYNG 081120Z 0812/0912 33004KT 5SM HZ BKN120 FM081700 33008KT 4SM HZ BKN070
KZZV,KZZV 081141Z 0812/0912 34004KT P6SM SKC FM081600 35009KT P6SM SCT250 FM090100 34003KT 6SM HZ SCT110
LAKU,TAF LAKU 081100Z 0812/0912 VRB05KT 9999 SCT030CB BKN050 TX26/0912Z TN14/0904Z TEMPO 0812/0817 VRB05G20KT TSRA BECMG 0817/0819 CAVOK
LATI,TAF LATI 081100Z 0812/0912 31013KT 9999 FEW040CB BKN060 TX30/0912Z TN16/0903Z TEMPO 0812/0817 TS SCT025CB BECMG 0817/0819 VRB05KT CAVOK
LBBG,TAF LBBG 081100Z 0812/0912 08014KT 9999 SCT020 BECMG 0819/0821 VRB04KT TEMPO 0900/0905 5000 BR BKN012 BECMG 0908/0910 13012KT
LBGO,TAF LBGO 081100Z 0812/0912 10010KT 9999 SCT060 BECMG 0822/0824 VRB04KT
LBPD,TAF LBPD 081100Z 0812/0912 12010KT 9999 SCT060 BECMG 0819/0821 VRB04KT
LBSF,TAF LBSF 081100Z 0812/0912 09012KT 9999 SCT060 TEMPO 0812/0816 VRB16G26KT 5000 TSRA SCT030CB BKN050 BECMG 0902/0904 VRB04KT
LBWN,TAF LBWN 081100Z 0812/0912 10014KT 9999 SCT020 BECMG 0818/0820 VRB04KT TEMPO 0900/0904 4000 BR BKN012 BECMG 0909/0911 10012KT
LCEN,TAF LCEN 081040Z 0812/0912 16012KT 9999 FEW025 SCT100 BKN200
LCLK,TAF LCLK 081130Z 0812/0912 19011KT CAVOK BECMG 0816/0818 32007KT BECMG 0910/0912 19011KT
LCPH,TAF LCPH 081130Z 0812/0912 29010KT CAVOK BECMG 0815/0819 35009KT BECMG 0910/0912 28010KT
LCRA,TAF AMD LCRA 081158Z 0812/0906 09008KT 9999 FEW006 BECMG 0812/0815 26008KT PROB30 TEMPO 0812/0815 7000 HZ SCT006 TEMPO 0900/0903 02003KT PROB30 TEMPO 0902/0906 TS SCT100CB BECMG 0903/0906 04005KT
LDDU,TAF LDDU 081125Z 0812/0912 27008KT 9999 FEW040 TX26/0812Z TN18/0903Z BECMG 0816/0818 VRB02KT PROB40 0910/0912 26007KT
LDOS,TAF LDOS 081125Z 0812/0912 16005KT 9999 FEW030 BKN035 TX27/0813Z TN15/0903Z TEMPO 0812/0822 TSRA FEW035CB BKN040 PROB30 TEMPO 0813/0817 TSRAGR SCT040CB BKN045 TEMPO 0901/0906 3000 MIFG BR PROB30 0902/0905 0300 FG PROB40 TEMPO 0909/0912 TSRA FEW025CB
LDPL,TAF LDPL 081125Z 0812/0912 27008KT 9999 FEW035 TX26/0813Z TN15/0904Z PROB30 TEMPO 0812/0816 27012KT -TSRA FEW030CB SCT035 BECMG 0817/0819 30005KT BECMG 0906/0908 10007KT PROB30 TEMPO 0910/0912 24007KT FEW030TCU
LDRI,TAF LDRI 081125Z 0812/0912 VRB02KT 9999 FEW040 TX26/0814Z TN16/0904Z PROB30 TEMPO 0812/0816 32008KT -TSRA FEW035CB SCT040 PROB30 TEMPO 0909/0912 30008KT TS FEW045CB
LDSP,TAF LDSP 081125Z 0812/0912 23012KT 9999 FEW040 TX27/0813Z TN17/0903Z PROB30 TEMPO 0812/0816 TS FEW045CB BECMG 0816/0818 32006KT PROB30 TEMPO 0909/0912 FEW040CB BECMG 0910/0912 23014KT
LDZA,TAF LDZA 081125Z 0812/0912 VRB02KT 9999 FEW040 TX26/0813Z TN15/0903Z PROB40 TEMPO 0813/0818 26018G28KT TSRA SCT040CB BKN045 TEMPO 0900/0906 2000 BCFG BKN003 PROB30 TEMPO 0910/0912 -TSRA FEW030CB
LDZD,TAF LDZD 081125Z 0812/0912 30008KT 9999 FEW030 TX27/0813Z TN14/0903Z TEMPO 0812/0815 31012KT BECMG 0816/0818 VRB02KT PROB40 TEMPO 0900/0905 0600 FG BECMG 0908/0910 27008KT
LEAB,TAF LEAB 081100Z 0812/0912 19007KT 9999 FEW020 TX24/0815Z TN14/0906Z PROB40 TEMPO 0812/0823 3000 RA SHRA BKN014 SCT040TCU PROB30 TEMPO 0814/0818 VRB15G25KT 3000 TSRA SCT030CB BECMG 0906/0908 27010KT
LEAG,TAF LEAG 080800Z 0809/0909 08004KT 9999 SCT020 TX21/0814Z TN19/0905Z PROB40 TEMPO 0809/0818 BKN010 PROB30 TEMPO 0809/0818 4000 SHRA FEW040CB
LEAL,TAF LEAL 081100Z 0812/0912 09009KT 9999 FEW020 TX26/0812Z TN19/0905Z PROB40 TEMPO 0814/0821 SHRA FEW060TCU PROB30 TEMPO 0815/0819 TSRA FEW060CB BECMG 0818/0820 VRB04KT BECMG 0907/0909 24010KT
LEAM,TAF LEAM 081100Z 0812/0912 16006KT 9999 SCT030 TX27/0814Z TN21/0906Z PROB40 TEMPO 0812/0818 4000 SHRA BKN010 FEW030CB BECMG 0817/0819 23010KT PROB40 TEMPO 0909/0912 24015G25KT
LEAO,TAF LEAO 080800Z 0809/0909 VRB05KT 9999 SCT030 TX26/0815Z TN14/0905Z BECMG 0817/0819 22010KT PROB40 TEMPO 0809/0821 3000 RA SHRA BKN010 SCT040TCU PROB30 TEMPO 0812/0818 VRB15G25KT 2000 TSRA SCT030CB
LEAS,TAF LEAS 080800Z 0809/0909 04009KT 9999 FEW035 TX25/0815Z TN17/0902Z PROB40 TEMPO 0812/0821 1500 TSRA SCT030CB PROB40 TEMPO 0820/0906 20010KT 3000 BR BCFG BKN002 BKN005 PROB30 TEMPO 0823/0904 0350 FG VV001
LEBA,TAF LEBA 080800Z 0809/0909 VRB02KT 9999 SCT030 TX27/0815Z TN17/0905Z TEMPO 0809/0821 4000 SHRA FEW030CB PROB40 TEMPO 0809/0812 2000 TSRA SCT030CB PROB30 TEMPO 0815/0903 BKN014
LEBB,TAF COR LEBB 081153Z 0812/0912 14009KT 9999 FEW045 TX29/0814Z TN18/0905Z PROB30 TEMPO 0815/0901 3000 RA BKN010 PROB30 TEMPO 0815/0821 TS FEW030CB TEMPO 0906/0912 22009KT PROB40 TEMPO 0906/0912 22015G25KT
LEBG,TAF LEBG 080800Z 0809/0909 20010KT 9999 SCT040 TX22/0815Z TN12/0906Z PROB40 TEMPO 0809/0821 3000 RA SHRA BKN014 SCT040TCU
LEBL,TAF LEBL 081100Z 0812/0912 16008KT 9999 FEW030 TX25/0812Z TN20/0906Z BECMG 0819/0821 VRB04KT PROB30 TEMPO 0820/0903 RA SHRA BKN014 FEW020TCU PROB40 TEMPO 0903/0909 3000 RA SHRA BKN014 FEW020CB BECMG 0907/0909 20010KT
LEBR,TAF LEBR 080800Z 0809/0909 11009KT 9999 FEW040 TX25/0815Z TN18/0905Z PROB30 TEMPO 0816/0824 11019KT 3000 SHRA SCT030TCU PROB30 TEMPO 0900/0907 3000 BR BKN010
LEBZ,TAF LEBZ 080800Z 0809/0909 12006KT 9999 SCT025 TX27/0815Z TN18/0905Z PROB40 TEMPO 0809/0822 4000 SHRA FEW030CB BECMG 0811/0814 18010KT PROB30 TEMPO 0816/0824 3000 TSRA SCT030CB
LECO,TAF LECO 080800Z 0809/0909 15008KT 9999 FEW030 TX25/0812Z TN17/0903Z PROB40 TEMPO 0812/0818 VRB15G30KT 1500 TSRA BKN030CB PROB30 TEMPO 0818/0824 1500 SHRA SCT030TCU PROB30 TEMPO 0900/0909 3000 BR BKN010
LECV,TAF LECV 081100Z 0812/0912 20009KT 9999 BKN020 TX19/0815Z TN13/0905Z PROB30 TEMPO 0812/0824 3000 DZRA SHRA BKN008 FEW030TCU PROB40 TEMPO 0900/0909 0400 FG OVC002 PROB30 TEMPO 0909/0912 RA SHRA BKN010 SCT030TCU
LEGA,TAF LEGA 081100Z 0812/0912 18010KT 9999 SCT040 TX27/0815Z TN16/0906Z PROB40 TEMPO 0812/0820 4000 SHRA FEW030CB BECMG 0820/0822 VRB02KT
LEGE,TAF LEGE 081100Z 0812/0912 18012KT 9999 FEW030 TX27/0813Z TN18/0905Z TEMPO 0812/0816 18015G25KT BECMG 0818/0820 18009KT PROB40 TEMPO 0900/0912 4000 RA SHRA FEW040TCU
LEGR,TAF LEGR 081100Z 0812/0912 23006KT 9999 SCT040 TX27/0815Z TN16/0906Z PROB40 TEMPO 0812/0820 4000 SHRA FEW030CB
LEGT,TAF LEGT 081100Z 0812/0912 16009KT 9999 SCT010 BKN030 TX24/0815Z TN15/0905Z PROB30 TEMPO 0812/0824 DZ SHRA BKN014 SCT030TCU PROB40 TEMPO 0820/0824 3000 RA SHRA BKN014 SCT040TCU PROB30 TEMPO 0900/0912 2000 DZ BR BKN012
LEHC,TAF LEHC 080800Z 0809/0909 12009KT 9999 FEW040 TX28/0814Z TN16/0905Z TEMPO 0818/0820 16012KT PROB30 TEMPO 0818/0824 SHRA FEW050TCU PROB40 TEMPO 0900/0909 4000 RA SHRA FEW030TCU
LEIB,TAF LEIB 080800Z 0809/0909 09009KT 9999 FEW020 TX26/0812Z TN18/0905Z BECMG 0821/0823 VRB04KT
LEJR,TAF LEJR 080800Z 0809/0909 15012KT 9999 SCT040 TX25/0815Z TN18/0905Z PROB40 TEMPO 0809/0818 4000 SHRA FEW030CB PROB30 TEMPO 0812/0818 BKN012 BECMG 0816/0818 21009KT
LELC,TAF LELC 081100Z 0812/0912 09010KT 9999 FEW020 TX25/0813Z TN17/0906Z PROB30 TEMPO 0812/0820 4000 SHRA FEW040CB BECMG 0817/0819 VRB02KT PROB30 TEMPO 0820/0908 4000 BR BKN012
LELL,TAF AMD LELL 081057Z 0810/0909 12009KT 9999 FEW020 TX28/0813Z TN17/0905Z BECMG 0819/0821 VRB04KT PROB40 TEMPO 0900/0909 4000 RA SHRA FEW040TCU
LELN,TAF LELN 080800Z 0809/0909 19010KT 9999 SCT030 TX21/0815Z TN12/0905Z PROB40 TEMPO 0809/0821 3000 RA SHRA BKN012 SCT030TCU PROB30 TEMPO 0812/0821 VRB15G25KT 2000 TSRA SCT030CB
LELO,TAF LELO 080800Z 0809/0909 09008KT 9999 FEW035 TX25/0815Z TN17/0905Z PROB40 TEMPO 0809/0821 3000 RA SHRA SCT040TCU
LEMD,TAF LEMD 081100Z 0812/0918 20009KT 9999 SCT030 BKN048 TX24/0815Z TN15/0905Z PROB40 TEMPO 0812/0821 20010G20KT PROB30 TEMPO 0812/0824 DZ SHRA BKN014 SCT030TCU PROB40 TEMPO 0820/0824 3000 RA SHRA BKN014 SCT040TCU PROB30 TEMPO 0900/0909 2000 DZ BR BKN012 PROB30 TEMPO 0909/0918 DZ BKN014 PROB40 TEMPO 0910/0918 23015G25KT
LEMG,TAF LEMG 081100Z 0812/0912 13006KT 9999 FEW020 SCT040 TX22/0815Z TN19/0906Z PROB40 TEMPO 0812/0818 4000 SHRA FEW030CB BECMG 0820/0822 29004KT PROB30 TEMPO 0820/0909 4000 BR BKN012 BECMG 0908/0910 13006KT
LEMH,TAF LEMH 080800Z 0809/0909 13009KT 9999 FEW015 TX25/0812Z TN18/0905Z PROB40 TEMPO 0809/0815 BKN015 BECMG 0821/0823 VRB04KT PROB30 TEMPO 0903/0909 SHRA FEW050CB BECMG 0907/0909 21009KT
LEMO,TAF LEMO 080800Z 0809/0909 10005KT 9999 SCT030 TX27/0813Z TN17/0905Z PROB40 TEMPO 0809/0810 3000 TSRA SCT030CB TEMPO 0809/0818 4000 SHRA FEW030CB BECMG 0811/0813 20012KT PROB30 TEMPO 0815/0820 BKN014
LEPA,TAF LEPA 081100Z 0812/0912 22012KT 9999 FEW030 TX28/0812Z TN18/0906Z BECMG 0815/0817 12009KT BECMG 0820/0822 VRB04KT BECMG 0908/0910 22012KT
LEPP,TAF LEPP 080800Z 0809/0909 13009KT 9999 SCT030 TX25/0816Z TN17/0905Z PROB30 TEMPO 0820/0903 3000 SHRA SCT030TCU PROB30 TEMPO 0903/0907 3000 BR BKN010
LERI,TAF LERI 081100Z 0812/0912 08010KT 9999 FEW020 TX28/0813Z TN17/0906Z PROB30 TEMPO 0812/0820 4000 SHRA FEW040CB BECMG 0817/0819 VRB02KT PROB30 TEMPO 0818/0909 3000 BR BKN010 BECMG 0904/0906 27010KT
LERL,TAF LERL 080800Z 0809/0909 VRB05KT 9999 SCT030 TX25/0815Z TN14/0905Z BECMG 0817/0819 22010KT PROB40 TEMPO 0809/0821 3000 RA SHRA BKN010 SCT040TCU PROB30 TEMPO 0812/0818 VRB15G25KT 2000 TSRA SCT030CB
LERS,TAF LERS 080800Z 0809/0909 VRB04KT 9999 SCT020 TX26/0813Z TN18/0905Z TEMPO 0809/0812 FEW020TCU PROB40 TEMPO 0809/0824 RA SHRA FEW020TCU BKN025 TEMPO 0809/0819 16010KT TEMPO 0900/0909 4000 SHRA FEW020TCU PROB30 TEMPO 0903/0909 3000 TSRA SCT020CB
LERT,TAF AMD LERT 080957Z 0809/0909 13010KT 9999 SCT040 TX25/0813Z TN18/0905Z PROB40 TEMPO 0809/0817 4000 SHRA BKN010 FEW030CB BECMG 0816/0818 22013KT
LESA,TAF LESA 080800Z 0809/0909 VRB05KT 9999 FEW040 TX21/0815Z TN12/0905Z TEMPO 0809/0816 20012KT PROB40 TEMPO 0809/0821 3000 RA SHRA BKN012 SCT040TCU PROB30 TEMPO 0818/0903 VRB15G25KT 2000 TSRA SCT030CB
LESO,TAF LESO 081100Z 0812/0912 16009KT CAVOK TX29/0815Z TN21/0905Z TEMPO 0906/0912 22010KT
LEST,TAF LEST 081100Z 0812/0912 17009KT 9999 SCT030 TX23/0814Z TN15/0905Z PROB40 TEMPO 0812/0912 3000 RA BR BKN005 BKN010 PROB40 TEMPO 0812/0821 VRB19G34KT 1500 TSRA BKN020CB TEMPO 0815/0818 03010KT PROB40 TEMPO 0818/0823 11010KT
LESU,TAF LESU 080800Z 0809/0909 21009KT 9999 FEW040 TX26/0814Z TN13/0905Z PROB40 TEMPO 0812/0821 FEW040TCU BECMG 0818/0820 VRB04KT PROB40 TEMPO 0821/0903 4000 SHRA FEW040TCU PROB40 0903/0909 4000 SHRA BKN010 SCT020TCU
LETO,TAF LETO 081100Z 0812/0912 18009KT 9999 SCT010 BKN030 TX24/0815Z TN15/0905Z PROB30 TEMPO 0812/0824 DZ SHRA BKN014 SCT030TCU PROB40 TEMPO 0820/0824 3000 RA SHRA BKN014 SCT040TCU PROB30 TEMPO 0900/0912 2000 DZ BR BKN012
LEVC,TAF LEVC 081100Z 0812/0912 11010KT 9999 FEW020 TX27/0812Z TN18/0905Z PROB40 TEMPO 0815/0903 4000 SHRA FEW040TCU PROB30 TEMPO 0818/0821 3000 TSRA SCT040CB BECMG 0819/0821 VRB04KT BECMG 0907/0909 27012KT
LEVD,TAF LEVD 080800Z 0809/0909 18010KT 9999 FEW030 TX20/0815Z TN13/0905Z PROB40 TEMPO 0809/0903 3000 RA SHRA SCT040TCU PROB30 TEMPO 0812/0823 VRB15G25KT 2000 TSRA SCT030CB BECMG 0818/0820 VRB05KT
LEVS,TAF LEVS 081100Z 0812/0912 16009KT 9999 SCT010 BKN030 TX24/0815Z TN15/0905Z PROB30 TEMPO 0812/0824 DZ SHRA BKN014 SCT030TCU PROB40 TEMPO 0820/0824 3000 RA SHRA BKN014 SCT040TCU PROB30 TEMPO 0900/0912 2000 DZ BR BKN012
LEVT,TAF LEVT 081100Z 0812/0912 15009KT 9999 FEW045 TX26/0814Z TN15/0905Z PROB30 TEMPO 0812/0817 3000 RA BKN010 BECMG 0902/0906 22010KT TEMPO 0908/0912 22015G25KT
LEVX,TAF LEVX 081100Z 0812/0912 18009KT 9999 SCT030 TX24/0813Z TN16/0904Z PROB40 TEMPO 0812/0912 3000 RA BR BKN005 BKN010 PROB40 TEMPO 0812/0818 VRB19G29KT 1500 +TSRA BKN020CB PROB30 TEMPO 0823/0908 0350 FG VV001
LEXJ,TAF LEXJ 080800Z 0809/0909 18009KT 9999 FEW050 TX31/0813Z TN21/0904Z PROB40 TEMPO 0809/0813 07010KT PROB40 TEMPO 0813/0818 VRB15G25KT 3000 SHRA SCT030TCU PROB40 TEMPO 0817/0820 12010KT
LEZG,TAF LEZG 081100Z 0812/0912 10009KT 9999 FEW050 TX30/0814Z TN19/0905Z BECMG 0812/0814 VRB05KT PROB40 TEMPO 0812/0824 4000 SHRA FEW050TCU PROB40 TEMPO 0900/0906 4000 SHRA FEW040TCU BECMG 0906/0908 25012KT TEMPO 0909/0912 25015G25KT
LEZL,TAF LEZL 080800Z 0809/0909 09005KT 9999 SCT035 TX29/0815Z TN18/0905Z TEMPO 0809/0819 4000 SHRA BKN014 FEW040CB BECMG 0811/0813 20010KT
LFAQ,TAF LFAQ 081100Z 0812/0821 04012KT CAVOK
LFAT,TAF LFAT 081100Z 0812/0821 05011KT CAVOK
LFBA,TAF LFBA 081100Z 0812/0821 13008KT 9999 SCT040 TEMPO 0813/0821 FEW050CB SCT120
LFBC,TAF AMD LFBC 080530Z 0805/0903 11005KT CAVOK TEMPO 0811/0903 SCT045TCU PROB30 TEMPO 0812/0815 4500 SHRA SCT045CB TEMPO 0819/0903 4000 SHRA BKN045TCU PROB40 TEMPO 0821/0901 VRB15G25KT 2500 TSRA BKN045CB
LFBD,TAF AMD LFBD 081257Z 0812/0918 12010KT CAVOK TX30/0814Z TN19/0904Z PROB40 TEMPO 0813/0906 4000 SHRA FEW050CB BKN060TCU PROB30 TEMPO 0813/0816 -TSRA PROB40 TEMPO 0900/0903 VRB15G25KT 3000 TSRA BKN050CB PROB40 TEMPO 0906/0909 BKN010
LFBE,TAF LFBE 081100Z 0812/0912 12010KT 9999 BKN040 PROB40 TEMPO 0816/0821 SCT040TCU TEMPO 0903/0912 4000 SHRA FEW035CB BKN040TCU
LFBG,TAF LFBG 080500Z 0805/0903 15007KT CAVOK PROB40 TEMPO 0816/0903 4000 TSRA SCT070CB
LFBH,TAF AMD LFBH 081225Z 0812/0912 14008KT 9999 BKN049 TEMPO 0812/0912 VRB15G25KT 4500 -SHRA BKN070CB PROB30 TEMPO 0823/0912 VRB15G35KT 2500 TSRAGS BKN014 BKN040CB
LFBI,TAF LFBI 081100Z 0812/0912 08008KT CAVOK PROB40 TEMPO 0905/0912 VRB15G25KT 4500 -SHRA BKN070CB PROB30 TEMPO 0908/0912 2500 TSRAGS BKN040CB
LFBL,TAF LFBL 081100Z 0812/0912 15010KT CAVOK PROB40 TEMPO 0816/0824 SCT060TCU TEMPO 0908/0912 4000 SHRA FEW050CB BKN060TCU
LFBM,TAF LFBM 080200Z 0803/0903 09005KT CAVOK BECMG 0809/0811 SCT050TCU TEMPO 0818/0903 3000 SHRA SCT040CB
LFBO,TAF LFBO 081100Z 0812/0918 13012KT 9999 FEW045 TEMPO 0812/0818 14016G26KT TEMPO 0903/0908 BKN014 FEW050CB BKN080 BECMG 0912/0914 28008KT FEW040CB SCT100 TEMPO 0914/0918 VRB20G30KT 4000 TSRA PROB40 TEMPO 0915/0918 2000 +SHRA PROB30 TEMPO 0915/0918 SHRAGR
LFBP,TAF LFBP 081100Z 0812/0912 04004KT 9999 FEW050 SCT120 BECMG 0822/0824 FEW050CB BKN090 PROB40 TEMPO 0823/0907 VRB15G25KT 4000 TSRA BKN006 FEW050CB OVC090 PROB30 TEMPO 0911/0912 VRB20G30KT 3000 TSRA
LFBT,TAF LFBT 081100Z 0812/0912 02005KT 9999 FEW050 BECMG 0822/0824 FEW060CB BKN100 PROB40 TEMPO 0900/0907 VRB15G25KT 4000 TSRA BKN006 FEW050CB OVC090 TEMPO 0911/0912 VRB20G30KT 3000 TSRA
LFBU,TAF LFBU 081100Z 0812/0912 12010KT CAVOK PROB40 TEMPO 0900/0906 -SHRA BKN060TCU TEMPO 0906/0912 4000 SHRA FEW050CB BKN060TCU
LFBZ,TAF LFBZ 081100Z 0812/0912 18010KT CAVOK TEMPO 0815/0824 -SHRA BKN060TCU PROB30 TEMPO 0817/0822 VRB15G25KT 3000 TSRA BKN050CB
LFCK,TAF LFCK 081100Z 0812/0821 12022G32KT CAVOK
LFCR,TAF LFCR 081100Z 0812/0912 12014KT 9999 FEW040 SCT080 BECMG 0906/0908 BKN020 FEW040CB BKN080 PROB40 TEMPO 0908/0912 4000 SHRA
LFGJ,TAF LFGJ 081100Z 0812/0821 21005KT CAVOK TEMPO 0812/0821 FEW050TCU PROB30 TEMPO 0812/0818 VRB10G20KT TSRA FEW050CB
LFJL,TAF LFJL 081100Z 0812/0912 02005KT CAVOK TEMPO 0812/0821 FEW050TCU PROB30 TEMPO 0812/0818 VRB15G25KT TSRA FEW060CB
LFKB,TAF LFKB 080800Z 0809/0909 12010KT CAVOK TX26/0813Z TN16/0903Z PROB40 TEMPO 0810/0816 FEW040CB SCT070 PROB30 TEMPO 0814/0816 SHRA SCT040CB BKN070 BKN100 BECMG 0819/0821 VRB02KT BECMG 0907/0909 14012KT
LFKC,TAF LFKC 080800Z 0809/0909 35010KT CAVOK TX26/0812Z TN17/0903Z TEMPO 0810/0816 FEW040CB SCT070 PROB40 TEMPO 0812/0816 4000 SHRA SCT020 SCT040CB BKN070 OVC100 BECMG 0817/0819 VRB02KT BECMG 0908/0909 35010KT
LFKF,TAF LFKF 080800Z 0809/0909 08010KT CAVOK PROB30 TEMPO 0812/0816 FEW040CB SCT070
LFKJ,TAF LFKJ 080800Z 0809/0909 22010KT CAVOK PROB30 TEMPO 0812/0816 FEW040CB SCT070 BECMG 0819/0822 05005KT BECMG 0906/0908 22010KT
LFKS,TAF LFKS 080200Z 0803/0903 29003KT CAVOK TEMPO 0810/0816 12010KT SCT040TCU
LFLB,TAF LFLB 080800Z 0809/0909 36006KT 9999 FEW050 BECMG 0814/0816 21008KT TEMPO 0814/0817 SCT050TCU BECMG 0822/0824 VRB02KT CAVOK
LFLC,TAF LFLC 081100Z 0812/0912 18008KT CAVOK TEMPO 0814/0818 18015KT SCT070TCU PROB30 TEMPO 0814/0818 SHRA BECMG 0907/0909 18015KT BECMG 0910/0912 SHRA FEW055TCU BKN060
LFLL,TAF LFLL 081100Z 0812/0918 18010KT CAVOK PROB30 TEMPO 0816/0819 FEW055CB TEMPO 0911/0918 20015G28KT PROB40 TEMPO 0914/0918 SHRA FEW060TCU BKN065
LFLN,TAF LFLN 081100Z 0812/0821 18005KT CAVOK TEMPO 0812/0821 FEW060TCU PROB30 TEMPO 0812/0818 18015KT TSRA FEW060CB
LFLP,TAF LFLP 080800Z 0809/0909 22007KT 9999 FEW050 TEMPO 0814/0819 FEW050TCU BECMG 0819/0821 VRB02KT CAVOK BECMG 0907/0909 FEW040
LFLS,TAF LFLS 080800Z 0809/0909 23008KT 9999 SCT020 BECMG 0809/0812 FEW050 TEMPO 0812/0817 FEW050TCU BECMG 0900/0902 VRB02KT CAVOK BECMG 0907/0909 25006KT
LFLW,TAF LFLW 080500Z 0806/0815 12008KT CAVOK
LFLX,TAF LFLX 081100Z 0812/0918 07010KT CAVOK PROB40 TEMPO 0815/0822 VRB15G25KT SHRA SCT080TCU BECMG 0908/0910 19010KT TEMPO 0910/0918 18015G25KT FEW080CB PROB30 TEMPO 0911/0918 2500 TSRA SCT060CB
LFLY,TAF LFLY 081100Z 0812/0912 18011KT CAVOK PROB30 TEMPO 0816/0819 FEW055CB
LFMD,TAF LFMD 080800Z 0809/0909 VRB03KT 9999 FEW014 TEMPO 0811/0818 19010KT FEW050CB
LFMI,TAF LFMI 080800Z 0809/0909 11008KT CAVOK TX27/0812Z TN18/0904Z BECMG 0809/0811 18012KT BECMG 0818/0820 12005KT PROB30 TEMPO 0901/0904 BKN010
LFMK,TAF LFMK 080800Z 0809/0909 09012KT 9999 BKN020 BECMG 0809/0811 09018G28KT BECMG 0819/0821 BKN014 BECMG 0905/0907 09012KT PROB40 TEMPO 0903/0906 BKN009 FEW050CB BKN100
LFML,TAF LFML 080800Z 0809/0915 19010KT 9999 BKN030 TX28/0813Z TN20/0903Z BECMG 0809/0811 NSC BECMG 0819/0821 VRB03KT BECMG 0907/0909 15010KT PROB40 TEMPO 0908/0913 SHRA SCT050TCU
LFMN,TAF LFMN 080800Z 0809/0915 12005KT 9999 FEW014 BECMG 0819/0822 33010KT BECMG 0909/0911 10005KT
LFMO,TAF LFMO 080200Z 0803/0903 VRB02KT CAVOK TX28/0814Z TN17/0804Z TEMPO 0803/0807 BKN014 BECMG 0810/0812 18012KT BECMG 0823/0901 VRB02KT
LFMP,TAF LFMP 080800Z 0809/0909 13010KT 9999 FEW020 BECMG 0809/0811 13018G30KT BECMG 0817/0819 13006KT
LFMT,TAF LFMT 080800Z 0809/0909 12010KT 9999 BKN018 TEMPO 0811/0824 CAVOK BECMG 0904/0906 BKN012 PROB40 TEMPO 0907/0909 4000 RA BKN012 SCT015TCU OVC070
LFMU,TAF AMD LFMU 080834Z 0809/0909 12012KT 9999 BKN018 TEMPO 0811/0815 12015G25KT TEMPO 0816/0903 BKN012 BECMG 0903/0905 BKN012 PROB40 TEMPO 0905/0907 4000 RA BKN012 SCT015TCU BKN050 OVC070
LFMV,TAF LFMV 080800Z 0809/0909 VRB03KT CAVOK BECMG 0810/0812 19010KT BECMG 0820/0822 VRB03KT BECMG 0907/0909 16010KT
LFMY,TAF LFMY 080800Z 0809/0909 10005KT 9999 FEW035 TX26/0813Z TN15/0904Z BECMG 0809/0811 19012KT BECMG 0819/0821 VRB02KT BECMG 0906/0908 -RA BKN020
LFOA,TAF AMD LFOA 080450Z 0804/0903 08008KT CAVOK TX30/0814Z TN16/0805Z
LFOB,TAF LFOB 081100Z 0812/0912 05009KT 9999 SCT025
LFOE,TAF LFOE 080800Z 0809/0909 08010KT CAVOK
LFOH,TAF LFOH 081100Z 0812/0912 06013KT 9000 NSC
LFOJ,TAF LFOJ 080800Z 0809/0909 05010KT CAVOK TX28/0814Z TN13/0904Z
LFOK,TAF LFOK 081100Z 0812/0912 06008KT CAVOK
LFOP,TAF LFOP 081100Z 0812/0821 05013KT 8000 FEW025
LFOT,TAF LFOT 081100Z 0812/0912 06010KT CAVOK PROB40 TEMPO 0814/0822 FEW080TCU PROB30 TEMPO 0815/0821 SHRA SCT080CB TEMPO 0905/0912 VRB10G20KT -SHRA SCT060TCU PROB40 TEMPO 0910/0912 4000 SHRA SCT050CB
LFPB,TAF LFPB 081100Z 0812/0912 07008KT 9999 FEW040
LFPG,TAF LFPG 081100Z 0812/0918 07008KT 9999 FEW040 TX30/0915Z TN16/0904Z PROB30 TEMPO 0912/0918 SCT080TCU
LFPN,TAF LFPN 081100Z 0812/0821 06007KT CAVOK
LFPO,TAF LFPO 081100Z 0812/0918 07008KT CAVOK PROB30 TEMPO 0911/0918 FEW080TCU
LFPV,TAF LFPV 080800Z 0809/0909 06010KT CAVOK TX28/0815Z TN17/0905Z
LFQQ,TAF LFQQ 081100Z 0812/0918 02010KT CAVOK BECMG 0906/0909 09010KT
LFRB,TAF LFRB 081100Z 0812/0918 12015KT CAVOK TEMPO 0812/0918 4000 SHRA BKN040CB PROB30 TEMPO 0814/0918 VRB15G25KT 2000 TSRAGR PROB30 TEMPO 0909/0918 BKN009 BECMG 0912/0915 VRB05KT
LFRC,TAF LFRC 081100Z 0812/0821 07014KT 9999 BKN005 TEMPO 0812/0821 07015G25KT BECMG 0813/0815 FEW010 BECMG 0815/0818 BKN007
LFRD,TAF LFRD 081100Z 0812/0912 07013KT CAVOK PROB30 TEMPO 0816/0824 07015G25KT SHRA BKN070CB PROB30 TEMPO 0900/0906 SHRA BKN090CB BECMG 0902/0904 VRB05KT PROB40 TEMPO 0909/0912 SHRA BKN020CB
LFRG,TAF LFRG 081100Z 0812/0821 05010KT CAVOK
LFRH,TAF LFRH 081100Z 0812/0912 14012KT 9999 FEW045 TEMPO 0813/0820 SHRA SCT070CB PROB30 TEMPO 0813/0818 VRB15G25KT 3000 TSRA BKN060CB TEMPO 0823/0912 SHRA SCT070CB PROB30 TEMPO 0905/0912 3000 TSRA BKN035 BKN050CB
LFRI,TAF AMD LFRI 081246Z 0812/0912 12008KT CAVOK TEMPO 0813/0912 VRB15G25KT 4500 -SHRA BKN070CB PROB40 TEMPO 0813/0815 VRB15G35KT 2500 TSRAGR PROB30 TEMPO 0900/0912 VRB15G35KT 2500 TSRAGS BKN010 BKN040CB 
LFRJ,TAF LFRJ 081100Z 0812/0821 10015KT CAVOK TEMPO 0813/0819 4000 SHRA BKN040CB PROB40 TEMPO 0814/0817 VRB20G33KT 2000 TSRA BKN030CB PROB30 TEMPO 0819/0821 4000 SHRA
LFRK,TAF LFRK 081100Z 0812/0821 03010KT CAVOK BECMG 0818/0820 VRB05KT
LFRL,TAF LFRL 081100Z 0812/0912 11012G22KT CAVOK BECMG 0812/0814 SCT040 BKN060TCU BKN100 TEMPO 0814/0912 4000 SHRA SCT015 BKN040CB PROB40 TEMPO 0814/0912 VRB15G30KT 1500 TSRAGS BKN030CB
LFRM,TAF LFRM 080500Z 0806/0906 07008KT CAVOK
LFRN,TAF LFRN 081100Z 0812/0912 10013KT CAVOK PROB30 TEMPO 0816/0824 07015G25KT SHRA BKN070CB PROB30 TEMPO 0900/0906 SHRA BKN090CB BECMG 0902/0904 VRB05KT PROB40 TEMPO 0908/0912 SHRA BKN020CB BECMG 0909/0912 11008KT
LFRQ,TAF LFRQ 081100Z 0812/0912 11013KT CAVOK TEMPO 0812/0912 4000 SHRA BKN040CB PROB40 TEMPO 0812/0820 VRB15G25KT 2000 TSRAGR PROB40 TEMPO 0902/0912 VRB15G25KT 2000 TSRAGR BKN009 BKN020CB
LFRS,TAF AMD LFRS 081229Z 0812/0918 09009KT CAVOK TEMPO 0813/0912 VRB15G25KT 4500 -SHRA BKN070CB PROB40 TEMPO 0813/0815 VRB15G35KT 2500 TSRAGR PROB30 TEMPO 0901/0918 VRB15G35KT 2500 TSRAGS BKN014 BKN040CB 
LFRZ,TAF AMD LFRZ 081230Z 0812/0912 11012KT CAVOK BECMG 0812/0815 VRB05KT TEMPO 0812/0912 VRB15G25KT 4500 -SHRA BKN070CB PROB40 TEMPO 0813/0815 VRB15G35KT 2500 TSRAGR PROB30 TEMPO 0823/0912 VRB15G35KT 2500 TSRAGS BKN014 BKN040CB
LFSB,TAF LFSB 081100Z 0812/0912 36005KT CAVOK TEMPO 0812/0821 FEW060CB PROB30 TEMPO 0812/0818 VRB15G25KT 4000 TSRA BECMG 0910/0912 FEW060CB
LFSL,TAF LFSL 081100Z 0812/0821 12010KT CAVOK PROB40 TEMPO 0813/0815 SCT070TCU PROB40 TEMPO 0815/0818 4000 SHRA FEW060CB BKN070TCU
LFSO,TAF LFSO 080432Z 0804/0903 VRB02KT CAVOK BECMG 0808/0810 09005KT TEMPO 0811/0818 3000 SHRA SCT060CB PROB30 TEMPO 0813/0817 1400 TSRA
LFST,TAF AMD LFST 081210Z 0812/0912 01005KT CAVOK TEMPO 0812/0819 FEW060CB PROB40 TEMPO 0813/0818 VRB15G30KT 4000 TSRA
LFSX,TAF LFSX 080200Z 0803/0903 10005KT CAVOK PROB40 TEMPO 0813/0822 4000 SHRA SCT060TCU PROB30 TEMPO 0815/0820 VRB15G25KT 2000 TSRA SCT040CB
LFTH,TAF LFTH 080800Z 0809/0909 20010KT CAVOK BECMG 0818/0820 VRB03KT SCT020 TEMPO 0902/0906 BKN010 BECMG 0906/0908 10010KT
LFTW,TAF LFTW 080800Z 0809/0909 18010KT 9999 BKN030 BECMG 0809/0811 NSC BECMG 0820/0822 12005KT PROB40 TEMPO 0900/0906 BKN007 TEMPO 0907/0909 SHRA SCT060TCU
LFVP,TAF LFVP 081100Z 0812/0821 09015KT 9999 FEW005 SCT015 BKN045 TEMPO 0812/0814 2000 SHRA SCT004 BKN015CB
LFYR,TAF AMD LFYR 080447Z 0804/0903 05005KT CAVOK
LGAD,TAF LGAD 081100Z 0812/0821 32010KT 9999 FEW025 SCT080
LGAL,TAF LGAL 081100Z 0812/0821 05013KT 9999 FEW018 TEMPO 0815/0818 FEW020 BKN060
LGAV,TAF LGAV 081100Z 0812/0912 04018KT 9999 FEW030 SCT070 BECMG 0817/0819 VRB05KT PROB30 TEMPO 0812/0816 5000 RA FEW018TCU BKN030 BKN070
LGBL,TAF LGBL 081100Z 0812/0821 10010KT 9999 FEW025 SCT080 BECMG 0819/0821 26005KT
LGEL,TAF LGEL 081100Z 0812/0912 36010KT 9999 FEW025 SCT070 BECMG 0812/0814 18010KT BECMG 0815/0817 VRB05KT PROB30 TEMPO 0812/0818 5000 RA FEW018TCU BKN030 BKN070
LGHI,TAF LGHI 081100Z 0812/0821 01010KT 9999 FEW020 BECMG 0817/0819 VRB05KT PROB30 TEMPO 0812/0814 5000 RA FEW018TCU BKN020
LGIO,TAF LGIO 081100Z 0812/0821 VRB03KT 9999 FEW025 BKN080 PROB40 TEMPO 0812/0815 5000 SHRA FEW020TCU SCT025 BKN080
LGIR,TAF LGIR 081100Z 0812/0912 33010KT 9999 FEW025 BKN090 TEMPO 0818/0906 VRB05KT PROB30 TEMPO 0812/0818 5000 RA FEW018TCU SCT020 BKN080
LGKC,TAF LGKC 081100Z 0812/0821 05014G24KT 9999 FEW020 BECMG 0815/0817 VRB05KT
LGKF,TAF LGKF 081100Z 0812/0821 30010KT 9999 FEW025 SCT080 PROB30 TEMPO 0812/0815 5000 RA FEW020 BKN080 BECMG 0816/0818 VRB05KT
LGKL,TAF LGKL 081100Z 0812/0821 15010KT 9999 FEW025 BKN080 PROB40 TEMPO 0812/0818 4000 TSRA FEW016CB SCT020 BKN080 BECMG 0816/0818 34005KT
LGKO,TAF LGKO 081100Z 0812/0912 32012KT 9999 SCT014 PROB30 TEMPO 0812/0816 5000 RA FEW016TCU BKN025
LGKP,TAF LGKP 081100Z 0812/0821 33012KT 9999 SCT020
LGKR,TAF LGKR 081100Z 0812/0912 VRB05KT 9999 FEW020 SCT080 PROB30 TEMPO 0812/0815 5000 RA FEW016TCU BKN025 BKN070
LGKV,TAF LGKV 081100Z 0812/0912 22013KT 9999 FEW025 BECMG 0817/0819 VRB03KT
LGLM,TAF LGLM 081100Z 0812/0821 03012KT 9999 FEW020
LGLR,TAF LGLR 081100Z 0812/0821 09010KT 9999 FEW025 SCT080 BECMG 0819/0821 VRB03KT
LGMK,TAF LGMK 081100Z 0812/0821 36020KT 9999 FEW008
LGMT,TAF LGMT 081100Z 0812/0821 35010KT 9999 FEW020 BECMG 0816/0818 VRB05KT
LGPZ,TAF LGPZ 081100Z 0812/0912 27010KT 9999 FEW020 SCT080 BECMG 0819/0821 VRB05KT PROB30 TEMPO 0812/0815 5000 RA FEW016TCU BKN025 BKN070 PROB30 TEMPO 0902/0905 5000 BR SCT012
LGRP,TAF LGRP 081100Z 0812/0912 26016KT 9999 FEW018 SCT025 PROB30 TEMPO 0812/0816 5000 RA FEW018TCU BKN025
LGRX,TAF LGRX 081100Z 0812/0821 03010KT 9999 FEW025 SCT080
LGSA,TAF LGSA 081100Z 0812/0912 VRB05KT 9999 FEW020 SCT080 PROB30 TEMPO 0812/0818 5000 RA FEW018TCU SCT025 BKN080
LGSK,TAF LGSK 081100Z 0812/0821 03010KT 9999 FEW018 SCT030 BECMG 0815/0817 VRB05KT
LGSM,TAF LGSM 081100Z 0812/0821 16010KT 9999 FEW020 SCT025 BECMG 0815/0817 VRB05KT PROB40 TEMPO 0812/0818 5000 RA FEW018TCU BKN020
LGSR,TAF LGSR 081100Z 0812/0912 36012KT 9999 FEW025
LGST,TAF LGST 081100Z 0812/0821 30012KT 9999 SCT018
LGSY,TAF LGSY 081100Z 0812/0821 36010KT 9999 FEW020
LGTG,TAF LGTG 081100Z 0812/0821 36010KT 9999 FEW025 SCT070
LGTL,TAF LGTL 081100Z 0812/0821 35008KT 9999 FEW020 SCT080 PROB30 TEMPO 0812/0815 4000 TSRA FEW016CB SCT020 BKN080
LGTS,TAF LGTS 081100Z 0812/0912 17013KT 9999 FEW025 BECMG 0818/0820 VRB03KT
LGZA,TAF LGZA 081100Z 0812/0821 VRB05KT 9999 FEW020 BKN080
LHBP,TAF LHBP 081115Z 0812/0912 VRB03KT 9999 SCT030 BKN060 TEMPO 0812/0912 VRB13G26KT 2500 SHRA TSRA SCT009 SCT020CB BKN045 PROB40 TEMPO 0820/0906 1200 BCFG BR BKN003
LHDC,TAF LHDC 081115Z 0812/0821 19006KT CAVOK TEMPO 0812/0821 VRB15G25KT 4000 TSRA SHRA SCT030CB SCT060
LHKE,TAF LHKE 081115Z 0812/0821 VRB03KT 9999 SCT025TCU BKN033 TEMPO 0812/0821 VRB12G22KT 3000 TSRA SHRA SCT020CB BKN025 PROB40 TEMPO 0812/0821 1500 +TSRA BKN018CB
LHPA,TAF LHPA 081115Z 0812/0912 VRB03KT 9999 SCT030 BKN200 PROB40 TEMPO 0812/0820 VRB15G25KT 3000 SHRA TSRA SCT005 BKN015CB BKN025TCU BECMG 0821/0901 3000 BR BKN005 TEMPO 0901/0906 0100 FG VV002 BECMG 0906/0908 9999 NSW SCT010 BKN020TCU PROB40 TEMPO 0908/0912 VRB15G25KT 3000 SHRA TSRA SCT005 BKN015CB BKN030TCU
LHPP,TAF LHPP 081115Z 0812/0821 VRB03KT 9999 SCT035 TEMPO 0812/0821 VRB15G25KT 2500 TSRAGR +SHRA BKN020CB
LHPR,TAF COR LHPR 081234Z 0812/0821 VRB03KT CAVOK TEMPO 0812/0821 VRB10G20KT 2500 TSRA +SHRA SCT035CB SCT100
LHSM,TAF LHSM 081115Z 0812/0821 VRB03KT 9999 SCT015 SCT055 TEMPO 0812/0821 VRB15G25KT 2500 TSRA +SHRA SCT020CB SCT030 BKN080
LHSN,TAF LHSN 081115Z 0812/0821 VRB02KT 9999 SCT025TCU SCT050 TEMPO 0812/0821 19007KT 8000 -TSRA SHRA SCT020CB BKN040 BKN083 PROB30 TEMPO 0812/0819 VRB14G25KT 3000 TSRA BKN020CB
LIBA,TAF LIBA 081100Z 0812/0821 09015KT 9999 FEW035 SCT060 TEMPO 0812/0816 7000 SHRA FEW030CB SCT035
LIBC,TAF LIBC 081100Z 0812/0912 05007KT 9999 FEW040 BECMG 0812/0814 18010KT BECMG 0817/0819 VRB05KT BECMG 0908/0910 18010KT
LIBD,TAF LIBD 081100Z 0812/0912 36010KT CAVOK BECMG 0815/0817 VRB05KT BECMG 0908/0910 03010KT
LIBF,TAF LIBF 081100Z 0812/0912 10010KT 9999 SCT030 TEMPO 0813/0818 4000 TSRA BECMG 0817/0819 VRB05KT BECMG 0908/0910 10010KT
LIBG,TAF LIBG 081100Z 0812/0821 36010KT 9999 SCT030 TEMPO 0812/0816 SHRA BECMG 0816/0818 VRB05KT
LIBN,TAF LIBN 080500Z 0806/0815 35005KT 9999 BKN050 PROB40 TEMPO 0811/0815 8000 TSRA SCT020CB SCT030
LIBP,TAF LIBP 081100Z 0812/0912 07010KT CAVOK BECMG 0813/0815 VRB05KT PROB40 TEMPO 0813/0817 TSRA BKN014 BECMG 0908/0910 07010KT
LIBR,TAF LIBR 081100Z 0812/0912 35011KT 9999 FEW015 BECMG 0815/0817 VRB05KT BECMG 0908/0910 01010KT
LIBV,TAF LIBV 081100Z 0812/0821 36010KT 9999 SCT030 PROB30 TEMPO 0812/0816 5000 SHRA SCT030 FEW035CB BECMG 0817/0819 VRB03KT
LICA,TAF LICA 081100Z 0812/0912 27013KT 9999 SCT025 BKN040 TEMPO 0812/0818 TSRA BECMG 0817/0819 VRB05KT BECMG 0909/0911 27013KT
LICB,TAF LICB 081100Z 0812/0912 26014KT 9999 SCT030 TEMPO 0813/0817 SHRA BECMG 0817/0819 VRB05KT BECMG 0908/0910 26014KT
LICC,TAF LICC 081100Z 0812/0912 07012KT 9999 SCT030 PROB30 0812/0818 SHRA BECMG 0817/0820 VRB05KT BECMG 0908/0911 10010KT
LICD,TAF LICD 081100Z 0812/0912 17012KT 9999 SCT020
LICG,TAF LICG 081100Z 0812/0821 14013KT 9999 FEW020
LICJ,TAF LICJ 081100Z 0812/0912 04013KT 9999 SCT030 BECMG 0818/0820 VRB05KT BECMG 0909/0911 04013KT
LICR,TAF LICR 081100Z 0812/0912 35013KT 9999 SCT025 TEMPO 0812/0818 TSRA
LICT,TAF LICT 081100Z 0812/0821 23010KT 9999 FEW025
LICZ,TAF LICZ 081100Z 0812/0912 09011KT 9999 FEW025 SCT070 PROB30 TEMPO 0812/0818 SHRA FEW020TCU
LIEA,TAF LIEA 081100Z 0812/0912 29010KT 9999 FEW025 BECMG 0817/0819 VRB05KT BECMG 0909/0911 24010KT
LIED,TAF LIED 081100Z 0812/0821 15014KT 9999 SCT030 BECMG 0819/0821 13005KT
LIEE,TAF LIEE 081100Z 0812/0912 15014KT 9999 SCT040 BECMG 0817/0819 VRB05KT BECMG 0907/0910 15014KT
LIEO,TAF LIEO 081100Z 0812/0912 08013KT 9999 FEW040 TEMPO 0812/0818 TSRA BECMG 0908/0910 10013KT
LIMC,TAF LIMC 081100Z 0812/0918 VRB05KT CAVOK PROB30 TEMPO 0818/0821 TSRA TEMPO 0902/0906 RA TEMPO 0912/0918 TSRA
LIME,TAF LIME 081100Z 0812/0912 VRB05KT 9999 FEW060 TEMPO 0902/0907 RA
LIMF,TAF LIMF 081100Z 0812/0912 VRB05KT 9999 SCT040 TEMPO 0815/0820 4000 TSRA
LIMG,TAF LIMG 081100Z 0812/0912 VRB05KT 9999 FEW030 TEMPO 0812/0818 TSRA BKN010
LIMJ,TAF LIMJ 081100Z 0812/0912 VRB06KT 9999 SCT020 PROB30 TEMPO 0812/0815 TSRA
LIML,TAF LIML 081100Z 0812/0912 VRB05KT CAVOK TEMPO 0902/0906 RA
LIMN,TAF LIMN 081100Z 0812/0821 VRB03KT 9999 FEW040
LIMP,TAF LIMP 081100Z 0812/0912 VRB05KT 9999 FEW020 PROB30 TEMPO 0812/0816 TSRA
LIMW,TAF LIMW 081100Z 0812/0821 10015KT 9999 SCT040
LIMZ,TAF LIMZ 081100Z 0812/0912 VRB05KT 9999 SCT040 TEMPO 0816/0821 4000 TSRA
LIPA,TAF LIPA 081100Z 0812/0821 13005KT 9999 SCT060 PROB30 TEMPO 0814/0818 TSRA FEW030CB BKN060
LIPB,TAF LIPB 081100Z 0812/0912 16010KT CAVOK TEMPO 0814/0820 4000 TSRA BKN014 BECMG 0815/0817 VRB05KT BECMG 0910/0912 16010KT
LIPC,TAF LIPC 081100Z 0812/0821 06010KT 9999 SCT025 TEMPO 0813/0817 FEW020CB BKN025 PROB30 TEMPO 0815/0817 TSRA
LIPE,TAF LIPE 081100Z 0812/0912 VRB05KT CAVOK
LIPH,TAF LIPH 081100Z 0812/0912 VRB04KT CAVOK PROB40 TEMPO 0813/0817 TSRA BKN014
LIPI,TAF LIPI 081100Z 0812/0821 VRB05KT 9999 FEW040 PROB30 TEMPO 0812/0821 4000 TSRA FEW020CB SCT030
LIPK,TAF LIPK 081100Z 0812/0912 08010KT 9999 SCT025 TEMPO 0813/0818 TSRA BECMG 0814/0816 VRB05KT
LIPL,TAF LIPL 081100Z 0812/0821 24005KT 9999 FEW035 TEMPO 0815/0818 9999 FEW020CB
LIPO,TAF LIPO 081100Z 0812/0912 VRB05KT 9999 FEW040 TEMPO 0812/0818 4000 TSRA BKN010
LIPQ,TAF LIPQ 081100Z 0812/0912 21010KT CAVOK BECMG 0815/0817 VRB06KT BECMG 0910/0912 21010KT
LIPR,TAF LIPR 081100Z 0812/0912 09010KT CAVOK PROB40 TEMPO 0814/0818 TSRA BKN014 BECMG 0816/0818 VRB05KT BECMG 0909/0911 09010KT
LIPS,TAF LIPS 081100Z 0812/0821 VRB03KT 9999 SCT025 PROB40 TEMPO 0816/0820 FEW020CB SCT030
LIPX,TAF LIPX 081100Z 0812/0912 VRB05KT 9999 FEW070 PROB30 TEMPO 0812/0817 4000 TSRA BKN010
LIPY,TAF LIPY 081100Z 0812/0912 04010KT 9999 FEW020 BECMG 0813/0815 VRB05KT PROB40 TEMPO 0813/0818 TSRA BECMG 0909/0911 04010KT
LIPZ,TAF LIPZ 081100Z 0812/0918 16010KT CAVOK PROB40 TEMPO 0813/0816 TSRA BKN014 BECMG 0817/0819 VRB04KT BECMG 0910/0912 17010KT BECMG 0916/0918 VRB05KT
LIQW,TAF LIQW 081100Z 0812/0821 20005KT 9999 SCT020
LIRA,TAF LIRA 081100Z 0812/0912 25012KT 9999 SCT030 BECMG 0817/0819 VRB05KT BECMG 0909/0911 25012KT
LIRE,TAF LIRE 081100Z 0812/0821 27009KT CAVOK TEMPO 0812/0814 9999 SCT015CB
LIRF,TAF LIRF 081100Z 0812/0918 26012KT 9999 SCT040 BECMG 0818/0820 VRB05KT BECMG 0908/0910 19010KT
LIRG,TAF LIRG 081100Z 0812/0821 26005KT 9999 SCT030 PROB30 TEMPO 0815/0818 TSRA FEW020CB SCT040
LIRH,TAF LIRH 081100Z 0812/0821 20008KT 9999 SCT035 TEMPO 0812/0816 FEW025CB BKN030
LIRL,TAF LIRL 081100Z 0812/0821 16005KT 9999 SCT030
LIRN,TAF LIRN 081100Z 0812/0912 25010KT 9999 SCT040 BECMG 0817/0819 VRB05KT BECMG 0909/0911 23012KT
LIRP,TAF LIRP 081100Z 0812/0912 28010KT 9999 SCT020 BECMG 0817/0819 12003KT CAVOK BECMG 0821/0823 5000 MIFG SCT010 PROB30 TEMPO 0900/0904 0300 FG BKN005 BECMG 0906/0908 24007KT CAVOK
LIRQ,TAF LIRQ 081100Z 0812/0912 25010KT 9999 SCT030 TEMPO 0812/0818 TSRA BECMG 0817/0819 VRB05KT BECMG 0909/0911 25010KT
LIRS,TAF LIRS 081100Z 0812/0821 24012KT 9999 FEW025TCU FEW030
LIRU,TAF LIRU 081100Z 0812/0821 25012KT 9999 FEW030 BECMG 0817/0820 VRB05KT
LIRV,TAF LIRV 081100Z 0812/0821 24005KT 9999 SCT030 TEMPO 0814/0817 TSRA FEW020CB BKN040
LIRZ,TAF LIRZ 081100Z 0812/0912 VRB05KT 9999 SCT030 TEMPO 0812/0818 TSRA
LJCE,TAF LJCE 081100Z 0812/0821 VRB02KT 9999 SCT040 PROB40 TEMPO 0812/0818 SHRA SCT040TCU BKN045 PROB30 TEMPO 0812/0817 VRB12KT TSRA BKN035CB
LJLJ,TAF LJLJ 081100Z 0812/0912 VRB02KT 9999 FEW045 TEMPO 0812/0820 SHRA SCT040TCU BKN070 PROB40 TEMPO 0812/0817 VRB15KT 5000 TSRA BKN040CB PROB30 TEMPO 0900/0907 BKN010
LJMB,TAF LJMB 081100Z 0812/0912 VRB02KT 9999 FEW040 TEMPO 0812/0820 SHRA SCT040TCU PROB40 TEMPO 0812/0817 VRB15KT 5000 TSRA BKN030CB PROB30 TEMPO 0901/0907 1500 PRFG BKN003
LJPZ,TAF LJPZ 081100Z 0812/0821 30005KT 9999 FEW040 TEMPO 0812/0816 FEW040TCU PROB40 TEMPO 0812/0816 FEW040CB
LKCV,TAF LKCV 081100Z 0812/0912 07008KT CAVOK PROB40 TEMPO 0812/0819 06018G28KT 6000 SHRA BKN025CB TEMPO 0819/0909 VRB02KT TEMPO 0909/0912 6000 SHRA BKN025TCU
LKKB,TAF LKKB 081100Z 0812/0912 VRB02KT CAVOK TEMPO 0812/0818 07010KT 7000 SHRA SCT035TCU PROB30 TEMPO 0812/0817 09015G25KT 5000 TSRA SCT035CB BKN045 TEMPO 0910/0912 07012KT 7000 SHRA SCT030
LKKV,TAF LKKV 081100Z 0812/0912 07008KT CAVOK TEMPO 0812/0817 12012G24KT 5000 SHRA SCT035TCU BKN045 PROB30 TEMPO 0812/0817 16014G30KT 3000 TSRA SCT025CB OVC035 BECMG 0819/0821 03004KT TEMPO 0909/0912 04014KT TEMPO 0911/0912 8000 SHRA SCT040TCU
LKMT,TAF LKMT 081100Z 0812/0912 02006KT CAVOK PROB30 TEMPO 0812/0819 04012KT 8000 SHRA SCT030TCU BECMG 0901/0903 6000 SCT005 BKN017 PROB40 TEMPO 0903/0907 2000 BR BKN005 BECMG 0907/0909 9999 SCT027 TEMPO 0909/0912 3000 TSRA SCT020CB
LKNA,TAF COR LKNA 081100Z 0812/0912 VRB02KT 9999 SCT035 TEMPO 0812/0822 07007KT 7000 SHRA BKN025TCU PROB30 TEMPO 0812/0817 07008G18KT 5000 SHRA BKN015CB TEMPO 0910/0912 7000 SHRA BKN020TCU
LKPD,TAF LKPD 081100Z 0812/0912 06007KT CAVOK PROB40 TEMPO 0812/0819 09016G26KT 6000 SHRA BKN035CB BECMG 0900/0902 VRB02KT BKN040
LKPR,TAF LKPR 081100Z 0812/0918 03006KT CAVOK TEMPO 0812/0818 06014KT 7000 SHRA SCT045CB BKN050 PROB30 TEMPO 0812/0815 07016G28KT 5000 TSRA SCT035CB OVC045 TEMPO 0909/0916 6000 SHRA SCT030TCU BKN045 PROB30 TEMPO 0911/0915 08012G22KT 5000 TSRA SCT025CB
LKTB,TAF LKTB 081100Z 0812/0912 06006KT CAVOK TEMPO 0812/0817 6000 SHRA SCT045CB BKN050 PROB30 TEMPO 0812/0816 04012G22KT 4000 TSRA SCT045CB BECMG 0823/0901 VRB02KT 9999 BKN025 TEMPO 0907/0912 7000 SHRA SCT020TCU PROB40 TEMPO 0909/0912 2500 TSRA BKN010CB
LLBG,TAF LLBG 081105Z 0812/0912 34010KT CAVOK PROB40 TEMPO 0812/0816 VRB18G28KT 5000 -RA DU BKN100 BECMG 0816/0818 VRB04KT PROB30 TEMPO 0818/0824 17010KT 7000 -RA BKN100 PROB30 0900/0912 VRB18G28KT 6000 -TSRA FEW070CB BKN100 TX33/0812Z TN20/0903Z
LLER,TAF LLER 081103Z 0812/0912 VRB05KT CAVOK PROB40 TEMPO 0812/0820 19018G28KT 6000 -TSRA FEW080CB BKN110 PROB40 TEMPO 0820/0912 VRB20G30KT 5000 TSRA DU FEW070CB BKN100 TX39/0813Z TN29/0903Z
LLHA,TAF LLHA 081106Z 0812/0912 34010KT CAVOK PROB40 TEMPO 0812/0815 VRB18G28KT 5000 -RA DU BKN100 BECMG 0815/0817 VRB04KT PROB30 TEMPO 0818/0824 11010KT 7000 -RA BKN100 PROB30 0900/0912 VRB18G28KT 6000 -TSRA FEW070CB BKN100 TX26/0812Z TN23/0903Z
LLHZ,TAF LLHZ 081106Z 0812/0912 34010KT CAVOK PROB40 TEMPO 0812/0816 VRB18G28KT 5000 -RA DU BKN100 BECMG 0816/0818 VRB04KT PROB30 TEMPO 0818/0824 08008KT 7000 -RA BKN100 PROB30 0900/0912 VRB18G28KT 6000 -TSRA FEW070CB BKN100 TX28/0812Z TN22/0903Z
LLIB,TAF LLIB 081107Z 0812/0912 VRB05KT CAVOK PROB40 TEMPO 0812/0815 20018G28KT 7000 -RA BKN100 PROB30 TEMPO 0815/0903 34010KT 7000 -RA BKN100 PROB30 0903/0912 19018G28KT 6000 -TSRA FEW070CB BKN100 TX33/0813Z TN22/0903Z
LMML,TAF LMML 081100Z 0812/0912 VRB06KT 9999 FEW020 BECMG 0909/0912 18012KT
LOAN,TAF LOAN 081115Z 0812/0821 VRB03KT 9999 SCT025 TEMPO 0812/0821 35007KT SHRA BKN020 FEW020CB PROB30 TEMPO 0812/0818 2500 +TSRA FEW025CB
LOAV,TAF LOAV 081115Z 0812/0821 VRB03KT 9999 SCT025 TEMPO 0812/0821 35007KT SHRA BKN020 FEW020CB PROB30 TEMPO 0812/0818 2500 +TSRA FEW025CB
LOWG,TAF LOWG 081115Z 0812/0912 VRB05KT 9999 SCT040 TX22/0912Z TN13/0903Z TEMPO 0812/0822 16007KT FEW040CB TEMPO 0812/0820 VRB15G30KT 4000 TSRA SCT030CB BKN040 TEMPO 0823/0906 2000 BCFG PROB40 TEMPO 0901/0905 0300 FG BKN001 TEMPO 0910/0912 16007KT FEW050CB
LOWI,TAF LOWI 081115Z 0812/0912 09008KT 9999 SCT060CB BKN080 TX25/0912Z TN12/0904Z TEMPO 0812/0814 VRB15G30KT TSRA PROB40 TEMPO 0814/0818 VRB15G25KT -TSRA BECMG 0817/0819 27004KT FEW050 SCT070 BECMG 0909/0911 09008KT
LOWK,TAF LOWK 081115Z 0812/0912 VRB04KT 9999 FEW050 TX23/0912Z TN13/0903Z TEMPO 0812/0818 09008KT FEW050CB PROB40 TEMPO 0813/0817 TSRA TEMPO 0821/0902 0800 PRFG TEMPO 0900/0908 SCT008 BKN012
LOWL,TAF LOWL 081115Z 0812/0912 06006KT 9999 SCT040 TX24/0813Z TN15/0903Z TEMPO 0812/0818 -SHRA FEW030CB PROB30 TEMPO 0812/0817 VRB10KT 3000 +TSRA PROB30 TEMPO 0901/0905 VRB02KT 0800 FG TEMPO 0903/0909 -SHRA
LOWS,TAF LOWS 081115Z 0812/0912 34007KT 9999 FEW060 TX24/0813Z TN13/0903Z PROB40 TEMPO 0812/0819 29015G25KT -TSRA FEW050CB SCT060 BECMG 0818/0820 16005KT BECMG 0908/0910 34007KT
LOWW,TAF LOWW 081115Z 0812/0918 36005KT 9999 FEW025 TX22/0812Z TN14/0903Z TEMPO 0812/0819 35007KT SHRA BKN020 FEW020CB PROB30 TEMPO 0812/0817 2500 +TSRA FEW025CB TEMPO 0900/0908 SHRA PROB30 TEMPO 0900/0908 2000 BR BKN004 TEMPO 0913/0918 SHRA BKN020 FEW020CB PROB30 TEMPO 0915/0918 2500 +TSRA FEW025CB
LOXZ,TAF LOXZ 081115Z 0812/0821 13007KT 9999 FEW020 BKN090 TEMPO 0812/0818 07010KT FEW040CB SCT050 PROB30 TEMPO 0812/0816 VRB15KT 6000 -TSRA SCT040CB BKN050
LPAZ,TAF LPAZ 081100Z 0812/0918 29015KT 9999 SCT020 TEMPO 0812/0916 FEW018 BKN045 BECMG 0822/0824 27010KT BECMG 0915/0918 VRB05KT SCT015 BKN030 PROB40 TEMPO 0915/0918 5000 SHRA BKN015 FEW018CB
LPBJ,TAF LPBJ 081103Z 0812/0912 17012KT 9999 SCT040 TEMPO 0812/0819 18015G28KT 5000 SHRA BKN022 FEW035CB BECMG 0823/0902 FEW010 BKN020 TEMPO 0902/0912 4000 -RADZ BR SCT006 BKN012
LPCS,TAF LPCS 081100Z 0812/0821 17018KT 9999 FEW008 BKN018 TEMPO 0812/0821 17020G32KT 5000 SHRA BKN010 FEW020CB
LPFR,TAF LPFR 081100Z 0812/0912 14010KT 9999 SCT015 BKN030 TEMPO 0812/0820 8000 SHRA BKN015 BECMG 0812/0814 19010KT BECMG 0814/0816 23015KT BECMG 0821/0824 23010KT PROB40 TEMPO 0821/0910 5000 -RADZ BR BKN012
LPHR,TAF LPHR 081100Z 0812/0821 30013KT 9999 FEW015 BKN040 TEMPO 0812/0821 SCT015
LPLA,TAF LPLA 081103Z 0812/0912 32012KT 9999 FEW015 SCT025 PROB30 TEMPO 0812/0912 8000 -SHRA SCT015 BKN022
LPMA,TAF LPMA 081100Z 0812/0912 VRB05KT 9999 SCT015 TEMPO 0812/0912 22012KT TEMPO 0906/0912 8000 DZRA FEW008 BKN013
LPMR,TAF LPMR 081102Z 0812/0912 17015KT 9999 FEW020 SCT040 TEMPO 0812/0822 5000 SHRA BKN020 FEW035CB TEMPO 0812/0820 19020G35KT PROB40 TEMPO 0812/0824 2000 +TSRA SCT010 BKN014 SCT030CB BECMG 0823/0901 17010KT SCT018 BKN025 TEMPO 0822/0912 6000 -RA SCT012 BKN018 PROB40 TEMPO 0900/0908 4000 -RADZ BR SCT004 BKN008
LPMT,TAF LPMT 081103Z 0812/0912 18015KT 9999 FEW020 SCT040 TEMPO 0812/0822 19020G32KT 5000 SHRA SCT020 BKN030 FEW035CB PROB30 TEMPO 0812/0815 3000 TSRA SCT015 BKN018 SCT030CB BECMG 0820/0823 19010KT FEW012 BKN025 TEMPO 0822/0912 5000 -RADZ BR SCT009 BKN014
LPOV,TAF LPOV 081102Z 0812/0912 17012KT 9999 FEW020 SCT040 TEMPO 0812/0822 18015G25KT 5000 SHRA BKN020 FEW035CB PROB40 TEMPO 0812/0821 2000 +TSRA SCT010 BKN014 SCT030CB BECMG 0821/0823 SCT005 BKN015 TEMPO 0822/0912 5000 -RADZ BR SCT005 BKN009 PROB40 TEMPO 0902/0908 3000 RADZ BR SCT0
LPPD,TAF LPPD 081100Z 0812/0912 29012KT 9999 FEW018 BKN040 TEMPO 0812/0820 SCT020 BECMG 0820/0823 29007KT SCT020
LPPR,TAF LPPR 081100Z 0812/0912 19015KT 9999 SCT015 SCT035 TEMPO 0812/0821 5000 SHRA BKN015 FEW020CB PROB30 TEMPO 0812/0821 18018G30KT 3000 TSRA SCT018CB BECMG 0821/0823 SCT003 BKN006 TEMPO 0823/0910 2000 DZRA BR SCT002 BKN004
LPPS,TAF LPPS 081100Z 0812/0918 27015KT 9999 SCT015 SCT030 PROB30 TEMPO 0812/0818 27018G30KT BECMG 0821/0823 27010KT PROB40 TEMPO 0907/0918 5000 DZRA BR SCT008 BKN012
LPPT,TAF LPPT 081100Z 0812/0918 19018KT 9999 SCT015 BKN030 TEMPO 0812/0819 19020G32KT 5000 SHRA BKN013 FEW025CB BECMG 0819/0822 21010KT SCT012 BKN020 TEMPO 0819/0909 5000 -RADZ BR SCT004 BKN008 BECMG 0909/0912 24013KT SCT020 PROB40 TEMPO 0912/0918 5000 -RADZ BR BKN015
LQBK,TAF LQBK 081100Z 0812/0912 VRB02KT 9999 SCT035 TX26/0813Z TN15/0904Z PROB40 TEMPO 0814/0820 22015KT 4000 TSRA FEW030CB BKN035 PROB40 TEMPO 0822/0906 3000 BR PROB30 TEMPO 0900/0906 0300 FG BKN002
LQMO,TAF COR LQMO 081100Z 0812/0912 16005KT CAVOK TX29/0813Z TN16/0904Z TEMPO 0812/0815 22012KT PROB40 TEMPO 0812/0816 VRB15KT TSRA FEW040CB SCT050
LQSA,TAF LQSA 081100Z 0812/0912 VRB02KT 9999 SCT050 TX28/0912Z TN13/0904Z TEMPO 0812/0817 VRB15KT TSRA SCT035CB BKN045 PROB40 0902/0906 3000 BR BKN004
LQTZ,TAF LQTZ 081100Z 0812/0912 08005KT 9999 SCT035 TX26/0912Z TN14/0904Z PROB40 TEMPO 0812/0818 VRB15KT 4000 TSRA FEW035CB BKN040 TEMPO 0822/0907 2000 BR PROB40 TEMPO 0823/0906 0300 FG BKN002
LRAR,TAF LRAR 081100Z 0812/0821 VRB04KT CAVOK TEMPO 0812/0815 SCT040CB PROB30 TEMPO 0812/0815 5000 -TSRA BKN010 BKN030CB
LRBC,TAF LRBC 081100Z 0812/0821 15012KT CAVOK BECMG 0816/0818 VRB04KT
LRBM,TAF LRBM 081100Z 0812/0821 VRB04KT CAVOK PROB40 TEMPO 0812/0815 3000 TSRA BKN010 BKN030CB
LRBS,TAF LRBS 081100Z 0812/0912 09010KT CAVOK BECMG 0816/0818 VRB04KT
LRCK,TAF LRCK 081100Z 0812/0912 08012KT CAVOK BECMG 0816/0818 VRB04KT BECMG 0908/0910 10012KT
LRCL,TAF LRCL 081100Z 0812/0821 VRB04KT 9999 SCT050 TEMPO 0812/0818 SCT035CB BKN045 PROB40 TEMPO 0812/0815 VRB20KT 5000 -TSRA
LRCV,TAF LRCV 081100Z 0812/0821 09010KT CAVOK BECMG 0816/0818 VRB04KT
LRIA,TAF LRIA 081100Z 0812/0821 14012KT CAVOK BECMG 0816/0818 VRB04KT
LROD,TAF LROD 081100Z 0812/0821 VRB04KT CAVOK PROB40 TEMPO 0812/0815 3000 TSRA BKN010 BKN030CB
LROP,TAF LROP 081100Z 0812/0912 09010KT CAVOK BECMG 0816/0818 VRB04KT
LRSB,TAF LRSB 081100Z 0812/0912 12008KT 9999 SCT060 TEMPO 0812/0818 SCT040CB PROB30 TEMPO 0813/0817 5000 -TSRA TEMPO 0900/0904 5000 BR TEMPO 0904/0909 5000 -SHRA SCT040CB
LRSM,TAF LRSM 081100Z 0812/0821 VRB04KT CAVOK PROB40 TEMPO 0812/0815 3000 TSRA BKN010 BKN030CB
LRSV,TAF LRSV 081100Z 0812/0821 14012KT CAVOK BECMG 0817/0819 VRB04KT
LRTC,TAF LRTC 081100Z 0812/0821 08009KT CAVOK
LRTM,TAF LRTM 081100Z 0812/0821 VRB04KT 9999 SCT045 TEMPO 0813/0817 SCT035CB
LRTR,TAF LRTR 081100Z 0812/0912 VRB04KT CAVOK PROB30 TEMPO 0812/0815 SCT040CB
LSGC,TAF LSGC 081125Z 0812/0821 VRB02KT 9999 SCT040 PROB40 TEMPO 0812/0815 4500 SHRA SCT040CB
LSGG,TAF AMD LSGG 081208Z 0812/0918 05005KT 9999 FEW050 TX27/0815Z TN14/0904Z TX27/0915Z TEMPO 0812/0818 SHRA FEW050CB
LSGS,TAF LSGS 081125Z 0812/0821 24010KT 9999 FEW090 BECMG 0818/0820 VRB02KT
LSZA,TAF LSZA 081125Z 0812/0821 19005KT 9999 FEW100 TEMPO 0812/0821 FEW070TCU PROB30 TEMPO 0813/0816 FEW060CB PROB40 TEMPO 0816/0820 TSRA SCT050CB
LSZB,TAF LSZB 081125Z 0812/0821 VRB03KT 9999 SCT130 TEMPO 0812/0817 FEW070TCU PROB30 TEMPO 0813/0816 13010KT TSRA SCT060CB
LSZC,TAF LSZC 081125Z 0812/0821 VRB02KT 9999 FEW060 TEMPO 0812/0820 SHRA SCT060TCU PROB30 TEMPO 0814/0819 4000 TSRA SCT050CB
LSZG,TAF LSZG 081125Z 0812/0821 07006KT 9999 FEW060 PROB40 TEMPO 0812/0818 FEW060TCU PROB30 TEMPO 0813/0817 SHRA
LSZH,TAF LSZH 081125Z 0812/0918 03007KT CAVOK TX27/0815Z TN11/0904Z TX28/0915Z TEMPO 0812/0820 FEW070TCU PROB40 TEMPO 0812/0818 FEW070CB BECMG 0819/0821 VRB02KT BECMG 0906/0908 04005KT BECMG 0909/0912 04009KT
LSZL,TAF LSZL 081125Z 0812/0821 VRB02KT 9999 FEW070 TEMPO 0812/0821 FEW060TCU PROB30 TEMPO 0815/0819 4000 TSRA SCT050CB
LSZR,TAF LSZR 081125Z 0812/0821 28007KT 9999 FEW080 TEMPO 0812/0818 FEW070TCU PROB30 TEMPO 0815/0820 TSRA SCT060CB
LSZS,TAF LSZS 081125Z 0812/0821 22008KT 9999 FEW040 SCT060 TX17/0813Z TEMPO 0812/0821 SHRA FEW030TCU PROB30 TEMPO 0812/0818 27015G25KT TSRA SCT030CB
LTAB,TAF LTAB 081040Z 0812/0821 VRB02KT 9999 FEW040 BKN200
LTAC,TAF LTAC 081040Z 0812/0912 VRB02KT 9999 SCT040 SCT100 TEMPO 0908/0912 17015G25KT -TSRA FEW025CB BKN040 BKN080
LTAD,TAF LTAD 081040Z 0812/0821 09008KT 9999 SCT040 BKN200
LTAE,TAF LTAE 081040Z 0812/0821 VRB02KT 9999 SCT040 BKN100
LTAF,TAF LTAF 081040Z 0812/0912 21012KT CAVOK BECMG 0817/0819 VRB02KT PROB30 TEMPO 0900/0904 4000 BR
LTAG,TAF LTAG 081040Z 0812/0912 21009KT CAVOK
LTAH,TAF LTAH 081040Z 0812/0821 VRB02KT 9999 SCT035 BKN100 TEMPO 0813/0817 26015KT -TSRA FEW020CB BKN030
LTAI,TAF LTAI 081040Z 0812/0912 16010KT 9999 SCT030 BECMG 0818/0821 34006KT CAVOK BECMG 0906/0909 FEW020CB SCT030
LTAJ,TAF LTAJ 081040Z 0812/0912 VRB02KT CAVOK BECMG 0812/0814 FEW040 BKN180 TEMPO 0814/0817 25012KT BECMG 0902/0904 CAVOK BECMG 0906/0908 22012KT FEW040 BKN120
LTAL,TAF LTAL 081040Z 0812/0821 03009KT CAVOK
LTAN,TAF LTAN 081040Z 0812/0821 16007KT 9999 SCT040 BKN100 TEMPO 0814/0818 26015KT -TSRA FEW025CB BKN030
LTAO,TAF LTAO 081040Z 0812/0821 VRB02KT 9999 FEW040 BKN200 BECMG 0814/0816 CAVOK
LTAP,TAF LTAP 081040Z 0812/0912 03015KT 9999 FEW040 BECMG 0817/0820 VRB02KT TEMPO 0900/0904 -SHRA FEW033CB BKN035 TEMPO 0904/0908 -SHRA FEW033CB BKN035
LTAR,TAF LTAR 081040Z 0812/0821 VRB02KT 9999 FEW035 SCT200
LTAS,TAF LTAS 081040Z 0812/0821 VRB02KT 9999 FEW040 BKN100
LTAT,TAF LTAT 081040Z 0812/0912 VRB02KT 9999 FEW040 BKN200 BECMG 0814/0816 CAVOK BECMG 0821/0823 SCT040 BKN100 TEMPO 0903/0907 21013KT -SHRA FEW030CB BKN035 BKN090 BECMG 0909/0911 -SHRA FEW030CB BKN035 BKN090
LTAU,TAF LTAU 081040Z 0812/0912 VRB02KT 9999 FEW040 SCT100 BKN180 PROB30 TEMPO 0815/0818 24015G25KT -TSRA FEW030CB BKN035 TEMPO 0822/0902 27015G25KT -SHRA FEW030CB BKN035
LTAV,TAF LTAV 081040Z 0812/0821 VRB02KT 9999 SCT035 BKN200 TEMPO 0815/0819 33015KT -SHRA FEW025CB BKN030
LTAW,TAF LTAW 080740Z 0809/0818 VRB02KT 9999 FEW040
LTAY,TAF COR LTAY 081040Z 0812/0912 VRB02KT 9999 SCT035 BKN100 TEMPO 0812/0816 28012KT -TSRA FEW020CB BKN030 PROB30 TEMPO 0816/0818 -TSRA FEW020CB BKN030 PROB40 TEMPO 0816/0818 06012KT BECMG 0816/0818 CAVOK BECMG 0902/0904 SCT035 BKN100
LTAZ,TAF LTAZ 081040Z 0812/0912 VRB02KT 9999 FEW040 SCT100 BKN180 TEMPO 0813/0817 25015G25KT -TSRA FEW030CB BKN035 PROB40 TEMPO 0817/0821 26012KT -SHRA FEW030CB BKN035
LTBA,TAF LTBA 081040Z 0812/0912 03015KT CAVOK BECMG 0815/0818 SCT035 BECMG 0818/0821 03005KT BECMG 0823/0902 SCT015 BKN025 BECMG 0908/0911 FEW040
LTBD,TAF LTBD 081040Z 0812/0821 VRB02KT 9999 SCT030 BKN100 TEMPO 0812/0816 VRB15G25KT 5000 TSRA SCT020CB BKN030 PROB30 TEMPO 0816/0819 -TSRA FEW020CB BKN025
LTBF,TAF LTBF 081040Z 0812/0821 01008KT 9999 SCT020 SCT030
LTBG,TAF LTBG 081040Z 0812/0821 04013KT 9999 FEW015 SCT035 BKN100
LTBH,TAF LTBH 081040Z 0812/0821 06012KT 9999 SCT035 BKN100
LTBI,TAF LTBI 081040Z 0812/0821 VRB02KT 9999 SCT035 BKN200 TEMPO 0815/0819 33015KT -SHRA FEW025CB BKN030
LTBJ,TAF LTBJ 081040Z 0812/0912 35012KT 9999 SCT030 BKN100 BKN200 BECMG 0812/0814 VRB02KT TEMPO 0812/0816 VRB13G23KT 5000 TSRA SCT015CB BKN025 TEMPO 0816/0820 -SHRA BECMG 0900/0903 CAVOK BECMG 0904/0907 36013KT SCT030 BKN100 BKN200 PROB30 TEMPO 0909/0912 -TSRA FEW015CB BKN025
LTBK,TAF LTBK 081040Z 0812/0821 33012KT 9999 SCT030 BKN100 BECMG 0812/0814 VRB02KT TEMPO 0812/0816 VRB13G23KT 5000 TSRA SCT015CB BKN025 TEMPO 0816/0820 -SHRA
LTBL,TAF LTBL 081040Z 0812/0821 VRB02KT 9999 SCT035 BKN100 TEMPO 0812/0816 -SHRA FEW020CB BKN030
LTBN,TAF LTBN 081040Z 0812/0821 VRB02KT 9999 SCT035 BKN200 TEMPO 0815/0819 33015KT -TSRA FEW025CB BKN030
LTBO,TAF LTBO 081040Z 0812/0821 VRB02KT 9999 FEW040 BKN200 TEMPO 0812/0815 VRB15KT -TSRA FEW020CB BKN030 PROB40 TEMPO 0815/0817 32012KT
LTBP,TAF AMD LTBP 081208Z 0812/0821 06009KT 7000 BKN015 TEMPO 0812/0816 06015G25KT
LTBQ,TAF LTBQ 081040Z 0812/0821 03008KT 8000 SCT015 BKN030
LTBR,TAF LTBR 081040Z 0812/0912 03012KT 9999 SCT035 TEMPO 0814/0816 -TSRA FEW027CB BKN030 BECMG 0816/0818 VRB02KT TEMPO 0817/0820 -TSRA SCT025CB BKN030 PROB40 TEMPO 0905/0908 -SHRA FEW025CB BKN030 BECMG 0910/0912 35012KT
LTBS,TAF LTBS 081040Z 0812/0912 21012KT 9999 SCT030 BKN120 TEMPO 0812/0815 -SHRA BECMG 0815/0817 VRB02KT BECMG 0818/0820 CAVOK BECMG 0906/0908 21012KT FEW030 BKN120
LTBT,TAF LTBT 081040Z 0812/0821 VRB02KT 9999 SCT030 BKN100 TEMPO 0812/0816 -TSRA FEW020CB BKN030 PROB40 TEMPO 0816/0819 -TSRA FEW020CB BKN030
LTBU,TAF LTBU 081040Z 0812/0912 04016KT CAVOK BECMG 0814/0817 03006KT SCT030 BECMG 0821/0824 SCT008 BKN027 BECMG 0908/0911 FEW040
LTBV,TAF LTBV 081040Z 0812/0821 26012KT 9999 FEW020CB BKN030 TEMPO 0812/0815 -SHRA BECMG 0815/0817 VRB02KT SCT035
LTBX,TAF LTBX 081040Z 0812/0821 06015KT 9999 SCT020 BKN100 TEMPO 0812/0816 06018G28KT BECMG 0818/0821 06005KT BKN013 BKN080
LTBY,TAF LTBY 081040Z 0812/0821 VRB02KT 9999 SCT035 BKN200 TEMPO 0815/0819 33015KT -SHRA FEW025CB BKN030
LTBZ,TAF LTBZ 081040Z 0812/0821 VRB02KT 9999 SCT035 BKN200 TEMPO 0815/0819 33015KT -TSRA FEW025CB BKN030
LTCA,TAF LTCA 081040Z 0812/0821 VRB02KT 9999 FEW035 SCT200 BECMG 0815/0818 CAVOK
LTCB,TAF LTCB 081040Z 0812/0821 VRB02KT 9999 FEW015 SCT035 BECMG 0814/0817 SCT005 BKN028
LTCC,TAF LTCC 081040Z 0812/0912 34012KT 9999 FEW040 SCT100 BECMG 0817/0819 VRB02KT CAVOK BECMG 0903/0906 SCT040 BKN100
LTCD,TAF LTCD 081040Z 0812/0821 VRB02KT CAVOK
LTCE,TAF LTCE 081040Z 0812/0912 VRB02KT 9999 SCT040 BKN080 TEMPO 0812/0816 20012KT FEW025CB BKN035 BECMG 0817/0819 CAVOK BECMG 0901/0903 SCT080 BECMG 0906/0908 08012KT TEMPO 0909/0912 -TSRA FEW025CB BKN035
LTCF,TAF LTCF 081040Z 0812/0912 VRB02KT 9999 SCT040 BECMG 0812/0814 36012KT BECMG 0818/0820 CAVOK BECMG 0822/0824 VRB02KT
LTCG,TAF LTCG 081040Z 0812/0912 VRB02KT 9999 SCT008 BKN035 BECMG 0816/0819 BKN012 BKN033 TEMPO 0818/0821 3500 BR BKN006 BKN028 PROB40 TEMPO 0821/0901 2500 BR BKN004 BKN028 BECMG 0902/0905 30012KT TEMPO 0903/0907 2500 -SHRA BR BKN004 BKN028
LTCI,TAF LTCI 081040Z 0812/0821 24009KT 9999 SCT040 BECMG 0816/0818 13014KT
LTCJ,TAF COR LTCJ 081040Z 0812/0912 03005KT 9999 FEW040 SCT100 BECMG 0817/0819 CAVOK BECMG 0905/0907 SCT040 BKN100 PROB30 TEMPO 0908/0912 VRB15G25KT -TSRA FEW025CB BKN030
LTCK,TAF LTCK 081040Z 0812/0821 26007KT 9999 FEW040
LTCL,TAF LTCL 081040Z 0812/0821 VRB02KT 9999 FEW040
LTCM,TAF LTCM 081040Z 0812/0821 12015KT 9999 SCT010
LTCN,TAF LTCN 081040Z 0812/0821 VRB02KT CAVOK BECMG 0812/0814 29018G30KT
LTCO,TAF LTCO 081040Z 0812/0821 VRB02KT 9999 FEW040 TEMPO 0812/0814 23015KT BECMG 0817/0821 10012KT
LTCP,TAF LTCP 081040Z 0812/0821 VRB02KT 9999 FEW040 SCT200 BECMG 0814/0816 CAVOK
LTCR,TAF LTCR 081040Z 0812/0821 VRB02KT 9999 FEW040 BECMG 0815/0818 01012KT CAVOK
LTCS,TAF LTCS 081040Z 0812/0912 33008KT CAVOK TEMPO 0812/0815 VRB15G25KT BECMG 0822/0824 SCT040 BKN100 PROB40 TEMPO 0900/0904 VRB15G25KT -TSRA FEW025CB BKN035 PROB40 TEMPO 0904/0908 VRB15G25KT -TSRA FEW025CB BKN035
LTCT,TAF LTCT 081040Z 0812/0821 15008KT 9999 FEW100
LTCU,TAF LTCU 081040Z 0812/0821 21007KT 9999 FEW035 BECMG 0815/0818 CAVOK
LTCV,TAF LTCV 081040Z 0812/0912 VRB02KT CAVOK BECMG 0903/0906 15012KT FEW040 SCT100
LTCW,TAF LTCW 081040Z 0812/0821 20009KT 9999 SCT040 BECMG 0815/0817 05012G22KT
LTDA,TAF LTDA 081040Z 0812/0821 23018KT CAVOK TEMPO 0812/0816 23020G30KT TEMPO 0816/0820 23015G25KT
LTFA,TAF LTFA 081040Z 0812/0821 VRB02KT 9999 SCT035 BKN100 TEMPO 0812/0816 -SHRA FEW020CB BKN030
LTFB,TAF LTFB 081040Z 0812/0821 VRB02KT 9999 SCT030 BKN100 BKN200 TEMPO 0812/0816 VRB15G25KT 5000 TSRA SCT020CB BKN025 PROB30 TEMPO 0816/0819 -TSRA FEW020CB BKN025
LTFC,TAF LTFC 081040Z 0812/0912 34008KT 9999 FEW020CB BKN030 TEMPO 0812/0816 VRB15G25KT -TSRA BECMG 0817/0820 SCT035 BECMG 0820/0823 CAVOK BECMG 0906/0909 18014KT FEW020CB BKN030 PROB40 TEMPO 0909/0912 -TSRA
LTFD,TAF LTFD 081040Z 0812/0821 06012KT 9999 FEW035 BKN200
LTFE,TAF AMD LTFE 081308Z 0813/0912 26012KT 9999 FEW020CB BKN030 TEMPO 0813/0815 -TSRA BECMG 0815/0817 VRB02KT SCT035 BECMG 0908/0910 26012KT FEW020CB BKN030 TEMPO 0910/0912 -TSRA
LTFG,TAF LTFG 081040Z 0812/0821 24010KT 9999 SCT030 BECMG 0818/0821 11006KT CAVOK
LTFH,TAF LTFH 081040Z 0812/0821 08009KT 9999 FEW030 BECMG 0814/0818 4000 BR SCT005 BKN022
LTFJ,TAF LTFJ 081040Z 0812/0912 06015KT 9999 SCT020 BKN100 TEMPO 0812/0816 06018G28KT BECMG 0821/0824 06005KT BKN013 BKN080
LTFK,TAF LTFK 081040Z 0812/0821 36008KT 9999 SCT035 BKN100
LTFM,TAF LTFM 081040Z 0812/0918 05016KT 9999 SCT012 BKN022 BECMG 0815/0818 BKN007 BKN020 PROB30 TEMPO 0818/0822 -SHRA BECMG 0905/0908 SCT020
LTFO,TAF LTFO 081040Z 0812/0821 VRB02KT 9999 SCT035 TEMPO 0812/0815 SCT008 BKN025 BECMG 0815/0817 SCT012 BKN035 PROB30 0816/0820 3500 -SHRA BR BKN008 BKN025
LUBM,TAF LUBM 080814Z 0809/0818 15010KT CAVOK
LUKK,TAF LUKK 081117Z 0812/0912 13010KT CAVOK BECMG 0816/0818 VRB04KT BECMG 0906/0908 10010KT
LWOH,TAF LWOH 081115Z 0812/0912 15008KT 9999 SCT040 TEMPO 0814/0818 VRB15KT TSRA FEW033CB BKN040
LWSK,TAF LWSK 081115Z 0812/0912 VRB02KT 9999 SCT033 TEMPO 0812/0818 VRB15KT TSRA FEW033CB BKN040
LXGB,TAF LXGB 081045Z 0812/0821 10008KT 9999 BKN020 PROB40 TEMPO 0812/0815 6000 -RADZ BKN010 PROB40 TEMPO 0815/0818 BKN012 PROB40 TEMPO 0818/0821 FEW020
LYBE,TAF LYBE 081100Z 0812/0912 13007KT 9999 SCT040 TX26/0813Z TN16/0903Z TEMPO 0814/0820 25016G26KT 3000 TSRA SCT027CB BKN033 TEMPO 0823/0903 VRB15KT 5000 SHRA SCT027TCU SCT033 BECMG 0903/0905 5000 BR BKN005 BECMG 0906/0908 9999 NSW BKN015 BECMG 0909/0911 BKN023
LYBT,TAF COR LYBT 081100Z 0812/0912 14006KT 9999 SCT040 TX26/0813Z TN15/0903Z TEMPO 0814/0818 22015G25KT 3000 TSRA SCT030CB BKN040 TEMPO 0822/0902 26018KT 5000 SHRA SCT027TCU BKN030 BECMG 0903/0905 5000 BR BKN010 BECMG 0907/0909 9999 NSW BKN018
LYKV,TAF LYKV 081100Z 0812/0912 14006KT 9999 SCT027 TX24/0813Z TN15/0904Z TEMPO 0813/0817 22015G25KT 4000 TSRA SCT015 SCT027CB BKN033 BECMG 0821/0823 3000 BR TEMPO 0900/0905 0500 FG VV002 BECMG 0906/0908 9999 NSW TEMPO 0910/0912 28015G25KT 4000 TSRA SCT027CB BKN030
LYNI,TAF LYNI 081100Z 0812/0912 02006KT 9999 SCT033 TX26/0813Z TN14/0903Z TEMPO 0815/0822 24015KT 3000 TSRA SCT017 SCT027CB BKN033 TEMPO 0903/0907 4000 BR BKN007
LYPG,TAF LYPG 081100Z 0812/0912 15008KT 9999 SCT034 TX30/0813Z TN17/0903Z PROB30 TEMPO 0813/0817 TS FEW030CB SCT040
LYTV,TAF LYTV 081100Z 0812/0912 23008KT 9999 SCT040 TX27/0813Z TN15/0903Z PROB30 TEMPO 0812/0816 TSRA FEW030CB SCT040
LYVR,TAF LYVR 081100Z 0812/0912 15009KT 9999 SCT040 TX27/0813Z TN15/0903Z TEMPO 0901/0908 VRB15KT 5000 SHRA SCT015 SCT030TCU BKN040
LZIB,TAF LZIB 081115Z 0812/0912 03004KT 9999 SCT016 BKN030 TEMPO 0812/0901 SHRA FEW025TCU BKN035 PROB40 TEMPO 0812/0818 TSRA FEW010 FEW020CB BKN030 TEMPO 0900/0909 VRB02KT -SHRA FEW009 BKN019 PROB40 TEMPO 0901/0906 4000 BR BKN007 TEMPO 0910/0912 34007KT SHRA BKN020 FEW025CB
LZKZ,TAF LZKZ 081115Z 0812/0912 01004KT 9999 FEW010 BKN020 TEMPO 0812/0818 SHRA FEW030TCU BKN040 PROB40 TEMPO 0812/0819 04010KT 4000 TSRA FEW010 SCT020CB TEMPO 0819/0906 2000 RA BR OVC004 TEMPO 0907/0912 SHRA SCT008 FEW020TCU BKN025 PROB40 TEMPO 0910/0912 TSRA BKN008 FEW020CB BKN025
LZMC,TAF LZMC 080730Z 0809/0818 32004KT 8000 SCT010 BKN025 TEMPO 0809/0811 VRB02KT 3500 BR BKN005 OVC010 TEMPO 0812/0818 5000 -RA SCT006 BKN015 OVC020 PROB40 TEMPO 0812/0818 VRB20KT 2500 TSRA SCT007 FEW020CB BKN025
LZPP,TAF LZPP 081115Z 0812/0821 VRB02KT 9999 SCT013 BKN030 TEMPO 0812/0817 02005KT SHRA FEW030TCU PROB40 TEMPO 0812/0817 TSRA FEW023CB
LZPW,TAF LZPW 080730Z 0809/0818 VRB02KT 9999 FEW008 SCT013 BKN080 TEMPO 0809/0818 4000 SHRA SCT020TCU BKN025 PROB40 TEMPO 0811/0818 VRB12G26KT 2500 TSRA SCT020CB BKN025
LZSL,TAF LZSL 080730Z 0809/0818 VRB02KT 9999 SCT040 BKN080 TEMPO 0810/0818 21006KT 7000 -SHRA FEW030TCU BKN035 PROB40 TEMPO 0812/0818 VRB15KT 4000 -TSRA SCT010 SCT012CB OVC020
LZTT,TAF LZTT 081115Z 0812/0912 VRB02KT 9999 SCT008 BKN025 TEMPO 0812/0823 SHRA FEW012 SCT030TCU BKN035 PROB40 TEMPO 0812/0820 20015KT 4000 TSRA BKN011 SCT020CB BKN025 TEMPO 0900/0908 2000 RA BR BKN004 BKN020 TEMPO 0909/0912 SHRA SCT012 FEW020TCU BKN030 PROB40 TEMPO 0910/0912 09012KT TSRA BKN012 FEW020CB BKN025
LZZI,TAF LZZI 081115Z 0812/0821 VRB02KT 9999 FEW018 BKN030 TEMPO 0812/0817 05008KT SHRA FEW025TCU PROB40 TEMPO 0812/0817 TSRA FEW020CB
MBGT,MBGT 080930Z 0812/0912 16010KT 9999 VCTS FEW018CB SCT020 PROB30 TEMPO 0815/0820 8000 TSRA SCT018CB BKN020
MBPV,MBPV 080930Z 0812/0912 16010KT 9999 VCTS FEW018CB SCT020 PROB30 TEMPO 0815/0820 8000 TSRA SCT018CB BKN020
MDBH,TAF MDBH 081000Z 0812/0912 00000KT 9999 SCT018 BECMG 0814/0816 13012KT PROB30 0817/0823 7000 -TSRA FEW014CB BKN016 BKN070
MDCY,TAF MDCY 081000Z 0812/0912 09008KT 9999 SCT018 SCT300 PROB30 0816/022 8000 VCSH SCT017 SCT070
MDJB,TAF MDJB 081000Z 0812/0912 36006KT 9999 SCT018 SCT300 BECMG 0815/0817 18010KT PROB30 0816/0822 7000 -TSRA FEW014CB BKN016
MDLR,TAF MDLR 081000Z 0812/0912 09005KT 9999 SCT018 PROB30 0814/0820 7000 ?SHRA FEW012CB BKN014 BECMG 0816/0818 11010KT
MDPC,TAF MDPC 081000Z 0812/0912 12010KT 9999 FEW018 SCT300
MDPP,TAF MDPP 081000Z 0812/0912 00000KT 9999 SCT018 PRO30 0818/0900 7000 -TSRA FEW014CB BKN016 SCT070 BECMG 0814/0816 OOOOOKT
MDSD,TAF MDSD 081000Z 0812/0912 15006KT 9999 FEW018CB SCT020 PROB30 0718/0800 7000 -TSRA FEW014CB BKN014 SCT070
MDST,TAF MDST 081000Z 0812/0912 14012KT 9999 FEW018 SCT300 BECMG 0821/0823 00000KT
MGGT,MGGT 081100Z 0812/0912 18008KT 8000 SCT014 SCT080 TX28/0820Z TN17/0812Z PROB40 TEMPO 0812/0816 00000KT 5000 BRDZ BKN012 BECMG 0816/0818 SCT018 TEMPO 0820/0904 VCTSRA SCT020TCU FEW025CB BECMG 0900/0902 SCT016
MGMM,MGMM 081100Z 0812/0912 00000KT CAVOK TX39/0820Z TN23/0812Z TEMPO 0812/0816 SCT012 BECMG 0816/0818 12006KT FEW020 TEMPO 0818/0900 SCT022 BECMG 0900/0902 00000KT FEW018
MGPB,MGPB 081100Z 0812/0912 00000KT 9999 SCT016 TX34/0820Z TN22/0812Z BECMG 0816/0818 06008KT SCT018 TEMPO 0818/0900 SCT020TCU BECMG 0900/0902 00000KT FEW016
MHLC,TAF MHLC 081100Z 0812/0912 VRB05KT 9999 SCT028 TX33/0818Z TN24/0912Z TEMPO 0819/0824 6000 RA SCT032TCU
MHLM,TAF MHLM 081100Z 0812/0912 VRB05KT 9999 SCT030 TX34/0819Z TN24/0912Z BECMG 0819/0821 03010KT BECMG 0900/0902 VRB03KT
MHPR,TAF MHPR 081100Z 0812/0912 VRB05KT 9999 FEW048 TX32/0821Z TN22/0911Z BECMG 0818/0820 20012KT SCT048TCU FEW050CB TEMPO 0822/0902 7000 TSRA FM090200 VRB03KT 9999 SCT046
MHRO,TAF MHRO 081100Z 0812/0912 VRB05KT 9999 SCT020 TX32/0819Z TN27/0912Z BECMG 0900/0902 09010KT
MHTG,TAF MHTG 081100Z 0812/0912 VRB05KT 9999 SCT030 TX29/0820Z TN19/0912Z TEMPO 0812/0815 6000 SCT008 SCT026 TEMPO 0821/0903 5000 TSRA SCT032CB
MKJP,TAF MKJP 081115Z 0812/0912 12015KT 9999 FEW020 FEW022CB PROB30 TEMPO 0812/0820 5000 SHRA BKN018 SCT020CB BECMG 0813/0815 14020G30KT BECMG 0823/0901 12015KT PROB40 TEMPO 0900/0910 3000 TSRA BKN015 BKN018CB
MKJS,TAF MKJS 081115Z 0812/0912 VRB02KT 9999 FEW020 FEW022CB PROB40 TEMPO 0812/0824 4000 TSRA BKN016 BKN018CB BECMG 0814/0816 16008KT BECMG 0822/0824 VRB02KT
MMAA,TAF MMAA 081101Z 0812/0912 34005KT 5SM HZ SCT015 SCT100 TX33/0820Z TN26/0812Z FM081800 23012KT P6SM SCT015 BKN250 FM090600 34005KT 5SM HZ SCT015 SCT100
MMAN,TAF MMAN 080456Z 0806/0906 10005KT P6SM SKC PROB40 0812/0816 3SM -DZ BR BKN008 FM081800 12010KT P6SM SCT030 SCT080 BKN250 TEMPO 0820/0824 BKN030CB FM090500 09005KT P6SM SCT030
MMAS,TAF MMAS 080505Z 0806/0906 00000KT P6SM SKC FM081300 12005KT P6SM SCT050 BECMG 0822/0823 24015KT SKC FM090300 00000KT P6SM SKC
MMBT,TAF MMBT 080454Z 0806/0906 20005KT P6SM SCT030 SCT100 BKN200 TEMPO 0806/0808 6SM RA BKN020CB FM081000 14005KT P6SM SCT020 BKN200 FM081800 22010KT P6SM SCT030 PROB40 0822/0902 4SM RA BKN020CB
MMCB,TAF MMCB 080454Z 0806/0906 00000KT P6SM SCT020 FM081200 00000KT 4SM HZ SCT020 TEMPO 0812/0815 3SM HZ BKN015 FM081600 13005KT 5SM HZ SCT025 BKN070 PROB40 0822/0901 5SM RA BKN025CB
MMCE,TAF MMCE 080533Z 0806/0906 04015KT 5SM HZ SCT015 TEMPO 0808/0810 6SM -RA BKN015 FM081000 14010KT P6SM SCT015 FM090300 04010KT P6SM SCT015
MMCL,TAF MMCL 080424Z 0806/0906 00000KT P6SM SKC TEMPO 0811/0815 4SM HZ BKN010 FM081800 22014KT P6SM SCT020 BKN250 TEMPO 0818/0822 BKN020 FM090500 00000KT P6SM SKC
MMCM,TAF MMCM 080533Z 0806/0906 12012KT P6SM SCT280 FM081200 12005KT P6SM BKN020 FM081800 14015KT P6SM SCT020 FM090300 12010KT P6SM SCT100
MMCN,TAF MMCN 080513Z 0806/0906 14005KT P6SM SKC FM081800 22010KT P6SM SCT030 BKN200 FM090300 14005KT P6SM SCT200
MMCP,TAF MMCP 080533Z 0806/0906 04010KT P6SM SCT020 FM081200 08010KT P6SM SCT030 FM081800 34012KT P6SM SKC FM090300 34015KT P6SM SKC
MMCS,TAF MMCS 080456Z 0806/0906 26005KT P6SM SKC FM081800 22012KT P6SM SCT030 BKN250 FM090500 24005KT P6SM SKC
MMCU,TAF MMCU 080456Z 0806/0906 28007KT P6SM SCT030 FM081800 35012KT P6SM SCT030 SCT090 BKN250 FM090500 30008KT P6SM SCT030
MMCV,TAF MMCV 080549Z 0806/0906 12005KT P6SM SCT030 TEMPO 0812/0815 3SM HZ BKN020 FM081600 14005KT P6SM SCT020 SCT100 FM090300 15005KT 6SM HZ SCT015 SCT100
MMCZ,TAF MMCZ 081025Z 0812/0912 09005KT P6SM SCT015 SCT250 FM081800 12010KT P6SM BKN015 BKN250 FM082200 16008KT 6SM -RA BKN015 BKN250 TEMPO 0823/0903 3SM TSRA BKN015CB FM090700 12005KT P6SM SCT015 SCT250
MMDO,TAF MMDO 080513Z 0806/0906 00000KT P6SM SCT080 FM081600 16005KT P6SM SCT200 FM090300 00000KT P6SM SCT020
MMEP,TAF MMEP 080505Z 0806/0906 00000KT P6SM SCT020 FM081000 00000KT 3SM HZ SCT015 TEMPO 0811/0815 2SM BR BKN010 FM081600 33010KT P6SM SCT025 FM082100 33015KT P6SM SCT030 FM090300 00000KT P6SM SCT030
MMGL,TAF MMGL 081033Z 0812/0912 28005KT P6SM SKC TX34/0822Z TN18/0812Z FM081800 26014KT P6SM SCT250 FM090600 27006KT P6SM SKC TEMPO 0910/0912 5SM HZ SCT015
MMGM,TAF MMGM 080513Z 0806/0906 22010KT P6SM SCT200 FM081600 22005KT P6SM SCT020 SCT200 FM090300 24005KT P6SM SCT200
MMHO,TAF MMHO 080424Z 0806/0906 00000KT P6SM SKC FM081800 23012KT P6SM BKN250 FM090500 00000KT P6SM SKC
MMIA,TAF MMIA 080505Z 0806/0906 24005KT P6SM SCT020 TEMPO 0812/0814 3SM HZ BKN010 FM081600 24010KT P6SM SCT020 FM090300 32005KT P6SM SCT200
MMIO,TAF MMIO 080456Z 0806/0906 02006KT P6SM SKC TEMPO 0812/0816 BKN030 FM081800 36015KT P6SM SCT030 BKN250 FM090500 00000KT P6SM SKC
MMLM,TAF MMLM 080513Z 0806/0906 16005KT P6SM SKC FM081000 07005KT 5SM HZ SCT020 SCT220 TEMPO 0811/0815 3SM BR FM081600 13010KT P6SM SCT020 SCT200 FM090300 20005KT P6SM SKC
MMLO,TAF MMLO 080505Z 0806/0906 32010KT P6SM SCT220 FM081200 00000KT P6SM SCT030 FM081800 24010KT P6SM BKN030CB FM090300 32010KT P6SM SCT220
MMLP,TAF MMLP 080424Z 0806/0906 20007KT P6SM SKC FM081800 22012KT P6SM BKN250 FM090500 20006KT P6SM SKC
MMLT,TAF MMLT 080513Z 0806/0906 16010KT P6SM SCT240 FM081400 32005KT P6SM SCT240 FM081800 22010KT P6SM SCT240 FM090300 00000KT P6SM SCT240
MMMA,TAF AMD MMMA 081244Z 0813/0906 35010KT P6SM OVC010CB TEMPO 0813/0814 35024G38KT 1SM TSRA OVC008CB FM081430 35006KT 6SM HZ BKN010 BKN080 FM081800 12010KT P6SM SCT020 SCT200 FM090300 12005KT P6SM SCT020
MMMD,TAF MMMD 081025Z 0812/0912 00000KT 6SM HZ SCT020 TX35/0819Z TN22/0812Z TEMPO 0812/0816 4SM HZ BKN012 FM081800 35014KT P6SM BKN020 BKN250 FM090600 36005KT P6SM SCT020
MMML,TAF MMML 080424Z 0806/0906 30006KT P6SM SKC FM081800 20008KT P6SM SCT250 FM090500 30005KT P6SM SKC
MMMM,TAF MMMM 081033Z 0812/0912 22006KT P6SM SKC FM081800 19015KT P6SM SCT030 SCT080 BKN250 FM090600 19006KT P6SM SKC
MMMT,TAF MMMT 080533Z 0806/0906 12005KT 5SM HZ SCT025 FM081000 12005KT 3SM BR BKN010 TEMPO 0811/0815 1SM BR BKN008 FM081600 09008KT 4SM HZ SCT020 FM090200 00000KT 4SM HZ SCT020
MMMV,TAF MMMV 080456Z 0806/0906 04005KT P6SM SCT040 SCT250 PROB40 0806/0810 6SM -RA BKN030CB FM081800 04008KT P6SM SCT040 BKN250 FM090500 04005KT P6SM SCT040 SCT250
MMMX,TAF COR MMMX 081154Z 0812/0912 22005KT 5SM HZ SCT080 BKN250 TX28/0821Z TN14/0812Z TEMPO 0812/0816 4SM HZ FM081800 30014KT P6SM SCT020 BKN080 BKN250 TEMPO 0822/0902 5SM TSRA BKN020CB FM090600 34005KT P6SM SCT020 BKN080
MMMY,TAF MMMY 081104Z 0812/0912 00000KT P6SM BKN015 TX33/0822Z TN22/0812Z TEMPO 0812/0816 3SM -DZ BR BKN008 FM081800 12010KT P6SM SCT030 SCT080 BKN250 TEMPO 0820/0824 BKN030CB FM090600 09005KT P6SM SCT030 FM090900 00000KT P6SM BKN018
MMMZ,TAF MMMZ 081055Z 0812/0912 04005KT P6SM SCT015 TX30/0819Z TN20/0812Z TEMPO 0812/0816 6SM HZ BKN012 FM081800 29012KT P6SM SCT015 SCT250 FM090600 34005KT P6SM SCT015 TEMPO 0909/0912 BKN015
MMNL,TAF MMNL 080549Z 0806/0906 32010KT 5SM -RA BKN030 BKN080 TEMPO 0806/0808 4SM RA BKN025CB FM081200 12005KT 5SM HZ BKN020 TEMPO 0812/0815 3SM BR FM081600 14010KT 6SM HZ SCT030 SCT220 FM090300 14005KT 5SM HZ BKN020
MMOX,TAF MMOX 080454Z 0806/0906 34005KT 6SM -RA BKN020CB OVC120 TEMPO 0806/0808 4SM TSRA FM081000 00000KT 5SM HZ SKC FM081600 14005KT P6SM SCT035 SCT210 TEMPO 0822/0901 5SM RA BKN030CB
MMPA,TAF MMPA 080549Z 0806/0906 07005KT 5SM HZ BKN020 BKN080 TEMPO 0812/0815 3SM BR FM081600 15005KT 4SM HZ BKN020 BKN280 FM082200 12010KT 6SM HZ BKN020 BKN080 PROB40 0822/0901 5SM -RA
MMPB,TAF MMPB 080454Z 0806/0906 32005KT P6SM SCT020CB BKN090 TEMPO 0806/0808 5SM -RA BKN020CB FM081200 32005KT P6SM SCT220 FM081800 22015KT P6SM SCT020 SCT090 TEMPO 0821/0901 5SM -RA BKN020CB
MMPG,TAF MMPG 080549Z 0806/0906 09005KT P6SM SCT060 FM081200 15010KT P6SM SKC FM081800 14015KT P6SM SCT040 FM090300 14015KT P6SM SCT040
MMPN,TAF MMPN 080505Z 0806/0906 00000KT P6SM SKC FM081000 00000KT 3SM HZ SCT015 TEMPO 0811/0814 3SM BR FM081600 22010KT 6SM HZ SKC FM090000 00000KT P6SM SCT030CB
MMPQ,TAF MMPQ 080533Z 0806/0906 00000KT P6SM SCT070 FM081600 00000KT P6SM SCT040 TEMPO 0822/0902 BKN020CB
MMPR,TAF MMPR 081033Z 0812/0912 04005KT P6SM BKN030 TX30/0820Z TN24/0812Z FM081800 24012KT P6SM SCT030 TEMPO 0823/0903 BKN030 FM090400 34005KT P6SM BKN025
MMPS,TAF MMPS 080454Z 0806/0906 24005KT P6SM SCT030 FM081200 08005KT P6SM SCT230 FM081800 22012KT P6SM SCT020 SCT100 TEMPO 0822/0902 VC RA SCT020CB
MMQT,TAF MMQT 080505Z 0806/0906 10008KT 6SM HZ SCT020 FM081000 00000KT P6SM SKC FM081800 26010KT P6SM SCT025 TEMPO 0822/0902 VC -RA
MMRX,TAF MMRX 080549Z 0806/0906 14010KT P6SM VC -RA SCT020 SCT280 TEMPO 0806/0808 4SM RA BKN020CB FM081200 12005KT 3SM HZ BKN020 TEMPO 0812/0815 2SM BR BKN010 FM081600 14010KT 6SM HZ SCT040 SCT280 FM090300 12005KT 3SM HZ SCT020
MMSD,TAF MMSD 080513Z 0806/0906 32005KT P6SM SKC FM081600 34005KT P6SM SKC FM090300 32005KT P6SM SCT040
MMSL,TAF MMSL 080513Z 0806/0906 32008KT P6SM SCT230 FM081200 32010KT P6SM SKC FM081800 24018KT P6SM SKC FM090300 26010KT P6SM SCT200
MMSM,TAF MMSM 081101Z 0812/0912 08005KT 6SM HZ SKC TEMPO 0812/0816 4SM HZ FM081800 30014KT P6SM SCT020 BKN080 BKN250 TEMPO 0823/0903 5SM TSRA BKN020CB FM090600 34005KT P6SM SCT020 BKN080
MMSP,TAF COR MMSP 081156Z 0812/0912 00000KT 4SM HZ SCT020 TX31/0822Z TN14/0812Z TEMPO 0812/0816 3SM BR HZ BKN015 FM081800 12016KT P6SM SCT025 SCT250 TEMPO 0821/0901 BKN025CB FM090600 12006KT P6SM SCT025 TEMPO 0910/0912 4SM HZ BKN015
MMTC,TAF MMTC 080456Z 0806/0906 00000KT P6SM SCT030 FM081800 36010KT P6SM SCT030 BKN250 TEMPO 0821/0901 BKN030 FM090500 00000KT P6SM SCT030
MMTG,TAF COR MMTG 081206Z 0806/0906 14005KT P6SM SCT250 TEMPO 0811/0815 3SM BR HZ BKN018 FM081800 02014KT P6SM SCT030 BKN080 BKN250 FM090500 34005KT P6SM SCT250
MMTJ,TAF MMTJ 081055Z 0812/0912 27005KT P6SM SCT030 TX20/0822Z TN13/0812Z TEMPO 0812/0816 4SM HZ BKN018 FM081800 29010KT P6SM SCT020 TEMPO 0819/0823 BKN025 FM090400 30007KT P6SM BKN020 TEMPO 0909/0912 4SM HZ BKN015
MMTM,TAF MMTM 080517Z 0806/0906 15006KT P6SM SCT100 TEMPO 0811/0815 3SM BR HZ BKN010 FM081800 14012KT P6SM SCT015 BKN100 BKN250 FM090500 15005KT P6SM SCT020 SCT250
MMTO,TAF MMTO 081101Z 0812/0912 00000KT 3SM BR HZ SCT020 TX23/0820Z TN10/0812Z TEMPO 0812/0816 1SM BR HZ BKN012 FM081800 34014KT P6SM SCT020 BKN080 BKN250 PROB40 0823/0903 5SM TSRA BKN020CB FM090600 34005KT P6SM SCT020 BKN080 FM091000 00000KT 4SM HZ SCT020
MMTP,TAF MMTP 081025Z 0812/0912 22005KT P6SM SCT020 SCT070 TEMPO 0812/0814 6SM -RA BKN020CB FM081800 23010KT P6SM SCT020 SCT080 BKN250 TEMPO 0823/0903 BKN020 FM090600 00000KT P6SM SCT020
MMUN,TAF MMUN 081025Z 0812/0912 09005KT P6SM SCT015 TX32/0812Z TN22/0812Z FM081800 12010KT P6SM BKN015 BKN250 FM082200 16008KT 6SM -RA BKN015 BKN250 TEMPO 0823/0903 3SM TSRA BKN012CB FM090700 12006KT P6SM SCT015 SCT250
MMVA,TAF MMVA 080533Z 0806/0906 00000KT P6SM SCT060 FM081000 00000KT 5SM HZ SCT010 SCT060 TEMPO 0811/0815 2SM BR BKN010 FM081600 00000KT 6SM HZ SCT100 FM090300 12005KT 5SM HZ BKN015
MMVR,TAF MMVR 080517Z 0806/0906 00000KT 6SM HZ SCT015 SCT250 TX34/0819Z TN25/0812Z TEMPO 0811/0815 3SM BR HZ BKN010 FM081800 08010KT 5SM HZ SCT015 BKN250 FM090500 00000KT 6SM HZ SCT015 SCT250
MMZC,TAF MMZC 081033Z 0812/0912 00000KT P6SM SKC TX29/0822Z TN12/0812Z FM081800 22014KT P6SM SCT040 SCT250 FM090600 24007KT P6SM SCT040
MMZH,TAF MMZH 080454Z 0806/0906 24005KT P6SM BKN020 FM081200 34015KT P6SM SCT020 SCT200 FM081800 22012KT P6SM SCT020 FM090200 24005KT P6SM SCT020 BKN200
MMZO,TAF MMZO 080234Z 0806/0906 34005KT P6SM SCT030 FM081800 24015KT P6SM SCT020 BKN250 FM090500 34005KT P6SM SCT020
MNBL,MNBL 072215Z 0800/0824 VRB06KT 5000/8000 RA/TSRA FEW017CB BKN020 TEMPO 0815/0820 9999/8000 -RA BKN018
MNMG,MNMG 081100Z 0812/0912 00000KT 9999 FEW022 SCT070 BECMG 0814/0816 VRB06KT SCT022 SCT090 TEMPO 0815/0820 7000 RA BKN020 BECMG 0823/0902 FEW022 SCT300
MNPC,MNPC 072215Z 0800/0824 VRB06KT 5000/7000 RA/TSRA FEW014CB BKN016TCU TEMPO 0813/0818 6000 -RA/HZ BKN016
MPDA,TAF MPDA 081045Z 0812/0824 22006KT 9999 SCT016 SCT080 TEMPO 0818/0821 18010KT 6000 TSRA SCT015CB BKN080 TEMPO 0821/0824 8000 RA SCT016 SCT080
MPMG,TAF MPMG 081045Z 0812/0824 33006KT 9999 SCT017 TEMPO 0813/0817 18006KT 6000 TSRA SCT015CB BKN080 TEMPO 0819/0823 7000 RA SCT015CB SCT080
MPPA,TAF MPPA 081045Z 0812/0918 30004KT 9999 SCT017 TEMPO 0813/0817 18006KT 6000 TSRA SCT015CB BKN080 TEMPO 0818/0822 7000 RA SCT016CB SCT080 TEMPO 0902/0906 VRB02KT
MPSM,TAF MPSM 081045Z 0812/0918 18008KT 9999 SCT020 PROB30 0818/0822 7000 TSRA SCT015CB BKN080 TEMPO 0900/0904 VRB02KT NSW
MPTO,TAF MPTO 081045Z 0812/0918 27006KT 9999 SCT016 TEMPO 0812/0814 VRB02KT PROB30 0813/0817 6000 TSRA SCT015CB BKN080 TEMPO 0818/0822 16010KT 7000 RA SCT015CB BKN080 TEMPO 0900/0904 VRB02KT
MRLB,MRLB 081100Z 0812/0912 15005KT 9999 FEW030 TX33/0819Z TN23/0911Z TEMPO 0812/0814 VRB02KT SCT010 BECMG 0817/0820 27008KT TEMPO 0819/0822 TSRA FEW020CB TEMPO 0900/0912 RA OVC040 
MRLM,MRLM 081100Z 0812/0912 26004KT 9999 FEW020 TX31/0820Z TN23/0911Z BECMG 0814/0817 05005KT BECMG 0900/0903 27005KT 
MROC,MROC 081100Z 0812/0912 07006KT 9999 FEW030 TX29/0818Z TN19/0911Z BECMG 0814/0817 25009KT TEMPO 0819/0822 3000 TSRA SCT015CB BKN020 TEMPO 0823/0904 VRB02KT 5000 RA OVC010 BECMG 0905/0907 07006KT
MRPV,MRPV 081100Z 0812/0912 15006KT 9999 FEW020 BKN120 TX28/0818Z TN18/0910Z BECMG 0813/0815 29008KT TEMPO 0820/0824 3000 TSRA SCT010CB TEMPO 0901/0904 VRB02KT BECMG 0905/0907 10006KT 
MSLP,TAF MSLP 080925Z 0812/0912 02005KT 9999 SCT023 TX31/0818Z TN23/0911Z FM081800 22010KT 9999 SCT027 FM090100 VRB04KT 9999 SCT023 PROB30 TEMPO 0903/0906 03005KT 8000 TSRA SCT020 FEW037CB FM090600 03005KT 9999 FEW020
MSSS,TAF MSSS 080925Z 0812/0912 02006KT 9999 SCT017 TX29/0819Z TN22/0911Z FM081800 20008KT 9999 SCT023 FM090000 23006KT 9999 SCT020 PROB40 TEMPO 0904/0907 33008KT 7000 TSRA BKN020 FEW037CB FM090700 04006KT 9999 FEW017
MTCH,TAF MTCH 081100Z 0812/0912 VRB02KT 9000 FEW022 BECMG 0814/0818 01012KT PROB30 TEMPO 0900/0904 4800 SHRA SCT022CB SCT040 BECMG 0908/0912 VRB02KT 8000 NSW FEW020
MTPP,TAF MTPP 081100Z 0812/0912 11018G28KT 9000 FEW020 TEMPO 0816/0902 12025G35KT
MUCC,MUCC 081100Z 0812/0912 18005KT 9000 SCT020 BKN100 BECMG 0813/0815 18010KT TEMPO 0817/0901 VRB10KT 3000 TSRA RA SCT016CB BKN020 PROB30 TEMPO 0907/0912 5000 TSRA RA SCT018CB BKN025
MUCF,MUCF 081100Z 0812/0824 22011KT 9000 SCT020 TEMPO 0812/0815 VRB05KT 6000 VCSH RA FEW018CB BKN020 TEMPO 0816/0824 VRB10KT 4000 TSRA RA SCT018CB BKN020
MUCL,MUCL 081100Z 0812/0824 20008KT 9000 SCT020 TEMPO 0816/0824 VRB10KT 4000 TSRA RA SCT018CB BKN020
MUCM,MUCM 081100Z 0812/0912 VRB05KT 9000 SCT020 BKN070 TEMPO 0812/0816 18009KT 6000 SHRA RA BKN025 TEMPO 0817/0901 VRB10KT 4000 TSRA RA BKN015CB BKN020 TEMPO 0902/0904 BKN030 PROB30 TEMPO 0906/0912 6000 SHRA RA FEW018CB BKN025
MUCU,MUCU 081100Z 0812/0912 17010KT 9000 SCT020 BKN060 TEMPO 0812/0818 VRB10KT 4000 TSRA RA SCT018CB BKN020 TEMPO 0819/0824 5000 SHRA RA SCT020CB SCT060 TEMPO 0900/0904 7000 VCSH RA SCT020CB PROB30 TEMPO 0906/0912 VRB10KT 6000 SHRA RA SCT020CB
MUGM,TAF AMD MUGM 0807/0907 33006KT 9999 VCTS SCT025CB BKN150 OVC250 QNH2985INS TEMPO 0808/0814 VRB15G25KT 6000 -TSRA BKN020CB OVC120 FM081500 16008KT 9999 VCTS FEW030CB FEW060 BKN150 QNH2983INS FM090300 33006KT 9999 FEW060 SCT150 QNH2987INS TX31/0817Z TN23/0809Z AMD 0723 FN00172
MUHA,MUHA 081100Z 0812/0912 VRB03KT 9000 SCT025 BECMG 0814/0817 20010KT TEMPO 0818/0824 VRB12KT 4000 SHRA FEW018CB BKN020 BECMG 0901/0903 VRB03KT
MUHG,MUHG 081100Z 0812/0912 17010KT 9000 SCT020 BKN090 TEMPO 0812/0820 VRB10KT 4000 TSRA RA SCT016CB BKN020 BECMG 0821/0824 15007KT
MUSC,MUSC 081100Z 0812/0912 VRB05KT 9000 SCT020 BECMG 0813/0816 BKN020 TEMPO 0817/0901 VRB10KT 3000 TSRA RA BKN015CB BECMG 0903/0906 SCT020
MUVR,MUVR 081100Z 0812/0912 VRB05KT 9000 SCT020 TEMPO 0816/0824 VRB10KT 3000 TSRA RA BKN016CB BKN020 TEMPO 0900/0903 5000 SHRA RA SCT018CB BKN025
MWCB,TAF MWCB 081100Z 0812/0912 16010KT 9999 SCT018 SCT030 BECMG 0824/0901 16010KT 8000 SHRA SCT014 TEMPO 0908/0912 8000 TSRA SCT014CB
MWCR,TAF MWCR 081100Z 0812/0912 15008KT 9999 FEW018 SCT030 TEMPO 0821/0903 9000 SHRA SCT018 BECMG 0905/0907 18007KT TEMPO 0908/0912 8000 TSRA SCT016CB
MYGF,MYGF 080930Z 0812/0912 23010KT 9999 VCTS FEW018CB SCT020 PROB30 TEMPO 0815/0820 9000 SHRA SCT018 BKN020
MYNN,MYNN 080930Z 0812/0912 21010KT 9999 VCSH FEW018CB SCT022 PROB30 TEMPO 0815/0818 9000 SHRA BKN018
MZBZ,TAF MZBZ 081100Z 0812/0912 VRB03KT 9999 FEW025 BECMG 0816/0818 13007KT
NCRG,TAF NCRG 081111Z 0812/0912 09010KT 9999 -SHRA SCT019 SCT030
NFFN,TAF NFFN 081110Z 0812/0912 14005KT 9999 SCT027 SCT048 BECMG 0822/0824 30010KT BECMG 0904/0906 16005KT
NFNA,TAF NFNA 081113Z 0812/0912 06006KT 9999 -SHRA SCT020 SCT045 BKN100
NFTF,TAF NFTF 081111Z 0812/0912 07015KT 9999 -RA FEW010 SCT016 OVC100 TEMPO 0812/0824 8000 SHRA FEW008 SCT016 OVC100
NFTV,TAF NFTV 081113Z 0812/0912 18010KT 9999 FEW017 SCT040 BKN100 TEMPO 0812/0824 5000 TSRA BKN016 FEW018CB
NGFU,TAF NGFU 081119Z 0812/0912 09005KT 9999 SCT020
NGTA,TAF NGTA 081113Z 0812/0912 11008KT 9999 SCT018 BKN040 TEMPO 0812/0824 5000 TSRA BKN016 FEW018CB
NIUE,TAF NIUE 081113Z 0812/0912 05007KT 9999 SCT018 SCT030 BKN100 TEMPO 0812/0824 5000 TSRA BKN016 FEW018CB
NLWF,TAF NLWF 081100Z 0812/0912 07010KT 9999 SCT018 BKN030 TEMPO 0812/0821 SHRA FEW025TCU PROB30 TEMPO 0812/0818 2900 +SHRA BKN012 FEW020CB
NLWW,TAF NLWW 081100Z 0812/0912 VRB02KT 9999 SCT018
NSFA,TAF NSFA 081111Z 0812/0912 12005KT 9999 SCT014 SCT020
NSTU,NSTU 081124Z 0812/0912 03012KT P6SM VCSH SCT015 BKN200 FM081800 VRB06KT P6SM VCSH SCT025 SCT035
NTAA,TAF NTAA 081100Z 0812/0918 VRB05KT 9999 FEW023
NVSC,TAF NVSC 081100Z 0812/0912 15010KT 9999 SCT020
NVSG,TAF NVSG 081100Z 0812/0912 15010KT 9999 SCT020
NVSL,TAF NVSL 081100Z 0812/0912 15007KT 9999 FEW025
NVSP,TAF NVSP 081100Z 0812/0912 15007KT 9999 FEW025
NVSS,TAF NVSS 081100Z 0812/0912 15007KT 9999 SCT020
NVVA,TAF NVVA 081100Z 0812/0912 15006KT 9999 FEW025
NVVV,TAF NVVV 081100Z 0812/0912 16007KT 9999 FEW025
NVVW,TAF NVVW 081100Z 0812/0912 15006KT 9999 FEW025
NWWD,TAF NWWD 080500Z 0806/0906 19010KT 9999 SCT050 BECMG 0806/0808 VRB02KT BECMG 0822/0824 20012KT
NWWE,TAF NWWE 071700Z 0718/0818 17006KT 9999 SCT030 SCT050 PROB30 TEMPO 0718/0720 SHRA TEMPO 0805/0818 4000 SHRA
NWWK,TAF NWWK 080500Z 0806/0906 16014KT 9999 FEW055 BECMG 0807/0810 VRB02KT BECMG 0822/0824 16010KT
NWWL,TAF NWWL 081100Z 0812/0912 VRB02KT 9999 SCT030 PROB30 TEMPO 0812/0818 SHRA BECMG 0822/0824 12010KT PROB30 TEMPO 0910/0912 SHRA
NWWM,TAF NWWM 081100Z 0812/0912 VRB02KT 9999 BKN030 SCT065 TEMPO 0812/0821 SHRA BECMG 0900/0902 13012KT BECMG 0906/0908 VRB02KT PROB40 TEMPO 0906/0912 SHRA FEW030TCU
NWWR,TAF NWWR 081100Z 0812/0912 VRB02KT 9999 FEW030 BKN060 PROB30 TEMPO 0812/0820 2900 BR BECMG 0823/0901 12010KT PROB40 TEMPO 0900/0909 SHRA BECMG 0905/0907 VRB02KT
NWWU,TAF NWWU 071700Z 0718/0818 18004KT 9999 FEW055 BECMG 0722/0801 12010KT BECMG 0806/0808 19004KT
NWWW,TAF NWWW 081100Z 0812/0912 VRB02KT 9999 FEW065 PROB30 TEMPO 0812/0815 SHRA BECMG 0823/0901 17010KT BECMG 0906/0908 VRB02KT
NZAA,TAF NZAA 081106Z 0812/0918 15010KT CAVOK
NZCH,TAF NZCH 081100Z 0812/0918 25005KT 9999 BKN020 PROB40 0812/0822 0500 FG BKN001 BECMG 0900/0902 05010KT BECMG 0906/0908 BKN012 BECMG 0912/0914 BKN008
NZQN,TAF NZQN 081100Z 0812/0906 04008KT 9999 SCT012 PROB40 0812/0821 0500 FZFG BKN001 BECMG 0902/0904 24010KT
NZWN,TAF NZWN 081106Z 0812/0918 16010KT 9999 SCT015 BKN025 TEMPO 0812/0818 7000 SHRA BKN006
OBBI,TAF OBBI 081100Z 0812/0918 08008KT CAVOK BECMG 0908/0910 01010KT
OEAB,TAF OEAB 081100Z 0812/0918 20006KT 9999 SCT020 TEMPO 0812/0818 TS FEW025CB BECMG 0816/0818 35004KT FEW020 BECMG 0906/0908 02010KT
OEAH,TAF OEAH 081000Z 0812/0918 28013KT 8000 NSC BECMG 0902/0904 34015KT
OEAO,TAF OEAO 081100Z 0812/0918 18012KT 7000 FEW040 TEMPO 0812/0818 3000 BLDU FEW035CB BECMG 0816/0818 36008KT BECMG 0904/0906 01015KT
OEBA,TAF OEBA 081100Z 0812/0918 19012KT 9999 FEW030 TEMPO 0812/0820 6000 TSRA FEW025CB BKN030 BECMG 0906/0908 06010KT CAVOK
OEBH,TAF OEBH 081100Z 0812/0918 05010KT 9999 FEW030 BECMG 0820/0822 30008KT CAVOK BECMG 0906/0908 06010KT 7000 NSC
OEDF,TAF OEDF 081000Z 0812/0918 29012KT 8000 NSC BECMG 0814/0816 04015KT BECMG 0818/0820 VRB03KT
OEDM,TAF OEDM 081100Z 0812/0918 34008KT CAVOK BECMG 0906/0908 36010KT
OEDR,TAF OEDR 081000Z 0812/0918 29012KT 8000 NSC BECMG 0814/0816 04015KT BECMG 0818/0820 VRB03KT
OEGN,TAF OEGN 081100Z 0812/0918 30010KT 7000 SCT030 PROB30 TEMPO 0812/0820 TS FEW035CB BECMG 0818/0820 18005KT BECMG 0906/0908 24012KT
OEGS,TAF OEGS 081100Z 0812/0918 34015KT 7000 NSC PROB30 TEMPO 0812/0820 3000 BLDU BECMG 0820/0822 35004KT CAVOK BECMG 0906/0908 01010KT
OEGT,TAF OEGT 081100Z 0812/0918 30015KT 9999 SCT040 TEMPO 0812/0818 VRB25KT 4000 TSRA FEW035CB BECMG 0820/0822 21006KT BKN040 PROB30 TEMPO 0900/0906 4000 TSRA FEW035CB BECMG 0906/0908 31014KT SCT040 TEMPO 0908/0918 VRB24KT 4000 BLDU FEW035CB
OEHL,TAF OEHL 081100Z 0812/0918 29015KT CAVOK BECMG 0820/0822 VRB04KT BECMG 0906/0908 04010KT
OEJN,TAF OEJN 081100Z 0812/0918 32010KT CAVOK BECMG 0818/0820 02006KT BECMG 0906/0908 32012KT
OEKJ,TAF OEKJ 081100Z 0812/0918 33010KT CAVOK BECMG 0904/0906 34015KT 7000 NSC PROB30 TEMPO 0904/0914 3000 BLDU
OEKM,TAF OEKM 081100Z 0812/0918 20006KT 9999 SCT020 TEMPO 0812/0818 TS FEW025CB BECMG 0816/0818 35004KT FEW020 BECMG 0906/0908 02010KT
OEMA,TAF OEMA 081100Z 0812/0918 33010KT CAVOK BECMG 0818/0820 VRB03KT BECMG 0906/0908 14010KT
OENG,TAF OENG 081100Z 0812/0918 03012KT 7000 FEW030 BECMG 0900/0902 VRB03KT CAVOK BECMG 0906/0908 01012KT 7000 NSC
OEPA,TAF OEPA 081000Z 0812/0918 31012G22KT 8000 NSC PROB30 TEMPO 0812/0815 3000 BLDU BECMG 0817/0819 31009KT
OEPS,TAF OEPS 080900Z 0809/0915 26012G18KT 8000 HZ SCT180 QNH2976INS BECMG 0815/0816 33009KT 9999 NSW FEW180 QNH2978INS BECMG 0905/0906 36015G25KT 6000 BLDU SKC QNH2973INS TX44/0812Z TN26/0902Z
OERF,TAF OERF 081100Z 0812/0918 35010KT CAVOK BECMG 0820/0900 29004KT BECMG 0906/0908 33010KT FEW040
OERK,TAF OERK 081100Z 0812/0918 34012KT 9999 FEW040 BECMG 0820/0822 VRB03KT CAVOK BECMG 0904/0906 33015KT 7000 NSC
OERR,TAF OERR 081100Z 0812/0918 35008KT CAVOK BECMG 0820/0900 29012KT 9999 FEW040 PROB30 TEMPO 0820/0906 VRB20KT 4000 BLDU FEW035CB BECMG 0906/0908 27015KT SCT040
OESH,TAF OESH 081100Z 0812/0918 02015KT 7000 NSC PROB30 TEMPO 0812/0820 3000 BLDU BECMG 0900/0902 18008KT CAVOK BECMG 0906/0908 03010KT 7000 NSC
OESK,TAF OESK 081100Z 0812/0918 33015KT CAVOK BECMG 0822/0900 27010KT 9999 FEW040 TEMPO 0900/0915 VRB20KT 3000 BLDU FEW035CB
OETB,TAF OETB 081100Z 0812/0918 27012KT 9999 FEW040 BECMG 0818/0820 36010KT SCT040 TEMPO 0818/0908 VRB20KT 4000 BLDU FEW035CB BECMG 0905/0907 16010KT BKN040
OETF,TAF OETF 081100Z 0812/0918 03010KT 9999 FEW030 TEMPO 0812/0818 TS FEW025CB BECMG 0820/0822 VRB03KT CAVOK BECMG 0906/0908 13011KT 9999 FEW030
OETR,TAF OETR 081100Z 0812/0918 27010KT 9999 SCT040 TEMPO 0812/0900 VRB20KT 4000 BLDU FEW035CB TEMPO 0900/0915 VRB20KT 4000 BLDU TSRA FEW035CB BKN040
OEWD,TAF OEWD 081100Z 0812/0918 35008KT 7000 NSC BECMG 0821/0823 VRB03KT 9999 FEW040 BECMG 0906/0908 08010KT 7000 NSC
OEWJ,TAF OEWJ 081100Z 0812/0918 30012KT CAVOK BECMG 0818/0820 36004KT BECMG 0906/0908 30012KT
OEYN,TAF OEYN 081100Z 0812/0918 30018KT 7000 NSC BECMG 0822/0900 VRB03KT CAVOK BECMG 0906/0908 27012KT
OIAA,TAF OIAA 081100Z 0812/0918 25008KT 8000 NSC TEMPO 0815/0818 27020KT 4000 SA FEW030 SCT100 TEMPO 0909/0918 28018G24KT 3000 SA NSC
OIAW,TAF OIAW 081100Z 0812/0918 22008KT 8000 NSC TEMPO 0818/0903 25018KT 4000 SA FEW035 SCT100 TEMPO 0909/0918 25018KT 4000 SA FEW035 SCT100
OIBB,TAF OIBB 081140Z 0812/0821 25008KT CAVOK TEMPO 0812/0818 28016KT
OIBK,TAF OIBK 081100Z 0812/0918 27008KT 5000 HZ NSC TEMPO 0812/0821 27012G24KT TEMPO 0900/0904 3000 BR TEMPO 0912/0918 27012G24KT
OIBP,TAF OIBP 081140Z 0812/0821 35009KT 7000 NSC TEMPO 0812/0815 29016KT
OICC,TAF OICC 081140Z 0812/0821 28008KT 9999 FEW045TCU SCT080 TEMPO 0812/0818 30010G20KT TSRA SCT035CB SCT040 BKN090
OICI,TAF OICI 081100Z 0812/0918 04008KT 8000 FEW040 SCT100 TEMPO 0812/0815 16018KT 4000 SA FEW035CB SCT040 BKN100 TEMPO 0909/0915 32018KT 5000 SA NSC
OIFM,TAF OIFM 081100Z 0812/0918 14006KT 7000 FEW035CB SCT040 BKN100 TEMPO 0812/0816 14018KT 3000 TSRA SCT030CB SCT035 OVC090 BECMG 0820/0822 FEW035 TEMPO 0910/0916 12016G26KT 3000 TSRA SA SCT030CB SCT035 OVC090
OIGG,TAF OIGG 081140Z 0812/0821 22006KT 8000 FEW015CB SCT020 BKN070 TEMPO 0812/0818 30010KT 5000 RA FEW007 SCT012CB SCT020 OVC060 BECMG 0818/0820 5000 BR SCT010 BKN070
OIIE,TAF AMD OIIE 081300Z 0812/0918 12010KT 7000 FEW035 BKN100 TEMPO 0812/0818 24020G35KT 1000 TSRA SA SCT030CB SCT035 BKN100 TEMPO 0819/0903 26018G24KT 3000 TSRA SA SCT030CB SCT035 BKN100 TEMPO 0910/0915 3000 TSRA SA SCT030CB SCT035 BKN100
OIII,TAF AMD OIII 081300Z 0812/0918 12010KT 6000 FEW035 BKN100 TEMPO 0812/0818 24020G35KT 1000 TSRA SCT030CB SCT035 BKN100 TEMPO 0819/0903 26020KT 4000 TS/SHRA SCT030CB SCT035 BKN100 TEMPO 0910/0915 3000 TSRA SA SCT030CB SCT035 BKN100
OIIP,TAF OIIP 081140Z 0812/0821 27006KT 8000 FEW035TCU TEMPO 0812/0815 25032KT 0800 BLDU TSRA SCT030CB SCT035 OVC090 TEMPO 0815/0821 30018G30KT 4000 TSRA SCT030CB SCT035 OVC090
OIKB,TAF OIKB 081100Z 0812/0918 22006KT 5000 HZ NSC TEMPO 0812/0816 22010G20KT 3000 SA TEMPO 0818/0903 2000 BR BECMG 0904/0906 5000 HZ TEMPO 0908/0916 22018KT 4000 SA
OIKK,TAF OIKK 081100Z 0812/0918 34006KT 7000 FEW035 BKN100 TEMPO 0812/0815 34016G26KT 3000 TSRA SA SCT030CB SCT035 OVC090 TEMPO 0908/0914 14010G20KT 3000 TSRA SCT030CB SCT035 OVC090
OIMM,TAF OIMM 081100Z 0812/0918 33008KT 6000 FEW035 BKN100 TEMPO 0812/0815 07020KT 4000 SA FEW030CB SCT035 BKN090 PROB30 4000 TSRA SCT035CB SCT040 BKN100 TEMPO 0824/0905 4000 HZ NSC TEMPO 0909/0915 08018G24KT 4000 SA NSC
OING,TAF OING 081140Z 0812/0821 30016KT 2500 -RA BR BKN015 FEW030CB OVC080 TEMPO 0812/0815 SHRA SCT020CB OVC070 TEMPO 0815/0821 25016KT 2000 TS SHRA BKN008 SCT020CB OVC070
OINZ,TAF OINZ 081140Z 0812/0821 29010KT 8000 FEW027CB SCT033 OVC080 TEMPO 0812/0818 24014KT 4000 RA SCT010 FEW025CB OVC070 PROB30 TEMPO 0813/0816 3000 TSRA SCT010 SCT020CB OVC070
OISL,TAF OISL 081100Z 0812/0918 24008KT 8000 NSC TEMPO 0812/0815 28018KT TEMPO 0912/0915 28018KT 6000 FEW035 SCT100
OISS,TAF OISS 081100Z 0812/0918 26008KT 8000 FEW035 SCT100 TEMPO 0812/0815 24020KT 4000 SA SCT040 PROB30 5000 TSRA SCT035CB SCT040 BKN100 TEMPO 0915/0918 24020KT 4000 SA SCT040
OITL,TAF OITL 081140Z 0812/0821 07014KT 9999 VCFG FEW010 SCT030 TEMPO 0812/0818 08028KT 5000 DZ SHRA PRFG BKN005 FEW030CB BKN080 TEMPO 0818/0821 0800 FG BKN004
OITR,TAF OITR 081100Z 0812/0918 06008KT 7000 FEW040 SCT100 TEMPO 0812/0815 03018KT 6000 FEW035CB SCT040 BKN100 TEMPO 0912/0915 09018KT
OITT,TAF OITT 081100Z 0812/0918 06008KT 6000 FEW030 SCT100 TEMPO 0812/0815 03018KT 6000 FEW035CB SCT040 BKN090 PROB30 TSRA SCT030CB SCT035 BKN090 TEMPO 0815/0903 08020G28KT 3000 SA NSC
OIYY,TAF OIYY 081140Z 0812/0821 05008KT 7000 FEW035CB SCT040 TEMPO 0812/0821 30018KT 3000 TSRA SA SCT035CB SCT040 BKN090
OIZH,TAF OIZH 081100Z 0812/0918 03006KT 7000 FEW040 TEMPO 0812/0818 03012G22KT FEW035CB SCT040 BKN100 TEMPO 0906/0915 03020KT FEW035CB SCT040 BKN100
OJAI,TAF OJAI 081000Z 0812/0918 25012KT 5000 HZ NSC PROB40 TEMPO 0812/0819 30020KT 2000 -RA BLDU BKN080 PROB40 0818/0912 1500 DU PROB40 TEMPO 0903/0918 26020KT 1500 -TSRA BLDU FEW040CB BKN080
OJAM,TAF OJAM 081000Z 0812/0918 26008KT 5000 HZ NSC PROB40 TEMPO 0812/0819 30018KT 3000 -RA BLDU FEW040 BKN080 PROB40 0818/0912 1500 DU PROB40 TEMPO 0903/0918 26018KT 1500 -TSRA BLDU FEW040CB BKN080
OJAQ,TAF OJAQ 081000Z 0812/0918 36008KT 5000 HZ NSC BECMG 0813/0815 18018KT 3000 BLDU PROB40 TEMPO 0818/0912 20020KT 1500 -TSRA BLDU FEW045CB BKN080
OKAS,TAF OKAS 080800Z 0808/0914 26015G25KT 9999 SKC QNH2956INS BECMG 0816/0817 27009KT 9999 SKC QNH2958INS BECMG 0823/0824 33012G20KT 9999 SKC QNH2960INS BECMG 0904/0905 34015G25KT 1600 BLDU SKC QNH2967INS BECMG 0911/0912 34012G20KT 5000 BLDU SKC QNH2965INS TX44/0810Z TN28/0902Z
OLBA,TAF OLBA 081000Z 0812/0918 35010KT 8000 SCT080 BKN180 BECMG 0815/0818 01005KT BECMG 0818/0821 34010KT BECMG 0903/0906 04005KT BECMG 0909/0912 34015KT SCT080
OMAA,TAF OMAA 081100Z 0812/0918 30012KT 8000 NSC BECMG 0816/0818 15005KT BECMG 0906/0908 31012KT BECMG 0915/0917 05005KT
OMAD,TAF OMAD 081100Z 0812/0918 31010KT 8000 NSC BECMG 0816/0818 15005KT BECMG 0906/0908 32010KT BECMG 0915/0917 05004KT
OMAL,TAF OMAL 081100Z 0812/0918 28013KT 8000 NSC BECMG 0816/0818 10007KT BECMG 0906/0908 32014KT BECMG 0915/0917 06005KT
OMDB,TAF OMDB 081100Z 0812/0918 28013KT 8000 NSC BECMG 0816/0818 18005KT BECMG 0905/0907 29012KT BECMG 0915/0917 16005KT
OMDW,TAF OMDW 081100Z 0812/0918 29015KT 8000 NSC BECMG 0816/0818 18007KT BECMG 0906/0908 30014KT BECMG 0915/0917 14005KT
OMFJ,TAF OMFJ 081100Z 0812/0918 05010KT 8000 NSC BECMG 0816/0818 29010KT BECMG 0904/0906 04012KT BECMG 0914/0916 29010KT
OMRK,TAF OMRK 081100Z 0812/0918 30013KT CAVOK BECMG 0815/0817 17005KT BECMG 0906/0908 30013KT BECMG 0915/0917 VRB02KT
OMSJ,TAF OMSJ 081100Z 0812/0918 28013KT 8000 NSC BECMG 0816/0818 17005KT BECMG 0905/0907 29013KT BECMG 0915/0917 16005KT
OODQ,TAF OODQ 080500Z 0806/0906 27007KT 7000 NSC BECMG 0808/0810 20020KT PROB40 TEMPO 0822/0903 4000 BR BKN010
OOMS,TAF OOMS 081100Z 0812/0918 04012KT 8000 NSC BECMG 0817/0819 25006KT BECMG 0906/0908 03014KT
OOSA,TAF OOSA 081140Z 0812/0918 19014KT CAVOK BECMG 0815/0817 VRB03KT BECMG 0905/0907 19013KT
OOSH,TAF OOSH 081100Z 0812/0918 05010KT 8000 NSC BECMG 0815/0817 VRB02KT BECMG 0821/0823 25007KT BECMG 0906/0908 06012KT BECMG 0915/0917 VRB02KT
OPFA,TAF OPFA 081100Z 0812/0918 13003KT 5000 HZ NSC TX41/0910Z TN25/0900Z FM081600 13004KT 4000 FU NSC FM090500 09003KT 6000 NSC
OPGD,TAF OPGD 081100Z 0812/0912 14008G18KT 6000 FEW020 SCT030 BECMG 0819/0821 21010KT 3000 BR SCT030 TEMPO 0900/0904 00000KT 4000 HZ SCT020 BKN030 FM090500 18010G20KT 7000 SCT020
OPIS,TAF OPIS 081115Z 0812/0918 23010KT 6000 FEW040 SCT100 TEMPO 0812/0816 31010G20KT 6000 FEW030TCU SCT100 BECMG 0816/0818 09008KT 4000 FU BECMG 0904/0906 12010KT 6000 TEMPO 0910/0916 08G18KT 6000 FEW030TCU SCT100
OPKC,TAF OPKC 081100Z 0812/0918 23012G22KT 6000 ST020 BKN030 BECMG 0816/0818 21010KT 6000 BKN025 FM090500 24010G20KT 7000 SCT030
OPLA,TAF OPLA 081100Z 0812/0918 15008KT 5000 HZ NSC TX39/0910Z TN26/0900Z FM081800 18005KT 4000 FU NSC FM090800 24010KT 6000 SCT100 FM091500 13008KT 4000 FU NSC
OPMT,TAF OPMT 081100Z 0812/0918 18010KT 4000 HZ SCT100 TN27/0901Z TX40/0910Z PROB30 TEMPO 0821/0824 13020KT 2500 TSRA FEW030CB SCT040 SCT100 FM090600 23010KT 5000 HZ SCT100
OPNH,TAF OPNH 081100Z 0812/0918 23008G20KT 7000 NSC BECMG 0818/0820 18010KT 6000 SCT030 FM090500 21010G25KT 6000 FEW040
OPPS,TAF OPPS 081100Z 0812/0918 05008KT 6000 NSC BECMG 0819/0821 33008KT 5000 HZ NSC BECMG 0902/0914 05008KT 6000 NSC
OPSK,TAF OPSK 081100Z 0812/0912 18008G18KT 5000 HZ NSC BECMG 0815/0817 18010KT 4000 HZ NSC FM090500 21010G20KT 4000 HZ NSC
OPST,TAF OPST 081100Z 0812/0918 31005KT 4000 FU SCT100 TX40/0910Z TN24/0900Z PROB30 TEMPO 0812/0815 32010G25KT 3000 -TSRA FEW030CB SCT040 BKN100 FM090500 31007KT 5000 HZ SCT100
ORBI,TAF ORBI 081000Z 0812/0912 36008KT CAVOK BECMG 0904/0906 7000 SCT030 BKN080
ORER,TAF ORER 080500Z 0806/0906 09009KT 8000 NSC BECMG 0808/0810 FEW040
ORMM,TAF ORMM 080400Z 0806/0906 30010KT 8000 NSC 
ORSU,TAF ORSU 081100Z 0812/0912 16008KT 9999 BKN045 PROB30 TEMPO 0813/0816 8000 -TSRA FEW035CB BECMG 0816/0818 06015KT CAVOK
OSAP,TAF OSAP 080900Z 0812/0912 25012KT 9999 SCT030 BECMG 0819/0821 26015KT CAVOK BECMG 0908/0910 25012KT 9999 FEW030
OSDI,TAF OSDI 080900Z 0812/0918 16015KT 7000 FEW030 SCT100 PROB30 TEMPO 0900/0918 21020KT 5000 SHRA FEW025 CB BKN030
OSLK,OSLK 080900Z 0812/0912 28015KT 9999 SCT030 TEMPO 0818/0906 03008KT
OTBD,TAF OTBD 081111Z 0812/0918 07011KT 8000 NSC TEMPO 0812/0819 14007KT TEMPO 0819/0903 21006KT
OTBH,TAF OTBH 080755Z 0808/0914 28010G20KT 9999 SKC QNH2963INS BECMG 0811/0812 32010G20KT 9999 SKC QNH2959INS BECMG 0814/0815 09010G20KT 9999 SKC QNH2953INS BECMG 0819/0820 VRB06KT 9999 SKC QNH2957INS TX45/0812Z TN29/0900Z
OTHH,TAF OTHH 081111Z 0812/0918 07011KT 8000 NSC TEMPO 0812/0819 14007KT TEMPO 0819/0903 21006KT
PAAQ,PAAQ 081140Z 0812/0912 VRB05KT P6SM VCSH SCT050 OVC070 FM081900 14015G22KT P6SM BKN100 FM090100 15020G30KT P6SM OVC100 FM090900 11008KT P6SM BKN100
PABE,PABE 081120Z 0812/0912 08006KT P6SM BKN050 FM082100 09008KT P6SM -SHRA SCT035 OVC050 FM090600 09006KT P6SM OVC050
PABI,TAF AMD PABI 080325Z 0803/0904 36006KT 9999 SCT065 BKN110 QNH2967INS TEMPO 0803/0805 RA BECMG 0819/0820 18015G25KT 9999 FEW045 SCT065 BKN090 520022 QNH2965INS TEMPO 0900/0903 -TSRA BKN020CB BECMG 0903/0904 18025G30KT 9999 FEW075 BKN100 OVC140 520003 QNH2964INS TX23/0803Z TN11/0812Z LAST NO AMDS AFT 0806 NEXT 0814
PABR,PABR 081120Z 0812/0912 07010KT 1/2SM FG OVC002 FM081800 07012KT 2SM BR OVC004 FM082100 07014KT P6SM BKN007
PABT,PABT 081120Z 0812/0912 02005KT P6SM SCT100 FM082000 10008KT P6SM VCTS SCT070CB BKN120
PACD,PACD 081313Z 0813/0912 14010KT P6SM VCSH FEW009 OVC015 TEMPO 0813/0817 SCT015 OVC035 FM090000 14012KT P6SM -SHRA SCT015 OVC025
PACV,PACV 081140Z 0812/0912 12011G17KT P6SM -RA SCT025 OVC035 FM081800 10010KT 6SM -RA BR OVC025
PADL,PADL 081120Z 0812/0912 02010KT P6SM BKN100 FM090000 08012KT 5SM -RA SCT015 OVC025 FM090800 13010KT P6SM OVC015
PADQ,PADQ 081140Z 0812/0912 34010KT 3SM -RA BR OVC010 TEMPO 0812/0816 2SM -RA BR OVC006 FM081600 02007KT 2SM -RA BR OVC006 FM082200 10009KT 3SM BR SCT006 OVC010 FM090400 11010KT P6SM VCSH SCT012 BKN020
PADU,PADU 081120Z 0812/0912 14004KT P6SM -SHRA BKN020 OVC035 TEMPO 0812/0816 SCT020 OVC035 FM090300 12006KT P6SM VCSH OVC025
PAED,TAF PAED 080500Z 0805/0911 30006KT 9999 VCSH SCT060 BKN090 BKN110 640904 540505 QNH2971INS BECMG 0808/0809 35005KT 9999 -RA SCT050 BKN070 BKN090 OVC100 640705 540505 QNH2969INS TEMPO 0810/0818 01008KT 9999 VCSH BECMG 0818/0819 06010G15KT 9999 NSW SCT080 BKN100 550209 QNH2964INS BECMG 0822/0823 15010G15KT 9999 FEW060 SCT080 BKN100 621002 540406 QNH2964INS TX15/0819Z TN09/0823Z
PAEI,TAF PAEI 080600Z 0806/0912 VRB06KT 9999 SCT120 QNH2966INS BECMG 0822/0823 12010G15KT 9999 VCTS SCT070CB BKN100 QNH2957INS TEMPO 0903/0906 VRB15G25KT -TSRA SCT050CB BKN070 BECMG 0907/0908 VRB06KT 9999 NSW BKN080 QNH2961INS TX25/0901Z TN06/0812Z
PAEN,PAEN 081258Z 0813/0912 02012KT P6SM -RA SCT008 BKN035 OVC050 TEMPO 0813/0815 BKN008 FM081500 04014KT P6SM VCSH FEW020 OVC070 TEMPO 0815/0818 BKN010 FM090600 03010KT P6SM BKN070
PAFA,PAFA 081120Z 0812/0918 VRB06KT P6SM BKN100 FM082200 19006KT P6SM VCTS SCT050CB FM091000 VRB05KT P6SM SCT100
PAFB,TAF PAFB 080600Z 0806/0912 07009KT 9999 FEW050 SCT080 QNH2957INS TX23/0820Z TN12/0815Z VCTS OMTNS NE 0902-0906 LAST NO AMDS AFT 0806 NEXT 0814
PAGA,PAGA 081120Z 0812/0912 VRB03KT P6SM SCT070 FM090100 VRB06KT P6SM VCTS FEW050CB SCT100 AMD NOT SKED
PAGK,PAGK 081140Z 0812/0912 16007KT P6SM VCSH BKN050 OVC100 FM082000 15012G20KT P6SM VCSH SCT050 OVC070 FM090900 16008KT P6SM BKN050
PAGS,PAGS 081141Z 0812/0912 VRB03KT P6SM SCT120 FM081900 14009KT P6SM BKN100 FM090400 24007KT P6SM OVC070 AMD LTD TO CLD VIS AND WIND
PAGY,PAGY 081141Z 0812/0912 VRB04KT P6SM FEW120 FM082100 21014KT P6SM SCT120 FM090600 21008KT P6SM BKN100 AMD LTD TO CLD VIS AND WIND
PAHN,PAHN 081141Z 0812/0912 31009KT P6SM FEW120 FM081900 12009KT P6SM SCT120 FM090300 10009KT P6SM BKN100 AMD NOT SKED
PAHO,PAHO 081140Z 0812/0912 VRB04KT P6SM -RA OVC050 FM082100 08009KT P6SM SCT050 OVC080
PAIL,PAIL 081120Z 0812/0912 30005KT P6SM -SHRA SCT025 BKN050 FM081800 11006KT P6SM -SHRA SCT025 OVC050 FM090000 10012G22KT P6SM OVC050
PAJN,PAJN 081141Z 0812/0912 VRB03KT 6SM BR BCFG SCT150 BKN200 FM081800 24010KT P6SM BKN120 FM090300 12006KT P6SM OVC070
PAKN,PAKN 081120Z 0812/0912 08010KT P6SM OVC050 FM082200 10012G20KT P6SM -RA SCT025 OVC050 FM090200 14012G20KT P6SM -RA OVC025 FM090600 14008KT P6SM OVC025
PAKT,PAKT 081141Z 0812/0912 14009KT P6SM SCT200 FM090700 32005KT P6SM SCT200 AMD LTD TO CLD VIS AND WIND 0812/0815
PAKW,PAKW 081141Z 0812/0912 VRB04KT P6SM BCFG SCT200 FM082100 21008KT P6SM BKN100 FM090500 VRB02KT P6SM BKN100 AMD LTD TO CLD VIS AND WIND
PAMC,PAMC 081120Z 0812/0912 VRB04KT P6SM SCT070 FM090000 13010KT P6SM VCTS FEW050CB BKN100
PANC,PANC 081140Z 0812/0918 33006KT P6SM VCSH FEW030 BKN060 OVC100 FM082200 15012G20KT P6SM SCT050 OVC070 FM090400 16018G28KT P6SM OVC100 FM090900 15011KT P6SM OVC090
PAOM,PAOM 081120Z 0812/0912 03009KT P6SM SCT070 OVC100 FM090000 27009KT P6SM VCSH BKN070 OVC090
PAOR,PAOR 081120Z 0812/0912 01007KT P6SM FEW100 FM082100 27008KT P6SM VCTS FEW050CB BKN100
PAOT,PAOT 081120Z 0812/0912 29008KT P6SM SCT250 FM090300 01010KT P6SM VCSH FEW070 BKN100
PAPG,PAPG 081141Z 0812/0912 VRB04KT P6SM SCT120 FM082100 VRB06KT P6SM BKN120 AMD LTD TO CLD VIS AND WIND 0812/0815
PAQT,PAQT 081120Z 0812/0912 04010KT 2SM BR OVC003 FM081400 05011KT 4SM BR OVC005 FM082100 06016G25KT P6SM SCT007
PASC,PASC 081120Z 0812/0912 05013KT 6SM BR OVC005 FM081400 06014KT 4SM BR OVC005 FM081900 06016G25KT P6SM SCT007
PASD,PASD 081120Z 0812/0912 VRB04KT 6SM BR BKN009 OVC015 FM082100 16007KT P6SM VCSH OVC015 FM090600 15004KT P6SM -RA OVC015
PASI,PASI 081141Z 0812/0912 VRB03KT P6SM BKN120 FM082100 21009KT P6SM OVC060
PASN,PASN 081120Z 0812/0912 07010KT 1SM BR OVC002 TEMPO 0812/0816 OVC005 AMD LTD TO CLD AND WIND
PASY,TAF PASY 080600Z 0806/0912 35018KT 9000 BR OVC005 510053 QNH2948INS TX05/0820Z TN04/0814Z LIMITED METWATCH 0806 TIL 0809
PATA,PATA 081120Z 0812/0912 VRB03KT P6SM FEW050 SCT250 FM090000 13008KT P6SM VCTS FEW050CB BKN100
PATK,PATK 081140Z 0812/0912 VRB04KT P6SM -RA SCT040 OVC070 FM081800 20007KT P6SM FEW070 BKN100 FM090500 18006KT P6SM VCSH SCT040 OVC070
PAUN,PAUN 081120Z 0812/0912 32011KT P6SM VCSH SCT060 BKN070 FM081300 32008KT P6SM FEW070 SCT100 FM082100 33010KT P6SM VCSH BKN050
PAVD,PAVD 081140Z 0812/0912 VRB03KT 4SM -RA BR SCT003 BKN010 OVC040 TEMPO 0812/0816 2SM -RA BR BKN003 FM081800 VRB04KT 6SM -RA BR FEW015 SCT030 OVC045 AMD LTD TO CLD AND WIND TIL 081600
PAWG,PAWG 081141Z 0812/0912 VRB04KT P6SM BCFG SCT150 FM082100 VRB06KT P6SM BKN150 AMD NOT SKED 0812/0815
PAYA,PAYA 081141Z 0812/0912 VRB04KT 6SM -SHRA BR SCT010 OVC025 TEMPO 0812/0816 SCT025 OVC050 FM082300 11009KT 4SM -RA BR SCT006 OVC015 WS020/15030KT AMD LTD TO CLD VIS AND WIND
PGRO,PGRO 080531Z 0806/0906 07013KT P6SM VCSH SCT015 SCT050 TEMPO 0806/0810 BKN015
PGSN,PGSN 081120Z 0812/0912 08011KT P6SM VCSH FEW016 SCT030
PGUA,TAF PGUA 081000Z 0810/0916 09009KT 9999 SCT015 QNH2983INS TX29/0902Z TN25/0818Z
PGUM,PGUM 081120Z 0812/0918 07008KT P6SM VCSH SCT022 SCT040
PGWT,PGWT 080531Z 0806/0906 06014KT P6SM VCSH FEW015 SCT030 TEMPO 0806/0810 BKN015
PHHI,TAF PHHI 080700Z 0807/0913 VRB06KT 9999 FEW030 SCT045 QNH3006INS TEMPO 0814/0818 8000 -SHRA FEW012 BKN024 BECMG 0819/0820 06009KT 9999 SCT020 SCT040 QNH3010INS TEMPO 0823/0903 07012G18KT TX29/0902Z TN19/0815Z
PHJH,PHJH 072339Z 0800/0824 VRB06KT P6SM SCT030 SCT040 BKN060 FM080700 06010KT P6SM FEW035 SCT050 FM081200 VRB06KT P6SM FEW040 FM082100 06010KT P6SM FEW035 BKN050
PHJR,PHJR 081124Z 0812/0912 04006KT P6SM FEW060 FM082000 13011KT P6SM SCT030 BKN050 FM090600 06006KT P6SM FEW030 FEW060
PHKO,PHKO 081124Z 0812/0912 09006KT 6SM -SHRA BKN035 FM082000 26009KT P6SM SCT030 BKN050 FM090500 16008KT P6SM FEW030 FEW050
PHLI,PHLI 081124Z 0812/0912 VRB06KT P6SM VCSH SCT015 BKN050 FM081900 07011KT P6SM SCT025 SCT035 BKN045 FM090600 06008KT P6SM SCT025 SCT035
PHMK,PHMK 081124Z 0812/0912 03006KT P6SM FEW040 FM082000 04013G22KT P6SM FEW035 SCT050 FM090600 04008KT P6SM FEW030 FEW050
PHNG,TAF PHNG 0809/0909 08010KT 9999 SCT025 SCT035 QNH3002INS TEMPO 0809/0815 VRB05KT BKN020 BKN030 BECMG 0815/0817 FEW025 SCT035 SCT050 QNH3004INS TEMPO 0817/0823 08012G16KT SCT025 BKN035 BKN050 T24/0816Z T29/0900Z
PHNL,PHNL 081124Z 0812/0918 05008KT P6SM FEW025 FM082100 07011G18KT P6SM FEW025 SCT045 FM090600 05009KT P6SM SCT025 SCT040
PHNY,PHNY 081124Z 0812/0912 03007KT P6SM SCT030 FM082000 26009KT P6SM SCT015 BKN030 FM090600 03007KT P6SM SCT020
PHOG,PHOG 081124Z 0812/0912 VRB06KT P6SM FEW050 FM082100 04015G26KT P6SM FEW030 FEW050 FM090500 04011KT P6SM FEW030 SCT050 FM090800 05008KT P6SM FEW030 SCT050
PHTO,PHTO 081124Z 0812/0912 22004KT P6SM FEW025 FEW050 FM082000 09009KT P6SM VCSH SCT025 SCT035 BKN050 FM090500 22006KT P6SM VCSH FEW025 SCT045
PKMJ,PKMJ 081120Z 0812/0912 07013KT P6SM VCSH SCT015 SCT050 BKN130
PKWA,PKWA 081120Z 0812/0912 08013KT P6SM VCSH SCT022 SCT050
PLCH,TAF PLCH 081113Z 0812/0912 10010KT 9999 SCT019 PROB30 TEMPO 0812/0824 5000 TSRA FEW018CB
PMDY,PMDY 081124Z 0812/0912 06012KT P6SM SCT020 BKN030 FM082000 10008KT P6SM SCT025 SCT050 FM090900 18008KT P6SM SCT025 BKN050 AMD LTD TO CLD VIS AND WX
PTKK,PTKK 081120Z 0812/0912 VRB06KT P6SM VCSH SCT015 SCT050 BKN120 TEMPO 0812/0816 5SM SHRA BKN015
PTPN,PTPN 080531Z 0806/0906 08006KT P6SM VCSH SCT018 BKN130 TEMPO 0806/0810 VRB10KT 6SM -SHRA BKN017
PTRO,PTRO 081120Z 0812/0912 20008KT P6SM VCSH SCT016 BKN030
PTSA,PTSA 072332Z 0800/0824 VRB06KT P6SM VCSH SCT022 SCT060 TEMPO 0800/0804 BKN020
PTYA,PTYA 081120Z 0812/0912 VRB05KT P6SM FEW017 BKN300
PWAK,TAF PWAK 080600Z 0806/0912 08015KT 9000 -SHRA SCT019 SCT024 QNH2987INS TX30/0901Z TN26/0815Z FOR MIL USE ONLY
RCFN,TAF AMD RCFN 081233Z 0812/0912 35005KT 9999 FEW015 BKN032 TEMPO 0812/0816 FEW006 BKN012 BECMG 0900/0902 12005KT TEMPO 0906/0910 33005KT 2500 TSRA SCT005 BKN008 FEW012CB BECMG 0910/0912 35005KT
RCKH,TAF RCKH 081100Z 0812/0918 22005KT 9999 FEW012 BKN032 BECMG 0816/0818 09005KT BECMG 0900/0902 27005KT TEMPO 0905/0909 FEW010 FEW015CB BKN022 BECMG 0910/0912 07005KT
RCMQ,TAF RCMQ 081100Z 0812/0912 20004KT 9999 FEW010 SCT030 BKN060 TX30/0905Z TN24/0820Z TEMPO 0818/0823 8000 -RA FEW010 BKN020 BKN040 BECMG 0901/0904 24010KT FEW010 BKN030 BKN060 TEMPO 0905/0911 7000 -RA SCT010 BKN020 BKN040
RCNN,TAF RCNN 081100Z 0812/0912 18004KT 9999 FEW012 BKN060 TX34/0906Z TN26/0821Z TEMPO 0818/0823 FEW012 SCT050 BECMG 0901/0903 22010KT FEW012 SCT100 TEMPO 0907/0911 8000 -RA FEW010 FEW012CB BKN021 BKN050
RCSS,TAF RCSS 081100Z 0812/0912 31005KT 9999 FEW015 BKN032 TEMPO 0818/0824 VRB02KT FEW012 BKN022 TEMPO 0906/0910 12005KT 4000 SHRA SCT008 FEW010CB BKN012
RCTP,TAF RCTP 081100Z 0812/0918 22010KT 9999 FEW015 BKN032 TEMPO 0818/0824 FEW008 BKN012 BECMG 0900/0902 27010KT BECMG 0910/0912 22005KT TEMPO 0914/0918 28010KT 2500 TSRA SCT005 BKN008 FEW010CB
RJAA,TAF RJAA 081105Z 0812/0918 16008KT 6000 -SHRA FEW005 BKN015 TEMPO 0815/0819 3000 SHRA BR FEW003 BKN005 TEMPO 0819/0903 18018G30KT 3000 SHRA BR FEW003 BKN005 TEMPO 0903/0906 20016G28KT BECMG 0915/0918 01004KT
RJAH,TAF RJAH 081106Z 0812/0918 15012KT 8000 -SHRA FEW008 BKN015 BECMG 0813/0815 4000 -SHRA BR FEW005 BKN008 TEMPO 0815/0903 3000 SHRA BR FEW003 BKN005 BECMG 0903/0906 9999 NSW FEW015 BKN030 BECMG 0909/0912 04008KT
RJBB,TAF RJBB 081114Z 0812/0918 07010KT 8000 -SHRA FEW008 SCT015 BKN020 TEMPO 0812/0819 1500 SHRA BR FEW002 SCT003 BKN005 BECMG 0815/0817 20020KT BECMG 0819/0821 25008KT BECMG 0912/0915 05004KT
RJCB,TAF RJCB 081105Z 0812/0918 14005KT 7000 FEW003 BKN015 TEMPO 0812/0900 0700 -SHRA FG VV001 TEMPO 0900/0903 1500 -SHRA BR FEW001 BKN003 TEMPO 0903/0909 3000 -SHRA BR FEW002 BKN004 BECMG 0909/0912 06005KT TEMPO 0909/0918 0700 -SHRA FG VV001
RJCC,TAF RJCC 081105Z 0812/0918 15011KT 9999 FEW004 BKN015 TEMPO 0812/0818 0700 FG VV001 TEMPO 0818/0900 2000 -SHRA BR FEW002 BKN004 TEMPO 0900/0909 4000 -SHRA BR FEW005 BKN008
RJCH,TAF RJCH 081109Z 0812/0918 07006KT 9999 FEW004 BKN015 TEMPO 0812/0815 3000 BR FEW004 BKN006 TEMPO 0815/0900 1500 -SHRA BR FEW002 BKN004 BECMG 0900/0903 09018KT TEMPO 0900/0906 2000 SHRA BR FEW003 BKN005 TEMPO 0906/0915 09020G30KT FEW004 BKN006
RJCK,TAF RJCK 081109Z 0812/0918 15005KT 3000 BR FEW003 BKN006 TEMPO 0812/0818 0500 FG VV001 TEMPO 0818/0903 0700 -SHRA FG VV001 TEMPO 0903/0909 1500 -SHRA BR FEW001 BKN003 TEMPO 0909/0918 0700 -SHRA FG VV001 BECMG 0912/0915 05006KT
RJCM,TAF RJCM 081109Z 0812/0918 02005KT 9999 FEW004 BKN015 TEMPO 0812/0821 2000 BR FEW002 BKN004 BECMG 0817/0819 19005KT TEMPO 0821/0900 FEW005 BKN008 BECMG 0822/0900 16015KT
RJEC,TAF RJEC 081105Z 0812/0918 20005KT 9999 FEW015 SCT030 BECMG 0900/0903 18015KT BECMG 0912/0915 29005KT
RJFF,TAF RJFF 081105Z 0812/0918 15006KT 9999 FEW010 SCT015 BECMG 0900/0903 32011KT BECMG 0912/0915 14004KT
RJFK,TAF RJFK 081111Z 0812/0918 33005KT 9999 FEW030 TEMPO 0812/0815 FEW003 BKN005 BKN008 BECMG 0822/0900 19005KT BECMG 0912/0915 36004KT
RJFM,TAF RJFM 081106Z 0812/0918 26014KT 9999 FEW015 SCT030 BECMG 0822/0900 06008KT BECMG 0909/0912 28004KT
RJFO,TAF RJFO 081106Z 0812/0918 29005KT 9999 FEW010 SCT015 BKN025 TEMPO 0812/0814 3000 -SHRA BR FEW003 BKN005 BKN010 BECMG 0900/0903 11005KT BECMG 0909/0912 30004KT
RJFR,TAF AMD RJFR 081214Z 0812/0918 10005KT 9999 FEW010 SCT025 TEMPO 0812/0815 FEW005 BKN008 BKN010 BECMG 0813/0815 27011KT BECMG 0900/0903 09007KT BECMG 0906/0909 31004KT
RJFS,TAF RJFS 081108Z 0812/0918 28005KT 9999 FEW005 SCT008 BKN015 TEMPO 0812/0815 FEW005 BKN008 BKN015 TEMPO 0818/0900 4000 BR FEW005 BKN008 BKN015 BECMG 0900/0903 17005KT BECMG 0906/0909 28006KT
RJFT,TAF RJFT 081105Z 0812/0918 24004KT 6000 -SHRA FEW003 SCT005 BKN015 TEMPO 0812/0821 0700 -SHRA FG FEW001 BKN003 BKN008 TEMPO 0821/0900 3000 BR FEW003 BKN005 BKN015
RJFU,TAF RJFU 081105Z 0812/0918 32009KT 9999 FEW007 BKN015 BECMG 0915/0918 14004KT
RJGG,TAF RJGG 081111Z 0812/0918 12016KT 8000 -SHRA FEW010 BKN020 TEMPO 0812/0815 4000 SHRA BR FEW004 BKN008 TEMPO 0815/0818 12026G36KT 3000 SHRA BR FEW002 BKN005 BECMG 0820/0822 28012KT BECMG 0906/0909 16006KT BECMG 0915/0918 36004KT
RJNK,TAF RJNK 081115Z 0812/0918 04008KT 8000 -RA FEW008 BKN015 TEMPO 0812/0816 3000 RA BR FEW005 BKN008 TEMPO 0816/0819 2000 SHRA BR FEW002 BKN005 BECMG 0820/0822 24014KT BECMG 0909/0912 20004KT
RJNS,TAF RJNS 081115Z 0812/0918 06006KT 4000 -SHRA BR FEW005 BKN008 TEMPO 0812/0815 2000 +SHRA BR FEW001 BKN003 TEMPO 0815/0819 1500 +SHRA BR FEW001 BKN003 BECMG 0818/0820 22022KT TEMPO 0819/0900 22024G34KT 1500 +TSRA BR FEW001 BKN003 FEW020CB BECMG 0900/0903 25010KT 9999 NSW FEW020
RJNT,TAF RJNT 081105Z 0812/0918 36004KT 6000 -RA FEW005 BKN012 TEMPO 0812/0814 4000 RA BR FEW002 BKN005 TEMPO 0814/0821 3000 RA BR FEW002 BKN005 BECMG 0822/0900 26010KT BECMG 0906/0909 30004KT
RJOA,TAF RJOA 081105Z 0812/0918 08008KT 3000 -SHRA BR FEW001 SCT003 BKN008 TEMPO 0812/0814 1500 SHRA BR BCFG FEW000 SCT002 BKN003 BECMG 0813/0815 30005KT BECMG 0815/0817 9999 NSW FEW002 SCT025
RJOB,TAF RJOB 081106Z 0812/0918 08006KT 4000 -RA BR FEW001 SCT008 BKN015 TEMPO 0812/0815 0900 -RA FG FEW000 BKN005 BKN008 BECMG 0814/0816 28005KT TEMPO 0815/0818 2000 BR BCFG FEW000 SCT005 BKN008 BECMG 0818/0820 9999 NSW BECMG 0909/0912 05005KT
RJOC,TAF RJOC 081106Z 0812/0918 07006KT 9000 FEW008 BKN030 BECMG 0813/0815 24005KT
RJOH,TAF RJOH 081106Z 0812/0918 05006KT 9000 FEW006 BKN030 BECMG 0814/0816 24006KT
RJOI,TAF RJOI 0809/0909 04005KT 4800 -RA BR FEW010 BKN035 OVC040 621609 QNH2959INS TEMPO 0809/0811 1600 RA BR SCT005 BKN025 OVC035 FM081300 VRB06KT 9999 FEW010 BKN035 BKN050 600000 QNH2958INS FM081600 30006KT 9999 FEW030 BKN050 QNH2960INS FM082000 VRB06KT 9999 FEW030 FEW100 QNH2963INS BECMG 0901/0903 16006KT 9999 FEW030 SCT100 QNH2966INS FM090800 VRB06KT 9999 FEW030 QNH2967INS T17/0821Z T23/0903Z
RJOK,TAF RJOK 081114Z 0812/0918 35005KT 6000 -SHRA FEW008 SCT010 BKN020 TEMPO 0812/0815 2000 +SHRA BR FEW002 BKN005 BKN015 FEW020CB BECMG 0900/0903 18007KT BECMG 0909/0912 34004KT
RJOM,TAF RJOM 081105Z 0812/0918 01008KT 7000 -SHRA FEW008 SCT015 BKN025 TEMPO 0812/0818 4000 -SHRA BR FEW003 BKN008 BKN015 BECMG 0816/0818 20006KT BECMG 0900/0903 24007KT BECMG 0906/0909 21005KT
RJOO,TAF RJOO 081114Z 0812/0918 07010KT 9999 FEW015 BKN025 TEMPO 0812/0818 4000 SHRA BR FEW003 BKN008 BKN015 BECMG 0815/0817 27005KT BECMG 0900/0903 21006KT BECMG 0909/0912 33006KT
RJOT,TAF RJOT 081105Z 0812/0918 08008KT 6000 -SHRA FEW001 SCT005 BKN008 TEMPO 0812/0815 3000 SHRA BR BECMG 0813/0815 25008KT TEMPO 0815/0818 1500 -SHRA BR BCFG FEW000 SCT002 BKN005 BECMG 0818/0820 FEW003 BKN020 BECMG 0912/0915 14005KT
RJSA,TAF RJSA 081106Z 0812/0918 02004KT 6000 FEW008 BKN012 TEMPO 0813/0815 1500 BR FEW001 BKN003 TEMPO 0815/0900 0500 -RA FG VV001 TEMPO 0900/0909 3000 -RA BR FEW001 BKN003 TEMPO 0909/0918 1500 BR FEW001 BKN003
RJSF,TAF RJSF 081106Z 0812/0918 13006KT 8000 -RA FEW015 BKN020 TEMPO 0818/0820 4000 -RA BR FEW005 BKN008 BECMG 0819/0821 01008KT TEMPO 0820/0903 3000 SHRA BR FEW003 BKN005
RJSI,TAF RJSI 081105Z 0812/0918 17005KT 8000 -RA FEW005 BKN015 TEMPO 0815/0821 4000 -RA BR FEW005 BKN008 TEMPO 0821/0900 3000 RA BR FEW003 BKN005 TEMPO 0900/0903 4000 -RA BR FEW005 BKN008 BECMG 0903/0906 36004KT
RJSK,TAF RJSK 081106Z 0812/0918 12010KT 9999 -RA FEW015 BKN060 TEMPO 0912/0918 3000 BR FEW003 BKN005
RJSN,TAF RJSN 081105Z 0812/0918 14006KT 9999 FEW030 BKN060 TEMPO 0817/0822 4000 RA BR BECMG 0900/0903 24013KT
RJSS,TAF RJSS 081105Z 0812/0918 13010KT 8000 -RA FEW008 BKN015 TEMPO 0812/0815 FEW005 BKN008 TEMPO 0815/0821 4000 -RA BR FEW005 BKN008 TEMPO 0821/0903 3000 RA BR FEW003 BKN005 BECMG 0903/0906 33010KT
RJTT,TAF RJTT 081105Z 0812/0918 14012KT 8000 -RA FEW010 BKN030 TEMPO 0815/0900 3000 SHRA BR FEW005 BKN008 BECMG 0819/0821 32006KT BECMG 0900/0903 20014KT BECMG 0912/0915 36006KT
RJTY,TAF RJTY 081300Z 0813/0919 18009KT 9000 -RA BKN005 OVC012 QNH2971INS BECMG 0818/0819 VRB06KT 8000 -RA OVC005 QNH2959INS TEMPO 0819/0824 4800 RA BKN004 BECMG 0901/0902 27007KT 9999 NSW SCT010 BKN015 QNH2959INS BECMG 0903/0904 18008KT 9999 SCT025 BKN250 QNH2959INS BECMG 0911/0912 33006KT 9999 SCT010 BKN020 QNH2969INS BECMG 0914/0915 VRB06KT 9000 BR SCT005 BKN010 QNH2971INS TX24/0906Z TN18/0818Z LAST NO AMDS AFT 0813 NEXT 0821
RKJB,TAF RKJB 081100Z 0812/0918 21007KT 9999 FEW035 BKN150 TN18/0821Z TX28/0905Z BECMG 0815/0816 4000 BR BKN014 TEMPO 0817/0820 33005KT 2500 -RA BECMG 0821/0822 33005KT 7000 NSW BECMG 0823/0824 23007KT FEW010 BECMG 0912/0913 18007KT 4000 BR BKN010
RKJK,TAF AMD RKJK 081000Z 0810/0914 23012KT 9000 BR SCT030 BKN080 QNH2958INS BECMG 0811/0812 22009KT 8000 BR SCT015 BKN025 QNH2960INS BECMG 0814/0815 21012KT 6000 -SHRA BR SCT007 BKN015 QNH2961INS TEMPO 0816/0822 4800 BR BKN007 OVC015 BECMG 0823/0824 21009KT 8000 BR SCT015 QNH2965INS BECMG 0903/0904 21012G20KT 9999 NSW SCT150 QNH2955INS BECMG 0910/0911 19012G18KT 9999 SCT040 BKN100 QNH2957INS TX27/0905Z TN18/0820Z LAST NO AMDS AFT 0810 NEXT 0900
RKNN,TAF RKNN 081100Z 0812/0918 30006KT 9999 SCT080 BKN100 BKN220 BECMG 0814/0815 30006KT 8000 -RA SCT040 BKN080 BKN150 BECMG 0816/0817 27006KT 9999 NSW SCT040 SCT080 BKN200 WND 09006KT AFT 0900 TN21/0821Z TX27/0906Z 
RKNW,TAF RKNW 081100Z 0812/0918 24006KT 9999 BKN040 BKN100 BECMG 0813/0814 24006KT 4800 -RA BR SCT015 BKN030 BECMG 0817/0818 24006KT 3200 -RA BR BKN015 OVC030 BECMG 0821/0822 24006KT 4800 -RA BR BKN015 OVC030 BECMG 0823/0824 24006KT 4800 BR BKN015 BKN030 BECMG 0900/0901 24006KT 9999 BKN040 BECMG 0904/0905 24006KT 9999 SCT040 WND 03006KT AFT 0915 BECMG 0917/0918 03006KT 4800 BR SCT010 TN19/0821Z TX29/0906Z 
RKNY,TAF RKNY 081100Z 0812/0918 20006KT 9999 FEW030 BKN140 TN18/0820Z TX25/0904Z TEMPO 0815/0818 4000 -RA FEW010 BKN040 OVC080 BECMG 0819/0820 27010KT 6000 NSC BECMG 0901/0903 33007KT CAVOK BECMG 0904/0906 14008KT BECMG 0914/0915 27006KT 9999 SCT030 BKN130
RKPC,TAF RKPC 081100Z 0812/0918 30006KT 9999 FEW010 SCT030 TN19/0820Z TX25/0905Z TEMPO 0812/0815 BKN030 BECMG 0816/0817 19006KT FEW004 BKN025 TEMPO 0817/0820 4000 BR BECMG 0823/0824 34006KT FEW010 SCT030 BECMG 0907/0908 06006KT
RKPK,TAF RKPK 081100Z 0812/0918 19006KT 9999 SCT030 SCT200 TN17/0821Z TX27/0906Z BECMG 0820/0821 15006KT 4800 BR SCT015 SCT030 BECMG 0823/0824 9999 NSW BECMG 0900/0901 19008KT BECMG 0902/0903 20006G16KT BECMG 0909/0910 19008KT
RKSG,TAF RKSG 081100Z 0811/0917 VRB06KT 9000 BR FEW014 QNH2960INS TEMPO 0813/0815 4800 -TSRA OVC020CB TEMPO 0815/0820 4800 -TSRA OVC015CB BECMG 0819/0820 VRB06KT 8000 BR OVC010 QNH2960INS BECMG 0901/0902 VRB06KT 8000 BR FEW120 QNH2962INS TX27/0907Z TN17/0821Z
RKSI,TAF RKSI 081100Z 0812/0918 23006KT 4000 BR BKN010 TN17/0820Z TX24/0905Z TEMPO 0813/0815 -RA SCT010CB BKN020 OVC060 TEMPO 0818/0821 31006KT 0800 FG BKN003 BECMG 0900/0902 18006KT 6000 NSW FEW010 SCT025 TEMPO 0905/0907 25007KT BECMG 0914/0916 19015G25KT FEW010 BKN020
RKSM,TAF AMD RKSM 081130Z 0812/0918 21006KT 8000 -TSRA BR SCT015 FEW018CB BKN030 FM081400 21006KT 4800 -RA BR BKN015 BKN030 BECMG 0823/0824 27006KT 9999 NSW BKN030 TN19/0821Z TX28/0906Z 
RKSO,TAF AMD RKSO 080711Z 0807/0911 21009KT 9999 SCT030 BKN110 QNH2959INS TEMPO 0808/0812 VCSH BKN030 BECMG 0818/0819 26009KT 6000 BR SCT009 BKN030 QNH2962INS BECMG 0823/0824 30006KT 8000 BR SCT015 QNH2966INS BECMG 0901/0902 23006KT 9999 NSW FEW015 QNH2964INS BECMG 0906/0907 28006KT 9999 FEW030 SCT140 QNH2965INS TX24/0807Z TN17/0821Z
RKSS,TAF AMD RKSS 081315Z 0813/0918 19005KT 6000 FEW010 BKN030 OVC080 TN17/0821Z TX28/0905Z TEMPO 0813/0817 24006KT 4000 -TSRA FEW010CB BKN025 OVC070 BECMG 0818/0820 28005KT 4000 BR FEW010 BECMG 0821/0823 34005KT 6000 NSW BECMG 0900/0902 22006KT CAVOK BECMG 0910/0912 03005KT 6000 NSC
RKSW,TAF AMD RKSW 081205Z 0812/0918 24008KT 9999 BKN030 FM081230 24008KT 9999 -TS FEW018CB BKN030 BECMG 0813/0814 24008KT 4800 -TSRA BR BKN015 FEW018CB OVC030 FM081400 24008KT 4800 -RA BR BKN015 OVC030 BECMG 0821/0822 27008KT 9999 NSW BKN030 TN18/0821Z TX27/0906Z 
RKTE,TAF RKTE 081100Z 0812/0918 21006KT 9999 FEW030 BKN100 BECMG 0813/0814 21010KT 4800 -RA BR BKN030 OVC100 BECMG 0818/0819 21010KT 4800 -RA BR BKN015 OVC030 BECMG 0820/0821 30006KT 8000 BR SCT015 BKN030 BECMG 0900/0901 27008KT 9999 NSW SCT030 SCT200 TN16/0821Z TX29/0906Z 
RKTI,TAF RKTI 081100Z 0812/0918 27006KT 9999 BKN100 BKN180 BECMG 0814/0815 27006KT 4800 -RA BR BKN030 BKN100 BECMG 0817/0818 27006KT 3200 -RA BR BKN015 BKN030 BECMG 0823/0824 30006KT 4800 BR BKN030 BECMG 0902/0903 30006KT 9999 NSW SCT050 SCT200 TN18/0821Z TX29/0906Z 
RKTN,TAF RKTN 081100Z 0812/0918 13006KT 9999 SCT030 BKN150 TN18/0821Z TX32/0906Z BECMG 0817/0818 9000 -RA BKN030 BKN200 BECMG 0818/0819 9999 NSW
RKTP,TAF AMD RKTP 081230Z 0812/0918 21006KT 9000 BR BKN012 BKN150 BECMG 0814/0815 24006KT 4800 BR BKN010 BECMG 0817/0818 24006KT 1600 BR BKN010 BECMG 0823/0824 24006KT 4800 BR SCT030 VIS 9999 NSW AFT 0903 TN17/0821Z TX27/0906Z 
RKTU,TAF RKTU 081100Z 0812/0918 21006KT 9999 SCT040 BKN100 TN16/0821Z TX28/0906Z BECMG 0815/0816 27006KT 4800 -RA BR BKN030 OVC100 BECMG 0821/0822 CAVOK
RKTY,TAF RKTY 081100Z 0812/0918 28006KT 9999 SCT030 SCT200 BECMG 0814/0815 28006KT 9999 BKN030 BECMG 0823/0824 28006KT 9999 SCT030 TN18/0821Z TX29/0906Z 
ROAH,TAF ROAH 081105Z 0812/0918 20015KT 9999 FEW008 BKN012 TEMPO 0815/0821 FEW006 BKN008 TEMPO 0912/0918 FEW006 BKN008
RODN,TAF RODN 080800Z 0808/0914 24009KT 9999 FEW035 SCT150 QNH2974INS BECMG 0812/0813 20010G15KT 9999 SCT030 BKN100 QNH2970INS BECMG 0821/0822 21009KT 9999 BKN025 QNH2968INS TEMPO 0903/0908 BKN010 BECMG 0909/0910 13009KT 9999 SCT025 BKN070 BKN120 QNH2971INS TX30/0902Z TN26/0820Z
ROIG,TAF ROIG 081105Z 0812/0918 20010KT 9999 FEW008 BKN012 TEMPO 0912/0918 FEW006 BKN008
ROTM,TAF ROTM 0809/0909 21010KT 9999 FEW015 BKN120 QNH2976INS TEMPO 0809/0814 21012G20KT BECMG 0814/0816 19010KT 9999 BKN015 BKN110 QNH2974INS FM090000 20010KT 9999 SCT015 BKN120 QNH2970INS T25/08010 T30/0902Z
RPLB,TAF RPLB 081100Z 0812/0912 22006KT 9999 FEW018 SCT080 TX31/0906Z TN25/0821Z TEMPO 0812/0818 21012KT 9000 -TSRA FEW017CB SCT018 BKN070
RPLC,TAF RPLC 081100Z 0812/0918 36007KT 9999 SCT020 BKN100 TX34/0906Z TN25/0821Z TEMPO 0812/0818 32006KT 7000 -TSRA FEW015CB SCT080 OVC100
RPLI,TAF RPLI 081100Z 0812/0912 16004KT 9999 FEW018 TEMPO 0812/0818 25005KT 8000 TS VCSH FEW017CB BKN080 BECMG 0900/0904 22012KT
RPLL,TAF RPLL 081100Z 0812/0918 26005KT 9999 SCT025 SCT100 TX33/0906Z TN27/0821Z TEMPO 0812/0818 28010KT FEW023CB BKN100 BECMG 0900/0903 25010KT TEMPO 0906/0912 24015KT -SHRA SCT023CB BKN100
RPMD,TAF RPMD 081100Z 0812/0912 30004KT 9999 FEW016 SCT090 TEMPO 0812/0818 VRB01KT 8000 -TSRA FEW015CB BKN090 BECMG 0900/0902 18007KT
RPMR,TAF RPMR 081100Z 0812/0912 29004KT 9999 FEW018 SCT080 TEMPO 0812/0818 VRB02KT FEW017CB SCT080 BECMG 0900/0903 18006KT
RPMZ,TAF RPMZ 081100Z 0812/0912 25005KT 9999 FEW017 SCT090 TEMPO 0812/0818 VRB02KT FEW016CB SCT090
RPVD,TAF RPVD 081100Z 0812/0912 22005KT 9999 FEW015 TEMPO 0812/0818 09006KT VCSH SCT015CB BKN080
RPVM,TAF RPVM 081100Z 0812/0918 22009KT 9999 FEW020 BKN300 TEMPO 0812/0818 8000 -SHRA FEW018CB OVC100
RPVP,TAF RPVP 081100Z 0812/0912 27006KT 9999 FEW019 BKN080 TEMPO 0812/0818 18004KT FEW017CB BKN080
SAAR,TAF SAAR 081100Z 0812/0912 08005KT 3000 BR FEW040 SCT070 TX26/0818Z TN19/0812Z BECMG 0813/0815 36015KT 9999 NSW SCT030 BECMG 0822/0900 CAVOK
SABE,TAF SABE 081100Z 0812/0912 35010KT 4000 BR OVC004 TX23/0818Z TN18/0912Z BECMG 0813/0815 9999 NSW SCT020 BECMG 0821/0823 CAVOK BECMG 0905/0907 35015G25KT 9999 SCT025
SACO,TAF SACO 081100Z 0812/0912 VRB03KT 0100 FG NSC TX29/0818Z TN14/0910Z BECMG 0813/0816 35015KT CAVOK
SADF,TAF SADF 081100Z 0812/0912 02005KT 4000 BR SCT005 BKN035 TX22/0818Z TN18/0910Z BECMG 0814/0816 8000 BKN040 BECMG 0817/0819 34010KT CAVOK
SAEZ,TAF SAEZ 081100Z 0812/0912 03005KT 3000 BR OVC006 TX23/0818Z TN18/0910Z BECMG 0815/0817 34010KT 9999 NSW BKN010 BECMG 0817/0819 9999 SCT015 BECMG 0900/0903 34015G25KT TEMPO 0909/0912 5000 RA BKN010
SAME,TAF SAME 081100Z 0812/0912 VRB03KT 9999 FEW040 TX24/0819Z TN08/0911Z BECMG 0815/0817 05010KT BECMG 0900/0902 VRB03KT BECMG 0903/0905 29020G40KT 3000 DS FEW030 PROB40 TEMPO 0903/0908 29025G40KT 1000 DS
SANR,TAF SANR 081100Z 0812/0912 03005KT 0400 FG OVC006 TX29/0819Z TN18/0910Z BECMG 0813/0815 02015KT 9999 NSW SCT030 BECMG 0910/0912 36005KT 0600 FG BKN006
SANT,TAF SANT 081100Z 0812/0912 VRB03KT 2500 BR SCT020 TX30/0818Z TN16/0910Z BECMG 0813/0816 VRB03KT 5000 FU NSC BECMG 0903/0906 35005KT 2000 BR SCT010
SARE,TAF SARE 081100Z 0812/0912 05010KT 8000 NSC TX30/0818Z TN18/0910Z
SARF,TAF COR SARF 081100Z 0812/0912 07005KT 1500 BR NSC TX30/0818Z TN18/0910Z BECMG 0813/0814 8000 NSC
SARI,TAF SARI 081100Z 0812/0912 07005KT CAVOK TX27/0818Z TN15/0910Z PROB30 0908/0912 00000KT 0500 FG NSC
SARP,TAF SARP 081100Z 0812/0912 09010KT CAVOK TX29/0818Z TN17/0910Z
SASA,TAF SASA 081100Z 0812/0912 VRB03KT 0300 FG OVC010 TX25/0818Z TN11/0910Z BECMG 0813/0816 05010KT 9999 NSW SCT020 BECMG 0823/0902 32005KT 4000 BR BKN010
SASJ,TAF SASJ 081100Z 0812/0912 27005KT CAVOK TX28/0818Z TN14/0910Z BECMG 0813/0816 07010KT 9999 SCT030 BECMG 0900/0903 32005KT 5000 BR BKN015
SAVC,TAF SAVC 081100Z 0812/0912 32030G45KT CAVOK TX16/0818Z TN05/0906Z BECMG 0815/0817 27030G42KT PROB40 TEMPO 0900/0904 9999 -SHRA SCT030 SCT080 BECMG 0904/0906 25020G30KT 
SAVT,TAF SAVT 081100Z 0812/0912 34020G35KT CAVOK TX24/0818Z TN07/0906Z BECMG 0813/0815 30025G45KT BECMG 0822/0824 25035G50KT BECMG 0908/0910 25020G30KT
SAWE,TAF SAWE 081100Z 0812/0912 VRB03KT CAVOK TX02/0818Z TNM02/0812Z BECMG 0814/08916 20010KT 9999 SCT020 BECMG 0821/0823 CAVOK 
SAWG,TAF SAWG 081100Z 0812/0912 VRB03KT CAVOK TX03/0818Z TNM02/0812Z BECMG 0813/0814 18015KT FEW015 BKN025 OVC050 PROB40 TEMPO 0813/0818 -RASN BKN015 OVC040 BECMG 0820/0822 23015KT SCT025 SCT090 BECMG 0908/0910 25025G35KT 
SAWH,TAF SAWH 081100Z 0812/0912 30005KT 9999 SCT030 TX03/0817Z TNM01/812Z BECMG 0824/0902 VRB03KT 3000 SNRA OVC010 
SAZM,TAF SAZM 081100Z 0812/0912 32005KT 0500 FG OVC002 TX19/0820Z TN11/0812Z BECMG 0814/0815 5000 BR BKN008 BKN035 BECMG 0817/0818 34015KT 9999 NSW SCT020 PROB40 TEMPO 0908/0912 23015KT 5000 TSRA SCT008 FEW040CB OVC050
SAZN,TAF SAZN 081100Z 0812/0912 VRB05KT CAVOK TX23/0818Z TN05/0912Z BECMG 0813/0816 30025G45KT 9999 SCT030 BKN080 TEMPO 0900/0905 5000 DZ BECMG 0910/0912 25015KT
SAZS,TAF SAZS 081100Z 0812/0912 30010G30KT 3500 +RA SCT005 BKN025 BKN050 TX10/0818Z TN00/0911Z BECMG 0819/0823 27010KT 9999 NSW SCT020 BECMG 0904/0906 CAVOK BECMG 0908/0910 3010G30KT 9999 SCT050
SBAC,TAF SBAC 080800Z 0812/0824 12007KT 9999 SCT025 TX32/0817Z TN27/0824Z BECMG 0814/0816 06010KT RMK PHI
SBAF,TAF SBAF 080900Z 0812/0824 03007KT CAVOK TX25/0817Z TN20/0823Z BECMG 0821/0823 9999 FEW030 RMK PEC
SBAN,TAF SBAN 080900Z 0812/0824 09008KT CAVOK TN22/0812Z TX26/0817Z RMK PEC
SBAR,TAF SBAR 080800Z 0812/0912 13010KT 8000 BKN023 TX28/0816Z TN23/0908Z BECMG 0902/0904 25005KT BECMG 0910/0912 13010KT RMK PHI
SBAT,TAF SBAT 080831Z 0812/0824 13005KT CAVOK TX34/0817Z TN26/0824Z BECMG 0815/0817 07005KT SCT035 RMK PHP
SBBE,TAF SBBE 080831Z 0812/0912 13005KT 8000 SCT020 TX32/0817Z TN25/0909Z PROB30 0812/0814 BKN014 BECMG 0815/0817 03005KT SCT025 FEW030TCU PROB30 TEMPO 0819/0823 4000 TSRA SCT030 FEW035CB BECMG 0900/0902 10005KT CAVOK BECMG 0910/0912 13005KT FEW017 RMK PHP
SBBG,TAF SBBG 080900Z 0812/0824 34008KT 8000 SCT030 TX26/0817Z TN19/0823Z PROB40 TEMPO 0812/0814 TSRA SCT030 FEW035CB BECMG 0820/0822 CAVOK RMK PFD
SBBI,TAF SBBI 080900Z 0812/0824 33005KT 5000 BR FEW006 TX25/0817Z TN14/0823Z BECMG 0812/0813 34006KT CAVOK BECMG 0814/0816 9999 FEW030 RMK PEC
SBBR,TAF SBBR 080830Z 0812/0912 09008KT CAVOK TX26/0818Z TN13/0909Z BECMG 0813/0815 SCT045 BECMG 0816/0818 05005KT BECMG 0819/0821 12005KT CAVOK TEMPO 0901/0906 VRB02KT BECMG 0908/0910 09008KT RMK PGD
SBBU,TAF SBBU 080745Z 0812/0824 12008KT 7000 FEW004 TN18/0812Z TX28/0818Z BECMG 0815/0817 06005KT 9000 FEW025 BECMG 0821/0823 20002KT RMK PGM
SBBV,TAF SBBV 080831Z 0812/0912 05007KT 8000 SCT023 FEW035TCU TX29/0817Z TN23/0910Z TEMPO 0812/0817 02008KT 6000 SHRA SCT007 BKN012 FEW035TCU BECMG 0819/0821 21005KT SCT030 FEW035TCU BECMG 0822/0824 32005KT TS FEW025 FEW030CB BECMG 0904/0906 26005KT NSW FEW020 FEW025TCU BECMG 0908/0910 33003KT SCT020 FEW030TCU RMK PHP
SBBW,TAF SBBW 080830Z 0812/0824 00000KT CAVOK TN21/0812Z TX33/0818Z BECMG 0812/0814 13004KT TEMPO 0818/0820 20003KT FEW030 BECMG 0820/0822 00000KT RMK PGD
SBCB,TAF SBCB 080800Z 0812/0824 03005KT CAVOK TX26/0817Z TN20/0824Z BECMG 0814/0816 09010KT RMK PHI
SBCF,TAF SBCF 080830Z 0812/0912 15005KT CAVOK TX24/0818Z TN11/0909Z BECMG 0812/0814 09005KT TEMPO 0816/0818 VRB03KT FEW030 BECMG 0819/0821 14005KT TEMPO 0909/0911 5000 BCFG BR NSC RMK PGD
SBCG,TAF SBCG 080830Z 0812/0912 09005KT CAVOK TX28/0818Z TN15/0909Z BECMG 0812/0814 05007KT BECMG 0815/0817 35005KT BECMG 0820/0822 08005KT RMK PGD
SBCJ,TAF SBCJ 080831Z 0812/0824 13005KT 9999 FEW020 TX30/0818Z TN25/0824Z BECMG 0814/0816 SCT030 RMK PHP
SBCO,TAF SBCO 080900Z 0812/0824 33005KT CAVOK TX27/0817Z TN18/0823Z RMK PFD
SBCP,TAF SBCP 080800Z 0812/0824 33005KT 8000 NSC TX28/0817Z TN19/0824Z BECMG 0817/0819 09010KT BECMG 0821/0823 00000KT RMK PHI
SBCR,TAF SBCR 080830Z 0812/0912 09005KT CAVOK TX30/0818Z TN18/0909Z BECMG 0814/0816 06005KT BECMG 0820/0822 08005KT RMK PGD
SBCT,TAF SBCT 080900Z 0812/0912 30006KT 6000 FEW006 TX22/0817Z TN13/0907Z BECMG 0812/0813 34006KT CAVOK BECMG 0818/0819 27008KT BECMG 0901/0903 6000 NSC PROB30 TEMPO 0906/0911 0400 FG OVC001 RMK PEC
SBCY,TAF SBCY 080831Z 0812/0912 31005KT CAVOK TX33/0818Z TN17/0909Z BECMG 0819/0821 26005KT SCT030 BECMG 0822/0824 17005KT CAVOK BECMG 0904/0906 30005KT RMK PHP
SBCZ,TAF AMD SBCZ 080902Z 0812/0912 00000KT 0300 FG VV002 TX32/0819Z TN23/0909Z BECMG 0814/0816 13005KT 9999 NSW SCT024 BECMG 0820/0822 17005KT FEW030 FEW035TCU BECMG 0900/0902 22005KT CAVOK BECMG 0904/0906 00000KT TEMPO 0910/0912 0300 FG VV002 RMK PHP
SBDN,TAF SBDN 080745Z 0812/0824 09007KT 8000 FEW020 TN18/0812Z TX28/0818Z BECMG 0816/0818 35005KT FEW025 BECMG 0819/0821 25004KT FEW025 BECMG 0821/0823 14005KT RMK PGM
SBEG,TAF SBEG 080831Z 0812/0912 02005KT 9999 FEW020 TX30/0816Z TN24/0910Z PROB40 0812/0814 0300 FG VV003 BECMG 0814/0816 09005KT SCT030 BECMG 0816/0818 17005KT SCT023 FEW030TCU PROB30 TEMPO 0819/0823 05010KT TS SCT030 FEW035CB BECMG 0900/0902 33005KT CAVOK BECMG 0907/0909 01005KT RMK PHP
SBFI,TAF SBFI 080900Z 0812/0912 03008KT CAVOK TX25/0817Z TN15/0906Z BECMG 0817/0818 04008KT RMK PEC
SBFL,TAF SBFL 080900Z 0812/0912 24006KT CAVOK TX26/0817Z TN15/0908Z BECMG 0812/0814 32008KT BECMG 0815/0817 36012KT 9999 FEW025 BECMG 0821/0823 33006KT CAVOK BECMG 0903/0905 8000 SCT015 PROB30 0906/0909 BKN010 BECMG 0909/0911 30010KT CAVOK RMK PEJ
SBFN,TAF SBFN 080800Z 0812/0824 12010KT 9999 SCT022 TX30/0815Z TN27/0824Z RMK PHI
SBFZ,TAF SBFZ 080800Z 0812/0912 15008KT 9999 SCT025 TX31/0817Z TN26/0909Z BECMG 0812/0814 11018KT BECMG 0820/0822 10008KT BECMG 0906/0908 16008KT RMK PHI
SBGL,TAF SBGL 080800Z 0812/0918 36005KT 8000 NSC TX28/0818Z TN17/0908Z BECMG 0816/0818 14010KT BECMG 0822/0824 08007KT BECMG 0904/0906 36005KT BECMG 0915/0917 14010KT RMK PHI
SBGO,TAF SBGO 080830Z 0812/0912 00000KT CAVOK TX28/0818Z TN15/0909Z BECMG 0813/0815 06005KT TEMPO 0815/0818 FEW045 BECMG 0819/0821 13005KT TEMPO 0901/0908 VRB02KT RMK PGD
SBGR,TAF SBGR 080745Z 0812/0918 06007KT 7000 FEW004 TX25/0818Z TN11/0908Z BECMG 0814/0816 06005KT 8000 FEW020 BECMG 0816/0818 33006KT FEW025 BECMG 0821/0823 09002KT BECMG 0823/0901 06002KT BECMG 0903/0905 FEW011 BECMG 0909/0911 06008KT BECMG 0912/0914 FEW018 BECMG 0915/0917 20005KT FEW025 RMK PGM
SBGW,TAF SBGW 080900Z 0812/0824 01008KT 6000 SCT015 TX24/0817Z TN14/0823Z BECMG 0813/0815 01008KT 9999 SCT020 RMK PEC
SBIH,TAF SBIH 080831Z 0812/0824 05010KT 9999 SCT010 TX34/0817Z TN26/0824Z PROB30 0812/0814 4000 BR BKN007 BECMG 0816/0818 08015KT SCT020 FEW025TCU TEMPO 0818/0824 6000 TS SCT020 FEW025CB RMK PHP
SBIL,TAF SBIL 080830Z 0812/0824 23012KT 9999 BKN020 TX28/0817Z TN23/0823Z TEMPO 0812/0820 VCSH SCT025 FEW030TCU RMK PGD
SBIZ,TAF SBIZ 080831Z 0812/0824 12005KT 9999 FEW020 TX35/0817Z TN27/0824Z BECMG 0814/0816 15010KT SCT030 RMK PHP
SBJE,TAF SBJE 080800Z 0812/0824 07010KT 9999 BKN017 TX34/0817Z TN28/0824Z RMK PHI
SBJP,TAF SBJP 080800Z 0812/0912 13010KT 8000 BKN020 TX29/0816Z TN24/0908Z TEMPO 0812/0815 4000 SHRA BKN012 FEW025TCU BECMG 0900/0902 19005KT TEMPO 0902/0910 4000 RA BKN008 BECMG 0910/0912 13007KT RMK PHI
SBJV,TAF SBJV 080900Z 0812/0824 30003KT 7000 BKN005 TN16/0812Z TX25/0817Z BECMG 0812/0814 09005KT 9999 SCT010 BECMG 0814/0816 CAVOK BECMG 0818/0820 02006KT 9999 FEW020 BECMG 0821/0823 33004KT 8000 SCT012 RMK PEJ
SBKG,TAF SBKG 080800Z 0812/0824 12010KT 9999 BKN020 TX29/0817Z TN23/0824Z TEMPO 0813/0819 4000 RA BKN013 RMK PHI
SBKP,TAF SBKP 080745Z 0812/0912 09006KT 8000 FEW025 TX25/0818Z TN14/0910Z BECMG 0813/0815 04005KT BECMG 0815/0817 01005KT BECMG 0817/0819 32005KT BECMG 0819/0821 25005KT BECMG 0821/0823 20005KT BECMG 0823/0901 12006KT BECMG 0901/0903 12009KT RMK PGM
SBLO,TAF SBLO 080745Z 0812/0824 21004KT 9999 FEW025 TN17/0812Z TX26/0818Z BECMG 0814/0816 10004KT BECMG 0818/0820 11002KT BECMG 0822/0824 18002KT RMK PGM
SBMA,TAF SBMA 080831Z 0812/0824 33005KT 9999 SCT020 TX34/0817Z TN25/0824Z BECMG 0816/0818 13005KT BKN025 BECMG 0821/0823 00000KT CAVOK RMK PHP
SBME,TAF SBME 080800Z 0812/0824 34005KT CAVOK TX28/0815Z TN17/0824Z BECMG 0813/0815 10010KT BECMG 0821/0823 34005KT RMK PHI
SBMN,TAF SBMN 080900Z 0812/0824 03004KT 9999 SCT012 TX31/0816Z TN27/0823Z BECMG 0812/0814 13004KT BKN020 BECMG 0814/0816 07005KT SCT023 FEW027TCU PROB30 0818/0821 26005KT 8000 -TSRA SCT023 FEW027CB BECMG 0821/0823 04003KT FEW020 RMK PEJ
SBMO,TAF SBMO 080800Z 0812/0912 13010KT 7000 BKN020 TX29/0816Z TN22/0908Z TEMPO 0812/0814 4000 RA BR BKN007 BECMG 0822/0824 27005KT TEMPO 0905/0910 4000 RA BR BKN010 BECMG 0910/0912 13010KT RMK PHI
SBMQ,TAF SBMQ 080831Z 0812/0912 10010KT 9999 BKN015 TX32/0817Z TN25/0909Z BECMG 0812/0814 09008KT FEW025 FEW030TCU PROB30 TEMPO 0821/0823 07005KT TS FEW030 FEW035CB BECMG 0900/0902 04005KT SCT010 BECMG 0907/0909 31005KT SCT016 BECMG 0910/0912 10010KT BKN017 RMK PHP
SBNF,TAF SBNF 080900Z 0812/0912 25008KT 4000 BR BKN003 TX24/0817Z TN15/0908Z BECMG 0812/0814 9999 NSW FEW020 BECMG 0818/0820 06007KT BECMG 0900/0902 26005KT 8000 SCT012 BECMG 0907/0909 0400 FG BKN002 BECMG 0909/0911 26008KT 4000 BR SCT003 RMK PEJ
SBNT,TAF SBNT 080800Z 0812/0824 14010KT 8000 BKN023 TX30/0816Z TN26/0824Z TEMPO 0812/0814 4000 RA BKN012 FEW025TCU RMK PHI
SBOI,TAF SBOI 080831Z 0812/0824 12005KT 8000 BKN020 TX26/0817Z TN25/0824Z PROB30 0812/0814 34005KT 4000 BR BKN006 BECMG 0816/0818 13005KT 2000 RA SCT020 FEW025TCU RMK PHP
SBPA,TAF SBPA 080900Z 0812/0912 33005KT CAVOK TX27/0817Z TN14/0909Z BECMG 0818/0820 15005KT BECMG 0900/0902 33005KT RMK PFD
SBPB,TAF SBPB 080800Z 0812/0824 12010KT 9999 SCT017 TX34/0817Z TN27/0824Z BECMG 0815/0817 06010KT RMK PHI
SBPJ,TAF SBPJ 080800Z 0812/0912 06007KT CAVOK TX34/0818Z TN22/0909Z BECMG 0814/0816 12005KT RMK PHI
SBPK,TAF SBPK 080900Z 0812/0912 34006KT 8000 SCT030 TX27/0817Z TN17/0909Z PROB30 TEMPO 0812/0814 TSRA SCT030 FEW035CB BECMG 0814/0816 CAVOK RMK PFD
SBPL,TAF SBPL 080800Z 0812/0912 18010KT 9999 SCT025 TX31/0818Z TN21/0908Z RMK PHI
SBPP,TAF SBPP 080745Z 0812/0912 01005KT 8000 FEW020 TX26/0819Z TN13/0908Z BECMG 0814/0816 02009KT BECMG 0817/0819 01004KT BECMG 0820/0822 03002KT RMK PGM
SBPS,TAF SBPS 080800Z 0812/0912 27003KT 8000 SCT015 TX26/0817Z TN21/0909Z BECMG 0813/0815 15010KT TEMPO 0817/0822 4000 RA BKN012 FEW025TCU BECMG 0822/0824 24005KT TEMPO 0906/0912 4000 DZ BR BKN007 RMK PHI
SBPV,TAF SBPV 080831Z 0812/0912 32005KT 9999 FEW020 TX32/0819Z TN23/0910Z PROB30 0812/0814 5000 BR BKN005 PROB30 TEMPO 0818/0823 21005KT TS SCT030 FEW035CB BECMG 0900/0902 31005KT FEW025 FEW030TCU BECMG 0906/0908 00000KT 3000 BR BKN005 RMK PHP
SBRB,TAF SBRB 080831Z 0812/0824 24005KT 4000 BR BKN010 TX32/0819Z TN24/0824Z BECMG 0814/0816 32005KT 9999 NSW BKN030 BECMG 0818/0820 SCT030 FEW035TCU RMK PHP
SBRF,TAF SBRF 080800Z 0812/0912 20005KT 8000 BKN018 TX28/0816Z TN24/0908Z TEMPO 0812/0814 4000 RA BKN010 FEW025TCU BECMG 0814/0816 14010KT BECMG 0822/0824 21005KT TEMPO 0902/0912 4000 RA BR BKN010 RMK PHI
SBRJ,TAF SBRJ 080800Z 0812/0824 01005KT 7000 FEW010 TN20/0812Z TX25/0817Z BECMG 0815/0817 16010KT RMK PHI
SBRP,TAF SBRP 080830Z 0812/0824 11003KT CAVOK TN18/0812Z TX28/0818Z BECMG 0814/0816 03005KT BECMG 0820/0822 11005KT RMK PGD
SBSC,TAF SBSC 080900Z 0812/0824 01008KT CAVOK TX26/0817Z TN21/0823Z RMK PEC
SBSG,TAF SBSG 080800Z 0812/0912 13010KT 8000 BKN020 TX29/0817Z TN23/0909Z TEMPO 0812/0814 4000 RA BKN012 FEW023TCU BECMG 0901/0903 19005KT TEMPO 0906/0912 3500 RA BKN010 FEW023TCU RMK PHI
SBSJ,TAF SBSJ 080745Z 0812/0824 03004KT 2700 BR BKN004 TN14/0812Z TX24/0818Z BECMG 0814/0816 35004KT 7000 NSW FEW011 BECMG 0816/0818 8000 FEW014 BECMG 0818/0820 18004KT FEW025 BECMG 0821/0823 15002KT RMK PGM
SBSL,TAF SBSL 080800Z 0812/0912 08007KT 9999 SCT020 TX32/0818Z TN26/0909Z BECMG 0816/0818 02010KT PROB40 0819/0823 TS BKN015 FEW025CB BECMG 0823/0901 08005KT PROB30 0908/0911 14005KT 4000 BR BKN010 RMK PHI
SBSM,TAF SBSM 080900Z 0812/0824 35005KT CAVOK TX27/0817Z TN17/0823Z RMK PFD
SBSN,TAF SBSN 080831Z 0812/0912 08010KT 9999 SCT016 FEW020TCU TX29/0818Z TN24/0906Z BECMG 0814/0816 10015KT FEW035 TEMPO 0819/0823 16005KT TS SCT020 FEW030CB BECMG 0900/0902 17005KT FEW017 BECMG 0907/0909 08010KT RMK PHP
SBSP,TAF SBSP 080745Z 0812/0824 03005KT 8000 FEW018 TX24/0818Z TN17/0824Z BECMG 0816/0818 33006KT FEW025 BECMG 0818/0820 30006KT BECMG 0821/0823 12005KT RMK PGM
SBSV,TAF SBSV 080830Z 0812/0912 16012KT 8000 SCT020 FEW023TCU TX26/0815Z TN22/0908Z TEMPO 0812/0816 4000 SHRA BR BKN005 FEW023TCU PROB30 TEMPO 0819/0904 7000 SHRA BKN015 FEW023TCU TEMPO 0906/0912 4000 SHRA BR BKN005 FEW023TCU RMK PGD
SBTD,TAF SBTD 080745Z 0812/0824 06005KT 9999 FEW025 TN18/0812Z TX26/0818Z BECMG 0813/0815 05007KT RMK PGM
SBTE,TAF SBTE 080800Z 0812/0824 13007KT 9999 FEW020 TX33/0818Z TN27/0824Z BECMG 0819/0821 19002KT PROB30 0821/0824 TS SCT025 FEW030CB RMK PHI
SBTF,TAF SBTF 080831Z 0812/0824 10005KT 8000 FEW012 TX29/0816Z TN25/0824Z BECMG 0813/0815 03005KT SCT020 BECMG 0816/0818 12005KT SCT015 FEW025TCU RMK PHP
SBTT,TAF AMD SBTT 080902Z 0812/0912 08005KT 5000 RA BR BKN004 BKN015 TX27/0820Z TN23/0911Z BECMG 0817/0819 30005KT 9999 NSW SCT015 BECMG 0900/0902 14005KT CAVOK PROB30 0909/0911 25005KT 3600 BR BKN006 RMK PHP
SBUG,TAF SBUG 080900Z 0812/0824 03007KT CAVOK TX27/0817Z TN20/0823Z RMK PFD
SBUL,TAF SBUL 080830Z 0812/0824 10008KT CAVOK TN18/0812Z TX25/0818Z BECMG 0812/0814 05008KT RMK PGD
SBUR,TAF SBUR 080830Z 0812/0824 05005KT CAVOK TN19/0812Z TX26/0818Z TEMPO 0815/0818 35005KT BECMG 0818/0820 16004KT RMK PGD
SBVH,TAF SBVH 080831Z 0812/0824 10005KT CAVOK TX29/0817Z TN23/0824Z BECMG 0816/0818 08005KT FEW030 RMK PHP
SBVT,TAF SBVT 080800Z 0812/0912 30005KT 9999 FEW020 TX27/0816Z TN17/0909Z BECMG 0813/0815 13010KT BECMG 0816/0818 06010KT BECMG 0821/0823 31005KT RMK PHI
SBYS,TAF SBYS 080900Z 0812/0824 06007KT CAVOK TN14/0812Z TX25/0817Z RMK PEC
SCAR,TAF SCAR 081010Z 0812/0912 33004KT 9999 OVC025 TX20/0818Z TN18/0910Z BECMG 0814/0816 22012KT FEW022 BECMG 0822/0824 22004KT OVC025 BECMG 0904/0906 03004KT
SCAT,TAF SCAT 081010Z 0812/0912 16004KT 7000 BKN008 TX18/0818Z TN14/0910Z BECMG 0815/0817 21010KT 9999 SCT015 BECMG 0820/0822 OVC015 BECMG 0902/0904 21004KT OVC009
SCBA,TAF SCBA 081046Z 0812/0912 30020KT 9999 BKN035 TX05/0817Z TNM02/0912Z BECMG 0817/0819 FEW040 BECMG 0903/0905 30010KT SCT030
SCCF,TAF SCCF 081010Z 0812/0912 11022KT CAVOK TX24/0818Z TN00/0910Z BECMG 0815/0816 11010KT BECMG 0817/0818 27018KT BECMG 0822/0824 27008KT BECMG 0901/0902 11010KT BECMG 0903/0905 11022KT
SCCH,TAF SCCH 081100Z 0812/0824 01015KT 8000 RA BKN010 TX12/0818Z TN08/0812Z BECMG 0814/0816 3000 RA BR TEMPO 0817/0821 1500 +RA OVC008
SCCI,TAF SCCI 081020Z 0812/0912 26010KT CAVOK TNM02/0812Z TX05/0818Z TEMPO 0820/0822 SCT035 BECMG 0902/0904 25022KT BKN040
SCCY,TAF SCCY 081058Z 0812/0824 VRB02KT 6000 -RA SCT010 BKN035 TX04/0812Z TN00/0824Z BECMG 0817/0819 28008G18KT 9999 NSW SCT040
SCDA,TAF SCDA 081010Z 0812/0912 14004KT 9999 BKN025 TX20/0818Z TN17/0910Z BECMG 0816/0818 21010KT FEW025 BECMG 0822/0824 OVC025 BECMG 0902/0904 13004KT
SCEL,TAF SCEL 081000Z 0812/0912 VRB02KT 0500 FG VV002 TX21/0818Z TN09/0910Z BECMG 0813/0815 4000 BR NSC BECMG 0816/0818 19010KT 7000 NSW SCT180 BECMG 0822/0900 20004KT BECMG 0901/0903 VRB02KT 3000 BR SCT010 BECMG 0908/0910 BKN120
SCFA,TAF SCFA 081010Z 0812/0912 12004KT 9999 OVC020 TX18/0818Z TN15/0910Z BECMG 0816/0818 20010KT SCT020 BECMG 0822/0824 OVC020 BECMG 0901/0903 15004KT
SCFM,TAF SCFM 081020Z 0812/0900 VRB02KT CAVOK TNM02/0812Z TX05/0818Z TEMPO 0812/0815 SCT022 BECMG 0814/0816 22015KT
SCGE,TAF SCGE 081100Z 0812/0824 36015KT 8000 RA BKN008 TX12/0818Z TN06/0812Z BECMG 0814/0816 3000 RA BR TEMPO 0815/0819 1500 +RA OVC005 BECMG 0821/0823 8000 NSW BKN012
SCGZ,TAF SCGZ 081020Z 0812/0900 25005KT 9999 SCT040 TNM02/0812Z TX03/0818Z TEMPO 0812/0816 VRB02KT 6000 SCT010 SCT035 BECMG 0822/0900 4000 SHSN BKN010 BKN025
SCHR,TAF SCHR 081020Z 0812/0900 33006KT 4000 RASN BKN012 TNM01/0812Z TX05/0818Z TEMPO 0812/0816 3000 SN RA BR BKN008 BKN018 BECMG 0818/0820 7000 SHSN SCT010 SCT022
SCIC,TAF SCIC 081100Z 0812/0824 36012KT 8000 BKN160 TX16/0817Z TN11/0813Z TEMPO 0812/0815 01005KT 4000 BR BKN010 BKN160 BECMG 0818/0820 BKN025 BKN140
SCIE,TAF SCIE 081000Z 0812/0912 01013KT 8000 DZ BKN008 BKN020 TX15/0818Z TN11/0910Z BECMG 0812/0814 35015G30KT 5000 RA BR BKN005 OVC015 TEMPO 0815/0821 3000 +RA BECMG 0901/0903 18008KT 8000 NSW SCT010 BKN050 BECMG 0908/0910 FEW010 BKN050
SCIP,TAF SCIP 081045Z 0812/0912 17015KT 9999 SCT040 TN16/0813Z TX20/0819Z TEMPO 0812/0818 17017G27KT 5000 -SHRA SCT015 BKN025
SCIR,TAF SCIR 081100Z 0812/0824 34025KT 8000 BKN010 TX17/0818Z TN15/0812Z TEMPO 0815/0819 6000 SHRA OVC008 BECMG 0819/0821 19015KT BKN020
SCJO,TAF SCJO 081053Z 0812/0824 35016KT 5000 RA SCT008 OVC025 TX15/0813Z TN04/0824Z BECMG 0816/0818 27011KT 7000 -SHRA BKN040 BECMG 0821/0823 9999 NSW FEW030
SCMK,TAF SCMK 081056Z 0812/0824 26016KT 7000 -SHRA SCT015 BKN030 TX09/0812Z TN06/0822Z BECMG 0818/0820 9999 NSW FEW025
SCNT,TAF SCNT 081020Z 0812/0900 33004KT 9999 SCT012 BKN020 TNM01/0812Z TX05/0818Z TEMPO 0812/0815 5000 SHSN BECMG 0814/0816 27008KT SCT035
SCPQ,TAF SCPQ 081054Z 0812/0824 27012KT 6000 -RA SCT005 OVC015 TX12/0812Z TN04/0824Z BECMG 0813/0815 9999 NSW BKN015 TEMPO 0816/0819 7000 -SHRA BECMG 0821/0823 FEW025
SCQP,TAF SCQP 081045Z 0812/0912 36020G30KT 5000 RA SCT015 OVC025 TX16/0818Z TN03/0911Z BECMG 0816/0818 29014KT 7000 SHRA BKN030 BECMG 0900/0902 35004KT 9999 NSW FEW030 BECMG 0906/0908 BKN030
SCRD,TAF SCRD 081100Z 0812/0824 08003KT 8000 BKN010 TX15/0818Z TN10/0812Z TEMPO 0812/0815 3000 BR BKN008 BECMG 0816/0818 36010KT
SCRG,TAF SCRG 081100Z 0812/0824 VRB02KT 8000 SCT160 TX19/0818Z TN08/0812Z TEMPO 0812/0816 5000 BR SCT010 SCT160 BECMG 0816/0818 02010KT
SCSE,TAF SCSE 081000Z 0812/0912 10004KT 8000 BKN012 TX17/0818Z TN10/0910Z BECMG 0815/0817 30010KT BECMG 0822/0900 VRB02KT SCT008 BKN010 BECMG 0904/0906 10004KT FEW008
SCSN,TAF SCSN 081100Z 0812/0824 07010KT 8000 BKN015 TX14/0817Z TN10/0812Z TEMPO 0812/0815 01004KT 4000 BR BKN008 BECMG 0816/0818 35013KT
SCTB,TAF SCTB 081100Z 0812/0824 VRB02KT 8000 NSC TX20/0819Z TN10/0812Z BECMG 0815/0817 24008KT SCT160
SCTE,TAF SCTE 081046Z 0812/0912 35015KT 7000 -RA SCT008 OVC025 TX13/0812Z TN03/0904Z BECMG 0813/0815 27013KT 5000 SHRA BKN020 BECMG 0820/0822 9999 NSW FEW030 BECMG 0902/0904 35005KT BKN040 BECMG 0908/0910 35015KT 7000 -RA SCT020 OVC060
SCTN,TAF SCTN 081055Z 0812/0824 31022KT 5000 RA SCT006 OVC012 TX12/0812Z TN04/0824Z BECMG 0813/0815 26010KT 7000 SHRA SCT015 BKN035
SCVD,TAF SCVD 081052Z 0812/0824 35030G42KT 4000 RA SCT006 OVC012 TX14/0812Z TN07/0824Z BECMG 0816/0818 27014KT 7000 SHRA BKN015 OVC050 BECMG 0822/0824 24004KT 9999 NSW FEW030
SCVM,TAF SCVM 081000Z 0812/0912 10004KT 8000 BKN012 TX17/0818Z TN12/0910Z TEMPO 0812/0815 3000 BR BKN008 BECMG 0815/0817 33010KT BECMG 0821/0823 01008KT BKN010 OVC020 BECMG 0904/0906 10004KT 6000 RA BKN007 BKN020
SEGU,SEGU 081030Z 0812/0912 22008KT 9999 SCT023 BKN100 TEMPO 0820/0822 SHRA SCT026 BKN100 BECMG 0900/0902 FEW013 BKN023 BKN100 BECMG 0905/0907 06006KT BKN013 BKN023 TX32/0820Z TN25/0910Z
SELT,SELT 081030Z 0812/0912 17005KT 9999 FEW010 BKN023 BECMG 0813/0815 18015KT SCT026 BKN100 TEMPO 0821/0823 SHRA FEW026TCU BKN030 BECMG 0900/0902 20005KT BKN010 BKN023 TX18/0819Z TN07/0911Z
SEMT,SEMT 081030Z 0812/0912 16008KT 9999 BKN020 BECMG 0817/0819 22014KT BECMG 0900/0902 21004KT SCT020 SCT090 TX30/0820Z TN24/0910Z
SEQM,SEQM 081030Z 0812/0912 VRB03KT 9999 SCT030 BKN100 BECMG 0817/0819 36012KT TEMPO 0820/0822 FEW026TCU BKN030 BECMG 0900/0902 03004KT SCT005 BKN020 TEMPO 0908/0910 5000 BCFG BKN005 BKN020 TX23/0819Z TN11/0911Z
SGAS,TAF SGAS 081035Z 0812/0912 VRB03KT CAVOK TX30/0819Z TN16/0910Z BECMG 0815/0818 06012KT
SGCO,TAF SGCO 081035Z 0812/0912 05005KT CAVOK TX30/0819Z TN19/0910Z BECMG 0817/0820 02010KT
SGEN,TAF SGEN 081035Z 0812/0912 02008KT CAVOK TX29/0819Z TN16/0910Z
SGES,TAF SGES 081035Z 0812/0912 VRB03KT 1000 FG NSC TX27/0819Z TN15/0910Z TEMPO 0813/0815 06003KT 5000 BR NSC BECMG 0816/0819 05012KT CAVOK
SKAR,TAF SKAR 081030Z 0812/0912 00000KT 9999 SCT023 SCT090 TEMPO 0812/0814 4000 BCFG BKN010 TEMPO 0822/0901 8000 VCSH SCT017TCU BKN080 TX29/0818Z TN19/0910Z
SKBG,TAF SKBG 081030Z 0812/0912 VRB02KT 4000 BCFG SCT008 BECMG 0815/0817 32010KT 999 NSW SCT015 PROB40 TEMPO 0821/0901 4000 TSRA SCT015CB BECMG 0901/0903 VRB02KT SCT015 PROB40 TEMPO 0905/0908 DZ BKN008 TX27/0818Z TN19/0911Z
SKBO,TAF SKBO 081030Z 0812/0912 VRB02KT 9999 FEW017 BECMG 0815/0817 15010KT SCT020 BECMG 0901/0903 VRB02KT SCT015 TX20/0818Z TN09/0910Z
SKBQ,TAF SKBQ 081030Z 0812/0912 02008KT 9999 FEW015 PROB40 TEMPO 0812/0814 5000 BR BKN010 TEMPO 0815/0818 TSRA SCT012CB TEMPO 0820/0824 TSRA SCT010CB TX34/0819Z TN26/0909Z
SKCC,TAF SKCC 081030Z 0812/0912 18015KT 9999 FEW020 TX31/0818Z TN25/0910Z
SKCG,TAF SKCG 081030Z 0812/0912 02007KT 9999 FEW017 TEMPO 0822/0902 TSRA FEW015CB TX34/0819Z TN26/0909Z
SKCL,TAF SKCL 081030Z 0812/0912 VRB03KT 9999 SCT030 SCT120 TEMPO 0821/0901 32010KT SCT020TCU TX31/0819Z TN20/0910Z
SKLT,TAF SKLT 081030Z 0812/0912 VRB02KT 9999 SCT015 PROB40 TEMPO 0818/0821 TSRA SCT015CB TX28/0819Z TN23/0911Z
SKPE,TAF SKPE 081030Z 0812/0912 08004KT 9999 SCT020 SCT090 TEMPO 0822/0901 TSRA SCT017CB BKN080 TX28/0819Z TN18/0911Z
SKRG,TAF SKRG 081030Z 0812/0912 VRB02KT 5000 DZ BCFG BKN010 BECMG 0813/0815 13010KT 9999 NSW SCT015 PROB40 TEMPO 0819/0822 RA SCT020CB BECMG 0900/0902 VRB02KT TEMPO 0902/0904 RA BKN010CB TEMPO 0908/0912 4000 RA BCFG BKN005 TX25/0819Z TN14/0910Z
SKSM,TAF SKSM 081030Z 0812/0912 04005KT 9999 FEW020 PROB30 TEMPO 0819/0823 DZRA SCT017CB TX34/0819Z TN26/0910Z
SKSP,TAF SKSP 081030Z 0812/0912 05005KT 9999 FEW017 PROB40 TEMPO 0815/0818 RA SCT017TCU TX31/0819Z TN26/0910Z
SLAL,TAF SLAL 081000Z 0812/0912 00000KT 9999 NSC TX23/0819Z TN03/0911Z BECMG 0819/0821 02010KT BECMG 0902/0904 00000KT
SLCB,TAF SLCB 081000Z 0812/0912 00000KT 9999 NSC TX28/0819Z TN03/0911Z BECMG 0821/0823 13010KT BECMG 0901/0903 00000KT
SLCO,TAF SLCO 081000Z 0812/0912 VRB02KT 4000 BR SCT003 BKN080 TX33/0819Z TN21/0910 BECMG 0814/0816 34007KT SCT017 SCT080 BECMG 0823/0903 00000KT BKN011
SLET,TAF SLET 081000Z 0812/0912 32010KT 9999 SCT017 SCT070 TX30/0819Z TN22/0910Z BECMG 0814/0816 32015G27KT BKN020 PROB30 TEMPO 0817/0820 8000 SHRA FEW030CB BECMG 0821/0823 33008KT SCT017 SCT070 TEMPO 0906/0909 SCT006 SCT010
SLLP,TAF SLLP 081000Z 0812/0912 VRB02KT 9999 NSC TX15/0819Z TNM04/0910Z BECMG 0813/0817 14010KT FEW017 BECMG 0901/0905 VRB02KT
SLTJ,TAF SLTJ 081000Z 0812/0912 00000KT 9999 NSC TX27/0819Z TN06/0911Z BECMG 0816/0818 13010KT BECMG 0822/0900 00000KT
SLTR,TAF SLTR 081000Z 0812/0912 34008KT 9999 SCT020 SCT080 TX33/0819Z TN21/0910Z BECMG 0823/0902 00000KT BKN012
SLVR,TAF SLVR 081000Z 0812/0912 34010KT 9999 SCT017 SCT070 TX30/0819Z TN22/0910Z BECMG 0814/0816 35015G25KT BKN020 PROB30 TEMPO 0817/0820 8000 SHRA FEW030CB BECMG 0821/0823 34008KT SCT017 SCT070 TEMPO 0906/0909 SCT006 SCT010
SMJP,TAF SMJP 081000Z 0812/0912 13006KT 9999 SCT015 TX32/0816Z TN23/0909Z PROB30 TEMPO 0812/0815 5000 SHRA BKN012 TEMPO 0817/0821 4000 SHRA FEW008 FEW015CB SCT020 TEMPO 0818/0820 TS TEMPO 0908/0910 VRB02KT 2000 BR SCT001
SMZO,TAF SMZO 081000Z 0812/0912 13006KT 9999 SCT015 TX32/0816Z TN24/0909Z PROB30 TEMPO 0812/0815 5000 SHRA BKN012 TEMPO 0817/0821 4000 SHRA FEW008 FEW015CB SCT020 PROB30 TEMPO 0817/0820 TS
SOCA,TAF SOCA 081000Z 0812/0912 VRB02KT 9999 FEW020 SCT050 PROB40 TEMPO 0812/0822 1500 SHRA SCT010 BKN015CB BECMG 0813/0815 07010KT TEMPO 0814/0822 SCT010 BKN015CB BKN020 BECMG 0822/0824 VRB02KT PROB40 TEMPO 0908/0912 2000 SHRA SCT010 BKN012CB
SPCL,TAF SPCL 081100Z 0812/0912 08005KT 9999 SCT020 SCT100 TX32/0818Z TN22/0911Z TEMPO 0818/0822 03015KT 3000 SHRA BKN010 FEW025TCU BKN080 TEMPO 0909/0912 2000 BR BKN005 BKN080
SPEO,TAF SPEO 081100Z 0812/0912 19008KT 9999 SCT030 TX25/0819Z TN19/0911Z TEMPO 0814/0816 BKN020 BECMG 0816/0819 16018KT BECMG 0822/0901 22012KT
SPGM,TAF SPGM 081100Z 0812/0912 03005KT 8000 SCT015 BKN100 TX31/0819Z TN21/0911Z TEMPO 0812/0815 4500 BR
SPHI,TAF SPHI 081100Z 0812/0912 18006KT CAVOK TX30/0819Z TN22/0911Z TEMPO 0814/0816 BKN015 BECMG 0816/0818 16016KT
SPHO,TAF SPHO 081100Z 0812/0912 00000KT CAVOK TX24/0819Z TN08/0911Z
SPJC,TAF SPJC 081100Z 0812/0912 14006KT 9999 OVC030 TX25/0819Z TN22/0911Z BECMG 0816/0818 20010KT
SPJI,TAF SPJI 081100Z 0812/0912 12009KT 9999 SCT020 SCT100 TX33/0819Z TN22/0911Z TEMPO 0812/0814 4000 BCFG SCT010 BKN080 TEMPO 0819/0823 06012KT 4000 SHRA BKN015 FEW025TCU
SPJJ,TAF SPJJ 081100Z 0812/0912 34002KT CAVOK TX19/0819Z TN02/0911Z TEMPO 0818/0822 33012KT
SPJL,TAF SPJL 081124Z 0812/0912 06003KT CAVOK TX16/0819Z TNM07/0910Z FM081730 10007KT CAVOK FM090000 VRB02KT CAVOK
SPJR,TAF SPJR 081100Z 0812/0912 13005KT 9999 SCT030 BKN060 TX23/0819Z TN05/0911Z BECMG 0818/0820 13012KT SCT027 BKN050 BECMG 0905/0909 VRB02KT
SPLO,TAF SPLO 081124Z 0812/0912 16006KT 7000 BKN020 TX25/0819Z TN17/0911Z FM081630 20010KT 9999 FEW040 FM082230 14005KT 9000 BKN025
SPME,TAF SPME 081100Z 0812/0912 32004KT 9999 SCT020 TX31/0819Z TN24/0911Z BECMG 0816/0818 26008KT BKN015 TEMPO 0901/0905 03014KT 5000 RA BKN010 OVC050 BECMG 0905/0908 34006KT FEW030
SPMS,TAF SPMS 081100Z 0812/0912 36005KT 9999 SCT020 BKN080 TX32/0819Z TN22/0911Z TEMPO 0812/0813 3000 BR BKN005 BKN080 TEMPO 0818/0822 02015KT 2000 SHRA BKN010 FEW025TCU
SPNC,TAF SPNC 081100Z 0812/0912 07008KT 9999 SCT037 SCT100 TX27/0819Z TN14/0911Z BECMG 0816/0818 07015KT
SPPY,TAF SPPY 081100Z 0812/0912 10008KT 9999 SCT015 BKN050 TX19/0819Z TN10/0911Z TEMPO 0812/0814 3000 BCFG SCT005 BKN010 BKN050 TEMPO 0819/0823 4000 SHRA SCT010 FEW025TCU BKN070
SPQT,TAF AMD SPQT 081200Z 0812/0912 18002KT 0800 FG OVC002 TX32/0820Z TN23/0911Z FM081245 3000 BR BKN003 BKN080 BECMG 0813/0816 02005KT BKN015 BKN080 TEMPO 0819/0823 10015KT 2000 SHRA BKN010 FEW025TCU BKN080 TEMPO 0908/0912 0800 FG BKN002 BKN100
SPQU,TAF SPQU 081124Z 0812/0912 05004KT CAVOK TX22/0817Z TN07/0910Z FM081700 26010KT CAVOK BECMG 0900/0902 05004KT
SPRU,TAF SPRU 081100Z 0812/0912 14004KT 5000 BR NSC TX26/0819Z TN22/0911Z TEMPO 0814/0816 3000 BR BKN020 BECMG 0819/0821 20012KT 8000 NSW
SPSO,TAF SPSO 081100Z 0812/0912 10004KT 8000 OVC022 TX23/0819Z TN18/0911Z TEMPO 0812/0814 4500 BR SCT010 OVC014 BECMG 0814/0816 28010KT BECMG 0819/0821 22015KT BECMG 0903/0905 14005KT
SPST,TAF AMD SPST 081200Z 0812/0912 VRB04KT 4000 BR BKN007 TX32/0819Z TN21/0911Z TEMPO 0812/0814 1000 BKN004 BECMG 0815/0816 9999 SCT015TCU SCT080
SPTN,TAF SPTN 081124Z 0812/0912 08005KT 8000 OVC012 TX23/0819Z TN14/0910Z FM081530 16003KT 9999 BKN020 SCT030 FM082200 21004KT CAVOK
SPTU,TAF SPTU 081100Z 0812/0912 00000KT CAVOK TX31/0820Z TN21/0911Z TEMPO 0812/0813 0100 FG
SPUR,TAF SPUR 081100Z 0812/0912 17004KT 9999 BKN030 TX31/0819Z TN22/0911Z TEMPO 0814/0816 BKN015 BECMG 0816/0818 23012KT CAVOK
SPYL,TAF AMD SPYL 081230Z 0812/0912 14014KT 9999 BKN040 TX30/0819Z TN20/0910Z
SPZO,TAF SPZO 081100Z 0812/0912 VRB01KT 9999 NSC TX22/0819Z TNM01/0911Z TEMPO 0818/0822 29010KT
SUAA,TAF SUAA 081145Z 0812/0912 01008KT 8000 SCT008 BKN040 TX24/0818Z TN16/0910Z TEMPO 0812/0820 3000 TSRA BR BKN005 BKN070 BECMG 0900/0902 34015KT
SUCA,TAF SUCA 081145Z 0812/0912 02008KT 8000 SCT008 BKN040 TX23/0818Z TN16/0910Z TEMPO 0812/0820 3000 TSRA BR BKN005 BKN070 BECMG 0900/0902 36015KT
SUDU,TAF SUDU 081145Z 0812/0912 02008KT 8000 BKN015 BKN070 TX23/0818Z TN16/0910Z TEMPO 0812/0820 2000 TSRA BR BKN004 BKN070
SULS,TAF SULS 081145Z 0812/0912 03008KT 8000 SCT010 BKN040 TX23/0818Z TN15/0910Z TEMPO 0812/0820 3000 TSRA BR BKN005 BKN070 BECMG 0900/0902 34015KT
SUMU,TAF SUMU 081145Z 0812/0912 01008KT 8000 SCT008 BKN040 TX23/0818Z TN16/0910Z TEMPO 0812/0820 3000 TSRA BR BKN005 BKN070 BECMG 0900/0902 34015KT
SURV,TAF SURV 081145Z 0812/0912 34005KT 8000 SCT020 BKN070 TX25/0818Z TN15/0910Z TEMPO 0812/0820 3000 TSRA BR BKN004 BKN070
SUSO,TAF SUSO 081145Z 0812/0912 03008KT 8000 SCT017 BKN070 TX27/0818Z TN17/0910Z TEMPO 0812/0820 2000 RA BR BKN004 BKN070 PROB40 TEMPO 0815/0820 TS BKN008 FEW040CB BKN070
SVBC,TAF SVBC 081000Z 0812/0912 05001KT 9999 SCT010 TX36/0819Z TN22/0907Z TEMPO 0818/0822 08005KT 9000 DZ BKN010
SVBM,TAF SVBM 072200Z 0800/0900 09006KT 2000 TSRA FEW010 CB BKN060 TX34/0718Z TN22/0807Z BECMG 0801/0805 11006KT 2000 TSSH OVC013 CB
SVJC,TAF SVJC 081000Z 0812/0912 15003KT 9999 SCT020 TX35/0819Z TN23/0907Z BECMG 0816/0822 07001T SCT013 SCT070
SVMC,TAF SVMC 081000Z 0812/0912 35001KT 9000 DZ BKN013 TX36/0819Z TN25/0908Z FM081400 11003KT 9999 SCT013 TEMPO 0816/0820 11002KT 9000 DZ BKN013
SVMG,TAF SVMG 081000Z 0812/0912 07005KT 9999 SCT020 TX34/0818Z TN25/0908Z BECMG 0817/0822 11002KT 9999 SCT010
SVMI,TAF SVMI 081000Z 0812/0912 09005KT 9999 SCT016 TX33/0818Z TN23/0907Z BECMG 0815/0821 07006KT 9000 DZ SCT016 FM081600 03005KT 9999 SCT016
SVPR,TAF SVPR 081000Z 0812/0912 05001KT 9000 DZ BKN016 TX35/0819Z TN23/0907Z TEMPO 0814/0818 04005KT 9000 DZ BKN020
SVSA,TAF SVSA 081000Z 0812/0912 05006KT 9000 DZ BKN020 TX32/0818Z TN16/0908Z FM081100 27005KT 9999 SCT020 SCT080 TEMPO 0815/0819 13006KT 9000 DZ SCT020
SYCJ,TAF SYCJ 081100 0806/0906 08006KT 5000 SHRA RA FEW014CB SCT015 BKN032 BKN080 BECMG 0815/0817 10010KT 9999 SCT019 SCT090 BECMG 0900/0902 VRB02KT SCT016
SYEB,TAF SYEB 081100Z 0812/0823 06010KT 9999 SCT017 TEMPO 0814/0820 5000 SHRA RA FEW015CB BKN032
SYEC,TAF SYEC 080500 0806/0906 07010KT 9999 SCT019 SCT036 TEMPO 0808/0814 5000 SHRA RA BKN014 BKN032 BECMG 0814/0816 10010KT 9999 SCT020 SCT090
SYKA,TAF SYKA 081100Z 0812/0823 06006KT 9999 SCT017 TEMPO 0817/0821 5000 TSRA FEW014CB
SYKM,TAF SYKM 081100Z 0812/0823 VRB12KT 4000 TSRA RA FEW012CB SCT013 BKN030 OVC060
SYLT,TAF SYLT 081100Z 0812/0823 06008KT 9999 SCT018 SCT034
SYMB,TAF SYMB 081100Z 0812/0823 08010KT 9999 FEW018 BECMG 0814/0816 VRB10KT 5000 SHRA FEW013CB BKN014 BKN032
TAPA,TAF TAPA 081100Z 0812/0912 10010KT 9999 SCT019 PROB30 TEMPO 0818/0912 SHRA
TBPB,TAF TBPB 081100Z 0812/0912 08012KT 9999 SCT018 SCT036 PROB30 TEMPO 0812/0818 SHRA BKN015
TDPD,TAF TDPD 081100Z 0812/0912 12009KT 9999 SCT018 SCT036 PROB30 TEMPO 0812/0818 SHRA BKN015
TFFF,TAF TFFF 081100Z 0812/0912 09010KT 9999 SCT025 PROB30 TEMPO 0815/0912 4000 SHRA SCT020TCU PROB40 TEMPO 0815/0821 10015G25KT
TFFR,TAF TFFR 081100Z 0812/0912 11006KT 9999 BKN030 BECMG 0812/0814 12016KT PROB30 TEMPO 0814/0912 4000 SHRA SCT018TCU
TGPY,TGPY 081000Z 0812/0912 10015KT 9999 FEW020
TIST,TIST 081137Z 0812/0912 12011KT P6SM FEW026 FM081400 13012KT P6SM FEW025 SCT040 FM082300 12010KT P6SM FEW028
TISX,TISX 081137Z 0812/0912 10011KT P6SM SCT023 FM081400 10013KT P6SM SCT026 FM082300 10007KT P6SM SCT023
TJBQ,TJBQ 081137Z 0812/0912 00000KT P6SM SKC FM081400 06008KT P6SM FEW030 FEW050 FM081700 02009KT P6SM SCT030 FM082300 11006KT P6SM FEW035 FM090200 VRB03KT P6SM SKC
TJPS,TJPS 081137Z 0812/0912 06005KT P6SM FEW026 BKN040 FM081400 14013KT P6SM FEW025 FEW040 FM082300 12007KT P6SM FEW030 FM090100 07004KT P6SM FEW022 SCT035 BKN040
TJSJ,TJSJ 081137Z 0812/0912 08003KT P6SM FEW026 FM081400 12010KT P6SM FEW030 FEW060 FM081800 10012KT P6SM SCT030 SCT050 FM082300 13007KT P6SM FEW028 FEW060 FM090100 10005KT P6SM FEW026 SCT035
TKPK,TAF TKPK 072300Z 0800/0824 08010KT 9999 SCT022
TKPN,TAF TKPN 081100Z 0812/0912 10011KT 9999 SCT019 PROB30 TEMPO 0900/0912 SHRA
TLPC,TAF COR TLPC 081301Z 0812/0912 09010KT 9999 SCT026 TEMPO 0821/0912 SHRA BKN015
TLPL,TAF COR TLPL 081301Z 0812/0912 09018KT 9999 SCT026 TEMPO 0821/0912 SHRA BKN015
TNCA,TAF TNCA 081200Z 0812/0912 10021KT 9999 FEW020
TNCB,TAF TNCB 081117Z 0812/0918 10019KT 9999 SCT018
TNCC,TAF TNCC 081115Z 0812/0912 12015KT 9999 FEW020
TNCM,TNCM 081005Z 0812/0912 09011KT 9999 SCT018
TQPF,TAF TQPF 081100Z 0812/0912 10011KT 9999 SCT019 PROB30 TEMPO 0900/0912 SHRA
TRPG,TAF TRPG 081100Z 0812/0912 10014KT 9999 SCT019 PROB30 TEMPO 0818/0912 SHRA
TTCP,TAF TTCP 081000Z 0812/0912 08010KT 9999 FEW016 BECMG 0812/0814 11015KT SCT025 BECMG 0903/0905 VRB05KT FEW015
TTPP,TTPP 081000Z 0812/0912 00000KT 9999 FEW016 BECMG 0813/0815 11010KT SCT022 BECMG 0902/0905 00000KT FEW015 TAF TTCP 081000Z 0812/0912 08010KT 9999 FEW016 BECMG 0812/0814 11015KT SCT025 BECMG 0903/0905 VRB05KT FEW015
TUPJ,TAF TUPJ 081100Z 0812/0912 12009KT 9999 SCT019 PROB30 TEMPO 0900/0912 SHRA
TVSA,TAF TVSA 081100Z 0812/0912 04012KT 9999 SCT018 SCT036 PROB30 TEMPO 0812/0818 SHRA BKN015
TXKF,TAF TXKF 081138Z 0812/0912 22014KT 9999 VCSH FEW008 SCT012 BKN250 PROB40 TEMPO 0812/0912 8000 -SHRA SCT008 BKN012 PROB30 TEMPO 0815/0821 23017G27KT 4000 SHRA SCT005 BKN008 
UAAA,TAF UAAA 081100Z 0812/0912 19003MPS 9999 FEW050CB SCT100 TX36/0909Z TN19/0901Z TEMPO 0812/0815 01003G08MPS TEMPO 0815/0901 14003G08MPS BECMG 0904/0905 01003MPS SCT050CB SCT100 TEMPO 0904/0912 06004G10MPS
UAAH,TAF UAAH 081101Z 0812/0821 30012G17MPS 6000 -SHRA BKN040CB
UAAT,TAF UAAT 081101Z 0812/0821 23005MPS 9999 FEW050CB SCT100 TEMPO 0812/0815 17005G11MPS PROB40 TEMPO 0812/0815 TS
UACC,TAF AMD UACC 081125Z 0812/0912 33008MPS 9999 SCT030CB BKN050 TX29/0812Z TN16/0823Z TEMPO 0812/0816 VRB21MPS 3100 -TSRAGR BLDU SQ BKN030CB BECMG 0816/0818 02007MPS TEMPO 0816/0824 VRB18MPS 3100 -TSRAGR BLDU SQ BKN011 BKN030CB TEMPO 0900/0906 35008MPS BKN011 TEMPO 0909/0912 VRB21MPS 3100 -TSRAGR BLDU SQ BKN011 BKN030CB
UACK,TAF UACK 081109Z 0812/0821 36007MPS 9999 SCT040 BKN100 TEMPO 0812/0818 01008G13MPS BKN040CB
UACP,TAF UACP 081102Z 0812/0821 36007MPS 9999 BKN020CB TEMPO 0812/0815 34008G13MPS
UADD,TAF UADD 081100Z 0812/0821 04005G10MPS 9999 SCT050CB BKN100 TEMPO 0818/0821 22004MPS
UAII,TAF UAII 081100Z 0812/0912 05003G08MPS CAVOK TX40/0910Z TN22/0901Z TEMPO 0812/0818 35004G09MPS TEMPO 0818/0903 09004MPS TEMPO 0903/0912 30003G08MPS
UAIT,TAF UAIT 081101Z 0812/0821 31004G09MPS 7000 SCT040CB TEMPO 0813/0818 06007G12MPS BKN040CB
UAKD,TAF UAKD 081103Z 0812/0821 28006G11MPS 9999 SCT040 BKN100 TEMPO 0812/0815 28009G14MPS 5000 FU SCT040CB BECMG 0815/0817 35006MPS TEMPO 0817/0821 -SHRA SCT040CB
UAKK,TAF UAKK 081100Z 0812/0912 25008MPS 9999 SCT030 BKN100 TX30/0812Z TN12/0823Z TEMPO 0812/0815 27013MPS 5000 -TSRA BKN020CB BECMG 0815/0817 VRB02MPS TEMPO 0903/0912 VRB15MPS 3100 -TSRA SQ BKN015CB
UAOO,TAF UAOO 081100Z 0812/0821 32007MPS CAVOK
UARR,TAF UARR 081100Z 0812/0821 VRB02MPS CAVOK TEMPO 0812/0815 30005MPS
UASK,TAF UASK 081105Z 0812/0821 23004MPS 9999 SCT040 BKN100 TEMPO 0812/0818 26007G12MPS 3100 -TSRA FEW004 BKN030CB TEMPO 0818/0821 17004MPS -SHRA BKN017CB
UASP,TAF AMD UASP 081312Z 0813/0821 27015G20MPS 3100 HZ BKN011CB TEMPO 0813/0818 VRB25MPS 0200 +TSGR SQ BKN005CB
UASS,TAF UASS 081101Z 0812/0821 28010G15MPS 9999 SCT050 SCT100 TEMPO 0812/0815 VRB18MPS 2000 TSRA SQ BKN020CB
UATE,TAF UATE 081102Z 0812/0912 30009G15MPS 9999 SCT060CB TX30/0910Z TN17/0903Z TEMPO 0812/0817 01009G15MPS BECMG 0817/0819 04006MPS BECMG 0904/0906 10006MPS
UATG,TAF UATG 081109Z 0812/0912 30007MPS 9999 SCT033CB TX29/0911Z TN17/0902Z TEMPO 0812/0818 23008MPS BECMG 0822/0824 06005MPS BECMG 0908/0910 20008MPS
UATT,TAF UATT 081100Z 0812/0912 34005MPS CAVOK TX26/0912Z TN12/0901Z BECMG 0816/0818 28002MPS TEMPO 0905/0912 30008MPS SCT033CB
UAUU,TAF UAUU 081106Z 0812/0821 36006MPS 9999 SCT040 TEMPO 0812/0815 33007G12MPS BKN040 TEMPO 0815/0821 30003MPS BKN040
UBBB,TAF UBBB 081057Z 0812/0912 35014KT CAVOK TX24/0812Z TN18/0901Z TEMPO 0812/0816 01012KT FEW050CB BECMG 0816/0818 33006KT TEMPO 0822/0904 VRB04KT 4000 BR SCT015 BECMG 0906/0908 18012KT
UBBF,TAF UBBF 081100Z 0812/0821 05008KT 9999 FEW015 FEW050CB BKN080 PROB40 TEMPO 0812/0816 10016KT -TSRA BKN040CB
UBBG,TAF UBBG 081100Z 0812/0912 08010KT 9999 SCT030 BKN100 TX25/0812Z TN18/0902Z TEMPO 0814/0820 11016KT -TSRA SCT040CB BKN060 BECMG 0900/0902 VRB04KT
UBBL,TAF UBBL 081058Z 0812/0912 10006KT 9999 BKN080 TX24/0812Z TN18/0902Z TEMPO 0812/0816 13008KT SCT040CB SCT040 PROB40 TEMPO 0812/0816 -TSRA BKN030CB BECMG 0816/0818 16006KT TEMPO 0818/0903 VRB04KT 4000 BR SCT007
UBBN,TAF UBBN 081049Z 0812/0912 10010KT 9999 FEW045 BKN100 TX31/0812Z TN17/0902Z PROB30 TEMPO 0812/0818 12018KT TS SCT040CB BKN080
UBBQ,TAF UBBQ 081058Z 0812/0912 24006KT 9999 BKN080 TX23/0811Z TN15/0902Z TEMPO 0812/0818 28005KT SCT030CB BKN030 BECMG 0818/0820 30005KT TEMPO 0820/0902 VRB04KT 5000 BR SCT006
UBBY,TAF UBBY 081100Z 0812/0821 VRB04KT 9999 FEW035 OVC080 TEMPO 0812/0818 17008KT SCT030CB BKN060
UBBZ,TAF UBBZ 081100Z 0812/0821 04014KT 9999 FEW040CB BKN060 TEMPO 0812/0817 09020KT -TSRA SCT010 SCT030CB
UBEE,TAF UBEE 081100Z 0812/0821 VRB04KT 9999 SCT040 BKN070 TEMPO 0812/0816 16008KT
UCFL,TAF UCFL 081046Z 0812/0912 14003G08MPS 9999 SCT030CB BECMG 0815/0816 34003G08MPS TEMPO 0815/0821 04003G08MPS
UCFM,TAF UCFM 081035Z 0812/0912 30003G08MPS 9999 SCT050CB TEMPO 0812/0818 04003G08MPS BECMG 0818/0820 13003G08MPS BECMG 0906/0908 26003G08MPS
UCFO,TAF UCFO 081044Z 0812/0912 18003G08MPS FEW050CB TEMPO 0812/0818 25003G08MPS SCT050CB BECMG 0902/0904 32003G08MPS
UDSG,TAF UDSG 081058Z 0812/0912 03006KT 9999 FEW050 TEMPO 0812/0818 VRB16G26KT SCT040CB
UDYZ,TAF UDYZ 081100Z 0812/0912 20006KT 9999 FEW040 TEMPO 0812/0821 03016G26KT
UEEE,TAF UEEE 081100Z 0812/0918 36006G12MPS 9999 SCT030CB BKN100 TEMPO 0821/0906 -SHRA
UERP,TAF UERP 081100Z 0812/0912 VRB01MPS 9999 BKN030 BKN100 BECMG 0818/0820 23004G09MPS
UERR,TAF UERR 081100Z 0812/0912 VRB01MPS 9999 SCT023CB TEMPO 0818/0824 2000 BR SCT007 BKN023CB BECMG 0900/0902 20003G09MPS
UGAM,TAF UGAM 081000Z 0811/0817 09012KT CAVOK
UGKO,TAF UGKO 081100Z 0812/0912 08007KT CAVOK TX31/0911Z TN20/0820Z TEMPO 0812/0818 25010KT BECMG 0820/0822 08027G39KT TEMPO 0900/0908 08033G47KT
UGMS,TAF UGMS 081000Z 0811/0817 22007KT 9999 SCT100
UGSB,TAF UGSB 081100Z 0812/0912 27007KT 9999 FEW027 TX23/0911Z TN18/0902Z BECMG 0819/0822 12010KT BECMG 0905/0907 25010KT SCT020 BKN070
UGTB,TAF UGTB 081100Z 0812/0912 15010KT 9999 SCT040 TX27/0912Z TN17/0902Z PROB40 TEMPO 0816/0821 TSRA BKN030CB
UHBB,TAF UHBB 081054Z 0812/0912 06003MPS 9999 SCT030CB BECMG 0814/0816 0300 FG VV003 FM090000 07005G10MPS 9999 SCT011 BKN020CB TEMPO 0900/0912 3100 -SHRA
UHHH,TAF UHHH 081052Z 0812/0918 11003MPS 9999 SCT011 SCT020CB TEMPO 0815/0822 3100 BR BKN004 SCT020CB TEMPO 0823/0903 13008MPS
UHMA,TAF UHMA 081046Z 0812/0912 02003G08MPS 9999 SCT033 TEMPO 0812/0912 14006G11MPS 5000 -SHRA FEW003 BKN015CB
UHMM,TAF UHMM 081050Z 0812/0918 23003G08MPS 9999 SCT040 TEMPO 0814/0820 VRB01MPS 1000 BR SCT006 TEMPO 0903/0909 -TSRA BKN030CB
UHPP,TAF UHPP 081032Z 0812/0918 32003G10MPS 9999 FEW050 TEMPO 0900/0909 17005G12MPS
UHSS,TAF UHSS 081050Z 0812/0918 36003MPS 9999 BKN030CB
UHWW,TAF UHWW 081100Z 0812/0912 16003G08MPS 6000 -SHRA BKN020CB TEMPO 0812/0912 VRB15MPS 0300 +TSRA FEW003 BKN016CB
UIAA,TAF UIAA 081100Z 0812/0912 36005G10MPS 9999 SCT040CB TEMPO 0812/0912 06003G08MPS
UIBB,TAF UIBB 081100Z 0812/0912 18003MPS 9999 NSC
UIII,TAF UIII 081100Z 0812/0912 30006MPS CAVOK BECMG 0815/0817 VRB01MPS
UIUU,TAF COR UIUU 081100Z 0812/0912 35006G11MPS 9999 SCT050CB TEMPO 0812/0912 05003G08MPS
ULLI,TAF ULLI 081058Z 0812/0912 32006G11MPS 9999 SCT030 TEMPO 0816/0822 5000 -SHRA BKN016CB
ULMM,TAF ULMM 081050Z 0812/0912 34003G08MPS 6000 -SHRA BKN016CB
ULOO,TAF ULOO 081055Z 0812/0821 29003G08MPS CAVOK
ULPB,TAF ULPB 081054Z 0812/0821 26005G11MPS 9999 BKN020 TEMPO 0812/0818 28007G14MPS 3100 -TSRA BKN016CB
ULWC,TAF ULWC 081057Z 0812/0821 18003G08MPS 6000 BKN020
UMBB,TAF UMBB 081108Z 0812/0821 10004MPS 9999 BKN025 TEMPO 0812/0818 12004G09MPS TEMPO 0818/0821 VRB02MPS
UMGG,TAF UMGG 081101Z 0812/0912 24005MPS 9999 BKN030 TEMPO 0812/0821 21006G11MPS -SHRA SCT032CB TEMPO 0821/0904 20004MPS 1200 BR BKN004 PROB40 TEMPO 0908/0912 16004MPS 3000 -TSRA BKN035CB
UMII,TAF UMII 081104Z 0812/0821 29003G08MPS 9999 SCT025 TEMPO 0812/0818 33003G08MPS 5000 -TSRA BKN016CB TEMPO 0818/0821 VRB02MPS
UMIO,TAF UMIO 081101Z 0811/0821 VRB02MPS 9999 SCT030 TEMPO 0811/0821 28005G10MPS 5000 -TSRA BKN015CB
UMKK,TAF UMKK 081055Z 0812/0912 VRB01MPS CAVOK TEMPO 0812/0818 04005MPS BECMG 0820/0822 36003G08MPS BECMG 0906/0908 02005G10MPS
UMMG,TAF UMMG 081101Z 0812/0821 18003MPS 9999 BKN030 TEMPO 0812/0815 19003G08MPS TEMPO 0815/0821 VRB02MPS
UMMS,TAF UMMS 081105Z 0812/0912 VRB02MPS 9999 SCT035 TEMPO 0812/0818 24005G10MPS 5000 -TSRA BKN020CB
UMOO,TAF UMOO 081059Z 0812/0821 24004MPS 9999 BKN025 TEMPO 0812/0818 20005G10MPS 5000 -TSRA BKN020CB
UNAA,TAF AMD UNAA 081225Z 0812/0912 22003G08MPS 9999 SCT020CB TEMPO 0812/0815 3200 -TSRA TEMPO 0906/0912 26008G15MPS -TSRA
UNBB,TAF UNBB 081100Z 0812/0912 17003G08MPS 9999 BKN040CB TEMPO 0812/0815 23008G15MPS -TSRA TEMPO 0815/0903 24008MPS BECMG 0903/0905 28006G14MPS TEMPO 0903/0912 -TSRA
UNEE,TAF UNEE 081100Z 0812/0912 15003G08MPS 8000 SCT040 TEMPO 0812/0816 22007G15MPS -TSRA BKN039CB BECMG 0901/0904 20006G13MPS BKN039CB TEMPO 0905/0912 -TSRA BECMG 0906/0910 30008G15MPS
UNKL,TAF UNKL 081048Z 0812/0912 23003G08MPS 9999 SCT017CB TEMPO 0812/0815 26008G16MPS -TSGR TEMPO 0822/0909 -TSRA
UNNT,TAF UNNT 081100Z 0812/0912 23008G16MPS 8000 BKN040CB BECMG 0812/0814 19003G08MPS TEMPO 0812/0912 -TSRA BECMG 0900/0902 34008G16MPS
UNOO,TAF UNOO 081050Z 0812/0912 33006G12MPS 9999 BKN030CB TEMPO 0812/0815 VRB15MPS 3100 -TSRA BKN008 BKN020CB BECMG 0815/0817 35003G08MPS
UNTT,TAF UNTT 081100Z 0812/0821 20005G14MPS 9999 BKN040CB TEMPO 0812/0815 24003G08MPS PROB40 TEMPO 0812/0818 -TSRA BECMG 0815/0818 15003G08MPS
UNWW,TAF UNWW 081100Z 0812/0912 17003G08MPS 8000 BKN040CB TEMPO 0812/0912 22009G20MPS -TSRA
UOOO,TAF UOOO 081055Z 0812/0912 01008G18MPS 6000 -RA BKN016
URKA,TAF AMD URKA 081311Z 0813/0912 27003MPS CAVOK TEMPO 0900/0912 09006G12MPS
URKK,TAF URKK 081053Z 0812/0912 08007G14MPS CAVOK BECMG 0817/0818 06003G08MPS TEMPO 0903/0912 09007G14MPS
URMG,TAF URMG 081100Z 0812/0821 09003G08MPS CAVOK TEMPO 0812/0821 11005G14MPS
URML,TAF URML 081100Z 0812/0821 14005G11MPS 9999 SCT050 TEMPO 0815/0821 19003G08MPS
URMM,TAF URMM 081100Z 0812/0912 10005G12MPS 9999 SCT030 TX25/0812Z TN10/0902Z TEMPO 0812/0912 13008G17MPS
URMN,TAF URMN 081100Z 0812/0821 04003G08MPS 9999 BKN020 TEMPO 0812/0821 10006G14MPS
URMO,TAF URMO 081100Z 0812/0821 06003G08MPS 9999 SCT016 TEMPO 0812/0821 08005G14MPS
URMT,TAF URMT 081100Z 0812/0821 10007G14MPS 9999 SCT020 BECMG 0816/0818 11005G12MPS
URRP,TAF URRP 081055Z 0812/0912 08003G12MPS 9999 SCT016 SCT030CB TX27/0812Z TN13/0902Z TEMPO 0812/0821 13007G14MPS TEMPO 0903/0909 09007G14MPS
URSS,TAF URSS 081055Z 0812/0912 28006G11MPS 9999 FEW040TCU BECMG 0818/0819 05003G08MPS NSC BECMG 0905/0906 25003G08MPS BECMG 0909/0910 28005G10MPS SCT050CB BKN100
URWA,TAF URWA 081057Z 0812/0821 30003G10MPS 9999 BKN030 TEMPO 0812/0818 23003G10MPS TEMPO 0818/0821 12003G08MPS
URWI,TAF URWI 081055Z 0812/0821 08003G12MPS 9999 SCT016 SCT030CB TEMPO 0812/0821 17007G14MPS
URWW,TAF URWW 081058Z 0812/0821 35003G10MPS 9999 BKN020 SCT030CB TEMPO 0812/0821 30003G12MPS
USCC,TAF USCC 081057Z 0812/0912 28003G10MPS 9999 SCT040 TEMPO 0812/0912 30008G13MPS BKN020CB
USCM,TAF USCM 081057Z 0812/0821 28003G12MPS 9999 SCT040
USDA,TAF USDA 081100Z 0812/0821 04003MPS 7000 FEW008 BKN017 TEMPO 0814/0821 35003MPS 6000 -SHRA FEW005 BKN016CB
USHH,TAF USHH 081045Z 0812/0912 36003G12MPS 9999 SCT020 PROB40 TEMPO 0812/0815 VRB16MPS 5000 -TSRA SQ FEW007 BKN016CB TEMPO 0818/0903 12003MPS 5000 BR FEW003 BKN016 TEMPO 0903/0912 30003G12MPS 5000 -SHRA FEW006 BKN016CB
USNN,TAF USNN 081050Z 0812/0912 26005G12MPS 9999 BKN020CB TEMPO 0812/0815 28010G18MPS -SHRA FEW010 BKN016CB BECMG 0815/0816 36006G14MPS
USPP,TAF AMD USPP 081125Z 0811/0912 31003G15MPS 9999 BKN016CB TEMPO 0811/0817 35003G16MPS 1500 TSRA BECMG 0817/0818 6000 SCT016
USRR,TAF USRR 081047Z 0812/0912 33007G14MPS 9999 FEW011 BKN016CB TEMPO 0812/0818 2100 -SHRA SCT007 BKN016CB BECMG 0815/0817 33003G08MPS
USSS,TAF USSS 081050Z 0812/0912 28007G18MPS 9999 BKN020CB TEMPO 0812/0818 -TSRA FM081800 32003G10MPS 6000 -SHRA BKN016CB BECMG 0903/0905 35003G14MPS BECMG 0905/0907 9999 SCT020CB
USTR,TAF USTR 081051Z 0812/0912 31005G12MPS 9999 SCT020CB TEMPO 0812/0815 25004MPS 3100 -SHRA BKN016CB TEMPO 0815/0824 VRB01MPS FM090000 33004G11MPS 9999 SCT030
UTAA,TAF UTAA 081045Z 0812/0912 30012G22KT 6000 BKN030 SCT050CB TEMPO 0812/0817 VRB34KT 1500 DS -TSRA VV015 PROB40 TEMPO 0817/0820 VRB30KT 3000 -TSRA BECMG 0818/0820 26014KT BECMG 0902/0904 32016KT PROB40 TEMPO 0906/0910 VRB26KT -TSRA
UTAK,TAF UTAK 081030Z 0812/0912 36016G26KT CAVOK TEMPO 0812/0822 32016KT 4000 -SHRA BKN005 SCT040CB PROB40 TEMPO 0814/0818 VRB26KT TS
UTAM,TAF UTAM 081030Z 0812/0912 34014G24KT 3000 DRDU BKN030 SCT050CB BKN100 TEMPO 0812/0821 30022G32KT 0600 DS VV005 TEMPO 0821/0907 33020G30KT 0900 DS VV007 PROB30 TEMPO 0821/0904 VRB32KT -TSRA
UTAT,TAF UTAT 081031Z 0812/0912 30020G30KT 6000 SCT050CB OVC100 TEMPO 0812/0818 33024G34KT 3000 -TSRA SCT030CB BECMG 0818/0820 36014KT
UTAV,TAF UTAV 081030Z 0812/0912 01016KT 3000 HZ SCT050 TEMPO 0812/0819 29020G30KT 1200 BLDU VV012 PROB40 TEMPO 0813/0823 VRB34KT 0500 DS TS -SHRA VV005 BKN040CB OVC070 BECMG 0908/0910 03012KT CAVOK
UTDD,TAF UTDD 081200Z 0813/0901 VRB02MPS 8000 FEW066 SCT100 TEMPO 0814/0901 07005MPS PROB40 TEMPO 0816/0822 28007G12MPS 3100 HZ
UTDK,TAF UTDK 081200Z 0813/0822 VRB02MPS 7000 FEW066 SCT100 BECMG 0814/0815 03005MPS PROB40 TEMPO 0816/0822 21007G12MPS 3100 HZ
UTDL,TAF UTDL 081200Z 0813/0901 08006MPS 9999 NSC BECMG 0815/0817 VRB02MPS
UTDT,TAF UTDT 081204Z 0813/0822 VRB02MPS 7000 FEW066 SCT100 PROB40 TEMPO 0816/0822 19007G12MPS 3100 HZ
UTFF,TAF UTFF 081200Z 0813/0822 34010KT 9999 NSC
UTFN,TAF UTFN 081100Z 0812/0912 34010KT 9999 NSC TX38/0911Z TN25/0900Z TEMPO 0904/0910 14010KT
UTNN,TAF AMD UTNN 081202Z 0812/0912 25010G20KT 9999 SCT050 BKN100 TEMPO 0812/0816 -SHRA BKN040CB OVC100 TEMPO 0818/0904 34008KT
UTNU,TAF UTNU 081100Z 0812/0912 30012G22KT 9999 SCT050CB BKN100 TX35/0911Z TN18/0901Z TEMPO 0812/0816 VRB24G34KT 3000 -TSRA -DS
UTSA,TAF UTSA 081101Z 0812/0912 VRB03KT 7000 NSC TX40/0812Z TN22/0901Z TEMPO 0812/0816 02012KT SCT033 TEMPO 0816/0824 34016KT FEW050CB
UTSB,TAF UTSB 081100Z 0812/0912 VRB03KT 7000 NSC TX40/0812Z TN23/0901Z TEMPO 0812/0815 35012KT FEW033 TEMPO 0815/0824 33016KT FEW050CB
UTSK,TAF UTSK 081200Z 0813/0822 32010KT CAVOK TX37/0813Z TN24/0822Z TEMPO 0813/0822 06010KT
UTSS,TAF UTSS 081100Z 0812/0912 10010G20KT 9999 NSC TX35/0910Z TN22/0901Z TEMPO 0812/0823 30016G26KT 3000 DU
UTST,TAF UTST 081100Z 0812/0912 VRB06KT 6000 NSC TX42/0911Z TN21/0901Z TEMPO 0812/0823 25016G26KT 2000 DS SCT060CB SCT100
UTTT,TAF UTTT 081100Z 0812/0912 08010KT CAVOK TX40/0911Z TN23/0901Z TEMPO 0812/0816 30015KT
UUBC,TAF UUBC 081044Z 0812/0821 24003MPS 9999 SCT030 TEMPO 0812/0818 30005G10MPS 3100 -TSRA BKN016CB
UUBP,TAF UUBP 081047Z 0812/0821 22008G14MPS 9999 SCT030 TEMPO 0812/0818 4000 -TSRA BKN020CB
UUBW,TAF UUBW 081054Z 0812/0912 28003MPS 9999 SCT030 TX25/0912Z TN11/0901Z TEMPO 0908/0912 30008G13MPS PROB40 TEMPO 0908/0912 -TSRA BKN020CB
UUDD,TAF UUDD 081053Z 0812/0918 25003MPS 9999 SCT030 TX25/0912Z TN10/0901Z PROB40 TEMPO 0812/0818 -TSRA BKN015CB TEMPO 0905/0909 25008MPS PROB40 TEMPO 0909/0916 -TSRA BKN015CB BECMG 0909/0911 32008G14MPS
UUDL,TAF UUDL 081100Z 0812/0912 33003MPS 9999 BKN040 TX18/0812Z TN07/0902Z PROB40 TEMPO 0812/0816 -TSRA BKN020CB
UUEE,TAF UUEE 081058Z 0812/0912 27006MPS 9999 SCT040 TX23/0813Z TN10/0901Z TEMPO 0812/0815 36005G10MPS TEMPO 0815/0818 06005MPS BECMG 0818/0821 22003MPS PROB40 TEMPO 0819/0903 0300 PRFG
UUMO,TAF UUMO 081045Z 0812/0821 25003G08MPS 9999 SCT035 TEMPO 0812/0818 31008G13MPS 4000 -TSRA BKN020CB
UUOB,TAF UUOB 081055Z 0812/0821 18003MPS 9999 BKN020 TEMPO 0812/0816 -TSRA BKN030CB
UUOK,TAF UUOK 081050Z 0812/0821 32003G08MPS 9999 SCT030 PROB40 TEMPO 0812/0818 -TSRA BKN020CB
UUOL,TAF UUOL 081100Z 0812/0821 28003G08MPS CAVOK
UUOO,TAF UUOO 081100Z 0812/0821 23003MPS 9999 SCT030
UUWW,TAF UUWW 081050Z 0812/0912 VRB01MPS 9999 SCT030 TX24/0812Z TN12/0901Z PROB40 TEMPO 0812/0818 -TSRA BKN020CB BECMG 0814/0816 20005MPS BECMG 0908/0910 30005G10MPS
UUYY,TAF UUYY 081100Z 0812/0912 32003G10MPS 9999 SCT020CB TEMPO 0812/0815 6000 -SHRA BKN016CB BECMG 0818/0820 18003MPS BECMG 0905/0906 18004G12MPS TEMPO 0906/0912 19007G16MPS
UWGG,TAF UWGG 081050Z 0812/0912 03003G09MPS 9999 SCT040 TX19/0812Z TN09/0901Z TEMPO 0812/0818 01008G13MPS
UWKD,TAF UWKD 081100Z 0812/0912 30007G13MPS 9999 SCT030 TX22/0912Z TN08/0901Z BECMG 0818/0820 02003MPS TEMPO 0909/0912 SCT040CB
UWKE,TAF UWKE 081100Z 0812/0912 30003G10MPS 9999 SCT040 TEMPO 0812/0818 33008G15MPS 6000 -SHRA BKN016CB BECMG 0905/0907 25003G10MPS
UWKS,TAF UWKS 081038Z 0812/0821 32003G10MPS 9999 BKN031CB TX17/0812Z TN11/0821Z
UWLL,TAF UWLL 081054Z 0812/0912 29007G12MPS 9999 SCT030 TX22/0812Z TN08/0903Z TEMPO 0812/0818 34014MPS 2000 TSRA BKN016CB BECMG 0818/0820 08003G08MPS
UWLW,TAF UWLW 081058Z 0812/0912 30003G09MPS 9999 BKN030 TX22/0812Z TN08/0901Z TEMPO 0812/0815 33007G14MPS BKN016CB BECMG 0815/0817 03003MPS
UWOO,TAF UWOO 081042Z 0812/0912 30003G08MPS 9999 SCT033 TX26/0911Z TN12/0901Z TEMPO 0812/0818 25005G12MPS BKN030 TEMPO 0906/0909 32007G13MPS
UWOR,TAF UWOR 081045Z 0812/0821 34003G08MPS 9999 BKN033 TX23/0812Z TN14/0821Z TEMPO 0812/0818 31006G12MPS
UWPS,TAF UWPS 081050Z 0812/0821 33003G08MPS 9999 BKN040CB TX21/0812Z TN09/0821Z TEMPO 0812/0818 35008G13MPS -TSRA
UWSG,TAF UWSG 081100Z 0812/0821 27003G08MPS CAVOK TX26/0812Z TN15/0821Z TEMPO 0812/0815 SCT030
UWUU,TAF UWUU 081059Z 0812/0912 26005G13MPS 9999 BKN040 TX21/0812Z TN08/0901Z TEMPO 0812/0818 29008G18MPS 6000 -TSRAGR BKN016CB BECMG 0818/0820 30003G09MPS TEMPO 0820/0903 6000 TEMPO 0903/0912 33005G12MPS
UWWW,TAF UWWW 081053Z 0812/0912 30005G10MPS 9999 SCT030 TX23/0911Z TN10/0903Z TEMPO 0812/0816 34009G16MPS 1000 TSRA BKN016CB BECMG 0816/0818 36003MPS
VAAH,TAF VAAH 081100Z 0812/0918 25010KT 6000 FEW020 SCT025 BECMG 0813/0815 4000 FU HZ BECMG 0816/0818 NSC BECMG 0901/0903 3000 HZ FU FEW020 BECMG 0904/0906 5000 FU BECMG 0906/0908 6000 FEW020 SCT025 BECMG 0913/0915 18012KT 4000 FU FEW020
VAAU,TAF VAAU 081100Z 0812/0821 32012KT 5000 HZ FEW020 SCT025 BECMG 0816/0818 32008KT 4000 HZ FEW100 
VABB,TAF VABB 081100Z 0812/0821 22010KT 5000 HZFU FEW020 SCT025 BECMG 0815/0817 4000 -DZ HZ SCT018 SCT025 
VABJ,VABJ 081100Z 0812/0821 22012KT 6000 NSC BECMG 0816/0818 FEW020
VABO,VABO 081100Z 0812/0918 23008KT 6000 FEW020 BECMG 0814/0818 20012KT NSC BECMG 0822/0823 23008KT SCT020 BECMG 0901/0903 23005KT 4000 FU BECMG 0905/0909 23009KT 6000 BECMG 0910/0912 23012KT NSC BECMG 0915/0918 20008KT SCT020
VABP,TAF VABP 081100Z 0812/0821 29010KT 6000 SCT020 SCT100 TEMPO 0812/0816 29010G20KT 4000 -TSRA FEW030CB BECMG 0818/0820 28010KT 5000 HZ
VABV,VABV 081100Z 0812/0821 21012KT 6000 FEW020 BECMG 0812/0814 4000 FU HZ BECMG 0816/0818 NSC
VADU,VADU 081100Z 0812/0821 21010KT 6000 NSC BECMG 0812/0814 4000 HZ BECMG 0818/0820 FEW020
VAID,TAF VAID 081100Z 0812/0821 29010KT 6000 SCT020 SCT100 TEMPO 0812/0816 29010G20KT 4000 -TSRA FEW030CB BECMG 0818/0820 28010KT 5000 HZ
VAJB,TAF VAJB 081100Z 0812/0821 32010KT 6000 FEW020 SCT100 TEMPO 0812/0816 32010G20KT 4000 -TSRA SCT020 SCT100 FEW030CB BECMG 0816/0818 5000 HZ FEW020 SCT100
VAJL,TAF VAJL 080500Z 0806/0815 29008KT 4000 HZ FU FEW020 SCT025 BECMG 0808/0810 35010KT 5000 FU TEMPO 0809/0815 32008G18KT 2500 -TSRA -SHRA SCT018 FEW030TCU/CB BKN090 BECMG 0813/0815 26006KT 4000 HZ FEW020 SCT100
VAJM,VAJM 081100Z 0812/0821 21015KT 6000 NSC BECMG 0814/0816 FEW020
VAKE,TAF VAKE 080800Z 0809/0818 22015G25KT 5000 FU FEW025 BECMG 0812/0814 23010KT 4000 HZ FU FEW020
VAKP,TAF VAKP 081100Z 0812/0821 28008KT 5000 HZ FEW020 SCT025 TEMPO 0812/0816 2000 -TSRA -SHRA FEW015 FEW030CB BKN090 BECMG 0816/0818 23006KT 4000 HZ FEW020 SCT100 
VANP,TAF VANP 081100Z 0812/0918 34005KT 5000 HZ SCT020 FEW030CB BECMG 0815/0817 00000KT 3000 HZ NSC BECMG 0902/0904 36004KT 4000 HZ FEW100 BECMG 0904/0906 34003KT 5000 HZ NSC TEMPO 0908/0912 32010KT 3000 -TSRA SCT020 FEW030CB SCT090
VAPO,TAF VAPO 081100Z 0812/0918 27010KT 6000 SCT025 TEMPO 0811/0813 26015G25KT SCT025 FEW030CB BKN090 BECMG 0904/0906 26010G20KT TEMPO 0910/0913 26015G25KT SCT025 FEW030CB BKN090
VAPR,VAPR 081100Z 0812/0821 21010KT 6000 FEW020 SCT025 BECMG 0819/0821 FEW020
VARK,VARK 081100Z 0812/0821 23012KT 6000 FEW020 SCT025
VASD,VASD 080800Z 0809/0818 35010KT 5000 FU FEW020 SCT025 TEMPO 0809/0815 32008G18KT 2500 -TSRA -SHRA SCT018 FEW030TCU/CB BKN090 BECMG 0813/0815 26006KT 4000 HZ FEW020 SCT100
VASL,TAF VASL 081100Z 0812/0821 28008KT 5000 HZ FEW020 SCT025 TEMPO 0812/0816 2000 -TSRA -SHRA FEW015 FEW030CB BKN090 BECMG 0816/0818 23006KT 4000 HZ FEW020 SCT100 
VASU,VASU 081100Z 0812/0918 21007KT 6000 NSC BECMG 0821/0822 23005KT SCT020 BECMG 0901/0903 23008KT 5000 HZ BECMG 0905/0909 23008KT BECMG 0914/0916 20006KT 
VAUD,TAF VAUD 080800Z 0809/0818 27010KT 5000 HZ SCT030 BECMG 0814/0816 25006KT 3000 HZ
VCBI,TAF VCBI 081100Z 0812/0918 24007KT 9999 SCT016 TX32/0907Z TN26/0900Z PROB30 TEMPO 0812/0816 0821/0903 7000 -TSRA/SHRA FEW014 BKN017 FEW020CB
VCRI,TAF VCRI 081100Z 0812/0918 25015G25KT 9999 FEW018 TX34/0908Z TN25/0900Z BECMG 0814/0816 23010KT BECMG 0903/0905 25015G25KT 
VDPP,TAF VDPP 081100Z 0812/0906 21008KT 9999 SCT017 SCT040 TEMPO 0812/0817 SCT015 FEW017CB BKN040
VDSR,TAF VDSR 081100Z 0812/0906 24007KT 9999 SCT017 SCT040 TEMPO 0812/0817 SCT015 FEW017CB BKN040
VDSV,TAF VDSV 081100Z 0812/0906 28008KT 9999 SCT017 SCT040 TEMPO 0812/0817 SCT015 FEW017CB BKN040
VEAB,TAF VEAB 080930Z 0812/0824 30010KT 6000 FEW030 TEMPO 0812/0815 29015G25KT FEW030TCU
VEAT,TAF VEAT 081100Z 0812/0821 23005KT 4000 BR SCT018 BKN100
VEBD,TAF VEBD 081100Z 0812/0918 11005KT 6000 FEW025 SCT100 TEMPO 0910/0914 TS FEW025 FEWCB030 BKN100
VEBN,TAF VEBN 081100Z 0812/0918 30006KT 5000 HZ NSC BECMG 0815/0817 3000 HZ BECMG 0904/0906 30009KT 4000 HZ BECMG 0908/0910 5000 HZ FEW100 BECMG 0914/0916 28006KT 3000 HZ NSC
VEBS,TAF VEBS 080800Z 0809/0818 05003KT 5000 HZ FEW020 BECMG 0814/0816 2000 -TSRA BKN018 FEW030CB OVC090
VECC,TAF VECC 081100Z 0812/0821 16007KT 3500 HZ SCT020 SCT100
VECX,TAF VECX 080930Z 0812/0824 29008KT 6000 FEW025 SCT090 TEMPO 0813/0814 29010G20KT 6000 FEW025 FEW030CB SCT090
VEGK,TAF VEGK 080930Z 0812/0824 29010KT 6000 FEW030 BECMG 0814/0816 VRB02KT 5000 DU NSC
VEGT,TAF VEGT 080800Z 0809/0818 33005KT 4000 -RA HZ SCT018 BKN100 TEMPO 0809/0812 1500 TSRA SCT015 FEW025CB OVC090 BECMG 0813/0815 00000K 2500 BR
VEGY,TAF VEGY 080800Z 0809/0818 29012KT 7000 FEW100 BECMG 0813/0815 4500 HZ
VEIM,TAF VEIM 080800Z 0809/0818 03006KT 5000 HZ SCT018 BKN100 BECMG 0813/0815 00000K 3000 -RA BR
VEJS,TAF VEJS 080800Z 0809/0818 32005KT 4500 -RA HZ SCT018 FEW030CB SCT100 BECMG 0815/0817 00000KT 4000 HZ SCT018 SCT100
VEJT,TAF VEJT 080930Z 0812/0824 04010KT 6000 SCT025 FEW030TCU BKN100 TEMPO 0818/0822 22010G20KT 5000 TSRA SCT025 FEW030CB BKN090
VEKU,TAF VEKU 080930Z 0812/0824 VRB02KT 6000 SCT025 FEW030TCU BKN100 BECMG 0814/0815 VRB02KT 5000 BR SCT025 SCT100 TEMPO 0812/0816 24010G20KT 3000 TSRABR FEW015 SCT025 FEW030CB BKN080
VELP,TAF VELP 080800Z 0809/0818 33005KT 5000 HZ SCT020 BKN100
VEMN,TAF VEMN 081100Z 0812/0821 09003KT 5000 HZ FEW020 FEW025CB BKN100 BECMG 0813/0815 4000 HZ
VEPT,TAF VEPT 081100Z 0812/0918 30005KT 6000 FEW100 BECMG 0812/0814 4000 HZ BECMG 0822/0824 2500 HZ BECMG 0902/0904 4000 HZ BECMG 0905/0907 6000 BECMG 0912/0914 00000KT 4000 HZ
VERC,TAF VERC 080800Z 0809/0818 32006KT 4500 -RA HZ SCT018 FEW030CB SCT100 BECMG 0815/0817 00000KT 4500 HZ SCT018 SCT100
VETZ,TAF VETZ 080930Z 0812/0824 15005KT 6000 SCT030 SCT090 TEMPO 0812/0818 4000 -TSRA SCT020 FEW030CB BKN090
VGEG,TAF VGEG 081100Z 0812/0918 23010KT 4500 HZ SCT017 BKN100 TEMPO 0822/0910 27028G38KT 2000RA/TSRA BKN007 FEW028CV OVC090 BECMG 0911/0913 32010KT 4000 HZ SCT016 BKN100 BECMG 0916/0918 20012KT 2500 RA/TSRA BKN008 FEW028CB OVC090
VGHS,TAF VGHS 081100Z 0812/0918 18008KT 3500 HZ SCT012 BKN100 BECMG 0821/0823 21006KT 3200 HZ SCT012 BKN100 TEMPO 0900/0906 25020G30KT 2000 TSRA/RA BKN008 FEW025CB OVC090 BECMG 0906/0908 17008KT 4000 HZ SCT015 BKN100
VHHH,TAF VHHH 081100Z 0812/0918 16010KT 9999 FEW015 SCT025 TX33/0906Z TN28/0823Z TEMPO 0822/0904 VRB15G25KT 3000 TSRA SHRA FEW010CB SCT020 TEMPO 0904/0909 22010KT 4000 SHRA FEW010CB SCT020
VIAG,TAF VIAG 081100Z 0812/0918 35010KT 35010KT 6000 TS SCT030 FEW030CB BKN100 BECMG 0815/0816 VRB02KT 6000 SCT030 BECMG 0900/0901 25005KT 6000 SCT030 BKN100 TEMPO 0902/0904 5000 HZ TEMPO 0907/0911 28010G20KT 6000 TSRA SCT025 FEW030CB BKN100 BECMG 0915/0916 VRB02KT 6000 FEW030 
VIAR,TAF VIAR 081100Z 0812/0821 26004KT 6000 NSC BECMG 0816/0818 00000KT 4500 HZ 
VIBR,TAF VIBR 080500Z 0806/0815 23008KT 5000 HZ DZ SCT030 BKN080 BECMG 0812/0814 07006KT 4000 HZ FEW030 SCT080
VIBT,TAF VIBT 080930Z 0812/0824 31005KT 6000 NSC BECMG 0822/0824 VRB02KT 5000 HZ
VIBY,TAF VIBY 080930Z 0812/0824 30005KT 6000 SKC
VICG,TAF VICG 081100Z 0812/0918 32010KT 6000 FEW030 BECMG 0815/0818 VRB02KT 6000 NSC BECMG 0822/0900 04010KT 6000 SCT250 BECMG 0900/0902 26010KT 6000 NSC TEMPO 0906/0908 30010KT 6000 SCT020 SCT250 BECMG 0913/0915 VRB02KT 6000 FEW250
VIDN,TAF VIDN 081100Z 0812/0821 26006KT 6000 NSC BECMG 0813/0815 04004KT 3500 HZ FEW100
VIDP,TAF VIDP 081100Z 0812/0821 33010G20KT 5000 HZ NSC BECMG 0815/0817 VRB02KT 3500 HZ FEW030 SCT100
VIGG,TAF VIGG 080500Z 0806/0815 23008KT 5000 HZ SCT030 BKN080 TEMPO 0807/0811 2000 -TSRA FW035CB OVC080 BECMG 0812/0814 05006KT 3000 HZ DZ SCT030 BKN080
VIGR,TAF VIGR 080930Z 0812/0824 29010KT 5000 DU SCT020 FEW030CB SCT100 BECMG 0810/0819 29007KT 6000 FEW030 SCT100 TEMPO 0823/0824 VRB02KT 5000 DU SKC
VIJO,TAF VIJO 080930Z 0812/0824 25010KT 6000 FEW030 SCT100 TEMPO 0812/0814 25010G25KT SCT025
VIJP,TAF VIJP 081100Z 0812/0918 30010KT 4000 HZ SCT035 SCT100 TEMPO 0812/0817 33030G40KT 0800 DS TSRA BKN030 FEW035CB BKN080 BECMG 0903/0905 29012KT 5000 HZ SCT035 SCT100
VIJR,TAF VIJR 080930Z 0812/0824 22010KT 6000 NSC TEMPO 0812/0815 22010G20KT 5000 DU SCT030
VILH,TAF VILH 080930Z 0806/0818 29010KT 6000 SCT060 SCT120 TEMPO 0807/0811 29020G30KT 5000 RA BLDU SCT060 FEW050TCU BKN120 BECMG 0812/0814 FEW060 SCT120
VILK,TAF VILK 081100Z 0812/0918 32008KT 5000 HZ NSC BECMG 0815/0817 28007KT 4000 HZ BECMG 0904/0906 5000 HZ FEW020 SCT100 BECMG 0916/0918 25006KT 4000 HZ NSC
VIPT,TAF VIPT 081100Z 0812/0821 29010KT 5000 HZ NSC BECMG 0815/0817 27005KT 4000 HZ 
VISM,TAF VISM 080500Z 0806/0815 27006KT 5000 HZ FEW030 SCT060 TEMPO 0807/0811 2000 -TSRA SCT030 FEW035CB BKN060 BECMG 0812/0814 07006KT 3000 HZ DZ SCT030 BKN060
VISP,TAF VISP 080930Z 0812/0824 29005KT 6000 FEW025
VISR,TAF VISR 080930Z 0812/0824 29005KT 6000 FEW025 FEW030CB SCT100 TEMPO 0813/0814 5000 FU BECMG 0815/0816 VRB02KT FEW025
VIUT,TAF VIUT 080930Z 0812/0824 22010KT 6000 NSC TEMPO 0813/0818 21015G25KT 3000 BLDU SCT030 FEW040TCU
VLLB,TAF VLLB 081100Z 0812/0912 24004KT 4000 BR SCT010 BKN080
VLLN,TAF VLLN 081100Z 0812/0912 22004KT 4000 BR SCT010 BKN100
VLPS,TAF VLPS 081100Z 0812/0912 14004KT 6000 FEW020 BKN050
VLSK,TAF VLSK 081100Z 0812/0912 18004KT 3000 BR SCT040 BKN100
VLVT,TAF VLVT 081100Z 0812/0912 22004KT 4000 BR SCT016 SCT200
VMMC,TAF VMMC 081100Z 0812/0918 16008KT 9999 FEW015 SCT030 TEMPO 0818/0902 4000 SHRA
VNKT,TAF VNKT 081100Z 0812/0912 28008KT 7000 FEW020 SCT030 PROB30 0812/0815 VRB12KT -TSRA BKN100 BECMG 0814/0815 10004KT 6000 FEW015 SCT030 BECMG 0903/0905 25006KT 7000 FEW015 BECMG 0907/0908 26010KT 8000 FEW020 SCT030
VOAR,TAF VOAR 081100Z 0812/0918 23010KT 6000 FEW020 SCT100 TEMPO 0812/0815 30015G25KT 4500 -TSRA/RA SCT016 FEW025TCU/CB BKN090 BECMG 0815/0816 4500 HZ/BR BECMG 0904/0905 6000 TEMPO 0910/0914 30015G25KT 4500 -TSRA/RA SCT016 FEW025TCU/CB BKN090 BECMG 0914/0915 4500 HZ/BR
VOBG,TAF VOBG 081100Z 0812/0821 27010KT 6000 SCT012 TEMPO 0812/0818 3000 TSRA RA SCT012 SCT020 FEW025CB BKN080
VOBL,TAF VOBL 081100Z 0812/0918 27010KT 6000 SCT012 TEMPO 0812/0818 3000 TSRA RA SCT012 SCT020 FEW025CB BKN080 TEMPO 0909/0915 3000 TSRA RA SCT012 SCT020 FEW025CB BKN080
VOBM,TAF VOBM 081100Z 0812/0821 27010KT 6000 SCT012 TEMPO 0812/0818 3000 TSRA RA SCT012 SCT020 FEW025CB BKN080
VOBZ,TAF VOBZ 081100Z 0812/0821 32010KT 6000 SCT020 TEMPO 0812/0818 FEW080CB
VOCB,TAF VOCB 081100Z 0812/0918 24010KT 5000 HZ FEW012 SCT080 TEMPO 0812/0815 FEW012 FEW020TCU/CB SCT080 BECMG 0821/0822 4000 BR BECMG 0903/0904 6000 
VOCI,TAF VOCI 081100Z 0812/0918 27010G20KT 3000 TSRA BR FEW010 SCT012 FEW025CB OVC080 BECMG 0815/0817 28010KT 4000 -RA BR SCT012 FEW025CB BKN080 TEMPO 0821/0902 32010KT 2000 +TSRA BR SCT008 SCT012 FEW025CB OVC080 BECMG 0903/0905 25005KT 5000 -RA HZ SCT012 FEW025CB SCT080 TEMPO 0909/0915 27010G20KT 3000 TSRA RA FEW008 SCT012 FEW025CB OVC080 BECMG 0915/0916 VRB03KT 4000 -RA BR SCT012 FEW025CB BKN080
VOCL,TAF VOCL 080800Z 0809/0818 30008KT 6000 SCT012 SCT018 TEMPO 0809/0812 29010G20KT 2500 TSRA SHRA SCT012 FEW025CB BKN080 BECMG 0814/0816 26008KT 3000 RA DZ SCT012 FEW025CB OVC080
VOCP,TAF VOCP 080800Z 0809/0818 26014KT 6000 SCT015 SCT100 TEMPO 0810/0816 FEW080CB
VOGB,TAF VOGB 080800Z 0809/0818 27010KT 6000 SCT012 TEMPO 0812/0818 SCT012 SCT020 FEW025CB
VOGO,TAF VOGO 081100Z 0812/0821 27010KT 6000 SCT020 FEW080 TEMPO 0814/0818 4500 -TSRA RA FEW015 FEW025CB SCT080
VOHB,TAF VOHB 081100Z 0812/0918 27010KT 6000 SCT012 TEMPO 0812/0818 3000 TSRA RA SCT012 SCT020 FEW025CB BKN080 TEMPO 0809/0812 3000 TSRA RA SCT012 SCT020 FEW025CB BKN080
VOHS,TAF VOHS 081100Z 0812/0821 30010G20KT 6000 SCT015 FEW030CB SCT100 TEMPO 0812/0818 29010G20KT 3000 TSRA SCT020 SCT025 FEW080CB BECMG 0818/0820 26005KT 5000 RA SC015 SCT100
VOHY,TAF VOHY 081100Z 0812/0821 30010G20KT 6000 SCT015 FEW030CB SCT100 TEMPO 0812/0818 29010G20KT 3000 TSRA SCT020 SCT025 FEW080CB BECMG 0818/0820 26005KT 5000 RA SC015 SCT100
VOJV,TAF VOJV 080800Z 0809/0818 27010KT 6000 SCT012 TEMPO 0812/0818 SCT012 SCT020 FEW025CB
VOKN,TAF VOKN 081100Z 0812/0918 30010KT 5000 HZ FEW012 SCT018 FEW025TCU BECMG 0814/0815 30005KT 4000 -TSRA BR SCT012 FEW025CB BKN080 TEMPO 0822/0902 10010KT 2500 TSRA BR FEW004 SCT012 FEW025CB OVC080 BECMG 0903/0905 30010KT 6000 SCT012 SCT080 TEMPO 0910/0915 30010G20KT 4000 -TSRA RA FEW008 SCT012 FEW025CB BKN080 BECMG 0915/0916 VRB03KT 4000 -RA BR FEW012 SCT018 FEW025CB
VOKU,TAF VOKU 080800Z 0809/0818 29014KT 6000 SCT020 TEMPO 0810/0816 FEW080CB
VOLT,TAF VOLT 081100Z 0812/0821 28008KT 5000 HZ FEW020 SCT025 TEMPO 0812/0816 2000 -TSRA -SHRA FEW015 FEW030CB BKN090 BECMG 0816/0818 23006KT 4000 HZ FEW020 SCT100 
VOMD,TAF VOMD 081100Z 0812/0918 27010KT 6000 FEW020 TEMPO 0818/0821 4000 -TSRA/RA FEW020 FEW025TCU/CB SCT100 BECMG 0900/0901 27005KT BECMG 0912/0913 27010KT 
VOML,TAF VOML 081100Z 0812/0918 27010KT 6000 SCT012 TEMPO 0812/0818 3000 TSRA RA SCT012 SCT020 FEW025CB BKN080 BECMG 0815/0816 09005KT TEMPO 0900/0903 3000 DZ BR SCT005 SCT012 FEW025CB BKN080 BECMG 0906/0907 27010KT TEMPO 0909/0915 3000 TSRA RA SCT012 SCT020 FEW025CB BKN080
VOMM,TAF VOMM 081100Z 0812/0918 14010KT 6000 FEW020 SCT100 TEMPO 0812/0818 FEW020 FEW025TCU/CB BKN100 BECMG 0821/0822 21010KT 5000 BR BECMG 0903/0904 27010KT 6000 BECMG 0909/0910 14010KT 
VOMY,TAF VOMY 080800Z 0809/0818 27010KT 6000 SCT012 TEMPO 0812/0818 3000 TSRA RA SCT012 FEW025CB BKN080
VOND,TAF VOND 081100Z 0812/0821 32008KT 5000 HZ FEW020 SCT025 TEMPO 0812/0816 2500 -TSRA -SHRA FEW018 FEW025TCU/CB SCT090 BECMG 0816/0818 25005KT 4000 HZ FEW100 
VOPB,TAF VOPB 081100Z 0812/0821 22010KT 5000 BR SCT014 BKN080 TEMPO 0812/0818 22015G25KT 1500 TSRA RA SCT012 FEW022TCU CB OVC080
VORY,TAF VORY 081100Z 0812/0821 27010G20KT 6000 SCT015 TEMPO 0812/0818 FEW080CB
VOSR,TAF VOSR 081100Z 0812/0821 24012KT 4000 HZ SCT020 SCT025 BKN090 TEMPO 0815/0819 2500 -TSRA -SHRA FEW015 FEW030CB BKN090 BECMG 0819/0821 18006KT 3000 -DZ HZ FEW018 SCT090 
VOTP,TAF VOTP 081100Z 0812/0821 25010KT 6000 SCT020 TEMPO 0812/0818 FEW080CB
VOTR,TAF VOTR 081100Z 0812/0918 27005KT 5000 HZ FEW016 SCT100 BECMG 0815/0816 4000 BR BECMG 0818/0819 27010KT TEMPO 0818/0824 27010G20KT BECMG 0900/0901 5000 BR TEMPO 0900/0903 SCT016 FEW025TCU/CB BKN080 BECMG 0903/0904 6000 
VOTV,TAF VOTV 081100Z 0812/0918 30010G20KT 4000 -TSRA BR SCT012 FEW025CB BKN080 BECMG 0815/0817 30010KT 3000 RA BR SCT012 BKN080 TEMPO 0822/0902 35010KT 2000 +TSRA BR FEW008 SCT012 FEW025CB OVC080 BECMG 0903/0905 28010KT 4000 -RA DZ SCT012 FEW025CB BKN080 TEMPO 0909/0915 30010G20KT 2000 TSRA RA FEW010 SCT012 FEW025CB OVC080 BECMG 0915/0916 30010KT 3000 -RA BR SCT012 FEW025CB BKN080
VOVZ,TAF VOVZ 081100Z 0812/0918 23008KT 4500 HZ FEW018 SCT080 TEMPO 0812/0815 FEW25TCU/CB BKN080 BECMG 0816/0818 VRB02KT 3500 BR TEMPO 0823/0902 2500 BR BECMG 0903/0905 23008KT 4000 HZ TEMPO 0908/0912 FEW025TCU/CB
VRMG,TAF VRMG 081100Z 0812/0918 18008KT 9999 FEW018TCU TEMPO 0817/0821 5000 TSRA FEW018CB
VRMH,TAF VRMH 081100Z 0812/0918 27008KT 9999 FEW018TCU BKN120 TEMPO 0812/0818 4000 TSRA SCT017CB
VRMM,TAF VRMM 081100Z 0812/0918 25013KT 9999 FEW018TCU TEMPO 0815/0820 5000 TSRA FEW017CB
VTBD,TAF VTBD 081100Z 0812/0918 20008KT 9999 FEW020 SCT040 TEMPO 0812/0818 VRB10G25KT 3000 TSRA FEW018CB SCT030 BKN100 TEMPO 0908/0912 VRB10G25KT 3000 TSRA FEW018CB SCT030 BKN100
VTBO,TAF VTBO 081100Z 0812/0912 21010KT 9999 FEW020 TEMPO 0818/0824 VRB10G25KT 3000 TSRA FEW018CB SCT030 BKN100 TEMPO 0908/0912 VRB10G25KT 3000 TSRA FEW018CB SCT030 BKN100
VTBS,TAF VTBS 081100Z 0812/0918 21008KT 9999 FEW020 SCT040 TEMPO 0814/0818 VRB10G25KT 3000 TSRA FEW018CB SCT030 BKN100 TEMPO 0908/0912 VRB10G25KT 3000 TSRA FEW018CB SCT030 BKN100
VTBU,TAF VTBU 081100Z 0812/0912 23008KT 9999 FEW020 TEMPO 0906/0912 VRB15KT 4000 TSRA FEW018CB SCT035 BKN100
VTCC,TAF VTCC 081100Z 0812/0918 19005KT 9999 SCT035 TEMPO 0812/0818 -TSRA FEW025CB BKN035 BECMG 0820/0822 36005KT BECMG 0901/0903 20005KT TEMPO 0906/0912 17010G25KT 4000 TSRA FEW018CB BKN026
VTCH,TAF VTCH 081100Z 0812/0912 16005KT 9999 SCT025 TEMPO 0812/0816 -TSRA FEW020CB BKN025
VTCL,TAF VTCL 081100Z 0812/0912 18005KT 9999 SCT025 TEMPO 0812/0815 22010G25KT 4000 TSRA FEW020CB BKN025
VTCN,TAF VTCN 081100Z 0812/0912 20005KT 9999 SCT030 TEMPO 0816/0820 -TSRA FEW018CB SCT025 BECMG 0820/0822 02005KT
VTCP,TAF VTCP 081100Z 0812/0912 22005KT 9999 FEW035 TEMPO 0812/0815 23010G25KT 4000 TSRA FEW025CB BKN030
VTCT,TAF VTCT 081100Z 0812/0918 14005KT 9999 SCT025 TEMPO 0812/0818 -TSRA FEW018CB SCT030
VTPB,TAF VTPB 081100Z 0812/0912 17005KT 9999 FEW030 TEMPO 0812/0818 18015G25KT 4000 TSRA FEW020CB BKN025 TEMPO 0906/0912 -TSRA FEW018CB BKN025
VTPH,TAF VTPH 081100Z 0812/0912 22005KT 9999 FEW020 BKN100
VTPM,TAF VTPM 081100Z 0812/0912 24005KT 9999 SCT030 TEMPO 0906/0912 25010G25KT 4000 TSRA FEW025CB BKN030
VTPO,TAF VTPO 081100Z 0812/0912 17005KT 9999 SCT025 TEMPO 0906/0912 18010G25KT 4000 TSRA FEW018CB BKN025
VTPP,TAF VTPP 081100Z 0812/0912 16005KT 9999 SCT025 TEMPO 0812/0818 -TSRA FEW020CB BKN030
VTPT,TAF VTPT 081100Z 0812/0912 26005KT 9999 SCT026 TEMPO 0906/0912 25010G25KT 4000 TSRA FEW018CB BKN026
VTSB,TAF VTSB 081100Z 0812/0912 19005KT 9999 FEW020 BKN100 TEMPO 0906/0912 25015G25KT 4000 TSRA FEW016CB SCT018 BKN100
VTSC,TAF VTSC 081100Z 0812/0912 05006KT 9999 SCT020 SCT100 TEMPO 0812/0816 VRB15G25KT 4000 TSRA FEW016CB SCT018 BKN100 BECMG 0816/0818 19003KT BECMG 0904/0906 04008KT
VTSE,TAF VTSE 081100Z 0812/0912 25005KT 9999 FEW020 BKN100 TEMPO 0812/0816 4000 RA TEMPO 0822/0910 25015G25KT 4000 RA
VTSF,TAF VTSF 081100Z 0812/0912 09003KT 9999 FEW020 BKN100 TEMPO 0812/0815 4000 RA BECMG 0904/0906 34006KT PROB40 TEMPO 0906/0912 VRB15G25KT 4000 TSRA FEW016CB SCT018 BKN100
VTSG,TAF VTSG 081100Z 0812/0912 22005KT 9999 FEW020
VTSM,TAF VTSM 081100Z 0812/0912 29005KT 9999 FEW020 PROB40 TEMPO 0812/0815 4000 RA
VTSP,TAF VTSP 081100Z 0812/0918 28005KT 9999 FEW020
VTSR,TAF VTSR 081100Z 0812/0912 18006KT 9999 SCT020 TEMPO 0812/0818 -TSRA FEW018CB SCT020 BKN100
VTSS,TAF VTSS 081100Z 0812/0912 10006KT 9999 FEW020 BKN100 BECMG 0816/0818 30003KT BECMG 0904/0906 24010KT
VTST,TAF VTST 081100Z 0812/0912 24005KT 9999 FEW030
VTSY,TAF VTSY 081100Z 0812/0912 00000KT 9999 FEW020 SCT100 BECMG 0821/0823 3000 BR BKN005 BECMG 0903/0905 24008KT 9999 NSW FEW020
VTUD,TAF VTUD 081100Z 0812/0912 19005KT 8000 SCT025 TEMPO 0812/0818 VRB15KT 4000 TSRA FEW018CB BKN025 BKN080
VTUI,TAF VTUI 081100Z 0812/0912 19005KT 8000 SCT025 TEMPO 0812/0818 VRB15KT 4000 TSRA FEW018CB BKN025 BKN080
VTUK,TAF VTUK 081100Z 0812/0912 20005KT 8000 SCT025 TEMPO 0812/0818 VRB15KT 4000 TSRA FEW018CB BKN025 BKN080
VTUL,TAF VTUL 081100Z 0812/0912 20005KT 8000 SCT025 TEMPO 0812/0818 VRB15KT 4000 TSRA FEW018CB BKN025 BKN080
VTUO,TAF VTUO 081100Z 0812/0912 22005KT 9000 SCT030 TEMPO 0813/0817 VRB10G20KT 4000 TSRA FEW020CB BKN025 TEMPO 0908/0912 VRB10G20KT 4000 TSRA FEW020CB BKN025
VTUQ,TAF VTUQ 081100Z 0812/0912 22005KT 9000 SCT030 TEMPO 0813/0817 VRB10G20KT 4000 TSRA FEW020CB BKN025
VTUU,TAF VTUU 081100Z 0812/0912 21005KT 9000 SCT030 TEMPO 0813/0817 -TSRA FEW020CB BKN025 TEMPO 0906/0910 VRB10G20KT 4000 TSRA FEW020CB BKN025
VTUV,TAF VTUV 081100Z 0812/0912 21005KT 9000 SCT030 TEMPO 0813/0817 VRB10G20KT 4000 TSRA FEW020CB BKN025
VTUW,TAF VTUW 081100Z 0812/0912 20005KT 8000 SCT025 TEMPO 0812/0818 VRB15KT 4000 TSRA FEW018CB BKN025 BKN080
VVCI,TAF VVCI 081100Z 0812/0912 12007KT 9999 SCT020 TEMPO 0812/0818 4000 TSRA SCT010 FEW027CB
VVCR,TAF VVCR 081100Z 0812/0912 30004KT 9999 FEW015 BECMG 0903/0904 10010KT
VVCT,TAF VVCT 081100Z 0812/0912 26006KT 9999 SCT015 SCT040 TEMPO 0906/0911 5000 TSRA SCT010 SCT015CB BKN040
VVDN,TAF VVDN 081100Z 0812/0912 20005KT 9999 FEW015 SCT060 BECMG 0904/0905 08010KT TEMPO 0909/0912 TS FEW013 FEW017CB SCT060
VVNB,TAF VVNB 081100Z 0812/0912 14006KT 6000 SCT025 TEMPO 0813/0819 VRB15G25KT 4000 TSRA SCT010 FEW027CB
VVPB,TAF VVPB 081100Z 0812/0912 19005KT 9999 FEW015 SCT060 BECMG 0903/0904 10010KT TEMPO 0908/0912 TS FEW015 FEW017CB SCT060
VVPQ,TAF VVPQ 081100Z 0812/0912 26008KT 9999 SCT015 SCT040 TEMPO 0815/0819 5000 SHRA SCT010 FEW015CB BKN040 TEMPO 0823/0903 28015G29KT 3000 TSRA SCT013 SCT015CB BKN040 TEMPO 0906/0910 5000 TSRA SCT010 SCT015CB BKN040
VVTS,TAF VVTS 081100Z 0812/0918 26010KT 9999 SCT017 SCT040 BECMG 0814/0815 VRB03KT BECMG 0900/0901 25010KT TEMPO 0904/0906 5000 SHRA SCT015 FEW017CB BKN040 TEMPO 0906/0911 25015G30KT 3000 TSRA SCT013 SCT015CB
VVVD,TAF VVVD 081100Z 0812/0912 18006KT 9999 SCT020 TEMPO 0812/0818 4000 TSRA SCT012 FEW027CB
VYMD,TAF VYMD 071700Z 0718/0818 18005KT 6000 BKN020 FEW025CB TEMPO 0718/0724 18007KT 4000 -TSRA BKN018 FEW020CB BKN100
VYNT,TAF VYNT 081100Z 0812/0912 23008KT 7000 SCT020 FEW025CB BKN120 TEMPO 0812/0818 19008G16KT 4000 -TSRA BKN018 FEW022CB BKN100
VYYY,TAF VYYY 081100Z 0812/0912 20006KT 7000 BKN015 FEW020CB BKN100 TEMPO 0812/0818 5000 -TSRA
WAAA,TAF WAAA 081100Z 0812/0918 09005KT 8000 FEW019 BECMG 0901/0903 30010KT
WABB,TAF WABB 081100Z 0812/0918 09005KT 9999 SCT016
WADD,TAF WADD 081100Z 0812/0912 12008KT 9999 SCT017
WADL,TAF WADL 081100Z 0812/0912 15006KT 7000 BKN016
WALL,TAF WALL 081100Z 0812/0918 25004KT 9000 SCT020
WALS,TAF WALS 081100Z 0812/0918 22002KT 9000 SCT015
WAMM,TAF WAMM 081100Z 0812/0918 VRB03KT 9999 SCT020 BECMG 0901/0902 16010KT
WAOO,TAF WAOO 081100Z 0812/0912 12006KT 9999 FEW019
WAPP,TAF WAPP 081100Z 0812/0912 35006KT 9999 SCT017
WAQA,TAF WAQA 081100Z 0812/0918 12005KT 8000 FEW012CB FEW012 TEMPO 0813/0817 6000 RA
WAQD,TAF WAQD 081100Z 0812/0918 00000KT 8000 -TS SCT015CB TEMPO 0812/0816 5000 TSRA
WAQJ,TAF WAQJ 081100Z 0812/0918 23008KT 5000 SCT017
WAQQ,TAF WAQQ 081100Z 0812/0918 10004KT 8000 SCT015 TEMPO 0815/0819 6000 RA FEW015CB BKN015
WAQT,TAF WAQT 081100Z 0812/0918 11003KT 9000 SCT015 TEMPO 0815/0819 7000 RA FEW018CB BKN018
WARR,TAF WARR 081100Z 0812/0912 11008KT 9999 FEW020 BECMG 0818/0820 24005KT 5000 HZ BECMG 0900/0902 10010KT 9999 NSW
WATT,TAF WATT 081100Z 0812/0912 12010KT 8000 FEW018
WBGB,TAF WBGB 081100Z 0812/0912 VRB03KT 9999 FEW016
WBGG,TAF WBGG 081100Z 0812/0912 VRB03KT 9999 SCT016
WBGR,TAF WBGR 081100Z 0812/0912 VRB03KT 9999 FEW016
WBGS,TAF WBGS 081100Z 0812/0912 VRB03KT 9999 SCT016
WBKK,TAF WBKK 081100Z 0812/0912 11005KT 9999 FEW014 BECMG 0900/0902 25006KT
WBKL,TAF WBKL 081100Z 0812/0912 VRB02KT 9999 FEW014 PROB30 TEMPO 0900/0903 5000 TSRA FEW010 FEW016CB SCT030
WBKS,TAF WBKS 081100Z 0812/0912 22006KT 9999 FEW016 PROB40 TEMPO 0905/0908 5000 TSRA FEW010 FEW017CB SCT035
WBKW,TAF WBKW 081100Z 0812/0912 VRB02KT 9999 FEW017 BECMG 0900/0902 17006KT
WBSB,TAF WBSB 081050Z 0812/0918 20005KT 9999 FEW014 FEW015CB BECMG 0816/0818 16003KT FEW004 FEW015CB PROB30 TEMPO 0820/0900 8000 -TSRA
WIDD,TAF WIDD 081100Z 0812/0912 18005KT 9999 FEW014
WIEE,TAF WIEE 081100Z 0812/0912 02005KT 9999 SCT020
WIHH,TAF WIHH 081100Z 0812/0912 15010KT 6000 SCT020 BECMG 0815/0817 VRB04KT 5000 HZ FEW022
WIII,TAF WIII 081100Z 0812/0918 06012KT 7000 FEW020 BECMG 0813/0815 17005KT 5000 HZ BECMG 0824/0902 8000 NSW
WIMM,TAF WIMM 081100Z 0812/0912 VRB04KT 5000 HZ SCT017 BECMG 0902/0904 08010KT 9999 NSW
WIPB,TAF WIPB 080500Z 0806/0818 05004KT 9999 SCT010 TEMPO 0809/0812 3000 TSRA FEW010CB BKN011
WIPP,TAF WIPP 081100Z 0812/0912 19007KT 9999 SCT010 TEMPO 0821/0824 2000 BR
WITT,TAF WITT 081100Z 0812/0912 14006KT 9999 FEW020 BECMG 0902/0904 26009KT
WMAP,TAF WMAP 081100Z 0812/0912 VRB02KT 9999 FEW025 TEMPO 0907/0911 4000 TSRA FEW017CB
WMBT,TAF WMBT 081100Z 0812/0912 24005KT 9999 FEW025
WMKA,TAF WMKA 081100Z 0812/0912 VRB06KT 9999 FEW028
WMKB,TAF WMKB 081100Z 0812/0912 16005KT 9000 FEW024 BECMG 0816/0818 08004KT 8000
WMKC,TAF WMKC 081100Z 0812/0912 VRB03KT 9999 FEW020 TEMPO 0812/0816 5000 TSRA FEW017CB
WMKE,TAF WMKE 081100Z 0812/0912 VRB02KT 9999 FEW020 TEMPO 0815/0819 7000 -TSRA FEW014CB
WMKI,TAF WMKI 081100Z 0812/0912 VRB03KT 8000 FEW026 TEMPO 0812/0814 7000 TS FEW017CB
WMKJ,TAF WMKJ 081100Z 0812/0912 VRB02KT 9999 FEW025 TEMPO 0907/0911 4000 TSRA FEW017CB
WMKK,TAF WMKK 081100Z 0812/0918 VRB02KT 9999 FEW025 TEMPO 0907/0911 4000 TSRA FEW017CB
WMKL,TAF WMKL 081100Z 0812/0912 VRB05KT 9999 FEW026
WMKM,TAF WMKM 081100Z 0812/0912 VRB02KT 9999 FEW025
WMKN,TAF WMKN 081100Z 0812/0912 20003KT 9999 FEW022 TEMPO 0812/0816 5000 TSRA FEW017CB
WMKP,TAF WMKP 081100Z 0812/0912 VRB04KT 8000 FEW025 BECMG 0903/0905 22007KT BECMG 0910/0912 VRB03KT
WMPA,TAF WMPA 080500Z 0806/0906 VRB06KT 9999 FEW021
WMSA,TAF WMSA 081100Z 0812/0912 VRB02KT 9999 FEW025 TEMPO 0907/0911 4000 TSRA FEW017CB
WPDL,TAF WPDL 081111Z 0812/0900 16005KT 9999 FEW015
WSAP,TAF WSAP 081100Z 0812/0918 16010KT 9999 FEW015 SCT020 TEMPO 0907/0910 3000 TSRA FEW012CB BKN015
WSSL,TAF WSSL 081100Z 0812/0918 16010KT 9999 FEW015 SCT020 TEMPO 0907/0910 3000 TSRA FEW012CB BKN015
WSSS,TAF WSSS 081100Z 0812/0918 16010KT 9999 FEW015 SCT020 TEMPO 0907/0910 3000 TSRA FEW012CB BKN015
YAMB,TAF YAMB 081108Z 0812/0912 VRB05KT 9999 -SHRA SCT020 BKN040 FM081300 30005KT 9999 NSW SCT025 BKN035 FM082200 28007KT CAVOK FM090000 25012KT CAVOK FM090800 VRB03KT CAVOK PROB40 0816/0821 0800 FG BKN002
YBAS,TAF YBAS 081112Z 0812/0912 12005KT CAVOK FM081600 30005KT CAVOK FM090000 12010KT CAVOK FM090900 09005KT CAVOK
YBBN,TAF YBBN 081108Z 0812/0918 30005KT 9999 FEW030 FM082100 25007KT CAVOK FM090000 24013KT CAVOK FM090900 22006KT CAVOK
YBCG,TAF YBCG 081119Z 0812/0912 30008KT 9999 -SHRA SCT020 FM081800 25004KT CAVOK FM090100 20012KT CAVOK FM090600 16008KT CAVOK FM090800 22006KT CAVOK
YBCS,TAF YBCS 081101Z 0812/0912 19006KT 9999 SCT025 FM082300 13012KT 9999 SCT035 FM090800 16008KT 9999 FEW025
YBHM,TAF YBHM 081003Z 0812/0900 14013KT 9999 SCT015
YBLN,TAF AMD YBLN 081250Z 0812/0912 12004KT 9999 -SHRA SCT030 SCT050 FM081900 08004KT 9999 -SHRA SCT020 BKN030 FM090300 05008KT 9999 -SHRA FEW010 BKN030 INTER 0903/0912 3000 SHRA SCT010 BKN020 PROB30 0812/0900 0300 FG
YBMA,TAF YBMA 081002Z 0812/0900 17008KT CAVOK
YBRK,TAF AMD YBRK 081102Z 0812/0912 19003KT 9999 SCT010 FM090000 16005KT 9999 SCT050 PROB30 0813/0823 0500 FG
YBRM,TAF YBRM 081113Z 0812/0912 17006KT CAVOK FM081900 12005KT CAVOK FM090000 10014KT CAVOK FM091000 VRB04KT CAVOK
YBSU,TAF AMD YBSU 081315Z 0813/0912 28005KT 9999 SCT015 FM082300 21008KT 9999 FEW030 FM090300 19012KT CAVOK FM090800 23005KT CAVOK TEMPO 0813/0817 9999 FEW005 BKN010
YBTL,TAF YBTL 081014Z 0811/0906 VRB04KT 9999 SCT022 FM081800 19004KT 9999 FEW010 FM082300 13007KT 9999 FEW025 FM090200 06013KT 9999 FEW040 PROB30 0818/0820 0500 FG
YBWW,TAF AMD YBWW 081251Z 0812/0912 VRB03KT 9999 -DZ BKN040 FM081500 20008KT 9999 -DZ BKN006 BECMG 0822/0900 22014KT CAVOK FM090800 20010KT CAVOK TEMPO 0815/0818 2000 DZ OVC002 TEMPO 0818/0822 9999 BKN004 PROB30 0815/0822 0500 FG
YCFS,TAF YCFS 081118Z 0812/0912 30008KT CAVOK FM081500 25008KT CAVOK FM090000 16008KT CAVOK FM090400 05008KT CAVOK
YFRT,TAF YFRT 080719Z 0808/0820 28016KT CAVOK FM080900 27010KT 9999 SCT050 FM081600 21006KT 9999 SCT010 BKN020 PROB30 0817/0820 0300 FG BKN001
YGEL,TAF YGEL 081143Z 0812/0906 08006KT CAVOK
YGLA,TAF YGLA 081102Z 0812/0900 19005KT 9999 FEW040 FM082300 18006KT 9999 SCT045 PROB30 0812/0822 0500 FG
YHID,TAF AMD YHID 081102Z 0812/0912 13012KT 9999 SCT020 FM090000 11016G26KT 9999 FEW025 FM090800 13012KT 9999 SCT020
YLHI,TAF AMD YLHI 081126Z 0812/0912 05010KT 9999 SCT035 FM081600 36012KT 9999 -SHRA BKN030 FM082100 32015KT 9999 -SHRA BKN030 FM090800 21012KT 9999 NSW SCT020 INTER 0900/0902 5000 SHRA BKN025 INTER 0902/0906 4000 SHRA BKN015 INTER 0906/0912 5000 SHRA BKN025
YMAV,TAF AMD YMAV 081128Z 0812/0912 35015G25KT 9999 -SHRA FEW025 BKN035 BECMG 0816/0817 30012KT 9999 NSW FEW030 FM082300 29018G28KT 9999 -SHRA SCT040 FM090600 30012KT 9999 -SHRA SCT040 INTER 0812/0815 32020G35KT 4000 SHRA SCT015 BKN030
YMHB,TAF YMHB 081125Z 0812/0912 36012KT CAVOK FM081800 32012KT 9999 -SHRA SCT030 FM090300 32015G25KT 9999 NSW SCT040 FM090600 33014KT CAVOK
YMLT,TAF AMD YMLT 081111Z 0811/0912 35014KT 9999 -SHRA SCT008 BKN018 FM081900 33012KT 9999 NSW FEW015 FM090200 31015G25KT 9999 SCT035 FM090800 34012KT 9999 SCT040 TEMPO 0811/0814 5000 SHRA BKN005 TEMPO 0814/0819 34020G32KT 4000 SHRA BKN005
YMML,TAF AMD YMML 081128Z 0812/0918 35015G25KT 9999 -SHRA FEW020 SCT040 BECMG 0816/0817 31010KT CAVOK FM090000 29015G25KT 9999 FEW045 FM090500 30012KT 9999 SCT050 FM090800 33010KT CAVOK INTER 0812/0816 32020G35KT 4000 SHRA SCT015 BKN030
YPAD,TAF AMD YPAD 081105Z 0812/0918 26012KT 9999 -SHRA SCT040 FM090000 26010KT 9999 -SHRA BKN040 FM091200 31008KT 9999 -SHRA BKN040 FM091600 03006KT 9999 -SHRA BKN025
YPCC,TAF YPCC 081119Z 0812/0912 10016KT 9999 SCT020 FM082000 13020KT 9999 SCT020 INTER 0815/0903 2000 SHRA BKN010
YPDN,TAF YPDN 081114Z 0812/0918 06005KT 9999 FU NSC FM081500 12005KT 9999 NSW FEW010 SCT040 FM090000 10010KT CAVOK FM090500 02012KT 9999 FU NSC FM091000 06005KT 9999 FU NSC FM091400 13005KT 9999 NSW FEW010
YPEA,TAF AMD YPEA 081259Z 0812/0906 01005KT 9999 -SHRA BKN009 FM090300 33007KT 9999 -SHRA SCT015 BKN020 TEMPO 0812/0903 2000 -DZ BKN005 INTER 0903/0906 3000 SHRA BKN010
YPJT,TAF AMD YPJT 081148Z 0811/0906 01005KT 8000 HZ BKN030 FM081600 04005KT 9999 -SHRA SCT006 BKN010 FM090300 36007KT 9999 -SHRA SCT015 BKN020 TEMPO 0816/0903 2000 DZ BKN006 INTER 0903/0906 3000 SHRA BKN010 PROB30 0811/0816 2000 BR
YPKG,TAF AMD YPKG 081141Z 0812/0912 23007KT 9999 BKN045 BECMG 0817/0818 13005KT 9999 -SHRA SCT010 BKN015 BECMG 0902/0903 01005KT 9999 -SHRA SCT030 PROB30 0817/0900 0300 FG
YPLM,TAF YPLM 081121Z 0812/0912 31008KT CAVOK BECMG 0813/0815 18008KT CAVOK FM090100 12010KT CAVOK FM090400 03010KT CAVOK FM090600 35010KT CAVOK BECMG 0909/0911 22006KT CAVOK
YPPD,TAF YPPD 081127Z 0812/0912 01006KT CAVOK BECMG 0812/0813 20005KT CAVOK FM081900 13007KT CAVOK FM090000 11015G25KT CAVOK FM090500 07012KT CAVOK FM090900 35006KT CAVOK
YPPH,TAF AMD YPPH 081130Z 0812/0918 04005KT 9999 -SHRA FEW010 BKN020 BECMG 0815/0817 02005KT 9999 -SHRA SCT006 BKN010 FM090300 36007KT 9999 -SHRA SCT015 BKN020 FM090600 32007KT 9999 -SHRA SCT015 BKN025 FM091200 03005KT 9999 -SHRA SCT012 BKN020 TEMPO 0812/0903 2000 DZ BKN006 INTER 0903/0907 3000 SHRA BKN010 INTER 0907/0918 4000 SHRA BKN015
YPTN,TAF YPTN 081113Z 0812/0912 13005KT CAVOK FM082000 15005KT 9999 SCT010 FM090000 10012KT CAVOK FM090900 09005KT CAVOK
YPWR,TAF YPWR 081105Z 0812/0906 27014KT CAVOK FM081800 26012KT 9999 SCT020 BKN030 FM082300 23008KT 9999 BKN040
YPXM,TAF AMD YPXM 081112Z 0812/0912 13014KT 9999 BKN010 TEMPO 0812/0912 9999 BKN007
YSCB,TAF AMD YSCB 081105Z 0811/0912 33012KT 9999 SCT040 FM081500 30010KT 9999 SCT020 FM082300 28015G28KT 9999 SCT025 FM090300 28012KT 9999 SCT040
YSDU,TAF AMD YSDU 081041Z 0810/0906 VRB03KT 0200 FG SCT001 BECMG 0822/0900 32005KT 9999 NSW FEW010 FM090100 29008KT CAVOK FM090300 28008KT 9999 SCT030
YSNF,TAF YSNF 081113Z 0812/0912 18010KT 9999 SCT040
YSRI,TAF YSRI 081118Z 0812/0912 VRB03KT CAVOK FM090100 28010KT CAVOK FM090700 28005KT CAVOK FM091000 VRB03KT CAVOK
YSSY,TAF YSSY 081118Z 0812/0918 29007KT CAVOK FM090100 27015G25KT CAVOK FM090900 26010KT CAVOK
YSTW,TAF AMD YSTW 081223Z 0812/0906 28005KT 9999 BKN012 BECMG 0822/0900 28008KT CAVOK PROB30 0812/0823 0500 FG BKN001
YWLM,TAF YWLM 081123Z 0812/0912 29008KT CAVOK FM082300 29018KT CAVOK FM090700 29010KT CAVOK PROB30 0812/0821 2000 BR
ZBAA,TAF ZBAA 080901Z 0812/0912 32004MPS CAVOK TX34/0907Z TN18/0821Z
ZBAD,TAF ZBAD 080905Z 0812/0912 22004MPS CAVOK TX34/0907Z TN18/0821Z BECMG 0818/0819 35005MPS
ZBHH,TAF ZBHH 080901Z 0812/0912 33004MPS 9999 FEW040 TX29/0907Z TN10/0822Z
ZBSJ,TAF ZBSJ 080920Z 0812/0912 33004MPS CAVOK TX36/0907Z TN20/0821Z
ZBTJ,TAF ZBTJ 080902Z 0812/0912 24003MPS 5000 HZ NSC TX34/0907Z TN23/0821Z BECMG 0901/0902 33006G11MPS
ZBYN,TAF ZBYN 080901Z 0812/0912 30004MPS 6000 NSC TX31/0907Z TN14/0822Z
ZGGG,TAF ZGGG 080904Z 0812/0912 16003MPS 8000 BKN033 TX31/0907Z TN26/0822Z TEMPO 0818/0822 SHRA FEW030CB BKN033 TEMPO 0906/0912 TSRA SCT030CB BKN033
ZGHA,TAF ZGHA 080901Z 0812/0912 15003MPS 4000 BR BKN050 TX33/0907Z TN24/0822Z
ZGKL,TAF ZGKL 080914Z 0812/0912 05003MPS 5000 BR SCT040 TX33/0907Z TN24/0822Z TEMPO 0821/0903 2200 SHRA BR SCT020 FEW033CB BKN033 TEMPO 0903/0909 2800 SHRA BR SCT020 FEW033CB BKN033
ZGNN,TAF AMD ZGNN 081207Z 0812/0912 04003MPS 6000 BKN030 TX28/0907Z TN24/0822Z TEMPO 0812/0818 SHRA SCT006 FEW026CB BKN030 TEMPO 0820/0902 +SHRA SCT006 FEW026CB BKN030 TEMPO 0903/0909 SHRA SCT006 FEW026CB BKN030
ZGOW,TAF ZGOW 080910Z 0812/0912 20003MPS 5000 BR SCT020 BKN040 TX34/0906Z TN27/0822Z TEMPO 0906/0912 2500 TSRA FEW011 SCT026CB BKN040
ZGSZ,TAF ZGSZ 080918Z 0812/0912 12004MPS 8000 FEW020 SCT040 TX32/0906Z TN27/0822Z TEMPO 0818/0824 SHRA SCT015 FEW020CB BKN030 BECMG 0900/0901 19005MPS TEMPO 0902/0908 TSRA SCT015 FEW020CB BKN030
ZHCC,TAF ZHCC 080905Z 0812/0912 24003MPS 5000 HZ NSC TX37/0907Z TN22/0822Z
ZHHH,TAF ZHHH 080901Z 0812/0912 22003MPS 6000 NSC TX34/0907Z TN23/0822Z
ZJHK,TAF ZJHK 080910Z 0812/0912 30003MPS 9999 SCT020 TX33/0906Z TN25/0821Z BECMG 0904/0905 FEW026CB SCT030 TEMPO 0905/0911 TSRA
ZJSY,TAF ZJSY 080903Z 0812/0912 26003MPS 9999 FEW020 SCT050 TX32/0906Z TN26/0821Z TEMPO 0818/0824 SCT016 FEW025CB
ZKPY,TAF ZKPY 080400Z 0806/0906 18006MPS 6000 -RA OVC020 TX22/0806Z TN16/0821Z TEMPO 0807/0811 2000 RA OVC007 BECMG 0814/0816 NSW
ZKWS,TAF ZKWS 080400Z 0806/0906 18006MPS 7000 -RA OVC020 TX23/0806Z TN17/0822Z BECMG 0815/0817 NSW
ZLLL,TAF ZLLL 080908Z 0812/0912 03003MPS 6000 NSC TX28/0908Z TN11/0822Z TEMPO 0906/0910 SCT023 FEW033CB
ZLXY,TAF ZLXY 080902Z 0812/0912 24003MPS 5000 HZ NSC TX36/0908Z TN20/0821Z
ZMCK,TAF ZMCK 081040Z 0812/0918 33010MPS 9999 FEW030CB SCT033 TN07/0822Z TX25/0907Z BECMG 0813/0815 VRB02MPS BECMG 0901/0903 34008MPS BECMG 0912/0914 VRB02MPS
ZMUB,TAF ZMUB 081040Z 0812/0918 VRB02MPS 9999 SCT033 TN07/0822Z TX25/0807Z BECMG 0902/0904 34007MPS BECMG 0911/0913 VRB02MPS
ZPPP,TAF ZPPP 080913Z 0812/0912 04004MPS 9999 SCT020 BKN033 TX20/0908Z TN14/0823Z
ZSAM,TAF AMD ZSAM 081201Z 0812/0912 19004MPS 6000 SCT015 BKN030 TX33/0906Z TN27/0821Z TEMPO 0812/0813 -TSRA FEW026CB BKN030 TEMPO 0906/0912 TSRA FEW026CB BKN030
ZSFZ,TAF ZSFZ 080927Z 0812/0912 18004MPS 6000 -TSRA BKN020 FEW025CB TX29/0906Z TN25/0912Z TEMPO 0812/0814 2000 TSRA BECMG 0814/0815 NSW BKN015 BECMG 0905/0906 -TSRA BKN008 FEW025CB TEMPO 0906/0912 2000 TSRA BKN004 SCT025CB
ZSHC,TAF ZSHC 080901Z 0812/0912 21003MPS 3000 BR SCT020 TX33/0906Z TN21/0821Z
ZSJN,TAF ZSJN 080906Z 0812/0912 21003MPS 5000 BR NSC TX32/0906Z TN21/0821Z
ZSNB,TAF ZSNB 080903Z 0812/0912 18004MPS 6000 SCT030 TX32/0906Z TN20/0821Z
ZSNJ,TAF ZSNJ 080902Z 0812/0912 25003MPS 3000 HZ NSC TX33/0906Z TN21/0821Z
ZSOF,TAF ZSOF 080901Z 0812/0912 27003MPS 3000 HZ NSC TX35/0907Z TN20/0821Z
ZSPD,TAF ZSPD 080903Z 0812/0912 19004MPS 6000 BKN015 TX33/0906Z TN22/0821Z
ZSQD,TAF ZSQD 080906Z 0812/0912 36005MPS 6000 NSC TX31/0906Z TN18/0821Z BECMG 0814/0815 17003MPS BECMG 0903/0904 17008MPS
ZSSS,TAF ZSSS 080903Z 0812/0912 20004MPS 6000 BKN015 TX34/0906Z TN23/0821Z
ZUCK,TAF ZUCK 080901Z 0812/0912 03003MPS 5000 BR SCT050 TX28/0907Z TN21/0820Z
ZUGY,TAF ZUGY 080902Z 0812/0912 02004MPS 6000 BKN033 TX27/0906Z TN16/0822Z
ZUUU,TAF ZUUU 080901Z 0812/0912 22003MPS 6000 SCT050 TX31/0907Z TN22/0821Z
ZWSH,TAF ZWSH 080910Z 0812/0912 32005MPS 6000 FEW033CB TX34/0909Z TN22/0900Z BECMG 0904/0905 10004MPS
ZWWW,TAF ZWWW 080904Z 0812/0912 30005G12MPS 9999 FEW040CB TX38/0909Z TN25/0823Z BECMG 0813/0814 20004G09MPS CAVOK BECMG 0902/0903 36004MPS BECMG 0907/0908 9999 FEW040CB
ZYCC,TAF ZYCC 080905Z 0812/0912 18004MPS 6000 SCT030 TX23/0906Z TN12/0820Z TEMPO 0905/0911 2000 -TSRA FEW023CB BKN030
ZYHB,TAF ZYHB 080902Z 0812/0912 09004MPS 6000 SCT030 TX24/0906Z TN14/0821Z
ZYTL,TAF ZYTL 080905Z 0812/0912 23004MPS 6000 NSC TX28/0906Z TN20/0821Z TEMPO 0812/0818 15005MPS
ZYTX,TAF ZYTX 080901Z 0812/0912 21004MPS 6000 NSC TX26/0906Z TN14/0821Z TEMPO 0905/0911 TSRA FEW030CB BKN033
