station_id,raw_text
AGGA,TAF AGGA 011715Z 0118/0218 18010KT 9999 SCT018 PROB40 INTER 0202/0206 5000 TSSH SCT015 FEW016CB BKN026
AGGC,TAF AGGC 011715Z 0118/0218 07010KT 9999 SCT018 PROB40 INTER 0202/0206 5000 TSSH SCT015 FEW016CB BKN026
AGGH,TAF AGGH 011715Z 0118/0218 05010KT 9999 SCT018 PROB40 INTER 0202/0206 5000 TSSH SCT015 FEW016CB BKN026 T 23 26 30 31 Q 1007 1009 1009 1007
AGGK,TAF AGGK 011715Z 0118/0218 05010KT 9999 SCT018 PROB40 INTER 0202/0206 5000 TSSH SCT015 FEW016CB BKN026
AGGL,TAF AGGL 011715Z 0118/0218 09010KT 9999 SCT018 PROB40 INTER 0202/0206 5000 TSSH SCT015 FEW016CB BKN026
AGGM,TAF AGGM 011715Z 0118/0218 05010KT 9999 SCT018 PROB40 INTER 0202/0206 5000 TSSH SCT015 FEW016CB BKN026 Q 1007 1009 1009 1007
AGGN,TAF AGGN 011715Z 0118/0218 05010KT 9999 SCT018 PROB40 INTER 0202/0206 5000 TSSH SCT015 FEW016CB BKN026 Q 1007 1009 1009 1007
AGGR,TAF AGGR 011715Z 0118/0218 09010KT 9999 SCT018
ANYN,TAF ANYN 011502Z 0118/0218 12012KT 9999 SCT020
AYPY,TAF AYPY 011500Z 0118/0218 12010KT 9999 SCT040 FM012200 10005KT 9999 SCT020 SCT140 FM020001 19006KT 9999 SCT020 FM020300 19007KT 9999 -RADZ SCT018 SCT130 FM020600 17012KT 9999 -SHRA SCT018 SCT040 PROB30 0119/0121 VRB03KT 0700 FG
BGBW,TAF BGBW 011704Z 0118/0122 VRB05KT 9999 BKN014 TEMPO 0118/0122 5000 RADZ SCT012 BKN025
BGGH,TAF BGGH 011704Z 0118/0124 01008KT 9999 FEW008 SCT080 BKN120 PROB40 0118/0124 BKN030 OVC080
BGPT,TAF BGPT 012003Z 0120/0123 VRB05KT 9999 SCT008 BKN025 TEMPO 0120/0123 BKN015
BGSF,TAF AMD BGSF 011855Z 0118/0201 VRB08KT 9999 BKN020 TEMPO 0118/0201 SCT020 BKN090
BIAR,TAF BIAR 011959Z 0121/0221 34008KT 9999 -RADZ BKN020 OVC030 TX10/0215Z TN06/0204Z TEMPO 0121/0207 3000 DZRA BR BKN012 OVC018
BIEG,TAF BIEG 012000Z 0121/0221 01009KT 9999 -RADZ SCT018 BKN024 TX10/0215Z TN07/0205Z TEMPO 0121/0206 4000 RADZ BKN007 OVC014 BECMG 0207/0209 20010KT BECMG 0212/0214 27016KT BKN030
BIIS,TAF BIIS 011616Z 0117/0202 03020KT 9000 -RA BKN020 OVC025 TEMPO 0117/0202 DZRA BKN012 OVC020 BECMG 0200/0202 04010KT
BIKF,TAF BIKF 011958Z 0121/0221 26020KT 9999 -RA FEW015 BKN025 TX09/0215Z TN07/0203Z TEMPO 0121/0206 4000 DZRA BKN007 OVC014 TEMPO 0200/0206 25026G38KT BECMG 0211/0213 20012KT BECMG 0215/0217 14020KT 8000 RADZ BKN008 OVC015
BIRK,TAF BIRK 011958Z 0121/0221 26020KT 9999 -RA BKN025 TX10/0216Z TN07/0203Z TEMPO 0121/0203 4000 RADZ BKN012 OVC020 TEMPO 0200/0208 26025G35KT 3000 RADZ BKN008 OVC018 BECMG 0211/0213 20012KT BECMG 0216/0218 13020KT
BIVM,TAF BIVM 011606Z 0117/0202 30020G30KT 9999 -RA BKN018 OVC025 BECMG 0117/0119 27030G40KT TEMPO 0117/0202 4000 DZRA BKN008 OVC015
BKPR,TAF BKPR 011730Z 0118/0218 22008KT 9999 BKN040 BECMG 0119/0122 30012KT TEMPO 0118/0202 4000 SHRA TEMPO 0118/0122 VRB20KT TS SCT030CB
CBBC,TAF CBBC 011840Z 0119/0205 VRB03KT P6SM BKN002 BECMG 0119/0120 FEW005 FM012000 VRB03KT P6SM FEW005 PROB30 0120/0203 BKN005 FM020300 VRB03KT 6SM BR SCT002 TEMPO 0203/0205 1SM BR BKN002 RMK FCST BASED ON AUTO OBS. NXT FCST BY 020100Z
CWSA,TAF CWSA 011940Z 0120/0124 24008KT P6SM BKN250 RMK FCST BASED ON AUTO OBS. CLD SENSOR INOP. NXT FCST BY 020800Z
CYAB,TAF AMD CYAB 012056Z 0120/0122 05010KT P6SM SCT015 OVC050 TEMPO 0120/0122 4SM -SN SCT009 OVC015 BECMG 0120/0122 10010KT RMK NXT FCST BY 031300Z
CYAM,TAF CYAM 011940Z 0120/0208 04008KT P6SM BKN030 FM020000 06010KT P6SM SCT040 FM020400 06005KT P6SM SKC RMK NXT FCST BY 020200Z
CYAY,TAF CYAY 011940Z 0120/0208 26012G22KT P6SM FEW050 FM020000 28010KT P6SM SCT050 TEMPO 0200/0208 BKN050 RMK FCST BASED ON AUTO OBS. NXT FCST BY 020200Z
CYAZ,TAF CYAZ 011840Z 0119/0201 19005KT P6SM SKC BECMG 0121/0123 29008KT RMK NXT FCST BY 021500Z
CYBB,TAF AMD CYBB 012013Z 0120/0124 18022G32KT P6SM SCT020 OVC080 TEMPO 0120/0121 2SM -SHSN SCT007 OVC020 FM012100 18022G32KT 6SM -SN SCT007 OVC020 TEMPO 0121/0124 2SM -SN OVC007 RMK NXT FCST BY 021900Z
CYBC,TAF CYBC 011940Z 0120/0208 01012KT P6SM FEW060 BECMG 0121/0123 32010G20KT FM020300 32012KT P6SM SKC RMK FCST BASED ON AUTO OBS. NXT FCST BY 020200Z
CYBG,TAF CYBG 012040Z 0121/0218 31012G22KT P6SM FEW030 SCT200 BECMG 0122/0124 31008KT FM020200 30008KT P6SM SCT030 FM020700 VRB03KT P6SM FEW025 BECMG 0213/0215 31008KT RMK NXT FCST BY 020000Z
CYBK,TAF CYBK 011740Z 0118/0206 20015G25KT P6SM -RA SCT015 OVC040 TEMPO 0118/0120 4SM -RA BR BKN015 OVC040 FM012000 22015KT P6SM SCT008 BKN015 TEMPO 0120/0202 4SM -DZ BR SCT004 BKN008 OVC015 BECMG 0120/0122 27015KT FM020200 30010KT P6SM SCT008 BKN015 BKN150 TEMPO 0202/0206 4SM -RA BR SCT004 BKN008 OVC015 PROB30 0202/0206 1SM BR BKN004 RMK NXT FCST BY 020000Z
CYBL,TAF CYBL 011840Z 0119/0204 VRB03KT P6SM SKC RMK NXT FCST BY 020100Z
CYBR,TAF CYBR 011740Z 0118/0206 06010G20KT P6SM BKN008 BECMG 0118/0119 SCT008 FM011900 07015G25KT P6SM SCT015 TEMPO 0119/0121 BKN015 FM012100 07012G22KT P6SM FEW020 BKN250 BECMG 0200/0202 07008KT RMK NXT FCST BY 020000Z
CYBW,TAF CYBW 011740Z 0118/0204 VRB03KT P6SM SKC BECMG 0119/0121 16012KT RMK FCST BASED ON AUTO OBS. NXT FCST BY 020000Z
CYBX,TAF CYBX 011940Z 0120/0208 29012G22KT P6SM FEW050 FM012200 29010KT P6SM SCT050 TEMPO 0122/0208 BKN050 RMK NXT FCST BY 020200Z
CYCA,TAF CYCA 011940Z 0120/0208 28012G25KT P6SM BKN050 TEMPO 0120/0206 SCT050 BECMG 0121/0123 29010G20KT FM020600 29008G18KT P6SM SCT020 BKN050 TEMPO 0206/0208 BKN020 BKN050 RMK FCST BASED ON AUTO OBS. NXT FCST BY 020200Z
CYCB,TAF CYCB 011840Z 0119/0207 29015KT 3SM -RASN BR OVC004 TEMPO 0119/0207 P6SM -RA SCT005 BKN010 OVC050 BECMG 0201/0203 30008KT RMK NXT FCST BY 020100Z
CYCD,TAF CYCD 011740Z 0118/0204 VRB03KT P6SM SKC BECMG 0118/0120 01007KT RMK NXT FCST BY 020000Z
CYCG,TAF CYCG 011840Z 0119/0204 34010KT P6SM SKC RMK NXT FCST BY 020100Z
CYCO,TAF AMD CYCO 011854Z 0119/0207 19005KT P6SM SCT010 SCT020 TEMPO 0119/0124 BKN008 OVC020 BECMG 0120/0122 09012KT FM020000 09015KT P6SM SCT015 BKN030 TEMPO 0200/0203 3SM -RA BR SCT005 BKN015 OVC030 FM020300 09015KT 2SM -RA BR OVC005 TEMPO 0203/0207 6SM -RA BR OVC015 BECMG 0204/0206 07020KT RMK NXT FCST BY 020100Z
CYCY,TAF CYCY 011840Z 0119/0207 31015G25KT P6SM SCT015 BKN030 TEMPO 0119/0123 BKN015 OVC030 BECMG 0121/0123 28008KT FM012300 28008KT P6SM SCT020 RMK FCST BASED ON AUTO OBS. NXT FCST BY 020100Z
CYDA,TAF CYDA 011540Z 0116/0123 VRB03KT P6SM FEW003 OVC030 TEMPO 0116/0123 P6SM -RA SCT003 BECMG 0118/0120 27010G20KT RMK NXT FCST BY 021600Z
CYDB,TAF CYDB 011740Z 0118/0206 27005KT P6SM SCT006 SCT040 TEMPO 0118/0206 BKN040 RMK NXT FCST BY 020000Z
CYDF,TAF CYDF 011940Z 0120/0208 27008KT P6SM BKN040 TEMPO 0120/0122 BKN020 FM012200 27008KT P6SM SCT030 TEMPO 0122/0208 BKN030 BECMG 0122/0124 25005KT RMK NXT FCST BY 020200Z
CYDL,TAF CYDL 011740Z 0118/0124 23010KT P6SM BKN060 TEMPO 0118/0122 P6SM -RA SCT020 OVC040 FM012200 24010G20KT P6SM BKN060 RMK FCST BASED ON AUTO OBS. NXT FCST BY 021300Z
CYDN,TAF CYDN 011740Z 0118/0206 04006KT P6SM FEW250 BECMG 0120/0122 10008KT BECMG 0203/0205 VRB03KT RMK FCST BASED ON AUTO OBS. NXT FCST BY 020000Z
CYDP,TAF CYDP 011940Z 0120/0123 30017G27KT P6SM BKN060 TEMPO 0120/0123 P6SM -SHRA BECMG 0121/0123 32012G22KT RMK NXT FCST BY 021000Z
CYDQ,TAF CYDQ 011840Z 0119/0205 16007KT P6SM SKC BECMG 0119/0121 20012G22KT RMK FCST BASED ON AUTO OBS. NXT FCST BY 020100Z
CYEG,TAF CYEG 012040Z 0121/0218 14012KT P6SM FEW240 FM020500 19010KT P6SM SKC FM021100 22005KT P6SM SKC PROB30 0211/0215 1SM BR FM021700 32008KT P6SM SKC RMK NXT FCST BY 020000Z
CYEK,TAF CYEK 011754Z 0118/0206 18015KT P6SM SCT040 BKN100 TEMPO 0118/0120 FEW020 BKN040 BECMG 0118/0120 22020G30KT FM012000 22020G30KT P6SM SCT020 BKN040 OVC150 TEMPO 0120/0206 BKN020 OVC040 BECMG 0122/0124 24015KT RMK NXT FCST BY 020000Z
CYEN,TAF CYEN 011740Z 0118/0124 09015G25KT P6SM BKN010 TEMPO 0118/0121 SCT010 BKN200 FM012100 09015G25KT P6SM SCT080 BKN200 RMK FCST BASED ON AUTO OBS. T SENSOR INOP. DP SENSOR INOP. NXT FCST BY 021200Z
CYEU,TAF CYEU 011751Z 0118/0202 03008KT P6SM -SN FEW005 OVC020 TEMPO 0118/0202 P6SM NSW FEW010 OVC025 RMK ADVISORY OFFSITE. NXT FCST BY 020000Z
CYEV,TAF AMD CYEV 011947Z 0119/0207 01008G18KT P6SM SCT005 OVC040 TEMPO 0119/0122 P6SM -DZ OVC004 FM012200 02012G22KT P6SM -SN SCT005 OVC020 TEMPO 0122/0207 2SM -SN OVC005 RMK NXT FCST BY 020100Z
CYFB,TAF CYFB 011740Z 0118/0218 33022G32KT P6SM FEW010 SCT020 SCT100 FM012200 33018G28KT P6SM FEW020 FM020300 32018G28KT P6SM FEW009 SCT020 TEMPO 0203/0206 SCT009 BKN020 FM020600 32015G25KT P6SM SCT009 BKN020 TEMPO 0206/0215 BKN009 BECMG 0208/0210 32010KT RMK NXT FCST BY 020000Z
CYFC,TAF CYFC 011740Z 0118/0206 21007KT P6SM BKN230 FM020000 32006KT P6SM SCT040 BKN100 TEMPO 0200/0206 BKN040 BECMG 0201/0203 02010G20KT RMK FCST BASED ON AUTO OBS. NXT FCST BY 020000Z
CYFS,TAF CYFS 011740Z 0118/0206 VRB03KT P6SM BKN120 OVC240 TEMPO 0118/0121 5SM FU FM012100 15008KT P6SM SCT060 BKN140 BECMG 0122/0124 20010KT FM020300 21010KT P6SM FEW080 SCT160 RMK NXT FCST BY 020000Z
CYGH,TAF CYGH 011740Z 0118/0123 07008KT P6SM -RA BKN060 OVC070 BECMG 0119/0121 09010KT FM012100 09010KT P6SM -RA SCT008 BKN030 TEMPO 0121/0123 2SM -SHRA BR BKN008 OVC020 BECMG 0121/0123 26007KT RMK NXT FCST BY 031400Z
CYGK,TAF CYGK 011940Z 0120/0203 01010KT P6SM FEW160 BKN210 BECMG 0120/0122 03010G20KT RMK NXT FCST BY 021200Z
CYGL,TAF CYGL 011740Z 0118/0218 31008G18KT P6SM BKN025 TEMPO 0118/0202 P6SM -SHSNRA BKN020 FM020200 28007KT P6SM SCT005 SCT030 TEMPO 0202/0209 BKN030 PROB30 0203/0209 BKN005 FM020900 24007KT P6SM SCT006 OVC020 FM021400 24010G20KT P6SM -SHRA BKN020 BKN120 RMK NXT FCST BY 020000Z
CYGP,TAF CYGP 011940Z 0120/0208 34012KT P6SM FEW070 BKN220 BECMG 0120/0122 31010G20KT FM020300 30008KT P6SM SCT030 RMK NXT FCST BY 020200Z
CYGQ,TAF CYGQ 011940Z 0120/0208 08008G18KT P6SM FEW020 FM012300 08005KT P6SM SKC BECMG 0200/0202 VRB03KT RMK FCST BASED ON AUTO OBS. NXT FCST BY 020200Z
CYGR,TAF CYGR 011940Z 0120/0202 31010KT P6SM FEW010 BKN240 FM012200 35012KT P6SM BKN060 RMK NXT FCST BY 021100Z
CYGV,TAF CYGV 011940Z 0120/0208 28012G22KT P6SM SKC BECMG 0122/0124 32010G20KT RMK FCST BASED ON AUTO OBS. NXT FCST BY 020200Z
CYGW,TAF AMD CYGW 011848Z 0118/0206 31010G20KT P6SM FEW020 OVC040 TEMPO 0118/0206 5SM -SHRA BR OVC020 RMK FCST BASED ON AUTO OBS. NXT FCST BY 020000Z
CYGX,TAF CYGX 011840Z 0119/0207 23008KT P6SM SKC FM020400 21010KT P6SM SCT040 BKN200 RMK NXT FCST BY 020100Z
CYHD,TAF CYHD 011940Z 0120/0208 08010KT P6SM OVC015 TEMPO 0120/0204 BKN025 BECMG 0122/0124 11006KT FM020400 14006KT P6SM OVC005 TEMPO 0204/0208 OVC010 RMK FCST BASED ON AUTO OBS. NXT FCST BY 020200Z
CYHI,TAF CYHI 011840Z 0119/0124 26015KT P6SM -SN BKN015 TEMPO 0119/0124 4SM -SN BR BKN008 BECMG 0122/0124 25010KT RMK NXT FCST BY 021600Z
CYHK,TAF AMD CYHK 011914Z 0119/0206 20025G35KT P6SM -RA SCT004 OVC010 TEMPO 0119/0122 2SM -RASN OVC004 BECMG 0119/0120 28015G25KT FM012200 28015G25KT P6SM SCT008 OVC015 TEMPO 0122/0203 3SM -RA SCT005 OVC008 FM020300 30015KT P6SM SCT005 OVC010 TEMPO 0203/0206 2SM -SN -FZDZ BR OVC005 RMK FCST BASED ON AUTO OBS. NXT FCST BY 020000Z
CYHM,TAF CYHM 011740Z 0118/0218 02010G20KT P6SM FEW180 BKN210 FM020400 04015G25KT P6SM BKN040 TEMPO 0204/0215 BKN020 FM021500 04015G25KT P6SM FEW030 RMK NXT FCST BY 020000Z
CYHU,TAF CYHU 011740Z 0118/0218 05008KT P6SM FEW100 BKN250 FM012000 02010KT P6SM BKN040 FM020200 02012KT P6SM FEW040 FM021500 02012G22KT P6SM SKC RMK FCST BASED ON AUTO OBS. NXT FCST BY 020000Z
CYHY,TAF CYHY 011740Z 0118/0206 18008KT P6SM FEW060 BKN190 BECMG 0119/0121 20012KT FM020300 20012KT P6SM SCT080 BKN150 TEMPO 0203/0206 BKN060 RMK NXT FCST BY 020000Z
CYHZ,TAF CYHZ 012040Z 0121/0218 23010KT P6SM BKN200 FM012200 32008KT P6SM BKN150 FM020500 01008KT P6SM FEW015 BKN025 FM020900 02012KT P6SM BKN040 FM021500 01012G22KT P6SM SCT040 RMK NXT FCST BY 020000Z
CYIO,TAF CYIO 011840Z 0119/0207 26008KT P6SM SCT020 BKN150 TEMPO 0119/0205 BKN020 OVC150 BECMG 0121/0123 21008KT FM020500 18005KT P6SM SCT015 BKN060 OVC150 TEMPO 0205/0207 P6SM -SN FEW008 BKN015 OVC060 RMK FCST BASED ON AUTO OBS. NXT FCST BY 020100Z
CYIV,TAF CYIV 011840Z 0119/0207 14008KT P6SM SKC BECMG 0204/0206 19008KT RMK FCST BASED ON AUTO OBS. NXT FCST BY 020100Z
CYJT,TAF CYJT 011740Z 0118/0218 26012KT P6SM SCT020 BKN030 TEMPO 0118/0122 P6SM -SHRA BKN020 OVC030 FM012200 30010KT P6SM SCT050 TEMPO 0122/0206 BKN050 BECMG 0201/0203 33005KT FM020600 33008KT P6SM BKN050 BECMG 0212/0214 31012KT RMK NXT FCST BY 020000Z
CYKA,TAF CYKA 011840Z 0119/0207 09007KT P6SM SKC BECMG 0202/0204 VRB03KT RMK NXT FCST BY 020100Z
CYKF,TAF CYKF 011940Z 0120/0208 05012KT P6SM BKN240 BECMG 0120/0122 02012KT FM020600 01012KT P6SM SCT025 RMK FCST BASED ON AUTO OBS. NXT FCST BY 020200Z
CYKJ,TAF AMD CYKJ 012052Z 0120/0124 20010G20KT P6SM SCT010 TEMPO 0120/0122 BKN010 RMK FCST BASED ON AUTO OBS. NXT FCST BY 021000Z
CYKL,TAF CYKL 011940Z 0120/0208 29012G22KT P6SM BKN030 TEMPO 0120/0124 4SM -SHRASN OVC020 PROB30 0120/0124 2SM -SHSN FM020000 31008G18KT 4SM -SHSN OVC020 TEMPO 0200/0208 P6SM NSW OVC030 PROB30 0200/0208 2SM -SHSN RMK FCST BASED ON AUTO OBS. NXT FCST BY 020200Z
CYLD,TAF CYLD 011940Z 0120/0201 04010KT P6SM FEW020 RMK NXT FCST BY 021200Z
CYLL,TAF AMD CYLL 012000Z 0120/0206 14010KT P6SM SCT012 TEMPO 0120/0123 BKN012 FM012300 15012KT P6SM SKC RMK NXT FCST BY 020000Z
CYLW,TAF CYLW 011840Z 0119/0207 01005KT P6SM SKC BECMG 0119/0121 35010KT BECMG 0203/0205 VRB03KT RMK FCST BASED ON AUTO OBS. NXT FCST BY 020100Z
CYMA,TAF CYMA 011740Z 0118/0206 36010KT P6SM -RA FEW012 SCT020 BKN030 TEMPO 0118/0124 5SM -SHRA BR OVC012 FM020000 36012G22KT P6SM FEW020 BKN030 TEMPO 0200/0203 5SM -RASN BR BKN020 RMK NXT FCST BY 020000Z
CYMH,TAF CYMH 011940Z 0120/0203 31012G22KT P6SM SCT060 TEMPO 0120/0203 BKN060 BECMG 0122/0124 30008G18KT RMK FCST BASED ON AUTO OBS. NXT FCST BY 020900Z
CYMM,TAF CYMM 011840Z 0119/0207 12012KT P6SM FEW010 FM012100 20012KT P6SM SKC RMK FCST BASED ON AUTO OBS. NXT FCST BY 020100Z
CYMO,TAF CYMO 011740Z 0118/0206 34010G20KT P6SM BKN030 BECMG 0118/0120 34010KT FM012200 34010KT P6SM BKN030 TEMPO 0122/0206 BKN020 RMK FCST BASED ON AUTO OBS. NXT FCST BY 020000Z
CYMT,TAF CYMT 011740Z 0118/0124 31010G20KT P6SM BKN030 TEMPO 0118/0123 BKN020 BECMG 0118/0120 33010KT FM012300 33010KT P6SM FEW030 RMK FCST BASED ON AUTO OBS. NXT FCST BY 021200Z
CYMX,TAF CYMX 011740Z 0118/0218 VRB03KT P6SM FEW100 BKN250 FM011900 07005KT P6SM BKN040 FM020100 03005KT P6SM FEW040 FM021500 03010G20KT P6SM SKC RMK NXT FCST BY 020000Z
CYNA,TAF CYNA 011940Z 0120/0208 26012G22KT P6SM FEW050 BECMG 0122/0124 32010G20KT RMK FCST BASED ON AUTO OBS. NXT FCST BY 020200Z
CYND,TAF CYND 011740Z 0118/0201 31007KT P6SM BKN250 FM011900 35010KT P6SM BKN040 RMK NXT FCST BY 021300Z
CYNE,TAF CYNE 011840Z 0119/0207 VRB03KT P6SM SKC BECMG 0121/0123 18006KT RMK FCST BASED ON AUTO OBS. NXT FCST BY 020100Z
CYOC,TAF CYOC 011840Z 0119/0201 03020G30KT P6SM -RA SCT015 BKN040 TEMPO 0119/0121 3SM -SHRASN BKN015 FM012100 03015G25KT 5SM -SN SCT015 BKN040 TEMPO 0121/0201 3SM -SHSN BKN015 RMK NXT FCST BY 021500Z
CYOD,TAF CYOD 012040Z 0121/0218 15008KT P6SM OVC010 BECMG 0121/0123 FEW010 FM020600 20008KT P6SM SKC RMK NXT FCST BY 020000Z
CYOJ,TAF CYOJ 011840Z 0119/0207 18008KT P6SM SCT180 BKN260 BECMG 0119/0121 18010G20KT FM020300 19008KT P6SM BKN120 RMK NXT FCST BY 020100Z
CYOO,TAF CYOO 011940Z 0120/0208 03010KT P6SM BKN230 BECMG 0120/0122 04012KT FM020300 04012KT P6SM SCT020 RMK FCST BASED ON AUTO OBS. NXT FCST BY 020200Z
CYOW,TAF CYOW 012040Z 0121/0218 36012KT P6SM SCT040 TEMPO 0121/0204 BKN040 FM020400 02012KT P6SM FEW040 FM021500 02012G22KT P6SM SKC RMK NXT FCST BY 020000Z
CYPA,TAF CYPA 011840Z 0119/0207 16005KT P6SM SCT120 RMK NXT FCST BY 020100Z
CYPC,TAF CYPC 011840Z 0119/0123 24006KT P6SM SCT020 BKN040 TEMPO 0119/0123 BKN020 OVC040 BECMG 0120/0122 02010KT RMK NXT FCST BY 021500Z
CYPE,TAF CYPE 011840Z 0119/0207 20008KT P6SM SCT240 BECMG 0120/0122 22015KT RMK NXT FCST BY 020100Z
CYPH,TAF CYPH 011740Z 0118/0206 33012G22KT P6SM SCT020 BKN040 TEMPO 0118/0122 3SM -SHSNRA BKN020 PROB30 0118/0122 1 1/2SM -SHSN FM020000 30012KT P6SM BKN030 TEMPO 0200/0206 BKN020 RMK FCST BASED ON AUTO OBS. NXT FCST BY 020000Z
CYPL,TAF CYPL 011940Z 0120/0208 12008G18KT P6SM FEW030 SCT150 BECMG 0203/0205 15005KT FM020600 18005KT P6SM BKN020 TEMPO 0206/0208 BKN030 RMK FCST BASED ON AUTO OBS. NXT FCST BY 020200Z
CYPQ,TAF CYPQ 011940Z 0120/0202 03010KT P6SM BKN240 RMK FCST BASED ON AUTO OBS. NXT FCST BY 021000Z
CYPR,TAF CYPR 011840Z 0119/0207 14010G20KT P6SM OVC025 TEMPO 0119/0121 5SM -RA BR OVC020 FM012100 14012G22KT P6SM -RA SCT006 OVC025 TEMPO 0121/0203 2SM RA BR BKN006 OVC020 BECMG 0123/0201 32010KT FM020300 34007KT P6SM SCT015 TEMPO 0203/0207 BKN015 RMK FCST BASED ON AUTO OBS. NXT FCST BY 020100Z
CYPX,TAF CYPX 011749Z 0118/0206 32015G25KT P6SM SCT015 OVC030 TEMPO 0118/0206 3SM -RASN BR SCT008 OVC015 BECMG 0200/0202 25012KT RMK FCST BASED ON AUTO OBS. NXT FCST BY 020000Z
CYPY,TAF CYPY 011140Z 0112/0124 12008KT P6SM SKC BECMG 0117/0119 20012KT RMK FCST BASED ON AUTO OBS. NXT FCST BY 011800Z
CYQA,TAF CYQA 011940Z 0120/0202 VRB03KT P6SM SCT030 TEMPO 0120/0202 BKN030 BECMG 0120/0122 36010KT RMK FCST BASED ON AUTO OBS. NXT FCST BY 021200Z
CYQB,TAF CYQB 011740Z 0118/0218 24007KT P6SM BKN040 BKN080 FM012100 35008KT P6SM FEW040 FM021500 07008KT P6SM SKC RMK NXT FCST BY 020000Z
CYQD,TAF CYQD 011840Z 0119/0207 17008KT P6SM FEW050 BECMG 0119/0121 14008KT RMK FCST BASED ON AUTO OBS. NXT FCST BY 020100Z
CYQF,TAF CYQF 011740Z 0118/0206 VRB03KT P6SM SKC BECMG 0118/0120 16012KT FM020500 18006KT P6SM SKC RMK FCST BASED ON AUTO OBS. AUTO OBS REP NON-REPRESENTATIVE VIS. NXT FCST BY 020000Z
CYQG,TAF CYQG 011740Z 0118/0218 02010G20KT P6SM SCT200 BECMG 0118/0120 03015G25KT FM020600 03012G22KT P6SM SCT020 FM021500 04015KT P6SM FEW020 RMK FCST BASED ON AUTO OBS. NXT FCST BY 020000Z
CYQH,TAF CYQH 011740Z 0118/0206 15009KT P6SM FEW060 OVC090 TEMPO 0118/0123 P6SM -SHRA BKN060 FM012300 24012G22KT P6SM SCT060 RMK NXT FCST BY 020000Z
CYQI,TAF CYQI 011740Z 0118/0206 25005KT P6SM OVC180 FM012000 31006KT P6SM FEW080 BKN120 TEMPO 0120/0204 P6SM -SHRA BKN080 FM020400 VRB03KT P6SM FEW130 PROB30 0204/0206 2SM BR BKN004 RMK NXT FCST BY 020000Z
CYQK,TAF CYQK 011940Z 0120/0208 10008KT P6SM OVC008 TEMPO 0120/0122 OVC012 FM012200 10006KT P6SM BKN020 TEMPO 0122/0203 BKN030 FM020300 13005KT P6SM OVC006 TEMPO 0203/0208 OVC010 RMK NXT FCST BY 020200Z
CYQL,TAF CYQL 011740Z 0118/0206 30006KT P6SM SCT030 FM012100 35007KT P6SM SKC BECMG 0201/0203 23007KT FM020500 23007KT P6SM SCT025 TEMPO 0205/0206 BKN020 RMK NXT FCST BY 020000Z
CYQM,TAF CYQM 011740Z 0118/0218 25005KT P6SM FEW040 BKN240 BECMG 0119/0121 30008KT FM012300 02008KT P6SM BKN030 FM020100 04008KT 5SM -RA BR SCT008 OVC015 PROB30 0201/0205 OVC008 FM020500 03008KT P6SM FEW020 BKN030 BECMG 0207/0209 36010KT FM021200 35010G20KT P6SM BKN040 FM021500 35010G20KT P6SM SCT040 RMK NXT FCST BY 020000Z
CYQQ,TAF CYQQ 011740Z 0118/0218 34008KT P6SM SKC BECMG 0118/0120 02005KT BECMG 0200/0202 VRB03KT RMK NXT FCST BY 020000Z
CYQR,TAF CYQR 011740Z 0118/0218 08008KT P6SM FEW020 SCT250 BECMG 0121/0123 12012KT FM020900 12010KT P6SM BKN080 RMK NXT FCST BY 020000Z
CYQT,TAF CYQT 011940Z 0120/0208 09008G18KT P6SM OVC015 TEMPO 0120/0203 OVC025 BECMG 0122/0124 11005KT FM020300 VRB03KT P6SM BKN030 TEMPO 0203/0208 BKN020 RMK NXT FCST BY 020200Z
CYQU,TAF CYQU 011840Z 0119/0207 17005KT P6SM FEW240 FM012200 18010KT P6SM SKC BECMG 0201/0203 24010G20KT RMK NXT FCST BY 020100Z
CYQV,TAF CYQV 011740Z 0118/0206 07008KT P6SM FEW250 BECMG 0120/0122 11008KT RMK FCST BASED ON AUTO OBS. NXT FCST BY 020000Z
CYQW,TAF CYQW 011740Z 0118/0206 14012KT P6SM OVC009 BECMG 0118/0120 SCT015 FM012000 15012KT P6SM SCT015 TEMPO 0120/0121 BKN015 FM012100 15012KT P6SM FEW080 BECMG 0203/0205 12008KT RMK FCST BASED ON AUTO OBS. NXT FCST BY 020000Z
CYQX,TAF CYQX 011740Z 0118/0218 27015G25KT P6SM SCT040 BKN120 TEMPO 0118/0122 BKN040 BKN120 FM012200 30015G25KT P6SM SCT020 OVC040 TEMPO 0122/0201 P6SM -SHRA BKN020 OVC040 BECMG 0122/0124 33010G20KT FM020100 33010G20KT P6SM OVC025 FM020300 30012KT P6SM SCT030 BECMG 0204/0206 30008KT FM021200 29012KT P6SM BKN030 RMK NXT FCST BY 020000Z
CYQY,TAF CYQY 011740Z 0118/0206 26012G22KT P6SM BKN240 BECMG 0119/0121 32010KT FM020200 36010KT P6SM FEW005 SCT010 BKN040 TEMPO 0202/0206 BKN010 PROB30 0202/0206 BKN005 RMK NXT FCST BY 020000Z
CYQZ,TAF CYQZ 011840Z 0119/0206 VRB03KT P6SM SKC BECMG 0119/0121 15008KT RMK FCST BASED ON AUTO OBS. NXT FCST BY 020100Z
CYRB,TAF CYRB 011740Z 0118/0218 12020G30KT 4SM -SN SCT005 BKN015 OVC030 TEMPO 0118/0203 1SM -SHSN BLSN BKN005 OVC015 FM020300 12015KT P6SM SCT005 OVC010 TEMPO 0203/0218 2SM -SN -FZDZ BR OVC005 RMK NXT FCST BY 020000Z
CYRJ,TAF CYRJ 011940Z 0120/0202 32012KT P6SM SCT040 BKN220 RMK NXT FCST BY 021200Z
CYRL,TAF CYRL 011940Z 0120/0202 11008KT P6SM FEW020 TEMPO 0120/0122 BKN020 RMK NXT FCST BY 021100Z
CYRQ,TAF CYRQ 011940Z 0120/0208 35010KT P6SM OVC030 FM012300 01010KT P6SM FEW030 RMK FCST BASED ON AUTO OBS. NXT FCST BY 020200Z
CYRT,TAF CYRT 011740Z 0118/0206 20020G30KT P6SM SCT020 BKN080 TEMPO 0118/0120 P6SM -SHRA FM012000 22020G30KT P6SM SCT015 BKN040 TEMPO 0120/0202 P6SM -RA BKN015 OVC040 BECMG 0200/0202 25015KT FM020200 25015KT P6SM SCT010 BKN020 TEMPO 0202/0206 5SM -DZ BR BECMG 0202/0204 28010KT RMK NXT FCST BY 020000Z
CYSB,TAF CYSB 011940Z 0120/0208 03012KT P6SM FEW015 BKN070 FM012200 03012KT P6SM FEW015 RMK NXT FCST BY 020200Z
CYSC,TAF CYSC 011740Z 0118/0203 VRB03KT P6SM SKC FM020000 34005KT P6SM BKN030 TEMPO 0200/0203 BKN020 RMK FCST BASED ON AUTO OBS. NXT FCST BY 020000Z
CYSF,TAF AMD CYSF 011945Z 0119/0206 17006KT P6SM SCT020 TEMPO 0119/0122 BKN020 BECMG 0120/0122 20010KT FM012200 20010KT P6SM FEW020 SCT180 RMK FCST BASED ON AUTO OBS. NXT FCST BY 020000Z
CYSJ,TAF CYSJ 011740Z 0118/0206 VRB03KT P6SM BKN230 BECMG 0200/0202 02010KT FM020400 02010G20KT P6SM FEW015 BKN040 TEMPO 0204/0206 BKN015 RMK NXT FCST BY 020000Z
CYSM,TAF CYSM 011740Z 0118/0206 15010KT P6SM SCT006 OVC150 TEMPO 0118/0121 BKN006 BKN150 BECMG 0119/0121 18012KT FM012100 18012KT P6SM SCT150 BKN220 RMK NXT FCST BY 020000Z
CYSN,TAF CYSN 011940Z 0120/0201 04012KT P6SM FEW120 BKN220 BECMG 0120/0122 05012KT RMK NXT FCST BY 021300Z
CYSY,TAF CYSY 011840Z 0119/0123 25018G28KT 4SM -SN BR BKN004 OVC012 TEMPO 0119/0123 6SM -SN SCT004 OVC015 BECMG 0121/0123 30015KT RMK NXT FCST BY 021500Z
CYTE,TAF CYTE 011840Z 0119/0207 32015KT P6SM SCT015 TEMPO 0119/0121 BKN015 FM012100 29012KT P6SM SCT012 BKN030 BKN150 TEMPO 0121/0207 BKN012 OVC030 BECMG 0201/0203 25015G25KT RMK NXT FCST BY 020100Z
CYTH,TAF CYTH 011840Z 0119/0207 16006KT P6SM SKC FM012300 VRB03KT P6SM FEW020 BKN220 RMK NXT FCST BY 020100Z
CYTL,TAF CYTL 011940Z 0120/0208 17005KT P6SM SKC BECMG 0122/0124 17012KT BECMG 0206/0208 21012KT RMK FCST BASED ON AUTO OBS. NXT FCST BY 020200Z
CYTR,TAF CYTR 011740Z 0118/0218 04008KT P6SM FEW160 BKN240 FM012000 04010KT P6SM FEW040 SCT100 BKN240 BECMG 0200/0202 03010G20KT FM020400 03015G25KT P6SM BKN030 BKN260 FM020800 03015G25KT P6SM FEW030 FEW150 FM021600 03012G22KT P6SM SKC RMK NXT FCST BY 020000Z
CYTS,TAF CYTS 011940Z 0120/0208 02010KT P6SM FEW030 BECMG 0200/0202 VRB03KT FM020600 VRB03KT P6SM SKC PROB30 0206/0208 1SM BR SCT002 RMK NXT FCST BY 020200Z
CYTZ,TAF CYTZ 011940Z 0120/0220 VRB03KT P6SM BKN240 BECMG 0201/0203 04012G22KT FM020600 04012G22KT P6SM BKN030 FM021200 04015G25KT P6SM FEW030 RMK FCST BASED ON AUTO OBS. NXT FCST BY 020200Z
CYUB,TAF CYUB 011840Z 0119/0205 35008KT 4SM -SN BKN007 OVC060 TEMPO 0119/0205 P6SM NSW SCT008 OVC020 RMK NXT FCST BY 020100Z
CYUL,TAF CYUL 012040Z 0121/0218 03010KT P6SM SCT040 TEMPO 0121/0202 BKN040 FM020200 03012KT P6SM FEW040 FM021500 03012G22KT P6SM SKC RMK NXT FCST BY 020000Z
CYUX,TAF CYUX 011840Z 0119/0207 26008KT P6SM FEW015 SCT150 BKN210 TEMPO 0119/0201 SCT015 BKN150 BECMG 0119/0121 19010KT FM020100 20012KT P6SM SCT015 BKN120 TEMPO 0201/0205 P6SM -SN BKN015 OVC120 FM020500 20015KT 6SM -SN SCT007 BKN015 OVC080 TEMPO 0205/0207 2SM -SN BR BKN007 OVC015 RMK NXT FCST BY 020100Z
CYUY,TAF CYUY 011740Z 0118/0206 05012KT P6SM FEW030 FM020100 03005KT P6SM SKC PROB30 0205/0206 1SM BR BKN003 RMK NXT FCST BY 020000Z
CYVC,TAF CYVC 011840Z 0119/0207 14008KT P6SM SCT015 TEMPO 0119/0121 BKN015 FM012100 16008KT P6SM FEW040 BECMG 0200/0202 20010KT RMK NXT FCST BY 020100Z
CYVM,TAF CYVM 011840Z 0119/0207 34017G27KT P6SM -RASN SCT015 BKN030 OVC050 TEMPO 0119/0121 4SM -SN BLSN BKN015 OVC030 FM012100 36015KT P6SM SCT020 BKN040 TEMPO 0121/0123 P6SM -RASN BKN020 BKN040 FM012300 36010KT P6SM FEW020 SCT040 RMK NXT FCST BY 020100Z
CYVO,TAF CYVO 011740Z 0118/0206 35012KT P6SM FEW030 BECMG 0122/0124 02006KT FM020000 02006KT P6SM SKC PROB30 0205/0206 1SM BR BKN003 RMK NXT FCST BY 020000Z
CYVP,TAF CYVP 011740Z 0118/0206 30008G18KT P6SM OVC030 TEMPO 0118/0201 5SM -SHSNRA BR OVC015 BECMG 0120/0122 32010KT FM020100 33010KT P6SM BKN040 RMK NXT FCST BY 020000Z
CYVQ,TAF CYVQ 011740Z 0118/0206 11015G25KT P6SM SCT020 BKN050 OVC080 TEMPO 0118/0203 P6SM -SHRA BKN020 OVC050 BECMG 0201/0203 29018G28KT FM020300 29018G28KT P6SM SCT010 BKN030 TEMPO 0203/0206 4SM -SHRA BR SCT005 BKN010 OVC030 RMK NXT FCST BY 020000Z
CYVR,TAF CYVR 012047Z 0121/0224 28010KT P6SM SKC BECMG 0202/0204 VRB03KT BECMG 0212/0214 30007KT RMK NXT FCST BY 020000Z
CYVT,TAF CYVT 012040Z 0121/0204 18012KT P6SM OVC006 TEMPO 0121/0204 OVC010 RMK FCST BASED ON AUTO OBS. NXT FCST BY 021400Z
CYVV,TAF CYVV 011940Z 0120/0123 05012KT P6SM FEW020 SCT080 TEMPO 0120/0123 BKN020 RMK NXT FCST BY 021100Z
CYWE,TAF CYWE 011840Z 0119/0201 09006KT P6SM FEW120 BKN180 BECMG 0120/0122 14015KT FM012300 15015KT P6SM BKN060 OVC120 TEMPO 0123/0201 P6SM -SHRA RMK FCST BASED ON AUTO OBS. NXT FCST BY 021300Z
CYWG,TAF AMD CYWG 011941Z 0119/0218 07010KT P6SM OVC008 TEMPO 0119/0121 SCT008 BKN015 FM012100 06012KT P6SM BKN015 TEMPO 0121/0201 SCT015 BKN025 FM020100 06008KT P6SM SCT020 BKN240 BECMG 0203/0205 12008KT FM020800 15008KT P6SM FEW020 BKN080 PROB30 0210/0217 1SM BR BKN004 RMK NXT FCST BY 020000Z
CYWH,TAF CYWH 012047Z 0121/0204 24007KT P6SM SKC RMK NXT FCST BY 021400Z
CYWJ,TAF CYWJ 011740Z 0118/0123 09010KT P6SM SCT030 BKN050 TEMPO 0118/0123 5SM -SHRA BR BKN030 RMK NXT FCST BY 031400Z
CYWK,TAF CYWK 011940Z 0120/0208 29015G25KT P6SM BKN030 TEMPO 0120/0123 P6SM -SHRA FM012300 30010G20KT P6SM BKN040 TEMPO 0123/0206 4SM -SHSNRA BKN020 PROB30 0123/0206 2SM -SHSN FM020600 32008G18KT 4SM -SHSN BKN020 PROB30 0206/0208 2SM -SHSN RMK NXT FCST BY 020200Z
CYWL,TAF CYWL 011840Z 0119/0207 13007KT P6SM FEW220 RMK NXT FCST BY 020100Z
CYXC,TAF CYXC 011840Z 0119/0207 01007KT P6SM SKC RMK NXT FCST BY 020100Z
CYXE,TAF CYXE 011740Z 0118/0218 VRB03KT P6SM SCT015 BKN120 TEMPO 0118/0121 BKN015 FM012100 14010KT P6SM FEW100 FM021200 16008KT P6SM FEW012 RMK NXT FCST BY 020000Z
CYXH,TAF CYXH 011740Z 0118/0206 20005KT P6SM FEW160 SCT240 BECMG 0119/0121 10010KT FM020400 16006KT P6SM SCT070 TEMPO 0204/0206 BKN040 RMK NXT FCST BY 020000Z
CYXJ,TAF CYXJ 011840Z 0119/0207 21015G25KT P6SM FEW180 RMK NXT FCST BY 020100Z
CYXL,TAF CYXL 011940Z 0120/0208 11006KT P6SM SCT020 TEMPO 0120/0204 BKN020 FM020400 14006KT P6SM OVC012 TEMPO 0204/0208 OVC007 RMK NXT FCST BY 020200Z
CYXR,TAF CYXR 011740Z 0118/0124 35015KT P6SM SKC BECMG 0121/0123 01007KT RMK FCST BASED ON AUTO OBS. NXT FCST BY 021200Z
CYXS,TAF CYXS 011840Z 0119/0207 16007KT P6SM SKC RMK FCST BASED ON AUTO OBS. NXT FCST BY 020100Z
CYXT,TAF CYXT 011840Z 0119/0207 VRB03KT 3SM BR BKN003 OVC008 TEMPO 0119/0121 P6SM NSW BKN008 FM012100 18015G30KT P6SM OVC025 TEMPO 0121/0207 4SM -RA BR SCT006 OVC012 RMK NXT FCST BY 020100Z
CYXU,TAF CYXU 011740Z 0118/0218 04010KT P6SM FEW120 BKN270 FM020800 04010KT P6SM SCT020 FM021500 05012KT P6SM FEW020 RMK NXT FCST BY 020000Z
CYXX,TAF CYXX 011740Z 0118/0218 VRB03KT P6SM SKC BECMG 0118/0120 24007KT BECMG 0202/0204 VRB03KT FM020900 VRB03KT P6SM FEW003 PROB30 0209/0215 1/2SM FG BKN003 RMK NXT FCST BY 020000Z
CYXY,TAF CYXY 011740Z 0118/0206 15009KT P6SM FEW020 BKN050 TEMPO 0118/0120 P6SM -SHRA SCT020 BECMG 0118/0120 18015G25KT RMK NXT FCST BY 020000Z
CYXZ,TAF CYXZ 011940Z 0120/0124 06008G18KT P6SM FEW060 BECMG 0121/0123 06008KT RMK NXT FCST BY 021300Z
CYYB,TAF CYYB 011940Z 0120/0208 02012KT P6SM FEW015 BKN060 TEMPO 0120/0122 BKN015 FM012200 02012KT P6SM FEW020 RMK NXT FCST BY 020200Z
CYYC,TAF CYYC 012040Z 0121/0218 19007KT P6SM FEW050 BECMG 0121/0123 16012KT FM020600 18005KT P6SM SKC BECMG 0207/0209 22006KT FM021100 22004KT P6SM SKC PROB30 0211/0216 3/4SM BR FM021600 32007KT P6SM SKC RMK NXT FCST BY 020000Z
CYYD,TAF CYYD 011840Z 0119/0206 15005KT P6SM SCT090 BKN180 FM012300 32008KT P6SM BKN050 TEMPO 0123/0204 P6SM -SHRA RMK NXT FCST BY 020100Z
CYYE,TAF CYYE 011840Z 0119/0207 VRB03KT P6SM BKN150 BECMG 0119/0121 15008KT BECMG 0201/0203 30008KT RMK NXT FCST BY 020100Z
CYYF,TAF CYYF 011840Z 0119/0207 35010KT P6SM SKC BECMG 0203/0205 36005KT RMK NXT FCST BY 020100Z
CYYG,TAF CYYG 011740Z 0118/0206 32006KT P6SM FEW100 BKN240 BECMG 0119/0121 01012KT FM012300 03012KT P6SM BKN040 OVC100 RMK NXT FCST BY 020000Z
CYYH,TAF AMD CYYH 012109Z 0121/0206 18015G25KT 6SM -RASN SCT004 OVC010 TEMPO 0121/0201 1 1/2SM -SN BR OVC004 BECMG 0123/0201 24008KT FM020100 24008KT P6SM SCT006 OVC015 TEMPO 0201/0206 3SM -SN BR OVC006 BECMG 0201/0203 30015KT RMK NXT FCST BY 020000Z
CYYJ,TAF CYYJ 011740Z 0118/0218 VRB03KT P6SM SKC BECMG 0118/0120 10006KT BECMG 0202/0204 VRB03KT RMK NXT FCST BY 020000Z
CYYL,TAF CYYL 011840Z 0119/0207 20008KT P6SM BKN020 TEMPO 0119/0122 SCT020 FM012200 19010KT P6SM FEW025 BKN200 RMK FCST BASED ON AUTO OBS. NXT FCST BY 020100Z
CYYN,TAF CYYN 011740Z 0118/0206 10012KT P6SM SCT006 TEMPO 0118/0119 BKN006 FM011900 10015G25KT P6SM FEW020 BKN250 TEMPO 0119/0121 BKN020 FM012100 12015G25KT P6SM SCT040 BKN200 BECMG 0202/0204 15010KT RMK FCST BASED ON AUTO OBS. NXT FCST BY 020000Z
CYYQ,TAF CYYQ 011740Z 0118/0218 22015G25KT P6SM BKN250 FM020300 22015G25KT P6SM SCT040 BKN200 RMK NXT FCST BY 020000Z
CYYR,TAF CYYR 011740Z 0118/0218 28015G27KT P6SM BKN050 FM012000 28012G22KT P6SM SCT050 BKN080 BECMG 0123/0201 28008KT FM020400 29008KT P6SM SCT030 BKN080 FM020900 29012KT P6SM FEW030 FEW090 FM021400 29012G22KT P6SM BKN030 RMK NXT FCST BY 020000Z
CYYT,TAF CYYT 011740Z 0118/0218 26017G27KT P6SM FEW150 SCT220 FM012200 27017G27KT P6SM FEW025 BKN120 TEMPO 0122/0205 BKN025 BKN120 BECMG 0201/0203 27010G20KT FM020500 34012KT P6SM -SHRA OVC015 FM020900 32012KT P6SM BKN025 BECMG 0210/0212 SCT025 RMK NXT FCST BY 020000Z
CYYU,TAF CYYU 011940Z 0120/0208 02008KT P6SM FEW030 BECMG 0200/0202 VRB03KT FM020700 VRB03KT P6SM SKC PROB30 0207/0208 1SM BR SCT002 RMK NXT FCST BY 020200Z
CYYY,TAF CYYY 011940Z 0120/0208 29006KT P6SM FEW030 BECMG 0121/0123 33012G22KT FM020300 33012KT P6SM FEW030 RMK NXT FCST BY 020200Z
CYYZ,TAF CYYZ 012040Z 0121/0224 04010KT P6SM BKN250 FM020800 01012KT P6SM BKN030 FM021200 02012G22KT P6SM FEW030 BECMG 0213/0215 04012KT RMK NXT FCST BY 020000Z
CYZE,TAF CYZE 011940Z 0120/0122 04012KT P6SM SCT040 TEMPO 0120/0122 BKN040 RMK FCST BASED ON AUTO OBS. NXT FCST BY 021000Z
CYZF,TAF CYZF 011740Z 0118/0218 14005KT P6SM FEW002 BKN200 BECMG 0119/0121 15012KT FM012100 15012KT P6SM BKN140 OVC200 FM020300 18012KT P6SM BKN080 TEMPO 0203/0209 P6SM -SHRA BKN060 BECMG 0207/0209 25015KT FM020900 25015KT P6SM SCT080 RMK NXT FCST BY 020000Z
CYZH,TAF CYZH 011840Z 0119/0207 12012KT P6SM FEW240 FM020400 27008KT P6SM SKC RMK FCST BASED ON AUTO OBS. NXT FCST BY 020100Z
CYZR,TAF CYZR 011940Z 0120/0202 04012KT P6SM FEW120 BKN220 BECMG 0120/0122 02015G25KT RMK FCST BASED ON AUTO OBS. NXT FCST BY 020800Z
CYZS,TAF CYZS 011840Z 0119/0207 27010KT P6SM SCT012 SCT140 BKN210 TEMPO 0119/0123 BKN012 BKN140 BECMG 0119/0121 24015G25KT FM012300 21015G25KT P6SM SCT010 BKN080 OVC140 TEMPO 0123/0202 4SM -RA BR BKN010 OVC080 FM020200 21015G25KT 4SM -RA BR BKN010 OVC080 TEMPO 0202/0207 1SM -RA BR BKN005 OVC010 RMK NXT FCST BY 020100Z
CYZT,TAF CYZT 011840Z 0119/0207 06005KT 3/4SM BR BKN002 BECMG 0119/0121 P6SM NSW FEW002 FM012200 34008KT P6SM SKC BECMG 0203/0205 VRB03KT RMK NXT FCST BY 020100Z
CYZU,TAF CYZU 011840Z 0119/0123 05005KT P6SM FEW240 BECMG 0119/0121 14010KT RMK NXT FCST BY 021400Z
CYZV,TAF CYZV 011740Z 0118/0218 32010KT P6SM FEW060 BECMG 0118/0120 31012G22KT FM020000 33010G20KT P6SM FEW030 RMK NXT FCST BY 020000Z
CYZW,TAF CYZW 011740Z 0118/0124 19006KT P6SM FEW025 BKN050 TEMPO 0118/0122 P6SM -SHRA BKN025 FM012200 22015G25KT P6SM SCT050 RMK NXT FCST BY 021800Z
CYZX,TAF CYZX 011740Z 0118/0218 27012KT P6SM OVC200 BECMG 0121/0123 25005KT FM020200 VRB03KT P6SM SCT030 BKN180 FM020500 04010KT P6SM BKN012 OVC025 FM021100 04012KT P6SM BKN030 BKN260 RMK NXT FCST BY 020000Z
CYZY,TAF CYZY 011840Z 0119/0207 17011KT P6SM SKC BECMG 0202/0204 BKN050 RMK FCST BASED ON AUTO OBS. NXT FCST BY 020100Z
CZBF,TAF CZBF 011940Z 0120/0203 32012KT P6SM SCT040 BKN080 FM012100 32010KT P6SM SCT030 RMK FCST BASED ON AUTO OBS. NXT FCST BY 020900Z
CZFA,TAF CZFA 011740Z 0118/0122 15009KT P6SM FEW012 SCT050 BKN070 TEMPO 0118/0122 P6SM -RA BECMG 0118/0120 15015G25KT RMK NXT FCST BY 021600Z
CZFM,TAF AMD CZFM 012002Z 0120/0123 34012G22KT 1SM -SN OVC005 TEMPO 0120/0123 P6SM NSW SCT005 OVC010 RMK NXT FCST BY 021600Z
CZMD,TAF CZMD 011540Z 0116/0122 10005KT P6SM SKC RMK FCST BASED ON AUTO OBS. NXT FCST BY 021000Z
CZMT,TAF CZMT 011840Z 0119/0201 16010G20KT P6SM -RA SCT008 OVC040 TEMPO 0119/0124 5SM -RA BR BKN008 OVC015 BECMG 0120/0122 33015G25KT FM020000 33010G20KT P6SM SCT015 BKN060 TEMPO 0200/0201 BKN015 RMK NXT FCST BY 021500Z
CZSJ,TAF CZSJ 011540Z 0116/0122 10010KT P6SM SKC RMK FCST BASED ON AUTO OBS. NXT FCST BY 021000Z
CZUM,TAF CZUM 011940Z 0120/0208 29012G22KT P6SM BKN050 TEMPO 0120/0124 P6SM -SHRA FM020000 31010G20KT P6SM BKN040 TEMPO 0200/0208 P6SM -SHRASN BKN020 PROB30 0203/0208 2 1/2SM -SHSN RMK FCST BASED ON AUTO OBS. NXT FCST BY 020200Z
CZVL,TAF CZVL 011740Z 0118/0206 15008KT P6SM SKC RMK FCST BASED ON AUTO OBS. NXT FCST BY 020000Z
DAAD,TAF DAAD 011400Z 0115/0124 32008KT 9999 FEW030
DAAE,TAF DAAE 011700Z 0118/0218 04012KT 9999 FEW020TCU SCT030 PROB40 TEMPO 0118/0122 02015G30KT 4000 -TSRA FEW023CB BECMG 0120/0122 22008KT FEW030
DAAG,TAF DAAG 011700Z 0118/0218 04010KT 9999 FEW026 PROB30 TEMPO 0118/0124 FEW023CB BECMG 0121/0123 VRB02KT BECMG 0212/0214 04010KT
DAAJ,TAF DAAJ 011700Z 0118/0218 04009KT CAVOK
DAAP,TAF DAAP 012000Z 0121/0206 05009KT 8000 SCT040 PROB40 0121/0124 2000 HZ
DAAS,TAF DAAS 011700Z 0118/0218 32008KT 9999 BKN030 PROB40 TEMPO 0118/0122 08014KT FEW030CB PROB30 TEMPO 0201/0208 3000 BR BKN008
DAAT,TAF DAAT 011700Z 0118/0218 14012KT 6000 SCT046 PROB30 TEMPO 0118/0124 2000 HZ FEW040CB BECMG 0121/0123 05008KT BECMG 0208/0210 12011KT PROB40 TEMPO 0208/0212 10015G25KT
DAAV,TAF DAAV 011700Z 0118/0218 03012KT 9999 FEW020TCU SCT030 PROB40 TEMPO 0118/0122 30015G30KT 4000 -TSRA FEW023CB BECMG 0120/0122 22008KT FEW030
DAAY,TAF DAAY 012000Z 0121/0206 06010KT CAVOK BECMG 0122/0124 12015KT PROB40 TEMPO 0122/0206 14015G25KT 4000 DRSA
DABB,TAF DABB 011700Z 0118/0218 35013KT 9999 FEW023 BKN033 PROB40 TEMPO 0118/0122 32015G30KT 4000 -TSRA FEW020CB BECMG 0120/0122 26008KT
DABC,TAF DABC 011700Z 0118/0218 04012KT 9999 SCT030 PROB40 TEMPO 0118/0122 FEW020CB BECMG 0120/0122 VRB02KT PROB30 TEMPO 0201/0208 3000 BR BKN008
DABS,TAF DABS 011700Z 0118/0218 24008KT 9999 BKN033 PROB40 TEMPO 0118/0122 36014KT FEW030CB PROB30 TEMPO 0201/0208 3000 BR BKN008
DABT,TAF DABT 011700Z 0118/0218 33008KT 9999 BKN033 PROB40 TEMPO 0118/0122 06014KT FEW030CB
DAFH,TAF DAFH 011400Z 0115/0124 04014KT CAVOK PROB30 0115/0118 04015G25KT 3000 DRSA
DAOB,TAF DAOB 011700Z 0118/0218 08009KT 9999 FEW023
DAOF,TAF DAOF 012000Z 0121/0206 04018KT 2000 BLSA NSC BECMG 0122/0124 04008KT 4000 HZ
DAOI,TAF DAOI 011700Z 0118/0218 02010KT CAVOK BECMG 0122/0124 VRB02KT BECMG 0210/0212 32010KT
DAON,TAF DAON 011700Z 0118/0218 02010KT CAVOK BECMG 0122/0124 VRB02KT BECMG 0210/0212 02012KT
DAOO,TAF DAOO 011700Z 0118/0218 04010KT 9999 FEW026 BECMG 0122/0124 VRB02KT PROB40 TEMPO 0204/0208 4000 BR BECMG 0208/0212 08010KT FEW026
DAOR,TAF DAOR 012000Z 0121/0206 08020KT 3000 DRSA SCT033 PROB40 TEMPO 0121/0124 08025G35KT 0800 BLDU FEW033CB
DAOV,TAF DAOV 012000Z 0121/0206 VRB02KT CAVOK
DATM,TAF DATM 011400Z 0115/0124 15009KT 8000 FEW046 SCT100 PROB30 TEMPO 0115/0118 18015G25KT 3000 DRSA FEW040CB
DAUA,TAF DAUA 011700Z 0118/0218 17011KT 8000 SCT046 SCT100 PROB30 TEMPO 0118/0121 VRB15G25KT 2000 DRSA FEW040CB BECMG 0209/0211 02010KT
DAUB,TAF DAUB 011700Z 0118/0218 16012KT CAVOK PROB30 TEMPO 0118/0122 16015G30KT 3000 DRSA NSC
DAUG,TAF DAUG 011700Z 0118/0218 06020KT 7000 DRSA NSC PROB30 TEMPO 0118/0121 3000 BECMG 0120/0122 06010KT NSW
DAUH,TAF DAUH 011700Z 0118/0218 04012KT 7000 NSC PROB30 TEMPO 0118/0124 04015G25KT 3000 DRSA PROB40 0200/0207 04015G25KT 3000 DRSA
DAUI,TAF DAUI 011700Z 0118/0218 12012KT 6000 SCT046 PROB30 TEMPO 0118/0121 VRB20G30KT 2000 DRSA FEW040CB BECMG 0121/0123 06011KT PROB30 0210/0212 06021KT DRSA BECMG 0212/0215 06022KT 4000 DRSA
DAUK,TAF DAUK 012000Z 0121/0206 08010KT 7000 NSC PROB30 TEMPO 0121/0201 08015G25KT 3000 DRSA
DAUL,TAF DAUL 012000Z 0121/0206 04010KT CAVOK
DAUO,TAF DAUO 012000Z 0121/0206 06011KT 9999 FEW040 SCT200 PROB30 TEMPO 0121/0124 3000 SA
DAUT,TAF DAUT 012000Z 0121/0206 08020KT 7000 DRSA SCT046 PROB30 TEMPO 0121/0124 08020G30KT 2000 FEW040CB
DAUU,TAF DAUU 012000Z 0121/0206 04014KT 8000 FEW046 SCT200 PROB30 TEMPO 0121/0202 04015G25KT 2000 DRSA
DAUZ,TAF DAUZ 011700Z 0118/0218 VRB02KT 8000 NSC PROB30 TEMPO 0118/0122 2000 HZ BECMG 0200/0202 03010KT BECMG 0206/0208 12012KT
DBBB,TAF DBBB 011700Z 0118/0224 22012KT 9999 SCT012 PROB30 TEMPO 0119/0201 4000 TSRA BKN010 FEW020CB
DFFD,TAF DFFD 011700Z 0118/0224 20008KT 9999 FEW020 TEMPO 0118/0124 4000 TSRA SCT020 SCT033CB TEMPO 0216/0224 TS SCT020 FEW033CB
DFOO,TAF DFOO 011700Z 0118/0218 20008KT 9999 FEW016 TEMPO 0118/0202 4000 TSRA SCT016 SCT030CB
DGAA,TAF DGAA 011700Z 0118/0224 21014KT 9999 BKN009 TEMPO 0118/0122 5000 -RA BECMG 0200/0202 27005KT TEMPO 0204/0207 8000 -RA
DGLE,TAF DGLE 011100Z 0112/0212 23005KT 9999 BKN010 PROB30 TEMPO 0114/0118 6000 -RA BECMG 0121/0123 SCT018
DGSI,TAF DGSI 011100Z 0112/0212 23010KT 9999 BKN012 TEMPO 0112/0118 5000 TSRA FEW028CB
DIAP,TAF DIAP 011722Z 0118/0224 23010KT 8000 SCT012 BKN030 PROB30 TEMPO 0120/0202 4000 RADZ BKN010 BKN030 PROB40 TEMPO 0202/0208 3500 RADZ BKN010 OVC030
DIBK,TAF DIBK 011722Z 0118/0218 22008KT 8000 BKN013 FEW020CB PROB30 TEMPO 0119/0122 TS BKN011 FEW020CB PROB40 TEMPO 0204/0210 4000 DZRA BKN010 BKN030
DIYO,TAF DIYO 011725Z 0118/0218 21008KT 8000 BKN013 FEW020CB PROB30 TEMPO 0118/0122 TS BKN011 FEW020CB BECMG 0122/0123 SCT010 PROB40 TEMPO 0204/0210 4000 DZRA BKN010 BKN030
DNAA,TAF DNAA 011700Z 0118/0224 26006KT 9999 TS SCT013 FEW020CB PROB30 TEMPO 0118/0122 07018G35KT 5000 -TSRA BKN008 FEW018CB BECMG 0122/0124 12005KT NSW FEW009 BECMG 0208/0210 25010KT BKN010 TEMPO 0215/0221 TS SCT012 FEW020CB
DNAK,TAF DNAK 011700Z 0118/0224 VRB02KT 8000 SCT009 TEMPO 0118/0120 5000 -TSRA BKN009 TEMPO 0205/0208 5000 BR BECMG 0208/0210 24010KT BKN013 PROB30 TEMPO 0213/0217 5000 -TSRA BKN008 FEW018CB BECMG 0217/0219 VRB02KT SCT009
DNBE,TAF DNBE 011700Z 0118/0224 VRB02KT 8000 SCT008 TEMPO 0118/0120 4000 -RA BKN008 TEMPO 0204/0208 3000 -RA BECMG 0208/0210 21010KT BKN012 TEMPO 0213/0218 5000 -TSRA BKN008 FEW020CB BECMG 0218/0220 VRB02KT SCT010
DNIB,TAF DNIB 011700Z 0118/0224 VRB02KT 9999 SCT011 PROB30 TEMPO 0205/0208 5000 BR BECMG 0208/0210 23010KT BKN013 PROB30 TEMPO 0214/0218 5000 -TSRA BKN009 FEW019CB BECMG 0218/0220 VRB02KT SCT010
DNIL,TAF DNIL 011700Z 0118/0224 18005KT 9999 TS SCT010 FEW020CB BECMG 0122/0124 VRB02KT NSW FEW009 BECMG 0208/0210 20010KT BKN010 TEMPO 0216/0220 TS SCT012 FEW020CB
DNJO,TAF DNJO 011700Z 0118/0224 28004KT 9999 SCT008 TEMPO 0120/0202 TS SCT008 FEW017CB PROB30 0122/0201 06016G35KT 5000 -TSRA BKN005 FEW014CB BECMG 0202/0204 16010KT FEW005 BECMG 0208/0210 24010KT BKN008 TEMPO 0214/0220 TS SCT010 FEW017CB
DNKA,TAF DNKA 011700Z 0118/0224 26003KT 9999 TS BKN011 FEW020CB PROB30 TEMPO 0118/0122 08015G30KT 5000 -TSRA BKN008 FEW018CB BECMG 0122/0124 14005KT NSW FEW009 BECMG 0208/0210 24010KT BKN010 TEMPO 0216/0222 TS SCT012 FEW020CB
DNMM,TAF COR DNMM 011700Z 0118/0224 VRB02KT 9999 SCT010 PROB30 TEMPO 0205/0208 -RA BR BECMG 0208/0210 22010KT BKN013 PROB30 TEMPO 0214/0217 5000 -TSRA BKN008 FEW018CB BECMG 0217/0219 SCT010 BECMG 0219/0221 VRB02KT
DNSU,TAF DNSU 011700Z 0118/0224 VRB02KT 8000 SCT008 TEMPO 0204/0208 3000 -RA BR BECMG 0208/0210 20010KT BKN012 TEMPO 0212/0217 5000 -TSRA BKN008 FEW018CB BECMG 0217/0219 VRB02KT SCT010
DRRN,TAF DRRN 011700Z 0118/0224 16008KT 8000 FEW020 FEW040CB PROB40 0118/0120 16025KT 2000 SQ BLDU TS
DRZA,TAF DRZA 011700Z 0118/0218 18004KT 8000 FEW040 FEW050CB PROB40 0118/0120 02025KT 2000 SQ BLDU TS
DRZR,TAF DRZR 011700Z 0118/0218 24004KT 8000 SCT020B PROB40 0118/0120 02025KT 2000 SQ BLDU TS
DTMB,TAF DTMB 011700Z 0118/0218 36020KT 9999 FEW026 BECMG 0123/0201 35010KT BECMG 0213/0215 VRB03KT
DTNH,TAF DTNH 011700Z 0118/0218 35017KT CAVOK BECMG 0123/0201 34010KT BECMG 0204/0206 28005KT BECMG 0210/0212 34010KT BECMG 0213/0215 VRB03KT
DTTA,TAF DTTA 011700Z 0118/0218 32012KT 9999 FEW026 BECMG 0122/0124 25006KT BECMG 0210/0212 31010KT
DTTJ,TAF DTTJ 011700Z 0118/0218 02019KT 9999 FEW030 BECMG 0209/0211 35008KT
DTTX,TAF DTTX 011700Z 0118/0218 03015KT 9999 FEW030 BECMG 0209/0211 01005KT
DTTZ,TAF DTTZ 011700Z 0118/0218 09015KT CAVOK PROB30 TEMPO 0118/0122 09020G30KT 4000 SA BECMG 0203/0205 10005KT
DXNG,TAF DXNG 011700Z 0118/0218 VRB05KT 9999 TS BKN006 FEW016CB PROB30 TEMPO 0118/0121 4000 TSRA BECMG 0121/0123 NSW SCT006
DXXX,TAF DXXX 011700Z 0118/0224 20012KT 9999 SCT010 BECMG 0122/0124 26008KT PROB30 TEMPO 0200/0206 4000 DZ BKN009 BECMG 0208/0210 20012KT
EBAW,TAF EBAW 012000Z 0121/0206 23007KT 9999 FEW040 PROB30 TEMPO 0203/0206 BKN008
EBBR,TAF EBBR 011700Z 0118/0224 24010KT 9999 FEW030 PROB30 TEMPO 0200/0209 BKN006 BECMG 0222/0224 3000 MIFG BR
EBCI,TAF EBCI 011700Z 0118/0224 24010KT 9999 FEW030 BECMG 0121/0123 SCT006 BKN009 PROB40 TEMPO 0200/0211 3500 RA -RADZ BKN004 PROB30 TEMPO 0211/0217 4000 -RADZ -DZ SCT010 BKN014 BECMG 0217/0219 VRB02KT 4000 MIFG BR SCT015 BECMG 0220/0222 2500 PROB30 0220/0224 0200 FG BKN001
EBCV,TAF EBCV 011541Z 0119/0207 24015G25KT FEW025 PROB30 TEMPO 0119/0123 23020G30KT 4000 SHRA SCT020TCU SCT040 BY EBWM
EBFN,TAF EBFN 011541Z 0119/0207 27015G25KT 9999 FEW030 BECMG 0123/0202 FEW010 BKN130 BECMG 0204/0206 28010G20KT FEW010 SCT080 BKN120 PROB30 TEMPO 0205/0207 6000 -RA FEW010 SCT080 BKN120 BY EBWM
EBLG,TAF EBLG 011700Z 0118/0224 24010KT 9999 FEW030 TEMPO 0123/0212 SCT008 BKN012 BECMG 0218/0220 VRB03KT BECMG 0219/0221 3000 MIFG BR PROB30 TEMPO 0221/0224 0200 FG BKN001
EBOS,TAF EBOS 011700Z 0118/0224 26012KT 9999 FEW030 BECMG 0213/0215 VRB04KT BECMG 0222/0224 3000 MIFG BR
EDAC,TAF EDAC 011700Z 0118/0203 25012KT 9999 SCT035 TEMPO 0118/0120 25020G30KT 4000 SHRA SCT014CB
EDAH,TAF EDAH 011700Z 0118/0203 22010KT 9999 BKN015 TEMPO 0118/0121 SHRA BKN008 BKN020CB BECMG 0123/0202 BKN008
EDDB,TAF AMD EDDB 011932Z 0119/0218 27015KT 9999 BKN020 TEMPO 0119/0121 26015G25KT TEMPO 0119/0208 BKN008 PROB30 TEMPO 0212/0217 29015G25KT SHRA BKN020CB
EDDC,TAF EDDC 011700Z 0118/0218 24010KT 9999 BKN020 PROB30 TEMPO 0118/0121 25015G25KT SHRA BKN020CB TEMPO 0212/0217 29015G25KT 4000 SHRA BKN020CB
EDDE,TAF EDDE 011700Z 0118/0218 25010G20KT 9999 SCT025 BECMG 0207/0209 27015G25KT BECMG 0214/0217 27007KT
EDDF,TAF EDDF 011700Z 0118/0224 22010KT 9999 SCT030 BKN035 TEMPO 0118/0120 24015G25KT 4000 SHRA BKN025CB PROB40 TEMPO 0209/0216 RADZ BKN010 BECMG 0214/0217 24005KT TEMPO 0221/0224 3000 BR
EDDG,TAF EDDG 011700Z 0118/0218 24007KT 9999 FEW040 TEMPO 0118/0120 24013KT SHRA BKN030CB PROB30 TEMPO 0203/0207 BKN010 BECMG 0208/0211 26012KT BECMG 0214/0217 27006KT
EDDH,TAF EDDH 011700Z 0118/0224 26007KT 9999 FEW020 PROB30 TEMPO 0118/0214 4000 SHRA BKN013CB PROB40 TEMPO 0200/0207 BKN008 BECMG 0208/0210 29012KT TEMPO 0210/0214 27015G25KT BECMG 0216/0219 28007KT
EDDK,TAF EDDK 011700Z 0118/0224 25008KT 9999 FEW040 BECMG 0216/0219 VRB03KT
EDDL,TAF EDDL 011700Z 0118/0224 24010KT 9999 FEW040 PROB30 TEMPO 0203/0207 BKN010 BECMG 0214/0217 27005KT BECMG 0218/0221 VRB02KT
EDDM,TAF COR EDDM 011746Z 0118/0224 25015KT 9999 SCT020 BKN040 BECMG 0118/0119 25010KT PROB40 TEMPO 0119/0122 27015G25KT SHRA BKN020CB PROB40 TEMPO 0208/0215 RA BECMG 0213/0215 26004KT TEMPO 0215/0221 3000 RADZ BR SCT007 BKN010 BECMG 0219/0221 32005KT TEMPO 0221/0224 BKN008
EDDN,TAF EDDN 011700Z 0118/0218 25008KT 9999 SCT013 BKN020 TEMPO 0118/0122 27013KT SHRA BKN012CB PROB40 TEMPO 0122/0210 BKN010 PROB30 TEMPO 0210/0215 RA BKN012 BECMG 0216/0218 29003KT
EDDP,TAF EDDP 011700Z 0118/0218 25012KT 9999 SCT035 TEMPO 0118/0119 25020G30KT 4000 SHRA SCT014CB BECMG 0207/0209 27015G25KT PROB30 TEMPO 0209/0214 27020G30KT SHRA SCT035CB BECMG 0214/0217 27007KT
EDDR,TAF EDDR 011700Z 0118/0218 23012KT 9999 SCT015 BKN025 TEMPO 0118/0120 24020G35KT 3500 SHRA BKN012CB BECMG 0201/0203 OVC008 TEMPO 0203/0211 2000 RADZ BR BKN004 BECMG 0209/0212 25006KT PROB30 TEMPO 0211/0218 4500 SHRA SCT005 BKN015CB
EDDS,TAF EDDS 011700Z 0118/0218 21007KT 9999 SCT025 PROB40 TEMPO 0118/0121 25020G30KT SHRA BKN025CB PROB30 TEMPO 0206/0208 4000 RADZ BECMG 0209/0211 27007KT TEMPO 0209/0212 4000 RA BKN010 PROB40 TEMPO 0212/0218 4500 SHRA BKN015CB
EDDV,TAF EDDV 011700Z 0118/0218 26008KT 9999 FEW030 PROB30 TEMPO 0202/0207 BKN008 PROB30 TEMPO 0210/0214 28015G25KT
EDDW,TAF EDDW 011700Z 0118/0218 26010KT 9999 FEW025 PROB40 TEMPO 0118/0214 4000 SHRA BKN013CB PROB30 TEMPO 0200/0207 BKN008 TEMPO 0210/0214 27015G25KT
EDFH,TAF EDFH 011700Z 0118/0218 22012KT 9999 SCT010 BKN015 TEMPO 0118/0121 26020G30KT 4000 SHRA BKN012CB PROB30 TEMPO 0118/0119 TSRA BKN008CB BECMG 0122/0124 BKN008 PROB40 TEMPO 0203/0216 1500 DZRA BR BKN004
EDGS,TAF EDGS 011700Z 0118/0203 26011KT 9999 FEW020 TEMPO 0118/0120 4000 SHRA BKN015CB PROB30 TEMPO 0118/0119 TSRA BKN010CB BECMG 0121/0124 BKN008 TEMPO 0201/0203 3500 -RA BR BKN004
EDJA,TAF EDJA 011700Z 0118/0203 24015G25KT 9999 BKN040 BECMG 0118/0120 24012KT PROB40 TEMPO 0118/0124 SHRA BKN007 BKN012TCU TEMPO 0200/0203 RA BKN012
EDLN,TAF EDLN 011700Z 0118/0203 25006KT 9999 FEW040
EDLP,TAF EDLP 011700Z 0118/0218 24010KT 9999 FEW040 PROB30 TEMPO 0118/0121 SHRA BKN030CB PROB30 TEMPO 0203/0207 BKN010 BECMG 0214/0217 26005KT
EDLV,TAF EDLV 011700Z 0118/0218 24009KT 9999 FEW040 PROB30 TEMPO 0203/0207 BKN010 BECMG 0214/0217 29004KT
EDLW,TAF EDLW 011700Z 0118/0218 24010KT 9999 FEW040 PROB30 TEMPO 0203/0207 BKN010 BECMG 0214/0217 26005KT
EDMA,TAF EDMA 011700Z 0118/0203 24010KT 9999 BKN045 PROB30 TEMPO 0118/0122 SHRA BKN020TCU TEMPO 0122/0203 4000 RA
EDNY,TAF EDNY 011700Z 0118/0218 24009KT 9999 SCT012 BKN030 TEMPO 0118/0123 BKN012 PROB40 TEMPO 0123/0210 RA BKN012 PROB30 TEMPO 0210/0216 25015G25KT SHRA BKN020CB
EDQM,TAF EDQM 011700Z 0118/0203 23012KT 9999 BKN015 PROB40 TEMPO 0118/0121 23015G25KT 3500 SHRA BKN007 BKN020CB BECMG 0122/0124 BKN007
EDSB,TAF EDSB 011700Z 0118/0218 20012KT 9999 BKN025 PROB40 TEMPO 0118/0121 4000 SHRA BKN025CB PROB30 TEMPO 0118/0120 22020G35KT TSRA BKN020CB PROB30 TEMPO 0202/0206 4000 -RADZ TEMPO 0206/0212 4000 RA BKN010 PROB40 TEMPO 0212/0218 SHRA BKN015CB
EDTL,TAF EDTL 011400Z 0115/0124 20012KT 9999 BKN035 PROB30 TEMPO 0115/0118 SHRA BKN030CB BECMG 0116/0119 20007KT
EDTY,TAF EDTY 011700Z 0118/0203 22007KT 9999 BKN015 TEMPO 0118/0124 22015KT 4000 SHRA BKN007 BKN012TCU TEMPO 0200/0203 4000 RA BKN007
EDVK,TAF EDVK 011700Z 0118/0203 25010KT 9999 SCT010 BKN020 PROB40 TEMPO 0118/0121 27020G35KT SHRA BKN020CB
EEEI,TAF EEEI 011730Z 0118/0218 15005KT 9999 BKN025 PROB30 TEMPO 0122/0205 1500 BCFG BR BKN005 BECMG 0215/0217 09006KT
EETN,TAF EETN 011730Z 0118/0218 14006KT 9999 SCT015 PROB40 TEMPO 0120/0124 2000 BR BKN005 BKN010 TEMPO 0200/0207 1000 BR BKN002
EFHK,TAF EFHK 012022Z 0121/0221 12004KT 9999 SCT045 PROB30 TEMPO 0123/0206 1200 BCFG
EFJY,TAF EFJY 012022Z 0121/0221 14004KT 9999 SCT030 PROB30 0121/0124 1300 BCFG TEMPO 0200/0202 0500 FG VV001 BECMG 0202/0204 0500 FG VV001 BECMG 0204/0206 2000 BR BKN005 BECMG 0206/0209 9999 NSW FEW005
EFKU,TAF EFKU 012025Z 0121/0221 15005KT 9999 FEW020 TEMPO 0121/0201 6000 FEW030CB TEMPO 0201/0209 2000 BR OVC004 PROB30 0203/0209 0500 FG VV001 TEMPO 0209/0210 BKN009 TEMPO 0210/0211 BKN012
EFMA,TAF EFMA 012022Z 0121/0206 14007KT 9999 BKN018 PROB30 0121/0122 BKN014
EFOU,TAF EFOU 012025Z 0121/0221 14007KT CAVOK BECMG 0123/0201 BKN006 TEMPO 0201/0210 5000 SHRA BKN004 SCT015CB PROB40 0203/0208 0500 FG BKN001 BECMG 0211/0213 SCT010 BKN030 TEMPO 0213/0221 BKN012
EFRO,TAF EFRO 012025Z 0121/0221 17008KT CAVOK PROB30 0200/0208 0500 FG VV001 BECMG 0208/0210 BKN005 BECMG 0210/0212 BKN002 TEMPO 0212/0221 3000 -DZRA BR VV001 PROB40 0212/0221 0500 FG
EFTP,TAF EFTP 012022Z 0121/0221 14003KT CAVOK PROB30 0121/0124 2000 BR TEMPO 0200/0202 0500 FG VV001 BECMG 0202/0204 0500 FG VV001 BECMG 0204/0206 2000 BR BKN005 BECMG 0206/0209 9999 NSW FEW005
EFTU,TAF EFTU 012022Z 0121/0221 13003KT 9999 MIFG NSC TEMPO 0121/0122 1200 BCFG FEW020CB TEMPO 0122/0205 0500 FG VV001 PROB30 0211/0217 FEW025CB
EFVA,TAF EFVA 012025Z 0121/0221 13008KT 9999 SCT014 BKN045 TEMPO 0121/0204 BKN014 FEW015CB TEMPO 0204/0206 2000 BR BKN002
EGAA,TAF EGAA 011700Z 0118/0218 26015G25KT 9999 SCT030 BECMG 0118/0121 24009KT PROB40 TEMPO 0118/0120 7000 SHRA PROB30 0204/0208 8000
EGBB,TAF EGBB 011704Z 0118/0218 26007KT 9999 SCT045 PROB30 TEMPO 0205/0208 8000
EGCC,TAF AMD EGCC 011903Z 0119/0224 18005KT 9999 SCT040 PROB40 TEMPO 0119/0121 6000 SHRA PROB30 0222/0224 8000
EGCK,TAF EGCK 011958Z 0121/0206 26019KT 9999 FEW045 BECMG 0200/0203 29009KT
EGCN,TAF EGCN 011657Z 0118/0218 25008KT 9999 FEW045 PROB30 TEMPO 0118/0201 6000 SHRA
EGFF,TAF AMD EGFF 012008Z 0120/0218 26015KT 9999 FEW012 SCT020 TEMPO 0120/0210 6000 RA BKN008 PROB30 TEMPO 0120/0124 26018G28KT BECMG 0200/0203 03005KT PROB40 TEMPO 0200/0209 3000 +RA BKN004
EGGD,TAF AMD EGGD 012019Z 0120/0218 25014KT 9999 FEW008 BKN020 TEMPO 0120/0210 6000 RA BKN008 PROB40 TEMPO 0120/0210 4000 RADZ BKN004 BECMG 0201/0204 19005KT PROB30 TEMPO 0203/0209 1200 +RA BKN001
EGGP,TAF EGGP 011656Z 0118/0218 25011KT 9999 SCT040 PROB40 TEMPO 0118/0121 6000 SHRA BECMG 0208/0211 31008KT
EGGW,TAF EGGW 011654Z 0118/0218 25012KT 9999 FEW035 PROB30 0203/0208 8000 BECMG 0209/0212 34006KT PROB30 TEMPO 0209/0213 8000 -RA
EGHH,TAF EGHH 011957Z 0121/0124 25008KT 9999 FEW030 TEMPO 0121/0124 7000 RA
EGHI,TAF AMD EGHI 011804Z 0118/0122 23008KT 9999 SCT040 TEMPO 0118/0119 24015G25KT 8000 -SHRA
EGHQ,TAF EGHQ 011957Z 0121/0206 27015KT 9999 SCT015 BECMG 0121/0124 18005KT TEMPO 0121/0206 7000 RA BKN009 PROB40 TEMPO 0121/0206 2500 +RA BR BKN003
EGJA,TAF EGJA 011400Z 0115/0200 27021KT 9999 SCT012 PROB30 TEMPO 0115/0121 BKN010 BECMG 0121/0200 26011KT 9000 -RADZ BKN009 PROB30 TEMPO 0121/0200 3000 RADZ BKN003
EGJB,TAF EGJB 012002Z 0121/0206 25013KT 9999 SCT006 BKN012 TEMPO 0121/0206 6000 -RADZ BKN006 PROB30 TEMPO 0122/0206 0800 RADZ FG BKN000
EGJJ,TAF EGJJ 012002Z 0121/0206 25013KT 9999 SCT008 BKN012 TEMPO 0121/0206 8000 -RADZ BKN008 PROB30 TEMPO 0122/0206 2000 RADZ BKN003
EGKK,TAF AMD EGKK 011915Z 0119/0224 24010KT 9999 SCT040 TEMPO 0203/0213 8000 -RA BKN014 PROB40 TEMPO 0204/0210 RA BKN006 BECMG 0206/0209 35004KT PROB30 TEMPO 0222/0224 8000
EGLL,TAF EGLL 011656Z 0118/0224 26012KT 9999 FEW025 TEMPO 0202/0213 8000 -RA PROB30 TEMPO 0204/0213 RA BKN009 BECMG 0211/0214 35005KT
EGMC,TAF EGMC 011952Z 0121/0206 25009KT CAVOK
EGMD,TAF EGMD 011952Z 0121/0206 26010KT CAVOK PROB30 0202/0206 4000 RADZ BKN005
EGNJ,TAF EGNJ 011958Z 0121/0206 24009KT 9999 FEW030 PROB30 TEMPO 0121/0201 6000 SHRA
EGNM,TAF EGNM 011657Z 0118/0218 24008KT 9999 SCT025 TEMPO 0118/0201 6000 SHRA
EGNS,TAF EGNS 011700Z 0118/0122 26017KT 9999 FEW020 PROB30 TEMPO 0118/0122 8000 -SHRA BKN018
EGNT,TAF EGNT 011657Z 0118/0218 26011KT 9999 SCT035 TEMPO 0118/0123 6000 SHRA
EGNX,TAF EGNX 011704Z 0118/0218 26014KT 9999 FEW040 BECMG 0201/0204 24004KT PROB30 TEMPO 0205/0208 8000
EGPA,TAF EGPA 011956Z 0121/0206 23013KT 9999 FEW015 SCT025 PROB40 TEMPO 0121/0123 4000 SHRA BKN014 PROB30 TEMPO 0121/0206 24018G28KT TEMPO 0123/0202 6000 RA BKN010 PROB30 TEMPO 0123/0202 3000 +RA BKN008 PROB30 TEMPO 0202/0206 6000 SHRA BKN014
EGPB,TAF EGPB 011956Z 0121/0206 25016KT 9999 FEW015 SCT030 PROB30 TEMPO 0121/0206 26019G29KT PROB30 TEMPO 0121/0124 4000 SHRA BKN014 TEMPO 0200/0204 5000 SHRA RA BKN014 PROB30 TEMPO 0200/0204 3000 +RA BKN008 PROB30 TEMPO 0204/0206 6000 SHRA BKN014
EGPC,TAF EGPC 011956Z 0121/0206 23011KT 9999 FEW020 PROB30 TEMPO 0121/0206 24015G25KT 6000 SHRA
EGPD,TAF EGPD 011655Z 0118/0218 27009KT 9999 FEW030
EGPE,TAF EGPE 011956Z 0121/0206 22013KT 9999 SCT030 PROB30 TEMPO 0121/0124 23016G28KT 6000 SHRA
EGPF,TAF EGPF 011655Z 0118/0218 24008KT 9999 FEW015 SCT035 TEMPO 0118/0124 5000 SHRA PROB30 TEMPO 0118/0121 25015G25KT 3000 +SHRA BKN014 PROB30 TEMPO 0200/0212 8000 -SHRA
EGPH,TAF AMD EGPH 011824Z 0118/0218 24009KT 9999 FEW030 TEMPO 0118/0121 25015G25KT 6000 SHRA PROB30 TEMPO 0121/0203 25015G25KT 8000 -SHRA
EGPK,TAF EGPK 011655Z 0118/0218 24012KT 9999 FEW015 SCT035 TEMPO 0118/0203 5000 SHRA PROB40 TEMPO 0118/0123 25015G27KT 3000 +SHRA BKN012 PROB30 TEMPO 0203/0215 7000 -SHRA
EGPO,TAF EGPO 011956Z 0121/0206 24012KT 9999 FEW015 SCT020 PROB30 TEMPO 0121/0206 25018G30KT 5000 SHRA BKN014
EGQL,TAF EGQL 011928Z 0121/0206 25012KT CAVOK
EGQS,TAF EGQS 011925Z 0121/0215 23012KT 9999 FEW022 SCT035 PROB30 TEMPO 0121/0124 25018G28KT 7000 SHRA SCT022CB PROB30 TEMPO 0206/0215 28015G25KT
EGSH,TAF EGSH 011959Z 0121/0206 24008KT 9999 FEW040
EGSS,TAF EGSS 011654Z 0118/0224 25010KT 9999 FEW035 PROB30 0203/0208 6000 BECMG 0209/0212 33006KT PROB30 TEMPO 0209/0213 8000 -RA PROB30 0222/0224 8000
EGTC,TAF EGTC 011356Z 0115/0124 26011KT 9999 SCT045 PROB30 TEMPO 0115/0117 26015G24KT 9000 SHRA
EGTE,TAF AMD EGTE 012042Z 0121/0206 23005KT 9999 SCT025 TEMPO 0121/0206 7000 RA BKN011 PROB30 TEMPO 0200/0206 2500 +RA BKN006
EGTK,TAF EGTK 011657Z 0118/0122 24014KT 9999 SCT040
EGUL,TAF AMD EGUL 302120Z 3021/0203 23015G25KT 6000 -SHRA FEW008 BKN011 510003 QNH2940INS BECMG 3023/3024 25012G18KT 8000 -RA BR SCT008 BKN020 QNH2945INS BECMG 0101/0102 25012KT 8000 BR FEW008 SCT050 BKN100 QNH2949INS BECMG 0107/0108 25010G15KT 9999 NSW SCT015 BKN020 QNH2963INS BECMG 0111/0112 26010G15KT 9999 SCT020 SCT080 QNH2970INS TEMPO 0112/0116 9000 -SHRA BECMG 0116/0117 26012G18KT 9999 SCT020 BKN045 QNH2977INS BECMG 0121/0122 VRB03KT 6000 BR BKN015 QNH2988INS TX16/0112Z TN11/0104Z LAST NO AMDS AFT 3021 NEXT 0305
EGUN,TAF EGUN 012000Z 0120/0302 24012KT 9999 SCT005 SCT150 WS018/27030KT QNH2985INS TEMPO 0120/0123 25010G18KT BECMG 0122/0123 25010G15KT 9999 SCT025 BKN060 QNH2985INS TEMPO 0203/0207 25010KT 8000 BR FEW005 SCT010 BKN060 BECMG 0206/0207 28012KT 9999 FEW018 SCT060 QNH3003INS BECMG 0213/0214 31009KT 9999 FEW025 SCT040 QNH3013INS BECMG 0216/0218 31009KT 9999 FEW027 BKN040 QNH3020INS BECMG 0220/0221 27004KT 9999 BKN035 BKN050 QNH3029INS TX17/0215Z TN10/0205Z
EGVN,TAF EGVN 011937Z 0121/0221 24006KT 9999 FEW020 PROB30 TEMPO 0121/0203 SCT020 PROB40 0203/0209 BKN006 PROB30 TEMPO 0203/0209 7000 -RA SCT004 PROB30 TEMPO 0209/0211 SCT010
EGWU,TAF EGWU 011652Z 0118/0212 26012KT 9999 FEW040 PROB40 TEMPO 0205/0211 RA SCT008 PROB30 TEMPO 0205/0208 6000 -RADZ SCT005
EGXC,TAF EGXC 011924Z 0121/0215 25008KT 9999 SCT040
EGYP,TAF EGYP 011919Z 0121/0215 25015G25KT 9999 SCT040 BECMG 0121/0123 20020KT TEMPO 0122/0208 BKN018 PROB30 TEMPO 0122/0202 20023G33KT 5000 -RADZ BKN007 BECMG 0205/0208 23014KT
EHAM,TAF EHAM 011710Z 0118/0224 25010KT 9999 SCT025 PROB40 TEMPO 0118/0202 28015G25KT 7000 SHRA SCT025CB SCT030 BECMG 0209/0212 29011KT BECMG 0219/0222 VRB02KT
EHBK,TAF EHBK 011658Z 0118/0224 24010KT 9999 SCT025 PROB30 TEMPO 0206/0218 7000 -RA BKN008 BECMG 0218/0221 27005KT PROB30 0218/0224 4000 BR BKN002
EHEH,TAF EHEH 011738Z 0118/0224 24007KT CAVOK PROB30 TEMPO 0119/0203 SCT020CB TEMPO 0216/0222 31005KT
EHGG,TAF EHGG 011658Z 0118/0224 25010KT 9999 SCT020 PROB30 TEMPO 0118/0202 6000 SHRA FEW020CB SCT025 PROB40 TEMPO 0205/0208 6000 SHRA RA SCT018CB BKN020 BECMG 0207/0210 29010KT
EHKD,TAF EHKD 011211Z 0113/0201 27018G28KT 9999 SCT023 TEMPO 0113/0201 FEW020CB BECMG 0118/0121 26015KT PROB30 TEMPO 0120/0201 28016G28KT 3500 SHRA TSRA FEW012 SCT018CB
EHLE,TAF EHLE 011710Z 0118/0224 25010KT 9999 SCT025 PROB40 TEMPO 0118/0202 28015G25KT 7000 SHRA SCT025CB SCT030 BECMG 0209/0212 29011KT BECMG 0219/0222 VRB02KT
EHLW,TAF EHLW 012056Z 0121/0209 25012KT CAVOK PROB40 TEMPO 0121/0209 SCT020CB PROB30 TEMPO 0121/0206 28015G25KT 4500 TSRA FEW012 SCT018CB
EHRD,TAF EHRD 011710Z 0118/0224 25010KT 9999 SCT025 PROB30 TEMPO 0118/0202 28015G25KT 7000 SHRA SCT025CB SCT030 BECMG 0209/0212 29011KT BECMG 0219/0222 VRB02KT
EHVK,TAF EHVK 012055Z 0121/0209 24007KT CAVOK PROB30 TEMPO 0120/0203 SCT020CB
EICK,TAF EICK 011700Z 0118/0218 26008KT 9999 FEW014 BKN022 TEMPO 0123/0206 3000 RA BKN012 PROB30 TEMPO 0206/0214 33010KT
EIDL,TAF EIDL 011700Z 0118/0203 27020KT 9999 FEW028 PROB40 TEMPO 0118/0124 28020G30KT
EIDW,TAF EIDW 011700Z 0118/0218 25014KT 9999 FEW018 SCT030 TEMPO 0118/0119 26016G26KT -SHRA PROB30 TEMPO 0118/0119 SHRA BECMG 0119/0121 25009KT BECMG 0207/0209 30009KT BECMG 0216/0218 30004KT
EIKN,TAF EIKN 011100Z 0112/0212 26013KT 9999 FEW015 SCT045 TEMPO 0112/0117 25015G26KT PROB40 TEMPO 0112/0114 4000 SHRA BKN010 SCT018CB BECMG 0117/0119 23008KT
EIKY,TAF AMD EIKY 011826Z 0118/0203 25006KT 9999 FEW010 BKN030 PROB30 TEMPO 0118/0203 0300 FG BKN001 PROB40 TEMPO 0123/0203 4000 RA BKN014
EIME,TAF EIME 012000Z 0121/0206 24012KT 9999 FEW030
EINN,TAF EINN 011700Z 0118/0218 26010KT 9999 FEW018 BECMG 0122/0124 VRB03KT PROB30 TEMPO 0202/0207 4000 BR
EISG,TAF EISG 012000Z 0121/0206 25010KT 9999 SCT035
EIWF,TAF EIWF 012000Z 0121/0206 27010KT 9999 FEW015 SCT030 BECMG 0201/0203 VRB03KT PROB30 TEMPO 0201/0205 4000 RA BKN014
EKAH,TAF EKAH 011705Z 0118/0218 25008KT 9999 SCT020 TEMPO 0118/0212 SCT020CB TEMPO 0212/0218 29015G25KT SCT020CB
EKBI,TAF EKBI 011705Z 0118/0218 27010KT 9999 SCT015 TEMPO 0118/0120 SCT020CB TEMPO 0120/0208 4000 SHRA SCT020CB TEMPO 0208/0218 SHRA SCT030CB
EKCH,TAF EKCH 011705Z 0118/0218 28010KT 9999 SCT020 TEMPO 0206/0212 SCT020CB TEMPO 0212/0218 30015G25KT SCT020CB
EKKA,TAF EKKA 012008Z 0121/0221 23007KT 9999 SCT020 TEMPO 0121/0212 4000 SHRA FEW012 BKN020CB BECMG 0207/0210 29012KT TEMPO 0212/0216 30015G25KT 5000 -SHRA BKN020CB
EKRK,TAF EKRK 012008Z 0121/0206 27010KT 9999 FEW020
EKRN,TAF EKRN 012007Z 0121/0206 28018KT 9999 BKN020 TEMPO 0121/0206 29018G28KT 3000 SHRA SCT012 BKN020CB
EKSP,TAF EKSP 012008Z 0121/0221 24008KT 9999 SCT025 TEMPO 0121/0210 4000 SHRA FEW012 BKN020CB BECMG 0207/0210 29012KT TEMPO 0210/0216 30015G25KT 4000 SHRA BKN020CB
EKVG,TAF EKVG 011721Z 0118/0202 20015KT 9999 -RA BKN012 OVC022 TEMPO 0118/0202 3500 RADZ BR BKN005 OVC010 BECMG 0200/0202 26022G32KT
EKYT,TAF EKYT 012008Z 0121/0221 27012KT 9999 SCT025 TEMPO 0200/0209 FEW020CB TEMPO 0210/0218 29018G28KT
ELLX,TAF ELLX 011700Z 0118/0224 25011KT 9999 FEW015 PROB30 TEMPO 0118/0122 FEW015TCU BECMG 0122/0201 BKN007 TEMPO 0201/0209 3000 -RADZ BKN004 TEMPO 0209/0219 4000 RA BKN015 BECMG 0219/0221 SCT015
ENAN,TAF ENAN 0118/0218 17008KT CAVOK
ENBN,TAF ENBN 012000Z 0121/0206 12009KT 9999 BKN050
ENBO,TAF ENBO 0118/0218 10009KT 9999 FEW035 PROB40 TEMPO 0214/0218 24010KT TEMPO 0217/0218 SHRA BKN012
ENBR,TAF ENBR 0118/0218 19008KT 9999 FEW015 SCT025 PROB40 TEMPO 0118/0202 SHRA BKN012 FEW020CB TEMPO 0202/0216 4000 SHRA BKN008 SCT020CB BECMG 0211/0213 32012KT
ENDU,TAF ENDU 0118/0218 VRB03KT 9999 FEW040 PROB30 TEMPO 0200/0208 1200 PRFG
ENEV,TAF ENEV 0118/0218 14007KT 9999 FEW045
ENFL,TAF ENFL 012000Z 0121/0206 12008KT 9999 -SHRA FEW020TCU SCT040 TEMPO 0121/0206 16015G25KT SHRA BKN012 SCT020CB
ENGC,TAF ENGC 0121/0221 21020KT 9999 -SHRA FEW020TCU SCT040 TEMPO 0121/0212 SHRA BKN012 SCT020CB BECMG 0208/0210 27025KT
ENGM,TAF ENGM 0118/0218 10007KT 9999 -RA FEW012 BKN030 TEMPO 0118/0209 SHRA BKN012 FEW020CB BECMG 0203/0206 02010KT
ENHE,TAF ENHE 012000Z 0121/0206 20008KT 9999 FEW020 SCT040
ENKR,TAF ENKR 012000Z 0121/0206 22008KT 9999 BKN015 TEMPO 0121/0124 3000 RADZ BR OVC008
ENLE,TAF ENLE 012000Z 0121/0206 27028KT 9999 -SHRA FEW020 SCT040 TEMPO 0121/0206 SCT020TCU BECMG 0202/0204 32018KT
ENNA,TAF ENNA 0118/0218 18008KT 9999 FEW020 BKN035 PROB40 TEMPO 0202/0212 BKN012
ENOA,ENOA 0121/0221 21018KT 9999 -SHRA FEW020TCU SCT040 TEMPO 0121/0213 SHRA BKN012 SCT020CB BECMG 0207/0209 27022KT
ENOL,TAF ENOL 0118/0218 33005KT 9999 FEW030 BKN060 TEMPO 0203/0210 SHRA BKN020CB BECMG 0213/0215 14010KT
ENRY,TAF ENRY 0118/0218 12008KT 9999 -RA FEW012 BKN030 TEMPO 0118/0206 SHRA BKN012 FEW020CB BECMG 0202/0205 02010KT BECMG 0214/0216 VRB05KT
ENSB,TAF AMD ENSB 0119/0218 25005KT 9999 FEW010 BKN025 TEMPO 0121/0212 3000 RADZ BKN008 TEMPO 0119/0203 BKN008
ENTC,TAF ENTC 0118/0218 19008KT CAVOK
ENTO,TAF ENTO 0118/0218 12008KT 9000 -RA SCT006 BKN020 TEMPO 0118/0208 4000 SHRA BR BKN006 FEW020CB BECMG 0202/0205 02010KT BECMG 0214/0216 VRB05KT
ENVA,TAF ENVA 0118/0218 14008KT 9999 FEW030 BKN060 PROB30 TEMPO 0118/0120 16015G25KT TEMPO 0203/0214 4000 SHRA BKN008 SCT020CB
ENZV,ENZV 0118/0218 23008KT 9999 FEW015 SCT025 PROB30 TEMPO 0118/0202 SHRA SCT020CB TEMPO 0202/0216 29010KT SHRA BKN014 SCT030CB BECMG 0211/0213 33018KT
EPBY,TAF EPBY 011730Z 0118/0218 20008KT 9999 BKN035 TEMPO 0118/0201 4000 SHRA BKN010 BKN023CB BECMG 0122/0201 27010KT BKN007 BKN014 PROB40 TEMPO 0201/0218 -SHRA SCT006 BKN012CB PROB30 TEMPO 0201/0206 3000 RA BR BKN005 OVC010 TEMPO 0206/0218 27016G28KT SCT013 BKN027
EPCE,TAF EPCE 012000Z 0121/0206 21006KT 9999 -RA BKN010 TEMPO 0121/0206 5000 -SHRA BKN007 BKN012TCU
EPDA,TAF EPDA 012000Z 0121/0206 20013KT 9999 BKN015 TEMPO 0121/0206 8000 RA BKN006 PROB30 TEMPO 0200/0206 27018G27KT
EPDE,TAF EPDE 012000Z 0121/0206 18006KT 9999 BKN025 BKN100 TEMPO 0120/0124 VRB03KT 5000 -RA BR BKN010 OVC025 BECMG 0200/0202 26010KT BKN010 OVC020
EPGD,TAF EPGD 011730Z 0118/0218 19012KT 9999 BKN030 BECMG 0118/0120 SCT006 BKN012 TEMPO 0118/0204 4000 -SHRA BR BKN004 BKN012CB BECMG 0202/0204 27012KT -RA BKN016 TEMPO 0204/0218 27015G28KT 4000 SHRA BKN006 BKN012CB
EPKK,TAF EPKK 012030Z 0121/0221 26012KT 9999 BKN030 TEMPO 0121/0221 27015G25KT -SHRA BKN013 BKN025CB PROB40 TEMPO 0121/0207 BKN007 PROB40 TEMPO 0212/0218 27020G35KT SHRA SCT009 BKN014CB
EPKS,TAF EPKS 012000Z 0121/0206 26010KT 9999 BKN015 PROB30 TEMPO 0122/0206 5000 RA BR SCT007 OVC010
EPKT,TAF EPKT 011730Z 0118/0218 26010KT 9999 BKN030 TEMPO 0118/0218 27015G25KT -SHRA BKN013 BKN025CB PROB30 TEMPO 0118/0207 4000 RA BR BKN007 OVC013
EPLB,TAF EPLB 011730Z 0118/0218 15004KT 9999 BKN020 TEMPO 0118/0121 2500 -RA BR BKN008 BKN014 PROB40 TEMPO 0118/0122 4000 SHRA BKN014CB BECMG 0121/0124 27012KT BKN012 TEMPO 0121/0207 2000 -RA BR BKN004 BKN008 BECMG 0207/0210 BKN018 PROB40 TEMPO 0207/0218 27015G28KT SHRA BKN014CB
EPLK,TAF EPLK 012000Z 0121/0206 24010KT 9999 BKN030 TEMPO 0121/0206 -RA SCT007 BKN015 PROB30 TEMPO 0123/0206 5000 RA BR BKN003
EPLL,TAF EPLL 011730Z 0118/0218 14004KT 9999 OVC020 TEMPO 0118/0121 -SHRA BKN008 BKN012CB BECMG 0119/0122 26010KT BKN012 TEMPO 0121/0208 4500 -RA BR BKN003 BKN008 PROB40 TEMPO 0203/0208 27015G28KT BECMG 0208/0211 BKN020 TEMPO 0208/0218 27017G28KT SHRA BKN014CB
EPMI,TAF EPMI 012000Z 0121/0206 17008KT 6000 RA BKN007 TEMPO 0121/0206 3000 RABR BKN004 OVC007
EPMM,TAF EPMM 012000Z 0121/0206 15006KT 9999 BKN050 OVC070 TEMPO 0121/0124 SHRA BKN005 BKN015CB PROB30 0123/0201 27008KT 4000 RA BR BKN004 BECMG 0203/0206 6000 BKN010 OVC020
EPMO,TAF EPMO 011730Z 0118/0218 15007KT 9999 BKN020 BECMG 0119/0121 27011KT TEMPO 0119/0121 SHRA BKN006 BKN012CB BECMG 0121/0124 BKN012 TEMPO 0121/0206 4000 -RA BR BKN003 BKN007 TEMPO 0206/0209 27015G27KT SHRA BKN008CB BECMG 0208/0211 BKN020 TEMPO 0209/0218 27017G28KT SHRA BKN014CB
EPOK,TAF EPOK 012000Z 0121/0206 20012KT 9999 BKN020 TEMPO 0121/0206 7000 -RA BKN014 TEMPO 0121/0204 5000 RA BR BKN007 BKN010 PROB30 TEMPO 0200/0206 23015G25KT PROB30 TEMPO 0204/0206 5000 SHRA BKN007 BKN010CB
EPPO,TAF AMD EPPO 011826Z 0118/0218 24008KT 9999 BKN010 TEMPO 0118/0208 4000 RA BR BKN008 OVC010 BECMG 0208/0210 BKN020 TEMPO 0208/0218 27015G25KT 4000 SHRA BKN020CB
EPPW,TAF EPPW 012000Z 0121/0206 25010KT 9999 BKN015 PROB30 0121/0206 5000 RA BR SCT007 OVC012
EPRZ,TAF EPRZ 011730Z 0118/0218 21004KT 9999 BKN023 BECMG 0118/0121 27010KT TEMPO 0118/0121 2500 SHRA BKN004 OVC013CB TEMPO 0121/0218 27016G26KT SHRA BKN013 BKN023CB PROB40 TEMPO 0121/0208 2500 RA BR BKN004 OVC013
EPSC,TAF EPSC 011730Z 0118/0218 17012KT 9999 BKN006 TEMPO 0118/0206 4000 -RA BR BKN004 BECMG 0206/0209 26010KT BKN012 PROB40 TEMPO 0209/0218 27015G28KT 4000 SHRA BKN006 BKN012CB
EPSN,TAF EPSN 012000Z 0121/0206 23012KT 9999 BKN017 TEMPO 0121/0201 8000 RA BKN007 BKN013 PROB30 TEMPO 0201/0206 6000 SHRA SCT006 BKN012CB
EPSY,TAF EPSY 012030Z 0121/0206 19005KT CAVOK PROB30 TEMPO 0121/0201 SHRA BKN007 BKN014CB PROB40 TEMPO 0121/0206 4000 -RA BR BKN004 BKN008
EPTM,TAF EPTM 012000Z 0121/0206 27008KT 9999 BKN040 TEMPO 0121/0206 6000 -RA SCT008 BKN025 PROB30 TEMPO 0202/0206 5000 BR BKN004
EPWA,TAF EPWA 012030Z 0121/0221 25010KT 9999 BKN030 BECMG 0121/0124 BKN012 BKN018 TEMPO 0121/0206 4000 -RA BR BKN004 BKN008 TEMPO 0206/0209 27015G25KT -SHRA BKN012CB BECMG 0208/0211 BKN020 TEMPO 0209/0221 27015G28KT SHRA BKN014CB
EPWR,TAF EPWR 012030Z 0121/0221 24005KT 9999 BKN035 BECMG 0121/0124 27015KT PROB40 TEMPO 0121/0208 4000 RA BR BKN008 BKN010 TEMPO 0208/0218 27018G30KT 4000 SHRA BKN020CB
EPZG,TAF EPZG 012030Z 0121/0206 21008KT 9999 BKN030 BECMG 0121/0124 27013KT BKN010 TEMPO 0121/0124 3000 SHRA BR BKN008 BKN010CB TEMPO 0200/0206 BKN006
ESGG,TAF ESGG 012030Z 0121/0221 14008KT 9999 -RADZ SCT004 BKN015 TEMPO 0122/0204 BKN004 BKN030CB BECMG 0201/0204 27010KT BECMG 0211/0213 33006KT
ESKN,TAF ESKN 012030Z 0121/0221 12007KT 9999 SCT045 TEMPO 0122/0216 2500 SHRA BKN012 BKN020CB PROB40 0216/0221 3000 BCFG
ESMS,TAF ESMS 012003Z 0121/0221 28012KT 9999 SCT020 TEMPO 0121/0209 BKN010 SCT020CB TEMPO 0209/0221 29015G25KT SCT020CB
ESMX,TAF ESMX 011730Z 0118/0122 16007KT 9000 -RA SCT015 BKN040 PROB40 0118/0119 4000 RA BKN014 TEMPO 0119/0122 2000 RA BR BKN005
ESNU,TAF ESNU 012030Z 0121/0206 14009KT 9999 -DZ SCT009 BKN020 TEMPO 0121/0206 2500 SHRA BR BKN007 BKN020CB
ESSA,TAF ESSA 012030Z 0121/0221 12006KT 9999 SCT015 BKN025 PROB40 0202/0210 SHRA BKN012 BKN020CB
ESSL,TAF ESSL 012030Z 0121/0123 12008KT 9999 SCT045 PROB40 0121/0123 4000 SHRA BKN020CB
ETAD,TAF ETAD 012000Z 0120/0302 24011KT 9999 BKN020 620803 QNH2995INS BECMG 0201/0202 24011KT 6000 BR SCT007 BKN010 640908 QNH3004INS BECMG 0203/0204 23010KT 6000 -SHRA BR OVC007 640908 QNH3006INS TEMPO 0204/0208 3200 -RA BR OVC005 TEMPO 0212/0213 3200 -TSRA BKN007CB BECMG 0216/0217 27008KT 9999 NSW OVC020 QNH3013INS WND 32008KT AFT 0218 TX15/0214Z TN09/0220Z
ETAR,TAF COR ETAR 012032Z 0120/0224 21009KT 9999 NSW BKN019 QNH3001INS BECMG 0123/0124 25009KT 9999 NSW BKN015 QNH3006INS BECMG 0206/0207 25009KT 8000 -SHRA BKN010 QNH3010INS BECMG 0213/0214 26006KT 8000 -SHRA SCT010 BKN020 QNH3012INS BECMG 0221/0222 33006KT 9999 NSW SCT020 QNH3020INS TX14/0214Z TN10/0204Z
ETIC,TAF ETIC 301800Z 3018/0124 VRB06KT 9999 SCT030 BKN045 QNH2985INS BECMG 3023/3024 VRB06KT 3200 BR SCT005 QNH2989INS BECMG 0105/0106 VRB03KT 0800 FG BKN005 QNH2981INS BECMG 0106/0107 20009KT 9999 NSW SCT005 BKN080 QNH2980INS BECMG 0109/0110 23010G15KT 8000 -SHRA BKN015 QNH2982INS BECMG 0121/0122 26009KT 8000 -SHRA SCT005 OVC010 QNH2994INS TX11/0118Z TN04/3023Z LAST NO AMDS AFT 3021 NEXT 0220
ETIK,TAF ETIK 302200Z 3022/0204 VRB06KT 9999 FEW030 QNH2988INS BECMG 0102/0103 21009KT 6000 BR SCT040 QNH2988INS BECMG 0107/0108 22012KT 8000 -SHRA OVC030 QNH2984INS BECMG 0111/0112 23015G25KT 6000 SHRA OVC030 QNH2988INS BECMG 0115/0116 24015KT 8000 -SHRA BKN030 OVC100 QNH2990INS TX14/014Z TN04/0103Z LAST NO AMDS AFT 3022 NEXT 0106
ETNL,TAF ETNL 011613Z 0117/0205 23010KT 9999 NSW SCT015 SCT030 TEMPO 0117/0205 26015KT 4000 SHRA BKN010 BKN030TCU PROB30 0117/0118 24015G25KT 2000 TSRA BKN007 BKN020CB BY ETGL
ETNW,TAF ETNW 011613Z 0117/0217 25010KT 9999 NSW SCT020 SCT040 TEMPO 0117/0217 28015G25KT 4000 SHRA BKN008 BKN015TCU BY ETGL
ETOU,TAF AMD ETOU 010650Z 0106/0210 20012G18KT 8000 -SHRA BKN005 OVC015 QNH2975INS BECMG 0109/0110 23010G15KT 9999 NSW FEW010 BKN015 QNH2976INS BECMG 0118/0119 24009KT 9999 SCT015 BKN030 QNH2992INS TX16/0114Z TN08/0204Z LAST NO AMDS AFT 0106 NEXT 0303
ETSN,TAF ETSN 011916Z 0120/0205 24007KT 9999 NSW SCT020 BKN040 TEMPO 0120/0205 26012KT 6000 -RA BKN020 BY ETGL
EVGA,TAF EVGA 012004Z 0121/0221 12005KT 9999 FEW030 TEMPO 0121/0209 0700 FG BKN001
EVLA,TAF EVLA 012005Z 0121/0221 14010KT 9999 FEW020 TEMPO 0200/0218 4000 -SHRA BKN020CB PROB40 TEMPO 0200/0206 TS
EVRA,TAF EVRA 012001Z 0121/0221 13005KT 9999 FEW040 TEMPO 0121/0206 0500 FG BKN001 TEMPO 0206/0210 3000 RA BR BKN005 OVC011
EYKA,TAF COR EYKA 011706Z 0118/0218 VRB03KT 5000 BR SCT005 TEMPO 0118/0122 0800 FG SCT002 TEMPO 0122/0206 0500 FG VV002 TEMPO 0206/0208 1500 BKN005 BECMG 0208/0210 DZ BKN005 OVC015 TEMPO 0214/0218 1500 RA OVC003
EYPA,TAF EYPA 011700Z 0118/0218 VRB05KT 9000 SCT045 TEMPO 0119/0123 5000 MIFG BR SCT005 BECMG 0123/0201 BKN005 OVC015 TEMPO 0201/0209 13015KT 3000 SHRA BKN002 BKN010CB BECMG 0209/0211 26015KT SCT005 BKN020 TEMPO 0211/0218 BKN015CB
EYSA,TAF EYSA 012000Z 0121/0206 VRB05KT 5000 BR SCT005 TEMPO 0121/0206 0800 FG SCT002
EYVI,TAF COR EYVI 011705Z 0118/0218 VRB03KT 0400 FG SCT002 TEMPO 0118/0124 5000 BR BKN002 TEMPO 0200/0207 1500 BR BKN002 BECMG 0207/0209 5000 BR BKN005 BECMG 0209/0211 9000 NSW SCT005 BKN015 TEMPO 0212/0215 5000 RA BR BKN010 BECMG 0215/0217 3000 DZ BR BKN005 OVC010
FABL,TAF FABL 011600Z 0118/0218 VRB03KT CAVOK TX32/0212Z TN10/0204Z
FACT,TAF FACT 011600Z 0118/0224 18013KT CAVOK TX24/0212Z TN10/0204Z BECMG 0122/0124 VRB03KT BECMG 0210/0212 33013KT BECMG 0215/0217 23010KT FM022100 35008KT 9999 FEW008 BKN020
FAGG,TAF FAGG 011600Z 0118/0218 09006KT 9999 FEW030 TX24/0212Z TN14/0204Z PROB30 TEMPO 0118/0121 BKN014
FALA,TAF FALA 011600Z 0118/0218 VRB03KT CAVOK TX33/0213Z TN15/0204Z BECMG 0206/0208 33010KT BECMG 0215/0217 VRB03KT
FALE,TAF FALE 011600Z 0118/0224 19015KT 9999 BKN020 TX25/0211Z TN18/0204Z PROB30 TEMPO 0118/0122 5000 RA BKN012 BECMG 0119/0121 24005KT BECMG 0208/0210 04010KT SCT030 BECMG 0219/0221 34004KT
FAOR,TAF FAOR 011600Z 0118/0224 VRB03KT CAVOK TX31/0213Z TN16/0204Z BECMG 0200/0202 01010KT BECMG 0210/0212 31010KT
FAPE,TAF FAPE 011600Z 0118/0218 21005KT CAVOK TX22/0212Z TN15/0203Z BECMG 0210/0212 09015KT
FAPM,TAF FAPM 011800Z 0119/0206 15005KT 9999 BKN020 TX17/0119Z TN12/0204Z BECMG 0119/0121 VRB02KT PROB30 TEMPO 0121/0204 0800 FG BKN008
FAUP,TAF FAUP 011600Z 0118/0218 VRB03KT CAVOK TX38/0212Z TN10/0204Z
FBKE,FBKE 011200Z 0115/0124 11005KT CAVOK
FBMN,FBMN 011600Z 0118/0218 12008KT CAVOK
FBPM,FBPM 011600Z 0118/0218 11010KT CAVOK
FBSK,FBSK 011600Z 0118/0224 VRB03KT CAVOK BECMG 0203/0205 03008KT
FCBB,TAF FCBB 011700Z 0118/0224 VRB10KT 9000 TS FEW016 FEW030CB BECMG 0119/0121 25005KT NSW FEW020 BECMG 0200/0202 SCT018 FEW028CB PROB30 0203/0208 -TSRA BECMG 0209/0211 FEW020
FCPP,TAF COR FCPP 011700Z 0118/0218 20010KT 9000 SCT010 BKN023 FEW030CB PROB40 TEMPO 0200/0206 VRB03KT 4500 RA BKN010 FEW028CB BECMG 0207/0209 FEW010 BKN023
FDSK,TAF FDSK 011000Z 0112/1018 01008KT CAVOK BECMG 0113/0115 FEW040CB BECMG 0115/0117 16011KT SCT040
FEFF,TAF FEFF 010500Z 0106/0212 VRB03KT 9999 FEW010 BECMG 0108/0109 BKN013 BECMG 0110/0112 SCT023 FEW040CB TEMPO 0113/01017 4000 TSRA BECMG 0118/0119 BKN010 BECMG 0120/0122 CAVOK
FGBT,TAF FGBT 011700Z 0118/0218 18005KT 9999 SCT010
FGSL,TAF FGSL 011700Z 0118/0224 24010KT 9999 SCT010 FEW020CB PROB40 TEMPO 0200/0204 4000 TSRADZ BKN010 FEW020CB PROB30 TEMPO 0208/0212 4000 TSRA BKN010 FEW020CB
FHAW,TAF FHAW 011030Z 0112/0206 15014KT 9999 FEW025 BKN040
FIMP,TAF COR FIMP 011705Z 0118/0300 15010KT 9999 SCT017 TEMPO 0118/0200 7000 -SHRA BKN016
FIMR,TAF FIMR 011710Z 0118/0212 13018G28KT 9999 SCT017 TEMPO 0118/0200 7000 -SHRA BKN016
FJDG,TAF FJDG 011700Z 0117/0223 17015KT 9999 SCT025 QNH2980INS TX30/0206Z TN26/0117Z FOR MIL USE ONLY
FKKD,TAF FKKD 011700Z 0118/0224 VRB05KT 8000 -TSRA BKN013 FEW016CB TEMPO 0119/0201 4000 TSRADZ BECMG 0206/0208 NSW
FKYS,TAF FKYS 011700Z 0118/0218 26006KT 8000 -TSRA FEW003 BKN006 FEW013CB TEMPO 0118/0120 3000 TSRA BECMG 0123/00201 NSW
FLCP,TAF FLCP 301600Z 3018/0124 09010G20KT CAVOK BECMG 0107/0109 9999 SCT020 BECMG 0111/0113 SCT035 BECMG 0115/0117 CAVOK
FLHN,TAF FLHN 301600Z 3018/0124 14010G20KT CAVOK BECMG 3019/3021 07005KT BECMG 0103/0105 10010G20KT BECMG 0106/0108 08005G15KT 9000 HZ SKC
FLKK,TAF FLKK 301600Z 3018/0124 10005KT CAVOK BECMG 0102/0104 13005G15KT BECMG 0106/0108 12010G20KT BECMG 0109/0111 9999 FEW030
FLKS,TAF FLKS 301600Z 3018/0124 10005G15KT CAVOK BECMG 0101/0103 06005KT BECMG 0107/0109 10005G10KT 9999 FEW020 BECMG 0110/0112 15005G15KT SCT030
FLMA,TAF FLMA 301600Z 3018/0124 10005G15KT CAVOK FM301900 VRB03KT BECMG 0103/0105 09005G15KT BECMG 0108/0110 10010G20KT 9999 SCT030
FLMF,TAF FLMF 301600Z 3018/0124 09010G20KT CAVOK BECMG 0107/0109 9999 SCT020 BECMG 0111/0113 SCT035 BECMG 0115/0117 CAVOK
FLSK,TAF FLSK 301600Z 3018/0124 16005G15KT CAVOK BECMG 0102/0104 09010G20KT 8000 FU NSC BECMG 0108/0110 SCT035 FM011500 15005G15KT CAVOK
FLSW,TAF FLSW 301600Z 3018/0124 VRB03KT CAVOK BECMG 3022/0100 10005G15KT BECMG 0108/0110 14010KT 9999 SCT025 BECMG 0112/0114 10005G15KT SCT040
FMCH,FMCH 011100Z 0112/0218 24010KT 9999 SCT020 SCT030 BECMG 0115/0117 08003KT BECMG 0205/0207 22010KT
FMCZ,TAF FMCZ 011700Z 0118/0218 03005KT 9999 NSC
FMEE,TAF FMEE 011700Z 0118/0224 15010KT 9999 NSC BECMG 0203/0205 11015G30KT BECMG 0209/0211 09015KT BECMG 0221/0223 15008KT
FMMI,TAF FMMI 011700Z 0118/0224 08010KT 9999 FEW020 BECMG 0119/0121 14006KT PROB40 0200/0204 1500 BR BKN006
FMMS,TAF FMMS 011700Z 0118/0218 16010KT 9999 SCT017 PROB30 TEMPO 0202/0208 4500 SHRA
FMMT,TAF FMMT 011700Z 0118/0218 VRB05KT 9999 SCT017 PROB30 TEMPO 0202/0212 4000 SHRA
FMNA,TAF FMNA 011700Z 0118/0218 14018G28KT 9999 FEW020
FMNM,TAF FMNM 011700Z 0118/0218 32010KT 9999 FEW020 BECMG 0120/0122 12008KT BECMG 0210/0212 32010KT
FMNN,TAF FMNN 011700Z 0118/0218 28010KT 9999 SCT020 BECMG 0120/0122 08006KT PROB30 TEMPO 0122/0203 4500 SHRA
FMSD,TAF FMSD 011700Z 0118/0218 08018G28KT 9999 FEW020
FMST,TAF FMST 011700Z 0118/0218 24012KT 9999 FEW020 BECMG 0119/0121 08005KT BECMG 0210/0212 24010KT
FNBG,TAF FNBG 011100Z 0112/0124 29008KT 9999 SCT020
FNCA,TAF FNCA 011100Z 0112/0124 18008KT 9999 FEW010 BKN020 TEMPO 0114/0118 FEW023CB
FNCT,TAF FNCT 011100Z 0112/0124 27010KT 9999 FEW015 SCT025 BECMG 0118/0120 21006KT
FNDU,TAF FNDU 011100Z 0112/0124 02005KT 9999 SCT022 FEW028CB PROB30 TEMPO 0113/0119 4000 -TSRA
FNGI,TAF FNGI 011100Z 0112/0124 14006KT CAVOK
FNHU,TAF FNHU 011100Z 0112/0124 26005KT 9999 FEW012
FNKU,TAF FNKU 011100Z 0112/0124 14005KT CAVOK
FNLU,TAF FNLU 011100Z 0112/0218 25010KT 9999 SCT018 BKN040 TEMPO 0114/0118 FEW023TCU BECMG 0118/0120 19006KT
FNMA,TAF FNMA 011100Z 0112/0124 26008KT 8000 SCT016 PROB40 TEMPO 0113/0118 TS FEW018CB
FNME,TAF FNME 011100Z 0112/0124 16008KT CAVOK
FNMO,TAF FNMO 011100Z 0112/0124 31010KT 9999 FEW015
FNSA,TAF FNSA 011100Z 0112/0124 11005KT 9999 SCT023 FEW025CB
FNSO,TAF FNSO 011100Z 0112/0124 25010KT 9999 SCT012 BKN050 TEMPO 0113/0117 FEW020TCU
FNUB,TAF FNUB 011100Z 0112/0124 13008KT CAVOK
FNUE,TAF FNUE 011100Z 0112/0124 16006KT 9999 SCT025
FOOG,TAF COR FOOG 011700Z 0118/0218 20006KT 9999 SCT010 BKN030
FOOL,TAF FOOL 011700Z 0118/0224 35004KT 9999 SCT012 BKN030 PROB30 0204/0206 4000 RA BKN010
FQBR,TAF FQBR 011600Z 0118/0224 10010KT 9999 FEW018 TX30/0213Z TN20/0203Z BECMG 0200/0202 04006KT BECMG 0212/0214 12012KT
FQCH,TAF FQCH 011600Z 0118/0218 09008KT CAVOK TX33/0213Z TN16/0203Z BECMG 0200/0202 VRB03KT PROB40 TEMPO 0202/0206 0800 FG BKN001 BECMG 0212/0214 10010KT
FQIN,TAF FQIN 011600Z 0118/0218 10008KT 9999 FEW020 TX30/0213Z TN22/0203Z BECMG 0206/0208 16007KT BECMG 0212/0214 17012KT
FQLC,TAF FQLC 011600Z 0118/0218 04007KT 9999 SCT020 TX28/0213Z TN12/0203Z BECMG 0212/0214 10012KT
FQMA,TAF FQMA 011600Z 0118/0224 10010KT 9999 FEW020 TX28/0213Z TN21/0203Z BECMG 0200/0202 16010KT BECMG 0212/0214 10010KT BECMG 0218/0220 04008KT
FQNC,TAF FQNC 011600Z 0118/0224 03007KT 9999 SCT020 TX30/0213Z TN19/0203Z BECMG 0200/0202 VRB03KT PROB40 TEMPO 0202/0207 0800 FG BKN001 BECMG 0212/0214 10010KT BECMG 0218/0220 04007KT
FQNP,TAF FQNP 011600Z 0118/0218 09010KT 9999 FEW020 TX33/0213Z TN19/0203Z BECMG 0200/0202 VRB03KT PROB40 TEMPO 0202/0207 0800 FG BKN001 BECMG 0207/0209 10007KT BECMG 0212/0214 09012KT
FQPB,TAF FQPB 011600Z 0118/0218 10010KT 9999 FEW020 TX30/0213Z TN21/0203Z BECMG 0200/0202 VRB03KT PROB30 TEMPO 0202/0206 3000 BR SCT005 BECMG 0206/0208 09005KT BECMG 0212/0214 09012KT
FQQL,TAF FQQL 011600Z 0118/0218 10007KT 9999 FEW020 TX31/0213Z TN20/0203Z PROB30 TEMPO 0202/0206 3000 BR SCT005 BECMG 0206/0208 04006KT BECMG 0212/0214 16013KT
FQTT,TAF FQTT 011600Z 0118/0218 10008KT 9999 FEW020 TX36/0213Z TN21/0203Z BECMG 0212/0214 16012KT
FQVL,TAF FQVL 011600Z 0118/0218 06007KT 9999 FEW020 TX28/0213Z TN22/0203Z BECMG 0200/0202 10005KT PROB30 TEMPO 0202/0207 3000 BR SCT005 BECMG 0212/0214 11014KT
FQXA,TAF FQXA 011600Z 0118/0218 10010KT CAVOK TX29/0213Z TN20/0203Z BECMG 0200/0202 16007KT PROB30 TEMPO 0202/0206 3000 BR SCT005 BECMG 0212/0214 16012KT
FSIA,TAF FSIA 011703Z 0118/0218 VRB03KT 9999 FEW024
FTTJ,TAF FTTJ 011700Z 0118/0224 22006KT 8000 FEW030 PROB30 TEMPO 0215/0219 TS
FVJN,TAF FVJN 011600Z 0118/0224 11008KT CAVOK
FVRG,TAF FVRG 011600Z 0118/0224 08008KT CAVOK
FWCL,TAF FWCL 010900Z 0112/0218 36009KT 7000 HZ SKC BECMG 0112/0114 08008KT 9999 FEW030 FM011500 12007KT CAVOK
FWKI,TAF FWKI 011300Z 0118/0224 10009KT CAVOK BECMG 0206/0208 FEW030 FM021200 08016KT CAVOK
FYGF,TAF FYGF 012000Z 0121/0206 12007KT CAVOK
FYKM,TAF FYKM 012000Z 0121/0206 09005KT CAVOK
FYLZ,TAF FYLZ 012000Z 0121/0206 00000KT CAVOK BECMG 0122/0124 17005KT
FYOA,TAF FYOA 012000Z 0121/0206 15007KT CAVOK
FYRU,TAF FYRU 012000Z 0121/0206 13007KT CAVOK
FYWB,TAF FYWB 011600Z 0118/0218 31008KT CAVOK BECMG 0119/0121 9999 BKN012 TEMPO 0200/0203 03005KT 3000 BR OVC007
FYWE,TAF FYWE 012000Z 0121/0206 13003KT CAVOK
FYWH,TAF FYWH 011600Z 0118/0218 08006KT CAVOK BECMG 0119/0121 14005KT
FZAA,TAF FZAA 011700Z 0118/0224 27012KT 7000 SCT021 FEW030CB PROB30 TEMPO 0119/0123 TS PROB30 TEMPO 0201/0205 4000 TSRA SCT016 FEW026CB BECMG 0206/0208 18004KT BKN016 BECMG 0212/0214 30010KT SCT020 FEW030CB
FZIC,TAF FZIC 011100Z 0112/0218 25008KT 9999 BKN036 FEW038CB TEMPO 0113/0116 TS BECMG 0116/0118 NSC FM020100 00000KT 1500 BR SCT004 FM020630 25006KT 8000 BKN012 BECMG 0209/0212 SCT034 FEW022
FZNA,TAF FZNA 011700Z 0118/0224 05006KT 6000 TS SCT016 FEW020CB BECMG 0120/0122 NSW SCT014 BECMG 0207/0209 22010KT SCT018 FEW022CB TEMPO 0210/0216 -TSRA BECMG 0218/0220 05004KT SCT014
FZQA,TAF FZQA 011100Z 0112/0218 09014KT 9999 FEW022 BECMG 0120/0122 16006KT CAVOK BECMG 0206/0208 09008KT
GABS,TAF GABS 011700Z 0118/0224 18004G14KT 9999 FEW016 PROB40 TEMPO 0200/0207 08018G37KT 2000 TSRA BKN015 FEW030CB TEMPO 0209/0215 VRB18G37KT 2000 TSRA BKN015 SCT030CB
GAGO,TAF GAGO 011140Z 0112/0212 14006G16KT 8000 FEW030 TEMPO 0115/0122 VRB20G35KT 1000 TSRA BLDU BKN030 SCT040CB
GBYD,TAF GBYD 011700Z 0118/0224 27006KT 9999 SCT012
GCFV,TAF GCFV 012000Z 0121/0221 04018KT 9999 FEW025 TX27/0214Z TN21/0206Z BECMG 0122/0201 02008KT
GCGM,TAF GCGM 012000Z 0121/0221 22008KT 9999 SCT025 TX26/0214Z TN20/0206Z PROB30 TEMPO 0121/0123 36010KT
GCHI,TAF GCHI 012000Z 0121/0221 02012KT 9999 SCT025 TX25/0214Z TN21/0206Z TEMPO 0208/0217 13005KT
GCLA,TAF GCLA 012000Z 0121/0221 32010KT 9999 SCT030 TX24/0214Z TN20/0206Z PROB30 TEMPO 0121/0203 02008KT BECMG 0210/0212 02006KT BECMG 0218/0220 32010KT
GCLP,TAF GCLP 012000Z 0121/0221 01022KT 9999 FEW025 TX26/0214Z TN20/0206Z PROB30 TEMPO 0121/0201 01016G26KT BECMG 0203/0205 36012KT
GCRR,TAF GCRR 012000Z 0121/0221 03018KT 9999 FEW025 TX29/0214Z TN20/0206Z BECMG 0122/0201 01008KT BECMG 0209/0212 13010KT BECMG 0217/0219 01015KT
GCTS,TAF GCTS 012000Z 0121/0221 07015KT 9999 SCT025 TX27/0214Z TN20/0206Z BECMG 0123/0201 VRB05KT BECMG 0208/0210 07014KT
GCXO,TAF GCXO 012000Z 0121/0221 35010KT 9999 BKN015 TX23/0214Z TN16/0206Z PROB30 TEMPO 0122/0208 2500 BCFG BKN005 BECMG 0204/0206 13008KT
GECE,TAF GECE 010800Z 0109/0209 07014KT 9999 FEW025 TX24/0112Z TN20/0205Z PROB30 TEMPO 0112/0122 07015G25KT
GEML,TAF GEML 011700Z 0118/0218 08013KT 9999 FEW020 TX25/0213Z TN21/0206Z PROB30 TEMPO 0118/0120 08015G25KT TEMPO 0201/0209 BKN014
GGOV,TAF GGOV 011700Z 0118/0218 VRB05KT 8000 SCT012 TEMPO 0118/0123 4000 TSRA BKN010 FEW020CB TEMPO 0200/0204 4000 RA BKN010
GMAD,TAF GMAD 011700Z 0118/0224 20008KT CAVOK
GMAG,TAF GMAG 011700Z 0118/0224 33015KT 9999 BKN020 PROB30 0200/0206 4000 BR BECMG 0206/0208 FEW030
GMFF,TAF GMFF 011700Z 0118/0224 06012KT CAVOK PROB30 TEMPO 0118/0206 08015G25KT
GMFK,TAF GMFK 011700Z 0118/0224 06015KT 9999 SCT030 SCT100 PROB40 TEMPO 0119/0201 06022G33KT TSRA SCT030 FEW036CB
GMFM,TAF GMFM 011700Z 0118/0224 12015KT CAVOK TEMPO 0122/0207 10020G30KT BECMG 0214/0218 19018KT FEW020
GMFO,TAF GMFO 011700Z 0118/0224 34010KT CAVOK PROB30 TEMPO 0202/0210 2000 BR BKN006 BECMG 0212/0215 20017KT 9999 SCT033
GMME,TAF GMME 011700Z 0118/0224 02015KT 8000 NSC TEMPO 0118/0124 08014KT TEMPO 0206/0212 28008KT TEMPO 0212/0218 28016KT
GMMH,TAF GMMH 011700Z 0118/0224 01016KT CAVOK
GMMI,TAF GMMI 011700Z 0118/0224 34014KT 8000 NSC
GMML,TAF GMML 011700Z 0118/0224 35016KT 6000 NSC
GMMN,TAF GMMN 011700Z 0118/0224 02020KT CAVOK BECMG 0120/0122 VRB02KT BECMG 0210/0212 24008KT BECMG 0215/0217 34008KT
GMMW,TAF GMMW 011700Z 0118/0224 05017KT CAVOK
GMMX,TAF GMMX 011700Z 0118/0224 04014KT 8000 SCT030 SCT090 BECMG 0121/0123 06004KT
GMMZ,TAF COR GMMZ 011700Z 0118/0224 06015KT 9999 BKN040 TEMPO 0119/0122 -TSRA BKN040 FEW050CB BECMG 0122/0124 27004KT
GMTA,TAF GMTA 011700Z 0118/0224 06015KT CAVOK
GMTT,TAF GMTT 011700Z 0118/0224 09025KT CAVOK TEMPO 0118/0216 09025G40KT
GOBD,TAF GOBD 011700Z 0118/0224 33008KT 9999 SCT015
GOGS,TAF GOGS 011100Z 0112/0212 25006KT 9999 SCT013
GOOY,TAF GOOY 011700Z 0118/0224 34008KT 9999 SCT013
GOSS,TAF GOSS 011100Z 0112/0212 32008KT 9999 SCT013
GQNO,TAF GQNO 011700Z 0118/0224 33015KT 8000 NSC BECMG 0209/0211 07008KT BECMG 0215/0217 34014KT
GQPP,TAF GQPP 011100Z 0112/0212 36016KT 7000 NSC PROB30 TEMPO 0116/0119 4500 DRSA
GVAC,TAF GVAC 011700Z 0118/0224 05012KT 9999 BKN013
GVBA,TAF GVBA 011100Z 0112/0218 04011KT 9999 BKN014
GVNP,TAF GVNP 011700Z 0118/0224 03012KT 9999 SCT015 TEMPO 0118/0124 FEW015 BKN020
GVSV,TAF GVSV 011700Z 0118/0224 06020KT 9999 SCT020 PROB40 TEMPO 0118/0122 06022G32KT
HAAB,TAF HAAB 011530Z 0118/0224 14009KT 9999 SCT030 SCT090 BECMG 0118/0122 09006KT 7000 RA BKN020
HADR,TAF HADR 011530Z 0118/0224 32007KT 9999 SCT030 SCT090
HBBA,TAF HBBA 0112/0218 18010G25KT 9999 FEW030 SCT100 BECMG 0118/0120 VRB02KT 9999 SCT080 BECMG 0202/0204 36002KT CAVOK BECMG 0207/0209 18010G25KT 9999 FEW022CB FEW022 BKN120 PROB30 TEMPO 0203/0205 TSRA OR SHRA
HCMM,TAF HCMM 011100Z 0112/0218 18015KT 9999 SCT022 BECMG 0122/0201 17010KT BKN019 BECMG 0209/0212 19015KT SCT023
HEAL,TAF HEAL 011700Z 0118/0224 33008KT CAVOK
HEAR,TAF HEAR 011700Z 0118/0224 30008KT 9999 SCT020 TEMPO 0200/0206 VRB03KT 3000 BR
HEAT,TAF HEAT 011700Z 0118/0224 01012KT CAVOK
HEAX,TAF HEAX 011700Z 0118/0224 33008KT CAVOK
HEBA,TAF HEBA 011700Z 0118/0224 33008KT CAVOK
HEBL,TAF HEBL 011700Z 0118/0224 03010KT CAVOK
HECA,TAF AMD HECA 011858Z 0119/0224 35009KT 6000 NSC TEMPO 0119/0206 VRB03KT 4000 BR TEMPO 0122/0205 2000
HEGN,TAF HEGN 011700Z 0118/0224 33010KT CAVOK
HELX,TAF HELX 011700Z 0118/0224 36006KT CAVOK
HEMA,TAF HEMA 011700Z 0118/0224 32010KT CAVOK
HEMM,TAF HEMM 011700Z 0118/0224 33008KT CAVOK
HEOW,TAF HEOW 011700Z 0118/0224 02010KT CAVOK
HEPS,TAF HEPS 011700Z 0118/0224 32010KT CAVOK
HESC,TAF HESC 011700Z 0118/0224 01008KT CAVOK
HESG,TAF HESG 011700Z 0118/0224 01008KT CAVOK
HESH,TAF HESH 011700Z 0118/0224 36012KT CAVOK
HESN,TAF HESN 011700Z 0118/0224 03010KT CAVOK
HETB,TAF HETB 011700Z 0118/0224 35012KT CAVOK
HETR,TAF HETR 011700Z 0118/0224 31015KT CAVOK
HKEL,TAF HKEL 011100Z 0112/0218 10010KT 9999 SCT024 TEMPO 0113/0117 -TSRA FEW019CB SCT020 BKN080 BECMG 0120/0123 17005KT NSW FEW016 SCT080 BECMG 0208/0211 27010KT SCT024 TEMPO 0213/0217 -TSRA FEW019CB SCT020 BKN080
HKJK,TAF HKJK 011700Z 0118/0224 09010KT 9999 BKN020 BECMG 0201/0204 VRB05KT BKN015 BECMG 0208/0211 12010KT SCT028 BECMG 0220/0223 02005KT BKN020
HKKI,TAF HKKI 011100Z 0112/0218 21010KT 9999 FEW025CB SCT026 TEMPO 0113/0117 -TSRA FEW020CB SCT021 BKN080 BECMG 0120/0123 06005KT NSW CAVOK BECMG 0208/0211 21010KT 9999 FEW026CB SCT027 TEMPO 0213/0217 -TSRA FEW020CB SCT021 BKN080
HKML,TAF HKML 011700Z 0118/0218 18010KT 9999 FEW022 BECMG 0200/0203 00000KT FEW019 BECMG 0209/0212 18020KT SCT023
HKMO,TAF HKMO 011700Z 0118/0224 15005KT 9999 FEW022 BECMG 0200/0203 21005KT FEW018 SCT080 BECMG 0209/0212 15015KT SCT026
HKNW,TAF HKNW 011700Z 0118/0212 09005KT 9999 BKN020 BECMG 0100/0103 VRB02KT BKN020 BECMG 0120/0123 VRB02KT BKN015 BECMG 0208/0211 10010KT SCT028
HLGD,TAF HLGD 011700Z 0118/0218 34015KT 8000 SCT030
HLGT,TAF HLGT 011700Z 0118/0218 VRB02KT 8000 NSC BECMG 0203/0205 09012KT
HLKF,TAF HLKF 011700Z 0118/0218 03012KT CAVOK
HLLB,TAF HLLB 011700Z 0118/0218 VRB02KT 8000 NSC BECMG 0203/0205 34012G22KT 6000 SCT030
HLLM,TAF HLLM 011700Z 0118/0218 36015KT 8000 SCT030 SCT080
HLLQ,TAF HLLQ 011700Z 0118/0218 VRB02KT 8000 NSC BECMG0210/0212 34010KT 9999 SCT025 SCT080
HLLS,TAF HLLS 011700Z 0118/0218 VRB02KT 8000 NSC BECMG 0200/0202 09010KT BECMG0209/0211 03012KT
HLMS,TAF HLMS 011700Z 0118/0218 30010KT 8000 SCT030 SCT080 BECMG0122/0124 36012G22KT6000 BECMG0212/0214 30010KT
HLON,TAF HLON 011700Z 0118/0218 VRB02KT 8000 NSC BECMG 0200/0202 36014KT 9999 SCT035
HLTD,TAF HLTD 011700Z 0118/0218 06014KT 8000 NSC
HLTQ,TAF HLTQ 011700Z 0118/0218 VRB02KT 9999 SCT030 BECMG0210/0212 32012G22KT 8000 SCT025 SCT080
HLUB,TAF HLUB 011700Z 0118/0218 VRB02KT 8000 NSC BECMG 0209/0211 09012KT
HRYR,HRYR 011700Z 0118/0224 03005KT 9999 FEW023CB SCT025 FM 012200 34003KT SCT025 BECMG 0203/0206 26004KT BKN025 TEMPO 0211/0216 17012KT -TSRA FEW022CB BKN025 BECMG 0219/0222 05006KT NSW SCT025 SCT100
HSKA,HSKA 011700Z 0118/0224 18006KT 9999 SCT140 TEMPO 0212/0215 9999 FEW040 SCT140 TEMPO 0215/0220 6000 TSRA FEW045CB
HSOB,HSOB 011700Z 0118/0224 21010G20KT 9999 FEW040 SCT140 PROB30 TEMPO 0215/0220 6000 TSRA FEW045CB
HSPN,HSPN 011700Z 0118/0224 04012G22KT CAVOK BECMG 0121/0123 27008KT
HSSJ,TAF HSSJ 010400Z 0106/0212 18003KT 9999 FEW030 SCT140 PROB30 TEMPO 0108/0114 VRB02KT 9999 FEW040 BKN090
HSSK,HSSK 011700Z 0118/0224 21010G20KT 9999 SCT140
HTAR,HTAR 011700Z 0118/0218 12010KT 9999 FEW026
HTDA,HTDA 011700Z 0118/0224 12005KT 9999 SCT015 BECMG 0209/0212 09015KT BKN030
HTDO,HTDO 011700Z 0118/0218 09010KT 9999 FEW027
HTKA,HTKA 010500Z 0106/0206 00000KT 9999 FEW020 TEMPO 0110/0115 27010KT
HTKJ,HTKJ 011700Z 0118/0218 07010KT 9999 SCT025 BECMG 0200/0203 00000KT BKN018 PROB 30 TEMPO 0211/0216 09015KT FEW035
HTMW,HTMW 011100Z 0112/0212 33010KT 9999 FEW025 FEW027CB
HTTB,HTTB 011700Z 0118/0218 10010KT CAVOK
HTZA,HTZA 011700Z 0118/0218 12005KT 9999 FEW016 SCT080 BECMG 0202/0204 21010KT BKN018
HUEN,TAF HUEN 011700Z 0118/0224 34008KT 9999 FEW023 FEW025CB TEMPO 0206/0209 VRB15KT 8000 -TSRA SCT020 FEW022CB BKN120 BECMG 0210/0218 18010KT
HUSO,TAF HUSO 011100Z 0112/0212 32005KT 9999 SCT021 FEW023CB FM 011400 07008KT TS BKN018 FEW020CB BECMG 0202/0206 36005KT FEW018 SCT100 FM 020900 27008KT BKN020 FEW022CB
KABE,KABE 012105Z 0121/0218 05013KT P6SM VCSH OVC015 FM020700 04009KT P6SM OVC020 FM021400 05012G24KT P6SM OVC050 FM021600 05012G24KT 3SM -RA BR OVC025
KABI,KABI 011720Z 0118/0218 13011KT P6SM SKC FM020400 VRB05KT P6SM SKC
KABQ,KABQ 012046Z 0121/0218 22009KT P6SM SCT100 FM012300 11011KT P6SM VCSH BKN100 TEMPO 0200/0203 09015G25KT FM020300 12007KT P6SM BKN100 FM020900 09006KT P6SM SCT070 FM021300 VRB05KT P6SM FEW050 SCT100
KABR,KABR 011720Z 0118/0218 09011KT P6SM BKN160 FM012100 12013G24KT P6SM SCT240 FM021400 15012G23KT P6SM SCT200 FM021600 17014G24KT P6SM BKN210
KABY,KABY 011722Z 0118/0218 30011G18KT P6SM SKC FM020200 VRB03KT P6SM SKC FM021400 33006KT P6SM SKC
KACK,KACK 011740Z 0118/0218 06017G26KT 3SM RA BR OVC008 FM020100 06016G29KT 2SM -RA BR OVC008 FM020600 05019G29KT 3SM -RA BR OVC008 FM020900 04021G33KT 2SM -RA BR OVC008 FM021200 04025G36KT 3SM -RA BR OVC015
KACT,KACT 012058Z 0121/0218 09007KT P6SM SKC
KACV,KACV 011737Z 0118/0218 24004KT 1/2SM FG VV002 TEMPO 0119/0121 4SM BR SCT003 FM012100 24005KT P6SM SCT005 FM020200 18003KT 1SM BR BKN002 FM020900 VRB03KT 1/2SM FG OVC001
KACY,KACY 012105Z 0121/0218 04012KT 1SM BR OVC006 FM020000 04011KT P6SM VCSH OVC006 FM020500 03007KT 5SM BR OVC007 FM020900 04012G22KT 2SM -RA BR OVC009 FM021500 05018G29KT 2SM -RA BR OVC015
KADF,KADF 011730Z 0118/0218 VRB04KT P6SM SKC FM020200 VRB02KT P6SM SKC
KADW,TAF AMD KADW 011817Z 0117/0223 07012G25KT 9999 -SHRA OVC005 QNH2986INS BECMG 0120/0121 07020G25KT 9000 DZ BR BKN010 OVC020 QNH2984INS BECMG 0208/0209 04015G25KT 4800 BR OVC004 QNH2991INS BECMG 0214/0215 03010G15KT 4800 DZ BR OVC006 QNH3001INS BECMG 0217/0218 03015KT 4800 -RA BKN006 OVC010 QNH3002INS BECMG 0220/0221 03012G18KT 8000 -RA OVC006 510203 QNH3005INS TX17/0120Z TN11/0223Z
KAEG,KAEG 011732Z 0118/0218 VRB05KT P6SM FEW080 FM012100 17010KT P6SM SCT100 FM020100 16008KT P6SM VCSH BKN100 TEMPO 0201/0203 VRB15G25KT FM020300 VRB05KT P6SM FEW070 SCT100
KAEX,KAEX 011806Z 0118/0218 01008KT P6SM SKC FM020100 VRB03KT P6SM SKC
KAFF,TAF KAFF 011100Z 0111/0217 VRB06KT 9999 FEW025 SCT080 QNH3013INS BECMG 0116/0117 14014KT 9999 SCT080 QNH3014INS SHRA OMTNS AFT 0118 BECMG 0119/0120 17012G22KT 9999 VCTS BKN060CB QNH3008INS TEMPO 0121/0202 VRB35G45KT 3200 -TSRAGR BKN050CB BECMG 0201/0202 34009KT 9999 VCSH BKN050 QNH3019INS BECMG 0206/0207 33009KT 9999 NSW SCT100 QNH3023INS BECMG 0215/0216 VRB06KT 9999 -SHRA BKN090 610909 QNH3025INS TX19/0122Z TN04/0210Z LAST NO AMDS AFT 0117 NEXT 0311
KAFW,KAFW 012058Z 0121/0218 10007KT P6SM SKC
KAGC,KAGC 012110Z 0121/0218 02008KT 3SM -RA OVC025 FM012200 02010G22KT 3SM -RA BR OVC012 FM020300 01011KT 4SM SHRA BR OVC008 FM021100 02007KT P6SM VCSH OVC012
KAGS,KAGS 012119Z 0121/0218 VRB05KT P6SM BKN035 OVC050 FM020700 01005KT P6SM SCT040 BKN100
KAHN,KAHN 011943Z 0120/0218 32008KT P6SM BKN050 FM020400 VRB03KT P6SM FEW200 FM021300 33004KT P6SM FEW120
KAIA,KAIA 011728Z 0118/0218 02007KT P6SM SCT200 FM012100 08009KT P6SM SCT240 FM020700 15005KT P6SM BKN070 FM021100 VRB04KT P6SM BKN025 FM021200 VRB04KT P6SM BKN015
KALB,KALB 011733Z 0118/0218 32006KT P6SM FEW030 BKN180 FM020500 03007KT P6SM FEW010 SCT100 FM021300 03012KT P6SM SCT020
KALI,KALI 011721Z 0118/0218 08008KT P6SM SKC FM020400 VRB03KT P6SM SKC FM021600 08007KT P6SM SKC
KALO,KALO 011720Z 0118/0218 14007KT P6SM SCT120
KALS,KALS 011932Z 0120/0218 27015G30KT P6SM VCSH BKN080 FM020200 28010KT P6SM VCSH BKN060
KALW,KALW 011720Z 0118/0218 VRB05KT P6SM SCT250 FM020400 13004KT P6SM SKC
KAMA,KAMA 011728Z 0118/0218 18013G21KT P6SM FEW250 FM020000 15015KT P6SM FEW250 FM020900 17009KT P6SM SKC
KANB,KANB 011720Z 0118/0218 35007KT P6SM SKC FM020200 36004KT P6SM FEW100 FM021500 35008KT P6SM FEW100
KAND,KAND 011738Z 0118/0218 VRB03KT P6SM SCT050 TEMPO 0119/0123 BKN050 FM020300 01003KT P6SM SCT050 BKN110 FM020700 34003KT P6SM SCT110 FM021500 01004KT P6SM SCT180
KAOO,KAOO 012119Z 0121/0218 03009G16KT 3SM -RA OVC005 TEMPO 0121/0201 1 1/2SM RA BR FM020100 02009KT 4SM -RA BR OVC005 FM021600 01010KT 3SM -RA BR OVC012
KAPA,KAPA 011730Z 0118/0218 07006KT P6SM SCT060 SCT150 FM012000 10010KT P6SM VCSH SCT050 OVC100 TEMPO 0121/0201 VRB20G40KT TSRA BKN035CB FM020100 13006KT P6SM VCSH SCT060 OVC120 FM020700 19006KT P6SM FEW020 SCT100 FM021500 VRB05KT P6SM FEW020 SCT100
KAPC,KAPC 011729Z 0118/0218 24008KT P6SM SKC TEMPO 0118/0119 BKN007 FM020900 24005KT 6SM BR BKN008 FM021700 VRB03KT P6SM SCT008
KAPF,KAPF 012107Z 0121/0218 30008KT P6SM FEW030 SCT050 FM020000 VRB03KT P6SM SKC FM021300 33008KT P6SM FEW035 SCT250 AMD NOT SKED
KAPN,KAPN 011729Z 0118/0218 03008G15KT P6SM FEW200 FM021400 07007KT P6SM FEW250
KARA,KARA 011806Z 0118/0218 02008KT P6SM SKC FM020100 VRB03KT P6SM SKC
KART,KART 012106Z 0121/0218 03012KT P6SM SCT120 OVC250 FM020300 04010G18KT P6SM BKN040 FM020500 04012G23KT P6SM BKN120
KASD,KASD 011740Z 0118/0218 02005KT P6SM SKC
KASE,KASE 011919Z 0119/0218 36007G16KT P6SM VCSH FEW010 BKN070 TEMPO 0119/0121 VRB20G35KT 5SM -TSRA BKN010 BKN035CB BKN050 FM012100 27007KT P6SM VCTS SCT040CB BKN070 FM020200 17006KT P6SM VCSH SCT070 BKN100 FM021400 VRB04KT P6SM -SHRA BKN030
KASN,KASN 011720Z 0118/0218 31006KT P6SM SKC FM020200 36004KT P6SM FEW100 FM021500 36008KT P6SM FEW100
KAST,KAST 011720Z 0118/0218 05008KT P6SM SKC FM012100 03006KT P6SM SKC FM020000 34007KT P6SM SKC FM020700 07006KT P6SM SKC
KATL,KATL 011946Z 0120/0224 33016G26KT P6SM FEW050 FM020100 34011G18KT P6SM SKC FM020700 33007KT P6SM SKC FM021600 34011KT P6SM SKC
KATW,KATW 011722Z 0118/0218 05006KT P6SM SCT250 FM020000 04005KT P6SM SCT100 FM020400 05005KT P6SM BKN100 FM020900 06005KT P6SM BKN080
KATY,KATY 011720Z 0118/0218 14011G20KT P6SM SCT220 FM012300 12012G19KT P6SM SCT240 FM021500 16014G24KT P6SM SCT240
KAUG,KAUG 011745Z 0118/0218 VRB03KT P6SM BKN250 FM020500 01009KT P6SM BKN050 FM021300 01012G20KT P6SM SCT050
KAUS,KAUS 011720Z 0118/0224 07006KT P6SM SKC FM020200 VRB02KT P6SM FEW250 FM021800 07006KT P6SM FEW250
KAUW,KAUW 011722Z 0118/0218 08003KT P6SM SCT150 FM020000 07003KT P6SM BKN100 FM020900 10005KT P6SM BKN070 FM021500 11005KT P6SM BKN070
KAVL,KAVL 011738Z 0118/0218 35012G20KT P6SM SCT026 OVC060 TEMPO 0119/0123 BKN026 FM012300 34010KT P6SM BKN014 FM020900 33008KT 5SM BR BKN007 FM021400 33010G17KT P6SM BKN012 FM021700 33011G19KT P6SM BKN028
KAVP,KAVP 011721Z 0118/0218 05010KT P6SM OVC050 TEMPO 0120/0123 6SM -SHRA SCT025 OVC050 FM020700 04005G14KT P6SM OVC028 FM021500 05009G17KT P6SM OVC025
KAXN,KAXN 011720Z 0118/0218 11011KT P6SM BKN100 FM021400 14012G16KT P6SM OVC100
KAZO,KAZO 011726Z 0118/0218 01010KT P6SM SKC FM020200 06006KT P6SM SKC
KBAB,TAF AMD KBAB 010000Z 0100/0201 30006KT 9999 SKC QNH2972INS BECMG 0102/0103 VRB06KT 9999 SKC QNH2973INS BECMG 0117/0118 20006KT 9999 SKC QNH2975INS TX30/0100Z TN14/0114Z LAST NO AMDS AFT 0100 NEXT 0312
KBAD,TAF KBAD 011200Z 0112/0218 33005KT 9999 SKC QNH3006INS BECMG 0116/0117 04012KT 9999 SKC QNH3002INS WND 00000KT AFT 0201 TX27/0121Z TN09/0112Z
KBAF,KBAF 011924Z 0119/0218 02010KT P6SM BKN030 FM021100 01012G23KT P6SM BKN030 FM021600 02012G23KT P6SM BKN045
KBAM,KBAM 011735Z 0118/0218 VRB06KT P6SM SKC
KBBD,KBBD 011720Z 0118/0218 VRB05KT P6SM FEW250
KBBG,KBBG 011720Z 0118/0218 VRB03KT P6SM SKC FM021200 10005KT P6SM SKC
KBCB,KBCB 012016Z 0120/0218 34003KT 2SM -DZ BKN007 BKN012 OVC027 FM012300 30004KT 4SM -DZ BR SCT007 OVC015 FM020900 VRB03KT 2SM BR OVC004 FM021500 30004KT 3SM BR OVC008
KBCE,KBCE 012118Z 0121/0218 26012G22KT P6SM VCSH FEW080 FM020200 25005KT P6SM FEW100 FM020900 VRB05KT P6SM VCSH BKN060 BKN100 FM021400 VRB05KT P6SM VCSH BKN040 BKN100
KBDL,KBDL 012105Z 0121/0224 02012KT P6SM BKN025 FM021100 01012G23KT P6SM BKN030 FM021600 02014G25KT P6SM BKN045
KBDN,KBDN 011720Z 0118/0218 VRB05KT P6SM FEW250 FM020400 VRB04KT P6SM SKC
KBDR,KBDR 012006Z 0120/0218 04013G18KT P6SM BKN018 FM020200 03016G22KT P6SM VCSH OVC015 FM020600 02017G24KT P6SM VCSH OVC025 FM021100 03021G28KT P6SM VCSH OVC025 FM021600 03018G25KT 6SM BR VCSH OVC035
KBED,KBED 011740Z 0118/0218 07003KT P6SM OVC070 FM020000 00000KT P6SM OVC045 FM020800 02007KT P6SM BKN025 FM021500 03014G28KT P6SM BKN035
KBFD,KBFD 012119Z 0121/0218 04010G18KT P6SM VCSH OVC060 FM020600 03010G16KT P6SM OVC025 FM020900 04010G16KT P6SM VCSH OVC015 FM021600 04013G21KT P6SM BKN035
KBFF,KBFF 011728Z 0118/0218 12004KT P6SM SCT120 FM012300 22007KT P6SM VCSH BKN100 FM020000 25007KT P6SM -SHRA VCTS BKN120CB FM020300 29008KT P6SM VCTS BKN100CB FM020600 25005KT P6SM BKN050
KBFI,KBFI 011720Z 0118/0218 33006KT P6SM SKC FM012000 36010KT P6SM FEW250 FM020200 02003KT P6SM FEW250
KBFL,KBFL 011720Z 0118/0218 VRB06KT P6SM SKC FM020000 33007G13KT P6SM SKC FM020500 VRB06KT P6SM SKC
KBFM,KBFM 011728Z 0118/0218 34010G17KT P6SM SKC FM012300 34005KT P6SM SKC
KBGM,KBGM 011721Z 0118/0218 03007G15KT P6SM SCT060 BKN090 OVC200 FM021500 05010G18KT P6SM OVC040
KBGR,KBGR 011720Z 0118/0218 25004KT P6SM BKN250 FM012300 VRB03KT P6SM SCT250 FM020400 02009G16KT P6SM SCT050
KBHB,KBHB 011720Z 0118/0218 VRB03KT P6SM BKN250 FM020100 VRB02KT P6SM SCT250 FM020600 02009G15KT P6SM SCT060
KBHM,KBHM 011720Z 0118/0218 33007G14KT P6SM SKC FM020200 01004KT P6SM SKC FM021500 35008KT P6SM FEW100
KBIF,TAF KBIF 011400Z 0114/0220 VRB06KT 9999 SCT060 OVC090 QNH2998INS BECMG 0219/0220 12012G18KT 9999 FEW070 BKN100 OVC150 510033 QNH3013INS TX29/0121Z TN16/0213Z
KBIH,KBIH 011720Z 0118/0218 32006KT P6SM SKC FM012000 17008KT P6SM SKC FM020500 32006KT P6SM SKC
KBIL,KBIL 011739Z 0118/0218 23007KT P6SM VCSH BKN002 OVC010 TEMPO 0118/0120 1SM BR FM020100 02006KT 4SM -RA SCT012 OVC018 FM021600 23006KT P6SM VCSH BKN028
KBIS,KBIS 011721Z 0118/0218 08014G21KT P6SM SCT100 FM020100 07011KT P6SM BKN250 FM021500 12009KT P6SM VCSH BKN250
KBIX,TAF KBIX 010200Z 0102/0208 VRB06KT 9999 SKC QNH2988INS BECMG 0117/0118 35009KT 9999 SKC QNH2998INS BECMG 0123/0124 VRB06KT 9999 SKC QNH2992INS TX27/0118Z TN13/0111Z LAST NO AMDS AFT 0104 NEXT 0310
KBJC,KBJC 011730Z 0118/0218 03005KT P6SM FEW070 SCT150 BKN200 FM012000 09007KT P6SM VCSH SCT050 OVC100 TEMPO 0121/0201 VRB20G40KT TSRA BKN035CB FM020100 VRB06KT P6SM VCSH SCT060 OVC120 FM020700 29006KT P6SM FEW020 SCT100 FM021300 VRB05KT P6SM FEW020 SCT100
KBJI,KBJI 011720Z 0118/0218 11006KT P6SM BKN200 FM020000 11005KT P6SM VCSH OVC100 FM020500 13005KT P6SM VCSH OVC090 FM021300 13005KT P6SM OVC060 FM021700 14010KT P6SM OVC150
KBKE,KBKE 011720Z 0118/0218 33006KT P6SM SKC FM020300 VRB05KT P6SM SKC TEMPO 0210/0214 1/2SM FG
KBKF,TAF KBKF 011100Z 0111/0217 VRB06KT 9999 FEW035 BKN055 OVC075 QNH3006INS BECMG 0200/0201 VRB06KT 9000 -SHRA SCT065 OVC095 QNH3008INS BECMG 0203/0204 VRB06KT 9000 -SHRA FEW065 SCT095 BKN130 510013 QNH3013INS TX22/0122Z TN10/0212Z
KBKW,KBKW 011736Z 0118/0218 34005KT 4SM RA BR OVC003 FM012000 33006KT 3SM RA BR OVC002 FM020000 33006KT 2SM -SHRA BR OVC002
KBLF,KBLF 011950Z 0120/0218 30008KT 1 1/2SM BR BKN005 OVC012 FM020500 29004KT 3/4SM BR OVC002 FM021300 33006KT 3SM BR OVC003
KBLH,KBLH 011720Z 0118/0218 19012KT P6SM FEW100 FEW250 TEMPO 0120/0124 19012G18KT FM020600 19004KT P6SM FEW100 FEW250
KBLI,KBLI 011720Z 0118/0218 04003KT P6SM SKC FM011900 30006KT P6SM SKC FM020300 VRB03KT P6SM SKC FM020800 00000KT 4SM BR SKC FM021200 00000KT 1SM BR SKC
KBLV,TAF KBLV 011600Z 0116/0222 01009KT 9999 SKC QNH3010INS BECMG 0206/0207 04009KT 9999 SKC QNH3016INS TX24/0120Z TN07/0212Z
KBMG,KBMG 011720Z 0118/0218 03010G17KT P6SM SKC FM020000 03003KT P6SM FEW250
KBMI,KBMI 011726Z 0118/0218 04012G17KT P6SM SKC FM020000 04008KT P6SM SKC TEMPO 0209/0212 4SM BR
KBNA,KBNA 011728Z 0118/0218 35012G19KT P6SM SKC FM020200 36005KT P6SM SKC FM021600 01012G18KT P6SM SKC
KBNO,KBNO 011720Z 0118/0218 13006KT P6SM SKC FM020300 02006KT P6SM SKC
KBOI,KBOI 011720Z 0118/0218 16005KT P6SM FEW200 FM012100 32007KT P6SM SCT200 FM020400 13005KT P6SM SKC
KBOS,KBOS 012105Z 0121/0224 02008KT P6SM OVC023 FM020900 03015G29KT P6SM OVC025 FM021500 04017G33KT P6SM BKN035
KBPI,KBPI 011730Z 0118/0218 VRB05KT P6SM -SHRA BKN030 OVC060 TEMPO 0118/0122 2SM TSRA OVC015CB FM020200 VRB06KT P6SM BKN050 FM020800 VRB05KT P6SM VCFG FEW005
KBPK,KBPK 011730Z 0118/0218 09006KT P6SM SKC FM020200 VRB03KT P6SM SKC
KBPT,KBPT 011806Z 0118/0218 05007KT P6SM SKC FM020100 VRB03KT P6SM SKC
KBRD,KBRD 011734Z 0118/0218 12007KT P6SM BKN100 FM020700 09007KT P6SM VCSH OVC050 FM021500 13007KT P6SM OVC100
KBRL,KBRL 011723Z 0118/0218 05006KT P6SM SKC FM020100 06004KT P6SM SCT120 FM021000 05004KT P6SM BKN120
KBRO,KBRO 011723Z 0118/0218 01006KT P6SM SKC FM020100 07006KT P6SM FEW250
KBTL,KBTL 011726Z 0118/0218 02010KT P6SM SKC FM020200 06006KT P6SM SKC
KBTM,KBTM 011728Z 0118/0218 34005KT 6SM -SHRA SCT020 OVC030 FM012300 01010KT P6SM -SHRA OVC025
KBTR,KBTR 011740Z 0118/0218 36005KT P6SM SKC
KBTV,KBTV 011720Z 0118/0218 34006KT P6SM BKN200 FM020300 36009G18KT P6SM SCT050 BKN120 TEMPO 0206/0209 BKN025 FM021000 35010G20KT P6SM SCT200
KBUF,KBUF 012104Z 0121/0218 04015KT P6SM BKN130 OVC220 FM020000 04015G25KT P6SM BKN130 FM020600 04014G25KT P6SM OVC025 FM021200 04015G27KT P6SM BKN035
KBUR,KBUR 011745Z 0118/0218 00000KT P6SM OVC021 FM011830 18010KT P6SM SKC FM020300 12006KT P6SM SKC FM020700 VRB03KT P6SM OVC015 FM021100 VRB03KT P6SM OVC020
KBVI,KBVI 011818Z 0118/0218 04010KT 5SM -RA BR SCT015 OVC025 TEMPO 0118/0120 OVC015 FM020300 02007KT P6SM -SHRA OVC012 FM021200 02006KT P6SM VCSH OVC015 FM021500 03008G17KT P6SM BKN022 AMD LTD TO WIND VIS AND WX
KBVO,KBVO 011720Z 0118/0218 07005KT P6SM SKC
KBWG,KBWG 011721Z 0118/0218 01009G15KT P6SM SKC FM020000 VRB04KT P6SM SKC FM021200 01006KT P6SM SKC FM021700 03011G16KT P6SM SKC
KBWI,KBWI 012104Z 0121/0224 06011KT 6SM BR VCSH OVC007 FM012200 05009KT 6SM BR VCSH OVC007 FM020200 05005KT P6SM VCSH OVC005 FM021200 04010G16KT 6SM -SHRA BR OVC006 FM021500 03015G25KT 5SM SHRA BR OVC008
KBYI,KBYI 011722Z 0118/0218 VRB05KT P6SM SCT040 OVC120 FM020500 VRB05KT P6SM SCT200
KBZN,KBZN 011758Z 0118/0224 00000KT P6SM -RA SCT030 BKN060 TEMPO 0118/0121 4SM -RA BR BKN007 FM020200 VRB03KT P6SM -SHRA SCT020 BKN050 PROB30 0204/0210 4SM -RA BR BKN007 FM021800 VRB03KT P6SM VCSH SCT020 BKN060 PROB30 0218/0222 -SHRA BKN040
KCAE,KCAE 012119Z 0121/0218 36005KT P6SM BKN035 OVC050 FM020700 34004KT P6SM SCT040 BKN100
KCAK,KCAK 011720Z 0118/0218 03013KT P6SM SCT080 OVC180 FM020900 03013KT P6SM BKN025 FM021600 04013G22KT P6SM BKN035
KCAR,KCAR 012032Z 0121/0218 34008G15KT P6SM OVC040 FM021200 35006G15KT P6SM SKC
KCBM,TAF AMD KCBM 302156Z 3021/0123 36006KT 9999 SKC QNH2988INS BECMG 3021/3022 36007KT 9999 SKC QNH2990INS TX26/3022Z TN08/0112Z LAST NO AMDS AFT 3021 NEXT 0215
KCDC,KCDC 011732Z 0118/0218 VRB04KT P6SM FEW090 FM012000 24008KT P6SM FEW090 FM020300 16006KT P6SM SCT070
KCDR,KCDR 011728Z 0118/0218 30008KT P6SM SCT200 FM012000 07008KT P6SM SCT150 FM012100 04009KT P6SM SCT120 FM020100 07008KT P6SM VCTS BKN100CB FM020300 17006KT P6SM VCSH BKN090
KCDS,KCDS 011720Z 0118/0218 15011KT P6SM FEW200
KCEC,KCEC 011737Z 0118/0218 19006KT 1SM BR BKN002 TEMPO 0118/0120 4SM BR SCT002 FM012000 20006KT P6SM SCT005 TEMPO 0120/0123 4SM BR BKN005 FM020100 17004KT 3SM BR BKN003 FM020300 14003KT 1SM BR OVC002 FM020600 16003KT 1/2SM FG OVC001
KCEF,TAF AMD KCEF 012005Z 0120/0224 03009KT 9999 BKN025 OVC055 520053 QNH3004INS BECMG 0123/0124 03009KT 9999 BKN035 OVC080 WS015/06030KT 520053 QNH3003INS BECMG 0208/0209 03009KT 9999 BKN015 BKN050 WS015/06035KT 520203 QNH3004INS BECMG 0211/0212 02010G20KT 9999 OVC020 520203 QNH3007INS TEMPO 0213/0223 04020G30KT 530004 BECMG 0223/0224 03009KT 9999 SCT170 BKN250 510053 QNH3017INS TX17/0120Z TN09/0210Z
KCGI,KCGI 011720Z 0118/0218 01011G18KT P6SM SKC FM020000 01003KT P6SM SKC FM021500 02008KT P6SM SKC
KCHA,KCHA 011936Z 0120/0218 34012G18KT P6SM FEW250 FM020000 03005KT P6SM BKN060
KCHO,KCHO 011720Z 0118/0218 04012G20KT 4SM -SHRADZ BR OVC006 TEMPO 0118/0121 2SM SHRADZ FM012300 04006KT 3SM BR VCSH OVC005 FM020400 03004KT 1 1/2SM BR VCSH OVC003 FM021500 01010G20KT 4SM -SHRA BR OVC006
KCHS,KCHS 011720Z 0118/0218 21011G16KT P6SM BKN040 FM020100 VRB03KT P6SM SCT060 FM020500 34006KT P6SM SCT040
KCID,KCID 011723Z 0118/0218 08008KT P6SM SCT120 FM020100 08004KT P6SM FEW140
KCIU,KCIU 011729Z 0118/0218 06007KT P6SM FEW100 FM020300 07008G18KT P6SM FEW250 FM021200 07005KT P6SM FEW250
KCKB,KCKB 011809Z 0118/0218 02010KT 6SM RA BR OVC008 TEMPO 0118/0120 02012G22KT 3SM RA BR FM012000 01010KT 4SM RA BR OVC007 FM020000 01005KT 3SM SHRA BR OVC010 FM020600 VRB03KT 2SM -SHRA BR OVC009
KCKV,KCKV 011728Z 0118/0218 02010G17KT P6SM SKC FM020000 01005KT P6SM SKC FM021600 02012G18KT P6SM SKC
KCLE,KCLE 012036Z 0121/0224 03015G25KT P6SM OVC180 FM012300 03012KT P6SM BKN200 FM020800 03014G22KT P6SM BKN025 FM021500 03014G24KT P6SM BKN035 FM022200 04010KT P6SM FEW040
KCLL,KCLL 011720Z 0118/0218 VRB04KT P6SM SKC FM020100 VRB02KT P6SM SKC FM021500 07006KT P6SM SKC
KCLM,KCLM 011720Z 0118/0218 09005KT P6SM SKC FM011900 09006KT P6SM SKC FM020300 13003KT P6SM SKC FM020800 00000KT P6SM SKC
KCLT,KCLT 011946Z 0120/0224 32006KT P6SM FEW035 BKN050 TEMPO 0120/0123 SCT035 BKN060 FM012300 33005KT P6SM BKN050 FM020200 33004KT P6SM SCT050 BKN110 FM021000 32005KT P6SM BKN060 FM021500 35010G16KT P6SM BKN045
KCMA,KCMA 011745Z 0118/0218 36004KT P6SM SCT028 FM012000 24008KT P6SM SKC FM020200 VRB03KT P6SM SKC FM020400 VRB03KT P6SM OVC015 FM021000 00000KT P6SM OVC020
KCMH,KCMH 011737Z 0118/0218 02013G21KT P6SM VCSH OVC140 FM020000 01011KT P6SM BKN200 FM021000 02012KT P6SM OVC015 FM021500 03012G22KT P6SM OVC025
KCMI,KCMI 011726Z 0118/0218 03012G20KT P6SM SKC FM020000 02008KT P6SM SKC
KCMX,KCMX 012105Z 0121/0218 10008G16KT P6SM OVC009 FM012300 07010G19KT P6SM BKN015 FM020500 09008KT P6SM SCT150 FM021700 14005KT P6SM SCT140
KCNM,KCNM 012053Z 0121/0218 14011KT P6SM FEW200 FM020300 VRB05KT P6SM FEW200
KCNU,KCNU 011738Z 0118/0218 10006KT P6SM FEW250
KCNY,KCNY 011727Z 0118/0218 09008KT P6SM SCT110 FM012100 33005KT P6SM VCTS FEW080CB BKN100 FM020300 08005KT P6SM OVC100 FM021200 15006KT P6SM BKN100
KCOD,KCOD 011730Z 0118/0218 VRB05KT P6SM VCSH OVC020 FM012100 02010KT P6SM VCTS SCT030CB BKN050 TEMPO 0121/0201 2SM TSRA OVC020CB FM020300 VRB05KT P6SM VCSH OVC015 FM020600 VRB05KT P6SM VCFG FEW005 BKN040
KCOE,KCOE 011726Z 0118/0218 04012KT P6SM FEW007 FM020900 07005KT P6SM BCFG SCT100 SCT200 FM021400 05005KT P6SM SKC
KCOF,TAF AMD KCOF 010445Z 0105/0124 30010G15KT 9999 FEW030 QNH2981INS TX28/0118Z TN20/0109Z LAST NO AMDS AFT 0105 NEXT 0115
KCON,KCON 011745Z 0118/0218 VRB03KT P6SM BKN120 FM020900 36007KT P6SM BKN040 FM021300 02010G17KT P6SM BKN250
KCOS,KCOS 011931Z 0120/0218 18015G25KT P6SM VCSH SCT080 TEMPO 0122/0201 VRB30G40KT TSRA OVC050CB FM020100 35015G25KT P6SM VCSH BKN080 FM020400 35012KT P6SM VCSH BKN080 FM020700 36006KT P6SM SCT080
KCOT,KCOT 011721Z 0118/0218 10007KT P6SM SKC
KCOU,KCOU 011720Z 0118/0218 05008KT P6SM SKC
KCPR,KCPR 011730Z 0118/0218 03007KT P6SM SCT007 OVC015 FM012000 VRB15G25KT P6SM VCTS SCT050CB BKN080 TEMPO 0120/0124 3SM -TSRA OVC030CB FM020000 VRB06KT P6SM BKN050 FM020400 20006KT P6SM FEW060 SCT150
KCPS,KCPS 011720Z 0118/0218 02009KT P6SM SKC FM020100 VRB04KT P6SM SKC TEMPO 0208/0212 2SM BR
KCRE,KCRE 011941Z 0120/0218 24010KT P6SM BKN040 FM012200 27007KT P6SM BKN050 FM020600 32004KT P6SM BKN060
KCRG,KCRG 011733Z 0118/0218 26008KT P6SM FEW060 FM020100 VRB03KT P6SM SKC FM021500 30007KT P6SM SKC
KCRP,KCRP 011721Z 0118/0218 08011G17KT P6SM SKC FM020200 08004KT P6SM SKC FM021500 07009KT P6SM SKC
KCRQ,KCRQ 011737Z 0118/0218 VRB03KT P6SM BKN020 FM011900 25009KT P6SM SCT025 TEMPO 0119/0120 BKN025 FM020200 VRB04KT P6SM BKN020
KCRW,KCRW 011736Z 0118/0218 35005KT 6SM RA BR OVC009 FM012200 33004KT 3SM SHRA BR OVC007 FM020200 VRB03KT 3SM -SHRA BR OVC006 FM021600 35004KT 4SM BR OVC007
KCSG,KCSG 011720Z 0118/0218 34012G20KT P6SM SKC FM020000 35005KT P6SM SKC FM021500 34009KT P6SM SKC
KCSM,KCSM 011720Z 0118/0218 16012KT P6SM FEW250 FM020000 13008KT P6SM SKC
KCSV,KCSV 011902Z 0119/0218 01014G24KT P6SM BKN035 FM020000 35004KT P6SM SCT250 FM021600 02008G16KT P6SM SKC
KCTB,KCTB 011758Z 0118/0218 03009KT P6SM BKN016 FM020900 VRB04KT P6SM BKN030
KCUB,KCUB 012119Z 0121/0218 VRB04KT P6SM BKN035 OVC050 FM020700 34004KT P6SM SCT040 BKN100
KCVG,KCVG 012102Z 0121/0224 02015G22KT P6SM FEW100 BKN250 FM020000 01009KT P6SM SCT250 FM021200 02012KT P6SM SCT025 FM021400 03015G24KT P6SM BKN035 FM022300 03010KT P6SM FEW250
KCVS,TAF KCVS 011800Z 0118/0224 18012G22KT 9999 SCT150 QNH3006INS BECMG 0201/0202 15010KT 9999 BKN110 QNH3014INS BECMG 0206/0207 VRB06KT 9999 SCT100 QNH3017INS BECMG 0215/0216 18012G22KT 9999 FEW120 QNH3016INS TX28/0122Z TN12/0212Z
KCWA,KCWA 011722Z 0118/0218 08003KT P6SM SCT150 FM020000 07003KT P6SM BKN100 FM020900 10005KT P6SM BKN070 FM021500 11005KT P6SM BKN070
KCXO,KCXO 011720Z 0118/0218 VRB03KT P6SM SKC FM020100 VRB02KT P6SM SKC
KCXP,KCXP 011720Z 0118/0218 VRB04KT P6SM SKC FM011900 06009G15KT P6SM SKC FM020300 VRB03KT P6SM SKC
KCYS,KCYS 011728Z 0118/0218 11007KT P6SM FEW050 BKN070 FM012100 17010KT P6SM SHRA VCTS OVC080CB FM012200 24009KT 3SM -TSRA OVC050CB FM020000 27008KT P6SM -SHRA VCTS BKN100CB FM020200 24005KT P6SM -SHRA BKN090
KDAA,TAF KDAA 302000Z 3020/0202 04012G18KT 9000 -RA SCT020 BKN050 OVC100 520003 QNH3000INS TEMPO 3020/3024 04015G25KT BKN020 BECMG 3023/3024 04015G30KT 8000 -RA BR OVC015 530001 540102 QNH2994INS BECMG 0101/0102 04015G30KT 4800 RA BR BKN005 OVC010 530001 540102 QNH2988INS TEMPO 0104/0109 05020G35KT BECMG 0108/0109 05020G35KT 6000 -RA OVC005 530001 540102 QNH2982INS BECMG 0114/0115 05020G30KT 3200 RA OVC005 520001 540102 QNH2980INS TX17/0119Z TN12/0111Z LAST NO AMDS AFT 0101 NEXT 0312
KDAB,KDAB 011739Z 0118/0218 VRB05KT P6SM SKC FM021400 29007KT P6SM SKC
KDAG,KDAG 011720Z 0118/0218 VRB06KT P6SM SKC FM020100 25012KT P6SM SKC FM021100 28008KT P6SM SKC
KDAL,KDAL 012058Z 0121/0218 10007KT P6SM SKC
KDAN,KDAN 011742Z 0118/0218 04008KT 4SM -RA BR OVC009 FM020100 30004KT P6SM OVC015 FM021400 34007KT P6SM OVC018 AMD NOT SKED
KDAY,KDAY 011737Z 0118/0218 03015G25KT P6SM BKN250 FM012300 02010KT P6SM SCT250 FM021300 01011KT P6SM SCT025 FM021500 02012G20KT P6SM BKN035
KDBQ,KDBQ 011723Z 0118/0218 06007KT P6SM SCT120 FM020500 07004KT P6SM BKN120 FM021400 08006KT P6SM SCT120
KDCA,KDCA 012104Z 0121/0224 04010G18KT P6SM VCSH OVC008 FM012200 04009KT P6SM VCSH OVC006 FM020100 02008KT P6SM VCSH OVC005 FM021200 01011G18KT 6SM -SHRA BR OVC006 FM021600 02015G25KT 5SM SHRA BR OVC008
KDDC,KDDC 011720Z 0118/0218 17014G22KT P6SM SKC FM020500 15010KT P6SM SKC
KDEC,KDEC 011726Z 0118/0218 03012G20KT P6SM SKC FM020000 03007KT P6SM SKC
KDEN,KDEN 012101Z 0121/0224 11012G19KT P6SM VCSH SCT080 BKN120 TEMPO 0121/0201 VRB20G40KT TSRA BKN050CB FM020200 VRB05KT P6SM VCSH SCT060 OVC120 FM020700 21009KT P6SM FEW020 SCT100 FM021400 VRB06KT P6SM FEW020 BKN120 FM021900 21007KT P6SM VCSH SCT060 BKN120 PROB30 0220/0224 VRB15G25KT -TSRA BKN050CB
KDET,KDET 011728Z 0118/0218 02012G20KT P6SM BKN250 FM012200 03012KT P6SM FEW100 SCT250 FM020800 03010KT P6SM SCT020 FM021500 03011G18KT P6SM SKC
KDFW,KDFW 012058Z 0121/0224 10007KT P6SM SKC
KDHN,KDHN 011722Z 0118/0218 31010KT P6SM SKC FM020200 VRB03KT P6SM SKC FM021400 34007KT P6SM SKC
KDHT,KDHT 011728Z 0118/0218 20017G25KT P6SM FEW250 FM020000 17014KT P6SM FEW250 FM020900 18007KT P6SM FEW250
KDIJ,KDIJ 012059Z 0121/0218 VRB06KT P6SM VCTS SCT040CB OVC080 TEMPO 0121/0122 -TSRA OVC025CB FM020600 VRB05KT P6SM VCSH SCT030 BKN050 AMD LTD TO CLD VIS AND WIND
KDIK,KDIK 011934Z 0120/0218 06013KT P6SM VCSH FEW015 BKN090 TEMPO 0120/0123 -SHRA FM012300 07012KT P6SM BKN150 FM020500 VRB06KT P6SM VCSH SCT200
KDLF,TAF AMD KDLF 302210Z 3022/0201 13006KT 9999 SKC QNH2990INS TX32/3022Z TN16/0111Z LAST NO AMDS AFT 3022 NEXT 0218
KDLH,KDLH 011801Z 0118/0218 08010G17KT P6SM BKN010 BKN100 FM012300 08013G22KT P6SM OVC015 FM020700 08011KT P6SM VCSH OVC010 FM020800 08010KT 5SM BR VCSH OVC004 FM021600 10006KT P6SM BKN015
KDLS,KDLS 011720Z 0118/0218 VRB03KT P6SM SKC FM012100 09006KT P6SM SCT250 FM020600 12002KT P6SM SKC
KDMA,TAF KDMA 011400Z 0114/0220 14009KT 9999 SCT080 QNH2985INS BECMG 0121/0122 18010G15KT 9999 SCT080 BKN150 BKN250 QNH2983INS TEMPO 0122/0202 VRB15G25KT 9999 -SHRA VCTS BKN060CB BECMG 0201/0202 16010KT 9999 NSW SCT090 QNH2989INS BECMG 0207/0208 12009KT 9999 SCT090 QNH2993INS TX32/0122Z TN18/0213Z
KDMN,KDMN 011724Z 0118/0218 15007KT P6SM FEW100 SCT250 FM021200 07010KT P6SM OVC250
KDNL,KDNL 012119Z 0121/0218 35005KT P6SM BKN035 OVC050 FM020500 35006KT P6SM SCT040 BKN100
KDOV,TAF AMD KDOV 011943Z 0119/0222 04015KT 9000 -SHRA OVC010 QNH2982INS BECMG 0213/0214 03018G25KT 8000 SHRA OVC010 QNH2996INS BECMG 0215/0216 03020G30KT 6000 RA OVC010 510005 QNH2998INS TX19/0119Z TN15/0210Z
KDPA,KDPA 011728Z 0118/0218 04011KT P6SM FEW250 FM021100 06009KT P6SM FEW009 BKN015 FM021600 04010KT P6SM BKN022
KDRO,KDRO 011727Z 0118/0218 VRB03KT P6SM VCSH FEW050 BKN080 TEMPO 0118/0119 -SHRA BKN070 BKN100 FM011900 21007KT P6SM BKN110 FM012100 24010KT P6SM VCTS FEW070CB BKN090 FM020100 30008KT P6SM VCTS BKN090CB FM020600 06002KT P6SM OVC100
KDRT,KDRT 011720Z 0118/0218 15011KT P6SM SKC FM020100 12006KT P6SM SCT250
KDSM,KDSM 011720Z 0118/0218 13009KT P6SM SCT110
KDTW,KDTW 011728Z 0118/0224 02012G20KT P6SM BKN250 FM012200 03012KT P6SM FEW100 SCT250 FM020800 03010KT P6SM SCT020 FM021500 03011G18KT P6SM SKC
KDUJ,KDUJ 012111Z 0121/0218 08005KT 3SM -RA OVC040 FM012300 05009G19KT P6SM -RA OVC025 FM021000 05009G22KT P6SM VCSH OVC015 FM021500 05010G21KT P6SM OVC025
KDVL,KDVL 011720Z 0118/0218 07015G21KT P6SM VCSH OVC090 FM020500 09011KT P6SM VCSH OVC090 FM021300 11013G18KT P6SM BKN150 FM021700 13016G22KT P6SM BKN150
KDVT,KDVT 011720Z 0118/0218 17006KT P6SM SKC FM012100 22007KT P6SM FEW120 FEW250 FM020300 VRB04KT P6SM FEW080 SCT120 SCT250
KDYS,TAF KDYS 011600Z 0116/0222 VRB06KT 9999 FEW090 QNH2999INS BECMG 0119/0120 10009KT 9999 FEW110 QNH2996INS BECMG 0203/0204 VRB06KT 9999 FEW090 QNH3005INS TX33/0121Z TN13/0212Z
KEAR,KEAR 011729Z 0118/0218 16016G26KT P6SM SKC FM020000 15011KT P6SM SKC FM020200 14010KT P6SM FEW150 FM020700 16008KT P6SM SCT150 FM021600 17013G21KT P6SM FEW250
KEAT,KEAT 011726Z 0118/0218 27005KT P6SM SKC FM012200 14005KT 6SM HZ SKC FM020300 30004KT P6SM SKC FM021300 28007KT P6SM SKC
KEAU,KEAU 011720Z 0118/0218 VRB03KT P6SM BKN150 FM021500 12005KT P6SM OVC250
KECG,KECG 011720Z 0118/0218 21011KT P6SM SCT035 BKN060 FM012300 20006KT P6SM SCT100 FM021200 27006KT P6SM SCT030 BKN060
KECP,KECP 011722Z 0118/0218 28010KT P6SM SKC FM020200 VRB03KT P6SM SKC FM021400 36005KT P6SM SKC
KEDW,TAF AMD KEDW 012042Z 0120/0222 VRB06KT 9999 SKC QNH2982INS BECMG 0122/0123 24012G18KT 9999 SKC 510009 QNH2981INS BECMG 0200/0201 24018G25KT 9999 SKC 520009 QNH2986INS BECMG 0203/0204 23012KT 9999 SKC QNH2989INS TX33/0122Z TN13/0213Z LAST NO AMDS AFT 0121 NEXT 0313
KEED,KEED 011720Z 0118/0218 17006KT P6SM SKC FM012000 19010G18KT P6SM FEW150 FM020200 22007KT P6SM SKC FM020800 VRB05KT P6SM SKC
KEET,KEET 011720Z 0118/0218 34008KT P6SM SKC FM020200 36004KT P6SM SKC FM021500 35007KT P6SM FEW100
KEFD,TAF KEFD 011200Z 0112/0218 VRB06KT 9999 SKC QNH2995INS TX26/0122Z TN15/0112Z
KEFK,KEFK 011720Z 0118/0218 36007KT P6SM BKN200 FM020300 36007KT P6SM OVC035 FM020500 01008KT P6SM BKN026 FM020700 02009G15KT P6SM SCT025 BKN200 FM021200 03008G15KT P6SM SCT200
KEGE,KEGE 011758Z 0118/0218 34006KT P6SM SCT040 SCT080 BKN130 TEMPO 0118/0119 -SHRA SCT030 BKN050 FM011900 24008KT P6SM VCTS BKN060CB FM020300 22003KT P6SM VCSH OVC050 FM021500 VRB03KT P6SM BKN030
KEGI,TAF AMD KEGI 010500Z 0105/0207 01009KT 9999 FEW050 QNH2986INS BECMG 0112/0113 34006KT 9999 SKC QNH2996INS TX28/0120Z TN15/0111Z LAST NO AMDS AFT 0105 NEXT 0309
KEKN,KEKN 011751Z 0118/0218 06004KT 3SM RA BR OVC025 TEMPO 0118/0121 2SM RA BR BKN015 FM012100 VRB03KT 2SM RA BR OVC009 FM012300 VRB03KT 2SM SHRA BR OVC007 FM021600 03004KT 3SM -SHRA BR OVC006
KEKO,KEKO 011735Z 0118/0218 VRB05KT P6SM SKC
KEKS,KEKS 011758Z 0118/0218 VRB03KT P6SM VCSH SCT030 BKN060 TEMPO 0119/0123 5SM -SHRA BR BKN015 FM020200 VRB05KT P6SM -SHRA SCT020 BKN050 PROB30 0204/0210 4SM -RA BR BKN007
KELD,KELD 011726Z 0118/0218 VRB05KT P6SM SKC FM020100 VRB03KT P6SM SKC FM021500 03005KT P6SM SKC
KELM,KELM 011721Z 0118/0218 04010KT P6SM SCT080 BKN200 FM020100 03007KT P6SM BKN120 FM021000 02007G15KT P6SM OVC025 FM021400 02008G15KT P6SM OVC040
KELP,KELP 011724Z 0118/0218 14004KT P6SM FEW120 BKN250 FM021200 04006KT P6SM BKN250
KELY,KELY 011735Z 0118/0218 VRB06KT P6SM SKC FM012300 18011KT P6SM FEW120 FM021500 VRB03KT P6SM SKC
KEND,TAF KEND 011800Z 0118/0224 14006KT 9999 FEW120 QNH3005INS BECMG 0119/0120 10009KT 9999 FEW250 QNH3004INS TX30/0120Z TN10/0212Z
KENV,KENV 011732Z 0118/0218 11009KT P6SM FEW150 FM020300 34005KT P6SM FEW150 FM021700 12008KT P6SM SCT180
KENW,KENW 012057Z 0121/0218 05010KT P6SM SKC FM020600 02007KT P6SM BKN050 FM021400 06010KT P6SM SCT060
KERI,KERI 011720Z 0118/0218 05018G28KT P6SM OVC150 FM020700 04014G25KT P6SM BKN025 FM021300 04013G24KT P6SM SCT025 BKN035 FM021600 04013G21KT P6SM SCT040
KEUG,KEUG 011720Z 0118/0218 01008KT P6SM SKC FM020100 36008KT P6SM SKC FM021200 17003KT 4SM BR SKC
KEUL,KEUL 011720Z 0118/0218 VRB03KT P6SM FEW200 FM012100 32006KT P6SM SCT200 FM020400 12004KT P6SM SKC
KEVV,KEVV 011720Z 0118/0218 01011G18KT P6SM SKC FM020000 01004KT P6SM SKC FM021500 02009KT P6SM SKC
KEVW,KEVW 011852Z 0119/0218 24010G18KT P6SM FEW040 SCT060 FM012000 27012G20KT P6SM FEW050 SCT060 FM020300 VRB05KT P6SM FEW070 SCT200 FM021700 24009KT P6SM FEW050 SCT140
KEWN,KEWN 011744Z 0118/0218 22008G15KT P6SM SCT035 FM012300 24004KT P6SM SCT200 FM021500 30005KT P6SM BKN050
KEWR,KEWR 012006Z 0120/0224 02013G18KT P6SM FEW007 BKN012 TEMPO 0121/0122 3SM -SHRA BR BKN007 FM020700 02015G21KT P6SM OVC015 FM021000 02016G23KT P6SM VCSH OVC025 FM021500 02015G21KT 6SM -RA BR OVC015 FM021900 03016G22KT 6SM -RA BR OVC025
KEYW,KEYW 011734Z 0118/0218 34008KT P6SM FEW050
KFAF,TAF AMD KFAF 301805Z 3018/0124 05020G30KT 4800 RA OVC007 540006 QNH2989INS BECMG 3020/3021 06025G35KT 3200 +RA OVC005 540006 QNH2978INS BECMG 0104/0105 07015G20KT 8000 -RA OVC005 510006 QNH2974INS TX21/0118Z TN17/3018Z LAST NO AMDS AFT 3018 NEXT 0310
KFAR,KFAR 011720Z 0118/0218 11010KT P6SM OVC200 FM012100 11011KT P6SM VCSH BKN100 FM020500 11009KT P6SM OVC200 FM021700 14015G21KT P6SM BKN150
KFAT,KFAT 011720Z 0118/0218 VRB06KT P6SM SKC FM020000 31007G16KT P6SM SKC FM020600 VRB06KT P6SM SKC
KFAY,KFAY 011740Z 0118/0218 24010G18KT P6SM SCT025 BKN035 FM012300 27005KT P6SM SCT035 BKN050
KFBG,TAF AMD KFBG 010900Z 0109/0215 20005KT 9999 OVC010 QNH2964INS BECMG 0115/0116 23015G20KT 9999 BKN018 QNH2978INS BECMG 0120/0121 VRB06KT 9999 BKN030 OVC050 QNH2978INS BECMG 0209/0210 VRB06KT 8000 BR BKN014 OVC022 QNH2982INS TX21/0120Z TN14/0112Z
KFCS,TAF KFCS 010500Z 0105/0211 35010G20KT 9999 SCT080 BKN100 QNH3003INS BECMG 0112/0113 19010KT 9999 FEW090 SCT150 QNH3010INS BECMG 0119/0120 19015G25KT 9999 -SHRA SCT060 BKN080 QNH3013INS TEMPO 0121/0202 17020G30KT 9000 -TSRA SCT060CB BECMG 0202/0203 34010KT 9999 -SHRA SCT080 BKN120 QNH3010INS BECMG 0206/0207 34005KT 9999 NSW FEW080 SCT100 QNH3017INS TX23/0121Z TN09/0111Z LAST NO AMDS AFT 0105 NEXT 0313
KFDY,KFDY 011720Z 0118/0218 03015G25KT P6SM SCT200 FM012300 03012KT P6SM FEW250 FM021400 03013G21KT P6SM BKN025
KFFO,TAF KFFO 011900Z 0119/0301 02012KT 9999 BKN200 510101 QNH3001INS TEMPO 0119/0123 02015G25KT BECMG 0201/0203 02012KT 9999 FEW080 SCT200 520103 QNH3006INS BECMG 0208/0209 01012KT 9000 BR BKN015 BKN220 520103 QNH3009INS BECMG 0213/0214 03015G25KT 9999 NSW SCT020 BKN040 510053 QNH3015INS BECMG 0222/0223 03012KT 9999 FEW030 QNH3020INS TX20/0120Z TN09/0211Z
KFHU,TAF KFHU 302200Z 3022/0204 VRB10G15KT 9999 VCTS SCT050CB BKN150 621504 510005 QNH3001INS TEMPO 3022/0103 VRB20G35KT 6000 TSRA BKN045CB OVC150 BECMG 0103/0104 23006KT 9999 NSW SCT050 BKN150 QNH3004INS BECMG 0107/0108 15006KT 9999 FEW040 QNH3003INS BECMG 0117/0118 15010G15KT 9999 FEW045 510005 QNH2999INS BECMG 0122/0123 15009KT 9999 BKN065 QNH2999INS TX28/0121Z TN15/0112Z LAST NO AMDS AFT 0106 NEXT 0306
KFKL,KFKL 011724Z 0118/0218 04010KT P6SM VCSH OVC100 FM020800 04009G19KT P6SM OVC026 FM021400 04010G20KT P6SM BKN050
KFLG,KFLG 011935Z 0120/0218 21008G16KT P6SM VCSH SCT060 FM020100 VRB06KT P6SM FEW070 SCT100
KFLL,KFLL 012107Z 0121/0224 04010KT P6SM SCT030 BKN050 TEMPO 0121/0123 BKN030 FM020000 VRB05KT P6SM FEW030 SCT250 FM021300 33005KT P6SM FEW030 SCT250 FM021700 05010KT P6SM SCT030 SCT050
KFLO,KFLO 011942Z 0120/0218 27010KT P6SM BKN040 FM012200 30004KT P6SM BKN045 FM020600 32004KT P6SM OVC060
KFMH,KFMH 011740Z 0118/0218 07010G22KT 3SM RA BR OVC004 FM020000 06009KT 3SM -RA BR OVC008 FM020700 04012G25KT 5SM -RA BR OVC015 FM021200 04018G33KT 5SM BR VCSH OVC015
KFMN,KFMN 011732Z 0118/0218 23006KT P6SM SCT080 FM012100 25010KT P6SM VCTS SCT090CB BKN250 FM020000 VRB06KT P6SM VCSH BKN080 OVC200 FM020900 09009KT P6SM VCSH BKN070 OVC120
KFMY,KFMY 011729Z 0118/0218 30006KT P6SM SCT050 FM012100 29007KT P6SM SCT050 FM020200 33003KT P6SM FEW250 FM021700 32007KT P6SM SKC
KFNT,KFNT 011728Z 0118/0218 02012G20KT P6SM SCT250 FM012200 03012KT P6SM SCT100 FM020500 03010KT P6SM BKN015 FM021500 03011G18KT P6SM SKC
KFOD,KFOD 011720Z 0118/0218 14008KT P6SM SCT130
KFOE,KFOE 011737Z 0118/0218 12009KT P6SM SCT150
KFPR,KFPR 011739Z 0118/0218 VRB05KT P6SM FEW030 SCT040 BKN050 FM011900 07009KT P6SM VCSH SCT050 FM020000 VRB03KT P6SM SCT060 FM021400 32007KT P6SM FEW050
KFRI,TAF KFRI 301957Z 3020/0202 17010G20KT 9999 BKN150 QNH3001INS BECMG 3023/3024 15010KT 9999 SKC QNH3002INS TX26/0120Z TN12/0112Z LAST NO AMDS AFT 3020 NEXT 0312
KFSD,KFSD 011720Z 0118/0218 15011G20KT P6SM SCT220 FM012200 14011G18KT P6SM FEW240 FM020100 13008KT P6SM SCT180 FM021500 15011G20KT P6SM SCT200
KFSM,KFSM 011720Z 0118/0218 07004KT P6SM SKC
KFST,KFST 011727Z 0118/0218 15010KT P6SM SCT250 FM012000 13012G20KT P6SM FEW150 FM020100 15010KT P6SM FEW150
KFTK,TAF KFTK 301900Z 3019/0201 03009KT 9999 SKC QNH2996INS BECMG 0115/0116 36010G15KT 9999 FEW040 QNH2997INS BECMG 0122/0123 35007KT 9999 BKN250 QNH3000INS TX22/3019Z TN07/0112Z LAST NO AMDS AFT 0103 NEXT 0311
KFTW,KFTW 012058Z 0121/0218 10007KT P6SM SKC
KFTY,KFTY 011942Z 0120/0218 33013G23KT P6SM SCT050 FM020200 35008KT P6SM SKC FM021500 34010KT P6SM SKC
KFVE,KFVE 012032Z 0121/0218 34008KT P6SM BKN050 FM021200 35007G16KT P6SM SKC
KFWA,KFWA 011720Z 0118/0218 04012G19KT P6SM FEW250 FM012300 03007KT P6SM FEW250
KFXE,KFXE 012107Z 0121/0218 04008KT P6SM SCT035 BKN060 FM020000 VRB02KT P6SM FEW030 SCT250 FM021300 33005KT P6SM FEW030 SCT250
KFYV,KFYV 011720Z 0118/0218 06005KT P6SM SKC
KGBD,KGBD 011738Z 0118/0218 16012KT P6SM FEW230 FM020100 14009KT P6SM FEW250 FM021700 14012KT P6SM SKC
KGCC,KGCC 011720Z 0118/0218 01006KT P6SM OVC009 FM011900 02006KT P6SM OVC019 FM020000 01005KT P6SM -SHRA SCT040 BKN070 FM020500 VRB06KT P6SM OVC010
KGCK,KGCK 011720Z 0118/0218 18015G25KT P6SM SKC FM020600 15010KT P6SM SKC
KGCN,KGCN 011720Z 0118/0218 VRB05KT P6SM SKC FM011900 23009G15KT P6SM VCSH SCT050 TEMPO 0122/0202 -TSRA BKN050CB FM020200 VRB05KT P6SM SCT060 BKN110
KGDV,KGDV 012123Z 0121/0218 05012KT P6SM VCSH OVC004 FM020900 04008KT P6SM VCSH SCT015 BKN050 FM021700 VRB03KT P6SM BKN035
KGEG,KGEG 011726Z 0118/0218 06007KT P6SM FEW003 FEW120 FM020000 03005KT P6SM BKN250 FM020900 06003KT P6SM BCFG SCT005 SCT200 FM021300 09003KT P6SM SKC
KGFA,TAF KGFA 302000Z 3020/0202 VRB06KT 8000 RA OVC015 510072 QNH3011INS BECMG 0106/0107 VRB06KT 8000 SHRA BKN007 OVC015 510073 QNH3015INS BECMG 0114/0115 VRB06KT 8000 BR BKN007 OVC015 QNH3019INS BECMG 0118/0119 VRB06KT 9999 NSW SCT024 BKN030 OVC045 QNH3015INS BECMG 0201/0202 VRB06KT 8000 -RA BKN015 OVC023 QNH3017INS TX14/3020Z TN11/0114Z LAST NO AMDS AFT 3022 NEXT 0312
KGFK,KGFK 011720Z 0118/0218 08010KT P6SM BKN200 FM012100 09010KT P6SM VCSH BKN200 FM020500 11007KT P6SM OVC090 FM021300 12009KT P6SM OVC200 FM021700 14015G21KT P6SM BKN150
KGFL,KGFL 011733Z 0118/0218 04007KT P6SM SCT150 FM020000 03007KT P6SM FEW030 FM020800 03010KT P6SM BKN040
KGGG,KGGG 011726Z 0118/0218 04006KT P6SM SKC FM020100 VRB03KT P6SM SKC FM021500 05006KT P6SM SKC
KGGW,KGGW 012103Z 0121/0218 08016KT 6SM -RA OVC014 FM020000 08009KT P6SM VCSH SCT015 OVC029 FM021700 VRB06KT P6SM SCT030 OVC060
KGJT,KGJT 011759Z 0118/0218 18008KT P6SM BKN070 FM011930 14007KT P6SM VCTS FEW070CB BKN110 FM020100 13008KT P6SM VCSH BKN100 FM021200 12013KT P6SM OVC100
KGKY,KGKY 012058Z 0121/0218 10007KT P6SM SKC
KGLD,KGLD 012015Z 0120/0218 18015G25KT P6SM FEW250 TEMPO 0120/0123 18022G33KT FM020100 16011KT P6SM FEW250 FM020400 17012KT P6SM BKN150 WS020/16040KT FM020500 VRB06KT P6SM BKN180 WS020/18040KT FM020900 16010KT P6SM FEW250 FM021500 18016G22KT P6SM FEW250
KGLH,KGLH 011720Z 0118/0218 36008KT P6SM SKC
KGLS,KGLS 011720Z 0118/0218 02010KT P6SM SKC FM012200 09008KT P6SM SKC FM020100 12005KT P6SM SKC FM020400 VRB04KT P6SM SKC FM020900 04008KT P6SM SKC
KGMU,KGMU 011738Z 0118/0218 36005KT P6SM SCT045 TEMPO 0118/0122 BKN045 FM012300 35005KT P6SM FEW050 BKN090 FM021400 35008KT P6SM BKN070
KGNV,KGNV 011733Z 0118/0218 VRB06KT P6SM FEW060 FM012300 VRB02KT P6SM SKC FM021500 32006KT P6SM SKC
KGON,KGON 012006Z 0120/0218 03013G19KT P6SM BKN007 FM020200 04015G21KT 5SM BR VCSH SCT007 OVC012 TEMPO 0205/0207 BKN007 FM020800 03019G26KT P6SM VCSH OVC015 FM021200 04024G31KT P6SM VCSH OVC015 FM021500 04022G29KT P6SM VCSH OVC035
KGPI,KGPI 011728Z 0118/0218 02008KT P6SM SCT100 FM012300 07010KT P6SM FEW250
KGPT,KGPT 011740Z 0118/0218 36010KT P6SM SKC FM020000 35003KT P6SM SKC FM021400 02008KT P6SM SKC
KGRB,KGRB 011722Z 0118/0218 05006KT P6SM SCT250 FM020000 04005KT P6SM SCT100 FM020400 05005KT P6SM BKN100 FM020900 06005KT P6SM SCT030 BKN080
KGRF,TAF KGRF 012100Z 0121/0303 VRB06KT 9999 SKC QNH2994INS TX24/0200Z TN11/0214Z
KGRI,KGRI 011729Z 0118/0218 16015G25KT P6SM SKC FM020000 15011KT P6SM SKC FM020200 14010KT P6SM FEW150 FM020700 16008KT P6SM SCT150 FM021600 17013G21KT P6SM FEW250
KGRK,TAF KGRK 011600Z 0116/0222 08009KT 9999 SKC QNH2999INS TX29/0121Z TN12/0212Z
KGRR,KGRR 011726Z 0118/0218 03010KT P6SM SKC FM020200 06006KT P6SM SKC
KGSO,KGSO 011740Z 0118/0218 31006KT P6SM BKN012 OVC025 TEMPO 0118/0119 34007KT 2SM -RADZ BR SCT008 OVC012 FM012300 29004KT P6SM BKN020 TEMPO 0200/0204 SCT020 BKN035 FM021200 34006KT P6SM BKN015 OVC070
KGSP,KGSP 011738Z 0118/0218 36005KT P6SM SCT045 TEMPO 0118/0122 BKN045 FM012300 35005KT P6SM FEW050 BKN090 FM021400 35008KT P6SM BKN070
KGTB,TAF KGTB 011700Z 0117/0223 VRB06KT 9999 BKN200 QNH3011INS TEMPO 0202/0204 04012G20KT 9999 VCSH BKN020 OVC200 BECMG 0209/0210 04012KT 9999 SCT015 BKN020 OVC200 QNH3026INS BECMG 0215/0216 04015G20KT 9999 BKN200 510013 QNH3033INS TX15/0117Z TN05/0209Z
KGTF,KGTF 011758Z 0118/0218 02007KT P6SM -SHRA SCT005 BKN015 TEMPO 0119/0122 5SM -RA BR BKN012 FM012200 05008KT P6SM -SHRA SCT008 BKN012 TEMPO 0122/0202 5SM -RA BR BKN015 FM020200 VRB05KT P6SM -SHRA SCT020 BKN050 PROB30 0204/0210 4SM -RA BR BKN007 FM021200 VRB04KT P6SM SCT025 BKN040
KGTR,KGTR 011720Z 0118/0218 34012G20KT P6SM SKC FM012300 36007KT P6SM SKC
KGUC,KGUC 012029Z 0120/0218 34009KT P6SM VCTS BKN070CB TEMPO 0121/0123 VRB15G25KT 6SM -TSRA BKN050CB BKN080 FM012300 26009KT P6SM VCTS BKN070CB FM020300 04002KT P6SM VCSH OVC100 FM021500 VRB04KT 4SM BR BKN020
KGUP,KGUP 011732Z 0118/0218 VRB05KT P6SM FEW080 FM012100 21012G20KT P6SM VCSH SCT080 BKN120 FM020200 18007KT P6SM VCSH BKN090
KGUR,TAF KGUR 0107/0213 29009KT 9000 -SHRA FEW030 BKN045 OVC065 QNH3004INS BECMG 0110/0111 VRB06KT 8000 SHRA BKN005 OVC013 QNH3008INS BECMG 0111/0112 VRB06KT 8000 SHRA FEW013 FEW021 SCT030 QNH3007INS BECMG 0112/0113 VRB06KT 8000 BR FEW030 SCT045 OVC065 QNH3002INS TX20/0121Z TN08/0212Z
KGUS,TAF KGUS 012100Z 0121/0303 02012G18KT 9999 SKC QNH3011INS BECMG 0200/0201 02008KT 9999 SKC QNH3017INS BECMG 0209/0210 02008KT 6000 BR SCT005 QNH3021INS TEMPO 0210/0214 2400 BR BECMG 0213/0214 05012G18KT 9999 NSW SKC QNH3028INS BECMG 0216/0217 05009KT 9999 SKC QNH3026INS BECMG 0223/0224 VRB06KT 9999 SKC QNH3029INS TX20/0121Z TN09/0211Z LAST NO AMDS AFT 0203 NEXT 0213
KGUY,KGUY 011728Z 0118/0218 20015G23KT P6SM FEW250 FM020000 16014KT P6SM FEW250 FM020900 17007KT P6SM FEW250
KGWO,KGWO 011720Z 0118/0218 02008KT P6SM SKC
KGYY,KGYY 012100Z 0121/0218 01010KT P6SM FEW250 FM021100 06009KT P6SM FEW009 BKN015 FM021500 04010KT P6SM BKN022
KHBG,KHBG 011720Z 0118/0218 35008KT P6SM SKC
KHCR,KHCR 012006Z 0120/0218 24010G18KT P6SM FEW080 BKN150 FM020200 VRB02KT P6SM FEW015 FEW150 AMD NOT SKED
KHDC,KHDC 011740Z 0118/0218 34005KT P6SM SKC
KHDN,KHDN 012031Z 0121/0218 09013KT P6SM FEW020 SCT080 FM012200 18007KT P6SM VCSH FEW050 BKN080 FM020200 13006KT P6SM BKN200 FM020800 11007KT P6SM VCSH SCT060 BKN110
KHIB,KHIB 011734Z 0118/0218 11008KT P6SM BKN100 FM020200 11007KT P6SM OVC025 FM020400 11007KT P6SM OVC011 FM020900 12005KT P6SM VCSH OVC008 FM021300 VRB04KT P6SM OVC015
KHIE,KHIE 011745Z 0118/0218 VRB03KT P6SM BKN250 FM020700 04007KT P6SM BKN050 FM021400 02008KT P6SM SCT250
KHIF,TAF KHIF 012100Z 0121/0303 30006KT 9999 FEW050 SCT200 QNH3003INS BECMG 0205/0206 10012KT 9999 BKN090 BKN150 QNH3008INS BECMG 0219/0220 28007KT 9999 FEW060 SCT140 QNH3009INS TX19/0122Z TN09/0213Z LAST NO AMDS AFT 0123 NEXT 0213
KHIO,KHIO 011851Z 0119/0218 05010G20KT P6SM SKC FM012000 07013G22KT P6SM SKC FM020200 02008KT P6SM SKC FM021200 VRB04KT P6SM SKC
KHKS,KHKS 011720Z 0118/0218 01008KT P6SM SKC
KHKY,KHKY 011738Z 0118/0218 30006KT P6SM BKN040 FM020000 31003KT P6SM SCT050 BKN100 FM021300 32004KT P6SM BKN045 FM021600 34008KT P6SM BKN040
KHLG,KHLG 012000Z 0120/0218 01010KT 5SM -RA BR SCT008 OVC025 TEMPO 0120/0122 BKN008 FM012300 03008G19KT 5SM -SHRA BR OVC015 FM020900 02008KT P6SM VCSH OVC015
KHLN,KHLN 011758Z 0118/0218 31007KT 4SM -RA BR SCT015 BKN030 FM012200 30008KT P6SM -SHRA SCT015 BKN035 TEMPO 0122/0202 5SM -RA BR BKN015 FM020200 VRB05KT P6SM -SHRA SCT020 BKN050 PROB30 0204/0210 4SM -RA BR BKN007 FM021200 VRB04KT P6SM SCT025 BKN040
KHMN,TAF AMD KHMN 302300Z 3023/0123 18009KT 9999 FEW180 QNH2997INS TX27/0100Z TN14/0112Z LAST NO AMDS AFT 3023 NEXT 0309
KHNB,KHNB 011721Z 0118/0218 36010G17KT P6SM SKC FM020000 01006KT P6SM SKC FM021600 03011G17KT P6SM SKC
KHND,KHND 011720Z 0118/0218 VRB06KT P6SM FEW150 FM012100 20011G18KT P6SM FEW150 FM020200 22010KT P6SM SKC
KHOB,KHOB 011727Z 0118/0218 16010G20KT P6SM FEW150 FM012000 12012G20KT P6SM FEW150 FM020200 11008KT P6SM FEW150
KHON,KHON 011720Z 0118/0218 15012G21KT P6SM SCT220 FM020200 12011G21KT P6SM FEW200 FM020800 14010G18KT P6SM VCSH SCT150 FM021500 16013G23KT P6SM BKN220
KHOP,TAF AMD KHOP 012000Z 0120/0222 34010G20KT 9999 SKC QNH3001INS BECMG 0123/0124 36005KT 9999 SKC QNH3001INS TX23/0120Z TN09/0212Z
KHOT,KHOT 011857Z 0119/0218 06009KT P6SM SKC FM020000 VRB02KT P6SM SKC
KHOU,KHOU 012054Z 0121/0218 VRB05KT P6SM SKC FM021500 05006KT P6SM FEW250
KHPN,KHPN 012006Z 0120/0218 02007KT 2SM -RA BR OVC009 FM012200 02008G15KT 4SM -RA BR SCT009 OVC012 FM020300 03009G16KT P6SM VCSH OVC020 FM020700 03014G22KT P6SM VCSH OVC020 AMD NOT SKED
KHQM,KHQM 011720Z 0118/0218 11009KT P6SM SKC FM020000 29008KT P6SM SKC FM020400 04005KT P6SM SKC FM021500 11007KT 6SM BR SKC
KHRL,KHRL 011723Z 0118/0218 08007KT P6SM SKC FM020100 08005KT P6SM FEW250
KHRO,KHRO 011730Z 0118/0218 10003KT P6SM SKC FM020200 VRB03KT P6SM SKC
KHRT,TAF KHRT 011800Z 0118/0224 31009KT 9999 SKC QNH2986INS BECMG 0201/0202 01009KT 9999 SKC QNH2988INS TX28/0121Z TN11/0212Z
KHST,TAF KHST 011900Z 0119/0301 35008KT 9999 BKN035 BKN080 QNH2979INS BECMG 0123/0124 VRB05KT 9999 SCT015 BKN040 QNH2984INS BECMG 0213/0214 33005KT 9999 SCT025 QNH2980INS TX28/0119Z TN24/0210Z
KHSV,KHSV 011720Z 0118/0218 36009G17KT P6SM SKC FM020000 VRB04KT P6SM SKC FM021500 01010G17KT P6SM SKC
KHTS,KHTS 011845Z 0119/0218 36007KT 1SM RA OVC008 TEMPO 0119/0122 4SM -RA BR BKN004 FM012200 33004KT 3SM -SHRA BR OVC008 FM021200 35004KT 5SM BR OVC009 FM021400 36005KT 6SM BR OVC010
KHUA,TAF KHUA 302000Z 3020/0202 36012KT 9999 SKC QNH2991INS BECMG 0118/0119 36012G18KT 9999 SKC 510043 QNH2995INS BECMG 0123/0124 35006KT 9999 SKC 510043 QNH2997INS TX25/0120Z TN09/0112Z LAST NO AMDS AFT 3100 NEXT 3112
KHUF,KHUF 011720Z 0118/0218 02011G18KT P6SM SKC FM020000 02005KT P6SM FEW250
KHUL,KHUL 011720Z 0118/0218 VRB03KT P6SM BKN250 FM012200 36006KT P6SM BKN045 FM021200 36007G16KT P6SM SKC
KHUM,KHUM 011740Z 0118/0218 36007KT P6SM SKC FM020000 00000KT P6SM SKC FM021400 03006KT P6SM SKC
KHUT,KHUT 011738Z 0118/0218 15011KT P6SM SCT240 FM020100 12006KT P6SM FEW250
KHVR,KHVR 011758Z 0118/0218 07010KT P6SM SCT050 BKN100 TEMPO 0119/0123 -SHRA BKN040 FM012300 12008KT P6SM BKN030 TEMPO 0201/0205 4SM -RA BR OVC015 FM020500 09008KT 6SM BR OVC018 PROB30 0205/0209 4SM -RA BR OVC009 FM020900 09007KT P6SM BKN015 FM021400 VRB05KT P6SM BKN030
KHYA,KHYA 011740Z 0118/0218 05010G23KT 3SM RA BR OVC004 FM020000 05011KT 3SM -RA BR OVC008 FM020600 04013G22KT 3SM -RA BR OVC008 FM020700 03014G27KT 3SM -RA BR OVC010 FM021000 03017G29KT 6SM BR VCSH OVC015
KHYR,KHYR 011734Z 0118/0218 05005KT P6SM FEW060 BKN100 FM021200 00000KT P6SM VCSH OVC100
KHYS,KHYS 011720Z 0118/0218 16014G22KT P6SM SKC FM020400 15009KT P6SM SKC
KIAB,TAF KIAB 011800Z 0118/0300 12009KT 9999 FEW120 SCT250 QNH3005INS TX29/0121Z TN11/0212Z
KIAD,KIAD 012104Z 0121/0224 03008KT 6SM -SHRA OVC005 FM012200 04008KT P6SM VCSH OVC006 FM020100 01007KT P6SM VCSH OVC005 FM021100 36010G16KT 6SM -SHRA BR OVC006 FM021500 02012G20KT 5SM SHRA BR OVC008
KIAG,KIAG 012105Z 0121/0218 06014KT P6SM BKN140 OVC220 FM020000 05014G25KT P6SM OVC120 FM020700 05016G30KT P6SM OVC030 FM020800 04016G30KT P6SM BKN035
KIAH,KIAH 012054Z 0121/0224 08006KT P6SM SKC FM020300 VRB03KT P6SM SKC FM021500 05006KT P6SM FEW250
KICT,KICT 011738Z 0118/0218 14007KT P6SM SCT240 FM020000 12006KT P6SM SKC
KIDA,KIDA 011722Z 0118/0218 VRB05KT P6SM VCSH SCT025 OVC050 FM020600 36005KT P6SM SCT040 BKN080
KIFP,KIFP 011720Z 0118/0218 20009KT P6SM FEW150 FM012000 19012G20KT P6SM FEW150 FM020200 17009KT P6SM SKC FM020700 VRB05KT P6SM SKC
KILG,KILG 012105Z 0121/0218 05012KT P6SM VCSH OVC007 FM020600 02009KT 5SM BR OVC007 FM021200 04013G23KT 3SM -RA BR OVC008 FM021600 04014G25KT 1SM -RA BR OVC010
KILM,KILM 011940Z 0120/0218 27011KT P6SM SKC FM020000 30005KT P6SM BKN050 FM020600 32004KT P6SM OVC060
KILN,KILN 011737Z 0118/0218 02014G24KT P6SM BKN250 FM020000 01009KT P6SM SCT250 FM021200 02011KT P6SM BKN018 FM021400 03013G22KT P6SM BKN025
KIND,KIND 012020Z 0120/0224 02015KT P6SM SKC FM020000 02009KT P6SM FEW250 FM021700 03012G20KT P6SM SCT250
KINK,KINK 011727Z 0118/0218 13016KT P6SM FEW150 FM020200 13006KT P6SM FEW150
KINL,KINL 011734Z 0118/0218 09009KT P6SM FEW015 OVC080 FM020900 14006KT P6SM OVC025 FM021500 14006KT P6SM OVC050
KINS,TAF KINS 010441Z 0105/0211 22006KT 9999 SKC QNH2980INS BECMG 0121/0122 13010G15KT 9999 SKC QNH2979INS BECMG 0200/0201 21012G18KT 9999 SKC QNH2981INS BECMG 0203/0204 22008KT 9999 SKC QNH2987INS TX32/0121Z TN14/0112Z LAST NO AMDS AFT 0105 NEXT 0305
KINT,KINT 012026Z 0120/0218 30005KT 6SM BR SCT015 OVC035 TEMPO 0121/0123 2SM -DZ BR OVC015 FM012300 29004KT P6SM BKN020 TEMPO 0200/0204 SCT020 BKN035 FM021200 34006KT P6SM BKN015 OVC070
KINW,KINW 011720Z 0118/0218 22009KT P6SM SKC FM012100 17007KT P6SM SCT090 FM020100 22007KT P6SM VCSH SCT090 PROB30 0203/0208 -TSRA BKN050CB FM021000 VRB06KT P6SM SCT100
KIPL,KIPL 011720Z 0118/0218 14006KT P6SM SKC FM012100 17010KT P6SM FEW100 FEW250 FM021200 20005KT P6SM FEW100 FEW250
KIPT,KIPT 012119Z 0121/0218 VRB04KT 3SM -RA BR SCT030 OVC040 FM020300 36006KT 5SM -RA OVC025 FM020900 34006KT 5SM -RA BR OVC015 FM021600 34008KT 6SM -RA BR OVC025
KISM,KISM 011739Z 0118/0218 VRB03KT P6SM FEW040 FM021400 30007KT P6SM SKC
KISO,KISO 011744Z 0118/0218 22009G15KT P6SM BKN030 FM012300 23004KT P6SM BKN070 FM021400 32004KT P6SM BKN050 AMD LTD TO CLD VIS AND WIND
KISP,KISP 012006Z 0120/0218 05014G22KT P6SM -RA BKN007 FM020500 04017G25KT P6SM VCSH OVC015 FM021000 04020G27KT P6SM -RA OVC015
KITH,KITH 011721Z 0118/0218 04006KT P6SM SCT120 BKN180 FM021400 03007G15KT P6SM OVC060
KIWA,KIWA 011720Z 0118/0218 17007KT P6SM SKC FM012100 22006KT P6SM FEW120 FEW250 FM012300 26006KT P6SM FEW120 FEW250 FM020500 16008KT P6SM FEW080 SCT120 SCT250 FM021000 11005KT P6SM FEW120 FEW250
KIWD,KIWD 011732Z 0118/0218 05007KT P6SM SCT170 FM020200 06005KT P6SM BKN050
KIXD,KIXD 011727Z 0118/0218 11008KT P6SM FEW250
KJAC,KJAC 011730Z 0118/0218 VRB06KT P6SM -SHRA BKN020 OVC035 TEMPO 0119/0123 3SM -TSRA OVC025CB FM020000 VRB05KT P6SM VCSH SCT020 OVC040 FM020300 04006KT P6SM SCT050 BKN080 FM020800 34005KT P6SM VCFG FEW005 BKN120
KJAN,KJAN 011720Z 0118/0218 01008KT P6SM SKC
KJAX,KJAX 011800Z 0118/0218 27008G12KT P6SM SKC FM020100 VRB03KT P6SM SKC FM021500 29007KT P6SM SKC
KJBR,KJBR 011728Z 0118/0218 01009KT P6SM SKC FM020000 01005KT P6SM FEW250 FM021500 04008KT P6SM SKC
KJCT,KJCT 011720Z 0118/0218 VRB05KT P6SM SKC
KJEF,KJEF 011720Z 0118/0218 06007KT P6SM SKC FM020100 VRB03KT P6SM SKC
KJER,KJER 011720Z 0118/0218 12006KT P6SM FEW080 FM012100 VRB05KT P6SM FEW080 FM020400 08009KT P6SM SCT150
KJFK,KJFK 012006Z 0120/0224 04015G21KT P6SM OVC010 TEMPO 0120/0121 3SM SHRA BR OVC009 FM012300 04015G21KT P6SM OVC010 TEMPO 0202/0205 OVC009 FM020700 03016G23KT P6SM OVC015 FM021000 03016G23KT P6SM OVC015 FM021500 04018G26KT P6SM VCSH OVC025 FM022000 04018G26KT P6SM VCSH OVC035
KJHW,KJHW 012106Z 0121/0218 03012KT P6SM BKN130 FM020600 04012KT P6SM BKN025 FM021000 04008KT P6SM BKN012 FM021500 03009KT P6SM SCT040
KJKA,KJKA 011728Z 0118/0218 32008KT P6SM SKC FM012000 29008KT P6SM SKC FM020000 VRB03KT P6SM SKC
KJKL,KJKL 011735Z 0118/0218 35004KT 3SM -DZ BR OVC012 TEMPO 0118/0122 OVC008 FM020700 35004KT 3SM -DZ BR OVC008
KJLN,KJLN 011720Z 0118/0218 06006KT P6SM SKC FM012200 11006KT P6SM FEW250
KJMS,KJMS 011721Z 0118/0218 08012KT P6SM BKN100 FM020100 VRB06KT P6SM SCT250 FM021400 12012G20KT P6SM BKN200 FM021700 14014G22KT P6SM BKN150
KJST,KJST 012119Z 0121/0218 06012G20KT 3SM -RA BR OVC004 TEMPO 0121/0201 1SM RA BR FM020300 04010G16KT 4SM -RA BR OVC004 FM021200 04010KT 5SM -RA BR OVC007
KJVL,KJVL 012055Z 0121/0218 05008KT P6SM SKC FM020600 VRB03KT 6SM BR SCT050 BKN100 FM020900 VRB03KT 3SM BR BKN050 TEMPO 0210/0213 1SM BR SCT020 BKN050 FM021500 06007KT P6SM SCT110
KJXN,KJXN 011726Z 0118/0218 01010G18KT P6SM SKC FM020100 04006KT P6SM SKC
KJZI,KJZI 011720Z 0118/0218 20011KT P6SM BKN035 FM020000 VRB03KT P6SM SCT060 FM020600 34005KT P6SM SCT035
KLAF,KLAF 011720Z 0118/0218 03011G19KT P6SM SKC FM020000 02008KT P6SM FEW250
KLAL,KLAL 011729Z 0118/0218 VRB04KT P6SM FEW190 FM012100 31006KT P6SM SCT050 FM020800 VRB03KT P6SM SKC FM021500 33005KT P6SM SKC
KLAN,KLAN 011726Z 0118/0218 04011KT P6SM SKC FM020200 06006KT P6SM SKC
KLAR,KLAR 011919Z 0119/0218 22015G25KT P6SM -TSRA BKN060CB FM012000 18012KT P6SM -SHRA VCTS OVC060CB FM012100 19012KT P6SM -TSRA OVC080CB FM012300 19011KT P6SM VCTS BKN110CB FM020200 17006KT P6SM VCTS BKN180CB
KLAS,KLAS 012057Z 0121/0224 09006KT P6SM FEW150 FM012200 19011G18KT P6SM FEW150 FM020200 22008KT P6SM SKC FM021100 VRB06KT P6SM SKC FM021800 20010G16KT P6SM FEW150
KLAW,KLAW 011720Z 0118/0218 15005KT P6SM SKC
KLAX,KLAX 012059Z 0121/0224 24013KT P6SM FEW021 SCT110 FM020300 24008KT P6SM OVC018 FM020600 VRB03KT P6SM OVC015 FM021000 VRB03KT P6SM OVC025 FM021900 26008KT P6SM SCT030 FM022100 26012KT P6SM SKC
KLBB,KLBB 011720Z 0118/0218 16011KT P6SM SCT200
KLBE,KLBE 012110Z 0121/0218 01010G18KT 5SM -RA OVC020 FM012300 03010G18KT 4SM SHRA BR OVC009 FM020300 04007KT 2SM SHRA BR OVC007 FM021300 04008KT P6SM VCSH OVC010
KLBF,KLBF 011720Z 0118/0218 17009KT P6SM FEW250 FM012000 15017KT P6SM FEW250 FM020000 14015G23KT P6SM SCT250 FM020600 15012KT P6SM BKN200 FM021200 15009KT P6SM SCT200 FM021600 16014KT P6SM SCT250
KLBL,KLBL 011720Z 0118/0218 20014G22KT P6SM SKC FM020500 14010KT P6SM SKC
KLBT,KLBT 011942Z 0120/0218 26010KT P6SM BKN035 FM012200 29004KT P6SM BKN050 FM020600 32004KT P6SM OVC060 AMD NOT SKED
KLBX,KLBX 011720Z 0118/0218 05009KT P6SM SKC FM012100 11008KT P6SM SKC FM020100 VRB02KT P6SM SKC FM021500 04006KT P6SM FEW250
KLCH,KLCH 011806Z 0118/0218 04007KT P6SM SKC FM020100 VRB03KT P6SM SKC
KLCK,KLCK 011737Z 0118/0218 02013G21KT P6SM VCSH OVC140 FM020000 01011KT P6SM BKN200 FM021000 02012KT P6SM OVC015 FM021500 03012G22KT P6SM OVC025
KLEB,KLEB 011745Z 0118/0218 VRB03KT P6SM BKN250 FM020900 36005KT P6SM BKN015 FM021400 36008KT P6SM SCT035 BKN250
KLEE,KLEE 011739Z 0118/0218 VRB05KT P6SM SKC FM021400 30006KT P6SM SKC
KLEX,KLEX 011721Z 0118/0218 36013G22KT P6SM SCT100 FM020000 36009KT P6SM SKC FM021200 01010KT P6SM BKN100 FM021600 03014G22KT P6SM BKN100
KLFI,TAF KLFI 011700Z 0117/0223 23009KT 9999 SCT025 BKN040 QNH2976INS BECMG 0120/0121 VRB06KT 9999 BKN030 QNH2977INS TEMPO 0210/0213 VRB06KT 4800 BR OVC030 BECMG 0217/0218 VRB06KT 9999 BKN015 OVC040 QNH2986INS BECMG 0221/0222 04025G35KT 9999 OVC015 QNH2988INS BECMG 0222/0223 04025G35KT 6000 SHRA OVC010 QNH2988INS TX24/0118Z TN16/0201Z
KLFK,KLFK 011726Z 0118/0218 04005KT P6SM SKC FM020100 VRB03KT P6SM SKC FM021500 04005KT P6SM SKC
KLFT,KLFT 011806Z 0118/0218 02008KT P6SM SKC FM020100 VRB03KT P6SM SKC
KLGA,KLGA 012006Z 0120/0224 06019G25KT P6SM BKN009 FM012300 04015G22KT P6SM BKN009 FM020200 04015G22KT P6SM VCSH OVC015 FM021000 04019G26KT P6SM VCSH OVC025 FM021500 05020G27KT P6SM VCSH OVC015 FM022000 05020G27KT P6SM VCSH OVC040
KLGB,KLGB 011745Z 0118/0218 VRB04KT P6SM OVC026 FM012000 19008KT P6SM SKC FM020000 30007KT P6SM SKC FM020600 VRB03KT P6SM OVC015 FM021000 VRB03KT P6SM OVC020
KLGU,KLGU 012117Z 0121/0218 35011G20KT P6SM FEW080 BKN180 FM020200 VRB04KT P6SM BKN180
KLIT,KLIT 011730Z 0118/0218 01008KT P6SM FEW250 FM020300 VRB03KT P6SM SKC
KLLQ,KLLQ 011730Z 0118/0218 07007KT P6SM SKC FM020300 VRB02KT P6SM SKC
KLMT,KLMT 011742Z 0118/0218 09006KT P6SM SKC FM012300 34008KT P6SM SKC FM020300 04004KT P6SM SKC
KLND,KLND 011730Z 0118/0218 VRB05KT P6SM -SHRA VCTS OVC030CB TEMPO 0118/0122 1 1/2SM -RA OVC015 FM020000 25007KT P6SM SCT050 BKN150
KLNK,KLNK 011733Z 0118/0218 15012G22KT P6SM FEW150 FM012300 14005KT P6SM FEW150 FM021600 15012G20KT P6SM FEW150
KLNS,KLNS 012119Z 0121/0218 06010KT 6SM -DZ BR OVC009 FM020000 03009KT 4SM -DZ BR OVC007 FM021500 04010G18KT 4SM -RA BR OVC012
KLOZ,KLOZ 011735Z 0118/0218 02007KT P6SM OVC022 TEMPO 0118/0122 3SM -DZ BR OVC015 FM012200 01006KT P6SM BKN060 FM020600 36005KT P6SM OVC025
KLRD,KLRD 012032Z 0121/0218 09006KT P6SM SCT070 FM020200 11007KT P6SM SKC FM021500 09006KT P6SM SCT250
KLRF,TAF KLRF 011500Z 0115/0221 VRB06KT 9999 SKC QNH3002INS TX27/0121Z TN09/0211Z
KLRU,KLRU 011724Z 0118/0218 14007KT P6SM SCT120 BKN250 FM021200 11004KT P6SM BKN250
KLSE,KLSE 011720Z 0118/0218 09004KT P6SM BKN100
KLSF,TAF KLSF 302100Z 3021/0203 33012KT 9999 BKN060 BKN200 QNH2981INS BECMG 3023/3024 31008KT 9999 FEW060 BKN200 QNH2984INS BECMG 0115/0116 31010G15KT 9999 SCT200 QNH3000INS BECMG 0123/0124 31008KT 9999 FEW200 QNH3002INS TX28/0120Z TN13/0111Z LAST NO AMDS AFT 0103 NEXT 0312
KLSV,TAF KLSV 011500Z 0115/0221 07007KT 9999 SKC QNH2976INS BECMG 0120/0121 16010G15KT 9999 SKC QNH2972INS BECMG 0202/0203 31006KT 9999 SKC QNH2977INS BECMG 0215/0216 03006KT 9999 SKC QNH2989INS BECMG 0219/0220 15010G15KT 9999 FEW150 QNH2985INS TS OMTNS TEMPO 0220/0221 VRB20G35KT VCTS SCT100CB TX35/0123Z TN22/0212Z
KLTS,TAF KLTS 011700Z 0117/0223 15010G15KT 9999 FEW100 FEW190 QNH3003INS BECMG 0118/0119 14008KT 9999 FEW100 FEW190 QNH2998INS BECMG 0200/0201 12007KT 9999 SKC QNH3000INS BECMG 0214/0215 13010G15KT 9999 SKC QNH3006INS BECMG 0219/0220 13012KT 9999 SKC QNH3008INS TX31/0121Z TN10/0212Z
KLUF,TAF AMD KLUF 010017Z 0101/0202 VRB06KT 9999 SKC QNH2977INS BECMG 0105/0106 13010G15KT 9999 FEW180 SCT220 QNH2975INS TEMPO 0118/0122 10012G20KT TX35/0101Z TN23/0112Z LAST NO AMDS AFT 0101 NEXT 0312
KLUK,KLUK 011737Z 0118/0218 02015G22KT P6SM FEW100 BKN250 FM020000 01008KT P6SM SCT250 FM021200 02012KT P6SM SCT025 FM021400 03015G24KT P6SM BKN035
KLVK,KLVK 011729Z 0118/0218 29010KT P6SM FEW010 FM020900 29005KT P6SM SKC FM021200 VRB03KT P6SM BKN010 FM021700 VRB03KT P6SM FEW010
KLVM,KLVM 011739Z 0118/0218 VRB04KT P6SM -RA OVC035 FM012300 08008KT 5SM -RA BR OVC012 FM020300 08008KT P6SM VCSH OVC015
KLVS,KLVS 011732Z 0118/0218 19014G24KT P6SM FEW070 FM012200 18012G22KT P6SM VCTS BKN080CB OVC200 FM020100 19009KT P6SM VCSH BKN090 OVC200 FM020200 17007KT P6SM SCT070 BKN100
KLWB,KLWB 011746Z 0118/0218 02006KT 2SM -RADZ BR BKN003 OVC012 FM012200 01006KT 4SM -RA BR OVC006 FM020300 VRB03KT 3SM -RA BR OVC004 FM020600 VRB03KT 1SM BR OVC003 FM021500 VRB03KT 3SM BR OVC007
KLWS,KLWS 011726Z 0118/0218 VRB03KT P6SM SKC FM012300 19004KT P6SM SKC FM020600 VRB04KT P6SM SKC FM021200 VRB04KT P6SM SCT250
KLWT,KLWT 011758Z 0118/0218 36007KT P6SM -RA SCT005 BKN015 TEMPO 0119/0122 3SM -RA BR BKN004 FM012200 01008KT P6SM -SHRA SCT008 BKN012 TEMPO 0122/0202 5SM -RA BR BKN015 FM020200 VRB05KT P6SM -SHRA SCT020 BKN050 PROB30 0204/0210 4SM -RA BR BKN007 FM021200 VRB04KT P6SM SCT025 BKN040
KLYH,KLYH 011949Z 0120/0218 02007KT 3SM BR OVC005 FM012300 36004KT 4SM BR OVC003 FM021300 34004KT 3SM -RA BR OVC009
KMAF,KMAF 011727Z 0118/0218 16011KT P6SM FEW200 FM012000 12012G20KT P6SM FEW150 FM020100 12008KT P6SM FEW150
KMBG,KMBG 011720Z 0118/0218 09010G21KT P6SM BKN220 FM012100 11014G24KT P6SM SCT230 FM020700 11012G19KT P6SM BKN250 WS020/17035KT FM021000 13012KT P6SM SCT220 FM021600 16011G19KT P6SM BKN190
KMBL,KMBL 011729Z 0118/0218 04006KT P6SM SKC FM020300 07006KT P6SM SKC
KMBS,KMBS 011728Z 0118/0218 02012G20KT P6SM FEW030 FEW100 SCT250 FM012200 03012KT P6SM SCT100 FM020400 03010KT P6SM BKN015 FM021400 03011G18KT P6SM SKC
KMCB,KMCB 011740Z 0118/0218 36006KT P6SM SKC FM020000 00000KT P6SM SKC FM021300 02008KT P6SM SKC
KMCC,KMCC 011721Z 0118/0218 VRB05KT P6SM SKC FM020000 22008KT P6SM SKC FM020700 16007KT P6SM SKC
KMCE,KMCE 011720Z 0118/0218 30006G12KT P6SM SKC FM020600 32008G18KT P6SM SKC
KMCF,TAF KMCF 011700Z 0117/0223 30009KT 9999 FEW035 QNH2980INS BECMG 0202/0203 35006KT 9999 FEW050 QNH2988INS BECMG 0215/0216 29009KT 9999 FEW040 QNH2990INS TX28/0120Z TN20/0211Z
KMCI,KMCI 011727Z 0118/0218 11008KT P6SM FEW250
KMCK,KMCK 011956Z 0120/0218 18015G23KT P6SM SKC FM020000 15010KT P6SM FEW240 FM020400 17012KT P6SM SCT190 WS020/18040KT FM020500 VRB06KT P6SM SCT220 WS020/19040KT FM021100 16010KT P6SM FEW230 FM021500 18015G23KT P6SM FEW230
KMCN,KMCN 011720Z 0118/0218 31012G20KT P6SM SKC FM020100 32006KT P6SM SKC FM021500 34007KT P6SM FEW250
KMCO,KMCO 012059Z 0121/0224 VRB05KT P6SM FEW050 FM021400 30007KT P6SM SKC
KMCW,KMCW 011720Z 0118/0218 13006KT P6SM SCT120
KMDT,KMDT 012119Z 0121/0218 03010KT 4SM -DZ BR OVC010 FM020100 01008KT 3SM -DZ BR OVC007 FM021400 02010G16KT 4SM -RA BR OVC012
KMDW,KMDW 012100Z 0121/0224 03013KT P6SM FEW250 FM012300 02008KT P6SM FEW250 FM021100 06009KT P6SM BKN015 FM021600 04010KT P6SM BKN022 FM021800 04011KT P6SM SCT030 SCT250
KMEI,KMEI 011720Z 0118/0218 35009KT P6SM SKC
KMEM,KMEM 011728Z 0118/0224 01010KT P6SM SKC FM020100 03005KT P6SM SKC FM021600 03010KT P6SM SKC
KMER,KMER 011720Z 0118/0218 VRB06KT P6SM SKC FM020000 32007G17KT P6SM SKC AMD NOT SKED
KMEV,KMEV 011720Z 0118/0218 06004KT P6SM SKC FM012100 36006G14KT P6SM SKC FM020400 VRB03KT P6SM SKC
KMFD,KMFD 012037Z 0121/0218 36013KT P6SM OVC200 FM012300 02012KT P6SM BKN200 FM021200 03012KT P6SM BKN020 FM021600 03013G22KT P6SM BKN030
KMFE,KMFE 011723Z 0118/0218 VRB04KT P6SM SKC FM012000 08008KT P6SM FEW250 FM020200 VRB04KT P6SM FEW250
KMFR,KMFR 011742Z 0118/0218 00000KT P6SM SKC
KMGE,TAF KMGE 011305Z 0113/0219 30010G15KT 9999 BKN120 BKN250 QNH2985INS BECMG 0114/0115 32015G25KT 9999 BKN120 BKN250 QNH2990INS BECMG 0117/0118 32015G25KT 9999 FEW045 BKN120 BKN250 QNH2992INS BECMG 0120/0121 32015G25KT 9999 FEW045 FEW120 QNH2995INS BECMG 0200/0201 34010KT 9999 SKC QNH2995INS TX24/0121Z TN11/0211Z LAST NO AMDS AFT 0120 NEXT 0211
KMGM,KMGM 011720Z 0118/0218 29009KT P6SM SKC FM020200 33004KT P6SM SKC FM021700 34008KT P6SM FEW100
KMGW,KMGW 012001Z 0120/0218 02010KT 1SM -RA BR OVC004 FM012200 02009G18KT 3SM SHRA BR OVC008 FM021300 02006KT P6SM VCSH OVC005 FM021600 02007KT P6SM OVC008
KMHK,KMHK 011737Z 0118/0218 13008KT P6SM SCT150
KMHR,KMHR 011721Z 0118/0218 VRB05KT P6SM SKC FM020000 23008KT P6SM SKC FM020700 16007KT P6SM SKC
KMHT,KMHT 011745Z 0118/0218 VRB03KT P6SM BKN120 FM020600 02009KT P6SM BKN080 FM021200 01012G20KT P6SM BKN050
KMIA,KMIA 012107Z 0121/0224 04008KT P6SM SCT035 BKN050 FM020000 VRB03KT P6SM FEW030 SCT250 FM021300 33005KT P6SM FEW030 SCT250 FM021700 05008KT P6SM SCT030 SCT050
KMIB,TAF AMD KMIB 302205Z 3022/0123 08010G20KT 9999 FEW110 QNH2997INS BECMG 0101/0102 08009KT 9999 FEW050 BKN070 QNH3003INS BECMG 0106/0107 08009KT 9999 SCT030 BKN050 QNH3011INS BECMG 0114/0115 08009KT 6000 -RA BKN003 OVC008 QNH3019INS BECMG 0118/0119 07010G15KT 8000 -RA BKN005 OVC010 QNH3021INS TX23/3022Z TN11/0109Z LAST NO AMDS AFT 3023 NEXT 0309
KMIV,KMIV 012105Z 0121/0218 06013KT P6SM VCSH OVC008 FM020600 03006KT 2SM BR OVC008 FM020900 03010G19KT 3SM -RA BR OVC009 FM021200 04012G23KT 1SM -RA BR OVC015
KMKC,KMKC 011727Z 0118/0218 10008KT P6SM FEW250
KMKE,KMKE 012056Z 0121/0224 04011KT P6SM SKC FM020200 02008KT P6SM SCT250 FM020900 06007KT P6SM BKN080 FM021600 05011KT P6SM SCT060 BKN120
KMKG,KMKG 011726Z 0118/0218 03006KT P6SM SKC FM020300 07007KT P6SM SKC
KMKL,KMKL 011728Z 0118/0218 01010G18KT P6SM SKC FM020000 01005KT P6SM FEW250 FM021500 03012KT P6SM SKC
KMKT,KMKT 011720Z 0118/0218 13007KT P6SM BKN120 FM021500 15008KT P6SM SCT250
KMLB,KMLB 011739Z 0118/0218 05009KT P6SM SCT050 FM020000 VRB03KT P6SM SCT060 FM021400 31007KT P6SM SKC
KMLC,KMLC 011720Z 0118/0218 14005KT P6SM SKC
KMLI,KMLI 011723Z 0118/0218 07005KT P6SM SKC FM020400 VRB02KT P6SM SCT120
KMLS,KMLS 011739Z 0118/0218 05011KT P6SM BKN007 BKN040 OVC060 FM012200 06011KT P6SM VCSH OVC035 FM020600 05010KT P6SM -RA SCT025 OVC040
KMLU,KMLU 011726Z 0118/0218 01007KT P6SM SKC FM020100 VRB03KT P6SM SKC FM021500 03006KT P6SM SKC
KMMH,KMMH 011720Z 0118/0218 30004KT P6SM SKC FM011900 15007G13KT P6SM SKC FM020000 29008KT P6SM SKC
KMMT,TAF KMMT 011500Z 0115/0221 VRB06KT 9999 BKN029 QNH2980INS BECMG 0120/0121 VRB06KT 9999 SCT029 QNH2982INS BECMG 0217/0218 35010G15KT 9999 SCT030 QNH2994INS TX20/0120Z TN12/0211Z LIMITED METWATCH 0115 TIL 0307
KMOB,KMOB 011728Z 0118/0218 34009G17KT P6SM SKC FM012300 33003KT P6SM SKC FM021400 01007KT P6SM SKC
KMOD,KMOD 011721Z 0118/0218 33007KT P6SM SKC
KMOT,KMOT 011935Z 0120/0218 06010G18KT P6SM VCSH FEW015 OVC110 TEMPO 0121/0123 -SHRA FM020600 VRB06KT P6SM BKN035
KMPV,KMPV 011720Z 0118/0218 VRB03KT P6SM BKN200 FM012200 01005KT P6SM SCT200 FM020800 36006KT P6SM BKN028 FM021200 01009G17KT P6SM SCT025 SCT200
KMQY,KMQY 011728Z 0118/0218 36011G18KT P6SM SKC FM020300 01004KT P6SM SKC FM021600 01012G18KT P6SM SKC
KMRB,KMRB 011720Z 0118/0218 02008G16KT P6SM VCSH OVC008 TEMPO 0118/0121 3SM SHRADZ FM020000 36009KT P6SM VCSH OVC005 FM020400 02008KT 4SM -SHRA BR OVC003 FM020900 02008KT 5SM -SHRA BR OVC004 FM021600 02010G18KT 6SM BR VCSH OVC006
KMRY,KMRY 011947Z 0120/0218 26007KT P6SM BKN012 FM012030 29007KT P6SM SCT010 FM012300 25005KT P6SM BKN008 FM020300 VRB03KT 4SM BR OVC004 FM021600 VRB03KT 6SM BR OVC006
KMSL,KMSL 011720Z 0118/0218 35008G16KT P6SM SKC FM020000 VRB03KT P6SM SKC FM021500 01009G16KT P6SM SKC
KMSN,KMSN 012054Z 0121/0218 05004KT P6SM SKC FM020900 VRB03KT 6SM BR SCT050 BKN100 TEMPO 0210/0213 3SM BR SCT020 BKN050 FM021500 06007KT P6SM FEW050 SCT150
KMSO,KMSO 011728Z 0118/0218 VRB04KT P6SM VCSH OVC070 FM012000 12010KT P6SM OVC050
KMSP,KMSP 012113Z 0121/0224 11008KT P6SM VCSH OVC100 FM020200 08006KT P6SM BKN150 FM021400 13008KT P6SM BKN250
KMSS,KMSS 011720Z 0118/0218 VRB03KT P6SM OVC250 FM012300 04007KT P6SM OVC060 FM020100 05009G15KT P6SM OVC025 FM020300 05011G17KT P6SM BKN035 FM020800 05012G20KT P6SM FEW150
KMSY,KMSY 011740Z 0118/0224 36008KT P6SM SKC FM020100 VRB03KT P6SM SKC FM021300 02008KT P6SM SKC
KMTC,TAF KMTC 011904Z 0119/0301 02015KT 9999 FEW280 QNH3010INS BECMG 0122/0123 02009KT 9999 FEW065 FEW095 QNH3013INS BECMG 0204/0205 02009KT 9999 BKN015 QNH3022INS BECMG 0216/0217 03012KT 9999 FEW020 QNH3033INS TX19/0119Z TN09/0213Z LAST NO AMDS AFT 0203 NEXT 0211
KMTH,KMTH 011734Z 0118/0218 36007KT P6SM SCT080 FM012000 32007KT P6SM FEW080
KMTJ,KMTJ 011739Z 0118/0218 28006KT P6SM VCTS SCT060CB BKN110 TEMPO 0118/0119 VRB15G30KT 2SM -TSRA BKN040CB BKN080 FM011900 31006KT P6SM VCTS FEW070CB BKN100 FM012100 24009KT P6SM VCTS OVC090CB FM020300 14006KT P6SM VCSH FEW070 OVC100 FM021200 14004KT P6SM FEW025 BKN050
KMTN,KMTN 011720Z 0118/0218 05008G16KT P6SM VCSH OVC008 TEMPO 0118/0121 3SM SHRADZ FM012200 36009KT P6SM VCSH OVC007 FM020100 01005KT P6SM VCSH OVC005 FM021100 04012G20KT 6SM -SHRA BR OVC006 FM021500 03015G25KT 5SM SHRA BR OVC008
KMTW,KMTW 011722Z 0118/0218 04007KT P6SM SCT250 FM020500 05005KT P6SM BKN100 FM021400 06007KT P6SM SCT100
KMUO,TAF AMD KMUO 011530Z 0115/0216 VRB06KT 9999 FEW080 QNH2998INS TEMPO 0118/0124 32010G15KT BECMG 0202/0203 VRB06KT 9999 FEW080 SCT140 QNH2999INS TX22/0123Z TN07/0210Z LAST NO AMDS AFT 0115 NEXT 0210
KMVN,KMVN 011720Z 0118/0218 03007KT P6SM SKC FM020000 00000KT P6SM SKC FM021500 03006KT P6SM SKC
KMWH,KMWH 011726Z 0118/0218 VRB04KT P6SM SKC FM020300 34005KT P6SM SKC FM021600 VRB03KT P6SM SKC
KMXF,TAF KMXF 011900Z 0119/0301 32012KT 9999 SKC QNH2986INS BECMG 0218/0219 35012G18KT 9999 FEW055 510023 QNH2996INS BECMG 0223/0224 36006KT 9999 BKN045 510023 QNH2997INS TX28/0120Z TN12/0212Z LAST NO AMDS AFT 0123 NEXT 0211
KMYL,KMYL 011720Z 0118/0218 VRB03KT P6SM BKN100 FM012000 33006KT P6SM BKN080 FM020000 02006KT P6SM VCSH BKN120 FM020500 VRB03KT P6SM SKC TEMPO 0210/0214 1/2SM FG
KMYR,KMYR 011942Z 0120/0218 20010G17KT P6SM BKN040 FM012200 25005KT P6SM BKN050 FM020600 32004KT P6SM OVC060 AMD NOT SKED
KNBG,TAF KNBG 0115/0215 01009KT 9999 SKC QNH2990INS T26/0121Z T14/0210Z FN20038
KNCA,TAF KNCA 0121/0221 21010KT 9999 SCT030 QNH2979INS FM020000 VRB06KT 9999 SKC QNH2981INS T16/0209Z T23/0219Z
KNEW,KNEW 011740Z 0118/0218 34006KT P6SM SKC FM020100 02009KT P6SM SKC
KNFG,TAF KNFG 0121/0221 21008KT 9999 SKC QNH2981INS BECMG 0202/0204 VRB05KT 9999 BKN020 QNH2985INS TEMPO 0209/0215 OVC015 FM021830 24010KT 9999 SKC QNH2991INS T16/0213Z T23/0221Z
KNFL,TAF KNFL 0115/0215 VRB06KT 9999 SKC QNH2991INS T26/0123Z T06/0213Z FS30197
KNFW,TAF KNFW 0115/0215 VRB06KT 9999 SKC QNH3005INS FM011800 08012KT 9999 FEW250 QNH3000INS FM020000 VRB06KT 9999 SKC QNH3002INS AUTOMATED SENSOR METWATCH 0122 TIL 0211 T27/0121Z T13/0211Z FN20046
KNGP,TAF KNGP 0115/0215 08014KT 9999 FEW040 QNH2993INS BECMG 0207/0209 11012KT 9999 SCT040 SCT250 QNH2998INS AUTOMATED SENSOR METWATCH 0115 TIL 0311 T31/0120Z T24/0208Z FN00259
KNGU,TAF KNGU 0115/0215 19013KT 9999 FEW035 BKN050 QNH2973INS BECMG 0200/0202 VRB06KT SCT035 BKN080 QNH2979INS BECMG 0205/0207 03006KT FEW020 SCT035 BKN080 QNH2980INS BECMG 0213/0215 35010G18KT SCT007 SCT020 BKN035 BKN060 BKN080 QNH2985INS T23/0120Z T16/0209Z RTD 1515Z FN00071 TAF RTD
KNHK,TAF KNHK 0115/0215 15013KT 9999 BKN007 BKN010 OVC035 QNH2972INS BECMG 0118/0120 18010KT SCT010 SCT020 BKN060 QNH2973INS BECMG 0122/0200 VRB06KT FEW020 SCT060 QNH2976INS BECMG 0210/0212 02015G25KT 9999 VCSH SCT007 BKN015 BKN035 OVC100 QNH2984INS TEMPO 0212/0215 15018G28KT 8000 -SHRA BR SCT006 BKN010 OVC035 T23/0120Z T16/0208Z RTD 1515Z FN00071 TAF RTD
KNIP,TAF KNIP 0115/0215 26008KT 9999 SCT060 QNH2981INS BECMG 0209/0211 33007KT 9999 FEW050 QNH2990INS T29/0121Z T16/0112Z FN00259
KNJK,TAF KNJK 0115/0215 VRB06KT 9999 SKC QNH2962INS T38/0123Z T24/0212Z FS30199
KNKT,TAF KNKT 0121/0221 21010KT 9999 SCT030 QNH2979INS FM020000 VRB06KT 9999 SKC QNH2981INS T16/0209Z T23/0219Z
KNKX,TAF KNKX 0121/0221 28008KT 9999 SKC QNH2981INS BECMG 0202/0204 VRB05KT 9999 BKN020 QNH2985INS TEMPO 0209/0215 OVC015 FM021830 30010KT 9999 SKC QNH2991INS T16/0213Z T23/0221Z
KNLC,TAF KNLC 0115/0215 VRB06KT 9999 FEW150 QNH2970INS TEMPO 0204/0210 32010G15KT T33/0123Z T15/0213Z FS30201
KNPA,TAF KNPA 3023/0123 36006KT 9999 SKC QNH2982INS FM011800 29009KT 9999 SKC QNH2990INS LAST NO AMDS AFT 3023 NEXT 0307 AUTOMATED SENSOR METWATCH 0103 TIL 0114 T16/0111Z T27/0118Z FN20034
KNQI,TAF KNQI 3023/0123 09009KT 9999 FEW040 QNH2986INS FM010800 VRB06KT 9999 SKC QNH2993INS FM011500 08009KT 9999 FEW030 QNH2990INS LAST NO AMDS AFT 3023 NEXT 0215 T15/0112Z T34/0120Z FN20085
KNSE,TAF KNSE 0115/0215 34006G15KT 9999 FEW040 QNH2986INS BECMG 0121/0123 35008KT 9999 FEW040 QNH2988INS AUTOMATED SENSOR METWATCH 0115 TIL 0311 T30/0121Z T13/0212Z FN00259
KNTD,TAF AMD KNTD 0119/0215 14009KT 9999 SCT030 QNH2980INS BECMG 0203/0205 VRB06KT 9999 BKN010 QNH2981INS T22/0121Z T14/0212Z AMD 1905 FS30201
KNTU,TAF KNTU 0115/0215 19015KT 9999 FEW035 BKN050 QNH2973INS BECMG 0200/0202 VRB06KT SCT035 BKN080 QNH2979INS BECMG 0205/0207 03008KT FEW020 SCT035 BKN080 QNH2980INS BECMG 0213/0215 35010G18KT SCT007 SCT020 SCT035 BKN060 BKN080 QNH2985INS T23/0120Z T14/0209Z RTD 1515Z FN00071
KNUW,TAF KNUW 0115/0215 VRB06KT 8000 BR SCT040 SCT250 QNH2999INS TEMPO 0115/0120 4800 BR BKN008 FM012100 29007KT 9999 FEW015 FEW250 QNH2993INS T15/0123Z T09/0212Z FS30197
KNXP,TAF KNXP 0121/0221 14010KT 9999 SKC QNH2985INS BECMG 0122/0200 21010KT 9999 SKC QNH2983INS FM020930 VRB05KT 9999 SKC QNH2996INS BECMG 0218/0220 16010KT 9999 SKC QNH2997INS T33/0121Z T21/0213Z
KNYL,TAF KNYL 0121/0221 16010KT 9999 SKC QNH2968INS BECMG 0200/0202 20010KT 9999 SKC QNH2969INS BECMG 0206/0208 16006KT 9999 SKC QNH2978INS T34/0121Z T26/0213Z
KNZY,TAF KNZY 0115/0215 VRB06KT 9999 BKN020 QNH2980INS BECMG 0118/0120 28008KT 9999 SCT015 QNH2979INS BECMG 0201/0202 VRB06KT 9999 BKN018 QNH2981INS T28/0120Z T20/0214Z FS30197
KOAJ,KOAJ 011744Z 0118/0218 23008KT P6SM SCT035 FM012200 24005KT P6SM SCT060 FM020000 00000KT P6SM SCT180 FM021400 33005KT P6SM BKN050 AMD LTD TO CLD VIS AND WIND
KOAK,KOAK 011900Z 0119/0224 VRB04KT P6SM BKN013 FM011930 VRB03KT P6SM SCT012 FM012100 30010KT P6SM SCT008 FM020600 29008KT P6SM OVC008 FM021700 27006KT P6SM SKC
KOFF,TAF KOFF 011800Z 0118/0224 15012G18KT 9999 FEW180 QNH3018INS BECMG 0122/0123 15009KT 9999 SCT180 QNH3015INS TX26/0121Z TN10/0212Z
KOFK,KOFK 011733Z 0118/0218 15015G27KT P6SM FEW150 FM012300 15008KT P6SM FEW150 FM021500 16014G24KT P6SM FEW150
KOGB,KOGB 012119Z 0121/0218 35005KT P6SM BKN035 OVC050 FM020700 35004KT P6SM SCT040 BKN100
KOGD,KOGD 011732Z 0118/0218 30005KT P6SM FEW080 FEW200 FM020400 16005KT P6SM FEW120 SCT250 FM021700 29006KT P6SM SCT150 BKN200
KOKC,KOKC 011720Z 0118/0218 19006KT P6SM FEW250 FM012100 12007KT P6SM SKC
KOLF,KOLF 011721Z 0118/0218 07014KT 4SM -RA SCT008 OVC014 FM012200 07011KT P6SM VCSH SCT025 OVC060 TEMPO 0123/0203 3SM -SHRA BR OVC025 FM021500 07007KT P6SM SCT030 OVC060
KOLM,KOLM 011720Z 0118/0218 35003KT P6SM SKC FM012000 02008KT P6SM SKC FM021000 03001KT 1/4SM FG SKC FM021500 08002KT 1/4SM FG OVC003 FM021700 04003KT 4SM BR BKN250
KOLS,KOLS 011734Z 0118/0218 17009KT P6SM SCT070 FM012200 17008KT P6SM VCSH SCT070 BKN130 FM020200 14006KT P6SM SCT070 BKN130 FM020600 VRB04KT P6SM SCT130 SCT200
KOMA,KOMA 011733Z 0118/0218 15012G22KT P6SM FEW150 FM012300 13005KT P6SM FEW150 FM021600 15012G20KT P6SM FEW150
KONP,KONP 011726Z 0118/0218 07010G14KT P6SM SKC FM012200 04009G16KT P6SM SKC FM021700 VRB04KT P6SM FEW028
KONT,KONT 011737Z 0118/0224 VRB04KT P6SM SCT015 FM012000 25011G17KT P6SM SKC FM020400 25006KT P6SM SKC FM020600 VRB04KT P6SM BKN015 FM021700 VRB04KT P6SM SCT018 FM022000 25011G17KT P6SM SKC
KOPF,KOPF 012107Z 0121/0218 04008KT P6SM SCT030 BKN050 FM020000 VRB03KT P6SM FEW030 SCT250 FM021300 33005KT P6SM FEW030 SCT250
KORD,KORD 012100Z 0121/0224 04013KT P6SM FEW250 FM012300 02008KT P6SM FEW250 FM021100 06009KT P6SM BKN015 FM021600 04010KT P6SM BKN022 FM021800 04011KT P6SM SCT030 SCT250
KORF,KORF 011720Z 0118/0218 20010G18KT P6SM BKN035 BKN050 FM012100 22008KT P6SM SCT040 BKN070 FM020000 24004KT P6SM BKN090 FM021500 36005KT P6SM BKN035
KORH,KORH 011925Z 0119/0218 02008KT P6SM OVC020 FM020800 03009KT P6SM BKN010 FM021100 04011G27KT P6SM BKN020
KOTH,KOTH 011742Z 0118/0218 09009KT P6SM SKC FM012100 34010KT P6SM SKC FM020400 14003KT P6SM SKC FM020900 15003KT 1/2SM FG VV002
KOTM,KOTM 011720Z 0118/0218 10005KT P6SM FEW110
KOUN,KOUN 011720Z 0118/0218 19006KT P6SM FEW250 FM012000 13006KT P6SM SKC
KOWB,KOWB 011720Z 0118/0218 01011G18KT P6SM SKC FM020000 01004KT P6SM SKC FM021500 02011G18KT P6SM SKC
KOXR,KOXR 012020Z 0120/0218 19009G16KT P6SM FEW030 FM012100 22008KT P6SM SCT025 FM020200 29006KT P6SM OVC012 FM020600 VRB03KT P6SM OVC015 FM021000 VRB03KT P6SM OVC020
KOZR,TAF COR KOZR 010130Z 0100/0206 02006KT 9999 FEW050 QNH2984INS BECMG 0105/0106 33006KT 9999 SKC QNH2984INS BECMG 0114/0115 33008KT 9999 SKC QNH2986INS TX28/0120Z TN12/0111Z LAST NO AMDS AFT 0106 NEXT 0306
KPAE,KPAE 011720Z 0118/0218 34005KT P6SM SKC FM012000 35010KT P6SM FEW250 FM020200 33003KT P6SM SKC FM021200 VRB02KT 6SM BR SKC
KPAH,KPAH 011720Z 0118/0218 02011G18KT P6SM SKC FM020000 01004KT P6SM SKC FM021500 02009KT P6SM SKC
KPAM,TAF KPAM 011900Z 0119/0301 27009KT 9999 FEW050 QNH2985INS BECMG 0204/0205 34009KT 9999 FEW050 QNH2991INS TX28/0119Z TN14/0211Z
KPBF,KPBF 011808Z 0118/0218 01011KT P6SM SKC FM012330 VRB02KT P6SM SKC
KPBG,KPBG 011720Z 0118/0218 03007KT P6SM BKN200 FM020100 01012G18KT P6SM BKN100 FM021000 36012G20KT P6SM SCT200
KPBI,KPBI 012107Z 0121/0218 03007KT P6SM SCT030 BKN060 FM020000 VRB03KT P6SM FEW030 SCT250 FM021300 33005KT P6SM FEW030 SCT250
KPDK,KPDK 011942Z 0120/0218 33013G24KT P6SM SCT050 FM020200 34007KT P6SM SKC FM021400 33009KT P6SM SKC
KPDT,KPDT 011720Z 0118/0218 VRB05KT P6SM FEW250 FM020400 12004KT P6SM SCT250
KPDX,KPDX 012040Z 0121/0218 08012G22KT P6SM SKC FM020100 06007KT P6SM SKC FM020900 34005KT P6SM SKC
KPEQ,KPEQ 011727Z 0118/0218 10006KT P6SM FEW150 FM012000 10010G20KT P6SM FEW150 FM020200 11008KT P6SM FEW150
KPGA,KPGA 011720Z 0118/0218 VRB03KT P6SM FEW100 FM012200 VRB06KT P6SM VCSH SCT150 FM020700 VRB05KT P6SM SCT100 BKN130
KPGD,KPGD 011729Z 0118/0218 31004KT P6SM SCT050 FM012100 30006KT P6SM SCT050 FM020200 33005KT P6SM FEW250 FM021100 00000KT P6SM SKC FM021400 34005KT P6SM SKC
KPGV,KPGV 011744Z 0118/0218 22008G15KT P6SM BKN035 FM012300 23003KT P6SM BKN070 FM021300 34005KT P6SM BKN050 AMD LTD TO CLD VIS AND WIND
KPHF,KPHF 011720Z 0118/0218 18010KT P6SM BKN030 BKN050 FM012000 21008KT P6SM BKN040 BKN060 FM020000 24004KT P6SM BKN070 FM021500 36005KT P6SM BKN030
KPHL,KPHL 012105Z 0121/0224 05013KT 2SM BR OVC008 FM020300 04010KT P6SM OVC015 FM021300 04013G24KT 3SM -RA BR OVC015 FM022200 04014G25KT 1SM -RA BR OVC025
KPHX,KPHX 012052Z 0121/0224 19006KT P6SM FEW100 FEW250 FM012200 22007KT P6SM FEW100 FEW250 FM020600 18008KT P6SM FEW080 SCT120 SCT250 FM020900 10006KT P6SM FEW120 FEW250
KPIA,KPIA 011726Z 0118/0218 05009KT P6SM SKC TEMPO 0209/0212 4SM BR
KPIB,KPIB 011720Z 0118/0218 35010KT P6SM SKC
KPIE,KPIE 011729Z 0118/0218 04004KT P6SM FEW050 FM012000 32007KT P6SM FEW050 FM020200 33005KT P6SM SKC FM020800 00000KT P6SM SKC FM021300 34005KT P6SM FEW250
KPIH,KPIH 011722Z 0118/0218 VRB05KT P6SM VCSH SCT050 OVC100 FM020600 VRB05KT P6SM SCT040 BKN090
KPIR,KPIR 011720Z 0118/0218 12008G16KT P6SM SKC FM012100 12012G20KT P6SM SCT250 FM020000 09011KT P6SM SCT250 FM020300 11012G20KT P6SM SCT250 FM020500 13012G19KT P6SM BKN240 WS020/18035KT FM021500 16009KT P6SM BKN100
KPIT,KPIT 012035Z 0121/0224 02012KT 5SM -RA BKN009 OVC025 FM012200 02010G20KT 3SM -RA BR OVC015 FM020400 02010G18KT 5SM -RA BR OVC008 FM021000 01007KT P6SM VCSH OVC020 FM022200 04006KT P6SM BKN045
KPKB,KPKB 011736Z 0118/0218 02007KT 3SM RA BR OVC008 FM012200 02007KT 4SM SHRA BR OVC013 FM020600 01004KT 3SM -SHRA BR OVC009 FM020700 01004KT 3SM -SHRA BR OVC010 FM021700 01006KT P6SM OVC015
KPLN,KPLN 011729Z 0118/0218 05006KT P6SM FEW210 FM020300 07008G19KT P6SM FEW250 FM021400 07007KT P6SM FEW250
KPMD,KPMD 011745Z 0118/0218 02003KT P6SM SKC FM012000 22010KT P6SM SKC FM012300 24015G20KT P6SM SKC FM020200 23010KT P6SM SKC FM020900 21005KT P6SM SKC
KPNA,KPNA 011730Z 0118/0218 VRB05KT P6SM -SHRA VCTS SCT040CB BKN070 TEMPO 0118/0121 2SM TSRA OVC015CB FM020200 29006KT P6SM BKN050 FM020800 29005KT P6SM VCFG FEW005
KPNC,KPNC 011720Z 0118/0218 12006KT P6SM FEW250
KPNE,KPNE 012105Z 0121/0218 05012KT P6SM VCSH OVC007 FM020400 03010KT P6SM VCSH OVC015 FM021200 04014G25KT 5SM -RA BR OVC015 FM021500 04013G23KT 2SM -RA BR OVC015
KPNS,KPNS 011728Z 0118/0218 33008KT P6SM SKC FM012000 29008KT P6SM SKC FM020100 33005KT P6SM SKC
KPOB,TAF KPOB 301700Z 3017/0123 05020G35KT 4800 RA OVC007 QNH2936INS TEMPO 3017/0103 05035G50KT 1600 +SHRA OVC004 BECMG 0105/0106 13015G25KT 8000 -RA BKN005 OVC008 QNH2949INS BECMG 0107/0108 19012G18KT 8000 -RA SCT005 OVC008 QNH2953INS BECMG 0110/0111 23010G15KT 9999 NSW SCT005 OVC010 QNH2960INS BECMG 0114/0115 24012KT 9999 BKN010 OVC015 QNH2970INS TX16/3020Z TN14/0110Z LAST NO AMDS AFT 3022 NEXT 0317
KPOE,TAF KPOE 011510Z 0115/0221 03007KT 9999 SKC QNH2998INS TX26/0121Z TN12/0211Z
KPOU,KPOU 011733Z 0118/0218 36008KT P6SM OVC050 FM012300 03006KT P6SM OVC040 FM020800 03007KT P6SM OVC030
KPQI,KPQI 012033Z 0121/0218 34008G15KT P6SM BKN045 FM020200 36007KT P6SM BKN250 FM021200 35006G15KT P6SM SKC
KPRB,KPRB 011745Z 0118/0218 19005KT P6SM SCT007 FM012000 21010KT P6SM SKC FM012300 21015KT P6SM SKC FM020300 21010KT P6SM SKC FM020900 VRB03KT P6SM OVC008
KPRC,KPRC 011945Z 0120/0218 VRB06KT P6SM VCSH BKN050 TEMPO 0120/0122 VRB10G20KT -SHRA OVC050 FM020400 19006KT P6SM SCT150
KPSC,KPSC 011720Z 0118/0218 VRB05KT P6SM SCT250 FM020400 VRB02KT P6SM SKC
KPSF,KPSF 011733Z 0118/0218 03003KT P6SM OVC070 FM020000 03006KT P6SM BKN050 FM021300 04010KT P6SM SCT020
KPSM,KPSM 011745Z 0118/0218 VRB03KT P6SM BKN120 FM020800 02009KT P6SM BKN040 FM021300 03014G24KT P6SM BKN200
KPSP,KPSP 011737Z 0118/0218 VRB04KT P6SM SKC FM011900 11010KT P6SM SKC FM020200 34011KT P6SM SKC FM020700 VRB04KT P6SM SKC
KPTK,KPTK 011728Z 0118/0218 02012G20KT P6SM SCT250 FM012200 03012KT P6SM SCT100 SCT250 FM020600 03010KT P6SM BKN015 FM021500 03011G18KT P6SM SKC
KPUB,KPUB 011727Z 0118/0218 12007KT P6SM FEW120 FM012000 13012G25KT P6SM SCT080 TEMPO 0123/0202 VRB20G40KT SHRA BKN060 FM020200 02020G30KT P6SM VCSH BKN080 FM020400 02012KT P6SM BKN100 FM020900 29006KT P6SM SCT100
KPUW,KPUW 011726Z 0118/0218 VRB04KT P6SM SKC
KPVD,KPVD 012106Z 0121/0218 02012KT 3SM -RA BR OVC010 FM020000 03012KT P6SM OVC008 FM021100 02017G30KT P6SM VCSH OVC025 FM021600 03018G35KT P6SM OVC025
KPVU,KPVU 011732Z 0118/0218 26007KT P6SM SCT100 SCT180 FM020000 30009KT P6SM BKN200 FM020500 VRB03KT P6SM SCT100
KPVW,KPVW 011720Z 0118/0218 17011KT P6SM SCT200
KPWM,KPWM 011745Z 0118/0218 VRB03KT P6SM BKN200 FM020600 01008KT P6SM BKN250 FM021300 02012G20KT P6SM SCT250
KPWT,KPWT 011720Z 0118/0218 04010KT P6SM SKC FM020500 04005KT P6SM SKC FM021000 07005KT P6SM SKC
KRAP,KRAP 011720Z 0118/0218 36011G21KT P6SM BKN150 FM012000 03009KT P6SM SCT040 OVC100 FM020900 VRB05KT P6SM OVC150
KRBG,KRBG 011855Z 0119/0218 00000KT P6SM OVC006 FM011930 00000KT P6SM SKC FM012300 36007KT P6SM SKC FM020300 00000KT P6SM SKC
KRBL,KRBL 011721Z 0118/0218 35006KT P6SM SKC FM012100 VRB06KT P6SM SKC
KRDD,KRDD 011721Z 0118/0218 VRB06KT P6SM SKC
KRDG,KRDG 012105Z 0121/0218 05010KT 2SM BR OVC005 FM020000 05010KT P6SM OVC008 FM020900 04009KT 5SM -RA BR OVC025 FM021600 04012G24KT 2SM -RA BR OVC025
KRDM,KRDM 011720Z 0118/0218 VRB05KT P6SM FEW250 FM020400 VRB03KT P6SM SKC
KRDR,TAF KRDR 011800Z 0118/0224 VRB06KT 9999 FEW100 SCT180 QNH3020INS BECMG 0215/0216 14012G18KT 9999 FEW010 FEW065 QNH3013INS BECMG 0223/0224 15006KT 9999 FEW090 FEW130 QNH3012INS TX21/0122Z TN10/0212Z
KRDU,KRDU 011740Z 0118/0218 22008KT P6SM BKN015 OVC025 TEMPO 0119/0121 34007KT 4SM -RA BR FM012100 23007KT P6SM BKN025 FM020000 25004KT P6SM SCT025 BKN035 FM021000 30003KT P6SM BKN018 OVC080
KRFD,TAF COR KRFD 011837Z 0118/0218 03008KT P6SM FEW250 FM021100 06007KT P6SM SCT020 TEMPO 0211/0215 6SM BR FEW007 BKN010
KRHI,KRHI 011722Z 0118/0218 08003KT P6SM SCT150 FM020000 09002KT P6SM BKN100 FM020900 10003KT P6SM BKN015 BKN100 FM021600 13004KT P6SM BKN030
KRIC,KRIC 011720Z 0118/0218 18010KT P6SM BKN030 FM012300 18004KT P6SM BKN030 FM021100 VRB03KT P6SM BKN012 FM021400 36005KT 6SM -RA OVC006
KRIL,KRIL 012053Z 0121/0218 25005KT P6SM SCT070 FM012300 26006KT P6SM VCTS FEW050CB BKN080 FM020500 01002KT P6SM OVC100
KRIV,TAF KRIV 012002Z 0120/0302 32009KT 9999 SKC QNH2983INS TEMPO 0121/0201 32012G18KT BECMG 0204/0205 VRB04KT 9999 SKC QNH2986INS BECMG 0206/0207 VRB04KT 9999 FEW003 QNH2993INS BECMG 0207/0208 VRB04KT 3200 BR OVC003 QNH2991INS BECMG 0215/0216 VRB04KT 8000 BR BKN005 QNH2992INS BECMG 0216/0217 VRB04KT 9999 NSW SCT007 QNH2993INS BECMG 0220/0221 32009KT 9999 FEW100 FEW250 QNH2990INS TS OMTNS NE-SE TX28/0122Z TN15/0213Z
KRIW,KRIW 011730Z 0118/0218 32007KT P6SM VCSH BKN015 OVC060 TEMPO 0119/0123 3SM -TSRA OVC015CB FM020000 VRB08G15KT P6SM VCSH BKN050 FM020300 VRB05KT P6SM SCT050
KRKD,KRKD 011745Z 0118/0218 VRB03KT P6SM BKN250 FM020600 03010G17KT P6SM BKN080 FM021300 04012G20KT P6SM SCT250
KRKS,KRKS 011730Z 0118/0218 18005KT P6SM SCT050 FM012000 20010KT P6SM SCT050 BKN080 FM020300 VRB04KT P6SM SCT080
KRME,KRME 011721Z 0118/0218 VRB04KT P6SM SCT180 FM012300 VRB04KT P6SM OVC200
KRND,TAF KRND 301600Z 3016/0122 09008KT 9999 FEW250 QNH2992INS BECMG 0101/0102 VRB06KT 9999 SKC QNH2994INS TX32/3021Z TN16/0112Z LAST NO AMDS AFT 0100 NEXT 0218
KRNH,KRNH 011720Z 0118/0218 10005KT P6SM BKN120 FM021500 14006KT P6SM BKN250
KRNO,KRNO 011720Z 0118/0218 VRB05KT P6SM SKC FM020000 05006KT P6SM SKC FM020300 18004KT P6SM SKC
KROA,KROA 012007Z 0120/0218 01006KT 6SM BR FEW005 BKN011 OVC035 FM020000 33005KT 5SM -RA BR OVC008 FM020300 32004KT 5SM BR OVC007 FM021200 33005KT 4SM BR OVC010
KROC,KROC 012105Z 0121/0218 06012KT P6SM SCT140 OVC200 FM020200 04012G20KT P6SM BKN140 FM020400 04012G22KT P6SM OVC040 FM021100 04013G23KT P6SM BKN080
KROG,KROG 011720Z 0118/0218 06005KT P6SM SKC
KROW,KROW 012107Z 0121/0218 15014G24KT P6SM FEW100 FM020200 17007KT P6SM SCT120
KRSL,KRSL 011738Z 0118/0218 15015KT P6SM FEW240 FM020100 15010KT P6SM SKC FM021600 14012KT P6SM SKC
KRST,KRST 011720Z 0118/0218 11006KT P6SM BKN100
KRSW,KRSW 011729Z 0118/0218 33005KT P6SM SCT050 FM012100 28007KT P6SM SCT050 FM020200 33003KT P6SM FEW250 FM021700 32007KT P6SM SKC
KRUT,KRUT 011720Z 0118/0218 VRB03KT P6SM BKN200 FM021200 04007KT P6SM FEW050 SCT200
KRVS,KRVS 011720Z 0118/0218 11006KT P6SM SKC
KRWF,KRWF 011720Z 0118/0218 12010KT P6SM BKN120 FM021200 14008KT P6SM SCT200
KRWI,KRWI 011740Z 0118/0218 20009KT P6SM BKN025 BKN035 FM012000 22008KT P6SM BKN035 FM021500 32005KT P6SM BKN018 BKN080
KRWL,KRWL 011833Z 0119/0218 23009KT 4SM -SHRA BR BKN020 OVC030 FM012000 22010KT P6SM VCSH BKN045 FM020000 23009KT P6SM VCTS SCT100CB FM020300 19005KT P6SM VCSH SCT200
KRYY,KRYY 011720Z 0118/0218 33013G23KT P6SM SKC FM020200 35007KT P6SM SKC FM021400 34009KT P6SM SKC
KSAC,KSAC 011721Z 0118/0218 VRB05KT P6SM SKC FM012300 22009KT P6SM SKC FM020700 17006KT P6SM SKC
KSAF,KSAF 012107Z 0121/0218 23011G19KT P6SM SCT100 FM020100 14011KT P6SM VCSH BKN100 FM020800 11007KT P6SM SCT070 BKN100
KSAN,KSAN 012048Z 0121/0224 23009KT P6SM FEW025 FM020200 VRB04KT P6SM BKN022 FM021900 28010KT P6SM SCT025
KSAT,KSAT 011720Z 0118/0224 11006KT P6SM SKC FM020600 VRB03KT P6SM FEW250 FM021700 11005KT P6SM FEW250
KSAV,TAF COR KSAV 011759Z 0118/0218 24011KT P6SM FEW040 FM012300 VRB03KT P6SM FEW060 FM020300 33005KT P6SM FEW035
KSAW,KSAW 012107Z 0121/0218 02009KT P6SM SCT007 TEMPO 0121/0201 BKN007 FM020700 06006KT P6SM SCT035 FM021000 VRB04KT P6SM BKN025
KSBA,KSBA 011745Z 0118/0218 09005KT P6SM OVC029 FM011930 24007KT P6SM SCT035 FM020300 VRB03KT P6SM OVC015 FM021100 08002KT P6SM OVC020
KSBD,KSBD 011737Z 0118/0218 VRB04KT 4SM HZ SCT020 FM012100 25010KT P6SM SKC FM020400 VRB04KT P6SM SKC FM020900 VRB03KT P6SM BKN012 FM021700 VRB04KT P6SM SCT015
KSBM,KSBM 012056Z 0121/0218 04008KT P6SM SKC FM020400 05005KT P6SM SCT050 BKN100 FM021500 06009KT P6SM SCT100
KSBN,KSBN 011720Z 0118/0218 03010KT P6SM SKC FM012300 04005KT P6SM SKC
KSBP,KSBP 012100Z 0121/0218 28003KT P6SM OVC019 FM020200 30007KT P6SM OVC012 FM020800 29004KT P6SM OVC007
KSBY,KSBY 011720Z 0118/0218 09010KT P6SM OVC007 FM020000 09005KT P6SM BKN010 FM020200 09004KT P6SM OVC020 FM020400 07004KT 5SM BR BKN012 FM020900 01005KT 4SM BR BKN006 FM021300 03007KT 4SM -RA BR OVC005
KSCK,KSCK 011721Z 0118/0218 32008KT P6SM SKC
KSDF,KSDF 011721Z 0118/0224 36012G20KT P6SM SKC FM020000 36008KT P6SM SKC FM021600 02011G19KT P6SM FEW100
KSDL,KSDL 011720Z 0118/0218 VRB03KT P6SM SKC FM012000 21007KT P6SM FEW120 FEW250 FM020400 VRB04KT P6SM FEW080 SCT120 SCT250
KSDY,KSDY 011721Z 0118/0218 07013G20KT 5SM -RA OVC013 FM012100 05013G22KT P6SM VCSH SCT040 OVC090 FM020800 VRB06KT P6SM SCT060 BKN090
KSEA,KSEA 012053Z 0121/0224 35012KT P6SM SKC FM020200 01008KT P6SM FEW250 FM021500 02003KT P6SM FEW250
KSEZ,KSEZ 011720Z 0118/0218 20007KT P6SM VCSH SCT180 FM020400 04006KT P6SM FEW200
KSFB,KSFB 011739Z 0118/0218 VRB05KT P6SM FEW040 FM021400 30007KT P6SM SKC
KSFF,KSFF 011726Z 0118/0218 VRB04KT P6SM SCT010 FM020900 20002KT P6SM BCFG SCT005 SCT200 FM021300 VRB03KT P6SM SKC
KSFO,KSFO 012053Z 0121/0224 28010KT P6SM FEW009 FM012200 28012G22KT P6SM SKC FM020300 28012KT P6SM SCT010 FM020800 28007KT P6SM BKN008 FM021900 29012KT P6SM SCT010
KSGF,KSGF 011720Z 0118/0218 01006KT P6SM SKC FM021200 10006KT P6SM SKC
KSGJ,KSGJ 011733Z 0118/0218 25010KT P6SM SKC FM012100 14007KT P6SM SKC FM020500 VRB04KT P6SM SKC FM021500 29007KT P6SM SKC
KSGR,KSGR 011720Z 0118/0218 07005KT P6SM SKC FM012200 11005KT P6SM SKC FM020100 VRB03KT P6SM SKC
KSGU,KSGU 011732Z 0118/0218 26010KT P6SM SKC FM020300 13004KT P6SM BKN070 FM020600 12005KT P6SM VCSH FEW050 BKN070
KSHR,KSHR 011739Z 0118/0218 31008KT P6SM BKN012 FM020000 31008KT P6SM -RA SCT008 OVC018 FM021000 00000KT P6SM BKN040
KSHV,KSHV 011726Z 0118/0218 02007KT P6SM SKC FM020100 VRB03KT P6SM SKC FM021500 05007KT P6SM SKC
KSJC,KSJC 011729Z 0118/0218 32010KT P6SM SCT010 TEMPO 0118/0119 BKN010 FM020400 29008KT P6SM SKC FM020900 VRB03KT P6SM BKN010 FM021745 31007KT P6SM SCT010
KSJS,KSJS 011735Z 0118/0218 35005KT 5SM -DZ BR OVC008
KSJT,KSJT 011720Z 0118/0218 11008KT P6SM SKC FM020300 VRB05KT P6SM SKC
KSKA,TAF KSKA 011900Z 0119/0301 06008KT 9999 FEW140 QNH3002INS WND VRB03KT AFT 0101 TX21/0122Z TN10/0212Z
KSKF,TAF KSKF 011018Z 0118/0300 13005KT 9999 SKC QNH3002INS BECMG 0200/0201 09007KT 9999 SKC QNH2994INS WND 02005KT AFT 0210 BECMG 0218/0219 09006KT 9999 SKC QNH3005INS TX33/0122Z TN16/0210Z
KSLC,KSLC 012107Z 0121/0224 33009KT P6SM FEW060 SCT200 FM020700 14004KT P6SM FEW130 BKN200 FM021700 33009KT P6SM SCT150 SCT250
KSLE,KSLE 011720Z 0118/0218 02008KT P6SM SKC FM020000 02010G18KT P6SM SKC FM020300 02006KT P6SM SKC FM020800 VRB04KT P6SM SKC
KSLI,TAF KSLI 012100Z 0121/0303 VRB06KT 9999 SKC QNH2981INS BECMG 0210/0211 VRB06KT 9999 BKN017 BKN024 QNH2989INS BECMG 0218/0219 VRB06KT 9999 SCT018 QNH2987INS TX24/0223Z TN17/0214Z
KSLK,KSLK 011720Z 0118/0218 VRB03KT P6SM BKN200 FM020100 05009KT P6SM BKN025 FM020400 05010G16KT P6SM BKN140 FM021500 05011G20KT P6SM FEW250
KSLN,KSLN 011738Z 0118/0218 15011KT P6SM FEW250 FM020000 13007KT P6SM FEW250
KSME,KSME 011735Z 0118/0218 02004KT P6SM BKN040 FM020600 02004KT P6SM BKN025
KSMF,KSMF 011721Z 0118/0218 VRB04KT P6SM SKC FM020000 21009KT P6SM SKC FM020700 15006KT P6SM SKC
KSMN,KSMN 011728Z 0118/0218 02003KT P6SM VCSH OVC050 FM012200 03007KT 6SM -SHRA SCT040 OVC050
KSMO,KSMO 011745Z 0118/0218 15006KT P6SM OVC024 FM011900 23010KT P6SM SCT025 FM020300 VRB03KT P6SM OVC018 FM020900 VRB03KT P6SM OVC025
KSMX,KSMX 012102Z 0121/0218 31009KT P6SM BKN023 FM012200 30008KT P6SM SCT025 FM020200 31006KT P6SM BKN012 FM020400 VRB03KT 6SM BR OVC007 FM020800 31003KT 4SM BR OVC004
KSNA,KSNA 011737Z 0118/0218 VRB04KT P6SM BKN025 FM011900 21009KT P6SM SCT025 FM020330 VRB04KT P6SM BKN022
KSNS,KSNS 012043Z 0121/0218 30010KT P6SM BKN015 FM012130 30010KT P6SM SCT015 FM020100 29008KT P6SM BKN008 FM020400 VRB03KT 4SM BR OVC004 FM021600 29005KT 6SM BR OVC006
KSNY,KSNY 011728Z 0118/0218 01007KT P6SM SCT240 FM012300 12009KT P6SM BKN220 FM020100 16009KT P6SM VCTS BKN180CB FM020200 23009KT P6SM VCTS BKN180CB FM020300 27009KT P6SM VCTS OVC100CB FM020500 15008KT P6SM VCTS BKN070CB
KSOA,KSOA 011720Z 0118/0218 13008KT P6SM SKC FM020300 VRB05KT P6SM SKC
KSPI,KSPI 011726Z 0118/0218 03009KT P6SM SKC
KSPS,KSPS 011720Z 0118/0218 14008KT P6SM SKC
KSRQ,KSRQ 011729Z 0118/0218 31005KT P6SM FEW050 FM012300 32007KT P6SM FEW050 FM020200 VRB03KT P6SM FEW250 FM021600 31007KT P6SM FEW250
KSSC,TAF KSSC 011500Z 0115/0221 21009KT 9999 OVC050 QNH2979INS BECMG 0120/0121 26006KT 9999 SCT030 OVC060 QNH2979INS BECMG 0207/0208 35006KT 8000 BR FEW020 BKN040 QNH2986INS BECMG 0217/0218 35010G15KT 9999 NSW BKN030 OVC050 QNH2991INS TX23/0121Z TN13/0211Z LAST NO AMDS AFT 0115 NEXT 0123
KSSF,KSSF 011720Z 0118/0218 10006KT P6SM SKC FM020600 VRB02KT P6SM FEW250
KSSI,KSSI 011733Z 0118/0218 25010KT P6SM SKC FM012000 20009KT P6SM SKC FM020500 24006KT P6SM SKC FM021500 31008KT P6SM SKC
KSTC,KSTC 011720Z 0118/0218 11005KT P6SM BKN120 FM021500 14010KT P6SM BKN220
KSTJ,KSTJ 011727Z 0118/0218 13008KT P6SM FEW250
KSTL,KSTL 012055Z 0121/0224 04005KT P6SM SKC
KSTS,KSTS 012044Z 0121/0218 16005KT P6SM BKN010 FM012130 16007KT P6SM SCT010 FM012200 18010KT P6SM SKC FM020400 19005KT 6SM BR BKN008 FM020600 VRB03KT 2SM BR OVC004 FM021745 VRB03KT 5SM BR SCT005
KSUA,KSUA 011739Z 0118/0218 05007KT P6SM SCT040 FM011900 07009KT P6SM VCSH SCT050 FM020200 VRB03KT P6SM SCT060 FM021400 33007KT P6SM SCT050 AMD NOT SKED
KSUN,KSUN 011722Z 0118/0224 13008KT P6SM OVC120 FM020100 31008KT P6SM VCSH SCT030 BKN060 FM020600 31006KT P6SM SCT030 BKN060 FM021800 13009KT P6SM SCT100 BKN200
KSUS,KSUS 011720Z 0118/0218 03007KT P6SM SKC FM020000 VRB03KT P6SM SKC TEMPO 0208/0212 2SM BR
KSUU,TAF KSUU 011900Z 0119/0301 23015G25KT 9999 SKC QNH2975INS BECMG 0206/0207 23010G15KT 9999 SKC QNH2981INS TX28/0121Z TN15/0210Z
KSUX,KSUX 011720Z 0118/0218 15012G22KT P6SM FEW250 FM020200 12008KT P6SM SCT180 FM020900 13005KT P6SM SCT180 FM021500 15010G17KT P6SM FEW200
KSVN,TAF KSVN 011200Z 0112/0218 30006KT 9999 SKC QNH2979INS BECMG 0113/0114 24010G15KT 9999 BKN040 QNH2977INS BECMG 0122/0123 33006KT 9999 BKN040 QNH2989INS TX27/0121Z TN15/0208Z
KSWF,KSWF 012006Z 0120/0224 04011KT P6SM SCT040 OVC050 FM020000 05011KT P6SM OVC030 FM020500 05012KT P6SM VCSH BKN035 FM021300 06009KT P6SM VCSH OVC030 FM021800 05011G17KT P6SM VCSH OVC035
KSWO,KSWO 011720Z 0118/0218 11006KT P6SM FEW250
KSYM,KSYM 011735Z 0118/0218 02008G15KT 6SM -DZ OVC025 FM012000 03007KT P6SM BKN080 OVC150 FM012300 01006KT P6SM OVC040 FM020600 36007KT P6SM OVC025 FM021500 36008G15KT P6SM OVC015
KSYR,KSYR 011721Z 0118/0218 03007KT P6SM SCT120 BKN200 FM021500 04007G12KT P6SM BKN250
KTBN,TAF KTBN 302100Z 3021/0203 VRB06KT 9999 SKC QNH3009INS TX21/0121Z TN08/0112Z LAST NO AMNDS AFT 01/03Z NEXT 03/13Z
KTCC,KTCC 011732Z 0118/0218 18013G23KT P6SM SCT120 FM020200 17008KT P6SM FEW100 SCT250
KTCL,KTCL 011815Z 0118/0218 01006G12KT P6SM SKC FM020200 36003KT P6SM SKC FM021600 36007KT P6SM SKC
KTCM,TAF KTCM 012100Z 0121/0303 01006KT 9999 SKC QNH2993INS BECMG 0214/0215 05006KT 9999 SKC QNH2996INS BECMG 0302/0303 02006KT 9999SKC QNH2997INS TX24/0123Z TN10/0214Z
KTCS,KTCS 011724Z 0118/0218 17009KT P6SM SCT100 BKN250 FM021200 34006KT P6SM BKN250
KTEB,KTEB 012006Z 0120/0224 02006KT 5SM -RA BR OVC008 FM012200 02007KT P6SM VCSH OVC015 FM020300 02009KT P6SM VCSH OVC025 FM021500 03010G17KT 6SM BR VCSH OVC015 FM021700 03010G17KT 5SM BR VCSH OVC025 FM021900 03011G18KT 6SM BR VCSH OVC035
KTEX,KTEX 012016Z 0120/0218 27005KT P6SM VCTS FEW045CB BKN060 TEMPO 0122/0124 5SM -TSRA BKN040CB BKN070 FM020000 27004KT P6SM VCSH SCT050 BKN090 FM020900 13003KT P6SM -SHRA OVC050
KTIK,TAF KTIK 010900Z 0109/0215 VRB06KT 9999 SKC QNH2999INS TX29/0121Z TN12/0112Z
KTIX,KTIX 011739Z 0118/0218 VRB05KT P6SM FEW030 FM021400 30007KT P6SM SKC
KTLH,KTLH 011722Z 0118/0218 29009KT P6SM SKC FM020200 VRB03KT P6SM SKC FM021400 34004KT P6SM SKC
KTMB,KTMB 012107Z 0121/0218 VRB05KT P6SM SCT035 BKN050 FM020000 VRB02KT P6SM FEW030 SCT250 FM021300 33005KT P6SM FEW030 SCT250
KTOI,KTOI 011720Z 0118/0218 31008KT P6SM SKC FM020200 VRB04KT P6SM SKC FM021500 34008KT P6SM FEW100 AMD NOT SKED
KTOL,KTOL 011720Z 0118/0218 04014KT P6SM SCT200 FM021300 03011KT P6SM SCT025 FM021600 04013KT P6SM FEW040
KTOP,KTOP 011737Z 0118/0218 11007KT P6SM SCT150
KTPA,KTPA 012034Z 0121/0224 28006KT P6SM FEW040 FM012200 33007KT P6SM SCT050 FM020300 VRB03KT P6SM SKC FM021500 33005KT P6SM SKC FM021800 28008KT P6SM FEW250
KTPH,KTPH 011735Z 0118/0218 VRB06KT P6SM SKC FM020300 36009KT P6SM SKC FM021600 VRB06KT P6SM SKC
KTRI,KTRI 011938Z 0120/0218 30005KT 5SM -RA OVC015 FM020000 27005KT 5SM BR OVC009 FM020700 VRB03KT 2SM BR OVC004 FM021400 33005KT 6SM BR OVC015
KTRK,KTRK 011720Z 0118/0218 32006KT P6SM SKC FM020300 VRB02KT P6SM SKC
KTRM,KTRM 011737Z 0118/0218 VRB04KT P6SM SKC FM012000 14011KT P6SM SKC FM020200 33006KT P6SM SKC
KTTD,KTTD 011720Z 0118/0218 09007KT P6SM SKC FM012000 07013G24KT P6SM SKC FM020000 07010G18KT P6SM SKC FM020100 07007KT P6SM SKC
KTTN,KTTN 012105Z 0121/0218 05011KT P6SM VCSH OVC008 FM020500 04010KT P6SM OVC015 FM021100 04013G25KT P6SM VCSH OVC025 FM021600 05013G25KT 2SM -RA BR OVC025
KTUL,KTUL 011720Z 0118/0218 11006KT P6SM SKC
KTUP,KTUP 011728Z 0118/0218 36011KT P6SM SKC FM020000 02004KT P6SM SKC FM021500 04013G20KT P6SM SKC
KTUS,KTUS 011734Z 0118/0218 17006KT P6SM FEW090 FM012300 20008KT P6SM VCSH SCT090 BKN140 FM020200 18007KT P6SM SCT090 BKN140 FM020500 15007KT P6SM SCT140 SCT200
KTVC,KTVC 011729Z 0118/0218 03007KT P6SM SKC FM020300 06005KT P6SM SKC
KTVF,KTVF 011720Z 0118/0218 10009KT P6SM BKN150 FM012100 10010KT P6SM VCSH OVC200 FM020500 11007KT P6SM OVC090 FM021300 12009KT P6SM BKN100 FM021700 14012KT P6SM BKN200
KTVL,KTVL 011720Z 0118/0218 03007G13KT P6SM SKC FM020100 VRB04KT P6SM SKC
KTWF,KTWF 011720Z 0118/0218 03006KT P6SM FEW080 FM020400 15006KT P6SM BKN150 FM020800 16009KT P6SM SKC
KTXK,KTXK 011726Z 0118/0218 03005KT P6SM SKC FM020100 VRB03KT P6SM SKC FM021500 05006KT P6SM SKC
KTYR,KTYR 011726Z 0118/0218 06005KT P6SM SKC FM020100 VRB03KT P6SM SKC FM021500 07006KT P6SM SKC
KTYS,KTYS 011937Z 0120/0218 36012G18KT P6SM OVC025 FM012100 36012KT P6SM BKN035 FM020500 36006KT P6SM BKN025
KUAO,KUAO 011720Z 0118/0218 02011G19KT P6SM SKC FM012100 06011G21KT P6SM SKC FM020100 04009KT P6SM SKC FM020700 36008KT P6SM SKC FM021500 VRB04KT P6SM SKC
KUES,KUES 012056Z 0121/0218 05007KT P6SM SKC FM020200 03004KT P6SM FEW030 SCT250 FM021500 07007KT P6SM BKN045
KUIN,KUIN 011720Z 0118/0218 06008KT P6SM SKC
KUKI,KUKI 011737Z 0118/0218 VRB03KT P6SM FEW300 FM012100 17006KT P6SM SCT300 FM020200 30004KT P6SM SKC FM020800 VRB03KT P6SM SCT005
KUNV,KUNV 012119Z 0121/0218 02008G14KT 3SM -RA SCT015 OVC025 TEMPO 0121/0201 2SM RA BR FM020100 03008KT 3SM -RA BR OVC015 FM021500 03008G14KT 3SM -RA BR OVC015
KUTS,KUTS 011720Z 0118/0218 VRB03KT P6SM SKC
KVBG,TAF KVBG 302200Z 3022/0204 32009KT 8000 BR OVC008 QNH2990INS TEMPO 3022/3024 SCT008 BECMG 3023/3024 32009KT 8000 BR BKN005 QNH2988INS TEMPO 0100/0102 BKN007 BECMG 0101/0102 34009KT 4800 BR OVC003 QNH2990INS BECMG 0103/0104 VRB06KT 3200 BR OVC002 QNH2993INS BECMG 0106/0107 VRB06KT 0400 -DZ FG VV001 QNH2996INS BECMG 0115/0116 VRB06KT 3200 BR OVC003 QNH3000INS TEMPO 0116/0117 0800 -DZ FG VV002 BECMG 0116/0117 35009KT 6000 BR OVC004 QNH2999INS BECMG 0117/0118 33009KT 9999 NSW OVC005 QNH2996INS BECMG 0119/0120 32009KT 9999 OVC008 QNH2994INS BECMG 0120/0121 32009KT 8000 BR OVC012 QNH2988INS TEMPO 0200/0202 BKN009 BECMG 0201/0202 34009KT 4800 BR OVC005 QNH2990INS BECMG 0203/0204 VRB06KT 3200 BR OVC002 QNH2993INS TX17/0121Z TN13/0114Z LAST NO AMDS AFT 0100 NEXT 0114
KVCT,KVCT 011721Z 0118/0218 09007KT P6SM SKC FM020200 VRB03KT P6SM SKC FM021600 08007KT P6SM SKC
KVEL,KVEL 011809Z 0118/0218 14005KT P6SM SCT035 BKN050 TEMPO 0118/0119 BKN024 OVC040 FM012200 06004KT P6SM VCTS FEW080CB SCT110 FM020300 32004KT P6SM SCT250 FM021200 35003KT P6SM VCSH FEW080 BKN110
KVGT,KVGT 011720Z 0118/0218 13008KT P6SM FEW150 FM012300 19009G16KT P6SM FEW150 FM020200 23007KT P6SM SKC FM020800 VRB05KT P6SM SKC
KVIS,KVIS 011720Z 0118/0218 VRB06KT P6SM SKC
KVLD,KVLD 011722Z 0118/0218 28009KT P6SM SKC FM020200 VRB03KT P6SM SKC FM021400 32006KT P6SM SKC
KVNY,KVNY 011745Z 0118/0218 VRB04KT P6SM SCT024 FM011830 15010KT P6SM SKC FM020300 VRB03KT P6SM SKC FM020800 VRB03KT P6SM OVC015 FM021100 VRB03KT P6SM OVC020
KVOK,TAF AMD KVOK 011329Z 0113/0215 VRB06KT 9999 FEW100 BKN200 QNH3018INS BECMG 0209/0210 VRB06KT 8000 BR BKN005 OVC100 QNH3031INS TX18/0120Z TN01/0113Z LAST NO AMDS AFT 0113 NEXT 0309
KVPS,TAF KVPS 011700Z 0117/0223 30012G18KT 9999 SKC QNH2982INS WND 36008KT AFT 0202 BECMG 0215/0216 34010G15KT 9999 SKC QNH2990INS TX29/0119Z TN14/0212Z
KVQQ,KVQQ 011733Z 0118/0218 26008KT P6SM SKC FM012300 22002KT P6SM SKC FM021500 29007KT P6SM SKC
KVRB,KVRB 011739Z 0118/0218 04010KT P6SM SCT040 FM020000 VRB03KT P6SM SCT060 FM021400 31007KT P6SM FEW050
KVTN,KVTN 011725Z 0118/0218 18012KT P6SM SCT250 FM012000 17015KT P6SM SCT250 FM012300 15015KT P6SM SCT250 FM020500 17014KT P6SM BKN200 WS020/18045KT FM021200 17009KT P6SM BKN100 FM021700 18014KT P6SM BKN150
KWJF,KWJF 011745Z 0118/0218 00000KT P6SM SKC FM012000 22008KT P6SM SKC FM012200 24015G20KT P6SM SKC FM020400 27008KT P6SM SKC
KWMC,KWMC 011735Z 0118/0218 VRB05KT P6SM SKC
KWRB,TAF KWRB 011600Z 0116/0222 30010G15KT 9999 SCT045 SCT150 QNH2982INS TEMPO 0117/0123 31012G20KT BECMG 0123/0124 33009KT 9999 SCT025 BKN045 QNH2985INS BECMG 0212/0213 35006KT 9999 BKN030 QNH2995INS TX27/0120Z TN12/0211Z
KWRI,TAF AMD KWRI 011210Z 0121/0224 03010G15KT 4800 BR OVC006 QNH2987INS TEMPO 0121/0123 9999 NSW OVC004 BECMG 0210/0211 04015G30KT 9000 -SHRA VCTS OVC007CB QNH2993INS BECMG 0218/0219 03015G25KT 4800 -RA BKN015 OVC080 QNH3002INS TX16/0121Z TN13/0210Z
KWRL,KWRL 011730Z 0118/0218 30005KT P6SM OVC035 FM012100 VRB04KT P6SM -SHRA SCT030 BKN080 TEMPO 0121/0201 3SM -TSRA OVC025CB FM020200 VRB05KT P6SM SCT040 BKN050
KWWR,KWWR 011720Z 0118/0218 17010KT P6SM FEW250
KWYS,KWYS 011758Z 0118/0218 VRB03KT P6SM SCT060 BKN100 TEMPO 0123/0203 6SM -SHRA BR BKN030 FM020300 VRB05KT P6SM -SHRA SCT020 BKN050 PROB30 0206/0212 4SM -RA BR BKN007
KXNA,KXNA 011720Z 0118/0218 06005KT P6SM SKC
KXWA,KXWA 011933Z 0120/0218 08012KT P6SM VCSH FEW010 OVC100 TEMPO 0120/0123 -SHRA BKN015 FM020100 07012G20KT P6SM VCSH OVC050 FM021100 06009KT P6SM BKN040 FM021700 09010KT P6SM BKN025
KYIP,KYIP 011728Z 0118/0218 02012G20KT P6SM BKN250 FM012200 03012KT P6SM FEW100 SCT250 FM020800 03010KT P6SM SCT020 FM021500 03011G18KT P6SM SKC
KYKM,KYKM 011720Z 0118/0218 28005KT P6SM SKC FM012000 06007KT P6SM SCT250 FM020400 27008KT P6SM SKC
KYNG,KYNG 011720Z 0118/0218 02009KT P6SM SCT080 OVC120 FM021000 04012KT P6SM BKN025 FM021500 04013G21KT P6SM BKN035 FM021700 04012G20KT P6SM SCT040
KZZV,KZZV 011904Z 0119/0218 02010KT P6SM -RA OVC040 FM020500 02006KT P6SM VCSH OVC045 FM020700 02007KT P6SM OVC035 FM021000 02007KT P6SM BKN030
LATI,TAF LATI 011700Z 0118/0218 14008KT 9999 -RA SCT030 OVC050 TX26/0212Z TN16/0204Z PROB40 TEMPO 0118/0122 VRB10G20KT 4000 TSRA SCT020CB OVC040 BECMG 0123/0201 NSW SCT060 PROB30 0201/0206 1200 BCFG BECMG 0210/0212 34012KT CAVOK
LBBG,TAF LBBG 011700Z 0118/0218 07010KT 9999 SCT045 BECMG 0118/0120 25008KT BECMG 0202/0204 32016KT TEMPO 0204/0207 32018G28KT 3000 TSRA FEW015 SCT030CB BKN040 TEMPO 0208/0214 30020G30KT
LBGO,TAF LBGO 011700Z 0118/0218 25008KT 9999 SCT060 TEMPO 0121/0204 4000 RA BKN015 OVC030 PROB40 0122/0202 VRB16G26KT 2000 +TSRA FEW015 SCT025CB OVC050 BECMG 0204/0206 30018KT TEMPO 0206/0215 30025G35KT
LBPD,TAF LBPD 011700Z 0118/0218 09008KT 9999 SCT070 BECMG 0121/0123 28018KT TEMPO 0123/0205 5000 RA BKN030 BKN050 PROB40 0201/0203 3000 +TSRA FEW015 SCT030CB OVC050 TEMPO 0205/0215 28025G35KT
LBSF,TAF LBSF 011700Z 0118/0218 28014KT 9999 SCT020 BKN050 TEMPO 0118/0202 VRB16G30KT 3000 TSRA SCT010 SCT020CB BKN030 TEMPO 0202/0214 29020G32KT
LBWN,TAF LBWN 011700Z 0118/0218 11012KT 9999 SCT045 BECMG 0118/0120 VRB04KT BECMG 0200/0202 30016KT TEMPO 0200/0208 4000 RA SCT030 BKN040 PROB40 0202/0206 30018G30KT 2000 +TSRA FEW015 SCT030CB BKN040 TEMPO 0208/0214 30020G32KT
LCEN,TAF LCEN 011640Z 0118/0218 28015KT CAVOK
LCLK,TAF LCLK 011730Z 0118/0218 30007KT CAVOK BECMG 0208/0211 18013KT BECMG 0216/0218 28006KT
LCPH,TAF LCPH 011730Z 0118/0218 36007KT CAVOK BECMG 0208/0212 27010KT BECMG 0216/0218 33007KT
LCRA,TAF LCRA 011922Z 0121/0215 27005KT CAVOK PROB40 TEMPO 0121/0203 05005KT BECMG 0203/0206 06005KT BECMG 0209/0212 25010KT
LDDU,TAF LDDU 011725Z 0118/0218 34008KT 9999 FEW040 TX23/0211Z TN15/0201Z PROB30 TEMPO 0118/0121 TSRA FEW030CB BKN040 BECMG 0208/0210 29010KT BECMG 0216/0218 02008KT
LDLO,TAF LDLO 011125Z 0112/0212 30010KT CAVOK TX22/0211Z TN17/0204Z BECMG 0209/0211 20008KT
LDOS,TAF LDOS 011725Z 0118/0218 19007KT CAVOK TX22/0213Z TN12/0205Z BECMG 0118/0120 29008KT PROB30 TEMPO 0122/0202 32012KT SHRA FEW050TCU BECMG 0200/0202 30005KT
LDPL,TAF LDPL 011725Z 0118/0218 VRB02KT CAVOK TX21/0212Z TN13/0204Z PROB30 TEMPO 0202/0207 4000 BR MIFG BECMG 0209/0211 23008KT BECMG 0212/0214 17006KT
LDRI,TAF LDRI 011725Z 0118/0218 20006KT CAVOK TX23/0212Z TN13/0204Z BECMG 0212/0214 14006KT
LDSB,TAF LDSB 011125Z 0112/0212 20010KT 0050 FG VV001 TX22/0211Z TN14/0203Z PROB30 TEMPO 0112/0116 1500 TSRA BKN010 FEW015CB BECMG 0115/0117 32012KT CAVOK BECMG 0210/0212 26010KT
LDSP,TAF LDSP 011725Z 0118/0218 33007KT CAVOK TX24/0213Z TN16/0204Z BECMG 0210/0212 23010KT BECMG 0215/0217 30006KT
LDZA,TAF LDZA 011725Z 0118/0218 25005KT CAVOK TX21/0213Z TN11/0205Z
LDZD,TAF LDZD 011725Z 0118/0218 30005KT CAVOK TX23/0211Z TN10/0204Z PROB30 TEMPO 0203/0207 1200 BCFG BECMG 0210/0212 27009KT BECMG 0215/0217 VRB02KT
LEAB,TAF LEAB 011700Z 0118/0218 VRB04KT CAVOK TX27/0215Z TN08/0206Z BECMG 0118/0120 15007KT PROB30 TEMPO 0203/0206 3000 BR BKN006
LEAL,TAF LEAL 011700Z 0118/0218 16010KT 9999 FEW030 TX26/0212Z TN15/0206Z BECMG 0118/0120 33006KT BECMG 0208/0210 09010KT
LEAM,TAF LEAM 011700Z 0118/0218 09010KT CAVOK TX29/0214Z TN17/0206Z BECMG 0119/0122 34012KT BECMG 0208/0211 07015KT
LEAO,TAF LEAO 012000Z 0121/0221 05006KT CAVOK TX30/0215Z TN06/0206Z BECMG 0219/0220 VRB04KT
LEAS,TAF COR LEAS 012052Z 0121/0221 20005KT 9999 FEW015 BKN025 TX26/0215Z TN13/0206Z PROB40 TEMPO 0121/0207 3000 BR BKN010 PROB30 TEMPO 0209/0213 30010KT BKN010 PROB40 TEMPO 0213/0219 05010KT
LEBA,TAF LEBA 011400Z 0115/0215 07010KT CAVOK TX29/0115Z TN12/0206Z BECMG 0119/0121 29005KT BECMG 0201/0204 08010KT
LEBB,TAF AMD LEBB 012011Z 0120/0218 VRB03KT 9999 FEW025 TX23/0214Z TN12/0206Z PROB30 TEMPO 0122/0207 3000 BR BCFG BKN002 BECMG 0208/0210 33009KT PROB30 TEMPO 0210/0214 BKN010
LEBG,TAF LEBG 012000Z 0121/0221 VRB04KT CAVOK TX26/0215Z TN05/0206Z PROB30 TEMPO 0202/0206 3000 BR BKN004 PROB30 TEMPO 0203/0212 20007KT BECMG 0217/0218 03008KT
LEBL,TAF LEBL 011700Z 0118/0218 25010KT 9999 FEW025 TX25/0213Z TN15/0206Z BECMG 0121/0123 34008KT TEMPO 0203/0207 34010G20KT BECMG 0207/0209 23014KT
LEBZ,TAF LEBZ 012000Z 0121/0221 VRB03KT CAVOK TX32/0215Z TN12/0206Z BECMG 0207/0209 08010KT
LECO,TAF LECO 012000Z 0121/0221 16005KT 9999 BKN020 TX22/0214Z TN11/0206Z TEMPO 0121/0209 3000 BR BKN010 PROB40 TEMPO 0123/0208 0350 FG VV002 TEMPO 0212/0219 35010KT
LECV,TAF LECV 011700Z 0118/0218 VRB04KT CAVOK TX23/0215Z TN11/0206Z BECMG 0121/0122 02007KT
LEGE,TAF LEGE 011700Z 0118/0218 18010KT 9999 FEW040 TX27/0213Z TN12/0206Z BECMG 0118/0120 VRB03KT BECMG 0212/0214 04008KT
LEGR,TAF LEGR 011700Z 0118/0218 VRB02KT CAVOK TX33/0214Z TN09/0206Z TEMPO 0118/0119 16010KT BECMG 0211/0213 15015KT
LEGT,TAF LEGT 011700Z 0118/0218 VRB04KT CAVOK TX29/0215Z TN10/0206Z BECMG 0121/0122 02007KT
LEHC,TAF LEHC 011400Z 0115/0215 28010KT 9999 FEW030 TX27/0214Z TN13/0205Z BECMG 0118/0120 VRB03KT BECMG 0208/0210 18008KT
LEIB,TAF LEIB 012000Z 0121/0221 18005KT 9999 FEW025 TX25/0212Z TN18/0205Z BECMG 0207/0209 12007KT
LEJR,TAF LEJR 012000Z 0121/0221 VRB02KT CAVOK TX30/0215Z TN13/0206Z BECMG 0207/0209 11014KT TEMPO 0209/0215 11022G32KT
LELC,TAF LELC 011700Z 0118/0218 12010KT 9999 FEW040 TX25/0212Z TN16/0206Z BECMG 0121/0123 06005KT BECMG 0202/0204 35010KT
LELL,TAF LELL 011400Z 0115/0215 24007KT 9999 FEW030 TX29/0213Z TN14/0205Z TEMPO 0115/0118 18008KT BECMG 0207/0209 24010KT
LELN,TAF LELN 012000Z 0121/0221 VRB04KT 9999 FEW040 TX25/0215Z TN04/0206Z BECMG 0218/0219 03006KT
LELO,TAF LELO 012000Z 0121/0221 VRB05KT CAVOK TX29/0215Z TN08/0206Z PROB30 TEMPO 0203/0207 3000 BR BKN008
LEMD,TAF LEMD 011700Z 0118/0224 VRB04KT CAVOK TX30/0215Z TN09/0206Z BECMG 0121/0122 02007KT
LEMG,TAF LEMG 011700Z 0118/0218 11007KT CAVOK TX24/0212Z TN16/0206Z BECMG 0119/0121 VRB02KT TEMPO 0204/0207 29006KT BECMG 0209/0211 12008KT
LEMH,TAF LEMH 012000Z 0121/0221 34005KT 9999 FEW025 TX27/0212Z TN17/0205Z BECMG 0207/0209 24010KT BECMG 0218/0220 VRB03KT
LEMO,TAF LEMO 012000Z 0121/0221 11012KT CAVOK TX30/0214Z TN10/0206Z BECMG 0200/0202 05010KT BECMG 0209/0211 13012KT
LEPA,TAF LEPA 011700Z 0118/0218 23007KT 9999 FEW025 TX26/0212Z TN14/0206Z BECMG 0122/0124 05004KT BECMG 0210/0212 22010KT
LEPP,TAF LEPP 012000Z 0121/0221 VRB03KT CAVOK TX27/0215Z TN08/0206Z PROB30 TEMPO 0200/0207 1500 BCFG BKN005 PROB40 TEMPO 0210/0215 19010KT TEMPO 0215/0220 33010KT
LERI,TAF LERI 011700Z 0118/0218 VRB02KT 9999 FEW035 TX28/0214Z TN12/0207Z TEMPO 0118/0119 15010KT BECMG 0212/0214 09010KT
LERL,TAF LERL 011400Z 0115/0215 04006KT CAVOK TX30/0215Z TN06/0206Z
LERS,TAF LERS 012000Z 0121/0221 VRB03KT 9999 FEW040 TX27/0212Z TN14/0205Z BECMG 0207/0209 22010KT BECMG 0218/0220 VRB03KT
LERT,TAF LERT 012000Z 0121/0221 11013KT CAVOK TX29/0214Z TN14/0206Z BECMG 0203/0205 03008KT BECMG 0207/0209 11020KT TEMPO 0209/0214 11020G30KT
LESA,TAF LESA 012000Z 0121/0221 VRB04KT CAVOK TX28/0215Z TN05/0206Z
LESO,TAF LESO 011700Z 0118/0218 VRB03KT CAVOK TX24/0213Z TN14/0206Z PROB40 TEMPO 0211/0216 36010KT PROB30 TEMPO 0213/0215 BKN010
LEST,TAF LEST 011700Z 0118/0218 VRB03KT 9999 FEW020 TX23/0214Z TN11/0205Z PROB40 TEMPO 0119/0122 BKN010 TEMPO 0122/0210 3000 BR BKN010 PROB40 TEMPO 0122/0209 0350 FG VV001 PROB40 TEMPO 0210/0218 01010KT
LESU,TAF LESU 011400Z 0115/0215 VRB05KT 9999 FEW050 TX28/0214Z TN09/0205Z TEMPO 0115/0118 22008KT TEMPO 0212/0215 22008KT
LETO,TAF LETO 011700Z 0118/0218 VRB04KT CAVOK TX29/0215Z TN07/0206Z BECMG 0121/0122 02007KT
LEVC,TAF LEVC 011700Z 0118/0218 12010KT 9999 FEW025 TX27/0213Z TN14/0206Z BECMG 0118/0120 30006KT BECMG 0208/0210 11010KT
LEVD,TAF LEVD 012000Z 0121/0221 VRB04KT CAVOK TX27/0215Z TN07/0206Z PROB40 TEMPO 0219/0221 05010KT
LEVS,TAF LEVS 011700Z 0118/0218 VRB04KT CAVOK TX28/0215Z TN11/0206Z BECMG 0121/0122 02007KT
LEVT,TAF LEVT 011700Z 0118/0218 VRB03KT 9999 FEW020 TX26/0214Z TN06/0206Z PROB40 TEMPO 0118/0120 04010KT TEMPO 0120/0209 3000 BR BKN005 TEMPO 0123/0208 0350 FG VV001 PROB30 TEMPO 0211/0213 22010KT TEMPO 0213/0218 02011KT
LEVX,TAF AMD LEVX 012024Z 0120/0218 VRB03KT CAVOK TX26/0214Z TN11/0206Z PROB40 TEMPO 0122/0208 3000 BR BKN010 PROB40 TEMPO 0123/0207 0350 FG VV001 PROB30 TEMPO 0212/0218 36010KT
LEXJ,TAF LEXJ 012000Z 0121/0221 22005KT 9999 FEW030 TX22/0215Z TN14/0206Z PROB30 TEMPO 0209/0214 BKN010 PROB30 TEMPO 0210/0213 33010KT PROB30 TEMPO 0213/0218 03010KT
LEZG,TAF LEZG 011700Z 0118/0218 27008KT 9999 FEW050 TX29/0214Z TN12/0206Z BECMG 0118/0120 VRB03KT BECMG 0208/0211 09010KT
LEZL,TAF LEZL 012000Z 0121/0221 13005KT CAVOK TX33/0215Z TN16/0206Z BECMG 0122/0124 06012KT BECMG 0211/0213 12010KT
LFAQ,TAF LFAQ 011400Z 0115/0124 24016KT 9999 BKN020 TEMPO 0115/0124 27015G25KT 2000 SHRA SCT018 BKN025CB
LFAT,TAF LFAT 011400Z 0115/0124 28012KT 9999 SCT024 BKN072 TEMPO 0115/0120 28015G25KT PROB30 TEMPO 0120/0124 28015G25KT 2000 SHRA SCT014 BKN020CB
LFBA,TAF AMD LFBA 011830Z 0118/0124 28006KT 9999 OVC030 BECMG 0120/0123 BKN013 BECMG 0119/0121 VRB03KT BKN006 PROB30 TEMPO 0122/0124 4000 BR BKN003
LFBC,TAF LFBC 012000Z 0121/0221 22004KT CAVOK PROB40 0122/0209 3000 BR PROB30 TEMPO 0202/0208 0600 FG VV/// BECMG 0211/0213 SCT025 BECMG 0214/0216 31008KT
LFBD,TAF LFBD 011700Z 0118/0224 24007KT 9999 BKN020 TX23/0214Z TN14/0300Z PROB30 TEMPO 0118/0120 BKN008 PROB40 0122/0209 3000 BR PROB30 TEMPO 0200/0208 0500 FG VV/// BECMG 0211/0213 SCT025 BECMG 0214/0216 31005KT
LFBE,TAF LFBE 011100Z 0112/0212 23010KT 9999 OVC030 TEMPO 0112/0123 4000 RA OVC013 PROB30 TEMPO 0112/0119 2000 DZRA OVC008 PROB40 0200/0210 3000 BR BKN005
LFBH,TAF LFBH 011700Z 0118/0218 25014KT 9999 BKN007 TEMPO 0118/0124 3000 -DZ BKN004 BECMG 0200/0202 BKN020 TEMPO 0202/0208 BKN013
LFBI,TAF LFBI 011700Z 0118/0218 24012KT 9999 BKN006 TEMPO 0118/0205 2500 -RA BKN003 BECMG 0208/0210 BKN020
LFBL,TAF LFBL 011700Z 0118/0218 23010KT 7000 OVC008 TEMPO 0118/0206 1200 DZRA OVC002 BECMG 0122/0124 23005KT PROB40 0200/0206 0500 FG VV/// BECMG 0206/0208 BKN015 BECMG 0209/0211 24010KT SCT025
LFBO,TAF LFBO 011700Z 0118/0224 28010KT 9999 SCT040 BECMG 0119/0121 VRB03KT TEMPO 0121/0124 CAVOK BECMG 0200/0202 BKN008 TEMPO 0202/0210 4000 BR PROB40 TEMPO 0203/0209 0600 FG VV/// BECMG 0210/0212 SCT014 BECMG 0213/0215 CAVOK PROB30 TEMPO 0220/0224 4000 BR
LFBP,TAF LFBP 011700Z 0118/0218 VRB02KT CAVOK TEMPO 0120/0208 3000 BR PROB30 TEMPO 0202/0207 0600 FG VV/// BECMG 0210/0212 06006KT
LFBT,TAF LFBT 011700Z 0118/0218 30008KT CAVOK BECMG 0119/0121 18004KT PROB30 TEMPO 0201/0207 3000 BR BECMG 0210/0212 05006KT
LFBU,TAF LFBU 011700Z 0118/0218 23010KT 7000 OVC010 PROB40 TEMPO 0118/0124 2000 DZ OVC003 BECMG 0200/0202 20005KT PROB40 TEMPO 0200/0208 3000 BR BKN003 PROB40 0202/0208 0500 FG VV/// BECMG 0208/0210 SCT020
LFBZ,TAF LFBZ 011700Z 0118/0218 20005KT CAVOK BECMG 0122/0124 10005KT PROB40 0200/0209 3000 BR PROB30 0203/0208 0500 FG VV/// BECMG 0214/0216 34005KT
LFCK,TAF LFCK 011700Z 0118/0203 31005KT 9999 SCT030 BKN040 PROB30 TEMPO 0119/0123 4000 -RADZ BKN013 BECMG 0123/0201 BKN014 PROB30 TEMPO 0201/0203 4000 BR
LFCR,TAF LFCR 011700Z 0118/0218 25010KT 9999 BKN006 TEMPO 0118/0121 2000 -RADZ OVC003 BECMG 0119/0121 29004KT TEMPO 0121/0203 0500 -DZ FG VV/// TEMPO 0203/0208 0300 FG VV/// TEMPO 0208/0210 3000 BR OVC002 BECMG 0210/0212 BKN014 BECMG 0213/0215 CAVOK
LFGJ,TAF AMD LFGJ 011512Z 0115/0124 20012KT 9999 BKN030 TEMPO 0115/0121 4000 -RADZ BKN005
LFJL,TAF LFJL 011700Z 0118/0218 24012KT 9999 BKN035 TEMPO 0118/0122 26015G25KT 4000 SHRA FEW030CB BECMG 0203/0206 -RA PROB40 TEMPO 0206/0218 3000 RA BKN008 SCT020TCU BECMG 0209/0212 30005KT
LFKB,TAF LFKB 012000Z 0121/0221 24004KT 9999 FEW050 TX26/0213Z TN14/0204Z BECMG 0209/0211 12008KT BECMG 0219/0221 24004KT
LFKC,TAF LFKC 011400Z 0115/0215 20020G30KT CAVOK TX26/0214Z TN19/0204Z TEMPO 0119/0122 BKN020 BECMG 0122/0124 20015KT BECMG 0205/0207 21020G30KT
LFKF,TAF LFKF 011400Z 0115/0215 27020KT 9999 FEW050 TEMPO 0115/0123 28025G35KT BECMG 0123/0201 26015G25KT TEMPO 0204/0209 BKN020
LFKJ,TAF LFKJ 012000Z 0121/0221 05005KT 9999 FEW018 BKN025 BECMG 0209/0212 30010KT CAVOK BECMG 0216/0218 30005KT BECMG 0218/0220 05005KT
LFKS,TAF LFKS 011400Z 0115/0215 27007KT CAVOK TEMPO 0115/0119 27015G30KT
LFLB,TAF LFLB 011400Z 0115/0215 19008KT 9999 FEW009 BKN030 TEMPO 0115/0123 6000 -RA PROB30 TEMPO 0123/0206 1500 BCFG BECMG 0208/0210 34005KT
LFLC,TAF LFLC 011700Z 0118/0218 26010KT 9999 BKN043 BECMG 0121/0123 17005KT BECMG 0208/0210 28010KT CAVOK
LFLL,TAF LFLL 011700Z 0118/0224 17007KT 9999 BKN045 PROB30 TEMPO 0121/0201 3000 DZ BECMG 0212/0214 36007KT FEW030
LFLN,TAF LFLN 011700Z 0118/0203 20008KT 9999 BKN030 TEMPO 0118/0203 4000 -RADZ BKN008
LFLP,TAF LFLP 011400Z 0115/0215 21005KT 9999 FEW010 BKN033 TEMPO 0115/0117 4000 RA BKN010 TEMPO 0117/0122 -RA
LFLS,TAF LFLS 011400Z 0115/0215 09006KT 9999 FEW010 BKN050 PROB40 TEMPO 0121/0124 -RA BECMG 0208/0210 VRB03KT
LFLW,TAF LFLW 011400Z 0115/0124 22006KT 9999 OVC015 TEMPO 0115/0124 3000 DZ OVC004 PROB40 TEMPO 0115/0124 0600 FG VV///
LFLX,TAF LFLX 011700Z 0118/0224 25012KT 9999 BKN012 TEMPO 0118/0210 4000 -RA BKN008 PROB40 TEMPO 0120/0208 2500 -RADZ BKN004 PROB30 TEMPO 0122/0205 1200 BKN002 BECMG 0210/0211 BKN020
LFLY,TAF LFLY 011700Z 0118/0218 17007KT 9999 BKN045 PROB30 TEMPO 0121/0201 3000 DZ BECMG 0212/0214 36007KT FEW030
LFMD,TAF AMD LFMD 011912Z 0119/0215 25015KT CAVOK TEMPO 0119/0122 27020G30KT BECMG 0122/0124 VRB03KT
LFMI,TAF LFMI 012000Z 0121/0221 30012KT CAVOK TX27/0214Z TN14/0204Z
LFMK,TAF LFMK 011400Z 0115/0215 28014KT 9999 SCT045 BKN060 TEMPO 0118/0122 BKN030 BECMG 0122/0124 26006KT CAVOK PROB30 TEMPO 0204/0209 4000 BR BKN003
LFML,TAF LFML 012000Z 0121/0303 28008KT CAVOK TX25/0214Z TN14/0204Z BECMG 0300/0302 34015G30KT
LFMN,TAF LFMN 012000Z 0121/0303 34010KT CAVOK TEMPO 0121/0124 10010KT PROB30 TEMPO 0205/0209 BKN014 BECMG 0206/0208 VRB05KT BECMG 0210/0212 10010KT BECMG 0216/0218 VRB03KT TEMPO 0218/0303 BKN014 BECMG 0221/0223 34010KT
LFMO,TAF LFMO 012000Z 0121/0221 VRB02KT CAVOK BECMG 0218/0220 34015KT
LFMP,TAF LFMP 011400Z 0115/0215 07010KT CAVOK BECMG 0115/0117 32010KT BECMG 0121/0123 VRB03KT BECMG 0212/0214 14005KT
LFMT,TAF AMD LFMT 012033Z 0121/0221 28008KT CAVOK BECMG 0212/0214 30012KT BECMG 0219/0221 30004KT
LFMU,TAF LFMU 011400Z 0115/0215 29015G25KT CAVOK BECMG 0117/0119 28005KT BECMG 0213/0215 20010KT
LFMV,TAF LFMV 011400Z 0115/0215 VRB04KT CAVOK
LFOB,TAF LFOB 011700Z 0118/0218 26010KT 9999 SCT030 BKN080 FM020700 VRB04KT 9999 SCT013 OVC020 TEMPO 0207/0218 1500 RADZ BKN003 OVC013
LFOE,TAF LFOE 012000Z 0121/0221 24008KT 4500 -RA BKN020 BKN030 BECMG 0202/0204 BKN010 OVC025 TEMPO 0204/0209 2000 RADZ OVC008 BECMG 0209/0211 9999 NSW BKN015 TEMPO 0212/0219 4000 -SHRA BKN020TCU
LFOH,TAF LFOH 011100Z 0112/0212 26018KT 9999 BKN019 TEMPO 0112/0116 25017G27KT 3000 SHRA BKN020TCU TEMPO 0116/0119 25015G25KT PROB40 TEMPO 0202/0212 2000 RA BKN003 OVC006
LFOJ,TAF LFOJ 012000Z 0121/0221 22012KT 9999 SCT035 BKN050 TX21/0214Z TN11/0205Z TEMPO 0201/0207 4000 -RADZ BKN006 OVC012 PROB40 TEMPO 0201/0207 2000 RADZ BKN003 BECMG 0207/0209 SCT013 BKN030
LFOK,TAF LFOK 011700Z 0118/0218 24008KT CAVOK BECMG 0123/0202 BKN007 OVC030 PROB40 0200/0204 1200 BR OVC002 TEMPO 0204/0210 1500 RADZ OVC002 BECMG 0210/0212 BKN020 TEMPO 0214/0217 2000 SHRA BKN008 BKN020CB FM021700 04008KT 8000 OVC013 TEMPO 0217/0218 1500 RADZ OVC003
LFOP,TAF LFOP 011700Z 0118/0218 26010KT 9999 SCT030 BKN080 FM020500 VRB04KT 9999 SCT013 OVC020 TEMPO 0205/0218 1500 RADZ BKN003 OVC013
LFOT,TAF LFOT 011700Z 0118/0218 26012KT 9999 BKN012 TEMPO 0118/0209 4000 -RA BKN009 PROB40 TEMPO 0120/0206 2500 -RADZ BKN004 PROB30 TEMPO 0122/0202 1200 BKN002 BECMG 0209/0211 BKN020
LFPB,TAF LFPB 011700Z 0118/0218 27015KT 9999 FEW046 BKN070 TEMPO 0202/0209 BKN012 PROB40 TEMPO 0202/0208 3000 RA BKN008 BECMG 0211/0213 SCT020TCU PROB40 TEMPO 0214/0217 3000 -TSRA SCT015CB BECMG 0216/0218 04005KT
LFPG,TAF AMD LFPG 011804Z 0118/0224 27015KT CAVOK TX20/0213Z TN13/0224Z TEMPO 0202/0209 BKN012 PROB40 TEMPO 0202/0208 3000 RA BKN008 BECMG 0211/0213 SCT020TCU PROB40 TEMPO 0214/0217 3000 -TSRA SCT015CB BECMG 0216/0218 04005KT BECMG 0219/0221 BKN020
LFPN,TAF LFPN 011700Z 0118/0203 26012KT CAVOK BECMG 0201/0203 3000 -RADZ BKN004
LFPO,TAF LFPO 011700Z 0118/0224 27010KT 9999 SCT040 BECMG 0123/0201 BKN013 TEMPO 0202/0205 3000 -RA BKN006 BECMG 0209/0211 BKN020 TEMPO 0212/0218 4000 -SHRA BKN008 SCT020TCU
LFPV,TAF LFPV 012000Z 0121/0221 26008G18KT 9999 SCT040 TX19/0215Z TN14/0205Z BECMG 0122/0124 RA BECMG 0201/0203 NSW BKN003 OVC011 BECMG 0203/0205 BKN010 BECMG 0205/0207 SCT013 SCT040 BECMG 0213/0215 1700 -RA BKN030TCU BECMG 0216/0218 CAVOK
LFQQ,TAF LFQQ 011700Z 0118/0224 23010KT 9999 SCT030 BKN080 PROB30 TEMPO 0200/0203 3000 SHRA BKN030TCU PROB30 TEMPO 0203/0207 4000 -RA BKN007 BKN100 FM020700 VRB03KT 9999 SCT015 BKN080
LFRB,TAF LFRB 011700Z 0118/0224 24010KT 9999 OVC007 TEMPO 0118/0208 1200 RADZ OVC002 PROB40 TEMPO 0118/0121 25015G25KT BECMG 0207/0209 24015G25KT TEMPO 0208/0213 3000 RADZ OVC004 BECMG 0213/0215 36015G25KT BKN012 TEMPO 0213/0224 BKN007 BECMG 0218/0220 03010KT
LFRC,TAF LFRC 011400Z 0115/0124 27015G30KT 9999 BKN020 PROB40 TEMPO 0118/0124 4000 RA BKN009 BECMG 0118/0120 26012KT
LFRD,TAF LFRD 011700Z 0118/0218 VRB05KT 9999 BKN030 BECMG 0119/0121 24010KT BKN010 TEMPO 0120/0210 3000 DZ OVC004 BECMG 0209/0211 BKN020 TEMPO 0210/0218 4000 SHRA BKN015TCU TEMPO 0210/0214 23015G25KT BECMG 0216/0218 VRB05KT BKN012
LFRG,TAF LFRG 011400Z 0115/0124 27015G30KT 9999 BKN030 BECMG 0116/0118 25010KT PROB40 TEMPO 0119/0124 BKN012
LFRH,TAF LFRH 011700Z 0118/0218 25010KT 9999 BKN003 OVC007 TEMPO 0118/0211 3000 RADZ BR OVC001 TEMPO 0118/0208 0700 FG VV/// TEMPO 0212/0217 25015G25KT
LFRI,TAF LFRI 011700Z 0118/0218 26010KT 9999 BKN006 TEMPO 0118/0204 2000 -RA BKN003 BECMG 0210/0212 BKN020
LFRK,TAF LFRK 011400Z 0115/0124 27015G30KT 9999 BKN030 BECMG 0116/0118 25010KT PROB40 TEMPO 0119/0124 BKN012
LFRM,TAF LFRM 011700Z 0118/0218 25010KT CAVOK BECMG 0119/0121 BKN007 TEMPO 0123/0204 4500 -RA BKN004 BECMG 0210/0212 BKN020
LFRN,TAF LFRN 011700Z 0118/0218 25010KT 9999 BKN030 BECMG 0119/0121 BKN010 TEMPO 0120/0210 3000 DZ OVC004 BECMG 0209/0211 BKN020 TEMPO 0211/0214 24015G25KT PROB40 TEMPO 0213/0218 4000 SHRA BKN015TCU BECMG 0216/0218 VRB05KT BKN012
LFRQ,TAF AMD LFRQ 011902Z 0119/0218 25010KT 9999 OVC007 TEMPO 0119/0208 1200 RADZ OVC002 PROB40 TEMPO 0119/0206 0800 FG VV/// TEMPO 0208/0214 24015G25KT 3000 RADZ OVC004 BECMG 0214/0216 33010KT BKN012 TEMPO 0214/0218 BKN007
LFRS,TAF AMD LFRS 011729Z 0118/0224 25010KT 9999 BKN006 TEMPO 0118/0203 3000 -RA BKN003 BECMG 0209/0211 BKN025 TEMPO 0211/0216 BKN014 BECMG 0220/0222 VRB03KT TEMPO 0222/0224 BKN005
LFRZ,TAF AMD LFRZ 011731Z 0118/0218 25012KT 9999 BKN007 TEMPO 0118/0202 3000 -RA BKN004 BECMG 0207/0209 BKN020 TEMPO 0209/0215 BKN014
LFSB,TAF LFSB 011700Z 0118/0218 24008KT 9999 FEW025 BKN040 PROB30 TEMPO 0118/0122 25015G25KT -SHRA FEW025TCU TEMPO 0202/0210 4000 RA PROB40 TEMPO 0210/0218 4000 SHRA BKN014 SCT030TCU
LFSI,TAF LFSI 012000Z 0121/0221 21012KT CAVOK BECMG 0123/0202 BKN010 OVC030 PROB40 0200/0204 2000 BR OVC003 TEMPO 0204/0210 1500 RADZ OVC002 BECMG 0210/0212 BKN020 TEMPO 0212/0217 4000 SHRA BKN008 BKN020TCU FM021800 03005KT 4000 RADZ OVC010 TEMPO 0217/0219 2000 RADZ 
LFSL,TAF LFSL 011400Z 0115/0124 22010KT 5000 -RA OVC010 PROB40 TEMPO 0115/0124 2000 DZRA OVC004
LFST,TAF LFST 011700Z 0118/0218 22010KT 9999 BKN030 TEMPO 0118/0124 25015G25KT 4000 SHRA FEW030CB TEMPO 0205/0218 -RA PROB40 TEMPO 0206/0218 4000 RA SCT025TCU BECMG 0212/0215 32008KT
LFTH,TAF LFTH 012000Z 0121/0221 25018KT CAVOK BECMG 0123/0201 31012KT TEMPO 0206/0213 26015G30KT
LFTW,TAF LFTW 011400Z 0115/0215 28012KT CAVOK
LFVP,TAF LFVP 011700Z 0118/0203 25020KT 9999 FEW012 BECMG 0123/0202 29015KT
LGAD,TAF LGAD 012000Z 0121/0206 18017KT 9999 SCT025 BKN080 PROB30 TEMPO 0121/0124 5000 RA BECMG 0122/0124 30018KT
LGAL,TAF LGAL 012000Z 0121/0206 VRB05KT 9999 FEW020 BECMG 0123/0201 26010KT BECMG 0204/0206 34010KT PROB30 TEMPO 0202/0206 5000 RA FEW018TCU SCT025 BKN050
LGAV,TAF LGAV 011700Z 0118/0218 20010KT 9999 FEW020 BECMG 0201/0203 27012KT TEMPO 0203/0206 27012G22KT BECMG 0207/0209 01015KT
LGBL,TAF LGBL 012000Z 0121/0206 28012KT 9999 SCT025 BKN080 PROB30 TEMPO 0121/0124 30015G25KT 5000 RA TEMPO 0200/0203 30015G25KT
LGEL,TAF LGEL 011700Z 0118/0218 16010KT 9999 FEW020 BECMG 0200/0202 29012KT TEMPO 0203/0212 27015G28KT BECMG 0213/0215 36012KT
LGHI,TAF LGHI 012000Z 0121/0206 21012KT 9999 FEW020 BECMG 0204/0206 31010KT TEMPO 0200/0205 SCT020 BKN060 PROB30 TEMPO 0202/0206 5000 RA FEW018TCU SCT020 BKN060
LGIO,TAF LGIO 012000Z 0121/0206 VRB03KT 9999 SCT025 BKN080 TEMPO 0121/0203 6000 SHRA FEW020TCU SCT025 BKN070 PROB40 TEMPO 0121/0124 3000 TSRA FEW008 FEW018CB BKN025 BKN070 PROB40 0203/0206 0300 FG BKN002
LGIR,TAF LGIR 011700Z 0118/0218 VRB05KT 9999 FEW010 BECMG 0119/0121 19010KT BECMG 0203/0205 29015KT TEMPO 0206/0212 30020G30KT
LGKC,TAF LGKC 012000Z 0121/0206 24010KT 9999 FEW015 TEMPO 0200/0206 27018G28KT
LGKF,TAF LGKF 012000Z 0121/0206 31016KT 9999 SCT014 SCT025 BKN070 TEMPO 0122/0206 31020G30KT PROB30 TEMPO 0203/0206 5000 RA FEW018TCU BKN025 BKN070
LGKL,TAF LGKL 012000Z 0121/0206 34008KT 9999 SCT025 BKN080
LGKO,TAF LGKO 011700Z 0118/0218 31012KT 9999 FEW020 BECMG 0121/0123 24015KT TEMPO 0212/0218 32016G26KT
LGKP,TAF LGKP 012000Z 0121/0206 32015KT 9999 FEW025
LGKR,TAF LGKR 011700Z 0118/0218 17012KT 9999 FEW020 BECMG 0118/0120 33014KT PROB40 TEMPO 0118/0203 5000 RA FEW010 SCT018TCU BKN025 PROB40 TEMPO 0118/0200 3000 TSRA FEW010 SCT018CB BKN025 TEMPO 0200/0218 33018G28KT
LGKV,TAF LGKV 011700Z 0118/0218 VRB03KT 9999 FEW030 BECMG 0122/0124 SCT025 BKN080 PROB40 TEMPO 0200/0205 3000 TSRA FEW015CB BKN025 BKN080 BECMG 0204/0206 30015KT FEW030
LGLM,TAF LGLM 012000Z 0121/0206 17015KT 9999 FEW025 TEMPO 0121/0203 18015G25KT PROB30 TEMPO 0200/0206 5000 RA BKN020 BECMG 0204/0206 30015G25KT
LGLR,TAF LGLR 012000Z 0121/0206 25012KT 9999 SCT025 BKN080 PROB30 TEMPO 0121/0124 25014G24KT 5000 RA TEMPO 0200/0203 30015G25KT
LGMK,TAF LGMK 012000Z 0121/0206 20017KT 9999 FEW018 BECMG 0121/0123 20016G26KT BECMG 0202/0204 28016G26KT
LGMT,TAF LGMT 012000Z 0121/0206 17014KT 9999 FEW020 BECMG 0201/0203 22012G22KT PROB30 TEMPO 0202/0206 5000 RA FEW018TCU SCT020 BKN040
LGPZ,TAF LGPZ 011700Z 0118/0218 17010KT 9999 FEW018 BECMG 0118/0120 27015KT PROB40 TEMPO 0118/0206 5000 RA SCT018TCU BKN025 BKN070 PROB30 TEMPO 0118/0200 3000 TSRA FEW010 SCT018CB BKN025 BKN070 TEMPO 0120/0203 29015G25KT
LGRP,TAF LGRP 011700Z 0118/0218 28014KT 9999 FEW020 TEMPO 0212/0218 29016G26KT
LGRX,TAF LGRX 012000Z 0121/0206 19015KT 9999 SCT025 BKN080 PROB30 TEMPO 0121/0124 5000 RA BECMG 0122/0124 30018KT
LGSA,TAF LGSA 011700Z 0118/0218 24010KT 9999 FEW015 TEMPO 0200/0212 27016G26KT
LGSK,TAF LGSK 012000Z 0121/0206 20016KT 9999 FEW018 SCT060 BECMG 0121/0123 20016G26KT BECMG 0124/0202 28016G26KT
LGSM,TAF LGSM 012000Z 0121/0206 VRB05KT 9999 FEW020 BECMG 0121/0123 21010KT TEMPO 0202/0206 FEW020 SCT060
LGSR,TAF LGSR 011700Z 0118/0218 22010KT 9999 FEW015 BECMG 0204/0206 27018G28KT BECMG 0210/0212 30016KT
LGST,TAF LGST 012000Z 0121/0206 VRB05KT 9999 FEW020 BECMG 0204/0206 29016G26KT
LGSY,TAF LGSY 012000Z 0121/0206 17015KT 9999 FEW025 TEMPO 0121/0203 18015G25KT PROB30 TEMPO 0200/0203 5000 RA BKN020 BECMG 0204/0206 30020G30KT
LGTG,TAF LGTG 012000Z 0121/0206 30010KT 9999 FEW025 TEMPO 0121/0203 30015G25KT SCT025 BKN070
LGTL,TAF LGTL 012000Z 0121/0206 18008KT 9999 FEW025
LGTS,TAF LGTS 011700Z 0118/0218 34010KT 9999 SCT025 PROB40 TEMPO 0121/0124 3000 TSRA FEW015CB BKN025 BECMG 0200/0202 34015G30KT FEW030
LGZA,TAF LGZA 012000Z 0121/0206 30016KT 9999 FEW018 SCT025 BKN070 TEMPO 0122/0206 31018G28KT
LHBP,TAF LHBP 011715Z 0118/0218 30009KT 9999 SCT020TCU SCT045 BKN200 BECMG 0118/0121 CAVOK TEMPO 0122/0206 29014G25KT SCT030 SCT150 BECMG 0206/0209 29014G25KT SCT030 BECMG 0209/0211 BKN043 TEMPO 0211/0218 -SHRA SCT030TCU SCT050 BECMG 0215/0218 27008KT CAVOK
LHDC,TAF LHDC 012015Z 0121/0206 27012KT 9999 FEW010 TEMPO 0121/0123 -RA -SHRA BKN010 BKN080 PROB40 TEMPO 0121/0206 BKN004 BECMG 0203/0206 27007KT
LHKE,TAF LHKE 012015Z 0121/0206 28010KT CAVOK TEMPO 0121/0122 6000 -SHRA -RA BKN030 BKN060 TEMPO 0121/0202 30012G22KT TEMPO 0203/0206 9999 SCT030
LHPA,TAF AMD LHPA 012019Z 0120/0218 24006KT 8000 SCT040 SCT083 TEMPO 0120/0206 VRB03KT 2000 BR MIFG BCFG NSC PROB40 TEMPO 0120/0206 0500 FG BKN002 BECMG 0205/0208 29009KT CAVOK TEMPO 0208/0215 30012G22KT 8000 -RA -SHRA BKN033 BKN050
LHPP,TAF LHPP 011415Z 0115/0124 24008KT 9999 FEW015 SCT025 BECMG 0115/0118 CAVOK TEMPO 0115/0122 8000 SHRA BKN015 SCT030TCU BKN060 PROB40 TEMPO 0116/0121 VRB16G30KT 4000 TSRA BKN030CB BECMG 0117/0120 30011KT BECMG 0120/0123 24005KT PROB30 TEMPO 0121/0124 4000 BR
LHPR,TAF LHPR 011715Z 0118/0203 27006KT CAVOK TEMPO 0118/0124 29012G22KT 5000 SHRA SCT030TCU BKN050 TEMPO 0121/0203 28012KT
LHSN,TAF LHSN 012015Z 0121/0206 28007KT 9999 BKN040 TEMPO 0121/0123 32009KT 6000 SHRA SCT030TCU BKN040 BECMG 0123/0202 27013KT CAVOK
LIBA,TAF LIBA 012000Z 0121/0206 27010KT 9999 FEW030 BECMG 0122/0123 CAVOK
LIBC,TAF LIBC 011100Z 0112/0212 VRB07KT 9999 FEW020
LIBD,TAF LIBD 011700Z 0118/0218 29012KT 9999 SCT040 TEMPO 0118/0120 4000 TSRA BECMG 0208/0210 03010KT BECMG 0216/0218 VRB05KT
LIBF,TAF LIBF 011700Z 0118/0218 25018G30KT 9999 SCT040 BECMG 0118/0120 VRB05KT
LIBG,TAF LIBG 011400Z 0115/0124 18008KT 9999 SCT040 TEMPO 0115/0120 TSRA BECMG 0118/0120 34012KT
LIBP,TAF LIBP 011700Z 0118/0218 03010KT 9999 BKN040 BECMG 0118/0120 24012KT BECMG 0200/0202 VRB05KT
LIBR,TAF LIBR 011700Z 0118/0218 33015KT 9999 SCT040 TEMPO 0118/0121 4000 TSRA
LIBV,TAF LIBV 012000Z 0121/0206 33010KT CAVOK
LICA,TAF LICA 011700Z 0118/0218 28022G32KT 9999 SCT020 TEMPO 0118/0121 SHRA BECMG 0122/0124 28014KT BECMG 0216/0218 VRB05KT
LICB,TAF LICB 011700Z 0118/0218 34012KT CAVOK BECMG 0200/0202 VRB05KT BECMG 0210/0212 26010KT BECMG 0216/0218 VRB05KT
LICC,TAF LICC 011700Z 0118/0218 26014KT CAVOK BECMG 0120/0122 VRB05KT BECMG 0209/0211 09010KT BECMG 0216/0218 VRB05KT
LICD,TAF LICD 011700Z 0118/0218 34020G30KT 9999 SCT020 BECMG 0120/0122 34018KT
LICG,TAF LICG 011400Z 0115/0124 34018G28KT 9999 FEW020
LICJ,TAF LICJ 011700Z 0118/0218 31015KT 9999 SCT040 BECMG 0204/0206 31005KT BECMG 0210/0212 01010KT
LICR,TAF LICR 011700Z 0118/0218 35018G30KT 9999 SCT030 TEMPO 0118/0121 4000 SHRA TEMPO 0210/0215 SHRA
LICT,TAF LICT 012000Z 0121/0206 33010KT 9999 FEW025
LICZ,TAF LICZ 011700Z 0118/0218 29013KT 9999 FEW025 BECMG 0201/0203 27006KT CAVOK BECMG 0208/0210 10010KT
LIEA,TAF LIEA 011700Z 0118/0218 29012KT 9999 SCT030 BECMG 0120/0122 VRB05KT BECMG 0206/0208 29013KT BECMG 0216/0218 VRB05KT
LIED,TAF LIED 012000Z 0121/0206 30005KT 9999 SCT030
LIEE,TAF LIEE 011700Z 0118/0218 30010KT 9999 SCT040 BECMG 0206/0208 34018G28KT BECMG 0216/0218 34008KT
LIEO,TAF LIEO 011700Z 0118/0218 28020G30KT CAVOK BECMG 0122/0124 28016KT BECMG 0207/0209 28020G30KT BECMG 0214/0216 26014KT
LIMC,TAF LIMC 011700Z 0118/0224 VRB05KT CAVOK
LIME,TAF LIME 011700Z 0118/0218 26010KT 9999 SCT030 BECMG 0118/0120 34007KT BECMG 0207/0209 15010KT
LIMF,TAF LIMF 011700Z 0118/0218 VRB05KT CAVOK TEMPO 0123/0206 3000 BR
LIMG,TAF LIMG 011100Z 0112/0212 VRB06KT 9999 SCT040
LIMJ,TAF LIMJ 011700Z 0118/0218 16010KT 9999 FEW030 BECMG 0120/0122 01007KT BECMG 0208/0210 14010KT
LIML,TAF LIML 011700Z 0118/0218 28010KT CAVOK BECMG 0118/0120 VRB05KT PROB30 TEMPO 0202/0206 3000 BR
LIMP,TAF LIMP 011700Z 0118/0218 29010KT CAVOK BECMG 0120/0122 VRB05KT TEMPO 0200/0206 3000 BR
LIMW,TAF LIMW 011400Z 0115/0124 27012KT 9999 SCT070 TEMPO 0115/0121 4000 RA
LIMZ,TAF LIMZ 011700Z 0118/0218 VRB05KT CAVOK TEMPO 0200/0206 1500 BR
LIPA,TAF LIPA 011700Z 0118/0203 03005KT 9999 SCT030 SCT080
LIPB,TAF LIPB 011700Z 0118/0218 VRB05KT 9999 SCT050
LIPC,TAF LIPC 012000Z 0121/0206 30008KT CAVOK
LIPE,TAF LIPE 011700Z 0118/0218 VRB05KT CAVOK
LIPH,TAF LIPH 011700Z 0118/0218 25010KT 9999 FEW030 BECMG 0118/0120 VRB05KT
LIPK,TAF LIPK 011700Z 0118/0218 24012KT 9999 FEW025 BECMG 0119/0121 VRB05KT BECMG 0208/0210 24010KT
LIPL,TAF LIPL 012000Z 0121/0206 29007KT CAVOK PROB40 TEMPO 0200/0206 5000 BR SCT010
LIPO,TAF LIPO 011700Z 0118/0218 27012KT CAVOK BECMG 0120/0122 VRB05KT PROB30 TEMPO 0200/0206 3000 BR
LIPQ,TAF LIPQ 011700Z 0118/0218 VRB05KT 9999 SCT030
LIPR,TAF LIPR 011700Z 0118/0218 23008KT 9999 FEW050
LIPS,TAF LIPS 012000Z 0121/0206 27007KT CAVOK PROB30 TEMPO 0200/0206 5000 BR SCT010
LIPX,TAF LIPX 011700Z 0118/0218 26010KT CAVOK BECMG 0120/0122 VRB05KT PROB30 TEMPO 0200/0206 3000 BR BECMG 0208/0210 12010KT
LIPY,TAF LIPY 011700Z 0118/0218 24009KT 9999 FEW030
LIPZ,TAF LIPZ 011700Z 0118/0224 25012KT CAVOK BECMG 0118/0120 VRB05KT
LIRA,TAF LIRA 011700Z 0118/0218 29010KT 9999 FEW030 BECMG 0119/0121 04006KT
LIRE,TAF LIRE 012000Z 0121/0206 VRB05KT CAVOK
LIRF,TAF LIRF 011700Z 0118/0224 33012KT CAVOK BECMG 0121/0123 06007KT BECMG 0212/0214 16010KT BECMG 0220/0222 07008KT
LIRM,TAF LIRM 012000Z 0121/0206 VRB05KT CAVOK
LIRN,TAF LIRN 011700Z 0118/0218 31010KT 9999 FEW030 BECMG 0119/0121 VRB05KT BECMG 0210/0212 26010KT BECMG 0215/0217 VRB04KT
LIRP,TAF LIRP 011700Z 0118/0218 25012KT 9999 SCT030 BECMG 0123/0201 15008KT TEMPO 0204/0206 VRB03KT 5000 BR FEW010 BECMG 0211/0213 25010KT 9999 BKN025
LIRQ,TAF LIRQ 011700Z 0118/0218 26010KT 9999 SCT020 BECMG 0119/0121 VRB05KT
LIRS,TAF LIRS 012000Z 0121/0206 VRB05KT 9999 FEW040
LIRU,TAF LIRU 011400Z 0115/0124 24012KT 9999 FEW020 BECMG 0116/0118 VRB05KT
LIRV,TAF LIRV 011700Z 0118/0203 30010KT 9999 SCT020
LIRZ,TAF LIRZ 011700Z 0118/0218 26010KT 9999 SCT030 BECMG 0118/0120 VRB05KT BECMG 0211/0213 26010KT
LJCE,TAF LJCE 012000Z 0121/0206 26004KT CAVOK PROB40 TEMPO 0203/0206 0300 FG VV002
LJLJ,TAF LJLJ 011700Z 0118/0218 VRB02KT 9999 FEW045 PROB40 0202/0208 0400 FG VV001
LJMB,TAF LJMB 011700Z 0118/0218 VRB02KT 9999 FEW040 PROB30 TEMPO 0202/0207 0400 FG VV001
LJPZ,TAF LJPZ 012000Z 0121/0206 12005KT CAVOK
LKKB,TAF COR LKKB 011700Z 0118/0218 20008KT 9999 BKN035 PROB40 TEMPO 0118/0123 27015G25KT 5000 SHRA BKN015TCU TEMPO 0200/0207 5000 BR BKN005 TEMPO 0210/0218 30010KT 6000 SHRA BKN020
LKKV,TAF LKKV 011700Z 0118/0300 27010KT 7000 BKN015 TEMPO 0118/0209 -SHRA BKN006 PROB30 TEMPO 0118/0207 2500 BR BKN003 TEMPO 0203/0215 27012G25KT TEMPO 0211/0218 2000 SHRA SCT010TCU BKN013
LKMT,TAF LKMT 011700Z 0118/0300 23012KT 9999 BKN030 TEMPO 0118/0123 5000 RA BKN020 PROB30 TEMPO 0118/0123 BKN013 PROB30 TEMPO 0123/0209 -SHRA BKN020 TEMPO 0210/0218 4000 SHRA SCT025TCU
LKNA,TAF LKNA 011700Z 0118/0218 26010KT 9999 BKN030 PROB30 TEMPO 0118/0202 BKN015 TEMPO 0120/0201 SHRA BKN010 BECMG 0202/0204 CAVOK TEMPO 0209/0218 29015KT BKN030 TEMPO 0214/0218 29015G25KT 6000 SHRA SCT030TCU
LKPD,TAF LKPD 011700Z 0118/0218 27010KT 9999 SCT030 PROB40 TEMPO 0118/0122 SHRA BKN022 TEMPO 0209/0212 27012G22KT 7000 SHRA SCT020TCU BKN030
LKPR,TAF LKPR 011700Z 0118/0300 23015KT 9999 SCT035 TEMPO 0118/0121 4000 SHRA BKN030 BECMG 0210/0212 29014KT TEMPO 0210/0218 4000 SHRA SCT025TCU BKN030
LKTB,TAF LKTB 011700Z 0118/0300 27010KT 9999 BKN035 TEMPO 0118/0121 6000 RA BKN025 TEMPO 0211/0218 4000 SHRA SCT035TCU
LLBG,TAF LLBG 011702Z 0118/0218 33006KT CAVOK BECMG 0119/0121 VRB03KT 9999 SCT015 PROB40 0200/0206 14004KT 9000 BKN012 BECMG 0207/0209 28010KT CAVOK TX31/0212Z TN22/0203Z
LLER,TAF LLER 011701Z 0118/0218 36010KT CAVOK PROB40 TEMPO 0118/0119 32015KT TEMPO 0210/0216 02015KT TX37/0212Z TN27/0204Z
LLHA,TAF LLHA 011706Z 0118/0218 32006KT 9999 FEW018 BECMG 0120/0122 VRB04KT PROB40 0122/0206 19006KT BKN013 BECMG 0206/0208 27010KT CAVOK TX30/0212Z TN25/0203Z
LLHZ,TAF LLHZ 011705Z 0118/0218 VRB03KT 9999 SCT012 PROB40 0121/0206 16005KT 8000 BKN010 BECMG 0207/0209 27010KT CAVOK TX29/0212Z TN22/0203Z
LLIB,TAF LLIB 011108Z 0112/0212 33011KT CAVOK BECMG 0118/0120 VRB03KT 9999 FEW014 PROB40 TEMPO 0123/0206 7000 BKN010 BECMG 0206/0208 16007KT CAVOK TX37/0112Z TN24/0203Z
LMML,TAF LMML 011700Z 0118/0218 32015KT 9999 FEW020 BECMG 0115/0118 32020G30KT BECMG 0206/0209 32015KT
LOWG,TAF LOWG 011715Z 0118/0218 VRB04KT 9999 FEW020 SCT040 TX17/0212Z TN09/0205Z TEMPO 0118/0120 -SHRA PROB40 TEMPO 0120/0208 0500 BCFG BKN002
LOWI,TAF LOWI 011715Z 0118/0218 VRB02KT 9999 -RA BKN040 TX16/0214Z TN11/0118Z TEMPO 0118/0207 RA SCT005 BKN012
LOWK,TAF LOWK 011715Z 0118/0218 VRB04KT 9999 FEW050 SCT100 TX18/0213Z TN09/0204Z TEMPO 0118/0121 -SHRA TEMPO 0122/0209 BKN007 PROB30 TEMPO 0122/0202 0500 BCFG
LOWL,TAF LOWL 011715Z 0118/0218 28008KT 9999 -SHRA BKN030 TX14/0211Z TN11/0120Z PROB30 TEMPO 0122/0201 28015G25KT SHRA TEMPO 0212/0218 RA OVC014
LOWS,TAF AMD LOWS 011840Z 0118/0218 32007KT 8000 FEW010 BKN040 TX13/0215Z TN11/0121Z TEMPO 0118/0205 28015KT -RA PROB40 TEMPO 0120/0205 4500 RA TEMPO 0210/0218 RA TEMPO 0214/0218 FEW007 BKN012
LOWW,TAF LOWW 012015Z 0121/0303 28012KT 9999 FEW040 TX18/0212Z TN13/0205Z PROB30 TEMPO 0121/0204 28025G35KT TEMPO 0121/0218 28015G25KT PROB30 TEMPO 0209/0212 SHRA
LOXZ,TAF LOXZ 011415Z 0115/0124 VRB03KT 9999 FEW025 SCT050 BKN150 TEMPO 0115/0124 -SHRA FEW010 BKN040
LPAZ,TAF LPAZ 011700Z 0118/0224 16013KT 9999 SCT020 TEMPO 0118/0224 FEW018 BKN040 BECMG 0210/0212 17018KT
LPBJ,TAF LPBJ 011700Z 0118/0218 09005KT CAVOK
LPCS,TAF LPCS 011400Z 0115/0124 18007KT CAVOK BECMG 0115/0117 35010KT
LPFR,TAF LPFR 011700Z 0118/0218 12008KT CAVOK BECMG 0118/0120 08007KT BECMG 0201/0204 08015KT BECMG 0212/0214 12008KT
LPHR,TAF LPHR 011400Z 0115/0124 17015KT 9999 SCT012 BKN025 PROB40 TEMPO 0115/0124 18018G28KT TEMPO 0118/0124 5000 SHRA SCT006 BKN012 FEW018CB
LPLA,TAF LPLA 011702Z 0118/0218 17016KT 9999 FEW020 SCT030 PROB40 TEMPO 0118/0124 18018G28KT 7000 -SHRA SCT012 BKN020 TEMPO 0209/0218 18018G28KT 5000 SHRA BKN020 FEW025CB PROB30 TEMPO 0214/0218 18022G35KT 3000 TSRA BKN014 SCT022CB
LPMA,TAF LPMA 011700Z 0118/0218 02013KT 9999 SCT015 PROB30 TEMPO 0118/0121 02015G25KT BECMG 0212/0215 VRB02KT
LPMR,TAF LPMR 011700Z 0118/0218 34008KT CAVOK BECMG 0122/0124 06005KT BECMG 0213/0215 35010KT
LPMT,TAF LPMT 011704Z 0118/0218 34006KT CAVOK BECMG 0122/0124 04008KT
LPOV,TAF LPOV 011700Z 0118/0218 34008KT CAVOK BECMG 0119/0121 VRB02KT BECMG 0211/0213 35010KT
LPPD,TAF LPPD 011700Z 0118/0218 17010KT 9999 SCT018 TEMPO 0118/0218 FEW016 BKN040 BECMG 0210/0212 17015KT
LPPR,TAF LPPR 011700Z 0118/0218 33007KT CAVOK BECMG 0118/0120 VRB02KT BECMG 0200/0203 08005KT PROB30 TEMPO 0203/0210 5000 BR SCT006 BECMG 0206/0208 VRB02KT BECMG 0210/0212 33008KT
LPPS,TAF LPPS 011700Z 0118/0224 06013KT 9999 SCT015 PROB30 TEMPO 0118/0212 10013KT BECMG 0215/0218 02007KT
LPPT,TAF LPPT 011700Z 0118/0224 34010KT CAVOK BECMG 0200/0203 04008KT BECMG 0214/0216 VRB05KT BECMG 0218/0220 33008KT
LQBK,TAF LQBK 011700Z 0118/0218 27006KT 9999 SCT030 TX24/0213Z TN10/0204Z PROB30 TEMPO 0203/0205 1200 BCFG
LQMO,TAF LQMO 011700Z 0118/0218 16006KT 9999 FEW035 SCT050 TX25/0213Z TN13/0204Z TEMPO 0120/0122 22015KT 5000 TSRA FEW015 FEW035CB BKN045 PROB30 TEMPO 0202/0206 1200 BCFG
LQSA,TAF AMD LQSA 012113Z 0121/0218 VRB02KT 9999 SCT045 TX21/0214Z TN10/0204Z TEMPO 0121/0200 0350 FG BKN001 PROB40 0122/0209 0600 FG BKN002
LQTZ,TAF AMD LQTZ 012016Z 0120/0218 VRB02KT 2000 BR BKN005 TX26/0213Z TN09/0204Z PROB40 0120/0206 0200 FG BKN002 BECMG 0207/0208 CAVOK
LRAR,TAF LRAR 012000Z 0121/0206 20007KT 9999 SCT040 PROB40 TEMPO 0121/0123 VRB16G26KT 5000 TSRA BKN010 SCT040CB BECMG 0123/0201 30014KT SCT030
LRBC,TAF LRBC 012000Z 0121/0206 19006KT CAVOK TEMPO 0122/0203 29015KT 5000 SHRA SCT015 SCT035CB BECMG 0203/0205 32012KT
LRBO,TAF LRBO 011700Z 0118/0218 30006KT 9999 SCT050 BKN100 PROB40 TEMPO 0123/0203 24016KT 7000 SHRA SCT015 BKN030CB OVC070 BECMG 0205/0207 27012KT SCT090
LRBS,TAF LRBS 011700Z 0118/0218 25008KT CAVOK PROB30 TEMPO 0118/0121 5000 -SHRA SCT040CB TEMPO 0122/0202 5000 -SHRA SCT015 SCT035CB BECMG 0203/0205 31014KT TEMPO 0205/0216 31017G30KT
LRCK,TAF LRCK 011700Z 0118/0218 17012KT CAVOK BECMG 0121/0123 23012KT BECMG 0200/0202 29014KT PROB40 TEMPO 0202/0207 29020G30KT 5000 TSRA SCT010 BKN040CB BECMG 0207/0209 29015G25KT BECMG 0216/0218 32010KT
LRCL,TAF LRCL 012000Z 0121/0206 VRB04KT 9999 SCT025 BKN045 PROB30 TEMPO 0121/0123 VRB15G25KT 5000 SHRA SCT010 BKN035CB TEMPO 0123/0201 5000 -SHRA SCT015 BKN035CB BECMG 0201/0203 30012KT TEMPO 0203/0206 30015G25KT
LRCT,TAF LRCT 011700Z 0118/0218 20010KT 9999 SCT050 BKN080 TEMPO 0118/0122 VRB10G20KT 5000 TSRA SCT020CB OVC050 TEMPO 0122/0201 8000 SHRA SCT015 SCT040CB BECMG 0202/0204 34015KT
LRCV,TAF LRCV 012000Z 0121/0206 19005KT 9999 SCT040 BECMG 0121/0123 28010KT TEMPO 0121/0203 28015G25KT 5000 SHRA SCT015 SCT035CB PROB40 TEMPO 0121/0123 TSRA
LRFT,TAF LRFT 011700Z 0118/0218 22008KT 9999 BKN130 TEMPO 0200/0206 27012G22KT 3000 TSRA BR BKN030CB OVC070 BECMG 0207/0209 29017G27KT SCT080 PROB30 TEMPO 0209/0212 7000 RA
LRIA,TAF LRIA 012000Z 0121/0206 VRB04KT CAVOK BECMG 0121/0123 29012KT TEMPO 0122/0206 5000 SHRA SCT015 SCT035CB PROB40 TEMPO 0202/0206 32020G30KT BECMG 0204/0206 32016G26KT
LROD,TAF AMD LROD 012047Z 0121/0206 18010KT 9999 BKN010 BECMG 0122/0200 28014KT SCT030
LROP,TAF LROP 011700Z 0118/0218 25008KT CAVOK PROB30 TEMPO 0118/0121 5000 -SHRA SCT040CB TEMPO 0122/0202 5000 -SHRA SCT015 SCT035CB BECMG 0203/0205 31014KT TEMPO 0205/0216 31017G30KT
LRSB,TAF LRSB 011700Z 0118/0218 15010KT CAVOK BECMG 0118/0120 5000 -SHRA SCT035CB BKN070 TEMPO 0120/0200 VRB20KT 3000 TSRA BKN010 SCT030CB BKN060 BECMG 0201/0203 32015KT 9999 NSW SCT040 TEMPO 0204/0216 32018G30KT
LRSM,TAF LRSM 011400Z 0115/0200 24010KT 9999 SCT015 SCT040CB TEMPO 0115/0121 VRB15G25KT 3000 TSRA BKN010 BKN030CB BECMG 0121/0123 30015KT SCT040
LRSV,TAF LRSV 012000Z 0121/0206 VRB04KT CAVOK TEMPO 0121/0206 5000 SHRA SCT040CB BECMG 0200/0202 33012KT PROB40 TEMPO 0202/0206 33020G30KT BECMG 0204/0206 33015G25KT
LRTC,TAF LRTC 011400Z 0115/0200 14015KT CAVOK BECMG 0118/0120 23010KT
LRTM,TAF LRTM 011400Z 0115/0200 24007KT CAVOK BECMG 0115/0117 FEW040CB TEMPO 0117/0121 VRB15G25KT 5000 TSRA SCT010 BKN040CB
LRTR,TAF LRTR 011700Z 0118/0218 20009KT 9999 FEW040CB TEMPO 0118/0123 5000 SHRA BKN015 SCT035CB PROB30 TEMPO 0118/0120 VRB16KT -TSRA PROB40 TEMPO 0120/0123 VRB16G26KT 3000 TSRA BKN010 BKN035CB BECMG 0123/0201 30012KT SCT030 PROB40 TEMPO 0208/0212 30015G25KT BECMG 0215/0217 VRB04KT
LRTZ,TAF LRTZ 011700Z 0118/0218 15010KT 9999 BKN070 BKN150 TEMPO 0203/0207 27012KT 4000 TSRA FEW010 BKN030CB OVC060 PROB40 TEMPO 0208/0212 27010G20KT 8000 -SHRA SCT035CB BKN060 BKN100
LSGC,TAF LSGC 011425Z 0115/0124 23010KT 8000 -RA OVC015 TEMPO 0115/0121 2000 RA BKN005
LSGG,TAF LSGG 012025Z 0121/0303 23005KT 9999 SCT010 BKN035 TX20/0214Z TN12/0205Z PROB40 TEMPO 0121/0206 RA SCT005 BKN014
LSGS,TAF LSGS 011425Z 0115/0124 VRB02KT 8000 RA SCT015 OVC060
LSZA,TAF LSZA 011425Z 0115/0124 VRB02KT 9999 FEW035 SCT110 PROB40 0119/0124 CAVOK
LSZB,TAF LSZB 011425Z 0115/0124 32005KT 9999 FEW015 BKN030 TEMPO 0115/0121 4500 RA BKN014 PROB30 TEMPO 0115/0118 24015G25KT
LSZG,TAF AMD LSZG 011823Z 0118/0124 24011KT 3600 -RA OVC004 TEMPO 0118/0120 25015G25KT TEMPO 0118/0124 RA BECMG 0119/0122 5000 BKN010
LSZH,TAF LSZH 012025Z 0121/0303 25010KT 9999 FEW008 SCT012 BKN040 TX19/0214Z TN12/0205Z TEMPO 0121/0210 4000 RA BR BKN014 BECMG 0121/0123 22005KT BECMG 0209/0212 26010KT PROB40 TEMPO 0211/0216 27015G25KT BECMG 0218/0220 24006KT TEMPO 0219/0224 RA BECMG 0222/0301 VRB02KT 4000 BR BKN014
LSZL,TAF AMD LSZL 011906Z 0119/0203 VRB02KT 9999 BKN100 TEMPO 0119/0121 RA BECMG 0121/0124 CAVOK
LSZR,TAF LSZR 011425Z 0115/0124 VRB03KT 9999 FEW020 BKN050 TEMPO 0115/0124 26010KT 4500 RA PROB30 TEMPO 0117/0124 26015G25KT
LSZS,TAF LSZS 011425Z 0115/0124 20009KT 9999 FEW045 BKN052 TX11/0115Z PROB40 TEMPO 0115/0117 24012G22KT TEMPO 0115/0124 4000 RA BKN014
LTAB,TAF LTAB 011940Z 0121/0206 VRB02KT CAVOK
LTAC,TAF LTAC 011640Z 0118/0218 VRB02KT CAVOK BECMG 0205/0207 SCT040 BECMG 0209/0212 24012KT PROB30 TEMPO 0213/0217 34015KT -SHRA FEW025CB BKN030
LTAD,TAF LTAD 011940Z 0121/0206 VRB02KT CAVOK
LTAE,TAF LTAE 011940Z 0121/0206 VRB02KT CAVOK
LTAF,TAF LTAF 011640Z 0118/0218 VRB02KT CAVOK BECMG 0211/0213 22012KT BECMG 0216/0218 VRB02KT
LTAG,TAF LTAG 011640Z 0118/0218 VRB02KT CAVOK TEMPO 0121/0123 03012KT BECMG 0211/0213 24012KT BECMG 0215/0217 VRB02KT
LTAH,TAF LTAH 011340Z 0115/0124 VRB02KT CAVOK
LTAI,TAF LTAI 011640Z 0118/0218 34012KT CAVOK BECMG 0206/0209 18014KT FEW030 BECMG 0214/0218 34015KT CAVOK
LTAJ,TAF LTAJ 011640Z 0118/0218 33007KT CAVOK TEMPO 0118/0122 33015G25KT
LTAL,TAF LTAL 011340Z 0115/0124 21006KT CAVOK
LTAN,TAF LTAN 011940Z 0121/0206 VRB02KT CAVOK
LTAO,TAF LTAO 011940Z 0121/0206 18008KT CAVOK
LTAP,TAF LTAP 011640Z 0118/0218 VRB02KT CAVOK BECMG 0209/0212 FEW040 SCT100 TEMPO 0215/0218 01020KT -TSRA FEW030CB BKN035
LTAR,TAF LTAR 011940Z 0121/0206 VRB02KT CAVOK
LTAS,TAF LTAS 011340Z 0115/0124 VRB02KT CAVOK
LTAT,TAF LTAT 011640Z 0118/0218 32009KT CAVOK
LTAU,TAF LTAU 011640Z 0118/0218 VRB02KT CAVOK TEMPO 0209/0212 FEW040 SCT200 BECMG 0212/0215 SCT040 PROB30 TEMPO 0216/0218 29015G25KT -TSRA FEW027CB BKN035
LTAV,TAF LTAV 011340Z 0115/0124 VRB02KT CAVOK
LTAW,TAF LTAW 011340Z 0115/0124 VRB02KT CAVOK
LTAY,TAF LTAY 011940Z 0121/0206 VRB02KT CAVOK
LTAZ,TAF LTAZ 011640Z 0118/0218 VRB02KT CAVOK TEMPO 0209/0212 FEW040 SCT200 BECMG 0212/0215 SCT040 PROB40 TEMPO 0215/0218 29020G30KT -TSRA FEW027CB BKN035
LTBA,TAF LTBA 011640Z 0118/0218 15005KT CAVOK BECMG 0201/0204 SCT040 BKN100 BECMG 0204/0207 33012KT -SHRA TEMPO 0207/0211 33020G30KT 4000 TSRA SCT018CB BKN025
LTBD,TAF LTBD 011340Z 0115/0124 VRB02KT CAVOK TEMPO 0115/0117 27012KT
LTBF,TAF LTBF 011940Z 0121/0206 VRB02KT CAVOK BECMG 0201/0203 SCT035 SCT100
LTBG,TAF LTBG 011940Z 0121/0206 VRB02KT CAVOK BECMG 0122/0202 SCT035 BKN100 TEMPO 0203/0206 -SHRA
LTBH,TAF LTBH 011940Z 0121/0206 VRB02KT CAVOK BECMG 0122/0202 SCT035 BKN100 TEMPO 0203/0206 -SHRA
LTBI,TAF LTBI 011940Z 0121/0206 VRB02KT CAVOK
LTBJ,TAF LTBJ 011640Z 0118/0218 VRB02KT CAVOK BECMG 0203/0206 FEW030 SCT100 TEMPO 0205/0208 18012KT BECMG 0208/0211 35016G26KT BECMG 0213/0216 CAVOK
LTBK,TAF LTBK 011340Z 0115/0124 VRB02KT CAVOK
LTBL,TAF LTBL 011940Z 0121/0206 VRB02KT CAVOK
LTBN,TAF LTBN 011340Z 0115/0124 VRB02KT CAVOK
LTBO,TAF LTBO 011640Z 0118/0203 VRB02KT CAVOK
LTBP,TAF LTBP 011340Z 0115/0124 VRB02KT CAVOK
LTBQ,TAF LTBQ 011940Z 0121/0206 VRB02KT CAVOK BECMG 0202/0205 27012KT SCT030 BKN090 PROB40 TEMPO 0205/0206 27020G30KT -SHRA
LTBR,TAF LTBR 011640Z 0118/0218 VRB02KT CAVOK BECMG 0201/0205 SCT035 SCT100 PROB30 0203/0206 4000 BR BECMG 0206/0210 36012KT PROB30 TEMPO 0210/0214 34015G25KT -TSRA FEW025CB BKN030 PROB30 TEMPO 0214/0217 -SHRA FEW025CB BKN030
LTBS,TAF LTBS 011640Z 0118/0218 VRB02KT CAVOK BECMG 0207/0209 20012KT FEW030 BECMG 0216/0218 01007KT CAVOK
LTBT,TAF LTBT 011340Z 0115/0124 VRB02KT CAVOK
LTBU,TAF LTBU 011640Z 0118/0218 15005KT CAVOK BECMG 0122/0201 SCT040 BKN100 BECMG 0203/0205 33014KT -SHRA TEMPO 0205/0209 34020G30KT 4000 TSRA SCT018CB BKN025
LTBV,TAF LTBV 011340Z 0115/0124 26012KT CAVOK BECMG 0115/0118 VRB02KT
LTBX,TAF LTBX 011340Z 0115/0124 26012KT CAVOK BECMG 0115/0118 VRB02KT
LTBY,TAF LTBY 011940Z 0121/0206 VRB02KT CAVOK
LTBZ,TAF LTBZ 011940Z 0121/0206 VRB02KT CAVOK
LTCA,TAF LTCA 011940Z 0121/0206 23006KT CAVOK
LTCB,TAF LTCB 011940Z 0121/0206 VRB02KT CAVOK
LTCC,TAF LTCC 011640Z 0118/0218 32012KT CAVOK BECMG 0204/0207 VRB02KT
LTCD,TAF LTCD 011940Z 0121/0206 VRB02KT CAVOK
LTCE,TAF LTCE 011640Z 0118/0218 VRB02KT CAVOK BECMG 0206/0208 07012KT BECMG 0210/0212 VRB02KT
LTCF,TAF LTCF 011940Z 0121/0206 VRB02KT CAVOK
LTCG,TAF LTCG 011640Z 0118/0218 VRB02KT CAVOK
LTCI,TAF LTCI 011940Z 0121/0206 08007KT CAVOK BECMG 0205/0206 29010KT
LTCJ,TAF LTCJ 011640Z 0118/0218 VRB02KT CAVOK
LTCK,TAF LTCK 011340Z 0115/0124 04013KT CAVOK BECMG 0117/0119 27006KT
LTCL,TAF LTCL 011640Z 0118/0203 03005KT CAVOK
LTCM,TAF LTCM 011340Z 0115/0124 16005KT 9999 FEW036 BECMG 0121/0124 CAVOK
LTCN,TAF LTCN 011940Z 0121/0206 07006KT CAVOK
LTCO,TAF LTCO 011340Z 0115/0124 02010KT CAVOK
LTCP,TAF LTCP 011340Z 0115/0124 03012KT CAVOK
LTCR,TAF LTCR 011340Z 0115/0124 36006KT CAVOK BECMG 0116/0118 36016KT
LTCS,TAF LTCS 011640Z 0118/0218 02009KT CAVOK
LTCT,TAF LTCT 011940Z 0121/0206 26008KT CAVOK
LTCU,TAF LTCU 011340Z 0115/0124 36008KT CAVOK
LTCV,TAF LTCV 011640Z 0118/0218 26007KT CAVOK
LTCW,TAF LTCW 011940Z 0121/0206 04008KT CAVOK
LTDA,TAF LTDA 011940Z 0121/0206 25012KT CAVOK BECMG 0121/0124 VRB02KT
LTFA,TAF LTFA 011340Z 0115/0124 VRB02KT CAVOK
LTFB,TAF LTFB 011340Z 0115/0124 VRB02KT CAVOK
LTFC,TAF LTFC 011040Z 0112/0212 34012KT CAVOK BECMG 0114/0118 VRB02KT BECMG 0208/0211 22015G25KT
LTFD,TAF LTFD 011940Z 0121/0206 VRB02KT CAVOK BECMG 0200/0202 SCT035
LTFE,TAF LTFE 011640Z 0118/0218 VRB02KT CAVOK BECMG 0208/0211 27015KT BECMG 0215/0218 VRB02KT
LTFG,TAF LTFG 011940Z 0121/0206 11005KT CAVOK
LTFH,TAF LTFH 011940Z 0121/0206 VRB02KT CAVOK
LTFJ,TAF LTFJ 011640Z 0118/0218 VRB02KT CAVOK BECMG 0200/0202 21012KT SCT040 BKN090 TEMPO 0202/0206 22020G35KT -SHRA TEMPO 0206/0210 22020G35KT -TSRA FEW015CB BKN030 BECMG 0211/0215 01009KT
LTFK,TAF LTFK 011340Z 0115/0124 21008KT CAVOK BECMG 0121/0124 SCT035 BKN100
LTFM,TAF LTFM 011640Z 0118/0224 21012KT CAVOK BECMG 0201/0204 SCT040 BKN100 BECMG 0204/0206 33014KT -SHRA TEMPO 0206/0210 33020G30KT 4000 TSRA SCT018CB BKN025
LTFO,TAF LTFO 011940Z 0121/0206 VRB02KT CAVOK
LUKK,TAF LUKK 011720Z 0118/0218 20006KT CAVOK BECMG 0201/0203 27008KT BECMG 0206/0208 33016KT TEMPO 0206/0210 SCT020CB TEMPO 0208/0215 35020G34KT TEMPO 0215/0218 35016G26KT
LWOH,TAF LWOH 012030Z 0121/0221 34008KT 9999 SCT040 BKN090
LWSK,TAF COR LWSK 012030Z 0121/0221 34008KT 9999 SCT040 BKN070 TEMPO 0121/0124 VRB20KT TSRA SCT033CB OVC040 TEMPO 0121/0203 RA FEW020 SCT04O OVC080 TEMPO 0207/0214 36015G25KT BECMG 0213/0215 CAVOK
LXGB,TAF LXGB 011326Z 0115/0122 07015KT 9999 FEW020 TEMPO 0115/0122 08018G28KT 520002 PROB30 TEMPO 0115/0118 SCT015 TEMPO 0118/0122 SCT010 PROB30 TEMPO 0118/0122 SCT005
LYBE,TAF LYBE 011700Z 0118/0218 20006KT 9999 SCT040 TX22/0213Z TN13/0203Z TEMPO 0118/0123 5000 SHRA SCT033TCU SCT040 PROB40 TEMPO 0118/0120 27016KT 3000 TSRA SCT033CB SCT040 BECMG 0121/0123 32010KT TEMPO 0209/0213 32020KT
LYBT,TAF LYBT 011700Z 0118/0218 17006KT 9999 SCT040 TX21/0213Z TN13/0203Z TEMPO 0118/0123 5000 SHRA SCT030TCU BKN040 BECMG 0121/0123 31010KT TEMPO 0209/0213 33020KT
LYKV,TAF LYKV 011700Z 0118/0218 32008KT 9999 SCT040 TX22/0213Z TN11/0204Z TEMPO 0119/0124 32015G25KT 5000 TSRA SCT030CB BKN035 TEMPO 0209/0214 32018KT
LYNI,TAF LYNI 011700Z 0118/0218 18005KT 9999 SCT040 TX19/0213Z TN14/0203Z TEMPO 0121/0204 SHRA SCT030 BKN033 BECMG 0200/0202 32012KT BKN012 TEMPO 0203/0214 33015G25KT BECMG 0206/0208 SCT027
LYPG,TAF LYPG 011700Z 0118/0218 36009KT 9999 SCT040 TX23/0213Z TN17/0205Z PROB40 TEMPO 0118/0122 VRB18KT TSRA FEW015 FEW030CB SCT040
LYTV,TAF LYTV 011700Z 0118/0218 36009KT 9999 SCT040 TX23/0213Z TN16/0205Z TEMPO 0118/0120 VRB18KT TSRA FEW020 SCT030CB SCT040
LYVR,TAF LYVR 011700Z 0118/0218 16006KT 9999 SCT040 TX21/0213Z TN12/0203Z TEMPO 0118/0122 27015G25KT 4000 SHRA SCT033TCU BKN040 BECMG 0122/0124 32010KT TEMPO 0202/0206 BKN008 TEMPO 0208/0213 32018G28KT
LZIB,TAF LZIB 011715Z 0118/0218 21006KT 9999 SCT040 BECMG 0118/0120 29012KT CAVOK TEMPO 0123/0205 29015G25KT BECMG 0209/0211 9999 SCT040 TEMPO 0211/0215 -RA BKN030 TEMPO 0214/0218 27017G30KT
LZKZ,TAF LZKZ 011715Z 0118/0218 21008KT 9999 SCT015 BKN025 TEMPO 0118/0123 20013KT 4000 SHRA BKN006 BKN020 PROB30 TEMPO 0118/0120 22015G25KT TSRA SCT004 SCT020CB PROB30 TEMPO 0202/0206 VRB02KT 1400 BR BCFG BKN003 TEMPO 0210/0215 SHRA
LZMC,TAF LZMC 011930Z 0121/0206 28008KT 9999 FEW025 BKN050 TEMPO 0200/0206 30010G20KT
LZPP,TAF LZPP 011715Z 0118/0203 30006KT 9999 SCT045 TEMPO 0118/0121 30012KT -RA SCT015 BKN025
LZPW,TAF LZPW 011930Z 0121/0206 21010KT 9999 SCT010 BKN030 TEMPO 0121/0124 4000 RA SCT004 BKN020 BECMG 0201/0203 1500 BR BKN005
LZSL,TAF LZSL 011930Z 0121/0206 26008KT 9999 -RA SCT038 BKN050 OVC070 TEMPO 0201/0206 33007KT SCT035
LZTT,TAF AMD LZTT 012101Z 0121/0218 27015KT 9999 SCT010 BKN030 TEMPO 0121/0200 2500 -RA BR BKN005 OVC020 TEMPO 0121/0204 27020G30KT
LZZI,TAF LZZI 012015Z 0121/0206 25009KT 9999 FEW015 BKN030 TEMPO 0121/0200 24019KT
MBGT,MBGT 010930Z 0112/0212 15012KT 9999 VCSH FEW018CB SCT022 BKN040
MBPV,MBPV 010930Z 0112/0212 15012KT 9999 VCSH FEW018CB SCT022 BKN040
MDBH,TAF MDBH 011600Z 0118/0218 13015KT 9999 FEW020CB FEW022 PROB30 0120/0200 7000 TSRA FEW016CB SCT018 SCT070 BECMG 0210/0212 27005KT
MDCY,TAF MDCY 011600Z 0118/0218 14010KT 9999 FEW016CB SCT018 BKN300 PROB30 0119/0201 8000 -TSRA FEW016CB SCT016 BKN300 BECMG 0122/0200 06012KT
MDJB,TAF MDJB 011600Z 0118/0218 18010KT 9999 SCT018 SCT070 PROB30 0119/0201 7000 -TSRA FEW014CB SCT016 BKN070
MDLR,TAF MDLR 011600Z 0118/0218 18010KT 9999 SCT020 PROB30 0118/0200 6000 -TSRA FEW016CB BKN016 BECMG 0202/0204 00000KT
MDPC,TAF MDPC 011600Z 0118/0218 15012KT 9999 FEW016CB SCT018 SCT300 PROB30 0119/0201 7000 -TSRA FEW014CB BKN016 SCT070
MDPP,TAF MDPP 011600Z 0118/0218 00000KT 9999 FEW022 BKN300 PROB30 0118/0200 6000 TSRA FEW017CB BKN018
MDSD,TAF MDSD 011600Z 0118/0218 18006KT 9999 SCT020 SCT300 TEMPO 0118/0122 7000 -TSRA FEW016CB BKN018 BKN300 BECMG 0123/0201 00000KT
MDST,TAF MDST 011600Z 0118/0218 13010KT 9999 FEW020CB SCT022 BKN300 PROB30 0122/0204 7000 -TSRA FEW014CB SCT016 BKN070 BECMG 0200/0202 00000KT
MGGT,MGGT 011710Z 0118/0218 02010KT 9999 SCT018 TX24/0120Z TN16/0212Z TEMPO 0120/0202 12008KT VCTSRA FEW025CB FEW080 BECMG 0201/0203 SCT016 TEMPO 0206/0212 8000 SCT014 BECMG 0214/0216 02008KT SCT018
MGMM,MGMM 011710Z 0118/0218 28006KT 9999 SCT020 TX31/0120Z TN20/0212Z TEMPO 0120/0200 FEW018 BECMG 0201/0203 00000KT CAVOK BECMG 0214/0216 30006KT FEW018
MGPB,MGPB 011710Z 0118/0218 02006KT 9999 SCT020 TX32/0120Z TN22/0212Z PROB30 TEMPO 0120/0200 VCTSRA SCT020CB BECMG 0201/0203 00000KT SCT016 BECMG 0214/0216 30006KT SCT018
MGSJ,MGSJ 011710Z 0118/0218 20008KT 9999 SCT018 TX33/0120Z TN21/0212Z TEMPO 0121/0209 7000 TSRA FEW022CB BKN090 BECMG 0202/0204 00000KT SCT016 BECMG 0214/0216 18008KT SCT018
MHLC,TAF MHLC 011700Z 0118/0218 27012KT 7000 RA SCT024TCU BKN070 TX28/0119Z TN22/0212Z FM020000 VRB05KT 9999 SCT022 BKN070
MHLM,TAF MHLM 011700Z 0118/0218 02010KT 8000 VCSH SCT030TCU BKN080 TX30/0120Z TN22/0212Z FM020000 33005KT 9999 SCT026 BECMG 0205/0207 24005KT
MHPR,TAF MHPR 011700Z 0118/0218 36014KT 9999 SCT050TCU FEW052CB TX28/0119Z TN21/0209Z TEMPO 0120/0200 7000 TSSHRA BECMG 0201/0203 VRB05KT 9999 SCT046 BKN060
MHRO,TAF MHRO 011700Z 0118/0218 34016KT 8000 TSVCSH SCT024CB BKN070 TX29/0119Z TN27/0212Z BECMG 0120/0122 9999 NSW SCT022TCU FM020500 VRB05KT 9999 FEW020
MHTG,TAF MHTG 011700Z 0118/0218 03010KT 9999 SCT032TCU FEW035CB TX27/0121Z TN18/0211Z TEMPO 0122/0202 7000 SHRA FM020200 VRB04KT 9999 FEW010 BKN026 BECMG 0210/0212 7000 RA FEW008 SCT024 BKN080 FM021500 05010KT 9999 SCT032TCU
MKJP,TAF MKJP 011715Z 0118/0218 13015KT 9999 SCT018 FEW020CB BKN036 TEMPO 0118/0203 5000 TSRA BKN018CB OVC080 BECMG 0204/0206 35005KT BECMG 0214/0216 13014KT FEW020 FEW022CB
MKJS,TAF MKJS 011715Z 0118/0218 VRB02KT 9999 SCT018 FEW020CB SCT036 TEMPO 0118/0201 5000 TSRA BKN018CB BKN034 BECMG 0202/0204 FEW020 FEW022CB BECMG 0214/0216 05010KT
MMAA,TAF MMAA 011650Z 0118/0224 19010KT P6SM SCT015 BKN300 TX30/0120Z TN25/0212Z BECMG 0120/0121 SCT015CB TEMPO 0123/0203 4SM TSRA BKN015CB FM020300 09005KT P6SM SCT015 BKN090 BKN250 TEMPO 0203/0207 4SM TSRA BKN015CB FM020800 09005KT P6SM SCT015 BKN250 FM021800 09010KT P6SM SCT015 BKN090 BKN250 PROB40 0220/0224 5SM TSRA BKN015CB
MMAN,TAF MMAN 011738Z 0118/0218 13005KT P6SM BKN100 BECMG 0120/0121 09015KT FM020400 13005KT P6SM SCT100 BKN250 FM021700 13015KT P6SM SCT020 BKN250
MMAS,TAF MMAS 011628Z 0118/0218 08010KT P6SM SKC TEMPO 0123/0203 07015KT FM020400 05006KT P6SM SCT120 BKN220 FM021600 10006KT P6SM SCT100
MMBT,TAF MMBT 011622Z 0118/0218 23008KT P6SM SCT020 TEMPO 0122/0202 5SM RA SCT020CB BKN070 BKN250 FM020300 34004KT P6SM SCT020 SCT070 FM021500 16006KT P6SM SKC
MMCB,TAF AMD MMCB 012048Z 0121/0218 25005KT 6SM HZ SCT020 SCT080 TEMPO 0121/0201 BKN020 BKN080 FM020200 00000KT 6SM HZ SCT020 SCT070 BECMG 0206/0207 3SM BR TEMPO 0210/0214 2SM BR SCT010 FM021500 14004KT 5SM HZ SCT025
MMCE,TAF MMCE 011643Z 0118/0218 34012KT P6SM SCT030 FM020300 29006KT P6SM SCT030 FM021600 08006KT P6SM SCT030
MMCL,TAF MMCL 011716Z 0118/0218 28005KT P6SM SCT020 BKN250 TEMPO 0202/0206 5SM TSRA BKN020CB FM020600 03005KT 5SM HZ SCT020 BKN250 PROB40 0210/0214 4SM TSRA BKN020CB FM021400 17005KT 5SM -RA BKN015 OVC080 BKN250
MMCM,TAF MMCM 011643Z 0118/0218 25008KT P6SM SCT020 SCT100 FM020100 20010KT P6SM SCT070 BECMG 0208/0209 30010KT TEMPO 0211/0215 3SM BR BKN005 FM021500 35006KT 5SM HZ SCT010
MMCN,TAF MMCN 011633Z 0118/0218 20010KT P6SM SKC BECMG 0120/0121 24012KT FM020300 29004KT P6SM SKC BECMG 0207/0208 07004KT FM021600 29006KT P6SM SKC
MMCP,TAF MMCP 011643Z 0118/0218 32012KT P6SM SCT040 SCT300 FM020300 04008KT P6SM SCT040 FM020700 08006KT 6SM HZ SCT015 TEMPO 0208/0212 BKN015 FM021500 26008KT P6SM SKC
MMCS,TAF MMCS 011738Z 0118/0218 05010KT P6SM SCT080 BKN100 BECMG 0120/0121 09010KT FM020300 09015KT P6SM BKN100 FM021700 14005KT P6SM BKN100 BKN250
MMCU,TAF MMCU 011738Z 0118/0218 13010KT P6SM SCT030 BKN100 BECMG 0203/0204 13005KT FM021700 09010KT P6SM BKN100
MMCV,TAF MMCV 011656Z 0118/0218 04010KT P6SM SKC FM020300 18004KT P6SM SCT030 BECMG 0208/0209 SCT010 BKN015 TEMPO 0210/0214 2SM BR FM021500 34006KT 5SM HZ SCT010 BKN015
MMCZ,TAF MMCZ 011728Z 0118/0224 03010KT P6SM SCT020 PROB40 0200/0204 5SM TSRA BKN020CB FM020400 03005KT 5SM -RA BKN015 OVC080 FM021700 13010KT P6SM SCT015 BKN250
MMDO,TAF MMDO 011633Z 0118/0218 10010KT P6SM SCT020 SCT080 BECMG 0122/0123 P6SM VC RA SCT020 BKN080 OVC200 FM020300 34004KT P6SM SCT020 BKN080 OVC200 TEMPO 0210/0214 6SM -RA FM021600 36006KT P6SM SCT020 BKN080 OVC200
MMEP,TAF COR MMEP 012045Z 0120/0218 00000KT 1/2SM TSRA BKN010CB OVC030 FM012100 12008KT 4SM -RA BKN015CB OVC090 TEMPO 0122/0202 2SM TSRA FM020200 07004KT 5SM -RA BKN015CB OVC090 FM020900 00000KT 3SM -RA BR SCT015CB OVC090 FM021600 12004KT 5SM -RA HZ SCT015 OVC090
MMGL,TAF MMGL 011705Z 0118/0224 18010KT P6SM SCT020 BKN300 TX26/0121Z TN12/0212Z BECMG 0202/0203 BKN020CB TEMPO 0203/0207 4SM TSRA BKN020CB FM021500 13005KT P6SM SCT020 BKN090 BKN250 PROB40 0220/0224 4SM TSRA BKN015CB
MMGM,TAF MMGM 011633Z 0118/0218 22012KT P6SM SCT140 FM020300 31005KT P6SM SKC FM021600 20006KT P6SM SKC
MMHO,TAF MMHO 011716Z 0118/0218 08010KT P6SM SCT020 BKN100 TEMPO 0123/0203 5SM TSRA BKN020CB FM020300 03010KT 5SM HZ SCT100 BKN250 PROB40 0213/0217 4SM -RA BKN040 FM021700 24005KT P6SM SCT020 BKN100 BKN250
MMIA,TAF COR MMIA 011909Z 0118/0218 23010KT 5SM HZ BKN020CB OVC100 BECMG 0119/0120 6SM -RA BKN020CB TEMPO 0120/0124 2SM TSRA BKN010 OVC020CB FM020000 01004KT 4SM -RA BKN010CB OVC070 TEMPO 0200/0204 2SM TSRA FM020500 04004KT 3SM -RA BR BKN010 OVC070 FM021400 19005KT 5SM -RA SCT010 BKN015 OVC080
MMIO,TAF MMIO 011738Z 0118/0218 03010KT P6SM BKN250 BECMG 0202/0203 03005KT FM021700 03010KT P6SM BKN250
MMLM,TAF MMLM 011633Z 0118/0218 26010KT P6SM SKC BECMG 0120/0121 30014KT FM020300 34005KT P6SM SKC BECMG 0209/0210 06005KT FM021600 30006KT P6SM SKC
MMLO,TAF MMLO 011628Z 0118/0218 08010KT P6SM SCT030 SCT100 SCT250 FM020300 10004KT P6SM SCT100 SCT250 FM020900 10006KT P6SM SCT030 BKN090 TEMPO 0212/0216 BKN030 BKN100 FM021700 12010KT P6SM SCT030 SCT100
MMLP,TAF MMLP 011716Z 0118/0218 18010KT P6SM BKN250 BECMG 0202/0203 16010KT FM021700 04010KT P6SM SCT020 BKN200
MMLT,TAF MMLT 011633Z 0118/0218 07010KT P6SM SKC FM020300 24005KT P6SM SKC FM021600 06006KT P6SM SKC
MMMA,TAF COR MMMA 011913Z 0118/0218 07014KT P6SM SCT020 TEMPO 0118/0122 BKN020 FM020300 07006KT P6SM SCT015 FM021500 07010KT P6SM SCT020
MMMD,TAF MMMD 011728Z 0118/0224 36010KT P6SM SCT020 TX33/0121Z TN19/0212Z TEMPO 0123/0203 BKN020 BECMG 0204/0205 22005KT FM021700 36015KT P6SM SCT020 BKN250
MMML,TAF MMML 011716Z 0118/0218 16015KT P6SM SCT020 BECMG 0203/0204 13005KT FM021700 13010KT P6SM SKC
MMMM,TAF MMMM 011705Z 0118/0224 23005KT P6SM SCT020 BECMG 0120/0121 13010KT SCT020CB TEMPO 0123/0203 5SM TSRA BKN020CB FM020300 13005KT 5SM -RA BKN015 OVC060 FM021500 13005KT P6SM SCT020 BKN090 BKN250
MMMT,TAF MMMT 011643Z 0118/0218 01012KT P6SM SCT030 FM020300 29005KT 5SM HZ SCT020 BKN030 BECMG 0215/0216 01010KT 6SM HZ
MMMV,TAF MMMV 011738Z 0118/0218 13010KT P6SM SCT100 BKN250 BECMG 0202/0203 03005KT FM021700 36010KT P6SM BKN100 BKN250
MMMX,TAF MMMX 011650Z 0118/0224 06010KT 5SM HZ SKC TX22/0121Z TN08/0212Z FM020200 06005KT 5SM HZ BKN250 TEMPO 0211/0215 3SM BR FM021500 07005KT P6SM SCT020 PROB40 0220/0224 SCT020CB VC TS
MMMY,TAF MMMY 011738Z 0118/0224 13010KT P6SM SCT020 TX30/0121Z TN17/0212Z FM020300 14005KT 5SM SCT020 BKN090 BKN250 TEMPO 0210/0214 3SM BR BKN015 FM021400 14010KT P6SM SCT040 BKN250
MMMZ,TAF MMMZ 011716Z 0118/0224 24010KT P6SM SCT020 BKN250 TX32/0121Z TN25/0212Z TEMPO 0123/0203 4SM TSRA BKN020CB FM020300 04005KT 5SM SCT020 BKN100 BKN250 TEMPO 0210/0214 3SM BR FM021700 04010KT P6SM BKN100 BKN250
MMNL,TAF MMNL 011656Z 0118/0218 12010KT P6SM SCT025 TEMPO 0123/0203 12014KT FM020400 10004KT P6SM BKN200 BECMG 0209/0210 4SM BR HZ FM021500 10010KT P6SM SCT030 BKN200
MMOX,TAF MMOX 011622Z 0118/0218 13006KT P6SM SCT025 TEMPO 0122/0202 BKN025 FM020200 34004KT 6SM HZ SCT015 TEMPO 0210/0214 3SM BR HZ FM021500 13004KT P6SM SKC
MMPA,TAF MMPA 011656Z 0118/0218 04006KT 5SM HZ SCT020 SCT280 FM020300 20004KT 5SM HZ SCT020 FM020900 00000KT 4SM BR HZ SCT020 FM021300 28004KT 4SM BR HZ BKN015 BECMG 0215/0216 33006KT
MMPB,TAF MMPB 011622Z 0118/0218 16008KT P6SM SCT020 SCT220 FM020300 00000KT P6SM SCT020 TEMPO 0210/0214 3SM BR FM021500 17004KT P6SM SKC
MMPG,TAF MMPG 011656Z 0118/0218 12010KT P6SM SCT040 TEMPO 0200/0204 12015KT FM020500 12008KT P6SM SKC FM020900 10004KT 6SM HZ BKN240 FM021500 10010KT P6SM BKN220
MMPN,TAF COR MMPN 011911Z 0118/0218 17008KT P6SM SCT030 BKN080 BECMG 0119/0120 P6SM VC RA BKN025CB TEMPO 0121/0201 4SM TSRA BKN015CB FM020100 00000KT 4SM -RA BKN010 OVC070 TEMPO 0210/0214 2SM -RA BR BKN005 OVC010 FM021500 16006KT 4SM -RA BR BKN010 OVC040
MMPQ,TAF MMPQ 011643Z 0118/0218 30006KT P6SM SCT030 BKN040 FM020300 00000KT 5SM HZ SCT010 BKN030 TEMPO 0210/0214 4SM BR HZ FM021500 34006KT 6SM HZ SCT020 BKN040
MMPR,TAF MMPR 011705Z 0118/0224 21010KT P6SM SCT020 BKN230 TX30/0120Z TN25/0212Z TEMPO 0123/0203 4SM TSRA BKN010CB FM020300 09005KT 5SM -RA SCT015CB OVC080 TEMPO 0210/0214 3SM TSRA FM021400 13010KT 4SM -RA BKN015CB OVC080 TEMPO 0220/0224 2SM -RA
MMPS,TAF MMPS 011622Z 0118/0218 16008KT P6SM SCT020 BKN090 BECMG 0122/0123 6SM -RA BKN020CB TEMPO 0123/0203 5SM RA FM020500 03004KT P6SM SCT015 SCT080 FM021500 15006KT P6SM SKC
MMQT,TAF MMQT 011628Z 0118/0218 08010KT P6SM SKC FM020300 09004KT P6SM SCT080 BECMG 0209/0210 4SM BR HZ FM021500 08006KT 6SM HZ SKC
MMRX,TAF MMRX 011656Z 0118/0218 07014KT P6SM SCT025 FM020300 10008KT P6SM SKC FM020900 08004KT 6SM HZ TEMPO 0210/0214 2SM BR SCT010 FM021500 07010KT 6SM HZ SCT020
MMSD,TAF MMSD 011633Z 0118/0218 14010KT P6SM SKC FM020100 25008KT P6SM SKC BECMG 0208/0209 32005KT FM021600 07006KT P6SM SKC
MMSL,TAF MMSL 011633Z 0118/0218 22010KT P6SM SKC FM020200 32005KT P6SM SKC FM021600 22006KT P6SM SKC
MMSM,TAF MMSM 011650Z 0118/0224 02010KT 5SM HZ SKC FM020200 33005KT 5SM HZ SCT020 BECMG 0208/0209 2SM BR TEMPO 0210/0214 1SM BR FM021700 33005KT P6SM SCT020 PROB40 0220/0224 SCT020CB VC TS
MMSP,TAF MMSP 011705Z 0118/0224 09005KT P6SM SCT020 BKN250 TX21/0121Z TN06/0212Z BECMG 0120/0121 09010KT FM020400 09005KT 4SM HZ SCT020 TEMPO 0210/0214 3SM BR FM021400 09010KT P6SM SCT020 BKN250 BECMG 0220/0221 09015KT
MMTC,TAF MMTC 011738Z 0118/0218 07010KT P6SM BKN200 BECMG 0202/0203 07005KT FM021700 07010KT P6SM SCT100 BKN250
MMTG,TAF MMTG 011728Z 0118/0218 34010KT P6SM SCT020 BKN070 BECMG 0202/0203 34005KT TEMPO 0210/0214 3SM BR BKN020 FM021400 33005KT P6SM SCT020 BKN250
MMTJ,TAF MMTJ 011716Z 0118/0224 28010KT P6SM SCT013 TX23/0121Z TN15/0212Z FM020400 28005KT 6SM HZ OVC012 FM021700 29005KT P6SM SCT015 BKN040 BECMG 0220/0221 24010KT
MMTM,TAF MMTM 011650Z 0118/0218 07010KT P6SM SCT015 BECMG 0202/0203 07005KT BKN015 PROB40 0213/0217 3SM DZ BR OVC010 FM021700 04015KT 5SM -RA BKN015 OVC060
MMTO,TAF MMTO 011650Z 0118/0224 07005KT 4SM HZ SCT020 TX20/0120Z TN05/0212Z TEMPO 0123/0203 5SM TSRA BKN015CB FM020300 13005KT 5SM HZ SCT015 TEMPO 0210/0214 1SM DZ BR OVC010 FM021400 16005KT 5SM HZ SCT015 BKN080 PROB40 0220/0224 5SM TSRA BKN015CB
MMTP,TAF MMTP 011728Z 0118/0224 23010KT P6SM SCT030 BKN090 BKN220 TEMPO 0123/0203 3SM TSRA BKN020CB FM020300 07005KT 5SM HZ SCT020 BKN090 BKN250 PROB40 0204/0208 5SM TSRA BKN030CB FM021700 24010KT P6SM SCT030 BKN090 BKN200 PROB40 0220/0224 5SM TSRA BKN020CB
MMUN,TAF MMUN 011033Z 0112/0218 32005KT P6SM SCT015 SCT080 TX30/0119Z TN21/0112Z TEMPO 0112/0115 3SM HZ FM011800 34010KT P6SM BKN015CB BKN080 TEMPO 0122/0202 4SM TSRA
MMVA,TAF MMVA 011643Z 0118/0218 31010KT P6SM SCT020 BKN040 FM020300 20004KT 6SM HZ SCT030 TEMPO 0210/0214 4SM BR HZ FM021500 27006KT 6SM HZ SKC
MMVR,TAF MMVR 011650Z 0118/0218 02010KT 6SM HZ SCT020 BKN070 TX31/0121Z TN22/0212Z TEMPO 0123/0203 5SM TSRA BKN020CB FM020300 03005KT P6SM BKN020 BKN060 TEMPO 0213/0217 3SM -RA BR OVC020 FM021700 03010KT 6SM HZ SCT020 BKN090
MMZC,TAF MMZC 011705Z 0118/0224 04010KT P6SM BKN250 TX22/0121Z TN06/0212Z BECMG 0120/0122 13015KT FM020400 09005KT P6SM BKN200 FM021700 09010KT P6SM BKN250 BECMG 0220/0221 09015KT
MMZH,TAF COR MMZH 011907Z 0118/0218 20008KT P6SM SCT020CB BECMG 0120/0121 P6SM -RA BKN020CB BKN070 FM020200 07004KT 6SM -RA BKN015CB BKN070 TEMPO 0204/0208 4SM RA FM020800 06004KT 5SM -RA BKN015CB OVC070 FM021400 15005KT P6SM SCT020 BKN080 BKN200
MMZO,TAF MMZO 011705Z 0118/0218 09010KT 5SM HZ BKN015 OVC040 TEMPO 0120/0124 3SM TSRA OVC015CB FM020100 13010KT 5SM -RA BKN015 OVC060 TEMPO 0201/0205 2SM TSRA BKN015CB FM020500 14015KT 3SM -RA BKN015CB OVC030 FM021700 09010KT 4SM -RA BKN015CB OVC060
MPDA,TAF MPDA 011700Z 0118/0206 22006KT 9999 SCT016 SCT090 TEMPO 0118/0122 5000 TSRA SCT015CB BKN080 TEMPO 0122/0201 8000 DZ TEMPO 0201/0205 NSW
MPMG,TAF MPMG 011700Z 0118/0206 17006KT 9999 SCT018 SCT090 TEMPO 0118/0122 6000 TSRA SCT006 SCT015CB BKN080 TEMPO 0122/0201 8000 DZ TEMPO 0201/0205 NSW
MPPA,TAF MPPA 011700Z 0118/0224 19007KT 9999 FEW008 SCT016 BKN080 TEMPO 0118/0122 6000 TSRA SCT006 SCT015CB BKN080 TEMPO 0122/0202 8000 DZ TEMPO 0202/0205 00000KT NSW
MPSM,TAF MPSM 011700Z 0118/0224 16006KT 9999 SCT018 SCT090 TEMPO 0119/0123 6000 TSRA SCT015CB BKN080 PROB30 0123/0202 8000 RA TEMPO 0202/0206 9999 NSW
MPTO,TAF MPTO 011700Z 0118/0224 16006KT 9999 FEW008 SCT016 BKN080 TEMPO 0118/0122 15012KT 5000 TSRA SCT004 BKN012CB TEMPO 0122/0202 8000 DZ TEMPO 0202/0205 02005KT NSW
MRLB,MRLB 011717Z 0118/0218 18005KT 9999 FEW020 SCT150 TX30/0119Z TN21/0211Z TEMPO 0121/0203 28007KT TSRA FEW020CB BKN030 TEMPO 0207/0213 VRB02KT 3000 BR SCT002 
MRLM,MRLM 011717Z 0118/0218 28005KT 9999 FEW025 BKN130 TX31/0120Z TN22/0211Z TEMPO 0120/0124 RA FEW020TCU BECMG 0200/0203 25006KT BECMG 0214/0216 05004KT 
MROC,TAF COR MROC 011717Z 0118/0218 25008KT 9999 SCT020 BKN040 TX27/0118Z TN18/0211Z TEMPO 0119/0123 5000 TSRA SCT015CB TEMPO 0200/0206 VRB02KT 3000 RA BR BKN005 BECMG 0206/0208 08005KT BECMG 0214/0217 24007KT
MRPV,TAF MRPV 011730Z 0118/0218 31005KT 9999 RA SCT030 BKN100 TX27/0218Z TN18/0210Z PROB40 TEMPO 0122/0201 4000 TSRA BKN010CB TEMPO 0201/0206 VRB02KT DZ BKN010 TEMPO 0206/0215 12005KT
MSLP,TAF MSLP 011525Z 0118/0218 20008KT 9999 SCT023 FEW037CB TX31/0118Z TN24/0210Z TEMPO 0119/0122 6000 TSRA FM020000 VRB03KT 9999 FEW023 SCT037CB SCT047 TEMPO 0203/0206 09010KT 5000 TSRA BKN020 SCT033CB FM020600 02005KT 9999 FEW020 FEW037CB SCT063 FM021000 04003KT 9999 FEW020
MSSS,TAF MSSS 011525Z 0118/0218 16007KT 9999 SCT023 FEW037CB TX28/0119Z TN20/0210Z TEMPO 0119/0122 6000 TSRA TEMPO 0202/0205 07010KT 5000 TSRA BKN020 SCT033CB FM020500 02005KT 9999 SCT020 FEW037CB FM020900 03003KT 9999 FEW020
MTCH,TAF MTCH 011730Z 0118/0218 05010KT 9999 SCT024CB PROB40 TEMPO 0200/0206 4000 TSRA BECMG 0208/0212 VRB02KT 8000 NSW FEW016 TEMPO 0214/0218 05012KT
MTPP,TAF MTPP 011730Z 0118/0218 10012KT 9999 FEW027 BKN050 BECMG 0120/0122 27012KT FM020600 VRB02KT 8000 NSC BECMG 0213/0217 10012KT
MUCC,MUCC 011700Z 0118/0218 VRB03KT 9000 SCT020 TEMPO 0118/0203 VRB10KT 4000 TSRA SCT018CB BKN020 TEMPO 0204/0210 TS FEW018CB BKN045 BECMG 0213/0214 31008KT TEMPO 0215/0218 BKN050
MUCF,MUCF 011700Z 0118/0206 35008KT 9000 SCT020
MUCL,MUCL 011700Z 0118/0206 35009KT 9000 SCT020
MUCM,MUCM 011700Z 0118/0218 VRB03KT 9000 SCT030 TEMPO 0118/0201 VRB10KT 5000 TSRA SCT018CB BKN020
MUCU,MUCU 011700Z 0118/0218 VRB03KT 9000 SCT020 TEMPO 0118/0203 VRB10KT 5000 TSRA SCT018CB BKN020 TEMPO 0204/0212 TS FEW020CB BKN050 TEMPO 0213/0218 5000 SHRA FEW020CB BKN060
MUGM,TAF MUGM 0118/0215 18010KT 9999 VCTS SCT010 BKN020CB QNH2980INS TEMPO 0115/0121 22012G20KT 4800 -TSRA BECMG 0200/0202 16010KT 9999 VCSH SCT010 BKN030 BKN250 QNH2989INS TEMPO 0202/0208 6000 SHRA T30/0119Z T24/0207Z AMD 1802 FN00259
MUHA,MUHA 011700Z 0118/0218 36010KT 9000 SCT030 BECMG 0202/0204 VRB03KT
MUHG,MUHG 011700Z 0118/0218 VRB03KT 9000 FEW030 TEMPO 0118/0201 VRB10KT 5000 TSRA SCT018CB BKN020
MUSC,MUSC 011700Z 0118/0218 35008KT 9000 SCT030 BECMG 0123/0124 VRB03KT
MUVR,MUVR 011700Z 0118/0218 35008KT 9000 SCT020 BECMG 0200/0203 VRB03KT BECMG 0215/0217 32008KT
MWCB,TAF MWCB 011100Z 0112/0212 03005KT 9999 VCSH FEW018 TEMPO 0118/0200 9000 TSRA SCT016CB
MWCR,TAF MWCR 011100Z 0112/0212 03005KT 9999 VCSH FEW018 TEMPO 0118/0200 9000 TSRA SCT016CB
MYGF,MYGF 010930Z 0112/0212 01008KT 9999 VCSH FEW018CB SCT022
MYNN,MYNN 010930Z 0112/0212 VRB05KT 9999 VCSH FEW018CB SCT022 BKN150
MZBZ,TAF MZBZ 011500Z 0118/0218 30005KT 9999 FEW023
NCRG,TAF NCRG 011703Z 0118/0218 12010KT 9999 FEW025 SCT040 TEMPO 0118/0218 12015G25KT
NFFN,TAF NFFN 011703Z 0118/0218 09005KT 9999 FEW030 BECMG 0120/0122 36010KT PROB40 TEMPO 0202/0209 5000 TSRA BKN015 FEW018CB BECMG 0204/0206 12006KT
NFNA,TAF NFNA 011704Z 0118/0218 06005KT 9999 SCT020 BKN040 PROB40 TEMPO 0200/0209 5000 TSRA BKN015 FEW017CB PROB40 TEMPO 0216/0218 5000 TSRA BKN015 FEW018CB
NFTF,TAF AMD NFTF 011900Z 0119/0218 07009KT 9999 FEW016 SCT040 PROB40 TEMPO 0119/0205 08015G25KT PROB30 TEMPO 0200/0206 5000 SHRA BKN015
NFTV,TAF NFTV 011705Z 0118/0218 09009KT 9999 SCT017 BKN040
NGFU,TAF NGFU 011705Z 0118/0218 09013KT 9999 FEW020
NGTA,TAF NGTA 011705Z 0118/0218 12009KT 9999 FEW020
NLWF,TAF NLWF 011700Z 0118/0218 11012KT 9999 SCT020 SCT040 TEMPO 0118/0121 4000 SHRA BKN012 SCT020TCU PROB40 TEMPO 0209/0218 3000 SHRA BKN010 FEW015CB SCT020TCU
NLWW,TAF NLWW 011700Z 0118/0218 VRB02KT 9999 SCT015 SCT025 BECMG 0122/0124 11010KT TEMPO 0200/0209 4000 SHRA BKN014 SCT020TCU PROB40 TEMPO 0209/0218 3000 SHRA BKN010 FEW015CB SCT020TCU
NSFA,TAF NSFA 011704Z 0118/0218 13007KT 9999 SCT020 BKN040 PROB40 TEMPO 0118/0206 5000 TSRA FEW017CB PROB30 TEMPO 0120/0206 11015G25KT
NSTU,NSTU 011736Z 0118/0218 13020KT P6SM SCT020 SCT040 FM020600 12014KT P6SM SCT025 SCT040
NTAA,TAF NTAA 011700Z 0118/0224 VRB05KT 9999 FEW026 SCT300 PROB30 TEMPO 0122/0204 4500 SHRA SCT020 BKN050 BECMG 0118/0120 05010KT BECMG 0202/0204 VRB05KT BECMG 0218/0220 05015KT
NVSC,TAF NVSC 011700Z 0118/0218 VRB02KT 9999 FEW020
NVSG,TAF NVSG 011700Z 0118/0218 VRB02KT 9999 FEW020
NVSL,TAF NVSL 011700Z 0118/0218 VRB03KT 9999 FEW020
NVSP,TAF NVSP 011700Z 0118/0218 VRB02KT 9999 FEW020
NVSS,TAF NVSS 011700Z 0118/0218 VRB02KT 9999 FEW020
NVVA,TAF NVVA 011700Z 0118/0218 VRB03KT 9999 SCT022 INTER 0112/0118 9000 -SHRA SCT018 
NVVV,TAF NVVV 011700Z 0118/0218 VRB03KT 9999 SCT020 INTER 0112/0118 9000 -SHRA BKN018
NVVW,TAF NVVW 011700Z 0118/0218 VRB03KT 9999 SCT020 INTER 0112/0118 9000 -SHRA SCT018
NWWD,TAF NWWD 011700Z 0118/0218 VRB02KT CAVOK BECMG 0123/0201 22012KT BECMG 0208/0210 VRB02KT
NWWE,TAF NWWE 011700Z 0118/0218 22012KT 9999 FEW025 SCT035 PROB30 TEMPO 0200/0206 SHRA BKN014 BECMG 0208/0210 VRB02KT
NWWK,TAF NWWK 011700Z 0118/0218 VRB02KT CAVOK BECMG 0123/0201 18012KT BECMG 0208/0210 VRB02KT
NWWL,TAF NWWL 011700Z 0118/0218 VRB02KT 9999 SCT015 SCT025 BECMG 0123/0201 12012KT PROB30 TEMPO 0118/0218 SHRA BKN012 BECMG 0208/0210 VRB02KT
NWWM,TAF NWWM 011700Z 0118/0218 VRB02KT 9999 SCT035 SCT050 BECMG 0122/0124 18012KT PROB30 TEMPO 0200/0206 SHRA BKN012 FEW020TCU BECMG 0208/0210 VRB02KT
NWWR,TAF NWWR 011700Z 0118/0218 VRB02KT 9999 SCT020 SCT035 BECMG 0122/0124 16012KT PROB30 TEMPO 0200/0206 SHRA BKN014 SCT020TCU
NWWU,TAF NWWU 011700Z 0118/0218 VRB02KT 9999 SCT030 SCT050 PROB30 TEMPO 0200/0206 SHRA BKN012
NWWW,TAF NWWW 011700Z 0118/0218 VRB02KT CAVOK BECMG 0122/0124 18012KT BECMG 0208/0210 VRB02KT
NZAA,TAF NZAA 011703Z 0118/0300 04008KT 9999 -SHRA SCT012 BKN030 TEMPO 0121/0206 6000 SHRA BKN006 PROB30 TEMPO 0200/0206 3000 +SHRA FEW020CB TEMPO 0212/0300 6000 SHRA BKN012 FEW020TCU BECMG 0220/0222 28010KT
NZCH,TAF NZCH 011703Z 0118/0300 VRB02KT 9999 SCT025 BKN040 TEMPO 0118/0121 3000 DZ BKN004 BECMG 0122/0200 07010KT BECMG 0207/0209 VRB02KT BECMG 0218/0220 20010KT TEMPO 0218/0222 7000 SHRA
NZQN,TAF NZQN 011702Z 0118/0212 06008KT 9999 SKC TEMPO 0118/0120 BKN014 BECMG 0202/0204 19010KT
NZWN,TAF NZWN 011703Z 0118/0300 17025G35KT 9999 -RA BKN020 TEMPO 0118/0200 4000 RA BKN008 BECMG 0123/0201 BKN012 TEMPO 0200/0210 4000 RA BKN009 BECMG 0210/0212 18015KT TEMPO 0220/0300 6000 RA
OBBI,TAF OBBI 011700Z 0118/0300 29010KT CAVOK BECMG 0209/0211 01012KT BECMG 0216/0218 VRB03KT PROB30 TEMPO 0222/0300 4500 HZ SCT012
OEAB,TAF OEAB 011100Z 0112/0218 22012KT 9999 SCT020 PROB30 TEMPO 0112/0116 FEW025CB BECMG 0118/0120 VRB03KT CAVOK BECMG 0208/0210 23012KT
OEAH,TAF OEAH 010900Z 0112/0218 01010KT CAVOK BECMG 0118/0120 VRB03KT BECMG 0200/0202 25007KT
OEAO,TAF OEAO 011100Z 0112/0218 03014KT CAVOK BECMG 0120/0122 35008KT BECMG 0206/0208 07011KT
OEBA,TAF OEBA 011100Z 0112/0218 26012KT 9999 FEW030 PROB30 TEMPO 0112/0116 FEW025CB BECMG 0118/0120 29010KT CAVOK BECMG 0208/0210 24014KT
OEBH,TAF OEBH 011100Z 0112/0218 36010KT CAVOK BECMG 0118/0120 VRB03KT BECMG 0208/0210 36010KT
OEDF,TAF OEDF 011500Z 0118/0224 27010KT 8000 NSC BECMG 0207/0209 03012KT BECMG 0216/0218 25006KT
OEDR,TAF OEDR 010900Z 0112/0218 36013KT CAVOK BECMG 0118/0120 VRB03KT BECMG 0200/0202 24008KT
OEGN,TAF OEGN 011100Z 0112/0218 28010KT 7000 SCT030 PROB30 TEMPO 0112/0118 FEW035CB BECMG 0118/0120 VRB03KT FEW030 BECMG 0206/0208 26010KT
OEGS,TAF OEGS 011100Z 0112/0218 13010KT CAVOK BECMG 0118/0120 04008KT BECMG 0206/0208 14008KT
OEGT,TAF OEGT 011100Z 0112/0218 01012KT CAVOK BECMG 0200/0202 VRB03KT BECMG 0206/0208 35008KT
OEHL,TAF OEHL 011100Z 0112/0218 12011KT CAVOK BECMG 0118/0120 VRB03KT BECMG 0206/0208 14010KT
OEJN,TAF OEJN 011700Z 0118/0224 VRB03KT 7000 FEW040 PROB30 TEMPO 0200/0205 4000 BR FEW015 BECMG 0206/0208 25012KT BECMG 0218/0220 VRB03KT
OEKJ,TAF OEKJ 011100Z 0112/0218 04010KT CAVOK BECMG 0120/0122 30006KT BECMG 0209/0211 04010KT
OEKM,TAF OEKM 011100Z 0112/0218 22012KT 9999 SCT020 PROB30 TEMPO 0112/0116 FEW025CB BECMG 0118/0120 VRB03KT CAVOK BECMG 0208/0210 23012KT
OEMA,TAF OEMA 011700Z 0118/0224 13007KT CAVOK BECMG 0214/0216 36010KT
OENG,TAF OENG 011100Z 0112/0218 07010KT CAVOK BECMG 0118/0120 26008KT BECMG 0206/0208 11010KT
OEPA,TAF OEPA 010900Z 0112/0218 32012KT 8000 NSC
OEPS,TAF OEPS 010900Z 0109/0215 03012KT 9999 SKC QNH2986INS BECMG 0115/0116 10009KT 9999 SKC QNH2994INS BECMG 0123/0124 VRB06KT 9999 SKC QNH2991INS BECMG 0209/0210 35009KT 9999 SKC QNH2990INS TX37/0112Z TN22/0202Z
OERF,TAF OERF 011100Z 0112/0218 30008KT CAVOK BECMG 0118/0120 22010KT BECMG 0206/0208 25010KT
OERK,TAF OERK 011700Z 0118/0224 VRB03KT CAVOK BECMG 0202/0204 35010KT
OERR,TAF OERR 011100Z 0112/0218 03012KT CAVOK BECMG 0120/0122 33008KT BECMG 0206/0208 35010KT
OESH,TAF OESH 011100Z 0112/0218 04010KT CAVOK BECMG 0200/0202 19010KT BECMG 0209/0210 35010KT
OESK,TAF OESK 011100Z 0112/0218 03012KT CAVOK BECMG 0118/0120 VRB03KT BECMG 0208/0210 29010KT
OETB,TAF OETB 011100Z 0112/0218 05010KT CAVOK BECMG 0120/0122 VRB03KT BECMG 0206/0208 24010KT
OETF,TAF OETF 011100Z 0112/0218 29012KT 9999 FEW030 PROB30 TEMPO 0112/0118 FEW025CB BECMG 0118/0120 25010KT CAVOK BECMG 0208/0210 24014KT
OETR,TAF OETR 011100Z 0112/0218 34012KT CAVOK BECMG 0118/0120 02008KT BECMG 0204/0206 03014KT
OEWD,TAF OEWD 011100Z 0112/0218 06010KT CAVOK BECMG 0118/0120 11008KT BECMG 0209/0210 09010KT
OEWJ,TAF OEWJ 011100Z 0112/0218 30014KT CAVOK BECMG 0120/0122 02008KT BECMG 0207/0209 29013KT
OEYN,TAF OEYN 011100Z 0112/0218 28013KT CAVOK BECMG 0118/0120 VRB03KT BECMG 0200/0202 13011KT 7000 NSC BECMG 0206/0208 14011KT
OIAA,TAF OIAA 011730Z 0118/0224 29008KT 8000 NSC TEMPO 0121/0205 5000 FU/HZ TEMPO 0206/0213 30020KT
OIAW,TAF OIAW 011730Z 0118/0224 28006KT 6000 NSC TEMPO 0118/0203 4000 FU/HZ TEMPO 0206/0215 28016KT TEMPO 0209/0215 4000 SA
OIBB,TAF OIBB 011930Z 0121/0206 VRB04KT 8000 NSC TEMPO 0123/0204 4000 BR/HZ BECMG 0205/0206 24006KT
OIBK,TAF OIBK 011730Z 0118/0224 28008KT 7000 NSC TEMPO 0201/0206 3000 BR FEW030
OIBP,TAF OIBP 011930Z 0121/0206 30006KT 8000 NSC TEMPO 0122/0204 4000 BR/HZ
OICC,TAF OICC 011410Z 0115/0124 28008KT 8000 NSC TEMPO 0115/0118 28018KT
OICI,TAF OICI 011730Z 0118/0224 11006KT 8000 NSC BECMG 0206/0208 25010KT BECMG 0216/0218 09006KT
OIFM,TAF OIFM 011730Z 0118/0224 12008KT 8000 NSC TEMPO 0201/0205 4000 HZ TEMPO 0212/0218 06012KT FEW035CB SCT040 SCT100
OIGG,TAF OIGG 011930Z 0121/0206 35006KT 8000 FEW070 PROB40 TEMPO 0123/0203 4000 BR SCT020 BKN070
OIIE,TAF OIIE 011730Z 0118/0224 34012KT 8000 NSC TEMPO 0118/0203 32022KT 5000 SA/DU BECMG 0203/0205 15008KT
OIII,TAF OIII 011730Z 0118/0224 33006KT 7000 NSC TEMPO 0118/0124 4000 DU/HZ TEMPO 0201/0206 4000 HZ TEMPO 0206/0212 20010KT FEW035TCU SCT040 SCT100
OIIP,TAF OIIP 011930Z 0121/0206 30010KT CAVOK
OIKB,TAF OIKB 011730Z 0118/0224 20006KT 3000 HZ NSC TEMPO 0120/0204 03004KT 1500 BR SCT030 BECMG 0205/0207 4000 HZ FEW030 TEMPO 0209/0215 22020KT 3000 SA HZ FEW030CB SCT035 BKN090
OIKK,TAF OIKK 011730Z 0118/0224 11006KT CAVOK TEMPO 0210/0215 08018KT 5000 SA FEW035CB SCT040 SCT100
OIMM,TAF OIMM 011730Z 0118/0224 20008KT 8000 NSC TEMPO 0209/0215 10012KT
OING,TAF OING 011930Z 0121/0206 22006KT 9999 FEW030 SCT100 PROB40 TEMPO 0121/0204 4000 DZ SCT025 SCT030CB OVC070
OINZ,TAF OINZ 011410Z 0115/0124 30008KT 8000 FEW030 SCT090 TEMPO 0115/0116 27014KT FEW030CB SCT035 BKN090 PROB40 TEMPO 4000 RA/DZ TEMPO 0116/0124 26014KT 3000 RA/DZ BR SCT025 FEW030CB OVC080 PROB40 TEMPO 0116/0118 1500 RA/DZ BR BKN020
OISL,TAF OISL 011730Z 0118/0224 26008KT 8000 NSC TEMPO 0212/0215 20010KT FEW035TCU SCT040
OISS,TAF OISS 011730Z 0118/0224 32006KT 8000 NSC TEMPO 0206/0212 12010KT
OITL,TAF OITL 011930Z 0121/0206 04006KT 8000 NSC
OITR,TAF OITR 011730Z 0118/0224 32006KT 8000 NSC TEMPO 0206/0212 06010KT
OITT,TAF OITT 011730Z 0118/0224 06012KT 7000 NSC TEMPO 0118/0204 08022KT BECMG 0208/0210 12008KT
OIYY,TAF OIYY 011930Z 0121/0206 20006KT CAVOK BECMG 0201/0203 31008KT
OIZH,TAF OIZH 011730Z 0118/0224 18006KT CAVOK TEMPO 0209/0216 02018KT 5000 SA NSC
OJAI,TAF OJAI 011644Z 0118/0224 VRB02KT 6000 NSC BECMG 0205/0207 29010KT 5000 HZ
OJAM,TAF OJAM 011644Z 0118/0224 VRB02KT 6000 NSC PROB40 0204/0206 4000 FU BECMG 0206/0208 29010KT 5000 HZ
OJAQ,TAF OJAQ 011644Z 0118/0224 36012KT CAVOK
OKAS,TAF OKAS 011600Z 0116/0222 31012KT 9999 SKC QNH2972INS BECMG 0205/0206 32012G18KT 9999 SKC QNH2967INS BECMG 0212/0213 32009KT 9999 SKC QNH2966INS TX41/0211Z TN26/0202Z
OKBK,TAF OKBK 011700Z 0118/0224 33012KT 7000 NSC
OLBA,TAF OLBA 011600Z 0118/0224 34007KT 8000 NSC BECMG 0120/0122 14004KT PROB30 TEMPO 0200/0206 5000 BR BECMG 0206/0209 22008KT FEW026 BECMG 0218/0220 16004KT
OMAA,TAF OMAA 011700Z 0118/0300 VRB02KT 8000 NSC BECMG 0200/0202 15005KT PROB30 0200/0204 2000 BR BECMG 0207/0209 31011KT BECMG 0216/0218 07005KT
OMAD,TAF OMAD 011700Z 0118/0300 VRB02KT 8000 NSC PROB30 0200/0205 3000 HZ BECMG 0208/0210 33008KT
OMAL,TAF OMAL 011700Z 0118/0300 02007KT 8000 NSC BECMG 0201/0203 17008KT BECMG 0209/0211 33012KT BECMG 0217/0219 07006KT
OMDB,TAF OMDB 011700Z 0118/0300 18005KT 8000 NSC PROB30 0200/0204 4000 HZ BECMG 0206/0208 30012KT BECMG 0215/0217 10005KT
OMDW,TAF OMDW 011700Z 0118/0300 16005KT 8000 NSC PROB40 0121/0205 4000 HZ PROB30 0122/0204 1500 BR BKN005 BECMG 0207/0209 30012KT BECMG 0215/0217 08005KT
OMFJ,TAF OMFJ 011700Z 0118/0300 VRB03KT 6000 NSC TEMPO 0122/0203 4000 HZ SCT016 BECMG 0206/0208 09008KT BECMG 0214/0216 15005KT
OMRK,TAF OMRK 011700Z 0118/0300 VRB02KT 8000 NSC PROB30 0123/0204 3000 BR BECMG 0207/0209 33010KT BECMG 0215/0217 VRB02KT
OMSJ,TAF OMSJ 011700Z 0118/0300 15005KT 8000 NSC PROB30 0123/0204 3000 BR BECMG 0207/0209 30012KT BECMG 0215/0217 09005KT
OODQ,TAF OODQ 011700Z 0118/0218 20012KT 7000 NSC PROB30 TEMPO 0123/0203 4900 BR BKN015
OOMS,TAF OOMS 011700Z 0118/0224 23006KT 8000 NSC BECMG 0206/0208 07012KT BECMG 0215/0217 VRB02KT
OOSA,TAF OOSA 011740Z 0118/0300 VRB03KT 9999 SCT025 BECMG 0206/0208 19012KT BECMG 0216/0218 VRB03KT
OOSH,TAF OOSH 011700Z 0118/0224 VRB02KT 8000 NSC BECMG 0206/0208 07012KT BECMG 0214/0216 VRB02KT BECMG 0222/0224 4900 BR SCT010
OPBW,TAF OPBW 011545Z 0118/0212 23010KT 4000 FU NSC TN24/0201Z TX38/0210Z PROB30 TEMPO 0202/0206 23018KT 2000 DRDU NSC
OPDG,TAF OPDG 011545Z 0118/0212 18010KT 5000 FU NSC TN22/0201Z TX36/0210Z
OPFA,TAF OPFA 011545Z 0118/0212 09004KT 4000 FU NSC TX37/0210Z TN23/0201Z TEMPO 0200/0204 VRB02KT 1500 BR SCT100 BECMG 0208/0212 13006KT HZ NSC
OPGD,TAF OPGD 011530Z 0118/0218 VRB03KT 3000 BR SCT020 TEMPO 0200/0204 00000KT 2000 BR SCT020 FM020600 23010KT 5000 HZ FEW030
OPIS,TAF OPIS 011545Z 0118/0224 36008KT 8000 PROB30 TEMPO 0121/0224 36008G18KT 6000 -TSRA FEW030CB SCT100 BECMG 0200/0203 3000 BR 
OPKC,TAF OPKC 011530Z 0118/0224 26007KT 5000 HZ SCT025 TEMPO 0100/0204 27006KT 4000 FU SCT020 FM020800 24010G20KT 6000 SCT030 BECMG 0217/0219 26007KT 5000 HZ SCT020
OPLA,TAF OPLA 011545Z 0118/0224 VRB02KT 4000 FU NSC TX35/0210Z TN23/0201Z TEMPO 0200/0204 00000KT 2000 BR NSC BECMG 0204/0206 34005KT 5000 FU FEW040 BECMG 0215/0218 VRB02KT 4000 FU NSC
OPMT,TAF OPMT 011545Z 0118/0212 23010KT 5000 FU NSC TN23/0201Z TX37/0210Z PROB30 TEMPO 0202/0206 23016KT 2000 DRDU NSC
OPNH,TAF OPNH 011530Z 0118/0224 18005KT 4000 HZ NSC TEMPO 0200/0204 VRB03KT 3000 FU NSC FM020800 14008KT 5000 HZ NSC BECMG 0217/0219 VRB03KT 4000 HZ NSC
OPPS,TAF OPPS 011530Z 0118/0224 36006KT 4000 VCTS FEW060 SCT100 TEMPO 0119/0123 18012G25KT 3000 -TSRA FEW035CB SCT040 BKN100 BECMG 0202/0205 05006KT 6000 NSC BECMG 0215/0217 05006KT 4000 FU FEW100
OPRK,TAF OPRK 011545Z 0118/0212 23010KT 5000 FU NSC TN23/0201Z TX38/0210Z
OPSK,TAF OPSK 011530Z 0118/0218 14005KT 4000 HZ NSC 0200/0204 VRB03KT 3000 FU NSC FM020700 13007KT 5000 HZ NSC
OPST,TAF OPST 011545Z 0118/0224 23006KT 4000 FU NSC TX34/0210Z TN24/0201Z TEMPO 0200/0205 VRB03KT 1500 BR FEW040
ORBI,TAF ORBI 011600Z 0118/0218 32006KT 8000 NSC
ORER,TAF ORER 011700Z 0118/0218 VRB02KT 7000 NSC BECMG 0122/0123 05005KT
ORMM,TAF ORMM 011000Z 0112/0212 29017KT CAVOK TEMPO 0115/0203 27007KT
ORNI,TAF ORNI 011600Z 0118/0218 35005KT 7000 NSC
ORSU,TAF ORSU 011700Z 0118/0218 03015KT CAVOK TEMPO 0202/0210 G25KT BECMG 0210/0212 12008KT
OSAP,OSAP 011700Z 0118/0218 36008KT CAVOK BECMG 0118/0120 VRB03KT
OSDI,OSDI 011700Z 0118/0224 06010KT CAVOK TEMPO 0209/0218 20015KT 9999 FEW030
OSLK,OSLK 011700Z 0118/0218 10005KT CAVOK TEMPO 0206/0218 25012KT 9999 FEW030
OTBD,TAF OTBD 011704Z 0118/0224 31006KT 8000 NSC TEMPO 0119/0206 25006KT PROB30 TEMPO 0201/0204 5000 HZ BECMG 0209/0211 09008KT
OTBH,TAF OTBH 011600Z 0116/0222 VRB06KT 9999 SKC QNH2970INS BECMG 0205/0206 32012KT 9000 HZ FEW070 QNH2970INS BECMG 0208/0209 34012G18KT 9000 HZ SKC QNH2961INS BECMG 0212/0213 08009KT 9999 NSW SKC QNH2960INS BECMG 0215/0216 VRB06KT 9999 SKC QNH2964INS TX38/0211Z TN25/0202Z
OTHH,TAF OTHH 011704Z 0118/0224 31006KT 8000 NSC TEMPO 0119/0206 25007KT PROB30 TEMPO 0201/0204 5000 HZ BECMG 0209/0211 10008KT
PAAQ,PAAQ 012121Z 0121/0218 VRB03KT P6SM SCT015 BKN040 TEMPO 0121/0124 OVC015 FM020300 15005KT P6SM VCSH BKN030 FM021100 08006KT 5SM -RA BR OVC020
PABE,PABE 011729Z 0118/0218 10008KT P6SM FEW020
PABI,TAF PABI 010600Z 0106/0212 20010KT 9999 FEW030 SCT070 BKN200 520006 QNH2950INS BECMG 0120/0122 VRB06KT 9000 -SHRA BKN016 OVC023 510012 QNH2963INS BECMG 0202/0203 VRB06KT 9000 BR FEW016 SCT024 OVC035 510012 QNH2963INS TX08/0106Z TN04/0206Z LAST NO AMDS AFT 0106 NEXT 0314
PABR,PABR 011731Z 0118/0218 07011KT P6SM OVC010 FM020900 09007KT 4SM BR OVC005 FM021500 10008KT P6SM OVC010
PABT,PABT 011731Z 0118/0218 33004KT P6SM VCSH BKN040 OVC060 FM020900 VRB04KT 5SM -RASN BR BKN010 OVC030
PACD,PACD 011720Z 0118/0218 15008KT P6SM OVC060 FM020600 20015KT P6SM -RA OVC030
PACV,PACV 011736Z 0118/0218 VRB02KT P6SM FEW028 BKN070 FM020500 10008G15KT 5SM -RA FEW015 BKN025 FM021200 10008KT 5SM -RA BR OVC025
PADL,PADL 011729Z 0118/0218 VRB05KT P6SM OVC040 FM012100 VRB06KT P6SM -SHRA BKN025 FM020300 VRB05KT P6SM FEW007 OVC050
PADQ,PADQ 011736Z 0118/0218 27005KT P6SM FEW070 BKN090 OVC110 FM011900 16007KT P6SM -RA SCT025 OVC035 FM012200 23007KT P6SM VCSH SCT030 OVC045 FM020200 26007KT P6SM FEW030 SCT045 BKN070
PADU,PADU 011720Z 0118/0218 22015KT P6SM FEW015 BKN050 FM020600 24020KT P6SM BKN030
PAED,TAF PAED 011800Z 0118/0224 20009KT 9999 SCT007 BKN015 BKN030 QNH2961INS TEMPO 0118/0119 BKN007 BECMG 0119/0120 20009KT 9999 FEW015 SCT045 BKN050 610502 QNH2964INS BECMG 0207/0208 VRB06KT 9000 -RA SCT020 BKN030 OVC045 620458 QNH2973INS BECMG 0211/0212 36006KT 9000 -RA BKN018 BKN030 OVC040 620458 QNH2974INS BECMG 0221/0222 01009KT 9999 NSW SCT020 BKN045 620455 QNH2980INS TX10/0200Z TN05/0215Z
PAEI,TAF AMD PAEI 011728Z 0117/0220 VRB04KT 9999 BKN004 620604 QNH2956INS BECMG 0120/0121 VRB06KT 9999 FEW005 BKN020 BKN050 620604 QNH2958INS BECMG 0121/0122 VRB06KT 9999 VCSH FEW005 SCT007 BKN020 620604 QNH2958INS BECMG 0122/0123 VRB06KT 6000 -SHRA BR SCT007 BKN020 620604 QNH2962INS BECMG 0206/0207 VRB04KT 9000 BR FEW010 BKN025 620604 QNH2969INS BECMG 0217/0218 VRB06KT 9999 NSW FEW030 BKN050 620604 QNH2974INS TX06/0200Z TN00/0117Z
PAEN,PAEN 011727Z 0118/0218 16005KT P6SM FEW015 BKN080 FM020500 16007KT P6SM -RA FEW015 OVC045 FM021300 04005KT 6SM -RA BR OVC020
PAFA,PAFA 011731Z 0118/0224 VRB03KT P6SM BKN060 BKN090 FM020300 27005KT P6SM VCSH BKN025 OVC050 FM020900 VRB03KT 3SM SHRA BR OVC020 FM021500 VRB04KT P6SM VCSH OVC050
PAFB,TAF PAFB 010600Z 0106/0212 00000KT 9999 SCT060 BKN100 621202 QNH2953INS TEMPO 0108/0112 9000 -RA BKN050 BKN090 620507 BECMG 0200/0201 VRB04KT 9999 VCSH BKN015 OVC030 620309 QNH2962INS TEMPO 0202/0206 9000 -RA BKN005 OVC025 620207 BECMG 0206/0207 VRB04KT 9000 -RA BR BKN005 OVC015 620108 QNH2965INS TX10/0200Z TN02/0114Z LAST NO AMDS AFT 0106 NEXT 0314
PAGA,PAGA 011731Z 0118/0218 04004KT 6SM BR SCT005 OVC050 FM012100 04005KT P6SM OVC050 AMD LTD TO CLD VIS WX
PAGK,PAGK 011736Z 0118/0218 VRB03KT P6SM -RA BKN050 OVC070 FM012000 16008KT P6SM FEW045 BKN080 FM020200 16015G22KT P6SM SCT060 BKN090 FM020900 15010KT P6SM -RA SCT045 OVC060 FM021500 15009KT P6SM BKN060
PAGS,PAGS 011731Z 0118/0218 21009KT P6SM VCSH SCT015 BKN050 WS020/17035KT TEMPO 0118/0120 3SM RA BR BKN015 OVC025 FM012000 16015KT P6SM VCSH SCT007 BKN050 FM020800 17006KT P6SM VCFG SCT007 BKN050 AMD LTD TO CLD VIS AND WIND
PAGY,PAGY 012055Z 0121/0218 22025G35KT P6SM VCSH BKN050 FM021200 22011KT P6SM BKN050 AMD LTD TO CLD VIS AND WIND
PAHN,PAHN 011731Z 0118/0218 11014G24KT P6SM VCSH SCT020 BKN050 AMD LTD TO CLD VIS AND WIND
PAHO,PAHO 011727Z 0118/0218 14005KT P6SM FEW005 BKN100 FM020300 VRB03KT P6SM -RA OVC030 FM020800 VRB02KT P6SM -RA OVC020
PAIL,PAIL 011729Z 0118/0218 VRB04KT P6SM SKC FM020000 14006KT P6SM SCT025 BKN050
PAJN,PAJN 011731Z 0118/0218 31004KT P6SM -RA SCT006 OVC040 WS020/15030KT TEMPO 0118/0121 15015G25KT 3SM RA BR OVC025 FM012100 09007KT P6SM VCSH SCT025 OVC050 FM020800 VRB04KT P6SM VCFG SCT025 BKN040
PAKN,PAKN 011729Z 0118/0218 09006KT P6SM -RA FEW020 BKN025 OVC050 FM012100 16006KT P6SM -SHRA BKN025 FM020000 21006KT P6SM SCT025 BKN035
PAKT,PAKT 011731Z 0118/0218 14015G25KT 3SM -RA BR OVC007 WS015/16045KT FM020200 34005KT P6SM FEW015 BKN050 AMD LTD TO CLD VIS AND WIND 0206/0215
PAKW,PAKW 011731Z 0118/0218 17013KT 1SM RA BR SCT020 OVC030 WS020/18035KT TEMPO 0118/0120 2SM -RA BR BKN015 OVC020 FM012000 24012KT P6SM VCSH OVC050 FM020400 02004KT P6SM SCT050 AMD LTD TO CLD VIS AND WIND
PAMC,PAMC 011836Z 0119/0218 VRB04KT P6SM OVC080 TEMPO 0119/0121 VRB04KT 1SM BR BKN002
PANC,PANC 011907Z 0119/0224 21008KT P6SM SCT005 BKN050 FM020000 16005KT P6SM OVC035 FM020600 VRB04KT 6SM BR VCSH OVC030 FM021000 10005KT 5SM -RA BR OVC020
PAOM,PAOM 011731Z 0118/0218 05008KT P6SM SKC
PAOR,PAOR 011731Z 0118/0218 31013KT 4SM RA BR OVC020 FM020000 30008KT P6SM VCSH OVC040 FM020600 29005KT P6SM BKN040 OVC070
PAOT,PAOT 011731Z 0118/0218 04008KT P6SM SKC
PAPG,PAPG 011731Z 0118/0218 12012KT 5SM +RA BR OVC025 WS020/19035KT FM012200 14009KT P6SM VCSH BKN050 FM020400 14009KT P6SM SCT050 FM021200 VRB03KT P6SM BCFG SCT050 AMD LTD TO CLD VIS AND WIND 0206/0215
PAQT,PAQT 011732Z 0118/0218 01010KT 1SM -SN BR BKN007 BKN010 OVC040 FM012100 04012KT 5SM -SN BR OVC020 FM020300 05009KT P6SM OVC030
PASC,PASC 011731Z 0118/0218 05008KT 5SM -SN BR SCT005 BKN010 OVC020 FM012100 04012KT 6SM BR OVC025
PASD,PASD 011720Z 0118/0218 23010KT P6SM SCT025 BKN050 TEMPO 0121/0124 P6SM -RA BKN025
PASI,PASI 011731Z 0118/0218 24010KT P6SM SCT025 BKN050 FM020600 07005KT P6SM SCT025 BKN050
PASN,PASN 011720Z 0118/0218 19015KT P6SM FEW015 BKN050 FM020900 34013KT 4SM -RA BR OVC015
PASY,TAF PASY 011400Z 0114/0220 28015G20KT 9999 FEW021 FEW028 520008 QNH2957INS BECMG 0123/0124 27009KT 8000 BR SCT015 BKN020 BKN035 QNH2984INS BECMG 0209/0210 15020KT 8000 -RA OVC010 520008 QNH2961INS BECMG 0214/0215 24035KT 9000 BR OVC004 520007 QNH2935INS TEMPO 0216/0218 24040G50KT BECMG 0218/0219 31030G40KT 9000 BR OVC004 520007 QNH2938INS TX09/0211Z TN07/0206Z
PATA,PATA 011731Z 0118/0218 VRB04KT P6SM VCSH BKN060 OVC090 FM020300 VRB04KT P6SM OVC070 FM021200 VRB04KT P6SM VCSH OVC050
PATK,PATK 012111Z 0121/0218 VRB03KT P6SM OVC003 FM020000 VRB03KT P6SM OVC010 FM020800 VRB02KT 6SM -RA BR OVC004
PAUN,PAUN 011731Z 0118/0218 07011KT P6SM OVC040
PAVD,PAVD 011736Z 0118/0218 00000KT 1/4SM FG FEW001 BKN003 BKN120 TEMPO 0118/0120 1 1/2SM BR SCT003 FM012000 VRB02KT 6SM BR SCT003 BKN120 FM012200 VRB02KT P6SM -RA OVC035 FM020600 VRB03KT 6SM -RA BR OVC030 FM020900 VRB03KT 4SM -RA BR OVC019
PAWG,PAWG 011731Z 0118/0218 13014G24KT 4SM RA BR OVC025 WS020/18040KT FM012000 24005KT P6SM VCSH SCT030 BKN050 FM020400 14009KT P6SM SCT050 FM021200 VRB03KT P6SM BCFG SCT050 AMD LTD TO CLD VIS AND WIND 0206/0215
PAYA,PAYA 011731Z 0118/0218 24012KT 6SM -RA BR SCT015 OVC030 TEMPO 0118/0121 2SM RA BR OVC015 FM020000 10006KT P6SM VCSH SCT015 OVC050 FM020800 11008KT P6SM -RA OVC050 AMD LTD TO CLD VIS AND WIND
PGRO,PGRO 012019Z 0120/0218 12011KT P6SM VCSH SCT015 SCT050 BKN120
PGSN,PGSN 011726Z 0118/0218 12011KT P6SM VCSH SCT020 SCT050 BKN120 TEMPO 0118/0122 VRB12G22KT 2SM +SHRA SCT015 BKN025 OVC040
PGUA,TAF AMD PGUA 011925Z 0119/0224 15009KT 9999 VCSH SCT016 SCT120 QNH2977INS TEMPO 0200/0212 13015G22KT 4800 +SHRA VCTS BKN012CB BKN040 TX29/0204Z TN24/0218Z
PGUM,PGUM 011956Z 0120/0224 12010KT P6SM VCSH SCT020 SCT050 BKN120
PGWT,TAF COR PGWT 010543Z 0106/0206 10011KT P6SM VCSH SCT018 SCT050
PHHI,TAF PHHI 010700Z 0107/0213 VRB06KT 9999 FEW030 QNH3002INS BECMG 0119/0120 11009KT 9999 FEW030 SCT035 QNH2998INS TEMPO 0200/0205 13010G15KT BKN030 BECMG 0204/0205 VRB06KT 9999 SCT030 QNH2999INS TX30/0123Z TN20/0115Z LAST NO AMDS AFT 0109 NEXT 0315
PHJH,PHJH 011736Z 0118/0218 05010KT P6SM FEW050 FM012000 04015G24KT P6SM SCT050 FM020400 05008KT P6SM FEW050
PHJR,PHJR 011736Z 0118/0218 05004KT P6SM SKC FM012000 14010G15KT P6SM BKN050 FM020400 03004KT P6SM SKC FM021700 VRB06KT P6SM VCSH SCT020 BKN045
PHKO,PHKO 011736Z 0118/0218 VRB06KT P6SM SKC FM012000 24008KT P6SM SCT050 FM020500 VRB06KT P6SM SCT050
PHLI,PHLI 011736Z 0118/0218 VRB06KT P6SM FEW020 SCT030 FM011900 06011KT P6SM FEW025 SCT040 FM020400 03010KT P6SM SCT025 FM021600 05015KT 5SM SHRA BR BKN020 BKN040
PHMK,PHMK 011736Z 0118/0218 04008KT P6SM SCT025 SCT045 FM012000 04012G18KT P6SM BKN040 FM020400 04006KT P6SM SCT040 FM021700 03007KT P6SM -SHRA SCT020 BKN035
PHNG,TAF PHNG 0103/0203 07008KT 9999 FEW020 FEW025 SCT040 QNH2994INS TEMPO 0103/0109 VRB06KT SCT025 SCT030 BKN040 T25/0111Z T28/0122Z LAST TAF NO AMD TIL 0315
PHNL,PHNL 012107Z 0121/0224 10011KT P6SM SCT025 SCT045 FM012300 05009KT P6SM SCT025 BKN045 FM021800 05009KT 6SM -SHRA SCT020 BKN035 FM022100 06012KT 5SM SHRA SCT020 BKN030
PHNY,PHNY 011736Z 0118/0218 05008KT P6SM SCT025 FM012000 28008KT P6SM BKN025 FM020200 05014KT P6SM SCT025
PHOG,PHOG 011736Z 0118/0218 05010KT P6SM FEW040 FM012000 04015G24KT P6SM SCT050 FM020500 05008KT P6SM SCT050
PHTO,PHTO 011736Z 0118/0218 24006KT P6SM FEW025 SCT040 FM012000 05006KT P6SM FEW040 FM020500 24004KT P6SM FEW040
PKMJ,PKMJ 011726Z 0118/0218 10011KT P6SM VCSH SCT018 BKN050 BKN120
PKWA,PKWA 011726Z 0118/0218 07011KT P6SM VCSH SCT018 SCT050 SCT120
PLCH,TAF AMD PLCH 011959Z 0120/0218 12010KT 9999 FEW020 PROB40 TEMPO 0120/0205 12015G25KT
PMDY,PMDY 011736Z 0118/0218 02004KT P6SM SCT015 SCT030 FM012300 04008KT 6SM -SHRA BR SCT020 BKN035 FM020200 07012KT 5SM SHRA BR BKN022 BKN035 OVC050 FM020600 07015KT P6SM BKN028 FM021200 08012KT P6SM SCT030 SCT050
PTKK,PTKK 011726Z 0118/0218 04011KT P6SM VCSH SCT014 SCT120 TEMPO 0122/0202 5SM SHRA BKN014 BKN120
PTPN,PTPN 011125Z 0112/0212 07011KT P6SM VCSH SCT018 BKN130 TEMPO 0112/0116 08011G22KT 4SM SHRA BKN014
PTRO,PTRO 011726Z 0118/0218 07008KT 6SM -SHRA VCSH BKN015 OVC120 FM012100 11010KT P6SM VCSH SCT015 BKN120 TEMPO 0121/0201 -SHRA BKN015 BKN120
PTSA,PTSA 010113Z 0101/0124 07011KT P6SM VCSH SCT020 SCT120 TEMPO 0102/0104 06015G30KT
PTYA,PTYA 011726Z 0118/0218 10007KT P6SM VCSH SCT016 SCT120
PWAK,TAF PWAK 011400Z 0114/0220 08020KT 9999 FEW030 QNH2989INS TEMPO 0122/0202 9000 -SHRA BKN025 TX31/0204Z TN25/0114Z FOR MIL USE ONLY LIMITED METWATCH 0114 TIL 0220
RCFN,TAF RCFN 011700Z 0118/0218 03005KT 9999 FEW015 BKN032 TEMPO 0118/0124 33005KT TEMPO 0205/0211 07010KT 5000 SHRA FEW010 BKN020 BKN040
RCKH,TAF RCKH 011700Z 0118/0224 32005KT 9999 FEW015 BKN032 TEMPO 0118/0124 05005KT 5000 BR FEW010 BKN020 BKN040 TEMPO 0202/0206 27008KT BECMG 0217/0219 01005KT TEMPO 0220/0224 5000 BR FEW010 BKN020
RCMQ,TAF RCMQ 011700Z 0118/0218 35004KT 6000 FEW012 TX31/0205Z TN24/0121Z TEMPO 0119/0124 4800 BR FEW010 BKN025 BECMG 0202/0205 33006KT TEMPO 0206/0211 FEW010 BKN025 BECMG 0212/0215 36004KT
RCNN,TAF RCNN 011700Z 0118/0218 08004KT 9999 FEW012 SCT050 TX33/0205Z TN24/0120Z BECMG 0120/0123 8000 BECMG 0201/0204 32008KT 9999 BECMG 0208/0211 FEW012 SCT030 BKN100 BECMG 0212/0215 02004KT FEW012 SCT080
RCSS,TAF RCSS 011700Z 0118/0218 09008KT 9999 FEW020 BKN032 TEMPO 0118/0124 VRB05KT TEMPO 0200/0206 30005KT TEMPO 0206/0212 08013KT
RCTP,TAF RCTP 011700Z 0118/0224 18005KT 9999 FEW015 BKN032 TEMPO 0120/0124 5000 BR FEW010 BKN020 BECMG 0200/0202 35005KT TEMPO 0206/0212 06010KT BECMG 0212/0214 15005KT TEMPO 0218/0224 4500 BR FEW010 BKN018
RJAA,TAF RJAA 011711Z 0118/0300 03010KT 9999 FEW030
RJAH,TAF RJAH 011711Z 0118/0300 04005KT 9999 FEW030
RJBB,TAF RJBB 011705Z 0118/0300 05007KT 9999 FEW025 BECMG 0201/0203 28008KT BECMG 0206/0209 20010KT BECMG 0212/0215 12004KT
RJCB,TAF RJCB 011707Z 0118/0300 15004KT 9999 FEW006 BKN015 BECMG 0119/0121 34005KT BECMG 0202/0204 15008KT
RJCC,TAF RJCC 011705Z 0118/0300 02004KT 9999 FEW008 BKN015 TEMPO 0118/0122 0500 FG VV001 TEMPO 0122/0200 3000 BR FEW003 BKN006 BECMG 0201/0203 18016KT
RJCH,TAF RJCH 011711Z 0118/0300 03005KT 9999 FEW030 BECMG 0200/0202 13015KT
RJCK,TAF RJCK 011712Z 0118/0300 02008KT 9999 FEW003 SCT015 BECMG 0202/0204 16007KT BECMG 0209/0212 35005KT
RJCM,TAF RJCM 011714Z 0118/0300 01008KT 9999 FEW005 BKN015 TEMPO 0118/0122 4000 -SHRA BR FEW003 BKN005 BECMG 0206/0209 19009KT
RJEC,TAF RJEC 011710Z 0118/0300 32005KT 9999 FEW008 BKN015 BECMG 0206/0209 18012KT
RJFF,TAF RJFF 011706Z 0118/0300 14007KT 9999 FEW015 BECMG 0202/0204 32011KT BECMG 0209/0212 14005KT
RJFK,TAF RJFK 011706Z 0118/0300 03003KT 7000 FEW020 SCT040 BECMG 0122/0200 19008KT BECMG 0215/0218 04004KT BECMG 0221/0300 10006KT
RJFM,TAF RJFM 011706Z 0118/0300 28007KT 9999 FEW025 BECMG 0200/0202 07008KT BECMG 0215/0218 28008KT
RJFO,TAF RJFO 011706Z 0118/0300 28004KT 9999 FEW030 BECMG 0120/0122 12006KT
RJFR,TAF RJFR 011708Z 0118/0300 02004KT 9999 FEW020 BECMG 0118/0120 12007KT
RJFS,TAF RJFS 011706Z 0118/0300 03004KT 9999 FEW025 BECMG 0206/0209 24005KT BECMG 0215/0218 13004KT
RJFT,TAF RJFT 011705Z 0118/0300 06004KT 9999 FEW025 BECMG 0201/0203 25005KT BECMG 0209/0212 07004KT
RJFU,TAF RJFU 011707Z 0118/0300 14006KT 9999 FEW025 BECMG 0203/0205 24012KT BECMG 0209/0212 14005KT
RJGG,TAF RJGG 011705Z 0118/0300 36005KT 9999 FEW020 BECMG 0202/0204 15012KT BECMG 0218/0221 02005KT
RJNK,TAF RJNK 011705Z 0118/0300 14004KT 9999 FEW030 BECMG 0123/0201 32006KT BECMG 0203/0205 36008KT BECMG 0209/0212 18004KT
RJNS,TAF RJNS 011705Z 0118/0300 32004KT 9999 FEW030 BECMG 0122/0200 11005KT BECMG 0209/0212 35004KT BECMG 0221/0300 04005KT
RJNT,TAF RJNT 011705Z 0118/0300 19004KT 9999 FEW015 BECMG 0123/0201 36008KT BECMG 0209/0212 19005KT
RJOA,TAF RJOA 011706Z 0118/0300 35004KT 9999 FEW025 BECMG 0123/0201 15005KT BECMG 0212/0215 35005KT
RJOB,TAF RJOB 011708Z 0118/0300 02004KT 9999 FEW020 BECMG 0201/0203 23005KT BECMG 0209/0212 02004KT
RJOC,TAF RJOC 011711Z 0118/0300 17005KT 7000 FEW005 SCT008 BKN015 TEMPO 0118/0123 4000 BR BCFG FEW000 SCT003 BKN005 BECMG 0122/0200 05007KT BECMG 0212/0215 17005KT
RJOH,TAF RJOH 011710Z 0118/0300 22004KT 9999 FEW005 SCT008 TEMPO 0120/0123 4000 BR BCFG FEW000 SCT003 BKN005 BECMG 0200/0202 05007KT BECMG 0215/0218 19004KT
RJOI,TAF RJOI 0121/0221 03009KT 9999 FEW025 FEW200 QNH3004INS FM020300 07009KT 9999 FEW025 FEW200 QNH3003INS TEMPO 0204/0209 17009KT FM021000 31007KT 9999 SCT025 BKN070 BKN200 QNH3004INS TEMPO 0211/0214 -SHRA FM021800 VRB06KT 9999 SCT025 BKN050 BKN130 QNH3004INS T18/0121Z T27/0206Z
RJOK,TAF RJOK 011706Z 0118/0300 35005KT 9999 FEW030 BECMG 0200/0202 18008KT BECMG 0209/0212 35006KT
RJOM,TAF RJOM 011707Z 0118/0300 12007KT 9999 FEW030 BECMG 0123/0201 35008KT BECMG 0209/0212 12007KT
RJOO,TAF RJOO 011705Z 0118/0300 32006KT 9999 FEW025 BECMG 0200/0202 22008KT BECMG 0209/0212 32005KT
RJOT,TAF RJOT 011708Z 0118/0300 15007KT 9999 FEW025
RJSA,TAF AMD RJSA 012029Z 0120/0300 24004KT 9999 FEW030 BECMG 0201/0203 02007KT BECMG 0209/0212 20004KT
RJSF,TAF RJSF 011707Z 0118/0300 36007KT 9999 FEW020 TEMPO 0118/0200 3000 BR FEW002 BKN005 BECMG 0206/0209 12004KT TEMPO 0218/0300 3000 BR FEW002 BKN005
RJSI,TAF RJSI 011705Z 0118/0300 01004KT 9999 FEW030 BECMG 0200/0202 19008KT BECMG 0215/0218 01004KT
RJSK,TAF AMD RJSK 012029Z 0120/0300 14004KT 9999 FEW030 TEMPO 0120/0200 3000 BR FEW002 BKN005 BECMG 0201/0203 30008KT BECMG 0209/0212 14007KT
RJSN,TAF RJSN 011705Z 0118/0300 17004KT 9999 FEW010 BECMG 0123/0201 35006KT BECMG 0202/0204 02012KT BECMG 0209/0212 16008KT
RJSS,TAF RJSS 011706Z 0118/0300 34004KT 9999 FEW020 BECMG 0200/0202 12008KT BECMG 0215/0218 34004KT
RJTT,TAF RJTT 011705Z 0118/0300 02008KT 9999 FEW030 BECMG 0202/0204 08006KT BECMG 0212/0215 01008KT
RJTY,TAF RJTY 012100Z 0121/0303 01009KT 9999 FEW030 QNH3012INS BECMG 0208/0209 VRB06KT 9999 FEW020 BKN180 QNH3015INS TEMPO 0215/0222 BKN020 TX30/0205Z TN17/0121Z
RKJB,TAF RKJB 011700Z 0118/0224 09005KT 7000 NSC TN16/0120Z TX27/0205Z TN21/0221Z BECMG 0123/0124 16008KT BECMG 0208/0209 BKN030
RKNY,TAF RKNY 011700Z 0118/0224 25006KT CAVOK TN18/0120Z TX22/0205Z TN18/0220Z BECMG 0123/0201 12006KT BECMG 0208/0210 25007KT 9999 FEW010 BKN025 OVC100 BECMG 0222/0223 35006KT 6000 -RA
RKPC,TAF RKPC 011700Z 0118/0224 17006KT CAVOK TN18/0120Z TX27/0205Z TN17/0220Z BECMG 0200/0201 35006KT 9999 SCT030 BECMG 0209/0210 20005KT BECMG 0223/0224 03007KT
RKPK,TAF RKPK 011700Z 0118/0224 33006KT CAVOK TN17/0121Z TX28/0206Z BECMG 0202/0203 21006KT BECMG 0213/0214 21008KT 9999 BKN030 BKN100
RKSG,TAF RKSG 011900Z 0119/0301 VRB06KT 4800 HZ FEW110 OVC150 QNH2999INS BECMG 0211/0212 VRB06KT 6000 -SHRA FEW020 BKN040 510043 QNH3000INS BECMG 0220/0221 13009KT 8000 BR BKN040 OVC080 520203 QNH2992INS TX22/0201Z TN16/0121Z
RKSI,TAF AMD RKSI 011950Z 0120/0224 03006KT 4000 -RA FEW030 BKN120 TN19/0121Z TX23/0205Z TN20/0220Z BECMG 0122/0124 10008KT 6000 BECMG 0206/0208 13008KT FEW010 BKN025 OVC080 TEMPO 0213/0218 15015G25KT 4000 RA BECMG 0218/0220 19018G30KT
RKSM,TAF COR RKSM 011700Z 0118/0224 09006KT 4800 BR SCT100 BKN150 VIS 9999 NSW AFT 0200 BECMG 0208/0209 15006KT 4800 -RA BR BKN030 OVC100 TN16/0121Z TX23/0206Z
RKSO,TAF RKSO 011305Z 0113/0219 VRB06KT 6000 HZ SCT200 QNH3007INS BECMG 0114/0115 VRB06KT 4800 BR FEW002 SCT200 QNH3006INS BECMG 0117/0118 VRB06KT 1600 BR FEW002 SCT200 QNH3005INS BECMG 0201/0202 VRB06KT 4800 BR SCT100 QNH3007INS BECMG 0204/0205 VRB06KT 9000 HZ SCT100 BKN120 QNH3003INS BECMG 0214/0215 12015KT 8000 -RA SCT030 BKN050 OVC080 QNH3001INS TX22/0205Z TN15/0119Z LAST NO AMDS AFT 0113 NEXT 0213
RKSS,TAF AMD RKSS 012020Z 0120/0224 06005KT 4000 BR NSC TN16/0118Z TX24/0204Z TN19/0220Z TEMPO 0120/0202 -RA FEW030 BKN120 BECMG 0202/0203 11007KT 6000 NSW BECMG 0207/0209 -RA FEW012 BKN030 OVC080 BECMG 0212/0214 17010G20KT TEMPO 0218/0221 4000 RA
RKTN,TAF RKTN 011700Z 0118/0224 13006KT CAVOK TN15/0121Z TX28/0206Z
RKTU,TAF RKTU 011700Z 0118/0224 18006KT 9999 FEW030 BKN150 TN12/0121Z TX27/0206Z
ROAH,TAF ROAH 011705Z 0118/0300 06012KT 9999 FEW020
RODN,TAF RODN 0116/0222 07009KT 9999 FEW020 QNH2996INS BECMG 0204/0205 02012KT 9999 SCT020 QNH2997INS TX30/0204Z TN24/0119Z
ROIG,TAF ROIG 011708Z 0118/0300 09011KT 9999 FEW020
ROTM,TAF ROTM 0121/0221 VRB06KT 9999 SCT020 SCT060 QNH2993INS BECMG 0200/0202 05010KT 9999 SCT020 QNH2992INS BECMG 0209/0210 08013KT 9999 SCT020 SCT060 QNH2991INS TEMPO 0218/0221 SCT020 BKN060 T32/0205Z T26/0218Z
RPLB,TAF RPLB 011700Z 0118/0218 07007KT 9999 FEW020 TX32/0205Z TN24/0121Z TEMPO 0118/0124 VRB03KT FEW018CB SCT080 BKN300
RPLC,TAF RPLC 011700Z 0118/0224 14006KT 9999 FEW020 BKN300 TX33/0206Z TN25/0121Z TEMPO 0118/0124 34005KT FEW020 SCT300
RPLI,TAF RPLI 011700Z 0118/0218 10004KT 9999 FEW018 BKN290 BECMG 0201/0203 29007KT FEW018
RPLL,TAF RPLL 011700Z 0118/0224 12007KT 9999 FEW025 SCT300 TX33/0206Z TN27/0120Z TEMPO 0118/0124 VRB02KT FEW025 BKN100 TEMPO 0203/0209 13011KT FEW023CB SCT100
RPMD,TAF RPMD 011700Z 0118/0218 02005KT 9999 FEW016 SCT290 TEMPO 0118/0124 VRB03KT FEW016 SCT080
RPMR,TAF RPMR 011700Z 0118/0218 16007KT 9999 FEW018 SCT250 TEMPO 0118/0124 02003KT FEW017CB SCT080
RPMZ,TAF RPMZ 011700Z 0118/0218 25006KT 9999 FEW017 SCT090 BKN300 TEMPO 0118/0124 VRB02KT FEW016CB BKN090 TEMPO 0200/0206 11007KT
RPVD,TAF RPVD 011700Z 0118/0218 04006KT 9999 FEW015 SCT220 TEMPO 0118/0124 32004KT -SHRA FEW014CB BKN070
RPVM,TAF RPVM 011700Z 0118/0224 05006KT 9999 FEW020 BKN300 TEMPO 0118/0124 FEW018CB BKN100 TEMPO 0200/0206 FEW018CB SCT300
RPVP,TAF RPVP 011700Z 0118/0218 09006KT 9999 FEW019 TEMPO 0118/0124 27004KT
SAAR,TAF SAAR 011700Z 0118/0218 VRB03KT CAVOK TX28/0218Z TN12/0209Z BECMG 0215/0217 09010KT 
SABE,TAF SABE 011700Z 0118/0218 06010KT CAVOK TX23/0218Z TN14/0209Z BECMG 0203/0205 VRB03KT 
SACO,TAF SACO 011700Z 0118/0218 05015KT 9999 FEW030 TX29/0218Z TN09/0210Z BECMG 0200/0203 32005KT CAVOK BECMG 0206/0209 VRB04KT CAVOK BECMG 0213/0216 05010KT 9999 SCT030
SADF,TAF SADF 011700Z 0118/0218 07010KT 9999 FEW045 TX28/0218Z TN13/0209Z BECMG 0120/0122 CAVOK BECMG 0205/0207 36005KT BECMG 0213/0215 VRB03KT 9999 FEW040
SAEZ,TAF SAEZ 011700Z 0118/0218 VRB05KT 9999 SCT030 TX26/0218Z TN10/0210Z BECMG 0121/0200 07005KT CAVOK BECMG 0209/0212 33005KT 5000 BR NSC BECMG 0212/0215 VRB04KT CAVOK
SAME,TAF SAME 011700Z 0118/0218 05010KT CAVOK TX29/0120Z TN12/0210Z BECMG 0202/0204 20005KT PROB30 TEMPO 0211/0214 18005KT 6000 HZFU NSC BECMG 0215/0217 36010KT
SANR,TAF SANR 011700Z 0118/0218 05010KT CAVOK TX30/0218Z TN11/0210Z BECMG 0205/0208 VRB04KT 9999 SCT040
SANT,TAF SANT 011700Z 0118/0218 05010KT 8000 FEW035 TX29/0218Z TN12/0210Z BECMG 0200/0203 VRB04KT 6000 NSC BECMG 0210/0212 36005KT CAVOK
SARE,TAF SARE 011700Z 0118/0218 14005KT CAVOK TX28/0119Z TN14/0210Z
SARF,TAF SARF 011700Z 0118/0218 14005KT CAVOK TX27/0119Z TN15/0210Z
SARI,TAF SARI 011700Z 0118/0218 02005KT 9999 BKN025 TX24/0119Z TN16/0210Z BECMG 0202/0204 0500 FG BKN003
SARP,TAF SARP 011700Z 0118/0218 27005KT 9999 FEW030 TX25/0119Z TN15/0210Z
SASA,TAF SASA 011700Z 0118/0218 02010KT 9999 SCT040 TX26/0218Z TN08/0210Z BECMG 0200/0203 25005KT CAVOK BECMG 0213/0216 05010KT 9999 SCT040
SASJ,TAF SASJ 011700Z 0118/0218 05010KT 9999 SCT035 TX27/0218Z TN10/0210Z BECMG 0200/0203 28005KT CAVOK BECMG 0213/0216 05010KT 9999 SCT040
SAVC,TAF SAVC 011700Z 0118/0218 18012KT CAVOK TX16/0118Z TN06/0210Z BECMG 0120/0122 VRB03KT BECMG 0212/0214 05010KT BECMG 0216/0218 02015G25KT SCT030 SCT100 
SAWE,TAF SAWE 011700Z 0118/0218 25015KT 9999 SCT025 TX12/0118Z TN01/0210Z BECMG 0201/0203 VRB03KT PROB30 TEMPO 0208/0212 0900 FG 
SAWG,TAF SAWG 011700Z 0118/0218 23018KT 9999 SCT025 TX13/0118Z TNM00/0210Z BECMG 0123/0201 VRB05KT CAVOK BECMG 0214/0216 02015G25KT
SAWH,TAF SAWH 011700Z 0118/0218 25018KT 9999 BKN030 TX10/0118Z TN00/0210Z BECMG 0119/0121 25010KT FEW030 BECMG 0112/0114 VRB5KT 
SAZM,TAF SAZM 011700Z 0118/0218 VRB05KT CAVOK TX17/0216Z TN06/0209 BECMG 0119/0121 02015KT 9999 SCT020 SCT030 BECMG 0204/0206 34005KT TEMPO 0206/0210 23005KT 4000 BR SCT010 BECMG 0210/0212 23010KT BECMG 0214/0216 18015KT 9999 SCT020
SAZN,TAF SAZN 011700Z 0118/0218 09010KT CAVOK TX26/0218Z TN11/0210Z BECMG 0123/0201 11015G25KT 
SAZS,TAF SAZS 011700Z 0118/0218 VRB03KT CAVOK TX18/0119Z TN05/0210Z BECMG 0211/0212 04010KT 
SBAC,TAF SBAC 010842Z 0112/0124 07013KT 9999 SCT025 TX31/0116Z TN27/0121Z RMK PHI
SBAF,TAF SBAF 011500Z 0118/0206 23013KT 9999 SCT020 BKN040 TX24/0118Z TN19/0206Z BECMG 0120/0122 8000 SHRA BKN020 FEW040TCU BECMG 0201/0203 SCT015 RMK PEN
SBAN,TAF SBAN 011500Z 0118/0206 08008KT 9999 SCT035 FEW045TCU TX30/0118Z TN20/0206Z PROB30 TEMPO 0119/0122 6000 SHRA BECMG 0123/0201 16008KT TS SCT040 FEW045CB BECMG 0203/0205 SCT030 RMK PEN
SBAT,TAF SBAT 011500Z 0118/0206 22005KT 9999 SCT025 TX36/0119Z TN29/0206Z RMK PGY
SBBG,TAF SBBG 011500Z 0118/0206 16011KT 9999 BKN020 TX19/0118Z TN10/0206Z BECMG 0123/0201 11010KT 8000 SCT012 RMK PEN
SBBI,TAF SBBI 011500Z 0118/0206 23012KT 9999 BKN020 TX17/0118Z TN13/0206Z BECMG 0122/0124 17008KT 6000 -DZ BKN008 BECMG 0205/0206 BKN005 RMK PEN
SBBU,TAF SBBU 011630Z 0118/0206 18005KT 9999 SCT035 TX28/0118Z TN17/0205Z BECMG 0120/0122 CAVOK BECMG 0122/0124 12010KT RMK PGG
SBBW,TAF SBBW 011605Z 0118/0206 09005KT CAVOK TX36/0118Z TN29/0205Z RMK PGM
SBCG,TAF SBCG 011605Z 0118/0218 14010KT 9999 SCT020 TX29/0118Z TN19/0209Z BECMG 0122/0124 11008KT CAVOK RMK PGM
SBCO,TAF SBCO 011500Z 0118/0206 23012KT 9999 BKN025 TX19/0118Z TN13/0206Z BECMG 0123/0201 17010KT 6000 -RA BKN010 BECMG 0204/0206 BKN007 RMK PEN
SBCT,TAF SBCT 011500Z 0118/0218 24010KT 9999 BKN030 TN13/0207Z TX21/0217Z BECMG 0123/0201 11008KT 6000 -DZ BKN010 BECMG 0208/0210 3000 BR BKN005 BECMG 0213/0215 06008KT 9999 NSW BKN010 RMK PEN
SBCZ,TAF SBCZ 011500Z 0118/0218 18005KT 9999 SCT017 TN24/0212Z TX31/0217Z BECMG 0119/0121 15007KT BECMG 0205/0207 00000KT PROB40 0210/0212 10010KT 5000 TSRA BKN015 FEW025CB BECMG 0216/0218 18005KT SCT015 RMK PGY
SBDN,TAF SBDN 011630Z 0118/0206 19005KT CAVOK TX28/0118Z TN17/0205Z BECMG 0121/0123 13010KT RMK PGG
SBFI,TAF SBFI 011500Z 0118/0218 23008KT 9999 BKN020 TN15/0208Z TX27/0217Z BECMG 0120/0122 16010KT BECMG 0123/0201 SCT030 BECMG 0208/0210 3000 BR BKN005 BECMG 0213/0215 11008KT 9999 SCT030 RMK PEN
SBFL,TAF SBFL 011500Z 0118/0218 33013KT 9999 BKN020 FEW035TCU TN17/0207Z TX21/0217Z BECMG 0121/0123 17012KT 5000 -RA BKN015 BECMG 0204/0206 8000 BKN012 BECMG 0213/0215 13008KT 9999 SCT030 RMK PEN
SBGW,TAF SBGW 011500Z 0118/0206 03008KT 8000 SCT020 FEW030TCU TX24/0118Z TN18/0206Z PROB30 TEMPO 0119/0122 5000 TSRA SCT030 FEW035CB BECMG 0123/0201 23008KT 9999 NSW SCT020 RMK PEN
SBIH,TAF SBIH 011500Z 0118/0206 07005KT 9999 SCT020 TX34/0119Z TN26/0206Z BECMG 0120/0122 21010KT RMK PGY
SBIL,TAF SBIL 011605Z 0118/0206 17013KT 8000 RA SCT020 FEW030TCU TX25/0118Z TN22/0205Z TEMPO 0118/0121 VCSH BKN018 FEW028TCU RMK PGM
SBIZ,TAF SBIZ 011500Z 0118/0206 09005KT 9999 SCT035 TX36/0119Z TN27/0206Z BECMG 0200/0202 04005KT CAVOK RMK PGY
SBJV,TAF SBJV 011500Z 0118/0206 14008KT 8000 BKN010 BKN030 TX21/0118Z TN17/0206Z BECMG 0123/0201 5000 -RA BR BKN006 BECMG 0205/0206 BKN005 RMK PEN
SBKG,TAF SBKG 011424Z 0118/0206 11010KT 9999 BKN020 TX30/0118Z TN21/0206Z PROB30 0203/0206 4000 BR BKN008 RMK PGA
SBME,TAF SBME 011424Z 0118/0206 10010KT 8000 SCT020 TX25/0118Z TN20/0206Z BECMG 0123/0201 34007KT 4000 DZ BKN010 RMK PGA
SBMN,TAF SBMN 011500Z 0118/0206 07008KT 9999 SCT025 FEW030TCU TX30/0118Z TN25/0206Z PROB40 0119/0121 8000 SHRA PROB30 0123/0201 TS FEW018 FEW025CB BECMG 0204/0205 CAVOK RMK PEN
SBNF,TAF SBNF 011500Z 0118/0218 06012KT 8000 BKN015 TN21/0204Z TX26/0218Z BECMG 0121/0123 17010KT 5000 -RA BKN015 BECMG 0204/0206 8000 BKN012 BECMG 0213/0215 12008KT 9999 SCT030 RMK PEN
SBNT,TAF SBNT 011424Z 0118/0206 13017KT 9999 SCT025 TX31/0118Z TN25/0206Z PROB30 0118/0121 13015G25KT BECMG 0123/0202 16007KT RMK PGA
SBPA,TAF SBPA 011500Z 0118/0218 23013KT 9999 BKN025 TN13/0208Z TX20/0217Z BECMG 0123/0201 17015KT 8000 -RA BKN012 BECMG 0204/0206 BKN008 BECMG 0213/0215 9999 NSW BKN015 RMK PEN
SBPK,TAF SBPK 011500Z 0118/0218 18015KT 9999 BKN020 TN11/0205Z TX18/0217Z BECMG 0121/0123 24010KT 5000 -RA BKN010 BKN020 BECMG 0203/0205 8000 BKN015 BECMG 0213/0215 9999 NSW BKN030 RMK PEN
SBSC,TAF SBSC 011500Z 0118/0206 19013KT 9999 SCT020 TX25/0118Z TN19/0206Z BECMG 0120/0122 8000 SHRA BKN020 FEW040TCU BECMG 0201/0203 BKN015 RMK PEN
SBSM,TAF SBSM 011500Z 0118/0206 17012KT 9999 BKN030 TX20/0118Z TN12/0206Z BECMG 0122/0124 BKN017 BECMG 0202/0204 11009KT BKN008 RMK PEN
SBTD,TAF SBTD 010830Z 0112/0124 12005KT 5000 BR BKN005 TX23/0118Z TN18/0123Z BECMG 0112/0114 23007KT 6000 NSW BKN020 TEMPO 0115/0118 26007KT SHRA SCT020 FEW030TCU BECMG 0118/0120 18005KT CAVOK RMK PGL
SBUG,TAF SBUG 011500Z 0118/0206 17014KT 9999 BKN020 TX16/0118Z TN13/0204Z BECMG 0123/0201 SCT015 RMK PEN
SBUL,TAF SBUL 011605Z 0118/0206 01008KT 8000 SCT025 TX28/0118Z TN18/0205Z TEMPO 0118/0121 19015KT TSRA SCT025 FEW050CB BECMG 0121/0123 15009KT FEW025 RMK PGM
SBUR,TAF SBUR 011605Z 0118/0206 05007KT 8000 SCT025 TX28/0118Z TN19/0205Z TEMPO 0118/0121 TSRA BKN025 FEW050CB BECMG 0121/0123 16008KT FEW025 BECMG 0123/0201 11007KT BECMG 0203/0205 08006KT RMK PGM
SBVH,TAF SBVH 011500Z 0118/0206 16010KT 9999 SCT030 TX28/0119Z TN21/0206Z BECMG 0120/0122 20005KT SCT025 FEW040TCU BECMG 0200/0202 13005KT RMK PGY
SBYS,TAF SBYS 011500Z 0118/0206 16012KT 9999 BKN035 TX27/0118Z TN16/0206Z BECMG 0118/0120 17012KT 8000 SHRA SCT030 FEW040TCU BECMG 0120/0122 5000 TSRA BKN020 FEW045CB BECMG 0123/0201 16005KT 9999 SCT030 RMK PEN
SCAR,TAF SCAR 011630Z 0118/0218 22012KT CAVOK TX17/0118Z TN15/0210Z BECMG 0122/0123 20007KT BECMG 0200/0202 20004KT OVC025 BECMG 0208/0210 OVC020 BECMG 0216/0218 22012KT CAVOK
SCAT,TAF SCAT 011630Z 0118/0218 27012KT CAVOK TX17/0118Z TN11/0210Z BECMG 0122/0200 24007KT BKN012 BECMG 0202/0204 22004KT 8000 OVC007 BECMG 0212/0214 OVC012 BECMG 0216/0218 27010KT CAVOK
SCBA,TAF SCBA 011609Z 0118/0218 29008KT CAVOK TX14/0119Z TN02/0208Z TEMPO 0122/0204 VRB02KT BECMG 0205/0207 12004KT
SCCF,TAF SCCF 011630Z 0118/0218 27020KT CAVOK TX23/0118Z TN00/0210Z TEMPO 0118/0121 28022G32KT BECMG 0123/0201 25008KT BECMG 0202/0204 11014KT BECMG 0214/0215 09007KT BECMG 0216/0218 27018KT
SCCI,TAF SCCI 011608Z 0118/0218 25018KT 9999 FEW032 TX10/0118Z TN02/0210Z TEMPO 0118/0120 26028KT BECMG 0121/0123 29008KT PROB30 TEMPO 0204/0210 SCT020 TEMPO 0209/0214 35008KT BECMG 0212/0214 04008KT BECMG 0216/0218 12009KT
SCCY,TAF SCCY 011031Z 0112/0124 03005KT CAVOK TN03/0112Z TX16/0119Z BECMG 0114/0116 23007KT
SCDA,TAF SCDA 011630Z 0118/0218 22015KT CAVOK TX17/0118Z TN12/0210Z BECMG 0200/0202 20010KT BKN025 BECMG 0203/0205 17004KT OVC020 BECMG 0215/0217 22015KT CAVOK
SCEL,TAF SCEL 011616Z 0118/0218 19010KT CAVOK TX25/0119Z TN09/0210Z BECMG 0201/0203 15004KT 8000 NSC TEMPO 0208/0212 VRB02KT 3000 BR SCT002 BECMG 0215/0217 18008KT CAVOK
SCFA,TAF SCFA 011630Z 0118/0218 20012KT 9999 FEW020 TX15/0118Z TN12/0210Z BECMG 0122/0200 BKN015 BECMG 0201/0203 19004KT BECMG 0206/0208 03004KT OVC018 BECMG 0210/0212 19004KT BECMG 0214/0216 20012KT FEW020
SCIE,TAF SCIE 011617Z 0118/0218 03006KT CAVOK TX18/0119Z TN08/0210Z BECMG 0203/0205 34004KT FEW010 TEMPO 0204/0212 VRB02KT 4000 BR BKN004 BKN008 BECMG 0214/0216 20006KT
SCIP,TAF AMD SCIP 011855Z 0119/0218 15011KT 9999 SCT015 SCT030 TX21/0119Z TN15/0208Z TEMPO 0120/0122 5000 -SHRA SCT010 BKN025 TEMPO 0208/0212 VRB04KT
SCJO,TAF SCJO 011021Z 0112/0124 VRB02KT 9999 BKN005 TN08/0112Z TX18/0119Z BECMG 0113/0115 18007KT CAVOK
SCNT,TAF SCNT 011016Z 0112/0200 27008KT 9999 SCT036 TN05/0112Z TX12/0118Z TEMPO 0112/0114 27020KT 8000 -SHRA BKN026 BECMG 0116/0118 FEW045 BECMG 0121/0123 31005KT
SCQP,TAF SCQP 011606Z 0118/0218 26004KT CAVOK TX20/0119Z TN08/0208Z TEMPO 0205/0214 VRB02KT 0700 FG VV002 BECMG 0215/0217 27008KT FEW040
SCSE,TAF SCSE 011615Z 0118/0218 28008KT 9999 BKN008 BKN012 TX14/0119Z TN10/0210Z TEMPO 0119/0123 FEW015 BECMG 0201/0203 01004KT BKN012 TEMPO 0206/0212 6000 -DZ SCT005 OVC008 BECMG 0214/0216 29008KT SCT010 BKN015
SCTE,TAF COR SCTE 011659Z 0118/0218 18010KT CAVOK TX15/0119Z TN05/0208Z BECMG 0204/0206 36004KT TEMPO 0205/0215 VRB02KT
SCVM,TAF SCVM 011616Z 0118/0218 34008KT 9999 SCT008 OVC010 TX15/0119Z TN10/0210Z TEMPO 0119/0123 SCT015 BECMG 0202/0204 33004KT 8000 BKN008 OVC012 TEMPO 0206/0212 2000 BR BKN002 OVC005 BECMG 0216/0218 34008KT 9999 SCT015 BKN020
SEGU,SEGU 011616Z 0118/0218 15008KT 9999 FEW026 BECMG 0122/0124 22010KT BECMG 0203/0205 FEW010 BKN030 BKN100 BECMG 0212/0214 FEW030 SCT100 TX30/0120Z TN20/0210Z
SELT,SELT 011616Z 0118/0218 18014KT 9999 BKN030 BECMG 0122/0124 17004KT BECMG 0203/0205 VRB03KT FEW010 BKN023 BECMG 0211/0213 SCT033 SCT100 TX16/0119Z TN06/0211Z
SEMT,SEMT 011616Z 0118/0218 22010KT 9999 FEW023 BECMG 0200/0202 BKN020 BECMG 0212/0214 SCT023 TX29/0120Z TN20/0210Z
SEQM,SEQM 011616Z 0118/0218 36014KT 9999 SCT030 SCT100 TEMPO 0119/0121 FEW026TCU SCT030 BECMG 0122/0124 VRB03KT FEW010 SCT023 BECMG 0210/0212 FEW030 BKN200 TX25/0119Z TN09/0211Z
SGAS,TAF SGAS 011744Z 0118/0218 16008KT 2500 FEW033 TX27/0119Z TN15/0210Z BECMG 0122/0201 CAVOK
SGCO,TAF SGCO 011744Z 0118/0218 15005KT 9999 BKN020 TX28/0119Z TN16/0210Z BECMG 0119/0122 14005KT 9999 BKN027 BECMG 0123/0202 9999 SCT033
SGEN,TAF SGEN 011744Z 0118/0218 17004KT 9999 FEW018 TX25/0119Z TN14/0210Z BECMG 0122/0201 CAVOK
SGES,TAF SGES 011744Z 0118/0218 07003KT 5000 BKN020 TX25/0119Z TN14/0210Z BECMG 0119/0122 14005KT 9999 BKN027 BECMG 0123/0202 9999 SCT033
SKAR,TAF SKAR 011630Z 0118/0218 VRB04KT 9999 SCT017 TEMPO 0120/0124 TS SCT015CB TEMPO 0200/0204 DZ BKN015 BKN080 BECMG 0210/0212 3000 BR BKN008 BECMG 0215/0216 9999 NSW SCT015 TX26/0120Z TN18/0211Z
SKBG,TAF SKBG 011630Z 0118/0218 33008KT 9999 SCT015 BKN070 TEMPO 0118/0121 TS SCT015CB BECMG 0201/0203 VRB02KT SCT010 PROB40 TEMPO 0203/0208 2000 TSRA BKN006CB TX25/0118Z TN17/0210Z
SKBO,TAF SKBO 011630Z 0118/0218 16010KT 9999 BKN020 SCT080 TEMPO 0118/0121 DZ BECMG 0201/0203 VRB02KT SCT015 BKN070 TX19/0118Z TN10/0210Z
SKBQ,TAF SKBQ 011630Z 0118/0218 18006KT 9999 SCT015 TEMPO 0118/0121 5000 TSRA SCT010CB TEMPO 0200/0202 DZ BKN010 FEW015CB PROB40 TEMPO 0210/0212 5000 BR SCT008 TX31/0216Z TN23/0209Z
SKCC,TAF SKCC 011630Z 0118/0218 36008KT 9999 SCT020 BKN090 TEMPO 0118/0120 TS SCT018CBU BECMG 0201/0203 VRB02KT SCT015 BKN080 PROB40 TEMPO 0110/0112 4000 BCFG SCT015 TX30/0119Z TN23/0210Z
SKCG,TAF SKCG 011630Z 0118/0218 22008KT 9999 SCT017 BKN080 TEMPO 0118/0120 TS SCT015CB BECMG 0200/0202 VRB02KT SCT015 TEMPO 0206/0209 RA SCT015TCU TX30/0118Z TN25/0210Z
SKCL,TAF SKCL 011630Z 0118/0218 VRB04KT 9999 SCT020TCU TEMPO 0121/0124 32010KT TSRA SCT017CB BKN080 BECMG 0200/0201 SCT020 BECMG 0210/0212 3000 BR BKN010 BECMG 0215/0216 9999 NSW SCT017 TX28/0120Z TN19/0210Z
SKLT,TAF SKLT 011630Z 0118/0218 25006KT 9999 BKN017 SCT080 BECMG 012110124 DZRA BECMG 0201/0203 VRB02KT SCT010 TX30/0119Z TN22/0210Z
SKPE,TAF SKPE 011630Z 0118/0218 11006KT 9999 SCT017TCU TEMPO 0121/0201 TSRA SCT015CB BKN080 BECMG 0201/0202 DZ BKN015 BKN070 BECMG 0204/0205 NSW BECMG 0210/0212 3000 BCFG BKN005 BECMG 0215/0217 9999 NSW SCT015 TX26/0120Z TN18/0210Z
SKRG,TAF SKRG 011630Z 0118/0218 09010KT 9999 SCT020 TEMPO 0119/0122 SCT020TCU BECMG 0200/0202 VRB02KT TEMPO 0202/0206 DZ BKN010 TEMPO 0209/0212 4000 BCFG BKN005 BECMG 0213/0215 10010KT TX22/0120Z TN13/0211Z
SKSM,TAF SKSM 011630Z 0118/0218 23005KT 9999 FEW020 TEMPO 0119/0121 RA SCT015CB TX33/0119Z TN24/0211Z
SKSP,TAF SKSP 011630Z 0118/0218 36006KT 9999 SCT018 TEMPO 0118/0120 TS SCT018CB PROB40 TEMPO 0109/0112 RADZ SCT015TCU TX31/0118Z TN25/0210Z
SLAL,TAF SLAL 011600Z 0118/0218 02015KT 9999 SCT020 TX20/0119Z TN08/0211Z BECMG 0202/0204 00000KT
SLCB,TAF SLCB 011600Z 0118/0218 24010KT 9999 FEW036 TX30/0119Z TN08/0211Z TEMPO 0119/0121 33010KT FEW040CB BECMG 0202/0204 00000KT
SLCO,TAF SLCO 011600Z 0118/0218 17012KT 9999 FEW080 TX33/0119Z TN20/0210Z BECMG 0122/0201 00000KT
SLET,TAF SLET 011600Z 0118/0218 32008KT 9999 NSC TX32/0119Z TN20/0210Z BECMG 0123/0202 VRB02KT BECMG 0203/0205 18010KT SCT023
SLLP,TAF SLLP 011600Z 0118/0218 14012KT 9999 FEW020 FEW023CB TX17/0119Z TNM02/0210Z BECMG 0123/0201 06006KT BECMG 0204/0406 3000E BCFG BECMG 0211/0213 9999 NSW
SLTJ,TAF SLTJ 011600Z 0118/0218 15010KT 9999 NSC TX30/0119Z TN08/0211Z BECMG 0123/0201 00000KT FEW030
SLTR,TAF SLTR 011600Z 0118/0218 17008KT 9999 NSC TX34/0119Z TN20/0210Z BECMG 0122/0201 00000KT
SLVR,TAF SLVR 011600Z 0118/0218 34010KT 9999 NSC TX32/0119Z TN20/0210Z BECMG 0123/0202 VRB02KT BECMG 0203/0205 18010KT SCT023
SMJP,TAF SMJP 011600Z 0118/0218 04007KT 9999 SCT030 TX35/0118Z TN24/0209Z PROB30 TEMPO 0118/0120 TS FEW018CB SCT025 BECMG 0211/0213 11006KT TEMPO 0217/0218 4000 TSRA FEW015CB SCT020
SMZO,TAF SMZO 011600Z 0118/0218 04007KT 9999 SCT030 TX33/0118Z TN24/0209Z PROB30 TEMPO 0118/0120 TS FEW018CB SCT025 BECMG 0211/0213 11006KT TEMPO 0217/0218 4000 TSRA FEW015CB SCT020
SOCA,TAF SOCA 011600Z 0118/0218 08012KT 9999 FEW050 PROB30 TEMPO 0119/0121 4000 SHRA SCT012 BKN015CB BECMG 0121/0123 VRB02KT BECMG 0213/0214 08010KT PROB40 TEMPO 0216/0218 4000 SHRA SCT015CB
SPCL,TAF SPCL 011700Z 0118/0218 16005KT 9999 SCT015 BKN080 TX33/0120Z TN22/0211Z TEMPO 0212/0216 3000 BR BKN008 BKN080
SPEO,TAF SPEO 011700Z 0118/0218 20018KT 9999 FEW014 TX19/0119Z TN16/0211Z BECMG 0201/0204 19008KT BKN012
SPGM,TAF SPGM 011710Z 0118/0218 05004KT 9999 SCT020 OVC100 TX24/0119Z TN20/0211Z TEMPO 0212/0213 4000 BR
SPHI,TAF SPHI 011700Z 0118/0218 18018KT CAVOK TX20/0119Z TN15/0211Z BECMG 0203/0206 18008KT BKN012 BECMG 0214/0216 SCT014
SPHO,SPHO 011700Z 0118/0218 VRB03KT 9999 SCT040TCU BKN090 TX23/0120Z TN11/0211Z TEMPO 0119/0122 16012KT BECMG 0122/0123 FEW040
SPJC,TAF SPJC 011700Z 0118/0218 22010KT 9999 BKN018 TX17/0119Z TN14/0211Z BECMG 0120/0122 16012KT BKN012 BKN018 BECMG 0208/0210 VRB04KT 4000 BR OVC008 BECMG 0215/0218 18010KT 8000 NSW BKN018
SPJI,TAF SPJI 011700Z 0118/0218 14005KT 9999 SCT020 BKN100 TX30/0120Z TN22/0211Z TEMPO 0212/0214 3000 BCFG BKN010
SPJL,TAF SPJL 011110Z 0112/0212 35003KT CAVOK TX21/0119Z TNM03/0210Z FM012000 07011KT 8000 SCT020 BKN080 TEMPO 0123/0202 TSRA SCT010 SCT015CB BKN060 BECMG 0203/0204 30004KT
SPJR,TAF SPJR 011710Z 0118/0218 15011KT 9999 SCT025 BKN050 TX18/0119Z TN09/0211Z BECMG 0119/0121 SCT023 OVC046 TEMPO 0121/0123 4000 RA BECMG 0200/0202 VRB02KT BECMG 0211/0213 SCT025 BKN050
SPLO,TAF SPLO 011700Z 0118/0218 20011KT CAVOK TX20/0119Z TN14/0210Z FM020100 15005KT 9999 BKN025 FM021430 18010KT CAVOK
SPME,TAF SPME 011700Z 0118/0218 35012KT 9999 SCT020 TX26/0119Z TN20/0211Z BECMG 0123/0202 29005KT BKN018 FM021200 32004KT 9999 BKN013 BECMG 0214/0216 BKN020
SPMS,TAF SPMS 011700Z 0118/0218 36005KT 9999 SCT015 SCT100 TX32/0120Z TN21/0211Z TEMPO 0210/0214 2000 BR BKN008 BKN080
SPNC,TAF SPNC 011710Z 0118/0218 07013KT 9999 FEW040 TX25/0119Z TN15/0211Z TEMPO 0118/0120 20005KT BECMG 0123/0201 06003KT BECMG 0216/0218 07014KT
SPPY,TAF SPPY 011700Z 0118/0218 10010KT 9999 SCT015 SCT040 TX17/0119Z TN09/0211Z TEMPO 0212/0215 2000 BCFG BKN010 BKN040
SPQT,TAF SPQT 011700Z 0118/0218 14005KT 9999 SCT020 BKN100 TX33/0120Z TN22/0211Z TEMPO 0203/0207 32015KT 3000 SHRA BKN010 FEW025CB BKN080 TEMPO 0208/0212 RA BKN005 BKN080
SPQU,TAF SPQU 011700Z 0118/0218 25010KT CAVOK TX22/0217Z TN06/0210Z BECMG 0200/0202 05004KT BECMG 0214/0216 25010KT
SPRU,TAF SPRU 011700Z 0118/0218 16010KT 7000 SCT012 TX18/0119Z TN14/0211Z TEMPO 0118/0121 BKN010 BECMG 0122/0201 5000 BR OVC007 TEMPO 0209/0212 4000 OVC004 BECMG 0214/0216 OVC012
SPSO,TAF SPSO 011700Z 0118/0218 29010KT CAVOK TX21/0119Z TN12/0211Z BECMG 0119/0121 22016KT FM020300 VRB04KT 6000 SCT013 TEMPO 0206/0209 3000 BR BKN010 BECMG 0213/0216 30010KT CAVOK
SPST,TAF SPST 011710Z 0118/0218 15006KT 9999 SCT025 BKN080 TX30/0119Z TN21/0211Z TEMPO 0211/0213 4000 BR
SPTN,TAF SPTN 011700Z 0118/0218 22008KT CAVOK TX20/0118Z TN11/0210Z FM020200 25004KT 9999 BKN025 FM021400 22008KT CAVOK
SPTU,SPTU 011700Z 0118/0218 16006KT CAVOK TX33/0120Z TN21/0211Z
SPYL,TAF SPYL 011700Z 0118/0218 20014KT CAVOK TX24/0119Z TN15/0211Z FM021200 14018KT CAVOK
SPZO,TAF SPZO 011700Z 0118/0218 VRB04KT 9999 SCT043 SCT080 TX20/0119Z TN05/0211Z TEMPO 0118/0122 01012KT FEW040TCU SCT046 BKN080
SUAA,TAF SUAA 011730Z 0118/0218 18008KT 9999 FEW026 TX22/0218Z TN08/0210Z TEMPO 0203/0211 2000 BR NSC TEMPO 0206/0211 0800 BCFG NSC
SUCA,TAF SUCA 011730Z 0118/0218 16008KT CAVOK TX21/0218Z TN09/0210Z TEMPO 0203/0211 2000 BR NSC TEMPO 0206/0211 0800 BCFG NSC
SUDU,TAF SUDU 011730Z 0118/0218 11008KT 9999 SCT030 TX25/0218Z TN07/0210Z TEMPO 0203/0211 2000 BR NSC TEMPO 0206/0211 0800 BCFG NSC
SULS,TAF SULS 011730Z 0118/0218 17008KT 9999 SCT030 TX20/0218Z TN07/0210Z TEMPO 0203/0211 2000 BR NSC TEMPO 0204/0211 0800 FG BKN010
SUMU,TAF SUMU 011730Z 0118/0218 16008KT 9999 FEW026 TX23/0218Z TN08/0210Z TEMPO 0203/0211 2000 BR NSC TEMPO 0206/0211 0800 BCFG NSC
SURV,TAF SURV 011730Z 0118/0218 15008KT 9999 SCT026 TX23/0218Z TN08/0210Z TEMPO 0203/0211 2000 BR NSC TEMPO 0204/0211 0800 FG BKN010
SUSO,TAF SUSO 011730Z 0118/0218 17008KT 9999 SCT026 TX25/0218Z TN08/0210Z TEMPO 0203/0211 2000 BR NSC TEMPO 0206/0211 0800 BCFG NSC
SVBC,TAF SVBC 011600Z 0118/0218 05006KT 9999 SCT010 TX34/0118Z TN22/0207Z TEMPO 0119/0123 06006KT 9000 DZ BKN010 FM020000 04003KT 9999 SCT010 SCT070
SVJC,TAF SVJC 011600Z 0118/0218 08003KT 8000 TSDZ OVC013 CB TX33/0119Z TN23/0208Z FM012100 09008KT 9999 SCT013 BKN090 BECMG 0122/0203 08007KT SCT013
SVMC,TAF SVMC 011600Z 0118/0218 13006KT 8000 TSDZ BKN013 CB TX34/0119Z TN22/0208Z FM012200 15004KT 9999 SCT013 BKN060 TEMPO 0123/0203 14003KT 9000 DZ BKN013
SVMG,TAF SVMG 011600Z 0118/0218 08012KT 9999 FEW010 TX33/0118Z TN25/0208Z BECMG 0119/0123 09013KT 9999 SCT010 SCT080 FM020000 07006KT 9999 FEW010
SVMI,TAF SVMI 011600Z 0118/0218 11006KT 9999 BKN016 TX33/0118Z TN21/0207Z TEMPO 0120/0123 09006KT 9000 DZ BKN016 FM020000 08003KT 9999 SCT016 SCT070
SVPR,TAF SVPR 011600Z 0118/0218 04005KT 9999 SCT013 TX34/0119Z TN22/0208Z TEMPO 0119/0123 06007KT 9000 DZ BKN013 FM020000 03003KT 9999 SCT013 SCT060
SVSA,TAF SVSA 011600Z 0118/0218 13005KT 8000 TSDZ OVC017 CB TX33/0119Z TN22/0208Z FM012200 14006KT 9999 BKN020 TEMPO 0123/0203 15003KT 9000 DZ BKN020
SYCJ,TAF SYCJ 011700Z 0118/0218 07012KT 9999 SCT022 BECMG 0123/0201 06004KT 9999 FEW016 BECMG 0210/0212 07012KT 9999 BKN018 SCT100
SYEB,TAF SYEB 011100 0112/0123 09010KT 9999 BKN020 TEMPO 0116/0120 400 TSRA FEW016CB BKN015
SYEC,TAF SYEC 011700Z 0118/0218 06012KT 9999 FEW023 BECMG 0122/0200 05006KT 9999 FEW018 BECMG 0210/0212 07012KT 9999 BKN018 SCT100
SYKM,TAF SYKM 011100 0112/0123 09010KT 9999 SCT020 SCT040 PROB40 TEMPO 0116/0120 07008KT BKN015 TAF SYKA 011100 0112/01233 09010KT 9999 SCT020 SCT040 PROB40 TEMPO 0116/0120 07008KT BKN015
SYLT,TAF SYLT 011100 0112/0123 09010KT 9999 SCT022 SCT050
SYMB,TAF SYMB 011100 0112/0123 08010KT 9999 BKN018 SCT040 TEMPO 0116/0119 5000 SHRA FEW016CB TAF SYEB 011100 0112/0123 09010KT 9999 BKN020 TEMPO 0116/0120 400 TSRA FEW016CB BKN015
TAPA,TAF TAPA 011100Z 0112/0212 12009KT 9999 SCT018 PROB40 TEMPO 0113/0116 TSRA FEW014CB BKN017 TEMPO 0116/0124 TSRA SCT014CB BKN017 PROB30 TEMPO 0200/0212 SHRA
TBPB,TAF TBPB 011700Z 0118/0218 11012KT 9999 SCT018
TDPD,TAF TDPD 011700Z 0118/0218 12007KT 9999 SCT018 TEMPO 0122/0204 4000 TSRA BKN012 FEW015CB
TFFF,TAF AMD TFFF 010727Z 0107/0206 VRB02KT 9999 SCT025 BKN130 PROB30 TEMPO 0107/0109 4000 SHRA SCT018CB SCT040 TEMPO 0116/0206 4000 SHRA SCT015 BKN020TCU PROB40 TEMPO 0107/0108 2000 TSRA SCT015CB BKN020
TFFR,TAF TFFR 010500Z 0106/0206 VRB03KT 9999 SCT023 BKN030 TEMPO 0106/0109 4000 SHRA SCT015CB BKN020TCU PROB30 TEMPO 0106/0108 1500 TSRA BKN012CB BECMG 0113/0115 13010KT TEMPO 0115/0124 3000 SHRA BKN015CB BKN020
TGPY,TGPY 011636Z 0118/0218 12015KT 9999 FEW019 BECMG 0122/0124 10012KT FEW017 BECMG 0210/0212 12016KT FEW019
TIST,TIST 011740Z 0118/0218 15009KT P6SM VCSH SCT030 FM012300 11006KT P6SM VCTS SCT030CB FM021300 12012KT P6SM SCT030
TISX,TISX 011740Z 0118/0218 13010KT P6SM VCSH FEW018 SCT120 FM012300 09005KT P6SM VCTS SCT025CB SCT035 SCT080 FM021400 12011KT P6SM FEW030
TJBQ,TJBQ 011740Z 0118/0218 VRB05KT P6SM -SHRA VCTS SCT025CB BKN030 OVC050 TEMPO 0118/0120 3SM TSRA BKN025CB BKN040 FM012350 VRB02KT P6SM SCT030 SCT120 FM021400 05007KT P6SM FEW030 AMD NOT SKED 0202/0211
TJPS,TJPS 011740Z 0118/0218 15009KT P6SM -SHRA VCTS SCT030CB SCT060 FM012300 VRB05KT P6SM FEW030 FM021400 16009KT P6SM SCT025 AMD NOT SKED
TJSJ,TJSJ 011924Z 0119/0218 VRB03KT P6SM -SHRA VCTS SCT025CB BKN050 BKN090 TEMPO 0119/0123 VRB12G19KT 5SM TSRA BKN025CB OVC050 FM012300 VRB04KT P6SM VCSH SCT025 SCT035 BKN100 FM021300 09008KT P6SM FEW030 SCT060 SCT120 FM021630 07010KT P6SM VCSH SCT025 SCT050
TKPK,TAF TKPK 302300Z 0100/0124 13009KT 9999 SCT018 BKN036 TEMPO 0100/0106 SHRA FEW014CB BKN016 BKN032 PROB40 TEMPO 0115/0124 4000 TSRA SCT012CB
TLPC,TAF TLPC 011700Z 0118/0218 10010KT 9999 SCT025 TEMPO 0118/0212 5000 SHRA FEW015CB BKN018
TLPL,TAF TLPL 011700Z 0118/0218 10014KT 9999 SCT025 TEMPO 0118/0212 5000 SHRA FEW015CB BKN018
TNCA,TAF TNCA 011718Z 0118/0218 10015KT 9999 SCT022 TEMPO 0122/0212 VRB18KT 4000 SHRA SCT012CB
TNCB,TAF TNCB 011710Z 0118/0224 11015KT 9999 FEW018 PROB30 TEMPO 0210/0217 2500 SHRA BKN014 SCT015CB
TNCC,TAF TNCC 011715Z 0118/0218 15012KT 9999 SCT022 TEMPO 0122/0212 VRB18KT 4000 SHRA SCT012CB
TNCM,TNCM 011600Z 0118/0218 12010KT 9999 FEW014CB SCT016 PROB40 TEMPO 0118/0206 5000 SHRA BKN015TCU PROB30 TEMPO 0120/0202 3000 TSRA FEW012CB SCTN014 SCT035 
TQPF,TAF TQPF 011100Z 0112/0212 14009KT 9999 SCT018 PROB40 TEMPO 0113/0118 TSRA FEW014CB BKN017 TEMPO 0118/0204 TSRA SCT014CB BKN017 PROB30 TEMPO 0204/0212 SHRA
TRPG,TAF TRPG 011100Z 0112/0212 12012KT 9999 SCT018 TEMPO 0118/0124 TSRA SCT014CB BKN017 PROB30 TEMPO 0200/0212 TSRA
TTCP,TAF TTCP 011600Z 0118/0218 13010KT 9999 FEW020 BECMG 0123/0201 11003KT FEW016 BECMG 0211/0213 12012KT FEW020
TTPP,TAF TTPP 011600Z 0118/0218 12010KT 9999 SCT018 PROB40 TEMPO 0118/0121 4000 SHRA FEW010CB SCT016 BECMG 0122/0200 00000KT FEW016 BECMG 0211/0213 11010KT SCT020
TUPJ,TAF TUPJ 011100Z 0112/0212 12009KT 9999 SCT018 PROB40 TEMPO 0113/0118 TSRA FEW014CB BKN017 TEMPO 0118/0124 TSRA SCT014CB BKN017 PROB40 TEMPO 0200/0210 SHRA
TVSA,TAF TVSA 011700Z 0118/0218 10007KT 9999 SCT018
TXKF,TAF TXKF 011735Z 0118/0218 15010KT 9999 FEW011 SCT300 PROB30 TEMPO 0203/0212 6000 -SHRA BKN011 
UAAA,TAF UAAA 011700Z 0118/0218 26003MPS 9999 SCT050CB BKN100 TX15/0209Z TNM02/0201Z TEMPO 0118/0203 21003G08MPS BECMG 0203/0204 35003MPS TEMPO 0203/0212 04003G09MPS BECMG 0212/0213 22003MPS TEMPO 0212/0218 17003G08MPS 4000 FU
UACC,TAF UACC 011700Z 0118/0218 09003MPS CAVOK TX07/0209Z TNM04/0201Z TEMPO 0118/0205 06003MPS BECMG 0205/0207 09007MPS
UADD,TAF UADD 012000Z 0121/0206 23003MPS 9999 NSC
UAII,TAF UAII 011700Z 0118/0218 08003G08MPS 8000 SCT040 TX23/0210Z TN09/0202Z TEMPO 0118/0204 15003G08MPS 4000 FU BECMG 0204/0206 26003G08MPS TEMPO 0206/0214 32003G08MPS SCT050CB
UAIT,TAF UAIT 012000Z 0121/0206 07010MPS CAVOK TEMPO 0121/0203 07013G18MPS
UAKK,TAF UAKK 011705Z 0118/0218 08003MPS 9999 SCT030 BKN100 TX08/0209Z TNM13/0124Z TEMPO 0120/0202 3100 BR SCT011 BECMG 0203/0205 08006MPS TEMPO 0203/0212 07011MPS
UAOO,TAF UAOO 012000Z 0121/0206 06009MPS CAVOK
UARR,TAF UARR 012000Z 0121/0206 15006MPS CAVOK TEMPO 0121/0203 12006MPS SCT030CB TEMPO 0203/0206 14006G13MPS SCT030CB
UASK,TAF UASK 012003Z 0121/0206 14003MPS 3100 BR FEW004 TEMPO 0121/0203 VRB01MPS 0200 FZFG BKN002 BECMG 0203/0204 31004MPS 9999 NSW SCT050
UASP,TAF UASP 012000Z 0121/0206 04005MPS 9999 BKN020 TEMPO 0122/0203 3100 BR FU BKN011
UATE,TAF UATE 011700Z 0118/0218 10005MPS 9999 SCT040CB TX25/0209Z TN13/0203Z TEMPO 0118/0124 VRB03MPS BECMG 0202/0204 13006G12MPS BECMG 0210/0212 18007G13MPS BECMG 0214/0216 13011G17MPS TEMPO 0214/0218 3100 BLDU SCT011
UATG,TAF UATG 011702Z 0118/0218 12005MPS 9999 SCT033CB TX23/0209Z TN13/0203Z TEMPO 0118/0200 4000 -SHRA BKN030CB BECMG 0204/0206 14008G13MPS
UATT,TAF UATT 011702Z 0118/0218 14005G11MPS 9999 SCT050 TX16/0212Z TN05/0201Z TEMPO 0120/0202 -SHRA SCT040CB
UAUU,TAF UAUU 012000Z 0121/0206 14005MPS 9999 BKN030 TEMPO 0121/0200 VRB02MPS TEMPO 0200/0203 17003G08MPS 3100 BR FU SCT011 TEMPO 0203/0206 17005G10MPS
UBBB,TAF UBBB 011700Z 0118/0218 33008KT CAVOK TX27/0210Z TN16/0201Z TEMPO 0118/0122 FEW012 TEMPO 0122/0204 5000 BR SCT005 BECMG 0206/0208 15012KT TEMPO 0208/0215 17020KT
UBBF,TAF UBBF 011400Z 0115/0124 11008KT 9999 FEW050 SCT100 TEMPO 0115/0117 14010KT BECMG 0117/0119 VRB04KT
UBBG,TAF UBBG 011700Z 0118/0218 VRB04KT 9999 FEW050 SCT100 TX29/0212Z TN18/0202Z TEMPO 0122/0204 26008KT
UBBL,TAF UBBL 011702Z 0118/0218 31006KT 9999 SCT050 SCT100 TX26/0211Z TN15/0202Z TEMPO 0120/0204 VRB04KT 4000 BR FEW010 BECMG 0206/0208 13005KT TEMPO 0208/0216 18012KT
UBBN,TAF UBBN 011653Z 0118/0218 12010KT 9999 NSC TX28/0212Z TN13/0203Z TEMPO 0118/0204 14018KT TEMPO 0204/0210 VRB04KT
UBBQ,TAF UBBQ 011655Z 0118/0218 04006KT 9999 FEW050 SCT100 TX28/0211Z TN12/0202Z TEMPO 0118/0206 08006KT BECMG 0206/0208 18008KT TEMPO 0208/0215 24008KT
UBBY,TAF UBBY 012000Z 0121/0206 08010KT 9999 FEW050 SCT100
UBEE,TAF UBEE 011700Z 0118/0203 VRB04KT CAVOK
UCFL,TAF UCFL 011641Z 0118/0218 35003G08MPS 9999 BKN030CB OVC100 TEMPO 0118/0200 05012G17MPS 2000 SHRA BKN015CB TEMPO 0200/0205 28003G08MPS 2000 SHRA BKN015CB BECMG 0205/0206 14003G08MPS TEMPO 0206/0212 24003G08MPS 3000 -SHRA BKN020CB
UCFM,TAF UCFM 011650Z 0118/0218 34003G08MPS 9999 SCT050CB TEMPO 0118/0203 06003G08MPS 2000 BR FU FEW004 TEMPO 0203/0212 06003G08MPS BECMG 0212/0214 10003G08MPS
UCFO,TAF UCFO 011641Z 0118/0218 18003G08MPS 9999 FEW050CB BKN100 TEMPO 0118/0124 1600 BR SCT030CB PROB40 TEMPO 0118/0124 -TSRA BECMG 0202/0204 32003G08MPS
UDSG,TAF UDSG 011700Z 0118/0218 06006KT 9999 FEW050 TEMPO 0118/0121 06016KT TEMPO 0204/0213 21006KT
UDYZ,TAF UDYZ 011700Z 0118/0218 VRB06KT CAVOK TEMPO 0118/0121 04016G26KT
UEEE,TAF UEEE 012000Z 0121/0303 05003G08MPS 9999 BKN025CB OVC070 TEMPO 0121/0201 VRB01MPS 0300 SHSN FZFG VV002 TEMPO 0201/0212 3200 -SHSN
UERP,TAF UERP 012000Z 0121/0221 28003G08MPS 4000 -SHSN SCT010 BKN020CB TEMPO 0121/0206 1000 SHSN BR VV005
UERR,TAF UERR 012000Z 0121/0221 30003MPS 9999 BKN020CB TEMPO 0200/0209 2500 -SHSN SCT007 BKN015CB
UGKO,TAF UGKO 011700Z 0118/0218 08007KT CAVOK TX30/0211Z TN14/0202Z BECMG 0204/0207 08017G29KT TEMPO 0207/0213 08027G39KT
UGSB,TAF UGSB 011700Z 0118/0218 12013KT CAVOK TX26/0211Z TN17/0202Z TEMPO 0200/0206 13023KT BECMG 0207/0209 30007KT BECMG 0217/0218 12010KT
UGTB,TAF UGTB 011700Z 0118/0218 33007KT CAVOK TX28/0212Z TN16/0203Z TEMPO 0120/0204 SCT040 BECMG 0207/0209 15010KT
UHBB,TAF UHBB 011952Z 0121/0221 19003G08MPS 9999 BKN030CB TEMPO 0121/0212 3100 -SHRA SCT011 BKN020CB BECMG 0201/0204 26003G08MPS BECMG 0208/0211 34003G08MPS
UHHH,TAF AMD UHHH 012110Z 0121/0303 18003MPS 9999 SCT020CB TEMPO 0121/0124 3100 BR FEW001 SCT020CB TEMPO 0200/0210 20007MPS
UHMA,TAF UHMA 011936Z 0121/0221 04003G08MPS 9999 SCT025 TEMPO 0121/0209 14007MPS -SHRASN BKN015CB TEMPO 0209/0221 33007MPS 5000 -SHSN BR SCT003 BKN015CB
UHMM,TAF UHMM 011952Z 0121/0303 02003MPS 9999 FEW040
UHPP,TAF UHPP 011938Z 0121/0303 31003G12MPS 9999 SCT040CB TEMPO 0200/0208 28008G15MPS
UHSS,TAF UHSS 011950Z 0121/0303 36003MPS 9999 BKN030CB BECMG 0123/0201 19003MPS
UHWW,TAF UHWW 012000Z 0121/0221 32003MPS 6000 FEW002 BKN016 TEMPO 0121/0123 VRB01MPS 0300 FG FM012300 20003G08MPS 9999 SCT025
UIAA,TAF UIAA 012000Z 0121/0221 28005G10MPS 9999 BKN030CB TEMPO 0121/0203 22003G08MPS TEMPO 0203/0212 29010G15MPS TEMPO 0212/0221 22003MPS
UIBB,TAF UIBB 012000Z 0121/0221 27003MPS 9999 -SHSN FEW001 BKN016CB TEMPO 0121/0212 0500 +SHSN FZFG VV003
UIII,TAF UIII 012000Z 0121/0221 30003MPS 9999 SCT040CB TEMPO 0203/0210 30008G13MPS
UIUU,TAF UIUU 012000Z 0121/0221 30006G12MPS 9999 BKN030CB TEMPO 0121/0221 36003G08MPS OVC011CB
ULAA,TAF ULAA 012000Z 0121/0221 VRB01MPS 2100 BR FEW005 BKN011 TEMPO 0121/0124 0300 -SHRA FG BKN002 BKN010CB TEMPO 0200/0207 0300 FG BKN002 FM020700 16003MPS 9999 BKN016 BECMG 0210/0212 34003MPS SCT016
ULLI,TAF AMD ULLI 012035Z 0121/0221 10003MPS 6000 BKN003 TEMPO 0121/0207 0300 FG BKN006 BECMG 0207/0208 BKN010 BECMG 0208/0210 BKN020
ULMM,TAF ULMM 011958Z 0121/0221 23003MPS 6000 BKN011 TEMPO 0121/0206 0300 FZFG VV001 BECMG 0206/0208 BKN016CB
ULOO,TAF ULOO 011954Z 0121/0206 05003MPS 6000 BKN016 TEMPO 0121/0124 1000 BR BKN004 BECMG 0200/0201 3000 MIFG BR TEMPO 0201/0206 0300 FG VV002
ULPB,TAF ULPB 011955Z 0121/0206 VRB01MPS 6000 SCT016 TEMPO 0121/0206 0300 FG VV002
ULWC,TAF ULWC 011700Z 0118/0203 05003G08MPS 6000 OVC010 TEMPO 0118/0121 09003MPS 2100 -RA BR OVC004 TEMPO 0121/0203 02005G11MPS 1500 SHRA BR BKN003 BKN014CB
UMGG,TAF UMGG 011701Z 0118/0218 24005MPS 6000 BKN015 TEMPO 0118/0120 VRB02MPS 1200 BR BKN004 BECMG 0120/0122 07006MPS TEMPO 0120/0206 04006MPS 0300 SHRA FG BKN002 BKN015CB BECMG 0206/0208 02007MPS TEMPO 0206/0215 35009G14MPS 2000 SHRA BR BKN003 BKN015CB TEMPO 0215/0218 32009G14MPS 1200 SHRA BKN004 BKN015CB
UMII,TAF UMII 012012Z 0121/0206 30003MPS 5000 BR BKN005 TEMPO 0121/0206 VRB02MPS 0400 -DZ FG BKN003
UMKK,TAF UMKK 011955Z 0121/0221 17003G10MPS 8000 -RA FEW010 BKN017 TEMPO 0121/0216 2000 SHRA BR BKN005 BKN010CB PROB40 TEMPO 0203/0213 -TSRA BKN010CB BECMG 0204/0206 26007G13MPS
UMMS,TAF AMD UMMS 012123Z 0121/0218 VRB02MPS 0200 FG OVC001 TEMPO 0121/0208 1200 DZ BR OVC002 FM020800 05005MPS 3000 -RA BR OVC003 TEMPO 0208/0218 02005G10MPS 0500 +SHRA OVC002 BKN015CB
UNAA,TAF UNAA 011950Z 0121/0221 11003MPS 6000 SCT016CB TEMPO 0123/0201 0300 -SHSN FZFG VV002
UNBB,TAF UNBB 012000Z 0121/0221 14003G08MPS 0150 FZFG BKN002 TEMPO 0121/0204 1500 BR SCT002 FM020400 06003G08MPS 9999 SCT040 TEMPO 0204/0205 0150 FZFG SCT002 TEMPO 0205/0215 09008G13MPS
UNEE,TAF UNEE 012000Z 0121/0221 16003G08MPS 8000 SCT040 TEMPO 0121/0204 0250 -SN FZFG BKN002 BECMG 0210/0214 36003G08MPS
UNKL,TAF UNKL 011948Z 0121/0221 27003G08MPS 9999 SCT017CB
UNNT,TAF UNNT 012000Z 0121/0221 18003G08MPS 8000 BKN016 TEMPO 0121/0204 0300 -SHSN FZFG BKN002 BKN011CB TEMPO 0204/0206 -SN SCT011 BECMG 0206/0207 BKN040 BECMG 0213/0216 02003G08MPS
UNOO,TAF UNOO 011950Z 0121/0221 06003MPS 9999 NSC BECMG 0203/0205 17003MPS
UNTT,TAF UNTT 012000Z 0121/0206 21003MPS 8000 SCT020CB TEMPO 0123/0203 0300 FZFG VV002
UNWW,TAF UNWW 012000Z 0121/0221 19003MPS 8000 BKN040CB TEMPO 0121/0203 0150 -SHSN FZFG BKN002 BKN016CB BECMG 0203/0205 09003G08MPS BECMG 0211/0213 02003G08MPS
UOOO,TAF UOOO 011958Z 0121/0221 21006G13MPS 3200 -SHSN BLSN BKN005 BKN016CB TEMPO 0121/0203 0600 +SHSN BLSN BKN002 BKN011CB BECMG 0203/0206 6000 -SHSN BLSN FEW005 BKN016CB TEMPO 0206/0221 BKN005 BKN013CB
URKA,TAF URKA 011957Z 0121/0221 17003G08MPS 6000 SCT030 TEMPO 0121/0205 FEW010 BECMG 0205/0207 16008G14MPS SCT030CB TEMPO 0207/0221 27011G18MPS 3000 -TSRA BKN020CB
URKK,TAF URKK 011947Z 0121/0221 16003G08MPS 6000 SCT016 TEMPO 0121/0205 13003G08MPS 0200 FG SCT002 FM020800 19007G13MPS 9999 SCT020CB
URMG,TAF URMG 012000Z 0121/0206 09003G08MPS CAVOK
URML,TAF URML 012000Z 0121/0206 20003G10MPS 6000 SCT015 TEMPO 0123/0205 15004G11MPS BKN011
URMM,TAF URMM 012000Z 0121/0221 27003G08MPS 9999 SCT030 TX27/0212Z TN12/0203Z TEMPO 0122/0205 BKN016 BECMG 0205/0206 10003G08MPS TEMPO 0206/0221 11006G13MPS
URMN,TAF URMN 012000Z 0121/0206 25003G08MPS 9999 BKN016
URMO,TAF URMO 011400Z 0115/0124 08003G08MPS 9999 SCT055
URMT,TAF URMT 012000Z 0121/0206 12003G08MPS 9999 SCT020 TEMPO 0121/0203 20003G08MPS
URRP,TAF URRP 011956Z 0121/0221 23003G10MPS 6000 FEW005 SCT020 TEMPO 0121/0208 19003MPS 0200 FG FEW001 BKN016 FM020800 20003G12MPS 9999 SCT020CB TEMPO 0212/0221 6000 -SHRA SCT016 BKN020CB
URSS,TAF URSS 011955Z 0121/0221 05003G08MPS 9999 NSC BECMG 0207/0209 16003G08MPS BECMG 0216/0218 05003G08MPS SCT040CB BKN100 TEMPO 0218/0221 VRB07G12MPS 1000 TSRA BKN006 BKN030CB OVC100
URWA,TAF URWA 012000Z 0121/0206 14003G08MPS 6000 SCT016 TEMPO 0121/0203 0300 FG OVC002
URWW,TAF URWW 011957Z 0121/0206 13005G10MPS 6000 BKN016 BKN020CB TEMPO 0121/0203 16003G08MPS TEMPO 0203/0206 16006G12MPS -SHRA PROB40 TEMPO 0203/0206 -TSRAGR
USCC,TAF USCC 011958Z 0121/0221 18003G12MPS 9999 BKN030 TEMPO 0200/0215 18008G15MPS
USCM,TAF USCM 011959Z 0121/0206 18003G08MPS 6000 BKN016 TEMPO 0121/0203 12003G08MPS 0900 -RASN FG
USHH,TAF USHH 011931Z 0121/0221 17003G10MPS 9999 SCT020 TEMPO 0121/0204 5000 BR FEW002 SCT016 TEMPO 0204/0212 17006G14MPS
USNN,TAF USNN 011950Z 0121/0221 20003MPS 6000 SCT020 TEMPO 0121/0203 FEW002 SCT016 BECMG 0203/0204 CAVOK BECMG 0204/0206 22003G10MPS
USPP,TAF USPP 011956Z 0121/0221 14003G12MPS 9999 BKN016 BECMG 0204/0206 17003G14MPS
USRR,TAF USRR 011955Z 0121/0221 24003G08MPS 9999 FEW011 SCT020 TEMPO 0121/0203 5000 BR FEW002 BKN016 BECMG 0203/0206 21005G12MPS
USSS,TAF USSS 011956Z 0121/0221 15003G08MPS 9999 SCT040 BECMG 0204/0207 17003G13MPS
USTR,TAF USTR 011955Z 0121/0221 16004G10MPS 9999 SCT020 TEMPO 0121/0203 VRB01MPS 3100 BR FEW004 SCT016 TEMPO 0203/0215 17005G12MPS
UTAA,TAF UTAA 011645Z 0118/0218 03012KT 6000 SCT050 TEMPO 0120/0124 VRB04KT 3000 HZ BECMG 0200/0202 12014KT TEMPO 0202/0204 18016KT
UTAK,TAF UTAK 011030Z 0112/0212 09016G26KT 9999 SCT033 SCT100 TEMPO 0112/0120 05014G24KT BECMG 0204/0206 15012G22KT CAVOK
UTAM,TAF UTAM 011630Z 0118/0218 36014KT 5000 NSC TEMPO 0118/0206 VRB04KT TEMPO 0200/0205 3000 HZ FU SCT050 TEMPO 0206/0215 36012G22KT
UTAT,TAF UTAT 011632Z 0118/0218 01014KT CAVOK TEMPO 0118/0203 05014KT
UTAV,TAF UTAV 011630Z 0118/0218 36014KT CAVOK TEMPO 0118/0204 33014KT
UTFF,TAF UTFF 012100Z 0112/0207 14010KT 9999 NSC TEMPO 0122/0202 35012KT 6000 FEW060CB
UTFN,TAF UTFN 011700Z 0118/0218 34010KT 7000 FEW050CB TEMPO 0118/0124 VRB02KT 3000 BR SCT050CB
UTNN,TAF UTNN 011700Z 0118/0218 01010G20KT CAVOK TEMPO 0119/0203 06006KT
UTNU,TAF UTNU 011700Z 0118/0218 02010G20KT CAVOK TEMPO 0118/0201 07006KT
UTSA,TAF UTSA 011701Z 0118/0218 04010KT 7000 NSC TEMPO 0118/0205 36016KT 4000 -DS
UTSB,TAF UTSB 011700Z 0118/0218 02012KT 7000 NSC TEMPO 0118/0205 34016KT
UTSS,TAF UTSS 011700Z 0118/0218 10010G20KT 9999 NSC TEMPO 0118/0203 15012KT
UTST,TAF UTST 011700Z 0118/0218 27010G20KT 6000 NSC TEMPO 0118/0204 23019G29KT 2400 -DS
UTTT,TAF UTTT 011700Z 0118/0218 04010KT 7000 NSC TEMPO 0118/0203 VRB02KT 3000 FU
UUBC,TAF UUBC 011657Z 0118/0203 20003G08MPS 6000 BKN016 TEMPO 0118/0121 2100 -TSRA BKN004 BKN011CB
UUBP,TAF UUBP 011357Z 0115/0124 18003G08MPS 6000 BKN016 TEMPO 0115/0124 -SHRA BKN009 BKN013CB PROB40 TEMPO 0115/0124 -TSRA BKN006 BKN012CB
UUBW,TAF UUBW 011956Z 0121/0221 22003MPS 6000 FEW007 BKN016 TX14/0212Z TN09/0204Z TEMPO 0121/0123 2100 -SHRA BR SCT005 BKN016CB TEMPO 0123/0207 0300 FG OVC002 TEMPO 0214/0221 -SHRA FEW005 BKN013CB BECMG 0215/0217 07006MPS
UUDD,TAF UUDD 011955Z 0121/0303 22005G10MPS 6000 FEW006 BKN016 TX16/0212Z TN09/0203Z TEMPO 0121/0124 -SHRA FEW004 BKN016CB PROB40 TEMPO 0200/0207 0300 FG OVC002 BECMG 0212/0214 10006G12MPS TEMPO 0218/0303 2000 SHRA FEW004 BKN016CB
UUDL,TAF UUDL 012000Z 0121/0221 12003MPS 6000 BKN010 TX14/0212Z TN10/0203Z TEMPO 0121/0206 2000 RA BR BKN003
UUEE,TAF UUEE 011958Z 0121/0221 17003G09MPS 6000 FEW003 OVC016 TX14/0212Z TN09/0203Z TEMPO 0121/0124 2100 -SHRA BR BKN004 BKN012CB PROB40 TEMPO 0121/0206 0300 FG OVC002 BECMG 0121/0123 23005MPS BECMG 0214/0216 07006MPS TEMPO 0217/0221 -SHRA SCT016CB
UUMO,TAF UUMO 011958Z 0121/0206 19003MPS 6000 BKN016 TEMPO 0121/0206 -SHRA BKN009 BKN012CB PROB40 TEMPO 0121/0206 -TSRA SCT006 BKN011CB
UUOB,TAF UUOB 011959Z 0121/0206 18003G08MPS 6000 SCT016 TEMPO 0121/0123 1200 BR BKN003 BECMG 0123/0201 3100 BR OVC005 TEMPO 0201/0206 0300 FG VV002
UUOK,TAF UUOK 011657Z 0118/0203 23003G08MPS 6000 BKN016 TEMPO 0118/0121 3600 -TSRA BKN011CB
UUOL,TAF UUOL 012000Z 0121/0206 19003MPS 3000 BR BKN007 TEMPO 0121/0205 0500 FG VV002
UUOO,TAF UUOO 012000Z 0121/0206 18003MPS 4100 BR BKN016 TEMPO 0121/0203 0400 FG
UUWW,TAF UUWW 011958Z 0121/0221 17003MPS 6000 FEW005 BKN016 TX14/0212Z TN10/0203Z TEMPO 0121/0124 2100 -SHRA BR BKN012CB BECMG 0122/0124 23005MPS PROB40 TEMPO 0200/0206 0300 FG BKN005 TEMPO 0212/0221 -SHRA BKN012CB PROB40 TEMPO 0215/0221 -TSRA BKN015CB
UUYY,TAF UUYY 012000Z 0121/0221 16003G10MPS 6000 -SHRA BKN005 BKN017CB TEMPO 0121/0208 0300 SHRA FG BKN002 BKN016CB BECMG 0208/0209 FEW006 BKN011CB TEMPO 0209/0215 15005G14MPS
UWGG,TAF UWGG 011957Z 0121/0221 18003G09MPS 8000 BKN016 TX16/0212Z TN14/0203Z TEMPO 0121/0206 1500 SHRA BR BKN004 BKN010CB PROB40 TEMPO 0121/0206 -TSRA BKN012CB
UWKD,TAF UWKD 011954Z 0121/0221 15005G12MPS 6000 -RA OVC013 TX15/0211Z TN09/0201Z TEMPO 0121/0215 2000 SHRA BR BKN005 BKN010CB BECMG 0200/0202 17008G15MPS BECMG 0215/0217 16005G12MPS
UWKE,TAF UWKE 011951Z 0121/0221 17003G09MPS 9999 BKN020 TEMPO 0121/0203 0700 FG OVC003 TEMPO 0203/0207 6000 FEW005 BKN016 TEMPO 0207/0221 17008G14MPS 6000 -SHRA BKN016CB
UWKS,TAF UWKS 011944Z 0121/0206 17006G12MPS 8000 -SHRA BKN010CB TX13/0206Z TN12/0121Z
UWLL,TAF UWLL 011952Z 0121/0221 14003G08MPS 9999 BKN020 TX16/0212Z TN10/0203Z TEMPO 0121/0221 20007G14MPS 3000 -SHRA BR OVC006 BKN016CB
UWLW,TAF UWLW 011948Z 0121/0221 17003G08MPS 6000 BKN016 TX16/0211Z TN08/0202Z TEMPO 0121/0218 13007G14MPS 3000 -RA BR OVC007
UWOO,TAF UWOO 011940Z 0121/0221 13005G14MPS 6000 SCT020 TX16/0210Z TN07/0201Z TEMPO 0121/0215 15008G16MPS -SHRA BKN016CB
UWOR,TAF UWOR 011943Z 0121/0206 14005G12MPS 6000 SCT020 TX09/0206Z TN05/0123Z TEMPO 0121/0206 15007G16MPS -SHRA BKN016CB
UWPS,TAF UWPS 011955Z 0121/0206 17007G14MPS 7000 -TSRA BKN016CB TX14/0121Z TN10/0203Z TEMPO 0121/0203 2000 SHRA BR BKN004 BKN009CB
UWSG,TAF UWSG 011958Z 0121/0206 15003G09MPS 6000 BKN020 TX16/0206Z TN12/0201Z TEMPO 0121/0124 2100 -TSRA BR FEW004 SCT007 BKN016CB TEMPO 0200/0206 2100 BR SCT007
UWUU,TAF UWUU 011945Z 0121/0221 11004G09MPS 9999 BKN040 TX14/0211Z TN04/0202Z TEMPO 0121/0206 16003G08MPS FM020600 13004G09MPS 9999 BKN030 TEMPO 0206/0218 16007G14MPS
UWWW,TAF UWWW 011957Z 0121/0221 12005G11MPS 6000 BKN016 TX18/0211Z TN07/0121Z TEMPO 0121/0206 2000 -SHRA BR SCT007 BKN016CB BECMG 0206/0207 17007G13MPS TEMPO 0207/0221 -SHRA BKN016CB
VAAH,TAF VAAH 012000Z 0121/0206 28006KT 4000 HZ NSC BECMG 0122/0124 3000 BR HZ BECMG 0201/0203 32008KT 2500 BR BECMG 0204/0206 4000 BR HZ FEW020 SCT080
VABB,TAF VABB 012000Z 0121/0206 01003KT 2500 HZ SCT020 BKN100 BECMG 0200/0202 VRB03KT DZ HZ SCT018 SCT025 BKN090 BECMG 0204/0206 25008KT -RA HZ SCT018 FEW025TCU BKN090
VABJ,TAF VABJ 012000Z 0121/0206 25006KT 6000 NSC BECMG 0122/0124 SCT020 BECMG 0201/0203 4000 BR BECMG 0204/0206 6000
VABO,TAF VABO 012000Z 0121/0206 22004KT 6000 NSC BECMG 0122/0124 27003KT 4000 BR HZ BECMG 0201/0203 34005KT 3000 BR BECMG 0204/0206 6000 FEW020
VABP,TAF VABP 012000Z 0121/0206 30005KT 5000 HZ FEW020 SCT100 BECMG 0201/0203 3000 HZ BECMG 0204/0206 30008KT 4000 HZ
VABV,TAF VABV 012000Z 0121/0206 28006KT 5000 HZ NSC BECMG 0201/0203 3000 BR HZ BECMG 0204/0206 36006KT 6000 FEW020 SCT025
VADU,TAF VADU 012000Z 0121/0206 32008KT 4000 BR HZ FEW020 BECMG 0201/0203 3000 BR BECMG 0204/0206 27008KT 5000 HZ
VAID,TAF VAID 012000Z 0121/0206 30005KT 5000 HZ FEW020 SCT100 BECMG 0201/0203 3000 HZ BECMG 0204/0206 30008KT 4000 HZ
VAJB,TAF VAJB 012000Z 0121/0206 34005KT 4000 HZ FEW020 SCT100 BECMG 0201/0203 3000 HZ BECMG 0204/0206 32008KT 4000 HZ
VAJM,TAF VAJM 012000Z 0121/0206 23005KT 6000 FEW020 BECMG 0201/0203 4000 BR BECMG 0204/0206 27008KT 6000
VANP,TAF VANP 011700Z 0118/0203 32002KT 3000 BR/HZ FEW090 BECMG 0201/0203 34004KT 2000 BR/HZ SCT090
VAOZ,TAF VAOZ 011400Z 0115/0203 27010KT 5000 BR SCT030 TEMPO 0201/0203 3000 BR
VAPO,TAF VAPO 011700Z 0118/0300 31010KT 6000 SCT025 BKN090 TEMPO 0118/0120 5000 -RA TEMPO 0201/0203 4000 RABR SCT020 SCT025 BKN090 TEMPO 0208/0212 26015G25KT 4000 TSRA SCT020 SCT025 FEW030CB BKN090 TEMPO 0216/0218 5000 -RA
VAPR,TAF VAPR 012000Z 0121/0206 27008KT 6000 SCT020 BECMG 0201/0203 3000 BR HZ BECMG 0204/0206 23008KT 6000
VARK,TAF VARK 012000Z 0121/0206 25006KT 6000 NSC BECMG 0201/0203 4000 BR HZ BECMG 0204/0206 6000 SCT020
VASU,TAF VASU 012000Z 0121/0206 27005KT 6000 FEW020 BECMG 0122/0124 32003KT 4000 BR BECMG 0204/0206 6000 FEW018 SCT025 BKN080
VCBI,TAF VCBI 011700Z 0118/0224 25012G22KT 9999 SCT016 TX31/0207Z TN26/0200Z PROB30 TEMPO 0200/0206 7000 -SHRA FEW014 BKN016
VCRI,TAF VCRI 011700Z 0118/0224 24008KT 9999 FEW018 TX34/0207Z TN24/0200Z BECMG 0203/0205 24015G25KT PROB30 TEMPO 0206/0212 7000 -SHRA SCT016 BKN080 BECMG 0213/0214 25010KT 
VDPP,TAF VDPP 011700Z 0118/0212 22006KT 9999 SCT017 SCT040 TEMPO 0206/0211 5000 TSRA SCT015 FEW017CB SCT040
VDSR,TAF VDSR 011700Z 0118/0212 16006KT 9999 SCT017 SCT040 TEMPO 0206/0211 5000 TSRA SCT015 FEW017CB SCT040
VDSV,TAF VDSV 011700Z 0118/0212 25008KT 9999 SCT017 SCT040 TEMPO 0206/0211 5000 TSRA SCT015 FEW017CB SCT040
VEAT,TAF VEAT 012000Z 0121/0206 00000KT 3000 -RA BR SCT018 BKN100 BECMG 0203/0205 18005KT 5000 HZ
VEBD,TAF VEBD 011100Z 0112/0218 14005KT 6000 SCT025 SCT100 BECMG 0120/0122 5000 BR TEMPO 0209/0212 TS SCT025 FEW030CB SCT100
VEBN,TAF VEBN 011700Z 0118/0224 VRB02KT 3000 BR SCT020 BKN100 BECMG 0206/0208 29004KT 4000 HZ BECMG 0214/0216 VRB02KT 3000 BR
VEBS,TAF VEBS 012000Z 0121/0206 05003KT 3000 HZ BKN018 BKN100
VECC,TAF VECC 012000Z 0121/0206 30005KT 3000 -RA HZ SCT018 BKN090 BECMG 0122/0124 2200 -RA BR TEMPO 0200/0204 1200 TSRA SCT010 SCT015 FEW025CB OVC090 BECMG 0204/0206 06007KT 3200 -RA HZ
VEGT,TAF VEGT 012000Z 0121/0206 00000KT 3000 -RA BR SCT018 BKN100 BECMG 0203/0205 05005KT 5000 HZ
VEGY,TAF VEGY 011400Z 0115/0124 00000KT 4000 BR SCT100 BECMG 0116/0118 2500 -RA BR SCT018 BKN090
VEIM,TAF VEIM 012000Z 0121/0206 00000KT 3000 -RA BR SCT018 BKN100 BECMG 0203/0205 02005KT 5000 HZ
VEMN,TAF VEMN 012000Z 0121/0206 00000KT 3000 BR SCT018 SCT100 BECMG 0203/0205 34005KT 5000 HZ
VEMR,TAF VEMR 012000Z 0121/0206 00000KT 3000 -RA BR SCT018 BKN100 BECMG 0203/0205 05005KT 5000 HZ
VEPT,TAF VEPT 012000Z 0121/0206 00000KT 2500 -RA BR SCT018 BKN090 BECMG 0204/0205 4000 -RA HZ SCT018 SCT025
VERC,TAF VERC 012000Z 0121/0206 00000KT 2500 -RA BR SCT015 BKN090 BECMG 0204/0205 4000 -RA HZ SCT018 SCT025
VETZ,TAF VETZ 011530Z 0118/0206 06005KT 6000 SCT020 FEW025TCU SCT090
VGEG,TAF VGEG 011700Z 0118/0224 17007KT 4000 SCT015 BKN100 BECMG 0202/0204 10005KT 4000 SCT015 BKN100 BECMG 0212/0214 18008KT 5000 SCT016 BKN100 BECMG 0220/0222 17005KT 4000 SCT015 BKN100
VGHS,TAF VGHS 011700Z 0118/0224 16007KT 3500 HZ FEW015 SCT100 BECMG 0121/0123 09005KT 3000 HZ SCT014 BKN100 TEMPO 0200/0206 18020KT 2000 RA/TSRA BKN008 FEW025CB OVC090 BECMG 0112/0114 16008KT 4000 BECMG 0207/0209 16008KT 4000 HZ FEW015 SCT100
VHHH,TAF VHHH 012000Z 0121/0303 09010KT 9999 FEW015 SCT030 TX33/0206Z TN27/0122Z TN28/0222Z TEMPO 0121/0124 4000 SHRA FEW010CB SCT025
VIAG,TAF VIAG 011700Z 0118/0300 VRB02KT 5000 BR NSC BECMG 0120/0122 3000 BR TEMPO 0200/0203 1500 BR BECMG 0205/0206 30010KT 5000 HZ SCT030 BECMG 0220/0221 VRB02KT 3000 BR NSC
VIAR,TAF VIAR 012000Z 0121/0206 VRB02KT 3000 BR NSC BECMG 0200/0202 09005KT 2000 BR BECMG 0204/0205 35006KT 4000 HZ
VICG,TAF VICG 010930Z 0112/0218 32005KT 6000 SCT025 BECMG 0116/0118 VRB02KT 5000 BR FEW025 FEW100 BECMG 0120/0122 4000 BR FEW100 TEMPO 0200/0204 3000 BR BECMG 0205/0206 32010KT 6000 SCT025 BECMG 0215/0216 36005KT 5000 BR FEW 025
VIDN,TAF VIDN 011100Z 0112/0218 15003KT 4500 HZ SCT025 BKN060 TEMPO 0113/0115 FEW035TCU BECMG 0118/0120 03003KT 3000 BR SCT030
VIDP,TAF VIDP 012000Z 0121/0206 VRB02KT 2500 HZ BR NSC BECMG 0200/0202 1000 BR BECMG 0204/0205 29005KT 1800 BR FU
VIJP,TAF VIJP 012000Z 0121/0206 VRB03KT 3000 HZ SCT030 BECMG 0204/0206 32010KT 5000 HZ
VIJU,TAF VIJU 010930Z 0118/0212 27005KT 6000 FEW025 SCT090 TEMPO 0201/0204 3000 MIST
VILH,TAF VILH 010930Z 0118/0212 30010KT 6000 SCT060 SCT100 TEMPO 0202/0204 12005KT TEMPO 0210/0212 30015G25KT 5000 BLDU SCT060 FEW070TCU BKN100 
VILK,TAF VILK 012000Z 0121/0206 VRB02KT 3000 BR HZ SCT020 SCT025 BECMG 0205/0209 5000 HZ
VISR,TAF VISR 011530Z 0118/0206 VRB02KT 6000 FEW025 SCT100 TEMPO 0122/0123 5000 RABR FEW020 BKN080 TEMPO 0201/0202 2500 BR TEMPO 0203/0204 4000 HZ
VLLB,TAF VLLB 011700Z 0118/0218 09004KT 5000 RA SCT010 SCT060 OVC080
VLLN,TAF VLLN 011700Z 0118/0218 09004KT 3000 RA SCT010 BKN090
VLPS,TAF VLPS 011700Z 0118/0218 18004KT 5000 RA SCT016 SCT050 SCT100
VLSK,TAF VLSK 011700Z 0118/0218 14004KT 4000 RA SCT013 SCT040 BKN093
VLVT,TAF VLVT 011700Z 0118/0218 04006KT 4000 RA SCT013 BKN040 BKN083
VMMC,TAF VMMC 011700Z 0118/0224 09008KT 9999 FEW012 SCT025 TEMPO 0120/0124 4500 SHRA FEW010CB SCT020
VNKT,TAF VNKT 011700Z 0118/0218 10003KT 7000 FEW015 SCT030C BECMG 0200/0202 22004KT 6000 FEW015 SCT030 BECMG 0204/0205 12006KT 8000 FEW015 SCT030 BECMG 0207/0209 25008KT 9999 FEW020 SCT025 BKN100 PROB30 0208/0214 VRB07KT 4000 -TSRA FEW025CB BKN100 BECMG 0214/0215 11003KT 7000 FEW015 SCT100
VOAR,TAF VOAR 011700Z 0118/0224 23004KT 4500 BR SCT018 BKN090 BECMG 0118/0120 VRB02KT BECMG 0201/0203 26008KT 6000 BECMG 0212/0214 4500 HZ/BR BECMG 0214/0216 VRB02KT
VOBG,VOBG 012000Z 0121/0206 27005KT 6000 SCT012 BKN080 BECMG 0122/0123 3000 DZ BR SCT008 SCT012 TEMPO 0200/0203 1500 DZ BR BKN008 SCT012 BKN080 BECMG 0203/0204 6000 SCT012 BKN080
VOBL,TAF VOBL 012000Z 0121/0206 27005KT 6000 SCT012 BKN080 BECMG 0122/0123 3000 DZ BR SCT008 SCT012 TEMPO 0200/0203 1500 DZ BR BKN008 SCT012 BKN080 BECMG 0203/0204 6000 SCT012 BKN080
VOBM,TAF VOBM 011700Z 0118/0203 29010KT 6000 SCT012 BKN080 TEMPO 0200/0203 3000 DZ BR SCT008 SCT012
VOBZ,TAF VOBZ 012000Z 0121/0206 29005KT 4000 BR HZ SCT015 SCT100 TEMPO 0123/0203 VRB04KT 1500 DZ BR SCT010 SCT015 BKN080 BECMG 0204/0206 30010KT 5000 HZ BR SCT015 SCT025
VOCB,TAF VOCB 011700Z 0118/0224 21010KT 5000 BR SCT015 BKN080 TEMPO 0121/0203 3000 BR BECMG 0205/0206 6000 BECMG 0212/0213 5000 BR TEMPO 0218/0224 3000 BR
VOCI,TAF VOCI 012000Z 0121/0206 VRB02KT 4000 BR SCT015 BKN080 TEMPO 0122/0202 2500 .RA BR SCT010 SCT015 BKN080 BECMG 0204/0206 30010KT 4500 .RA HZ SCT015 SCT020
VOCL,TAF VOCL 012000Z 0121/0206 29005KT 5000 BR SCT015 FEW025CB BKN080 TEMPO 0122/0202 2500 .RA BR SCT010 SCT015 BKN080 BECMG 0203/0204 30010KT 4500 .RA HZ SCT015 SCT020
VOGO,TAF VOGO 012000Z 0121/0206 29010KT 6000 FEW010 SCT020 BKN080 TEMPO 0121/0122 4000 RA DZ TEMPO 0200/0204 VRB02KT 3000 RA BR FEW008 SCT020 BKN080
VOHB,VOHB 012000Z 0121/0206 29010KT 6000 SCT012 BKN080 TEMPO 0200/0203 3000 DZ BR SCT008 SCT012
VOHS,TAF VOHS 012000Z 0121/0206 33005KT 5000 DZ BR SCT010 SCT015 BKN100 TEMPO 0123/0203 VRB04KT 3000 DZ BR SCT010 SCT015 OVC080 BECMG 0204/0206 32010KT 6000 SCT015 SCT025 BKN100
VOHY,TAF VOHY 011400Z 0115/0124 34006KT 5000 BR SCT010 SCT015 BKN100 TEMPO 0118/0122 32005KT 3000 TSRA SCT010 SCT015 FEW030CB BKN080
VOKN,TAF VOKN 012000Z 0121/0206 VRB02KT 4000 BR FEW008 SCT012 BKN080 TEMPO 0122/0202 2500 .RA BR BECMG 0204/0206 30010KT 6000 SCT015 SCT020
VOMD,TAF VOMD 011700Z 0118/0224 29010KT 6000 BR FEW020 SCT100 BECMG 0121/0122 5000 HZ BECMG 0203/0204 6000 BECMG 0221/0222 5000 HZ
VOML,VOML 012000Z 0121/0206 VRB02KT 6000 FEW008 SCT012 BECMG 0122/0123 3000 BR FEW005 SCT012 TEMPO 0200/0203 1500 BR SCT005 SCT012 BECMG 0204/0205 29010KT 6000 SCT012 SCT080
VOMM,TAF VOMM 011700Z 0118/0224 29010KT 5000 BR SCT020 BKN100 TEMPO 0118/0124 SCT020 FEW025TCU/CB BKN100 BECMG 0121/0122 3000 -DZ/BR BECMG 0203/0204 5000 BR BECMG 0206/0207 6000 BECMG 0218/0219 5000 BR
VORY,TAF VORY 012000Z 0121/0206 31010KT 4000 BR HZ SCT015 BKN100 TEMPO 0200/0203 VRB04KT 3000 DZ BR SCT010 SCT015 BKN080 BECMG 0204/0206 26010KT 6000 SCT015 BKN100
VOTP,TAF VOTP 012000Z 0121/0206 30005KT 5000 BR HZ SCT015 SCT100 TEMPO 0200/0203 VRB04KT 3000 DZ BR SCT010 SCT015 BKN080 BECMG 0204/0206 26010KT 6000 SCT015 SCT025
VOTR,TAF VOTR 011700Z 0118/0224 29010KT 3000 BR SCT016 BKN100 BECMG 0203/0204 5000 HZ BECMG 0206/0207 29010G20KT 6000 BECMG 0212/0213 29010KT 5000 BR TEMPO 0118/0124 SCT016 FEW025TCU/CB BKN100 BECMG 0218/0219 3000 BR
VOTV,TAF VOTV 012000Z 0121/0206 31010KT 3000 BR SCT15 FEW025TCU/CB TEMPO 0122/0202 00000KT 2500 .RA BR SCT010 SCT015 BKN080 BECMG 0203/0205 30010KT 5000 .RA HZ SCT015 SCT020
VOVZ,TAF VOVZ 012000Z 0121/0206 27005KT 4000 BR SCT016 BKN080 TEMPO 0202/0206 02010KT 5000 HZ/BR
VRMG,TAF VRMG 011700Z 0118/0224 25014KT 9999 FEW018TCU BKN120 TEMPO 0120/0202 FEW018CB
VRMH,TAF VRMH 011700Z 0118/0224 27014KT 9000 FEW018TCU BKN120 TEMPO 0119/0201 27020G33KT 4000 TSRA SCT017CB
VRMM,TAF VRMM 011700Z 0118/0224 27016KT 9999 FEW017TCU BKN120 TEMPO 0118/0124 27023G33KT 5000 TSRA FEW017CB
VTBD,TAF VTBD 011700Z 0118/0224 14005KT 9999 FEW020 TEMPO 0118/0122 VRB15KT 3000 TSRA FEW018CB SCT030 BKN100 BECMG 0201/0203 20008KT TEMPO 0204/0210 VRB10G25KT 3000 TSRA FEW018CB SCT030 BKN100
VTBO,TAF VTBO 011700Z 0118/0218 12005KT 8000 SCT020 SCT100 TEMPO 0122/0202 VRB15KT 4000 TSRA FEW018CB SCT030 BKN100 BECMG 0202/0204 22008KT TEMPO 0206/0212 VRB15KT 3000 TSRA FEW018CB SCT030 BKN100
VTBS,TAF VTBS 011700Z 0118/0224 13005KT 9999 FEW020 TEMPO 0118/0122 VRB15KT 3000 TSRA FEW018CB SCT030 BKN100 BECMG 0201/0203 20008KT TEMPO 0204/0210 VRB10G25KT 3000 TSRA FEW018CB SCT030 BKN100
VTBU,TAF VTBU 011700Z 0118/0218 22006KT 9999 FEW020
VTCC,TAF VTCC 011700Z 0118/0224 20005KT 9999 BKN035 TEMPO 0206/0212 -TSRA FEW025CB BKN032 BECMG 0208/0210 26005KT TEMPO 0214/0220 -TSRA FEW025CB BKN032
VTCH,TAF VTCH 011700Z 0118/0218 34005KT 9999 BKN025 TEMPO 0118/0124 -TSRA FEW020CB BKN025 TEMPO 0204/0210 -TSRA FEW020CB BKN025
VTCL,TAF VTCL 011700Z 0118/0218 16005KT 9999 BKN025 TEMPO 0118/0124 -TSRA FEW020CB BKN025 TEMPO 0208/0214 -TSRA FEW020CB BKN025
VTCN,TAF VTCN 011700Z 0118/0218 04005KT 9999 BKN035 TEMPO 0118/0124 -TSRA FEW018CB BKN030 TEMPO 0204/0210 -TSRA FEW018CB BKN030
VTCP,TAF VTCP 011700Z 0118/0218 22005KT 9999 BKN035 TEMPO 0118/0124 -TSRA FEW018CB BKN035 TEMPO 0208/0214 -TSRA FEW018CB BKN035
VTCT,TAF VTCT 011700Z 0118/0224 06005KT 9999 BKN025 TEMPO 0118/0122 -TSRA FEW020CB BKN025 TEMPO 0202/0210 -TSRA FEW020CB BKN025
VTPB,TAF VTPB 011700Z 0118/0218 18005KT 9999 BKN030 TEMPO 0118/0124 -TSRA FEW018CB BKN030 TEMPO 0206/0212 16010G25KT 4000 TSRA FEW018CB BKN030
VTPH,TAF VTPH 011700Z 0118/0218 24003KT 9999 FEW020 BECMG 0203/0205 12006KT TEMPO 0206/0212 VRB15G25KT 4000 TSRA FEW016CB SCT018 BKN100 BECMG 0213/0215 24003KT
VTPM,TAF VTPM 011700Z 0118/0218 18005KT 9999 BKN030 TEMPO 0118/0122 -TSRA FEW020CB BKN030 TEMPO 0206/0212 20010G25KT 4000 TSRA FEW020CB BKN025
VTPO,TAF VTPO 011700Z 0118/0218 16005KT 9999 SCT025 TEMPO 0118/0122 -TSRA FEW018CB BKN020 TEMPO 0208/0214 20010G25KT 4000 TSRA FEW018CB BKN020
VTPP,TAF VTPP 011700Z 0118/0218 16005KT 9999 SCT030 TEMPO 0118/0124 -TSRA FEW018CB BKN025 TEMPO 0208/0214 12010G25KT 4000 TSRA FEW018CB BKN025
VTSB,TAF VTSB 011700Z 0118/0218 19003KT 8000 FEW020 BKN100 BECMG 0202/0204 25008KT TEMPO 0206/0212 25015G25KT 4000 TSRA FEW016CB SCT018 BKN100 BECMG 0213/0215 19003KT
VTSC,TAF VTSC 011700Z 0118/0218 21005KT 9999 FEW020 SCT100 BECMG 0204/0206 34010KT TEMPO 0207/0212 VRB15G25KT 3000 TSRA FEW016CB SCT018 BKN100 BECMG 0213/0215 21005KT
VTSE,TAF VTSE 011700Z 0118/0218 00000KT 8000 FEW020 BKN100 BECMG 0202/0204 28008KT TEMPO 0204/0212 28015G25KT 4000 RA BECMG 0213/0215 00000KT
VTSF,TAF VTSF 011700Z 0118/0218 10003KT 9999 FEW020 SCT100 TEMPO 0206/0212 VRB15G25KT 3000 TSRA FEW016CB SCT018 BKN100
VTSG,TAF VTSG 011700Z 0118/0218 00000KT 9999 SCT020 BECMG 0202/0204 24006KT TEMPO 0204/0210 24015G25KT 3000 TSRA FEW018CB SCT020 BKN100
VTSM,TAF VTSM 011700Z 0118/0218 28005KT 9999 FEW020 TEMPO 0120/0203 28015G25KT 4000 RA TEMPO 0209/0215 28015G25KT 4000 TSRA FEW016CB SCT018 BKN100
VTSP,TAF VTSP 011700Z 0118/0224 28010KT 9999 SCT020 TEMPO 0122/0204 28015G25KT 3000 TSRA FEW018CB SCT020 BKN100 TEMPO 0208/0214 28015G25KT 3000 TSRA FEW018CB SCT020 BKN100
VTSR,TAF VTSR 011700Z 0118/0218 00000KT 9999 BKN020 BECMG 0204/0206 22006KT TEMPO 0206/0212 22015G25KT 3000 TSRA FEW018CB SCT020 BKN100
VTSS,TAF VTSS 011700Z 0118/0218 00000KT 9999 FEW020 BKN100 BECMG 0202/0204 25008KT TEMPO 0204/0210 25015G25KT 4000 RA TEMPO 0214/0218 25015G25KT 4000 RA
VTST,TAF VTST 011700Z 0118/0218 00000KT 9999 SCT020 BECMG 0202/0204 26006KT TEMPO 0204/0210 26015G25KT 3000 TSRA FEW018CB SCT020 BKN100
VTUD,TAF VTUD 011700Z 0118/0218 12005KT 9000 SCT025 SCT100 TEMPO 0118/0124 VRB15KT 4000 TSRA FEW015CB BKN020 BKN080 TEMPO 0208/0216 VRB15KT 4000 TSRA FEW015CB BKN020 BKN080
VTUI,TAF VTUI 011700Z 0118/0218 09005KT 9000 SCT025 SCT100 TEMPO 0118/0124 VRB15KT 4000 TSRA FEW015CB BKN020 BKN080 TEMPO 0208/0216 VRB15KT 4000 TSRA FEW015CB BKN020 BKN080
VTUK,TAF VTUK 011700Z 0118/0218 12005KT 9000 SCT025 SCT100 TEMPO 0118/0124 VRB15KT 4000 TSRA FEW015CB BKN020 BKN080 TEMPO 0208/0216 VRB15KT 4000 TSRA FEW015CB BKN020 BKN080
VTUL,TAF VTUL 011700Z 0118/0218 11005KT 8000 BKN025 TEMPO 0118/0124 VRB15KT 4000 TSRA FEW015CB BKN020 BKN080 TEMPO 0208/0216 VRB15KT 4000 TSRA FEW015CB BKN020 BKN080
VTUO,TAF VTUO 011700Z 0118/0218 15005KT 9999 SCT025 TEMPO 0210/0214 VRB15KT 4000 TSRA FEW018CB BKN020
VTUQ,TAF VTUQ 011700Z 0118/0218 19005KT 9999 SCT025 TEMPO 0210/0214 VRB15KT 4000 TSRA FEW018CB BKN020
VTUU,TAF VTUU 011700Z 0118/0218 14005KT 9999 SCT025 TEMPO 0211/0216 VRB15KT 4000 TSRA FEW018CB BKN025
VTUV,TAF VTUV 011700Z 0118/0218 13005KT 9999 SCT025 TEMPO 0211/0216 VRB15KT 4000 TSRA FEW018CB BKN020
VTUW,TAF VTUW 011700Z 0118/0218 09005KT 9000 SCT025 SCT100 TEMPO 0118/0124 VRB15KT 4000 TSRA FEW015CB BKN020 BKN080 TEMPO 0208/0216 VRB15KT 4000 TSRA FEW015CB BKN020 BKN080
VVCI,TAF VVCI 011700Z 0118/0218 08005KT 6000 SCT020 BKN040 TEMPO 0118/0202 4000 -RA BR TEMPO 0204/0207 3000 +RA SCT010 FEW023TCU
VVCR,TAF VVCR 011700Z 0118/0218 33005KT 9999 FEW015 BKN050 TEMPO 0121/0124 4000 SHRA SCT013 FEW015CB BKN050 BECMG 0204/0205 09010KT TEMPO 0210/0214 4000 TSRA SCT010 FEW015CB BKN040 BECMG 0214/0215 32005KT
VVCT,TAF VVCT 011700Z 0118/0218 22006KT 9999 SCT017 SCT040 TEMPO 0203/0206 3000 TSRA SCT015 SCT017CB BKN040
VVDN,TAF VVDN 011700Z 0118/0218 20005KT 9999 FEW015 SCT060 TEMPO 0121/0124 4500 SHRA SCT013 FEW015CB BKN060 BECMG 0204/0205 10010KT TEMPO 0210/0213 4000 TSRA SCT013 FEW015CB BKN050 BECMG 0213/0214 20005KT
VVNB,TAF VVNB 011700Z 0118/0218 07005KT 8000 SCT020 BKN040 TEMPO 0120/0202 4000 -RA BR TEMPO 0204/0208 3000 +RA SCT010 FEW020TCU
VVPB,TAF VVPB 011700Z 0118/0218 22006KT 9999 SCT013 SCT050 TEMPO 0118/0201 4000 SHRA SCT010 FEW015CB BKN050 BECMG 0204/0205 08010KT TEMPO 0209/0212 4000 TSRA SCT010 FEW015CB BKN040 BECMG 0212/0213 22005KT
VVPQ,TAF VVPQ 011700Z 0118/0218 25008KT 9999 SCT015 SCT040 TEMPO 0123/0203 3000 SHRA SCT015 FEW017CB TEMPO 0205/0207 5000 TSRA SCT015 SCT017CB BKN040
VVTS,TAF VVTS 011700Z 0118/0224 VRB01KT 9999 SCT017 BKN050 BECMG 0202/0203 23010KT TEMPO 0206/0212 5000 SHRA BKN015 FEW017CB BKN040
VYMD,TAF VYMD 011700Z 0118/0218 14003KT 7000 BKN020 FEW025CB TEMPO 0118/0124 34007KT 4000 -TSRA BKN012 FEW015CB OVC090
VYNT,TAF VYNT 011700Z 0118/0218 18008KT 7000 BKN020 FEW023CB BKN110 TEMPO 0118/0124 16007KT 4000 -TSRA BKN015 FEW020CB BKN100
VYYY,TAF VYYY 011700Z 0118/0218 23004KT 7000 SCT018 FEW020CB BKN100 TEMPO 0118/0124 17005KT 4000 RA BKN016 FEW018CB BKN090
WAAA,TAF WAAA 011700Z 0118/0224 11004KT 8000 FEW019 BECMG 0201/0203 29010KT TEMPO 0205/0208 5000 TSRA FEW018CB
WABB,TAF WABB 011700Z 0118/0300 00000KT 9999 SCT018 BECMG 0122/0200 09008KT PROB40 TEMPO 0203/0207 5000 RA
WADD,TAF WADD 011700Z 0118/0218 VRB05KT 9999 SCT016 TEMPO 0207/0211 5000 TSRA FEW013CB BKN014
WADL,TAF WADL 011700Z 0118/0218 15005KT 7000 SCT016
WALL,TAF WALL 011700Z 0118/0224 25002KT 9999 FEW018CB SCT020 TEMPO 0118/0121 8000 -RA BECMG 0200/0202 SCT020
WALS,TAF WALS 011700Z 0118/0206 00000KT 8000 SCT017 TEMPO 0118/0121 5000 -TSRA FEW016CB SCT017 TEMPO 0121/0124 5000 BR BECMG 0200/0202 9999
WAMM,TAF WAMM 011700Z 0118/0224 VRB03KT 9999 SCT021 BECMG 0201/0202 16009KT TEMPO 0205/0207 5000 RA FEW018CB
WAOO,TAF WAOO 011700Z 0118/0218 05008KT 9999 SCT018 PROB40 TEMPO 0207/0211 3000 RA
WAPP,TAF WAPP 011700Z 0118/0218 35005KT 9999 SCT018
WAQA,TAF WAQA 011700Z 0118/0206 24001KT 7000 SCT012 BECMG 0200/0202 9999
WAQD,TAF WAQD 011700Z 0118/0206 00000KT 8000 FEW015 BECMG 0200/0202 9999
WAQJ,TAF WAQJ 011700Z 0118/0206 VRB02KT 7000 BKN015 TEMPO 0121/0124 3000 BR BECMG 0201/0203 9999
WAQQ,TAF WAQQ 011700Z 0118/0206 00000KT 8000 FEW015 BECMG 0200/0202 9999
WAQT,TAF WAQT 011700Z 0118/0206 VRB02KT 8000 SCT013 TEMPO 0121/0124 4000 BR BECMG 0200/0202 9999
WARR,TAF WARR 011700Z 0118/0218 25005KT 5000 HZ SCT020 PROB30 TEMPO 0120/0200 4000 TSRA SCT018CB BECMG 0201/0203 08011KT 9999 NSW TEMPO 0207/0211 4000 TSRA SCT020CB BECMG 0215/0217 24005KT 5000 HZ
WATT,TAF WATT 011700Z 0118/0218 08004KT 8000 SCT016 BECMG 0201/0203 31013KT FEW015CB BKN016 PROB40 TEMPO 0206/0208 3000 TSRA BECMG 0210/0212 07006KT FEW018
WBGB,TAF WBGB 011700Z 0118/0218 VRB03KT 9999 SCT018 TEMPO 0118/0120 5000 TSRA FEW015CB SCT018 TEMPO 0211/0214 4000 +TSRA FEW015CB SCT018
WBGG,TAF AMD WBGG 012037Z 0120/0218 VRB03KT 9999 SCT020 TEMPO 0120/0123 4000 TSRA FEW015CB SCT018 TEMPO 0207/0210 5000 -TSRA FEW015CB SCT018
WBGR,TAF WBGR 011700Z 0118/0218 VRB03KT 9999 SCT016 TEMPO 0211/0213 5000 -TSRA FEW015CB SCT018
WBGS,TAF WBGS 011700Z 0118/0218 VRB03KT 9999 SCT018 TEMPO 0213/0216 3000 +TSRA FEW015CB SCT018
WBKK,TAF WBKK 011700Z 0118/0218 11005KT 9999 FEW014 BECMG 0200/0202 24005KT PROB40 TEMPO 0207/0211 5000 TSRA FEW010 FEW016CB SCT035
WBKL,TAF WBKL 011700Z 0118/0218 VRB03KT 9999 FEW035 BECMG 0122/0124 03006KT FEW016
WBKS,TAF WBKS 011700Z 0118/0218 VRB03KT 9999 FEW016 BECMG 0200/0202 03007KT
WBKW,TAF WBKW 011700Z 0118/0218 VRB03KT 9999 FEW016 TEMPO 0204/0208 10010KT 4000 TSRA FEW015CB SCT016
WBSB,TAF WBSB 011700Z 0118/0300 03004KT 9999 SCT014 FEW015CB TEMPO 0120/0122 8000 -SHRA BECMG 0200/0202 20004KT FEW014 TEMPO 0204/0206 30008KT SCT015 FEW016CB
WIDD,TAF WIDD 011700Z 0118/0218 16005KT 9999 SCT014 TEMPO 0119/0123 28005KT 5000 TSRA FEW013CB
WIEE,TAF WIEE 011700Z 0118/0218 05002KT 5000 RA BKN018 BECMG 0118/0120 9999 NSW SCT020
WIHH,TAF WIHH 011700Z 0118/0218 24003KT 5000 HZ SCT020 TEMPO 0122/0201 15005KT 3000 -RA FEW018CB
WIII,TAF WIII 011700Z 0118/0224 VRB05KT 5000 HZ SCT020 TEMPO 0118/0122 17010KT 3000 TSRA FEW015CB BECMG 0203/0205 07012KT 9000 NSW
WIMM,TAF WIMM 011700Z 0118/0218 22005KT 5000 HZ SCT017 BECMG 0202/0204 03010KT 9999 NSW TEMPO 0212/0216 -TSRA FEW016CB
WIPP,TAF WIPP 011700Z 0118/0218 22005KT 9999 SCT010
WITT,TAF WITT 011700Z 0118/0218 28005KT 9999 SCT018 TEMPO 0121/0123 4000 -RA FEW015CB SCT016
WMAP,TAF WMAP 011700Z 0118/0218 VRB02KT 6000 RA FEW006 FEW017CB BECMG 0121/0123 02006KT 9999 FEW018 TEMPO 0204/0209 5000 TSRA FEW017CB SCT018
WMBT,TAF WMBT 011700Z 0118/0218 VRB03KT 9999 FEW025
WMKA,TAF COR WMKA 011704Z 0118/0218 VRB02KT 9999 SCT030 TEMPO 0119/0124 5000 TSRA FEW010 FEW017CB BECMG 0204/0206 26006KT FEW017CB BECMG 0210/0212 VRB02KT FEW030
WMKB,TAF WMKB 011700Z 0118/0218 VRB02KT 8000 FEW024 TEMPO 0118/0121 33005KT 6000 RA FEW017CB BECMG 0203/0205 29007KT 9999 FEW020
WMKC,TAF WMKC 011700Z 0118/0218 VRB03KT 9999 FEW020
WMKE,TAF WMKE 011700Z 0118/0218 VRB02KT 9999 FEW017
WMKI,TAF WMKI 011700Z 0118/0218 04005KT 8000 FEW026 BECMG 0200/0202 9999 FEW020
WMKJ,TAF WMKJ 011700Z 0118/0218 VRB02KT 8000 FEW022 TEMPO 0122/0202 5000 TSRA FEW008 FEW016CB TEMPO 0204/0209 15006KT 5000 TSRA FEW016CB SCT018
WMKK,TAF WMKK 011700Z 0118/0300 VRB02KT 8000 RA FEW008 SCT030 BECMG 0122/0200 30006KT 9999 FEW018 TEMPO 0213/0217 VRB02KT 5000 TSRA FEW008 FEW017CB
WMKL,TAF COR WMKL 011703Z 0118/0218 VRB02KT 9999 FEW017CB TEMPO 0119/0124 5000 TSRA FEW010 FEW017CB
WMKM,TAF WMKM 011700Z 0118/0218 VRB02KT 8000 RA FEW010 SCT027 BECMG 0122/0124 31006KT 9999 FEW020 PROB30 TEMPO 0206/0210 5000 TSRA FEW017CB SCT020
WMKN,TAF WMKN 011700Z 0118/0218 21006KT 9999 FEW022
WMKP,TAF WMKP 011703Z 0118/0218 VRB02KT 8000 FEW025 TEMPO 0119/0200 5000 TSRA FEW010 FEW017CB BECMG 0204/0206 22007KT 9999 FEW017CB BECMG 0210/0212 00000KT 8000 FEW025
WMPA,TAF WMPA 010500Z 0106/0206 VRB02KT 9000 FEW021 PROB30 TEMPO 0108/0112 6000 TSRA FEW017CB
WMSA,TAF WMSA 011700Z 0118/0218 VRB02KT 8000 RA FEW008 SCT026 BECMG 0122/0200 31008KT 9999 FEW018 TEMPO 0210/0215 4000 TSRA FEW017CB SCT018
WPDL,TAF WPDL 011701Z 0118/0206 16005KT 9999 SCT025 BKN045 FM012100 VRB05KT 9999 -SHRA SCT014 SCT045 PROB30 TEMPO 0202/0206 VRB25G35KT 1000 TSRA BKN010 SCT040CB
WSAP,TAF AMD WSAP 011945Z 0119/0300 VRB05KT 9999 FEW015 BKN020 TEMPO 0119/0123 3000 TSRA FEW012CB BKN015
WSSL,TAF AMD WSSL 011945Z 0119/0300 VRB05KT 9999 FEW015 BKN020 TEMPO 0119/0123 3000 TSRA FEW012CB BKN015
WSSS,TAF AMD WSSS 011945Z 0119/0300 VRB05KT 9999 FEW015 BKN020 TEMPO 0119/0123 3000 TSRA FEW012CB BKN015
YAMB,TAF AMD YAMB 011712Z 0118/0218 18006KT 9999 -SHRA SCT012 BKN030 FM020300 14007KT 9999 -SHRA FEW015 BKN040 FM020600 10008KT 9999 NSW SCT040 FM021000 VRB03KT 9999 SCT030 INTER 0118/0205 3000 SHRA BKN010 PROB30 0215/0218 0500 FG
YBAS,TAF YBAS 011706Z 0118/0218 07005KT 9999 -RA SCT050 FM020000 03010KT CAVOK FM020400 33008KT CAVOK FM021000 VRB05KT 9999 -RA NSC
YBBN,TAF YBBN 012018Z 0121/0300 19007KT 9999 -SHRA FEW010 SCT030 FM020000 16010KT 9999 -SHRA FEW015 BKN030 FM020600 13010KT 9999 NSW SCT030 FM021000 19007KT 9999 FEW025 INTER 0121/0206 3000 SHRA BKN010
YBCG,TAF YBCG 012006Z 0121/0218 19010KT 9999 -SHRA SCT020 FM012300 18014KT 9999 -SHRA SCT030 FM020600 18012KT 9999 NSW SCT030 FM021100 20006KT 9999 FEW030 INTER 0121/0204 3000 SHRA SCT007 BKN010
YBCS,TAF YBCS 012007Z 0121/0218 16005KT 9999 SCT035 FM020000 04010KT 9999 FEW040 FM020800 12010KT 9999 FEW040 FM021000 17005KT 9999 SCT030
YBHM,TAF YBHM 011715Z 0118/0206 07007KT 9999 FEW028 FM011900 VRB04KT 9999 SCT028 FM020000 08011KT 9999 FEW040
YBLN,TAF YBLN 011707Z 0118/0218 15014KT 9999 SCT018 FM020100 13014KT 9999 SCT025 FM020500 13012KT 9999 BKN050 FM021400 13010KT CAVOK
YBMA,TAF YBMA 011709Z 0118/0206 18004KT CAVOK FM012300 09006KT CAVOK
YBRK,TAF YBRK 011701Z 0118/0218 12003KT 9999 SCT015 FM012200 07008KT 9999 FEW030 FM020200 03009KT 9999 FEW040 FM020600 05010KT 9999 -SHRA SCT030 FM021200 09005KT 9999 NSW SCT020
YBRM,TAF YBRM 011705Z 0118/0218 28011KT CAVOK
YBTL,TAF YBTL 011707Z 0118/0218 16006KT 9999 SCT030 FM020000 03014KT 9999 FEW040 FM020900 05007KT 9999 FEW040
YBWW,TAF AMD YBWW 012004Z 0120/0218 12006KT 9999 SCT015 FM012300 09010KT 9999 SCT030 FM020300 08010KT 9999 SCT030 INTER 0120/0203 3000 SHRA SCT010 BKN030 PROB30 INTER 0120/0123 VRB20G35KT 1000 TSRA BKN010 FEW035CB
YCFS,TAF AMD YCFS 011713Z 0117/0218 24008KT 9999 -SHRA SCT030 BKN050 FM012200 20014KT 9999 -SHRA FEW025 SCT040 FM020100 16014KT 9999 -SHRA SCT040 FM020800 19007KT 9999 -SHRA FEW030 FM021200 25006KT CAVOK INTER 0117/0212 4000 SHRA SCT015 BKN030
YCIN,TAF AMD YCIN 011912Z 0119/0208 VRB05KT 9999 SCT020 FM020000 27007KT 9999 SCT030
YFRT,TAF AMD YFRT 011943Z 0120/0208 18012KT 9999 -RA BKN003 BECMG 0200/0202 15012KT 9999 -RA SCT003 BKN008 FM020600 16014KT 9999 -RA SCT010 BKN015 TEMPO 0120/0206 3000 RA BKN002 TEMPO 0206/0208 5000 RA BKN008
YGEL,TAF YGEL 011707Z 0118/0212 12010KT CAVOK FM020500 18017KT CAVOK FM021000 17010KT CAVOK
YGLA,TAF YGLA 011701Z 0118/0206 21005KT 9999 SCT012 FM012300 10007KT 9999 SCT025 FM020200 05010KT 9999 SCT035
YHID,TAF YHID 011707Z 0118/0218 12013KT 9999 SCT016 FM020000 11016KT 9999 SCT025 FM021000 12013KT 9999 SCT016
YLHI,TAF YLHI 011700Z 0118/0218 19014KT 9999 SCT040
YMAV,TAF AMD YMAV 012120Z 0121/0218 26005KT 0500 FG BKN001 BECMG 0122/0123 27005KT CAVOK FM020200 17010KT CAVOK FM021600 09005KT 9999 SCT015
YMHB,TAF YMHB 011949Z 0121/0218 33008KT CAVOK FM020400 24010KT CAVOK FM021000 21007KT 9999 -SHRA BKN030 FM021200 19010KT 9999 -SHRA BKN020
YMLT,TAF AMD YMLT 011913Z 0119/0218 32005KT 9999 BKN020 FM012100 35007KT 9999 SCT025 FM020100 32012KT CAVOK FM021200 16007KT CAVOK
YMML,TAF YMML 012008Z 0121/0300 36005KT CAVOK FM020000 20008KT CAVOK FM021000 25004KT CAVOK FM021600 30003KT 9999 FEW008 FM022000 35003KT CAVOK
YPAD,TAF YPAD 012001Z 0121/0300 05006KT CAVOK FM020100 29007KT CAVOK FM020500 21010KT CAVOK FM020900 15007KT CAVOK FM021200 07010KT CAVOK
YPCC,TAF YPCC 011707Z 0118/0218 13014KT 9999 SCT025 BKN030
YPDN,TAF YPDN 012004Z 0121/0300 10005KT 9999 FEW020 FM020400 34008KT 9999 -SHRA SCT025 PROB30 TEMPO 0207/0214 VRB20G35KT 1000 TSRA BKN010 SCT025CB PROB40 TEMPO 0214/0221 VRB20G35KT 1000 TSRA BKN010 SCT025CB
YPEA,TAF AMD YPEA 011936Z 0119/0212 13008KT CAVOK BECMG 0200/0201 11015G28KT CAVOK BECMG 0202/0203 10014KT 9999 BKN050
YPGV,TAF YPGV 011804Z 0120/0208 11005KT 9999 SCT012 INTER 0200/0205 4000 SHRA BKN012
YPJT,TAF AMD YPJT 011709Z 0118/0212 12012KT 9999 FEW025 BECMG 0200/0202 12015G25KT 9999 SCT030 BECMG 0203/0204 12014KT 9999 BKN050
YPKG,TAF YPKG 011707Z 0118/0218 14012KT 9999 SCT010 BKN020 FM020200 14012KT 9999 BKN040 FM020600 12014KT 9999 -RA FEW015 BKN050 FM021200 13010KT CAVOK
YPKU,TAF YPKU 011804Z 0120/0208 VRB03KT 9999 -RA SCT020 PROB30 INTER 0120/0208 VRB20G35KT 1000 TSRA BKN010 SCT060CB
YPLM,TAF YPLM 011708Z 0118/0218 21013KT CAVOK FM012300 18010KT CAVOK FM020700 21014KT CAVOK FM021000 21018KT CAVOK
YPPD,TAF YPPD 011709Z 0118/0218 31014KT 9999 SCT020
YPPH,TAF YPPH 012004Z 0121/0300 19007KT CAVOK BECMG 0200/0201 11015G28KT CAVOK BECMG 0202/0203 10014KT 9999 BKN050 BECMG 0214/0215 10015G27KT CAVOK
YPTN,TAF YPTN 011707Z 0118/0218 09005KT 9999 -RA NSC PROB30 TEMPO 0200/0209 VRB20G35KT 1000 TSRA BKN010 SCT025CB
YPWR,TAF YPWR 011708Z 0118/0212 06010KT CAVOK
YPXM,TAF YPXM 011710Z 0118/0218 13010KT 9999 BKN017
YSCB,TAF YSCB 012002Z 0121/0218 11005KT 9999 FEW025 FM012300 29005KT 9999 SCT030 FM020300 19006KT CAVOK FM020900 10006KT 9999 SCT040
YSDU,TAF YSDU 011655Z 0118/0212 11010KT CAVOK FM020200 17010KT 9999 FEW040 FM020600 17006KT CAVOK
YSNF,TAF AMD YSNF 012123Z 0121/0218 25012KT 9999 -SHRA SCT015 BKN025 INTER 0121/0218 4000 SHRA BKN012
YSRI,TAF YSRI 011714Z 0118/0218 VRB03KT 9999 SCT020 BKN040 FM020100 16008KT 9999 -SHRA SCT045 FM020500 12010KT 9999 NSW SCT035 FM020900 VRB03KT 9999 SCT030 PROB30 0118/0121 0300 FG
YSSY,TAF YSSY 012050Z 0121/0300 21008KT 9999 -SHRA FEW015 SCT035 FM020000 17010KT 9999 -SHRA FEW015 SCT030 FM020300 13012KT 9999 NSW FEW030 FM021000 28005KT 9999 FEW025 SCT040 INTER 0121/0204 5000 SHRA SCT015 BKN030
YSTW,TAF YSTW 011701Z 0118/0212 14008KT 9999 FEW050 FM020100 18010KT CAVOK FM020900 14008KT CAVOK
YWLM,TAF AMD YWLM 011715Z 0118/0218 31005KT 9999 -SHRA SCT025 BKN035 FM012300 19010KT 9999 -SHRA FEW020 SCT035 FM020300 16012KT 9999 -SHRA SCT035 FM020800 VRB04KT 9999 NSW FEW030 INTER 0118/0206 4000 SHRA SCT015 BKN030
ZBAA,TAF ZBAA 011501Z 0118/0218 14004MPS 2500 -SHRA BR NSC TX23/0207Z TN18/0121Z BECMG 0201/0202 3500 BR
ZBAD,TAF ZBAD 011502Z 0118/0218 06004MPS 6000 NSC TX26/0207Z TN16/0121Z
ZBHH,TAF ZBHH 011503Z 0118/0218 06004MPS 9999 FEW040 TX24/0207Z TN10/0122Z BECMG 0211/0212 36010G15MPS TEMPO 0212/0216 2800 -SHRA FEW040CB FEW040
ZBSJ,TAF ZBSJ 011519Z 0118/0218 36004MPS 3500 -RA BR OVC040 TX24/0207Z TN18/0121Z
ZBTJ,TAF ZBTJ 011513Z 0118/0218 06003MPS 5000 -RA BR NSC TX24/0206Z TN17/0121Z BECMG 0118/0119 3000 BR
ZBYN,TAF ZBYN 011503Z 0118/0218 09004MPS 3000 BR NSC TX21/0207Z TN14/0121Z BECMG 0212/0213 -RA BR
ZGGG,TAF ZGGG 011506Z 0118/0218 12003MPS 8000 BKN040 TX34/0207Z TN26/0122Z TEMPO 0204/0208 TSRA SCT030CB BKN033
ZGHA,TAF ZGHA 011503Z 0118/0218 19004MPS 6000 NSC TX37/0207Z TN28/0122Z
ZGKL,TAF ZGKL 011504Z 0118/0218 18003MPS 7000 FEW030 SCT040 BKN060 TX36/0208Z TN23/0122Z
ZGNN,TAF ZGNN 011508Z 0118/0218 15003MPS 6000 SCT033 TX31/0207Z TN24/0122Z TEMPO 0120/0124 SHRA SCT013 FEW026CB BKN030 TEMPO 0205/0211 TSRA SCT013 FEW026CB BKN030
ZGOW,TAF ZGOW 011503Z 0118/0218 15003MPS 5000 BR FEW020 SCT050 TX35/0206Z TN24/0122Z
ZGSZ,TAF ZGSZ 011510Z 0118/0218 10004MPS 8000 SCT030 TX32/0206Z TN27/0122Z TEMPO 0118/0124 SHRA FEW015 FEW023CB BKN030
ZHCC,TAF ZHCC 011508Z 0118/0218 02004MPS 2500 BR OVC040 TX28/0207Z TN20/0122Z BECMG 0201/0202 3000 HZ TEMPO 0212/0218 2000 -RA BR
ZHHH,TAF ZHHH 011502Z 0118/0218 19004MPS 6000 NSC TX37/0207Z TN27/0122Z
ZJHK,TAF ZJHK 011504Z 0118/0218 11003MPS 5000 BR SCT020 TX30/0206Z TN24/0121Z TEMPO 0206/0212 SCT020 FEW026CB
ZJSY,TAF ZJSY 011500Z 0118/0218 09004MPS 9999 FEW020 SCT050 TX30/0206Z TN24/0121Z
ZLLL,TAF ZLLL 011505Z 0118/0218 04006G11MPS 6000 NSC TX16/0208Z TN09/0122Z TEMPO 0214/0218 -SHRA FEW033CB BKN040
ZLXY,TAF ZLXY 011504Z 0118/0218 06003MPS 3000 BR OVC040 TX25/0207Z TN19/0121Z BECMG 0208/0209 -RA
ZMCK,TAF ZMCK 011650Z 0118/0224 35005MPS 9999 FEW030CB BKN033 TNM02/0121Z TX00/0207Z BECMG 0119/0121 6000 SN FEW023 FEW027CB BKN030 TEMPO 0122/0204 3000 BECMG 0201/0203 35009MPS SN BLSN BECMG 0211/0213 34007MPS 9999 NSW SCT033 SCT100 BECMG 0215/0217 VRB02MPS
ZMUB,TAF ZMUB 011652Z 0118/0224 36005MPS 9999 FEW030CB BKN033 TNM04/0121Z TX00/0207Z BECMG 0119/0121 6000 SN FEW023 FEW027CB BKN030 TEMPO 0122/0204 3000 BECMG 0201/0203 36008MPS SN BLSN BECMG 0211/0213 35005MPS 9999 NSW SCT033 SCT100 BECMG 0215/0217 VRB02MPS
ZPPP,TAF ZPPP 011505Z 0118/0218 21004MPS 6000 SCT026 BKN040 TX21/0208Z TN14/0123Z
ZSAM,TAF ZSAM 011501Z 0118/0218 13003G08MPS 8000 SCT023 TX34/0206Z TN25/0121Z
ZSFZ,TAF ZSFZ 011510Z 0118/0218 04004MPS 5000 BR SCT015 TX32/0206Z TN26/0121Z
ZSHC,TAF ZSHC 011501Z 0118/0218 22003MPS 3000 BR NSC TX36/0206Z TN25/0121Z
ZSNB,TAF ZSNB 011504Z 0118/0218 15004MPS 6000 SCT040 TX33/0206Z TN24/0121Z
ZSNJ,TAF ZSNJ 011502Z 0118/0218 12003MPS 3000 HZ NSC TX36/0206Z TN26/0121Z TEMPO 0121/0123 1500 BR
ZSOF,TAF ZSOF 011503Z 0118/0218 18003MPS 5000 HZ NSC TX37/0206Z TN25/0122Z
ZSPD,TAF ZSPD 011505Z 0118/0218 17004MPS 6000 BKN020 TX31/0206Z TN25/0121Z
ZSQD,TAF ZSQD 011506Z 0118/0218 16009G15MPS 6000 RA SCT030 TX26/0206Z TN20/0120Z TEMPO 0118/0124 TSRA BKN010 SCT030CB BECMG 0200/0201 16004MPS -RA
ZSSS,TAF ZSSS 011505Z 0118/0218 17004MPS 6000 BKN020 TX33/0206Z TN26/0121Z
ZUCK,TAF ZUCK 011501Z 0118/0218 14004MPS 6000 FEW050 TX36/0208Z TN23/0122Z
ZUGY,TAF ZUGY 011503Z 0118/0218 19006MPS 6000 BKN033 TX28/0207Z TN18/0122Z
ZUUU,TAF ZUUU 011502Z 0118/0218 02003MPS 5000 BR SCT050 TX28/0207Z TN21/0123Z
ZWSH,TAF ZWSH 011504Z 0118/0218 32005MPS 9999 SCT040 TX22/0209Z TN13/0201Z BECMG 0122/0123 16004MPS
ZWWW,TAF ZWWW 011501Z 0118/0218 34004MPS CAVOK TX09/0209Z TNM01/0123Z BECMG 0213/0214 18004MPS
ZYCC,TAF AMD ZYCC 011754Z 0118/0218 18003MPS 6000 SCT030 TX23/0206Z TN11/0121Z TEMPO 0118/0122 0300 FG
ZYHB,TAF AMD ZYHB 012112Z 0118/0218 12004MPS 6000 SCT030 TX22/0206Z TN11/0121Z TEMPO 0118/0124 1400 BR BECMG 0123/0124 22005MPS
ZYTL,TAF ZYTL 011505Z 0118/0218 11006G13MPS 5000 BR SCT033 TX21/0206Z TN16/0121Z TEMPO 0118/0124 2000 TSRA BR SCT004 BKN010 SCT033CB BECMG 0209/0210 36004G10MPS
ZYTX,TAF ZYTX 011504Z 0118/0218 15004MPS 6000 BKN040 TX23/0206Z TN14/0121Z TEMPO 0120/0124 2000 BR
