No errors
No warnings
338 ms
data source=metars
4971 results
raw_text,station_id,observation_time,latitude,longitude,temp_c,dewpoint_c,wind_dir_degrees,wind_speed_kt,wind_gust_kt,visibility_statute_mi,altim_in_hg,sea_level_pressure_mb,corrected,auto,auto_station,maintenance_indicator_on,no_signal,lightning_sensor_off,freezing_rain_sensor_off,present_weather_sensor_off,wx_string,sky_cover,cloud_base_ft_agl,sky_cover,cloud_base_ft_agl,sky_cover,cloud_base_ft_agl,sky_cover,cloud_base_ft_agl,flight_category,three_hr_pressure_tendency_mb,maxT_c,minT_c,maxT24hr_c,minT24hr_c,precip_in,pcp3hr_in,pcp6hr_in,pcp24hr_in,snow_in,vert_vis_ft,metar_type,elevation_m
UTO8 M M M 279/-12/-13/1602/M/M SOG 06 1006 84MM,UTO8,2023-04-30T10:06:00Z,,,,,,,,,,,,,,,,,,,,,,,,,,,,,,,,,,,,,,,,SPECI,
SCJO 301006Z AUTO 35004KT 1100 BR SCT001/// SCT003/// BKN046/// 06/06 Q1015,SCJO,2023-04-30T10:06:00Z,-40.6,-73.05,6.0,6.0,350,4,,0.68,29.970472,,,TRUE,,,,,,,BR,SCT,100,SCT,300,BKN,4600,,,LIFR,,,,,,,,,,,,SPECI,61.0
KHRF 301005Z AUTO 19010KT 10SM CLR 10/M01 A2999 RMK AO2 Hamilton ,KHRF,2023-04-30T10:05:00Z,46.25,-114.13,10.0,-1.0,190,10,,10.0,29.991142,,,TRUE,TRUE,,,,,,,CLR,,,,,,,,VFR,,,,,,,,,,,,METAR,1112.0
CYZR 301005Z AUTO 11002KT 1/2SM FG FEW012 BKN110 OVC150 05/05 A2942 RMK SLP969,CYZR,2023-04-30T10:05:00Z,43.0,-82.3,5.0,5.0,110,2,,0.5,29.421259,996.9,,TRUE,,,,,,,FG,FEW,1200,BKN,11000,OVC,15000,,,LIFR,,,,,,,,,,,,SPECI,181.0
KVAY 301004Z AUTO 06003KT 1SM BR VV003 12/11 A2967 RMK AO2 T01170111 $,KVAY,2023-04-30T10:04:00Z,39.93,-74.83,11.7,11.1,60,3,,1.0,29.66929,,,TRUE,TRUE,TRUE,,,,,BR,OVX,0,,,,,,,LIFR,,,,,,,,,,,300,SPECI,15.0
KSSI 301004Z AUTO 22010G15KT 2SM VCTS +RA SCT020 BKN034 OVC110 22/19 A2949 RMK AO2 P0007 T02220194,KSSI,2023-04-30T10:04:00Z,31.15,-81.38,22.2,19.4,220,10,15,2.0,29.489174,,,TRUE,TRUE,,,,,,VCTS +RA,SCT,2000,BKN,3400,OVC,11000,,,IFR,,,,,,0.07,,,,,,SPECI,6.0
KRNM 301004Z AUTO 00000KT 1 3/4SM BR OVC002 11/10 A2994 RMK AO2 VIS 1V4 T01060100 $,KRNM,2023-04-30T10:04:00Z,33.03,-116.92,10.6,10.0,0,0,,1.75,29.940945,,,TRUE,TRUE,TRUE,,,,,BR,OVC,200,,,,,,,LIFR,,,,,,,,,,,,SPECI,423.0
KPHL 301004Z 06008KT 3/4SM R09R/P6000FT BR OVC002 11/11 A2966 RMK AO2 T01110111 $,KPHL,2023-04-30T10:04:00Z,39.87,-75.23,11.1,11.1,60,8,,0.75,29.660433,,,,TRUE,TRUE,,,,,BR,OVC,200,,,,,,,LIFR,,,,,,,,,,,,SPECI,2.0
KNKT 301004Z 14007KT 10SM SCT004 BKN046 BKN080 19/19 A2954 RMK AO2 PRESFR T01940194 $,KNKT,2023-04-30T10:04:00Z,34.9,-76.88,19.4,19.4,140,7,,10.0,29.53937,,,,TRUE,TRUE,,,,,,SCT,400,BKN,4600,BKN,8000,,,VFR,,,,,,,,,,,,SPECI,8.0
KEET 301004Z AUTO 31008KT 10SM BKN007 OVC011 15/14 A2959 RMK AO2 CIG 005V010 T01500144,KEET,2023-04-30T10:04:00Z,33.18,-86.78,15.0,14.4,310,8,,10.0,29.589567,,,TRUE,TRUE,,,,,,,BKN,700,OVC,1100,,,,,IFR,,,,,,,,,,,,SPECI,172.0
KCQX 301004Z AUTO 11014G24KT 9SM OVC009 11/09 A2981 RMK AO2 RAE0958 CIG 007V012 P0000 T01060094,KCQX,2023-04-30T10:04:00Z,41.68,-70.0,10.6,9.4,110,14,24,9.0,29.811024,,,TRUE,TRUE,,,,,,,OVC,900,,,,,,,IFR,,,,,,0.005,,,,,,SPECI,17.0
KBOK 301004Z AUTO 00000KT 2 1/2SM -RA BR FEW003 BKN008 OVC019 08/08 A3004 RMK AO2 P0000,KBOK,2023-04-30T10:04:00Z,42.07,-124.28,8.0,8.0,0,0,,2.5,30.041338,,,TRUE,TRUE,,,,,,-RA BR,FEW,300,BKN,800,OVC,1900,,,IFR,,,,,,0.005,,,,,,METAR,140.0
KAST 301004Z AUTO 10003KT 10SM SCT019 BKN026 OVC032 10/08 A2995 RMK AO2 T01000078,KAST,2023-04-30T10:04:00Z,46.15,-123.88,10.0,7.8,100,3,,10.0,29.949802,,,TRUE,TRUE,,,,,,,SCT,1900,BKN,2600,OVC,3200,,,MVFR,,,,,,,,,,,,SPECI,3.0
KAJO 301004Z AUTO 00000KT 3SM BR BKN007 12/12 A2995 RMK AO2,KAJO,2023-04-30T10:04:00Z,33.9,-117.6,12.0,12.0,0,0,,3.0,29.949802,,,TRUE,TRUE,,,,,,BR,BKN,700,,,,,,,IFR,,,,,,,,,,,,METAR,161.0
CYCA 301004Z AUTO 03003KT 010V090 1/2SM SN VV003 M04/M05 A3026 RMK SLP250,CYCA,2023-04-30T10:04:00Z,53.68,-57.03,-4.0,-5.0,30,3,,0.5,30.259842,1025.0,,TRUE,,,,,,,SN,OVX,0,,,,,,,LIFR,,,,,,,,,,,300,SPECI,12.0
CYAT 301004Z AUTO 03012G17KT 8SM -RA -UP FEW023 SCT028 OVC045 01/01 A2973 RMK SLP069,CYAT,2023-04-30T10:04:00Z,52.93,-82.43,1.0,1.0,30,12,17,8.0,29.731298,1006.9,,TRUE,,,,,,,-RA UP,FEW,2300,SCT,2800,OVC,4500,,,VFR,,,,,,,,,,,,SPECI,4.0
SVVL 301003Z AUTO ///01KT NCD ///// Q////,SVVL,2023-04-30T10:03:00Z,9.33,-70.58,,,,,,,,,,TRUE,,,,,,,,CLR,,,,,,,,,,,,,,,,,,,,METAR,575.0
SVVA 301003Z AUTO 15001KT NCD 26/25 Q1014,SVVA,2023-04-30T10:03:00Z,10.15,-67.92,26.0,25.0,150,1,,,29.940945,,,TRUE,,,,,,,,CLR,,,,,,,,,,,,,,,,,,,,METAR,428.0
SVSR 301003Z AUTO NIL,SVSR,2023-04-30T10:03:00Z,7.87,-67.43,,,,,,,,,,TRUE,,,,,,,,,,,,,,,,,,,,,,,,,,,,METAR,49.0
SVSA 301003Z AUTO NIL,SVSA,2023-04-30T10:03:00Z,7.83,-72.45,,,,,,,,,,TRUE,,,,,,,,,,,,,,,,,,,,,,,,,,,,METAR,383.0
SVPR 301003Z AUTO 10003KT NCD 23/21 Q1015,SVPR,2023-04-30T10:03:00Z,8.3,-62.77,23.0,21.0,100,3,,,29.970472,,,TRUE,,,,,,,,CLR,,,,,,,,,,,,,,,,,,,,METAR,140.0
SVPA 301003Z AUTO NIL,SVPA,2023-04-30T10:03:00Z,5.62,-67.6,,,,,,,,,,TRUE,,,,,,,,,,,,,,,,,,,,,,,,,,,,METAR,77.0
SVMT 301003Z AUTO 03003KT NCD 24/24 Q1014,SVMT,2023-04-30T10:03:00Z,9.75,-63.17,24.0,24.0,30,3,,,29.940945,,,TRUE,,,,,,,,CLR,,,,,,,,,,,,,,,,,,,,METAR,67.0
SVMI 301003Z AUTO 25004KT NCD 26/23 Q1013,SVMI,2023-04-30T10:03:00Z,10.6,-67.0,26.0,23.0,250,4,,,29.911417,,,TRUE,,,,,,,,CLR,,,,,,,,,,,,,,,,,,,,METAR,48.0
SVMG 301003Z AUTO 10010KT NCD 26/25 Q1013,SVMG,2023-04-30T10:03:00Z,10.92,-63.97,26.0,25.0,100,10,,,29.911417,,,TRUE,,,,,,,,CLR,,,,,,,,,,,,,,,,,,,,METAR,16.0
SVMC 301003Z AUTO 35004KT NCD 27/25 Q1010,SVMC,2023-04-30T10:03:00Z,10.57,-71.72,27.0,25.0,350,4,,,29.822834,,,TRUE,,,,,,,,CLR,,,,,,,,,,,,,,,,,,,,METAR,76.0
SVLO 301003Z AUTO NIL,SVLO,2023-04-30T10:03:00Z,11.8,-66.18,,,,,,,,,,TRUE,,,,,,,,,,,,,,,,,,,,,,,,,,,,METAR,3.0
SVJM 301003Z AUTO 10002KT NCD 23/23 Q1013,SVJM,2023-04-30T10:03:00Z,9.92,-67.38,23.0,23.0,100,2,,,29.911417,,,TRUE,,,,,,,,CLR,,,,,,,,,,,,,,,,,,,,METAR,448.0
SVGU 301003Z AUTO 29001KT NCD 24/22 Q1013,SVGU,2023-04-30T10:03:00Z,9.03,-69.75,24.0,22.0,290,1,,,29.911417,,,TRUE,,,,,,,,CLR,,,,,,,,,,,,,,,,,,,,METAR,165.0
SVGD 301003Z AUTO 24001KT NCD 24/24 Q1013,SVGD,2023-04-30T10:03:00Z,7.22,-70.75,24.0,24.0,240,1,,,29.911417,,,TRUE,,,,,,,,CLR,,,,,,,,,,,,,,,,,,,,METAR,129.0
SVFM 301003Z AUTO NIL,SVFM,2023-04-30T10:03:00Z,10.48,-66.83,,,,,,,,,,TRUE,,,,,,,,,,,,,,,,,,,,,,,,,,,,METAR,852.0
SVCS 301003Z AUTO 26001KT NCD 22/20 Q1017,SVCS,2023-04-30T10:03:00Z,10.3,-66.82,22.0,20.0,260,1,,,30.029528,,,TRUE,,,,,,,,CLR,,,,,,,,,,,,,,,,,,,,METAR,656.0
SVCB 301003Z AUTO 11004KT NCD 24/22 Q1013,SVCB,2023-04-30T10:03:00Z,8.12,-63.53,24.0,22.0,110,4,,,29.911417,,,TRUE,,,,,,,,CLR,,,,,,,,,,,,,,,,,,,,METAR,47.0
SVBS 301003Z AUTO 02001KT NCD 23/21 Q1015,SVBS,2023-04-30T10:03:00Z,10.25,-67.65,23.0,21.0,20,1,,,29.970472,,,TRUE,,,,,,,,CLR,,,,,,,,,,,,,,,,,,,,METAR,435.0
SVBM 301003Z AUTO 04001KT NCD 20/19 Q1015,SVBM,2023-04-30T10:03:00Z,10.05,-69.37,20.0,19.0,40,1,,,29.970472,,,TRUE,,,,,,,,CLR,,,,,,,,,,,,,,,,,,,,METAR,624.0
SVBI 301003Z AUTO /////KT NCD 25/24 Q1016,SVBI,2023-04-30T10:03:00Z,8.62,-70.22,25.0,24.0,,,,,30.0,,,TRUE,,,,,,,,CLR,,,,,,,,,,,,,,,,,,,,METAR,185.0
SVBC 301003Z AUTO 16004KT NCD 26/24 Q1013,SVBC,2023-04-30T10:03:00Z,10.12,-64.68,26.0,24.0,160,4,,,29.911417,,,TRUE,,,,,,,,CLR,,,,,,,,,,,,,,,,,,,,METAR,7.0
PAJC 301003Z AUTO 13016G22KT 5SM -RA BR FEW009 BKN012 OVC110 04/02 A2960 RMK AO2 PNO $,PAJC,2023-04-30T10:03:00Z,56.32,-158.37,4.0,2.0,130,16,22,5.0,29.601377,,,TRUE,TRUE,TRUE,,,,,-RA BR,FEW,900,BKN,1200,OVC,11000,,,MVFR,,,,,,,,,,,,METAR,10.0
PABR 301003Z AUTO 09015G19KT 2SM R08/6000VP6000FT -SN BR OVC007 M12/M13 A3011 RMK AO2 P0000 T11171133 TSNO $,PABR,2023-04-30T10:03:00Z,71.28,-156.78,-11.7,-13.3,90,15,19,2.0,30.109253,,,TRUE,TRUE,TRUE,,TRUE,,,-SN BR,OVC,700,,,,,,,IFR,,,,,,0.005,,,,,,SPECI,6.0
KVTA 301003Z AUTO 18004KT 10SM BKN027 OVC037 11/09 A2945 RMK AO2 T01110094,KVTA,2023-04-30T10:03:00Z,40.02,-82.47,11.1,9.4,180,4,,10.0,29.450787,,,TRUE,TRUE,,,,,,,BKN,2700,OVC,3700,,,,,MVFR,,,,,,,,,,,,METAR,268.0
KUZA 301003Z AUTO 00000KT 4SM -RA BR FEW004 BKN027 OVC034 16/16 A2948 RMK AO2 P0000 T01560156,KUZA,2023-04-30T10:03:00Z,34.98,-81.05,15.6,15.6,0,0,,4.0,29.480314,,,TRUE,TRUE,,,,,,-RA BR,FEW,400,BKN,2700,OVC,3400,,,MVFR,,,,,,0.005,,,,,,METAR,198.0
KSGH 301003Z AUTO 30020G27KT 5SM -RA BR BKN006 OVC043 06/06 A2949 RMK AO2 PK WND 31026/0959 WSHFT 0943 CIG 004V009 P0004,KSGH,2023-04-30T10:03:00Z,39.83,-83.83,6.0,6.0,300,20,27,5.0,29.489174,,,TRUE,TRUE,,,,,,-RA BR,BKN,600,OVC,4300,,,,,IFR,,,,,,0.04,,,,,,METAR,318.0
KPIE 301003Z 28018G46KT 6SM RA BR FEW018 SCT026 BKN036 22/20 A2966 RMK AO2 PK WND 27046/0955 WSHFT 0949 RAB00 P0001 T02170200 $,KPIE,2023-04-30T10:03:00Z,27.92,-82.68,21.7,20.0,280,18,46,6.0,29.660433,,,,TRUE,TRUE,,,,,RA BR,FEW,1800,SCT,2600,BKN,3600,,,VFR,,,,,,0.01,,,,,,SPECI,1.0
KNTU 301003Z 15007KT 6SM BR OVC003 17/17 A2954 RMK AO2 T2 SET T01720172 $,KNTU,2023-04-30T10:03:00Z,36.82,-76.02,17.2,17.2,150,7,,6.0,29.53937,,,,TRUE,TRUE,,,,,BR,OVC,300,,,,,,,LIFR,,,,,,,,,,,,SPECI,6.0
KNSE 301003Z AUTO 27007KT 10SM BKN011 OVC017 14/13 A2966 RMK AO2 CIG 008V012 T01440133,KNSE,2023-04-30T10:03:00Z,30.73,-87.02,14.4,13.3,270,7,,10.0,29.660433,,,TRUE,TRUE,,,,,,,BKN,1100,OVC,1700,,,,,MVFR,,,,,,,,,,,,METAR,56.0
KMGM 301003Z AUTO 28012G25KT 8SM RA SCT009 BKN019 OVC055 16/14 A2957 RMK AO2 P0005 T01560139,KMGM,2023-04-30T10:03:00Z,32.3,-86.4,15.6,13.9,280,12,25,8.0,29.568897,,,TRUE,TRUE,,,,,,RA,SCT,900,BKN,1900,OVC,5500,,,MVFR,,,,,,0.05,,,,,,SPECI,64.0
KJXN 301003Z AUTO 22007KT 8SM SCT012 BKN020 OVC060 07/06 A2943 RMK AO2 T00670056,KJXN,2023-04-30T10:03:00Z,42.27,-84.47,6.7,5.6,220,7,,8.0,29.430119,,,TRUE,TRUE,,,,,,,SCT,1200,BKN,2000,OVC,6000,,,MVFR,,,,,,,,,,,,SPECI,303.0
KEGI 301003Z AUTO 27007KT 10SM SCT006 BKN012 BKN210 15/14 A2964 RMK AO2 CIG 012V210 BKN012 V SCT SLP037 TSNO $,KEGI,2023-04-30T10:03:00Z,30.65,-86.52,15.0,14.0,270,7,,10.0,29.639763,1003.7,,TRUE,TRUE,TRUE,,TRUE,,,,SCT,600,BKN,1200,BKN,21000,,,MVFR,,,,,,,,,,,,SPECI,59.0
CYVP 301003Z 04004KT 360V070 8SM -RA BKN005 OVC016 00/00 A3021 RMK ST6SC2 SLP235,CYVP,2023-04-30T10:03:00Z,58.12,-68.42,0.0,0.0,40,4,,8.0,30.209646,1023.5,,,,,,,,,-RA,BKN,500,OVC,1600,,,,,IFR,,,,,,,,,,,,SPECI,28.0
CYTS 301003Z 11006KT 2 1/2SM -DZ BR OVC003 06/06 A2946 RMK ST8 SLP989,CYTS,2023-04-30T10:03:00Z,48.57,-81.37,6.0,6.0,110,6,,2.5,29.459646,998.9,,,,,,,,,-DZ BR,OVC,300,,,,,,,LIFR,,,,,,,,,,,,SPECI,290.0
CBBC 301003Z AUTO 30003KT 250V330 9SM BKN096 OVC180 10/08 A2983 RMK SLP103,CBBC,2023-04-30T10:03:00Z,52.18,-128.15,10.0,8.0,300,3,,9.0,29.828741,1010.3,,TRUE,,,,,,,,BKN,9600,OVC,18000,,,,,VFR,,,,,,,,,,,,SPECI,36.0
LTAR 301002Z 26010KT 9999 -SHRA FEW020CB BKN030 05/01 Q1012,LTAR,2023-04-30T10:02:00Z,39.8,36.9,5.0,1.0,260,10,,6.21,29.88189,,,,,,,,,,-SHRA,FEW,2000,BKN,3000,,,,,MVFR,,,,,,,,,,,,METAR,1601.0
KSMX 301002Z AUTO 29006KT 2 1/2SM BR OVC002 10/10 A2996 RMK AO2 T01000100,KSMX,2023-04-30T10:02:00Z,34.9,-120.45,10.0,10.0,290,6,,2.5,29.958662,,,TRUE,TRUE,,,,,,BR,OVC,200,,,,,,,LIFR,,,,,,,,,,,,SPECI,73.0
KOCF 301002Z AUTO 26013G22KT 10SM BKN013 OVC019 21/20 A2960 RMK AO2 LTG DSNT S RAE0959 P0000 $,KOCF,2023-04-30T10:02:00Z,29.17,-82.22,21.0,20.0,260,13,22,10.0,29.601377,,,TRUE,TRUE,TRUE,,,,,,BKN,1300,OVC,1900,,,,,MVFR,,,,,,0.005,,,,,,METAR,24.0
KLSV 301002Z AUTO 08003KT 2 3/4SM HZ CLR 18/M09 A2982 RMK AO2 SLP076 $,KLSV,2023-04-30T10:02:00Z,36.23,-115.05,18.0,-9.0,80,3,,2.75,29.819881,1007.6,,TRUE,TRUE,TRUE,,,,,HZ,CLR,,,,,,,,IFR,,,,,,,,,,,,SPECI,563.0
KHUF 301002Z 27007KT 10SM OVC009 07/06 A2957 RMK AO2 T00670056,KHUF,2023-04-30T10:02:00Z,39.45,-87.32,6.7,5.6,270,7,,10.0,29.568897,,,,TRUE,,,,,,,OVC,900,,,,,,,IFR,,,,,,,,,,,,SPECI,174.0
KFFC 301002Z AUTO 33014G22KT 3/4SM +RA BR SCT006 SCT011 OVC017 14/13 A2949 RMK AO2 LTG DSNT SW-N P0036 T01390133,KFFC,2023-04-30T10:02:00Z,33.35,-84.57,13.9,13.3,330,14,22,0.75,29.489174,,,TRUE,TRUE,,,,,,+RA BR,SCT,600,SCT,1100,OVC,1700,,,LIFR,,,,,,0.36,,,,,,METAR,242.0
KFAF 301002Z AUTO 13005KT 10SM BKN007 OVC012 19/18 A2950 RMK AO2 RAE02 SLP993 $,KFAF,2023-04-30T10:02:00Z,37.13,-76.62,19.0,18.0,130,5,,10.0,29.500984,999.3,,TRUE,TRUE,TRUE,,,,,,BKN,700,OVC,1200,,,,,IFR,,,,,,,,,,,,SPECI,3.0
KEVM 301002Z AUTO 35009G19KT 320V020 5SM -SN OVC013 01/M00 A2964 RMK AO2,KEVM,2023-04-30T10:02:00Z,47.42,-92.5,1.0,0.0,350,9,19,5.0,29.639763,,,TRUE,TRUE,,,,,,-SN,OVC,1300,,,,,,,MVFR,,,,,,,,,,,,METAR,419.0
KDOV 301002Z AUTO 12010G15KT 10SM -DZ OVC004 13/13 A2959 RMK AO2 DZB01 SLP024,KDOV,2023-04-30T10:02:00Z,39.12,-75.47,13.0,13.0,120,10,15,10.0,29.589567,1002.4,,TRUE,TRUE,,,,,,-DZ,OVC,400,,,,,,,LIFR,,,,,,,,,,,,SPECI,6.0
KARB 301002Z AUTO 23007KT 4SM -RA BR FEW008 BKN028 OVC032 06/05 A2944 RMK AO2 P0001 T00610050,KARB,2023-04-30T10:02:00Z,42.22,-83.73,6.1,5.0,230,7,,4.0,29.438976,,,TRUE,TRUE,,,,,,-RA BR,FEW,800,BKN,2800,OVC,3200,,,MVFR,,,,,,0.01,,,,,,METAR,251.0
CYPL 301002Z AUTO 01009G22KT 340V050 5SM -SN OVC014 M01/M01 A2980 RMK SLP113,CYPL,2023-04-30T10:02:00Z,51.43,-90.22,-1.0,-1.0,10,9,22,5.0,29.799213,1011.3,,TRUE,,,,,,,-SN,OVC,1400,,,,,,,MVFR,,,,,,,,,,,,SPECI,390.0
SCAT 301001Z AUTO 13005KT 1400 R17/P2000N BR OVC001/// 13/13 Q1017,SCAT,2023-04-30T10:01:00Z,-27.27,-70.77,13.0,13.0,130,5,,0.87,30.029528,,,TRUE,,,,,,,BR,OVC,100,,,,,,,LIFR,,,,,,,,,,,,SPECI,209.0
PHLI 301001Z AUTO 08014KT 10SM FEW019 BKN031 OVC050 24/20 A3013 RMK AO2 T02390200 TSNO $,PHLI,2023-04-30T10:01:00Z,21.97,-159.33,23.9,20.0,80,14,,10.0,30.129921,,,TRUE,TRUE,TRUE,,TRUE,,,,FEW,1900,BKN,3100,OVC,5000,,,VFR,,,,,,,,,,,,METAR,32.0
PAFS 301001Z AUTO 00000KT 10SM CLR M02/M06 A2976 RMK AO2 SLP084 T10221061 FZRANO,PAFS,2023-04-30T10:01:00Z,63.02,-154.35,-2.2,-6.1,0,0,,10.0,29.760826,1008.4,,TRUE,TRUE,,,,TRUE,,,CLR,,,,,,,,VFR,,,,,,,,,,,,METAR,131.0
KVAD 301001Z AUTO 25009KT 10SM SCT006 BKN010 BKN017 19/18 A2951 RMK AO2 CIG 006V010 BKN010 V OVC CIG 006 RWY36 SLP994 $,KVAD,2023-04-30T10:01:00Z,30.97,-83.2,19.0,18.0,250,9,,10.0,29.509842,999.4,,TRUE,TRUE,TRUE,,,,,,SCT,600,BKN,1000,BKN,1700,,,MVFR,,,,,,,,,,,,SPECI,70.0
KTDR 301001Z AUTO 30009G15KT 10SM BKN025 BKN032 19/15 A2958 RMK AO2 CIG 024V032 BKN025 V SCT SLP020 $,KTDR,2023-04-30T10:01:00Z,30.05,-85.52,19.0,15.0,300,9,15,10.0,29.58071,1002.0,,TRUE,TRUE,TRUE,,,,,,BKN,2500,BKN,3200,,,,,MVFR,,,,,,,,,,,,METAR,4.0
KRPX 301001Z AUTO 10SM 04/M06 A2999 RMK Roundup ,KRPX,2023-04-30T10:01:00Z,46.47,-108.55,4.0,-6.0,,,,10.0,29.991142,,,TRUE,,,,,,,,,,,,,,,,,,,,,,,,,,,,METAR,1062.0
KRDU 301001Z 17004KT 2SM +RA BR SCT007 BKN013 OVC020 18/16 A2950 RMK AO2 P0003 T01780161,KRDU,2023-04-30T10:01:00Z,35.9,-78.78,17.8,16.1,170,4,,2.0,29.500984,,,,TRUE,,,,,,+RA BR,SCT,700,BKN,1300,OVC,2000,,,IFR,,,,,,0.03,,,,,,METAR,121.0
KPVD 301001Z 04007KT 2SM -RA BR OVC004 10/10 A2979 RMK AO2 P0000 T01000100,KPVD,2023-04-30T10:01:00Z,41.72,-71.43,10.0,10.0,40,7,,2.0,29.790354,,,,TRUE,,,,,,-RA BR,OVC,400,,,,,,,LIFR,,,,,,0.005,,,,,,METAR,15.0
KOFP 301001Z AUTO VRB05KT 8SM VCTS -RA SCT002 BKN010 OVC100 17/17 A2952 RMK AO2 LTG DSNT E AND W AND NW P0000 T01720167,KOFP,2023-04-30T10:01:00Z,37.7,-77.43,17.2,16.7,0,5,,8.0,29.518702,,,TRUE,TRUE,,,,,,VCTS -RA,SCT,200,BKN,1000,OVC,10000,,,MVFR,,,,,,0.005,,,,,,METAR,63.0
KLNS 301001Z 08009KT 3SM BR OVC003 12/11 A2961 RMK AO2 T01170111,KLNS,2023-04-30T10:01:00Z,40.12,-76.3,11.7,11.1,80,9,,3.0,29.610237,,,,TRUE,,,,,,BR,OVC,300,,,,,,,LIFR,,,,,,,,,,,,METAR,122.0
KLAN 301001Z 26012KT 10SM SCT011 BKN021 OVC100 07/03 A2942 RMK AO2 T00670033 $,KLAN,2023-04-30T10:01:00Z,42.78,-84.58,6.7,3.3,260,12,,10.0,29.421259,,,,TRUE,TRUE,,,,,,SCT,1100,BKN,2100,OVC,10000,,,MVFR,,,,,,,,,,,,SPECI,261.0
KFLD 301001Z AUTO 27010G16KT 10SM BKN016 OVC030 03/01 A2937 RMK AO2 T00280006,KFLD,2023-04-30T10:01:00Z,43.77,-88.48,2.8,0.6,270,10,16,10.0,29.371063,,,TRUE,TRUE,,,,,,,BKN,1600,OVC,3000,,,,,MVFR,,,,,,,,,,,,METAR,242.0
KBKL 301001Z AUTO 15004KT 10SM SCT024 BKN065 OVC085 12/09 A2944 RMK AO2 T01170094,KBKL,2023-04-30T10:01:00Z,41.53,-81.67,11.7,9.4,150,4,,10.0,29.438976,,,TRUE,TRUE,,,,,,,SCT,2400,BKN,6500,OVC,8500,,,VFR,,,,,,,,,,,,METAR,177.0
CYEK 301001Z AUTO 18006KT 9SM SCT014 OVC033 M05/M06 A3023 RMK SLP241,CYEK,2023-04-30T10:01:00Z,61.1,-94.07,-5.0,-6.0,180,6,,9.0,30.230314,1024.1,,TRUE,,,,,,,,SCT,1400,OVC,3300,,,,,VFR,,,,,,,,,,,,SPECI,7.0
ZYTX 301000Z 32004MPS 280V340 CAVOK 16/M04 Q1008 NOSIG,ZYTX,2023-04-30T10:00:00Z,41.63,123.48,16.0,-4.0,320,8,,6.21,29.763779,,,,,,TRUE,,,,,CAVOK,,,,,,,,VFR,,,,,,,,,,,,METAR,56.0
ZYTL 301000Z 27004MPS CAVOK 16/M05 Q1010 NOSIG,ZYTL,2023-04-30T10:00:00Z,38.97,121.55,16.0,-5.0,270,8,,6.21,29.822834,,,,,,TRUE,,,,,CAVOK,,,,,,,,VFR,,,,,,,,,,,,METAR,33.0
ZYHB 301000Z 30004MPS 260V330 CAVOK 08/06 Q1005 NOSIG,ZYHB,2023-04-30T10:00:00Z,45.62,126.25,8.0,6.0,300,8,,6.21,29.675198,,,,,,TRUE,,,,,CAVOK,,,,,,,,VFR,,,,,,,,,,,,METAR,134.0
ZYCC 301000Z 36003MPS 330V040 9999 SCT030 11/03 Q1006 NOSIG,ZYCC,2023-04-30T10:00:00Z,43.98,125.68,11.0,3.0,360,6,,6.21,29.704725,,,,,,TRUE,,,,,SCT,3000,,,,,,,VFR,,,,,,,,,,,,METAR,211.0
ZWWW 301000Z 34005G11MPS 290V030 9999 FEW033TCU FEW040 27/M02 Q1004 NOSIG,ZWWW,2023-04-30T10:00:00Z,43.9,87.47,27.0,-2.0,340,10,21,6.21,29.64567,,,,,,TRUE,,,,,FEW,3300,FEW,4000,,,,,VFR,,,,,,,,,,,,METAR,654.0
ZWSH 301000Z 23004MPS 180V280 9999 FEW033 27/M05 Q1007 NOSIG,ZWSH,2023-04-30T10:00:00Z,39.55,76.02,27.0,-5.0,230,8,,6.21,29.734253,,,,,,TRUE,,,,,FEW,3300,,,,,,,VFR,,,,,,,,,,,,METAR,1374.0
ZUUU 301000Z 16004MPS 130V200 CAVOK 27/08 Q1011 NOSIG,ZUUU,2023-04-30T10:00:00Z,30.58,103.95,27.0,8.0,160,8,,6.21,29.852362,,,,,,TRUE,,,,,CAVOK,,,,,,,,VFR,,,,,,,,,,,,METAR,494.0
ZUTF 301000Z 15002MPS 100V190 CAVOK 27/04 Q1010 NOSIG,ZUTF,2023-04-30T10:00:00Z,30.3,104.43,27.0,4.0,150,4,,6.21,29.822834,,,,,,TRUE,,,,,CAVOK,,,,,,,,VFR,,,,,,,,,,,,METAR,443.0
ZUGY 301000Z 14003MPS 9999 FEW046 20/09 Q1015 NOSIG,ZUGY,2023-04-30T10:00:00Z,26.53,106.8,20.0,9.0,140,6,,6.21,29.970472,,,,,,TRUE,,,,,FEW,4600,,,,,,,VFR,,,,,,,,,,,,METAR,1130.0
ZUCK 301000Z VRB01MPS 9999 FEW040 27/09 Q1011 NOSIG,ZUCK,2023-04-30T10:00:00Z,29.72,106.63,27.0,9.0,0,2,,6.21,29.852362,,,,,,TRUE,,,,,FEW,4000,,,,,,,VFR,,,,,,,,,,,,METAR,416.0
ZSSS 301000Z 26002MPS 220V310 CAVOK 23/02 Q1013 NOSIG,ZSSS,2023-04-30T10:00:00Z,31.2,121.33,23.0,2.0,260,4,,6.21,29.911417,,,,,,TRUE,,,,,CAVOK,,,,,,,,VFR,,,,,,,,,,,,METAR,2.0
ZSQD 301000Z 33007MPS CAVOK 20/M01 Q1012 NOSIG,ZSQD,2023-04-30T10:00:00Z,36.27,120.38,20.0,-1.0,330,14,,6.21,29.88189,,,,,,TRUE,,,,,CAVOK,,,,,,,,VFR,,,,,,,,,,,,METAR,8.0
ZSPD 301000Z 19004MPS CAVOK 19/08 Q1014 NOSIG,ZSPD,2023-04-30T10:00:00Z,31.15,121.8,19.0,8.0,190,8,,6.21,29.940945,,,,,,TRUE,,,,,CAVOK,,,,,,,,VFR,,,,,,,,,,,,METAR,4.0
ZSOF 301000Z 26002MPS 220V360 CAVOK 26/06 Q1012 NOSIG,ZSOF,2023-04-30T10:00:00Z,31.98,116.97,26.0,6.0,260,4,,6.21,29.88189,,,,,,TRUE,,,,,CAVOK,,,,,,,,VFR,,,,,,,,,,,,METAR,23.0
ZSNJ 301000Z 23003MPS CAVOK 23/08 Q1012 NOSIG,ZSNJ,2023-04-30T10:00:00Z,31.75,118.87,23.0,8.0,230,6,,6.21,29.88189,,,,,,TRUE,,,,,CAVOK,,,,,,,,VFR,,,,,,,,,,,,METAR,27.0
ZSNB 301000Z 11004MPS CAVOK 20/09 Q1014 NOSIG,ZSNB,2023-04-30T10:00:00Z,29.83,121.47,20.0,9.0,110,8,,6.21,29.940945,,,,,,TRUE,,,,,CAVOK,,,,,,,,VFR,,,,,,,,,,,,METAR,5.0
ZSHC 301000Z 00000MPS CAVOK 24/06 Q1013 NOSIG,ZSHC,2023-04-30T10:00:00Z,30.22,120.43,24.0,6.0,0,0,,6.21,29.911417,,,,,,TRUE,,,,,CAVOK,,,,,,,,VFR,,,,,,,,,,,,METAR,8.0
ZSFZ 301000Z 02003MPS 9999 FEW043 17/08 Q1015 NOSIG,ZSFZ,2023-04-30T10:00:00Z,25.93,119.67,17.0,8.0,20,6,,6.21,29.970472,,,,,,TRUE,,,,,FEW,4300,,,,,,,VFR,,,,,,,,,,,,METAR,14.0
ZSAM 301000Z 12004MPS 080V140 9999 OVC030 21/16 Q1013 NOSIG,ZSAM,2023-04-30T10:00:00Z,24.53,118.13,21.0,16.0,120,8,,6.21,29.911417,,,,,,TRUE,,,,,OVC,3000,,,,,,,MVFR,,,,,,,,,,,,METAR,13.0
ZPPP 301000Z 22002MPS 200V260 9999 -SHRA FEW026TCU SCT026 17/11 Q1018 NOSIG,ZPPP,2023-04-30T10:00:00Z,25.0,102.65,17.0,11.0,220,4,,6.21,30.059055,,,,,,TRUE,,,,-SHRA,FEW,2600,SCT,2600,,,,,VFR,,,,,,,,,,,,METAR,1885.0
ZMUB 301000Z 21003MPS 180V260 9999 SCT100 21/M12 Q0999 NOSIG RMK QFE644.1 10 MOP,ZMUB,2023-04-30T10:00:00Z,47.83,106.75,21.0,-12.0,210,6,,6.21,29.498032,,,,,,TRUE,,,,,SCT,10000,,,,,,,VFR,,,,,,,,,,,,SPECI,1300.0
ZMCK 301000Z 27006MPS 9999 SCT100 20/M11 Q1000 NOSIG RMK QFE636.6 11 MOP,ZMCK,2023-04-30T10:00:00Z,47.65,106.82,20.0,-11.0,270,12,,6.21,29.52756,,,,,,TRUE,,,,,SCT,10000,,,,,,,VFR,,,,,,,,,,,,METAR,1366.0
ZLXY 301000Z 05006MPS CAVOK 25/07 Q1009 NOSIG,ZLXY,2023-04-30T10:00:00Z,34.43,108.75,25.0,7.0,50,12,,6.21,29.793306,,,,,,TRUE,,,,,CAVOK,,,,,,,,VFR,,,,,,,,,,,,METAR,478.0
ZLLL 301000Z 10003MPS 040V140 CAVOK 22/M11 Q1009 NOSIG,ZLLL,2023-04-30T10:00:00Z,36.52,103.62,22.0,-11.0,100,6,,6.21,29.793306,,,,,,TRUE,,,,,CAVOK,,,,,,,,VFR,,,,,,,,,,,,METAR,1939.0
ZJSY 301000Z 17003MPS 130V220 9999 FEW023 SCT033 28/22 Q1010 NOSIG,ZJSY,2023-04-30T10:00:00Z,18.3,109.42,28.0,22.0,170,6,,6.21,29.822834,,,,,,TRUE,,,,,FEW,2300,SCT,3300,,,,,VFR,,,,,,,,,,,,METAR,27.0
ZJHK 301000Z 03004MPS 360V060 9999 SCT023 26/21 Q1010 NOSIG,ZJHK,2023-04-30T10:00:00Z,19.93,110.43,26.0,21.0,30,8,,6.21,29.822834,,,,,,TRUE,,,,,SCT,2300,,,,,,,VFR,,,,,,,,,,,,METAR,21.0
ZHHH 301000Z 21002MPS CAVOK 24/10 Q1013 NOSIG,ZHHH,2023-04-30T10:00:00Z,30.78,114.22,24.0,10.0,210,4,,6.21,29.911417,,,,,,TRUE,,,,,CAVOK,,,,,,,,VFR,,,,,,,,,,,,METAR,33.0
ZHCC 301000Z 10007MPS CAVOK 25/07 Q1010 NOSIG,ZHCC,2023-04-30T10:00:00Z,34.52,113.83,25.0,7.0,100,14,,6.21,29.822834,,,,,,TRUE,,,,,CAVOK,,,,,,,,VFR,,,,,,,,,,,,METAR,149.0
ZGSZ 301000Z 24002MPS 200V260 9999 BKN050 27/19 Q1011 NOSIG,ZGSZ,2023-04-30T10:00:00Z,22.63,113.8,27.0,19.0,240,4,,6.21,29.852362,,,,,,TRUE,,,,,BKN,5000,,,,,,,VFR,,,,,,,,,,,,METAR,18.0
ZGOW 301000Z 10003MPS 5000 BR OVC030 23/19 Q1012 NOSIG,ZGOW,2023-04-30T10:00:00Z,23.55,116.5,23.0,19.0,100,6,,3.11,29.88189,,,,,,TRUE,,,,BR,OVC,3000,,,,,,,MVFR,,,,,,,,,,,,METAR,4.0
ZGNN 301000Z 34003MPS CAVOK 26/14 Q1011 NOSIG,ZGNN,2023-04-30T10:00:00Z,22.62,108.17,26.0,14.0,340,6,,6.21,29.852362,,,,,,TRUE,,,,,CAVOK,,,,,,,,VFR,,,,,,,,,,,,METAR,128.0
ZGKL 301000Z 21001MPS CAVOK 23/12 Q1013 NOSIG,ZGKL,2023-04-30T10:00:00Z,25.22,110.03,23.0,12.0,210,2,,6.21,29.911417,,,,,,TRUE,,,,,CAVOK,,,,,,,,VFR,,,,,,,,,,,,METAR,151.0
ZGHA 301000Z VRB01MPS CAVOK 26/03 Q1013 NOSIG,ZGHA,2023-04-30T10:00:00Z,28.18,113.22,26.0,3.0,0,2,,6.21,29.911417,,,,,,TRUE,,,,,CAVOK,,,,,,,,VFR,,,,,,,,,,,,METAR,61.0
ZGGG 301000Z 04003MPS 9999 SCT050 27/19 Q1011 NOSIG,ZGGG,2023-04-30T10:00:00Z,23.4,113.3,27.0,19.0,40,6,,6.21,29.852362,,,,,,TRUE,,,,,SCT,5000,,,,,,,VFR,,,,,,,,,,,,METAR,11.0
ZBYN 301000Z 24004MPS 200V270 CAVOK 22/M04 Q1010 NOSIG,ZBYN,2023-04-30T10:00:00Z,37.73,112.63,22.0,-4.0,240,8,,6.21,29.822834,,,,,,TRUE,,,,,CAVOK,,,,,,,,VFR,,,,,,,,,,,,METAR,778.0
ZBTJ 301000Z 15006MPS CAVOK 20/04 Q1008 NOSIG,ZBTJ,2023-04-30T10:00:00Z,39.12,117.35,20.0,4.0,150,12,,6.21,29.763779,,,,,,TRUE,,,,,CAVOK,,,,,,,,VFR,,,,,,,,,,,,METAR,4.0
ZBSJ 301000Z 17005MPS CAVOK 22/07 Q1008 NOSIG,ZBSJ,2023-04-30T10:00:00Z,38.28,114.7,22.0,7.0,170,10,,6.21,29.763779,,,,,,TRUE,,,,,CAVOK,,,,,,,,VFR,,,,,,,,,,,,METAR,70.0
ZBHH 301000Z 22004MPS 9999 FEW040 20/M04 Q1009 NOSIG,ZBHH,2023-04-30T10:00:00Z,40.85,111.82,20.0,-4.0,220,8,,6.21,29.793306,,,,,,TRUE,,,,,FEW,4000,,,,,,,VFR,,,,,,,,,,,,METAR,1081.0
ZBAD 301000Z 20006MPS CAVOK 22/04 Q1007 NOSIG,ZBAD,2023-04-30T10:00:00Z,39.5,116.42,22.0,4.0,200,12,,6.21,29.734253,,,,,,TRUE,,,,,CAVOK,,,,,,,,VFR,,,,,,,,,,,,METAR,25.0
ZBAA 301000Z 19006MPS 160V220 CAVOK 23/03 Q1007 NOSIG,ZBAA,2023-04-30T10:00:00Z,40.07,116.6,23.0,3.0,190,12,,6.21,29.734253,,,,,,TRUE,,,,,CAVOK,,,,,,,,VFR,,,,,,,,,,,,METAR,31.0
YWLM 301000Z AUTO 29011KT 9999 // NCD 16/10 Q1013 RF00.0/000.0,YWLM,2023-04-30T10:00:00Z,-32.8,151.83,16.0,10.0,290,11,,6.21,29.911417,,,TRUE,,,,,,,,CLR,,,,,,,,VFR,,,,,,,,,,,,METAR,7.0
YSTW 301000Z AUTO 02005KT 9999 // NCD 11/08 Q1015 RF00.0/000.0,YSTW,2023-04-30T10:00:00Z,-31.08,150.85,11.0,8.0,20,5,,6.21,29.970472,,,TRUE,,,,,,,,CLR,,,,,,,,VFR,,,,,,,,,,,,METAR,404.0
YSSY 301000Z 27009G20KT 250V310 9999 FEW040 16/10 Q1013 RF00.0/000.0,YSSY,2023-04-30T10:00:00Z,-33.95,151.17,16.0,10.0,270,9,20,6.21,29.911417,,,,,,,,,,,FEW,4000,,,,,,,VFR,,,,,,,,,,,,SPECI,3.0
YSRI 301000Z AUTO 23001KT 9999 // NCD 14/12 Q1013 RF00.0/000.0,YSRI,2023-04-30T10:00:00Z,-33.6,150.77,14.0,12.0,230,1,,6.21,29.911417,,,TRUE,,,,,,,,CLR,,,,,,,,VFR,,,,,,,,,,,,SPECI,19.0
YSNF 301000Z AUTO 26010KT 9999 // SCT023 SCT050 20/16 Q1016,YSNF,2023-04-30T10:00:00Z,-29.03,167.93,20.0,16.0,260,10,,6.21,30.0,,,TRUE,,,,,,,,SCT,2300,SCT,5000,,,,,VFR,,,,,,,,,,,,SPECI,113.0
YSDU 301000Z AUTO 19004KT 9999 // NCD 11/08 Q1016 RF00.0/000.0,YSDU,2023-04-30T10:00:00Z,-32.22,148.57,11.0,8.0,190,4,,6.21,30.0,,,TRUE,,,,,,,,CLR,,,,,,,,VFR,,,,,,,,,,,,SPECI,285.0
YSCB 301000Z AUTO 19006KT 9999 // OVC035 OVC048 10/08 Q1013,YSCB,2023-04-30T10:00:00Z,-35.3,149.18,10.0,8.0,190,6,,6.21,29.911417,,,TRUE,,,,,,,,OVC,3500,OVC,4800,,,,,VFR,,,,,,,,,,,,SPECI,577.0
YPWR 301000Z AUTO 21007KT 9999 // NCD 15/07 Q1019 RF00.0/000.0,YPWR,2023-04-30T10:00:00Z,-31.15,136.82,15.0,7.0,210,7,,6.21,30.088583,,,TRUE,,,,,,,,CLR,,,,,,,,VFR,,,,,,,,,,,,METAR,169.0
YPTN 301000Z AUTO 13005KT 9999 // NCD 25/18 Q1010 RF00.0/000.0,YPTN,2023-04-30T10:00:00Z,-14.52,132.38,25.0,18.0,130,5,,6.21,29.822834,,,TRUE,,,,,,,,CLR,,,,,,,,VFR,,,,,,,,,,,,SPECI,135.0
YPPH 301000Z 21009KT CAVOK 18/10 Q1017,YPPH,2023-04-30T10:00:00Z,-31.93,115.98,18.0,10.0,210,9,,6.21,30.029528,,,,,,,,,,,CAVOK,,,,,,,,VFR,,,,,,,,,,,,METAR,16.0
YPPD 301000Z AUTO 15006KT 9999 // NCD 28/01 Q1011 RF00.0/000.0,YPPD,2023-04-30T10:00:00Z,-20.37,118.62,28.0,1.0,150,6,,6.21,29.852362,,,TRUE,,,,,,,,CLR,,,,,,,,VFR,,,,,,,,,,,,SPECI,6.0
YPLM 301000Z AUTO 01004KT 9999 -SHRA OVC125 25/17 Q1013 RF00.0/000.0,YPLM,2023-04-30T10:00:00Z,-22.23,114.08,25.0,17.0,10,4,,6.21,29.911417,,,TRUE,,,,,,,-SHRA,OVC,12500,,,,,,,VFR,,,,,,,,,,,,SPECI,5.0
YPKU 301000Z AUTO 13004KT 9999 // ////// 27/19 Q1009 RF00.0/000.0,YPKU,2023-04-30T10:00:00Z,-15.77,128.7,27.0,19.0,130,4,,6.21,29.793306,,,TRUE,,,,,,,,,,,,,,,,,,,,,,,,,,,,METAR,42.0
YPKG 301000Z AUTO 12004KT 9999 // NCD 18/04 Q1017 RF00.0/000.0,YPKG,2023-04-30T10:00:00Z,-30.78,121.45,18.0,4.0,120,4,,6.21,30.029528,,,TRUE,,,,,,,,CLR,,,,,,,,VFR,,,,,,,,,,,,METAR,372.0
YPJT 301000Z AUTO 21009KT 9999 // NCD 18/09 Q1017 RF00.0/000.0,YPJT,2023-04-30T10:00:00Z,-32.1,115.88,18.0,9.0,210,9,,6.21,30.029528,,,TRUE,,,,,,,,CLR,,,,,,,,VFR,,,,,,,,,,,,METAR,29.0
YPGV 301000Z AUTO 13009KT 9999 // SCT040 27/22 Q1009 RF00.0/000.0,YPGV,2023-04-30T10:00:00Z,-12.27,136.82,27.0,22.0,130,9,,6.21,29.793306,,,TRUE,,,,,,,,SCT,4000,,,,,,,VFR,,,,,,,,,,,,METAR,53.0
YPEA 301000Z AUTO 21008KT 9999 // NCD 18/09 Q1017 RF00.0/000.0,YPEA,2023-04-30T10:00:00Z,-31.67,116.02,18.0,9.0,210,8,,6.21,30.029528,,,TRUE,,,,,,,,CLR,,,,,,,,VFR,,,,,,,,,,,,SPECI,38.0
YPDN 301000Z 34003KT 9999 FEW022 BKN410 29/24 Q1008 RF00.0/000.0,YPDN,2023-04-30T10:00:00Z,-12.42,130.9,29.0,24.0,340,3,,6.21,29.763779,,,,,,,,,,,FEW,2200,BKN,41000,,,,,VFR,,,,,,,,,,,,SPECI,32.0
YPCC 301000Z AUTO 36002KT 9999 // BKN015 BKN022 28/25 Q1007,YPCC,2023-04-30T10:00:00Z,-12.18,96.83,28.0,25.0,360,2,,6.21,29.734253,,,TRUE,,,,,,,,BKN,1500,BKN,2200,,,,,MVFR,,,,,,,,,,,,SPECI,3.0
YPAD 301000Z 08005KT 9999 FEW018 SCT025 BKN033 15/14 Q1017 RF00.0/001.0,YPAD,2023-04-30T10:00:00Z,-34.95,138.52,15.0,14.0,80,5,,6.21,30.029528,,,,,,,,,,,FEW,1800,SCT,2500,BKN,3300,,,VFR,,,,,,,,,,,,SPECI,2.0
YMML 301000Z AUTO 25004KT 9999 // NCD 11/06 Q1016 RF00.0/000.2,YMML,2023-04-30T10:00:00Z,-37.67,144.82,11.0,6.0,250,4,,6.21,30.0,,,TRUE,,,,,,,,CLR,,,,,,,,VFR,,,,,,,,,,,,SPECI,115.0
YMLT 301000Z AUTO 01005KT 9999 // NCD 09/06 Q1016 RF00.0/000.0,YMLT,2023-04-30T10:00:00Z,-41.53,147.2,9.0,6.0,10,5,,6.21,30.0,,,TRUE,,,,,,,,CLR,,,,,,,,VFR,,,,,,,,,,,,METAR,167.0
YMHB 301000Z 32006KT CAVOK 13/08 Q1015,YMHB,2023-04-30T10:00:00Z,-42.83,147.52,13.0,8.0,320,6,,6.21,29.970472,,,,,,,,,,,CAVOK,,,,,,,,VFR,,,,,,,,,,,,METAR,2.0
YMAV 301000Z AUTO 02003KT 9999 // NCD 09/06 Q1016 RF00.0/000.0,YMAV,2023-04-30T10:00:00Z,-38.03,144.48,9.0,6.0,20,3,,6.21,30.0,,,TRUE,,,,,,,,CLR,,,,,,,,VFR,,,,,,,,,,,,METAR,11.0
YLHI 301000Z AUTO 07012KT 9999 // NCD 21/16 Q1015 RF00.0/000.0,YLHI,2023-04-30T10:00:00Z,-31.53,159.07,21.0,16.0,70,12,,6.21,29.970472,,,TRUE,,,,,,,,CLR,,,,,,,,VFR,,,,,,,,,,,,METAR,2.0
YHID 301000Z AUTO 14009KT 9999 // NCD 28/24 Q1008 RF00.0/000.2,YHID,2023-04-30T10:00:00Z,-10.58,142.3,28.0,24.0,140,9,,6.21,29.763779,,,TRUE,,,,,,,,CLR,,,,,,,,VFR,,,,,,,,,,,,METAR,5.0
YGLA 301000Z AUTO 28003KT 0100 DU OVC065 22/16 Q1013 RF00.0/000.0,YGLA,2023-04-30T10:00:00Z,-23.87,151.22,22.0,16.0,280,3,,0.06,29.911417,,,TRUE,,,,,,,DU,OVC,6500,,,,,,,LIFR,,,,,,,,,,,,METAR,17.0
YGEL 301000Z AUTO 16008KT 9999 // NCD 20/11 Q1015 RF00.0/000.0,YGEL,2023-04-30T10:00:00Z,-28.8,114.7,20.0,11.0,160,8,,6.21,29.970472,,,TRUE,,,,,,,,CLR,,,,,,,,VFR,,,,,,,,,,,,METAR,32.0
YFRT 301000Z AUTO 09007KT 9999 // NCD 17/08 Q1018 RF00.0/000.0,YFRT,2023-04-30T10:00:00Z,-30.83,128.12,17.0,8.0,90,7,,6.21,30.059055,,,TRUE,,,,,,,,CLR,,,,,,,,VFR,,,,,,,,,,,,METAR,159.0
YCIN 301000Z AUTO 19005KT 9999 // NCD 26/15 Q1008 RF00.0/000.0,YCIN,2023-04-30T10:00:00Z,-17.58,123.83,26.0,15.0,190,5,,6.21,29.763779,,,TRUE,,,,,,,,CLR,,,,,,,,VFR,,,,,,,,,,,,METAR,83.0
YCFS 301000Z AUTO 05004KT 9999 // NCD 16/14 Q1013 RF00.0/000.0,YCFS,2023-04-30T10:00:00Z,-30.32,153.12,16.0,14.0,50,4,,6.21,29.911417,,,TRUE,,,,,,,,CLR,,,,,,,,VFR,,,,,,,,,,,,METAR,2.0
YBWW 301000Z AUTO 18005KT 9999 // NCD 12/09 Q1015 RF00.0/000.0,YBWW,2023-04-30T10:00:00Z,-27.55,151.8,12.0,9.0,180,5,,6.21,29.970472,,,TRUE,,,,,,,,CLR,,,,,,,,VFR,,,,,,,,,,,,METAR,460.0
YBTL 301000Z AUTO 07005KT 9999 // NCD 24/20 Q1012 RF00.0/000.0,YBTL,2023-04-30T10:00:00Z,-19.25,146.75,24.0,20.0,70,5,,6.21,29.88189,,,TRUE,,,,,,,,CLR,,,,,,,,VFR,,,,,,,,,,,,SPECI,4.0
YBSU 301000Z AUTO 26006KT 9999 // OVC055 20/13 Q1013 RF00.0/000.0,YBSU,2023-04-30T10:00:00Z,-26.6,153.08,20.0,13.0,260,6,,6.21,29.911417,,,TRUE,,,,,,,,OVC,5500,,,,,,,VFR,,,,,,,,,,,,METAR,4.0
YBRM 301000Z AUTO 25005KT 9999 // NCD 27/19 Q1009 RF00.0/000.0,YBRM,2023-04-30T10:00:00Z,-17.93,122.23,27.0,19.0,250,5,,6.21,29.793306,,,TRUE,,,,,,,,CLR,,,,,,,,VFR,,,,,,,,,,,,SPECI,11.0
YBRK 301000Z AUTO 21007KT 9999 // OVC076 23/13 Q1013 RF00.0/000.0,YBRK,2023-04-30T10:00:00Z,-23.37,150.47,23.0,13.0,210,7,,6.21,29.911417,,,TRUE,,,,,,,,OVC,7600,,,,,,,VFR,,,,,,,,,,,,SPECI,10.0
YBMA 301000Z AUTO 16006KT 9999 // NCD 16/03 Q1015 RF00.0/000.0,YBMA,2023-04-30T10:00:00Z,-20.67,139.48,16.0,3.0,160,6,,6.21,29.970472,,,TRUE,,,,,,,,CLR,,,,,,,,VFR,,,,,,,,,,,,SPECI,346.0
YBLN 301000Z AUTO 23006KT 9999 // NCD 16/09 Q1018 RF00.0/000.0,YBLN,2023-04-30T10:00:00Z,-33.68,115.4,16.0,9.0,230,6,,6.21,30.059055,,,TRUE,,,,,,,,CLR,,,,,,,,VFR,,,,,,,,,,,,METAR,17.0
YBHM 301000Z AUTO 12008KT 9999 // SCT026 BKN100 24/20 Q1013,YBHM,2023-04-30T10:00:00Z,-20.35,148.95,24.0,20.0,120,8,,6.21,29.911417,,,TRUE,,,,,,,,SCT,2600,BKN,10000,,,,,VFR,,,,,,,,,,,,METAR,4.0
YBCS 301000Z AUTO 17004KT 9999 // SCT037 SCT049 25/22 Q1011,YBCS,2023-04-30T10:00:00Z,-16.87,145.75,25.0,22.0,170,4,,6.21,29.852362,,,TRUE,,,,,,,,SCT,3700,SCT,4900,,,,,VFR,,,,,,,,,,,,SPECI,2.0
YBCG 301000Z AUTO 19005KT 9999 // SCT078 18/16 Q1012 RF00.0/000.0,YBCG,2023-04-30T10:00:00Z,-28.17,153.5,18.0,16.0,190,5,,6.21,29.88189,,,TRUE,,,,,,,,SCT,7800,,,,,,,VFR,,,,,,,,,,,,SPECI,5.0
YBBN 301000Z 26006KT CAVOK 18/11 Q1013,YBBN,2023-04-30T10:00:00Z,-27.38,153.13,18.0,11.0,260,6,,6.21,29.911417,,,,,,,,,,,CAVOK,,,,,,,,VFR,,,,,,,,,,,,METAR,3.0
YBAS 301000Z AUTO 14006KT 9999 // NCD 14/04 Q1017 RF00.0/000.0,YBAS,2023-04-30T10:00:00Z,-23.8,133.9,14.0,4.0,140,6,,6.21,30.029528,,,TRUE,,,,,,,,CLR,,,,,,,,VFR,,,,,,,,,,,,SPECI,549.0
YAMB 301000Z AUTO 29002KT 9999 // NCD 15/10 Q1013 RF00.0/000.0,YAMB,2023-04-30T10:00:00Z,-27.63,152.72,15.0,10.0,290,2,,6.21,29.911417,,,TRUE,,,,,,,,CLR,,,,,,,,VFR,,,,,,,,,,,,METAR,26.0
WSSS 301000Z 33005KT 300V020 9999 TS FEW017CB FEW018TCU SCT050 29/24 Q1005 BECMG FM1015 TL1030 NSW,WSSS,2023-04-30T10:00:00Z,1.37,103.97,29.0,24.0,330,5,,6.21,29.675198,,,,,,,,,,TS,FEW,1700,FEW,1800,SCT,5000,,,VFR,,,,,,,,,,,,METAR,17.0
WSSL 301000Z 20003KT 8000 VCTS FEW014 FEW016CB FEW017TCU SCT050 26/26 Q1005 RESHRA,WSSL,2023-04-30T10:00:00Z,1.42,103.87,26.0,26.0,200,3,,4.97,29.675198,,,,,,,,,,VCTS,FEW,1400,FEW,1600,FEW,1700,SCT,5000,MVFR,,,,,,,,,,,,METAR,11.0
WSAP 301000Z 29002KT 9000 -TSRA FEW014 FEW016CB SCT017TCU 28/25 Q1006,WSAP,2023-04-30T10:00:00Z,1.37,103.92,28.0,25.0,290,2,,5.59,29.704725,,,,,,,,,,-TSRA,FEW,1400,FEW,1600,SCT,1700,,,VFR,,,,,,,,,,,,METAR,20.0
WIII 301000Z 35005KT 5000 FEW021 30/26 Q1005 NOSIG,WIII,2023-04-30T10:00:00Z,-6.13,106.67,30.0,26.0,350,5,,3.11,29.675198,,,,,,TRUE,,,,,FEW,2100,,,,,,,MVFR,,,,,,,,,,,,METAR,9.0
WAMM 301000Z VRB01KT 9999 SCT020 28/25 Q1007 NOSIG,WAMM,2023-04-30T10:00:00Z,1.55,124.92,28.0,25.0,0,1,,6.21,29.734253,,,,,,TRUE,,,,,SCT,2000,,,,,,,VFR,,,,,,,,,,,,METAR,86.0
WAJJ 301000Z 00000KT 9999 FEW012 28/22 Q1006 NOSIG,WAJJ,2023-04-30T10:00:00Z,-2.58,140.52,28.0,22.0,0,0,,6.21,29.704725,,,,,,TRUE,,,,,FEW,1200,,,,,,,VFR,,,,,,,,,,,,METAR,93.0
WADL 301000Z 15006KT 7000 TS FEW015CB SCT016 28/24 Q1007 TEMPO TL1030 TS RMK CB TO W,WADL,2023-04-30T10:00:00Z,-8.75,116.28,28.0,24.0,150,6,,4.35,29.734253,,,,,,,,,,TS,FEW,1500,SCT,1600,,,,,MVFR,,,,,,,,,,,,SPECI,97.0
VYNT 301000Z 18006KT 7000 SCT020 FEW025TCU 39/20 Q1002 NOSIG,VYNT,2023-04-30T10:00:00Z,19.62,96.2,39.0,20.0,180,6,,4.35,29.586615,,,,,,TRUE,,,,,SCT,2000,FEW,2500,,,,,MVFR,,,,,,,,,,,,METAR,610.0
VVVD 301000Z 33003KT 280V020 CAVOK 26/18 Q1011 NOSIG,VVVD,2023-04-30T10:00:00Z,21.12,107.42,26.0,18.0,330,3,,6.21,29.852362,,,,,,TRUE,,,,,CAVOK,,,,,,,,VFR,,,,,,,,,,,,METAR,8.0
VVTS 301000Z VRB02KT 9999 BKN017 31/25 Q1006 NOSIG,VVTS,2023-04-30T10:00:00Z,10.82,106.67,31.0,25.0,0,2,,6.21,29.704725,,,,,,TRUE,,,,,BKN,1700,,,,,,,MVFR,,,,,,,,,,,,METAR,10.0
VVPB 301000Z 20004KT 4500 -RA BR FEW006 SCT013 BKN040 24/24 Q1012 TEMPO 4000 RA BR,VVPB,2023-04-30T10:00:00Z,16.38,107.7,24.0,24.0,200,4,,2.8,29.88189,,,,,,,,,,-RA BR,FEW,600,SCT,1300,BKN,4000,,,IFR,,,,,,,,,,,,METAR,15.0
VVNB 301000Z 12005KT 090V170 9999 OVC048 25/16 Q1011 NOSIG,VVNB,2023-04-30T10:00:00Z,21.22,105.8,25.0,16.0,120,5,,6.21,29.852362,,,,,,TRUE,,,,,OVC,4800,,,,,,,VFR,,,,,,,,,,,,METAR,6.0
VVDN 301000Z 33004KT 9999 SCT013 BKN050 26/23 Q1010 NOSIG,VVDN,2023-04-30T10:00:00Z,16.03,108.2,26.0,23.0,330,4,,6.21,29.822834,,,,,,TRUE,,,,,SCT,1300,BKN,5000,,,,,VFR,,,,,,,,,,,,METAR,7.0
VVCT 301000Z 22007KT 7000 FEW015TCU BKN050 27/25 Q1006 NOSIG,VVCT,2023-04-30T10:00:00Z,10.08,105.72,27.0,25.0,220,7,,4.35,29.704725,,,,,,TRUE,,,,,FEW,1500,BKN,5000,,,,,MVFR,,,,,,,,,,,,METAR,6.0
VVCR 301000Z 06014KT 9999 FEW015 29/25 Q1009 NOSIG,VVCR,2023-04-30T10:00:00Z,12.0,109.22,29.0,25.0,60,14,,6.21,29.793306,,,,,,TRUE,,,,,FEW,1500,,,,,,,VFR,,,,,,,,,,,,METAR,12.0
VVCI 301000Z 32003KT 280V010 CAVOK 26/17 Q1010 NOSIG,VVCI,2023-04-30T10:00:00Z,20.82,106.73,26.0,17.0,320,3,,6.21,29.822834,,,,,,TRUE,,,,,CAVOK,,,,,,,,VFR,,,,,,,,,,,,METAR,6.0
VTUW 301000Z 12005KT 080V170 9999 FEW035 32/21 Q1008 NOSIG,VTUW,2023-04-30T10:00:00Z,17.38,104.63,32.0,21.0,120,5,,6.21,29.763779,,,,,,TRUE,,,,,FEW,3500,,,,,,,VFR,,,,,,,,,,,,METAR,167.0
VTUV 301000Z VRB05KT 9999 FEW030 31/22 Q1007 NOSIG,VTUV,2023-04-30T10:00:00Z,16.12,103.78,31.0,22.0,0,5,,6.21,29.734253,,,,,,TRUE,,,,,FEW,3000,,,,,,,VFR,,,,,,,,,,,,METAR,136.0
VTUU 301000Z VRB05KT 9000 NSC 29/24 Q1007 NOSIG,VTUU,2023-04-30T10:00:00Z,15.25,104.87,29.0,24.0,0,5,,5.59,29.734253,,,,,,TRUE,,,,,CLR,,,,,,,,VFR,,,,,,,,,,,,METAR,119.0
VTUQ 301000Z 00000KT 9000 SCT030 28/24 Q1008 NOSIG,VTUQ,2023-04-30T10:00:00Z,14.95,102.32,28.0,24.0,0,0,,5.59,29.763779,,,,,,TRUE,,,,,SCT,3000,,,,,,,VFR,,,,,,,,,,,,METAR,225.0
VTUO 301000Z 07006KT 9000 FEW030 SCT100 28/25 Q1008 NOSIG,VTUO,2023-04-30T10:00:00Z,15.23,103.25,28.0,25.0,70,6,,5.59,29.763779,,,,,,TRUE,,,,,FEW,3000,SCT,10000,,,,,VFR,,,,,,,,,,,,METAR,182.0
VTUL 301000Z 31006KT 280V350 9999 BKN030 30/23 Q1008 NOSIG,VTUL,2023-04-30T10:00:00Z,17.43,101.72,30.0,23.0,310,6,,6.21,29.763779,,,,,,TRUE,,,,,BKN,3000,,,,,,,MVFR,,,,,,,,,,,,METAR,257.0
VTUK 301000Z 09003KT 030V170 9999 SCT030 SCT100 31/21 Q1008 NOSIG,VTUK,2023-04-30T10:00:00Z,16.47,102.78,31.0,21.0,90,3,,6.21,29.763779,,,,,,TRUE,,,,,SCT,3000,SCT,10000,,,,,VFR,,,,,,,,,,,,METAR,190.0
VTUI 301000Z 11004KT 070V140 9999 BKN030 32/19 Q1007 NOSIG,VTUI,2023-04-30T10:00:00Z,17.2,104.12,32.0,19.0,110,4,,6.21,29.734253,,,,,,TRUE,,,,,BKN,3000,,,,,,,MVFR,,,,,,,,,,,,METAR,162.0
VTSY 301000Z 05003KT 010V080 9999 SCT030 27/24 Q1007 NOSIG,VTSY,2023-04-30T10:00:00Z,5.78,101.15,27.0,24.0,50,3,,6.21,29.734253,,,,,,TRUE,,,,,SCT,3000,,,,,,,VFR,,,,,,,,,,,,METAR,225.0
VTST 301000Z 26003KT 220V290 9999 SCT030 29/25 Q1004 NOSIG,VTST,2023-04-30T10:00:00Z,7.52,99.62,29.0,25.0,260,3,,6.21,29.64567,,,,,,TRUE,,,,,SCT,3000,,,,,,,VFR,,,,,,,,,,,,METAR,17.0
VTSS 301000Z 08013KT 050V120 9999 SCT020 33/24 Q1005 NOSIG,VTSS,2023-04-30T10:00:00Z,6.92,100.38,33.0,24.0,80,13,,6.21,29.675198,,,,,,TRUE,,,,,SCT,2000,,,,,,,VFR,,,,,,,,,,,,METAR,28.0
VTSR 301000Z VRB02KT 9999 SCT020 BKN100 26/24 Q1005 RETS NOSIG,VTSR,2023-04-30T10:00:00Z,9.78,98.58,26.0,24.0,0,2,,6.21,29.675198,,,,,,TRUE,,,,,SCT,2000,BKN,10000,,,,,VFR,,,,,,,,,,,,METAR,23.0
VTSP 301000Z 28008KT 9999 FEW020CB 33/25 Q1004 NOSIG,VTSP,2023-04-30T10:00:00Z,8.12,98.32,33.0,25.0,280,8,,6.21,29.64567,,,,,,TRUE,,,,,FEW,2000,,,,,,,VFR,,,,,,,,,,,,METAR,12.0
VTSM 301000Z 09006KT 9999 FEW020 32/25 Q1006 NOSIG,VTSM,2023-04-30T10:00:00Z,9.55,100.07,32.0,25.0,90,6,,6.21,29.704725,,,,,,TRUE,,,,,FEW,2000,,,,,,,VFR,,,,,,,,,,,,METAR,12.0
VTSG 301000Z 33005KT 310V030 8000 -RA FEW018 BKN067 24/24 Q1005 RETS NOSIG,VTSG,2023-04-30T10:00:00Z,8.1,98.98,24.0,24.0,330,5,,4.97,29.675198,,,,,,TRUE,,,,-RA,FEW,1800,BKN,6700,,,,,MVFR,,,,,,,,,,,,METAR,32.0
VTSF 301000Z 07008KT 030V100 9999 FEW018 34/26 Q1005 NOSIG,VTSF,2023-04-30T10:00:00Z,8.53,99.95,34.0,26.0,70,8,,6.21,29.675198,,,,,,TRUE,,,,,FEW,1800,,,,,,,VFR,,,,,,,,,,,,METAR,6.0
VTSE 301000Z 10006KT 9999 FEW020 SCT100 31/26 Q1005 NOSIG,VTSE,2023-04-30T10:00:00Z,10.72,99.37,31.0,26.0,100,6,,6.21,29.675198,,,,,,TRUE,,,,,FEW,2000,SCT,10000,,,,,VFR,,,,,,,,,,,,METAR,8.0
VTSB 301000Z 15003KT 120V180 9999 TS VCSH FEW018CB 30/24 Q1005 TEMPO TL1100 4000 TSRA,VTSB,2023-04-30T10:00:00Z,9.12,99.15,30.0,24.0,150,3,,6.21,29.675198,,,,,,,,,,TS VCSH,FEW,1800,,,,,,,VFR,,,,,,,,,,,,METAR,10.0
VTPT 301000Z /////KT 9999 VCTS FEW020CB SCT026 34/24 Q1006 TEMPO 3000 TSRA,VTPT,2023-04-30T10:00:00Z,16.88,99.25,34.0,24.0,,,,6.21,29.704725,,,,,,,,,,VCTS,FEW,2000,SCT,2600,,,,,VFR,,,,,,,,,,,,METAR,148.0
VTPP 301000Z VRB02KT 9999 VCTS VCSH FEW020CB SCT030 26/22 Q1006 RETS TEMPO 27015G25KT 2000 +TSRA,VTPP,2023-04-30T10:00:00Z,16.78,100.28,26.0,22.0,0,2,,6.21,29.704725,,,,,,,,,,VCTS VCSH,FEW,2000,SCT,3000,,,,,VFR,,,,,,,,,,,,METAR,45.0
VTPO 301000Z 11008KT 9999 VCTS FEW025CB SCT035 29/21 Q1006 TEMPO 4000 TSRA,VTPO,2023-04-30T10:00:00Z,17.23,99.82,29.0,21.0,110,8,,6.21,29.704725,,,,,,,,,,VCTS,FEW,2500,SCT,3500,,,,,VFR,,,,,,,,,,,,METAR,58.0
VTPM 301000Z 35007KT 330V040 9999 VCSH FEW025CB BKN060 27/23 Q1007 RETS NOSIG,VTPM,2023-04-30T10:00:00Z,16.7,98.53,27.0,23.0,350,7,,6.21,29.734253,,,,,,TRUE,,,,VCSH,FEW,2500,BKN,6000,,,,,VFR,,,,,,,,,,,,METAR,211.0
VTPH 301000Z 25005KT 200V300 9999 FEW015 BKN030 29/24 Q1006 NOSIG,VTPH,2023-04-30T10:00:00Z,12.63,99.95,29.0,24.0,250,5,,6.21,29.704725,,,,,,TRUE,,,,,FEW,1500,BKN,3000,,,,,MVFR,,,,,,,,,,,,METAR,12.0
VTPB 301000Z 32005KT 9999 FEW030 31/23 Q1006 RETS NOSIG,VTPB,2023-04-30T10:00:00Z,16.67,101.2,31.0,23.0,320,5,,6.21,29.704725,,,,,,TRUE,,,,,FEW,3000,,,,,,,VFR,,,,,,,,,,,,METAR,134.0
VTCT 301000Z 17007KT 130V200 9999 FEW040 32/21 Q1007 NOSIG,VTCT,2023-04-30T10:00:00Z,19.95,99.88,32.0,21.0,170,7,,6.21,29.734253,,,,,,TRUE,,,,,FEW,4000,,,,,,,VFR,,,,,,,,,,,,METAR,389.0
VTCN 301000Z 22006KT 200V260 CAVOK 30/23 Q1007 NOSIG,VTCN,2023-04-30T10:00:00Z,18.82,100.78,30.0,23.0,220,6,,6.21,29.734253,,,,,,TRUE,,,,,CAVOK,,,,,,,,VFR,,,,,,,,,,,,METAR,211.0
VTCL 301000Z 14008KT 100V200 9999 SCT025 32/21 Q1007 NOSIG,VTCL,2023-04-30T10:00:00Z,18.27,99.52,32.0,21.0,140,8,,6.21,29.734253,,,,,,TRUE,,,,,SCT,2500,,,,,,,VFR,,,,,,,,,,,,METAR,240.0
VTCH 301000Z 21006KT 120V280 9999 FEW020CB SCT025 40/17 Q1002 NOSIG,VTCH,2023-04-30T10:00:00Z,19.3,97.98,40.0,17.0,210,6,,6.21,29.586615,,,,,,TRUE,,,,,FEW,2000,SCT,2500,,,,,VFR,,,,,,,,,,,,METAR,266.0
VTCC 301000Z 18005KT 150V210 8000 BKN035 33/21 Q1006 NOSIG,VTCC,2023-04-30T10:00:00Z,18.77,98.97,33.0,21.0,180,5,,4.97,29.704725,,,,,,TRUE,,,,,BKN,3500,,,,,,,MVFR,,,,,,,,,,,,METAR,308.0
VTBU 301000Z 03004KT 8000 FEW020 SCT100 26/25 Q1006 NOSIG,VTBU,2023-04-30T10:00:00Z,12.68,101.0,26.0,25.0,30,4,,4.97,29.704725,,,,,,TRUE,,,,,FEW,2000,SCT,10000,,,,,MVFR,,,,,,,,,,,,METAR,12.0
VTBS 301000Z 12006KT 080V170 9999 FEW020 30/21 Q1006 NOSIG,VTBS,2023-04-30T10:00:00Z,13.68,100.75,30.0,21.0,120,6,,6.21,29.704725,,,,,,TRUE,,,,,FEW,2000,,,,,,,VFR,,,,,,,,,,,,METAR,1.0
VTBO 301000Z 06002KT 7000 FEW018CB BKN100 30/25 Q1006,VTBO,2023-04-30T10:00:00Z,12.28,102.32,30.0,25.0,60,2,,4.35,29.704725,,,,,,,,,,,FEW,1800,BKN,10000,,,,,MVFR,,,,,,,,,,,,METAR,25.0
VTBD 301000Z 12005KT 090V150 9999 FEW020 30/23 Q1006 NOSIG,VTBD,2023-04-30T10:00:00Z,13.92,100.6,30.0,23.0,120,5,,6.21,29.704725,,,,,,TRUE,,,,,FEW,2000,,,,,,,VFR,,,,,,,,,,,,METAR,6.0
"VRMM 301000Z VRB02KT 9999 -SHRA SCT017 FEW018CB BKN260 30/26 Q1005 CB NE,OVERHEAD NOSIG",VRMM,2023-04-30T10:00:00Z,4.2,73.52,30.0,26.0,0,2,,6.21,29.675198,,,,,,TRUE,,,,-SHRA,SCT,1700,FEW,1800,BKN,26000,,,VFR,,,,,,,,,,,,SPECI,2.0
VRMH 301000Z 07007KT 9999 FEW018TCU BKN260 32/27 Q1005,VRMH,2023-04-30T10:00:00Z,6.75,73.17,32.0,27.0,70,7,,6.21,29.675198,,,,,,,,,,,FEW,1800,BKN,26000,,,,,VFR,,,,,,,,,,,,METAR,1.0
VRMG 301000Z 21005KT 9999 FEW017TCU BKN110 30/25 Q1006 TEMPO FEW018CB,VRMG,2023-04-30T10:00:00Z,-0.7,73.15,30.0,25.0,210,5,,6.21,29.704725,,,,,,,,,,,FEW,1700,BKN,11000,,,,,VFR,,,,,,,,,,,,METAR,2.0
VOMM 301000Z 14013KT 6000 SCT020 34/25 Q1005 NOSIG,VOMM,2023-04-30T10:00:00Z,13.0,80.17,34.0,25.0,140,13,,3.73,29.675198,,,,,,TRUE,,,,,SCT,2000,,,,,,,MVFR,,,,,,,,,,,,METAR,7.0
VOJV 301000Z 05010KT 5000 FU SCT015 FEW025CB SCT080 29/22 Q1007,VOJV,2023-04-30T10:00:00Z,15.17,76.63,29.0,22.0,50,10,,3.11,29.734253,,,,,,,,,,FU,SCT,1500,FEW,2500,SCT,8000,,,MVFR,,,,,,,,,,,,METAR,508.0
VOHB 301000Z 25010KT 9999 SCT012 34/19 Q1007,VOHB,2023-04-30T10:00:00Z,15.37,75.08,34.0,19.0,250,10,,6.21,29.734253,,,,,,,,,,,SCT,1200,,,,,,,VFR,,,,,,,,,,,,METAR,661.0
VOGA 301000Z 27013KT 8000 FEW020 31/20 Q1006 NOSIG,VOGA,2023-04-30T10:00:00Z,,,31.0,20.0,270,13,,4.97,29.704725,,,,,,TRUE,,,,,FEW,2000,,,,,,,MVFR,,,,,,,,,,,,METAR,
VOCP 301000Z 10020KT 6000 FEW020 SCT025 FEW030CB 35/19 Q1003 NOSIG,VOCP,2023-04-30T10:00:00Z,14.5,78.77,35.0,19.0,100,20,,3.73,29.616142,,,,,,TRUE,,,,,FEW,2000,SCT,2500,FEW,3000,,,MVFR,,,,,,,,,,,,METAR,134.0
VOCL 301000Z 28006KT 6000 FEW015 FEW025CB 33/21 Q1004 NOSIG,VOCL,2023-04-30T10:00:00Z,11.13,75.95,33.0,21.0,280,6,,3.73,29.64567,,,,,,TRUE,,,,,FEW,1500,FEW,2500,,,,,MVFR,,,,,,,,,,,,METAR,104.0
VOCI 301000Z 25007KT 6000 SCT015 34/26 Q1004 NOSIG,VOCI,2023-04-30T10:00:00Z,10.15,76.4,34.0,26.0,250,7,,3.73,29.64567,,,,,,TRUE,,,,,SCT,1500,,,,,,,MVFR,,,,,,,,,,,,METAR,8.0
VOBL 301000Z 14006KT 6000 SCT012 SCT018 31/16 Q1010 NOSIG,VOBL,2023-04-30T10:00:00Z,13.2,77.7,31.0,16.0,140,6,,3.73,29.822834,,,,,,TRUE,,,,,SCT,1200,SCT,1800,,,,,MVFR,,,,,,,,,,,,METAR,908.0
VNKT 301000Z VRB02KT 3000 BR FEW010 FEW025CB SCT030 BKN100 17/15 Q1015 NOSIG CB TO E SE S AND SW,VNKT,2023-04-30T10:00:00Z,27.68,85.37,17.0,15.0,0,2,,1.86,29.970472,,,,,,TRUE,,,,BR,FEW,1000,FEW,2500,SCT,3000,BKN,10000,IFR,,,,,,,,,,,,METAR,1334.0
VMMC 301000Z 11007KT 9999 FEW030 25/20 Q1011 NOSIG,VMMC,2023-04-30T10:00:00Z,22.15,113.58,25.0,20.0,110,7,,6.21,29.852362,,,,,,TRUE,,,,,FEW,3000,,,,,,,VFR,,,,,,,,,,,,METAR,1.0
VLVT 301000Z 34004KT 8000 SCT016 BKN050 32/23 Q1007 NOSIG,VLVT,2023-04-30T10:00:00Z,17.98,102.57,32.0,23.0,340,4,,4.97,29.734253,,,,,,TRUE,,,,,SCT,1600,BKN,5000,,,,,MVFR,,,,,,,,,,,,METAR,171.0
VLLN 301000Z 32004KT 8000 FEW020 OVC100 24/22 Q1011 NOSIG,VLLN,2023-04-30T10:00:00Z,20.97,101.4,24.0,22.0,320,4,,4.97,29.852362,,,,,,TRUE,,,,,FEW,2000,OVC,10000,,,,,MVFR,,,,,,,,,,,,METAR,548.0
VLLB 301000Z 00000KT 9999 SCT020 SCT060 29/21 Q1009 NOSIG,VLLB,2023-04-30T10:00:00Z,19.9,102.17,29.0,21.0,0,0,,6.21,29.793306,,,,,,TRUE,,,,,SCT,2000,SCT,6000,,,,,VFR,,,,,,,,,,,,METAR,297.0
VIPT 301000Z 09008KT 5000 HZ FEW020 FEW030CB SCT100 30/16 Q1006,VIPT,2023-04-30T10:00:00Z,29.03,79.47,30.0,16.0,90,8,,3.11,29.704725,,,,,,,,,,HZ,FEW,2000,FEW,3000,SCT,10000,,,MVFR,,,,,,,,,,,,METAR,236.0
VIDN 301000Z 18006KT 2500 HZ SCT030 BKN060 27/13 Q1007,VIDN,2023-04-30T10:00:00Z,30.2,78.18,27.0,13.0,180,6,,1.55,29.734253,,,,,,,,,,HZ,SCT,3000,BKN,6000,,,,,IFR,,,,,,,,,,,,METAR,550.0
VHHH 301000Z 25004KT 220V280 9999 FEW030 SCT040 26/18 Q1011 BECMG 10010KT,VHHH,2023-04-30T10:00:00Z,22.32,113.92,26.0,18.0,250,4,,6.21,29.852362,,,,,,,,,,,FEW,3000,SCT,4000,,,,,VFR,,1.0,,,,,,,,,,METAR,9.0
VGHS 301000Z 00000KT 4000 HZ FEW100 36/20 Q1005 NOSIG,VGHS,2023-04-30T10:00:00Z,23.85,90.4,36.0,20.0,0,0,,2.49,29.675198,,,,,,TRUE,,,,HZ,FEW,10000,,,,,,,IFR,,,,,,,,,,,,METAR,11.0
VERU 301000Z 02002KT 5000 HZ SCT020 BKN100 28/20 Q1005 NOSIG,VERU,2023-04-30T10:00:00Z,26.13,89.92,28.0,20.0,20,2,,3.11,29.675198,,,,,,TRUE,,,,HZ,SCT,2000,BKN,10000,,,,,MVFR,,,,,,,,,,,,METAR,45.0
VERP 301000Z 33005KT 5000 BR FEW020 BKN090 24/19 Q1009 NOSIG,VERP,2023-04-30T10:00:00Z,21.18,81.73,24.0,19.0,330,5,,3.11,29.793306,,,,,,TRUE,,,,BR,FEW,2000,BKN,9000,,,,,MVFR,,,,,,,,,,,,METAR,318.0
VERK 301000Z 30012KT 6000 HZ FEW020 32/15 Q1007,VERK,2023-04-30T10:00:00Z,22.22,84.87,32.0,15.0,300,12,,3.73,29.734253,,,,,,,,,,HZ,FEW,2000,,,,,,,MVFR,,,,,,,,,,,,METAR,196.0
VERC 301000Z 31008KT 5000 HZ SCT020 BKN100 27/16 Q1011 NOSIG,VERC,2023-04-30T10:00:00Z,23.32,85.32,27.0,16.0,310,8,,3.11,29.852362,,,,,,TRUE,,,,HZ,SCT,2000,BKN,10000,,,,,MVFR,,,,,,,,,,,,METAR,646.0
VEPT 301000Z 23008KT 2500 BR SCT018 FEW030CB BKN090 26/22 Q1007 TEMPO 1500 -TSRA,VEPT,2023-04-30T10:00:00Z,25.6,85.08,26.0,22.0,230,8,,1.55,29.734253,,,,,,,,,,BR,SCT,1800,FEW,3000,BKN,9000,,,IFR,,,,,,,,,,,,METAR,53.0
VEMN 301000Z 09008KT 4000 HZ SCT020 FEW025CB BKN100 26/19 Q1007 NOSIG,VEMN,2023-04-30T10:00:00Z,27.47,95.02,26.0,19.0,90,8,,2.49,29.734253,,,,,,TRUE,,,,HZ,SCT,2000,FEW,2500,BKN,10000,,,IFR,,,,,,,,,,,,METAR,111.0
VEJS 301000Z 30006KT 3000 TSRA SCT018 FEW030CB BKN100 24/22 Q1007,VEJS,2023-04-30T10:00:00Z,22.82,86.17,24.0,22.0,300,6,,1.86,29.734253,,,,,,,,,,TSRA,SCT,1800,FEW,3000,BKN,10000,,,IFR,,,,,,,,,,,,METAR,151.0
VEJR 301000Z 05008KT 6000 SCT025 BKN030 29/20 Q1009,VEJR,2023-04-30T10:00:00Z,19.07,82.03,29.0,20.0,50,8,,3.73,29.793306,,,,,,,,,,,SCT,2500,BKN,3000,,,,,MVFR,,,,,,,,,,,,METAR,555.0
VEJH 301000Z 30010KT 5000 HZ BKN018 BKN080 33/17 Q1008,VEJH,2023-04-30T10:00:00Z,21.92,84.03,33.0,17.0,300,10,,3.11,29.763779,,,,,,,,,,HZ,BKN,1800,BKN,8000,,,,,MVFR,,,,,,,,,,,,METAR,231.0
VEIM 301000Z 29008KT 8000 FEW018 32/18 Q1009 NOSIG,VEIM,2023-04-30T10:00:00Z,24.77,93.9,32.0,18.0,290,8,,4.97,29.793306,,,,,,TRUE,,,,,FEW,1800,,,,,,,MVFR,,,,,,,,,,,,METAR,777.0
VEGY 301000Z 28008KT 4500 HZ SCT018 BKN090 29/18 Q1007 BECMG 5000 HZ,VEGY,2023-04-30T10:00:00Z,24.75,84.95,29.0,18.0,280,8,,2.8,29.734253,,,,,,,,,,HZ,SCT,1800,BKN,9000,,,,,IFR,,,,,,,,,,,,METAR,115.0
VEGT 301000Z 04003KT 5000 HZ SCT018 SCT100 33/28 Q1005 NOSIG,VEGT,2023-04-30T10:00:00Z,26.1,91.58,33.0,28.0,40,3,,3.11,29.675198,,,,,,TRUE,,,,HZ,SCT,1800,SCT,10000,,,,,MVFR,,,,,,,,,,,,METAR,50.0
VEDG 301000Z 30002KT 5000 HZ SCT018 FEW030CB SCT100 35/18 Q1004 NOSIG,VEDG,2023-04-30T10:00:00Z,23.62,87.25,35.0,18.0,300,2,,3.11,29.64567,,,,,,TRUE,,,,HZ,SCT,1800,FEW,3000,SCT,10000,,,MVFR,,,,,,,,,,,,METAR,88.0
VECO 301000Z 06003KT 5000 HZ SCT020 29/23 Q1005 NOSIG,VECO,2023-04-30T10:00:00Z,26.33,89.47,29.0,23.0,60,3,,3.11,29.675198,,,,,,TRUE,,,,HZ,SCT,2000,,,,,,,MVFR,,,,,,,,,,,,METAR,48.0
VECC 301000Z 02015G25KT 2500 -TSRA SCT015 FEW025CB BKN090 25/21 Q1004 TEMPO TL1100 19015G30KT 1500 TSRA,VECC,2023-04-30T10:00:00Z,22.65,88.43,25.0,21.0,20,15,25,1.55,29.64567,,,,,,,,,,-TSRA,SCT,1500,FEW,2500,BKN,9000,,,IFR,,,,,,,,,,,,METAR,11.0
VEBS 301000Z 16008KT 5000 HZ SCT020 FEW030CB SCT100 36/24 Q1005 NOSIG,VEBS,2023-04-30T10:00:00Z,20.25,85.82,36.0,24.0,160,8,,3.11,29.675198,,,,,,TRUE,,,,HZ,SCT,2000,FEW,3000,SCT,10000,,,MVFR,,,,,,,,,,,,METAR,42.0
VEBN 301000Z 32006KT 4000 HZ SCT020 FEW030CB BKN100 25/19 Q1008 NOSIG,VEBN,2023-04-30T10:00:00Z,25.45,82.85,25.0,19.0,320,6,,2.49,29.763779,,,,,,TRUE,,,,HZ,SCT,2000,FEW,3000,BKN,10000,,,IFR,,,,,,,,,,,,METAR,81.0
VEAT 301000Z 32005KT 6000 NSC 35/20 Q1005 NOSIG,VEAT,2023-04-30T10:00:00Z,23.88,91.25,35.0,20.0,320,5,,3.73,29.675198,,,,,,TRUE,,,,,CLR,,,,,,,,MVFR,,,,,,,,,,,,METAR,20.0
VDSV 301000Z 02007KT 350V050 9999 TS SCT015 FEW017CB SCT040 28/21 Q1006 RMK CB:NW,VDSV,2023-04-30T10:00:00Z,10.58,103.63,28.0,21.0,20,7,,6.21,29.704725,,,,,,,,,,TS,SCT,1500,FEW,1700,SCT,4000,,,VFR,,,,,,,,,,,,METAR,1.0
VDSR 301000Z 20007KT 9999 SCT015 FEW017CB 30/25 Q1006 RMK CB:N,VDSR,2023-04-30T10:00:00Z,13.42,103.8,30.0,25.0,200,7,,6.21,29.704725,,,,,,,,,,,SCT,1500,FEW,1700,,,,,VFR,,,,,,,,,,,,METAR,16.0
VDPP 301000Z 05005KT 020V120 9999 SCT015 FEW017CB 34/23 Q1005 RMK CB:W,VDPP,2023-04-30T10:00:00Z,11.55,104.83,34.0,23.0,50,5,,6.21,29.675198,,,,,,,,,,,SCT,1500,FEW,1700,,,,,VFR,,,,,,,,,,,,METAR,10.0
VASD 301000Z 26018KT 6000 SCT025 33/11 Q1006 NOSIG,VASD,2023-04-30T10:00:00Z,19.68,74.38,33.0,11.0,260,18,,3.73,29.704725,,,,,,TRUE,,,,,SCT,2500,,,,,,,MVFR,,,,,,,,,,,,METAR,587.0
VANP 301000Z 09005KT 4000 HZ SCT020 BKN090 25/22 Q1009 NOSIG,VANP,2023-04-30T10:00:00Z,21.08,79.05,25.0,22.0,90,5,,2.49,29.793306,,,,,,TRUE,,,,HZ,SCT,2000,BKN,9000,,,,,IFR,,,,,,,,,,,,METAR,309.0
VAKP 301000Z 25011KT 9000 FEW020 FEW025 33/14 Q1008,VAKP,2023-04-30T10:00:00Z,16.65,74.28,33.0,14.0,250,11,,5.59,29.763779,,,,,,,,,,,FEW,2000,FEW,2500,,,,,VFR,,,,,,,,,,,,METAR,612.0
VAJJ 301000Z 27010KT 5000 FU FEW020 SCT025 31/23 Q1005 NOSIG,VAJJ,2023-04-30T10:00:00Z,19.08,72.83,31.0,23.0,270,10,,3.11,29.675198,,,,,,TRUE,,,,FU,FEW,2000,SCT,2500,,,,,MVFR,,,,,,,,,,,,METAR,1.0
VAJB 301000Z 18010G20KT 6000 FEW012 SCT020 SCT100 26/18 Q1008 NOSIG,VAJB,2023-04-30T10:00:00Z,23.18,80.05,26.0,18.0,180,10,20,3.73,29.763779,,,,,,TRUE,,,,,FEW,1200,SCT,2000,SCT,10000,,,MVFR,,,,,,,,,,,,METAR,489.0
VAID 301000Z 30003KT 5000 HZ FEW020 SCT025 26/19 Q1008 NOSIG,VAID,2023-04-30T10:00:00Z,22.72,75.8,26.0,19.0,300,3,,3.11,29.763779,,,,,,TRUE,,,,HZ,FEW,2000,SCT,2500,,,,,MVFR,,,,,,,,,,,,METAR,564.0
VABO 301000Z 26005KT 6000 SCT020 35/18 Q1004 NOSIG,VABO,2023-04-30T10:00:00Z,22.33,73.22,35.0,18.0,260,5,,3.73,29.64567,,,,,,TRUE,,,,,SCT,2000,,,,,,,MVFR,,,,,,,,,,,,METAR,36.0
VABB 301000Z 26011KT 5000 FU FEW020 SCT025 31/22 Q1005 NOSIG,VABB,2023-04-30T10:00:00Z,19.1,72.87,31.0,22.0,260,11,,3.11,29.675198,,,,,,TRUE,,,,FU,FEW,2000,SCT,2500,,,,,MVFR,,,,,,,,,,,,METAR,14.0
VAAH 301000Z 34003KT 6000 SCT025 33/15 Q1003 NOSIG,VAAH,2023-04-30T10:00:00Z,23.07,72.63,33.0,15.0,340,3,,3.73,29.616142,,,,,,TRUE,,,,,SCT,2500,,,,,,,MVFR,,,,,,,,,,,,METAR,52.0
UWWW 301000Z 14004MPS 090V190 CAVOK 26/06 Q1014 R15/CLRD60 NOSIG RMK QFE749/0999,UWWW,2023-04-30T10:00:00Z,53.5,50.17,26.0,6.0,140,8,,6.21,29.940945,,,,,,TRUE,,,,,CAVOK,,,,,,,,VFR,,,,,,,,,,,,SPECI,124.0
UWUU 301000Z 21007MPS 160V240 CAVOK 26/07 Q1016 R14R/0///60 NOSIG,UWUU,2023-04-30T10:00:00Z,54.57,55.87,26.0,7.0,210,14,,6.21,30.0,,,,,,TRUE,,,,,CAVOK,,,,,,,,VFR,,,,,,,,,,,,SPECI,137.0
UWSG 301000Z 13006MPS 100V160 CAVOK 29/11 Q1006 R08/CLRD70 NOSIG RMK QFE752/1003,UWSG,2023-04-30T10:00:00Z,51.72,46.17,29.0,11.0,130,12,,6.21,29.704725,,,,,,TRUE,,,,,CAVOK,,,,,,,,VFR,,,,,,,,,,,,METAR,31.0
UWPS 301000Z 04008MPS 9999 BKN018 16/11 Q1012 R02/190060 TEMPO 05010G16MPS RMK QFE740,UWPS,2023-04-30T10:00:00Z,54.12,45.2,16.0,11.0,40,16,,6.21,29.88189,,,,,,,,,,,BKN,1800,,,,,,,MVFR,,,,,,,,,,,,METAR,206.0
UWOR 301000Z 17003MPS 100V200 CAVOK 23/02 Q1020 R07/CLRD65 NOSIG RMK QFE740/0987,UWOR,2023-04-30T10:00:00Z,51.07,58.6,23.0,2.0,170,6,,6.21,30.11811,,,,,,TRUE,,,,,CAVOK,,,,,,,,VFR,,,,,,,,,,,,METAR,270.0
UWOO 301000Z 16007MPS 130V190 CAVOK 27/06 Q1018 R08/CLRD60 NOSIG RMK QFE752/1003,UWOO,2023-04-30T10:00:00Z,51.8,55.47,27.0,6.0,160,14,,6.21,30.059055,,,,,,TRUE,,,,,CAVOK,,,,,,,,VFR,,,,,,,,,,,,SPECI,90.0
UWLW 301000Z 35006MPS CAVOK 22/06 Q1014 R02/CLRD60 NOSIG RMK QFE754/1005,UWLW,2023-04-30T10:00:00Z,54.4,48.8,22.0,6.0,350,12,,6.21,29.940945,,,,,,TRUE,,,,,CAVOK,,,,,,,,VFR,,,,,,,,,,,,SPECI,67.0
UWLL 301000Z 04006MPS 9999 FEW050CB 22/05 Q1014 R02/090065 NOSIG RMK QFE748/0998,UWLL,2023-04-30T10:00:00Z,54.27,48.23,22.0,5.0,40,12,,6.21,29.940945,,,,,,TRUE,,,,,FEW,5000,,,,,,,VFR,,,,,,,,,,,,METAR,119.0
UWKS 301000Z 03002MPS 9999 SCT008 07/07 Q1019 R06/290155 NOSIG RMK QFE749,UWKS,2023-04-30T10:00:00Z,56.08,47.35,7.0,7.0,30,4,,6.21,30.088583,,,,,,TRUE,,,,,SCT,800,,,,,,,VFR,,,,,,,,,,,,METAR,165.0
UWKE 301000Z 27003MPS 240V330 CAVOK 25/04 Q1015 R21/090070 NOSIG RMK QFE745/0993,UWKE,2023-04-30T10:00:00Z,55.57,52.08,25.0,4.0,270,6,,6.21,29.970472,,,,,,TRUE,,,,,CAVOK,,,,,,,,VFR,,,,,,,,,,,,SPECI,193.0
UWKD 301000Z 03005MPS 9999 SCT050CB 18/09 Q1017 R29/CLRD70 NOSIG RMK QFE751/1002,UWKD,2023-04-30T10:00:00Z,55.62,49.28,18.0,9.0,30,10,,6.21,30.029528,,,,,,TRUE,,,,,SCT,5000,,,,,,,VFR,,,,,,,,,,,,SPECI,114.0
UWGG 301000Z 07006MPS CAVOK 11/01 Q1018 R36R/090070 NOSIG,UWGG,2023-04-30T10:00:00Z,56.23,43.78,11.0,1.0,70,12,,6.21,30.059055,,,,,,TRUE,,,,,CAVOK,,,,,,,,VFR,,,,,,,,,,,,SPECI,73.0
UUYY 301000Z 32003MPS 9999 SCT011 OVC018CB 04/02 Q1020 R36/29//51 NOSIG RMK QFE755/1007,UUYY,2023-04-30T10:00:00Z,61.65,50.83,4.0,2.0,320,6,,6.21,30.11811,,,,,,TRUE,,,,,SCT,1100,OVC,1800,,,,,MVFR,,,,,,,,,,,,METAR,107.0
UUWW 301000Z 07005MPS CAVOK 10/01 Q1015 R06/000070 NOSIG,UUWW,2023-04-30T10:00:00Z,55.6,37.27,10.0,1.0,70,10,,6.21,29.970472,,,,,,TRUE,,,,,CAVOK,,,,,,,,VFR,,,,,,,,,,,,SPECI,195.0
UUOO 301000Z 03004MPS 9999 OVC013 12/09 Q1006 R12/010070 NOSIG RMK QFE740,UUOO,2023-04-30T10:00:00Z,51.82,39.23,12.0,9.0,30,8,,6.21,29.704725,,,,,,TRUE,,,,,OVC,1300,,,,,,,MVFR,,,,,,,,,,,,SPECI,154.0
UUOL 301000Z 03007MPS 9999 OVC012 09/08 Q1007 R33/090060 NOSIG,UUOL,2023-04-30T10:00:00Z,52.7,39.53,9.0,8.0,30,14,,6.21,29.734253,,,,,,TRUE,,,,,OVC,1200,,,,,,,MVFR,,,,,,,,,,,,METAR,176.0
UUOK 301000Z 03004MPS 350V080 9999 OVC007 05/04 Q1009 R30/290050 NOSIG RMK QBB230 QFE738/0984,UUOK,2023-04-30T10:00:00Z,51.75,36.28,5.0,4.0,30,8,,6.21,29.793306,,,,,,TRUE,,,,,OVC,700,,,,,,,IFR,,,,,,,,,,,,METAR,203.0
UUOB 301000Z 03004MPS 5000 BR OVC003 07/06 Q1007 R11/290060 NOSIG RMK QBB100,UUOB,2023-04-30T10:00:00Z,50.65,36.58,7.0,6.0,30,8,,3.11,29.734253,,,,,,TRUE,,,,BR,OVC,300,,,,,,,LIFR,,,,,,,,,,,,METAR,218.0
UUMO 301000Z 09005MPS CAVOK 10/01 Q1015 R07/CLRD60 NOSIG RMK QFE747/0996,UUMO,2023-04-30T10:00:00Z,55.52,37.5,10.0,1.0,90,10,,6.21,29.970472,,,,,,TRUE,,,,,CAVOK,,,,,,,,VFR,,,,,,,,,,,,METAR,167.0
UUEE 301000Z 04006MPS CAVOK 11/M01 Q1016 R06R/CLRD62 R06C/CLRD62 NOSIG,UUEE,2023-04-30T10:00:00Z,55.97,37.42,11.0,-1.0,40,12,,6.21,30.0,,,,,,TRUE,,,,,CAVOK,,,,,,,,VFR,,,,,,,,,,,,SPECI,186.0
UUDL 301000Z 09004MPS 050V140 CAVOK 13/M01 Q1019 R23/010060 NOSIG RMK QFE756,UUDL,2023-04-30T10:00:00Z,57.57,40.17,13.0,-1.0,90,8,,6.21,30.088583,,,,,,TRUE,,,,,CAVOK,,,,,,,,VFR,,,,,,,,,,,,METAR,88.0
UUDD 301000Z 05006MPS 020V090 CAVOK 10/M01 Q1015 R88/CLRD60 NOSIG,UUDD,2023-04-30T10:00:00Z,55.4,37.9,10.0,-1.0,50,12,,6.21,29.970472,,,,,,TRUE,,,,,CAVOK,,,,,,,,VFR,,,,,,,,,,,,SPECI,165.0
UUBW 301000Z 05005MPS CAVOK 12/01 Q1015 R30/010060 NOSIG,UUBW,2023-04-30T10:00:00Z,55.55,38.15,12.0,1.0,50,10,,6.21,29.970472,,,,,,TRUE,,,,,CAVOK,,,,,,,,VFR,,,,,,,,,,,,METAR,111.0
UUBP 301000Z 02006G11MPS CAVOK 09/M02 Q1013 R34/////// NOSIG RMK QFE742/0990,UUBP,2023-04-30T10:00:00Z,53.22,34.18,9.0,-2.0,20,12,21,6.21,29.911417,,,,,,TRUE,,,,,CAVOK,,,,,,,,VFR,,,,,,,,,,,,SPECI,197.0
UUBC 301000Z 04005MPS 350V080 CAVOK 09/M01 Q1014 R31/CLRD60 NOSIG RMK QFE744/0992,UUBC,2023-04-30T10:00:00Z,54.55,36.37,9.0,-1.0,40,10,,6.21,29.940945,,,,,,TRUE,,,,,CAVOK,,,,,,,,VFR,,,,,,,,,,,,METAR,198.0
UTTT 301000Z 05004KT CAVOK 31/M02 Q1008 R08R/CLRD70 NOSIG,UTTT,2023-04-30T10:00:00Z,41.27,69.27,31.0,-2.0,50,4,,6.21,29.763779,,,,,,TRUE,,,,,CAVOK,,,,,,,,VFR,,,,,,,,,,,,SPECI,429.0
UTST 301000Z 24002KT CAVOK 35/00 Q1005 R25/CLRD70 NOSIG,UTST,2023-04-30T10:00:00Z,37.28,67.32,35.0,0.0,240,2,,6.21,29.675198,,,,,,TRUE,,,,,CAVOK,,,,,,,,VFR,,,,,,,,,,,,SPECI,311.0
UTSS 301000Z 34006KT 300V030 9999 NSC 28/05 Q1008 R09/CLRD70 NOSIG,UTSS,2023-04-30T10:00:00Z,39.7,66.98,28.0,5.0,340,6,,6.21,29.763779,,,,,,TRUE,,,,,CLR,,,,,,,,VFR,,,,,,,,,,,,SPECI,665.0
UTSK 301000Z 33008KT 300V360 CAVOK 33/M02 Q1007 R16/CLRD70,UTSK,2023-04-30T10:00:00Z,38.8,65.77,33.0,-2.0,330,8,,6.21,29.734253,,,,,,,,,,,CAVOK,,,,,,,,VFR,,,,,,,,,,,,SPECI,399.0
UTSB 301000Z 01008KT 330V050 CAVOK 33/M03 Q1007 R01/CLRD70 NOSIG,UTSB,2023-04-30T10:00:00Z,39.77,64.48,33.0,-3.0,10,8,,6.21,29.734253,,,,,,TRUE,,,,,CAVOK,,,,,,,,VFR,,,,,,,,,,,,SPECI,225.0
UTSA 301000Z 30010KT 270V330 9999 NSC 32/M05 Q1007 R07/CLRD70 NOSIG,UTSA,2023-04-30T10:00:00Z,40.12,65.17,32.0,-5.0,300,10,,6.21,29.734253,,,,,,TRUE,,,,,CLR,,,,,,,,VFR,,,,,,,,,,,,SPECI,346.0
UTNU 301000Z 08008KT CAVOK 33/M05 Q1008 R13/CLRD70 NOSIG,UTNU,2023-04-30T10:00:00Z,41.58,60.63,33.0,-5.0,80,8,,6.21,29.763779,,,,,,TRUE,,,,,CAVOK,,,,,,,,VFR,,,,,,,,,,,,METAR,97.0
UTNN 301000Z 06008KT CAVOK 33/M04 Q1009 R33/CLRD60 NOSIG,UTNN,2023-04-30T10:00:00Z,42.48,59.63,33.0,-4.0,60,8,,6.21,29.793306,,,,,,TRUE,,,,,CAVOK,,,,,,,,VFR,,,,,,,,,,,,SPECI,76.0
UTFN 301000Z 14006KT 9999 FEW050CB 30/00 Q1008 R28/CLRD70 NOSIG,UTFN,2023-04-30T10:00:00Z,40.98,71.57,30.0,0.0,140,6,,6.21,29.763779,,,,,,TRUE,,,,,FEW,5000,,,,,,,VFR,,,,,,,,,,,,METAR,477.0
UTFF 301000Z 34006KT 270V360 9999 NSC 29/M00 Q1008 R18/CLRD70,UTFF,2023-04-30T10:00:00Z,40.37,71.73,29.0,0.0,340,6,,6.21,29.763779,,,,,,,,,,,CLR,,,,,,,,VFR,,,,,,,,,,,,METAR,612.0
UTDT 301000Z 30002MPS 270V330 9999 FEW130 32/01 Q1006 R35/CLRD70 RMK QFE715/0954,UTDT,2023-04-30T10:00:00Z,37.87,68.87,32.0,1.0,300,4,,6.21,29.704725,,,,,,,,,,,FEW,13000,,,,,,,VFR,,,,,,,,,,,,METAR,443.0
UTDL 301000Z 11002MPS 070V140 9999 FEW053 31/04 Q1008 R08/CLRD70 NOSIG RMK QFE717/0956,UTDL,2023-04-30T10:00:00Z,40.22,69.7,31.0,4.0,110,4,,6.21,29.763779,,,,,,TRUE,,,,,FEW,5300,,,,,,,VFR,,,,,,,,,,,,SPECI,436.0
UTDK 301000Z VRB02MPS 9999 NSC 31/03 Q1008 R01/09//70 RMK QFE699/0932,UTDK,2023-04-30T10:00:00Z,37.98,69.8,31.0,3.0,0,4,,6.21,29.763779,,,,,,,,,,,CLR,,,,,,,,VFR,,,,,,,,,,,,METAR,675.0
UTDD 301000Z VRB01MPS 9999 FEW066 28/05 Q1009 R09/CLRD// NOSIG RMK QFE689/0919,UTDD,2023-04-30T10:00:00Z,38.53,68.82,28.0,5.0,0,2,,6.21,29.793306,,,,,,TRUE,,,,,FEW,6600,,,,,,,VFR,,,,,,,,,,,,SPECI,785.0
UTAV 301000Z 32008KT CAVOK 33/M02 Q1006 R31/CLRD70 NOSIG,UTAV,2023-04-30T10:00:00Z,39.08,63.62,33.0,-2.0,320,8,,6.21,29.704725,,,,,,TRUE,,,,,CAVOK,,,,,,,,VFR,,,,,,,,,,,,SPECI,187.0
UTAT 301000Z 09012KT 050V140 CAVOK 34/M02 Q1008 R08/CLRD70 NOSIG,UTAT,2023-04-30T10:00:00Z,41.77,59.83,34.0,-2.0,90,12,,6.21,29.763779,,,,,,TRUE,,,,,CAVOK,,,,,,,,VFR,,,,,,,,,,,,SPECI,84.0
UTAM 301000Z 04010KT CAVOK 34/02 Q1006 R88/CLRD70 NOSIG,UTAM,2023-04-30T10:00:00Z,37.62,61.9,34.0,2.0,40,10,,6.21,29.704725,,,,,,TRUE,,,,,CAVOK,,,,,,,,VFR,,,,,,,,,,,,SPECI,218.0
UTAK 301000Z 26012KT CAVOK 32/05 Q1006 R16R/CLRD70 NOSIG,UTAK,2023-04-30T10:00:00Z,40.05,53.0,32.0,5.0,260,12,,6.21,29.704725,,,,,,TRUE,,,,,CAVOK,,,,,,,,VFR,,,,,,,,,,,,SPECI,83.0
UTAA 301000Z 09012KT 9999 FEW050CB SCT050 36/M01 Q1004 R88/CLRD70 NOSIG,UTAA,2023-04-30T10:00:00Z,37.98,58.37,36.0,-1.0,90,12,,6.21,29.64567,,,,,,TRUE,,,,,FEW,5000,SCT,5000,,,,,VFR,,,,,,,,,,,,SPECI,207.0
USTR 301000Z 36002MPS 290V100 9999 SCT038CB 06/M07 Q1025 R03/090065 R30/////99 NOSIG,USTR,2023-04-30T10:00:00Z,57.18,65.32,6.0,-7.0,360,4,,6.21,30.265747,,,,,,TRUE,,,,,SCT,3800,,,,,,,VFR,,,,,,,,,,,,SPECI,93.0
USSS 301000Z 07007MPS CAVOK 11/M05 Q1022 R08L/010060 NOSIG RMK QFE746/0995,USSS,2023-04-30T10:00:00Z,56.75,60.78,11.0,-5.0,70,14,,6.21,30.177166,,,,,,TRUE,,,,,CAVOK,,,,,,,,VFR,,,,,,,,,,,,SPECI,222.0
USRR 301000Z 35007MPS CAVOK 00/M05 Q1021 R25/CLRD60 NOSIG RMK QFE760,USRR,2023-04-30T10:00:00Z,61.33,73.42,0.0,-5.0,350,14,,6.21,30.147638,,,,,,TRUE,,,,,CAVOK,,,,,,,,VFR,,,,,,,,,,,,SPECI,52.0
USPP 301000Z 09004MPS 060V120 9999 FEW043CB 15/03 Q1017 R03/190055 TEMPO 13005G14MPS RMK QFE752,USPP,2023-04-30T10:00:00Z,57.92,56.02,15.0,3.0,90,8,,6.21,30.029528,,,,,,,,,,,FEW,4300,,,,,,,VFR,,,,,,,,,,,,SPECI,120.0
USNN 301000Z 31006MPS 9999 FEW031 01/M06 Q1017 R03/0///65 NOSIG RMK QFE759,USNN,2023-04-30T10:00:00Z,60.95,76.48,1.0,-6.0,310,12,,6.21,30.029528,,,,,,TRUE,,,,,FEW,3100,,,,,,,VFR,,,,,,,,,,,,SPECI,52.0
USHH 301000Z 03005MPS 330V050 CAVOK 04/M06 Q1024 R06/010060 NOSIG,USHH,2023-04-30T10:00:00Z,61.03,69.08,4.0,-6.0,30,10,,6.21,30.236221,,,,,,TRUE,,,,,CAVOK,,,,,,,,VFR,,,,,,,,,,,,METAR,46.0
USDA 301000Z 30005MPS CAVOK M06/M08 Q1030 R04/CLRD60 NOSIG RMK QFE771/1029,USDA,2023-04-30T10:00:00Z,71.2,72.05,-6.0,-8.0,300,10,,6.21,30.413385,,,,,,TRUE,,,,,CAVOK,,,,,,,,VFR,,,,,,,,,,,,METAR,5.0
USCM 301000Z 19007MPS 9999 NSC 23/03 Q1019 R36/090060 TEMPO 17013MPS RMK QFE726,USCM,2023-04-30T10:00:00Z,53.4,58.75,23.0,3.0,190,14,,6.21,30.088583,,,,,,,,,,,CLR,,,,,,,,VFR,,,,,,,,,,,,METAR,425.0
USCC 301000Z 23003MPS 9999 FEW040 21/02 Q1018 R27/000060 NOSIG RMK QFE743,USCC,2023-04-30T10:00:00Z,55.3,61.5,21.0,2.0,230,6,,6.21,30.059055,,,,,,TRUE,,,,,FEW,4000,,,,,,,VFR,,,,,,,,,,,,SPECI,227.0
URWW 301000Z 25007MPS 9999 BKN015 18/14 Q1007 R23/010070 TEMPO 1000 TSRAGR BKN002 BKN020CB,URWW,2023-04-30T10:00:00Z,48.78,44.33,18.0,14.0,250,14,,6.21,29.734253,,,,,,,,,,,BKN,1500,,,,,,,MVFR,,,,,,,,,,,,SPECI,131.0
URWI 301000Z 31008MPS 9999 SCT/// 17/09 Q1009 R27/190055 NOSIG,URWI,2023-04-30T10:00:00Z,46.37,44.33,17.0,9.0,310,16,,6.21,29.793306,,,,,,TRUE,,,,,,,,,,,,,,,,,,,,,,,,,SPECI,145.0
URWA 301000Z VRB01MPS CAVOK 26/13 Q1007 R27/010070 NOSIG RMK QFE757/1009,URWA,2023-04-30T10:00:00Z,46.28,47.98,26.0,13.0,0,2,,6.21,29.734253,,,,,,TRUE,,,,,CAVOK,,,,,,,,VFR,,,,,,,,,,,,SPECI,-19.0
URSS 301000Z 28003MPS 9999 FEW016 OVC063 13/10 Q1012 R02/290060 R06/290060 NOSIG RMK R06/29004MPS MT OBSC QFE757,URSS,2023-04-30T10:00:00Z,43.45,39.92,13.0,10.0,280,6,,6.21,29.88189,,,,,,TRUE,,,,,FEW,1600,OVC,6300,,,,,VFR,,,,,,,,,,,,SPECI,4.0
URRP 301000Z 24007MPS 9999 SCT030CB 14/10 Q1009 R23/CLRD70 NOSIG RMK QFE749/0999,URRP,2023-04-30T10:00:00Z,47.5,39.92,14.0,10.0,240,14,,6.21,29.793306,,,,,,TRUE,,,,,SCT,3000,,,,,,,VFR,,,,,,,,,,,,METAR,73.0
URMT 301000Z 31006MPS 9999 SCT045 12/07 Q1010 R25/150060 NOSIG RMK QFE719,URMT,2023-04-30T10:00:00Z,45.12,42.12,12.0,7.0,310,12,,6.21,29.822834,,,,,,TRUE,,,,,SCT,4500,,,,,,,VFR,,,,,,,,,,,,SPECI,448.0
URMO 301000Z 09004MPS 060V150 9999 -SHRA SCT///CB BKN066 11/10 Q1008 R27/290150 NOSIG RMK QFE712/0949,URMO,2023-04-30T10:00:00Z,43.2,44.6,11.0,10.0,90,8,,6.21,29.763779,,,,,,TRUE,,,,-SHRA,BKN,6600,,,,,,,VFR,,,,,,,,,,,,METAR,505.0
URMN 301000Z 05002MPS 9999 OVC022CB 14/10 Q1008 R24/210155 NOSIG RMK QFE719,URMN,2023-04-30T10:00:00Z,43.52,43.63,14.0,10.0,50,4,,6.21,29.763779,,,,,,TRUE,,,,,OVC,2200,,,,,,,MVFR,,,,,,,,,,,,SPECI,424.0
URMM 301000Z 30006MPS 9999 BKN024 14/10 Q1009 R30/190049 NOSIG RMK QFE729/0972,URMM,2023-04-30T10:00:00Z,44.22,43.07,14.0,10.0,300,12,,6.21,29.793306,,,,,,TRUE,,,,,BKN,2400,,,,,,,MVFR,,,,,,,,,,,,SPECI,318.0
URML 301000Z 34009MPS 9999 SCT029 19/14 Q1007 R32/01//70 NOSIG RMK QFE755/1007,URML,2023-04-30T10:00:00Z,42.82,47.65,19.0,14.0,340,17,,6.21,29.734253,,,,,,TRUE,,,,,SCT,2900,,,,,,,VFR,,,,,,,,,,,,METAR,4.0
URMG 301000Z 30005MPS 9999 -SHRA FEW014 SCT029CB 15/12 Q1009 R26/290250 NOSIG RMK QFE742/0990,URMG,2023-04-30T10:00:00Z,43.38,45.7,15.0,12.0,300,10,,6.21,29.793306,,,,,,TRUE,,,,-SHRA,FEW,1400,SCT,2900,,,,,VFR,,,,,,,,,,,,METAR,160.0
URKK 301000Z 21006MPS 180V240 9999 SCT045 15/07 Q1011 R23L/19//65 TEMPO 3000 -TSRA SCT011 BKN020CB RMK QFE755,URKK,2023-04-30T10:00:00Z,45.03,39.15,15.0,7.0,210,12,,6.21,29.852362,,,,,,,,,,,SCT,4500,,,,,,,VFR,,,,,,,,,,,,SPECI,29.0
URKA 301000Z 21011MPS 9000 BKN010 BKN018CB 11/10 Q1009 R22/290160 TEMPO 20015G20MPS 1000 SHRA SCT004 BKN016CB RMK QFE752/1003,URKA,2023-04-30T10:00:00Z,45.0,37.35,11.0,10.0,210,21,,5.59,29.793306,,,,,,,,,,,BKN,1000,BKN,1800,,,,,MVFR,,,1.5,,,,,,,,,SPECI,41.0
UOOO 301000Z 01014MPS 3000 1400NE BLSN SCT010 M06/M06 Q1014 R01/520560 NOSIG RMK QFE746/0994,UOOO,2023-04-30T10:00:00Z,69.32,87.33,-6.0,-6.0,10,27,,1.86,29.940945,,,,,,TRUE,,,,BLSN,SCT,1000,,,,,,,IFR,,,,,,,,,,,,SPECI,177.0
UNWW 301000Z 01005MPS 9999 SCT033CB 09/M08 Q1007 R01/09//55 NOSIG RMK QFE729,UNWW,2023-04-30T10:00:00Z,53.82,86.88,9.0,-8.0,10,10,,6.21,29.734253,,,,,,TRUE,,,,,SCT,3300,,,,,,,VFR,,,,,,,,,,,,METAR,307.0
UNTT 301000Z 29006MPS 9999 BKN038 03/M08 Q1011 R21/090060 NOSIG RMK QFE743,UNTT,2023-04-30T10:00:00Z,56.38,85.22,3.0,-8.0,290,12,,6.21,29.852362,,,,,,TRUE,,,,,BKN,3800,,,,,,,VFR,,,,,,,,,,,,METAR,179.0
UNOO 301000Z 33008MPS 9999 SCT040 09/M11 Q1019 R25/CLRD60 NOSIG RMK QFE756,UNOO,2023-04-30T10:00:00Z,54.97,73.32,9.0,-11.0,330,16,,6.21,30.088583,,,,,,TRUE,,,,,SCT,4000,,,,,,,VFR,,,,,,,,,,,,METAR,85.0
UNNT 301000Z 33005MPS CAVOK 06/M07 Q1012 R25/090070 R16/090070 NOSIG RMK QFE749/0999,UNNT,2023-04-30T10:00:00Z,55.02,82.65,6.0,-7.0,330,10,,6.21,29.88189,,,,,,TRUE,,,,,CAVOK,,,,,,,,VFR,,,,,,,,,,,,SPECI,106.0
UNKL 301000Z 30008MPS CAVOK 05/M07 Q1005 R29/CLRD65 NOSIG RMK QFE729,UNKL,2023-04-30T10:00:00Z,56.17,92.48,5.0,-7.0,300,16,,6.21,29.675198,,,,,,TRUE,,,,,CAVOK,,,,,,,,VFR,,,,,,,,,,,,METAR,278.0
UNEE 301000Z 31006MPS CAVOK 05/M07 Q1009 R23/CLRD60 NOSIG RMK QFE734,UNEE,2023-04-30T10:00:00Z,55.27,86.1,5.0,-7.0,310,12,,6.21,29.793306,,,,,,TRUE,,,,,CAVOK,,,,,,,,VFR,,,,,,,,,,,,METAR,261.0
UNBB 301000Z 31006MPS CAVOK 09/M12 Q1011 R24/CLRD66 NOSIG RMK QFE736,UNBB,2023-04-30T10:00:00Z,53.37,83.53,9.0,-12.0,310,12,,6.21,29.852362,,,,,,TRUE,,,,,CAVOK,,,,,,,,VFR,,,,,,,,,,,,METAR,249.0
UNAA 301000Z 03004MPS CAVOK 12/M03 Q1003 R02/CLRD64 NOSIG RMK QFE730,UNAA,2023-04-30T10:00:00Z,53.75,91.4,12.0,-3.0,30,8,,6.21,29.616142,,,,,,TRUE,,,,,CAVOK,,,,,,,,VFR,,,,,,,,,,,,SPECI,249.0
UMOO 301000Z 18004MPS CAVOK 15/M07 Q1016 NOSIG,UMOO,2023-04-30T10:00:00Z,53.95,30.1,15.0,-7.0,180,8,,6.21,30.0,,,,,,TRUE,,,,,CAVOK,,,,,,,,VFR,,,,,,,,,,,,METAR,188.0
UMMS 301000Z 18004G09MPS 130V280 CAVOK 16/M01 Q1014 NOSIG,UMMS,2023-04-30T10:00:00Z,53.88,28.03,16.0,-1.0,180,8,17,6.21,29.940945,,,,,,TRUE,,,,,CAVOK,,,,,,,,VFR,,,,,,,,,,,,METAR,196.0
UMMG 301000Z 33003MPS 9000 SCT013 BKN066 09/07 Q1016 NOSIG,UMMG,2023-04-30T10:00:00Z,53.6,24.05,9.0,7.0,330,6,,5.59,30.0,,,,,,TRUE,,,,,SCT,1300,BKN,6600,,,,,VFR,,,,,,,,,,,,METAR,125.0
UMKK 301000Z 31007MPS 9999 SCT032 10/05 Q1018 R24/CLRD95 NOSIG RMK QFE763/1017,UMKK,2023-04-30T10:00:00Z,54.88,20.57,10.0,5.0,310,14,,6.21,30.059055,,,,,,TRUE,,,,,SCT,3200,,,,,,,VFR,,,,,,,,,,,,METAR,6.0
UMIO 301000Z 23004G07MPS 190V280 CAVOK 14/M01 Q1014 NOSIG RMK QFE743/0991,UMIO,2023-04-30T10:00:00Z,54.43,30.3,14.0,-1.0,230,8,14,6.21,29.940945,,,,,,TRUE,,,,,CAVOK,,,,,,,,VFR,,,,,,,,,,,,METAR,189.0
UMII 301000Z 21005G08MPS CAVOK 14/M04 Q1014 NOSIG,UMII,2023-04-30T10:00:00Z,55.13,30.35,14.0,-4.0,210,10,16,6.21,29.940945,,,,,,TRUE,,,,,CAVOK,,,,,,,,VFR,,,,,,,,,,,,METAR,208.0
UMGG 301000Z 04005MPS CAVOK 16/03 Q1015 NOSIG,UMGG,2023-04-30T10:00:00Z,52.53,31.02,16.0,3.0,40,10,,6.21,29.970472,,,,,,TRUE,,,,,CAVOK,,,,,,,,VFR,,,,,,,,,,,,METAR,135.0
UMBB 301000Z 31005G08MPS 6000 -SHRA BKN032CB SCT100 10/08 Q1015 NOSIG,UMBB,2023-04-30T10:00:00Z,52.12,23.9,10.0,8.0,310,10,16,3.73,29.970472,,,,,,TRUE,,,,-SHRA,BKN,3200,SCT,10000,,,,,MVFR,,,,,,,,,,,,METAR,138.0
ULWC 301000Z 19003G08MPS CAVOK 12/M06 Q1018 R21/010060 NOSIG RMK QFE753/1005,ULWC,2023-04-30T10:00:00Z,59.28,38.02,12.0,-6.0,190,6,16,6.21,30.059055,,,,,,TRUE,,,,,CAVOK,,,,,,,,VFR,,,,,,,,,,,,METAR,113.0
ULPB 301000Z 18005MPS CAVOK 14/M02 Q1012 R19///99// NOSIG RMK QFE755/1007,ULPB,2023-04-30T10:00:00Z,61.88,34.15,14.0,-2.0,180,10,,6.21,29.88189,,,,,,TRUE,,,,,CAVOK,,,,,,,,VFR,,,,,,,,,,,,METAR,41.0
ULOO 301000Z 18004MPS 9999 SCT017 OVC049 07/06 Q1013 R19/290050 NOSIG RMK QFE755,ULOO,2023-04-30T10:00:00Z,57.78,28.4,7.0,6.0,180,8,,6.21,29.911417,,,,,,TRUE,,,,,SCT,1700,OVC,4900,,,,,VFR,,,,,,,,,,,,METAR,46.0
ULMM 301000Z 17005MPS CAVOK 06/M02 Q1011 R13/090070 NOSIG RMK QFE752,ULMM,2023-04-30T10:00:00Z,68.78,32.75,6.0,-2.0,170,10,,6.21,29.852362,,,,,,TRUE,,,,,CAVOK,,,,,,,,VFR,,,,,,,,,,,,SPECI,79.0
ULLI 301000Z 21005MPS 9999 -SHRA SCT026CB BKN040 08/07 Q1011 R88/290050 NOSIG,ULLI,2023-04-30T10:00:00Z,59.8,30.27,8.0,7.0,210,10,,6.21,29.852362,,,,,,TRUE,,,,-SHRA,SCT,2600,BKN,4000,,,,,VFR,,,,,,,,,,,,SPECI,25.0
ULAA 301000Z 20003MPS 170V250 9999 BKN028 10/01 Q1019 R08/CLRD70 NOSIG RMK QFE763/1018,ULAA,2023-04-30T10:00:00Z,64.6,40.72,10.0,1.0,200,6,,6.21,30.088583,,,,,,TRUE,,,,,BKN,2800,,,,,,,MVFR,,,,,,,,,,,,SPECI,10.0
UIUU 301000Z 22005MPS 200V260 9999 FEW050 23/M00 Q0994 R26/CLRD60 NOSIG RMK QFE702/0936,UIUU,2023-04-30T10:00:00Z,51.8,107.45,23.0,0.0,220,10,,6.21,29.350393,,,,,,TRUE,,,,,FEW,5000,,,,,,,VFR,,,,,,,,,,,,SPECI,508.0
UIII 301000Z 29006MPS 9999 FEW050CB 17/07 Q0993 R30/CLRD60 NOSIG RMK QFE701/0935,UIII,2023-04-30T10:00:00Z,52.27,104.37,17.0,7.0,290,12,,6.21,29.320866,,,,,,TRUE,,,,,FEW,5000,,,,,,,VFR,,,,,,,,,,,,SPECI,480.0
UIBB 301000Z 29008MPS 240V310 9999 NSC 05/M08 Q0999 R30/CLRD60 NOSIG RMK QFE707/0942,UIBB,2023-04-30T10:00:00Z,56.37,101.7,5.0,-8.0,290,16,,6.21,29.498032,,,,,,TRUE,,,,,CLR,,,,,,,,VFR,,,,,,,,,,,,SPECI,485.0
UIAA 301000Z 19002MPS 150V230 9999 NSC 17/M02 Q0999 R29/CLRD70 NOSIG RMK QFE691/0922,UIAA,2023-04-30T10:00:00Z,52.02,113.32,17.0,-2.0,190,4,,6.21,29.498032,,,,,,TRUE,,,,,CLR,,,,,,,,VFR,,,,,,,,,,,,SPECI,650.0
UHWW 301000Z 35005MPS 9999 NSC 09/03 Q1001 R25L/0///70 NOSIG RMK QFE750,UHWW,2023-04-30T10:00:00Z,43.4,132.15,9.0,3.0,350,10,,6.21,29.557087,,,,,,TRUE,,,,,CLR,,,,,,,,VFR,,,,,,,,,,,,METAR,11.0
UHSS 301000Z 36009MPS 9999 SCT008 OVC029CB 01/M00 Q0996 R01/250160 NOSIG RMK MT OBSC QFE746/0995,UHSS,2023-04-30T10:00:00Z,46.88,142.72,1.0,0.0,360,17,,6.21,29.409449,,,,,,TRUE,,,,,SCT,800,OVC,2900,,,,,MVFR,,,,,,,,,,,,METAR,14.0
UHPP 301000Z 12002MPS 110V170 CAVOK 02/M05 Q1017 R34L/CLRD65 NOSIG RMK QFE759/1012,UHPP,2023-04-30T10:00:00Z,53.17,158.45,2.0,-5.0,120,4,,6.21,30.029528,,,,,,TRUE,,,,,CAVOK,,,,,,,,VFR,,,,,,,,,,,,METAR,33.0
UHMM 301000Z 22003MPS 9999 BKN032 M01/M05 Q1015 RMK MT OBSC QFE746 R28/30002MPS,UHMM,2023-04-30T10:00:00Z,59.92,150.72,-1.0,-5.0,220,6,,6.21,29.970472,,,,,,,,,,,BKN,3200,,,,,,,VFR,,,,,,,,,,,,METAR,175.0
UHMA 301000Z 34004MPS CAVOK M14/M16 Q1015 R01/////// NOSIG RMK MID 35005MPS END R01/34005MPS QFE758/1010,UHMA,2023-04-30T10:00:00Z,64.73,177.73,-14.0,-16.0,340,8,,6.21,29.970472,,,,,,TRUE,,,,,CAVOK,,,,,,,,VFR,,,,,,,,,,,,METAR,53.0
UHHH 301000Z 06006MPS 9999 -SHRA SCT010 OVC026CB 02/01 Q0999 R05L/290045 R05R/690735 NOSIG RMK QFE743/0991,UHHH,2023-04-30T10:00:00Z,48.52,135.18,2.0,1.0,60,12,,6.21,29.498032,,,,,,TRUE,,,,-SHRA,SCT,1000,OVC,2600,,,,,MVFR,,,,,,,,,,,,METAR,74.0
UHBB 301000Z 36004MPS 9999 FEW033 14/M06 Q1002 R36/090060 NOSIG RMK QFE734/0979,UHBB,2023-04-30T10:00:00Z,50.43,127.42,14.0,-6.0,360,8,,6.21,29.586615,,,,,,TRUE,,,,,FEW,3300,,,,,,,VFR,,,,,,,,,,,,METAR,185.0
UGTB 301000Z 33014KT 300V360 9999 -TSRA SCT035CB BKN058 13/11 Q1007 NOSIG,UGTB,2023-04-30T10:00:00Z,41.67,44.95,13.0,11.0,330,14,,6.21,29.734253,,,,,,TRUE,,,,-TSRA,SCT,3500,BKN,5800,,,,,VFR,,,,,,,,,,,,METAR,468.0
UGSB 301000Z 23007KT 9999 SCT023 BKN041 13/11 Q1013 NOSIG,UGSB,2023-04-30T10:00:00Z,41.62,41.6,13.0,11.0,230,7,,6.21,29.911417,,,,,,TRUE,,,,,SCT,2300,BKN,4100,,,,,VFR,,,,,,,,,,,,METAR,32.0
UGMS 301000Z 36007KT 290V050 9999 SCT050CB BKN100 14/M00 Q1011,UGMS,2023-04-30T10:00:00Z,43.05,42.75,14.0,0.0,360,7,,6.21,29.852362,,,,,,,,,,,SCT,5000,BKN,10000,,,,,VFR,,,,,,,,,,,,METAR,1442.0
UGKO 301000Z 27007KT 230V300 9999 SCT017CB OVC037 14/10 Q1010 NOSIG,UGKO,2023-04-30T10:00:00Z,42.18,42.48,14.0,10.0,270,7,,6.21,29.822834,,,,,,TRUE,,,,,SCT,1700,OVC,3700,,,,,VFR,,,,,,,,,,,,METAR,44.0
UGAM 301000Z 08008KT 050V130 9999 BKN050 16/09 Q1009,UGAM,2023-04-30T10:00:00Z,42.53,43.13,16.0,9.0,80,8,,6.21,29.793306,,,,,,,,,,,BKN,5000,,,,,,,VFR,,,,,,,,,,,,METAR,544.0
UERR 301000Z 21001MPS 4000 -SHSN BKN004 OVC021CB 01/01 Q0993 R25/690540 NOSIG RMK QBB130 QFE714/0951,UERR,2023-04-30T10:00:00Z,62.53,114.05,1.0,1.0,210,2,,2.49,29.320866,,,,,,TRUE,,,,-SHSN,BKN,400,OVC,2100,,,,,LIFR,,,,,,,,,,,,METAR,352.0
UERP 301000Z 10007G14MPS 9999 SCT040CB OVC100 04/M05 Q0996 NOSIG RMK QFE703,UERP,2023-04-30T10:00:00Z,66.4,112.03,4.0,-5.0,100,14,27,6.21,29.409449,,,,,,TRUE,,,,,SCT,4000,OVC,10000,,,,,VFR,,,,,,,,,,,,METAR,514.0
UEEE 301000Z 08002MPS CAVOK 10/M05 Q1003 R05/09//60 NOSIG RMK QFE743,UEEE,2023-04-30T10:00:00Z,62.08,129.77,10.0,-5.0,80,4,,6.21,29.616142,,,,,,TRUE,,,,,CAVOK,,,,,,,,VFR,,,,,,,,,,,,METAR,106.0
UDYZ 301000Z 16007KT 9999 FEW040CB 22/02 Q1006 NOSIG,UDYZ,2023-04-30T10:00:00Z,40.15,44.4,22.0,2.0,160,7,,6.21,29.704725,,,,,,TRUE,,,,,FEW,4000,,,,,,,VFR,,,,,,,,,,,,METAR,851.0
UDSG 301000Z 17016KT 9999 SCT046CB 15/02 Q1010 NOSIG,UDSG,2023-04-30T10:00:00Z,40.75,43.87,15.0,2.0,170,16,,6.21,29.822834,,,,,,TRUE,,,,,SCT,4600,,,,,,,VFR,,,,,,,,,,,,METAR,1515.0
UCFO 301000Z VRB01MPS 9999 SCT050CB 27/04 Q1010 NOSIG,UCFO,2023-04-30T10:00:00Z,40.6,72.8,27.0,4.0,0,2,,6.21,29.822834,,,,,,TRUE,,,,,SCT,5000,,,,,,,VFR,,,,,,,,,,,,METAR,881.0
UCFM 301000Z 17005MPS 9999 SCT066CB 26/04 Q1009 NOSIG,UCFM,2023-04-30T10:00:00Z,43.07,74.48,26.0,4.0,170,10,,6.21,29.793306,,,,,,TRUE,,,,,SCT,6600,,,,,,,VFR,,,,,,,,,,,,METAR,632.0
UCFL 301000Z 26012MPS 9999 SCT030CB 19/M02 Q1014,UCFL,2023-04-30T10:00:00Z,42.58,76.7,19.0,-2.0,260,23,,6.21,29.940945,,,,,,,,,,,SCT,3000,,,,,,,VFR,,,,,,,,,,,,METAR,1654.0
UBEE 301000Z 13009KT 9999 FEW043 SCT073CB OVC100 26/14 Q1004 NOSIG,UBEE,2023-04-30T10:00:00Z,40.63,47.13,26.0,14.0,130,9,,6.21,29.64567,,,,,,TRUE,,,,,FEW,4300,SCT,7300,OVC,10000,,,VFR,,,,,,,,,,,,METAR,14.0
UBBZ 301000Z 04016KT 9999 FEW050CB BKN100 25/14 Q1006 NOSIG RMK MT OP,UBBZ,2023-04-30T10:00:00Z,39.1,46.73,25.0,14.0,40,16,,6.21,29.704725,,,,,,TRUE,,,,,FEW,5000,BKN,10000,,,,,VFR,,,,,,,,,,,,METAR,489.0
UBBY 301000Z 23004KT 9999 FEW035CB SCT040 BKN100 23/13 Q1009 NOSIG RMK MT OP,UBBY,2023-04-30T10:00:00Z,41.57,46.67,23.0,13.0,230,4,,6.21,29.793306,,,,,,TRUE,,,,,FEW,3500,SCT,4000,BKN,10000,,,VFR,,,,,,,,,,,,METAR,383.0
UBBQ 301000Z 12012KT 9999 BKN150 29/11 Q1006 NOSIG RMK MT PT OBSC,UBBQ,2023-04-30T10:00:00Z,40.82,47.72,29.0,11.0,120,12,,6.21,29.704725,,,,,,TRUE,,,,,BKN,15000,,,,,,,VFR,,,,,,,,,,,,METAR,339.0
UBBN 301000Z 18016G26KT 9999 FEW046CB BKN100 24/M05 Q1006 NOSIG RMK MT OP QFE680,UBBN,2023-04-30T10:00:00Z,39.18,45.45,24.0,-5.0,180,16,26,6.21,29.704725,,,,,,TRUE,,,,,FEW,4600,BKN,10000,,,,,VFR,,,,,,,,,,,,METAR,857.0
UBBL 301000Z 13011KT 9999 SCT060TCU BKN100 20/16 Q1006 NOSIG RMK MT OP,UBBL,2023-04-30T10:00:00Z,38.75,48.82,20.0,16.0,130,11,,6.21,29.704725,,,,,,TRUE,,,,,SCT,6000,BKN,10000,,,,,VFR,,,,,,,,,,,,METAR,-11.0
UBBG 301000Z 26006KT 230V290 9999 FEW050CB BKN083 19/15 Q1006 NOSIG,UBBG,2023-04-30T10:00:00Z,40.73,46.32,19.0,15.0,260,6,,6.21,29.704725,,,,,,TRUE,,,,,FEW,5000,BKN,8300,,,,,VFR,,,,,,,,,,,,METAR,333.0
UBBF 301000Z 11012KT 9999 VCTS SCT040CB BKN070 24/15 Q1006 RETS NOSIG RMK MT OP,UBBF,2023-04-30T10:00:00Z,39.6,47.2,24.0,15.0,110,12,,6.21,29.704725,,,,,,TRUE,,,,VCTS,SCT,4000,BKN,7000,,,,,VFR,,,,,,,,,,,,METAR,370.0
UBBB 301000Z 32010KT CAVOK 22/14 Q1007 NOSIG,UBBB,2023-04-30T10:00:00Z,40.47,50.07,22.0,14.0,320,10,,6.21,29.734253,,,,,,TRUE,,,,,CAVOK,,,,,,,,VFR,,,,,,,,,,,,METAR,94.0
UAUU 301000Z 16003MPS 120V250 CAVOK 20/M08 Q1021 NOSIG RMK QFE749/0999,UAUU,2023-04-30T10:00:00Z,53.2,63.55,20.0,-8.0,160,6,,6.21,30.147638,,,,,,TRUE,,,,,CAVOK,,,,,,,,VFR,,,,,,,,,,,,SPECI,177.0
UATT 301000Z 14005MPS 090V160 CAVOK 25/06 Q1018 NOSIG RMK QFE744/0992,UATT,2023-04-30T10:00:00Z,50.25,57.2,25.0,6.0,140,10,,6.21,30.059055,,,,,,TRUE,,,,,CAVOK,,,,,,,,VFR,,,,,,,,,,,,SPECI,217.0
UATG 301000Z 15010MPS CAVOK 34/01 Q1009 NOSIG RMK QFE759/1012,UATG,2023-04-30T10:00:00Z,47.12,51.83,34.0,1.0,150,19,,6.21,29.793306,,,,,,TRUE,,,,,CAVOK,,,,,,,,VFR,,,,,,,,,,,,SPECI,-23.0
UATE 301000Z 17009MPS CAVOK 30/08 Q1007 NOSIG RMK QFE753/1005,UATE,2023-04-30T10:00:00Z,43.87,51.1,30.0,8.0,170,17,,6.21,29.734253,,,,,,TRUE,,,,,CAVOK,,,,,,,,VFR,,,,,,,,,,,,SPECI,21.0
UASS 301000Z 29009G17MPS 260V340 CAVOK 14/M09 Q1013 NOSIG RMK QFE742/0989,UASS,2023-04-30T10:00:00Z,50.35,80.23,14.0,-9.0,290,17,33,6.21,29.911417,,,,,,TRUE,,,,,CAVOK,,,,,,,,VFR,,,,,,,,,,,,SPECI,215.0
UASP 301000Z 32010MPS CAVOK 13/M08 Q1016 NOSIG RMK QFE751/1002,UASP,2023-04-30T10:00:00Z,52.2,77.07,13.0,-8.0,320,19,,6.21,30.0,,,,,,TRUE,,,,,CAVOK,,,,,,,,VFR,,,,,,,,,,,,SPECI,122.0
UASK 301000Z 31010MPS 270V330 9999 NSC 15/M10 Q1010 NOSIG RMK QFE732/0977,UASK,2023-04-30T10:00:00Z,50.03,82.5,15.0,-10.0,310,19,,6.21,29.822834,,,,,,TRUE,,,,,CLR,,,,,,,,VFR,,,,,,,,,,,,METAR,285.0
UARR 301000Z 12007MPS CAVOK 29/10 Q1013 NOSIG RMK QFE756/1009,UARR,2023-04-30T10:00:00Z,51.15,51.53,29.0,10.0,120,14,,6.21,29.911417,,,,,,TRUE,,,,,CAVOK,,,,,,,,VFR,,,,,,,,,,,,SPECI,33.0
UAOO 301000Z 07007MPS CAVOK 32/M00 Q1010 NOSIG RMK QFE746/0994,UAOO,2023-04-30T10:00:00Z,44.7,65.6,32.0,0.0,70,14,,6.21,29.822834,,,,,,TRUE,,,,,CAVOK,,,,,,,,VFR,,,,,,,,,,,,SPECI,130.0
UAKK 301000Z 02006G11MPS 360V060 CAVOK 15/M10 Q1017 NOSIG RMK QFE716/0954,UAKK,2023-04-30T10:00:00Z,49.68,73.35,15.0,-10.0,20,12,21,6.21,30.029528,,,,,,TRUE,,,,,CAVOK,,,,,,,,VFR,,,,,,,,,,,,SPECI,532.0
UAKD 301000Z 05009G14MPS CAVOK 23/M01 Q1016 NOSIG RMK QFE728/0971,UAKD,2023-04-30T10:00:00Z,47.7,67.73,23.0,-1.0,50,17,27,6.21,30.0,,,,,,TRUE,,,,,CAVOK,,,,,,,,VFR,,,,,,,,,,,,SPECI,379.0
UAIT 301000Z 14003MPS CAVOK 31/00 Q1007 NOSIG RMK QFE731/0974,UAIT,2023-04-30T10:00:00Z,43.32,68.55,31.0,0.0,140,6,,6.21,29.734253,,,,,,TRUE,,,,,CAVOK,,,,,,,,VFR,,,,,,,,,,,,METAR,301.0
UAII 301000Z 27003MPS 240V300 CAVOK 31/01 Q1008 NOSIG RMK QFE721/0961,UAII,2023-04-30T10:00:00Z,42.37,69.48,31.0,1.0,270,6,,6.21,29.763779,,,,,,TRUE,,,,,CAVOK,,,,,,,,VFR,,,,,,,,,,,,SPECI,410.0
UADD 301000Z 02008MPS 9999 BKN050CB OVC100 28/03 Q1009 NOSIG RMK QFE699/0933,UADD,2023-04-30T10:00:00Z,42.85,71.3,28.0,3.0,20,16,,6.21,29.793306,,,,,,TRUE,,,,,BKN,5000,OVC,10000,,,,,VFR,,,,,,,,,,,,SPECI,663.0
UACP 301000Z 33007MPS CAVOK 10/M09 Q1022 NOSIG RMK QFE754/1005,UACP,2023-04-30T10:00:00Z,54.78,69.18,10.0,-9.0,330,14,,6.21,30.177166,,,,,,TRUE,,,,,CAVOK,,,,,,,,VFR,,,,,,,,,,,,SPECI,134.0
UACK 301000Z 35008MPS 320V020 CAVOK 16/M08 Q1020 NOSIG RMK QFE741/0988,UACK,2023-04-30T10:00:00Z,53.32,69.58,16.0,-8.0,350,16,,6.21,30.11811,,,,,,TRUE,,,,,CAVOK,,,,,,,,VFR,,,,,,,,,,,,METAR,261.0
UACC 301000Z 01006MPS 330V050 CAVOK 14/M09 Q1020 NOSIG RMK QFE733/0978,UACC,2023-04-30T10:00:00Z,51.02,71.47,14.0,-9.0,10,12,,6.21,30.11811,,,,,,TRUE,,,,,CAVOK,,,,,,,,VFR,,,,,,,,,,,,METAR,354.0
UAAT 301000Z 31004MPS 260V340 9999 BKN050CB BKN100 26/04 Q1008 NOSIG RMK QFE705/0940,UAAT,2023-04-30T10:00:00Z,45.12,78.45,26.0,4.0,310,8,,6.21,29.763779,,,,,,TRUE,,,,,BKN,5000,BKN,10000,,,,,VFR,,,,,,,,,,,,METAR,588.0
UAAH 301000Z 07008MPS CAVOK 24/M00 Q1011 NOSIG RMK QFE721/0961,UAAH,2023-04-30T10:00:00Z,46.9,75.0,24.0,0.0,70,16,,6.21,29.852362,,,,,,TRUE,,,,,CAVOK,,,,,,,,VFR,,,,,,,,,,,,SPECI,427.0
UAAA 301000Z 17008MPS 9999 SCT050CB BKN100 20/06 Q1011 TEMPO 16010G15MPS,UAAA,2023-04-30T10:00:00Z,43.35,77.03,20.0,6.0,170,16,,6.21,29.852362,,,,,,,,,,,SCT,5000,BKN,10000,,,,,VFR,,,,,,,,,,,,SPECI,673.0
TTPP 301000Z 11003KT 9999 FEW018 25/23 Q1014 NOSIG,TTPP,2023-04-30T10:00:00Z,10.58,-61.35,25.0,23.0,110,3,,6.21,29.940945,,,,,,TRUE,,,,,FEW,1800,,,,,,,VFR,,,,,,,,,,,,METAR,11.0
TTCP 301000Z 10008KT 9999 VCSH FEW016 26/23 Q1014 NOSIG RMK VCSH NE,TTCP,2023-04-30T10:00:00Z,11.15,-60.85,26.0,23.0,100,8,,6.21,29.940945,,,,,,TRUE,,,,VCSH,FEW,1600,,,,,,,VFR,,,,,,,,,,,,METAR,13.0
TNCM 301000Z 02006KT 9999 VCSH FEW015TCU SCT016 26/24 Q1017 TEMPO SHRA RMK TCU+VCSH NNE,TNCM,2023-04-30T10:00:00Z,18.05,-63.12,26.0,24.0,20,6,,6.21,30.029528,,,,,,,,,,VCSH,FEW,1500,SCT,1600,,,,,VFR,,,,,,,,,,,,METAR,9.0
TNCC 301000Z 11009KT 9999 FEW015 26/24 Q1012 NOSIG,TNCC,2023-04-30T10:00:00Z,12.2,-68.97,26.0,24.0,110,9,,6.21,29.88189,,,,,,TRUE,,,,,FEW,1500,,,,,,,VFR,,,,,,,,,,,,METAR,10.0
TNCA 301000Z 10019KT 9999 FEW017 27/24 Q1011 NOSIG,TNCA,2023-04-30T10:00:00Z,12.5,-70.0,27.0,24.0,100,19,,6.21,29.852362,,,,,,TRUE,,,,,FEW,1700,,,,,,,VFR,,,,,,,,,,,,METAR,7.0
TLPL 301000Z 11014KT 9999 FEW024 27/21 Q1015 NOSIG,TLPL,2023-04-30T10:00:00Z,13.75,-60.95,27.0,21.0,110,14,,6.21,29.970472,,,,,,TRUE,,,,,FEW,2400,,,,,,,VFR,,,,,,,,,,,,METAR,13.0
TKPK 301000Z 05005KT 9999 FEW016 25/23 Q1016,TKPK,2023-04-30T10:00:00Z,17.3,-62.72,25.0,23.0,50,5,,6.21,30.0,,,,,,,,,,,FEW,1600,,,,,,,VFR,,,,,,,,,,,,METAR,62.0
TGPY 301000Z 09017KT 9999 FEW017 27/24 Q1014 NOSIG,TGPY,2023-04-30T10:00:00Z,12.0,-61.78,27.0,24.0,90,17,,6.21,29.940945,,,,,,TRUE,,,,,FEW,1700,,,,,,,VFR,,,,,,,,,,,,METAR,12.0
TFFR 301000Z AUTO 10003KT 9999 FEW019 24/23 Q1015 NOSIG,TFFR,2023-04-30T10:00:00Z,16.27,-61.53,24.0,23.0,100,3,,6.21,29.970472,,,TRUE,,,TRUE,,,,,FEW,1900,,,,,,,VFR,,,,,,,,,,,,METAR,6.0
TFFF 301000Z AUTO 13003KT 9999 ////// 24/22 Q1015,TFFF,2023-04-30T10:00:00Z,14.6,-61.0,24.0,22.0,130,3,,6.21,29.970472,,,TRUE,,,,,,,,,,,,,,,,,,,,,,,,,,,,METAR,3.0
TDPD 301000Z 29003KT 9999 BKN021 24/24 Q1016,TDPD,2023-04-30T10:00:00Z,15.55,-61.3,24.0,24.0,290,3,,6.21,30.0,,,,,,,,,,,BKN,2100,,,,,,,MVFR,,,,,,,,,,,,METAR,13.0
TBPB 301000Z 09006KT 9999 BKN020 26/24 Q1015 NOSIG,TBPB,2023-04-30T10:00:00Z,13.07,-59.48,26.0,24.0,90,6,,6.21,29.970472,,,,,,TRUE,,,,,BKN,2000,,,,,,,MVFR,,,,,,,,,,,,METAR,55.0
TAPA 301000Z VRB01KT 9999 FEW020 25/23 Q1016 NOSIG,TAPA,2023-04-30T10:00:00Z,17.13,-61.78,25.0,23.0,0,1,,6.21,30.0,,,,,,TRUE,,,,,FEW,2000,,,,,,,VFR,,,,,,,,,,,,METAR,15.0
SYCJ 301000Z 10006KT 9999 FEW020 24/24 Q1014 NOSIG,SYCJ,2023-04-30T10:00:00Z,6.5,-58.25,24.0,24.0,100,6,,6.21,29.940945,,,,,,TRUE,,,,,FEW,2000,,,,,,,VFR,,,,,,,,,,,,METAR,30.0
SUSO 301000Z 05005KT CAVOK SCT023 BKN200 19/17 Q1009,SUSO,2023-04-30T10:00:00Z,-31.43,-57.98,19.0,17.0,50,5,,6.21,29.793306,,,,,,,,,,,SCT,2300,BKN,20000,,,,,VFR,,,,,,,,,,,,METAR,37.0
SULS 301000Z 04006KT CAVOK 18/15 Q1010,SULS,2023-04-30T10:00:00Z,-34.87,-55.1,18.0,15.0,40,6,,6.21,29.822834,,,,,,,,,,,CAVOK,,,,,,,,VFR,,,,,,,,,,,,METAR,22.0
SUCA 301000Z 02013KT CAVOK 20/15 Q1007,SUCA,2023-04-30T10:00:00Z,-34.45,-57.77,20.0,15.0,20,13,,6.21,29.734253,,,,,,,,,,,CAVOK,,,,,,,,VFR,,,,,,,,,,,,METAR,26.0
SUAA 301000Z 02014KT CAVOK 18/15 Q1009,SUAA,2023-04-30T10:00:00Z,-34.78,-56.25,18.0,15.0,20,14,,6.21,29.793306,,,,,,,,,,,CAVOK,,,,,,,,VFR,,,,,,,,,,,,METAR,48.0
SPUR 301000Z 07002KT 9999 SCT030 BKN100 24/22 Q1012 RMK PP000,SPUR,2023-04-30T10:00:00Z,-5.17,-80.58,24.0,22.0,70,2,,6.21,29.88189,,,,,,,,,,,SCT,3000,BKN,10000,,,,,VFR,,,,,,,,,,,,METAR,55.0
SPSO 301000Z 19001KT 9000 4000NE NSC 19/17 Q1013 RMK FU PP000,SPSO,2023-04-30T10:00:00Z,-13.73,-76.22,19.0,17.0,190,1,,5.59,29.911417,,,,,,,,,,,CLR,,,,,,,,VFR,,,,,,,,,,,,SPECI,8.0
SPRU 301000Z 14007KT 7000 BCFG BKN060 23/20 Q1012 RMK PP000,SPRU,2023-04-30T10:00:00Z,-8.08,-79.12,23.0,20.0,140,7,,4.35,29.88189,,,,,,,,,,BCFG,BKN,6000,,,,,,,MVFR,,,,,,,,,,,,METAR,23.0
SPQT 301000Z 31003KT 280V340 9999 SCT005 BKN012 BKN100 25/24 Q1012 NOSIG RMK PP000,SPQT,2023-04-30T10:00:00Z,-3.78,-73.32,25.0,24.0,310,3,,6.21,29.88189,,,,,,TRUE,,,,,SCT,500,BKN,1200,BKN,10000,,,MVFR,,,,,,,,,,,,SPECI,92.0
SPJC 301000Z 17007KT 9999 OVC017 23/19 Q1013 NOSIG RMK PP000,SPJC,2023-04-30T10:00:00Z,-12.02,-77.12,23.0,19.0,170,7,,6.21,29.911417,,,,,,TRUE,,,,,OVC,1700,,,,,,,MVFR,,,,,,,,,,,,SPECI,26.0
SPHO 301000Z 00000KT 9999 FEW035 11/03 Q1029 RMK PP000,SPHO,2023-04-30T10:00:00Z,-13.17,-74.22,11.0,3.0,0,0,,6.21,30.383858,,,,,,,,,,,FEW,3500,,,,,,,VFR,,,,,,,,,,,,METAR,2743.0
SPHI 301000Z 17004KT CAVOK 24/21 Q1012 RMK BIRD HAZARD RWY 19/01 PP000,SPHI,2023-04-30T10:00:00Z,-6.78,-79.82,24.0,21.0,170,4,,6.21,29.88189,,,,,,,,,,,CAVOK,,,,,,,,VFR,,,,,,,,,,,,METAR,33.0
SOCA 301000Z AUTO 00000KT 9999 FEW024 SCT046 BKN064 23/23 Q1013 TEMPO 4500 -SHRA SCT015TCU BKN025,SOCA,2023-04-30T10:00:00Z,4.82,-52.37,23.0,23.0,0,0,,6.21,29.911417,,,TRUE,,,,,,,,FEW,2400,SCT,4600,BKN,6400,,,VFR,,,,,,,,,,,,METAR,7.0
SMZO 301000Z 00000KT 9999 SCT010 SCT020 24/23 Q1013 NOSIG,SMZO,2023-04-30T10:00:00Z,5.82,-55.18,24.0,23.0,0,0,,6.21,29.911417,,,,,,TRUE,,,,,SCT,1000,SCT,2000,,,,,VFR,,,,,,,,,,,,METAR,7.0
SMJP 301000Z 00000KT 0800 FG SCT000 23/23 Q1013 BECMG FM 0730 2000 BR,SMJP,2023-04-30T10:00:00Z,5.45,-55.18,23.0,23.0,0,0,,0.5,29.911417,,,,,,,,,,FG,SCT,0,,,,,,,LIFR,,,,,,,,,,,,SPECI,14.0
SLVR 301000Z 35014KT 9999 FEW010 SCT017 24/23 Q1010,SLVR,2023-04-30T10:00:00Z,-17.63,-63.13,24.0,23.0,350,14,,6.21,29.822834,,,,,,,,,,,FEW,1000,SCT,1700,,,,,VFR,,,,,,,,,,,,METAR,377.0
SLTR 301000Z 00000KT 9999 FEW080 24/24 Q1011,SLTR,2023-04-30T10:00:00Z,-14.83,-64.92,24.0,24.0,0,0,,6.21,29.852362,,,,,,,,,,,FEW,8000,,,,,,,VFR,,,,,,,,,,,,METAR,157.0
SLLP 301000Z VRB02KT 9999 NSC 03/M03 Q1039,SLLP,2023-04-30T10:00:00Z,-16.52,-68.17,3.0,-3.0,0,2,,6.21,30.679134,,,,,,,,,,,CLR,,,,,,,,VFR,,,,,,,,,,,,METAR,4061.0
SLET 301000Z 32013G24KT 9999 BKN010 BKN017 25/24 Q1010,SLET,2023-04-30T10:00:00Z,-17.8,-63.17,25.0,24.0,320,13,24,6.21,29.822834,,,,,,,,,,,BKN,1000,BKN,1700,,,,,MVFR,,,,,,,,,,,,METAR,421.0
SLCB 301000Z 28003KT 9999 NSC 09/05 Q1023,SLCB,2023-04-30T10:00:00Z,-17.42,-66.18,9.0,5.0,280,3,,6.21,30.206694,,,,,,,,,,,CLR,,,,,,,,VFR,,,,,,,,,,,,METAR,2560.0
SKSP 301000Z 10005KT 060V150 9999 FEW016 28/24 Q1012 RMK A2989,SKSP,2023-04-30T10:00:00Z,12.58,-81.72,28.0,24.0,100,5,,6.21,29.88189,,,,,,,,,,,FEW,1600,,,,,,,VFR,,,,,,,,,,,,METAR,6.0
SKRG 301000Z 01006KT 7000 DZ BKN008 OVC080 15/15 Q1026 NOSIG RMK A3031,SKRG,2023-04-30T10:00:00Z,6.17,-75.42,15.0,15.0,10,6,,4.35,30.295275,,,,,,TRUE,,,,DZ,BKN,800,OVC,8000,,,,,IFR,,,,,,,,,,,,METAR,2132.0
SKPE 301000Z 13004KT 9999 SCT017 SCT080 20/17 Q1018 RMK A3008,SKPE,2023-04-30T10:00:00Z,4.82,-75.73,20.0,17.0,130,4,,6.21,30.059055,,,,,,,,,,,SCT,1700,SCT,8000,,,,,VFR,,,,,,,,,,,,SPECI,1341.0
SKLT 301000Z VRB02KT 8000 RA OVC010 23/23 Q1013 RMK A2992,SKLT,2023-04-30T10:00:00Z,-4.2,-69.93,23.0,23.0,0,2,,4.97,29.911417,,,,,,,,,,RA,OVC,1000,,,,,,,MVFR,,,,,,,,,,,,METAR,78.0
SKCL 301000Z 06004KT 9000 SCT015 SCT080 21/20 Q1016 NOSIG RMK HZ A3003,SKCL,2023-04-30T10:00:00Z,3.53,-76.37,21.0,20.0,60,4,,5.59,30.0,,,,,,TRUE,,,,,SCT,1500,SCT,8000,,,,,VFR,,,,,,,,,,,,METAR,967.0
SKCG 301000Z 00000KT 9999 FEW017 SCT200 27/25 Q1010 RMK A2983,SKCG,2023-04-30T10:00:00Z,10.43,-75.52,27.0,25.0,0,0,,6.21,29.822834,,,,,,,,,,,FEW,1700,SCT,20000,,,,,VFR,,,,,,,,,,,,METAR,6.0
SKBQ 301000Z 04004KT 7000 VCFG BKN008 27/26 Q1010 NOSIG RMK A2984,SKBQ,2023-04-30T10:00:00Z,10.87,-74.77,27.0,26.0,40,4,,4.35,29.822834,,,,,,TRUE,,,,VCFG,BKN,800,,,,,,,IFR,,,,,,,,,,,,METAR,23.0
SKBO 301000Z 00000KT 9999 FEW015 BKN070 12/11 Q1027 NOSIG RMK A3034,SKBO,2023-04-30T10:00:00Z,4.7,-74.15,12.0,11.0,0,0,,6.21,30.324802,,,,,,TRUE,,,,,FEW,1500,BKN,7000,,,,,VFR,,,,,,,,,,,,METAR,2547.0
SGES 301000Z 09004KT CAVOK 17/17 Q1015,SGES,2023-04-30T10:00:00Z,-25.45,-54.85,17.0,17.0,90,4,,6.21,29.970472,,,,,,,,,,,CAVOK,,,,,,,,VFR,,,,,,,,,,,,METAR,256.0
SGEN 301000Z 07010KT CAVOK 20/16 Q1014,SGEN,2023-04-30T10:00:00Z,-27.23,-55.83,20.0,16.0,70,10,,6.21,29.940945,,,,,,,,,,,CAVOK,,,,,,,,VFR,,,,,,,,,,,,METAR,202.0
SGAS 301000Z 07009KT CAVOK 22/19 Q1011,SGAS,2023-04-30T10:00:00Z,-25.25,-57.52,22.0,19.0,70,9,,6.21,29.852362,,,,,,,,,,,CAVOK,,,,,,,,VFR,,,,,,,,,,,,METAR,83.0
SEQM 301000Z 05003KT 9999 SCT005 BKN020 13/12 Q1027 NOSIG RMK A3034,SEQM,2023-04-30T10:00:00Z,-0.12,-78.35,13.0,12.0,50,3,,6.21,30.324802,,,,,,TRUE,,,,,SCT,500,BKN,2000,,,,,MVFR,,,,,,,,,,,,SPECI,2386.0
SELT 301000Z 19002KT 9999FEW010 BKN033 09/09 Q1031,SELT,2023-04-30T10:00:00Z,-0.92,-78.62,9.0,9.0,190,2,,,30.442913,,,,,,,,,,,FEW,1000,BKN,3300,,,,,,,,,,,,,,,,,SPECI,2779.0
SEGU 301000Z METAR 12002KT 9999 BKN020 BKN100 25/24 Q1010 NOSIG RMK A2985,SEGU,2023-04-30T10:00:00Z,-2.15,-79.88,25.0,24.0,120,2,,6.21,29.822834,,,,,,TRUE,,,,,BKN,2000,BKN,10000,,,,,MVFR,,,,,,,,,,,,METAR,6.0
SCVM 301000Z 18006KT 9999 BKN016 13/12 Q1021,SCVM,2023-04-30T10:00:00Z,-32.95,-71.48,13.0,12.0,180,6,,6.21,30.147638,,,,,,,,,,,BKN,1600,,,,,,,MVFR,,,,,,,,,,,,METAR,136.0
SCVD 301000Z AUTO VRB02KT //// R35///// FEW020 SCT025 OVC033 08/07 Q1016,SCVD,2023-04-30T10:00:00Z,-39.65,-73.08,8.0,7.0,0,2,,,30.0,,,TRUE,,,,,,,,FEW,2000,SCT,2500,OVC,3300,,,,,,,,,,,,,,,SPECI,19.0
SCTN 301000Z AUTO 30004KT 260V330 9999 SCT015 BKN030 OVC038 08/07 Q1014,SCTN,2023-04-30T10:00:00Z,-42.92,-72.7,8.0,7.0,300,4,,6.21,29.940945,,,TRUE,,,,,,,,SCT,1500,BKN,3000,OVC,3800,,,MVFR,,,,,,,,,,,,METAR,8.0
SCTE 301000Z 35002KT 9999 SCT004 BKN040 05/05 Q1014 NOSIG,SCTE,2023-04-30T10:00:00Z,-41.43,-73.08,5.0,5.0,350,2,,6.21,29.940945,,,,,,TRUE,,,,,SCT,400,BKN,4000,,,,,VFR,,,,,,,,,,,,METAR,85.0
SCSN 301000Z AUTO VRB02KT //// R/////// // NCD 13/13 Q1021,SCSN,2023-04-30T10:00:00Z,-33.65,-71.62,13.0,13.0,0,2,,,30.147638,,,TRUE,,,,,,,,CLR,,,,,,,,,,,,,,,,,,,,METAR,73.0
SCSE 301000Z AUTO 31001KT 9999 OVC032/// 16/16 Q1019,SCSE,2023-04-30T10:00:00Z,-29.92,-71.2,16.0,16.0,310,1,,6.21,30.088583,,,TRUE,,,,,,,,OVC,3200,,,,,,,VFR,,,,,,,,,,,,METAR,141.0
SCQP 301000Z 31006KT 9999 FEW020 SCT032 09/07 Q1017,SCQP,2023-04-30T10:00:00Z,-38.92,-72.65,9.0,7.0,310,6,,6.21,30.029528,,,,,,,,,,,FEW,2000,SCT,3200,,,,,VFR,,,,,,,,,,,,METAR,97.0
SCPQ 301000Z AUTO 22003KT 9999 FEW040 04/03 Q1013,SCPQ,2023-04-30T10:00:00Z,-42.33,-73.72,4.0,3.0,220,3,,6.21,29.911417,,,TRUE,,,,,,,,FEW,4000,,,,,,,VFR,,,,,,,,,,,,METAR,166.0
SCPD 301000Z AUTO 36009KT //// ///////// 14/08 Q1020,SCPD,2023-04-30T10:00:00Z,,,14.0,8.0,360,9,,,30.11811,,,TRUE,,,,,,,,,,,,,,,,,,,,,,,,,,,,METAR,
SCON 301000Z AUTO 29003KT 9999 FEW038/// 05/04 Q1014,SCON,2023-04-30T10:00:00Z,-43.13,-73.62,5.0,4.0,290,3,,6.21,29.940945,,,TRUE,,,,,,,,FEW,3800,,,,,,,VFR,,,,,,,,,,,,METAR,11.0
SCMK 301000Z AUTO 21009KT //// // OVC070/// 08/05 Q1013,SCMK,2023-04-30T10:00:00Z,-43.9,-73.73,8.0,5.0,210,9,,,29.911417,,,TRUE,,,,,,,,OVC,7000,,,,,,,,,,,,,,,,,,,METAR,22.0
SCIP 301000Z 10011KT CAVOK 20/14 Q1027 NOSIG,SCIP,2023-04-30T10:00:00Z,-27.17,-109.43,20.0,14.0,100,11,,6.21,30.324802,,,,,,TRUE,,,,,CAVOK,,,,,,,,VFR,,,,,,,,,,,,METAR,48.0
SCIE 301000Z VRB02KT 9999 FEW035 SCT059 09/09 Q1019,SCIE,2023-04-30T10:00:00Z,-36.77,-73.07,9.0,9.0,0,2,,6.21,30.088583,,,,,,,,,,,FEW,3500,SCT,5900,,,,,VFR,,,,,,,,,,,,METAR,8.0
SCHR 301000Z AUTO VRB02KT 9999 OVC037 05/03 Q1006,SCHR,2023-04-30T10:00:00Z,-47.23,-72.58,5.0,3.0,0,2,,6.21,29.704725,,,TRUE,,,,,,,,OVC,3700,,,,,,,VFR,,,,,,,,,,,,METAR,203.0
SCFT 301000Z AUTO 28004KT 260V320 9999 SCT011/// BKN026/// BKN057/// 03/03 Q1012,SCFT,2023-04-30T10:00:00Z,-43.18,-71.85,3.0,3.0,280,4,,6.21,29.88189,,,TRUE,,,,,,,,SCT,1100,BKN,2600,BKN,5700,,,MVFR,,,,,,,,,,,,METAR,345.0
SCFA 301000Z 07004KT CAVOK 13/11 Q1016 NOSIG,SCFA,2023-04-30T10:00:00Z,-23.43,-70.43,13.0,11.0,70,4,,6.21,30.0,,,,,,TRUE,,,,,CAVOK,,,,,,,,VFR,,,,,,,,,,,,METAR,113.0
SCEL 301000Z 27004KT 9999 BKN025 BKN035 12/11 Q1020 NOSIG,SCEL,2023-04-30T10:00:00Z,-33.38,-70.78,12.0,11.0,270,4,,6.21,30.11811,,,,,,TRUE,,,,,BKN,2500,BKN,3500,,,,,MVFR,,,,,,,,,,,,METAR,478.0
SCDA 301000Z 00000KT 9999 OVC030 19/15 Q1016,SCDA,2023-04-30T10:00:00Z,-20.53,-70.17,19.0,15.0,0,0,,6.21,30.0,,,,,,,,,,,OVC,3000,,,,,,,MVFR,,,,,,,,,,,,METAR,41.0
SCCY 301000Z AUTO VRB02KT 9999 FEW042 04/03 Q1009,SCCY,2023-04-30T10:00:00Z,-45.58,-72.1,4.0,3.0,0,2,,6.21,29.793306,,,TRUE,,,,,,,,FEW,4200,,,,,,,VFR,,,,,,,,,,,,METAR,301.0
SCCI 301000Z 29004KT 9999 BKN045 02/M03 Q1004 NOSIG,SCCI,2023-04-30T10:00:00Z,-53.0,-70.85,2.0,-3.0,290,4,,6.21,29.64567,,,,,,TRUE,,,,,BKN,4500,,,,,,,VFR,,,,,,,,,,,,METAR,37.0
SCCH 301000Z AUTO 36005KT 9999 -RA ///////// 10/09 Q1019 RESHRA,SCCH,2023-04-30T10:00:00Z,-36.57,-72.02,10.0,9.0,360,5,,6.21,30.088583,,,TRUE,,,,,,,-RA,,,,,,,,,,,,,,,,,,,,,SPECI,148.0
SCCF 301000Z 10020KT CAVOK 03/M11 Q1028,SCCF,2023-04-30T10:00:00Z,-22.5,-68.9,3.0,-11.0,100,20,,6.21,30.35433,,,,,,,,,,,CAVOK,,,,,,,,VFR,,,,,,,,,,,,METAR,2290.0
SCBA 301000Z AUTO 30014KT 9999 NCD 02/00 Q1007,SCBA,2023-04-30T10:00:00Z,-45.92,-71.68,2.0,0.0,300,14,,6.21,29.734253,,,TRUE,,,,,,,,CLR,,,,,,,,VFR,,,,,,,,,,,,METAR,516.0
SCAR 301000Z 33003KT 9999 OVC030 21/15 Q1016,SCAR,2023-04-30T10:00:00Z,-18.35,-70.33,21.0,15.0,330,3,,6.21,30.0,,,,,,,,,,,OVC,3000,,,,,,,MVFR,,,,,,,,,,,,METAR,57.0
SCAP 301000Z AUTO VRB01KT 9999 ////// 04/02 Q1015,SCAP,2023-04-30T10:00:00Z,-43.62,-71.8,4.0,2.0,0,1,,6.21,29.970472,,,TRUE,,,,,,,,,,,,,,,,,,,,,,,,,,,,METAR,252.0
SBVT 301000Z 32001KT 9999 SCT040 BKN070 23/22 Q1017,SBVT,2023-04-30T10:00:00Z,-20.25,-40.28,23.0,22.0,320,1,,6.21,30.029528,,,,,,,,,,,SCT,4000,BKN,7000,,,,,VFR,,,,,,,,,,,,METAR,4.0
SBTE 301000Z 21003KT 9999 SCT006 BKN008 25/24 Q1013,SBTE,2023-04-30T10:00:00Z,-5.05,-42.82,25.0,24.0,210,3,,6.21,29.911417,,,,,,,,,,,SCT,600,BKN,800,,,,,IFR,,,,,,,,,,,,METAR,60.0
SBSV 301000Z 11007KT 9999 SCT020 28/25 Q1015,SBSV,2023-04-30T10:00:00Z,-12.9,-38.32,28.0,25.0,110,7,,6.21,29.970472,,,,,,,,,,,SCT,2000,,,,,,,VFR,,,,,,,,,,,,METAR,9.0
SBSP 301000Z 10002KT 9000 BKN010 18/16 Q1021,SBSP,2023-04-30T10:00:00Z,-23.62,-46.65,18.0,16.0,100,2,,5.59,30.147638,,,,,,,,,,,BKN,1000,,,,,,,MVFR,,,,,,,,,,,,METAR,802.0
SBSN 301000Z 09004KT 9999 FEW020 SCT100 25/25 Q1012,SBSN,2023-04-30T10:00:00Z,-2.42,-54.78,25.0,25.0,90,4,,6.21,29.88189,,,,,,,,,,,FEW,2000,SCT,10000,,,,,VFR,,,,,,,,,,,,METAR,57.0
SBSL 301000Z 07004KT CAVOK 27/26 Q1012,SBSL,2023-04-30T10:00:00Z,-2.58,-44.23,27.0,26.0,70,4,,6.21,29.88189,,,,,,,,,,,CAVOK,,,,,,,,VFR,,,,,,,,,,,,METAR,53.0
SBSJ 301000Z 00000KT 9999 BKN021 18/18 Q1020,SBSJ,2023-04-30T10:00:00Z,-23.22,-45.87,18.0,18.0,0,0,,6.21,30.11811,,,,,,,,,,,BKN,2100,,,,,,,MVFR,,,,,,,,,,,,METAR,640.0
SBSG 301000Z 23004KT 9999 BKN020 25/24 Q1014,SBSG,2023-04-30T10:00:00Z,-5.77,-35.37,25.0,24.0,230,4,,6.21,29.940945,,,,,,,,,,,BKN,2000,,,,,,,MVFR,,,,,,,,,,,,METAR,83.0
SBRP 301000Z 12005KT CAVOK 16/15 Q1017,SBRP,2023-04-30T10:00:00Z,-21.13,-47.77,16.0,15.0,120,5,,6.21,30.029528,,,,,,,,,,,CAVOK,,,,,,,,VFR,,,,,,,,,,,,METAR,550.0
SBRJ 301000Z 08005KT 9999 SCT020 23/21 Q1017,SBRJ,2023-04-30T10:00:00Z,-22.9,-43.17,23.0,21.0,80,5,,6.21,30.029528,,,,,,,,,,,SCT,2000,,,,,,,VFR,,,,,,,,,,,,METAR,6.0
SBRF 301000Z 11005KT 060V140 9999 VCSH FEW010 SCT023 FEW025TCU BKN045 27/24 Q1013,SBRF,2023-04-30T10:00:00Z,-8.13,-34.92,27.0,24.0,110,5,,6.21,29.911417,,,,,,,,,,VCSH,FEW,1000,SCT,2300,FEW,2500,BKN,4500,VFR,,,,,,,,,,,,METAR,10.0
SBRB 301000Z 34004KT CAVOK 24/24 Q1012,SBRB,2023-04-30T10:00:00Z,-9.87,-67.88,24.0,24.0,340,4,,6.21,29.88189,,,,,,,,,,,CAVOK,,,,,,,,VFR,,,,,,,,,,,,METAR,190.0
SBPV 301000Z 22001KT 9999 SCT030 24/23 Q1011,SBPV,2023-04-30T10:00:00Z,-8.72,-63.9,24.0,23.0,220,1,,6.21,29.852362,,,,,,,,,,,SCT,3000,,,,,,,VFR,,,,,,,,,,,,METAR,89.0
SBPS 301000Z 16003KT 100V200 9000 VCSH BKN020 BKN090 23/22 Q1016,SBPS,2023-04-30T10:00:00Z,-16.43,-39.07,23.0,22.0,160,3,,5.59,30.0,,,,,,,,,,VCSH,BKN,2000,BKN,9000,,,,,MVFR,,,,,,,,,,,,METAR,44.0
SBPL 301000Z 17008KT 9999 FEW020 BKN070 26/22 Q1016,SBPL,2023-04-30T10:00:00Z,-9.37,-40.57,26.0,22.0,170,8,,6.21,30.0,,,,,,,,,,,FEW,2000,BKN,7000,,,,,VFR,,,,,,,,,,,,METAR,386.0
SBPJ 301000Z 12003KT 9999 FEW025 FEW030TCU 25/23 Q1014,SBPJ,2023-04-30T10:00:00Z,-10.28,-48.37,25.0,23.0,120,3,,6.21,29.940945,,,,,,,,,,,FEW,2500,FEW,3000,,,,,VFR,,,,,,,,,,,,METAR,226.0
SBPA 301000Z 07002KT 6000 2000E BCFG NSC 15/14 Q1015,SBPA,2023-04-30T10:00:00Z,-30.0,-51.17,15.0,14.0,70,2,,3.73,29.970472,,,,,,,,,,BCFG,CLR,,,,,,,,MVFR,,,,,,,,,,,,SPECI,3.0
SBOI 301000Z 00000KT 7000 FEW002 BKN030 24/23 Q1013,SBOI,2023-04-30T10:00:00Z,3.85,-51.78,24.0,23.0,0,0,,4.35,29.911417,,,,,,,,,,,FEW,200,BKN,3000,,,,,MVFR,,,,,,,,,,,,METAR,15.0
SBNT 301000Z 19004KT 170V230 9999 FEW011 SCT020 FEW025TCU 25/24 Q1013 RERA,SBNT,2023-04-30T10:00:00Z,-5.92,-35.25,25.0,24.0,190,4,,6.21,29.911417,,,,,,,,,,,FEW,1100,SCT,2000,FEW,2500,,,VFR,,,,,,,,,,,,METAR,51.0
SBNF 301000Z 25007KT 0800 FG BKN002 OVC004 18/18 Q1018,SBNF,2023-04-30T10:00:00Z,-26.88,-48.65,18.0,18.0,250,7,,0.5,30.059055,,,,,,,,,,FG,BKN,200,OVC,400,,,,,LIFR,,,,,,,,,,,,METAR,5.0
SBMQ 301000Z 30002KT CAVOK 25/25 Q1012,SBMQ,2023-04-30T10:00:00Z,0.05,-51.07,25.0,25.0,300,2,,6.21,29.88189,,,,,,,,,,,CAVOK,,,,,,,,VFR,,,,,,,,,,,,METAR,15.0
SBMO 301000Z 03006KT 5000 -RA SCT008 BKN020 23/23 Q1015,SBMO,2023-04-30T10:00:00Z,-9.52,-35.78,23.0,23.0,30,6,,3.11,29.970472,,,,,,,,,,-RA,SCT,800,BKN,2000,,,,,MVFR,,,,,,,,,,,,METAR,116.0
SBMN 301000Z 07002KT 9999 FEW010 25/24 Q1012,SBMN,2023-04-30T10:00:00Z,-3.13,-59.98,25.0,24.0,70,2,,6.21,29.88189,,,,,,,,,,,FEW,1000,,,,,,,VFR,,,,,,,,,,,,METAR,71.0
SBMA 301000Z 00000KT 9999 FEW010 SCT100 24/24 Q1013,SBMA,2023-04-30T10:00:00Z,-5.37,-49.13,24.0,24.0,0,0,,6.21,29.911417,,,,,,,,,,,FEW,1000,SCT,10000,,,,,VFR,,,,,,,,,,,,METAR,110.0
SBLO 301000Z 18002KT CAVOK 16/16 Q1019,SBLO,2023-04-30T10:00:00Z,-23.33,-51.12,16.0,16.0,180,2,,6.21,30.088583,,,,,,,,,,,CAVOK,,,,,,,,VFR,,,,,,,,,,,,METAR,563.0
SBKP 301000Z 12008KT 9999 SCT045 17/16 Q1019,SBKP,2023-04-30T10:00:00Z,-23.0,-47.13,17.0,16.0,120,8,,6.21,30.088583,,,,,,,,,,,SCT,4500,,,,,,,VFR,,,,,,,,,,,,METAR,659.0
SBJP 301000Z 25004KT 220V280 9999 BKN018 FEW025TCU 26/25 Q1014,SBJP,2023-04-30T10:00:00Z,-7.15,-34.95,26.0,25.0,250,4,,6.21,29.940945,,,,,,,,,,,BKN,1800,FEW,2500,,,,,MVFR,,,,,,,,,,,,METAR,66.0
SBGR 301000Z 10004KT 9999 SCT017 BKN023 18/17 Q1020,SBGR,2023-04-30T10:00:00Z,-23.42,-46.47,18.0,17.0,100,4,,6.21,30.11811,,,,,,,,,,,SCT,1700,BKN,2300,,,,,MVFR,,,,,,,,,,,,METAR,745.0
SBGO 301000Z 12004KT CAVOK 19/18 Q1018,SBGO,2023-04-30T10:00:00Z,-16.62,-49.22,19.0,18.0,120,4,,6.21,30.059055,,,,,,,,,,,CAVOK,,,,,,,,VFR,,,,,,,,,,,,METAR,740.0
SBGL 301000Z 08003KT 9999 FEW013 SCT015 BKN020 21/20 Q1017,SBGL,2023-04-30T10:00:00Z,-22.82,-43.25,21.0,20.0,80,3,,6.21,30.029528,,,,,,,,,,,FEW,1300,SCT,1500,BKN,2000,,,MVFR,,,,,,,,,,,,METAR,3.0
SBFZ 301000Z 18003KT 140V240 6000 -SHRA SCT021 FEW030TCU 26/24 Q1013,SBFZ,2023-04-30T10:00:00Z,-3.77,-38.52,26.0,24.0,180,3,,3.73,29.911417,,,,,,,,,,-SHRA,SCT,2100,FEW,3000,,,,,MVFR,,,,,,,,,,,,METAR,32.0
SBFN 301000Z AUTO 12010KT 090V150 9999 SCT019 29/25 Q1013,SBFN,2023-04-30T10:00:00Z,-3.85,-32.42,29.0,25.0,120,10,,6.21,29.911417,,,TRUE,,,,,,,,SCT,1900,,,,,,,VFR,,,,,,,,,,,,METAR,52.0
SBFL 301000Z 33005KT CAVOK 20/20 Q1018,SBFL,2023-04-30T10:00:00Z,-27.67,-48.53,20.0,20.0,330,5,,6.21,30.059055,,,,,,,,,,,CAVOK,,,,,,,,VFR,,,,,,,,,,,,METAR,5.0
SBFI 301000Z 10006KT CAVOK 17/16 Q1016,SBFI,2023-04-30T10:00:00Z,-25.6,-54.48,17.0,16.0,100,6,,6.21,30.0,,,,,,,,,,,CAVOK,,,,,,,,VFR,,,,,,,,,,,,METAR,233.0
SBEG 301000Z 00000KT CAVOK 24/23 Q1012,SBEG,2023-04-30T10:00:00Z,-3.03,-60.03,24.0,23.0,0,0,,6.21,29.88189,,,,,,,,,,,CAVOK,,,,,,,,VFR,,,,,,,,,,,,METAR,69.0
SBCY 301000Z 26004KT CAVOK 24/23 Q1013,SBCY,2023-04-30T10:00:00Z,-15.65,-56.12,24.0,23.0,260,4,,6.21,29.911417,,,,,,,,,,,CAVOK,,,,,,,,VFR,,,,,,,,,,,,METAR,182.0
SBCT 301000Z 08003KT 9000 BKN007 BKN020 15/15 Q1021,SBCT,2023-04-30T10:00:00Z,-25.52,-49.17,15.0,15.0,80,3,,5.59,30.147638,,,,,,,,,,,BKN,700,BKN,2000,,,,,IFR,,,,,,,,,,,,METAR,914.0
SBCP 301000Z 18012KT 4000 -RA BKN006 OVC080 22/21 Q1018,SBCP,2023-04-30T10:00:00Z,-21.7,-41.3,22.0,21.0,180,12,,2.49,30.059055,,,,,,,,,,-RA,BKN,600,OVC,8000,,,,,IFR,,,,,,,,,,,,METAR,15.0
SBCG 301000Z 07013KT CAVOK 21/17 Q1015,SBCG,2023-04-30T10:00:00Z,-20.47,-54.67,21.0,17.0,70,13,,6.21,29.970472,,,,,,,,,,,CAVOK,,,,,,,,VFR,,,,,,,,,,,,METAR,556.0
SBCF 301000Z 16002KT CAVOK 17/15 Q1020,SBCF,2023-04-30T10:00:00Z,-19.63,-43.97,17.0,15.0,160,2,,6.21,30.11811,,,,,,,,,,,CAVOK,,,,,,,,VFR,,,,,,,,,,,,METAR,825.0
SBCB 301000Z 01003KT 9999 BKN020 23/21 Q1018,SBCB,2023-04-30T10:00:00Z,-22.92,-42.08,23.0,21.0,10,3,,6.21,30.059055,,,,,,,,,,,BKN,2000,,,,,,,MVFR,,,,,,,,,,,,METAR,3.0
SBBV 301000Z 09006KT 9999 SCT040 BKN070 25/23 Q1013,SBBV,2023-04-30T10:00:00Z,2.85,-60.7,25.0,23.0,90,6,,6.21,29.911417,,,,,,,,,,,SCT,4000,BKN,7000,,,,,VFR,,,,,,,,,,,,METAR,80.0
SBBR 301000Z VRB02KT 9999 FEW040 18/15 Q1021,SBBR,2023-04-30T10:00:00Z,-15.87,-47.92,18.0,15.0,0,2,,6.21,30.147638,,,,,,,,,,,FEW,4000,,,,,,,VFR,,,,,,,,,,,,METAR,1051.0
SBBG 301000Z AUTO 05006KT CAVOK 15/13 Q1014,SBBG,2023-04-30T10:00:00Z,-31.38,-54.12,15.0,13.0,50,6,,6.21,29.940945,,,TRUE,,,,,,,,CAVOK,,,,,,,,VFR,,,,,,,,,,,,METAR,182.0
SBBE 301000Z 10004KT 9999 FEW012 26/24 Q1012,SBBE,2023-04-30T10:00:00Z,-1.37,-48.47,26.0,24.0,100,4,,6.21,29.88189,,,,,,,,,,,FEW,1200,,,,,,,VFR,,,,,,,,,,,,METAR,16.0
SBAR 301000Z 11008KT 9999 VCSH SCT017 BKN040 27/24 Q1014,SBAR,2023-04-30T10:00:00Z,-10.98,-37.07,27.0,24.0,110,8,,6.21,29.940945,,,,,,,,,,VCSH,SCT,1700,BKN,4000,,,,,VFR,,,,,,,,,,,,METAR,4.0
SAZS 301000Z 33004KT 9999 BKN015 BKN021 03/01 Q1010 RMK PP///,SAZS,2023-04-30T10:00:00Z,-41.15,-71.17,3.0,1.0,330,4,,6.21,29.822834,,,,,,,,,,,BKN,1500,BKN,2100,,,,,MVFR,,,,,,,,,,,,METAR,843.0
SAZN 301000Z 25003KT CAVOK 09/05 Q1012,SAZN,2023-04-30T10:00:00Z,-38.95,-68.15,9.0,5.0,250,3,,6.21,29.88189,,,,,,,,,,,CAVOK,,,,,,,,VFR,,,,,,,,,,,,METAR,273.0
SAZM 301000Z 34010KT CAVOK 18/15 Q1004 RMK PP///,SAZM,2023-04-30T10:00:00Z,-37.92,-57.57,18.0,15.0,340,10,,6.21,29.64567,,,,,,,,,,,CAVOK,,,,,,,,VFR,,,,,,,,,,,,METAR,17.0
SAWG 301000Z 25007KT CAVOK 01/M02 Q1007,SAWG,2023-04-30T10:00:00Z,-51.62,-69.27,1.0,-2.0,250,7,,6.21,29.734253,,,,,,,,,,,CAVOK,,,,,,,,VFR,,,,,,,,,,,,METAR,15.0
SAWE 301000Z 25005KT CAVOK M03/M05 Q1003 RMK PP000,SAWE,2023-04-30T10:00:00Z,-53.78,-67.75,-3.0,-5.0,250,5,,6.21,29.616142,,,,,,,,,,,CAVOK,,,,,,,,VFR,,,,,,,,,,,,METAR,22.0
SAVC 301000Z 25008KT 9999 FEW018 05/03 Q1009 RMK PP000,SAVC,2023-04-30T10:00:00Z,-45.78,-67.47,5.0,3.0,250,8,,6.21,29.793306,,,,,,,,,,,FEW,1800,,,,,,,VFR,,,,,,,,,,,,METAR,58.0
SASJ 301000Z 30006KT CAVOK 18/15 Q1009 RMK PP000,SASJ,2023-04-30T10:00:00Z,-24.38,-65.1,18.0,15.0,300,6,,6.21,29.793306,,,,,,,,,,,CAVOK,,,,,,,,VFR,,,,,,,,,,,,METAR,913.0
SASA 301000Z VRB02KT 9999 FEW015 BKN023 14/13 Q1011 RMK PP000,SASA,2023-04-30T10:00:00Z,-24.85,-65.48,14.0,13.0,0,2,,6.21,29.852362,,,,,,,,,,,FEW,1500,BKN,2300,,,,,MVFR,,,,,,,,,,,,METAR,1235.0
SARP 301000Z 05003KT CAVOK 20/17 Q1013,SARP,2023-04-30T10:00:00Z,-27.38,-55.97,20.0,17.0,50,3,,6.21,29.911417,,,,,,,,,,,CAVOK,,,,,,,,VFR,,,,,,,,,,,,METAR,123.0
SARL 301000Z 05003KT CAVOK 19/16 Q1011,SARL,2023-04-30T10:00:00Z,-29.68,-57.15,19.0,16.0,50,3,,6.21,29.852362,,,,,,,,,,,CAVOK,,,,,,,,VFR,,,,,,,,,,,,METAR,70.0
SARI 301000Z 08006KT CAVOK 16/15 Q1016 RMK PP000,SARI,2023-04-30T10:00:00Z,-25.73,-54.47,16.0,15.0,80,6,,6.21,30.0,,,,,,,,,,,CAVOK,,,,,,,,VFR,,,,,,,,,,,,METAR,268.0
SARF 301000Z 05012KT CAVOK 23/20 Q1010,SARF,2023-04-30T10:00:00Z,-26.22,-58.22,23.0,20.0,50,12,,6.21,29.822834,,,,,,,,,,,CAVOK,,,,,,,,VFR,,,,,,,,,,,,METAR,65.0
SARE 301000Z 03011KT CAVOK 22/19 Q1009 RMK PP///,SARE,2023-04-30T10:00:00Z,-27.43,-59.05,22.0,19.0,30,11,,6.21,29.793306,,,,,,,,,,,CAVOK,,,,,,,,VFR,,,,,,,,,,,,METAR,52.0
SARC 301000Z 05010KT CAVOK 22/19 Q1009,SARC,2023-04-30T10:00:00Z,-27.43,-58.77,22.0,19.0,50,10,,6.21,29.793306,,,,,,,,,,,CAVOK,,,,,,,,VFR,,,,,,,,,,,,METAR,60.0
SAOC 301000Z 27004KT CAVOK 15/15 Q1003,SAOC,2023-04-30T10:00:00Z,-33.08,-64.27,15.0,15.0,270,4,,6.21,29.616142,,,,,,,,,,,CAVOK,,,,,,,,VFR,,,,,,,,,,,,METAR,422.0
SANT 301000Z 33003KT 280V030 CAVOK 18/17 Q1004 RMK PP000,SANT,2023-04-30T10:00:00Z,-26.85,-65.1,18.0,17.0,330,3,,6.21,29.64567,,,,,,,,,,,CAVOK,,,,,,,,VFR,,,,,,,,,,,,METAR,446.0
SAME 301000Z 14010KT CAVOK 17/05 Q1007,SAME,2023-04-30T10:00:00Z,-32.82,-68.78,17.0,5.0,140,10,,6.21,29.734253,,,,,,,,,,,CAVOK,,,,,,,,VFR,,,,,,,,,,,,METAR,709.0
SAEZ 301000Z 01011KT CAVOK 22/16 Q1005 NOSIG RMK PP000,SAEZ,2023-04-30T10:00:00Z,-34.82,-58.53,22.0,16.0,10,11,,6.21,29.675198,,,,,,TRUE,,,,,CAVOK,,,,,,,,VFR,,,,,,,,,,,,METAR,16.0
SADF 301000Z 01008KT CAVOK 20/16 Q1006 RMK PP000,SADF,2023-04-30T10:00:00Z,-34.45,-58.58,20.0,16.0,10,8,,6.21,29.704725,,,,,,,,,,,CAVOK,,,,,,,,VFR,,,,,,,,,,,,METAR,4.0
SACO 301000Z 35007KT 310V020 CAVOK 18/16 Q1003 NOSIG RMK PP000,SACO,2023-04-30T10:00:00Z,-31.32,-64.22,18.0,16.0,350,7,,6.21,29.616142,,,,,,TRUE,,,,,CAVOK,,,,,,,,VFR,,,,,,,,,,,,METAR,474.0
SABE 301000Z 34010KT CAVOK 21/17 Q1006 NOSIG RMK PP000,SABE,2023-04-30T10:00:00Z,-34.57,-58.42,21.0,17.0,340,10,,6.21,29.704725,,,,,,TRUE,,,,,CAVOK,,,,,,,,VFR,,,,,,,,,,,,METAR,3.0
SAAR 301000Z 02010KT 9999 FEW046 24/20 Q1004 RMK PP000,SAAR,2023-04-30T10:00:00Z,-32.92,-60.77,24.0,20.0,20,10,,6.21,29.64567,,,,,,,,,,,FEW,4600,,,,,,,VFR,,,,,,,,,,,,METAR,24.0
RPVP 301000Z 06004KT 9999 FEW019 SCT080 30/23 Q1007 RMK A2974,RPVP,2023-04-30T10:00:00Z,9.75,118.75,30.0,23.0,60,4,,6.21,29.734253,,,,,,,,,,,FEW,1900,SCT,8000,,,,,VFR,,,,,,,,,,,,METAR,15.0
RPVM 301000Z 02013KT 9999 FEW020 OVC100 29/25 Q1008 NOSIG RMK A2977,RPVM,2023-04-30T10:00:00Z,10.32,123.98,29.0,25.0,20,13,,6.21,29.763779,,,,,,TRUE,,,,,FEW,2000,OVC,10000,,,,,VFR,,,,,,,,,,,,METAR,9.0
RPMZ 301000Z 27003KT 9999 FEW016CB SCT080 BKN300 29/25 Q1007 RMK A2974 CB N-SE,RPMZ,2023-04-30T10:00:00Z,6.92,122.07,29.0,25.0,270,3,,6.21,29.734253,,,,,,,,,,,FEW,1600,SCT,8000,BKN,30000,,,VFR,,,,,,,,,,,,METAR,8.0
"RPMD 301000Z 36006KT 9999 VCSH SCT015CB 30/25 Q1006 RMK A2971 CB/VCSH N,SW,W",RPMD,2023-04-30T10:00:00Z,7.12,125.65,30.0,25.0,360,6,,6.21,29.704725,,,,,,,,,,VCSH,SCT,1500,,,,,,,VFR,,,,,,,,,,,,METAR,19.0
RPLL 301000Z 14008KT 100V270 9999 FEW022CB SCT025 32/25 Q1008 NOSIG RMK A2977 CB N,RPLL,2023-04-30T10:00:00Z,14.52,121.0,32.0,25.0,140,8,,6.21,29.763779,,,,,,TRUE,,,,,FEW,2200,SCT,2500,,,,,VFR,,,,,,,,,,,,METAR,15.0
RPLI 301000Z 34008KT 8000 VCSH FEW017CB SCT290 30/26 Q1008 NOSIG RMK A2977 CB SE-S VCSH SE,RPLI,2023-04-30T10:00:00Z,18.17,120.52,30.0,26.0,340,8,,4.97,29.763779,,,,,,TRUE,,,,VCSH,FEW,1700,SCT,29000,,,,,MVFR,,,,,,,,,,,,METAR,5.0
RPLC 301000Z 16012KT 7000 TS FEW015CB SCT020 BKN300 32/23 Q1007 NOSIG RMK A2974 CB N,RPLC,2023-04-30T10:00:00Z,15.18,120.55,32.0,23.0,160,12,,4.35,29.734253,,,,,,TRUE,,,,TS,FEW,1500,SCT,2000,BKN,30000,,,MVFR,,,,,,,,,,,,METAR,138.0
RPLB 301000Z 34007KT 260V030 9999 SCT018TCU BKN300 30/26 Q1008 RMK A2977 TCU ALQDS,RPLB,2023-04-30T10:00:00Z,14.8,120.27,30.0,26.0,340,7,,6.21,29.763779,,,,,,,,,,,SCT,1800,BKN,30000,,,,,VFR,,,,,,,,,,,,METAR,19.0
ROYN 301000Z AUTO 02021KT 9999 OVC017 22/19 Q1012,ROYN,2023-04-30T10:00:00Z,24.47,122.97,22.0,19.0,20,21,,6.21,29.88189,,,TRUE,,,,,,,,OVC,1700,,,,,,,MVFR,,,,,,,,,,,,METAR,21.0
RORY 301000Z AUTO 36011KT 9999 OVC017 21/18 Q1013,RORY,2023-04-30T10:00:00Z,27.05,128.4,21.0,18.0,360,11,,6.21,29.911417,,,TRUE,,,,,,,,OVC,1700,,,,,,,MVFR,,,,,,,,,,,,METAR,13.0
RORT 301000Z AUTO 03010KT 6000 -RA OVC010 22/21 Q1011,RORT,2023-04-30T10:00:00Z,24.63,124.7,22.0,21.0,30,10,,3.73,29.852362,,,TRUE,,,,,,,-RA,OVC,1000,,,,,,,MVFR,,,,,,,,,,,,METAR,9.0
RORS 301000Z 03013KT 8000 VCSH SCT010 BKN015 23/21 Q1011,RORS,2023-04-30T10:00:00Z,24.82,125.15,23.0,21.0,30,13,,4.97,29.852362,,,,,,,,,,VCSH,SCT,1000,BKN,1500,,,,,MVFR,,,,,,,,,,,,METAR,13.0
RORK 301000Z AUTO 19005KT 9999 FEW001 SCT010 BKN015 25/24 Q1011,RORK,2023-04-30T10:00:00Z,25.93,131.32,25.0,24.0,190,5,,6.21,29.852362,,,TRUE,,,,,,,,FEW,100,SCT,1000,BKN,1500,,,MVFR,,,,,,,,,,,,METAR,11.0
ROMY 301000Z 04011KT 9000 -SHRA SCT006 BKN011 BKN060 22/22 Q1011,ROMY,2023-04-30T10:00:00Z,24.78,125.27,22.0,22.0,40,11,,5.59,29.852362,,,,,,,,,,-SHRA,SCT,600,BKN,1100,BKN,6000,,,MVFR,,,,,,,,,,,,METAR,38.0
ROMD 301000Z AUTO 20006KT 9999 FEW003 SCT007 BKN029 25/25 Q1011,ROMD,2023-04-30T10:00:00Z,25.83,131.25,25.0,25.0,200,6,,6.21,29.852362,,,TRUE,,,,,,,,FEW,300,SCT,700,BKN,2900,,,MVFR,,,,,,,,,,,,METAR,45.0
ROIG 301000Z 02012KT 6000 -SHRA SCT004 BKN009 21/21 Q1011,ROIG,2023-04-30T10:00:00Z,24.38,124.23,21.0,21.0,20,12,,3.73,29.852362,,,,,,,,,,-SHRA,SCT,400,BKN,900,,,,,IFR,,,,,,,,,,,,METAR,37.0
ROAH 301000Z 01014KT 9999 FEW015 BKN020 23/19 Q1012,ROAH,2023-04-30T10:00:00Z,26.18,127.65,23.0,19.0,10,14,,6.21,29.88189,,,,,,,,,,,FEW,1500,BKN,2000,,,,,MVFR,,,,,,,,,,,,METAR,6.0
RKTU 301000Z 23015KT CAVOK 17/04 Q1009,RKTU,2023-04-30T10:00:00Z,36.7,127.5,17.0,4.0,230,15,,6.21,29.793306,,,,,,,,,,,CAVOK,,,,,,,,VFR,,,,,,,,,,,,METAR,46.0
RKTN 301000Z 30010KT CAVOK 21/M03 Q1009,RKTN,2023-04-30T10:00:00Z,35.88,128.65,21.0,-3.0,300,10,,6.21,29.793306,,,,,,,,,,,CAVOK,,,,,,,,VFR,,,,,,,,,,,,METAR,25.0
RKSS 301000Z 23006KT 160V260 9999 -RA NSC 13/09 Q1009 NOSIG,RKSS,2023-04-30T10:00:00Z,37.55,126.78,13.0,9.0,230,6,,6.21,29.793306,,,,,,TRUE,,,,-RA,CLR,,,,,,,,VFR,,,,,,,,,,,,METAR,18.0
RKSI 301000Z 23008KT CAVOK 12/09 Q1010 NOSIG,RKSI,2023-04-30T10:00:00Z,37.47,126.45,12.0,9.0,230,8,,6.21,29.822834,,,,,,TRUE,,,,,CAVOK,,,,,,,,VFR,,,,,,,,,,,,METAR,7.0
RKPK 301000Z 18004KT 9999 FEW050 FEW200 17/05 Q1011,RKPK,2023-04-30T10:00:00Z,35.17,128.93,17.0,5.0,180,4,,6.21,29.852362,,,,,,,,,,,FEW,5000,FEW,20000,,,,,VFR,,,,,,,,,,,,METAR,3.0
RKPC 301000Z 25006KT CAVOK 15/06 Q1014 NOSIG,RKPC,2023-04-30T10:00:00Z,33.5,126.48,15.0,6.0,250,6,,6.21,29.940945,,,,,,TRUE,,,,,CAVOK,,,,,,,,VFR,,,,,,,,,,,,METAR,23.0
RKNY 301000Z 27010G21KT 190V340 9999 FEW070 17/02 Q1006 WS ALL RWY NOSIG,RKNY,2023-04-30T10:00:00Z,38.07,128.67,17.0,2.0,270,10,21,6.21,29.704725,,,,,,TRUE,,,,,FEW,7000,,,,,,,VFR,,,,,,,,,,,,SPECI,76.0
RKJB 301000Z 20009KT CAVOK 15/09 Q1013 NOSIG,RKJB,2023-04-30T10:00:00Z,34.98,126.38,15.0,9.0,200,9,,6.21,29.911417,,,,,,TRUE,,,,,CAVOK,,,,,,,,VFR,,,,,,,,,,,,METAR,16.0
RJTT 301000Z 19009KT 9999 FEW015 BKN160 BKN/// 21/16 Q1005 BECMG TL1130 32006KT,RJTT,2023-04-30T10:00:00Z,35.55,139.77,21.0,16.0,190,9,,6.21,29.675198,,,,,,,,,,,FEW,1500,BKN,16000,,,,,VFR,,,,,,,,,,,,METAR,5.0
RJSY 301000Z 24016KT 9999 FEW020 SCT050 BKN/// 14/11 Q1008,RJSY,2023-04-30T10:00:00Z,38.82,139.78,14.0,11.0,240,16,,6.21,29.763779,,,,,,,,,,,FEW,2000,SCT,5000,,,,,VFR,,,,,,,,,,,,METAR,17.0
RJSS 301000Z 28005KT 240V340 9999 FEW040 BKN170 BKN/// 17/06 Q1005,RJSS,2023-04-30T10:00:00Z,38.13,140.92,17.0,6.0,280,5,,6.21,29.675198,,,,,,,,,,,FEW,4000,BKN,17000,,,,,VFR,,,,,,,,,,,,METAR,5.0
RJSR 301000Z 23011KT 9999 FEW020 BKN030 13/09 Q1006,RJSR,2023-04-30T10:00:00Z,40.18,140.37,13.0,9.0,230,11,,6.21,29.704725,,,,,,,,,,,FEW,2000,BKN,3000,,,,,MVFR,,,,,,,,,,,,METAR,83.0
RJSN 301000Z 24011KT 9999 FEW020 SCT040 BKN/// 15/10 Q1010,RJSN,2023-04-30T10:00:00Z,37.95,139.12,15.0,10.0,240,11,,6.21,29.822834,,,,,,,,,,,FEW,2000,SCT,4000,,,,,VFR,,,,,,,,,,,,METAR,4.0
RJSM 301000Z 25015KT 9999 FEW030 BKN040 BKN/// 15/04 Q1003,RJSM,2023-04-30T10:00:00Z,40.7,141.37,15.0,4.0,250,15,,6.21,29.616142,,,,,,,,,,,FEW,3000,BKN,4000,,,,,VFR,,,,,,,,,,,,METAR,31.0
RJSK 301000Z 24004KT 200V280 9999 FEW010 SCT015 BKN035 13/10 Q1007,RJSK,2023-04-30T10:00:00Z,39.62,140.22,13.0,10.0,240,4,,6.21,29.734253,,,,,,,,,,,FEW,1000,SCT,1500,BKN,3500,,,VFR,,,,,,,,,,,,METAR,95.0
RJSI 301000Z 24004KT 190V350 9999 FEW040 BKN050 BKN/// 14/06 Q1006,RJSI,2023-04-30T10:00:00Z,39.42,141.13,14.0,6.0,240,4,,6.21,29.704725,,,,,,,,,,,FEW,4000,BKN,5000,,,,,VFR,,,,,,,,,,,,METAR,89.0
RJSF 301000Z 36008KT 9999 FEW020 BKN170 BKN/// 13/09 Q1008,RJSF,2023-04-30T10:00:00Z,37.22,140.42,13.0,9.0,360,8,,6.21,29.763779,,,,,,,,,,,FEW,2000,BKN,17000,,,,,VFR,,,,,,,,,,,,METAR,373.0
RJSC 301000Z 27004KT 9999 FEW030 BKN/// 15/07 Q1007,RJSC,2023-04-30T10:00:00Z,38.42,140.37,15.0,7.0,270,4,,6.21,29.734253,,,,,,,,,,,FEW,3000,,,,,,,VFR,,,,,,,,,,,,SPECI,104.0
RJSA 301000Z 24015KT 9999 FEW030 BKN050 BKN/// 13/07 Q1003,RJSA,2023-04-30T10:00:00Z,40.72,140.68,13.0,7.0,240,15,,6.21,29.616142,,,,,,,,,,,FEW,3000,BKN,5000,,,,,VFR,,,,,,,,,,,,METAR,196.0
RJOY 301000Z VRB01KT 9999 FEW025 BKN/// 18/12 Q1010,RJOY,2023-04-30T10:00:00Z,34.6,135.6,18.0,12.0,0,1,,6.21,29.822834,,,,,,,,,,,FEW,2500,,,,,,,VFR,,,,,,,,,,,,SPECI,10.0
RJOW 301000Z 28007KT 9999 FEW025 SCT/// 14/08 Q1011,RJOW,2023-04-30T10:00:00Z,34.67,131.8,14.0,8.0,280,7,,6.21,29.852362,,,,,,,,,,,FEW,2500,,,,,,,VFR,,,,,,,,,,,,METAR,54.0
RJOT 301000Z 22005KT 9999 FEW030 BKN/// 15/10 Q1010,RJOT,2023-04-30T10:00:00Z,34.22,134.02,15.0,10.0,220,5,,6.21,29.822834,,,,,,,,,,,FEW,3000,,,,,,,VFR,,,,,,,,,,,,METAR,181.0
RJOS 301000Z VRB01KT 9999 FEW030 SCT180 BKN/// 18/10 Q1010,RJOS,2023-04-30T10:00:00Z,34.12,134.62,18.0,10.0,0,1,,6.21,29.822834,,,,,,,,,,,FEW,3000,SCT,18000,,,,,VFR,,,,,,,,,,,,SPECI,3.0
RJOR 301000Z 30007KT 9999 FEW050 SCT/// 15/10 Q1011,RJOR,2023-04-30T10:00:00Z,35.52,134.17,15.0,10.0,300,7,,6.21,29.852362,,,,,,,,,,,FEW,5000,,,,,,,VFR,,,,,,,,,,,,SPECI,11.0
RJOO 301000Z VRB02KT 9999 FEW030 BKN/// 18/12 Q1010,RJOO,2023-04-30T10:00:00Z,34.78,135.43,18.0,12.0,0,2,,6.21,29.822834,,,,,,,,,,,FEW,3000,,,,,,,VFR,,,,,,,,,,,,METAR,11.0
RJOM 301000Z 18005KT 9999 FEW030 SCT/// 16/10 Q1011,RJOM,2023-04-30T10:00:00Z,33.82,132.68,16.0,10.0,180,5,,6.21,29.852362,,,,,,,,,,,FEW,3000,,,,,,,VFR,,,,,,,,,,,,METAR,3.0
RJOK 301000Z 14003KT 9999 FEW020 SCT170 BKN180 17/13 Q1010,RJOK,2023-04-30T10:00:00Z,33.53,133.67,17.0,13.0,140,3,,6.21,29.822834,,,,,,,,,,,FEW,2000,SCT,17000,BKN,18000,,,VFR,,,,,,,,,,,,METAR,7.0
RJOH 301000Z 27010KT 9999 FEW030 16/09 Q1010,RJOH,2023-04-30T10:00:00Z,35.48,133.25,16.0,9.0,270,10,,6.21,29.822834,,,,,,,,,,,FEW,3000,,,,,,,VFR,,,,,,,,,,,,METAR,6.0
RJOC 301000Z 27007KT CAVOK 15/09 Q1010,RJOC,2023-04-30T10:00:00Z,35.42,132.88,15.0,9.0,270,7,,6.21,29.822834,,,,,,,,,,,CAVOK,,,,,,,,VFR,,,,,,,,,,,,METAR,2.0
RJOB 301000Z 25004KT 9999 FEW030 SCT/// 15/10 Q1010,RJOB,2023-04-30T10:00:00Z,34.75,133.85,15.0,10.0,250,4,,6.21,29.822834,,,,,,,,,,,FEW,3000,,,,,,,VFR,,,,,,,,,,,,METAR,242.0
RJOA 301000Z VRB02KT CAVOK 14/10 Q1011,RJOA,2023-04-30T10:00:00Z,34.43,132.92,14.0,10.0,0,2,,6.21,29.852362,,,,,,,,,,,CAVOK,,,,,,,,VFR,,,,,,,,,,,,METAR,318.0
RJNW 301000Z 26011KT 240V300 9999 FEW015 12/10 Q1010,RJNW,2023-04-30T10:00:00Z,37.3,136.97,12.0,10.0,260,11,,6.21,29.822834,,,,,,,,,,,FEW,1500,,,,,,,VFR,,,,,,,,,,,,METAR,222.0
RJNT 301000Z 26004KT 230V310 9999 FEW050 SCT/// 15/05 Q1011,RJNT,2023-04-30T10:00:00Z,36.63,137.18,15.0,5.0,260,4,,6.21,29.852362,,,,,,,,,,,FEW,5000,,,,,,,VFR,,,,,,,,,,,,METAR,30.0
RJNS 301000Z 25017KT 9999 FEW015 SCT140 BKN/// 17/09 Q1006,RJNS,2023-04-30T10:00:00Z,34.8,138.18,17.0,9.0,250,17,,6.21,29.704725,,,,,,,,,,,FEW,1500,SCT,14000,,,,,VFR,,,,,,,,,,,,METAR,133.0
RJNK 301000Z 21007KT 9999 FEW100 BKN/// 15/09 Q1011,RJNK,2023-04-30T10:00:00Z,36.38,136.42,15.0,9.0,210,7,,6.21,29.852362,,,,,,,,,,,FEW,10000,,,,,,,VFR,,,,,,,,,,,,METAR,7.0
RJKI 301000Z AUTO 33011KT 9999 FEW015 BKN017 OVC020 //////TCU 19/16 Q1013,RJKI,2023-04-30T10:00:00Z,28.32,129.92,19.0,16.0,330,11,,6.21,29.911417,,,TRUE,,,,,,,,FEW,1500,BKN,1700,OVC,2000,,,MVFR,,,,,,,,,,,,SPECI,6.0
RJKA 301000Z 36005KT 320V030 8000 -SHRA FEW011 FEW015CB SCT020 BKN030 18/16 Q1013,RJKA,2023-04-30T10:00:00Z,28.42,129.72,18.0,16.0,360,5,,4.97,29.911417,,,,,,,,,,-SHRA,FEW,1100,FEW,1500,SCT,2000,BKN,3000,MVFR,,,,,,,,,,,,METAR,7.0
RJGG 301000Z 33012KT 9999 FEW020 BKN/// 16/11 Q1010 NOSIG,RJGG,2023-04-30T10:00:00Z,34.87,136.8,16.0,11.0,330,12,,6.21,29.822834,,,,,,TRUE,,,,,FEW,2000,,,,,,,VFR,,,,,,,,,,,,METAR,5.0
RJFU 301000Z 31014KT CAVOK 17/09 Q1012,RJFU,2023-04-30T10:00:00Z,32.92,129.92,17.0,9.0,310,14,,6.21,29.88189,,,,,,,,,,,CAVOK,,,,,,,,VFR,,,,,,,,,,,,METAR,2.0
RJFT 301000Z 21004KT 9999 FEW030 16/11 Q1012,RJFT,2023-04-30T10:00:00Z,32.83,130.85,16.0,11.0,210,4,,6.21,29.88189,,,,,,,,,,,FEW,3000,,,,,,,VFR,,,,,,,,,,,,METAR,188.0
RJFS 301000Z 28011KT 9999 FEW035 SCT/// 17/11 Q1011,RJFS,2023-04-30T10:00:00Z,33.15,130.3,17.0,11.0,280,11,,6.21,29.852362,,,,,,,,,,,FEW,3500,,,,,,,VFR,,,,,,,,,,,,METAR,2.0
RJFR 301000Z 31012KT CAVOK 17/10 Q1011,RJFR,2023-04-30T10:00:00Z,33.83,131.03,17.0,10.0,310,12,,6.21,29.852362,,,,,,,,,,,CAVOK,,,,,,,,VFR,,,,,,,,,,,,METAR,9.0
RJFO 301000Z 28005KT CAVOK 17/07 Q1011,RJFO,2023-04-30T10:00:00Z,33.47,131.73,17.0,7.0,280,5,,6.21,29.852362,,,,,,,,,,,CAVOK,,,,,,,,VFR,,,,,,,,,,,,METAR,3.0
RJFM 301000Z 14009KT 9999 FEW030 SCT170 BKN/// 18/13 Q1011,RJFM,2023-04-30T10:00:00Z,31.87,131.43,18.0,13.0,140,9,,6.21,29.852362,,,,,,,,,,,FEW,3000,SCT,17000,,,,,VFR,,,,,,,,,,,,METAR,10.0
RJFK 301000Z 29005KT 9999 FEW025 SCT140 BKN/// 15/12 Q1011,RJFK,2023-04-30T10:00:00Z,31.8,130.72,15.0,12.0,290,5,,6.21,29.852362,,,,,,,,,,,FEW,2500,SCT,14000,,,,,VFR,,,,,,,,,,,,METAR,271.0
RJFF 301000Z 31010KT 9999 FEW030 SCT/// 17/09 Q1012 NOSIG,RJFF,2023-04-30T10:00:00Z,33.58,130.45,17.0,9.0,310,10,,6.21,29.88189,,,,,,TRUE,,,,,FEW,3000,,,,,,,VFR,,,,,,,,,,,,METAR,7.0
RJFE 301000Z 34005KT CAVOK 14/06 Q1013,RJFE,2023-04-30T10:00:00Z,32.67,128.82,14.0,6.0,340,5,,6.21,29.911417,,,,,,,,,,,CAVOK,,,,,,,,VFR,,,,,,,,,,,,METAR,80.0
RJEC 301000Z 21010G21KT 9999 -SHRA FEW012 SCT020 BKN040 12/06 Q0998,RJEC,2023-04-30T10:00:00Z,43.67,142.43,12.0,6.0,210,10,21,6.21,29.468504,,,,,,,,,,-SHRA,FEW,1200,SCT,2000,BKN,4000,,,VFR,,,,,,,,,,,,METAR,209.0
RJDT 301000Z VRB02KT CAVOK 15/07 Q1011,RJDT,2023-04-30T10:00:00Z,34.28,129.32,15.0,7.0,0,2,,6.21,29.852362,,,,,,,,,,,CAVOK,,,,,,,,VFR,,,,,,,,,,,,METAR,61.0
RJDC 301000Z 30007KT 270V350 CAVOK 17/08 Q1011,RJDC,2023-04-30T10:00:00Z,33.92,131.27,17.0,8.0,300,7,,6.21,29.852362,,,,,,,,,,,CAVOK,,,,,,,,VFR,,,,,,,,,,,,METAR,5.0
RJDB 301000Z AUTO 26005KT 230V300 9999 NCD 16/09 Q1012,RJDB,2023-04-30T10:00:00Z,33.75,129.78,16.0,9.0,260,5,,6.21,29.88189,,,TRUE,,,,,,,,CLR,,,,,,,,VFR,,,,,,,,,,,,METAR,13.0
RJCO 301000Z 18009KT 9999 FEW030 BKN050 14/06 Q1000,RJCO,2023-04-30T10:00:00Z,43.12,141.37,14.0,6.0,180,9,,6.21,29.52756,,,,,,,,,,,FEW,3000,BKN,5000,,,,,VFR,,,,,,,,,,,,METAR,7.0
RJCM 301000Z 02010KT 9999 FEW020 BKN/// 12/09 Q0996,RJCM,2023-04-30T10:00:00Z,43.88,144.17,12.0,9.0,20,10,,6.21,29.409449,,,,,,,,,,,FEW,2000,,,,,,,VFR,,,,,,,,,,,,METAR,30.0
RJCK 301000Z 21008KT 1400 R17/P2000N BCFG BR SCT001 BKN/// 07/07 Q0997,RJCK,2023-04-30T10:00:00Z,43.03,144.18,7.0,7.0,210,8,,0.87,29.438976,,,,,,,,,,BCFG BR,SCT,100,,,,,,,LIFR,,,,,,,,,,,,METAR,94.0
RJCH 301000Z 26013KT 9999 FEW020 SCT040 12/08 Q1002,RJCH,2023-04-30T10:00:00Z,41.77,140.82,12.0,8.0,260,13,,6.21,29.586615,,,,,,,,,,,FEW,2000,SCT,4000,,,,,VFR,,,,,,,,,,,,METAR,36.0
RJCC 301000Z 17012KT 9999 FEW020 BKN045 11/06 Q1001,RJCC,2023-04-30T10:00:00Z,42.77,141.68,11.0,6.0,170,12,,6.21,29.557087,,,,,,,,,,,FEW,2000,BKN,4500,,,,,VFR,,,,,,,,,,,,METAR,19.0
RJCB 301000Z 31008KT 9999 FEW030 BKN/// 13/03 Q0998,RJCB,2023-04-30T10:00:00Z,42.72,143.22,13.0,3.0,310,8,,6.21,29.468504,,,,,,,,,,,FEW,3000,,,,,,,VFR,,,,,,,,,,,,METAR,149.0
RJBE 301000Z 24007KT 9999 FEW030 SCT050 BKN/// 16/13 Q1010,RJBE,2023-04-30T10:00:00Z,34.63,135.23,16.0,13.0,240,7,,6.21,29.822834,,,,,,,,,,,FEW,3000,SCT,5000,,,,,VFR,,,,,,,,,,,,METAR,5.0
RJBD 301000Z 33006KT 290V350 9999 FEW030 SCT180 BKN/// 16/12 Q1009,RJBD,2023-04-30T10:00:00Z,33.67,135.37,16.0,12.0,330,6,,6.21,29.793306,,,,,,,,,,,FEW,3000,SCT,18000,,,,,VFR,,,,,,,,,,,,SPECI,91.0
RJBB 301000Z 16004KT 9999 FEW020 BKN/// 17/12 Q1010 BECMG 12005KT,RJBB,2023-04-30T10:00:00Z,34.43,135.25,17.0,12.0,160,4,,6.21,29.822834,,,,,,,,,,,FEW,2000,,,,,,,VFR,,,,,,,,,,,,METAR,8.0
RJAH 301000Z 06009KT 8000 -SHRA FEW008 BKN015 15/15 Q1006,RJAH,2023-04-30T10:00:00Z,36.17,140.42,15.0,15.0,60,9,,4.97,29.704725,,,,,,,,,,-SHRA,FEW,800,BKN,1500,,,,,MVFR,,,,,,,,,,,,METAR,31.0
RJAA 301000Z VRB01KT 9999 FEW020 BKN/// 19/18 Q1005 BECMG 02005KT,RJAA,2023-04-30T10:00:00Z,35.77,140.38,19.0,18.0,0,1,,6.21,29.675198,,,,,,,,,,,FEW,2000,,,,,,,VFR,,,,,,,,,,,,METAR,36.0
RCTP 301000Z 04016KT 9999 FEW015 BKN020 BKN030 20/17 Q1014 NOSIG RMK A2995,RCTP,2023-04-30T10:00:00Z,25.07,121.22,20.0,17.0,40,16,,6.21,29.940945,,,,,,TRUE,,,,,FEW,1500,BKN,2000,BKN,3000,,,MVFR,,,,,,,,,,,,METAR,33.0
RCSS 301000Z 09012KT 9999 FEW013 BKN022 BKN032 19/15 Q1014 NOSIG RMK A2995,RCSS,2023-04-30T10:00:00Z,25.07,121.55,19.0,15.0,90,12,,6.21,29.940945,,,,,,TRUE,,,,,FEW,1300,BKN,2200,BKN,3200,,,MVFR,,,,,,,,,,,,METAR,8.0
RCNN 301000Z 01011KT 9999 FEW012 SCT080 26/18 Q1010 RMK A2984,RCNN,2023-04-30T10:00:00Z,22.93,120.2,26.0,18.0,10,11,,6.21,29.822834,,,,,,,,,,,FEW,1200,SCT,8000,,,,,VFR,,,,,,,,,,,,METAR,15.0
RCMQ 301000Z 01011KT 9999 FEW008 SCT050 BKN100 20/17 Q1012 NOSIG RMK A2989,RCMQ,2023-04-30T10:00:00Z,24.27,120.62,20.0,17.0,10,11,,6.21,29.88189,,,,,,TRUE,,,,,FEW,800,SCT,5000,BKN,10000,,,VFR,,,,,,,,,,,,METAR,202.0
RCKH 301000Z 32008KT 290V360 9999 FEW015 BKN060 29/20 Q1009 NOSIG RMK A2981,RCKH,2023-04-30T10:00:00Z,22.57,120.33,29.0,20.0,320,8,,6.21,29.793306,,,,,,TRUE,,,,,FEW,1500,BKN,6000,,,,,VFR,,,,,,,,,,,,METAR,6.0
RCFN 301000Z 01004KT 310V070 9000 3000SW -RA FEW004 BKN015 OVC030 22/22 Q1012 NOSIG RMK A2991,RCFN,2023-04-30T10:00:00Z,22.77,121.1,22.0,22.0,10,4,,5.59,29.88189,,,,,,TRUE,,,,-RA,FEW,400,BKN,1500,OVC,3000,,,MVFR,,,,,,,,,,,,METAR,42.0
PLCH 301000Z 05004KT 9999 FEW018TCU 27/25 Q1009,PLCH,2023-04-30T10:00:00Z,1.98,-157.35,27.0,25.0,50,4,,6.21,29.793306,,,,,,,,,,,FEW,1800,,,,,,,VFR,,,,,,,,,,,,METAR,5.0
PKWA 301000Z AUTO 06017KT 10SM CLR 28/24 A2985 RMK AO2 T02770241 TSNO,PKWA,2023-04-30T10:00:00Z,8.72,167.72,27.7,24.1,60,17,,10.0,29.84941,,,TRUE,TRUE,,,TRUE,,,,CLR,,,,,,,,VFR,,,,,,,,,,,,SPECI,6.0
OTHH 301000Z 14014KT CAVOK 37/08 Q1005 NOSIG,OTHH,2023-04-30T10:00:00Z,25.27,51.6,37.0,8.0,140,14,,6.21,29.675198,,,,,,TRUE,,,,,CAVOK,,,,,,,,VFR,,,,,,,,,,,,METAR,3.0
OTBD 301000Z AUTO 14014KT CAVOK 39/09 Q1005 NOSIG,OTBD,2023-04-30T10:00:00Z,25.25,51.57,39.0,9.0,140,14,,6.21,29.675198,,,TRUE,,,TRUE,,,,,CAVOK,,,,,,,,VFR,,,,,,,,,,,,METAR,13.0
OSDI 301000Z 22010KT 9999 SCT026 BKN030 BKN100 14/07 Q1014,OSDI,2023-04-30T10:00:00Z,33.42,36.52,14.0,7.0,220,10,,6.21,29.940945,,,,,,,,,,,SCT,2600,BKN,3000,BKN,10000,,,MVFR,,,,,,,,,,,,METAR,614.0
ORSU 301000Z 17011KT 8000 SCT040 SCT180 23/10 Q1013,ORSU,2023-04-30T10:00:00Z,35.57,45.32,23.0,10.0,170,11,,4.97,29.911417,,,,,,,,,,,SCT,4000,SCT,18000,,,,,MVFR,,,,,,,,,,,,METAR,760.0
ORNI 301000Z 00000KT CAVOK 29/04 Q1009,ORNI,2023-04-30T10:00:00Z,31.98,44.4,29.0,4.0,0,0,,6.21,29.793306,,,,,,,,,,,CAVOK,,,,,,,,VFR,,,,,,,,,,,,METAR,33.0
ORMM 301000Z VRB10KT CAVOK 37/04 Q1007 NOSIG,ORMM,2023-04-30T10:00:00Z,30.53,47.67,37.0,4.0,0,10,,6.21,29.734253,,,,,,TRUE,,,,,CAVOK,,,,,,,,VFR,,,,,,,,,,,,METAR,2.0
ORER 301000Z 22010G22KT 170V220 9000 SCT030 26/02 Q1012,ORER,2023-04-30T10:00:00Z,36.23,43.97,26.0,2.0,220,10,22,5.59,29.88189,,,,,,,,,,,SCT,3000,,,,,,,VFR,,,,,,,,,,,,METAR,399.0
ORBI 301000Z 30007KT 250V340 9999 FEW030 29/07 Q1010,ORBI,2023-04-30T10:00:00Z,33.27,44.23,29.0,7.0,300,7,,6.21,29.822834,,,,,,,,,,,FEW,3000,,,,,,,VFR,,,,,,,,,,,,METAR,37.0
OPST 301000Z 00000KT 5000 HZ FEW100 35/13 Q1006 NOSIG 26%,OPST,2023-04-30T10:00:00Z,32.53,74.37,35.0,13.0,0,0,,3.11,29.704725,,,,,,TRUE,,,,HZ,FEW,10000,,,,,,,MVFR,,,,,,,,,,,,METAR,234.0
OPSK 301000Z 09006KT 4000 HZ SCT030 SCT100 30/17 Q1004 NOSIG,OPSK,2023-04-30T10:00:00Z,27.72,68.8,30.0,17.0,90,6,,2.49,29.64567,,,,,,TRUE,,,,HZ,SCT,3000,SCT,10000,,,,,IFR,,,,,,,,,,,,METAR,62.0
OPPS 301000Z 05008KT 5000 HZ SCT040 SCT100 33/13 Q1005,OPPS,2023-04-30T10:00:00Z,33.98,71.52,33.0,13.0,50,8,,3.11,29.675198,,,,,,,,,,HZ,SCT,4000,SCT,10000,,,,,MVFR,,,,,,,,,,,,METAR,356.0
OPNH 301000Z 13006KT 7000 SCT035 32/19 Q1004,OPNH,2023-04-30T10:00:00Z,26.22,68.38,32.0,19.0,130,6,,4.35,29.64567,,,,,,,,,,,SCT,3500,,,,,,,MVFR,,,,,,,,,,,,METAR,30.0
OPMT 301000Z 23010KT 9999 SCT040 SCT100 33/15 Q1005 NOSIG,OPMT,2023-04-30T10:00:00Z,30.2,71.42,33.0,15.0,230,10,,6.21,29.675198,,,,,,TRUE,,,,,SCT,4000,SCT,10000,,,,,VFR,,,,,,,,,,,,METAR,122.0
OPIS 301000Z 31005KT 6000 FEW040 SCT100 32/14 Q1005 NOSIG,OPIS,2023-04-30T10:00:00Z,33.55,72.83,32.0,14.0,310,5,,3.73,29.675198,,,,,,TRUE,,,,,FEW,4000,SCT,10000,,,,,MVFR,,,,,,,,,,,,METAR,542.0
OMSJ 301000Z 31011KT CAVOK 34/05 Q1006 NOSIG,OMSJ,2023-04-30T10:00:00Z,25.32,55.52,34.0,5.0,310,11,,6.21,29.704725,,,,,,TRUE,,,,,CAVOK,,,,,,,,VFR,,,,,,,,,,,,METAR,33.0
OMRK 301000Z 33012KT 290V350 CAVOK 35/07 Q1006 A2970,OMRK,2023-04-30T10:00:00Z,25.62,55.93,35.0,7.0,330,12,,6.21,29.704725,,,,,,,,,,,CAVOK,,,,,,,,VFR,,,,,,,,,,,,METAR,18.0
OMFJ 301000Z 07008KT 030V110 8000 NSC 28/23 Q1005 A2969,OMFJ,2023-04-30T10:00:00Z,25.1,56.32,28.0,23.0,70,8,,4.97,29.675198,,,,,,,,,,,CLR,,,,,,,,MVFR,,,,,,,,,,,,METAR,27.0
OMDW 301000Z 33012KT 290V360 CAVOK 35/12 Q1006 NOSIG,OMDW,2023-04-30T10:00:00Z,24.9,55.17,35.0,12.0,330,12,,6.21,29.704725,,,,,,TRUE,,,,,CAVOK,,,,,,,,VFR,,,,,,,,,,,,METAR,34.0
OMDB 301000Z 33010KT CAVOK 33/14 Q1005 NOSIG,OMDB,2023-04-30T10:00:00Z,25.25,55.37,33.0,14.0,330,10,,6.21,29.675198,,,,,,TRUE,,,,,CAVOK,,,,,,,,VFR,,,,,,,,,,,,METAR,5.0
OMAL 301000Z 27006KT 200V300 CAVOK 38/M00 Q1006 NOSIG,OMAL,2023-04-30T10:00:00Z,24.25,55.6,38.0,0.0,270,6,,6.21,29.704725,,,,,,TRUE,,,,,CAVOK,,,,,,,,VFR,,,,,,,,,,,,METAR,247.0
OMAD 301000Z 35009KT CAVOK 35/11 Q1005 NOSIG,OMAD,2023-04-30T10:00:00Z,24.42,54.47,35.0,11.0,350,9,,6.21,29.675198,,,,,,TRUE,,,,,CAVOK,,,,,,,,VFR,,,,,,,,,,,,METAR,9.0
OMAA 301000Z 32012KT CAVOK 36/05 Q1005 NOSIG,OMAA,2023-04-30T10:00:00Z,24.42,54.65,36.0,5.0,320,12,,6.21,29.675198,,,,,,TRUE,,,,,CAVOK,,,,,,,,VFR,,,,,,,,,,,,METAR,13.0
OLBA 301000Z 21014KT 180V240 6000 TSRA FEW020CB BKN026 17/12 Q1016 RERA NOSIG,OLBA,2023-04-30T10:00:00Z,33.82,35.48,17.0,12.0,210,14,,3.73,30.0,,,,,,TRUE,,,,TSRA,FEW,2000,BKN,2600,,,,,MVFR,,,,,,,,,,,,METAR,29.0
OKKK 301000Z 07013KT 7000 NSC 35/15 Q1005 NOSIG,OKKK,2023-04-30T10:00:00Z,,,35.0,15.0,70,13,,4.35,29.675198,,,,,,TRUE,,,,,CLR,,,,,,,,MVFR,,,,,,,,,,,,METAR,
OJAQ 301000Z 02008KT CAVOK 24/03 Q1014 NOSIG,OJAQ,2023-04-30T10:00:00Z,29.62,35.02,24.0,3.0,20,8,,6.21,29.940945,,,,,,TRUE,,,,,CAVOK,,,,,,,,VFR,,,,,,,,,,,,METAR,45.0
OJAM 301000Z 25010KT 7000 FEW030 BKN060 15/04 Q1016 NOSIG,OJAM,2023-04-30T10:00:00Z,31.98,35.98,15.0,4.0,250,10,,4.35,30.0,,,,,,TRUE,,,,,FEW,3000,BKN,6000,,,,,MVFR,,,,,,,,,,,,METAR,765.0
OJAI 301000Z 27012KT 5000 HZ SCT030 SCT035 16/03 Q1016 NOSIG,OJAI,2023-04-30T10:00:00Z,31.72,36.0,16.0,3.0,270,12,,3.11,30.0,,,,,,TRUE,,,,HZ,SCT,3000,SCT,3500,,,,,MVFR,,,,,,,,,,,,METAR,723.0
OIZJ 301000Z 22008KT 6000 NSC 29/25 Q1004,OIZJ,2023-04-30T10:00:00Z,25.65,57.8,29.0,25.0,220,8,,3.73,29.64567,,,,,,,,,,,CLR,,,,,,,,MVFR,,,,,,,,,,,,METAR,6.0
OIZI 301000Z 26008KT 9999 SCT040TCU FEW100 34/11 Q1006,OIZI,2023-04-30T10:00:00Z,27.23,60.72,34.0,11.0,260,8,,6.21,29.704725,,,,,,,,,,,SCT,4000,FEW,10000,,,,,VFR,,,,,,,,,,,,METAR,622.0
OIZH 301000Z 11021KT 9999 VCTS SCT035CB SCT040TCU 22/09 Q1012 A2991 RESH,OIZH,2023-04-30T10:00:00Z,29.47,60.92,22.0,9.0,110,21,,6.21,29.88189,,,,,,,,,,VCTS,SCT,3500,SCT,4000,,,,,VFR,,,,,,,,,,,,METAR,1378.0
OIZC 301000Z 22018KT 9999 FEW035 33/18 Q1003,OIZC,2023-04-30T10:00:00Z,25.45,60.38,33.0,18.0,220,18,,6.21,29.616142,,,,,,,,,,,FEW,3500,,,,,,,VFR,,,,,,,,,,,,METAR,13.0
OIZB 301000Z 01006KT 4000 DU NSC 38/07 Q1004,OIZB,2023-04-30T10:00:00Z,31.1,61.55,38.0,7.0,10,6,,2.49,29.64567,,,,,,,,,,DU,CLR,,,,,,,,IFR,,,,,,,,,,,,METAR,483.0
OIYY 301000Z 26006KT 9999 SCT035TCU 30/03 Q1011 NOSIG,OIYY,2023-04-30T10:00:00Z,31.9,54.28,30.0,3.0,260,6,,6.21,29.852362,,,,,,TRUE,,,,,SCT,3500,,,,,,,VFR,,,,,,,,,,,,METAR,1226.0
OITZ 301000Z 21019KT 9999 SHRA SCT035CB SCT040 19/04 Q1012 A2991,OITZ,2023-04-30T10:00:00Z,36.77,48.37,19.0,4.0,210,19,,6.21,29.88189,,,,,,,,,,SHRA,SCT,3500,SCT,4000,,,,,VFR,,,,,,,,,,,,METAR,1630.0
OITT 301000Z 22025KT 9999 SCT030TCU FEW032CB BKN180 21/M04 Q1011 A2987,OITT,2023-04-30T10:00:00Z,38.13,46.23,21.0,-4.0,220,25,,6.21,29.852362,,,,,,,,,,,SCT,3000,FEW,3200,BKN,18000,,,VFR,,,,,,,,,,,,METAR,1353.0
OITR 301000Z 22012KT 9999 FEW040 SCT180 18/M05 Q1010 A2984 NOSIG,OITR,2023-04-30T10:00:00Z,37.67,45.07,18.0,-5.0,220,12,,6.21,29.822834,,,,,,TRUE,,,,,FEW,4000,SCT,18000,,,,,VFR,,,,,,,,,,,,METAR,1312.0
OITP 301000Z 00000KT 9999 TS SCT035CB BKN040 BKN080 25/15 Q1004,OITP,2023-04-30T10:00:00Z,39.6,47.88,25.0,15.0,0,0,,6.21,29.64567,,,,,,,,,,TS,SCT,3500,BKN,4000,BKN,8000,,,VFR,,,,,,,,,,,,METAR,72.0
OITM 301000Z 24010KT 9999 FEW035TCU BKN180 20/M03 Q1011,OITM,2023-04-30T10:00:00Z,37.35,46.15,20.0,-3.0,240,10,,6.21,29.852362,,,,,,,,,,,FEW,3500,BKN,18000,,,,,VFR,,,,,,,,,,,,METAR,1340.0
OITL 301000Z 23023KT 9999 TSRA FEW040 SCT045TCU BKN050CB 22/02 Q1009 TEMPO SHRA,OITL,2023-04-30T10:00:00Z,38.33,48.42,22.0,2.0,230,23,,6.21,29.793306,,,,,,,,,,TSRA,FEW,4000,SCT,4500,BKN,5000,,,VFR,,,,,,,,,,,,SPECI,1314.0
OITK 301000Z 20017G27KT 9999 FEW035 22/M03 Q1008 A2979,OITK,2023-04-30T10:00:00Z,38.42,44.98,22.0,-3.0,200,17,27,6.21,29.763779,,,,,,,,,,,FEW,3500,,,,,,,VFR,,,,,,,,,,,,METAR,1192.0
OISY 301000Z 24006KT 9999 FEW040 25/M12 Q1019,OISY,2023-04-30T10:00:00Z,30.7,51.55,25.0,-12.0,240,6,,6.21,30.088583,,,,,,,,,,,FEW,4000,,,,,,,VFR,,,,,,,,,,,,METAR,1800.0
OISR 301000Z 28012KT CAVOK 37/09 Q1008 A2977 NOSIG,OISR,2023-04-30T10:00:00Z,27.37,53.2,37.0,9.0,280,12,,6.21,29.763779,,,,,,TRUE,,,,,CAVOK,,,,,,,,VFR,,,,,,,,,,,,METAR,402.0
OISL 301000Z 24008KT CAVOK 33/02 Q1008 A2978 NOSIG,OISL,2023-04-30T10:00:00Z,27.67,54.37,33.0,2.0,240,8,,6.21,29.763779,,,,,,TRUE,,,,,CAVOK,,,,,,,,VFR,,,,,,,,,,,,METAR,804.0
OISF 301000Z 21004KT 9999 FEW035 28/M03 Q1013 A2994,OISF,2023-04-30T10:00:00Z,28.9,53.72,28.0,-3.0,210,4,,6.21,29.911417,,,,,,,,,,,FEW,3500,,,,,,,VFR,,,,,,,,,,,,METAR,1305.0
OINZ 301000Z 05008KT 9999 FEW035 SCT190 30/17 Q1004,OINZ,2023-04-30T10:00:00Z,36.63,53.2,30.0,17.0,50,8,,6.21,29.64567,,,,,,,,,,,FEW,3500,SCT,19000,,,,,VFR,,,,,,,,,,,,METAR,8.0
OINR 301000Z 11008KT 9999 FEW030CB SCT035 21/18 Q1004,OINR,2023-04-30T10:00:00Z,36.9,50.67,21.0,18.0,110,8,,6.21,29.64567,,,,,,,,,,,FEW,3000,SCT,3500,,,,,VFR,,,,,,,,,,,,METAR,-19.0
OINN 301000Z 04010KT 9999 SCT030CB 22/19 Q1003,OINN,2023-04-30T10:00:00Z,36.67,51.47,22.0,19.0,40,10,,6.21,29.616142,,,,,,,,,,,SCT,3000,,,,,,,VFR,,,,,,,,,,,,METAR,-25.0
OING 301000Z 26004KT 8000 FEW035CB SCT190 28/17 Q1006 NOSIG,OING,2023-04-30T10:00:00Z,36.9,54.4,28.0,17.0,260,4,,4.97,29.704725,,,,,,TRUE,,,,,FEW,3500,SCT,19000,,,,,MVFR,,,,,,,,,,,,METAR,0.0
OINE 301000Z 19006KT 9999 FEW035CB SCT170 32/15 Q1004,OINE,2023-04-30T10:00:00Z,37.38,55.45,32.0,15.0,190,6,,6.21,29.64567,,,,,,,,,,,FEW,3500,SCT,17000,,,,,VFR,,,,,,,,,,,,METAR,125.0
OIMS 301000Z 10006KT 9999 FEW030CB SCT035 31/04 Q1011,OIMS,2023-04-30T10:00:00Z,36.17,57.6,31.0,4.0,100,6,,6.21,29.852362,,,,,,,,,,,FEW,3000,SCT,3500,,,,,VFR,,,,,,,,,,,,METAR,920.0
OIMQ 301000Z 35006KT 9999 FEW035 29/03 Q1010,OIMQ,2023-04-30T10:00:00Z,35.27,58.47,29.0,3.0,350,6,,6.21,29.822834,,,,,,,,,,,FEW,3500,,,,,,,VFR,,,,,,,,,,,,METAR,1101.0
OIMN 301000Z 32006KT 9999 FEW025CB SCT030 29/05 Q1010,OIMN,2023-04-30T10:00:00Z,37.48,57.3,29.0,5.0,320,6,,6.21,29.822834,,,,,,,,,,,FEW,2500,SCT,3000,,,,,VFR,,,,,,,,,,,,METAR,1065.0
OIMM 301000Z 10008KT 9999 FEW040 BKN090 BKN200 28/08 Q1011 A2988,OIMM,2023-04-30T10:00:00Z,36.23,59.63,28.0,8.0,100,8,,6.21,29.852362,,,,,,,,,,,FEW,4000,BKN,9000,BKN,20000,,,VFR,,,,,,,,,,,,METAR,995.0
OIMJ 301000Z 32021KT 9999 FEW030CB 26/02 Q1011,OIMJ,2023-04-30T10:00:00Z,36.43,55.1,26.0,2.0,320,21,,6.21,29.852362,,,,,,,,,,,FEW,3000,,,,,,,VFR,,,,,,,,,,,,METAR,1285.0
OIMD 301000Z 12010KT 9999 FEW030CB SCT035 29/07 Q1007,OIMD,2023-04-30T10:00:00Z,34.38,58.63,29.0,7.0,120,10,,6.21,29.734253,,,,,,,,,,,FEW,3000,SCT,3500,,,,,VFR,,,,,,,,,,,,METAR,1097.0
OIMB 301000Z 13014KT 8000 TS FEW030CB SCT035 OVC090 24/03 Q1012 A2989,OIMB,2023-04-30T10:00:00Z,32.9,59.28,24.0,3.0,130,14,,4.97,29.88189,,,,,,,,,,TS,FEW,3000,SCT,3500,OVC,9000,,,MVFR,,,,,,,,,,,,METAR,1512.0
OIKQ 301000Z 25014KT 7000 NSC 32/18 Q1005 NOSIG,OIKQ,2023-04-30T10:00:00Z,26.75,55.9,32.0,18.0,250,14,,4.35,29.675198,,,,,,TRUE,,,,,CLR,,,,,,,,MVFR,,,,,,,,,,,,METAR,9.0
OIKK 301000Z 29023G45KT 9999 SCT030CB BKN040 19/04 Q1015 A3000,OIKK,2023-04-30T10:00:00Z,30.25,56.97,19.0,4.0,290,23,45,6.21,29.970472,,,,,,,,,,,SCT,3000,BKN,4000,,,,,VFR,,,,,,,,,,,,METAR,1749.0
OIKB 301000Z 21010KT 5000 HZ NSC 32/19 Q1004 A2967 NOSIG,OIKB,2023-04-30T10:00:00Z,27.22,56.37,32.0,19.0,210,10,,3.11,29.64567,,,,,,TRUE,,,,HZ,CLR,,,,,,,,MVFR,,,,,,,,,,,,METAR,6.0
OIIP 301000Z 15006KT 9999 FEW030CB BKN035 27/01 Q1009 A2980,OIIP,2023-04-30T10:00:00Z,35.78,50.83,27.0,1.0,150,6,,6.21,29.793306,,,,,,,,,,,FEW,3000,BKN,3500,,,,,VFR,,,,,,,,,,,,METAR,1270.0
OIIK 301000Z 24008KT 9999 SCT040CB BKN090 27/03 Q1010,OIIK,2023-04-30T10:00:00Z,36.25,50.05,27.0,3.0,240,8,,6.21,29.822834,,,,,,,,,,,SCT,4000,BKN,9000,,,,,VFR,,,,,,,,,,,,METAR,1278.0
OIII 301000Z 16004KT 9999 FEW030CB FEW035TCU 28/M02 Q1010 A2983 TEMPO 20016KT,OIII,2023-04-30T10:00:00Z,35.68,51.3,28.0,-2.0,160,4,,6.21,29.822834,,,,,,,,,,,FEW,3000,FEW,3500,,,,,VFR,,,1.6,,,,,,,,,METAR,1182.0
OIIE 301000Z 34008KT 9999 FEW035CB 30/M01 Q1008,OIIE,2023-04-30T10:00:00Z,35.42,51.15,30.0,-1.0,340,8,,6.21,29.763779,,,,,,,,,,,FEW,3500,,,,,,,VFR,,,,,,,,,,,,METAR,993.0
OIHR 301000Z 21018G29KT 9999 FEW030 25/M02 Q1014,OIHR,2023-04-30T10:00:00Z,34.13,49.85,25.0,-2.0,210,18,29,6.21,29.940945,,,,,,,,,,,FEW,3000,,,,,,,VFR,,,,,,,,,,,,METAR,1658.0
OIHH 301000Z 21014KT 9999 FEW040TCU SCT045 22/M06 Q1014 A2996,OIHH,2023-04-30T10:00:00Z,34.87,48.55,22.0,-6.0,210,14,,6.21,29.940945,,,,,,,,,,,FEW,4000,SCT,4500,,,,,VFR,,,,,,,,,,,,METAR,1742.0
OIGG 301000Z 32008KT 8000 SCT025 27/19 Q1004,OIGG,2023-04-30T10:00:00Z,37.33,49.6,27.0,19.0,320,8,,4.97,29.64567,,,,,,,,,,,SCT,2500,,,,,,,MVFR,,,,,,,,,,,,METAR,-16.0
OIFS 301000Z 28014KT 9999 FEW040 22/M06 Q1018,OIFS,2023-04-30T10:00:00Z,32.28,50.85,22.0,-6.0,280,14,,6.21,30.059055,,,,,,,,,,,FEW,4000,,,,,,,VFR,,,,,,,,,,,,METAR,2042.0
OIFM 301000Z 26010KT 9999 FEW040 27/M06 Q1014 A2996,OIFM,2023-04-30T10:00:00Z,32.75,51.87,27.0,-6.0,260,10,,6.21,29.940945,,,,,,,,,,,FEW,4000,,,,,,,VFR,,,,,,,,,,,,METAR,1539.0
OICS 301000Z 18014KT 9999 FEW040TCU SCT040 BKN200 22/M01 Q1013 A2992,OICS,2023-04-30T10:00:00Z,35.25,47.02,22.0,-1.0,180,14,,6.21,29.911417,,,,,,,,,,,FEW,4000,SCT,4000,BKN,20000,,,VFR,,,,,,,,,,,,METAR,1369.0
OICM 301000Z 28004KT CAVOK 34/07 Q1006,OICM,2023-04-30T10:00:00Z,,,34.0,7.0,280,4,,6.21,29.704725,,,,,,,,,,,CAVOK,,,,,,,,VFR,,,,,,,,,,,,METAR,
OICK 301000Z 19012KT 9999 SCT040TCU 27/02 Q1013,OICK,2023-04-30T10:00:00Z,33.43,48.28,27.0,2.0,190,12,,6.21,29.911417,,,,,,,,,,,SCT,4000,,,,,,,VFR,,,,,,,,,,,,METAR,1156.0
OICI 301000Z 28008KT 9999 FEW050 23/03 Q1016 A3002,OICI,2023-04-30T10:00:00Z,33.58,46.4,23.0,3.0,280,8,,6.21,30.0,,,,,,,,,,,FEW,5000,,,,,,,VFR,,,,,,,,,,,,METAR,1323.0
OIBV 301000Z 23010KT 8000 NSC 31/18 Q1005,OIBV,2023-04-30T10:00:00Z,26.82,53.35,31.0,18.0,230,10,,4.97,29.675198,,,,,,,,,,,CLR,,,,,,,,MVFR,,,,,,,,,,,,METAR,23.0
OIBS 301000Z 12006KT 4500 HZ NSC 30/18 Q1006,OIBS,2023-04-30T10:00:00Z,25.9,54.55,30.0,18.0,120,6,,2.8,29.704725,,,,,,,,,,HZ,CLR,,,,,,,,IFR,,,,,,,,,,,,METAR,4.0
OIBQ 301000Z 32010KT CAVOK 31/15 Q1005,OIBQ,2023-04-30T10:00:00Z,29.27,50.32,31.0,15.0,320,10,,6.21,29.675198,,,,,,,,,,,CAVOK,,,,,,,,VFR,,,,,,,,,,,,METAR,3.0
OIBP 301000Z 32008KT 8000 NSC 37/12 Q1005 A2968,OIBP,2023-04-30T10:00:00Z,27.38,52.73,37.0,12.0,320,8,,4.97,29.675198,,,,,,,,,,,CLR,,,,,,,,MVFR,,,,,,,,,,,,METAR,13.0
OIBL 301000Z 24012KT 8000 NSC 32/18 Q1005,OIBL,2023-04-30T10:00:00Z,26.53,54.82,32.0,18.0,240,12,,4.97,29.675198,,,,,,,,,,,CLR,,,,,,,,MVFR,,,,,,,,,,,,METAR,25.0
OIBK 301000Z 25010KT 8000 NSC 32/17 Q1006 NOSIG,OIBK,2023-04-30T10:00:00Z,26.53,53.98,32.0,17.0,250,10,,4.97,29.704725,,,,,,TRUE,,,,,CLR,,,,,,,,MVFR,,,,,,,,,,,,METAR,27.0
OIBJ 301000Z AUTO 23007KT //// // ////// 33/07 Q1011,OIBJ,2023-04-30T10:00:00Z,27.82,52.35,33.0,7.0,230,7,,,29.852362,,,TRUE,,,,,,,,,,,,,,,,,,,,,,,,,,,,METAR,647.0
OIBH 301000Z 27012KT CAVOK 32/13 Q1005 A2969,OIBH,2023-04-30T10:00:00Z,27.2,54.32,32.0,13.0,270,12,,6.21,29.675198,,,,,,,,,,,CAVOK,,,,,,,,VFR,,,,,,,,,,,,METAR,412.0
OIBB 301000Z 24008KT CAVOK 34/12 Q1005 A2968 NOSIG,OIBB,2023-04-30T10:00:00Z,28.93,50.83,34.0,12.0,240,8,,6.21,29.675198,,,,,,TRUE,,,,,CAVOK,,,,,,,,VFR,,,,,,,,,,,,METAR,15.0
OIBA 301000Z 30006KT 7000 NSC 31/23 Q1005,OIBA,2023-04-30T10:00:00Z,25.88,55.03,31.0,23.0,300,6,,4.35,29.675198,,,,,,,,,,,CLR,,,,,,,,MVFR,,,,,,,,,,,,METAR,7.0
OIAW 301000Z 16002KT CAVOK 38/10 Q1005,OIAW,2023-04-30T10:00:00Z,31.33,48.77,38.0,10.0,160,2,,6.21,29.675198,,,,,,,,,,,CAVOK,,,,,,,,VFR,,,,,,,,,,,,METAR,25.0
OIAM 301000Z 12006KT CAVOK 35/13 Q1006,OIAM,2023-04-30T10:00:00Z,30.55,49.15,35.0,13.0,120,6,,6.21,29.704725,,,,,,,,,,,CAVOK,,,,,,,,VFR,,,,,,,,,,,,METAR,7.0
OIAH 301000Z 23004KT 9999 FEW040 33/02 Q1010,OIAH,2023-04-30T10:00:00Z,30.33,50.83,33.0,2.0,230,4,,6.21,29.822834,,,,,,,,,,,FEW,4000,,,,,,,VFR,,,,,,,,,,,,METAR,730.0
OIAG 301000Z 28010KT 8000 FEW035TCU 39/09 Q1006,OIAG,2023-04-30T10:00:00Z,30.73,49.68,39.0,9.0,280,10,,4.97,29.704725,,,,,,,,,,,FEW,3500,,,,,,,MVFR,,,,,,,,,,,,METAR,17.0
OIAA 301000Z 07008KT CAVOK 35/16 Q1006,OIAA,2023-04-30T10:00:00Z,30.35,48.22,35.0,16.0,70,8,,6.21,29.704725,,,,,,,,,,,CAVOK,,,,,,,,VFR,,,,,,,,,,,,METAR,4.0
OERK 301000Z 21006KT CAVOK 36/05 Q1010 NOSIG,OERK,2023-04-30T10:00:00Z,24.95,46.72,36.0,5.0,210,6,,6.21,29.822834,,,,,,TRUE,,,,,CAVOK,,,,,,,,VFR,,,,,,,,,,,,METAR,618.0
OEMA 301000Z 32003KT CAVOK 31/M08 Q1013 NOSIG,OEMA,2023-04-30T10:00:00Z,24.55,39.7,31.0,-8.0,320,3,,6.21,29.911417,,,,,,TRUE,,,,,CAVOK,,,,,,,,VFR,,,,,,,,,,,,METAR,639.0
OEJN 301000Z 32015KT CAVOK 34/09 Q1009 NOSIG,OEJN,2023-04-30T10:00:00Z,21.68,39.15,34.0,9.0,320,15,,6.21,29.793306,,,,,,TRUE,,,,,CAVOK,,,,,,,,VFR,,,,,,,,,,,,METAR,8.0
OEDR 301000Z 19011KT 4000 DU NSC 39/10 Q1003,OEDR,2023-04-30T10:00:00Z,26.27,50.17,39.0,10.0,190,11,,2.49,29.616142,,,,,,,,,,DU,CLR,,,,,,,,IFR,,,,,,,,,,,,METAR,17.0
OEDF 301000Z 24008KT 210V280 CAVOK 40/00 Q1004 NOSIG,OEDF,2023-04-30T10:00:00Z,26.43,49.82,40.0,0.0,240,8,,6.21,29.64567,,,,,,TRUE,,,,,CAVOK,,,,,,,,VFR,,,,,,,,,,,,METAR,15.0
OEAB 301000Z 22010KT 9999 TS SCT020 FEW025CB SCT070 22/11 Q1022 NOSIG,OEAB,2023-04-30T10:00:00Z,18.23,42.65,22.0,11.0,220,10,,6.21,30.177166,,,,,,TRUE,,,,TS,SCT,2000,FEW,2500,SCT,7000,,,VFR,,,,,,,,,,,,METAR,2092.0
OBBI 301000Z 18006KT 150V210 8000 NSC 38/12 Q1004 NOSIG,OBBI,2023-04-30T10:00:00Z,26.27,50.63,38.0,12.0,180,6,,4.97,29.64567,,,,,,TRUE,,,,,CLR,,,,,,,,MVFR,,,,,,,,,,,,METAR,6.0
NZWN 301000Z AUTO 36002KT 9999 NCD 14/12 Q1024,NZWN,2023-04-30T10:00:00Z,-41.32,174.8,14.0,12.0,360,2,,6.21,30.236221,,,TRUE,,,,,,,,CLR,,,,,,,,VFR,,,,,,,,,,,,METAR,12.0
NZCH 301000Z AUTO 20003KT 4600 BR OVC006/// 10/10 Q1026,NZCH,2023-04-30T10:00:00Z,-43.48,172.52,10.0,10.0,200,3,,2.86,30.295275,,,TRUE,,,,,,,BR,OVC,600,,,,,,,IFR,,,,,,,,,,,,METAR,36.0
NZAA 301000Z AUTO 07017KT 5000 BR BKN011/// 19/18 Q1017 REDZ,NZAA,2023-04-30T10:00:00Z,-37.02,174.8,19.0,18.0,70,17,,3.11,30.029528,,,TRUE,,,,,,,BR,BKN,1100,,,,,,,MVFR,,,,,,,,,,,,METAR,7.0
NWWW 301000Z AUTO VRB02KT CAVOK 21/20 Q1015 NOSIG,NWWW,2023-04-30T10:00:00Z,-22.02,166.22,21.0,20.0,0,2,,6.21,29.970472,,,TRUE,,,TRUE,,,,,CAVOK,,,,,,,,VFR,,,,,,,,,,,,METAR,16.0
NVVV 301000Z 08003KT 9999 SCT020 26/24 Q1014,NVVV,2023-04-30T10:00:00Z,-17.68,168.3,26.0,24.0,80,3,,6.21,29.940945,,,,,,,,,,,SCT,2000,,,,,,,VFR,,,,,,,,,,,,METAR,23.0
NTAA 301000Z AUTO VRB02KT CAVOK 26/22 Q1012 NOSIG,NTAA,2023-04-30T10:00:00Z,-17.55,-149.62,26.0,22.0,0,2,,6.21,29.88189,,,TRUE,,,TRUE,,,,,CAVOK,,,,,,,,VFR,,,,,,,,,,,,METAR,2.0
NSFA 301000Z 16003KT 9999 FEW022 SCT280 24/23 Q1012,NSFA,2023-04-30T10:00:00Z,-13.83,-172.0,24.0,23.0,160,3,,6.21,29.88189,,,,,,,,,,,FEW,2200,SCT,28000,,,,,VFR,,,,,,,,,,,,METAR,6.0
NLWW 301000Z AUTO 12008KT 080V160 9999 FEW021/// 29/24 Q1011 TEMPO 3000 SHRA BKN012 FEW015CB SCT020TCU,NLWW,2023-04-30T10:00:00Z,-13.23,-176.18,29.0,24.0,120,8,,6.21,29.852362,,,TRUE,,,,,,,,FEW,2100,,,,,,,VFR,,,,,,,,,,,,METAR,24.0
NIUE 301000Z AUTO 12010KT NCD 25/22 Q1016,NIUE,2023-04-30T10:00:00Z,-19.07,-169.92,25.0,22.0,120,10,,,30.0,,,TRUE,,,,,,,,CLR,,,,,,,,,,,,,,,,,,,,METAR,22.0
NGTA 301000Z 06007KT 9999 FEW018TCU SCT040 27/25 Q1009 RMK RR 0 .2MM,NGTA,2023-04-30T10:00:00Z,1.37,173.13,27.0,25.0,60,7,,6.21,29.793306,,,,,,,,,,,FEW,1800,SCT,4000,,,,,VFR,,,,,,,,,,,,METAR,8.0
NGFU 301000Z 09010KT 9999 FEW018TCU BKN100 29/28 Q1009,NGFU,2023-04-30T10:00:00Z,-8.52,179.18,29.0,28.0,90,10,,6.21,29.793306,,,,,,,,,,,FEW,1800,BKN,10000,,,,,VFR,,,,,,,,,,,,METAR,2.0
NFTF 301000Z 09012KT 9999 FEW016 BKN280 23/20 Q1016,NFTF,2023-04-30T10:00:00Z,-21.23,-175.15,23.0,20.0,90,12,,6.21,30.0,,,,,,,,,,,FEW,1600,BKN,28000,,,,,VFR,,,,,,,,,,,,METAR,38.0
NFNA 301000Z VRB02KT 9999 FEW020 25/24 Q1015,NFNA,2023-04-30T10:00:00Z,-18.05,178.57,25.0,24.0,0,2,,6.21,29.970472,,,,,,,,,,,FEW,2000,,,,,,,VFR,,,,,,,,,,,,METAR,6.0
NFFN 301000Z 00000KT 9999 FEW026 26/24 Q1015 NOSIG,NFFN,2023-04-30T10:00:00Z,-17.75,177.45,26.0,24.0,0,0,,6.21,29.970472,,,,,,TRUE,,,,,FEW,2600,,,,,,,VFR,,,,,,,,,,,,METAR,14.0
NCSW 301000Z AUTO NIL,NCSW,2023-04-30T10:00:00Z,,,,,,,,,,,,TRUE,,,,,,,,,,,,,,,,,,,,,,,,,,,,METAR,
NCRK 301000Z AUTO NIL,NCRK,2023-04-30T10:00:00Z,-10.02,-161.1,,,,,,,,,,TRUE,,,,,,,,,,,,,,,,,,,,,,,,,,,,METAR,7.0
NCRG 301000Z AUTO 13006KT 080V180 9999 FEW055/// 24/18 Q1016,NCRG,2023-04-30T10:00:00Z,-21.2,-159.82,24.0,18.0,130,6,,6.21,30.0,,,TRUE,,,,,,,,FEW,5500,,,,,,,VFR,,,,,,,,,,,,METAR,7.0
NCPY 301000Z AUTO NIL,NCPY,2023-04-30T10:00:00Z,-9.02,-158.03,,,,,,,,,,TRUE,,,,,,,,,,,,,,,,,,,,,,,,,,,,METAR,2.0
NCPL 301000Z AUTO NIL,NCPL,2023-04-30T10:00:00Z,1.98,-157.48,,,,,,,,,,TRUE,,,,,,,,,,,,,,,,,,,,,,,,,,,,METAR,3.0
NCPK 301000Z AUTO NIL,NCPK,2023-04-30T10:00:00Z,-10.9,-165.83,,,,,,,,,,TRUE,,,,,,,,,,,,,,,,,,,,,,,,,,,,METAR,5.0
NCNS 301000Z AUTO NIL,NCNS,2023-04-30T10:00:00Z,,,,,,,,,,,,TRUE,,,,,,,,,,,,,,,,,,,,,,,,,,,,METAR,
NCMR 301000Z AUTO 09004KT //// ////// ///// Q1014,NCMR,2023-04-30T10:00:00Z,-19.85,-157.7,,,90,4,,,29.940945,,,TRUE,,,,,,,,,,,,,,,,,,,,,,,,,,,,METAR,8.0
NCMK 301000Z AUTO 14006KT //// ////// ///// Q1013,NCMK,2023-04-30T10:00:00Z,-20.15,-157.33,,,140,6,,,29.911417,,,TRUE,,,,,,,,,,,,,,,,,,,,,,,,,,,,METAR,13.0
NCMH 301000Z AUTO NIL,NCMH,2023-04-30T10:00:00Z,-10.38,-161.0,,,,,,,,,,TRUE,,,,,,,,,,,,,,,,,,,,,,,,,,,,METAR,1.0
NCMG 301000Z AUTO 12005KT //// ////// ///// Q////,NCMG,2023-04-30T10:00:00Z,-21.88,-157.9,,,120,5,,,,,,TRUE,,,,,,,,,,,,,,,,,,,,,,,,,,,,METAR,14.0
NCAT 301000Z AUTO NIL,NCAT,2023-04-30T10:00:00Z,-19.97,-158.12,,,,,,,,,,TRUE,,,,,,,,,,,,,,,,,,,,,,,,,,,,METAR,11.0
NCAI 301000Z AUTO 17006KT //// ////// 26/21 Q1014,NCAI,2023-04-30T10:00:00Z,-18.82,-159.77,26.0,21.0,170,6,,,29.940945,,,TRUE,,,,,,,,,,,,,,,,,,,,,,,,,,,,METAR,7.0
MYSM 301000Z AUTO 15005KT 9999 SCT020/// BKN024/// BKN036/// 25/23 A2995,MYSM,2023-04-30T10:00:00Z,24.05,-74.52,25.0,23.0,150,5,,6.21,29.949802,,,TRUE,,,,,,,,SCT,2000,BKN,2400,BKN,3600,,,MVFR,,,,,,,,,,,,METAR,5.0
MYNN 301000Z 19011KT 9999 FEW025 BKN040 26/24 A2985,MYNN,2023-04-30T10:00:00Z,25.03,-77.47,26.0,24.0,190,11,,6.21,29.84941,,,,,,,,,,,FEW,2500,BKN,4000,,,,,VFR,,,,,,,,,,,,METAR,5.0
MYGF 301000Z AUTO 18015KT //// R24///// // FEW210/// 26/23 A2973,MYGF,2023-04-30T10:00:00Z,26.55,-78.7,26.0,23.0,180,15,,,29.731298,,,TRUE,,,,,,,,FEW,21000,,,,,,,,,,,,,,,,,,,SPECI,2.0
MYCB 301000Z AUTO /////KT ///V/// //// R09///// // NSC ///// A////,MYCB,2023-04-30T10:00:00Z,24.32,-75.45,,,,,,,,,,TRUE,,,,,,,,CLR,,,,,,,,,,,,,,,,,,,,METAR,2.0
MROC 301000Z 07004KT 9999 SCT045 BKN150 21/19 A3001 NOSIG,MROC,2023-04-30T10:00:00Z,10.0,-84.22,21.0,19.0,70,4,,6.21,30.008858,,,,,,TRUE,,,,,SCT,4500,BKN,15000,,,,,VFR,,,,,,,,,,,,METAR,900.0
MPTO 301000Z AUTO 27002KT 9999 FEW000/// 26/24 Q1010,MPTO,2023-04-30T10:00:00Z,9.05,-79.38,26.0,24.0,270,2,,6.21,29.822834,,,TRUE,,,,,,,,FEW,0,,,,,,,VFR,,,,,,,,,,,,METAR,7.0
MPMG 301000Z AUTO 01002KT //// R01///// // FEW072/// OVC100/// 26/25 Q1011,MPMG,2023-04-30T10:00:00Z,8.98,-79.57,26.0,25.0,10,2,,,29.852362,,,TRUE,,,,,,,,FEW,7200,OVC,10000,,,,,,,,,,,,,,,,,SPECI,6.0
MHTG 301000Z 30003KT 8000 -RA BKN036 21/19 Q1018 A3006 NOSIG,MHTG,2023-04-30T10:00:00Z,14.07,-87.22,21.0,19.0,300,3,,4.97,30.059055,,,,,,TRUE,,,,-RA,BKN,3600,,,,,,,MVFR,,,,,,,,,,,,METAR,1001.0
MHPR 301000Z 03012KT 8000 BKN046 FEW048CB 21/19 Q1017 A3004 RERA NOSIG,MHPR,2023-04-30T10:00:00Z,14.38,-87.62,21.0,19.0,30,12,,4.97,30.029528,,,,,,TRUE,,,,,BKN,4600,FEW,4800,,,,,MVFR,,,,,,,,,,,,METAR,628.0
MHLM 301000Z 21005KT 9999 FEW025 SCT080 23/22 Q1013 A2991 NOSIG,MHLM,2023-04-30T10:00:00Z,15.45,-87.93,23.0,22.0,210,5,,6.21,29.911417,,,,,,TRUE,,,,,FEW,2500,SCT,8000,,,,,VFR,,,,,,,,,,,,METAR,32.0
MGPB 301000Z 00000KT CAVOK 23/22 Q1012 A2988 SCT200,MGPB,2023-04-30T10:00:00Z,15.73,-88.58,23.0,22.0,0,0,,6.21,29.88189,,,,,,,,,,,SCT,20000,,,,,,,VFR,,,,,,,,,,,,METAR,6.0
MGMM 301000Z 30006KT 9999 SCT016 SCT090 25/22 Q1015 A2997,MGMM,2023-04-30T10:00:00Z,16.9,-89.87,25.0,22.0,300,6,,6.21,29.970472,,,,,,,,,,,SCT,1600,SCT,9000,,,,,VFR,,,,,,,,,,,,METAR,105.0
MGHT 301000Z 00000KT 9999 BKN024 15/13,MGHT,2023-04-30T10:00:00Z,15.32,-91.5,15.0,13.0,0,0,,6.21,,,,,,,,,,,,BKN,2400,,,,,,,MVFR,,,,,,,,,,,,METAR,1875.0
MGGT 301000Z 03012KT 9999 SCT014 BKN080 18/15 Q1021 A3015,MGGT,2023-04-30T10:00:00Z,14.58,-90.53,18.0,15.0,30,12,,6.21,30.147638,,,,,,,,,,,SCT,1400,BKN,8000,,,,,VFR,,,,,,,,,,,,METAR,1497.0
MDST 301000Z 11006KT 9999 SCT016 24/24 Q1014,MDST,2023-04-30T10:00:00Z,19.4,-70.6,24.0,24.0,110,6,,6.21,29.940945,,,,,,,,,,,SCT,1600,,,,,,,VFR,,,,,,,,,,,,METAR,175.0
MDSD 301000Z 07004KT 9999 FEW016 23/22 Q1015,MDSD,2023-04-30T10:00:00Z,18.42,-69.67,23.0,22.0,70,4,,6.21,29.970472,,,,,,,,,,,FEW,1600,,,,,,,VFR,,,,,,,,,,,,METAR,18.0
MDPC 301000Z 00000KT 9999 FEW016 24/23 Q1015,MDPC,2023-04-30T10:00:00Z,18.57,-68.37,24.0,23.0,0,0,,6.21,29.970472,,,,,,,,,,,FEW,1600,,,,,,,VFR,,,,,,,,,,,,METAR,10.0
MBPV 301000Z 15006KT 9999 SCT015 26/21 Q1013,MBPV,2023-04-30T10:00:00Z,21.77,-72.27,26.0,21.0,150,6,,6.21,29.911417,,,,,,,,,,,SCT,1500,,,,,,,VFR,,,,,,,,,,,,METAR,7.0
LZZI 301000Z 05009KT 020V080 9999 BKN033 11/04 Q1020,LZZI,2023-04-30T10:00:00Z,49.23,18.62,11.0,4.0,50,9,,6.21,30.11811,,,,,,,,,,,BKN,3300,,,,,,,VFR,,,,,,,,,,,,METAR,311.0
LZTT 301000Z 24012KT 9999 SCT030 SCT046 12/05 Q1017 NOSIG,LZTT,2023-04-30T10:00:00Z,49.07,20.25,12.0,5.0,240,12,,6.21,30.029528,,,,,,TRUE,,,,,SCT,3000,SCT,4600,,,,,VFR,,,,,,,,,,,,METAR,693.0
LZPP 301000Z 02013KT 350V050 9999 FEW040 15/06 Q1019,LZPP,2023-04-30T10:00:00Z,48.62,17.83,15.0,6.0,20,13,,6.21,30.088583,,,,,,,,,,,FEW,4000,,,,,,,VFR,,,,,,,,,,,,METAR,160.0
LZKZ 301000Z 01013KT 9999 FEW040 15/08 Q1016 NOSIG,LZKZ,2023-04-30T10:00:00Z,48.67,21.23,15.0,8.0,10,13,,6.21,30.0,,,,,,TRUE,,,,,FEW,4000,,,,,,,VFR,,,,,,,,,,,,METAR,227.0
LZIB 301000Z 34013KT 9999 SCT044 16/04 Q1019 NOSIG,LZIB,2023-04-30T10:00:00Z,48.17,17.22,16.0,4.0,340,13,,6.21,30.088583,,,,,,TRUE,,,,,SCT,4400,,,,,,,VFR,,,,,,,,,,,,METAR,129.0
LYVR 301000Z AUTO VRB02KT CAVOK 18/09 Q1016,LYVR,2023-04-30T10:00:00Z,45.13,21.32,18.0,9.0,0,2,,6.21,30.0,,,TRUE,,,,,,,,CAVOK,,,,,,,,VFR,,,,,,,,,,,,METAR,82.0
LYTV 301000Z 26005KT 210V340 9999 FEW060 20/08 Q1015 NOSIG,LYTV,2023-04-30T10:00:00Z,42.4,18.72,20.0,8.0,260,5,,6.21,29.970472,,,,,,TRUE,,,,,FEW,6000,,,,,,,VFR,,,,,,,,,,,,METAR,3.0
LYPG 301000Z VRB02KT 9999 FEW050 21/09 Q1014 NOSIG,LYPG,2023-04-30T10:00:00Z,42.37,19.25,21.0,9.0,0,2,,6.21,29.940945,,,,,,TRUE,,,,,FEW,5000,,,,,,,VFR,,,,,,,,,,,,METAR,32.0
LYNI 301000Z 23003KT 120V280 9999 SCT047 18/09 Q1015 BECMG 32012KT,LYNI,2023-04-30T10:00:00Z,43.33,21.85,18.0,9.0,230,3,,6.21,29.970472,,,,,,,,,,,SCT,4700,,,,,,,VFR,,,,,,,,,,,,SPECI,197.0
LYKV 301000Z 06005KT 360V130 9999 SCT043 19/10 Q1015 NOSIG,LYKV,2023-04-30T10:00:00Z,43.82,20.58,19.0,10.0,60,5,,6.21,29.970472,,,,,,TRUE,,,,,SCT,4300,,,,,,,VFR,,,,,,,,,,,,METAR,209.0
LYBT 301000Z 33005KT 260V040 9999 SCT040 21/12 Q1016 NOSIG,LYBT,2023-04-30T10:00:00Z,44.93,20.25,21.0,12.0,330,5,,6.21,30.0,,,,,,TRUE,,,,,SCT,4000,,,,,,,VFR,,,,,,,,,,,,METAR,78.0
LYBE 301000Z 26008KT 240V300 9999 FEW030TCU SCT040 18/10 Q1016 BECMG SCT040,LYBE,2023-04-30T10:00:00Z,44.82,20.28,18.0,10.0,260,8,,6.21,30.0,,,,,,,,,,,FEW,3000,SCT,4000,,,,,VFR,,,,,,,,,,,,SPECI,93.0
LWSK 301000Z 00000KT 9999 FEW050TCU 19/09 Q1015 NOSIG,LWSK,2023-04-30T10:00:00Z,41.97,21.63,19.0,9.0,0,0,,6.21,29.970472,,,,,,TRUE,,,,,FEW,5000,,,,,,,VFR,,,,,,,,,,,,METAR,232.0
LWOH 301000Z 16006KT 9999 FEW040 13/09 Q1015,LWOH,2023-04-30T10:00:00Z,41.18,20.75,13.0,9.0,160,6,,6.21,29.970472,,,,,,,,,,,FEW,4000,,,,,,,VFR,,,,,,,,,,,,METAR,700.0
LUKK 301000Z 01017KT 340V050 CAVOK 15/00 Q1012 NOSIG,LUKK,2023-04-30T10:00:00Z,46.93,28.93,15.0,0.0,10,17,,6.21,29.88189,,,,,,TRUE,,,,,CAVOK,,,,,,,,VFR,,,,,,,,,,,,METAR,102.0
LRTR 301000Z 28005KT 250V360 9999 FEW040 19/11 Q1015,LRTR,2023-04-30T10:00:00Z,45.82,21.33,19.0,11.0,280,5,,6.21,29.970472,,,,,,,,,,,FEW,4000,,,,,,,VFR,,,,,,,,,,,,METAR,104.0
LRTM 301000Z 29007KT 260V320 9999 FEW028 FEW030TCU 18/08 Q1013,LRTM,2023-04-30T10:00:00Z,46.47,24.42,18.0,8.0,290,7,,6.21,29.911417,,,,,,,,,,,FEW,2800,FEW,3000,,,,,VFR,,,,,,,,,,,,METAR,289.0
LRTC 301000Z AUTO 33014KT 9999 NCD 17/M02 Q1011,LRTC,2023-04-30T10:00:00Z,45.07,28.72,17.0,-2.0,330,14,,6.21,29.852362,,,TRUE,,,,,,,,CLR,,,,,,,,VFR,,,,,,,,,,,,METAR,52.0
LRSV 301000Z 05007KT 360V070 CAVOK 15/M00 Q1013,LRSV,2023-04-30T10:00:00Z,47.68,26.35,15.0,0.0,50,7,,6.21,29.911417,,,,,,,,,,,CAVOK,,,,,,,,VFR,,,,,,,,,,,,METAR,406.0
LRSM 301000Z AUTO 33008KT 9999 NCD 19/05 Q1014,LRSM,2023-04-30T10:00:00Z,47.7,22.88,19.0,5.0,330,8,,6.21,29.940945,,,TRUE,,,,,,,,CLR,,,,,,,,VFR,,,,,,,,,,,,METAR,123.0
LRSB 301000Z 01009KT 9999 SCT045 SCT085 16/05 Q1014 NOSIG,LRSB,2023-04-30T10:00:00Z,45.78,24.08,16.0,5.0,10,9,,6.21,29.940945,,,,,,TRUE,,,,,SCT,4500,SCT,8500,,,,,VFR,,,,,,,,,,,,METAR,442.0
LROP 301000Z 24004KT 190V300 CAVOK 19/05 Q1013 NOSIG,LROP,2023-04-30T10:00:00Z,44.57,26.1,19.0,5.0,240,4,,6.21,29.911417,,,,,,TRUE,,,,,CAVOK,,,,,,,,VFR,,,,,,,,,,,,METAR,92.0
LROD 301000Z 34005KT 290V060 9999 SCT044 18/08 Q1015,LROD,2023-04-30T10:00:00Z,47.03,21.88,18.0,8.0,340,5,,6.21,29.970472,,,,,,,,,,,SCT,4400,,,,,,,VFR,,,,,,,,,,,,METAR,132.0
LRIA 301000Z 33011KT CAVOK 16/01 Q1013,LRIA,2023-04-30T10:00:00Z,47.17,27.62,16.0,1.0,330,11,,6.21,29.911417,,,,,,,,,,,CAVOK,,,,,,,,VFR,,,,,,,,,,,,METAR,71.0
LRCV 301000Z 30007KT 270V330 CAVOK 20/07 Q1013,LRCV,2023-04-30T10:00:00Z,44.32,23.88,20.0,7.0,300,7,,6.21,29.911417,,,,,,,,,,,CAVOK,,,,,,,,VFR,,,,,,,,,,,,METAR,192.0
LRCL 301000Z 31008KT 9999 SCT048 18/07 Q1014,LRCL,2023-04-30T10:00:00Z,46.78,23.68,18.0,7.0,310,8,,6.21,29.940945,,,,,,,,,,,SCT,4800,,,,,,,VFR,,,,,,,,,,,,METAR,313.0
LRCK 301000Z 32018KT CAVOK 17/01 Q1012 NOSIG,LRCK,2023-04-30T10:00:00Z,44.37,28.48,17.0,1.0,320,18,,6.21,29.88189,,,,,,TRUE,,,,,CAVOK,,,,,,,,VFR,,,,,,,,,,,,METAR,108.0
LRBS 301000Z 25007KT 200V290 CAVOK 19/06 Q1013 NOSIG,LRBS,2023-04-30T10:00:00Z,44.5,26.08,19.0,6.0,250,7,,6.21,29.911417,,,,,,TRUE,,,,,CAVOK,,,,,,,,VFR,,,,,,,,,,,,METAR,91.0
LRBM 301000Z 27015KT CAVOK 17/07 Q1014,LRBM,2023-04-30T10:00:00Z,47.67,23.47,17.0,7.0,270,15,,6.21,29.940945,,,,,,,,,,,CAVOK,,,,,,,,VFR,,,,,,,,,,,,METAR,180.0
LRBC 301000Z 35011KT 320V020 CAVOK 16/M01 Q1013,LRBC,2023-04-30T10:00:00Z,46.52,26.92,16.0,-1.0,350,11,,6.21,29.911417,,,,,,,,,,,CAVOK,,,,,,,,VFR,,,,,,,,,,,,METAR,183.0
LRAR 301000Z 31008KT 9999 SCT045 19/10 Q1015,LRAR,2023-04-30T10:00:00Z,46.18,21.27,19.0,10.0,310,8,,6.21,29.970472,,,,,,,,,,,SCT,4500,,,,,,,VFR,,,,,,,,,,,,METAR,102.0
LQTZ 301000Z 29007KT 9999 FEW030 BKN045 17/12 Q1017,LQTZ,2023-04-30T10:00:00Z,44.47,18.73,17.0,12.0,290,7,,6.21,30.029528,,,,,,,,,,,FEW,3000,BKN,4500,,,,,VFR,,,,,,,,,,,,METAR,242.0
LQSA 301000Z 32003KT 290V360 8000 -RA FEW030 BKN060 14/11 Q1017 NOSIG,LQSA,2023-04-30T10:00:00Z,43.82,18.32,14.0,11.0,320,3,,4.97,30.029528,,,,,,TRUE,,,,-RA,FEW,3000,BKN,6000,,,,,MVFR,,,,,,,,,,,,METAR,505.0
LQMO 301000Z VRB02KT 9999 FEW045 22/10 Q1012,LQMO,2023-04-30T10:00:00Z,43.28,17.83,22.0,10.0,0,2,,6.21,29.88189,,,,,,,,,,,FEW,4500,,,,,,,VFR,,,,,,,,,,,,METAR,49.0
LQBK 301000Z 34008KT 9999 FEW030 17/14 Q1018 NOSIG,LQBK,2023-04-30T10:00:00Z,44.93,17.3,17.0,14.0,340,8,,6.21,30.059055,,,,,,TRUE,,,,,FEW,3000,,,,,,,VFR,,,,,,,,,,,,METAR,114.0
LPPT 301000Z 34011KT 310V030 9999 FEW020 20/14 Q1019,LPPT,2023-04-30T10:00:00Z,38.77,-9.13,20.0,14.0,340,11,,6.21,30.088583,,,,,,,,,,,FEW,2000,,,,,,,VFR,,,,,,,,,,,,METAR,98.0
LPPS 301000Z 11008KT 060V140 9999 FEW013 22/17 Q1020,LPPS,2023-04-30T10:00:00Z,33.07,-16.35,22.0,17.0,110,8,,6.21,30.11811,,,,,,,,,,,FEW,1300,,,,,,,VFR,,,,,,,,,,,,METAR,89.0
LPPR 301000Z 02004KT 350V060 9999 FEW015 19/16 Q1021,LPPR,2023-04-30T10:00:00Z,41.23,-8.68,19.0,16.0,20,4,,6.21,30.147638,,,,,,,,,,,FEW,1500,,,,,,,VFR,,,,,,,,,,,,METAR,64.0
LPPD 301000Z 26007KT 8000 FEW006 SCT011 BKN030 16/15 Q1010 RERA,LPPD,2023-04-30T10:00:00Z,37.73,-25.68,16.0,15.0,260,7,,4.97,29.822834,,,,,,,,,,,FEW,600,SCT,1100,BKN,3000,,,MVFR,,,,,,,,,,,,METAR,62.0
LPOV 301000Z 32010KT 290V350 CAVOK 19/17 Q1021,LPOV,2023-04-30T10:00:00Z,40.92,-8.65,19.0,17.0,320,10,,6.21,30.147638,,,,,,,,,,,CAVOK,,,,,,,,VFR,,,,,,,,,,,,METAR,16.0
LPMT 301000Z 36013KT 9999 FEW018 21/15 Q1019,LPMT,2023-04-30T10:00:00Z,38.7,-9.05,21.0,15.0,360,13,,6.21,30.088583,,,,,,,,,,,FEW,1800,,,,,,,VFR,,,,,,,,,,,,METAR,4.0
LPMR 301000Z 36010KT 9999 SCT010 BKN015 19/15 Q1020,LPMR,2023-04-30T10:00:00Z,39.82,-8.88,19.0,15.0,360,10,,6.21,30.11811,,,,,,,,,,,SCT,1000,BKN,1500,,,,,MVFR,,,,,,,,,,,,METAR,50.0
LPMA 301000Z 04007KT 9999 FEW013 22/17 Q1021,LPMA,2023-04-30T10:00:00Z,32.7,-16.77,22.0,17.0,40,7,,6.21,30.147638,,,,,,,,,,,FEW,1300,,,,,,,VFR,,,,,,,,,,,,METAR,54.0
LPLA 301000Z /////KT 9999 FEW017 SCT020 18/15 Q1008,LPLA,2023-04-30T10:00:00Z,38.77,-27.1,18.0,15.0,,,,6.21,29.763779,,,,,,,,,,,FEW,1700,SCT,2000,,,,,VFR,,,,,,,,,,,,SPECI,60.0
LPHR 301000Z 24020KT 9999 SCT017 17/14 Q1007,LPHR,2023-04-30T10:00:00Z,38.52,-28.72,17.0,14.0,240,20,,6.21,29.734253,,,,,,,,,,,SCT,1700,,,,,,,VFR,,,,,,,,,,,,METAR,39.0
LPFR 301000Z 25008KT 220V290 9999 FEW048 23/15 Q1017,LPFR,2023-04-30T10:00:00Z,37.02,-7.97,23.0,15.0,250,8,,6.21,30.029528,,,,,,,,,,,FEW,4800,,,,,,,VFR,,,,,,,,,,,,METAR,3.0
LPFL 301000Z 24011G23KT 170V310 9999 SCT020 16/10 Q1003,LPFL,2023-04-30T10:00:00Z,39.45,-31.12,16.0,10.0,240,11,23,6.21,29.616142,,,,,,,,,,,SCT,2000,,,,,,,VFR,,,,,,,,,,,,METAR,35.0
LPCS 301000Z 01019KT 9999 FEW018 20/14 Q1019,LPCS,2023-04-30T10:00:00Z,38.73,-9.35,20.0,14.0,10,19,,6.21,30.088583,,,,,,,,,,,FEW,1800,,,,,,,VFR,,,,,,,,,,,,METAR,99.0
LPBJ 301000Z 34008KT 300V010 CAVOK 21/13 Q1018,LPBJ,2023-04-30T10:00:00Z,38.08,-7.93,21.0,13.0,340,8,,6.21,30.059055,,,,,,,,,,,CAVOK,,,,,,,,VFR,,,,,,,,,,,,METAR,196.0
LPAZ 301000Z 19026KT 2000 RA BR FEW004 BKN007 18/17 Q1012,LPAZ,2023-04-30T10:00:00Z,36.97,-25.17,18.0,17.0,190,26,,1.24,29.88189,,,,,,,,,,RA BR,FEW,400,BKN,700,,,,,IFR,,,,,,,,,,,,METAR,96.0
LKTB 301000Z 34009KT 300V010 9999 FEW048 14/04 Q1020 NOSIG,LKTB,2023-04-30T10:00:00Z,49.15,16.68,14.0,4.0,340,9,,6.21,30.11811,,,,,,TRUE,,,,,FEW,4800,,,,,,,VFR,,,,,,,,,,,,METAR,233.0
LKPR 301000Z 34008KT 9999 SCT033 12/04 Q1022 NOSIG,LKPR,2023-04-30T10:00:00Z,50.1,14.27,12.0,4.0,340,8,,6.21,30.177166,,,,,,TRUE,,,,,SCT,3300,,,,,,,VFR,,,,,,,,,,,,METAR,364.0
LKPD 301000Z 30007KT 260V350 9999 SCT048 14/03 Q1021 RMK BLACK,LKPD,2023-04-30T10:00:00Z,50.02,15.73,14.0,3.0,300,7,,6.21,30.147638,,,,,,,,,,,SCT,4800,,,,,,,VFR,,,,,,,,,,,,METAR,226.0
LKNA 301000Z 31010KT 9999 FEW028 BKN048 11/05 Q1020 NOSIG RMK BLU BLU,LKNA,2023-04-30T10:00:00Z,49.17,16.12,11.0,5.0,310,10,,6.21,30.11811,,,,,,TRUE,,,,,FEW,2800,BKN,4800,,,,,VFR,,,,,,,,,,,,METAR,460.0
LKMT 301000Z 36010KT 9999 BKN039 12/05 Q1020 NOSIG,LKMT,2023-04-30T10:00:00Z,49.68,18.12,12.0,5.0,360,10,,6.21,30.11811,,,,,,TRUE,,,,,BKN,3900,,,,,,,VFR,,,,,,,,,,,,METAR,251.0
LKLN 301000Z AUTO VRB05KT 9999 FEW044 15/03 Q1022,LKLN,2023-04-30T10:00:00Z,49.68,13.27,15.0,3.0,0,5,,6.21,30.177166,,,TRUE,,,,,,,,FEW,4400,,,,,,,VFR,,,,,,,,,,,,METAR,353.0
LKKV 301000Z VRB04KT 9999 FEW040 12/01 Q1021,LKKV,2023-04-30T10:00:00Z,50.2,12.92,12.0,1.0,0,4,,6.21,30.147638,,,,,,,,,,,FEW,4000,,,,,,,VFR,,,,,,,,,,,,METAR,600.0
LKKB 301000Z 32007KT 290V360 9999 BKN029 12/03 Q1022 NOSIG,LKKB,2023-04-30T10:00:00Z,50.12,14.53,12.0,3.0,320,7,,6.21,30.177166,,,,,,TRUE,,,,,BKN,2900,,,,,,,MVFR,,,,,,,,,,,,METAR,281.0
LKCV 301000Z 31011KT 9999 SCT040 14/06 Q1021 NOSIG RMK BLU BLU,LKCV,2023-04-30T10:00:00Z,49.93,15.38,14.0,6.0,310,11,,6.21,30.147638,,,,,,TRUE,,,,,SCT,4000,,,,,,,VFR,,,,,,,,,,,,METAR,234.0
LJPZ 301000Z 13002KT 9999 FEW065 BKN100 23/11 Q1015,LJPZ,2023-04-30T10:00:00Z,45.47,13.62,23.0,11.0,130,2,,6.21,29.970472,,,,,,,,,,,FEW,6500,BKN,10000,,,,,VFR,,,,,,,,,,,,METAR,2.0
LJMB 301000Z 03006KT 350V070 9999 BKN027 BKN089 16/08 Q1019,LJMB,2023-04-30T10:00:00Z,46.47,15.67,16.0,8.0,30,6,,6.21,30.088583,,,,,,,,,,,BKN,2700,BKN,8900,,,,,MVFR,,,,,,,,,,,,METAR,263.0
LJLJ 301000Z 14005KT 110V210 9999 SCT026 BKN040 16/09 Q1018 NOSIG,LJLJ,2023-04-30T10:00:00Z,46.22,14.47,16.0,9.0,140,5,,6.21,30.059055,,,,,,TRUE,,,,,SCT,2600,BKN,4000,,,,,VFR,,,,,,,,,,,,METAR,363.0
LJCE 301000Z 09005KT 010V140 9999 FEW028 BKN092 18/09 Q1019 RMK BLU,LJCE,2023-04-30T10:00:00Z,45.9,15.52,18.0,9.0,90,5,,6.21,30.088583,,,,,,,,,,,FEW,2800,BKN,9200,,,,,VFR,,,,,,,,,,,,METAR,153.0
LHBP 301000Z 33009KT 300V010 9999 SCT047 19/08 Q1016 NOSIG,LHBP,2023-04-30T10:00:00Z,47.43,19.27,19.0,8.0,330,9,,6.21,30.0,,,,,,TRUE,,,,,SCT,4700,,,,,,,VFR,,,,,,,,,,,,METAR,141.0
LFYR 301000Z AUTO 06007KT 350V100 9999 FEW029 15/08 Q1020,LFYR,2023-04-30T10:00:00Z,47.32,1.68,15.0,8.0,60,7,,6.21,30.11811,,,TRUE,,,,,,,,FEW,2900,,,,,,,VFR,,,,,,,,,,,,METAR,83.0
LFVP 301000Z AUTO 33012KT CAVOK 05/M03 Q1022 NOSIG,LFVP,2023-04-30T10:00:00Z,46.77,-56.18,5.0,-3.0,330,12,,6.21,30.177166,,,TRUE,,,TRUE,,,,,CAVOK,,,,,,,,VFR,,,,,,,,,,,,METAR,5.0
LFTW 301000Z AUTO 01009KT 330V050 CAVOK 21/11 Q1014 NOSIG,LFTW,2023-04-30T10:00:00Z,43.75,4.42,21.0,11.0,10,9,,6.21,29.940945,,,TRUE,,,TRUE,,,,,CAVOK,,,,,,,,VFR,,,,,,,,,,,,METAR,91.0
LFTH 301000Z AUTO VRB01KT 9999 -DZ SCT036 BKN043 BKN050 18/16 Q1013 TEMPO 4500 SHRA SCT030TCU,LFTH,2023-04-30T10:00:00Z,43.1,6.15,18.0,16.0,0,1,,6.21,29.911417,,,TRUE,,,,,,,-DZ,SCT,3600,BKN,4300,BKN,5000,,,VFR,,,,,,,,,,,,SPECI,3.0
LFST 301000Z AUTO 04013KT 9999 FEW041 18/09 Q1019 NOSIG,LFST,2023-04-30T10:00:00Z,48.53,7.63,18.0,9.0,40,13,,6.21,30.088583,,,TRUE,,,TRUE,,,,,FEW,4100,,,,,,,VFR,,,,,,,,,,,,METAR,149.0
LFSO 301000Z AUTO 06013KT 020V090 9999 FEW037 SCT230 16/07 Q1019,LFSO,2023-04-30T10:00:00Z,48.57,5.97,16.0,7.0,60,13,,6.21,30.088583,,,TRUE,,,,,,,,FEW,3700,SCT,23000,,,,,VFR,,,,,,,,,,,,METAR,328.0
LFSN 301000Z AUTO 07016KT 040V100 CAVOK 16/08 Q1019,LFSN,2023-04-30T10:00:00Z,48.68,6.22,16.0,8.0,70,16,,6.21,30.088583,,,TRUE,,,,,,,,CAVOK,,,,,,,,VFR,,,,,,,,,,,,METAR,214.0
LFSM 301000Z AUTO 06009KT 030V090 9999 BKN027 BKN190 BKN210 15/09 Q1017,LFSM,2023-04-30T10:00:00Z,47.48,6.78,15.0,9.0,60,9,,6.21,30.029528,,,TRUE,,,,,,,,BKN,2700,BKN,19000,BKN,21000,,,MVFR,,,,,,,,,,,,METAR,317.0
LFSL 301000Z AUTO 33010KT CAVOK 19/08 Q1018 NOSIG,LFSL,2023-04-30T10:00:00Z,45.03,1.48,19.0,8.0,330,10,,6.21,30.059055,,,TRUE,,,TRUE,,,,,CAVOK,,,,,,,,VFR,,,,,,,,,,,,METAR,300.0
LFSI 301000Z AUTO 06014KT 9999 BKN038 16/07 Q1019,LFSI,2023-04-30T10:00:00Z,48.62,4.9,16.0,7.0,60,14,,6.21,30.088583,,,TRUE,,,,,,,,BKN,3800,,,,,,,VFR,,,,,,,,,,,,METAR,136.0
LFSG 301000Z AUTO 05009KT 010V070 9999 BKN028 OVC033 14/08 Q1018,LFSG,2023-04-30T10:00:00Z,48.33,6.07,14.0,8.0,50,9,,6.21,30.059055,,,TRUE,,,,,,,,BKN,2800,OVC,3300,,,,,MVFR,,,,,,,,,,,,METAR,320.0
LFSD 301000Z AUTO 03010KT 350V050 9999 OVC025 15/09 Q1017,LFSD,2023-04-30T10:00:00Z,47.27,5.08,15.0,9.0,30,10,,6.21,30.029528,,,TRUE,,,,,,,,OVC,2500,,,,,,,MVFR,,,,,,,,,,,,METAR,218.0
LFSB 301000Z AUTO 01005KT 260V050 9999 FEW024 BKN049 BKN200 16/09 Q1017 NOSIG,LFSB,2023-04-30T10:00:00Z,47.6,7.52,16.0,9.0,10,5,,6.21,30.029528,,,TRUE,,,TRUE,,,,,FEW,2400,BKN,4900,BKN,20000,,,VFR,,,,,,,,,,,,METAR,262.0
LFRZ 301000Z AUTO 30004KT 250V020 9999 BKN011 BKN034 16/16 Q1021 BECMG SCT030TCU BKN110,LFRZ,2023-04-30T10:00:00Z,47.32,-2.17,16.0,16.0,300,4,,6.21,30.147638,,,TRUE,,,,,,,,BKN,1100,BKN,3400,,,,,MVFR,,,,,,,,,,,,SPECI,2.0
LFRV 301000Z AUTO 35005KT 320V020 9999 FEW007 BKN039 OVC120 16/14 Q1020,LFRV,2023-04-30T10:00:00Z,47.72,-2.72,16.0,14.0,350,5,,6.21,30.11811,,,TRUE,,,,,,,,FEW,700,BKN,3900,OVC,12000,,,VFR,,,,,,,,,,,,METAR,132.0
LFRU 301000Z AUTO 30005KT 9999 OVC004 13/12 Q1021,LFRU,2023-04-30T10:00:00Z,48.6,-3.82,13.0,12.0,300,5,,6.21,30.147638,,,TRUE,,,,,,,,OVC,400,,,,,,,LIFR,,,,,,,,,,,,METAR,85.0
LFRT 301000Z AUTO 30005KT 260V330 9999 BKN009 OVC014 13/11 Q1021,LFRT,2023-04-30T10:00:00Z,48.53,-2.85,13.0,11.0,300,5,,6.21,30.147638,,,TRUE,,,,,,,,BKN,900,OVC,1400,,,,,IFR,,,,,,,,,,,,METAR,134.0
LFRS 301000Z AUTO VRB02KT 9999 -RA FEW028/// SCT056/// OVC084/// ///TCU 17/11 Q1020 TEMPO 4000 -SHRA SCT020CB,LFRS,2023-04-30T10:00:00Z,47.17,-1.6,17.0,11.0,0,2,,6.21,30.11811,,,TRUE,,,,,,,-RA,FEW,2800,SCT,5600,OVC,8400,,,VFR,,,,,,,,,,,,SPECI,26.0
LFRQ 301000Z AUTO 31008KT 9999 OVC009 14/12 Q1022 TEMPO 3000 SHRA BKN008 BKN015CB,LFRQ,2023-04-30T10:00:00Z,47.97,-4.17,14.0,12.0,310,8,,6.21,30.177166,,,TRUE,,,,,,,,OVC,900,,,,,,,IFR,,,,,,,,,,,,METAR,94.0
LFRO 301000Z AUTO 28007KT 9999 OVC007 13/12 Q1021,LFRO,2023-04-30T10:00:00Z,48.75,-3.47,13.0,12.0,280,7,,6.21,30.147638,,,TRUE,,,,,,,,OVC,700,,,,,,,IFR,,,,,,,,,,,,METAR,86.0
LFRN 301000Z AUTO 31004KT 290V350 9999 SCT012/// OVC094/// ///TCU 15/12 Q1021 TEMPO VRB15G25KT 1200 TSRAGS BKN008 BKN015CB,LFRN,2023-04-30T10:00:00Z,48.07,-1.73,15.0,12.0,310,4,,6.21,30.147638,,,TRUE,,,,,,,,SCT,1200,OVC,9400,,,,,VFR,,,,,,,,,,,,SPECI,35.0
LFRM 301000Z AUTO 36004KT 270V050 CAVOK 15/08 Q1021 NOSIG,LFRM,2023-04-30T10:00:00Z,47.95,0.2,15.0,8.0,360,4,,6.21,30.147638,,,TRUE,,,TRUE,,,,,CAVOK,,,,,,,,VFR,,,,,,,,,,,,METAR,51.0
LFRL 301000Z AUTO 28005KT 7000 OVC003 12/12 Q1022,LFRL,2023-04-30T10:00:00Z,48.27,-4.43,12.0,12.0,280,5,,4.35,30.177166,,,TRUE,,,,,,,,OVC,300,,,,,,,LIFR,,,,,,,,,,,,METAR,80.0
LFRK 301000Z AUTO 13005KT 9999 OVC027 14/09 Q1021 NOSIG,LFRK,2023-04-30T10:00:00Z,49.17,-0.45,14.0,9.0,130,5,,6.21,30.147638,,,TRUE,,,TRUE,,,,,OVC,2700,,,,,,,MVFR,,,,,,,,,,,,METAR,66.0
LFRJ 301000Z AUTO 29005KT 250V330 9999 BKN004 OVC008 12/12 Q1022,LFRJ,2023-04-30T10:00:00Z,48.52,-4.15,12.0,12.0,290,5,,6.21,30.177166,,,TRUE,,,,,,,,BKN,400,OVC,800,,,,,LIFR,,,,,,,,,,,,METAR,109.0
LFRI 301000Z AUTO VRB03KT CAVOK 18/10 Q1020 TEMPO 29015G25KT 3000 SHRA BKN020CB,LFRI,2023-04-30T10:00:00Z,46.7,-1.37,18.0,10.0,0,3,,6.21,30.11811,,,TRUE,,,,,,,,CAVOK,,,,,,,,VFR,,,,,,,,,,,,METAR,89.0
LFRH 301000Z AUTO 32006KT 280V350 9999 BKN016 BKN048 BKN150 16/13 Q1021 TEMPO 4000 SHRA SCT012CB BKN020,LFRH,2023-04-30T10:00:00Z,47.77,-3.45,16.0,13.0,320,6,,6.21,30.147638,,,TRUE,,,,,,,,BKN,1600,BKN,4800,BKN,15000,,,MVFR,,,,,,,,,,,,METAR,46.0
LFRG 301000Z AUTO 14007KT 9999 SCT027 14/08 Q1021 NOSIG,LFRG,2023-04-30T10:00:00Z,49.37,0.15,14.0,8.0,140,7,,6.21,30.147638,,,TRUE,,,TRUE,,,,,SCT,2700,,,,,,,VFR,,,,,,,,,,,,METAR,146.0
LFRD 301000Z AUTO 31005KT 8000 OVC005/// ///TCU 12/12 Q1021 TEMPO 3000 SHRA BKN008 BKN015CB,LFRD,2023-04-30T10:00:00Z,48.58,-2.07,12.0,12.0,310,5,,4.97,30.147638,,,TRUE,,,,,,,,OVC,500,,,,,,,IFR,,,,,,,,,,,,SPECI,56.0
LFRC 301000Z AUTO 12006KT 090V160 9999 ///TCU 13/10 Q1021 TEMPO 4000 SHRA BKN008 BKN015CB,LFRC,2023-04-30T10:00:00Z,49.63,-1.47,13.0,10.0,120,6,,6.21,30.147638,,,TRUE,,,,,,,,,,,,,,,,,,,,,,,,,,,,METAR,137.0
LFRB 301000Z AUTO 31005KT 270V340 9999 OVC005 13/12 Q1022 TEMPO 3000 SHRA BKN008 BKN015CB,LFRB,2023-04-30T10:00:00Z,48.45,-4.42,13.0,12.0,310,5,,6.21,30.177166,,,TRUE,,,,,,,,OVC,500,,,,,,,IFR,,,,,,,,,,,,SPECI,91.0
LFQQ 301000Z AUTO 08008KT 040V110 9999 FEW033 16/07 Q1022 NOSIG,LFQQ,2023-04-30T10:00:00Z,50.57,3.1,16.0,7.0,80,8,,6.21,30.177166,,,TRUE,,,TRUE,,,,,FEW,3300,,,,,,,VFR,,,,,,,,,,,,METAR,43.0
LFQG 301000Z AUTO 32006KT 280V020 9999 FEW024 SCT030 15/10 Q1019,LFQG,2023-04-30T10:00:00Z,47.0,3.1,15.0,10.0,320,6,,6.21,30.088583,,,TRUE,,,,,,,,FEW,2400,SCT,3000,,,,,VFR,,,,,,,,,,,,METAR,172.0
LFQB 301000Z AUTO 06008KT 020V100 9999 BKN024 15/09 Q1019,LFQB,2023-04-30T10:00:00Z,48.32,4.02,15.0,9.0,60,8,,6.21,30.088583,,,TRUE,,,,,,,,BKN,2400,,,,,,,MVFR,,,,,,,,,,,,METAR,107.0
LFQA 301000Z AUTO 08010KT CAVOK 16/09 Q1020,LFQA,2023-04-30T10:00:00Z,49.2,4.15,16.0,9.0,80,10,,6.21,30.11811,,,TRUE,,,,,,,,CAVOK,,,,,,,,VFR,,,,,,,,,,,,METAR,92.0
LFPV 301000Z AUTO 02004KT 330V090 9999 FEW029 15/08 Q1020 NOSIG,LFPV,2023-04-30T10:00:00Z,48.77,2.2,15.0,8.0,20,4,,6.21,30.11811,,,TRUE,,,TRUE,,,,,FEW,2900,,,,,,,VFR,,,,,,,,,,,,METAR,171.0
LFPT 301000Z AUTO 08007KT 040V110 CAVOK 16/09 Q1021,LFPT,2023-04-30T10:00:00Z,49.1,2.03,16.0,9.0,80,7,,6.21,30.147638,,,TRUE,,,,,,,,CAVOK,,,,,,,,VFR,,,,,,,,,,,,METAR,91.0
LFPO 301000Z AUTO 04005KT 300V090 9999 FEW029 16/09 Q1020 NOSIG,LFPO,2023-04-30T10:00:00Z,48.72,2.38,16.0,9.0,40,5,,6.21,30.11811,,,TRUE,,,TRUE,,,,,FEW,2900,,,,,,,VFR,,,,,,,,,,,,METAR,88.0
LFPN 301000Z AUTO 02006KT 300V100 9999 FEW032 15/09 Q1020 NOSIG,LFPN,2023-04-30T10:00:00Z,48.75,2.12,15.0,9.0,20,6,,6.21,30.11811,,,TRUE,,,TRUE,,,,,FEW,3200,,,,,,,VFR,,,,,,,,,,,,METAR,152.0
LFPM 301000Z AUTO 05005KT 360V130 9999 FEW023 16/10 Q1020,LFPM,2023-04-30T10:00:00Z,48.62,2.67,16.0,10.0,50,5,,6.21,30.11811,,,TRUE,,,,,,,,FEW,2300,,,,,,,VFR,,,,,,,,,,,,METAR,91.0
LFPG 301000Z 07007KT 030V100 9999 FEW025 BKN260 15/09 Q1021 NOSIG,LFPG,2023-04-30T10:00:00Z,49.02,2.53,15.0,9.0,70,7,,6.21,30.147638,,,,,,TRUE,,,,,FEW,2500,BKN,26000,,,,,VFR,,,,,,,,,,,,METAR,107.0
LFPB 301000Z AUTO 06006KT 020V100 CAVOK 16/09 Q1021 NOSIG,LFPB,2023-04-30T10:00:00Z,48.97,2.42,16.0,9.0,60,6,,6.21,30.147638,,,TRUE,,,TRUE,,,,,CAVOK,,,,,,,,VFR,,,,,,,,,,,,METAR,50.0
LFOZ 301000Z AUTO 09008KT 060V130 9999 FEW033 15/08 Q1020,LFOZ,2023-04-30T10:00:00Z,47.9,2.17,15.0,8.0,90,8,,6.21,30.11811,,,TRUE,,,,,,,,FEW,3300,,,,,,,VFR,,,,,,,,,,,,METAR,121.0
LFOV 301000Z AUTO 14003KT 070V240 9999 BKN023 15/11 Q1021,LFOV,2023-04-30T10:00:00Z,48.03,-0.75,15.0,11.0,140,3,,6.21,30.147638,,,TRUE,,,,,,,,BKN,2300,,,,,,,MVFR,,,,,,,,,,,,METAR,99.0
LFOT 301000Z AUTO 05003KT 330V110 9999 SCT027 BKN160 15/10 Q1020 NOSIG,LFOT,2023-04-30T10:00:00Z,47.43,0.72,15.0,10.0,50,3,,6.21,30.11811,,,TRUE,,,TRUE,,,,,SCT,2700,BKN,16000,,,,,VFR,,,,,,,,,,,,METAR,107.0
LFOP 301000Z AUTO 06006KT 030V100 9999 FEW037 SCT230 14/06 Q1021 NOSIG,LFOP,2023-04-30T10:00:00Z,49.37,1.17,14.0,6.0,60,6,,6.21,30.147638,,,TRUE,,,TRUE,,,,,FEW,3700,SCT,23000,,,,,VFR,,,,,,,,,,,,METAR,149.0
LFOK 301000Z AUTO 06013KT 040V100 8000 FEW029 15/08 Q1020 NOSIG,LFOK,2023-04-30T10:00:00Z,48.78,4.15,15.0,8.0,60,13,,4.97,30.11811,,,TRUE,,,TRUE,,,,,FEW,2900,,,,,,,MVFR,,,,,,,,,,,,METAR,166.0
LFOJ 301000Z AUTO 03005KT 360V080 9999 BKN026 BKN210 15/09 Q1020 NOSIG,LFOJ,2023-04-30T10:00:00Z,47.98,1.75,15.0,9.0,30,5,,6.21,30.11811,,,TRUE,,,TRUE,,,,,BKN,2600,BKN,21000,,,,,MVFR,,,,,,,,,,,,METAR,122.0
LFOH 301000Z AUTO 13007KT 070V180 9999 SCT027 BKN230 15/07 Q1021 NOSIG,LFOH,2023-04-30T10:00:00Z,49.52,0.08,15.0,7.0,130,7,,6.21,30.147638,,,TRUE,,,TRUE,,,,,SCT,2700,BKN,23000,,,,,VFR,,,,,,,,,,,,METAR,87.0
LFOE 301000Z AUTO 11005KT 060V170 9999 FEW032 15/08 Q1021 NOSIG,LFOE,2023-04-30T10:00:00Z,49.02,1.22,15.0,8.0,110,5,,6.21,30.147638,,,TRUE,,,TRUE,,,,,FEW,3200,,,,,,,VFR,,,,,,,,,,,,METAR,132.0
LFOB 301000Z AUTO 08008KT 040V120 CAVOK 16/10 Q1021 NOSIG,LFOB,2023-04-30T10:00:00Z,49.47,2.12,16.0,10.0,80,8,,6.21,30.147638,,,TRUE,,,TRUE,,,,,CAVOK,,,,,,,,VFR,,,,,,,,,,,,METAR,99.0
LFOA 301000Z AUTO 02010KT CAVOK 15/08 Q1019,LFOA,2023-04-30T10:00:00Z,47.05,2.63,15.0,8.0,20,10,,6.21,30.088583,,,TRUE,,,,,,,,CAVOK,,,,,,,,VFR,,,,,,,,,,,,METAR,174.0
LFMY 301000Z AUTO 32006KT 280V020 9999 FEW026/// ///CB 19/11 Q1014 BECMG NSC,LFMY,2023-04-30T10:00:00Z,43.6,5.1,19.0,11.0,320,6,,6.21,29.940945,,,TRUE,,,,,,,,FEW,2600,,,,,,,VFR,,,,,,,,,,,,METAR,57.0
LFMV 301000Z AUTO 35013KT CAVOK 18/10 Q1014 TEMPO 35015G25KT,LFMV,2023-04-30T10:00:00Z,43.9,4.9,18.0,10.0,350,13,,6.21,29.940945,,,TRUE,,,,,,,,CAVOK,,,,,,,,VFR,,,,,,,,,,,,SPECI,33.0
LFMU 301000Z AUTO 27013KT 240V300 CAVOK 22/16 Q1015 BECMG 28018G28KT,LFMU,2023-04-30T10:00:00Z,43.32,3.35,22.0,16.0,270,13,,6.21,29.970472,,,TRUE,,,,,,,,CAVOK,,,,,,,,VFR,,,,,,,,,,,,SPECI,14.0
LFMT 301000Z AUTO 09007KT CAVOK 22/15 Q1014 BECMG 16010KT,LFMT,2023-04-30T10:00:00Z,43.57,3.97,22.0,15.0,90,7,,6.21,29.940945,,,TRUE,,,,,,,,CAVOK,,,,,,,,VFR,,,,,,,,,,,,SPECI,1.0
LFMP 301000Z AUTO 31023G33KT 9999 FEW028 SCT110 BKN140 20/12 Q1016 NOSIG,LFMP,2023-04-30T10:00:00Z,42.73,2.87,20.0,12.0,310,23,33,6.21,30.0,,,TRUE,,,TRUE,,,,,FEW,2800,SCT,11000,BKN,14000,,,VFR,,,,,,,,,,,,METAR,41.0
LFMO 301000Z AUTO 35015KT 320V020 CAVOK 18/10 Q1014 BECMG 34010G25KT,LFMO,2023-04-30T10:00:00Z,44.13,4.87,18.0,10.0,350,15,,6.21,29.940945,,,TRUE,,,,,,,,CAVOK,,,,,,,,VFR,,,,,,,,,,,,SPECI,56.0
LFMN 301000Z VRB03KT 9999 -RA FEW031 FEW036TCU BKN060 17/15 Q1013 NOSIG,LFMN,2023-04-30T10:00:00Z,43.65,7.2,17.0,15.0,0,3,,6.21,29.911417,,,,,,TRUE,,,,-RA,FEW,3100,FEW,3600,BKN,6000,,,VFR,,,,,,,,,,,,METAR,4.0
LFML 301000Z AUTO 04005KT 9999 ///TCU 18/14 Q1014 TEMPO 4500 SHRA,LFML,2023-04-30T10:00:00Z,43.45,5.22,18.0,14.0,40,5,,6.21,29.940945,,,TRUE,,,,,,,,,,,,,,,,,,,,,,,,,,,,SPECI,20.0
LFMK 301000Z AUTO 29010KT 9999 BKN014 OVC021 16/14 Q1018 TEMPO 4000 -DZ BECMG SCT035,LFMK,2023-04-30T10:00:00Z,43.22,2.32,16.0,14.0,290,10,,6.21,30.059055,,,TRUE,,,,,,,,BKN,1400,OVC,2100,,,,,MVFR,,,,,,,,,,,,SPECI,124.0
LFMI 301000Z AUTO 36012KT 9999 FEW022/// BKN170/// BKN190/// ///TCU 19/10 Q1014 BECMG SCT030 BKN100,LFMI,2023-04-30T10:00:00Z,43.52,4.93,19.0,10.0,360,12,,6.21,29.940945,,,TRUE,,,,,,,,FEW,2200,BKN,17000,BKN,19000,,,VFR,,,,,,,,,,,,SPECI,20.0
LFMH 301000Z AUTO 33007KT 290V020 9999 BKN022 BKN028 OVC160 14/09 Q1018,LFMH,2023-04-30T10:00:00Z,45.52,4.28,14.0,9.0,330,7,,6.21,30.059055,,,TRUE,,,,,,,,BKN,2200,BKN,2800,OVC,16000,,,MVFR,,,,,,,,,,,,METAR,400.0
LFMD 301000Z AUTO VRB01KT 9999 -RA BKN021/// BKN026/// OVC040/// ///TCU 19/14 Q1013 TEMPO RA,LFMD,2023-04-30T10:00:00Z,43.53,6.95,19.0,14.0,0,1,,6.21,29.911417,,,TRUE,,,,,,,-RA,BKN,2100,BKN,2600,OVC,4000,,,MVFR,,,,,,,,,,,,SPECI,2.0
LFMC 301000Z AUTO VRB03KT 9999 ////// 18/14 Q1013,LFMC,2023-04-30T10:00:00Z,43.37,6.38,18.0,14.0,0,3,,6.21,29.911417,,,TRUE,,,,,,,,,,,,,,,,,,,,,,,,,,,,METAR,79.0
LFLY 301000Z AUTO 36008KT 330V030 9999 OVC023 14/10 Q1017 NOSIG,LFLY,2023-04-30T10:00:00Z,45.72,4.95,14.0,10.0,360,8,,6.21,30.029528,,,TRUE,,,TRUE,,,,,OVC,2300,,,,,,,MVFR,,,,,,,,,,,,METAR,197.0
LFLX 301000Z AUTO 02007KT 340V060 9999 SCT027 15/09 Q1020 NOSIG,LFLX,2023-04-30T10:00:00Z,46.87,1.73,15.0,9.0,20,7,,6.21,30.11811,,,TRUE,,,TRUE,,,,,SCT,2700,,,,,,,VFR,,,,,,,,,,,,METAR,157.0
LFLW 301000Z AUTO 28009KT 250V310 CAVOK 16/08 Q1017 TEMPO OVC009,LFLW,2023-04-30T10:00:00Z,44.88,2.42,16.0,8.0,280,9,,6.21,30.029528,,,TRUE,,,,,,,,CAVOK,,,,,,,,VFR,,,,,,,,,,,,METAR,638.0
LFLV 301000Z AUTO 32005KT 260V040 9999 BKN024 OVC029 14/10 Q1018,LFLV,2023-04-30T10:00:00Z,46.17,3.38,14.0,10.0,320,5,,6.21,30.059055,,,TRUE,,,,,,,,BKN,2400,OVC,2900,,,,,MVFR,,,,,,,,,,,,METAR,248.0
LFLU 301000Z AUTO 01014KT CAVOK 16/10 Q1016,LFLU,2023-04-30T10:00:00Z,44.92,4.98,16.0,10.0,10,14,,6.21,30.0,,,TRUE,,,,,,,,CAVOK,,,,,,,,VFR,,,,,,,,,,,,METAR,162.0
LFLS 301000Z AUTO 34007KT 9999 BKN023 BKN037 12/09 Q1017 NOSIG,LFLS,2023-04-30T10:00:00Z,45.37,5.32,12.0,9.0,340,7,,6.21,30.029528,,,TRUE,,,TRUE,,,,,BKN,2300,BKN,3700,,,,,MVFR,,,,,,,,,,,,METAR,386.0
LFLP 301000Z AUTO 33005KT 300V360 9999 OVC031 14/10 Q1017 NOSIG,LFLP,2023-04-30T10:00:00Z,45.92,6.1,14.0,10.0,330,5,,6.21,30.029528,,,TRUE,,,TRUE,,,,,OVC,3100,,,,,,,VFR,,,,,,,,,,,,METAR,460.0
LFLN 301000Z AUTO 27008KT 9999 FEW027 BKN033 15/09 Q1018 NOSIG,LFLN,2023-04-30T10:00:00Z,46.42,4.02,15.0,9.0,270,8,,6.21,30.059055,,,TRUE,,,TRUE,,,,,FEW,2700,BKN,3300,,,,,VFR,,,,,,,,,,,,METAR,238.0
LFLL 301000Z 02007KT 350V060 9999 BKN019 13/09 Q1017 NOSIG,LFLL,2023-04-30T10:00:00Z,45.72,5.07,13.0,9.0,20,7,,6.21,30.029528,,,,,,TRUE,,,,,BKN,1900,,,,,,,MVFR,,,,,,,,,,,,METAR,234.0
LFLH 301000Z AUTO 01009KT 330V030 9999 BKN029 BKN160 16/10 Q1017,LFLH,2023-04-30T10:00:00Z,46.83,4.82,16.0,10.0,10,9,,6.21,30.029528,,,TRUE,,,,,,,,BKN,2900,BKN,16000,,,,,MVFR,,,,,,,,,,,,METAR,190.0
LFLC 301000Z AUTO 06007KT 030V090 9999 SCT021 BKN029 BKN130 15/10 Q1018 NOSIG,LFLC,2023-04-30T10:00:00Z,45.78,3.17,15.0,10.0,60,7,,6.21,30.059055,,,TRUE,,,TRUE,,,,,SCT,2100,BKN,2900,BKN,13000,,,MVFR,,,,,,,,,,,,METAR,325.0
LFLB 301000Z AUTO 36012KT 9999 OVC037 14/11 Q1016 NOSIG,LFLB,2023-04-30T10:00:00Z,45.63,5.87,14.0,11.0,360,12,,6.21,30.0,,,TRUE,,,TRUE,,,,,OVC,3700,,,,,,,VFR,,,,,,,,,,,,METAR,234.0
LFKS 301000Z AUTO 03005KT 9999 OVC033 18/14 Q1012,LFKS,2023-04-30T10:00:00Z,41.92,9.4,18.0,14.0,30,5,,6.21,29.88189,,,TRUE,,,,,,,,OVC,3300,,,,,,,VFR,,,,,,,,,,,,METAR,22.0
LFKJ 301000Z AUTO 23004KT 190V260 9999 -RA OVC027 18/15 Q1011 TEMPO 36010KT 4000 SHRA BKN010 SCT030CB,LFKJ,2023-04-30T10:00:00Z,41.92,8.8,18.0,15.0,230,4,,6.21,29.852362,,,TRUE,,,,,,,-RA,OVC,2700,,,,,,,MVFR,,,,,,,,,,,,SPECI,9.0
LFKF 301000Z AUTO 06015KT 9999 BKN020 BKN033 BKN042 20/14 Q1011 TEMPO 4000 SHRA BKN010 FEW030CB,LFKF,2023-04-30T10:00:00Z,41.5,9.08,20.0,14.0,60,15,,6.21,29.852362,,,TRUE,,,,,,,,BKN,2000,BKN,3300,BKN,4200,,,MVFR,,,,,,,,,,,,SPECI,15.0
LFKC 301000Z AUTO 33012KT 300V360 9999 BKN078 19/14 Q1011 TEMPO 3000 SHRA BKN008 SCT025CB,LFKC,2023-04-30T10:00:00Z,42.52,8.8,19.0,14.0,330,12,,6.21,29.852362,,,TRUE,,,,,,,,BKN,7800,,,,,,,VFR,,,,,,,,,,,,SPECI,38.0
LFKB 301000Z AUTO 08004KT 050V120 9999 FEW016 BKN030 OVC038 18/14 Q1012 TEMPO 3500 BR BKN005 SCT030CB,LFKB,2023-04-30T10:00:00Z,42.55,9.48,18.0,14.0,80,4,,6.21,29.88189,,,TRUE,,,,,,,,FEW,1600,BKN,3000,OVC,3800,,,MVFR,,,,,,,,,,,,SPECI,7.0
LFJR 301000Z AUTO 06003KT 350V140 CAVOK 16/10 Q1021,LFJR,2023-04-30T10:00:00Z,47.57,-0.32,16.0,10.0,60,3,,6.21,30.147638,,,TRUE,,,,,,,,CAVOK,,,,,,,,VFR,,,,,,,,,,,,METAR,50.0
LFJL 301000Z AUTO 09013KT 9999 SCT041/// BKN048/// 15/06 Q1020 NOSIG,LFJL,2023-04-30T10:00:00Z,48.97,6.25,15.0,6.0,90,13,,6.21,30.11811,,,TRUE,,,TRUE,,,,,SCT,4100,BKN,4800,,,,,VFR,,,,,,,,,,,,METAR,259.0
LFHP 301000Z AUTO 26007KT 230V310 9999 BKN019 OVC110 12/08 Q1017,LFHP,2023-04-30T10:00:00Z,45.07,3.77,12.0,8.0,260,7,,6.21,30.029528,,,TRUE,,,,,,,,BKN,1900,OVC,11000,,,,,MVFR,,,,,,,,,,,,METAR,829.0
LFGJ 301000Z AUTO 02003KT 350V070 9999 BKN025 15/11 Q1017 NOSIG,LFGJ,2023-04-30T10:00:00Z,47.05,5.43,15.0,11.0,20,3,,6.21,30.029528,,,TRUE,,,TRUE,,,,,BKN,2500,,,,,,,MVFR,,,,,,,,,,,,METAR,191.0
LFGA 301000Z AUTO 02010KT 350V050 9999 FEW031 SCT038 16/09 Q1018,LFGA,2023-04-30T10:00:00Z,48.1,7.35,16.0,9.0,20,10,,6.21,30.059055,,,TRUE,,,,,,,,FEW,3100,SCT,3800,,,,,VFR,,,,,,,,,,,,METAR,191.0
LFCR 301000Z AUTO 30012KT 9999 FEW021 BKN088 16/11 Q1018 TEMPO SCT025TCU,LFCR,2023-04-30T10:00:00Z,44.4,2.47,16.0,11.0,300,12,,6.21,30.059055,,,TRUE,,,,,,,,FEW,2100,BKN,8800,,,,,VFR,,,,,,,,,,,,SPECI,576.0
LFCK 301000Z AUTO 27006G20KT 9999 BKN008/// OVC015/// ///TCU 14/13 Q1019 TEMPO 4000 -DZ BECMG BKN030,LFCK,2023-04-30T10:00:00Z,43.55,2.28,14.0,13.0,270,6,20,6.21,30.088583,,,TRUE,,,,,,,,BKN,800,OVC,1500,,,,,IFR,,,,,,,,,,,,METAR,223.0
LFBZ 301000Z AUTO 29013KT 9999 SCT013 BKN020 OVC026 16/12 Q1022 NOSIG,LFBZ,2023-04-30T10:00:00Z,43.47,-1.53,16.0,12.0,290,13,,6.21,30.177166,,,TRUE,,,TRUE,,,,,SCT,1300,BKN,2000,OVC,2600,,,MVFR,,,,,,,,,,,,METAR,70.0
LFBY 301000Z AUTO 29007KT 240V320 9999 // ////// 17/12 Q1021,LFBY,2023-04-30T10:00:00Z,43.68,-1.07,17.0,12.0,290,7,,6.21,30.147638,,,TRUE,,,,,,,,,,,,,,,,,,,,,,,,,,,,METAR,32.0
LFBX 301000Z AUTO 29008KT 260V330 CAVOK 20/11 Q1018,LFBX,2023-04-30T10:00:00Z,45.2,0.82,20.0,11.0,290,8,,6.21,30.059055,,,TRUE,,,,,,,,CAVOK,,,,,,,,VFR,,,,,,,,,,,,METAR,97.0
LFBU 301000Z AUTO 35009KT 300V010 9999 FEW025 SCT140 17/10 Q1020 NOSIG,LFBU,2023-04-30T10:00:00Z,45.72,0.22,17.0,10.0,350,9,,6.21,30.11811,,,TRUE,,,TRUE,,,,,FEW,2500,SCT,14000,,,,,VFR,,,,,,,,,,,,METAR,124.0
LFBT 301000Z AUTO 27010KT 240V300 9999 BKN010 BKN016 BKN023 14/12 Q1021 TEMPO SCT020TCU,LFBT,2023-04-30T10:00:00Z,43.18,0.0,14.0,12.0,270,10,,6.21,30.147638,,,TRUE,,,,,,,,BKN,1000,BKN,1600,BKN,2300,,,MVFR,,,,,,,,,,,,SPECI,359.0
LFBP 301000Z AUTO 27009KT 9999 FEW009 BKN014 OVC028 15/13 Q1021 BECMG BKN020,LFBP,2023-04-30T10:00:00Z,43.38,-0.42,15.0,13.0,270,9,,6.21,30.147638,,,TRUE,,,,,,,,FEW,900,BKN,1400,OVC,2800,,,MVFR,,,,,,,,,,,,SPECI,182.0
LFBO 301000Z AUTO 28015KT 8000 OVC007 15/13 Q1019 TEMPO SCT025TCU,LFBO,2023-04-30T10:00:00Z,43.62,1.37,15.0,13.0,280,15,,4.97,30.088583,,,TRUE,,,,,,,,OVC,700,,,,,,,IFR,,,,,,,,,,,,SPECI,150.0
LFBM 301000Z AUTO 28009KT 220V310 9999 SCT018 BKN030 OVC036 18/14 Q1021 TEMPO 2500 SHRA SCT020TCU,LFBM,2023-04-30T10:00:00Z,43.92,-0.5,18.0,14.0,280,9,,6.21,30.147638,,,TRUE,,,,,,,,SCT,1800,BKN,3000,OVC,3600,,,MVFR,,,,,,,,,,,,SPECI,56.0
LFBL 301000Z AUTO 35009KT 300V030 CAVOK 15/09 Q1019 NOSIG,LFBL,2023-04-30T10:00:00Z,45.87,1.17,15.0,9.0,350,9,,6.21,30.088583,,,TRUE,,,TRUE,,,,,CAVOK,,,,,,,,VFR,,,,,,,,,,,,METAR,402.0
LFBI 301000Z AUTO 02007KT 330V040 CAVOK 16/09 Q1020 NOSIG,LFBI,2023-04-30T10:00:00Z,46.58,0.32,16.0,9.0,20,7,,6.21,30.11811,,,TRUE,,,TRUE,,,,,CAVOK,,,,,,,,VFR,,,,,,,,,,,,METAR,117.0
LFBH 301000Z AUTO 30005KT 9999 FEW047 18/13 Q1020 TEMPO 27015G25KT 3000 SHRA BKN020CB,LFBH,2023-04-30T10:00:00Z,46.18,-1.2,18.0,13.0,300,5,,6.21,30.11811,,,TRUE,,,,,,,,FEW,4700,,,,,,,VFR,,,,,,,,,,,,SPECI,18.0
LFBG 301000Z AUTO 35007KT 300V030 9999 FEW030 18/11 Q1020,LFBG,2023-04-30T10:00:00Z,45.67,-0.32,18.0,11.0,350,7,,6.21,30.11811,,,TRUE,,,,,,,,FEW,3000,,,,,,,VFR,,,,,,,,,,,,METAR,28.0
LFBF 301000Z AUTO 29009KT 9999 OVC010 15/13 Q1020,LFBF,2023-04-30T10:00:00Z,43.53,1.37,15.0,13.0,290,9,,6.21,30.11811,,,TRUE,,,,,,,,OVC,1000,,,,,,,MVFR,,,,,,,,,,,,METAR,159.0
LFBE 301000Z AUTO 30006KT CAVOK 20/13 Q1019 TEMPO SCT020TCU BKN030,LFBE,2023-04-30T10:00:00Z,44.82,0.52,20.0,13.0,300,6,,6.21,30.088583,,,TRUE,,,,,,,,CAVOK,,,,,,,,VFR,,,,,,,,,,,,SPECI,49.0
LFBD 301000Z AUTO 34007KT 310V030 9999 FEW034 20/11 Q1020 TEMPO SCT020TCU BKN025,LFBD,2023-04-30T10:00:00Z,44.82,-0.7,20.0,11.0,340,7,,6.21,30.11811,,,TRUE,,,,,,,,FEW,3400,,,,,,,VFR,,,,,,,,,,,,SPECI,48.0
LFBC 301000Z AUTO 30010KT 270V330 9999 BKN013 OVC045 17/14 Q1021,LFBC,2023-04-30T10:00:00Z,44.52,-1.12,17.0,14.0,300,10,,6.21,30.147638,,,TRUE,,,,,,,,BKN,1300,OVC,4500,,,,,MVFR,,,,,,,,,,,,METAR,22.0
LFBA 301000Z AUTO 28010KT 9999 OVC010 16/14 Q1019 BECMG SCT020 BKN045,LFBA,2023-04-30T10:00:00Z,44.17,0.6,16.0,14.0,280,10,,6.21,30.088583,,,TRUE,,,,,,,,OVC,1000,,,,,,,MVFR,,,,,,,,,,,,SPECI,68.0
LFAT 301000Z AUTO 11006KT 060V150 CAVOK 16/10 Q1022 NOSIG,LFAT,2023-04-30T10:00:00Z,50.52,1.62,16.0,10.0,110,6,,6.21,30.177166,,,TRUE,,,TRUE,,,,,CAVOK,,,,,,,,VFR,,,,,,,,,,,,METAR,2.0
LFAQ 301000Z AUTO 07007KT 040V110 9999 SCT030 16/10 Q1021 NOSIG,LFAQ,2023-04-30T10:00:00Z,49.97,2.7,16.0,10.0,70,7,,6.21,30.147638,,,TRUE,,,TRUE,,,,,SCT,3000,,,,,,,VFR,,,,,,,,,,,,METAR,107.0
LFAC 301000Z AUTO 11006KT 070V150 CAVOK 15/09 Q1022,LFAC,2023-04-30T10:00:00Z,50.97,1.95,15.0,9.0,110,6,,6.21,30.177166,,,TRUE,,,,,,,,CAVOK,,,,,,,,VFR,,,,,,,,,,,,METAR,3.0
LEZL 301000Z 05003KT 320V130 CAVOK 25/15 Q1016 NOSIG,LEZL,2023-04-30T10:00:00Z,37.42,-5.9,25.0,15.0,50,3,,6.21,30.0,,,,,,TRUE,,,,,CAVOK,,,,,,,,VFR,,,,,,,,,,,,METAR,26.0
LEZG 301000Z 30021KT 260V320 9999 FEW025 21/10 Q1019,LEZG,2023-04-30T10:00:00Z,41.67,-1.02,21.0,10.0,300,21,,6.21,30.088583,,,,,,,,,,,FEW,2500,,,,,,,VFR,,,,,,,,,,,,METAR,245.0
LEXJ 301000Z VRB01KT 9999 SCT008 BKN015 15/15 Q1023,LEXJ,2023-04-30T10:00:00Z,43.42,-3.82,15.0,15.0,0,1,,6.21,30.206694,,,,,,,,,,,SCT,800,BKN,1500,,,,,MVFR,,,,,,,,,,,,METAR,1.0
LEVX 301000Z 04003KT 340V100 9999 FEW015 18/13 Q1022 NOSIG,LEVX,2023-04-30T10:00:00Z,42.23,-8.62,18.0,13.0,40,3,,6.21,30.177166,,,,,,TRUE,,,,,FEW,1500,,,,,,,VFR,,,,,,,,,,,,METAR,253.0
LEVT 301000Z 01009KT 340V040 9000 SCT023 SCT028 BKN040 15/09 Q1022,LEVT,2023-04-30T10:00:00Z,42.87,-2.72,15.0,9.0,10,9,,5.59,30.177166,,,,,,,,,,,SCT,2300,SCT,2800,BKN,4000,,,VFR,,,,,,,,,,,,METAR,501.0
LEVS 301000Z 13002KT CAVOK 19/09 Q1020,LEVS,2023-04-30T10:00:00Z,40.37,-3.78,19.0,9.0,130,2,,6.21,30.11811,,,,,,,,,,,CAVOK,,,,,,,,VFR,,,,,,,,,,,,METAR,683.0
LEVD 301000Z 08007KT 030V120 9999 SCT026 SCT035 17/09 Q1022,LEVD,2023-04-30T10:00:00Z,41.72,-4.85,17.0,9.0,80,7,,6.21,30.177166,,,,,,,,,,,SCT,2600,SCT,3500,,,,,VFR,,,,,,,,,,,,METAR,844.0
LEVC 301000Z VRB04KT 9999 FEW055 26/09 Q1016 NOSIG,LEVC,2023-04-30T10:00:00Z,39.5,-0.47,26.0,9.0,0,4,,6.21,30.0,,,,,,TRUE,,,,,FEW,5500,,,,,,,VFR,,,,,,,,,,,,METAR,58.0
LETU 301000Z AUTO 32013KT 290V350 9999 FEW040 20/09 Q1020,LETU,2023-04-30T10:00:00Z,,,20.0,9.0,320,13,,6.21,30.11811,,,TRUE,,,,,,,,FEW,4000,,,,,,,VFR,,,,,,,,,,,,METAR,
LETO 301000Z 06008KT 030V110 CAVOK 20/07 Q1019 NOSIG,LETO,2023-04-30T10:00:00Z,40.48,-3.47,20.0,7.0,60,8,,6.21,30.088583,,,,,,TRUE,,,,,CAVOK,,,,,,,,VFR,,,,,,,,,,,,METAR,598.0
LETL 301000Z AUTO 35012KT CAVOK 16/08 Q1020,LETL,2023-04-30T10:00:00Z,40.42,-1.22,16.0,8.0,350,12,,6.21,30.11811,,,TRUE,,,,,,,,CAVOK,,,,,,,,VFR,,,,,,,,,,,,METAR,1024.0
LESU 301000Z VRB04KT 9999 SCT055 20/08 Q1017,LESU,2023-04-30T10:00:00Z,42.33,1.4,20.0,8.0,0,4,,6.21,30.029528,,,,,,,,,,,SCT,5500,,,,,,,VFR,,,,,,,,,,,,METAR,802.0
LEST 301000Z 36006KT 320V060 9999 BKN014 14/13 Q1023 NOSIG,LEST,2023-04-30T10:00:00Z,42.88,-8.42,14.0,13.0,360,6,,6.21,30.206694,,,,,,TRUE,,,,,BKN,1400,,,,,,,MVFR,,,,,,,,,,,,METAR,363.0
LESO 301000Z 28006KT 220V340 9999 SCT014 BKN020 16/13 Q1023,LESO,2023-04-30T10:00:00Z,43.35,-1.8,16.0,13.0,280,6,,6.21,30.206694,,,,,,,,,,,SCT,1400,BKN,2000,,,,,MVFR,,,,,,,,,,,,METAR,3.0
LESB 301000Z AUTO VRB03KT 9999 FEW042/// BKN047/// BKN052/// 23/13 Q1016,LESB,2023-04-30T10:00:00Z,39.6,2.7,23.0,13.0,0,3,,6.21,30.0,,,TRUE,,,,,,,,FEW,4200,BKN,4700,BKN,5200,,,VFR,,,,,,,,,,,,METAR,48.0
LESA 301000Z 07009KT 030V100 9999 FEW047 17/08 Q1022,LESA,2023-04-30T10:00:00Z,40.95,-5.5,17.0,8.0,70,9,,6.21,30.177166,,,,,,,,,,,FEW,4700,,,,,,,VFR,,,,,,,,,,,,METAR,788.0
LERT 301000Z VRB04KT CAVOK 22/15 Q1016 NOSIG,LERT,2023-04-30T10:00:00Z,36.63,-6.33,22.0,15.0,0,4,,6.21,30.0,,,,,,TRUE,,,,,CAVOK,,,,,,,,VFR,,,,,,,,,,,,METAR,27.0
LERS 301000Z 23005KT 140V290 9999 FEW030 24/13 Q1015,LERS,2023-04-30T10:00:00Z,41.13,1.17,24.0,13.0,230,5,,6.21,29.970472,,,,,,,,,,,FEW,3000,,,,,,,VFR,,,,,,,,,,,,METAR,68.0
LERI 301000Z 04004KT 350V100 CAVOK 25/14 Q1017 NOSIG,LERI,2023-04-30T10:00:00Z,37.95,-1.22,25.0,14.0,40,4,,6.21,30.029528,,,,,,TRUE,,,,,CAVOK,,,,,,,,VFR,,,,,,,,,,,,METAR,74.0
LEPP 301000Z 34010KT 290V020 9999 FEW024 BKN032 15/09 Q1021,LEPP,2023-04-30T10:00:00Z,42.77,-1.65,15.0,9.0,340,10,,6.21,30.147638,,,,,,,,,,,FEW,2400,BKN,3200,,,,,VFR,,,,,,,,,,,,METAR,448.0
LEPA 301000Z 05007KT 010V080 9999 SCT024 23/15 Q1016 NOSIG,LEPA,2023-04-30T10:00:00Z,39.55,2.73,23.0,15.0,50,7,,6.21,30.0,,,,,,TRUE,,,,,SCT,2400,,,,,,,VFR,,,,,,,,,,,,METAR,8.0
LEMO 301000Z 05004KT 340V120 CAVOK 23/13 Q1016 NOSIG,LEMO,2023-04-30T10:00:00Z,37.17,-5.62,23.0,13.0,50,4,,6.21,30.0,,,,,,TRUE,,,,,CAVOK,,,,,,,,VFR,,,,,,,,,,,,METAR,82.0
LEMI 301000Z 13004KT 060V160 CAVOK 24/13 Q1017,LEMI,2023-04-30T10:00:00Z,37.8,-1.12,24.0,13.0,130,4,,6.21,30.029528,,,,,,,,,,,CAVOK,,,,,,,,VFR,,,,,,,,,,,,METAR,193.0
LEMH 301000Z 36015KT 310V030 9999 BKN018 20/14 Q1015,LEMH,2023-04-30T10:00:00Z,39.87,4.22,20.0,14.0,360,15,,6.21,29.970472,,,,,,,,,,,BKN,1800,,,,,,,MVFR,,,,,,,,,,,,METAR,82.0
LEMG 301000Z 17004KT 130V240 CAVOK 26/12 Q1015 NOSIG,LEMG,2023-04-30T10:00:00Z,36.67,-4.47,26.0,12.0,170,4,,6.21,29.970472,,,,,,TRUE,,,,,CAVOK,,,,,,,,VFR,,,,,,,,,,,,METAR,5.0
LEMD 301000Z 06005KT 350V130 CAVOK 21/08 Q1020 NOSIG,LEMD,2023-04-30T10:00:00Z,40.45,-3.57,21.0,8.0,60,5,,6.21,30.11811,,,,,,TRUE,,,,,CAVOK,,,,,,,,VFR,,,,,,,,,,,,METAR,589.0
LELO 301000Z AUTO 33007KT 250V060 9999 FEW059 19/08 Q1022,LELO,2023-04-30T10:00:00Z,42.45,-2.32,19.0,8.0,330,7,,6.21,30.177166,,,TRUE,,,,,,,,FEW,5900,,,,,,,VFR,,,,,,,,,,,,METAR,352.0
LELN 301000Z 11004KT 9999 SCT035 16/07 Q1022,LELN,2023-04-30T10:00:00Z,42.58,-5.65,16.0,7.0,110,4,,6.21,30.177166,,,,,,,,,,,SCT,3500,,,,,,,VFR,,,,,,,,,,,,METAR,911.0
LELL 301000Z 12003KT 9999 SCT035 23/13 Q1015,LELL,2023-04-30T10:00:00Z,41.52,2.1,23.0,13.0,120,3,,6.21,29.970472,,,,,,,,,,,SCT,3500,,,,,,,VFR,,,,,,,,,,,,METAR,136.0
LELC 301000Z 06006KT 020V110 CAVOK 25/16 Q1017 NOSIG,LELC,2023-04-30T10:00:00Z,37.77,-0.8,25.0,16.0,60,6,,6.21,30.029528,,,,,,TRUE,,,,,CAVOK,,,,,,,,VFR,,,,,,,,,,,,METAR,3.0
LEJR 301000Z VRB02KT CAVOK 22/14 Q1016,LEJR,2023-04-30T10:00:00Z,36.75,-6.07,22.0,14.0,0,2,,6.21,30.0,,,,,,,,,,,CAVOK,,,,,,,,VFR,,,,,,,,,,,,METAR,25.0
LEIB 301000Z 10007KT 060V150 9999 SCT035 24/14 Q1016 NOSIG,LEIB,2023-04-30T10:00:00Z,38.87,1.38,24.0,14.0,100,7,,6.21,30.0,,,,,,TRUE,,,,,SCT,3500,,,,,,,VFR,,,,,,,,,,,,METAR,4.0
LEHC 301000Z 25007KT 160V320 CAVOK 22/08 Q1017,LEHC,2023-04-30T10:00:00Z,42.08,-0.32,22.0,8.0,250,7,,6.21,30.029528,,,,,,,,,,,CAVOK,,,,,,,,VFR,,,,,,,,,,,,METAR,540.0
LEGT 301000Z 03005KT 300V110 CAVOK 20/09 Q1020,LEGT,2023-04-30T10:00:00Z,40.28,-3.72,20.0,9.0,30,5,,6.21,30.11811,,,,,,,,,,,CAVOK,,,,,,,,VFR,,,,,,,,,,,,METAR,619.0
LEGR 301000Z VRB01KT CAVOK 25/10 Q1017,LEGR,2023-04-30T10:00:00Z,37.18,-3.78,25.0,10.0,0,1,,6.21,30.029528,,,,,,,,,,,CAVOK,,,,,,,,VFR,,,,,,,,,,,,METAR,560.0
LEGE 301000Z 18001KT 9999 FEW045 22/13 Q1015,LEGE,2023-04-30T10:00:00Z,41.9,2.77,22.0,13.0,180,1,,6.21,29.970472,,,,,,,,,,,FEW,4500,,,,,,,VFR,,,,,,,,,,,,METAR,140.0
LEDA 301000Z 21008KT 180V250 9999 FEW050 20/11 Q1016,LEDA,2023-04-30T10:00:00Z,41.73,0.53,20.0,11.0,210,8,,6.21,30.0,,,,,,,,,,,FEW,5000,,,,,,,VFR,,,,,,,,,,,,METAR,352.0
LECV 301000Z VRB02KT CAVOK 18/08 Q1021,LECV,2023-04-30T10:00:00Z,40.68,-3.75,18.0,8.0,0,2,,6.21,30.147638,,,,,,,,,,,CAVOK,,,,,,,,VFR,,,,,,,,,,,,METAR,995.0
LECO 301000Z VRB02KT 9999 FEW017 BKN020 16/13 Q1023 NOSIG,LECO,2023-04-30T10:00:00Z,43.3,-8.37,16.0,13.0,0,2,,6.21,30.206694,,,,,,TRUE,,,,,FEW,1700,BKN,2000,,,,,MVFR,,,,,,,,,,,,METAR,80.0
LECH 301000Z AUTO 34009G20KT 290V030 CAVOK 24/06 Q1016,LECH,2023-04-30T10:00:00Z,40.2,0.07,24.0,6.0,340,9,20,6.21,30.0,,,TRUE,,,,,,,,CAVOK,,,,,,,,VFR,,,,,,,,,,,,METAR,360.0
LEBZ 301000Z VRB03KT CAVOK 21/14 Q1018,LEBZ,2023-04-30T10:00:00Z,38.87,-6.82,21.0,14.0,0,3,,6.21,30.059055,,,,,,,,,,,CAVOK,,,,,,,,VFR,,,,,,,,,,,,METAR,183.0
LEBT 301000Z AUTO VRB05KT CAVOK 27/09 Q1016,LEBT,2023-04-30T10:00:00Z,39.58,-0.45,27.0,9.0,0,5,,6.21,30.0,,,TRUE,,,,,,,,CAVOK,,,,,,,,VFR,,,,,,,,,,,,METAR,50.0
LEBR 301000Z AUTO 33018G29KT 300V360 9999 NCD 19/08 Q1020,LEBR,2023-04-30T10:00:00Z,42.2,-1.43,19.0,8.0,330,18,29,6.21,30.11811,,,TRUE,,,,,,,,CLR,,,,,,,,VFR,,,,,,,,,,,,METAR,347.0
LEBL 301000Z 10009KT 9999 FEW040 BKN060 21/15 Q1015 NOSIG,LEBL,2023-04-30T10:00:00Z,41.28,2.07,21.0,15.0,100,9,,6.21,29.970472,,,,,,TRUE,,,,,FEW,4000,BKN,6000,,,,,VFR,,,,,,,,,,,,METAR,2.0
LEBG 301000Z 05010KT 010V080 9999 BKN025 BKN042 14/08 Q1022,LEBG,2023-04-30T10:00:00Z,42.37,-3.62,14.0,8.0,50,10,,6.21,30.177166,,,,,,,,,,,BKN,2500,BKN,4200,,,,,MVFR,,,,,,,,,,,,METAR,892.0
LEBB 301000Z 27004KT 210V310 9999 SCT010 BKN022 16/15 Q1023 NOSIG,LEBB,2023-04-30T10:00:00Z,43.28,-2.92,16.0,15.0,270,4,,6.21,30.206694,,,,,,TRUE,,,,,SCT,1000,BKN,2200,,,,,MVFR,,,,,,,,,,,,METAR,38.0
LEBA 301000Z 11003KT 050V180 CAVOK 24/12 Q1016,LEBA,2023-04-30T10:00:00Z,37.85,-4.83,24.0,12.0,110,3,,6.21,30.0,,,,,,,,,,,CAVOK,,,,,,,,VFR,,,,,,,,,,,,METAR,88.0
LEAS 301000Z 33004KT 270V050 9999 SCT005 BKN015 15/14 Q1023 TEMPO 3000 RA BR BKN005,LEAS,2023-04-30T10:00:00Z,43.57,-6.03,15.0,14.0,330,4,,6.21,30.206694,,,,,,,,,,,SCT,500,BKN,1500,,,,,MVFR,,,,,,,,,,,,SPECI,120.0
LEAO 301000Z 06007KT 360V110 CAVOK 22/07 Q1019,LEAO,2023-04-30T10:00:00Z,38.95,-3.73,22.0,7.0,60,7,,6.21,30.088583,,,,,,,,,,,CAVOK,,,,,,,,VFR,,,,,,,,,,,,METAR,621.0
LEAM 301000Z 21004KT 180V260 CAVOK 22/17 Q1016,LEAM,2023-04-30T10:00:00Z,36.85,-2.37,22.0,17.0,210,4,,6.21,30.0,,,,,,,,,,,CAVOK,,,,,,,,VFR,,,,,,,,,,,,METAR,16.0
LEAL 301000Z 17004KT 100V260 CAVOK 24/14 Q1017 NOSIG,LEAL,2023-04-30T10:00:00Z,38.27,-0.55,24.0,14.0,170,4,,6.21,30.029528,,,,,,TRUE,,,,,CAVOK,,,,,,,,VFR,,,,,,,,,,,,METAR,26.0
LEAG 301000Z AUTO VRB03KT CAVOK 23/15 Q1015,LEAG,2023-04-30T10:00:00Z,36.12,-5.45,23.0,15.0,0,3,,6.21,29.970472,,,TRUE,,,,,,,,CAVOK,,,,,,,,VFR,,,,,,,,,,,,METAR,4.0
LEAB 301000Z 32003KT 230V030 CAVOK 21/08 Q1019 NOSIG,LEAB,2023-04-30T10:00:00Z,38.95,-1.85,21.0,8.0,320,3,,6.21,30.088583,,,,,,TRUE,,,,,CAVOK,,,,,,,,VFR,,,,,,,,,,,,METAR,704.0
LDZD 301000Z 05008KT 010V090 9999 FEW040 22/11 Q1015 NOSIG,LDZD,2023-04-30T10:00:00Z,44.1,15.33,22.0,11.0,50,8,,6.21,29.970472,,,,,,TRUE,,,,,FEW,4000,,,,,,,VFR,,,,,,,,,,,,METAR,82.0
LDZA 301000Z 06009KT 320V110 9999 FEW035 17/08 Q1019 NOSIG,LDZA,2023-04-30T10:00:00Z,45.72,16.07,17.0,8.0,60,9,,6.21,30.088583,,,,,,TRUE,,,,,FEW,3500,,,,,,,VFR,,,,,,,,,,,,METAR,103.0
LDSP 301000Z VRB04KT 9999 FEW035 20/11 Q1015 BECMG 23008KT,LDSP,2023-04-30T10:00:00Z,43.53,16.3,20.0,11.0,0,4,,6.21,29.970472,,,,,,,,,,,FEW,3500,,,,,,,VFR,,,,,,,,,,,,SPECI,16.0
LDRI 301000Z 06008KT 020V100 9999 FEW050 22/07 Q1016,LDRI,2023-04-30T10:00:00Z,45.22,14.57,22.0,7.0,60,8,,6.21,30.0,,,,,,,,,,,FEW,5000,,,,,,,VFR,,,,,,,,,,,,METAR,80.0
LDPL 301000Z 09016KT CAVOK 20/10 Q1016 NOSIG,LDPL,2023-04-30T10:00:00Z,44.88,13.92,20.0,10.0,90,16,,6.21,30.0,,,,,,TRUE,,,,,CAVOK,,,,,,,,VFR,,,,,,,,,,,,METAR,63.0
LDOS 301000Z 35010KT 310V010 9999 SCT033 19/09 Q1016,LDOS,2023-04-30T10:00:00Z,45.47,18.82,19.0,9.0,350,10,,6.21,30.0,,,,,,,,,,,SCT,3300,,,,,,,VFR,,,,,,,,,,,,METAR,82.0
LDLO 301000Z VRB04KT 9999 SCT060 17/12 Q1016,LDLO,2023-04-30T10:00:00Z,44.57,14.4,17.0,12.0,0,4,,6.21,30.0,,,,,,,,,,,SCT,6000,,,,,,,VFR,,,,,,,,,,,,METAR,46.0
LDDU 301000Z 22006KT 170V270 9999 FEW060 18/04 Q1015 NOSIG,LDDU,2023-04-30T10:00:00Z,42.57,18.27,18.0,4.0,220,6,,6.21,29.970472,,,,,,TRUE,,,,,FEW,6000,,,,,,,VFR,,,,,,,,,,,,METAR,156.0
LCPH 301000Z 25007KT 230V310 9999 FEW025 21/10 Q1013 NOSIG,LCPH,2023-04-30T10:00:00Z,34.72,32.47,21.0,10.0,250,7,,6.21,29.911417,,,,,,TRUE,,,,,FEW,2500,,,,,,,VFR,,,,,,,,,,,,METAR,8.0
LCLK 301000Z 19018KT 9999 FEW020 SCT050 20/10 Q1012 NOSIG,LCLK,2023-04-30T10:00:00Z,34.87,33.62,20.0,10.0,190,18,,6.21,29.88189,,,,,,TRUE,,,,,FEW,2000,SCT,5000,,,,,VFR,,,,,,,,,,,,METAR,2.0
LBWN 301000Z 30014KT 270V350 9999 FEW045 19/03 Q1012 NOSIG,LBWN,2023-04-30T10:00:00Z,43.22,27.82,19.0,3.0,300,14,,6.21,29.88189,,,,,,TRUE,,,,,FEW,4500,,,,,,,VFR,,,,,,,,,,,,METAR,74.0
LBSF 301000Z 33005KT 260V010 9999 FEW033CB SCT052 BKN066 16/06 Q1014 TEMPO 5000 SHRA SCT030CB,LBSF,2023-04-30T10:00:00Z,42.65,23.37,16.0,6.0,330,5,,6.21,29.940945,,,,,,,,,,,FEW,3300,SCT,5200,BKN,6600,,,VFR,,,,,,,,,,,,SPECI,592.0
LBPL 301000Z 28004KT 9999 FEW050 SCT100 19/08 Q1014,LBPL,2023-04-30T10:00:00Z,43.45,24.5,19.0,8.0,280,4,,6.21,29.940945,,,,,,,,,,,FEW,5000,SCT,10000,,,,,VFR,,,,,,,,,,,,METAR,93.0
LBPG 301000Z 24004KT 9999 SCT050 BKN100 19/08 Q1013,LBPG,2023-04-30T10:00:00Z,42.28,24.72,19.0,8.0,240,4,,6.21,29.911417,,,,,,,,,,,SCT,5000,BKN,10000,,,,,VFR,,,,,,,,,,,,METAR,198.0
LBPD 301000Z AUTO 35008KT 310V030 9999 FEW066/// BKN130/// 21/06 Q1013 NOSIG,LBPD,2023-04-30T10:00:00Z,42.05,24.85,21.0,6.0,350,8,,6.21,29.911417,,,TRUE,,,TRUE,,,,,FEW,6600,BKN,13000,,,,,VFR,,,,,,,,,,,,METAR,182.0
LBIA 301000Z 23006KT 9999 FEW050 SCT100 18/06 Q1013,LBIA,2023-04-30T10:00:00Z,42.45,26.35,18.0,6.0,230,6,,6.21,29.911417,,,,,,,,,,,FEW,5000,SCT,10000,,,,,VFR,,,,,,,,,,,,METAR,155.0
LBGO 301000Z AUTO VRB07KT 9999 BKN099/// 18/07 Q1013 NOSIG,LBGO,2023-04-30T10:00:00Z,43.15,25.72,18.0,7.0,0,7,,6.21,29.911417,,,TRUE,,,TRUE,,,,,BKN,9900,,,,,,,VFR,,,,,,,,,,,,METAR,84.0
LBBG 301000Z 24009KT 200V280 9999 FEW039 20/05 Q1012 NOSIG,LBBG,2023-04-30T10:00:00Z,42.57,27.52,20.0,5.0,240,9,,6.21,29.88189,,,,,,TRUE,,,,,FEW,3900,,,,,,,VFR,,,,,,,,,,,,METAR,41.0
KTRK 301000Z AUTO 00000KT 10SM CLR 02/00 A3011 RMK AO2 TSNO,KTRK,2023-04-30T10:00:00Z,39.32,-120.13,2.0,0.0,0,0,,10.0,30.109253,,,TRUE,TRUE,,,TRUE,,,,CLR,,,,,,,,VFR,,,,,,,,,,,,SPECI,1800.0
KTOL 301000Z 26003KT 5SM -RA BR BKN028 OVC035 08/06 A2945 RMK AO2 P0001 T00780061,KTOL,2023-04-30T10:00:00Z,41.58,-83.8,7.8,6.1,260,3,,5.0,29.450787,,,,TRUE,,,,,,-RA BR,BKN,2800,OVC,3500,,,,,MVFR,,,,,,0.01,,,,,,METAR,206.0
KSBD 301000Z AUTO 25004KT 7SM CLR 13/09 A2994 RMK AO2 T01330092,KSBD,2023-04-30T10:00:00Z,34.08,-117.25,13.3,9.2,250,4,,7.0,29.940945,,,TRUE,TRUE,,,,,,,CLR,,,,,,,,VFR,,,,,,,,,,,,METAR,353.0
KQFX 301000Z AUTO 22005KT 9999 CLR 17/03 A2979 RMK A02 TSNO,KQFX,2023-04-30T10:00:00Z,,,17.0,3.0,220,5,,6.21,29.790354,,,TRUE,TRUE,,,TRUE,,,,CLR,,,,,,,,VFR,,,,,,,,,,,,METAR,
KQFW 301000Z AUTO 20002KT 9999 FEW065 BKN085 BKN140 14/06 A2961 RMK A02 TSNO,KQFW,2023-04-30T10:00:00Z,,,14.0,6.0,200,2,,6.21,29.610237,,,TRUE,TRUE,,,TRUE,,,,FEW,6500,BKN,8500,BKN,14000,,,VFR,,,,,,,,,,,,METAR,
KQFV 301000Z AUTO 29004KT 9999 FEW110 13/05 A2979 RMK A02 TSNO,KQFV,2023-04-30T10:00:00Z,,,13.0,5.0,290,4,,6.21,29.790354,,,TRUE,TRUE,,,TRUE,,,,FEW,11000,,,,,,,VFR,,,,,,,,,,,,METAR,
KQFU 301000Z AUTO 21004KT 9999 SCT140 14/07 A2983 RMK A02 TSNO,KQFU,2023-04-30T10:00:00Z,,,14.0,7.0,210,4,,6.21,29.828741,,,TRUE,TRUE,,,TRUE,,,,SCT,14000,,,,,,,VFR,,,,,,,,,,,,METAR,
KQFT 301000Z AUTO 22002KT 9999 BKN095 16/07 A2978 RMK A02 TSNO,KQFT,2023-04-30T10:00:00Z,,,16.0,7.0,220,2,,6.21,29.778543,,,TRUE,TRUE,,,TRUE,,,,BKN,9500,,,,,,,VFR,,,,,,,,,,,,METAR,
KQFB 301000Z AUTO 27003KT 9999 CLR 20/00 A2988 RMK A02 TSNO,KQFB,2023-04-30T10:00:00Z,,,20.0,0.0,270,3,,6.21,29.878937,,,TRUE,TRUE,,,TRUE,,,,CLR,,,,,,,,VFR,,,,,,,,,,,,METAR,
KQEY 301000Z AUTO 19004KT 9999 CLR 16/02 A2957 RMK A02 TSNO,KQEY,2023-04-30T10:00:00Z,,,16.0,2.0,190,4,,6.21,29.568897,,,TRUE,TRUE,,,TRUE,,,,CLR,,,,,,,,VFR,,,,,,,,,,,,METAR,
KQEW 301000Z AUTO 26005G14KT 9999 CLR 17/01 A2982 RMK A02 TSNO,KQEW,2023-04-30T10:00:00Z,,,17.0,1.0,260,5,14,6.21,29.819881,,,TRUE,TRUE,,,TRUE,,,,CLR,,,,,,,,VFR,,,,,,,,,,,,METAR,
KQEV 301000Z AUTO 22004KT 9999 CLR 16/06 A2981 RMK A02 TSNO,KQEV,2023-04-30T10:00:00Z,,,16.0,6.0,220,4,,6.21,29.811024,,,TRUE,TRUE,,,TRUE,,,,CLR,,,,,,,,VFR,,,,,,,,,,,,METAR,
KQEQ 301000Z AUTO 22006KT 9999 BKN150 13/09 A2984 RMK A02 TSNO,KQEQ,2023-04-30T10:00:00Z,,,13.0,9.0,220,6,,6.21,29.840551,,,TRUE,TRUE,,,TRUE,,,,BKN,15000,,,,,,,VFR,,,,,,,,,,,,METAR,
KQEP 301000Z AUTO 19003KT 9999 SCT120 16/07 A2982 RMK A02 TSNO,KQEP,2023-04-30T10:00:00Z,,,16.0,7.0,190,3,,6.21,29.819881,,,TRUE,TRUE,,,TRUE,,,,SCT,12000,,,,,,,VFR,,,,,,,,,,,,METAR,
KQEN 301000Z AUTO 24012G26KT 9999 CLR 11/M00 A2974 RMK A02 TSNO,KQEN,2023-04-30T10:00:00Z,,,11.0,0.0,240,12,26,6.21,29.740158,,,TRUE,TRUE,,,TRUE,,,,CLR,,,,,,,,VFR,,,,,,,,,,,,METAR,
KQEJ 301000Z AUTO 10001KT 9999 FEW090 FEW150 14/03 A2975 RMK A02 TSNO,KQEJ,2023-04-30T10:00:00Z,,,14.0,3.0,100,1,,6.21,29.749016,,,TRUE,TRUE,,,TRUE,,,,FEW,9000,FEW,15000,,,,,VFR,,,,,,,,,,,,METAR,
KQEI 301000Z AUTO 13003KT 9999 FEW0100 BKN140 14/05 A2977 RMK A02 TSNO,KQEI,2023-04-30T10:00:00Z,,,14.0,5.0,130,3,,6.21,29.769686,,,TRUE,TRUE,,,TRUE,,,,BKN,14000,,,,,,,VFR,,,,,,,,,,,,METAR,
KPO1 301000Z AUTO 03005KT 10SM BKN090 M01/M04 A3017 RMK AO2,KPO1,2023-04-30T10:00:00Z,48.13,-105.17,-1.0,-4.0,30,5,,10.0,30.171259,,,TRUE,TRUE,,,,,,,BKN,9000,,,,,,,VFR,,,,,,,,,,,,METAR,621.0
KOXC 301000Z 05010KT 1 3/4SM BR OVC004 09/09 A2973 RMK AO2,KOXC,2023-04-30T10:00:00Z,41.47,-73.13,9.0,9.0,50,10,,1.75,29.731298,,,,TRUE,,,,,,BR,OVC,400,,,,,,,LIFR,,,,,,,,,,,,METAR,211.0
KNHK 301000Z AUTO 12008KT 6SM BR OVC004 17/15 A2954 RMK AO2 T01720150 $,KNHK,2023-04-30T10:00:00Z,38.28,-76.4,17.2,15.0,120,8,,6.0,29.53937,,,TRUE,TRUE,TRUE,,,,,BR,OVC,400,,,,,,,LIFR,,,,,,,,,,,,METAR,5.0
KNEL 301000Z AUTO 07007KT OVC002 11/11 A2967 RMK AO2 SLP047 T01110111 PNO $,KNEL,2023-04-30T10:00:00Z,40.03,-74.33,11.1,11.1,70,7,,,29.66929,1004.7,,TRUE,TRUE,TRUE,,,,,,OVC,200,,,,,,,,,,,,,,,,,,,METAR,26.0
KMVH 301000Z AUTO 32003KT 10SM CLR 03/M05 A3011 RMK AO2 PWINO,KMVH,2023-04-30T10:00:00Z,46.83,-108.93,3.0,-5.0,320,3,,10.0,30.109253,,,TRUE,TRUE,,,,,TRUE,,CLR,,,,,,,,VFR,,,,,,,,,,,,METAR,1352.0
KMNN 301000Z AUTO 20004KT 3SM BR BKN075 08/07 A2943 RMK AO2 T00780072,KMNN,2023-04-30T10:00:00Z,40.62,-83.07,7.8,7.2,200,4,,3.0,29.430119,,,TRUE,TRUE,,,,,,BR,BKN,7500,,,,,,,MVFR,,,,,,,,,,,,METAR,301.0
KJQF 301000Z AUTO 33003KT 10SM SCT005 BKN012 BKN110 15/15 A2952 RMK AO2,KJQF,2023-04-30T10:00:00Z,35.38,-80.72,15.0,15.0,330,3,,10.0,29.518702,,,TRUE,TRUE,,,,,,,SCT,500,BKN,1200,BKN,11000,,,MVFR,,,,,,,,,,,,METAR,204.0
KJAX 301000Z 27014G25KT 3SM R08/2600VP6000FT -RA BR SCT026 BKN045 OVC100 20/19 A2952 RMK AO2 LTG DSNT N P0017 T02000189 $,KJAX,2023-04-30T10:00:00Z,30.5,-81.68,20.0,18.9,270,14,25,3.0,29.518702,,,,TRUE,TRUE,,,,,-RA BR,SCT,2600,BKN,4500,OVC,10000,,,MVFR,,,,,,0.17,,,,,,METAR,8.0
KILN 301000Z AUTO 23003KT 1 1/2SM BR BKN017 BKN090 09/08 A2945 RMK AO2 T00940083,KILN,2023-04-30T10:00:00Z,39.43,-83.8,9.4,8.3,230,3,,1.5,29.450787,,,TRUE,TRUE,,,,,,BR,BKN,1700,BKN,9000,,,,,IFR,,,,,,,,,,,,METAR,325.0
KGVW 301000Z AUTO 27009KT 220V280 10SM CLR 20/10 A2991 RMK A01,KGVW,2023-04-30T10:00:00Z,29.13,-94.55,20.0,10.0,270,9,,10.0,29.911417,,,TRUE,TRUE,,,,,,,CLR,,,,,,,,VFR,,,,,,,,,,,,METAR,37.0
KGUL 301000Z AUTO 00000KT 10SM CLR 21/11 A2992 RMK A01,KGUL,2023-04-30T10:00:00Z,27.3,-93.53,21.0,11.0,0,0,,10.0,29.920275,,,TRUE,TRUE,,,,,,,CLR,,,,,,,,VFR,,,,,,,,,,,,METAR,20.0
KGNG 301000Z AUTO 08013KT 10SM FEW046 14/00 A2996 RMK AO2,KGNG,2023-04-30T10:00:00Z,42.92,-114.77,14.0,0.0,80,13,,10.0,29.958662,,,TRUE,TRUE,,,,,,,FEW,4600,,,,,,,VFR,,,,,,,,,,,,METAR,1128.0
KGIF 301000Z AUTO 23014G24KT 2 1/2SM VCTS +RA BR FEW012 BKN030 OVC070 22/21 A2963 RMK AO2 VIS 1 1/2V5 LTG DSNT ALQDS P0009 T02220211,KGIF,2023-04-30T10:00:00Z,28.07,-81.75,22.2,21.1,230,14,24,2.5,29.630905,,,TRUE,TRUE,,,,,,VCTS +RA BR,FEW,1200,BKN,3000,OVC,7000,,,IFR,,,,,,0.09,,,,,,METAR,44.0
KDSF 301000Z AUTO 31007G21KT 220V030 10SM SCT026 SCT032 BKN041 20/14 A2975 RMK A01,KDSF,2023-04-30T10:00:00Z,28.35,-88.27,20.0,14.0,310,7,21,10.0,29.749016,,,TRUE,TRUE,,,,,,,SCT,2600,SCT,3200,BKN,4100,,,VFR,,,,,,,,,,,,METAR,40.0
KBGM 301000Z 13008KT 10SM OVC005 09/08 A2963 RMK AO2 CIG 003V008 T00890078,KBGM,2023-04-30T10:00:00Z,42.22,-75.98,8.9,7.8,130,8,,10.0,29.630905,,,,TRUE,,,,,,,OVC,500,,,,,,,IFR,,,,,,,,,,,,METAR,485.0
KATP 301000Z AUTO 30020G32KT 9SM SCT034 SCT043 OVC055 21/14 A2985 RMK A01,KATP,2023-04-30T10:00:00Z,27.2,-90.03,21.0,14.0,300,20,32,9.0,29.84941,,,TRUE,TRUE,,,,,,,SCT,3400,SCT,4300,OVC,5500,,,VFR,,,,,,,,,,,,METAR,50.0
K3U3 301000Z AUTO 00000KT 10SM 06/M04 A3006 ,K3U3,2023-04-30T10:00:00Z,46.15,-112.87,6.0,-4.0,0,0,,10.0,30.059055,,,TRUE,,,,,,,,,,,,,,,,,,,,,,,,,,,,METAR,1534.0
K38S 301000Z AUTO 00000KT 10SM 02/M02 A3009 ,K38S,2023-04-30T10:00:00Z,46.38,-112.77,2.0,-2.0,0,0,,10.0,30.088583,,,TRUE,,,,,,,,,,,,,,,,,,,,,,,,,,,,METAR,1430.0
HRYR 301000Z VRB05KT 9999 FEW022CB SCT025 25/16 Q1020 NOSIG,HRYR,2023-04-30T10:00:00Z,-1.97,30.13,25.0,16.0,0,5,,6.21,30.11811,,,,,,TRUE,,,,,FEW,2200,SCT,2500,,,,,VFR,,,,,,,,,,,,METAR,1493.0
HECA 301000Z 28008KT 9999 SCT025 21/06 Q1016 NOSIG,HECA,2023-04-30T10:00:00Z,30.12,31.4,21.0,6.0,280,8,,6.21,30.0,,,,,,TRUE,,,,,SCT,2500,,,,,,,VFR,,,,,,,,,,,,METAR,68.0
HADR 301000Z 19008KT 9999 SCT028 BKN029 SCT060 25/21 Q1018 NOSIG,HADR,2023-04-30T10:00:00Z,9.6,41.87,25.0,21.0,190,8,,6.21,30.059055,,,,,,TRUE,,,,,SCT,2800,BKN,2900,SCT,6000,,,MVFR,,,,,,,,,,,,METAR,1164.0
GVSV 301000Z 05012KT 9999 FEW020 26/18 Q1015 NOSIG,GVSV,2023-04-30T10:00:00Z,16.83,-25.07,26.0,18.0,50,12,,6.21,29.970472,,,,,,TRUE,,,,,FEW,2000,,,,,,,VFR,,,,,,,,,,,,METAR,16.0
GVNP 301000Z 01011KT CAVOK 31/04 Q1014 NOSIG,GVNP,2023-04-30T10:00:00Z,14.95,-23.48,31.0,4.0,10,11,,6.21,29.940945,,,,,,TRUE,,,,,CAVOK,,,,,,,,VFR,,,,,,,,,,,,METAR,70.0
GVBA 301000Z 36015KT 9999 BKN014 24/20 Q1015 NOSIG,GVBA,2023-04-30T10:00:00Z,16.13,-22.88,24.0,20.0,360,15,,6.21,29.970472,,,,,,TRUE,,,,,BKN,1400,,,,,,,MVFR,,,,,,,,,,,,METAR,23.0
GVAC 301000Z 01016KT 9999 FEW013 24/20 Q1015 NOSIG,GVAC,2023-04-30T10:00:00Z,16.73,-22.93,24.0,20.0,10,16,,6.21,29.970472,,,,,,TRUE,,,,,FEW,1300,,,,,,,VFR,,,,,,,,,,,,METAR,54.0
GQPP 301000Z 01011KT 8000 NSC 25/17 Q1013 NOSIG,GQPP,2023-04-30T10:00:00Z,20.92,-17.02,25.0,17.0,10,11,,4.97,29.911417,,,,,,TRUE,,,,,CLR,,,,,,,,MVFR,,,,,,,,,,,,METAR,5.0
GMTT 301000Z 25006KT 6000 SCT006 BKN013 21/20 Q1016 NOSIG,GMTT,2023-04-30T10:00:00Z,35.72,-5.9,21.0,20.0,250,6,,3.73,30.0,,,,,,TRUE,,,,,SCT,600,BKN,1300,,,,,MVFR,,,,,,,,,,,,METAR,19.0
GMTN 301000Z 20005KT CAVOK 26/16 Q1015 NOSIG,GMTN,2023-04-30T10:00:00Z,35.58,-5.32,26.0,16.0,200,5,,6.21,29.970472,,,,,,TRUE,,,,,CAVOK,,,,,,,,VFR,,,,,,,,,,,,METAR,10.0
GMTA 301000Z 01008KT CAVOK 26/13 Q1015 NOSIG,GMTA,2023-04-30T10:00:00Z,35.17,-3.85,26.0,13.0,10,8,,6.21,29.970472,,,,,,TRUE,,,,,CAVOK,,,,,,,,VFR,,,,,,,,,,,,METAR,14.0
GMMZ 301000Z VRB02KT 9999 FEW040 25/02 Q1018 NOSIG,GMMZ,2023-04-30T10:00:00Z,30.93,-6.9,25.0,2.0,0,2,,6.21,30.059055,,,,,,TRUE,,,,,FEW,4000,,,,,,,VFR,,,,,,,,,,,,METAR,1139.0
GMMX 301000Z 32003KT 240V050 CAVOK 26/13 Q1018 NOSIG,GMMX,2023-04-30T10:00:00Z,31.62,-8.03,26.0,13.0,320,3,,6.21,30.059055,,,,,,TRUE,,,,,CAVOK,,,,,,,,VFR,,,,,,,,,,,,METAR,465.0
GMMW 301000Z 01004KT 330V080 CAVOK 27/08 Q1016 NOSIG,GMMW,2023-04-30T10:00:00Z,34.98,-3.02,27.0,8.0,10,4,,6.21,30.0,,,,,,TRUE,,,,,CAVOK,,,,,,,,VFR,,,,,,,,,,,,METAR,174.0
GMMN 301000Z 02007KT 360V060 9999 BKN016 SCT200 23/17 Q1017 NOSIG,GMMN,2023-04-30T10:00:00Z,33.37,-7.58,23.0,17.0,20,7,,6.21,30.029528,,,,,,TRUE,,,,,BKN,1600,SCT,20000,,,,,MVFR,,,,,,,,,,,,METAR,196.0
GMML 301000Z 03015KT CAVOK 25/21 Q1016 NOSIG,GMML,2023-04-30T10:00:00Z,27.13,-13.23,25.0,21.0,30,15,,6.21,30.0,,,,,,TRUE,,,,,CAVOK,,,,,,,,VFR,,,,,,,,,,,,METAR,63.0
GMMH 301000Z 02019KT 8000 NSC 22/17 Q1015 NOSIG,GMMH,2023-04-30T10:00:00Z,23.72,-15.93,22.0,17.0,20,19,,4.97,29.970472,,,,,,TRUE,,,,,CLR,,,,,,,,MVFR,,,,,,,,,,,,METAR,11.0
GMME 301000Z 01003KT 330V060 5000 SCT016 SCT100 22/17 Q1016 NOSIG,GMME,2023-04-30T10:00:00Z,34.05,-6.77,22.0,17.0,10,3,,3.11,30.0,,,,,,TRUE,,,,,SCT,1600,SCT,10000,,,,,MVFR,,,,,,,,,,,,METAR,84.0
GMMD 301000Z 18008KT FEW030 SCT230 25/08 Q1017 NOSIG,GMMD,2023-04-30T10:00:00Z,32.4,-6.32,25.0,8.0,180,8,,,30.029528,,,,,,TRUE,,,,,FEW,3000,SCT,23000,,,,,,,,,,,,,,,,,METAR,515.0
GMMC 301000Z 04006KT 8000 FEW016 BKN100 21/16 Q1017,GMMC,2023-04-30T10:00:00Z,33.57,-7.67,21.0,16.0,40,6,,4.97,30.029528,,,,,,,,,,,FEW,1600,BKN,10000,,,,,MVFR,,,,,,,,,,,,METAR,62.0
GMMB 301000Z 33005KT 280V090 8000 SCT016 BKN200 22/18 Q1018 NOSIG,GMMB,2023-04-30T10:00:00Z,33.65,-7.22,22.0,18.0,330,5,,4.97,30.059055,,,,,,TRUE,,,,,SCT,1600,BKN,20000,,,,,MVFR,,,,,,,,,,,,METAR,191.0
GMFO 301000Z VRB02KT 9999 FEW026 BKN230 28/06 Q1017 NOSIG,GMFO,2023-04-30T10:00:00Z,34.78,-1.92,28.0,6.0,0,2,,6.21,30.029528,,,,,,TRUE,,,,,FEW,2600,BKN,23000,,,,,VFR,,,,,,,,,,,,METAR,452.0
GMFM 301000Z 22003KT 160V300 9999 FEW020 BKN100 22/12 Q1018 NOSIG,GMFM,2023-04-30T10:00:00Z,33.87,-5.52,22.0,12.0,220,3,,6.21,30.059055,,,,,,TRUE,,,,,FEW,2000,BKN,10000,,,,,VFR,,,,,,,,,,,,METAR,569.0
GMFK 301000Z 09009KT 050V130 9999 SCT030 27/02 Q1020 NOSIG,GMFK,2023-04-30T10:00:00Z,31.95,-4.4,27.0,2.0,90,9,,6.21,30.11811,,,,,,TRUE,,,,,SCT,3000,,,,,,,VFR,,,,,,,,,,,,METAR,1033.0
GMFF 301000Z VRB03KT 9999 FEW033 BKN200 22/10 Q1018 NOSIG,GMFF,2023-04-30T10:00:00Z,33.92,-4.97,22.0,10.0,0,3,,6.21,30.059055,,,,,,TRUE,,,,,FEW,3300,BKN,20000,,,,,VFR,,,,,,,,,,,,METAR,575.0
GMFB 301000Z 10014KT 9999 SCT030 26/02 Q1021 NOSIG,GMFB,2023-04-30T10:00:00Z,32.52,-1.98,26.0,2.0,100,14,,6.21,30.147638,,,,,,TRUE,,,,,SCT,3000,,,,,,,VFR,,,,,,,,,,,,METAR,1106.0
GMAZ 301000Z VRB02KT 9999 FEW040 34/M01 Q1016 NOSIG,GMAZ,2023-04-30T10:00:00Z,30.32,-5.87,34.0,-1.0,0,2,,6.21,30.0,,,,,,TRUE,,,,,FEW,4000,,,,,,,VFR,,,,,,,,,,,,METAR,729.0
GMAT 301000Z 02008KT 9999 FEW010 22/17 Q1015 NOSIG,GMAT,2023-04-30T10:00:00Z,28.43,-11.15,22.0,17.0,20,8,,6.21,29.970472,,,,,,TRUE,,,,,FEW,1000,,,,,,,VFR,,,,,,,,,,,,METAR,192.0
GMAG 301000Z 24006KT 200V300 6000 NSC 22/16 Q1015 NOSIG,GMAG,2023-04-30T10:00:00Z,29.03,-10.05,22.0,16.0,240,6,,3.73,29.970472,,,,,,TRUE,,,,,CLR,,,,,,,,MVFR,,,,,,,,,,,,METAR,333.0
GMAD 301000Z 27009KT 230V310 CAVOK 24/18 Q1014 NOSIG,GMAD,2023-04-30T10:00:00Z,30.32,-9.42,24.0,18.0,270,9,,6.21,29.940945,,,,,,TRUE,,,,,CAVOK,,,,,,,,VFR,,,,,,,,,,,,METAR,66.0
GLRB 301000Z 05003KT 9999 BKN016 FEW025CB 29/25 Q1014 NOSIG RMK CB/SE-S,GLRB,2023-04-30T10:00:00Z,6.25,-10.35,29.0,25.0,50,3,,6.21,29.940945,,,,,,TRUE,,,,,BKN,1600,FEW,2500,,,,,MVFR,,,,,,,,,,,,METAR,12.0
GEML 301000Z 09004KT 030V150 9999 FEW020 26/13 Q1016,GEML,2023-04-30T10:00:00Z,35.27,-2.95,26.0,13.0,90,4,,6.21,30.0,,,,,,,,,,,FEW,2000,,,,,,,VFR,,,,,,,,,,,,METAR,48.0
GECE 301000Z AUTO 30009KT 260V320 CAVOK 20/16 Q1015,GECE,2023-04-30T10:00:00Z,35.88,-5.3,20.0,16.0,300,9,,6.21,29.970472,,,TRUE,,,,,,,,CAVOK,,,,,,,,VFR,,,,,,,,,,,,METAR,2.0
GCXO 301000Z 11005KT 030V200 CAVOK 24/07 Q1021 NOSIG,GCXO,2023-04-30T10:00:00Z,28.48,-16.35,24.0,7.0,110,5,,6.21,30.147638,,,,,,TRUE,,,,,CAVOK,,,,,,,,VFR,,,,,,,,,,,,METAR,623.0
GCTS 301000Z 08018KT CAVOK 29/08 Q1018 NOSIG,GCTS,2023-04-30T10:00:00Z,28.05,-16.57,29.0,8.0,80,18,,6.21,30.059055,,,,,,TRUE,,,,,CAVOK,,,,,,,,VFR,,,,,,,,,,,,METAR,59.0
GCRR 301000Z 01015KT CAVOK 26/16 Q1017,GCRR,2023-04-30T10:00:00Z,28.95,-13.58,26.0,16.0,10,15,,6.21,30.029528,,,,,,,,,,,CAVOK,,,,,,,,VFR,,,,,,,,,,,,METAR,9.0
GCLP 301000Z 02017KT CAVOK 26/16 Q1018 NOSIG,GCLP,2023-04-30T10:00:00Z,27.92,-15.38,26.0,16.0,20,17,,6.21,30.059055,,,,,,TRUE,,,,,CAVOK,,,,,,,,VFR,,,,,,,,,,,,METAR,16.0
GCLA 301000Z 03007KT 360V060 CAVOK 24/15 Q1019,GCLA,2023-04-30T10:00:00Z,28.62,-17.75,24.0,15.0,30,7,,6.21,30.088583,,,,,,,,,,,CAVOK,,,,,,,,VFR,,,,,,,,,,,,METAR,20.0
GCHI 301000Z 36011KT 330V030 9999 SCT015 22/18 Q1019,GCHI,2023-04-30T10:00:00Z,27.82,-17.88,22.0,18.0,360,11,,6.21,30.088583,,,,,,,,,,,SCT,1500,,,,,,,VFR,,,,,,,,,,,,METAR,21.0
GCGM 301000Z 21004KT 160V270 CAVOK 24/16 Q1018 RMK R09/VRB04KT ARP/23004KT 160V280,GCGM,2023-04-30T10:00:00Z,28.03,-17.22,24.0,16.0,210,4,,6.21,30.059055,,,,,,,,,,,CAVOK,,,,,,,,VFR,,,,,,,,,,,,METAR,217.0
GCFV 301000Z 03011KT CAVOK 23/17 Q1018,GCFV,2023-04-30T10:00:00Z,28.43,-13.87,23.0,17.0,30,11,,6.21,30.059055,,,,,,,,,,,CAVOK,,,,,,,,VFR,,,,,,,,,,,,METAR,11.0
GBYD 301000Z 27005KT 9999 SCT011 27/22 Q1013,GBYD,2023-04-30T10:00:00Z,13.33,-16.65,27.0,22.0,270,5,,6.21,29.911417,,,,,,,,,,,SCT,1100,,,,,,,VFR,,,,,,,,,,,,METAR,29.0
FZAA 301000Z 20004KT 9000 SCT020 28/22 Q1015 NOSIG,FZAA,2023-04-30T10:00:00Z,-4.38,15.45,28.0,22.0,200,4,,5.59,29.970472,,,,,,TRUE,,,,,SCT,2000,,,,,,,VFR,,,,,,,,,,,,SPECI,309.0
FWKI 301000Z 24005KT 9999 SCT030 25/13 Q1019 NOSIG,FWKI,2023-04-30T10:00:00Z,-13.78,33.78,25.0,13.0,240,5,,6.21,30.088583,,,,,,TRUE,,,,,SCT,3000,,,,,,,VFR,,,,,,,,,,,,METAR,1225.0
FWCL 301000Z 26011KT 9999 FEW028 26/10 Q1018 NOSIG,FWCL,2023-04-30T10:00:00Z,-15.67,34.97,26.0,10.0,260,11,,6.21,30.059055,,,,,,TRUE,,,,,FEW,2800,,,,,,,VFR,,,,,,,,,,,,METAR,774.0
FVRG 301000Z 14007KT 080V210 CAVOK 26/02 Q1024 NOSIG,FVRG,2023-04-30T10:00:00Z,-17.93,31.1,26.0,2.0,140,7,,6.21,30.236221,,,,,,TRUE,,,,,CAVOK,,,,,,,,VFR,,,,,,,,,,,,METAR,1490.0
FSIA 301000Z 10007KT 070V140 9999 FEW018CB SCT021 30/25 Q1008 NOSIG,FSIA,2023-04-30T10:00:00Z,-4.67,55.52,30.0,25.0,100,7,,6.21,29.763779,,,,,,TRUE,,,,,FEW,1800,SCT,2100,,,,,VFR,,,,,,,,,,,,METAR,3.0
FQXA 301000Z 21011KT 9999 FEW015 BKN020 26/22 Q1019,FQXA,2023-04-30T10:00:00Z,-25.05,33.62,26.0,22.0,210,11,,6.21,30.088583,,,,,,,,,,,FEW,1500,BKN,2000,,,,,MVFR,,,,,,,,,,,,METAR,3.0
FQVL 301000Z 15007KT 9999 FEW020 29/19 Q1015,FQVL,2023-04-30T10:00:00Z,-22.0,35.32,29.0,19.0,150,7,,6.21,29.970472,,,,,,,,,,,FEW,2000,,,,,,,VFR,,,,,,,,,,,,METAR,15.0
FQTT 301000Z 20007KT 150V260 9999 FEW020 32/13 Q1016,FQTT,2023-04-30T10:00:00Z,-16.1,33.63,32.0,13.0,200,7,,6.21,30.0,,,,,,,,,,,FEW,2000,,,,,,,VFR,,,,,,,,,,,,METAR,146.0
FQQL 301000Z 22006KT 190V250 9999 BKN018 28/19 Q1015,FQQL,2023-04-30T10:00:00Z,-17.87,36.87,28.0,19.0,220,6,,6.21,29.970472,,,,,,,,,,,BKN,1800,,,,,,,MVFR,,,,,,,,,,,,METAR,5.0
FQNP 301000Z 20010KT 170V230 9999 FEW020 27/17 Q1015,FQNP,2023-04-30T10:00:00Z,-15.1,39.27,27.0,17.0,200,10,,6.21,29.970472,,,,,,,,,,,FEW,2000,,,,,,,VFR,,,,,,,,,,,,METAR,434.0
FQNC 301000Z /////KT 9999 FEW020 30/// Q1013,FQNC,2023-04-30T10:00:00Z,-14.48,40.72,,,,,,6.21,29.911417,,,,,,,,,,,FEW,2000,,,,,,,VFR,,,,,,,,,,,,METAR,112.0
FQMA 301000Z 19015KT 9999 FEW015 SCT020 28/19 Q1018 NOSIG,FQMA,2023-04-30T10:00:00Z,-25.92,32.57,28.0,19.0,190,15,,6.21,30.059055,,,,,,TRUE,,,,,FEW,1500,SCT,2000,,,,,VFR,,,,,,,,,,,,METAR,34.0
FQLC 301000Z 14005KT 9999 BKN018 23/15 Q1021,FQLC,2023-04-30T10:00:00Z,-13.27,35.25,23.0,15.0,140,5,,6.21,30.147638,,,,,,,,,,,BKN,1800,,,,,,,MVFR,,,,,,,,,,,,METAR,1362.0
FQCH 301000Z /////KT 9999 FEW020 27/13 Q1021,FQCH,2023-04-30T10:00:00Z,-19.15,33.43,27.0,13.0,,,,6.21,30.147638,,,,,,,,,,,FEW,2000,,,,,,,VFR,,,,,,,,,,,,SPECI,695.0
FQBR 301000Z /////KT 9999 FEW020 28/20 Q1015,FQBR,2023-04-30T10:00:00Z,-19.8,34.9,28.0,20.0,,,,6.21,29.970472,,,,,,,,,,,FEW,2000,,,,,,,VFR,,,,,,,,,,,,METAR,14.0
FOON 301000Z /////KT 9999 SCT013 28/23 Q1015,FOON,2023-04-30T10:00:00Z,-1.65,13.43,28.0,23.0,,,,6.21,29.970472,,,,,,,,,,,SCT,1300,,,,,,,VFR,,,,,,,,,,,,METAR,440.0
FOOL 301000Z VRB03KT 9999 SCT012 30/24 Q1013 NOSIG,FOOL,2023-04-30T10:00:00Z,0.45,9.42,30.0,24.0,0,3,,6.21,29.911417,,,,,,TRUE,,,,,SCT,1200,,,,,,,VFR,,,,,,,,,,,,METAR,9.0
FOOG 301000Z VRB04KT 9999 SCT011 FEW020CB SCT040 30/24 Q1013,FOOG,2023-04-30T10:00:00Z,-0.7,8.75,30.0,24.0,0,4,,6.21,29.911417,,,,,,,,,,,SCT,1100,FEW,2000,SCT,4000,,,VFR,,,,,,,,,,,,METAR,4.0
FNLU 301000Z 33007KT 270V350 9999 FEW017 BKN020 30/25 Q1012 NOSIG,FNLU,2023-04-30T10:00:00Z,-8.85,13.22,30.0,25.0,330,7,,6.21,29.88189,,,,,,TRUE,,,,,FEW,1700,BKN,2000,,,,,MVFR,,,,,,,,,,,,METAR,75.0
FMMT 301000Z 17006KT 110V210 9999 SCT017TCU 29/21 Q1012 NOSIG,FMMT,2023-04-30T10:00:00Z,-18.12,49.38,29.0,21.0,170,6,,6.21,29.88189,,,,,,TRUE,,,,,SCT,1700,,,,,,,VFR,,,,,,,,,,,,METAR,13.0
FMMI 301000Z VRB04KT 9999 FEW024 25/11 Q1017 NOSIG,FMMI,2023-04-30T10:00:00Z,-18.8,47.47,25.0,11.0,0,4,,6.21,30.029528,,,,,,TRUE,,,,,FEW,2400,,,,,,,VFR,,,,,,,,,,,,METAR,1269.0
FMCZ 301000Z AUTO 17013KT CAVOK 31/24 Q1010 NOSIG,FMCZ,2023-04-30T10:00:00Z,-12.8,45.27,31.0,24.0,170,13,,6.21,29.822834,,,TRUE,,,TRUE,,,,,CAVOK,,,,,,,,VFR,,,,,,,,,,,,METAR,7.0
FIMP 301000Z 12006KT 9999 SCT018 29/22 Q1011,FIMP,2023-04-30T10:00:00Z,-20.43,57.68,29.0,22.0,120,6,,6.21,29.852362,,,,,,,,,,,SCT,1800,,,,,,,VFR,,,,,,,,,,,,METAR,57.0
FGSL 301000Z VRB05KT 9999 FEW013 FEW020CB 31/26 Q1013 NOSIG,FGSL,2023-04-30T10:00:00Z,3.75,8.72,31.0,26.0,0,5,,6.21,29.911417,,,,,,TRUE,,,,,FEW,1300,FEW,2000,,,,,VFR,,,,,,,,,,,,METAR,23.0
FDSK 301000Z 18010KT 150V220 9999 SCT030 25/17 Q1022 NOSIG,FDSK,2023-04-30T10:00:00Z,-26.35,31.72,25.0,17.0,180,10,,6.21,30.177166,,,,,,TRUE,,,,,SCT,3000,,,,,,,VFR,,,,,,,,,,,,METAR,323.0
FDMS 301000Z VRB02KT 9999 BKN035 22/18 Q1022,FDMS,2023-04-30T10:00:00Z,-26.52,31.3,22.0,18.0,0,2,,6.21,30.177166,,,,,,,,,,,BKN,3500,,,,,,,VFR,,,,,,,,,,,,METAR,633.0
FAVV 301000Z AUTO 03004KT //// // ////// 24/11 Q1026,FAVV,2023-04-30T10:00:00Z,-26.57,27.97,24.0,11.0,30,4,,,30.295275,,,TRUE,,,,,,,,,,,,,,,,,,,,,,,,,,,,SPECI,1480.0
FAUT 301000Z 18002KT 9999 BKN025 17/08 Q1024,FAUT,2023-04-30T10:00:00Z,-31.53,28.67,17.0,8.0,180,2,,6.21,30.236221,,,,,,,,,,,BKN,2500,,,,,,,MVFR,,,,,,,,,,,,METAR,735.0
FAUP 301000Z 07002KT CAVOK 27/M10 Q1020 NOSIG,FAUP,2023-04-30T10:00:00Z,-28.38,21.27,27.0,-10.0,70,2,,6.21,30.11811,,,,,,TRUE,,,,,CAVOK,,,,,,,,VFR,,,,,,,,,,,,METAR,845.0
FAPE 301000Z 08008KT 7000 -RA SCT005 BKN015 OVC020 16/15 Q1023 BECMG SCT010 BKN020,FAPE,2023-04-30T10:00:00Z,-33.98,25.6,16.0,15.0,80,8,,4.35,30.206694,,,,,,,,,,-RA,SCT,500,BKN,1500,OVC,2000,,,MVFR,,,,,,,,,,,,METAR,58.0
FAOR 301000Z 02006KT 340V070 CAVOK 22/11 Q1025 NOSIG,FAOR,2023-04-30T10:00:00Z,-26.13,28.23,22.0,11.0,20,6,,6.21,30.265747,,,,,,TRUE,,,,,CAVOK,,,,,,,,VFR,,,,,,,,,,,,METAR,1684.0
FAMM 301000Z 34007KT 9999 FEW035 30/09 Q1022 NOSIG,FAMM,2023-04-30T10:00:00Z,-25.8,25.53,30.0,9.0,340,7,,6.21,30.177166,,,,,,TRUE,,,,,FEW,3500,,,,,,,VFR,,,,,,,,,,,,METAR,1280.0
FALE 301000Z 16010KT 9999 FEW035 BKN048 22/13 Q1022 NOSIG,FALE,2023-04-30T10:00:00Z,-29.62,31.12,22.0,13.0,160,10,,6.21,30.177166,,,,,,TRUE,,,,,FEW,3500,BKN,4800,,,,,VFR,,,,,,,,,,,,METAR,109.0
FAKN 301000Z 11007KT 9999 BKN020 23/16 Q1024 NOSIG,FAKN,2023-04-30T10:00:00Z,-25.38,31.1,23.0,16.0,110,7,,6.21,30.236221,,,,,,TRUE,,,,,BKN,2000,,,,,,,MVFR,,,,,,,,,,,,METAR,864.0
FAKM 301000Z 20002KT CAVOK 24/00 Q1022,FAKM,2023-04-30T10:00:00Z,-28.8,24.77,24.0,0.0,200,2,,6.21,30.177166,,,,,,,,,,,CAVOK,,,,,,,,VFR,,,,,,,,,,,,METAR,1203.0
FAJB 301000Z AUTO 04004KT //// // ////// 24/11 Q1024,FAJB,2023-04-30T10:00:00Z,-26.15,28.0,24.0,11.0,40,4,,,30.236221,,,TRUE,,,,,,,,,,,,,,,,,,,,,,,,,,,,SPECI,1626.0
FAHS 301000Z AUTO 15009KT //// // ////// 26/19 Q1020,FAHS,2023-04-30T10:00:00Z,-24.37,31.03,26.0,19.0,150,9,,,30.11811,,,TRUE,,,,,,,,,,,,,,,,,,,,,,,,,,,,METAR,532.0
FAGG 301000Z 11010KT 080V140 CAVOK 19/09 Q1020,FAGG,2023-04-30T10:00:00Z,-34.0,22.37,19.0,9.0,110,10,,6.21,30.11811,,,,,,,,,,,CAVOK,,,,,,,,VFR,,,,,,,,,,,,METAR,196.0
FAEL 301000Z VRB01KT 8000 SCT004 BKN016 OVC027 16/15 Q1024,FAEL,2023-04-30T10:00:00Z,-33.03,27.82,16.0,15.0,0,1,,4.97,30.236221,,,,,,,,,,,SCT,400,BKN,1600,OVC,2700,,,MVFR,,,,,,,,,,,,METAR,127.0
FACT 301000Z 27005KT 210V310 CAVOK 20/08 Q1018 NOSIG,FACT,2023-04-30T10:00:00Z,-33.97,18.6,20.0,8.0,270,5,,6.21,30.059055,,,,,,TRUE,,,,,CAVOK,,,,,,,,VFR,,,,,,,,,,,,METAR,48.0
EPZG 301000Z 32007KT 270V010 9999 FEW040 12/02 Q1023,EPZG,2023-04-30T10:00:00Z,52.13,15.77,12.0,2.0,320,7,,6.21,30.206694,,,,,,,,,,,FEW,4000,,,,,,,VFR,,,,,,,,,,,,METAR,59.0
EPWR 301000Z 33010KT 290V360 9999 FEW037 13/04 Q1022,EPWR,2023-04-30T10:00:00Z,51.1,16.88,13.0,4.0,330,10,,6.21,30.177166,,,,,,,,,,,FEW,3700,,,,,,,VFR,,,,,,,,,,,,METAR,118.0
EPWA 301000Z 32013KT CAVOK 13/M01 Q1018 NOSIG,EPWA,2023-04-30T10:00:00Z,52.17,20.97,13.0,-1.0,320,13,,6.21,30.059055,,,,,,TRUE,,,,,CAVOK,,,,,,,,VFR,,,,,,,,,,,,METAR,107.0
EPSY 301000Z 33010KT 280V010 CAVOK 11/M01 Q1018,EPSY,2023-04-30T10:00:00Z,53.47,20.93,11.0,-1.0,330,10,,6.21,30.059055,,,,,,,,,,,CAVOK,,,,,,,,VFR,,,,,,,,,,,,METAR,136.0
EPSC 301000Z 30011KT 260V330 9999 SCT034 09/M01 Q1023,EPSC,2023-04-30T10:00:00Z,53.58,14.9,9.0,-1.0,300,11,,6.21,30.206694,,,,,,,,,,,SCT,3400,,,,,,,VFR,,,,,,,,,,,,METAR,47.0
EPRZ 301000Z 33013KT 9999 BKN008 SCT011TCU 12/10 Q1016,EPRZ,2023-04-30T10:00:00Z,50.1,22.02,12.0,10.0,330,13,,6.21,30.0,,,,,,,,,,,BKN,800,SCT,1100,,,,,IFR,,,,,,,,,,,,METAR,206.0
EPRA 301000Z 34011KT 290V010 9999 SCT035 13/05 Q1018,EPRA,2023-04-30T10:00:00Z,51.38,21.22,13.0,5.0,340,11,,6.21,30.059055,,,,,,,,,,,SCT,3500,,,,,,,VFR,,,,,,,,,,,,METAR,182.0
EPPO 301000Z 32009KT 260V340 9999 FEW041 11/01 Q1022,EPPO,2023-04-30T10:00:00Z,52.42,16.83,11.0,1.0,320,9,,6.21,30.177166,,,,,,,,,,,FEW,4100,,,,,,,VFR,,,,,,,,,,,,METAR,87.0
EPMO 301000Z 31011KT 240V350 9999 FEW046 12/00 Q1019,EPMO,2023-04-30T10:00:00Z,52.45,20.65,12.0,0.0,310,11,,6.21,30.088583,,,,,,,,,,,FEW,4600,,,,,,,VFR,,,,,,,,,,,,METAR,102.0
EPLL 301000Z 29012KT 250V350 CAVOK 11/M01 Q1020,EPLL,2023-04-30T10:00:00Z,51.72,19.4,11.0,-1.0,290,12,,6.21,30.11811,,,,,,,,,,,CAVOK,,,,,,,,VFR,,,,,,,,,,,,METAR,176.0
EPLB 301000Z 33006KT 6000 -SHRA BKN007 SCT015CB 10/10 Q1017,EPLB,2023-04-30T10:00:00Z,51.23,22.72,10.0,10.0,330,6,,3.73,30.029528,,,,,,,,,,-SHRA,BKN,700,SCT,1500,,,,,IFR,,,,,,,,,,,,METAR,206.0
EPKT 301000Z 33010KT 270V010 9999 SCT041 12/01 Q1020,EPKT,2023-04-30T10:00:00Z,50.47,19.08,12.0,1.0,330,10,,6.21,30.11811,,,,,,,,,,,SCT,4100,,,,,,,VFR,,,,,,,,,,,,METAR,296.0
EPKK 301000Z 31009KT 9999 FEW036 14/05 Q1019,EPKK,2023-04-30T10:00:00Z,50.07,19.8,14.0,5.0,310,9,,6.21,30.088583,,,,,,,,,,,FEW,3600,,,,,,,VFR,,,,,,,,,,,,METAR,237.0
EPGD 301000Z 30015KT 270V330 9999 FEW044 09/M01 Q1019,EPGD,2023-04-30T10:00:00Z,54.37,18.47,9.0,-1.0,300,15,,6.21,30.088583,,,,,,,,,,,FEW,4400,,,,,,,VFR,,,,,,,,,,,,METAR,136.0
EPBY 301000Z 32010KT 280V340 9999 FEW046 11/M01 Q1021,EPBY,2023-04-30T10:00:00Z,53.1,18.0,11.0,-1.0,320,10,,6.21,30.147638,,,,,,,,,,,FEW,4600,,,,,,,VFR,,,,,,,,,,,,METAR,66.0
EIWF 301000Z 22007KT 190V260 8000 BKN002 13/13 Q1018,EIWF,2023-04-30T10:00:00Z,52.18,-7.08,13.0,13.0,220,7,,4.97,30.059055,,,,,,,,,,,BKN,200,,,,,,,LIFR,,,,,,,,,,,,METAR,26.0
EISG 301000Z 25008KT 9999 FEW027 SCT032 SCT040 13/11 Q1015,EISG,2023-04-30T10:00:00Z,54.28,-8.6,13.0,11.0,250,8,,6.21,29.970472,,,,,,,,,,,FEW,2700,SCT,3200,SCT,4000,,,VFR,,,,,,,,,,,,METAR,1.0
EINN 301000Z 24014KT 9999 FEW020 15/10 Q1017 NOSIG,EINN,2023-04-30T10:00:00Z,52.7,-8.92,15.0,10.0,240,14,,6.21,30.029528,,,,,,TRUE,,,,,FEW,2000,,,,,,,VFR,,,,,,,,,,,,METAR,20.0
EIME 301000Z 23012KT 9999 FEW014 SCT024 BKN060 14/11 Q1017,EIME,2023-04-30T10:00:00Z,53.3,-6.45,14.0,11.0,230,12,,6.21,30.029528,,,,,,,,,,,FEW,1400,SCT,2400,BKN,6000,,,VFR,,,,,,,,,,,,METAR,90.0
EIKY 301000Z 26011KT 230V300 9999 SCT017 SCT024 BKN037 14/10 Q1018,EIKY,2023-04-30T10:00:00Z,52.18,-9.53,14.0,10.0,260,11,,6.21,30.059055,,,,,,,,,,,SCT,1700,SCT,2400,BKN,3700,,,VFR,,,,,,,,,,,,METAR,23.0
EIKN 301000Z 27008KT 240V320 9999 FEW013 FEW018CB SCT020 12/10 Q1015 NOSIG,EIKN,2023-04-30T10:00:00Z,53.92,-8.82,12.0,10.0,270,8,,6.21,29.970472,,,,,,TRUE,,,,,FEW,1300,FEW,1800,SCT,2000,,,VFR,,,,,,,,,,,,METAR,201.0
EIDW 301000Z 25009KT 200V280 9999 SCT013 BKN016 BKN018 14/11 Q1017 NOSIG,EIDW,2023-04-30T10:00:00Z,53.42,-6.28,14.0,11.0,250,9,,6.21,30.029528,,,,,,TRUE,,,,,SCT,1300,BKN,1600,BKN,1800,,,MVFR,,,,,,,,,,,,METAR,75.0
EIDL 301000Z 23013KT 9999 FEW009 SCT025 BKN031 13/11 Q1015,EIDL,2023-04-30T10:00:00Z,55.05,-8.33,13.0,11.0,230,13,,6.21,29.970472,,,,,,,,,,,FEW,900,SCT,2500,BKN,3100,,,VFR,,,,,,,,,,,,METAR,2.0
EICK 301000Z 23010KT 9999 BKN020 15/10 Q1018 NOSIG,EICK,2023-04-30T10:00:00Z,51.85,-8.47,15.0,10.0,230,10,,6.21,30.059055,,,,,,TRUE,,,,,BKN,2000,,,,,,,MVFR,,,,,,,,,,,,METAR,158.0
DTTZ 301000Z 06013KT 030V090 9999 SCT033 34/08 Q1009 NOSIG,DTTZ,2023-04-30T10:00:00Z,33.93,8.1,34.0,8.0,60,13,,6.21,29.793306,,,,,,TRUE,,,,,SCT,3300,,,,,,,VFR,,,,,,,,,,,,METAR,87.0
DTTX 301000Z 07009KT 040V100 9999 FEW020 SCT033 28/13 Q1010,DTTX,2023-04-30T10:00:00Z,34.72,10.68,28.0,13.0,70,9,,6.21,29.822834,,,,,,,,,,,FEW,2000,SCT,3300,,,,,VFR,,,,,,,,,,,,METAR,17.0
DTTR 301000Z 18014KT CAVOK 36/01 Q1012,DTTR,2023-04-30T10:00:00Z,31.7,9.27,36.0,1.0,180,14,,6.21,29.88189,,,,,,,,,,,CAVOK,,,,,,,,VFR,,,,,,,,,,,,METAR,253.0
DTTN 301000Z /////KT 9999 SCT020 SCT030 24/13 Q1012,DTTN,2023-04-30T10:00:00Z,36.47,8.8,24.0,13.0,,,,6.21,29.88189,,,,,,,,,,,SCT,2000,SCT,3000,,,,,VFR,,,,,,,,,,,,METAR,145.0
DTTL 301000Z VRB01KT 9999 SCT020 BKN040 25/16 Q1012,DTTL,2023-04-30T10:00:00Z,36.85,11.07,25.0,16.0,0,1,,6.21,29.88189,,,,,,,,,,,SCT,2000,BKN,4000,,,,,VFR,,,,,,,,,,,,METAR,18.0
DTTK 301000Z 36004KT 9999 BKN023 27/13 Q1012,DTTK,2023-04-30T10:00:00Z,35.67,10.08,27.0,13.0,360,4,,6.21,29.88189,,,,,,,,,,,BKN,2300,,,,,,,MVFR,,,,,,,,,,,,METAR,65.0
DTTJ 301000Z 05010KT 9999 FEW023 25/16 Q1010 NOSIG,DTTJ,2023-04-30T10:00:00Z,33.87,10.77,25.0,16.0,50,10,,6.21,29.822834,,,,,,TRUE,,,,,FEW,2300,,,,,,,VFR,,,,,,,,,,,,METAR,3.0
DTTG 301000Z VRB04KT 9999 FEW030 32/08 Q1011 NOSIG,DTTG,2023-04-30T10:00:00Z,33.73,9.92,32.0,8.0,0,4,,6.21,29.852362,,,,,,TRUE,,,,,FEW,3000,,,,,,,VFR,,,,,,,,,,,,METAR,120.0
DTTF 301000Z 07011KT 050V110 8000 SCT026 31/09 Q1012,DTTF,2023-04-30T10:00:00Z,34.42,8.82,31.0,9.0,70,11,,4.97,29.88189,,,,,,,,,,,SCT,2600,,,,,,,MVFR,,,,,,,,,,,,METAR,314.0
DTTD 301000Z VRB08KT 9999 FEW026 35/00 Q1011,DTTD,2023-04-30T10:00:00Z,32.32,10.4,35.0,0.0,0,8,,6.21,29.852362,,,,,,,,,,,FEW,2600,,,,,,,VFR,,,,,,,,,,,,METAR,306.0
DTTB 301000Z 25005KT 220V290 9999 SCT020 BKN030 21/17 Q1011,DTTB,2023-04-30T10:00:00Z,37.25,9.8,21.0,17.0,250,5,,6.21,29.852362,,,,,,,,,,,SCT,2000,BKN,3000,,,,,MVFR,,,,,,,,,,,,METAR,4.0
DTTA 301000Z 26009KT 220V290 9999 SCT030 25/16 Q1012,DTTA,2023-04-30T10:00:00Z,36.85,10.22,25.0,16.0,260,9,,6.21,29.88189,,,,,,,,,,,SCT,3000,,,,,,,VFR,,,,,,,,,,,,METAR,4.0
DTNH 301000Z 12004KT 060V170 CAVOK 25/15 Q1013,DTNH,2023-04-30T10:00:00Z,36.07,10.43,25.0,15.0,120,4,,6.21,29.911417,,,,,,,,,,,CAVOK,,,,,,,,VFR,,,,,,,,,,,,METAR,1.0
DTMB 301000Z 16002KT 8000 FEW002 SCT040 26/14 Q1012,DTMB,2023-04-30T10:00:00Z,35.77,10.75,26.0,14.0,160,2,,4.97,29.88189,,,,,,,,,,,FEW,200,SCT,4000,,,,,MVFR,,,,,,,,,,,,METAR,1.0
DTKA 301000Z 25006KT 190V290 9999 FEW020 23/14 Q1012 NOSIG,DTKA,2023-04-30T10:00:00Z,36.98,8.88,23.0,14.0,250,6,,6.21,29.88189,,,,,,TRUE,,,,,FEW,2000,,,,,,,VFR,,,,,,,,,,,,METAR,70.0
DIAP 301000Z VRB02KT 9999 FEW012 BKN025 28/28 Q1013 NOSIG,DIAP,2023-04-30T10:00:00Z,5.25,-3.92,28.0,28.0,0,2,,6.21,29.911417,,,,,,TRUE,,,,,FEW,1200,BKN,2500,,,,,MVFR,,,,,,,,,,,,METAR,4.0
DAUZ 301000Z 14004KT 110V220 CAVOK 33/M02 Q1015,DAUZ,2023-04-30T10:00:00Z,28.05,9.63,33.0,-2.0,140,4,,6.21,29.970472,,,,,,,,,,,CAVOK,,,,,,,,VFR,,,,,,,,,,,,METAR,567.0
DAUU 301000Z 36010KT 6000 NSC 34/05 Q1012,DAUU,2023-04-30T10:00:00Z,31.92,5.4,34.0,5.0,360,10,,3.73,29.88189,,,,,,,,,,,CLR,,,,,,,,MVFR,,,,,,,,,,,,METAR,147.0
DAUT 301000Z 02005KT CAVOK 35/// Q1013,DAUT,2023-04-30T10:00:00Z,29.25,0.27,,,20,5,,6.21,29.911417,,,,,,,,,,,CAVOK,,,,,,,,VFR,,,,,,,,,,,,METAR,307.0
DAUO 301000Z 35016KT 3000 SA NSC 34/07 Q1010,DAUO,2023-04-30T10:00:00Z,33.5,6.78,34.0,7.0,350,16,,1.86,29.822834,,,,,,,,,,SA,CLR,,,,,,,,IFR,,,,,,,,,,,,METAR,55.0
DAUL 301000Z 33012KT 9999 FEW033 SCT200 26/06 Q1017,DAUL,2023-04-30T10:00:00Z,33.77,2.92,26.0,6.0,330,12,,6.21,30.029528,,,,,,,,,,,FEW,3300,SCT,20000,,,,,VFR,,,,,,,,,,,,METAR,755.0
DAUK 301000Z 34012KT 6000 NSC 34/09 Q1011,DAUK,2023-04-30T10:00:00Z,33.08,6.08,34.0,9.0,340,12,,3.73,29.852362,,,,,,,,,,,CLR,,,,,,,,MVFR,,,,,,,,,,,,METAR,83.0
DAUI 301000Z 10016KT CAVOK 38/// Q1011,DAUI,2023-04-30T10:00:00Z,27.25,2.52,,,100,16,,6.21,29.852362,,,,,,,,,,,CAVOK,,,,,,,,VFR,,,,,,,,,,,,METAR,271.0
DAUH 301000Z 32013KT 4500 SA NSC 36/05 Q1011,DAUH,2023-04-30T10:00:00Z,31.67,6.15,36.0,5.0,320,13,,2.8,29.852362,,,,,,,,,,SA,CLR,,,,,,,,IFR,,,,,,,,,,,,METAR,141.0
DAUG 301000Z 33010KT CAVOK 32/02 Q1015,DAUG,2023-04-30T10:00:00Z,32.38,3.78,32.0,2.0,330,10,,6.21,29.970472,,,,,,,,,,,CAVOK,,,,,,,,VFR,,,,,,,,,,,,METAR,444.0
DAUE 301000Z 06004KT 1500 HZ NSC 33/04 Q1015,DAUE,2023-04-30T10:00:00Z,30.57,2.87,33.0,4.0,60,4,,0.93,29.970472,,,,,,,,,,HZ,CLR,,,,,,,,LIFR,,,,,,,,,,,,METAR,396.0
DAUB 301000Z 31024G35KT 3000 DRSA NSC 31/05 Q1010,DAUB,2023-04-30T10:00:00Z,34.78,5.73,31.0,5.0,310,24,35,1.86,29.822834,,,,,,,,,,DRSA,CLR,,,,,,,,IFR,,,,,,,,,,,,METAR,75.0
DAUA 301000Z 11018KT CAVOK 39/// Q1011,DAUA,2023-04-30T10:00:00Z,27.83,-0.18,,,110,18,,6.21,29.852362,,,,,,,,,,,CAVOK,,,,,,,,VFR,,,,,,,,,,,,METAR,278.0
DATM 301000Z VRB03KT CAVOK 40/// Q1011,DATM,2023-04-30T10:00:00Z,21.38,0.92,,,0,3,,6.21,29.852362,,,,,,,,,,,CAVOK,,,,,,,,VFR,,,,,,,,,,,,METAR,398.0
DAOY 301000Z 32011KT CAVOK 20/04 Q1020,DAOY,2023-04-30T10:00:00Z,33.72,1.08,20.0,4.0,320,11,,6.21,30.11811,,,,,,,,,,,CAVOK,,,,,,,,VFR,,,,,,,,,,,,METAR,1340.0
DAOV 301000Z 36003KT CAVOK 27/08 Q1017,DAOV,2023-04-30T10:00:00Z,35.2,0.15,27.0,8.0,360,3,,6.21,30.029528,,,,,,,,,,,CAVOK,,,,,,,,VFR,,,,,,,,,,,,METAR,506.0
DAOR 301000Z 12010KT 4000 DU NSC 30/03 Q1017,DAOR,2023-04-30T10:00:00Z,31.65,-2.27,30.0,3.0,120,10,,2.49,30.029528,,,,,,,,,,DU,CLR,,,,,,,,IFR,,,,,,,,,,,,METAR,809.0
DAOO 301000Z 21006KT 9999 FEW033 BKN233 29/11 Q1016,DAOO,2023-04-30T10:00:00Z,35.62,-0.62,29.0,11.0,210,6,,6.21,30.0,,,,,,,,,,,FEW,3300,BKN,23300,,,,,VFR,,,,,,,,,,,,METAR,87.0
DAON 301000Z 01003KT CAVOK 28/10 Q1016,DAON,2023-04-30T10:00:00Z,35.02,-1.47,28.0,10.0,10,3,,6.21,30.0,,,,,,,,,,,CAVOK,,,,,,,,VFR,,,,,,,,,,,,METAR,245.0
DAOL 301000Z 29010KT 9999 FEW026 SCT200 28/13 Q1016,DAOL,2023-04-30T10:00:00Z,35.53,-0.52,28.0,13.0,290,10,,6.21,30.0,,,,,,,,,,,FEW,2600,SCT,20000,,,,,VFR,,,,,,,,,,,,METAR,103.0
DAOI 301000Z 24004KT CAVOK 26/13 Q1017,DAOI,2023-04-30T10:00:00Z,36.22,1.32,26.0,13.0,240,4,,6.21,30.029528,,,,,,,,,,,CAVOK,,,,,,,,VFR,,,,,,,,,,,,METAR,141.0
DAOF 301000Z 13003KT CAVOK 35/04 Q1014,DAOF,2023-04-30T10:00:00Z,27.7,-8.17,35.0,4.0,130,3,,6.21,29.940945,,,,,,,,,,,CAVOK,,,,,,,,VFR,,,,,,,,,,,,METAR,441.0
DAOB 301000Z 34006KT CAVOK 22/06 Q1020,DAOB,2023-04-30T10:00:00Z,35.33,1.47,22.0,6.0,340,6,,6.21,30.11811,,,,,,,,,,,CAVOK,,,,,,,,VFR,,,,,,,,,,,,METAR,976.0
DAFH 301000Z 31014KT 8000 SCT040 29/01 Q1017,DAFH,2023-04-30T10:00:00Z,32.93,3.32,29.0,1.0,310,14,,4.97,30.029528,,,,,,,,,,,SCT,4000,,,,,,,MVFR,,,,,,,,,,,,METAR,774.0
DABT 301000Z 30005KT 260V010 9999 FEW026 27/07 Q1016,DABT,2023-04-30T10:00:00Z,35.75,6.32,27.0,7.0,300,5,,6.21,30.0,,,,,,,,,,,FEW,2600,,,,,,,VFR,,,,,,,,,,,,METAR,813.0
DABS 301000Z 29005KT 9999 SCT040 26/06 Q1015,DABS,2023-04-30T10:00:00Z,35.43,8.12,26.0,6.0,290,5,,6.21,29.970472,,,,,,,,,,,SCT,4000,,,,,,,VFR,,,,,,,,,,,,METAR,806.0
DABC 301000Z 36013KT 9999 FEW030 23/11 Q1016,DABC,2023-04-30T10:00:00Z,36.27,6.62,23.0,11.0,360,13,,6.21,30.0,,,,,,,,,,,FEW,3000,,,,,,,VFR,,,,,,,,,,,,METAR,686.0
DABB 301000Z 22011KT 9999 FEW026 26/17 Q1012,DABB,2023-04-30T10:00:00Z,36.82,7.82,26.0,17.0,220,11,,6.21,29.88189,,,,,,,,,,,FEW,2600,,,,,,,VFR,,,,,,,,,,,,METAR,3.0
DAAY 301000Z 03008KT 9999 SCT030 22/04 Q1023,DAAY,2023-04-30T10:00:00Z,33.53,-0.25,22.0,4.0,30,8,,6.21,30.206694,,,,,,,,,,,SCT,3000,,,,,,,VFR,,,,,,,,,,,,METAR,1116.0
DAAV 301000Z 29008KT 9999 FEW023TCU BKN033 21/15 Q1016,DAAV,2023-04-30T10:00:00Z,36.8,5.88,21.0,15.0,290,8,,6.21,30.0,,,,,,,,,,,FEW,2300,BKN,3300,,,,,VFR,,,,,,,,,,,,METAR,11.0
DAAT 301000Z 25005KT 210V270 9999 FEW046 SCT233 33/// Q1020,DAAT,2023-04-30T10:00:00Z,22.82,5.47,,,250,5,,6.21,30.11811,,,,,,,,,,,FEW,4600,SCT,23300,,,,,VFR,,,,,,,,,,,,SPECI,1376.0
DAAS 301000Z 30010KT 9999 SCT026 22/05 Q1017,DAAS,2023-04-30T10:00:00Z,36.18,5.33,22.0,5.0,300,10,,6.21,30.029528,,,,,,,,,,,SCT,2600,,,,,,,VFR,,,,,,,,,,,,METAR,1012.0
DAAP 301000Z 10004KT CAVOK 36/M02 Q1014,DAAP,2023-04-30T10:00:00Z,26.72,8.62,36.0,-2.0,100,4,,6.21,29.940945,,,,,,,,,,,CAVOK,,,,,,,,VFR,,,,,,,,,,,,METAR,542.0
DAAJ 301000Z 14011KT CAVOK 33/// Q1017,DAAJ,2023-04-30T10:00:00Z,24.28,9.47,,,140,11,,6.21,30.029528,,,,,,,,,,,CAVOK,,,,,,,,VFR,,,,,,,,,,,,METAR,962.0
DAAG 301000Z 32005KT 250V010 9999 FEW023 23/17 Q1017,DAAG,2023-04-30T10:00:00Z,36.68,3.22,23.0,17.0,320,5,,6.21,30.029528,,,,,,,,,,,FEW,2300,,,,,,,VFR,,,,,,,,,,,,METAR,18.0
DAAE 301000Z 35007KT 8000 FEW013 SCT033 23/17 Q1015,DAAE,2023-04-30T10:00:00Z,36.72,5.07,23.0,17.0,350,7,,4.97,29.970472,,,,,,,,,,,FEW,1300,SCT,3300,,,,,MVFR,,,,,,,,,,,,METAR,1.0
DAAD 301000Z 32018KT 9000 FEW030 28/07 Q1016,DAAD,2023-04-30T10:00:00Z,35.32,4.2,28.0,7.0,320,18,,5.59,30.0,,,,,,,,,,,FEW,3000,,,,,,,VFR,,,,,,,,,,,,METAR,461.0
BKPR 301000Z 02012KT 9999 FEW035TCU BKN050 16/09 Q1016 NOSIG,BKPR,2023-04-30T10:00:00Z,42.58,21.03,16.0,9.0,20,12,,6.21,30.0,,,,,,TRUE,,,,,FEW,3500,BKN,5000,,,,,VFR,,,,,,,,,,,,METAR,545.0
BIVM 301000Z 10018KT 9999 BKN060 04/M02 Q1022,BIVM,2023-04-30T10:00:00Z,63.42,-20.28,4.0,-2.0,100,18,,6.21,30.177166,,,,,,,,,,,BKN,6000,,,,,,,VFR,,,,,,,,,,,,METAR,93.0
BIRK 301000Z 09010KT CAVOK 05/M05 Q1023,BIRK,2023-04-30T10:00:00Z,64.13,-21.93,5.0,-5.0,90,10,,6.21,30.206694,,,,,,,,,,,CAVOK,,,,,,,,VFR,,,,,,,,,,,,METAR,12.0
BIKF 301000Z 05008KT 020V090 9999 SCT043 BKN180 04/M03 Q1022,BIKF,2023-04-30T10:00:00Z,63.98,-22.6,4.0,-3.0,50,8,,6.21,30.177166,,,,,,,,,,,SCT,4300,BKN,18000,,,,,VFR,,,,,,,,,,,,METAR,49.0
BIIS 301000Z 08005KT CAVOK 01/M08 Q1027,BIIS,2023-04-30T10:00:00Z,66.05,-23.13,1.0,-8.0,80,5,,6.21,30.324802,,,,,,,,,,,CAVOK,,,,,,,,VFR,,,,,,,,,,,,METAR,3.0
BIEG 301000Z 30013KT 9999 FEW050 01/M10 Q1023,BIEG,2023-04-30T10:00:00Z,65.27,-14.4,1.0,-10.0,300,13,,6.21,30.206694,,,,,,,,,,,FEW,5000,,,,,,,VFR,,,,,,,,,,,,METAR,20.0
BIBD 301000Z 05005KT 010V090 CAVOK 03/M12 Q1026,BIBD,2023-04-30T10:00:00Z,65.63,-23.55,3.0,-12.0,50,5,,6.21,30.295275,,,,,,,,,,,CAVOK,,,,,,,,VFR,,,,,,,,,,,,METAR,10.0
BIAR 301000Z 15004KT 120V200 CAVOK M01/M11 Q1026,BIAR,2023-04-30T10:00:00Z,65.67,-18.07,-1.0,-11.0,150,4,,6.21,30.295275,,,,,,,,,,,CAVOK,,,,,,,,VFR,,,,,,,,,,,,METAR,1.0
AYPY 301000Z 13006KT 9999 SCT070 27/25 Q1007,AYPY,2023-04-30T10:00:00Z,-9.43,147.22,27.0,25.0,130,6,,6.21,29.734253,,,,,,,,,,,SCT,7000,,,,,,,VFR,,,,,,,,,,,,METAR,44.0
AGGH 301000Z 18003KT 9999 FEW015 FEW016CB SCT300 26/26 Q1010,AGGH,2023-04-30T10:00:00Z,-9.42,160.05,26.0,26.0,180,3,,6.21,29.822834,,,,,,,,,,,FEW,1500,FEW,1600,SCT,30000,,,VFR,,,,,,,,,,,,METAR,6.0
RODE 300959Z AUTO A2993 RMK AO2 SLPNO PWINO TSNO $,RODE,2023-04-30T09:59:00Z,26.72,127.77,,,,,,,29.929134,,,TRUE,TRUE,TRUE,,TRUE,,TRUE,,,,,,,,,,,,,,,,,,,,,,SPECI,69.0
MUCF 300959Z AUTO 20009KT 150V220 28/23 Q1011,MUCF,2023-04-30T09:59:00Z,22.15,-80.4,28.0,23.0,200,9,,,29.852362,,,TRUE,,,,,,,,,,,,,,,,,,,,,,,,,,,,METAR,35.0
MTPP 300959Z AUTO 14007KT 9000 ////// 25/22 Q1013 A2992 NOSIG,MTPP,2023-04-30T09:59:00Z,18.57,-72.3,25.0,22.0,140,7,,5.59,29.911417,,,TRUE,,,TRUE,,,,,,,,,,,,,,,,,,,,,,,,,SPECI,36.0
KTDZ 300959Z AUTO 26015G20KT 3SM RA BR FEW007 BKN021 OVC043 09/07 A2947 RMK AO2 P0002 T00890067,KTDZ,2023-04-30T09:59:00Z,41.57,-83.48,8.9,6.7,260,15,20,3.0,29.471457,,,TRUE,TRUE,,,,,,RA BR,FEW,700,BKN,2100,OVC,4300,,,MVFR,,,,,,0.02,,,,,,METAR,189.0
KP92 300959Z AUTO 31007KT 270V340 17/12 A2985 RMK AO1 SLP106 T01670122,KP92,2023-04-30T09:59:00Z,29.57,-91.53,16.7,12.2,310,7,,,29.84941,1010.6,,TRUE,TRUE,,,,,,,,,,,,,,,,,,,,,,,,,,,SPECI,1.0
KORF 300959Z 18007KT 8SM SCT010 BKN021 OVC034 19/18 A2954 RMK AO2 LTG DSNT NE T01890183,KORF,2023-04-30T09:59:00Z,36.9,-76.2,18.9,18.3,180,7,,8.0,29.53937,,,,TRUE,,,,,,,SCT,1000,BKN,2100,OVC,3400,,,MVFR,,,,,,,,,,,,METAR,5.0
KNGU 300959Z 16006KT 7SM -RA BKN007 OVC013 19/19 A2955 RMK AO2 RAB54 SLP007 T2 SET P0000 T01940194 $,KNGU,2023-04-30T09:59:00Z,36.93,-76.27,19.4,19.4,160,6,,7.0,29.551182,1000.7,,,TRUE,TRUE,,,,,-RA,BKN,700,OVC,1300,,,,,IFR,,,,,,0.005,,,,,,METAR,3.0
KMRT 300959Z AUTO 00000KT 3/4SM OVC001 08/07 A2945 RMK AO1,KMRT,2023-04-30T09:59:00Z,40.22,-83.35,8.0,7.0,0,0,,0.75,29.450787,,,TRUE,TRUE,,,,,,,OVC,100,,,,,,,LIFR,,,,,,,,,,,,SPECI,302.0
K2V6 300959Z AUTO 35008KT 10SM CLR 04/M08 A3006 RMK AO2,K2V6,2023-04-30T09:59:00Z,40.1,-102.72,4.0,-8.0,350,8,,10.0,30.059055,,,TRUE,TRUE,,,,,,,CLR,,,,,,,,VFR,,,,,,,,,,,,SPECI,1257.0
K04W 300959Z AUTO 33012G16KT 5SM -RA OVC013 02/01 A2962 RMK AO2,K04W,2023-04-30T09:59:00Z,46.02,-92.9,2.0,1.0,330,12,16,5.0,29.619095,,,TRUE,TRUE,,,,,,-RA,OVC,1300,,,,,,,MVFR,,,,,,,,,,,,SPECI,310.0
PAYA 300958Z AUTO 14003KT 5SM -RA BR BKN002 OVC008 07/07 A2980 RMK AO2 P0001 T00670067 TSNO $,PAYA,2023-04-30T09:58:00Z,59.52,-139.67,6.7,6.7,140,3,,5.0,29.799213,,,TRUE,TRUE,TRUE,,TRUE,,,-RA BR,BKN,200,OVC,800,,,,,LIFR,,,,,,0.01,,,,,,METAR,9.0
PAQT 300958Z AUTO 06010KT 3SM UP BR BKN004 OVC009 M15/M17 A3011 RMK AO2 UPB55SNE55 T11501167 TSNO PNO $,PAQT,2023-04-30T09:58:00Z,70.22,-151.0,-15.0,-16.7,60,10,,3.0,30.109253,,,TRUE,TRUE,TRUE,,TRUE,,,BR UP,BKN,400,OVC,900,,,,,LIFR,,,,,,,,,,,,METAR,11.0
KSAW 300958Z AUTO 35005KT 4SM -SN SCT003 SCT012 OVC022 03/02 A2930 RMK AO2 T00280020 P0015,KSAW,2023-04-30T09:58:00Z,46.35,-87.4,2.8,2.0,350,5,,4.0,29.300198,,,TRUE,TRUE,,,,,,-SN,SCT,300,SCT,1200,OVC,2200,,,MVFR,,,,,,0.15,,,,,,SPECI,359.0
KROG 300958Z 24003KT 10SM CLR 06/04 A2981 RMK AO2 SLP091 T00610039,KROG,2023-04-30T09:58:00Z,36.37,-94.1,6.1,3.9,240,3,,10.0,29.811024,1009.1,,,TRUE,,,,,,,CLR,,,,,,,,VFR,,,,,,,,,,,,METAR,407.0
KPRN 300958Z AUTO 27009G16KT 10SM -RA BKN005 BKN014 OVC021 13/13 A2960 RMK AO2 RAB04 CIG 003V009 SLP970 P0001 T01280128,KPRN,2023-04-30T09:58:00Z,31.85,-86.62,12.8,12.8,270,9,16,10.0,29.601377,997.0,,TRUE,TRUE,,,,,,-RA,BKN,500,BKN,1400,OVC,2100,,,IFR,,,,,,0.01,,,,,,SPECI,137.0
KMYR 300958Z 27010KT 10SM FEW006 BKN019 OVC025 21/21 A2949 RMK AO2,KMYR,2023-04-30T09:58:00Z,33.68,-78.92,21.0,21.0,270,10,,10.0,29.489174,,,,TRUE,,,,,,,FEW,600,BKN,1900,OVC,2500,,,MVFR,,,,,,,,,,,,METAR,7.0
KMRH 300958Z AUTO 15005KT 10SM FEW021 BKN041 OVC048 20/19 A2956 RMK AO2 LTG DSNT SE-SW SLP009 T02000194,KMRH,2023-04-30T09:58:00Z,34.73,-76.65,20.0,19.4,150,5,,10.0,29.56004,1000.9,,TRUE,TRUE,,,,,,,FEW,2100,BKN,4100,OVC,4800,,,VFR,,,,,,,,,,,,SPECI,2.0
KMEI 300958Z AUTO 30007KT 10SM SCT013 15/13 A2970 RMK AO2 SLP053 T01500133 $,KMEI,2023-04-30T09:58:00Z,32.33,-88.75,15.0,13.3,300,7,,10.0,29.698818,1005.3,,TRUE,TRUE,TRUE,,,,,,SCT,1300,,,,,,,VFR,,,,,,,,,,,,METAR,90.0
KEUF 300958Z AUTO 26007KT 10SM BKN011 OVC019 15/15 A2954 RMK AO2 SLP000 T01500150,KEUF,2023-04-30T09:58:00Z,31.95,-85.13,15.0,15.0,260,7,,10.0,29.53937,1000.0,,TRUE,TRUE,,,,,,,BKN,1100,OVC,1900,,,,,MVFR,,,,,,,,,,,,SPECI,87.0
KCUL 300958Z AUTO 27005KT 10SM CLR 07/05 A2963 RMK AO2,KCUL,2023-04-30T09:58:00Z,38.08,-88.12,7.0,5.0,270,5,,10.0,29.630905,,,TRUE,TRUE,,,,,,,CLR,,,,,,,,VFR,,,,,,,,,,,,SPECI,116.0
KBKV 300958Z AUTO 26018G31KT 9SM -RA SCT015 BKN024 OVC042 22/20 A2964 RMK AO2 PK WND 25029/0954 WSHFT 0940 LTG DSNT NE AND E P0000 T02170200,KBKV,2023-04-30T09:58:00Z,28.47,-82.45,21.7,20.0,260,18,31,9.0,29.639763,,,TRUE,TRUE,,,,,,-RA,SCT,1500,BKN,2400,OVC,4200,,,MVFR,,,,,,0.005,,,,,,METAR,21.0
KBKF 300958Z 26003KT 10SM FEW220 05/M01 A3009 RMK AO2A SLP144 T00531012,KBKF,2023-04-30T09:58:00Z,39.72,-104.75,5.3,-1.2,260,3,,10.0,30.088583,1014.4,,,TRUE,,,,,,,FEW,22000,,,,,,,VFR,,,,,,,,,,,,SPECI,1703.0
KACV 300958Z AUTO 00000KT 10SM SCT005 OVC018 09/08 A3003 RMK AO2 T00940083,KACV,2023-04-30T09:58:00Z,40.98,-124.1,9.4,8.3,0,0,,10.0,30.029528,,,TRUE,TRUE,,,,,,,SCT,500,OVC,1800,,,,,MVFR,,,,,,,,,,,,METAR,63.0
K0J4 300958Z AUTO VRB04KT 10SM FEW009 BKN016 OVC080 16/13 A2965 RMK AO2 SLP038 T01560128,K0J4,2023-04-30T09:58:00Z,31.05,-86.32,15.6,12.8,0,4,,10.0,29.648623,1003.8,,TRUE,TRUE,,,,,,,FEW,900,BKN,1600,OVC,8000,,,MVFR,,,,,,,,,,,,METAR,96.0
PHNG 300957Z AUTO 08008KT OVC065 26/19 A3010 RMK AO2 SLP187 T02610194 402830239 $,PHNG,2023-04-30T09:57:00Z,21.43,-157.77,26.1,19.4,80,8,,,30.100393,1018.7,,TRUE,TRUE,TRUE,,,,,,OVC,6500,,,,,,,,,,,28.3,23.9,,,,,,,SPECI,1.0
KNYL 300957Z AUTO 16004KT 10SM CLR 22/04 A2976 RMK AO2 SLP075 T02220044,KNYL,2023-04-30T09:57:00Z,32.65,-114.62,22.2,4.4,160,4,,10.0,29.760826,1007.5,,TRUE,TRUE,,,,,,,CLR,,,,,,,,VFR,,,,,,,,,,,,METAR,58.0
KNJM 300957Z AUTO 17009KT 8SM -RA BKN036 OVC044 23/19 A2955 RMK AO2 RAB56 SLP009 P0000 T02280189,KNJM,2023-04-30T09:57:00Z,34.68,-77.02,22.8,18.9,170,9,,8.0,29.551182,1000.9,,TRUE,TRUE,,,,,,-RA,BKN,3600,OVC,4400,,,,,VFR,,,,,,0.005,,,,,,SPECI,5.0
KMNM 300957Z AUTO 28004KT 2SM UP BR OVC005 02/02 A2931 RMK AO2 SLP944 T00220022 FZRANO PNO $,KMNM,2023-04-30T09:57:00Z,45.12,-87.63,2.2,2.2,280,4,,2.0,29.309055,994.4,,TRUE,TRUE,TRUE,,,TRUE,,BR UP,OVC,500,,,,,,,IFR,,,,,,,,,,,,METAR,188.0
KFLG 300957Z AUTO 00000KT 10SM CLR 02/M07 A3020 RMK AO2 SLP147 T00171072,KFLG,2023-04-30T09:57:00Z,35.13,-111.67,1.7,-7.2,0,0,,10.0,30.200787,1014.7,,TRUE,TRUE,,,,,,,CLR,,,,,,,,VFR,,,,,,,,,,,,SPECI,2134.0
KBBB 300957Z AUTO 35016G20KT 10SM CLR 02/00 A2981 RMK AO2,KBBB,2023-04-30T09:57:00Z,45.32,-95.65,2.0,0.0,350,16,20,10.0,29.811024,,,TRUE,TRUE,,,,,,,CLR,,,,,,,,VFR,,,,,,,,,,,,SPECI,315.0
KAUO 300957Z AUTO 26006KT 10SM BKN007 BKN010 OVC025 14/14 A2953 RMK AO2 CIG 004V009 PNO $,KAUO,2023-04-30T09:57:00Z,32.62,-85.43,14.0,14.0,260,6,,10.0,29.530512,,,TRUE,TRUE,TRUE,,,,,,BKN,700,BKN,1000,OVC,2500,,,IFR,,,,,,,,,,,,METAR,231.0
KAUM 300957Z AUTO 32017G23KT 10SM SCT050 BKN075 04/00 A2959 RMK AO2,KAUM,2023-04-30T09:57:00Z,43.67,-92.92,4.0,0.0,320,17,23,10.0,29.589567,,,TRUE,TRUE,,,,,,,SCT,5000,BKN,7500,,,,,VFR,,,,,,,,,,,,METAR,376.0
KAQV 300957Z AUTO 00000KT 10SM CLR 09/08 A2982 RMK AO2 SLP099 T00940083,KAQV,2023-04-30T09:57:00Z,31.4,-93.3,9.4,8.3,0,0,,10.0,29.819881,1009.9,,TRUE,TRUE,,,,,,,CLR,,,,,,,,VFR,,,,,,,,,,,,SPECI,123.0
TJSJ 300956Z 11003KT 10SM SCT027 SCT075 BKN090 25/23 A2999 RMK AO2 RAB27E50 SLP154 VCSH N-E SE S P0000 T02500228,TJSJ,2023-04-30T09:56:00Z,18.43,-66.02,25.0,22.8,110,3,,10.0,29.991142,1015.4,,,TRUE,,,,,,,SCT,2700,SCT,7500,BKN,9000,,,VFR,,,,,,0.005,,,,,,SPECI,3.0
RJOI 300956Z 17008KT 10SM FEW100 SCT270 17/11 A2984 RMK AO2 SLP105 T01720111,RJOI,2023-04-30T09:56:00Z,34.13,132.23,17.2,11.1,170,8,,10.0,29.840551,1010.5,,,TRUE,,,,,,,FEW,10000,SCT,27000,,,,,VFR,,,,,,,,,,,,SPECI,2.0
PPIZ 300956Z AUTO 03012KT 10SM CLR M16/M18 A2999 RMK AO2 SLP160 T11561178 FZRANO,PPIZ,2023-04-30T09:56:00Z,69.73,-163.0,-15.6,-17.8,30,12,,10.0,29.991142,1016.0,,TRUE,TRUE,,,,TRUE,,,CLR,,,,,,,,VFR,,,,,,,,,,,,METAR,5.0
PMDY 300956Z AUTO 10SM CLR 21/17 A3014 RMK AO2 SLP206 T02060172 TSNO $,PMDY,2023-04-30T09:56:00Z,28.22,-177.37,20.6,17.2,,,,10.0,30.138779,1020.6,,TRUE,TRUE,TRUE,,TRUE,,,,CLR,,,,,,,,VFR,,,,,,,,,,,,SPECI,6.0
PHNY 300956Z AUTO 05010KT 10SM FEW020 19/18 A3014 RMK AO2 SLP187 T01940178 402500183,PHNY,2023-04-30T09:56:00Z,20.77,-156.95,19.4,17.8,50,10,,10.0,30.138779,1018.7,,TRUE,TRUE,,,,,,,FEW,2000,,,,,,,VFR,,,,25.0,18.3,,,,,,,METAR,395.0
PFYU 300956Z AUTO 05009KT 10SM FEW100 02/M04 A2985 RMK AO2 SLP120 T00221044 FZRANO,PFYU,2023-04-30T09:56:00Z,66.57,-145.23,2.2,-4.4,50,9,,10.0,29.84941,1012.0,,TRUE,TRUE,,,,TRUE,,,FEW,10000,,,,,,,VFR,,,,,,,,,,,,METAR,130.0
PFWS 300956Z AUTO 11010KT 10SM BKN055 01/M02 A2973 RMK AO2 SLP112 T00061017 FZRANO,PFWS,2023-04-30T09:56:00Z,58.7,-157.0,0.6,-1.7,110,10,,10.0,29.731298,1011.2,,TRUE,TRUE,,,,TRUE,,,BKN,5500,,,,,,,VFR,,,,,,,,,,,,METAR,40.0
PFSH 300956Z AUTO 06006KT 10SM CLR 00/M03 A2984 RMK AO2 SLP105 T00001033 FZRANO,PFSH,2023-04-30T09:56:00Z,64.37,-161.22,0.0,-3.3,60,6,,10.0,29.840551,1010.5,,TRUE,TRUE,,,,TRUE,,,CLR,,,,,,,,VFR,,,,,,,,,,,,METAR,6.0
PFNO 300956Z AUTO 06011KT 10SM OVC070 01/M02 A2990 RMK AO2 SLP209 T00111017 FZRANO $,PFNO,2023-04-30T09:56:00Z,66.82,-161.02,1.1,-1.7,60,11,,10.0,29.899607,1020.9,,TRUE,TRUE,TRUE,,,TRUE,,,OVC,7000,,,,,,,VFR,,,,,,,,,,,,METAR,14.0
PFKW 300956Z AUTO 07008KT 10SM CLR M01/M03 A2970 RMK AO2 SLP055 T10061028 FZRANO,PFKW,2023-04-30T09:56:00Z,60.8,-161.43,-0.6,-2.8,70,8,,10.0,29.698818,1005.5,,TRUE,TRUE,,,,TRUE,,,CLR,,,,,,,,VFR,,,,,,,,,,,,METAR,4.0
PFKT 300956Z AUTO 35004KT 4SM UP BR OVC036 00/M01 A2986 RMK AO2 UPE28B55SNB28E55 SLPNO P0000 T00001011 FZRANO,PFKT,2023-04-30T09:56:00Z,65.33,-166.47,0.0,-1.1,350,4,,4.0,29.861221,,,TRUE,TRUE,,,,TRUE,,BR UP,OVC,3600,,,,,,,MVFR,,,,,,0.005,,,,,,METAR,8.0
PFEL 300956Z AUTO 33006KT 10SM CLR 02/M03 A2984 RMK AO2 SLP105 T00221028 FZRANO,PFEL,2023-04-30T09:56:00Z,64.62,-162.27,2.2,-2.8,330,6,,10.0,29.840551,1010.5,,TRUE,TRUE,,,,TRUE,,,CLR,,,,,,,,VFR,,,,,,,,,,,,METAR,50.0
PFCL 300956Z AUTO 11014KT 10SM OVC050 01/M01 A2969 RMK AO2 SLP048 T00111006 FZRANO TSNO,PFCL,2023-04-30T09:56:00Z,58.83,-158.53,1.1,-0.6,110,14,,10.0,29.68996,1004.8,,TRUE,TRUE,,,TRUE,TRUE,,,OVC,5000,,,,,,,VFR,,,,,,,,,,,,METAR,23.0
PAZK 300956Z AUTO 22005KT 10SM OVC022 M04/M05 A2965 RMK AO2 SLP089 T10441050 FZRANO,PAZK,2023-04-30T09:56:00Z,61.93,-147.17,-4.4,-5.0,220,5,,10.0,29.648623,1008.9,,TRUE,TRUE,,,,TRUE,,,OVC,2200,,,,,,,MVFR,,,,,,,,,,,,METAR,1002.0
PAWS 300956Z AUTO 04004KT 10SM FEW070 OVC090 03/M02 A2977 RMK AO2 SLP088 T00331022,PAWS,2023-04-30T09:56:00Z,61.57,-149.53,3.3,-2.2,40,4,,10.0,29.769686,1008.8,,TRUE,TRUE,,,,,,,FEW,7000,OVC,9000,,,,,VFR,,,,,,,,,,,,METAR,102.0
PAWN 300956Z AUTO 01007KT 10SM CLR M01/M03 RMK AO2 SLPNO T10111033 FZRANO $,PAWN,2023-04-30T09:56:00Z,67.57,-162.98,-1.1,-3.3,10,7,,10.0,,,,TRUE,TRUE,TRUE,,,TRUE,,,CLR,,,,,,,,VFR,,,,,,,,,,,,METAR,26.0
PAWM 300956Z AUTO 04006KT 10SM BKN060 02/M02 A2983 RMK AO2 SLP106 T00171022 FZRANO,PAWM,2023-04-30T09:56:00Z,64.68,-163.42,1.7,-2.2,40,6,,10.0,29.828741,1010.6,,TRUE,TRUE,,,,TRUE,,,BKN,6000,,,,,,,VFR,,,,,,,,,,,,METAR,80.0
PAVD 300956Z AUTO 00000KT -RA BKN006 OVC014 02/02 A2986 RMK AO2 CIG 003V008 SLP107 P0000 T00220022 FZRANO TSNO $,PAVD,2023-04-30T09:56:00Z,61.13,-146.25,2.2,2.2,0,0,,,29.861221,1010.7,,TRUE,TRUE,TRUE,,TRUE,TRUE,,-RA,BKN,600,OVC,1400,,,,,,,,,,,0.005,,,,,,METAR,21.0
PAVC 300956Z AUTO 13015KT 2SM -RA BR OVC005 04/04 A2933 RMK AO2 PK WND 12026/0906 SLP934 P0000 T00390039,PAVC,2023-04-30T09:56:00Z,55.12,-162.27,3.9,3.9,130,15,,2.0,29.329725,993.4,,TRUE,TRUE,,,,,,-RA BR,OVC,500,,,,,,,IFR,,,,,,0.005,,,,,,METAR,48.0
PAUN 300956Z AUTO 05009KT 10SM CLR 02/M03 A2983 RMK AO2 SLP104 T00171033 FZRANO,PAUN,2023-04-30T09:56:00Z,63.88,-160.8,1.7,-3.3,50,9,,10.0,29.828741,1010.4,,TRUE,TRUE,,,,TRUE,,,CLR,,,,,,,,VFR,,,,,,,,,,,,METAR,4.0
PATQ 300956Z AUTO 07012KT 9SM -SN CLR M18/M19 A3005 RMK AO2 SNB18E30B50 SLP181 P0000 T11781194 FZRANO TSNO,PATQ,2023-04-30T09:56:00Z,70.47,-157.43,-17.8,-19.4,70,12,,9.0,30.050198,1018.1,,TRUE,TRUE,,,TRUE,TRUE,,-SN,CLR,,,,,,,,VFR,,,,,,0.005,,,,,,METAR,28.0
PATG 300956Z AUTO 07016KT 10SM OVC021 02/00 A2966 RMK AO2 SLP044 T00220000 FZRANO,PATG,2023-04-30T09:56:00Z,59.05,-160.38,2.2,0.0,70,16,,10.0,29.660433,1004.4,,TRUE,TRUE,,,,TRUE,,,OVC,2100,,,,,,,MVFR,,,,,,,,,,,,METAR,1.0
PATE 300956Z AUTO 01003KT 1/4SM UP FZFG BKN041 OVC055 M01/M01 A2983 RMK AO2 UPB38SNE38 SLP109 P0001 T10061011 FZRANO,PATE,2023-04-30T09:56:00Z,65.23,-166.33,-0.6,-1.1,10,3,,0.25,29.828741,1010.9,,TRUE,TRUE,,,,TRUE,,FZFG UP,BKN,4100,OVC,5500,,,,,LIFR,,,,,,0.01,,,,,,METAR,93.0
PASX 300956Z AUTO 19007KT 10SM CLR 03/M02 A2981 RMK AO2 SLP101 T00281022,PASX,2023-04-30T09:56:00Z,60.48,-151.05,2.8,-2.2,190,7,,10.0,29.811024,1010.1,,TRUE,TRUE,,,,,,,CLR,,,,,,,,VFR,,,,,,,,,,,,METAR,28.0
PASM 300956Z AUTO 08009KT 10SM BKN048 02/M02 A2974 RMK AO2 SLP080 T00171022 FZRANO,PASM,2023-04-30T09:56:00Z,62.07,-163.3,1.7,-2.2,80,9,,10.0,29.740158,1008.0,,TRUE,TRUE,,,,TRUE,,,BKN,4800,,,,,,,VFR,,,,,,,,,,,,METAR,108.0
PASL 300956Z AUTO 00000KT 10SM CLR M04/M06 A2981 RMK AO2 SLP088 T10441056 FZRANO,PASL,2023-04-30T09:56:00Z,61.68,-157.15,-4.4,-5.6,0,0,,10.0,29.811024,1008.8,,TRUE,TRUE,,,,TRUE,,,CLR,,,,,,,,VFR,,,,,,,,,,,,METAR,64.0
PASK 300956Z AUTO 05006KT 10SM CLR M02/M04 A2990 RMK AO2 SLP123 T10221039 FZRANO,PASK,2023-04-30T09:56:00Z,66.6,-160.0,-2.2,-3.9,50,6,,10.0,29.899607,1012.3,,TRUE,TRUE,,,,TRUE,,,CLR,,,,,,,,VFR,,,,,,,,,,,,METAR,3.0
PASD 300956Z AUTO VRB04KT 4SM -RA BR OVC013 04/02 A2943 RMK AO2 SLP967 T00390022 PNO $,PASD,2023-04-30T09:56:00Z,55.33,-160.52,3.9,2.2,0,4,,4.0,29.430119,996.7,,TRUE,TRUE,TRUE,,,,,-RA BR,OVC,1300,,,,,,,MVFR,,,,,,,,,,,,METAR,6.0
PARY 300956Z AUTO 00000KT 10SM CLR 04/M06 A2979 RMK AO2 SLP100 T00391061,PARY,2023-04-30T09:56:00Z,64.73,-155.47,3.9,-6.1,0,0,,10.0,29.790354,1010.0,,TRUE,TRUE,,,,,,,CLR,,,,,,,,VFR,,,,,,,,,,,,METAR,185.0
PARC 300956Z AUTO 36007KT 10SM BKN070 M08/M13 A2991 RMK AO2 SLP183 T10831128 FZRANO,PARC,2023-04-30T09:56:00Z,68.12,-145.58,-8.3,-12.8,360,7,,10.0,29.911417,1018.3,,TRUE,TRUE,,,,TRUE,,,BKN,7000,,,,,,,VFR,,,,,,,,,,,,METAR,626.0
PAPO 300956Z AUTO 06006KT 10SM FEW060 M05/M06 A2994 RMK AO2 SLP139 T10501061 FZRANO,PAPO,2023-04-30T09:56:00Z,68.35,-166.8,-5.0,-6.1,60,6,,10.0,29.940945,1013.9,,TRUE,TRUE,,,,TRUE,,,FEW,6000,,,,,,,VFR,,,,,,,,,,,,METAR,4.0
PAPN 300956Z AUTO 10010KT 9SM CLR 03/01 A2962 RMK AO2 SLP030 T00280006,PAPN,2023-04-30T09:56:00Z,57.58,-157.57,2.8,0.6,100,10,,9.0,29.619095,1003.0,,TRUE,TRUE,,,,,,,CLR,,,,,,,,VFR,,,,,,,,,,,,METAR,19.0
PAPM 300956Z AUTO 09024G30KT 10SM OVC018 03/00 A2957 RMK AO2 PK WND 10033/0942 SLP017 T00280000,PAPM,2023-04-30T09:56:00Z,59.02,-161.82,2.8,0.0,90,24,30,10.0,29.568897,1001.7,,TRUE,TRUE,,,,,,,OVC,1800,,,,,,,MVFR,,,,,,,,,,,,METAR,4.0
PAPH 300956Z AUTO 14022G34KT 10SM SCT016 BKN100 04/02 A2952 RMK AO2 PK WND 15042/0919 SLP999 T00440017,PAPH,2023-04-30T09:56:00Z,56.95,-158.62,4.4,1.7,140,22,34,10.0,29.518702,999.9,,TRUE,TRUE,,,,,,,SCT,1600,BKN,10000,,,,,VFR,,,,,,,,,,,,METAR,29.0
PAPG 300956Z AUTO 26003KT 10SM OVC110 07/06 A2981 RMK AO2 SLP099 T00720061,PAPG,2023-04-30T09:56:00Z,56.82,-132.93,7.2,6.1,260,3,,10.0,29.811024,1009.9,,TRUE,TRUE,,,,,,,OVC,11000,,,,,,,VFR,,,,,,,,,,,,METAR,24.0
PAOU 300956Z AUTO 14024KT 10SM FEW022 SCT032 OVC046 03/01 A2940 RMK AO2 PK WND 13032/0901 RAE36 SLP955 T00330011 PNO $,PAOU,2023-04-30T09:56:00Z,56.0,-161.17,3.3,1.1,140,24,,10.0,29.40059,995.5,,TRUE,TRUE,TRUE,,,,,,FEW,2200,SCT,3200,OVC,4600,,,VFR,,,,,,,,,,,,METAR,3.0
PAOO 300956Z AUTO CLR 01/M01 A2965 RMK AO2 SLP046 T00111006 PWINO FZRANO TSNO $,PAOO,2023-04-30T09:56:00Z,60.53,-165.08,1.1,-0.6,,,,,29.648623,1004.6,,TRUE,TRUE,TRUE,,TRUE,TRUE,TRUE,,CLR,,,,,,,,,,,,,,,,,,,,METAR,15.0
PAOH 300956Z AUTO 00000KT 10SM FEW005 OVC060 07/06 A2981 RMK AO2 RAE11 SLP095 P0000 T00670061,PAOH,2023-04-30T09:56:00Z,58.1,-135.45,6.7,6.1,0,0,,10.0,29.811024,1009.5,,TRUE,TRUE,,,,,,,FEW,500,OVC,6000,,,,,VFR,,,,,,0.005,,,,,,METAR,0.0
PANW 300956Z AUTO 09004KT 10SM CLR M01/M03 A2975 RMK AO2 SLP081 T10061028 FZRANO,PANW,2023-04-30T09:56:00Z,59.45,-157.32,-0.6,-2.8,90,4,,10.0,29.749016,1008.1,,TRUE,TRUE,,,,TRUE,,,CLR,,,,,,,,VFR,,,,,,,,,,,,METAR,100.0
PANV 300956Z AUTO 05005KT 10SM CLR 02/M03 A2976 RMK AO2 SLP161 T00171033 FZRANO TSNO,PANV,2023-04-30T09:56:00Z,62.65,-160.18,1.7,-3.3,50,5,,10.0,29.760826,1016.1,,TRUE,TRUE,,,TRUE,TRUE,,,CLR,,,,,,,,VFR,,,,,,,,,,,,METAR,91.0
PANI 300956Z AUTO 00000KT 10SM CLR M01/M04 A2981 RMK AO2 SLP087 T10061039 FZRANO $,PANI,2023-04-30T09:56:00Z,61.58,-159.53,-0.6,-3.9,0,0,,10.0,29.811024,1008.7,,TRUE,TRUE,TRUE,,,TRUE,,,CLR,,,,,,,,VFR,,,,,,,,,,,,METAR,21.0
PANA 300956Z AUTO 07007KT 10SM CLR 00/M03 A2969 RMK AO2 SLP053 T00001028 FZRANO TSNO $,PANA,2023-04-30T09:56:00Z,60.68,-161.98,0.0,-2.8,70,7,,10.0,29.68996,1005.3,,TRUE,TRUE,TRUE,,TRUE,TRUE,,,CLR,,,,,,,,VFR,,,,,,,,,,,,METAR,7.0
PAMY 300956Z AUTO 07011KT 10SM OVC029 01/M01 A2938 RMK AO2 SLP950 T00061006 FZRANO,PAMY,2023-04-30T09:56:00Z,60.37,-166.27,0.6,-0.6,70,11,,10.0,29.379921,995.0,,TRUE,TRUE,,,,TRUE,,,OVC,2900,,,,,,,MVFR,,,,,,,,,,,,METAR,14.0
PAMO 300956Z AUTO 05010KT 10SM CLR 01/M03 A2974 RMK AO2 SLP075 T00061028 FZRANO,PAMO,2023-04-30T09:56:00Z,62.1,-163.68,0.6,-2.8,50,10,,10.0,29.740158,1007.5,,TRUE,TRUE,,,,TRUE,,,CLR,,,,,,,,VFR,,,,,,,,,,,,METAR,93.0
PAMM 300956Z AUTO 00000KT 10SM BKN090 BKN100 08/05 A2982 RMK AO2 SLP191 T00830050 $,PAMM,2023-04-30T09:56:00Z,55.13,-131.58,8.3,5.0,0,0,,10.0,29.819881,1019.1,,TRUE,TRUE,TRUE,,,,,,BKN,9000,BKN,10000,,,,,VFR,,,,,,,,,,,,METAR,0.0
PAMK 300956Z AUTO 05004KT 10SM CLR M03/M04 A2981 RMK AO2 SLP096 T10281039 FZRANO,PAMK,2023-04-30T09:56:00Z,63.48,-162.12,-2.8,-3.9,50,4,,10.0,29.811024,1009.6,,TRUE,TRUE,,,,TRUE,,,CLR,,,,,,,,VFR,,,,,,,,,,,,METAR,31.0
PAMH 300956Z AUTO 00000KT FEW045 BKN075 OVC095 04/M05 A2973 RMK AO2 SLP069 T00441050 PWINO $,PAMH,2023-04-30T09:56:00Z,63.9,-152.28,4.4,-5.0,0,0,,,29.731298,1006.9,,TRUE,TRUE,TRUE,,,,TRUE,,FEW,4500,BKN,7500,OVC,9500,,,,,,,,,,,,,,,METAR,200.0
PAMB 300956Z AUTO 08011KT 8SM BKN050 01/M01 A2970 RMK AO2 SLP059 T00111006 FZRANO $,PAMB,2023-04-30T09:56:00Z,58.98,-159.05,1.1,-0.6,80,11,,8.0,29.698818,1005.9,,TRUE,TRUE,TRUE,,,TRUE,,,BKN,5000,,,,,,,VFR,,,,,,,,,,,,METAR,28.0
PALG 300956Z AUTO 10003KT 10SM CLR 01/M04 A2974 RMK AO2 SLP075 T00111039 FZRANO,PALG,2023-04-30T09:56:00Z,61.53,-160.33,1.1,-3.9,100,3,,10.0,29.740158,1007.5,,TRUE,TRUE,,,,TRUE,,,CLR,,,,,,,,VFR,,,,,,,,,,,,METAR,13.0
PAKP 300956Z AUTO 00000KT 10SM CLR M11/M12 A2988 RMK AO2 SLP171 T11061122 FZRANO,PAKP,2023-04-30T09:56:00Z,68.13,-151.73,-10.6,-12.2,0,0,,10.0,29.878937,1017.1,,TRUE,TRUE,,,,TRUE,,,CLR,,,,,,,,VFR,,,,,,,,,,,,METAR,649.0
PAKI 300956Z AUTO 10SM SCT032 OVC055 02/M01 A2960 RMK AO2 SLP027 T00171006 FZRANO $,PAKI,2023-04-30T09:56:00Z,59.93,-164.03,1.7,-0.6,,,,10.0,29.601377,1002.7,,TRUE,TRUE,TRUE,,,TRUE,,,SCT,3200,OVC,5500,,,,,VFR,,,,,,,,,,,,METAR,4.0
PAKH 300956Z AUTO 10SM OVC015 04/03 A2981 RMK AO2 RAB20E31 SLP093 P0000 T00390028 TSNO $,PAKH,2023-04-30T09:56:00Z,56.93,-154.18,3.9,2.8,,,,10.0,29.811024,1009.3,,TRUE,TRUE,TRUE,,TRUE,,,,OVC,1500,,,,,,,MVFR,,,,,,0.005,,,,,,METAR,15.0
PAJZ 300956Z AUTO 05005KT 10SM CLR M01/M03 A2980 RMK AO2 SLP097 T10111028 FZRANO $,PAJZ,2023-04-30T09:56:00Z,59.73,-157.27,-1.1,-2.8,50,5,,10.0,29.799213,1009.7,,TRUE,TRUE,TRUE,,,TRUE,,,CLR,,,,,,,,VFR,,,,,,,,,,,,METAR,80.0
PAIW 300956Z AUTO 03010KT 3SM -SN BR BKN007 OVC015 M05/M06 A2989 RMK AO2 SLP124 P0000 T10501056 FZRANO,PAIW,2023-04-30T09:56:00Z,65.62,-168.1,-5.0,-5.6,30,10,,3.0,29.890747,1012.4,,TRUE,TRUE,,,,TRUE,,-SN BR,BKN,700,OVC,1500,,,,,IFR,,,,,,0.005,,,,,,METAR,6.0
PAIN 300956Z AUTO 00000KT 10SM OVC014 M01/M02 A2972 RMK AO2 UPE03 SLP085 P0000 T10061022 FZRANO,PAIN,2023-04-30T09:56:00Z,63.73,-148.92,-0.6,-2.2,0,0,,10.0,29.719488,1008.5,,TRUE,TRUE,,,,TRUE,,,OVC,1400,,,,,,,MVFR,,,,,,0.005,,,,,,METAR,525.0
PAIK 300956Z AUTO 00000KT 10SM CLR 02/M03 A2993 RMK AO2 SLP137 T00171028 FZRANO,PAIK,2023-04-30T09:56:00Z,66.98,-160.43,1.7,-2.8,0,0,,10.0,29.929134,1013.7,,TRUE,TRUE,,,,TRUE,,,CLR,,,,,,,,VFR,,,,,,,,,,,,METAR,49.0
PAIG 300956Z AUTO 36004KT 10SM CLR M04/M04 A2976 RMK AO2 SLP085 T10391044 FZRANO $,PAIG,2023-04-30T09:56:00Z,59.32,-155.9,-3.9,-4.4,360,4,,10.0,29.760826,1008.5,,TRUE,TRUE,TRUE,,,TRUE,,,CLR,,,,,,,,VFR,,,,,,,,,,,,METAR,24.0
PAHY 300956Z AUTO 00000KT 10SM BKN004 OVC095 08/07 A2981 RMK AO2 SLP091 T00780072 $,PAHY,2023-04-30T09:56:00Z,55.2,-132.83,7.8,7.2,0,0,,10.0,29.811024,1009.1,,TRUE,TRUE,TRUE,,,,,,BKN,400,OVC,9500,,,,,LIFR,,,,,,,,,,,,METAR,0.0
PAHL 300956Z AUTO 03005KT 10SM CLR 02/M05 A2985 RMK AO2 SLP111 T00221050 FZRANO,PAHL,2023-04-30T09:56:00Z,65.7,-156.35,2.2,-5.0,30,5,,10.0,29.84941,1011.1,,TRUE,TRUE,,,,TRUE,,,CLR,,,,,,,,VFR,,,,,,,,,,,,METAR,49.0
PAHC 300956Z AUTO VRB04KT 10SM CLR 02/M03 A2976 RMK AO2 SLP084 T00221028 FZRANO,PAHC,2023-04-30T09:56:00Z,62.18,-159.78,2.2,-2.8,0,4,,10.0,29.760826,1008.4,,TRUE,TRUE,,,,TRUE,,,CLR,,,,,,,,VFR,,,,,,,,,,,,METAR,21.0
PAGS 300956Z AUTO 00000KT 10SM -RA BKN060 OVC070 07/07 A2982 RMK AO2 SLP099 P0000 T00720067,PAGS,2023-04-30T09:56:00Z,58.42,-135.7,7.2,6.7,0,0,,10.0,29.819881,1009.9,,TRUE,TRUE,,,,,,-RA,BKN,6000,OVC,7000,,,,,VFR,,,,,,0.005,,,,,,METAR,9.0
PAGN 300956Z AUTO 00000KT 10SM -RA OVC060 07/07 A2982 RMK AO2 SLP088 P0001 T00720072,PAGN,2023-04-30T09:56:00Z,57.5,-134.58,7.2,7.2,0,0,,10.0,29.819881,1008.8,,TRUE,TRUE,,,,,,-RA,OVC,6000,,,,,,,VFR,,,,,,0.01,,,,,,METAR,2.0
PAGL 300956Z AUTO 33004KT 10SM BKN070 01/M02 A2984 RMK AO2 SLP102 T00061017 FZRANO,PAGL,2023-04-30T09:56:00Z,64.55,-163.0,0.6,-1.7,330,4,,10.0,29.840551,1010.2,,TRUE,TRUE,,,,TRUE,,,BKN,7000,,,,,,,VFR,,,,,,,,,,,,METAR,20.0
PAFM 300956Z AUTO 02007KT 10SM CLR 00/M04 A2993 RMK AO2 SLP141 T00001039 FZRANO,PAFM,2023-04-30T09:56:00Z,67.1,-157.85,0.0,-3.9,20,7,,10.0,29.929134,1014.1,,TRUE,TRUE,,,,TRUE,,,CLR,,,,,,,,VFR,,,,,,,,,,,,METAR,79.0
PAFE 300956Z AUTO 00000KT 10SM -RA BKN070 OVC085 08/06 A2983 RMK AO2 RAB43 SLP113 P0000 T00780061 $,PAFE,2023-04-30T09:56:00Z,56.97,-133.92,7.8,6.1,0,0,,10.0,29.828741,1011.3,,TRUE,TRUE,TRUE,,,,,-RA,BKN,7000,OVC,8500,,,,,VFR,,,,,,0.005,,,,,,METAR,1.0
PADU 300956Z AUTO 16014G20KT 10SM -RA SCT024 BKN031 OVC035 06/02 A2901 RMK AO2 RAB28 SLP829 P0002 T00610022,PADU,2023-04-30T09:56:00Z,53.9,-166.53,6.1,2.2,160,14,20,10.0,29.010826,982.9,,TRUE,TRUE,,,,,,-RA,SCT,2400,BKN,3100,OVC,3500,,,VFR,,,,,,0.02,,,,,,METAR,4.0
PADM 300956Z AUTO 36010KT 10SM CLR M01/M03 A2978 RMK AO2 SLP091 T10061028 FZRANO,PADM,2023-04-30T09:56:00Z,61.87,-162.03,-0.6,-2.8,360,10,,10.0,29.778543,1009.1,,TRUE,TRUE,,,,TRUE,,,CLR,,,,,,,,VFR,,,,,,,,,,,,METAR,17.0
PADL 300956Z AUTO 08007KT 10SM CLR 02/M01 A2972 RMK AO2 SLP066 T00171011 FZRANO,PADL,2023-04-30T09:56:00Z,59.05,-158.5,1.7,-1.1,80,7,,10.0,29.719488,1006.6,,TRUE,TRUE,,,,TRUE,,,CLR,,,,,,,,VFR,,,,,,,,,,,,METAR,20.0
PADK 300956Z AUTO 32018G32KT FEW011 BKN020 OVC041 01/M03 A2932 RMK AO2 PK WND 34033/0938 SLP929 T00111028 PWINO FZRANO $,PADK,2023-04-30T09:56:00Z,51.88,-176.65,1.1,-2.8,320,18,32,,29.320866,992.9,,TRUE,TRUE,TRUE,,,TRUE,TRUE,,FEW,1100,BKN,2000,OVC,4100,,,,,,,,,,,,,,,METAR,3.0
PACM 300956Z AUTO 07006KT SCT075 01/M01 A2975 RMK AO2 SLP069 T00061006 PWINO FZRANO $,PACM,2023-04-30T09:56:00Z,61.85,-165.57,0.6,-0.6,70,6,,,29.749016,1006.9,,TRUE,TRUE,TRUE,,,TRUE,TRUE,,SCT,7500,,,,,,,,,,,,,,,,,,,METAR,3.0
PABV 300956Z AUTO 00000KT 10SM OVC080 04/M01 A2978 RMK AO2 SLP089 T00441011,PABV,2023-04-30T09:56:00Z,61.42,-149.52,4.4,-1.1,0,0,,10.0,29.778543,1008.9,,TRUE,TRUE,,,,,,,OVC,8000,,,,,,,VFR,,,,,,,,,,,,METAR,21.0
PABL 300956Z AUTO 00000KT 10SM CLR M03/M04 A2988 RMK AO2 SLP121 T10331039 FZRANO,PABL,2023-04-30T09:56:00Z,65.98,-161.15,-3.3,-3.9,0,0,,10.0,29.878937,1012.1,,TRUE,TRUE,,,,TRUE,,,CLR,,,,,,,,VFR,,,,,,,,,,,,METAR,7.0
KYKN 300956Z AUTO 31013KT 10SM CLR 03/02 A2990 RMK AO2 SLP143 T00330017,KYKN,2023-04-30T09:56:00Z,42.92,-97.37,3.3,1.7,310,13,,10.0,29.899607,1014.3,,TRUE,TRUE,,,,,,,CLR,,,,,,,,VFR,,,,,,,,,,,,METAR,388.0
KY50 300956Z AUTO 28013KT 10SM BKN012 OVC050 02/01 A2939 RMK AO2 UPB0858E09B37E46RAB09E47 SLP955 P0000 T00220011 FZRANO $,KY50,2023-04-30T09:56:00Z,44.03,-89.3,2.2,1.1,280,13,,10.0,29.388779,995.5,,TRUE,TRUE,TRUE,,,TRUE,,,BKN,1200,OVC,5000,,,,,MVFR,,,,,,0.005,,,,,,METAR,261.0
KWWD 300956Z AUTO 08006KT 10SM SCT003 BKN055 OVC090 13/13 A2964 RMK AO2 SLP037 T01280128 $,KWWD,2023-04-30T09:56:00Z,39.02,-74.92,12.8,12.8,80,6,,10.0,29.639763,1003.7,,TRUE,TRUE,TRUE,,,,,,SCT,300,BKN,5500,OVC,9000,,,VFR,,,,,,,,,,,,METAR,4.0
KWVL 300956Z AUTO VRB03KT 8SM -RA FEW042 OVC060 06/04 A3001 RMK AO2 RAB05 SLP191 P0003 T00560039,KWVL,2023-04-30T09:56:00Z,44.52,-69.67,5.6,3.9,0,3,,8.0,30.008858,1019.1,,TRUE,TRUE,,,,,,-RA,FEW,4200,OVC,6000,,,,,VFR,,,,,,0.03,,,,,,METAR,87.0
KWMC 300956Z AUTO 16007KT 10SM CLR 07/M01 A2999 RMK AO2 SLP119 T00721011,KWMC,2023-04-30T09:56:00Z,40.9,-117.8,7.2,-1.1,160,7,,10.0,29.991142,1011.9,,TRUE,TRUE,,,,,,,CLR,,,,,,,,VFR,,,,,,,,,,,,METAR,1311.0
KWJF 300956Z AUTO 00000KT 10SM CLR 14/04 A2993 RMK AO2 SLP117 T01390039,KWJF,2023-04-30T09:56:00Z,34.73,-118.22,13.9,3.9,0,0,,10.0,29.929134,1011.7,,TRUE,TRUE,,,,,,,CLR,,,,,,,,VFR,,,,,,,,,,,,SPECI,712.0
KVPZ 300956Z AUTO 26005KT 10SM FEW039 OVC070 05/02 A2949 RMK AO2 SLP987 T00500017,KVPZ,2023-04-30T09:56:00Z,41.45,-87.0,5.0,1.7,260,5,,10.0,29.489174,998.7,,TRUE,TRUE,,,,,,,FEW,3900,OVC,7000,,,,,VFR,,,,,,,,,,,,METAR,235.0
KVIS 300956Z AUTO 30005KT 10SM CLR 19/13 A2987 RMK AO2 SLP117 T01890128,KVIS,2023-04-30T09:56:00Z,36.32,-119.4,18.9,12.8,300,5,,10.0,29.870079,1011.7,,TRUE,TRUE,,,,,,,CLR,,,,,,,,VFR,,,,,,,,,,,,METAR,92.0
KVBT 300956Z AUTO 00000KT 10SM CLR 06/04 A2982 RMK AO2 SLP098 T00610044,KVBT,2023-04-30T09:56:00Z,36.35,-94.22,6.1,4.4,0,0,,10.0,29.819881,1009.8,,TRUE,TRUE,,,,,,,CLR,,,,,,,,VFR,,,,,,,,,,,,METAR,390.0
KUKI 300956Z AUTO 00000KT 10SM CLR 10/04 A2996 RMK AO2 SLP140 T01000044,KUKI,2023-04-30T09:56:00Z,39.12,-123.2,10.0,4.4,0,0,,10.0,29.958662,1014.0,,TRUE,TRUE,,,,,,,CLR,,,,,,,,VFR,,,,,,,,,,,,METAR,183.0
KUDG 300956Z AUTO 16004KT 7SM -RA BKN003 OVC007 A2947 RMK AO2 RAB01E19B40 CIG 003V006 SLPNO FZRANO PNO $,KUDG,2023-04-30T09:56:00Z,34.45,-79.88,,,160,4,,7.0,29.471457,,,TRUE,TRUE,TRUE,,,TRUE,,-RA,BKN,300,OVC,700,,,,,LIFR,,,,,,,,,,,,METAR,57.0
KUCP 300956Z AUTO 14005KT 10SM FEW049 OVC060 11/10 A2949 RMK AO2 SLP999 T01110100,KUCP,2023-04-30T09:56:00Z,41.03,-80.42,11.1,10.0,140,5,,10.0,29.489174,999.9,,TRUE,TRUE,,,,,,,FEW,4900,OVC,6000,,,,,VFR,,,,,,,,,,,,METAR,313.0
KTVF 300956Z AUTO 35015KT 10SM CLR 02/M02 A2993 RMK AO2 SLP146 T00221017 FZRANO,KTVF,2023-04-30T09:56:00Z,48.07,-96.17,2.2,-1.7,350,15,,10.0,29.929134,1014.6,,TRUE,TRUE,,,,TRUE,,,CLR,,,,,,,,VFR,,,,,,,,,,,,METAR,339.0
KTPH 300956Z AUTO A3006 RMK AO2 SLPNO PWINO $,KTPH,2023-04-30T09:56:00Z,38.05,-117.08,,,,,,,30.059055,,,TRUE,TRUE,TRUE,,,,TRUE,,,,,,,,,,,,,,,,,,,,,,METAR,1647.0
KSXT 300956Z AUTO 00000KT 10SM SCT070 08/M01 A2998 RMK AO2 SLP113 T00781011,KSXT,2023-04-30T09:56:00Z,42.6,-123.37,7.8,-1.1,0,0,,10.0,29.97933,1011.3,,TRUE,TRUE,,,,,,,SCT,7000,,,,,,,VFR,,,,,,,,,,,,METAR,1151.0
KSXS 300956Z AUTO 30009KT 10SM -DZ SCT075 14/14 A2958 RMK AO2 DZB56 SLP017,KSXS,2023-04-30T09:56:00Z,31.37,-85.85,14.0,14.0,300,9,,10.0,29.58071,1001.7,,TRUE,TRUE,,,,,,-DZ,SCT,7500,,,,,,,VFR,,,,,,,,,,,,METAR,120.0
KSUE 300956Z AUTO 28005KT 2 1/2SM UP BR OVC005 02/02 A2931 RMK AO2 UPB05 SLP930 P0003 T00220022 FZRANO,KSUE,2023-04-30T09:56:00Z,44.85,-87.42,2.2,2.2,280,5,,2.5,29.309055,993.0,,TRUE,TRUE,,,,TRUE,,BR UP,OVC,500,,,,,,,IFR,,,,,,0.03,,,,,,METAR,215.0
KSRC 300956Z AUTO 34004KT 10SM CLR 11/03 A2977 RMK AO2 SLP079 T01110028,KSRC,2023-04-30T09:56:00Z,35.22,-91.73,11.1,2.8,340,4,,10.0,29.769686,1007.9,,TRUE,TRUE,,,,,,,CLR,,,,,,,,VFR,,,,,,,,,,,,METAR,80.0
KSQI 300956Z AUTO 26006KT 10SM CLR 02/02 A2952 RMK AO2 SLP866 T00220017 FZRANO,KSQI,2023-04-30T09:56:00Z,41.75,-89.67,2.2,1.7,260,6,,10.0,29.518702,986.6,,TRUE,TRUE,,,,TRUE,,,CLR,,,,,,,,VFR,,,,,,,,,,,,METAR,196.0
KSPD 300956Z AUTO 27005KT 06/02 A2998 RMK AO1 SLP111 T00560017,KSPD,2023-04-30T09:56:00Z,37.28,-102.62,5.6,1.7,270,5,,,29.97933,1011.1,,TRUE,TRUE,,,,,,,,,,,,,,,,,,,,,,,,,,,METAR,1340.0
KSOP 300956Z AUTO 10005KT 6SM -RA BR BKN002 OVC009 16/16 A2948 RMK AO2 SLP985 P0007 T01610161,KSOP,2023-04-30T09:56:00Z,35.23,-79.4,16.1,16.1,100,5,,6.0,29.480314,998.5,,TRUE,TRUE,,,,,,-RA BR,BKN,200,OVC,900,,,,,LIFR,,,,,,0.07,,,,,,METAR,135.0
KSMN 300956Z AUTO 17003KT 10SM CLR 04/M01 A3004 RMK AO2 SLP866 T00441006,KSMN,2023-04-30T09:56:00Z,45.12,-113.87,4.4,-0.6,170,3,,10.0,30.041338,986.6,,TRUE,TRUE,,,,,,,CLR,,,,,,,,VFR,,,,,,,,,,,,METAR,1228.0
KSLG 300956Z AUTO 00000KT 10SM CLR 06/06 A2981 RMK AO2 SLP092 T00560056,KSLG,2023-04-30T09:56:00Z,36.2,-94.48,5.6,5.6,0,0,,10.0,29.811024,1009.2,,TRUE,TRUE,,,,,,,CLR,,,,,,,,VFR,,,,,,,,,,,,METAR,361.0
KSLE 300956Z AUTO 18006KT 10SM BKN046 11/06 A2996 RMK AO2 SLP143 T01060061,KSLE,2023-04-30T09:56:00Z,44.9,-123.0,10.6,6.1,180,6,,10.0,29.958662,1014.3,,TRUE,TRUE,,,,,,,BKN,4600,,,,,,,VFR,,,,,,,,,,,,METAR,63.0
KSKX 300956Z AUTO 08004KT 10SM CLR 04/M04 A3015 RMK AO2 SLP166 T00391044,KSKX,2023-04-30T09:56:00Z,36.45,-105.67,3.9,-4.4,80,4,,10.0,30.15059,1016.6,,TRUE,TRUE,,,,,,,CLR,,,,,,,,VFR,,,,,,,,,,,,METAR,2163.0
KSHV 300956Z 26006KT 10SM CLR 11/08 A2983 RMK SLPNO,KSHV,2023-04-30T09:56:00Z,32.45,-93.83,11.0,8.0,260,6,,10.0,29.828741,,,,,,,,,,,CLR,,,,,,,,VFR,,,,,,,,,,,,METAR,70.0
KSGU 300956Z AUTO 13003KT 10SM CLR 16/M04 A2996 RMK AO2 SLP115 T01611039,KSGU,2023-04-30T09:56:00Z,37.03,-113.52,16.1,-3.9,130,3,,10.0,29.958662,1011.5,,TRUE,TRUE,,,,,,,CLR,,,,,,,,VFR,,,,,,,,,,,,METAR,877.0
KSGT 300956Z AUTO 33012KT 10SM CLR 12/07 A2977 RMK AO2 SLP080 T01220072,KSGT,2023-04-30T09:56:00Z,34.6,-91.57,12.2,7.2,330,12,,10.0,29.769686,1008.0,,TRUE,TRUE,,,,,,,CLR,,,,,,,,VFR,,,,,,,,,,,,METAR,67.0
KSGJ 300956Z AUTO 29011KT 5SM TSRA BR 21/20 A2956 RMK AO2 LTG DSNT NE TSB20RAB14 SLP008 P0066 T02060200 $,KSGJ,2023-04-30T09:56:00Z,29.97,-81.33,20.6,20.0,290,11,,5.0,29.56004,1000.8,,TRUE,TRUE,TRUE,,,,,TSRA BR,,,,,,,,,,,,,,,0.66,,,,,,METAR,2.0
KSFZ 300956Z AUTO 06006KT 5SM -RA BR OVC004 09/09 A2980 RMK AO2 SLP091 P0001 T00940094,KSFZ,2023-04-30T09:56:00Z,41.92,-71.5,9.4,9.4,60,6,,5.0,29.799213,1009.1,,TRUE,TRUE,,,,,,-RA BR,OVC,400,,,,,,,LIFR,,,,,,0.01,,,,,,METAR,129.0
KSFO 300956Z 27012G20KT 10SM FEW005 BKN008 11/09 A2998 RMK AO2 SLP153 T01110089,KSFO,2023-04-30T09:56:00Z,37.62,-122.37,11.1,8.9,270,12,20,10.0,29.97933,1015.3,,,TRUE,,,,,,,FEW,500,BKN,800,,,,,IFR,,,,,,,,,,,,METAR,2.0
KSFM 300956Z AUTO 08008KT 2SM -RA BR 06/06 A2996 RMK AO2 SLP150 P0018 T00610056,KSFM,2023-04-30T09:56:00Z,43.38,-70.72,6.1,5.6,80,8,,2.0,29.958662,1015.0,,TRUE,TRUE,,,,,,-RA BR,,,,,,,,,,,,,,,0.18,,,,,,METAR,70.0
KSDY 300956Z AUTO 31004KT 10SM CLR M01/M05 A3017 RMK AO2 SLP232 T10061050 FZRANO,KSDY,2023-04-30T09:56:00Z,47.7,-104.2,-0.6,-5.0,310,4,,10.0,30.171259,1023.2,,TRUE,TRUE,,,,TRUE,,,CLR,,,,,,,,VFR,,,,,,,,,,,,METAR,600.0
KSDF 300956Z 33006KT 10SM BKN048 OVC110 10/04 A2955 RMK AO2 PK WND 31027/0912 SLP004 T01000044,KSDF,2023-04-30T09:56:00Z,38.18,-85.73,10.0,4.4,330,6,,10.0,29.551182,1000.4,,,TRUE,,,,,,,BKN,4800,OVC,11000,,,,,VFR,,,,,,,,,,,,METAR,146.0
KSBP 300956Z AUTO 31005KT 4SM BR OVC004 11/10 A2996 RMK AO2 SLP144 T01110100,KSBP,2023-04-30T09:56:00Z,35.23,-120.63,11.1,10.0,310,5,,4.0,29.958662,1014.4,,TRUE,TRUE,,,,,,BR,OVC,400,,,,,,,LIFR,,,,,,,,,,,,METAR,52.0
KRUT 300956Z AUTO 15014G22KT 10SM FEW040 SCT049 SCT100 07/06 A2980 RMK AO2 SLP087 T00720061 $,KRUT,2023-04-30T09:56:00Z,43.53,-72.95,7.2,6.1,150,14,22,10.0,29.799213,1008.7,,TRUE,TRUE,TRUE,,,,,,FEW,4000,SCT,4900,SCT,10000,,,VFR,,,,,,,,,,,,METAR,238.0
KRKD 300956Z AUTO 09014KT 10SM OVC011 06/05 A3005 RMK AO2 RAB04E30 SLP175 P0000 T00610050,KRKD,2023-04-30T09:56:00Z,44.07,-69.1,6.1,5.0,90,14,,10.0,30.050198,1017.5,,TRUE,TRUE,,,,,,,OVC,1100,,,,,,,MVFR,,,,,,0.005,,,,,,METAR,15.0
KRDM 300956Z AUTO 21005KT 10SM CLR 11/04 A2989 RMK AO2 SLP096 T01110039 $,KRDM,2023-04-30T09:56:00Z,44.25,-121.15,11.1,3.9,210,5,,10.0,29.890747,1009.6,,TRUE,TRUE,TRUE,,,,,,CLR,,,,,,,,VFR,,,,,,,,,,,,METAR,930.0
KPWT 300956Z AUTO 21004KT 10SM BKN008 06/06 A2992 RMK AO2 SLP134 T00610061,KPWT,2023-04-30T09:56:00Z,47.5,-122.77,6.1,6.1,210,4,,10.0,29.920275,1013.4,,TRUE,TRUE,,,,,,,BKN,800,,,,,,,IFR,,,,,,,,,,,,METAR,143.0
KPWG 300956Z AUTO 22006KT 10SM CLR 10/07 A2989 RMK AO2 SLP120 T01000072,KPWG,2023-04-30T09:56:00Z,31.48,-97.32,10.0,7.2,220,6,,10.0,29.890747,1012.0,,TRUE,TRUE,,,,,,,CLR,,,,,,,,VFR,,,,,,,,,,,,METAR,178.0
KPVU 300956Z AUTO 00000KT 10SM CLR 08/02 A3005 RMK AO2 SLP139 T00830022,KPVU,2023-04-30T09:56:00Z,40.22,-111.72,8.3,2.2,0,0,,10.0,30.050198,1013.9,,TRUE,TRUE,,,,,,,CLR,,,,,,,,VFR,,,,,,,,,,,,METAR,1370.0
KPVC 300956Z AUTO 12015G25KT 3SM RA BR OVC007 09/09 A2983 RMK AO2 PK WND 12029/0907 TSB02E17 SLP102 P0020 T00940094,KPVC,2023-04-30T09:56:00Z,42.07,-70.22,9.4,9.4,120,15,25,3.0,29.828741,1010.2,,TRUE,TRUE,,,,,,RA BR,OVC,700,,,,,,,IFR,,,,,,0.2,,,,,,METAR,1.0
KPTV 300956Z AUTO 18006KT 10SM CLR 17/15 A2988 RMK AO2 SLP113 T01720150,KPTV,2023-04-30T09:56:00Z,36.02,-119.07,17.2,15.0,180,6,,10.0,29.878937,1011.3,,TRUE,TRUE,,,,,,,CLR,,,,,,,,VFR,,,,,,,,,,,,METAR,132.0
KPTN 300956Z AUTO 30004KT 10SM CLR 13/12 A2986 RMK AO2 SLP112 T01330117 $,KPTN,2023-04-30T09:56:00Z,29.72,-91.33,13.3,11.7,300,4,,10.0,29.861221,1011.2,,TRUE,TRUE,TRUE,,,,,,CLR,,,,,,,,VFR,,,,,,,,,,,,METAR,2.0
KPRX 300956Z AUTO 00000KT 10SM -RA CLR 09/08 A2983 RMK AO2 SLP100 P0000 T00940083,KPRX,2023-04-30T09:56:00Z,33.63,-95.45,9.4,8.3,0,0,,10.0,29.828741,1010.0,,TRUE,TRUE,,,,,,-RA,CLR,,,,,,,,VFR,,,,,,0.005,,,,,,METAR,165.0
KPQI 300956Z AUTO 14007KT 10SM BKN100 08/03 A3009 RMK AO2 SLP216 T00780033,KPQI,2023-04-30T09:56:00Z,46.68,-68.05,7.8,3.3,140,7,,10.0,30.088583,1021.6,,TRUE,TRUE,,,,,,,BKN,10000,,,,,,,VFR,,,,,,,,,,,,METAR,154.0
KPIB 300956Z AUTO VRB03KT 10SM BKN013 BKN017 15/15 A2974 RMK AO2 SLP071 T01500150 PNO $,KPIB,2023-04-30T09:56:00Z,31.47,-89.33,15.0,15.0,0,3,,10.0,29.740158,1007.1,,TRUE,TRUE,TRUE,,,,,,BKN,1300,BKN,1700,,,,,MVFR,,,,,,,,,,,,METAR,91.0
KP60 300956Z AUTO 00000KT M04/M06 A3019 RMK AO1 SLP203 T10391056,KP60,2023-04-30T09:56:00Z,44.55,-110.42,-3.9,-5.6,0,0,,,30.188976,1020.3,,TRUE,TRUE,,,,,,,,,,,,,,,,,,,,,,,,,,,METAR,2377.0
KP53 300956Z AUTO 00000KT 03/03 A2931 RMK AO1 SLP929 P0013 T00330028,KP53,2023-04-30T09:56:00Z,46.42,-86.65,3.3,2.8,0,0,,,29.309055,992.9,,TRUE,TRUE,,,,,,,,,,,,,,,,,,,,,0.13,,,,,,SPECI,185.0
KP28 300956Z AUTO 32004KT 07/04 A2994 RMK AO1 SLP131 T00670039 $,KP28,2023-04-30T09:56:00Z,37.28,-98.55,6.7,3.9,320,4,,,29.940945,1013.1,,TRUE,TRUE,TRUE,,,,,,,,,,,,,,,,,,,,,,,,,,METAR,469.0
KOWB 300956Z AUTO 32012KT 10SM FEW019 08/05 A2960 RMK AO2 SLP024 T00830050,KOWB,2023-04-30T09:56:00Z,37.72,-87.17,8.3,5.0,320,12,,10.0,29.601377,1002.4,,TRUE,TRUE,,,,,,,FEW,1900,,,,,,,VFR,,,,,,,,,,,,METAR,121.0
KOTH 300956Z AUTO 17004KT 10SM OVC007 09/09 A3002 RMK AO2 RAB0859E26 CIG 003V010 SLP166 P0001 T00940094,KOTH,2023-04-30T09:56:00Z,43.42,-124.25,9.4,9.4,170,4,,10.0,30.02067,1016.6,,TRUE,TRUE,,,,,,,OVC,700,,,,,,,IFR,,,,,,0.01,,,,,,METAR,3.0
KOTG 300956Z AUTO 32020KT 10SM FEW070 03/01 A2979 RMK AO2 PK WND 33026/0915 SLP098 T00280011 PNO $,KOTG,2023-04-30T09:56:00Z,43.65,-95.57,2.8,1.1,320,20,,10.0,29.790354,1009.8,,TRUE,TRUE,TRUE,,,,,,FEW,7000,,,,,,,VFR,,,,,,,,,,,,METAR,478.0
KOLU 300956Z AUTO 31014KT 10SM CLR 05/00 A2992 RMK AO2 SLP136 T00500000,KOLU,2023-04-30T09:56:00Z,41.45,-97.33,5.0,0.0,310,14,,10.0,29.920275,1013.6,,TRUE,TRUE,,,,,,,CLR,,,,,,,,VFR,,,,,,,,,,,,METAR,438.0
KOKK 300956Z AUTO 25009KT 10SM FEW016 05/05 A2952 RMK AO2 SLP996 T00500050 PNO $,KOKK,2023-04-30T09:56:00Z,40.53,-86.07,5.0,5.0,250,9,,10.0,29.518702,999.6,,TRUE,TRUE,TRUE,,,,,,FEW,1600,,,,,,,VFR,,,,,,,,,,,,METAR,251.0
KOFK 300956Z AUTO 31012G20KT 10SM CLR 05/00 A2990 RMK AO2 SLP128 T00500000,KOFK,2023-04-30T09:56:00Z,41.98,-97.43,5.0,0.0,310,12,20,10.0,29.899607,1012.8,,TRUE,TRUE,,,,,,,CLR,,,,,,,,VFR,,,,,,,,,,,,SPECI,476.0
KOCH 300956Z AUTO 00000KT 8SM CLR 08/08 A2988 RMK AO2 SLP121 T00780078 PWINO,KOCH,2023-04-30T09:56:00Z,31.57,-94.72,7.8,7.8,0,0,,8.0,29.878937,1012.1,,TRUE,TRUE,,,,,TRUE,,CLR,,,,,,,,VFR,,,,,,,,,,,,METAR,105.0
KOAJ 300956Z AUTO 14005KT 10SM FEW004 SCT060 OVC090 18/18 A2952 RMK AO2 PRESFR SLP996 T01830178,KOAJ,2023-04-30T09:56:00Z,34.82,-77.62,18.3,17.8,140,5,,10.0,29.518702,999.6,,TRUE,TRUE,,,,,,,FEW,400,SCT,6000,OVC,9000,,,VFR,,,,,,,,,,,,METAR,26.0
KNYG 300956Z AUTO 05006KT 8SM RA BR OVC007 17/ A2953 RMK AO2 SLP001 P0000 T0172 $,KNYG,2023-04-30T09:56:00Z,38.5,-77.3,17.2,,50,6,,8.0,29.530512,1000.1,,TRUE,TRUE,TRUE,,,,,RA BR,OVC,700,,,,,,,IFR,,,,,,0.005,,,,,,METAR,2.0
KNXP 300956Z AUTO 32006KT 10SM CLR A2995 RMK AO2 SLPNO $,KNXP,2023-04-30T09:56:00Z,34.28,-116.13,,,320,6,,10.0,29.949802,,,TRUE,TRUE,TRUE,,,,,,CLR,,,,,,,,VFR,,,,,,,,,,,,METAR,610.0
KNXF 300956Z AUTO 00000KT 9SM 14/12 A2995 RMK AO2 SLP227 T01390122 $,KNXF,2023-04-30T09:56:00Z,33.28,-117.45,13.9,12.2,0,0,,9.0,29.949802,1022.7,,TRUE,TRUE,TRUE,,,,,,,,,,,,,,,,,,,,,,,,,,METAR,28.0
KNUC 300956Z AUTO 27007KT OVC004 11/ A2997 RMK AO2 SLP146 T0111 $,KNUC,2023-04-30T09:56:00Z,33.02,-118.57,11.1,,270,7,,,29.970472,1014.6,,TRUE,TRUE,TRUE,,,,,,OVC,400,,,,,,,,,,,,,,,,,,,METAR,52.0
KNQI 300956Z AUTO 10SM CLR 15/08 A2996 RMK AO2 SLP142 T01500078 $,KNQI,2023-04-30T09:56:00Z,27.5,-97.82,15.0,7.8,,,,10.0,29.958662,1014.2,,TRUE,TRUE,TRUE,,,,,,CLR,,,,,,,,VFR,,,,,,,,,,,,METAR,15.0
KNPA 300956Z AUTO 28004KT 10SM CLR 15/13 A2967 RMK AO2 SLP049 T01500128 $,KNPA,2023-04-30T09:56:00Z,30.35,-87.32,15.0,12.8,280,4,,10.0,29.66929,1004.9,,TRUE,TRUE,TRUE,,,,,,CLR,,,,,,,,VFR,,,,,,,,,,,,METAR,6.0
KNOG 300956Z AUTO 27004KT 10SM CLR 14/07 A2997 RMK AO2 SLP128 T01440067 TSNO $ ,KNOG,2023-04-30T09:56:00Z,27.9,-98.05,14.4,6.7,270,4,,10.0,29.970472,1012.8,,TRUE,TRUE,TRUE,,TRUE,,,,CLR,,,,,,,,VFR,,,,,,,,,,,,METAR,72.0
KNMM 300956Z AUTO 30009KT 10SM FEW012 BKN110 15/13 A2969 RMK AO2 SLP061 T01500133 $,KNMM,2023-04-30T09:56:00Z,32.53,-88.53,15.0,13.3,300,9,,10.0,29.68996,1006.1,,TRUE,TRUE,TRUE,,,,,,FEW,1200,BKN,11000,,,,,VFR,,,,,,,,,,,,METAR,94.0
KNLC 300956Z AUTO 32008KT 10SM CLR 19/09 A2986 RMK AO2 SLP111 T01890094,KNLC,2023-04-30T09:56:00Z,36.32,-119.95,18.9,9.4,320,8,,10.0,29.861221,1011.1,,TRUE,TRUE,,,,,,,CLR,,,,,,,,VFR,,,,,,,,,,,,SPECI,69.0
KNJK 300956Z AUTO 28009KT 10SM CLR 24/M01 A2976 RMK AO2 SLP092 T02441011 $,KNJK,2023-04-30T09:56:00Z,32.82,-115.67,24.4,-1.1,280,9,,10.0,29.760826,1009.2,,TRUE,TRUE,TRUE,,,,,,CLR,,,,,,,,VFR,,,,,,,,,,,,SPECI,-15.0
KNID 300956Z AUTO 19009KT 10SM CLR 21/02 A2988 RMK AO2 SLP095 T02110022 $,KNID,2023-04-30T09:56:00Z,35.68,-117.68,21.1,2.2,190,9,,10.0,29.878937,1009.5,,TRUE,TRUE,TRUE,,,,,,CLR,,,,,,,,VFR,,,,,,,,,,,,METAR,682.0
KNGP 300956Z AUTO 24006KT 10SM CLR 17/13 A2995 RMK AO2 SLP142 T01720133 $,KNGP,2023-04-30T09:56:00Z,27.68,-97.28,17.2,13.3,240,6,,10.0,29.949802,1014.2,,TRUE,TRUE,TRUE,,,,,,CLR,,,,,,,,VFR,,,,,,,,,,,,METAR,5.0
KNFL 300956Z AUTO 30004KT 10SM CLR 14/03 A2998 RMK AO2 SLP123 T01440028,KNFL,2023-04-30T09:56:00Z,39.42,-118.7,14.4,2.8,300,4,,10.0,29.97933,1012.3,,TRUE,TRUE,,,,,,,CLR,,,,,,,,VFR,,,,,,,,,,,,METAR,1199.0
KNFE 300956Z AUTO 14005KT 10SM -RA BKN037 OVC110 20/18 A2954 RMK AO2 RAB55 SLP005 P0000 T02000178,KNFE,2023-04-30T09:56:00Z,36.7,-76.13,20.0,17.8,140,5,,10.0,29.53937,1000.5,,TRUE,TRUE,,,,,,-RA,BKN,3700,OVC,11000,,,,,VFR,,,,,,0.005,,,,,,METAR,4.0
KNCA 300956Z AUTO 16004KT 10SM -RA FEW025 BKN060 OVC080 19/18 A2952 RMK AO2 RAB44 TSB33E48 SLP000 P0000 T01890178 $,KNCA,2023-04-30T09:56:00Z,34.72,-77.45,18.9,17.8,160,4,,10.0,29.518702,1000.0,,TRUE,TRUE,TRUE,,,,,-RA,FEW,2500,BKN,6000,OVC,8000,,,VFR,,,,,,0.005,,,,,,SPECI,9.0
KNBC 300956Z AUTO 22010KT 10SM SCT015 22/20 A2947 RMK AO2 SLP980 T02170200 $,KNBC,2023-04-30T09:56:00Z,32.47,-80.72,21.7,20.0,220,10,,10.0,29.471457,998.0,,TRUE,TRUE,TRUE,,,,,,SCT,1500,,,,,,,VFR,,,,,,,,,,,,SPECI,9.0
KMVN 300956Z AUTO 26005KT 10SM CLR 06/06 A2965 RMK AO2 SLP043 T00610056,KMVN,2023-04-30T09:56:00Z,38.32,-88.87,6.1,5.6,260,5,,10.0,29.648623,1004.3,,TRUE,TRUE,,,,,,,CLR,,,,,,,,VFR,,,,,,,,,,,,METAR,145.0
KMTW 300956Z AUTO 26007KT 10SM -RA OVC014 03/01 A2935 RMK AO2 RAB09E18B55UPB18E55 SLP945 P0000 T00280011,KMTW,2023-04-30T09:56:00Z,44.12,-87.67,2.8,1.1,260,7,,10.0,29.350393,994.5,,TRUE,TRUE,,,,,,-RA,OVC,1400,,,,,,,MVFR,,,,,,0.005,,,,,,METAR,197.0
KMSV 300956Z AUTO 00000KT 5SM RA BR OVC003 07/07 A2974 RMK AO2 SLP077 P0003 T00720072,KMSV,2023-04-30T09:56:00Z,41.7,-74.78,7.2,7.2,0,0,,5.0,29.740158,1007.7,,TRUE,TRUE,,,,,,RA BR,OVC,300,,,,,,,LIFR,,,,,,0.03,,,,,,METAR,427.0
KMRF 300956Z AUTO 36008KT 10SM CLR 04/M09 A3014 RMK AO2 SLP165 T00391094,KMRF,2023-04-30T09:56:00Z,30.37,-104.02,3.9,-9.4,360,8,,10.0,30.138779,1016.5,,TRUE,TRUE,,,,,,,CLR,,,,,,,,VFR,,,,,,,,,,,,METAR,1476.0
KMQY 300956Z AUTO 27004KT 10SM CLR 11/10 A2958 RMK AO2 SLP022 T01060100,KMQY,2023-04-30T09:56:00Z,36.02,-86.52,10.6,10.0,270,4,,10.0,29.58071,1002.2,,TRUE,TRUE,,,,,,,CLR,,,,,,,,VFR,,,,,,,,,,,,METAR,156.0
KMOB 300956Z AUTO 30008KT 10SM BKN012 OVC020 16/14 A2971 RMK AO2 SLP058 T01610139,KMOB,2023-04-30T09:56:00Z,30.68,-88.25,16.1,13.9,300,8,,10.0,29.71063,1005.8,,TRUE,TRUE,,,,,,,BKN,1200,OVC,2000,,,,,MVFR,,,,,,,,,,,,METAR,67.0
KMNE 300956Z AUTO 00000KT 10SM CLR 08/08 A2983 RMK AO2,KMNE,2023-04-30T09:56:00Z,32.65,-93.3,8.0,8.0,0,0,,10.0,29.828741,,,TRUE,TRUE,,,,,,,CLR,,,,,,,,VFR,,,,,,,,,,,,SPECI,84.0
KMML 300956Z AUTO 32017KT 10SM CLR 03/02 A2981 RMK AO2 SLP103 T00280017,KMML,2023-04-30T09:56:00Z,44.45,-95.82,2.8,1.7,320,17,,10.0,29.811024,1010.3,,TRUE,TRUE,,,,,,,CLR,,,,,,,,VFR,,,,,,,,,,,,METAR,358.0
KMKT 300956Z AUTO 32020G26KT 10SM CLR 03/M02 A2967 RMK AO2 PK WND 33026/0954 SLP057 T00331017,KMKT,2023-04-30T09:56:00Z,44.22,-93.92,3.3,-1.7,320,20,26,10.0,29.66929,1005.7,,TRUE,TRUE,,,,,,,CLR,,,,,,,,VFR,,,,,,,,,,,,METAR,309.0
KMHS 300956Z AUTO 00000KT 10SM CLR 08/02 A2994 RMK AO2 SLP133 T00780022,KMHS,2023-04-30T09:56:00Z,41.32,-122.32,7.8,2.2,0,0,,10.0,29.940945,1013.3,,TRUE,TRUE,,,,,,,CLR,,,,,,,,VFR,,,,,,,,,,,,METAR,1080.0
KMEH 300956Z AUTO 00000KT 10SM CLR 03/02 A2991 RMK AO2 SLP116 T00280017,KMEH,2023-04-30T09:56:00Z,45.52,-118.42,2.8,1.7,0,0,,10.0,29.911417,1011.6,,TRUE,TRUE,,,,,,,CLR,,,,,,,,VFR,,,,,,,,,,,,SPECI,1138.0
KMDT 300956Z 09005KT 3SM -DZ BR OVC004 12/12 A2960 RMK AO2 RAB36E46DZB55 SLP023 P0000 T01220117,KMDT,2023-04-30T09:56:00Z,40.2,-76.77,12.2,11.7,90,5,,3.0,29.601377,1002.3,,,TRUE,,,,,,-DZ BR,OVC,400,,,,,,,LIFR,,,,,,0.005,,,,,,SPECI,91.0
KMBL 300956Z AUTO 24006KT 5SM -RA BR OVC009 03/03 A2935 RMK AO2 RAB32 CIG 005V013 SLP945 P0000 T00330028,KMBL,2023-04-30T09:56:00Z,44.27,-86.25,3.3,2.8,240,6,,5.0,29.350393,994.5,,TRUE,TRUE,,,,,,-RA BR,OVC,900,,,,,,,IFR,,,,,,0.005,,,,,,METAR,187.0
KM19 300956Z AUTO 32009KT 10SM CLR 10/03 A2975 RMK AO2 SLP073 T01000033 PNO $,KM19,2023-04-30T09:56:00Z,35.65,-91.17,10.0,3.3,320,9,,10.0,29.749016,1007.3,,TRUE,TRUE,TRUE,,,,,,CLR,,,,,,,,VFR,,,,,,,,,,,,METAR,72.0
KLZU 300956Z AUTO 00000KT 6SM RA BR FEW005 BKN011 OVC028 14/14 A2950 RMK AO2 SLP992 T01440144 PNO $,KLZU,2023-04-30T09:56:00Z,33.98,-83.97,14.4,14.4,0,0,,6.0,29.500984,999.2,,TRUE,TRUE,TRUE,,,,,RA BR,FEW,500,BKN,1100,OVC,2800,,,MVFR,,,,,,,,,,,,METAR,316.0
KLWS 300956Z AUTO 06005KT 10SM CLR 16/07 A2981 RMK AO2 SLP086 T01610067 $,KLWS,2023-04-30T09:56:00Z,46.37,-117.02,16.1,6.7,60,5,,10.0,29.811024,1008.6,,TRUE,TRUE,TRUE,,,,,,CLR,,,,,,,,VFR,,,,,,,,,,,,METAR,435.0
KLRD 300956Z AUTO 01003KT 10SM CLR 14/09 A2998 RMK AO2 SLP148 T01390089,KLRD,2023-04-30T09:56:00Z,27.55,-99.47,13.9,8.9,10,3,,10.0,29.97933,1014.8,,TRUE,TRUE,,,,,,,CLR,,,,,,,,VFR,,,,,,,,,,,,METAR,150.0
KLNR 300956Z AUTO 30009KT 10SM FEW031 BKN050 OVC060 05/01 A2946 RMK AO2 SLP974 T00500011,KLNR,2023-04-30T09:56:00Z,43.22,-90.18,5.0,1.1,300,9,,10.0,29.459646,997.4,,TRUE,TRUE,,,,,,,FEW,3100,BKN,5000,OVC,6000,,,VFR,,,,,,,,,,,,METAR,218.0
KLGD 300956Z AUTO 00000KT 10SM CLR 07/05 A2990 RMK AO2 SLP111 T00720050,KLGD,2023-04-30T09:56:00Z,45.28,-118.0,7.2,5.0,0,0,,10.0,29.899607,1011.1,,TRUE,TRUE,,,,,,,CLR,,,,,,,,VFR,,,,,,,,,,,,METAR,827.0
KLEW 300956Z AUTO 06007KT 7SM -RA OVC010 06/06 A3000 RMK AO2 CIG 005V014 SLP165 P0003 T00610056,KLEW,2023-04-30T09:56:00Z,44.03,-70.28,6.1,5.6,60,7,,7.0,30.0,1016.5,,TRUE,TRUE,,,,,,-RA,OVC,1000,,,,,,,MVFR,,,,,,0.03,,,,,,METAR,81.0
KLCI 300956Z AUTO 05010G14KT 4SM -RA BR OVC005 06/06 A2993 RMK AO2 SLP139 P0002 T00610061,KLCI,2023-04-30T09:56:00Z,43.57,-71.42,6.1,6.1,50,10,14,4.0,29.929134,1013.9,,TRUE,TRUE,,,,,,-RA BR,OVC,500,,,,,,,IFR,,,,,,0.02,,,,,,METAR,166.0
KLBT 300956Z AUTO 13006KT 10SM OVC006 18/18 A2947 RMK AO2 SLP978 T01830183,KLBT,2023-04-30T09:56:00Z,34.6,-79.07,18.3,18.3,130,6,,10.0,29.471457,997.8,,TRUE,TRUE,,,,,,,OVC,600,,,,,,,IFR,,,,,,,,,,,,METAR,37.0
KLBL 300956Z AUTO 35005KT 10SM CLR 06/04 A2998 RMK AO2 SLP137 T00610039,KLBL,2023-04-30T09:56:00Z,37.03,-100.97,6.1,3.9,350,5,,10.0,29.97933,1013.7,,TRUE,TRUE,,,,,,,CLR,,,,,,,,VFR,,,,,,,,,,,,METAR,877.0
KLAS 300956Z 19003KT 10SM CLR 23/M09 A2986 RMK AO2 SLP086 T02281089 $,KLAS,2023-04-30T09:56:00Z,36.07,-115.17,22.8,-8.9,190,3,,10.0,29.861221,1008.6,,,TRUE,TRUE,,,,,,CLR,,,,,,,,VFR,,,,,,,,,,,,METAR,662.0
KKLS 300956Z AUTO 31005KT OVC013 10/07 A2998 RMK AO2 SLP157 T01000072 PWINO $,KKLS,2023-04-30T09:56:00Z,46.12,-122.9,10.0,7.2,310,5,,,29.97933,1015.7,,TRUE,TRUE,TRUE,,,,TRUE,,OVC,1300,,,,,,,,,,,,,,,,,,,METAR,4.0
KJRB 300956Z AUTO 03005KT 7SM OVC003 A2972 RMK AO2 SLPNO FZRANO PNO $,KJRB,2023-04-30T09:56:00Z,40.7,-74.02,,,30,5,,7.0,29.719488,,,TRUE,TRUE,TRUE,,,TRUE,,,OVC,300,,,,,,,LIFR,,,,,,,,,,,,METAR,2.0
KJMS 300956Z AUTO 34013KT 10SM CLR 01/00 A3001 RMK AO2 SLP173 T00110000,KJMS,2023-04-30T09:56:00Z,46.93,-98.67,1.1,0.0,340,13,,10.0,30.008858,1017.3,,TRUE,TRUE,,,,,,,CLR,,,,,,,,VFR,,,,,,,,,,,,METAR,455.0
KJHW 300956Z AUTO 17008KT 10SM OVC010 09/09 A2951 RMK AO2 SLP000 T00940089 PNO $,KJHW,2023-04-30T09:56:00Z,42.15,-79.27,9.4,8.9,170,8,,10.0,29.509842,1000.0,,TRUE,TRUE,TRUE,,,,,,OVC,1000,,,,,,,MVFR,,,,,,,,,,,,METAR,520.0
KJAC 300956Z AUTO 03004KT 10SM CLR M01/M04 A3015 RMK AO2 SLP191 T10111044 FZRANO,KJAC,2023-04-30T09:56:00Z,43.62,-110.73,-1.1,-4.4,30,4,,10.0,30.15059,1019.1,,TRUE,TRUE,,,,TRUE,,,CLR,,,,,,,,VFR,,,,,,,,,,,,METAR,1967.0
KIWD 300956Z AUTO 32007KT 1 1/4SM -SN OVC008 A2947 RMK AO2 SLPNO P0001 FZRANO,KIWD,2023-04-30T09:56:00Z,46.52,-90.12,,,320,7,,1.25,29.471457,,,TRUE,TRUE,,,,TRUE,,-SN,OVC,800,,,,,,,IFR,,,,,,0.01,,,,,,METAR,373.0
KITH 300956Z 15012KT 10SM SCT070 09/08 A2962 RMK AO2 RAE05 SLP031 P0000 T00940083,KITH,2023-04-30T09:56:00Z,42.48,-76.45,9.4,8.3,150,12,,10.0,29.619095,1003.1,,,TRUE,,,,,,,SCT,7000,,,,,,,VFR,,,,,,0.005,,,,,,METAR,338.0
KISP 300956Z 03008KT 1/8SM R06/5500VP6000FT BR VV002 11/11 A2969 RMK AO2 SFC VIS 3/4 SLP055 T01060106,KISP,2023-04-30T09:56:00Z,40.8,-73.1,10.6,10.6,30,8,,0.13,29.68996,1005.5,,,TRUE,,,,,,BR,OVX,0,,,,,,,LIFR,,,,,,,,,,,200,METAR,25.0
KISM 300956Z AUTO 20009KT 8SM +RA BKN021 BKN027 OVC037 23/21 A2962 RMK AO2 LTG DSNT S AND SW RAE27B54 SLP031 T02280211 PNO $,KISM,2023-04-30T09:56:00Z,28.28,-81.43,22.8,21.1,200,9,,8.0,29.619095,1003.1,,TRUE,TRUE,TRUE,,,,,+RA,BKN,2100,BKN,2700,OVC,3700,,,MVFR,,,,,,,,,,,,METAR,25.0
KINW 300956Z AUTO 11004KT 10SM CLR 08/M10 A3008 RMK AO2 SLP134 T00781100,KINW,2023-04-30T09:56:00Z,35.03,-110.72,7.8,-10.0,110,4,,10.0,30.079725,1013.4,,TRUE,TRUE,,,,,,,CLR,,,,,,,,VFR,,,,,,,,,,,,METAR,1492.0
KILE 300956Z AUTO 25006KT 10SM CLR 13/05 A2991 RMK AO2 SLP123 T01280050,KILE,2023-04-30T09:56:00Z,31.08,-97.68,12.8,5.0,250,6,,10.0,29.911417,1012.3,,TRUE,TRUE,,,,,,,CLR,,,,,,,,VFR,,,,,,,,,,,,METAR,256.0
KHYS 300956Z AUTO 33008KT 10SM BKN110 09/M02 A2998 RMK AO2 SLP146 T00941022 $,KHYS,2023-04-30T09:56:00Z,38.85,-99.27,9.4,-2.2,330,8,,10.0,29.97933,1014.6,,TRUE,TRUE,TRUE,,,,,,BKN,11000,,,,,,,VFR,,,,,,,,,,,,METAR,607.0
KHYI 300956Z AUTO 30005KT 10SM CLR 10/07 A2996 RMK AO2 SLP138 T01000072,KHYI,2023-04-30T09:56:00Z,29.88,-97.87,10.0,7.2,300,5,,10.0,29.958662,1013.8,,TRUE,TRUE,,,,,,,CLR,,,,,,,,VFR,,,,,,,,,,,,METAR,180.0
KHYA 300956Z 13007G18KT 5SM BR OVC006 09/09 A2979 RMK AO2 RAE46 SLP088 P0009 T00940094,KHYA,2023-04-30T09:56:00Z,41.67,-70.27,9.4,9.4,130,7,18,5.0,29.790354,1008.8,,,TRUE,,,,,,BR,OVC,600,,,,,,,IFR,,,,,,0.09,,,,,,METAR,11.0
KHWV 300956Z AUTO 00000KT 1/2SM FG VV002 11/11 A2970 RMK AO2 SLP058 T01110106,KHWV,2023-04-30T09:56:00Z,40.82,-72.87,11.1,10.6,0,0,,0.5,29.698818,1005.8,,TRUE,TRUE,,,,,,FG,OVX,0,,,,,,,LIFR,,,,,,,,,,,200,SPECI,20.0
KHPN 300956Z 07004KT 1/2SM R16/3000V4000FT -DZ FG OVC001 10/10 A2970 RMK AO2 SLP059 P0000 T01000100,KHPN,2023-04-30T09:56:00Z,41.07,-73.7,10.0,10.0,70,4,,0.5,29.698818,1005.9,,,TRUE,,,,,,-DZ FG,OVC,100,,,,,,,LIFR,,,,,,0.005,,,,,,METAR,113.0
KHND 300956Z AUTO 26007KT 10SM CLR 22/M09 A2990 RMK AO2 SLP113 T02221089,KHND,2023-04-30T09:56:00Z,35.98,-115.13,22.2,-8.9,260,7,,10.0,29.899607,1011.3,,TRUE,TRUE,,,,,,,CLR,,,,,,,,VFR,,,,,,,,,,,,METAR,740.0
KHNB 300956Z AUTO 31008KT 10SM BKN020 07/05 A2960 RMK AO2 SLP022 T00720050,KHNB,2023-04-30T09:56:00Z,38.25,-86.95,7.2,5.0,310,8,,10.0,29.601377,1002.2,,TRUE,TRUE,,,,,,,BKN,2000,,,,,,,MVFR,,,,,,,,,,,,METAR,159.0
KHEZ 300956Z AUTO 27003KT 10SM CLR 11/11 A2981 RMK AO2 SLP095 T01110106,KHEZ,2023-04-30T09:56:00Z,31.62,-91.3,11.1,10.6,270,3,,10.0,29.811024,1009.5,,TRUE,TRUE,,,,,,,CLR,,,,,,,,VFR,,,,,,,,,,,,METAR,82.0
KHEF 300956Z AUTO 00000KT 10SM OVC006 16/15 A2955 RMK AO2 SLP010 T01560150,KHEF,2023-04-30T09:56:00Z,38.72,-77.52,15.6,15.0,0,0,,10.0,29.551182,1001.0,,TRUE,TRUE,,,,,,,OVC,600,,,,,,,IFR,,,,,,,,,,,,METAR,53.0
KHDN 300956Z AUTO 11007KT 10SM CLR 03/M03 A3013 RMK AO2 SLP162 T00281028,KHDN,2023-04-30T09:56:00Z,40.48,-107.22,2.8,-2.8,110,7,,10.0,30.129921,1016.2,,TRUE,TRUE,,,,,,,CLR,,,,,,,,VFR,,,,,,,,,,,,METAR,2012.0
KGXY 300956Z AUTO 35006KT 10SM CLR 04/01 A3010 RMK AO2 SLP178 T00440011,KGXY,2023-04-30T09:56:00Z,40.43,-104.62,4.4,1.1,350,6,,10.0,30.100393,1017.8,,TRUE,TRUE,,,,,,,CLR,,,,,,,,VFR,,,,,,,,,,,,METAR,1420.0
KGVQ 300956Z AUTO 12005KT 10SM CLR 09/08 A2954 RMK AO2 SLP002 T00890078,KGVQ,2023-04-30T09:56:00Z,43.03,-78.17,8.9,7.8,120,5,,10.0,29.53937,1000.2,,TRUE,TRUE,,,,,,,CLR,,,,,,,,VFR,,,,,,,,,,,,METAR,279.0
KGUC 300956Z AUTO 00000KT 10SM CLR M02/M03 A3021 RMK AO2 SLP189 T10171028 FZRANO,KGUC,2023-04-30T09:56:00Z,38.52,-106.93,-1.7,-2.8,0,0,,10.0,30.209646,1018.9,,TRUE,TRUE,,,,TRUE,,,CLR,,,,,,,,VFR,,,,,,,,,,,,METAR,2337.0
KGTU 300956Z AUTO 00000KT 10SM CLR 11/06 A2995 RMK AO2 SLP139 T01060061,KGTU,2023-04-30T09:56:00Z,30.68,-97.68,10.6,6.1,0,0,,10.0,29.949802,1013.9,,TRUE,TRUE,,,,,,,CLR,,,,,,,,VFR,,,,,,,,,,,,METAR,232.0
KGTR 300956Z AUTO 28004KT 10SM CLR 13/13 A2967 RMK AO2 SLP053 T01330128,KGTR,2023-04-30T09:56:00Z,33.45,-88.58,13.3,12.8,280,4,,10.0,29.66929,1005.3,,TRUE,TRUE,,,,,,,CLR,,,,,,,,VFR,,,,,,,,,,,,METAR,80.0
KGRD 300956Z AUTO 29005KT 9SM BKN060 BKN080 OVC090 14/14 A2948 RMK AO2 RAE18 SLP979 P0001 T01440139,KGRD,2023-04-30T09:56:00Z,34.25,-82.15,14.4,13.9,290,5,,9.0,29.480314,997.9,,TRUE,TRUE,,,,,,,BKN,6000,BKN,8000,OVC,9000,,,VFR,,,,,,0.01,,,,,,METAR,188.0
KGPZ 300956Z AUTO 35019G24KT 9SM -SN OVC014 01/M01 A2971 RMK AO2 RAB16E31 SLP074 P0000 T00111006 FZRANO,KGPZ,2023-04-30T09:56:00Z,47.22,-93.52,1.1,-0.6,350,19,24,9.0,29.71063,1007.4,,TRUE,TRUE,,,,TRUE,,-SN,OVC,1400,,,,,,,MVFR,,,,,,0.005,,,,,,METAR,410.0
KGON 300956Z AUTO 06008KT 2 1/2SM BR OVC005 13/11 A2973 RMK AO2 SLP067 T01330111,KGON,2023-04-30T09:56:00Z,41.33,-72.05,13.3,11.1,60,8,,2.5,29.731298,1006.7,,TRUE,TRUE,,,,,,BR,OVC,500,,,,,,,IFR,,,,,,,,,,,,METAR,2.0
KGNR 300956Z AUTO 12014G19KT 04/03 A2999 RMK AO1 SLP165 P0006 T00390028,KGNR,2023-04-30T09:56:00Z,45.47,-69.55,3.9,2.8,120,14,19,,29.991142,1016.5,,TRUE,TRUE,,,,,,,,,,,,,,,,,,,,,0.06,,,,,,SPECI,426.0
KGNA 300956Z AUTO 01016G38KT 03/M01 A2945 RMK AO1 PK WND 36038/0952 SLP981 T00331006,KGNA,2023-04-30T09:56:00Z,47.75,-90.35,3.3,-0.6,10,16,38,,29.450787,998.1,,TRUE,TRUE,,,,,,,,,,,,,,,,,,,,,,,,,,,METAR,186.0
KGDV 300956Z AUTO 34006KT 10SM CLR M01/M05 A3015 RMK AO2 SLP222 T10061050 FZRANO TSNO,KGDV,2023-04-30T09:56:00Z,47.13,-104.8,-0.6,-5.0,340,6,,10.0,30.15059,1022.2,,TRUE,TRUE,,,TRUE,TRUE,,,CLR,,,,,,,,VFR,,,,,,,,,,,,METAR,749.0
KGBD 300956Z AUTO 33007KT 10SM BKN110 08/01 A2997 RMK AO2 SLP141 T00830011,KGBD,2023-04-30T09:56:00Z,38.35,-98.87,8.3,1.1,330,7,,10.0,29.970472,1014.1,,TRUE,TRUE,,,,,,,BKN,11000,,,,,,,VFR,,,,,,,,,,,,METAR,573.0
KGAI 300956Z AUTO 00000KT 10SM OVC006 15/14 A2956 RMK AO2 LTG DSNT N SLP022 T01500144,KGAI,2023-04-30T09:56:00Z,39.17,-77.17,15.0,14.4,0,0,,10.0,29.56004,1002.2,,TRUE,TRUE,,,,,,,OVC,600,,,,,,,IFR,,,,,,,,,,,,METAR,151.0
KGAD 300956Z AUTO 30004KT 10SM SCT022 BKN046 OVC065 16/16 A2955 RMK AO2 RAE51 SLP007 T01610161 PNO $,KGAD,2023-04-30T09:56:00Z,33.97,-86.08,16.1,16.1,300,4,,10.0,29.551182,1000.7,,TRUE,TRUE,TRUE,,,,,,SCT,2200,BKN,4600,OVC,6500,,,VFR,,,,,,,,,,,,METAR,169.0
KFSD 300956Z 34023G32KT 10SM OVC020 06/01 A2986 RMK AO2 PK WND 33032/0948 SLP116 T00560006,KFSD,2023-04-30T09:56:00Z,43.58,-96.75,5.6,0.6,340,23,32,10.0,29.861221,1011.6,,,TRUE,,,,,,,OVC,2000,,,,,,,MVFR,,,,,,,,,,,,METAR,433.0
KFRM 300956Z AUTO 32020G26KT 10SM CLR 03/00 A2970 RMK AO2 PK WND 33027/0915 SLP068 T00330000,KFRM,2023-04-30T09:56:00Z,43.63,-94.42,3.3,0.0,320,20,26,10.0,29.698818,1006.8,,TRUE,TRUE,,,,,,,CLR,,,,,,,,VFR,,,,,,,,,,,,METAR,353.0
KFOD 300956Z AUTO 31007KT 10SM CLR 03/02 A2971 RMK AO2 SLP081 T00280017,KFOD,2023-04-30T09:56:00Z,42.53,-94.17,2.8,1.7,310,7,,10.0,29.71063,1008.1,,TRUE,TRUE,,,,,,,CLR,,,,,,,,VFR,,,,,,,,,,,,METAR,347.0
KFNL 300956Z 00000KT 10SM CLR 07/02 A3010 RMK AO2 SLP150 T00720022,KFNL,2023-04-30T09:56:00Z,40.45,-105.02,7.2,2.2,0,0,,10.0,30.100393,1015.0,,,TRUE,,,,,,,CLR,,,,,,,,VFR,,,,,,,,,,,,METAR,1529.0
KFLP 300956Z AUTO 26003KT 10SM CLR 06/03 A2977 RMK AO2 SLP079 T00610028,KFLP,2023-04-30T09:56:00Z,36.28,-92.58,6.1,2.8,260,3,,10.0,29.769686,1007.9,,TRUE,TRUE,,,,,,,CLR,,,,,,,,VFR,,,,,,,,,,,,METAR,215.0
KFKL 300956Z AUTO 15007KT 10SM SCT049 BKN075 OVC110 09/09 A2951 RMK AO2 SLP993 T00940094,KFKL,2023-04-30T09:56:00Z,41.37,-79.87,9.4,9.4,150,7,,10.0,29.509842,999.3,,TRUE,TRUE,,,,,,,SCT,4900,BKN,7500,OVC,11000,,,VFR,,,,,,,,,,,,METAR,468.0
KFCI 300956Z AUTO 16003KT 10SM SCT080 OVC100 16/16 RMK AO2 LTG DSNT E AND NW RAB05E52 SLPNO P0016 T01610161 $,KFCI,2023-04-30T09:56:00Z,37.4,-77.52,16.1,16.1,160,3,,10.0,,,,TRUE,TRUE,TRUE,,,,,,SCT,8000,OVC,10000,,,,,VFR,,,,,,0.16,,,,,,METAR,63.0
KFAM 300956Z AUTO 26004KT 10SM CLR 06/03 A2968 RMK AO2 SLP059 T00560033,KFAM,2023-04-30T09:56:00Z,37.77,-90.42,5.6,3.3,260,4,,10.0,29.681103,1005.9,,TRUE,TRUE,,,,,,,CLR,,,,,,,,VFR,,,,,,,,,,,,METAR,276.0
KEWK 300956Z AUTO 32008KT 10SM CLR 07/01 A2990 RMK AO2 SLP118 T00670011,KEWK,2023-04-30T09:56:00Z,38.05,-97.27,6.7,1.1,320,8,,10.0,29.899607,1011.8,,TRUE,TRUE,,,,,,,CLR,,,,,,,,VFR,,,,,,,,,,,,METAR,468.0
KEUL 300956Z AUTO 11004KT 10SM CLR 11/06 A2987 RMK AO2 SLP101 T01060056,KEUL,2023-04-30T09:56:00Z,43.63,-116.62,10.6,5.6,110,4,,10.0,29.870079,1010.1,,TRUE,TRUE,,,,,,,CLR,,,,,,,,VFR,,,,,,,,,,,,METAR,741.0
KESC 300956Z AUTO 07006KT 10SM OVC003 04/04 A2930 RMK AO2 SLP929 T00390039,KESC,2023-04-30T09:56:00Z,45.72,-87.08,3.9,3.9,70,6,,10.0,29.300198,992.9,,TRUE,TRUE,,,,,,,OVC,300,,,,,,,LIFR,,,,,,,,,,,,METAR,180.0
KENV 300956Z AUTO 00000KT 10SM CLR 11/M02 A3000 RMK AO2 SLP135 T01061022,KENV,2023-04-30T09:56:00Z,40.72,-114.02,10.6,-2.2,0,0,,10.0,30.0,1013.5,,TRUE,TRUE,,,,,,,CLR,,,,,,,,VFR,,,,,,,,,,,,METAR,1291.0
KELZ 300956Z AUTO 15009G17KT 10SM OVC006 11/08 A2956 RMK AO2 SLP013 T01060083,KELZ,2023-04-30T09:56:00Z,42.1,-77.98,10.6,8.3,150,9,17,10.0,29.56004,1001.3,,TRUE,TRUE,,,,,,,OVC,600,,,,,,,IFR,,,,,,,,,,,,METAR,639.0
KEKY 300956Z AUTO 30007KT 10SM OVC007 A2961 RMK AO2 RAE09 CIG 004V009 SLPNO P0000 FZRANO $,KEKY,2023-04-30T09:56:00Z,33.32,-86.93,,,300,7,,10.0,29.610237,,,TRUE,TRUE,TRUE,,,TRUE,,,OVC,700,,,,,,,IFR,,,,,,0.005,,,,,,METAR,213.0
KEKQ 300956Z AUTO 00000KT 10SM CLR 11/11 A2955 RMK AO2 SLP000 T01110106,KEKQ,2023-04-30T09:56:00Z,36.85,-84.85,11.1,10.6,0,0,,10.0,29.551182,1000.0,,TRUE,TRUE,,,,,,,CLR,,,,,,,,VFR,,,,,,,,,,,,METAR,291.0
KEKO 300956Z AUTO 03007KT 10SM CLR 08/00 A3003 RMK AO2 SLP125 T00780000 $,KEKO,2023-04-30T09:56:00Z,40.82,-115.78,7.8,0.0,30,7,,10.0,30.029528,1012.5,,TRUE,TRUE,TRUE,,,,,,CLR,,,,,,,,VFR,,,,,,,,,,,,METAR,1541.0
KEHR 300956Z AUTO 31009KT 10SM CLR 08/05 A2962 RMK AO2 SLP031 T00780050,KEHR,2023-04-30T09:56:00Z,37.82,-87.67,7.8,5.0,310,9,,10.0,29.619095,1003.1,,TRUE,TRUE,,,,,,,CLR,,,,,,,,VFR,,,,,,,,,,,,METAR,117.0
KEGE 300956Z AUTO 15003KT 10SM CLR 02/M03 A3017 RMK AO2 SLP122 T00221028 FZRANO,KEGE,2023-04-30T09:56:00Z,39.63,-106.92,2.2,-2.8,150,3,,10.0,30.171259,1012.2,,TRUE,TRUE,,,,TRUE,,,CLR,,,,,,,,VFR,,,,,,,,,,,,METAR,1993.0
KEEN 300956Z AUTO VRB05KT 10SM OVC015 08/06 RMK AO2 RAB34E49 SLPNO P0000 T00830061 $,KEEN,2023-04-30T09:56:00Z,42.88,-72.27,8.3,6.1,0,5,,10.0,,,,TRUE,TRUE,TRUE,,,,,,OVC,1500,,,,,,,MVFR,,,,,,0.005,,,,,,METAR,143.0
KEED 300956Z AUTO 31004KT 10SM CLR 22/M07 A2980 RMK AO2 SLP061 T02171067,KEED,2023-04-30T09:56:00Z,34.77,-114.62,21.7,-6.7,310,4,,10.0,29.799213,1006.1,,TRUE,TRUE,,,,,,,CLR,,,,,,,,VFR,,,,,,,,,,,,METAR,271.0
KEAU 300956Z AUTO 31011KT 9SM -RA BKN014 OVC021 02/00 A2950 RMK AO2 SLP996 P0002 T00220000,KEAU,2023-04-30T09:56:00Z,44.87,-91.48,2.2,0.0,310,11,,9.0,29.500984,999.6,,TRUE,TRUE,,,,,,-RA,BKN,1400,OVC,2100,,,,,MVFR,,,,,,0.02,,,,,,METAR,271.0
KEAR 300956Z AUTO 30008KT 10SM CLR 02/M04 A3000 RMK AO2 SLP159 T00171039 FZRANO,KEAR,2023-04-30T09:56:00Z,40.72,-99.0,1.7,-3.9,300,8,,10.0,30.0,1015.9,,TRUE,TRUE,,,,TRUE,,,CLR,,,,,,,,VFR,,,,,,,,,,,,METAR,649.0
KDYR 300956Z AUTO 34008KT 10SM CLR 10/08 A2969 RMK AO2 SLP059 T01000078,KDYR,2023-04-30T09:56:00Z,36.0,-89.4,10.0,7.8,340,8,,10.0,29.68996,1005.9,,TRUE,TRUE,,,,,,,CLR,,,,,,,,VFR,,,,,,,,,,,,METAR,98.0
KDWU 300956Z AUTO 14003KT 10SM OVC029 12/ A2950 RMK AO2 RAE05 SLP987 P0000 T0122,KDWU,2023-04-30T09:56:00Z,38.55,-82.73,12.2,,140,3,,10.0,29.500984,998.7,,TRUE,TRUE,,,,,,,OVC,2900,,,,,,,MVFR,,,,,,0.005,,,,,,METAR,165.0
KDVL 300956Z AUTO 34013KT 10SM CLR 01/M01 A3004 RMK AO2 SLP199 T00111006 FZRANO,KDVL,2023-04-30T09:56:00Z,48.12,-98.92,1.1,-0.6,340,13,,10.0,30.041338,1019.9,,TRUE,TRUE,,,,TRUE,,,CLR,,,,,,,,VFR,,,,,,,,,,,,METAR,439.0
KDUG 300956Z AUTO 35003KT 10SM CLR 09/M10 A3003 RMK AO2 SLP111 T00941100 TSNO,KDUG,2023-04-30T09:56:00Z,31.47,-109.6,9.4,-10.0,350,3,,10.0,30.029528,1011.1,,TRUE,TRUE,,,TRUE,,,,CLR,,,,,,,,VFR,,,,,,,,,,,,SPECI,1260.0
KDIK 300956Z AUTO 29007KT 10SM CLR M03/M04 A3011 RMK AO2 SLP212 T10281044,KDIK,2023-04-30T09:56:00Z,46.8,-102.8,-2.8,-4.4,290,7,,10.0,30.109253,1021.2,,TRUE,TRUE,,,,,,,CLR,,,,,,,,VFR,,,,,,,,,,,,METAR,788.0
KDIJ 300956Z AUTO 27003KT 10SM CLR 04/M04 A3012 RMK AO2 SLP166 T00441039,KDIJ,2023-04-30T09:56:00Z,43.75,-111.1,4.4,-3.9,270,3,,10.0,30.121063,1016.6,,TRUE,TRUE,,,,,,,CLR,,,,,,,,VFR,,,,,,,,,,,,METAR,1896.0
KDAY 300956Z 31013KT 10SM -RA SCT010 BKN030 OVC050 07/04 A2949 RMK AO2 PK WND 29032/0910 WSHFT 0855 SLP984 P0018 T00720044 VISNO RWY 6L $,KDAY,2023-04-30T09:56:00Z,39.9,-84.22,7.2,4.4,310,13,,10.0,29.489174,998.4,,,TRUE,TRUE,,,,,-RA,SCT,1000,BKN,3000,OVC,5000,,,MVFR,,,,,,0.18,,,,,,METAR,303.0
KD07 300956Z AUTO 33006KT M01/M04 A3010 RMK AO1 SLP207 T10061044,KD07,2023-04-30T09:56:00Z,45.03,-102.02,-0.6,-4.4,330,6,,,30.100393,1020.7,,TRUE,TRUE,,,,,,,,,,,,,,,,,,,,,,,,,,,SPECI,786.0
KCXY 300956Z AUTO VRB03KT 2 1/2SM BR OVC004 13/12 A2962 RMK AO2 SLP030 T01280117,KCXY,2023-04-30T09:56:00Z,40.22,-76.85,12.8,11.7,0,3,,2.5,29.619095,1003.0,,TRUE,TRUE,,,,,,BR,OVC,400,,,,,,,LIFR,,,,,,,,,,,,METAR,102.0
KCWI 300956Z AUTO 29011KT 10SM BKN100 04/02 A2953 RMK AO2 SLP005 T00390022,KCWI,2023-04-30T09:56:00Z,41.82,-90.32,3.9,2.2,290,11,,10.0,29.530512,1000.5,,TRUE,TRUE,,,,,,,BKN,10000,,,,,,,VFR,,,,,,,,,,,,METAR,212.0
KCVO 300956Z AUTO 00000KT 10SM OVC034 09/07 A2999 RMK AO2 SLP156 T00890072,KCVO,2023-04-30T09:56:00Z,44.5,-123.28,8.9,7.2,0,0,,10.0,29.991142,1015.6,,TRUE,TRUE,,,,,,,OVC,3400,,,,,,,VFR,,,,,,,,,,,,METAR,75.0
KCVN 300956Z AUTO 00000KT 10SM CLR 06/M06 A3001 RMK AO2 SLP140 T00561061,KCVN,2023-04-30T09:56:00Z,34.42,-103.07,5.6,-6.1,0,0,,10.0,30.008858,1014.0,,TRUE,TRUE,,,,,,,CLR,,,,,,,,VFR,,,,,,,,,,,,METAR,1278.0
KCTB 300956Z AUTO 09008KT 10SM CLR 04/M01 A3000 RMK AO2 SLP151 T00441011,KCTB,2023-04-30T09:56:00Z,48.6,-112.37,4.4,-1.1,90,8,,10.0,30.0,1015.1,,TRUE,TRUE,,,,,,,CLR,,,,,,,,VFR,,,,,,,,,,,,METAR,1172.0
KCOE 300956Z AUTO 08008KT 10SM CLR 11/05 A2988 RMK AO2 SLP123 T01060050 PNO $,KCOE,2023-04-30T09:56:00Z,47.77,-116.82,10.6,5.0,80,8,,10.0,29.878937,1012.3,,TRUE,TRUE,TRUE,,,,,,CLR,,,,,,,,VFR,,,,,,,,,,,,METAR,693.0
KCOD 300956Z AUTO 20004KT 10SM CLR 05/M01 A3008 RMK AO2 SLP158 T00501011,KCOD,2023-04-30T09:56:00Z,44.52,-109.02,5.0,-1.1,200,4,,10.0,30.079725,1015.8,,TRUE,TRUE,,,,,,,CLR,,,,,,,,VFR,,,,,,,,,,,,METAR,1550.0
KCKC 300956Z AUTO 33017G24KT 3SM -SN BKN014 BKN023 BKN080 M01/M02 A2946 RMK AO2,KCKC,2023-04-30T09:56:00Z,47.83,-90.38,-1.0,-2.0,330,17,24,3.0,29.459646,,,TRUE,TRUE,,,,,,-SN,BKN,1400,BKN,2300,BKN,8000,,,MVFR,,,,,,,,,,,,METAR,544.0
KCIU 300956Z AUTO 19004KT 10SM -RA OVC005 04/04 A2934 RMK AO2 CIG 003V008 SLP939 P0000 T00440039,KCIU,2023-04-30T09:56:00Z,46.25,-84.47,4.4,3.9,190,4,,10.0,29.338583,993.9,,TRUE,TRUE,,,,,,-RA,OVC,500,,,,,,,IFR,,,,,,0.005,,,,,,METAR,242.0
KCHS 300956Z 20008KT 10SM FEW009 FEW027 22/19 A2945 RMK AO2 SLP971 T02170194,KCHS,2023-04-30T09:56:00Z,32.9,-80.03,21.7,19.4,200,8,,10.0,29.450787,997.1,,,TRUE,,,,,,,FEW,900,FEW,2700,,,,,VFR,,,,,,,,,,,,SPECI,12.0
KCGZ 300956Z AUTO 05005KT 10SM CLR 17/M04 A2985 RMK AO2 SLP095 T01671044 PNO $,KCGZ,2023-04-30T09:56:00Z,32.95,-111.77,16.7,-4.4,50,5,,10.0,29.84941,1009.5,,TRUE,TRUE,TRUE,,,,,,CLR,,,,,,,,VFR,,,,,,,,,,,,METAR,444.0
KCEC 300956Z AUTO 16005KT 2 1/2SM BR OVC004 10/09 A3004 RMK AO2 SLP172 T01000089,KCEC,2023-04-30T09:56:00Z,41.78,-124.23,10.0,8.9,160,5,,2.5,30.041338,1017.2,,TRUE,TRUE,,,,,,BR,OVC,400,,,,,,,LIFR,,,,,,,,,,,,METAR,17.0
KCAE 300956Z 36003KT 10SM OVC004 17/16 A2944 RMK AO2 RAB11E22 SLP967 P0000 T01670161 $,KCAE,2023-04-30T09:56:00Z,33.93,-81.12,16.7,16.1,360,3,,10.0,29.438976,996.7,,,TRUE,TRUE,,,,,,OVC,400,,,,,,,LIFR,,,,,,0.005,,,,,,METAR,69.0
KBZN 300956Z AUTO 18003KT 10SM CLR 04/01 A3005 RMK AO2 SLP157 T00440011,KBZN,2023-04-30T09:56:00Z,45.78,-111.17,4.4,1.1,180,3,,10.0,30.050198,1015.7,,TRUE,TRUE,,,,,,,CLR,,,,,,,,VFR,,,,,,,,,,,,METAR,1349.0
KBVX 300956Z AUTO 32003KT 10SM CLR 09/03 A2977 RMK AO2 SLP079 T00940028,KBVX,2023-04-30T09:56:00Z,35.73,-91.65,9.4,2.8,320,3,,10.0,29.769686,1007.9,,TRUE,TRUE,,,,,,,CLR,,,,,,,,VFR,,,,,,,,,,,,METAR,137.0
KBTP 300956Z AUTO 14004KT 9SM -RA SCT050 OVC065 11/10 A2951 RMK AO2 RAB06 SLP999 P0001 T01060100 TSNO $,KBTP,2023-04-30T09:56:00Z,40.77,-79.95,10.6,10.0,140,4,,9.0,29.509842,999.9,,TRUE,TRUE,TRUE,,TRUE,,,-RA,SCT,5000,OVC,6500,,,,,VFR,,,,,,0.01,,,,,,METAR,375.0
KBMI 300956Z AUTO 25009KT 10SM CLR 04/03 A2956 RMK AO2 SLP008 T00390033,KBMI,2023-04-30T09:56:00Z,40.47,-88.92,3.9,3.3,250,9,,10.0,29.56004,1000.8,,TRUE,TRUE,,,,,,,CLR,,,,,,,,VFR,,,,,,,,,,,,METAR,262.0
KBLM 300956Z AUTO 06006KT 1/2SM -RA OVC002 A2971 RMK AO2 RAB15 SLPNO P0001 FZRANO RVRNO $,KBLM,2023-04-30T09:56:00Z,40.17,-74.12,,,60,6,,0.5,29.71063,,,TRUE,TRUE,TRUE,,,TRUE,,-RA,OVC,200,,,,,,,LIFR,,,,,,0.01,,,,,,METAR,45.0
KBKX 300956Z AUTO 35018G22KT 10SM OVC016 03/01 A2986 RMK AO2 PK WND 34026/0859 SLP134 T00330011,KBKX,2023-04-30T09:56:00Z,44.3,-96.82,3.3,1.1,350,18,22,10.0,29.861221,1013.4,,TRUE,TRUE,,,,,,,OVC,1600,,,,,,,MVFR,,,,,,,,,,,,METAR,494.0
KBJJ 300956Z AUTO 17004KT 10SM FEW010 BKN015 OVC027 10/09 A2946 RMK AO2 RAB01E12 SLP973 P0000 T01000094,KBJJ,2023-04-30T09:56:00Z,40.87,-81.88,10.0,9.4,170,4,,10.0,29.459646,997.3,,TRUE,TRUE,,,,,,,FEW,1000,BKN,1500,OVC,2700,,,MVFR,,,,,,0.005,,,,,,METAR,338.0
KBIH 300956Z AUTO 00000KT 10SM CLR 11/04 A2999 RMK AO2 SLP110 T01060039,KBIH,2023-04-30T09:56:00Z,37.37,-118.35,10.6,3.9,0,0,,10.0,29.991142,1011.0,,TRUE,TRUE,,,,,,,CLR,,,,,,,,VFR,,,,,,,,,,,,METAR,1252.0
KBID 300956Z AUTO 08004KT 1/4SM -RA FG OVC003 10/10 A2975 RMK AO2 RAE13B30 SLP074 P0000 T01000100,KBID,2023-04-30T09:56:00Z,41.17,-71.58,10.0,10.0,80,4,,0.25,29.749016,1007.4,,TRUE,TRUE,,,,,,-RA FG,OVC,300,,,,,,,LIFR,,,,,,0.005,,,,,,METAR,32.0
KBHB 300956Z AUTO 11009G15KT 10SM OVC014 06/03 A3009 RMK AO2 SLP192 T00610033,KBHB,2023-04-30T09:56:00Z,44.45,-68.37,6.1,3.3,110,9,15,10.0,30.088583,1019.2,,TRUE,TRUE,,,,,,,OVC,1400,,,,,,,MVFR,,,,,,,,,,,,METAR,21.0
KAWO 300956Z AUTO 00000KT 8SM CLR 07/07 A2990 RMK AO2 SLP129 T00720067,KAWO,2023-04-30T09:56:00Z,48.17,-122.17,7.2,6.7,0,0,,8.0,29.899607,1012.9,,TRUE,TRUE,,,,,,,CLR,,,,,,,,VFR,,,,,,,,,,,,METAR,38.0
KASH 300956Z AUTO 07009G16KT 8SM -RA OVC008 08/08 A2987 RMK AO2 SLP121 P0001 T00780078,KASH,2023-04-30T09:56:00Z,42.78,-71.52,7.8,7.8,70,9,16,8.0,29.870079,1012.1,,TRUE,TRUE,,,,,,-RA,OVC,800,,,,,,,IFR,,,,,,0.01,,,,,,METAR,56.0
KART 300956Z AUTO 14007G15KT 10SM BKN065 11/07 A2961 RMK AO2 SLP027 T01110072,KART,2023-04-30T09:56:00Z,43.98,-76.03,11.1,7.2,140,7,15,10.0,29.610237,1002.7,,TRUE,TRUE,,,,,,,BKN,6500,,,,,,,VFR,,,,,,,,,,,,SPECI,100.0
KARG 300956Z AUTO 30009KT 10SM CLR 09/05 A2974 RMK AO2 SLP071 T00940050,KARG,2023-04-30T09:56:00Z,36.12,-90.92,9.4,5.0,300,9,,10.0,29.740158,1007.1,,TRUE,TRUE,,,,,,,CLR,,,,,,,,VFR,,,,,,,,,,,,METAR,82.0
KAPS 300956Z AUTO 29009KT 10SM CLR 14/12 A2983 RMK AO2,KAPS,2023-04-30T09:56:00Z,30.08,-90.58,14.0,12.0,290,9,,10.0,29.828741,,,TRUE,TRUE,,,,,,,CLR,,,,,,,,VFR,,,,,,,,,,,,METAR,1.0
KAND 300956Z AUTO 14004KT 8SM -RA FEW008 SCT055 OVC100 16/16 A2948 RMK AO2 SLP977 P0009 T01560156,KAND,2023-04-30T09:56:00Z,34.5,-82.72,15.6,15.6,140,4,,8.0,29.480314,997.7,,TRUE,TRUE,,,,,,-RA,FEW,800,SCT,5500,OVC,10000,,,VFR,,,,,,0.09,,,,,,METAR,233.0
KALK 300956Z AUTO 23005KT 10SM CLR 18/M08 A3008 RMK AO2 SLP089 T01781078,KALK,2023-04-30T09:56:00Z,31.6,-110.43,17.8,-7.8,230,5,,10.0,30.079725,1008.9,,TRUE,TRUE,,,,,,,CLR,,,,,,,,VFR,,,,,,,,,,,,SPECI,1451.0
KAIZ 300956Z AUTO 28004KT 10SM CLR 06/03 RMK AO2 SLPNO T00610028 $,KAIZ,2023-04-30T09:56:00Z,38.1,-92.53,6.1,2.8,280,4,,10.0,,,,TRUE,TRUE,TRUE,,,,,,CLR,,,,,,,,VFR,,,,,,,,,,,,METAR,263.0
KAFJ 300956Z AUTO 00000KT 10SM -RA OVC060 11/11 A2951 RMK AO2 RAB02 SLP991 P0001 T01110106,KAFJ,2023-04-30T09:56:00Z,40.13,-80.28,11.1,10.6,0,0,,10.0,29.509842,999.1,,TRUE,TRUE,,,,,,-RA,OVC,6000,,,,,,,VFR,,,,,,0.01,,,,,,METAR,360.0
KADF 300956Z AUTO 11003KT 10SM CLR 09/09 A2982 RMK AO2 SLP096 T00890089,KADF,2023-04-30T09:56:00Z,34.1,-93.07,8.9,8.9,110,3,,10.0,29.819881,1009.6,,TRUE,TRUE,,,,,,,CLR,,,,,,,,VFR,,,,,,,,,,,,METAR,54.0
KADC 300956Z AUTO 34014G19KT 10SM CLR 03/M03 A2978 RMK AO2 TSNO,KADC,2023-04-30T09:56:00Z,46.45,-95.22,3.0,-3.0,340,14,19,10.0,29.778543,,,TRUE,TRUE,,,TRUE,,,,CLR,,,,,,,,VFR,,,,,,,,,,,,METAR,416.0
K8D3 300956Z AUTO 32014KT 03/01 A2990 RMK AO1 SLP132 T00330006,K8D3,2023-04-30T09:56:00Z,45.67,-96.98,3.3,0.6,320,14,,,29.899607,1013.2,,TRUE,TRUE,,,,,,,,,,,,,,,,,,,,,,,,,,,SPECI,535.0
K79J 300956Z AUTO 28010KT 10SM FEW010 OVC080 16/13 A2962 RMK AO2 RAB27E29 SLP028 P0000 T01610128 $,K79J,2023-04-30T09:56:00Z,31.32,-86.4,16.1,12.8,280,10,,10.0,29.619095,1002.8,,TRUE,TRUE,TRUE,,,,,,FEW,1000,OVC,8000,,,,,VFR,,,,,,0.005,,,,,,SPECI,93.0
K2WX 300956Z AUTO 23003KT 01/M06 A3011 RMK AO1 SLP203 T00111061,K2WX,2023-04-30T09:56:00Z,45.6,-103.55,1.1,-6.1,230,3,,,30.109253,1020.3,,TRUE,TRUE,,,,,,,,,,,,,,,,,,,,,,,,,,,SPECI,925.0
K1M4 300956Z AUTO 32006KT 10SM CLR 13/13 A2963 RMK AO2 SLP025 T01280128,K1M4,2023-04-30T09:56:00Z,34.28,-87.6,12.8,12.8,320,6,,10.0,29.630905,1002.5,,TRUE,TRUE,,,,,,,CLR,,,,,,,,VFR,,,,,,,,,,,,METAR,283.0
TXKF 300955Z 21007KT 9999 BKN015 BKN300 21/20 Q1015 ,TXKF,2023-04-30T09:55:00Z,32.37,-64.68,21.0,20.0,210,7,,6.21,29.970472,,,,,,,,,,,BKN,1500,BKN,30000,,,,,MVFR,,,,,,,,,,,,METAR,4.0
TNCE 300955Z AUTO 07005KT 020V110 //// // ///////// 26/23 Q1015 RE//,TNCE,2023-04-30T09:55:00Z,17.48,-62.97,26.0,23.0,70,5,,,29.970472,,,TRUE,,,,,,,,,,,,,,,,,,,,,,,,,,,,METAR,38.0
TNCB 300955Z AUTO 10010KT 070V140 9999 +DZRA SCT011/// BKN016/// BKN019/// 27/25 Q1012,TNCB,2023-04-30T09:55:00Z,12.13,-68.28,27.0,25.0,100,10,,6.21,29.88189,,,TRUE,,,,,,,+DZ +RA,SCT,1100,BKN,1600,BKN,1900,,,MVFR,,,,,,,,,,,,METAR,6.0
TJPS 300955Z AUTO 00000KT 10SM FEW021 25/21 A2998 RMK AO2 TSNO,TJPS,2023-04-30T09:55:00Z,18.02,-66.57,25.0,21.0,0,0,,10.0,29.97933,,,TRUE,TRUE,,,TRUE,,,,FEW,2100,,,,,,,VFR,,,,,,,,,,,,SPECI,12.0
RODN 300955Z 36008KT 10SM OVC018 22/18 A2987 RMK AO2A SLP121 T02180184 $,RODN,2023-04-30T09:55:00Z,26.35,127.77,21.8,18.4,360,8,,10.0,29.870079,1012.1,,,TRUE,TRUE,,,,,,OVC,1800,,,,,,,MVFR,,,,,,,,,,,,SPECI,38.0
RKJK 300955Z AUTO 22016KT 6SM HZ CLR 15/08 A2984 RMK AO2 SLP109 T01460076 $,RKJK,2023-04-30T09:55:00Z,35.9,126.62,14.6,7.6,220,16,,6.0,29.840551,1010.9,,TRUE,TRUE,TRUE,,,,,HZ,CLR,,,,,,,,VFR,,,,,,,,,,,,SPECI,8.0
RJTY 300955Z AUTO 03005KT 10SM OVC029 20/17 A2971 RMK AO2 OVC V BKN SLP063 T01970173,RJTY,2023-04-30T09:55:00Z,35.75,139.33,19.7,17.3,30,5,,10.0,29.71063,1006.3,,TRUE,TRUE,,,,,,,OVC,2900,,,,,,,MVFR,,,,,,,,,,,,SPECI,136.0
PWAK 300955Z AUTO 05019KT 10SM FEW020 SCT055 25/21 A3003 RMK AO2 RAB0859E09RAB33E43 SLP175 P0000 T02510214,PWAK,2023-04-30T09:55:00Z,19.28,166.62,25.1,21.4,50,19,,10.0,30.029528,1017.5,,TRUE,TRUE,,,,,,,FEW,2000,SCT,5500,,,,,VFR,,,,,,0.005,,,,,,SPECI,7.0
PTYA 300955Z 10007KT 12SM FEW016 BKN130 OVC300 27/25 A2976 RMK SLP078 T02740253,PTYA,2023-04-30T09:55:00Z,9.48,138.08,27.4,25.3,100,7,,12.0,29.760826,1007.8,,,,,,,,,,FEW,1600,BKN,13000,OVC,30000,,,VFR,,,,,,,,,,,,SPECI,4.0
PHSF 300955Z AUTO 11008KT 10SM CLR 08/08 A3038 RMK AO2 SLP179 T00840075 402110079 $,PHSF,2023-04-30T09:55:00Z,19.77,-155.55,8.4,7.5,110,8,,10.0,30.380905,1017.9,,TRUE,TRUE,TRUE,,,,,,CLR,,,,,,,,VFR,,,,21.1,7.9,,,,,,,SPECI,1863.0
PHHI 300955Z AUTO 00000KT 10SM CLR 21/16 A3014 RMK AO2 SLP197 T02120164 402620176 $,PHHI,2023-04-30T09:55:00Z,21.48,-158.05,21.2,16.4,0,0,,10.0,30.138779,1019.7,,TRUE,TRUE,TRUE,,,,,,CLR,,,,,,,,VFR,,,,26.2,17.6,,,,,,,SPECI,246.0
PGUA 300955Z AUTO 08013KT 10SM BKN012 BKN023 26/23 A2988 RMK AO2 CIG 012V024 BKN012 V SCT CIG 011 RWY24L SLP109 T02590231 $,PGUA,2023-04-30T09:55:00Z,13.57,144.92,25.9,23.1,80,13,,10.0,29.878937,1010.9,,TRUE,TRUE,TRUE,,,,,,BKN,1200,BKN,2300,,,,,MVFR,,,,,,,,,,,,SPECI,159.0
PATL 300955Z AUTO 00000KT 10SM FEW190 04/M06 A2978 RMK AO2 SLP093 T00401057 TSNO $,PATL,2023-04-30T09:55:00Z,62.9,-155.97,4.0,-5.7,0,0,,10.0,29.778543,1009.3,,TRUE,TRUE,TRUE,,TRUE,,,,FEW,19000,,,,,,,VFR,,,,,,,,,,,,METAR,261.0
PATC 300955Z AUTO 04015KT 2 1/2SM -SN BR FEW014 OVC031 M05/M06 A2984 RMK AO2 SNB0855 SLP112 P0000 T10481057,PATC,2023-04-30T09:55:00Z,65.57,-167.92,-4.8,-5.7,40,15,,2.5,29.840551,1011.2,,TRUE,TRUE,,,,,,-SN BR,FEW,1400,OVC,3100,,,,,IFR,,,,,,0.005,,,,,,METAR,77.0
PASV 300955Z AUTO 00000KT 10SM CLR 01/M07 A2973 RMK AO2 SLP084 T00091075,PASV,2023-04-30T09:55:00Z,61.1,-155.57,0.9,-7.5,0,0,,10.0,29.731298,1008.4,,TRUE,TRUE,,,,,,,CLR,,,,,,,,VFR,,,,,,,,,,,,METAR,462.0
PALU 300955Z AUTO 12005KT 10SM BKN047 M04/M05 A2997 RMK AO2 SLP149 T10361051,PALU,2023-04-30T09:55:00Z,68.88,-166.1,-3.6,-5.1,120,5,,10.0,29.970472,1014.9,,TRUE,TRUE,,,,,,,BKN,4700,,,,,,,VFR,,,,,,,,,,,,METAR,8.0
PAKX 300955Z AUTO 00000KT 10SM CLR M01/M04 A2977 RMK AO2,PAKX,2023-04-30T09:55:00Z,60.2,-154.32,-1.0,-4.0,0,0,,10.0,29.769686,,,TRUE,TRUE,,,,,,,CLR,,,,,,,,VFR,,,,,,,,,,,,METAR,88.0
PAIM 300955Z AUTO 22001G10KT 10SM CLR 02/M04 A2982 RMK AO2 SLP110 T00221043,PAIM,2023-04-30T09:55:00Z,66.0,-153.7,2.2,-4.3,220,1,10,10.0,29.819881,1011.0,,TRUE,TRUE,,,,,,,CLR,,,,,,,,VFR,,,,,,,,,,,,METAR,309.0
PAEI 300955Z 34001KT 10SM BKN036 BKN055 OVC080 04/00 A2974 RMK SLPNO AO2A WND DATA ESTMD ALSTG/SLP ESTMD,PAEI,2023-04-30T09:55:00Z,64.67,-147.1,4.0,0.0,340,1,,10.0,29.740158,,,,TRUE,,,,,,,BKN,3600,BKN,5500,OVC,8000,,,VFR,,,,,,,,,,,,METAR,166.0
PAEH 300955Z AUTO 05022G31KT 010V120 10SM BKN017 03/00 A2953 RMK AO2 PK WND 05036/0917 SLP006 T00331002,PAEH,2023-04-30T09:55:00Z,58.65,-162.07,3.3,-0.2,50,22,31,10.0,29.530512,1000.6,,TRUE,TRUE,,,,,,,BKN,1700,,,,,,,MVFR,,,,,,,,,,,,METAR,101.0
PACZ 300955Z AUTO 10014G23KT 10SM -SHRA OVC075 02/M02 A2967 RMK AO2 SHRAB0855E0857B0941SHRASNB0857E0900 SLP054 P0000 T00231022,PACZ,2023-04-30T09:55:00Z,61.78,-166.03,2.3,-2.2,100,14,23,10.0,29.66929,1005.4,,TRUE,TRUE,,,,,,-SHRA,OVC,7500,,,,,,,VFR,,,,,,0.005,,,,,,METAR,129.0
PAAD 300955Z AUTO 09018KT 7SM OVC004 M14/M16 A3010 RMK AO2 T11411156 PWINO,PAAD,2023-04-30T09:55:00Z,70.13,-146.28,-14.1,-15.6,90,18,,7.0,30.100393,,,TRUE,TRUE,,,,,TRUE,,OVC,400,,,,,,,LIFR,,,,,,,,,,,,METAR,8.0
OPLA 300955Z 24011KT 5000 HZ SCT100 32/16 Q1006 TEMPO 21020G40KT RMK QFE980 A29.72,OPLA,2023-04-30T09:55:00Z,31.52,74.4,32.0,16.0,240,11,,3.11,29.704725,,,,,,,,,,HZ,SCT,10000,,,,,,,MVFR,,,-2.0,,,,,,,,,METAR,217.0
OPKC 300955Z 24010KT 6000 SCT030 31/17 Q1005 TEMPO 1000 TSRA FEW025CB,OPKC,2023-04-30T09:55:00Z,24.9,67.13,31.0,17.0,240,10,,3.73,29.675198,,,,,,,,,,,SCT,3000,,,,,,,MVFR,,,,,,,,,,,,METAR,20.0
OPFA 300955Z 18006KT 4000 HZ FEW040 SCT100 32/15 Q1006 NOSIG,OPFA,2023-04-30T09:55:00Z,31.37,73.0,32.0,15.0,180,6,,2.49,29.704725,,,,,,TRUE,,,,HZ,FEW,4000,SCT,10000,,,,,IFR,,,,,,,,,,,,METAR,180.0
OKAS 300955Z 08010KT 8000 DU CLR 37/08 A2971 RMK AO2A SLP055 T03650075 FZRANO $,OKAS,2023-04-30T09:55:00Z,29.35,47.52,36.5,7.5,80,10,,4.97,29.71063,1005.5,,,TRUE,TRUE,,,TRUE,,DU,CLR,,,,,,,,MVFR,,,,,,,,,,,,METAR,144.0
OEPS 300955Z 16005G13KT 9999 CLR 36/07 A2984 RMK AO2A LTG DSNT SE SLP084 WND DATA ESTMD T03600066,OEPS,2023-04-30T09:55:00Z,24.07,47.58,36.0,6.6,160,5,13,6.21,29.840551,1008.4,,,TRUE,,,,,,,CLR,,,,,,,,VFR,,,,,,,,,,,,SPECI,503.0
NZCM 300955Z AUTO 00000KT 9999 CLR M21/M25 A2902 RMK AO2 SLP835 T12131252,NZCM,2023-04-30T09:55:00Z,-77.85,166.67,-21.3,-25.2,0,0,,6.21,29.019686,983.5,,TRUE,TRUE,,,,,,,CLR,,,,,,,,VFR,,,,,,,,,,,,SPECI,24.0
NSTU 300955Z 12011KT 10SM SCT021 29/26 A2990 RMK SLP124 T02850262,NSTU,2023-04-30T09:55:00Z,-14.33,-170.72,28.5,26.2,120,11,,10.0,29.899607,1012.4,,,,,,,,,,SCT,2100,,,,,,,VFR,,,,,,,,,,,,SPECI,8.0
LIVT 300955Z AUTO 07009KT 360V120 //// 21/09 Q1015,LIVT,2023-04-30T09:55:00Z,45.68,13.75,21.0,9.0,70,9,,,29.970472,,,TRUE,,,,,,,,,,,,,,,,,,,,,,,,,,,,SPECI,20.0
LIVR 300955Z 14009KT 9999 OVC010 05/03 Q1019,LIVR,2023-04-30T09:55:00Z,46.28,11.78,5.0,3.0,140,9,,6.21,30.088583,,,,,,,,,,,OVC,1000,,,,,,,MVFR,,,,,,,,,,,,METAR,1997.0
LIVP 300955Z 14011KT 0900 FG VV/// 04/03 Q1019,LIVP,2023-04-30T09:55:00Z,46.15,11.03,4.0,3.0,140,11,,0.56,30.088583,,,,,,,,,,FG,OVX,0,,,,,,,LIFR,,,,,,,,,,,,METAR,2099.0
LIVM 300955Z AUTO /////KT //// ///// Q////,LIVM,2023-04-30T09:55:00Z,44.45,12.3,,,,,,,,,,TRUE,,,,,,,,,,,,,,,,,,,,,,,,,,,,SPECI,6.0
LIVF 300955Z 06004KT 9999 BKN027 15/11 Q1014,LIVF,2023-04-30T09:55:00Z,43.52,12.72,15.0,11.0,60,4,,6.21,29.940945,,,,,,,,,,,BKN,2700,,,,,,,MVFR,,,,,,,,,,,,METAR,549.0
LIVD 300955Z AUTO 09009KT //// 15/08 Q1019,LIVD,2023-04-30T09:55:00Z,46.72,12.22,15.0,8.0,90,9,,,30.088583,,,TRUE,,,,,,,,,,,,,,,,,,,,,,,,,,,,SPECI,1221.0
LIVC 300955Z AUTO /////KT //// ///// Q////,LIVC,2023-04-30T09:55:00Z,44.2,10.68,,,,,,,,,,TRUE,,,,,,,,,,,,,,,,,,,,,,,,,,,,SPECI,2139.0
LIRX 300955Z 00000KT 9999 FEW006 16/14 Q1010,LIRX,2023-04-30T09:55:00Z,42.73,10.38,16.0,14.0,0,0,,6.21,29.822834,,,,,,,,,,,FEW,600,,,,,,,VFR,,,,,,,,,,,,METAR,397.0
LIRV 300955Z 01003KT 9999 SCT024 19/14 Q1012,LIRV,2023-04-30T09:55:00Z,42.42,12.07,19.0,14.0,10,3,,6.21,29.88189,,,,,,,,,,,SCT,2400,,,,,,,VFR,,,,,,,,,,,,METAR,294.0
LIRS 300955Z VRB02KT 9999 FEW026 20/16 Q1012,LIRS,2023-04-30T09:55:00Z,42.75,11.07,20.0,16.0,0,2,,6.21,29.88189,,,,,,,,,,,FEW,2600,,,,,,,VFR,,,,,,,,,,,,METAR,3.0
LIRM 300955Z 02010KT 9999 SCT060 21/11 Q1012,LIRM,2023-04-30T09:55:00Z,41.05,14.07,21.0,11.0,20,10,,6.21,29.88189,,,,,,,,,,,SCT,6000,,,,,,,VFR,,,,,,,,,,,,METAR,6.0
LIRK 300955Z AUTO /////KT //// 06/05 Q1019,LIRK,2023-04-30T09:55:00Z,42.47,12.97,6.0,5.0,,,,,30.088583,,,TRUE,,,,,,,,,,,,,,,,,,,,,,,,,,,,SPECI,1721.0
LIRE 300955Z 21006KT CAVOK 20/16 Q1012,LIRE,2023-04-30T09:55:00Z,41.65,12.43,20.0,16.0,210,6,,6.21,29.88189,,,,,,,,,,,CAVOK,,,,,,,,VFR,,,,,,,,,,,,METAR,16.0
LIPS 300955Z 09006KT CAVOK 20/12 Q1016,LIPS,2023-04-30T09:55:00Z,45.68,12.1,20.0,12.0,90,6,,6.21,30.0,,,,,,,,,,,CAVOK,,,,,,,,VFR,,,,,,,,,,,,METAR,42.0
LIPL 300955Z 12012KT 9999 FEW030 SCT070 19/13 Q1015,LIPL,2023-04-30T09:55:00Z,45.42,10.27,19.0,13.0,120,12,,6.21,29.970472,,,,,,,,,,,FEW,3000,SCT,7000,,,,,VFR,,,,,,,,,,,,METAR,96.0
LIPI 300955Z 03005KT 9999 FEW040 BKN080 18/12 Q1016,LIPI,2023-04-30T09:55:00Z,45.97,13.05,18.0,12.0,30,5,,6.21,30.0,,,,,,,,,,,FEW,4000,BKN,8000,,,,,VFR,,,,,,,,,,,,METAR,49.0
LIPF 300955Z 15004KT 9999 SCT030 SCT040 21/15 Q1015,LIPF,2023-04-30T09:55:00Z,44.82,11.62,21.0,15.0,150,4,,6.21,29.970472,,,,,,,,,,,SCT,3000,SCT,4000,,,,,VFR,,,,,,,,,,,,METAR,5.0
LIPC 300955Z 08006KT 9999 SCT030 18/13 Q1016,LIPC,2023-04-30T09:55:00Z,44.22,12.3,18.0,13.0,80,6,,6.21,30.0,,,,,,,,,,,SCT,3000,,,,,,,VFR,,,,,,,,,,,,METAR,10.0
LIMU 300955Z 01007KT 9999 BKN025 17/13 Q1024,LIMU,2023-04-30T09:55:00Z,43.95,8.17,17.0,13.0,10,7,,6.21,30.236221,,,,,,,,,,,BKN,2500,,,,,,,MVFR,,,,,,,,,,,,METAR,215.0
LIMS 300955Z 11012KT 7000 SCT025 19/17 Q1014,LIMS,2023-04-30T09:55:00Z,44.92,9.72,19.0,17.0,110,12,,4.35,29.940945,,,,,,,,,,,SCT,2500,,,,,,,MVFR,,,,,,,,,,,,METAR,132.0
LIMK 300955Z 01011KT 0100 FG VV/// 12/12 Q1015,LIMK,2023-04-30T09:55:00Z,45.02,7.72,12.0,12.0,10,11,,0.06,29.970472,,,,,,,,,,FG,OVX,0,,,,,,,LIFR,,,,,,,,,,,,METAR,693.0
LIMH 300955Z AUTO VRB02KT //// M02/M03 Q1020,LIMH,2023-04-30T09:55:00Z,45.93,7.7,-2.0,-3.0,0,2,,,30.11811,,,TRUE,,,,,,,,,,,,,,,,,,,,,,,,,,,,SPECI,3473.0
LIED 300955Z 14007KT 6000 FEW020 SCT040 23/21 Q1009,LIED,2023-04-30T09:55:00Z,39.35,8.97,23.0,21.0,140,7,,3.73,29.793306,,,,,,,,,,,FEW,2000,SCT,4000,,,,,MVFR,,,,,,,,,,,,METAR,26.0
LICZ 300955Z /////KT 9999 SCT040 BKN090 20/10 Q1012,LICZ,2023-04-30T09:55:00Z,37.4,14.92,20.0,10.0,,,,6.21,29.88189,,,,,,,,,,,SCT,4000,BKN,9000,,,,,VFR,,,,,,,,,,,,SPECI,22.0
LICT 300955Z 13009KT 9999 -RA SCT025 19/17 Q1012,LICT,2023-04-30T09:55:00Z,37.92,12.5,19.0,17.0,130,9,,6.21,29.88189,,,,,,,,,,-RA,SCT,2500,,,,,,,VFR,,,,,,,,,,,,METAR,4.0
LIBV 300955Z VRB01KT 6000 SCT007 SCT020 14/13 Q1014,LIBV,2023-04-30T09:55:00Z,40.77,16.93,14.0,13.0,0,1,,3.73,29.940945,,,,,,,,,,,SCT,700,SCT,2000,,,,,MVFR,,,,,,,,,,,,METAR,344.0
LIBQ 300955Z AUTO VRB03KT //// 14/06 Q1017,LIBQ,2023-04-30T09:55:00Z,39.32,16.38,14.0,6.0,0,3,,,30.029528,,,TRUE,,,,,,,,,,,,,,,,,,,,,,,,,,,,SPECI,1660.0
LIBN 300955Z 00002KT 9999 SCT035 16/14 Q1015,LIBN,2023-04-30T09:55:00Z,40.23,18.13,16.0,14.0,0,2,,6.21,29.970472,,,,,,,,,,,SCT,3500,,,,,,,VFR,,,,,,,,,,,,METAR,46.0
LIBA 300955Z 08005KT 7000 SCT010 BKN030 BKN060 16/14 Q1015,LIBA,2023-04-30T09:55:00Z,41.53,15.72,16.0,14.0,80,5,,4.35,29.970472,,,,,,,,,,,SCT,1000,BKN,3000,BKN,6000,,,MVFR,,,,,,,,,,,,METAR,55.0
KZPH 300955Z AUTO 21024G35KT 3 1/2SM +RA BR SCT008 BKN017 OVC022 23/22 A2963 RMK A02 LTG DSNT S P0002 T02320216,KZPH,2023-04-30T09:55:00Z,28.23,-82.15,23.2,21.6,210,24,35,3.5,29.630905,,,TRUE,TRUE,,,,,,+RA BR,SCT,800,BKN,1700,OVC,2200,,,MVFR,,,,,,0.02,,,,,,METAR,26.0
KZER 300955Z AUTO 12015G20KT 1 1/4SM -RA OVC004 08/08 A2961 RMK AO2,KZER,2023-04-30T09:55:00Z,40.7,-76.37,8.0,8.0,120,15,20,1.25,29.610237,,,TRUE,TRUE,,,,,,-RA,OVC,400,,,,,,,LIFR,,,,,,,,,,,,METAR,518.0
KY70 300955Z AUTO 23007KT 10SM OVC039 05/05 A2942 RMK AO2 T00530046 P0002,KY70,2023-04-30T09:55:00Z,42.93,-85.07,5.3,4.6,230,7,,10.0,29.421259,,,TRUE,TRUE,,,,,,,OVC,3900,,,,,,,VFR,,,,,,0.02,,,,,,METAR,247.0
KY63 300955Z AUTO 33014KT 10SM CLR 01/01 A2984 RMK AO2 T00110011,KY63,2023-04-30T09:55:00Z,45.98,-96.0,1.1,1.1,330,14,,10.0,29.840551,,,TRUE,TRUE,,,,,,,CLR,,,,,,,,VFR,,,,,,,,,,,,METAR,367.0
KY51 300955Z AUTO 31013KT 10SM BKN015 OVC025 03/02 A2947 RMK AO1 T00250023,KY51,2023-04-30T09:55:00Z,43.58,-90.9,2.5,2.3,310,13,,10.0,29.471457,,,TRUE,TRUE,,,,,,,BKN,1500,OVC,2500,,,,,MVFR,,,,,,,,,,,,METAR,390.0
KY49 300955Z AUTO 35014G18KT 10SM SCT028 01/M03 A2978 RMK AO2 T00141033,KY49,2023-04-30T09:55:00Z,47.15,-94.65,1.4,-3.3,350,14,18,10.0,29.778543,,,TRUE,TRUE,,,,,,,SCT,2800,,,,,,,VFR,,,,,,,,,,,,METAR,413.0
KY31 300955Z AUTO 00000KT 10SM OVC004 04/03 A2938 RMK AO2 T00360032,KY31,2023-04-30T09:55:00Z,44.25,-84.18,3.6,3.2,0,0,,10.0,29.379921,,,TRUE,TRUE,,,,,,,OVC,400,,,,,,,LIFR,,,,,,,,,,,,METAR,264.0
KY23 300955Z AUTO 32004KT 4SM RA OVC006 02/02 A2952 RMK AO2 P0004 T00190019,KY23,2023-04-30T09:55:00Z,45.3,-91.63,1.9,1.9,320,4,,4.0,29.518702,,,TRUE,TRUE,,,,,,RA,OVC,600,,,,,,,IFR,,,,,,0.04,,,,,,METAR,322.0
KY19 300955Z AUTO 36011KT 10SM CLR M00/M00 A3009 RMK AO2,KY19,2023-04-30T09:55:00Z,46.77,-100.9,0.0,0.0,360,11,,10.0,30.088583,,,TRUE,TRUE,,,,,,,CLR,,,,,,,,VFR,,,,,,,,,,,,METAR,591.0
KXSA 300955Z AUTO 13003KT 5SM RA SCT004 BKN021 OVC025 16/16 A2954 RMK AO2 LTG DSNT NE THRU S P0003 T01620162,KXSA,2023-04-30T09:55:00Z,37.87,-76.9,16.2,16.2,130,3,,5.0,29.53937,,,TRUE,TRUE,,,,,,RA,SCT,400,BKN,2100,OVC,2500,,,MVFR,,,,,,0.03,,,,,,METAR,41.0
KXNX 300955Z AUTO 00000KT 7SM BKN013 BKN027 11/11 A2959 RMK A01,KXNX,2023-04-30T09:55:00Z,36.38,-86.42,11.0,11.0,0,0,,7.0,29.589567,,,TRUE,TRUE,,,,,,,BKN,1300,BKN,2700,,,,,MVFR,,,,,,,,,,,,METAR,178.0
KXNO 300955Z AUTO 21003KT 10SM -DZ OVC006 19/19 A2945 RMK AO2 SLP973 P0000 T01870187 $,KXNO,2023-04-30T09:55:00Z,33.62,-81.07,18.7,18.7,210,3,,10.0,29.450787,997.3,,TRUE,TRUE,TRUE,,,,,-DZ,OVC,600,,,,,,,IFR,,,,,,0.005,,,,,,METAR,94.0
KXMR 300955Z AUTO 20010KT 10SM FEW080 23/20 A2961 RMK AO2 SLP030 T02320203 $,KXMR,2023-04-30T09:55:00Z,28.47,-80.57,23.2,20.3,200,10,,10.0,29.610237,1003.0,,TRUE,TRUE,TRUE,,,,,,FEW,8000,,,,,,,VFR,,,,,,,,,,,,METAR,5.0
KXLL 300955Z AUTO 05009KT 1 3/4SM RA OVC003 10/10 A2970 RMK AO2 P0001,KXLL,2023-04-30T09:55:00Z,40.57,-75.48,10.0,10.0,50,9,,1.75,29.698818,,,TRUE,TRUE,,,,,,RA,OVC,300,,,,,,,LIFR,,,,,,0.01,,,,,,METAR,118.0
KX60 300955Z AUTO 5SM BR SCT009 OVC012 20/19 RMK AO2 P0002 PWINO TSNO T02040192,KX60,2023-04-30T09:55:00Z,29.35,-82.47,20.4,19.2,,,,5.0,,,,TRUE,TRUE,,,TRUE,,TRUE,BR,SCT,900,OVC,1200,,,,,MVFR,,,,,,0.02,,,,,,METAR,21.0
KX07 300955Z AUTO 27005KT 1 1/2SM BR SCT004 OVC022 21/21 A2964 RMK A01 P0002,KX07,2023-04-30T09:55:00Z,27.9,-81.62,21.0,21.0,270,5,,1.5,29.639763,,,TRUE,TRUE,,,,,,BR,SCT,400,OVC,2200,,,,,IFR,,,,,,0.02,,,,,,METAR,36.0
KWWR 300955Z AUTO 00000KT 10SM CLR 07/03 A2997 RMK AO2,KWWR,2023-04-30T09:55:00Z,36.45,-99.52,7.0,3.0,0,0,,10.0,29.970472,,,TRUE,TRUE,,,,,,,CLR,,,,,,,,VFR,,,,,,,,,,,,METAR,664.0
KWRB 300955Z 15004KT 10SM FEW005 FEW014 BKN095 17/17 A2944 RMK AO2A LTG DSNT N DZB12E16RAB16E40 SLP970 P0012 T01740174,KWRB,2023-04-30T09:55:00Z,32.63,-83.58,17.4,17.4,150,4,,10.0,29.438976,997.0,,,TRUE,,,,,,,FEW,500,FEW,1400,BKN,9500,,,VFR,,,,,,0.12,,,,,,METAR,82.0
KWDR 300955Z AUTO 00000KT 7SM -VCTSRA BKN003 OVC011 15/14 A2948 RMK AO2 LTG DSNT SE,KWDR,2023-04-30T09:55:00Z,33.98,-83.67,15.0,14.0,0,0,,7.0,29.480314,,,TRUE,TRUE,,,,,,VCTS -RA,BKN,300,OVC,1100,,,,,LIFR,,,,,,,,,,,,METAR,280.0
KWDG 300955Z AUTO 31003KT 10SM CLR 06/04 A2988 RMK AO2,KWDG,2023-04-30T09:55:00Z,36.37,-97.78,6.0,4.0,310,3,,10.0,29.878937,,,TRUE,TRUE,,,,,,,CLR,,,,,,,,VFR,,,,,,,,,,,,METAR,352.0
KWBF 300955Z AUTO VRB03KT 9SM FEW028 SCT035 OVC050 21/14 A2987 RMK A01,KWBF,2023-04-30T09:55:00Z,26.93,-90.5,21.0,14.0,0,3,,9.0,29.870079,,,TRUE,TRUE,,,,,,,FEW,2800,SCT,3500,OVC,5000,,,VFR,,,,,,,,,,,,METAR,40.0
KW96 300955Z AUTO 12005KT 4SM OVC003 16/16 A2952 RMK AO1 P0010 T01630163,KW96,2023-04-30T09:55:00Z,37.5,-77.12,16.3,16.3,120,5,,4.0,29.518702,,,TRUE,TRUE,,,,,,,OVC,300,,,,,,,LIFR,,,,,,0.1,,,,,,METAR,35.0
KW81 300955Z AUTO 00000KT 10SM OVC095 16/15 A2951 RMK AO1 T01600146,KW81,2023-04-30T09:55:00Z,37.18,-78.1,16.0,14.6,0,0,,10.0,29.509842,,,TRUE,TRUE,,,,,,,OVC,9500,,,,,,,VFR,,,,,,,,,,,,METAR,121.0
KW78 300955Z AUTO 00000KT 7SM BKN021 BKN030 OVC120 16/16 A2952 RMK AO1 T01620155,KW78,2023-04-30T09:55:00Z,36.7,-78.85,16.2,15.5,0,0,,7.0,29.518702,,,TRUE,TRUE,,,,,,,BKN,2100,BKN,3000,OVC,12000,,,MVFR,,,,,,,,,,,,METAR,120.0
KW75 300955Z AUTO 12005KT 10SM OVC004 16/16 A2954 RMK AO1 T01610155,KW75,2023-04-30T09:55:00Z,37.6,-76.45,16.1,15.5,120,5,,10.0,29.53937,,,TRUE,TRUE,,,,,,,OVC,400,,,,,,,LIFR,,,,,,,,,,,,METAR,8.0
KW63 300955Z AUTO 00000KT 7SM OVC100 17/17 A2951 RMK AO1,KW63,2023-04-30T09:55:00Z,36.6,-78.55,17.0,17.0,0,0,,7.0,29.509842,,,TRUE,TRUE,,,,,,,OVC,10000,,,,,,,VFR,,,,,,,,,,,,METAR,126.0
KW43 300955Z AUTO 00000KT 10SM CLR 03/M07 A3013 RMK AO2,KW43,2023-04-30T09:55:00Z,44.67,-104.57,3.0,-7.0,0,0,,10.0,30.129921,,,TRUE,TRUE,,,,,,,CLR,,,,,,,,VFR,,,,,,,,,,,,METAR,1292.0
KW31 300955Z AUTO 00000KT 7SM BKN070 OVC080 15/15 A2951 RMK AO1 T01530153,KW31,2023-04-30T09:55:00Z,36.95,-78.18,15.3,15.3,0,0,,7.0,29.509842,,,TRUE,TRUE,,,,,,,BKN,7000,OVC,8000,,,,,VFR,,,,,,,,,,,,METAR,159.0
KW22 300955Z AUTO 20004KT 10SM FEW060 BKN075 OVC100 11/11 A2949 RMK AO2,KW22,2023-04-30T09:55:00Z,39.0,-80.27,11.0,11.0,200,4,,10.0,29.489174,,,TRUE,TRUE,,,,,,,FEW,6000,BKN,7500,OVC,10000,,,VFR,,,,,,,,,,,,METAR,497.0
KW13 300955Z AUTO 00000KT 10SM SCT012 OVC070 15/15 A2954 RMK AO1 P0001 T01480147,KW13,2023-04-30T09:55:00Z,38.08,-78.95,14.8,14.7,0,0,,10.0,29.53937,,,TRUE,TRUE,,,,,,,SCT,1200,OVC,7000,,,,,VFR,,,,,,0.01,,,,,,METAR,440.0
KVYS 300955Z AUTO 26008KT 10SM SCT085 05/02 A2952 RMK AO2 T00510019,KVYS,2023-04-30T09:55:00Z,41.35,-89.15,5.1,1.9,260,8,,10.0,29.518702,,,TRUE,TRUE,,,,,,,SCT,8500,,,,,,,VFR,,,,,,,,,,,,METAR,198.0
KVWU 300955Z AUTO 35009G15KT 10SM CLR 03/M02 A2983 RMK AO2,KVWU,2023-04-30T09:55:00Z,48.15,-94.52,3.0,-2.0,350,9,15,10.0,29.828741,,,TRUE,TRUE,,,,,,,CLR,,,,,,,,VFR,,,,,,,,,,,,METAR,359.0
KVVV 300955Z AUTO 33016G21KT 10SM CLR 02/01 A2987 RMK AO2,KVVV,2023-04-30T09:55:00Z,45.3,-96.42,2.0,1.0,330,16,21,10.0,29.870079,,,TRUE,TRUE,,,,,,,CLR,,,,,,,,VFR,,,,,,,,,,,,METAR,334.0
KVTP 300955Z AUTO 27008KT 10SM CLR 03/M09 A3023 RMK AO2,KVTP,2023-04-30T09:55:00Z,37.5,-105.17,3.0,-9.0,270,8,,10.0,30.230314,,,TRUE,TRUE,,,,,,,CLR,,,,,,,,VFR,,,,,,,,,,,,METAR,3086.0
KVTI 300955Z AUTO 29008G15KT 10SM OVC085 06/02 A2958 RMK AO2 T00550023,KVTI,2023-04-30T09:55:00Z,42.22,-92.02,5.5,2.3,290,8,15,10.0,29.58071,,,TRUE,TRUE,,,,,,,OVC,8500,,,,,,,VFR,,,,,,,,,,,,METAR,256.0
KVQQ 300955Z AUTO 26011G23KT 1 3/4SM +RA SCT004 BKN020 OVC032 20/20 A2954 RMK AO2 LTG DSNT E AND SE VIS 1V4,KVQQ,2023-04-30T09:55:00Z,30.22,-81.88,20.0,20.0,260,11,23,1.75,29.53937,,,TRUE,TRUE,,,,,,+RA,SCT,400,BKN,2000,OVC,3200,,,IFR,,,,,,,,,,,,METAR,21.0
KVPS 300955Z AUTO 28008KT 10SM SCT011 15/14 A2965 RMK AO2 SLP047 T01520142 $,KVPS,2023-04-30T09:55:00Z,30.47,-86.52,15.2,14.2,280,8,,10.0,29.648623,1004.7,,TRUE,TRUE,TRUE,,,,,,SCT,1100,,,,,,,VFR,,,,,,,,,,,,METAR,21.0
KVPC 300955Z AUTO 00000KT 4SM -RA BR FEW045 SCT055 OVC070 15/14 A2951 RMK AO2,KVPC,2023-04-30T09:55:00Z,34.1,-84.85,15.0,14.0,0,0,,4.0,29.509842,,,TRUE,TRUE,,,,,,-RA BR,FEW,4500,SCT,5500,OVC,7000,,,MVFR,,,,,,,,,,,,METAR,234.0
KVOK 300955Z AUTO 28014KT 10SM -RA OVC009 02/01 A2942 RMK AO2 SLP972 P0002 T00200010,KVOK,2023-04-30T09:55:00Z,43.93,-90.27,2.0,1.0,280,14,,10.0,29.421259,997.2,,TRUE,TRUE,,,,,,-RA,OVC,900,,,,,,,IFR,,,,,,0.02,,,,,,METAR,278.0
KVOA 300955Z AUTO 30033KT 10SM SCT023 BKN032 BKN065 20/15 A2970 RMK A01,KVOA,2023-04-30T09:55:00Z,29.23,-87.78,20.0,15.0,300,33,,10.0,29.698818,,,TRUE,TRUE,,,,,,,SCT,2300,BKN,3200,BKN,6500,,,VFR,,,,,,,,,,,,METAR,53.0
KVNW 300955Z AUTO 25006KT 10SM -RA OVC026 06/05 A2950 RMK AO2 P0001,KVNW,2023-04-30T09:55:00Z,40.87,-84.62,6.0,5.0,250,6,,10.0,29.500984,,,TRUE,TRUE,,,,,,-RA,OVC,2600,,,,,,,MVFR,,,,,,0.01,,,,,,METAR,238.0
KVNC 300955Z AUTO 17011G21KT 6SM TS FEW035 BKN065 OVC075 22/21 A2970 RMK AO2 LTG DSNT ALQDS P0011,KVNC,2023-04-30T09:55:00Z,27.07,-82.43,22.0,21.0,170,11,21,6.0,29.698818,,,TRUE,TRUE,,,,,,TS,FEW,3500,BKN,6500,OVC,7500,,,VFR,,,,,,0.11,,,,,,METAR,4.0
KVLL 300955Z AUTO 00000KT 10SM BKN070 OVC080 07/05 A2944 RMK AO2 T00660051,KVLL,2023-04-30T09:55:00Z,42.55,-83.18,6.6,5.1,0,0,,10.0,29.438976,,,TRUE,TRUE,,,,,,,BKN,7000,OVC,8000,,,,,VFR,,,,,,,,,,,,METAR,214.0
KVKY 300955Z AUTO 31028KT 10SM FEW024 BKN033 BKN041 A2974 RMK A01,KVKY,2023-04-30T09:55:00Z,29.25,-88.43,,,310,28,,10.0,29.740158,,,TRUE,TRUE,,,,,,,FEW,2400,BKN,3300,BKN,4100,,,VFR,,,,,,,,,,,,METAR,32.0
KVKS 300955Z AUTO 00000KT 10SM CLR 12/12 A2977 RMK A01,KVKS,2023-04-30T09:55:00Z,32.23,-90.93,12.0,12.0,0,0,,10.0,29.769686,,,TRUE,TRUE,,,,,,,CLR,,,,,,,,VFR,,,,,,,,,,,,METAR,31.0
KVJI 300955Z AUTO 00000KT 7SM DZ OVC070 13/12 A2953 RMK AO2 P0002 T01250124,KVJI,2023-04-30T09:55:00Z,36.68,-82.03,12.5,12.4,0,0,,7.0,29.530512,,,TRUE,TRUE,,,,,,DZ,OVC,7000,,,,,,,VFR,,,,,,0.02,,,,,,METAR,636.0
KVHN 300955Z AUTO 24009KT 10SM CLR 12/M07 A3011 RMK AO2 T01211075,KVHN,2023-04-30T09:55:00Z,31.07,-104.78,12.1,-7.5,240,9,,10.0,30.109253,,,TRUE,TRUE,,,,,,,CLR,,,,,,,,VFR,,,,,,,,,,,,METAR,1200.0
KVGC 300955Z AUTO 15008KT 10SM DZ SCT065 SCT075 08/07 A2966 RMK AO2,KVGC,2023-04-30T09:55:00Z,42.85,-75.57,8.0,7.0,150,8,,10.0,29.660433,,,TRUE,TRUE,,,,,,DZ,SCT,6500,SCT,7500,,,,,VFR,,,,,,,,,,,,METAR,346.0
KVER 300955Z AUTO 27006KT 10SM CLR 08/04 A2971 RMK AO2 T00770041,KVER,2023-04-30T09:55:00Z,38.95,-92.68,7.7,4.1,270,6,,10.0,29.71063,,,TRUE,TRUE,,,,,,,CLR,,,,,,,,VFR,,,,,,,,,,,,METAR,209.0
KVDI 300955Z AUTO 21006KT 10SM -RA BKN006 BKN034 OVC100 20/18 A2948 RMK AO2 LTG DSNT NW,KVDI,2023-04-30T09:55:00Z,32.2,-82.37,20.0,18.0,210,6,,10.0,29.480314,,,TRUE,TRUE,,,,,,-RA,BKN,600,BKN,3400,OVC,10000,,,IFR,,,,,,,,,,,,METAR,81.0
KVDF 300955Z AUTO 23015G27KT 7SM SCT017 BKN027 OVC032 26/23 A2963 RMK AO2,KVDF,2023-04-30T09:55:00Z,28.02,-82.33,26.0,23.0,230,15,27,7.0,29.630905,,,TRUE,TRUE,,,,,,,SCT,1700,BKN,2700,OVC,3200,,,MVFR,,,,,,,,,,,,METAR,5.0
KVCV 300955Z AUTO 16005KT 10SM CLR 16/02 A2999 RMK AO2,KVCV,2023-04-30T09:55:00Z,34.58,-117.38,16.0,2.0,160,5,,10.0,29.991142,,,TRUE,TRUE,,,,,,,CLR,,,,,,,,VFR,,,,,,,,,,,,METAR,871.0
KVBW 300955Z AUTO 00000KT 10SM OVC070 14/14 A2952 RMK AO1 P0003 T01360136,KVBW,2023-04-30T09:55:00Z,38.37,-78.97,13.6,13.6,0,0,,10.0,29.518702,,,TRUE,TRUE,,,,,,,OVC,7000,,,,,,,VFR,,,,,,0.03,,,,,,METAR,362.0
KVBG 300955Z AUTO 33008KT 1/2SM R30/2600V3500FT FG VV000 10/10 A2998 RMK AO2 SLP155 T00950095 TSNO $,KVBG,2023-04-30T09:55:00Z,34.73,-120.58,9.5,9.5,330,8,,0.5,29.97933,1015.5,,TRUE,TRUE,TRUE,,TRUE,,,FG,OVX,0,,,,,,,LIFR,,,,,,,,,,,0,METAR,96.0
KVAF 300955Z AUTO 00000KT 10SM CLR 22/09 A2995 RMK A01,KVAF,2023-04-30T09:55:00Z,27.35,-94.63,22.0,9.0,0,0,,10.0,29.949802,,,TRUE,TRUE,,,,,,,CLR,,,,,,,,VFR,,,,,,,,,,,,METAR,38.0
KUYF 300955Z AUTO 20004KT 1 1/4SM BR OVC002 08/07 A2944 RMK AO2,KUYF,2023-04-30T09:55:00Z,39.93,-83.47,8.0,7.0,200,4,,1.25,29.438976,,,TRUE,TRUE,,,,,,BR,OVC,200,,,,,,,LIFR,,,,,,,,,,,,METAR,326.0
KUXL 300955Z AUTO 27003KT 10SM CLR 12/11 A2989 RMK AO2 T01150106,KUXL,2023-04-30T09:55:00Z,30.13,-93.38,11.5,10.6,270,3,,10.0,29.890747,,,TRUE,TRUE,,,,,,,CLR,,,,,,,,VFR,,,,,,,,,,,,METAR,2.0
KUVA 300955Z AUTO 00000KT 10SM CLR 11/03 A3001 RMK AO2 T01070027,KUVA,2023-04-30T09:55:00Z,29.22,-99.75,10.7,2.7,0,0,,10.0,30.008858,,,TRUE,TRUE,,,,,,,CLR,,,,,,,,VFR,,,,,,,,,,,,METAR,285.0
KUUV 300955Z AUTO 25005KT 10SM CLR 04/03 A2970 RMK AO2,KUUV,2023-04-30T09:55:00Z,38.23,-91.17,4.0,3.0,250,5,,10.0,29.698818,,,TRUE,TRUE,,,,,,,CLR,,,,,,,,VFR,,,,,,,,,,,,METAR,284.0
KUTA 300955Z AUTO 30008KT 10SM CLR 12/10 A2970 RMK AO2 T01240103 $,KUTA,2023-04-30T09:55:00Z,34.68,-90.35,12.4,10.3,300,8,,10.0,29.698818,,,TRUE,TRUE,TRUE,,,,,,CLR,,,,,,,,VFR,,,,,,,,,,,,METAR,58.0
KUSE 300955Z AUTO 26008G15KT 7SM -RA FEW015 BKN027 OVC032 07/07 A2945 RMK AO2,KUSE,2023-04-30T09:55:00Z,41.62,-84.13,7.0,7.0,260,8,15,7.0,29.450787,,,TRUE,TRUE,,,,,,-RA,FEW,1500,BKN,2700,OVC,3200,,,MVFR,,,,,,,,,,,,METAR,237.0
KUOX 300955Z AUTO 30006KT 10SM CLR 12/10 A2969 RMK AO2,KUOX,2023-04-30T09:55:00Z,34.38,-89.53,12.0,10.0,300,6,,10.0,29.68996,,,TRUE,TRUE,,,,,,,CLR,,,,,,,,VFR,,,,,,,,,,,,METAR,123.0
KUNU 300955Z AUTO 29009KT 5SM DZ OVC013 03/02 A2941 RMK AO2 T00250016,KUNU,2023-04-30T09:55:00Z,43.42,-88.7,2.5,1.6,290,9,,5.0,29.409449,,,TRUE,TRUE,,,,,,DZ,OVC,1300,,,,,,,MVFR,,,,,,,,,,,,METAR,281.0
KUNI 300955Z AUTO 16005KT 10SM BKN070 OVC085 12/10 A2948 RMK AO2 T01150102,KUNI,2023-04-30T09:55:00Z,39.22,-82.23,11.5,10.2,160,5,,10.0,29.480314,,,TRUE,TRUE,,,,,,,BKN,7000,OVC,8500,,,,,VFR,,,,,,,,,,,,SPECI,232.0
KUMP 300955Z AUTO 26003KT 10SM CLR 06/06 A2954 RMK AO2 T00550055,KUMP,2023-04-30T09:55:00Z,39.93,-86.05,5.5,5.5,260,3,,10.0,29.53937,,,TRUE,TRUE,,,,,,,CLR,,,,,,,,VFR,,,,,,,,,,,,METAR,247.0
KULM 300955Z AUTO 32018G24KT 10SM CLR 03/M01 A2971 RMK AO2,KULM,2023-04-30T09:55:00Z,44.32,-94.5,3.0,-1.0,320,18,24,10.0,29.71063,,,TRUE,TRUE,,,,,,,CLR,,,,,,,,VFR,,,,,,,,,,,,METAR,305.0
KUKT 300955Z AUTO 06006KT 2SM BR OVC003 10/10 A2968 RMK A01,KUKT,2023-04-30T09:55:00Z,40.43,-75.38,10.0,10.0,60,6,,2.0,29.681103,,,TRUE,TRUE,,,,,,BR,OVC,300,,,,,,,LIFR,,,,,,,,,,,,METAR,156.0
KUKL 300955Z AUTO 30008KT 10SM CLR 05/01 A2986 RMK AO2 T00510012,KUKL,2023-04-30T09:55:00Z,38.3,-95.73,5.1,1.2,300,8,,10.0,29.861221,,,TRUE,TRUE,,,,,,,CLR,,,,,,,,VFR,,,,,,,,,,,,METAR,357.0
KUES 300955Z AUTO 26013G18KT 10SM SCT015 BKN022 OVC027 03/01 A2941 RMK AO2,KUES,2023-04-30T09:55:00Z,43.05,-88.25,3.0,1.0,260,13,18,10.0,29.409449,,,TRUE,TRUE,,,,,,,SCT,1500,BKN,2200,OVC,2700,,,MVFR,,,,,,,,,,,,METAR,273.0
KUCY 300955Z AUTO 33008KT 10SM BKN050 BKN060 09/07 A2965 RMK A01,KUCY,2023-04-30T09:55:00Z,36.38,-88.98,9.0,7.0,330,8,,10.0,29.648623,,,TRUE,TRUE,,,,,,,BKN,5000,BKN,6000,,,,,VFR,,,,,,,,,,,,METAR,97.0
KUBE 300955Z AUTO 33015G20KT 1 3/4SM -SN OVC008 01/01 A2953 RMK AO2,KUBE,2023-04-30T09:55:00Z,45.5,-91.98,1.0,1.0,330,15,20,1.75,29.530512,,,TRUE,TRUE,,,,,,-SN,OVC,800,,,,,,,IFR,,,,,,,,,,,,METAR,376.0
KU69 300955Z AUTO 27012KT 10SM CLR 08/M04 A3011 RMK A01,KU69,2023-04-30T09:55:00Z,40.2,-110.38,8.0,-4.0,270,12,,10.0,30.109253,,,TRUE,TRUE,,,,,,,CLR,,,,,,,,VFR,,,,,,,,,,,,METAR,1776.0
KU68 300955Z AUTO 25004KT 10SM CLR 06/M01 A3003 RMK AO2,KU68,2023-04-30T09:55:00Z,44.92,-108.45,6.0,-1.0,250,4,,10.0,30.029528,,,TRUE,TRUE,,,,,,,CLR,,,,,,,,VFR,,,,,,,,,,,,METAR,1244.0
KU64 300955Z AUTO 25009KT 10SM CLR 08/M09 A3016 RMK AO2 T00791091 $,KU64,2023-04-30T09:55:00Z,,,7.9,-9.1,250,9,,10.0,30.159449,,,TRUE,TRUE,TRUE,,,,,,CLR,,,,,,,,VFR,,,,,,,,,,,,METAR,
KU55 300955Z AUTO 15008KT 10SM FEW037 SCT044 SCT050 02/M05 A3021 RMK A01,KU55,2023-04-30T09:55:00Z,37.85,-112.38,2.0,-5.0,150,8,,10.0,30.209646,,,TRUE,TRUE,,,,,,,FEW,3700,SCT,4400,SCT,5000,,,VFR,,,,,,,,,,,,METAR,2060.0
KU42 300955Z AUTO 19007KT 10SM CLR 14/M03 A3003 RMK AO1 T01361035,KU42,2023-04-30T09:55:00Z,40.62,-111.98,13.6,-3.5,190,7,,10.0,30.029528,,,TRUE,TRUE,,,,,,,CLR,,,,,,,,VFR,,,,,,,,,,,,METAR,1399.0
KTZR 300955Z AUTO 19003KT 5SM BR CLR 08/08 A2945 RMK AO2 T00810078,KTZR,2023-04-30T09:55:00Z,39.9,-83.13,8.1,7.8,190,3,,5.0,29.450787,,,TRUE,TRUE,,,,,,BR,CLR,,,,,,,,MVFR,,,,,,,,,,,,SPECI,275.0
KTYQ 300955Z AUTO 25005KT 10SM SCT023 04/04 A2953 RMK AO2 T00420036,KTYQ,2023-04-30T09:55:00Z,40.03,-86.25,4.2,3.6,250,5,,10.0,29.530512,,,TRUE,TRUE,,,,,,,SCT,2300,,,,,,,VFR,,,,,,,,,,,,METAR,279.0
KTYL 300955Z AUTO 19005KT 10SM CLR 04/M07 A3014 RMK AO2,KTYL,2023-04-30T09:55:00Z,34.45,-110.12,4.0,-7.0,190,5,,10.0,30.138779,,,TRUE,TRUE,,,,,,,CLR,,,,,,,,VFR,,,,,,,,,,,,METAR,1748.0
KTXW 300955Z AUTO 23004KT 10SM CLR 15/09 A2999 RMK AO2 T01500094,KTXW,2023-04-30T09:55:00Z,26.18,-97.97,15.0,9.4,230,4,,10.0,29.991142,,,TRUE,TRUE,,,,,,,CLR,,,,,,,,VFR,,,,,,,,,,,,METAR,21.0
KTWT 300955Z AUTO 30006KT 10SM CLR 08/05 A2963 RMK AO2,KTWT,2023-04-30T09:55:00Z,37.55,-87.95,8.0,5.0,300,6,,10.0,29.630905,,,TRUE,TRUE,,,,,,,CLR,,,,,,,,VFR,,,,,,,,,,,,METAR,113.0
KTWM 300955Z AUTO 34013G22KT 301V011 10SM SCT047 OVC060 02/00 A2953 RMK AO2,KTWM,2023-04-30T09:55:00Z,47.05,-91.75,2.0,0.0,340,13,22,10.0,29.530512,,,TRUE,TRUE,,,,,,,SCT,4700,OVC,6000,,,,,VFR,,,,,,,,,,,,METAR,331.0
KTVY 300955Z AUTO 21006KT 10SM CLR 12/M04 A3001 RMK AO2,KTVY,2023-04-30T09:55:00Z,40.62,-112.35,12.0,-4.0,210,6,,10.0,30.008858,,,TRUE,TRUE,,,,,,,CLR,,,,,,,,VFR,,,,,,,,,,,,METAR,1310.0
KTVK 300955Z AUTO 30014G20KT 10SM CLR 05/04 A2968 RMK AO2,KTVK,2023-04-30T09:55:00Z,40.68,-92.9,5.0,4.0,300,14,20,10.0,29.681103,,,TRUE,TRUE,,,,,,,CLR,,,,,,,,VFR,,,,,,,,,,,,METAR,311.0
KTVI 300955Z AUTO 30010G14KT 10SM BKN013 BKN020 OVC027 17/16 A2957 RMK AO2 LTG DSNT N,KTVI,2023-04-30T09:55:00Z,30.9,-83.88,17.0,16.0,300,10,14,10.0,29.568897,,,TRUE,TRUE,,,,,,,BKN,1300,BKN,2000,OVC,2700,,,MVFR,,,,,,,,,,,,METAR,74.0
KTTS 300955Z AUTO 21010KT 10SM SCT050 BKN075 M A2960 RMK AO2 SLPNO ALSTG ESTMD $,KTTS,2023-04-30T09:55:00Z,28.58,-80.67,,,210,10,,10.0,29.601377,,,TRUE,TRUE,TRUE,,,,,,SCT,5000,BKN,7500,,,,,VFR,,,,,,,,,,,,METAR,1.0
KTTF 300955Z AUTO 26006KT 5SM -RA SCT030 SCT035 OVC043 07/07 A2944 RMK AO2 T00730067 P0002,KTTF,2023-04-30T09:55:00Z,41.93,-83.42,7.3,6.7,260,6,,5.0,29.438976,,,TRUE,TRUE,,,,,,-RA,SCT,3000,SCT,3500,OVC,4300,,,MVFR,,,,,,0.02,,,,,,METAR,186.0
KTSP 300955Z AUTO 30003KT 10SM CLR 11/07 A3004 RMK AO2,KTSP,2023-04-30T09:55:00Z,35.13,-118.43,11.0,7.0,300,3,,10.0,30.041338,,,TRUE,TRUE,,,,,,,CLR,,,,,,,,VFR,,,,,,,,,,,,METAR,1209.0
KTQV 300955Z AUTO 14005KT 9SM SCT021 OVC028 17/16 A2950 RMK A01,KTQV,2023-04-30T09:55:00Z,36.0,-78.93,17.0,16.0,140,5,,9.0,29.500984,,,TRUE,TRUE,,,,,,,SCT,2100,OVC,2800,,,,,MVFR,,,,,,,,,,,,METAR,230.0
KTQK 300955Z AUTO 02013KT 10SM OVC100 09/M01 A3001 RMK AO2 T00901005,KTQK,2023-04-30T09:55:00Z,38.47,-100.88,9.0,-0.5,20,13,,10.0,30.008858,,,TRUE,TRUE,,,,,,,OVC,10000,,,,,,,VFR,,,,,,,,,,,,METAR,906.0
KTQH 300955Z AUTO 00000KT 10SM CLR 05/03 A2983 RMK AO2,KTQH,2023-04-30T09:55:00Z,35.93,-95.0,5.0,3.0,0,0,,10.0,29.828741,,,TRUE,TRUE,,,,,,,CLR,,,,,,,,VFR,,,,,,,,,,,,METAR,265.0
KTPF 300955Z AUTO 25015G27KT 7SM SCT023 SCT041 OVC110 25/21 A2965 RMK AO2,KTPF,2023-04-30T09:55:00Z,27.92,-82.45,25.0,21.0,250,15,27,7.0,29.648623,,,TRUE,TRUE,,,,,,,SCT,2300,SCT,4100,OVC,11000,,,VFR,,,,,,,,,,,,METAR,1.0
KTOC 300955Z AUTO 00000KT 4SM -RA BR SCT007 BKN070 OVC085 15/15 A2951 RMK AO2 P0006 T01520149,KTOC,2023-04-30T09:55:00Z,34.6,-83.3,15.2,14.9,0,0,,4.0,29.509842,,,TRUE,TRUE,,,,,,-RA BR,SCT,700,BKN,7000,OVC,8500,,,MVFR,,,,,,0.06,,,,,,METAR,292.0
KTOB 300955Z AUTO 32018G26KT 10SM SCT039 BKN050 OVC065 04/M02 A2958 RMK AO2,KTOB,2023-04-30T09:55:00Z,44.02,-92.82,4.0,-2.0,320,18,26,10.0,29.58071,,,TRUE,TRUE,,,,,,,SCT,3900,BKN,5000,OVC,6500,,,VFR,,,,,,,,,,,,METAR,394.0
KTNU 300955Z AUTO 31013G23KT 10SM SCT065 04/04 A2965 RMK A01,KTNU,2023-04-30T09:55:00Z,41.67,-93.02,4.0,4.0,310,13,23,10.0,29.648623,,,TRUE,TRUE,,,,,,,SCT,6500,,,,,,,VFR,,,,,,,,,,,,METAR,287.0
KTNB 300955Z AUTO 00000KT 7SM -RA OVC070 10/10 A2954 RMK AO2 P0003 T01020102,KTNB,2023-04-30T09:55:00Z,36.2,-81.65,10.2,10.2,0,0,,7.0,29.53937,,,TRUE,TRUE,,,,,,-RA,OVC,7000,,,,,,,VFR,,,,,,0.03,,,,,,METAR,958.0
KTMT 300955Z AUTO 15005KT 10SM CLR 03/M03 A3010 RMK AO2 T00301026,KTMT,2023-04-30T09:55:00Z,39.47,-117.2,3.0,-2.6,150,5,,10.0,30.100393,,,TRUE,TRUE,,,,,,,CLR,,,,,,,,VFR,,,,,,,,,,,,METAR,1748.0
KTMK 300955Z AUTO 00000KT 8SM OVC010 09/09 A2999 RMK AO2,KTMK,2023-04-30T09:55:00Z,45.42,-123.82,9.0,9.0,0,0,,8.0,29.991142,,,TRUE,TRUE,,,,,,,OVC,1000,,,,,,,MVFR,,,,,,,,,,,,METAR,8.0
KTMA 300955Z AUTO 22007KT 10SM SCT008 BKN014 BKN019 BKN040 OVC050 19/19 A2952 RMK AO2 T01870187 $,KTMA,2023-04-30T09:55:00Z,31.43,-83.48,18.7,18.7,220,7,,10.0,29.518702,,,TRUE,TRUE,TRUE,,,,,,SCT,800,BKN,1400,BKN,1900,BKN,4000,MVFR,,,,,,,,,,,,METAR,105.0
KTKX 300955Z AUTO 32008KT 10SM CLR 11/08 A2969 RMK AO2,KTKX,2023-04-30T09:55:00Z,36.22,-90.03,11.0,8.0,320,8,,10.0,29.68996,,,TRUE,TRUE,,,,,,,CLR,,,,,,,,VFR,,,,,,,,,,,,METAR,73.0
KTKV 300955Z AUTO 33007KT 300V360 3/4SM OVC007 00/00 A2937 RMK AO2 T00031005 PWINO,KTKV,2023-04-30T09:55:00Z,45.47,-89.82,0.3,-0.5,330,7,,0.75,29.371063,,,TRUE,TRUE,,,,,TRUE,,OVC,700,,,,,,,LIFR,,,,,,,,,,,,METAR,449.0
KTKC 300955Z AUTO 32017G24KT 10SM SCT060 03/02 A2979 RMK AO2,KTKC,2023-04-30T09:55:00Z,44.25,-95.62,3.0,2.0,320,17,24,10.0,29.790354,,,TRUE,TRUE,,,,,,,SCT,6000,,,,,,,VFR,,,,,,,,,,,,METAR,408.0
KTIP 300955Z AUTO 00000KT 10SM CLR 04/04 A2954 RMK AO2 T00420040,KTIP,2023-04-30T09:55:00Z,40.28,-88.15,4.2,4.0,0,0,,10.0,29.53937,,,TRUE,TRUE,,,,,,,CLR,,,,,,,,VFR,,,,,,,,,,,,SPECI,224.0
KTIK 300955Z AUTO 06007KT 10SM CLR 10/05 A2983 RMK AO2 SLP104 T00990051,KTIK,2023-04-30T09:55:00Z,35.4,-97.38,9.9,5.1,60,7,,10.0,29.828741,1010.4,,TRUE,TRUE,,,,,,,CLR,,,,,,,,VFR,,,,,,,,,,,,METAR,387.0
KTIF 300955Z AUTO 28007KT 10SM CLR 00/M05 A3005 RMK AO2 T10011048,KTIF,2023-04-30T09:55:00Z,41.97,-100.57,-0.1,-4.8,280,7,,10.0,30.050198,,,TRUE,TRUE,,,,,,,CLR,,,,,,,,VFR,,,,,,,,,,,,METAR,888.0
KTHM 300955Z AUTO 00000KT 10SM 05/03 A2999 RMK Thompson Falls ,KTHM,2023-04-30T09:55:00Z,47.57,-115.28,5.0,3.0,0,0,,10.0,29.991142,,,TRUE,,,,,,,,,,,,,,,,,,,,,,,,,,,,METAR,751.0
KTHA 300955Z AUTO 29003KT 10SM FEW023 FEW035 BKN090 12/11 A2956 RMK A01,KTHA,2023-04-30T09:55:00Z,35.38,-86.25,12.0,11.0,290,3,,10.0,29.56004,,,TRUE,TRUE,,,,,,,FEW,2300,FEW,3500,BKN,9000,,,VFR,,,,,,,,,,,,METAR,333.0
KTGI 300955Z AUTO 10012KT 10SM BKN005 OVC014 16/16 A2956 RMK AO1 T01630158,KTGI,2023-04-30T09:55:00Z,37.82,-75.98,16.3,15.8,100,12,,10.0,29.56004,,,TRUE,TRUE,,,,,,,BKN,500,OVC,1400,,,,,IFR,,,,,,,,,,,,SPECI,1.0
KTEX 300955Z AUTO 14003KT 10SM CLR 03/M07 A3029 RMK AO2,KTEX,2023-04-30T09:55:00Z,37.95,-107.9,3.0,-7.0,140,3,,10.0,30.28937,,,TRUE,TRUE,,,,,,,CLR,,,,,,,,VFR,,,,,,,,,,,,METAR,2760.0
KTEW 300955Z AUTO 00000KT 5SM BR BKN008 BKN014 OVC050 08/06 A2942 RMK AO2 T00750060,KTEW,2023-04-30T09:55:00Z,42.57,-84.42,7.5,6.0,0,0,,5.0,29.421259,,,TRUE,TRUE,,,,,,BR,BKN,800,BKN,1400,OVC,5000,,,IFR,,,,,,,,,,,,METAR,281.0
KTCY 300955Z AUTO 29004KT 10SM CLR 13/07 A2989 RMK A01,KTCY,2023-04-30T09:55:00Z,37.68,-121.43,13.0,7.0,290,4,,10.0,29.890747,,,TRUE,TRUE,,,,,,,CLR,,,,,,,,VFR,,,,,,,,,,,,METAR,51.0
KTCM 300955Z AUTO 27006KT 10SM CLR 09/09 A2992 RMK AO2 SLP135 T00930093 $,KTCM,2023-04-30T09:55:00Z,47.13,-122.47,9.3,9.3,270,6,,10.0,29.920275,1013.5,,TRUE,TRUE,TRUE,,,,,,CLR,,,,,,,,VFR,,,,,,,,,,,,METAR,87.0
KTBX 300955Z AUTO 10SM CLR 06/M02 A3022 RMK AO2,KTBX,2023-04-30T09:55:00Z,43.47,-108.23,6.0,-2.0,,,,10.0,30.221457,,,TRUE,TRUE,,,,,,,CLR,,,,,,,,VFR,,,,,,,,,,,,METAR,2230.0
KTBR 300955Z AUTO 21006KT 5SM BKN008 OVC013 19/18 A2948 RMK AO2 LTG DSNT NW T01910176 PWINO,KTBR,2023-04-30T09:55:00Z,32.48,-81.73,19.1,17.6,210,6,,5.0,29.480314,,,TRUE,TRUE,,,,,TRUE,,BKN,800,OVC,1300,,,,,IFR,,,,,,,,,,,,METAR,54.0
KTBN 300955Z AUTO 00000KT 10SM CLR M M RMK AO2 SLPNO RVRNO TSNO $,KTBN,2023-04-30T09:55:00Z,37.73,-92.13,,,0,0,,10.0,,,,TRUE,TRUE,TRUE,,TRUE,,,,CLR,,,,,,,,VFR,,,,,,,,,,,,METAR,349.0
KTAZ 300955Z AUTO 25007KT 10SM CLR 05/04 A2960 RMK AO2 T00500042,KTAZ,2023-04-30T09:55:00Z,39.53,-89.33,5.0,4.2,250,7,,10.0,29.601377,,,TRUE,TRUE,,,,,,,CLR,,,,,,,,VFR,,,,,,,,,,,,METAR,188.0
KT89 300955Z AUTO 28004KT 10SM FEW043 SCT050 15/M06 A3003 RMK A01,KT89,2023-04-30T09:55:00Z,29.27,-103.68,15.0,-6.0,280,4,,10.0,30.029528,,,TRUE,TRUE,,,,,,,FEW,4300,SCT,5000,,,,,VFR,,,,,,,,,,,,METAR,801.0
KT82 300955Z AUTO 00000KT 10SM CLR 08/03 A2999 RMK AO2 T00770030,KT82,2023-04-30T09:55:00Z,30.25,-98.92,7.7,3.0,0,0,,10.0,29.991142,,,TRUE,TRUE,,,,,,,CLR,,,,,,,,VFR,,,,,,,,,,,,METAR,509.0
KT78 300955Z AUTO 00000KT 10SM SCT050 SCT055 11/10 A2989 RMK AO2,KT78,2023-04-30T09:55:00Z,30.08,-94.7,11.0,10.0,0,0,,10.0,29.890747,,,TRUE,TRUE,,,,,,,SCT,5000,SCT,5500,,,,,VFR,,,,,,,,,,,,METAR,21.0
KT74 300955Z AUTO 00000KT 10SM CLR 10/07 A2993 RMK AO2 T00990074,KT74,2023-04-30T09:55:00Z,30.57,-97.45,9.9,7.4,0,0,,10.0,29.929134,,,TRUE,TRUE,,,,,,,CLR,,,,,,,,VFR,,,,,,,,,,,,METAR,169.0
KT70 300955Z AUTO 09003KT 1 1/8SM HZ CLR 10/04 A2997 RMK AO2 DZB04E28 SLP140 P0000 T00980037 $,KT70,2023-04-30T09:55:00Z,29.12,-100.48,9.8,3.7,90,3,,1.13,29.970472,1014.0,,TRUE,TRUE,TRUE,,,,,HZ,CLR,,,,,,,,IFR,,,,,,0.005,,,,,,METAR,296.0
KT69 300955Z AUTO VRB03KT 10SM CLR 11/11 A2996 RMK A01,KT69,2023-04-30T09:55:00Z,28.03,-97.55,11.0,11.0,0,3,,10.0,29.958662,,,TRUE,TRUE,,,,,,,CLR,,,,,,,,VFR,,,,,,,,,,,,METAR,15.0
KT41 300955Z AUTO 24006KT 10SM CLR 11/09 A2991 RMK AO2 T01140091,KT41,2023-04-30T09:55:00Z,29.67,-95.07,11.4,9.1,240,6,,10.0,29.911417,,,TRUE,TRUE,,,,,,,CLR,,,,,,,,VFR,,,,,,,,,,,,METAR,8.0
KT35 300955Z AUTO 23005KT 10SM CLR 11/08 A2991 RMK AO2 T01140082,KT35,2023-04-30T09:55:00Z,30.88,-96.97,11.4,8.2,230,5,,10.0,29.911417,,,TRUE,TRUE,,,,,,,CLR,,,,,,,,VFR,,,,,,,,,,,,SPECI,122.0
KT20 300955Z AUTO 00000KT 10SM CLR 12/10 A2995 RMK AO2 T01170097,KT20,2023-04-30T09:55:00Z,29.52,-97.47,11.7,9.7,0,0,,10.0,29.949802,,,TRUE,TRUE,,,,,,,CLR,,,,,,,,VFR,,,,,,,,,,,,SPECI,107.0
KSZY 300955Z AUTO VRB05KT 10SM CLR 12/09 A2961 RMK A01,KSZY,2023-04-30T09:55:00Z,35.2,-88.5,12.0,9.0,0,5,,10.0,29.610237,,,TRUE,TRUE,,,,,,,CLR,,,,,,,,VFR,,,,,,,,,,,,METAR,184.0
KSZT 300955Z AUTO 00000KT 10SM CLR 06/04 A2990 RMK AO2,KSZT,2023-04-30T09:55:00Z,48.3,-116.57,6.0,4.0,0,0,,10.0,29.899607,,,TRUE,TRUE,,,,,,,CLR,,,,,,,,VFR,,,,,,,,,,,,METAR,649.0
KSZL 300955Z 29005KT 10SM SKC 06/03 A2974 RMK AO2A SLP073 T00620026 $,KSZL,2023-04-30T09:55:00Z,38.73,-93.53,6.2,2.6,290,5,,10.0,29.740158,1007.3,,,TRUE,TRUE,,,,,,SKC,,,,,,,,VFR,,,,,,,,,,,,SPECI,259.0
KSYN 300955Z AUTO 34019G25KT 10SM SCT037 BKN048 OVC070 05/M01 A2960 RMK AO2 T00481015,KSYN,2023-04-30T09:55:00Z,44.47,-93.02,4.8,-1.5,340,19,25,10.0,29.601377,,,TRUE,TRUE,,,,,,,SCT,3700,BKN,4800,OVC,7000,,,VFR,,,,,,,,,,,,METAR,280.0
KSYM 300955Z AUTO 19005KT 10SM FEW055 OVC070 12/11 A2950 RMK AO2,KSYM,2023-04-30T09:55:00Z,38.22,-83.58,12.0,11.0,190,5,,10.0,29.500984,,,TRUE,TRUE,,,,,,,FEW,5500,OVC,7000,,,,,VFR,,,,,,,,,,,,METAR,307.0
KSYI 300955Z AUTO 00000KT 10SM CLR 11/10 A2956 RMK A01,KSYI,2023-04-30T09:55:00Z,35.57,-86.45,11.0,10.0,0,0,,10.0,29.56004,,,TRUE,TRUE,,,,,,,CLR,,,,,,,,VFR,,,,,,,,,,,,METAR,244.0
KSYF 300955Z AUTO 36007KT 10SM OVC100 08/M03 A3005 RMK AO2 T00771030 PWINO,KSYF,2023-04-30T09:55:00Z,39.77,-101.8,7.7,-3.0,360,7,,10.0,30.050198,,,TRUE,TRUE,,,,,TRUE,,OVC,10000,,,,,,,VFR,,,,,,,,,,,,METAR,1041.0
KSXU 300955Z AUTO 00000KT 10SM CLR 08/M05 A3000 RMK AO2 T00791047,KSXU,2023-04-30T09:55:00Z,34.93,-104.65,7.9,-4.7,0,0,,10.0,30.0,,,TRUE,TRUE,,,,,,,CLR,,,,,,,,VFR,,,,,,,,,,,,METAR,1465.0
KSXK 300955Z AUTO 32018G24KT 10SM FEW041 03/02 A2981 RMK AO2,KSXK,2023-04-30T09:55:00Z,42.98,-96.17,3.0,2.0,320,18,24,10.0,29.811024,,,TRUE,TRUE,,,,,,,FEW,4100,,,,,,,VFR,,,,,,,,,,,,METAR,430.0
KSWW 300955Z AUTO 22009KT 10SM CLR 16/M01 A2998 RMK AO2 T01611009,KSWW,2023-04-30T09:55:00Z,32.47,-100.47,16.1,-0.9,220,9,,10.0,29.97933,,,TRUE,TRUE,,,,,,,CLR,,,,,,,,VFR,,,,,,,,,,,,METAR,718.0
KSVN 300955Z AUTO 20005KT 10SM R28/4500FT -RA BKN018 BKN023 OVC100 21/19 A2946 RMK AO2 RAB30E41DZB41E45RAB45 CIG 018V023 CIG 014 RWY10 SLP979 P0000 T02050193 $,KSVN,2023-04-30T09:55:00Z,32.02,-81.12,20.5,19.3,200,5,,10.0,29.459646,997.9,,TRUE,TRUE,TRUE,,,,,-RA,BKN,1800,BKN,2300,OVC,10000,,,MVFR,,,,,,0.005,,,,,,METAR,13.0
KSVE 300955Z AUTO 28004KT 10SM CLR 08/01 A3001 RMK AO2,KSVE,2023-04-30T09:55:00Z,40.37,-120.57,8.0,1.0,280,4,,10.0,30.008858,,,TRUE,TRUE,,,,,,,CLR,,,,,,,,VFR,,,,,,,,,,,,METAR,1263.0
KSVC 300955Z AUTO 35009KT 10SM CLR 10/M06 A3011 RMK AO2 T00951064,KSVC,2023-04-30T09:55:00Z,32.63,-108.15,9.5,-6.4,350,9,,10.0,30.109253,,,TRUE,TRUE,,,,,,,CLR,,,,,,,,VFR,,,,,,,,,,,,METAR,1638.0
KSUZ 300955Z AUTO 31006KT 10SM FEW047 BKN055 11/09 A2979 RMK A01,KSUZ,2023-04-30T09:55:00Z,34.58,-92.48,11.0,9.0,310,6,,10.0,29.790354,,,TRUE,TRUE,,,,,,,FEW,4700,BKN,5500,,,,,VFR,,,,,,,,,,,,METAR,114.0
KSUW 300955Z AUTO 01008G16KT 320V050 10SM -RA OVC020 02/00 A2959 RMK AO2 T00210001,KSUW,2023-04-30T09:55:00Z,46.68,-92.1,2.1,0.1,10,8,16,10.0,29.589567,,,TRUE,TRUE,,,,,,-RA,OVC,2000,,,,,,,MVFR,,,,,,,,,,,,METAR,205.0
KSUU 300955Z AUTO 22020KT 10SM CLR 10/07 A2988 RMK AO2 SLP124 T01020074,KSUU,2023-04-30T09:55:00Z,38.27,-121.93,10.2,7.4,220,20,,10.0,29.878937,1012.4,,TRUE,TRUE,,,,,,,CLR,,,,,,,,VFR,,,,,,,,,,,,METAR,9.0
KSUN 300955Z AUTO 33014G18KT 10SM CLR 07/00 A3008 RMK AO2,KSUN,2023-04-30T09:55:00Z,43.5,-114.28,7.0,0.0,330,14,18,10.0,30.079725,,,TRUE,TRUE,,,,,,,CLR,,,,,,,,VFR,,,,,,,,,,,,METAR,1619.0
KSUA 300955Z AUTO 20011G15KT 10SM SCT050 BKN065 OVC085 25/22 A2971 RMK AO2 T02500215,KSUA,2023-04-30T09:55:00Z,27.18,-80.22,25.0,21.5,200,11,15,10.0,29.71063,,,TRUE,TRUE,,,,,,,SCT,5000,BKN,6500,OVC,8500,,,VFR,,,,,,,,,,,,METAR,4.0
KSTK 300955Z AUTO 33004KT 10SM CLR 03/M01 A3007 RMK AO2,KSTK,2023-04-30T09:55:00Z,40.62,-103.27,3.0,-1.0,330,4,,10.0,30.070866,,,TRUE,TRUE,,,,,,,CLR,,,,,,,,VFR,,,,,,,,,,,,METAR,1228.0
KSTF 300955Z AUTO 00000KT 10SM CLR 13/13 A2966 RMK AO2 LTG DSNT SE,KSTF,2023-04-30T09:55:00Z,33.43,-88.85,13.0,13.0,0,0,,10.0,29.660433,,,TRUE,TRUE,,,,,,,CLR,,,,,,,,VFR,,,,,,,,,,,,METAR,99.0
KSTE 300955Z AUTO 28007KT 260V320 10SM RA BKN010 OVC015 02/01 A2937 RMK AO2 T00220005,KSTE,2023-04-30T09:55:00Z,44.55,-89.53,2.2,0.5,280,7,,10.0,29.371063,,,TRUE,TRUE,,,,,,RA,BKN,1000,OVC,1500,,,,,MVFR,,,,,,,,,,,,METAR,335.0
KSSC 300955Z AUTO 00000KT 10SM FEW006 BKN010 BKN025 BKN032 19/18 A2943 RMK AO2 CIG 010V026 BKN010 V SCT CIG 006 RWY04 SLP965 T01880180 $,KSSC,2023-04-30T09:55:00Z,33.97,-80.47,18.8,18.0,0,0,,10.0,29.430119,996.5,,TRUE,TRUE,TRUE,,,,,,FEW,600,BKN,1000,BKN,2500,BKN,3200,MVFR,,,,,,,,,,,,METAR,71.0
KSRR 300955Z AUTO 00000KT 10SM CLR 10/M08 A3016 RMK AO2,KSRR,2023-04-30T09:55:00Z,33.47,-105.52,10.0,-8.0,0,0,,10.0,30.159449,,,TRUE,TRUE,,,,,,,CLR,,,,,,,,VFR,,,,,,,,,,,,METAR,2063.0
KSRE 300955Z AUTO 03005KT 10SM CLR 09/05 A2985 RMK AO2,KSRE,2023-04-30T09:55:00Z,35.27,-96.68,9.0,5.0,30,5,,10.0,29.84941,,,TRUE,TRUE,,,,,,,CLR,,,,,,,,VFR,,,,,,,,,,,,METAR,306.0
KSRB 300955Z AUTO 00000KT 8SM FEW046 SCT055 SCT085 11/11 A2955 RMK AO2,KSRB,2023-04-30T09:55:00Z,36.05,-85.53,11.0,11.0,0,0,,8.0,29.551182,,,TRUE,TRUE,,,,,,,FEW,4600,SCT,5500,SCT,8500,,,VFR,,,,,,,,,,,,METAR,303.0
KSQL 300955Z AUTO 00000KT 8SM CLR 12/08 A3000 RMK AO2,KSQL,2023-04-30T09:55:00Z,37.52,-122.25,12.0,8.0,0,0,,8.0,30.0,,,TRUE,TRUE,,,,,,,CLR,,,,,,,,VFR,,,,,,,,,,,,METAR,1.0
KSPK 300955Z AUTO 13011G18KT 10SM CLR 12/M03 A3004 RMK AO2,KSPK,2023-04-30T09:55:00Z,40.15,-111.67,12.0,-3.0,130,11,18,10.0,30.041338,,,TRUE,TRUE,,,,,,,CLR,,,,,,,,VFR,,,,,,,,,,,,METAR,1381.0
KSPF 300955Z AUTO 19006KT 10SM CLR M01/M06 A3013 RMK AO2,KSPF,2023-04-30T09:55:00Z,44.47,-103.78,-1.0,-6.0,190,6,,10.0,30.129921,,,TRUE,TRUE,,,,,,,CLR,,,,,,,,VFR,,,,,,,,,,,,METAR,1191.0
KSPA 300955Z AUTO 04004KT 7SM -RA OVC003 15/15 A2947 RMK AO2 LTG DSNT SW P0002,KSPA,2023-04-30T09:55:00Z,34.92,-81.95,15.0,15.0,40,4,,7.0,29.471457,,,TRUE,TRUE,,,,,,-RA,OVC,300,,,,,,,LIFR,,,,,,0.02,,,,,,METAR,242.0
KSOW 300955Z AUTO 19005KT 10SM CLR 09/M06 A3018 RMK AO2,KSOW,2023-04-30T09:55:00Z,34.27,-110.0,9.0,-6.0,190,5,,10.0,30.180119,,,TRUE,TRUE,,,,,,,CLR,,,,,,,,VFR,,,,,,,,,,,,METAR,1954.0
KSOA 300955Z AUTO 00000KT 10SM 06/M06 A3004 RMK AO2,KSOA,2023-04-30T09:55:00Z,30.58,-100.65,6.0,-6.0,0,0,,10.0,30.041338,,,TRUE,TRUE,,,,,,,,,,,,,,,,,,,,,,,,,,,METAR,654.0
KSNK 300955Z AUTO 20006KT 10SM CLR 12/M01 A2997 RMK AO2 T01241007,KSNK,2023-04-30T09:55:00Z,32.7,-100.95,12.4,-0.7,200,6,,10.0,29.970472,,,TRUE,TRUE,,,,,,,CLR,,,,,,,,VFR,,,,,,,,,,,,METAR,738.0
KSNC 300955Z AUTO 03004KT 1SM -RA OVC001 A2973 RMK AO2,KSNC,2023-04-30T09:55:00Z,41.38,-72.5,,,30,4,,1.0,29.731298,,,TRUE,TRUE,,,,,,-RA,OVC,100,,,,,,,LIFR,,,,,,,,,,,,METAR,114.0
KSMS 300955Z AUTO 00000KT 3SM BR FEW029 BKN036 OVC048 18/18 A2945 RMK AO2,KSMS,2023-04-30T09:55:00Z,34.0,-80.37,18.0,18.0,0,0,,3.0,29.450787,,,TRUE,TRUE,,,,,,BR,FEW,2900,BKN,3600,OVC,4800,,,MVFR,,,,,,,,,,,,METAR,53.0
KSME 300955Z AUTO 00000KT 3/4SM BR SCT020 SCT034 BKN100 12/12 A2951 RMK AO2 VIS 1/4V3,KSME,2023-04-30T09:55:00Z,37.05,-84.62,12.0,12.0,0,0,,0.75,29.509842,,,TRUE,TRUE,,,,,,BR,SCT,2000,SCT,3400,BKN,10000,,,LIFR,,,,,,,,,,,,METAR,279.0
KSMD 300955Z AUTO 00000KT 10SM OVC070 06/06 A2948 RMK A01,KSMD,2023-04-30T09:55:00Z,41.15,-85.15,6.0,6.0,0,0,,10.0,29.480314,,,TRUE,TRUE,,,,,,,OVC,7000,,,,,,,VFR,,,,,,,,,,,,METAR,252.0
KSLR 300955Z AUTO 00000KT 10SM CLR 11/07 A2985 RMK AO2 T01070072,KSLR,2023-04-30T09:55:00Z,33.17,-95.62,10.7,7.2,0,0,,10.0,29.84941,,,TRUE,TRUE,,,,,,,CLR,,,,,,,,VFR,,,,,,,,,,,,METAR,144.0
KSLO 300955Z AUTO 26005KT 10SM CLR 06/06 A2963 RMK AO2 T00630060,KSLO,2023-04-30T09:55:00Z,38.65,-88.97,6.3,6.0,260,5,,10.0,29.630905,,,TRUE,TRUE,,,,,,,CLR,,,,,,,,VFR,,,,,,,,,,,,METAR,173.0
KSLI 300955Z AUTO 21004KT 10SM OVC004 13/12 A2993 RMK AO2 SLP138 T01290121 $,KSLI,2023-04-30T09:55:00Z,33.78,-118.03,12.9,12.1,210,4,,10.0,29.929134,1013.8,,TRUE,TRUE,TRUE,,,,,,OVC,400,,,,,,,LIFR,,,,,,,,,,,,METAR,8.0
KSLH 300955Z AUTO 17003KT 10SM SCT031 BKN065 04/04 A2934 RMK AO2,KSLH,2023-04-30T09:55:00Z,45.65,-84.52,4.0,4.0,170,3,,10.0,29.338583,,,TRUE,TRUE,,,,,,,SCT,3100,BKN,6500,,,,,VFR,,,,,,,,,,,,METAR,193.0
KSLB 300955Z AUTO 32015KT 10SM SCT055 02/02 A2977 RMK AO2,KSLB,2023-04-30T09:55:00Z,42.6,-95.23,2.0,2.0,320,15,,10.0,29.769686,,,TRUE,TRUE,,,,,,,SCT,5500,,,,,,,VFR,,,,,,,,,,,,SPECI,450.0
KSKF 300955Z AUTO 00000KT 10SM CLR 10/07 A2995 RMK AO2 SLP138 T00990070 $,KSKF,2023-04-30T09:55:00Z,29.38,-98.57,9.9,7.0,0,0,,10.0,29.949802,1013.8,,TRUE,TRUE,TRUE,,,,,,CLR,,,,,,,,VFR,,,,,,,,,,,,METAR,214.0
KSKA 300955Z AUTO 07008KT 10SM CLR 13/06 A2984 RMK AO2 SLP091 T01270056 $,KSKA,2023-04-30T09:55:00Z,47.62,-117.67,12.7,5.6,70,8,,10.0,29.840551,1009.1,,TRUE,TRUE,TRUE,,,,,,CLR,,,,,,,,VFR,,,,,,,,,,,,METAR,754.0
KSJX 300955Z AUTO 15003KT 10SM SCT010 OVC035 04/04 A2933 RMK AO2 T00400040,KSJX,2023-04-30T09:55:00Z,45.7,-85.57,4.0,4.0,150,3,,10.0,29.329725,,,TRUE,TRUE,,,,,,,SCT,1000,OVC,3500,,,,,VFR,,,,,,,,,,,,METAR,202.0
KSJS 300955Z AUTO 00000KT 10SM SCT034 OVC045 13/11 A2952 RMK AO2 T01270110,KSJS,2023-04-30T09:55:00Z,37.75,-82.63,12.7,11.0,0,0,,10.0,29.518702,,,TRUE,TRUE,,,,,,,SCT,3400,OVC,4500,,,,,VFR,,,,,,,,,,,,METAR,359.0
KSIK 300955Z AUTO 00000KT 10SM CLR 08/06 A2969 RMK AO2,KSIK,2023-04-30T09:55:00Z,36.9,-89.57,8.0,6.0,0,0,,10.0,29.68996,,,TRUE,TRUE,,,,,,,CLR,,,,,,,,VFR,,,,,,,,,,,,METAR,95.0
KSHM 300955Z AUTO 02008KT 10SM CLR 07/M01 A3006 RMK AO2 SLP135 T00691015 $,KSHM,2023-04-30T09:55:00Z,38.8,-104.52,6.9,-1.5,20,8,,10.0,30.059055,1013.5,,TRUE,TRUE,TRUE,,,,,,CLR,,,,,,,,VFR,,,,,,,,,,,,METAR,1900.0
KSHL 300955Z AUTO 32013G19KT 10SM OVC018 03/03 A2978 RMK AO2,KSHL,2023-04-30T09:55:00Z,43.22,-95.83,3.0,3.0,320,13,19,10.0,29.778543,,,TRUE,TRUE,,,,,,,OVC,1800,,,,,,,MVFR,,,,,,,,,,,,METAR,430.0
KSHD 300955Z AUTO 00000KT 10SM -RA OVC080 14/13 A2955 RMK AO2 P0002 T01430134,KSHD,2023-04-30T09:55:00Z,38.27,-78.9,14.3,13.4,0,0,,10.0,29.551182,,,TRUE,TRUE,,,,,,-RA,OVC,8000,,,,,,,VFR,,,,,,0.02,,,,,,METAR,360.0
KSGS 300955Z AUTO 34012G25KT 10SM SCT028 BKN034 OVC046 05/M01 A2961 RMK AO2 T00451008,KSGS,2023-04-30T09:55:00Z,44.87,-93.03,4.5,-0.8,340,12,25,10.0,29.610237,,,TRUE,TRUE,,,,,,,SCT,2800,BKN,3400,OVC,4600,,,VFR,,,,,,,,,,,,METAR,250.0
KSFQ 300955Z AUTO 16004KT 5SM BR SCT006 SCT015 OVC100 19/19 A2955 RMK AO2 LTG DSNT NE T01900190,KSFQ,2023-04-30T09:55:00Z,36.68,-76.6,19.0,19.0,160,4,,5.0,29.551182,,,TRUE,TRUE,,,,,,BR,SCT,600,SCT,1500,OVC,10000,,,MVFR,,,,,,,,,,,,METAR,19.0
KSEZ 300955Z AUTO 03013KT 10SM CLR 17/M06 A3007 RMK AO2,KSEZ,2023-04-30T09:55:00Z,34.85,-111.78,17.0,-6.0,30,13,,10.0,30.070866,,,TRUE,TRUE,,,,,,,CLR,,,,,,,,VFR,,,,,,,,,,,,METAR,1455.0
KSEQ 300955Z AUTO 25005KT 10SM CLR 10/09 A2994 RMK AO2 SLP137 T01030091,KSEQ,2023-04-30T09:55:00Z,29.57,-97.9,10.3,9.1,250,5,,10.0,29.940945,1013.7,,TRUE,TRUE,,,,,,,CLR,,,,,,,,VFR,,,,,,,,,,,,METAR,160.0
KSEP 300955Z AUTO 00000KT 10SM CLR 11/06 A2992 RMK AO2 T01050059,KSEP,2023-04-30T09:55:00Z,32.22,-98.17,10.5,5.9,0,0,,10.0,29.920275,,,TRUE,TRUE,,,,,,,CLR,,,,,,,,VFR,,,,,,,,,,,,METAR,399.0
KSEM 300955Z AUTO 28005KT 5SM RA OVC006 15/15 A2961 RMK AO2,KSEM,2023-04-30T09:55:00Z,32.35,-86.98,15.0,15.0,280,5,,5.0,29.610237,,,TRUE,TRUE,,,,,,RA,OVC,600,,,,,,,IFR,,,,,,,,,,,,METAR,48.0
KSEF 300955Z AUTO 18008KT 10SM BKN019 BKN035 BKN080 24/23 A2965 RMK AO2 LTG DSNT SW THRU N T02360226,KSEF,2023-04-30T09:55:00Z,27.45,-81.35,23.6,22.6,180,8,,10.0,29.648623,,,TRUE,TRUE,,,,,,,BKN,1900,BKN,3500,BKN,8000,,,MVFR,,,,,,,,,,,,METAR,17.0
KSEE 300955Z AUTO 00000KT 9SM OVC009 14/12 A2994 RMK AO2,KSEE,2023-04-30T09:55:00Z,32.82,-116.97,14.0,12.0,0,0,,9.0,29.940945,,,TRUE,TRUE,,,,,,,OVC,900,,,,,,,IFR,,,,,,,,,,,,METAR,113.0
KSDC 300955Z AUTO 14007KT 10SM SCT090 10/08 A2959 RMK AO2,KSDC,2023-04-30T09:55:00Z,43.23,-77.12,10.0,8.0,140,7,,10.0,29.589567,,,TRUE,TRUE,,,,,,,SCT,9000,,,,,,,VFR,,,,,,,,,,,,METAR,127.0
KSDA 300955Z AUTO 30007KT 10SM FEW035 07/01 A2981 RMK AO2,KSDA,2023-04-30T09:55:00Z,40.75,-95.42,7.0,1.0,300,7,,10.0,29.811024,,,TRUE,TRUE,,,,,,,FEW,3500,,,,,,,VFR,,,,,,,,,,,,SPECI,293.0
KSCX 300955Z AUTO 00000KT 10SM SCT038 OVC048 12/12 A2953 RMK A01,KSCX,2023-04-30T09:55:00Z,36.45,-84.58,12.0,12.0,0,0,,10.0,29.530512,,,TRUE,TRUE,,,,,,,SCT,3800,OVC,4800,,,,,VFR,,,,,,,,,,,,METAR,462.0
KSCK 300955Z AUTO 28006KT 10SM CLR 13/07 A2990 RMK AO2 SLP124 T01330067,KSCK,2023-04-30T09:55:00Z,37.88,-121.22,13.3,6.7,280,6,,10.0,29.899607,1012.4,,TRUE,TRUE,,,,,,,CLR,,,,,,,,VFR,,,,,,,,,,,,METAR,8.0
KSCD 300955Z AUTO 00000KT 7SM -RA SCT015 BKN026 OVC095 15/15 A2956 RMK AO2 P0030 T01520150,KSCD,2023-04-30T09:55:00Z,33.17,-86.3,15.2,15.0,0,0,,7.0,29.56004,,,TRUE,TRUE,,,,,,-RA,SCT,1500,BKN,2600,OVC,9500,,,MVFR,,,,,,0.3,,,,,,METAR,164.0
KSBS 300955Z AUTO 00000KT 10SM CLR 02/M02 A3012 RMK AO1 T00231025,KSBS,2023-04-30T09:55:00Z,40.52,-106.87,2.3,-2.5,0,0,,10.0,30.121063,,,TRUE,TRUE,,,,,,,CLR,,,,,,,,VFR,,,,,,,,,,,,METAR,2097.0
KSBO 300955Z AUTO 23005KT 10SM -RA BKN008 OVC015 A2948 RMK AO2 LTG DSNT SE,KSBO,2023-04-30T09:55:00Z,32.62,-82.37,,,230,5,,10.0,29.480314,,,TRUE,TRUE,,,,,,-RA,BKN,800,OVC,1500,,,,,IFR,,,,,,,,,,,,METAR,98.0
KSAZ 300955Z AUTO 35019G23KT 10SM OVC035 04/M03 A2975 RMK AO2,KSAZ,2023-04-30T09:55:00Z,46.37,-94.8,4.0,-3.0,350,19,23,10.0,29.749016,,,TRUE,TRUE,,,,,,,OVC,3500,,,,,,,VFR,,,,,,,,,,,,METAR,391.0
KSAR 300955Z AUTO 25004KT 10SM CLR 06/05 A2967 RMK AO2 T00600050,KSAR,2023-04-30T09:55:00Z,38.15,-89.7,6.0,5.0,250,4,,10.0,29.66929,,,TRUE,TRUE,,,,,,,CLR,,,,,,,,VFR,,,,,,,,,,,,METAR,162.0
KSAA 300955Z AUTO 13005KT 10SM CLR 01/M02 A3012 RMK AO2,KSAA,2023-04-30T09:55:00Z,41.45,-106.8,1.0,-2.0,130,5,,10.0,30.121063,,,TRUE,TRUE,,,,,,,CLR,,,,,,,,VFR,,,,,,,,,,,,METAR,2093.0
KS85 300955Z AUTO 00000KT 10SM M05/M07 A3016 RMK A01 Culbertson ,KS85,2023-04-30T09:55:00Z,48.15,-104.5,-5.0,-7.0,0,0,,10.0,30.159449,,,TRUE,TRUE,,,,,,,,,,,,,,,,,,,,,,,,,,,METAR,596.0
KS52 300955Z AUTO 28003KT 10SM BKN095 OVC120 06/02 A2988 RMK AO2 T00590024,KS52,2023-04-30T09:55:00Z,48.42,-120.15,5.9,2.4,280,3,,10.0,29.878937,,,TRUE,TRUE,,,,,,,BKN,9500,OVC,12000,,,,,VFR,,,,,,,,,,,,METAR,517.0
KS39 300955Z AUTO 16004KT 10SM FEW045 FEW050 12/03 A2990 RMK AO2,KS39,2023-04-30T09:55:00Z,44.28,-120.9,12.0,3.0,160,4,,10.0,29.899607,,,TRUE,TRUE,,,,,,,FEW,4500,FEW,5000,,,,,VFR,,,,,,,,,,,,METAR,987.0
KS34 300955Z AUTO 00000KT 10SM 05/M22 A2995 RMK Plains ,KS34,2023-04-30T09:55:00Z,47.47,-114.9,5.0,-22.0,0,0,,10.0,29.949802,,,TRUE,,,,,,,,,,,,,,,,,,,,,,,,,,,,METAR,750.0
KS33 300955Z AUTO 00000KT 10SM CLR A2990 RMK AO2,KS33,2023-04-30T09:55:00Z,44.67,-121.15,,,0,0,,10.0,29.899607,,,TRUE,TRUE,,,,,,,CLR,,,,,,,,VFR,,,,,,,,,,,,METAR,739.0
KS32 300955Z AUTO 33014KT 10SM CLR 01/01 A3000 RMK AO2 TSNO,KS32,2023-04-30T09:55:00Z,47.42,-98.1,1.0,1.0,330,14,,10.0,30.0,,,TRUE,TRUE,,,TRUE,,,,CLR,,,,,,,,VFR,,,,,,,,,,,,METAR,435.0
KS25 300955Z AUTO 00000KT 10SM CLR M03/M03 A3016 RMK AO2,KS25,2023-04-30T09:55:00Z,47.8,-103.25,-3.0,-3.0,0,0,,10.0,30.159449,,,TRUE,TRUE,,,,,,,CLR,,,,,,,,VFR,,,,,,,,,,,,METAR,632.0
KS21 300955Z AUTO 20009KT 10SM CLR 05/03 A2999 RMK AO2,KS21,2023-04-30T09:55:00Z,43.88,-121.45,5.0,3.0,200,9,,10.0,29.991142,,,TRUE,TRUE,,,,,,,CLR,,,,,,,,VFR,,,,,,,,,,,,METAR,1269.0
KRZT 300955Z AUTO 13003KT 10SM SCT027 SCT037 OVC060 11/10 A2947 RMK AO2 PWINO,KRZT,2023-04-30T09:55:00Z,39.43,-83.02,11.0,10.0,130,3,,10.0,29.471457,,,TRUE,TRUE,,,,,TRUE,,SCT,2700,SCT,3700,OVC,6000,,,VFR,,,,,,,,,,,,SPECI,217.0
KRZR 300955Z AUTO 00000KT 8SM OVC055 15/15 A2949 RMK A01,KRZR,2023-04-30T09:55:00Z,35.22,-84.8,15.0,15.0,0,0,,8.0,29.489174,,,TRUE,TRUE,,,,,,,OVC,5500,,,,,,,VFR,,,,,,,,,,,,METAR,259.0
KRZN 300955Z AUTO 34011G17KT 3SM -SN SCT010 OVC016 01/00 A2959 RMK AO2 P0004 T00100001,KRZN,2023-04-30T09:55:00Z,45.82,-92.37,1.0,0.1,340,11,17,3.0,29.589567,,,TRUE,TRUE,,,,,,-SN,SCT,1000,OVC,1600,,,,,MVFR,,,,,,0.04,,,,,,METAR,301.0
KRZL 300955Z AUTO 26005KT 10SM CLR 04/02 A2952 RMK AO2,KRZL,2023-04-30T09:55:00Z,40.95,-87.18,4.0,2.0,260,5,,10.0,29.518702,,,TRUE,TRUE,,,,,,,CLR,,,,,,,,VFR,,,,,,,,,,,,METAR,210.0
KRYW 300955Z AUTO 27007KT 10SM CLR 12/06 A2995 RMK AO2 T01200061,KRYW,2023-04-30T09:55:00Z,30.5,-97.97,12.0,6.1,270,7,,10.0,29.949802,,,TRUE,TRUE,,,,,,,CLR,,,,,,,,VFR,,,,,,,,,,,,METAR,370.0
KRYN 300955Z AUTO 00000KT 10SM CLR 16/M08 A2991 RMK AO2,KRYN,2023-04-30T09:55:00Z,32.15,-111.17,16.0,-8.0,0,0,,10.0,29.911417,,,TRUE,TRUE,,,,,,,CLR,,,,,,,,VFR,,,,,,,,,,,,METAR,731.0
KRWV 300955Z AUTO 26005KT 10SM CLR 10/08 A2993 RMK AO2 T01020077,KRWV,2023-04-30T09:55:00Z,30.52,-96.7,10.2,7.7,260,5,,10.0,29.929134,,,TRUE,TRUE,,,,,,,CLR,,,,,,,,VFR,,,,,,,,,,,,SPECI,116.0
KRVL 300955Z AUTO 00000KT 5SM BR FEW001 BKN009 OVC013 12/11 A2958 RMK AO2 P0006,KRVL,2023-04-30T09:55:00Z,40.68,-77.63,12.0,11.0,0,0,,5.0,29.58071,,,TRUE,TRUE,,,,,,BR,FEW,100,BKN,900,OVC,1300,,,IFR,,,,,,0.06,,,,,,METAR,250.0
KRVJ 300955Z AUTO 21007KT 5SM +RA SCT008 BKN029 OVC080 19/ A2949 RMK AO2 LTG DSNT NW P0002 T0191////,KRVJ,2023-04-30T09:55:00Z,32.07,-82.15,19.1,,210,7,,5.0,29.489174,,,TRUE,TRUE,,,,,,+RA,SCT,800,BKN,2900,OVC,8000,,,MVFR,,,,,,0.02,,,,,,METAR,60.0
KRVF 300955Z AUTO 15007KT 10SM CLR 04/M01 A3007 RMK AO2,KRVF,2023-04-30T09:55:00Z,45.53,-112.3,4.0,-1.0,150,7,,10.0,30.070866,,,TRUE,TRUE,,,,,,,CLR,,,,,,,,VFR,,,,,,,,,,,,METAR,1445.0
KRUG 300955Z AUTO 30007KT 10SM CLR M02/M02 A3009 RMK AO2,KRUG,2023-04-30T09:55:00Z,48.38,-100.02,-2.0,-2.0,300,7,,10.0,30.088583,,,TRUE,TRUE,,,,,,,CLR,,,,,,,,VFR,,,,,,,,,,,,METAR,469.0
KRRT 300955Z AUTO 33007KT 10SM CLR 02/M02 A2992 RMK AO2,KRRT,2023-04-30T09:55:00Z,48.93,-95.33,2.0,-2.0,330,7,,10.0,29.920275,,,TRUE,TRUE,,,,,,,CLR,,,,,,,,VFR,,,,,,,,,,,,METAR,327.0
KRQO 300955Z AUTO 34008KT 07/05 A2990 RMK AO2 PWINO T00700048,KRQO,2023-04-30T09:55:00Z,35.47,-98.0,7.0,4.8,340,8,,,29.899607,,,TRUE,TRUE,,,,,TRUE,,,,,,,,,,,,,,,,,,,,,,METAR,431.0
KRQB 300955Z AUTO 22003KT 10SM SCT011 OVC024 04/03 A2937 RMK AO2 T00400025,KRQB,2023-04-30T09:55:00Z,43.72,-85.5,4.0,2.5,220,3,,10.0,29.371063,,,TRUE,TRUE,,,,,,,SCT,1100,OVC,2400,,,,,MVFR,,,,,,,,,,,,METAR,282.0
KRPJ 300955Z AUTO 28018G24KT 10SM SCT055 BKN065 OVC085 04/04 A2951 RMK AO2 T00360035 TSNO,KRPJ,2023-04-30T09:55:00Z,41.88,-89.08,3.6,3.5,280,18,24,10.0,29.509842,,,TRUE,TRUE,,,TRUE,,,,SCT,5500,BKN,6500,OVC,8500,,,VFR,,,,,,,,,,,,METAR,234.0
KRPH 300955Z AUTO 00000KT 10SM CLR 08/06 A2987 RMK AO2 T00820061 $,KRPH,2023-04-30T09:55:00Z,33.12,-98.55,8.2,6.1,0,0,,10.0,29.870079,,,TRUE,TRUE,TRUE,,,,,,CLR,,,,,,,,VFR,,,,,,,,,,,,METAR,341.0
KRPD 300955Z AUTO 32009G16KT 270V340 4SM -SN OVC011 01/01 A2953 RMK AO2 P0001 T00100010,KRPD,2023-04-30T09:55:00Z,45.42,-91.77,1.0,1.0,320,9,16,4.0,29.530512,,,TRUE,TRUE,,,,,,-SN,OVC,1100,,,,,,,MVFR,,,,,,0.01,,,,,,METAR,334.0
KROX 300955Z AUTO 35011KT 10SM CLR 03/M02 A2993 RMK AO2,KROX,2023-04-30T09:55:00Z,48.85,-95.7,3.0,-2.0,350,11,,10.0,29.929134,,,TRUE,TRUE,,,,,,,CLR,,,,,,,,VFR,,,,,,,,,,,,METAR,320.0
KROS 300955Z AUTO 33012G20KT 10SM DZ SCT014 OVC020 05/02 A2963 RMK AO2 T00470020,KROS,2023-04-30T09:55:00Z,45.7,-92.95,4.7,2.0,330,12,20,10.0,29.630905,,,TRUE,TRUE,,,,,,DZ,SCT,1400,OVC,2000,,,,,MVFR,,,,,,,,,,,,METAR,282.0
KRNP 300955Z AUTO 15004KT 5SM BR SCT045 BKN050 OVC085 06/04 A2941 RMK AO2 T00610041,KRNP,2023-04-30T09:55:00Z,43.0,-84.13,6.1,4.1,150,4,,5.0,29.409449,,,TRUE,TRUE,,,,,,BR,SCT,4500,BKN,5000,OVC,8500,,,MVFR,,,,,,,,,,,,METAR,224.0
KRNO 300955Z 16004KT 10SM CLR 12/03 A3001 RMK AO2 SLP112 T01170028,KRNO,2023-04-30T09:55:00Z,39.5,-119.77,11.7,2.8,160,4,,10.0,30.008858,1011.2,,,TRUE,,,,,,,CLR,,,,,,,,VFR,,,,,,,,,,,,METAR,1344.0
KRNH 300955Z AUTO 32016G22KT 10SM DZ SCT013 BKN019 OVC027 02/02 A2958 RMK AO2 T00200020,KRNH,2023-04-30T09:55:00Z,45.15,-92.53,2.0,2.0,320,16,22,10.0,29.58071,,,TRUE,TRUE,,,,,,DZ,SCT,1300,BKN,1900,OVC,2700,,,MVFR,,,,,,,,,,,,METAR,302.0
KRND 300955Z AUTO 33004KT 10SM CLR 10/07 A2993 RMK AO2 SLP131 T00980072,KRND,2023-04-30T09:55:00Z,29.53,-98.27,9.8,7.2,330,4,,10.0,29.929134,1013.1,,TRUE,TRUE,,,,,,,CLR,,,,,,,,VFR,,,,,,,,,,,,METAR,224.0
KRNC 300955Z AUTO 00000KT 10SM SCT039 SCT047 BKN090 12/10 A2955 RMK A01,KRNC,2023-04-30T09:55:00Z,35.7,-85.85,12.0,10.0,0,0,,10.0,29.551182,,,TRUE,TRUE,,,,,,,SCT,3900,SCT,4700,BKN,9000,,,VFR,,,,,,,,,,,,METAR,310.0
KRMY 300955Z AUTO 26005KT 10SM SCT013 BKN020 OVC100 05/04 A2943 RMK AO2 T00530040,KRMY,2023-04-30T09:55:00Z,42.25,-84.95,5.3,4.0,260,5,,10.0,29.430119,,,TRUE,TRUE,,,,,,,SCT,1300,BKN,2000,OVC,10000,,,MVFR,,,,,,,,,,,,METAR,285.0
KRMN 300955Z AUTO 02006KT 7SM -RA OVC006 19/18 A2952 RMK AO2 LTG DSNT E AND SE T01890178,KRMN,2023-04-30T09:55:00Z,38.4,-77.45,18.9,17.8,20,6,,7.0,29.518702,,,TRUE,TRUE,,,,,,-RA,OVC,600,,,,,,,IFR,,,,,,,,,,,,METAR,50.0
KRLD 300955Z AUTO 00000KT 10SM CLR 13/09 A2977 RMK AO2 T01280086,KRLD,2023-04-30T09:55:00Z,46.3,-119.3,12.8,8.6,0,0,,10.0,29.769686,,,TRUE,TRUE,,,,,,,CLR,,,,,,,,VFR,,,,,,,,,,,,METAR,118.0
KRKR 300955Z AUTO 19004KT 10SM CLR 08/06 A2983 RMK AO2,KRKR,2023-04-30T09:55:00Z,35.02,-94.62,8.0,6.0,190,4,,10.0,29.828741,,,TRUE,TRUE,,,,,,,CLR,,,,,,,,VFR,,,,,,,,,,,,METAR,136.0
KRIV 300955Z AUTO 00000KT 10SM CLR 12/11 A2994 RMK AO2 SLP127 T01150106,KRIV,2023-04-30T09:55:00Z,33.87,-117.23,11.5,10.6,0,0,,10.0,29.940945,1012.7,,TRUE,TRUE,,,,,,,CLR,,,,,,,,VFR,,,,,,,,,,,,METAR,454.0
KRID 300955Z AUTO 30007KT 10SM -RA BKN009 BKN036 OVC060 05/05 A2950 RMK AO2 P0004,KRID,2023-04-30T09:55:00Z,39.75,-84.85,5.0,5.0,300,7,,10.0,29.500984,,,TRUE,TRUE,,,,,,-RA,BKN,900,BKN,3600,OVC,6000,,,IFR,,,,,,0.04,,,,,,METAR,346.0
KRGK 300955Z AUTO 32006KT 10SM DZ SCT055 BKN070 OVC090 03/00 A2957 RMK AO2,KRGK,2023-04-30T09:55:00Z,44.58,-92.48,3.0,0.0,320,6,,10.0,29.568897,,,TRUE,TRUE,,,,,,DZ,SCT,5500,BKN,7000,OVC,9000,,,VFR,,,,,,,,,,,,METAR,238.0
KRGA 300955Z AUTO 20005KT 10SM BKN070 12/11 A2952 RMK AO2,KRGA,2023-04-30T09:55:00Z,37.63,-84.33,12.0,11.0,200,5,,10.0,29.518702,,,TRUE,TRUE,,,,,,,BKN,7000,,,,,,,VFR,,,,,,,,,,,,METAR,301.0
KREG 300955Z AUTO 29004KT 10SM CLR 15/12 A2982 RMK AO2 T01470122,KREG,2023-04-30T09:55:00Z,30.17,-90.93,14.7,12.2,290,4,,10.0,29.819881,,,TRUE,TRUE,,,,,,,CLR,,,,,,,,VFR,,,,,,,,,,,,METAR,3.0
KRDK 300955Z AUTO 32010G17KT 10SM SCT031 SCT037 06/01 A2981 RMK AO2,KRDK,2023-04-30T09:55:00Z,41.02,-95.27,6.0,1.0,320,10,17,10.0,29.811024,,,TRUE,TRUE,,,,,,,SCT,3100,SCT,3700,,,,,VFR,,,,,,,,,,,,METAR,317.0
KRCZ 300955Z AUTO 29006KT 7SM OVC006 16/16 A2949 RMK AO2 P0003 T01610158,KRCZ,2023-04-30T09:55:00Z,34.88,-79.77,16.1,15.8,290,6,,7.0,29.489174,,,TRUE,TRUE,,,,,,,OVC,600,,,,,,,IFR,,,,,,0.03,,,,,,METAR,110.0
KRCX 300955Z AUTO 32011G16KT 2 1/2SM -SN SCT007 OVC013 01/01 A2948 RMK AO2 T00090009,KRCX,2023-04-30T09:55:00Z,45.5,-91.0,0.9,0.9,320,11,16,2.5,29.480314,,,TRUE,TRUE,,,,,,-SN,SCT,700,OVC,1300,,,,,IFR,,,,,,,,,,,,METAR,373.0
KRCV 300955Z AUTO 24007KT 10SM CLR 05/M06 A3017 RMK AO2 T00511060,KRCV,2023-04-30T09:55:00Z,37.72,-106.35,5.1,-6.0,240,7,,10.0,30.171259,,,TRUE,TRUE,,,,,,,CLR,,,,,,,,VFR,,,,,,,,,,,,METAR,2418.0
KRCR 300955Z AUTO 26006KT 10SM OVC060 07/05 A2949 RMK AO2,KRCR,2023-04-30T09:55:00Z,41.07,-86.18,7.0,5.0,260,6,,10.0,29.489174,,,TRUE,TRUE,,,,,,,OVC,6000,,,,,,,VFR,,,,,,,,,,,,METAR,240.0
KRCM 300955Z AUTO 28004KT 10SM CLR 05/02 A2977 RMK AO2,KRCM,2023-04-30T09:55:00Z,38.78,-93.8,5.0,2.0,280,4,,10.0,29.769686,,,TRUE,TRUE,,,,,,,CLR,,,,,,,,VFR,,,,,,,,,,,,METAR,242.0
KRCE 300955Z AUTO 35006KT 10SM CLR 08/05 A2987 RMK AO2,KRCE,2023-04-30T09:55:00Z,35.48,-97.82,8.0,5.0,350,6,,10.0,29.870079,,,TRUE,TRUE,,,,,,,CLR,,,,,,,,VFR,,,,,,,,,,,,METAR,412.0
KRBW 300955Z AUTO 22006KT 10SM BKN011 BKN017 20/20 A2946 RMK AO2,KRBW,2023-04-30T09:55:00Z,32.92,-80.63,20.0,20.0,220,6,,10.0,29.459646,,,TRUE,TRUE,,,,,,,BKN,1100,BKN,1700,,,,,MVFR,,,,,,,,,,,,METAR,30.0
KRBO 300955Z AUTO 00000KT 10SM CLR 13/12 A2997 RMK AO2 T01330115,KRBO,2023-04-30T09:55:00Z,27.78,-97.68,13.3,11.5,0,0,,10.0,29.970472,,,TRUE,TRUE,,,,,,,CLR,,,,,,,,VFR,,,,,,,,,,,,METAR,24.0
KRAW 300955Z AUTO 32004KT 10SM SCT065 05/03 A2976 RMK AO2,KRAW,2023-04-30T09:55:00Z,38.35,-93.35,5.0,3.0,320,4,,10.0,29.760826,,,TRUE,TRUE,,,,,,,SCT,6500,,,,,,,VFR,,,,,,,,,,,,METAR,285.0
KRAS 300955Z AUTO 23004KT 10SM CLR 19/17 A2997 RMK AO2 T01870165,KRAS,2023-04-30T09:55:00Z,27.82,-97.08,18.7,16.5,230,4,,10.0,29.970472,,,TRUE,TRUE,,,,,,,CLR,,,,,,,,VFR,,,,,,,,,,,,METAR,3.0
KQRH 300955Z AUTO 33009G17KT 300V020 9999 CLR 36/20 A2970 RMK AO2 LTG DSNT N SLP060 WND DATA ESTMD T03640197,KQRH,2023-04-30T09:55:00Z,,,36.4,19.7,330,9,17,6.21,29.698818,1006.0,,TRUE,TRUE,,,,,,,CLR,,,,,,,,VFR,,,,,,,,,,,,METAR,
KQN3 300955Z 21010KT 9999 CLR 38/15 A2988 RMK SLP100 WND DATA ESTMD T03780149,KQN3,2023-04-30T09:55:00Z,,,37.8,14.9,210,10,,6.21,29.878937,1010.0,,,,,,,,,,CLR,,,,,,,,VFR,,,,,,,,,,,,METAR,
KQHY 300955Z AUTO 32004KT 10SM CLR 16/14 A2966 RMK AO2 SLP050 T01590141,KQHY,2023-04-30T09:55:00Z,,,15.9,14.1,320,4,,10.0,29.660433,1005.0,,TRUE,TRUE,,,,,,,CLR,,,,,,,,VFR,,,,,,,,,,,,METAR,
KQDG 300955Z AUTO 27006KT 9999 OVC065 15/05 A2960 RMK AO2 SLP025 T01490054 $,KQDG,2023-04-30T09:55:00Z,,,14.9,5.4,270,6,,6.21,29.601377,1002.5,,TRUE,TRUE,TRUE,,,,,,OVC,6500,,,,,,,VFR,,,,,,,,,,,,METAR,
KQD3 300955Z AUTO 28011G19KT 9999 FEW055 36/21 A2976 RMK AO2 SLP062 WND DATA ESTMD T03580210,KQD3,2023-04-30T09:55:00Z,,,35.8,21.0,280,11,19,6.21,29.760826,1006.2,,TRUE,TRUE,,,,,,,FEW,5500,,,,,,,VFR,,,,,,,,,,,,METAR,
KQBL 300955Z AUTO 00000KT 10SM CLR 15/15 A2967 RMK AO2 SLP053 WND DATA ESTMD T01540149,KQBL,2023-04-30T09:55:00Z,,,15.4,14.9,0,0,,10.0,29.66929,1005.3,,TRUE,TRUE,,,,,,,CLR,,,,,,,,VFR,,,,,,,,,,,,METAR,
KQAZ 300955Z AUTO VRB05KT 9999 CLR 38/M03 A2994 RMK AO2 SLP128 WND DATA ESTMD T03801026,KQAZ,2023-04-30T09:55:00Z,,,38.0,-2.6,0,5,,6.21,29.940945,1012.8,,TRUE,TRUE,,,,,,,CLR,,,,,,,,VFR,,,,,,,,,,,,SPECI,
KPZQ 300955Z AUTO 22007KT 10SM OVC018 04/04 A2937 RMK AO2 T00400040,KPZQ,2023-04-30T09:55:00Z,45.4,-83.82,4.0,4.0,220,7,,10.0,29.371063,,,TRUE,TRUE,,,,,,,OVC,1800,,,,,,,MVFR,,,,,,,,,,,,METAR,199.0
KPYX 300955Z AUTO 00000KT 10SM CLR 07/04 A2994 RMK AO2 T00710035,KPYX,2023-04-30T09:55:00Z,36.42,-100.75,7.1,3.5,0,0,,10.0,29.940945,,,TRUE,TRUE,,,,,,,CLR,,,,,,,,VFR,,,,,,,,,,,,METAR,890.0
KPXE 300955Z AUTO 21008KT 10SM SCT015 SCT065 BKN100 17/17 A2945 RMK AO2 LTG DSNT NE P0009 T01750172,KPXE,2023-04-30T09:55:00Z,32.52,-83.77,17.5,17.2,210,8,,10.0,29.450787,,,TRUE,TRUE,,,,,,,SCT,1500,SCT,6500,BKN,10000,,,VFR,,,,,,0.09,,,,,,METAR,126.0
KPWD 300955Z AUTO 00000KT 10SM OVC044 M00/M05 A3017 RMK AO2,KPWD,2023-04-30T09:55:00Z,48.78,-104.52,0.0,-5.0,0,0,,10.0,30.171259,,,TRUE,TRUE,,,,,,,OVC,4400,,,,,,,VFR,,,,,,,,,,,,METAR,690.0
KPWC 300955Z AUTO 35018G24KT 10SM OVC037 03/M02 A2977 RMK AO2,KPWC,2023-04-30T09:55:00Z,46.72,-94.38,3.0,-2.0,350,18,24,10.0,29.769686,,,TRUE,TRUE,,,,,,,OVC,3700,,,,,,,VFR,,,,,,,,,,,,METAR,394.0
KPVW 300955Z AUTO 28003KT 10SM CLR 07/M02 A2997 RMK AO2 T00711023,KPVW,2023-04-30T09:55:00Z,34.17,-101.72,7.1,-2.3,280,3,,10.0,29.970472,,,TRUE,TRUE,,,,,,,CLR,,,,,,,,VFR,,,,,,,,,,,,SPECI,1029.0
KPVJ 300955Z AUTO 33004KT 10SM CLR 10/07 A2984 RMK AO2 T00970066,KPVJ,2023-04-30T09:55:00Z,34.72,-97.22,9.7,6.6,330,4,,10.0,29.840551,,,TRUE,TRUE,,,,,,,CLR,,,,,,,,VFR,,,,,,,,,,,,METAR,287.0
KPVF 300955Z AUTO 12006KT 10SM SCT045 16/07 A2997 RMK AO1,KPVF,2023-04-30T09:55:00Z,38.72,-120.75,16.0,7.0,120,6,,10.0,29.970472,,,TRUE,TRUE,,,,,,,SCT,4500,,,,,,,VFR,,,,,,,,,,,,METAR,788.0
KPVE 300955Z AUTO 32008KT 10SM CLR 12/10 A2961 RMK A01,KPVE,2023-04-30T09:55:00Z,35.65,-88.2,12.0,10.0,320,8,,10.0,29.610237,,,TRUE,TRUE,,,,,,,CLR,,,,,,,,VFR,,,,,,,,,,,,METAR,146.0
KPVB 300955Z AUTO 28010KT 10SM OVC080 05/00 A2949 RMK AO1 T00450001,KPVB,2023-04-30T09:55:00Z,42.68,-90.43,4.5,0.1,280,10,,10.0,29.489174,,,TRUE,TRUE,,,,,,,OVC,8000,,,,,,,VFR,,,,,,,,,,,,METAR,311.0
KPUJ 300955Z AUTO 00000KT 7SM RA SCT055 OVC065 13/13 A2952 RMK AO2 LTG DSNT SE,KPUJ,2023-04-30T09:55:00Z,33.92,-84.93,13.0,13.0,0,0,,7.0,29.518702,,,TRUE,TRUE,,,,,,RA,SCT,5500,OVC,6500,,,,,VFR,,,,,,,,,,,,METAR,385.0
KPTT 300955Z AUTO 34006KT 10SM SCT110 09/02 A2995 RMK AO2 T00850015,KPTT,2023-04-30T09:55:00Z,37.7,-98.75,8.5,1.5,340,6,,10.0,29.949802,,,TRUE,TRUE,,,,,,,SCT,11000,,,,,,,VFR,,,,,,,,,,,,METAR,594.0
KPTS 300955Z AUTO 00000KT 10SM CLR 05/04 A2980 RMK AO2 T00520043 PWINO,KPTS,2023-04-30T09:55:00Z,37.45,-94.73,5.2,4.3,0,0,,10.0,29.799213,,,TRUE,TRUE,,,,,TRUE,,CLR,,,,,,,,VFR,,,,,,,,,,,,METAR,286.0
KPTD 300955Z AUTO 16005G14KT 10SM OVC043 11/06 A2968 RMK AO2,KPTD,2023-04-30T09:55:00Z,44.68,-74.95,11.0,6.0,160,5,14,10.0,29.681103,,,TRUE,TRUE,,,,,,,OVC,4300,,,,,,,VFR,,,,,,,,,,,,METAR,144.0
KPTB 300955Z AUTO 00000KT 10SM BKN012 BKN017 OVC060 17/17 A2952 RMK AO2 P0006 T01720165,KPTB,2023-04-30T09:55:00Z,37.17,-77.52,17.2,16.5,0,0,,10.0,29.518702,,,TRUE,TRUE,,,,,,,BKN,1200,BKN,1700,OVC,6000,,,MVFR,,,,,,0.06,,,,,,METAR,56.0
KPSO 300955Z AUTO 00000KT 10SM CLR 03/M04 A3017 RMK AO2 T00301037,KPSO,2023-04-30T09:55:00Z,37.28,-107.05,3.0,-3.7,0,0,,10.0,30.171259,,,TRUE,TRUE,,,,,,,CLR,,,,,,,,VFR,,,,,,,,,,,,METAR,2332.0
KPSN 300955Z AUTO 00000KT 10SM FEW046 SCT055 BKN075 07/07 A2985 RMK AO2,KPSN,2023-04-30T09:55:00Z,31.78,-95.7,7.0,7.0,0,0,,10.0,29.84941,,,TRUE,TRUE,,,,,,,FEW,4600,SCT,5500,BKN,7500,,,VFR,,,,,,,,,,,,METAR,124.0
KPSK 300955Z AUTO 12003KT 10SM -RA SCT065 BKN080 OVC090 13/13 A2954 RMK AO2 T01310131,KPSK,2023-04-30T09:55:00Z,37.13,-80.67,13.1,13.1,120,3,,10.0,29.53937,,,TRUE,TRUE,,,,,,-RA,SCT,6500,BKN,8000,OVC,9000,,,VFR,,,,,,,,,,,,METAR,629.0
KPRS 300955Z AUTO 36008KT 10SM CLR 16/M01 A3006 RMK AO2 T01631015,KPRS,2023-04-30T09:55:00Z,29.63,-104.35,16.3,-1.5,360,8,,10.0,30.059055,,,TRUE,TRUE,,,,,,,CLR,,,,,,,,VFR,,,,,,,,,,,,METAR,890.0
KPRO 300955Z AUTO 31012G18KT 10SM BKN060 05/02 A2973 RMK AO2 T00490022,KPRO,2023-04-30T09:55:00Z,41.83,-94.17,4.9,2.2,310,12,18,10.0,29.731298,,,TRUE,TRUE,,,,,,,BKN,6000,,,,,,,VFR,,,,,,,,,,,,METAR,308.0
KPRG 300955Z AUTO 26008KT 10SM OVC009 06/06 A2957 RMK AO2 T00550055,KPRG,2023-04-30T09:55:00Z,39.7,-87.67,5.5,5.5,260,8,,10.0,29.568897,,,TRUE,TRUE,,,,,,,OVC,900,,,,,,,IFR,,,,,,,,,,,,SPECI,197.0
KPPQ 300955Z AUTO 28004KT 10SM BKN050 BKN060 06/06 A2963 RMK AO2 T00560056,KPPQ,2023-04-30T09:55:00Z,39.63,-90.78,5.6,5.6,280,4,,10.0,29.630905,,,TRUE,TRUE,,,,,,,BKN,5000,BKN,6000,,,,,VFR,,,,,,,,,,,,METAR,215.0
KPPO 300955Z AUTO 30003KT 10SM OVC065 06/03 A2948 RMK AO2 T00550033,KPPO,2023-04-30T09:55:00Z,41.57,-86.73,5.5,3.3,300,3,,10.0,29.480314,,,TRUE,TRUE,,,,,,,OVC,6500,,,,,,,VFR,,,,,,,,,,,,METAR,242.0
KPPA 300955Z AUTO 15007KT 10SM 09/04 A2995 RMK AO2 T00910040,KPPA,2023-04-30T09:55:00Z,35.62,-101.0,9.1,4.0,150,7,,10.0,29.949802,,,TRUE,TRUE,,,,,,,,,,,,,,,,,,,,,,,,,,,METAR,989.0
KPOY 300955Z AUTO 33008KT 10SM CLR 04/M02 A3005 RMK AO2,KPOY,2023-04-30T09:55:00Z,44.87,-108.8,4.0,-2.0,330,8,,10.0,30.050198,,,TRUE,TRUE,,,,,,,CLR,,,,,,,,VFR,,,,,,,,,,,,METAR,1547.0
KPOV 300955Z AUTO 00000KT 10SM OVC042 10/07 A2945 RMK AO2 T00960067 PWINO,KPOV,2023-04-30T09:55:00Z,41.22,-81.25,9.6,6.7,0,0,,10.0,29.450787,,,TRUE,TRUE,,,,,TRUE,,OVC,4200,,,,,,,VFR,,,,,,,,,,,,METAR,363.0
KPOE 300955Z AUTO 00000KT 10SM CLR 11/10 A2984 RMK AO2 SLP107 T01050103,KPOE,2023-04-30T09:55:00Z,31.05,-93.2,10.5,10.3,0,0,,10.0,29.840551,1010.7,,TRUE,TRUE,,,,,,,CLR,,,,,,,,VFR,,,,,,,,,,,,METAR,98.0
KPOB 300955Z AUTO 10003KT 10SM OVC007 17/17 A2946 RMK AO2 RAE03DZB03E24RAB24E34DZB34E40 SLP977 P0001 T01700168 $,KPOB,2023-04-30T09:55:00Z,35.17,-79.02,17.0,16.8,100,3,,10.0,29.459646,997.7,,TRUE,TRUE,TRUE,,,,,,OVC,700,,,,,,,IFR,,,,,,0.01,,,,,,METAR,57.0
KPNT 300955Z AUTO 26007KT 10SM CLR 03/01 A2954 RMK AO2 T00300005,KPNT,2023-04-30T09:55:00Z,40.92,-88.62,3.0,0.5,260,7,,10.0,29.53937,,,TRUE,TRUE,,,,,,,CLR,,,,,,,,VFR,,,,,,,,,,,,METAR,199.0
KPNM 300955Z AUTO 33015G23KT 10SM -DZ SCT028 OVC035 04/M01 A2967 RMK AO2,KPNM,2023-04-30T09:55:00Z,45.53,-93.6,4.0,-1.0,330,15,23,10.0,29.66929,,,TRUE,TRUE,,,,,,-DZ,SCT,2800,OVC,3500,,,,,VFR,,,,,,,,,,,,METAR,298.0
KPNA 300955Z AUTO 29008KT 10SM CLR M01/M03 A3016 RMK AO2,KPNA,2023-04-30T09:55:00Z,42.8,-109.8,-1.0,-3.0,290,8,,10.0,30.159449,,,TRUE,TRUE,,,,,,,CLR,,,,,,,,VFR,,,,,,,,,,,,METAR,2158.0
KPMV 300955Z AUTO 31014G17KT 10SM CLR 06/00 A2984 RMK AO2 T00620003,KPMV,2023-04-30T09:55:00Z,40.95,-95.92,6.2,0.3,310,14,17,10.0,29.840551,,,TRUE,TRUE,,,,,,,CLR,,,,,,,,VFR,,,,,,,,,,,,METAR,365.0
KPMU 300955Z AUTO 30007G12KT 10SM CLR 13/10 A2968 RMK AO2,KPMU,2023-04-30T09:55:00Z,34.37,-89.9,13.0,10.0,300,7,12,10.0,29.681103,,,TRUE,TRUE,,,,,,,CLR,,,,,,,,VFR,,,,,,,,,,,,METAR,67.0
KPMH 300955Z AUTO 17003KT 4SM BR OVC002 13/11 A2949 RMK AO2 T01280110,KPMH,2023-04-30T09:55:00Z,38.83,-82.85,12.8,11.0,170,3,,4.0,29.489174,,,TRUE,TRUE,,,,,,BR,OVC,200,,,,,,,LIFR,,,,,,,,,,,,SPECI,200.0
KPLU 300955Z AUTO 00000KT 10SM FEW041 FEW055 10/08 A2993 RMK AO2,KPLU,2023-04-30T09:55:00Z,47.1,-122.28,10.0,8.0,0,0,,10.0,29.929134,,,TRUE,TRUE,,,,,,,FEW,4100,FEW,5500,,,,,VFR,,,,,,,,,,,,METAR,164.0
KPLR 300955Z AUTO 00000KT 9SM SCT017 BKN022 OVC055 16/16 A2956 RMK A01 P0006,KPLR,2023-04-30T09:55:00Z,33.57,-86.25,16.0,16.0,0,0,,9.0,29.56004,,,TRUE,TRUE,,,,,,,SCT,1700,BKN,2200,OVC,5500,,,MVFR,,,,,,0.06,,,,,,METAR,145.0
KPJC 300955Z AUTO 12004KT 5SM RA SCT049 OVC065 09/09 A2949 RMK AO2 P0004,KPJC,2023-04-30T09:55:00Z,40.8,-80.17,9.0,9.0,120,4,,5.0,29.489174,,,TRUE,TRUE,,,,,,RA,SCT,4900,OVC,6500,,,,,MVFR,,,,,,0.04,,,,,,METAR,273.0
KPIM 300955Z AUTO 35005KT 10SM SCT011 OVC085 15/13 A2948 RMK AO2 LTG DSNT N AND E T01450127,KPIM,2023-04-30T09:55:00Z,32.83,-84.88,14.5,12.7,350,5,,10.0,29.480314,,,TRUE,TRUE,,,,,,,SCT,1100,OVC,8500,,,,,VFR,,,,,,,,,,,,METAR,274.0
KPHT 300955Z AUTO 33007G13KT 10SM FEW055 SCT065 09/07 A2963 RMK A01,KPHT,2023-04-30T09:55:00Z,36.33,-88.38,9.0,7.0,330,7,13,10.0,29.630905,,,TRUE,TRUE,,,,,,,FEW,5500,SCT,6500,,,,,VFR,,,,,,,,,,,,METAR,172.0
KPHP 300955Z AUTO 31007KT 10SM CLR M01/M05 A3011 RMK AO2 SLP198 T10111050,KPHP,2023-04-30T09:55:00Z,44.05,-101.6,-1.1,-5.0,310,7,,10.0,30.109253,1019.8,,TRUE,TRUE,,,,,,,CLR,,,,,,,,VFR,,,,,,,,,,,,METAR,673.0
KPHN 300955Z AUTO 00000KT 1/2SM FG OVC003 05/04 A2942 RMK AO2,KPHN,2023-04-30T09:55:00Z,42.92,-82.52,5.0,4.0,0,0,,0.5,29.421259,,,TRUE,TRUE,,,,,,FG,OVC,300,,,,,,,LIFR,,,,,,,,,,,,METAR,195.0
KPEZ 300955Z AUTO 00000KT 10SM CLR 11/07 A2998 RMK AO2 T01070071,KPEZ,2023-04-30T09:55:00Z,28.95,-98.52,10.7,7.1,0,0,,10.0,29.97933,,,TRUE,TRUE,,,,,,,CLR,,,,,,,,VFR,,,,,,,,,,,,METAR,126.0
KPEX 300955Z AUTO 32011G17KT 10SM CLR 02/M02 A2974 RMK AO2,KPEX,2023-04-30T09:55:00Z,45.37,-94.73,2.0,-2.0,320,11,17,10.0,29.740158,,,TRUE,TRUE,,,,,,,CLR,,,,,,,,VFR,,,,,,,,,,,,METAR,359.0
KPEQ 300955Z AUTO 00000KT 10SM CLR 10/M07 A2999 RMK AO2 T01021075,KPEQ,2023-04-30T09:55:00Z,31.38,-103.52,10.2,-7.5,0,0,,10.0,29.991142,,,TRUE,TRUE,,,,,,,CLR,,,,,,,,VFR,,,,,,,,,,,,METAR,794.0
KPEA 300955Z AUTO 30014G17KT 10SM SCT016 SCT060 BKN095 04/03 A2967 RMK AO2 T00440026,KPEA,2023-04-30T09:55:00Z,41.4,-92.95,4.4,2.6,300,14,17,10.0,29.66929,,,TRUE,TRUE,,,,,,,SCT,1600,SCT,6000,BKN,9500,,,VFR,,,,,,,,,,,,SPECI,264.0
KPDC 300955Z AUTO 29010G15KT 10SM SCT038 SCT045 OVC050 06/M01 A2951 RMK AO2 T00561010,KPDC,2023-04-30T09:55:00Z,43.02,-91.12,5.6,-1.0,290,10,15,10.0,29.509842,,,TRUE,TRUE,,,,,,,SCT,3800,SCT,4500,OVC,5000,,,VFR,,,,,,,,,,,,METAR,201.0
KPCZ 300955Z AUTO 28008G14KT 10SM -DZ SCT012 BKN042 OVC065 03/01 A2937 RMK AO2 T00300011,KPCZ,2023-04-30T09:55:00Z,44.33,-89.02,3.0,1.1,280,8,14,10.0,29.371063,,,TRUE,TRUE,,,,,,-DZ,SCT,1200,BKN,4200,OVC,6500,,,VFR,,,,,,,,,,,,METAR,248.0
KPCW 300955Z AUTO 00000KT 4SM BR FEW008 BKN015 OVC065 09/09 A2942 RMK AO2,KPCW,2023-04-30T09:55:00Z,41.52,-82.87,9.0,9.0,0,0,,4.0,29.421259,,,TRUE,TRUE,,,,,,BR,FEW,800,BKN,1500,OVC,6500,,,MVFR,,,,,,,,,,,,METAR,179.0
KPCM 300955Z AUTO 23021G30KT 7SM -RA BKN021 BKN028 OVC045 26/22 A2965 RMK AO2,KPCM,2023-04-30T09:55:00Z,28.0,-82.17,26.0,22.0,230,21,30,7.0,29.648623,,,TRUE,TRUE,,,,,,-RA,BKN,2100,BKN,2800,OVC,4500,,,MVFR,,,,,,,,,,,,METAR,43.0
KPCD 300955Z AUTO 26006KT 10SM CLR 05/05 A2968 RMK AO2 T00500045,KPCD,2023-04-30T09:55:00Z,37.87,-89.87,5.0,4.5,260,6,,10.0,29.681103,,,TRUE,TRUE,,,,,,,CLR,,,,,,,,VFR,,,,,,,,,,,,METAR,112.0
KPBX 300955Z AUTO 00000KT 10SM OVC042 12/12 A2952 RMK AO2 T01210120,KPBX,2023-04-30T09:55:00Z,37.57,-82.57,12.1,12.0,0,0,,10.0,29.518702,,,TRUE,TRUE,,,,,,,OVC,4200,,,,,,,VFR,,,,,,,,,,,,METAR,447.0
KPBH 300955Z AUTO 34009G15KT 1 1/2SM -SN OVC009 00/00 A2941 RMK AO2 P0003 T10011001,KPBH,2023-04-30T09:55:00Z,45.7,-90.4,-0.1,-0.1,340,9,15,1.5,29.409449,,,TRUE,TRUE,,,,,,-SN,OVC,900,,,,,,,IFR,,,,,,0.03,,,,,,METAR,445.0
KPAN 300955Z AUTO 00000KT 10SM CLR 13/M06 A3010 RMK AO2 PWINO TSNO,KPAN,2023-04-30T09:55:00Z,34.25,-111.33,13.0,-6.0,0,0,,10.0,30.100393,,,TRUE,TRUE,,,TRUE,,TRUE,,CLR,,,,,,,,VFR,,,,,,,,,,,,METAR,1575.0
KPAM 300955Z AUTO 31013KT 10SM FEW026 FEW036 SCT045 18/15 A2961 RMK AO2 SLP030 T01790146 $,KPAM,2023-04-30T09:55:00Z,30.07,-85.57,17.9,14.6,310,13,,10.0,29.610237,1003.0,,TRUE,TRUE,TRUE,,,,,,FEW,2600,FEW,3600,SCT,4500,,,VFR,,,,,,,,,,,,METAR,4.0
KP58 300955Z AUTO 24006KT 06/04 A2939 RMK AO1 SLP956 T00610044,KP58,2023-04-30T09:55:00Z,44.02,-82.8,6.1,4.4,240,6,,,29.388779,995.6,,TRUE,TRUE,,,,,,,,,,,,,,,,,,,,,,,,,,,SPECI,180.0
KP52 300955Z AUTO 00000KT 10SM CLR 13/M04 A3001 RMK AO2,KP52,2023-04-30T09:55:00Z,34.73,-112.03,13.0,-4.0,0,0,,10.0,30.008858,,,TRUE,TRUE,,,,,,,CLR,,,,,,,,VFR,,,,,,,,,,,,METAR,1085.0
KP08 300955Z AUTO 11008KT 10SM CLR 17/M03 A2985 RMK AO2,KP08,2023-04-30T09:55:00Z,32.93,-111.43,17.0,-3.0,110,8,,10.0,29.84941,,,TRUE,TRUE,,,,,,,CLR,,,,,,,,VFR,,,,,,,,,,,,METAR,477.0
KOZW 300955Z AUTO 17005KT 4SM RA SCT014 BKN021 OVC032 06/06 A2942 RMK AO2 T00600060 P0001,KOZW,2023-04-30T09:55:00Z,42.62,-83.98,6.0,6.0,170,5,,4.0,29.421259,,,TRUE,TRUE,,,,,,RA,SCT,1400,BKN,2100,OVC,3200,,,MVFR,,,,,,0.01,,,,,,METAR,288.0
KOZS 300955Z AUTO 27008KT 10SM CLR 06/01 A2974 RMK AO2,KOZS,2023-04-30T09:55:00Z,37.97,-92.68,6.0,1.0,270,8,,10.0,29.740158,,,TRUE,TRUE,,,,,,,CLR,,,,,,,,VFR,,,,,,,,,,,,METAR,321.0
KOZR 300955Z AUTO 26008KT 10SM -DZ FEW070 SCT090 14/13 A2959 RMK AO2 DZB54 SLP021 T01400125,KOZR,2023-04-30T09:55:00Z,31.28,-85.72,14.0,12.5,260,8,,10.0,29.589567,1002.1,,TRUE,TRUE,,,,,,-DZ,FEW,7000,SCT,9000,,,,,VFR,,,,,,,,,,,,METAR,90.0
KOZA 300955Z AUTO 10SM CLR 06/M07 A3002 RMK AO2,KOZA,2023-04-30T09:55:00Z,30.73,-101.2,6.0,-7.0,,,,10.0,30.02067,,,TRUE,TRUE,,,,,,,CLR,,,,,,,,VFR,,,,,,,,,,,,SPECI,721.0
KOYM 300955Z AUTO 13008KT 10SM BKN007 OVC032 11/10 A2957 RMK AO2 P0001 PWINO,KOYM,2023-04-30T09:55:00Z,41.42,-78.5,11.0,10.0,130,8,,10.0,29.568897,,,TRUE,TRUE,,,,,TRUE,,BKN,700,OVC,3200,,,,,IFR,,,,,,0.01,,,,,,METAR,582.0
KOXV 300955Z AUTO 31011KT 10SM OVC017 05/03 A2967 RMK AO2,KOXV,2023-04-30T09:55:00Z,41.28,-93.12,5.0,3.0,310,11,,10.0,29.66929,,,TRUE,TRUE,,,,,,,OVC,1700,,,,,,,MVFR,,,,,,,,,,,,METAR,280.0
KOXI 300955Z AUTO 25004KT 10SM SCT034 SCT046 BKN060 04/02 A2949 RMK AO1,KOXI,2023-04-30T09:55:00Z,41.33,-86.67,4.0,2.0,250,4,,10.0,29.489174,,,TRUE,TRUE,,,,,,,SCT,3400,SCT,4600,BKN,6000,,,VFR,,,,,,,,,,,,SPECI,208.0
KOXD 300955Z AUTO 00000KT 10SM -RA SCT040 BKN048 OVC055 09/07 A2950 RMK AO2 T00900069,KOXD,2023-04-30T09:55:00Z,39.5,-84.78,9.0,6.9,0,0,,10.0,29.500984,,,TRUE,TRUE,,,,,,-RA,SCT,4000,BKN,4800,OVC,5500,,,VFR,,,,,,,,,,,,METAR,317.0
KOWX 300955Z AUTO 26008KT 7SM BKN034 OVC048 07/05 A2949 RMK AO1,KOWX,2023-04-30T09:55:00Z,41.03,-83.98,7.0,5.0,260,8,,7.0,29.489174,,,TRUE,TRUE,,,,,,,BKN,3400,OVC,4800,,,,,VFR,,,,,,,,,,,,METAR,232.0
KOWP 300955Z AUTO 00000KT 10SM CLR 09/08 A2987 RMK AO2 T00870077,KOWP,2023-04-30T09:55:00Z,36.18,-96.15,8.7,7.7,0,0,,10.0,29.870079,,,TRUE,TRUE,,,,,,,CLR,,,,,,,,VFR,,,,,,,,,,,,METAR,267.0
KOWI 300955Z AUTO 31010KT 10SM CLR 08/03 A2982 RMK AO2,KOWI,2023-04-30T09:55:00Z,38.53,-95.25,8.0,3.0,310,10,,10.0,29.819881,,,TRUE,TRUE,,,,,,,CLR,,,,,,,,VFR,,,,,,,,,,,,METAR,292.0
KOVL 300955Z AUTO 32015KT 10SM CLR 02/00 A2975 RMK AO2,KOVL,2023-04-30T09:55:00Z,44.78,-95.03,2.0,0.0,320,15,,10.0,29.749016,,,TRUE,TRUE,,,,,,,CLR,,,,,,,,VFR,,,,,,,,,,,,METAR,329.0
KOUN 300955Z AUTO 36006KT 10SM CLR 10/05 A2984 RMK AO2 T00960053,KOUN,2023-04-30T09:55:00Z,35.25,-97.47,9.6,5.3,360,6,,10.0,29.840551,,,TRUE,TRUE,,,,,,,CLR,,,,,,,,VFR,,,,,,,,,,,,METAR,359.0
KOSC 300955Z AUTO 22006KT 10SM CLR 03/03 A2940 RMK AO2 T00330033,KOSC,2023-04-30T09:55:00Z,44.45,-83.4,3.3,3.3,220,6,,10.0,29.40059,,,TRUE,TRUE,,,,,,,CLR,,,,,,,,VFR,,,,,,,,,,,,METAR,191.0
KOSA 300955Z AUTO 00000KT 10SM CLR 07/ A2984 RMK AO2 T0075////,KOSA,2023-04-30T09:55:00Z,33.1,-94.97,7.5,,0,0,,10.0,29.840551,,,TRUE,TRUE,,,,,,,CLR,,,,,,,,VFR,,,,,,,,,,,,METAR,108.0
KORS 300955Z AUTO 16009G14KT 9SM CLR 11/08 A2985 RMK AO2,KORS,2023-04-30T09:55:00Z,48.7,-122.92,11.0,8.0,160,9,14,9.0,29.84941,,,TRUE,TRUE,,,,,,,CLR,,,,,,,,VFR,,,,,,,,,,,,METAR,7.0
KORK 300955Z AUTO 31007KT 10SM BKN047 OVC055 11/08 A2977 RMK AO2,KORK,2023-04-30T09:55:00Z,34.83,-92.25,11.0,8.0,310,7,,10.0,29.769686,,,TRUE,TRUE,,,,,,,BKN,4700,OVC,5500,,,,,VFR,,,,,,,,,,,,METAR,166.0
KORG 300955Z AUTO 27003KT 10SM CLR 14/11 A2990 RMK AO2 T01350113,KORG,2023-04-30T09:55:00Z,30.07,-93.8,13.5,11.3,270,3,,10.0,29.899607,,,TRUE,TRUE,,,,,,,CLR,,,,,,,,VFR,,,,,,,,,,,,METAR,2.0
KOQN 300955Z AUTO 06006KT 3/4SM BR OVC001 11/10 A2966 RMK AO2 P0001 LTG DSNT S,KOQN,2023-04-30T09:55:00Z,39.98,-75.58,11.0,10.0,60,6,,0.75,29.660433,,,TRUE,TRUE,,,,,,BR,OVC,100,,,,,,,LIFR,,,,,,0.01,,,,,,METAR,141.0
KOPN 300955Z AUTO 23007KT 10SM -VCTSRA OVC004 16/14 A2944 RMK AO2 LTG DSNT E,KOPN,2023-04-30T09:55:00Z,32.95,-84.27,16.0,14.0,230,7,,10.0,29.438976,,,TRUE,TRUE,,,,,,VCTS -RA,OVC,400,,,,,,,LIFR,,,,,,,,,,,,METAR,241.0
KOPL 300955Z AUTO 28004KT 10SM CLR 13/11 A2985 RMK AO2 T01250108,KOPL,2023-04-30T09:55:00Z,30.55,-92.1,12.5,10.8,280,4,,10.0,29.84941,,,TRUE,TRUE,,,,,,,CLR,,,,,,,,VFR,,,,,,,,,,,,METAR,22.0
KOOA 300955Z AUTO 30014G20KT 10SM SCT070 06/04 A2965 RMK AO2 T00580041,KOOA,2023-04-30T09:55:00Z,41.23,-92.5,5.8,4.1,300,14,20,10.0,29.648623,,,TRUE,TRUE,,,,,,,SCT,7000,,,,,,,VFR,,,,,,,,,,,,METAR,256.0
KONZ 300955Z AUTO 28004KT 7SM UP BKN060 OVC065 07/07 A2943 RMK AO2 T00710067,KONZ,2023-04-30T09:55:00Z,42.1,-83.15,7.1,6.7,280,4,,7.0,29.430119,,,TRUE,TRUE,,,,,,UP,BKN,6000,OVC,6500,,,,,VFR,,,,,,,,,,,,METAR,179.0
KONP 300955Z AUTO 19009KT 10SM OVC007 09/08 A3001 RMK AO2,KONP,2023-04-30T09:55:00Z,44.57,-124.05,9.0,8.0,190,9,,10.0,30.008858,,,TRUE,TRUE,,,,,,,OVC,700,,,,,,,IFR,,,,,,,,,,,,METAR,43.0
KONM 300955Z AUTO 20004KT 10SM CLR 08/M08 A3006 RMK AO2 T00831076,KONM,2023-04-30T09:55:00Z,34.02,-106.9,8.3,-7.6,200,4,,10.0,30.059055,,,TRUE,TRUE,,,,,,,CLR,,,,,,,,VFR,,,,,,,,,,,,METAR,1467.0
KONL 300955Z AUTO 31014KT 10SM CLR 03/M03 A2997 RMK AO2 T00271028,KONL,2023-04-30T09:55:00Z,42.47,-98.68,2.7,-2.8,310,14,,10.0,29.970472,,,TRUE,TRUE,,,,,,,CLR,,,,,,,,VFR,,,,,,,,,,,,METAR,619.0
KOMH 300955Z AUTO 00000KT 10SM BKN005 OVC008 15/15 RMK AO2,KOMH,2023-04-30T09:55:00Z,38.25,-78.05,15.0,15.0,0,0,,10.0,,,,TRUE,TRUE,,,,,,,BKN,500,OVC,800,,,,,IFR,,,,,,,,,,,,METAR,136.0
KOLZ 300955Z AUTO 31015G20KT 10SM FEW075 FEW095 SCT120 04/01 A2957 RMK A01,KOLZ,2023-04-30T09:55:00Z,42.67,-91.97,4.0,1.0,310,15,20,10.0,29.568897,,,TRUE,TRUE,,,,,,,FEW,7500,FEW,9500,SCT,12000,,,VFR,,,,,,,,,,,,METAR,328.0
KOLV 300955Z AUTO 32012KT 10SM CLR 12/09 A2966 RMK A01,KOLV,2023-04-30T09:55:00Z,34.98,-89.78,12.0,9.0,320,12,,10.0,29.660433,,,TRUE,TRUE,,,,,,,CLR,,,,,,,,VFR,,,,,,,,,,,,METAR,124.0
KOLG 300955Z AUTO 34009KT 7SM OVC010 00/00 A2955 RMK AO1,KOLG,2023-04-30T09:55:00Z,46.3,-91.82,0.0,0.0,340,9,,7.0,29.551182,,,TRUE,TRUE,,,,,,,OVC,1000,,,,,,,MVFR,,,,,,,,,,,,METAR,334.0
KOLE 300955Z AUTO 14005KT 10SM OVC009 08/08 A2954 RMK AO2,KOLE,2023-04-30T09:55:00Z,42.23,-78.37,8.0,8.0,140,5,,10.0,29.53937,,,TRUE,TRUE,,,,,,,OVC,900,,,,,,,IFR,,,,,,,,,,,,METAR,651.0
KOKZ 300955Z AUTO 00000KT 7SM VCTSBR OVC003 16/16 A2946 RMK AO2 LTG DSNT W P0001 T01650161,KOKZ,2023-04-30T09:55:00Z,32.97,-82.83,16.5,16.1,0,0,,7.0,29.459646,,,TRUE,TRUE,,,,,,VCTS BR,OVC,300,,,,,,,LIFR,,,,,,0.01,,,,,,METAR,128.0
KOKV 300955Z AUTO 02003KT 7SM -RA SCT004 BKN060 OVC120 13/13 A2952 RMK AO2 LTG DSNT NE,KOKV,2023-04-30T09:55:00Z,39.13,-78.15,13.0,13.0,20,3,,7.0,29.518702,,,TRUE,TRUE,,,,,,-RA,SCT,400,BKN,6000,OVC,12000,,,VFR,,,,,,,,,,,,METAR,213.0
KOKM 300955Z AUTO 29007KT 10SM CLR 07/07 A2984 RMK AO2 T00690069,KOKM,2023-04-30T09:55:00Z,35.67,-95.95,6.9,6.9,290,7,,10.0,29.840551,,,TRUE,TRUE,,,,,,,CLR,,,,,,,,VFR,,,,,,,,,,,,METAR,215.0
KOJA 300955Z AUTO 36004KT 10SM CLR 09/03 A2991 RMK AO2 T00910032,KOJA,2023-04-30T09:55:00Z,35.55,-98.67,9.1,3.2,360,4,,10.0,29.911417,,,TRUE,TRUE,,,,,,,CLR,,,,,,,,VFR,,,,,,,,,,,,METAR,490.0
KOIN 300955Z AUTO 01007KT 10SM OVC110 08/M04 A3006 RMK AO1 T00811036,KOIN,2023-04-30T09:55:00Z,39.83,-100.53,8.1,-3.6,10,7,,10.0,30.059055,,,TRUE,TRUE,,,,,,,OVC,11000,,,,,,,VFR,,,,,,,,,,,,METAR,810.0
KOIC 300955Z AUTO 00000KT 10SM RA OVC014 09/08 A2969 RMK AO2 T00860080,KOIC,2023-04-30T09:55:00Z,42.57,-75.52,8.6,8.0,0,0,,10.0,29.68996,,,TRUE,TRUE,,,,,,RA,OVC,1400,,,,,,,MVFR,,,,,,,,,,,,METAR,311.0
KOGS 300955Z AUTO 00000KT 10SM OVC037 11/07 A2964 RMK AO2,KOGS,2023-04-30T09:55:00Z,44.67,-75.47,11.0,7.0,0,0,,10.0,29.639763,,,TRUE,TRUE,,,,,,,OVC,3700,,,,,,,VFR,,,,,,,,,,,,SPECI,88.0
KOGA 300955Z AUTO 34005KT 10SM CLR 04/M04 A3007 RMK AO2 T00391042,KOGA,2023-04-30T09:55:00Z,41.12,-101.77,3.9,-4.2,340,5,,10.0,30.070866,,,TRUE,TRUE,,,,,,,CLR,,,,,,,,VFR,,,,,,,,,,,,METAR,991.0
KOEO 300955Z AUTO 32011G20KT 10SM -RA OVC016 03/03 A2963 RMK AO2 T00280028,KOEO,2023-04-30T09:55:00Z,45.32,-92.7,2.8,2.8,320,11,20,10.0,29.630905,,,TRUE,TRUE,,,,,,-RA,OVC,1600,,,,,,,MVFR,,,,,,,,,,,,METAR,269.0
KOEL 300955Z AUTO 01009KT 10SM BKN100 09/M04 A3002 RMK AO1 T00881040,KOEL,2023-04-30T09:55:00Z,39.12,-100.82,8.8,-4.0,10,9,,10.0,30.02067,,,TRUE,TRUE,,,,,,,BKN,10000,,,,,,,VFR,,,,,,,,,,,,METAR,924.0
KOEB 300955Z AUTO 26007KT 10SM SCT080 OVC100 05/04 A2944 RMK AO2 T00520035,KOEB,2023-04-30T09:55:00Z,41.92,-85.05,5.2,3.5,260,7,,10.0,29.438976,,,TRUE,TRUE,,,,,,,SCT,8000,OVC,10000,,,,,VFR,,,,,,,,,,,,METAR,291.0
KOCQ 300955Z AUTO 28005KT 7SM OVC007 02/02 A2931 RMK AO1 T00160016,KOCQ,2023-04-30T09:55:00Z,44.87,-87.92,1.6,1.6,280,5,,7.0,29.309055,,,TRUE,TRUE,,,,,,,OVC,700,,,,,,,IFR,,,,,,,,,,,,METAR,181.0
KOBE 300955Z AUTO 20010G15KT 10SM CLR 24/23 A2967 RMK AO2 LTG DSNT W,KOBE,2023-04-30T09:55:00Z,27.27,-80.85,24.0,23.0,200,10,15,10.0,29.66929,,,TRUE,TRUE,,,,,,,CLR,,,,,,,,VFR,,,,,,,,,,,,METAR,11.0
KOAR 300955Z AUTO 00000KT 10SM OVC005 09/08 A2999 RMK AO2 PWINO,KOAR,2023-04-30T09:55:00Z,36.67,-121.77,9.0,8.0,0,0,,10.0,29.991142,,,TRUE,TRUE,,,,,TRUE,,OVC,500,,,,,,,IFR,,,,,,,,,,,,METAR,41.0
KO86 300955Z AUTO 26003KT 10SM 08/04 A2995 RMK A01,KO86,2023-04-30T09:55:00Z,40.98,-122.7,8.0,4.0,260,3,,10.0,29.949802,,,TRUE,TRUE,,,,,,,,,,,,,,,,,,,,,,,,,,,METAR,729.0
KO69 300955Z AUTO VRB03KT 10SM OVC006 08/08 A2998 RMK A01,KO69,2023-04-30T09:55:00Z,38.25,-122.6,8.0,8.0,0,3,,10.0,29.97933,,,TRUE,TRUE,,,,,,,OVC,600,,,,,,,IFR,,,,,,,,,,,,METAR,26.0
KO32 300955Z AUTO 00000KT 8SM CLR 18/18 A2985 RMK AO2 T01820180 $,KO32,2023-04-30T09:55:00Z,36.67,-119.45,18.2,18.0,0,0,,8.0,29.84941,,,TRUE,TRUE,TRUE,,,,,,CLR,,,,,,,,VFR,,,,,,,,,,,,METAR,117.0
KO22 300955Z AUTO 00000KT 10SM CLR 13/11 A2994 RMK A01,KO22,2023-04-30T09:55:00Z,38.03,-120.42,13.0,11.0,0,0,,10.0,29.940945,,,TRUE,TRUE,,,,,,,CLR,,,,,,,,VFR,,,,,,,,,,,,METAR,637.0
KO05 300955Z AUTO 30003KT 10SM SCT029 BKN037 BKN045 04/M01 A3004 RMK A01,KO05,2023-04-30T09:55:00Z,40.28,-121.23,4.0,-1.0,300,3,,10.0,30.041338,,,TRUE,TRUE,,,,,,,SCT,2900,BKN,3700,BKN,4500,,,VFR,,,,,,,,,,,,METAR,1380.0
KNUQ 300955Z AUTO 00000KT 10SM CLR 11/09 A2999 RMK AO2,KNUQ,2023-04-30T09:55:00Z,37.4,-122.05,11.0,9.0,0,0,,10.0,29.991142,,,TRUE,TRUE,,,,,,,CLR,,,,,,,,VFR,,,,,,,,,,,,METAR,9.0
KNTD 300955Z AUTO 17006KT OVC003 12/12 A2995 RMK AO2 SLP142 T01220117 $,KNTD,2023-04-30T09:55:00Z,34.12,-119.12,12.2,11.7,170,6,,,29.949802,1014.2,,TRUE,TRUE,TRUE,,,,,,OVC,300,,,,,,,,,,,,,,,,,,,METAR,1.0
KNRN 300955Z AUTO 33005KT 10SM CLR 05/M03 A3004 RMK AO2,KNRN,2023-04-30T09:55:00Z,39.85,-99.9,5.0,-3.0,330,5,,10.0,30.041338,,,TRUE,TRUE,,,,,,,CLR,,,,,,,,VFR,,,,,,,,,,,,SPECI,726.0
KNKX 300955Z 00000KT 8SM OVC007 13/12 A2995 RMK AO2 SLP137 T01280122,KNKX,2023-04-30T09:55:00Z,32.87,-117.13,12.8,12.2,0,0,,8.0,29.949802,1013.7,,,TRUE,,,,,,,OVC,700,,,,,,,IFR,,,,,,,,,,,,METAR,138.0
KNBG 300955Z AUTO 29007KT 10SM OVC046 17/13 A2980 RMK AO2 SLP091 T01670133 $,KNBG,2023-04-30T09:55:00Z,29.83,-90.02,16.7,13.3,290,7,,10.0,29.799213,1009.1,,TRUE,TRUE,TRUE,,,,,,OVC,4600,,,,,,,VFR,,,,,,,,,,,,SPECI,0.0
KN79 300955Z AUTO 00000KT 10SM SCT015 OVC025 12/11 A2960 RMK AO2 CIG 021V028 T01200114,KN79,2023-04-30T09:55:00Z,,,12.0,11.4,0,0,,10.0,29.601377,,,TRUE,TRUE,,,,,,,SCT,1500,OVC,2500,,,,,MVFR,,,,,,,,,,,,METAR,
KN38 300955Z AUTO 16005KT 5SM -RA OVC005 09/09 A2958 RMK AO2,KN38,2023-04-30T09:55:00Z,41.73,-77.4,9.0,9.0,160,5,,5.0,29.58071,,,TRUE,TRUE,,,,,,-RA,OVC,500,,,,,,,IFR,,,,,,,,,,,,METAR,576.0
KN03 300955Z AUTO 34003KT 10SM BKN010 OVC080 09/07 A2962 RMK AO2,KN03,2023-04-30T09:55:00Z,42.6,-76.22,9.0,7.0,340,3,,10.0,29.619095,,,TRUE,TRUE,,,,,,,BKN,1000,OVC,8000,,,,,MVFR,,,,,,,,,,,,METAR,361.0
KMZZ 300955Z AUTO 25007KT 10SM SCT085 05/04 A2951 RMK AO2 T00500042,KMZZ,2023-04-30T09:55:00Z,40.48,-85.68,5.0,4.2,250,7,,10.0,29.509842,,,TRUE,TRUE,,,,,,,SCT,8500,,,,,,,VFR,,,,,,,,,,,,SPECI,260.0
KMZH 300955Z AUTO 34009G20KT 3SM UP SCT010 BKN015 OVC020 01/00 A2962 RMK AO2 P0002,KMZH,2023-04-30T09:55:00Z,46.42,-92.8,1.0,0.0,340,9,20,3.0,29.619095,,,TRUE,TRUE,,,,,,UP,SCT,1000,BKN,1500,OVC,2000,,,MVFR,,,,,,0.02,,,,,,METAR,331.0
KMYZ 300955Z AUTO 32005KT 10SM CLR 05/00 A2989 RMK AO2,KMYZ,2023-04-30T09:55:00Z,39.85,-96.63,5.0,0.0,320,5,,10.0,29.890747,,,TRUE,TRUE,,,,,,,CLR,,,,,,,,VFR,,,,,,,,,,,,METAR,388.0
KMYP 300955Z AUTO 29026KT 10SM CLR 00/M08 A3041 RMK AO2,KMYP,2023-04-30T09:55:00Z,38.48,-106.32,0.0,-8.0,290,26,,10.0,30.410433,,,TRUE,TRUE,,,,,,,CLR,,,,,,,,VFR,,,,,,,,,,,,METAR,3629.0
KMYJ 300955Z AUTO 28009KT 10SM CLR 05/03 A2967 RMK AO2,KMYJ,2023-04-30T09:55:00Z,39.15,-91.82,5.0,3.0,280,9,,10.0,29.66929,,,TRUE,TRUE,,,,,,,CLR,,,,,,,,VFR,,,,,,,,,,,,METAR,249.0
KMXF 300955Z AUTO 30009KT 7SM -RA BKN006 OVC010 15/13 A2954 RMK AO2 DZB10E15RAB15 BKN V OVC SLP005 P0011 T01520125,KMXF,2023-04-30T09:55:00Z,32.38,-86.37,15.2,12.5,300,9,,7.0,29.53937,1000.5,,TRUE,TRUE,,,,,,-RA,BKN,600,OVC,1000,,,,,IFR,,,,,,0.11,,,,,,METAR,47.0
KMWO 300955Z AUTO 31004KT 10SM +RA OVC031 08/06 A2951 RMK AO2 P0005 T00760056,KMWO,2023-04-30T09:55:00Z,39.53,-84.4,7.6,5.6,310,4,,10.0,29.509842,,,TRUE,TRUE,,,,,,+RA,OVC,3100,,,,,,,VFR,,,,,,0.05,,,,,,METAR,197.0
KMWN 300955Z 12050G57KT 1/16SM -PLFZRA FZFG VV000 M03/M03 RMK SNE20 VRY LGT GICG,KMWN,2023-04-30T09:55:00Z,44.27,-71.3,-3.0,-3.0,120,50,57,0.06,,,,,,,,,,,FZRA FZFG -PL,OVX,0,,,,,,,LIFR,,,,,,,,,,,0,SPECI,1911.0
KMWM 300955Z AUTO 31020G24KT 10SM CLR 03/01 A2974 RMK AO2,KMWM,2023-04-30T09:55:00Z,43.9,-95.1,3.0,1.0,310,20,24,10.0,29.740158,,,TRUE,TRUE,,,,,,,CLR,,,,,,,,VFR,,,,,,,,,,,,METAR,427.0
KMWA 300955Z AUTO 25003KT 10SM CLR 06/06 A2967 RMK AO2 T00630063,KMWA,2023-04-30T09:55:00Z,37.77,-89.02,6.3,6.3,250,3,,10.0,29.66929,,,TRUE,TRUE,,,,,,,CLR,,,,,,,,VFR,,,,,,,,,,,,METAR,142.0
KMVE 300955Z AUTO 33014G19KT 10SM CLR 02/01 A2982 RMK AO2,KMVE,2023-04-30T09:55:00Z,44.97,-95.72,2.0,1.0,330,14,19,10.0,29.819881,,,TRUE,TRUE,,,,,,,CLR,,,,,,,,VFR,,,,,,,,,,,,METAR,319.0
KMUT 300955Z AUTO 29013KT 10SM FEW060 BKN075 OVC090 07/04 A2959 RMK AO2,KMUT,2023-04-30T09:55:00Z,41.37,-91.15,7.0,4.0,290,13,,10.0,29.589567,,,TRUE,TRUE,,,,,,,FEW,6000,BKN,7500,OVC,9000,,,VFR,,,,,,,,,,,,METAR,166.0
KMUO 300955Z AUTO 07005KT 10SM CLR 10/03 A2987 RMK AO2 SLP096 T01040030,KMUO,2023-04-30T09:55:00Z,43.03,-115.87,10.4,3.0,70,5,,10.0,29.870079,1009.6,,TRUE,TRUE,,,,,,,CLR,,,,,,,,VFR,,,,,,,,,,,,METAR,915.0
KMTV 300955Z AUTO 00000KT 5SM RA SCT048 BKN060 OVC065 15/13 A2954 RMK AO2 P0014 T01470134,KMTV,2023-04-30T09:55:00Z,36.63,-80.02,14.7,13.4,0,0,,5.0,29.53937,,,TRUE,TRUE,,,,,,RA,SCT,4800,BKN,6000,OVC,6500,,,MVFR,,,,,,0.14,,,,,,METAR,276.0
KMTN 300955Z 06004KT 10SM OVC018 15/14 A2960 RMK FIRST,KMTN,2023-04-30T09:55:00Z,39.32,-76.42,15.0,14.0,60,4,,10.0,29.601377,,,,,,,,,,,OVC,1800,,,,,,,MVFR,,,,,,,,,,,,METAR,2.0
KMTK 300955Z AUTO 32027G32KT 10SM FEW028 BKN037 OVC042 19/13 A2979 RMK A01,KMTK,2023-04-30T09:55:00Z,,,19.0,13.0,320,27,32,10.0,29.790354,,,TRUE,TRUE,,,,,,,FEW,2800,BKN,3700,OVC,4200,,,VFR,,,,,,,,,,,,METAR,
KMRJ 300955Z AUTO 28010KT 10SM SCT044 03/M06 A2948 RMK AO2 PWINO,KMRJ,2023-04-30T09:55:00Z,42.88,-90.23,3.0,-6.0,280,10,,10.0,29.480314,,,TRUE,TRUE,,,,,TRUE,,SCT,4400,,,,,,,VFR,,,,,,,,,,,,METAR,350.0
KMQW 300955Z AUTO 00000KT 10SM -RA BKN008 BKN015 OVC110 19/18 A2946 RMK AO2 LTG DSNT N P0003 T01860183,KMQW,2023-04-30T09:55:00Z,32.1,-82.88,18.6,18.3,0,0,,10.0,29.459646,,,TRUE,TRUE,,,,,,-RA,BKN,800,BKN,1500,OVC,11000,,,IFR,,,,,,0.03,,,,,,METAR,62.0
KMQS 300955Z AUTO 07006G12KT 1/4SM FG OVC001 11/11 A2964 RMK AO2,KMQS,2023-04-30T09:55:00Z,39.98,-75.87,11.0,11.0,70,6,12,0.25,29.639763,,,TRUE,TRUE,,,,,,FG,OVC,100,,,,,,,LIFR,,,,,,,,,,,,METAR,200.0
KMQJ 300955Z AUTO 25006KT 10SM CLR 03/03 A2953 RMK AO1,KMQJ,2023-04-30T09:55:00Z,39.85,-85.9,3.0,3.0,250,6,,10.0,29.530512,,,TRUE,TRUE,,,,,,,CLR,,,,,,,,VFR,,,,,,,,,,,,METAR,262.0
KMQB 300955Z AUTO 25006KT 10SM SCT080 BKN090 04/04 A2961 RMK AO2 T00440035,KMQB,2023-04-30T09:55:00Z,40.52,-90.65,4.4,3.5,250,6,,10.0,29.610237,,,TRUE,TRUE,,,,,,,SCT,8000,BKN,9000,,,,,VFR,,,,,,,,,,,,METAR,205.0
KMPZ 300955Z AUTO 29008G15KT 10SM SCT070 05/03 A2961 RMK AO2,KMPZ,2023-04-30T09:55:00Z,40.95,-91.52,5.0,3.0,290,8,15,10.0,29.610237,,,TRUE,TRUE,,,,,,,SCT,7000,,,,,,,VFR,,,,,,,,,,,,SPECI,222.0
KMPR 300955Z AUTO 33009KT 10SM CLR 05/01 A2992 RMK AO2 T00460005,KMPR,2023-04-30T09:55:00Z,38.35,-97.68,4.6,0.5,330,9,,10.0,29.920275,,,TRUE,TRUE,,,,,,,CLR,,,,,,,,VFR,,,,,,,,,,,,METAR,455.0
KMOX 300955Z AUTO 33015G20KT 10SM CLR 01/00 A2983 RMK AO2,KMOX,2023-04-30T09:55:00Z,45.57,-95.97,1.0,0.0,330,15,20,10.0,29.828741,,,TRUE,TRUE,,,,,,,CLR,,,,,,,,VFR,,,,,,,,,,,,METAR,346.0
KMOP 300955Z AUTO 17005KT 10SM +RA BKN027 OVC035 06/04 A2939 RMK AO2 T00560041,KMOP,2023-04-30T09:55:00Z,43.62,-84.73,5.6,4.1,170,5,,10.0,29.388779,,,TRUE,TRUE,,,,,,+RA,BKN,2700,OVC,3500,,,,,MVFR,,,,,,,,,,,,METAR,229.0
KMNZ 300955Z AUTO 22005KT 10SM CLR 10/06 A2991 RMK AO2 T01000058,KMNZ,2023-04-30T09:55:00Z,31.67,-98.15,10.0,5.8,220,5,,10.0,29.911417,,,TRUE,TRUE,,,,,,,CLR,,,,,,,,VFR,,,,,,,,,,,,METAR,397.0
KMNV 300955Z AUTO 00000KT 10SM 15/ A2949 RMK A01,KMNV,2023-04-30T09:55:00Z,35.55,-84.38,15.0,,0,0,,10.0,29.489174,,,TRUE,TRUE,,,,,,,,,,,,,,,,,,,,,,,,,,,METAR,306.0
KMNI 300955Z AUTO 21007KT 10SM OVC008 20/19 A2945 RMK AO2,KMNI,2023-04-30T09:55:00Z,33.58,-80.22,20.0,19.0,210,7,,10.0,29.450787,,,TRUE,TRUE,,,,,,,OVC,800,,,,,,,IFR,,,,,,,,,,,,METAR,29.0
KMNH 300955Z AUTO 25006KT 10SM CLR 01/00 A3014 RMK AO2,KMNH,2023-04-30T09:55:00Z,39.22,-104.65,1.0,0.0,250,6,,10.0,30.138779,,,TRUE,TRUE,,,,,,,CLR,,,,,,,,VFR,,,,,,,,,,,,METAR,2152.0
KMMU 300955Z AUTO 02005KT 4SM BR OVC003 10/10 A2972 RMK AO2,KMMU,2023-04-30T09:55:00Z,40.78,-74.42,10.0,10.0,20,5,,4.0,29.719488,,,TRUE,TRUE,,,,,,BR,OVC,300,,,,,,,LIFR,,,,,,,,,,,,METAR,55.0
KMMT 300955Z AUTO 00000KT 10SM OVC003 M A2943 RMK AO2 DZB15E23RAB26E36 OVC V BKN SLPNO ALSTG ESTMD P0000 $,KMMT,2023-04-30T09:55:00Z,33.92,-80.8,,,0,0,,10.0,29.430119,,,TRUE,TRUE,TRUE,,,,,,OVC,300,,,,,,,LIFR,,,,,,0.005,,,,,,SPECI,76.0
KMMI 300955Z AUTO 00000KT 9SM SCT050 BKN070 OVC110 15/15 A2952 RMK A01,KMMI,2023-04-30T09:55:00Z,35.4,-84.57,15.0,15.0,0,0,,9.0,29.518702,,,TRUE,TRUE,,,,,,,SCT,5000,BKN,7000,OVC,11000,,,VFR,,,,,,,,,,,,METAR,252.0
KMMH 300955Z AUTO 00000KT 10SM CLR 05/M01 A3018 RMK AO2 T00541010,KMMH,2023-04-30T09:55:00Z,37.62,-118.83,5.4,-1.0,0,0,,10.0,30.180119,,,TRUE,TRUE,,,,,,,CLR,,,,,,,,VFR,,,,,,,,,,,,METAR,2167.0
KMLJ 300955Z AUTO 10005KT 5SM VCTS RA BR FEW006 BKN018 OVC024 16/16 A2945 RMK AO2 LTG DSNT SW,KMLJ,2023-04-30T09:55:00Z,33.15,-83.25,16.0,16.0,100,5,,5.0,29.450787,,,TRUE,TRUE,,,,,,VCTS RA BR,FEW,600,BKN,1800,OVC,2400,,,MVFR,,,,,,,,,,,,METAR,115.0
KMLE 300955Z AUTO 32011G20KT 10SM CLR 06/00 A2985 RMK AO2 T00640003,KMLE,2023-04-30T09:55:00Z,41.2,-96.12,6.4,0.3,320,11,20,10.0,29.84941,,,TRUE,TRUE,,,,,,,CLR,,,,,,,,VFR,,,,,,,,,,,,METAR,318.0
KMKS 300955Z AUTO 21005KT 10SM CLR 20/19 A2945 RMK AO2,KMKS,2023-04-30T09:55:00Z,33.18,-80.03,20.0,19.0,210,5,,10.0,29.450787,,,TRUE,TRUE,,,,,,,CLR,,,,,,,,VFR,,,,,,,,,,,,METAR,22.0
KMKN 300955Z AUTO 24012KT 10SM 16/03 A2991 RMK AO2 T01570030,KMKN,2023-04-30T09:55:00Z,31.92,-98.6,15.7,3.0,240,12,,10.0,29.911417,,,TRUE,TRUE,,,,,,,,,,,,,,,,,,,,,,,,,,,METAR,428.0
KMKJ 300955Z AUTO 00000KT 10SM OVC065 12/11 A2957 RMK AO2 T01170109,KMKJ,2023-04-30T09:55:00Z,36.88,-81.33,11.7,10.9,0,0,,10.0,29.568897,,,TRUE,TRUE,,,,,,,OVC,6500,,,,,,,VFR,,,,,,,,,,,,METAR,777.0
KMKG 300955Z 27008G19KT 9SM -RA FEW013 BKN019 OVC030 05/02 A2941 RMK AO2 RAB39 SLP964 P0000 T00500017,KMKG,2023-04-30T09:55:00Z,43.17,-86.23,5.0,1.7,270,8,19,9.0,29.409449,996.4,,,TRUE,,,,,,-RA,FEW,1300,BKN,1900,OVC,3000,,,MVFR,,,,,,0.005,,,,,,METAR,190.0
KMJQ 300955Z AUTO 32018G25KT 10SM CLR 02/00 A2974 RMK AO2,KMJQ,2023-04-30T09:55:00Z,43.63,-94.98,2.0,0.0,320,18,25,10.0,29.740158,,,TRUE,TRUE,,,,,,,CLR,,,,,,,,VFR,,,,,,,,,,,,METAR,439.0
KMJD 300955Z AUTO 29005G10KT 10SM OVC039 16/15 A2976 RMK AO2,KMJD,2023-04-30T09:55:00Z,30.48,-89.65,16.0,15.0,290,5,10,10.0,29.760826,,,TRUE,TRUE,,,,,,,OVC,3900,,,,,,,VFR,,,,,,,,,,,,METAR,17.0
KMIO 300955Z AUTO 00000KT 10SM FEW050 FEW055 05/05 A2982 RMK AO2,KMIO,2023-04-30T09:55:00Z,36.92,-94.88,5.0,5.0,0,0,,10.0,29.819881,,,TRUE,TRUE,,,,,,,FEW,5000,FEW,5500,,,,,VFR,,,,,,,,,,,,METAR,245.0
KMHR 300955Z AUTO 15006KT 10SM CLR 11/07 A2989 RMK A01,KMHR,2023-04-30T09:55:00Z,38.55,-121.28,11.0,7.0,150,6,,10.0,29.890747,,,TRUE,TRUE,,,,,,,CLR,,,,,,,,VFR,,,,,,,,,,,,METAR,30.0
KMHP 300955Z AUTO 21006KT 5SM -RA BKN006 OVC014 19/ A2947 RMK AO2 LTG DSNT NW T0190////,KMHP,2023-04-30T09:55:00Z,32.37,-82.08,19.0,,210,6,,5.0,29.471457,,,TRUE,TRUE,,,,,,-RA,BKN,600,OVC,1400,,,,,IFR,,,,,,,,,,,,METAR,60.0
KMHL 300955Z AUTO 27007KT 10SM CLR 07/01 A2973 RMK AO2,KMHL,2023-04-30T09:55:00Z,39.1,-93.2,7.0,1.0,270,7,,10.0,29.731298,,,TRUE,TRUE,,,,,,,CLR,,,,,,,,VFR,,,,,,,,,,,,METAR,236.0
KMGR 300955Z AUTO 30016KT 10SM FEW015 SCT027 BKN050 18/15 A2955 RMK AO2 FEW V SCT T01760154,KMGR,2023-04-30T09:55:00Z,31.08,-83.8,17.6,15.4,300,16,,10.0,29.551182,,,TRUE,TRUE,,,,,,,FEW,1500,SCT,2700,BKN,5000,,,VFR,,,,,,,,,,,,METAR,86.0
KMGN 300955Z AUTO 00000KT 10SM BKN032 03/03 A2934 RMK AO2 T00380030,KMGN,2023-04-30T09:55:00Z,45.43,-84.92,3.8,3.0,0,0,,10.0,29.338583,,,TRUE,TRUE,,,,,,,BKN,3200,,,,,,,VFR,,,,,,,,,,,,METAR,205.0
KMGG 300955Z AUTO 32016G21KT 10SM OVC035 04/M02 A2969 RMK AO2 T00431022,KMGG,2023-04-30T09:55:00Z,45.23,-93.98,4.3,-2.2,320,16,21,10.0,29.68996,,,TRUE,TRUE,,,,,,,OVC,3500,,,,,,,VFR,,,,,,,,,,,,METAR,310.0
KMGE 300955Z AUTO 33003KT 6SM +RA BR OVC032 14/13 A2949 RMK AO2 LTG DSNT SW SLP981 P0029 T01380128 $,KMGE,2023-04-30T09:55:00Z,33.92,-84.52,13.8,12.8,330,3,,6.0,29.489174,998.1,,TRUE,TRUE,TRUE,,,,,+RA BR,OVC,3200,,,,,,,VFR,,,,,,0.29,,,,,,METAR,309.0
KMEZ 300955Z AUTO 00000KT 10SM CLR 12/05 A2983 RMK AO2 T01220055,KMEZ,2023-04-30T09:55:00Z,34.55,-94.2,12.2,5.5,0,0,,10.0,29.828741,,,TRUE,TRUE,,,,,,,CLR,,,,,,,,VFR,,,,,,,,,,,,METAR,320.0
KMEV 300955Z AUTO 15004KT 10SM SCT043 BKN050 BKN055 06/M01 A3003 RMK AO2,KMEV,2023-04-30T09:55:00Z,38.98,-119.75,6.0,-1.0,150,4,,10.0,30.029528,,,TRUE,TRUE,,,,,,,SCT,4300,BKN,5000,BKN,5500,,,VFR,,,,,,,,,,,,METAR,1437.0
KMDZ 300955Z AUTO 31011KT 1/2SM OVC007 00/00 A2939 RMK AO2 T00000000 PWINO,KMDZ,2023-04-30T09:55:00Z,45.1,-90.3,0.0,0.0,310,11,,0.5,29.388779,,,TRUE,TRUE,,,,,TRUE,,OVC,700,,,,,,,LIFR,,,,,,,,,,,,METAR,446.0
KMDS 300955Z AUTO 34022G30KT 10SM OVC016 03/03 A2987 RMK AO2,KMDS,2023-04-30T09:55:00Z,44.02,-97.08,3.0,3.0,340,22,30,10.0,29.870079,,,TRUE,TRUE,,,,,,,OVC,1600,,,,,,,MVFR,,,,,,,,,,,,METAR,524.0
KMDQ 300955Z AUTO 10SM OVC095 14/12 A2958 RMK A02 T01430118,KMDQ,2023-04-30T09:55:00Z,34.87,-86.55,14.3,11.8,,,,10.0,29.58071,,,TRUE,TRUE,,,,,,,OVC,9500,,,,,,,VFR,,,,,,,,,,,,METAR,221.0
KMDD 300955Z AUTO 26004KT 10SM 13/M03 A3000 RMK AO2 T01301032,KMDD,2023-04-30T09:55:00Z,32.03,-102.1,13.0,-3.2,260,4,,10.0,30.0,,,TRUE,TRUE,,,,,,,,,,,,,,,,,,,,,,,,,,,METAR,853.0
KMCJ 300955Z AUTO 29008KT 10SM FEW032 SCT043 BKN050 16/07 A2989 RMK A01,KMCJ,2023-04-30T09:55:00Z,29.72,-95.4,16.0,7.0,290,8,,10.0,29.890747,,,TRUE,TRUE,,,,,,,FEW,3200,SCT,4300,BKN,5000,,,VFR,,,,,,,,,,,,METAR,70.0
KMCF 300955Z AUTO 24023G31KT 10SM CLR 25/21 A2959 RMK AO2 PK WND 22035/29 RAB19E20DZB20E28RAB28E29 SLP023 P0000 T02480207 FZRANO $,KMCF,2023-04-30T09:55:00Z,27.85,-82.52,24.8,20.7,240,23,31,10.0,29.589567,1002.3,,TRUE,TRUE,TRUE,,,TRUE,,,CLR,,,,,,,,VFR,,,,,,0.005,,,,,,METAR,3.0
KMCD 300955Z AUTO 23003KT 10SM BKN029 OVC036 03/03 A2934 RMK AO2 T00270027,KMCD,2023-04-30T09:55:00Z,45.85,-84.63,2.7,2.7,230,3,,10.0,29.338583,,,TRUE,TRUE,,,,,,,BKN,2900,OVC,3600,,,,,MVFR,,,,,,,,,,,,METAR,228.0
KMCC 300955Z AUTO 14007KT 10SM CLR 13/08 A2989 RMK AO2,KMCC,2023-04-30T09:55:00Z,38.67,-121.4,13.0,8.0,140,7,,10.0,29.890747,,,TRUE,TRUE,,,,,,,CLR,,,,,,,,VFR,,,,,,,,,,,,METAR,21.0
KMBY 300955Z AUTO 27006KT 10SM SCT049 05/01 A2969 RMK AO2,KMBY,2023-04-30T09:55:00Z,39.47,-92.43,5.0,1.0,270,6,,10.0,29.68996,,,TRUE,TRUE,,,,,,,SCT,4900,,,,,,,VFR,,,,,,,,,,,,METAR,263.0
KMBT 300955Z AUTO 25003KT 10SM SCT027 BKN034 OVC046 13/11 A2955 RMK A01,KMBT,2023-04-30T09:55:00Z,35.88,-86.38,13.0,11.0,250,3,,10.0,29.551182,,,TRUE,TRUE,,,,,,,SCT,2700,BKN,3400,OVC,4600,,,VFR,,,,,,,,,,,,METAR,187.0
KMBO 300955Z AUTO 28006KT 10SM CLR 13/13 A2974 RMK AO2,KMBO,2023-04-30T09:55:00Z,32.43,-90.1,13.0,13.0,280,6,,10.0,29.740158,,,TRUE,TRUE,,,,,,,CLR,,,,,,,,VFR,,,,,,,,,,,,METAR,98.0
KMAW 300955Z AUTO 32009KT 10SM CLR 10/05 A2971 RMK AO1,KMAW,2023-04-30T09:55:00Z,36.6,-90.0,10.0,5.0,320,9,,10.0,29.71063,,,TRUE,TRUE,,,,,,,CLR,,,,,,,,VFR,,,,,,,,,,,,METAR,88.0
KMAO 300955Z AUTO 23004KT 10SM OVC005 18/16 A2947 RMK AO2,KMAO,2023-04-30T09:55:00Z,34.18,-79.33,18.0,16.0,230,4,,10.0,29.471457,,,TRUE,TRUE,,,,,,,OVC,500,,,,,,,IFR,,,,,,,,,,,,METAR,27.0
KMAN 300955Z AUTO 14004KT 10SM CLR 10/06 A2988 RMK A01,KMAN,2023-04-30T09:55:00Z,43.58,-116.52,10.0,6.0,140,4,,10.0,29.878937,,,TRUE,TRUE,,,,,,,CLR,,,,,,,,VFR,,,,,,,,,,,,METAR,773.0
KM75 300955Z AUTO 06007KT 10SM CLR 05/M02 A3011 RMK A01,KM75,2023-04-30T09:55:00Z,48.37,-107.92,5.0,-2.0,60,7,,10.0,30.109253,,,TRUE,TRUE,,,,,,,CLR,,,,,,,,VFR,,,,,,,,,,,,METAR,687.0
KM40 300955Z AUTO 00000KT 7SM CLR 13/13 A2966 RMK AO2,KM40,2023-04-30T09:55:00Z,33.87,-88.48,13.0,13.0,0,0,,7.0,29.660433,,,TRUE,TRUE,,,,,,,CLR,,,,,,,,VFR,,,,,,,,,,,,METAR,68.0
KM30 300955Z AUTO 31006KT 10SM CLR 08/05 A2966 RMK AO2 T00760045,KM30,2023-04-30T09:55:00Z,37.18,-88.75,7.6,4.5,310,6,,10.0,29.660433,,,TRUE,TRUE,,,,,,,CLR,,,,,,,,VFR,,,,,,,,,,,,METAR,116.0
KM25 300955Z AUTO 34008KT 10SM CLR 08/05 A2966 RMK AO2 PWINO,KM25,2023-04-30T09:55:00Z,36.77,-88.58,8.0,5.0,340,8,,10.0,29.660433,,,TRUE,TRUE,,,,,TRUE,,CLR,,,,,,,,VFR,,,,,,,,,,,,METAR,157.0
KM21 300955Z AUTO 00000KT 10SM CLR 07/05 A2961 RMK AO2 T00700050,KM21,2023-04-30T09:55:00Z,37.22,-87.15,7.0,5.0,0,0,,10.0,29.610237,,,TRUE,TRUE,,,,,,,CLR,,,,,,,,VFR,,,,,,,,,,,,METAR,127.0
KM08 300955Z AUTO 28005KT 10SM CLR 12/10 A2964 RMK A01,KM08,2023-04-30T09:55:00Z,35.22,-89.05,12.0,10.0,280,5,,10.0,29.639763,,,TRUE,TRUE,,,,,,,CLR,,,,,,,,VFR,,,,,,,,,,,,METAR,149.0
KM02 300955Z AUTO 34015G21KT 10SM BKN012 OVC017 11/11 A2957 RMK A01,KM02,2023-04-30T09:55:00Z,36.13,-87.43,11.0,11.0,340,15,21,10.0,29.568897,,,TRUE,TRUE,,,,,,,BKN,1200,OVC,1700,,,,,MVFR,,,,,,,,,,,,METAR,268.0
KM01 300955Z AUTO 34012KT 7SM CLR 13/09 A2966 RMK AO2 T01270093 $,KM01,2023-04-30T09:55:00Z,35.2,-90.05,12.7,9.3,340,12,,7.0,29.660433,,,TRUE,TRUE,TRUE,,,,,,CLR,,,,,,,,VFR,,,,,,,,,,,,METAR,68.0
KLYV 300955Z AUTO 33012G18KT 10SM SCT018 03/00 A2983 RMK AO2,KLYV,2023-04-30T09:55:00Z,43.62,-96.22,3.0,0.0,330,12,18,10.0,29.828741,,,TRUE,TRUE,,,,,,,SCT,1800,,,,,,,VFR,,,,,,,,,,,,METAR,435.0
KLYO 300955Z AUTO 35009KT 10SM CLR 09/M01 A2993 RMK AO2 T00851009,KLYO,2023-04-30T09:55:00Z,38.35,-98.23,8.5,-0.9,350,9,,10.0,29.929134,,,TRUE,TRUE,,,,,,,CLR,,,,,,,,VFR,,,,,,,,,,,,METAR,515.0
KLXY 300955Z AUTO 22004KT 10SM CLR 09/08 A2987 RMK AO2 T00920076,KLXY,2023-04-30T09:55:00Z,31.63,-96.52,9.2,7.6,220,4,,10.0,29.870079,,,TRUE,TRUE,,,,,,,CLR,,,,,,,,VFR,,,,,,,,,,,,METAR,164.0
KLXN 300955Z AUTO 32010KT 10SM CLR 02/M04 A3003 RMK AO2 T00231037,KLXN,2023-04-30T09:55:00Z,40.78,-99.77,2.3,-3.7,320,10,,10.0,30.029528,,,TRUE,TRUE,,,,,,,CLR,,,,,,,,VFR,,,,,,,,,,,,METAR,734.0
KLXL 300955Z AUTO 34014G22KT 303V003 10SM BKN037 BKN050 BKN120 03/M02 A2971 RMK AO2,KLXL,2023-04-30T09:55:00Z,45.95,-94.33,3.0,-2.0,340,14,22,10.0,29.71063,,,TRUE,TRUE,,,,,,,BKN,3700,BKN,5000,BKN,12000,,,VFR,,,,,,,,,,,,METAR,335.0
KLWB 300955Z AUTO 00000KT 10SM SCT025 SCT042 BKN110 11/10 A2955 RMK AO2 T01080103,KLWB,2023-04-30T09:55:00Z,37.87,-80.4,10.8,10.3,0,0,,10.0,29.551182,,,TRUE,TRUE,,,,,,,SCT,2500,SCT,4200,BKN,11000,,,VFR,,,,,,,,,,,,METAR,702.0
KLWA 300955Z AUTO 27007KT 10SM SCT028 SCT075 05/03 A2945 RMK AO2 T00540027,KLWA,2023-04-30T09:55:00Z,42.35,-86.25,5.4,2.7,270,7,,10.0,29.450787,,,TRUE,TRUE,,,,,,,SCT,2800,SCT,7500,,,,,VFR,,,,,,,,,,,,METAR,199.0
KLVN 300955Z AUTO 32020G25KT 10SM BKN035 BKN043 OVC080 04/M02 A2961 RMK AO2,KLVN,2023-04-30T09:55:00Z,44.63,-93.23,4.0,-2.0,320,20,25,10.0,29.610237,,,TRUE,TRUE,,,,,,,BKN,3500,BKN,4300,OVC,8000,,,VFR,,,,,,,,,,,,METAR,292.0
KLUX 300955Z AUTO 00000KT 7SM SCT021 BKN060 OVC110 15/15 A2947 RMK AO2 LTG DSNT SW P0002,KLUX,2023-04-30T09:55:00Z,34.5,-81.95,15.0,15.0,0,0,,7.0,29.471457,,,TRUE,TRUE,,,,,,,SCT,2100,BKN,6000,OVC,11000,,,VFR,,,,,,0.02,,,,,,METAR,213.0
KLUV 300955Z AUTO 26005KT 10SM CLR 12/M04 A2999 RMK AO2,KLUV,2023-04-30T09:55:00Z,32.75,-101.92,12.0,-4.0,260,5,,10.0,29.991142,,,TRUE,TRUE,,,,,,,CLR,,,,,,,,VFR,,,,,,,,,,,,SPECI,910.0
KLUM 300955Z 30011G17KT 10SM OVC012 03/02 A2953 RMK AO2 T00290020 PWINO,KLUM,2023-04-30T09:55:00Z,44.9,-91.87,2.9,2.0,300,11,17,10.0,29.530512,,,,TRUE,,,,,TRUE,,OVC,1200,,,,,,,MVFR,,,,,,,,,,,,METAR,271.0
KLUL 300955Z AUTO 30007KT 10SM OVC012 15/ A2972 RMK A02 T0147////,KLUL,2023-04-30T09:55:00Z,31.67,-89.17,14.7,,300,7,,10.0,29.719488,,,TRUE,TRUE,,,,,,,OVC,1200,,,,,,,MVFR,,,,,,,,,,,,METAR,74.0
KLUG 300955Z AUTO 00000KT 10SM CLR 12/12 A2957 RMK A01,KLUG,2023-04-30T09:55:00Z,35.52,-86.8,12.0,12.0,0,0,,10.0,29.568897,,,TRUE,TRUE,,,,,,,CLR,,,,,,,,VFR,,,,,,,,,,,,METAR,218.0
KLUF 300955Z AUTO 34008KT 10SM CLR 22/M05 A2980 RMK AO2 SLP076 T02151054 $,KLUF,2023-04-30T09:55:00Z,33.53,-112.37,21.5,-5.4,340,8,,10.0,29.799213,1007.6,,TRUE,TRUE,TRUE,,,,,,CLR,,,,,,,,VFR,,,,,,,,,,,,METAR,333.0
KLUD 300955Z AUTO 25008KT 10SM CLR 14/05 A2986 RMK AO2 T01430047,KLUD,2023-04-30T09:55:00Z,33.25,-97.58,14.3,4.7,250,8,,10.0,29.861221,,,TRUE,TRUE,,,,,,,CLR,,,,,,,,VFR,,,,,,,,,,,,METAR,319.0
KLUA 300955Z AUTO 04003KT 10SM BKN090 13/12 A2953 RMK AO2,KLUA,2023-04-30T09:55:00Z,38.67,-78.5,13.0,12.0,40,3,,10.0,29.530512,,,TRUE,TRUE,,,,,,,BKN,9000,,,,,,,VFR,,,,,,,,,,,,METAR,273.0
KLTS 300955Z AUTO 04004KT 10SM CLR 10/05 A2986 RMK AO2 SLP104 T01020050,KLTS,2023-04-30T09:55:00Z,34.67,-99.27,10.2,5.0,40,4,,10.0,29.861221,1010.4,,TRUE,TRUE,,,,,,,CLR,,,,,,,,VFR,,,,,,,,,,,,METAR,416.0
KLSF 300955Z AUTO 24007KT 10SM FEW018 SCT035 OVC047 15/14 A2949 RMK AO2 SLP990 T01490136 $,KLSF,2023-04-30T09:55:00Z,32.32,-84.97,14.9,13.6,240,7,,10.0,29.489174,999.0,,TRUE,TRUE,TRUE,,,,,,FEW,1800,SCT,3500,OVC,4700,,,VFR,,,,,,,,,,,,METAR,68.0
KLRY 300955Z AUTO 32004KT 10SM CLR 06/02 A2982 RMK AO2,KLRY,2023-04-30T09:55:00Z,38.62,-94.35,6.0,2.0,320,4,,10.0,29.819881,,,TRUE,TRUE,,,,,,,CLR,,,,,,,,VFR,,,,,,,,,,,,METAR,272.0
KLRU 300955Z AUTO 23004KT 10SM CLR 14/M08 A3007 RMK AO2 T01361084,KLRU,2023-04-30T09:55:00Z,32.28,-106.92,13.6,-8.4,230,4,,10.0,30.070866,,,TRUE,TRUE,,,,,,,CLR,,,,,,,,VFR,,,,,,,,,,,,METAR,1355.0
KLRO 300955Z AUTO 19007KT 6SM BR SCT019 SCT043 22/21 A2946 RMK AO2,KLRO,2023-04-30T09:55:00Z,32.9,-79.78,22.0,21.0,190,7,,6.0,29.459646,,,TRUE,TRUE,,,,,,BR,SCT,1900,SCT,4300,,,,,VFR,,,,,,,,,,,,METAR,3.0
KLRJ 300955Z AUTO 32012KT 10SM CLR 04/02 A2982 RMK AO2,KLRJ,2023-04-30T09:55:00Z,42.77,-96.2,4.0,2.0,320,12,,10.0,29.819881,,,TRUE,TRUE,,,,,,,CLR,,,,,,,,VFR,,,,,,,,,,,,METAR,363.0
KLRF 300955Z AUTO 00000KT 10SM CLR 09/07 A2975 RMK AO2 SLP076 T00930066,KLRF,2023-04-30T09:55:00Z,34.92,-92.12,9.3,6.6,0,0,,10.0,29.749016,1007.6,,TRUE,TRUE,,,,,,,CLR,,,,,,,,VFR,,,,,,,,,,,,METAR,85.0
KLQK 300955Z AUTO 00000KT 5SM RA BKN070 OVC095 15/15 A2948 RMK AO2 P0004 T01500150,KLQK,2023-04-30T09:55:00Z,34.82,-82.7,15.0,15.0,0,0,,5.0,29.480314,,,TRUE,TRUE,,,,,,RA,BKN,7000,OVC,9500,,,,,MVFR,,,,,,0.04,,,,,,METAR,291.0
KLOR 300955Z AUTO 27006KT 10SM FEW012 SCT024 OVC070 14/13 A2959 RMK AO2 RAB36E46 SLP003 P0000 T01440131,KLOR,2023-04-30T09:55:00Z,31.35,-85.75,14.4,13.1,270,6,,10.0,29.589567,1000.3,,TRUE,TRUE,,,,,,,FEW,1200,SCT,2400,OVC,7000,,,VFR,,,,,,0.005,,,,,,METAR,92.0
KLOM 300955Z AUTO 06008KT 3/4SM BR OVC002 10/ A2968 RMK AO2 T0102////,KLOM,2023-04-30T09:55:00Z,40.13,-75.27,10.2,,60,8,,0.75,29.681103,,,TRUE,TRUE,,,,,,BR,OVC,200,,,,,,,LIFR,,,,,,,,,,,,METAR,87.0
KLNQ 300955Z AUTO 29008G16KT 10SM OVC042 19/14 A2980 RMK AO2 T01870143,KLNQ,2023-04-30T09:55:00Z,29.35,-89.43,18.7,14.3,290,8,16,10.0,29.799213,,,TRUE,TRUE,,,,,,,OVC,4200,,,,,,,VFR,,,,,,,,,,,,METAR,1.0
KLNP 300955Z AUTO 17005KT 10SM SCT033 SCT039 SCT120 12/08 A2953 RMK AO2,KLNP,2023-04-30T09:55:00Z,36.98,-82.52,12.0,8.0,170,5,,10.0,29.530512,,,TRUE,TRUE,,,,,,,SCT,3300,SCT,3900,SCT,12000,,,VFR,,,,,,,,,,,,METAR,817.0
KLNN 300955Z AUTO 00000KT 10SM OVC029 10/09 A2945 RMK AO1 P0001 T00980086,KLNN,2023-04-30T09:55:00Z,41.68,-81.38,9.8,8.6,0,0,,10.0,29.450787,,,TRUE,TRUE,,,,,,,OVC,2900,,,,,,,MVFR,,,,,,0.01,,,,,,METAR,190.0
KLNL 300955Z AUTO 35010G15KT 3/4SM -SN OVC006 00/00 A2937 RMK AO2 T00030000,KLNL,2023-04-30T09:55:00Z,46.15,-89.22,0.3,0.0,350,10,15,0.75,29.371063,,,TRUE,TRUE,,,,,,-SN,OVC,600,,,,,,,LIFR,,,,,,,,,,,,METAR,517.0
KLNA 300955Z AUTO 19010G15KT 10SM CLR 27/24 A2972 RMK AO2 T02670238,KLNA,2023-04-30T09:55:00Z,26.6,-80.08,26.7,23.8,190,10,15,10.0,29.719488,,,TRUE,TRUE,,,,,,,CLR,,,,,,,,VFR,,,,,,,,,,,,METAR,3.0
KLMS 300955Z AUTO VRB06G11KT 9SM FEW006 SCT010 SCT038 13/13 A2971 RMK AO2,KLMS,2023-04-30T09:55:00Z,,,13.0,13.0,0,6,11,9.0,29.71063,,,TRUE,TRUE,,,,,,,FEW,600,SCT,1000,SCT,3800,,,VFR,,,,,,,,,,,,METAR,
KLMO 300955Z AUTO 27005KT 10SM CLR 06/00 A3011 RMK AO2 T00610000,KLMO,2023-04-30T09:55:00Z,40.17,-105.17,6.1,0.0,270,5,,10.0,30.109253,,,TRUE,TRUE,,,,,,,CLR,,,,,,,,VFR,,,,,,,,,,,,METAR,1535.0
KLLN 300955Z AUTO 25006KT 10SM FEW043 FEW049 08/M06 A2999 RMK AO2,KLLN,2023-04-30T09:55:00Z,33.55,-102.37,8.0,-6.0,250,6,,10.0,29.991142,,,TRUE,TRUE,,,,,,,FEW,4300,FEW,4900,,,,,VFR,,,,,,,,,,,,METAR,1071.0
KLLJ 300955Z AUTO 00000KT 10SM CLR 07/M02 A3006 RMK AO2 SLP131 T00721022,KLLJ,2023-04-30T09:55:00Z,44.52,-114.22,7.2,-2.2,0,0,,10.0,30.059055,1013.1,,TRUE,TRUE,,,,,,,CLR,,,,,,,,VFR,,,,,,,,,,,,METAR,1535.0
KLKU 300955Z AUTO 05004KT 3 1/2SM RA BR OVC003 16/16 A2952 RMK AO2 LTG DSNT SE AND S P0002 T01580156,KLKU,2023-04-30T09:55:00Z,38.02,-77.97,15.8,15.6,50,4,,3.5,29.518702,,,TRUE,TRUE,,,,,,RA BR,OVC,300,,,,,,,LIFR,,,,,,0.02,,,,,,METAR,146.0
KLKR 300955Z AUTO 00000KT 1 1/2SM -RA BKN003 OVC016 16/16 A2948 RMK AO2,KLKR,2023-04-30T09:55:00Z,34.72,-80.85,16.0,16.0,0,0,,1.5,29.480314,,,TRUE,TRUE,,,,,,-RA,BKN,300,OVC,1600,,,,,LIFR,,,,,,,,,,,,METAR,166.0
KLJF 300955Z AUTO 32015G22KT 10SM CLR 02/M02 A2971 RMK AO2,KLJF,2023-04-30T09:55:00Z,45.1,-94.52,2.0,-2.0,320,15,22,10.0,29.71063,,,TRUE,TRUE,,,,,,,CLR,,,,,,,,VFR,,,,,,,,,,,,METAR,347.0
KLIC 300955Z AUTO 36005KT 10SM CLR 01/M02 A3007 RMK AO2 SLP148 T00061022 $,KLIC,2023-04-30T09:55:00Z,39.27,-103.67,0.6,-2.2,360,5,,10.0,30.070866,1014.8,,TRUE,TRUE,TRUE,,,,,,CLR,,,,,,,,VFR,,,,,,,,,,,,METAR,1635.0
KLHZ 300955Z AUTO 15004KT 5SM RA SCT015 BKN024 OVC031 15/15 A2953 RMK AO2 P0004,KLHZ,2023-04-30T09:55:00Z,36.02,-78.33,15.0,15.0,150,4,,5.0,29.530512,,,TRUE,TRUE,,,,,,RA,SCT,1500,BKN,2400,OVC,3100,,,MVFR,,,,,,0.04,,,,,,METAR,104.0
KLHW 300955Z AUTO 21004KT 10SM RA BKN032 20/19 A2945 RMK AO2 RAB13 SLP975 P0005 T01980190 $,KLHW,2023-04-30T09:55:00Z,31.88,-81.57,19.8,19.0,210,4,,10.0,29.450787,997.5,,TRUE,TRUE,TRUE,,,,,RA,BKN,3200,,,,,,,VFR,,,,,,0.05,,,,,,METAR,14.0
KLHM 300955Z AUTO 15010KT 10SM CLR 15/07 A2987 RMK AO1,KLHM,2023-04-30T09:55:00Z,38.92,-121.35,15.0,7.0,150,10,,10.0,29.870079,,,TRUE,TRUE,,,,,,,CLR,,,,,,,,VFR,,,,,,,,,,,,METAR,36.0
KLHB 300955Z AUTO 00000KT 10SM CLR 09/09 A2992 RMK AO2 T00940085,KLHB,2023-04-30T09:55:00Z,30.87,-96.62,9.4,8.5,0,0,,10.0,29.920275,,,TRUE,TRUE,,,,,,,CLR,,,,,,,,VFR,,,,,,,,,,,,METAR,83.0
KLGF 300955Z AUTO 08006KT M M CLR 25/M01 A2976 RMK AO2 SLP074 T02481011 RVRNO PWINO TSNO $,KLGF,2023-04-30T09:55:00Z,32.87,-114.4,24.8,-1.1,80,6,,,29.760826,1007.4,,TRUE,TRUE,TRUE,,TRUE,,TRUE,,CLR,,,,,,,,,,,,,,,,,,,,METAR,118.0
KLGC 300955Z AUTO 36007KT 330V030 10SM VCTS SCT011 BKN110 15/13 A2948 RMK AO2 LTG DSNT NE AND E T01450130,KLGC,2023-04-30T09:55:00Z,33.0,-85.07,14.5,13.0,360,7,,10.0,29.480314,,,TRUE,TRUE,,,,,,VCTS,SCT,1100,BKN,11000,,,,,VFR,,,,,,,,,,,,METAR,209.0
KLFI 300955Z AUTO 11004KT 7SM OVC005 18/17 A2953 RMK AO2 CIG 004 RWY26 SLP006 T01760174 $,KLFI,2023-04-30T09:55:00Z,37.08,-76.33,17.6,17.4,110,4,,7.0,29.530512,1000.6,,TRUE,TRUE,TRUE,,,,,,OVC,500,,,,,,,IFR,,,,,,,,,,,,SPECI,2.0
KLDM 300955Z AUTO 24010KT 10SM OVC009 04/02 A2936 RMK AO2 T00400022,KLDM,2023-04-30T09:55:00Z,43.97,-86.4,4.0,2.2,240,10,,10.0,29.359253,,,TRUE,TRUE,,,,,,,OVC,900,,,,,,,IFR,,,,,,,,,,,,METAR,194.0
KLCQ 300955Z AUTO 26013G19KT 7SM RA SCT011 BKN033 OVC070 18/18 A2956 RMK AO2 P0009,KLCQ,2023-04-30T09:55:00Z,30.18,-82.58,18.0,18.0,260,13,19,7.0,29.56004,,,TRUE,TRUE,,,,,,RA,SCT,1100,BKN,3300,OVC,7000,,,VFR,,,,,,0.09,,,,,,METAR,59.0
KLCK 300955Z AUTO 14006KT 10SM OVC070 11/10 A2945 RMK AO2 T01060101,KLCK,2023-04-30T09:55:00Z,39.82,-82.92,10.6,10.1,140,6,,10.0,29.450787,,,TRUE,TRUE,,,,,,,OVC,7000,,,,,,,VFR,,,,,,,,,,,,METAR,225.0
KLCG 300955Z AUTO 33011KT 10SM CLR 05/01 A2988 RMK AO2 T00450011,KLCG,2023-04-30T09:55:00Z,42.25,-96.98,4.5,1.1,330,11,,10.0,29.878937,,,TRUE,TRUE,,,,,,,CLR,,,,,,,,VFR,,,,,,,,,,,,METAR,434.0
KLBO 300955Z AUTO 26006KT 10SM CLR 05/01 A2974 RMK AO2,KLBO,2023-04-30T09:55:00Z,37.65,-92.65,5.0,1.0,260,6,,10.0,29.740158,,,TRUE,TRUE,,,,,,,CLR,,,,,,,,VFR,,,,,,,,,,,,METAR,399.0
KLBE 300955Z AUTO VRB05KT 10SM BKN048 BKN060 13/11 A2950 RMK AO2,KLBE,2023-04-30T09:55:00Z,40.27,-79.4,13.0,11.0,0,5,,10.0,29.500984,,,TRUE,TRUE,,,,,,,BKN,4800,BKN,6000,,,,,VFR,,,,,,,,,,,,METAR,345.0
KLAM 300955Z AUTO 00000KT 10SM CLR 13/M08 A3013 RMK AO2 T01331079 $,KLAM,2023-04-30T09:55:00Z,35.87,-106.27,13.3,-7.9,0,0,,10.0,30.129921,,,TRUE,TRUE,TRUE,,,,,,CLR,,,,,,,,VFR,,,,,,,,,,,,METAR,2166.0
KL35 300955Z AUTO 00000KT 10SM CLR 03/M05 A3020 RMK AO2,KL35,2023-04-30T09:55:00Z,34.27,-116.85,3.0,-5.0,0,0,,10.0,30.200787,,,TRUE,TRUE,,,,,,,CLR,,,,,,,,VFR,,,,,,,,,,,,METAR,2062.0
KL18 300955Z AUTO 00000KT 2 1/2SM BR OVC002 12/12 A2996 RMK AO2 VIS 1 1/2V4,KL18,2023-04-30T09:55:00Z,33.35,-117.25,12.0,12.0,0,0,,2.5,29.958662,,,TRUE,TRUE,,,,,,BR,OVC,200,,,,,,,LIFR,,,,,,,,,,,,METAR,215.0
KL08 300955Z AUTO 24003KT 10SM CLR 19/M04 A2979 RMK AO2,KL08,2023-04-30T09:55:00Z,33.27,-116.32,19.0,-4.0,240,3,,10.0,29.790354,,,TRUE,TRUE,,,,,,,CLR,,,,,,,,VFR,,,,,,,,,,,,METAR,156.0
KKY8 300955Z AUTO VRB06KT 10SM OVC022 09/07 A2959 RMK A01,KKY8,2023-04-30T09:55:00Z,37.95,-86.87,9.0,7.0,0,6,,10.0,29.589567,,,TRUE,TRUE,,,,,,,OVC,2200,,,,,,,MVFR,,,,,,,,,,,,METAR,124.0
KKNB 300955Z AUTO 08006KT 10SM CLR 05/M04 A3012 RMK A01,KKNB,2023-04-30T09:55:00Z,37.02,-112.53,5.0,-4.0,80,6,,10.0,30.121063,,,TRUE,TRUE,,,,,,,CLR,,,,,,,,VFR,,,,,,,,,,,,METAR,1476.0
KK88 300955Z AUTO 28006KT 10SM CLR 06/02 A2985 RMK AO1 T00610021,KK88,2023-04-30T09:55:00Z,37.87,-95.38,6.1,2.1,280,6,,10.0,29.84941,,,TRUE,TRUE,,,,,,,CLR,,,,,,,,VFR,,,,,,,,,,,,METAR,308.0
KK82 300955Z AUTO 34006KT 10SM CLR 06/M04 A2999 RMK AO2 T00601036,KK82,2023-04-30T09:55:00Z,39.77,-98.8,6.0,-3.6,340,6,,10.0,29.991142,,,TRUE,TRUE,,,,,,,CLR,,,,,,,,VFR,,,,,,,,,,,,METAR,548.0
KK62 300955Z AUTO 31011G18KT 10SM BKN014 OVC026 08/07 A2950 RMK AO2 P0005,KK62,2023-04-30T09:55:00Z,38.7,-84.4,8.0,7.0,310,11,18,10.0,29.500984,,,TRUE,TRUE,,,,,,,BKN,1400,OVC,2600,,,,,MVFR,,,,,,0.05,,,,,,METAR,274.0
KJZP 300955Z AUTO 00000KT 7SM RA BR SCT038 SCT044 OVC070 13/13 A2952 RMK AO2 LTG DSNT S P0005 T01340129,KJZP,2023-04-30T09:55:00Z,34.45,-84.47,13.4,12.9,0,0,,7.0,29.518702,,,TRUE,TRUE,,,,,,RA BR,SCT,3800,SCT,4400,OVC,7000,,,VFR,,,,,,0.05,,,,,,METAR,462.0
KJZI 300955Z AUTO 22009KT 8SM FEW018 FEW024 22/21 A2946 RMK AO2,KJZI,2023-04-30T09:55:00Z,32.7,-80.0,22.0,21.0,220,9,,8.0,29.459646,,,TRUE,TRUE,,,,,,,FEW,1800,FEW,2400,,,,,VFR,,,,,,,,,,,,METAR,5.0
KJYR 300955Z AUTO 31013KT 10SM CLR 03/M01 A2993 RMK AO2,KJYR,2023-04-30T09:55:00Z,40.9,-97.62,3.0,-1.0,310,13,,10.0,29.929134,,,TRUE,TRUE,,,,,,,CLR,,,,,,,,VFR,,,,,,,,,,,,METAR,508.0
KJYO 300955Z AUTO 04003KT 4SM BR OVC005 15/15 A2957 RMK AO2 LTG DSNT N AND NE,KJYO,2023-04-30T09:55:00Z,39.07,-77.57,15.0,15.0,40,3,,4.0,29.568897,,,TRUE,TRUE,,,,,,BR,OVC,500,,,,,,,IFR,,,,,,,,,,,,METAR,112.0
KJYM 300955Z AUTO 24007KT 10SM BKN010 BKN018 OVC070 06/05 A2944 RMK AO2 T00550046 P0004,KJYM,2023-04-30T09:55:00Z,41.92,-84.58,5.5,4.6,240,7,,10.0,29.438976,,,TRUE,TRUE,,,,,,,BKN,1000,BKN,1800,OVC,7000,,,MVFR,,,,,,0.04,,,,,,METAR,357.0
KJYL 300955Z AUTO 23004KT 7SM BKN017 BKN024 20/19 A2948 RMK AO2 T02000193,KJYL,2023-04-30T09:55:00Z,32.65,-81.6,20.0,19.3,230,4,,7.0,29.480314,,,TRUE,TRUE,,,,,,,BKN,1700,BKN,2400,,,,,MVFR,,,,,,,,,,,,METAR,54.0
KJYG 300955Z AUTO 31016KT 10SM 03/00 A2971 RMK AO2,KJYG,2023-04-30T09:55:00Z,43.98,-94.55,3.0,0.0,310,16,,10.0,29.71063,,,TRUE,TRUE,,,,,,,,,,,,,,,,,,,,,,,,,,,METAR,323.0
KJWY 300955Z AUTO 26005KT 10SM CLR 12/07 A2989 RMK AO2 T01210070,KJWY,2023-04-30T09:55:00Z,32.45,-96.92,12.1,7.0,260,5,,10.0,29.890747,,,TRUE,TRUE,,,,,,,CLR,,,,,,,,VFR,,,,,,,,,,,,METAR,211.0
KJWG 300955Z AUTO 36005KT 10SM CLR 08/04 A2993 RMK AO2 T00750040,KJWG,2023-04-30T09:55:00Z,35.87,-98.42,7.5,4.0,360,5,,10.0,29.929134,,,TRUE,TRUE,,,,,,,CLR,,,,,,,,VFR,,,,,,,,,,,,METAR,469.0
KJVY 300955Z AUTO 34006KT 10SM SCT050 BKN060 BKN070 09/06 A2952 RMK AO2 PWINO,KJVY,2023-04-30T09:55:00Z,38.37,-85.73,9.0,6.0,340,6,,10.0,29.518702,,,TRUE,TRUE,,,,,TRUE,,SCT,5000,BKN,6000,BKN,7000,,,VFR,,,,,,,,,,,,METAR,141.0
KJVW 300955Z AUTO 29004KT 10SM CLR 12/12 A2976 RMK AO2,KJVW,2023-04-30T09:55:00Z,32.3,-90.42,12.0,12.0,290,4,,10.0,29.760826,,,TRUE,TRUE,,,,,,,CLR,,,,,,,,VFR,,,,,,,,,,,,METAR,73.0
KJVL 300955Z AUTO 25008KT 10SM SCT060 BKN085 04/01 A2945 RMK AO2,KJVL,2023-04-30T09:55:00Z,42.62,-89.05,4.0,1.0,250,8,,10.0,29.450787,,,TRUE,TRUE,,,,,,,SCT,6000,BKN,8500,,,,,VFR,,,,,,,,,,,,METAR,244.0
KJTC 300955Z AUTO 19004KT 10SM CLR 04/M13 A3021 RMK AO2,KJTC,2023-04-30T09:55:00Z,34.13,-109.32,4.0,-13.0,190,4,,10.0,30.209646,,,TRUE,TRUE,,,,,,,CLR,,,,,,,,VFR,,,,,,,,,,,,METAR,2148.0
KJSY 300955Z AUTO 17004KT RMK AO2 PWINO PNO TSNO,KJSY,2023-04-30T09:55:00Z,45.35,-117.25,,,170,4,,,,,,TRUE,TRUE,,,TRUE,,TRUE,,,,,,,,,,,,,,,,,,,,,,METAR,1256.0
KJSV 300955Z AUTO 00000KT 9SM CLR 07/07 A2981 RMK AO2,KJSV,2023-04-30T09:55:00Z,35.43,-94.8,7.0,7.0,0,0,,9.0,29.811024,,,TRUE,TRUE,,,,,,,CLR,,,,,,,,VFR,,,,,,,,,,,,SPECI,158.0
KJSO 300955Z AUTO 22005KT 10SM CLR 11/08 A2988 RMK AO2 T01050077 TSNO,KJSO,2023-04-30T09:55:00Z,31.87,-95.22,10.5,7.7,220,5,,10.0,29.878937,,,TRUE,TRUE,,,TRUE,,,,CLR,,,,,,,,VFR,,,,,,,,,,,,METAR,204.0
KJRO 300955Z AUTO 00000KT 7SM SCT090 SCT110 11/11 A2949 RMK AO2,KJRO,2023-04-30T09:55:00Z,38.98,-82.58,11.0,11.0,0,0,,7.0,29.489174,,,TRUE,TRUE,,,,,,,SCT,9000,SCT,11000,,,,,VFR,,,,,,,,,,,,METAR,224.0
KJPX 300955Z AUTO 08006KT 1/2SM FG OVC003 11/11 A2971 RMK AO2 T01110111,KJPX,2023-04-30T09:55:00Z,40.95,-72.25,11.1,11.1,80,6,,0.5,29.71063,,,TRUE,TRUE,,,,,,FG,OVC,300,,,,,,,LIFR,,,,,,,,,,,,METAR,10.0
KJOT 300955Z AUTO 24003KT 10SM CLR 05/02 A2951 RMK AO2 T00450020,KJOT,2023-04-30T09:55:00Z,41.52,-88.18,4.5,2.0,240,3,,10.0,29.509842,,,TRUE,TRUE,,,,,,,CLR,,,,,,,,VFR,,,,,,,,,,,,METAR,175.0
KJMR 300955Z AUTO 33016G22KT 10SM UP SCT012 BKN022 OVC028 02/00 A2968 RMK AO2,KJMR,2023-04-30T09:55:00Z,45.88,-93.27,2.0,0.0,330,16,22,10.0,29.681103,,,TRUE,TRUE,,,,,,UP,SCT,1200,BKN,2200,OVC,2800,,,MVFR,,,,,,,,,,,,METAR,301.0
KJKJ 300955Z AUTO 33014KT 10SM CLR 01/M01 A2993 RMK AO2 TSNO,KJKJ,2023-04-30T09:55:00Z,46.83,-96.67,1.0,-1.0,330,14,,10.0,29.929134,,,TRUE,TRUE,,,TRUE,,,,CLR,,,,,,,,VFR,,,,,,,,,,,,METAR,280.0
KJKA 300955Z AUTO 29009KT 10SM FEW016 16/14 A2969 RMK AO2,KJKA,2023-04-30T09:55:00Z,30.28,-87.67,16.0,14.0,290,9,,10.0,29.68996,,,TRUE,TRUE,,,,,,,FEW,1600,,,,,,,VFR,,,,,,,,,,,,SPECI,5.0
KJFZ 300955Z AUTO 18003KT 1SM RA SCT022 OVC065 12/12 A2954 RMK AO2 VIS 1/2V5 P0004 T01200120,KJFZ,2023-04-30T09:55:00Z,37.07,-81.8,12.0,12.0,180,3,,1.0,29.53937,,,TRUE,TRUE,,,,,,RA,SCT,2200,OVC,6500,,,,,IFR,,,,,,0.04,,,,,,METAR,809.0
KJFX 300955Z AUTO 30006KT 10SM BKN095 14/14 A2960 RMK AO2,KJFX,2023-04-30T09:55:00Z,33.9,-87.32,14.0,14.0,300,6,,10.0,29.601377,,,TRUE,TRUE,,,,,,,BKN,9500,,,,,,,VFR,,,,,,,,,,,,METAR,144.0
KJES 300955Z AUTO 00000KT 7SM DZ SCT055 BKN065 OVC100 20/18 A2951 RMK AO2,KJES,2023-04-30T09:55:00Z,31.55,-81.88,20.0,18.0,0,0,,7.0,29.509842,,,TRUE,TRUE,,,,,,DZ,SCT,5500,BKN,6500,OVC,10000,,,VFR,,,,,,,,,,,,METAR,26.0
KJCA 300955Z AUTO 07003KT 10SM -RA SCT014 BKN070 OVC100 15/ A2949 RMK AO2 LTG DSNT S P0003 T0148////,KJCA,2023-04-30T09:55:00Z,34.18,-83.57,14.8,,70,3,,10.0,29.489174,,,TRUE,TRUE,,,,,,-RA,SCT,1400,BKN,7000,OVC,10000,,,VFR,,,,,,0.03,,,,,,METAR,287.0
KJAS 300955Z AUTO 00000KT 2 1/2SM BR SCT049 BKN055 08/08 A2987 RMK AO2 VIS 1V5,KJAS,2023-04-30T09:55:00Z,30.88,-94.03,8.0,8.0,0,0,,2.5,29.870079,,,TRUE,TRUE,,,,,,BR,SCT,4900,BKN,5500,,,,,IFR,,,,,,,,,,,,METAR,60.0
KJAQ 300955Z AUTO 00000KT 10SM CLR 13/04 A2993 RMK AO1 T01320041,KJAQ,2023-04-30T09:55:00Z,38.37,-120.8,13.2,4.1,0,0,,10.0,29.929134,,,TRUE,TRUE,,,,,,,CLR,,,,,,,,VFR,,,,,,,,,,,,METAR,518.0
KIZA 300955Z AUTO 25005KT 1/4SM -RA FG OVC001 10/10 A2996 RMK AO2,KIZA,2023-04-30T09:55:00Z,34.6,-120.07,10.0,10.0,250,5,,0.25,29.958662,,,TRUE,TRUE,,,,,,-RA FG,OVC,100,,,,,,,LIFR,,,,,,,,,,,,METAR,200.0
KIYA 300955Z AUTO 25004KT 10SM CLR 13/10 A2987 RMK AO2 T01250095,KIYA,2023-04-30T09:55:00Z,29.98,-92.08,12.5,9.5,250,4,,10.0,29.870079,,,TRUE,TRUE,,,,,,,CLR,,,,,,,,VFR,,,,,,,,,,,,METAR,4.0
KIWA 300955Z AUTO 10007KT 10SM CLR 19/M02 A2985 RMK AO2 T01911017,KIWA,2023-04-30T09:55:00Z,33.3,-111.65,19.1,-1.7,100,7,,10.0,29.84941,,,TRUE,TRUE,,,,,,,CLR,,,,,,,,VFR,,,,,,,,,,,,SPECI,420.0
KIUA 300955Z AUTO 13007KT 7SM -DZ BKN080 10/09 A2957 RMK AO2 T01010090,KIUA,2023-04-30T09:55:00Z,42.92,-77.33,10.1,9.0,130,7,,7.0,29.568897,,,TRUE,TRUE,,,,,,-DZ,BKN,8000,,,,,,,VFR,,,,,,,,,,,,METAR,248.0
KISQ 300955Z AUTO 15004KT 5SM RA BKN003 OVC009 04/03 A2932 RMK AO2 T00400031 P0002,KISQ,2023-04-30T09:55:00Z,45.97,-86.17,4.0,3.1,150,4,,5.0,29.320866,,,TRUE,TRUE,,,,,,RA,BKN,300,OVC,900,,,,,LIFR,,,,,,0.02,,,,,,METAR,206.0
KIRS 300955Z AUTO 26005KT 10SM OVC024 06/03 A2945 RMK AO2 T00550025,KIRS,2023-04-30T09:55:00Z,41.8,-85.43,5.5,2.5,260,5,,10.0,29.450787,,,TRUE,TRUE,,,,,,,OVC,2400,,,,,,,MVFR,,,,,,,,,,,,METAR,282.0
KIRK 300955Z AUTO 30011G18KT 10SM SCT035 SCT044 BKN060 06/02 A2967 RMK AO2 SLP054 T00560022,KIRK,2023-04-30T09:55:00Z,40.1,-92.55,5.6,2.2,300,11,18,10.0,29.66929,1005.4,,TRUE,TRUE,,,,,,,SCT,3500,SCT,4400,BKN,6000,,,VFR,,,,,,,,,,,,METAR,292.0
KIOB 300955Z AUTO 23003KT 7SM SCT006 BKN044 OVC060 12/11 A2951 RMK AO2 PWINO,KIOB,2023-04-30T09:55:00Z,38.05,-83.98,12.0,11.0,230,3,,7.0,29.509842,,,TRUE,TRUE,,,,,TRUE,,SCT,600,BKN,4400,OVC,6000,,,VFR,,,,,,,,,,,,METAR,301.0
KINS 300955Z AUTO 00000KT 10SM CLR 16/M12 A2993 RMK AO2 SLP092 T01551119 $,KINS,2023-04-30T09:55:00Z,36.58,-115.68,15.5,-11.9,0,0,,10.0,29.929134,1009.2,,TRUE,TRUE,TRUE,,,,,,CLR,,,,,,,,VFR,,,,,,,,,,,,SPECI,954.0
KINJ 300955Z AUTO 00000KT 10SM CLR 09/09 A2987 RMK AO2 T00900090,KINJ,2023-04-30T09:55:00Z,32.08,-97.1,9.0,9.0,0,0,,10.0,29.870079,,,TRUE,TRUE,,,,,,,CLR,,,,,,,,VFR,,,,,,,,,,,,METAR,208.0
KINF 300955Z AUTO 24006G19KT 7SM -RA SCT014 OVC021 21/21 A2961 RMK AO2 LTG DSNT E AND SE P0005,KINF,2023-04-30T09:55:00Z,28.8,-82.32,21.0,21.0,240,6,19,7.0,29.610237,,,TRUE,TRUE,,,,,,-RA,SCT,1400,OVC,2100,,,,,MVFR,,,,,,0.05,,,,,,METAR,14.0
KIMS 300955Z AUTO 30003KT 10SM BKN050 OVC075 07/07 A2956 RMK AO2,KIMS,2023-04-30T09:55:00Z,38.75,-85.47,7.0,7.0,300,3,,10.0,29.56004,,,TRUE,TRUE,,,,,,,BKN,5000,OVC,7500,,,,,VFR,,,,,,,,,,,,METAR,244.0
KIMM 300955Z AUTO 21007G12KT 170V260 10SM SCT028 BKN032 BKN042 A2968 RMK AO2 LTG DSNT W AND NW,KIMM,2023-04-30T09:55:00Z,26.43,-81.4,,,210,7,12,10.0,29.681103,,,TRUE,TRUE,,,,,,,SCT,2800,BKN,3200,BKN,4200,,,VFR,,,,,,,,,,,,METAR,11.0
KIKW 300955Z AUTO 00000KT 10SM OVC065 05/05 A2940 RMK AO2 T00520050,KIKW,2023-04-30T09:55:00Z,43.67,-84.27,5.2,5.0,0,0,,10.0,29.40059,,,TRUE,TRUE,,,,,,,OVC,6500,,,,,,,VFR,,,,,,,,,,,,METAR,190.0
KIKV 300955Z AUTO 31015G20KT 10SM FEW065 FEW075 04/03 A2970 RMK AO2,KIKV,2023-04-30T09:55:00Z,41.68,-93.57,4.0,3.0,310,15,20,10.0,29.698818,,,TRUE,TRUE,,,,,,,FEW,6500,FEW,7500,,,,,VFR,,,,,,,,,,,,METAR,270.0
KIKK 300955Z AUTO 26006KT 10SM CLR 02/00 A2953 RMK AO2 T00230000 PWINO,KIKK,2023-04-30T09:55:00Z,41.07,-87.85,2.3,0.0,260,6,,10.0,29.530512,,,TRUE,TRUE,,,,,TRUE,,CLR,,,,,,,,VFR,,,,,,,,,,,,SPECI,188.0
KIKG 300955Z AUTO 00000KT 10SM CLR 10/09 A2997 RMK AO2 T00970087,KIKG,2023-04-30T09:55:00Z,27.55,-98.03,9.7,8.7,0,0,,10.0,29.970472,,,TRUE,TRUE,,,,,,,CLR,,,,,,,,VFR,,,,,,,,,,,,METAR,37.0
KIJX 300955Z AUTO 26006KT 10SM BKN060 OVC090 06/06 A2961 RMK AO2 T00560056,KIJX,2023-04-30T09:55:00Z,39.77,-90.25,5.6,5.6,260,6,,10.0,29.610237,,,TRUE,TRUE,,,,,,,BKN,6000,OVC,9000,,,,,VFR,,,,,,,,,,,,METAR,187.0
KIIY 300955Z AUTO 08003KT 7SM -RA BKN003 BKN031 OVC055 15/15 A2946 RMK AO2 P0002 T01490147,KIIY,2023-04-30T09:55:00Z,33.78,-82.82,14.9,14.7,80,3,,7.0,29.459646,,,TRUE,TRUE,,,,,,-RA,BKN,300,BKN,3100,OVC,5500,,,LIFR,,,,,,0.02,,,,,,SPECI,192.0
KIIB 300955Z AUTO 31016KT 10SM OVC080 05/01 A2959 RMK AO2 T00480006,KIIB,2023-04-30T09:55:00Z,42.45,-91.95,4.8,0.6,310,16,,10.0,29.589567,,,TRUE,TRUE,,,,,,,OVC,8000,,,,,,,VFR,,,,,,,,,,,,METAR,294.0
KIGQ 300955Z AUTO 26004KT 10SM SCT065 04/02 A2950 RMK AO2 T00400016,KIGQ,2023-04-30T09:55:00Z,41.53,-87.53,4.0,1.6,260,4,,10.0,29.500984,,,TRUE,TRUE,,,,,,,SCT,6500,,,,,,,VFR,,,,,,,,,,,,METAR,187.0
KIFP 300955Z AUTO 00000KT 10SM CLR 23/M07 A2979 RMK AO2,KIFP,2023-04-30T09:55:00Z,35.15,-114.57,23.0,-7.0,0,0,,10.0,29.790354,,,TRUE,TRUE,,,,,,,CLR,,,,,,,,VFR,,,,,,,,,,,,METAR,210.0
KIFA 300955Z AUTO 31018G23KT 10SM CLR 04/02 A2965 RMK AO2 T00370022,KIFA,2023-04-30T09:55:00Z,42.47,-93.27,3.7,2.2,310,18,23,10.0,29.648623,,,TRUE,TRUE,,,,,,,CLR,,,,,,,,VFR,,,,,,,,,,,,METAR,344.0
KIER 300955Z AUTO 00000KT 10SM CLR 09/09 A2983 RMK AO2 T00920092,KIER,2023-04-30T09:55:00Z,31.73,-93.1,9.2,9.2,0,0,,10.0,29.828741,,,TRUE,TRUE,,,,,,,CLR,,,,,,,,VFR,,,,,,,,,,,,METAR,35.0
KIDP 300955Z AUTO 30009KT 10SM CLR 06/03 A2986 RMK AO2 T00620030,KIDP,2023-04-30T09:55:00Z,37.17,-95.78,6.2,3.0,300,9,,10.0,29.861221,,,TRUE,TRUE,,,,,,,CLR,,,,,,,,VFR,,,,,,,,,,,,SPECI,252.0
KIDI 300955Z AUTO 13006KT 8SM BKN050 OVC065 12/12 A2955 RMK A01,KIDI,2023-04-30T09:55:00Z,40.63,-79.1,12.0,12.0,130,6,,8.0,29.551182,,,TRUE,TRUE,,,,,,,BKN,5000,OVC,6500,,,,,VFR,,,,,,,,,,,,METAR,425.0
KIBM 300955Z AUTO 30004KT 10SM BKN120 00/M04 A3010 RMK AO2 T10021038,KIBM,2023-04-30T09:55:00Z,41.18,-103.68,-0.2,-3.8,300,4,,10.0,30.100393,,,TRUE,TRUE,,,,,,,BKN,12000,,,,,,,VFR,,,,,,,,,,,,METAR,1494.0
KIAB 300955Z AUTO 30008KT 10SM SCT140 08/02 A2987 RMK AO2 SLP113 T00830017 $,KIAB,2023-04-30T09:55:00Z,37.62,-97.27,8.3,1.7,300,8,,10.0,29.870079,1011.3,,TRUE,TRUE,TRUE,,,,,,SCT,14000,,,,,,,VFR,,,,,,,,,,,,METAR,413.0
KI95 300955Z AUTO 28017KT 9SM BKN017 OVC027 07/07 A2946 RMK A01,KI95,2023-04-30T09:55:00Z,,,7.0,7.0,280,17,,9.0,29.459646,,,TRUE,TRUE,,,,,,,BKN,1700,OVC,2700,,,,,MVFR,,,,,,,,,,,,METAR,
KI75 300955Z AUTO 30012KT 10SM OVC018 06/03 A2970 RMK AO2 T00600031,KI75,2023-04-30T09:55:00Z,41.05,-93.68,6.0,3.1,300,12,,10.0,29.698818,,,TRUE,TRUE,,,,,,,OVC,1800,,,,,,,MVFR,,,,,,,,,,,,METAR,336.0
KI74 300955Z AUTO 30009G20KT 2 1/2SM RA SCT009 BKN018 OVC049 06/05 A2949 RMK AO2 P0006,KI74,2023-04-30T09:55:00Z,40.12,-83.75,6.0,5.0,300,9,20,2.5,29.489174,,,TRUE,TRUE,,,,,,RA,SCT,900,BKN,1800,OVC,4900,,,IFR,,,,,,0.06,,,,,,METAR,322.0
KI69 300955Z AUTO 31018G24KT 10SM -RA SCT009 BKN023 OVC036 09/06 A2952 RMK AO2 T00870060 P0004,KI69,2023-04-30T09:55:00Z,39.08,-84.22,8.7,6.0,310,18,24,10.0,29.518702,,,TRUE,TRUE,,,,,,-RA,SCT,900,BKN,2300,OVC,3600,,,MVFR,,,,,,0.04,,,,,,METAR,238.0
KI68 300955Z AUTO 31009G15KT 10SM -RA 08/06 A2950 RMK AO1 T00750060,KI68,2023-04-30T09:55:00Z,39.47,-84.25,7.5,6.0,310,9,15,10.0,29.500984,,,TRUE,TRUE,,,,,,-RA,,,,,,,,,,,,,,,,,,,,,METAR,274.0
KI67 300955Z AUTO 30007KT 7SM SCT042 BKN049 OVC065 07/05 A2952 RMK AO1 P0001,KI67,2023-04-30T09:55:00Z,39.25,-84.78,7.0,5.0,300,7,,7.0,29.518702,,,TRUE,TRUE,,,,,,,SCT,4200,BKN,4900,OVC,6500,,,VFR,,,,,,0.01,,,,,,METAR,177.0
KI63 300955Z AUTO 28006KT 10SM BKN046 BKN075 06/04 A2961 RMK AO2 T00560042,KI63,2023-04-30T09:55:00Z,39.98,-90.8,5.6,4.2,280,6,,10.0,29.610237,,,TRUE,TRUE,,,,,,,BKN,4600,BKN,7500,,,,,VFR,,,,,,,,,,,,METAR,221.0
KI23 300955Z AUTO 16005KT 10SM CLR 08/08 A2943 RMK AO1,KI23,2023-04-30T09:55:00Z,39.57,-83.42,8.0,8.0,160,5,,10.0,29.430119,,,TRUE,TRUE,,,,,,,CLR,,,,,,,,VFR,,,,,,,,,,,,METAR,298.0
KI19 300955Z AUTO 34008G20KT 310V010 1 3/4SM -RA BR BKN006 BKN019 OVC024 06/06 A2948 RMK AO2 P0014,KI19,2023-04-30T09:55:00Z,39.7,-83.98,6.0,6.0,340,8,20,1.75,29.480314,,,TRUE,TRUE,,,,,,-RA BR,BKN,600,BKN,1900,OVC,2400,,,IFR,,,,,,0.14,,,,,,METAR,285.0
KI16 300955Z AUTO 3SM -RA SCT001 SCT060 OVC070 14/13 A2956 RMK AO2 T01350128,KI16,2023-04-30T09:55:00Z,37.6,-81.57,13.5,12.8,,,,3.0,29.56004,,,TRUE,TRUE,,,,,,-RA,SCT,100,SCT,6000,OVC,7000,,,MVFR,,,,,,,,,,,,METAR,528.0
KHZX 300955Z AUTO 34016G24KT 7SM SCT010 BKN014 OVC019 01/00 A2966 RMK AO2,KHZX,2023-04-30T09:55:00Z,46.62,-93.32,1.0,0.0,340,16,24,7.0,29.660433,,,TRUE,TRUE,,,,,,,SCT,1000,BKN,1400,OVC,1900,,,MVFR,,,,,,,,,,,,METAR,374.0
KHZR 300955Z AUTO 27004KT 10SM CLR 12/11 A2984 RMK AO2 T01220112,KHZR,2023-04-30T09:55:00Z,30.72,-91.48,12.2,11.2,270,4,,10.0,29.840551,,,TRUE,TRUE,,,,,,,CLR,,,,,,,,VFR,,,,,,,,,,,,METAR,11.0
KHZL 300955Z AUTO 11005KT 10/09 A2966 RMK AO2 PWINO P0008,KHZL,2023-04-30T09:55:00Z,40.98,-76.0,10.0,9.0,110,5,,,29.660433,,,TRUE,TRUE,,,,,TRUE,,,,,,,,,,,,,,,,0.08,,,,,,METAR,481.0
KHZE 300955Z AUTO VRB04KT 10SM CLR M01/M02 A3015 RMK AO2,KHZE,2023-04-30T09:55:00Z,47.28,-101.58,-1.0,-2.0,0,4,,10.0,30.15059,,,TRUE,TRUE,,,,,,,CLR,,,,,,,,VFR,,,,,,,,,,,,METAR,542.0
KHZD 300955Z AUTO VRB04KT 10SM FEW055 SCT070 10/08 A2963 RMK A01,KHZD,2023-04-30T09:55:00Z,36.08,-88.47,10.0,8.0,0,4,,10.0,29.630905,,,TRUE,TRUE,,,,,,,FEW,5500,SCT,7000,,,,,VFR,,,,,,,,,,,,METAR,147.0
KHYX 300955Z AUTO 17003KT 10SM BKN050 OVC070 06/06 A2941 RMK AO2 T00550055,KHYX,2023-04-30T09:55:00Z,43.43,-83.87,5.5,5.5,170,3,,10.0,29.409449,,,TRUE,TRUE,,,,,,,BKN,5000,OVC,7000,,,,,VFR,,,,,,,,,,,,METAR,181.0
KHYW 300955Z AUTO 00000KT 10SM SCT005 SCT029 BKN036 20/19 A2947 RMK AO2 LTG DSNT E,KHYW,2023-04-30T09:55:00Z,33.83,-79.12,20.0,19.0,0,0,,10.0,29.471457,,,TRUE,TRUE,,,,,,,SCT,500,SCT,2900,BKN,3600,,,VFR,,,,,,,,,,,,METAR,10.0
KHXD 300955Z AUTO 21011G16KT 10SM SCT110 22/20 A2950 RMK AO2,KHXD,2023-04-30T09:55:00Z,32.22,-80.7,22.0,20.0,210,11,16,10.0,29.500984,,,TRUE,TRUE,,,,,,,SCT,11000,,,,,,,VFR,,,,,,,,,,,,METAR,5.0
KHWY 300955Z AUTO 07003KT 7SM OVC003 16/14 A2954 RMK AO2 LTG DSNT NE T01570142,KHWY,2023-04-30T09:55:00Z,38.58,-77.72,15.7,14.2,70,3,,7.0,29.53937,,,TRUE,TRUE,,,,,,,OVC,300,,,,,,,LIFR,,,,,,,,,,,,METAR,93.0
KHVS 300955Z AUTO 00000KT 6SM BR BKN004 BKN007 OVC026 18/18 A2946 RMK AO2 LTG DSNT E,KHVS,2023-04-30T09:55:00Z,34.4,-80.12,18.0,18.0,0,0,,6.0,29.459646,,,TRUE,TRUE,,,,,,BR,BKN,400,BKN,700,OVC,2600,,,LIFR,,,,,,,,,,,,METAR,110.0
KHVE 300955Z AUTO 00000KT 10SM CLR 05/M10 A3005 RMK AO2,KHVE,2023-04-30T09:55:00Z,38.42,-110.7,5.0,-10.0,0,0,,10.0,30.050198,,,TRUE,TRUE,,,,,,,CLR,,,,,,,,VFR,,,,,,,,,,,,METAR,1351.0
KHVC 300955Z AUTO 30005KT 10SM CLR 08/07 A2961 RMK AO2,KHVC,2023-04-30T09:55:00Z,,,8.0,7.0,300,5,,10.0,29.610237,,,TRUE,TRUE,,,,,,,CLR,,,,,,,,VFR,,,,,,,,,,,,METAR,
KHUM 300955Z AUTO 26005KT 7SM CLR 15/12 A2984 RMK AO2 T01500117,KHUM,2023-04-30T09:55:00Z,29.57,-90.67,15.0,11.7,260,5,,7.0,29.840551,,,TRUE,TRUE,,,,,,,CLR,,,,,,,,VFR,,,,,,,,,,,,METAR,1.0
KHUA 300955Z AUTO 33005KT 10SM OVC090 15/14 A2957 RMK AO2 SLP010 T01450135,KHUA,2023-04-30T09:55:00Z,34.68,-86.68,14.5,13.5,330,5,,10.0,29.568897,1001.0,,TRUE,TRUE,,,,,,,OVC,9000,,,,,,,VFR,,,,,,,,,,,,METAR,200.0
KHTH 300955Z AUTO 21006KT 10SM CLR 15/M01 A3001 RMK A01,KHTH,2023-04-30T09:55:00Z,38.55,-118.63,15.0,-1.0,210,6,,10.0,30.008858,,,TRUE,TRUE,,,,,,,CLR,,,,,,,,VFR,,,,,,,,,,,,METAR,1281.0
KHST 300955Z AUTO 19012G19KT 10SM CLR 26/23 A2976 RMK AO2 SLP081 T02640230,KHST,2023-04-30T09:55:00Z,25.48,-80.37,26.4,23.0,190,12,19,10.0,29.760826,1008.1,,TRUE,TRUE,,,,,,,CLR,,,,,,,,VFR,,,,,,,,,,,,METAR,1.0
KHSP 300955Z AUTO 15008KT 4SM -RA BKN003 BKN012 OVC055 12/12 A2958 RMK AO2 P0002 T01200117,KHSP,2023-04-30T09:55:00Z,37.95,-79.82,12.0,11.7,150,8,,4.0,29.58071,,,TRUE,TRUE,,,,,,-RA,BKN,300,BKN,1200,OVC,5500,,,LIFR,,,,,,0.02,,,,,,METAR,1148.0
KHSG 300955Z AUTO 00000KT 10SM CLR 05/00 A3006 RMK AO2 T00501004,KHSG,2023-04-30T09:55:00Z,43.72,-108.38,5.0,-0.4,0,0,,10.0,30.059055,,,TRUE,TRUE,,,,,,,CLR,,,,,,,,VFR,,,,,,,,,,,,METAR,1497.0
KHSD 300955Z AUTO 30004KT 10SM CLR 09/06 A2988 RMK A01,KHSD,2023-04-30T09:55:00Z,35.6,-97.72,9.0,6.0,300,4,,10.0,29.878937,,,TRUE,TRUE,,,,,,,CLR,,,,,,,,VFR,,,,,,,,,,,,METAR,358.0
KHSB 300955Z AUTO 00000KT 10SM CLR 07/07 A2965 RMK AO2 T00680068,KHSB,2023-04-30T09:55:00Z,37.82,-88.55,6.8,6.8,0,0,,10.0,29.648623,,,TRUE,TRUE,,,,,,,CLR,,,,,,,,VFR,,,,,,,,,,,,METAR,118.0
KHRX 300955Z AUTO 16003KT 10SM CLR 06/01 A2999 RMK AO2 T00630008,KHRX,2023-04-30T09:55:00Z,34.87,-102.33,6.3,0.8,160,3,,10.0,29.991142,,,TRUE,TRUE,,,,,,,CLR,,,,,,,,VFR,,,,,,,,,,,,METAR,1153.0
KHRT 300955Z AUTO 31008KT 10SM CLR 15/13 A2965 RMK AO2 SLP042 T01520129 $,KHRT,2023-04-30T09:55:00Z,30.42,-86.68,15.2,12.9,310,8,,10.0,29.648623,1004.2,,TRUE,TRUE,TRUE,,,,,,CLR,,,,,,,,VFR,,,,,,,,,,,,SPECI,10.0
KHQZ 300955Z AUTO 17003KT 10SM CLR 09/07 A2984 RMK AO1 T00910072,KHQZ,2023-04-30T09:55:00Z,32.75,-96.53,9.1,7.2,170,3,,10.0,29.840551,,,TRUE,TRUE,,,,,,,CLR,,,,,,,,VFR,,,,,,,,,,,,METAR,136.0
KHQU 300955Z AUTO 00000KT 7SM -RA BR BKN004 SCT009 OVC014 16/15 A2946 RMK AO2 LTG DSNT SW P0002 T01600152,KHQU,2023-04-30T09:55:00Z,33.53,-82.52,16.0,15.2,0,0,,7.0,29.459646,,,TRUE,TRUE,,,,,,-RA BR,BKN,400,SCT,900,OVC,1400,,,LIFR,,,,,,0.02,,,,,,SPECI,141.0
KHQG 300955Z AUTO 34003KT 10SM CLR 06/04 A2998 RMK AO2 T00560040,KHQG,2023-04-30T09:55:00Z,37.17,-101.37,5.6,4.0,340,3,,10.0,29.97933,,,TRUE,TRUE,,,,,,,CLR,,,,,,,,VFR,,,,,,,,,,,,METAR,956.0
KHQG 300955Z AUTO 34003KT 10SM CLR 06/04 A2998 RMK AO2 T00560040,KHQG,2023-04-30T09:55:00Z,37.17,-101.37,5.6,4.0,340,3,,10.0,29.97933,,,TRUE,TRUE,,,,,,,CLR,,,,,,,,VFR,,,,,,,,,,,,METAR,956.0
KHPT 300955Z AUTO 31017G21KT 10SM CLR 03/01 A2963 RMK AO2,KHPT,2023-04-30T09:55:00Z,42.72,-93.23,3.0,1.0,310,17,21,10.0,29.630905,,,TRUE,TRUE,,,,,,,CLR,,,,,,,,VFR,,,,,,,,,,,,METAR,354.0
KHON 300955Z AUTO 33012KT 10SM CLR 03/01 A2996 RMK AO2 SLP149 T00280011,KHON,2023-04-30T09:55:00Z,44.38,-98.23,2.8,1.1,330,12,,10.0,29.958662,1014.9,,TRUE,TRUE,,,,,,,CLR,,,,,,,,VFR,,,,,,,,,,,,METAR,391.0
KHOE 300955Z AUTO 20005KT 10SM SCT008 SCT025 BKN070 19/18 A2953 RMK AO2 T01950185,KHOE,2023-04-30T09:55:00Z,31.05,-82.78,19.5,18.5,200,5,,10.0,29.530512,,,TRUE,TRUE,,,,,,,SCT,800,SCT,2500,BKN,7000,,,VFR,,,,,,,,,,,,METAR,56.0
KHOB 300955Z AUTO 23006KT 10SM CLR 11/M06 A3000 RMK AO2,KHOB,2023-04-30T09:55:00Z,32.67,-103.22,11.0,-6.0,230,6,,10.0,30.0,,,TRUE,TRUE,,,,,,,CLR,,,,,,,,VFR,,,,,,,,,,,,METAR,1112.0
KHNZ 300955Z AUTO 19003KT 10SM BKN022 BKN030 BKN060 16/16 A2952 RMK AO2 T01570156,KHNZ,2023-04-30T09:55:00Z,36.37,-78.53,15.7,15.6,190,3,,10.0,29.518702,,,TRUE,TRUE,,,,,,,BKN,2200,BKN,3000,BKN,6000,,,MVFR,,,,,,,,,,,,METAR,158.0
KHNR 300955Z AUTO 31013KT 10SM BKN022 BKN046 BKN055 04/03 A2980 RMK A01,KHNR,2023-04-30T09:55:00Z,41.58,-95.33,4.0,3.0,310,13,,10.0,29.799213,,,TRUE,TRUE,,,,,,,BKN,2200,BKN,4600,BKN,5500,,,MVFR,,,,,,,,,,,,METAR,364.0
KHMZ 300955Z AUTO 00000KT 2SM RA OVC016 11/10 A2954 RMK AO2 LTG DSNT SE T01070104,KHMZ,2023-04-30T09:55:00Z,40.08,-78.52,10.7,10.4,0,0,,2.0,29.53937,,,TRUE,TRUE,,,,,,RA,OVC,1600,,,,,,,IFR,,,,,,,,,,,,METAR,351.0
KHMT 300955Z AUTO 00000KT 1 3/4SM BR CLR 11/ A2995 RMK AO2 VIS 1V5 T0109////,KHMT,2023-04-30T09:55:00Z,33.73,-117.02,10.9,,0,0,,1.75,29.949802,,,TRUE,TRUE,,,,,,BR,CLR,,,,,,,,IFR,,,,,,,,,,,,METAR,462.0
KHMP 300955Z AUTO 06010G15KT 5SM RA BR SCT007 BKN034 OVC043 14/13 A2949 RMK AO2 LTG DSNT SE P0030 T01410132,KHMP,2023-04-30T09:55:00Z,33.38,-84.33,14.1,13.2,60,10,15,5.0,29.489174,,,TRUE,TRUE,,,,,,RA BR,SCT,700,BKN,3400,OVC,4300,,,MVFR,,,,,,0.3,,,,,,SPECI,263.0
KHMN 300955Z AUTO 00000KT 10SM CLR 09/M09 A3007 RMK AO2 SLP133 T00881087 $,KHMN,2023-04-30T09:55:00Z,32.85,-106.1,8.8,-8.7,0,0,,10.0,30.070866,1013.3,,TRUE,TRUE,TRUE,,,,,,CLR,,,,,,,,VFR,,,,,,,,,,,,METAR,1240.0
KHLX 300955Z AUTO 21003KT 10SM DZ SCT070 BKN075 OVC095 11/10 A2954 RMK AO2 P0001 T01120095,KHLX,2023-04-30T09:55:00Z,36.77,-80.82,11.2,9.5,210,3,,10.0,29.53937,,,TRUE,TRUE,,,,,,DZ,SCT,7000,BKN,7500,OVC,9500,,,VFR,,,,,,0.01,,,,,,METAR,819.0
KHLR 300955Z AUTO 26004KT 10SM CLR 13/05 A2991 RMK AO2 SLP123 T01280052,KHLR,2023-04-30T09:55:00Z,31.13,-97.72,12.8,5.2,260,4,,10.0,29.911417,1012.3,,TRUE,TRUE,,,,,,,CLR,,,,,,,,VFR,,,,,,,,,,,,METAR,271.0
KHLB 300955Z AUTO 30005KT 10SM SCT008 BKN042 OVC048 06/06 A2952 RMK A01 P0001,KHLB,2023-04-30T09:55:00Z,39.35,-85.27,6.0,6.0,300,5,,10.0,29.518702,,,TRUE,TRUE,,,,,,,SCT,800,BKN,4200,OVC,4800,,,VFR,,,,,,0.01,,,,,,METAR,297.0
KHJH 300955Z AUTO 31008KT 10SM CLR 04/M02 A2994 RMK AO2 T00361017,KHJH,2023-04-30T09:55:00Z,40.15,-97.58,3.6,-1.7,310,8,,10.0,29.940945,,,TRUE,TRUE,,,,,,,CLR,,,,,,,,VFR,,,,,,,,,,,,SPECI,449.0
KHII 300955Z AUTO 15003KT 10SM 23/M07 A2979 RMK AO2,KHII,2023-04-30T09:55:00Z,34.57,-114.37,23.0,-7.0,150,3,,10.0,29.790354,,,TRUE,TRUE,,,,,,,,,,,,,,,,,,,,,,,,,,,METAR,241.0
KHIF 300955Z AUTO 06011KT 10SM CLR 12/M02 A3000 RMK AO2 SLP115 T01171025,KHIF,2023-04-30T09:55:00Z,41.12,-111.97,11.7,-2.5,60,11,,10.0,30.0,1011.5,,TRUE,TRUE,,,,,,,CLR,,,,,,,,VFR,,,,,,,,,,,,METAR,1461.0
KHHW 300955Z AUTO 00000KT 10SM 08/05 A2982 RMK AO2,KHHW,2023-04-30T09:55:00Z,34.03,-95.55,8.0,5.0,0,0,,10.0,29.819881,,,TRUE,TRUE,,,,,,,,,,,,,,,,,,,,,,,,,,,METAR,178.0
KHHG 300955Z AUTO 25005KT 10SM SCT075 BKN090 05/05 A2949 RMK AO2 T00540054,KHHG,2023-04-30T09:55:00Z,40.85,-85.45,5.4,5.4,250,5,,10.0,29.489174,,,TRUE,TRUE,,,,,,,SCT,7500,BKN,9000,,,,,VFR,,,,,,,,,,,,METAR,247.0
KHHF 300955Z AUTO 00000KT 10SM CLR 07/05 A2993 RMK AO2 T00710053,KHHF,2023-04-30T09:55:00Z,35.9,-100.4,7.1,5.3,0,0,,10.0,29.929134,,,TRUE,TRUE,,,,,,,CLR,,,,,,,,VFR,,,,,,,,,,,,METAR,729.0
KHFY 300955Z AUTO 27003KT 10SM BKN004 06/06 A2955 RMK AO2 T00640061,KHFY,2023-04-30T09:55:00Z,39.63,-86.08,6.4,6.1,270,3,,10.0,29.551182,,,TRUE,TRUE,,,,,,,BKN,400,,,,,,,LIFR,,,,,,,,,,,,METAR,250.0
KHFJ 300955Z AUTO 00000KT 10SM CLR 05/04 A2979 RMK AO2,KHFJ,2023-04-30T09:55:00Z,36.9,-94.02,5.0,4.0,0,0,,10.0,29.790354,,,TRUE,TRUE,,,,,,,CLR,,,,,,,,VFR,,,,,,,,,,,,METAR,398.0
KHFF 300955Z AUTO 17006KT 10SM -RA BKN004 OVC008 17/16 A2945 RMK AO2 LTG DSNT E CIG 004V006 BKN V OVC SLP972 P0007 T01660164 $,KHFF,2023-04-30T09:55:00Z,35.03,-79.5,16.6,16.4,170,6,,10.0,29.450787,997.2,,TRUE,TRUE,TRUE,,,,,-RA,BKN,400,OVC,800,,,,,LIFR,,,,,,0.07,,,,,,METAR,100.0
KHEY 300955Z AUTO 29007KT 10SM OVC085 14/14 A2956 RMK AO2 SLP011 T01410139,KHEY,2023-04-30T09:55:00Z,31.35,-85.65,14.1,13.9,290,7,,10.0,29.56004,1001.1,,TRUE,TRUE,,,,,,,OVC,8500,,,,,,,VFR,,,,,,,,,,,,METAR,95.0
KHEQ 300955Z AUTO 33006KT 10SM CLR 05/M02 A3007 RMK AO2,KHEQ,2023-04-30T09:55:00Z,40.57,-102.28,5.0,-2.0,330,6,,10.0,30.070866,,,TRUE,TRUE,,,,,,,CLR,,,,,,,,VFR,,,,,,,,,,,,METAR,1136.0
KHEG 300955Z AUTO 27009G21KT 2SM RA FEW002 BKN019 OVC100 20/19 A2956 RMK AO2 LTG DSNT E AND SE,KHEG,2023-04-30T09:55:00Z,30.28,-81.8,20.0,19.0,270,9,21,2.0,29.56004,,,TRUE,TRUE,,,,,,RA,FEW,200,BKN,1900,OVC,10000,,,IFR,,,,,,,,,,,,METAR,25.0
KHDL 300955Z AUTO 26010G15KT 9SM -RA FEW010 SCT017 OVC022 14/14 A2957 RMK AO2,KHDL,2023-04-30T09:55:00Z,31.37,-85.32,14.0,14.0,260,10,15,9.0,29.568897,,,TRUE,TRUE,,,,,,-RA,FEW,1000,SCT,1700,OVC,2200,,,MVFR,,,,,,,,,,,,SPECI,109.0
KHDE 300955Z AUTO 33009KT 10SM CLR 04/M04 A3000 RMK AO2 T00431042,KHDE,2023-04-30T09:55:00Z,40.45,-99.33,4.3,-4.2,330,9,,10.0,30.0,,,TRUE,TRUE,,,,,,,CLR,,,,,,,,VFR,,,,,,,,,,,,METAR,703.0
KHDC 300955Z AUTO 28005KT 10SM CLR 14/12 A2981 RMK AO2 T01410121,KHDC,2023-04-30T09:55:00Z,30.52,-90.42,14.1,12.1,280,5,,10.0,29.811024,,,TRUE,TRUE,,,,,,,CLR,,,,,,,,VFR,,,,,,,,,,,,METAR,12.0
KHCR 300955Z AUTO 00000KT 10SM CLR 01/M03 A3012 RMK AO2,KHCR,2023-04-30T09:55:00Z,40.48,-111.43,1.0,-3.0,0,0,,10.0,30.121063,,,TRUE,TRUE,,,,,,,CLR,,,,,,,,VFR,,,,,,,,,,,,METAR,1708.0
KHCO 300955Z AUTO 33011KT 10SM CLR 01/00 A2999 RMK AO2,KHCO,2023-04-30T09:55:00Z,48.75,-96.93,1.0,0.0,330,11,,10.0,29.991142,,,TRUE,TRUE,,,,,,,CLR,,,,,,,,VFR,,,,,,,,,,,,METAR,250.0
KHCD 300955Z AUTO 31017G23KT 10SM CLR 03/M01 A2972 RMK AO2 T00331010,KHCD,2023-04-30T09:55:00Z,44.87,-94.38,3.3,-1.0,310,17,23,10.0,29.719488,,,TRUE,TRUE,,,,,,,CLR,,,,,,,,VFR,,,,,,,,,,,,METAR,320.0
KHBV 300955Z AUTO 28008KT 10SM CLR 14/05 A2999 RMK AO2 T01400045,KHBV,2023-04-30T09:55:00Z,27.35,-98.73,14.0,4.5,280,8,,10.0,29.991142,,,TRUE,TRUE,,,,,,,CLR,,,,,,,,VFR,,,,,,,,,,,,SPECI,200.0
KHAI 300955Z AUTO 26009G14KT 10SM SCT020 BKN026 OVC110 06/02 A2946 RMK AO2 T00600023,KHAI,2023-04-30T09:55:00Z,41.97,-85.6,6.0,2.3,260,9,14,10.0,29.459646,,,TRUE,TRUE,,,,,,,SCT,2000,BKN,2600,OVC,11000,,,MVFR,,,,,,,,,,,,METAR,250.0
KHAF 300955Z AUTO 32008KT 6SM BR OVC006 10/09 A3000 RMK AO2,KHAF,2023-04-30T09:55:00Z,37.52,-122.5,10.0,9.0,320,8,,6.0,30.0,,,TRUE,TRUE,,,,,,BR,OVC,600,,,,,,,IFR,,,,,,,,,,,,METAR,11.0
KHAE 300955Z AUTO 28008KT 10SM SCT065 SCT120 06/03 A2965 RMK AO2,KHAE,2023-04-30T09:55:00Z,39.73,-91.45,6.0,3.0,280,8,,10.0,29.648623,,,TRUE,TRUE,,,,,,,SCT,6500,SCT,12000,,,,,VFR,,,,,,,,,,,,METAR,230.0
KGZS 300955Z AUTO 00000KT 9SM CLR 12/12 A2958 RMK A01,KGZS,2023-04-30T09:55:00Z,35.15,-87.05,12.0,12.0,0,0,,9.0,29.58071,,,TRUE,TRUE,,,,,,,CLR,,,,,,,,VFR,,,,,,,,,,,,METAR,198.0
KGZL 300955Z AUTO 00000KT 10SM CLR 08/07 A2981 RMK AO2,KGZL,2023-04-30T09:55:00Z,35.28,-95.1,8.0,7.0,0,0,,10.0,29.811024,,,TRUE,TRUE,,,,,,,CLR,,,,,,,,VFR,,,,,,,,,,,,SPECI,176.0
KGYL 300955Z AUTO 32015G20KT 10SM CLR 03/M01 A2968 RMK AO2 T00331014,KGYL,2023-04-30T09:55:00Z,44.77,-94.08,3.3,-1.4,320,15,20,10.0,29.681103,,,TRUE,TRUE,,,,,,,CLR,,,,,,,,VFR,,,,,,,,,,,,METAR,304.0
KGYI 300955Z AUTO 30005KT 10SM CLR 10/06 A2987 RMK AO2 T00960064 TSNO,KGYI,2023-04-30T09:55:00Z,33.72,-96.67,9.6,6.4,300,5,,10.0,29.870079,,,TRUE,TRUE,,,TRUE,,,,CLR,,,,,,,,VFR,,,,,,,,,,,,METAR,227.0
KGYH 300955Z AUTO 34004KT 5SM +RA BR BKN011 OVC039 15/15 A2950 RMK A02 P0006 T01530147,KGYH,2023-04-30T09:55:00Z,34.75,-82.38,15.3,14.7,340,4,,5.0,29.500984,,,TRUE,TRUE,,,,,,+RA BR,BKN,1100,OVC,3900,,,,,MVFR,,,,,,0.06,,,,,,SPECI,283.0
KGYF 300955Z AUTO 35006KT 10SM CLR A2994 RMK AO2,KGYF,2023-04-30T09:55:00Z,26.13,-94.9,,,350,6,,10.0,29.940945,,,TRUE,TRUE,,,,,,,CLR,,,,,,,,VFR,,,,,,,,,,,,METAR,65.0
KGYB 300955Z AUTO 00000KT 10SM CLR 10/08 A2994 RMK AO2 T01010084,KGYB,2023-04-30T09:55:00Z,30.17,-96.98,10.1,8.4,0,0,,10.0,29.940945,,,TRUE,TRUE,,,,,,,CLR,,,,,,,,VFR,,,,,,,,,,,,METAR,140.0
KGXF 300955Z AUTO 15008KT 10SM CLR 21/M12 A2980 RMK AO2 SLP079 T02101118 FZRANO $,KGXF,2023-04-30T09:55:00Z,32.88,-112.72,21.0,-11.8,150,8,,10.0,29.799213,1007.9,,TRUE,TRUE,TRUE,,,TRUE,,,CLR,,,,,,,,VFR,,,,,,,,,,,,METAR,261.0
KGXA 300955Z AUTO 24006KT 10SM CLR 15/M03 A2994 RMK AO2 SLP107 WND DATA ESTMD T01491028,KGXA,2023-04-30T09:55:00Z,34.57,-117.67,14.9,-2.8,240,6,,10.0,29.940945,1010.7,,TRUE,TRUE,,,,,,,CLR,,,,,,,,VFR,,,,,,,,,,,,METAR,927.0
KGWR 300955Z AUTO 34014KT 10SM CLR 02/02 A2995 RMK A01,KGWR,2023-04-30T09:55:00Z,46.22,-97.65,2.0,2.0,340,14,,10.0,29.949802,,,TRUE,TRUE,,,,,,,CLR,,,,,,,,VFR,,,,,,,,,,,,METAR,381.0
KGWB 300955Z AUTO 27003KT 10SM OVC080 06/04 A2947 RMK AO2,KGWB,2023-04-30T09:55:00Z,41.3,-85.07,6.0,4.0,270,3,,10.0,29.471457,,,TRUE,TRUE,,,,,,,OVC,8000,,,,,,,VFR,,,,,,,,,,,,METAR,268.0
KGVT 300955Z AUTO 23003KT 10SM CLR 12/08 A2984 RMK AO2 TSNO T01190076,KGVT,2023-04-30T09:55:00Z,33.07,-96.07,11.9,7.6,230,3,,10.0,29.840551,,,TRUE,TRUE,,,TRUE,,,,CLR,,,,,,,,VFR,,,,,,,,,,,,SPECI,165.0
KGVE 300955Z AUTO 00000KT 10SM OVC009 16/15 A2952 RMK AO1 T01580152,KGVE,2023-04-30T09:55:00Z,38.15,-78.17,15.8,15.2,0,0,,10.0,29.518702,,,TRUE,TRUE,,,,,,,OVC,900,,,,,,,IFR,,,,,,,,,,,,METAR,138.0
KGUS 300955Z AUTO 25010KT 10SM FEW060 05/04 A2949 RMK AO2 SLP991 T00500044 TSNO $,KGUS,2023-04-30T09:55:00Z,40.63,-86.15,5.0,4.4,250,10,,10.0,29.489174,999.1,,TRUE,TRUE,TRUE,,TRUE,,,,FEW,6000,,,,,,,VFR,,,,,,,,,,,,SPECI,245.0
KGUR 300955Z AUTO 15003KT 10SM CLR 03/M03 A3009 RMK AO2 SLP192 T00311035,KGUR,2023-04-30T09:55:00Z,42.25,-104.72,3.1,-3.5,150,3,,10.0,30.088583,1019.2,,TRUE,TRUE,,,,,,,CLR,,,,,,,,VFR,,,,,,,,,,,,METAR,1341.0
KGSB 300955Z 15005KT 10SM OVC005 18/18 A2948 RMK AO2A SLP986 WND DATA ESTMD T01820180 $,KGSB,2023-04-30T09:55:00Z,35.33,-77.93,18.2,18.0,150,5,,10.0,29.480314,998.6,,,TRUE,TRUE,,,,,,OVC,500,,,,,,,IFR,,,,,,,,,,,,METAR,33.0
KGRY 300955Z AUTO 32011G24KT 10SM BKN036 OVC046 19/11 A2986 RMK A01,KGRY,2023-04-30T09:55:00Z,27.63,-90.45,19.0,11.0,320,11,24,10.0,29.861221,,,TRUE,TRUE,,,,,,,BKN,3600,OVC,4600,,,,,VFR,,,,,,,,,,,,METAR,58.0
KGRN 300955Z AUTO 30006KT 10SM CLR 01/M06 A3009 RMK AO2 T00061063,KGRN,2023-04-30T09:55:00Z,42.8,-102.17,0.6,-6.3,300,6,,10.0,30.088583,,,TRUE,TRUE,,,,,,,CLR,,,,,,,,VFR,,,,,,,,,,,,SPECI,1080.0
KGRK 300955Z AUTO 29003KT 8SM CLR 17/02 A2990 RMK AO2 SLP118 T01700022,KGRK,2023-04-30T09:55:00Z,31.07,-97.83,17.0,2.2,290,3,,8.0,29.899607,1011.8,,TRUE,TRUE,,,,,,,CLR,,,,,,,,VFR,,,,,,,,,,,,METAR,311.0
KGRF 300955Z AUTO 26003KT 10SM CLR 09/06 A2991 RMK AO2 SLP131 T00880064 $,KGRF,2023-04-30T09:55:00Z,47.07,-122.57,8.8,6.4,260,3,,10.0,29.911417,1013.1,,TRUE,TRUE,TRUE,,,,,,CLR,,,,,,,,VFR,,,,,,,,,,,,METAR,91.0
KGPM 300955Z AUTO 21005KT 10SM CLR 12/07 A2986 RMK AO2 T01160068,KGPM,2023-04-30T09:55:00Z,32.7,-97.05,11.6,6.8,210,5,,10.0,29.861221,,,TRUE,TRUE,,,,,,,CLR,,,,,,,,VFR,,,,,,,,,,,,METAR,178.0
KGPI 300955Z AUTO 29003KT 10SM CLR 04/01 A2994 RMK AO2 SLP136 T00440011,KGPI,2023-04-30T09:55:00Z,48.32,-114.25,4.4,1.1,290,3,,10.0,29.940945,1013.6,,TRUE,TRUE,,,,,,,CLR,,,,,,,,VFR,,,,,,,,,,,,METAR,903.0
KGPH 300955Z AUTO 30007KT 10SM CLR 08/01 A2977 RMK AO2,KGPH,2023-04-30T09:55:00Z,39.33,-94.32,8.0,1.0,300,7,,10.0,29.769686,,,TRUE,TRUE,,,,,,,CLR,,,,,,,,VFR,,,,,,,,,,,,METAR,233.0
KGPC 300955Z AUTO 25007KT 10SM BKN005 BKN029 05/05 A2955 RMK AO2 T00520048,KGPC,2023-04-30T09:55:00Z,39.63,-86.82,5.2,4.8,250,7,,10.0,29.551182,,,TRUE,TRUE,,,,,,,BKN,500,BKN,2900,,,,,IFR,,,,,,,,,,,,SPECI,254.0
KGOP 300955Z AUTO 23007KT 10SM CLR 12/06 A2990 RMK AO2,KGOP,2023-04-30T09:55:00Z,31.42,-97.8,12.0,6.0,230,7,,10.0,29.899607,,,TRUE,TRUE,,,,,,,CLR,,,,,,,,VFR,,,,,,,,,,,,METAR,272.0
KGOO 300955Z AUTO VRB05KT 10SM CLR 17/05 A2997 RMK A01,KGOO,2023-04-30T09:55:00Z,39.22,-121.0,17.0,5.0,0,5,,10.0,29.970472,,,TRUE,TRUE,,,,,,,CLR,,,,,,,,VFR,,,,,,,,,,,,METAR,950.0
KGNT 300955Z AUTO 35004KT 10SM CLR 00/M12 A3018 RMK AO2 T10031120,KGNT,2023-04-30T09:55:00Z,35.17,-107.9,-0.3,-12.0,350,4,,10.0,30.180119,,,TRUE,TRUE,,,,,,,CLR,,,,,,,,VFR,,,,,,,,,,,,METAR,1988.0
KGNB 300955Z AUTO 00000KT 10SM CLR M01/M04 A3018 RMK AO2 T10071039,KGNB,2023-04-30T09:55:00Z,40.08,-105.92,-0.7,-3.9,0,0,,10.0,30.180119,,,TRUE,TRUE,,,,,,,CLR,,,,,,,,VFR,,,,,,,,,,,,METAR,2500.0
KGMJ 300955Z AUTO 00000KT 10SM CLR 06/06 A2981 RMK AO2,KGMJ,2023-04-30T09:55:00Z,36.6,-94.73,6.0,6.0,0,0,,10.0,29.811024,,,TRUE,TRUE,,,,,,,CLR,,,,,,,,VFR,,,,,,,,,,,,SPECI,251.0
KGLY 300955Z AUTO 31004KT 9SM CLR 05/04 A2976 RMK AO2,KGLY,2023-04-30T09:55:00Z,38.35,-93.68,5.0,4.0,310,4,,9.0,29.760826,,,TRUE,TRUE,,,,,,,CLR,,,,,,,,VFR,,,,,,,,,,,,METAR,247.0
KGLW 300955Z AUTO 30005KT 10SM BKN007 OVC015 12/12 A2954 RMK AO2 T01210118,KGLW,2023-04-30T09:55:00Z,37.03,-85.95,12.1,11.8,300,5,,10.0,29.53937,,,TRUE,TRUE,,,,,,,BKN,700,OVC,1500,,,,,IFR,,,,,,,,,,,,SPECI,216.0
KGLE 300955Z AUTO 34007KT 10SM CLR 12/06 A2988 RMK AO2 T01200055,KGLE,2023-04-30T09:55:00Z,33.65,-97.2,12.0,5.5,340,7,,10.0,29.878937,,,TRUE,TRUE,,,,,,,CLR,,,,,,,,VFR,,,,,,,,,,,,SPECI,250.0
KGKT 300955Z AUTO 00000KT 9SM BKN043 BKN050 OVC120 15/15 A2949 RMK A01,KGKT,2023-04-30T09:55:00Z,35.85,-83.53,15.0,15.0,0,0,,9.0,29.489174,,,TRUE,TRUE,,,,,,,BKN,4300,BKN,5000,OVC,12000,,,VFR,,,,,,,,,,,,METAR,305.0
KGIC 300955Z AUTO 07006KT 10SM CLR 10/03 A2990 RMK AO1,KGIC,2023-04-30T09:55:00Z,45.95,-116.12,10.0,3.0,70,6,,10.0,29.899607,,,TRUE,TRUE,,,,,,,CLR,,,,,,,,VFR,,,,,,,,,,,,SPECI,1002.0
KGHW 300955Z AUTO 32014KT 10SM CLR 02/M02 A2977 RMK AO2,KGHW,2023-04-30T09:55:00Z,45.63,-95.32,2.0,-2.0,320,14,,10.0,29.769686,,,TRUE,TRUE,,,,,,,CLR,,,,,,,,VFR,,,,,,,,,,,,METAR,423.0
KGHG 300955Z AUTO 10006KT 3SM BR OVC006 10/09 A2984 RMK AO2 P0006,KGHG,2023-04-30T09:55:00Z,42.1,-70.67,10.0,9.0,100,6,,3.0,29.840551,,,TRUE,TRUE,,,,,,BR,OVC,600,,,,,,,IFR,,,,,,0.06,,,,,,METAR,3.0
KGGP 300955Z AUTO 24009KT 10SM BKN048 05/04 A2951 RMK AO2,KGGP,2023-04-30T09:55:00Z,40.72,-86.37,5.0,4.0,240,9,,10.0,29.509842,,,TRUE,TRUE,,,,,,,BKN,4800,,,,,,,VFR,,,,,,,,,,,,SPECI,224.0
KGGI 300955Z AUTO 30014G19KT 10SM SCT070 05/03 A2965 RMK AO2 T00460032,KGGI,2023-04-30T09:55:00Z,41.72,-92.73,4.6,3.2,300,14,19,10.0,29.648623,,,TRUE,TRUE,,,,,,,SCT,7000,,,,,,,VFR,,,,,,,,,,,,METAR,305.0
KGGF 300955Z AUTO 36008KT 10SM CLR 02/M06 A3006 RMK AO2,KGGF,2023-04-30T09:55:00Z,40.87,-101.73,2.0,-6.0,360,8,,10.0,30.059055,,,TRUE,TRUE,,,,,,,CLR,,,,,,,,VFR,,,,,,,,,,,,SPECI,1044.0
KGGE 300955Z AUTO 19007KT 10SM SCT008 BKN014 BKN020 20/20 A2948 RMK AO2,KGGE,2023-04-30T09:55:00Z,33.32,-79.32,20.0,20.0,190,7,,10.0,29.480314,,,TRUE,TRUE,,,,,,,SCT,800,BKN,1400,BKN,2000,,,MVFR,,,,,,,,,,,,METAR,9.0
KGFA 300955Z AUTO 18007KT 10SM CLR 06/03 A2999 RMK AO2 SLP160 T00550027 $,KGFA,2023-04-30T09:55:00Z,47.5,-111.18,5.5,2.7,180,7,,10.0,29.991142,1016.0,,TRUE,TRUE,TRUE,,,,,,CLR,,,,,,,,VFR,,,,,,,,,,,,METAR,1058.0
KGDJ 300955Z AUTO 03003KT 10SM CLR 09/07 A2989 RMK AO2 T00860066,KGDJ,2023-04-30T09:55:00Z,32.45,-97.82,8.6,6.6,30,3,,10.0,29.890747,,,TRUE,TRUE,,,,,,,CLR,,,,,,,,VFR,,,,,,,,,,,,METAR,235.0
KGDB 300955Z AUTO 30015G19KT 10SM CLR 04/01 A2982 RMK AO2 T00350010,KGDB,2023-04-30T09:55:00Z,44.75,-95.55,3.5,1.0,300,15,19,10.0,29.819881,,,TRUE,TRUE,,,,,,,CLR,,,,,,,,VFR,,,,,,,,,,,,METAR,316.0
KGDA 300955Z AUTO 31007KT 10SM CLR 07/04 A2963 RMK AO2 T00680040 PWINO,KGDA,2023-04-30T09:55:00Z,37.33,-88.1,6.8,4.0,310,7,,10.0,29.630905,,,TRUE,TRUE,,,,,TRUE,,CLR,,,,,,,,VFR,,,,,,,,,,,,METAR,199.0
KGCY 300955Z AUTO VRB04KT 8SM SCT027 BKN039 OVC055 13/13 A2949 RMK A01,KGCY,2023-04-30T09:55:00Z,36.2,-82.82,13.0,13.0,0,4,,8.0,29.489174,,,TRUE,TRUE,,,,,,,SCT,2700,BKN,3900,OVC,5500,,,VFR,,,,,,,,,,,,METAR,488.0
KGCM 300955Z AUTO 00000KT 10SM CLR 06/06 A2983 RMK AO2,KGCM,2023-04-30T09:55:00Z,36.3,-95.48,6.0,6.0,0,0,,10.0,29.828741,,,TRUE,TRUE,,,,,,,CLR,,,,,,,,VFR,,,,,,,,,,,,SPECI,215.0
KGCD 300955Z AUTO 09006KT 10SM CLR 10/04 A2991 RMK AO2 T00990040,KGCD,2023-04-30T09:55:00Z,44.4,-118.97,9.9,4.0,90,6,,10.0,29.911417,,,TRUE,TRUE,,,,,,,CLR,,,,,,,,VFR,,,,,,,,,,,,SPECI,1122.0
KGBG 300955Z AUTO 28008KT 10SM SCT065 OVC090 05/04 A2957 RMK AO2 T00530038 TSNO,KGBG,2023-04-30T09:55:00Z,40.93,-90.43,5.3,3.8,280,8,,10.0,29.568897,,,TRUE,TRUE,,,TRUE,,,,SCT,6500,OVC,9000,,,,,VFR,,,,,,,,,,,,METAR,230.0
KGAO 300955Z AUTO 29009G16KT 10SM CLR 17/12 A2983 RMK AO2 T01650121,KGAO,2023-04-30T09:55:00Z,29.45,-90.27,16.5,12.1,290,9,16,10.0,29.828741,,,TRUE,TRUE,,,,,,,CLR,,,,,,,,VFR,,,,,,,,,,,,SPECI,0.0
KGAF 300955Z AUTO 34016KT 10SM CLR 02/01 A3001 RMK AO2,KGAF,2023-04-30T09:55:00Z,48.4,-97.37,2.0,1.0,340,16,,10.0,30.008858,,,TRUE,TRUE,,,,,,,CLR,,,,,,,,VFR,,,,,,,,,,,,METAR,250.0
KFZG 300955Z AUTO 23005KT 10SM SCT008 BKN015 BKN021 19/18 A2949 RMK AO2 LTG DSNT N T01900180,KFZG,2023-04-30T09:55:00Z,31.68,-83.27,19.0,18.0,230,5,,10.0,29.489174,,,TRUE,TRUE,,,,,,,SCT,800,BKN,1500,BKN,2100,,,MVFR,,,,,,,,,,,,SPECI,105.0
KFYM 300955Z AUTO 32004KT 10SM SCT090 14/12 A2958 RMK A01,KFYM,2023-04-30T09:55:00Z,35.07,-86.57,14.0,12.0,320,4,,10.0,29.58071,,,TRUE,TRUE,,,,,,,SCT,9000,,,,,,,VFR,,,,,,,,,,,,METAR,297.0
KFYJ 300955Z AUTO 00000KT 10SM BKN015 BKN046 OVC110 17/16 A2952 RMK AO1 P0001 T01650157,KFYJ,2023-04-30T09:55:00Z,37.52,-76.77,16.5,15.7,0,0,,10.0,29.518702,,,TRUE,TRUE,,,,,,,BKN,1500,BKN,4600,OVC,11000,,,MVFR,,,,,,0.01,,,,,,METAR,3.0
KFYG 300955Z AUTO 00000KT 10SM 06/06 A2966 RMK AO2,KFYG,2023-04-30T09:55:00Z,38.58,-91.0,6.0,6.0,0,0,,10.0,29.660433,,,TRUE,TRUE,,,,,,,,,,,,,,,,,,,,,,,,,,,METAR,147.0
KFYE 300955Z AUTO 32005KT 10SM CLR 12/10 A2965 RMK A01,KFYE,2023-04-30T09:55:00Z,35.2,-89.38,12.0,10.0,320,5,,10.0,29.648623,,,TRUE,TRUE,,,,,,,CLR,,,,,,,,VFR,,,,,,,,,,,,METAR,133.0
KFXY 300955Z AUTO 31013G18KT 10SM CLR 02/00 A2965 RMK AO2,KFXY,2023-04-30T09:55:00Z,43.23,-93.62,2.0,0.0,310,13,18,10.0,29.648623,,,TRUE,TRUE,,,,,,,CLR,,,,,,,,VFR,,,,,,,,,,,,METAR,366.0
KFWS 300955Z AUTO 19003KT 10SM CLR 11/07 A2987 RMK AO2 T01150070,KFWS,2023-04-30T09:55:00Z,32.57,-97.3,11.5,7.0,190,3,,10.0,29.870079,,,TRUE,TRUE,,,,,,,CLR,,,,,,,,VFR,,,,,,,,,,,,METAR,211.0
KFWC 300955Z AUTO 00000KT 10SM CLR 06/05 A2963 RMK AO1 T00600050,KFWC,2023-04-30T09:55:00Z,38.38,-88.42,6.0,5.0,0,0,,10.0,29.630905,,,TRUE,TRUE,,,,,,,CLR,,,,,,,,VFR,,,,,,,,,,,,METAR,131.0
KFWB 300955Z AUTO 00000KT 10SM CLR 06/04 A2977 RMK AO2,KFWB,2023-04-30T09:55:00Z,36.7,-93.4,6.0,4.0,0,0,,10.0,29.769686,,,TRUE,TRUE,,,,,,,CLR,,,,,,,,VFR,,,,,,,,,,,,METAR,392.0
KFVX 300955Z AUTO 00000KT 10SM -DZ SCT026 BKN065 OVC085 16/16 A2950 RMK AO2 LTG DSNT E P0071 T01610157,KFVX,2023-04-30T09:55:00Z,37.35,-78.43,16.1,15.7,0,0,,10.0,29.500984,,,TRUE,TRUE,,,,,,-DZ,SCT,2600,BKN,6500,OVC,8500,,,VFR,,,,,,0.71,,,,,,METAR,129.0
KFTN 300955Z AUTO 00000KT 10SM CLR 11/09 A3000 RMK A01,KFTN,2023-04-30T09:55:00Z,28.22,-100.02,11.0,9.0,0,0,,10.0,30.0,,,TRUE,TRUE,,,,,,,CLR,,,,,,,,VFR,,,,,,,,,,,,METAR,236.0
KFTK 300955Z AUTO 32005KT 10SM BKN041 08/05 A2954 RMK AO2 SLP004 T00840051,KFTK,2023-04-30T09:55:00Z,37.9,-85.97,8.4,5.1,320,5,,10.0,29.53937,1000.4,,TRUE,TRUE,,,,,,,BKN,4100,,,,,,,VFR,,,,,,,,,,,,METAR,225.0
KFSW 300955Z AUTO 29008KT 10SM 06/04 A2960 RMK AO2,KFSW,2023-04-30T09:55:00Z,40.67,-91.32,6.0,4.0,290,8,,10.0,29.601377,,,TRUE,TRUE,,,,,,,,,,,,,,,,,,,,,,,,,,,SPECI,219.0
KFSK 300955Z AUTO 25007KT 10SM CLR 06/02 A2982 RMK AO2 T00570018,KFSK,2023-04-30T09:55:00Z,37.8,-94.77,5.7,1.8,250,7,,10.0,29.819881,,,TRUE,TRUE,,,,,,,CLR,,,,,,,,VFR,,,,,,,,,,,,METAR,276.0
KFSI 300955Z AUTO 35006KT 10SM CLR 14/05 A2985 RMK AO2 SLP103 T01360047 FZRANO $,KFSI,2023-04-30T09:55:00Z,34.65,-98.4,13.6,4.7,350,6,,10.0,29.84941,1010.3,,TRUE,TRUE,TRUE,,,TRUE,,,CLR,,,,,,,,VFR,,,,,,,,,,,,METAR,360.0
KFSE 300955Z AUTO 34012KT 10SM CLR 00/M04 A2988 RMK AO2,KFSE,2023-04-30T09:55:00Z,47.58,-95.77,0.0,-4.0,340,12,,10.0,29.878937,,,TRUE,TRUE,,,,,,,CLR,,,,,,,,VFR,,,,,,,,,,,,METAR,389.0
KFRI 300955Z AUTO 32005KT 10SM CLR 08/00 A2991 RMK AO2 SLP124 T00770002,KFRI,2023-04-30T09:55:00Z,39.05,-96.77,7.7,0.2,320,5,,10.0,29.911417,1012.4,,TRUE,TRUE,,,,,,,CLR,,,,,,,,VFR,,,,,,,,,,,,METAR,232.0
KFRH 300955Z AUTO 29005KT 10SM SCT011 OVC018 06/04 A2958 RMK AO1,KFRH,2023-04-30T09:55:00Z,38.5,-86.63,6.0,4.0,290,5,,10.0,29.58071,,,TRUE,TRUE,,,,,,,SCT,1100,OVC,1800,,,,,MVFR,,,,,,,,,,,,METAR,241.0
KFPY 300955Z AUTO 24006KT 10SM SCT018 SCT024 20/18 A2958 RMK AO2 T01980181,KFPY,2023-04-30T09:55:00Z,30.07,-83.57,19.8,18.1,240,6,,10.0,29.58071,,,TRUE,TRUE,,,,,,,SCT,1800,SCT,2400,,,,,VFR,,,,,,,,,,,,SPECI,12.0
KFPK 300955Z AUTO 24007KT 10SM SCT016 OVC110 06/04 A2941 RMK AO2 T00610035,KFPK,2023-04-30T09:55:00Z,42.57,-84.82,6.1,3.5,240,7,,10.0,29.409449,,,TRUE,TRUE,,,,,,,SCT,1600,OVC,11000,,,,,VFR,,,,,,,,,,,,METAR,269.0
KFOA 300955Z AUTO 27009KT 10SM CLR 06/05 A2963 RMK AO2,KFOA,2023-04-30T09:55:00Z,38.67,-88.45,6.0,5.0,270,9,,10.0,29.630905,,,TRUE,TRUE,,,,,,,CLR,,,,,,,,VFR,,,,,,,,,,,,SPECI,141.0
KFMM 300955Z AUTO 04009KT 10SM BKN100 06/M01 A3008 RMK AO2,KFMM,2023-04-30T09:55:00Z,40.33,-103.8,6.0,-1.0,40,9,,10.0,30.079725,,,TRUE,TRUE,,,,,,,BKN,10000,,,,,,,VFR,,,,,,,,,,,,METAR,1376.0
KFLY 300955Z AUTO 34006KT 10SM CLR 05/M02 A3013 RMK AO2 T00501016,KFLY,2023-04-30T09:55:00Z,38.95,-104.57,5.0,-1.6,340,6,,10.0,30.129921,,,TRUE,TRUE,,,,,,,CLR,,,,,,,,VFR,,,,,,,,,,,,METAR,2096.0
KFKS 300955Z AUTO 22004KT 2 1/2SM -RA BKN005 OVC009 03/03 A2934 RMK AO2 T00320025,KFKS,2023-04-30T09:55:00Z,44.63,-86.2,3.2,2.5,220,4,,2.5,29.338583,,,TRUE,TRUE,,,,,,-RA,BKN,500,OVC,900,,,,,IFR,,,,,,,,,,,,METAR,189.0
KFKR 300955Z AUTO 23010KT 10SM FEW013 BKN049 OVC075 06/05 A2951 RMK AO2,KFKR,2023-04-30T09:55:00Z,40.27,-86.57,6.0,5.0,230,10,,10.0,29.509842,,,TRUE,TRUE,,,,,,,FEW,1300,BKN,4900,OVC,7500,,,VFR,,,,,,,,,,,,SPECI,260.0
KFKN 300955Z AUTO 17007KT 10SM SCT055 OVC100 20/18 A2953 RMK AO2 LTG DSNT NE T01950176,KFKN,2023-04-30T09:55:00Z,36.7,-76.9,19.5,17.6,170,7,,10.0,29.530512,,,TRUE,TRUE,,,,,,,SCT,5500,OVC,10000,,,,,VFR,,,,,,,,,,,,METAR,9.0
KFIN 300955Z AUTO 20013G19KT 10SM SCT036 SCT048 22/20 A2955 RMK AO2 LTG DSNT N T02200200,KFIN,2023-04-30T09:55:00Z,29.47,-81.2,22.0,20.0,200,13,19,10.0,29.551182,,,TRUE,TRUE,,,,,,,SCT,3600,SCT,4800,,,,,VFR,,,,,,,,,,,,METAR,10.0
KFHU 300955Z AUTO 21003KT 9SM CLR 15/M08 A3007 RMK AO2 SLP124 T01531076,KFHU,2023-04-30T09:55:00Z,31.58,-110.35,15.3,-7.6,210,3,,9.0,30.070866,1012.4,,TRUE,TRUE,,,,,,,CLR,,,,,,,,VFR,,,,,,,,,,,,METAR,1424.0
KFHB 300955Z AUTO 18010KT 10SM SCT049 BKN060 OVC110 21/ A2950 RMK AO2,KFHB,2023-04-30T09:55:00Z,30.62,-81.47,21.0,,180,10,,10.0,29.500984,,,TRUE,TRUE,,,,,,,SCT,4900,BKN,6000,OVC,11000,,,VFR,,,,,,,,,,,,SPECI,4.0
KFGX 300955Z AUTO 23005KT 5SM BR SCT050 11/11 A2949 RMK AO2 T01110105,KFGX,2023-04-30T09:55:00Z,38.55,-83.75,11.1,10.5,230,5,,5.0,29.489174,,,TRUE,TRUE,,,,,,BR,SCT,5000,,,,,,,MVFR,,,,,,,,,,,,METAR,279.0
KFGN 300955Z AUTO 36016G21KT 10SM CLR 03/M04 A2991 RMK AO2,KFGN,2023-04-30T09:55:00Z,49.32,-94.9,3.0,-4.0,360,16,21,10.0,29.911417,,,TRUE,TRUE,,,,,,,CLR,,,,,,,,VFR,,,,,,,,,,,,METAR,327.0
KFFX 300955Z AUTO 24008KT 3SM RA SCT006 BKN009 OVC024 04/04 A2939 RMK AO2 T00400040,KFFX,2023-04-30T09:55:00Z,43.43,-86.0,4.0,4.0,240,8,,3.0,29.388779,,,TRUE,TRUE,,,,,,RA,SCT,600,BKN,900,OVC,2400,,,IFR,,,,,,,,,,,,METAR,234.0
KFFO 300955Z 30012G18KT 9SM -SHRA OVC028 06/05 A2946 RMK AO2A PK WND 30028/27 SLP979 P0013 T00630048,KFFO,2023-04-30T09:55:00Z,39.83,-84.03,6.3,4.8,300,12,18,9.0,29.459646,997.9,,,TRUE,,,,,,-SHRA,OVC,2800,,,,,,,MVFR,,,,,,0.13,,,,,,METAR,250.0
KFFM 300955Z AUTO 34014G19KT 10SM CLR 01/00 A2985 RMK AO2,KFFM,2023-04-30T09:55:00Z,46.28,-96.15,1.0,0.0,340,14,19,10.0,29.84941,,,TRUE,TRUE,,,,,,,CLR,,,,,,,,VFR,,,,,,,,,,,,METAR,362.0
KFFL 300955Z AUTO 30012KT 10SM BKN075 BKN085 05/04 A2962 RMK A01,KFFL,2023-04-30T09:55:00Z,41.05,-91.97,5.0,4.0,300,12,,10.0,29.619095,,,TRUE,TRUE,,,,,,,BKN,7500,BKN,8500,,,,,VFR,,,,,,,,,,,,METAR,240.0
KFFA 300955Z AUTO 00000KT 7SM -DZ OVC070 18/16 A2957 RMK AO2 T01760164,KFFA,2023-04-30T09:55:00Z,36.02,-75.67,17.6,16.4,0,0,,7.0,29.568897,,,TRUE,TRUE,,,,,,-DZ,OVC,7000,,,,,,,VFR,,,,,,,,,,,,METAR,2.0
KFET 300955Z AUTO 29012KT 10SM CLR 05/01 A2987 RMK AO2 T00500011,KFET,2023-04-30T09:55:00Z,41.45,-96.52,5.0,1.1,290,12,,10.0,29.870079,,,TRUE,TRUE,,,,,,,CLR,,,,,,,,VFR,,,,,,,,,,,,SPECI,366.0
KFEP 300955Z AUTO 26006KT 10SM SCT070 05/02 A2950 RMK AO2 T00450019,KFEP,2023-04-30T09:55:00Z,42.25,-89.58,4.5,1.9,260,6,,10.0,29.500984,,,TRUE,TRUE,,,,,,,SCT,7000,,,,,,,VFR,,,,,,,,,,,,METAR,255.0
KFDW 300955Z AUTO 01003KT 7SM -DZ BKN003 BKN009 OVC026 15/15 A2946 RMK AO1 P0006,KFDW,2023-04-30T09:55:00Z,34.32,-81.12,15.0,15.0,10,3,,7.0,29.459646,,,TRUE,TRUE,,,,,,-DZ,BKN,300,BKN,900,OVC,2600,,,LIFR,,,,,,0.06,,,,,,METAR,174.0
KFCS 300955Z AUTO 34009KT 10SM CLR 07/M01 A3006 RMK AO2 SLP144 T00681009 $,KFCS,2023-04-30T09:55:00Z,38.67,-104.77,6.8,-0.9,340,9,,10.0,30.059055,1014.4,,TRUE,TRUE,TRUE,,,,,,CLR,,,,,,,,VFR,,,,,,,,,,,,METAR,1789.0
KFBL 300955Z AUTO 32009G21KT 10SM BKN040 OVC047 04/M01 A2962 RMK AO2,KFBL,2023-04-30T09:55:00Z,44.33,-93.32,4.0,-1.0,320,9,21,10.0,29.619095,,,TRUE,TRUE,,,,,,,BKN,4000,OVC,4700,,,,,VFR,,,,,,,,,,,,METAR,318.0
KFBG 300955Z AUTO 00000KT 10SM OVC006 17/17 A2946 RMK AO2 RAE00DZB00E04RAB04E21 SLP977 P0001 T01700168 $,KFBG,2023-04-30T09:55:00Z,35.12,-78.92,17.0,16.8,0,0,,10.0,29.459646,997.7,,TRUE,TRUE,TRUE,,,,,,OVC,600,,,,,,,IFR,,,,,,0.01,,,,,,METAR,69.0
KF70 300955Z AUTO 17003KT 1/4SM FG OVC002 11/11 A2995 RMK AO2,KF70,2023-04-30T09:55:00Z,33.57,-117.13,11.0,11.0,170,3,,0.25,29.949802,,,TRUE,TRUE,,,,,,FG,OVC,200,,,,,,,LIFR,,,,,,,,,,,,METAR,406.0
KF46 300955Z AUTO 00000KT 10SM CLR 14/08 A2984 RMK AO2 T01420075,KF46,2023-04-30T09:55:00Z,32.93,-96.43,14.2,7.5,0,0,,10.0,29.840551,,,TRUE,TRUE,,,,,,,CLR,,,,,,,,VFR,,,,,,,,,,,,METAR,175.0
KF44 300955Z AUTO 00000KT 10SM CLR 07/07 A2985 RMK AO2,KF44,2023-04-30T09:55:00Z,32.17,-95.83,7.0,7.0,0,0,,10.0,29.84941,,,TRUE,TRUE,,,,,,,CLR,,,,,,,,VFR,,,,,,,,,,,,METAR,137.0
KF05 300955Z AUTO 28008KT 10SM CLR 11/07 A2989 RMK AO2 T01140070,KF05,2023-04-30T09:55:00Z,34.23,-99.28,11.4,7.0,280,8,,10.0,29.890747,,,TRUE,TRUE,,,,,,,CLR,,,,,,,,VFR,,,,,,,,,,,,METAR,384.0
KF00 300955Z AUTO 00000KT 10SM CLR 10/07 A2983 RMK AO2 T00990070,KF00,2023-04-30T09:55:00Z,33.62,-96.18,9.9,7.0,0,0,,10.0,29.828741,,,TRUE,TRUE,,,,,,,CLR,,,,,,,,VFR,,,,,,,,,,,,METAR,189.0
KEZZ 300955Z AUTO 32013G18KT 10SM CLR 08/00 A2978 RMK AO2 T00750004,KEZZ,2023-04-30T09:55:00Z,39.72,-94.28,7.5,0.4,320,13,18,10.0,29.778543,,,TRUE,TRUE,,,,,,,CLR,,,,,,,,VFR,,,,,,,,,,,,SPECI,317.0
KEZS 300955Z AUTO 28004KT 7SM -DZ SCT009 BKN013 OVC021 03/03 A2933 RMK AO2 T00250025,KEZS,2023-04-30T09:55:00Z,44.78,-88.57,2.5,2.5,280,4,,7.0,29.329725,,,TRUE,TRUE,,,,,,-DZ,SCT,900,BKN,1300,OVC,2100,,,MVFR,,,,,,,,,,,,METAR,247.0
KEZM 300955Z AUTO 26006KT 10SM VCTS BKN006 BKN012 OVC034 18/18 A2946 RMK AO2 LTG DSNT NW,KEZM,2023-04-30T09:55:00Z,32.22,-83.13,18.0,18.0,260,6,,10.0,29.459646,,,TRUE,TRUE,,,,,,VCTS,BKN,600,BKN,1200,OVC,3400,,,IFR,,,,,,,,,,,,METAR,86.0
KEZF 300955Z AUTO 03003KT 10SM OVC005 16/16 A2950 RMK AO2 T01610161,KEZF,2023-04-30T09:55:00Z,38.27,-77.45,16.1,16.1,30,3,,10.0,29.500984,,,TRUE,TRUE,,,,,,,OVC,500,,,,,,,IFR,,,,,,,,,,,,METAR,26.0
KEVU 300955Z AUTO 30010KT 10SM CLR 06/02 A2979 RMK AO2 T00610020,KEVU,2023-04-30T09:55:00Z,40.35,-94.92,6.1,2.0,300,10,,10.0,29.790354,,,TRUE,TRUE,,,,,,,CLR,,,,,,,,VFR,,,,,,,,,,,,METAR,351.0
KETB 300955Z AUTO 28011G16KT 10SM SCT019 OVC026 03/01 A2938 RMK AO2,KETB,2023-04-30T09:55:00Z,43.42,-88.13,3.0,1.0,280,11,16,10.0,29.379921,,,TRUE,TRUE,,,,,,,SCT,1900,OVC,2600,,,,,MVFR,,,,,,,,,,,,METAR,269.0
KESN 300955Z 10008KT 10SM 0VC008 15/14 A2961,KESN,2023-04-30T09:55:00Z,38.8,-76.07,15.0,14.0,100,8,,10.0,29.610237,,,,,,,,,,,,,,,,,,,,,,,,,,,,,,,SPECI,14.0
KERY 300955Z AUTO 20008KT 10SM OVC005 05/04 A2931 RMK AO2 T00470037 P0002,KERY,2023-04-30T09:55:00Z,46.3,-85.45,4.7,3.7,200,8,,10.0,29.309055,,,TRUE,TRUE,,,,,,,OVC,500,,,,,,,IFR,,,,,,0.02,,,,,,METAR,261.0
KERV 300955Z AUTO 30003KT 10SM CLR 07/04 A2999 RMK AO2 T00720035,KERV,2023-04-30T09:55:00Z,29.98,-99.08,7.2,3.5,300,3,,10.0,29.991142,,,TRUE,TRUE,,,,,,,CLR,,,,,,,,VFR,,,,,,,,,,,,METAR,483.0
KEQA 300955Z AUTO 32005KT 10SM CLR 07/01 A2987 RMK AO2,KEQA,2023-04-30T09:55:00Z,37.78,-96.82,7.0,1.0,320,5,,10.0,29.870079,,,TRUE,TRUE,,,,,,,CLR,,,,,,,,VFR,,,,,,,,,,,,METAR,422.0
KEOK 300955Z AUTO 27009KT 10SM FEW040 FEW047 FEW060 05/05 A2962 RMK A01,KEOK,2023-04-30T09:55:00Z,40.47,-91.42,5.0,5.0,270,9,,10.0,29.619095,,,TRUE,TRUE,,,,,,,FEW,4000,FEW,4700,FEW,6000,,,VFR,,,,,,,,,,,,SPECI,206.0
KEOE 300955Z AUTO 07005KT 7SM -RA SCT003 SCT008 BKN050 15/14 A2949 RMK AO2 P0004,KEOE,2023-04-30T09:55:00Z,34.32,-81.63,15.0,14.0,70,5,,7.0,29.489174,,,TRUE,TRUE,,,,,,-RA,SCT,300,SCT,800,BKN,5000,,,VFR,,,,,,0.04,,,,,,METAR,166.0
KENL 300955Z AUTO 00000KT 10SM CLR 06/06 A2964 RMK AO2 T00600060,KENL,2023-04-30T09:55:00Z,38.52,-89.1,6.0,6.0,0,0,,10.0,29.639763,,,TRUE,TRUE,,,,,,,CLR,,,,,,,,VFR,,,,,,,,,,,,METAR,161.0
KEND 300955Z AUTO 30007KT 10SM CLR 06/03 A2987 RMK AO2 SLP113 T00600032 $,KEND,2023-04-30T09:55:00Z,36.33,-97.92,6.0,3.2,300,7,,10.0,29.870079,1011.3,,TRUE,TRUE,TRUE,,,,,,CLR,,,,,,,,VFR,,,,,,,,,,,,METAR,392.0
KEMV 300955Z AUTO 14004KT 7SM -RA OVC006 19/19 A2953 RMK AO2 T01880187,KEMV,2023-04-30T09:55:00Z,36.68,-77.48,18.8,18.7,140,4,,7.0,29.530512,,,TRUE,TRUE,,,,,,-RA,OVC,600,,,,,,,IFR,,,,,,,,,,,,METAR,35.0
KEMM 300955Z AUTO 35012KT 10SM CLR 01/M03 A3016 RMK AO2 TSNO,KEMM,2023-04-30T09:55:00Z,41.82,-110.55,1.0,-3.0,350,12,,10.0,30.159449,,,TRUE,TRUE,,,TRUE,,,,CLR,,,,,,,,VFR,,,,,,,,,,,,METAR,2219.0
KELO 300955Z AUTO 34009G20KT 3SM -SN BKN014 OVC020 00/00 A2963 RMK AO2,KELO,2023-04-30T09:55:00Z,47.82,-91.83,0.0,0.0,340,9,20,3.0,29.630905,,,TRUE,TRUE,,,,,,-SN,BKN,1400,OVC,2000,,,,,MVFR,,,,,,,,,,,,METAR,438.0
KELK 300955Z AUTO 27005KT 10SM SCT140 08/06 A2991 RMK AO2 SLP416 T00810059 $,KELK,2023-04-30T09:55:00Z,35.43,-99.4,8.1,5.9,270,5,,10.0,29.911417,1041.6,,TRUE,TRUE,TRUE,,,,,,SCT,14000,,,,,,,VFR,,,,,,,,,,,,METAR,603.0
KELA 300955Z AUTO 25004KT 10SM CLR 13/10 A2994 RMK AO2 T01300102,KELA,2023-04-30T09:55:00Z,29.6,-96.32,13.0,10.2,250,4,,10.0,29.940945,,,TRUE,TRUE,,,,,,,CLR,,,,,,,,VFR,,,,,,,,,,,,SPECI,56.0
KEKX 300955Z AUTO 33005KT 10SM SCT035 09/05 A2956 RMK AO2 T00850048,KEKX,2023-04-30T09:55:00Z,37.68,-85.92,8.5,4.8,330,5,,10.0,29.56004,,,TRUE,TRUE,,,,,,,SCT,3500,,,,,,,VFR,,,,,,,,,,,,METAR,234.0
KEKS 300955Z AUTO 00000KT 10SM CLR 02/M02 A3011 RMK AO2,KEKS,2023-04-30T09:55:00Z,45.27,-111.65,2.0,-2.0,0,0,,10.0,30.109253,,,TRUE,TRUE,,,,,,,CLR,,,,,,,,VFR,,,,,,,,,,,,METAR,1636.0
KEKM 300955Z 28007KT 10SM FEW029 BKN055 05/05 A2947 RMK AO2 T00530049 $,KEKM,2023-04-30T09:55:00Z,41.72,-86.0,5.3,4.9,280,7,,10.0,29.471457,,,,TRUE,TRUE,,,,,,FEW,2900,BKN,5500,,,,,VFR,,,,,,,,,,,,METAR,236.0
KEKE 300955Z AUTO 30022G27KT 10SM FEW034 20/11 A2980 RMK A01,KEKE,2023-04-30T09:55:00Z,28.5,-91.58,20.0,11.0,300,22,27,10.0,29.799213,,,TRUE,TRUE,,,,,,,FEW,3400,,,,,,,VFR,,,,,,,,,,,,METAR,31.0
KEIK 300955Z AUTO 20004KT 10SM CLR 04/01 A3009 RMK AO2 T00440010,KEIK,2023-04-30T09:55:00Z,40.02,-105.05,4.4,1.0,200,4,,10.0,30.088583,,,TRUE,TRUE,,,,,,,CLR,,,,,,,,VFR,,,,,,,,,,,,METAR,1551.0
KEHA 300955Z AUTO 33007KT 10SM CLR 10/03 A3001 RMK AO2 T00960029,KEHA,2023-04-30T09:55:00Z,37.0,-101.87,9.6,2.9,330,7,,10.0,30.008858,,,TRUE,TRUE,,,,,,,CLR,,,,,,,,VFR,,,,,,,,,,,,SPECI,1103.0
KEGV 300955Z AUTO 35008KT 3SM UP BKN009 OVC024 00/00 A2934 RMK AO2 T00010001,KEGV,2023-04-30T09:55:00Z,45.93,-89.27,0.1,0.1,350,8,,3.0,29.338583,,,TRUE,TRUE,,,,,,UP,BKN,900,OVC,2400,,,,,IFR,,,,,,,,,,,,METAR,499.0
KEGT 300955Z AUTO 30006KT 10SM CLR 05/03 A2991 RMK AO2 T00500026,KEGT,2023-04-30T09:55:00Z,37.32,-97.38,5.0,2.6,300,6,,10.0,29.911417,,,TRUE,TRUE,,,,,,,CLR,,,,,,,,VFR,,,,,,,,,,,,SPECI,387.0
KEFT 300955Z AUTO 26010KT 10SM OVC070 04/01 A2945 RMK AO2 T00360011,KEFT,2023-04-30T09:55:00Z,42.62,-89.6,3.6,1.1,260,10,,10.0,29.450787,,,TRUE,TRUE,,,,,,,OVC,7000,,,,,,,VFR,,,,,,,,,,,,METAR,332.0
KEFK 300955Z AUTO 12006KT 10SM OVC065 07/04 A2984 RMK AO2 T00710042,KEFK,2023-04-30T09:55:00Z,44.88,-72.23,7.1,4.2,120,6,,10.0,29.840551,,,TRUE,TRUE,,,,,,,OVC,6500,,,,,,,VFR,,,,,,,,,,,,METAR,282.0
KEDW 300955Z AUTO 21005KT 10SM CLR 16/07 A2990 RMK AO2 SLP102 T01560066,KEDW,2023-04-30T09:55:00Z,34.9,-117.87,15.6,6.6,210,5,,10.0,29.899607,1010.2,,TRUE,TRUE,,,,,,,CLR,,,,,,,,VFR,,,,,,,,,,,,METAR,698.0
KEDU 300955Z AUTO 00000KT 10SM CLR 10/08 A2987 RMK AO1,KEDU,2023-04-30T09:55:00Z,38.53,-121.78,10.0,8.0,0,0,,10.0,29.870079,,,TRUE,TRUE,,,,,,,CLR,,,,,,,,VFR,,,,,,,,,,,,METAR,20.0
KEDN 300955Z AUTO 27005KT 10SM SCT011 BKN075 OVC100 14/14 A2960 RMK AO2 T01360136 PWINO,KEDN,2023-04-30T09:55:00Z,31.3,-85.9,13.6,13.6,270,5,,10.0,29.601377,,,TRUE,TRUE,,,,,TRUE,,SCT,1100,BKN,7500,OVC,10000,,,VFR,,,,,,,,,,,,SPECI,103.0
KEDJ 300955Z AUTO 30006KT 4SM BR 06/06 A2950 RMK A01 P0004,KEDJ,2023-04-30T09:55:00Z,40.37,-83.82,6.0,6.0,300,6,,4.0,29.500984,,,TRUE,TRUE,,,,,,BR,,,,,,,,,,,,,,,0.04,,,,,,METAR,341.0
KECU 300955Z AUTO 17006KT 10SM SCT049 16/M03 A3006 RMK AO2,KECU,2023-04-30T09:55:00Z,29.95,-100.17,16.0,-3.0,170,6,,10.0,30.059055,,,TRUE,TRUE,,,,,,,SCT,4900,,,,,,,VFR,,,,,,,,,,,,SPECI,725.0
KECS 300955Z AUTO 00000KT 10SM OVC110 00/M07 A3012 RMK AO2,KECS,2023-04-30T09:55:00Z,43.88,-104.32,0.0,-7.0,0,0,,10.0,30.121063,,,TRUE,TRUE,,,,,,,OVC,11000,,,,,,,VFR,,,,,,,,,,,,METAR,1273.0
KEBS 300955Z AUTO 31018KT 10SM CLR 03/03 A2967 RMK AO2,KEBS,2023-04-30T09:55:00Z,42.43,-93.87,3.0,3.0,310,18,,10.0,29.66929,,,TRUE,TRUE,,,,,,,CLR,,,,,,,,VFR,,,,,,,,,,,,SPECI,340.0
KEBG 300955Z AUTO 00000KT 10SM CLR 12/10 A2998 RMK AO2 T01150096,KEBG,2023-04-30T09:55:00Z,26.45,-98.13,11.5,9.6,0,0,,10.0,29.97933,,,TRUE,TRUE,,,,,,,CLR,,,,,,,,VFR,,,,,,,,,,,,SPECI,21.0
KEBA 300955Z AUTO 35004KT 10SM -RA BKN005 BKN013 OVC090 15/15 A2946 RMK AO2 P0008 T01530149,KEBA,2023-04-30T09:55:00Z,34.1,-82.82,15.3,14.9,350,4,,10.0,29.459646,,,TRUE,TRUE,,,,,,-RA,BKN,500,BKN,1300,OVC,9000,,,IFR,,,,,,0.08,,,,,,SPECI,180.0
KEAT 300955Z AUTO 30007KT 10SM FEW120 16/04 A2981 RMK AO2 SLP088 T01560044 $,KEAT,2023-04-30T09:55:00Z,47.4,-120.2,15.6,4.4,300,7,,10.0,29.811024,1008.8,,TRUE,TRUE,TRUE,,,,,,FEW,12000,,,,,,,VFR,,,,,,,,,,,,METAR,375.0
KE41 300955Z AUTO 17006KT 10SM CLR 12/M04 A3000 RMK AO2 T01191044,KE41,2023-04-30T09:55:00Z,31.2,-101.47,11.9,-4.4,170,6,,10.0,30.0,,,TRUE,TRUE,,,,,,,CLR,,,,,,,,VFR,,,,,,,,,,,,METAR,825.0
KE38 300955Z AUTO 23009KT 10SM CLR 13/M06 A3015 RMK AO2 T01281060,KE38,2023-04-30T09:55:00Z,30.38,-103.68,12.8,-6.0,230,9,,10.0,30.15059,,,TRUE,TRUE,,,,,,,CLR,,,,,,,,VFR,,,,,,,,,,,,METAR,1372.0
KE16 300955Z AUTO 33004KT 10SM CLR 11/09 A3000 RMK AO2 PWINO PNO,KE16,2023-04-30T09:55:00Z,37.08,-121.6,11.0,9.0,330,4,,10.0,30.0,,,TRUE,TRUE,,,,,TRUE,,CLR,,,,,,,,VFR,,,,,,,,,,,,METAR,84.0
KE11 300955Z AUTO 26009KT 10SM CLR 14/M04 A3000 RMK AO2 T01401042,KE11,2023-04-30T09:55:00Z,32.33,-102.53,14.0,-4.2,260,9,,10.0,30.0,,,TRUE,TRUE,,,,,,,CLR,,,,,,,,VFR,,,,,,,,,,,,METAR,966.0
KDZJ 300955Z AUTO 08003KT 2 1/2SM -RA BR OVC055 13/13 A2953 RMK AO2 VIS 3/4V5 P0002 T01290129,KDZJ,2023-04-30T09:55:00Z,34.85,-84.0,12.9,12.9,80,3,,2.5,29.530512,,,TRUE,TRUE,,,,,,-RA BR,OVC,5500,,,,,,,IFR,,,,,,0.02,,,,,,SPECI,578.0
KDZB 300955Z AUTO 00000KT 10SM CLR 09/07 A2996 RMK AO2 T00860065,KDZB,2023-04-30T09:55:00Z,30.53,-98.37,8.6,6.5,0,0,,10.0,29.958662,,,TRUE,TRUE,,,,,,,CLR,,,,,,,,VFR,,,,,,,,,,,,METAR,329.0
KDYT 300955Z AUTO 36013G20KT 10SM UP BKN021 BKN026 OVC030 03/01 A2958 RMK AO2,KDYT,2023-04-30T09:55:00Z,46.72,-92.03,3.0,1.0,360,13,20,10.0,29.58071,,,TRUE,TRUE,,,,,,UP,BKN,2100,BKN,2600,OVC,3000,,,MVFR,,,,,,,,,,,,METAR,185.0
KDYS 300955Z AUTO 20008KT 10SM CLR 14/00 A2990 RMK AO2 SLP096 T01430002,KDYS,2023-04-30T09:55:00Z,32.42,-99.83,14.3,0.2,200,8,,10.0,29.899607,1009.6,,TRUE,TRUE,,,,,,,CLR,,,,,,,,VFR,,,,,,,,,,,,METAR,544.0
KDYB 300955Z AUTO VRB03KT 7SM CLR 21/21 A2944 RMK AO2,KDYB,2023-04-30T09:55:00Z,33.07,-80.28,21.0,21.0,0,3,,7.0,29.438976,,,TRUE,TRUE,,,,,,,CLR,,,,,,,,VFR,,,,,,,,,,,,METAR,15.0
KDYA 300955Z AUTO 29006KT 10SM SCT007 SCT013 BKN050 A2965 RMK AO2,KDYA,2023-04-30T09:55:00Z,32.47,-87.95,,,290,6,,10.0,29.648623,,,TRUE,TRUE,,,,,,,SCT,700,SCT,1300,BKN,5000,,,VFR,,,,,,,,,,,,METAR,33.0
KDXX 300955Z AUTO 33015G22KT 10SM CLR 04/02 A2986 RMK AO2,KDXX,2023-04-30T09:55:00Z,44.98,-96.18,4.0,2.0,330,15,22,10.0,29.861221,,,TRUE,TRUE,,,,,,,CLR,,,,,,,,VFR,,,,,,,,,,,,METAR,327.0
KDWX 300955Z AUTO 08004KT 10SM CLR 01/M03 A3014 RMK AO2 T00111027,KDWX,2023-04-30T09:55:00Z,41.03,-107.5,1.1,-2.7,80,4,,10.0,30.138779,,,TRUE,TRUE,,,,,,,CLR,,,,,,,,VFR,,,,,,,,,,,,METAR,1974.0
KDWA 300955Z AUTO 00000KT 10SM CLR 10/08 A2988 RMK AO2,KDWA,2023-04-30T09:55:00Z,38.58,-121.85,10.0,8.0,0,0,,10.0,29.878937,,,TRUE,TRUE,,,,,,,CLR,,,,,,,,VFR,,,,,,,,,,,,METAR,28.0
KDVO 300955Z AUTO 00000KT 10SM CLR 08/08 A2996 RMK AO2,KDVO,2023-04-30T09:55:00Z,38.15,-122.55,8.0,8.0,0,0,,10.0,29.958662,,,TRUE,TRUE,,,,,,,CLR,,,,,,,,VFR,,,,,,,,,,,,METAR,1.0
KDUX 300955Z AUTO 27005KT 10SM CLR 09/02 A2997 RMK AO2 T00860015,KDUX,2023-04-30T09:55:00Z,35.85,-102.02,8.6,1.5,270,5,,10.0,29.970472,,,TRUE,TRUE,,,,,,,CLR,,,,,,,,VFR,,,,,,,,,,,,METAR,1129.0
KDUH 300955Z AUTO 24005KT 5SM RA SCT006 SCT010 OVC035 08/08 A2946 RMK AO2 T00750075,KDUH,2023-04-30T09:55:00Z,41.73,-83.65,7.5,7.5,240,5,,5.0,29.459646,,,TRUE,TRUE,,,,,,RA,SCT,600,SCT,1000,OVC,3500,,,MVFR,,,,,,,,,,,,METAR,203.0
KDUC 300955Z AUTO 30005KT 10SM CLR 10/07 A2988 RMK AO2 T01010067,KDUC,2023-04-30T09:55:00Z,34.47,-97.97,10.1,6.7,300,5,,10.0,29.878937,,,TRUE,TRUE,,,,,,,CLR,,,,,,,,VFR,,,,,,,,,,,,SPECI,339.0
KDUA 300955Z AUTO 00000KT 10SM CLR 12/05 A2985 RMK AO2,KDUA,2023-04-30T09:55:00Z,33.95,-96.4,12.0,5.0,0,0,,10.0,29.84941,,,TRUE,TRUE,,,,,,,CLR,,,,,,,,VFR,,,,,,,,,,,,METAR,209.0
KDTL 300955Z AUTO 33014KT 10SM CLR 01/M02 A2985 RMK AO2,KDTL,2023-04-30T09:55:00Z,46.82,-95.88,1.0,-2.0,330,14,,10.0,29.84941,,,TRUE,TRUE,,,,,,,CLR,,,,,,,,VFR,,,,,,,,,,,,METAR,425.0
KDTA 300955Z AUTO 00000KT 10SM CLR 11/M05 A3004 RMK AO1,KDTA,2023-04-30T09:55:00Z,39.38,-112.5,11.0,-5.0,0,0,,10.0,30.041338,,,TRUE,TRUE,,,,,,,CLR,,,,,,,,VFR,,,,,,,,,,,,METAR,1452.0
KDRM 300955Z AUTO 17004KT 3SM DZ BKN003 OVC007 06/05 A2936 RMK AO2 T00550053,KDRM,2023-04-30T09:55:00Z,46.0,-83.75,5.5,5.3,170,4,,3.0,29.359253,,,TRUE,TRUE,,,,,,DZ,BKN,300,OVC,700,,,,,LIFR,,,,,,,,,,,,METAR,201.0
KDRI 300955Z AUTO 27003KT 10SM CLR 10/10 A2988 RMK AO2 T01010101 $,KDRI,2023-04-30T09:55:00Z,30.83,-93.33,10.1,10.1,270,3,,10.0,29.878937,,,TRUE,TRUE,TRUE,,,,,,CLR,,,,,,,,VFR,,,,,,,,,,,,METAR,59.0
KDQH 300955Z AUTO 24007KT 10SM SCT031 SCT039 BKN110 19/18 A2951 RMK AO2 LTG DSNT N T01860180,KDQH,2023-04-30T09:55:00Z,31.48,-82.87,18.6,18.0,240,7,,10.0,29.509842,,,TRUE,TRUE,,,,,,,SCT,3100,SCT,3900,BKN,11000,,,VFR,,,,,,,,,,,,SPECI,76.0
KDNV 300955Z AUTO 26007KT 10SM CLR 05/04 A2955 RMK AO2 T00490041,KDNV,2023-04-30T09:55:00Z,40.2,-87.6,4.9,4.1,260,7,,10.0,29.551182,,,TRUE,TRUE,,,,,,,CLR,,,,,,,,VFR,,,,,,,,,,,,METAR,208.0
KDNN 300955Z AUTO 00000KT 10SM FEW026 BKN095 16/15 A2950 RMK AO2 T01560154,KDNN,2023-04-30T09:55:00Z,34.72,-84.87,15.6,15.4,0,0,,10.0,29.500984,,,TRUE,TRUE,,,,,,,FEW,2600,BKN,9500,,,,,VFR,,,,,,,,,,,,METAR,216.0
KDNA 300955Z AUTO 16005KT 10SM CLR 15/M07 A3005 RMK AO2,KDNA,2023-04-30T09:55:00Z,31.88,-106.7,15.0,-7.0,160,5,,10.0,30.050198,,,TRUE,TRUE,,,,,,,CLR,,,,,,,,VFR,,,,,,,,,,,,METAR,1254.0
KDLZ 300955Z AUTO 15007KT 5SM BR BKN005 BKN008 08/08 A2943 RMK AO2,KDLZ,2023-04-30T09:55:00Z,40.28,-83.12,8.0,8.0,150,7,,5.0,29.430119,,,TRUE,TRUE,,,,,,BR,BKN,500,BKN,800,,,,,IFR,,,,,,,,,,,,METAR,287.0
KDLP 300955Z AUTO 29007G20KT 200V330 10SM SCT019 BKN025 OVC038 18/14 A2970 RMK A01,KDLP,2023-04-30T09:55:00Z,29.12,-89.55,18.0,14.0,290,7,20,10.0,29.698818,,,TRUE,TRUE,,,,,,,SCT,1900,BKN,2500,OVC,3800,,,MVFR,,,,,,,,,,,,METAR,31.0
KDLO 300955Z AUTO 00000KT 10SM CLR 15/12 A2987 RMK AO2 T01460122,KDLO,2023-04-30T09:55:00Z,35.75,-119.23,14.6,12.2,0,0,,10.0,29.870079,,,TRUE,TRUE,,,,,,,CLR,,,,,,,,VFR,,,,,,,,,,,,METAR,97.0
KDLL 300955Z AUTO 31008KT 7SM -RA BKN009 OVC020 02/02 A2944 RMK AO2 T00220016,KDLL,2023-04-30T09:55:00Z,43.52,-89.77,2.2,1.6,310,8,,7.0,29.438976,,,TRUE,TRUE,,,,,,-RA,BKN,900,OVC,2000,,,,,IFR,,,,,,,,,,,,METAR,297.0
KDLH 300955Z 35014G25KT 2SM -SN BR OVC014 01/M01 A2956 RMK AO2 PK WND 33031/0902 TWR VIS 3 SLP024 P0000 T00111011 $,KDLH,2023-04-30T09:55:00Z,46.85,-92.2,1.1,-1.1,350,14,25,2.0,29.56004,1002.4,,,TRUE,TRUE,,,,,-SN BR,OVC,1400,,,,,,,IFR,,,,,,0.005,,,,,,METAR,434.0
KDLF 300955Z AUTO 02009KT 10SM CLR 10/03 A2995 RMK AO2 SLP135 T01010034 $,KDLF,2023-04-30T09:55:00Z,29.37,-100.78,10.1,3.4,20,9,,10.0,29.949802,1013.5,,TRUE,TRUE,TRUE,,,,,,CLR,,,,,,,,VFR,,,,,,,,,,,,METAR,328.0
KDKX 300955Z AUTO 00000KT 6SM BR FEW050 FEW055 14/13 A2949 RMK A01,KDKX,2023-04-30T09:55:00Z,35.97,-83.87,14.0,13.0,0,0,,6.0,29.489174,,,TRUE,TRUE,,,,,,BR,FEW,5000,FEW,5500,,,,,VFR,,,,,,,,,,,,METAR,253.0
KDKR 300955Z AUTO 00000KT 10SM CLR 07/08 A2988 RMK AO2,KDKR,2023-04-30T09:55:00Z,31.3,-95.4,7.0,8.0,0,0,,10.0,29.878937,,,TRUE,TRUE,,,,,,,CLR,,,,,,,,VFR,,,,,,,,,,,,METAR,105.0
KDEH 300955Z AUTO 32009G22KT 10SM FEW035 OVC048 04/M00 A2952 RMK AO2,KDEH,2023-04-30T09:55:00Z,43.27,-91.73,4.0,0.0,320,9,22,10.0,29.518702,,,TRUE,TRUE,,,,,,,FEW,3500,OVC,4800,,,,,VFR,,,,,,,,,,,,METAR,348.0
KDCY 300955Z AUTO 28007KT 10SM SCT010 06/06 A2960 RMK AO2 T00620060,KDCY,2023-04-30T09:55:00Z,38.7,-87.13,6.2,6.0,280,7,,10.0,29.601377,,,TRUE,TRUE,,,,,,,SCT,1000,,,,,,,VFR,,,,,,,,,,,,METAR,143.0
KDCM 300955Z AUTO 36005KT 7SM -RA SCT001 SCT011 BKN080 15/15 A2948 RMK AO2 LTG DSNT SE P0007,KDCM,2023-04-30T09:55:00Z,34.78,-81.2,15.0,15.0,360,5,,7.0,29.480314,,,TRUE,TRUE,,,,,,-RA,SCT,100,SCT,1100,BKN,8000,,,VFR,,,,,,0.07,,,,,,METAR,191.0
KDBN 300955Z AUTO 22006KT 7SM -RA BKN009 OVC019 20/18 A2949 RMK AO2 LTG DSNT NW,KDBN,2023-04-30T09:55:00Z,32.57,-82.98,20.0,18.0,220,6,,7.0,29.489174,,,TRUE,TRUE,,,,,,-RA,BKN,900,OVC,1900,,,,,IFR,,,,,,,,,,,,SPECI,90.0
KDAA 300955Z AUTO 00000KT 10SM OVC010 16/15 A2952 RMK AO2 DZB34E47 SLP999 P0000 T01550150 $,KDAA,2023-04-30T09:55:00Z,38.72,-77.17,15.5,15.0,0,0,,10.0,29.518702,999.9,,TRUE,TRUE,TRUE,,,,,,OVC,1000,,,,,,,MVFR,,,,,,0.005,,,,,,SPECI,17.0
KD95 300955Z AUTO 00000KT 2 1/2SM BR SCT005 SCT075 BKN120 03/03 A2942 RMK AO2 T00300030,KD95,2023-04-30T09:55:00Z,43.07,-83.27,3.0,3.0,0,0,,2.5,29.421259,,,TRUE,TRUE,,,,,,BR,SCT,500,SCT,7500,BKN,12000,,,IFR,,,,,,,,,,,,METAR,253.0
KD73 300955Z AUTO 07007KT 5SM +RA SCT006 BKN042 OVC070 15/ A2947 RMK AO2 LTG DSNT S P0013 T0151////,KD73,2023-04-30T09:55:00Z,33.78,-83.7,15.1,,70,7,,5.0,29.471457,,,TRUE,TRUE,,,,,,+RA,SCT,600,BKN,4200,OVC,7000,,,MVFR,,,,,,0.13,,,,,,SPECI,254.0
KD60 300955Z AUTO 32003KT 10SM CLR M04/M04 A3017 RMK AO2,KD60,2023-04-30T09:55:00Z,48.38,-102.9,-4.0,-4.0,320,3,,10.0,30.171259,,,TRUE,TRUE,,,,,,,CLR,,,,,,,,VFR,,,,,,,,,,,,METAR,682.0
KD57 300955Z AUTO 26004KT 10SM CLR M04/M07 A3012 RMK AO2,KD57,2023-04-30T09:55:00Z,46.82,-101.87,-4.0,-7.0,260,4,,10.0,30.121063,,,TRUE,TRUE,,,,,,,CLR,,,,,,,,VFR,,,,,,,,,,,,METAR,636.0
KD55 300955Z AUTO 35013KT 10SM CLR 01/01 A3004 RMK AO2,KD55,2023-04-30T09:55:00Z,48.75,-98.4,1.0,1.0,350,13,,10.0,30.041338,,,TRUE,TRUE,,,,,,,CLR,,,,,,,,VFR,,,,,,,,,,,,METAR,488.0
KD50 300955Z AUTO 30003KT 10SM CLR M03/M04 A3016 RMK AO2,KD50,2023-04-30T09:55:00Z,48.93,-103.3,-3.0,-4.0,300,3,,10.0,30.159449,,,TRUE,TRUE,,,,,,,CLR,,,,,,,,VFR,,,,,,,,,,,,METAR,591.0
KD39 300955Z AUTO 32015G21KT 10SM CLR 02/M02 A2975 RMK AO2 T00211022,KD39,2023-04-30T09:55:00Z,45.7,-94.93,2.1,-2.2,320,15,21,10.0,29.749016,,,TRUE,TRUE,,,,,,,CLR,,,,,,,,VFR,,,,,,,,,,,,METAR,378.0
KD25 300955Z AUTO 34011G17KT 2SM -SN OVC013 00/00 A2939 RMK AO2 T10051005,KD25,2023-04-30T09:55:00Z,46.12,-89.88,-0.5,-0.5,340,11,17,2.0,29.388779,,,TRUE,TRUE,,,,,,-SN,OVC,1300,,,,,,,IFR,,,,,,,,,,,,METAR,490.0
KCZT 300955Z AUTO 10SM CLR 15/02 A2997 RMK AO2,KCZT,2023-04-30T09:55:00Z,28.52,-99.82,15.0,2.0,,,,10.0,29.970472,,,TRUE,TRUE,,,,,,,CLR,,,,,,,,VFR,,,,,,,,,,,,SPECI,176.0
KCZL 300955Z AUTO 00000KT 10SM RA CLR 16/15 A2952 RMK AO2,KCZL,2023-04-30T09:55:00Z,34.47,-84.93,16.0,15.0,0,0,,10.0,29.518702,,,TRUE,TRUE,,,,,,RA,CLR,,,,,,,,VFR,,,,,,,,,,,,METAR,197.0
KCXU 300955Z AUTO 26005KT 10SM CLR 14/13 A2955 RMK AO1 T01400125,KCXU,2023-04-30T09:55:00Z,31.22,-84.23,14.0,12.5,260,5,,10.0,29.551182,,,TRUE,TRUE,,,,,,,CLR,,,,,,,,VFR,,,,,,,,,,,,SPECI,48.0
KCXP 300955Z AUTO 00000KT 10SM CLR 12/01 A3004 RMK AO2,KCXP,2023-04-30T09:55:00Z,39.18,-119.73,12.0,1.0,0,0,,10.0,30.041338,,,TRUE,TRUE,,,,,,,CLR,,,,,,,,VFR,,,,,,,,,,,,METAR,1431.0
KCXE 300955Z AUTO 5SM SCT085 OVC100 17/17 A2951 RMK AO1 T01650165,KCXE,2023-04-30T09:55:00Z,36.78,-78.5,16.5,16.5,,,,5.0,29.509842,,,TRUE,TRUE,,,,,,,SCT,8500,OVC,10000,,,,,MVFR,,,,,,,,,,,,METAR,154.0
KCWV 300955Z AUTO 00000KT 7SM -RA SCT008 BKN080 OVC100 20/19 A2948 RMK AO2 LTG DSNT NW T02030193,KCWV,2023-04-30T09:55:00Z,32.2,-81.87,20.3,19.3,0,0,,7.0,29.480314,,,TRUE,TRUE,,,,,,-RA,SCT,800,BKN,8000,OVC,10000,,,VFR,,,,,,,,,,,,SPECI,32.0
KCWN 300955Z AUTO 00000KT 10SM CLR 08/M02 A3006 RMK AO2 SLP030 T00821022 $,KCWN,2023-04-30T09:55:00Z,38.75,-104.85,8.2,-2.2,0,0,,10.0,30.059055,1003.0,,TRUE,TRUE,TRUE,,,,,,CLR,,,,,,,,VFR,,,,,,,,,,,,METAR,2040.0
KCWF 300955Z AUTO 28008KT 10SM CLR 14/10 A2988 RMK AO2 T01440103,KCWF,2023-04-30T09:55:00Z,30.22,-93.15,14.4,10.3,280,8,,10.0,29.878937,,,TRUE,TRUE,,,,,,,CLR,,,,,,,,VFR,,,,,,,,,,,,SPECI,4.0
KCWC 300955Z AUTO 30003KT 10SM CLR 13/06 A2989 RMK AO2 T01320061,KCWC,2023-04-30T09:55:00Z,33.85,-98.48,13.2,6.1,300,3,,10.0,29.890747,,,TRUE,TRUE,,,,,,,CLR,,,,,,,,VFR,,,,,,,,,,,,METAR,304.0
KCWA 300955Z AUTO 30011KT 7SM -SN BKN007 OVC011 00/00 A2937 RMK AO2,KCWA,2023-04-30T09:55:00Z,44.78,-89.67,0.0,0.0,300,11,,7.0,29.371063,,,TRUE,TRUE,,,,,,-SN,BKN,700,OVC,1100,,,,,IFR,,,,,,,,,,,,METAR,387.0
KCVX 300955Z AUTO 17003KT 10SM OVC034 06/03 A2934 RMK AO2 T00550032,KCVX,2023-04-30T09:55:00Z,45.3,-85.27,5.5,3.2,170,3,,10.0,29.338583,,,TRUE,TRUE,,,,,,,OVC,3400,,,,,,,VFR,,,,,,,,,,,,METAR,196.0
KCVS 300955Z AUTO 27006KT 10SM CLR 10/M06 A2999 RMK AO2 SLP112 T01021058 $,KCVS,2023-04-30T09:55:00Z,34.37,-103.32,10.2,-5.8,270,6,,10.0,29.991142,1011.2,,TRUE,TRUE,TRUE,,,,,,CLR,,,,,,,,VFR,,,,,,,,,,,,METAR,1305.0
KCVH 300955Z AUTO 00000KT 1/4SM FG OVC001 09/08 A2999 RMK A01,KCVH,2023-04-30T09:55:00Z,36.9,-121.42,9.0,8.0,0,0,,0.25,29.991142,,,TRUE,TRUE,,,,,,FG,OVC,100,,,,,,,LIFR,,,,,,,,,,,,METAR,68.0
KCVC 300955Z AUTO 31005KT 4SM +RA BKN004 BKN008 OVC041 15/14 A2947 RMK AO2 LTG DSNT S AND W,KCVC,2023-04-30T09:55:00Z,33.63,-83.85,15.0,14.0,310,5,,4.0,29.471457,,,TRUE,TRUE,,,,,,+RA,BKN,400,BKN,800,OVC,4100,,,LIFR,,,,,,,,,,,,METAR,240.0
KCUH 300955Z AUTO 32003KT 10SM CLR 08/06 A2986 RMK AO2 T00800058,KCUH,2023-04-30T09:55:00Z,35.95,-96.77,8.0,5.8,320,3,,10.0,29.861221,,,TRUE,TRUE,,,,,,,CLR,,,,,,,,VFR,,,,,,,,,,,,SPECI,274.0
KCTJ 300955Z AUTO 00000KT 5SM +RA OVC041 13/13 A2956 RMK AO2 LTG DSNT SE AND SW T01310130,KCTJ,2023-04-30T09:55:00Z,33.63,-85.15,13.1,13.0,0,0,,5.0,29.56004,,,TRUE,TRUE,,,,,,+RA,OVC,4100,,,,,,,MVFR,,,,,,,,,,,,METAR,351.0
KCSQ 300955Z AUTO 32017KT 10SM CLR 04/04 A2974 RMK AO2,KCSQ,2023-04-30T09:55:00Z,41.02,-94.37,4.0,4.0,320,17,,10.0,29.740158,,,TRUE,TRUE,,,,,,,CLR,,,,,,,,VFR,,,,,,,,,,,,METAR,394.0
KCRX 300955Z AUTO 30006KT 10SM CLR 14/09 A2963 RMK AO2,KCRX,2023-04-30T09:55:00Z,34.92,-88.6,14.0,9.0,300,6,,10.0,29.630905,,,TRUE,TRUE,,,,,,,CLR,,,,,,,,VFR,,,,,,,,,,,,METAR,128.0
KCQW 300955Z AUTO 35003KT 9SM -RA 17/17 A2947 RMK AO2,KCQW,2023-04-30T09:55:00Z,34.72,-79.95,17.0,17.0,350,3,,9.0,29.471457,,,TRUE,TRUE,,,,,,-RA,,,,,,,,,,,,,,,,,,,,,METAR,67.0
KCQM 300955Z AUTO 34009G14KT 3SM -SN BKN014 BKN020 BKN070 01/M01 A2968 RMK AO,KCQM,2023-04-30T09:55:00Z,47.82,-92.68,1.0,-1.0,340,9,14,3.0,29.681103,,,TRUE,,,,,,,-SN,BKN,1400,BKN,2000,BKN,7000,,,MVFR,,,,,,,,,,,,METAR,406.0
KCQF 300955Z AUTO 30003KT 280V340 10SM OVC012 16/13 A2969 RMK AO2,KCQF,2023-04-30T09:55:00Z,30.47,-87.88,16.0,13.0,300,3,,10.0,29.68996,,,TRUE,TRUE,,,,,,,OVC,1200,,,,,,,MVFR,,,,,,,,,,,,SPECI,21.0
KCQB 300955Z AUTO 27006KT 10SM CLR 08/06 A2988 RMK AO2 T00770061,KCQB,2023-04-30T09:55:00Z,35.72,-96.82,7.7,6.1,270,6,,10.0,29.878937,,,TRUE,TRUE,,,,,,,CLR,,,,,,,,VFR,,,,,,,,,,,,SPECI,298.0
KCPW 300955Z AUTO 30010G14KT 10SM CLR 01/M11 A3039 RMK AO2,KCPW,2023-04-30T09:55:00Z,37.45,-106.8,1.0,-11.0,300,10,14,10.0,30.389763,,,TRUE,TRUE,,,,,,,CLR,,,,,,,,VFR,,,,,,,,,,,,SPECI,3570.0
KCPT 300955Z AUTO 22003KT 10SM CLR 12/06 A2988 RMK A01,KCPT,2023-04-30T09:55:00Z,32.35,-97.43,12.0,6.0,220,3,,10.0,29.878937,,,TRUE,TRUE,,,,,,,CLR,,,,,,,,VFR,,,,,,,,,,,,METAR,260.0
KCPK 300955Z AUTO 12003KT 7SM SCT008 BKN013 OVC110 18/18 A2954 RMK AO2 LTG DSNT NE T01830175,KCPK,2023-04-30T09:55:00Z,36.67,-76.32,18.3,17.5,120,3,,7.0,29.53937,,,TRUE,TRUE,,,,,,,SCT,800,BKN,1300,OVC,11000,,,MVFR,,,,,,,,,,,,METAR,4.0
KCPF 300955Z AUTO 00000KT 7SM OVC038 11/10 A2953 RMK AO2,KCPF,2023-04-30T09:55:00Z,37.38,-83.27,11.0,10.0,0,0,,7.0,29.530512,,,TRUE,TRUE,,,,,,,OVC,3800,,,,,,,VFR,,,,,,,,,,,,METAR,382.0
KCOQ 300955Z AUTO 33018G22KT 1 3/4SM -SN SCT007 BKN014 OVC020 01/M01 A2958 RMK AO2 TSNO,KCOQ,2023-04-30T09:55:00Z,46.7,-92.5,1.0,-1.0,330,18,22,1.75,29.58071,,,TRUE,TRUE,,,TRUE,,,-SN,SCT,700,BKN,1400,OVC,2000,,,IFR,,,,,,,,,,,,METAR,390.0
KCOM 300955Z AUTO 26007KT 10SM CLR 14/02 A2995 RMK AO2 T01350017,KCOM,2023-04-30T09:55:00Z,31.83,-99.4,13.5,1.7,260,7,,10.0,29.949802,,,TRUE,TRUE,,,,,,,CLR,,,,,,,,VFR,,,,,,,,,,,,METAR,516.0
KCOF 300955Z AUTO 19010KT 10SM CLR 24/21 A2962 RMK AO2 SLP035 T02370212 $,KCOF,2023-04-30T09:55:00Z,28.23,-80.6,23.7,21.2,190,10,,10.0,29.619095,1003.5,,TRUE,TRUE,TRUE,,,,,,CLR,,,,,,,,VFR,,,,,,,,,,,,METAR,1.0
KCNK 300955Z AUTO 32008KT 10SM CLR 06/M02 A2994 RMK AO2 SLP133 T00611017,KCNK,2023-04-30T09:55:00Z,39.55,-97.65,6.1,-1.7,320,8,,10.0,29.940945,1013.3,,TRUE,TRUE,,,,,,,CLR,,,,,,,,VFR,,,,,,,,,,,,METAR,445.0
KCNI 300955Z AUTO 18004KT 3 1/2SM VCTSRA BR SCT004 SCT023 OVC070 13/13 A2952 RMK AO2 LTG DSNT SE P0010 T01350133,KCNI,2023-04-30T09:55:00Z,34.32,-84.42,13.5,13.3,180,4,,3.5,29.518702,,,TRUE,TRUE,,,,,,VCTSRA BR,SCT,400,SCT,2300,OVC,7000,,,MVFR,,,,,,0.1,,,,,,SPECI,371.0
KCNC 300955Z AUTO 31016G21KT 10SM OVC017 05/05 A2968 RMK AO2,KCNC,2023-04-30T09:55:00Z,41.02,-93.37,5.0,5.0,310,16,21,10.0,29.681103,,,TRUE,TRUE,,,,,,,OVC,1700,,,,,,,MVFR,,,,,,,,,,,,METAR,319.0
KCNB 300955Z AUTO 28014G18KT 10SM CLR 03/02 A2986 RMK AO2 T00300015,KCNB,2023-04-30T09:55:00Z,44.73,-96.27,3.0,1.5,280,14,18,10.0,29.861221,,,TRUE,TRUE,,,,,,,CLR,,,,,,,,VFR,,,,,,,,,,,,METAR,363.0
KCMY 300955Z AUTO 30010G15KT 6SM -RA BR SCT012 OVC021 02/02 A2946 RMK AO2 SLP985 P0001 T00240021 FZRANO $,KCMY,2023-04-30T09:55:00Z,43.97,-90.73,2.4,2.1,300,10,15,6.0,29.459646,998.5,,TRUE,TRUE,TRUE,,,TRUE,,-RA BR,SCT,1200,OVC,2100,,,,,MVFR,,,,,,0.01,,,,,,METAR,253.0
KCMR 300955Z AUTO 16008KT 10SM CLR 04/M05 A3019 RMK AO2,KCMR,2023-04-30T09:55:00Z,35.3,-112.2,4.0,-5.0,160,8,,10.0,30.188976,,,TRUE,TRUE,,,,,,,CLR,,,,,,,,VFR,,,,,,,,,,,,METAR,2039.0
KCMD 300955Z AUTO 33008G14KT 300V360 10SM BKN090 14/14 A2958 RMK AO2,KCMD,2023-04-30T09:55:00Z,34.27,-86.85,14.0,14.0,330,8,14,10.0,29.58071,,,TRUE,TRUE,,,,,,,BKN,9000,,,,,,,VFR,,,,,,,,,,,,METAR,294.0
KCMA 300955Z AUTO 20003KT 5SM BR OVC003 12/11 A2994 RMK AO2 SLP146 T01220111,KCMA,2023-04-30T09:55:00Z,34.22,-119.1,12.2,11.1,200,3,,5.0,29.940945,1014.6,,TRUE,TRUE,,,,,,BR,OVC,300,,,,,,,LIFR,,,,,,,,,,,,METAR,20.0
KCLW 300955Z AUTO 27009G22KT 5SM RA SCT012 BKN027 OVC050 21/19 A2965 RMK AO2 P0003,KCLW,2023-04-30T09:55:00Z,27.98,-82.75,21.0,19.0,270,9,22,5.0,29.648623,,,TRUE,TRUE,,,,,,RA,SCT,1200,BKN,2700,OVC,5000,,,MVFR,,,,,,0.03,,,,,,METAR,21.0
KCLS 300955Z AUTO 00000KT 10SM FEW065 08/08 A2996 RMK AO2,KCLS,2023-04-30T09:55:00Z,46.68,-122.98,8.0,8.0,0,0,,10.0,29.958662,,,TRUE,TRUE,,,,,,,FEW,6500,,,,,,,VFR,,,,,,,,,,,,METAR,52.0
KCLI 300955Z AUTO 29008KT 10SM OVC011 02/01 A2935 RMK AO2 T00180009,KCLI,2023-04-30T09:55:00Z,44.62,-88.73,1.8,0.9,290,8,,10.0,29.350393,,,TRUE,TRUE,,,,,,,OVC,1100,,,,,,,MVFR,,,,,,,,,,,,METAR,248.0
KCKZ 300955Z AUTO 06009KT 1 1/4SM BR OVC002 09/09 A2968 RMK AO2,KCKZ,2023-04-30T09:55:00Z,40.38,-75.28,9.0,9.0,60,9,,1.25,29.681103,,,TRUE,TRUE,,,,,,BR,OVC,200,,,,,,,LIFR,,,,,,,,,,,,METAR,160.0
KCKP 300955Z AUTO 32012G18KT 10SM CLR 03/02 A2980 RMK AO2 T00320020,KCKP,2023-04-30T09:55:00Z,42.73,-95.55,3.2,2.0,320,12,18,10.0,29.799213,,,TRUE,TRUE,,,,,,,CLR,,,,,,,,VFR,,,,,,,,,,,,METAR,369.0
KCKN 300955Z AUTO 34016G20KT 10SM CLR 01/M48 A2995 RMK AO2,KCKN,2023-04-30T09:55:00Z,47.85,-96.62,1.0,-48.0,340,16,20,10.0,29.949802,,,TRUE,TRUE,,,,,,,CLR,,,,,,,,VFR,,,,,,,,,,,,SPECI,272.0
KCKM 300955Z AUTO 30014KT 10SM SCT031 BKN037 OVC070 14/11 A2971 RMK A01,KCKM,2023-04-30T09:55:00Z,34.3,-90.52,14.0,11.0,300,14,,10.0,29.71063,,,TRUE,TRUE,,,,,,,SCT,3100,BKN,3700,OVC,7000,,,VFR,,,,,,,,,,,,METAR,52.0
KCKI 300955Z AUTO 14003KT 7SM SCT005 BKN012 18/18 A2946 RMK AO2,KCKI,2023-04-30T09:55:00Z,33.72,-79.85,18.0,18.0,140,3,,7.0,29.459646,,,TRUE,TRUE,,,,,,,SCT,500,BKN,1200,,,,,MVFR,,,,,,,,,,,,METAR,19.0
KCKF 300955Z AUTO 26013KT 10SM SCT012 BKN090 BKN120 17/16 A2949 RMK AO2 LTG DSNT NE T01740155,KCKF,2023-04-30T09:55:00Z,31.98,-83.77,17.4,15.5,260,13,,10.0,29.489174,,,TRUE,TRUE,,,,,,,SCT,1200,BKN,9000,BKN,12000,,,VFR,,,,,,,,,,,,SPECI,92.0
KCJR 300955Z AUTO 00000KT 7SM OVC005 16/15 A2955 RMK AO2 T01600151,KCJR,2023-04-30T09:55:00Z,38.53,-77.87,16.0,15.1,0,0,,7.0,29.551182,,,TRUE,TRUE,,,,,,,OVC,500,,,,,,,IFR,,,,,,,,,,,,METAR,90.0
KCIR 300955Z AUTO 36005KT 10SM CLR 09/06 A2967 RMK AO2 T00860056,KCIR,2023-04-30T09:55:00Z,37.07,-89.22,8.6,5.6,360,5,,10.0,29.66929,,,TRUE,TRUE,,,,,,,CLR,,,,,,,,VFR,,,,,,,,,,,,METAR,96.0
KCIN 300955Z AUTO 32016G23KT 10SM CLR 04/04 A2975 RMK AO2,KCIN,2023-04-30T09:55:00Z,42.03,-94.78,4.0,4.0,320,16,23,10.0,29.749016,,,TRUE,TRUE,,,,,,,CLR,,,,,,,,VFR,,,,,,,,,,,,METAR,365.0
KCIC 300955Z AUTO 15006KT 10SM CLR 18/09 A2985 RMK AO1,KCIC,2023-04-30T09:55:00Z,39.78,-121.85,18.0,9.0,150,6,,10.0,29.84941,,,TRUE,TRUE,,,,,,,CLR,,,,,,,,VFR,,,,,,,,,,,,METAR,72.0
KCHK 300955Z AUTO 30005KT 10SM CLR 08/06 A2985 RMK AO2 T00800056,KCHK,2023-04-30T09:55:00Z,35.1,-97.97,8.0,5.6,300,5,,10.0,29.84941,,,TRUE,TRUE,,,,,,,CLR,,,,,,,,VFR,,,,,,,,,,,,SPECI,346.0
KCGF 300955Z AUTO 17004KT 10SM SCT030 OVC055 10/09 A2947 RMK AO2 P0001 T01020091,KCGF,2023-04-30T09:55:00Z,41.57,-81.47,10.2,9.1,170,4,,10.0,29.471457,,,TRUE,TRUE,,,,,,,SCT,3000,OVC,5500,,,,,VFR,,,,,,0.01,,,,,,METAR,265.0
KCGC 300955Z AUTO 27021G27KT 10SM -RA SCT008 BKN018 OVC042 21/19 A2962 RMK AO2 LTG DSNT SE,KCGC,2023-04-30T09:55:00Z,28.87,-82.57,21.0,19.0,270,21,27,10.0,29.619095,,,TRUE,TRUE,,,,,,-RA,SCT,800,BKN,1800,OVC,4200,,,MVFR,,,,,,,,,,,,METAR,3.0
KCFS 300955Z AUTO 00000KT 3/4SM BR BKN004 BKN007 04/03 A2942 RMK AO2 T00370026,KCFS,2023-04-30T09:55:00Z,43.47,-83.45,3.7,2.6,0,0,,0.75,29.421259,,,TRUE,TRUE,,,,,,BR,BKN,400,BKN,700,,,,,LIFR,,,,,,,,,,,,METAR,214.0
KCFO 300955Z AUTO 00000KT 10SM CLR 06/M01 A3010 RMK AO2 T00631010,KCFO,2023-04-30T09:55:00Z,39.78,-104.55,6.3,-1.0,0,0,,10.0,30.100393,,,TRUE,TRUE,,,,,,,CLR,,,,,,,,VFR,,,,,,,,,,,,METAR,1672.0
KCFJ 300955Z AUTO 24008KT 10SM BKN009 OVC060 04/02 A2954 RMK AO2 T00440020,KCFJ,2023-04-30T09:55:00Z,39.98,-86.92,4.4,2.0,240,8,,10.0,29.53937,,,TRUE,TRUE,,,,,,,BKN,900,OVC,6000,,,,,IFR,,,,,,,,,,,,METAR,243.0
KCFE 300955Z AUTO 33018KT 10SM BKN037 BKN048 OVC060 04/M02 A2966 RMK AO2,KCFE,2023-04-30T09:55:00Z,45.17,-93.85,4.0,-2.0,330,18,,10.0,29.660433,,,TRUE,TRUE,,,,,,,BKN,3700,BKN,4800,OVC,6000,,,VFR,,,,,,,,,,,,METAR,292.0
KCFD 300955Z AUTO 23005KT 10SM CLR 11/08 A2992 RMK AO2 T01120081,KCFD,2023-04-30T09:55:00Z,30.72,-96.33,11.2,8.1,230,5,,10.0,29.920275,,,TRUE,TRUE,,,,,,,CLR,,,,,,,,VFR,,,,,,,,,,,,METAR,106.0
KCEY 300955Z AUTO 30011KT 10SM BKN050 08/07 A2965 RMK A01,KCEY,2023-04-30T09:55:00Z,36.67,-88.37,8.0,7.0,300,11,,10.0,29.648623,,,TRUE,TRUE,,,,,,,BKN,5000,,,,,,,VFR,,,,,,,,,,,,METAR,172.0
KCEF 300955Z AUTO 03007KT 8SM OVC006 09/09 A2976 RMK AO2 DZB33E42 SLP084 P0000 T00880086,KCEF,2023-04-30T09:55:00Z,42.2,-72.52,8.8,8.6,30,7,,8.0,29.760826,1008.4,,TRUE,TRUE,,,,,,,OVC,600,,,,,,,IFR,,,,,,0.005,,,,,,SPECI,72.0
KCDN 300955Z AUTO 00000KT 9SM SCT003 BKN013 OVC018 17/17 A2946 RMK AO2,KCDN,2023-04-30T09:55:00Z,34.28,-80.57,17.0,17.0,0,0,,9.0,29.459646,,,TRUE,TRUE,,,,,,,SCT,300,BKN,1300,OVC,1800,,,MVFR,,,,,,,,,,,,METAR,90.0
KCDI 300955Z AUTO 00000KT 10SM -DZ BKN050 OVC080 10/09 A2948 RMK AO2 T00970093,KCDI,2023-04-30T09:55:00Z,39.97,-81.58,9.7,9.3,0,0,,10.0,29.480314,,,TRUE,TRUE,,,,,,-DZ,BKN,5000,OVC,8000,,,,,VFR,,,,,,,,,,,,METAR,241.0
KCDH 300955Z AUTO 00000KT 10SM CLR 10/10 A2980 RMK AO2,KCDH,2023-04-30T09:55:00Z,33.62,-92.77,10.0,10.0,0,0,,10.0,29.799213,,,TRUE,TRUE,,,,,,,CLR,,,,,,,,VFR,,,,,,,,,,,,SPECI,38.0
KCDD 300955Z AUTO 35007G16KT 2 1/2SM BKN011 BKN017 M01/M01 A2973 RMK AO2 P,KCDD,2023-04-30T09:55:00Z,48.27,-92.48,-1.0,-1.0,350,7,16,2.5,29.731298,,,TRUE,TRUE,,,,,,,BKN,1100,BKN,1700,,,,,IFR,,,,,,,,,,,,METAR,344.0
KCDA 300955Z AUTO 10008KT 10SM 08/03 A2986 RMK AO2 T00790030,KCDA,2023-04-30T09:55:00Z,44.57,-72.02,7.9,3.0,100,8,,10.0,29.861221,,,TRUE,TRUE,,,,,,,,,,,,,,,,,,,,,,,,,,,METAR,357.0
KCCY 300955Z AUTO 31015KT 10SM OVC095 04/03 A2958 RMK AO2,KCCY,2023-04-30T09:55:00Z,43.07,-92.62,4.0,3.0,310,15,,10.0,29.58071,,,TRUE,TRUE,,,,,,,OVC,9500,,,,,,,VFR,,,,,,,,,,,,METAR,340.0
KCCU 300955Z AUTO 27010KT 10SM CLR 01/M07 A3033 RMK AO2,KCCU,2023-04-30T09:55:00Z,39.48,-106.15,1.0,-7.0,270,10,,10.0,30.33071,,,TRUE,TRUE,,,,,,,CLR,,,,,,,,VFR,,,,,,,,,,,,METAR,3672.0
KCCO 300955Z AUTO 29009G15KT 5SM VCTSRA SCT006 BKN031 OVC060 14/14 A2952 RMK AO2 LTG DSNT ALQS T01410136,KCCO,2023-04-30T09:55:00Z,33.32,-84.77,14.1,13.6,290,9,15,5.0,29.518702,,,TRUE,TRUE,,,,,,VCTSRA,SCT,600,BKN,3100,OVC,6000,,,MVFR,,,,,,,,,,,,SPECI,290.0
KCCA 300955Z AUTO 00000KT 10SM CLR 06/06 A2978 RMK AO2,KCCA,2023-04-30T09:55:00Z,35.6,-92.45,6.0,6.0,0,0,,10.0,29.778543,,,TRUE,TRUE,,,,,,,CLR,,,,,,,,VFR,,,,,,,,,,,,METAR,152.0
KCBM 300955Z AUTO 27007KT 10SM CLR M A2962 RMK AO2 SLPNO ALSTG ESTMD $,KCBM,2023-04-30T09:55:00Z,33.65,-88.45,,,270,7,,10.0,29.619095,,,TRUE,TRUE,TRUE,,,,,,CLR,,,,,,,,VFR,,,,,,,,,,,,METAR,59.0
KCBK 300955Z AUTO 35007KT 10SM OVC100 09/M02 A3004 RMK AO2 T00881019,KCBK,2023-04-30T09:55:00Z,39.43,-101.05,8.8,-1.9,350,7,,10.0,30.041338,,,TRUE,TRUE,,,,,,,OVC,10000,,,,,,,VFR,,,,,,,,,,,,METAR,970.0
KCBG 300955Z AUTO 33011G24KT 7SM RA SCT021 BKN025 OVC033 03/M04 A2965 RMK AO2,KCBG,2023-04-30T09:55:00Z,45.57,-93.27,3.0,-4.0,330,11,24,7.0,29.648623,,,TRUE,TRUE,,,,,,RA,SCT,2100,BKN,2500,OVC,3300,,,MVFR,,,,,,,,,,,,METAR,285.0
KCBF 300955Z AUTO 32015G21KT 10SM CLR 06/M00 A2980 RMK AO2,KCBF,2023-04-30T09:55:00Z,41.27,-95.77,6.0,0.0,320,15,21,10.0,29.799213,,,TRUE,TRUE,,,,,,,CLR,,,,,,,,VFR,,,,,,,,,,,,METAR,379.0
KCAV 300955Z AUTO 32017KT 10SM CLR 03/00 A2967 RMK A01,KCAV,2023-04-30T09:55:00Z,42.75,-93.77,3.0,0.0,320,17,,10.0,29.66929,,,TRUE,TRUE,,,,,,,CLR,,,,,,,,VFR,,,,,,,,,,,,METAR,352.0
KCAO 300955Z AUTO 34004KT 10SM CLR 08/M01 A3000 RMK AO2 SLP115 T00781006,KCAO,2023-04-30T09:55:00Z,36.45,-103.15,7.8,-0.6,340,4,,10.0,30.0,1011.5,,TRUE,TRUE,,,,,,,CLR,,,,,,,,VFR,,,,,,,,,,,,METAR,1517.0
KCAD 300955Z AUTO 19008KT 10SM OVC009 03/02 A2934 RMK AO2 T00310020,KCAD,2023-04-30T09:55:00Z,44.27,-85.42,3.1,2.0,190,8,,10.0,29.338583,,,TRUE,TRUE,,,,,,,OVC,900,,,,,,,IFR,,,,,,,,,,,,METAR,397.0
KC99 300955Z AUTO 30011G18KT 270V340 10SM CLR 00/M09 A3025 RMK AO2,KC99,2023-04-30T09:55:00Z,39.87,-105.55,0.0,-9.0,300,11,18,10.0,30.250984,,,TRUE,TRUE,,,,,,,CLR,,,,,,,,VFR,,,,,,,,,,,,SPECI,3334.0
KC83 300955Z AUTO 24025G32KT 10SM CLR 12/07 A2989 RMK AO2,KC83,2023-04-30T09:55:00Z,37.83,-121.62,12.0,7.0,240,25,32,10.0,29.890747,,,TRUE,TRUE,,,,,,,CLR,,,,,,,,VFR,,,,,,,,,,,,METAR,16.0
KC75 300955Z AUTO 26005KT 10SM SCT070 OVC090 06/04 A2953 RMK AO2 T00560035,KC75,2023-04-30T09:55:00Z,41.02,-89.38,5.6,3.5,260,5,,10.0,29.530512,,,TRUE,TRUE,,,,,,,SCT,7000,OVC,9000,,,,,VFR,,,,,,,,,,,,METAR,166.0
KC65 300955Z AUTO 24006KT 10SM OVC060 06/02 A2947 RMK A01,KC65,2023-04-30T09:55:00Z,41.37,-86.3,6.0,2.0,240,6,,10.0,29.471457,,,TRUE,TRUE,,,,,,,OVC,6000,,,,,,,VFR,,,,,,,,,,,,METAR,241.0
KC62 300955Z AUTO 27008KT 10SM SCT060 SCT080 OVC100 06/03 A2946 RMK AO2 T00580040,KC62,2023-04-30T09:55:00Z,41.47,-85.25,5.8,4.0,270,8,,10.0,29.459646,,,TRUE,TRUE,,,,,,,SCT,6000,SCT,8000,OVC,10000,,,VFR,,,,,,,,,,,,METAR,304.0
KC35 300955Z AUTO 29006KT 10SM BKN011 BKN027 OVC034 02/02 A2945 RMK AO2 P0003 T00180018 PWINO,KC35,2023-04-30T09:55:00Z,43.53,-89.98,1.8,1.8,290,6,,10.0,29.450787,,,TRUE,TRUE,,,,,TRUE,,BKN,1100,BKN,2700,OVC,3400,,,MVFR,,,,,,0.03,,,,,,METAR,272.0
KC29 300955Z AUTO 27007KT 10SM SCT039 BKN050 OVC060 05/03 A2944 RMK AO1 T00470025,KC29,2023-04-30T09:55:00Z,43.12,-89.53,4.7,2.5,270,7,,10.0,29.438976,,,TRUE,TRUE,,,,,,,SCT,3900,BKN,5000,OVC,6000,,,VFR,,,,,,,,,,,,METAR,282.0
KC09 300955Z AUTO 26006KT 10SM CLR 02/02 A2950 RMK AO2 T00200015,KC09,2023-04-30T09:55:00Z,41.43,-88.42,2.0,1.5,260,6,,10.0,29.500984,,,TRUE,TRUE,,,,,,,CLR,,,,,,,,VFR,,,,,,,,,,,,METAR,179.0
KBYY 300955Z AUTO 00000KT 10SM CLR 10/10 A2994 RMK AO2 T01040095,KBYY,2023-04-30T09:55:00Z,28.97,-95.87,10.4,9.5,0,0,,10.0,29.940945,,,TRUE,TRUE,,,,,,,CLR,,,,,,,,VFR,,,,,,,,,,,,METAR,12.0
KBYS 300955Z AUTO 01004KT 10SM CLR 21/02 A2987 RMK AO2 SLP087 T02130015 $,KBYS,2023-04-30T09:55:00Z,35.28,-116.63,21.3,1.5,10,4,,10.0,29.870079,1008.7,,TRUE,TRUE,TRUE,,,,,,CLR,,,,,,,,VFR,,,,,,,,,,,,METAR,717.0
KBYL 300955Z AUTO 00000KT 5SM FEW035 BKN041 OVC049 11/11 A2953 RMK AO1,KBYL,2023-04-30T09:55:00Z,36.8,-84.2,11.0,11.0,0,0,,5.0,29.530512,,,TRUE,TRUE,,,,,,,FEW,3500,BKN,4100,OVC,4900,,,MVFR,,,,,,,,,,,,METAR,355.0
KBXK 300955Z AUTO 02003KT 10SM CLR 17/M10 A2982 RMK A01,KBXK,2023-04-30T09:55:00Z,33.42,-112.68,17.0,-10.0,20,3,,10.0,29.819881,,,TRUE,TRUE,,,,,,,CLR,,,,,,,,VFR,,,,,,,,,,,,METAR,303.0
KBXA 300955Z AUTO 29005KT 10SM SCT046 16/14 A2978 RMK AO2 T01550135,KBXA,2023-04-30T09:55:00Z,30.82,-89.87,15.5,13.5,290,5,,10.0,29.778543,,,TRUE,TRUE,,,,,,,SCT,4600,,,,,,,VFR,,,,,,,,,,,,METAR,35.0
KBWW 300955Z AUTO 30004KT 10SM CLR M00/M05 A3013 RMK AO2,KBWW,2023-04-30T09:55:00Z,46.17,-103.3,0.0,-5.0,300,4,,10.0,30.129921,,,TRUE,TRUE,,,,,,,CLR,,,,,,,,VFR,,,,,,,,,,,,METAR,911.0
KBWP 300955Z AUTO 33017G22KT 10SM CLR 02/02 A2989 RMK AO2,KBWP,2023-04-30T09:55:00Z,46.25,-96.62,2.0,2.0,330,17,22,10.0,29.890747,,,TRUE,TRUE,,,,,,,CLR,,,,,,,,VFR,,,,,,,,,,,,METAR,294.0
KBVU 300955Z AUTO 34006KT 10SM CLR 20/M06 A2986 RMK AO2,KBVU,2023-04-30T09:55:00Z,35.95,-114.87,20.0,-6.0,340,6,,10.0,29.861221,,,TRUE,TRUE,,,,,,,CLR,,,,,,,,VFR,,,,,,,,,,,,METAR,654.0
KBVS 300955Z AUTO 21004KT 10SM SCT050 08/08 A2990 RMK A01,KBVS,2023-04-30T09:55:00Z,48.47,-122.42,8.0,8.0,210,4,,10.0,29.899607,,,TRUE,TRUE,,,,,,,SCT,5000,,,,,,,VFR,,,,,,,,,,,,METAR,31.0
KBVN 300955Z AUTO 33005KT 10SM CLR 01/M02 A2994 RMK AO2 T00051021,KBVN,2023-04-30T09:55:00Z,41.73,-98.05,0.5,-2.1,330,5,,10.0,29.940945,,,TRUE,TRUE,,,,,,,CLR,,,,,,,,VFR,,,,,,,,,,,,METAR,547.0
KBVI 300955Z AUTO 14004KT 10SM RA BKN060 OVC085 12/09 A2948 RMK AO2 T01180093,KBVI,2023-04-30T09:55:00Z,40.77,-80.37,11.8,9.3,140,4,,10.0,29.480314,,,TRUE,TRUE,,,,,,RA,BKN,6000,OVC,8500,,,,,VFR,,,,,,,,,,,,METAR,387.0
KBUU 300955Z AUTO 25007G14KT 10SM SCT029 OVC075 05/02 A2943 RMK AO2 T00460022 PWINO,KBUU,2023-04-30T09:55:00Z,42.68,-88.3,4.6,2.2,250,7,14,10.0,29.430119,,,TRUE,TRUE,,,,,TRUE,,SCT,2900,OVC,7500,,,,,VFR,,,,,,,,,,,,METAR,238.0
KBTN 300955Z AUTO 34012G18KT 10SM CLR 02/02 A2994 RMK AO2,KBTN,2023-04-30T09:55:00Z,45.82,-97.75,2.0,2.0,340,12,18,10.0,29.940945,,,TRUE,TRUE,,,,,,,CLR,,,,,,,,VFR,,,,,,,,,,,,METAR,400.0
KBTA 300955Z AUTO 30009KT 10SM CLR 04/01 A2984 RMK AO2 T00400005,KBTA,2023-04-30T09:55:00Z,41.42,-96.12,4.0,0.5,300,9,,10.0,29.840551,,,TRUE,TRUE,,,,,,,CLR,,,,,,,,VFR,,,,,,,,,,,,METAR,400.0
KBRY 300955Z AUTO 32007KT 10SM SCT034 11/09 A2952 RMK AO2 T01080086,KBRY,2023-04-30T09:55:00Z,37.82,-85.5,10.8,8.6,320,7,,10.0,29.518702,,,TRUE,TRUE,,,,,,,SCT,3400,,,,,,,VFR,,,,,,,,,,,,METAR,192.0
KBRG 300955Z AUTO 00000KT 10SM CLR 08/M07 A3007 RMK AO2 T00841072,KBRG,2023-04-30T09:55:00Z,34.65,-106.83,8.4,-7.2,0,0,,10.0,30.070866,,,TRUE,TRUE,,,,,,,CLR,,,,,,,,VFR,,,,,,,,,,,,METAR,1585.0
KBQX 300955Z AUTO 28006KT 10SM FEW037 FEW045 BKN060 21/09 A2995 RMK A01,KBQX,2023-04-30T09:55:00Z,28.5,-95.72,21.0,9.0,280,6,,10.0,29.949802,,,TRUE,TRUE,,,,,,,FEW,3700,FEW,4500,BKN,6000,,,VFR,,,,,,,,,,,,METAR,34.0
KBQP 300955Z AUTO 27005KT 10SM CLR 11/11 A2979 RMK AO2 T01100107,KBQP,2023-04-30T09:55:00Z,32.75,-91.88,11.0,10.7,270,5,,10.0,29.790354,,,TRUE,TRUE,,,,,,,CLR,,,,,,,,VFR,,,,,,,,,,,,SPECI,50.0
KBQK 300955Z AUTO 23007KT 3 1/2SM +RA BR SCT010 BKN015 OVC037 20/19 A2949 RMK AO2 P0019 T01990188,KBQK,2023-04-30T09:55:00Z,31.25,-81.47,19.9,18.8,230,7,,3.5,29.489174,,,TRUE,TRUE,,,,,,+RA BR,SCT,1000,BKN,1500,OVC,3700,,,MVFR,,,,,,0.19,,,,,,METAR,7.0
KBPG 300955Z AUTO 18009KT 10SM CLR 13/M05 A2998 RMK AO2 T01261048,KBPG,2023-04-30T09:55:00Z,32.22,-101.52,12.6,-4.8,180,9,,10.0,29.97933,,,TRUE,TRUE,,,,,,,CLR,,,,,,,,VFR,,,,,,,,,,,,METAR,782.0
KBPC 300955Z AUTO 00000KT 10SM CLR 08/04 A2994 RMK AO2,KBPC,2023-04-30T09:55:00Z,35.88,-101.03,8.0,4.0,0,0,,10.0,29.940945,,,TRUE,TRUE,,,,,,,CLR,,,,,,,,VFR,,,,,,,,,,,,METAR,844.0
KBOW 300955Z AUTO 23013KT 1 3/4SM VCTS RA SCT002 OVC013 22/21 A2964 RMK AO2,KBOW,2023-04-30T09:55:00Z,27.93,-81.77,22.0,21.0,230,13,,1.75,29.639763,,,TRUE,TRUE,,,,,,VCTS RA,SCT,200,OVC,1300,,,,,IFR,,,,,,,,,,,,METAR,38.0
KBNW 300955Z AUTO 31014KT 10SM BKN065 04/03 A2968 RMK AO2,KBNW,2023-04-30T09:55:00Z,42.03,-93.83,4.0,3.0,310,14,,10.0,29.681103,,,TRUE,TRUE,,,,,,,BKN,6500,,,,,,,VFR,,,,,,,,,,,,METAR,350.0
KBNL 300955Z AUTO 26005KT 10SM BKN006 BKN009 OVC020 19/19 A2945 RMK AO2,KBNL,2023-04-30T09:55:00Z,33.25,-81.38,19.0,19.0,260,5,,10.0,29.450787,,,TRUE,TRUE,,,,,,,BKN,600,BKN,900,OVC,2000,,,IFR,,,,,,,,,,,,METAR,76.0
KBMT 300955Z AUTO 26006KT 10SM CLR 13/11 A2989 RMK AO2 T01250105,KBMT,2023-04-30T09:55:00Z,30.07,-94.22,12.5,10.5,260,6,,10.0,29.890747,,,TRUE,TRUE,,,,,,,CLR,,,,,,,,VFR,,,,,,,,,,,,METAR,8.0
KBLV 300955Z 26004KT 10SM CLR 06/04 A2963 RMK AO2A SLP036 T00550041 $,KBLV,2023-04-30T09:55:00Z,38.53,-89.83,5.5,4.1,260,4,,10.0,29.630905,1003.6,,,TRUE,TRUE,,,,,,CLR,,,,,,,,VFR,,,,,,,,,,,,METAR,134.0
KBKT 300955Z AUTO 00000KT 10SM SCT075 OVC090 16/16 A2951 RMK AO1 T01560156,KBKT,2023-04-30T09:55:00Z,37.07,-77.95,15.6,15.6,0,0,,10.0,29.509842,,,TRUE,TRUE,,,,,,,SCT,7500,OVC,9000,,,,,VFR,,,,,,,,,,,,METAR,134.0
KBKS 300955Z AUTO 00000KT 1/4SM FG CLR 10/09 A2997 RMK AO2 SLP108 T01030087 $,KBKS,2023-04-30T09:55:00Z,27.2,-98.12,10.3,8.7,0,0,,0.25,29.970472,1010.8,,TRUE,TRUE,TRUE,,,,,FG,CLR,,,,,,,,LIFR,,,,,,,,,,,,METAR,34.0
KBKN 300955Z AUTO 32007KT 06/05 A2989 RMK AO2,KBKN,2023-04-30T09:55:00Z,36.75,-97.35,6.0,5.0,320,7,,,29.890747,,,TRUE,TRUE,,,,,,,,,,,,,,,,,,,,,,,,,,,METAR,208.0
KBKD 300955Z AUTO 22003KT 7SM CLR 13/04 A2990 RMK AO2 T01290042,KBKD,2023-04-30T09:55:00Z,32.72,-98.88,12.9,4.2,220,3,,7.0,29.899607,,,TRUE,TRUE,,,,,,,CLR,,,,,,,,VFR,,,,,,,,,,,,METAR,383.0
KBJI 300955Z AUTO 34014G21KT 10SM CLR 02/M03 A2981 RMK AO2 T00151035,KBJI,2023-04-30T09:55:00Z,47.5,-94.92,1.5,-3.5,340,14,21,10.0,29.811024,,,TRUE,TRUE,,,,,,,CLR,,,,,,,,VFR,,,,,,,,,,,,METAR,422.0
KBJC 300955Z AUTO 29004KT 10SM CLR 08/00 A3011 RMK AO2,KBJC,2023-04-30T09:55:00Z,39.9,-105.1,8.0,0.0,290,4,,10.0,30.109253,,,TRUE,TRUE,,,,,,,CLR,,,,,,,,VFR,,,,,,,,,,,,METAR,1694.0
KBIX 300955Z AUTO 32010G16KT 10SM BKN015 BKN028 OVC033 16/14 A2971 RMK AO2 CIG 015V027 CIG 014 RWY22 SLP064 T01600138,KBIX,2023-04-30T09:55:00Z,30.42,-88.92,16.0,13.8,320,10,16,10.0,29.71063,1006.4,,TRUE,TRUE,,,,,,,BKN,1500,BKN,2800,OVC,3300,,,MVFR,,,,,,,,,,,,METAR,4.0
KBIJ 300955Z AUTO 27007KT 10SM BKN013 BKN080 14/12 A2958 RMK AO2 LTG DSNT NE,KBIJ,2023-04-30T09:55:00Z,31.4,-84.9,14.0,12.0,270,7,,10.0,29.58071,,,TRUE,TRUE,,,,,,,BKN,1300,BKN,8000,,,,,MVFR,,,,,,,,,,,,METAR,63.0
KBIF 300955Z 300955Z 23002KT 7SM SKC 17/M08 A3006 RMK SLPNO WND DATA ESTMD ALSTG DATA ESTMD,KBIF,2023-04-30T09:55:00Z,31.85,-106.38,17.0,-8.0,230,2,,7.0,30.059055,,,,,,,,,,,SKC,,,,,,,,VFR,,,,,,,,,,,,METAR,1201.0
KBIE 300955Z AUTO 32010KT 10SM CLR 04/00 A2990 RMK AO2 T00400000,KBIE,2023-04-30T09:55:00Z,40.28,-96.75,4.0,0.0,320,10,,10.0,29.899607,,,TRUE,TRUE,,,,,,,CLR,,,,,,,,VFR,,,,,,,,,,,,METAR,398.0
KBHC 300955Z AUTO 00000KT 7SM -RA SCT008 BKN060 OVC095 18/18 A2947 RMK AO2 LTG DSNT NW,KBHC,2023-04-30T09:55:00Z,31.72,-82.4,18.0,18.0,0,0,,7.0,29.471457,,,TRUE,TRUE,,,,,,-RA,SCT,800,BKN,6000,OVC,9500,,,VFR,,,,,,,,,,,,SPECI,61.0
KBGF 300955Z AUTO 33004KT 10SM FEW045 FEW080 OVC095 14/12 A2955 RMK A01,KBGF,2023-04-30T09:55:00Z,35.18,-86.07,14.0,12.0,330,4,,10.0,29.551182,,,TRUE,TRUE,,,,,,,FEW,4500,FEW,8000,OVC,9500,,,VFR,,,,,,,,,,,,METAR,295.0
KBGE 300955Z AUTO 26008KT 10SM SCT060 15/14 A2958 RMK AO2 T01540143,KBGE,2023-04-30T09:55:00Z,30.97,-84.63,15.4,14.3,260,8,,10.0,29.58071,,,TRUE,TRUE,,,,,,,SCT,6000,,,,,,,VFR,,,,,,,,,,,,SPECI,40.0
KBFR 300955Z AUTO 29004KT 10SM BKN013 OVC018 06/05 A2957 RMK AO2,KBFR,2023-04-30T09:55:00Z,38.83,-86.45,6.0,5.0,290,4,,10.0,29.568897,,,TRUE,TRUE,,,,,,,BKN,1300,OVC,1800,,,,,MVFR,,,,,,,,,,,,METAR,223.0
KBEC 300955Z AUTO 30007KT 10SM CLR 09/01 A2989 RMK AO2 T00890007,KBEC,2023-04-30T09:55:00Z,37.7,-97.22,8.9,0.7,300,7,,10.0,29.890747,,,TRUE,TRUE,,,,,,,CLR,,,,,,,,VFR,,,,,,,,,,,,SPECI,421.0
KBEA 300955Z AUTO 00000KT 10SM CLR 14/07 A2996 RMK AO2 T01420065 PWINO,KBEA,2023-04-30T09:55:00Z,28.37,-97.78,14.2,6.5,0,0,,10.0,29.958662,,,TRUE,TRUE,,,,,TRUE,,CLR,,,,,,,,VFR,,,,,,,,,,,,METAR,83.0
KBDU 300955Z AUTO 00000KT 10SM CLR 08/00 A3009 RMK AO2,KBDU,2023-04-30T09:55:00Z,40.03,-105.23,8.0,0.0,0,0,,10.0,30.088583,,,TRUE,TRUE,,,,,,,CLR,,,,,,,,VFR,,,,,,,,,,,,METAR,1614.0
KBDN 300955Z AUTO 24007KT 10SM CLR 13/05 A2990 RMK AO2,KBDN,2023-04-30T09:55:00Z,44.1,-121.2,13.0,5.0,240,7,,10.0,29.899607,,,TRUE,TRUE,,,,,,,CLR,,,,,,,,VFR,,,,,,,,,,,,METAR,1044.0
KBDH 300955Z AUTO 32012KT 10SM CLR 02/M01 A2979 RMK AO2,KBDH,2023-04-30T09:55:00Z,45.12,-95.13,2.0,-1.0,320,12,,10.0,29.790354,,,TRUE,TRUE,,,,,,,CLR,,,,,,,,VFR,,,,,,,,,,,,METAR,341.0
KBDG 300955Z AUTO 30003KT 10SM 10/M07 A3016 RMK AO1 T00961074,KBDG,2023-04-30T09:55:00Z,37.58,-109.47,9.6,-7.4,300,3,,10.0,30.159449,,,TRUE,TRUE,,,,,,,,,,,,,,,,,,,,,,,,,,,SPECI,1778.0
KBCK 300955Z AUTO 31010G14KT 5SM -RA OVC013 02/01 A2948 RMK AO2 T00220011,KBCK,2023-04-30T09:55:00Z,44.25,-90.85,2.2,1.1,310,10,14,5.0,29.480314,,,TRUE,TRUE,,,,,,-RA,OVC,1300,,,,,,,MVFR,,,,,,,,,,,,METAR,256.0
KBCB 300955Z AUTO 00000KT 7SM -RA BKN070 OVC090 14/14 A2958 RMK AO2 P0001 T01400140,KBCB,2023-04-30T09:55:00Z,37.22,-80.42,14.0,14.0,0,0,,7.0,29.58071,,,TRUE,TRUE,,,,,,-RA,BKN,7000,OVC,9000,,,,,VFR,,,,,,0.01,,,,,,METAR,642.0
KBBP 300955Z AUTO 00000KT 10SM BKN004 OVC009 17/17 A2947 RMK AO2 P0001,KBBP,2023-04-30T09:55:00Z,34.62,-79.73,17.0,17.0,0,0,,10.0,29.471457,,,TRUE,TRUE,,,,,,,BKN,400,OVC,900,,,,,LIFR,,,,,,0.01,,,,,,METAR,44.0
KBBG 300955Z AUTO 00000KT 10SM CLR 07/03 A2977 RMK AO2,KBBG,2023-04-30T09:55:00Z,36.53,-93.2,7.0,3.0,0,0,,10.0,29.769686,,,TRUE,TRUE,,,,,,,CLR,,,,,,,,VFR,,,,,,,,,,,,METAR,403.0
KBBD 300955Z AUTO 26004KT 10SM CLR 10/M00 A2996 RMK AO2,KBBD,2023-04-30T09:55:00Z,31.18,-99.32,10.0,0.0,260,4,,10.0,29.958662,,,TRUE,TRUE,,,,,,,CLR,,,,,,,,VFR,,,,,,,,,,,,METAR,554.0
KBAX 300955Z AUTO 21003KT 10SM CLR 05/05 A2941 RMK AO2 T00450045,KBAX,2023-04-30T09:55:00Z,43.78,-82.98,4.5,4.5,210,3,,10.0,29.409449,,,TRUE,TRUE,,,,,,,CLR,,,,,,,,VFR,,,,,,,,,,,,METAR,229.0
KBAM 300955Z AUTO 22006KT 10SM CLR 10/M01 A3001 RMK AO1,KBAM,2023-04-30T09:55:00Z,40.6,-116.87,10.0,-1.0,220,6,,10.0,30.008858,,,TRUE,TRUE,,,,,,,CLR,,,,,,,,VFR,,,,,,,,,,,,METAR,1381.0
KBAD 300955Z AUTO 00000KT 10SM CLR 10/07 A2982 RMK AO2 SLP102 T00980067 $,KBAD,2023-04-30T09:55:00Z,32.5,-93.67,9.8,6.7,0,0,,10.0,29.819881,1010.2,,TRUE,TRUE,TRUE,,,,,,CLR,,,,,,,,VFR,,,,,,,,,,,,METAR,49.0
KBAC 300955Z AUTO 34014G20KT 10SM CLR 01/01 A2999 RMK AO2,KBAC,2023-04-30T09:55:00Z,46.93,-98.02,1.0,1.0,340,14,20,10.0,29.991142,,,TRUE,TRUE,,,,,,,CLR,,,,,,,,VFR,,,,,,,,,,,,METAR,423.0
KAZE 300955Z AUTO 21005KT 10SM RA BKN005 BKN031 OVC095 19/19 A2946 RMK AO2 LTG DSNT N T01900185,KAZE,2023-04-30T09:55:00Z,31.88,-82.65,19.0,18.5,210,5,,10.0,29.459646,,,TRUE,TRUE,,,,,,RA,BKN,500,BKN,3100,OVC,9500,,,IFR,,,,,,,,,,,,METAR,78.0
KAZC 300955Z AUTO 15011KT 10SM CLR 06/M03 A3010 RMK AO2,KAZC,2023-04-30T09:55:00Z,36.97,-113.02,6.0,-3.0,150,11,,10.0,30.100393,,,TRUE,TRUE,,,,,,,CLR,,,,,,,,VFR,,,,,,,,,,,,METAR,1476.0
KAYS 300955Z AUTO 21010KT 3SM RA BKN006 BKN019 OVC049 20/19 A2951 RMK AO2 T01980191,KAYS,2023-04-30T09:55:00Z,31.25,-82.4,19.8,19.1,210,10,,3.0,29.509842,,,TRUE,TRUE,,,,,,RA,BKN,600,BKN,1900,OVC,4900,,,IFR,,,,,,,,,,,,SPECI,42.0
KAXX 300955Z AUTO 00000KT 10SM CLR M02/M04 A3020 RMK AO2 T10211038,KAXX,2023-04-30T09:55:00Z,36.42,-105.28,-2.1,-3.8,0,0,,10.0,30.200787,,,TRUE,TRUE,,,,,,,CLR,,,,,,,,VFR,,,,,,,,,,,,METAR,2543.0
KAXV 300955Z AUTO 27008KT 5SM -RA SCT007 SCT015 OVC035 06/05 A2949 RMK AO2,KAXV,2023-04-30T09:55:00Z,40.5,-84.3,6.0,5.0,270,8,,5.0,29.489174,,,TRUE,TRUE,,,,,,-RA,SCT,700,SCT,1500,OVC,3500,,,MVFR,,,,,,,,,,,,METAR,278.0
KAXS 300955Z AUTO 36006KT 10SM CLR 10/06 A2990 RMK AO2 T00970064,KAXS,2023-04-30T09:55:00Z,34.7,-99.33,9.7,6.4,360,6,,10.0,29.899607,,,TRUE,TRUE,,,,,,,CLR,,,,,,,,VFR,,,,,,,,,,,,METAR,433.0
KAXH 300955Z AUTO 00000KT 10SM CLR 11/10 A2993 RMK AO2 T01070100,KAXH,2023-04-30T09:55:00Z,29.52,-95.48,10.7,10.0,0,0,,10.0,29.929134,,,TRUE,TRUE,,,,,,,CLR,,,,,,,,VFR,,,,,,,,,,,,METAR,18.0
KAXA 300955Z AUTO 32014G20KT 10SM CLR 04/02 A2969 RMK A01,KAXA,2023-04-30T09:55:00Z,43.07,-94.27,4.0,2.0,320,14,20,10.0,29.68996,,,TRUE,TRUE,,,,,,,CLR,,,,,,,,VFR,,,,,,,,,,,,METAR,371.0
KAWG 300955Z AUTO 29012KT 10SM BKN060 BKN080 05/05 A2959 RMK AO2,KAWG,2023-04-30T09:55:00Z,41.27,-91.67,5.0,5.0,290,12,,10.0,29.589567,,,TRUE,TRUE,,,,,,,BKN,6000,BKN,8000,,,,,VFR,,,,,,,,,,,,METAR,229.0
KAVQ 300955Z AUTO 00000KT 10SM 19/M05 A2988 RMK AO2 T01851052,KAVQ,2023-04-30T09:55:00Z,32.4,-111.22,18.5,-5.2,0,0,,10.0,29.878937,,,TRUE,TRUE,,,,,,,,,,,,,,,,,,,,,,,,,,,METAR,618.0
KAVC 300955Z AUTO 00000KT 10SM SCT018 SCT031 OVC070 17/17 A2957 RMK AO2 T01720171,KAVC,2023-04-30T09:55:00Z,36.68,-78.05,17.2,17.1,0,0,,10.0,29.568897,,,TRUE,TRUE,,,,,,,SCT,1800,SCT,3100,OVC,7000,,,VFR,,,,,,,,,,,,METAR,119.0
KAUN 300955Z AUTO 10005KT 10SM CLR 17/08 A2991 RMK A01,KAUN,2023-04-30T09:55:00Z,38.95,-121.08,17.0,8.0,100,5,,10.0,29.911417,,,TRUE,TRUE,,,,,,,CLR,,,,,,,,VFR,,,,,,,,,,,,METAR,453.0
KAUH 300955Z AUTO 31010KT 10SM CLR 02/M03 A2995 RMK AO2 T00201027,KAUH,2023-04-30T09:55:00Z,40.88,-98.0,2.0,-2.7,310,10,,10.0,29.949802,,,TRUE,TRUE,,,,,,,CLR,,,,,,,,VFR,,,,,,,,,,,,METAR,549.0
KATW 300955Z AUTO 28010KT 10SM OVC010 02/00 A2933 RMK AO2,KATW,2023-04-30T09:55:00Z,44.27,-88.52,2.0,0.0,280,10,,10.0,29.329725,,,TRUE,TRUE,,,,,,,OVC,1000,,,,,,,MVFR,,,,,,,,,,,,METAR,266.0
KATS 300955Z AUTO 20006KT 10SM CLR 12/M06 A3000 RMK AO2,KATS,2023-04-30T09:55:00Z,32.85,-104.47,12.0,-6.0,200,6,,10.0,30.0,,,TRUE,TRUE,,,,,,,CLR,,,,,,,,VFR,,,,,,,,,,,,METAR,1073.0
KATA 300955Z AUTO 00000KT 10SM CLR 07/07 A2982 RMK AO2 SLP997 T00670067 $,KATA,2023-04-30T09:55:00Z,33.1,-94.2,6.7,6.7,0,0,,10.0,29.819881,999.7,,TRUE,TRUE,TRUE,,,,,,CLR,,,,,,,,VFR,,,,,,,,,,,,METAR,85.0
KASW 300955Z AUTO 26005KT 10SM SCT038 BKN046 BKN055 05/03 A2948 RMK AO2 T00510032,KASW,2023-04-30T09:55:00Z,41.27,-85.83,5.1,3.2,260,5,,10.0,29.480314,,,TRUE,TRUE,,,,,,,SCT,3800,BKN,4600,BKN,5500,,,VFR,,,,,,,,,,,,METAR,253.0
KASN 300955Z AUTO 20003KT 7SM -RA BKN027 BKN040 OVC055 15/15 A2954 RMK AO2 LTG DSNT SE T01520151,KASN,2023-04-30T09:55:00Z,33.57,-86.05,15.2,15.1,200,3,,7.0,29.53937,,,TRUE,TRUE,,,,,,-RA,BKN,2700,BKN,4000,OVC,5500,,,MVFR,,,,,,,,,,,,METAR,159.0
KASL 300955Z AUTO 00000KT 8SM CLR 08/08 A2983 RMK AO2 T00750075 $,KASL,2023-04-30T09:55:00Z,32.52,-94.3,7.5,7.5,0,0,,8.0,29.828741,,,TRUE,TRUE,TRUE,,,,,,CLR,,,,,,,,VFR,,,,,,,,,,,,METAR,104.0
KARW 300955Z AUTO 22008KT 10SM BKN014 BKN019 21/20 A2947 RMK AO2,KARW,2023-04-30T09:55:00Z,32.42,-80.63,21.0,20.0,220,8,,10.0,29.471457,,,TRUE,TRUE,,,,,,,BKN,1400,BKN,1900,,,,,MVFR,,,,,,,,,,,,METAR,2.0
KARV 300955Z AUTO 35016KT 1SM SN OVC005 00/M01 A2937 RMK AO2 P0001 T10021010,KARV,2023-04-30T09:55:00Z,45.92,-89.72,-0.2,-1.0,350,16,,1.0,29.371063,,,TRUE,TRUE,,,,,,SN,OVC,500,,,,,,,IFR,,,,,,0.01,,,,,,METAR,494.0
KARM 300955Z AUTO 00000KT 10SM CLR 12/12 A2994 RMK AO2 T01220120 TSNO,KARM,2023-04-30T09:55:00Z,29.25,-96.15,12.2,12.0,0,0,,10.0,29.940945,,,TRUE,TRUE,,,TRUE,,,,CLR,,,,,,,,VFR,,,,,,,,,,,,METAR,29.0
KAQX 300955Z AUTO VRB04KT 10SM FEW010 SCT015 BKN028 20/19 A2944 RMK AO2,KAQX,2023-04-30T09:55:00Z,32.98,-81.27,20.0,19.0,0,4,,10.0,29.438976,,,TRUE,TRUE,,,,,,,FEW,1000,SCT,1500,BKN,2800,,,MVFR,,,,,,,,,,,,METAR,48.0
KAQO 300955Z AUTO 00000KT 10SM FEW037 SCT045 BKN055 07/03 A2995 RMK AO2,KAQO,2023-04-30T09:55:00Z,30.78,-98.67,7.0,3.0,0,0,,10.0,29.949802,,,TRUE,TRUE,,,,,,,FEW,3700,SCT,4500,BKN,5500,,,VFR,,,,,,,,,,,,METAR,334.0
KAPY 300955Z AUTO 00000KT 10SM CLR 10/07 A2999 RMK AO2 T00990065 TSNO,KAPY,2023-04-30T09:55:00Z,26.97,-99.25,9.9,6.5,0,0,,10.0,29.991142,,,TRUE,TRUE,,,TRUE,,,,CLR,,,,,,,,VFR,,,,,,,,,,,,METAR,129.0
KANW 300955Z AUTO 29007KT 10SM CLR 01/M04 A3002 RMK AO2 T00071040,KANW,2023-04-30T09:55:00Z,42.57,-100.0,0.7,-4.0,290,7,,10.0,30.02067,,,TRUE,TRUE,,,,,,,CLR,,,,,,,,VFR,,,,,,,,,,,,METAR,788.0
KANQ 300955Z AUTO VRB06KT 10SM FEW033 SCT050 OVC075 06/04 A2945 RMK AO2,KANQ,2023-04-30T09:55:00Z,41.63,-85.08,6.0,4.0,0,6,,10.0,29.450787,,,TRUE,TRUE,,,,,,,FEW,3300,SCT,5000,OVC,7500,,,VFR,,,,,,,,,,,,METAR,299.0
KANJ 300955Z AUTO 17008KT 10SM OVC004 06/06 A2933 RMK AO2 RAE06 CIG 003V007 SLP933 P0001 T00560056,KANJ,2023-04-30T09:55:00Z,46.47,-84.37,5.6,5.6,170,8,,10.0,29.329725,993.3,,TRUE,TRUE,,,,,,,OVC,400,,,,,,,LIFR,,,,,,0.01,,,,,,METAR,220.0
KANE 300955Z AUTO 33021G28KT 10SM SCT028 BKN034 OVC060 05/M01 A2962 RMK AO2,KANE,2023-04-30T09:55:00Z,45.15,-93.22,5.0,-1.0,330,21,28,10.0,29.619095,,,TRUE,TRUE,,,,,,,SCT,2800,BKN,3400,OVC,6000,,,VFR,,,,,,,,,,,,METAR,276.0
KAMN 300955Z AUTO 19006KT 10SM SCT019 SCT024 OVC032 06/05 A2941 RMK AO2 T00620053,KAMN,2023-04-30T09:55:00Z,43.32,-84.68,6.2,5.3,190,6,,10.0,29.409449,,,TRUE,TRUE,,,,,,,SCT,1900,SCT,2400,OVC,3200,,,VFR,,,,,,,,,,,,METAR,228.0
KALN 300955Z AUTO 00000KT 10SM CLR 05/05 A2964 RMK AO2 T00500048,KALN,2023-04-30T09:55:00Z,38.88,-90.03,5.0,4.8,0,0,,10.0,29.639763,,,TRUE,TRUE,,,,,,,CLR,,,,,,,,VFR,,,,,,,,,,,,SPECI,159.0
KALM 300955Z AUTO 29004KT 10SM FEW038 SCT044 BKN050 11/M08 A3005 RMK AO2,KALM,2023-04-30T09:55:00Z,32.83,-105.98,11.0,-8.0,290,4,,10.0,30.050198,,,TRUE,TRUE,,,,,,,FEW,3800,SCT,4400,BKN,5000,,,VFR,,,,,,,,,,,,METAR,1267.0
KAJZ 300955Z AUTO 06006KT 10SM CLR 07/M02 A3010 RMK AO2 T00741019 PWINO,KAJZ,2023-04-30T09:55:00Z,38.78,-108.07,7.4,-1.9,60,6,,10.0,30.100393,,,TRUE,TRUE,,,,,TRUE,,CLR,,,,,,,,VFR,,,,,,,,,,,,METAR,1583.0
KAJR 300955Z AUTO 02005KT 5SM RA OVC070 15/15 A2949 RMK AO2 LTG DSNT E T01540154,KAJR,2023-04-30T09:55:00Z,34.5,-83.55,15.4,15.4,20,5,,5.0,29.489174,,,TRUE,TRUE,,,,,,RA,OVC,7000,,,,,,,MVFR,,,,,,,,,,,,SPECI,441.0
KAJG 300955Z AUTO 26007KT 10SM CLR 07/06 A2961 RMK AO2 T00650055,KAJG,2023-04-30T09:55:00Z,38.62,-87.73,6.5,5.5,260,7,,10.0,29.610237,,,TRUE,TRUE,,,,,,,CLR,,,,,,,,VFR,,,,,,,,,,,,METAR,130.0
KAIT 300955Z AUTO 33015G20KT 10SM DZ SCT024 OVC032 02/M01 A2969 RMK AO2,KAIT,2023-04-30T09:55:00Z,46.53,-93.67,2.0,-1.0,330,15,20,10.0,29.68996,,,TRUE,TRUE,,,,,,DZ,SCT,2400,OVC,3200,,,,,VFR,,,,,,,,,,,,METAR,367.0
KAIO 300955Z AUTO 32015G20KT 10SM FEW049 05/05 A2978 RMK AO2,KAIO,2023-04-30T09:55:00Z,41.4,-95.03,5.0,5.0,320,15,20,10.0,29.778543,,,TRUE,TRUE,,,,,,,FEW,4900,,,,,,,VFR,,,,,,,,,,,,METAR,349.0
KAIK 300955Z AUTO 02005KT 5SM -RA BR SCT003 OVC010 16/15 A2945 RMK AO2 LTG DSNT SW P0003 T01560152,KAIK,2023-04-30T09:55:00Z,33.65,-81.68,15.6,15.2,20,5,,5.0,29.450787,,,TRUE,TRUE,,,,,,-RA BR,SCT,300,OVC,1000,,,,,MVFR,,,,,,0.03,,,,,,METAR,155.0
KAIG 300955Z AUTO 31007KT 5SM BR OVC009 00/00 A2932 RMK AO2 T00001002,KAIG,2023-04-30T09:55:00Z,45.15,-89.12,0.0,-0.2,310,7,,5.0,29.320866,,,TRUE,TRUE,,,,,,BR,OVC,900,,,,,,,IFR,,,,,,,,,,,,METAR,462.0
KAID 300955Z AUTO 26004KT 10SM BKN060 05/03 A2952 RMK AO2 P0001 T00500029,KAID,2023-04-30T09:55:00Z,40.12,-85.62,5.0,2.9,260,4,,10.0,29.518702,,,TRUE,TRUE,,,,,,,BKN,6000,,,,,,,VFR,,,,,,0.01,,,,,,METAR,277.0
KAHQ 300955Z AUTO 32016G21KT 10SM CLR 06/01 A2988 RMK AO2 T00620007,KAHQ,2023-04-30T09:55:00Z,41.23,-96.6,6.2,0.7,320,16,21,10.0,29.878937,,,TRUE,TRUE,,,,,,,CLR,,,,,,,,VFR,,,,,,,,,,,,METAR,372.0
KAGO 300955Z AUTO 00000KT 10SM FEW048 SCT055 SCT070 09/09 A2979 RMK A01,KAGO,2023-04-30T09:55:00Z,33.23,-93.22,9.0,9.0,0,0,,10.0,29.790354,,,TRUE,TRUE,,,,,,,FEW,4800,SCT,5500,SCT,7000,,,VFR,,,,,,,,,,,,METAR,91.0
KAGI 300955Z AUTO 35009G20KT 10SM CLR 20/11 A2990 RMK AO2 T01990111,KAGI,2023-04-30T09:55:00Z,27.55,-92.45,19.9,11.1,350,9,20,10.0,29.899607,,,TRUE,TRUE,,,,,,,CLR,,,,,,,,VFR,,,,,,,,,,,,METAR,41.0
KAFK 300955Z AUTO 31012KT 10SM CLR 05/01 A2984 RMK AO2 T00540005,KAFK,2023-04-30T09:55:00Z,40.6,-95.85,5.4,0.5,310,12,,10.0,29.840551,,,TRUE,TRUE,,,,,,,CLR,,,,,,,,VFR,,,,,,,,,,,,METAR,353.0
KAFF 300955Z AUTO 01006KT 10SM CLR 04/M01 A3010 RMK AO2 SLP141 T00441010,KAFF,2023-04-30T09:55:00Z,38.97,-104.82,4.4,-1.0,10,6,,10.0,30.100393,1014.1,,TRUE,TRUE,,,,,,,CLR,,,,,,,,VFR,,,,,,,,,,,,METAR,2003.0
KAEL 300955Z AUTO 31012G21KT 10SM CLR 03/00 A2962 RMK AO2,KAEL,2023-04-30T09:55:00Z,43.68,-93.37,3.0,0.0,310,12,21,10.0,29.619095,,,TRUE,TRUE,,,,,,,CLR,,,,,,,,VFR,,,,,,,,,,,,METAR,382.0
KAEJ 300955Z AUTO 00000KT 10SM CLR 01/M03 A3017 RMK AO2 T00141035,KAEJ,2023-04-30T09:55:00Z,38.82,-106.12,1.4,-3.5,0,0,,10.0,30.171259,,,TRUE,TRUE,,,,,,,CLR,,,,,,,,VFR,,,,,,,,,,,,METAR,2420.0
KAEG 300955Z AUTO 00000KT 10SM CLR 04/M08 A3010 RMK AO2 T00351085,KAEG,2023-04-30T09:55:00Z,35.13,-106.8,3.5,-8.5,0,0,,10.0,30.100393,,,TRUE,TRUE,,,,,,,CLR,,,,,,,,VFR,,,,,,,,,,,,METAR,1771.0
KADW 300955Z 05005KT 10SM OVC007 15/15 A2952 RMK AO2A SLP002 T01470145,KADW,2023-04-30T09:55:00Z,38.82,-76.87,14.7,14.5,50,5,,10.0,29.518702,1000.2,,,TRUE,,,,,,,OVC,700,,,,,,,IFR,,,,,,,,,,,,SPECI,87.0
KADU 300955Z AUTO 31007KT 10SM SCT060 SCT070 BKN085 03/01 A2976 RMK AO2,KADU,2023-04-30T09:55:00Z,41.7,-94.92,3.0,1.0,310,7,,10.0,29.760826,,,TRUE,TRUE,,,,,,,SCT,6000,SCT,7000,BKN,8500,,,VFR,,,,,,,,,,,,METAR,391.0
KADT 300955Z AUTO 36008KT 10SM OVC100 09/M04 A3008 RMK AO2 T00861042,KADT,2023-04-30T09:55:00Z,39.83,-101.05,8.6,-4.2,360,8,,10.0,30.079725,,,TRUE,TRUE,,,,,,,OVC,10000,,,,,,,VFR,,,,,,,,,,,,METAR,899.0
KADS 300955Z AUTO 00000KT 10SM CLR 13/04 A2985 RMK AO2 T01300040,KADS,2023-04-30T09:55:00Z,32.97,-96.83,13.0,4.0,0,0,,10.0,29.84941,,,TRUE,TRUE,,,,,,,CLR,,,,,,,,VFR,,,,,,,,,,,,METAR,198.0
KADM 300955Z AUTO 00000KT 10SM FEW035 FEW042 FEW050 06/04 A2984 RMK AO2,KADM,2023-04-30T09:55:00Z,34.3,-97.02,6.0,4.0,0,0,,10.0,29.840551,,,TRUE,TRUE,,,,,,,FEW,3500,FEW,4200,FEW,5000,,,VFR,,,,,,,,,,,,SPECI,223.0
KADH 300955Z AUTO 00000KT 10SM CLR 10/07 A2985 RMK AO2,KADH,2023-04-30T09:55:00Z,34.8,-96.67,10.0,7.0,0,0,,10.0,29.84941,,,TRUE,TRUE,,,,,,,CLR,,,,,,,,VFR,,,,,,,,,,,,SPECI,301.0
KACQ 300955Z AUTO 31016G21KT 10SM SCT075 02/00 A2965 RMK AO2 P0001,KACQ,2023-04-30T09:55:00Z,44.07,-93.55,2.0,0.0,310,16,21,10.0,29.648623,,,TRUE,TRUE,,,,,,,SCT,7500,,,,,,,VFR,,,,,,0.01,,,,,,METAR,339.0
KACP 300955Z AUTO 24003KT 10SM CLR 11/10 A2985 RMK AO2,KACP,2023-04-30T09:55:00Z,30.75,-92.68,11.0,10.0,240,3,,10.0,29.84941,,,TRUE,TRUE,,,,,,,CLR,,,,,,,,VFR,,,,,,,,,,,,SPECI,31.0
KACJ 300955Z AUTO 23008KT 10SM FEW140 15/15 A2950 RMK AO2 T01480148,KACJ,2023-04-30T09:55:00Z,32.12,-84.18,14.8,14.8,230,8,,10.0,29.500984,,,TRUE,TRUE,,,,,,,FEW,14000,,,,,,,VFR,,,,,,,,,,,,METAR,140.0
KACB 300955Z AUTO 00000KT 10SM BKN018 OVC040 05/03 A2936 RMK AO2 T00450032,KACB,2023-04-30T09:55:00Z,44.98,-85.2,4.5,3.2,0,0,,10.0,29.359253,,,TRUE,TRUE,,,,,,,BKN,1800,OVC,4000,,,,,MVFR,,,,,,,,,,,,METAR,189.0
KABH 300955Z AUTO 06009KT 10SM CLR 06/M01 A3009 RMK AO2 SLP150 T00551006,KABH,2023-04-30T09:55:00Z,38.75,-104.3,5.5,-0.6,60,9,,10.0,30.088583,1015.0,,TRUE,TRUE,,,,,,,CLR,,,,,,,,VFR,,,,,,,,,,,,METAR,1838.0
KAAT 300955Z AUTO 00000KT 10SM CLR 03/00 A3000 RMK AO2 SLP129 T00330000,KAAT,2023-04-30T09:55:00Z,41.48,-120.57,3.3,0.0,0,0,,10.0,30.0,1012.9,,TRUE,TRUE,,,,,,,CLR,,,,,,,,VFR,,,,,,,,,,,,METAR,1336.0
KAAS 300955Z AUTO 28005KT 7SM BKN005 OVC020 11/11 A2958 RMK AO1,KAAS,2023-04-30T09:55:00Z,37.35,-85.32,11.0,11.0,280,5,,7.0,29.58071,,,TRUE,TRUE,,,,,,,BKN,500,OVC,2000,,,,,IFR,,,,,,,,,,,,METAR,270.0
KAAA 300955Z AUTO 27005KT 10SM CLR 06/06 A2958 RMK AO2 T00600056,KAAA,2023-04-30T09:55:00Z,40.17,-89.33,6.0,5.6,270,5,,10.0,29.58071,,,TRUE,TRUE,,,,,,,CLR,,,,,,,,VFR,,,,,,,,,,,,SPECI,179.0
KA39 300955Z AUTO 13008KT 10SM CLR 17/M05 A2987 RMK AO2,KA39,2023-04-30T09:55:00Z,32.98,-111.92,17.0,-5.0,130,8,,10.0,29.870079,,,TRUE,TRUE,,,,,,,CLR,,,,,,,,VFR,,,,,,,,,,,,SPECI,391.0
K9V9 300955Z AUTO 34012G17KT 10SM CLR 03/00 A3001 RMK AO2 T00280002,K9V9,2023-04-30T09:55:00Z,43.77,-99.32,2.8,0.2,340,12,17,10.0,30.008858,,,TRUE,TRUE,,,,,,,CLR,,,,,,,,VFR,,,,,,,,,,,,SPECI,511.0
K9S9 300955Z AUTO 12009KT 10SM CLR 15/02 A2986 RMK AO2 PWINO,K9S9,2023-04-30T09:55:00Z,45.45,-119.68,15.0,2.0,120,9,,10.0,29.861221,,,TRUE,TRUE,,,,,TRUE,,CLR,,,,,,,,VFR,,,,,,,,,,,,METAR,498.0
K9MN 300955Z AUTO 30013G24KT 270V340 10SM BKN034 BKN040 OVC048 04/M02 A2956 RMK AO1 T00411023,K9MN,2023-04-30T09:55:00Z,44.02,-92.48,4.1,-2.3,300,13,24,10.0,29.56004,,,TRUE,TRUE,,,,,,,BKN,3400,BKN,4000,OVC,4800,,,VFR,,,,,,,,,,,,SPECI,308.0
K9L2 300955Z AUTO 18005KT 10SM CLR 15/05 A2992 RMK AO2 SLP110 T01480045 $,K9L2,2023-04-30T09:55:00Z,34.98,-117.87,14.8,4.5,180,5,,10.0,29.920275,1011.0,,TRUE,TRUE,TRUE,,,,,,CLR,,,,,,,,VFR,,,,,,,,,,,,METAR,697.0
K9A5 300955Z AUTO 00000KT 3SM SCT038 BKN060 OVC100 15/15 A2952 RMK AO2 T01460146,K9A5,2023-04-30T09:55:00Z,34.68,-85.28,14.6,14.6,0,0,,3.0,29.518702,,,TRUE,TRUE,,,,,,,SCT,3800,BKN,6000,OVC,10000,,,MVFR,,,,,,,,,,,,SPECI,234.0
K96D 300955Z AUTO 33014KT 10SM CLR 02/02 A3004 RMK AO2,K96D,2023-04-30T09:55:00Z,48.93,-97.9,2.0,2.0,330,14,,10.0,30.041338,,,TRUE,TRUE,,,,,,,CLR,,,,,,,,VFR,,,,,,,,,,,,METAR,290.0
K8W2 300955Z AUTO 00000KT 10SM OVC085 A2954 RMK AO1 P0002,K8W2,2023-04-30T09:55:00Z,38.65,-78.7,,,0,0,,10.0,29.53937,,,TRUE,TRUE,,,,,,,OVC,8500,,,,,,,VFR,,,,,,0.02,,,,,,SPECI,295.0
K8T6 300955Z AUTO 00000KT 4SM BR CLR 10/10 A2997 RMK AO2,K8T6,2023-04-30T09:55:00Z,28.37,-98.12,10.0,10.0,0,0,,4.0,29.970472,,,TRUE,TRUE,,,,,,BR,CLR,,,,,,,,MVFR,,,,,,,,,,,,METAR,39.0
K8B0 300955Z AUTO 12009KT 100V160 10SM OVC028 03/02 A2995 RMK AO2,K8B0,2023-04-30T09:55:00Z,44.98,-70.65,3.0,2.0,120,9,,10.0,29.949802,,,TRUE,TRUE,,,,,,,OVC,2800,,,,,,,MVFR,,,,,,,,,,,,METAR,552.0
K8A3 300955Z AUTO 00000KT 10SM CLR 12/10 A2953 RMK A01,K8A3,2023-04-30T09:55:00Z,36.42,-85.32,12.0,10.0,0,0,,10.0,29.530512,,,TRUE,TRUE,,,,,,,CLR,,,,,,,,VFR,,,,,,,,,,,,METAR,413.0
K8A0 300955Z AUTO 36007KT 10SM BKN031 BKN085 15/12 A2956 RMK AO2,K8A0,2023-04-30T09:55:00Z,34.23,-86.25,15.0,12.0,360,7,,10.0,29.56004,,,TRUE,TRUE,,,,,,,BKN,3100,BKN,8500,,,,,VFR,,,,,,,,,,,,METAR,313.0
K82C 300955Z AUTO 29010KT 5SM DZ OVC012 02/02 A2943 RMK AO2 P0001 T00230020,K82C,2023-04-30T09:55:00Z,43.83,-90.13,2.3,2.0,290,10,,5.0,29.430119,,,TRUE,TRUE,,,,,,DZ,OVC,1200,,,,,,,MVFR,,,,,,0.01,,,,,,METAR,273.0
K81R 300955Z AUTO 00000KT 10SM CLR 09/06 A2996 RMK AO2 T00860057,K81R,2023-04-30T09:55:00Z,31.23,-98.72,8.6,5.7,0,0,,10.0,29.958662,,,TRUE,TRUE,,,,,,,CLR,,,,,,,,VFR,,,,,,,,,,,,SPECI,381.0
K7W4 300955Z AUTO 1/2SM OVC002 16/16 A2951 RMK AO1 T01560156,K7W4,2023-04-30T09:55:00Z,37.97,-77.75,15.6,15.6,,,,0.5,29.509842,,,TRUE,TRUE,,,,,,,OVC,200,,,,,,,LIFR,,,,,,,,,,,,METAR,115.0
K7L2 300955Z AUTO 00000KT 10SM CLR M01/M00 A3009 RMK AO2,K7L2,2023-04-30T09:55:00Z,46.22,-100.25,-1.0,0.0,0,0,,10.0,30.088583,,,TRUE,TRUE,,,,,,,CLR,,,,,,,,VFR,,,,,,,,,,,,METAR,541.0
K7BM 300955Z AUTO 28004KT 10SM CLR 07/M06 A3024 RMK AO2,K7BM,2023-04-30T09:55:00Z,38.78,-106.22,7.0,-6.0,280,4,,10.0,30.239174,,,TRUE,TRUE,,,,,,,CLR,,,,,,,,VFR,,,,,,,,,,,,SPECI,2996.0
K77S 300955Z AUTO 00000KT 10SM BKN021 BKN100 08/07 A2999 RMK A01,K77S,2023-04-30T09:55:00Z,43.93,-123.0,8.0,7.0,0,0,,10.0,29.991142,,,TRUE,TRUE,,,,,,,BKN,2100,BKN,10000,,,,,MVFR,,,,,,,,,,,,METAR,161.0
K6S8 300955Z AUTO 02009KT 10SM 05/M04 A3008 RMK A01 LAUREL,K6S8,2023-04-30T09:55:00Z,45.7,-108.77,5.0,-4.0,20,9,,10.0,30.079725,,,TRUE,TRUE,,,,,,,,,,,,,,,,,,,,,,,,,,,METAR,1072.0
K6S2 300955Z AUTO VRB03KT 9SM OVC006 10/10 A3000 RMK AO2,K6S2,2023-04-30T09:55:00Z,43.98,-124.12,10.0,10.0,0,3,,9.0,30.0,,,TRUE,TRUE,,,,,,,OVC,600,,,,,,,IFR,,,,,,,,,,,,METAR,16.0
K6S0 300955Z AUTO 05005KT 10SM CLR 05/M01 A3010 RMK A01,K6S0,2023-04-30T09:55:00Z,45.8,-109.97,5.0,-1.0,50,5,,10.0,30.100393,,,TRUE,TRUE,,,,,,,CLR,,,,,,,,VFR,,,,,,,,,,,,METAR,1364.0
K6R3 300955Z AUTO 00000KT 10SM CLR 10/10 A2990 RMK AO2 T01030096 TSNO,K6R3,2023-04-30T09:55:00Z,30.35,-95.0,10.3,9.6,0,0,,10.0,29.899607,,,TRUE,TRUE,,,TRUE,,,,CLR,,,,,,,,VFR,,,,,,,,,,,,SPECI,44.0
K6P9 300955Z AUTO 25008KT 10SM CLR 14/04 A2991 RMK AO2 T01360035,K6P9,2023-04-30T09:55:00Z,32.43,-98.6,13.6,3.5,250,8,,10.0,29.911417,,,TRUE,TRUE,,,,,,,CLR,,,,,,,,VFR,,,,,,,,,,,,METAR,451.0
K6L4 300955Z AUTO 28003KT M1/4SM FG BKN001 OVC018 11/11 A2952 RMK AO2 VIS M1/4V5,K6L4,2023-04-30T09:55:00Z,37.85,-81.92,11.0,11.0,280,3,,0.25,29.518702,,,TRUE,TRUE,,,,,,FG,BKN,100,OVC,1800,,,,,LIFR,,,,,,,,,,,,METAR,504.0
K6I2 300955Z AUTO 31009G15KT 10SM FEW006 BKN013 OVC025 11/11 A2953 RMK AO2,K6I2,2023-04-30T09:55:00Z,37.63,-85.25,11.0,11.0,310,9,15,10.0,29.530512,,,TRUE,TRUE,,,,,,,FEW,600,BKN,1300,OVC,2500,,,MVFR,,,,,,,,,,,,METAR,258.0
K6B9 300955Z AUTO 14003KT 10SM SCT070 OVC085 10/10 A2961 RMK AO2,K6B9,2023-04-30T09:55:00Z,42.92,-76.43,10.0,10.0,140,3,,10.0,29.610237,,,TRUE,TRUE,,,,,,,SCT,7000,OVC,8500,,,,,VFR,,,,,,,,,,,,METAR,306.0
K6B0 300955Z AUTO 12013G26KT 10SM OVC040 09/05 A2977 RMK AO2 T00870047,K6B0,2023-04-30T09:55:00Z,43.98,-73.1,8.7,4.7,120,13,26,10.0,29.769686,,,TRUE,TRUE,,,,,,,OVC,4000,,,,,,,VFR,,,,,,,,,,,,METAR,149.0
K6A2 300955Z AUTO 06003KT 4SM OVC004 15/15 A2945 RMK AO2 LTG DSNT SE AND W,K6A2,2023-04-30T09:55:00Z,33.23,-84.27,15.0,15.0,60,3,,4.0,29.450787,,,TRUE,TRUE,,,,,,,OVC,400,,,,,,,LIFR,,,,,,,,,,,,METAR,290.0
K6A1 300955Z AUTO 30009KT 10SM OVC009 15/15 A2946 RMK AO2 LTG DSNT NE AND E T01520151,K6A1,2023-04-30T09:55:00Z,32.57,-84.25,15.2,15.1,300,9,,10.0,29.459646,,,TRUE,TRUE,,,,,,,OVC,900,,,,,,,IFR,,,,,,,,,,,,SPECI,198.0
K66R 300955Z AUTO 00000KT 10SM CLR 11/09 A2994 RMK AO2 T01100089,K66R,2023-04-30T09:55:00Z,29.65,-96.52,11.0,8.9,0,0,,10.0,29.940945,,,TRUE,TRUE,,,,,,,CLR,,,,,,,,VFR,,,,,,,,,,,,METAR,70.0
K65S 300955Z AUTO 00000KT 9SM CLR 08/03 A2993 RMK AO2,K65S,2023-04-30T09:55:00Z,48.73,-116.3,8.0,3.0,0,0,,9.0,29.929134,,,TRUE,TRUE,,,,,,,CLR,,,,,,,,VFR,,,,,,,,,,,,METAR,708.0
K63S 300955Z AUTO 00000KT 10SM FEW055 FEW065 BKN110 08/05 A2988 RMK A01,K63S,2023-04-30T09:55:00Z,48.53,-117.88,8.0,5.0,0,0,,10.0,29.878937,,,TRUE,TRUE,,,,,,,FEW,5500,FEW,6500,BKN,11000,,,VFR,,,,,,,,,,,,METAR,571.0
K5T9 300955Z AUTO 00000KT 10SM CLR 10/07 A2996 RMK A01,K5T9,2023-04-30T09:55:00Z,28.85,-100.52,10.0,7.0,0,0,,10.0,29.958662,,,TRUE,TRUE,,,,,,,CLR,,,,,,,,VFR,,,,,,,,,,,,METAR,269.0
K5SM 300955Z AUTO 30008KT 10SM CLR 01/M07 A3033 RMK AO2,K5SM,2023-04-30T09:55:00Z,39.43,-107.38,1.0,-7.0,300,8,,10.0,30.33071,,,TRUE,TRUE,,,,,,,CLR,,,,,,,,VFR,,,,,,,,,,,,SPECI,3229.0
K5R8 300955Z AUTO 00000KT 10SM CLR 10/09 A2988 RMK AO2 T01000093,K5R8,2023-04-30T09:55:00Z,30.43,-93.47,10.0,9.3,0,0,,10.0,29.878937,,,TRUE,TRUE,,,,,,,CLR,,,,,,,,VFR,,,,,,,,,,,,SPECI,26.0
K5H4 300955Z AUTO 32008KT 10SM CLR M01/M12 A3010 RMK AO2,K5H4,2023-04-30T09:55:00Z,47.78,-99.93,-1.0,-12.0,320,8,,10.0,30.100393,,,TRUE,TRUE,,,,,,,CLR,,,,,,,,VFR,,,,,,,,,,,,METAR,490.0
K5C1 300955Z AUTO 00000KT 10SM CLR 07/04 A2999 RMK AO1,K5C1,2023-04-30T09:55:00Z,29.72,-98.7,7.0,4.0,0,0,,10.0,29.991142,,,TRUE,TRUE,,,,,,,CLR,,,,,,,,VFR,,,,,,,,,,,,SPECI,422.0
K5A6 300955Z AUTO 00000KT 10SM 12/12 A2970 RMK AO2 T01240118,K5A6,2023-04-30T09:55:00Z,33.47,-89.73,12.4,11.8,0,0,,10.0,29.698818,,,TRUE,TRUE,,,,,,,,,,,,,,,,,,,,,,,,,,,METAR,109.0
K57C 300955Z AUTO 26008KT 10SM SCT021 OVC027 04/02 A2942 RMK AO2 T00400020,K57C,2023-04-30T09:55:00Z,42.8,-88.37,4.0,2.0,260,8,,10.0,29.421259,,,TRUE,TRUE,,,,,,,SCT,2100,OVC,2700,,,,,MVFR,,,,,,,,,,,,METAR,454.0
K54J 300955Z AUTO 29005KT 10SM BKN009 OVC013 15/14 A2965 RMK AO2 T01450136,K54J,2023-04-30T09:55:00Z,30.73,-86.15,14.5,13.6,290,5,,10.0,29.648623,,,TRUE,TRUE,,,,,,,BKN,900,OVC,1300,,,,,IFR,,,,,,,,,,,,METAR,87.0
K4V1 300955Z AUTO 24008KT 10SM CLR 06/02 A3005 RMK AO2 T00580015,K4V1,2023-04-30T09:55:00Z,37.7,-104.78,5.8,1.5,240,8,,10.0,30.050198,,,TRUE,TRUE,,,,,,,CLR,,,,,,,,VFR,,,,,,,,,,,,METAR,1847.0
K4V0 300955Z AUTO 00000KT 10SM CLR 03/00 A3010 RMK AO2 T00280001,K4V0,2023-04-30T09:55:00Z,40.1,-108.77,2.8,0.1,0,0,,10.0,30.100393,,,TRUE,TRUE,,,,,,,CLR,,,,,,,,VFR,,,,,,,,,,,,METAR,1602.0
K4U6 300955Z AUTO 00000KT 10SM M01/M04 A3013 RMK A01 Circle ,K4U6,2023-04-30T09:55:00Z,47.42,-105.57,-1.0,-4.0,0,0,,10.0,30.129921,,,TRUE,TRUE,,,,,,,,,,,,,,,,,,,,,,,,,,,METAR,739.0
K4S2 300955Z AUTO 30014G21KT 10SM CLR 16/02 A2988 RMK AO2,K4S2,2023-04-30T09:55:00Z,45.68,-121.55,16.0,2.0,300,14,21,10.0,29.878937,,,TRUE,TRUE,,,,,,,CLR,,,,,,,,VFR,,,,,,,,,,,,METAR,183.0
K4S1 300955Z AUTO 00000KT 2 1/2SM -RA SCT003 BKN011 09/09 A3002 RMK AO2 P0001,K4S1,2023-04-30T09:55:00Z,42.42,-124.42,9.0,9.0,0,0,,2.5,30.02067,,,TRUE,TRUE,,,,,,-RA,SCT,300,BKN,1100,,,,,IFR,,,,,,0.01,,,,,,METAR,7.0
K4R5 300955Z AUTO 35009G15KT 310V010 7SM -RA SCT009 BKN018 OVC032 01/01 A2951 RMK AO2 P0003 T00100008,K4R5,2023-04-30T09:55:00Z,46.78,-90.77,1.0,0.8,350,9,15,7.0,29.509842,,,TRUE,TRUE,,,,,,-RA,SCT,900,BKN,1800,OVC,3200,,,MVFR,,,,,,0.03,,,,,,METAR,195.0
K4O4 300955Z AUTO 00000KT 9SM FEW060 SCT070 SCT085 09/08 A2982 RMK AO2,K4O4,2023-04-30T09:55:00Z,33.92,-94.87,9.0,8.0,0,0,,9.0,29.819881,,,TRUE,TRUE,,,,,,,FEW,6000,SCT,7000,SCT,8500,,,VFR,,,,,,,,,,,,SPECI,148.0
K4MR 300955Z AUTO 23007KT 10SM CLR 10/M05 A2996 RMK AO2 SLP081 T00951052 $,K4MR,2023-04-30T09:55:00Z,34.3,-103.8,9.5,-5.2,230,7,,10.0,29.958662,1008.1,,TRUE,TRUE,TRUE,,,,,,CLR,,,,,,,,VFR,,,,,,,,,,,,METAR,1339.0
K4M9 300955Z AUTO 31008KT 10SM CLR 10/06 A2973 RMK AO2 PWINO,K4M9,2023-04-30T09:55:00Z,36.4,-90.65,10.0,6.0,310,8,,10.0,29.731298,,,TRUE,TRUE,,,,,TRUE,,CLR,,,,,,,,VFR,,,,,,,,,,,,METAR,86.0
K4I3 300955Z AUTO 13003KT 10SM BKN065 09/08 A2946 RMK AO2,K4I3,2023-04-30T09:55:00Z,40.33,-82.53,9.0,8.0,130,3,,10.0,29.459646,,,TRUE,TRUE,,,,,,,BKN,6500,,,,,,,VFR,,,,,,,,,,,,METAR,361.0
K4F2 300955Z AUTO 00000KT 10SM CLR 09/08 A2985 RMK AO2 T00910078,K4F2,2023-04-30T09:55:00Z,32.18,-94.3,9.1,7.8,0,0,,10.0,29.84941,,,TRUE,TRUE,,,,,,,CLR,,,,,,,,VFR,,,,,,,,,,,,METAR,76.0
K4BM 300955Z AUTO 29007G16KT 10SM CLR 01/M09 A3031 RMK AO2,K4BM,2023-04-30T09:55:00Z,39.05,-105.52,1.0,-9.0,290,7,16,10.0,30.31004,,,TRUE,TRUE,,,,,,,CLR,,,,,,,,VFR,,,,,,,,,,,,METAR,3432.0
K4A9 300955Z AUTO 29003KT 7SM SCT038 BKN048 OVC070 15/15 A2953 RMK AO2 P0001 T01490145,K4A9,2023-04-30T09:55:00Z,34.47,-85.72,14.9,14.5,290,3,,7.0,29.530512,,,TRUE,TRUE,,,,,,,SCT,3800,BKN,4800,OVC,7000,,,VFR,,,,,,0.01,,,,,,SPECI,273.0
K4A6 300955Z AUTO 31006KT 10SM SCT038 BKN070 OVC080 15/15 A2956 RMK AO2,K4A6,2023-04-30T09:55:00Z,34.68,-86.0,15.0,15.0,310,6,,10.0,29.56004,,,TRUE,TRUE,,,,,,,SCT,3800,BKN,7000,OVC,8000,,,VFR,,,,,,,,,,,,METAR,191.0
K49A 300955Z AUTO 09003KT 3SM -RA BR FEW030 FEW060 OVC070 14/14 A2950 RMK AO2 P0006,K49A,2023-04-30T09:55:00Z,34.63,-84.53,14.0,14.0,90,3,,3.0,29.500984,,,TRUE,TRUE,,,,,,-RA BR,FEW,3000,FEW,6000,OVC,7000,,,MVFR,,,,,,0.06,,,,,,SPECI,449.0
K48A 300955Z AUTO 23008G19KT 10SM VCTS OVC009 19/18 A2947 RMK AO2 LTG DSNT N T01870180,K48A,2023-04-30T09:55:00Z,32.4,-83.27,18.7,18.0,230,8,19,10.0,29.471457,,,TRUE,TRUE,,,,,,VCTS,OVC,900,,,,,,,IFR,,,,,,,,,,,,SPECI,115.0
K46U 300955Z AUTO 00000KT 10SM CLR 00/M01 A3014 RMK A01,K46U,2023-04-30T09:55:00Z,43.18,-111.05,0.0,-1.0,0,0,,10.0,30.138779,,,TRUE,TRUE,,,,,,,CLR,,,,,,,,VFR,,,,,,,,,,,,METAR,1718.0
K46D 300955Z AUTO 34008KT 10SM CLR 01/01 A3007 RMK AO2,K46D,2023-04-30T09:55:00Z,47.45,-99.15,1.0,1.0,340,8,,10.0,30.070866,,,TRUE,TRUE,,,,,,,CLR,,,,,,,,VFR,,,,,,,,,,,,METAR,488.0
K42J 300955Z AUTO 26016G28KT 6SM BR FEW004 BKN019 OVC035 20/20 A2955 RMK A01,K42J,2023-04-30T09:55:00Z,29.85,-82.05,20.0,20.0,260,16,28,6.0,29.551182,,,TRUE,TRUE,,,,,,BR,FEW,400,BKN,1900,OVC,3500,,,MVFR,,,,,,,,,,,,METAR,57.0
K41U 300955Z AUTO 00000KT 10SM CLR 04/M03 A3011 RMK AO1 T00371030,K41U,2023-04-30T09:55:00Z,39.33,-111.6,3.7,-3.0,0,0,,10.0,30.109253,,,TRUE,TRUE,,,,,,,CLR,,,,,,,,VFR,,,,,,,,,,,,METAR,1676.0
K40U 300955Z AUTO 26005KT 10SM CLR 00/M03 A3014 RMK AO2 T10021029,K40U,2023-04-30T09:55:00Z,40.98,-109.68,-0.2,-2.9,260,5,,10.0,30.138779,,,TRUE,TRUE,,,,,,,CLR,,,,,,,,VFR,,,,,,,,,,,,SPECI,1882.0
K3T5 300955Z AUTO 24006KT 10SM CLR 12/11 A2992 RMK AO2 T01160107 $,K3T5,2023-04-30T09:55:00Z,29.9,-96.95,11.6,10.7,240,6,,10.0,29.920275,,,TRUE,TRUE,TRUE,,,,,,CLR,,,,,,,,VFR,,,,,,,,,,,,METAR,96.0
K3S8 300955Z AUTO 13003KT 10SM OVC095 11/01 A2999 RMK AO2,K3S8,2023-04-30T09:55:00Z,42.5,-123.4,11.0,1.0,130,3,,10.0,29.991142,,,TRUE,TRUE,,,,,,,OVC,9500,,,,,,,VFR,,,,,,,,,,,,METAR,339.0
K3R7 300955Z AUTO 28007KT 10SM CLR 12/12 A2987 RMK AO2 T01220121,K3R7,2023-04-30T09:55:00Z,30.25,-92.67,12.2,12.1,280,7,,10.0,29.870079,,,TRUE,TRUE,,,,,,,CLR,,,,,,,,VFR,,,,,,,,,,,,METAR,5.0
K3N8 300955Z AUTO 34013KT 10SM CLR 01/M02 A2987 RMK AO2 T00071025,K3N8,2023-04-30T09:55:00Z,47.25,-95.92,0.7,-2.5,340,13,,10.0,29.870079,,,TRUE,TRUE,,,,,,,CLR,,,,,,,,VFR,,,,,,,,,,,,METAR,379.0
K3L4 300955Z AUTO 28009KT 10SM CLR 15/14 A2987 RMK A01,K3L4,2023-04-30T09:55:00Z,29.8,-92.8,15.0,14.0,280,9,,10.0,29.870079,,,TRUE,TRUE,,,,,,,CLR,,,,,,,,VFR,,,,,,,,,,,,METAR,1.0
K3K3 300955Z AUTO 00000KT 10SM OVC110 05/02 A3001 RMK AO2,K3K3,2023-04-30T09:55:00Z,38.0,-101.75,5.0,2.0,0,0,,10.0,30.008858,,,TRUE,TRUE,,,,,,,OVC,11000,,,,,,,VFR,,,,,,,,,,,,SPECI,1010.0
K3F3 300955Z AUTO 17004KT 10SM CLR 11/09 A2988 RMK AO2 T01050092,K3F3,2023-04-30T09:55:00Z,32.07,-93.77,10.5,9.2,170,4,,10.0,29.878937,,,TRUE,TRUE,,,,,,,CLR,,,,,,,,VFR,,,,,,,,,,,,SPECI,96.0
K3D2 300955Z AUTO 23003KT 2 1/2SM BR OVC002 02/02 A2928 RMK AO2 T00180018,K3D2,2023-04-30T09:55:00Z,45.13,-87.18,1.8,1.8,230,3,,2.5,29.279528,,,TRUE,TRUE,,,,,,BR,OVC,200,,,,,,,LIFR,,,,,,,,,,,,METAR,233.0
K3AU 300955Z AUTO 32004KT 10SM CLR 07/00 A2989 RMK AO2,K3AU,2023-04-30T09:55:00Z,37.67,-97.08,7.0,0.0,320,4,,10.0,29.890747,,,TRUE,TRUE,,,,,,,CLR,,,,,,,,VFR,,,,,,,,,,,,METAR,403.0
K35A 300955Z AUTO 00000KT 7SM -RA SCT018 SCT065 BKN100 15/15 A2951 RMK A02 P0004 T01530150,K35A,2023-04-30T09:55:00Z,34.68,-81.63,15.3,15.0,0,0,,7.0,29.509842,,,TRUE,TRUE,,,,,,-RA,SCT,1800,SCT,6500,BKN,10000,,,VFR,,,,,,0.04,,,,,,METAR,186.0
K33V 300955Z AUTO 12006KT 10SM CLR 00/M04 A3017 RMK AO1,K33V,2023-04-30T09:55:00Z,40.75,-106.28,0.0,-4.0,120,6,,10.0,30.171259,,,TRUE,TRUE,,,,,,,CLR,,,,,,,,VFR,,,,,,,,,,,,METAR,2486.0
K33N 300955Z AUTO 12010G15KT 10SM OVC004 14/14 A2960 RMK A01,K33N,2023-04-30T09:55:00Z,39.22,-75.6,14.0,14.0,120,10,15,10.0,29.601377,,,TRUE,TRUE,,,,,,,OVC,400,,,,,,,LIFR,,,,,,,,,,,,METAR,17.0
K2V5 300955Z AUTO 35007KT 10SM CLR 02/M02 A3006 RMK AO2,K2V5,2023-04-30T09:55:00Z,40.1,-102.25,2.0,-2.0,350,7,,10.0,30.059055,,,TRUE,TRUE,,,,,,,CLR,,,,,,,,VFR,,,,,,,,,,,,METAR,1117.0
K2R9 300955Z AUTO 00000KT 10SM CLR 10/09 A2998 RMK AO2 T01020088,K2R9,2023-04-30T09:55:00Z,28.82,-97.87,10.2,8.8,0,0,,10.0,29.97933,,,TRUE,TRUE,,,,,,,CLR,,,,,,,,VFR,,,,,,,,,,,,SPECI,88.0
K2P2 300955Z AUTO 19006KT 1 1/2SM BR OVC003 03/03 A2928 RMK AO2 T00270027,K2P2,2023-04-30T09:55:00Z,45.38,-86.92,2.7,2.7,190,6,,1.5,29.279528,,,TRUE,TRUE,,,,,,BR,OVC,300,,,,,,,LIFR,,,,,,,,,,,,METAR,182.0
K2M2 300955Z AUTO 00000KT 7SM FEW060 11/10 A2958 RMK A01,K2M2,2023-04-30T09:55:00Z,35.23,-87.25,11.0,10.0,0,0,,7.0,29.58071,,,TRUE,TRUE,,,,,,,FEW,6000,,,,,,,VFR,,,,,,,,,,,,METAR,286.0
K2J9 300955Z AUTO 29010KT 10SM SCT013 BKN021 BKN048 17/17 A2960 RMK AO2,K2J9,2023-04-30T09:55:00Z,30.6,-84.55,17.0,17.0,290,10,,10.0,29.601377,,,TRUE,TRUE,,,,,,,SCT,1300,BKN,2100,BKN,4800,,,MVFR,,,,,,,,,,,,METAR,62.0
K2J5 300955Z AUTO 14006KT 10SM BKN011 OVC030 19/18 A2947 RMK AO2 LTG DSNT W T01900183,K2J5,2023-04-30T09:55:00Z,32.9,-81.97,19.0,18.3,140,6,,10.0,29.471457,,,TRUE,TRUE,,,,,,,BKN,1100,OVC,3000,,,,,MVFR,,,,,,,,,,,,METAR,72.0
K2J3 300955Z AUTO 00000KT 10SM SCT002 OVC012 17/17 A2946 RMK AO2 LTG DSNT W T01730169,K2J3,2023-04-30T09:55:00Z,32.98,-82.38,17.3,16.9,0,0,,10.0,29.459646,,,TRUE,TRUE,,,,,,,SCT,200,OVC,1200,,,,,MVFR,,,,,,,,,,,,METAR,97.0
K2IS 300955Z AUTO 20013KT 10SM CLR 25/22 A2969 RMK AO2 LTG DSNT W AND NW T02490224,K2IS,2023-04-30T09:55:00Z,26.73,-81.05,24.9,22.4,200,13,,10.0,29.68996,,,TRUE,TRUE,,,,,,,CLR,,,,,,,,VFR,,,,,,,,,,,,SPECI,5.0
K2I0 300955Z AUTO 30006KT 10SM CLR 09/06 A2962 RMK AO2 T00900055,K2I0,2023-04-30T09:55:00Z,37.35,-87.4,9.0,5.5,300,6,,10.0,29.619095,,,TRUE,TRUE,,,,,,,CLR,,,,,,,,VFR,,,,,,,,,,,,SPECI,127.0
K2G9 300955Z AUTO 00000KT 10SM BKN008 BKN014 OVC065 10/10 A2953 RMK AO2 P0001,K2G9,2023-04-30T09:55:00Z,40.03,-79.02,10.0,10.0,0,0,,10.0,29.530512,,,TRUE,TRUE,,,,,,,BKN,800,BKN,1400,OVC,6500,,,IFR,,,,,,0.01,,,,,,METAR,677.0
K2G4 300955Z AUTO 19007KT 10SM OVC075 11/10 A2953 RMK AO2,K2G4,2023-04-30T09:55:00Z,39.58,-79.33,11.0,10.0,190,7,,10.0,29.530512,,,TRUE,TRUE,,,,,,,OVC,7500,,,,,,,VFR,,,,,,,,,,,,METAR,908.0
K2DP 300955Z AUTO 18009KT 10SM -RA BKN080 OVC095 19/19 A2956 RMK AO2 RAE07DZB07E18RAB18E31RAB51 SLPNO P0002 T01920192 $,K2DP,2023-04-30T09:55:00Z,35.68,-75.9,19.2,19.2,180,9,,10.0,29.56004,,,TRUE,TRUE,TRUE,,,,,-RA,BKN,8000,OVC,9500,,,,,VFR,,,,,,0.02,,,,,,METAR,1.0
K2D5 300955Z AUTO 34017KT 10SM FEW042 SCT055 02/02 A2997 RMK AO2,K2D5,2023-04-30T09:55:00Z,46.17,-98.08,2.0,2.0,340,17,,10.0,29.970472,,,TRUE,TRUE,,,,,,,FEW,4200,SCT,5500,,,,,VFR,,,,,,,,,,,,METAR,407.0
K2C8 300955Z AUTO 33013G18KT 10SM CLR 02/02 A3002 RMK AO2,K2C8,2023-04-30T09:55:00Z,48.78,-97.63,2.0,2.0,330,13,18,10.0,30.02067,,,TRUE,TRUE,,,,,,,CLR,,,,,,,,VFR,,,,,,,,,,,,METAR,271.0
K2A0 300955Z AUTO 35005KT 10SM SCT039 BKN055 OVC090 14/14 A2950 RMK A01,K2A0,2023-04-30T09:55:00Z,35.48,-84.93,14.0,14.0,350,5,,10.0,29.500984,,,TRUE,TRUE,,,,,,,SCT,3900,BKN,5500,OVC,9000,,,VFR,,,,,,,,,,,,METAR,219.0
K28J 300955Z AUTO 22009G14KT 2SM -RA BR SCT004 BKN014 OVC021 19/18 A2956 RMK AO2 LTG DSNT NE AND E VIS 3/4V5,K28J,2023-04-30T09:55:00Z,29.65,-81.68,19.0,18.0,220,9,14,2.0,29.56004,,,TRUE,TRUE,,,,,,-RA BR,SCT,400,BKN,1400,OVC,2100,,,IFR,,,,,,,,,,,,METAR,9.0
K24J 300955Z AUTO 22008KT 10SM FEW013 SCT036 SCT060 19/19 A2955 RMK A01 P0003,K24J,2023-04-30T09:55:00Z,30.3,-83.03,19.0,19.0,220,8,,10.0,29.551182,,,TRUE,TRUE,,,,,,,FEW,1300,SCT,3600,SCT,6000,,,VFR,,,,,,0.03,,,,,,METAR,30.0
K22N 300955Z AUTO 00000KT 10SM SCT008 OVC022 10/08 A2968 RMK AO2,K22N,2023-04-30T09:55:00Z,40.8,-75.77,10.0,8.0,0,0,,10.0,29.681103,,,TRUE,TRUE,,,,,,,SCT,800,OVC,2200,,,,,MVFR,,,,,,,,,,,,METAR,159.0
K21D 300955Z AUTO 34012G19KT 10SM -DZ SCT019 BKN029 OVC035 02/00 A2961 RMK AO2,K21D,2023-04-30T09:55:00Z,45.0,-92.85,2.0,0.0,340,12,19,10.0,29.610237,,,TRUE,TRUE,,,,,,-DZ,SCT,1900,BKN,2900,OVC,3500,,,MVFR,,,,,,,,,,,,METAR,281.0
K20V 300955Z AUTO 00000KT 10SM CLR 00/M02 A3017 RMK AO2,K20V,2023-04-30T09:55:00Z,40.05,-106.37,0.0,-2.0,0,0,,10.0,30.171259,,,TRUE,TRUE,,,,,,,CLR,,,,,,,,VFR,,,,,,,,,,,,METAR,2259.0
K20U 300955Z AUTO 00000KT 10SM CLR M03/M06 A3016 RMK AO2,K20U,2023-04-30T09:55:00Z,46.93,-103.98,-3.0,-6.0,0,0,,10.0,30.159449,,,TRUE,TRUE,,,,,,,CLR,,,,,,,,VFR,,,,,,,,,,,,METAR,839.0
K1YT 300955Z AUTO 08007KT 10SM BKN130 14/06 A2977 RMK AO2 SLP077 T01360062 $,K1YT,2023-04-30T09:55:00Z,46.67,-120.45,13.6,6.2,80,7,,10.0,29.769686,1007.7,,TRUE,TRUE,TRUE,,,,,,BKN,13000,,,,,,,VFR,,,,,,,,,,,,METAR,423.0
K1V6 300955Z AUTO 31007KT 10SM CLR 08/01 A3004 RMK AO2,K1V6,2023-04-30T09:55:00Z,38.43,-105.1,8.0,1.0,310,7,,10.0,30.041338,,,TRUE,TRUE,,,,,,,CLR,,,,,,,,VFR,,,,,,,,,,,,SPECI,1658.0
K1U7 300955Z AUTO 00000KT 10SM CLR M03/M03 A3012 RMK A01,K1U7,2023-04-30T09:55:00Z,42.25,-111.33,-3.0,-3.0,0,0,,10.0,30.121063,,,TRUE,TRUE,,,,,,,CLR,,,,,,,,VFR,,,,,,,,,,,,METAR,1808.0
K1S5 300955Z AUTO 00000KT 10SM CLR 12/08 A2978 RMK AO2 T01190084,K1S5,2023-04-30T09:55:00Z,46.33,-119.97,11.9,8.4,0,0,,10.0,29.778543,,,TRUE,TRUE,,,,,,,CLR,,,,,,,,VFR,,,,,,,,,,,,METAR,228.0
K1R8 300955Z AUTO 30007KT 10SM OVC010 15/15 A2968 RMK AO2,K1R8,2023-04-30T09:55:00Z,30.87,-87.82,15.0,15.0,300,7,,10.0,29.681103,,,TRUE,TRUE,,,,,,,OVC,1000,,,,,,,MVFR,,,,,,,,,,,,SPECI,76.0
K1R7 300955Z AUTO 28003KT 10SM CLR 12/13 A2979 RMK AO2 PWINO,K1R7,2023-04-30T09:55:00Z,31.6,-90.42,12.0,13.0,280,3,,10.0,29.790354,,,TRUE,TRUE,,,,,TRUE,,CLR,,,,,,,,VFR,,,,,,,,,,,,METAR,142.0
K1P1 300955Z AUTO 09007KT 3SM DZ OVC016 06/05 A2992 RMK AO2 P0001 T00620052,K1P1,2023-04-30T09:55:00Z,43.78,-71.75,6.2,5.2,90,7,,3.0,29.920275,,,TRUE,TRUE,,,,,,DZ,OVC,1600,,,,,,,MVFR,,,,,,0.01,,,,,,METAR,155.0
K1OW 300955Z AUTO 03009KT 10SM BKN120 04/M03 A3020 RMK AO2 SLP196 T00431032 $,K1OW,2023-04-30T09:55:00Z,40.88,-104.0,4.3,-3.2,30,9,,10.0,30.200787,1019.6,,TRUE,TRUE,TRUE,,,,,,BKN,12000,,,,,,,VFR,,,,,,,,,,,,METAR,1650.0
K1ON 300955Z AUTO 34007KT 10SM CLR M02/M03 M RMK AO2 SLPNO T10191032 $,K1ON,2023-04-30T09:55:00Z,,,-1.9,-3.2,340,7,,10.0,,,,TRUE,TRUE,TRUE,,,,,,CLR,,,,,,,,VFR,,,,,,,,,,,,METAR,
K1OM 300955Z AUTO 16015KT 10SM CLR 08/M04 A3003 RMK AO2 SLP171 T00791042 $,K1OM,2023-04-30T09:55:00Z,47.33,-108.93,7.9,-4.2,160,15,,10.0,30.029528,1017.1,,TRUE,TRUE,TRUE,,,,,,CLR,,,,,,,,VFR,,,,,,,,,,,,METAR,1088.0
K1NW 300955Z AUTO 06006KT 10SM FEW130 03/M01 A3008 RMK AO2 SLP159 T00311013 $,K1NW,2023-04-30T09:55:00Z,40.63,-103.83,3.1,-1.3,60,6,,10.0,30.079725,1015.9,,TRUE,TRUE,TRUE,,,,,,FEW,13000,,,,,,,VFR,,,,,,,,,,,,METAR,1461.0
K1MW 300955Z AUTO 01006KT 10SM SCT120 03/M03 A3007 RMK AO2 SLP162 T00261027 $,K1MW,2023-04-30T09:55:00Z,40.7,-103.48,2.6,-2.7,10,6,,10.0,30.070866,1016.2,,TRUE,TRUE,TRUE,,,,,,SCT,12000,,,,,,,VFR,,,,,,,,,,,,METAR,1338.0
K1MM 300955Z AUTO 11006KT 10SM SCT140 04/M01 A3003 RMK AO2 SLP170 T00441014 $,K1MM,2023-04-30T09:55:00Z,47.02,-109.63,4.4,-1.4,110,6,,10.0,30.029528,1017.0,,TRUE,TRUE,TRUE,,,,,,SCT,14000,,,,,,,VFR,,,,,,,,,,,,METAR,1256.0
K1LW 300955Z AUTO 01011KT 10SM FEW110 04/M03 A3007 RMK AO2 SLP159 T00371033 $,K1LW,2023-04-30T09:55:00Z,40.92,-103.7,3.7,-3.3,10,11,,10.0,30.070866,1015.9,,TRUE,TRUE,TRUE,,,,,,FEW,11000,,,,,,,VFR,,,,,,,,,,,,METAR,1514.0
K1LN 300955Z AUTO 31004KT 10SM CLR M00/M00 A3015 RMK AO2 SLP226 T10021003 $,K1LN,2023-04-30T09:55:00Z,,,-0.2,-0.3,310,4,,10.0,30.15059,1022.6,,TRUE,TRUE,TRUE,,,,,,CLR,,,,,,,,VFR,,,,,,,,,,,,METAR,
K1KM 300955Z AUTO 00000KT 10SM CLR 04/M03 A3008 RMK AO2 SLP183 T00371029 $,K1KM,2023-04-30T09:55:00Z,46.45,-109.8,3.7,-2.9,0,0,,10.0,30.079725,1018.3,,TRUE,TRUE,TRUE,,,,,,CLR,,,,,,,,VFR,,,,,,,,,,,,METAR,1332.0
K1JW 300955Z AUTO 34008KT 10SM SCT130 04/M04 M RMK AO2 SLPNO T00401042 $,K1JW,2023-04-30T09:55:00Z,40.97,-103.2,4.0,-4.2,340,8,,10.0,,,,TRUE,TRUE,TRUE,,,,,,SCT,13000,,,,,,,VFR,,,,,,,,,,,,METAR,1382.0
K1JN 300955Z AUTO 32007KT 10SM CLR M01/M01 A3011 RMK AO2 SLP218 T10091010 $,K1JN,2023-04-30T09:55:00Z,,,-0.9,-1.0,320,7,,10.0,30.109253,1021.8,,TRUE,TRUE,TRUE,,,,,,CLR,,,,,,,,VFR,,,,,,,,,,,,METAR,
K1JM 300955Z AUTO 12006KT 10SM CLR 06/01 A2997 RMK AO2 SLP153 T00550007 $,K1JM,2023-04-30T09:55:00Z,47.75,-111.55,5.5,0.7,120,6,,10.0,29.970472,1015.3,,TRUE,TRUE,TRUE,,,,,,CLR,,,,,,,,VFR,,,,,,,,,,,,METAR,1154.0
K1IW 300955Z AUTO 35005KT 10SM BKN120 BKN240 02/M04 A3005 RMK AO2 SLP161 T00221039 $,K1IW,2023-04-30T09:55:00Z,41.05,-102.87,2.2,-3.9,350,5,,10.0,30.050198,1016.1,,TRUE,TRUE,TRUE,,,,,,BKN,12000,BKN,24000,,,,,VFR,,,,,,,,,,,,METAR,1294.0
K1IN 300955Z AUTO 01008KT 10SM CLR M01/M02 A3012 RMK AO2 SLP223 T10081018 $,K1IN,2023-04-30T09:55:00Z,,,-0.8,-1.8,10,8,,10.0,30.121063,1022.3,,TRUE,TRUE,TRUE,,,,,,CLR,,,,,,,,VFR,,,,,,,,,,,,METAR,
K1IM 300955Z AUTO 00000KT 10SM CLR 06/03 A2996 RMK AO2 SLP148 T00630026 $,K1IM,2023-04-30T09:55:00Z,47.32,-111.47,6.3,2.6,0,0,,10.0,29.958662,1014.8,,TRUE,TRUE,TRUE,,,,,,CLR,,,,,,,,VFR,,,,,,,,,,,,METAR,1110.0
K1HW 300955Z AUTO 33007KT 10SM CLR 01/M04 A3006 RMK AO2 SLP166 T00121039 $,K1HW,2023-04-30T09:55:00Z,41.32,-102.83,1.2,-3.9,330,7,,10.0,30.059055,1016.6,,TRUE,TRUE,TRUE,,,,,,CLR,,,,,,,,VFR,,,,,,,,,,,,METAR,1265.0
K1HN 300955Z AUTO 02004KT 10SM CLR M04/M05 A3013 RMK AO2 SLP226 T10371050 $,K1HN,2023-04-30T09:55:00Z,,,-3.7,-5.0,20,4,,10.0,30.129921,1022.6,,TRUE,TRUE,TRUE,,,,,,CLR,,,,,,,,VFR,,,,,,,,,,,,METAR,
K1HM 300955Z AUTO 00000KT 10SM CLR 04/M01 A2996 RMK AO2 SLP149 T00381008 $,K1HM,2023-04-30T09:55:00Z,47.7,-111.95,3.8,-0.8,0,0,,10.0,29.958662,1014.9,,TRUE,TRUE,TRUE,,,,,,CLR,,,,,,,,VFR,,,,,,,,,,,,METAR,1181.0
K1H2 300955Z AUTO 24006KT 10SM OVC005 05/05 A2962 RMK AO2 T00520048,K1H2,2023-04-30T09:55:00Z,39.07,-88.53,5.2,4.8,240,6,,10.0,29.619095,,,TRUE,TRUE,,,,,,,OVC,500,,,,,,,IFR,,,,,,,,,,,,SPECI,174.0
K1GN 300955Z AUTO 01006KT 10SM CLR M02/M02 A3010 RMK AO2 SLP221 T10241025 $,K1GN,2023-04-30T09:55:00Z,,,-2.4,-2.5,10,6,,10.0,30.100393,1022.1,,TRUE,TRUE,TRUE,,,,,,CLR,,,,,,,,VFR,,,,,,,,,,,,METAR,
K1GM 300955Z AUTO 25005KT 10SM CLR 05/01 M RMK AO2 SLPNO T00470014 $,K1GM,2023-04-30T09:55:00Z,47.33,-112.1,4.7,1.4,250,5,,10.0,,,,TRUE,TRUE,TRUE,,,,,,CLR,,,,,,,,VFR,,,,,,,,,,,,METAR,1317.0
K1FW 300955Z AUTO 01007KT 10SM FEW110 04/M05 A3007 RMK AO2 SLP156 T00371050 $,K1FW,2023-04-30T09:55:00Z,41.37,-103.48,3.7,-5.0,10,7,,10.0,30.070866,1015.6,,TRUE,TRUE,TRUE,,,,,,FEW,11000,,,,,,,VFR,,,,,,,,,,,,METAR,1451.0
K1F0 300955Z AUTO 27005KT 10SM CLR 12/06 A2984 RMK AO2 T01190064,K1F0,2023-04-30T09:55:00Z,34.15,-97.12,11.9,6.4,270,5,,10.0,29.840551,,,TRUE,TRUE,,,,,,,CLR,,,,,,,,VFR,,,,,,,,,,,,METAR,256.0
K1EW 300955Z AUTO 19007KT 10SM CLR 02/M03 A3007 RMK AO2 SLP156 T00161029 $,K1EW,2023-04-30T09:55:00Z,41.12,-103.98,1.6,-2.9,190,7,,10.0,30.070866,1015.6,,TRUE,TRUE,TRUE,,,,,,CLR,,,,,,,,VFR,,,,,,,,,,,,METAR,1609.0
K1EN 300955Z AUTO 35005KT 10SM CLR M03/M04 A2988 RMK AO2 SLP144 T10281038 $,K1EN,2023-04-30T09:55:00Z,,,-2.8,-3.8,350,5,,10.0,29.878937,1014.4,,TRUE,TRUE,TRUE,,,,,,CLR,,,,,,,,VFR,,,,,,,,,,,,METAR,
K1EM 300955Z AUTO 14007KT 10SM CLR 03/M02 A3002 RMK AO2 SLP176 T00341019 $,K1EM,2023-04-30T09:55:00Z,47.45,-109.42,3.4,-1.9,140,7,,10.0,30.02067,1017.6,,TRUE,TRUE,TRUE,,,,,,CLR,,,,,,,,VFR,,,,,,,,,,,,METAR,1118.0
K1DN 300955Z AUTO 01008KT 10SM CLR M02/M03 A2848 RMK AO2 SLP657 T10181029 $,K1DN,2023-04-30T09:55:00Z,,,-1.8,-2.9,10,8,,10.0,28.47933,965.7,,TRUE,TRUE,TRUE,,,,,,CLR,,,,,,,,VFR,,,,,,,,,,,,METAR,
K1DM 300955Z AUTO 17006KT 10SM CLR 06/M02 A3003 RMK AO2 SLP172 T00561018 $,K1DM,2023-04-30T09:55:00Z,47.37,-109.8,5.6,-1.8,170,6,,10.0,30.029528,1017.2,,TRUE,TRUE,TRUE,,,,,,CLR,,,,,,,,VFR,,,,,,,,,,,,METAR,1093.0
K1CW 300955Z AUTO 00000KT 10SM CLR 03/M06 A3010 RMK AO2 SLP171 T00321060 $,K1CW,2023-04-30T09:55:00Z,41.58,-103.57,3.2,-6.0,0,0,,10.0,30.100393,1017.1,,TRUE,TRUE,TRUE,,,,,,CLR,,,,,,,,VFR,,,,,,,,,,,,METAR,1370.0
K1CN 300955Z AUTO 02012KT 10SM CLR M00/M02 A3008 RMK AO2 SLP204 T10011017 $,K1CN,2023-04-30T09:55:00Z,,,-0.1,-1.7,20,12,,10.0,30.079725,1020.4,,TRUE,TRUE,TRUE,,,,,,CLR,,,,,,,,VFR,,,,,,,,,,,,METAR,
K1CM 300955Z AUTO 00000KT 10SM CLR 05/01 A3002 RMK AO2 SLP164 T00520013 $,K1CM,2023-04-30T09:55:00Z,47.1,-110.17,5.2,1.3,0,0,,10.0,30.02067,1016.4,,TRUE,TRUE,TRUE,,,,,,CLR,,,,,,,,VFR,,,,,,,,,,,,METAR,1338.0
K1BW 300955Z AUTO 01004KT 10SM BKN110 04/M05 A3013 RMK AO2 SLP177 T00371055 $,K1BW,2023-04-30T09:55:00Z,41.52,-104.0,3.7,-5.5,10,4,,10.0,30.129921,1017.7,,TRUE,TRUE,TRUE,,,,,,BKN,11000,,,,,,,VFR,,,,,,,,,,,,METAR,1606.0
K1BN 300955Z AUTO 33006KT 10SM CLR M01/M02 A3009 RMK AO2 SLP208 T10061019 $,K1BN,2023-04-30T09:55:00Z,,,-0.6,-1.9,330,6,,10.0,30.088583,1020.8,,TRUE,TRUE,TRUE,,,,,,CLR,,,,,,,,VFR,,,,,,,,,,,,METAR,
K1BM 300955Z AUTO 25005KT 10SM CLR 05/01 A3002 RMK AO2 SLP167 T00480006 $,K1BM,2023-04-30T09:55:00Z,47.28,-110.37,4.8,0.6,250,5,,10.0,30.02067,1016.7,,TRUE,TRUE,TRUE,,,,,,CLR,,,,,,,,VFR,,,,,,,,,,,,METAR,1234.0
K1AM 300955Z AUTO 10007KT 10SM CLR 07/01 A3000 RMK AO2 SLP157 T00710014 $,K1AM,2023-04-30T09:55:00Z,47.28,-110.8,7.1,1.4,100,7,,10.0,30.0,1015.7,,TRUE,TRUE,TRUE,,,,,,CLR,,,,,,,,VFR,,,,,,,,,,,,METAR,1228.0
K1A9 300955Z AUTO 28009G17KT 7SM +RA SCT008 BKN012 OVC050 15/15 A2957 RMK AO2 P0001 T01500150,K1A9,2023-04-30T09:55:00Z,32.43,-86.52,15.0,15.0,280,9,17,7.0,29.568897,,,TRUE,TRUE,,,,,,+RA,SCT,800,BKN,1200,OVC,5000,,,MVFR,,,,,,0.01,,,,,,METAR,65.0
K1A6 300955Z AUTO 00000KT 10SM SCT003 SCT038 OVC070 11/11 A2953 RMK AO2 T01050105,K1A6,2023-04-30T09:55:00Z,36.62,-83.73,10.5,10.5,0,0,,10.0,29.530512,,,TRUE,TRUE,,,,,,,SCT,300,SCT,3800,OVC,7000,,,VFR,,,,,,,,,,,,SPECI,348.0
K19S 300955Z AUTO 35007KT 10SM CLR 08/05 A2999 RMK AO2 T00770049,K19S,2023-04-30T09:55:00Z,37.48,-100.83,7.7,4.9,350,7,,10.0,29.991142,,,TRUE,TRUE,,,,,,,CLR,,,,,,,,VFR,,,,,,,,,,,,METAR,886.0
K18H 300955Z AUTO 32019G24KT 10SM BKN039 BKN049 22/13 A2991 RMK A01,K18H,2023-04-30T09:55:00Z,26.13,-92.03,22.0,13.0,320,19,24,10.0,29.911417,,,TRUE,TRUE,,,,,,,BKN,3900,BKN,4900,,,,,VFR,,,,,,,,,,,,METAR,30.0
K18A 300955Z AUTO 00000KT 1 1/4SM RA BR BKN010 BKN033 OVC065 15/15 A2956 RMK AO2 LTG DSNT SW P0003 T01510149,K18A,2023-04-30T09:55:00Z,34.35,-83.13,15.1,14.9,0,0,,1.25,29.56004,,,TRUE,TRUE,,,,,,RA BR,BKN,1000,BKN,3300,OVC,6500,,,IFR,,,,,,0.03,,,,,,METAR,260.0
K17J 300955Z AUTO 29008G14KT 10SM SCT014 BKN065 15/13 A2959 RMK AO2 T01520134,K17J,2023-04-30T09:55:00Z,31.0,-84.87,15.2,13.4,290,8,14,10.0,29.589567,,,TRUE,TRUE,,,,,,,SCT,1400,BKN,6500,,,,,VFR,,,,,,,,,,,,SPECI,42.0
K15M 300955Z AUTO 00000KT 5SM BR CLR 11/11 A2963 RMK AO2 T01150115 $,K15M,2023-04-30T09:55:00Z,34.77,-88.17,11.5,11.5,0,0,,5.0,29.630905,,,TRUE,TRUE,TRUE,,,,,BR,CLR,,,,,,,,MVFR,,,,,,,,,,,,METAR,192.0
K14Y 300955Z AUTO 34015G21KT 10SM CLR 02/M02 A2975 RMK AO2,K14Y,2023-04-30T09:55:00Z,45.9,-94.87,2.0,-2.0,340,15,21,10.0,29.749016,,,TRUE,TRUE,,,,,,,CLR,,,,,,,,VFR,,,,,,,,,,,,METAR,404.0
K13K 300955Z AUTO 29010KT 10SM CLR 05/03 A2987 RMK AO2 T00540032,K13K,2023-04-30T09:55:00Z,37.85,-96.3,5.4,3.2,290,10,,10.0,29.870079,,,TRUE,TRUE,,,,,,,CLR,,,,,,,,VFR,,,,,,,,,,,,SPECI,367.0
K10G 300955Z AUTO 16003KT 7SM RA SCT036 BKN065 OVC080 10/08 A2946 RMK AO2 P0001,K10G,2023-04-30T09:55:00Z,40.53,-81.95,10.0,8.0,160,3,,7.0,29.459646,,,TRUE,TRUE,,,,,,RA,SCT,3600,BKN,6500,OVC,8000,,,VFR,,,,,,0.01,,,,,,METAR,371.0
K0VG 300955Z AUTO 00000KT 3/4SM BR BKN050 BKN075 10/11 A2951 RMK AO2,K0VG,2023-04-30T09:55:00Z,36.65,-83.22,10.0,11.0,0,0,,0.75,29.509842,,,TRUE,TRUE,,,,,,BR,BKN,5000,BKN,7500,,,,,LIFR,,,,,,,,,,,,METAR,426.0
K0V4 300955Z AUTO 30003KT 7SM SCT007 SCT060 OVC080 16/15 A2952 RMK AO1,K0V4,2023-04-30T09:55:00Z,37.15,-79.02,16.0,15.0,300,3,,7.0,29.518702,,,TRUE,TRUE,,,,,,,SCT,700,SCT,6000,OVC,8000,,,VFR,,,,,,,,,,,,METAR,186.0
K0S9 300955Z AUTO 00000KT 8SM FEW037 BKN050 BKN060 07/06 A2988 RMK AO2,K0S9,2023-04-30T09:55:00Z,48.05,-122.82,7.0,6.0,0,0,,8.0,29.878937,,,TRUE,TRUE,,,,,,,FEW,3700,BKN,5000,BKN,6000,,,VFR,,,,,,,,,,,,METAR,33.0
K0R0 300955Z AUTO 31005KT 10SM FEW009 SCT013 BKN019 15/14 A2978 RMK AO2,K0R0,2023-04-30T09:55:00Z,31.3,-89.82,15.0,14.0,310,5,,10.0,29.778543,,,TRUE,TRUE,,,,,,,FEW,900,SCT,1300,BKN,1900,,,MVFR,,,,,,,,,,,,METAR,76.0
K0F2 300955Z AUTO 10SM CLR 13/05 A2988 RMK AO2 T01310054,K0F2,2023-04-30T09:55:00Z,33.6,-97.78,13.1,5.4,,,,10.0,29.878937,,,TRUE,TRUE,,,,,,,CLR,,,,,,,,VFR,,,,,,,,,,,,METAR,330.0
K0E0 300955Z AUTO 00000KT 10SM CLR 03/M06 A3011 RMK AO2 T00291065,K0E0,2023-04-30T09:55:00Z,34.98,-106.0,2.9,-6.5,0,0,,10.0,30.109253,,,TRUE,TRUE,,,,,,,CLR,,,,,,,,VFR,,,,,,,,,,,,METAR,1887.0
K0CO 300955Z AUTO 33022KT CLR M04/M10 A3029 RMK AO2 PWINO,K0CO,2023-04-30T09:55:00Z,39.8,-105.77,-4.0,-10.0,330,22,,,30.28937,,,TRUE,TRUE,,,,,TRUE,,CLR,,,,,,,,,,,,,,,,,,,,METAR,3804.0
K0A9 300955Z AUTO 00000KT 7SM FEW045 SCT065 OVC080 14/14 A2951 RMK AO2,K0A9,2023-04-30T09:55:00Z,36.37,-82.17,14.0,14.0,0,0,,7.0,29.509842,,,TRUE,TRUE,,,,,,,FEW,4500,SCT,6500,OVC,8000,,,VFR,,,,,,,,,,,,METAR,479.0
K0A0 300955Z AUTO 33004KT 10SM CLR 09/M10 A3007 RMK AO2,K0A0,2023-04-30T09:55:00Z,32.98,-106.97,9.0,-10.0,330,4,,10.0,30.070866,,,TRUE,TRUE,,,,,,,CLR,,,,,,,,VFR,,,,,,,,,,,,METAR,1401.0
K08D 300955Z AUTO 36004KT 10SM CLR M02/M02 A3015 RMK AO2,K08D,2023-04-30T09:55:00Z,48.3,-102.4,-2.0,-2.0,360,4,,10.0,30.15059,,,TRUE,TRUE,,,,,,,CLR,,,,,,,,VFR,,,,,,,,,,,,METAR,683.0
K06D 300955Z AUTO 33011KT 10SM CLR M00/M01 A3008 RMK AO2,K06D,2023-04-30T09:55:00Z,48.88,-99.62,0.0,-1.0,330,11,,10.0,30.079725,,,TRUE,TRUE,,,,,,,CLR,,,,,,,,VFR,,,,,,,,,,,,METAR,554.0
K06C 300955Z AUTO 26005KT 10SM SCT060 BKN075 05/05 A2947 RMK AO2 T00510045,K06C,2023-04-30T09:55:00Z,41.98,-88.1,5.1,4.5,260,5,,10.0,29.471457,,,TRUE,TRUE,,,,,,,SCT,6000,BKN,7500,,,,,VFR,,,,,,,,,,,,SPECI,243.0
K04V 300955Z AUTO 30011KT 10SM CLR 03/M05 A3019 RMK AO2,K04V,2023-04-30T09:55:00Z,38.1,-106.17,3.0,-5.0,300,11,,10.0,30.188976,,,TRUE,TRUE,,,,,,,CLR,,,,,,,,VFR,,,,,,,,,,,,SPECI,2389.0
FJDG 300955Z 11006KT 9999 FEW020 SCT220 31/26 A2972 RMK SLP061 T031240256,FJDG,2023-04-30T09:55:00Z,-7.32,72.42,31.2,26.0,110,6,,6.21,29.719488,1006.1,,,,,,,,,,FEW,2000,SCT,22000,,,,,VFR,,,,,,,,,,,,SPECI,3.0
ETOU 300955Z AUTO 04008KT 9999 CLR 16/M04 A3017 RMK AO2 SLP220 T01571043 $,ETOU,2023-04-30T09:55:00Z,50.03,8.32,15.7,-4.3,40,8,,6.21,30.171259,1022.0,,TRUE,TRUE,TRUE,,,,,,CLR,,,,,,,,VFR,,,,,,,,,,,,SPECI,141.0
ETIK 300955Z AUTO 05011KT 9999 SCT045 15/07 A3015 RMK AO2 SLP213 T01450071 FZRANO $,ETIK,2023-04-30T09:55:00Z,49.47,10.38,14.5,7.1,50,11,,6.21,30.15059,1021.3,,TRUE,TRUE,TRUE,,,TRUE,,,SCT,4500,,,,,,,VFR,,,,,,,,,,,,METAR,326.0
ETIH 300955Z AUTO 05007KT 9999 SCT038 BKN050 13/04 A3015 RMK AO2 SLP214 T01300042 $,ETIH,2023-04-30T09:55:00Z,49.22,11.83,13.0,4.2,50,7,,6.21,30.15059,1021.4,,TRUE,TRUE,TRUE,,,,,,SCT,3800,BKN,5000,,,,,VFR,,,,,,,,,,,,METAR,436.0
ETIC 300955Z AUTO 02006KT 9999 CLR 15/02 A3013 RMK AO2 SLP208 T01450021 $,ETIC,2023-04-30T09:55:00Z,49.7,11.93,14.5,2.1,20,6,,6.21,30.129921,1020.8,,TRUE,TRUE,TRUE,,,,,,CLR,,,,,,,,VFR,,,,,,,,,,,,METAR,414.0
ETEB 300955Z AUTO 05009KT 9999 BKN048 BKN130 13/05 A3013 RMK AO2 SLP220 T01310048 $,ETEB,2023-04-30T09:55:00Z,49.32,10.63,13.1,4.8,50,9,,6.21,30.129921,1022.0,,TRUE,TRUE,TRUE,,,,,,BKN,4800,BKN,13000,,,,,VFR,,,,,,,,,,,,METAR,466.0
ETAR 300955Z AUTO 06015G19KT 9999 BKN050 14/06 A3013 RMK AO2 SLP208 T01420055 $,ETAR,2023-04-30T09:55:00Z,49.43,7.58,14.2,5.5,60,15,19,6.21,30.129921,1020.8,,TRUE,TRUE,TRUE,,,,,,BKN,5000,,,,,,,VFR,,,,,,,,,,,,SPECI,231.0
ETAD 300955Z AUTO 09014KT 9999 SCT041 SCT190 14/05 A3014 RMK AO2 SLP201 T01380054,ETAD,2023-04-30T09:55:00Z,49.98,6.7,13.8,5.4,90,14,,6.21,30.138779,1020.1,,TRUE,TRUE,,,,,,,SCT,4100,SCT,19000,,,,,VFR,,,,,,,,,,,,SPECI,365.0
EHWO 300955Z AUTO VRB06KT 9999 OVC290 15/06 Q1023 BLU,EHWO,2023-04-30T09:55:00Z,51.45,4.33,15.0,6.0,0,6,,6.21,30.206694,,,TRUE,,,,,,,,OVC,29000,,,,,,,VFR,,,,,,,,,,,,METAR,15.0
EHVL 300955Z AUTO 15008KT 9999 OVC031 11/06 Q1024 BLU,EHVL,2023-04-30T09:55:00Z,53.28,5.08,11.0,6.0,150,8,,6.21,30.236221,,,TRUE,,,,,,,,OVC,3100,,,,,,,VFR,,,,,,,,,,,,METAR,2.0
EHVK 300955Z AUTO 06006KT 360V090 9999 BKN290 14/08 Q1023 BLU,EHVK,2023-04-30T09:55:00Z,51.65,5.7,14.0,8.0,60,6,,6.21,30.206694,,,TRUE,,,,,,,,BKN,29000,,,,,,,VFR,,,,,,,,,,,,METAR,20.0
EHSC 300955Z AUTO 10006KT 9999 ///////// 10/08 Q1024 W11/H4,EHSC,2023-04-30T09:55:00Z,51.93,3.67,10.0,8.0,100,6,,6.21,30.236221,,,TRUE,,,,,,,,,,,,,,,,,,,,,,,,,,,,METAR,19.0
EHSA 300955Z AUTO 10006KT 9999 ///////// 10/07 Q1023 W09/H6,EHSA,2023-04-30T09:55:00Z,52.0,3.28,10.0,7.0,100,6,,6.21,30.206694,,,TRUE,,,,,,,,,,,,,,,,,,,,,,,,,,,,METAR,18.0
EHRD 300955Z AUTO VRB05KT 9999 NSC 15/09 Q1023 NOSIG,EHRD,2023-04-30T09:55:00Z,51.95,4.45,15.0,9.0,0,5,,6.21,30.206694,,,TRUE,,,TRUE,,,,,CLR,,,,,,,,VFR,,,,,,,,,,,,METAR,-4.0
EHPG 300955Z AUTO 13009KT 070V160 9999 NSC 10/07 Q1023,EHPG,2023-04-30T09:55:00Z,52.37,3.35,10.0,7.0,130,9,,6.21,30.206694,,,TRUE,,,,,,,,CLR,,,,,,,,VFR,,,,,,,,,,,,METAR,24.0
EHMG 300955Z AUTO 18007KT 9999 FEW023 09/06 Q1025,EHMG,2023-04-30T09:55:00Z,53.62,4.97,9.0,6.0,180,7,,6.21,30.265747,,,TRUE,,,,,,,,FEW,2300,,,,,,,VFR,,,,,,,,,,,,METAR,30.0
EHMA 300955Z AUTO 14010KT 9999 NSC 09/05 Q1024,EHMA,2023-04-30T09:55:00Z,53.5,5.95,9.0,5.0,140,10,,6.21,30.236221,,,TRUE,,,,,,,,CLR,,,,,,,,VFR,,,,,,,,,,,,METAR,27.0
EHLW 300955Z AUTO VRB06KT 9999 OVC038 12/06 Q1024 BLU,EHLW,2023-04-30T09:55:00Z,53.22,5.75,12.0,6.0,0,6,,6.21,30.236221,,,TRUE,,,,,,,,OVC,3800,,,,,,,VFR,,,,,,,,,,,,METAR,1.0
EHLE 300955Z AUTO 12005KT 040V170 9999 NSC 13/07 Q1024 NOSIG,EHLE,2023-04-30T09:55:00Z,52.45,5.52,13.0,7.0,120,5,,6.21,30.236221,,,TRUE,,,TRUE,,,,,CLR,,,,,,,,VFR,,,,,,,,,,,,METAR,-3.0
EHKV 300955Z AUTO 16010KT 9999 FEW010 SCT012 10/07 Q1024,EHKV,2023-04-30T09:55:00Z,53.27,3.63,10.0,7.0,160,10,,6.21,30.236221,,,TRUE,,,,,,,,FEW,1000,SCT,1200,,,,,VFR,,,,,,,,,,,,METAR,28.0
EHKD 300955Z AUTO 12006KT 070V150 9999 BKN015 BKN250 12/09 Q1024 WHT,EHKD,2023-04-30T09:55:00Z,52.92,4.77,12.0,9.0,120,6,,6.21,30.236221,,,TRUE,,,,,,,,BKN,1500,BKN,25000,,,,,MVFR,,,,,,,,,,,,METAR,1.0
EHJR 300955Z AUTO 15010KT //// // ///////// 10/07 Q1024 RE// W10/H9,EHJR,2023-04-30T09:55:00Z,53.22,3.22,10.0,7.0,150,10,,,30.236221,,,TRUE,,,,,,,,,,,,,,,,,,,,,,,,,,,,METAR,31.0
EHJA 300955Z AUTO 15014KT 9999 FEW007/// 09/08 Q1023,EHJA,2023-04-30T09:55:00Z,53.82,2.95,9.0,8.0,150,14,,6.21,30.206694,,,TRUE,,,,,,,,FEW,700,,,,,,,VFR,,,,,,,,,,,,METAR,34.0
EHHW 300955Z AUTO 15005KT 120V240 9999 BKN027/// 08/03 Q1025,EHHW,2023-04-30T09:55:00Z,54.03,6.03,8.0,3.0,150,5,,6.21,30.265747,,,TRUE,,,,,,,,BKN,2700,,,,,,,MVFR,,,,,,,,,,,,METAR,10.0
EHGR 300955Z AUTO 03007KT 330V140 9999 OVC310 15/07 Q1023 BLU,EHGR,2023-04-30T09:55:00Z,51.55,4.93,15.0,7.0,30,7,,6.21,30.206694,,,TRUE,,,,,,,,OVC,31000,,,,,,,VFR,,,,,,,,,,,,METAR,12.0
EHGG 300955Z AUTO VRB03KT 9999 OVC032 11/05 Q1025 NOSIG,EHGG,2023-04-30T09:55:00Z,53.12,6.57,11.0,5.0,0,3,,6.21,30.265747,,,TRUE,,,TRUE,,,,,OVC,3200,,,,,,,VFR,,,,,,,,,,,,METAR,2.0
EHFS 300955Z AUTO 10004KT 070V140 9999 NSC 14/09 Q1023,EHFS,2023-04-30T09:55:00Z,51.45,3.6,14.0,9.0,100,4,,6.21,30.206694,,,TRUE,,,,,,,,CLR,,,,,,,,VFR,,,,,,,,,,,,METAR,1.0
EHFD 300955Z AUTO 15014KT 9999 SCT018/// OVC021/// 08/04 Q1024,EHFD,2023-04-30T09:55:00Z,54.85,4.7,8.0,4.0,150,14,,6.21,30.236221,,,TRUE,,,,,,,,SCT,1800,OVC,2100,,,,,MVFR,,,,,,,,,,,,METAR,24.0
EHEH 300955Z AUTO 04006KT 350V100 9999 OVC300 15/07 Q1023 BLU NOSIG,EHEH,2023-04-30T09:55:00Z,51.45,5.38,15.0,7.0,40,6,,6.21,30.206694,,,TRUE,,,TRUE,,,,,OVC,30000,,,,,,,VFR,,,,,,,,,,,,METAR,20.0
EHDV 300955Z AUTO 16019KT 9999 FEW031/// 09/// Q1023,EHDV,2023-04-30T09:55:00Z,54.32,2.93,,,160,19,,6.21,30.206694,,,TRUE,,,,,,,,FEW,3100,,,,,,,VFR,,,,,,,,,,,,METAR,36.0
EHDL 300955Z AUTO VRB06KT 9999 OVC290 14/05 Q1024 BLU,EHDL,2023-04-30T09:55:00Z,52.07,5.88,14.0,5.0,0,6,,6.21,30.236221,,,TRUE,,,,,,,,OVC,29000,,,,,,,VFR,,,,,,,,,,,,METAR,49.0
EHBK 300955Z AUTO 06008KT 030V110 9999 NSC 15/08 Q1022 NOSIG,EHBK,2023-04-30T09:55:00Z,50.92,5.77,15.0,8.0,60,8,,6.21,30.177166,,,TRUE,,,TRUE,,,,,CLR,,,,,,,,VFR,,,,,,,,,,,,METAR,112.0
EHAM 300955Z 10004KT 040V170 9999 FEW023 14/08 Q1024 NOSIG,EHAM,2023-04-30T09:55:00Z,52.32,4.78,14.0,8.0,100,4,,6.21,30.236221,,,,,,TRUE,,,,,FEW,2300,,,,,,,VFR,,,,,,,,,,,,METAR,-2.0
EHAK 300955Z AUTO 17018KT 9999 FEW014/// SCT017/// BKN023/// 07/05 Q1023,EHAK,2023-04-30T09:55:00Z,55.38,3.82,7.0,5.0,170,18,,6.21,30.206694,,,TRUE,,,,,,,,FEW,1400,SCT,1700,BKN,2300,,,MVFR,,,,,,,,,,,,METAR,33.0
EGVA 300955Z AUTO 17007KT 9999 FEW160 FEW180 FEW200 13/10 A3013 RMK AO2 SLP207 T01280100 FZRANO $,EGVA,2023-04-30T09:55:00Z,51.67,-1.78,12.8,10.0,170,7,,6.21,30.129921,1020.7,,TRUE,TRUE,TRUE,,,TRUE,,,FEW,16000,FEW,18000,FEW,20000,,,VFR,,,,,,,,,,,,SPECI,84.0
EGUN 300955Z AUTO 19007KT 9999 FEW026 FEW170 15/13 A3017 RMK AO2 SLP220 T01490126 $,EGUN,2023-04-30T09:55:00Z,52.37,0.48,14.9,12.6,190,7,,6.21,30.171259,1022.0,,TRUE,TRUE,TRUE,,,,,,FEW,2600,FEW,17000,,,,,VFR,,,,,,,,,,,,SPECI,10.0
EGUL 300955Z AUTO 17009KT 9999 FEW027 16/14 A3016 RMK AO2 SLP217 T01560140 $,EGUL,2023-04-30T09:55:00Z,52.42,0.57,15.6,14.0,170,9,,6.21,30.159449,1021.7,,TRUE,TRUE,TRUE,,,,,,FEW,2700,,,,,,,VFR,,,,,,,,,,,,SPECI,8.0
EBLB 300955Z AUTO 10009KT 9999 FEW034/// 13/02 Q1022 BLU,EBLB,2023-04-30T09:55:00Z,50.47,6.17,13.0,2.0,100,9,,6.21,30.177166,,,TRUE,,,,,,,,FEW,3400,,,,,,,VFR,,,,,,,,,,,,METAR,563.0
EBFS 300955Z AUTO 05005KT 9999 FEW029/// SCT042/// 14/07 Q1021 BLU,EBFS,2023-04-30T09:55:00Z,50.23,4.65,14.0,7.0,50,5,,6.21,30.147638,,,TRUE,,,,,,,,FEW,2900,SCT,4200,,,,,VFR,,,,,,,,,,,,METAR,276.0
EBFN 300955Z AUTO 10004KT 9999 NCD 15/09 Q1022 BLU,EBFN,2023-04-30T09:55:00Z,51.08,2.65,15.0,9.0,100,4,,6.21,30.177166,,,TRUE,,,,,,,,CLR,,,,,,,,VFR,,,,,,,,,,,,METAR,9.0
EBDT 300955Z AUTO 09007KT 9999 NCD 16/06 Q1022 BLU,EBDT,2023-04-30T09:55:00Z,51.02,5.07,16.0,6.0,90,7,,6.21,30.177166,,,TRUE,,,,,,,,CLR,,,,,,,,VFR,,,,,,,,,,,,METAR,25.0
EBCV 300955Z AUTO 09009KT 9999 FEW047/// BKN100/// BKN110/// 16/08 Q1022 BLU,EBCV,2023-04-30T09:55:00Z,50.57,3.82,16.0,8.0,90,9,,6.21,30.177166,,,TRUE,,,,,,,,FEW,4700,BKN,10000,BKN,11000,,,VFR,,,,,,,,,,,,METAR,56.0
EBBL 300955Z AUTO 08006KT 9999 NCD 15/05 Q1023 BLU,EBBL,2023-04-30T09:55:00Z,51.17,5.47,15.0,5.0,80,6,,6.21,30.206694,,,TRUE,,,,,,,,CLR,,,,,,,,VFR,,,,,,,,,,,,METAR,50.0
EBBE 300955Z AUTO 05009KT 9999 NCD 14/06 Q1022 BLU,EBBE,2023-04-30T09:55:00Z,50.75,4.77,14.0,6.0,50,9,,6.21,30.177166,,,TRUE,,,,,,,,CLR,,,,,,,,VFR,,,,,,,,,,,,METAR,127.0
PHOG 300954Z AUTO 04010KT 10SM FEW065 23/18 A3010 RMK AO2 SLP198 T02280183 402940200 TSNO $,PHOG,2023-04-30T09:54:00Z,20.9,-156.43,22.8,18.3,40,10,,10.0,30.100393,1019.8,,TRUE,TRUE,TRUE,,TRUE,,,,FEW,6500,,,,,,,VFR,,,,29.4,20.0,,,,,,,METAR,14.0
PHMK 300954Z AUTO 05010G17KT 10SM CLR 22/19 A3011 RMK AO2 SLP197 T02220189 402830200 TSNO,PHMK,2023-04-30T09:54:00Z,21.15,-157.1,22.2,18.9,50,10,17,10.0,30.109253,1019.7,,TRUE,TRUE,,,TRUE,,,,CLR,,,,,,,,VFR,,,,28.3,20.0,,,,,,,SPECI,135.0
PGUM 300954Z 09007KT 10SM SCT019 SCT028 28/24 A2988 RMK AO2 SLP109 T02780239,PGUM,2023-04-30T09:54:00Z,13.48,144.8,27.8,23.9,90,7,,10.0,29.878937,1010.9,,,TRUE,,,,,,,SCT,1900,SCT,2800,,,,,VFR,,,,,,,,,,,,SPECI,74.0
PGSN 300954Z 09012KT 10SM SCT023 27/23 A2989 RMK AO2 SLP143 T02720233 $,PGSN,2023-04-30T09:54:00Z,15.12,145.72,27.2,23.3,90,12,,10.0,29.890747,1014.3,,,TRUE,TRUE,,,,,,SCT,2300,,,,,,,VFR,,,,,,,,,,,,SPECI,65.0
PAKN 300954Z 13008KT 10SM CLR 02/M02 A2970 RMK AO2 SLP057 T00221022,PAKN,2023-04-30T09:54:00Z,58.68,-156.65,2.2,-2.2,130,8,,10.0,29.698818,1005.7,,,TRUE,,,,,,,CLR,,,,,,,,VFR,,,,,,,,,,,,METAR,20.0
PAHN 300954Z AUTO 00000KT OVC070 09/07 A2980 RMK AO2 RAE10 SLP093 P0000 T00890067 TSNO $,PAHN,2023-04-30T09:54:00Z,59.25,-135.52,8.9,6.7,0,0,,,29.799213,1009.3,,TRUE,TRUE,TRUE,,TRUE,,,,OVC,7000,,,,,,,,,,,,,0.005,,,,,,METAR,15.0
KWLD 300954Z AUTO 30003KT 10SM CLR 06/02 A2989 RMK AO2 SLP117 T00610022 $,KWLD,2023-04-30T09:54:00Z,37.17,-97.03,6.1,2.2,300,3,,10.0,29.890747,1011.7,,TRUE,TRUE,TRUE,,,,,,CLR,,,,,,,,VFR,,,,,,,,,,,,METAR,351.0
KWAL 300954Z AUTO 11008KT 9SM OVC003 16/15 A2958 RMK AO2 RAE0859 SLP014 P0000 T01610150,KWAL,2023-04-30T09:54:00Z,37.93,-75.47,16.1,15.0,110,8,,9.0,29.58071,1001.4,,TRUE,TRUE,,,,,,,OVC,300,,,,,,,LIFR,,,,,,0.005,,,,,,METAR,10.0
KVSF 300954Z AUTO 03003KT 3SM -RA BR OVC015 08/06 A2986 RMK AO2 SLP115 P0002 T00780061,KVSF,2023-04-30T09:54:00Z,43.35,-72.52,7.8,6.1,30,3,,3.0,29.861221,1011.5,,TRUE,TRUE,,,,,,-RA BR,OVC,1500,,,,,,,MVFR,,,,,,0.02,,,,,,METAR,176.0
KUIN 300954Z AUTO 25007KT 10SM BKN039 OVC050 06/04 A2963 RMK AO2 SLP032 T00560044,KUIN,2023-04-30T09:54:00Z,39.95,-91.2,5.6,4.4,250,7,,10.0,29.630905,1003.2,,TRUE,TRUE,,,,,,,BKN,3900,OVC,5000,,,,,VFR,,,,,,,,,,,,METAR,233.0
KTQE 300954Z AUTO 32012KT 10SM CLR 04/01 A2985 RMK AO2 SLP104 T00440006,KTQE,2023-04-30T09:54:00Z,41.77,-96.18,4.4,0.6,320,12,,10.0,29.84941,1010.4,,TRUE,TRUE,,,,,,,CLR,,,,,,,,VFR,,,,,,,,,,,,METAR,312.0
KTAD 300954Z AUTO 27007KT 10SM CLR 05/00 A3003 RMK AO2 SLP116 T00500000,KTAD,2023-04-30T09:54:00Z,37.27,-104.33,5.0,0.0,270,7,,10.0,30.029528,1011.6,,TRUE,TRUE,,,,,,,CLR,,,,,,,,VFR,,,,,,,,,,,,METAR,1751.0
KSYR 300954Z 08009KT 10SM BKN090 BKN220 09/07 A2963 RMK AO2 SLP032 T00940072,KSYR,2023-04-30T09:54:00Z,43.12,-76.1,9.4,7.2,80,9,,10.0,29.630905,1003.2,,,TRUE,,,,,,,BKN,9000,BKN,22000,,,,,VFR,,,,,,,,,,,,METAR,125.0
KSUS 300954Z AUTO 25009KT 10SM CLR 05/04 A2964 RMK AO2 SLP037 T00500039,KSUS,2023-04-30T09:54:00Z,38.65,-90.65,5.0,3.9,250,9,,10.0,29.639763,1003.7,,TRUE,TRUE,,,,,,,CLR,,,,,,,,VFR,,,,,,,,,,,,METAR,140.0
KSLC 300954Z 14007KT 10SM CLR 14/M01 A3000 RMK AO2 SLP113 T01391006,KSLC,2023-04-30T09:54:00Z,40.77,-111.97,13.9,-0.6,140,7,,10.0,30.0,1011.3,,,TRUE,,,,,,,CLR,,,,,,,,VFR,,,,,,,,,,,,METAR,1286.0
KSET 300954Z AUTO 27008KT 10SM FEW060 07/04 A2963 RMK AO2 SLP033 T00670044,KSET,2023-04-30T09:54:00Z,38.93,-90.43,6.7,4.4,270,8,,10.0,29.630905,1003.3,,TRUE,TRUE,,,,,,,FEW,6000,,,,,,,VFR,,,,,,,,,,,,METAR,133.0
KSBY 300954Z 08006KT 10SM -RA OVC007 15/14 A2957 RMK AO2 RAB43 SLP015 P0000 T01500139,KSBY,2023-04-30T09:54:00Z,38.33,-75.5,15.0,13.9,80,6,,10.0,29.568897,1001.5,,,TRUE,,,,,,-RA,OVC,700,,,,,,,IFR,,,,,,0.005,,,,,,METAR,14.0
KSBN 300954Z AUTO 29009KT 10SM BKN050 OVC065 06/02 A2948 RMK AO2 SLP984 T00610022,KSBN,2023-04-30T09:54:00Z,41.7,-86.32,6.1,2.2,290,9,,10.0,29.480314,998.4,,TRUE,TRUE,,,,,,,BKN,5000,OVC,6500,,,,,VFR,,,,,,,,,,,,METAR,236.0
KRST 300954Z 33018G26KT 10SM OVC039 04/M02 A2955 RMK AO2 PK WND 31032/0915 SLP013 T00391017,KRST,2023-04-30T09:54:00Z,43.9,-92.5,3.9,-1.7,330,18,26,10.0,29.551182,1001.3,,,TRUE,,,,,,,OVC,3900,,,,,,,VFR,,,,,,,,,,,,METAR,398.0
KRSP 300954Z AUTO 15005KT 1/2SM -RA FG VV002 14/12 A2958 RMK AO2 SLP016 P0008 T01390117 $,KRSP,2023-04-30T09:54:00Z,39.65,-77.47,13.9,11.7,150,5,,0.5,29.58071,1001.6,,TRUE,TRUE,TRUE,,,,,-RA FG,OVX,0,,,,,,,LIFR,,,,,,0.08,,,,,200,METAR,555.0
KROC 300954Z 12009KT 10SM SCT085 BKN100 BKN250 11/09 A2955 RMK AO2 SLP009 T01060089,KROC,2023-04-30T09:54:00Z,43.12,-77.68,10.6,8.9,120,9,,10.0,29.551182,1000.9,,,TRUE,,,,,,,SCT,8500,BKN,10000,BKN,25000,,,VFR,,,,,,,,,,,,METAR,166.0
KROA 300954Z 15007KT 1SM -RA BR BKN005 BKN009 OVC060 17/16 A2954 RMK AO2 SFC VIS 2 SLP993 P0001 T01670156,KROA,2023-04-30T09:54:00Z,37.32,-79.97,16.7,15.6,150,7,,1.0,29.53937,999.3,,,TRUE,,,,,,-RA BR,BKN,500,BKN,900,OVC,6000,,,IFR,,,,,,0.01,,,,,,METAR,349.0
KRKS 300954Z AUTO 30004KT 10SM CLR 07/M06 A3013 RMK AO2 SLP140 T00671056,KRKS,2023-04-30T09:54:00Z,41.6,-109.07,6.7,-5.6,300,4,,10.0,30.129921,1014.0,,TRUE,TRUE,,,,,,,CLR,,,,,,,,VFR,,,,,,,,,,,,METAR,2062.0
KRIC 300954Z 18004KT 5SM BR BKN004 BKN065 OVC100 17/16 A2951 RMK AO2 SLP996 RAB18 TSB29E49 LTG DSNT NW-N CB DSNT N P0007 T01720161,KRIC,2023-04-30T09:54:00Z,37.52,-77.32,17.2,16.1,180,4,,5.0,29.509842,999.6,,,TRUE,,,,,,BR,BKN,400,BKN,6500,OVC,10000,,,LIFR,,,,,,0.07,,,,,,METAR,51.0
KRFD 300954Z 25010KT 10SM OVC075 05/01 A2949 RMK AO2 SLP988 T00500011 $,KRFD,2023-04-30T09:54:00Z,42.2,-89.1,5.0,1.1,250,10,,10.0,29.489174,998.8,,,TRUE,TRUE,,,,,,OVC,7500,,,,,,,VFR,,,,,,,,,,,,METAR,222.0
KRDG 300954Z AUTO 04006KT 2 1/2SM BR OVC005 11/10 A2964 RMK AO2 CIG 004V008 SLP042 T01110100,KRDG,2023-04-30T09:54:00Z,40.37,-75.97,11.1,10.0,40,6,,2.5,29.639763,1004.2,,TRUE,TRUE,,,,,,BR,OVC,500,,,,,,,IFR,,,,,,,,,,,,METAR,101.0
KRBL 300954Z AUTO 00000KT 10SM CLR 18/11 A2985 RMK AO2 SLP103 T01780111,KRBL,2023-04-30T09:54:00Z,40.15,-122.25,17.8,11.1,0,0,,10.0,29.84941,1010.3,,TRUE,TRUE,,,,,,,CLR,,,,,,,,VFR,,,,,,,,,,,,METAR,107.0
KPTW 300954Z AUTO VRB06KT 2SM BR OVC003 09/09 A2967 RMK AO2 SLP046 T00940094,KPTW,2023-04-30T09:54:00Z,40.23,-75.55,9.4,9.4,0,6,,2.0,29.66929,1004.6,,TRUE,TRUE,,,,,,BR,OVC,300,,,,,,,LIFR,,,,,,,,,,,,METAR,88.0
KPSF 300954Z AUTO 04008KT 10SM OVC011 08/06 A2976 RMK AO2 SLP070 T00780056,KPSF,2023-04-30T09:54:00Z,42.43,-73.28,7.8,5.6,40,8,,10.0,29.760826,1007.0,,TRUE,TRUE,,,,,,,OVC,1100,,,,,,,MVFR,,,,,,,,,,,,METAR,352.0
KPNE 300954Z AUTO 05009KT 1/2SM FG VV002 12/11 A2969 RMK AO2 SLP054 T01170106 RVRNO,KPNE,2023-04-30T09:54:00Z,40.08,-75.02,11.7,10.6,50,9,,0.5,29.68996,1005.4,,TRUE,TRUE,,,,,,FG,OVX,0,,,,,,,LIFR,,,,,,,,,,,200,METAR,32.0
KPLN 300954Z AUTO 17004KT 10SM FEW016 04/03 A2935 RMK AO2 SLP944 T00390028,KPLN,2023-04-30T09:54:00Z,45.57,-84.8,3.9,2.8,170,4,,10.0,29.350393,994.4,,TRUE,TRUE,,,,,,,FEW,1600,,,,,,,VFR,,,,,,,,,,,,METAR,215.0
KPIA 300954Z 27007KT 10SM SCT070 OVC090 06/03 A2956 RMK AO2 SLP011 T00610033,KPIA,2023-04-30T09:54:00Z,40.67,-89.68,6.1,3.3,270,7,,10.0,29.56004,1001.1,,,TRUE,,,,,,,SCT,7000,OVC,9000,,,,,VFR,,,,,,,,,,,,METAR,200.0
KPHF 300954Z 13005KT 9SM OVC007 17/16 A2954 RMK AO2 LTG DSNT E CIG 006V011 SLP001 T01720161,KPHF,2023-04-30T09:54:00Z,37.13,-76.5,17.2,16.1,130,5,,9.0,29.53937,1000.1,,,TRUE,,,,,,,OVC,700,,,,,,,IFR,,,,,,,,,,,,METAR,12.0
KORH 300954Z 05009G14KT 1/4SM R11/4500V6000FT FG VV002 08/07 A2980 RMK AO2 RAE16 SLP096 P0001 T00780072,KORH,2023-04-30T09:54:00Z,42.27,-71.87,7.8,7.2,50,9,14,0.25,29.799213,1009.6,,,TRUE,,,,,,FG,OVX,0,,,,,,,LIFR,,,,,,0.01,,,,,200,METAR,306.0
KOLS 300954Z AUTO 06005KT 10SM CLR 13/M06 A3001 RMK AO2 SLP099 T01281056,KOLS,2023-04-30T09:54:00Z,31.42,-110.85,12.8,-5.6,60,5,,10.0,30.008858,1009.9,,TRUE,TRUE,,,,,,,CLR,,,,,,,,VFR,,,,,,,,,,,,METAR,1194.0
KOLM 300954Z AUTO 21006KT 10SM CLR 08/06 A2994 RMK AO2 SLP138 T00780061,KOLM,2023-04-30T09:54:00Z,46.97,-122.9,7.8,6.1,210,6,,10.0,29.940945,1013.8,,TRUE,TRUE,,,,,,,CLR,,,,,,,,VFR,,,,,,,,,,,,METAR,58.0
KNY0 300954Z AUTO 11004KT 10SM OVC004 07/06 A2975 RMK AO2,KNY0,2023-04-30T09:54:00Z,42.98,-74.33,7.0,6.0,110,4,,10.0,29.749016,,,TRUE,TRUE,,,,,,,OVC,400,,,,,,,LIFR,,,,,,,,,,,,SPECI,266.0
KNAK 300954Z AUTO 05003KT 10SM OVC018 16/14 A2956 RMK AO2 SLP012 T01560144 $,KNAK,2023-04-30T09:54:00Z,38.98,-76.48,15.6,14.4,50,3,,10.0,29.56004,1001.2,,TRUE,TRUE,TRUE,,,,,,OVC,1800,,,,,,,MVFR,,,,,,,,,,,,METAR,2.0
KMVL 300954Z AUTO 00000KT 9SM -RA OVC017 07/06 A2984 RMK AO2 RAE0855B11E23B54 SLP109 P0000 T00720056,KMVL,2023-04-30T09:54:00Z,44.53,-72.62,7.2,5.6,0,0,,9.0,29.840551,1010.9,,TRUE,TRUE,,,,,,-RA,OVC,1700,,,,,,,MVFR,,,,,,0.005,,,,,,METAR,226.0
KMTP 300954Z AUTO 00000KT 12/12 A2974 RMK AO1 SLP070 T01170117,KMTP,2023-04-30T09:54:00Z,41.07,-71.92,11.7,11.7,0,0,,,29.740158,1007.0,,TRUE,TRUE,,,,,,,,,,,,,,,,,,,,,,,,,,,METAR,2.0
KMRY 300954Z AUTO 24006KT 10SM OVC008 10/08 A3000 RMK AO2 SLP170 T01000083,KMRY,2023-04-30T09:54:00Z,36.58,-121.85,10.0,8.3,240,6,,10.0,30.0,1017.0,,TRUE,TRUE,,,,,,,OVC,800,,,,,,,IFR,,,,,,,,,,,,METAR,51.0
KMOT 300954Z AUTO 30009KT 10SM CLR M01/M02 A3012 RMK AO2 SLP214 T10061022,KMOT,2023-04-30T09:54:00Z,48.25,-101.27,-0.6,-2.2,300,9,,10.0,30.121063,1021.4,,TRUE,TRUE,,,,,,,CLR,,,,,,,,VFR,,,,,,,,,,,,METAR,507.0
KMKC 300954Z 27006KT 10SM CLR 08/02 A2979 RMK AO2 SLP084 T00780017,KMKC,2023-04-30T09:54:00Z,39.12,-94.6,7.8,1.7,270,6,,10.0,29.790354,1008.4,,,TRUE,,,,,,,CLR,,,,,,,,VFR,,,,,,,,,,,,METAR,228.0
KMIV 300954Z AUTO 11008KT 3SM BR OVC002 13/13 A2963 RMK AO2 SLP033 T01280128 $,KMIV,2023-04-30T09:54:00Z,39.37,-75.08,12.8,12.8,110,8,,3.0,29.630905,1003.3,,TRUE,TRUE,TRUE,,,,,BR,OVC,200,,,,,,,LIFR,,,,,,,,,,,,METAR,18.0
KMGJ 300954Z AUTO 03008KT 6SM BR OVC003 08/08 A2972 RMK AO2 SLP065 T00830078,KMGJ,2023-04-30T09:54:00Z,41.52,-74.27,8.3,7.8,30,8,,6.0,29.719488,1006.5,,TRUE,TRUE,,,,,,BR,OVC,300,,,,,,,LIFR,,,,,,,,,,,,METAR,106.0
KMFI 300954Z AUTO 31016G24KT 6SM -SN BR SCT011 SCT017 OVC022 01/M01 A2939 RMK AO2 SLP963 P0000 T00111006,KMFI,2023-04-30T09:54:00Z,44.63,-90.18,1.1,-0.6,310,16,24,6.0,29.388779,996.3,,TRUE,TRUE,,,,,,-SN BR,SCT,1100,SCT,1700,OVC,2200,,,MVFR,,,,,,0.005,,,,,,METAR,383.0
KMEM 300954Z 31009KT 10SM CLR 12/08 A2968 RMK AO2 SLP048 T01220078 $,KMEM,2023-04-30T09:54:00Z,35.07,-89.98,12.2,7.8,310,9,,10.0,29.681103,1004.8,,,TRUE,TRUE,,,,,,CLR,,,,,,,,VFR,,,,,,,,,,,,METAR,78.0
KLYH 300954Z AUTO 24004KT 5SM -RA BR SCT024 BKN029 OVC070 15/14 A2954 RMK AO2 SLP995 P0011 T01500139,KLYH,2023-04-30T09:54:00Z,37.32,-79.2,15.0,13.9,240,4,,5.0,29.53937,999.5,,TRUE,TRUE,,,,,,-RA BR,SCT,2400,BKN,2900,OVC,7000,,,MVFR,,,,,,0.11,,,,,,METAR,282.0
KLWT 300954Z AUTO 09009KT 10SM CLR 06/M04 A3006 RMK AO2 SLP163 T00561044,KLWT,2023-04-30T09:54:00Z,47.05,-109.47,5.6,-4.4,90,9,,10.0,30.059055,1016.3,,TRUE,TRUE,,,,,,,CLR,,,,,,,,VFR,,,,,,,,,,,,METAR,1254.0
KLWM 300954Z AUTO 06011G17KT 5SM BR OVC006 08/07 A2989 RMK AO2 RAE51 SLP123 P0002 T00830067,KLWM,2023-04-30T09:54:00Z,42.72,-71.13,8.3,6.7,60,11,17,5.0,29.890747,1012.3,,TRUE,TRUE,,,,,,BR,OVC,600,,,,,,,IFR,,,,,,0.02,,,,,,METAR,42.0
KLOT 300954Z AUTO 24008KT 10SM CLR 04/03 A2950 RMK AO2,KLOT,2023-04-30T09:54:00Z,41.6,-88.1,4.0,3.0,240,8,,10.0,29.500984,,,TRUE,TRUE,,,,,,,CLR,,,,,,,,VFR,,,,,,,,,,,,METAR,205.0
KLNK 300954Z AUTO 29013G19KT 10SM CLR 07/00 A2990 RMK AO2 SLP124 T00670000,KLNK,2023-04-30T09:54:00Z,40.85,-96.77,6.7,0.0,290,13,19,10.0,29.899607,1012.4,,TRUE,TRUE,,,,,,,CLR,,,,,,,,VFR,,,,,,,,,,,,METAR,357.0
KLEX 300954Z 28011G17KT 6SM BR OVC008 13/11 A2950 RMK AO2 CIG 006V011 SLP985 T01280111,KLEX,2023-04-30T09:54:00Z,38.03,-84.6,12.8,11.1,280,11,17,6.0,29.500984,998.5,,,TRUE,,,,,,BR,OVC,800,,,,,,,IFR,,,,,,,,,,,,METAR,294.0
KLAF 300954Z AUTO 26006KT 10SM SCT012 SCT048 BKN060 06/05 A2952 RMK AO2 SLP997 T00610050 PNO $,KLAF,2023-04-30T09:54:00Z,40.42,-86.93,6.1,5.0,260,6,,10.0,29.518702,999.7,,TRUE,TRUE,TRUE,,,,,,SCT,1200,SCT,4800,BKN,6000,,,VFR,,,,,,,,,,,,METAR,182.0
KJST 300954Z AUTO 09005KT 7SM -RA BKN006 OVC010 10/10 A2952 RMK AO2 SLP995 P0003 T01000100,KJST,2023-04-30T09:54:00Z,40.32,-78.83,10.0,10.0,90,5,,7.0,29.518702,999.5,,TRUE,TRUE,,,,,,-RA,BKN,600,OVC,1000,,,,,IFR,,,,,,0.03,,,,,,METAR,695.0
KJAN 300954Z AUTO 27004KT 10SM CLR 14/12 A2975 RMK AO2 SLP073 T01390122,KJAN,2023-04-30T09:54:00Z,32.32,-90.08,13.9,12.2,270,4,,10.0,29.749016,1007.3,,TRUE,TRUE,,,,,,,CLR,,,,,,,,VFR,,,,,,,,,,,,METAR,92.0
KIZG 300954Z AUTO 04005KT 5SM -RA BR OVC014 06/05 A2997 RMK AO2 SLP153 P0005 T00610050,KIZG,2023-04-30T09:54:00Z,43.98,-70.95,6.1,5.0,40,5,,5.0,29.970472,1015.3,,TRUE,TRUE,,,,,,-RA BR,OVC,1400,,,,,,,MVFR,,,,,,0.05,,,,,,METAR,138.0
KISW 300954Z AUTO 30011G20KT 10SM BKN015 OVC022 02/01 A2940 RMK AO2 RAE45 SLP965 P0000 T00220006,KISW,2023-04-30T09:54:00Z,44.37,-89.83,2.2,0.6,300,11,20,10.0,29.40059,996.5,,TRUE,TRUE,,,,,,,BKN,1500,OVC,2200,,,,,MVFR,,,,,,0.005,,,,,,METAR,311.0
KIPT 300954Z AUTO 09009KT 8SM -RA BKN012 OVC060 11/10 A2960 RMK AO2 SLP024 P0011 T01110100,KIPT,2023-04-30T09:54:00Z,41.25,-76.92,11.1,10.0,90,9,,8.0,29.601377,1002.4,,TRUE,TRUE,,,,,,-RA,BKN,1200,OVC,6000,,,,,MVFR,,,,,,0.11,,,,,,METAR,160.0
KINT 300954Z AUTO 02006KT 6SM -RA BR SCT004 OVC017 15/14 A2952 RMK AO2 CIG 015V030 SLP987 P0006 T01500144,KINT,2023-04-30T09:54:00Z,36.13,-80.22,15.0,14.4,20,6,,6.0,29.518702,998.7,,TRUE,TRUE,,,,,,-RA BR,SCT,400,OVC,1700,,,,,MVFR,,,,,,0.06,,,,,,METAR,292.0
KINL 300954Z AUTO 35014G23KT 10SM SCT026 OVC075 02/M03 A2977 RMK AO2 SLP093 T00221028,KINL,2023-04-30T09:54:00Z,48.57,-93.4,2.2,-2.8,350,14,23,10.0,29.769686,1009.3,,TRUE,TRUE,,,,,,,SCT,2600,OVC,7500,,,,,VFR,,,,,,,,,,,,METAR,353.0
KIND 300954Z 26006KT 10SM SCT048 05/04 A2954 RMK AO2 SLP003 T00500039,KIND,2023-04-30T09:54:00Z,39.72,-86.27,5.0,3.9,260,6,,10.0,29.53937,1000.3,,,TRUE,,,,,,,SCT,4800,,,,,,,VFR,,,,,,,,,,,,METAR,242.0
KIMT 300954Z AUTO 32007KT 4SM -RA BR FEW004 OVC008 02/02 A2928 RMK AO2 RAE18B27UPB23E27 SLP926 P0000 T00170017,KIMT,2023-04-30T09:54:00Z,45.82,-88.12,1.7,1.7,320,7,,4.0,29.279528,992.6,,TRUE,TRUE,,,,,,-RA BR,FEW,400,OVC,800,,,,,IFR,,,,,,0.005,,,,,,METAR,343.0
KHWD 300954Z AUTO 27004KT 10SM OVC012 12/09 A2998 RMK AO2 SLP162 T01170094,KHWD,2023-04-30T09:54:00Z,37.67,-122.12,11.7,9.4,270,4,,10.0,29.97933,1016.2,,TRUE,TRUE,,,,,,,OVC,1200,,,,,,,MVFR,,,,,,,,,,,,METAR,9.0
KGSO 300954Z 29004KT 6SM -RA BR SCT037 OVC085 16/14 A2950 RMK AO2 RAE16B32 SLP982 P0004 T01560144,KGSO,2023-04-30T09:54:00Z,36.1,-79.95,15.6,14.4,290,4,,6.0,29.500984,998.2,,,TRUE,,,,,,-RA BR,SCT,3700,OVC,8500,,,,,VFR,,,,,,0.04,,,,,,METAR,275.0
KGED 300954Z AUTO 09007KT 10SM BKN009 14/13 A2959 RMK AO2 CIG 007V012 SLP020 T01440128 PNO $,KGED,2023-04-30T09:54:00Z,38.68,-75.37,14.4,12.8,90,7,,10.0,29.589567,1002.0,,TRUE,TRUE,TRUE,,,,,,BKN,900,,,,,,,IFR,,,,,,,,,,,,METAR,15.0
KGCN 300954Z AUTO 00000KT 10SM CLR M01/M07 A3018 RMK AO2 SLP155 T10061072,KGCN,2023-04-30T09:54:00Z,35.95,-112.15,-0.6,-7.2,0,0,,10.0,30.180119,1015.5,,TRUE,TRUE,,,,,,,CLR,,,,,,,,VFR,,,,,,,,,,,,METAR,1993.0
KGCK 300954Z AUTO 03008KT 10SM BKN100 09/02 A2999 RMK AO2 SLP135 T00890022,KGCK,2023-04-30T09:54:00Z,37.92,-100.72,8.9,2.2,30,8,,10.0,29.991142,1013.5,,TRUE,TRUE,,,,,,,BKN,10000,,,,,,,VFR,,,,,,,,,,,,METAR,877.0
KFZY 300954Z AUTO VRB04KT 10SM CLR 09/07 A2962 RMK AO2 SLP032 T00940072,KFZY,2023-04-30T09:54:00Z,43.35,-76.38,9.4,7.2,0,4,,10.0,29.619095,1003.2,,TRUE,TRUE,,,,,,,CLR,,,,,,,,VFR,,,,,,,,,,,,METAR,143.0
KFWA 300954Z 24005KT 10SM FEW049 BKN060 OVC090 07/04 A2948 RMK AO2 RAE19 SLP982 P0001 T00670044 $,KFWA,2023-04-30T09:54:00Z,40.98,-85.2,6.7,4.4,240,5,,10.0,29.480314,998.2,,,TRUE,TRUE,,,,,,FEW,4900,BKN,6000,OVC,9000,,,VFR,,,,,,0.01,,,,,,METAR,243.0
KFIG 300954Z AUTO 01004KT 1SM -RA BR OVC008 10/10 A2956 RMK AO2 VIS 1/2V4 RAB0858 SLP010 P0002 T01000100 $,KFIG,2023-04-30T09:54:00Z,41.05,-78.42,10.0,10.0,10,4,,1.0,29.56004,1001.0,,TRUE,TRUE,TRUE,,,,,-RA BR,OVC,800,,,,,,,IFR,,,,,,0.02,,,,,,METAR,461.0
KFFZ 300954Z 00000KT 10SM CLR 22/M01 A2983 RMK AO2 SLP077 T02171011,KFFZ,2023-04-30T09:54:00Z,33.47,-111.72,21.7,-1.1,0,0,,10.0,29.828741,1007.7,,,TRUE,,,,,,,CLR,,,,,,,,VFR,,,,,,,,,,,,METAR,420.0
KEWN 300954Z 14005KT 10SM SCT070 BKN095 19/19 A2954 RMK AO2 RAE02B06E28 SLP004 P0008 T01940189,KEWN,2023-04-30T09:54:00Z,35.07,-77.05,19.4,18.9,140,5,,10.0,29.53937,1000.4,,,TRUE,,,,,,,SCT,7000,BKN,9500,,,,,VFR,,,,,,0.08,,,,,,METAR,3.0
KEVV 300954Z AUTO 30007KT 10SM CLR 07/05 A2962 RMK AO2 SLP028 T00720050 $,KEVV,2023-04-30T09:54:00Z,38.05,-87.52,7.2,5.0,300,7,,10.0,29.619095,1002.8,,TRUE,TRUE,TRUE,,,,,,CLR,,,,,,,,VFR,,,,,,,,,,,,METAR,123.0
KEUG 300954Z AUTO 00000KT 10SM OVC023 12/08 A2999 RMK AO2 SLP155 T01170083,KEUG,2023-04-30T09:54:00Z,44.13,-123.22,11.7,8.3,0,0,,10.0,29.991142,1015.5,,TRUE,TRUE,,,,,,,OVC,2300,,,,,,,MVFR,,,,,,,,,,,,METAR,109.0
KEFD 300954Z 25006KT 10SM CLR 13/09 A2990,KEFD,2023-04-30T09:54:00Z,29.6,-95.17,13.0,9.0,250,6,,10.0,29.899607,,,,,,,,,,,CLR,,,,,,,,VFR,,,,,,,,,,,,METAR,9.0
KECG 300954Z AUTO 16007KT 10SM -RA OVC085 19/16 A2955 RMK AO2 RAB54 SLP007 P0000 T01940161,KECG,2023-04-30T09:54:00Z,36.27,-76.18,19.4,16.1,160,7,,10.0,29.551182,1000.7,,TRUE,TRUE,,,,,,-RA,OVC,8500,,,,,,,VFR,,,,,,0.005,,,,,,METAR,2.0
KDYL 300954Z AUTO 05006KT 1 1/4SM BR OVC002 11/09 A2968 RMK AO2 SLP052 T01060094,KDYL,2023-04-30T09:54:00Z,40.33,-75.12,10.6,9.4,50,6,,1.25,29.681103,1005.2,,TRUE,TRUE,,,,,,BR,OVC,200,,,,,,,LIFR,,,,,,,,,,,,METAR,121.0
KDUB 300954Z AUTO 28008KT 10SM CLR 02/M07 A3014 RMK AO2,KDUB,2023-04-30T09:54:00Z,43.55,-109.68,2.0,-7.0,280,8,,10.0,30.138779,,,TRUE,TRUE,,,,,,,CLR,,,,,,,,VFR,,,,,,,,,,,,SPECI,2205.0
KDSV 300954Z AUTO 16009KT 10SM CLR 12/09 A2956 RMK AO2 SLP017 T01220094,KDSV,2023-04-30T09:54:00Z,42.57,-77.72,12.2,9.4,160,9,,10.0,29.56004,1001.7,,TRUE,TRUE,,,,,,,CLR,,,,,,,,VFR,,,,,,,,,,,,METAR,195.0
KDSM 300954Z 31012G22KT 10SM SCT015 04/02 A2971 RMK AO2 SLP064 T00440022,KDSM,2023-04-30T09:54:00Z,41.53,-93.67,4.4,2.2,310,12,22,10.0,29.71063,1006.4,,,TRUE,,,,,,,SCT,1500,,,,,,,VFR,,,,,,,,,,,,METAR,286.0
KDMH 300954Z AUTO 16/14 A2957 RMK AO1 SLP014 T01560139,KDMH,2023-04-30T09:54:00Z,39.28,-76.62,15.6,13.9,,,,,29.568897,1001.4,,TRUE,TRUE,,,,,,,,,,,,,,,,,,,,,,,,,,,METAR,4.0
KDEC 300954Z AUTO 27007KT 10SM FEW009 06/06 A2958 RMK AO2 SLP015 T00560056,KDEC,2023-04-30T09:54:00Z,39.83,-88.87,5.6,5.6,270,7,,10.0,29.58071,1001.5,,TRUE,TRUE,,,,,,,FEW,900,,,,,,,VFR,,,,,,,,,,,,METAR,205.0
KDDH 300954Z AUTO 11010G19KT 10SM OVC028 10/05 A2977 RMK AO2 SLP082 T01000050 PNO $,KDDH,2023-04-30T09:54:00Z,42.9,-73.25,10.0,5.0,110,10,19,10.0,29.769686,1008.2,,TRUE,TRUE,TRUE,,,,,,OVC,2800,,,,,,,MVFR,,,,,,,,,,,,METAR,241.0
KCRW 300954Z 00000KT 10SM OVC050 12/11 A2950 RMK AO2 SLP982 VLY FG T01220111,KCRW,2023-04-30T09:54:00Z,38.38,-81.58,12.2,11.1,0,0,,10.0,29.500984,998.2,,,TRUE,,,,,,,OVC,5000,,,,,,,VFR,,,,,,,,,,,,METAR,278.0
KCOU 300954Z AUTO 26010KT 10SM CLR 06/03 A2969 RMK AO2 SLP051 T00610033,KCOU,2023-04-30T09:54:00Z,38.82,-92.22,6.1,3.3,260,10,,10.0,29.68996,1005.1,,TRUE,TRUE,,,,,,,CLR,,,,,,,,VFR,,,,,,,,,,,,METAR,272.0
KCOS 300954Z 32006KT 10SM CLR 07/M02 A3010 RMK AO2 SLP137 T00671022,KCOS,2023-04-30T09:54:00Z,38.82,-104.68,6.7,-2.2,320,6,,10.0,30.100393,1013.7,,,TRUE,,,,,,,CLR,,,,,,,,VFR,,,,,,,,,,,,METAR,1886.0
KCEU 300954Z AUTO 00000KT 5SM -RA BR BKN075 OVC095 15/15 A2948 RMK AO2 SLP977 P0009 T01500150,KCEU,2023-04-30T09:54:00Z,34.67,-82.88,15.0,15.0,0,0,,5.0,29.480314,997.7,,TRUE,TRUE,,,,,,-RA BR,BKN,7500,OVC,9500,,,,,MVFR,,,,,,0.09,,,,,,METAR,270.0
KCAR 300954Z AUTO 14007KT 10SM OVC100 09/03 A3007 RMK AO2 SLP188 T00890028,KCAR,2023-04-30T09:54:00Z,46.87,-68.02,8.9,2.8,140,7,,10.0,30.070866,1018.8,,TRUE,TRUE,,,,,,,OVC,10000,,,,,,,VFR,,,,,,,,,,,,METAR,189.0
KBWI 300954Z 10008KT 6SM BR OVC005 16/14 A2957 RMK AO2 SLP011 T01560144 $,KBWI,2023-04-30T09:54:00Z,39.17,-76.68,15.6,14.4,100,8,,6.0,29.568897,1001.1,,,TRUE,TRUE,,,,,BR,OVC,500,,,,,,,IFR,,,,,,,,,,,,METAR,42.0
KBUY 300954Z AUTO 27003KT 7SM FEW025 OVC080 16/16 A2949 RMK AO2 RAE15 SLP982 P0001 T01610161,KBUY,2023-04-30T09:54:00Z,36.05,-79.47,16.1,16.1,270,3,,7.0,29.489174,998.2,,TRUE,TRUE,,,,,,,FEW,2500,OVC,8000,,,,,VFR,,,,,,0.01,,,,,,METAR,185.0
KBUF 300954Z 14007KT 10SM FEW030 SCT110 SCT150 SCT280 10/08 A2951 RMK AO2 SLP995 T01000083,KBUF,2023-04-30T09:54:00Z,42.93,-78.73,10.0,8.3,140,7,,10.0,29.509842,999.5,,,TRUE,,,,,,,FEW,3000,SCT,11000,SCT,15000,SCT,28000,VFR,,,,,,,,,,,,METAR,217.0
KBTV 300954Z 00000KT 10SM OVC040 08/05 A2979 RMK AO2 SLP088 T00830050,KBTV,2023-04-30T09:54:00Z,44.47,-73.15,8.3,5.0,0,0,,10.0,29.790354,1008.8,,,TRUE,,,,,,,OVC,4000,,,,,,,VFR,,,,,,,,,,,,METAR,101.0
KBOS 300954Z 06016KT 2 1/2SM -RA BR BKN006 OVC011 09/08 A2986 RMK AO2 SLP112 P0004 T00940083 $,KBOS,2023-04-30T09:54:00Z,42.37,-71.02,9.4,8.3,60,16,,2.5,29.861221,1011.2,,,TRUE,TRUE,,,,,-RA BR,BKN,600,OVC,1100,,,,,IFR,,,,,,0.04,,,,,,METAR,4.0
KBFL 300954Z 00000KT 8SM CLR 21/13 A2987 RMK AO2 SLP107 T02110128,KBFL,2023-04-30T09:54:00Z,35.43,-119.05,21.1,12.8,0,0,,8.0,29.870079,1010.7,,,TRUE,,,,,,,CLR,,,,,,,,VFR,,,,,,,,,,,,METAR,146.0
KAVP 300954Z AUTO 06005KT 3SM +RA BR BKN060 OVC080 10/09 A2965 RMK AO2 SLP039 P0012 T01000089,KAVP,2023-04-30T09:54:00Z,41.33,-75.72,10.0,8.9,60,5,,3.0,29.648623,1003.9,,TRUE,TRUE,,,,,,+RA BR,BKN,6000,OVC,8000,,,,,MVFR,,,,,,0.12,,,,,,METAR,290.0
KAVL 300954Z AUTO 33008KT 10SM -RA OVC075 12/11 A2952 RMK AO2 RAB34 SLP979 P0000 T01220106,KAVL,2023-04-30T09:54:00Z,35.43,-82.53,12.2,10.6,330,8,,10.0,29.518702,997.9,,TRUE,TRUE,,,,,,-RA,OVC,7500,,,,,,,VFR,,,,,,0.005,,,,,,METAR,646.0
KAUW 300954Z AUTO 30011KT 7SM SCT009 OVC015 02/00 A2935 RMK AO2 UPB18E46SNB46E47 SLP950 P0000 T00170000,KAUW,2023-04-30T09:54:00Z,44.93,-89.62,1.7,0.0,300,11,,7.0,29.350393,995.0,,TRUE,TRUE,,,,,,,SCT,900,OVC,1500,,,,,MVFR,,,,,,0.005,,,,,,METAR,367.0
KAPN 300954Z AUTO 21006KT 10SM CLR 05/04 A2938 RMK AO2 SLP951 T00500039 $,KAPN,2023-04-30T09:54:00Z,45.07,-83.57,5.0,3.9,210,6,,10.0,29.379921,995.1,,TRUE,TRUE,TRUE,,,,,,CLR,,,,,,,,VFR,,,,,,,,,,,,METAR,208.0
KAPC 300954Z AUTO 32004KT 10SM CLR 08/06 A2996 RMK AO2 SLP135 T00780061,KAPC,2023-04-30T09:54:00Z,38.2,-122.28,7.8,6.1,320,4,,10.0,29.958662,1013.5,,TRUE,TRUE,,,,,,,CLR,,,,,,,,VFR,,,,,,,,,,,,METAR,5.0
KALO 300954Z AUTO 30012KT 10SM OVC070 05/01 A2959 RMK AO2 SLP023 T00500011,KALO,2023-04-30T09:54:00Z,42.55,-92.4,5.0,1.1,300,12,,10.0,29.589567,1002.3,,TRUE,TRUE,,,,,,,OVC,7000,,,,,,,VFR,,,,,,,,,,,,METAR,264.0
KAKR 300954Z AUTO 20003KT 10SM OVC040 12/08 A2944 RMK AO2 SLP968 T01170078,KAKR,2023-04-30T09:54:00Z,41.03,-81.47,11.7,7.8,200,3,,10.0,29.438976,996.8,,TRUE,TRUE,,,,,,,OVC,4000,,,,,,,VFR,,,,,,,,,,,,METAR,319.0
KAKQ 300954Z AUTO 00000KT 4SM -RA BR OVC004 18/18 A2952 RMK AO2 LTG DSNT N RAB0856E27B46 CIG 002V006 SLP995 P0004 T01830183,KAKQ,2023-04-30T09:54:00Z,36.98,-77.0,18.3,18.3,0,0,,4.0,29.518702,999.5,,TRUE,TRUE,,,,,,-RA BR,OVC,400,,,,,,,LIFR,,,,,,0.04,,,,,,METAR,34.0
KAKH 300954Z AUTO 21003KT 3SM BR FEW002 BKN028 OVC043 16/16 A2950 RMK AO2 SLP984 T01560156,KAKH,2023-04-30T09:54:00Z,35.2,-81.15,15.6,15.6,210,3,,3.0,29.500984,998.4,,TRUE,TRUE,,,,,,BR,FEW,200,BKN,2800,OVC,4300,,,MVFR,,,,,,,,,,,,METAR,242.0
KACY 300954Z AUTO 09007KT 1/2SM FG VV002 11/11 A2966 RMK AO2 SLP044 T01110111,KACY,2023-04-30T09:54:00Z,39.45,-74.57,11.1,11.1,90,7,,0.5,29.660433,1004.4,,TRUE,TRUE,,,,,,FG,OVX,0,,,,,,,LIFR,,,,,,,,,,,200,METAR,18.0
KAAO 300954Z AUTO 30009KT 10SM CLR 08/01 A2989 RMK AO2 SLP116 T00830006,KAAO,2023-04-30T09:54:00Z,37.75,-97.22,8.3,0.6,300,9,,10.0,29.890747,1011.6,,TRUE,TRUE,,,,,,,CLR,,,,,,,,VFR,,,,,,,,,,,,METAR,429.0
K1V4 300954Z AUTO 07/05 A2983 RMK AO1 SLP105 T00670050,K1V4,2023-04-30T09:54:00Z,44.42,-72.02,6.7,5.0,,,,,29.828741,1010.5,,TRUE,TRUE,,,,,,,,,,,,,,,,,,,,,,,,,,,METAR,213.0
K12N 300954Z AUTO VRB05KT 11/08 A2973 RMK AO1 SLP068 T01060083,K12N,2023-04-30T09:54:00Z,41.02,-74.73,10.6,8.3,0,5,,,29.731298,1006.8,,TRUE,TRUE,,,,,,,,,,,,,,,,,,,,,,,,,,,METAR,178.0
FACV 300954Z 09006KT CAVOK 21/M00 Q1020,FACV,2023-04-30T09:54:00Z,-31.47,19.75,21.0,0.0,90,6,,6.21,30.11811,,,,,,,,,,,CAVOK,,,,,,,,VFR,,,,,,,,,,,,SPECI,977.0
CYUX 300954Z AUTO 28005KT 9SM BKN003 OVC026 M05/ A3014 RMK DP MISG SLP209,CYUX,2023-04-30T09:54:00Z,68.77,-81.22,-5.0,,280,5,,9.0,30.138779,1020.9,,TRUE,,,,,,,,BKN,300,OVC,2600,,,,,LIFR,,,,,,,,,,,,SPECI,8.0
CYNM 300954Z AUTO 12008KT 9SM -RA FEW007 SCT010 BKN019 OVC032 06/05 A2963 RMK SLP047,CYNM,2023-04-30T09:54:00Z,49.77,-77.78,6.0,5.0,120,8,,9.0,29.630905,1004.7,,TRUE,,,,,,,-RA,FEW,700,SCT,1000,BKN,1900,OVC,3200,MVFR,,,,,,,,,,,,SPECI,276.0
TJNR 300953Z AUTO 14005KT 10SM SCT019 SCT042 26/23 A3000 RMK AO2 SLP160 T02560233,TJNR,2023-04-30T09:53:00Z,18.25,-65.63,25.6,23.3,140,5,,10.0,30.0,1016.0,,TRUE,TRUE,,,,,,,SCT,1900,SCT,4200,,,,,VFR,,,,,,,,,,,,SPECI,7.0
TISX 300953Z AUTO 01004KT 10SM CLR 24/23 A3000 RMK AO2 SLP156 T02390228,TISX,2023-04-30T09:53:00Z,17.7,-64.8,23.9,22.8,10,4,,10.0,30.0,1015.6,,TRUE,TRUE,,,,,,,CLR,,,,,,,,VFR,,,,,,,,,,,,SPECI,16.0
TIST 300953Z 08006KT 10SM CLR 26/23 A2999 RMK AO2 SLP154 T02560233,TIST,2023-04-30T09:53:00Z,18.33,-64.98,25.6,23.3,80,6,,10.0,29.991142,1015.4,,,TRUE,,,,,,,CLR,,,,,,,,VFR,,,,,,,,,,,,SPECI,5.0
PTTP 300953Z 10006KT 15SM SCT018 OVC300 29/25 A2983 RMK SLP100 T02860248,PTTP,2023-04-30T09:53:00Z,6.97,158.22,28.6,24.8,100,6,,15.0,29.828741,1010.0,,,,,,,,,,SCT,1800,OVC,30000,,,,,VFR,,,,,,,,,,,,SPECI,36.0
PHTO 300953Z AUTO 23003KT 6SM -RA BR SCT042 BKN060 21/18 A3010 RMK AO2 RAB45 SLP191 P0001 T02060183 402670189 TSNO,PHTO,2023-04-30T09:53:00Z,19.72,-155.05,20.6,18.3,230,3,,6.0,30.100393,1019.1,,TRUE,TRUE,,,TRUE,,,-RA BR,SCT,4200,BKN,6000,,,,,VFR,,,,26.7,18.9,0.01,,,,,,METAR,9.0
PHNL 300953Z 07013KT 10SM FEW024 FEW038 24/19 A3010 RMK AO2 SLP193 T02390183 403170222,PHNL,2023-04-30T09:53:00Z,21.33,-157.93,23.9,18.3,70,13,,10.0,30.100393,1019.3,,,TRUE,,,,,,,FEW,2400,FEW,3800,,,,,VFR,,,,31.7,22.2,,,,,,,METAR,2.0
PHKO 300953Z AUTO 09004KT 10SM FEW030 23/18 A3004 RMK AO2 SLP172 T02280178 402830222 TSNO $,PHKO,2023-04-30T09:53:00Z,19.73,-156.05,22.8,17.8,90,4,,10.0,30.041338,1017.2,,TRUE,TRUE,TRUE,,TRUE,,,,FEW,3000,,,,,,,VFR,,,,28.3,22.2,,,,,,,METAR,11.0
PHJR 300953Z AUTO 01005KT 10SM CLR 23/17 A3011 RMK AO2 SLP203 T02280172 402940200 TSNO PNO,PHJR,2023-04-30T09:53:00Z,21.32,-158.07,22.8,17.2,10,5,,10.0,30.109253,1020.3,,TRUE,TRUE,,,TRUE,,,,CLR,,,,,,,,VFR,,,,29.4,20.0,,,,,,,SPECI,9.0
PAWI 300953Z AUTO 05009KT 10SM UP CLR M16/M18 A3004 RMK AO2 UPB02 SLP173 T11611183 TSNO $,PAWI,2023-04-30T09:53:00Z,70.63,-160.02,-16.1,-18.3,50,9,,10.0,30.041338,1017.3,,TRUE,TRUE,TRUE,,TRUE,,,UP,CLR,,,,,,,,VFR,,,,,,,,,,,,METAR,12.0
PAWD 300953Z AUTO 33003KT 10SM CLR 01/M04 A2978 RMK AO2 SLP086 T00061039 TSNO,PAWD,2023-04-30T09:53:00Z,60.12,-149.42,0.6,-3.9,330,3,,10.0,29.778543,1008.6,,TRUE,TRUE,,,TRUE,,,,CLR,,,,,,,,VFR,,,,,,,,,,,,METAR,3.0
PAVL 300953Z AUTO 08009KT 10SM OVC075 M01/M03 A2990 RMK AO2 SLP126 T10111033 TSNO $,PAVL,2023-04-30T09:53:00Z,67.73,-164.55,-1.1,-3.3,80,9,,10.0,29.899607,1012.6,,TRUE,TRUE,TRUE,,TRUE,,,,OVC,7500,,,,,,,VFR,,,,,,,,,,,,METAR,6.0
PATO 300953Z AUTO 00000KT 10SM OVC070 00/M01 A2978 RMK AO2 SLP085 T00001006 TSNO,PATO,2023-04-30T09:53:00Z,60.78,-148.85,0.0,-0.6,0,0,,10.0,29.778543,1008.5,,TRUE,TRUE,,,TRUE,,,,OVC,7000,,,,,,,VFR,,,,,,,,,,,,METAR,47.0
PATK 300953Z AUTO 00000KT 10SM FEW075 M01/M04 A2974 RMK AO2 SLP076 T10111039 TSNO,PATK,2023-04-30T09:53:00Z,62.32,-150.1,-1.1,-3.9,0,0,,10.0,29.740158,1007.6,,TRUE,TRUE,,,TRUE,,,,FEW,7500,,,,,,,VFR,,,,,,,,,,,,METAR,107.0
PASO 300953Z AUTO 00000KT 10SM CLR M01/M02 A2982 RMK AO2 SLP097 T10061017 TSNO,PASO,2023-04-30T09:53:00Z,59.45,-151.7,-0.6,-1.7,0,0,,10.0,29.819881,1009.7,,TRUE,TRUE,,,TRUE,,,,CLR,,,,,,,,VFR,,,,,,,,,,,,METAR,20.0
PASN 300953Z AUTO 05014KT 6SM -RA BR OVC003 02/01 A2925 RMK AO2 UPE05RAB05 SLP905 P0002 T00170011 TSNO,PASN,2023-04-30T09:53:00Z,57.15,-170.22,1.7,1.1,50,14,,6.0,29.25,990.5,,TRUE,TRUE,,,TRUE,,,-RA BR,OVC,300,,,,,,,LIFR,,,,,,0.02,,,,,,METAR,8.0
PASI 300953Z 33004KT 10SM SCT047 OVC110 09/08 A2976 RMK AO2 SLP079 T00940078,PASI,2023-04-30T09:53:00Z,57.03,-135.35,9.4,7.8,330,4,,10.0,29.760826,1007.9,,,TRUE,,,,,,,SCT,4700,OVC,11000,,,,,VFR,,,,,,,,,,,,METAR,2.0
PASC 300953Z 08020KT 4SM BR BKN002 BKN007 M13/M14 A3009 RMK AO2 SLP191 T11281144,PASC,2023-04-30T09:53:00Z,70.2,-148.47,-12.8,-14.4,80,20,,4.0,30.088583,1019.1,,,TRUE,,,,,,BR,BKN,200,BKN,700,,,,,LIFR,,,,,,,,,,,,METAR,17.0
PAPB 300953Z AUTO 06020G26KT 6SM -RA BR OVC004 04/02 A2916 RMK AO2 PK WND 05026/0931 SLP862 P0003 T00390017 TSNO $,PAPB,2023-04-30T09:53:00Z,56.58,-169.67,3.9,1.7,60,20,26,6.0,29.161417,986.2,,TRUE,TRUE,TRUE,,TRUE,,,-RA BR,OVC,400,,,,,,,LIFR,,,,,,0.03,,,,,,METAR,33.0
PAOT 300953Z AUTO 06006KT 10SM OVC085 M01/M02 A2989 RMK AO2 SLP120 T10061022 TSNO,PAOT,2023-04-30T09:53:00Z,66.88,-162.6,-0.6,-2.2,60,6,,10.0,29.890747,1012.0,,TRUE,TRUE,,,TRUE,,,,OVC,8500,,,,,,,VFR,,,,,,,,,,,,METAR,3.0
PAOR 300953Z VRB03KT 10SM OVC050 02/M01 A2968 RMK AO2 SLP067 T00221006 PNO,PAOR,2023-04-30T09:53:00Z,62.97,-141.93,2.2,-0.6,0,3,,10.0,29.681103,1006.7,,,TRUE,,,,,,,OVC,5000,,,,,,,VFR,,,,,,,,,,,,METAR,524.0
PAOM 300953Z AUTO 05008KT 10SM CLR M01/M02 A2982 RMK AO2 SLP098 T10061017 TSNO,PAOM,2023-04-30T09:53:00Z,64.5,-165.43,-0.6,-1.7,50,8,,10.0,29.819881,1009.8,,TRUE,TRUE,,,TRUE,,,,CLR,,,,,,,,VFR,,,,,,,,,,,,METAR,6.0
PANC 300953Z 18008KT 10SM SCT065 BKN085 04/M03 A2976 RMK AO2 SLP078 T00441028,PANC,2023-04-30T09:53:00Z,61.17,-150.02,4.4,-2.8,180,8,,10.0,29.760826,1007.8,,,TRUE,,,,,,,SCT,6500,BKN,8500,,,,,VFR,,,,,,,,,,,,METAR,39.0
PAMR 300953Z 18006KT 10SM SCT060 BKN085 05/M04 A2976 RMK AO2 SLP079 T00501039,PAMR,2023-04-30T09:53:00Z,61.22,-149.85,5.0,-3.9,180,6,,10.0,29.760826,1007.9,,,TRUE,,,,,,,SCT,6000,BKN,8500,,,,,VFR,,,,,,,,,,,,METAR,43.0
PALH 300953Z AUTO 20007KT 10SM BKN065 OVC085 04/M03 A2977 RMK AO2 SLP082 T00441033 TSNO,PALH,2023-04-30T09:53:00Z,61.18,-149.97,4.4,-3.3,200,7,,10.0,29.769686,1008.2,,TRUE,TRUE,,,TRUE,,,,BKN,6500,OVC,8500,,,,,VFR,,,,,,,,,,,,METAR,26.0
PAKW 300953Z AUTO 00000KT 10SM OVC100 10/05 A2978 RMK AO2 SLP083 T01000050 TSNO,PAKW,2023-04-30T09:53:00Z,55.58,-133.07,10.0,5.0,0,0,,10.0,29.778543,1008.3,,TRUE,TRUE,,,TRUE,,,,OVC,10000,,,,,,,VFR,,,,,,,,,,,,METAR,7.0
PAKV 300953Z AUTO 22004KT 10SM OVC100 M01/M05 A2985 RMK AO2 SLP109 T10061050 TSNO $,PAKV,2023-04-30T09:53:00Z,64.33,-158.72,-0.6,-5.0,220,4,,10.0,29.84941,1010.9,,TRUE,TRUE,TRUE,,TRUE,,,,OVC,10000,,,,,,,VFR,,,,,,,,,,,,METAR,53.0
PAKT 300953Z AUTO 00000KT 10SM FEW080 OVC100 08/05 A2982 RMK AO2 SLP098 T00780050 TSNO,PAKT,2023-04-30T09:53:00Z,55.35,-131.72,7.8,5.0,0,0,,10.0,29.819881,1009.8,,TRUE,TRUE,,,TRUE,,,,FEW,8000,OVC,10000,,,,,VFR,,,,,,,,,,,,METAR,27.0
PAJN 300953Z 10011KT 10SM OVC065 09/06 A2981 RMK AO2 SLP093 T00890061 $,PAJN,2023-04-30T09:53:00Z,58.35,-134.55,8.9,6.1,100,11,,10.0,29.811024,1009.3,,,TRUE,TRUE,,,,,,OVC,6500,,,,,,,VFR,,,,,,,,,,,,METAR,6.0
PAIL 300953Z AUTO 00000KT 10SM CLR M02/M04 A2979 RMK AO2 SLP089 T10171044 TSNO,PAIL,2023-04-30T09:53:00Z,59.75,-154.92,-1.7,-4.4,0,0,,10.0,29.790354,1008.9,,TRUE,TRUE,,,TRUE,,,,CLR,,,,,,,,VFR,,,,,,,,,,,,METAR,44.0
PAHO 300953Z AUTO 00000KT 10SM CLR M01/M04 A2982 RMK AO2 SLP098 T10061039 TSNO,PAHO,2023-04-30T09:53:00Z,59.63,-151.48,-0.6,-3.9,0,0,,10.0,29.819881,1009.8,,TRUE,TRUE,,,TRUE,,,,CLR,,,,,,,,VFR,,,,,,,,,,,,METAR,6.0
PAGY 300953Z AUTO VRB03KT 10SM -RA OVC065 08/07 A2983 RMK AO2 RAB0854 SLP100 P0001 T00830067 TSNO,PAGY,2023-04-30T09:53:00Z,59.47,-135.32,8.3,6.7,0,3,,10.0,29.828741,1010.0,,TRUE,TRUE,,,TRUE,,,-RA,OVC,6500,,,,,,,VFR,,,,,,0.01,,,,,,METAR,7.0
PAGK 300953Z AUTO 19003KT 3SM -SN BR FEW017 OVC034 00/M01 A2973 RMK AO2 SLP093 P0002 T00001006 TSNO,PAGK,2023-04-30T09:53:00Z,62.15,-145.45,0.0,-0.6,190,3,,3.0,29.731298,1009.3,,TRUE,TRUE,,,TRUE,,,-SN BR,FEW,1700,OVC,3400,,,,,MVFR,,,,,,0.02,,,,,,METAR,481.0
PAFA 300953Z 04008KT 10SM -RASN FEW046 BKN075 OVC090 04/M01 A2975 RMK AO2 SLP079 P0000 T00441011 $,PAFA,2023-04-30T09:53:00Z,64.8,-147.87,4.4,-1.1,40,8,,10.0,29.749016,1007.9,,,TRUE,TRUE,,,,,-RA -SN,FEW,4600,BKN,7500,OVC,9000,,,VFR,,,,,,0.005,,,,,,METAR,130.0
PAEN 300953Z AUTO 18006KT 10SM CLR 01/M02 A2979 RMK AO2 SLP089 T00111022 TSNO,PAEN,2023-04-30T09:53:00Z,60.57,-151.25,1.1,-2.2,180,6,,10.0,29.790354,1008.9,,TRUE,TRUE,,,TRUE,,,,CLR,,,,,,,,VFR,,,,,,,,,,,,METAR,30.0
PAEG 300953Z AUTO 00000KT 10SM BKN080 OVC110 02/M04 A2975 RMK AO2 SLP080 T00171044 TSNO,PAEG,2023-04-30T09:53:00Z,64.78,-141.15,1.7,-4.4,0,0,,10.0,29.749016,1008.0,,TRUE,TRUE,,,TRUE,,,,BKN,8000,OVC,11000,,,,,VFR,,,,,,,,,,,,METAR,273.0
PADQ 300953Z AUTO 19007KT 10SM CLR 03/M02 A2982 RMK AO2 SLP099 T00281022 TSNO,PADQ,2023-04-30T09:53:00Z,57.75,-152.5,2.8,-2.2,190,7,,10.0,29.819881,1009.9,,TRUE,TRUE,,,TRUE,,,,CLR,,,,,,,,VFR,,,,,,,,,,,,METAR,5.0
PADE 300953Z AUTO 25003KT 10SM OVC060 M03/M04 A2985 RMK AO2 SLP109 T10281039 TSNO $,PADE,2023-04-30T09:53:00Z,66.07,-162.77,-2.8,-3.9,250,3,,10.0,29.84941,1010.9,,TRUE,TRUE,TRUE,,TRUE,,,,OVC,6000,,,,,,,VFR,,,,,,,,,,,,METAR,5.0
PACV 300953Z 00000KT 10SM OVC031 04/03 A2978 RMK AO2 RAE06 SLP083 P0000 T00390033,PACV,2023-04-30T09:53:00Z,60.5,-145.47,3.9,3.3,0,0,,10.0,29.778543,1008.3,,,TRUE,,,,,,,OVC,3100,,,,,,,VFR,,,,,,0.005,,,,,,METAR,15.0
PABT 300953Z 02006KT 10SM SCT065 01/M06 A2987 RMK SLP126 T00111056,PABT,2023-04-30T09:53:00Z,66.92,-151.52,1.1,-5.6,20,6,,10.0,29.870079,1012.6,,,,,,,,,,SCT,6500,,,,,,,VFR,,,,,,,,,,,,METAR,195.0
PABI 300953Z AUTO 24007KT 10SM OVC023 02/M01 A2973 RMK AO2 SLP084 T00171011 TSNO,PABI,2023-04-30T09:53:00Z,64.0,-145.72,1.7,-1.1,240,7,,10.0,29.731298,1008.4,,TRUE,TRUE,,,TRUE,,,,OVC,2300,,,,,,,MVFR,,,,,,,,,,,,METAR,388.0
PABE 300953Z 06004KT 10SM CLR M01/M03 A2970 RMK AO2 SLP058 T10111033,PABE,2023-04-30T09:53:00Z,60.78,-161.83,-1.1,-3.3,60,4,,10.0,29.698818,1005.8,,,TRUE,,,,,,,CLR,,,,,,,,VFR,,,,,,,,,,,,METAR,28.0
PAAQ 300953Z AUTO 06004KT 10SM OVC085 05/M01 A2975 RMK AO2 SLP078 T00501006 TSNO,PAAQ,2023-04-30T09:53:00Z,61.6,-149.08,5.0,-0.6,60,4,,10.0,29.749016,1007.8,,TRUE,TRUE,,,TRUE,,,,OVC,8500,,,,,,,VFR,,,,,,,,,,,,METAR,68.0
KZZV 300953Z AUTO 00000KT 10SM SCT040 SCT095 BKN120 11/09 A2946 RMK AO2 SLP974 T01110089,KZZV,2023-04-30T09:53:00Z,39.95,-81.9,11.1,8.9,0,0,,10.0,29.459646,997.4,,TRUE,TRUE,,,,,,,SCT,4000,SCT,9500,BKN,12000,,,VFR,,,,,,,,,,,,METAR,268.0
KYKM 300953Z AUTO 24006KT 10SM BKN110 16/03 A2980 RMK AO2 SLP083 T01560028 $,KYKM,2023-04-30T09:53:00Z,46.57,-120.53,15.6,2.8,240,6,,10.0,29.799213,1008.3,,TRUE,TRUE,TRUE,,,,,,BKN,11000,,,,,,,VFR,,,,,,,,,,,,METAR,319.0
KYIP 300953Z 24007KT 4SM -RA BR BKN036 OVC060 07/05 A2945 RMK AO2 RAB25 SLP969 P0002 T00670050,KYIP,2023-04-30T09:53:00Z,42.23,-83.53,6.7,5.0,240,7,,4.0,29.450787,996.9,,,TRUE,,,,,,-RA BR,BKN,3600,OVC,6000,,,,,MVFR,,,,,,0.02,,,,,,METAR,215.0
KXVG 300953Z AUTO 33008G21KT 10SM OVC033 02/M03 A2974 RMK AO2,KXVG,2023-04-30T09:53:00Z,46.98,-94.2,2.0,-3.0,330,8,21,10.0,29.740158,,,TRUE,TRUE,,,,,,,OVC,3300,,,,,,,VFR,,,,,,,,,,,,METAR,407.0
KXNA 300953Z AUTO 25004KT 10SM CLR 06/03 A2980 RMK AO2 SLP086 T00610033,KXNA,2023-04-30T09:53:00Z,36.28,-94.3,6.1,3.3,250,4,,10.0,29.799213,1008.6,,TRUE,TRUE,,,,,,,CLR,,,,,,,,VFR,,,,,,,,,,,,METAR,390.0
KWVI 300953Z AUTO 14004KT 3/4SM BR VV002 09/09 A2999 RMK AO2 SLP155 T00940094,KWVI,2023-04-30T09:53:00Z,36.93,-121.78,9.4,9.4,140,4,,0.75,29.991142,1015.5,,TRUE,TRUE,,,,,,BR,OVX,0,,,,,,,LIFR,,,,,,,,,,,200,METAR,47.0
KWST 300953Z AUTO 06008KT 4SM BR OVC004 12/11 A2975 RMK AO2 SLP073 T01170111,KWST,2023-04-30T09:53:00Z,41.35,-71.8,11.7,11.1,60,8,,4.0,29.749016,1007.3,,TRUE,TRUE,,,,,,BR,OVC,400,,,,,,,LIFR,,,,,,,,,,,,METAR,20.0
KWRL 300953Z AUTO 19005KT 10SM CLR 05/00 A3003 RMK AO2 SLP151 T00500000,KWRL,2023-04-30T09:53:00Z,43.97,-107.95,5.0,0.0,190,5,,10.0,30.029528,1015.1,,TRUE,TRUE,,,,,,,CLR,,,,,,,,VFR,,,,,,,,,,,,METAR,1281.0
KVRB 300953Z AUTO 20007KT 10SM FEW030 FEW036 24/21 A2968 RMK AO2 SLP050 T02440206,KVRB,2023-04-30T09:53:00Z,27.65,-80.42,24.4,20.6,200,7,,10.0,29.681103,1005.0,,TRUE,TRUE,,,,,,,FEW,3000,FEW,3600,,,,,VFR,,,,,,,,,,,,METAR,7.0
KVLD 300953Z AUTO VRB04KT 10SM BKN020 BKN028 BKN035 19/18 A2953 RMK AO1 SLP006 T01940183,KVLD,2023-04-30T09:53:00Z,30.78,-83.27,19.4,18.3,0,4,,10.0,29.530512,1000.6,,TRUE,TRUE,,,,,,,BKN,2000,BKN,2800,BKN,3500,,,MVFR,,,,,,,,,,,,METAR,59.0
KVIH 300953Z AUTO 23008KT 10SM CLR 03/02 A2969 RMK AO2 SLP053 T00330017,KVIH,2023-04-30T09:53:00Z,38.13,-91.77,3.3,1.7,230,8,,10.0,29.68996,1005.3,,TRUE,TRUE,,,,,,,CLR,,,,,,,,VFR,,,,,,,,,,,,METAR,342.0
KVGT 300953Z AUTO 01005KT 10SM CLR 22/M04 A2985 RMK AO2 SLP101 T02221044,KVGT,2023-04-30T09:53:00Z,36.22,-115.2,22.2,-4.4,10,5,,10.0,29.84941,1010.1,,TRUE,TRUE,,,,,,,CLR,,,,,,,,VFR,,,,,,,,,,,,METAR,664.0
KVEL 300953Z AUTO 00000KT 10SM CLR 07/M02 A3008 RMK AO2 SLP146 T00671017,KVEL,2023-04-30T09:53:00Z,40.45,-109.52,6.7,-1.7,0,0,,10.0,30.079725,1014.6,,TRUE,TRUE,,,,,,,CLR,,,,,,,,VFR,,,,,,,,,,,,METAR,1604.0
KVCB 300953Z AUTO 19003KT 10SM CLR 13/05 A2987 RMK AO2 SLP114 T01280050,KVCB,2023-04-30T09:53:00Z,38.38,-121.95,12.8,5.0,190,3,,10.0,29.870079,1011.4,,TRUE,TRUE,,,,,,,CLR,,,,,,,,VFR,,,,,,,,,,,,METAR,30.0
KUUU 300953Z AUTO 10009KT 5SM -RA BR OVC004 11/11 A2976 RMK AO2 SLP078 P0002 T01110106,KUUU,2023-04-30T09:53:00Z,41.53,-71.28,11.1,10.6,100,9,,5.0,29.760826,1007.8,,TRUE,TRUE,,,,,,-RA BR,OVC,400,,,,,,,LIFR,,,,,,0.02,,,,,,METAR,45.0
KUTS 300953Z AUTO 00000KT 10SM CLR 11/08 A2989 RMK AO2 SLP120 T01110083,KUTS,2023-04-30T09:53:00Z,30.75,-95.58,11.1,8.3,0,0,,10.0,29.890747,1012.0,,TRUE,TRUE,,,,,,,CLR,,,,,,,,VFR,,,,,,,,,,,,METAR,103.0
KUNV 300953Z 02004KT 7SM RA SCT014 BKN050 OVC080 11/11 A2958,KUNV,2023-04-30T09:53:00Z,40.85,-77.83,11.0,11.0,20,4,,7.0,29.58071,,,,,,,,,,RA,SCT,1400,BKN,5000,OVC,8000,,,VFR,,,,,,,,,,,,METAR,365.0
KUNO 300953Z AUTO 27004KT 10SM CLR 05/02 A2974 RMK AO2 SLP066 T00500017,KUNO,2023-04-30T09:53:00Z,36.88,-91.9,5.0,1.7,270,4,,10.0,29.740158,1006.6,,TRUE,TRUE,,,,,,,CLR,,,,,,,,VFR,,,,,,,,,,,,METAR,376.0
KUIL 300953Z AUTO 15006KT 10SM OVC009 09/08 A2992 RMK AO2 CIG 008V011 SLP131 T00940078,KUIL,2023-04-30T09:53:00Z,47.93,-124.55,9.4,7.8,150,6,,10.0,29.920275,1013.1,,TRUE,TRUE,,,,,,,OVC,900,,,,,,,IFR,,,,,,,,,,,,METAR,58.0
KUAO 300953Z AUTO 20005KT 10SM OVC120 11/06 A2997 RMK AO2 SLP147 T01110061,KUAO,2023-04-30T09:53:00Z,45.25,-122.77,11.1,6.1,200,5,,10.0,29.970472,1014.7,,TRUE,TRUE,,,,,,,OVC,12000,,,,,,,VFR,,,,,,,,,,,,METAR,60.0
KTYS 300953Z 14003KT 9SM SCT045 BKN150 14/13 A2948 RMK AO2 SLP974 T01440133 $,KTYS,2023-04-30T09:53:00Z,35.82,-83.98,14.4,13.3,140,3,,9.0,29.480314,997.4,,,TRUE,TRUE,,,,,,SCT,4500,BKN,15000,,,,,VFR,,,,,,,,,,,,METAR,300.0
KTYR 300953Z AUTO 23004KT 10SM CLR 11/08 A2985 RMK AO2 SLP104 T01060078,KTYR,2023-04-30T09:53:00Z,32.37,-95.4,10.6,7.8,230,4,,10.0,29.84941,1010.4,,TRUE,TRUE,,,,,,,CLR,,,,,,,,VFR,,,,,,,,,,,,METAR,161.0
KTXK 300953Z AUTO 22004KT 10SM CLR 11/08 A2982 RMK AO2 SLP093 T01060078,KTXK,2023-04-30T09:53:00Z,33.45,-93.98,10.6,7.8,220,4,,10.0,29.819881,1009.3,,TRUE,TRUE,,,,,,,CLR,,,,,,,,VFR,,,,,,,,,,,,METAR,118.0
KTWF 300953Z 20012KT 10SM CLR 13/M03 A2994 RMK AO2 SLP086 T01281028,KTWF,2023-04-30T09:53:00Z,42.48,-114.48,12.8,-2.8,200,12,,10.0,29.940945,1008.6,,,TRUE,,,,,,,CLR,,,,,,,,VFR,,,,,,,,,,,,METAR,1269.0
KTVR 300953Z AUTO 00000KT 10SM CLR 11/10 A2978 RMK AO2 SLP090 T01110100 $,KTVR,2023-04-30T09:53:00Z,32.35,-91.03,11.1,10.0,0,0,,10.0,29.778543,1009.0,,TRUE,TRUE,TRUE,,,,,,CLR,,,,,,,,VFR,,,,,,,,,,,,METAR,25.0
KTVL 300953Z AUTO 00000KT 10SM CLR 02/M01 A3010 RMK AO2 SLP153 T00171011,KTVL,2023-04-30T09:53:00Z,38.9,-120.0,1.7,-1.1,0,0,,10.0,30.100393,1015.3,,TRUE,TRUE,,,,,,,CLR,,,,,,,,VFR,,,,,,,,,,,,METAR,1907.0
KTVC 300953Z AUTO 19005KT 10SM OVC015 06/04 A2933 RMK AO2 RAB02E20 SLP933 P0001 T00610039,KTVC,2023-04-30T09:53:00Z,44.73,-85.58,6.1,3.9,190,5,,10.0,29.329725,993.3,,TRUE,TRUE,,,,,,,OVC,1500,,,,,,,MVFR,,,,,,0.01,,,,,,METAR,188.0
KTUS 300953Z 18005KT 10SM CLR 18/M06 A2995 RMK AO2 SLP097 T01781061,KTUS,2023-04-30T09:53:00Z,32.13,-110.95,17.8,-6.1,180,5,,10.0,29.949802,1009.7,,,TRUE,,,,,,,CLR,,,,,,,,VFR,,,,,,,,,,,,METAR,776.0
KTUP 300953Z AUTO VRB04KT 10SM CLR 14/11 A2964 RMK AO2 SLP036 T01390111 $,KTUP,2023-04-30T09:53:00Z,34.27,-88.77,13.9,11.1,0,4,,10.0,29.639763,1003.6,,TRUE,TRUE,TRUE,,,,,,CLR,,,,,,,,VFR,,,,,,,,,,,,METAR,107.0
KTUL 300953Z 00000KT 10SM CLR 08/07 A2984 RMK AO2 SLP102 T00830067,KTUL,2023-04-30T09:53:00Z,36.2,-95.88,8.3,6.7,0,0,,10.0,29.840551,1010.2,,,TRUE,,,,,,,CLR,,,,,,,,VFR,,,,,,,,,,,,METAR,196.0
KTTN 300953Z 05006KT 3/4SM BR VV002 10/10 A2969 RMK AO2 SLP047 T01000100,KTTN,2023-04-30T09:53:00Z,40.28,-74.82,10.0,10.0,50,6,,0.75,29.68996,1004.7,,,TRUE,,,,,,BR,OVX,0,,,,,,,LIFR,,,,,,,,,,,200,METAR,58.0
KTTD 300953Z AUTO 20009KT 10SM CLR 15/04 A2995 RMK AO2 SLP141 T01500044 $,KTTD,2023-04-30T09:53:00Z,45.55,-122.42,15.0,4.4,200,9,,10.0,29.949802,1014.1,,TRUE,TRUE,TRUE,,,,,,CLR,,,,,,,,VFR,,,,,,,,,,,,METAR,8.0
KTRL 300953Z AUTO 00000KT 10SM CLR 09/07 A2984 RMK AO2 SLP102 T00940072,KTRL,2023-04-30T09:53:00Z,32.72,-96.27,9.4,7.2,0,0,,10.0,29.840551,1010.2,,TRUE,TRUE,,,,,,,CLR,,,,,,,,VFR,,,,,,,,,,,,METAR,144.0
KTRI 300953Z 00000KT 5SM -RA BR BKN048 BKN060 OVC075 14/13 A2951 RMK AO2 SLP971 P0006 T01390133,KTRI,2023-04-30T09:53:00Z,36.48,-82.4,13.9,13.3,0,0,,5.0,29.509842,997.1,,,TRUE,,,,,,-RA BR,BKN,4800,BKN,6000,OVC,7500,,,MVFR,,,,,,0.06,,,,,,METAR,456.0
KTPA 300953Z 23021G34KT 9SM SCT021 BKN034 OVC046 24/22 A2963 RMK AO2 PK WND 22038/0925 RAB18E44 TSB22E49 SLP034 OCNL LTGIC DSNT NE CB DSNT NE P0009 T02440217,KTPA,2023-04-30T09:53:00Z,27.97,-82.53,24.4,21.7,230,21,34,9.0,29.630905,1003.4,,,TRUE,,,,,,,SCT,2100,BKN,3400,OVC,4600,,,VFR,,,,,,0.09,,,,,,METAR,2.0
KTOR 300953Z AUTO 02005KT 10SM FEW120 04/M05 A3010 RMK AO2 SLP170 T00441050,KTOR,2023-04-30T09:53:00Z,42.07,-104.15,4.4,-5.0,20,5,,10.0,30.100393,1017.0,,TRUE,TRUE,,,,,,,FEW,12000,,,,,,,VFR,,,,,,,,,,,,METAR,1285.0
KTOP 300953Z AUTO 31008KT 10SM CLR 08/02 A2985 RMK AO2 SLP103 T00830017,KTOP,2023-04-30T09:53:00Z,39.07,-95.63,8.3,1.7,310,8,,10.0,29.84941,1010.3,,TRUE,TRUE,,,,,,,CLR,,,,,,,,VFR,,,,,,,,,,,,METAR,268.0
KTOI 300953Z AUTO 25009G22KT 5SM -RA BR FEW009 BKN012 OVC020 16/13 A2958 RMK AO2 RAB15 SLP012 P0008 T01560133,KTOI,2023-04-30T09:53:00Z,31.85,-86.02,15.6,13.3,250,9,22,5.0,29.58071,1001.2,,TRUE,TRUE,,,,,,-RA BR,FEW,900,BKN,1200,OVC,2000,,,MVFR,,,,,,0.08,,,,,,METAR,120.0
KTMB 300953Z AUTO 21006KT 10SM CLR 26/24 A2976 RMK AO2 SLP076 T02610239,KTMB,2023-04-30T09:53:00Z,25.65,-80.43,26.1,23.9,210,6,,10.0,29.760826,1007.6,,TRUE,TRUE,,,,,,,CLR,,,,,,,,VFR,,,,,,,,,,,,METAR,2.0
KTLH 300953Z 26009KT 10SM FEW012 18/17 A2957 RMK AO2 SLP014 T01830172,KTLH,2023-04-30T09:53:00Z,30.4,-84.35,18.3,17.2,260,9,,10.0,29.568897,1001.4,,,TRUE,,,,,,,FEW,1200,,,,,,,VFR,,,,,,,,,,,,METAR,17.0
KTKI 300953Z AUTO 00000KT 10SM CLR 09/07 A2983 RMK AO2 SLP104 T00890072,KTKI,2023-04-30T09:53:00Z,33.18,-96.58,8.9,7.2,0,0,,10.0,29.828741,1010.4,,TRUE,TRUE,,,,,,,CLR,,,,,,,,VFR,,,,,,,,,,,,METAR,173.0
KTIW 300953Z AUTO 24006KT 10SM CLR 09/06 A2992 RMK AO2 SLP132 T00890061,KTIW,2023-04-30T09:53:00Z,47.27,-122.58,8.9,6.1,240,6,,10.0,29.920275,1013.2,,TRUE,TRUE,,,,,,,CLR,,,,,,,,VFR,,,,,,,,,,,,METAR,89.0
KTEB 300953Z 0104KT 1SM R06 2600 BR PVC003 11/11 A2970,KTEB,2023-04-30T09:53:00Z,40.87,-74.05,11.0,11.0,,,,1.0,29.698818,,,,,,,,,,BR,,,,,,,,,,,,,,,,,,,,,METAR,3.0
KTCS 300953Z AUTO 29009KT 10SM CLR 12/M07 A3006 RMK AO2 SLP115 T01171072,KTCS,2023-04-30T09:53:00Z,33.23,-107.27,11.7,-7.2,290,9,,10.0,30.059055,1011.5,,TRUE,TRUE,,,,,,,CLR,,,,,,,,VFR,,,,,,,,,,,,METAR,1471.0
KTCL 300953Z AUTO 30007KT 8SM FEW010 OVC095 15/14 A2962 RMK AO2 RAB02E26 SLP028 P0000 T01500139,KTCL,2023-04-30T09:53:00Z,33.22,-87.62,15.0,13.9,300,7,,8.0,29.619095,1002.8,,TRUE,TRUE,,,,,,,FEW,1000,OVC,9500,,,,,VFR,,,,,,0.005,,,,,,METAR,48.0
KSWO 300953Z 31005KT 10SM CLR 08/05 A2987 RMK AO2 SLP109 T00830050,KSWO,2023-04-30T09:53:00Z,36.17,-97.08,8.3,5.0,310,5,,10.0,29.870079,1010.9,,,TRUE,,,,,,,CLR,,,,,,,,VFR,,,,,,,,,,,,METAR,293.0
KSTS 300953Z AUTO 14003KT 1/2SM FG VV002 09/08 A2997 RMK AO2 SLP141 T00890078,KSTS,2023-04-30T09:53:00Z,38.5,-122.82,8.9,7.8,140,3,,0.5,29.970472,1014.1,,TRUE,TRUE,,,,,,FG,OVX,0,,,,,,,LIFR,,,,,,,,,,,200,METAR,35.0
KSTP 300953Z AUTO 35017G29KT 10SM FEW029 BKN042 OVC050 04/M01 A2962 RMK AO2 PK WND 34032/0933 RAB30E46 SLP032 P0000 T00441006,KSTP,2023-04-30T09:53:00Z,44.93,-93.05,4.4,-0.6,350,17,29,10.0,29.619095,1003.2,,TRUE,TRUE,,,,,,,FEW,2900,BKN,4200,OVC,5000,,,VFR,,,,,,0.005,,,,,,METAR,213.0
KSTJ 300953Z AUTO 31018G25KT 10SM CLR 08/01 A2980 RMK AO2 PK WND 31026/0942 SLP087 T00830006,KSTJ,2023-04-30T09:53:00Z,39.77,-94.92,8.3,0.6,310,18,25,10.0,29.799213,1008.7,,TRUE,TRUE,,,,,,,CLR,,,,,,,,VFR,,,,,,,,,,,,METAR,247.0
KSTC 300953Z AUTO 34014G29KT 10SM BKN036 OVC055 04/M02 A2967 RMK AO2 PK WND 35033/0916 SLP061 T00441022,KSTC,2023-04-30T09:53:00Z,45.55,-94.05,4.4,-2.2,340,14,29,10.0,29.66929,1006.1,,TRUE,TRUE,,,,,,,BKN,3600,OVC,5500,,,,,VFR,,,,,,,,,,,,METAR,302.0
KSSF 300953Z AUTO 30003KT 10SM 12/09 A2995 RMK AO2 SLP138 T01170089 $,KSSF,2023-04-30T09:53:00Z,29.33,-98.47,11.7,8.9,300,3,,10.0,29.949802,1013.8,,TRUE,TRUE,TRUE,,,,,,,,,,,,,,,,,,,,,,,,,,METAR,175.0
KSRQ 300953Z 22020G32KT 10SM VCTS FEW017 SCT060 OVC100 24/22 A2964 RMK AO2 PK WND 25040/0905 LTG DSNT NE-S RAE25 TSB0858E13 SLP037 P0021 T02440217,KSRQ,2023-04-30T09:53:00Z,27.4,-82.57,24.4,21.7,220,20,32,10.0,29.639763,1003.7,,,TRUE,,,,,,VCTS,FEW,1700,SCT,6000,OVC,10000,,,VFR,,,,,,0.21,,,,,,METAR,5.0
KSPW 300953Z AUTO 32015G24KT 10SM BKN070 04/01 A2976 RMK AO2 SLP081 T00440006 $,KSPW,2023-04-30T09:53:00Z,43.17,-95.22,4.4,0.6,320,15,24,10.0,29.760826,1008.1,,TRUE,TRUE,TRUE,,,,,,BKN,7000,,,,,,,VFR,,,,,,,,,,,,METAR,407.0
KSPG 300953Z AUTO 24018G34KT 10SM FEW033 FEW065 26/21 A2961 RMK AO2 PK WND 22036/0920 LTG DSNT E-S SLP028 T02560211,KSPG,2023-04-30T09:53:00Z,27.77,-82.63,25.6,21.1,240,18,34,10.0,29.610237,1002.8,,TRUE,TRUE,,,,,,,FEW,3300,FEW,6500,,,,,VFR,,,,,,,,,,,,METAR,1.0
KSPB 300953Z AUTO 00000KT 10SM CLR 09/07 A2995 RMK AO2 SLP143 T00940067,KSPB,2023-04-30T09:53:00Z,45.77,-122.87,9.4,6.7,0,0,,10.0,29.949802,1014.3,,TRUE,TRUE,,,,,,,CLR,,,,,,,,VFR,,,,,,,,,,,,METAR,15.0
KSNY 300953Z AUTO 36008KT 10SM FEW120 02/M04 A3007 RMK AO2 SLP165 T00171039,KSNY,2023-04-30T09:53:00Z,41.1,-102.98,1.7,-3.9,360,8,,10.0,30.070866,1016.5,,TRUE,TRUE,,,,,,,FEW,12000,,,,,,,VFR,,,,,,,,,,,,METAR,1307.0
KSNS 300953Z AUTO 27008KT 10SM OVC008 11/08 A2998 RMK AO2 SLP162 T01110083,KSNS,2023-04-30T09:53:00Z,36.67,-121.6,11.1,8.3,270,8,,10.0,29.97933,1016.2,,TRUE,TRUE,,,,,,,OVC,800,,,,,,,IFR,,,,,,,,,,,,METAR,20.0
KSNA 300953Z AUTO 13003KT 10SM OVC007 15/12 A2995 RMK AO2 SLP142 T01500122,KSNA,2023-04-30T09:53:00Z,33.67,-117.87,15.0,12.2,130,3,,10.0,29.949802,1014.2,,TRUE,TRUE,,,,,,,OVC,700,,,,,,,IFR,,,,,,,,,,,,METAR,14.0
KSMQ 300953Z AUTO 00000KT 6SM BR OVC006 11/11 A2971 RMK AO2 SLP060 T01110106,KSMQ,2023-04-30T09:53:00Z,40.62,-74.67,11.1,10.6,0,0,,6.0,29.71063,1006.0,,TRUE,TRUE,,,,,,BR,OVC,600,,,,,,,IFR,,,,,,,,,,,,METAR,30.0
KSMF 300953Z 15009KT 10SM FEW250 13/08 A2987 RMK AO2 SLP114 T01280078,KSMF,2023-04-30T09:53:00Z,38.7,-121.6,12.8,7.8,150,9,,10.0,29.870079,1011.4,,,TRUE,,,,,,,FEW,25000,,,,,,,VFR,,,,,,,,,,,,METAR,7.0
KSLN 300953Z AUTO 30008KT 10SM CLR 06/M01 A2994 RMK AO2 SLP132 T00611006,KSLN,2023-04-30T09:53:00Z,38.8,-97.65,6.1,-0.6,300,8,,10.0,29.940945,1013.2,,TRUE,TRUE,,,,,,,CLR,,,,,,,,VFR,,,,,,,,,,,,METAR,377.0
KSJC 300953Z AUTO 00000KT 10SM CLR 11/08 A2999 RMK AO2 SLP154 T01110083,KSJC,2023-04-30T09:53:00Z,37.37,-121.92,11.1,8.3,0,0,,10.0,29.991142,1015.4,,TRUE,TRUE,,,,,,,CLR,,,,,,,,VFR,,,,,,,,,,,,METAR,13.0
KSIY 300953Z AUTO 01009KT 10SM CLR 11/01 A2992 RMK AO2 SLP120 T01110011 $,KSIY,2023-04-30T09:53:00Z,41.77,-122.47,11.1,1.1,10,9,,10.0,29.920275,1012.0,,TRUE,TRUE,TRUE,,,,,,CLR,,,,,,,,VFR,,,,,,,,,,,,METAR,807.0
KSHR 300953Z AUTO 07004KT 10SM CLR 04/M02 A3009 RMK AO2 SLP178 T00441022,KSHR,2023-04-30T09:53:00Z,44.77,-106.97,4.4,-2.2,70,4,,10.0,30.088583,1017.8,,TRUE,TRUE,,,,,,,CLR,,,,,,,,VFR,,,,,,,,,,,,METAR,1212.0
KSGR 300953Z AUTO 00000KT 10SM CLR 11/09 A2991 RMK AO2 SLP130 T01110089,KSGR,2023-04-30T09:53:00Z,29.62,-95.65,11.1,8.9,0,0,,10.0,29.911417,1013.0,,TRUE,TRUE,,,,,,,CLR,,,,,,,,VFR,,,,,,,,,,,,METAR,22.0
KSFF 300953Z AUTO 00000KT 10SM CLR 11/07 A2986 RMK AO2 SLP099 T01060067,KSFF,2023-04-30T09:53:00Z,47.68,-117.32,10.6,6.7,0,0,,10.0,29.861221,1009.9,,TRUE,TRUE,,,,,,,CLR,,,,,,,,VFR,,,,,,,,,,,,METAR,593.0
KSFB 300953Z AUTO 20011G18KT 10SM CLR 23/21 A2959 RMK AO2 SLP020 T02280206,KSFB,2023-04-30T09:53:00Z,28.77,-81.23,22.8,20.6,200,11,18,10.0,29.589567,1002.0,,TRUE,TRUE,,,,,,,CLR,,,,,,,,VFR,,,,,,,,,,,,METAR,16.0
KSEG 300953Z AUTO 00000KT 3SM RA BR SCT014 BKN019 OVC024 11/11 A2964 RMK AO2 SLP038 P0045 T01110106,KSEG,2023-04-30T09:53:00Z,40.82,-76.87,11.1,10.6,0,0,,3.0,29.639763,1003.8,,TRUE,TRUE,,,,,,RA BR,SCT,1400,BKN,1900,OVC,2400,,,MVFR,,,,,,0.45,,,,,,METAR,136.0
KSEA 300953Z 21008KT 10SM FEW200 10/06 A2991 RMK AO2 SLP135 T01000056,KSEA,2023-04-30T09:53:00Z,47.45,-122.32,10.0,5.6,210,8,,10.0,29.911417,1013.5,,,TRUE,,,,,,,FEW,20000,,,,,,,VFR,,,,,,,,,,,,METAR,115.0
KSDM 300953Z AUTO 00000KT 5SM BR OVC004 14/12 A2995 RMK AO2 SLP138 T01390117 $,KSDM,2023-04-30T09:53:00Z,32.58,-117.0,13.9,11.7,0,0,,5.0,29.949802,1013.8,,TRUE,TRUE,TRUE,,,,,BR,OVC,400,,,,,,,LIFR,,,,,,,,,,,,METAR,161.0
KSDL 300953Z 00000KT 10SM CLR 21/01 A2984 RMK AO2 SLP080 T02060011,KSDL,2023-04-30T09:53:00Z,33.62,-111.92,20.6,1.1,0,0,,10.0,29.840551,1008.0,,,TRUE,,,,,,,CLR,,,,,,,,VFR,,,,,,,,,,,,METAR,438.0
KSBM 300953Z AUTO 27010KT 10SM FEW014 OVC046 03/01 A2936 RMK AO2 RAB31E48 SLP946 P0000 T00330011,KSBM,2023-04-30T09:53:00Z,43.78,-87.85,3.3,1.1,270,10,,10.0,29.359253,994.6,,TRUE,TRUE,,,,,,,FEW,1400,OVC,4600,,,,,VFR,,,,,,0.005,,,,,,METAR,225.0
KSBA 300953Z 00000KT 5SM BR OVC004 12/11 A2995 RMK AO2 SLP140 T01220111 $,KSBA,2023-04-30T09:53:00Z,34.43,-119.85,12.2,11.1,0,0,,5.0,29.949802,1014.0,,,TRUE,TRUE,,,,,BR,OVC,400,,,,,,,LIFR,,,,,,,,,,,,METAR,2.0
KSAV 300953Z 20007KT 7SM -RA FEW007 SCT013 SCT021 OVC130 21/19 A2949 RMK AO2 RAB35 SLP985 SCT021 V BKN P0000 T02060189 $,KSAV,2023-04-30T09:53:00Z,32.12,-81.2,20.6,18.9,200,7,,7.0,29.489174,998.5,,,TRUE,TRUE,,,,,-RA,FEW,700,SCT,1300,SCT,2100,OVC,13000,VFR,,,,,,0.005,,,,,,METAR,10.0
KSAF 300953Z AUTO 00000KT 10SM CLR 07/M04 A3009 RMK AO2 SLP118 T00721044 $,KSAF,2023-04-30T09:53:00Z,35.62,-106.1,7.2,-4.4,0,0,,10.0,30.088583,1011.8,,TRUE,TRUE,TRUE,,,,,,CLR,,,,,,,,VFR,,,,,,,,,,,,METAR,1918.0
KSAC 300953Z AUTO 16006KT 10SM CLR 12/08 A2989 RMK AO2 SLP121 T01170083,KSAC,2023-04-30T09:53:00Z,38.5,-121.5,11.7,8.3,160,6,,10.0,29.890747,1012.1,,TRUE,TRUE,,,,,,,CLR,,,,,,,,VFR,,,,,,,,,,,,METAR,5.0
KRXE 300953Z AUTO 02004KT 10SM CLR 04/M01 A3005 RMK AO2 SLP154 T00391011,KRXE,2023-04-30T09:53:00Z,43.83,-111.8,3.9,-1.1,20,4,,10.0,30.050198,1015.4,,TRUE,TRUE,,,,,,,CLR,,,,,,,,VFR,,,,,,,,,,,,METAR,1483.0
KRWL 300953Z AUTO 03007KT 10SM CLR 04/M01 A3011 RMK AO2 SLP133 T00441011,KRWL,2023-04-30T09:53:00Z,41.8,-107.2,4.4,-1.1,30,7,,10.0,30.109253,1013.3,,TRUE,TRUE,,,,,,,CLR,,,,,,,,VFR,,,,,,,,,,,,METAR,2066.0
KRWI 300953Z AUTO 00000KT 8SM -RA FEW029 OVC041 18/16 A2952 RMK AO2 RAB06 SLP994 P0002 T01780161 $,KRWI,2023-04-30T09:53:00Z,35.85,-77.9,17.8,16.1,0,0,,8.0,29.518702,999.4,,TRUE,TRUE,TRUE,,,,,-RA,FEW,2900,OVC,4100,,,,,VFR,,,,,,0.02,,,,,,METAR,46.0
KRWF 300953Z AUTO 32014G23KT 10SM CLR 03/M01 A2975 RMK AO2 PK WND 32026/0941 SLP080 T00331006,KRWF,2023-04-30T09:53:00Z,44.55,-95.08,3.3,-0.6,320,14,23,10.0,29.749016,1008.0,,TRUE,TRUE,,,,,,,CLR,,,,,,,,VFR,,,,,,,,,,,,METAR,312.0
KRVS 300953Z AUTO 00000KT 10SM CLR 08/06 A2985 RMK AO2 SLP114 T00780056,KRVS,2023-04-30T09:53:00Z,36.05,-95.98,7.8,5.6,0,0,,10.0,29.84941,1011.4,,TRUE,TRUE,,,,,,,CLR,,,,,,,,VFR,,,,,,,,,,,,METAR,191.0
KRUE 300953Z AUTO 00000KT 8SM CLR 07/06 A2978 RMK AO2 SLP078 T00720061,KRUE,2023-04-30T09:53:00Z,35.25,-93.1,7.2,6.1,0,0,,8.0,29.778543,1007.8,,TRUE,TRUE,,,,,,,CLR,,,,,,,,VFR,,,,,,,,,,,,METAR,119.0
KRTN 300953Z AUTO 05007KT 10SM CLR 02/M04 A3006 RMK AO2 SLP120 T00221039,KRTN,2023-04-30T09:53:00Z,36.73,-104.5,2.2,-3.9,50,7,,10.0,30.059055,1012.0,,TRUE,TRUE,,,,,,,CLR,,,,,,,,VFR,,,,,,,,,,,,METAR,1939.0
KRSW 300953Z 21023G33KT 10SM FEW023 27/23 A2966 RMK AO2 PK WND 19033/0948 LTG DSNT NW SLP040 T02670233,KRSW,2023-04-30T09:53:00Z,26.53,-81.75,26.7,23.3,210,23,33,10.0,29.660433,1004.0,,,TRUE,,,,,,,FEW,2300,,,,,,,VFR,,,,,,,,,,,,METAR,8.0
KRSL 300953Z AUTO 34010KT 10SM SCT110 09/M02 A2995 RMK AO2 SLP133 T00891022 $,KRSL,2023-04-30T09:53:00Z,38.87,-98.82,8.9,-2.2,340,10,,10.0,29.949802,1013.3,,TRUE,TRUE,TRUE,,,,,,SCT,11000,,,,,,,VFR,,,,,,,,,,,,METAR,569.0
KRQE 300953Z AUTO 00000KT 10SM CLR 00/M08 A3018 RMK AO2 SLP138 T00001083,KRQE,2023-04-30T09:53:00Z,35.65,-109.07,0.0,-8.3,0,0,,10.0,30.180119,1013.8,,TRUE,TRUE,,,,,,,CLR,,,,,,,,VFR,,,,,,,,,,,,METAR,2056.0
KRNT 300953Z AUTO 17006KT 10SM CLR 13/07 A2991 RMK AO2 SLP132 T01280067 $,KRNT,2023-04-30T09:53:00Z,47.5,-122.22,12.8,6.7,170,6,,10.0,29.911417,1013.2,,TRUE,TRUE,TRUE,,,,,,CLR,,,,,,,,VFR,,,,,,,,,,,,METAR,7.0
KRMG 300953Z AUTO 23004KT 8SM FEW006 BKN018 OVC029 16/15 A2950 RMK AO2 LTG DSNT N RAE46 SLP983 P0003 T01610150,KRMG,2023-04-30T09:53:00Z,34.35,-85.17,16.1,15.0,230,4,,8.0,29.500984,998.3,,TRUE,TRUE,,,,,,,FEW,600,BKN,1800,OVC,2900,,,MVFR,,,,,,0.03,,,,,,METAR,196.0
KRME 300953Z AUTO 11010KT 10SM FEW014 BKN060 BKN080 09/07 A2969 RMK AO2 SLP053 T00890067,KRME,2023-04-30T09:53:00Z,43.22,-75.4,8.9,6.7,110,10,,10.0,29.68996,1005.3,,TRUE,TRUE,,,,,,,FEW,1400,BKN,6000,BKN,8000,,,VFR,,,,,,,,,,,,METAR,146.0
KRKP 300953Z AUTO A2996 RMK AO2 SLP148 PWINO $,KRKP,2023-04-30T09:53:00Z,28.08,-97.05,,,,,,,29.958662,1014.8,,TRUE,TRUE,TRUE,,,,TRUE,,,,,,,,,,,,,,,,,,,,,,METAR,8.0
KRIW 300953Z AUTO 04004KT 10SM CLR 05/M01 A3007 RMK AO2 SLP147 T00501006,KRIW,2023-04-30T09:53:00Z,43.07,-108.43,5.0,-0.6,40,4,,10.0,30.070866,1014.7,,TRUE,TRUE,,,,,,,CLR,,,,,,,,VFR,,,,,,,,,,,,METAR,1662.0
KRIL 300953Z AUTO 00000KT 10SM CLR 05/M01 A3011 RMK AO2 SLP156 T00501006,KRIL,2023-04-30T09:53:00Z,39.53,-107.73,5.0,-0.6,0,0,,10.0,30.109253,1015.6,,TRUE,TRUE,,,,,,,CLR,,,,,,,,VFR,,,,,,,,,,,,METAR,1683.0
KRHI 300953Z AUTO 34007KT 1SM -SN BR VV010 00/M02 A2934 RMK AO2 SLP952 P0007 T00001017,KRHI,2023-04-30T09:53:00Z,45.63,-89.48,0.0,-1.7,340,7,,1.0,29.338583,995.2,,TRUE,TRUE,,,,,,-SN BR,OVX,0,,,,,,,LIFR,,,,,,0.07,,,,,1000,METAR,493.0
KRDD 300953Z AUTO 00000KT 10SM CLR 16/10 A2984 RMK AO2 SLP099 T01560100,KRDD,2023-04-30T09:53:00Z,40.52,-122.3,15.6,10.0,0,0,,10.0,29.840551,1009.9,,TRUE,TRUE,,,,,,,CLR,,,,,,,,VFR,,,,,,,,,,,,METAR,152.0
KRBG 300953Z AUTO 00000KT 10SM CLR 11/04 A2998 RMK AO2 SLP150 T01060044,KRBG,2023-04-30T09:53:00Z,43.23,-123.35,10.6,4.4,0,0,,10.0,29.97933,1015.0,,TRUE,TRUE,,,,,,,CLR,,,,,,,,VFR,,,,,,,,,,,,METAR,152.0
KRBD 300953Z AUTO 25010KT 10SM CLR 17/05 A2983 RMK AO2 SLP096 T01720050,KRBD,2023-04-30T09:53:00Z,32.68,-96.87,17.2,5.0,250,10,,10.0,29.828741,1009.6,,TRUE,TRUE,,,,,,,CLR,,,,,,,,VFR,,,,,,,,,,,,METAR,200.0
KRAL 300953Z AUTO 28003KT 5SM BR CLR 12/11 A2995 RMK AO2 SLP126 T01170106,KRAL,2023-04-30T09:53:00Z,33.95,-117.45,11.7,10.6,280,3,,5.0,29.949802,1012.6,,TRUE,TRUE,,,,,,BR,CLR,,,,,,,,MVFR,,,,,,,,,,,,METAR,254.0
KRAC 300953Z AUTO 25009KT 10SM FEW036 05/01 A2943 RMK AO2 SLP967 T00500011,KRAC,2023-04-30T09:53:00Z,42.77,-87.82,5.0,1.1,250,9,,10.0,29.430119,996.7,,TRUE,TRUE,,,,,,,FEW,3600,,,,,,,VFR,,,,,,,,,,,,METAR,203.0
KPWA 300953Z AUTO 01005KT 10SM CLR 12/04 A2987 RMK AO2 SLP108 T01170044,KPWA,2023-04-30T09:53:00Z,35.53,-97.65,11.7,4.4,10,5,,10.0,29.870079,1010.8,,TRUE,TRUE,,,,,,,CLR,,,,,,,,VFR,,,,,,,,,,,,METAR,390.0
KPUW 300953Z AUTO 09012KT 10SM CLR 17/03 A2984 RMK AO2 SLP087 T01670033,KPUW,2023-04-30T09:53:00Z,46.75,-117.12,16.7,3.3,90,12,,10.0,29.840551,1008.7,,TRUE,TRUE,,,,,,,CLR,,,,,,,,VFR,,,,,,,,,,,,METAR,774.0
KPUC 300953Z AUTO 00000KT 10SM CLR 08/M07 A3009 RMK AO2 SLP138 T00831067,KPUC,2023-04-30T09:53:00Z,39.62,-110.75,8.3,-6.7,0,0,,10.0,30.088583,1013.8,,TRUE,TRUE,,,,,,,CLR,,,,,,,,VFR,,,,,,,,,,,,METAR,1777.0
KPUB 300953Z AUTO 00000KT 10SM CLR 09/02 A3003 RMK AO2 SLP123 T00890022,KPUB,2023-04-30T09:53:00Z,38.28,-104.5,8.9,2.2,0,0,,10.0,30.029528,1012.3,,TRUE,TRUE,,,,,,,CLR,,,,,,,,VFR,,,,,,,,,,,,METAR,1441.0
KPTK 300953Z 00000KT 3SM BR BKN070 OVC090 06/04 A2941 RMK AO2 SLP959 T00560044,KPTK,2023-04-30T09:53:00Z,42.67,-83.42,5.6,4.4,0,0,,3.0,29.409449,995.9,,,TRUE,,,,,,BR,BKN,7000,OVC,9000,,,,,MVFR,,,,,,,,,,,,METAR,295.0
KPSX 300953Z AUTO 24005KT 10SM CLR 16/12 A2994 RMK AO2 SLP137 T01560117 $,KPSX,2023-04-30T09:53:00Z,28.72,-96.25,15.6,11.7,240,5,,10.0,29.940945,1013.7,,TRUE,TRUE,TRUE,,,,,,CLR,,,,,,,,VFR,,,,,,,,,,,,METAR,4.0
KPSP 300953Z AUTO VRB03KT 10SM CLR 24/09 A2980 RMK AO2 SLP086 T02440094,KPSP,2023-04-30T09:53:00Z,33.82,-116.5,24.4,9.4,0,3,,10.0,29.799213,1008.6,,TRUE,TRUE,,,,,,,CLR,,,,,,,,VFR,,,,,,,,,,,,METAR,123.0
KPSC 300953Z AUTO 10003KT 10SM CLR 12/09 A2977 RMK AO2 SLP078 T01170089,KPSC,2023-04-30T09:53:00Z,46.27,-119.12,11.7,8.9,100,3,,10.0,29.769686,1007.8,,TRUE,TRUE,,,,,,,CLR,,,,,,,,VFR,,,,,,,,,,,,METAR,121.0
KPRC 300953Z AUTO 20007KT 10SM CLR 12/M07 A3008 RMK AO2 SLP114 T01171067 $,KPRC,2023-04-30T09:53:00Z,34.65,-112.42,11.7,-6.7,200,7,,10.0,30.079725,1011.4,,TRUE,TRUE,TRUE,,,,,,CLR,,,,,,,,VFR,,,,,,,,,,,,METAR,1528.0
KPRB 300953Z AUTO 32004KT 10SM CLR 11/08 A2993 RMK AO2 SLP130 T01060078,KPRB,2023-04-30T09:53:00Z,35.67,-120.63,10.6,7.8,320,4,,10.0,29.929134,1013.0,,TRUE,TRUE,,,,,,,CLR,,,,,,,,VFR,,,,,,,,,,,,METAR,249.0
KPQL 300953Z AUTO 31005KT 10SM OVC014 16/14 A2971 RMK AO2 SLP062 T01610144,KPQL,2023-04-30T09:53:00Z,30.47,-88.53,16.1,14.4,310,5,,10.0,29.71063,1006.2,,TRUE,TRUE,,,,,,,OVC,1400,,,,,,,MVFR,,,,,,,,,,,,METAR,4.0
KPOU 300953Z AUTO 36004KT 10SM OVC006 09/09 A2972 RMK AO2 CIG 004V009 SLP061 T00940089,KPOU,2023-04-30T09:53:00Z,41.63,-73.88,9.4,8.9,360,4,,10.0,29.719488,1006.1,,TRUE,TRUE,,,,,,,OVC,600,,,,,,,IFR,,,,,,,,,,,,METAR,45.0
KPOF 300953Z AUTO 29006KT 10SM CLR 08/04 A2971 RMK AO2 SLP059 T00830044,KPOF,2023-04-30T09:53:00Z,36.77,-90.32,8.3,4.4,290,6,,10.0,29.71063,1005.9,,TRUE,TRUE,,,,,,,CLR,,,,,,,,VFR,,,,,,,,,,,,METAR,99.0
KPNS 300953Z AUTO 29009KT 10SM BKN048 16/13 A2967 RMK AO2 SLP048 T01610133,KPNS,2023-04-30T09:53:00Z,30.48,-87.18,16.1,13.3,290,9,,10.0,29.66929,1004.8,,TRUE,TRUE,,,,,,,BKN,4800,,,,,,,VFR,,,,,,,,,,,,METAR,34.0
KPNC 300953Z AUTO 00000KT 10SM CLR 07/04 A2988 RMK AO2 SLP112 T00720039,KPNC,2023-04-30T09:53:00Z,36.73,-97.1,7.2,3.9,0,0,,10.0,29.878937,1011.2,,TRUE,TRUE,,,,,,,CLR,,,,,,,,VFR,,,,,,,,,,,,METAR,304.0
KPMP 300953Z AUTO 19011G19KT 10SM CLR 27/23 A2972 RMK AO2 WSHFT 0937 SLP064 T02670233 $,KPMP,2023-04-30T09:53:00Z,26.25,-80.12,26.7,23.3,190,11,19,10.0,29.719488,1006.4,,TRUE,TRUE,TRUE,,,,,,CLR,,,,,,,,VFR,,,,,,,,,,,,METAR,4.0
KPMD 300953Z AUTO 24008KT 10SM CLR 18/07 A2994 RMK AO2 SLP108 T01830067,KPMD,2023-04-30T09:53:00Z,34.63,-118.08,18.3,6.7,240,8,,10.0,29.940945,1010.8,,TRUE,TRUE,,,,,,,CLR,,,,,,,,VFR,,,,,,,,,,,,METAR,764.0
KPKD 300953Z AUTO 35016G30KT 10SM CLR 03/M04 A2978 RMK AO2 PK WND 36032/0938 SLP095 T00281039,KPKD,2023-04-30T09:53:00Z,46.9,-95.07,2.8,-3.9,350,16,30,10.0,29.778543,1009.5,,TRUE,TRUE,,,,,,,CLR,,,,,,,,VFR,,,,,,,,,,,,METAR,439.0
KPKB 300953Z AUTO 12/11 A2948 RMK AO2 RAE0856 SLP980 P0000 T01170111 $,KPKB,2023-04-30T09:53:00Z,39.35,-81.43,11.7,11.1,,,,,29.480314,998.0,,TRUE,TRUE,TRUE,,,,,,,,,,,,,,,,,,,,0.005,,,,,,METAR,245.0
KPIR 300953Z AUTO 33010KT 10SM CLR 01/M03 A3005 RMK AO2 SLP182 T00061028,KPIR,2023-04-30T09:53:00Z,44.38,-100.28,0.6,-2.8,330,10,,10.0,30.050198,1018.2,,TRUE,TRUE,,,,,,,CLR,,,,,,,,VFR,,,,,,,,,,,,METAR,524.0
KPIL 300953Z AUTO 21006KT 10SM CLR 14/12 A2998 RMK AO2 SLP150 T01440122,KPIL,2023-04-30T09:53:00Z,26.17,-97.33,14.4,12.2,210,6,,10.0,29.97933,1015.0,,TRUE,TRUE,,,,,,,CLR,,,,,,,,VFR,,,,,,,,,,,,METAR,5.0
KPIH 300953Z AUTO 29005KT 10SM CLR 11/M01 A3001 RMK AO2 SLP125 T01061006,KPIH,2023-04-30T09:53:00Z,42.92,-112.57,10.6,-0.6,290,5,,10.0,30.008858,1012.5,,TRUE,TRUE,,,,,,,CLR,,,,,,,,VFR,,,,,,,,,,,,METAR,1357.0
KPHD 300953Z AUTO 00000KT 10SM FEW048 OVC090 10/07 A2947 RMK AO2 SLP979 T01000072,KPHD,2023-04-30T09:53:00Z,40.47,-81.42,10.0,7.2,0,0,,10.0,29.471457,997.9,,TRUE,TRUE,,,,,,,FEW,4800,OVC,9000,,,,,VFR,,,,,,,,,,,,METAR,272.0
KPGD 300953Z 21011G20KT 9SM -TSRA SCT024 BKN060 OVC110 26/23 A2968 RMK AO2 PK WND 20030/0908 LTG DSNT ALQDS RAB52 TSB47 SLP049 P0001 T02610233,KPGD,2023-04-30T09:53:00Z,26.92,-82.0,26.1,23.3,210,11,20,9.0,29.681103,1004.9,,,TRUE,,,,,,-TSRA,SCT,2400,BKN,6000,OVC,11000,,,VFR,,,,,,0.01,,,,,,METAR,7.0
KPGA 300953Z AUTO 00000KT 10SM CLR 17/M07 A3002 RMK AO2 SLP106 T01721072,KPGA,2023-04-30T09:53:00Z,36.92,-111.45,17.2,-7.2,0,0,,10.0,30.02067,1010.6,,TRUE,TRUE,,,,,,,CLR,,,,,,,,VFR,,,,,,,,,,,,METAR,1310.0
KPEO 300953Z AUTO 15005KT 10SM FEW012 SCT095 11/09 A2959 RMK AO2 SLP021 T01060094,KPEO,2023-04-30T09:53:00Z,42.65,-77.05,10.6,9.4,150,5,,10.0,29.589567,1002.1,,TRUE,TRUE,,,,,,,FEW,1200,SCT,9500,,,,,VFR,,,,,,,,,,,,METAR,268.0
KPDX 300953Z 30003KT 10SM SCT100 12/07 A2995 RMK AO2 SLP141 T01220072,KPDX,2023-04-30T09:53:00Z,45.6,-122.62,12.2,7.2,300,3,,10.0,29.949802,1014.1,,,TRUE,,,,,,,SCT,10000,,,,,,,VFR,,,,,,,,,,,,METAR,7.0
KPDT 300953Z AUTO 14009KT 10SM CLR 15/08 A2982 RMK AO2 SLP084 T01500083,KPDT,2023-04-30T09:53:00Z,45.7,-118.83,15.0,8.3,140,9,,10.0,29.819881,1008.4,,TRUE,TRUE,,,,,,,CLR,,,,,,,,VFR,,,,,,,,,,,,METAR,453.0
KPDK 300953Z AUTO 01006KT 4SM RA BR SCT065 OVC080 14/13 A2949 RMK AO2 LTG DSNT SW SLP978 P0024 T01390133,KPDK,2023-04-30T09:53:00Z,33.88,-84.3,13.9,13.3,10,6,,4.0,29.489174,997.8,,TRUE,TRUE,,,,,,RA BR,SCT,6500,OVC,8000,,,,,MVFR,,,,,,0.24,,,,,,METAR,299.0
KPBI 300953Z 19013KT 10SM SCT150 BKN230 26/23 A2971 RMK AO2 SLP061 T02610233,KPBI,2023-04-30T09:53:00Z,26.68,-80.1,26.1,23.3,190,13,,10.0,29.71063,1006.1,,,TRUE,,,,,,,SCT,15000,BKN,23000,,,,,VFR,,,,,,,,,,,,METAR,4.0
KPBG 300953Z AUTO 12003KT 10SM OVC040 07/05 A2978 RMK AO2 SLP085 T00720050,KPBG,2023-04-30T09:53:00Z,44.65,-73.47,7.2,5.0,120,3,,10.0,29.778543,1008.5,,TRUE,TRUE,,,,,,,OVC,4000,,,,,,,VFR,,,,,,,,,,,,METAR,61.0
KPBF 300953Z AUTO 32010KT 10SM CLR 13/08 A2978 RMK AO2 SLP082 T01280078,KPBF,2023-04-30T09:53:00Z,34.18,-91.93,12.8,7.8,320,10,,10.0,29.778543,1008.2,,TRUE,TRUE,,,,,,,CLR,,,,,,,,VFR,,,,,,,,,,,,METAR,63.0
KPAH 300953Z AUTO 32006KT 10SM CLR 08/05 A2965 RMK AO2 SLP039 T00830050,KPAH,2023-04-30T09:53:00Z,37.07,-88.77,8.3,5.0,320,6,,10.0,29.648623,1003.9,,TRUE,TRUE,,,,,,,CLR,,,,,,,,VFR,,,,,,,,,,,,METAR,125.0
KPAE 300953Z AUTO 20003KT 10SM CLR 11/06 A2990 RMK AO2 SLP122 T01110056,KPAE,2023-04-30T09:53:00Z,47.92,-122.28,11.1,5.6,200,3,,10.0,29.899607,1012.2,,TRUE,TRUE,,,,,,,CLR,,,,,,,,VFR,,,,,,,,,,,,METAR,166.0
KP68 300953Z AUTO 20009KT 09/M02 A3006 RMK AO1 SLP105 T00941017,KP68,2023-04-30T09:53:00Z,39.6,-116.0,9.4,-1.7,200,9,,,30.059055,1010.5,,TRUE,TRUE,,,,,,,,,,,,,,,,,,,,,,,,,,,METAR,1813.0
KOXB 300953Z AUTO 09005KT 10SM OVC005 14/13 A2960 RMK AO2 LTG DSNT SE SLP022 T01390128,KOXB,2023-04-30T09:53:00Z,38.32,-75.12,13.9,12.8,90,5,,10.0,29.601377,1002.2,,TRUE,TRUE,,,,,,,OVC,500,,,,,,,IFR,,,,,,,,,,,,METAR,2.0
KOWD 300953Z AUTO 05005KT 7SM OVC011 11/09 A2983 RMK AO2 RAE46 SLP101 P0002 T01060089,KOWD,2023-04-30T09:53:00Z,42.18,-71.17,10.6,8.9,50,5,,7.0,29.828741,1010.1,,TRUE,TRUE,,,,,,,OVC,1100,,,,,,,MVFR,,,,,,0.02,,,,,,METAR,14.0
KOWA 300953Z AUTO 31019G24KT 10SM BKN045 OVC080 04/M01 A2962 RMK AO2,KOWA,2023-04-30T09:53:00Z,44.12,-93.25,4.0,-1.0,310,19,24,10.0,29.619095,,,TRUE,TRUE,,,,,,,BKN,4500,OVC,8000,,,,,VFR,,,,,,,,,,,,METAR,345.0
KOVS 300953Z AUTO 31010G16KT 10SM BKN038 OVC055 07/M01 A2950 RMK AO2 SLP992 T00671006,KOVS,2023-04-30T09:53:00Z,43.15,-90.68,6.7,-0.6,310,10,16,10.0,29.500984,999.2,,TRUE,TRUE,,,,,,,BKN,3800,OVC,5500,,,,,VFR,,,,,,,,,,,,METAR,205.0
KOTM 300953Z AUTO 30013G21KT 10SM CLR 04/03 A2964 RMK AO2 SLP042 T00440028,KOTM,2023-04-30T09:53:00Z,41.1,-92.45,4.4,2.8,300,13,21,10.0,29.639763,1004.2,,TRUE,TRUE,,,,,,,CLR,,,,,,,,VFR,,,,,,,,,,,,METAR,254.0
KOSU 300953Z AUTO 00000KT 1/2SM FG CLR 09/08 A2944 RMK AO2 SLP967 T00940078,KOSU,2023-04-30T09:53:00Z,40.08,-83.08,9.4,7.8,0,0,,0.5,29.438976,996.7,,TRUE,TRUE,,,,,,FG,CLR,,,,,,,,LIFR,,,,,,,,,,,,METAR,276.0
KOSH 300953Z AUTO 28006KT 10SM FEW013 BKN031 OVC055 03/00 A2936 RMK AO2 SLP947 T00280000,KOSH,2023-04-30T09:53:00Z,43.98,-88.55,2.8,0.0,280,6,,10.0,29.359253,994.7,,TRUE,TRUE,,,,,,,FEW,1300,BKN,3100,OVC,5500,,,VFR,,,,,,,,,,,,METAR,239.0
KORL 300953Z AUTO 19010G20KT 10SM FEW029 FEW047 23/20 A2961 RMK AO2 SLP029 T02330200,KORL,2023-04-30T09:53:00Z,28.55,-81.33,23.3,20.0,190,10,20,10.0,29.610237,1002.9,,TRUE,TRUE,,,,,,,FEW,2900,FEW,4700,,,,,VFR,,,,,,,,,,,,METAR,32.0
KORB 300953Z AUTO 32007G14KT 300V360 3SM -SN OVC014 00/M01 A2969 RMK AO2,KORB,2023-04-30T09:53:00Z,48.02,-92.87,0.0,-1.0,320,7,14,3.0,29.68996,,,TRUE,TRUE,,,,,,-SN,OVC,1400,,,,,,,MVFR,,,,,,,,,,,,METAR,407.0
KOQT 300953Z AUTO VRB03KT 10SM SCT070 OVC100 13/12 A2952 RMK AO2 SLP987 T01330122,KOQT,2023-04-30T09:53:00Z,36.02,-84.23,13.3,12.2,0,3,,10.0,29.518702,998.7,,TRUE,TRUE,,,,,,,SCT,7000,OVC,10000,,,,,VFR,,,,,,,,,,,,METAR,276.0
KOPF 300953Z AUTO 20009KT 10SM CLR 26/23 A2975 RMK AO2 SLP075 T02610228,KOPF,2023-04-30T09:53:00Z,25.92,-80.28,26.1,22.8,200,9,,10.0,29.749016,1007.5,,TRUE,TRUE,,,,,,,CLR,,,,,,,,VFR,,,,,,,,,,,,METAR,1.0
KONT 300953Z 26003KT 5SM BR CLR 12/11 A2994 RMK AO2 SLP127 T01220111 $,KONT,2023-04-30T09:53:00Z,34.05,-117.58,12.2,11.1,260,3,,5.0,29.940945,1012.7,,,TRUE,TRUE,,,,,BR,CLR,,,,,,,,MVFR,,,,,,,,,,,,METAR,279.0
KONO 300953Z AUTO 24005KT 10SM CLR 10/05 A2987 RMK AO2 SLP107 T01000050,KONO,2023-04-30T09:53:00Z,44.02,-117.02,10.0,5.0,240,5,,10.0,29.870079,1010.7,,TRUE,TRUE,,,,,,,CLR,,,,,,,,VFR,,,,,,,,,,,,METAR,668.0
KOMK 300953Z AUTO 00000KT 10SM CLR 11/06 A2983 RMK AO2 SLP095 T01110056,KOMK,2023-04-30T09:53:00Z,48.47,-119.52,11.1,5.6,0,0,,10.0,29.828741,1009.5,,TRUE,TRUE,,,,,,,CLR,,,,,,,,VFR,,,,,,,,,,,,METAR,395.0
KOLF 300953Z AUTO 00000KT 10SM CLR M01/M04 A3017 RMK AO2 SLP228 T10111044,KOLF,2023-04-30T09:53:00Z,48.1,-105.58,-1.1,-4.4,0,0,,10.0,30.171259,1022.8,,TRUE,TRUE,,,,,,,CLR,,,,,,,,VFR,,,,,,,,,,,,METAR,605.0
KOJC 300953Z AUTO 32007KT 10SM CLR 08/01 A2980 RMK AO2 SLP087 T00780011,KOJC,2023-04-30T09:53:00Z,38.85,-94.73,7.8,1.1,320,7,,10.0,29.799213,1008.7,,TRUE,TRUE,,,,,,,CLR,,,,,,,,VFR,,,,,,,,,,,,METAR,328.0
KOGD 300953Z AUTO 16008KT 10SM CLR 13/M02 A3001 RMK AO2 SLP115 T01281022,KOGD,2023-04-30T09:53:00Z,41.2,-112.02,12.8,-2.2,160,8,,10.0,30.008858,1011.5,,TRUE,TRUE,,,,,,,CLR,,,,,,,,VFR,,,,,,,,,,,,METAR,1356.0
KOGB 300953Z AUTO 20007KT 10SM BKN007 19/19 A2945 RMK AO2 CIG 004V011 SLP969 T01940189,KOGB,2023-04-30T09:53:00Z,33.47,-80.85,19.4,18.9,200,7,,10.0,29.450787,996.9,,TRUE,TRUE,,,,,,,BKN,700,,,,,,,IFR,,,,,,,,,,,,METAR,59.0
KODX 300953Z AUTO 30008KT 10SM CLR 03/M03 A2998 RMK AO2 SLP154 T00331033,KODX,2023-04-30T09:53:00Z,41.62,-98.95,3.3,-3.3,300,8,,10.0,29.97933,1015.4,,TRUE,TRUE,,,,,,,CLR,,,,,,,,VFR,,,,,,,,,,,,METAR,628.0
KODO 300953Z AUTO 24004KT 10SM CLR 13/M05 A3000 RMK AO2 SLP122 T01331050,KODO,2023-04-30T09:53:00Z,31.92,-102.4,13.3,-5.0,240,4,,10.0,30.0,1012.2,,TRUE,TRUE,,,,,,,CLR,,,,,,,,VFR,,,,,,,,,,,,METAR,912.0
KOAK 300953Z 27006KT 10SM FEW006 OVC010 11/08 A2999 RMK AO2 SLP156 T01060083,KOAK,2023-04-30T09:53:00Z,37.72,-122.23,10.6,8.3,270,6,,10.0,29.991142,1015.6,,,TRUE,,,,,,,FEW,600,OVC,1000,,,,,MVFR,,,,,,,,,,,,METAR,3.0
KNUW 300953Z 22008KT 10SM FEW010 FEW100 09/07 A2990 RMK AO2 SLP129 T00940072 VISNO $,KNUW,2023-04-30T09:53:00Z,48.35,-122.65,9.4,7.2,220,8,,10.0,29.899607,1012.9,,,TRUE,TRUE,,,,,,FEW,1000,FEW,10000,,,,,VFR,,,,,,,,,,,,METAR,14.0
KNUI 300953Z AUTO VRB04KT 8SM -RA OVC005 17/16 A2954 RMK AO2 RAB52 SLP001 P0000 T01670156 $,KNUI,2023-04-30T09:53:00Z,38.15,-76.43,16.7,15.6,0,4,,8.0,29.53937,1000.1,,TRUE,TRUE,TRUE,,,,,-RA,OVC,500,,,,,,,IFR,,,,,,0.005,,,,,,METAR,4.0
KNSI 300953Z AUTO 28011KT 1/2SM FG VV002 11/11 A2995 RMK AO2 SLP139 T01060106 $,KNSI,2023-04-30T09:53:00Z,33.23,-119.45,10.6,10.6,280,11,,0.5,29.949802,1013.9,,TRUE,TRUE,TRUE,,,,,FG,OVX,0,,,,,,,LIFR,,,,,,,,,,,200,METAR,161.0
KNRS 300953Z AUTO 29003KT 8SM OVC007 14/12 A2996 RMK AO2 SLP145 T01440122,KNRS,2023-04-30T09:53:00Z,32.57,-117.12,14.4,12.2,290,3,,8.0,29.958662,1014.5,,TRUE,TRUE,,,,,,,OVC,700,,,,,,,IFR,,,,,,,,,,,,METAR,15.0
KNQX 300953Z AUTO 21023G30KT 10SM FEW018 SCT025 SCT030 A2978 RMK AO2 PK WND 19032/0856 SLP085 $,KNQX,2023-04-30T09:53:00Z,24.57,-81.67,,,210,23,30,10.0,29.778543,1008.5,,TRUE,TRUE,TRUE,,,,,,FEW,1800,SCT,2500,SCT,3000,,,VFR,,,,,,,,,,,,METAR,2.0
KNIP 300953Z AUTO 18011KT 10SM FEW033 SCT041 BKN080 23/21 A2952 RMK AO2 SLP990 T02280206 $,KNIP,2023-04-30T09:53:00Z,30.23,-81.67,22.8,20.6,180,11,,10.0,29.518702,999.0,,TRUE,TRUE,TRUE,,,,,,FEW,3300,SCT,4100,BKN,8000,,,VFR,,,,,,,,,,,,METAR,3.0
KNEW 300953Z AUTO 30020G28KT 10SM OVC045 18/14 A2980 RMK AO2 PK WND 31033/0856 SLP084 T01830139,KNEW,2023-04-30T09:53:00Z,30.05,-90.03,18.3,13.9,300,20,28,10.0,29.799213,1008.4,,TRUE,TRUE,,,,,,,OVC,4500,,,,,,,VFR,,,,,,,,,,,,METAR,1.0
KMYV 300953Z AUTO 15007KT 10SM CLR 14/08 A2986 RMK AO2 SLP116 T01440083 $,KMYV,2023-04-30T09:53:00Z,39.1,-121.57,14.4,8.3,150,7,,10.0,29.861221,1011.6,,TRUE,TRUE,TRUE,,,,,,CLR,,,,,,,,VFR,,,,,,,,,,,,METAR,18.0
KMYF 300953Z AUTO 00000KT 7SM OVC007 14/12 A2995 RMK AO2 SLP140 T01390117,KMYF,2023-04-30T09:53:00Z,32.82,-117.13,13.9,11.7,0,0,,7.0,29.949802,1014.0,,TRUE,TRUE,,,,,,,OVC,700,,,,,,,IFR,,,,,,,,,,,,METAR,128.0
KMWL 300953Z AUTO 29004KT 10SM CLR 10/06 A2986 RMK AO2 SLP104 T01000061,KMWL,2023-04-30T09:53:00Z,32.78,-98.07,10.0,6.1,290,4,,10.0,29.861221,1010.4,,TRUE,TRUE,,,,,,,CLR,,,,,,,,VFR,,,,,,,,,,,,METAR,288.0
KMVY 300953Z AUTO 13015G23KT 5SM -RA BR OVC005 11/11 A2977 RMK AO2 RAE02B46 SLP080 P0000 T01110106,KMVY,2023-04-30T09:53:00Z,41.4,-70.62,11.1,10.6,130,15,23,5.0,29.769686,1008.0,,TRUE,TRUE,,,,,,-RA BR,OVC,500,,,,,,,IFR,,,,,,0.005,,,,,,METAR,18.0
KMTO 300953Z AUTO 26007KT 10SM SCT007 06/04 A2957 RMK AO2 SLP012 T00560044,KMTO,2023-04-30T09:53:00Z,39.47,-88.27,5.6,4.4,260,7,,10.0,29.568897,1001.2,,TRUE,TRUE,,,,,,,SCT,700,,,,,,,VFR,,,,,,,,,,,,METAR,216.0
KMTJ 300953Z AUTO 15006KT 10SM CLR 07/M02 A3012 RMK AO2 SLP146 T00721017,KMTJ,2023-04-30T09:53:00Z,38.5,-107.9,7.2,-1.7,150,6,,10.0,30.121063,1014.6,,TRUE,TRUE,,,,,,,CLR,,,,,,,,VFR,,,,,,,,,,,,METAR,1755.0
KMTH 300953Z AUTO 20013G27KT 10SM FEW020 28/24 A2975 RMK AO2 PK WND 17030/0937 SLP074 T02780239,KMTH,2023-04-30T09:53:00Z,24.73,-81.05,27.8,23.9,200,13,27,10.0,29.749016,1007.4,,TRUE,TRUE,,,,,,,FEW,2000,,,,,,,VFR,,,,,,,,,,,,METAR,1.0
KMSY 300953Z 27011KT 10SM BKN046 16/13 A2982 RMK AO2 SLP099 T01560128 $,KMSY,2023-04-30T09:53:00Z,30.0,-90.25,15.6,12.8,270,11,,10.0,29.819881,1009.9,,,TRUE,TRUE,,,,,,BKN,4600,,,,,,,VFR,,,,,,,,,,,,METAR,0.0
KMSS 300953Z AUTO 06005KT 10SM OVC038 08/06 A2971 RMK AO2 SLP063 T00830061,KMSS,2023-04-30T09:53:00Z,44.93,-74.85,8.3,6.1,60,5,,10.0,29.71063,1006.3,,TRUE,TRUE,,,,,,,OVC,3800,,,,,,,VFR,,,,,,,,,,,,METAR,60.0
KMSP 300953Z 34019G26KT 10SM OVC042 05/M02 A2962 RMK AO2 PK WND 34036/0909 SLP034 T00501017,KMSP,2023-04-30T09:53:00Z,44.88,-93.23,5.0,-1.7,340,19,26,10.0,29.619095,1003.4,,,TRUE,,,,,,,OVC,4200,,,,,,,VFR,,,,,,,,,,,,METAR,255.0
KMSO 300953Z AUTO 34003KT 10SM CLR 08/01 A2999 RMK AO2 SLP143 T00780011,KMSO,2023-04-30T09:53:00Z,46.92,-114.1,7.8,1.1,340,3,,10.0,29.991142,1014.3,,TRUE,TRUE,,,,,,,CLR,,,,,,,,VFR,,,,,,,,,,,,METAR,974.0
KMSN 300953Z AUTO 29006G17KT 10SM FEW026 BKN036 OVC070 04/01 A2942 RMK AO2 SLP968 T00440006 PWINO $,KMSN,2023-04-30T09:53:00Z,43.13,-89.35,4.4,0.6,290,6,17,10.0,29.421259,996.8,,TRUE,TRUE,TRUE,,,,TRUE,,FEW,2600,BKN,3600,OVC,7000,,,VFR,,,,,,,,,,,,METAR,262.0
KMSL 300953Z AUTO 30006KT 10SM CLR 13/11 A2960 RMK AO2 SLP020 T01280111,KMSL,2023-04-30T09:53:00Z,34.75,-87.6,12.8,11.1,300,6,,10.0,29.601377,1002.0,,TRUE,TRUE,,,,,,,CLR,,,,,,,,VFR,,,,,,,,,,,,METAR,170.0
KMRB 300953Z AUTO 00000KT 6SM BR BKN090 OVC110 13/13 A2953 RMK AO2 RAE42 SLP998 P0003 T01280128,KMRB,2023-04-30T09:53:00Z,39.4,-77.98,12.8,12.8,0,0,,6.0,29.530512,999.8,,TRUE,TRUE,,,,,,BR,BKN,9000,OVC,11000,,,,,VFR,,,,,,0.03,,,,,,METAR,165.0
KMPO 300953Z AUTO 06006KT 10SM OVC024 07/07 A2966 RMK AO2 RAE38 SLP051 P0004 T00720072,KMPO,2023-04-30T09:53:00Z,41.13,-75.38,7.2,7.2,60,6,,10.0,29.660433,1005.1,,TRUE,TRUE,,,,,,,OVC,2400,,,,,,,MVFR,,,,,,0.04,,,,,,METAR,576.0
KMOD 300953Z AUTO 35010KT 10SM CLR 16/07 A2988 RMK AO2 SLP118 T01610067,KMOD,2023-04-30T09:53:00Z,37.62,-120.95,16.1,6.7,350,10,,10.0,29.878937,1011.8,,TRUE,TRUE,,,,,,,CLR,,,,,,,,VFR,,,,,,,,,,,,METAR,25.0
KMMV 300953Z AUTO 20007KT 10SM BKN043 09/07 A2995 RMK AO2 SLP141 T00940072,KMMV,2023-04-30T09:53:00Z,45.2,-123.13,9.4,7.2,200,7,,10.0,29.949802,1014.1,,TRUE,TRUE,,,,,,,BKN,4300,,,,,,,VFR,,,,,,,,,,,,METAR,48.0
KMMK 300953Z AUTO VRB05KT 4SM BR OVC004 09/08 A2974 RMK AO2 SLP071 T00940078,KMMK,2023-04-30T09:53:00Z,41.52,-72.83,9.4,7.8,0,5,,4.0,29.740158,1007.1,,TRUE,TRUE,,,,,,BR,OVC,400,,,,,,,LIFR,,,,,,,,,,,,METAR,30.0
KMLU 300953Z AUTO 28004KT 10SM CLR 12/11 A2979 RMK AO2 SLP087 T01220106,KMLU,2023-04-30T09:53:00Z,32.52,-92.03,12.2,10.6,280,4,,10.0,29.790354,1008.7,,TRUE,TRUE,,,,,,,CLR,,,,,,,,VFR,,,,,,,,,,,,METAR,22.0
KMLT 300953Z AUTO 11003KT 8SM -RA OVC055 06/04 A3010 RMK AO2 RAE23B46 SLP200 P0000 T00610044,KMLT,2023-04-30T09:53:00Z,45.65,-68.7,6.1,4.4,110,3,,8.0,30.100393,1020.0,,TRUE,TRUE,,,,,,-RA,OVC,5500,,,,,,,VFR,,,,,,0.005,,,,,,METAR,121.0
KMLS 300953Z AUTO 02004KT 10SM CLR 03/M04 A3013 RMK AO2 SLP206 T00331039,KMLS,2023-04-30T09:53:00Z,46.43,-105.88,3.3,-3.9,20,4,,10.0,30.129921,1020.6,,TRUE,TRUE,,,,,,,CLR,,,,,,,,VFR,,,,,,,,,,,,METAR,800.0
KMLP 300953Z AUTO 16006KT 10SM CLR 13/M02 A3004 RMK AO2 SLP078 T01331022,KMLP,2023-04-30T09:53:00Z,47.45,-115.67,13.3,-2.2,160,6,,10.0,30.041338,1007.8,,TRUE,TRUE,,,,,,,CLR,,,,,,,,VFR,,,,,,,,,,,,METAR,1837.0
KMLC 300953Z AUTO 00000KT 10SM FEW070 FEW085 07/06 A2983 RMK AO2 SLP096 T00720056,KMLC,2023-04-30T09:53:00Z,34.88,-95.78,7.2,5.6,0,0,,10.0,29.828741,1009.6,,TRUE,TRUE,,,,,,,FEW,7000,FEW,8500,,,,,VFR,,,,,,,,,,,,METAR,231.0
KMLB 300953Z 19009KT 10SM CLR 24/22 A2965 RMK AO2 SLP038 T02390217,KMLB,2023-04-30T09:53:00Z,28.1,-80.65,23.9,21.7,190,9,,10.0,29.648623,1003.8,,,TRUE,,,,,,,CLR,,,,,,,,VFR,,,,,,,,,,,,METAR,7.0
KMKO 300953Z AUTO 29003KT 10SM CLR 08/06 A2984 RMK AO2 SLP103 T00830061,KMKO,2023-04-30T09:53:00Z,35.65,-95.37,8.3,6.1,290,3,,10.0,29.840551,1010.3,,TRUE,TRUE,,,,,,,CLR,,,,,,,,VFR,,,,,,,,,,,,METAR,184.0
KMKL 300953Z AUTO 35009KT 10SM CLR 12/08 A2965 RMK AO2 SLP040 T01170083,KMKL,2023-04-30T09:53:00Z,35.6,-88.92,11.7,8.3,350,9,,10.0,29.648623,1004.0,,TRUE,TRUE,,,,,,,CLR,,,,,,,,VFR,,,,,,,,,,,,METAR,130.0
KMIW 300953Z AUTO 31013KT 10SM CLR 04/01 A2964 RMK AO2 SLP040 T00390011,KMIW,2023-04-30T09:53:00Z,42.12,-92.92,3.9,1.1,310,13,,10.0,29.639763,1004.0,,TRUE,TRUE,,,,,,,CLR,,,,,,,,VFR,,,,,,,,,,,,METAR,296.0
KMIE 300953Z 25006KT 10SM BKN060 BKN075 07/04 A2950 RMK AO2 RAE0854 SLP987 P0000 T00670039 $,KMIE,2023-04-30T09:53:00Z,40.23,-85.4,6.7,3.9,250,6,,10.0,29.500984,998.7,,,TRUE,TRUE,,,,,,BKN,6000,BKN,7500,,,,,VFR,,,,,,0.005,,,,,,METAR,286.0
KMIC 300953Z AUTO 34016G34KT 10SM BKN036 OVC044 05/M02 A2962 RMK AO2 PK WND 34034/0944 SLP035 T00501017 $,KMIC,2023-04-30T09:53:00Z,45.07,-93.35,5.0,-1.7,340,16,34,10.0,29.619095,1003.5,,TRUE,TRUE,TRUE,,,,,,BKN,3600,OVC,4400,,,,,VFR,,,,,,,,,,,,METAR,263.0
KMIA 300953Z 20007KT 10SM FEW030 27/23 A2975 RMK AO2 SLP075 T02670233 $,KMIA,2023-04-30T09:53:00Z,25.8,-80.32,26.7,23.3,200,7,,10.0,29.749016,1007.5,,,TRUE,TRUE,,,,,,FEW,3000,,,,,,,VFR,,,,,,,,,,,,METAR,1.0
KMHT 300953Z 08009G14KT 7SM OVC009 08/06 A2987 RMK AO2 RAE0858B24E48 SLP129 P0000 T00830061,KMHT,2023-04-30T09:53:00Z,42.93,-71.43,8.3,6.1,80,9,14,7.0,29.870079,1012.9,,,TRUE,,,,,,,OVC,900,,,,,,,IFR,,,,,,0.005,,,,,,METAR,68.0
KMHE 300953Z AUTO 33014KT 10SM CLR 03/01 A2995 RMK AO2 SLP147 T00280006,KMHE,2023-04-30T09:53:00Z,43.77,-98.03,2.8,0.6,330,14,,10.0,29.949802,1014.7,,TRUE,TRUE,,,,,,,CLR,,,,,,,,VFR,,,,,,,,,,,,METAR,397.0
KMGY 300953Z AUTO 32011G19KT 10SM -RA FEW018 OVC028 07/04 A2948 RMK AO2 PK WND 33031/0927 WSHFT 0920 RAB06 SLP983 P0009 T00720044 $,KMGY,2023-04-30T09:53:00Z,39.6,-84.23,7.2,4.4,320,11,19,10.0,29.480314,998.3,,TRUE,TRUE,TRUE,,,,,-RA,FEW,1800,OVC,2800,,,,,MVFR,,,,,,0.09,,,,,,METAR,290.0
KMGW 300953Z AUTO 12003KT 7SM -RA SCT033 BKN060 OVC075 13/11 A2950 RMK AO2 RAB0857 SLP986 P0005 T01280111 $,KMGW,2023-04-30T09:53:00Z,39.65,-79.92,12.8,11.1,120,3,,7.0,29.500984,998.6,,TRUE,TRUE,TRUE,,,,,-RA,SCT,3300,BKN,6000,OVC,7500,,,VFR,,,,,,0.05,,,,,,METAR,375.0
KMFR 300953Z AUTO 28006KT 10SM CLR 14/M02 A2993 RMK AO2 SLP125 T01441017,KMFR,2023-04-30T09:53:00Z,42.38,-122.87,14.4,-1.7,280,6,,10.0,29.929134,1012.5,,TRUE,TRUE,,,,,,,CLR,,,,,,,,VFR,,,,,,,,,,,,METAR,397.0
KMFE 300953Z AUTO 00000KT 10SM CLR 13/09 A2999 RMK AO2 SLP153 T01330094 $,KMFE,2023-04-30T09:53:00Z,26.18,-98.25,13.3,9.4,0,0,,10.0,29.991142,1015.3,,TRUE,TRUE,TRUE,,,,,,CLR,,,,,,,,VFR,,,,,,,,,,,,METAR,29.0
KMDW 300953Z 23007KT 10SM SCT060 06/02 A2948 RMK AO2 SLP984 T00560017 $,KMDW,2023-04-30T09:53:00Z,41.78,-87.75,5.6,1.7,230,7,,10.0,29.480314,998.4,,,TRUE,TRUE,,,,,,SCT,6000,,,,,,,VFR,,,,,,,,,,,,METAR,186.0
KMCW 300953Z AUTO 31018G25KT 10SM CLR 02/00 A2964 RMK AO2 PK WND 32027/0941 SLP037 T00220000,KMCW,2023-04-30T09:53:00Z,43.15,-93.33,2.2,0.0,310,18,25,10.0,29.639763,1003.7,,TRUE,TRUE,,,,,,,CLR,,,,,,,,VFR,,,,,,,,,,,,METAR,363.0
KMCO 300953Z 20012KT 10SM BKN032 BKN060 OVC200 23/21 A2962 RMK AO2 RAB0854E37 SLP027 P0003 T02280206,KMCO,2023-04-30T09:53:00Z,28.42,-81.33,22.8,20.6,200,12,,10.0,29.619095,1002.7,,,TRUE,,,,,,,BKN,3200,BKN,6000,OVC,20000,,,VFR,,,,,,0.03,,,,,,METAR,27.0
KMCN 300953Z AUTO 20007KT 10SM FEW005 SCT021 BKN070 17/16 A2944 RMK AO2 LTG DSNT N AND NE RAB17E50 TSB32E50 SLP964 P0021 T01720156 $,KMCN,2023-04-30T09:53:00Z,32.68,-83.65,17.2,15.6,200,7,,10.0,29.438976,996.4,,TRUE,TRUE,TRUE,,,,,,FEW,500,SCT,2100,BKN,7000,,,VFR,,,,,,0.21,,,,,,METAR,104.0
KMCK 300953Z AUTO 35009KT 10SM CLR 07/M04 A3003 RMK AO2 SLP160 T00671044,KMCK,2023-04-30T09:53:00Z,40.2,-100.58,6.7,-4.4,350,9,,10.0,30.029528,1016.0,,TRUE,TRUE,,,,,,,CLR,,,,,,,,VFR,,,,,,,,,,,,METAR,780.0
KMCI 300953Z 27006KT 10SM CLR 06/02 A2978 RMK AO2 SLP081 T00560017,KMCI,2023-04-30T09:53:00Z,39.3,-94.73,5.6,1.7,270,6,,10.0,29.778543,1008.1,,,TRUE,,,,,,,CLR,,,,,,,,VFR,,,,,,,,,,,,METAR,308.0
KMCE 300953Z AUTO 32007KT 10SM CLR 16/06 A2987 RMK AO2 SLP113 T01610061,KMCE,2023-04-30T09:53:00Z,37.28,-120.5,16.1,6.1,320,7,,10.0,29.870079,1011.3,,TRUE,TRUE,,,,,,,CLR,,,,,,,,VFR,,,,,,,,,,,,METAR,49.0
KMCB 300953Z AUTO 29006KT 10SM CLR 12/11 A2978 RMK AO2 SLP081 T01220111,KMCB,2023-04-30T09:53:00Z,31.18,-90.47,12.2,11.1,290,6,,10.0,29.778543,1008.1,,TRUE,TRUE,,,,,,,CLR,,,,,,,,VFR,,,,,,,,,,,,METAR,124.0
KMBS 300953Z 17005KT 10SM OVC070 06/04 A2941 RMK AO2 SLP960 T00560044,KMBS,2023-04-30T09:53:00Z,43.53,-84.08,5.6,4.4,170,5,,10.0,29.409449,996.0,,,TRUE,,,,,,,OVC,7000,,,,,,,VFR,,,,,,,,,,,,METAR,201.0
KMAF 300953Z AUTO 00000KT 9SM CLR 11/M04 A2999 RMK AO2 SLP121 T01061039,KMAF,2023-04-30T09:53:00Z,31.95,-102.2,10.6,-3.9,0,0,,9.0,29.991142,1012.1,,TRUE,TRUE,,,,,,,CLR,,,,,,,,VFR,,,,,,,,,,,,METAR,874.0
KLXV 300953Z AUTO 04003KT 10SM CLR M02/M07 A3024 RMK AO2 SLP128 T10221072,KLXV,2023-04-30T09:53:00Z,39.23,-106.32,-2.2,-7.2,40,3,,10.0,30.239174,1012.8,,TRUE,TRUE,,,,,,,CLR,,,,,,,,VFR,,,,,,,,,,,,METAR,3027.0
KLXT 300953Z AUTO 28006KT 10SM CLR 07/02 A2979 RMK AO2 SLP085 T00670017,KLXT,2023-04-30T09:53:00Z,38.97,-94.37,6.7,1.7,280,6,,10.0,29.790354,1008.5,,TRUE,TRUE,,,,,,,CLR,,,,,,,,VFR,,,,,,,,,,,,METAR,306.0
KLWV 300953Z AUTO 28006KT 10SM CLR 06/05 A2960 RMK AO2 SLP023 T00610050,KLWV,2023-04-30T09:53:00Z,38.77,-87.6,6.1,5.0,280,6,,10.0,29.601377,1002.3,,TRUE,TRUE,,,,,,,CLR,,,,,,,,VFR,,,,,,,,,,,,METAR,128.0
KLWD 300953Z AUTO 31013G21KT 10SM CLR 05/01 A2972 RMK AO2 SLP068 T00500011,KLWD,2023-04-30T09:53:00Z,40.63,-93.9,5.0,1.1,310,13,21,10.0,29.719488,1006.8,,TRUE,TRUE,,,,,,,CLR,,,,,,,,VFR,,,,,,,,,,,,METAR,345.0
KLVS 300953Z AUTO 00000KT 10SM CLR 07/M04 A3008 RMK AO2 SLP101 T00721044 $,KLVS,2023-04-30T09:53:00Z,35.65,-105.13,7.2,-4.4,0,0,,10.0,30.079725,1010.1,,TRUE,TRUE,TRUE,,,,,,CLR,,,,,,,,VFR,,,,,,,,,,,,METAR,2095.0
KLVM 300953Z AUTO 19003KT 10SM CLR 03/M01 A3008 RMK AO2 SLP167 T00281011,KLVM,2023-04-30T09:53:00Z,45.7,-110.43,2.8,-1.1,190,3,,10.0,30.079725,1016.7,,TRUE,TRUE,,,,,,,CLR,,,,,,,,VFR,,,,,,,,,,,,METAR,1418.0
KLVJ 300953Z AUTO 26004KT 10SM CLR 13/09 A2993 RMK AO2 SLP133 T01280094,KLVJ,2023-04-30T09:53:00Z,29.52,-95.25,12.8,9.4,260,4,,10.0,29.929134,1013.3,,TRUE,TRUE,,,,,,,CLR,,,,,,,,VFR,,,,,,,,,,,,METAR,11.0
KLUK 300953Z AUTO 31006KT 10SM SCT025 BKN030 OVC070 09/06 A2952 RMK AO2 RAB07E24 SLP994 P0005 T00940061,KLUK,2023-04-30T09:53:00Z,39.1,-84.42,9.4,6.1,310,6,,10.0,29.518702,999.4,,TRUE,TRUE,,,,,,,SCT,2500,BKN,3000,OVC,7000,,,MVFR,,,,,,0.05,,,,,,METAR,144.0
KLSE 300953Z AUTO 32012G19KT 10SM -RA BKN019 BKN024 OVC030 04/02 A2950 RMK AO2 SLP993 P0001 T00390017,KLSE,2023-04-30T09:53:00Z,43.88,-91.25,3.9,1.7,320,12,19,10.0,29.500984,999.3,,TRUE,TRUE,,,,,,-RA,BKN,1900,BKN,2400,OVC,3000,,,MVFR,,,,,,0.01,,,,,,METAR,198.0
KLPR 300953Z AUTO 16006KT 7SM FEW070 SCT090 SCT120 08/08 A2944 RMK AO2 SLP970 T00830078,KLPR,2023-04-30T09:53:00Z,41.35,-82.18,8.3,7.8,160,6,,7.0,29.438976,997.0,,TRUE,TRUE,,,,,,,FEW,7000,SCT,9000,SCT,12000,,,VFR,,,,,,,,,,,,METAR,241.0
KLOZ 300953Z AUTO 00000KT 10SM SCT031 OVC065 13/12 A2952 RMK AO2 SLP990 T01280117,KLOZ,2023-04-30T09:53:00Z,37.08,-84.07,12.8,11.7,0,0,,10.0,29.518702,999.0,,TRUE,TRUE,,,,,,,SCT,3100,OVC,6500,,,,,VFR,,,,,,,,,,,,METAR,361.0
KLOU 300953Z AUTO 31007KT 10SM FEW028 BKN049 OVC110 09/04 A2955 RMK AO2 SLP003 T00940039,KLOU,2023-04-30T09:53:00Z,38.22,-85.67,9.4,3.9,310,7,,10.0,29.551182,1000.3,,TRUE,TRUE,,,,,,,FEW,2800,BKN,4900,OVC,11000,,,VFR,,,,,,,,,,,,METAR,165.0
KLOL 300953Z AUTO 07003KT 10SM CLR 09/M02 A2998 RMK AO2 SLP122 T00891022,KLOL,2023-04-30T09:53:00Z,40.07,-118.57,8.9,-2.2,70,3,,10.0,29.97933,1012.2,,TRUE,TRUE,,,,,,,CLR,,,,,,,,VFR,,,,,,,,,,,,METAR,1191.0
KLND 300953Z AUTO 27006KT 10SM CLR 07/M01 A3007 RMK AO2 SLP141 T00721011 $,KLND,2023-04-30T09:53:00Z,42.82,-108.73,7.2,-1.1,270,6,,10.0,30.070866,1014.1,,TRUE,TRUE,TRUE,,,,,,CLR,,,,,,,,VFR,,,,,,,,,,,,METAR,1700.0
KLMT 300953Z AUTO 10SM CLR 06/00 A2996 RMK AO2 SLP113 T00560000 $,KLMT,2023-04-30T09:53:00Z,42.15,-121.72,5.6,0.0,,,,10.0,29.958662,1011.3,,TRUE,TRUE,TRUE,,,,,,CLR,,,,,,,,VFR,,,,,,,,,,,,METAR,1246.0
KLLQ 300953Z AUTO 28004KT 10SM CLR 11/09 A2976 RMK AO2 SLP077 T01060089,KLLQ,2023-04-30T09:53:00Z,33.63,-91.75,10.6,8.9,280,4,,10.0,29.760826,1007.7,,TRUE,TRUE,,,,,,,CLR,,,,,,,,VFR,,,,,,,,,,,,METAR,86.0
KLKV 300953Z AUTO 17007KT 10SM CLR 09/03 A3000 RMK AO2 SLP125 T00940033,KLKV,2023-04-30T09:53:00Z,42.17,-120.4,9.4,3.3,170,7,,10.0,30.0,1012.5,,TRUE,TRUE,,,,,,,CLR,,,,,,,,VFR,,,,,,,,,,,,METAR,1440.0
KLIT 300953Z 32006KT 10SM CLR 12/07 A2978 RMK AO2 SLP086 T01220067 $,KLIT,2023-04-30T09:53:00Z,34.73,-92.23,12.2,6.7,320,6,,10.0,29.778543,1008.6,,,TRUE,TRUE,,,,,,CLR,,,,,,,,VFR,,,,,,,,,,,,METAR,77.0
KLHX 300953Z AUTO 36007KT 10SM CLR 06/02 A3001 RMK AO2 SLP125 T00560022 $,KLHX,2023-04-30T09:53:00Z,38.05,-103.52,5.6,2.2,360,7,,10.0,30.008858,1012.5,,TRUE,TRUE,TRUE,,,,,,CLR,,,,,,,,VFR,,,,,,,,,,,,METAR,1289.0
KLHQ 300953Z AUTO 00000KT 10SM BKN031 BKN041 OVC048 11/10 A2946 RMK AO2 SLP975 T01110100,KLHQ,2023-04-30T09:53:00Z,39.75,-82.67,11.1,10.0,0,0,,10.0,29.459646,997.5,,TRUE,TRUE,,,,,,,BKN,3100,BKN,4100,OVC,4800,,,VFR,,,,,,,,,,,,METAR,259.0
KLGB 300953Z 13003KT 6SM BR OVC006 13/12 A2995 RMK AO2 SLP141 T01330117,KLGB,2023-04-30T09:53:00Z,33.82,-118.15,13.3,11.7,130,3,,6.0,29.949802,1014.1,,,TRUE,,,,,,BR,OVC,600,,,,,,,IFR,,,,,,,,,,,,METAR,10.0
KLFT 300953Z AUTO 26005KT 10SM CLR 14/12 A2985 RMK AO2 SLP107 T01390117,KLFT,2023-04-30T09:53:00Z,30.2,-91.97,13.9,11.7,260,5,,10.0,29.84941,1010.7,,TRUE,TRUE,,,,,,,CLR,,,,,,,,VFR,,,,,,,,,,,,METAR,9.0
KLFK 300953Z AUTO 00000KT 10SM CLR 11/09 A2988 RMK AO2 SLP115 T01060089,KLFK,2023-04-30T09:53:00Z,31.23,-94.75,10.6,8.9,0,0,,10.0,29.878937,1011.5,,TRUE,TRUE,,,,,,,CLR,,,,,,,,VFR,,,,,,,,,,,,METAR,87.0
KLEE 300953Z AUTO 20011G20KT 10SM FEW036 BKN055 23/21 A2959 RMK AO2 LTG DSNT SW AND W SLP018 T02280211,KLEE,2023-04-30T09:53:00Z,28.82,-81.82,22.8,21.1,200,11,20,10.0,29.589567,1001.8,,TRUE,TRUE,,,,,,,FEW,3600,BKN,5500,,,,,VFR,,,,,,,,,,,,METAR,21.0
KLEB 300953Z AUTO VRB04KT 10SM OVC014 08/05 A2986 RMK AO2 RAE0857 SLP114 P0000 T00830050,KLEB,2023-04-30T09:53:00Z,43.63,-72.3,8.3,5.0,0,4,,10.0,29.861221,1011.4,,TRUE,TRUE,,,,,,,OVC,1400,,,,,,,MVFR,,,,,,0.005,,,,,,METAR,169.0
KLCH 300953Z AUTO 29006KT 10SM CLR 12/10 A2987 RMK AO2 SLP124 T01170100,KLCH,2023-04-30T09:53:00Z,30.13,-93.22,11.7,10.0,290,6,,10.0,29.870079,1012.4,,TRUE,TRUE,,,,,,,CLR,,,,,,,,VFR,,,,,,,,,,,,METAR,2.0
KLBF 300953Z AUTO 33007KT 10SM CLR 03/M05 A3005 RMK AO2 SLP169 T00331050,KLBF,2023-04-30T09:53:00Z,41.12,-100.67,3.3,-5.0,330,7,,10.0,30.050198,1016.9,,TRUE,TRUE,,,,,,,CLR,,,,,,,,VFR,,,,,,,,,,,,METAR,843.0
KLBB 300953Z 28004KT 10SM CLR 11/M03 A2997 RMK AO2 SLP112 T01061033,KLBB,2023-04-30T09:53:00Z,33.67,-101.82,10.6,-3.3,280,4,,10.0,29.970472,1011.2,,,TRUE,,,,,,,CLR,,,,,,,,VFR,,,,,,,,,,,,METAR,996.0
KLAX 300953Z 28003KT 3/4SM R25L/P6000FT BR OVC004 13/12 A2995 RMK AO2 SLP140 VIS SW-W 1/2 T01330122,KLAX,2023-04-30T09:53:00Z,33.93,-118.38,13.3,12.2,280,3,,0.75,29.949802,1014.0,,,TRUE,,,,,,BR,OVC,400,,,,,,,LIFR,,,,,,,,,,,,METAR,30.0
KLAW 300953Z AUTO 35008KT 10SM CLR 11/05 A2987 RMK AO2 SLP108 T01060050,KLAW,2023-04-30T09:53:00Z,34.55,-98.42,10.6,5.0,350,8,,10.0,29.870079,1010.8,,TRUE,TRUE,,,,,,,CLR,,,,,,,,VFR,,,,,,,,,,,,METAR,328.0
KLAR 300953Z AUTO 34003KT 10SM CLR 01/M03 A3011 RMK AO2 SLP128 T00111028,KLAR,2023-04-30T09:53:00Z,41.32,-105.67,1.1,-2.8,340,3,,10.0,30.109253,1012.8,,TRUE,TRUE,,,,,,,CLR,,,,,,,,VFR,,,,,,,,,,,,METAR,2217.0
KLAA 300953Z AUTO 23003KT 10SM CLR 03/01 A3000 RMK AO2 SLP134 T00330011,KLAA,2023-04-30T09:53:00Z,38.07,-102.68,3.3,1.1,230,3,,10.0,30.0,1013.4,,TRUE,TRUE,,,,,,,CLR,,,,,,,,VFR,,,,,,,,,,,,METAR,1129.0
KJLN 300953Z AUTO 24003KT 10SM CLR 05/03 A2981 RMK AO2 SLP092 T00500028,KJLN,2023-04-30T09:53:00Z,37.15,-94.5,5.0,2.8,240,3,,10.0,29.811024,1009.2,,TRUE,TRUE,,,,,,,CLR,,,,,,,,VFR,,,,,,,,,,,,METAR,297.0
KJKL 300953Z AUTO 00000KT 6SM BR FEW036 OVC055 12/11 A2952 RMK AO2 SLP987 T01220111,KJKL,2023-04-30T09:53:00Z,37.6,-83.32,12.2,11.1,0,0,,6.0,29.518702,998.7,,TRUE,TRUE,,,,,,BR,FEW,3600,OVC,5500,,,,,VFR,,,,,,,,,,,,METAR,414.0
KJER 300953Z AUTO 07013KT 10SM CLR 13/M01 A2996 RMK AO2 SLP109 T01281006,KJER,2023-04-30T09:53:00Z,42.72,-114.45,12.8,-0.6,70,13,,10.0,29.958662,1010.9,,TRUE,TRUE,,,,,,,CLR,,,,,,,,VFR,,,,,,,,,,,,METAR,1226.0
KJEF 300953Z AUTO 31005KT 10SM CLR 07/03 A2970 RMK AO2 SLP047 T00670033 $,KJEF,2023-04-30T09:53:00Z,38.6,-92.15,6.7,3.3,310,5,,10.0,29.698818,1004.7,,TRUE,TRUE,TRUE,,,,,,CLR,,,,,,,,VFR,,,,,,,,,,,,METAR,167.0
KJBR 300953Z AUTO 32010KT 10SM CLR 11/04 A2973 RMK AO2 SLP065 T01110044 $,KJBR,2023-04-30T09:53:00Z,35.83,-90.65,11.1,4.4,320,10,,10.0,29.731298,1006.5,,TRUE,TRUE,TRUE,,,,,,CLR,,,,,,,,VFR,,,,,,,,,,,,METAR,79.0
KIXD 300953Z AUTO 30008KT 10SM CLR 07/03 A2982 RMK AO2 SLP093 T00670028,KIXD,2023-04-30T09:53:00Z,38.82,-94.88,6.7,2.8,300,8,,10.0,29.819881,1009.3,,TRUE,TRUE,,,,,,,CLR,,,,,,,,VFR,,,,,,,,,,,,METAR,322.0
KIWI 300953Z AUTO 07005KT 8SM -RA BKN011 BKN038 OVC048 07/04 A3003 RMK AO2 SLP170 P0004 T00670044,KIWI,2023-04-30T09:53:00Z,43.97,-69.72,6.7,4.4,70,5,,8.0,30.029528,1017.0,,TRUE,TRUE,,,,,,-RA,BKN,1100,BKN,3800,OVC,4800,,,MVFR,,,,,,0.04,,,,,,METAR,16.0
KITR 300953Z AUTO 01009KT 10SM OVC110 08/M02 A3005 RMK AO2 SLP142 T00831017,KITR,2023-04-30T09:53:00Z,39.23,-102.28,8.3,-1.7,10,9,,10.0,30.050198,1014.2,,TRUE,TRUE,,,,,,,OVC,11000,,,,,,,VFR,,,,,,,,,,,,METAR,1285.0
KIPL 300953Z AUTO 27010KT 10SM CLR 23/02 A2974 RMK AO2 SLP070 T02280017 $,KIPL,2023-04-30T09:53:00Z,32.83,-115.58,22.8,1.7,270,10,,10.0,29.740158,1007.0,,TRUE,TRUE,TRUE,,,,,,CLR,,,,,,,,VFR,,,,,,,,,,,,METAR,-16.0
KINK 300953Z AUTO 00000KT 10SM CLR 11/M08 A2998 RMK AO2 SLP120 T01111078 $,KINK,2023-04-30T09:53:00Z,31.78,-103.2,11.1,-7.8,0,0,,10.0,29.97933,1012.0,,TRUE,TRUE,TRUE,,,,,,CLR,,,,,,,,VFR,,,,,,,,,,,,METAR,857.0
KIML 300953Z AUTO 34007KT 10SM CLR 04/M04 A3006 RMK AO2 SLP169 T00441044,KIML,2023-04-30T09:53:00Z,40.52,-101.62,4.4,-4.4,340,7,,10.0,30.059055,1016.9,,TRUE,TRUE,,,,,,,CLR,,,,,,,,VFR,,,,,,,,,,,,METAR,997.0
KILM 300953Z AUTO 13007KT 10SM CLR 21/19 A2951 RMK AO2 RAB03E23 SLP992 P0009 T02060194 $,KILM,2023-04-30T09:53:00Z,34.27,-77.9,20.6,19.4,130,7,,10.0,29.509842,999.2,,TRUE,TRUE,TRUE,,,,,,CLR,,,,,,,,VFR,,,,,,0.09,,,,,,METAR,9.0
KIDA 300953Z AUTO 34005KT 10SM CLR 06/01 A3004 RMK AO2 SLP147 T00560006,KIDA,2023-04-30T09:53:00Z,43.52,-112.07,5.6,0.6,340,5,,10.0,30.041338,1014.7,,TRUE,TRUE,,,,,,,CLR,,,,,,,,VFR,,,,,,,,,,,,METAR,1444.0
KICT 300953Z 30008KT 10SM SCT120 SCT150 07/01 A2990 RMK AO2 SLP117 T00720011,KICT,2023-04-30T09:53:00Z,37.65,-97.43,7.2,1.1,300,8,,10.0,29.899607,1011.7,,,TRUE,,,,,,,SCT,12000,SCT,15000,,,,,VFR,,,,,,,,,,,,METAR,428.0
KICR 300953Z AUTO 32007KT 10SM CLR M01/M03 A3003 RMK AO2 SLP177 T10111033 PWINO FZRANO $,KICR,2023-04-30T09:53:00Z,43.38,-99.85,-1.1,-3.3,320,7,,10.0,30.029528,1017.7,,TRUE,TRUE,TRUE,,,TRUE,TRUE,,CLR,,,,,,,,VFR,,,,,,,,,,,,METAR,618.0
KIAH 300953Z 25006KT 10SM CLR 13/09 A2991 RMK AO2 SLP127 T01280089,KIAH,2023-04-30T09:53:00Z,30.0,-95.37,12.8,8.9,250,6,,10.0,29.911417,1012.7,,,TRUE,,,,,,,CLR,,,,,,,,VFR,,,,,,,,,,,,METAR,27.0
KIAG 300953Z AUTO 8SM CLR 09/08 A2950 RMK AO2 SLP994 T00890078 $,KIAG,2023-04-30T09:53:00Z,43.12,-78.93,8.9,7.8,,,,8.0,29.500984,999.4,,TRUE,TRUE,TRUE,,,,,,CLR,,,,,,,,VFR,,,,,,,,,,,,METAR,179.0
KHZY 300953Z AUTO 14005KT 10SM FEW040 BKN085 11/07 A2946 RMK AO2 SLP975 T01110072,KHZY,2023-04-30T09:53:00Z,41.78,-80.7,11.1,7.2,140,5,,10.0,29.459646,997.5,,TRUE,TRUE,,,,,,,FEW,4000,BKN,8500,,,,,VFR,,,,,,,,,,,,METAR,279.0
KHYR 300953Z AUTO VRB06G15KT 2 1/2SM -SN BR OVC013 01/M01 A2952 RMK AO2 SLP007 P0001 T00111006,KHYR,2023-04-30T09:53:00Z,46.02,-91.45,1.1,-0.6,0,6,15,2.5,29.518702,1000.7,,TRUE,TRUE,,,,,,-SN BR,OVC,1300,,,,,,,IFR,,,,,,0.01,,,,,,METAR,369.0
KHWO 300953Z AUTO 19012KT 10SM CLR 26/23 A2975 RMK AO2 SLP075 T02610228 $,KHWO,2023-04-30T09:53:00Z,26.0,-80.23,26.1,22.8,190,12,,10.0,29.749016,1007.5,,TRUE,TRUE,TRUE,,,,,,CLR,,,,,,,,VFR,,,,,,,,,,,,METAR,2.0
KHVR 300953Z AUTO 07009KT 10SM CLR 06/M01 A3002 RMK AO2 SLP168 T00561011,KHVR,2023-04-30T09:53:00Z,48.55,-109.77,5.6,-1.1,70,9,,10.0,30.02067,1016.8,,TRUE,TRUE,,,,,,,CLR,,,,,,,,VFR,,,,,,,,,,,,METAR,789.0
KHVN 300953Z 01006KT 7SM OVC006 11/11 A2972 RMK AO2 SLP062 T01110106,KHVN,2023-04-30T09:53:00Z,41.27,-72.88,11.1,10.6,10,6,,7.0,29.719488,1006.2,,,TRUE,,,,,,,OVC,600,,,,,,,IFR,,,,,,,,,,,,METAR,4.0
KHUL 300953Z AUTO 15007KT 10SM SCT110 07/M01 A3009 RMK AO2 SLP190 T00721006,KHUL,2023-04-30T09:53:00Z,46.12,-67.8,7.2,-0.6,150,7,,10.0,30.088583,1019.0,,TRUE,TRUE,,,,,,,SCT,11000,,,,,,,VFR,,,,,,,,,,,,METAR,148.0
KHSV 300953Z AUTO 32008KT 10SM BKN100 15/13 A2957 RMK AO2 SLP009 T01500128,KHSV,2023-04-30T09:53:00Z,34.65,-86.78,15.0,12.8,320,8,,10.0,29.568897,1000.9,,TRUE,TRUE,,,,,,,BKN,10000,,,,,,,VFR,,,,,,,,,,,,METAR,190.0
KHSI 300953Z AUTO 30009KT 10SM CLR 02/M04 A2997 RMK AO2 SLP149 T00221039 $,KHSI,2023-04-30T09:53:00Z,40.6,-98.43,2.2,-3.9,300,9,,10.0,29.970472,1014.9,,TRUE,TRUE,TRUE,,,,,,CLR,,,,,,,,VFR,,,,,,,,,,,,METAR,592.0
KHRO 300953Z AUTO 26003KT 10SM CLR 07/03 A2977 RMK AO2 SLP075 T00720028,KHRO,2023-04-30T09:53:00Z,36.27,-93.15,7.2,2.8,260,3,,10.0,29.769686,1007.5,,TRUE,TRUE,,,,,,,CLR,,,,,,,,VFR,,,,,,,,,,,,METAR,417.0
KHRI 300953Z AUTO 12003KT 10SM CLR 12/06 A2979 RMK AO2 SLP082 T01220061 $,KHRI,2023-04-30T09:53:00Z,45.83,-119.27,12.2,6.1,120,3,,10.0,29.790354,1008.2,,TRUE,TRUE,TRUE,,,,,,CLR,,,,,,,,VFR,,,,,,,,,,,,METAR,194.0
KHQM 300953Z AUTO 17006KT 6SM BR OVC008 11/08 A2995 RMK AO2 CIG 006V011 SLP146 T01060083,KHQM,2023-04-30T09:53:00Z,46.97,-123.93,10.6,8.3,170,6,,6.0,29.949802,1014.6,,TRUE,TRUE,,,,,,BR,OVC,800,,,,,,,IFR,,,,,,,,,,,,METAR,4.0
KHOU 300953Z 25008KT 10SM CLR 13/09 A2991 RMK AO2 SLP132 T01330089 $,KHOU,2023-04-30T09:53:00Z,29.63,-95.28,13.3,8.9,250,8,,10.0,29.911417,1013.2,,,TRUE,TRUE,,,,,,CLR,,,,,,,,VFR,,,,,,,,,,,,METAR,13.0
KHOT 300953Z AUTO 00000KT 10SM CLR 08/07 A2981 RMK AO2 SLP091 T00780067,KHOT,2023-04-30T09:53:00Z,34.48,-93.1,7.8,6.7,0,0,,10.0,29.811024,1009.1,,TRUE,TRUE,,,,,,,CLR,,,,,,,,VFR,,,,,,,,,,,,METAR,153.0
KHLN 300953Z AUTO 00000KT 10SM CLR 08/01 A3002 RMK AO2 SLP158 T00830011,KHLN,2023-04-30T09:53:00Z,46.6,-111.98,8.3,1.1,0,0,,10.0,30.02067,1015.8,,TRUE,TRUE,,,,,,,CLR,,,,,,,,VFR,,,,,,,,,,,,METAR,1178.0
KHLG 300953Z AUTO 14003KT 9SM -RA OVC065 11/09 A2948 RMK AO2 SLP983 P0003 T01110094,KHLG,2023-04-30T09:53:00Z,40.17,-80.65,11.1,9.4,140,3,,9.0,29.480314,998.3,,TRUE,TRUE,,,,,,-RA,OVC,6500,,,,,,,VFR,,,,,,0.03,,,,,,METAR,365.0
KHLC 300953Z AUTO 34007KT 10SM OVC110 09/M02 A3001 RMK AO2 SLP150 T00891022,KHLC,2023-04-30T09:53:00Z,39.37,-99.83,8.9,-2.2,340,7,,10.0,30.008858,1015.0,,TRUE,TRUE,,,,,,,OVC,11000,,,,,,,VFR,,,,,,,,,,,,METAR,667.0
KHKY 300953Z AUTO 08003KT 10SM BKN065 OVC075 14/13 A2950 RMK AO2 RAE36 SLP971 P0002 T01390128,KHKY,2023-04-30T09:53:00Z,35.75,-81.38,13.9,12.8,80,3,,10.0,29.500984,997.1,,TRUE,TRUE,,,,,,,BKN,6500,OVC,7500,,,,,VFR,,,,,,0.02,,,,,,METAR,357.0
KHKS 300953Z AUTO 29007KT 10SM CLR 13/12 A2975 RMK AO2 SLP068 T01280117 $,KHKS,2023-04-30T09:53:00Z,32.33,-90.22,12.8,11.7,290,7,,10.0,29.749016,1006.8,,TRUE,TRUE,TRUE,,,,,,CLR,,,,,,,,VFR,,,,,,,,,,,,METAR,103.0
KHKA 300953Z AUTO 36009KT 10SM CLR 10/07 A2969 RMK AO2 SLP053 T01000072 $,KHKA,2023-04-30T09:53:00Z,35.93,-89.83,10.0,7.2,360,9,,10.0,29.68996,1005.3,,TRUE,TRUE,TRUE,,,,,,CLR,,,,,,,,VFR,,,,,,,,,,,,METAR,78.0
KHJO 300953Z AUTO 32007KT 10SM CLR 19/11 A2986 RMK AO2 SLP111 T01940111,KHJO,2023-04-30T09:53:00Z,36.32,-119.62,19.4,11.1,320,7,,10.0,29.861221,1011.1,,TRUE,TRUE,,,,,,,CLR,,,,,,,,VFR,,,,,,,,,,,,METAR,73.0
KHIO 300953Z AUTO 31004KT 10SM BKN110 10/08 A2995 RMK AO2 SLP138 T01000083,KHIO,2023-04-30T09:53:00Z,45.55,-122.95,10.0,8.3,310,4,,10.0,29.949802,1013.8,,TRUE,TRUE,,,,,,,BKN,11000,,,,,,,VFR,,,,,,,,,,,,METAR,62.0
KHIB 300953Z AUTO 35017G25KT 3SM -SN BR BKN013 OVC021 00/M01 A2965 RMK AO2 PK WND 33032/0908 SLP056 P0000 T00001011,KHIB,2023-04-30T09:53:00Z,47.38,-92.83,0.0,-1.1,350,17,25,3.0,29.648623,1005.6,,TRUE,TRUE,,,,,,-SN BR,BKN,1300,OVC,2100,,,,,MVFR,,,,,,0.005,,,,,,METAR,409.0
KHHR 300953Z AUTO 23004KT 6SM HZ OVC007 16/12 A2995 RMK AO2 SLP140 T01560117,KHHR,2023-04-30T09:53:00Z,33.92,-118.33,15.6,11.7,230,4,,6.0,29.949802,1014.0,,TRUE,TRUE,,,,,,HZ,OVC,700,,,,,,,IFR,,,,,,,,,,,,METAR,21.0
KHGR 300953Z AUTO 00000KT 5SM -RA BR OVC007 14/13 A2956 RMK AO2 LTG DSNT E AND SE RAB0854 SLP019 P0005 T01440133 $,KHGR,2023-04-30T09:53:00Z,39.7,-77.73,14.4,13.3,0,0,,5.0,29.56004,1001.9,,TRUE,TRUE,TRUE,,,,,-RA BR,OVC,700,,,,,,,IFR,,,,,,0.05,,,,,,METAR,206.0
KHFD 300953Z 35006KT 3SM BR OVC005 10/09 A2976 RMK AO2 CIG 003V007 SLP077 T01000089,KHFD,2023-04-30T09:53:00Z,41.73,-72.65,10.0,8.9,350,6,,3.0,29.760826,1007.7,,,TRUE,,,,,,BR,OVC,500,,,,,,,IFR,,,,,,,,,,,,METAR,3.0
KHEI 300953Z AUTO 31005KT 10SM CLR M06/M07 A3013 RMK AO2 SLP218 T10561072,KHEI,2023-04-30T09:53:00Z,46.02,-102.65,-5.6,-7.2,310,5,,10.0,30.129921,1021.8,,TRUE,TRUE,,,,,,,CLR,,,,,,,,VFR,,,,,,,,,,,,METAR,824.0
KHBR 300953Z AUTO 07004KT 10SM CLR 09/05 A2988 RMK AO2 SLP110 T00940050,KHBR,2023-04-30T09:53:00Z,34.98,-99.05,9.4,5.0,70,4,,10.0,29.878937,1011.0,,TRUE,TRUE,,,,,,,CLR,,,,,,,,VFR,,,,,,,,,,,,METAR,475.0
KHBG 300953Z AUTO 30009KT 10SM BKN016 OVC022 16/14 A2974 RMK AO2 SLP069 T01560144,KHBG,2023-04-30T09:53:00Z,31.27,-89.25,15.6,14.4,300,9,,10.0,29.740158,1006.9,,TRUE,TRUE,,,,,,,BKN,1600,OVC,2200,,,,,MVFR,,,,,,,,,,,,METAR,45.0
KHAO 300953Z AUTO 30008KT 10SM -RA OVC038 08/06 A2952 RMK AO2 PK WND 30026/0911 WSHFT 0851 RAE03B35 SLP996 P0000 T00830056,KHAO,2023-04-30T09:53:00Z,39.37,-84.52,8.3,5.6,300,8,,10.0,29.518702,999.6,,TRUE,TRUE,,,,,,-RA,OVC,3800,,,,,,,VFR,,,,,,0.005,,,,,,METAR,185.0
KGZH 300953Z AUTO 00000KT 8SM -RA SCT011 BKN030 OVC075 14/13 A2965 RMK AO2 SLP037 P0002 T01440133 $,KGZH,2023-04-30T09:53:00Z,31.42,-87.05,14.4,13.3,0,0,,8.0,29.648623,1003.7,,TRUE,TRUE,TRUE,,,,,-RA,SCT,1100,BKN,3000,OVC,7500,,,MVFR,,,,,,0.02,,,,,,METAR,77.0
KGWO 300953Z AUTO 00000KT 10SM CLR 13/11 A2971 RMK AO2 SLP059 T01330111 $,KGWO,2023-04-30T09:53:00Z,33.5,-90.08,13.3,11.1,0,0,,10.0,29.71063,1005.9,,TRUE,TRUE,TRUE,,,,,,CLR,,,,,,,,VFR,,,,,,,,,,,,METAR,42.0
KGVL 300953Z AUTO 35004KT 7SM -RA FEW005 OVC070 14/14 A2951 RMK AO2 SLP979 P0009 T01440139,KGVL,2023-04-30T09:53:00Z,34.27,-83.83,14.4,13.9,350,4,,7.0,29.509842,997.9,,TRUE,TRUE,,,,,,-RA,FEW,500,OVC,7000,,,,,VFR,,,,,,0.09,,,,,,METAR,387.0
KGUY 300953Z AUTO 33004KT 10SM CLR 08/05 A2995 RMK AO2 SLP113 T00830050,KGUY,2023-04-30T09:53:00Z,36.68,-101.5,8.3,5.0,330,4,,10.0,29.949802,1011.3,,TRUE,TRUE,,,,,,,CLR,,,,,,,,VFR,,,,,,,,,,,,METAR,950.0
KGUP 300953Z AUTO 00000KT 10SM CLR 01/M08 A3017 RMK AO2 SLP121 T00061083,KGUP,2023-04-30T09:53:00Z,35.52,-108.8,0.6,-8.3,0,0,,10.0,30.171259,1012.1,,TRUE,TRUE,,,,,,,CLR,,,,,,,,VFR,,,,,,,,,,,,METAR,1972.0
KGTF 300953Z 21004KT 10SM CLR 06/03 A3000 RMK AO2 SLP152 T00610028,KGTF,2023-04-30T09:53:00Z,47.47,-111.38,6.1,2.8,210,4,,10.0,30.0,1015.2,,,TRUE,,,,,,,CLR,,,,,,,,VFR,,,,,,,,,,,,METAR,1117.0
KGSP 300953Z AUTO 30003KT 10SM -RA BKN013 BKN024 OVC050 15/14 A2950 RMK AO2 RAB28 SLP980 P0000 T01500139,KGSP,2023-04-30T09:53:00Z,34.9,-82.22,15.0,13.9,300,3,,10.0,29.500984,998.0,,TRUE,TRUE,,,,,,-RA,BKN,1300,BKN,2400,OVC,5000,,,MVFR,,,,,,0.005,,,,,,METAR,285.0
KGSH 300953Z AUTO 26007KT 10SM OVC055 07/03 A2947 RMK AO2 SLP979 T00670033,KGSH,2023-04-30T09:53:00Z,41.53,-85.78,6.7,3.3,260,7,,10.0,29.471457,997.9,,TRUE,TRUE,,,,,,,OVC,5500,,,,,,,VFR,,,,,,,,,,,,METAR,252.0
KGRR 300953Z 24008KT 9SM -RA SCT013 BKN018 OVC027 05/03 A2942 RMK AO2 RAB43 SLP967 P0000 T00500028 $,KGRR,2023-04-30T09:53:00Z,42.88,-85.52,5.0,2.8,240,8,,9.0,29.421259,996.7,,,TRUE,TRUE,,,,,-RA,SCT,1300,BKN,1800,OVC,2700,,,MVFR,,,,,,0.005,,,,,,METAR,239.0
KGRI 300953Z AUTO 30009KT 10SM CLR 03/M03 A2997 RMK AO2 SLP152 T00331033,KGRI,2023-04-30T09:53:00Z,40.97,-98.32,3.3,-3.3,300,9,,10.0,29.970472,1015.2,,TRUE,TRUE,,,,,,,CLR,,,,,,,,VFR,,,,,,,,,,,,METAR,562.0
KGRB 300953Z AUTO 27010KT 10SM FEW010 BKN017 OVC023 03/01 A2933 RMK AO2 SLP938 T00280011 $,KGRB,2023-04-30T09:53:00Z,44.48,-88.13,2.8,1.1,270,10,,10.0,29.329725,993.8,,TRUE,TRUE,TRUE,,,,,,FEW,1000,BKN,1700,OVC,2300,,,MVFR,,,,,,,,,,,,METAR,209.0
KGPT 300953Z AUTO 29010G19KT 10SM SCT015 BKN042 16/14 A2973 RMK AO2 SLP067 T01610144,KGPT,2023-04-30T09:53:00Z,30.42,-89.08,16.1,14.4,290,10,19,10.0,29.731298,1006.7,,TRUE,TRUE,,,,,,,SCT,1500,BKN,4200,,,,,VFR,,,,,,,,,,,,METAR,5.0
KGOK 300953Z AUTO 00000KT 10SM CLR 08/05 A2987 RMK AO2 SLP115 T00780050 $,KGOK,2023-04-30T09:53:00Z,35.85,-97.4,7.8,5.0,0,0,,10.0,29.870079,1011.5,,TRUE,TRUE,TRUE,,,,,,CLR,,,,,,,,VFR,,,,,,,,,,,,METAR,326.0
KGNV 300953Z AUTO 27016G27KT 10SM -RA FEW010 BKN016 OVC024 21/19 A2958 RMK AO2 PK WND 25033/0934 RAB21 SLP014 P0010 T02060189,KGNV,2023-04-30T09:53:00Z,29.7,-82.28,20.6,18.9,270,16,27,10.0,29.58071,1001.4,,TRUE,TRUE,,,,,,-RA,FEW,1000,BKN,1600,OVC,2400,,,MVFR,,,,,,0.1,,,,,,METAR,41.0
KGMU 300953Z AUTO 35004KT 5SM RA BR SCT015 OVC055 16/14 A2950 RMK AO2 RAB04E16B32 SLP982 P0002 T01610144,KGMU,2023-04-30T09:53:00Z,34.85,-82.35,16.1,14.4,350,4,,5.0,29.500984,998.2,,TRUE,TRUE,,,,,,RA BR,SCT,1500,OVC,5500,,,,,MVFR,,,,,,0.02,,,,,,METAR,309.0
KGLR 300953Z AUTO 15005KT 10SM FEW021 03/01 A2934 RMK AO2 SLP941 T00330006,KGLR,2023-04-30T09:53:00Z,45.02,-84.68,3.3,0.6,150,5,,10.0,29.338583,994.1,,TRUE,TRUE,,,,,,,FEW,2100,,,,,,,VFR,,,,,,,,,,,,METAR,403.0
KGLH 300953Z AUTO 28006KT 10SM CLR 12/10 A2973 RMK AO2 SLP075 T01220100,KGLH,2023-04-30T09:53:00Z,33.47,-90.98,12.2,10.0,280,6,,10.0,29.731298,1007.5,,TRUE,TRUE,,,,,,,CLR,,,,,,,,VFR,,,,,,,,,,,,METAR,40.0
KGLD 300953Z AUTO 30004KT 10SM OVC085 05/M02 A3004 RMK AO2 SLP151 T00501017,KGLD,2023-04-30T09:53:00Z,39.37,-101.7,5.0,-1.7,300,4,,10.0,30.041338,1015.1,,TRUE,TRUE,,,,,,,OVC,8500,,,,,,,VFR,,,,,,,,,,,,METAR,1111.0
KGKY 300953Z AUTO 17003KT 10SM CLR 10/07 A2984 RMK AO2 SLP101 T01000072,KGKY,2023-04-30T09:53:00Z,32.67,-97.1,10.0,7.2,170,3,,10.0,29.840551,1010.1,,TRUE,TRUE,,,,,,,CLR,,,,,,,,VFR,,,,,,,,,,,,METAR,189.0
KGKJ 300953Z AUTO VRB03KT 10SM SCT047 OVC055 10/07 A2948 RMK AO2 SLP981 T01000072,KGKJ,2023-04-30T09:53:00Z,41.63,-80.22,10.0,7.2,0,3,,10.0,29.480314,998.1,,TRUE,TRUE,,,,,,,SCT,4700,OVC,5500,,,,,VFR,,,,,,,,,,,,METAR,428.0
KGJT 300953Z AUTO 09005KT 10SM CLR 06/M01 A3006 RMK AO2 SLP136 T00561011,KGJT,2023-04-30T09:53:00Z,39.13,-108.53,5.6,-1.1,90,5,,10.0,30.059055,1013.6,,TRUE,TRUE,,,,,,,CLR,,,,,,,,VFR,,,,,,,,,,,,METAR,1475.0
KGGW 300953Z AUTO 11009KT 10SM CLR 02/M04 A3014 RMK AO2 SLP218 T00171044,KGGW,2023-04-30T09:53:00Z,48.22,-106.62,1.7,-4.4,110,9,,10.0,30.138779,1021.8,,TRUE,TRUE,,,,,,,CLR,,,,,,,,VFR,,,,,,,,,,,,METAR,698.0
KGGG 300953Z AUTO 00000KT 10SM CLR 09/07 A2984 RMK AO2 SLP103 T00890072,KGGG,2023-04-30T09:53:00Z,32.38,-94.72,8.9,7.2,0,0,,10.0,29.840551,1010.3,,TRUE,TRUE,,,,,,,CLR,,,,,,,,VFR,,,,,,,,,,,,METAR,107.0
KGFL 300953Z AUTO 33004KT 10SM OVC028 08/07 A2977 RMK AO2 SLP085 T00780067,KGFL,2023-04-30T09:53:00Z,43.33,-73.62,7.8,6.7,330,4,,10.0,29.769686,1008.5,,TRUE,TRUE,,,,,,,OVC,2800,,,,,,,MVFR,,,,,,,,,,,,METAR,99.0
KGFK 300953Z 34015KT 10SM CLR 02/M01 A2998 RMK AO2 SLP160 T00171011 $,KGFK,2023-04-30T09:53:00Z,47.95,-97.18,1.7,-1.1,340,15,,10.0,29.97933,1016.0,,,TRUE,TRUE,,,,,,CLR,,,,,,,,VFR,,,,,,,,,,,,METAR,256.0
KGEZ 300953Z AUTO 28007KT 10SM CLR 07/05 A2953 RMK AO2 SLP000 T00720050 $,KGEZ,2023-04-30T09:53:00Z,39.58,-85.8,7.2,5.0,280,7,,10.0,29.530512,1000.0,,TRUE,TRUE,TRUE,,,,,,CLR,,,,,,,,VFR,,,,,,,,,,,,METAR,245.0
KGEY 300953Z AUTO 11004KT 10SM CLR 07/M01 A3002 RMK AO2 SLP147 T00671011,KGEY,2023-04-30T09:53:00Z,44.52,-108.08,6.7,-1.1,110,4,,10.0,30.02067,1014.7,,TRUE,TRUE,,,,,,,CLR,,,,,,,,VFR,,,,,,,,,,,,METAR,1191.0
KGEG 300953Z 08008KT 10SM FEW120 FEW250 16/06 A2985 RMK AO2 SLP093 T01560056,KGEG,2023-04-30T09:53:00Z,47.62,-117.53,15.6,5.6,80,8,,10.0,29.84941,1009.3,,,TRUE,,,,,,,FEW,12000,FEW,25000,,,,,VFR,,,,,,,,,,,,METAR,718.0
KGCC 300953Z AUTO 00000KT 10SM CLR M03/M06 A3010 RMK AO2 SLP192 T10281061,KGCC,2023-04-30T09:53:00Z,44.33,-105.55,-2.8,-6.1,0,0,,10.0,30.100393,1019.2,,TRUE,TRUE,,,,,,,CLR,,,,,,,,VFR,,,,,,,,,,,,METAR,1328.0
KGAG 300953Z AUTO 29003KT 10SM CLR 07/04 A2994 RMK AO2 SLP124 T00720044,KGAG,2023-04-30T09:53:00Z,36.3,-99.77,7.2,4.4,290,3,,10.0,29.940945,1012.4,,TRUE,TRUE,,,,,,,CLR,,,,,,,,VFR,,,,,,,,,,,,METAR,670.0
KFYV 300953Z AUTO 19003KT 9SM CLR 05/04 A2980 RMK AO2 SLP088 T00500039,KFYV,2023-04-30T09:53:00Z,36.02,-94.17,5.0,3.9,190,3,,9.0,29.799213,1008.8,,TRUE,TRUE,,,,,,,CLR,,,,,,,,VFR,,,,,,,,,,,,METAR,377.0
KFXE 300953Z AUTO 19011KT 10SM CLR 27/24 A2973 RMK AO2 SLP068 T02670239 PNO,KFXE,2023-04-30T09:53:00Z,26.2,-80.18,26.7,23.9,190,11,,10.0,29.731298,1006.8,,TRUE,TRUE,,,,,,,CLR,,,,,,,,VFR,,,,,,,,,,,,METAR,3.0
KFWN 300953Z AUTO 29005KT 4SM BR OVC003 09/09 A2976 RMK AO2 PRESRR SLP077 T00940089,KFWN,2023-04-30T09:53:00Z,41.2,-74.63,9.4,8.9,290,5,,4.0,29.760826,1007.7,,TRUE,TRUE,,,,,,BR,OVC,300,,,,,,,LIFR,,,,,,,,,,,,METAR,129.0
KFVE 300953Z AUTO 12009KT 10SM OVC085 08/02 A3006 RMK AO2 SLP179 T00780022 $,KFVE,2023-04-30T09:53:00Z,47.28,-68.3,7.8,2.2,120,9,,10.0,30.059055,1017.9,,TRUE,TRUE,TRUE,,,,,,OVC,8500,,,,,,,VFR,,,,,,,,,,,,METAR,299.0
KFUL 300953Z AUTO VRB03KT 9SM OVC008 14/13 A2994 RMK AO2 SLP138 T01390128,KFUL,2023-04-30T09:53:00Z,33.87,-117.98,13.9,12.8,0,3,,9.0,29.940945,1013.8,,TRUE,TRUE,,,,,,,OVC,800,,,,,,,IFR,,,,,,,,,,,,METAR,23.0
KFTY 300953Z VRB03KT 6SM VCTS -RA BR SCT065 OVC080 14/13 A2950 RMK AO2 LTG DSNT S AND SW SLP983 P0023 T01390133,KFTY,2023-04-30T09:53:00Z,33.78,-84.52,13.9,13.3,0,3,,6.0,29.500984,998.3,,,TRUE,,,,,,VCTS -RA BR,SCT,6500,OVC,8000,,,,,VFR,,,,,,0.23,,,,,,METAR,245.0
KFTW 300953Z 24003KT 10SM CLR 12/07 A2984 RMK AO2 SLP099 T01220067,KFTW,2023-04-30T09:53:00Z,32.83,-97.37,12.2,6.7,240,3,,10.0,29.840551,1009.9,,,TRUE,,,,,,,CLR,,,,,,,,VFR,,,,,,,,,,,,METAR,213.0
KFST 300953Z AUTO 20008KT 10SM CLR 14/M06 A3001 RMK AO2 SLP126 T01441056 $,KFST,2023-04-30T09:53:00Z,30.92,-102.92,14.4,-5.6,200,8,,10.0,30.008858,1012.6,,TRUE,TRUE,TRUE,,,,,,CLR,,,,,,,,VFR,,,,,,,,,,,,METAR,917.0
KFSM 300953Z AUTO 26007KT 10SM CLR 08/06 A2981 RMK AO2 SLP091 T00830061,KFSM,2023-04-30T09:53:00Z,35.33,-94.37,8.3,6.1,260,7,,10.0,29.811024,1009.1,,TRUE,TRUE,,,,,,,CLR,,,,,,,,VFR,,,,,,,,,,,,METAR,136.0
KFRG 300953Z AUTO 05007KT 3/4SM BR VV003 11/11 A2970 RMK AO2 SLP057 T01060106,KFRG,2023-04-30T09:53:00Z,40.73,-73.42,10.6,10.6,50,7,,0.75,29.698818,1005.7,,TRUE,TRUE,,,,,,BR,OVX,0,,,,,,,LIFR,,,,,,,,,,,300,METAR,23.0
KFPR 300953Z AUTO 21010KT 10SM CLR 24/21 A2968 RMK AO2 SLP050 T02440206,KFPR,2023-04-30T09:53:00Z,27.5,-80.38,24.4,20.6,210,10,,10.0,29.681103,1005.0,,TRUE,TRUE,,,,,,,CLR,,,,,,,,VFR,,,,,,,,,,,,METAR,7.0
KFOZ 300953Z AUTO 35013G21KT 313V013 10SM OVC025 03/M01 A2980 RMK AO2,KFOZ,2023-04-30T09:53:00Z,47.77,-93.65,3.0,-1.0,350,13,21,10.0,29.799213,,,TRUE,TRUE,,,,,,,OVC,2500,,,,,,,MVFR,,,,,,,,,,,,METAR,412.0
KFOK 300953Z AUTO 03004KT 1/2SM FG VV002 12/12 A2972 RMK AO2 SLP064 T01220122,KFOK,2023-04-30T09:53:00Z,40.85,-72.62,12.2,12.2,30,4,,0.5,29.719488,1006.4,,TRUE,TRUE,,,,,,FG,OVX,0,,,,,,,LIFR,,,,,,,,,,,200,METAR,13.0
KFOE 300953Z AUTO 33010KT 10SM CLR 08/02 A2985 RMK AO2 SLP102 T00780022 $,KFOE,2023-04-30T09:53:00Z,38.93,-95.65,7.8,2.2,330,10,,10.0,29.84941,1010.2,,TRUE,TRUE,TRUE,,,,,,CLR,,,,,,,,VFR,,,,,,,,,,,,METAR,315.0
KFNT 300953Z 00000KT 6SM BR BKN070 05/04 A2942 RMK AO2 SLP963 T00500044,KFNT,2023-04-30T09:53:00Z,42.97,-83.75,5.0,4.4,0,0,,6.0,29.421259,996.3,,,TRUE,,,,,,BR,BKN,7000,,,,,,,VFR,,,,,,,,,,,,METAR,235.0
KFNB 300953Z AUTO 30012KT 10SM CLR 07/01 A2983 RMK AO2 SLP101 T00670011,KFNB,2023-04-30T09:53:00Z,40.07,-95.58,6.7,1.1,300,12,,10.0,29.828741,1010.1,,TRUE,TRUE,,,,,,,CLR,,,,,,,,VFR,,,,,,,,,,,,METAR,301.0
KFMY 300953Z AUTO 20015G27KT 10SM BKN025 27/23 A2966 RMK AO2 PK WND 20029/0938 LTG DSNT W-N SLP046 T02720233,KFMY,2023-04-30T09:53:00Z,26.58,-81.87,27.2,23.3,200,15,27,10.0,29.660433,1004.6,,TRUE,TRUE,,,,,,,BKN,2500,,,,,,,MVFR,,,,,,,,,,,,METAR,4.0
KFMN 300953Z AUTO 06004KT 10SM CLR 05/M08 A3008 RMK AO2 SLP147 T00501083,KFMN,2023-04-30T09:53:00Z,36.75,-108.23,5.0,-8.3,60,4,,10.0,30.079725,1014.7,,TRUE,TRUE,,,,,,,CLR,,,,,,,,VFR,,,,,,,,,,,,METAR,1677.0
KFLO 300953Z AUTO 16008KT 10SM FEW007 BKN013 OVC017 20/19 A2946 RMK AO2 SLP973 T02000189,KFLO,2023-04-30T09:53:00Z,34.18,-79.73,20.0,18.9,160,8,,10.0,29.459646,997.3,,TRUE,TRUE,,,,,,,FEW,700,BKN,1300,OVC,1700,,,MVFR,,,,,,,,,,,,METAR,43.0
KFLL 300953Z 21015G25KT 10SM BKN250 27/23 A2975,KFLL,2023-04-30T09:53:00Z,26.07,-80.15,27.0,23.0,210,15,25,10.0,29.749016,,,,,,,,,,,BKN,25000,,,,,,,VFR,,,,,,,,,,,,METAR,1.0
KFHR 300953Z AUTO 00000KT 8SM CLR 07/06 A2987 RMK AO2 SLP116 T00720061,KFHR,2023-04-30T09:53:00Z,48.52,-123.03,7.2,6.1,0,0,,8.0,29.870079,1011.6,,TRUE,TRUE,,,,,,,CLR,,,,,,,,VFR,,,,,,,,,,,,METAR,34.0
KFFT 300953Z AUTO 32011G20KT 10SM FEW023 SCT028 OVC034 11/06 A2952 RMK AO2 PK WND 31029/0925 SLP992 T01060061,KFFT,2023-04-30T09:53:00Z,38.18,-84.9,10.6,6.1,320,11,20,10.0,29.518702,999.2,,TRUE,TRUE,,,,,,,FEW,2300,SCT,2800,OVC,3400,,,VFR,,,,,,,,,,,,METAR,235.0
KFDY 300953Z AUTO 29013KT 6SM -RA BR OVC033 07/06 A2945 RMK AO2 PK WND 27029/0919 RAB0858 SLP967 P0005 T00720056,KFDY,2023-04-30T09:53:00Z,41.02,-83.67,7.2,5.6,290,13,,6.0,29.450787,996.7,,TRUE,TRUE,,,,,,-RA BR,OVC,3300,,,,,,,VFR,,,,,,0.05,,,,,,METAR,247.0
KFDR 300953Z AUTO 36008KT 10SM CLR 12/07 A2984 RMK AO2 SLP095 T01170072,KFDR,2023-04-30T09:53:00Z,34.35,-98.98,11.7,7.2,360,8,,10.0,29.840551,1009.5,,TRUE,TRUE,,,,,,,CLR,,,,,,,,VFR,,,,,,,,,,,,METAR,378.0
KFCM 300953Z AUTO 34016G29KT 10SM BKN036 OVC046 04/M02 A2962 RMK AO2 PK WND 34030/0936 SLP035 T00441017,KFCM,2023-04-30T09:53:00Z,44.83,-93.47,4.4,-1.7,340,16,29,10.0,29.619095,1003.5,,TRUE,TRUE,,,,,,,BKN,3600,OVC,4600,,,,,VFR,,,,,,,,,,,,METAR,276.0
KFAY 300953Z 14008KT 9SM SCT006 BKN010 OVC029 18/18 A2947 RMK AO2 SLP973 T01830183,KFAY,2023-04-30T09:53:00Z,34.98,-78.88,18.3,18.3,140,8,,9.0,29.471457,997.3,,,TRUE,,,,,,,SCT,600,BKN,1000,OVC,2900,,,MVFR,,,,,,,,,,,,METAR,57.0
KFAT 300953Z 31009KT 10SM BKN200 21/08 A2986 RMK AO2 SLP107 T02060083,KFAT,2023-04-30T09:53:00Z,36.78,-119.72,20.6,8.3,310,9,,10.0,29.861221,1010.7,,,TRUE,,,,,,,BKN,20000,,,,,,,VFR,,,,,,,,,,,,METAR,102.0
KFAR 300953Z 33015KT 10SM CLR 03/00 A2993 RMK AO2 SLP143 T00280000,KFAR,2023-04-30T09:53:00Z,46.9,-96.82,2.8,0.0,330,15,,10.0,29.929134,1014.3,,,TRUE,,,,,,,CLR,,,,,,,,VFR,,,,,,,,,,,,METAR,276.0
KEYW 300953Z AUTO 21015G27KT 10SM BKN025 BKN032 28/24 A2978 RMK AO2 PK WND 20032/0920 SLP091 T02780244,KEYW,2023-04-30T09:53:00Z,24.55,-81.75,27.8,24.4,210,15,27,10.0,29.778543,1009.1,,TRUE,TRUE,,,,,,,BKN,2500,BKN,3200,,,,,MVFR,,,,,,,,,,,,METAR,1.0
KEYE 300953Z AUTO 25005KT 10SM SCT026 06/04 A2953 RMK AO2 SLP999 T00560044 $,KEYE,2023-04-30T09:53:00Z,39.83,-86.3,5.6,4.4,250,5,,10.0,29.530512,999.9,,TRUE,TRUE,TRUE,,,,,,SCT,2600,,,,,,,VFR,,,,,,,,,,,,METAR,248.0
KEWB 300953Z AUTO 09005KT 6SM HZ OVC005 11/ A2978 RMK AO2 RAE52 SLP085 P0001 T0106 $,KEWB,2023-04-30T09:53:00Z,41.68,-70.95,10.6,,90,5,,6.0,29.778543,1008.5,,TRUE,TRUE,TRUE,,,,,HZ,OVC,500,,,,,,,IFR,,,,,,0.01,,,,,,METAR,22.0
KEVW 300953Z AUTO 16007KT 10SM CLR 07/M04 A3015 RMK AO2 SLP150 T00721039,KEVW,2023-04-30T09:53:00Z,41.27,-111.03,7.2,-3.9,160,7,,10.0,30.15059,1015.0,,TRUE,TRUE,,,,,,,CLR,,,,,,,,VFR,,,,,,,,,,,,METAR,2178.0
KETH 300953Z AUTO 31016G20KT 10SM CLR 02/01 A2990 RMK AO2,KETH,2023-04-30T09:53:00Z,45.78,-96.55,2.0,1.0,310,16,20,10.0,29.899607,,,TRUE,TRUE,,,,,,,CLR,,,,,,,,VFR,,,,,,,,,,,,METAR,309.0
KESF 300953Z AUTO 27005KT 10SM CLR 11/11 A2982 RMK AO2 SLP098 T01060106,KESF,2023-04-30T09:53:00Z,31.4,-92.28,10.6,10.6,270,5,,10.0,29.819881,1009.8,,TRUE,TRUE,,,,,,,CLR,,,,,,,,VFR,,,,,,,,,,,,METAR,27.0
KEQY 300953Z AUTO 00000KT 6SM -RA BR BKN002 OVC095 16/15 A2947 RMK AO2 RAE06B29 SLP980 P0001 T01560150 $,KEQY,2023-04-30T09:53:00Z,35.02,-80.62,15.6,15.0,0,0,,6.0,29.471457,998.0,,TRUE,TRUE,TRUE,,,,,-RA BR,BKN,200,OVC,9500,,,,,LIFR,,,,,,0.01,,,,,,METAR,205.0
KEPH 300953Z AUTO 04007KT 10SM CLR 13/08 A2979 RMK AO2 SLP082 T01280078,KEPH,2023-04-30T09:53:00Z,47.3,-119.52,12.8,7.8,40,7,,10.0,29.790354,1008.2,,TRUE,TRUE,,,,,,,CLR,,,,,,,,VFR,,,,,,,,,,,,METAR,382.0
KENW 300953Z AUTO 24009KT 10SM BKN050 06/02 A2943 RMK AO2 SLP967 T00560022,KENW,2023-04-30T09:53:00Z,42.6,-87.93,5.6,2.2,240,9,,10.0,29.430119,996.7,,TRUE,TRUE,,,,,,,BKN,5000,,,,,,,VFR,,,,,,,,,,,,METAR,222.0
KEMP 300953Z AUTO 30009KT 10SM CLR 07/02 A2987 RMK AO2 SLP112 T00670017,KEMP,2023-04-30T09:53:00Z,38.33,-96.2,6.7,1.7,300,9,,10.0,29.870079,1011.2,,TRUE,TRUE,,,,,,,CLR,,,,,,,,VFR,,,,,,,,,,,,METAR,366.0
KELY 300953Z AUTO 15006KT 10SM CLR 06/M03 A3010 RMK AO2 SLP111 T00561028 $,KELY,2023-04-30T09:53:00Z,39.3,-114.85,5.6,-2.8,150,6,,10.0,30.100393,1011.1,,TRUE,TRUE,TRUE,,,,,,CLR,,,,,,,,VFR,,,,,,,,,,,,METAR,1906.0
KELN 300953Z AUTO 05004KT 10SM FEW110 12/07 A2983 RMK AO2 SLP091 T01170067 $,KELN,2023-04-30T09:53:00Z,47.03,-120.53,11.7,6.7,50,4,,10.0,29.828741,1009.1,,TRUE,TRUE,TRUE,,,,,,FEW,11000,,,,,,,VFR,,,,,,,,,,,,METAR,532.0
KELM 300953Z 00000KT 8SM -RA OVC009 11/09 A2961 RMK AO2 RAB0859 SLP026 P0001 T01110094,KELM,2023-04-30T09:53:00Z,42.15,-76.9,11.1,9.4,0,0,,8.0,29.610237,1002.6,,,TRUE,,,,,,-RA,OVC,900,,,,,,,IFR,,,,,,0.01,,,,,,METAR,287.0
KELD 300953Z AUTO 27003KT 10SM CLR 10/09 A2979 RMK AO2 SLP088 T01000089 $,KELD,2023-04-30T09:53:00Z,33.22,-92.82,10.0,8.9,270,3,,10.0,29.790354,1008.8,,TRUE,TRUE,TRUE,,,,,,CLR,,,,,,,,VFR,,,,,,,,,,,,METAR,76.0
KEEO 300953Z AUTO 28005KT 10SM CLR 02/M03 A3014 RMK AO2 SLP154 T00171028,KEEO,2023-04-30T09:53:00Z,40.05,-107.88,1.7,-2.8,280,5,,10.0,30.138779,1015.4,,TRUE,TRUE,,,,,,,CLR,,,,,,,,VFR,,,,,,,,,,,,METAR,1957.0
KECP 300953Z AUTO 28012KT 10SM CLR 17/15 A2962 RMK AO1 SLP042 T01670150,KECP,2023-04-30T09:53:00Z,30.35,-85.8,16.7,15.0,280,12,,10.0,29.619095,1004.2,,TRUE,TRUE,,,,,,,CLR,,,,,,,,VFR,,,,,,,,,,,,METAR,17.0
KDXR 300953Z AUTO 05007KT 2SM BR OVC003 09/08 A2973 RMK AO2 SLP066 T00940083,KDXR,2023-04-30T09:53:00Z,41.37,-73.48,9.4,8.3,50,7,,2.0,29.731298,1006.6,,TRUE,TRUE,,,,,,BR,OVC,300,,,,,,,LIFR,,,,,,,,,,,,METAR,138.0
KDWH 300953Z AUTO 00000KT 10SM CLR 12/09 A2991 RMK AO2 SLP127 T01170089,KDWH,2023-04-30T09:53:00Z,30.07,-95.55,11.7,8.9,0,0,,10.0,29.911417,1012.7,,TRUE,TRUE,,,,,,,CLR,,,,,,,,VFR,,,,,,,,,,,,METAR,46.0
KDVT 300953Z AUTO VRB04KT 10SM CLR 22/M05 A2984 RMK AO2 SLP079 T02221050,KDVT,2023-04-30T09:53:00Z,33.68,-112.07,22.2,-5.0,0,4,,10.0,29.840551,1007.9,,TRUE,TRUE,,,,,,,CLR,,,,,,,,VFR,,,,,,,,,,,,METAR,454.0
KDVP 300953Z AUTO 32016G25KT 10SM SCT060 03/M01 A2980 RMK AO2 T00251015,KDVP,2023-04-30T09:53:00Z,43.98,-95.78,2.5,-1.5,320,16,25,10.0,29.799213,,,TRUE,TRUE,,,,,,,SCT,6000,,,,,,,VFR,,,,,,,,,,,,METAR,493.0
KDUJ 300953Z AUTO 13007KT 9SM OVC005 11/09 A2952 RMK AO2 CIG 003V009 SLP995 T01110094,KDUJ,2023-04-30T09:53:00Z,41.17,-78.9,11.1,9.4,130,7,,9.0,29.518702,999.5,,TRUE,TRUE,,,,,,,OVC,500,,,,,,,IFR,,,,,,,,,,,,METAR,552.0
KDTW 300953Z 23008KT 5SM -RA BR OVC045 07/06 A2945 RMK AO2 RAB03 SLP973 P0001 T00720056 $,KDTW,2023-04-30T09:53:00Z,42.23,-83.33,7.2,5.6,230,8,,5.0,29.450787,997.3,,,TRUE,TRUE,,,,,-RA BR,OVC,4500,,,,,,,MVFR,,,,,,0.01,,,,,,METAR,192.0
KDTS 300953Z AUTO VRB05KT 10SM SCT013 17/14 A2965 RMK AO2 SLP040 T01670139,KDTS,2023-04-30T09:53:00Z,30.4,-86.47,16.7,13.9,0,5,,10.0,29.648623,1004.0,,TRUE,TRUE,,,,,,,SCT,1300,,,,,,,VFR,,,,,,,,,,,,METAR,5.0
KDTO 300953Z AUTO 29003KT 10SM CLR 09/06 A2984 RMK AO2 SLP101 T00890061,KDTO,2023-04-30T09:53:00Z,33.2,-97.2,8.9,6.1,290,3,,10.0,29.840551,1010.1,,TRUE,TRUE,,,,,,,CLR,,,,,,,,VFR,,,,,,,,,,,,METAR,199.0
KDRT 300953Z AUTO 00000KT 10SM CLR 12/04 A2997 RMK AO2 SLP142 T01220039,KDRT,2023-04-30T09:53:00Z,29.37,-100.92,12.2,3.9,0,0,,10.0,29.970472,1014.2,,TRUE,TRUE,,,,,,,CLR,,,,,,,,VFR,,,,,,,,,,,,METAR,303.0
KDRO 300953Z AUTO 00000KT 10SM CLR 03/M06 A3012 RMK AO2 SLP143 T00281056,KDRO,2023-04-30T09:53:00Z,37.15,-107.77,2.8,-5.6,0,0,,10.0,30.121063,1014.3,,TRUE,TRUE,,,,,,,CLR,,,,,,,,VFR,,,,,,,,,,,,METAR,2021.0
KDRA 300953Z AUTO 10005KT 10SM CLR 15/M08 A2992 RMK AO2 SLP088 T01501078 $,KDRA,2023-04-30T09:53:00Z,36.62,-116.03,15.0,-7.8,100,5,,10.0,29.920275,1008.8,,TRUE,TRUE,TRUE,,,,,,CLR,,,,,,,,VFR,,,,,,,,,,,,METAR,988.0
KDNL 300953Z AUTO 36004KT 10SM -RA OVC003 17/16 A2945 RMK AO2 RAB0859 SLP966 P0000 T01670161 $,KDNL,2023-04-30T09:53:00Z,33.47,-82.03,16.7,16.1,360,4,,10.0,29.450787,996.6,,TRUE,TRUE,TRUE,,,,,-RA,OVC,300,,,,,,,LIFR,,,,,,0.005,,,,,,METAR,126.0
KDMO 300953Z AUTO 28008KT 10SM SCT070 08/02 A2975 RMK AO2 SLP072 T00780022,KDMO,2023-04-30T09:53:00Z,38.72,-93.17,7.8,2.2,280,8,,10.0,29.749016,1007.2,,TRUE,TRUE,,,,,,,SCT,7000,,,,,,,VFR,,,,,,,,,,,,METAR,271.0
KDMN 300953Z AUTO 32006KT 10SM CLR 09/M08 A3005 RMK AO2 SLP119 T00941083,KDMN,2023-04-30T09:53:00Z,32.27,-107.72,9.4,-8.3,320,6,,10.0,30.050198,1011.9,,TRUE,TRUE,,,,,,,CLR,,,,,,,,VFR,,,,,,,,,,,,METAR,1310.0
KDLS 300953Z AUTO 31015G20KT 10SM CLR 18/03 A2983 RMK AO2 SLP099 T01780033,KDLS,2023-04-30T09:53:00Z,45.62,-121.17,17.8,3.3,310,15,20,10.0,29.828741,1009.9,,TRUE,TRUE,,,,,,,CLR,,,,,,,,VFR,,,,,,,,,,,,METAR,71.0
KDLN 300953Z AUTO 20010KT 10SM CLR 05/M02 A3005 RMK AO2 SLP141 T00501017,KDLN,2023-04-30T09:53:00Z,45.25,-112.55,5.0,-1.7,200,10,,10.0,30.050198,1014.1,,TRUE,TRUE,,,,,,,CLR,,,,,,,,VFR,,,,,,,,,,,,METAR,1586.0
KDKK 300953Z AUTO 17009KT 10SM CLR 14/08 A2950 RMK AO2 SLP989 T01390083,KDKK,2023-04-30T09:53:00Z,42.5,-79.28,13.9,8.3,170,9,,10.0,29.500984,998.9,,TRUE,TRUE,,,,,,,CLR,,,,,,,,VFR,,,,,,,,,,,,METAR,205.0
KDHT 300953Z AUTO 32004KT 10SM CLR 08/03 A2998 RMK AO2 SLP114 T00780033,KDHT,2023-04-30T09:53:00Z,36.02,-102.55,7.8,3.3,320,4,,10.0,29.97933,1011.4,,TRUE,TRUE,,,,,,,CLR,,,,,,,,VFR,,,,,,,,,,,,METAR,1217.0
KDHN 300953Z AUTO 26011KT 10SM FEW012 BKN075 OVC095 14/13 A2961 RMK AO2 RAB42E51 SLP024 P0000 T01440128,KDHN,2023-04-30T09:53:00Z,31.32,-85.45,14.4,12.8,260,11,,10.0,29.610237,1002.4,,TRUE,TRUE,,,,,,,FEW,1200,BKN,7500,OVC,9500,,,VFR,,,,,,0.005,,,,,,METAR,113.0
KDGW 300953Z AUTO 20006KT 10SM BKN110 04/M01 A3010 RMK AO2 SLP168 T00391011 $,KDGW,2023-04-30T09:53:00Z,42.8,-105.38,3.9,-1.1,200,6,,10.0,30.100393,1016.8,,TRUE,TRUE,TRUE,,,,,,BKN,11000,,,,,,,VFR,,,,,,,,,,,,METAR,1503.0
KDFW 300953Z 18003KT 10SM CLR 12/07 A2982 RMK AO2 SLP094 T01220072,KDFW,2023-04-30T09:53:00Z,32.9,-97.02,12.2,7.2,180,3,,10.0,29.819881,1009.4,,,TRUE,,,,,,,CLR,,,,,,,,VFR,,,,,,,,,,,,METAR,168.0
KDFI 300953Z AUTO 27005KT 6SM -RA BR FEW014 SCT022 OVC029 07/05 A2947 RMK AO2 SLP979 P0003 T00670050,KDFI,2023-04-30T09:53:00Z,41.33,-84.43,6.7,5.0,270,5,,6.0,29.471457,997.9,,TRUE,TRUE,,,,,,-RA BR,FEW,1400,SCT,2200,OVC,2900,,,MVFR,,,,,,0.03,,,,,,METAR,215.0
KDEW 300953Z AUTO 33003KT 10SM CLR 11/06 A2986 RMK AO2 SLP101 T01060056,KDEW,2023-04-30T09:53:00Z,47.97,-117.43,10.6,5.6,330,3,,10.0,29.861221,1010.1,,TRUE,TRUE,,,,,,,CLR,,,,,,,,VFR,,,,,,,,,,,,METAR,672.0
KDET 300953Z 18004KT 4SM HZ OVC060 08/05 A2944 RMK AO2 SLP969 T00780050,KDET,2023-04-30T09:53:00Z,42.4,-83.02,7.8,5.0,180,4,,4.0,29.438976,996.9,,,TRUE,,,,,,HZ,OVC,6000,,,,,,,MVFR,,,,,,,,,,,,METAR,190.0
KDEQ 300953Z AUTO 10SM CLR 07/06 A2981 RMK AO2 SLP091 T00720061 $,KDEQ,2023-04-30T09:53:00Z,34.05,-94.4,7.2,6.1,,,,10.0,29.811024,1009.1,,TRUE,TRUE,TRUE,,,,,,CLR,,,,,,,,VFR,,,,,,,,,,,,METAR,107.0
KDEN 300953Z 25006KT 10SM CLR 06/00 A3010 RMK AO2 SLP143 T00610000,KDEN,2023-04-30T09:53:00Z,39.85,-104.65,6.1,0.0,250,6,,10.0,30.100393,1014.3,,,TRUE,,,,,,,CLR,,,,,,,,VFR,,,,,,,,,,,,METAR,1656.0
KDCU 300953Z AUTO 32007KT 10SM SCT100 15/12 A2958 RMK AO2 SLP012 T01500122,KDCU,2023-04-30T09:53:00Z,34.65,-86.95,15.0,12.2,320,7,,10.0,29.58071,1001.2,,TRUE,TRUE,,,,,,,SCT,10000,,,,,,,VFR,,,,,,,,,,,,METAR,180.0
KDBQ 300953Z AUTO 30010KT 10SM OVC075 04/01 A2951 RMK AO2 SLP997 T00440011,KDBQ,2023-04-30T09:53:00Z,42.4,-90.7,4.4,1.1,300,10,,10.0,29.509842,999.7,,TRUE,TRUE,,,,,,,OVC,7500,,,,,,,VFR,,,,,,,,,,,,METAR,317.0
KDAN 300953Z AUTO 00000KT 10SM FEW016 SCT055 OVC075 16/14 A2951 RMK AO2 RAB17E53 SLP982 P0002 T01560144,KDAN,2023-04-30T09:53:00Z,36.57,-79.33,15.6,14.4,0,0,,10.0,29.509842,998.2,,TRUE,TRUE,,,,,,,FEW,1600,SCT,5500,OVC,7500,,,VFR,,,,,,0.02,,,,,,METAR,170.0
KDAL 300953Z 00000KT 10SM CLR 12/08 A2983 RMK AO2 SLP098 T01220078 $,KDAL,2023-04-30T09:53:00Z,32.85,-96.85,12.2,7.8,0,0,,10.0,29.828741,1009.8,,,TRUE,TRUE,,,,,,CLR,,,,,,,,VFR,,,,,,,,,,,,METAR,148.0
KDAB 300953Z 18008KT 10SM FEW026 FEW042 22/19 A2958 RMK AO2 SLP015 T02220194 $,KDAB,2023-04-30T09:53:00Z,29.18,-81.07,22.2,19.4,180,8,,10.0,29.58071,1001.5,,,TRUE,TRUE,,,,,,FEW,2600,FEW,4200,,,,,VFR,,,,,,,,,,,,METAR,8.0
KCYS 300953Z AUTO 31006KT 10SM SCT100 04/M01 A3010 RMK AO2 SLP145 T00391011,KCYS,2023-04-30T09:53:00Z,41.15,-104.8,3.9,-1.1,310,6,,10.0,30.100393,1014.5,,TRUE,TRUE,,,,,,,SCT,10000,,,,,,,VFR,,,,,,,,,,,,METAR,1868.0
KCXO 300953Z AUTO 00000KT 10SM CLR 07/07 A2991 RMK AO2 SLP126 T00720067,KCXO,2023-04-30T09:53:00Z,30.35,-95.42,7.2,6.7,0,0,,10.0,29.911417,1012.6,,TRUE,TRUE,,,,,,,CLR,,,,,,,,VFR,,,,,,,,,,,,METAR,69.0
KCUT 300953Z AUTO 01007KT 10SM FEW100 00/M09 A3009 RMK AO2 SLP176 T00001089 $,KCUT,2023-04-30T09:53:00Z,43.73,-103.62,0.0,-8.9,10,7,,10.0,30.088583,1017.6,,TRUE,TRUE,TRUE,,,,,,FEW,10000,,,,,,,VFR,,,,,,,,,,,,METAR,1700.0
KCUB 300953Z AUTO 00000KT 10SM OVC009 17/16 A2946 RMK AO2 CIG 006V012 SLP972 P0003 T01670161,KCUB,2023-04-30T09:53:00Z,33.97,-81.0,16.7,16.1,0,0,,10.0,29.459646,997.2,,TRUE,TRUE,,,,,,,OVC,900,,,,,,,IFR,,,,,,0.03,,,,,,METAR,55.0
KCSV 300953Z AUTO 30005KT 10SM SCT029 BKN040 12/11 A2955 RMK AO2 RAB0854E10 SLP995 P0001 T01170106,KCSV,2023-04-30T09:53:00Z,35.95,-85.08,11.7,10.6,300,5,,10.0,29.551182,999.5,,TRUE,TRUE,,,,,,,SCT,2900,BKN,4000,,,,,VFR,,,,,,0.01,,,,,,METAR,569.0
KCSM 300953Z AUTO 01007KT 10SM CLR 08/03 A2990 RMK AO2 SLP114 T00830033,KCSM,2023-04-30T09:53:00Z,35.35,-99.2,8.3,3.3,10,7,,10.0,29.899607,1011.4,,TRUE,TRUE,,,,,,,CLR,,,,,,,,VFR,,,,,,,,,,,,METAR,586.0
KCRS 300953Z AUTO 22006KT 10SM CLR 10/07 A2987 RMK AO2 SLP112 T01000067,KCRS,2023-04-30T09:53:00Z,32.03,-96.4,10.0,6.7,220,6,,10.0,29.870079,1011.2,,TRUE,TRUE,,,,,,,CLR,,,,,,,,VFR,,,,,,,,,,,,METAR,136.0
KCRQ 300953Z AUTO 25003KT 10SM OVC007 14/12 A2994 RMK AO2 SLP138 T01440122,KCRQ,2023-04-30T09:53:00Z,33.13,-117.28,14.4,12.2,250,3,,10.0,29.940945,1013.8,,TRUE,TRUE,,,,,,,OVC,700,,,,,,,IFR,,,,,,,,,,,,METAR,96.0
KCRG 300953Z AUTO 16008KT 10SM FEW065 BKN080 OVC100 21/19 A2952 RMK AO2 LTG DSNT E AND SE SLP994 T02110194,KCRG,2023-04-30T09:53:00Z,30.33,-81.52,21.1,19.4,160,8,,10.0,29.518702,999.4,,TRUE,TRUE,,,,,,,FEW,6500,BKN,8000,OVC,10000,,,VFR,,,,,,,,,,,,METAR,12.0
KCRE 300953Z AUTO 17007KT 10SM SCT019 BKN027 OVC037 21/19 A2948 RMK AO1 RAE19 SLP982 P0000 T02110194,KCRE,2023-04-30T09:53:00Z,33.82,-78.72,21.1,19.4,170,7,,10.0,29.480314,998.2,,TRUE,TRUE,,,,,,,SCT,1900,BKN,2700,OVC,3700,,,MVFR,,,,,,0.005,,,,,,METAR,9.0
KCQC 300953Z AUTO 26010KT 10SM CLR 06/M06 A3013 RMK AO2 SLP133 T00611056 $,KCQC,2023-04-30T09:53:00Z,35.0,-105.67,6.1,-5.6,260,10,,10.0,30.129921,1013.3,,TRUE,TRUE,TRUE,,,,,,CLR,,,,,,,,VFR,,,,,,,,,,,,METAR,2163.0
KCPS 300953Z AUTO 22003KT 10SM CLR 06/04 A2964 RMK AO2 SLP036 T00610044,KCPS,2023-04-30T09:53:00Z,38.53,-90.15,6.1,4.4,220,3,,10.0,29.639763,1003.6,,TRUE,TRUE,,,,,,,CLR,,,,,,,,VFR,,,,,,,,,,,,METAR,125.0
KCPR 300953Z AUTO 00000KT 10SM CLR 02/M02 A3009 RMK AO2 SLP163 T00171022,KCPR,2023-04-30T09:53:00Z,42.9,-106.47,1.7,-2.2,0,0,,10.0,30.088583,1016.3,,TRUE,TRUE,,,,,,,CLR,,,,,,,,VFR,,,,,,,,,,,,METAR,1623.0
KCOT 300953Z AUTO 27004KT 10SM CLR 13/08 A2997 RMK AO2 SLP144 T01280078,KCOT,2023-04-30T09:53:00Z,28.45,-99.22,12.8,7.8,270,4,,10.0,29.970472,1014.4,,TRUE,TRUE,,,,,,,CLR,,,,,,,,VFR,,,,,,,,,,,,METAR,144.0
KCNY 300953Z AUTO 00000KT 10SM CLR 06/M07 A3002 RMK AO2 SLP131 T00561072,KCNY,2023-04-30T09:53:00Z,38.77,-109.75,5.6,-7.2,0,0,,10.0,30.02067,1013.1,,TRUE,TRUE,,,,,,,CLR,,,,,,,,VFR,,,,,,,,,,,,METAR,1392.0
KCNO 300953Z AUTO 27004KT 4SM BR CLR 11/09 A2996 RMK AO2 SLP139 T01110094,KCNO,2023-04-30T09:53:00Z,33.98,-117.62,11.1,9.4,270,4,,4.0,29.958662,1013.9,,TRUE,TRUE,,,,,,BR,CLR,,,,,,,,MVFR,,,,,,,,,,,,METAR,191.0
KCNM 300953Z AUTO VRB03KT 10SM CLR 09/M07 A2997 RMK AO2 SLP110 T00941072,KCNM,2023-04-30T09:53:00Z,32.33,-104.25,9.4,-7.2,0,3,,10.0,29.970472,1011.0,,TRUE,TRUE,,,,,,,CLR,,,,,,,,VFR,,,,,,,,,,,,METAR,993.0
KCMX 300953Z AUTO 01017G27KT 8SM -RA SCT007 BKN015 OVC022 02/00 A2937 RMK AO2 PK WND 01032/0920 RAB0857UPB10E11SNB17E28 SLP956 P0000 T00220000,KCMX,2023-04-30T09:53:00Z,47.17,-88.48,2.2,0.0,10,17,27,8.0,29.371063,995.6,,TRUE,TRUE,,,,,,-RA,SCT,700,BKN,1500,OVC,2200,,,MVFR,,,,,,0.005,,,,,,METAR,326.0
KCMI 300953Z AUTO 26007KT 7SM CLR 05/04 A2956 RMK AO2 SLP009 T00500044,KCMI,2023-04-30T09:53:00Z,40.03,-88.27,5.0,4.4,260,7,,7.0,29.56004,1000.9,,TRUE,TRUE,,,,,,,CLR,,,,,,,,VFR,,,,,,,,,,,,METAR,227.0
KCLM 300953Z AUTO 29008KT 10SM OVC011 09/07 A2990 RMK AO2 SLP126 T00940072,KCLM,2023-04-30T09:53:00Z,48.12,-123.5,9.4,7.2,290,8,,10.0,29.899607,1012.6,,TRUE,TRUE,,,,,,,OVC,1100,,,,,,,MVFR,,,,,,,,,,,,METAR,81.0
KCLL 300953Z AUTO 00000KT 10SM CLR 11/08 A2990 RMK AO2 SLP123 T01060083,KCLL,2023-04-30T09:53:00Z,30.58,-96.37,10.6,8.3,0,0,,10.0,29.899607,1012.3,,TRUE,TRUE,,,,,,,CLR,,,,,,,,VFR,,,,,,,,,,,,METAR,96.0
KCKB 300953Z AUTO 09003KT 10SM FEW080 FEW110 11/11 A2948 RMK AO2 RAE28 SLP974 P0001 T01110106,KCKB,2023-04-30T09:53:00Z,39.3,-80.22,11.1,10.6,90,3,,10.0,29.480314,997.4,,TRUE,TRUE,,,,,,,FEW,8000,FEW,11000,,,,,VFR,,,,,,0.01,,,,,,METAR,368.0
KCHO 300953Z 00000KT 10SM -RA FEW013 OVC090 17/14 A2952 RMK AO2 RAB16E30B53 SLP988 P0000 T01670144,KCHO,2023-04-30T09:53:00Z,38.13,-78.45,16.7,14.4,0,0,,10.0,29.518702,998.8,,,TRUE,,,,,,-RA,FEW,1300,OVC,9000,,,,,VFR,,,,,,0.005,,,,,,METAR,193.0
KCHA 300953Z COR 33004KT 6SM RA BR SCT038 BKN065 OVC100 16/13 A2952 RMK AO2 LTG DSNT S CB DSNT S RAB39 SLP989 P0002 T01610133 $,KCHA,2023-04-30T09:53:00Z,35.03,-85.2,16.1,13.3,330,4,,6.0,29.518702,998.9,TRUE,,TRUE,TRUE,,,,,RA BR,SCT,3800,BKN,6500,OVC,10000,,,VFR,,,,,,0.02,,,,,,METAR,203.0
KCGI 300953Z AUTO 31007KT 10SM CLR 08/05 A2968 RMK AO2 SLP048 T00780050 $,KCGI,2023-04-30T09:53:00Z,37.23,-89.58,7.8,5.0,310,7,,10.0,29.681103,1004.8,,TRUE,TRUE,TRUE,,,,,,CLR,,,,,,,,VFR,,,,,,,,,,,,METAR,103.0
KCEZ 300953Z AUTO 05005KT 10SM CLR 02/M05 A3013 RMK AO2 SLP152 T00171050,KCEZ,2023-04-30T09:53:00Z,37.3,-108.63,1.7,-5.0,50,5,,10.0,30.129921,1015.2,,TRUE,TRUE,,,,,,,CLR,,,,,,,,VFR,,,,,,,,,,,,METAR,1801.0
KCEW 300953Z AUTO 29007KT 10SM CLR 16/13 A2966 RMK AO2 SLP040 T01560133,KCEW,2023-04-30T09:53:00Z,30.78,-86.52,15.6,13.3,290,7,,10.0,29.660433,1004.0,,TRUE,TRUE,,,,,,,CLR,,,,,,,,VFR,,,,,,,,,,,,METAR,47.0
KCDW 300953Z AUTO 06005KT 1 1/2SM BR OVC003 10/09 A2972 RMK AO2 SLP067 T01000094,KCDW,2023-04-30T09:53:00Z,40.88,-74.28,10.0,9.4,60,5,,1.5,29.719488,1006.7,,TRUE,TRUE,,,,,,BR,OVC,300,,,,,,,LIFR,,,,,,,,,,,,METAR,52.0
KCDS 300953Z AUTO 35005KT 10SM CLR 11/06 A2991 RMK AO2 SLP113 T01060056,KCDS,2023-04-30T09:53:00Z,34.43,-100.28,10.6,5.6,350,5,,10.0,29.911417,1011.3,,TRUE,TRUE,,,,,,,CLR,,,,,,,,VFR,,,,,,,,,,,,METAR,595.0
KCDR 300953Z AUTO 00000KT 10SM CLR 03/M06 A3012 RMK AO2 SLP202 T00331061 $,KCDR,2023-04-30T09:53:00Z,42.83,-103.1,3.3,-6.1,0,0,,10.0,30.121063,1020.2,,TRUE,TRUE,TRUE,,,,,,CLR,,,,,,,,VFR,,,,,,,,,,,,METAR,1002.0
KCDC 300953Z AUTO 14008KT 10SM CLR 12/M04 A3009 RMK AO2 SLP124 T01171044,KCDC,2023-04-30T09:53:00Z,37.7,-113.1,11.7,-4.4,140,8,,10.0,30.088583,1012.4,,TRUE,TRUE,,,,,,,CLR,,,,,,,,VFR,,,,,,,,,,,,METAR,1703.0
KCCR 300953Z AUTO 19011KT 10SM CLR 12/08 A2994 RMK AO2 SLP125 T01170078,KCCR,2023-04-30T09:53:00Z,38.0,-122.05,11.7,7.8,190,11,,10.0,29.940945,1012.5,,TRUE,TRUE,,,,,,,CLR,,,,,,,,VFR,,,,,,,,,,,,METAR,6.0
KCAG 300953Z AUTO 13004KT 10SM CLR 01/M02 A3011 RMK AO2 SLP163 T00061022,KCAG,2023-04-30T09:53:00Z,40.5,-107.52,0.6,-2.2,130,4,,10.0,30.109253,1016.3,,TRUE,TRUE,,,,,,,CLR,,,,,,,,VFR,,,,,,,,,,,,METAR,1888.0
KBYI 300953Z AUTO 00000KT 10SM CLR 07/03 A2996 RMK AO2 SLP113 T00720028,KBYI,2023-04-30T09:53:00Z,42.55,-113.77,7.2,2.8,0,0,,10.0,29.958662,1011.3,,TRUE,TRUE,,,,,,,CLR,,,,,,,,VFR,,,,,,,,,,,,METAR,1263.0
KBYG 300953Z AUTO 20003KT 10SM CLR 05/M02 A3009 RMK AO2 SLP163 T00501022,KBYG,2023-04-30T09:53:00Z,44.38,-106.72,5.0,-2.2,200,3,,10.0,30.088583,1016.3,,TRUE,TRUE,,,,,,,CLR,,,,,,,,VFR,,,,,,,,,,,,METAR,1503.0
KBWG 300953Z AUTO VRB06KT 10SM FEW012 SCT017 BKN024 11/07 A2957 RMK AO2 SLP010 T01110072,KBWG,2023-04-30T09:53:00Z,36.97,-86.42,11.1,7.2,0,6,,10.0,29.568897,1001.0,,TRUE,TRUE,,,,,,,FEW,1200,SCT,1700,BKN,2400,,,MVFR,,,,,,,,,,,,METAR,159.0
KBVY 300953Z AUTO 06007KT 4SM -RA BR BKN005 OVC010 08/08 A2988 RMK AO2 SLP114 P0008 T00830078,KBVY,2023-04-30T09:53:00Z,42.58,-70.92,8.3,7.8,60,7,,4.0,29.878937,1011.4,,TRUE,TRUE,,,,,,-RA BR,BKN,500,OVC,1000,,,,,IFR,,,,,,0.08,,,,,,METAR,28.0
KBVO 300953Z AUTO 00000KT 10SM CLR 05/04 A2987 RMK AO2 SLP108 T00500039,KBVO,2023-04-30T09:53:00Z,36.77,-96.02,5.0,3.9,0,0,,10.0,29.870079,1010.8,,TRUE,TRUE,,,,,,,CLR,,,,,,,,VFR,,,,,,,,,,,,METAR,210.0
KBUR 300953Z 16005KT 5SM BR OVC005 13/11 A2994 RMK AO2 SLP127 T01280111 $,KBUR,2023-04-30T09:53:00Z,34.2,-118.37,12.8,11.1,160,5,,5.0,29.940945,1012.7,,,TRUE,TRUE,,,,,BR,OVC,500,,,,,,,IFR,,,,,,,,,,,,METAR,221.0
KBTR 300953Z AUTO 27007KT 10SM CLR 14/12 A2982 RMK AO2 SLP098 T01390117 $,KBTR,2023-04-30T09:53:00Z,30.53,-91.15,13.9,11.7,270,7,,10.0,29.819881,1009.8,,TRUE,TRUE,TRUE,,,,,,CLR,,,,,,,,VFR,,,,,,,,,,,,METAR,20.0
KBTM 300953Z AUTO 13005KT 10SM CLR 01/M02 A3009 RMK AO2 SLP159 T00061022,KBTM,2023-04-30T09:53:00Z,45.97,-112.5,0.6,-2.2,130,5,,10.0,30.088583,1015.9,,TRUE,TRUE,,,,,,,CLR,,,,,,,,VFR,,,,,,,,,,,,METAR,1680.0
KBTL 300953Z AUTO 24006KT 10SM FEW030 BKN035 BKN120 06/03 A2943 RMK AO2 SLP969 T00560033,KBTL,2023-04-30T09:53:00Z,42.32,-85.25,5.6,3.3,240,6,,10.0,29.430119,996.9,,TRUE,TRUE,,,,,,,FEW,3000,BKN,3500,BKN,12000,,,VFR,,,,,,,,,,,,METAR,282.0
KBRO 300953Z AUTO 20003KT 10SM CLR 15/13 A2998 RMK AO2 SLP151 T01500133,KBRO,2023-04-30T09:53:00Z,25.92,-97.42,15.0,13.3,200,3,,10.0,29.97933,1015.1,,TRUE,TRUE,,,,,,,CLR,,,,,,,,VFR,,,,,,,,,,,,METAR,6.0
KBRL 300953Z AUTO 29007KT 10SM SCT085 06/03 A2959 RMK AO2 SLP022 T00560033,KBRL,2023-04-30T09:53:00Z,40.77,-91.13,5.6,3.3,290,7,,10.0,29.589567,1002.2,,TRUE,TRUE,,,,,,,SCT,8500,,,,,,,VFR,,,,,,,,,,,,METAR,208.0
KBRD 300953Z AUTO 34017G32KT 10SM OVC032 03/M03 A2971 RMK AO2 PK WND 35037/0858 SLP071 T00331028,KBRD,2023-04-30T09:53:00Z,46.4,-94.13,3.3,-2.8,340,17,32,10.0,29.71063,1007.1,,TRUE,TRUE,,,,,,,OVC,3200,,,,,,,VFR,,,,,,,,,,,,METAR,372.0
KBPT 300953Z 27008KT 10SM CLR 12/11 A2988 RMK AO2 SLP118 T01170106,KBPT,2023-04-30T09:53:00Z,29.95,-94.03,11.7,10.6,270,8,,10.0,29.878937,1011.8,,,TRUE,,,,,,,CLR,,,,,,,,VFR,,,,,,,,,,,,METAR,6.0
KBPK 300953Z AUTO 00000KT 10SM CLR 06/01 A2975 RMK AO2 SLP072 T00610011,KBPK,2023-04-30T09:53:00Z,36.37,-92.47,6.1,1.1,0,0,,10.0,29.749016,1007.2,,TRUE,TRUE,,,,,,,CLR,,,,,,,,VFR,,,,,,,,,,,,METAR,279.0
KBPI 300953Z AUTO 00000KT 10SM FEW095 01/M02 A3015 RMK AO2 SLP148 T00111022,KBPI,2023-04-30T09:53:00Z,42.58,-110.1,1.1,-2.2,0,0,,10.0,30.15059,1014.8,,TRUE,TRUE,,,,,,,FEW,9500,,,,,,,VFR,,,,,,,,,,,,METAR,2120.0
KBOI 300953Z 13008KT 10SM CLR 16/02 A2987 RMK AO2 SLP089 T01610022,KBOI,2023-04-30T09:53:00Z,43.57,-116.23,16.1,2.2,130,8,,10.0,29.870079,1008.9,,,TRUE,,,,,,,CLR,,,,,,,,VFR,,,,,,,,,,,,METAR,860.0
KBNO 300953Z AUTO 03003KT 10SM CLR 07/02 A2996 RMK AO2 SLP117 T00670022,KBNO,2023-04-30T09:53:00Z,43.6,-118.95,6.7,2.2,30,3,,10.0,29.958662,1011.7,,TRUE,TRUE,,,,,,,CLR,,,,,,,,VFR,,,,,,,,,,,,METAR,1263.0
KBNA 300953Z 28005KT 10SM SCT100 12/11 A2958 RMK AO2 SLP013 T01220106,KBNA,2023-04-30T09:53:00Z,36.12,-86.68,12.2,10.6,280,5,,10.0,29.58071,1001.3,,,TRUE,,,,,,,SCT,10000,,,,,,,VFR,,,,,,,,,,,,METAR,168.0
KBMQ 300953Z AUTO 00000KT 10SM CLR 10/06 A2996 RMK AO2 SLP135 T01000061 $,KBMQ,2023-04-30T09:53:00Z,30.73,-98.23,10.0,6.1,0,0,,10.0,29.958662,1013.5,,TRUE,TRUE,TRUE,,,,,,CLR,,,,,,,,VFR,,,,,,,,,,,,METAR,387.0
KBMG 300953Z AUTO 26006KT 10SM SCT006 BKN017 06/05 A2956 RMK AO2 SLP007 T00610050,KBMG,2023-04-30T09:53:00Z,39.15,-86.62,6.1,5.0,260,6,,10.0,29.56004,1000.7,,TRUE,TRUE,,,,,,,SCT,600,BKN,1700,,,,,MVFR,,,,,,,,,,,,METAR,254.0
KBLI 300953Z AUTO 19008KT 10SM CLR 12/10 A2986 RMK AO2 SLP117 T01170100 $,KBLI,2023-04-30T09:53:00Z,48.8,-122.53,11.7,10.0,190,8,,10.0,29.861221,1011.7,,TRUE,TRUE,TRUE,,,,,,CLR,,,,,,,,VFR,,,,,,,,,,,,METAR,46.0
KBKE 300953Z AUTO 00000KT 10SM CLR 05/03 A2991 RMK AO2 SLP112 T00500033,KBKE,2023-04-30T09:53:00Z,44.85,-117.82,5.0,3.3,0,0,,10.0,29.911417,1011.2,,TRUE,TRUE,,,,,,,CLR,,,,,,,,VFR,,,,,,,,,,,,METAR,1025.0
KBIV 300953Z AUTO 26009KT 10SM SCT026 OVC038 06/02 A2943 RMK AO2 SLP970 T00560022,KBIV,2023-04-30T09:53:00Z,42.75,-86.1,5.6,2.2,260,9,,10.0,29.430119,997.0,,TRUE,TRUE,,,,,,,SCT,2600,OVC,3800,,,,,VFR,,,,,,,,,,,,METAR,207.0
KBIL 300953Z 36005KT 10SM FEW200 06/M04 A3007 RMK AO2 SLP176 T00561039 $,KBIL,2023-04-30T09:53:00Z,45.8,-108.55,5.6,-3.9,360,5,,10.0,30.070866,1017.6,,,TRUE,TRUE,,,,,,FEW,20000,,,,,,,VFR,,,,,,,,,,,,METAR,1089.0
KBHM 300953Z 30006KT 6SM BR OVC006 16/14 A2960 RMK AO2 RAE00 CIG 005V009 SLP017 P0001 T01560139,KBHM,2023-04-30T09:53:00Z,33.57,-86.75,15.6,13.9,300,6,,6.0,29.601377,1001.7,,,TRUE,,,,,,BR,OVC,600,,,,,,,IFR,,,,,,0.01,,,,,,METAR,191.0
KBGR 300953Z 06006KT 10SM -RA FEW080 OVC090 06/03 A3007 RMK AO2 SLP184 P0002 T00560033,KBGR,2023-04-30T09:53:00Z,44.8,-68.82,5.6,3.3,60,6,,10.0,30.070866,1018.4,,,TRUE,,,,,,-RA,FEW,8000,OVC,9000,,,,,VFR,,,,,,0.02,,,,,,METAR,45.0
KBFM 300953Z AUTO 30008KT 10SM BKN015 16/13 A2971 RMK AO2 SLP060 T01610133,KBFM,2023-04-30T09:53:00Z,30.62,-88.07,16.1,13.3,300,8,,10.0,29.71063,1006.0,,TRUE,TRUE,,,,,,,BKN,1500,,,,,,,MVFR,,,,,,,,,,,,METAR,7.0
KBFI 300953Z 20004KT 10SM CLR 12/07 A2991 RMK AO2 SLP127 T01170067,KBFI,2023-04-30T09:53:00Z,47.55,-122.32,11.7,6.7,200,4,,10.0,29.911417,1012.7,,,TRUE,,,,,,,CLR,,,,,,,,VFR,,,,,,,,,,,,METAR,7.0
KBFF 300953Z AUTO 33004KT 10SM FEW110 02/M04 A3010 RMK AO2 SLP175 T00221044,KBFF,2023-04-30T09:53:00Z,41.87,-103.6,2.2,-4.4,330,4,,10.0,30.100393,1017.5,,TRUE,TRUE,,,,,,,FEW,11000,,,,,,,VFR,,,,,,,,,,,,METAR,1204.0
KBFD 300953Z AUTO 14008KT 10SM OVC007 11/09 A2953 RMK AO2 SLP998 T01110089,KBFD,2023-04-30T09:53:00Z,41.8,-78.63,11.1,8.9,140,8,,10.0,29.530512,999.8,,TRUE,TRUE,,,,,,,OVC,700,,,,,,,IFR,,,,,,,,,,,,METAR,642.0
KBEH 300953Z AUTO 28010KT 10SM OVC075 06/02 A2946 RMK AO2 SLP979 T00560017,KBEH,2023-04-30T09:53:00Z,42.13,-86.42,5.6,1.7,280,10,,10.0,29.459646,997.9,,TRUE,TRUE,,,,,,,OVC,7500,,,,,,,VFR,,,,,,,,,,,,METAR,196.0
KBDE 300953Z AUTO 34013KT 10SM CLR 02/M03 A2986 RMK AO2 SLP120 T00221033 $,KBDE,2023-04-30T09:53:00Z,48.73,-94.62,2.2,-3.3,340,13,,10.0,29.861221,1012.0,,TRUE,TRUE,TRUE,,,,,,CLR,,,,,,,,VFR,,,,,,,,,,,,METAR,330.0
KBCE 300953Z AUTO 27011KT 10SM CLR 03/M04 A3022 RMK AO2 SLP135 T00331044,KBCE,2023-04-30T09:53:00Z,37.7,-112.15,3.3,-4.4,270,11,,10.0,30.221457,1013.5,,TRUE,TRUE,,,,,,,CLR,,,,,,,,VFR,,,,,,,,,,,,METAR,2311.0
KBBW 300953Z AUTO 30013KT 10SM CLR 03/M04 A3000 RMK AO2 SLP159 T00281044,KBBW,2023-04-30T09:53:00Z,41.43,-99.63,2.8,-4.4,300,13,,10.0,30.0,1015.9,,TRUE,TRUE,,,,,,,CLR,,,,,,,,VFR,,,,,,,,,,,,METAR,771.0
KBAF 300953Z AUTO 01008KT 3SM -RA BR BKN006 OVC009 08/08 A2978 RMK AO2 RAE32B53 SLP087 P0001 T00830078,KBAF,2023-04-30T09:53:00Z,42.17,-72.72,8.3,7.8,10,8,,3.0,29.778543,1008.7,,TRUE,TRUE,,,,,,-RA BR,BKN,600,OVC,900,,,,,IFR,,,,,,0.01,,,,,,METAR,80.0
KAZO 300953Z 25009KT 10SM FEW017 BKN028 OVC033 06/03 A2945 RMK AO2 SLP975 T00610028,KAZO,2023-04-30T09:53:00Z,42.23,-85.55,6.1,2.8,250,9,,10.0,29.450787,997.5,,,TRUE,,,,,,,FEW,1700,BKN,2800,OVC,3300,,,MVFR,,,,,,,,,,,,METAR,264.0
KAXN 300953Z AUTO 33015G23KT 10SM CLR 02/M03 A2979 RMK AO2 SLP098 T00221028,KAXN,2023-04-30T09:53:00Z,45.87,-95.4,2.2,-2.8,330,15,23,10.0,29.790354,1009.8,,TRUE,TRUE,,,,,,,CLR,,,,,,,,VFR,,,,,,,,,,,,METAR,433.0
KAWM 300953Z AUTO 35008KT 10SM CLR 13/07 A2969 RMK AO2 SLP050 T01280072,KAWM,2023-04-30T09:53:00Z,35.13,-90.23,12.8,7.2,350,8,,10.0,29.68996,1005.0,,TRUE,TRUE,,,,,,,CLR,,,,,,,,VFR,,,,,,,,,,,,METAR,64.0
KAUS 300953Z 25006KT 10SM CLR 11/07 A2993 RMK AO2 SLP132 T01110067 $,KAUS,2023-04-30T09:53:00Z,30.18,-97.68,11.1,6.7,250,6,,10.0,29.929134,1013.2,,,TRUE,TRUE,,,,,,CLR,,,,,,,,VFR,,,,,,,,,,,,METAR,148.0
KAUG 300953Z AUTO 10004KT 7SM -RA OVC010 06/04 A3003 RMK AO2 CIG 008V015 SLP172 P0005 T00610044,KAUG,2023-04-30T09:53:00Z,44.32,-69.8,6.1,4.4,100,4,,7.0,30.029528,1017.2,,TRUE,TRUE,,,,,,-RA,OVC,1000,,,,,,,MVFR,,,,,,0.05,,,,,,METAR,107.0
KATY 300953Z AUTO 35023G31KT 10SM OVC012 03/01 A2988 RMK AO2 PK WND 35031/0946 SLP128 T00280011,KATY,2023-04-30T09:53:00Z,44.9,-97.15,2.8,1.1,350,23,31,10.0,29.878937,1012.8,,TRUE,TRUE,,,,,,,OVC,1200,,,,,,,MVFR,,,,,,,,,,,,METAR,531.0
KASX 300953Z AUTO 34010G17KT 1 3/4SM -SN BR OVC010 01/00 A2952 RMK AO2 SLP006 P0006 T00110000,KASX,2023-04-30T09:53:00Z,46.55,-90.92,1.1,0.0,340,10,17,1.75,29.518702,1000.6,,TRUE,TRUE,,,,,,-SN BR,OVC,1000,,,,,,,IFR,,,,,,0.06,,,,,,METAR,249.0
KASE 300953Z AUTO 20006KT 10SM CLR 01/M05 A3017 RMK AO2 SLP137 T00061050 $,KASE,2023-04-30T09:53:00Z,39.23,-106.87,0.6,-5.0,200,6,,10.0,30.171259,1013.7,,TRUE,TRUE,TRUE,,,,,,CLR,,,,,,,,VFR,,,,,,,,,,,,METAR,2384.0
KASD 300953Z AUTO 00000KT 10SM OVC043 17/13 A2977 RMK AO2 SLP082 T01670133,KASD,2023-04-30T09:53:00Z,30.35,-89.82,16.7,13.3,0,0,,10.0,29.769686,1008.2,,TRUE,TRUE,,,,,,,OVC,4300,,,,,,,VFR,,,,,,,,,,,,METAR,8.0
KARA 300953Z 28006KT 10SM CLR 13/11 A2985 RMK AO2 SLP109 T01330111,KARA,2023-04-30T09:53:00Z,30.03,-91.88,13.3,11.1,280,6,,10.0,29.84941,1010.9,,,TRUE,,,,,,,CLR,,,,,,,,VFR,,,,,,,,,,,,METAR,5.0
KAQP 300953Z AUTO 01014G19KT 10SM 03/01 A2983 RMK AO2,KAQP,2023-04-30T09:53:00Z,45.22,-96.0,3.0,1.0,10,14,19,10.0,29.828741,,,TRUE,TRUE,,,,,,,,,,,,,,,,,,,,,,,,,,,METAR,312.0
KAPF 300953Z 21021G32KT 10SM SCT019 BKN027 BKN035 28/23 A2969 RMK AO2 PK WND 21032/0946 SLP052 T02830233,KAPF,2023-04-30T09:53:00Z,26.15,-81.77,28.3,23.3,210,21,32,10.0,29.68996,1005.2,,,TRUE,,,,,,,SCT,1900,BKN,2700,BKN,3500,,,MVFR,,,,,,,,,,,,METAR,2.0
KAPA 300953Z 00000KT 10SM FEW220 06/M01 A3010 RMK AO2 SLP157 T00561006,KAPA,2023-04-30T09:53:00Z,39.57,-104.85,5.6,-0.6,0,0,,10.0,30.100393,1015.7,,,TRUE,,,,,,,FEW,22000,,,,,,,VFR,,,,,,,,,,,,METAR,1791.0
KAOO 300953Z AUTO 09003KT 7SM -RA FEW002 SCT075 OVC090 11/11 A2955 RMK AO2 SLP006 P0004 T01110106,KAOO,2023-04-30T09:53:00Z,40.3,-78.32,11.1,10.6,90,3,,7.0,29.551182,1000.6,,TRUE,TRUE,,,,,,-RA,FEW,200,SCT,7500,OVC,9000,,,VFR,,,,,,0.04,,,,,,METAR,450.0
KAOH 300953Z AUTO 26010KT 3SM RA BR BKN032 OVC041 07/06 A2948 RMK AO2 RAE03B16 SLP983 P0010 T00670056,KAOH,2023-04-30T09:53:00Z,40.7,-84.02,6.7,5.6,260,10,,3.0,29.480314,998.3,,TRUE,TRUE,,,,,,RA BR,BKN,3200,OVC,4100,,,,,MVFR,,,,,,0.1,,,,,,METAR,294.0
KANB 300953Z AUTO 23005KT 7SM RA BKN006 BKN060 OVC075 15/14 A2954 RMK AO2 SLP997 P0012 T01500144,KANB,2023-04-30T09:53:00Z,33.58,-85.85,15.0,14.4,230,5,,7.0,29.53937,999.7,,TRUE,TRUE,,,,,,RA,BKN,600,BKN,6000,OVC,7500,,,IFR,,,,,,0.12,,,,,,METAR,187.0
KAMW 300953Z AUTO 31014G21KT 10SM FEW065 05/02 A2968 RMK AO2 SLP052 T00500017,KAMW,2023-04-30T09:53:00Z,41.98,-93.62,5.0,1.7,310,14,21,10.0,29.681103,1005.2,,TRUE,TRUE,,,,,,,FEW,6500,,,,,,,VFR,,,,,,,,,,,,METAR,282.0
KAMG 300953Z AUTO 23007KT 7SM -RA SCT004 SCT016 OVC090 19/18 A2947 RMK AO2 RAB09 SLP978 P0013 T01940183 $,KAMG,2023-04-30T09:53:00Z,31.53,-82.5,19.4,18.3,230,7,,7.0,29.471457,997.8,,TRUE,TRUE,TRUE,,,,,-RA,SCT,400,SCT,1600,OVC,9000,,,VFR,,,,,,0.13,,,,,,METAR,61.0
KAMA 300953Z AUTO 28005KT 10SM CLR 12/01 A2995 RMK AO2 SLP104 T01170006,KAMA,2023-04-30T09:53:00Z,35.22,-101.72,11.7,0.6,280,5,,10.0,29.949802,1010.4,,TRUE,TRUE,,,,,,,CLR,,,,,,,,VFR,,,,,,,,,,,,METAR,1102.0
KALW 300953Z AUTO 23006KT 10SM CLR 16/07 A2980 RMK AO2 SLP084 T01560072,KALW,2023-04-30T09:53:00Z,46.1,-118.28,15.6,7.2,230,6,,10.0,29.799213,1008.4,,TRUE,TRUE,,,,,,,CLR,,,,,,,,VFR,,,,,,,,,,,,METAR,355.0
KALI 300953Z AUTO 00000KT 10SM CLR 16/07 A2996 RMK AO2 SLP143 T01560072,KALI,2023-04-30T09:53:00Z,27.73,-98.02,15.6,7.2,0,0,,10.0,29.958662,1014.3,,TRUE,TRUE,,,,,,,CLR,,,,,,,,VFR,,,,,,,,,,,,METAR,52.0
KAKO 300953Z AUTO 05007KT 10SM OVC120 06/M03 A3007 RMK AO2 SLP154 T00561033 TSNO $,KAKO,2023-04-30T09:53:00Z,40.17,-103.22,5.6,-3.3,50,7,,10.0,30.070866,1015.4,,TRUE,TRUE,TRUE,,TRUE,,,,OVC,12000,,,,,,,VFR,,,,,,,,,,,,METAR,1431.0
KAIA 300953Z AUTO 02008KT 10SM CLR M01/M06 A3009 RMK AO2 SLP182 T10111061,KAIA,2023-04-30T09:53:00Z,42.05,-102.8,-1.1,-6.1,20,8,,10.0,30.088583,1018.2,,TRUE,TRUE,,,,,,,CLR,,,,,,,,VFR,,,,,,,,,,,,METAR,1198.0
KAGS 300953Z 00000KT 10SM SCT005 OVC013 17/17 A2943 RMK AO2 RAE26B43E53 SLP963 P0000 T01720172,KAGS,2023-04-30T09:53:00Z,33.37,-81.97,17.2,17.2,0,0,,10.0,29.430119,996.3,,,TRUE,,,,,,,SCT,500,OVC,1300,,,,,MVFR,,,,,,0.005,,,,,,METAR,40.0
KAGC 300953Z 17004KT 10SM OVC055 12/10 A2949 RMK AO2 RAE17 SLP987 P0000 T01170100,KAGC,2023-04-30T09:53:00Z,40.35,-79.92,11.7,10.0,170,4,,10.0,29.489174,998.7,,,TRUE,,,,,,,OVC,5500,,,,,,,VFR,,,,,,0.005,,,,,,METAR,380.0
KAFW 300953Z 26004KT 10SM CLR 11/06 A2984 RMK AO2 SLP098 T01110061,KAFW,2023-04-30T09:53:00Z,32.97,-97.32,11.1,6.1,260,4,,10.0,29.840551,1009.8,,,TRUE,,,,,,,CLR,,,,,,,,VFR,,,,,,,,,,,,METAR,208.0
KAEX 300953Z 29003KT 10SM CLR 10/09 A2983 RMK AO2 SLP105 T01000094,KAEX,2023-04-30T09:53:00Z,31.33,-92.57,10.0,9.4,290,3,,10.0,29.828741,1010.5,,,TRUE,,,,,,,CLR,,,,,,,,VFR,,,,,,,,,,,,METAR,25.0
KADG 300953Z AUTO 22004KT 8SM -RA FEW027 BKN032 OVC048 07/05 A2946 RMK AO2 SLP976 P0008 T00670050,KADG,2023-04-30T09:53:00Z,41.87,-84.08,6.7,5.0,220,4,,8.0,29.459646,997.6,,TRUE,TRUE,,,,,,-RA,FEW,2700,BKN,3200,OVC,4800,,,VFR,,,,,,0.08,,,,,,METAR,244.0
KACK 300953Z AUTO 11022G28KT 7SM SCT007 OVC018 11/09 A2978 RMK AO2 PK WND 11029/0936 SLP085 T01060094,KACK,2023-04-30T09:53:00Z,41.25,-70.07,10.6,9.4,110,22,28,7.0,29.778543,1008.5,,TRUE,TRUE,,,,,,,SCT,700,OVC,1800,,,,,MVFR,,,,,,,,,,,,METAR,12.0
KABY 300953Z AUTO 26007KT 10SM CLR 15/13 A2954 RMK AO2 SLP003 T01500133,KABY,2023-04-30T09:53:00Z,31.53,-84.2,15.0,13.3,260,7,,10.0,29.53937,1000.3,,TRUE,TRUE,,,,,,,CLR,,,,,,,,VFR,,,,,,,,,,,,METAR,60.0
KABR 300953Z AUTO 34014KT 10SM CLR 03/01 A2999 RMK AO2 SLP160 T00280011 $,KABR,2023-04-30T09:53:00Z,45.45,-98.42,2.8,1.1,340,14,,10.0,29.991142,1016.0,,TRUE,TRUE,TRUE,,,,,,CLR,,,,,,,,VFR,,,,,,,,,,,,METAR,397.0
KAAF 300953Z AUTO 28008KT 10SM CLR 19/16 A2961 RMK AO2 SLP027 T01890161 $,KAAF,2023-04-30T09:53:00Z,29.73,-85.03,18.9,16.1,280,8,,10.0,29.610237,1002.7,,TRUE,TRUE,TRUE,,,,,,CLR,,,,,,,,VFR,,,,,,,,,,,,METAR,5.0
CYIO 300953Z AUTO 20004KT 6SM -SN OVC035 M07/M07 A3018 RMK SLP229,CYIO,2023-04-30T09:53:00Z,72.68,-77.97,-7.0,-7.0,200,4,,6.0,30.180119,1022.9,,TRUE,,,,,,,-SN,OVC,3500,,,,,,,VFR,,,,,,,,,,,,SPECI,61.0
PATA 300952Z AUTO 00000KT 10SM CLR 01/M05 A2979 RMK AO2 SLP091 T00061050 TSNO,PATA,2023-04-30T09:52:00Z,65.17,-152.1,0.6,-5.0,0,0,,10.0,29.790354,1009.1,,TRUE,TRUE,,,TRUE,,,,CLR,,,,,,,,VFR,,,,,,,,,,,,METAR,62.0
PABA 300952Z AUTO 09019KT 4SM -SN BR OVC008 M11/M12 A3016 RMK AO2 SLP220 T11061122 FZRANO PNO $,PABA,2023-04-30T09:52:00Z,70.13,-143.58,-10.6,-12.2,90,19,,4.0,30.159449,1022.0,,TRUE,TRUE,TRUE,,,TRUE,,-SN BR,OVC,800,,,,,,,IFR,,,,,,,,,,,,METAR,1.0
KVTN 300952Z AUTO 31007KT 10SM CLR 01/M05 A3005 RMK AO2 SLP182 T00111050,KVTN,2023-04-30T09:52:00Z,42.87,-100.55,1.1,-5.0,310,7,,10.0,30.050198,1018.2,,TRUE,TRUE,,,,,,,CLR,,,,,,,,VFR,,,,,,,,,,,,METAR,790.0
KTRM 300952Z AUTO 00000KT 9SM CLR 21/07 A2974 RMK AO2 SLP082 T02060072 $,KTRM,2023-04-30T09:52:00Z,33.63,-116.17,20.6,7.2,0,0,,9.0,29.740158,1008.2,,TRUE,TRUE,TRUE,,,,,,CLR,,,,,,,,VFR,,,,,,,,,,,,METAR,-39.0
KTAN 300952Z AUTO 00000KT 5SM -RA BR OVC008 11/10 A2981 RMK AO2 SLP093 P0005 T01110100,KTAN,2023-04-30T09:52:00Z,41.88,-71.02,11.1,10.0,0,0,,5.0,29.811024,1009.3,,TRUE,TRUE,,,,,,-RA BR,OVC,800,,,,,,,IFR,,,,,,0.05,,,,,,METAR,8.0
KSUX 300952Z AUTO 32014KT 10SM SCT021 04/01 A2985 RMK AO2 SLP110 T00440011,KSUX,2023-04-30T09:52:00Z,42.38,-96.38,4.4,1.1,320,14,,10.0,29.84941,1011.0,,TRUE,TRUE,,,,,,,SCT,2100,,,,,,,VFR,,,,,,,,,,,,METAR,332.0
KSPS 300952Z AUTO 27007KT 10SM CLR 13/07 A2986 RMK AO2 SLP103 T01330067 $,KSPS,2023-04-30T09:52:00Z,33.98,-98.5,13.3,6.7,270,7,,10.0,29.861221,1010.3,,TRUE,TRUE,TRUE,,,,,,CLR,,,,,,,,VFR,,,,,,,,,,,,METAR,310.0
KSPI 300952Z AUTO 27009KT 10SM FEW065 SCT100 06/04 A2959 RMK AO2 SLP020 T00560039,KSPI,2023-04-30T09:52:00Z,39.85,-89.68,5.6,3.9,270,9,,10.0,29.589567,1002.0,,TRUE,TRUE,,,,,,,FEW,6500,SCT,10000,,,,,VFR,,,,,,,,,,,,METAR,179.0
KSGF 300952Z 00000KT 10SM CLR 05/02 A2975 RMK AO2 SLP070 T00500022,KSGF,2023-04-30T09:52:00Z,37.23,-93.38,5.0,2.2,0,0,,10.0,29.749016,1007.0,,,TRUE,,,,,,,CLR,,,,,,,,VFR,,,,,,,,,,,,METAR,387.0
KREO 300952Z AUTO 20007KT 12/M03 A2994 RMK AO1 SLP102 T01171028,KREO,2023-04-30T09:52:00Z,42.58,-117.87,11.7,-2.8,200,7,,,29.940945,1010.2,,TRUE,TRUE,,,,,,,,,,,,,,,,,,,,,,,,,,,METAR,1237.0
KRAP 300952Z AUTO 34010KT 10SM CLR 00/M07 A3012 RMK AO2 SLP205 T00001067 $,KRAP,2023-04-30T09:52:00Z,44.05,-103.05,0.0,-6.7,340,10,,10.0,30.121063,1020.5,,TRUE,TRUE,TRUE,,,,,,CLR,,,,,,,,VFR,,,,,,,,,,,,METAR,965.0
KPYM 300952Z AUTO 00000KT 9SM OVC005 11/10 A2981 RMK AO2 RAE52 SLP096 P0003 T01110100,KPYM,2023-04-30T09:52:00Z,41.92,-70.73,11.1,10.0,0,0,,9.0,29.811024,1009.6,,TRUE,TRUE,,,,,,,OVC,500,,,,,,,IFR,,,,,,0.03,,,,,,METAR,42.0
KPWK 300952Z AUTO 25006KT 10SM OVC075 06/02 A2947 RMK AO2 SLP982 T00610022,KPWK,2023-04-30T09:52:00Z,42.12,-87.9,6.1,2.2,250,6,,10.0,29.471457,998.2,,TRUE,TRUE,,,,,,,OVC,7500,,,,,,,VFR,,,,,,,,,,,,METAR,194.0
KPPF 300952Z AUTO 00000KT 10SM CLR 04/01 A2985 RMK AO2 SLP106 T00390006,KPPF,2023-04-30T09:52:00Z,37.33,-95.5,3.9,0.6,0,0,,10.0,29.84941,1010.6,,TRUE,TRUE,,,,,,,CLR,,,,,,,,VFR,,,,,,,,,,,,METAR,265.0
KP69 300952Z AUTO 36005KT 08/04 A2995 RMK AO1 SLP125 T00780044 $,KP69,2023-04-30T09:52:00Z,46.15,-115.6,7.8,4.4,360,5,,,29.949802,1012.5,,TRUE,TRUE,TRUE,,,,,,,,,,,,,,,,,,,,,,,,,,METAR,447.0
KORE 300952Z AUTO 05004KT 10SM OVC010 09/07 A2983 RMK AO2 SLP103 T00890067,KORE,2023-04-30T09:52:00Z,42.57,-72.28,8.9,6.7,50,4,,10.0,29.828741,1010.3,,TRUE,TRUE,,,,,,,OVC,1000,,,,,,,MVFR,,,,,,,,,,,,METAR,165.0
KOMA 300952Z 31014G23KT 10SM CLR 06/01 A2983 RMK AO2 SLP102 T00560006,KOMA,2023-04-30T09:52:00Z,41.32,-95.9,5.6,0.6,310,14,23,10.0,29.828741,1010.2,,,TRUE,,,,,,,CLR,,,,,,,,VFR,,,,,,,,,,,,METAR,299.0
KOKC 300952Z 34003KT 10SM FEW250 11/05 A2987 RMK AO2 SLP109 T01110050,KOKC,2023-04-30T09:52:00Z,35.38,-97.6,11.1,5.0,340,3,,10.0,29.870079,1010.9,,,TRUE,,,,,,,FEW,25000,,,,,,,VFR,,,,,,,,,,,,METAR,391.0
KOKB 300952Z AUTO 25003KT 10SM OVC009 14/12 A2995 RMK AO2 SLP141 T01440122,KOKB,2023-04-30T09:52:00Z,33.22,-117.35,14.4,12.2,250,3,,10.0,29.949802,1014.1,,TRUE,TRUE,,,,,,,OVC,900,,,,,,,IFR,,,,,,,,,,,,METAR,7.0
KNZY 300952Z AUTO 31003KT 10SM OVC007 14/13 A2995 RMK AO2 SLP141 T01390128 $,KNZY,2023-04-30T09:52:00Z,32.7,-117.22,13.9,12.8,310,3,,10.0,29.949802,1014.1,,TRUE,TRUE,TRUE,,,,,,OVC,700,,,,,,,IFR,,,,,,,,,,,,METAR,4.0
KNRB 300952Z AUTO 17008KT 10SM FEW065 BKN080 OVC100 22/20 A2952 RMK AO2 SLP994 T02220200,KNRB,2023-04-30T09:52:00Z,30.38,-81.42,22.2,20.0,170,8,,10.0,29.518702,999.4,,TRUE,TRUE,,,,,,,FEW,6500,BKN,8000,OVC,10000,,,VFR,,,,,,,,,,,,METAR,4.0
KNFW 300952Z AUTO 26006KT CLR 12/06 A2985 RMK AO2 SLP092 T01170061 TSNO CHINO S VISNO S $,KNFW,2023-04-30T09:52:00Z,32.78,-97.43,11.7,6.1,260,6,,,29.84941,1009.2,,TRUE,TRUE,TRUE,,TRUE,,,,CLR,,,,,,,,,,,,,,,,,,,,METAR,188.0
KNFG 300952Z AUTO 00000KT 10SM OVC008 15/12 A2996 RMK AO2 SLP143 T01500122 $,KNFG,2023-04-30T09:52:00Z,33.3,-117.35,15.0,12.2,0,0,,10.0,29.958662,1014.3,,TRUE,TRUE,TRUE,,,,,,OVC,800,,,,,,,IFR,,,,,,,,,,,,METAR,21.0
KN60 300952Z AUTO 33008KT M03/M04 A3012 RMK AO1 SLP213 T10281039,KN60,2023-04-30T09:52:00Z,47.65,-101.43,-2.8,-3.9,330,8,,,30.121063,1021.3,,TRUE,TRUE,,,,,,,,,,,,,,,,,,,,,,,,,,,METAR,582.0
KMWH 300952Z AUTO 01005KT 10SM CLR 11/08 A2979 RMK AO2 SLP084 T01060078,KMWH,2023-04-30T09:52:00Z,47.2,-119.32,10.6,7.8,10,5,,10.0,29.790354,1008.4,,TRUE,TRUE,,,,,,,CLR,,,,,,,,VFR,,,,,,,,,,,,METAR,355.0
KMLI 300952Z 29010KT 10SM BKN070 OVC100 08/02 A2954 RMK AO2 SLP003 T00830022,KMLI,2023-04-30T09:52:00Z,41.45,-90.52,8.3,2.2,290,10,,10.0,29.53937,1000.3,,,TRUE,,,,,,,BKN,7000,OVC,10000,,,,,VFR,,,,,,,,,,,,METAR,174.0
KMLF 300952Z AUTO 19007KT 10SM CLR 09/M03 A3004 RMK AO2 SLP120 T00891028,KMLF,2023-04-30T09:52:00Z,38.42,-113.02,8.9,-2.8,190,7,,10.0,30.041338,1012.0,,TRUE,TRUE,,,,,,,CLR,,,,,,,,VFR,,,,,,,,,,,,METAR,1537.0
KMKE 300952Z 26010KT 10SM BKN021 BKN043 06/01 A2940 RMK AO2 SLP957 T00560011 $,KMKE,2023-04-30T09:52:00Z,42.95,-87.9,5.6,1.1,260,10,,10.0,29.40059,995.7,,,TRUE,TRUE,,,,,,BKN,2100,BKN,4300,,,,,MVFR,,,,,,,,,,,,METAR,203.0
KMHK 300952Z AUTO 35004KT 10SM CLR 08/00 A2990 RMK AO2 SLP122 T00780000,KMHK,2023-04-30T09:52:00Z,39.13,-96.68,7.8,0.0,350,4,,10.0,29.899607,1012.2,,TRUE,TRUE,,,,,,,CLR,,,,,,,,VFR,,,,,,,,,,,,METAR,320.0
KMFD 300952Z 15007KT 10SM BKN070 OVC090 08/07 A2944 RMK AO2 SLP968 T00830072,KMFD,2023-04-30T09:52:00Z,40.82,-82.52,8.3,7.2,150,7,,10.0,29.438976,996.8,,,TRUE,,,,,,,BKN,7000,OVC,9000,,,,,VFR,,,,,,,,,,,,METAR,394.0
KMEB 300952Z AUTO 14005KT 7SM OVC005 19/17 A2947 RMK AO2 RAE0854 SLP978 P0000 T01890172,KMEB,2023-04-30T09:52:00Z,34.78,-79.37,18.9,17.2,140,5,,7.0,29.471457,997.8,,TRUE,TRUE,,,,,,,OVC,500,,,,,,,IFR,,,,,,0.005,,,,,,METAR,65.0
KMDH 300952Z AUTO 29006KT 10SM CLR 07/05 A2966 RMK AO2 SLP042 T00720050,KMDH,2023-04-30T09:52:00Z,37.78,-89.25,7.2,5.0,290,6,,10.0,29.660433,1004.2,,TRUE,TRUE,,,,,,,CLR,,,,,,,,VFR,,,,,,,,,,,,METAR,122.0
KMBG 300952Z AUTO 35008KT 10SM CLR 02/M01 A3004 RMK AO2 SLP179 T00221011,KMBG,2023-04-30T09:52:00Z,45.55,-100.42,2.2,-1.1,350,8,,10.0,30.041338,1017.9,,TRUE,TRUE,,,,,,,CLR,,,,,,,,VFR,,,,,,,,,,,,METAR,515.0
KLWC 300952Z AUTO 33010KT 9SM CLR 08/02 A2983 RMK AO1 SLP099 T00780022,KLWC,2023-04-30T09:52:00Z,39.02,-95.22,7.8,2.2,330,10,,9.0,29.828741,1009.9,,TRUE,TRUE,,,,,,,CLR,,,,,,,,VFR,,,,,,,,,,,,METAR,252.0
KIOW 300952Z AUTO 30013G22KT 10SM SCT060 OVC090 07/02 A2960 RMK AO2 SLP024 T00670022 $,KIOW,2023-04-30T09:52:00Z,41.63,-91.55,6.7,2.2,300,13,22,10.0,29.601377,1002.4,,TRUE,TRUE,TRUE,,,,,,SCT,6000,OVC,9000,,,,,VFR,,,,,,,,,,,,METAR,199.0
KIJD 300952Z AUTO 03004KT 8SM OVC007 10/09 A2976 RMK AO2 SLP078 T01000094,KIJD,2023-04-30T09:52:00Z,41.75,-72.18,10.0,9.4,30,4,,8.0,29.760826,1007.8,,TRUE,TRUE,,,,,,,OVC,700,,,,,,,IFR,,,,,,,,,,,,METAR,73.0
KIEN 300952Z AUTO 34003KT 10SM CLR 02/M06 A3011 RMK AO2 SLP196 T00171061,KIEN,2023-04-30T09:52:00Z,43.03,-102.52,1.7,-6.1,340,3,,10.0,30.109253,1019.6,,TRUE,TRUE,,,,,,,CLR,,,,,,,,VFR,,,,,,,,,,,,METAR,1002.0
KIAD 300952Z 09003KT 10SM OVC006 16/14 A2955 RMK AO2 SLP004 T01560144,KIAD,2023-04-30T09:52:00Z,38.93,-77.45,15.6,14.4,90,3,,10.0,29.551182,1000.4,,,TRUE,,,,,,,OVC,600,,,,,,,IFR,,,,,,,,,,,,METAR,90.0
KHUT 300952Z AUTO 31006KT 10SM CLR 06/02 A2992 RMK AO2 SLP117 T00610022,KHUT,2023-04-30T09:52:00Z,38.07,-97.87,6.1,2.2,310,6,,10.0,29.920275,1011.7,,TRUE,TRUE,,,,,,,CLR,,,,,,,,VFR,,,,,,,,,,,,METAR,464.0
KHRL 300952Z AUTO 18006KT 10SM CLR 13/11 A2997 RMK AO2 SLP149 T01280111,KHRL,2023-04-30T09:52:00Z,26.23,-97.65,12.8,11.1,180,6,,10.0,29.970472,1014.9,,TRUE,TRUE,,,,,,,CLR,,,,,,,,VFR,,,,,,,,,,,,METAR,9.0
KHIE 300952Z AUTO 19008G18KT 160V220 10SM BKN033 BKN042 OVC070 07/02 A2986 RMK AO2 PK WND 14026/0854 SLP118 T00720022,KHIE,2023-04-30T09:52:00Z,44.37,-71.55,7.2,2.2,190,8,18,10.0,29.861221,1011.8,,TRUE,TRUE,,,,,,,BKN,3300,BKN,4200,OVC,7000,,,VFR,,,,,,,,,,,,METAR,321.0
KGLS 300952Z AUTO 25005KT 10SM CLR 17/12 A2992 RMK AO2 SLP130 T01670117 $,KGLS,2023-04-30T09:52:00Z,29.27,-94.87,16.7,11.7,250,5,,10.0,29.920275,1013.0,,TRUE,TRUE,TRUE,,,,,,CLR,,,,,,,,VFR,,,,,,,,,,,,METAR,2.0
KEST 300952Z AUTO 32018KT 10SM CLR 03/01 A2972 RMK AO2 SLP070 T00330006,KEST,2023-04-30T09:52:00Z,43.4,-94.75,3.3,0.6,320,18,,10.0,29.719488,1007.0,,TRUE,TRUE,,,,,,,CLR,,,,,,,,VFR,,,,,,,,,,,,METAR,401.0
KDVN 300952Z AUTO 29013KT 10SM FEW070 BKN100 07/02 A2956 RMK AO2 SLP007 T00670017,KDVN,2023-04-30T09:52:00Z,41.62,-90.58,6.7,1.7,290,13,,10.0,29.56004,1000.7,,TRUE,TRUE,,,,,,,FEW,7000,BKN,10000,,,,,VFR,,,,,,,,,,,,METAR,227.0
KDPA 300952Z 25006KT 10SM FEW085 04/01 A2947 RMK AO2 SLP983 T00440011,KDPA,2023-04-30T09:52:00Z,41.88,-88.25,4.4,1.1,250,6,,10.0,29.471457,998.3,,,TRUE,,,,,,,FEW,8500,,,,,,,VFR,,,,,,,,,,,,METAR,228.0
KDDC 300952Z AUTO 02010KT 10SM SCT080 BKN100 BKN120 08/02 A2995 RMK AO2 RAB12E21 SLP126 P0000 T00830017,KDDC,2023-04-30T09:52:00Z,37.77,-99.97,8.3,1.7,20,10,,10.0,29.949802,1012.6,,TRUE,TRUE,,,,,,,SCT,8000,BKN,10000,BKN,12000,,,VFR,,,,,,0.005,,,,,,METAR,786.0
KDCA 300952Z 05006KT 10SM OVC010 16/14 A2955 RMK AO2 PRESFR SLP006 T01610144 $,KDCA,2023-04-30T09:52:00Z,38.85,-77.03,16.1,14.4,50,6,,10.0,29.551182,1000.6,,,TRUE,TRUE,,,,,,OVC,1000,,,,,,,MVFR,,,,,,,,,,,,METAR,4.0
KCVG 300952Z 31015KT 10SM FEW040 OVC060 08/06 A2951 RMK AO2 PK WND 30030/0905 WSHFT 0839 RAE0856 SLP989 P0000 T00830061 $,KCVG,2023-04-30T09:52:00Z,39.05,-84.67,8.3,6.1,310,15,,10.0,29.509842,998.9,,,TRUE,TRUE,,,,,,FEW,4000,OVC,6000,,,,,VFR,,,,,,0.005,,,,,,METAR,264.0
KCNU 300952Z AUTO 29005KT 10SM CLR 07/02 A2984 RMK AO2 SLP100 T00720022,KCNU,2023-04-30T09:52:00Z,37.67,-95.48,7.2,2.2,290,5,,10.0,29.840551,1010.0,,TRUE,TRUE,,,,,,,CLR,,,,,,,,VFR,,,,,,,,,,,,METAR,301.0
KCLT 300952Z 27004KT 5SM BR FEW006 BKN009 OVC024 17/16 A2949 RMK AO2 RAE00 SLP995 P0000 T01670156,KCLT,2023-04-30T09:52:00Z,35.22,-80.95,16.7,15.6,270,4,,5.0,29.489174,999.5,,,TRUE,,,,,,BR,FEW,600,BKN,900,OVC,2400,,,IFR,,,,,,0.005,,,,,,METAR,223.0
KCKV 300952Z AUTO 32008KT 10SM CLR 09/06 A2961 RMK AO2 SLP023 T00940056,KCKV,2023-04-30T09:52:00Z,36.62,-87.42,9.4,5.6,320,8,,10.0,29.610237,1002.3,,TRUE,TRUE,,,,,,,CLR,,,,,,,,VFR,,,,,,,,,,,,METAR,166.0
KCID 300952Z 31014KT 10SM BKN075 04/02 A2957 RMK AO2 SLP016 T00440017 $,KCID,2023-04-30T09:52:00Z,41.88,-91.72,4.4,1.7,310,14,,10.0,29.568897,1001.6,,,TRUE,TRUE,,,,,,BKN,7500,,,,,,,VFR,,,,,,,,,,,,METAR,257.0
KCFV 300952Z AUTO 31005KT 10SM CLR 07/04 A2983 RMK AO2 SLP100 T00720044,KCFV,2023-04-30T09:52:00Z,37.08,-95.57,7.2,4.4,310,5,,10.0,29.828741,1010.0,,TRUE,TRUE,,,,,,,CLR,,,,,,,,VFR,,,,,,,,,,,,METAR,228.0
KBML 300952Z AUTO 14009G17KT 10SM OVC019 06/03 A2991 RMK AO2 SLP136 T00560028,KBML,2023-04-30T09:52:00Z,44.58,-71.18,5.6,2.8,140,9,17,10.0,29.911417,1013.6,,TRUE,TRUE,,,,,,,OVC,1900,,,,,,,MVFR,,,,,,,,,,,,METAR,344.0
KBLU 300952Z AUTO 15004KT 10SM CLR 13/04 A3008 RMK AO2 SLP107 T01330044,KBLU,2023-04-30T09:52:00Z,39.28,-120.7,13.3,4.4,150,4,,10.0,30.079725,1010.7,,TRUE,TRUE,,,,,,,CLR,,,,,,,,VFR,,,,,,,,,,,,METAR,1605.0
KBLF 300952Z AUTO 28004KT 10SM -RA BKN060 OVC100 12/11 A2955 RMK AO2 SLP980 P0001 T01170106,KBLF,2023-04-30T09:52:00Z,37.3,-81.2,11.7,10.6,280,4,,10.0,29.551182,998.0,,TRUE,TRUE,,,,,,-RA,BKN,6000,OVC,10000,,,,,VFR,,,,,,0.01,,,,,,METAR,871.0
KBKB 300952Z AUTO 00000KT 6SM BR CLR 10/09 A2983 RMK AO2 SLP129 T01000094,KBKB,2023-04-30T09:52:00Z,31.02,-92.92,10.0,9.4,0,0,,6.0,29.828741,1012.9,,TRUE,TRUE,,,,,,BR,CLR,,,,,,,,VFR,,,,,,,,,,,,METAR,74.0
KBIS 300952Z AUTO 32007KT 10SM CLR 01/M02 A3010 RMK AO2 SLP204 T00111022 $,KBIS,2023-04-30T09:52:00Z,46.77,-100.75,1.1,-2.2,320,7,,10.0,30.100393,1020.4,,TRUE,TRUE,TRUE,,,,,,CLR,,,,,,,,VFR,,,,,,,,,,,,METAR,506.0
KBDR 300952Z AUTO 03010KT 10SM OVC006 11/10 A2971 RMK AO2 SLP062 T01060100,KBDR,2023-04-30T09:52:00Z,41.17,-73.13,10.6,10.0,30,10,,10.0,29.71063,1006.2,,TRUE,TRUE,,,,,,,OVC,600,,,,,,,IFR,,,,,,,,,,,,METAR,5.0
KBAN 300952Z AUTO 00000KT 10SM CLR 03/M03 A3012 RMK AO2 SLP128 T00281028 $,KBAN,2023-04-30T09:52:00Z,38.35,-119.52,2.8,-2.8,0,0,,10.0,30.121063,1012.8,,TRUE,TRUE,TRUE,,,,,,CLR,,,,,,,,VFR,,,,,,,,,,,,SPECI,2067.0
KATL 300952Z COR 01007KT 4SM RA BR BKN006TCU OVC050 15/14 A2949 RMK AO2 LTG DSNT SW AND W SLP981 TCU OHD-ALQDS CB DSNT SW W P0022 T01500139 $,KATL,2023-04-30T09:52:00Z,33.63,-84.45,15.0,13.9,10,7,,4.0,29.489174,998.1,TRUE,,TRUE,TRUE,,,,,RA BR,BKN,600,OVC,5000,,,,,IFR,,,,,,0.22,,,,,,METAR,309.0
KARR 300952Z AUTO 25007KT 10SM CLR 02/01 A2949 RMK AO2 SLP987 T00220011,KARR,2023-04-30T09:52:00Z,41.77,-88.48,2.2,1.1,250,7,,10.0,29.489174,998.7,,TRUE,TRUE,,,,,,,CLR,,,,,,,,VFR,,,,,,,,,,,,METAR,213.0
KAQW 300952Z AUTO 11016KT 10SM BKN021 BKN027 OVC039 09/06 A2978 RMK AO2 SLP087 T00940061,KAQW,2023-04-30T09:52:00Z,42.7,-73.17,9.4,6.1,110,16,,10.0,29.778543,1008.7,,TRUE,TRUE,,,,,,,BKN,2100,BKN,2700,OVC,3900,,,MVFR,,,,,,,,,,,,METAR,196.0
KALS 300952Z AUTO 15004KT 10SM CLR M01/M06 A3014 RMK AO2 SLP149 T10061061,KALS,2023-04-30T09:52:00Z,37.43,-105.87,-0.6,-6.1,150,4,,10.0,30.138779,1014.9,,TRUE,TRUE,,,,,,,CLR,,,,,,,,VFR,,,,,,,,,,,,METAR,2299.0
KAFN 300952Z AUTO 00000KT 4SM BR OVC006 08/06 A2984 RMK AO2 CIG 005V010 SLP115 T00780061,KAFN,2023-04-30T09:52:00Z,42.8,-72.0,7.8,6.1,0,0,,4.0,29.840551,1011.5,,TRUE,TRUE,,,,,,BR,OVC,600,,,,,,,IFR,,,,,,,,,,,,METAR,308.0
KABQ 300952Z 14004KT 10SM CLR 11/M06 A3008 RMK AO2 SLP126 T01111056,KABQ,2023-04-30T09:52:00Z,35.05,-106.62,11.1,-5.6,140,4,,10.0,30.079725,1012.6,,,TRUE,,,,,,,CLR,,,,,,,,VFR,,,,,,,,,,,,METAR,1620.0
KABI 300952Z 20008KT 10SM CLR 14/02 A2993 RMK AO2 SLP115 T01440022,KABI,2023-04-30T09:52:00Z,32.42,-99.68,14.4,2.2,200,8,,10.0,29.929134,1011.5,,,TRUE,,,,,,,CLR,,,,,,,,VFR,,,,,,,,,,,,METAR,543.0
PHBK 300951Z AUTO 10005KT 10SM CLR A3009 RMK AO2 SLP193 $,PHBK,2023-04-30T09:51:00Z,22.03,-159.78,,,100,5,,10.0,30.088583,1019.3,,TRUE,TRUE,TRUE,,,,,,CLR,,,,,,,,VFR,,,,,,,,,,,,SPECI,5.0
PAMD 300951Z AUTO 27014G20KT 10SM OVC011 04/02 A2980 RMK AO2 SLP079 T00440022 $,PAMD,2023-04-30T09:51:00Z,59.43,-146.3,4.4,2.2,270,14,20,10.0,29.799213,1007.9,,TRUE,TRUE,TRUE,,,,,,OVC,1100,,,,,,,MVFR,,,,,,,,,,,,METAR,20.0
MUGM 300951Z 31005KT 10SM FEW020 24/23 A2995 RMK AO2 SLP141 T02390233 $,MUGM,2023-04-30T09:51:00Z,19.9,-75.2,23.9,23.3,310,5,,10.0,29.949802,1014.1,,,TRUE,TRUE,,,,,,FEW,2000,,,,,,,VFR,,,,,,,,,,,,SPECI,21.0
KYNG 300951Z 14006KT 10SM BKN042 OVC120 11/08 A2947 RMK AO2 SLP977 T01060078,KYNG,2023-04-30T09:51:00Z,41.25,-80.67,10.6,7.8,140,6,,10.0,29.471457,997.7,,,TRUE,,,,,,,BKN,4200,OVC,12000,,,,,VFR,,,,,,,,,,,,METAR,356.0
KXWA 300951Z AUTO 00000KT 10SM CLR 02/M04 A3015 RMK AO2 SLP233 T00171039,KXWA,2023-04-30T09:51:00Z,48.27,-103.75,1.7,-3.9,0,0,,10.0,30.15059,1023.3,,TRUE,TRUE,,,,,,,CLR,,,,,,,,VFR,,,,,,,,,,,,METAR,717.0
KVNY 300951Z AUTO 13004KT 3SM BR OVC004 13/11 A2993 RMK AO2 SLP128 T01330111,KVNY,2023-04-30T09:51:00Z,34.22,-118.48,13.3,11.1,130,4,,3.0,29.929134,1012.8,,TRUE,TRUE,,,,,,BR,OVC,400,,,,,,,LIFR,,,,,,,,,,,,METAR,241.0
KVCT 300951Z AUTO 24006KT 10SM CLR 13/10 A2994 RMK AO2 SLP138 T01330100,KVCT,2023-04-30T09:51:00Z,28.87,-96.93,13.3,10.0,240,6,,10.0,29.940945,1013.8,,TRUE,TRUE,,,,,,,CLR,,,,,,,,VFR,,,,,,,,,,,,METAR,33.0
KUGN 300951Z AUTO 25007KT 10SM FEW035 SCT050 04/02 A2944 RMK AO2 SLP971 T00440022,KUGN,2023-04-30T09:51:00Z,42.42,-87.87,4.4,2.2,250,7,,10.0,29.438976,997.1,,TRUE,TRUE,,,,,,,FEW,3500,SCT,5000,,,,,VFR,,,,,,,,,,,,METAR,217.0
KTPL 300951Z AUTO 00000KT CLR 09/07 A2991 RMK AO2 SLP123 T00940067 PWINO RVRNO $,KTPL,2023-04-30T09:51:00Z,31.15,-97.4,9.4,6.7,0,0,,,29.911417,1012.3,,TRUE,TRUE,TRUE,,,,TRUE,,CLR,,,,,,,,,,,,,,,,,,,,METAR,206.0
KSTL 300951Z 26006KT 10SM CLR 07/04 A2964 RMK AO2 SLP034 T00670039 $,KSTL,2023-04-30T09:51:00Z,38.75,-90.37,6.7,3.9,260,6,,10.0,29.639763,1003.4,,,TRUE,TRUE,,,,,,CLR,,,,,,,,VFR,,,,,,,,,,,,METAR,163.0
KSNT 300951Z AUTO 00000KT M02/M03 A3014 RMK AO1 SLP146 T10171033,KSNT,2023-04-30T09:51:00Z,44.17,-114.93,-1.7,-3.3,0,0,,,30.138779,1014.6,,TRUE,TRUE,,,,,,,,,,,,,,,,,,,,,,,,,,,METAR,1980.0
KSMO 300951Z AUTO 00000KT 5SM BR OVC004 12/11 A2995 RMK AO2 SLP142 T01220111,KSMO,2023-04-30T09:51:00Z,34.02,-118.45,12.2,11.1,0,0,,5.0,29.949802,1014.2,,TRUE,TRUE,,,,,,BR,OVC,400,,,,,,,LIFR,,,,,,,,,,,,METAR,56.0
KSLK 300951Z AUTO 16009KT 10SM FEW045 08/04 A2970 RMK AO2 SLP062 T00780039,KSLK,2023-04-30T09:51:00Z,44.4,-74.2,7.8,3.9,160,9,,10.0,29.698818,1006.2,,TRUE,TRUE,,,,,,,FEW,4500,,,,,,,VFR,,,,,,,,,,,,METAR,502.0
KSJT 300951Z AUTO 24007KT 10SM CLR 08/M01 A2997 RMK AO2 SLP136 T00831011,KSJT,2023-04-30T09:51:00Z,31.37,-100.5,8.3,-1.1,240,7,,10.0,29.970472,1013.6,,TRUE,TRUE,,,,,,,CLR,,,,,,,,VFR,,,,,,,,,,,,METAR,582.0
KSDB 300951Z AUTO 33011KT 10SM CLR 17/07 A3005 RMK AO2 SLP119 T01670072,KSDB,2023-04-30T09:51:00Z,34.75,-118.72,16.7,7.2,330,11,,10.0,30.050198,1011.9,,TRUE,TRUE,,,,,,,CLR,,,,,,,,VFR,,,,,,,,,,,,METAR,1377.0
KSAT 300951Z 27004KT 10SM CLR 11/06 A2997 RMK AO2 SLP136 T01110061,KSAT,2023-04-30T09:51:00Z,29.53,-98.48,11.1,6.1,270,4,,10.0,29.970472,1013.6,,,TRUE,,,,,,,CLR,,,,,,,,VFR,,,,,,,,,,,,METAR,246.0
KSAN 300951Z 30003KT 10SM BKN008 15/12 A2997 RMK AO2 SLP148 T01500122 $,KSAN,2023-04-30T09:51:00Z,32.73,-117.18,15.0,12.2,300,3,,10.0,29.970472,1014.8,,,TRUE,TRUE,,,,,,BKN,800,,,,,,,IFR,,,,,,,,,,,,METAR,3.0
KSAD 300951Z AUTO 04004KT 10SM CLR 13/M08 A2995 RMK AO2 SLP100 T01331083,KSAD,2023-04-30T09:51:00Z,32.85,-109.63,13.3,-8.3,40,4,,10.0,29.949802,1010.0,,TRUE,TRUE,,,,,,,CLR,,,,,,,,VFR,,,,,,,,,,,,METAR,937.0
KROW 300951Z AUTO 21006KT 10SM CLR 09/M07 A2997 RMK AO2 SLP101 T00891067,KROW,2023-04-30T09:51:00Z,33.3,-104.5,8.9,-6.7,210,6,,10.0,29.970472,1010.1,,TRUE,TRUE,,,,,,,CLR,,,,,,,,VFR,,,,,,,,,,,,METAR,1105.0
KPWM 300951Z 08017G22KT 2SM RA BR OVC009 07/06 A2997 RMK AO2 SLP150 P0022 T00670061,KPWM,2023-04-30T09:51:00Z,43.65,-70.3,6.7,6.1,80,17,22,2.0,29.970472,1015.0,,,TRUE,,,,,,RA BR,OVC,900,,,,,,,IFR,,,,,,0.22,,,,,,METAR,15.0
KPIT 300951Z 13004KT 10SM -RA SCT039 OVC065 11/09 A2948 RMK AO2 RAB0856 SLP990 P0001 T01110089,KPIT,2023-04-30T09:51:00Z,40.47,-80.2,11.1,8.9,130,4,,10.0,29.480314,999.0,,,TRUE,,,,,,-RA,SCT,3900,OVC,6500,,,,,VFR,,,,,,0.01,,,,,,METAR,339.0
KPHX 300951Z 12004KT 10SM CLR 24/M02 A2980 RMK AO2 SLP072 T02391017 $,KPHX,2023-04-30T09:51:00Z,33.43,-112.02,23.9,-1.7,120,4,,10.0,29.799213,1007.2,,,TRUE,TRUE,,,,,,CLR,,,,,,,,VFR,,,,,,,,,,,,METAR,338.0
KP59 300951Z AUTO 05020KT 03/02 A2938 RMK AO1 PK WND 06027/0907 SLP957 P0002 T00280017,KP59,2023-04-30T09:51:00Z,47.47,-87.88,2.8,1.7,50,20,,,29.379921,995.7,,TRUE,TRUE,,,,,,,,,,,,,,,,,,,,,0.02,,,,,,METAR,185.0
KOXR 300951Z AUTO 18004KT 6SM BR OVC003 11/11 A2994 RMK AO2 SLP139 T01110111,KOXR,2023-04-30T09:51:00Z,34.2,-119.2,11.1,11.1,180,4,,6.0,29.940945,1013.9,,TRUE,TRUE,,,,,,BR,OVC,300,,,,,,,LIFR,,,,,,,,,,,,METAR,12.0
KORD 300951Z 24007G16KT 10SM FEW034 BKN065 06/02 A2947 RMK AO2 SLP979 T00610022,KORD,2023-04-30T09:51:00Z,41.95,-87.93,6.1,2.2,240,7,16,10.0,29.471457,997.9,,,TRUE,,,,,,,FEW,3400,BKN,6500,,,,,VFR,,,,,,,,,,,,METAR,202.0
KNYC 300951Z AUTO VRB04KT 2 1/2SM BR OVC002 11/10 A2973 RMK AO2 SLP058 T01060100 $,KNYC,2023-04-30T09:51:00Z,40.78,-73.97,10.6,10.0,0,4,,2.5,29.731298,1005.8,,TRUE,TRUE,TRUE,,,,,BR,OVC,200,,,,,,,LIFR,,,,,,,,,,,,METAR,33.0
KNJW 300951Z AUTO 28009KT 10SM SCT007 BKN011 14/12 A2971 RMK AO2 T01390122,KNJW,2023-04-30T09:51:00Z,32.78,-88.82,13.9,12.2,280,9,,10.0,29.71063,,,TRUE,TRUE,,,,,,,SCT,700,BKN,1100,,,,,MVFR,,,,,,,,,,,,METAR,165.0
KNBT 300951Z AUTO 14007KT 10SM BKN050 OVC060 23/ A2956 RMK AO2 SLP015 T0228 $,KNBT,2023-04-30T09:51:00Z,35.02,-76.47,22.8,,140,7,,10.0,29.56004,1001.5,,TRUE,TRUE,TRUE,,,,,,BKN,5000,OVC,6000,,,,,VFR,,,,,,,,,,,,METAR,5.0
KMYL 300951Z AUTO 00000KT 10SM CLR 02/M01 A3000 RMK AO2 SLP145 T00171011,KMYL,2023-04-30T09:51:00Z,44.9,-116.1,1.7,-1.1,0,0,,10.0,30.0,1014.5,,TRUE,TRUE,,,,,,,CLR,,,,,,,,VFR,,,,,,,,,,,,METAR,1532.0
KMPV 300951Z AUTO 17007KT 10SM OVC016 07/04 A2987 RMK AO2 SLP123 T00670044,KMPV,2023-04-30T09:51:00Z,44.2,-72.57,6.7,4.4,170,7,,10.0,29.870079,1012.3,,TRUE,TRUE,,,,,,,OVC,1600,,,,,,,MVFR,,,,,,,,,,,,METAR,336.0
KLGU 300951Z AUTO 00000KT 10SM CLR 08/03 A3003 RMK AO2 SLP135 T00830028,KLGU,2023-04-30T09:51:00Z,41.78,-111.85,8.3,2.8,0,0,,10.0,30.029528,1013.5,,TRUE,TRUE,,,,,,,CLR,,,,,,,,VFR,,,,,,,,,,,,METAR,1359.0
KLGA 300951Z 04011KT 1/2SM R04/P6000FT -DZ BR OVC002 11/11 A2970 RMK AO2 SFC VIS 1 SLP058 P0000 T01060106 $,KLGA,2023-04-30T09:51:00Z,40.78,-73.88,10.6,10.6,40,11,,0.5,29.698818,1005.8,,,TRUE,TRUE,,,,,-DZ BR,OVC,200,,,,,,,LIFR,,,,,,0.005,,,,,,METAR,9.0
KJFK 300951Z 05007KT 1/4SM BR OVC002 10/10 A2971 RMK SFC VIS 2 SLP059 T01000100,KJFK,2023-04-30T09:51:00Z,40.63,-73.77,10.0,10.0,50,7,,0.25,29.71063,1005.9,,,,,,,,,BR,OVC,200,,,,,,,LIFR,,,,,,,,,,,,METAR,3.0
KJCT 300951Z AUTO 29003KT 10SM CLR 07/01 A3000 RMK AO2 SLP135 T00720011 $,KJCT,2023-04-30T09:51:00Z,30.5,-99.77,7.2,1.1,290,3,,10.0,30.0,1013.5,,TRUE,TRUE,TRUE,,,,,,CLR,,,,,,,,VFR,,,,,,,,,,,,METAR,522.0
KILG 300951Z AUTO 05010KT 3/4SM R01/2800V3500FT BR VV002 13/12 A2963 RMK AO2 SLP033 T01280122 $,KILG,2023-04-30T09:51:00Z,39.67,-75.6,12.8,12.2,50,10,,0.75,29.630905,1003.3,,TRUE,TRUE,TRUE,,,,,BR,OVX,0,,,,,,,LIFR,,,,,,,,,,,200,METAR,22.0
KIGM 300951Z AUTO 19003KT 10SM CLR 09/M02 A2997 RMK AO2 SLP085 T00941017,KIGM,2023-04-30T09:51:00Z,35.25,-113.93,9.4,-1.7,190,3,,10.0,29.970472,1008.5,,TRUE,TRUE,,,,,,,CLR,,,,,,,,VFR,,,,,,,,,,,,METAR,1045.0
KHTS 300951Z 13004KT 4SM -RA BR FEW026 BKN055 OVC075 12/11 A2950 RMK AO2 RAB06 SLP983 P0006 T01220111,KHTS,2023-04-30T09:51:00Z,38.37,-82.55,12.2,11.1,130,4,,4.0,29.500984,998.3,,,TRUE,,,,,,-RA BR,FEW,2600,BKN,5500,OVC,7500,,,MVFR,,,,,,0.06,,,,,,METAR,252.0
KHSE 300951Z AUTO 17010KT 6SM -RA BKN075 OVC090 19/ A2960 RMK AO2 RAE19B42 SLP022 P0000 T0194 $,KHSE,2023-04-30T09:51:00Z,35.23,-75.62,19.4,,170,10,,6.0,29.601377,1002.2,,TRUE,TRUE,TRUE,,,,,-RA,BKN,7500,OVC,9000,,,,,VFR,,,,,,0.005,,,,,,METAR,4.0
KHDO 300951Z AUTO 36006KT 10SM CLR 09/06 A2998 RMK AO2 SLP142 T00940056,KHDO,2023-04-30T09:51:00Z,29.37,-99.17,9.4,5.6,360,6,,10.0,29.97933,1014.2,,TRUE,TRUE,,,,,,,CLR,,,,,,,,VFR,,,,,,,,,,,,METAR,280.0
KGDP 300951Z AUTO 25012KT 8SM CLR 14/M07 A3012 RMK AO2 SLP132 T01441067 $,KGDP,2023-04-30T09:51:00Z,31.83,-104.82,14.4,-6.7,250,12,,8.0,30.121063,1013.2,,TRUE,TRUE,TRUE,,,,,,CLR,,,,,,,,VFR,,,,,,,,,,,,METAR,1664.0
KEWR 300951Z 03009KT 2SM -DZ BR OVC002 11/11 A2971 RMK AO2 SLP059 P0000 T01110106 $,KEWR,2023-04-30T09:51:00Z,40.68,-74.17,11.1,10.6,30,9,,2.0,29.71063,1005.9,,,TRUE,TRUE,,,,,-DZ BR,OVC,200,,,,,,,LIFR,,,,,,0.005,,,,,,METAR,2.0
KERI 300951Z 15009KT 10SM FEW090 FEW120 11/08 A2946 RMK AO2 SLP978 T01060078,KERI,2023-04-30T09:51:00Z,42.08,-80.18,10.6,7.8,150,9,,10.0,29.459646,997.8,,,TRUE,,,,,,,FEW,9000,FEW,12000,,,,,VFR,,,,,,,,,,,,METAR,222.0
KELP 300951Z 00000KT 10SM CLR 17/M06 A3003 RMK AO2 SLP107 T01671061,KELP,2023-04-30T09:51:00Z,31.82,-106.35,16.7,-6.1,0,0,,10.0,30.029528,1010.7,,,TRUE,,,,,,,CLR,,,,,,,,VFR,,,,,,,,,,,,METAR,1205.0
KEKN 300951Z AUTO 14003KT 10SM -RA BKN075 OVC095 11/09 A2952 RMK AO2 RAE26B48 SLP995 P0000 T01110094,KEKN,2023-04-30T09:51:00Z,38.88,-79.85,11.1,9.4,140,3,,10.0,29.518702,999.5,,TRUE,TRUE,,,,,,-RA,BKN,7500,OVC,9500,,,,,VFR,,,,,,0.005,,,,,,METAR,596.0
KDAW 300951Z AUTO 07007KT 4SM -RA BR OVC007 07/07 A2994 RMK AO2 SLP136 P0009 T00720067,KDAW,2023-04-30T09:51:00Z,43.28,-70.92,7.2,6.7,70,7,,4.0,29.940945,1013.6,,TRUE,TRUE,,,,,,-RA BR,OVC,700,,,,,,,IFR,,,,,,0.09,,,,,,METAR,100.0
KCSG 300951Z AUTO 30012G17KT 10SM FEW017 BKN045 OVC070 16/14 A2949 RMK AO2 SLP982 T01560139,KCSG,2023-04-30T09:51:00Z,32.52,-84.95,15.6,13.9,300,12,17,10.0,29.489174,998.2,,TRUE,TRUE,,,,,,,FEW,1700,BKN,4500,OVC,7000,,,VFR,,,,,,,,,,,,METAR,120.0
KCRP 300951Z 00000KT 10SM CLR 14/13 A2996 RMK AO2 SLP143 T01440128,KCRP,2023-04-30T09:51:00Z,27.77,-97.5,14.4,12.8,0,0,,10.0,29.958662,1014.3,,,TRUE,,,,,,,CLR,,,,,,,,VFR,,,,,,,,,,,,METAR,11.0
KCON 300951Z AUTO 08008KT 10SM OVC012 07/06 A2990 RMK AO2 RAB0859E17 SLP125 P0001 T00720061,KCON,2023-04-30T09:51:00Z,43.2,-71.5,7.2,6.1,80,8,,10.0,29.899607,1012.5,,TRUE,TRUE,,,,,,,OVC,1200,,,,,,,MVFR,,,,,,0.01,,,,,,METAR,102.0
KCMH 300951Z 14003KT 10SM OVC070 11/11 A2944 RMK AO2 SLP968 T01110106,KCMH,2023-04-30T09:51:00Z,40.0,-82.88,11.1,10.6,140,3,,10.0,29.438976,996.8,,,TRUE,,,,,,,OVC,7000,,,,,,,VFR,,,,,,,,,,,,METAR,257.0
KCLE 300951Z 16004KT 10SM BKN080 BKN120 10/08 A2943 RMK AO2 SLP981 T01000078 $,KCLE,2023-04-30T09:51:00Z,41.42,-81.85,10.0,7.8,160,4,,10.0,29.430119,998.1,,,TRUE,TRUE,,,,,,BKN,8000,BKN,12000,,,,,VFR,,,,,,,,,,,,METAR,237.0
KCDJ 300951Z AUTO 30009G17KT 08/02 A2974 RMK AO1 SLP069 T00830017,KCDJ,2023-04-30T09:51:00Z,39.82,-93.57,8.3,1.7,300,9,17,,29.740158,1006.9,,TRUE,TRUE,,,,,,,,,,,,,,,,,,,,,,,,,,,METAR,234.0
KCAK 300951Z 22003KT 10SM -RA OVC035 11/08 A2946 RMK AO2 RAB22 SLP973 P0000 T01060083,KCAK,2023-04-30T09:51:00Z,40.92,-81.45,10.6,8.3,220,3,,10.0,29.459646,997.3,,,TRUE,,,,,,-RA,OVC,3500,,,,,,,VFR,,,,,,0.005,,,,,,METAR,369.0
KBKW 300951Z AUTO 19007KT 10SM -RA BKN060 OVC075 12/11 A2952 RMK AO2 SLP979 P0002 T01170106,KBKW,2023-04-30T09:51:00Z,37.8,-81.12,11.7,10.6,190,7,,10.0,29.518702,997.9,,TRUE,TRUE,,,,,,-RA,BKN,6000,OVC,7500,,,,,VFR,,,,,,0.02,,,,,,METAR,762.0
KBHK 300951Z AUTO 13004KT 10SM CLR M03/M08 A3014 RMK AO2 SLP219 T10331078,KBHK,2023-04-30T09:51:00Z,46.35,-104.25,-3.3,-7.8,130,4,,10.0,30.138779,1021.9,,TRUE,TRUE,,,,,,,CLR,,,,,,,,VFR,,,,,,,,,,,,METAR,904.0
KBGD 300951Z AUTO 21006KT 10SM CLR 11/06 A2996 RMK AO2 SLP117 T01110056,KBGD,2023-04-30T09:51:00Z,35.7,-101.4,11.1,5.6,210,6,,10.0,29.958662,1011.7,,TRUE,TRUE,,,,,,,CLR,,,,,,,,VFR,,,,,,,,,,,,METAR,928.0
KBED 300951Z AUTO 07012KT 5SM -RA BR OVC006 09/08 A2984 RMK AO2 SLP117 P0001 T00890083,KBED,2023-04-30T09:51:00Z,42.47,-71.3,8.9,8.3,70,12,,5.0,29.840551,1011.7,,TRUE,TRUE,,,,,,-RA BR,OVC,600,,,,,,,IFR,,,,,,0.01,,,,,,METAR,39.0
KBDL 300951Z 01011KT 2SM -DZ BR OVC006 09/08 A2976 RMK AO2 SFC VIS 2 1/2 SLP079 P0000 T00940083 $,KBDL,2023-04-30T09:51:00Z,41.93,-72.68,9.4,8.3,10,11,,2.0,29.760826,1007.9,,,TRUE,TRUE,,,,,-DZ BR,OVC,600,,,,,,,IFR,,,,,,0.005,,,,,,METAR,52.0
KBAZ 300951Z AUTO 28005KT 10SM CLR 11/07 A2994 RMK AO2 SLP134 T01060072 $,KBAZ,2023-04-30T09:51:00Z,29.72,-98.05,10.6,7.2,280,5,,10.0,29.940945,1013.4,,TRUE,TRUE,TRUE,,,,,,CLR,,,,,,,,VFR,,,,,,,,,,,,METAR,199.0
KAVX 300951Z AUTO 18004KT M1/4SM FG VV001 10/09 A2994 RMK AO2 SLP129 T01000094 $,KAVX,2023-04-30T09:51:00Z,33.4,-118.42,10.0,9.4,180,4,,0.25,29.940945,1012.9,,TRUE,TRUE,TRUE,,,,,FG,OVX,0,,,,,,,LIFR,,,,,,,,,,,100,METAR,482.0
KATT 300951Z AUTO VRB03KT 10SM CLR 12/07 A2994 RMK AO2 SLP134 T01220067 $,KATT,2023-04-30T09:51:00Z,30.32,-97.77,12.2,6.7,0,3,,10.0,29.940945,1013.4,,TRUE,TRUE,TRUE,,,,,,CLR,,,,,,,,VFR,,,,,,,,,,,,METAR,203.0
KALB 300951Z 34003KT 10SM -RA OVC023 09/08 A2978 RMK AO2 DZB41E47RAB47 SLP083 P0000 T00940078,KALB,2023-04-30T09:51:00Z,42.75,-73.8,9.4,7.8,340,3,,10.0,29.778543,1008.3,,,TRUE,,,,,,-RA,OVC,2300,,,,,,,MVFR,,,,,,0.005,,,,,,METAR,82.0
KAHN 300951Z AUTO 03006KT 4SM RA BR FEW055 BKN070 OVC085 15/14 A2945 RMK AO2 PRESFR SLP968 P0019 T01500144,KAHN,2023-04-30T09:51:00Z,33.95,-83.33,15.0,14.4,30,6,,4.0,29.450787,996.8,,TRUE,TRUE,,,,,,RA BR,FEW,5500,BKN,7000,OVC,8500,,,MVFR,,,,,,0.19,,,,,,METAR,241.0
KACT 300951Z AUTO 20005KT 10SM CLR 08/08 A2988 RMK AO2 SLP114 T00830078,KACT,2023-04-30T09:51:00Z,31.62,-97.23,8.3,7.8,200,5,,10.0,29.878937,1011.4,,TRUE,TRUE,,,,,,,CLR,,,,,,,,VFR,,,,,,,,,,,,METAR,150.0
KABE 300951Z 08009KT 9SM OVC007 10/09 A2968 RMK AO2 CIG 005V011 SLP052 T01000089 $,KABE,2023-04-30T09:51:00Z,40.65,-75.45,10.0,8.9,80,9,,9.0,29.681103,1005.2,,,TRUE,TRUE,,,,,,OVC,700,,,,,,,IFR,,,,,,,,,,,,METAR,117.0
K6R6 300951Z AUTO 29008KT 14/M04 A3000 RMK AO1 SLP130 T01391039,K6R6,2023-04-30T09:51:00Z,30.05,-102.22,13.9,-3.9,290,8,,,30.0,1013.0,,TRUE,TRUE,,,,,,,,,,,,,,,,,,,,,,,,,,,METAR,702.0
EEEI 300951Z 27014KT 9999 BKN018 OVC021 05/02 Q1010 NOSIG,EEEI,2023-04-30T09:51:00Z,59.27,24.2,5.0,2.0,270,14,,6.21,29.822834,,,,,,TRUE,,,,,BKN,1800,OVC,2100,,,,,MVFR,,,,,,,,,,,,METAR,19.0
PTKK 300950Z 05008KT 15SM FEW014 SCT120 OVC280 27/26 A2980 RMK SLP093 T02730257,PTKK,2023-04-30T09:50:00Z,7.47,151.85,27.3,25.7,50,8,,15.0,29.799213,1009.3,,,,,,,,,,FEW,1400,SCT,12000,OVC,28000,,,VFR,,,,,,,,,,,,SPECI,3.0
PKMR 300950Z 06007KT 15SM FEW015 SCT300 28/25 A2982 RMK SLP098 T02840250,PKMR,2023-04-30T09:50:00Z,7.08,171.38,28.4,25.0,60,7,,15.0,29.819881,1009.8,,,,,,,,,,FEW,1500,SCT,30000,,,,,VFR,,,,,,,,,,,,SPECI,7.0
OOSH 300950Z AUTO 06013KT //// ////// 35/14 Q1003,OOSH,2023-04-30T09:50:00Z,24.38,56.62,35.0,14.0,60,13,,,29.616142,,,TRUE,,,,,,,,,,,,,,,,,,,,,,,,,,,,METAR,35.0
OOSA 300950Z 17012KT 9999 FEW025 32/26 Q1007 NOSIG,OOSA,2023-04-30T09:50:00Z,17.03,54.1,32.0,26.0,170,12,,6.21,29.734253,,,,,,TRUE,,,,,FEW,2500,,,,,,,VFR,,,,,,,,,,,,METAR,20.0
OOMS 300950Z 03008KT 9999 FEW025 32/17 Q1004 NOSIG,OOMS,2023-04-30T09:50:00Z,23.58,58.28,32.0,17.0,30,8,,6.21,29.64567,,,,,,TRUE,,,,,FEW,2500,,,,,,,VFR,,,,,,,,,,,,METAR,8.0
OOKB 300950Z 03016KT 9999 FEW025 31/14 Q1005 NOSIG,OOKB,2023-04-30T09:50:00Z,26.17,56.23,31.0,14.0,30,16,,6.21,29.675198,,,,,,TRUE,,,,,FEW,2500,,,,,,,VFR,,,,,,,,,,,,METAR,30.0
OODQ 300950Z AUTO 30011KT 240V340 CAVOK 39/02 Q1005 NOSIG,OODQ,2023-04-30T09:50:00Z,19.52,57.65,39.0,2.0,300,11,,6.21,29.675198,,,TRUE,,,TRUE,,,,,CAVOK,,,,,,,,VFR,,,,,,,,,,,,METAR,116.0
OOAD 300950Z AUTO VRB04KT //// R31///// // NCD 37/M01 Q1006 NOSIG,OOAD,2023-04-30T09:50:00Z,22.5,57.37,37.0,-1.0,0,4,,,29.704725,,,TRUE,,,TRUE,,,,,CLR,,,,,,,,,,,,,,,,,,,,METAR,327.0
MUVR 300950Z 18008KT 150V210 8000 NSC 26/23 Q1009,MUVR,2023-04-30T09:50:00Z,23.03,-81.43,26.0,23.0,180,8,,4.97,29.793306,,,,,,,,,,,CLR,,,,,,,,MVFR,,,,,,,,,,,,METAR,65.0
MUSC 300950Z VRB02KT 9000 FEW030 21/20 Q1011,MUSC,2023-04-30T09:50:00Z,22.5,-79.92,21.0,20.0,0,2,,5.59,29.852362,,,,,,,,,,,FEW,3000,,,,,,,VFR,,,,,,,,,,,,METAR,97.0
MUHG 300950Z VRB01KT 8000 VCFG FEW020 22/21 Q1014,MUHG,2023-04-30T09:50:00Z,20.78,-76.32,22.0,21.0,0,1,,4.97,29.940945,,,,,,,,,,VCFG,FEW,2000,,,,,,,MVFR,,,,,,,,,,,,METAR,100.0
MUHA 300950Z 21013KT 9000 SCT030 26/23 Q1009,MUHA,2023-04-30T09:50:00Z,22.98,-82.42,26.0,23.0,210,13,,5.59,29.793306,,,,,,,,,,,SCT,3000,,,,,,,VFR,,,,,,,,,,,,METAR,61.0
MUCU 300950Z 26008KT 200V290 9000 SCT020 27/23 Q1014,MUCU,2023-04-30T09:50:00Z,19.97,-75.83,27.0,23.0,260,8,,5.59,29.940945,,,,,,,,,,,SCT,2000,,,,,,,VFR,,,,,,,,,,,,METAR,70.0
MUCM 300950Z 13003KT 7000 VCFG NSC 23/22 Q1013,MUCM,2023-04-30T09:50:00Z,21.42,-77.85,23.0,22.0,130,3,,4.35,29.911417,,,,,,,,,,VCFG,CLR,,,,,,,,MVFR,,,,,,,,,,,,METAR,125.0
MUCC 300950Z 18004KT 9000 FEW020 25/24 Q1011,MUCC,2023-04-30T09:50:00Z,22.47,-78.33,25.0,24.0,180,4,,5.59,29.852362,,,,,,,,,,,FEW,2000,,,,,,,VFR,,,,,,,,,,,,METAR,7.0
MSLP 300950Z 04002KT 8000 FEW023 24/23 Q1010 A2985 NOSIG RMK HZ,MSLP,2023-04-30T09:50:00Z,13.43,-89.05,24.0,23.0,40,2,,4.97,29.822834,,,,,,TRUE,,,,,FEW,2300,,,,,,,MVFR,,,,,,,,,,,,SPECI,25.0
MMAS 300950Z 02010KT 10SM SKC 12/02 A3022,MMAS,2023-04-30T09:50:00Z,21.7,-102.32,12.0,2.0,20,10,,10.0,30.221457,,,,,,,,,,,SKC,,,,,,,,VFR,,,,,,,,,,,,METAR,1866.0
LXGB 300950Z 21008KT CAVOK 22/16 Q1015 NOSIG RMK BLU BLU,LXGB,2023-04-30T09:50:00Z,36.15,-5.33,22.0,16.0,210,8,,6.21,29.970472,,,,,,TRUE,,,,,CAVOK,,,,,,,,VFR,,,,,,,,,,,,SPECI,5.0
LTFO 300950Z 24010KT 9999 SCT009 BKN028 12/10 Q1012,LTFO,2023-04-30T09:50:00Z,41.18,40.85,12.0,10.0,240,10,,6.21,29.88189,,,,,,,,,,,SCT,900,BKN,2800,,,,,MVFR,,,,,,,,,,,,METAR,5.0
LTFM 300950Z 20005KT 150V250 9999 FEW040 SCT100 17/02 Q1014 NOSIG RMK RWY17L 03008KT 340V060 RWY34L 29004KT 230V350 RWY16R 02009KT RWY36 VRB04KT RWY18 34008KT,LTFM,2023-04-30T09:50:00Z,41.27,28.75,17.0,2.0,200,5,,6.21,29.940945,,,,,,TRUE,,,,,FEW,4000,SCT,10000,,,,,VFR,,,,,,,,,,,,METAR,99.0
LTFJ 300950Z 24010KT 9999 FEW040 16/05 Q1015 NOSIG RMK RWY24 25010KT,LTFJ,2023-04-30T09:50:00Z,40.9,29.3,16.0,5.0,240,10,,6.21,29.970472,,,,,,TRUE,,,,,FEW,4000,,,,,,,VFR,,,,,,,,,,,,METAR,83.0
LTFH 300950Z 35008KT 9999 FEW030CB SCT033 BKN090 15/09 Q1012 NOSIG,LTFH,2023-04-30T09:50:00Z,41.27,36.57,15.0,9.0,350,8,,6.21,29.88189,,,,,,TRUE,,,,,FEW,3000,SCT,3300,BKN,9000,,,VFR,,,,,,,,,,,,METAR,7.0
LTFG 300950Z 22009KT 180V250 9999 SCT030 20/12 Q1012,LTFG,2023-04-30T09:50:00Z,36.3,32.3,20.0,12.0,220,9,,6.21,29.88189,,,,,,,,,,,SCT,3000,,,,,,,VFR,,,,,,,,,,,,METAR,26.0
LTFE 300950Z 24006KT 180V290 CAVOK 20/03 Q1013 NOSIG RMK RWY10 26010KT,LTFE,2023-04-30T09:50:00Z,37.25,27.67,20.0,3.0,240,6,,6.21,29.911417,,,,,,TRUE,,,,,CAVOK,,,,,,,,VFR,,,,,,,,,,,,METAR,6.0
LTFD 300950Z 26007KT 220V300 9999 SCT035 18/07 Q1015,LTFD,2023-04-30T09:50:00Z,39.55,27.02,18.0,7.0,260,7,,6.21,29.970472,,,,,,,,,,,SCT,3500,,,,,,,VFR,,,,,,,,,,,,METAR,15.0
LTFC 300950Z 31009KT 280V360 CAVOK 14/M01 Q1013 RMK RWY23 30011KT 270V340,LTFC,2023-04-30T09:50:00Z,37.87,30.38,14.0,-1.0,310,9,,6.21,29.911417,,,,,,,,,,,CAVOK,,,,,,,,VFR,,,,,,,,,,,,METAR,862.0
LTFB 300950Z VRB04KT 9999 FEW035 20/03 Q1014,LTFB,2023-04-30T09:50:00Z,37.95,27.33,20.0,3.0,0,4,,6.21,29.940945,,,,,,,,,,,FEW,3500,,,,,,,VFR,,,,,,,,,,,,METAR,3.0
LTDA 300950Z 24009KT 170V270 9999 FEW025CB SCT030 19/07 Q1011 NOSIG,LTDA,2023-04-30T09:50:00Z,36.37,36.28,19.0,7.0,240,9,,6.21,29.852362,,,,,,TRUE,,,,,FEW,2500,SCT,3000,,,,,VFR,,,,,,,,,,,,METAR,80.0
LTCW 300950Z 21013G23KT 170V250 9999 FEW035 SCT070 12/M04 Q1014,LTCW,2023-04-30T09:50:00Z,37.55,44.23,12.0,-4.0,210,13,23,6.21,29.940945,,,,,,,,,,,FEW,3500,SCT,7000,,,,,VFR,,,,,,,,,,,,METAR,1852.0
LTCV 300950Z 15008KT 110V180 9999 SCT030 BKN080 20/08 Q1011,LTCV,2023-04-30T09:50:00Z,37.37,42.07,20.0,8.0,150,8,,6.21,29.852362,,,,,,,,,,,SCT,3000,BKN,8000,,,,,VFR,,,,,,,,,,,,METAR,620.0
LTCU 300950Z 18005KT 130V270 9999 -SHRA BKN033 BKN090 10/05 Q1012,LTCU,2023-04-30T09:50:00Z,38.87,40.58,10.0,5.0,180,5,,6.21,29.88189,,,,,,,,,,-SHRA,BKN,3300,BKN,9000,,,,,VFR,,,,,,,,,,,,METAR,1061.0
LTCT 300950Z 27028KT 9999 FEW045 BKN080 BKN180 19/02 Q1008,LTCT,2023-04-30T09:50:00Z,39.98,43.87,19.0,2.0,270,28,,6.21,29.763779,,,,,,,,,,,FEW,4500,BKN,8000,BKN,18000,,,VFR,,,,,,,,,,,,METAR,936.0
LTCS 300950Z 17006KT 140V220 9999 FEW027CB SCT035 BKN080 14/04 Q1011 RMK RWY22 15006KT 110V200 2CB027 4CU035 5AC080,LTCS,2023-04-30T09:50:00Z,37.45,38.9,14.0,4.0,170,6,,6.21,29.852362,,,,,,,,,,,FEW,2700,SCT,3500,BKN,8000,,,VFR,,,,,,,,,,,,METAR,825.0
LTCR 300950Z 20005KT 150V270 9999 BKN040 18/08 Q1011,LTCR,2023-04-30T09:50:00Z,37.22,40.63,18.0,8.0,200,5,,6.21,29.852362,,,,,,,,,,,BKN,4000,,,,,,,VFR,,,,,,,,,,,,METAR,529.0
LTCP 300950Z 34009KT 9999 FEW020CB SCT028 15/06 Q1011,LTCP,2023-04-30T09:50:00Z,37.73,38.47,15.0,6.0,340,9,,6.21,29.852362,,,,,,,,,,,FEW,2000,SCT,2800,,,,,VFR,,,,,,,,,,,,METAR,672.0
LTCO 300950Z 24015KT 210V270 9999 FEW025CB SCT035 BKN070 07/03 Q1014 RETSRA,LTCO,2023-04-30T09:50:00Z,39.65,43.03,7.0,3.0,240,15,,6.21,29.940945,,,,,,,,,,,FEW,2500,SCT,3500,BKN,7000,,,VFR,,,,,,,,,,,,METAR,1657.0
LTCN 300950Z VRB03KT 9999 SCT035 BKN090 18/06 Q1010,LTCN,2023-04-30T09:50:00Z,37.53,36.95,18.0,6.0,0,3,,6.21,29.822834,,,,,,,,,,,SCT,3500,BKN,9000,,,,,VFR,,,,,,,,,,,,METAR,505.0
LTCL 300950Z 27005KT 230V330 9999 FEW040 SCT100 17/08 Q1011,LTCL,2023-04-30T09:50:00Z,37.98,41.83,17.0,8.0,270,5,,6.21,29.852362,,,,,,,,,,,FEW,4000,SCT,10000,,,,,VFR,,,,,,,,,,,,METAR,602.0
LTCK 300950Z 17005KT 140V210 9999 SCT035 BKN080 08/03 Q1013,LTCK,2023-04-30T09:50:00Z,38.75,41.67,8.0,3.0,170,5,,6.21,29.911417,,,,,,,,,,,SCT,3500,BKN,8000,,,,,VFR,,,,,,,,,,,,METAR,1267.0
LTCJ 300950Z 03012KT 9999 SCT040 BKN100 15/09 Q1011 NOSIG RMK RWY20 35011KT 3CU040 5AC100,LTCJ,2023-04-30T09:50:00Z,37.93,41.12,15.0,9.0,30,12,,6.21,29.852362,,,,,,TRUE,,,,,SCT,4000,BKN,10000,,,,,VFR,,,,,,,,,,,,METAR,559.0
LTCI 300950Z 27011KT 9999 SCT030 BKN080 09/04 Q1015 TEMPO FM1100 -TSRA,LTCI,2023-04-30T09:50:00Z,38.47,43.33,9.0,4.0,270,11,,6.21,29.970472,,,,,,,,,,,SCT,3000,BKN,8000,,,,,VFR,,,,,,,,,,,,METAR,1654.0
LTCG 300950Z 30008KT 270V330 9999 SCT013 BKN035 12/10 Q1013 TEMPO 4000 BR BKN006 FEW020CB BKN025 RMK RWY29 31009KT,LTCG,2023-04-30T09:50:00Z,41.0,39.77,12.0,10.0,300,8,,6.21,29.911417,,,,,,,,,,,SCT,1300,BKN,3500,,,,,VFR,,,,,,,,,,,,METAR,28.0
LTCF 300950Z 23029KT 9999 -SHRA FEW025CB SCT035 BKN070 07/03 Q1011 NOSIG,LTCF,2023-04-30T09:50:00Z,40.57,43.12,7.0,3.0,230,29,,6.21,29.852362,,,,,,TRUE,,,,-SHRA,FEW,2500,SCT,3500,BKN,7000,,,VFR,,,,,,,,,,,,METAR,1794.0
LTCE 300950Z 05010KT 020V080 9999 FEW025CB BKN035 07/01 Q1012 NOSIG RMK RWY08R 08006KT 030V140 RWY26R 06010KT 020V080 RWY08L 08008KT 050V140 1CB025 5CU035,LTCE,2023-04-30T09:50:00Z,39.95,41.17,7.0,1.0,50,10,,6.21,29.88189,,,,,,TRUE,,,,,FEW,2500,BKN,3500,,,,,VFR,,,,,,,,,,,,METAR,1758.0
LTCD 300950Z 19003KT 140V230 9999 FEW030CB BKN035 BKN070 10/05 Q1011 RESHRA BECMG 27013KT,LTCD,2023-04-30T09:50:00Z,39.72,39.52,10.0,5.0,190,3,,6.21,29.852362,,,,,,,,,,,FEW,3000,BKN,3500,BKN,7000,,,VFR,,,,,,,,,,,,METAR,1146.0
LTCC 300950Z 08006KT 040V110 9999 SCT035TCU BKN100 15/08 Q1010 NOSIG RMK RWY16 VRB04KT 4TCU035 6AC100,LTCC,2023-04-30T09:50:00Z,37.88,40.2,15.0,8.0,80,6,,6.21,29.822834,,,,,,TRUE,,,,,SCT,3500,BKN,10000,,,,,VFR,,,,,,,,,,,,METAR,676.0
LTCB 300950Z 08009KT 9999 -SHRA SCT015 BKN035 13/09 Q1013 NOSIG,LTCB,2023-04-30T09:50:00Z,40.97,38.07,13.0,9.0,80,9,,6.21,29.911417,,,,,,TRUE,,,,-SHRA,SCT,1500,BKN,3500,,,,,VFR,,,,,,,,,,,,METAR,5.0
LTCA 300950Z 07011KT 9999 SCT035 BKN090 11/06 Q1012 NOSIG,LTCA,2023-04-30T09:50:00Z,38.6,39.28,11.0,6.0,70,11,,6.21,29.88189,,,,,,TRUE,,,,,SCT,3500,BKN,9000,,,,,VFR,,,,,,,,,,,,METAR,887.0
LTBY 300950Z 31008KT 280V040 9999 SCT040 12/M00 Q1014,LTBY,2023-04-30T09:50:00Z,39.82,30.52,12.0,0.0,310,8,,6.21,29.940945,,,,,,,,,,,SCT,4000,,,,,,,VFR,,,,,,,,,,,,METAR,788.0
LTBU 300950Z 22009KT 170V250 9999 SCT035 19/09 Q1014 RMK RWY22 19008KT 120V220,LTBU,2023-04-30T09:50:00Z,41.13,27.92,19.0,9.0,220,9,,6.21,29.940945,,,,,,,,,,,SCT,3500,,,,,,,VFR,,,,,,,,,,,,METAR,165.0
LTBS 300950Z 24016KT 9999 FEW030 20/07 Q1012 NOSIG RMK RWY19 22014KT 1CU030,LTBS,2023-04-30T09:50:00Z,36.7,28.78,20.0,7.0,240,16,,6.21,29.88189,,,,,,TRUE,,,,,FEW,3000,,,,,,,VFR,,,,,,,,,,,,METAR,2.0
LTBR 300950Z 34003KT 290V040 9999 SCT035 16/04 Q1014 NOSIG RMK RWY07 VRB04KT,LTBR,2023-04-30T09:50:00Z,40.25,29.57,16.0,4.0,340,3,,6.21,29.940945,,,,,,TRUE,,,,,SCT,3500,,,,,,,VFR,,,,,,,,,,,,METAR,233.0
LTBQ 300950Z 28009KT 240V300 9999 SCT045 18/03 Q1015 NOSIG,LTBQ,2023-04-30T09:50:00Z,40.73,30.07,18.0,3.0,280,9,,6.21,29.970472,,,,,,TRUE,,,,,SCT,4500,,,,,,,VFR,,,,,,,,,,,,METAR,51.0
LTBJ 300950Z 36012KT 9999 FEW035 SCT100 18/04 Q1014 NOSIG RMK RWY16 02006KT 330V120,LTBJ,2023-04-30T09:50:00Z,38.28,27.15,18.0,4.0,360,12,,6.21,29.940945,,,,,,TRUE,,,,,FEW,3500,SCT,10000,,,,,VFR,,,,,,,,,,,,METAR,123.0
LTBH 300950Z 25008KT 9999 FEW035 SCT100 19/05 Q1015,LTBH,2023-04-30T09:50:00Z,40.13,26.42,19.0,5.0,250,8,,6.21,29.970472,,,,,,,,,,,FEW,3500,SCT,10000,,,,,VFR,,,,,,,,,,,,METAR,8.0
LTBF 300950Z 08003KT 010V150 9999 FEW035 SCT100 18/05 Q1015 NOSIG,LTBF,2023-04-30T09:50:00Z,39.62,27.92,18.0,5.0,80,3,,6.21,29.970472,,,,,,TRUE,,,,,FEW,3500,SCT,10000,,,,,VFR,,,,,,,,,,,,METAR,95.0
LTBD 300950Z 22003KT 140V310 CAVOK 19/04 Q1014,LTBD,2023-04-30T09:50:00Z,37.82,27.88,19.0,4.0,220,3,,6.21,29.940945,,,,,,,,,,,CAVOK,,,,,,,,VFR,,,,,,,,,,,,METAR,29.0
LTBA 300950Z 21011KT 9999 FEW035 15/09 Q1015 RMK RWY23 23012KT,LTBA,2023-04-30T09:50:00Z,40.97,28.82,15.0,9.0,210,11,,6.21,29.970472,,,,,,,,,,,FEW,3500,,,,,,,VFR,,,,,,,,,,,,METAR,33.0
LTAZ 300950Z 27007KT 180V310 9999 BKN035 11/02 Q1013 RMK RWY29 26012KT,LTAZ,2023-04-30T09:50:00Z,38.77,34.52,11.0,2.0,270,7,,6.21,29.911417,,,,,,,,,,,BKN,3500,,,,,,,VFR,,,,,,,,,,,,METAR,944.0
LTAY 300950Z VRB02KT CAVOK 13/01 Q1014 NOSIG,LTAY,2023-04-30T09:50:00Z,37.78,29.7,13.0,1.0,0,2,,6.21,29.940945,,,,,,TRUE,,,,,CAVOK,,,,,,,,VFR,,,,,,,,,,,,METAR,851.0
LTAU 300950Z 30005KT 240V350 9999 BKN035 11/02 Q1012 NOSIG RMK RWY07 27006KT 220V330,LTAU,2023-04-30T09:50:00Z,38.77,35.48,11.0,2.0,300,5,,6.21,29.88189,,,,,,TRUE,,,,,BKN,3500,,,,,,,VFR,,,,,,,,,,,,METAR,1053.0
LTAT 300950Z VRB03KT 9999 FEW030TCU BKN035 14/03 Q1012 TEMPO 16015G25KT -TSRA RMK RWY03 11004KT 050V150,LTAT,2023-04-30T09:50:00Z,38.43,38.08,14.0,3.0,0,3,,6.21,29.88189,,,,,,,,,,,FEW,3000,BKN,3500,,,,,VFR,,-0.4,,,,,,,,,,METAR,850.0
LTAS 300950Z 19012KT 150V220 9999 SCT040 BKN100 14/07 Q1013,LTAS,2023-04-30T09:50:00Z,41.52,32.08,14.0,7.0,190,12,,6.21,29.911417,,,,,,,,,,,SCT,4000,BKN,10000,,,,,VFR,,,,,,,,,,,,METAR,13.0
LTAP 300950Z 28009KT 9999 SCT040 BKN080 12/04 Q1010 NOSIG RMK RWY23 27010KT,LTAP,2023-04-30T09:50:00Z,40.83,35.52,12.0,4.0,280,9,,6.21,29.822834,,,,,,TRUE,,,,,SCT,4000,BKN,8000,,,,,VFR,,,,,,,,,,,,METAR,536.0
LTAN 300950Z 04005KT 310V090 9999 SCT040 BKN100 10/01 Q1014 NOSIG,LTAN,2023-04-30T09:50:00Z,37.97,32.55,10.0,1.0,40,5,,6.21,29.940945,,,,,,TRUE,,,,,SCT,4000,BKN,10000,,,,,VFR,,,,,,,,,,,,METAR,1029.0
LTAJ 300950Z 26008KT 8000 -SHRA FEW025CB BKN040 11/06 Q1011 RETSRA NOSIG RMK RWY10 VRB06KT 2CB025 5CU040,LTAJ,2023-04-30T09:50:00Z,36.95,37.48,11.0,6.0,260,8,,4.97,29.852362,,,,,,TRUE,,,,-SHRA,FEW,2500,BKN,4000,,,,,MVFR,,,,,,,,,,,,METAR,684.0
LTAI 300950Z VRB03KT 9999 FEW030 22/02 Q1011 NOSIG RMK RWY18C VRB04KT RWY36R VRB04KT RWY18L VRB05KT,LTAI,2023-04-30T09:50:00Z,36.9,30.8,22.0,2.0,0,3,,6.21,29.852362,,,,,,TRUE,,,,,FEW,3000,,,,,,,VFR,,,,,,,,,,,,METAR,50.0
LTAG 300950Z 17008KT 9999 FEW020CB SCT030 19/09 Q1010 TEMPO -TSRA,LTAG,2023-04-30T09:50:00Z,37.0,35.42,19.0,9.0,170,8,,6.21,29.822834,,,,,,,,,,,FEW,2000,SCT,3000,,,,,VFR,,,,,,,,,,,,SPECI,62.0
LTAF 300950Z 17005KT 100V220 9999 BKN035 21/10 Q1011 TEMPO TSRA RMK RWY23 VRB05KT 5CU035,LTAF,2023-04-30T09:50:00Z,36.98,35.28,21.0,10.0,170,5,,6.21,29.852362,,,,,,,,,,,BKN,3500,,,,,,,VFR,,,,,,,,,,,,METAR,19.0
LTAE 300950Z VRB04KT 9999 SCT035 BKN100 09/01 Q1013 NOSIG RMK RWY21 VRB03KT,LTAE,2023-04-30T09:50:00Z,40.07,32.57,9.0,1.0,0,4,,6.21,29.911417,,,,,,TRUE,,,,,SCT,3500,BKN,10000,,,,,VFR,,,,,,,,,,,,METAR,836.0
LTAC 300950Z 28008KT 230V330 9999 SCT035 BKN100 09/01 Q1013 NOSIG RMK RWY21L 27010KT 230V300 RWY03L 27007KT 230V310 RWY21R 27008KT 230V310,LTAC,2023-04-30T09:50:00Z,40.12,32.98,9.0,1.0,280,8,,6.21,29.911417,,,,,,TRUE,,,,,SCT,3500,BKN,10000,,,,,VFR,,,,,,,,,,,,SPECI,952.0
LSZS 300950Z VRB02KT 9999 FEW038 SCT050 10/01 Q1017 RMK I TL170,LSZS,2023-04-30T09:50:00Z,46.53,9.88,10.0,1.0,0,2,,6.21,30.029528,,,,,,,,,,,FEW,3800,SCT,5000,,,,,VFR,,,,,,,,,,,,SPECI,1708.0
LSZR 300950Z 29005KT 250V330 9999 SCT028 15/10 Q1017 RMK C,LSZR,2023-04-30T09:50:00Z,47.48,9.57,15.0,10.0,290,5,,6.21,30.029528,,,,,,,,,,,SCT,2800,,,,,,,VFR,,,,,,,,,,,,METAR,396.0
LSZL 300950Z AUTO VRB02KT 9999NDV SCT072 16/11 Q1016 RMK,LSZL,2023-04-30T09:50:00Z,46.17,8.88,16.0,11.0,0,2,,,30.0,,,TRUE,,,,,,,,SCT,7200,,,,,,,,,,,,,,,,,,,METAR,198.0
LSZH 300950Z 06007KT 010V110 9999 FEW025 SCT027 14/08 Q1018 NOSIG,LSZH,2023-04-30T09:50:00Z,47.48,8.53,14.0,8.0,60,7,,6.21,30.059055,,,,,,TRUE,,,,,FEW,2500,SCT,2700,,,,,VFR,,,,,,,,,,,,METAR,424.0
LSZG 300950Z 08011KT 9999 FEW028 15/10 Q1017,LSZG,2023-04-30T09:50:00Z,47.17,7.42,15.0,10.0,80,11,,6.21,30.029528,,,,,,,,,,,FEW,2800,,,,,,,VFR,,,,,,,,,,,,METAR,428.0
LSZC 300950Z AUTO 21004KT 170V240 9999 BKN020 BKN028 13/10 Q1017,LSZC,2023-04-30T09:50:00Z,46.97,8.38,13.0,10.0,210,4,,6.21,30.029528,,,TRUE,,,,,,,,BKN,2000,BKN,2800,,,,,MVFR,,,,,,,,,,,,METAR,445.0
LSZB 300950Z 01005KT 240V060 9999 SCT024 BKN033 14/09 Q1016,LSZB,2023-04-30T09:50:00Z,46.92,7.5,14.0,9.0,10,5,,6.21,30.0,,,,,,,,,,,SCT,2400,BKN,3300,,,,,VFR,,,,,,,,,,,,METAR,510.0
LSZA 300950Z VRB03KT 6000 VCSH FEW015 BKN070 17/14 Q1016,LSZA,2023-04-30T09:50:00Z,46.0,8.92,17.0,14.0,0,3,,3.73,30.0,,,,,,,,,,VCSH,FEW,1500,BKN,7000,,,,,MVFR,,,,,,,,,,,,METAR,276.0
LSMP 300950Z AUTO 05007KT 010V100 9999NDV FEW020 SCT026 14/10 Q1017 RMK,LSMP,2023-04-30T09:50:00Z,46.83,6.92,14.0,10.0,50,7,,,30.029528,,,TRUE,,,,,,,,FEW,2000,SCT,2600,,,,,,,,,,,,,,,,,METAR,490.0
LSMM 300950Z AUTO 04016G26KT 010V080 9999NDV FEW037 SCT180 13/09 Q1016 RMK,LSMM,2023-04-30T09:50:00Z,46.75,8.12,13.0,9.0,40,16,26,,30.0,,,TRUE,,,,,,,,FEW,3700,SCT,18000,,,,,,,,,,,,,,,,,METAR,570.0
LSMD 300950Z AUTO 10008KT 050V140 9999NDV BKN021 BKN026 13/08 Q1018 RMK,LSMD,2023-04-30T09:50:00Z,47.4,8.65,13.0,8.0,100,8,,,30.059055,,,TRUE,,,,,,,,BKN,2100,BKN,2600,,,,,,,,,,,,,,,,,METAR,436.0
LSMA 300950Z AUTO 08004KT 050V140 9999NDV SCT018 BKN021 OVC042 13/09 Q1017 RMK,LSMA,2023-04-30T09:50:00Z,46.95,8.28,13.0,9.0,80,4,,,30.029528,,,TRUE,,,,,,,,SCT,1800,BKN,2100,OVC,4200,,,,,,,,,,,,,,,METAR,441.0
LSGS 300950Z 26008KT 9999 FEW030 SCT060 15/11 Q1015,LSGS,2023-04-30T09:50:00Z,46.22,7.32,15.0,11.0,260,8,,6.21,29.970472,,,,,,,,,,,FEW,3000,SCT,6000,,,,,VFR,,,,,,,,,,,,METAR,482.0
LSGG 300950Z 04004KT 360V090 9999 FEW018 BKN025 14/09 Q1017 NOSIG,LSGG,2023-04-30T09:50:00Z,46.25,6.12,14.0,9.0,40,4,,6.21,30.029528,,,,,,TRUE,,,,,FEW,1800,BKN,2500,,,,,MVFR,,,,,,,,,,,,METAR,411.0
LSGC 300950Z 10006KT 060V170 9999 BKN024 12/08 Q1016,LSGC,2023-04-30T09:50:00Z,47.08,6.8,12.0,8.0,100,6,,6.21,30.0,,,,,,,,,,,BKN,2400,,,,,,,MVFR,,,,,,,,,,,,METAR,1018.0
LOXZ 300950Z VRB02KT 9999 -SHRA SCT045 SCT070 14/08 Q1019 NOSIG,LOXZ,2023-04-30T09:50:00Z,47.2,14.75,14.0,8.0,0,2,,6.21,30.088583,,,,,,TRUE,,,,-SHRA,SCT,4500,SCT,7000,,,,,VFR,,,,,,,,,,,,METAR,678.0
LOWW 300950Z 36010KT 9999 FEW034 14/06 Q1020 NOSIG,LOWW,2023-04-30T09:50:00Z,48.12,16.57,14.0,6.0,360,10,,6.21,30.11811,,,,,,TRUE,,,,,FEW,3400,,,,,,,VFR,,,,,,,,,,,,METAR,179.0
LOWS 300950Z 03005KT 350V080 9999 FEW032 BKN065 15/09 Q1020 NOSIG,LOWS,2023-04-30T09:50:00Z,47.78,13.02,15.0,9.0,30,5,,6.21,30.11811,,,,,,TRUE,,,,,FEW,3200,BKN,6500,,,,,VFR,,,,,,,,,,,,METAR,427.0
LOWL 300950Z AUTO 12005KT 070V230 9999 FEW034 SCT040 BKN070 14/06 Q1021 NOSIG,LOWL,2023-04-30T09:50:00Z,48.22,14.18,14.0,6.0,120,5,,6.21,30.147638,,,TRUE,,,TRUE,,,,,FEW,3400,SCT,4000,BKN,7000,,,VFR,,,,,,,,,,,,METAR,290.0
LOWK 300950Z 11006KT 060V180 9999 FEW040 SCT050 18/10 Q1017 NOSIG,LOWK,2023-04-30T09:50:00Z,46.65,14.32,18.0,10.0,110,6,,6.21,30.029528,,,,,,TRUE,,,,,FEW,4000,SCT,5000,,,,,VFR,,,,,,,,,,,,METAR,450.0
LOWI 300950Z 05005KT 330V090 9999 SCT025 BKN065 15/10 Q1018 NOSIG,LOWI,2023-04-30T09:50:00Z,47.27,11.33,15.0,10.0,50,5,,6.21,30.059055,,,,,,TRUE,,,,,SCT,2500,BKN,6500,,,,,VFR,,,,,,,,,,,,METAR,570.0
LOWG 300950Z 18005KT 120V240 9999 SCT022 BKN080 15/10 Q1019 NOSIG,LOWG,2023-04-30T09:50:00Z,47.0,15.43,15.0,10.0,180,5,,6.21,30.088583,,,,,,TRUE,,,,,SCT,2200,BKN,8000,,,,,VFR,,,,,,,,,,,,METAR,337.0
LLIB 300950Z AUTO 02005KT 310V100 9999 BKN047 18/08 Q1013,LLIB,2023-04-30T09:50:00Z,32.98,35.57,18.0,8.0,20,5,,6.21,29.911417,,,TRUE,,,,,,,,BKN,4700,,,,,,,VFR,,,,,,,,,,,,METAR,268.0
LLHA 300950Z 24013KT 200V280 9999 FEW042 21/09 Q1014,LLHA,2023-04-30T09:50:00Z,32.8,35.03,21.0,9.0,240,13,,6.21,29.940945,,,,,,,,,,,FEW,4200,,,,,,,VFR,,,,,,,,,,,,METAR,3.0
LLER 300950Z 36008KT 300V050 CAVOK 24/03 Q1014,LLER,2023-04-30T09:50:00Z,29.72,35.02,24.0,3.0,360,8,,6.21,29.940945,,,,,,,,,,,CAVOK,,,,,,,,VFR,,,,,,,,,,,,METAR,88.0
LLBG 300950Z 26013KT 9999 SCT045 21/08 Q1014 NOSIG,LLBG,2023-04-30T09:50:00Z,32.0,34.88,21.0,8.0,260,13,,6.21,29.940945,,,,,,TRUE,,,,,SCT,4500,,,,,,,VFR,,,,,,,,,,,,METAR,35.0
LIRZ 300950Z AUTO 07010KT 9999 FEW076/// 21/13 Q1012,LIRZ,2023-04-30T09:50:00Z,43.1,12.5,21.0,13.0,70,10,,6.21,29.88189,,,TRUE,,,,,,,,FEW,7600,,,,,,,VFR,,,,,,,,,,,,METAR,206.0
LIRU 300950Z VRB01KT CAVOK 22/13 Q1012,LIRU,2023-04-30T09:50:00Z,41.95,12.5,22.0,13.0,0,1,,6.21,29.88189,,,,,,,,,,,CAVOK,,,,,,,,VFR,,,,,,,,,,,,METAR,16.0
LIRQ 300950Z 04013KT 9999 FEW040 22/12 Q1012,LIRQ,2023-04-30T09:50:00Z,43.8,11.2,22.0,12.0,40,13,,6.21,29.88189,,,,,,,,,,,FEW,4000,,,,,,,VFR,,,,,,,,,,,,METAR,33.0
LIRN 300950Z VRB01KT CAVOK 24/13 Q1012 NOSIG,LIRN,2023-04-30T09:50:00Z,40.88,14.3,24.0,13.0,0,1,,6.21,29.88189,,,,,,TRUE,,,,,CAVOK,,,,,,,,VFR,,,,,,,,,,,,METAR,76.0
LIRI 300950Z 07004KT 360V150 CAVOK 22/14 Q1012,LIRI,2023-04-30T09:50:00Z,40.62,14.92,22.0,14.0,70,4,,6.21,29.88189,,,,,,,,,,,CAVOK,,,,,,,,VFR,,,,,,,,,,,,METAR,31.0
LIRF 300950Z AUTO 14005KT 040V190 9999 BKN100/// BKN180/// 21/13 Q1012,LIRF,2023-04-30T09:50:00Z,41.78,12.23,21.0,13.0,140,5,,6.21,29.88189,,,TRUE,,,,,,,,BKN,10000,BKN,18000,,,,,VFR,,,,,,,,,,,,METAR,2.0
LIRA 300950Z 22005KT 180V260 9999 FEW050 21/11 Q1012,LIRA,2023-04-30T09:50:00Z,41.8,12.58,21.0,11.0,220,5,,6.21,29.88189,,,,,,,,,,,FEW,5000,,,,,,,VFR,,,,,,,,,,,,METAR,101.0
LIQN 300950Z 33004KT CAVOK 18/13 Q1013,LIQN,2023-04-30T09:50:00Z,42.42,12.83,18.0,13.0,330,4,,6.21,29.911417,,,,,,,,,,,CAVOK,,,,,,,,VFR,,,,,,,,,,,,METAR,387.0
LIPZ 300950Z 01003KT 330V050 9999 FEW050 SCT070 19/14 Q1016 NOSIG,LIPZ,2023-04-30T09:50:00Z,45.5,12.35,19.0,14.0,10,3,,6.21,30.0,,,,,,TRUE,,,,,FEW,5000,SCT,7000,,,,,VFR,,,,,,,,,,,,METAR,3.0
LIPY 300950Z AUTO 13005KT 060V210 9999 NCD 20/13 Q1015,LIPY,2023-04-30T09:50:00Z,43.62,13.37,20.0,13.0,130,5,,6.21,29.970472,,,TRUE,,,,,,,,CLR,,,,,,,,VFR,,,,,,,,,,,,METAR,11.0
LIPX 300950Z 09009KT 9999 SCT080 19/11 Q1016,LIPX,2023-04-30T09:50:00Z,45.38,10.87,19.0,11.0,90,9,,6.21,30.0,,,,,,,,,,,SCT,8000,,,,,,,VFR,,,,,,,,,,,,METAR,67.0
LIPU 300950Z 01006KT 340V040 8000 BKN045 17/13 Q1016,LIPU,2023-04-30T09:50:00Z,45.38,11.83,17.0,13.0,10,6,,4.97,30.0,,,,,,,,,,,BKN,4500,,,,,,,MVFR,,,,,,,,,,,,METAR,6.0
LIPR 300950Z 05008KT 020V090 9999 FEW030 17/14 Q1015,LIPR,2023-04-30T09:50:00Z,44.02,12.62,17.0,14.0,50,8,,6.21,29.970472,,,,,,,,,,,FEW,3000,,,,,,,VFR,,,,,,,,,,,,METAR,10.0
LIPQ 300950Z AUTO 07008KT 040V110 9999 OVC100/// 21/11 Q1016,LIPQ,2023-04-30T09:50:00Z,45.82,13.47,21.0,11.0,70,8,,6.21,30.0,,,TRUE,,,,,,,,OVC,10000,,,,,,,VFR,,,,,,,,,,,,METAR,6.0
LIPO 300950Z AUTO 09012KT 060V120 9999 FEW047/// SCT084/// 20/12 Q1015,LIPO,2023-04-30T09:50:00Z,45.42,10.33,20.0,12.0,90,12,,6.21,29.970472,,,TRUE,,,,,,,,FEW,4700,SCT,8400,,,,,VFR,,,,,,,,,,,,METAR,104.0
LIPK 300950Z 05006KT 9999 SCT020 19/13 Q1015,LIPK,2023-04-30T09:50:00Z,44.2,12.07,19.0,13.0,50,6,,6.21,29.970472,,,,,,,,,,,SCT,2000,,,,,,,VFR,,,,,,,,,,,,METAR,24.0
LIPH 300950Z 05006KT 020V080 CAVOK 20/12 Q1016,LIPH,2023-04-30T09:50:00Z,45.63,12.18,20.0,12.0,50,6,,6.21,30.0,,,,,,,,,,,CAVOK,,,,,,,,VFR,,,,,,,,,,,,METAR,10.0
LIPE 300950Z 10008KT 050V130 9999 BKN025 19/13 Q1015,LIPE,2023-04-30T09:50:00Z,44.52,11.3,19.0,13.0,100,8,,6.21,29.970472,,,,,,,,,,,BKN,2500,,,,,,,MVFR,,,,,,,,,,,,METAR,37.0
LIPB 300950Z 16003KT 100V210 9999 SCT080 BKN120 19/08 Q1016,LIPB,2023-04-30T09:50:00Z,46.47,11.32,19.0,8.0,160,3,,6.21,30.0,,,,,,,,,,,SCT,8000,BKN,12000,,,,,VFR,,,,,,,,,,,,METAR,239.0
LIMZ 300950Z AUTO 33008KT 6000 -RA BKN007/// 15/14 Q1016,LIMZ,2023-04-30T09:50:00Z,44.53,7.62,15.0,14.0,330,8,,3.73,30.0,,,TRUE,,,,,,,-RA,BKN,700,,,,,,,IFR,,,,,,,,,,,,METAR,377.0
LIMP 300950Z 09010KT 070V130 7000 SCT030 18/13 Q1015,LIMP,2023-04-30T09:50:00Z,44.82,10.3,18.0,13.0,90,10,,4.35,29.970472,,,,,,,,,,,SCT,3000,,,,,,,MVFR,,,,,,,,,,,,METAR,41.0
LIML 300950Z 10012KT 9999 FEW030 SCT070 19/11 Q1015 NOSIG,LIML,2023-04-30T09:50:00Z,45.47,9.27,19.0,11.0,100,12,,6.21,29.970472,,,,,,TRUE,,,,,FEW,3000,SCT,7000,,,,,VFR,,,,,,,,,,,,METAR,109.0
LIMJ 300950Z 25003KT 9999 SCT032 18/15 Q1013,LIMJ,2023-04-30T09:50:00Z,44.42,8.83,18.0,15.0,250,3,,6.21,29.911417,,,,,,,,,,,SCT,3200,,,,,,,VFR,,,,,,,,,,,,METAR,3.0
LIMG 300950Z 04005KT 9999 BKN040 19/14 Q1013,LIMG,2023-04-30T09:50:00Z,44.03,8.12,19.0,14.0,40,5,,6.21,29.911417,,,,,,,,,,,BKN,4000,,,,,,,VFR,,,,,,,,,,,,METAR,41.0
LIMF 300950Z 34008KT 6000 SCT025 OVC040 15/12 Q1016,LIMF,2023-04-30T09:50:00Z,45.22,7.65,15.0,12.0,340,8,,3.73,30.0,,,,,,,,,,,SCT,2500,OVC,4000,,,,,MVFR,,,,,,,,,,,,METAR,295.0
LIME 300950Z AUTO 14007KT 100V170 9999 FEW030/// 18/12 Q1016,LIME,2023-04-30T09:50:00Z,45.67,9.7,18.0,12.0,140,7,,6.21,30.0,,,TRUE,,,,,,,,FEW,3000,,,,,,,VFR,,,,,,,,,,,,METAR,239.0
LIMC 300950Z 09005KT 040V150 9000 SCT035 BKN070 19/12 Q1016 NOSIG,LIMC,2023-04-30T09:50:00Z,45.62,8.72,19.0,12.0,90,5,,5.59,30.0,,,,,,TRUE,,,,,SCT,3500,BKN,7000,,,,,VFR,,,,,,,,,,,,METAR,221.0
LIMA 300950Z 35004KT 290V060 5000 BR BKN017 15/12 Q1016,LIMA,2023-04-30T09:50:00Z,45.08,7.6,15.0,12.0,350,4,,3.11,30.0,,,,,,,,,,BR,BKN,1700,,,,,,,MVFR,,,,,,,,,,,,METAR,285.0
LIEO 300950Z 11004KT 5000 -SHRA BKN004 17/16 Q1012,LIEO,2023-04-30T09:50:00Z,40.88,9.52,17.0,16.0,110,4,,3.11,29.88189,,,,,,,,,,-SHRA,BKN,400,,,,,,,LIFR,,,,,,,,,,,,METAR,8.0
LIEE 300950Z 15008KT 9999 SCT015 19/17 Q1010,LIEE,2023-04-30T09:50:00Z,39.25,9.07,19.0,17.0,150,8,,6.21,29.822834,,,,,,,,,,,SCT,1500,,,,,,,VFR,,,,,,,,,,,,METAR,1.0
LIEA 300950Z 04006KT 340V080 9999 FEW025 22/17 Q1010,LIEA,2023-04-30T09:50:00Z,40.62,8.28,22.0,17.0,40,6,,6.21,29.822834,,,,,,,,,,,FEW,2500,,,,,,,VFR,,,,,,,,,,,,METAR,22.0
LICR 300950Z AUTO 24007KT 9999 BKN110/// 19/14 Q1014,LICR,2023-04-30T09:50:00Z,38.07,15.65,19.0,14.0,240,7,,6.21,29.940945,,,TRUE,,,,,,,,BKN,11000,,,,,,,VFR,,,,,,,,,,,,METAR,16.0
LICJ 300950Z 18007KT 9999 -RA SCT050 21/14 Q1012,LICJ,2023-04-30T09:50:00Z,38.17,13.08,21.0,14.0,180,7,,6.21,29.88189,,,,,,,,,,-RA,SCT,5000,,,,,,,VFR,,,,,,,,,,,,METAR,20.0
LICG 300950Z 09008KT CAVOK 21/15 Q1013,LICG,2023-04-30T09:50:00Z,36.82,11.97,21.0,15.0,90,8,,6.21,29.911417,,,,,,,,,,,CAVOK,,,,,,,,VFR,,,,,,,,,,,,METAR,192.0
LICD 300950Z AUTO 09007KT 9999 FEW028/// 20/18 Q1012,LICD,2023-04-30T09:50:00Z,35.5,12.62,20.0,18.0,90,7,,6.21,29.88189,,,TRUE,,,,,,,,FEW,2800,,,,,,,VFR,,,,,,,,,,,,METAR,20.0
LICC 300950Z 06013KT 9999 SCT110 20/15 Q1013,LICC,2023-04-30T09:50:00Z,37.47,15.05,20.0,15.0,60,13,,6.21,29.911417,,,,,,,,,,,SCT,11000,,,,,,,VFR,,,,,,,,,,,,METAR,6.0
LICB 300950Z VRB02KT 9999 FEW075/// 22/09 Q1014,LICB,2023-04-30T09:50:00Z,37.0,14.62,22.0,9.0,0,2,,6.21,29.940945,,,,,,,,,,,FEW,7500,,,,,,,VFR,,,,,,,,,,,,METAR,212.0
LICA 300950Z AUTO 07021KT 9999 NCD 21/09 Q1013,LICA,2023-04-30T09:50:00Z,38.9,16.25,21.0,9.0,70,21,,6.21,29.911417,,,TRUE,,,,,,,,CLR,,,,,,,,VFR,,,,,,,,,,,,METAR,7.0
LIBR 300950Z 34005KT 310V010 9999 SCT045 16/13 Q1015,LIBR,2023-04-30T09:50:00Z,40.65,17.95,16.0,13.0,340,5,,6.21,29.970472,,,,,,,,,,,SCT,4500,,,,,,,VFR,,,,,,,,,,,,METAR,5.0
LIBP 300950Z AUTO 07006KT 050V110 9999 OVC010/// 17/15 Q1016,LIBP,2023-04-30T09:50:00Z,42.42,14.18,17.0,15.0,70,6,,6.21,30.0,,,TRUE,,,,,,,,OVC,1000,,,,,,,MVFR,,,,,,,,,,,,METAR,10.0
LIBG 300950Z 11004KT 9999 FEW030 16/11 Q1015,LIBG,2023-04-30T09:50:00Z,40.52,17.4,16.0,11.0,110,4,,6.21,29.970472,,,,,,,,,,,FEW,3000,,,,,,,VFR,,,,,,,,,,,,METAR,64.0
LIBF 300950Z VRB01KT 7000 SCT005 BKN015 15/13 Q1015,LIBF,2023-04-30T09:50:00Z,41.42,15.53,15.0,13.0,0,1,,4.35,29.970472,,,,,,,,,,,SCT,500,BKN,1500,,,,,MVFR,,,,,,,,,,,,METAR,81.0
LIBD 300950Z 08003KT 020V130 9999 SCT008 BKN035 16/14 Q1015,LIBD,2023-04-30T09:50:00Z,41.13,16.77,16.0,14.0,80,3,,6.21,29.970472,,,,,,,,,,,SCT,800,BKN,3500,,,,,VFR,,,,,,,,,,,,METAR,42.0
LIBC 300950Z 03008KT 330V070 9999 FEW025 17/14 Q1015,LIBC,2023-04-30T09:50:00Z,39.0,17.07,17.0,14.0,30,8,,6.21,29.970472,,,,,,,,,,,FEW,2500,,,,,,,VFR,,,,,,,,,,,,METAR,158.0
LGZA 300950Z 15005KT 9999 FEW018 BKN080 18/14 Q1015,LGZA,2023-04-30T09:50:00Z,37.75,20.88,18.0,14.0,150,5,,6.21,29.970472,,,,,,,,,,,FEW,1800,BKN,8000,,,,,VFR,,,,,,,,,,,,METAR,3.0
LGTS 300950Z 30008KT 270V340 9999 FEW030 18/13 Q1014 NOSIG,LGTS,2023-04-30T09:50:00Z,40.52,22.97,18.0,13.0,300,8,,6.21,29.940945,,,,,,TRUE,,,,,FEW,3000,,,,,,,VFR,,,,,,,,,,,,METAR,4.0
LGSR 300950Z VRB05KT 9999 FEW020 18/10 Q1015,LGSR,2023-04-30T09:50:00Z,36.4,25.48,18.0,10.0,0,5,,6.21,29.970472,,,,,,,,,,,FEW,2000,,,,,,,VFR,,,,,,,,,,,,METAR,31.0
LGSO 300950Z 10007KT 9999 FEW018 17/09 Q1015,LGSO,2023-04-30T09:50:00Z,37.42,24.95,17.0,9.0,100,7,,6.21,29.970472,,,,,,,,,,,FEW,1800,,,,,,,VFR,,,,,,,,,,,,METAR,71.0
LGSM 300950Z 01007KT 9999 FEW025 19/12 Q1014,LGSM,2023-04-30T09:50:00Z,37.68,26.92,19.0,12.0,10,7,,6.21,29.940945,,,,,,,,,,,FEW,2500,,,,,,,VFR,,,,,,,,,,,,METAR,5.0
LGSK 300950Z 17004KT 9999 FEW025 18/13 Q1014,LGSK,2023-04-30T09:50:00Z,39.18,23.5,18.0,13.0,170,4,,6.21,29.940945,,,,,,,,,,,FEW,2500,,,,,,,VFR,,,,,,,,,,,,METAR,13.0
LGSA 300950Z VRB03KT 9999 FEW020 BKN080 18/14 Q1015,LGSA,2023-04-30T09:50:00Z,35.53,24.13,18.0,14.0,0,3,,6.21,29.970472,,,,,,,,,,,FEW,2000,BKN,8000,,,,,VFR,,,,,,,,,,,,METAR,122.0
LGRX 300950Z VRB03KT 9999 FEW025 BKN080 20/13 Q1015 RMK SCT180 BLU,LGRX,2023-04-30T09:50:00Z,38.17,21.42,20.0,13.0,0,3,,6.21,29.970472,,,,,,,,,,,FEW,2500,BKN,8000,,,,,VFR,,,,,,,,,,,,METAR,16.0
LGRP 300950Z 25011KT CAVOK 19/08 Q1013 NOSIG,LGRP,2023-04-30T09:50:00Z,36.4,28.08,19.0,8.0,250,11,,6.21,29.911417,,,,,,TRUE,,,,,CAVOK,,,,,,,,VFR,,,,,,,,,,,,METAR,3.0
LGPZ 300950Z 24006KT 9999 SCT030 BKN080 19/13 Q1015,LGPZ,2023-04-30T09:50:00Z,38.92,20.77,19.0,13.0,240,6,,6.21,29.970472,,,,,,,,,,,SCT,3000,BKN,8000,,,,,VFR,,,,,,,,,,,,METAR,3.0
LGPA 300950Z VRB02KT 9999 FEW030 17/08 Q1015,LGPA,2023-04-30T09:50:00Z,37.02,25.1,17.0,8.0,0,2,,6.21,29.970472,,,,,,,,,,,FEW,3000,,,,,,,VFR,,,,,,,,,,,,METAR,42.0
LGMT 300950Z 12007KT 9999 FEW025 18/08 Q1015,LGMT,2023-04-30T09:50:00Z,39.05,26.6,18.0,8.0,120,7,,6.21,29.970472,,,,,,,,,,,FEW,2500,,,,,,,VFR,,,,,,,,,,,,METAR,4.0
LGMK 300950Z VRB03KT CAVOK 17/07 Q1015,LGMK,2023-04-30T09:50:00Z,37.43,25.35,17.0,7.0,0,3,,6.21,29.970472,,,,,,,,,,,CAVOK,,,,,,,,VFR,,,,,,,,,,,,METAR,126.0
LGLM 300950Z 16008KT 9999 FEW030 18/09 Q1015,LGLM,2023-04-30T09:50:00Z,39.92,25.23,18.0,9.0,160,8,,6.21,29.970472,,,,,,,,,,,FEW,3000,,,,,,,VFR,,,,,,,,,,,,METAR,4.0
LGKZ 300950Z AUTO 16005KT 100V240 //// // ////// 19/07 Q1015 RE//,LGKZ,2023-04-30T09:50:00Z,40.28,21.83,19.0,7.0,160,5,,,29.970472,,,TRUE,,,,,,,,,,,,,,,,,,,,,,,,,,,,METAR,615.0
LGKV 300950Z 15006KT 9999 FEW025TCU SCT080 18/11 Q1014,LGKV,2023-04-30T09:50:00Z,40.92,24.62,18.0,11.0,150,6,,6.21,29.940945,,,,,,,,,,,FEW,2500,SCT,8000,,,,,VFR,,,,,,,,,,,,METAR,5.0
LGKR 300950Z 05004KT 9999 SCT015 SCT030 BKN080 19/13 Q1014 NOSIG,LGKR,2023-04-30T09:50:00Z,39.62,19.92,19.0,13.0,50,4,,6.21,29.940945,,,,,,TRUE,,,,,SCT,1500,SCT,3000,BKN,8000,,,VFR,,,,,,,,,,,,METAR,2.0
LGKP 300950Z 30016KT CAVOK 20/09 Q1014,LGKP,2023-04-30T09:50:00Z,35.42,27.15,20.0,9.0,300,16,,6.21,29.940945,,,,,,,,,,,CAVOK,,,,,,,,VFR,,,,,,,,,,,,METAR,20.0
LGKO 300950Z 35012KT CAVOK 17/06 Q1014,LGKO,2023-04-30T09:50:00Z,36.8,27.08,17.0,6.0,350,12,,6.21,29.940945,,,,,,,,,,,CAVOK,,,,,,,,VFR,,,,,,,,,,,,METAR,130.0
LGKL 300950Z 16004KT 9999 FEW030 BKN080 18/12 Q1015,LGKL,2023-04-30T09:50:00Z,37.07,22.02,18.0,12.0,160,4,,6.21,29.970472,,,,,,,,,,,FEW,3000,BKN,8000,,,,,VFR,,,,,,,,,,,,METAR,4.0
LGKF 300950Z 16005KT 9999 DZ FEW016 SCT025 BKN070 17/14 Q1015,LGKF,2023-04-30T09:50:00Z,38.12,20.5,17.0,14.0,160,5,,6.21,29.970472,,,,,,,,,,DZ,FEW,1600,SCT,2500,BKN,7000,,,VFR,,,,,,,,,,,,METAR,14.0
LGKC 300950Z 14006KT 9999 FEW020 17/13 Q1016,LGKC,2023-04-30T09:50:00Z,36.28,23.02,17.0,13.0,140,6,,6.21,30.0,,,,,,,,,,,FEW,2000,,,,,,,VFR,,,,,,,,,,,,METAR,313.0
LGIR 300950Z 05004KT 9999 FEW020 BKN080 20/12 Q1016 NOSIG,LGIR,2023-04-30T09:50:00Z,35.33,25.17,20.0,12.0,50,4,,6.21,30.0,,,,,,TRUE,,,,,FEW,2000,BKN,8000,,,,,VFR,,,,,,,,,,,,METAR,37.0
LGIO 300950Z 05003KT 9999 FEW035 SCT080 18/10 Q1015,LGIO,2023-04-30T09:50:00Z,39.7,20.82,18.0,10.0,50,3,,6.21,29.970472,,,,,,,,,,,FEW,3500,SCT,8000,,,,,VFR,,,,,,,,,,,,METAR,476.0
LGHI 300950Z VRB02KT CAVOK 18/05 Q1014,LGHI,2023-04-30T09:50:00Z,38.33,26.13,18.0,5.0,0,2,,6.21,29.940945,,,,,,,,,,,CAVOK,,,,,,,,VFR,,,,,,,,,,,,METAR,6.0
LGEL 300950Z 17005KT 9999 FEW015 SCT025 BKN070 20/11 Q1014,LGEL,2023-04-30T09:50:00Z,38.07,23.55,20.0,11.0,170,5,,6.21,29.940945,,,,,,,,,,,FEW,1500,SCT,2500,BKN,7000,,,VFR,,,,,,,,,,,,METAR,21.0
LGBL 300950Z 09008KT 9999 FEW030 20/11 Q1014,LGBL,2023-04-30T09:50:00Z,39.22,22.8,20.0,11.0,90,8,,6.21,29.940945,,,,,,,,,,,FEW,3000,,,,,,,VFR,,,,,,,,,,,,METAR,13.0
LGAV 300950Z 10007KT 050V120 9999 FEW020 SCT030 BKN070 18/12 Q1015,LGAV,2023-04-30T09:50:00Z,37.93,23.95,18.0,12.0,100,7,,6.21,29.970472,,,,,,,,,,,FEW,2000,SCT,3000,BKN,7000,,,VFR,,,,,,,,,,,,METAR,83.0
LGAL 300950Z 22010KT 9999 FEW025 18/13 Q1014,LGAL,2023-04-30T09:50:00Z,40.85,25.95,18.0,13.0,220,10,,6.21,29.940945,,,,,,,,,,,FEW,2500,,,,,,,VFR,,,,,,,,,,,,METAR,5.0
LGAD 300950Z VRB03KT 9999 FEW025 BKN080 20/12 Q1015,LGAD,2023-04-30T09:50:00Z,37.92,21.28,20.0,12.0,0,3,,6.21,29.970472,,,,,,,,,,,FEW,2500,BKN,8000,,,,,VFR,,,,,,,,,,,,METAR,8.0
LCRA 300950Z 22014KT 9999 FEW030 19/09 Q1012 NOSIG,LCRA,2023-04-30T09:50:00Z,34.58,32.98,19.0,9.0,220,14,,6.21,29.88189,,,,,,TRUE,,,,,FEW,3000,,,,,,,VFR,,,,,,,,,,,,METAR,23.0
LCEN 300950Z 16005KT 9999 FEW020 SCT025 21/06 Q1011 NOSIG RMK RWY11 14005KT,LCEN,2023-04-30T09:50:00Z,35.15,33.5,21.0,6.0,160,5,,6.21,29.852362,,,,,,TRUE,,,,,FEW,2000,SCT,2500,,,,,VFR,,,,,,,,,,,,SPECI,91.0
LATI 300950Z 02004KT 310V080 CAVOK 21/10 Q1014 NOSIG,LATI,2023-04-30T09:50:00Z,41.42,19.72,21.0,10.0,20,4,,6.21,29.940945,,,,,,TRUE,,,,,CAVOK,,,,,,,,VFR,,,,,,,,,,,,METAR,32.0
KXBP 300950Z AUTO 27005KT 10SM CLR 12/05 A2988 RMK AO2 T01190054,KXBP,2023-04-30T09:50:00Z,33.18,-97.83,11.9,5.4,270,5,,10.0,29.878937,,,TRUE,TRUE,,,,,,,CLR,,,,,,,,VFR,,,,,,,,,,,,SPECI,256.0
KX26 300950Z AUTO 19010KT 10SM SCT037 24/21 A2967 RMK AO2 TSNO T02430213,KX26,2023-04-30T09:50:00Z,27.82,-80.5,24.3,21.3,190,10,,10.0,29.66929,,,TRUE,TRUE,,,TRUE,,,,SCT,3700,,,,,,,VFR,,,,,,,,,,,,METAR,5.0
KVVS 300950Z AUTO 11004KT 10SM SCT036 OVC046 13/11 A2950 RMK AO2 T01280113,KVVS,2023-04-30T09:50:00Z,39.95,-79.65,12.8,11.3,110,4,,10.0,29.500984,,,TRUE,TRUE,,,,,,,SCT,3600,OVC,4600,,,,,VFR,,,,,,,,,,,,SPECI,386.0
KVES 300950Z AUTO 30006G15KT 7SM RA SCT007 BKN018 OVC037 05/05 A2949 RMK AO2,KVES,2023-04-30T09:50:00Z,40.2,-84.53,5.0,5.0,300,6,15,7.0,29.489174,,,TRUE,TRUE,,,,,,RA,SCT,700,BKN,1800,OVC,3700,,,MVFR,,,,,,,,,,,,METAR,308.0
KULS 300950Z AUTO 36006KT 10SM CLR 07/03 A2997 RMK AO2,KULS,2023-04-30T09:50:00Z,37.6,-101.37,7.0,3.0,360,6,,10.0,29.970472,,,TRUE,TRUE,,,,,,,CLR,,,,,,,,VFR,,,,,,,,,,,,METAR,934.0
KSUT 300950Z AUTO 16004KT 10SM BKN009 BKN015 OVC095 20/19 A2952 RMK AO2 P0001 T01970186,KSUT,2023-04-30T09:50:00Z,33.93,-78.08,19.7,18.6,160,4,,10.0,29.518702,,,TRUE,TRUE,,,,,,,BKN,900,BKN,1500,OVC,9500,,,IFR,,,,,,0.01,,,,,,METAR,6.0
KSNH 300950Z AUTO 00000KT 10SM CLR 12/12 A2960 RMK A01,KSNH,2023-04-30T09:50:00Z,35.17,-88.22,12.0,12.0,0,0,,10.0,29.601377,,,TRUE,TRUE,,,,,,,CLR,,,,,,,,VFR,,,,,,,,,,,,METAR,142.0
KRYY 300950Z AUTO 00000KT 4SM -RA BR BKN065 OVC075 14/13 A2950 RMK AO2 SLP982 P0021 T01390128 $,KRYY,2023-04-30T09:50:00Z,34.02,-84.6,13.9,12.8,0,0,,4.0,29.500984,998.2,,TRUE,TRUE,TRUE,,,,,-RA BR,BKN,6500,OVC,7500,,,,,MVFR,,,,,,0.21,,,,,,METAR,306.0
KRTS 300950Z AUTO 12006G16KT 10SM CLR 16/M02 A3004 RMK AO2,KRTS,2023-04-30T09:50:00Z,39.67,-119.88,16.0,-2.0,120,6,16,10.0,30.041338,,,TRUE,TRUE,,,,,,,CLR,,,,,,,,VFR,,,,,,,,,,,,METAR,1537.0
KRHP 300950Z AUTO 05003KT 10SM -RA SCT065 OVC090 13/12 A2952 RMK AO2 P0001 T01300123,KRHP,2023-04-30T09:50:00Z,35.18,-83.85,13.0,12.3,50,3,,10.0,29.518702,,,TRUE,TRUE,,,,,,-RA,SCT,6500,OVC,9000,,,,,VFR,,,,,,0.01,,,,,,METAR,515.0
KQEX 300950Z AUTO 28003KT 9999 CLR 20/M02 A2975 RMK A02 TSNO,KQEX,2023-04-30T09:50:00Z,,,20.0,-2.0,280,3,,6.21,29.749016,,,TRUE,TRUE,,,TRUE,,,,CLR,,,,,,,,VFR,,,,,,,,,,,,METAR,
KQES 300950Z AUTO 23002KT 9999 SCT090 16/08 A2988 RMK A02 TSNO,KQES,2023-04-30T09:50:00Z,,,16.0,8.0,230,2,,6.21,29.878937,,,TRUE,TRUE,,,TRUE,,,,SCT,9000,,,,,,,VFR,,,,,,,,,,,,METAR,
KQER 300950Z AUTO 16001KT 9999 FEW085 14/04 A2973 RMK A02 TSNO,KQER,2023-04-30T09:50:00Z,,,14.0,4.0,160,1,,6.21,29.731298,,,TRUE,TRUE,,,TRUE,,,,FEW,8500,,,,,,,VFR,,,,,,,,,,,,METAR,
KOLY 300950Z AUTO 27005KT 10SM SCT008 06/06 A2962 RMK AO2 T00610056 PWINO,KOLY,2023-04-30T09:50:00Z,38.72,-88.18,6.1,5.6,270,5,,10.0,29.619095,,,TRUE,TRUE,,,,,TRUE,,SCT,800,,,,,,,VFR,,,,,,,,,,,,SPECI,144.0
KNOW 300950Z AUTO 28013G21KT 10SM CLR 09/08 A2990 RMK AO2 T00900082,KNOW,2023-04-30T09:50:00Z,48.13,-123.4,9.0,8.2,280,13,21,10.0,29.899607,,,TRUE,TRUE,,,,,,,CLR,,,,,,,,VFR,,,,,,,,,,,,SPECI,3.0
KMRC 300950Z AUTO 22004KT 3SM BR CLR 11/11 A2957 RMK A01,KMRC,2023-04-30T09:50:00Z,35.55,-87.18,11.0,11.0,220,4,,3.0,29.568897,,,TRUE,TRUE,,,,,,BR,CLR,,,,,,,,MVFR,,,,,,,,,,,,METAR,205.0
KMQI 300950Z AUTO 18005KT 10SM OVC075 18/16 A2959 RMK AO2 P0001 T01770163,KMQI,2023-04-30T09:50:00Z,35.92,-75.7,17.7,16.3,180,5,,10.0,29.589567,,,TRUE,TRUE,,,,,,,OVC,7500,,,,,,,VFR,,,,,,0.01,,,,,,METAR,3.0
KM91 300950Z AUTO 33007G15KT 10SM BKN009 OVC013 10/10 A2957 RMK A01,KM91,2023-04-30T09:50:00Z,36.53,-86.92,10.0,10.0,330,7,15,10.0,29.568897,,,TRUE,TRUE,,,,,,,BKN,900,OVC,1300,,,,,IFR,,,,,,,,,,,,METAR,214.0
KM54 300950Z AUTO 00000KT 10SM SCT023 BKN031 OVC070 11/11 A2954 RMK A01,KM54,2023-04-30T09:50:00Z,36.18,-86.32,11.0,11.0,0,0,,10.0,29.53937,,,TRUE,TRUE,,,,,,,SCT,2300,BKN,3100,OVC,7000,,,VFR,,,,,,,,,,,,METAR,168.0
KM04 300950Z AUTO 36017G22KT 10SM SCT050 BKN060 12/07 A2967 RMK A01,KM04,2023-04-30T09:50:00Z,35.58,-89.58,12.0,7.0,360,17,22,10.0,29.66929,,,TRUE,TRUE,,,,,,,SCT,5000,BKN,6000,,,,,VFR,,,,,,,,,,,,METAR,83.0
KLAL 300950Z 19013KT 10SM -RA BKN024 23/22 A2964,KLAL,2023-04-30T09:50:00Z,27.98,-82.02,23.0,22.0,190,13,,10.0,29.639763,,,,,,,,,,-RA,BKN,2400,,,,,,,MVFR,,,,,,,,,,,,METAR,39.0
KK70 300950Z AUTO 20010G25KT 160V240 10SM SCT018 BKN023 27/25 A2974 RMK AO2,KK70,2023-04-30T09:50:00Z,25.32,-80.28,27.0,25.0,200,10,25,10.0,29.740158,,,TRUE,TRUE,,,,,,,SCT,1800,BKN,2300,,,,,MVFR,,,,,,,,,,,,METAR,20.0
KJWN 300950Z AUTO 28005KT 10SM BKN023 BKN028 BKN035 12/11 A2955 RMK AO2,KJWN,2023-04-30T09:50:00Z,36.18,-86.88,12.0,11.0,280,5,,10.0,29.551182,,,TRUE,TRUE,,,,,,,BKN,2300,BKN,2800,BKN,3500,,,MVFR,,,,,,,,,,,,METAR,149.0
KIXA 300950Z AUTO 19004KT 10SM SCT029 BKN055 OVC070 17/17 A2952 RMK AO2 P0001,KIXA,2023-04-30T09:50:00Z,36.33,-77.63,17.0,17.0,190,4,,10.0,29.518702,,,TRUE,TRUE,,,,,,,SCT,2900,BKN,5500,OVC,7000,,,VFR,,,,,,0.01,,,,,,METAR,43.0
KGWW 300950Z AUTO 14004KT 7SM BKN006 BKN010 OVC015 18/18 A2952 RMK AO2 T01760176,KGWW,2023-04-30T09:50:00Z,35.47,-77.97,17.6,17.6,140,4,,7.0,29.518702,,,TRUE,TRUE,,,,,,,BKN,600,BKN,1000,OVC,1500,,,IFR,,,,,,,,,,,,METAR,40.0
KGNC 300950Z AUTO 24006KT 10SM CLR 10/M03 A3004 RMK AO2 T00991033,KGNC,2023-04-30T09:50:00Z,32.68,-102.65,9.9,-3.3,240,6,,10.0,30.041338,,,TRUE,TRUE,,,,,,,CLR,,,,,,,,VFR,,,,,,,,,,,,SPECI,1002.0
KFDK 300950Z AUTO 02003KT 5SM VCTS OVC008 14/14 A2957 RMK AO2 LTG DSNT NE AND E P0001,KFDK,2023-04-30T09:50:00Z,39.42,-77.37,14.0,14.0,20,3,,5.0,29.568897,,,TRUE,TRUE,,,,,,VCTS,OVC,800,,,,,,,IFR,,,,,,0.01,,,,,,METAR,82.0
KEYF 300950Z AUTO 14004KT 10SM SCT006 SCT014 BKN049 18/17 A2950 RMK AO2 T01800172,KEYF,2023-04-30T09:50:00Z,34.6,-78.58,18.0,17.2,140,4,,10.0,29.500984,,,TRUE,TRUE,,,,,,,SCT,600,SCT,1400,BKN,4900,,,VFR,,,,,,,,,,,,METAR,39.0
KEXX 300950Z AUTO 00000KT 10SM -RA BKN095 OVC120 15/15 A2949 RMK AO2 P0009 T01450145,KEXX,2023-04-30T09:50:00Z,35.78,-80.3,14.5,14.5,0,0,,10.0,29.489174,,,TRUE,TRUE,,,,,,-RA,BKN,9500,OVC,12000,,,,,VFR,,,,,,0.09,,,,,,METAR,221.0
KETN 300950Z AUTO 00000KT 10SM CLR 06/04 A2991 RMK AO2 T00570045,KETN,2023-04-30T09:50:00Z,32.42,-98.82,5.7,4.5,0,0,,10.0,29.911417,,,TRUE,TRUE,,,,,,,CLR,,,,,,,,VFR,,,,,,,,,,,,SPECI,445.0
KEDE 300950Z AUTO 20011KT 10SM BKN060 OVC070 21/18 A2956 RMK AO2 T02060181,KEDE,2023-04-30T09:50:00Z,36.03,-76.57,20.6,18.1,200,11,,10.0,29.56004,,,TRUE,TRUE,,,,,,,BKN,6000,OVC,7000,,,,,VFR,,,,,,,,,,,,METAR,4.0
KEAN 300950Z AUTO 13004KT 10SM CLR 03/M01 A3010 RMK AO2 T00301015,KEAN,2023-04-30T09:50:00Z,42.05,-104.93,3.0,-1.5,130,4,,10.0,30.100393,,,TRUE,TRUE,,,,,,,CLR,,,,,,,,VFR,,,,,,,,,,,,SPECI,1452.0
KDVK 300950Z AUTO 00000KT 10SM SCT016 SCT022 11/10 A2953 RMK AO2,KDVK,2023-04-30T09:50:00Z,37.58,-84.77,11.0,10.0,0,0,,10.0,29.530512,,,TRUE,TRUE,,,,,,,SCT,1600,SCT,2200,,,,,VFR,,,,,,,,,,,,METAR,309.0
KDED 300950Z AUTO 18012KT 10SM SCT021 OVC029 23/20 A2959 RMK AO2 T02320199,KDED,2023-04-30T09:50:00Z,29.07,-81.28,23.2,19.9,180,12,,10.0,29.589567,,,TRUE,TRUE,,,,,,,SCT,2100,OVC,2900,,,,,MVFR,,,,,,,,,,,,SPECI,21.0
KDAG 300950Z AUTO 27010KT 10SM CLR 21/M01 A2989 RMK AO2 SLP094 T02061006,KDAG,2023-04-30T09:50:00Z,34.85,-116.78,20.6,-0.6,270,10,,10.0,29.890747,1009.4,,TRUE,TRUE,,,,,,,CLR,,,,,,,,VFR,,,,,,,,,,,,METAR,584.0
KCXW 300950Z AUTO 29005KT 10SM FEW023 SCT050 OVC060 11/ A2978 RMK A01,KCXW,2023-04-30T09:50:00Z,35.02,-92.55,11.0,,290,5,,10.0,29.778543,,,TRUE,TRUE,,,,,,,FEW,2300,SCT,5000,OVC,6000,,,VFR,,,,,,,,,,,,METAR,84.0
KCGS 300950Z AUTO 08003KT 10SM OVC014 16/14 A2957 RMK AO2 T01570145,KCGS,2023-04-30T09:50:00Z,38.98,-76.92,15.7,14.5,80,3,,10.0,29.568897,,,TRUE,TRUE,,,,,,,OVC,1400,,,,,,,MVFR,,,,,,,,,,,,METAR,15.0
KCCB 300950Z AUTO 28004KT 4SM BR CLR 12/12 A2994 RMK AO2,KCCB,2023-04-30T09:50:00Z,34.12,-117.68,12.0,12.0,280,4,,4.0,29.940945,,,TRUE,TRUE,,,,,,BR,CLR,,,,,,,,MVFR,,,,,,,,,,,,METAR,440.0
KBMC 300950Z AUTO 00000KT 10SM CLR 12/04 A3001 RMK AO1 T01160036,KBMC,2023-04-30T09:50:00Z,41.55,-112.07,11.6,3.6,0,0,,10.0,30.008858,,,TRUE,TRUE,,,,,,,CLR,,,,,,,,VFR,,,,,,,,,,,,SPECI,1289.0
KANK 300950Z AUTO 28003KT 10SM CLR 04/M03 A3023 RMK AO1 T00401031,KANK,2023-04-30T09:50:00Z,38.53,-106.05,4.0,-3.1,280,3,,10.0,30.230314,,,TRUE,TRUE,,,,,,,CLR,,,,,,,,VFR,,,,,,,,,,,,SPECI,2293.0
KAFO 300950Z AUTO 00000KT 10SM CLR 00/M02 A3013 RMK AO2,KAFO,2023-04-30T09:50:00Z,42.72,-110.95,0.0,-2.0,0,0,,10.0,30.129921,,,TRUE,TRUE,,,,,,,CLR,,,,,,,,VFR,,,,,,,,,,,,SPECI,1881.0
K7W6 300950Z AUTO 18006KT 10SM BKN075 OVC090 19/17 A2958 RMK AO2 T01890168,K7W6,2023-04-30T09:50:00Z,35.55,-75.95,18.9,16.8,180,6,,10.0,29.58071,,,TRUE,TRUE,,,,,,,BKN,7500,OVC,9000,,,,,VFR,,,,,,,,,,,,METAR,1.0
K1A5 300950Z AUTO 00000KT 10SM SCT004 BKN080 OVC120 12/12 A2957 RMK AO2 T01200115,K1A5,2023-04-30T09:50:00Z,35.22,-83.42,12.0,11.5,0,0,,10.0,29.568897,,,TRUE,TRUE,,,,,,,SCT,400,BKN,8000,OVC,12000,,,VFR,,,,,,,,,,,,METAR,611.0
K05U 300950Z AUTO VRB08KT 10SM 09/M02 A3009 RMK A01,K05U,2023-04-30T09:50:00Z,39.6,-116.0,9.0,-2.0,0,8,,10.0,30.088583,,,TRUE,TRUE,,,,,,,,,,,,,,,,,,,,,,,,,,,METAR,1813.0
FHAW 300950Z 16012KT 9999 FEW020 27/21 Q1015 NOSIG RMK BLU BLU,FHAW,2023-04-30T09:50:00Z,-7.97,-14.4,27.0,21.0,160,12,,6.21,29.970472,,,,,,TRUE,,,,,FEW,2000,,,,,,,VFR,,,,,,,,,,,,METAR,79.0
EYVI 300950Z 18003KT 130V220 9999 BKN020 07/04 Q1016 NOSIG,EYVI,2023-04-30T09:50:00Z,54.63,25.28,7.0,4.0,180,3,,6.21,30.0,,,,,,TRUE,,,,,BKN,2000,,,,,,,MVFR,,,,,,,,,,,,METAR,180.0
EYSA 300950Z 31015KT 280V340 CAVOK 11/M04 Q1015 NOSIG,EYSA,2023-04-30T09:50:00Z,55.9,23.4,11.0,-4.0,310,15,,6.21,29.970472,,,,,,TRUE,,,,,CAVOK,,,,,,,,VFR,,,,,,,,,,,,METAR,135.0
EYPA 300950Z VRB06KT CAVOK 09/04 Q1017,EYPA,2023-04-30T09:50:00Z,55.97,21.08,9.0,4.0,0,6,,6.21,30.029528,,,,,,,,,,,CAVOK,,,,,,,,VFR,,,,,,,,,,,,METAR,15.0
EYKA 300950Z 29009KT 250V350 CAVOK 12/M00 Q1016,EYKA,2023-04-30T09:50:00Z,54.97,24.08,12.0,0.0,290,9,,6.21,30.0,,,,,,,,,,,CAVOK,,,,,,,,VFR,,,,,,,,,,,,METAR,68.0
EVVA 300950Z AUTO 26013KT CAVOK 09/02 Q1015,EVVA,2023-04-30T09:50:00Z,57.35,21.55,9.0,2.0,260,13,,6.21,29.970472,,,TRUE,,,,,,,,CAVOK,,,,,,,,VFR,,,,,,,,,,,,METAR,1.0
EVRA 300950Z VRB09G19KT 9999 SCT045 12/M03 Q1014 NOSIG,EVRA,2023-04-30T09:50:00Z,56.92,23.97,12.0,-3.0,0,9,19,6.21,29.940945,,,,,,TRUE,,,,,SCT,4500,,,,,,,VFR,,,,,,,,,,,,METAR,7.0
EVLA 300950Z AUTO 28011KT 250V320 CAVOK 09/M02 Q1016,EVLA,2023-04-30T09:50:00Z,56.52,21.1,9.0,-2.0,280,11,,6.21,30.0,,,TRUE,,,,,,,,CAVOK,,,,,,,,VFR,,,,,,,,,,,,METAR,5.0
EVGA 300950Z 29011KT 260V330 CAVOK 10/M02 Q1013 TEMPO 27012KT,EVGA,2023-04-30T09:50:00Z,56.78,24.85,10.0,-2.0,290,11,,6.21,29.911417,,,,,,,,,,,CAVOK,,,,,,,,VFR,,,,,,,,,,,,METAR,61.0
ESUT 300950Z VRB02KT 9999 SCT034 01/M06 Q1004,ESUT,2023-04-30T09:50:00Z,65.8,15.08,1.0,-6.0,0,2,,6.21,29.64567,,,,,,,,,,,SCT,3400,,,,,,,VFR,,,,,,,,,,,,METAR,457.0
ESUP 300950Z AUTO 20006KT 160V220 9999 OVC010/// ///// Q1006,ESUP,2023-04-30T09:50:00Z,67.25,23.07,,,200,6,,6.21,29.704725,,,TRUE,,,,,,,,OVC,1000,,,,,,,MVFR,,,,,,,,,,,,METAR,164.0
ESTL 300950Z AUTO 29017KT 9999 SCT037/// 09/M00 Q1021,ESTL,2023-04-30T09:50:00Z,56.07,13.2,9.0,0.0,290,17,,6.21,30.147638,,,TRUE,,,,,,,,SCT,3700,,,,,,,VFR,,,,,,,,,,,,METAR,39.0
ESTA 300950Z 30017KT 9999 SCT033 08/M00 Q1021,ESTA,2023-04-30T09:50:00Z,56.28,12.83,8.0,0.0,300,17,,6.21,30.147638,,,,,,,,,,,SCT,3300,,,,,,,VFR,,,,,,,,,,,,METAR,19.0
ESSV 300950Z 24015KT CAVOK 06/01 Q1015,ESSV,2023-04-30T09:50:00Z,57.67,18.35,6.0,1.0,240,15,,6.21,29.970472,,,,,,,,,,,CAVOK,,,,,,,,VFR,,,,,,,,,,,,METAR,38.0
ESST 300950Z AUTO 30010KT 260V010 9999 NCD 08/M06 Q1014,ESST,2023-04-30T09:50:00Z,60.15,12.98,8.0,-6.0,300,10,,6.21,29.940945,,,TRUE,,,,,,,,CLR,,,,,,,,VFR,,,,,,,,,,,,METAR,110.0
ESSP 300950Z 27019KT CAVOK 10/M04 Q1014,ESSP,2023-04-30T09:50:00Z,58.58,16.25,10.0,-4.0,270,19,,6.21,29.940945,,,,,,,,,,,CAVOK,,,,,,,,VFR,,,,,,,,,,,,METAR,3.0
ESSL 300950Z AUTO 27019KT 9999 NCD 08/M06 Q1015,ESSL,2023-04-30T09:50:00Z,58.4,15.67,8.0,-6.0,270,19,,6.21,29.970472,,,TRUE,,,,,,,,CLR,,,,,,,,VFR,,,,,,,,,,,,METAR,51.0
ESSD 300950Z AUTO 30014KT 9999 SCT051/// 08/M05 Q1012,ESSD,2023-04-30T09:50:00Z,60.42,15.5,8.0,-5.0,300,14,,6.21,29.88189,,,TRUE,,,,,,,,SCT,5100,,,,,,,VFR,,,,,,,,,,,,METAR,151.0
ESSB 300950Z 27017KT CAVOK 08/M01 Q1012,ESSB,2023-04-30T09:50:00Z,59.35,17.93,8.0,-1.0,270,17,,6.21,29.88189,,,,,,,,,,,CAVOK,,,,,,,,VFR,,,,,,,,,,,,METAR,14.0
ESSA 300950Z 27012KT 9999 BKN045 07/M03 Q1011 TEMPO SCT030TCU,ESSA,2023-04-30T09:50:00Z,59.65,17.93,7.0,-3.0,270,12,,6.21,29.852362,,,,,,,,,,,BKN,4500,,,,,,,VFR,,,,,,,,,,,,METAR,36.0
ESPE 300950Z AUTO 31004KT 200V360 9999 NCD 06/M05 Q1004,ESPE,2023-04-30T09:50:00Z,65.88,20.15,6.0,-5.0,310,4,,6.21,29.64567,,,TRUE,,,,,,,,CLR,,,,,,,,VFR,,,,,,,,,,,,METAR,182.0
ESPA 300950Z 10006KT 060V130 CAVOK 05/01 Q1006,ESPA,2023-04-30T09:50:00Z,65.53,22.12,5.0,1.0,100,6,,6.21,29.704725,,,,,,,,,,,CAVOK,,,,,,,,VFR,,,,,,,,,,,,METAR,12.0
ESOW 300950Z AUTO 31012KT 260V350 9999 SCT057/// 09/M05 Q1013,ESOW,2023-04-30T09:50:00Z,59.58,16.63,9.0,-5.0,310,12,,6.21,29.911417,,,TRUE,,,,,,,,SCT,5700,,,,,,,VFR,,,,,,,,,,,,METAR,7.0
ESOK 300950Z AUTO 25008KT 9999 NCD 08/M05 Q1015,ESOK,2023-04-30T09:50:00Z,59.45,13.33,8.0,-5.0,250,8,,6.21,29.970472,,,TRUE,,,,,,,,CLR,,,,,,,,VFR,,,,,,,,,,,,METAR,101.0
ESOH 300950Z AUTO 31008KT 270V360 9999 NCD 08/M06 Q1014,ESOH,2023-04-30T09:50:00Z,60.02,13.58,8.0,-6.0,310,8,,6.21,29.940945,,,TRUE,,,,,,,,CLR,,,,,,,,VFR,,,,,,,,,,,,METAR,145.0
ESOE 300950Z AUTO 29014KT 250V320 9999 NCD 08/M06 Q1014,ESOE,2023-04-30T09:50:00Z,59.22,15.05,8.0,-6.0,290,14,,6.21,29.940945,,,TRUE,,,,,,,,CLR,,,,,,,,VFR,,,,,,,,,,,,METAR,57.0
ESNZ 300950Z 27009KT 9999 OVC036 03/M03 Q1007,ESNZ,2023-04-30T09:50:00Z,63.18,14.5,3.0,-3.0,270,9,,6.21,29.734253,,,,,,,,,,,OVC,3600,,,,,,,VFR,,,,,,,,,,,,METAR,360.0
ESNX 300950Z AUTO 33004KT 300V360 9999 NCD 04/M08 Q1004,ESNX,2023-04-30T09:50:00Z,65.58,19.28,4.0,-8.0,330,4,,6.21,29.64567,,,TRUE,,,,,,,,CLR,,,,,,,,VFR,,,,,,,,,,,,METAR,380.0
ESNV 300950Z AUTO 27009KT 9999 FEW180/// 05/M07 Q1005,ESNV,2023-04-30T09:50:00Z,64.58,16.83,5.0,-7.0,270,9,,6.21,29.675198,,,TRUE,,,,,,,,FEW,18000,,,,,,,VFR,,,,,,,,,,,,METAR,348.0
ESNU 300950Z 35008KT 300V040 CAVOK 08/M04 Q1005,ESNU,2023-04-30T09:50:00Z,63.78,20.28,8.0,-4.0,350,8,,6.21,29.675198,,,,,,,,,,,CAVOK,,,,,,,,VFR,,,,,,,,,,,,METAR,8.0
ESNS 300950Z 08007KT 050V110 CAVOK 06/M03 Q1005,ESNS,2023-04-30T09:50:00Z,64.62,21.07,6.0,-3.0,80,7,,6.21,29.675198,,,,,,,,,,,CAVOK,,,,,,,,VFR,,,,,,,,,,,,METAR,41.0
ESNQ 300950Z AUTO 22013KT 9999 SCT086/// 03/M04 Q1002,ESNQ,2023-04-30T09:50:00Z,67.82,20.33,3.0,-4.0,220,13,,6.21,29.586615,,,TRUE,,,,,,,,SCT,8600,,,,,,,VFR,,,,,,,,,,,,METAR,447.0
ESNO 300950Z AUTO VRB05KT 9999 SCT098/// 07/M07 Q1006,ESNO,2023-04-30T09:50:00Z,63.4,18.97,7.0,-7.0,0,5,,6.21,29.704725,,,TRUE,,,,,,,,SCT,9800,,,,,,,VFR,,,,,,,,,,,,METAR,100.0
ESNN 300950Z VRB08KT CAVOK 09/M04 Q1008,ESNN,2023-04-30T09:50:00Z,62.52,17.43,9.0,-4.0,0,8,,6.21,29.763779,,,,,,,,,,,CAVOK,,,,,,,,VFR,,,,,,,,,,,,METAR,4.0
ESNL 300950Z AUTO VRB05KT 9999 FEW054/// 07/M08 Q1005,ESNL,2023-04-30T09:50:00Z,64.55,18.72,7.0,-8.0,0,5,,6.21,29.675198,,,TRUE,,,,,,,,FEW,5400,,,,,,,VFR,,,,,,,,,,,,METAR,220.0
ESNK 300950Z AUTO 33011KT 9999 FEW055/// ///// Q1007,ESNK,2023-04-30T09:50:00Z,63.03,17.77,,,330,11,,6.21,29.734253,,,TRUE,,,,,,,,FEW,5500,,,,,,,VFR,,,,,,,,,,,,SPECI,4.0
ESNG 300950Z AUTO 11007KT 9999 OVC015/// ///// Q1004,ESNG,2023-04-30T09:50:00Z,67.13,20.82,,,110,7,,6.21,29.64567,,,TRUE,,,,,,,,OVC,1500,,,,,,,MVFR,,,,,,,,,,,,SPECI,300.0
ESND 300950Z AUTO 28014KT 9999 FEW072/// BKN100/// 03/M06 Q1010,ESND,2023-04-30T09:50:00Z,62.05,14.42,3.0,-6.0,280,14,,6.21,29.822834,,,TRUE,,,,,,,,FEW,7200,BKN,10000,,,,,VFR,,,,,,,,,,,,METAR,352.0
ESMX 300950Z AUTO 29011KT 250V330 9999 FEW051/// 09/M04 Q1017,ESMX,2023-04-30T09:50:00Z,56.92,14.72,9.0,-4.0,290,11,,6.21,30.029528,,,TRUE,,,,,,,,FEW,5100,,,,,,,VFR,,,,,,,,,,,,METAR,176.0
ESMT 300950Z AUTO 31016KT 9999 BKN036/// 08/M01 Q1021,ESMT,2023-04-30T09:50:00Z,56.68,12.82,8.0,-1.0,310,16,,6.21,30.147638,,,TRUE,,,,,,,,BKN,3600,,,,,,,VFR,,,,,,,,,,,,METAR,24.0
ESMS 300950Z 30016KT 9999 SCT035 09/M00 Q1021,ESMS,2023-04-30T09:50:00Z,55.53,13.37,9.0,0.0,300,16,,6.21,30.147638,,,,,,,,,,,SCT,3500,,,,,,,VFR,,,,,,,,,,,,METAR,68.0
ESMQ 300950Z AUTO 28013KT 9999 NCD 11/M06 Q1017,ESMQ,2023-04-30T09:50:00Z,56.68,16.3,11.0,-6.0,280,13,,6.21,30.029528,,,TRUE,,,,,,,,CLR,,,,,,,,VFR,,,,,,,,,,,,METAR,3.0
ESMK 300950Z 28015KT 9999 SCT046 10/M02 Q1020,ESMK,2023-04-30T09:50:00Z,55.92,14.08,10.0,-2.0,280,15,,6.21,30.11811,,,,,,,,,,,SCT,4600,,,,,,,VFR,,,,,,,,,,,,METAR,20.0
ESKS 300950Z AUTO 28011KT 9999 FEW059/// 04/M09 Q1011,ESKS,2023-04-30T09:50:00Z,61.17,12.83,4.0,-9.0,280,11,,6.21,29.852362,,,TRUE,,,,,,,,FEW,5900,,,,,,,VFR,,,,,,,,,,,,METAR,503.0
ESKN 300950Z 28019KT CAVOK 09/M05 Q1013,ESKN,2023-04-30T09:50:00Z,58.78,16.92,9.0,-5.0,280,19,,6.21,29.911417,,,,,,,,,,,CAVOK,,,,,,,,VFR,,,,,,,,,,,,METAR,41.0
ESKM 300950Z AUTO 27009KT 250V340 9999 NCD 08/M08 Q1012,ESKM,2023-04-30T09:50:00Z,60.97,14.52,8.0,-8.0,270,9,,6.21,29.88189,,,TRUE,,,,,,,,CLR,,,,,,,,VFR,,,,,,,,,,,,METAR,184.0
ESIB 300950Z AUTO 26010KT 9999 FEW058/// 08/M05 Q1017,ESIB,2023-04-30T09:50:00Z,58.42,12.7,8.0,-5.0,260,10,,6.21,30.029528,,,TRUE,,,,,,,,FEW,5800,,,,,,,VFR,,,,,,,,,,,,METAR,51.0
ESIA 300950Z 29009KT 260V320 CAVOK 08/M07 Q1016,ESIA,2023-04-30T09:50:00Z,58.52,14.5,8.0,-7.0,290,9,,6.21,30.0,,,,,,,,,,,CAVOK,,,,,,,,VFR,,,,,,,,,,,,METAR,94.0
ESGT 300950Z AUTO 27011KT 240V300 9999 R15///// R33///// BKN055/// 09/M04 Q1018,ESGT,2023-04-30T09:50:00Z,58.32,12.33,9.0,-4.0,270,11,,6.21,30.059055,,,TRUE,,,,,,,,BKN,5500,,,,,,,VFR,,,,,,,,,,,,SPECI,40.0
ESGP 300950Z 28015KT 9999 FEW045 09/M03 Q1019,ESGP,2023-04-30T09:50:00Z,57.77,11.87,9.0,-3.0,280,15,,6.21,30.088583,,,,,,,,,,,FEW,4500,,,,,,,VFR,,,,,,,,,,,,METAR,15.0
ESGJ 300950Z AUTO 30012KT 260V330 9999 NCD 08/M05 Q1017,ESGJ,2023-04-30T09:50:00Z,57.77,14.07,8.0,-5.0,300,12,,6.21,30.029528,,,TRUE,,,,,,,,CLR,,,,,,,,VFR,,,,,,,,,,,,METAR,224.0
ESGG 300950Z 28013KT 9999 SCT046 07/M04 Q1018,ESGG,2023-04-30T09:50:00Z,57.67,12.3,7.0,-4.0,280,13,,6.21,30.059055,,,,,,,,,,,SCT,4600,,,,,,,VFR,,,,,,,,,,,,METAR,152.0
ESDF 300950Z 29009KT 250V330 CAVOK 11/00 Q1018,ESDF,2023-04-30T09:50:00Z,56.27,15.27,11.0,0.0,290,9,,6.21,30.059055,,,,,,,,,,,CAVOK,,,,,,,,VFR,,,,,,,,,,,,METAR,52.0
ESCM 300950Z AUTO 32013KT 280V350 9999 FEW050/// SCT074/// 08/M01 Q1011,ESCM,2023-04-30T09:50:00Z,59.88,17.6,8.0,-1.0,320,13,,6.21,29.852362,,,TRUE,,,,,,,,FEW,5000,SCT,7400,,,,,VFR,,,,,,,,,,,,METAR,21.0
ESCF 300950Z AUTO 26016KT 9999 NCD 08/M04 Q1016,ESCF,2023-04-30T09:50:00Z,58.38,15.52,8.0,-4.0,260,16,,6.21,30.0,,,TRUE,,,,,,,,CLR,,,,,,,,VFR,,,,,,,,,,,,METAR,86.0
ENZV 300950Z 30008KT 9999 FEW029 SCT059 08/M00 Q1022,ENZV,2023-04-30T09:50:00Z,58.88,5.63,8.0,0.0,300,8,,6.21,30.177166,,,,,,,,,,,FEW,2900,SCT,5900,,,,,VFR,,,,,,,,,,,,METAR,7.0
ENWV 300950Z AUTO 16017KT 9999NDV OVC023/// 07/03 Q1022 W///S4,ENWV,2023-04-30T09:50:00Z,56.28,3.4,7.0,3.0,160,17,,,30.177166,,,TRUE,,,,,,,,OVC,2300,,,,,,,,,,,,,,,,,,,METAR,30.0
ENVD 300950Z AUTO 16009KT 9999 BKN029/// OVC037/// 05/M01 Q1009,ENVD,2023-04-30T09:50:00Z,70.07,29.85,5.0,-1.0,160,9,,6.21,29.793306,,,TRUE,,,,,,,,BKN,2900,OVC,3700,,,,,MVFR,,,,,,,,,,,,METAR,39.0
ENVA 300950Z 24019KT 8000 -RASN FEW006 BKN017 03/01 Q1011 TEMPO 2000 SHSNRAGS VV010 RMK WIND 670FT 25020G34KT,ENVA,2023-04-30T09:50:00Z,63.47,10.92,3.0,1.0,240,19,,4.97,29.852362,,,,,,,,,,-RA -SN,FEW,600,BKN,1700,,,,,MVFR,,,,,,,,,,,,METAR,12.0
ENUN 300950Z AUTO 29018KT 9999NDV FEW026/// SCT030/// 04/M01 Q1003 W07/S4,ENUN,2023-04-30T09:50:00Z,,,4.0,-1.0,290,18,,,29.616142,,,TRUE,,,,,,,,FEW,2600,SCT,3000,,,,,,,,,,,,,,,,,METAR,
ENUG 300950Z AUTO 15017G32KT 120V220 9999NDV BKN023/// 04/M02 Q1001 W///S4,ENUG,2023-04-30T09:50:00Z,71.3,22.25,4.0,-2.0,150,17,32,,29.557087,,,TRUE,,,,,,,,BKN,2300,,,,,,,,,,,,,,,,,,,METAR,30.0
ENTO 300950Z 30008KT 230V020 CAVOK 09/M08 Q1017 NOSIG,ENTO,2023-04-30T09:50:00Z,59.2,10.27,9.0,-8.0,300,8,,6.21,30.029528,,,,,,TRUE,,,,,CAVOK,,,,,,,,VFR,,,,,,,,,,,,METAR,84.0
ENTC 300950Z 18017KT 9000 -SHRASN BKN023 02/M00 Q1000 TEMPO 2000 SHRASN VV008 RMK WIND 2600FT 18035KT,ENTC,2023-04-30T09:50:00Z,69.68,18.92,2.0,0.0,180,17,,5.59,29.52756,,,,,,,,,,-SHRA -SHSN,BKN,2300,,,,,,,MVFR,,,,,,,,,,,,METAR,9.0
ENST 300950Z 21007KT 9999 VCSH FEW025 BKN035 05/M02 Q1006 RMK WIND 300FT 20007KT,ENST,2023-04-30T09:50:00Z,65.97,12.47,5.0,-2.0,210,7,,6.21,29.704725,,,,,,,,,,VCSH,FEW,2500,BKN,3500,,,,,VFR,,,0.7,,,,,,,,,METAR,17.0
ENSS 300950Z AUTO 15016KT 9999 NCD 04/M00 Q1010 RMK WIND 0500FT 15015KT,ENSS,2023-04-30T09:50:00Z,70.35,31.05,4.0,0.0,150,16,,6.21,29.822834,,,TRUE,,,,,,,,CLR,,,,,,,,VFR,,,,,,,,,,,,SPECI,13.0
ENSR 300950Z AUTO 13013KT 9999 BKN062/// OVC076/// 04/M02 Q1001 RMK WIND RWY32 12014KT WIND 1118FT 24010KT,ENSR,2023-04-30T09:50:00Z,69.78,20.97,4.0,-2.0,130,13,,6.21,29.557087,,,TRUE,,,,,,,,BKN,6200,OVC,7600,,,,,VFR,,,,,,,,,,,,METAR,5.0
ENSO 300950Z 30010KT 260V330 9999 FEW022 SCT040 BKN055 06/M01 Q1021,ENSO,2023-04-30T09:50:00Z,59.78,5.33,6.0,-1.0,300,10,,6.21,30.147638,,,,,,,,,,,FEW,2200,SCT,4000,BKN,5500,,,VFR,,,,,,,,,,,,METAR,48.0
ENSL 300950Z AUTO 16013KT 9999NDV OVC026/// 06/01 Q1021 W05/S4,ENSL,2023-04-30T09:50:00Z,58.37,1.9,6.0,1.0,160,13,,,30.147638,,,TRUE,,,,,,,,OVC,2600,,,,,,,,,,,,,,,,,,,METAR,50.0
ENSK 300950Z 21012KT 180V230 9999 SCT030 BKN045 05/M01 Q1001,ENSK,2023-04-30T09:50:00Z,68.57,15.02,5.0,-1.0,210,12,,6.21,29.557087,,,,,,,,,,,SCT,3000,BKN,4500,,,,,VFR,,,,,,,,,,,,METAR,3.0
ENSH 300950Z 21018KT 9999 FEW017 SCT026 05/00 Q1002 RMK WIND 0150FT 20023KT,ENSH,2023-04-30T09:50:00Z,68.25,14.67,5.0,0.0,210,18,,6.21,29.586615,,,,,,,,,,,FEW,1700,SCT,2600,,,,,VFR,,,2.3,,,,,,,,,METAR,9.0
ENSG 300950Z AUTO 23005KT 100V270 9999 -SN BKN019/// OVC053/// 01/M03 Q1016 RMK WIND 3806FT 26023KT,ENSG,2023-04-30T09:50:00Z,61.15,7.13,1.0,-3.0,230,5,,6.21,30.0,,,TRUE,,,,,,,-SN,BKN,1900,OVC,5300,,,,,MVFR,,,,,,,,,,,,METAR,493.0
ENSF 300950Z AUTO 28016KT 9999NDV BKN043/// ///// Q//// W///S5,ENSF,2023-04-30T09:50:00Z,61.25,1.85,,,280,16,,,,,,TRUE,,,,,,,,BKN,4300,,,,,,,,,,,,,,,,,,,METAR,15.0
ENSE 300950Z AUTO 28014KT //// OVC039/// 04/M04 Q1019 W///S5,ENSE,2023-04-30T09:50:00Z,61.45,2.15,4.0,-4.0,280,14,,,30.088583,,,TRUE,,,,,,,,OVC,3900,,,,,,,,,,,,,,,,,,,METAR,10.0
ENSD 300950Z 34007KT 290V020 9999 -RA FEW021 SCT028 BKN040 04/M00 Q1018 RMK WIND RWY26 VRB02KT WIND 1140FT VRB05KT,ENSD,2023-04-30T09:50:00Z,61.82,6.12,4.0,0.0,340,7,,6.21,30.059055,,,,,,,,,,-RA,FEW,2100,SCT,2800,BKN,4000,,,VFR,,,,,,,,,,,,METAR,61.0
ENSB 300950Z 03021G37KT 350V060 7000 DRSN FEW010 BKN020 M03/M07 Q1021 RMK WIND 1400FT 08013KT WIND THR28 12014KT,ENSB,2023-04-30T09:50:00Z,78.25,15.47,-3.0,-7.0,30,21,37,4.35,30.147638,,,,,,,,,,DRSN,FEW,1000,BKN,2000,,,,,MVFR,,,,,,,,,,,,METAR,30.0
ENRY 300950Z AUTO 28011KT 250V330 9999 NCD 09/M08 Q1017,ENRY,2023-04-30T09:50:00Z,59.37,10.77,9.0,-8.0,280,11,,6.21,30.029528,,,TRUE,,,,,,,,CLR,,,,,,,,VFR,,,,,,,,,,,,METAR,45.0
ENRS 300950Z AUTO 22015KT 9999 SCT025/// BKN045/// 07/00 Q1003,ENRS,2023-04-30T09:50:00Z,67.52,12.1,7.0,0.0,220,15,,6.21,29.616142,,,TRUE,,,,,,,,SCT,2500,BKN,4500,,,,,VFR,,,,,,,,,,,,METAR,4.0
ENRO 300950Z AUTO 26010KT 190V320 9999 FEW038/// 02/M07 Q1009,ENRO,2023-04-30T09:50:00Z,62.57,11.33,2.0,-7.0,260,10,,6.21,29.793306,,,TRUE,,,,,,,,FEW,3800,,,,,,,VFR,,,,,,,,,,,,METAR,624.0
ENRM 300950Z AUTO 31009KT 270V350 9999 BKN022/// 06/01 Q1007,ENRM,2023-04-30T09:50:00Z,64.83,11.13,6.0,1.0,310,9,,6.21,29.734253,,,TRUE,,,,,,,,BKN,2200,,,,,,,MVFR,,,,,,,,,,,,METAR,4.0
ENRA 300950Z 36005KT 9999 VCSH FEW030 BKN040 05/M03 Q1005,ENRA,2023-04-30T09:50:00Z,66.37,14.3,5.0,-3.0,360,5,,6.21,29.675198,,,,,,,,,,VCSH,FEW,3000,BKN,4000,,,,,VFR,,,,,,,,,,,,METAR,66.0
ENQR 300950Z AUTO 26014KT 9999NDV OVC039/// 04/M04 Q1018 W08/S5,ENQR,2023-04-30T09:50:00Z,61.52,2.22,4.0,-4.0,260,14,,,30.059055,,,TRUE,,,,,,,,OVC,3900,,,,,,,,,,,,,,,,,,,METAR,10.0
ENQC 300950Z AUTO 25011KT 9999NDV OVC038/// 05/M02 Q1019 W///S5,ENQC,2023-04-30T09:50:00Z,60.88,3.62,5.0,-2.0,250,11,,,30.088583,,,TRUE,,,,,,,,OVC,3800,,,,,,,,,,,,,,,,,,,METAR,20.0
ENQA 300950Z AUTO 28013KT 9999NDV OVC050/// 05/M03 Q1020 W10/S5,ENQA,2023-04-30T09:50:00Z,60.65,3.72,5.0,-3.0,280,13,,,30.11811,,,TRUE,,,,,,,,OVC,5000,,,,,,,,,,,,,,,,,,,METAR,90.0
ENOV 300950Z 23009KT 9999 SHRASN FEW010 SCT019 BKN026 02/M00 Q1017 RMK WIND RWY24 22009KT WIND 2090FT 22013KT,ENOV,2023-04-30T09:50:00Z,62.17,6.07,2.0,0.0,230,9,,6.21,30.029528,,,,,,,,,,SHRA SHSN,FEW,1000,SCT,1900,BKN,2600,,,MVFR,,,,,,,,,,,,METAR,72.0
ENOL 300950Z 28022KT 9999 VCSH FEW010 BKN020CB 04/02 Q1010 RESHRAGS TEMPO 25028G38KT 1200 SHSNRAGS VV008,ENOL,2023-04-30T09:50:00Z,63.7,9.6,4.0,2.0,280,22,,6.21,29.822834,,,,,,,,,,VCSH,FEW,1000,BKN,2000,,,,,MVFR,,,,,,,,,,,,METAR,9.0
ENOA 300950Z 28011KT 9999 FEW030 BKN035 05/M02 Q1020 W///S5,ENOA,2023-04-30T09:50:00Z,60.5,2.83,5.0,-2.0,280,11,,6.21,30.11811,,,,,,,,,,,FEW,3000,BKN,3500,,,,,VFR,,,,,,,,,,,,METAR,5.0
ENNM 300950Z 23010KT 200V260 9999 SCT015 BKN023 05/02 Q1007,ENNM,2023-04-30T09:50:00Z,64.47,11.57,5.0,2.0,230,10,,6.21,29.734253,,,,,,,,,,,SCT,1500,BKN,2300,,,,,MVFR,,,,,,,,,,,,METAR,2.0
ENNA 300950Z 19020KT 9999 SCT031 SCT043 04/M04 Q1005 RMK WIND 1800FT 19025KT,ENNA,2023-04-30T09:50:00Z,70.07,24.97,4.0,-4.0,190,20,,6.21,29.675198,,,,,,,,,,,SCT,3100,SCT,4300,,,,,VFR,,,,,,,,,,,,METAR,12.0
ENMS 300950Z AUTO 16007KT 110V210 9999 ///////// 06/M04 Q1005 RMK WIND 412FT VRB05KT,ENMS,2023-04-30T09:50:00Z,65.78,13.22,6.0,-4.0,160,7,,6.21,29.675198,,,TRUE,,,,,,,,,,,,,,,,,,,,,,,,,,,,METAR,44.0
ENML 300950Z 23018KT 7000 SHRASN SCT009 BKN018 03/02 Q1015,ENML,2023-04-30T09:50:00Z,62.75,7.27,3.0,2.0,230,18,,4.35,29.970472,,,,,,,,,,SHRA SHSN,SCT,900,BKN,1800,,,,,MVFR,,,,,,,,,,,,METAR,3.0
ENMH 300950Z AUTO 16018KT 9999 FEW025/// 04/M02 Q1007,ENMH,2023-04-30T09:50:00Z,71.02,27.82,4.0,-2.0,160,18,,6.21,29.734253,,,TRUE,,,,,,,,FEW,2500,,,,,,,VFR,,,,,,,,,,,,METAR,10.0
ENLK 300950Z 28005KT 240V300 9999 VCSH SCT035TCU SCT050 05/M01 Q1002,ENLK,2023-04-30T09:50:00Z,68.15,13.62,5.0,-1.0,280,5,,6.21,29.586615,,,,,,,,,,VCSH,SCT,3500,SCT,5000,,,,,VFR,,,,,,,,,,,,METAR,26.0
ENLE 300950Z 14016KT 9999 SCT020 BKN035 06/02 Q1022 W08/S4,ENLE,2023-04-30T09:50:00Z,56.53,3.22,6.0,2.0,140,16,,6.21,30.177166,,,,,,,,,,,SCT,2000,BKN,3500,,,,,VFR,,,,,,,,,,,,METAR,10.0
ENLA 300950Z AUTO 15015KT 9999NDV OVC034/// 07/02 Q1021 W///S4,ENLA,2023-04-30T09:50:00Z,57.1,2.83,7.0,2.0,150,15,,,30.147638,,,TRUE,,,,,,,,OVC,3400,,,,,,,,,,,,,,,,,,,METAR,10.0
ENKR 300950Z 17015KT 9999 FEW029 05/M02 Q1008 RMK WIND 731FT 17022KT,ENKR,2023-04-30T09:50:00Z,69.72,29.88,5.0,-2.0,170,15,,6.21,29.763779,,,,,,,,,,,FEW,2900,,,,,,,VFR,,,,,,,,,,,,METAR,86.0
ENKB 300950Z 26024KT 8000 SHSN FEW010CB SCT015 BKN032 03/01 Q1014 RMK WIND 745FT 27028G41KT,ENKB,2023-04-30T09:50:00Z,63.12,7.82,3.0,1.0,260,24,,4.97,29.940945,,,,,,,,,,SHSN,FEW,1000,SCT,1500,BKN,3200,,,MVFR,,,,,,,,,,,,METAR,62.0
ENJS 300950Z 19006KT 9999 FEW030 BKN100 07/M01 Q1022 W07/S/,ENJS,2023-04-30T09:50:00Z,,,7.0,-1.0,190,6,,6.21,30.177166,,,,,,,,,,,FEW,3000,BKN,10000,,,,,VFR,,,,,,,,,,,,METAR,
ENHV 300950Z AUTO 14018KT 110V170 9999 SCT026/// 04/M02 Q1006,ENHV,2023-04-30T09:50:00Z,71.02,25.97,4.0,-2.0,140,18,,6.21,29.704725,,,TRUE,,,,,,,,SCT,2600,,,,,,,VFR,,,,,,,,,,,,METAR,13.0
ENHM 300950Z AUTO 23005KT //// FEW047/// 05/M03 Q1021 W08/S/,ENHM,2023-04-30T09:50:00Z,59.57,2.23,5.0,-3.0,230,5,,,30.147638,,,TRUE,,,,,,,,FEW,4700,,,,,,,,,,,,,,,,,,,METAR,10.0
ENHK 300950Z AUTO 13014KT 9999 NCD 04/M03 Q1002,ENHK,2023-04-30T09:50:00Z,70.48,22.13,4.0,-3.0,130,14,,6.21,29.586615,,,TRUE,,,,,,,,CLR,,,,,,,,VFR,,,,,,,,,,,,METAR,6.0
ENHF 300950Z 16010KT 120V210 9999 FEW027 02/M04 Q1003 RMK WIND 1254FT 16028KT,ENHF,2023-04-30T09:50:00Z,70.67,23.67,2.0,-4.0,160,10,,6.21,29.616142,,,,,,,,,,,FEW,2700,,,,,,,VFR,,,,,,,,,,,,METAR,79.0
ENHE 300950Z 28020KT 9999 SCT020TCU 05/01 Q1006 W///S4,ENHE,2023-04-30T09:50:00Z,65.33,2.33,5.0,1.0,280,20,,6.21,29.704725,,,,,,,,,,,SCT,2000,,,,,,,VFR,,,,,,,,,,,,SPECI,10.0
ENHD 300950Z 27006KT 9999 FEW035 BKN060 07/M02 Q1021,ENHD,2023-04-30T09:50:00Z,59.35,5.22,7.0,-2.0,270,6,,6.21,30.147638,,,,,,,,,,,FEW,3500,BKN,6000,,,,,VFR,,,,,,,,,,,,METAR,22.0
ENGM 300950Z 31007KT 240V360 9999 FEW030 08/M08 Q1015 NOSIG,ENGM,2023-04-30T09:50:00Z,60.2,11.07,8.0,-8.0,310,7,,6.21,29.970472,,,,,,TRUE,,,,,FEW,3000,,,,,,,VFR,,,,,,,,,,,,METAR,204.0
ENGC 300950Z 29016KT 9999 SCT035 BKN045 04/M04 Q1019 W04/S5,ENGC,2023-04-30T09:50:00Z,61.02,2.02,4.0,-4.0,290,16,,6.21,30.088583,,,,,,,,,,,SCT,3500,BKN,4500,,,,,VFR,,,,,,,,,,,,METAR,10.0
ENFL 300950Z 29015KT 9999 -SHRA FEW020CB SCT030TCU BKN050 04/00 Q1019,ENFL,2023-04-30T09:50:00Z,61.57,5.02,4.0,0.0,290,15,,6.21,30.088583,,,,,,,,,,-SHRA,FEW,2000,SCT,3000,BKN,5000,,,VFR,,,,,,,,,,,,METAR,1.0
ENFB 300950Z AUTO 28013KT 9999NDV BKN049/// 05/M04 Q1020 W///S5,ENFB,2023-04-30T09:50:00Z,61.2,1.83,5.0,-4.0,280,13,,,30.11811,,,TRUE,,,,,,,,BKN,4900,,,,,,,,,,,,,,,,,,,METAR,10.0
ENEV 300950Z 20012KT 170V240 9999 BKN027 05/00 Q1003 RMK WIND 1400FT 21021KT,ENEV,2023-04-30T09:50:00Z,68.48,16.67,5.0,0.0,200,12,,6.21,29.616142,,,,,,,,,,,BKN,2700,,,,,,,MVFR,,,-2.1,,,,,,,,,METAR,26.0
ENDU 300950Z 20009KT 170V240 9999 VCSH FEW030 SCT045 BKN100 04/M00 Q1001 TEMPO 21015G25KT RMK WIND 1100FT 20021KT WIND 2200FT 21024KT,ENDU,2023-04-30T09:50:00Z,69.05,18.55,4.0,0.0,200,9,,6.21,29.557087,,,,,,,,,,VCSH,FEW,3000,SCT,4500,BKN,10000,,,VFR,,,-1.5,,,,,,,,,METAR,65.0
ENDR 300950Z AUTO 27030KT 250V360 9999NDV -SHRA BKN015/// 04/01 Q1009 W///S5,ENDR,2023-04-30T09:50:00Z,64.35,7.77,4.0,1.0,270,30,,,29.793306,,,TRUE,,,,,,,-SHRA,BKN,1500,,,,,,,,,,,,,,,,,,,SPECI,10.0
ENCN 300950Z 33009KT 280V360 9999 BKN049 09/M05 Q1020,ENCN,2023-04-30T09:50:00Z,58.2,8.07,9.0,-5.0,330,9,,6.21,30.11811,,,,,,,,,,,BKN,4900,,,,,,,VFR,,,,,,,,,,,,METAR,17.0
ENBV 300950Z AUTO 16017KT 9999 NCD 05/M02 Q1008,ENBV,2023-04-30T09:50:00Z,70.87,29.02,5.0,-2.0,160,17,,6.21,29.763779,,,TRUE,,,,,,,,CLR,,,,,,,,VFR,,,,,,,,,,,,METAR,13.0
ENBS 300950Z AUTO 15022KT 9999 NCD 02/M02 Q1008,ENBS,2023-04-30T09:50:00Z,70.62,29.68,2.0,-2.0,150,22,,6.21,29.763779,,,TRUE,,,,,,,,CLR,,,,,,,,VFR,,,,,,,,,,,,METAR,144.0
ENBR 300950Z 30006KT 190V320 9999 SCT031 BKN039 06/M00 Q1020 NOSIG RMK WIND 1200FT 29012KT,ENBR,2023-04-30T09:50:00Z,60.28,5.22,6.0,0.0,300,6,,6.21,30.11811,,,,,,TRUE,,,,,SCT,3100,BKN,3900,,,,,VFR,,,,,,,,,,,,METAR,49.0
ENBO 300950Z 24013KT 9999 FEW024 SCT035 06/M00 Q1005 NOSIG,ENBO,2023-04-30T09:50:00Z,67.27,14.37,6.0,0.0,240,13,,6.21,29.675198,,,,,,TRUE,,,,,FEW,2400,SCT,3500,,,,,VFR,,,,,,,,,,,,METAR,13.0
ENBN 300950Z AUTO 22009KT 190V260 9999NDV FEW012/// OVC027/// 04/01 Q1006,ENBN,2023-04-30T09:50:00Z,65.47,12.22,4.0,1.0,220,9,,,29.704725,,,TRUE,,,,,,,,FEW,1200,OVC,2700,,,,,,,,,,,,,,,,,METAR,3.0
ENBL 300950Z 24004KT 200V270 7000 3500E -SHSN FEW004 SCT012 BKN025 01/M01 Q1017,ENBL,2023-04-30T09:50:00Z,61.4,5.77,1.0,-1.0,240,4,,4.35,30.029528,,,,,,,,,,-SHSN,FEW,400,SCT,1200,BKN,2500,,,MVFR,,,,,,,,,,,,METAR,313.0
ENAT 300950Z 16015KT 9999 BKN033 03/M04 Q1003 RMK WIND 700FT 18022KT,ENAT,2023-04-30T09:50:00Z,69.97,23.37,3.0,-4.0,160,15,,6.21,29.616142,,,,,,,,,,,BKN,3300,,,,,,,VFR,,,,,,,,,,,,METAR,3.0
ENAN 300950Z 22013KT 4500 RASN SCT005 BKN011 01/M00 Q1000,ENAN,2023-04-30T09:50:00Z,69.3,16.13,1.0,0.0,220,13,,2.8,29.52756,,,,,,,,,,RA SN,SCT,500,BKN,1100,,,,,IFR,,,,,,,,,,,,METAR,13.0
ENAL 300950Z 26017KT 9999 -RA SCT019 BKN053 04/01 Q1016,ENAL,2023-04-30T09:50:00Z,62.57,6.12,4.0,1.0,260,17,,6.21,30.0,,,,,,,,,,-RA,SCT,1900,BKN,5300,,,,,VFR,,,,,,,,,,,,METAR,21.0
ELLX 300950Z 06010KT 020V110 9999 BKN039 13/06 Q1021 NOSIG,ELLX,2023-04-30T09:50:00Z,49.63,6.2,13.0,6.0,60,10,,6.21,30.147638,,,,,,TRUE,,,,,BKN,3900,,,,,,,VFR,,,,,,,,,,,,METAR,374.0
EKYT 300950Z AUTO 30013KT 260V330 9999 BKN039/// 07/M01 Q1022,EKYT,2023-04-30T09:50:00Z,57.1,9.87,7.0,-1.0,300,13,,6.21,30.177166,,,TRUE,,,,,,,,BKN,3900,,,,,,,VFR,,,,,,,,,,,,METAR,2.0
EKVG 300950Z AUTO 05005KT 9999 OVC100/// 02/M05 Q1020 RMK FEW140/// WIND SKEID 03006KT 360V070,EKVG,2023-04-30T09:50:00Z,62.07,-7.27,2.0,-5.0,50,5,,6.21,30.11811,,,TRUE,,,,,,,,OVC,10000,,,,,,,VFR,,,,,,,,,,,,SPECI,89.0
EKVD 300950Z 30010KT 260V330 9999 BKN042 10/M01 Q1024,EKVD,2023-04-30T09:50:00Z,55.43,9.32,10.0,-1.0,300,10,,6.21,30.236221,,,,,,,,,,,BKN,4200,,,,,,,VFR,,,,,,,,,,,,METAR,41.0
EKSP 300950Z 28007KT 250V340 9999 BKN032 08/00 Q1024,EKSP,2023-04-30T09:50:00Z,55.22,9.27,8.0,0.0,280,7,,6.21,30.236221,,,,,,,,,,,BKN,3200,,,,,,,VFR,,,,,,,,,,,,METAR,40.0
EKSB 300950Z AUTO 32008KT 9999 BKN041/// 09/M00 Q1024,EKSB,2023-04-30T09:50:00Z,54.97,9.8,9.0,0.0,320,8,,6.21,30.236221,,,TRUE,,,,,,,,BKN,4100,,,,,,,VFR,,,,,,,,,,,,METAR,23.0
EKRS 300950Z AUTO 31010KT 250V050 9999 BKN038/// 08/00 Q1023,EKRS,2023-04-30T09:50:00Z,55.42,11.8,8.0,0.0,310,10,,6.21,30.206694,,,TRUE,,,,,,,,BKN,3800,,,,,,,VFR,,,,,,,,,,,,METAR,34.0
EKRN 300950Z AUTO 27013KT 9999 NCD 08/03 Q1022,EKRN,2023-04-30T09:50:00Z,55.07,14.75,8.0,3.0,270,13,,6.21,30.177166,,,TRUE,,,,,,,,CLR,,,,,,,,VFR,,,,,,,,,,,,METAR,14.0
EKRK 300950Z 31013KT 9999 BKN035 07/M00 Q1023,EKRK,2023-04-30T09:50:00Z,55.58,12.13,7.0,0.0,310,13,,6.21,30.206694,,,,,,,,,,,BKN,3500,,,,,,,VFR,,,,,,,,,,,,METAR,40.0
EKOD 300950Z 26010KT 230V290 9999 SCT039 BKN044 08/M01 Q1024,EKOD,2023-04-30T09:50:00Z,55.47,10.32,8.0,-1.0,260,10,,6.21,30.236221,,,,,,,,,,,SCT,3900,BKN,4400,,,,,VFR,,,,,,,,,,,,METAR,13.0
EKKA 300950Z AUTO 31013KT 9999 BKN039/// 09/M01 Q1023,EKKA,2023-04-30T09:50:00Z,56.3,9.12,9.0,-1.0,310,13,,6.21,30.206694,,,TRUE,,,,,,,,BKN,3900,,,,,,,VFR,,,,,,,,,,,,METAR,50.0
EKEB 300950Z AUTO 30005KT 240V330 9999 SCT041/// 09/00 Q1024,EKEB,2023-04-30T09:50:00Z,55.52,8.55,9.0,0.0,300,5,,6.21,30.236221,,,TRUE,,,,,,,,SCT,4100,,,,,,,VFR,,,,,,,,,,,,METAR,29.0
EKCH 300950Z AUTO 30014KT 270V330 9999 SCT040/// 09/M00 Q1022 NOSIG,EKCH,2023-04-30T09:50:00Z,55.62,12.67,9.0,0.0,300,14,,6.21,30.177166,,,TRUE,,,TRUE,,,,,SCT,4000,,,,,,,VFR,,,,,,,,,,,,METAR,4.0
EKBI 300950Z AUTO 31009KT 290V350 9999 BKN039/// 08/M01 Q1024,EKBI,2023-04-30T09:50:00Z,55.73,9.15,8.0,-1.0,310,9,,6.21,30.236221,,,TRUE,,,,,,,,BKN,3900,,,,,,,VFR,,,,,,,,,,,,METAR,67.0
EKAH 300950Z AUTO 28017KT 250V310 9999 BKN043/// 10/M02 Q1023,EKAH,2023-04-30T09:50:00Z,56.28,10.62,10.0,-2.0,280,17,,6.21,30.206694,,,TRUE,,,,,,,,BKN,4300,,,,,,,VFR,,,,,,,,,,,,METAR,25.0
EGYP 300950Z 22013KT 9999 FEW010 SCT060 02/00 Q0996,EGYP,2023-04-30T09:50:00Z,-51.82,-58.45,2.0,0.0,220,13,,6.21,29.409449,,,,,,,,,,,FEW,1000,SCT,6000,,,,,VFR,,,,,,,,,,,,METAR,70.0
EGYM 300950Z AUTO 19009KT 9999 FEW019/// 15/09 Q1022,EGYM,2023-04-30T09:50:00Z,52.63,0.57,15.0,9.0,190,9,,6.21,30.177166,,,TRUE,,,,,,,,FEW,1900,,,,,,,VFR,,,,,,,,,,,,METAR,25.0
EGYH 300950Z AUTO 21012KT 9999 FEW022/// BKN097/// 14/09 Q1021,EGYH,2023-04-30T09:50:00Z,52.87,0.15,14.0,9.0,210,12,,6.21,30.147638,,,TRUE,,,,,,,,FEW,2200,BKN,9700,,,,,VFR,,,,,,,,,,,,METAR,5.0
EGYE 300950Z AUTO 19009KT //// ///////// ///// Q////,EGYE,2023-04-30T09:50:00Z,52.97,-0.57,,,190,9,,,,,,TRUE,,,,,,,,,,,,,,,,,,,,,,,,,,,,METAR,105.0
EGYD 300950Z AUTO 19013KT 9999 FEW100/// 14/10 Q1020,EGYD,2023-04-30T09:50:00Z,53.03,-0.5,14.0,10.0,190,13,,6.21,30.11811,,,TRUE,,,,,,,,FEW,10000,,,,,,,VFR,,,,,,,,,,,,METAR,65.0
EGXZ 300950Z AUTO 17007KT 7000 BR FEW008/// SCT071/// 13/11 Q1019,EGXZ,2023-04-30T09:50:00Z,54.2,-1.38,13.0,11.0,170,7,,4.35,30.088583,,,TRUE,,,,,,,BR,FEW,800,SCT,7100,,,,,MVFR,,,,,,,,,,,,METAR,24.0
EGXW 300950Z AUTO 20013KT 9999 FEW100/// 15/09 Q1020,EGXW,2023-04-30T09:50:00Z,53.18,-0.52,15.0,9.0,200,13,,6.21,30.11811,,,TRUE,,,,,,,,FEW,10000,,,,,,,VFR,,,,,,,,,,,,METAR,70.0
EGXV 300950Z AUTO 19008KT 9999 BR FEW064/// BKN093/// 13/09 Q1019,EGXV,2023-04-30T09:50:00Z,53.87,-0.45,13.0,9.0,190,8,,6.21,30.088583,,,TRUE,,,,,,,BR,FEW,6400,BKN,9300,,,,,VFR,,,,,,,,,,,,METAR,6.0
EGXT 300950Z AUTO 18010KT 9999 FEW025/// 14/09 Q1021,EGXT,2023-04-30T09:50:00Z,52.62,-0.47,14.0,9.0,180,10,,6.21,30.147638,,,TRUE,,,,,,,,FEW,2500,,,,,,,VFR,,,,,,,,,,,,METAR,74.0
EGXS 300950Z AUTO 18008KT 7000 BR OVC098/// 13/11 Q1020,EGXS,2023-04-30T09:50:00Z,53.48,0.15,13.0,11.0,180,8,,4.35,30.11811,,,TRUE,,,,,,,BR,OVC,9800,,,,,,,MVFR,,,,,,,,,,,,METAR,6.0
EGXE 300950Z AUTO 16010KT 4800 BR FEW006/// SCT068/// 12/10 Q1019,EGXE,2023-04-30T09:50:00Z,54.28,-1.52,12.0,10.0,160,10,,2.98,30.088583,,,TRUE,,,,,,,BR,FEW,600,SCT,6800,,,,,IFR,,,,,,,,,,,,METAR,30.0
EGXC 300950Z 19011KT CAVOK 14/10 Q1021 NOSIG RMK BLU BLU,EGXC,2023-04-30T09:50:00Z,53.1,-0.17,14.0,10.0,190,11,,6.21,30.147638,,,,,,TRUE,,,,,CAVOK,,,,,,,,VFR,,,,,,,,,,,,SPECI,9.0
EGWU 300950Z 20009KT 9999 FEW028 BKN170 16/08 Q1021 NOSIG RMK BLU BLU,EGWU,2023-04-30T09:50:00Z,51.55,-0.42,16.0,8.0,200,9,,6.21,30.147638,,,,,,TRUE,,,,,FEW,2800,BKN,17000,,,,,VFR,,,,,,,,,,,,SPECI,33.0
EGWC 300950Z AUTO 17009KT //// ///////// ///// Q////,EGWC,2023-04-30T09:50:00Z,52.63,-2.3,,,170,9,,,,,,TRUE,,,,,,,,,,,,,,,,,,,,,,,,,,,,SPECI,79.0
EGVP 300950Z AUTO 16012KT 9999 SCT015/// SCT100/// 13/08 Q1021,EGVP,2023-04-30T09:50:00Z,51.13,-1.57,13.0,8.0,160,12,,6.21,30.147638,,,TRUE,,,,,,,,SCT,1500,SCT,10000,,,,,VFR,,,,,,,,,,,,METAR,80.0
EGVO 300950Z AUTO 16009KT 9999 BKN020/// 14/09 Q1021,EGVO,2023-04-30T09:50:00Z,51.23,-0.95,14.0,9.0,160,9,,6.21,30.147638,,,TRUE,,,,,,,,BKN,2000,,,,,,,MVFR,,,,,,,,,,,,METAR,118.0
EGVN 300950Z 19007KT 9999 FEW022 BKN080 13/07 Q1021 NOSIG RMK BLU BLU,EGVN,2023-04-30T09:50:00Z,51.77,-1.58,13.0,7.0,190,7,,6.21,30.147638,,,,,,TRUE,,,,,FEW,2200,BKN,8000,,,,,VFR,,,,,,,,,,,,SPECI,83.0
EGUW 300950Z AUTO 19009KT 9999 NCD 14/08 Q1022,EGUW,2023-04-30T09:50:00Z,52.12,0.97,14.0,8.0,190,9,,6.21,30.177166,,,TRUE,,,,,,,,CLR,,,,,,,,VFR,,,,,,,,,,,,METAR,86.0
EGUB 300950Z AUTO 18010KT 9999 NCD 13/09 Q1021,EGUB,2023-04-30T09:50:00Z,51.62,-1.08,13.0,9.0,180,10,,6.21,30.147638,,,TRUE,,,,,,,,CLR,,,,,,,,VFR,,,,,,,,,,,,METAR,56.0
EGTK 300950Z 17012KT 9000 FEW040 13/07 Q1021,EGTK,2023-04-30T09:50:00Z,51.83,-1.32,13.0,7.0,170,12,,5.59,30.147638,,,,,,,,,,,FEW,4000,,,,,,,VFR,,,,,,,,,,,,METAR,78.0
EGTE 300950Z 16006KT 6000 BKN010 12/10 Q1021,EGTE,2023-04-30T09:50:00Z,50.73,-3.42,12.0,10.0,160,6,,3.73,30.147638,,,,,,,,,,,BKN,1000,,,,,,,MVFR,,,,,,,,,,,,METAR,30.0
EGTC 300950Z 18008KT 140V220 9999 FEW025 14/08 Q1021,EGTC,2023-04-30T09:50:00Z,52.07,-0.62,14.0,8.0,180,8,,6.21,30.147638,,,,,,,,,,,FEW,2500,,,,,,,VFR,,,,,,,,,,,,METAR,110.0
EGSY 300950Z 12006KT 090V150 1200 -SHRA BR OVC002 10/10 Q1021,EGSY,2023-04-30T09:50:00Z,51.4,-3.43,10.0,10.0,120,6,,0.75,30.147638,,,,,,,,,,-SHRA BR,OVC,200,,,,,,,LIFR,,,,,,,,,,,,METAR,46.0
EGSS 300950Z AUTO 17010KT 9999 NCD 15/09 Q1022,EGSS,2023-04-30T09:50:00Z,51.88,0.22,15.0,9.0,170,10,,6.21,30.177166,,,TRUE,,,,,,,,CLR,,,,,,,,VFR,,,,,,,,,,,,METAR,101.0
EGSH 300950Z 19007KT 130V260 9999 FEW025 16/09 Q1022,EGSH,2023-04-30T09:50:00Z,52.68,1.28,16.0,9.0,190,7,,6.21,30.177166,,,,,,,,,,,FEW,2500,,,,,,,VFR,,,,,,,,,,,,METAR,21.0
EGQS 300950Z 13007KT 9999 FEW022 SCT055 BKN085 12/08 Q1015 NOSIG RMK BLU BLU,EGQS,2023-04-30T09:50:00Z,57.72,-3.32,12.0,8.0,130,7,,6.21,29.970472,,,,,,TRUE,,,,,FEW,2200,SCT,5500,BKN,8500,,,VFR,,,,,,,,,,,,METAR,6.0
EGQM 300950Z AUTO 17010KT 3000 -RA SCT003/// OVC042/// 10/09 Q1018,EGQM,2023-04-30T09:50:00Z,55.42,-1.6,10.0,9.0,170,10,,1.86,30.059055,,,TRUE,,,,,,,-RA,SCT,300,OVC,4200,,,,,IFR,,,,,,,,,,,,METAR,24.0
EGQL 300950Z 05003KT 9999 -SHRA BKN008 BKN017 ////// 10/09 Q1017 RMK GRN,EGQL,2023-04-30T09:50:00Z,56.38,-2.87,10.0,9.0,50,3,,6.21,30.029528,,,,,,,,,,-SHRA,BKN,800,BKN,1700,,,,,IFR,,,,,,,,,,,,METAR,11.0
EGQK 300950Z AUTO 09003KT 9999 BKN052/// BKN083/// 12/08 Q1015,EGQK,2023-04-30T09:50:00Z,57.65,-3.57,12.0,8.0,90,3,,6.21,29.970472,,,TRUE,,,,,,,,BKN,5200,BKN,8300,,,,,VFR,,,,,,,,,,,,METAR,5.0
EGQA 300950Z AUTO 09004KT 9999 OVC088/// 11/06 Q1015,EGQA,2023-04-30T09:50:00Z,57.83,-3.95,11.0,6.0,90,4,,6.21,29.970472,,,TRUE,,,,,,,,OVC,8800,,,,,,,VFR,,,,,,,,,,,,METAR,4.0
EGPU 300950Z AUTO 14014KT 3500 RA OVC002/// 09/09 Q////,EGPU,2023-04-30T09:50:00Z,56.5,-6.88,9.0,9.0,140,14,,2.17,,,,TRUE,,,,,,,RA,OVC,200,,,,,,,LIFR,,,,,,,,,,,,METAR,12.0
EGPO 300950Z AUTO 13003KT 9999 OVC010/// 10/08 Q1014,EGPO,2023-04-30T09:50:00Z,58.22,-6.32,10.0,8.0,130,3,,6.21,29.940945,,,TRUE,,,,,,,,OVC,1000,,,,,,,MVFR,,,,,,,,,,,,METAR,10.0
EGPN 300950Z 00000KT 8000 -DZ BKN009 09/07 Q1017,EGPN,2023-04-30T09:50:00Z,56.45,-3.02,9.0,7.0,0,0,,4.97,30.029528,,,,,,,,,,-DZ,BKN,900,,,,,,,IFR,,,,,,,,,,,,METAR,4.0
EGPL 300950Z AUTO 17011KT 9999 -RA OVC001/// 11/10 Q1013,EGPL,2023-04-30T09:50:00Z,57.47,-7.37,11.0,10.0,170,11,,6.21,29.911417,,,TRUE,,,,,,,-RA,OVC,100,,,,,,,LIFR,,,,,,,,,,,,METAR,3.0
EGPK 300950Z 15009KT 9999 FEW011 BKN016 12/10 Q1016,EGPK,2023-04-30T09:50:00Z,55.5,-4.58,12.0,10.0,150,9,,6.21,30.0,,,,,,,,,,,FEW,1100,BKN,1600,,,,,MVFR,,,,,,,,,,,,METAR,14.0
EGPI 300950Z AUTO 16008KT 3000 BR OVC001/// 10/10 Q1015,EGPI,2023-04-30T09:50:00Z,55.68,-6.25,10.0,10.0,160,8,,1.86,29.970472,,,TRUE,,,,,,,BR,OVC,100,,,,,,,LIFR,,,,,,,,,,,,METAR,17.0
EGPH 300950Z 05005KT 7000 VCSH BKN003 10/09 Q1016,EGPH,2023-04-30T09:50:00Z,55.95,-3.35,10.0,9.0,50,5,,4.35,30.0,,,,,,,,,,VCSH,BKN,300,,,,,,,LIFR,,,,,,,,,,,,METAR,29.0
EGPF 300950Z AUTO 07005KT 040V100 4300 -DZ OVC004 09/08 Q1016 RERA REDZ,EGPF,2023-04-30T09:50:00Z,55.87,-4.42,9.0,8.0,70,5,,2.67,30.0,,,TRUE,,,,,,,-DZ,OVC,400,,,,,,,LIFR,,,,,,,,,,,,METAR,8.0
EGPE 300950Z 00000KT 9999 VCSH FEW012 SCT036 09/07 Q1015,EGPE,2023-04-30T09:50:00Z,57.53,-4.05,9.0,7.0,0,0,,6.21,29.970472,,,,,,,,,,VCSH,FEW,1200,SCT,3600,,,,,VFR,,,,,,,,,,,,METAR,7.0
EGPD 300950Z 17011KT 5000 -RADZ BR OVC004 08/07 Q1017,EGPD,2023-04-30T09:50:00Z,57.2,-2.22,8.0,7.0,170,11,,3.11,30.029528,,,,,,,,,,-RA -DZ BR,OVC,400,,,,,,,LIFR,,,,,,,,,,,,METAR,65.0
EGPC 300950Z AUTO 14011KT 9999 BKN025/// OVC030/// 09/07 Q1016,EGPC,2023-04-30T09:50:00Z,58.45,-3.08,9.0,7.0,140,11,,6.21,30.0,,,TRUE,,,,,,,,BKN,2500,OVC,3000,,,,,MVFR,,,,,,,,,,,,METAR,38.0
EGPB 300950Z 15007KT 9999 FEW030 BKN036 07/M00 Q1019,EGPB,2023-04-30T09:50:00Z,59.87,-1.3,7.0,0.0,150,7,,6.21,30.088583,,,,,,,,,,,FEW,3000,BKN,3600,,,,,VFR,,,,,,,,,,,,METAR,2.0
EGPA 300950Z 14011KT 9999 -RA BKN005 OVC010 08/06 Q1016,EGPA,2023-04-30T09:50:00Z,58.95,-2.9,8.0,6.0,140,11,,6.21,30.0,,,,,,,,,,-RA,BKN,500,OVC,1000,,,,,IFR,,,,,,,,,,,,METAR,15.0
EGOV 300950Z AUTO 20014KT 9999 // SCT002/// BKN007/// 12/12 Q1018,EGOV,2023-04-30T09:50:00Z,53.25,-4.53,12.0,12.0,200,14,,6.21,30.059055,,,TRUE,,,,,,,,SCT,200,BKN,700,,,,,IFR,,,,,,,,,,,,SPECI,11.0
EGOS 300950Z AUTO 15008KT 9999 // OVC031/// 11/09 Q1019,EGOS,2023-04-30T09:50:00Z,52.8,-2.67,11.0,9.0,150,8,,6.21,30.088583,,,TRUE,,,,,,,,OVC,3100,,,,,,,VFR,,,,,,,,,,,,SPECI,76.0
EGOP 300950Z AUTO 20011KT 0200 OVC001/// 12/11 Q1020,EGOP,2023-04-30T09:50:00Z,51.72,-4.37,12.0,11.0,200,11,,0.12,30.11811,,,TRUE,,,,,,,,OVC,100,,,,,,,LIFR,,,,,,,,,,,,METAR,8.0
EGOM 300950Z AUTO 15004KT 2400 RA OVC001/// 10/10 Q1017,EGOM,2023-04-30T09:50:00Z,55.05,-2.55,10.0,10.0,150,4,,1.49,30.029528,,,TRUE,,,,,,,RA,OVC,100,,,,,,,LIFR,,,,,,,,,,,,METAR,286.0
EGNX 300950Z 20011KT CAVOK 13/08 Q1020,EGNX,2023-04-30T09:50:00Z,52.82,-1.32,13.0,8.0,200,11,,6.21,30.11811,,,,,,,,,,,CAVOK,,,,,,,,VFR,,,,,,,,,,,,METAR,91.0
EGNV 300950Z 18011KT 3000 BR SCT006 12/10 Q1019,EGNV,2023-04-30T09:50:00Z,54.52,-1.42,12.0,10.0,180,11,,1.86,30.088583,,,,,,,,,,BR,SCT,600,,,,,,,IFR,,,,,,,,,,,,METAR,36.0
EGNT 300950Z 16003KT 120V190 3000 -RA BR FEW005 BKN020 10/10 Q1018,EGNT,2023-04-30T09:50:00Z,55.03,-1.7,10.0,10.0,160,3,,1.86,30.059055,,,,,,,,,,-RA BR,FEW,500,BKN,2000,,,,,IFR,,,,,,,,,,,,METAR,77.0
EGNS 300950Z 19008KT 0400 -DZ FG BKN000 OVC001 11/11 Q1017 TEMPO 2000 BR BKN002,EGNS,2023-04-30T09:50:00Z,54.08,-4.63,11.0,11.0,190,8,,0.25,30.029528,,,,,,,,,,-DZ FG,BKN,0,OVC,100,,,,,LIFR,,,,,,,,,,,,METAR,18.0
EGNR 300950Z 16011KT 9000 -RA FEW008 BKN034 12/09 Q1019,EGNR,2023-04-30T09:50:00Z,53.17,-2.98,12.0,9.0,160,11,,5.59,30.088583,,,,,,,,,,-RA,FEW,800,BKN,3400,,,,,VFR,,,,,,,,,,,,METAR,11.0
EGNM 300950Z 21010KT 170V230 9999 -SHRA NSC 13/07 Q1019,EGNM,2023-04-30T09:50:00Z,53.87,-1.65,13.0,7.0,210,10,,6.21,30.088583,,,,,,,,,,-SHRA,CLR,,,,,,,,VFR,,,,,,,,,,,,METAR,221.0
EGNJ 300950Z 20014KT 8000 NSC 15/11 Q1020,EGNJ,2023-04-30T09:50:00Z,53.57,-0.35,15.0,11.0,200,14,,4.97,30.11811,,,,,,,,,,,CLR,,,,,,,,MVFR,,,,,,,,,,,,METAR,23.0
EGNH 300950Z 17013KT 7000 VCSH SCT005 BKN030 12/11 Q1018,EGNH,2023-04-30T09:50:00Z,53.77,-3.03,12.0,11.0,170,13,,4.35,30.059055,,,,,,,,,,VCSH,SCT,500,BKN,3000,,,,,MVFR,,,,,,,,,,,,METAR,10.0
EGMD 300950Z 09008KT 9000 NSC 14/10 Q1023,EGMD,2023-04-30T09:50:00Z,50.95,0.93,14.0,10.0,90,8,,5.59,30.206694,,,,,,,,,,,CLR,,,,,,,,VFR,,,,,,,,,,,,METAR,4.0
EGMC 300950Z 12006KT 070V230 CAVOK 15/08 Q1022,EGMC,2023-04-30T09:50:00Z,51.57,0.7,15.0,8.0,120,6,,6.21,30.177166,,,,,,,,,,,CAVOK,,,,,,,,VFR,,,,,,,,,,,,METAR,15.0
EGLL 300950Z AUTO 16009KT 120V200 9999 SCT027 15/08 Q1022,EGLL,2023-04-30T09:50:00Z,51.48,-0.45,15.0,8.0,160,9,,6.21,30.177166,,,TRUE,,,,,,,,SCT,2700,,,,,,,VFR,,,,,,,,,,,,METAR,26.0
EGLF 300950Z 14011KT 110V180 9999 FEW027 15/08 Q1021,EGLF,2023-04-30T09:50:00Z,51.28,-0.77,15.0,8.0,140,11,,6.21,30.147638,,,,,,,,,,,FEW,2700,,,,,,,VFR,,,,,,,,,,,,METAR,65.0
EGLC 300950Z AUTO 15006KT 110V250 9999 NCD 17/08 Q1022,EGLC,2023-04-30T09:50:00Z,51.5,0.05,17.0,8.0,150,6,,6.21,30.177166,,,TRUE,,,,,,,,CLR,,,,,,,,VFR,,,,,,,,,,,,METAR,10.0
EGKK 300950Z 16007KT 130V190 9000 FEW028 15/08 Q1022,EGKK,2023-04-30T09:50:00Z,51.13,-0.18,15.0,8.0,160,7,,5.59,30.177166,,,,,,,,,,,FEW,2800,,,,,,,VFR,,,,,,,,,,,,METAR,58.0
EGKB 300950Z 14009KT 110V180 9999 FEW025 13/07 Q1022,EGKB,2023-04-30T09:50:00Z,51.32,0.02,13.0,7.0,140,9,,6.21,30.177166,,,,,,,,,,,FEW,2500,,,,,,,VFR,,,,,,,,,,,,METAR,183.0
EGKA 300950Z 12007KT 6000 NSC 13/10 Q1022,EGKA,2023-04-30T09:50:00Z,50.83,-0.3,13.0,10.0,120,7,,3.73,30.177166,,,,,,,,,,,CLR,,,,,,,,MVFR,,,,,,,,,,,,METAR,2.0
EGJJ 300950Z 01003KT 300V110 8000 VCFG FEW000 13/13 Q1021,EGJJ,2023-04-30T09:50:00Z,49.22,-2.2,13.0,13.0,10,3,,4.97,30.147638,,,,,,,,,,VCFG,FEW,0,,,,,,,MVFR,,,,,,,,,,,,METAR,84.0
EGJB 300950Z VRB02KT 7000 VCSH VCFG FEW000 SCT005 BKN013 12/11 Q1021,EGJB,2023-04-30T09:50:00Z,49.42,-2.6,12.0,11.0,0,2,,4.35,30.147638,,,,,,,,,,VCSH VCFG,FEW,0,SCT,500,BKN,1300,,,MVFR,,,,,,,,,,,,METAR,102.0
EGJA 300950Z 12003KT 4000 BR FEW000 SCT002 BKN042 10/10 Q1021,EGJA,2023-04-30T09:50:00Z,49.72,-2.2,10.0,10.0,120,3,,2.49,30.147638,,,,,,,,,,BR,FEW,0,SCT,200,BKN,4200,,,IFR,,,,,,,,,,,,METAR,83.0
EGHQ 300950Z 22005KT 9999 BKN007 13/12 Q1021,EGHQ,2023-04-30T09:50:00Z,50.43,-5.0,13.0,12.0,220,5,,6.21,30.147638,,,,,,,,,,,BKN,700,,,,,,,IFR,,,,,,,,,,,,METAR,101.0
EGHI 300950Z 16004KT 130V220 9999 SCT027 14/07 Q1022,EGHI,2023-04-30T09:50:00Z,50.95,-1.35,14.0,7.0,160,4,,6.21,30.177166,,,,,,,,,,,SCT,2700,,,,,,,VFR,,,,,,,,,,,,METAR,13.0
EGHH 300950Z 15006KT 7000 -RA FEW012 11/09 Q1021,EGHH,2023-04-30T09:50:00Z,50.78,-1.83,11.0,9.0,150,6,,4.35,30.147638,,,,,,,,,,-RA,FEW,1200,,,,,,,MVFR,,,,,,,,,,,,METAR,9.0
EGGW 300950Z AUTO 19007KT 150V220 9999 FEW023 14/08 Q1022,EGGW,2023-04-30T09:50:00Z,51.87,-0.37,14.0,8.0,190,7,,6.21,30.177166,,,TRUE,,,,,,,,FEW,2300,,,,,,,VFR,,,,,,,,,,,,METAR,159.0
EGGP 300950Z 17010KT 8000 -RA BKN035 11/09 Q1019,EGGP,2023-04-30T09:50:00Z,53.33,-2.85,11.0,9.0,170,10,,4.97,30.088583,,,,,,,,,,-RA,BKN,3500,,,,,,,MVFR,,,,,,,,,,,,METAR,23.0
EGGD 300950Z AUTO 16007KT 7000 BKN024 OVC034 10/09 Q1021,EGGD,2023-04-30T09:50:00Z,51.37,-2.72,10.0,9.0,160,7,,4.35,30.147638,,,TRUE,,,,,,,,BKN,2400,OVC,3400,,,,,MVFR,,,,,,,,,,,,METAR,182.0
EGFF 300950Z AUTO 13007KT 0200 R12/P1500N -RA FG BKN001 OVC004 10/10 Q1021,EGFF,2023-04-30T09:50:00Z,51.38,-3.35,10.0,10.0,130,7,,0.12,30.147638,,,TRUE,,,,,,,-RA FG,BKN,100,OVC,400,,,,,LIFR,,,,,,,,,,,,METAR,65.0
EGEO 300950Z 11007KT 9999 -RA SCT005 BKN019 10/08 Q1015,EGEO,2023-04-30T09:50:00Z,56.47,-5.4,10.0,8.0,110,7,,6.21,29.970472,,,,,,,,,,-RA,SCT,500,BKN,1900,,,,,MVFR,,,,,,,,,,,,METAR,5.0
EGEC 300950Z AUTO 16012KT 9999 -RA OVC003/// 11/11 Q1015,EGEC,2023-04-30T09:50:00Z,55.43,-5.68,11.0,11.0,160,12,,6.21,29.970472,,,TRUE,,,,,,,-RA,OVC,300,,,,,,,LIFR,,,,,,,,,,,,METAR,10.0
EGDY 300950Z AUTO 13008KT 6000 // OVC009/// 11/10 Q1021,EGDY,2023-04-30T09:50:00Z,51.0,-2.63,11.0,10.0,130,8,,3.73,30.147638,,,TRUE,,,,,,,,OVC,900,,,,,,,IFR,,,,,,,,,,,,SPECI,21.0
EGDR 300950Z AUTO 22006KT 3300 // OVC001/// 12/12 Q1021,EGDR,2023-04-30T09:50:00Z,50.08,-5.25,12.0,12.0,220,6,,2.05,30.147638,,,TRUE,,,,,,,,OVC,100,,,,,,,LIFR,,,,,,,,,,,,SPECI,74.0
EGDM 300950Z AUTO 16009KT 9999 BR SCT011/// SCT087/// 12/09 Q1021,EGDM,2023-04-30T09:50:00Z,51.17,-1.75,12.0,9.0,160,9,,6.21,30.147638,,,TRUE,,,,,,,BR,SCT,1100,SCT,8700,,,,,VFR,,,,,,,,,,,,METAR,122.0
EGCK 300950Z 20011KT 9000 4500S OVC005 12/11 Q1018,EGCK,2023-04-30T09:50:00Z,53.1,-4.33,12.0,11.0,200,11,,5.59,30.059055,,,,,,,,,,,OVC,500,,,,,,,IFR,,,,,,,,,,,,METAR,6.0
EGCC 300950Z AUTO 19009KT 160V240 9999 NCD 13/08 Q1019 TEMPO SHRA,EGCC,2023-04-30T09:50:00Z,53.35,-2.27,13.0,8.0,190,9,,6.21,30.088583,,,TRUE,,,,,,,,CLR,,,,,,,,VFR,,,,,,,,,,,,METAR,78.0
EGBJ 300950Z 15009KT 9000 VCSH FEW025 12/09 Q1021,EGBJ,2023-04-30T09:50:00Z,51.9,-2.17,12.0,9.0,150,9,,5.59,30.147638,,,,,,,,,,VCSH,FEW,2500,,,,,,,VFR,,,,,,,,,,,,METAR,27.0
EGBB 300950Z 17005KT 9000 FEW020 12/09 Q1021,EGBB,2023-04-30T09:50:00Z,52.47,-1.75,12.0,9.0,170,5,,5.59,30.147638,,,,,,,,,,,FEW,2000,,,,,,,VFR,,,,,,,,,,,,METAR,91.0
EGAE 300950Z 21009KT 9999 VCSH FEW015TCU SCT022 16/13 Q1014,EGAE,2023-04-30T09:50:00Z,55.03,-7.15,16.0,13.0,210,9,,6.21,29.940945,,,,,,,,,,VCSH,FEW,1500,SCT,2200,,,,,VFR,,,,,,,,,,,,METAR,9.0
EGAC 300950Z AUTO 23009KT 9999 FEW011 SCT017 BKN021 14/12 Q1015,EGAC,2023-04-30T09:50:00Z,54.62,-5.87,14.0,12.0,230,9,,6.21,29.970472,,,TRUE,,,,,,,,FEW,1100,SCT,1700,BKN,2100,,,MVFR,,,,,,,,,,,,METAR,2.0
EGAA 300950Z AUTO 24011KT 9999 FEW007 SCT020 13/12 Q1015,EGAA,2023-04-30T09:50:00Z,54.65,-6.22,13.0,12.0,240,11,,6.21,29.970472,,,TRUE,,,,,,,,FEW,700,SCT,2000,,,,,VFR,,,,,,,,,,,,METAR,65.0
EFVA 300950Z AUTO 34014KT 9999 -RA OVC005 03/02 Q1005,EFVA,2023-04-30T09:50:00Z,63.05,21.77,3.0,2.0,340,14,,6.21,29.675198,,,TRUE,,,,,,,-RA,OVC,500,,,,,,,IFR,,,,,,,,,,,,METAR,4.0
EFUT 300950Z AUTO 22014KT 190V250 9999 BKN030 07/M00 Q1006,EFUT,2023-04-30T09:50:00Z,60.88,26.93,7.0,0.0,220,14,,6.21,29.704725,,,TRUE,,,,,,,,BKN,3000,,,,,,,MVFR,,,,,,,,,,,,METAR,104.0
EFTU 300950Z AUTO 28012KT 9999 OVC010 04/01 Q1006,EFTU,2023-04-30T09:50:00Z,60.52,22.27,4.0,1.0,280,12,,6.21,29.704725,,,TRUE,,,,,,,,OVC,1000,,,,,,,MVFR,,,,,,,,,,,,METAR,47.0
EFTP 300950Z AUTO 22009KT 180V250 9999 FEW043 06/03 Q1003,EFTP,2023-04-30T09:50:00Z,61.42,23.62,6.0,3.0,220,9,,6.21,29.616142,,,TRUE,,,,,,,,FEW,4300,,,,,,,VFR,,,,,,,,,,,,METAR,111.0
EFSI 300950Z AUTO 30005KT 4300 -SN OVC003 01/01 Q1003,EFSI,2023-04-30T09:50:00Z,62.7,22.83,1.0,1.0,300,5,,2.67,29.616142,,,TRUE,,,,,,,-SN,OVC,300,,,,,,,LIFR,,,,,,,,,,,,METAR,90.0
EFSA 300950Z AUTO 17009KT 140V200 9999 OVC007 06/04 Q1006,EFSA,2023-04-30T09:50:00Z,61.95,28.93,6.0,4.0,170,9,,6.21,29.704725,,,TRUE,,,,,,,,OVC,700,,,,,,,IFR,,,,,,,,,,,,METAR,90.0
EFRO 300950Z AUTO 13008KT 9999 OVC006 02/01 Q1007,EFRO,2023-04-30T09:50:00Z,66.57,25.82,2.0,1.0,130,8,,6.21,29.734253,,,TRUE,,,,,,,,OVC,600,,,,,,,IFR,,,,,,,,,,,,METAR,201.0
EFPO 300950Z AUTO 30010KT 9999 -RA OVC006 04/03 Q1005,EFPO,2023-04-30T09:50:00Z,61.47,21.8,4.0,3.0,300,10,,6.21,29.675198,,,TRUE,,,,,,,-RA,OVC,600,,,,,,,IFR,,,,,,,,,,,,METAR,10.0
EFOU 300950Z AUTO 09010KT 7000 -RA OVC012 03/02 Q1005,EFOU,2023-04-30T09:50:00Z,64.92,25.37,3.0,2.0,90,10,,4.35,29.675198,,,TRUE,,,,,,,-RA,OVC,1200,,,,,,,MVFR,,,,,,,,,,,,METAR,15.0
EFMI 300950Z AUTO 23010KT 9999 +SHRA OVC026 //////CB 05/02 Q1004,EFMI,2023-04-30T09:50:00Z,61.68,27.2,5.0,2.0,230,10,,6.21,29.64567,,,TRUE,,,,,,,+SHRA,OVC,2600,,,,,,,MVFR,,,,,,,,,,,,SPECI,99.0
EFMA 300950Z AUTO 31012KT 250V330 9999 -RA FEW014 OVC043 04/01 Q1010,EFMA,2023-04-30T09:50:00Z,60.12,19.9,4.0,1.0,310,12,,6.21,29.822834,,,TRUE,,,,,,,-RA,FEW,1400,OVC,4300,,,,,VFR,,,,,,,,,,,,METAR,6.0
EFLP 300950Z AUTO 20013KT 160V240 9999 BKN019 07/03 Q1007,EFLP,2023-04-30T09:50:00Z,61.03,28.15,7.0,3.0,200,13,,6.21,29.734253,,,TRUE,,,,,,,,BKN,1900,,,,,,,MVFR,,,,,,,,,,,,METAR,102.0
EFKU 300950Z AUTO 15010KT 9999 OVC004 03/03 Q1004,EFKU,2023-04-30T09:50:00Z,63.02,27.8,3.0,3.0,150,10,,6.21,29.64567,,,TRUE,,,,,,,,OVC,400,,,,,,,LIFR,,,,,,,,,,,,METAR,92.0
EFKT 300950Z AUTO 18009KT 160V220 9999 OVC008 02/00 Q1006,EFKT,2023-04-30T09:50:00Z,67.7,24.85,2.0,0.0,180,9,,6.21,29.704725,,,TRUE,,,,,,,,OVC,800,,,,,,,IFR,,,,,,,,,,,,METAR,190.0
EFKS 300950Z AUTO 11008KT 070V140 9999 OVC016 03/M00 Q1008,EFKS,2023-04-30T09:50:00Z,66.0,29.23,3.0,0.0,110,8,,6.21,29.763779,,,TRUE,,,,,,,,OVC,1600,,,,,,,MVFR,,,,,,,,,,,,METAR,270.0
EFKK 300950Z AUTO 34007KT 310V010 9999 -RA OVC004 02/02 Q1003,EFKK,2023-04-30T09:50:00Z,63.72,23.13,2.0,2.0,340,7,,6.21,29.616142,,,TRUE,,,,,,,-RA,OVC,400,,,,,,,LIFR,,,,,,,,,,,,METAR,25.0
EFKI 300950Z AUTO 10012KT 070V130 9999 -SN OVC007 02/00 Q1004,EFKI,2023-04-30T09:50:00Z,64.27,27.67,2.0,0.0,100,12,,6.21,29.64567,,,TRUE,,,,,,,-SN,OVC,700,,,,,,,IFR,,,,,,,,,,,,METAR,132.0
EFKE 300950Z AUTO 09006KT 9999 -RA BKN009 04/02 Q1007,EFKE,2023-04-30T09:50:00Z,65.78,24.57,4.0,2.0,90,6,,6.21,29.734253,,,TRUE,,,,,,,-RA,BKN,900,,,,,,,IFR,,,,,,,,,,,,METAR,15.0
EFJY 300950Z AUTO 19007KT 160V230 9999 -SHRA OVC011 //////CB 04/02 Q1003,EFJY,2023-04-30T09:50:00Z,62.4,25.68,4.0,2.0,190,7,,6.21,29.616142,,,TRUE,,,,,,,-SHRA,OVC,1100,,,,,,,MVFR,,,,,,,,,,,,METAR,139.0
EFJO 300950Z AUTO 16013KT 9999 RA OVC005 03/02 Q1006,EFJO,2023-04-30T09:50:00Z,62.67,29.62,3.0,2.0,160,13,,6.21,29.704725,,,TRUE,,,,,,,RA,OVC,500,,,,,,,IFR,,,,,,,,,,,,METAR,118.0
EFIV 300950Z AUTO 19012KT 150V230 9999 OVC017 03/M01 Q1007,EFIV,2023-04-30T09:50:00Z,68.62,27.42,3.0,-1.0,190,12,,6.21,29.734253,,,TRUE,,,,,,,,OVC,1700,,,,,,,MVFR,,,,,,,,,,,,METAR,145.0
EFHK 300950Z 21013KT 9999 -SHRA BKN012 FEW020TCU 05/03 Q1006 TEMPO BKN015,EFHK,2023-04-30T09:50:00Z,60.32,24.97,5.0,3.0,210,13,,6.21,29.704725,,,,,,,,,,-SHRA,BKN,1200,FEW,2000,,,,,MVFR,,,,,,,,,,,,METAR,56.0
EFHA 300950Z AUTO 21009KT 180V250 9999 BKN007 BKN048 05/02 Q1003,EFHA,2023-04-30T09:50:00Z,61.85,24.8,5.0,2.0,210,9,,6.21,29.616142,,,TRUE,,,,,,,,BKN,700,BKN,4800,,,,,IFR,,,,,,,,,,,,METAR,144.0
EFET 300950Z AUTO 19010KT 160V220 9999 BKN013 00/M03 Q1004,EFET,2023-04-30T09:50:00Z,68.37,23.43,0.0,-3.0,190,10,,6.21,29.64567,,,TRUE,,,,,,,,BKN,1300,,,,,,,MVFR,,,,,,,,,,,,METAR,300.0
EETU 300950Z 25018KT 9999 SCT043 10/M00 Q1011,EETU,2023-04-30T09:50:00Z,58.32,26.68,10.0,0.0,250,18,,6.21,29.852362,,,,,,,,,,,SCT,4300,,,,,,,VFR,,,,,,,,,,,,METAR,67.0
EETN 300950Z 25016KT 9999 -SHRA SCT017 SCT024CB BKN036 06/02 Q1009 NOSIG,EETN,2023-04-30T09:50:00Z,59.4,24.82,6.0,2.0,250,16,,6.21,29.793306,,,,,,TRUE,,,,-SHRA,SCT,1700,SCT,2400,BKN,3600,,,VFR,,,,,,,,,,,,METAR,41.0
EEPU 300950Z AUTO 24011KT 9999 OVC026/// 06/01 Q1012,EEPU,2023-04-30T09:50:00Z,58.42,24.47,6.0,1.0,240,11,,6.21,29.88189,,,TRUE,,,,,,,,OVC,2600,,,,,,,MVFR,,,,,,,,,,,,METAR,13.0
EEKE 300950Z AUTO 27010KT 180V310 9999NDV BKN025 06/01 Q1012,EEKE,2023-04-30T09:50:00Z,58.23,22.52,6.0,1.0,270,10,,,29.88189,,,TRUE,,,,,,,,BKN,2500,,,,,,,,,,,,,,,,,,,SPECI,4.0
EDXW 300950Z 30007KT 240V360 9999 FEW035 08/M01 Q1025,EDXW,2023-04-30T09:50:00Z,54.92,8.33,8.0,-1.0,300,7,,6.21,30.265747,,,,,,,,,,,FEW,3500,,,,,,,VFR,,,,,,,,,,,,METAR,8.0
EDWE 300950Z VRB04KT 9999 FEW030 11/03 Q1025,EDWE,2023-04-30T09:50:00Z,53.38,7.23,11.0,3.0,0,4,,6.21,30.265747,,,,,,,,,,,FEW,3000,,,,,,,VFR,,,,,,,,,,,,METAR,0.0
EDVK 300950Z VRB03KT 9999 FEW026 11/05 Q1023,EDVK,2023-04-30T09:50:00Z,51.4,9.37,11.0,5.0,0,3,,6.21,30.206694,,,,,,,,,,,FEW,2600,,,,,,,VFR,,,,,,,,,,,,METAR,277.0
EDVE 300950Z VRB05KT CAVOK 10/M01 Q1025,EDVE,2023-04-30T09:50:00Z,52.32,10.55,10.0,-1.0,0,5,,6.21,30.265747,,,,,,,,,,,CAVOK,,,,,,,,VFR,,,,,,,,,,,,METAR,83.0
EDTY 300950Z 07011KT 9999 SCT047 13/05 Q1020,EDTY,2023-04-30T09:50:00Z,49.12,9.78,13.0,5.0,70,11,,6.21,30.11811,,,,,,,,,,,SCT,4700,,,,,,,VFR,,,,,,,,,,,,METAR,398.0
EDTL 300950Z 05007KT 010V080 CAVOK 17/07 Q1018,EDTL,2023-04-30T09:50:00Z,48.37,7.83,17.0,7.0,50,7,,6.21,30.059055,,,,,,,,,,,CAVOK,,,,,,,,VFR,,,,,,,,,,,,METAR,152.0
EDSB 300950Z 04012KT 9999 FEW044 BKN049 16/08 Q1019,EDSB,2023-04-30T09:50:00Z,48.78,8.08,16.0,8.0,40,12,,6.21,30.088583,,,,,,,,,,,FEW,4400,BKN,4900,,,,,VFR,,,,,,,,,,,,METAR,122.0
EDQM 300950Z 02008KT 330V060 CAVOK 09/02 Q1022,EDQM,2023-04-30T09:50:00Z,50.3,11.85,9.0,2.0,20,8,,6.21,30.177166,,,,,,,,,,,CAVOK,,,,,,,,VFR,,,,,,,,,,,,METAR,578.0
EDNY 300950Z 05010KT 320V080 9999 BKN033 15/08 Q1018 RMK/J,EDNY,2023-04-30T09:50:00Z,47.67,9.52,15.0,8.0,50,10,,6.21,30.059055,,,,,,,,,,,BKN,3300,,,,,,,VFR,,,,,,,,,,,,METAR,411.0
EDMO 300950Z AUTO 06009KT 030V090 9999 // BKN027/// BKN032/// OVC038/// 13/07 Q1019,EDMO,2023-04-30T09:50:00Z,48.07,11.27,13.0,7.0,60,9,,6.21,30.088583,,,TRUE,,,,,,,,BKN,2700,BKN,3200,OVC,3800,,,MVFR,,,,,,,,,,,,METAR,587.0
EDMA 300950Z 08009KT 9999 SCT028 BKN038 OVC049 13/08 Q1020,EDMA,2023-04-30T09:50:00Z,48.42,10.92,13.0,8.0,80,9,,6.21,30.11811,,,,,,,,,,,SCT,2800,BKN,3800,OVC,4900,,,VFR,,,,,,,,,,,,METAR,462.0
EDLW 300950Z 07007KT 030V110 CAVOK 13/05 Q1023,EDLW,2023-04-30T09:50:00Z,51.52,7.62,13.0,5.0,70,7,,6.21,30.206694,,,,,,,,,,,CAVOK,,,,,,,,VFR,,,,,,,,,,,,METAR,122.0
EDLV 300950Z VRB04KT CAVOK 14/08 Q1023,EDLV,2023-04-30T09:50:00Z,51.6,6.15,14.0,8.0,0,4,,6.21,30.206694,,,,,,,,,,,CAVOK,,,,,,,,VFR,,,,,,,,,,,,METAR,27.0
EDLP 300950Z 08005KT 020V170 CAVOK 11/04 Q1024,EDLP,2023-04-30T09:50:00Z,51.62,8.62,11.0,4.0,80,5,,6.21,30.236221,,,,,,,,,,,CAVOK,,,,,,,,VFR,,,,,,,,,,,,METAR,211.0
EDLN 300950Z 04005KT 320V120 CAVOK 15/08 Q1023,EDLN,2023-04-30T09:50:00Z,51.23,6.5,15.0,8.0,40,5,,6.21,30.206694,,,,,,,,,,,CAVOK,,,,,,,,VFR,,,,,,,,,,,,METAR,38.0
EDJA 300950Z 05015KT 9999 FEW023 BKN026 13/08 Q1018,EDJA,2023-04-30T09:50:00Z,47.98,10.23,13.0,8.0,50,15,,6.21,30.059055,,,,,,,,,,,FEW,2300,BKN,2600,,,,,MVFR,,,,,,,,,,,,METAR,625.0
EDHL 300950Z VRB06KT 9999 FEW041 10/01 Q1025,EDHL,2023-04-30T09:50:00Z,53.8,10.72,10.0,1.0,0,6,,6.21,30.265747,,,,,,,,,,,FEW,4100,,,,,,,VFR,,,,,,,,,,,,METAR,13.0
EDHK 300950Z 28007KT 250V320 9999 SCT041 09/M00 Q1025,EDHK,2023-04-30T09:50:00Z,54.38,10.15,9.0,0.0,280,7,,6.21,30.265747,,,,,,,,,,,SCT,4100,,,,,,,VFR,,,,,,,,,,,,METAR,24.0
EDHI 300950Z AUTO 26006KT 220V300 9999 // NCD 10/00 Q1025,EDHI,2023-04-30T09:50:00Z,53.53,9.83,10.0,0.0,260,6,,6.21,30.265747,,,TRUE,,,,,,,,CLR,,,,,,,,VFR,,,,,,,,,,,,METAR,5.0
EDGS 300950Z 07007KT 040V110 9999 FEW026 11/04 Q1022,EDGS,2023-04-30T09:50:00Z,50.7,8.08,11.0,4.0,70,7,,6.21,30.177166,,,,,,,,,,,FEW,2600,,,,,,,VFR,,,,,,,,,,,,METAR,595.0
EDFM 300950Z 07008KT 010V100 CAVOK 16/05 Q1021,EDFM,2023-04-30T09:50:00Z,49.47,8.52,16.0,5.0,70,8,,6.21,30.147638,,,,,,,,,,,CAVOK,,,,,,,,VFR,,,,,,,,,,,,METAR,94.0
EDFH 300950Z 07009G19KT 010V120 9999 SCT040 13/04 Q1021,EDFH,2023-04-30T09:50:00Z,49.95,7.27,13.0,4.0,70,9,19,6.21,30.147638,,,,,,,,,,,SCT,4000,,,,,,,VFR,,,,,,,,,,,,METAR,494.0
EDDW 300950Z AUTO VRB02KT 9999 FEW032 12/02 Q1025 NOSIG,EDDW,2023-04-30T09:50:00Z,53.03,8.8,12.0,2.0,0,2,,6.21,30.265747,,,TRUE,,,TRUE,,,,,FEW,3200,,,,,,,VFR,,,,,,,,,,,,METAR,5.0
EDDV 300950Z AUTO VRB04KT CAVOK 11/02 Q1025 NOSIG,EDDV,2023-04-30T09:50:00Z,52.47,9.68,11.0,2.0,0,4,,6.21,30.265747,,,TRUE,,,TRUE,,,,,CAVOK,,,,,,,,VFR,,,,,,,,,,,,METAR,53.0
EDDS 300950Z AUTO 08008KT 040V110 9999 OVC046 14/06 Q1019,EDDS,2023-04-30T09:50:00Z,48.68,9.22,14.0,6.0,80,8,,6.21,30.088583,,,TRUE,,,,,,,,OVC,4600,,,,,,,VFR,,,,,,,,,,,,METAR,374.0
EDDR 300950Z AUTO 06009KT 020V090 9999 FEW036 OVC046 14/06 Q1020,EDDR,2023-04-30T09:50:00Z,49.22,7.1,14.0,6.0,60,9,,6.21,30.11811,,,TRUE,,,,,,,,FEW,3600,OVC,4600,,,,,VFR,,,,,,,,,,,,METAR,317.0
EDDP 300950Z AUTO 30008KT 260V330 CAVOK 10/02 Q1024 NOSIG,EDDP,2023-04-30T09:50:00Z,51.43,12.23,10.0,2.0,300,8,,6.21,30.236221,,,TRUE,,,TRUE,,,,,CAVOK,,,,,,,,VFR,,,,,,,,,,,,METAR,129.0
EDDN 300950Z AUTO VRB06KT CAVOK 16/05 Q1021 BECMG 06008KT,EDDN,2023-04-30T09:50:00Z,49.5,11.05,16.0,5.0,0,6,,6.21,30.147638,,,TRUE,,,,,,,,CAVOK,,,,,,,,VFR,,,,,,,,,,,,METAR,312.0
EDDM 300950Z AUTO 08010KT 040V100 9999 FEW028 15/09 Q1020 NOSIG,EDDM,2023-04-30T09:50:00Z,48.35,11.82,15.0,9.0,80,10,,6.21,30.11811,,,TRUE,,,TRUE,,,,,FEW,2800,,,,,,,VFR,,,,,,,,,,,,METAR,445.0
EDDL 300950Z AUTO 05007KT 350V110 CAVOK 16/08 Q1023 NOSIG,EDDL,2023-04-30T09:50:00Z,51.3,6.77,16.0,8.0,50,7,,6.21,30.206694,,,TRUE,,,TRUE,,,,,CAVOK,,,,,,,,VFR,,,,,,,,,,,,METAR,37.0
EDDK 300950Z AUTO 04006KT 010V110 9999 FEW048 17/05 Q1022 NOSIG,EDDK,2023-04-30T09:50:00Z,50.87,7.15,17.0,5.0,40,6,,6.21,30.177166,,,TRUE,,,TRUE,,,,,FEW,4800,,,,,,,VFR,,,,,,,,,,,,METAR,92.0
EDDH 300950Z AUTO VRB04KT 9999 FEW038 10/01 Q1025 NOSIG,EDDH,2023-04-30T09:50:00Z,53.63,10.0,10.0,1.0,0,4,,6.21,30.265747,,,TRUE,,,TRUE,,,,,FEW,3800,,,,,,,VFR,,,,,,,,,,,,METAR,8.0
EDDG 300950Z AUTO VRB03KT CAVOK 13/04 Q1024 NOSIG,EDDG,2023-04-30T09:50:00Z,52.13,7.7,13.0,4.0,0,3,,6.21,30.236221,,,TRUE,,,TRUE,,,,,CAVOK,,,,,,,,VFR,,,,,,,,,,,,METAR,46.0
EDDF 300950Z AUTO 03008KT 360V070 CAVOK 17/06 Q1021,EDDF,2023-04-30T09:50:00Z,50.05,8.6,17.0,6.0,30,8,,6.21,30.147638,,,TRUE,,,,,,,,CAVOK,,,,,,,,VFR,,,,,,,,,,,,METAR,113.0
EDDE 300950Z AUTO 06003KT 330V100 CAVOK 11/06 Q1023 NOSIG,EDDE,2023-04-30T09:50:00Z,50.98,10.97,11.0,6.0,60,3,,6.21,30.206694,,,TRUE,,,TRUE,,,,,CAVOK,,,,,,,,VFR,,,,,,,,,,,,METAR,314.0
EDDC 300950Z AUTO 32007KT 240V360 9999 SCT026 BKN031 10/04 Q1023 NOSIG,EDDC,2023-04-30T09:50:00Z,51.13,13.75,10.0,4.0,320,7,,6.21,30.206694,,,TRUE,,,TRUE,,,,,SCT,2600,BKN,3100,,,,,VFR,,,,,,,,,,,,METAR,227.0
EDDB 300950Z AUTO 29007KT 250V330 CAVOK 11/M00 Q1024 NOSIG,EDDB,2023-04-30T09:50:00Z,52.38,13.53,11.0,0.0,290,7,,6.21,30.236221,,,TRUE,,,TRUE,,,,,CAVOK,,,,,,,,VFR,,,,,,,,,,,,METAR,48.0
EDBC 300950Z AUTO 34005KT 270V080 9999 // FEW029/// 09/02 Q1024,EDBC,2023-04-30T09:50:00Z,51.85,11.42,9.0,2.0,340,5,,6.21,30.236221,,,TRUE,,,,,,,,FEW,2900,,,,,,,VFR,,,,,,,,,,,,METAR,178.0
EDAH 300950Z 32007KT 260V020 9999 FEW035 10/01 Q1023,EDAH,2023-04-30T09:50:00Z,53.87,14.15,10.0,1.0,320,7,,6.21,30.206694,,,,,,,,,,,FEW,3500,,,,,,,VFR,,,,,,,,,,,,METAR,22.0
EBOS 300950Z VRB03KT CAVOK 15/07 Q1023 NOSIG,EBOS,2023-04-30T09:50:00Z,51.2,2.87,15.0,7.0,0,3,,6.21,30.206694,,,,,,TRUE,,,,,CAVOK,,,,,,,,VFR,,,,,,,,,,,,METAR,5.0
EBLG 300950Z 07011KT 040V100 9999 FEW033 15/05 Q1022 NOSIG,EBLG,2023-04-30T09:50:00Z,50.63,5.45,15.0,5.0,70,11,,6.21,30.177166,,,,,,TRUE,,,,,FEW,3300,,,,,,,VFR,,,,,,,,,,,,METAR,187.0
EBCI 300950Z 05013KT 9999 FEW030 14/07 Q1022 NOSIG,EBCI,2023-04-30T09:50:00Z,50.47,4.45,14.0,7.0,50,13,,6.21,30.177166,,,,,,TRUE,,,,,FEW,3000,,,,,,,VFR,,,,,,,,,,,,METAR,176.0
EBBR 300950Z 07005KT 030V110 9999 FEW031 15/07 Q1023 NOSIG,EBBR,2023-04-30T09:50:00Z,50.9,4.52,15.0,7.0,70,5,,6.21,30.206694,,,,,,TRUE,,,,,FEW,3100,,,,,,,VFR,,,,,,,,,,,,METAR,49.0
EBAW 300950Z 10005KT 030V140 CAVOK 15/05 Q1023 NOSIG,EBAW,2023-04-30T09:50:00Z,51.2,4.47,15.0,5.0,100,5,,6.21,30.206694,,,,,,TRUE,,,,,CAVOK,,,,,,,,VFR,,,,,,,,,,,,METAR,7.0
CYZE 300950Z AUTO 16009KT 6SM BR OVC001 07/06 A2938 RMK SLP956,CYZE,2023-04-30T09:50:00Z,45.88,-82.57,7.0,6.0,160,9,,6.0,29.379921,995.6,,TRUE,,,,,,,BR,OVC,100,,,,,,,LIFR,,,,,,,,,,,,SPECI,189.0
BGSF 300950Z AUTO 06009KT 9999NDV NCD M00/M11 Q1020,BGSF,2023-04-30T09:50:00Z,67.0,-50.72,0.0,-11.0,60,9,,,30.11811,,,TRUE,,,,,,,,CLR,,,,,,,,,,,,,,,,,,,,SPECI,75.0
BGKK 300950Z AUTO 08011KT 9999NDV NCD M01/M13 Q1031,BGKK,2023-04-30T09:50:00Z,65.57,-37.13,-1.0,-13.0,80,11,,,30.442913,,,TRUE,,,,,,,,CLR,,,,,,,,,,,,,,,,,,,,SPECI,37.0
BGJN 300950Z AUTO VRB08G18KT 9999NDV NCD M00/M13 Q1022,BGJN,2023-04-30T09:50:00Z,69.25,-51.07,0.0,-13.0,0,8,18,,30.177166,,,TRUE,,,,,,,,CLR,,,,,,,,,,,,,,,,,,,,SPECI,22.0
BGGH 300950Z AUTO 22009KT 9999 OVC001/// M02/M02 Q1020 RESN,BGGH,2023-04-30T09:50:00Z,64.2,-51.68,-2.0,-2.0,220,9,,6.21,30.11811,,,TRUE,,,,,,,,OVC,100,,,,,,,LIFR,,,,,,,,,,,,METAR,76.0
BGBW 300950Z AUTO 06016KT 9999NDV NCD 04/M12 Q1023,BGBW,2023-04-30T09:50:00Z,61.17,-45.42,4.0,-12.0,60,16,,,30.206694,,,TRUE,,,,,,,,CLR,,,,,,,,,,,,,,,,,,,,SPECI,49.0
KFME 300949Z AUTO 10006KT 7SM OVC005 15/14 A2960 RMK AO1,KFME,2023-04-30T09:49:00Z,39.08,-76.77,15.0,14.0,100,6,,7.0,29.601377,,,TRUE,TRUE,,,,,,,OVC,500,,,,,,,IFR,,,,,,,,,,,,SPECI,43.0
KAFP 300949Z AUTO 00000KT 7SM DZ SCT003 SCT007 BKN075 16/15 A2949 RMK AO2 P0032 T01590152,KAFP,2023-04-30T09:49:00Z,35.02,-80.08,15.9,15.2,0,0,,7.0,29.489174,,,TRUE,TRUE,,,,,,DZ,SCT,300,SCT,700,BKN,7500,,,VFR,,,,,,0.32,,,,,,METAR,91.0
K2W6 300949Z AUTO 11006KT 7SM OVC004 15/15 A2957 RMK AO1,K2W6,2023-04-30T09:49:00Z,38.32,-76.55,15.0,15.0,110,6,,7.0,29.568897,,,TRUE,TRUE,,,,,,,OVC,400,,,,,,,LIFR,,,,,,,,,,,,METAR,40.0
KJDN 300948Z AUTO 00000KT 00/M04 A3012 RMK AO1 SLP215 T00001039,KJDN,2023-04-30T09:48:00Z,47.33,-106.95,0.0,-3.9,0,0,,,30.121063,1021.5,,TRUE,TRUE,,,,,,,,,,,,,,,,,,,,,,,,,,,METAR,802.0
CYUL 300948Z 05011KT 15SM OVC050 07/06 A2978 RMK SC8 SLP087,CYUL,2023-04-30T09:48:00Z,45.47,-73.73,7.0,6.0,50,11,,15.0,29.778543,1008.7,,,,,,,,,,OVC,5000,,,,,,,VFR,,,,,,,,,,,,SPECI,31.0
CYQT 300948Z 36005KT 290V040 15SM FEW037 OVC049 02/M01 A2951 RMK SC2SC6 SLP004,CYQT,2023-04-30T09:48:00Z,48.37,-89.32,2.0,-1.0,360,5,,15.0,29.509842,1000.4,,,,,,,,,,FEW,3700,OVC,4900,,,,,VFR,,,,,,,,,,,,SPECI,197.0
KCQT 300947Z AUTO 00000KT 4SM BR OVC009 14/12 A2995 RMK AO2 SLP141 T01440122 $,KCQT,2023-04-30T09:47:00Z,34.02,-118.28,14.4,12.2,0,0,,4.0,29.949802,1014.1,,TRUE,TRUE,TRUE,,,,,BR,OVC,900,,,,,,,IFR,,,,,,,,,,,,METAR,51.0
CYRQ 300947Z AUTO 07009G17KT 9SM -RA BKN008 BKN020 OVC025 07/06 A2988 RMK PCPN 1.0MM PAST HR SLP121,CYRQ,2023-04-30T09:47:00Z,46.35,-72.68,7.0,6.0,70,9,17,9.0,29.878937,1012.1,,TRUE,,,,,,,-RA,BKN,800,BKN,2000,OVC,2500,,,IFR,,,,,,,,,,,,SPECI,58.0
MMMX 300946Z 08005KT 10SM SKC 13/01 A3030 NOSIG RMK ISOL CI,MMMX,2023-04-30T09:46:00Z,19.43,-99.08,13.0,1.0,80,5,,10.0,30.301182,,,,,,TRUE,,,,,SKC,,,,,,,,VFR,,,,,,,,,,,,METAR,2224.0
CYTZ 300946Z AUTO 08009G19KT 050V120 5SM BR BKN004 08/08 A2949 RMK SLP991,CYTZ,2023-04-30T09:46:00Z,43.63,-79.4,8.0,8.0,80,9,19,5.0,29.489174,999.1,,TRUE,,,,,,,BR,BKN,400,,,,,,,LIFR,,,,,,,,,,,,SPECI,76.0
CYHU 300946Z AUTO 05009KT 6SM -RA BR SCT033 OVC047 07/06 A2979 RMK PCPN 0.8MM PAST HR SLP092,CYHU,2023-04-30T09:46:00Z,45.52,-73.42,7.0,6.0,50,9,,6.0,29.790354,1009.2,,TRUE,,,,,,,-RA BR,SCT,3300,OVC,4700,,,,,VFR,,,,,,,,,,,,SPECI,26.0
WMKP 300945Z 25006KT 210V310 9999 TS FEW017CB 32/26 Q1005 NOSIG,WMKP,2023-04-30T09:45:00Z,5.28,100.27,32.0,26.0,250,6,,6.21,29.675198,,,,,,TRUE,,,,TS,FEW,1700,,,,,,,VFR,,,,,,,,,,,,SPECI,4.0
SAZR 300945Z 18026G40KT 9999 BKN040 16/05 Q1007 RMK PP000,SAZR,2023-04-30T09:45:00Z,-36.58,-64.27,16.0,5.0,180,26,40,6.21,29.734253,,,,,,,,,,,BKN,4000,,,,,,,VFR,,,,,,,,,,,,SPECI,190.0
LMML 300945Z 20010KT CAVOK 21/16 Q1013 NOSIG,LMML,2023-04-30T09:45:00Z,35.85,14.47,21.0,16.0,200,10,,6.21,29.911417,,,,,,TRUE,,,,,CAVOK,,,,,,,,VFR,,,,,,,,,,,,METAR,78.0
LIRP 300945Z 10013KT 9999 SCT040 21/11 Q1012 NOSIG,LIRP,2023-04-30T09:45:00Z,43.68,10.38,21.0,11.0,100,13,,6.21,29.88189,,,,,,TRUE,,,,,SCT,4000,,,,,,,VFR,,,,,,,,,,,,METAR,1.0
LHSN 300945Z 01006KT 310V060 9999 FEW035 18/10 Q1015 NOSIG RMK BLU,LHSN,2023-04-30T09:45:00Z,47.12,20.23,18.0,10.0,10,6,,6.21,29.970472,,,,,,TRUE,,,,,FEW,3500,,,,,,,VFR,,,,,,,,,,,,METAR,89.0
LHSM 300945Z AUTO 35013KT 320V020 9999 SCT036 17/09 Q1019 NOSIG,LHSM,2023-04-30T09:45:00Z,46.68,17.17,17.0,9.0,350,13,,6.21,30.088583,,,TRUE,,,TRUE,,,,,SCT,3600,,,,,,,VFR,,,,,,,,,,,,METAR,119.0
LHPR 300945Z AUTO 33016KT 310V010 9999 FEW039 16/07 Q1018 NOSIG,LHPR,2023-04-30T09:45:00Z,47.63,17.82,16.0,7.0,330,16,,6.21,30.059055,,,TRUE,,,TRUE,,,,,FEW,3900,,,,,,,VFR,,,,,,,,,,,,METAR,127.0
LHPP 300945Z AUTO 33014KT 310V010 CAVOK 18/09 Q1017,LHPP,2023-04-30T09:45:00Z,45.98,18.23,18.0,9.0,330,14,,6.21,30.029528,,,TRUE,,,,,,,,CAVOK,,,,,,,,VFR,,,,,,,,,,,,METAR,193.0
LHPA 300945Z 34014KT 300V040 9999 SCT040TCU 16/08 Q1019 NOSIG RMK BLU,LHPA,2023-04-30T09:45:00Z,47.35,17.5,16.0,8.0,340,14,,6.21,30.088583,,,,,,TRUE,,,,,SCT,4000,,,,,,,VFR,,,,,,,,,,,,METAR,143.0
LHKE 300945Z VRB06KT 9999 FEW033TCU BKN040 18/09 Q1016 NOSIG RMK BLU,LHKE,2023-04-30T09:45:00Z,46.92,19.75,18.0,9.0,0,6,,6.21,30.0,,,,,,TRUE,,,,,FEW,3300,BKN,4000,,,,,VFR,,,,,,,,,,,,METAR,113.0
LHDC 300945Z AUTO 36008KT 310V060 9999 BKN045 18/08 Q1015 NOSIG,LHDC,2023-04-30T09:45:00Z,47.48,21.62,18.0,8.0,360,8,,6.21,29.970472,,,TRUE,,,TRUE,,,,,BKN,4500,,,,,,,VFR,,,,,,,,,,,,METAR,105.0
KW40 300945Z AUTO 14005KT 7SM OVC005 18/18 A2951 RMK AO2 T01800175,KW40,2023-04-30T09:45:00Z,35.22,-78.03,18.0,17.5,140,5,,7.0,29.509842,,,TRUE,TRUE,,,,,,,OVC,500,,,,,,,IFR,,,,,,,,,,,,METAR,50.0
KW29 300945Z AUTO 00000KT 10SM OVC014 15/ A2957 RMK AO2 LTG DSNT SE T0150////,KW29,2023-04-30T09:45:00Z,38.98,-76.33,15.0,,0,0,,10.0,29.568897,,,TRUE,TRUE,,,,,,,OVC,1400,,,,,,,MVFR,,,,,,,,,,,,METAR,1.0
KVUJ 300945Z AUTO 00000KT 5SM -RA SCT050 BKN070 BKN090 16/16 A2953 RMK AO2 P0015 T01600158,KVUJ,2023-04-30T09:45:00Z,35.42,-80.15,16.0,15.8,0,0,,5.0,29.530512,,,TRUE,TRUE,,,,,,-RA,SCT,5000,BKN,7000,BKN,9000,,,MVFR,,,,,,0.15,,,,,,METAR,174.0
KUKF 300945Z AUTO 00000KT 10SM -RA SCT070 OVC090 12/12 A2958 RMK AO2 P0003,KUKF,2023-04-30T09:45:00Z,36.22,-81.1,12.0,12.0,0,0,,10.0,29.58071,,,TRUE,TRUE,,,,,,-RA,SCT,7000,OVC,9000,,,,,VFR,,,,,,0.03,,,,,,METAR,383.0
KTTA 300945Z AUTO 00000KT 2 1/2SM RA SCT015 SCT020 OVC039 16/16 A2949 RMK AO2 VIS 3/4V5 P0019 T01560156,KTTA,2023-04-30T09:45:00Z,35.58,-79.1,15.6,15.6,0,0,,2.5,29.489174,,,TRUE,TRUE,,,,,,RA,SCT,1500,SCT,2000,OVC,3900,,,IFR,,,,,,0.19,,,,,,METAR,71.0
KTDF 300945Z AUTO 00000KT 5SM BR SCT024 SCT028 OVC095 15/14 A2953 RMK AO2,KTDF,2023-04-30T09:45:00Z,36.28,-78.98,15.0,14.0,0,0,,5.0,29.530512,,,TRUE,TRUE,,,,,,BR,SCT,2400,SCT,2800,OVC,9500,,,MVFR,,,,,,,,,,,,METAR,180.0
KSWF 300945Z 06005KT 2SM BR OVC004 09/09 A2971,KSWF,2023-04-30T09:45:00Z,41.5,-74.08,9.0,9.0,60,5,,2.0,29.71063,,,,,,,,,,BR,OVC,400,,,,,,,LIFR,,,,,,,,,,,,METAR,139.0
KSVH 300945Z AUTO 00000KT 10SM SCT047 BKN070 BKN080 14/13 A2949 RMK AO2 T01350126,KSVH,2023-04-30T09:45:00Z,35.75,-80.95,13.5,12.6,0,0,,10.0,29.489174,,,TRUE,TRUE,,,,,,,SCT,4700,BKN,7000,BKN,8000,,,VFR,,,,,,,,,,,,METAR,286.0
KSIF 300945Z AUTO 00000KT 3SM +RA SCT003 BKN016 OVC023 16/15 A2951 RMK AO2 P0009 T01570151,KSIF,2023-04-30T09:45:00Z,36.43,-79.85,15.7,15.1,0,0,,3.0,29.509842,,,TRUE,TRUE,,,,,,+RA,SCT,300,BKN,1600,OVC,2300,,,MVFR,,,,,,0.09,,,,,,METAR,206.0
KSCR 300945Z AUTO 25003KT 10SM -RA SCT010 OVC015 16/16 A2951 RMK AO2 T01590159,KSCR,2023-04-30T09:45:00Z,35.7,-79.5,15.9,15.9,250,3,,10.0,29.509842,,,TRUE,TRUE,,,,,,-RA,SCT,1000,OVC,1500,,,,,MVFR,,,,,,,,,,,,METAR,182.0
KRUQ 300945Z AUTO 00000KT 5SM -RA OVC002 15/15 A2949 RMK AO2 P0001 T01470145,KRUQ,2023-04-30T09:45:00Z,35.65,-80.52,14.7,14.5,0,0,,5.0,29.489174,,,TRUE,TRUE,,,,,,-RA,OVC,200,,,,,,,LIFR,,,,,,0.01,,,,,,METAR,231.0
KPGV 300945Z AUTO 00000KT 10SM SCT011 BKN022 OVC060 18/18 A2953 RMK AO2,KPGV,2023-04-30T09:45:00Z,35.63,-77.4,18.0,18.0,0,0,,10.0,29.530512,,,TRUE,TRUE,,,,,,,SCT,1100,BKN,2200,OVC,6000,,,MVFR,,,,,,,,,,,,METAR,6.0
KONX 300945Z AUTO 17004KT 10SM OVC090 19/18 A2956 RMK AO2 T01940184,KONX,2023-04-30T09:45:00Z,36.4,-76.02,19.4,18.4,170,4,,10.0,29.56004,,,TRUE,TRUE,,,,,,,OVC,9000,,,,,,,VFR,,,,,,,,,,,,METAR,4.0
KOCW 300945Z AUTO 14005KT 10SM -RA BKN005 OVC050 19/18 A2955 RMK AO2 T01920181,KOCW,2023-04-30T09:45:00Z,35.57,-77.05,19.2,18.1,140,5,,10.0,29.551182,,,TRUE,TRUE,,,,,,-RA,BKN,500,OVC,5000,,,,,IFR,,,,,,,,,,,,METAR,10.0
KMWK 300945Z AUTO 00000KT 5SM -RA SCT002 SCT012 OVC080 15/14 A2954 RMK AO2 P0004 T01450143,KMWK,2023-04-30T09:45:00Z,36.47,-80.55,14.5,14.3,0,0,,5.0,29.53937,,,TRUE,TRUE,,,,,,-RA,SCT,200,SCT,1200,OVC,8000,,,MVFR,,,,,,0.04,,,,,,METAR,374.0
KMRN 300945Z AUTO 00000KT 5SM -RA BKN014 BKN027 OVC095 15/15 A2951 RMK AO2 T01530149,KMRN,2023-04-30T09:45:00Z,35.82,-81.62,15.3,14.9,0,0,,5.0,29.509842,,,TRUE,TRUE,,,,,,-RA,BKN,1400,BKN,2700,OVC,9500,,,MVFR,,,,,,,,,,,,METAR,375.0
KMCZ 300945Z AUTO 16003KT 10SM OVC046 18/17 A2954 RMK AO2 T01820173,KMCZ,2023-04-30T09:45:00Z,,,18.2,17.3,160,3,,10.0,29.53937,,,TRUE,TRUE,,,,,,,OVC,4600,,,,,,,VFR,,,,,,,,,,,,METAR,
KJNX 300945Z AUTO 15003KT 7SM RA SCT008 BKN021 OVC033 18/18 A2950 RMK AO2 LTG DSNT SE P0001,KJNX,2023-04-30T09:45:00Z,35.53,-78.38,18.0,18.0,150,3,,7.0,29.500984,,,TRUE,TRUE,,,,,,RA,SCT,800,BKN,2100,OVC,3300,,,MVFR,,,,,,0.01,,,,,,METAR,41.0
KJAU 300945Z AUTO 00000KT 9SM FEW040 OVC070 12/12 A2955 RMK A01,KJAU,2023-04-30T09:45:00Z,36.33,-84.17,12.0,12.0,0,0,,9.0,29.551182,,,TRUE,TRUE,,,,,,,FEW,4000,OVC,7000,,,,,VFR,,,,,,,,,,,,METAR,350.0
KISO 300945Z AUTO 15004KT 10SM OVC005 19/19 A2953 RMK AO2 T01910187,KISO,2023-04-30T09:45:00Z,35.32,-77.62,19.1,18.7,150,4,,10.0,29.530512,,,TRUE,TRUE,,,,,,,OVC,500,,,,,,,IFR,,,,,,,,,,,,METAR,27.0
KIPJ 300945Z AUTO 00000KT 10SM BKN018 OVC026 14/14 A2950 RMK AO2 T01420137,KIPJ,2023-04-30T09:45:00Z,35.48,-81.17,14.2,13.7,0,0,,10.0,29.500984,,,TRUE,TRUE,,,,,,,BKN,1800,OVC,2600,,,,,MVFR,,,,,,,,,,,,METAR,266.0
KHRJ 300945Z AUTO 00000KT 4SM -RA BR OVC008 17/17 A2950 RMK AO2 P0003 T01720169,KHRJ,2023-04-30T09:45:00Z,35.38,-78.73,17.2,16.9,0,0,,4.0,29.500984,,,TRUE,TRUE,,,,,,-RA BR,OVC,800,,,,,,,IFR,,,,,,0.03,,,,,,METAR,55.0
KHBI 300945Z AUTO 00000KT 7SM -RA SCT018 OVC065 16/15 RMK AO2 P0002 T01560153,KHBI,2023-04-30T09:45:00Z,35.65,-79.9,15.6,15.3,0,0,,7.0,,,,TRUE,TRUE,,,,,,-RA,SCT,1800,OVC,6500,,,,,VFR,,,,,,0.02,,,,,,METAR,199.0
KGYY 300945Z 26007KT 10SM SCT065 A2950,KGYY,2023-04-30T09:45:00Z,41.62,-87.42,,,260,7,,10.0,29.500984,,,,,,,,,,,SCT,6500,,,,,,,VFR,,,,,,,,,,,,METAR,179.0
KGEV 300945Z AUTO 13003KT 10SM RA SCT095 OVC110 10/09 A2957 RMK AO2 T00980089,KGEV,2023-04-30T09:45:00Z,36.43,-81.42,9.8,8.9,130,3,,10.0,29.568897,,,TRUE,TRUE,,,,,,RA,SCT,9500,OVC,11000,,,,,VFR,,,,,,,,,,,,METAR,961.0
KFQD 300945Z AUTO 00000KT 4SM BR SCT002 BKN017 OVC024 15/15 A2951 RMK AO2,KFQD,2023-04-30T09:45:00Z,35.42,-81.93,15.0,15.0,0,0,,4.0,29.509842,,,TRUE,TRUE,,,,,,BR,SCT,200,BKN,1700,OVC,2400,,,MVFR,,,,,,,,,,,,METAR,325.0
KFMH 300945Z 11015G25KT 3SM -DZ OVC005 10/10 A2981,KFMH,2023-04-30T09:45:00Z,41.65,-70.52,10.0,10.0,110,15,25,3.0,29.811024,,,,,,,,,,-DZ,OVC,500,,,,,,,IFR,,,,,,,,,,,,METAR,35.0
KEHO 300945Z AUTO 00000KT 10SM OVC060 15/15 A2951 RMK AO2 T01450145,KEHO,2023-04-30T09:45:00Z,35.25,-81.6,14.5,14.5,0,0,,10.0,29.509842,,,TRUE,TRUE,,,,,,,OVC,6000,,,,,,,VFR,,,,,,,,,,,,METAR,261.0
KDPL 300945Z AUTO 13003KT 7SM BR SCT004 BKN020 OVC055 18/18 A2951 RMK AO2,KDPL,2023-04-30T09:45:00Z,35.0,-77.97,18.0,18.0,130,3,,7.0,29.509842,,,TRUE,TRUE,,,,,,BR,SCT,400,BKN,2000,OVC,5500,,,MVFR,,,,,,,,,,,,METAR,39.0
KDMW 300945Z AUTO 11003KT 1SM BR OVC002 15/15 A2957 RMK AO2 LTG DSNT SE AND SW P0001,KDMW,2023-04-30T09:45:00Z,39.6,-77.0,15.0,15.0,110,3,,1.0,29.568897,,,TRUE,TRUE,,,,,,BR,OVC,200,,,,,,,LIFR,,,,,,0.01,,,,,,METAR,239.0
KCTZ 300945Z AUTO 13003KT 10SM SCT007 BKN044 OVC050 18/18 A2951 RMK AO2 T01830183,KCTZ,2023-04-30T09:45:00Z,34.98,-78.37,18.3,18.3,130,3,,10.0,29.509842,,,TRUE,TRUE,,,,,,,SCT,700,BKN,4400,OVC,5000,,,VFR,,,,,,,,,,,,METAR,43.0
KCPC 300945Z AUTO 14003KT 10SM SCT006 SCT024 BKN080 19/18 A2950 RMK AO2 T01870177,KCPC,2023-04-30T09:45:00Z,34.28,-78.72,18.7,17.7,140,3,,10.0,29.500984,,,TRUE,TRUE,,,,,,,SCT,600,SCT,2400,BKN,8000,,,VFR,,,,,,,,,,,,METAR,27.0
KCGE 300945Z AUTO 13006KT 10SM OVC006 15/15 A2957 RMK A01,KCGE,2023-04-30T09:45:00Z,38.53,-76.03,15.0,15.0,130,6,,10.0,29.568897,,,TRUE,TRUE,,,,,,,OVC,600,,,,,,,IFR,,,,,,,,,,,,METAR,5.0
KCBE 300945Z AUTO 00000KT 5SM -RA BR SCT005 BKN049 OVC090 13/12 A2957 RMK AO2 P0003 T01290125,KCBE,2023-04-30T09:45:00Z,39.62,-78.77,12.9,12.5,0,0,,5.0,29.568897,,,TRUE,TRUE,,,,,,-RA BR,SCT,500,BKN,4900,OVC,9000,,,MVFR,,,,,,0.03,,,,,,SPECI,226.0
KASJ 300945Z AUTO 19007KT 10SM OVC070 19/19 A2953 RMK AO2 T01850185,KASJ,2023-04-30T09:45:00Z,36.28,-77.17,18.5,18.5,190,7,,10.0,29.530512,,,TRUE,TRUE,,,,,,,OVC,7000,,,,,,,VFR,,,,,,,,,,,,METAR,20.0
KACZ 300945Z AUTO 13004KT 5SM BR SCT005 SCT070 BKN095 18/18 A2951 RMK AO2 T01840177,KACZ,2023-04-30T09:45:00Z,,,18.4,17.7,130,4,,5.0,29.509842,,,TRUE,TRUE,,,,,,BR,SCT,500,SCT,7000,BKN,9500,,,MVFR,,,,,,,,,,,,METAR,
K24A 300945Z AUTO 16006KT 1 1/4SM RA BR SCT001 BKN075 OVC090 10/10 A2955 RMK AO2 P0001 T01010099,K24A,2023-04-30T09:45:00Z,35.32,-83.2,10.1,9.9,160,6,,1.25,29.551182,,,TRUE,TRUE,,,,,,RA BR,SCT,100,BKN,7500,OVC,9000,,,IFR,,,,,,0.01,,,,,,METAR,864.0
CYHZ 300945Z 13005KT 1/4SM R23/1000V1600FT/U R14/2600VP6000FT/N FG BKN250 00/00 A3018 RMK FG2CI5 SLP226,CYHZ,2023-04-30T09:45:00Z,44.87,-63.5,0.0,0.0,130,5,,0.25,30.180119,1022.6,,,,,,,,,FG,BKN,25000,,,,,,,LIFR,,,,,,,,,,,,SPECI,136.0
CYBK 300945Z 32007KT 300V020 1 1/4SM BR OVC003 M08/M09 A3024 RMK ST8 SLP243,CYBK,2023-04-30T09:45:00Z,64.3,-96.07,-8.0,-9.0,320,7,,1.25,30.239174,1024.3,,,,,,,,,BR,OVC,300,,,,,,,LIFR,,,,,,,,,,,,SPECI,14.0
CYAM 300945Z 14007KT 3SM -DZ BR FEW003 BKN006 OVC014 06/06 A2933 RMK ST2CU5CU1 VIS VRB 2-4 CIG VRB 4-8 OCNL -SHRA SLP938,CYAM,2023-04-30T09:45:00Z,46.48,-84.52,6.0,6.0,140,7,,3.0,29.329725,993.8,,,,,,,,,-DZ BR,FEW,300,BKN,600,OVC,1400,,,IFR,,,,,,,,,,,,SPECI,186.0
CWPF 300945Z AUTO 23003KT 12/06 RMK AO1 SLP105 T01230061 58003,CWPF,2023-04-30T09:45:00Z,48.43,-123.43,12.3,6.1,230,3,,,,1010.5,,TRUE,TRUE,,,,,,,,,,,,,,,,-0.3,,,,,,,,,,,METAR,5.0
CYQA 300943Z AUTO 12007G15KT 9SM OVC004 10/09 A2948 RMK SLP990,CYQA,2023-04-30T09:43:00Z,44.97,-79.3,10.0,9.0,120,7,15,9.0,29.480314,999.0,,TRUE,,,,,,,,OVC,400,,,,,,,LIFR,,,,,,,,,,,,SPECI,277.0
MMTO 300941Z 08004KT 8SM FEW200 06/01 A3036 RMK 8/001,MMTO,2023-04-30T09:41:00Z,19.35,-99.57,6.0,1.0,80,4,,8.0,30.360237,,,,,,,,,,,FEW,20000,,,,,,,VFR,,,,,,,,,,,,METAR,2582.0
MMMY 300941Z 28008KT 15SM SKC 14/03 A3001,MMMY,2023-04-30T09:41:00Z,25.77,-100.1,14.0,3.0,280,8,,15.0,30.008858,,,,,,,,,,,SKC,,,,,,,,VFR,,,,,,,,,,,,METAR,382.0
MMMM 300941Z 00000KT 7SM SKC 10/01 A3018 RMK HZY,MMMM,2023-04-30T09:41:00Z,19.85,-101.03,10.0,1.0,0,0,,7.0,30.180119,,,,,,,,,,,SKC,,,,,,,,VFR,,,,,,,,,,,,SPECI,1840.0
RJNY 300940Z 26018KT 9999 FEW025 BKN150 BKN240 19/09 Q1005 RMK 1CU025 5AC150 A2970,RJNY,2023-04-30T09:40:00Z,34.82,138.3,19.0,9.0,260,18,,6.21,29.675198,,,,,,,,,,,FEW,2500,BKN,15000,BKN,24000,,,VFR,,,,,,,,,,,,METAR,7.0
MMZC 300940Z E34005KT 10SM SKC 10/M09 A3026,MMZC,2023-04-30T09:40:00Z,22.9,-102.68,10.0,-9.0,340,5,,10.0,30.259842,,,,,,,,,,,SKC,,,,,,,,VFR,,,,,,,,,,,,METAR,2175.0
MMUN 300940Z 29006KT 7SM BKN250 23/22 A2987 RMK 8/008 HZY SC,MMUN,2023-04-30T09:40:00Z,21.03,-86.85,23.0,22.0,290,6,,7.0,29.870079,,,,,,,,,,,BKN,25000,,,,,,,VFR,,,,,,,,,,,,METAR,13.0
MMTP 300940Z 00000KT 8SM SKC 24/24 A2984 RMK HZY,MMTP,2023-04-30T09:40:00Z,14.78,-92.37,24.0,24.0,0,0,,8.0,29.840551,,,,,,,,,,,SKC,,,,,,,,VFR,,,,,,,,,,,,METAR,27.0
MMTJ 300940Z 35004KT 3SM BR FEW005 OVC010 14/13 A2998 RMK 8/6//,MMTJ,2023-04-30T09:40:00Z,32.53,-116.97,14.0,13.0,350,4,,3.0,29.97933,,,,,,,,,,BR,FEW,500,OVC,1000,,,,,MVFR,,,,,,,,,,,,METAR,150.0
MMSP 300940Z 31005KT 8SM SKC 09/03 A3024,MMSP,2023-04-30T09:40:00Z,22.25,-100.93,9.0,3.0,310,5,,8.0,30.239174,,,,,,,,,,,SKC,,,,,,,,VFR,,,,,,,,,,,,METAR,1841.0
MMQT 300940Z 17004KT 8SM FEW020 10/05 A3029 RMK 8/500,MMQT,2023-04-30T09:40:00Z,20.62,-100.18,10.0,5.0,170,4,,8.0,30.28937,,,,,,,,,,,FEW,2000,,,,,,,VFR,,,,,,,,,,,,METAR,1909.0
MMMZ 300940Z 05003KT 8SM SCT240 19/16 A2988 RMK 8/002,MMMZ,2023-04-30T09:40:00Z,23.17,-106.27,19.0,16.0,50,3,,8.0,29.878937,,,,,,,,,,,SCT,24000,,,,,,,VFR,,,,,,,,,,,,METAR,7.0
MMMD 300940Z 36010KT 6SM OVC015 24/17 A2994 RMK 8/5// HZY,MMMD,2023-04-30T09:40:00Z,20.95,-89.65,24.0,17.0,360,10,,6.0,29.940945,,,,,,,,,,,OVC,1500,,,,,,,MVFR,,,,,,,,,,,,METAR,10.0
MMHO 300940Z 00000KT 10SM SCT200 23/02 A2984 RMK 8/008 HZY,MMHO,2023-04-30T09:40:00Z,29.08,-111.05,23.0,2.0,0,0,,10.0,29.840551,,,,,,,,,,,SCT,20000,,,,,,,VFR,,,,,,,,,,,,METAR,186.0
MMGL 300940Z 00000KT 10SM SKC 15/02 A3013,MMGL,2023-04-30T09:40:00Z,20.52,-103.32,15.0,2.0,0,0,,10.0,30.129921,,,,,,,,,,,SKC,,,,,,,,VFR,,,,,,,,,,,,METAR,1531.0
MMAA 300940Z 02003KT 5SM FEW300 24/21 A2987 RMK 8/001 HZY ISOL AC,MMAA,2023-04-30T09:40:00Z,16.75,-99.75,24.0,21.0,20,3,,5.0,29.870079,,,,,,,,,,,FEW,30000,,,,,,,MVFR,,,,,,,,,,,,METAR,5.0
KMHV 300940Z AUTO 18003KT 10SM CLR 19/08 A2994 RMK AO2,KMHV,2023-04-30T09:40:00Z,35.07,-118.15,19.0,8.0,180,3,,10.0,29.940945,,,TRUE,TRUE,,,,,,,CLR,,,,,,,,VFR,,,,,,,,,,,,METAR,841.0
KGZN 300940Z AUTO 23011KT 10SM CLR 15/03 A2990 RMK AO2,KGZN,2023-04-30T09:40:00Z,32.37,-99.02,15.0,3.0,230,11,,10.0,29.899607,,,TRUE,TRUE,,,,,,,CLR,,,,,,,,VFR,,,,,,,,,,,,METAR,522.0
KGOV 300940Z AUTO 19008KT 10SM BKN006 OVC012 03/03 A2936 RMK AO2 CIG 006V011 BKN V SCT SLP953 $,KGOV,2023-04-30T09:40:00Z,44.68,-84.73,3.0,3.0,190,8,,10.0,29.359253,995.3,,TRUE,TRUE,TRUE,,,,,,BKN,600,OVC,1200,,,,,IFR,,,,,,,,,,,,METAR,350.0
KETC 300940Z AUTO 16003KT 7SM BR BKN037 BKN046 OVC060 18/17 A2952 RMK AO2 T01810167,KETC,2023-04-30T09:40:00Z,35.93,-77.55,18.1,16.7,160,3,,7.0,29.518702,,,TRUE,TRUE,,,,,,BR,BKN,3700,BKN,4600,OVC,6000,,,VFR,,,,,,,,,,,,SPECI,15.0
K54A 300940Z AUTO 23010G18KT 4SM -TSRA BKN020 OVC029 25/24 A2970 RMK AO2,K54A,2023-04-30T09:40:00Z,26.85,-82.25,25.0,24.0,230,10,18,4.0,29.698818,,,TRUE,TRUE,,,,,,-TSRA,BKN,2000,OVC,2900,,,,,MVFR,,,,,,,,,,,,METAR,2.0
CYZS 300940Z 34009KT 15SM BKN050 BKN210 M15/M16 A3027 RMK SC7CI1 CI TR SLP259,CYZS,2023-04-30T09:40:00Z,64.2,-83.35,-15.0,-16.0,340,9,,15.0,30.268702,1025.9,,,,,,,,,,BKN,5000,BKN,21000,,,,,VFR,,,,,,,,,,,,SPECI,60.0
CYHD 300940Z AUTO 02008G17KT 340V050 9SM OVC091 01/M03 A2981 RMK SLP117,CYHD,2023-04-30T09:40:00Z,49.82,-92.75,1.0,-3.0,20,8,17,9.0,29.811024,1011.7,,TRUE,,,,,,,,OVC,9100,,,,,,,VFR,,,,,,,,,,,,SPECI,414.0
PACD 300939Z 13032G46KT 8SM -RA OVC027 04/03 A2923 RMK AO2 PK WND 14046/0932 P0000 T00440028 $,PACD,2023-04-30T09:39:00Z,55.22,-162.72,4.4,2.8,130,32,46,8.0,29.22933,,,,TRUE,TRUE,,,,,-RA,OVC,2700,,,,,,,MVFR,,,,,,0.005,,,,,,SPECI,23.0
CYPR 300939Z AUTO 33006KT 260V350 9SM -RA OVC086 09/06 A2981 RMK SLP097,CYPR,2023-04-30T09:39:00Z,54.28,-130.45,9.0,6.0,330,6,,9.0,29.811024,1009.7,,TRUE,,,,,,,-RA,OVC,8600,,,,,,,VFR,,,,,,,,,,,,SPECI,30.0
CYSC 300936Z AUTO 15005KT 9SM SCT032 OVC066 06/04 A2987 RMK SLP123,CYSC,2023-04-30T09:36:00Z,45.43,-71.68,6.0,4.0,150,5,,9.0,29.870079,1012.3,,TRUE,,,,,,,,SCT,3200,OVC,6600,,,,,VFR,,,,,,,,,,,,SPECI,236.0
WBKK 300935Z 12005KT 100V160 9999 TS FEW010 FEW016CB SCT040 27/25 Q1006 RERA NOSIG,WBKK,2023-04-30T09:35:00Z,5.93,116.05,27.0,25.0,120,5,,6.21,29.704725,,,,,,TRUE,,,,TS,FEW,1000,FEW,1600,SCT,4000,,,VFR,,,,,,,,,,,,SPECI,9.0
KEDC 300935Z AUTO 27004KT 10SM CLR 12/07 A2992 RMK AO2,KEDC,2023-04-30T09:35:00Z,30.4,-97.57,12.0,7.0,270,4,,10.0,29.920275,,,TRUE,TRUE,,,,,,,CLR,,,,,,,,VFR,,,,,,,,,,,,METAR,184.0
KBWD 300935Z AUTO 00000KT 10SM CLR 06/04 A2994 RMK AO1,KBWD,2023-04-30T09:35:00Z,31.8,-98.95,6.0,4.0,0,0,,10.0,29.940945,,,TRUE,TRUE,,,,,,,CLR,,,,,,,,VFR,,,,,,,,,,,,SPECI,420.0
K9D7 300935Z AUTO 34009KT 10SM CLR 00/01 A3009 RMK AO2 TSNO,K9D7,2023-04-30T09:35:00Z,48.48,-99.23,0.0,1.0,340,9,,10.0,30.088583,,,TRUE,TRUE,,,TRUE,,,,CLR,,,,,,,,VFR,,,,,,,,,,,,SPECI,451.0
CYCO 300933Z 32002KT 3SM BR OVC003 M13/M15 A3023 RMK ST8 SLP243,CYCO,2023-04-30T09:33:00Z,67.82,-115.15,-13.0,-15.0,320,2,,3.0,30.230314,1024.3,,,,,,,,,BR,OVC,300,,,,,,,LIFR,,,,,,,,,,,,SPECI,20.0
WMKK 300930Z VRB02KT 8000 VCSH FEW008 FEW017CB SCT030 26/24 Q1005 NOSIG,WMKK,2023-04-30T09:30:00Z,2.75,101.72,26.0,24.0,0,2,,4.97,29.675198,,,,,,TRUE,,,,VCSH,FEW,800,FEW,1700,SCT,3000,,,MVFR,,,,,,,,,,,,METAR,21.0
WIPP 300930Z 04004KT 9999 SCT010 31/24 Q1004 NOSIG,WIPP,2023-04-30T09:30:00Z,-2.88,104.7,31.0,24.0,40,4,,6.21,29.64567,,,,,,TRUE,,,,,SCT,1000,,,,,,,VFR,,,,,,,,,,,,METAR,7.0
WIOO 300930Z 22006KT 9999 FEW011CB SCT012 31/26 Q1005 NOSIG,WIOO,2023-04-30T09:30:00Z,-0.15,109.4,31.0,26.0,220,6,,6.21,29.675198,,,,,,TRUE,,,,,FEW,1100,SCT,1200,,,,,VFR,,,,,,,,,,,,METAR,4.0
WIMM 300930Z 29003KT 250V320 8000 SCT017 29/25 Q1004 NOSIG,WIMM,2023-04-30T09:30:00Z,3.57,98.67,29.0,25.0,290,3,,4.97,29.64567,,,,,,TRUE,,,,,SCT,1700,,,,,,,MVFR,,,,,,,,,,,,METAR,27.0
WILL 300930Z 32002KT 9999 FEW015 34/21 Q1004 NOSIG,WILL,2023-04-30T09:30:00Z,-5.25,105.18,34.0,21.0,320,2,,6.21,29.64567,,,,,,TRUE,,,,,FEW,1500,,,,,,,VFR,,,,,,,,,,,,METAR,83.0
WIHH 300930Z 01005KT 6000 SCT020 32/24 Q1004 NOSIG ,WIHH,2023-04-30T09:30:00Z,-6.27,106.88,32.0,24.0,10,5,,3.73,29.64567,,,,,,TRUE,,,,,SCT,2000,,,,,,,MVFR,,,,,,,,,,,,METAR,26.0
WIEE 300930Z 33005KT 290V020 9999 VCTS FEW016 SCT018 29/26 Q1004 NOSIG,WIEE,2023-04-30T09:30:00Z,-0.78,100.28,29.0,26.0,330,5,,6.21,29.64567,,,,,,TRUE,,,,VCTS,FEW,1600,SCT,1800,,,,,VFR,,,,,,,,,,,,METAR,5.0
WIDN 300930Z 16002KT 9999 SCT017 28/26 Q1006 RETS,WIDN,2023-04-30T09:30:00Z,0.92,104.53,28.0,26.0,160,2,,6.21,29.704725,,,,,,,,,,,SCT,1700,,,,,,,VFR,,,,,,,,,,,,METAR,18.0
WIDD 300930Z 06008KT 9999 FEW014 31/25 Q1007 NOSIG,WIDD,2023-04-30T09:30:00Z,1.12,104.12,31.0,25.0,60,8,,6.21,29.734253,,,,,,TRUE,,,,,FEW,1400,,,,,,,VFR,,,,,,,,,,,,METAR,26.0
WIBB 300930Z 03007KT 9999 SCT013 32/26 Q1003 NOSIG,WIBB,2023-04-30T09:30:00Z,0.47,101.45,32.0,26.0,30,7,,6.21,29.616142,,,,,,TRUE,,,,,SCT,1300,,,,,,,VFR,,,,,,,,,,,,METAR,41.0
WBSB 300930Z 15002KT 9999 -RA FEW010 FEW015CB BKN150 26/26 Q1007 RETS NOSIG,WBSB,2023-04-30T09:30:00Z,4.93,114.92,26.0,26.0,150,2,,6.21,29.734253,,,,,,TRUE,,,,-RA,FEW,1000,FEW,1500,BKN,15000,,,VFR,,,,,,,,,,,,METAR,15.0
WBGG 300930Z VRB03KT 9999 TS FEW015CB SCT020 31/23 Q1005 NOSIG,WBGG,2023-04-30T09:30:00Z,1.48,110.35,31.0,23.0,0,3,,6.21,29.675198,,,,,,TRUE,,,,TS,FEW,1500,SCT,2000,,,,,VFR,,,,,,,,,,,,METAR,26.0
WATT 300930Z 12009KT 9999 FEW018 28/24 Q1008 NOSIG,WATT,2023-04-30T09:30:00Z,-10.17,123.67,28.0,24.0,120,9,,6.21,29.763779,,,,,,TRUE,,,,,FEW,1800,,,,,,,VFR,,,,,,,,,,,,METAR,104.0
WARR 300930Z 04009KT 9999 FEW020CB 30/26 Q1005 NOSIG,WARR,2023-04-30T09:30:00Z,-7.37,112.78,30.0,26.0,40,9,,6.21,29.675198,,,,,,TRUE,,,,,FEW,2000,,,,,,,VFR,,,,,,,,,,,,METAR,3.0
WAQQ 300930Z 20005KT 9000 FEW015 30/26 Q1006,WAQQ,2023-04-30T09:30:00Z,3.33,117.57,30.0,26.0,200,5,,5.59,29.704725,,,,,,,,,,,FEW,1500,,,,,,,VFR,,,,,,,,,,,,METAR,6.0
WAPP 300930Z 17003KT 130V220 9999 SCT020 29/24 Q1006 NOSIG,WAPP,2023-04-30T09:30:00Z,-3.7,128.08,29.0,24.0,170,3,,6.21,29.704725,,,,,,TRUE,,,,,SCT,2000,,,,,,,VFR,,,,,,,,,,,,METAR,20.0
WAOO 300930Z 13002KT 9999 FEW020 27/26 Q1006 NOSIG,WAOO,2023-04-30T09:30:00Z,-3.45,114.77,27.0,26.0,130,2,,6.21,29.704725,,,,,,TRUE,,,,,FEW,2000,,,,,,,VFR,,,,,,,,,,,,METAR,23.0
WALL 300930Z 11002KT 9999FEW020 27/25 Q1005 NOSIG,WALL,2023-04-30T09:30:00Z,-1.27,116.9,27.0,25.0,110,2,,,29.675198,,,,,,TRUE,,,,,FEW,2000,,,,,,,,,,,,,,,,,,,METAR,3.0
WAHS 300930Z 32009KT 8000 FEW014 31/25 Q1005 NOSIG,WAHS,2023-04-30T09:30:00Z,-6.98,110.38,31.0,25.0,320,9,,4.97,29.675198,,,,,,TRUE,,,,,FEW,1400,,,,,,,MVFR,,,,,,,,,,,,METAR,3.0
WADD 300930Z 13010KT 9999 FEW017 29/26 Q1006 NOSIG,WADD,2023-04-30T09:30:00Z,-8.73,115.17,29.0,26.0,130,10,,6.21,29.704725,,,,,,TRUE,,,,,FEW,1700,,,,,,,VFR,,,,,,,,,,,,METAR,3.0
WABB 300930Z VRB02KT 9999 SCT018 SCT100 27/25 Q1006 NOSIG,WABB,2023-04-30T09:30:00Z,-1.18,136.12,27.0,25.0,0,2,,6.21,29.704725,,,,,,TRUE,,,,,SCT,1800,SCT,10000,,,,,VFR,,,,,,,,,,,,METAR,12.0
WAAA 300930Z 09005KT 9999 SCT019 26/22 Q1005 NOSIG,WAAA,2023-04-30T09:30:00Z,-5.07,119.55,26.0,22.0,90,5,,6.21,29.675198,,,,,,TRUE,,,,,SCT,1900,,,,,,,VFR,,,,,,,,,,,,METAR,13.0
VYYY 300930Z 21008KT 8000 FEW025 39/23 Q1002 NOSIG,VYYY,2023-04-30T09:30:00Z,16.9,96.13,39.0,23.0,210,8,,4.97,29.586615,,,,,,TRUE,,,,,FEW,2500,,,,,,,MVFR,,,,,,,,,,,,METAR,31.0
VYMD 300930Z 18003KT 6000 HZ FEW020 42/23 Q1001,VYMD,2023-04-30T09:30:00Z,21.7,95.98,42.0,23.0,180,3,,3.73,29.557087,,,,,,,,,,HZ,FEW,2000,,,,,,,MVFR,,,,,,,,,,,,METAR,87.0
VVPQ 300930Z 09007KT 9999 FEW015 31/23 Q1006 NOSIG,VVPQ,2023-04-30T09:30:00Z,10.23,103.97,31.0,23.0,90,7,,6.21,29.704725,,,,,,TRUE,,,,,FEW,1500,,,,,,,VFR,,,,,,,,,,,,METAR,8.0
VOKN 300930Z 26010KT 6000 SCT012 FEW025CB 34/25 Q1005 TEMPO TS,VOKN,2023-04-30T09:30:00Z,11.92,75.55,34.0,25.0,260,10,,3.73,29.675198,,,,,,,,,,,SCT,1200,FEW,2500,,,,,MVFR,,,,,,,,,,,,METAR,105.0
VOAT 300930Z 05005KT 6000 SCT015 FEW025TCU 33/25 Q1006 NOSIG,VOAT,2023-04-30T09:30:00Z,10.82,72.18,33.0,25.0,50,5,,3.73,29.704725,,,,,,TRUE,,,,,SCT,1500,FEW,2500,,,,,MVFR,,,,,,,,,,,,METAR,5.0
VILK 300930Z 11004KT 2500 -RA BKN020 FEW030CB OVC090 23/22 Q1007 NOSIG,VILK,2023-04-30T09:30:00Z,26.75,80.88,23.0,22.0,110,4,,1.55,29.734253,,,,,,TRUE,,,,-RA,BKN,2000,FEW,3000,OVC,9000,,,IFR,,,,,,,,,,,,METAR,121.0
VIJP 300930Z 12008KT 2000 TSRA SCT030 FEW035CB BKN100 22/18 Q1008 NOSIG,VIJP,2023-04-30T09:30:00Z,26.82,75.8,22.0,18.0,120,8,,1.24,29.763779,,,,,,TRUE,,,,TSRA,SCT,3000,FEW,3500,BKN,10000,,,IFR,,,,,,,,,,,,METAR,383.0
VAUD 300930Z 18010KT 5000 HZ SCT030 SCT035 28/17 Q1006 NOSIG,VAUD,2023-04-30T09:30:00Z,24.62,73.9,28.0,17.0,180,10,,3.11,29.704725,,,,,,TRUE,,,,HZ,SCT,3000,SCT,3500,,,,,MVFR,,,,,,,,,,,,METAR,506.0
VASU 300930Z 21008KT 6000 SCT030 33/21 Q1005 NOSIG,VASU,2023-04-30T09:30:00Z,21.12,72.73,33.0,21.0,210,8,,3.73,29.675198,,,,,,TRUE,,,,,SCT,3000,,,,,,,MVFR,,,,,,,,,,,,METAR,6.0
VABP 300930Z 14008KT 3000 -TSRA SCT025 FEW030CB BKN100 20/20 Q1009 NOSIG,VABP,2023-04-30T09:30:00Z,23.28,77.33,20.0,20.0,140,8,,1.86,29.793306,,,,,,TRUE,,,,-TSRA,SCT,2500,FEW,3000,BKN,10000,,,IFR,,,,,,,,,,,,METAR,520.0
OISS 300930Z 25004KT CAVOK 27/M01 Q1015 A2998,OISS,2023-04-30T09:30:00Z,29.53,52.58,27.0,-1.0,250,4,,6.21,29.970472,,,,,,,,,,,CAVOK,,,,,,,,VFR,,,,,,,,,,,,METAR,1484.0
OICC 300930Z 24010KT 9999 SCT045TCU BKN200 22/M01 Q1014 A2997,OICC,2023-04-30T09:30:00Z,34.35,47.17,22.0,-1.0,240,10,,6.21,29.940945,,,,,,,,,,,SCT,4500,BKN,20000,,,,,VFR,,,,,,,,,,,,METAR,1310.0
HKJK 300930Z 17005KT 9999 BKN025 23/15 Q1021 NOSIG,HKJK,2023-04-30T09:30:00Z,-1.32,36.92,23.0,15.0,170,5,,6.21,30.147638,,,,,,TRUE,,,,,BKN,2500,,,,,,,MVFR,,,,,,,,,,,,METAR,1615.0
GQNO 300930Z 02011KT 8000 NSC 30/15 Q1011 NOSIG,GQNO,2023-04-30T09:30:00Z,18.3,-15.97,30.0,15.0,20,11,,4.97,29.852362,,,,,,TRUE,,,,,CLR,,,,,,,,MVFR,,,,,,,,,,,,METAR,1.0
GOTT 300930Z 22010KT CAVOK 30/20 Q1012,GOTT,2023-04-30T09:30:00Z,13.73,-13.65,30.0,20.0,220,10,,6.21,29.88189,,,,,,,,,,,CAVOK,,,,,,,,VFR,,,,,,,,,,,,METAR,53.0
GOBD 300930Z 25009KT 9999 FEW015 24/20 Q1013 NOSIG,GOBD,2023-04-30T09:30:00Z,14.67,-17.07,24.0,20.0,250,9,,6.21,29.911417,,,,,,TRUE,,,,,FEW,1500,,,,,,,VFR,,,,,,,,,,,,METAR,90.0
GABS 300930Z 21011KT 170V250 CAVOK 32/20 Q1013 NOSIG,GABS,2023-04-30T09:30:00Z,12.53,-7.95,32.0,20.0,210,11,,6.21,29.911417,,,,,,TRUE,,,,,CAVOK,,,,,,,,VFR,,,,,,,,,,,,METAR,375.0
FMEP 300930Z AUTO 14014KT CAVOK 28/22 Q1010 NOSIG,FMEP,2023-04-30T09:30:00Z,-21.32,55.42,28.0,22.0,140,14,,6.21,29.822834,,,TRUE,,,TRUE,,,,,CAVOK,,,,,,,,VFR,,,,,,,,,,,,METAR,21.0
FMEE 300930Z AUTO 09012KT 9999 FEW030 SCT035 BKN049 29/22 Q1010 TEMPO 4500 SHRA SCT015TCU,FMEE,2023-04-30T09:30:00Z,-20.88,55.52,29.0,22.0,90,12,,6.21,29.822834,,,TRUE,,,,,,,,FEW,3000,SCT,3500,BKN,4900,,,VFR,,,,,,,,,,,,SPECI,20.0
CYYU 300930Z 08006KT 2 1/2SM -RA BR OVC004 05/05 A2947 RMK RA4SC4 SLP990,CYYU,2023-04-30T09:30:00Z,49.42,-82.47,5.0,5.0,80,6,,2.5,29.471457,999.0,,,,,,,,,-RA BR,OVC,400,,,,,,,LIFR,,,,,,,,,,,,SPECI,228.0
CYCK 300930Z AUTO 16004KT 5/8SM BR BKN002 05/05 A2944 RMK SLP976,CYCK,2023-04-30T09:30:00Z,42.3,-82.08,5.0,5.0,160,4,,0.63,29.438976,997.6,,TRUE,,,,,,,BR,BKN,200,,,,,,,LIFR,,,,,,,,,,,,SPECI,196.0
KPSM 300928Z 06009KT 2SM RA BR OVC010 07/06 A2993 RMK AO2A SLP138,KPSM,2023-04-30T09:28:00Z,43.08,-70.82,7.0,6.0,60,9,,2.0,29.929134,1013.8,,,TRUE,,,,,,RA BR,OVC,1000,,,,,,,IFR,,,,,,,,,,,,SPECI,34.0
CYVO 300928Z AUTO 14011G19KT 9SM OVC011 06/05 A2959 RMK SLP036,CYVO,2023-04-30T09:28:00Z,48.07,-77.77,6.0,5.0,140,11,19,9.0,29.589567,1003.6,,TRUE,,,,,,,,OVC,1100,,,,,,,MVFR,,,,,,,,,,,,SPECI,329.0
KWRI 300927Z 10006KT 2SM BR OVC002 11/11 A2968 RMK AO2A SLP050,KWRI,2023-04-30T09:27:00Z,40.02,-74.58,11.0,11.0,100,6,,2.0,29.681103,1005.0,,,TRUE,,,,,,BR,OVC,200,,,,,,,LIFR,,,,,,,,,,,,SPECI,35.0
CYKP 300925Z AUTO 01012G19KT 350V060 6SM -RA BR OVC005 01/01 A2967 RMK PCPN 0.5MM PAST HR SLP059,CYKP,2023-04-30T09:25:00Z,51.67,-85.9,1.0,1.0,10,12,19,6.0,29.66929,1005.9,,TRUE,,,,,,,-RA BR,OVC,500,,,,,,,IFR,,,,,,,,,,,,SPECI,181.0
CYER 300925Z AUTO 36006KT 9SM BKN005 M04/M04 A3013 RMK SLP205,CYER,2023-04-30T09:25:00Z,56.02,-87.68,-4.0,-4.0,360,6,,9.0,30.129921,1020.5,,TRUE,,,,,,,,BKN,500,,,,,,,IFR,,,,,,,,,,,,SPECI,11.0
CYPD 300924Z AUTO VRB02KT 9SM SCT002 M03/M04 A3018 RMK SLP230,CYPD,2023-04-30T09:24:00Z,45.67,-61.37,-3.0,-4.0,0,2,,9.0,30.180119,1023.0,,TRUE,,,,,,,,SCT,200,,,,,,,VFR,,,,,,,,,,,,SPECI,106.0
CYKL 300924Z AUTO 13002KT 9SM CLR M02/M02 A3007 RMK SLP216,CYKL,2023-04-30T09:24:00Z,54.8,-66.8,-2.0,-2.0,130,2,,9.0,30.070866,1021.6,,TRUE,,,,,,,,CLR,,,,,,,,VFR,,,,,,,,,,,,SPECI,507.0
CYDP 300924Z 06003KT 3/4SM -SHSN BR VV004 M04/M05 A3024 RMK FG8 SLP244,CYDP,2023-04-30T09:24:00Z,56.53,-61.68,-4.0,-5.0,60,3,,0.75,30.239174,1024.4,,,,,,,,,-SHSN BR,OVX,0,,,,,,,LIFR,,,,,,,,,,,400,SPECI,14.0
KNDZ 300922Z AUTO 30004KT 10SM BKN010 15/14 A2965 RMK AO2 T01500139 $,KNDZ,2023-04-30T09:22:00Z,30.7,-87.02,15.0,13.9,300,4,,10.0,29.648623,,,TRUE,TRUE,TRUE,,,,,,BKN,1000,,,,,,,MVFR,,,,,,,,,,,,SPECI,51.0
CYBQ 300922Z AUTO 30003KT 9SM OVC024 00/00 A3019 RMK SLP246,CYBQ,2023-04-30T09:22:00Z,58.7,-98.5,0.0,0.0,300,3,,9.0,30.188976,1024.6,,TRUE,,,,,,,,OVC,2400,,,,,,,MVFR,,,,,,,,,,,,SPECI,272.0
CYQI 300921Z 12008KT 15SM FEW008 BKN130 04/02 A3012 RMK SF1AC7 SF TR SLP202,CYQI,2023-04-30T09:21:00Z,43.83,-66.08,4.0,2.0,120,8,,15.0,30.121063,1020.2,,,,,,,,,,FEW,800,BKN,13000,,,,,VFR,,,,,,,,,,,,SPECI,37.0
WMSA 300920Z VRB01KT 9999 FEW010 25/24 Q1006 RETS,WMSA,2023-04-30T09:20:00Z,3.13,101.55,25.0,24.0,0,1,,6.21,29.704725,,,,,,,,,,,FEW,1000,,,,,,,VFR,,,,,,,,,,,,SPECI,19.0
ETWM 300920Z AUTO 08004KT //// // ////// 11/03 Q1025 ///,ETWM,2023-04-30T09:20:00Z,52.72,7.33,11.0,3.0,80,4,,,30.265747,,,TRUE,,,,,,,,,,,,,,,,,,,,,,,,,,,,METAR,18.0
ETSN 300920Z 08007KT 9999 FEW032 BKN055 15/06 Q1020 BLU,ETSN,2023-04-30T09:20:00Z,48.72,11.22,15.0,6.0,80,7,,6.21,30.11811,,,,,,,,,,,FEW,3200,BKN,5500,,,,,VFR,,,,,,,,,,,,METAR,378.0
ETSL 300920Z 04012KT 9999 SCT020 12/07 Q1019 BLU+,ETSL,2023-04-30T09:20:00Z,48.18,10.87,12.0,7.0,40,12,,6.21,30.088583,,,,,,,,,,,SCT,2000,,,,,,,VFR,,,,,,,,,,,,METAR,548.0
ETSI 300920Z AUTO 06009KT 8000 // ////// 13/05 Q1020 ///,ETSI,2023-04-30T09:20:00Z,48.72,11.53,13.0,5.0,60,9,,4.97,30.11811,,,TRUE,,,,,,,,,,,,,,,,,,,,,,,,,,,,METAR,366.0
ETSH 300920Z 28005KT 9999 SCT033 11/02 Q1023 BLU+,ETSH,2023-04-30T09:20:00Z,51.77,13.17,11.0,2.0,280,5,,6.21,30.206694,,,,,,,,,,,SCT,3300,,,,,,,VFR,,,,,,,,,,,,METAR,79.0
ETSB 300920Z AUTO 08011KT //// // ////// 11/04 Q1022 ///,ETSB,2023-04-30T09:20:00Z,50.17,7.07,11.0,4.0,80,11,,,30.177166,,,TRUE,,,,,,,,,,,,,,,,,,,,,,,,,,,,METAR,477.0
ETNW 300920Z 14004KT 9999 FEW031 11/02 Q1025 BLU+,ETNW,2023-04-30T09:20:00Z,52.45,9.42,11.0,2.0,140,4,,6.21,30.265747,,,,,,,,,,,FEW,3100,,,,,,,VFR,,,,,,,,,,,,METAR,57.0
ETNT 300920Z AUTO VRB03KT //// // ////// 09/03 Q1025 ///,ETNT,2023-04-30T09:20:00Z,53.53,7.67,9.0,3.0,0,3,,,30.265747,,,TRUE,,,,,,,,,,,,,,,,,,,,,,,,,,,,METAR,5.0
ETNS 300920Z AUTO 27007KT 9999 // ////// 09/M01 Q1025 ///,ETNS,2023-04-30T09:20:00Z,54.47,9.52,9.0,-1.0,270,7,,6.21,30.265747,,,TRUE,,,,,,,,,,,,,,,,,,,,,,,,,,,,METAR,22.0
ETNN 300920Z 31002KT 9999 FEW028 14/07 Q1022 BLU+,ETNN,2023-04-30T09:20:00Z,50.82,6.67,14.0,7.0,310,2,,6.21,30.177166,,,,,,,,,,,FEW,2800,,,,,,,VFR,,,,,,,,,,,,METAR,108.0
ETNL 300920Z 30012KT 9999 SCT038 09/M00 Q1024 BLU+,ETNL,2023-04-30T09:20:00Z,53.92,12.27,9.0,0.0,300,12,,6.21,30.236221,,,,,,,,,,,SCT,3800,,,,,,,VFR,,,,,,,,,,,,METAR,40.0
ETNH 300920Z AUTO 30004KT 9000 // ////// 09/M01 Q1024 ///,ETNH,2023-04-30T09:20:00Z,54.32,9.55,9.0,-1.0,300,4,,5.59,30.236221,,,TRUE,,,,,,,,,,,,,,,,,,,,,,,,,,,,METAR,6.0
ETMN 300920Z 01004KT 9999 FEW030 09/M01 Q1025 BLU+,ETMN,2023-04-30T09:20:00Z,53.77,8.67,9.0,-1.0,10,4,,6.21,30.265747,,,,,,,,,,,FEW,3000,,,,,,,VFR,,,,,,,,,,,,METAR,23.0
ETHS 300920Z AUTO 17003KT 4400 // ////// 10/M01 Q1025 ///,ETHS,2023-04-30T09:20:00Z,52.92,10.18,10.0,-1.0,170,3,,2.73,30.265747,,,TRUE,,,,,,,,,,,,,,,,,,,,,,,,,,,,METAR,71.0
ETHN 300920Z 07010KT 9999 SCT030 13/05 Q1021 BLU+,ETHN,2023-04-30T09:20:00Z,49.38,9.97,13.0,5.0,70,10,,6.21,30.147638,,,,,,,,,,,SCT,3000,,,,,,,VFR,,,,,,,,,,,,METAR,466.0
ETHL 300920Z 08014KT 9999 BKN037 SCT300 13/05 Q1019 BLU,ETHL,2023-04-30T09:20:00Z,48.22,9.92,13.0,5.0,80,14,,6.21,30.088583,,,,,,,,,,,BKN,3700,SCT,30000,,,,,VFR,,,,,,,,,,,,METAR,536.0
ETHF 300920Z 06005G16KT 9999 FEW030 12/04 Q1023 BLU+,ETHF,2023-04-30T09:20:00Z,51.12,9.28,12.0,4.0,60,5,16,6.21,30.206694,,,,,,,,,,,FEW,3000,,,,,,,VFR,,,,,,,,,,,,METAR,171.0
ETHC 300920Z 10004KT 9999 FEW036 10/M00 Q1025 BLU+,ETHC,2023-04-30T09:20:00Z,52.6,10.02,10.0,0.0,100,4,,6.21,30.265747,,,,,,,,,,,FEW,3600,,,,,,,VFR,,,,,,,,,,,,METAR,35.0
ETHB 300920Z AUTO 05004KT 9999 // ////// 10/03 Q1024 ///,ETHB,2023-04-30T09:20:00Z,52.27,9.07,10.0,3.0,50,4,,6.21,30.236221,,,TRUE,,,,,,,,,,,,,,,,,,,,,,,,,,,,METAR,69.0
ETHA 300920Z AUTO 08011KT 9999 // ////// 11/06 Q1019 ///,ETHA,2023-04-30T09:20:00Z,47.83,10.87,11.0,6.0,80,11,,6.21,30.088583,,,TRUE,,,,,,,,,,,,,,,,,,,,,,,,,,,,METAR,738.0
ETGG 300920Z AUTO 29009KT 9999 // ////// 09/M00 Q1024 ///,ETGG,2023-04-30T09:20:00Z,54.83,9.5,9.0,0.0,290,9,,6.21,30.236221,,,TRUE,,,,,,,,,,,,,,,,,,,,,,,,,,,,METAR,33.0
ENNE 300920Z 26018KT 9999 VCSH SCT020CB 05/M01 Q1004 W///S4,ENNE,2023-04-30T09:20:00Z,66.03,8.08,5.0,-1.0,260,18,,6.21,29.64567,,,,,,,,,,VCSH,SCT,2000,,,,,,,VFR,,,,,,,,,,,,METAR,10.0
CYVV 300920Z 00000KT 4SM BR OVC014 07/07 A2942 RMK ST8 SLP970,CYVV,2023-04-30T09:20:00Z,44.75,-81.1,7.0,7.0,0,0,,4.0,29.421259,997.0,,,,,,,,,BR,OVC,1400,,,,,,,MVFR,,,,,,,,,,,,SPECI,221.0
KI35 300919Z AUTO 00000KT 1/4SM OVC001 12/12 A2953 RMK AO2,KI35,2023-04-30T09:19:00Z,36.87,-83.37,12.0,12.0,0,0,,0.25,29.530512,,,TRUE,TRUE,,,,,,,OVC,100,,,,,,,LIFR,,,,,,,,,,,,SPECI,467.0
CYPX 300918Z AUTO 01009KT 9SM SCT016 BKN230 M03/M05 A3021 RMK SLP235,CYPX,2023-04-30T09:18:00Z,60.03,-77.27,-3.0,-5.0,10,9,,9.0,30.209646,1023.5,,TRUE,,,,,,,,SCT,1600,BKN,23000,,,,,VFR,,,,,,,,,,,,SPECI,10.0
CYOO 300918Z AUTO 10007KT 9SM BKN033 09/09 A2951 RMK SLP997,CYOO,2023-04-30T09:18:00Z,43.92,-78.9,9.0,9.0,100,7,,9.0,29.509842,999.7,,TRUE,,,,,,,,BKN,3300,,,,,,,VFR,,,,,,,,,,,,SPECI,136.0
CYMT 300918Z AUTO 14009G16KT 9SM -RA OVC030 07/02 A2978 RMK SLP098,CYMT,2023-04-30T09:18:00Z,49.77,-74.52,7.0,2.0,140,9,16,9.0,29.778543,1009.8,,TRUE,,,,,,,-RA,OVC,3000,,,,,,,MVFR,,,,,,,,,,,,SPECI,388.0
CYMX 300917Z 07006KT 050V110 10SM -RA BKN006 BKN016 OVC024 06/06 A2979 RMK SF6SC1SC1 SLP091,CYMX,2023-04-30T09:17:00Z,45.67,-74.03,6.0,6.0,70,6,,10.0,29.790354,1009.1,,,,,,,,,-RA,BKN,600,BKN,1600,OVC,2400,,,IFR,,,,,,,,,,,,SPECI,78.0
K40B 300916Z AUTO 17007G16KT 120V200 07/01 A3002 RMK AO1 SLP170 T00680012 55008,K40B,2023-04-30T09:16:00Z,46.62,-69.52,6.8,1.2,170,7,16,,30.02067,1017.0,,TRUE,TRUE,,,,,,,,,,,,,,,,-0.8,,,,,,,,,,,SPECI,344.0
CYKF 300916Z AUTO 18004KT 9SM -RA FEW005 BKN018 BKN049 OVC086 09/08 A2947 RMK SLP986,CYKF,2023-04-30T09:16:00Z,43.47,-80.38,9.0,8.0,180,4,,9.0,29.471457,998.6,,TRUE,,,,,,,-RA,FEW,500,BKN,1800,BKN,4900,OVC,8600,MVFR,,,,,,,,,,,,SPECI,312.0
RKNW 300915Z 26005KT 9999 FEW030 BKN130 18/02 A2978 RMK CIG130,RKNW,2023-04-30T09:15:00Z,37.33,127.95,18.0,2.0,260,5,,6.21,29.778543,,,,,,,,,,,FEW,3000,BKN,13000,,,,,VFR,,,,,,,,,,,,SPECI,152.0
KTFP 300915Z AUTO 30004KT 10SM CLR 16/12 A2995 RMK AO2 T01560122,KTFP,2023-04-30T09:15:00Z,27.92,-97.22,15.6,12.2,300,4,,10.0,29.949802,,,TRUE,TRUE,,,,,,,CLR,,,,,,,,VFR,,,,,,,,,,,,METAR,5.0
CYCB 300915Z 33005KT 12SM -SN FEW005 OVC016 M10/M11 A3015 RMK SF1SC7 SLP215,CYCB,2023-04-30T09:15:00Z,69.1,-105.12,-10.0,-11.0,330,5,,12.0,30.15059,1021.5,,,,,,,,,-SN,FEW,500,OVC,1600,,,,,MVFR,,,,,,,,,,,,SPECI,19.0
CYYQ 300912Z 06003KT 10SM SCT002 BKN038 OVC075 M05/M06 A3023 RMK SC4SC3AC1 SLP241,CYYQ,2023-04-30T09:12:00Z,58.75,-94.07,-5.0,-6.0,60,3,,10.0,30.230314,1024.1,,,,,,,,,,SCT,200,BKN,3800,OVC,7500,,,VFR,,,,,,,,,,,,SPECI,20.0
CWIL 300911Z AUTO ///// ////SM OVC005 M11/M12 A3014,CWIL,2023-04-30T09:11:00Z,68.32,-100.07,-11.0,-12.0,,,,,30.138779,,,TRUE,,,,,,,,OVC,500,,,,,,,,,,,,,,,,,,,SPECI,28.0
WMKJ 300910Z VRB02KT 9999 -TSRA FEW017CB 28/26 Q1005,WMKJ,2023-04-30T09:10:00Z,1.63,103.67,28.0,26.0,0,2,,6.21,29.675198,,,,,,,,,,-TSRA,FEW,1700,,,,,,,VFR,,,,,,,,,,,,SPECI,38.0
VCRI 300910Z 17006KT 100V210 9999 FEW018 31/27 Q1006 NOSIG,VCRI,2023-04-30T09:10:00Z,6.28,81.13,31.0,27.0,170,6,,6.21,29.704725,,,,,,TRUE,,,,,FEW,1800,,,,,,,VFR,,,,,,,,,,,,METAR,50.0
VCBI 300910Z 27006KT 210V350 9999 SCT016 FEW018CB 32/26 Q1005 NOSIG RMK CB E/SE,VCBI,2023-04-30T09:10:00Z,7.17,79.88,32.0,26.0,270,6,,6.21,29.675198,,,,,,TRUE,,,,,SCT,1600,FEW,1800,,,,,VFR,,,,,,,,,,,,SPECI,10.0
RKNN 300910Z 26007G017KT 9999 FEW080 SCT170 20/00 A2974,RKNN,2023-04-30T09:10:00Z,37.75,128.93,20.0,0.0,260,7,17,6.21,29.740158,,,,,,,,,,,FEW,8000,SCT,17000,,,,,VFR,,,,,,,,,,,,SPECI,11.0
KHOP 300910Z AUTO 34008KT 10SM SCT020 SCT026 09/09 A2960 RMK AO2 SLP024,KHOP,2023-04-30T09:10:00Z,36.67,-87.5,9.0,9.0,340,8,,10.0,29.601377,1002.4,,TRUE,TRUE,,,,,,,SCT,2000,SCT,2600,,,,,VFR,,,,,,,,,,,,METAR,170.0
SBLB 300908Z AUTO 03027KT 2000 RA BKN020 22/21 Q1017 W///S4,SBLB,2023-04-30T09:08:00Z,-22.1,-39.92,22.0,21.0,30,27,,1.24,30.029528,,,TRUE,,,,,,,RA,BKN,2000,,,,,,,IFR,,,,,,,,,,,,SPECI,10.0
CYQB 300907Z 07010KT 6SM RA BR BKN023 OVC050 07/05 A2997 RMK SC6SC2 SLP152,CYQB,2023-04-30T09:07:00Z,46.78,-71.38,7.0,5.0,70,10,,6.0,29.970472,1015.2,,,,,,,,,RA BR,BKN,2300,OVC,5000,,,,,MVFR,,,,,,,,,,,,SPECI,73.0
CWKM 300906Z AUTO 10025G30KT ////SM FEW002 M13/M15 A3016,CWKM,2023-04-30T09:06:00Z,69.6,-140.17,-13.0,-15.0,100,25,30,,30.159449,,,TRUE,,,,,,,,FEW,200,,,,,,,,,,,,,,,,,,,SPECI,8.0
CYYB 300903Z AUTO 13008KT 9SM BKN005 OVC009 08/08 A2950 RMK SLP000,CYYB,2023-04-30T09:03:00Z,46.35,-79.42,8.0,8.0,130,8,,9.0,29.500984,1000.0,,TRUE,,,,,,,,BKN,500,OVC,900,,,,,IFR,,,,,,,,,,,,SPECI,360.0
PAHX 300902Z AUTO 00000KT 10SM CLR 02/M03 A2980 RMK AO2 SLP091 T00221028 56004 FZRANO,PAHX,2023-04-30T09:02:00Z,62.7,-159.57,2.2,-2.8,0,0,,10.0,29.799213,1009.1,,TRUE,TRUE,,,,TRUE,,,CLR,,,,,,,,VFR,-0.4,,,,,,,,,,,METAR,20.0
VEHO 300901Z 06005KT 6000 NSW SCT020 BKN100 28/20 Q1007 NOSIG,VEHO,2023-04-30T09:01:00Z,,,28.0,20.0,60,5,,3.73,29.734253,,,,,,TRUE,,,,,SCT,2000,BKN,10000,,,,,MVFR,,,,,,,,,,,,METAR,
RJSH 300901Z 25022G32KT 9999 FEW030 SCT050 BKN/// 15/06 Q1002 RMK 2CU030 4SC050 A2960,RJSH,2023-04-30T09:01:00Z,40.55,141.47,15.0,6.0,250,22,32,6.21,29.586615,,,,,,,,,,,FEW,3000,SCT,5000,,,,,VFR,,,,,,,,,,,,METAR,46.0
WMKN 300900Z VRB03KT 9999 FEW020 27/26 Q1006 RETS,WMKN,2023-04-30T09:00:00Z,5.37,103.1,27.0,26.0,0,3,,6.21,29.704725,,,,,,,,,,,FEW,2000,,,,,,,VFR,,,,,,,,,,,,METAR,12.0
WMKM 300900Z 25006KT 190V350 8000 TS VCSH FEW017CB SCT020 31/26 Q1005,WMKM,2023-04-30T09:00:00Z,2.27,102.25,31.0,26.0,250,6,,4.97,29.675198,,,,,,,,,,TS VCSH,FEW,1700,SCT,2000,,,,,MVFR,,,,,,,,,,,,METAR,9.0
WMKL 300900Z 27004KT 200V340 9000 -SHRA FEW017CB 31/27 Q1004,WMKL,2023-04-30T09:00:00Z,6.32,99.72,31.0,27.0,270,4,,5.59,29.64567,,,,,,,,,,-SHRA,FEW,1700,,,,,,,VFR,,,,,,,,,,,,METAR,4.0
WMKI 300900Z 21005KT 130V250 9000 -TSRA FEW017CB SCT024 25/24 Q1006,WMKI,2023-04-30T09:00:00Z,4.57,101.08,25.0,24.0,210,5,,5.59,29.704725,,,,,,,,,,-TSRA,FEW,1700,SCT,2400,,,,,VFR,,,,,,,,,,,,METAR,37.0
WMKE 300900Z VRB02KT 9999 TS FEW014CB SCT017 28/26 Q1005 RETSRA,WMKE,2023-04-30T09:00:00Z,4.53,103.43,28.0,26.0,0,2,,6.21,29.675198,,,,,,,,,,TS,FEW,1400,SCT,1700,,,,,VFR,,,,,,,,,,,,METAR,5.0
WMKD 300900Z 06007KT 010V120 9999 FEW017CB 31/25 Q1005 NOSIG,WMKD,2023-04-30T09:00:00Z,3.77,103.22,31.0,25.0,60,7,,6.21,29.675198,,,,,,TRUE,,,,,FEW,1700,,,,,,,VFR,,,,,,,,,,,,METAR,18.0
WMKC 300900Z 10007G19KT 050V170 9999 TS FEW012 FEW017CB 31/26 Q1006,WMKC,2023-04-30T09:00:00Z,6.17,102.28,31.0,26.0,100,7,19,6.21,29.704725,,,,,,,,,,TS,FEW,1200,FEW,1700,,,,,VFR,,,,,,,,,,,,METAR,7.0
WMKB 300900Z 30010KT 260V350 9000 TS FEW017CB 32/26 Q1003 NOSIG,WMKB,2023-04-30T09:00:00Z,5.47,100.38,32.0,26.0,300,10,,5.59,29.616142,,,,,,TRUE,,,,TS,FEW,1700,,,,,,,VFR,,,,,,,,,,,,METAR,4.0
WMKA 300900Z 09008KT 030V140 5000 -TSRA FEW012 FEW017CB SCT018 25/24 Q1005,WMKA,2023-04-30T09:00:00Z,6.2,100.4,25.0,24.0,90,8,,3.11,29.675198,,,,,,,,,,-TSRA,FEW,1200,FEW,1700,SCT,1800,,,MVFR,,,,,,,,,,,,METAR,5.0
WMBA 300900Z 28003KT 210V330 9999 FEW017CB 31/26 Q1005,WMBA,2023-04-30T09:00:00Z,4.22,100.7,31.0,26.0,280,3,,6.21,29.675198,,,,,,,,,,,FEW,1700,,,,,,,VFR,,,,,,,,,,,,METAR,9.0
WMAU 300900Z VRB03KT 9999 SCT020 28/26 Q1005,WMAU,2023-04-30T09:00:00Z,2.38,103.88,28.0,26.0,0,3,,6.21,29.675198,,,,,,,,,,,SCT,2000,,,,,,,VFR,,,,,,,,,,,,METAR,5.0
WBKW 300900Z 17003KT 130V240 9999 FEW017 30/26 Q1005,WBKW,2023-04-30T09:00:00Z,4.32,118.12,30.0,26.0,170,3,,6.21,29.675198,,,,,,,,,,,FEW,1700,,,,,,,VFR,,,,,,,,,,,,METAR,17.0
WBKT 300900Z VRB02KT 9999 FEW014 29/25 Q1006,WBKT,2023-04-30T09:00:00Z,6.92,116.83,29.0,25.0,0,2,,6.21,29.704725,,,,,,,,,,,FEW,1400,,,,,,,VFR,,,,,,,,,,,,METAR,11.0
WBKS 300900Z 02004KT 340V050 9999 FEW016 FEW017CB 30/25 Q1006,WBKS,2023-04-30T09:00:00Z,5.9,118.07,30.0,25.0,20,4,,6.21,29.704725,,,,,,,,,,,FEW,1600,FEW,1700,,,,,VFR,,,,,,,,,,,,METAR,13.0
WBKL 300900Z VRB01KT 9999 TS FEW014 FEW016CB 27/24 Q1007,WBKL,2023-04-30T09:00:00Z,5.3,115.25,27.0,24.0,0,1,,6.21,29.734253,,,,,,,,,,TS,FEW,1400,FEW,1600,,,,,VFR,,,,,,,,,,,,METAR,29.0
WBGY 300900Z VRB01KT 9999 TS FEW015CB SCT022 29/25 Q1006,WBGY,2023-04-30T09:00:00Z,1.22,111.45,29.0,25.0,0,1,,6.21,29.704725,,,,,,,,,,TS,FEW,1500,SCT,2200,,,,,VFR,,,,,,,,,,,,METAR,13.0
WBGS 300900Z 04005KT 010V070 9999 SCT017 28/25 Q1007,WBGS,2023-04-30T09:00:00Z,2.27,111.98,28.0,25.0,40,5,,6.21,29.734253,,,,,,,,,,,SCT,1700,,,,,,,VFR,,,,,,,,,,,,METAR,26.0
WBGR 300900Z 32006KT 260V350 9999 SCT016 30/25 Q1006,WBGR,2023-04-30T09:00:00Z,4.32,113.98,30.0,25.0,320,6,,6.21,29.704725,,,,,,,,,,,SCT,1600,,,,,,,VFR,,,,,,,,,,,,METAR,18.0
WBGB 300900Z VRB04KT 9999 SCT016 30/25 Q1007,WBGB,2023-04-30T09:00:00Z,3.12,113.02,30.0,25.0,0,4,,6.21,29.734253,,,,,,,,,,,SCT,1600,,,,,,,VFR,,,,,,,,,,,,METAR,34.0
VTUD 300900Z VRB04KT 9999 SCT035 33/21 Q1008 NOSIG,VTUD,2023-04-30T09:00:00Z,17.37,102.78,33.0,21.0,0,4,,6.21,29.763779,,,,,,TRUE,,,,,SCT,3500,,,,,,,VFR,,,,,,,,,,,,METAR,177.0
VTSC 300900Z 09006KT 060V120 9999 FEW018 30/25 Q1005 NOSIG,VTSC,2023-04-30T09:00:00Z,6.52,101.75,30.0,25.0,90,6,,6.21,29.675198,,,,,,TRUE,,,,,FEW,1800,,,,,,,VFR,,,,,,,,,,,,METAR,5.0
VTCP 300900Z 01006KT 310V050 CAVOK 32/23 Q1006 NOSIG,VTCP,2023-04-30T09:00:00Z,18.13,100.17,32.0,23.0,10,6,,6.21,29.704725,,,,,,TRUE,,,,,CAVOK,,,,,,,,VFR,,,,,,,,,,,,METAR,166.0
VOSM 300900Z 14004KT 8000 SCT020 35/19 Q1007 NOSIG,VOSM,2023-04-30T09:00:00Z,11.78,78.07,35.0,19.0,140,4,,4.97,29.734253,,,,,,TRUE,,,,,SCT,2000,,,,,,,MVFR,,,,,,,,,,,,METAR,301.0
VIGG 300900Z 34005KT 6000 -TS SCT030 FEW035CB 27/13 Q1010,VIGG,2023-04-30T09:00:00Z,32.17,76.25,27.0,13.0,340,5,,3.73,29.822834,,,,,,,,,,-TS,SCT,3000,FEW,3500,,,,,MVFR,,,,,,,,,,,,METAR,760.0
VELR 300900Z 09004KT 4000 HZ FEW020 SCT090 27/19 Q1008,VELR,2023-04-30T09:00:00Z,27.3,94.1,27.0,19.0,90,4,,2.49,29.763779,,,,,,,,,,HZ,FEW,2000,SCT,9000,,,,,IFR,,,,,,,,,,,,METAR,101.0
VELP 300900Z 29008KT 4000 HZ FEW020 SCT100 35/17 Q1007 NOSIG,VELP,2023-04-30T09:00:00Z,23.83,92.62,35.0,17.0,290,8,,2.49,29.734253,,,,,,TRUE,,,,HZ,FEW,2000,SCT,10000,,,,,IFR,,,,,,,,,,,,METAR,429.0
VEKO 300900Z 07012KT 1500 TSRA BKN025 FEW030CB OVC080 30/15 Q1007,VEKO,2023-04-30T09:00:00Z,24.82,79.92,30.0,15.0,70,12,,0.93,29.734253,,,,,,,,,,TSRA,BKN,2500,FEW,3000,OVC,8000,,,LIFR,,,,,,,,,,,,METAR,222.0
VEKI 300900Z VRB03KT 3000 -TSRA SCT020 FEW030CB OVC090 22/20 Q1008 NOSIG,VEKI,2023-04-30T09:00:00Z,26.78,83.88,22.0,20.0,0,3,,1.86,29.763779,,,,,,TRUE,,,,-TSRA,SCT,2000,FEW,3000,OVC,9000,,,IFR,,,,,,,,,,,,METAR,81.0
VEDO 300900Z 30007KT 6000 FEW020 SCT025 BKN100 34/15 Q1006 NOSIG,VEDO,2023-04-30T09:00:00Z,24.45,86.7,34.0,15.0,300,7,,3.73,29.704725,,,,,,TRUE,,,,,FEW,2000,SCT,2500,BKN,10000,,,MVFR,,,,,,,,,,,,METAR,244.0
VEBU 300900Z 36006KT 5000 RA SCT018 OVC080 22/21 Q1011 TEMPO 4000 RA,VEBU,2023-04-30T09:00:00Z,21.98,82.12,22.0,21.0,360,6,,3.11,29.852362,,,,,,,,,,RA,SCT,1800,OVC,8000,,,,,MVFR,,,,,,,,,,,,METAR,274.0
VARK 300900Z 32005KT 6000 SCT020 FEW025TCU 33/17 Q1005 NOSIG,VARK,2023-04-30T09:00:00Z,22.3,70.77,33.0,17.0,320,5,,3.73,29.675198,,,,,,TRUE,,,,,SCT,2000,FEW,2500,,,,,MVFR,,,,,,,,,,,,METAR,125.0
VAJL 300900Z 28002KT 7000 SCT025 32/19 Q1005 NOSIG,VAJL,2023-04-30T09:00:00Z,20.97,75.63,32.0,19.0,280,2,,4.35,29.675198,,,,,,TRUE,,,,,SCT,2500,,,,,,,MVFR,,,,,,,,,,,,METAR,257.0
SUMU 300900Z 02007KT CAVOK 17/15 Q1009 NOSIG,SUMU,2023-04-30T09:00:00Z,-34.83,-56.02,17.0,15.0,20,7,,6.21,29.793306,,,,,,TRUE,,,,,CAVOK,,,,,,,,VFR,,,,,,,,,,,,METAR,32.0
SGCO 300900Z 07008KT CAVOK 23/20 Q1010,SGCO,2023-04-30T09:00:00Z,-23.43,-57.42,23.0,20.0,70,8,,6.21,29.822834,,,,,,,,,,,CAVOK,,,,,,,,VFR,,,,,,,,,,,,METAR,74.0
SEMT 300900Z 00000KT 9999 SCT020 25/23 Q1011,SEMT,2023-04-30T09:00:00Z,-0.95,-80.67,25.0,23.0,0,0,,6.21,29.852362,,,,,,,,,,,SCT,2000,,,,,,,VFR,,,,,,,,,,,,METAR,13.0
SCRM 300900Z 35005KT 8000 BKN015 M05/M08 Q0988 NOSIG,SCRM,2023-04-30T09:00:00Z,-62.18,-58.98,-5.0,-8.0,350,5,,4.97,29.17323,,,,,,TRUE,,,,,BKN,1500,,,,,,,MVFR,,,,,,,,,,,,METAR,45.0
SBYS 300900Z VRB01KT 0600 R02/2000D R20/P2000 FG VV002 15/15 Q1018,SBYS,2023-04-30T09:00:00Z,-21.97,-47.33,15.0,15.0,0,1,,0.37,30.059055,,,,,,,,,,FG,OVX,0,,,,,,,LIFR,,,,,,,,,,,200,METAR,600.0
SBUR 300900Z 05005KT CAVOK 19/16 Q1018,SBUR,2023-04-30T09:00:00Z,-19.77,-47.97,19.0,16.0,50,5,,6.21,30.059055,,,,,,,,,,,CAVOK,,,,,,,,VFR,,,,,,,,,,,,METAR,807.0
SBUL 300900Z 09007KT CAVOK 19/15 Q1019,SBUL,2023-04-30T09:00:00Z,-18.87,-48.22,19.0,15.0,90,7,,6.21,30.088583,,,,,,,,,,,CAVOK,,,,,,,,VFR,,,,,,,,,,,,METAR,945.0
SBTU 300900Z AUTO 18004KT 9999 // FEW033/// 23/23 Q1014,SBTU,2023-04-30T09:00:00Z,-3.78,-49.72,23.0,23.0,180,4,,6.21,29.940945,,,TRUE,,,,,,,,FEW,3300,,,,,,,VFR,,,,,,,,,,,,METAR,250.0
SBTA 300900Z VRB02KT 9999 FEW019 OVC023 18/17 Q1019,SBTA,2023-04-30T09:00:00Z,-23.03,-45.5,18.0,17.0,0,2,,6.21,30.088583,,,,,,,,,,,FEW,1900,OVC,2300,,,,,MVFR,,,,,,,,,,,,METAR,578.0
SBSR 300900Z 00000KT CAVOK 18/15 Q1016,SBSR,2023-04-30T09:00:00Z,-20.8,-49.4,18.0,15.0,0,0,,6.21,30.0,,,,,,,,,,,CAVOK,,,,,,,,VFR,,,,,,,,,,,,METAR,537.0
SBSM 300900Z 02006KT CAVOK 19/15 Q1014,SBSM,2023-04-30T09:00:00Z,-29.72,-53.7,19.0,15.0,20,6,,6.21,29.940945,,,,,,,,,,,CAVOK,,,,,,,,VFR,,,,,,,,,,,,METAR,86.0
SBSC 300900Z 33006KT 5000 BR FEW005 SCT015 BKN040 21/19 Q1018,SBSC,2023-04-30T09:00:00Z,-22.92,-43.72,21.0,19.0,330,6,,3.11,30.059055,,,,,,,,,,BR,FEW,500,SCT,1500,BKN,4000,,,MVFR,,,,,,,,,,,,METAR,6.0
SBMT 300900Z 10005KT 6000 SCT013 BKN018 18/18 Q1019,SBMT,2023-04-30T09:00:00Z,-23.52,-46.63,18.0,18.0,100,5,,3.73,30.088583,,,,,,,,,,,SCT,1300,BKN,1800,,,,,MVFR,,,,,,,,,,,,METAR,722.0
SBMK 300900Z 06004KT 9999 FEW020 19/19 Q1018,SBMK,2023-04-30T09:00:00Z,-16.7,-43.82,19.0,19.0,60,4,,6.21,30.059055,,,,,,,,,,,FEW,2000,,,,,,,VFR,,,,,,,,,,,,METAR,665.0
SBMG 300900Z 09013KT CAVOK 17/15 Q1016,SBMG,2023-04-30T09:00:00Z,-23.48,-52.02,17.0,15.0,90,13,,6.21,30.0,,,,,,,,,,,CAVOK,,,,,,,,VFR,,,,,,,,,,,,METAR,543.0
SBME 300900Z 11003KT 9999 SCT035 SCT080 23/23 Q1017,SBME,2023-04-30T09:00:00Z,-22.35,-41.77,23.0,23.0,110,3,,6.21,30.029528,,,,,,,,,,,SCT,3500,SCT,8000,,,,,VFR,,,,,,,,,,,,METAR,2.0
SBLS 300900Z 16007KT CAVOK 17/15 Q1019,SBLS,2023-04-30T09:00:00Z,-19.67,-43.88,17.0,15.0,160,7,,6.21,30.088583,,,,,,,,,,,CAVOK,,,,,,,,VFR,,,,,,,,,,,,METAR,850.0
SBLE 300900Z AUTO 20003KT 170V230 9999 FEW018 OVC041 21/20 Q1018,SBLE,2023-04-30T09:00:00Z,-12.48,-41.28,21.0,20.0,200,3,,6.21,30.059055,,,TRUE,,,,,,,,FEW,1800,OVC,4100,,,,,VFR,,,,,,,,,,,,METAR,495.0
SBKG 300900Z 21003KT 9999 SCT015 22/21 Q1016,SBKG,2023-04-30T09:00:00Z,-7.27,-35.88,22.0,21.0,210,3,,6.21,30.0,,,,,,,,,,,SCT,1500,,,,,,,VFR,,,,,,,,,,,,METAR,499.0
SBJV 300900Z 00000KT 4000 BR BKN009 BKN030 19/19 Q1018,SBJV,2023-04-30T09:00:00Z,-26.22,-48.8,19.0,19.0,0,0,,2.49,30.059055,,,,,,,,,,BR,BKN,900,BKN,3000,,,,,IFR,,,,,,,,,,,,METAR,3.0
SBJU 300900Z 00000KT 9999 BKN020 24/24 Q1017,SBJU,2023-04-30T09:00:00Z,-7.22,-39.27,24.0,24.0,0,0,,6.21,30.029528,,,,,,,,,,,BKN,2000,,,,,,,MVFR,,,,,,,,,,,,METAR,407.0
SBIZ 300900Z 00000KT 9999 SCT012 24/23 Q1013,SBIZ,2023-04-30T09:00:00Z,-5.52,-47.45,24.0,23.0,0,0,,6.21,29.911417,,,,,,,,,,,SCT,1200,,,,,,,VFR,,,,,,,,,,,,METAR,131.0
SBIP 300900Z AUTO VRB01KT 9999 OVC002 21/17 Q1017,SBIP,2023-04-30T09:00:00Z,-19.47,-42.48,21.0,17.0,0,1,,6.21,30.029528,,,TRUE,,,,,,,,OVC,200,,,,,,,LIFR,,,,,,,,,,,,METAR,240.0
SBGW 300900Z VRB02KT 9999 BKN025 19/18 Q1019,SBGW,2023-04-30T09:00:00Z,-22.78,-45.2,19.0,18.0,0,2,,6.21,30.088583,,,,,,,,,,,BKN,2500,,,,,,,MVFR,,,,,,,,,,,,METAR,539.0
SBES 300900Z 01004KT 330V030 9000 BCFG FEW004 SCT030 21/20 Q1017,SBES,2023-04-30T09:00:00Z,-22.82,-42.1,21.0,20.0,10,4,,5.59,30.029528,,,,,,,,,,BCFG,FEW,400,SCT,3000,,,,,VFR,,,,,,,,,,,,METAR,16.0
SBDN 300900Z 11007KT CAVOK 17/16 Q1017,SBDN,2023-04-30T09:00:00Z,-22.18,-51.43,17.0,16.0,110,7,,6.21,30.029528,,,,,,,,,,,CAVOK,,,,,,,,VFR,,,,,,,,,,,,METAR,438.0
SBCO 300900Z 10001KT 8000 NSC 12/11 Q1015,SBCO,2023-04-30T09:00:00Z,-29.95,-51.15,12.0,11.0,100,1,,4.97,29.970472,,,,,,,,,,,CLR,,,,,,,,MVFR,,,,,,,,,,,,METAR,8.0
SBBU 300900Z 17005KT CAVOK 17/16 Q1017,SBBU,2023-04-30T09:00:00Z,-22.33,-49.07,17.0,16.0,170,5,,6.21,30.029528,,,,,,,,,,,CAVOK,,,,,,,,VFR,,,,,,,,,,,,METAR,616.0
SBBH 300900Z 12004KT CAVOK 17/13 Q1019,SBBH,2023-04-30T09:00:00Z,-19.85,-43.95,17.0,13.0,120,4,,6.21,30.088583,,,,,,,,,,,CAVOK,,,,,,,,VFR,,,,,,,,,,,,METAR,799.0
SBAN 300900Z 11007KT CAVOK 19/16 Q1020,SBAN,2023-04-30T09:00:00Z,-16.22,-48.97,19.0,16.0,110,7,,6.21,30.11811,,,,,,,,,,,CAVOK,,,,,,,,VFR,,,,,,,,,,,,METAR,1131.0
SAWH 300900Z 01005KT 330V040 9999 SCT035 BKN080 01/M04 Q1001 RMK PP000,SAWH,2023-04-30T09:00:00Z,-54.85,-68.3,1.0,-4.0,10,5,,6.21,29.557087,,,,,,,,,,,SCT,3500,BKN,8000,,,,,VFR,,,,,,,,,,,,METAR,22.0
"RPVD 300900Z 07012G18KT 9999 VCSH FEW014CB BKN070 30/26 Q1006 RMK A2971 CB/VCSH NE-E,W,NW",RPVD,2023-04-30T09:00:00Z,9.33,123.3,30.0,26.0,70,12,18,6.21,29.704725,,,,,,,,,,VCSH,FEW,1400,BKN,7000,,,,,VFR,,,,,,,,,,,,METAR,11.0
"RPMR 300900Z 15012KT 9999 FEW017CB BKN080 28/25 Q1006 RMK A2971 CB NW,S",RPMR,2023-04-30T09:00:00Z,6.05,125.1,28.0,25.0,150,12,,6.21,29.704725,,,,,,,,,,,FEW,1700,BKN,8000,,,,,VFR,,,,,,,,,,,,METAR,47.0
RKSM 300900Z 24007KT 9999 BKN130 16/07 A2979,RKSM,2023-04-30T09:00:00Z,37.43,127.12,16.0,7.0,240,7,,6.21,29.790354,,,,,,,,,,,BKN,13000,,,,,,,VFR,,,,,,,,,,,,METAR,18.0
RJFG 300900Z 28013KT 9999 FEW020 SCT070 BKN/// 16/13 Q1011,RJFG,2023-04-30T09:00:00Z,30.62,130.98,16.0,13.0,280,13,,6.21,29.852362,,,,,,,,,,,FEW,2000,SCT,7000,,,,,VFR,,,,,,,,,,,,SPECI,234.0
RJCW 300900Z 21023G36KT 9999 FEW010 SCT014 BKN018 08/05 Q0994,RJCW,2023-04-30T09:00:00Z,45.4,141.8,8.0,5.0,210,23,36,6.21,29.350393,,,,,,,,,,,FEW,1000,SCT,1400,BKN,1800,,,MVFR,,,,,,,,,,,,METAR,11.0
RJCN 300900Z 24004KT 220V310 9999 FEW035 BKN/// 13/11 Q0994,RJCN,2023-04-30T09:00:00Z,43.57,144.97,13.0,11.0,240,4,,6.21,29.350393,,,,,,,,,,,FEW,3500,,,,,,,VFR,,,,,,,,,,,,METAR,62.0
RJBT 300900Z 36005KT 9999 FEW030 BKN/// 16/00 Q1010,RJBT,2023-04-30T09:00:00Z,35.5,134.8,16.0,0.0,360,5,,6.21,29.822834,,,,,,,,,,,FEW,3000,,,,,,,VFR,,,,,,,,,,,,METAR,172.0
RJAW 300900Z 11007KT 9999 FEW012 24/22 Q1015 RMK 1CU012 A2998 WIND BY EQPT/25,RJAW,2023-04-30T09:00:00Z,24.78,141.32,24.0,22.0,110,7,,6.21,29.970472,,,,,,,,,,,FEW,1200,,,,,,,VFR,,,,,,,,,,,,SPECI,116.0
RJAF 300900Z 34008KT 310V010 9999 FEW020 SCT170 BKN/// 15/11 Q1007,RJAF,2023-04-30T09:00:00Z,36.17,137.92,15.0,11.0,340,8,,6.21,29.734253,,,,,,,,,,,FEW,2000,SCT,17000,,,,,VFR,,,,,,,,,,,,METAR,652.0
OSLK 300900Z 25005G15KT 9999 SCT026 TCU BKN030 20/12 Q1012,OSLK,2023-04-30T09:00:00Z,35.4,35.95,20.0,12.0,250,5,15,6.21,29.88189,,,,,,,,,,,SCT,2600,BKN,3000,,,,,MVFR,,,,,,,,,,,,SPECI,47.0
OSAP 300900Z 30010KT 9999 BKN026 18/06 Q1011,OSAP,2023-04-30T09:00:00Z,36.17,37.22,18.0,6.0,300,10,,6.21,29.852362,,,,,,,,,,,BKN,2600,,,,,,,MVFR,,,,,,,,,,,,METAR,390.0
OIMT 300900Z AUTO 35002KT //// // ////// 33/06 Q1007,OIMT,2023-04-30T09:00:00Z,33.67,56.88,33.0,6.0,350,2,,,29.734253,,,TRUE,,,,,,,,,,,,,,,,,,,,,,,,,,,,METAR,693.0
OIHM 300900Z AUTO 17009KT //// // ////// 22/M03 Q1015,OIHM,2023-04-30T09:00:00Z,34.28,48.82,22.0,-3.0,170,9,,,29.970472,,,TRUE,,,,,,,,,,,,,,,,,,,,,,,,,,,,METAR,1744.0
OEYN 300900Z 28015KT CAVOK 32/07 Q1008 NOSIG,OEYN,2023-04-30T09:00:00Z,24.13,38.07,32.0,7.0,280,15,,6.21,29.763779,,,,,,TRUE,,,,,CAVOK,,,,,,,,VFR,,,,,,,,,,,,METAR,20.0
OEWJ 300900Z 29015KT CAVOK 28/15 Q1011 NOSIG,OEWJ,2023-04-30T09:00:00Z,26.18,36.47,28.0,15.0,290,15,,6.21,29.852362,,,,,,TRUE,,,,,CAVOK,,,,,,,,VFR,,,,,,,,,,,,METAR,8.0
OEWD 300900Z 35002KT CAVOK 35/07 Q1010,OEWD,2023-04-30T09:00:00Z,20.5,45.2,35.0,7.0,350,2,,6.21,29.822834,,,,,,,,,,,CAVOK,,,,,,,,VFR,,,,,,,,,,,,METAR,629.0
OETR 300900Z 26012KT CAVOK 16/00 Q1014 NOSIG,OETR,2023-04-30T09:00:00Z,31.7,38.73,16.0,0.0,260,12,,6.21,29.940945,,,,,,TRUE,,,,,CAVOK,,,,,,,,VFR,,,,,,,,,,,,METAR,854.0
OETF 300900Z 01006KT 9999 SCT030 27/05 Q1018 NOSIG,OETF,2023-04-30T09:00:00Z,21.47,40.53,27.0,5.0,10,6,,6.21,30.059055,,,,,,TRUE,,,,,SCT,3000,,,,,,,VFR,,,,,,,,,,,,METAR,1460.0
OETB 300900Z 02006KT CAVOK 21/M02 Q1014 NOSIG,OETB,2023-04-30T09:00:00Z,28.37,36.62,21.0,-2.0,20,6,,6.21,29.940945,,,,,,TRUE,,,,,CAVOK,,,,,,,,VFR,,,,,,,,,,,,METAR,770.0
OESK 300900Z 31008KT CAVOK 22/M01 Q1016 NOSIG,OESK,2023-04-30T09:00:00Z,29.78,40.1,22.0,-1.0,310,8,,6.21,30.0,,,,,,TRUE,,,,,CAVOK,,,,,,,,VFR,,,,,,,,,,,,METAR,671.0
OESH 300900Z 25005KT CAVOK 37/12 Q1009 NOSIG,OESH,2023-04-30T09:00:00Z,17.47,47.12,37.0,12.0,250,5,,6.21,29.793306,,,,,,TRUE,,,,,CAVOK,,,,,,,,VFR,,,,,,,,,,,,METAR,720.0
OERR 300900Z 34008KT CAVOK 22/M05 Q1013 NOSIG,OERR,2023-04-30T09:00:00Z,30.9,41.13,22.0,-5.0,340,8,,6.21,29.911417,,,,,,TRUE,,,,,CAVOK,,,,,,,,VFR,,,,,,,,,,,,METAR,554.0
OERF 300900Z 35008KT CAVOK 28/M03 Q1011 NOSIG,OERF,2023-04-30T09:00:00Z,29.62,43.48,28.0,-3.0,350,8,,6.21,29.852362,,,,,,TRUE,,,,,CAVOK,,,,,,,,VFR,,,,,,,,,,,,METAR,441.0
OEPA 300900Z 09010KT CAVOK 35/12 Q1008 NOSIG,OEPA,2023-04-30T09:00:00Z,28.33,46.12,35.0,12.0,90,10,,6.21,29.763779,,,,,,TRUE,,,,,CAVOK,,,,,,,,VFR,,,,,,,,,,,,METAR,361.0
OENG 300900Z VRB06KT 8000 FEW030 32/10 Q1015 NOSIG,OENG,2023-04-30T09:00:00Z,17.62,44.42,32.0,10.0,0,6,,4.97,29.970472,,,,,,TRUE,,,,,FEW,3000,,,,,,,MVFR,,,,,,,,,,,,METAR,1210.0
OEMN 300900Z 34010KT CAVOK 34/01 Q1011,OEMN,2023-04-30T09:00:00Z,,,34.0,1.0,340,10,,6.21,29.852362,,,,,,,,,,,CAVOK,,,,,,,,VFR,,,,,,,,,,,,METAR,
OEKM 300900Z 20013KT 9999 SCT022 FEW025CB 25/07 Q1022 NOSIG,OEKM,2023-04-30T09:00:00Z,18.3,42.78,25.0,7.0,200,13,,6.21,30.177166,,,,,,TRUE,,,,,SCT,2200,FEW,2500,,,,,VFR,,,,,,,,,,,,METAR,2038.0
OEKJ 300900Z VRB03KT CAVOK 36/03 Q1012,OEKJ,2023-04-30T09:00:00Z,24.07,47.58,36.0,3.0,0,3,,6.21,29.88189,,,,,,,,,,,CAVOK,,,,,,,,VFR,,,,,,,,,,,,METAR,487.0
OEJB 300900Z AUTO 16010KT CAVOK 38/05 Q1005 NOSIG,OEJB,2023-04-30T09:00:00Z,27.05,49.4,38.0,5.0,160,10,,6.21,29.675198,,,TRUE,,,TRUE,,,,,CAVOK,,,,,,,,VFR,,,,,,,,,,,,METAR,6.0
OEHL 300900Z 03004KT CAVOK 26/05 Q1014,OEHL,2023-04-30T09:00:00Z,27.43,41.68,26.0,5.0,30,4,,6.21,29.940945,,,,,,,,,,,CAVOK,,,,,,,,VFR,,,,,,,,,,,,METAR,1002.0
OEGT 300900Z 30012KT CAVOK 20/00 Q1014 NOSIG,OEGT,2023-04-30T09:00:00Z,31.42,37.27,20.0,0.0,300,12,,6.21,29.940945,,,,,,TRUE,,,,,CAVOK,,,,,,,,VFR,,,,,,,,,,,,METAR,512.0
OEGS 300900Z 24007KT CAVOK 31/07 Q1009,OEGS,2023-04-30T09:00:00Z,26.3,43.77,31.0,7.0,240,7,,6.21,29.793306,,,,,,,,,,,CAVOK,,,,,,,,VFR,,,,,,,,,,,,METAR,647.0
OEGN 300900Z 24008KT 9999 SCT030 FEW035CB BKN100 33/27 Q1009 NOSIG,OEGN,2023-04-30T09:00:00Z,16.9,42.58,33.0,27.0,240,8,,6.21,29.793306,,,,,,TRUE,,,,,SCT,3000,FEW,3500,BKN,10000,,,VFR,,,,,,,,,,,,METAR,5.0
OEDM 300900Z 24018KT CAVOK 31/M01 Q1012,OEDM,2023-04-30T09:00:00Z,24.45,44.12,31.0,-1.0,240,18,,6.21,29.88189,,,,,,,,,,,CAVOK,,,,,,,,VFR,,,,,,,,,,,,METAR,922.0
OEBH 300900Z 03003KT 9999 FEW030 29/18 Q1014 NOSIG,OEBH,2023-04-30T09:00:00Z,19.98,42.62,29.0,18.0,30,3,,6.21,29.940945,,,,,,TRUE,,,,,FEW,3000,,,,,,,VFR,,,,,,,,,,,,METAR,1167.0
OEBA 300900Z 13005KT 9999 SCT030 25/11 Q1018 NOSIG,OEBA,2023-04-30T09:00:00Z,20.3,41.63,25.0,11.0,130,5,,6.21,30.059055,,,,,,TRUE,,,,,SCT,3000,,,,,,,VFR,,,,,,,,,,,,METAR,1659.0
OEAO 300900Z 02004KT CAVOK 26/M07 Q1014 NOSIG,OEAO,2023-04-30T09:00:00Z,26.48,38.12,26.0,-7.0,20,4,,6.21,29.940945,,,,,,TRUE,,,,,CAVOK,,,,,,,,VFR,,,,,,,,,,,,METAR,615.0
OEAH 300900Z 20005KT 8000 NSC 39/00 Q1006 NOSIG,OEAH,2023-04-30T09:00:00Z,25.28,49.48,39.0,0.0,200,5,,4.97,29.704725,,,,,,TRUE,,,,,CLR,,,,,,,,MVFR,,,,,,,,,,,,METAR,180.0
NVSG 300900Z 09003KT 9999 SCT020 29/26 Q1012,NVSG,2023-04-30T09:00:00Z,-15.3,167.97,29.0,26.0,90,3,,6.21,29.88189,,,,,,,,,,,SCT,2000,,,,,,,VFR,,,,,,,,,,,,METAR,31.0
NVSC 300900Z 07007KT 9999 BKN020 29/26 Q1011,NVSC,2023-04-30T09:00:00Z,-13.85,167.55,29.0,26.0,70,7,,6.21,29.852362,,,,,,,,,,,BKN,2000,,,,,,,MVFR,,,,,,,,,,,,METAR,11.0
MNMG 300900Z 00000KT 9000 FEW021 SCT300 25/23 Q1010 A2983 HZ NOSIG,MNMG,2023-04-30T09:00:00Z,12.15,-86.17,25.0,23.0,0,0,,5.59,29.822834,,,,,,TRUE,,,,HZ,FEW,2100,SCT,30000,,,,,VFR,,,,,,,,,,,,METAR,59.0
MDPP 300900Z 00000KT 9999 FEW016 24/21 Q1012,MDPP,2023-04-30T09:00:00Z,19.75,-70.57,24.0,21.0,0,0,,6.21,29.88189,,,,,,,,,,,FEW,1600,,,,,,,VFR,,,,,,,,,,,,METAR,9.0
LOAV 300900Z 35010KT 9999 BKN035 13/08,LOAV,2023-04-30T09:00:00Z,47.97,16.27,13.0,8.0,350,10,,6.21,,,,,,,,,,,,BKN,3500,,,,,,,VFR,,,,,,,,,,,,METAR,232.0
LOAN 300900Z 35014KT 9999 FEW020 BKN040,LOAN,2023-04-30T09:00:00Z,47.85,16.25,,,350,14,,6.21,,,,,,,,,,,,FEW,2000,BKN,4000,,,,,VFR,,,,,,,,,,,,METAR,266.0
LKKU 300900Z 02012KT 9999 FEW033 12/04 Q1020,LKKU,2023-04-30T09:00:00Z,49.05,17.45,12.0,4.0,20,12,,6.21,30.11811,,,,,,,,,,,FEW,3300,,,,,,,VFR,,,,,,,,,,,,METAR,176.0
KQVF 300900Z AUTO 20010G19KT 9999 FEW011 SCT014 BKN018 BKN130 26/24 A2991 RMK AO2 CIG 018V032 SLP131 WND DATA ESTMD,KQVF,2023-04-30T09:00:00Z,,,26.0,24.0,200,10,19,6.21,29.911417,1013.1,,TRUE,TRUE,,,,,,,FEW,1100,SCT,1400,BKN,1800,BKN,13000,MVFR,,,,,,,,,,,,SPECI,
HTZA 300900Z 16014KT 9999 FEW018 FEW020CB BKN080 29/24 Q1013 NOSIG,HTZA,2023-04-30T09:00:00Z,-6.22,39.22,29.0,24.0,160,14,,6.21,29.911417,,,,,,TRUE,,,,,FEW,1800,FEW,2000,BKN,8000,,,VFR,,,,,,,,,,,,METAR,19.0
HTTB 300900Z 16010KT 9999 BKN022 26/19 Q1020 NOSIG,HTTB,2023-04-30T09:00:00Z,-5.07,32.82,26.0,19.0,160,10,,6.21,30.11811,,,,,,TRUE,,,,,BKN,2200,,,,,,,MVFR,,,,,,,,,,,,METAR,1185.0
HTSU 300900Z 18004KT 9999 SCT022 FEW023CB 23/13 Q1024,HTSU,2023-04-30T09:00:00Z,-7.95,31.6,23.0,13.0,180,4,,6.21,30.236221,,,,,,,,,,,SCT,2200,FEW,2300,,,,,VFR,,,,,,,,,,,,METAR,1820.0
HTSO 300900Z 09003KT 9999 BKN021 FEW022CB SCT090 25/18 Q1020,HTSO,2023-04-30T09:00:00Z,-10.67,35.58,25.0,18.0,90,3,,6.21,30.11811,,,,,,,,,,,BKN,2100,FEW,2200,SCT,9000,,,MVFR,,,,,,,,,,,,METAR,1058.0
HTMW 300900Z 15011KT 9999 BKN023 FEW024CB 24/18 Q1018 NOSIG,HTMW,2023-04-30T09:00:00Z,-2.43,32.92,24.0,18.0,150,11,,6.21,30.059055,,,,,,TRUE,,,,,BKN,2300,FEW,2400,,,,,MVFR,,,,,,,,,,,,METAR,1144.0
HTMU 300900Z 34010KT 9999 SCT018 FEW020CB BKN090 22/19 Q1020,HTMU,2023-04-30T09:00:00Z,-1.5,33.8,22.0,19.0,340,10,,6.21,30.11811,,,,,,,,,,,SCT,1800,FEW,2000,BKN,9000,,,VFR,,,,,,,,,,,,METAR,1154.0
HTMT 300900Z 17015KT 9999 SCT022 FEW023CB 29/23 Q1013 NOSIG,HTMT,2023-04-30T09:00:00Z,-10.33,40.18,29.0,23.0,170,15,,6.21,29.911417,,,,,,TRUE,,,,,SCT,2200,FEW,2300,,,,,VFR,,,,,,,,,,,,METAR,114.0
HTMP 300900Z 09005KT 9999 SCT022 FEW024CB BKN100 26/20 Q1020,HTMP,2023-04-30T09:00:00Z,-6.35,31.08,26.0,20.0,90,5,,6.21,30.11811,,,,,,,,,,,SCT,2200,FEW,2400,BKN,10000,,,VFR,,,,,,,,,,,,METAR,1073.0
HTMG 300900Z 00000KT 9999 SCT021 BKN060 24/22 Q1016,HTMG,2023-04-30T09:00:00Z,-6.78,37.65,24.0,22.0,0,0,,6.21,30.0,,,,,,,,,,,SCT,2100,BKN,6000,,,,,VFR,,,,,,,,,,,,METAR,512.0
HTKJ 300900Z 14005KT 9999 FEW009 BKN026 24/19 Q1019 NOSIG,HTKJ,2023-04-30T09:00:00Z,-3.42,37.07,24.0,19.0,140,5,,6.21,30.088583,,,,,,TRUE,,,,,FEW,900,BKN,2600,,,,,MVFR,,,,,,,,,,,,METAR,893.0
HTKA 300900Z 00000KT 9999 -RA FEW018 FEW019CB BKN070 20/20 Q1018 NOSIG,HTKA,2023-04-30T09:00:00Z,-4.88,29.67,20.0,20.0,0,0,,6.21,30.059055,,,,,,TRUE,,,,-RA,FEW,1800,FEW,1900,BKN,7000,,,VFR,,,,,,,,,,,,METAR,819.0
HTIR 300900Z 16008KT 9999 BKN024 22/17 Q1021,HTIR,2023-04-30T09:00:00Z,-7.67,35.75,22.0,17.0,160,8,,6.21,30.147638,,,,,,,,,,,BKN,2400,,,,,,,MVFR,,,,,,,,,,,,METAR,1432.0
HTIB 300900Z 16010KT 9999 BKN022 FEW023CB 25/18 Q1017,HTIB,2023-04-30T09:00:00Z,,,25.0,18.0,160,10,,6.21,30.029528,,,,,,,,,,,BKN,2200,FEW,2300,,,,,MVFR,,,,,,,,,,,,METAR,
HTDO 300900Z 10004KT 9999 SCT027 26/16 Q1018 NOSIG,HTDO,2023-04-30T09:00:00Z,-6.17,35.77,26.0,16.0,100,4,,6.21,30.059055,,,,,,TRUE,,,,,SCT,2700,,,,,,,VFR,,,,,,,,,,,,METAR,1119.0
HTDA 300900Z 08009KT 9999 FEW016 BKN018 FEW020CB 29/23 Q1013 NOSIG,HTDA,2023-04-30T09:00:00Z,-6.88,39.2,29.0,23.0,80,9,,6.21,29.911417,,,,,,TRUE,,,,,FEW,1600,BKN,1800,FEW,2000,,,MVFR,,,,,,,,,,,,METAR,53.0
HTBU 300900Z 00000KT 2000 TSRA BKN010 FEW012CB OVC080 19/18 Q1019 NOSIG,HTBU,2023-04-30T09:00:00Z,-1.32,31.82,19.0,18.0,0,0,,1.24,30.088583,,,,,,TRUE,,,,TSRA,BKN,1000,FEW,1200,OVC,8000,,,IFR,,,,,,,,,,,,METAR,1144.0
HTAR 300900Z 09005KT 9999 FEW008 BKN020 20/19 Q1022 RERA NOSIG,HTAR,2023-04-30T09:00:00Z,-3.37,36.63,20.0,19.0,90,5,,6.21,30.177166,,,,,,TRUE,,,,,FEW,800,BKN,2000,,,,,MVFR,,,,,,,,,,,,METAR,1386.0
HKWJ 300900Z 20008KT 9999 BKN032 30/23 Q1011,HKWJ,2023-04-30T09:00:00Z,1.75,40.08,30.0,23.0,200,8,,6.21,29.852362,,,,,,,,,,,BKN,3200,,,,,,,VFR,,,,,,,,,,,,METAR,254.0
HKNW 300900Z 15007KT 9999 BKN025 BKN080 23/15 Q1023,HKNW,2023-04-30T09:00:00Z,-1.32,36.82,23.0,15.0,150,7,,6.21,30.206694,,,,,,,,,,,BKN,2500,BKN,8000,,,,,MVFR,,,,,,,,,,,,METAR,1666.0
HKNK 300900Z 00000KT 9999 BKN022 BKN080 20/14,HKNK,2023-04-30T09:00:00Z,-0.3,36.17,20.0,14.0,0,0,,6.21,,,,,,,,,,,,BKN,2200,BKN,8000,,,,,MVFR,,,,,,,,,,,,METAR,1900.0
HKNI 300900Z 07006KT 9999 SCT024 SCT260 23/15,HKNI,2023-04-30T09:00:00Z,-0.33,36.92,23.0,15.0,70,6,,6.21,,,,,,,,,,,,SCT,2400,SCT,26000,,,,,VFR,,,,,,,,,,,,METAR,1769.0
HKMO 300900Z 21004KT 8000 -RA FEW019CB SCT020 OVC080 25/23 Q1013 NOSIG,HKMO,2023-04-30T09:00:00Z,-4.02,39.62,25.0,23.0,210,4,,4.97,29.911417,,,,,,TRUE,,,,-RA,FEW,1900,SCT,2000,OVC,8000,,,MVFR,,,,,,,,,,,,METAR,55.0
HKML 300900Z 19010KT 9999 -RA SCT016 OVC080 24/23 Q1012,HKML,2023-04-30T09:00:00Z,-3.22,40.1,24.0,23.0,190,10,,6.21,29.88189,,,,,,,,,,-RA,SCT,1600,OVC,8000,,,,,VFR,,,,,,,,,,,,METAR,20.0
HKME 300900Z 09003KT 9999 SCT020 FEW021CB BKN220 22/18,HKME,2023-04-30T09:00:00Z,0.07,37.65,22.0,18.0,90,3,,6.21,,,,,,,,,,,,SCT,2000,FEW,2100,BKN,22000,,,VFR,,,,,,,,,,,,METAR,1609.0
HKLU 300900Z 18008KT 9999 FEW021CB BKN022 27/24 RESH Q1013,HKLU,2023-04-30T09:00:00Z,-2.25,40.92,27.0,24.0,180,8,,6.21,29.911417,,,,,,,,,,,FEW,2100,BKN,2200,,,,,MVFR,,,,,,,,,,,,METAR,6.0
HKLO 300900Z 00000KT 9999 FEW026CB SCT028 BKN090 28/21 Q1012,HKLO,2023-04-30T09:00:00Z,3.12,35.62,28.0,21.0,0,0,,6.21,29.88189,,,,,,,,,,,FEW,2600,SCT,2800,BKN,9000,,,VFR,,,,,,,,,,,,METAR,503.0
HKKT 300900Z 00000KT 9999 BKN019 20/16 RERA,HKKT,2023-04-30T09:00:00Z,0.97,34.97,20.0,16.0,0,0,,6.21,,,,,,,,,,,,BKN,1900,,,,,,,MVFR,,,,,,,,,,,,METAR,1829.0
HKKI 300900Z 24004KT 9999 FEW022CB SCT023 BKN080 24/19 Q1018,HKKI,2023-04-30T09:00:00Z,-0.1,34.75,24.0,19.0,240,4,,6.21,30.059055,,,,,,,,,,,FEW,2200,SCT,2300,BKN,8000,,,VFR,,,,,,,,,,,,METAR,1152.0
HKGA 300900Z 16008KT 9999 BKN025 30/22 Q1012,HKGA,2023-04-30T09:00:00Z,-0.47,39.65,30.0,22.0,160,8,,6.21,29.88189,,,,,,,,,,,BKN,2500,,,,,,,MVFR,,,,,,,,,,,,METAR,147.0
HKEM 300900Z 18003KT 9999 FEW022CB BKN023 BKN220 24/18,HKEM,2023-04-30T09:00:00Z,-0.57,37.48,24.0,18.0,180,3,,6.21,,,,,,,,,,,,FEW,2200,BKN,2300,BKN,22000,,,MVFR,,,,,,,,,,,,METAR,1265.0
HKEL 300900Z 35006KT 9999 FEW019CB BKN020 BKN090 19/14 Q1025,HKEL,2023-04-30T09:00:00Z,0.4,35.23,19.0,14.0,350,6,,6.21,30.265747,,,,,,,,,,,FEW,1900,BKN,2000,BKN,9000,,,MVFR,,,,,,,,,,,,METAR,2116.0
HETR 300900Z 29028KT 6000 NSC 22/11 Q1013,HETR,2023-04-30T09:00:00Z,28.22,33.65,22.0,11.0,290,28,,3.73,29.911417,,,,,,,,,,,CLR,,,,,,,,MVFR,,,,,,,,,,,,METAR,35.0
HESX 300900Z 30009KT CAVOK 20/06 Q1016 NOSIG,HESX,2023-04-30T09:00:00Z,,,20.0,6.0,300,9,,6.21,30.0,,,,,,TRUE,,,,,CAVOK,,,,,,,,VFR,,,,,,,,,,,,METAR,
HESW 300900Z 00000KT CAVOK 22/05 Q1017,HESW,2023-04-30T09:00:00Z,29.35,25.5,22.0,5.0,0,0,,6.21,30.029528,,,,,,,,,,,CAVOK,,,,,,,,VFR,,,,,,,,,,,,METAR,101.0
HESN 300900Z 01009KT CAVOK 26/01 Q1014 NOSIG,HESN,2023-04-30T09:00:00Z,23.97,32.82,26.0,1.0,10,9,,6.21,29.940945,,,,,,TRUE,,,,,CAVOK,,,,,,,,VFR,,,,,,,,,,,,METAR,197.0
HESH 300900Z 05011KT CAVOK 25/11 Q1013 NOSIG,HESH,2023-04-30T09:00:00Z,27.97,34.38,25.0,11.0,50,11,,6.21,29.911417,,,,,,TRUE,,,,,CAVOK,,,,,,,,VFR,,,,,,,,,,,,METAR,50.0
HESG 300900Z 35013KT CAVOK 24/03 Q1014 NOSIG,HESG,2023-04-30T09:00:00Z,26.33,31.75,24.0,3.0,350,13,,6.21,29.940945,,,,,,TRUE,,,,,CAVOK,,,,,,,,VFR,,,,,,,,,,,,METAR,70.0
HEPS 300900Z 27011KT 9999 SCT020 19/09 Q1015 NOSIG,HEPS,2023-04-30T09:00:00Z,31.28,32.25,19.0,9.0,270,11,,6.21,29.970472,,,,,,TRUE,,,,,SCT,2000,,,,,,,VFR,,,,,,,,,,,,METAR,2.0
HEOC 300900Z 32008KT CAVOK 19/06 Q1017 NOSIG,HEOC,2023-04-30T09:00:00Z,29.82,30.82,19.0,6.0,320,8,,6.21,30.029528,,,,,,TRUE,,,,,CAVOK,,,,,,,,VFR,,,,,,,,,,,,METAR,246.0
HEMM 300900Z 32010KT 9999 FEW020 SCT022 21/11 Q1017 NOSIG,HEMM,2023-04-30T09:00:00Z,31.32,27.22,21.0,11.0,320,10,,6.21,30.029528,,,,,,TRUE,,,,,FEW,2000,SCT,2200,,,,,VFR,,,,,,,,,,,,METAR,26.0
HEMA 300900Z 35015KT CAVOK 24/10 Q1013 NOSIG,HEMA,2023-04-30T09:00:00Z,25.55,34.58,24.0,10.0,350,15,,6.21,29.911417,,,,,,TRUE,,,,,CAVOK,,,,,,,,VFR,,,,,,,,,,,,METAR,77.0
HELX 300900Z 32009KT CAVOK 26/02 Q1014 NOSIG,HELX,2023-04-30T09:00:00Z,25.67,32.7,26.0,2.0,320,9,,6.21,29.940945,,,,,,TRUE,,,,,CAVOK,,,,,,,,VFR,,,,,,,,,,,,METAR,86.0
HEIS 300900Z 31010KT 9999 SCT025 21/11 Q1015,HEIS,2023-04-30T09:00:00Z,30.58,32.25,21.0,11.0,310,10,,6.21,29.970472,,,,,,,,,,,SCT,2500,,,,,,,VFR,,,,,,,,,,,,METAR,14.0
HEGN 300900Z 01013KT CAVOK 24/06 Q1013 NOSIG,HEGN,2023-04-30T09:00:00Z,27.18,33.8,24.0,6.0,10,13,,6.21,29.911417,,,,,,TRUE,,,,,CAVOK,,,,,,,,VFR,,,,,,,,,,,,METAR,14.0
HECP 300900Z 31013KT 9999 SCT025 19/06 Q1018 NOSIG,HECP,2023-04-30T09:00:00Z,30.07,31.83,19.0,6.0,310,13,,6.21,30.059055,,,,,,TRUE,,,,,SCT,2500,,,,,,,VFR,,,,,,,,,,,,METAR,240.0
HEBL 300900Z 08013KT CAVOK 26/06 Q1014 NOSIG,HEBL,2023-04-30T09:00:00Z,22.38,31.62,26.0,6.0,80,13,,6.21,29.940945,,,,,,TRUE,,,,,CAVOK,,,,,,,,VFR,,,,,,,,,,,,METAR,184.0
HEBA 300900Z 31005KT 9999 SCT020 20/10 Q1016 NOSIG,HEBA,2023-04-30T09:00:00Z,30.92,29.7,20.0,10.0,310,5,,6.21,30.0,,,,,,TRUE,,,,,SCT,2000,,,,,,,VFR,,,,,,,,,,,,METAR,41.0
HEAX 300900Z 31010KT 9999 SCT020 21/09 Q1016 NOSIG,HEAX,2023-04-30T09:00:00Z,31.18,29.93,21.0,9.0,310,10,,6.21,30.0,,,,,,TRUE,,,,,SCT,2000,,,,,,,VFR,,,,,,,,,,,,METAR,-2.0
HEAT 300900Z 35009KT CAVOK 22/05 Q1017 NOSIG,HEAT,2023-04-30T09:00:00Z,27.05,31.02,22.0,5.0,350,9,,6.21,30.029528,,,,,,TRUE,,,,,CAVOK,,,,,,,,VFR,,,,,,,,,,,,METAR,229.0
HDAM 300900Z 34005KT 9999 SCT023 32/25 Q1009,HDAM,2023-04-30T09:00:00Z,11.55,43.17,32.0,25.0,340,5,,6.21,29.793306,,,,,,,,,,,SCT,2300,,,,,,,VFR,,,,,,,,,,,,METAR,6.0
HCMM 300900Z 21011KT 9999 FEW023TCU SCT024 31/27 Q1010,HCMM,2023-04-30T09:00:00Z,2.02,45.3,31.0,27.0,210,11,,6.21,29.822834,,,,,,,,,,,FEW,2300,SCT,2400,,,,,VFR,,,,,,,,,,,,METAR,6.0
HCMF 300900Z 03015KT CAVOK 31/26 Q1006,HCMF,2023-04-30T09:00:00Z,11.27,49.13,31.0,26.0,30,15,,6.21,29.704725,,,,,,,,,,,CAVOK,,,,,,,,VFR,,,,,,,,,,,,METAR,8.0
HBBA 300900Z VRB02KT 9999 FEW025TCU SCT06028/19 Q1016 NOSIG,HBBA,2023-04-30T09:00:00Z,-3.32,29.32,28.0,19.0,0,2,,6.21,30.0,,,,,,TRUE,,,,,FEW,2500,,,,,,,VFR,,,,,,,,,,,,SPECI,777.0
GUCY 300900Z 32008KT 9999 SCT015 29/24 Q1013 NOSIG,GUCY,2023-04-30T09:00:00Z,9.57,-13.62,29.0,24.0,320,8,,6.21,29.911417,,,,,,TRUE,,,,,SCT,1500,,,,,,,VFR,,,,,,,,,,,,METAR,10.0
GQPA 300900Z 02006KT 8000 NSC 32/06 Q1015,GQPA,2023-04-30T09:00:00Z,20.52,-13.03,32.0,6.0,20,6,,4.97,29.970472,,,,,,,,,,,CLR,,,,,,,,MVFR,,,,,,,,,,,,METAR,228.0
GOTK 300900Z 26004KT CAVOK 31/20 Q1011,GOTK,2023-04-30T09:00:00Z,12.57,-12.22,31.0,20.0,260,4,,6.21,29.852362,,,,,,,,,,,CAVOK,,,,,,,,VFR,,,,,,,,,,,,METAR,165.0
GOSS 300900Z 24004KT CAVOK 23/20 Q1012,GOSS,2023-04-30T09:00:00Z,16.05,-16.45,23.0,20.0,240,4,,6.21,29.88189,,,,,,,,,,,CAVOK,,,,,,,,VFR,,,,,,,,,,,,METAR,3.0
GOSP 300900Z 04002KT CAVOK 31/15 Q1009,GOSP,2023-04-30T09:00:00Z,16.68,-14.97,31.0,15.0,40,2,,6.21,29.793306,,,,,,,,,,,CAVOK,,,,,,,,VFR,,,,,,,,,,,,METAR,10.0
GOSM 300900Z 28010KT CAVOK 30/19 Q1010,GOSM,2023-04-30T09:00:00Z,15.6,-13.33,30.0,19.0,280,10,,6.21,29.822834,,,,,,,,,,,CAVOK,,,,,,,,VFR,,,,,,,,,,,,METAR,28.0
GOOY 300900Z 22006KT 9999 FEW010 24/21 Q1013,GOOY,2023-04-30T09:00:00Z,14.73,-17.5,24.0,21.0,220,6,,6.21,29.911417,,,,,,,,,,,FEW,1000,,,,,,,VFR,,,,,,,,,,,,METAR,21.0
GOOK 300900Z 28008KT CAVOK 25/20 Q1013,GOOK,2023-04-30T09:00:00Z,14.15,-16.07,25.0,20.0,280,8,,6.21,29.911417,,,,,,,,,,,CAVOK,,,,,,,,VFR,,,,,,,,,,,,METAR,8.0
GOOG 300900Z 26004KT CAVOK 26/19 Q1009,GOOG,2023-04-30T09:00:00Z,15.4,-15.08,26.0,19.0,260,4,,6.21,29.793306,,,,,,,,,,,CAVOK,,,,,,,,VFR,,,,,,,,,,,,METAR,38.0
GOOD 300900Z 28006KT CAVOK 25/22 Q1012,GOOD,2023-04-30T09:00:00Z,14.65,-16.22,25.0,22.0,280,6,,6.21,29.88189,,,,,,,,,,,CAVOK,,,,,,,,VFR,,,,,,,,,,,,METAR,9.0
GOGS 300900Z 30006KT 9999 BKN010 24/21 Q1013,GOGS,2023-04-30T09:00:00Z,12.4,-16.75,24.0,21.0,300,6,,6.21,29.911417,,,,,,,,,,,BKN,1000,,,,,,,MVFR,,,,,,,,,,,,METAR,13.0
GOGK 300900Z 22006KT 9999 SCT010 26/22 Q1010,GOGK,2023-04-30T09:00:00Z,12.9,-14.97,26.0,22.0,220,6,,6.21,29.822834,,,,,,,,,,,SCT,1000,,,,,,,VFR,,,,,,,,,,,,METAR,37.0
GOGG 300900Z 32006KT 9999 BKN015 24/22 Q1014,GOGG,2023-04-30T09:00:00Z,12.55,-16.27,24.0,22.0,320,6,,6.21,29.940945,,,,,,,,,,,BKN,1500,,,,,,,MVFR,,,,,,,,,,,,METAR,24.0
GMMI 300900Z 06013KT 8000 NSC 26/13 Q1016 NOSIG,GMMI,2023-04-30T09:00:00Z,31.4,-9.68,26.0,13.0,60,13,,4.97,30.0,,,,,,TRUE,,,,,CLR,,,,,,,,MVFR,,,,,,,,,,,,METAR,102.0
GFLL 300900Z 27008KT 9999 SCT012 28/24 Q1013,GFLL,2023-04-30T09:00:00Z,8.62,-13.18,28.0,24.0,270,8,,6.21,29.911417,,,,,,,,,,,SCT,1200,,,,,,,VFR,,,,,,,,,,,,METAR,28.0
GANR 300900Z 28006KT CAVOK 35/06 Q1012,GANR,2023-04-30T09:00:00Z,15.23,-9.58,35.0,6.0,280,6,,6.21,29.88189,,,,,,,,,,,CAVOK,,,,,,,,VFR,,,,,,,,,,,,METAR,237.0
GAMB 300900Z 18014KT CAVOK 33/20 Q1013,GAMB,2023-04-30T09:00:00Z,14.52,-4.08,33.0,20.0,180,14,,6.21,29.911417,,,,,,,,,,,CAVOK,,,,,,,,VFR,,,,,,,,,,,,METAR,271.0
GAKD 300900Z 32014KT CAVOK 33/19 Q1012,GAKD,2023-04-30T09:00:00Z,14.48,-11.4,33.0,19.0,320,14,,6.21,29.88189,,,,,,,,,,,CAVOK,,,,,,,,VFR,,,,,,,,,,,,METAR,53.0
FZQA 300900Z 12008KT CAVOK 23/15 Q1021 NOSIG,FZQA,2023-04-30T09:00:00Z,-11.58,27.53,23.0,15.0,120,8,,6.21,30.147638,,,,,,TRUE,,,,,CAVOK,,,,,,,,VFR,,,,,,,,,,,,METAR,1309.0
FZIC 300900Z 25006KT 7000 SCT016 BKN100 26/23 Q1016 NOSIG,FZIC,2023-04-30T09:00:00Z,0.48,25.33,26.0,23.0,250,6,,4.35,30.0,,,,,,TRUE,,,,,SCT,1600,BKN,10000,,,,,MVFR,,,,,,,,,,,,METAR,432.0
FYWW 300900Z 09009KT CAVOK 25/10 Q1026,FYWW,2023-04-30T09:00:00Z,-22.57,17.1,25.0,10.0,90,9,,6.21,30.295275,,,,,,,,,,,CAVOK,,,,,,,,VFR,,,,,,,,,,,,METAR,1672.0
FYWH 300900Z 14003KT CAVOK 25/11 Q1026 BECMG FEW050,FYWH,2023-04-30T09:00:00Z,-22.47,17.47,25.0,11.0,140,3,,6.21,30.295275,,,,,,,,,,,CAVOK,,,,,,,,VFR,,,,,,,,,,,,METAR,1699.0
FYWE 300900Z 05011KT CAVOK 25/08 Q1027,FYWE,2023-04-30T09:00:00Z,-22.62,17.08,25.0,8.0,50,11,,6.21,30.324802,,,,,,,,,,,CAVOK,,,,,,,,VFR,,,,,,,,,,,,METAR,1700.0
FYWB 300900Z 02004KT CAVOK 17/13 Q1015,FYWB,2023-04-30T09:00:00Z,-22.98,14.65,17.0,13.0,20,4,,6.21,29.970472,,,,,,,,,,,CAVOK,,,,,,,,VFR,,,,,,,,,,,,METAR,87.0
FYOA 300900Z 00000KT CAVOK 30/09 Q1018,FYOA,2023-04-30T09:00:00Z,-17.88,15.97,30.0,9.0,0,0,,6.21,30.059055,,,,,,,,,,,CAVOK,,,,,,,,VFR,,,,,,,,,,,,METAR,1099.0
FYKT 300900Z 05009KT CAVOK 26/M12 Q1022,FYKT,2023-04-30T09:00:00Z,-26.53,18.12,26.0,-12.0,50,9,,6.21,30.177166,,,,,,,,,,,CAVOK,,,,,,,,VFR,,,,,,,,,,,,METAR,1064.0
FYKM 300900Z 08004KT CAVOK 29/10 Q1019,FYKM,2023-04-30T09:00:00Z,-17.63,24.18,29.0,10.0,80,4,,6.21,30.088583,,,,,,,,,,,CAVOK,,,,,,,,VFR,,,,,,,,,,,,METAR,959.0
FVWN 300900Z 09008KT CAVOK 27/04 Q1021,FVWN,2023-04-30T09:00:00Z,-18.63,27.0,27.0,4.0,90,8,,6.21,30.147638,,,,,,,,,,,CAVOK,,,,,,,,VFR,,,,,,,,,,,,METAR,1087.0
FVKB 300900Z 25006KT CAVOK 29/16 Q1017 NOSIG,FVKB,2023-04-30T09:00:00Z,-16.52,28.88,29.0,16.0,250,6,,6.21,30.029528,,,,,,TRUE,,,,,CAVOK,,,,,,,,VFR,,,,,,,,,,,,METAR,515.0
FVJN 300900Z 15010KT CAVOK 26/10 Q1023 NOSIG,FVJN,2023-04-30T09:00:00Z,-20.02,28.63,26.0,10.0,150,10,,6.21,30.206694,,,,,,TRUE,,,,,CAVOK,,,,,,,,VFR,,,,,,,,,,,,METAR,1331.0
FVFA 300900Z 08010KT 060V120 CAVOK 29/05 Q1020 NOSIG,FVFA,2023-04-30T09:00:00Z,-18.1,25.85,29.0,5.0,80,10,,6.21,30.11811,,,,,,TRUE,,,,,CAVOK,,,,,,,,VFR,,,,,,,,,,,,METAR,1069.0
FVCZ 300900Z 00000KT CAVOK 28/14 Q1023,FVCZ,2023-04-30T09:00:00Z,-21.02,31.57,28.0,14.0,0,0,,6.21,30.206694,,,,,,,,,,,CAVOK,,,,,,,,VFR,,,,,,,,,,,,METAR,436.0
FTTJ 300900Z 27010KT 6000 NSC 33/20 Q1012 NOSIG,FTTJ,2023-04-30T09:00:00Z,12.13,15.03,33.0,20.0,270,10,,3.73,29.88189,,,,,,TRUE,,,,,CLR,,,,,,,,MVFR,,,,,,,,,,,,METAR,295.0
FTTD 300900Z 22004KT 9999 FEW030 23/22 Q1010,FTTD,2023-04-30T09:00:00Z,8.62,16.07,23.0,22.0,220,4,,6.21,29.822834,,,,,,,,,,,FEW,3000,,,,,,,VFR,,,,,,,,,,,,METAR,420.0
FTTA 300900Z 18008KT 9999 SCT040 31/21 Q1014,FTTA,2023-04-30T09:00:00Z,9.15,18.37,31.0,21.0,180,8,,6.21,29.940945,,,,,,,,,,,SCT,4000,,,,,,,VFR,,,,,,,,,,,,METAR,361.0
FQPB 300900Z 17010KT 9999 FEW020 30/21 Q1013,FQPB,2023-04-30T09:00:00Z,-12.98,40.52,30.0,21.0,170,10,,6.21,29.911417,,,,,,,,,,,FEW,2000,,,,,,,VFR,,,,,,,,,,,,METAR,101.0
FQIN 300900Z 26004KT 9999 FEW020 28/21 Q1017,FQIN,2023-04-30T09:00:00Z,-23.87,35.38,28.0,21.0,260,4,,6.21,30.029528,,,,,,,,,,,FEW,2000,,,,,,,VFR,,,,,,,,,,,,METAR,10.0
FMSD 300900Z 08014KT 9999 FEW023 28/21 Q1012,FMSD,2023-04-30T09:00:00Z,-25.03,46.95,28.0,21.0,80,14,,6.21,29.88189,,,,,,,,,,,FEW,2300,,,,,,,VFR,,,,,,,,,,,,METAR,7.0
FMNN 300900Z 03006KT 9999 FEW020 31/// Q1010,FMNN,2023-04-30T09:00:00Z,-13.32,48.32,,,30,6,,6.21,29.822834,,,,,,,,,,,FEW,2000,,,,,,,VFR,,,,,,,,,,,,METAR,10.0
FMNM 300900Z VRB03KT 9999 FEW020 35/18 Q1011 NOSIG,FMNM,2023-04-30T09:00:00Z,-15.67,46.35,35.0,18.0,0,3,,6.21,29.852362,,,,,,TRUE,,,,,FEW,2000,,,,,,,VFR,,,,,,,,,,,,METAR,18.0
FMNA 300900Z 00000KT 9999 FEW020 33/18 Q1010,FMNA,2023-04-30T09:00:00Z,-12.33,49.28,33.0,18.0,0,0,,6.21,29.822834,,,,,,,,,,,FEW,2000,,,,,,,VFR,,,,,,,,,,,,METAR,108.0
FKYS 300900Z 19004KT 6000 BKN011 25/23 Q1018 NOSIG,FKYS,2023-04-30T09:00:00Z,3.82,11.52,25.0,23.0,190,4,,3.73,30.059055,,,,,,TRUE,,,,,BKN,1100,,,,,,,MVFR,,,,,,,,,,,,METAR,694.0
FKKR 300900Z 33004KT 270V060 9999 BKN016 34/21 Q1013 NOSIG,FKKR,2023-04-30T09:00:00Z,9.33,13.37,34.0,21.0,330,4,,6.21,29.911417,,,,,,TRUE,,,,,BKN,1600,,,,,,,MVFR,,,,,,,,,,,,METAR,223.0
FKKN 300900Z 24004KT 9999 BKN018 25/19 Q1020,FKKN,2023-04-30T09:00:00Z,7.35,13.57,25.0,19.0,240,4,,6.21,30.11811,,,,,,,,,,,BKN,1800,,,,,,,MVFR,,,,,,,,,,,,METAR,1108.0
FKKL 300900Z 17012KT 140V200 CAVOK 32/19 Q1015,FKKL,2023-04-30T09:00:00Z,10.45,14.25,32.0,19.0,170,12,,6.21,29.970472,,,,,,,,,,,CAVOK,,,,,,,,VFR,,,,,,,,,,,,METAR,422.0
FKKD 300900Z VRB02KT 9999 BKN016 FEW020CB 30/24 Q1013 NOSIG,FKKD,2023-04-30T09:00:00Z,4.0,9.72,30.0,24.0,0,2,,6.21,29.911417,,,,,,TRUE,,,,,BKN,1600,FEW,2000,,,,,MVFR,,,,,,,,,,,,METAR,10.0
FEFF 300900Z 22005KT 9999 SCT010 27/23 Q1015 BECMG BKN010,FEFF,2023-04-30T09:00:00Z,4.4,18.52,27.0,23.0,220,5,,6.21,29.970472,,,,,,,,,,,SCT,1000,,,,,,,VFR,,,,,,,,,,,,SPECI,364.0
FCPP 300900Z 11005KT 9999 FEW012 FEW030CB 29/25 Q1013 NOSIG,FCPP,2023-04-30T09:00:00Z,-4.82,11.9,29.0,25.0,110,5,,6.21,29.911417,,,,,,TRUE,,,,,FEW,1200,FEW,3000,,,,,VFR,,,,,,,,,,,,METAR,18.0
FCOD 300900Z 28002KT 9999 BKN013 26/23 Q1015,FCOD,2023-04-30T09:00:00Z,,,26.0,23.0,280,2,,6.21,29.970472,,,,,,,,,,,BKN,1300,,,,,,,MVFR,,,,,,,,,,,,METAR,
FCBB 300900Z VRB02KT 9000 SCT013 26/22 Q1016 NOSIG,FCBB,2023-04-30T09:00:00Z,-4.25,15.25,26.0,22.0,0,2,,5.59,30.0,,,,,,TRUE,,,,,SCT,1300,,,,,,,VFR,,,,,,,,,,,,METAR,316.0
FBSK 300900Z 02006KT 340V110 CAVOK 27/12 Q1021 NOSIG,FBSK,2023-04-30T09:00:00Z,-24.55,25.92,27.0,12.0,20,6,,6.21,30.147638,,,,,,TRUE,,,,,CAVOK,,,,,,,,VFR,,,,,,,,,,,,METAR,1007.0
FBPM 300900Z 09009KT 040V130 CAVOK 30/09 Q1021,FBPM,2023-04-30T09:00:00Z,-21.17,27.48,30.0,9.0,90,9,,6.21,30.147638,,,,,,,,,,,CAVOK,,,,,,,,VFR,,,,,,,,,,,,METAR,1009.0
FBMN 300900Z 36004KT 300V050 CAVOK 30/14 Q1020,FBMN,2023-04-30T09:00:00Z,-19.97,23.42,30.0,14.0,360,4,,6.21,30.11811,,,,,,,,,,,CAVOK,,,,,,,,VFR,,,,,,,,,,,,METAR,946.0
FBKE 300900Z 09007KT 060V120 CAVOK 28/10 Q1021,FBKE,2023-04-30T09:00:00Z,-17.82,25.17,28.0,10.0,90,7,,6.21,30.147638,,,,,,,,,,,CAVOK,,,,,,,,VFR,,,,,,,,,,,,METAR,999.0
FAPN 300900Z AUTO 06002KT //// // ////// 24/14 Q1022,FAPN,2023-04-30T09:00:00Z,-25.33,27.17,24.0,14.0,60,2,,,30.177166,,,TRUE,,,,,,,,,,,,,,,,,,,,,,,,,,,,METAR,1045.0
FALW 300900Z AUTO 10002KT //// // ////// 21/10 Q1017,FALW,2023-04-30T09:00:00Z,-32.97,18.17,21.0,10.0,100,2,,,30.029528,,,TRUE,,,,,,,,,,,,,,,,,,,,,,,,,,,,SPECI,31.0
FALA 300900Z VRB04KT 9999 FEW045 23/13 Q1025 NOSIG,FALA,2023-04-30T09:00:00Z,-25.93,27.92,23.0,13.0,0,4,,6.21,30.265747,,,,,,TRUE,,,,,FEW,4500,,,,,,,VFR,,,,,,,,,,,,METAR,1365.0
FABL 300900Z 02005KT 320V090 CAVOK 20/10 Q1024 NOSIG,FABL,2023-04-30T09:00:00Z,-29.1,26.3,20.0,10.0,20,5,,6.21,30.236221,,,,,,TRUE,,,,,CAVOK,,,,,,,,VFR,,,,,,,,,,,,METAR,1348.0
DXXX 300900Z 35006KT 8000 FEW011 25/23 Q1014 NOSIG,DXXX,2023-04-30T09:00:00Z,6.17,1.25,25.0,23.0,350,6,,4.97,29.940945,,,,,,TRUE,,,,,FEW,1100,,,,,,,MVFR,,,,,,,,,,,,METAR,22.0
DXSK 300900Z 28004KT CAVOK 26/21 Q////,DXSK,2023-04-30T09:00:00Z,9.0,1.15,26.0,21.0,280,4,,6.21,,,,,,,,,,,,CAVOK,,,,,,,,VFR,,,,,,,,,,,,METAR,381.0
DXNG 300900Z 24008KT 210V280 CAVOK 26/17 Q1016,DXNG,2023-04-30T09:00:00Z,9.77,1.1,26.0,17.0,240,8,,6.21,30.0,,,,,,,,,,,CAVOK,,,,,,,,VFR,,,,,,,,,,,,METAR,343.0
DRZR 300900Z VRB02KT CAVOK 36/14 Q1014,DRZR,2023-04-30T09:00:00Z,13.77,8.98,36.0,14.0,0,2,,6.21,29.940945,,,,,,,,,,,CAVOK,,,,,,,,VFR,,,,,,,,,,,,METAR,457.0
DRZA 300900Z 18006KT CAVOK 36/06 Q1013,DRZA,2023-04-30T09:00:00Z,16.97,8.0,36.0,6.0,180,6,,6.21,29.911417,,,,,,,,,,,CAVOK,,,,,,,,VFR,,,,,,,,,,,,METAR,506.0
DRRT 300900Z 26004KT CAVOK 33/19 Q1013,DRRT,2023-04-30T09:00:00Z,14.87,5.27,33.0,19.0,260,4,,6.21,29.911417,,,,,,,,,,,CAVOK,,,,,,,,VFR,,,,,,,,,,,,METAR,387.0
DRRN 300900Z 24006KT CAVOK 35/14 Q1011 NOSIG,DRRN,2023-04-30T09:00:00Z,13.47,2.17,35.0,14.0,240,6,,6.21,29.852362,,,,,,TRUE,,,,,CAVOK,,,,,,,,VFR,,,,,,,,,,,,METAR,223.0
DRRM 300900Z 28012KT CAVOK 31/19 Q1015,DRRM,2023-04-30T09:00:00Z,13.5,7.12,31.0,19.0,280,12,,6.21,29.970472,,,,,,,,,,,CAVOK,,,,,,,,VFR,,,,,,,,,,,,METAR,374.0
DNYO 300900Z 27015KT 9999 SCT014 36/22 Q1013,DNYO,2023-04-30T09:00:00Z,9.27,12.42,36.0,22.0,270,15,,6.21,29.911417,,,,,,,,,,,SCT,1400,,,,,,,VFR,,,,,,,,,,,,METAR,178.0
DNMN 300900Z 23004KT CAVOK 28/23 Q1014,DNMN,2023-04-30T09:00:00Z,9.65,6.47,28.0,23.0,230,4,,6.21,29.940945,,,,,,,,,,,CAVOK,,,,,,,,VFR,,,,,,,,,,,,METAR,268.0
DNMM 300900Z 30004KT 6000 FEW010 27/24 Q1014 NOSIG,DNMM,2023-04-30T09:00:00Z,6.57,3.32,27.0,24.0,300,4,,3.73,29.940945,,,,,,TRUE,,,,,FEW,1000,,,,,,,MVFR,,,,,,,,,,,,METAR,27.0
DNKN 300900Z 23012KT CAVOK 29/18 Q1016 NOSIG,DNKN,2023-04-30T09:00:00Z,12.05,8.52,29.0,18.0,230,12,,6.21,30.0,,,,,,TRUE,,,,,CAVOK,,,,,,,,VFR,,,,,,,,,,,,METAR,471.0
DNKA 300900Z 27009KT CAVOK 29/21 Q1017 NOSIG,DNKA,2023-04-30T09:00:00Z,10.58,7.45,29.0,21.0,270,9,,6.21,30.029528,,,,,,TRUE,,,,,CAVOK,,,,,,,,VFR,,,,,,,,,,,,METAR,631.0
DNIM 300900Z 23009KT 9999 BKN011 29/26 Q1014,DNIM,2023-04-30T09:00:00Z,5.43,7.2,29.0,26.0,230,9,,6.21,29.940945,,,,,,,,,,,BKN,1100,,,,,,,MVFR,,,,,,,,,,,,METAR,113.0
DNIL 300900Z 00000KT 9999 FEW010 26/23 Q1014,DNIL,2023-04-30T09:00:00Z,8.43,4.48,26.0,23.0,0,0,,6.21,29.940945,,,,,,,,,,,FEW,1000,,,,,,,VFR,,,,,,,,,,,,METAR,341.0
DNGO 300900Z 21013KT CAVOK 32/21 Q1012,DNGO,2023-04-30T09:00:00Z,10.3,10.9,32.0,21.0,210,13,,6.21,29.88189,,,,,,,,,,,CAVOK,,,,,,,,VFR,,,,,,,,,,,,METAR,510.0
DNEN 300900Z 26008KT 9999 BKN012 29/24 Q1013 NOSIG,DNEN,2023-04-30T09:00:00Z,6.47,7.55,29.0,24.0,260,8,,6.21,29.911417,,,,,,TRUE,,,,,BKN,1200,,,,,,,MVFR,,,,,,,,,,,,METAR,142.0
DNAA 300900Z 04004KT CAVOK 28/23 Q1015 NOSIG,DNAA,2023-04-30T09:00:00Z,9.0,7.27,28.0,23.0,40,4,,6.21,29.970472,,,,,,TRUE,,,,,CAVOK,,,,,,,,VFR,,,,,,,,,,,,METAR,338.0
DIYO 300900Z 24004KT 9999 BKN011 28/24 Q1015 TEMPO RA,DIYO,2023-04-30T09:00:00Z,6.9,-5.35,28.0,24.0,240,4,,6.21,29.970472,,,,,,,,,,,BKN,1100,,,,,,,MVFR,,,,,,,,,,,,METAR,202.0
DIBK 300900Z 06006KT 8000 TS OVC011 FEW020CB 25/24 Q1017 NOSIG,DIBK,2023-04-30T09:00:00Z,7.73,-5.07,25.0,24.0,60,6,,4.97,30.029528,,,,,,TRUE,,,,TS,OVC,1100,FEW,2000,,,,,MVFR,,,,,,,,,,,,METAR,363.0
DGAA 300900Z 26009KT CAVOK 26/22 Q1013 NOSIG,DGAA,2023-04-30T09:00:00Z,5.58,-0.17,26.0,22.0,260,9,,6.21,29.911417,,,,,,TRUE,,,,,CAVOK,,,,,,,,VFR,,,,,,,,,,,,METAR,68.0
DFOO 300900Z 18011KT 9999 FEW020 24/20 Q1015,DFOO,2023-04-30T09:00:00Z,11.17,-4.32,24.0,20.0,180,11,,6.21,29.970472,,,,,,,,,,,FEW,2000,,,,,,,VFR,,,,,,,,,,,,METAR,461.0
DFFD 300900Z 24009KT CAVOK 27/20 Q1013 NOSIG,DFFD,2023-04-30T09:00:00Z,12.35,-1.52,27.0,20.0,240,9,,6.21,29.911417,,,,,,TRUE,,,,,CAVOK,,,,,,,,VFR,,,,,,,,,,,,METAR,309.0
DBBB 300900Z 36004KT 9999 FEW010 27/23 Q1011 NOSIG,DBBB,2023-04-30T09:00:00Z,6.35,2.38,27.0,23.0,360,4,,6.21,29.852362,,,,,,TRUE,,,,,FEW,1000,,,,,,,VFR,,,,,,,,,,,,METAR,4.0
CZZJ 300900Z AUTO 04005KT 08/M02 RMK AO1 SLP127 T00841023 56004,CZZJ,2023-04-30T09:00:00Z,53.58,-116.47,8.4,-2.3,40,5,,,,1012.7,,TRUE,TRUE,,,,,,,,,,,,,,,,-0.4,,,,,,,,,,,METAR,927.0
CZVL 300900Z AUTO 15012G21KT 9SM CLR 09/M06 A2998 RMK SLP162,CZVL,2023-04-30T09:00:00Z,53.67,-113.85,9.0,-6.0,150,12,21,9.0,29.97933,1016.2,,TRUE,,,,,,,,CLR,,,,,,,,VFR,,,,,,,,,,,,METAR,685.0
CZUM 300900Z AUTO 08004KT 9SM OVC096 04/M01 A3010 RMK SLP210,CZUM,2023-04-30T09:00:00Z,53.55,-64.1,4.0,-1.0,80,4,,9.0,30.100393,1021.0,,TRUE,,,,,,,,OVC,9600,,,,,,,VFR,,,,,,,,,,,,SPECI,431.0
CZTB 300900Z AUTO 00003KT 03/M00 RMK AO1 SOG 01 6014 SLP010 T00261001 50001,CZTB,2023-04-30T09:00:00Z,48.37,-89.32,2.6,-0.1,0,3,,,,1001.0,,TRUE,TRUE,,,,,,,,,,,,,,,,0.1,,,,,,,,,,,METAR,197.0
CZSP 300900Z AUTO 14002KT M01/M02 RMK AO1 SLP225 T10101019 55012,CZSP,2023-04-30T09:00:00Z,46.45,-62.58,-1.0,-1.9,140,2,,,,1022.5,,TRUE,TRUE,,,,,,,,,,,,,,,,-1.2,,,,,,,,,,,METAR,31.0
CZSM 300900Z AUTO 13005KT 05/M06 RMK AO1 SLP208 T00541063 56009,CZSM,2023-04-30T09:00:00Z,60.03,-111.93,5.4,-6.3,130,5,,,,1020.8,,TRUE,TRUE,,,,,,,,,,,,,,,,-0.9,,,,,,,,,,,METAR,203.0
CZSJ 300900Z AUTO 03002KT 9SM CLR M03/M05 A3002 RMK SLP184,CZSJ,2023-04-30T09:00:00Z,53.07,-93.35,-3.0,-5.0,30,2,,9.0,30.02067,1018.4,,TRUE,,,,,,,,CLR,,,,,,,,VFR,,,,,,,,,,,,METAR,286.0
CZPS 300900Z AUTO 14010KT 05/M05 RMK AO1 T00511051,CZPS,2023-04-30T09:00:00Z,52.43,-113.6,5.1,-5.1,140,10,,,,,,TRUE,TRUE,,,,,,,,,,,,,,,,,,,,,,,,,,,METAR,953.0
CZPC 300900Z AUTO 26010KT 9SM CLR 04/M00 A2997 RMK SLP151,CZPC,2023-04-30T09:00:00Z,49.52,-114.0,4.0,0.0,260,10,,9.0,29.970472,1015.1,,TRUE,,,,,,,,CLR,,,,,,,,VFR,,,,,,,,,,,,SPECI,1187.0
CZOL 300900Z AUTO 16008KT 10/M10 RMK AO1 T00981099,CZOL,2023-04-30T09:00:00Z,53.65,-113.35,9.8,-9.9,160,8,,,,,,TRUE,TRUE,,,,,,,,,,,,,,,,,,,,,,,,,,,METAR,645.0
CZMJ 300900Z AUTO 32001KT M02/M05 RMK AO1 SLP245 T10171049 50001,CZMJ,2023-04-30T09:00:00Z,50.33,-105.53,-1.7,-4.9,320,1,,,,1024.5,,TRUE,TRUE,,,,,,,,,,,,,,,,0.1,,,,,,,,,,,METAR,571.0
CZMD 300900Z AUTO 01005KT 9SM CLR M01/M04 A3001 RMK SLP179,CZMD,2023-04-30T09:00:00Z,53.43,-91.77,-1.0,-4.0,10,5,,9.0,30.008858,1017.9,,TRUE,,,,,,,,CLR,,,,,,,,VFR,,,,,,,,,,,,METAR,276.0
CZKD 300900Z AUTO 01001KT M03/M05 RMK AO1 SOG 09 5001 SLP230 T10311046,CZKD,2023-04-30T09:00:00Z,56.03,-96.52,-3.1,-4.6,10,1,,,,1023.0,,TRUE,TRUE,,,,,,,,,,,,,,,,,,,,,,,,,,,METAR,190.0
CZHY 300900Z AUTO 16009KT 08/M04 RMK AO1 SLP146 T00831043 57006,CZHY,2023-04-30T09:00:00Z,60.83,-115.78,8.3,-4.3,160,9,,,,1014.6,,TRUE,TRUE,,,,,,,,,,,,,,,,-0.6,,,,,,,,,,,METAR,159.0
CZFS 300900Z AUTO 33004KT 04/M02 RMK AO1 SLP124 T00421023 56003,CZFS,2023-04-30T09:00:00Z,61.77,-121.23,4.2,-2.3,330,4,,,,1012.4,,TRUE,TRUE,,,,,,,,,,,,,,,,-0.3,,,,,,,,,,,METAR,174.0
CZEV 300900Z AUTO 04004KT M12/M14 RMK AO1 SOG 51 8006 SLP217 T11221140,CZEV,2023-04-30T09:00:00Z,68.32,-133.48,-12.2,-14.0,40,4,,,,1021.7,,TRUE,TRUE,,,,,,,,,,,,,,,,,,,,,,,,,,,METAR,92.0
CZEL 300900Z AUTO 15008KT 08/08 RMK AO1 SLP989 T00830076 55015,CZEL,2023-04-30T09:00:00Z,43.65,-80.42,8.3,7.6,150,8,,,,998.9,,TRUE,TRUE,,,,,,,,,,,,,,,,-1.5,,,,,,,,,,,METAR,370.0
CZDB 300900Z AUTO 01001KT M02/M04 RMK AO1 SLP228 T10211039 56004,CZDB,2023-04-30T09:00:00Z,45.42,-63.47,-2.1,-3.9,10,1,,,,1022.8,,TRUE,TRUE,,,,,,,,,,,,,,,,-0.4,,,,,,,,,,,METAR,38.0
CZCR 300900Z AUTO 11004KT 02/02 RMK AO1 SLP214 T00180015 57005,CZCR,2023-04-30T09:00:00Z,47.98,-66.33,1.8,1.5,110,4,,,,1021.4,,TRUE,TRUE,,,,,,,,,,,,,,,,-0.5,,,,,,,,,,,METAR,39.0
CZCP 300900Z AUTO 04003KT 340V100 ////SM ////// M12/M13 A3019,CZCP,2023-04-30T09:00:00Z,70.17,-124.68,-12.0,-13.0,40,3,,,30.188976,,,TRUE,,,,,,,,,,,,,,,,,,,,,,,,,,,,SPECI,23.0
CZBF 300900Z AUTO 00000KT 9SM FEW180 M00/M01 A3018 RMK SLP223,CZBF,2023-04-30T09:00:00Z,47.62,-65.75,0.0,-1.0,0,0,,9.0,30.180119,1022.3,,TRUE,,,,,,,,FEW,18000,,,,,,,VFR,,,,,,,,,,,,SPECI,60.0
CYZY 300900Z AUTO VRB02KT 9SM CLR 02/M00 A2981 RMK SLP113,CYZY,2023-04-30T09:00:00Z,55.3,-123.13,2.0,0.0,0,2,,9.0,29.811024,1011.3,,TRUE,,,,,,,,CLR,,,,,,,,VFR,,,,,,,,,,,,SPECI,694.0
CYZX 300900Z 06004KT 15SM SCT150 BKN250 04/M00 A3018 RMK AC4CI3 DENSITY ALT -1496FT SLP219,CYZX,2023-04-30T09:00:00Z,44.98,-64.92,4.0,0.0,60,4,,15.0,30.180119,1021.9,,,,,,,,,,SCT,15000,BKN,25000,,,,,VFR,,,,,,,,,,,,SPECI,28.0
CYZV 300900Z 00000KT 30SM FEW085 BKN240 M03/M03 A3014 RMK AC1CI6 SLP212,CYZV,2023-04-30T09:00:00Z,50.22,-66.27,-3.0,-3.0,0,0,,30.0,30.138779,1021.2,,,,,,,,,,FEW,8500,BKN,24000,,,,,VFR,,,,,,,,,,,,SPECI,43.0
CYZT 300900Z 00000KT 15SM OVC096 11/09 A2980 RMK AC8 SLP094,CYZT,2023-04-30T09:00:00Z,50.68,-127.37,11.0,9.0,0,0,,15.0,29.799213,1009.4,,,,,,,,,,OVC,9600,,,,,,,VFR,,,,,,,,,,,,SPECI,13.0
CYZP 300900Z AUTO 15004KT OVC048 08/07 A2978 RMK WX MISG VIS MISG SLP085,CYZP,2023-04-30T09:00:00Z,53.25,-131.82,8.0,7.0,150,4,,,29.778543,1008.5,,TRUE,,,,,,,,OVC,4800,,,,,,,,,,,,,,,,,,,SPECI,7.0
CYZH 300900Z AUTO 10013KT 9SM CLR 08/M06 A2997 RMK SLP160,CYZH,2023-04-30T09:00:00Z,55.28,-114.77,8.0,-6.0,100,13,,9.0,29.970472,1016.0,,TRUE,,,,,,,,CLR,,,,,,,,VFR,,,,,,,,,,,,SPECI,583.0
CYZF 300900Z 14018G24KT 15SM FEW095 OVC110 07/M05 A2999 RMK AC1AC8 AC TR SLP167,CYZF,2023-04-30T09:00:00Z,62.47,-114.45,7.0,-5.0,140,18,24,15.0,29.991142,1016.7,,,,,,,,,,FEW,9500,OVC,11000,,,,,VFR,,,,,,,,,,,,SPECI,202.0
CYYZ 300900Z 10007KT 12SM FEW003 FEW035 BKN110 09/09 A2949 RMK SF1SC1AC5 SF TR SLP989,CYYZ,2023-04-30T09:00:00Z,43.67,-79.62,9.0,9.0,100,7,,12.0,29.489174,998.9,,,,,,,,,,FEW,300,FEW,3500,BKN,11000,,,VFR,,,,,,,,,,,,SPECI,171.0
CYYY 300900Z 15013G19KT 15SM SCT160 BKN220 08/02 A3006 RMK AC3CI3 SLP182,CYYY,2023-04-30T09:00:00Z,48.6,-68.22,8.0,2.0,150,13,19,15.0,30.059055,1018.2,,,,,,,,,,SCT,16000,BKN,22000,,,,,VFR,,,,,,,,,,,,SPECI,43.0
CYYT 300900Z 34017G26KT 15SM SCT019 BKN064 00/M02 A3000 RMK SC3SC4 SLP169,CYYT,2023-04-30T09:00:00Z,47.62,-52.73,0.0,-2.0,340,17,26,15.0,30.0,1016.9,,,,,,,,,,SCT,1900,BKN,6400,,,,,VFR,,,,,,,,,,,,SPECI,128.0
CYYR 300900Z 28003KT 15SM FEW150 FEW240 M02/M04 A3022 RMK AC1CI2 DENSITY ALT -2168FT FROIN SLP234,CYYR,2023-04-30T09:00:00Z,53.32,-60.42,-2.0,-4.0,280,3,,15.0,30.221457,1023.4,,,,,,,,,,FEW,15000,FEW,24000,,,,,VFR,,,,,,,,,,,,SPECI,42.0
CYYN 300900Z AUTO 14010KT 9SM CLR 01/M05 A3013 RMK ICE MISG SLP222,CYYN,2023-04-30T09:00:00Z,50.28,-107.68,1.0,-5.0,140,10,,9.0,30.129921,1022.2,,TRUE,,,,,,,,CLR,,,,,,,,VFR,,,,,,,,,,,,SPECI,814.0
CYYL 300900Z AUTO 28004KT 9SM BKN060 M03/M04 A3021 RMK SLP254,CYYL,2023-04-30T09:00:00Z,56.87,-101.07,-3.0,-4.0,280,4,,9.0,30.209646,1025.4,,TRUE,,,,,,,,BKN,6000,,,,,,,VFR,,,,,,,,,,,,SPECI,351.0
CYYJ 300900Z 23005KT 30SM BKN250 11/07 A2984 RMK CI5 SLP106,CYYJ,2023-04-30T09:00:00Z,48.63,-123.42,11.0,7.0,230,5,,30.0,29.840551,1010.6,,,,,,,,,,BKN,25000,,,,,,,VFR,,,,,,,,,,,,SPECI,16.0
CYYH 300900Z 22009KT 12SM -SN FEW006 OVC015 M09/M10 A3016 RMK ST2SC6 SLP217,CYYH,2023-04-30T09:00:00Z,69.53,-93.57,-9.0,-10.0,220,9,,12.0,30.159449,1021.7,,,,,,,,,-SN,FEW,600,OVC,1500,,,,,MVFR,,,,,,,,,,,,SPECI,19.0
CYYG 300900Z 12002KT 15SM SCT200 M00/M01 A3018 RMK CI4 SLP223,CYYG,2023-04-30T09:00:00Z,46.28,-63.12,0.0,-1.0,120,2,,15.0,30.180119,1022.3,,,,,,,,,,SCT,20000,,,,,,,VFR,,,,,,,,,,,,SPECI,48.0
CYYF 300900Z VRB02KT 15SM SKC 10/04 A2984 RMK SLP104,CYYF,2023-04-30T09:00:00Z,49.47,-119.6,10.0,4.0,0,2,,15.0,29.840551,1010.4,,,,,,,,,,SKC,,,,,,,,VFR,,,,,,,,,,,,SPECI,342.0
CYYE 300900Z 11004KT 090V160 15SM FEW250 12/00 A2978 RMK CI2 SLP093,CYYE,2023-04-30T09:00:00Z,58.83,-122.58,12.0,0.0,110,4,,15.0,29.778543,1009.3,,,,,,,,,,FEW,25000,,,,,,,VFR,,,,,,,,,,,,SPECI,379.0
CYYD 300900Z AUTO 00000KT 9SM CLR 07/01 A2979 RMK SLP095,CYYD,2023-04-30T09:00:00Z,54.82,-127.18,7.0,1.0,0,0,,9.0,29.790354,1009.5,,TRUE,,,,,,,,CLR,,,,,,,,VFR,,,,,,,,,,,,SPECI,527.0
CYYC 300900Z 13009KT 15SM SKC 08/M04 A2997 RMK SLP159,CYYC,2023-04-30T09:00:00Z,51.12,-114.02,8.0,-4.0,130,9,,15.0,29.970472,1015.9,,,,,,,,,,SKC,,,,,,,,VFR,,,,,,,,,,,,SPECI,1085.0
CYXY 300900Z 17014KT 15SM BKN110 BKN220 08/02 A2970 RMK AC5CI2 SLP079,CYXY,2023-04-30T09:00:00Z,60.72,-135.07,8.0,2.0,170,14,,15.0,29.698818,1007.9,,,,,,,,,,BKN,11000,BKN,22000,,,,,VFR,,,,,,,,,,,,SPECI,677.0
CYXX 300900Z VRB02KT 15SM FEW220 11/09 A2985 RMK CI1 SLP111,CYXX,2023-04-30T09:00:00Z,49.03,-122.38,11.0,9.0,0,2,,15.0,29.84941,1011.1,,,,,,,,,,FEW,22000,,,,,,,VFR,,,,,,,,,,,,SPECI,54.0
CYXU 300900Z 16005KT 2 1/2SM -RA BR OVC002 09/09 A2945 RMK FG4SF4 SLP977,CYXU,2023-04-30T09:00:00Z,43.03,-81.15,9.0,9.0,160,5,,2.5,29.450787,997.7,,,,,,,,,-RA BR,OVC,200,,,,,,,LIFR,,,,,,,,,,,,SPECI,278.0
CYXT 300900Z VRB02KT 15SM OVC110 09/04 A2981 RMK AC8 SLP099,CYXT,2023-04-30T09:00:00Z,54.47,-128.57,9.0,4.0,0,2,,15.0,29.811024,1009.9,,,,,,,,,,OVC,11000,,,,,,,VFR,,,,,,,,,,,,SPECI,213.0
CYXS 300900Z AUTO 00000KT 9SM CLR 08/02 A2975 RMK SLP083,CYXS,2023-04-30T09:00:00Z,53.88,-122.68,8.0,2.0,0,0,,9.0,29.749016,1008.3,,TRUE,,,,,,,,CLR,,,,,,,,VFR,,,,,,,,,,,,SPECI,685.0
CYXR 300900Z AUTO 13010G15KT 9SM OVC005 07/07 A2950 RMK SLP997,CYXR,2023-04-30T09:00:00Z,47.7,-79.85,7.0,7.0,130,10,15,9.0,29.500984,999.7,,TRUE,,,,,,,,OVC,500,,,,,,,IFR,,,,,,,,,,,,SPECI,244.0
CYXL 300900Z 36012G18KT 340V050 15SM -SN SCT010 BKN040 OVC080 00/M01 A2979 RMK SF3SC2AC3 SLP109,CYXL,2023-04-30T09:00:00Z,50.12,-91.9,0.0,-1.0,360,12,18,15.0,29.790354,1010.9,,,,,,,,,-SN,SCT,1000,BKN,4000,OVC,8000,,,VFR,,,,,,,,,,,,SPECI,381.0
CYXJ 300900Z 08008KT 15SM SCT160 12/M01 A2981 RMK AC3 SLP103 DENSITY ALT 2600FT,CYXJ,2023-04-30T09:00:00Z,56.25,-120.73,12.0,-1.0,80,8,,15.0,29.811024,1010.3,,,,,,,,,,SCT,16000,,,,,,,VFR,,,,,,,,,,,,SPECI,700.0
CYXH 300900Z AUTO 06007KT 9SM CLR 08/M03 A3003 RMK SLP175,CYXH,2023-04-30T09:00:00Z,50.02,-110.72,8.0,-3.0,60,7,,9.0,30.029528,1017.5,,TRUE,,,,,,,,CLR,,,,,,,,VFR,,,,,,,,,,,,SPECI,717.0
CYXE 300900Z 10004KT 15SM SKC 01/M04 A3018 RMK SLP241,CYXE,2023-04-30T09:00:00Z,52.17,-106.7,1.0,-4.0,100,4,,15.0,30.180119,1024.1,,,,,,,,,,SKC,,,,,,,,VFR,,,,,,,,,,,,SPECI,504.0
CYXC 300900Z 25005KT 15SM FEW015 09/M00 A2996 RMK FU1 FU TR FU VIS SE 3 SLP143,CYXC,2023-04-30T09:00:00Z,49.6,-115.78,9.0,0.0,250,5,,15.0,29.958662,1014.3,,,,,,,,,,FEW,1500,,,,,,,VFR,,,,,,,,,,,,SPECI,928.0
CYWL 300900Z 08005KT 15SM SKC 12/00 A2983 RMK SLP099 DENSITY ALT 3600FT,CYWL,2023-04-30T09:00:00Z,52.18,-122.07,12.0,0.0,80,5,,15.0,29.828741,1009.9,,,,,,,,,,SKC,,,,,,,,VFR,,,,,,,,,,,,SPECI,942.0
CYWK 300900Z AUTO 15003KT 9SM CLR M02/M03 A3006 RMK SLP202,CYWK,2023-04-30T09:00:00Z,52.92,-66.87,-2.0,-3.0,150,3,,9.0,30.059055,1020.2,,TRUE,,,,,,,,CLR,,,,,,,,VFR,,,,,,,,,,,,SPECI,547.0
CYWG 300900Z 34008KT 15SM SKC 00/M01 A3003 RMK SLP182,CYWG,2023-04-30T09:00:00Z,49.9,-97.23,0.0,-1.0,340,8,,15.0,30.029528,1018.2,,,,,,,,,,SKC,,,,,,,,VFR,,,,,,,,,,,,SPECI,238.0
CYWE 300900Z AUTO 14008KT 9SM OVC066 04/M03 A3001 RMK ICE MISG SLP184,CYWE,2023-04-30T09:00:00Z,64.18,-114.08,4.0,-3.0,140,8,,9.0,30.008858,1018.4,,TRUE,,,,,,,,OVC,6600,,,,,,,VFR,,,,,,,,,,,,METAR,374.0
CYVT 300900Z AUTO 19003KT 9SM CLR 00/M06 A3016 RMK SLP236,CYVT,2023-04-30T09:00:00Z,55.83,-108.42,0.0,-6.0,190,3,,9.0,30.159449,1023.6,,TRUE,,,,,,,,CLR,,,,,,,,VFR,,,,,,,,,,,,SPECI,438.0
CYVR 300900Z 10005KT 15SM SCT230 11/09 A2984 RMK CI3 SLP108,CYVR,2023-04-30T09:00:00Z,49.17,-123.17,11.0,9.0,100,5,,15.0,29.840551,1010.8,,,,,,,,,,SCT,23000,,,,,,,VFR,,,,,,,,,,,,SPECI,2.0
CYVQ 300900Z 05004KT 30SM BKN080 BKN140 00/M05 A3002 RMK AC6AC1 SLP174,CYVQ,2023-04-30T09:00:00Z,65.27,-126.78,0.0,-5.0,50,4,,30.0,30.02067,1017.4,,,,,,,,,,BKN,8000,BKN,14000,,,,,VFR,,,,,,,,,,,,SPECI,63.0
CYVM 300900Z AUTO 00000KT 9SM OVC008 M08/M09 A3020 RMK SLP229,CYVM,2023-04-30T09:00:00Z,67.55,-64.02,-8.0,-9.0,0,0,,9.0,30.200787,1022.9,,TRUE,,,,,,,,OVC,800,,,,,,,IFR,,,,,,,,,,,,SPECI,3.0
CYVL 300900Z AUTO 34004KT 9SM CLR M07/M09 A3004 RMK SLP196,CYVL,2023-04-30T09:00:00Z,67.02,-126.13,-7.0,-9.0,340,4,,9.0,30.041338,1019.6,,TRUE,,,,,,,,CLR,,,,,,,,VFR,,,,,,,,,,,,METAR,261.0
CYVC 300900Z 00000KT 15SM SKC M02/M04 A3024 RMK SLP261,CYVC,2023-04-30T09:00:00Z,55.15,-105.27,-2.0,-4.0,0,0,,15.0,30.239174,1026.1,,,,,,,,,,SKC,,,,,,,,VFR,,,,,,,,,,,,SPECI,378.0
CYUY 300900Z 13011KT 3SM -RA BR OVC007 06/06 A2955 RMK ST8 SLP018,CYUY,2023-04-30T09:00:00Z,48.2,-78.82,6.0,6.0,130,11,,3.0,29.551182,1001.8,,,,,,,,,-RA BR,OVC,700,,,,,,,IFR,,,,,,,,,,,,SPECI,304.0
CYUA 300900Z AUTO 31003KT 290V360 ////SM OVC003 ///// A////,CYUA,2023-04-30T09:00:00Z,68.92,-137.23,,,310,3,,,,,,TRUE,,,,,,,,OVC,300,,,,,,,,,,,,,,,,,,,SPECI,25.0
CYTR 300900Z 05004KT 15SM OVC010 10/09 A2959 RMK ST8 DENSITY ALT 238FT SLP021,CYTR,2023-04-30T09:00:00Z,44.12,-77.52,10.0,9.0,50,4,,15.0,29.589567,1002.1,,,,,,,,,,OVC,1000,,,,,,,MVFR,,,,,,,,,,,,SPECI,80.0
CYTL 300900Z AUTO 01006KT 340V050 9SM SCT140 M01/M04 A2999 RMK SLP170,CYTL,2023-04-30T09:00:00Z,53.82,-89.88,-1.0,-4.0,10,6,,9.0,29.991142,1017.0,,TRUE,,,,,,,,SCT,14000,,,,,,,VFR,,,,,,,,,,,,SPECI,218.0
CYTH 300900Z 35003KT 15SM BKN065 01/M01 A3017 RMK SC5 SLP230,CYTH,2023-04-30T09:00:00Z,55.8,-97.83,1.0,-1.0,350,3,,15.0,30.171259,1023.0,,,,,,,,,,BKN,6500,,,,,,,VFR,,,,,,,,,,,,SPECI,212.0
CYTE 300900Z AUTO 27012KT 9SM CLR M07/M07 A3022 RMK SLP242,CYTE,2023-04-30T09:00:00Z,64.22,-76.52,-7.0,-7.0,270,12,,9.0,30.221457,1024.2,,TRUE,,,,,,,,CLR,,,,,,,,VFR,,,,,,,,,,,,SPECI,49.0
CYSM 300900Z 14007KT 15SM SCT130 BKN220 05/M06 A3010 RMK AC3CI3 SLP206,CYSM,2023-04-30T09:00:00Z,60.03,-111.92,5.0,-6.0,140,7,,15.0,30.100393,1020.6,,,,,,,,,,SCT,13000,BKN,22000,,,,,VFR,,,,,,,,,,,,SPECI,203.0
CYSJ 300900Z VRB02KT 15SM SCT120 BKN220 03/03 A3014 RMK AC4CI3 SLP211,CYSJ,2023-04-30T09:00:00Z,45.32,-65.88,3.0,3.0,0,2,,15.0,30.138779,1021.1,,,,,,,,,,SCT,12000,BKN,22000,,,,,VFR,,,,,,,,,,,,SPECI,89.0
CYSF 300900Z AUTO 00000KT 9SM CLR M05/M06 A3023 RMK SLP254,CYSF,2023-04-30T09:00:00Z,59.25,-105.83,-5.0,-6.0,0,0,,9.0,30.230314,1025.4,,TRUE,,,,,,,,CLR,,,,,,,,VFR,,,,,,,,,,,,SPECI,238.0
CYSB 300900Z 14008KT 3/4SM R22/4500VP6000FT/D -RA BR VV001 08/08 A2945 RMK FG8 CIG RAG SLP984,CYSB,2023-04-30T09:00:00Z,46.63,-80.8,8.0,8.0,140,8,,0.75,29.450787,998.4,,,,,,,,,-RA BR,OVX,0,,,,,,,LIFR,,,,,,,,,,,100,SPECI,349.0
CYRV 300900Z AUTO VRB02KT 9SM OVC160 05/02 A2995 RMK SLP149,CYRV,2023-04-30T09:00:00Z,50.97,-118.17,5.0,2.0,0,2,,9.0,29.949802,1014.9,,TRUE,,,,,,,,OVC,16000,,,,,,,VFR,,,,,,,,,,,,SPECI,456.0
CYRT 300900Z 00000KT 5SM BR FEW003 BKN100 M07/M08 A3024 RMK SF2AC5 SLP245,CYRT,2023-04-30T09:00:00Z,62.82,-92.12,-7.0,-8.0,0,0,,5.0,30.239174,1024.5,,,,,,,,,BR,FEW,300,BKN,10000,,,,,MVFR,,,,,,,,,,,,SPECI,29.0
CYRL 300900Z 36007KT 15SM FEW240 00/M05 A2993 RMK CI1 CI TR SLP155,CYRL,2023-04-30T09:00:00Z,51.07,-93.78,0.0,-5.0,360,7,,15.0,29.929134,1015.5,,,,,,,,,,FEW,24000,,,,,,,VFR,,,,,,,,,,,,SPECI,370.0
CYRJ 300900Z 14005KT 25SM -SHRA BKN037 08/04 A2989 RMK SC7 CVCTV CLD EMBD SLP127,CYRJ,2023-04-30T09:00:00Z,48.52,-72.27,8.0,4.0,140,5,,25.0,29.890747,1012.7,,,,,,,,,-SHRA,BKN,3700,,,,,,,VFR,,,,,,,,,,,,SPECI,173.0
CYRB 300900Z 09012KT 9SM -SN SCT044 OVC078 M07/M09 A3018 RMK SC4AC4 SLP231,CYRB,2023-04-30T09:00:00Z,74.72,-94.97,-7.0,-9.0,90,12,,9.0,30.180119,1023.1,,,,,,,,,-SN,SCT,4400,OVC,7800,,,,,VFR,,,,,,,,,,,,SPECI,59.0
CYQZ 300900Z AUTO VRB02KT 9SM CLR 07/03 A2977 RMK SLP088,CYQZ,2023-04-30T09:00:00Z,53.02,-122.52,7.0,3.0,0,2,,9.0,29.769686,1008.8,,TRUE,,,,,,,,CLR,,,,,,,,VFR,,,,,,,,,,,,SPECI,548.0
CYQY 300900Z 00000KT 15SM SCT220 M03/M04 A3020 RMK CI3 SLP230,CYQY,2023-04-30T09:00:00Z,46.17,-60.03,-3.0,-4.0,0,0,,15.0,30.200787,1023.0,,,,,,,,,,SCT,22000,,,,,,,VFR,,,,,,,,,,,,SPECI,58.0
CYQX 300900Z 34012KT 20SM SCT096 M01/M03 A3013 RMK AC3 SLP211,CYQX,2023-04-30T09:00:00Z,48.95,-54.58,-1.0,-3.0,340,12,,20.0,30.129921,1021.1,,,,,,,,,,SCT,9600,,,,,,,VFR,,,,,,,,,,,,SPECI,144.0
CYQW 300900Z AUTO 12009KT 9SM CLR 02/M06 A3018 RMK SLP240,CYQW,2023-04-30T09:00:00Z,52.77,-108.25,2.0,-6.0,120,9,,9.0,30.180119,1024.0,,TRUE,,,,,,,,CLR,,,,,,,,VFR,,,,,,,,,,,,SPECI,545.0
CYQV 300900Z AUTO 28006KT 9SM FEW140 M02/M03 A3018 RMK SLP241,CYQV,2023-04-30T09:00:00Z,51.27,-102.47,-2.0,-3.0,280,6,,9.0,30.180119,1024.1,,TRUE,,,,,,,,FEW,14000,,,,,,,VFR,,,,,,,,,,,,SPECI,493.0
CYQU 300900Z 06006KT 25SM SCT250 08/M00 A2980 RMK CI4 SLP100,CYQU,2023-04-30T09:00:00Z,55.18,-118.88,8.0,0.0,60,6,,25.0,29.799213,1010.0,,,,,,,,,,SCT,25000,,,,,,,VFR,,,,,,,,,,,,SPECI,668.0
CYQR 300900Z 08004KT 15SM SKC 03/M05 A3017 RMK SLP238,CYQR,2023-04-30T09:00:00Z,50.43,-104.67,3.0,-5.0,80,4,,15.0,30.171259,1023.8,,,,,,,,,,SKC,,,,,,,,VFR,,,,,,,,,,,,SPECI,576.0
CYQQ 300900Z 00000KT 20SM BKN100 BKN200 12/08 A2981 RMK AC5CI2 DENSITY ALT 11FT SLP096,CYQQ,2023-04-30T09:00:00Z,49.72,-124.9,12.0,8.0,0,0,,20.0,29.811024,1009.6,,,,,,,,,,BKN,10000,BKN,20000,,,,,VFR,,,,,,,,,,,,SPECI,24.0
CYQM 300900Z VRB02KT 15SM FEW035 SCT180 SCT220 00/M01 A3015 RMK SC1AC3CI1 SC TR SLP212,CYQM,2023-04-30T09:00:00Z,46.12,-64.67,0.0,-1.0,0,2,,15.0,30.15059,1021.2,,,,,,,,,,FEW,3500,SCT,18000,SCT,22000,,,VFR,,,,,,,,,,,,SPECI,67.0
CYQL 300900Z AUTO 12007KT 9SM CLR 06/M01 A2997 RMK SLP153,CYQL,2023-04-30T09:00:00Z,49.63,-112.8,6.0,-1.0,120,7,,9.0,29.970472,1015.3,,TRUE,,,,,,,,CLR,,,,,,,,VFR,,,,,,,,,,,,SPECI,923.0
CYQK 300900Z 36011G17KT 20SM SCT140 BKN230 01/M05 A2988 RMK AC3CI3 SLP136,CYQK,2023-04-30T09:00:00Z,49.78,-94.37,1.0,-5.0,360,11,17,20.0,29.878937,1013.6,,,,,,,,,,SCT,14000,BKN,23000,,,,,VFR,,,,,,,,,,,,SPECI,413.0
CYQH 300900Z 13003KT 080V180 20SM SCT140 07/M00 A2978 RMK AC4 SLP102,CYQH,2023-04-30T09:00:00Z,60.12,-128.82,7.0,0.0,130,3,,20.0,29.778543,1010.2,,,,,,,,,,SCT,14000,,,,,,,VFR,,,,,,,,,,,,SPECI,692.0
CYQG 300900Z AUTO 12002KT 5SM BR BKN081 BKN180 05/05 A2944 RMK SLP971,CYQG,2023-04-30T09:00:00Z,42.27,-82.97,5.0,5.0,120,2,,5.0,29.438976,997.1,,TRUE,,,,,,,BR,BKN,8100,BKN,18000,,,,,MVFR,,,,,,,,,,,,SPECI,189.0
CYQF 300900Z AUTO 13008KT 9SM CLR 06/M04 A2999 RMK SLP169,CYQF,2023-04-30T09:00:00Z,52.17,-113.9,6.0,-4.0,130,8,,9.0,29.991142,1016.9,,TRUE,,,,,,,,CLR,,,,,,,,VFR,,,,,,,,,,,,SPECI,912.0
CYQD 300900Z AUTO 32005KT 9SM CLR 00/M01 A3020 RMK SLP242,CYQD,2023-04-30T09:00:00Z,53.97,-101.08,0.0,-1.0,320,5,,9.0,30.200787,1024.2,,TRUE,,,,,,,,CLR,,,,,,,,VFR,,,,,,,,,,,,SPECI,268.0
CYPY 300900Z AUTO 11009KT 9SM OVC210 03/M06 A3012 RMK SLP212,CYPY,2023-04-30T09:00:00Z,58.77,-111.12,3.0,-6.0,110,9,,9.0,30.121063,1021.2,,TRUE,,,,,,,,OVC,21000,,,,,,,VFR,,,,,,,,,,,,SPECI,225.0
CYPQ 300900Z AUTO 13004KT 080V180 9SM OVC004 09/09 A2955 RMK SLP012,CYPQ,2023-04-30T09:00:00Z,44.22,-78.37,9.0,9.0,130,4,,9.0,29.551182,1001.2,,TRUE,,,,,,,,OVC,400,,,,,,,LIFR,,,,,,,,,,,,SPECI,190.0
CYPO 300900Z AUTO 02011KT 9SM FEW008 OVC120 M02/M03 A2999 RMK SLP162,CYPO,2023-04-30T09:00:00Z,54.98,-85.43,-2.0,-3.0,20,11,,9.0,29.991142,1016.2,,TRUE,,,,,,,,FEW,800,OVC,12000,,,,,VFR,,,,,,,,,,,,METAR,49.0
CYPH 300900Z AUTO 06014KT 9SM OVC014 01/M00 A3013 RMK SLP207,CYPH,2023-04-30T09:00:00Z,58.47,-78.08,1.0,0.0,60,14,,9.0,30.129921,1020.7,,TRUE,,,,,,,,OVC,1400,,,,,,,MVFR,,,,,,,,,,,,SPECI,24.0
CYPE 300900Z 10008KT 15SM BKN230 10/M03 A2987 RMK CI5 SLP124,CYPE,2023-04-30T09:00:00Z,56.22,-117.45,10.0,-3.0,100,8,,15.0,29.870079,1012.4,,,,,,,,,,BKN,23000,,,,,,,VFR,,,,,,,,,,,,SPECI,572.0
CYPA 300900Z 13008KT 15SM SKC M02/M04 A3024 RMK SLP260,CYPA,2023-04-30T09:00:00Z,53.22,-105.67,-2.0,-4.0,130,8,,15.0,30.239174,1026.0,,,,,,,,,,SKC,,,,,,,,VFR,,,,,,,,,,,,SPECI,428.0
CYOW 300900Z 08015KT 15SM FEW006 OVC027 07/06 A2969 RMK SF1SC7 SLP057,CYOW,2023-04-30T09:00:00Z,45.32,-75.67,7.0,6.0,80,15,,15.0,29.68996,1005.7,,,,,,,,,,FEW,600,OVC,2700,,,,,MVFR,,,,,,,,,,,,SPECI,111.0
CYOJ 300900Z AUTO 11005KT 9SM CLR 10/M04 A2992 RMK SLP144,CYOJ,2023-04-30T09:00:00Z,58.62,-117.17,10.0,-4.0,110,5,,9.0,29.920275,1014.4,,TRUE,,,,,,,,CLR,,,,,,,,VFR,,,,,,,,,,,,SPECI,339.0
CYOD 300900Z 12008KT 15SM BKN090 05/M08 A3015 RMK AC6 DENSITY ALT 731FT SLP224,CYOD,2023-04-30T09:00:00Z,54.4,-110.28,5.0,-8.0,120,8,,15.0,30.15059,1022.4,,,,,,,,,,BKN,9000,,,,,,,VFR,,,,,,,,,,,,SPECI,540.0
CYNE 300900Z AUTO 33004KT 9SM CLR M02/M04 A3014 RMK SLP221,CYNE,2023-04-30T09:00:00Z,53.97,-97.83,-2.0,-4.0,330,4,,9.0,30.138779,1022.1,,TRUE,,,,,,,,CLR,,,,,,,,VFR,,,,,,,,,,,,SPECI,220.0
CYNA 300900Z AUTO 00000KT 9SM CLR M01/M02 A3019 RMK SLP227,CYNA,2023-04-30T09:00:00Z,50.18,-61.78,-1.0,-2.0,0,0,,9.0,30.188976,1022.7,,TRUE,,,,,,,,CLR,,,,,,,,VFR,,,,,,,,,,,,SPECI,9.0
CYMO 300900Z AUTO 07011KT 9SM -RA BKN027 BKN033 OVC042 04/03 A2962 RMK PCPN 0.5MM PAST HR SLP033,CYMO,2023-04-30T09:00:00Z,51.28,-80.62,4.0,3.0,70,11,,9.0,29.619095,1003.3,,TRUE,,,,,,,-RA,BKN,2700,BKN,3300,OVC,4200,,,MVFR,,,,,,,,,,,,SPECI,8.0
CYMM 300900Z AUTO 08007KT 9SM CLR 03/M08 A3011 RMK SLP213,CYMM,2023-04-30T09:00:00Z,56.65,-111.22,3.0,-8.0,80,7,,9.0,30.109253,1021.3,,TRUE,,,,,,,,CLR,,,,,,,,VFR,,,,,,,,,,,,SPECI,371.0
CYMH 300900Z AUTO 25003KT 9SM CLR M04/M05 A3021 RMK SLP233,CYMH,2023-04-30T09:00:00Z,52.3,-55.82,-4.0,-5.0,250,3,,9.0,30.209646,1023.3,,TRUE,,,,,,,,CLR,,,,,,,,VFR,,,,,,,,,,,,SPECI,18.0
CYMA 300900Z 36009KT 15SM BKN072 OVC120 05/01 A2973 RMK AC6AS2 SLP091,CYMA,2023-04-30T09:00:00Z,63.62,-135.87,5.0,1.0,360,9,,15.0,29.731298,1009.1,,,,,,,,,,BKN,7200,OVC,12000,,,,,VFR,,,,,,,,,,,,SPECI,519.0
CYLW 300900Z AUTO 00000KT 9SM CLR 09/04 A2985 RMK SLP108,CYLW,2023-04-30T09:00:00Z,49.95,-119.37,9.0,4.0,0,0,,9.0,29.84941,1010.8,,TRUE,,,,,,,,CLR,,,,,,,,VFR,,,,,,,,,,,,SPECI,420.0
CYLL 300900Z AUTO 14011KT 9SM CLR 04/M09 A3012 RMK SLP221,CYLL,2023-04-30T09:00:00Z,53.32,-110.07,4.0,-9.0,140,11,,9.0,30.121063,1022.1,,TRUE,,,,,,,,CLR,,,,,,,,VFR,,,,,,,,,,,,SPECI,664.0
CYKY 300900Z 15011G16KT 15SM FEW220 04/M08 A3012 RMK CI1 CI TR SLP216,CYKY,2023-04-30T09:00:00Z,51.52,-109.17,4.0,-8.0,150,11,16,15.0,30.121063,1021.6,,,,,,,,,,FEW,22000,,,,,,,VFR,,,,,,,,,,,,SPECI,692.0
CYKJ 300900Z AUTO 00000KT 9SM CLR M04/M05 A3019 RMK SLP252,CYKJ,2023-04-30T09:00:00Z,57.25,-105.62,-4.0,-5.0,0,0,,9.0,30.188976,1025.2,,TRUE,,,,,,,,CLR,,,,,,,,VFR,,,,,,,,,,,,SPECI,519.0
CYKA 300900Z 09004KT 050V210 40SM SKC 12/02 A2983 RMK SLP104,CYKA,2023-04-30T09:00:00Z,50.7,-120.45,12.0,2.0,90,4,,40.0,29.828741,1010.4,,,,,,,,,,SKC,,,,,,,,VFR,,,,,,,,,,,,SPECI,344.0
CYJT 300900Z 35004KT 15SM FEW003 FEW019 M02/M04 A3023 RMK ST1SC1 ST TR SC TR SLP240,CYJT,2023-04-30T09:00:00Z,48.55,-58.57,-2.0,-4.0,350,4,,15.0,30.230314,1024.0,,,,,,,,,,FEW,300,FEW,1900,,,,,VFR,,,,,,,,,,,,SPECI,7.0
CYIV 300900Z AUTO 35008KT 9SM CLR M00/M02 A3008 RMK SLP204,CYIV,2023-04-30T09:00:00Z,53.85,-94.65,0.0,-2.0,350,8,,9.0,30.079725,1020.4,,TRUE,,,,,,,,CLR,,,,,,,,VFR,,,,,,,,,,,,SPECI,234.0
CYIN 300900Z AUTO VRB03KT 9SM CLR 03/M02 A2985 RMK SLP105,CYIN,2023-04-30T09:00:00Z,51.27,-121.68,3.0,-2.0,0,3,,9.0,29.84941,1010.5,,TRUE,,,,,,,,CLR,,,,,,,,VFR,,,,,,,,,,,,METAR,1127.0
CYHY 300900Z 16011KT 15SM SCT230 08/M05 A2995 RMK CI3 SLP150,CYHY,2023-04-30T09:00:00Z,60.83,-115.77,8.0,-5.0,160,11,,15.0,29.949802,1015.0,,,,,,,,,,SCT,23000,,,,,,,VFR,,,,,,,,,,,,SPECI,159.0
CYHM 300900Z 14008KT 15SM FEW032 FEW110 09/08 A2948 RMK SC1AC1 SC TR AC TR SLP986,CYHM,2023-04-30T09:00:00Z,43.17,-79.93,9.0,8.0,140,8,,15.0,29.480314,998.6,,,,,,,,,,FEW,3200,FEW,11000,,,,,VFR,,,,,,,,,,,,METAR,237.0
CYHK 300900Z AUTO 21005KT 9SM OVC004 M10/M11 A3015 RMK SLP217,CYHK,2023-04-30T09:00:00Z,68.62,-95.85,-10.0,-11.0,210,5,,9.0,30.15059,1021.7,,TRUE,,,,,,,,OVC,400,,,,,,,LIFR,,,,,,,,,,,,SPECI,36.0
CYHE 300900Z AUTO 08006KT 9SM CLR 13/07 A2988 RMK SLP121,CYHE,2023-04-30T09:00:00Z,49.37,-121.5,13.0,7.0,80,6,,9.0,29.878937,1012.1,,TRUE,,,,,,,,CLR,,,,,,,,VFR,,,,,,,,,,,,SPECI,43.0
CYGX 300900Z 06004KT 15SM SCT040 M02/M04 A3015 RMK SC3 SLP223,CYGX,2023-04-30T09:00:00Z,56.35,-94.7,-2.0,-4.0,60,4,,15.0,30.15059,1022.3,,,,,,,,,,SCT,4000,,,,,,,VFR,,,,,,,,,,,,SPECI,145.0
CYGW 300900Z AUTO VRB03KT 9SM OVC081 06/01 A2987 RMK SLP117,CYGW,2023-04-30T09:00:00Z,55.27,-77.77,6.0,1.0,0,3,,9.0,29.870079,1011.7,,TRUE,,,,,,,,OVC,8100,,,,,,,VFR,,,,,,,,,,,,SPECI,13.0
CYGV 300900Z AUTO 04002KT 9SM CLR M02/M04 A3018 RMK SLP224,CYGV,2023-04-30T09:00:00Z,50.28,-63.62,-2.0,-4.0,40,2,,9.0,30.180119,1022.4,,TRUE,,,,,,,,CLR,,,,,,,,VFR,,,,,,,,,,,,SPECI,32.0
CYGR 300900Z 10005KT 20SM SCT270 01/M01 A3020 RMK CI3 SLP229,CYGR,2023-04-30T09:00:00Z,47.42,-61.77,1.0,-1.0,100,5,,20.0,30.200787,1022.9,,,,,,,,,,SCT,27000,,,,,,,VFR,,,,,,,,,,,,SPECI,4.0
CYGP 300900Z VRB02KT 15SM BKN250 M02/M02 A3017 RMK CS7 CC ASOCTD SLP219,CYGP,2023-04-30T09:00:00Z,48.77,-64.47,-2.0,-2.0,0,2,,15.0,30.171259,1021.9,,,,,,,,,,BKN,25000,,,,,,,VFR,,,,,,,,,,,,SPECI,31.0
CYGL 300900Z 07009KT 15SM BKN150 OVC200 05/M00 A2978 RMK AC7CI1 SLP095,CYGL,2023-04-30T09:00:00Z,53.62,-77.7,5.0,0.0,70,9,,15.0,29.778543,1009.5,,,,,,,,,,BKN,15000,OVC,20000,,,,,VFR,,,,,,,,,,,,SPECI,192.0
CYFT 300900Z 04002KT 1/2SM -SN FZFG VV003 M05/M05 A3023 RMK FG8 SLP244,CYFT,2023-04-30T09:00:00Z,55.07,-59.18,-5.0,-5.0,40,2,,0.5,30.230314,1024.4,,,,,,,,,-SN FZFG,OVX,0,,,,,,,LIFR,,,,,,,,,,,300,SPECI,65.0
CYFS 300900Z 35004KT 15SM FEW170 FEW250 04/M03 A2987 RMK AC1CI1 AC TR SLP125,CYFS,2023-04-30T09:00:00Z,61.75,-121.22,4.0,-3.0,350,4,,15.0,29.870079,1012.5,,,,,,,,,,FEW,17000,FEW,25000,,,,,VFR,,,,,,,,,,,,SPECI,174.0
CYFC 300900Z AUTO 00000KT 9SM BKN120 OVC140 06/03 A3013 RMK SLP206,CYFC,2023-04-30T09:00:00Z,45.87,-66.53,6.0,3.0,0,0,,9.0,30.129921,1020.6,,TRUE,,,,,,,,BKN,12000,OVC,14000,,,,,VFR,,,,,,,,,,,,SPECI,16.0
CYFB 300900Z VRB02KT 30SM BKN052 M04/M05 A3022 RMK SC7 SLP238,CYFB,2023-04-30T09:00:00Z,63.75,-68.55,-4.0,-5.0,0,2,,30.0,30.221457,1023.8,,,,,,,,,,BKN,5200,,,,,,,VFR,,,,,,,,,,,,SPECI,23.0
CYEV 300900Z 22002KT 15SM SKC M14/M15 A3014 RMK SLP214,CYEV,2023-04-30T09:00:00Z,68.32,-133.5,-14.0,-15.0,220,2,,15.0,30.138779,1021.4,,,,,,,,,,SKC,,,,,,,,VFR,,,,,,,,,,,,SPECI,74.0
CYET 300900Z AUTO 03006KT 9SM CLR 09/M02 A2989 RMK SLP126,CYET,2023-04-30T09:00:00Z,53.57,-116.47,9.0,-2.0,30,6,,9.0,29.890747,1012.6,,TRUE,,,,,,,,CLR,,,,,,,,VFR,,,,,,,,,,,,SPECI,925.0
CYEN 300900Z AUTO 01003KT 9SM CLR M00/M01 A3016 RMK SLP236,CYEN,2023-04-30T09:00:00Z,49.22,-102.97,0.0,-1.0,10,3,,9.0,30.159449,1023.6,,TRUE,,,,,,,,CLR,,,,,,,,VFR,,,,,,,,,,,,SPECI,580.0
CYEG 300900Z 13014G19KT 20SM FEW230 07/M05 A2999 RMK CI2 SLP167,CYEG,2023-04-30T09:00:00Z,53.3,-113.58,7.0,-5.0,130,14,19,20.0,29.991142,1016.7,,,,,,,,,,FEW,23000,,,,,,,VFR,,,,,,,,,,,,SPECI,710.0
CYDQ 300900Z AUTO 00000KT 9SM CLR 06/00 A2980 RMK SLP102,CYDQ,2023-04-30T09:00:00Z,55.75,-120.18,6.0,0.0,0,0,,9.0,29.799213,1010.2,,TRUE,,,,,,,,CLR,,,,,,,,VFR,,,,,,,,,,,,SPECI,658.0
CYDN 300900Z AUTO 25008KT 9SM CLR M00/M02 A3015 RMK SLP226,CYDN,2023-04-30T09:00:00Z,51.1,-100.05,0.0,-2.0,250,8,,9.0,30.15059,1022.6,,TRUE,,,,,,,,CLR,,,,,,,,VFR,,,,,,,,,,,,SPECI,302.0
CYDL 300900Z AUTO 00000KT 9SM SCT100 BKN120 04/01 A2982 RMK SLP106,CYDL,2023-04-30T09:00:00Z,58.42,-130.02,4.0,1.0,0,0,,9.0,29.819881,1010.6,,TRUE,,,,,,,,SCT,10000,BKN,12000,,,,,VFR,,,,,,,,,,,,METAR,804.0
CYDF 300900Z 22008KT 15SM FEW057 00/00 A3022 RMK SC1 SLP237,CYDF,2023-04-30T09:00:00Z,49.22,-57.4,0.0,0.0,220,8,,15.0,30.221457,1023.7,,,,,,,,,,FEW,5700,,,,,,,VFR,,,,,,,,,,,,SPECI,15.0
CYDB 300900Z AUTO 00000KT 9SM CLR M01/M04 A2967 RMK SLP087,CYDB,2023-04-30T09:00:00Z,61.37,-139.02,-1.0,-4.0,0,0,,9.0,29.66929,1008.7,,TRUE,,,,,,,,CLR,,,,,,,,VFR,,,,,,,,,,,,SPECI,807.0
CYCY 300900Z AUTO 34004KT 9SM BKN060 OVC085 M08/M09 A3021 RMK SLP235,CYCY,2023-04-30T09:00:00Z,70.48,-68.52,-8.0,-9.0,340,4,,9.0,30.209646,1023.5,,TRUE,,,,,,,,BKN,6000,OVC,8500,,,,,VFR,,,,,,,,,,,,SPECI,73.0
CYBX 300900Z 05006KT 15SM SKC M03/M04 A3020 RMK SLP232,CYBX,2023-04-30T09:00:00Z,51.45,-57.18,-3.0,-4.0,50,6,,15.0,30.200787,1023.2,,,,,,,,,,SKC,,,,,,,,VFR,,,,,,,,,,,,SPECI,32.0
CYBW 300900Z AUTO 14004KT 9SM CLR 06/M03 A2997 RMK SLP158,CYBW,2023-04-30T09:00:00Z,51.1,-114.37,6.0,-3.0,140,4,,9.0,29.970472,1015.8,,TRUE,,,,,,,,CLR,,,,,,,,VFR,,,,,,,,,,,,SPECI,1197.0
CYBU 300900Z AUTO 28002KT 9SM CLR M02/M04 A3023 RMK SLP255,CYBU,2023-04-30T09:00:00Z,53.32,-104.0,-2.0,-4.0,280,2,,9.0,30.230314,1025.5,,TRUE,,,,,,,,CLR,,,,,,,,VFR,,,,,,,,,,,,SPECI,369.0
CYBR 300900Z 35010KT 15SM SKC 01/M01 A3011 RMK SLP214,CYBR,2023-04-30T09:00:00Z,49.92,-99.95,1.0,-1.0,350,10,,15.0,30.109253,1021.4,,,,,,,,,,SKC,,,,,,,,VFR,,,,,,,,,,,,METAR,405.0
CYBG 300900Z 09014KT 25SM OVC080 07/03 A2995 RMK AS8 DENSITY ALT -323FT SLP146,CYBG,2023-04-30T09:00:00Z,48.33,-70.98,7.0,3.0,90,14,,25.0,29.949802,1014.6,,,,,,,,,,OVC,8000,,,,,,,VFR,,,,,,,,,,,,SPECI,151.0
CYBC 300900Z AUTO 08010KT 9SM CLR 05/02 A3009 RMK SLP192,CYBC,2023-04-30T09:00:00Z,49.13,-68.2,5.0,2.0,80,10,,9.0,30.088583,1019.2,,TRUE,,,,,,,,CLR,,,,,,,,VFR,,,,,,,,,,,,SPECI,20.0
CYAY 300900Z AUTO 28004KT 9SM CLR M03/M04 A3020 RMK SLP231,CYAY,2023-04-30T09:00:00Z,51.38,-56.07,-3.0,-4.0,280,4,,9.0,30.200787,1023.1,,TRUE,,,,,,,,CLR,,,,,,,,VFR,,,,,,,,,,,,SPECI,23.0
CYAH 300900Z AUTO 03005KT 9SM FEW120 SCT160 SCT210 04/M02 A2988 RMK SLP133,CYAH,2023-04-30T09:00:00Z,53.75,-73.67,4.0,-2.0,30,5,,9.0,29.878937,1013.3,,TRUE,,,,,,,,FEW,12000,SCT,16000,SCT,21000,,,VFR,,,,,,,,,,,,SPECI,298.0
CXZV 300900Z AUTO 30002KT M02/M03 RMK AO1 SLP209 T10181030 56007,CXZV,2023-04-30T09:00:00Z,50.22,-66.25,-1.8,-3.0,300,2,,,,1020.9,,TRUE,TRUE,,,,,,,,,,,,,,,,-0.7,,,,,,,,,,,METAR,43.0
CXZC 300900Z AUTO 06004KT 03/03 RMK AO1 6PAST HR SOG 07 6020 SLP038 P0002 T00320028 50011,CXZC,2023-04-30T09:00:00Z,51.3,-80.62,3.2,2.8,60,4,,,,1003.8,,TRUE,TRUE,,,,,,,,,,,,,,,,1.1,,,,,0.02,,,,,,METAR,8.0
CXYH 300900Z AUTO 33002KT 04/M02 RMK AO1 SLP111 T00381017 53006,CXYH,2023-04-30T09:00:00Z,61.25,-123.75,3.8,-1.7,330,2,,,,1011.1,,TRUE,TRUE,,,,,,,,,,,,,,,,0.6,,,,,,,,,,,METAR,197.0
CXWN 300900Z AUTO 33005KT 02/M01 RMK AO1 SLP180 T00221008 53002,CXWN,2023-04-30T09:00:00Z,49.88,-97.13,2.2,-0.8,330,5,,,,1018.0,,TRUE,TRUE,,,,,,,,,,,,,,,,0.2,,,,,,,,,,,METAR,232.0
CXWM 300900Z AUTO 16009KT 06/M02 RMK AO1 T00641015,CXWM,2023-04-30T09:00:00Z,49.5,-112.12,6.4,-1.5,160,9,,,,,,TRUE,TRUE,,,,,,,,,,,,,,,,,,,,,,,,,,,METAR,947.0
CXWB 300900Z AUTO 06003KT M06/M08 RMK AO1 SOG 16 3002 SLP222 T10591076,CXWB,2023-04-30T09:00:00Z,65.88,-89.45,-5.9,-7.6,60,3,,,,1022.2,,TRUE,TRUE,,,,,,,,,,,,,,,,,,,,,,,,,,,METAR,14.0
CXVW 300900Z AUTO 14015KT 12/M04 RMK AO1 PK WND 14018/0844 SLP102 T01201035 56011,CXVW,2023-04-30T09:00:00Z,55.1,-117.2,12.0,-3.5,140,15,,,,1010.2,,TRUE,TRUE,,,,,,,,,,,,,,,,-1.1,,,,,,,,,,,METAR,696.0
CXVN 300900Z AUTO 16005KT 11/09 RMK AO1 SLP987 T01090086 58022,CXVN,2023-04-30T09:00:00Z,43.18,-79.4,10.9,8.6,160,5,,,,998.7,,TRUE,TRUE,,,,,,,,,,,,,,,,-2.2,,,,,,,,,,,METAR,86.0
CXVM 300900Z AUTO 15007KT 05/M08 RMK AO1 T00461082,CXVM,2023-04-30T09:00:00Z,53.35,-110.88,4.6,-8.2,150,7,,,,,,TRUE,TRUE,,,,,,,,,,,,,,,,,,,,,,,,,,,METAR,622.0
CXTV 300900Z AUTO 36006KT M17/M19 RMK AO1 SOG 46 6002 SLP227 T11681187,CXTV,2023-04-30T09:00:00Z,68.75,-133.5,-16.8,-18.7,360,6,,,,1022.7,,TRUE,TRUE,,,,,,,,,,,,,,,,,,,,,,,,,,,METAR,91.0
CXTP 300900Z AUTO 33005KT M00/M02 RMK AO1 SLP188 T10021015 53010,CXTP,2023-04-30T09:00:00Z,48.55,-53.97,-0.2,-1.5,330,5,,,,1018.8,,TRUE,TRUE,,,,,,,,,,,,,,,,1.0,,,,,,,,,,,METAR,104.0
CXTO 300900Z AUTO 09/08 RMK AO1 SLP992 T00850077 58020,CXTO,2023-04-30T09:00:00Z,43.67,-79.4,8.5,7.7,,,,,,999.2,,TRUE,TRUE,,,,,,,,,,,,,,,,-2.0,,,,,,,,,,,METAR,115.0
CXTN 300900Z AUTO 21009KT M04/M08 RMK AO1 SOG 43 8002 SLP216 T10411079,CXTN,2023-04-30T09:00:00Z,69.2,-122.35,-4.1,-7.9,210,9,,,,1021.6,,TRUE,TRUE,,,,,,,,,,,,,,,,,,,,,,,,,,,METAR,564.0
CXTH 300900Z AUTO 14015KT 06/M08 RMK AO1 PK WND 14017/0853 T00571084,CXTH,2023-04-30T09:00:00Z,53.63,-111.68,5.7,-8.4,140,15,,,,,,TRUE,TRUE,,,,,,,,,,,,,,,,,,,,,,,,,,,METAR,679.0
CXTD 300900Z AUTO 20004KT 01/M02 RMK AO1 SLP240 T00051021 55007,CXTD,2023-04-30T09:00:00Z,45.62,-61.68,0.5,-2.1,200,4,,,,1024.0,,TRUE,TRUE,,,,,,,,,,,,,,,,-0.7,,,,,,,,,,,METAR,58.0
CXSP 300900Z AUTO 12008KT 05/M09 RMK AO1 T00531088,CXSP,2023-04-30T09:00:00Z,54.02,-111.27,5.3,-8.8,120,8,,,,,,TRUE,TRUE,,,,,,,,,,,,,,,,,,,,,,,,,,,METAR,652.0
CXSL 300900Z AUTO 13010KT 07/M08 RMK AO1 T00681084,CXSL,2023-04-30T09:00:00Z,54.28,-112.5,6.8,-8.4,130,10,,,,,,TRUE,TRUE,,,,,,,,,,,,,,,,,,,,,,,,,,,METAR,680.0
CXSH 300900Z AUTO 08009KT 06/06 RMK AO1 6PAST HR 6012 SLP126 P0002 T00620055 50022,CXSH,2023-04-30T09:00:00Z,46.55,-72.73,6.2,5.5,80,9,,,,1012.6,,TRUE,TRUE,,,,,,,,,,,,,,,,2.2,,,,,0.02,,,,,,METAR,106.0
CXSE 300900Z AUTO 02002KT M10/M12 RMK AO1 SOG 22 4000 SLP223 T10951119,CXSE,2023-04-30T09:00:00Z,73.77,-105.28,-9.5,-11.9,20,2,,,,1022.3,,TRUE,TRUE,,,,,,,,,,,,,,,,,,,,,,,,,,,METAR,11.0
CXSC 300900Z AUTO 10011KT 04/M04 RMK AO1 T00391040,CXSC,2023-04-30T09:00:00Z,50.3,-110.08,3.9,-4.0,100,11,,,,,,TRUE,TRUE,,,,,,,,,,,,,,,,,,,,,,,,,,,METAR,809.0
CXRL 300900Z AUTO 12007KT 03/M07 RMK AO1 T00261074,CXRL,2023-04-30T09:00:00Z,54.5,-111.7,2.6,-7.4,120,7,,,,,,TRUE,TRUE,,,,,,,,,,,,,,,,,,,,,,,,,,,METAR,585.0
CXRH 300900Z AUTO 18001KT M01/M04 RMK AO1 SLP235 T10091038 52007,CXRH,2023-04-30T09:00:00Z,49.57,-57.88,-0.9,-3.8,180,1,,,,1023.5,,TRUE,TRUE,,,,,,,,,,,,,,,,0.7,,,,,,,,,,,METAR,68.0
CXRB 300900Z AUTO 10013KT M07/M09 RMK AO1 SOG 01 8005 SLP227 T10661089,CXRB,2023-04-30T09:00:00Z,74.72,-94.98,-6.6,-8.9,100,13,,,,1022.7,,TRUE,TRUE,,,,,,,,,,,,,,,,,,,,,,,,,,,METAR,30.0
CXPL 300900Z AUTO 10012KT 05/M06 RMK AO1 T00521059,CXPL,2023-04-30T09:00:00Z,51.13,-111.7,5.2,-5.9,100,12,,,,,,TRUE,TRUE,,,,,,,,,,,,,,,,,,,,,,,,,,,METAR,735.0
CXPC 300900Z AUTO 10/08 RMK AO1 SLP985 T00960081 57014,CXPC,2023-04-30T09:00:00Z,45.35,-80.05,9.6,8.1,,,,,,998.5,,TRUE,TRUE,,,,,,,,,,,,,,,,-1.4,,,,,,,,,,,METAR,176.0
CXPA 300900Z AUTO 08008KT 10/M01 RMK AO1 T01031012,CXPA,2023-04-30T09:00:00Z,55.62,-118.3,10.3,-1.2,80,8,,,,,,TRUE,TRUE,,,,,,,,,,,,,,,,,,,,,,,,,,,METAR,628.0
CXOY 300900Z AUTO 14013KT 05/M09 RMK AO1 PK WND 14017/0840 T00461087,CXOY,2023-04-30T09:00:00Z,51.35,-110.35,4.6,-8.7,140,13,,,,,,TRUE,TRUE,,,,,,,,,,,,,,,,,,,,,,,,,,,METAR,784.0
CXOX 300900Z AUTO 18003KT M02/M05 RMK AO1 SLP252 T10201050 57004,CXOX,2023-04-30T09:00:00Z,55.15,-105.27,-2.0,-5.0,180,3,,,,1025.2,,TRUE,TRUE,,,,,,,,,,,,,,,,-0.4,,,,,,,,,,,METAR,381.0
CXOL 300900Z AUTO 13009KT 04/M04 RMK AO1 T00441037,CXOL,2023-04-30T09:00:00Z,51.77,-114.08,4.4,-3.7,130,9,,,,,,TRUE,TRUE,,,,,,,,,,,,,,,,,,,,,,,,,,,METAR,1026.0
CXNP 300900Z AUTO 18006KT 02/01 RMK AO1 SLP214 T00240006 56002,CXNP,2023-04-30T09:00:00Z,45.75,-64.23,2.4,0.6,180,6,,,,1021.4,,TRUE,TRUE,,,,,,,,,,,,,,,,-0.2,,,,,,,,,,,METAR,19.0
CXNM 300900Z AUTO 09003KT M01/M06 RMK AO1 SOG 69 T10121059,CXNM,2023-04-30T09:00:00Z,46.82,-60.67,-1.2,-5.9,90,3,,,,,,TRUE,TRUE,,,,,,,,,,,,,,,,,,,,,,,,,,,METAR,452.0
CXMY 300900Z AUTO M02/M02 RMK AO1 T10161017,CXMY,2023-04-30T09:00:00Z,44.98,-62.48,-1.6,-1.7,,,,,,,,TRUE,TRUE,,,,,,,,,,,,,,,,,,,,,,,,,,,METAR,37.0
CXMO 300900Z AUTO 15014KT 08/M05 RMK AO1 PK WND 14020/0835 T00801048,CXMO,2023-04-30T09:00:00Z,51.67,-112.68,8.0,-4.8,150,14,,,,,,TRUE,TRUE,,,,,,,,,,,,,,,,,,,,,,,,,,,METAR,837.0
CXMM 300900Z AUTO 09006KT 03/M08 RMK AO1 SLP211 T00321080 56001,CXMM,2023-04-30T09:00:00Z,56.65,-111.22,3.2,-8.0,90,6,,,,1021.1,,TRUE,TRUE,,,,,,,,,,,,,,,,-0.1,,,,,,,,,,,METAR,372.0
CXMI 300900Z AUTO 09004KT 04/02 RMK AO1 SLP218 T00360023 56007,CXMI,2023-04-30T09:00:00Z,44.6,-63.53,3.6,2.3,90,4,,,,1021.8,,TRUE,TRUE,,,,,,,,,,,,,,,,-0.7,,,,,,,,,,,METAR,15.0
CXMG 300900Z AUTO 08005KT 06/M03 RMK AO1 T00641029,CXMG,2023-04-30T09:00:00Z,56.97,-117.45,6.4,-2.9,80,5,,,,,,TRUE,TRUE,,,,,,,,,,,,,,,,,,,,,,,,,,,METAR,467.0
CXMD 300900Z AUTO 34009KT 02/M00 RMK AO1 SOG 01 3002 SLP184 T00211002,CXMD,2023-04-30T09:00:00Z,49.18,-98.08,2.1,-0.2,340,9,,,,1018.4,,TRUE,TRUE,,,,,,,,,,,,,,,,,,,,,,,,,,,METAR,297.0
CXLL 300900Z AUTO M00/M03 RMK AO1 SOG 09 3002 SLP124 T10031031,CXLL,2023-04-30T09:00:00Z,61.12,-122.85,-0.3,-3.1,,,,,,1012.4,,TRUE,TRUE,,,,,,,,,,,,,,,,,,,,,,,,,,,METAR,180.0
CXLB 300900Z AUTO 12009KT 05/03 RMK AO1 SLP218 T00530034 55003,CXLB,2023-04-30T09:00:00Z,44.37,-64.3,5.3,3.4,120,9,,,,1021.8,,TRUE,TRUE,,,,,,,,,,,,,,,,-0.3,,,,,,,,,,,METAR,4.0
CXKT 300900Z AUTO 13001KT 02/01 RMK AO1 SLP218 T00180005 52001,CXKT,2023-04-30T09:00:00Z,45.07,-64.48,1.8,0.5,130,1,,,,1021.8,,TRUE,TRUE,,,,,,,,,,,,,,,,0.1,,,,,,,,,,,METAR,48.0
CXKM 300900Z AUTO 13009KT 03/M07 RMK AO1 T00291067,CXKM,2023-04-30T09:00:00Z,52.83,-111.87,2.9,-6.7,130,9,,,,,,TRUE,TRUE,,,,,,,,,,,,,,,,,,,,,,,,,,,METAR,679.0
CXKI 300900Z AUTO 13006KT 07/06 RMK AO1 3PAST HR 8012 SLP986 P0001 T00700064 50024,CXKI,2023-04-30T09:00:00Z,48.13,-80.0,7.0,6.4,130,6,,,,998.6,,TRUE,TRUE,,,,,,,,,,,,,,,,2.4,,,,,0.01,,,,,,METAR,328.0
CXKE 300900Z AUTO 08002KT 08/07 RMK AO1 SLP050 T00820069 57016,CXKE,2023-04-30T09:00:00Z,45.0,-75.63,8.2,6.9,80,2,,,,1005.0,,TRUE,TRUE,,,,,,,,,,,,,,,,-1.6,,,,,,,,,,,METAR,99.0
CXKA 300900Z AUTO 08005KT 05/05 RMK AO1 4PAST HR 6017 SLP993 P0002 T00450052 50015,CXKA,2023-04-30T09:00:00Z,49.4,-82.45,4.5,5.2,80,5,,,,999.3,,TRUE,TRUE,,,,,,,,,,,,,,,,1.5,,,,,0.02,,,,,,METAR,221.0
CXIB 300900Z AUTO 24002KT M03/M04 RMK AO1 SLP226 T10321041 56010,CXIB,2023-04-30T09:00:00Z,46.67,-60.4,-3.2,-4.1,240,2,,,,1022.6,,TRUE,TRUE,,,,,,,,,,,,,,,,-1.0,,,,,,,,,,,METAR,6.0
CXHR 300900Z AUTO 12017KT 04/M04 RMK AO1 PK WND 12021/0835 T00441042,CXHR,2023-04-30T09:00:00Z,51.18,-112.5,4.4,-4.2,120,17,,,,,,TRUE,TRUE,,,,,,,,,,,,,,,,,,,,,,,,,,,METAR,975.0
CXHP 300900Z AUTO 08008KT 06/M02 RMK AO1 T00561020,CXHP,2023-04-30T09:00:00Z,55.4,-116.48,5.6,-2.0,80,8,,,,,,TRUE,TRUE,,,,,,,,,,,,,,,,,,,,,,,,,,,METAR,601.0
CXHM 300900Z AUTO 07001KT 07/06 RMK AO1 SLP989 T00720064 58021,CXHM,2023-04-30T09:00:00Z,43.28,-79.9,7.2,6.4,70,1,,,,998.9,,TRUE,TRUE,,,,,,,,,,,,,,,,-2.1,,,,,,,,,,,METAR,105.0
CXHD 300900Z AUTO 13009KT 03/M06 RMK AO1 T00251055,CXHD,2023-04-30T09:00:00Z,53.18,-112.25,2.5,-5.5,130,9,,,,,,TRUE,TRUE,,,,,,,,,,,,,,,,,,,,,,,,,,,METAR,688.0
CXHA 300900Z AUTO 16001KT 05/04 RMK AO1 SLP973 T00500035 58024,CXHA,2023-04-30T09:00:00Z,42.03,-82.9,5.0,3.5,160,1,,,,997.3,,TRUE,TRUE,,,,,,,,,,,,,,,,-2.4,,,,,,,,,,,METAR,193.0
CXGH 300900Z AUTO 33009KT 02/M00 RMK AO1 SLP184 T00191002 55000,CXGH,2023-04-30T09:00:00Z,50.63,-97.0,1.9,-0.2,330,9,,,,1018.4,,TRUE,TRUE,,,,,,,,,,,,,,,,0.0,,,,,,,,,,,METAR,217.0
CXFR 300900Z AUTO 09012KT 12/M02 RMK AO1 T01211024,CXFR,2023-04-30T09:00:00Z,56.08,-118.43,12.1,-2.4,90,12,,,,,,TRUE,TRUE,,,,,,,,,,,,,,,,,,,,,,,,,,,METAR,657.0
CXFM 300900Z AUTO 11017KT 07/M01 RMK AO1 PK WND 12025/0808 T00721014,CXFM,2023-04-30T09:00:00Z,49.48,-111.48,7.2,-1.4,110,17,,,,,,TRUE,TRUE,,,,,,,,,,,,,,,,,,,,,,,,,,,METAR,884.0
CXET 300900Z AUTO 13011KT 09/08 RMK AO1 SLP989 T00930084 58023,CXET,2023-04-30T09:00:00Z,44.23,-79.78,9.3,8.4,130,11,,,,998.9,,TRUE,TRUE,,,,,,,,,,,,,,,,-2.3,,,,,,,,,,,METAR,250.0
CXEC 300900Z AUTO 16013G19KT 10/M08 RMK AO1 PK WND 16022/0815 SLP165 T01001075 58004,CXEC,2023-04-30T09:00:00Z,53.57,-113.52,10.0,-7.5,160,13,19,,,1016.5,,TRUE,TRUE,,,,,,,,,,,,,,,,-0.4,,,,,,,,,,,METAR,666.0
CXEA 300900Z AUTO 36004KT 01/M05 RMK AO1 SLP128 T00081047 56006,CXEA,2023-04-30T09:00:00Z,50.63,-93.22,0.8,-4.7,360,4,,,,1012.8,,TRUE,TRUE,,,,,,,,,,,,,,,,-0.6,,,,,,,,,,,METAR,351.0
CXDW 300900Z AUTO 33016KT 02/M00 RMK AO1 SOG 01 3001 PK WND 33019/0820 SLP191 T00201002,CXDW,2023-04-30T09:00:00Z,49.4,-98.32,2.0,-0.2,330,16,,,,1019.1,,TRUE,TRUE,,,,,,,,,,,,,,,,,,,,,,,,,,,METAR,341.0
CXDK 300900Z AUTO M01/M03 RMK AO1 SLP124 T10121026 53005,CXDK,2023-04-30T09:00:00Z,61.27,-124.47,-1.2,-2.6,,,,,,1012.4,,TRUE,TRUE,,,,,,,,,,,,,,,,0.5,,,,,,,,,,,METAR,269.0
CXDI 300900Z AUTO 20003KT 10/09 RMK AO1 1PAST HR 6018 SLP983 P0000 T00990086 50001,CXDI,2023-04-30T09:00:00Z,42.87,-80.55,9.9,8.6,200,3,,,,998.3,,TRUE,TRUE,,,,,,,,,,,,,,,,0.1,,,,,0.005,,,,,,METAR,234.0
CXDE 300900Z AUTO 24003KT M03/M04 RMK AO1 SOG 17 5000 SLP182 T10291036,CXDE,2023-04-30T09:00:00Z,65.22,-123.43,-2.9,-3.6,240,3,,,,1018.2,,TRUE,TRUE,,,,,,,,,,,,,,,,,,,,,,,,,,,METAR,208.0
CXDB 300900Z AUTO 17010KT 07/M02 RMK AO1 T00651021,CXDB,2023-04-30T09:00:00Z,49.05,-112.82,6.5,-2.1,170,10,,,,,,TRUE,TRUE,,,,,,,,,,,,,,,,,,,,,,,,,,,METAR,1311.0
CXCS 300900Z AUTO 10006KT 01/M09 RMK AO1 T00111086,CXCS,2023-04-30T09:00:00Z,51.93,-110.72,1.1,-8.6,100,6,,,,,,TRUE,TRUE,,,,,,,,,,,,,,,,,,,,,,,,,,,METAR,771.0
CXCP 300900Z AUTO 10006KT 04/M02 RMK AO1 T00411019,CXCP,2023-04-30T09:00:00Z,50.28,-113.35,4.1,-1.9,100,6,,,,,,TRUE,TRUE,,,,,,,,,,,,,,,,,,,,,,,,,,,METAR,999.0
CXCK 300900Z AUTO 29002KT 01/M01 RMK AO1 SOG 30 5004 SLP080 T00091012,CXCK,2023-04-30T09:00:00Z,62.12,-136.2,0.9,-1.2,290,2,,,,1008.0,,TRUE,TRUE,,,,,,,,,,,,,,,,,,,,,,,,,,,METAR,526.0
CXCD 300900Z AUTO 02004KT 11/M02 RMK AO1 T01101020,CXCD,2023-04-30T09:00:00Z,56.32,-119.75,11.0,-2.0,20,4,,,,,,TRUE,TRUE,,,,,,,,,,,,,,,,,,,,,,,,,,,METAR,628.0
CXCA 300900Z AUTO 36014G19KT 01/M00 RMK AO1 5PAST HR 6017 PK WND 00021/0835 SLP014 P0002 T00091001 50005,CXCA,2023-04-30T09:00:00Z,49.15,-88.35,0.9,-0.1,360,14,19,,,1001.4,,TRUE,TRUE,,,,,,,,,,,,,,,,0.5,,,,,0.02,,,,,,METAR,228.0
CXBW 300900Z AUTO 10008KT 05/M00 RMK AO1 T00491003,CXBW,2023-04-30T09:00:00Z,49.8,-112.3,4.9,-0.3,100,8,,,,,,TRUE,TRUE,,,,,,,,,,,,,,,,,,,,,,,,,,,METAR,823.0
CXBR 300900Z AUTO 32007KT RMK AO1,CXBR,2023-04-30T09:00:00Z,49.62,-113.82,,,320,7,,,,,,TRUE,TRUE,,,,,,,,,,,,,,,,,,,,,,,,,,,METAR,1137.0
CXBO 300900Z AUTO 07009KT 08/05 RMK AO1 T00840052,CXBO,2023-04-30T09:00:00Z,46.83,-71.2,8.4,5.2,70,9,,,,,,TRUE,TRUE,,,,,,,,,,,,,,,,,,,,,,,,,,,METAR,8.0
CXBK 300900Z AUTO 07004KT M00/M03 RMK AO1 SOG 01 3001 SLP236 T10011029,CXBK,2023-04-30T09:00:00Z,50.2,-104.7,-0.1,-2.9,70,4,,,,1023.6,,TRUE,TRUE,,,,,,,,,,,,,,,,,,,,,,,,,,,METAR,585.0
CXBI 300900Z AUTO 13005KT 08/08 RMK AO1 SLP000 T00820080 56019,CXBI,2023-04-30T09:00:00Z,44.48,-79.55,8.2,8.0,130,5,,,,1000.0,,TRUE,TRUE,,,,,,,,,,,,,,,,-1.9,,,,,,,,,,,METAR,287.0
CXBA 300900Z AUTO 16008KT 03/M10 RMK AO1 T00341095,CXBA,2023-04-30T09:00:00Z,52.12,-110.1,3.4,-9.5,160,8,,,,,,TRUE,TRUE,,,,,,,,,,,,,,,,,,,,,,,,,,,METAR,696.0
CXAT 300900Z AUTO 00000KT M06/M07 RMK AO1 2PAST HR SOG 11 3001 SLP213 P0001 T10611073 50003,CXAT,2023-04-30T09:00:00Z,73.0,-85.03,-6.1,-7.3,0,0,,,,1021.3,,TRUE,TRUE,,,,,,,,,,,,,,,,0.3,,,,,0.01,,,,,,METAR,10.0
CXAK 300900Z AUTO 14015KT 07/M09 RMK AO1 PK WND 15021/0859 T00661088,CXAK,2023-04-30T09:00:00Z,52.35,-112.6,6.6,-8.8,140,15,,,,,,TRUE,TRUE,,,,,,,,,,,,,,,,,,,,,,,,,,,METAR,799.0
CXAJ 300900Z AUTO 11006KT 06/M08 RMK AO1 T00571084,CXAJ,2023-04-30T09:00:00Z,54.78,-112.82,5.7,-8.4,110,6,,,,,,TRUE,TRUE,,,,,,,,,,,,,,,,,,,,,,,,,,,METAR,586.0
CXAG 300900Z AUTO 12009KT 05/M06 RMK AO1 T00491055,CXAG,2023-04-30T09:00:00Z,53.92,-112.28,4.9,-5.5,120,9,,,,,,TRUE,TRUE,,,,,,,,,,,,,,,,,,,,,,,,,,,METAR,632.0
CXAF 300900Z AUTO 13009KT 05/M07 RMK AO1 T00451073,CXAF,2023-04-30T09:00:00Z,54.28,-112.97,4.5,-7.3,130,9,,,,,,TRUE,TRUE,,,,,,,,,,,,,,,,,,,,,,,,,,,METAR,667.0
CWZW 300900Z AUTO 23002KT 06/01 RMK AO1 SOG 04 2005 SLP104 T00590005,CWZW,2023-04-30T09:00:00Z,60.17,-132.73,5.9,0.5,230,2,,,,1010.4,,TRUE,TRUE,,,,,,,,,,,,,,,,,,,,,,,,,,,METAR,683.0
CWZQ 300900Z AUTO 14004KT 01/M03 RMK AO1 SLP228 T00091029 56016,CWZQ,2023-04-30T09:00:00Z,46.53,-61.05,0.9,-2.9,140,4,,,,1022.8,,TRUE,TRUE,,,,,,,,,,,,,,,,-1.6,,,,,,,,,,,METAR,13.0
CWZO 300900Z AUTO 16011KT RMK AO1,CWZO,2023-04-30T09:00:00Z,48.57,-123.25,,,160,11,,,,,,TRUE,TRUE,,,,,,,,,,,,,,,,,,,,,,,,,,,METAR,5.0
CWZN 300900Z AUTO 32013KT 02/M02 RMK AO1 PK WND 32018/0812 SLP217 T00201021 53011,CWZN,2023-04-30T09:00:00Z,47.37,-55.8,2.0,-2.1,320,13,,,,1021.7,,TRUE,TRUE,,,,,,,,,,,,,,,,1.1,,,,,,,,,,,METAR,63.0
CWZL 300900Z AUTO 16009KT 08/08 RMK AO1 SLP096 T00810076 57004,CWZL,2023-04-30T09:00:00Z,53.03,-131.6,8.1,7.6,160,9,,,,1009.6,,TRUE,TRUE,,,,,,,,,,,,,,,,-0.4,,,,,,,,,,,METAR,17.0
CWZG 300900Z AUTO 19001KT 02/M03 RMK AO1 SLP156 T00191027 56002,CWZG,2023-04-30T09:00:00Z,51.2,-115.55,1.9,-2.7,190,1,,,,1015.6,,TRUE,TRUE,,,,,,,,,,,,,,,,-0.2,,,,,,,,,,,METAR,1402.0
CWZA 300900Z AUTO 04015G22KT 16/06 RMK AO1 PK WND 04023/0849 SLP108 T01620055 58006,CWZA,2023-04-30T09:00:00Z,49.25,-121.77,16.2,5.5,40,15,22,,,1010.8,,TRUE,TRUE,,,,,,,,,,,,,,,,-0.6,,,,,,,,,,,METAR,18.0
CWYY 300900Z AUTO 36001KT 11/07 RMK AO1 SLP096 T01100067 50000,CWYY,2023-04-30T09:00:00Z,49.03,-119.43,11.0,6.7,360,1,,,,1009.6,,TRUE,TRUE,,,,,,,,,,,,,,,,0.0,,,,,,,,,,,METAR,284.0
CWYL 300900Z AUTO 08003KT M01/M03 RMK AO1 SOG 41 7003 SLP173 T10081026,CWYL,2023-04-30T09:00:00Z,51.45,-116.33,-0.8,-2.6,80,3,,,,1017.3,,TRUE,TRUE,,,,,,,,,,,,,,,,,,,,,,,,,,,METAR,1602.0
CWYJ 300900Z AUTO 24004KT 11/06 RMK AO1 SLP107 T01100055 58006,CWYJ,2023-04-30T09:00:00Z,48.45,-123.3,11.0,5.5,240,4,,,,1010.7,,TRUE,TRUE,,,,,,,,,,,,,,,,-0.6,,,,,,,,,,,METAR,59.0
CWXL 300900Z AUTO 14018KT 09/M02 RMK AO1 PK WND 15024/0824 SLP167 T00871024 56008,CWXL,2023-04-30T09:00:00Z,49.73,-111.45,8.7,-2.4,140,18,,,,1016.7,,TRUE,TRUE,,,,,,,,,,,,,,,,-0.8,,,,,,,,,,,METAR,815.0
CWXI 300900Z AUTO 19008KT 02/01 RMK AO1 SLP217 T00170005 53009,CWXI,2023-04-30T09:00:00Z,51.02,-57.1,1.7,0.5,190,8,,,,1021.7,,TRUE,TRUE,,,,,,,,,,,,,,,,0.9,,,,,,,,,,,METAR,15.0
CWXC 300900Z AUTO 17005KT 08/01 RMK AO1 SLP141 T00820011 55001,CWXC,2023-04-30T09:00:00Z,48.88,-71.03,8.2,1.1,170,5,,,,1014.1,,TRUE,TRUE,,,,,,,,,,,,,,,,-0.1,,,,,,,,,,,METAR,306.0
CWXA 300900Z AUTO 00026KT 08/M02 RMK AO1 SLP157 T00841017 58008,CWXA,2023-04-30T09:00:00Z,51.07,-115.07,8.4,-1.7,0,26,,,,1015.7,,TRUE,TRUE,,,,,,,,,,,,,,,,-0.8,,,,,,,,,,,METAR,1303.0
CWWZ 300900Z AUTO 15010KT 11/09 RMK AO1 SLP989 T01120086 58022,CWWZ,2023-04-30T09:00:00Z,43.25,-79.22,11.2,8.6,150,10,,,,998.9,,TRUE,TRUE,,,,,,,,,,,,,,,,-2.2,,,,,,,,,,,METAR,75.0
CWWS 300900Z AUTO 01012KT M01/M03 RMK AO1 SOG 20 3003 SLP205 T10071028,CWWS,2023-04-30T09:00:00Z,52.82,-97.62,-0.7,-2.8,10,12,,,,1020.5,,TRUE,TRUE,,,,,,,,,,,,,,,,,,,,,,,,,,,METAR,220.0
CWWL 300900Z AUTO 13013KT 09/07 RMK AO1 PK WND 13020/0815 SLP090 T00880070 58005,CWWL,2023-04-30T09:00:00Z,53.5,-130.63,8.8,7.0,130,13,,,,1009.0,,TRUE,TRUE,,,,,,,,,,,,,,,,-0.5,,,,,,,,,,,METAR,8.0
CWWK 300900Z AUTO 12001KT 12/09 RMK AO1 SLP117 T01220087 56002,CWWK,2023-04-30T09:00:00Z,49.02,-122.78,12.2,8.7,120,1,,,,1011.7,,TRUE,TRUE,,,,,,,,,,,,,,,,-0.2,,,,,,,,,,,METAR,10.0
CWWF 300900Z AUTO 12002KT M01/M03 RMK AO1 SOG 01 3005 SLP234 T10091032,CWWF,2023-04-30T09:00:00Z,49.7,-103.8,-0.9,-3.2,120,2,,,,1023.4,,TRUE,TRUE,,,,,,,,,,,,,,,,,,,,,,,,,,,METAR,583.0
CWWE 300900Z AUTO 09008KT 04/03 RMK AO1 SLP216 T00400030 56007,CWWE,2023-04-30T09:00:00Z,43.98,-64.67,4.0,3.0,90,8,,,,1021.6,,TRUE,TRUE,,,,,,,,,,,,,,,,-0.7,,,,,,,,,,,METAR,4.0
CWWB 300900Z AUTO 02005KT 08/08 RMK AO1 SLP989 T00770077 58020,CWWB,2023-04-30T09:00:00Z,43.3,-79.78,7.7,7.7,20,5,,,,998.9,,TRUE,TRUE,,,,,,,,,,,,,,,,-2.0,,,,,,,,,,,METAR,77.0
CWWA 300900Z AUTO 04001KT 14/08 RMK AO1 SLP107 T01370075 57005,CWWA,2023-04-30T09:00:00Z,49.35,-123.18,13.7,7.5,40,1,,,,1010.7,,TRUE,TRUE,,,,,,,,,,,,,,,,-0.5,,,,,,,,,,,METAR,172.0
CWVU 300900Z AUTO 09015KT 05/02 RMK AO1 PK WND 08018/0856 SLP192 T00470018 56014,CWVU,2023-04-30T09:00:00Z,44.28,-66.33,4.7,1.8,90,15,,,,1019.2,,TRUE,TRUE,,,,,,,,,,,,,,,,-1.4,,,,,,,,,,,METAR,4.0
CWVT 300900Z AUTO 18002KT M01/M07 RMK AO1 SLP250 T10141071 56005,CWVT,2023-04-30T09:00:00Z,55.83,-108.42,-1.4,-7.1,180,2,,,,1025.0,,TRUE,TRUE,,,,,,,,,,,,,,,,-0.5,,,,,,,,,,,METAR,431.0
CWVQ 300900Z AUTO 07007KT 07/06 RMK AO1 8015 SLP085 T00650060 50020,CWVQ,2023-04-30T09:00:00Z,45.42,-73.92,6.5,6.0,70,7,,,,1008.5,,TRUE,TRUE,,,,,,,,,,,,,,,,2.0,,,,,,,,,,,METAR,38.0
CWVP 300900Z AUTO 13008KT 03/M08 RMK AO1 SLP194 T00281078 58007,CWVP,2023-04-30T09:00:00Z,49.63,-109.52,2.8,-7.8,130,8,,,,1019.4,,TRUE,TRUE,,,,,,,,,,,,,,,,-0.7,,,,,,,,,,,METAR,1269.0
CWVN 300900Z AUTO 05002KT 02/M05 RMK AO1 SLP221 T00151052 53002,CWVN,2023-04-30T09:00:00Z,49.07,-107.58,1.5,-5.2,50,2,,,,1022.1,,TRUE,TRUE,,,,,,,,,,,,,,,,0.2,,,,,,,,,,,METAR,792.0
CWVI 300900Z AUTO 15006KT 05/M07 RMK AO1 SLP192 T00471070 56003,CWVI,2023-04-30T09:00:00Z,53.52,-112.1,4.7,-7.0,150,6,,,,1019.2,,TRUE,TRUE,,,,,,,,,,,,,,,,-0.3,,,,,,,,,,,METAR,640.0
CWVF 300900Z AUTO 12014KT 12/10 RMK AO1 T01240095,CWVF,2023-04-30T09:00:00Z,49.1,-123.3,12.4,9.5,120,14,,,,,,TRUE,TRUE,,,,,,,,,,,,,,,,,,,,,,,,,,,METAR,13.0
CWUX 300900Z AUTO 08007KT 08/02 RMK AO1 SLP150 T00780019 55003,CWUX,2023-04-30T09:00:00Z,48.3,-70.93,7.8,1.9,80,7,,,,1015.0,,TRUE,TRUE,,,,,,,,,,,,,,,,-0.3,,,,,,,,,,,METAR,150.0
CWUW 300900Z AUTO 13012KT ////SM ////// M06/M07 A3005,CWUW,2023-04-30T09:00:00Z,68.62,-71.12,-6.0,-7.0,130,12,,,30.050198,,,TRUE,,,,,,,,,,,,,,,,,,,,,,,,,,,,SPECI,173.0
CWUS 300900Z AUTO 26007KT 16/M00 RMK AO1 SLP100 T01601001 50001,CWUS,2023-04-30T09:00:00Z,49.57,-119.65,16.0,-0.1,260,7,,,,1010.0,,TRUE,TRUE,,,,,,,,,,,,,,,,0.1,,,,,,,,,,,METAR,455.0
CWTY 300900Z AUTO 06009KT 07/06 RMK AO1 SLP128 T00730064 56012,CWTY,2023-04-30T09:00:00Z,46.35,-72.52,7.3,6.4,60,9,,,,1012.8,,TRUE,TRUE,,,,,,,,,,,,,,,,-1.2,,,,,,,,,,,METAR,8.0
CWTT 300900Z AUTO 10003KT 06/05 RMK AO1 T00550049,CWTT,2023-04-30T09:00:00Z,45.27,-72.17,5.5,4.9,100,3,,,,,,TRUE,TRUE,,,,,,,,,,,,,,,,,,,,,,,,,,,METAR,210.0
CWTN 300900Z AUTO 07003KT 09/04 RMK AO1 SLP159 T00900036 56013,CWTN,2023-04-30T09:00:00Z,47.07,-70.78,9.0,3.6,70,3,,,,1015.9,,TRUE,TRUE,,,,,,,,,,,,,,,,-1.3,,,,,,,,,,,METAR,5.0
CWTG 300900Z AUTO 03010G15KT 04/M00 RMK AO1 PK WND 03021/0844 SLP200 T00421001 55003,CWTG,2023-04-30T09:00:00Z,49.32,-67.37,4.2,-0.1,30,10,15,,,1020.0,,TRUE,TRUE,,,,,,,,,,,,,,,,-0.3,,,,,,,,,,,METAR,6.0
CWTA 300900Z AUTO 05002KT 07/06 RMK AO1 5PAST HR 8014 SLP091 P0006 T00730061 50042,CWTA,2023-04-30T09:00:00Z,45.5,-73.58,7.3,6.1,50,2,,,,1009.1,,TRUE,TRUE,,,,,,,,,,,,,,,,4.2,,,,,0.06,,,,,,METAR,71.0
CWST 300900Z AUTO 03005KT 06/05 RMK AO1 SLP159 T00630049 58004,CWST,2023-04-30T09:00:00Z,47.35,-70.02,6.3,4.9,30,5,,,,1015.9,,TRUE,TRUE,,,,,,,,,,,,,,,,-0.4,,,,,,,,,,,METAR,31.0
CWSS 300900Z AUTO 11004KT 06/02 RMK AO1 SLP201 T00550017 57006,CWSS,2023-04-30T09:00:00Z,45.2,-67.25,5.5,1.7,110,4,,,,1020.1,,TRUE,TRUE,,,,,,,,,,,,,,,,-0.6,,,,,,,,,,,METAR,27.0
CWSR 300900Z AUTO 16003KT M02/M05 RMK AO1 SLP240 T10191053 55002,CWSR,2023-04-30T09:00:00Z,53.37,-107.55,-1.9,-5.3,160,3,,,,1024.0,,TRUE,TRUE,,,,,,,,,,,,,,,,-0.2,,,,,,,,,,,METAR,589.0
CWSP 300900Z AUTO 29025G31KT 09/07 RMK AO1 PK WND 30032/0848 SLP117 T00930067 55003,CWSP,2023-04-30T09:00:00Z,48.38,-123.92,9.3,6.7,290,25,31,,,1011.7,,TRUE,TRUE,,,,,,,,,,,,,,,,-0.3,,,,,,,,,,,METAR,2.0
CWSL 300900Z AUTO 20001KT 09/05 RMK AO1 SLP117 T00860050 51008,CWSL,2023-04-30T09:00:00Z,50.7,-119.28,8.6,5.0,200,1,,,,1011.7,,TRUE,TRUE,,,,,,,,,,,,,,,,0.8,,,,,,,,,,,METAR,353.0
CWSK 300900Z AUTO 02002KT 11/07 RMK AO1 SLP113 T01050073 57004,CWSK,2023-04-30T09:00:00Z,49.78,-123.17,10.5,7.3,20,2,,,,1011.3,,TRUE,TRUE,,,,,,,,,,,,,,,,-0.4,,,,,,,,,,,METAR,59.0
CWSG 300900Z AUTO 19003KT 02/02 RMK AO1 SLP199 T00150021 56008,CWSG,2023-04-30T09:00:00Z,49.12,-66.65,1.5,2.1,190,3,,,,1019.9,,TRUE,TRUE,,,,,,,,,,,,,,,,-0.8,,,,,,,,,,,METAR,5.0
CWSF 300900Z AUTO 13002KT 06/02 RMK AO1 PK WND 16019/0826 SLP195 T00640016 56008,CWSF,2023-04-30T09:00:00Z,49.25,-65.32,6.4,1.6,130,2,,,,1019.5,,TRUE,TRUE,,,,,,,,,,,,,,,,-0.8,,,,,,,,,,,METAR,15.0
CWSD 300900Z AUTO 10001KT M00/M01 RMK AO1 SLP223 T10031010 55004,CWSD,2023-04-30T09:00:00Z,46.43,-63.85,-0.3,-1.0,100,1,,,,1022.3,,TRUE,TRUE,,,,,,,,,,,,,,,,-0.4,,,,,,,,,,,METAR,12.0
CWSA 300900Z AUTO 05005KT 9SM 03/M00 A3022 RMK PRESRR CLD MISG SLP234,CWSA,2023-04-30T09:00:00Z,43.93,-60.0,3.0,0.0,50,5,,9.0,30.221457,1023.4,,TRUE,,,,,,,,,,,,,,,,,,,,,,,,,,,,SPECI,4.0
CWRZ 300900Z AUTO 27004KT 03/M01 RMK AO1 SLP221 T00271012 56011,CWRZ,2023-04-30T09:00:00Z,48.42,-64.32,2.7,-1.2,270,4,,,,1022.1,,TRUE,TRUE,,,,,,,,,,,,,,,,-1.1,,,,,,,,,,,METAR,16.0
CWRY 300900Z AUTO 16011KT 08/M02 RMK AO1 SOG 08 8006 PK WND 16019/0831 SLP157 T00751016,CWRY,2023-04-30T09:00:00Z,49.12,-112.05,7.5,-1.6,160,11,,,,1015.7,,TRUE,TRUE,,,,,,,,,,,,,,,,,,,,,,,,,,,METAR,1048.0
CWRU 300900Z AUTO 11028G36KT 08/ RMK AO1 PK WND 12036/0858 SLP088 T0084 58010,CWRU,2023-04-30T09:00:00Z,50.12,-127.93,8.4,,110,28,36,,,1008.8,,TRUE,TRUE,,,,,,,,,,,,,,,,-1.0,,,,,,,,,,,METAR,76.0
CWRT 300900Z AUTO 24001KT M01/M02 RMK AO1 SLP168 T10081022 58003,CWRT,2023-04-30T09:00:00Z,49.62,-114.47,-0.8,-2.2,240,1,,,,1016.8,,TRUE,TRUE,,,,,,,,,,,,,,,,-0.3,,,,,,,,,,,METAR,1311.0
CWRN 300900Z AUTO 17004KT 02/01 RMK AO1 SLP228 T00160011 56016,CWRN,2023-04-30T09:00:00Z,45.35,-60.98,1.6,1.1,170,4,,,,1022.8,,TRUE,TRUE,,,,,,,,,,,,,,,,-1.6,,,,,,,,,,,METAR,8.0
CWRM 300900Z AUTO 13007KT 07/M02 RMK AO1 SLP119 T00741018 56009,CWRM,2023-04-30T09:00:00Z,52.42,-114.92,7.4,-1.8,130,7,,,,1011.9,,TRUE,TRUE,,,,,,,,,,,,,,,,-0.9,,,,,,,,,,,METAR,986.0
CWRK 300900Z AUTO 12003KT 08/08 RMK AO1 SLP022 T00800080 58011,CWRK,2023-04-30T09:00:00Z,45.07,-77.87,8.0,8.0,120,3,,,,1002.2,,TRUE,TRUE,,,,,,,,,,,,,,,,-1.1,,,,,,,,,,,METAR,328.0
CWRJ 300900Z AUTO 10005KT M04/M10 RMK AO1 SLP231 T10371097 56003,CWRJ,2023-04-30T09:00:00Z,51.57,-107.92,-3.7,-9.7,100,5,,,,1023.1,,TRUE,TRUE,,,,,,,,,,,,,,,,-0.3,,,,,,,,,,,METAR,586.0
CWRA 300900Z AUTO 01/M04 RMK AO1 SLP168 T00121036 53011,CWRA,2023-04-30T09:00:00Z,46.65,-53.07,1.2,-3.6,,,,,,1016.8,,TRUE,TRUE,,,,,,,,,,,,,,,,1.1,,,,,,,,,,,METAR,4.0
CWQV 300900Z AUTO 07008KT 06/ RMK AO1 T0062,CWQV,2023-04-30T09:00:00Z,48.27,-70.12,6.2,,70,8,,,,,,TRUE,TRUE,,,,,,,,,,,,,,,,,,,,,,,,,,,METAR,4.0
CWQS 300900Z AUTO 30003KT 08/06 RMK AO1 SLP081 T00770062 54000,CWQS,2023-04-30T09:00:00Z,53.32,-132.77,7.7,6.2,300,3,,,,1008.1,,TRUE,TRUE,,,,,,,,,,,,,,,,,,,,,,,,,,,METAR,10.0
CWQR 300900Z AUTO 04009KT 01/M01 RMK AO1 T00121010,CWQR,2023-04-30T09:00:00Z,50.22,-64.22,1.2,-1.0,40,9,,,,,,TRUE,TRUE,,,,,,,,,,,,,,,,,,,,,,,,,,,METAR,9.0
CWQP 300900Z AUTO 13017KT 07/06 RMK AO1 PK WND 14019/0801 SLP027 T00740055 57015,CWQP,2023-04-30T09:00:00Z,43.83,-77.15,7.4,5.5,130,17,,,,1002.7,,TRUE,TRUE,,,,,,,,,,,,,,,,-1.5,,,,,,,,,,,METAR,77.0
CWQO 300900Z AUTO 09003KT 06/05 RMK AO1 T00570053,CWQO,2023-04-30T09:00:00Z,48.42,-68.9,5.7,5.3,90,3,,,,,,TRUE,TRUE,,,,,,,,,,,,,,,,,,,,,,,,,,,METAR,7.0
CWQK 300900Z AUTO 27028KT 09/07 RMK AO1 PK WND 27032/0855 SLP109 T00890070 58001,CWQK,2023-04-30T09:00:00Z,48.3,-123.53,8.9,7.0,270,28,,,,1010.9,,TRUE,TRUE,,,,,,,,,,,,,,,,-0.1,,,,,,,,,,,METAR,5.0
CWQH 300900Z AUTO 14012G19KT 07/04 RMK AO1 1PAST HR 5012 PK WND 15019/0856 SLP121 P0000 T00650035 50010,CWQH,2023-04-30T09:00:00Z,45.37,-71.82,6.5,3.5,140,12,19,,,1012.1,,TRUE,TRUE,,,,,,,,,,,,,,,,1.0,,,,,0.005,,,,,,METAR,181.0
CWPZ 300900Z AUTO 32002KT 02/M01 RMK AO1 SLP097 T00221011 58006,CWPZ,2023-04-30T09:00:00Z,54.38,-125.97,2.2,-1.1,320,2,,,,1009.7,,TRUE,TRUE,,,,,,,,,,,,,,,,-0.6,,,,,,,,,,,METAR,715.0
CWPR 300900Z AUTO 34002KT 07/M01 RMK AO1 SLP121 T00671007 51003,CWPR,2023-04-30T09:00:00Z,49.47,-120.52,6.7,-0.7,340,2,,,,1012.1,,TRUE,TRUE,,,,,,,,,,,,,,,,0.3,,,,,,,,,,,METAR,703.0
CWPO 300900Z AUTO 34006KT M00/M00 RMK AO1 SOG 06 5001 SLP205 T10041004,CWPO,2023-04-30T09:00:00Z,49.2,-98.9,-0.4,-0.4,340,6,,,,1020.5,,TRUE,TRUE,,,,,,,,,,,,,,,,,,,,,,,,,,,METAR,471.0
CWPK 300900Z AUTO 13005KT 05/03 RMK AO1 2PAST HR 6012 SLP088 P0001 T00450032 50002,CWPK,2023-04-30T09:00:00Z,47.92,-74.62,4.5,3.2,130,5,,,,1008.8,,TRUE,TRUE,,,,,,,,,,,,,,,,0.2,,,,,0.01,,,,,,METAR,443.0
CWPE 300900Z AUTO 12008KT 06/02 RMK AO1 SLP205 T00640023 56007,CWPE,2023-04-30T09:00:00Z,45.07,-66.47,6.4,2.3,120,8,,,,1020.5,,TRUE,TRUE,,,,,,,,,,,,,,,,-0.7,,,,,,,,,,,METAR,9.0
CWPD 300900Z AUTO 03004KT 03/01 RMK AO1 SLP115 T00300005 56010,CWPD,2023-04-30T09:00:00Z,47.57,-71.22,3.0,0.5,30,4,,,,1011.5,,TRUE,TRUE,,,,,,,,,,,,,,,,-1.0,,,,,,,,,,,METAR,795.0
CWOY 300900Z AUTO 16004KT M04/M06 RMK AO1 SLP251 T10371062 51003,CWOY,2023-04-30T09:00:00Z,51.77,-104.2,-3.7,-6.2,160,4,,,,1025.1,,TRUE,TRUE,,,,,,,,,,,,,,,,0.3,,,,,,,,,,,METAR,557.0
CWOE 300900Z AUTO 04014KT 05/M02 RMK AO1 PK WND 03017/0800 SLP184 T00531018 58004,CWOE,2023-04-30T09:00:00Z,49.12,-110.47,5.3,-1.8,40,14,,,,1018.4,,TRUE,TRUE,,,,,,,,,,,,,,,,-0.4,,,,,,,,,,,METAR,931.0
CWOD 300900Z AUTO 12007KT 07/04 RMK AO1 SLP127 T00660041 55003,CWOD,2023-04-30T09:00:00Z,48.85,-72.55,6.6,4.1,120,7,,,,1012.7,,TRUE,TRUE,,,,,,,,,,,,,,,,-0.3,,,,,,,,,,,METAR,150.0
CWOC 300900Z AUTO 07005KT 03/01 RMK AO1 SLP217 T00260005 56009,CWOC,2023-04-30T09:00:00Z,48.02,-65.32,2.6,0.5,70,5,,,,1021.7,,TRUE,TRUE,,,,,,,,,,,,,,,,-0.9,,,,,,,,,,,METAR,42.0
CWOB 300900Z AUTO 03004KT ////SM ////// M05/M05 A3008,CWOB,2023-04-30T09:00:00Z,63.33,-64.15,-5.0,-5.0,30,4,,,30.079725,,,TRUE,,,,,,,,,,,,,,,,,,,,,,,,,,,,SPECI,369.0
CWNZ 300900Z AUTO 01004KT 03/03 RMK AO1 1PAST HR 6015 SLP999 P0000 T00280027 50003,CWNZ,2023-04-30T09:00:00Z,49.75,-84.17,2.8,2.7,10,4,,,,999.9,,TRUE,TRUE,,,,,,,,,,,,,,,,0.3,,,,,0.005,,,,,,METAR,261.0
CWNQ 300900Z AUTO 18007KT 07/06 RMK AO1 7PAST HR 6013 SLP119 P0003 T00700061 50012,CWNQ,2023-04-30T09:00:00Z,46.22,-72.65,7.0,6.1,180,7,,,,1011.9,,TRUE,TRUE,,,,,,,,,,,,,,,,1.2,,,,,0.03,,,,,,METAR,9.0
CWNP 300900Z AUTO 05001KT 06/04 RMK AO1 SLP142 T00600035 53004,CWNP,2023-04-30T09:00:00Z,50.27,-117.82,6.0,3.5,50,1,,,,1014.2,,TRUE,TRUE,,,,,,,,,,,,,,,,0.4,,,,,,,,,,,METAR,517.0
CWNK 300900Z AUTO 34008KT 02/00 RMK AO1 SLP189 T00200000 53003,CWNK,2023-04-30T09:00:00Z,49.5,-98.03,2.0,0.0,340,8,,,,1018.9,,TRUE,TRUE,,,,,,,,,,,,,,,,0.3,,,,,,,,,,,METAR,271.0
CWNH 300900Z AUTO 15001KT 07/03 RMK AO1 SLP169 T00680027 58003,CWNH,2023-04-30T09:00:00Z,47.8,-69.53,6.8,2.7,150,1,,,,1016.9,,TRUE,TRUE,,,,,,,,,,,,,,,,-0.3,,,,,,,,,,,METAR,147.0
CWNE 300900Z AUTO 12010KT 04/01 RMK AO1 SLP219 T00390011 55008,CWNE,2023-04-30T09:00:00Z,47.07,-64.0,3.9,1.1,120,10,,,,1021.9,,TRUE,TRUE,,,,,,,,,,,,,,,,-0.8,,,,,,,,,,,METAR,5.0
CWND 300900Z AUTO 07008KT M11/M12 RMK AO1 SLP210 T11051120 55001,CWND,2023-04-30T09:00:00Z,69.63,-135.43,-10.5,-12.0,70,8,,,,1021.0,,TRUE,TRUE,,,,,,,,,,,,,,,,-0.1,,,,,,,,,,,METAR,14.0
CWNC 300900Z AUTO 10006KT 09/08 RMK AO1 SLP012 T00880083 58019,CWNC,2023-04-30T09:00:00Z,43.95,-78.17,8.8,8.3,100,6,,,,1001.2,,TRUE,TRUE,,,,,,,,,,,,,,,,-1.9,,,,,,,,,,,METAR,71.0
CWMT 300900Z AUTO 08005KT 02/M03 RMK AO1 SLP148 T00161034 57011,CWMT,2023-04-30T09:00:00Z,63.13,-117.25,1.6,-3.4,80,5,,,,1014.8,,TRUE,TRUE,,,,,,,,,,,,,,,,-1.1,,,,,,,,,,,METAR,274.0
CWMQ 300900Z AUTO 15008G17KT 08/M07 RMK AO1 PK WND 16017/0858 SLP192 T00781073 58008,CWMQ,2023-04-30T09:00:00Z,49.9,-109.47,7.8,-7.3,150,8,17,,,1019.2,,TRUE,TRUE,,,,,,,,,,,,,,,,-0.8,,,,,,,,,,,METAR,767.0
CWMM 300900Z AUTO 07001KT 12/09 RMK AO1 SLP114 T01190092 57003,CWMM,2023-04-30T09:00:00Z,49.22,-122.68,11.9,9.2,70,1,,,,1011.4,,TRUE,TRUE,,,,,,,,,,,,,,,,-0.3,,,,,,,,,,,METAR,2.0
CWMJ 300900Z AUTO 12007KT 07/06 RMK AO1 1PAST HR 6012 SLP058 P0000 T00710064 50007,CWMJ,2023-04-30T09:00:00Z,46.27,-76.0,7.1,6.4,120,7,,,,1005.8,,TRUE,TRUE,,,,,,,,,,,,,,,,0.7,,,,,0.005,,,,,,METAR,198.0
CWME 300900Z AUTO 21008KT 12/08 RMK AO1 SLP098 T01160075 55000,CWME,2023-04-30T09:00:00Z,52.18,-127.47,11.6,7.5,210,8,,,,1009.8,,TRUE,TRUE,,,,,,,,,,,,,,,,0.0,,,,,,,,,,,METAR,23.0
CWLY 300900Z AUTO 16005KT 080V190 9SM CLR 16/03 A2984 RMK SLP105 DENSITY ALT 1100FT,CWLY,2023-04-30T09:00:00Z,50.22,-121.58,16.0,3.0,160,5,,9.0,29.840551,1010.5,,TRUE,,,,,,,,CLR,,,,,,,,VFR,,,,,,,,,,,,SPECI,228.0
CWLX 300900Z AUTO ///// ////SM ////// M04/M04 A3011,CWLX,2023-04-30T09:00:00Z,68.9,-75.15,-4.0,-4.0,,,,,30.109253,,,TRUE,,,,,,,,,,,,,,,,,,,,,,,,,,,,SPECI,129.0
CWLS 300900Z AUTO 17007KT 08/07 RMK AO1 SLP978 T00830074 55018,CWLS,2023-04-30T09:00:00Z,43.97,-80.75,8.3,7.4,170,7,,,,997.8,,TRUE,TRUE,,,,,,,,,,,,,,,,-1.8,,,,,,,,,,,METAR,413.0
CWLP 300900Z AUTO 31011KT 10/08 RMK AO1 SLP095 T00970081 58003,CWLP,2023-04-30T09:00:00Z,50.93,-127.63,9.7,8.1,310,11,,,,1009.5,,TRUE,TRUE,,,,,,,,,,,,,,,,-0.3,,,,,,,,,,,METAR,15.0
CWLM 300900Z AUTO 24011KT 10/06 RMK AO1 SLP107 T01020055 58005,CWLM,2023-04-30T09:00:00Z,48.42,-123.32,10.2,5.5,240,11,,,,1010.7,,TRUE,TRUE,,,,,,,,,,,,,,,,-0.5,,,,,,,,,,,METAR,62.0
CWLE 300900Z AUTO 12007KT 01/M06 RMK AO1 SLP233 T00071058 58004,CWLE,2023-04-30T09:00:00Z,50.95,-107.15,0.7,-5.8,120,7,,,,1023.3,,TRUE,TRUE,,,,,,,,,,,,,,,,-0.4,,,,,,,,,,,METAR,666.0
CWLC 300900Z AUTO 34009KT 09/07 RMK AO1 T00860072,CWLC,2023-04-30T09:00:00Z,54.3,-130.62,8.6,7.2,340,9,,,,,,TRUE,TRUE,,,,,,,,,,,,,,,,,,,,,,,,,,,METAR,27.0
CWLB 300900Z AUTO 15009G17KT 08/M10 RMK AO1 PK WND 17017/0859 SLP201 T00821103 56001,CWLB,2023-04-30T09:00:00Z,54.77,-112.02,8.2,-10.3,150,9,17,,,1020.1,,TRUE,TRUE,,,,,,,,,,,,,,,,-0.1,,,,,,,,,,,METAR,561.0
CWKX 300900Z AUTO 02002KT 05/M00 RMK AO1 SLP120 T00491001 56002,CWKX,2023-04-30T09:00:00Z,58.43,-130.02,4.9,-0.1,20,2,,,,1012.0,,TRUE,TRUE,,,,,,,,,,,,,,,,-0.2,,,,,,,,,,,METAR,807.0
CWKO 300900Z AUTO 19003KT 01/M06 RMK AO1 SLP233 T00101055 51001,CWKO,2023-04-30T09:00:00Z,49.17,-105.97,1.0,-5.5,190,3,,,,1023.3,,TRUE,TRUE,,,,,,,,,,,,,,,,0.1,,,,,,,,,,,METAR,914.0
CWKH 300900Z AUTO 13/04 RMK AO1 SLP098 T01290035 58005,CWKH,2023-04-30T09:00:00Z,48.57,-123.55,12.9,3.5,,,,,,1009.8,,TRUE,TRUE,,,,,,,,,,,,,,,,-0.5,,,,,,,,,,,METAR,327.0
CWKG 300900Z AUTO 09004KT 03/02 RMK AO1 SLP211 T00290017 55008,CWKG,2023-04-30T09:00:00Z,44.43,-65.2,2.9,1.7,90,4,,,,1021.1,,TRUE,TRUE,,,,,,,,,,,,,,,,-0.8,,,,,,,,,,,METAR,154.0
CWKD 300900Z AUTO 04/M00 RMK AO1 SLP159 T00431003 55005,CWKD,2023-04-30T09:00:00Z,50.73,-71.02,4.3,-0.3,,,,,,1015.9,,TRUE,TRUE,,,,,,,,,,,,,,,,-0.5,,,,,,,,,,,METAR,496.0
CWJX 300900Z AUTO 10008KT 01/M08 RMK AO1 SOG 01 8004 SLP209 T00051077,CWJX,2023-04-30T09:00:00Z,50.88,-109.5,0.5,-7.7,100,8,,,,1020.9,,TRUE,TRUE,,,,,,,,,,,,,,,,,,,,,,,,,,,METAR,671.0
CWJW 300900Z AUTO 15003KT 01/M03 RMK AO1 SLP144 T00051034 53002,CWJW,2023-04-30T09:00:00Z,52.93,-118.03,0.5,-3.4,150,3,,,,1014.4,,TRUE,TRUE,,,,,,,,,,,,,,,,0.2,,,,,,,,,,,METAR,1022.0
CWJV 300900Z AUTO 10009KT 13/03 RMK AO1 SLP107 T01310030 52004,CWJV,2023-04-30T09:00:00Z,50.22,-119.18,13.1,3.0,100,9,,,,1010.7,,TRUE,TRUE,,,,,,,,,,,,,,,,0.4,,,,,,,,,,,METAR,487.0
CWJU 300900Z AUTO 12003KT 07/07 RMK AO1 SLP090 T00730066 57007,CWJU,2023-04-30T09:00:00Z,54.25,-133.07,7.3,6.6,120,3,,,,1009.0,,TRUE,TRUE,,,,,,,,,,,,,,,,-0.7,,,,,,,,,,,METAR,47.0
CWJT 300900Z AUTO 12004KT 07/06 RMK AO1 8013 SLP074 T00710062 50020,CWJT,2023-04-30T09:00:00Z,46.07,-74.57,7.1,6.2,120,4,,,,1007.4,,TRUE,TRUE,,,,,,,,,,,,,,,,2.0,,,,,,,,,,,METAR,236.0
CWJR 300900Z AUTO 08001KT 12/02 RMK AO1 SLP134 T01200018 50001,CWJR,2023-04-30T09:00:00Z,49.03,-116.5,12.0,1.8,80,1,,,,1013.4,,TRUE,TRUE,,,,,,,,,,,,,,,,0.1,,,,,,,,,,,METAR,642.0
CWJO 300900Z AUTO 00000KT 08/02 RMK AO1 SLP142 T00800019 55002,CWJO,2023-04-30T09:00:00Z,48.43,-71.15,8.0,1.9,0,0,,,,1014.2,,TRUE,TRUE,,,,,,,,,,,,,,,,-0.2,,,,,,,,,,,METAR,113.0
CWJI 300900Z AUTO 14003KT 01/M06 RMK AO1 SLP230 T00051057 58001,CWJI,2023-04-30T09:00:00Z,49.72,-105.93,0.5,-5.7,140,3,,,,1023.0,,TRUE,TRUE,,,,,,,,,,,,,,,,-0.1,,,,,,,,,,,METAR,724.0
CWJH 300900Z AUTO 23002KT M04/M05 RMK AO1 SOG 02 5004 SLP258 T10401049,CWJH,2023-04-30T09:00:00Z,56.32,-103.27,-4.0,-4.9,230,2,,,,1025.8,,TRUE,TRUE,,,,,,,,,,,,,,,,,,,,,,,,,,,METAR,345.0
CWJD 300900Z AUTO 36004KT 00/M01 RMK AO1 SLP221 T00001010 53001,CWJD,2023-04-30T09:00:00Z,53.18,-99.27,0.0,-1.0,360,4,,,,1022.1,,TRUE,TRUE,,,,,,,,,,,,,,,,0.1,,,,,,,,,,,METAR,222.0
CWJC 300900Z AUTO 35011KT M02/M04 RMK AO1 SOG 01 3001 PK WND 34017/0828 SLP255 T10241039,CWJC,2023-04-30T09:00:00Z,61.13,-100.9,-2.4,-3.9,350,11,,,,1025.5,,TRUE,TRUE,,,,,,,,,,,,,,,,,,,,,,,,,,,METAR,340.0
CWJB 300900Z AUTO 07/05 RMK AO1 T00730051,CWJB,2023-04-30T09:00:00Z,46.78,-71.28,7.3,5.1,,,,,,,,TRUE,TRUE,,,,,,,,,,,,,,,,,,,,,,,,,,,METAR,90.0
CWIZ 300900Z AUTO 09002KT 08/06 RMK AO1 2PAST HR M P0001 T00760055 50007,CWIZ,2023-04-30T09:00:00Z,45.28,-73.33,7.6,5.5,90,2,,,,,,TRUE,TRUE,,,,,,,,,,,,,,,,0.7,,,,,0.01,,,,,,METAR,45.0
CWIW 300900Z AUTO 36002KT M02/M04 RMK AO1 SLP247 T10221040 54000,CWIW,2023-04-30T09:00:00Z,51.67,-105.4,-2.2,-4.0,360,2,,,,1024.7,,TRUE,TRUE,,,,,,,,,,,,,,,,,,,,,,,,,,,METAR,524.0
CWIT 300900Z AUTO 14011KT 08/05 RMK AO1 8015 SLP078 T00840053 50001,CWIT,2023-04-30T09:00:00Z,45.17,-73.67,8.4,5.3,140,11,,,,1007.8,,TRUE,TRUE,,,,,,,,,,,,,,,,0.1,,,,,,,,,,,METAR,53.0
CWIS 300900Z AUTO 15004KT 03/01 RMK AO1 SOG 56 6009 SLP157 T00280006 50003,CWIS,2023-04-30T09:00:00Z,47.28,-70.63,2.8,0.6,150,4,,,,1015.7,,TRUE,TRUE,,,,,,,,,,,,,,,,0.3,,,,,,,,,,,METAR,720.0
CWIP 300900Z AUTO 07002KT 02/M01 RMK AO1 T00201013,CWIP,2023-04-30T09:00:00Z,50.17,-66.43,2.0,-1.3,70,2,,,,,,TRUE,TRUE,,,,,,,,,,,,,,,,,,,,,,,,,,,METAR,27.0
CWIK 300900Z AUTO 31001KT M02/M03 RMK AO1 SLP238 T10221034 53001,CWIK,2023-04-30T09:00:00Z,50.37,-102.58,-2.2,-3.4,310,1,,,,1023.8,,TRUE,TRUE,,,,,,,,,,,,,,,,0.1,,,,,,,,,,,METAR,597.0
CWIJ 300900Z AUTO 09007KT M02/M02 RMK AO1 2PAST HR SOG 82 6009 SLP217 P0005 T10201015 50027,CWIJ,2023-04-30T09:00:00Z,65.77,-111.23,-2.0,-1.5,90,7,,,,1021.7,,TRUE,TRUE,,,,,,,,,,,,,,,,2.7,,,,,0.05,,,,,,METAR,490.0
CWII 300900Z AUTO 35009KT M00/M01 RMK AO1 SLP184 T10031012 55000,CWII,2023-04-30T09:00:00Z,50.7,-96.57,-0.3,-1.2,350,9,,,,1018.4,,TRUE,TRUE,,,,,,,,,,,,,,,,0.0,,,,,,,,,,,METAR,216.0
CWIG 300900Z AUTO 13007KT RMK AO1,CWIG,2023-04-30T09:00:00Z,47.07,-70.53,,,130,7,,,,,,TRUE,TRUE,,,,,,,,,,,,,,,,,,,,,,,,,,,METAR,12.0
CWID 300900Z AUTO 12004KT 06/M03 RMK AO1 SLP129 T00571028 56008,CWID,2023-04-30T09:00:00Z,61.32,-117.6,5.7,-2.8,120,4,,,,1012.9,,TRUE,TRUE,,,,,,,,,,,,,,,,-0.8,,,,,,,,,,,METAR,160.0
CWHV 300900Z AUTO 14007KT 05/04 RMK AO1 4PAST HR 6013 SLP143 P0005 T00540043 50019,CWHV,2023-04-30T09:00:00Z,46.2,-70.78,5.4,4.3,140,7,,,,1014.3,,TRUE,TRUE,,,,,,,,,,,,,,,,1.9,,,,,0.05,,,,,,METAR,227.0
CWHT 300900Z AUTO 06001KT 02/M01 RMK AO1 SOG 19 8003 SLP085 T00161013,CWHT,2023-04-30T09:00:00Z,60.77,-137.58,1.6,-1.3,60,1,,,,1008.5,,TRUE,TRUE,,,,,,,,,,,,,,,,,,,,,,,,,,,METAR,601.0
CWHQ 300900Z AUTO 07006KT 07/06 RMK AO1 8PAST HR M P0011 T00670057 50056,CWHQ,2023-04-30T09:00:00Z,46.68,-71.97,6.7,5.7,70,6,,,,,,TRUE,TRUE,,,,,,,,,,,,,,,,5.6,,,,,0.11,,,,,,METAR,56.0
CWHP 300900Z AUTO 25006KT 01/M01 RMK AO1 SLP223 T00071010 58005,CWHP,2023-04-30T09:00:00Z,49.08,-61.7,0.7,-1.0,250,6,,,,1022.3,,TRUE,TRUE,,,,,,,,,,,,,,,,-0.5,,,,,,,,,,,METAR,7.0
CWHO 300900Z AUTO 00002KT M04/M05 RMK AO1 SLP245 T10411048 53008,CWHO,2023-04-30T09:00:00Z,55.45,-60.22,-4.1,-4.8,0,2,,,,1024.5,,TRUE,TRUE,,,,,,,,,,,,,,,,0.8,,,,,,,,,,,METAR,16.0
CWHL 300900Z AUTO 18001KT 08/07 RMK AO1 SLP085 T00840067 55008,CWHL,2023-04-30T09:00:00Z,54.17,-130.35,8.4,6.7,180,1,,,,1008.5,,TRUE,TRUE,,,,,,,,,,,,,,,,-0.8,,,,,,,,,,,METAR,5.0
CWHI 300900Z AUTO 12009KT 04/M05 RMK AO1 T00421054,CWHI,2023-04-30T09:00:00Z,51.7,-113.22,4.2,-5.4,120,9,,,,,,TRUE,TRUE,,,,,,,,,,,,,,,,,,,,,,,,,,,METAR,906.0
CWGY 300900Z AUTO 14010KT 02/M09 RMK AO1 SLP209 T00151090 56005,CWGY,2023-04-30T09:00:00Z,51.67,-110.2,1.5,-9.0,140,10,,,,1020.9,,TRUE,TRUE,,,,,,,,,,,,,,,,-0.5,,,,,,,,,,,METAR,709.0
CWGT 300900Z AUTO 18002KT 15/06 RMK AO1 SLP105 T01470059 56004,CWGT,2023-04-30T09:00:00Z,49.48,-124.43,14.7,5.9,180,2,,,,1010.5,,TRUE,TRUE,,,,,,,,,,,,,,,,-0.4,,,,,,,,,,,METAR,5.0
CWGR 300900Z AUTO 09004KT 01/M02 RMK AO1 SLP228 T00051016 58010,CWGR,2023-04-30T09:00:00Z,47.42,-61.77,0.5,-1.6,90,4,,,,1022.8,,TRUE,TRUE,,,,,,,,,,,,,,,,-1.0,,,,,,,,,,,METAR,4.0
CWGM 300900Z AUTO 26004KT 05/00 RMK AO1 SLP142 T00510000 58004,CWGM,2023-04-30T09:00:00Z,49.13,-113.8,5.1,0.0,260,4,,,,1014.2,,TRUE,TRUE,,,,,,,,,,,,,,,,-0.4,,,,,,,,,,,METAR,1292.0
CWGH 300900Z AUTO 18008KT 11/07 RMK AO1 SLP039 T01070069 56017,CWGH,2023-04-30T09:00:00Z,44.42,-75.85,10.7,6.9,180,8,,,,1003.9,,TRUE,TRUE,,,,,,,,,,,,,,,,-1.7,,,,,,,,,,,METAR,76.0
CWGD 300900Z AUTO 15003KT 08/07 RMK AO1 8012 SLP970 T00800070 50006,CWGD,2023-04-30T09:00:00Z,43.77,-81.72,8.0,7.0,150,3,,,,997.0,,TRUE,TRUE,,,,,,,,,,,,,,,,0.6,,,,,,,,,,,METAR,214.0
CWGB 300900Z AUTO 18001KT 11/ RMK AO1 SLP096 T0112 57005,CWGB,2023-04-30T09:00:00Z,49.35,-124.13,11.2,,180,1,,,,1009.6,,TRUE,TRUE,,,,,,,,,,,,,,,,-0.5,,,,,,,,,,,METAR,6.0
CWFQ 300900Z AUTO 01011G23KT 08/04 RMK AO1 8014 PK WND 01023/0850 SLP086 T00840043 50002,CWFQ,2023-04-30T09:00:00Z,45.03,-72.85,8.4,4.3,10,11,23,,,1008.6,,TRUE,TRUE,,,,,,,,,,,,,,,,0.2,,,,,,,,,,,METAR,190.0
CWFJ 300900Z AUTO 20005KT 09/M00 RMK AO1 T00851002,CWFJ,2023-04-30T09:00:00Z,49.2,-113.27,8.5,-0.2,200,5,,,,,,TRUE,TRUE,,,,,,,,,,,,,,,,,,,,,,,,,,,METAR,1142.0
CWFF 300900Z AUTO 13004KT M00/M05 RMK AO1 SLP248 T10041046 51002,CWFF,2023-04-30T09:00:00Z,52.82,-104.6,-0.4,-4.6,130,4,,,,1024.8,,TRUE,TRUE,,,,,,,,,,,,,,,,0.2,,,,,,,,,,,METAR,482.0
CWEZ 300900Z AUTO 25010KT 11/08 RMK AO1 SLP102 T01120076 58004,CWEZ,2023-04-30T09:00:00Z,48.78,-123.05,11.2,7.6,250,10,,,,1010.2,,TRUE,TRUE,,,,,,,,,,,,,,,,-0.4,,,,,,,,,,,METAR,23.0
CWEW 300900Z AUTO 07006KT 07/06 RMK AO1 0PAST HR 7014 SLP105 P0008 T00710064 50040,CWEW,2023-04-30T09:00:00Z,45.82,-73.43,7.1,6.4,70,6,,,,1010.5,,TRUE,TRUE,,,,,,,,,,,,,,,,4.0,,,,,0.08,,,,,,METAR,17.0
CWEU 300900Z 06003KT 1/8SM FZFG VV300 M21/M24 A3039 RMK FG8 RIME SLP306,CWEU,2023-04-30T09:00:00Z,80.0,-85.93,-21.0,-24.0,60,3,,0.13,30.389763,1030.6,,,,,,,,,FZFG,OVX,0,,,,,,,LIFR,,,,,,,,,,,0,SPECI,2.0
CWER 300900Z AUTO 08007KT RMK AO1,CWER,2023-04-30T09:00:00Z,47.0,-70.82,,,80,7,,,,,,TRUE,TRUE,,,,,,,,,,,,,,,,,,,,,,,,,,,METAR,4.0
CWEQ 300900Z AUTO 28003KT M00/M02 RMK AO1 SLP231 T10031024 58002,CWEQ,2023-04-30T09:00:00Z,52.12,-101.22,-0.3,-2.4,280,3,,,,1023.1,,TRUE,TRUE,,,,,,,,,,,,,,,,-0.2,,,,,,,,,,,METAR,331.0
CWEP 300900Z AUTO 08005KT 02/01 RMK AO1 SLP227 T00240011 55014,CWEP,2023-04-30T09:00:00Z,46.45,-61.98,2.4,1.1,80,5,,,,1022.7,,TRUE,TRUE,,,,,,,,,,,,,,,,-1.4,,,,,,,,,,,METAR,9.0
CWEL 300900Z AUTO 13012KT 11/10 RMK AO1 SLP100 T01140099 56003,CWEL,2023-04-30T09:00:00Z,49.22,-123.8,11.4,9.9,130,12,,,,1010.0,,TRUE,TRUE,,,,,,,,,,,,,,,,-0.3,,,,,,,,,,,METAR,0.0
CWEH 300900Z AUTO 10010KT 03/M06 RMK AO1 SLP205 T00261057 58004,CWEH,2023-04-30T09:00:00Z,49.43,-108.98,2.6,-5.7,100,10,,,,1020.5,,TRUE,TRUE,,,,,,,,,,,,,,,,-0.4,,,,,,,,,,,METAR,1077.0
CWEF 300900Z AUTO 36006KT 02/01 RMK AO1 SLP221 T00170010 58006,CWEF,2023-04-30T09:00:00Z,47.22,-60.13,1.7,1.0,360,6,,,,1022.1,,TRUE,TRUE,,,,,,,,,,,,,,,,-0.6,,,,,,,,,,,METAR,27.0
CWEE 300900Z AUTO 05/04 RMK AO1 SLP104 T00500040 56003,CWEE,2023-04-30T09:00:00Z,49.27,-73.35,5.0,4.0,,,,,,1010.4,,TRUE,TRUE,,,,,,,,,,,,,,,,-0.3,,,,,,,,,,,METAR,302.0
CWDZ 300900Z AUTO 12011KT 08/M03 RMK AO1 PK WND 12017/0801 SLP165 T00781030 58005,CWDZ,2023-04-30T09:00:00Z,51.43,-112.67,7.8,-3.0,120,11,,,,1016.5,,TRUE,TRUE,,,,,,,,,,,,,,,,-0.5,,,,,,,,,,,METAR,689.0
CWDV 300900Z AUTO M00/M01 RMK AO1 1PAST HR SOG 03 6014 SLP043 P0000 T10011008 50006,CWDV,2023-04-30T09:00:00Z,49.02,-90.47,-0.1,-0.8,,,,,,1004.3,,TRUE,TRUE,,,,,,,,,,,,,,,,0.6,,,,,0.005,,,,,,METAR,487.0
CWDQ 300900Z AUTO 15005KT 07/05 RMK AO1 3PAST HR 6011 SLP123 P0001 T00680049 50003,CWDQ,2023-04-30T09:00:00Z,47.42,-72.78,6.8,4.9,150,5,,,,1012.3,,TRUE,TRUE,,,,,,,,,,,,,,,,0.3,,,,,0.01,,,,,,METAR,174.0
CWDO 300900Z AUTO 34017KT M00/M02 RMK AO1 PK WND 33024/0816 SLP201 T10031016 53006,CWDO,2023-04-30T09:00:00Z,49.68,-54.78,-0.3,-1.6,340,17,,,,1020.1,,TRUE,TRUE,,,,,,,,,,,,,,,,0.6,,,,,,,,,,,METAR,89.0
CWDM 300900Z AUTO 33005KT M02/M03 RMK AO1 SLP221 T10211030 51010,CWDM,2023-04-30T09:00:00Z,50.47,-59.63,-2.1,-3.0,330,5,,,,1022.1,,TRUE,TRUE,,,,,,,,,,,,,,,,1.0,,,,,,,,,,,METAR,2.0
CWDK 300900Z AUTO 36004KT 03/M02 RMK AO1 SLP152 T00321016 56012,CWDK,2023-04-30T09:00:00Z,50.02,-113.62,3.2,-1.6,360,4,,,,1015.2,,TRUE,TRUE,,,,,,,,,,,,,,,,-1.2,,,,,,,,,,,METAR,1014.0
CWDJ 300900Z AUTO 09005KT 01/M06 RMK AO1 SLP236 T00051058 53001,CWDJ,2023-04-30T09:00:00Z,50.4,-104.58,0.5,-5.8,90,5,,,,1023.6,,TRUE,TRUE,,,,,,,,,,,,,,,,0.1,,,,,,,,,,,METAR,576.0
CWDC 300900Z AUTO 07004KT M01/M06 RMK AO1 SLP246 T10081058 55004,CWDC,2023-04-30T09:00:00Z,59.57,-108.48,-0.8,-5.8,70,4,,,,1024.6,,TRUE,TRUE,,,,,,,,,,,,,,,,-0.4,,,,,,,,,,,METAR,311.0
CWDA 300900Z AUTO 00032KT M01/ RMK AO1 T1013,CWDA,2023-04-30T09:00:00Z,50.72,-56.12,-1.3,,0,32,,,,,,TRUE,TRUE,,,,,,,,,,,,,,,,,,,,,,,,,,,METAR,30.0
CWCT 300900Z AUTO 14012KT 03/M08 RMK AO1 PK WND 13017/0824 SLP205 T00251077 58002,CWCT,2023-04-30T09:00:00Z,52.07,-111.43,2.5,-7.7,140,12,,,,1020.5,,TRUE,TRUE,,,,,,,,,,,,,,,,-0.2,,,,,,,,,,,METAR,793.0
CWCO 300900Z AUTO 15006KT 10/08 RMK AO1 SLP976 T00950084 58023,CWCO,2023-04-30T09:00:00Z,44.5,-80.22,9.5,8.4,150,6,,,,997.6,,TRUE,TRUE,,,,,,,,,,,,,,,,-2.3,,,,,,,,,,,METAR,182.0
CWCJ 300900Z AUTO 04006KT 03/02 RMK AO1 SLP975 T00270017 56017,CWCJ,2023-04-30T09:00:00Z,48.6,-86.28,2.7,1.7,40,6,,,,997.5,,TRUE,TRUE,,,,,,,,,,,,,,,,-1.7,,,,,,,,,,,METAR,207.0
CWCI 300900Z AUTO 04011KT 05/05 RMK AO1 SLP940 T00470046 56022,CWCI,2023-04-30T09:00:00Z,47.33,-85.82,4.7,4.6,40,11,,,,994.0,,TRUE,TRUE,,,,,,,,,,,,,,,,-2.2,,,,,,,,,,,METAR,167.0
CWCF 300900Z AUTO 02004KT 01/M03 RMK AO1 SLP198 T00071028 55000,CWCF,2023-04-30T09:00:00Z,52.35,-97.03,0.7,-2.8,20,4,,,,1019.8,,TRUE,TRUE,,,,,,,,,,,,,,,,0.0,,,,,,,,,,,METAR,219.0
CWBZ 300900Z AUTO 06007KT 08/06 RMK AO1 SLP062 T00840062 57015,CWBZ,2023-04-30T09:00:00Z,45.12,-74.28,8.4,6.2,60,7,,,,1006.2,,TRUE,TRUE,,,,,,,,,,,,,,,,-1.5,,,,,,,,,,,METAR,49.0
CWBY 300900Z AUTO 08009KT 02/M00 RMK AO1 SLP212 T00201003 57006,CWBY,2023-04-30T09:00:00Z,49.83,-64.28,2.0,-0.3,80,9,,,,1021.2,,TRUE,TRUE,,,,,,,,,,,,,,,,-0.6,,,,,,,,,,,METAR,56.0
CWBV 300900Z AUTO 16002KT 03/02 RMK AO1 SLP216 T00270023 56006,CWBV,2023-04-30T09:00:00Z,44.82,-62.33,2.7,2.3,160,2,,,,1021.6,,TRUE,TRUE,,,,,,,,,,,,,,,,-0.6,,,,,,,,,,,METAR,16.0
CWBU 300900Z AUTO 30002KT M02/M05 RMK AO1 SLP250 T10211051 55000,CWBU,2023-04-30T09:00:00Z,53.33,-104.02,-2.1,-5.1,300,2,,,,1025.0,,TRUE,TRUE,,,,,,,,,,,,,,,,0.0,,,,,,,,,,,METAR,369.0
CWBT 300900Z AUTO 03002KT M02/M02 RMK AO1 SLP223 T10191024 56004,CWBT,2023-04-30T09:00:00Z,50.27,-64.23,-1.9,-2.4,30,2,,,,1022.3,,TRUE,TRUE,,,,,,,,,,,,,,,,-0.4,,,,,,,,,,,METAR,12.0
CWBS 300900Z AUTO 06018KT 08/07 RMK AO1 PK WND 07022/0859 T00790071,CWBS,2023-04-30T09:00:00Z,46.18,-72.92,7.9,7.1,60,18,,,,,,TRUE,TRUE,,,,,,,,,,,,,,,,,,,,,,,,,,,METAR,3.0
CWBO 300900Z AUTO 13009KT 07/M03 RMK AO1 SLP171 T00701030 56008,CWBO,2023-04-30T09:00:00Z,50.53,-111.83,7.0,-3.0,130,9,,,,1017.1,,TRUE,TRUE,,,,,,,,,,,,,,,,-0.8,,,,,,,,,,,METAR,752.0
CWBK 300900Z AUTO 21003KT 02/M00 RMK AO1 SLP230 T00181003 55007,CWBK,2023-04-30T09:00:00Z,45.77,-62.67,1.8,-0.3,210,3,,,,1023.0,,TRUE,TRUE,,,,,,,,,,,,,,,,-0.7,,,,,,,,,,,METAR,2.0
CWBA 300900Z AUTO 17006KT 08/07 RMK AO1 T00760071 50007,CWBA,2023-04-30T09:00:00Z,46.72,-79.1,7.6,7.1,170,6,,,,,,TRUE,TRUE,,,,,,,,,,,,,,,,0.7,,,,,,,,,,,METAR,181.0
CWAV 300900Z AUTO 09002KT 02/M03 RMK AO1 SLP153 T00181030 57010,CWAV,2023-04-30T09:00:00Z,51.77,-114.67,1.8,-3.0,90,2,,,,1015.3,,TRUE,TRUE,,,,,,,,,,,,,,,,-1.0,,,,,,,,,,,METAR,1115.0
CWAR 300900Z AUTO 30007KT 01/M02 RMK AO1 SLP200 T00141023 53010,CWAR,2023-04-30T09:00:00Z,47.28,-54.0,1.4,-2.3,300,7,,,,1020.0,,TRUE,TRUE,,,,,,,,,,,,,,,,1.0,,,,,,,,,,,METAR,6.0
CWAQ 300900Z AUTO 26003KT M04/M06 RMK AO1 SLP238 T10351055 53002,CWAQ,2023-04-30T09:00:00Z,49.05,-105.48,-3.5,-5.5,260,3,,,,1023.8,,TRUE,TRUE,,,,,,,,,,,,,,,,0.2,,,,,,,,,,,METAR,761.0
CWAJ 300900Z AUTO 16006KT RMK AO1 56018,CWAJ,2023-04-30T09:00:00Z,42.25,-81.9,,,160,6,,,,,,TRUE,TRUE,,,,,,,,,,,,,,,,-1.8,,,,,,,,,,,METAR,177.0
CWAF 300900Z AUTO 05012KT 05/04 RMK AO1 PK WND 07020/0845 T00520040,CWAF,2023-04-30T09:00:00Z,48.07,-69.55,5.2,4.0,50,12,,,,,,TRUE,TRUE,,,,,,,,,,,,,,,,,,,,,,,,,,,METAR,6.0
CTRA 300900Z AUTO 02008KT 01/M04 RMK AO1 PK WND 35017/0842 SLP121 T00131041 56008,CTRA,2023-04-30T09:00:00Z,49.67,-93.73,1.3,-4.1,20,8,,,,1012.1,,TRUE,TRUE,,,,,,,,,,,,,,,,-0.8,,,,,,,,,,,METAR,432.0
CTNK 300900Z AUTO 13004KT 08/08 RMK AO1 SLP020 T00810075 56010,CTNK,2023-04-30T09:00:00Z,45.53,-78.27,8.1,7.5,130,4,,,,1002.0,,TRUE,TRUE,,,,,,,,,,,,,,,,-1.0,,,,,,,,,,,METAR,405.0
CTCK 300900Z AUTO 08011KT 08/06 RMK AO1 SLP061 T00750059 56014,CTCK,2023-04-30T09:00:00Z,45.25,-74.97,7.5,5.9,80,11,,,,1006.1,,TRUE,TRUE,,,,,,,,,,,,,,,,-1.4,,,,,,,,,,,METAR,84.0
CPSV 300900Z AUTO 08002KT 10/M04 RMK AO1 T00981039,CPSV,2023-04-30T09:00:00Z,49.92,-110.92,9.8,-3.9,80,2,,,,,,TRUE,TRUE,,,,,,,,,,,,,,,,,,,,,,,,,,,METAR,766.0
CPST 300900Z AUTO 13015KT 06/M03 RMK AO1 PK WND 14020/0816 T00621033,CPST,2023-04-30T09:00:00Z,51.03,-113.28,6.2,-3.3,130,15,,,,,,TRUE,TRUE,,,,,,,,,,,,,,,,,,,,,,,,,,,METAR,1005.0
CPRY 300900Z AUTO 14011KT 11/M02 RMK AO1 PK WND 15018/0821 T01131021,CPRY,2023-04-30T09:00:00Z,49.48,-112.68,11.3,-2.1,140,11,,,,,,TRUE,TRUE,,,,,,,,,,,,,,,,,,,,,,,,,,,METAR,947.0
CPRO 300900Z AUTO 10008KT 06/M03 RMK AO1 T00601029,CPRO,2023-04-30T09:00:00Z,50.83,-112.05,6.0,-2.9,100,8,,,,,,TRUE,TRUE,,,,,,,,,,,,,,,,,,,,,,,,,,,METAR,733.0
CPIR 300900Z AUTO 08005KT 04/M01 RMK AO1 T00401014,CPIR,2023-04-30T09:00:00Z,49.9,-112.73,4.0,-1.4,80,5,,,,,,TRUE,TRUE,,,,,,,,,,,,,,,,,,,,,,,,,,,METAR,895.0
CPIN 300900Z AUTO 21007KT ////SM ////// ///// A////,CPIN,2023-04-30T09:00:00Z,,,,,210,7,,,,,,TRUE,,,,,,,,,,,,,,,,,,,,,,,,,,,,METAR,
CPFI 300900Z AUTO 15008KT 07/M01 RMK AO1 T00741007,CPFI,2023-04-30T09:00:00Z,49.8,-112.03,7.4,-0.7,150,8,,,,,,TRUE,TRUE,,,,,,,,,,,,,,,,,,,,,,,,,,,METAR,804.0
CPEH 300900Z AUTO 00000KT 04/M02 RMK AO1 T00431015,CPEH,2023-04-30T09:00:00Z,50.18,-112.43,4.3,-1.5,0,0,,,,,,TRUE,TRUE,,,,,,,,,,,,,,,,,,,,,,,,,,,METAR,814.0
CPBT 300900Z AUTO 05001KT 07/M02 RMK AO1 T00671018,CPBT,2023-04-30T09:00:00Z,49.53,-113.05,6.7,-1.8,50,1,,,,,,TRUE,TRUE,,,,,,,,,,,,,,,,,,,,,,,,,,,METAR,998.0
CMGB 300900Z AUTO 12003KT 09/04 RMK AO1 SLP096 T00930040 56014,CMGB,2023-04-30T09:00:00Z,45.37,-72.77,9.3,4.0,120,3,,,,1009.6,,TRUE,TRUE,,,,,,,,,,,,,,,,-1.4,,,,,,,,,,,METAR,87.0
CMFM 300900Z AUTO 13004KT 04/01 RMK AO1 SOG 03 6013 SLP143 T00360011,CMFM,2023-04-30T09:00:00Z,47.32,-71.15,3.6,1.1,130,4,,,,1014.3,,TRUE,TRUE,,,,,,,,,,,,,,,,,,,,,,,,,,,METAR,663.0
CERM 300900Z AUTO 13004KT 09/03 RMK AO1 SLP184 T00870031 56001,CERM,2023-04-30T09:00:00Z,47.42,-68.32,8.7,3.1,130,4,,,,1018.4,,TRUE,TRUE,,,,,,,,,,,,,,,,-0.1,,,,,,,,,,,METAR,151.0
CAHR 300900Z AUTO 00000KT 01/M01 RMK AO1 SLP225 T00051010 55006,CAHR,2023-04-30T09:00:00Z,46.35,-63.17,0.5,-1.0,0,0,,,,1022.5,,TRUE,TRUE,,,,,,,,,,,,,,,,-0.6,,,,,,,,,,,METAR,52.0
ANYN 300900Z 05005KT 9999 FEW020 27/25 Q1009,ANYN,2023-04-30T09:00:00Z,-0.55,166.92,27.0,25.0,50,5,,6.21,29.793306,,,,,,,,,,,FEW,2000,,,,,,,VFR,,,,,,,,,,,,METAR,7.0
KNOZ 300859Z AUTO 10005KT 10SM CLR 24/00 A2978 RMK AO2 SLP035 T02390000 58012 $,KNOZ,2023-04-30T08:59:00Z,32.53,-114.5,23.9,0.0,100,5,,10.0,29.778543,1003.5,,TRUE,TRUE,TRUE,,,,,,CLR,,,,,,,,VFR,-1.2,,,,,,,,,,,METAR,78.0
ROTM 300856Z 06004KT 9999 OVC016 23/19 A2989 RMK SLP106 T02280194 53005,ROTM,2023-04-30T08:56:00Z,26.27,127.75,22.8,19.4,60,4,,6.21,29.890747,1010.6,,,,,,,,,,OVC,1600,,,,,,,MVFR,0.5,,,,,,,,,,,METAR,80.0
PAGM 300856Z AUTO 04014KT 6SM UP BR OVC007 M03/M04 A2979 RMK AO2 UPE33B52SNB43E52 SLP094 P0000 60000 T10331044 410331067 51005 FZRANO,PAGM,2023-04-30T08:56:00Z,63.77,-171.73,-3.3,-4.4,40,14,,6.0,29.790354,1009.4,,TRUE,TRUE,,,,TRUE,,BR UP,OVC,700,,,,,,,IFR,0.5,,,-3.3,-6.7,0.005,0.005,,,,,METAR,6.0
RKSO 300855Z 24010KT 8SM HZ BKN120 17/09 A2982 RMK AO2A SLP102 T01700087 55007 $,RKSO,2023-04-30T08:55:00Z,37.08,127.02,17.0,8.7,240,10,,8.0,29.819881,1010.2,,,TRUE,TRUE,,,,,HZ,BKN,12000,,,,,,,VFR,-0.7,,,,,,,,,,,SPECI,10.0
RKSG 300855Z 26007G15KT 210V280 10SM CLR 17/06 A2982 RMK SLP096 WND DATA ESTMD T01670064 55001 $,RKSG,2023-04-30T08:55:00Z,36.97,127.02,16.7,6.4,260,7,15,10.0,29.819881,1009.6,,,,TRUE,,,,,,CLR,,,,,,,,VFR,-0.1,,,,,,,,,,,METAR,12.0
PASY 300855Z AUTO 33022G31KT M M M 00/M05 A2991,PASY,2023-04-30T08:55:00Z,52.72,174.12,0.0,-5.0,330,22,31,,29.911417,,,TRUE,,,,,,,,,,,,,,,,,,,,,,,,,,,,SPECI,6.0
PAFR 300855Z AUTO 00000KT 10SM BKN065 OVC085 04/M03 A2975 RMK AO2 SLP082 T00351035 400851038 58002 $,PAFR,2023-04-30T08:55:00Z,61.27,-149.65,3.5,-3.5,0,0,,10.0,29.749016,1008.2,,TRUE,TRUE,TRUE,,,,,,BKN,6500,OVC,8500,,,,,VFR,-0.2,,,8.5,-3.8,,,,,,,METAR,106.0
PAFB 300855Z AUTO 04003KT 10SM M 06/M01 A2975,PAFB,2023-04-30T08:55:00Z,64.83,-147.62,6.0,-1.0,40,3,,10.0,29.749016,,,TRUE,,,,,,,,,,,,,,,,,,,,,,,,,,,,SPECI,137.0
PAED 300855Z 21006KT 10SM BKN085 05/M03 A2974 RMK AO2A SLP068 T00541032 401051008 58001,PAED,2023-04-30T08:55:00Z,61.25,-149.83,5.4,-3.2,210,6,,10.0,29.740158,1006.8,,,TRUE,,,,,,,BKN,8500,,,,,,,VFR,-0.1,,,10.5,-0.8,,,,,,,SPECI,54.0
OTBH 300855Z 20010KT 9000 HZ CLR 39/05 A2969 Q1005 RMK AO2A SLP055 T03870053 57015 $,OTBH,2023-04-30T08:55:00Z,25.12,51.32,38.7,5.3,200,10,,5.59,29.675198,1005.5,,,TRUE,TRUE,,,,,HZ,CLR,,,,,,,,VFR,-1.5,,,,,,,,,,,SPECI,40.0
LIVE 300855Z 01003KT 9999 SCT020 09/04 Q1017 RMK BKN SCT080 VIS MIN 9999,LIVE,2023-04-30T08:55:00Z,46.82,10.5,9.0,4.0,10,3,,6.21,30.029528,,,,,,,,,,,SCT,2000,,,,,,,VFR,,,,,,,,,,,,SPECI,1684.0
LIQC 300855Z 05004KT CAVOK 19/14 Q1012 RMK BKN BKN070 QUK 2 QUL 1 NE VIS MAR 15 KM VIS MIN 9999,LIQC,2023-04-30T08:55:00Z,40.55,14.2,19.0,14.0,50,4,,6.21,29.88189,,,,,,,,,,,CAVOK,,,,,,,,VFR,,,,,,,,,,,,SPECI,154.0
LIEB 300855Z 04016KT 1200 -RA BR SCT004 BKN025 15/13 Q1010 RMK OVC QUK / QUL / VIS MAR 1200 M MON INVIS VIS MIN 1200,LIEB,2023-04-30T08:55:00Z,39.93,9.72,15.0,13.0,40,16,,0.75,29.822834,,,,,,,,,,-RA BR,SCT,400,BKN,2500,,,,,LIFR,,,,,,,,,,,,SPECI,126.0
LICF 300855Z 23009KT 9999 SCT040 21/13 Q1013 RMK BKN BKN080 QUK 3 QUL 1 SW VIS MAR 20 KM MON LIB NC VIS MIN 9999,LICF,2023-04-30T08:55:00Z,38.2,15.55,21.0,13.0,230,9,,6.21,29.911417,,,,,,,,,,,SCT,4000,,,,,,,VFR,,,,,,,,,,,,SPECI,66.0
LIBY 300855Z ///06KT 9999 -RA BKN013 14/12 Q1013 RMK OVC OVC070 QUK 3 QUL 1 SE VIS MAR 10 KM VIS MIN 9999,LIBY,2023-04-30T08:55:00Z,39.82,18.35,14.0,12.0,,,,6.21,29.911417,,,,,,,,,,-RA,BKN,1300,,,,,,,MVFR,,,,,,,,,,,,SPECI,105.0
KRYM 300855Z AUTO 35020G25KT 10SM OVC034 04/M02 A2970 RMK AO2 PK WND 35028/13 SLP067 T00411023 57008,KRYM,2023-04-30T08:55:00Z,46.08,-94.37,4.1,-2.3,350,20,25,10.0,29.698818,1006.7,,TRUE,TRUE,,,,,,,OVC,3400,,,,,,,VFR,-0.8,,,,,,,,,,,METAR,344.0
KRDR 300855Z AUTO 34013KT 10SM CLR 02/M00 A2996 RMK AO2 SLP159 T00161003 53002 $,KRDR,2023-04-30T08:55:00Z,47.93,-97.4,1.6,-0.3,340,13,,10.0,29.958662,1015.9,,TRUE,TRUE,TRUE,,,,,,CLR,,,,,,,,VFR,0.2,,,,,,,,,,,METAR,276.0
KRCA 300855Z 30006KT 10SM CLR 01/M07 A3009 RMK AO2A SLP198 T00061072 50003 $,KRCA,2023-04-30T08:55:00Z,44.15,-103.12,0.6,-7.2,300,6,,10.0,30.088583,1019.8,,,TRUE,TRUE,,,,,,CLR,,,,,,,,VFR,0.3,,,,,,,,,,,METAR,993.0
KQTZ 300855Z 29007KT 9999 FEW120 27/07 A2983 RMK SLP103 58002,KQTZ,2023-04-30T08:55:00Z,,,27.0,7.0,290,7,,6.21,29.828741,1010.3,,,,,,,,,,FEW,12000,,,,,,,VFR,-0.2,,,,,,,,,,,SPECI,
KQBR 300855Z AUTO 11002KT 10SM CLR 14/M02 A3003 RMK AO2 SLP085 WND DATA ESTMD T01411017 58007,KQBR,2023-04-30T08:55:00Z,,,14.1,-1.7,110,2,,10.0,30.029528,1008.5,,TRUE,TRUE,,,,,,,CLR,,,,,,,,VFR,-0.7,,,,,,,,,,,METAR,
KOFF 300855Z 31014G19KT 10SM CLR 08/M00 A2984 RMK AO2A SLP109 T00751002 57007 PWINO PNO FZRANO TSNO $,KOFF,2023-04-30T08:55:00Z,41.12,-95.92,7.5,-0.2,310,14,19,10.0,29.840551,1010.9,,,TRUE,TRUE,,TRUE,TRUE,TRUE,,CLR,,,,,,,,VFR,-0.7,,,,,,,,,,,METAR,308.0
KMTC 300855Z AUTO 00000KT 10SM CLR 05/04 A2942 RMK AO2 SLP968 T00470041 58017 $,KMTC,2023-04-30T08:55:00Z,42.62,-82.83,4.7,4.1,0,0,,10.0,29.421259,996.8,,TRUE,TRUE,TRUE,,,,,,CLR,,,,,,,,VFR,-1.7,,,,,,,,,,,METAR,177.0
KMIB 300855Z 01007KT 10SM CLR 00/M01 A3010 RMK AO2A SLP210 T00031015 58001 $,KMIB,2023-04-30T08:55:00Z,48.42,-101.35,0.3,-1.5,10,7,,10.0,30.100393,1021.0,,,TRUE,TRUE,,,,,,CLR,,,,,,,,VFR,-0.1,,,,,,,,,,,METAR,505.0
KLZZ 300855Z AUTO 26005KT 10SM CLR 12/05 A2992 RMK AO2 T01230046,KLZZ,2023-04-30T08:55:00Z,31.1,-98.2,12.3,4.6,260,5,,10.0,29.920275,,,TRUE,TRUE,,,,,,,CLR,,,,,,,,VFR,,,,,,,,,,,,METAR,356.0
KGTB 300855Z AUTO 16017G25KT 10SM BKN043 OVC060 10/07 A2962 RMK AO2 PK WND 13026/03 SLP032 T00970073 57016 $,KGTB,2023-04-30T08:55:00Z,44.07,-75.72,9.7,7.3,160,17,25,10.0,29.619095,1003.2,,TRUE,TRUE,TRUE,,,,,,BKN,4300,OVC,6000,,,,,VFR,-1.6,,,,,,,,,,,METAR,206.0
KDMA 300855Z AUTO 14006KT 10SM CLR 18/M06 A2992 RMK AO2 SLP132 T01751057 58005 RVRNO VISNO RWY30 $,KDMA,2023-04-30T08:55:00Z,32.17,-110.88,17.5,-5.7,140,6,,10.0,29.920275,1013.2,,TRUE,TRUE,TRUE,,,,,,CLR,,,,,,,,VFR,-0.5,,,,,,,,,,,METAR,804.0
BGTL 300855Z AUTO 12009KT 9999 CLR M11/M15 A3032 RMK AO2 SLP255 T11071151 57006 TSNO $,BGTL,2023-04-30T08:55:00Z,76.53,-68.75,-10.7,-15.1,120,9,,6.21,30.318897,1025.5,,TRUE,TRUE,TRUE,,TRUE,,,,CLR,,,,,,,,VFR,-0.6,,,,,,,,,,,SPECI,79.0
KMWT 300853Z AUTO 27003KT 10SM CLR 08/07 A2978 RMK AO2 SLP084 T00830067 55001 $,KMWT,2023-04-30T08:53:00Z,34.55,-93.58,8.3,6.7,270,3,,10.0,29.778543,1008.4,,TRUE,TRUE,TRUE,,,,,,CLR,,,,,,,,VFR,-0.1,,,,,,,,,,,METAR,220.0
