{"station_id": ["AGGA", "AGGC", "AGGH", "AGGK", "AGGL", "AGGM", "AGGN", "AGGR", "ANYN", "AYPY", "BGGH", "BGSF", "BGTL", "BIAR", "BIEG", "BIKF", "BIRK", "BKPR", "CBBC", "CWWU", "CYAM", "CYAW", "CYAY", "CYAZ", "CYBC", "CYBG", "CYBL", "CYBR", "CYBW", "CYBX", "CYCA", "CYCB", "CYCD", "CYCG", "CYCO", "CYCX", "CYCY", "CYDB", "CYDF", "CYDN", "CYDQ", "CYED", "CYEG", "CYEK", "CYEU", "CYEV", "CYFB", "CYFC", "CYFS", "CYGK", "CYGL", "CYGP", "CYGQ", "CYGR", "CYGV", "CYGW", "CYGX", "CYHD", "CYHK", "CYHM", "CYHU", "CYHY", "CYHZ", "CYIO", "CYIV", "CYJT", "CYKA", "CYKF", "CYKL", "CYLD", "CYLL", "CYLT", "CYLW", "CYMA", "CYMH", "CYMJ", "CYMM", "CYMO", "CYMX", "CYNA", "CYND", "CYNE", "CYOC", "CYOD", "CYOJ", "CYOO", "CYOW", "CYOY", "CYPA", "CYPE", "CYPG", "CYPH", "CYPL", "CYPQ", "CYPR", "CYPX", "CYPY", "CYQA", "CYQB", "CYQD", "CYQF", "CYQG", "CYQH", "CYQI", "CYQK", "CYQL", "CYQM", "CYQQ", "CYQR", "CYQT", "CYQU", "CYQV", "CYQW", "CYQX", "CYQY", "CYQZ", "CYRB", "CYRJ", "CYRL", "CYRQ", "CYRT", "CYSB", "CYSC", "CYSF", "CYSJ", "CYSM", "CYSN", "CYTE", "CYTH", "CYTL", "CYTR", "CYTS", "CYTZ", "CYUB", "CYUL", "CYUX", "CYUY", "CYVC", "CYVM", "CYVO", "CYVP", "CYVQ", "CYVR", "CYVT", "CYWA", "CYWE", "CYWG", "CYWH", "CYWK", "CYWL", "CYXC", "CYXE", "CYXH", "CYXJ", "CYXL", "CYXS", "CYXT", "CYXU", "CYXX", "CYXY", "CYYB", "CYYC", "CYYD", "CYYE", "CYYF", "CYYG", "CYYH", "CYYJ", "CYYL", "CYYN", "CYYQ", "CYYR", "CYYT", "CYYU", "CYYY", "CYYZ", "CYZF", "CYZH", "CYZP", "CYZR", "CYZS", "CYZT", "CYZV", "CYZX", "CYZY", "CZBF", "CZUM", "CZVL", "DAAD", "DAAE", "DAAG", "DAAJ", "DAAP", "DAAS", "DAAT", "DAAV", "DAAY", "DABB", "DABC", "DABS", "DABT", "DAFH", "DAOB", "DAOF", "DAOI", "DAON", "DAOO", "DAOR", "DAOV", "DATM", "DAUA", "DAUB", "DAUG", "DAUH", "DAUI", "DAUK", "DAUL", "DAUO", "DAUT", "DAUU", "DAUZ", "DBBB", "DFFD", "DFOO", "DGAA", "DGLE", "DGSI", "DIAP", "DIBK", "DIYO", "DNAA", "DNAK", "DNBE", "DNGO", "DNIB", "DNIL", "DNJO", "DNKA", "DNKN", "DNKT", "DNMA", "DNMM", "DNSO", "DNSU", "DNYO", "DRRN", "DRZA", "DRZR", "DTKA", "DTMB", "DTNH", "DTTA", "DTTB", "DTTF", "DTTG", "DTTJ", "DTTR", "DTTX", "DTTZ", "DXNG", "DXXX", "EBAW", "EBBE", "EBBL", "EBBR", "EBCI", "EBCV", "EBFN", "EBFS", "EBLG", "EBOS", "EDAC", "EDAH", "EDDB", "EDDC", "EDDE", "EDDF", "EDDG", "EDDH", "EDDK", "EDDL", "EDDM", "EDDN", "EDDP", "EDDR", "EDDS", "EDDV", "EDDW", "EDFH", "EDGS", "EDJA", "EDLN", "EDLP", "EDLV", "EDLW", "EDMA", "EDMO", "EDNY", "EDQM", "EDSB", "EDTY", "EDVK", "EEEI", "EETN", "EFHK", "EFIV", "EFJY", "EFKE", "EFKK", "EFKT", "EFKU", "EFMA", "EFOU", "EFRO", "EFSI", "EFTP", "EFTU", "EFVA", "EGAA", "EGBB", "EGCC", "EGCK", "EGFF", "EGGD", "EGGP", "EGGW", "EGHQ", "EGJB", "EGJJ", "EGKK", "EGLL", "EGMD", "EGNJ", "EGNM", "EGNR", "EGNT", "EGNX", "EGPA", "EGPB", "EGPC", "EGPD", "EGPE", "EGPF", "EGPH", "EGPK", "EGPO", "EGQL", "EGQS", "EGSH", "EGSS", "EGSY", "EGTE", "EGUL", "EGUN", "EGVA", "EGVN", "EGVO", "EGWU", "EGXC", "EGXW", "EGYP", "EHAM", "EHBK", "EHEH", "EHGG", "EHKD", "EHLE", "EHLW", "EHRD", "EHVK", "EICK", "EIDL", "EIDW", "EIKN", "EIKY", "EIME", "EINN", "EISG", "EIWF", "EKAH", "EKBI", "EKCH", "EKKA", "EKRK", "EKRN", "EKSP", "EKYT", "ELLX", "ENAN", "ENBN", "ENBO", "ENBR", "ENDU", "ENEV", "ENFL", "ENGC", "ENGM", "ENHE", "ENKR", "ENLE", "ENNA", "ENOA", "ENOL", "ENRY", "ENSB", "ENTC", "ENTO", "ENVA", "ENZV", "EPBY", "EPCE", "EPDA", "EPDE", "EPGD", "EPKK", "EPKS", "EPKT", "EPLB", "EPLK", "EPLL", "EPLY", "EPMB", "EPMI", "EPMM", "EPMO", "EPOK", "EPPO", "EPPW", "EPRA", "EPRZ", "EPSC", "EPSN", "EPSY", "EPWA", "EPWR", "EPZG", "ESGG", "ESGJ", "ESKN", "ESMS", "ESNU", "ESSA", "ETAD", "ETAR", "ETEB", "ETIC", "ETIK", "ETNL", "ETNW", "ETOU", "ETSL", "EVGA", "EVLA", "EVRA", "EYKA", "EYPA", "EYSA", "EYVI", "FABL", "FACT", "FAGG", "FALA", "FALE", "FAOR", "FAPE", "FAUP", "FBMN", "FBPM", "FBSK", "FCBB", "FCPP", "FEFF", "FGBT", "FGSL", "FHAW", "FIMP", "FIMR", "FJDG", "FKKD", "FKYS", "FMCH", "FMCZ", "FMEE", "FMMI", "FMMS", "FMMT", "FMNA", "FMNM", "FMNN", "FMSD", "FMST", "FNBG", "FNCA", "FNCT", "FNDU", "FNGI", "FNHU", "FNKU", "FNLU", "FNMA", "FNME", "FNMO", "FNSA", "FNSO", "FNUB", "FNUE", "FOOG", "FOOL", "FQBR", "FQCH", "FQIN", "FQLC", "FQMA", "FQNC", "FQNP", "FQPB", "FQQL", "FQTT", "FQVL", "FQXA", "FSIA", "FTTJ", "FVJN", "FVRG", "FWCL", "FWKI", "FYGF", "FYKM", "FYKT", "FYLZ", "FYOA", "FYWB", "FYWE", "FYWH", "FZAA", "FZIC", "FZNA", "FZQA", "GABS", "GAGO", "GBYD", "GCFV", "GCGM", "GCHI", "GCLA", "GCLP", "GCRR", "GCTS", "GCXO", "GECE", "GEML", "GFLL", "GGOV", "GLRB", "GMAD", "GMAG", "GMFF", "GMFK", "GMFM", "GMFO", "GMME", "GMMH", "GMMI", "GMML", "GMMN", "GMMW", "GMMX", "GMMZ", "GMTA", "GMTT", "GOBD", "GOGS", "GOOY", "GOSS", "GQNO", "GQPP", "GUCY", "GVAC", "GVBA", "GVNP", "GVSV", "HAAB", "HABD", "HADC", "HADR", "HAGN", "HAJJ", "HALA", "HAMK", "HBBA", "HCMM", "HDAM", "HEAL", "HEAR", "HEAT", "HEAX", "HEBA", "HEBL", "HECA", "HEGN", "HELX", "HEMA", "HEMM", "HEOW", "HEPS", "HESC", "HESG", "HESH", "HESN", "HETB", "HETR", "HKEL", "HKJK", "HKKI", "HKML", "HKMO", "HKNW", "HRYR", "HSSJ", "HTAR", "HTDA", "HTDO", "HTKA", "HTKJ", "HTMW", "HTTB", "HTZA", "HUEN", "HUSO", "KABE", "KABI", "KABQ", "KABR", "KABY", "KACK", "KACT", "KACV", "KACY", "KADF", "KADW", "KAEG", "KAEX", "KAFF", "KAFW", "KAGC", "KAGS", "KAHN", "KAIA", "KALB", "KALI", "KALO", "KALS", "KALW", "KAMA", "KANB", "KAND", "KAOO", "KAPA", "KAPC", "KAPF", "KAPN", "KARA", "KART", "KASD", "KASE", "KASN", "KAST", "KATL", "KATW", "KATY", "KAUG", "KAUS", "KAUW", "KAVL", "KAVP", "KAXN", "KAZO", "KBAB", "KBAD", "KBAF", "KBAM", "KBBD", "KBBG", "KBCB", "KBCE", "KBDL", "KBDN", "KBDR", "KBED", "KBFD", "KBFF", "KBFI", "KBFL", "KBFM", "KBGM", "KBGR", "KBHB", "KBHM", "KBIF", "KBIH", "KBIL", "KBIS", "KBIX", "KBJC", "KBJI", "KBKE", "KBKF", "KBKW", "KBLF", "KBLH", "KBLI", "KBLV", "KBMG", "KBMI", "KBNA", "KBNO", "KBOI", "KBOS", "KBPI", "KBPK", "KBPT", "KBRD", "KBRL", "KBRO", "KBTL", "KBTM", "KBTR", "KBTV", "KBUF", "KBUR", "KBVI", "KBVO", "KBWG", "KBWI", "KBYI", "KBZN", "KCAE", "KCAK", "KCAR", "KCBM", "KCDC", "KCDR", "KCDS", "KCEC", "KCEF", "KCGI", "KCHA", "KCHO", "KCHS", "KCID", "KCIU", "KCKB", "KCKV", "KCLE", "KCLL", "KCLM", "KCLT", "KCMA", "KCMH", "KCMI", "KCMX", "KCNM", "KCNU", "KCNY", "KCOD", "KCOE", "KCOF", "KCON", "KCOS", "KCOT", "KCOU", "KCPR", "KCPS", "KCRE", "KCRG", "KCRP", "KCRQ", "KCRW", "KCSG", "KCSM", "KCSV", "KCTB", "KCUB", "KCVG", "KCVS", "KCWA", "KCXO", "KCXP", "KCYS", "KDAA", "KDAB", "KDAG", "KDAL", "KDAN", "KDAY", "KDBQ", "KDCA", "KDDC", "KDEC", "KDEN", "KDET", "KDFW", "KDHN", "KDHT", "KDIJ", "KDIK", "KDLF", "KDLH", "KDLS", "KDMA", "KDMN", "KDNL", "KDOV", "KDPA", "KDRO", "KDRT", "KDSM", "KDTW", "KDUG", "KDUJ", "KDVL", "KDVT", "KDYS", "KEAR", "KEAT", "KEAU", "KECG", "KECP", "KEDW", "KEED", "KEET", "KEFD", "KEFK", "KEGE", "KEGI", "KEKN", "KEKO", "KEKS", "KELD", "KELM", "KELP", "KELY", "KEND", "KENV", "KENW", "KERI", "KEUG", "KEUL", "KEVV", "KEVW", "KEWN", "KEWR", "KEYW", "KFAF", "KFAR", "KFAT", "KFAY", "KFBG", "KFCS", "KFDY", "KFFO", "KFHU", "KFKL", "KFLG", "KFLL", "KFLO", "KFMH", "KFMN", "KFMY", "KFNT", "KFOD", "KFOE", "KFPR", "KFRI", "KFSD", "KFSM", "KFST", "KFTK", "KFTW", "KFTY", "KFVE", "KFWA", "KFXE", "KFYV", "KGBD", "KGCC", "KGCK", "KGCN", "KGDV", "KGEG", "KGFA", "KGFK", "KGFL", "KGGG", "KGGW", "KGJT", "KGKY", "KGLD", "KGLH", "KGLS", "KGMU", "KGNV", "KGON", "KGPI", "KGPT", "KGRB", "KGRF", "KGRI", "KGRK", "KGRR", "KGSB", "KGSO", "KGSP", "KGTB", "KGTF", "KGTR", "KGUC", "KGUP", "KGUR", "KGUS", "KGUY", "KGWO", "KGYY", "KHBG", "KHCR", "KHDC", "KHDN", "KHIB", "KHIE", "KHIF", "KHIO", "KHKS", "KHKY", "KHLG", "KHLN", "KHMN", "KHNB", "KHND", "KHOB", "KHON", "KHOP", "KHOT", "KHOU", "KHPN", "KHQM", "KHRF", "KHRL", "KHRO", "KHRT", "KHST", "KHSV", "KHTS", "KHUA", "KHUF", "KHUL", "KHUM", "KHUT", "KHVR", "KHYA", "KHYR", "KHYS", "KIAB", "KIAD", "KIAG", "KIAH", "KICT", "KIDA", "KIFP", "KILG", "KILM", "KILN", "KIND", "KINK", "KINL", "KINS", "KINT", "KINW", "KIPL", "KIPT", "KISM", "KISO", "KISP", "KITH", "KIWA", "KIWD", "KIXD", "KJAC", "KJAN", "KJAX", "KJBR", "KJCT", "KJEF", "KJER", "KJFK", "KJHW", "KJKA", "KJKL", "KJLN", "KJMS", "KJST", "KJVL", "KJXN", "KJZI", "KLAF", "KLAL", "KLAN", "KLAR", "KLAS", "KLAW", "KLAX", "KLBB", "KLBE", "KLBF", "KLBL", "KLBT", "KLBX", "KLCH", "KLCK", "KLEB", "KLEE", "KLEX", "KLFI", "KLFK", "KLFT", "KLGA", "KLGB", "KLGU", "KLIT", "KLLQ", "KLMT", "KLND", "KLNK", "KLNS", "KLOZ", "KLRD", "KLRF", "KLRU", "KLSE", "KLSF", "KLSV", "KLTS", "KLUF", "KLUK", "KLVK", "KLVM", "KLVS", "KLWB", "KLWS", "KLWT", "KLYH", "KMAF", "KMBG", "KMBL", "KMBS", "KMCB", "KMCC", "KMCE", "KMCF", "KMCI", "KMCK", "KMCN", "KMCO", "KMCW", "KMDT", "KMDW", "KMEI", "KMEM", "KMER", "KMEV", "KMFD", "KMFE", "KMFR", "KMGE", "KMGM", "KMGW", "KMHK", "KMHR", "KMHT", "KMIA", "KMIB", "KMIV", "KMKC", "KMKE", "KMKG", "KMKL", "KMKT", "KMLB", "KMLC", "KMLI", "KMLS", "KMLU", "KMMH", "KMMT", "KMOB", "KMOD", "KMOT", "KMPV", "KMQY", "KMRB", "KMRY", "KMSL", "KMSN", "KMSO", "KMSP", "KMSS", "KMSY", "KMTC", "KMTH", "KMTJ", "KMTN", "KMTW", "KMUI", "KMUO", "KMVN", "KMWH", "KMXF", "KMYL", "KMYR", "KNBC", "KNBG", "KNCA", "KNEW", "KNFG", "KNFL", "KNFW", "KNGP", "KNGU", "KNHK", "KNID", "KNIP", "KNJK", "KNKT", "KNKX", "KNLC", "KNMM", "KNPA", "KNQI", "KNQX", "KNRB", "KNSE", "KNTD", "KNTU", "KNUC", "KNUW", "KNXP", "KNYG", "KNYL", "KNZY", "KOAJ", "KOAK", "KOFF", "KOFK", "KOGB", "KOGD", "KOKC", "KOLF", "KOLM", "KOLS", "KOMA", "KONP", "KONT", "KOPF", "KORD", "KORF", "KORH", "KOTH", "KOTM", "KOUN", "KOWB", "KOXR", "KOZR", "KPAE", "KPAH", "KPAM", "KPBF", "KPBG", "KPBI", "KPDK", "KPDT", "KPDX", "KPEQ", "KPGA", "KPGD", "KPGV", "KPHF", "KPHL", "KPHX", "KPIA", "KPIB", "KPIE", "KPIH", "KPIR", "KPIT", "KPKB", "KPLN", "KPMD", "KPNA", "KPNC", "KPNE", "KPNS", "KPOB", "KPOE", "KPOU", "KPQI", "KPRB", "KPRC", "KPSC", "KPSF", "KPSM", "KPSP", "KPTK", "KPUB", "KPUW", "KPVD", "KPVU", "KPVW", "KPWM", "KPWT", "KRAP", "KRBG", "KRBL", "KRCA", "KRDD", "KRDG", "KRDM", "KRDR", "KRDU", "KRFD", "KRHI", "KRIC", "KRIL", "KRIV", "KRIW", "KRKD", "KRKS", "KRME", "KRND", "KRNH", "KRNO", "KROA", "KROC", "KROG", "KROW", "KRSL", "KRST", "KRSW", "KRUT", "KRVS", "KRWF", "KRWI", "KRWL", "KRYY", "KSAC", "KSAF", "KSAN", "KSAT", "KSAV", "KSAW", "KSBA", "KSBD", "KSBM", "KSBN", "KSBP", "KSBY", "KSCK", "KSDF", "KSDL", "KSDY", "KSEA", "KSEZ", "KSFB", "KSFF", "KSFO", "KSGF", "KSGJ", "KSGR", "KSGU", "KSHR", "KSHV", "KSJC", "KSJS", "KSJT", "KSKA", "KSKF", "KSLC", "KSLE", "KSLI", "KSLK", "KSLN", "KSME", "KSMF", "KSMN", "KSMO", "KSMX", "KSNA", "KSNS", "KSNY", "KSOA", "KSPI", "KSPS", "KSRB", "KSRQ", "KSSC", "KSSF", "KSSI", "KSTC", "KSTJ", "KSTL", "KSTS", "KSUA", "KSUN", "KSUS", "KSUU", "KSUX", "KSVN", "KSWF", "KSWO", "KSYM", "KSYR", "KSZL", "KTBN", "KTCC", "KTCL", "KTCM", "KTCS", "KTEB", "KTEX", "KTIK", "KTIX", "KTLH", "KTMB", "KTOI", "KTOL", "KTOP", "KTPA", "KTPH", "KTRI", "KTRK", "KTRM", "KTTD", "KTTN", "KTUL", "KTUP", "KTUS", "KTVC", "KTVF", "KTVL", "KTWF", "KTXK", "KTYR", "KTYS", "KUAO", "KUES", "KUIN", "KUKI", "KUNV", "KUTS", "KVAD", "KVBG", "KVCT", "KVEL", "KVGT", "KVIS", "KVLD", "KVNY", "KVOK", "KVPS", "KVQQ", "KVRB", "KVTN", "KWJF", "KWMC", "KWRB", "KWRI", "KWRL", "KWWR", "KXNA", "KXWA", "KYIP", "KYKM", "KYNG", "KZZV", "LAKU", "LATI", "LBBG", "LBGO", "LBPD", "LBSF", "LBWN", "LCEN", "LCLK", "LCPH", "LCRA", "LDDU", "LDLO", "LDOS", "LDPL", "LDRI", "LDSP", "LDZA", "LDZD", "LEAB", "LEAG", "LEAL", "LEAM", "LEAO", "LEAS", "LEBA", "LEBB", "LEBG", "LEBL", "LEBR", "LEBZ", "LECO", "LECV", "LEEC", "LEGA", "LEGE", "LEGR", "LEGT", "LEHC", "LEIB", "LEJR", "LELC", "LELL", "LELN", "LELO", "LEMD", "LEMG", "LEMH", "LEMO", "LEPA", "LEPP", "LERI", "LERL", "LERS", "LERT", "LESA", "LESO", "LEST", "LESU", "LETO", "LEVC", "LEVD", "LEVS", "LEVT", "LEVX", "LEXJ", "LEZG", "LEZL", "LFBC", "LFBD", "LFBE", "LFBG", "LFBH", "LFBI", "LFBL", "LFBM", "LFBO", "LFBP", "LFBT", "LFBU", "LFBZ", "LFCK", "LFCR", "LFJL", "LFKB", "LFKC", "LFKF", "LFKJ", "LFKS", "LFLB", "LFLC", "LFLL", "LFLN", "LFLP", "LFLS", "LFLX", "LFLY", "LFMD", "LFMI", "LFMK", "LFML", "LFMN", "LFMO", "LFMP", "LFMT", "LFMU", "LFMV", "LFMY", "LFOA", "LFOB", "LFOE", "LFOH", "LFOJ", "LFOK", "LFOT", "LFPB", "LFPG", "LFPN", "LFPO", "LFPV", "LFQQ", "LFRB", "LFRD", "LFRH", "LFRI", "LFRL", "LFRM", "LFRN", "LFRQ", "LFRS", "LFRZ", "LFSB", "LFSI", "LFSO", "LFST", "LFSX", "LFTH", "LFTW", "LFVP", "LFYR", "LGAD", "LGAL", "LGAV", "LGBL", "LGEL", "LGHI", "LGIO", "LGIR", "LGKC", "LGKF", "LGKL", "LGKO", "LGKP", "LGKR", "LGKV", "LGLM", "LGLR", "LGMK", "LGMT", "LGPZ", "LGRP", "LGRX", "LGSA", "LGSK", "LGSM", "LGSR", "LGST", "LGSY", "LGTG", "LGTL", "LGTS", "LGZA", "LHBP", "LHDC", "LHKE", "LHPA", "LHPR", "LHSN", "LIBA", "LIBC", "LIBD", "LIBF", "LIBP", "LIBR", "LIBV", "LICA", "LICB", "LICC", "LICD", "LICJ", "LICR", "LICT", "LICZ", "LIEA", "LIED", "LIEE", "LIEO", "LIMC", "LIME", "LIMF", "LIMG", "LIMJ", "LIML", "LIMN", "LIMP", "LIMZ", "LIPA", "LIPB", "LIPC", "LIPE", "LIPH", "LIPK", "LIPL", "LIPO", "LIPQ", "LIPR", "LIPS", "LIPX", "LIPY", "LIPZ", "LIRA", "LIRE", "LIRF", "LIRM", "LIRN", "LIRP", "LIRQ", "LIRS", "LIRZ", "LJCE", "LJLJ", "LJMB", "LJPZ", "LKCV", "LKKB", "LKKV", "LKMT", "LKNA", "LKPR", "LKTB", "LLBG", "LLER", "LLHA", "LLHZ", "LLIB", "LMML", "LOWG", "LOWI", "LOWK", "LOWL", "LOWS", "LOWW", "LPAZ", "LPBJ", "LPFR", "LPLA", "LPMA", "LPMR", "LPMT", "LPOV", "LPPD", "LPPR", "LPPS", "LPPT", "LQBK", "LQMO", "LQSA", "LQTZ", "LRAR", "LRBC", "LRBS", "LRCK", "LRCL", "LRCV", "LRIA", "LROD", "LROP", "LRSB", "LRSV", "LRTM", "LRTR", "LSGG", "LSZH", "LSZL", "LTAB", "LTAC", "LTAD", "LTAE", "LTAF", "LTAG", "LTAI", "LTAJ", "LTAL", "LTAN", "LTAO", "LTAP", "LTAR", "LTAT", "LTAU", "LTAY", "LTAZ", "LTBA", "LTBD", "LTBF", "LTBG", "LTBH", "LTBI", "LTBJ", "LTBL", "LTBQ", "LTBR", "LTBS", "LTBT", "LTBU", "LTBY", "LTBZ", "LTCA", "LTCB", "LTCC", "LTCD", "LTCE", "LTCF", "LTCG", "LTCI", "LTCJ", "LTCN", "LTCP", "LTCS", "LTCT", "LTCV", "LTCW", "LTDA", "LTFC", "LTFD", "LTFE", "LTFG", "LTFH", "LTFJ", "LTFM", "LTFO", "LUKK", "LWOH", "LWSK", "LYBE", "LYBT", "LYKV", "LYNI", "LYPG", "LYTV", "LYVR", "LZIB", "LZKZ", "LZMC", "LZPP", "LZPW", "LZSL", "LZTT", "LZZI", "MBGT", "MBPV", "MDBH", "MDCY", "MDJB", "MDLR", "MDPC", "MDPP", "MDSD", "MDST", "MGGT", "MGMM", "MGPB", "MHLC", "MHLM", "MHPR", "MHRO", "MHTG", "MKJP", "MKJS", "MMAA", "MMAN", "MMAS", "MMBT", "MMCB", "MMCE", "MMCL", "MMCM", "MMCN", "MMCP", "MMCS", "MMCU", "MMCV", "MMCZ", "MMDO", "MMEP", "MMGL", "MMGM", "MMHO", "MMIA", "MMIO", "MMLM", "MMLO", "MMLP", "MMLT", "MMMA", "MMMD", "MMML", "MMMM", "MMMT", "MMMV", "MMMX", "MMMY", "MMMZ", "MMNL", "MMOX", "MMPA", "MMPB", "MMPG", "MMPN", "MMPQ", "MMPR", "MMPS", "MMQT", "MMRX", "MMSD", "MMSL", "MMSM", "MMSP", "MMTC", "MMTG", "MMTJ", "MMTM", "MMTO", "MMTP", "MMUN", "MMVA", "MMVR", "MMZC", "MMZH", "MMZO", "MNBL", "MNMG", "MNPC", "MPDA", "MPMG", "MPPA", "MPSM", "MPTO", "MRLB", "MRLM", "MROC", "MRPV", "MSLP", "MSSS", "MTCH", "MTPP", "MUCC", "MUCF", "MUCL", "MUCM", "MUCU", "MUGM", "MUHA", "MUHG", "MUSC", "MUVR", "MWCB", "MWCR", "MYGF", "MYNN", "MZBZ", "NCRG", "NFFN", "NFNA", "NFTF", "NFTV", "NGFU", "NGTA", "NIUE", "NLWF", "NLWW", "NSFA", "NSTU", "NTAA", "NVSC", "NVSG", "NVSL", "NVSP", "NVSS", "NVVA", "NVVV", "NVVW", "NWWD", "NWWE", "NWWK", "NWWL", "NWWM", "NWWR", "NWWU", "NWWW", "NZAA", "NZCH", "NZQN", "NZWN", "OBBI", "OEAB", "OEAH", "OEAO", "OEBA", "OEBH", "OEDF", "OEDM", "OEDR", "OEGN", "OEGS", "OEGT", "OEHL", "OEJN", "OEKJ", "OEKM", "OEMA", "OENG", "OEPA", "OEPS", "OERF", "OERK", "OERR", "OESH", "OESK", "OETB", "OETF", "OETR", "OEWD", "OEWJ", "OEYN", "OIAA", "OIAW", "OIBB", "OIBK", "OIBP", "OICC", "OICI", "OIFM", "OIGG", "OIIE", "OIII", "OIIP", "OIKB", "OIKK", "OIMM", "OING", "OINZ", "OISL", "OISS", "OITL", "OITR", "OITT", "OIYY", "OIZH", "OJAI", "OJAM", "OJAQ", "OKAS", "OLBA", "OMAA", "OMAD", "OMAL", "OMDB", "OMDW", "OMFJ", "OMRK", "OMSJ", "OODQ", "OOMS", "OOSA", "OOSH", "OPBW", "OPDG", "OPFA", "OPGD", "OPIS", "OPKC", "OPLA", "OPMT", "OPNH", "OPPS", "OPRK", "OPSK", "OPST", "ORBI", "ORER", "ORMM", "ORSU", "OSAP", "OSDI", "OSLK", "OTBD", "OTBH", "OTHH", "OYAA", "PAAQ", "PABE", "PABI", "PABR", "PABT", "PACD", "PACV", "PADL", "PADQ", "PADU", "PAED", "PAEI", "PAEN", "PAFA", "PAFB", "PAGA", "PAGK", "PAGS", "PAGY", "PAHN", "PAHO", "PAIL", "PAJN", "PAKN", "PAKT", "PAKW", "PAMC", "PANC", "PAOM", "PAOR", "PAOT", "PAPG", "PAQT", "PASC", "PASD", "PASI", "PASN", "PASY", "PATA", "PATK", "PAUN", "PAVD", "PAWG", "PAYA", "PGRO", "PGSN", "PGUA", "PGUM", "PGWT", "PHHI", "PHJH", "PHJR", "PHKO", "PHLI", "PHMK", "PHNG", "PHNL", "PHNY", "PHOG", "PHTO", "PKMJ", "PKWA", "PLCH", "PMDY", "PTKK", "PTPN", "PTRO", "PTSA", "PTYA", "PWAK", "RCFN", "RCKH", "RCMQ", "RCNN", "RCSS", "RCTP", "RJAA", "RJAH", "RJBB", "RJCB", "RJCC", "RJCH", "RJCK", "RJCM", "RJEC", "RJFF", "RJFK", "RJFM", "RJFO", "RJFR", "RJFS", "RJFT", "RJFU", "RJGG", "RJNK", "RJNS", "RJNT", "RJOA", "RJOB", "RJOC", "RJOH", "RJOI", "RJOK", "RJOM", "RJOO", "RJOT", "RJSA", "RJSF", "RJSI", "RJSK", "RJSN", "RJSS", "RJTT", "RJTY", "RKJB", "RKJK", "RKNN", "RKNW", "RKNY", "RKPC", "RKPK", "RKSG", "RKSI", "RKSM", "RKSO", "RKSS", "RKSW", "RKTE", "RKTI", "RKTN", "RKTP", "RKTU", "RKTY", "ROAH", "RODN", "ROIG", "ROTM", "RPLB", "RPLC", "RPLI", "RPLL", "RPMD", "RPMR", "RPMZ", "RPVD", "RPVM", "RPVP", "SAAR", "SABE", "SACO", "SADF", "SAEZ", "SAME", "SANR", "SANT", "SARC", "SARE", "SARF", "SARI", "SARP", "SASA", "SASJ", "SAVC", "SAVT", "SAWE", "SAWG", "SAWH", "SAZM", "SAZN", "SAZS", "SBAF", "SBAN", "SBAT", "SBBE", "SBBG", "SBBI", "SBBR", "SBBU", "SBBV", "SBBW", "SBCF", "SBCG", "SBCJ", "SBCO", "SBCR", "SBCT", "SBCY", "SBCZ", "SBDN", "SBEG", "SBFI", "SBFL", "SBGO", "SBGR", "SBGW", "SBIH", "SBIL", "SBIZ", "SBJE", "SBJV", "SBKG", "SBKP", "SBMA", "SBME", "SBMN", "SBMQ", "SBNF", "SBNT", "SBOI", "SBPA", "SBPK", "SBPV", "SBRB", "SBSC", "SBSJ", "SBSM", "SBSN", "SBSP", "SBSV", "SBTF", "SBTT", "SBUG", "SBUL", "SBUR", "SBVH", "SBYS", "SCAR", "SCAT", "SCBA", "SCCF", "SCCI", "SCDA", "SCEL", "SCFA", "SCIE", "SCIP", "SCQP", "SCSE", "SCTE", "SCVM", "SEGU", "SELT", "SEMT", "SEQM", "SGAS", "SGCO", "SGEN", "SGES", "SKAR", "SKBG", "SKBO", "SKBQ", "SKCC", "SKCG", "SKCL", "SKLT", "SKPE", "SKRG", "SKSM", "SKSP", "SLAL", "SLCB", "SLCO", "SLET", "SLLP", "SLTJ", "SLTR", "SLVR", "SLYA", "SMJP", "SMZO", "SOCA", "SPCL", "SPEO", "SPGM", "SPHI", "SPHO", "SPJC", "SPJI", "SPJJ", "SPJL", "SPJR", "SPLO", "SPME", "SPMS", "SPNC", "SPPY", "SPQT", "SPQU", "SPRU", "SPSO", "SPST", "SPTN", "SPTU", "SPUR", "SPYL", "SPZO", "SUAA", "SUCA", "SUDU", "SULS", "SUMU", "SURV", "SUSO", "SVBC", "SVJC", "SVMC", "SVMG", "SVMI", "SVPR", "SVSA", "SVVA", "SYCJ", "SYEC", "TAPA", "TBPB", "TDPD", "TFFF", "TFFR", "TGPY", "TIST", "TISX", "TJBQ", "TJPS", "TJSJ", "TKPK", "TKPN", "TLPC", "TLPL", "TNCA", "TNCB", "TNCC", "TNCM", "TQPF", "TRPG", "TTCP", "TTPP", "TUPJ", "TVSA", "TXKF", "UAAA", "UACC", "UADD", "UAII", "UAIT", "UAKK", "UAOO", "UARR", "UASK", "UASP", "UASS", "UATE", "UATG", "UATT", "UAUU", "UBBB", "UBBG", "UBBL", "UBBN", "UBBQ", "UBBY", "UBEE", "UCFL", "UCFM", "UCFO", "UDSG", "UDYZ", "UEEE", "UERP", "UERR", "UGKO", "UGSB", "UGTB", "UHBB", "UHHH", "UHMA", "UHMM", "UHPP", "UHSS", "UHWW", "UIAA", "UIBB", "UIII", "UIUU", "ULLI", "ULMM", "ULOO", "ULPB", "ULWC", "UMBB", "UMGG", "UMKK", "UMMS", "UNAA", "UNBB", "UNEE", "UNKL", "UNNT", "UNOO", "UNTT", "UNWW", "UOOO", "URKA", "URKK", "URMG", "URML", "URMM", "URMN", "URMT", "URRP", "URSS", "URWA", "URWW", "USCC", "USCM", "USHH", "USNN", "USPP", "USRR", "USSS", "USTR", "UTAA", "UTAK", "UTAM", "UTAT", "UTAV", "UTDD", "UTDK", "UTDL", "UTDT", "UTFF", "UTFN", "UTNN", "UTNU", "UTSA", "UTSB", "UTSK", "UTSS", "UTST", "UTTT", "UUBC", "UUBW", "UUDD", "UUDL", "UUEE", "UUMO", "UUOB", "UUOK", "UUOL", "UUOO", "UUWW", "UUYY", "UWGG", "UWKD", "UWKE", "UWKS", "UWLL", "UWLW", "UWOO", "UWOR", "UWPS", "UWSG", "UWUU", "UWWW", "VAAH", "VAAU", "VABB", "VABJ", "VABO", "VABP", "VABV", "VADU", "VAID", "VAJB", "VAJM", "VAKP", "VANP", "VAOZ", "VAPO", "VAPR", "VARK", "VASD", "VASL", "VASU", "VAUD", "VCBI", "VCRI", "VDPP", "VDSR", "VDSV", "VEAB", "VEAT", "VEBD", "VEBN", "VEBS", "VECC", "VECX", "VEGK", "VEGT", "VEIM", "VEJS", "VEJT", "VEKU", "VELP", "VEMN", "VEMR", "VEPT", "VERC", "VETZ", "VGEG", "VGHS", "VHHH", "VIAG", "VIAR", "VIBR", "VIBT", "VIBY", "VICG", "VIDN", "VIDP", "VIGG", "VIGR", "VIJO", "VIJP", "VIJR", "VIJU", "VILH", "VILK", "VISM", "VISP", "VISR", "VIUT", "VLLB", "VLLN", "VLPS", "VLSK", "VLVT", "VMMC", "VNKT", "VOBG", "VOBL", "VOBM", "VOBZ", "VOCB", "VOCI", "VOCL", "VOCP", "VOGB", "VOHB", "VOHS", "VOHY", "VOJV", "VOKN", "VOKU", "VOLT", "VOMD", "VOML", "VOMM", "VOMY", "VOND", "VORY", "VOTK", "VOTP", "VOTR", "VOTV", "VOVZ", "VRMG", "VRMH", "VRMM", "VTBD", "VTBO", "VTBS", "VTBU", "VTCC", "VTCH", "VTCL", "VTCN", "VTCP", "VTCT", "VTPB", "VTPH", "VTPM", "VTPO", "VTPP", "VTPT", "VTSB", "VTSC", "VTSE", "VTSF", "VTSG", "VTSM", "VTSP", "VTSR", "VTSS", "VTST", "VTSY", "VTUD", "VTUI", "VTUK", "VTUL", "VTUO", "VTUQ", "VTUU", "VTUV", "VTUW", "VVCI", "VVCR", "VVCT", "VVDN", "VVNB", "VVPB", "VVPQ", "VVTS", "VVVD", "VYMD", "VYNT", "VYYY", "WAAA", "WABB", "WADD", "WADL", "WALL", "WALS", "WAMM", "WAOO", "WAPP", "WAQA", "WAQD", "WAQJ", "WAQQ", "WAQT", "WARR", "WATT", "WBGB", "WBGG", "WBGR", "WBGS", "WBKK", "WBKL", "WBKS", "WBKW", "WBSB", "WIDD", "WIEE", "WIHH", "WIII", "WIMM", "WIPB", "WIPP", "WIPY", "WITT", "WMAP", "WMBT", "WMKA", "WMKB", "WMKC", "WMKE", "WMKI", "WMKJ", "WMKK", "WMKL", "WMKM", "WMKN", "WMKP", "WMPA", "WMSA", "WPDL", "WSAP", "WSSL", "WSSS", "YAMB", "YBAS", "YBBN", "YBCG", "YBCS", "YBHM", "YBLN", "YBMA", "YBRK", "YBRM", "YBSU", "YBTL", "YBWW", "YCFS", "YCIN", "YFRT", "YGEL", "YGLA", "YHID", "YLHI", "YMAV", "YMHB", "YMLT", "YMML", "YPAD", "YPCC", "YPDN", "YPEA", "YPGV", "YPJT", "YPKG", "YPKU", "YPLM", "YPPD", "YPPH", "YPTN", "YPWR", "YPXM", "YSCB", "YSDU", "YSNF", "YSRI", "YSSY", "YSTW", "YWLM", "ZBAA", "ZBAD", "ZBHH", "ZBSJ", "ZBTJ", "ZBYN", "ZGGG", "ZGHA", "ZGKL", "ZGNN", "ZGOW", "ZGSZ", "ZHCC", "ZHHH", "ZJHK", "ZJSY", "ZKPY", "ZKWS", "ZLLL", "ZLXY", "ZMCK", "ZMUB", "ZPPP", "ZSAM", "ZSFZ", "ZSHC", "ZSJN", "ZSNB", "ZSNJ", "ZSOF", "ZSPD", "ZSQD", "ZSSS", "ZUCK", "ZUGY", "ZUUU", "ZWSH", "ZWWW", "ZYCC", "ZYHB", "ZYTL", "ZYTX"], "raw_text": ["TAF AGGA 052310Z 0600/0624 07008KT 9999 SCT020 Q 1007 1005 1004 1006", "TAF AGGC 052310Z 0600/0624 12010KT 9999 SCT020 PROB40 INTER 0602/0607 8000 -TSRA BKN016 FEW017CB Q 1008 1006 1005 1007", "TAF AGGH 052310Z 0600/0624 07010KT 9999 FEW019 SCT030 T 32 33 31 29 Q 1008 1006 1005 1007", "TAF AGGK 052310Z 0600/0624 07010KT 9999 SCT018 SCT030 PROB40 INTER 0602/0606 8000 -TSRA BKN016 FEW017CB", "TAF AGGL 052310Z 0600/0624 11010KT 9999 SCT018 SCT030 PROB40 INTER 0602/0607 5000 -TSRA BKN015 FEW016CB Q 1008 1006 1005 1007", "TAF AGGM 052310Z 0600/0624 09010KT 9999 SCT020 PROB40 INTER 0603/0607 8000 -TSRA BKN016 FEW017CB Q 1007 1005 1004 1006", "TAF AGGN 052310Z 0600/0624 11010KT 9999 SCT020 PROB40 INTER 0602/0607 8000 -TSRA BKN016 FEW017CB Q 1007 1005 1004 1006", "TAF AGGR 052310Z 0600/0624 11015KT 9999 SCT019 Q 1010 1008 1007 1009", "TAF ANYN 052241Z 0600/0700 04006KT 9999 FEW020 SCT100 T 30 29 28 27 Q 1009 1007 1008 1010", "TAF AYPY 052230Z 0600/0700 10007KT 9999 FEW010 SCT130 FM060200 11006KT 9999 -SHRA SCT018 BKN120 PROB30 INTER 0604/0610 5000 TSRA BKN010 FEW018CB", "TAF BGGH 052004Z 0521/0601 01010KT 9999 FEW010 BKN180", "TAF BGSF 052300Z 0600/0701 VRB05KT 9999 BKN100 BECMG 0600/0603 BKN060 BECMG 0604/0607 -SN BKN020 TEMPO 0607/0613 FEW020 BKN040 BECMG 0613/0616 BKN040 TEMPO 0618/0621 22015KT SCT040 BECMG 0621/0624 SCT040", "TAF AMD BGTL 051956Z 0519/0701 09012KT 9999 FEW020 SCT050 QNH2985INS BECMG 0523/0524 VRB06KT 9999 SKC QNH2973INS TXM01/0520Z TNM15/0608Z LAST NO AMDS AFT 0519 NEXT 0611", "TAF BIAR 052253Z 0600/0700 34008KT 9999 SCT055 TX11/0615Z TN04/0606Z PROB40 TEMPO 0622/0700 1500 BR OVC004", "TAF BIEG 052253Z 0600/0700 19012KT 9999 SCT030 TX12/0615Z TN03/0604Z", "TAF BIKF 052253Z 0600/0700 12012KT 9999 FEW015 BKN030 TX10/0618Z TN05/0606Z BECMG 0603/0605 04008KT BECMG 0621/0623 10014KT TEMPO 0622/0700 2500 -DZRA BR OVC006", "TAF BIRK 052253Z 0600/0700 11010KT 9999 SCT020 BKN030 TX11/0612Z TN04/0606Z BECMG 0610/0612 34008KT BECMG 0619/0621 11010KT", "TAF BKPR 052330Z 0600/0624 01006KT CAVOK", "TAF CBBC 051840Z 0519/0605 VRB03KT P6SM -RA SCT008 OVC020 TEMPO 0519/0605 3SM SHRA BR BKN008 OVC020 RMK FCST BASED ON AUTO OBS. NXT FCST BY 060100Z", "TAF CWWU 051800Z 0518/0618 01021G33KT 2SM -SHRA BR OVC006 FM052300 36018G30KT P6SM BKN010 OVC020 FM060400 35016G26KT P6SM BKN007 OVC015 TEMPO 0608/0612 3SM -SHRASN BR BKN005 OVC010 FM061300 34013G22KT P6SM BKN010 OVC020 RMK NXT FCST BY 060000Z", "TAF CYAM 051940Z 0520/0608 12010KT P6SM BKN030 TEMPO 0520/0521 P6SM -SHRA OVC025 FM052100 12010KT P6SM -SHRA OVC025 TEMPO 0521/0608 5SM -SHRA BR BKN006 OVC012 BECMG 0600/0602 08008KT RMK NXT FCST BY 060200Z", "TAF CYAW 051740Z 0518/0606 35015G25KT P6SM BKN020 BECMG 0518/0519 SCT030 FM052100 35012G22KT P6SM FEW180 BECMG 0522/0524 35010KT FM060200 34005KT P6SM SCT150 RMK NXT FCST BY 060000Z", "TAF CYAY 051940Z 0520/0608 02012G22KT P6SM BKN040 TEMPO 0520/0603 P6SM -SHRA BKN020 FM060300 33015G25KT P6SM BKN030 TEMPO 0603/0608 5SM -SN BR OVC015 RMK FCST BASED ON AUTO OBS. NXT FCST BY 060200Z", "TAF AMD CYAZ 052051Z 0520/0601 28008KT P6SM SCT008 OVC030 TEMPO 0520/0601 5SM -RA BR BKN008 OVC025 RMK NXT FCST BY 061500Z", "TAF CYBC 051940Z 0520/0608 23010KT P6SM SCT180 BECMG 0602/0604 33010KT FM060400 33010KT P6SM SKC RMK FCST BASED ON AUTO OBS. NXT FCST BY 060200Z", "TAF CYBG 052340Z 0600/0624 29008KT P6SM FEW080 SCT220 FM060600 27005KT P6SM BKN200 PROB30 0608/0611 2SM BR FM061500 29010KT P6SM FEW060 FM062100 31015KT P6SM BKN070 RMK NXT FCST BY 060300Z", "TAF CYBL 051840Z 0519/0604 09006KT 1SM -RA BR OVC004 TEMPO 0519/0604 6SM -RA BR SCT004 OVC010 RMK NXT FCST BY 060100Z", "TAF CYBR 052340Z 0600/0612 08012G22KT P6SM BKN080 FM060700 06012KT P6SM FEW060 RMK NXT FCST BY 060600Z", "TAF CYBW 052340Z 0600/0604 10015G25KT P6SM SKC BECMG 0601/0603 09015KT RMK FCST BASED ON AUTO OBS. NXT FCST BY 061200Z", "TAF CYBX 051940Z 0520/0608 02008KT P6SM SCT050 TEMPO 0520/0521 BKN050 FM052100 01012KT P6SM BKN030 TEMPO 0521/0608 BKN015 RMK NXT FCST BY 060200Z", "TAF CYCA 051940Z 0520/0608 34012G22KT P6SM SCT007 OVC025 TEMPO 0520/0524 3SM -SNRA BR BKN007 OVC020 FM060000 34012G22KT P6SM OVC015 TEMPO 0600/0608 2SM -SN OVC006 PROB30 0600/0608 1 1/2SM -FZDZ BR RMK FCST BASED ON AUTO OBS. NXT FCST BY 060200Z", "TAF CYCB 051840Z 0519/0607 29010KT P6SM FEW010 BECMG 0519/0521 VRB03KT FM060200 14008KT P6SM FEW012 BKN080 RMK NXT FCST BY 060100Z", "TAF CYCD 052340Z 0600/0604 VRB03KT 6SM -RA BR OVC025 TEMPO 0600/0604 2SM -RA BR OVC007 RMK NXT FCST BY 061500Z", "TAF AMD CYCG 052318Z 0523/0604 VRB03KT P6SM SCT020 BKN080 TEMPO 0523/0604 5SM -SHRA BR BKN020 OVC050 PROB30 0523/0604 VRB15G25KT 2SM TSRA BR OVC020CB RMK NXT FCST BY 060100Z", "TAF CYCO 051840Z 0519/0607 16010KT P6SM FEW080 BKN100 TEMPO 0519/0601 P6SM -SHRA BKN060 FM060100 14006KT P6SM BKN100 RMK NXT FCST BY 060100Z", "TAF CYCX 052040Z 0521/0609 05008KT P6SM FEW040 FEW200 FM052200 05008KT P6SM FEW050 BKN200 BECMG 0522/0524 VRB03KT FM060500 28005KT P6SM FEW200 RMK NXT FCST BY 060300Z", "TAF AMD CYCY 052214Z 0522/0607 28010KT P6SM SCT015 BKN050 TEMPO 0522/0524 5SM -SN BR BKN015 OVC050 FM060000 31015G25KT P6SM -SN SCT008 BKN025 TEMPO 0600/0603 2SM -SN BKN008 OVC025 BECMG 0601/0603 32028G38KT FM060300 32028G38KT 3SM -SN SCT005 BKN010 TEMPO 0603/0607 1SM -SN BLSN VV005 PROB30 0603/0607 1/2SM -SN BLSN RMK FCST BASED ON AUTO OBS. NXT FCST BY 060100Z", "TAF CYDB 052340Z 0600/0612 12008KT P6SM SCT180 BECMG 0604/0606 VRB03KT RMK FCST BASED ON AUTO OBS. NXT FCST BY 060600Z", "TAF CYDF 051940Z 0520/0608 03010G20KT P6SM FEW050 FEW250 FM052100 VRB03KT P6SM SCT040 TEMPO 0521/0603 BKN040 FM060300 VRB03KT P6SM OVC025 TEMPO 0603/0606 4SM -SNRA BR OVC010 FM060600 03008KT P6SM OVC025 TEMPO 0606/0608 P6SM -SN OVC015 RMK NXT FCST BY 060200Z", "TAF CYDN 052340Z 0600/0612 08012G22KT P6SM BKN070 FM060400 09010KT P6SM BKN060 TEMPO 0604/0612 SCT060 RMK FCST BASED ON AUTO OBS. NXT FCST BY 060600Z", "TAF AMD CYDQ 060007Z 0600/0605 11025G35KT P6SM FEW100 TEMPO 0600/0605 3SM FU HZ BECMG 0602/0604 11015G25KT RMK FCST BASED ON AUTO OBS. NXT FCST BY 060100Z", "TAF CYED 051740Z 0518/0606 12015G25KT P6SM FEW250 BECMG 0604/0606 10015KT RMK NXT FCST BY 060000Z", "TAF CYEG 052340Z 0600/0624 10020G30KT P6SM SCT270 BECMG 0601/0603 10015G25KT FM060300 10015G25KT P6SM SKC BECMG 0604/0606 10015KT FM061600 12018G28KT P6SM SCT070 FM062100 10015G25KT P6SM SCT090 RMK NXT FCST BY 060300Z", "TAF CYEK 052340Z 0600/0612 20010KT P6SM SKC FM060200 18008KT P6SM SKC PROB40 0604/0609 1SM BR FM060900 06005KT 1/2SM -FZDZ FZFG BKN002 OVC008 TEMPO 0609/0612 2SM BR SCT002 BKN008 RMK FCST BASED ON AUTO OBS. NXT FCST BY 060600Z", "TAF CYEU 052340Z 0600/0602 09007KT P6SM SCT008 TEMPO 0600/0602 2SM BR BKN008 RMK ADVISORY OFFSITE. NXT FCST BY 061100Z", "TAF CYEV 051840Z 0519/0607 30006KT P6SM FEW060 FM060100 03006KT P6SM SCT008 TEMPO 0601/0607 BKN008 RMK NXT FCST BY 060100Z", "TAF CYFB 052340Z 0600/0624 33010KT P6SM SCT020 BKN040 OVC080 FM060020 32015KT P6SM SCT012 BKN025 TEMPO 0600/0624 5SM -SN BKN012 BECMG 0607/0609 33022G32KT RMK NXT FCST BY 060600Z", "TAF CYFC 052340Z 0600/0612 VRB03KT P6SM BKN230 FM060300 30005KT P6SM SKC FM061100 34010KT P6SM SCT060 RMK FCST BASED ON AUTO OBS. NXT FCST BY 060600Z", "TAF CYFS 052340Z 0600/0612 VRB03KT P6SM SCT130 TEMPO 0600/0602 P6SM -SHRA VCTS BKN080CB FM060200 09005KT P6SM FEW120 RMK NXT FCST BY 060600Z", "TAF CYGK 051940Z 0520/0603 18007KT P6SM SCT050 BECMG 0522/0524 VRB03KT RMK NXT FCST BY 061200Z", "TAF CYGL 052340Z 0600/0624 35012G22KT P6SM FEW060 SCT220 BECMG 0602/0604 34008KT FM060400 34008KT P6SM SKC FM061600 32012KT P6SM SCT040 RMK NXT FCST BY 060600Z", "TAF CYGP 051940Z 0520/0608 34005KT P6SM FEW080 SCT220 FM060600 35005KT P6SM BKN060 RMK NXT FCST BY 060200Z", "TAF CYGQ 051940Z 0520/0608 10012KT P6SM SCT020 BKN040 OVC090 FM060100 07005KT P6SM BKN040 FM060400 07005KT P6SM FEW020 BKN040 TEMPO 0604/0606 5SM BR BKN020 FM060600 07005KT 6SM BR FEW007 BKN025 TEMPO 0606/0608 3SM BR BKN007 OVC025 PROB30 0607/0608 1SM BR OVC004 RMK FCST BASED ON AUTO OBS. NXT FCST BY 060200Z", "TAF CYGR 051940Z 0520/0602 36015G25KT P6SM FEW015 FEW220 BECMG 0520/0522 32015G25KT RMK NXT FCST BY 061100Z", "TAF CYGV 051940Z 0520/0608 27012G22KT P6SM BKN180 FM052300 32010KT P6SM FEW180 FM060200 01008KT P6SM SCT080 BECMG 0602/0604 02010G20KT RMK FCST BASED ON AUTO OBS. NXT FCST BY 060200Z", "TAF CYGW 052340Z 0600/0612 30005KT P6SM SKC TEMPO 0600/0606 2 1/2SM BR FM060600 28005KT 2SM BR SCT006 PROB30 0606/0612 3/4SM BR RMK FCST BASED ON AUTO OBS. NXT FCST BY 060600Z", "TAF CYGX 051840Z 0519/0607 06010KT P6SM FEW040 RMK NXT FCST BY 060100Z", "TAF CYHD 051940Z 0520/0608 09012G22KT P6SM BKN060 TEMPO 0520/0524 P6SM -SHRA BKN050 BECMG 0522/0524 09010KT FM060500 09008KT P6SM FEW050 RMK FCST BASED ON AUTO OBS. NXT FCST BY 060200Z", "TAF CYHK 052340Z 0600/0612 30015KT P6SM OVC010 TEMPO 0600/0607 3SM BR BKN008 FM060700 27008KT P6SM OVC008 TEMPO 0607/0612 2SM BR OVC006 RMK FCST BASED ON AUTO OBS. NXT FCST BY 060600Z", "TAF CYHM 052340Z 0600/0624 05008KT P6SM FEW030 FM060600 VRB03KT P6SM SKC PROB30 0608/0612 1SM BR FM061500 05008KT P6SM SKC RMK NXT FCST BY 060600Z", "TAF CYHU 052340Z 0600/0624 30005KT P6SM FEW050 BECMG 0601/0603 26008KT BECMG 0616/0618 31010KT FM062000 30012KT P6SM BKN050 RMK FCST BASED ON AUTO OBS. NXT FCST BY 060600Z", "TAF CYHY 052340Z 0600/0612 06010G20KT P6SM BKN160 BECMG 0600/0602 VRB03KT FM060900 13008KT P6SM SKC TEMPO 0609/0612 4SM FU RMK NXT FCST BY 060600Z", "TAF CYHZ 052340Z 0600/0624 35012G22KT P6SM SCT210 FM060500 31008KT P6SM FEW070 FM061400 33015G25KT P6SM SCT070 FM062000 35015KT P6SM FEW030 BECMG 0622/0624 36010KT RMK NXT FCST BY 060300Z", "TAF CYIO 051841Z 0519/0607 24010KT P6SM SCT012 BKN030 OVC100 TEMPO 0519/0522 2SM -SN BKN012 OVC030 FM052200 20008KT P6SM SCT020 BKN040 TEMPO 0522/0607 BKN020 OVC040 RMK NXT FCST BY 060100Z", "TAF CYIV 051840Z 0519/0607 12010G20KT P6SM BKN060 FM060300 08005KT P6SM FEW060 RMK FCST BASED ON AUTO OBS. NXT FCST BY 060100Z", "TAF CYJT 052340Z 0600/0624 35005KT P6SM SCT120 BKN220 FM060200 VRB03KT P6SM BKN060 TEMPO 0602/0608 SCT060 FM060800 04008KT P6SM BKN025 TEMPO 0608/0612 BKN020 FM061200 03012KT P6SM BKN030 BECMG 0613/0615 34012KT FM062000 33012KT P6SM FEW025 RMK NXT FCST BY 060600Z", "TAF AMD CYKA 052006Z 0520/0607 29012KT P6SM SCT060 BKN110 TEMPO 0520/0604 P6SM -SHRA VCTS BKN050CB BECMG 0601/0603 09010KT FM060400 09006KT P6SM SCT030 BKN050 TEMPO 0604/0607 P6SM -SHRA BKN030 RMK NXT FCST BY 060100Z", "TAF CYKF 051940Z 0520/0608 10008KT P6SM BKN050 FM060100 09005KT P6SM FEW050 PROB30 0607/0608 1 1/2SM BR RMK FCST BASED ON AUTO OBS. NXT FCST BY 060200Z", "TAF CYKL 051940Z 0520/0608 33012G22KT P6SM FEW040 BECMG 0520/0522 01010KT FM060300 VRB03KT P6SM SCT040 TEMPO 0603/0608 BKN040 RMK FCST BASED ON AUTO OBS. NXT FCST BY 060200Z", "TAF CYLD 051940Z 0520/0601 10008KT P6SM BKN040 OVC120 TEMPO 0520/0521 P6SM -SHRA FM052100 14008KT P6SM OVC025 TEMPO 0521/0601 5SM -SHRA BR SCT006 OVC020 BECMG 0522/0524 08005KT RMK NXT FCST BY 061200Z", "TAF CYLL 052340Z 0600/0612 11015G25KT P6SM FEW070 FEW270 BECMG 0604/0606 10015KT RMK NXT FCST BY 060600Z", "TAF CYLT 051740Z 0518/0606 33005KT 2SM -SN BR OVC006 TEMPO 0518/0606 6SM -SN OVC015 RMK NXT FCST BY 060000Z", "TAF CYLW 051840Z 0519/0607 17008KT P6SM SCT050 BKN100 TEMPO 0519/0604 5SM -SHRA BR VCTS BKN040CB FM060400 17006KT P6SM SCT008 BKN040 TEMPO 0604/0607 2SM -SHRA BR BKN008 OVC015 RMK FCST BASED ON AUTO OBS. NXT FCST BY 060100Z", "TAF CYMA 052340Z 0600/0612 VRB03KT P6SM FEW030 SCT160 FM060600 03006KT P6SM FEW020 BKN080 TEMPO 0606/0612 P6SM -RA BKN020 RMK NXT FCST BY 060600Z", "TAF CYMH 051940Z 0520/0603 01012G22KT P6SM SCT040 TEMPO 0520/0521 P6SM -RA OVC020 FM052100 34012G25KT 5SM -RASN BR OVC015 TEMPO 0521/0524 P6SM NSW OVC025 FM060000 34012G25KT 2SM -SN OVC008 TEMPO 0600/0603 P6SM -SN OVC012 RMK FCST BASED ON AUTO OBS. NXT FCST BY 060900Z", "TAF AMD CYMJ 052350Z 0600/0612 10020G35KT P6SM SCT080 TEMPO 0600/0605 BKN080 BECMG 0603/0605 10015KT RMK NXT FCST BY 060600Z", "TAF CYMM 051840Z 0519/0607 12012G22KT P6SM SKC BECMG 0600/0602 12008KT FM060200 12008KT P6SM SKC RMK FCST BASED ON AUTO OBS. NXT FCST BY 060100Z", "TAF CYMO 052340Z 0600/0612 04008KT P6SM SCT100 FM060300 VRB03KT P6SM FEW050 FM060500 31006KT P6SM SKC PROB30 0605/0611 2SM BR RMK FCST BASED ON AUTO OBS. NXT FCST BY 060600Z", "TAF CYMX 052340Z 0600/0624 VRB03KT P6SM FEW050 BECMG 0600/0602 30005KT BECMG 0616/0618 31008KT FM062000 31008KT P6SM BKN050 RMK NXT FCST BY 060600Z", "TAF CYNA 051940Z 0520/0608 27012G22KT P6SM SCT220 BECMG 0523/0601 02010KT FM060100 02010KT P6SM SKC BECMG 0601/0603 02012G22KT RMK FCST BASED ON AUTO OBS. NXT FCST BY 060200Z", "TAF CYND 051740Z 0518/0601 13008KT P6SM SCT040 TEMPO 0518/0520 BKN040 FM052000 05007KT P6SM BKN050 BECMG 0523/0601 01005KT RMK NXT FCST BY 061300Z", "TAF CYNE 051840Z 0519/0607 10010G20KT P6SM SCT060 BECMG 0600/0602 09006KT RMK FCST BASED ON AUTO OBS. NXT FCST BY 060100Z", "TAF CYOC 051840Z 0519/0601 05008KT P6SM FEW080 RMK NXT FCST BY 061500Z", "TAF CYOD 052340Z 0600/0624 10015G25KT P6SM FEW050 FEW250 BECMG 0601/0603 10010KT FM061800 10012G22KT P6SM SCT080 RMK NXT FCST BY 060300Z", "TAF CYOJ 051840Z 0519/0607 12012KT P6SM BKN260 FM060300 13008KT P6SM SKC RMK NXT FCST BY 060100Z", "TAF CYOO 051940Z 0520/0608 16005KT P6SM BKN060 FM060000 VRB03KT P6SM FEW050 PROB30 0607/0608 1 1/2SM BR RMK FCST BASED ON AUTO OBS. NXT FCST BY 060200Z", "TAF CYOW 052340Z 0600/0624 31005KT P6SM SCT050 FM060300 27005KT P6SM FEW050 FM060600 29008KT 6SM BR FEW050 PROB30 0606/0611 1SM BR FM061200 30008KT P6SM FEW050 FM062000 30010KT P6SM BKN050 RMK NXT FCST BY 060300Z", "TAF CYOY 051740Z 0518/0606 27005KT P6SM BKN030 BKN090 BECMG 0518/0520 BKN050 BKN080 BECMG 0522/0524 SCT050 SCT250 FM060000 VRB03KT P6SM FEW050 SCT240 RMK NXT FCST BY 060000Z", "TAF CYPA 051840Z 0519/0607 11020G30KT P6SM BKN060 TEMPO 0519/0604 SCT060 BECMG 0600/0602 10015KT FM060400 10012KT P6SM FEW060 RMK NXT FCST BY 060100Z", "TAF CYPE 051840Z 0519/0607 14015G25KT P6SM FEW250 BECMG 0600/0602 12008KT FM060200 12008KT P6SM SKC RMK NXT FCST BY 060100Z", "TAF CYPG 051740Z 0518/0606 07012KT P6SM FEW050 FM052000 07012KT P6SM BKN060 TEMPO 0522/0604 P6SM -SHRA RMK NXT FCST BY 060000Z", "TAF CYPH 052340Z 0600/0612 01010KT P6SM SKC FM060300 34008KT P6SM FEW006 TEMPO 0603/0607 2SM BR BKN006 FM060700 32010KT 1SM BR OVC005 TEMPO 0607/0612 5SM BR SCT005 PROB30 0607/0611 1/2SM FZFG OVC002 RMK FCST BASED ON AUTO OBS. NXT FCST BY 060600Z", "TAF CYPL 051940Z 0520/0608 12012KT P6SM SCT050 BKN080 FM060100 09008KT P6SM BKN050 FM060500 09005KT P6SM FEW008 BKN025 TEMPO 0605/0608 3SM BR BKN008 BKN015 RMK FCST BASED ON AUTO OBS. NXT FCST BY 060200Z", "TAF CYPQ 051940Z 0520/0602 VRB03KT P6SM BKN060 FM060100 VRB03KT P6SM SCT060 RMK FCST BASED ON AUTO OBS. NXT FCST BY 061000Z", "TAF AMD CYPR 052053Z 0520/0607 VRB03KT 6SM -RA BR FEW005 SCT015 OVC030 TEMPO 0520/0607 4SM RA BR BKN005 OVC015 RMK FCST BASED ON AUTO OBS. NXT FCST BY 060100Z", "TAF AMD CYPX 052348Z 0600/0612 30012KT 1/2SM -FZDZ FZFG BKN002 OVC008 TEMPO 0600/0612 3SM BR SCT002 BKN008 RMK FCST BASED ON AUTO OBS. NXT FCST BY 060600Z", "TAF CYPY 052340Z 0600/0606 10008KT P6SM SCT120 BKN220 TEMPO 0600/0606 4SM FU HZ RMK FCST BASED ON AUTO OBS. NXT FCST BY 061200Z", "TAF CYQA 051940Z 0520/0602 VRB03KT P6SM BKN060 FM060100 VRB03KT P6SM SCT060 RMK FCST BASED ON AUTO OBS. NXT FCST BY 061200Z", "TAF CYQB 052340Z 0600/0624 VRB03KT P6SM SCT030 SCT080 TEMPO 0600/0602 BKN030 FM060300 31005KT P6SM FEW050 PROB30 0608/0611 2SM BR FM061700 28008KT P6SM SCT050 RMK NXT FCST BY 060600Z", "TAF CYQD 051840Z 0519/0607 10012G22KT P6SM FEW060 BECMG 0600/0602 08006KT RMK FCST BASED ON AUTO OBS. NXT FCST BY 060100Z", "TAF CYQF 052340Z 0600/0612 09015G25KT P6SM SKC BECMG 0606/0608 10012KT RMK FCST BASED ON AUTO OBS. NXT FCST BY 060600Z", "TAF CYQG 052340Z 0600/0624 10008KT P6SM FEW250 FM061800 11012KT P6SM BKN170 FM062300 10010KT P6SM BKN090 RMK FCST BASED ON AUTO OBS. NXT FCST BY 060600Z", "TAF CYQH 052340Z 0600/0612 10012KT P6SM FEW100 TEMPO 0600/0610 P6SM -SHRA BKN050 FM061000 09008KT P6SM FEW080 RMK NXT FCST BY 060600Z", "TAF CYQI 052340Z 0600/0612 02012KT P6SM FEW250 BECMG 0602/0604 31005KT FM060600 28006KT P6SM FEW060 RMK NXT FCST BY 060600Z", "TAF CYQK 051940Z 0520/0608 11015G25KT P6SM BKN050 TEMPO 0521/0601 P6SM -SHRA BECMG 0521/0523 11012G22KT FM060100 09010KT P6SM BKN050 FM060500 08008KT P6SM SCT050 RMK NXT FCST BY 060200Z", "TAF CYQL 052340Z 0600/0612 07015G25KT P6SM BKN100 BECMG 0601/0603 06015KT FM060400 06012KT P6SM SCT100 FM060900 12012KT P6SM BKN100 TEMPO 0609/0611 P6SM -SHRA FM061100 06006KT 4SM -SHRA BR BKN012 OVC040 RMK NXT FCST BY 060600Z", "TAF CYQM 052340Z 0600/0624 VRB03KT P6SM FEW100 BKN240 BECMG 0600/0602 25006KT FM060800 26008KT P6SM SCT060 BECMG 0610/0612 33010KT FM061400 01012G22KT P6SM BKN030 FM062000 02010KT P6SM FEW030 BECMG 0622/0624 09006KT RMK NXT FCST BY 060600Z", "TAF CYQQ 052340Z 0600/0624 14012KT P6SM -RA SCT008 OVC025 TEMPO 0600/0602 3SM -RA BR OVC008 FM060300 14010KT P6SM BKN030 OVC060 BECMG 0605/0607 VRB03KT FM061000 VRB03KT P6SM SCT008 BKN015 OVC060 FM061500 12010KT P6SM SCT015 BKN050 RMK NXT FCST BY 060600Z", "TAF CYQR 052340Z 0600/0624 10015G25KT P6SM BKN080 FM060400 10015KT P6SM FEW060 FM061800 09020G30KT P6SM BKN060 OVC180 TEMPO 0622/0624 P6SM -SHRA RMK NXT FCST BY 060600Z", "TAF CYQT 051940Z 0520/0608 10012G22KT P6SM FEW040 BKN060 TEMPO 0520/0523 P6SM -SHRA BKN040 OVC060 BECMG 0521/0523 08012KT FM052300 08012KT P6SM BKN040 TEMPO 0523/0602 BKN020 FM060200 08008KT 6SM BR SCT006 OVC020 TEMPO 0602/0604 3SM -DZ BR BKN006 OVC020 FM060400 08008KT 5SM -RA BR SCT005 OVC012 TEMPO 0604/0608 2SM -DZ BR OVC005 RMK NXT FCST BY 060200Z", "TAF CYQU 051840Z 0519/0607 13020G30KT P6SM BKN100 TEMPO 0519/0603 2SM FU HZ VV012 FM060300 11015G25KT P6SM SCT100 TEMPO 0603/0607 5SM FU HZ RMK NXT FCST BY 060100Z", "TAF CYQV 052340Z 0600/0606 09015G25KT P6SM BKN080 FM060300 09010KT P6SM SCT080 RMK FCST BASED ON AUTO OBS. NXT FCST BY 061200Z", "TAF CYQW 052340Z 0600/0612 10020G30KT P6SM FEW080 TEMPO 0600/0606 BKN080 FM060600 10015G25KT P6SM SCT070 RMK FCST BASED ON AUTO OBS. NXT FCST BY 060600Z", "TAF CYQX 052340Z 0600/0624 36015G25KT P6SM SCT012 BKN040 TEMPO 0600/0602 6SM -RASN BR SCT006 OVC012 PROB30 0601/0602 4SM -FZDZ BR BKN006 OVC012 FM060200 35015G25KT 4SM -SN BR BKN006 OVC012 TEMPO 0602/0615 P6SM NSW SCT006 OVC012 PROB40 0602/0612 3SM -FZDZ BR OVC004 FM061500 35015KT 5SM -RASN BR BKN006 OVC012 RMK NXT FCST BY 060600Z", "TAF CYQY 052340Z 0600/0612 35010G20KT P6SM BKN240 BECMG 0602/0604 32008KT BECMG 0604/0606 26008KT FM061000 28008KT P6SM SCT060 TEMPO 0610/0612 BKN060 BECMG 0610/0612 35015G25KT RMK NXT FCST BY 060600Z", "TAF AMD CYQZ 060026Z 0600/0606 17015G25KT P6SM FEW070 BKN250 TEMPO 0600/0602 P6SM -TSRA SCT060CB FM060200 15006KT P6SM FEW030 BKN060 TEMPO 0602/0606 P6SM -SHRA SCT015 BKN050 RMK FCST BASED ON AUTO OBS. NXT FCST BY 060100Z", "TAF CYRB 052340Z 0600/0624 34015KT P6SM SCT008 BKN200 FM060300 30008KT P6SM SCT008 BKN015 TEMPO 0603/0613 2SM BR BKN008 OVC015 FM061300 20008KT P6SM -SN SCT005 BKN010 OVC060 TEMPO 0613/0621 2SM -SN BR BKN005 OVC010 BECMG 0619/0621 34012KT FM062100 34012KT P6SM -SN SCT008 BKN015 TEMPO 0621/0624 3SM -SN BKN008 OVC015 RMK NXT FCST BY 060600Z", "TAF CYRJ 051940Z 0520/0602 VRB03KT P6SM FEW060 BECMG 0520/0522 32008KT FM052200 32008KT P6SM BKN050 RMK NXT FCST BY 061200Z", "TAF CYRL 051940Z 0520/0602 08010G20KT P6SM BKN050 TEMPO 0520/0523 P6SM -SHRA BECMG 0521/0523 09010KT RMK NXT FCST BY 061100Z", "TAF CYRQ 051940Z 0520/0608 VRB03KT P6SM SCT050 TEMPO 0520/0524 BKN050 BECMG 0603/0605 30007KT RMK FCST BASED ON AUTO OBS. NXT FCST BY 060200Z", "TAF CYRT 052346Z 0600/0612 VRB03KT P6SM FEW020 SCT140 TEMPO 0600/0602 3SM BR BKN020 FM060200 35008KT 3SM BR SCT004 BKN020 TEMPO 0602/0612 1SM BR BKN004 OVC020 PROB30 0602/0612 1/2SM FZFG BKN002 RMK NXT FCST BY 060600Z", "TAF CYSB 051940Z 0520/0608 11007KT P6SM BKN050 FM060100 05005KT P6SM SCT050 PROB30 0607/0608 1SM BR RMK NXT FCST BY 060200Z", "TAF CYSC 052340Z 0600/0603 32006KT P6SM BKN080 FM060200 VRB03KT P6SM FEW080 RMK FCST BASED ON AUTO OBS. NXT FCST BY 061100Z", "TAF CYSF 052340Z 0600/0612 12012KT P6SM SKC BECMG 0601/0603 15008KT FM061100 VRB03KT P6SM SKC RMK FCST BASED ON AUTO OBS. NXT FCST BY 060600Z", "TAF CYSJ 052340Z 0600/0612 20008KT P6SM FEW240 BECMG 0600/0602 VRB03KT BECMG 0604/0606 28005KT FM061000 35010KT P6SM SKC RMK NXT FCST BY 060600Z", "TAF CYSM 052340Z 0600/0612 14012KT P6SM SCT150 BECMG 0602/0604 14008KT FM060800 14008KT P6SM SKC RMK NXT FCST BY 060600Z", "TAF CYSN 051940Z 0520/0601 04012KT P6SM FEW030 BECMG 0523/0601 02005KT RMK NXT FCST BY 061300Z", "TAF AMD CYTE 052257Z 0522/0607 28015G25KT P6SM SCT008 BKN025 TEMPO 0522/0607 2SM BR BKN008 OVC025 RMK NXT FCST BY 060100Z", "TAF CYTH 051840Z 0519/0607 09010KT P6SM FEW050 RMK NXT FCST BY 060100Z", "TAF CYTL 051940Z 0520/0608 14008KT P6SM BKN050 FM060100 09008KT P6SM FEW050 PROB30 0606/0608 1/2SM FG RMK FCST BASED ON AUTO OBS. NXT FCST BY 060200Z", "TAF CYTR 052340Z 0600/0624 23008KT P6SM FEW060 SCT250 BECMG 0600/0602 VRB03KT FM060300 VRB03KT P6SM SKC PROB30 0608/0611 2SM BR FM061800 21010KT P6SM SCT050 RMK NXT FCST BY 060600Z", "TAF CYTS 051940Z 0520/0608 14010KT P6SM BKN040 FM060000 10005KT P6SM SCT060 FM060600 10005KT P6SM FEW010 PROB30 0606/0608 1SM BR RMK NXT FCST BY 060200Z", "TAF CYTZ 051940Z 0520/0620 09007KT P6SM SCT060 FM060200 35005KT P6SM SKC BECMG 0613/0615 09008KT RMK FCST BASED ON AUTO OBS. NXT FCST BY 060200Z", "TAF CYUB 051840Z 0519/0605 36010KT P6SM SCT003 BKN200 TEMPO 0519/0605 2SM BR BKN003 BECMG 0521/0523 05012KT RMK NXT FCST BY 060100Z", "TAF CYUL 052340Z 0600/0624 25008KT P6SM FEW050 FM061700 29010KT P6SM BKN060 BECMG 0617/0619 29012KT RMK NXT FCST BY 060300Z", "TAF CYUX 051840Z 0519/0607 30025G35KT P6SM SCT015 BKN025 TEMPO 0519/0602 3SM -SN BLSN BKN015 OVC025 FM060200 33020KT P6SM SCT015 BKN025 TEMPO 0602/0607 SCT008 BKN015 OVC025 RMK NXT FCST BY 060100Z", "TAF CYUY 052340Z 0600/0612 VRB03KT P6SM FEW060 BKN090 FM060300 VRB03KT P6SM FEW050 PROB30 0605/0611 1SM BR RMK NXT FCST BY 060600Z", "TAF CYVC 051840Z 0519/0607 08015KT P6SM FEW050 FM060100 09008KT P6SM SKC RMK NXT FCST BY 060100Z", "TAF AMD CYVM 052343Z 0523/0607 VRB03KT 6SM -SN SCT015 BKN030 TEMPO 0523/0607 2SM -SHSN BKN015 OVC030 RMK NXT FCST BY 060100Z", "TAF CYVO 052340Z 0600/0612 VRB03KT P6SM FEW050 BKN090 FM060300 VRB03KT P6SM FEW050 PROB30 0605/0611 1SM BR RMK NXT FCST BY 060600Z", "TAF CYVP 052340Z 0600/0612 12005KT P6SM FEW220 BECMG 0601/0603 32005KT FM060600 30005KT P6SM BKN030 TEMPO 0606/0612 5SM BR BKN020 BECMG 0609/0611 32010KT RMK NXT FCST BY 060600Z", "TAF CYVQ 052340Z 0600/0612 VRB03KT P6SM SCT120 FM060300 VRB03KT P6SM FEW060 BKN120 TEMPO 0603/0608 P6SM -SHRA BKN020 OVC040 FM060800 VRB03KT P6SM FEW040 BKN120 RMK NXT FCST BY 060600Z", "TAF CYVR 052340Z 0600/0706 13010KT P6SM SCT010 OVC030 TEMPO 0600/0617 3SM -RA BR BKN009 OVC030 FM061700 13010KT P6SM SCT015 BKN050 TEMPO 0617/0702 BKN015 OVC040 FM070200 09008KT P6SM SCT050 BKN200 RMK NXT FCST BY 060300Z", "TAF CYVT 052040Z 0521/0604 10012G22KT P6SM SKC BECMG 0601/0603 10012KT RMK FCST BASED ON AUTO OBS. NXT FCST BY 061400Z", "TAF CYWA 051740Z 0518/0618 VRB03KT P6SM BKN070 FM052100 VRB03KT P6SM BKN050 FM060400 VRB03KT P6SM FEW050 PROB30 0605/0610 1SM BR FM061000 32005KT P6SM FEW040 RMK NXT FCST BY 060000Z", "TAF CYWE 051840Z 0519/0601 11018G28KT P6SM SKC RMK FCST BASED ON AUTO OBS. NXT FCST BY 061300Z", "TAF CYWG 052340Z 0600/0624 09015G25KT P6SM BKN060 FM060300 09012KT P6SM FEW060 FM061800 08015G25KT P6SM SCT060 RMK NXT FCST BY 060600Z", "TAF CYWH 052040Z 0521/0604 16008KT P6SM -RA FEW006 SCT020 OVC040 TEMPO 0521/0604 3SM -RA BR SCT006 OVC020 BECMG 0523/0601 24010KT RMK NXT FCST BY 061400Z", "TAF CYWK 051940Z 0520/0608 VRB03KT P6SM SCT040 TEMPO 0520/0608 BKN040 RMK NXT FCST BY 060200Z", "TAF AMD CYWL 060019Z 0600/0607 14012KT P6SM BKN060 TEMPO 0600/0605 VRB20G30KT P6SM -TSRA BKN050CB FM060500 12008KT P6SM SCT020 BKN060 TEMPO 0605/0607 5SM -SHRA BR BKN020 OVC060 RMK NXT FCST BY 060100Z", "TAF AMD CYXC 052112Z 0521/0607 18010G20KT P6SM SCT070 BKN110 TEMPO 0521/0604 P6SM -SHRA VCTS BKN070CB FM060400 24008KT P6SM SCT040 BKN070 TEMPO 0604/0607 P6SM -SHRA BKN040 RMK NXT FCST BY 060100Z", "TAF CYXE 052340Z 0600/0624 10018G28KT P6SM BKN070 FM060400 10015G25KT P6SM FEW080 FM060800 09012KT P6SM SKC FM061800 10018G28KT P6SM VCSH BKN070 RMK NXT FCST BY 060600Z", "TAF CYXH 052340Z 0600/0612 05015G25KT P6SM FEW100 SCT300 FM060400 10012KT P6SM SCT090 BKN180 FM061000 09010KT P6SM -SHRA OVC080 RMK NXT FCST BY 060600Z", "TAF AMD CYXJ 052308Z 0523/0607 15015G25KT P6SM BKN240 TEMPO 0523/0607 3SM FU HZ BECMG 0602/0604 10012KT RMK NXT FCST BY 060100Z", "TAF CYXL 051940Z 0520/0608 12010G20KT P6SM BKN060 TEMPO 0520/0523 P6SM -SHRA BKN050 BECMG 0523/0601 11010KT FM060600 09005KT P6SM FEW020 RMK NXT FCST BY 060200Z", "TAF CYXS 051840Z 0519/0607 36005KT P6SM FEW100 BKN250 BECMG 0519/0521 03010KT FM060100 01006KT P6SM FEW040 SCT100 BECMG 0605/0607 18006KT RMK FCST BASED ON AUTO OBS. NXT FCST BY 060100Z", "TAF CYXT 051840Z 0519/0607 VRB03KT P6SM -RA SCT005 OVC025 TEMPO 0519/0521 2SM -RA BR OVC005 FM052100 18012G22KT 6SM -RA BR SCT008 OVC025 TEMPO 0521/0607 2SM SHRA BR OVC008 PROB30 0521/0607 OVC005 RMK NXT FCST BY 060100Z", "TAF CYXU 052340Z 0600/0624 09006KT P6SM FEW060 FM062000 12008KT P6SM BKN170 RMK NXT FCST BY 060600Z", "TAF CYXX 052340Z 0600/0624 22010KT P6SM SCT020 OVC050 TEMPO 0600/0604 4SM -RA BR BKN020 OVC050 FM060400 VRB03KT P6SM SCT008 OVC030 TEMPO 0604/0618 3SM -RA BR BKN008 OVC015 FM061800 20008KT P6SM SCT015 BKN040 TEMPO 0618/0624 P6SM -SHRA BKN015 RMK NXT FCST BY 060600Z", "TAF CYXY 052340Z 0600/0624 VRB03KT P6SM SCT020 BKN050 TEMPO 0600/0606 P6SM -SHRA FEW005 BKN015 OVC050 FM060600 18006KT 4SM -RA BR OVC015 TEMPO 0606/0617 P6SM -RA SCT020 OVC040 FM061700 15010KT P6SM FEW030 BKN080 RMK NXT FCST BY 060600Z", "TAF CYYB 051940Z 0520/0608 15008KT P6SM BKN050 FM060100 05005KT P6SM SCT050 PROB30 0607/0608 1SM BR RMK NXT FCST BY 060200Z", "TAF CYYC 052340Z 0600/0624 10015G25KT P6SM SCT100 BECMG 0602/0604 09012KT FM060900 09008KT P6SM SCT070 BKN160 FM061200 04006KT P6SM BKN070 OVC100 FM061600 11008KT P6SM SCT020 OVC040 TEMPO 0616/0621 4SM -SHRA BR OVC020 FM062100 10012KT P6SM -RA SCT015 OVC040 TEMPO 0621/0624 3SM -SHRA BR OVC015 RMK NXT FCST BY 060300Z", "TAF CYYD 051840Z 0519/0606 34008KT P6SM SCT110 BKN230 FM052200 33010KT P6SM SCT050 BKN100 TEMPO 0522/0603 5SM -SHRA BR OVC040 PROB30 0522/0603 VRB15G25KT 2SM TSRA OVC020CB FM060300 33008KT P6SM SCT015 OVC040 TEMPO 0603/0606 3SM -SHRA BR BKN015 OVC040 RMK NXT FCST BY 060100Z", "TAF CYYE 051840Z 0519/0607 01008KT P6SM OVC180 BECMG 0604/0606 13006KT RMK NXT FCST BY 060100Z", "TAF CYYF 051840Z 0519/0607 17010KT P6SM -SHRA SCT040 BKN090 TEMPO 0519/0604 5SM -SHRA VCTS BR SCT015 BKN040CB FM060400 VRB03KT P6SM SCT015 BKN040 TEMPO 0604/0607 3SM -SHRA BR BKN015 OVC040 RMK NXT FCST BY 060100Z", "TAF CYYG 052340Z 0600/0612 33008KT P6SM BKN180 BECMG 0600/0602 28005KT FM060900 30010KT P6SM BKN060 BECMG 0610/0612 02012KT RMK NXT FCST BY 060600Z", "TAF CYYH 052340Z 0600/0612 31022G32KT P6SM -SN SCT006 BKN015 TEMPO 0600/0606 2SM -SN BLSN BKN006 BECMG 0601/0603 31012KT FM060600 30010KT P6SM SCT015 TEMPO 0606/0612 4SM -SN BKN012 RMK NXT FCST BY 060600Z", "TAF CYYJ 052340Z 0600/0624 22006KT P6SM SCT030 OVC060 TEMPO 0600/0617 P6SM -RA BKN030 OVC060 FM061700 14008KT P6SM SCT040 BKN090 TEMPO 0617/0624 BKN040 RMK NXT FCST BY 060600Z", "TAF CYYL 051840Z 0519/0607 13012KT P6SM SKC BECMG 0602/0604 13005KT RMK FCST BASED ON AUTO OBS. NXT FCST BY 060100Z", "TAF CYYN 052340Z 0600/0612 10015G25KT P6SM SCT080 TEMPO 0600/0612 BKN080 RMK FCST BASED ON AUTO OBS. NXT FCST BY 060600Z", "TAF CYYQ 052340Z 0600/0624 16006KT P6SM SKC PROB30 0604/0609 1SM BR BKN003 FM060900 16005KT P6SM SCT003 TEMPO 0609/0615 1 1/2SM BR BKN003 PROB30 0609/0615 1/2SM FZFG VV002 FM061500 12005KT P6SM FEW004 BECMG 0618/0620 08010KT RMK NXT FCST BY 060600Z", "TAF CYYR 052340Z 0600/0624 03008KT P6SM FEW015 BKN025 TEMPO 0600/0609 BKN020 FM060900 35005KT P6SM SCT025 SCT220 FM061400 34005KT P6SM FEW040 SCT140 FM062100 35008KT P6SM BKN030 BKN080 RMK NXT FCST BY 060600Z", "TAF CYYT 052340Z 0600/0624 01018G28KT P6SM FEW006 SCT200 FM060100 36018G28KT P6SM SCT006 TEMPO 0601/0603 3SM -SNRA BR SCT003 OVC006 PROB30 0601/0603 1 1/2SM -FZDZ BR OVC003 FM060300 34018G28KT P6SM SCT003 OVC006 TEMPO 0603/0612 3SM -SN BR OVC003 PROB30 0603/0612 1 1/2SM -FZDZ BR FM061200 34015KT 5SM -RASN BR BKN006 OVC010 FM061500 35015KT 6SM -RA BR BKN006 OVC015 BECMG 0619/0621 34012KT RMK NXT FCST BY 060600Z", "TAF CYYU 051940Z 0520/0608 10010G20KT P6SM BKN050 BECMG 0600/0602 VRB03KT SCT050 FM060600 VRB03KT P6SM FEW010 PROB30 0606/0608 1SM BR RMK NXT FCST BY 060200Z", "TAF CYYY 051940Z 0520/0608 32008KT P6SM SCT220 BECMG 0522/0524 22008KT RMK NXT FCST BY 060200Z", "TAF CYYZ 052340Z 0600/0706 19005KT P6SM FEW060 FM060200 34006KT P6SM SKC BECMG 0613/0615 15007KT BECMG 0701/0703 35005KT RMK NXT FCST BY 060300Z", "TAF CYZF 052340Z 0600/0624 08012KT P6SM BKN200 FM061500 14015KT P6SM SKC RMK NXT FCST BY 060600Z", "TAF CYZH 051840Z 0519/0607 12012G22KT P6SM SKC BECMG 0519/0521 13018G28KT FM060200 12012KT P6SM SKC RMK FCST BASED ON AUTO OBS. NXT FCST BY 060100Z", "TAF CYZP 051840Z 0519/0607 VRB03KT P6SM FEW020 SCT200 BECMG 0522/0524 14012KT FM060000 14010KT P6SM BKN030 TEMPO 0600/0607 OVC020 RMK FCST BASED ON AUTO OBS. NXT FCST BY 060100Z", "TAF CYZR 051940Z 0520/0602 12007KT P6SM SCT050 RMK FCST BASED ON AUTO OBS. NXT FCST BY 060800Z", "TAF CYZS 051840Z 0519/0607 29015KT P6SM FEW008 SCT015 TEMPO 0519/0522 5SM -SN BR SCT008 BKN015 FM052200 32015KT P6SM SCT015 FM060500 34018KT P6SM SCT008 TEMPO 0605/0607 BKN008 RMK NXT FCST BY 060100Z", "TAF AMD CYZT 052017Z 0520/0607 VRB03KT P6SM -RA SCT008 OVC030 TEMPO 0520/0607 3SM SHRA BR BKN008 OVC020 RMK NXT FCST BY 060100Z", "TAF CYZV 052340Z 0600/0624 VRB03KT P6SM FEW080 BKN180 BECMG 0600/0602 34008KT FM060800 01006KT P6SM SKC BECMG 0613/0615 34008KT FM061700 22012KT P6SM SCT060 FM062100 26008KT P6SM BKN060 RMK NXT FCST BY 060600Z", "TAF CYZX 052340Z 0600/0624 01010G20KT P6SM SCT160 BKN220 BECMG 0600/0602 VRB03KT FM060500 VRB03KT P6SM SCT040 BKN120 FM060800 24005KT P6SM FEW030 SCT250 BECMG 0610/0612 30008KT FM061600 36012KT P6SM BKN030 FM062100 04010KT P6SM SCT040 RMK NXT FCST BY 060600Z", "TAF CYZY 051840Z 0519/0607 31006KT P6SM SKC FM052000 VRB03KT P6SM SCT060 BECMG 0602/0604 14006KT RMK FCST BASED ON AUTO OBS. NXT FCST BY 060100Z", "TAF CZBF 051940Z 0520/0603 08005KT P6SM SCT220 FM060200 34005KT P6SM SKC RMK FCST BASED ON AUTO OBS. NXT FCST BY 060900Z", "TAF CZUM 051940Z 0520/0608 35010G20KT P6SM SCT050 TEMPO 0520/0522 BKN050 FM052200 34010KT P6SM SCT015 TEMPO 0522/0608 BKN015 BECMG 0601/0603 33006KT RMK FCST BASED ON AUTO OBS. NXT FCST BY 060200Z", "TAF CZVL 052340Z 0600/0612 12018G28KT P6SM SCT270 BECMG 0604/0606 10015KT RMK FCST BASED ON AUTO OBS. NXT FCST BY 060600Z", "TAF DAAD 051700Z 0518/0603 12010KT 9999 FEW026 SCT100 PROB40 TEMPO 0518/0522 FEW026CB BKN100", "TAF DAAE 052300Z 0600/0624 10008KT CAVOK BECMG 0606/0608 36014KT PROB30 0609/0612 FEW023TCU", "TAF DAAG 052300Z 0600/0624 VRB02KT 9999 FEW016 BKN200 PROB30 TEMPO 0600/0606 FEW030CB BKN100 BECMG 0608/0610 35010KT", "TAF DAAJ 052300Z 0600/0624 04010KT CAVOK BECMG 0608/0610 26010KT", "TAF DAAP 052300Z 0600/0609 11008KT CAVOK", "TAF DAAS 052300Z 0600/0624 21008KT 9999 FEW023 SCT090", "TAF DAAT 052300Z 0600/0624 08008KT CAVOK PROB40 TEMPO 0604/0612 12015G25KT", "TAF DAAV 052300Z 0600/0624 20008KT CAVOK BECMG 0606/0608 36014KT PROB30 0609/0612 FEW023TCU", "TAF DAAY 052300Z 0600/0609 17014KT 6000 SCT040 SCT100 PROB40 TEMPO 0600/0603 14030G40KT 2000 DRSA BECMG 0604/0607 26010KT 9000 SCT033", "TAF DABB 052300Z 0600/0624 VRB02KT CAVOK PROB30 0603/0607 4000 BR BKN015 TEMPO 0611/0617 04010KT", "TAF DABC 052300Z 0600/0624 27006KT CAVOK PROB40 TEMPO 0610/0618 35012KT FEW026TCU", "TAF DABS 052300Z 0600/0624 20006KT CAVOK TEMPO 0610/0619 29014KT PROB40 TEMPO 0611/0618 FEW030TCU", "TAF DABT 052300Z 0600/0624 23008KT 9999 FEW026 SCT090", "TAF DAFH 051700Z 0518/0603 14014KT 9999 SCT040 PROB30 TEMPO 0518/0524 12015G25KT 4000 DRSA FEW030TCU SCT040", "TAF DAOB 052300Z 0600/0624 13012KT 9999 FEW026 SCT220 PROB30 TEMPO 0600/0609 3000 DRSA BECMG 0612/0615 30012KT BECMG 0620/0623 VRB02KT", "TAF DAOF 052300Z 0600/0609 28015KT CAVOK", "TAF DAOI 052300Z 0600/0624 VRB02KT 8000 NSC PROB30 TEMPO 0600/0607 FEW030CB BKN100 BECMG 0608/0610 30010KT", "TAF DAON 052300Z 0600/0624 VRB02KT 9999 FEW030 PROB30 TEMPO 0602/0608 2000 BR BKN010 BECMG 0610/0613 33012KT BECMG 0620/0623 VRB02KT", "TAF DAOO 052300Z 0600/0624 22006KT 9999 SCT020 BKN233 PROB30 TEMPO 0602/0608 VRB02KT 2000 BR BKN010 BECMG 0610/0613 33012KT BECMG 0620/0623 VRB02KT", "TAF DAOR 052300Z 0600/0609 24008KT 9999 FEW033 BKN233 PROB30 TEMPO 0600/0603 4000 DU FEW030CB BKN100 BECMG 0604/0606 04010KT", "TAF DAOV 052300Z 0600/0609 VRB02KT 9999 SCT030 BKN233 PROB30 TEMPO 0603/0608 4000 BR SCT010", "TAF DATM 051700Z 0518/0603 32008KT CAVOK", "TAF DAUA 052300Z 0600/0624 14010KT CAVOK", "TAF DAUB 052300Z 0600/0624 10008KT 9999 CAVOK", "TAF DAUG 052300Z 0600/0624 14008KT CAVOK PROB30 TEMPO 0609/0614 16015G25KT 4000 DRSA", "TAF DAUH 052300Z 0600/0624 14006KT CAVOK", "TAF DAUI 052300Z 0600/0624 11012KT CAVOK", "TAF DAUK 052300Z 0600/0609 08006KT CAVOK", "TAF DAUL 052300Z 0600/0609 10008KT 9999 FEW040", "TAF DAUO 052300Z 0600/0609 11008KT CAVOK", "TAF DAUT 052300Z 0600/0609 20008KT CAVOK", "TAF DAUU 052300Z 0600/0609 14008KT 9999 SCT046 SCT200", "TAF DAUZ 052300Z 0600/0624 VRB02KT CAVOK BECMG 0607/0609 16010KT", "TAF DBBB 052300Z 0600/0706 20010KT 9999 SCT012 PROB30 0605/0611 09015G35KT 3000 +TSRA BKN010 FEW023CB", "TAF DFFD 052300Z 0600/0706 20008KT 9999 FEW026 TEMPO 0614/0622 4000 TSRA SCT026 FEW040CB", "TAF DFOO 052300Z 0600/0624 18008KT 9999 FEW023 TEMPO 0615/0622 4000 TSRA SCT023 FEW036CB", "TAF DGAA 052300Z 0600/0706 26008KT 9999 FEW014 BECMG 0610/0612 20012KT TEMPO 0614/0618 FEW030CB", "TAF DGLE 051100Z 0512/0612 18008KT 9999 SCT016 TEMPO 0516/0520 FEW030CB BECMG 0521/0523 00000KT CAVOK", "TAF DGSI 051100Z 0512/0612 23008KT 9999 SCT017 PROB30 TEMPO 0517/0521 6000 TSRA BKN010 FEW030CB BECMG 0522/0524 FEW014", "TAF DIAP 052302Z 0600/0706 23007KT 9999 SCT012 PROB30 TEMPO 0602/0606 4000 TSRA BKN010 FEW020CB BKN030 PROB30 TEMPO 0606/0610 4000 TSRA BKN010 FEW020CB BKN030 PROB40 TEMPO 0613/0618 BKN012 FEW020CB PROB30 TEMPO 0614/0617 TS", "TAF DIBK 052305Z 0600/0624 20005KT 9999 FEW013 PROB40 0605/0609 4000 BR BKN010 PROB40 TEMPO 0609/0612 BKN013 PROB30 TEMPO 0616/0620 TS", "TAF DIYO 052308Z 0600/0624 21006KT 9999 FEW012 PROB40 0605/0609 4000 BR BKN010 PROB40 TEMPO 0609/0612 BKN012", "TAF DNAA 051100Z 0512/0618 VRB02KT 9999 FEW010 BECMG 0513/0115 24010KT TEMPO 0516/0521 TS SCT013 FEW020CB PROB30 0517/0520 07019G40KT 5000 -TSRA BKN008 FEW018CB BECMG 0521/0523 17005KT BECMG 0608/0610 23010KT BKN011 TEMPO 0615/0618 TS SCT013 FEW020CB", "TAF DNAK 051700Z 0518/0624 23010KT 9999 SCT013 TEMPO 0518/0522 TS BKN013 FEW020CB PROB30 0520/0522 4000 -TSRA BKN009 FEW019CB BECMG 0522/0524 VRB02KT TEMPO 0605/0608 4000 BR BECMG 0609/0611 24010KT BKN013 FEW020CB TEMPO 0612/0618 TS BECMG 0620/0622 VRB02KT SCT011", "TAF DNBE 051700Z 0518/0624 25010KT 9999 SCT012 TEMPO 0519/0524 TS BKN012 FEW020CB TEMPO 0520/0522 5000 -TSRA BKN008 FEW018CB BECMG 0600/0602 VRB02KT TEMPO 0605/0608 4000 BR BECMG 0609/0611 25010KT BKN013 TEMPO 0613/0618 TS SCT013 FEW020CB BECMG 0618/0620 VRB02KT SCT011", "TAF DNGO 052300Z 0600/0706 22007KT CAVOK TEMPO 0610/0617 BKN013 PROB40 TEMPO 0613/0617 SCT015 FEW022CB", "TAF DNIB 051700Z 0518/0624 VRB02KT 9999 SCT012 PROB30 TEMPO 0518/0521 TS SCT012 FEW020CB BECMG 0608/0610 25010KT BKN013 TEMPO 0614/0618 TS BKN013 FEW020CB TEMPO 0615/0620 5000 -TSRA BKN009 FEW018CB BECMG 0620/0622 VRB02KT SCT011", "TAF DNIL 051100Z 0512/0618 14009KT 9999 FEW009 BECMG 0513/0515 21010KT TEMPO 0515/0521 TS SCT013 FEW020CB BECMG 0521/0522 VRB02KT BECMG 0608/0610 20010KT BKN012", "TAF DNJO 051100Z 0512/0618 25010KT CAVOK TEMPO 0513/0519 TS SCT010 FEW018CB PROB40 0514/0518 06015G34KT 5000 -TSRA BKN005 FEW015CB BECMG 0519/0521 14003KT BECMG 0608/0610 24010KT BKN007", "TAF DNKA 051100Z 0512/0618 17008KT 9999 SCT010 BECMG 0513/0515 24010KT TEMPO 0516/0521 TS SCT013 FEW021CB PROB40 0517/0520 08017G34KT 5000 -TSRA BRK008 FEW018CB BECMG 0521/0523 13006KT", "TAF DNKN 052300Z 0600/0706 22006KT CAVOK TEMPO 0611/0617 BKN014 FEW022CB", "TAF DNKT 052300Z 0600/0706 21007KT CAVOK PROB40 0613/0616 SCT015 FEW022TCU", "TAF DNMA 052300Z 0600/0706 23006KT CAVOK PROB40 0613/0616 SCT015 FEW022TCU", "TAF DNMM 051700Z 0518/0624 23010KT 9999 SCT013 FEW020CB TEMPO 0518/0522 TS BECMG 0522/0524 VRB02KT BECMG 0609/0611 24010KT BKN013 FEW020CB TEMPO 0611/0617 TS BECMG 0619/0621 VRB02KT SCT011", "TAF DNSO 052300Z 0600/0706 20008KT CAVOK PROB40 0612/0616 SCT015 FEW022TCU", "TAF DNSU 051700Z 0518/0624 24010KT 9999 SCT011 TEMPO 0518/0523 TS BKN011 FEW020CB TEMPO 0519/0522 5000 -TSRA BKN009 FEW018CB BECMG 0600/0602 VRB02KT TEMPO 0605/0608 3000 BR BECMG 0608/0610 23010KT BKN013 FEW020CB TEMPO 0614/0619 TS BECMG 0619/0621 VRB02KT SCT011", "TAF DNYO 052300Z 0600/0706 23008KT CAVOK TEMPO 0613/0617 SCT014 FEW021CB", "TAF DRRN 052300Z 0600/0706 22008KT 9999 FEW030 PROB40 TEMPO 0601/0605 12025G40KT 0600 SQ BLDU TSRA SCT030 FEW040CB", "TAF DRZA 052300Z 0600/0624 12010KT 8000 NSC", "TAF DRZR 052300Z 0600/0624 02005KT CAVOK BECMG 0608/0610 08010KT", "TAF DTKA 060000Z 0601/0610 07010KT 9999 FEW020 BECMG 0601/0603 13010KT", "TAF DTMB 052300Z 0600/0624 VRB02KT CAVOK PROB30 TEMPO 0604/0607 3000 BR BECMG 0610/0612 10012KT", "TAF DTNH 052300Z 0600/0624 VRB02KT CAVOK PROB30 TEMPO 0604/0607 3000 BR BECMG 0610/0612 10013KT", "TAF DTTA 052300Z 0600/0624 VRB03KT 9999 FEW026 BECMG 0610/0612 12010KT", "TAF DTTB 060000Z 0601/0610 10010KT CAVOK", "TAF DTTF 060000Z 0601/0610 36006KT CAVOK", "TAF DTTG 060000Z 0601/0610 07060KT 9999 FEW030 BECMG 0604/0606 VRB03KT", "TAF DTTJ 052300Z 0600/0624 VRB02KT CAVOK", "TAF DTTR 060000Z 0601/0610 VRB04KT CAVOK BECMG 0601/0603 12010KT", "TAF DTTX 052300Z 0600/0624 VRB02KT 9999 FEW033 BECMG 0610/0612 13010KT", "TAF DTTZ 052300Z 0600/0624 10017KT CAVOK TEMPO 0613/0618 VRB03KT", "TAF DXNG 052300Z 0600/0624 VRB05KT 9999 FEW007 PROB30 TEMPO 0616/0622 TS BKN007 FEW016CB", "TAF COR DXXX 051700Z 0518/0624 20010KT 9999 FEW013 TEMPO 0518/0524 TS BECMG 0522/0524 VRB03KT BECMG 0608/0610 20010KT", "TAF EBAW 052300Z 0600/0609 20003KT 9999 FEW035 TEMPO 0600/0606 4500 BR PROB30 TEMPO 0603/0606 2000 MIFG BR", "TAF EBBE 051541Z 0519/0607 21004KT 9999 FEW030 TEMPO 0519/0520 6000 -SHRA SCT020TCU PROB30 TEMPO 0519/0520 24010G20KT 4000 -TSRA BKN020CB BECMG 0522/0524 4000 BR TEMPO 0602/0606 VRB03KT 2000 BR", "TAF EBBL 051541Z 0519/0607 24005KT 9999 SCT030 SCT060 TEMPO 0519/0602 6000 -SHRA BKN025 BECMG 0602/0604 VRB03KT 8000 SCT010 BKN015", "TAF EBBR 052310Z 0600/0706 20003KT 9999 FEW040 PROB30 TEMPO 0602/0606 4000 MIFG BR PROB30 TEMPO 0611/0618 4000 SHRA", "TAF EBCI 052310Z 0600/0706 20003KT 9999 FEW035 PROB40 TEMPO 0602/0609 3500 BR MIFG PROB30 TEMPO 0611/0618 4000 SHRA", "TAF EBCV 051541Z 0519/0607 21004KT 9999 FEW020 SCT060 TEMPO 0519/0521 21008G20KT 4000 -SHRA SHRA FEW012 SCT020TCU PROB30 TEMPO 0519/0521 21012G25KT 3000 -TSRA FEW010 BKN018CB BECMG 0522/0524 VRB02KT 4000 BR BKN002 BKN240 BY EBWM", "TAF EBFN 051541Z 0519/0607 20005KT 9999 FEW025 TEMPO 0519/0522 4000 SHRA SCT012TCU BKN014 PROB40 TEMPO 0519/0522 VRB15G30KT 1500 TSRAGS BKN010CB TEMPO 0522/0607 3000 BR PROB30 TEMPO 0600/0607 0500 FG", "TAF EBFS 051541Z 0519/0607 22005KT 9999 FEW020 BKN040 BKN130 PROB40 TEMPO 0519/0520 1000 -TSRA SCT008 BKN015CB SCT025 TEMPO 0519/0523 22010G20KT 4000 -SHRA SCT020TCU SCT050 PROB30 TEMPO 0519/0523 22012G22KT 2000 SHRA BKN018TCU BKN030 BECMG 0500/0502 18004KT 3000 BR TEMPO 0502/0507 0500 FG", "TAF EBLG 052310Z 0600/0706 17003KT 9999 FEW035 PROB40 TEMPO 0602/0606 3500 BR MIFG PROB40 TEMPO 0612/0619 4000 SHRA", "TAF EBOS 052310Z 0600/0706 18003KT 9999 FEW040 TEMPO 0600/0607 3000 BR MIFG PROB30 TEMPO 0602/0606 0600 BCFG BKN001 PROB30 TEMPO 0611/0617 4000 SHRA TEMPO 0702/0706 4000 SHRA", "TAF EDAC 051700Z 0518/0603 12005KT 9999 SCT030 PROB40 TEMPO 0518/0523 4500 TSRA SCT015 BKN020CB BECMG 0520/0522 25004KT", "TAF EDAH 051700Z 0518/0603 07013KT CAVOK TEMPO 0518/0603 07015G25KT", "TAF EDDB 052300Z 0600/0624 09015G25KT CAVOK BECMG 0600/0602 06010KT PROB40 TEMPO 0600/0604 RA BECMG 0603/0606 BKN006 BECMG 0608/0612 SCT008 BKN012 PROB30 TEMPO 0608/0610 SHRA BKN012TCU BECMG 0615/0618 BKN020 TEMPO 0618/0624 BKN012", "TAF EDDC 052300Z 0600/0624 10006KT 9999 BKN035 TEMPO 0600/0606 SHRA BKN013CB PROB40 TEMPO 0603/0608 BKN008 BECMG 0606/0608 30008KT BECMG 0615/0618 01006KT BECMG 0619/0623 3000 BR PROB30 TEMPO 0622/0624 2000 BCFG BKN004", "TAF EDDE 052300Z 0600/0624 27005KT 9999 SCT030 PROB30 TEMPO 0602/0608 0500 FG BKN002 BECMG 0608/0611 33007KT BECMG 0615/0618 06005KT", "TAF EDDF 052300Z 0600/0706 22006KT CAVOK PROB30 TEMPO 0612/0618 SHRA BKN040TCU BECMG 0617/0620 04005KT", "TAF EDDG 052300Z 0600/0624 VRB03KT 1200 BCFG NSC TEMPO 0600/0607 0350 FG BKN000 BECMG 0607/0610 4000 BR BECMG 0610/0612 9999", "TAF EDDH 052300Z 0600/0706 09013G23KT 9999 BKN030 BECMG 0600/0603 08009KT BKN012 PROB40 TEMPO 0603/0608 BKN008 BECMG 0610/0612 BKN015 PROB30 TEMPO 0704/0706 BKN008", "TAF EDDK 052300Z 0600/0706 VRB03KT 6000 SCT040 TEMPO 0600/0609 3000 BR PROB40 TEMPO 0600/0607 0350 FG TEMPO 0613/0618 20008KT SHRA BKN030CB", "TAF COR EDDL 052335Z 0600/0706 VRB03KT 5000 BR SCT040 TEMPO 0600/0605 2000 BR PROB30 TEMPO 0600/0604 0350 FG TEMPO 0615/0620 SHRA BKN030CB PROB30 TEMPO 0703/0706 4500 BR", "TAF EDDM 052300Z 0600/0706 23007KT 9999 SCT020 PROB40 TEMPO 0603/0607 3000 BR BKN006 PROB30 TEMPO 0603/0606 1200 BCFG BECMG 0606/0608 30005KT BECMG 0615/0617 VRB02KT", "TAF EDDN 052300Z 0600/0624 VRB02KT 9999 SCT030 PROB40 TEMPO 0600/0606 1200 BCFG PROB30 TEMPO 0601/0608 BKN008 BECMG 0606/0608 30005KT BECMG 0616/0618 VRB02KT", "TAF COR EDDP 052326Z 0600/0624 VRB03KT 9999 SCT030 PROB30 TEMPO 0600/0602 SCT003 BKN005 BECMG 0601/0604 32007KT PROB40 TEMPO 0603/0609 4500 BR BKN008 PROB30 TEMPO 0604/0608 2500 BR BKN004 BECMG 0614/0617 05007KT", "TAF EDDR 052300Z 0600/0624 22005KT 6000 NSC PROB30 TEMPO 0600/0607 0400 FG BKN002 BECMG 0603/0606 3500 BR BECMG 0606/0609 9999 PROB30 TEMPO 0612/0618 SHRA SCT015 BKN035TCU BECMG 0618/0620 06005KT", "TAF EDDS 052300Z 0600/0624 VRB03KT 9999 SCT015 BKN030 PROB30 TEMPO 0602/0606 1200 BCFG TEMPO 0611/0618 35005KT", "TAF EDDV 052300Z 0600/0624 14004KT 9999 SCT010 BKN035 TEMPO 0600/0607 BKN008 PROB40 TEMPO 0602/0607 4000 -DZ BR BKN004 BECMG 0607/0610 35006KT BECMG 0614/0616 07008KT", "TAF EDDW 052300Z 0600/0624 14004KT 9999 SCT004 BKN010 TEMPO 0600/0606 BKN008 PROB40 TEMPO 0600/0606 4000 -DZ BR BKN004 PROB30 TEMPO 0600/0606 0500 FG SCT010 BECMG 0611/0613 06008KT FEW030", "TAF EDFH 052300Z 0600/0624 24005KT 9999 SCT035 TEMPO 0603/0607 3500 BR BKN004 PROB30 TEMPO 0612/0618 SHRA SCT010 BKN020TCU BECMG 0616/0619 13005KT", "TAF EDGS 051700Z 0518/0603 28006KT 9999 SCT030 BECMG 0518/0521 VRB03KT", "TAF COR EDJA 051730Z 0518/0603 20004KT 9999 FEW035 TEMPO 0518/0520 30020G35KT 3000 TSRA FEW012 BKN020CB PROB30 TEMPO 0600/0603 4000 BR BKN007", "TAF EDLN 051700Z 0518/0603 35005KT 9999 SCT030 TEMPO 0518/0519 SHRA BKN020CB BECMG 0518/0521 VRB03KT TEMPO 0521/0603 1500 BCFG", "TAF AMD EDLP 060019Z 0600/0624 25004KT 6000 BKN005 PROB30 TEMPO 0600/0607 2000 BR BKN001 BECMG 0607/0610 BKN015 TEMPO 0613/0616 SHRA BKN030CB PROB30 TEMPO 0621/0624 RA", "TAF EDLV 051700Z 0518/0618 VRB03KT CAVOK BECMG 0521/0524 3000 BR BECMG 0600/0602 1500 BCFG TEMPO 0602/0606 0500 FG OVC000 BECMG 0606/0609 14005KT 9999 BECMG 0609/0612 20005KT", "TAF AMD EDLW 051921Z 0519/0618 18005KT 9999 SCT020 TEMPO 0519/0520 20010KT SHRA BKN030CB TEMPO 0602/0608 VRB03KT 1500 BCFG PROB30 TEMPO 0603/0607 0800 FG BKN001 BECMG 0608/0610 VRB03KT PROB30 TEMPO 0612/0616 02005KT SHRA SCT030CB", "TAF EDMA 051700Z 0518/0603 34005KT 9999 SCT045 BECMG 0518/0520 21004KT TEMPO 0518/0520 29030G45KT 3000 TSRAGR FEW012 BKN025CB PROB30 TEMPO 0518/0520 BKN010 PROB30 TEMPO 0601/0603 4000 BR", "TAF EDMO 051700Z 0518/0603 34005KT CAVOK BECMG 0518/0520 22004KT TEMPO 0519/0521 28020G35KT 3000 TSRAGR BKN020CB PROB30 TEMPO 0601/0603 4000 BR", "TAF EDNY 052300Z 0600/0624 VRB02KT 9999 FEW015 SCT040 PROB30 TEMPO 0601/0606 4000 BR PROB40 TEMPO 0602/0608 BKN008 TEMPO 0608/0616 24005KT", "TAF EDQM 051700Z 0518/0603 20004KT 9999 FEW045 PROB40 TEMPO 0518/0520 22010KT SHRA BKN035TCU PROB30 TEMPO 0520/0523 26010KT 4000 TSRA BKN030CB PROB30 TEMPO 0600/0603 3000 BR BKN007", "TAF COR EDSB 052355Z 0600/0624 19005KT 9999 SCT020 BKN045 TEMPO 0600/0608 VRB02KT 1500 BR PROB30 TEMPO 0603/0608 0500 FG BKN001 BECMG 0618/0621 03005KT", "TAF EDTY 051700Z 0518/0603 26004KT CAVOK PROB40 TEMPO 0518/0519 30020G30KT 3000 TSRA BKN030CB PROB30 TEMPO 0600/0603 4000 BR BKN007", "TAF EDVK 052000Z 0521/0603 31007KT 9999 FEW015 BKN030 TEMPO 0521/0522 4000 TSRA BKN008 BKN025CB BECMG 0601/0603 4000 BR BKN010", "TAF EEEI 052330Z 0600/0624 25005KT CAVOK BECMG 0603/0605 35006KT BECMG 0621/0623 VRB02KT", "TAF EETN 052330Z 0600/0624 VRB02KT CAVOK BECMG 0603/0605 35010KT BECMG 0618/0620 29005KT", "TAF EFHK 052329Z 0600/0624 30004KT CAVOK BECMG 0610/0612 22010KT BECMG 0619/0621 30005KT", "TAF EFIV 052322Z 0600/0606 23005KT CAVOK TEMPO 0603/0606 FEW035TCU", "TAF EFJY 052329Z 0600/0624 30002KT CAVOK", "TAF EFKE 052322Z 0600/0606 VRB02KT CAVOK", "TAF EFKK 052322Z 0600/0606 22002KT CAVOK", "TAF EFKT 052322Z 0600/0609 32002KT CAVOK", "TAF EFKU 052329Z 0600/0624 31004KT CAVOK PROB40 TEMPO 0605/0612 FEW045TCU", "TAF EFMA 052329Z 0600/0609 34002KT CAVOK BECMG 0606/0608 20010KT", "TAF EFOU 052322Z 0600/0624 25004KT CAVOK", "TAF EFRO 052322Z 0600/0624 34006KT CAVOK", "TAF EFSI 052329Z 0600/0609 26002KT CAVOK", "TAF EFTP 052329Z 0600/0624 28002KT CAVOK", "TAF EFTU 052329Z 0600/0624 30004KT CAVOK BECMG 0610/0612 24010KT BECMG 0621/0623 VRB02KT", "TAF EFVA 052322Z 0600/0624 20002KT CAVOK", "TAF EGAA 052258Z 0600/0624 17006KT 9999 FEW015 SCT025 TEMPO 0600/0621 6000 SHRA TEMPO 0600/0610 BKN007 PROB30 TEMPO 0601/0608 3000 -DZ BR BKN004 PROB40 TEMPO 0611/0619 4000 +SHRA +TSRA", "TAF EGBB 052258Z 0600/0624 19006KT 9999 SCT030 BECMG 0600/0603 BKN012 PROB30 TEMPO 0600/0608 BKN006 TEMPO 0608/0622 6000 RA BKN008 BECMG 0609/0612 13010KT PROB30 TEMPO 0612/0620 3000 +RA BKN004 BECMG 0618/0621 VRB02KT TEMPO 0622/0624 3000 BR BKN004 PROB30 TEMPO 0622/0624 0300 FG OVC001", "TAF EGCC 052257Z 0600/0706 VRB03KT 9999 SCT035 PROB40 TEMPO 0602/0608 BKN008 BECMG 0609/0612 18010KT TEMPO 0609/0615 7000 SHRA PROB30 TEMPO 0615/0622 7000 RA BKN014 BECMG 0618/0621 VRB03KT TEMPO 0622/0706 BKN014 PROB40 TEMPO 0700/0706 6000", "TAF EGCK 052256Z 0600/0609 18008KT 9999 BKN030 TEMPO 0600/0603 BKN014 PROB30 TEMPO 0600/0603 3000 -DZ BR BKN003", "TAF EGFF 052256Z 0600/0624 14007KT 9999 FEW014 SCT030 PROB30 TEMPO 0600/0603 BKN012 BECMG 0603/0606 BKN008 TEMPO 0603/0616 7000 RA PROB30 TEMPO 0605/0619 3000 +RA RADZ OVC004 TEMPO 0619/0624 3000 RADZ BR BKN004 PROB30 TEMPO 0622/0624 0300 FG BKN001", "TAF EGGD 052256Z 0600/0624 16007KT 9999 SCT009 BECMG 0600/0603 BKN006 PROB30 TEMPO 0600/0605 8000 BKN003 TEMPO 0605/0616 7000 RA PROB40 TEMPO 0605/0620 3000 +RA RADZ OVC003 TEMPO 0620/0624 3000 RADZ BR OVC003 PROB30 TEMPO 0621/0624 0300 FG OVC001", "TAF EGGP 052257Z 0600/0624 12004KT 9999 SCT035 BECMG 0609/0612 02010KT TEMPO 0609/0621 7000 SHRA BECMG 0614/0617 VRB03KT", "TAF EGGW 052256Z 0600/0624 18007KT 9999 FEW012 SCT020 PROB30 TEMPO 0600/0608 8000 BKN006 TEMPO 0608/0612 BKN009 TEMPO 0608/0621 7000 RA PROB30 TEMPO 0610/0618 4000 +RA RADZ BKN003 BECMG 0612/0615 BKN008 PROB30 TEMPO 0618/0624 4000 RADZ BR BKN003", "TAF AMD EGHQ 052355Z 0600/0609 13007KT 7000 BKN010 TEMPO 0600/0609 RA BKN006 PROB40 TEMPO 0600/0609 0300 FG +RA BKN001", "TAF EGJB 052303Z 0600/0609 16012KT 9999 BKN032 TEMPO 0600/0609 7000 RA FEW004 BKN014 PROB40 TEMPO 0600/0606 3000 +RA BKN003 PROB30 TEMPO 0602/0606 0500 FG BKN000", "TAF EGJJ 052303Z 0600/0609 17010KT 9999 -RA BKN032 TEMPO 0600/0609 7000 RA FEW004 BKN014 PROB40 TEMPO 0600/0606 3000 +RA BKN003 PROB30 TEMPO 0602/0606 1200 BR BKN001 PROB40 TEMPO 0605/0606 3000 DZ BR BKN002", "TAF EGKK 052255Z 0600/0706 20005KT 9999 SCT025 PROB30 TEMPO 0600/0605 7000 BKN010 TEMPO 0605/0620 7000 RA BKN010 BECMG 0609/0612 14010KT PROB30 TEMPO 0610/0618 4000 +RA RADZ BKN007 BECMG 0620/0623 BKN006 BECMG 0621/0624 20007KT PROB30 TEMPO 0623/0706 4000 BR BKN004", "TAF EGLL 052258Z 0600/0706 21010KT 9999 SCT035 PROB30 TEMPO 0600/0609 BKN007 BECMG 0602/0605 14005KT TEMPO 0606/0621 7000 RA BECMG 0609/0612 BKN010 PROB30 TEMPO 0612/0621 4000 RADZ BKN006 TEMPO 0621/0706 7000 BKN005 PROB30 TEMPO 0621/0706 3000 BR -DZ BKN003 BECMG 0622/0701 20010KT", "TAF EGMD 052254Z 0600/0609 19006KT 9999 FEW045 PROB40 TEMPO 0600/0606 8000 BKN009", "TAF EGNJ 052256Z 0600/0609 18004KT 9999 SCT030 PROB30 0600/0603 6000 PROB30 0603/0607 3000 BR PROB30 TEMPO 0607/0609 BKN008", "TAF EGNM 052257Z 0600/0624 16005KT 9999 SCT023 TEMPO 0600/0608 BKN008 PROB30 0602/0608 1400 BR BKN002 TEMPO 0610/0618 7000 SHRA TEMPO 0618/0624 7000 RA BKN014 PROB30 TEMPO 0622/0624 1400 BR BKN001", "TAF EGNR 051704Z 0518/0603 17005KT 9999 SCT030 TEMPO 0518/0520 6000 SHRA", "TAF EGNT 052257Z 0600/0624 12005KT 0300 FG FEW045 PROB40 TEMPO 0600/0609 2000 BR BKN002 BECMG 0609/0611 9999 NSW TEMPO 0610/0618 7000 SHRA TEMPO 0618/0624 7000 RA BKN008 PROB30 TEMPO 0622/0624 3000 BR BKN002", "TAF EGNX 052258Z 0600/0624 18006KT 9999 SCT030 BECMG 0601/0604 BKN014 PROB30 TEMPO 0602/0609 BKN008 TEMPO 0609/0622 6000 RA BKN008 BECMG 0610/0613 12010KT PROB30 TEMPO 0612/0620 3000 +RA BKN004 BECMG 0616/0619 VRB02KT TEMPO 0622/0624 3000 BR BKN004 PROB30 TEMPO 0622/0624 0300 FG OVC001", "TAF AMD EGPA 060025Z 0600/0609 13019KT 9999 BKN007 BECMG 0600/0603 6000 BKN004 TEMPO 0600/0603 13022G32KT PROB40 0601/0609 0300 FG OVC000", "TAF EGPB 052301Z 0600/0609 14022KT 9999 BKN025 BECMG 0600/0603 BKN012 TEMPO 0600/0609 15025G35KT 9000 BKN008 PROB30 TEMPO 0603/0609 6000 -RADZ BKN006", "TAF EGPC 052301Z 0600/0609 13017KT 9999 BKN006 BECMG 0600/0602 6000 BKN003 PROB40 0600/0609 0300 FG OVC000", "TAF EGPD 052300Z 0600/0624 10003KT 0300 FG OVC001 PROB30 TEMPO 0600/0609 1200 BR OVC002 PROB30 TEMPO 0603/0612 SHRA TEMPO 0609/0621 1200 -DZ BR OVC002 PROB30 TEMPO 0612/0618 6000 OVC005", "TAF EGPE 052301Z 0600/0609 03003KT 9999 FEW020 TEMPO 0600/0608 BKN005 PROB30 TEMPO 0600/0607 3000 BR BKN003", "TAF EGPF 052300Z 0600/0624 08007KT 9999 SCT007 TEMPO 0600/0610 7000 BKN007 PROB40 TEMPO 0600/0610 4000 BR BKN004 PROB40 TEMPO 0600/0609 SHRA TEMPO 0610/0621 6000 SHRA BKN014 PROB40 TEMPO 0611/0620 3000 +SHRA BKN009 BKN015CB PROB40 TEMPO 0621/0624 7000 BKN006", "TAF EGPH 052300Z 0600/0624 06005KT 0300 FG OVC001 PROB40 TEMPO 0600/0609 2000 BR BKN002 PROB30 TEMPO 0600/0610 SHRA BECMG 0609/0612 9999 NSW SCT010 TEMPO 0610/0622 SHRA PROB40 TEMPO 0611/0620 3000 +SHRA TEMPO 0612/0615 6000 BKN008 BECMG 0615/0618 6000 BKN004 PROB40 0618/0624 2000 BR BKN001", "TAF EGPK 052300Z 0600/0624 09005KT 9999 SCT025 PROB40 TEMPO 0600/0608 4000 SHRA BKN014 BECMG 0610/0612 28010KT TEMPO 0610/0615 6000 SHRA BKN014 PROB30 TEMPO 0611/0614 3000 +SHRA BKN009 BKN015CB BECMG 0618/0621 09005KT", "TAF EGPO 052301Z 0600/0609 15009KT 9999 SCT035 PROB30 TEMPO 0600/0605 BKN014 TEMPO 0605/0609 5000 SHRA", "TAF EGQL 052240Z 0600/0609 07006KT 0500 FG BKN001 TEMPO 0600/0609 3000 -RADZ BR BKN005", "TAF EGQS 052252Z 0600/0618 11012KT 9999 SCT025 PROB30 TEMPO 0600/0608 5000 HZ MIFG PROB40 TEMPO 0608/0618 15015G25KT 6000 SHRA SCT018CB", "TAF EGSH 052255Z 0600/0609 19002KT 9999 SCT035 PROB30 0602/0604 8000 PROB30 0604/0607 4000 BR", "TAF EGSS 052256Z 0600/0706 17006KT 9999 FEW012 SCT025 TEMPO 0600/0609 8000 PROB30 TEMPO 0600/0609 BKN008 PROB30 0602/0606 3000 BR TEMPO 0609/0622 7000 RA TEMPO 0609/0612 BKN009 BECMG 0612/0615 OVC008 PROB30 TEMPO 0612/0620 4000 +RA RADZ OVC004 PROB30 TEMPO 0620/0624 4000 RADZ BR OVC004 PROB30 0700/0706 3000 BR BKN003", "TAF EGSY 052254Z 0600/0609 12005KT 9999 SCT020 BECMG 0600/0603 BKN010 TEMPO 0603/0609 6000 RA BKN007 PROB30 TEMPO 0605/0609 3000 +RA BKN004", "TAF EGTE 052256Z 0600/0603 15006KT 9999 SCT010 TEMPO 0600/0603 6000 RA BKN008 PROB30 TEMPO 0600/0603 3000 +RA BKN004", "TAF AMD EGUL 051400Z 0514/0619 21012KT 9999 FEW024 BKN035 OVC055 QNH2992INS TEMPO 0514/0518 8000 -TSRA BKN019 OVC055CB BECMG 0517/0518 VRB06KT 9999 SCT024 BKN035 OVC055 QNH2991INS BECMG 0523/0524 19006KT 9000 BR FEW010 SCT017 BKN024 QNH2993INS BECMG 0612/0613 16010G15KT 8000 -SHRA FEW010 BKN017 OVC024 QNH2993INS BECMG 0613/0614 15012KT 8000 -RA SCT010 OVC017 QNH2988INS TX17/0516Z TN09/0602Z LAST NO AMDS AFT 0514 NEXT 0905", "TAF AMD EGUN 052135Z 0521/0702 16009KT 9999 VCSH SCT040 SCT150 QNH2993INS BECMG 0523/0601 20006KT 8000 BR BKN030 QNH2992INS TEMPO 0601/0605 6000 BR BKN018 BECMG 0608/0610 19012G18KT 9999 NSW SCT018 BKN025 BKN120 QNH2993INS BECMG 0614/0615 16010G15KT 9999 BKN025 OVC040 610703 QNH2991INS TEMPO 0615/0621 13012G18KT 9000 -SHRA OVC012 510206 BECMG 0621/0622 14012KT 8000 BR BKN018 620802 QNH2990INS TX16/0615Z TN07/0603Z LAST NO AMDS AFT 0521 NEXT 0604", "TAF EGVA 051200Z 0512/0618 20010G15KT 9999 SCT035 QNH2989INS BECMG 0518/0519 18010KT 9999 -SHRA SCT020 BKN050 QNH2992INS BECMG 0601/0602 16010KT 9000 BR FEW007 SCT015 BKN025 QNH2991INS BECMG 0608/0609 15010G15KT 9000 -SHRA SCT007 BKN015 OVC020 QNH2990INS TX19/0518Z TN09/0603Z LAST NO AMDS AFT 0512 NEXT 0904", "TAF EGVN 052245Z 0600/0624 18006KT 9999 SCT030 TEMPO 0600/0606 BKN010 PROB30 TEMPO 0600/0607 BKN004 BECMG 0606/0609 BKN010 TEMPO 0606/0624 5000 RA PROB30 TEMPO 0608/0618 3000 RADZ PROB30 TEMPO 0618/0624 3000 RADZ BKN006", "TAF EGVO 051317Z 0515/0603 20010KT 9999 SCT025 PROB40 TEMPO 0515/0518 4000 SHRA BKN022CB BECMG 0521/0524 BKN010", "TAF EGWU 051945Z 0521/0615 20008KT 9999 FEW030 PROB30 TEMPO 0522/0607 BKN010 BECMG 0607/0611 -RA BKN010 TEMPO 0607/0615 6000 RA PROB30 TEMPO 0611/0615 4000 RADZ", "TAF EGXC 052242Z 0600/0618 17006KT 9999 FEW008 TEMPO 0600/0609 6000 BR BKN008 PROB30 TEMPO 0603/0608 3000 BR SCT004 PROB40 TEMPO 0609/0612 SCT020 PROB40 TEMPO 0612/0616 7000 SHRA SCT022 TEMPO 0616/0618 4000 RA BKN012", "TAF EGXW 051029Z 0512/0606 20010KT 9999 SCT030 TEMPO 0512/0519 5000 SHRA SCT020 PROB30 TEMPO 0512/0518 3000 +TSGS BKN018CB PROB30 0521/0603 5000 BR PROB30 0603/0606 3000 BR BKN003", "TAF EGYP 052220Z 0600/0618 31020G30KT 9999 FEW015 PROB40 TEMPO 0600/0609 30030G40KT BECMG 0609/0612 28022G32KT BECMG 0613/0615 25018G28KT PROB30 TEMPO 0613/0617 SCT022", "TAF EHAM 052321Z 0600/0706 17005KT 9999 SCT030 PROB30 0602/0607 0700 FG TEMPO 0612/0624 6000 SHRA SCT025CB BKN035 PROB30 TEMPO 0703/0706 1200 BCFG", "TAF EHBK 052321Z 0600/0706 20005KT 9999 SCT030 PROB30 TEMPO 0612/0616 6000 SHRA FEW025CB BKN030 PROB30 0702/0706 4000 BR MIFG", "TAF EHEH 052317Z 0600/0706 VRB02KT 7000 FEW030 BECMG 0600/0602 3500 BR MIFG TEMPO 0600/0608 1200 BCFG PROB40 0600/0607 0400 FG SCT000 BECMG 0606/0608 19005KT 9999 NSW TEMPO 0614/0618 SCT040CB PROB30 TEMPO 0614/0618 4500 TSRA SCT035CB", "TAF EHGG 052321Z 0600/0706 VRB02KT 7000 MIFG SCT035 PROB40 0600/0607 0500 FG PROB30 0606/0609 BKN003 BECMG 0607/0609 9999 NSW SCT018 BECMG 0611/0614 10010KT SCT025 PROB40 TEMPO 0611/0621 6000 SHRA FEW030CB PROB30 TEMPO 0613/0618 2500 TSRA SCT025CB PROB40 0702/0706 6000 -RADZ BKN008", "TAF EHKD 052031Z 0521/0609 16003KT CAVOK BECMG 0521/0523 3500 BR MIFG PROB40 0523/0606 0700 BCFG BECMG 0607/0609 23005KT 8000 NSW FEW012 BKN250", "TAF EHLE 052322Z 0600/0706 17006KT 9999 SCT030 BECMG 0600/0603 4000 MIFG BR PROB30 0601/0607 0350 FG BECMG 0606/0609 9999 NSW TEMPO 0612/0624 6000 SHRA SCT025CB BKN035 PROB30 0703/0706 0800 BCFG BKN003", "TAF EHLW 052024Z 0521/0609 VRB02KT 3000 BR MIFG FEW020 BECMG 0521/0522 1500 BCFG BECMG 0522/0524 0300 FG OVC001 BECMG 0607/0609 6000 NSW FEW012 BKN250", "TAF EHRD 052321Z 0600/0706 17005KT 9999 SCT030 BECMG 0602/0605 5000 BR MIFG PROB30 0602/0607 0700 FG BECMG 0606/0609 9999 NSW TEMPO 0612/0622 6000 SHRA SCT025CB BKN035 PROB30 TEMPO 0703/0706 1200 BCFG", "TAF COR EHVK 052046Z 0521/0609 VRB02KT 9999 FEW030 BECMG 0521/0523 3500 BR MIFG BECMG 0523/0601 1200 BCFG PROB40 0600/0607 0400 FG SCT000 BECMG 0606/0608 18003KT 8000 NSW", "TAF EICK 052300Z 0600/0624 16005KT 3000 BR BKN003 TEMPO 0600/0609 0500 FG BKN001 TEMPO 0608/0617 -SHRA SCT018CB BECMG 0609/0611 9999 NSW BKN020 BECMG 0610/0612 20010KT PROB30 TEMPO 0611/0613 BKN008 BECMG 0614/0616 24010KT", "TAF EIDL 051700Z 0518/0603 21007KT 9999 FEW007 BKN027 PROB30 TEMPO 0518/0520 -SHRA FEW018CB BECMG 0519/0521 VRB03KT", "TAF EIDW 052300Z 0600/0624 VRB03KT 9999 FEW015 SCT040 PROB30 TEMPO 0603/0608 3000 BR BECMG 0610/0612 13010KT TEMPO 0612/0617 -SHRA FEW018CB BECMG 0621/0623 27007KT", "TAF EIKN 052300Z 0600/0624 17005KT 9999 FEW020 SCT040 TEMPO 0602/0609 2000 BR BKN005 PROB40 TEMPO 0603/0608 0500 FG BKN002 BECMG 0609/0611 20010KT TEMPO 0610/0618 -SHRA SCT018CB PROB40 TEMPO 0611/0615 4000 SHRA", "TAF EIKY 051700Z 0518/0603 20010KT 9999 FEW020 SCT040 BECMG 0518/0520 17005KT TEMPO 0522/0603 3000 BR", "TAF EIME 052300Z 0600/0609 20008KT 9999 FEW018 SCT045 PROB30 TEMPO 0603/0607 3000 BR", "TAF EINN 052300Z 0600/0624 15006KT 9999 FEW012 BKN035 TEMPO 0602/0607 4000 BR TEMPO 0610/0618 -SHRA SCT018CB PROB40 TEMPO 0611/0616 4000 SHRA BECMG 0612/0614 23007KT", "TAF EISG 052300Z 0600/0609 16005KT 9999 SCT020 BKN040 PROB30 TEMPO 0603/0607 3000 BR", "TAF EIWF 052300Z 0600/0609 19005KT 5000 BR BKN003 PROB30 TEMPO 0600/0607 0800 FG BKN001", "TAF EKAH 052344Z 0600/0624 10015KT CAVOK TEMPO 0600/0618 08015G27KT", "TAF EKBI 052344Z 0600/0624 10015KT 9999 -RA SCT040 TEMPO 0600/0619 09015G27KT PROB40 0605/0613 BKN010", "TAF COR EKCH 060011Z 0600/0624 09020KT CAVOK TEMPO 0600/0617 08020G30KT BECMG 0622/0624 07010KT", "TAF EKKA 052308Z 0600/0624 10015KT 9999 FEW030 BKN090 TEMPO 0600/0603 10018G28KT TEMPO 0603/0616 10015G25KT BECMG 0618/0620 10008KT", "TAF EKRK 052344Z 0600/0609 09018KT CAVOK TEMPO 0600/0609 08015G27KT", "TAF EKRN 052307Z 0600/0609 09018KT 9999 SCT120 TEMPO 0600/0604 09020G30KT TEMPO 0604/0606 09018G28KT", "TAF EKSP 052308Z 0600/0624 10018G30KT 9999 SCT030 BKN060 TEMPO 0600/0612 3000 RA BKN008 BECMG 0600/0603 09015G25KT TEMPO 0612/0624 BKN014", "TAF EKYT 052306Z 0600/0624 11018KT 9999 BKN110 TEMPO 0600/0602 11018G28KT TEMPO 0602/0616 11016G26KT BECMG 0618/0620 09008KT", "TAF ELLX 052300Z 0600/0706 25005KT CAVOK BECMG 0602/0604 3000 BR BECMG 0605/0607 18005KT 9999 BKN015 PROB30 TEMPO 0610/0619 SHRA BKN020CB TEMPO 0703/0706 VRB02KT 3000 BR", "TAF ENAN 052300Z 0600/0624 19005KT 9999 FEW040", "TAF ENBN 052300Z 0600/0609 08005KT CAVOK", "TAF ENBO 052300Z 0600/0624 09008KT CAVOK", "TAF ENBR 052300Z 0600/0624 12005KT CAVOK", "TAF ENDU 052300Z 0600/0624 26003KT CAVOK", "TAF ENEV 052300Z 0600/0624 18003KT CAVOK", "TAF ENFL 052300Z 0600/0609 09010KT CAVOK", "TAF ENGC 052300Z 0600/0624 15018KT CAVOK BECMG 0604/0607 17028KT BECMG 0616/0619 17018KT", "TAF ENGM 052300Z 0600/0624 VRB03KT CAVOK BECMG 0607/0609 18010KT BECMG 0619/0621 VRB03KT", "TAF ENHE 052300Z 0600/0609 10006KT CAVOK", "TAF ENKR 052300Z 0600/0609 29008KT 9999 FEW015 BKN040 PROB30 TEMPO 0600/0609 FEW020TCU", "TAF ENLE 052300Z 0600/0609 10032KT 9999 -RA BKN015 PROB40 0600/0609 BKN006", "TAF ENNA 052300Z 0600/0624 27009KT 9999 FEW020 BKN050 PROB30 TEMPO 0600/0603 4000 SHRASN VV014 TEMPO 0600/0605 FEW030CB BECMG 0608/0611 19010KT", "TAF ENOA 052300Z 0600/0624 17015KT CAVOK BECMG 0600/0602 16025KT BECMG 0613/0616 17015KT", "TAF ENOL 052300Z 0600/0624 12008KT CAVOK BECMG 0611/0614 34010KT BECMG 0618/0621 13008KT", "TAF ENRY 052300Z 0600/0624 11005KT CAVOK", "TAF ENSB 052300Z 0600/0624 12016KT 9999 FEW010 BKN030 TEMPO 0600/0612 13020G30KT TEMPO 0601/0612 2000 BLSN SN VV009 BECMG 0614/0616 12006KT BECMG 0620/0622 25012KT", "TAF ENTC 052300Z 0600/0624 22008KT 9999 FEW050", "TAF ENTO 052300Z 0600/0624 12005KT CAVOK", "TAF ENVA 052300Z 0600/0624 10005KT CAVOK BECMG 0610/0612 27010KT BECMG 0618/0620 10005KT", "TAF ENZV 052300Z 0600/0624 11010KT CAVOK TEMPO 0600/0606 11018G28KT", "TAF EPBY 052330Z 0600/0624 07010KT CAVOK TEMPO 0606/0618 -RA BKN014 PROB30 TEMPO 0608/0616 07015G25KT", "TAF EPCE 052300Z 0600/0612 09010KT CAVOK", "TAF EPDA 052300Z 0600/0612 09010KT CAVOK TEMPO 0608/0612 09015G25KT BKN034", "TAF EPDE 052300Z 0600/0612 08010KT CAVOK", "TAF EPGD 052330Z 0600/0624 06010KT CAVOK TEMPO 0608/0616 08016G30KT", "TAF EPKK 052330Z 0600/0624 04010KT CAVOK BECMG 0606/0609 08015G25KT BECMG 0610/0612 VRB02KT 3000 RA BKN014 TEMPO 0610/0616 SHRA BKN014CB PROB30 TEMPO 0610/0616 VRB15G25KT TSRA BECMG 0614/0616 27012KT 9999 NSW BKN020 BECMG 0620/0623 4000 BR BKN014", "TAF EPKS 052300Z 0600/0612 09010KT CAVOK BECMG 0606/0608 -RA BKN030 TEMPO 0606/0612 5000 SHRA BKN020CB", "TAF EPKT 052330Z 0600/0624 08010KT CAVOK BECMG 0605/0608 10015G25KT BECMG 0609/0612 VRB02KT 3000 RA BKN010 TEMPO 0609/0615 SHRA BKN012CB BECMG 0613/0615 28012KT 9999 NSW BKN015 BECMG 0616/0619 34007KT 4000 BR BKN007 TEMPO 0620/0624 2500 BR BKN003", "TAF EPLB 052330Z 0600/0624 08010KT CAVOK TEMPO 0607/0616 09015G25KT TEMPO 0616/0619 09015G25KT 4000 RA BECMG 0619/0621 4000 RA BR BKN012 TEMPO 0619/0624 09015G30KT", "TAF EPLK 052300Z 0600/0612 09010KT CAVOK", "TAF EPLL 052330Z 0600/0624 08011KT CAVOK PROB40 TEMPO 0608/0616 08015G25KT TEMPO 0611/0618 4000 RA BECMG 0616/0618 -RA BKN012 TEMPO 0618/0624 BKN008", "TAF EPLY 051700Z 0518/0606 07010KT CAVOK", "TAF EPMB 052300Z 0600/0612 08010KT CAVOK", "TAF EPMI 052300Z 0600/0612 09012KT CAVOK TEMPO 0606/0612 6000 RA BKN015 PROB30 TEMPO 0606/0612 09015G25KT", "TAF EPMM 052300Z 0600/0612 08010KT CAVOK TEMPO 0607/0612 09015G25KT", "TAF EPMO 052330Z 0600/0624 07010KT CAVOK PROB40 TEMPO 0608/0614 08015G25KT TEMPO 0614/0617 08015G25KT 4000 RA BECMG 0617/0619 4000 RA BR BKN014 PROB40 TEMPO 0619/0624 BKN008", "TAF EPOK 052300Z 0600/0612 09015KT CAVOK PROB30 0600/0612 09015G25KT", "TAF EPPO 052330Z 0600/0624 08012KT CAVOK TEMPO 0600/0616 09015G25KT BECMG 0607/0610 4000 RA BKN013 TEMPO 0610/0615 2500 RA BR BECMG 0615/0618 7000 NSW BKN007 OVC012 BECMG 0621/0623 BKN010", "TAF EPPW 052300Z 0600/0612 08012KT CAVOK BECMG 0606/0608 08015G25KT BECMG 0608/0610 RA BKN030 PROB30 0610/0612 4000 RA BKN016", "TAF EPRA 051730Z 0518/0603 07010KT CAVOK", "TAF EPRZ 052330Z 0600/0624 07010KT CAVOK BECMG 0607/0610 10015G25KT BECMG 0615/0617 VRB02KT 3000 RA BKN014 TEMPO 0615/0619 SHRA BKN014CB PROB30 TEMPO 0615/0619 VRB15G35KT TSRA BECMG 0617/0619 27012KT 9999 NSW BKN020 BECMG 0621/0624 4000 BR BKN009", "TAF EPSC 052330Z 0600/0624 07012KT CAVOK TEMPO 0606/0614 4000 RA BECMG 0609/0611 BKN012 PROB40 TEMPO 0609/0615 BKN008 BECMG 0617/0619 BKN035", "TAF EPSN 052300Z 0600/0612 09012KT CAVOK PROB30 TEMPO 0609/0612 5000 RA SCT009 BKN015", "TAF EPSY 052330Z 0600/0609 07006KT CAVOK", "TAF EPWA 052330Z 0600/0624 08010KT CAVOK PROB40 TEMPO 0608/0614 08015G25KT PROB40 TEMPO 0614/0617 4000 RA BECMG 0617/0619 4000 RA BR BKN014 PROB40 TEMPO 0619/0624 BKN008", "TAF EPWR 052330Z 0600/0624 09010KT CAVOK BECMG 0604/0606 RA BECMG 0606/0608 4000 RA BR BKN013 TEMPO 0608/0610 BKN008 OVC012 BECMG 0610/0612 9999 NSW BKN007 OVC012 BECMG 0615/0618 03006KT BECMG 0621/0623 BKN012", "TAF EPZG 052030Z 0521/0606 07012KT CAVOK TEMPO 0521/0524 07015G25KT BECMG 0603/0605 4000 RA BKN013", "TAF ESGG 052330Z 0600/0624 10009KT CAVOK", "TAF ESGJ 052030Z 0521/0601 12006KT CAVOK", "TAF ESKN 052330Z 0600/0624 VRB02KT CAVOK BECMG 0608/0610 14010KT BECMG 0619/0621 VRB02KT", "TAF ESMS 052344Z 0600/0624 09015KT CAVOK TEMPO 0600/0618 08020G30KT BECMG 0618/0621 08010KT", "TAF ESNU 052330Z 0600/0609 17005KT CAVOK", "TAF ESSA 052330Z 0600/0624 16007KT CAVOK", "TAF ETAD 052100Z 0521/0703 24005KT 9999 FEW050 QNH3002INS BECMG 0523/0524 VRB04KT 8000 BR SCT030 QNH2998INS BECMG 0602/0603 VRB03KT 3200 BR SCT008 QNH2998INS BECMG 0607/0608 23009KT 9999 NSW BKN020 BKN050 QNH2995INS BECMG 0610/0611 21010G15KT 8000 -SHRA BKN020 BKN035 QNH2992INS BECMG 0616/0617 21010G15KT 9999 NSW BKN035 QNH2989INS TX18/0615Z TN09/0603Z", "TAF AMD ETAR 052325Z 0523/0624 VRB06KT 5000 BR BKN030 QNH3000INS TEMPO 0602/0607 0800 FG BKN015 BECMG 0608/0609 23009KT 9999 NSW SCT020 QNH3002INS BECMG 0616/0617 VRB06KT 9999 SCT040 QNH2997INS BECMG 0621/0622 07006KT 9999 FEW030 SCT070 QNH2997INS TX21/0613Z TN08/0604Z", "TAF AMD ETEB 052000Z 0520/0621 VRB06KT 9000 -SHRA SCT026 OVC040 QNH3004INS BECMG 0522/0523 VRB06KT 8000 BR SCT010 SCT018 BKN026 QNH3004INS BECMG 0523/0524 VRB06KT 8000 BR FEW026 BKN040 OVC055 QNH3003INS BECMG 0600/0601 VRB06KT 8000 BR SCT010 BKN015 OVC026 QNH3003INS BECMG 0602/0603 VRB06KT 8000 -SHRA BKN010 OVC018 QNH3002INS BECMG 0604/0605 VRB06KT 8000 BR BKN018 OVC025 QNH3003INS BECMG 0608/0609 VRB06KT 9999 NSW SCT026 BKN040 OVC055 QNH3002INS TX13/0520Z TN11/0604Z LAST NO AMDS AFT 0520 NEXT 0807", "TAF ETIC 051800Z 0518/0624 21006KT 8000 -SHRA SCT070 OVC090 QNH2995INS TEMPO 0520/0522 22010G15KT 6000 -TSRA BKN050CB BECMG 0601/0602 25006KT 9999 NSW SCT025 BKN030 QNH2996INS BECMG 0611/0612 29009KT 9999 SCT020 QNH2995INS TX20/0613Z TN09/0606Z LAST NO AMDS AFT 0520 NEXT 0804", "TAF ETIK 052100Z 0521/0703 16006KT 8000 -SHRA FEW013 BKN080 BKN100 QNH3002INS BECMG 0601/0602 VRB06KT 9000 BR SCT015 SCT025 OVC070 QNH3001INS TEMPO 0602/0604 8000 -DZ BR BKN025 BECMG 0607/0608 28009KT 9999 NSW SCT030 BKN050 QNH3005INS BECMG 0611/0612 28006KT 9999 FEW050 SCT200 QNH3001INS BECMG 0618/0619 VRB06KT 9999 FEW100 FEW200 QNH3000INS TX19/0614Z TN10/0604Z LAST NO AMDS AFT 0521 NEXT 0806", "TAF ETNL 052216Z 0523/0611 07010G20KT 9999 NSW BKN050 TEMPO 0603/0611 08012KT 6000 -RA FEW010 BKN015 PROB30 0605/0611 08012KT 4000 RA BKN010 BY ETGL", "TAF AMD ETNW 060001Z 0600/0623 27005KT 6000 BR FEW003 BKN008 BKN020 TEMPO 0600/0606 29004KT 3000 BR BKN003 BKN015 PROB30 0600/0606 VRB03KT 0500 FG BKN002 BECMG 0607/0609 30005KT 9999 NSW BKN030 BECMG 0613/0615 07010KT 9999 NSW SCT050 BY ETGL", "TAF AMD ETOU 051900Z 0519/0618 VRB06KT 9999 -SHRA BKN030 620804 QNH3001INS BECMG 0600/0601 26005KT 9999 NSW SCT010 BKN020 QNH2999INS TEMPO 0602/0605 8000 BR TX16/0519Z TN08/0604Z LAST NO AMDS AFT 0519 NEXT 0612", "TAF ETSL 052222Z 0523/0608 25005KT 9999 NSW SCT015 BKN080 TEMPO 0523/0608 27005KT 3000 BR SCT010 SCT080 PROB30 0600/0606 VRB02KT 0300 FG BKN001 SCT080 BY ETGL", "TAF EVGA 052303Z 0600/0624 02005KT CAVOK", "TAF EVLA 052305Z 0600/0624 06005KT CAVOK", "TAF EVRA 052301Z 0600/0624 01005KT CAVOK", "TAF EYKA 052300Z 0600/0624 VRB04KT 9000 NSC TEMPO 0608/0614 09014KT SCT045", "TAF EYPA 052300Z 0600/0624 VRB05KT 9000 NSC TEMPO 0608/0614 09015KT SCT045 ", "TAF EYSA 052300Z 0600/0609 VRB05KT CAVOK", "TAF EYVI 052300Z 0600/0624 VRB05KT CAVOK", "TAF FABL 051600Z 0518/0618 34008KT 9999 FEW035TCU BKN080 TX23/0612Z TN04/0603Z PROB30 TEMPO 0609/0618 -SHRA BKN015", "TAF FACT 052200Z 0600/0706 VRB03KT 9999 SCT015 TX20/0612Z TN12/0605Z PROB30 TEMPO 0600/0606 BKN005 BECMG 0606/0608 34010KT FM061000 34010KT 9999 BKN015 BECMG 0700/0702 18010KT", "TAF FAGG 052200Z 0600/0624 27010KT 9999 BKN015 TX20/0612Z TN10/0605Z FM060200 34010KT 9999 BKN020 BECMG 0609/0611 20012KT CAVOK", "TAF FALA 052200Z 0600/0624 VRB03KT CAVOK TX26/0613Z TN12/0605Z PROB30 TEMPO 0601/0604 -TSRA FEW045CB BECMG 0608/0610 33010KT BECMG 0613/0615 VRB03KT PROB30 TEMPO 0613/0619 -SHRA FEW045TCU", "TAF FALE 052200Z 0600/0706 VRB03KT CAVOK TX26/0612Z TN17/0603Z FM060700 20015KT 9999 BKN025 PROB30 TEMPO 0618/0621 5000 SHRA BKN015", "TAF FAOR 052200Z 0600/0706 VRB03KT CAVOK TX24/0613Z TN12/0604Z PROB30 TEMPO 0601/0604 -TSRA FEW045CB BECMG 0605/0607 36010KT BECMG 0610/0612 30011KT PROB30 TEMPO 0614/0619 -TSRA FEW045CB BECMG 0619/0621 VRB03KT", "TAF FAPE 052200Z 0600/0624 25010KT 9999 SCT015 TX23/0610Z TN13/0603Z PROB40 TEMPO 0600/0605 4000 BR BKN005 BECMG 0607/0609 25020G30KT SCT012 BECMG 0614/0616 25015KT CAVOK", "TAF FAUP 051600Z 0518/0618 VRB03KT 9999 FEW050TCU BKN100 TX29/0613Z TN10/0604Z PROB30 TEMPO 0609/0618 -TSRA FEW050CB", "FBMN 052200Z 0600/0624 07010KT CAVOK", "FBPM 052200Z 0600/0624 08010KT CAVOK", "FBSK 052200Z 0600/0706 01008KT CAVOK BECMG 0612/0614 FEW035CB BECMG 0 620/0622 CAVOK", "TAF FCBB 052300Z 0600/0706 26004KT 8000 TS SCT020 FEW030CB PROB30 TEMPO 0600/0602 4000 TSRA BECMG 0603/0605 NSW SCT016 BECMG 0612/0614 SCT020 FEW030CB PROB30 0616/0620 TS BECMG 0620/0622 FEW018", "TAF FCPP 052300Z 0600/0624 18004KT 8000 BKN014 BECMG 0601/0603 FEW010 BKN020 BECMG 0604/0605 SCT013 FEW030CB PROB30 0611/0615 TS PROB40 0618/0622 TS", "TAF FEFF 052300Z 0600/0706 00000KT 6000 NSC BECMG 0608/0610 16010KT BKN010 BECMG 0610/0612 BKN015 FEW033CB PROB30 TEMPO 0614/0620 4000 TSRA BECMG 0620/0622 00000KT SCT007", "TAF FGBT 052300Z 0600/0624 20006KT 9999 SCT010 PROB40 TEMPO 0604/0610 TS BKN009 FEW018CB TEMPO 0610/0615 3000 TSRA BKN010 FEW020CB", "TAF FGSL 052300Z 0600/0706 22006KT 9999 SCT010 TEMPO 0600/0606 4500 TSRA BKN008 FEW018CB PROB30 TEMPO 0617/0622 TS BKN009 FEW018CB", "TAF FHAW 051330Z 0515/0609 14015KT 9999 FEW020 PROB30 TEMPO 0515/0524 SCT018 TEMPO 0600/0609 SCT016", "TAF COR FIMP 052310Z 0600/0706 15008KT 9999 SCT017 TEMPO 0600/0608 7000 -SHRA FEW010 BKN016 PROB30 TEMPO 0602/0606 3000 SHRA FEW008 FEW012TCU BKN014", "TAF FIMR 052315Z 0600/0618 11015G25KT 9999 SCT018 TEMPO 0600/0604 7000 -SHRA BKN016", "TAF FJDG 051700Z 0517/0623 11009KT 9999 FEW023 BKN250 QNH2976INS TX34/0617Z TN27/0610Z", "TAF FKKD 052300Z 0600/0706 VRB03KT 8000 TS BKN013 SCT016CB TEMPO 0601/0605 4000 TSRA TEMPO 0605/0608 2000 BR BECMG 0607/0609 NSW BKN016 FEW020CB", "TAF FKYS 052300Z 0600/0624 VRB02KT 9999 SCT006 BECMG 0600/0602 BKN006 TEMPO 0603/0608 3000 BR PROB40 0604/0607 0600 FG BECMG 0608/0610 BKN016", "TAF FMCH 051700Z 0518/0624 13005KT 9999 FEW020 BECMG 0606/0608 21015KT BECMG 0616/0618 12005KT", "FMCZ 052300Z 0600/0624 24006KT 9999 SCT026 BECMG 0601/0603 17011KT PROB40 TEMPO 0607/0611 4000 SHRA SCT020TCU", "TAF FMEE 052300Z 0600/0706 17005KT 9999 FEW026 SCT046 BECMG 0604/0605 10014KT PROB40 TEMPO 0610/0616 16006KT 4500 SHRA SCT023TCU BECMG 0616/0617 12016KT", "TAF FMMI 052300Z 0600/0706 VRB04KT 9999 FEW004 SCT020", "TAF FMMS 052300Z 0600/0624 18010KT 9999 FEW007 SCT017CB BKN033 PROB40 TEMPO 0600/0624 4000 SHRA", "TAF FMMT 052300Z 0600/0624 24005KT 9999 FEW017 BKN033 PROB30 TEMPO 0603/0610 4000 SHRA BECMG 0606/0609 18010KT PROB30 TEMPO 0615/0624 4000 SHRA BECMG 0618/0621 24005KT", "TAF FMNA 052300Z 0600/0624 16008KT 9999 FEW020", "TAF FMNM 052300Z 0600/0624 12006KT 9999 FEW020 BECMG 0611/0613 24010KT BECMG 0618/0621 10005KT PROB30 TEMPO 0619/0624 SHRA", "TAF FMNN 052300Z 0600/0624 VRB04KT 9999 BKN020 PROB30 TEMPO 0603/0606 4500 SHRA PROB30 TEMPO 0618/0624 4000 SHRA", "TAF FMSD 052300Z 0600/0624 08010KT 9999 FEW016 SCT033 BECMG 0610/0613 FEW007 SCT017CB BKN033 PROB30 TEMPO 0613/0618 4000 SHRA BECMG 0618/0621 FEW017 BKN033", "TAF FMST 052300Z 0600/0624 08005KT 9999 FEW020 BECMG 0606/0609 24010KT BECMG 0615/0618 12005KT", "TAF FNBG 052300Z 0600/0612 VRB03KT 9000 SCT022 BECMG 0609/0612 31008KT", "TAF FNCA 052300Z 0600/0612 VRB03KT 9000 SCT018 TEMPO 0603/0608 FEW022 FEW030CB", "TAF FNCT 052300Z 0600/0612 VRB03KT 9999 FEW018 BECMG 0603/0608 30007KT", "TAF FNDU 052300Z 0600/0612 VRB02KT 8000 SCT022", "TAF FNGI 052300Z 0600/0612 26004KT 9999 FEW018", "TAF FNHU 052300Z 0600/0612 VRB03KT 9999 SCT018", "TAF FNKU 052300Z 0600/0612 13004KT 9999 FEW018", "TAF FNLU 052300Z 0600/0706 VRB02KT 9999 SCT022 TEMPO 0606/0611 8000 BKN018 FEW030CB BECMG 0612/0615 25007KT", "TAF FNMA 052300Z 0600/0612 30004KT 9000 SCT015 TEMPO 0608/0612 BKN022 FEW030CB", "TAF FNME 052300Z 0600/0612 04004KT 9000 FEW015", "TAF FNMO 052300Z 0600/0612 VRB02KT 9999 FEW022 BECMG 0609/0612 26010KT", "TAF FNSA 052300Z 0600/0612 VRB03KT 9999 FEW022", "TAF FNSO 052300Z 0600/0612 VRB02KT 9000 SCT018 TEMPO 0603/0608 BKN022 FEW030CB", "TAF FNUB 052300Z 0600/0612 34006KT 9999 FEW020", "TAF FNUE 052300Z 0600/0612 13004KT 9999 SCT015", "TAF FOOG 052300Z 0600/0624 20005KT 9999 TS SCT010 FEW020CB PROB40 TEMPO 0603/0607 4000 TSRA BKN008 FEW018CB BECMG 0607/0609 NSW", "TAF FOOL 052300Z 0600/0706 22006KT 9999 SCT012 TEMPO 0601/0606 4000 TSRA BKN010 FEW020CB", "TAF FQBR 052200Z 0600/0706 32006KT CAVOK TX30/0613Z TN20/0603Z PROB30 TEMPO 0601/0605 5000 BR FEW012 BECMG 0610/0612 15012KT 9999 SCT020 BECMG 0618/0620 09008KT BECMG 0700/0702 35006KT CAVOK", "TAF FQCH 052200Z 0600/0700 32008KT CAVOK TX26/0613Z TN13/0603Z BECMG 0601/0603 VRB03KT PROB30 TEMPO 0601/0605 5000 BR FEW010 BECMG 0607/0609 16012KT 9999 FEW020 BECMG 0618/0620 30006KT", "TAF FQIN 052200Z 0600/0700 35008KT 9999 FEW020 TX29/0613Z TN22/0603Z BECMG 0608/0610 05014KT BECMG 0619/0621 35006KT", "TAF FQLC 052200Z 0600/0700 09008KT 9999 FEW018 TX24/0613Z TN10/0603Z PROB30 TEMPO 0603/0605 5000 BR FEW012 BECMG 0612/0614 12012KT SCT020 BECMG 0618/0620 09008KT FEW018", "TAF FQMA 052200Z 0600/0706 30006KT 9999 FEW025 TX32/0613Z TN19/0603Z PROB30 TEMPO 0601/0606 5000 BR FEW015 BECMG 0607/0609 02008KT 9999 SCT020 BECMG 0612/0614 07012KT FEW020 BECMG 0621/0623 35006KT SCT025", "TAF FQNC 052200Z 0600/0706 23010KT 9999 SCT020 TX30/0613Z TN22/0603Z BECMG 0612/0614 17012KT FEW025 BECMG 0620/0622 23008KT", "TAF FQNP 052200Z 0600/0700 19008KT CAVOK TX29/0613Z TN20/0603Z PROB30 TEMPO 0603/0606 5000 BR FEW015 BECMG 0612/0614 10012KT 9999 SCT020 BECMG 0617/0619 19008KT", "TAF FQPB 052200Z 0600/0700 19008KT 9999 BKN020 TX30/0613Z TN23/0603Z BECMG 0610/0612 15012KT FEW025 BECMG 0618/0620 23008KT", "TAF FQQL 052200Z 0600/0700 32006KT CAVOK TX30/0613Z TN19/0603Z PROB30 TEMPO 0601/0605 5000 BR FEW012 BECMG 0608/0610 03008KT 9999 SCT020 BECMG 0612/0614 12010KT FEW020 BECMG 0618/0620 VRB03KT", "TAF FQTT 052200Z 0600/0700 19006KT CAVOK TX31/0613Z TN19/0603Z PROB30 TEMPO 0603/0605 5000 BR NSC //END PART 01//", "TAF FQVL 052200Z 0600/0700 09008KT 9999 FEW020 TX29/0613Z TN20/0603Z PROB30 TEMPO 0603/0605 5000 BR NSC BECMG 0612/0614 10010KT 9999 FEW025 BECMG 0618/0620 VRB03KT", "TAF FQXA 052200Z 0600/0700 02006KT 9999 FEW020 TX32/0613Z TN19/0603Z PROB30 TEMPO 0601/0605 5000 BR NSC BECMG 0610/0612 06012KT BECMG 0620/0622 35006KT", "TAF FSIA 052303Z 0600/0624 12010KT 9999 FEW024", "TAF FTTJ 052300Z 0600/0706 06005KT 7000 NSC BECMG 0610/0612 18010KT PROB30 TEMPO 0614/0620 4000 TS BLDU", "TAF FVJN 051600Z 0518/0624 09006KT CAVOK", "TAF FVRG 052200Z 0600/0706 15008KT CAVOK TEMPO 0603/0608 BKN008 BECMG 0610/0612 CAVOK PROB30 TEMPO 0703/0706 BKN010", "TAF FWCL 050900Z 0512/0618 23006KT 9999 FEW025 BECMG 0517/0519 14006KT CAVOK BECMG 0608/0610 20006KT 9999 SCT025", "TAF FWKI 051600Z 0518/0624 07005KT CAVOK TEMPO 0604/0606 07004KT 8000 HZ NSC BECMG 0610/0612 12004KT 9999 FEW026 BECMG 0613/0615 18006KT SCT032 FM061500 17006KT CAVOK", "TAF FYGF 051700Z 0518/0603 36003KT CAVOK", "TAF FYKM 051700Z 0518/0603 10003KT CAVOK", "TAF FYKT 051600Z 0518/0618 33003KT CAVOK BECMG 0520/0522 21005KT BECMG 0608/0610 30005KT", "TAF FYLZ 051700Z 0518/0603 19010KT CAVOK", "TAF FYOA 051700Z 0518/0603 24003KT CAVOK", "TAF FYWB 051600Z 0518/0618 26006KT CAVOK BECMG 0519/0521 33004KT 9999 BKN013 TEMPO 0522/0603 00000KT 0800 FG OVC007 BECMG 0605/0607 03004KT 9999 OVC010", "TAF FYWE 051700Z 0518/0603 23003KT CAVOK", "TAF FYWH 051600Z 0518/0618 34004KT CAVOK BECMG 0522/0600 25004KT", "TAF FZAA 052300Z 0600/0706 20006KT 8000 FEW016 FEW028CB TEMPO 0601/0605 -TSRA BECMG 0606/0608 SCT018 BECMG 0611/0613 34010KT SCT023 FEW030CB TEMPO 0615/0620 TS BECMG 0621/0623 18004KT FEW016", "TAF FZIC 050500Z 0506/0612 16006KT 8000 FEW010 BECMG 0509/0511 SCT026 FEW036CB TEMPO 0512/0516 TS BECMG 0516/0518 00000KT NSC BECMG 0600/0602 1500 BR FM060600 18006KT 7000 SCT010", "TAF FZNA 051100Z 0512/0618 21010KT 8000 SCT018 FEW024CB TEMPO 0513/0517 TS BECMG 0518/0520 05004KT FEW014 BECMG 0609/0611 23010KT SCT018 FEW024CB", "TAF FZQA 051100Z 0512/0618 12010KT CAVOK BECMG 0516/0518 VRB03KT", "TAF GABS 052300Z 0600/0706 19008KT 9999 FEW030 PROB40 TEMPO 0614/0618 VRB20G35KT 4000 TSRA BLDU SCT030 FEW040CB PROB40 TEMPO 0622/0702 VRB20G35KT 4000 -TSRA BLDU SCT030 FEW040CB", "TAF GAGO 052300Z 0600/0624 23008KT 8000 FEW035 PROB40 TEMPO 0613/0618 VRB20G35KT 2000 -TSRA BLDU FEW035 FEW040CB", "TAF GBYD 052300Z 0600/0706 27008KT CAVOK PROB30 TEMPO 0601/0607 4000 BR BKN008", "TAF GCFV 052000Z 0521/0621 36014KT 9999 SCT030 TX25/0614Z TN19/0606Z", "TAF GCGM 052000Z 0521/0621 VRB08KT 9999 FEW030 TX26/0614Z TN19/0606Z TEMPO 0521/0617 VRB15G25KT BECMG 0615/0618 VRB16G28KT", "TAF GCHI 052000Z 0521/0621 01017KT 9999 SCT025 TX25/0614Z TN20/0606Z PROB30 TEMPO 0521/0607 01017G27KT", "TAF GCLA 052000Z 0521/0621 01014KT 9999 SCT035 TX24/0614Z TN20/0606Z PROB30 TEMPO 0603/0607 31005KT PROB30 TEMPO 0606/0612 03017G27KT", "TAF GCLP 052000Z 0521/0621 02018KT 9999 SCT030 TX25/0614Z TN19/0606Z", "TAF GCRR 052000Z 0521/0621 01016KT 9999 SCT025 TX27/0614Z TN18/0606Z PROB40 TEMPO 0610/0616 02020G32KT PROB40 TEMPO 0616/0621 02018G28KT", "TAF GCTS 052000Z 0521/0621 30005KT 9999 FEW030 TX27/0614Z TN19/0606Z PROB30 TEMPO 0521/0522 07010KT PROB40 0610/0621 08016KT", "TAF GCXO 052000Z 0521/0621 31018KT 9999 BKN010 TX21/0614Z TN14/0606Z TEMPO 0521/0616 SCT010 PROB40 TEMPO 0521/0621 2000 DZ BCFG BKN002 PROB30 TEMPO 0521/0604 32018G28KT PROB30 TEMPO 0607/0617 32008KT", "TAF GECE 051400Z 0515/0615 VRB02KT 9999 SCT020 TX23/0614Z TN19/0606Z PROB40 TEMPO 0519/0608 1500 BCFG BR BKN002 BECMG 0609/0611 29013KT", "TAF GEML 052300Z 0600/0624 VRB02KT 9999 FEW020 TX26/0614Z TN16/0606Z BECMG 0605/0608 28012KT", "TAF AMD GFLL 051710Z 0518/0624 16007KT TS BKN012 FEW025CB TEMPO 0517/0522 21008KT 7000 TSRA BKN011 FEW024CB TEMPO 0602/0606 VRB03KT 9999 BKN010 BECMG 0610/0612 12006KT 9999 BKN012", "TAF GGOV 052300Z 0600/0624 24005KT 7000 NSC TEMPO 0615/0619 20010KT", "TAF GLRB 050500Z 0506/0606 23008KT 9999 SCT017 BECMG 0506/0508 03003KT 8000 SCT012 FEW023CB TEMPO 0509/0513 21010KT 9999 BKN018", "TAF GMAD 052300Z 0600/0706 12004KT 8000 NSC BECMG 0604/0608 BKN016", "TAF GMAG 051700Z 0518/0700 28015KT 6000 FEW015 PROB30 0600/0608 2000 BR BKN006", "TAF GMFF 052300Z 0600/0706 26010KT CAVOK PROB30 TEMPO 0603/0607 20004KT 3000 BR BKN005", "TAF GMFK 052300Z 0600/0706 36009KT 8000 NSC TEMPO 0618/0624 36020G30KT", "TAF GMFM 052300Z 0600/0706 28006KT CAVOK", "TAF GMFO 052300Z 0600/0706 24006KT CAVOK BECMG 0614/0618 34014KT SCT033", "TAF GMME 052300Z 0600/0706 34003KT 5000 FEW010 SCT016 PROB30 TEMPO 0600/0608 18003KT 4000 BR BKN010 BECMG 0608/0610 35013KT", "TAF GMMH 051700Z 0518/0700 02020KT CAVOK", "TAF GMMI 051700Z 0518/0700 01018KT 8000 NSC PROB30 TEMPO 0612/0619 36020G30KT", "TAF GMML 051700Z 0518/0700 01018G30KT 7000 NSC BECMG 0518/0520 01018KT PROB30 TEMPO 0612/0619 01022G32KT", "TAF GMMN 052300Z 0600/0706 36004KT CAVOK BECMG 0610/0613 34014KT 9999 SCT016 BECMG 0621/0624 02003KT", "TAF GMMW 051700Z 0518/0700 04012KT CAVOK PROB30 TEMPO 0520/0602 5000 TS FEW030CB PROB30 0604/0608 3000 BR BKN008", "TAF GMMX 052300Z 0600/0706 24004KT 8000 NSC PROB30 TEMPO 0603/0610 4000 BR BKN010", "TAF GMMZ 052300Z 0600/0706 26007KT 9999 FEW040 SCT100 TEMPO 0616/0623 33018G28KT", "TAF GMTA 051700Z 0518/0700 32008KT 9999 FEW020 BKN100 PROB30 0603/0606 4000 BR BKN008", "TAF GMTT 052300Z 0600/0706 17004KT CAVOK PROB40 TEMPO 0600/0606 3000 BR SCT003 SCT010", "TAF GOBD 052300Z 0600/0706 35017KT CAVOK", "TAF GOGS 052300Z 0600/0624 26006KT 9999 SCT013 PROB30 TEMPO 0601/0607 4000 BR BKN008", "TAF GOOY 052300Z 0600/0706 36014KT CAVOK", "TAF GOSS 052300Z 0600/0624 36010KT CAVOK", "TAF GQNO 051700Z 0518/0624 34015KT 7000 NSC TEMPO 0610/0616 06014KT", "TAF GQPP 052300Z 0600/0624 36016KT 7000 NSC", "TAF GUCY 051700Z 0518/0624 27006KT 9999 FEW015 SCT110 PRO30 TEMPO 0519/0600 20012KT 8000 -TSRA SCT013 FEW020CB OVC100", "TAF GVAC 052300Z 0600/0706 04020KT 9999 BKN013 PROB40 TEMPO 0614/0619 04020G32KT SCT013", "TAF GVBA 052300Z 0600/0706 03020KT 9999 BKN014 TEMPO 0614/0619 SCT014", "TAF GVNP 052300Z 0600/0706 02020KT 9999 SCT015 PROB40 TEMPO 0610/0618 02020G32KT", "TAF GVSV 052300Z 0600/0706 06028KT 9999 SCT016 PROB40 TEMPO 0602/0607 06025G35KT PROB40 0609/0618 05028G42KT BKN016", "TAF HAAB 051530Z 0518/0624 VRB03KT 9999 FEW020 SCT070 TEMPO 0518/0521 12007KT -RA SCT018 SCT068", "HABD 050930Z 0512/0618 35005KT 9999 BKN026 SCT090", "HADC 050930Z 0512/0618 VRB05KT 9999 BKN025 SCT090 TEMPO 0514/0518 8000M RA", "TAF HADR 051530Z 0518/0624 17004KT 9999 FEW020 SCT070", "HAGN 050930Z 0512/0618 35005KT 9999 SCT026 SCT090 FM0513 TL0520 BKN026", "HAJJ 050930Z 0512/0618 19005KT 9999 BKN026 SCT090 TEMPO 0502/0606 6000M TSRA FEW025 CB", "HALA 050930Z 0512/0618 19005KT 9999 BKN026 SCT090 TEMPO 0512/0516 8000M RA", "HAMK 050930Z 0512/0618 11006KT 9999 BKN027 SCT090 TEMPO 0512/0516 8000M -SHRA", "TAF HBBA 052300Z 0600/0706 36003KT 9999 FEW022 BKN090 TEMPO0602/0605 36006KT -RA FEW020 SCT030CB BKN090 BECMG 0607/0609 18008KT 9999 SCT030 BKN100 PRO40 TEMPO0613/0621 09010G20KT TSRA OR SHRA FEW022 FEW030CB SCT080 BECMG0702/0704 00000KT FEW020 SCT080", "TAF HCMM 051100Z 0512/0618 21015KT 9999 FEW024 BECMG 0602/0604 20010KT BKN020", "TAF HDAM 052300Z 0600/0624 00000KT 9999 SCT023 BECMG 0606/0612 10010KT SCT023 FEW133 BECMG 0612/0615 FEW030CB BECMG 0615/0621 VRB03KT SCT023", "TAF HEAL 052300Z 0600/0706 30010KT 9999 SCT020", "TAF HEAR 052300Z 0600/0706 29014KT 9999 SCT025", "TAF HEAT 052300Z 0600/0706 31008KT CAVOK", "TAF HEAX 052300Z 0600/0706 28010KT 9999 FEW020", "TAF HEBA 052300Z 0600/0706 28010KT 9999 FEW020", "TAF HEBL 052300Z 0600/0706 36011KT CAVOK", "TAF HECA 052300Z 0600/0706 31009KT CAVOK PROB30 TEMPO 0602/0606 VRB03KT 4000 HZ", "TAF HEGN 052300Z 0600/0706 32012G22KT 6000 NSC TEMPO 0606/0615 3000 SA", "TAF HELX 052300Z 0600/0706 31006KT CAVOK TEMPO 0600/0609 6000 NSC", "TAF HEMA 052300Z 0600/0706 32012G22KT 6000 NSC TEMPO 0606/0615 3000 SA", "TAF HEMM 052300Z 0600/0706 30010KT 9999 SCT020", "TAF HEOW 052300Z 0600/0706 02012KT CAVOK", "TAF HEPS 052300Z 0600/0706 28010KT CAVOK", "TAF HESC 052300Z 0600/0706 28014KT CAVOK", "TAF HESG 052300Z 0600/0706 31008KT CAVOK", "TAF HESH 052300Z 0600/0706 32012G22KT 6000 NSC TEMPO 0606/0615 3000 SA", "TAF HESN 052300Z 0600/0706 35012KT CAVOK", "TAF HETB 052300Z 0600/0706 27015KT 6000 NSC", "TAF HETR 052300Z 0600/0706 31012G25KT 6000 NSC TEMPO 0606/0615 3000 SA", "TAF HKEL 050500Z 0506/0612 22003KT 9999 FEW015 BECMG 0508/0511 25010KT FEW022CB SCT023 TEMPO 0512/0516 VRB10KT -TSRA BKN080 BECMG 0520/0523 VRB02KT NSW FEW016", "TAF HKJK 051700Z 0518/0624 04005KT NSW BKN018 BECMG 0601/0604 FEW008 BKN016 BECMG 0608/0611 08010KT BKN024 BECMG 0620/0623 04005KT NSW BKN018", "TAF HKKI 051700Z 0518/0624 05005KT NSW FEW020CB SCT022 BECMG 0608/0611 FEW024CB SCT025 TEMPO 0613/0617 -TSRA FEW020CB SCT021 BKN080 BECMG 0620/0623 05005KT NSW FEW020CB SCT022", "TAF HKML 052300Z 0600/0624 18015KT 9999 FEW019CB SCT080 TEMPO 0600/0603 00000KT -SHRA FEW019CB BKN080 BECMG 0611/0612 19010KT NSW FEW022 SCT090 BECMG 0618/0621 SCT019", "TAF HKMO 052300Z 0600/0706 22005KT 9999 FEW020CB SCT021 TEMPO 0600/0602 -SHRA FEW021CB SCT022 BKN080 BECMG 0609/0612 17010KT NSW FEW024 BECMG 0621/0623 22005KT SCT020", "TAF HKNW 051700Z 0518/0618 04005KT NSW BKN018 BECMG 0601/0604 FEW008 BKN016 BECMG 0608/0611 08010KT BKN024", "HRYR 052300Z 0600/0706 28004KT 9999 SCT025 BECMG 0608/0611 18008KT BKN023 BECMG 0614/0617 05010G20KT TSRA FEW023CB BKN025 BECMG 0620/0623 30005KT NSW SCT025 BKN100 BECMG 0703/0706 00000KT 4000 BR FEW010 SCT025", "TAF HSSJ 051000Z 0512/0618 18006KT 9999 FEW040 SCT140 PROB40 TEMPO 0515/0521 VRB05G15KT 9999 SCT040 SCT030", "TAF HTAR 052300Z 0600/0624 12005KT 9999 BKN018 BECMG 0603/0607 12010KT 8000 -RA SCT005 BKN018", "TAF HTDA 052300Z 0600/0706 22005KT 9999 SCT011 FEW012CB PROB30 TEMPO 0607/0613 TSRA BKN015 FEW017CB", "TAF HTDO 052300Z 0600/0624 09010KT 9999 FEW020", "TAF HTKA 051100Z 0512/0612 30010KT 9999 SCT023 FEW024CB", "TAF HTKJ 052300Z 0600/0624 09005KT 9999 BKN023 BECMG 0609/0612 FEW028CB BKN030 BECMG 0616/0618 SCT026", "TAF HTMW 052300Z 0600/0624 12010KT 9999 TS SCT020 FEW021CB BECMG 0610/0612 33010KT NSW", "TAF HTTB 052300Z 0600/0624 12010KT 9999 FEW022", "TAF HTZA 052300Z 0600/0624 21010KT 9999 BKN012 FEW014CB BKN070 PROB30 TEMPO 0602/0609 5000 RA BECMG 0610/0612 15015KT SCT020 FEW022CB", "TAF HUEN 051700Z 0518/0624 18010KT 9999 FEW023 FEW025CB BECMG 0522/0602 35006KT FEW020 FEW022CB BECMG 0604/0608 VRB15KT 8000 -TSRA SCT019 FEW021CB BKN100", "TAF HUSO 051100Z 0512/0612 VRB03KT 9000 -TSRA BKN021 FEW023CB FM 051800 14005KT 9999 FEW019 FEW021CB BECMG 0601/0605 00000KT FEW018 BECMG 0608/0612 11004KT SCT020 FEW022CB", "KABE 052321Z 0600/0624 04006KT P6SM SCT050 BKN100 FM060200 VRB03KT P6SM SCT050 FM061300 33006KT P6SM FEW050 FM061600 30006KT P6SM SCT050 FM062300 VRB03KT P6SM SKC", "KABI 052324Z 0600/0624 21011KT P6SM SCT120 FM060200 18010KT P6SM FEW250 FM061300 21011KT P6SM FEW250", "KABQ 052333Z 0600/0624 23019G27KT P6SM FEW120 FM060200 25008KT P6SM SKC FM061100 VRB06KT P6SM SKC FM061700 24008KT P6SM FEW120 FEW250 FM062100 22010G18KT P6SM FEW130 FEW250", "KABR 052321Z 0600/0624 07009G16KT P6SM SKC FM060900 06011G18KT P6SM VCSH BKN018 FM061200 06011G19KT 5SM SHRA BR OVC006 FM062100 09010G16KT P6SM BKN010 FM062200 34010G17KT P6SM BKN010", "KABY 052320Z 0600/0624 09006KT P6SM BKN080 FM061500 13008KT P6SM BKN050", "KACK 052320Z 0600/0624 35010KT P6SM SKC FM060400 28012KT P6SM SKC", "KACT 060020Z 0600/0624 17013KT P6SM VCTS SCT040CB BKN200 TEMPO 0600/0602 6SM -TSRA BKN040CB FM060200 17010KT P6SM SCT250 FM061100 19010KT P6SM BKN011 FM061700 18010KT P6SM SCT015", "KACV 052337Z 0600/0624 21010G20KT 6SM -RA BR BKN035 OVC050 FM060300 18010KT 4SM -RA BR OVC025 FM060600 15009KT 4SM -RA SCT009 OVC015 FM061600 20008KT 6SM BR VCSH SCT015 OVC025 FM062100 30008KT P6SM OVC025", "KACY 052321Z 0600/0624 VRB03KT P6SM SCT050 BKN100 FM060300 VRB03KT P6SM SCT050 FM061300 31006KT P6SM FEW050 FM061600 26006KT P6SM SCT050 FM061900 22008KT P6SM SCT050", "KADF 052332Z 0600/0624 07005KT P6SM OVC025 FM060300 VRB03KT P6SM BKN025 OVC050 FM060900 11004KT 6SM BR BKN007 OVC015 FM061500 14006KT P6SM OVC015 FM061800 18009KT P6SM BKN030", "TAF KADW 051700Z 0517/0623 01008KT 9999 SCT050 QNH3019INS BECMG 0608/0609 29002KT 9999 SKC QNH3022INS BECMG 0618/0619 35005KT 9999 SCT050 QNH3030INS TX18/0519Z TN06/0609Z", "KAEG 052333Z 0600/0624 24021G29KT P6SM FEW120 FM060900 28010KT P6SM SKC FM061800 23009KT P6SM SKC FM062100 21014G22KT P6SM FEW130 FEW250", "KAEX 052340Z 0600/0624 16008KT P6SM SCT035 FM060600 18009KT P6SM BKN010 TEMPO 0608/0612 3SM TSRA OVC005CB FM061200 14007KT P6SM VCTS OVC010CB TEMPO 0614/0618 3SM TSRA OVC005CB FM062000 16010KT P6SM VCSH OVC020", "TAF COR KAFF 051935Z 0519/0701 17018G28KT 9999 SCT110 520009 QNH2980INS WND 140V240 TEMPO 0520/0523 23022G36KT 530009 BECMG 0602/0603 27014KT 9999 SKC 530103 QNH2985INS WND 220V020 ROTOR CONDS EXIST BECMG 0606/0607 33009KT 9999 SKC 530209 QNH2989INS ROTOR CONDS EXIST BECMG 0615/0616 27015KT 9999 SCT080 520009 QNH2985INS BECMG 0619/0620 20015G25KT 9999 VCSH BKN080 520001 530109 QNH2983INS WND 130V270 SHRA OMTNS TX21/0521Z TN03/0612Z LAST NO AMDS AFT 0520 NEXT 0611", "KAFW 052320Z 0600/0624 17014KT P6SM FEW050 BKN250 FM061200 17012KT P6SM SCT016 FM061700 16016KT P6SM FEW050", "KAGC 052330Z 0600/0624 VRB03KT P6SM SKC FM061300 09002KT P6SM SCT250", "KAGS 052338Z 0600/0624 VRB03KT P6SM -RA BKN040 OVC080 FM060600 VRB03KT P6SM SCT025 OVC050 TEMPO 0608/0612 6SM -SHRA BKN015 OVC035 FM061400 10005KT P6SM BKN025 OVC080", "KAHN 052329Z 0600/0624 06004KT P6SM -RA FEW025 BKN060 FM061100 07003KT P6SM VCSH SCT008 BKN015 TEMPO 0613/0616 5SM BR BKN008 FM061600 10006KT P6SM SCT012 BKN020 FM062300 11005KT P6SM BKN035", "KAIA 060022Z 0600/0624 29030G45KT P6SM VCTS BKN070CB TEMPO 0600/0603 VRB25G40KT 3SM TSRA BKN025CB FM060300 32010KT P6SM VCSH BKN035 FM060600 23008KT 6SM BR VCFG BKN008 FM061300 26015KT P6SM SCT050 FM061600 26020G30KT P6SM SCT100", "KALB 052320Z 0600/0624 32006KT P6SM VCSH SCT060 FM060300 33003KT P6SM FEW050 FM061300 31009KT P6SM FEW060", "KALI 052320Z 0600/0624 13012G19KT P6SM SCT040 OVC200 FM060400 15010KT P6SM SCT015 OVC200 FM060800 14005KT 4SM BR BKN007 OVC014 TEMPO 0609/0613 2SM BR OVC007 FM061500 16012G18KT P6SM BKN015 BKN050 FM061900 14014G21KT P6SM SCT030 BKN250", "KALO 052342Z 0600/0624 17011G20KT 6SM -SHRA OVC050 FM060400 15012KT 6SM -SHRA SCT020 OVC035 FM060900 15010KT 6SM -SHRA SCT015 OVC030 FM061200 15011G20KT P6SM VCSH OVC009 FM061700 14014KT P6SM OVC015", "KALS 052322Z 0600/0624 26025G40KT P6SM SCT100 FM060200 27010G20KT P6SM FEW100 SCT200 FM060400 20009KT P6SM SKC FM061700 21012G22KT P6SM FEW200 FM062000 24015G30KT P6SM FEW200", "KALW 052320Z 0600/0624 22015G20KT P6SM OVC030 FM060200 20010KT P6SM VCSH OVC050 FM060600 19008KT P6SM VCSH BKN050 BKN100 FM061200 20009KT P6SM OVC050", "KAMA 052320Z 0600/0624 22013KT P6SM SKC FM061400 24016G26KT P6SM SKC", "KANB 052320Z 0600/0624 07006KT P6SM BKN060 FM060700 09007KT P6SM BKN035 FM061700 10008KT P6SM BKN045", "KAND 052320Z 0600/0624 20006KT P6SM BKN110 FM060200 VRB02KT P6SM VCSH BKN100 FM060600 VRB02KT P6SM BKN100 FM061400 19006KT P6SM SCT025 BKN050", "KAOO 052325Z 0600/0624 06004KT P6SM SCT070 FM060200 VRB02KT P6SM SKC FM061000 00000KT 1SM BR SCT001 FM061200 05004KT P6SM SKC", "KAPA 052320Z 0600/0624 25015G26KT P6SM SCT090 BKN130 FM060200 32010KT P6SM FEW100 SCT140 FM060400 VRB05KT P6SM FEW140 FM060600 18008KT P6SM FEW200 FM061800 14008KT P6SM FEW100 FM062200 30012G18KT P6SM FEW100 SCT140", "KAPC 052320Z 0600/0624 22012KT P6SM VCSH SCT035 OVC100 FM060600 VRB05KT P6SM -SHRA BKN025 FM061800 26008KT P6SM VCSH SCT020 BKN035", "KAPF 052320Z 0600/0624 VRB04KT P6SM FEW035 SCT050 FM061400 08009KT P6SM FEW040 FM061700 27010KT P6SM SCT040 BKN100", "KAPN 052320Z 0600/0624 12006KT P6SM OVC060 FM061500 13011G20KT P6SM SCT120 BKN200", "KARA 052340Z 0600/0624 21012KT P6SM VCTS SCT025CB FM060200 18010KT P6SM BKN020 FM060500 18010KT P6SM OVC008 FM060900 17008KT P6SM VCTS OVC008CB PROB30 0617/0618 2SM TSRA OVC015CB FM061800 16010G16KT P6SM VCTS OVC010CB PROB30 0620/0622 3SM TSRA OVC015CB", "KART 052320Z 0600/0624 25004KT P6SM FEW250 FM060100 VRB03KT P6SM FEW250 FM061400 28006KT P6SM FEW035 FEW250 FM061700 27009KT P6SM FEW045 FEW250 FM062000 25009KT P6SM FEW250", "KASD 052329Z 0600/0624 09006KT P6SM VCTS BKN015CB BKN030 FM060200 12006KT P6SM BKN020 FM061100 VRB03KT 5SM BR BKN008 OVC015 FM061500 13006KT 5SM BR VCTS BKN015CB", "KASE 052335Z 0600/0624 29010G15KT P6SM BKN080 FM060200 19006KT P6SM FEW090 SCT250 FM061200 20007KT P6SM SCT070 FM061800 29010KT P6SM SCT110 FM062100 24012G21KT P6SM SCT110", "KASN 052320Z 0600/0624 07006KT P6SM BKN060 FM061000 10005KT P6SM BKN035 FM061700 13006KT P6SM BKN045", "KAST 052335Z 0600/0624 25005KT P6SM BKN020 OVC040 FM061000 15005KT P6SM VCSH BKN020 OVC040 FM061800 19008KT P6SM -SHRA BKN025 BKN050", "KATL 052329Z 0600/0706 10006KT P6SM VCSH FEW025 BKN060 FM060800 10005KT P6SM VCSH SCT012 BKN020 TEMPO 0611/0613 6SM BR BKN012 FM061600 11008KT P6SM SCT018 BKN025 FM062200 11007KT P6SM BKN035 FM070100 11005KT P6SM SCT035 BKN200", "KATW 052334Z 0600/0624 07009G16KT P6SM BKN080 FM060300 14007KT P6SM -SHRA BKN070 WS019/18035KT TEMPO 0607/0608 5SM -SHRA BKN040 FM060800 14007KT 5SM SHRA OVC035 FM061300 14011G20KT P6SM VCSH BKN030", "KATY 052321Z 0600/0624 06009G17KT P6SM SKC FM060700 08008KT P6SM BKN010 FM061500 09010G20KT 4SM -SHRA BR OVC005 FM061700 10010G17KT P6SM VCSH OVC007 FM062300 17009KT P6SM BKN030", "KAUG 052323Z 0600/0624 33006KT P6SM FEW080 FM060300 VRB05KT P6SM SKC FM061500 32007G15KT P6SM FEW080", "KAUS 052321Z 0600/0706 15014KT P6SM FEW035 SCT200 TEMPO 0601/0605 3SM -TSRA FEW012 BKN035CB FM060700 17007KT P6SM BKN012 FM061000 18004KT 5SM BR OVC009 FM061600 17007KT P6SM BKN015 FM061800 16012KT P6SM SCT035 SCT250", "KAUW 052334Z 0600/0624 10008G17KT P6SM -SHRA BKN080 FM060200 11006KT 6SM SHRA OVC040 FM060600 11006KT 5SM SHRA OVC025 TEMPO 0607/0609 OVC012 FM060900 12008KT 5SM SHRA OVC008 FM061500 12009G18KT P6SM VCSH OVC012", "KAVL 052320Z 0600/0624 18009KT P6SM SCT250 FM060500 VRB02KT P6SM BKN100 FM061400 19008KT P6SM BKN040", "KAVP 052335Z 0600/0624 VRB03KT P6SM SCT070", "KAXN 052340Z 0600/0624 08013KT P6SM SCT060 FM060900 07010KT P6SM BKN013 FM061100 08010KT P6SM OVC007 FM062000 09011KT 6SM -SHRA BR BKN007 OVC013", "KAZO 052320Z 0600/0624 15006KT P6SM SCT100 FM061500 16010G18KT P6SM SCT050 BKN150", "TAF AMD KBAB 052300Z 0523/0701 16012G18KT 9999 SCT030 BKN050 620609 QNH2999INS BECMG 0604/0605 16009KT 9999 VCSH OVC030 620609 QNH3005INS BECMG 0607/0608 16010G15KT 9000 -SHRA OVC015 620609 QNH3004INS BECMG 0617/0618 18010G15KT 9999 VCSH BKN030 620604 QNH3004INS TX17/0523Z TN10/0614Z LAST NO AMDS AFT 0523 NEXT 0616", "TAF KBAD 051945Z 0520/0702 18012KT 9999 SCT020 QNH2982INS BECMG 0607/0608 16008KT 9999 VCSH OVC045 QNH2989INS BECMG 0610/0611 15010KT 9999 NSW OVC010 QNH2989INS BECMG 0616/0617 18012G18KT 9999 BKN020 QNH2991INS BECMG 0700/0701 16010KT 9999 SCT045 QNH2991INS TX28/0521Z TN20/0611Z", "KBAF 052320Z 0600/0624 31003KT P6SM SCT090 FM061500 33010KT P6SM FEW250", "KBAM 052349Z 0600/0624 25011KT P6SM VCSH BKN060 OVC180 FM061600 VRB06KT 3SM -SHRA SCT015 OVC025 FM061900 VRB06KT P6SM VCSH BKN040 OVC150", "KBBD 052324Z 0600/0624 15011KT P6SM VCTS SCT100CB FM060100 14011KT P6SM SKC FM061700 18011KT P6SM SCT250", "KBBG 060024Z 0600/0624 13010KT 3SM BR OVC008 FM060200 13012KT P6SM OVC007 FM060400 13010KT P6SM OVC007 WS020/21040KT FM061600 18012G20KT P6SM SCT250", "KBCB 052320Z 0600/0624 VRB02KT P6SM SCT180", "KBCE 052320Z 0600/0624 21012G20KT P6SM VCSH FEW060 BKN080 FM060200 32009KT P6SM FEW080 FM061500 18011KT P6SM SCT040 BKN120 FM062000 21018G28KT P6SM BKN140", "KBDL 052320Z 0600/0706 27003KT P6SM FEW050 FM061400 34010KT P6SM FEW250", "KBDN 052320Z 0600/0624 VRB06KT P6SM BKN100 FM060300 32010KT P6SM OVC050 FM060800 18004KT P6SM OVC050 FM062100 30010KT P6SM OVC050", "KBDR 052340Z 0600/0624 20007KT P6SM SCT040 BKN080 FM060200 VRB03KT P6SM FEW040 SCT080 FM061200 32007KT P6SM SCT040 SCT070 FM061700 24010KT P6SM SCT040 SCT070", "KBED 052320Z 0600/0624 19007KT P6SM FEW090 FM060600 29004KT P6SM FEW110 FM061200 31010KT 6SM BR FEW070", "KBFD 052325Z 0600/0624 36004KT P6SM SCT100 FM060200 VRB02KT P6SM SKC FM060800 00000KT 3/4SM BR SCT002 FM061200 08004KT P6SM SKC", "KBFF 052320Z 0600/0624 28015G27KT P6SM VCTS BKN070CB TEMPO 0600/0602 VRB25G40KT 3SM TSRA BKN025CB FM060200 33008KT P6SM SCT100 FM060800 12007KT P6SM SCT100 FM061500 27015G25KT P6SM SCT100", "KBFI 052335Z 0600/0624 18008KT P6SM -RA BKN010 OVC025 FM061200 16006KT 6SM -DZ BR OVC010 FM062100 19005KT P6SM VCSH OVC035", "KBFL 052331Z 0600/0624 34010KT P6SM BKN070 FM060300 33007KT P6SM SCT050 BKN100 FM060800 33012KT P6SM OVC050", "KBFM 052320Z 0600/0624 36004KT 3SM +TSRA BR SCT015 BKN020CB BKN035 FM060130 11006KT P6SM OVC019 FM060600 11004KT 6SM BR OVC015 FM061500 09009KT P6SM OVC015", "KBGM 052335Z 0600/0624 33005KT P6SM SCT070 FM060900 VRB03KT 4SM BR FEW080 TEMPO 0610/0612 1SM BR FM061200 34004KT P6SM SCT150", "KBGR 052320Z 0600/0624 33007KT P6SM FEW070 SCT250 FM061400 33012G22KT P6SM FEW070 FM062300 32006KT P6SM FEW070 SCT250", "KBHB 052320Z 0600/0624 VRB03KT P6SM FEW070 SCT250 FM061400 32012G20KT P6SM FEW080 SCT250 FM062300 32006KT P6SM FEW080 SCT250", "KBHM 052320Z 0600/0624 10007KT P6SM BKN060 FM060800 13007KT P6SM BKN050 FM061500 14007KT P6SM BKN050 PROB30 0618/0624 4SM SHRA BR", "TAF KBIF 052200Z 0522/0704 24020G25KT 9999 SKC QNH2990INS BECMG 0601/0602 26012KT 9999 SKC 510053 QNH2990INS BECMG 0612/0613 VRB06KT 9999 SKC 510013 QNH3004INS BECMG 0617/0618 25010G20KT 9999 SKC 510023 QNH2994INS TX30/0623Z TN09/0612Z", "KBIH 052320Z 0600/0624 17008KT P6SM FEW100 FEW200 FM060300 33009KT P6SM BKN100 FM060600 33007KT P6SM VCSH SCT060 BKN100 FM061200 VRB06KT P6SM SCT100 FM062100 31012G20KT P6SM SCT150", "KBIL 052320Z 0600/0624 31010KT P6SM -TSRA SCT040CB BKN080 OVC110 TEMPO 0600/0602 VRB15G25KT 3SM -TSRA SCT025 BKN040CB FM060200 28009KT P6SM -SHRA FEW030 BKN090 FM060500 24007KT P6SM FEW050 SCT100 BKN200", "KBIS 052320Z 0600/0624 08011KT P6SM FEW100 FM061200 07011KT P6SM VCSH BKN015 FM061500 07011G20KT 4SM -SHRA BR BKN010 FM062200 05012KT 5SM -SHRA BR OVC013", "TAF AMD KBIX 052150Z 0521/0624 14009KT 9999 VCSH SCT010 BKN015 BKN035 QNH2992INS TEMPO 0522/0600 VRB20G30KT 4800 -TSRA BKN005 OVC010CB BECMG 0602/0603 11009KT 8000 BR SCT010 BKN020 QNH3001INS BECMG 0617/0618 18012G18KT 9999 NSW BKN025 QNH3006INS TX26/0521Z TN20/0612Z", "KBJC 052320Z 0600/0624 29015G25KT P6SM SCT090 BKN130 FM060200 32010KT P6SM FEW100 SCT140 FM060400 VRB05KT P6SM FEW140 FM060700 24005KT P6SM FEW200 FM061600 14008KT P6SM FEW100 FM062100 28014G22KT P6SM FEW100 SCT140", "KBJI 052321Z 0600/0624 09015G20KT P6SM SKC FM060400 09008KT P6SM SCT050 FM060600 09009KT P6SM BKN035 FM061200 08007KT P6SM BKN020 FM061900 06013KT P6SM VCSH BKN015", "KBKE 052343Z 0600/0624 33010KT P6SM -RA SCT015 OVC045 TEMPO 0600/0604 -RA BKN015 OVC030 FM060400 30006KT P6SM VCSH BKN045 FM060900 VRB03KT P6SM BKN080 OVC100", "TAF AMD KBKF 051806Z 0518/0623 VRB06KT 9999 SKC 520073 QNH2980INS TEMPO 0521/0602 23015G35KT BECMG 0602/0603 20010G15KT 9999 FEW120 FEW180 520063 QNH2977INS BECMG 0604/0605 VRB06KT 9999 SKC 510073 QNH2988INS BECMG 0616/0617 26010G15KT 9999 SKC 520083 QNH2991INS BECMG 0621/0622 23010G15KT 9999 FEW110 520073 QNH2985INS TX22/0521Z TN05/0609Z", "KBKW 052346Z 0600/0624 03005KT P6SM FEW250 FM060600 13005KT P6SM FEW250 FM061400 18005KT P6SM SCT250", "KBLF 052320Z 0600/0624 VRB03KT P6SM FEW150", "KBLH 052320Z 0600/0624 22012G19KT P6SM SKC FM060200 20007KT P6SM FEW250 FM062000 20012G22KT P6SM SCT250", "KBLI 052335Z 0600/0624 19005KT P6SM VCSH BKN025 OVC045 FM061100 16004KT P6SM OVC030 FM061900 16006KT P6SM VCSH OVC040", "TAF KBLV 060000Z 0600/0706 15012KT 9999 BKN050 QNH2998INS BECMG 0605/0606 16012G18KT 9999 OVC015 QNH3004INS BECMG 0612/0613 16012G18KT 9000 -SHRA OVC015 QNH3005INS TEMPO 0617/0621 16015G25KT 6000 -TSRA OVC015CB BECMG 0702/0703 16015G25KT 9999 NSW OVC020 QNH2993INS TX24/0619Z TN17/0611Z", "KBMG 052320Z 0600/0624 15007KT P6SM SCT250 FM061300 15009KT P6SM SCT110", "KBMI 052325Z 0600/0624 18015G22KT P6SM SCT060 BKN100 FM060200 16011KT P6SM BKN060 FM061400 15014KT P6SM BKN018 FM061800 16016G25KT P6SM BKN030", "KBNA 052327Z 0600/0624 19006KT P6SM VCSH BKN060 OVC070 FM060200 14007KT P6SM BKN060", "KBNO 052343Z 0600/0624 30015KT P6SM -RA BKN025 OVC040 FM060300 30005KT P6SM VCSH BKN045 OVC090 FM060900 VRB03KT P6SM OVC045 FM061900 33008KT P6SM SCT050 BKN070", "KBOI 052343Z 0600/0624 30010KT P6SM VCSH BKN045 OVC070 TEMPO 0600/0603 -SHRA SCT025 OVC045 FM060600 26007KT P6SM -RA OVC035 FM061100 VRB04KT P6SM VCSH BKN050 OVC080 FM061300 30006KT P6SM SCT060 BKN080", "KBOS 052320Z 0600/0706 16008KT P6SM FEW080 FM060100 23006KT P6SM SKC FM060600 27009KT P6SM SKC FM061100 31011KT P6SM FEW110", "KBPI 052328Z 0600/0624 28012G20KT P6SM SCT070 BKN150 FM060200 26008KT P6SM SCT080 BKN150 FM060900 20007KT P6SM VCSH SCT060 BKN100 FM061600 26012G20KT P6SM VCSH SCT050 BKN100", "KBPK 052332Z 0600/0624 14008G16KT P6SM OVC015 FM060600 13009KT P6SM BKN007 OVC015 FM061000 12010KT P6SM BKN003 OVC007 FM061600 16012KT P6SM BKN015 OVC025 FM061900 17012KT P6SM BKN035", "KBPT 052340Z 0600/0624 16008KT P6SM SCT020 BKN035 FM060200 18010KT P6SM BKN010 FM060700 15005KT P6SM VCTS OVC010CB TEMPO 0608/0612 1SM BR OVC005 FM061200 14006KT P6SM VCSH OVC010 FM061500 18009KT P6SM OVC015 FM061800 16010KT P6SM OVC030", "KBRD 052337Z 0600/0624 07010G17KT P6SM SCT070 TEMPO 0604/0606 BKN030 FM060600 07012G19KT P6SM BKN012 FM060700 07011KT P6SM BKN009 FM061500 08011KT 4SM BR VCSH BKN006", "KBRL 052320Z 0600/0624 17012KT P6SM BKN080 FM060900 14010KT P6SM OVC025 FM061400 14011KT P6SM OVC008 FM062100 16012G20KT P6SM BKN035", "KBRO 052320Z 0600/0624 15010KT P6SM FEW030 SCT170 FM060300 16009KT P6SM BKN018 BKN080 FM060600 17010KT P6SM BKN009 OVC080 FM061500 15013KT P6SM SCT012 BKN070 FM061900 15019G27KT P6SM SCT040 BKN070", "KBTL 052320Z 0600/0624 14008KT P6SM SKC FM061500 16010G18KT P6SM SCT050 BKN150", "KBTM 052321Z 0600/0624 19014G21KT P6SM SCT080 FM060200 19009KT P6SM BKN080 FM060700 VRB04KT P6SM SCT050 BKN080 FM061900 30011KT P6SM VCSH BKN050", "KBTR 052329Z 0600/0624 19007KT P6SM BKN030 BKN110 FM060600 15005KT P6SM BKN025 FM061100 13005KT 6SM BR SCT003 BKN010 FM061400 14006KT P6SM BKN015 FM061600 15008KT 6SM SHRA BR VCTS BKN015CB BKN025", "KBTV 052340Z 0600/0624 35010KT P6SM BKN070 FM060200 VRB03KT P6SM BKN100 FM061300 32006KT P6SM FEW190 FM061700 34010KT P6SM FEW160", "KBUF 052320Z 0600/0624 04007KT P6SM FEW250 FM060200 VRB04KT P6SM FEW250 FM061400 VRB03KT P6SM FEW035 FEW250 FM061800 VRB03KT P6SM FEW045 SCT250 FM062000 34005KT P6SM FEW045 SCT200", "KBUR 052338Z 0600/0624 18008KT P6SM VCSH BKN050 FM060400 VRB03KT P6SM SCT050 FM061800 18005KT P6SM BKN100 FM062200 20010KT P6SM SCT250", "KBVI 052330Z 0600/0624 VRB02KT P6SM FEW070 FM061300 08004KT P6SM SCT250", "KBVO 052320Z 0600/0624 16010KT P6SM BKN030 TEMPO 0600/0604 BKN025 FM060400 17009KT P6SM BKN015 FM061600 19011G19KT P6SM FEW025 SCT250", "KBWG 052320Z 0600/0624 22006KT P6SM VCSH BKN100 FM060300 17004KT P6SM BKN090 FM060900 14003KT P6SM BKN070 FM061500 17009G15KT P6SM SCT030 BKN040", "KBWI 052340Z 0600/0706 03005KT P6SM SCT050 BKN080 FM060300 00000KT P6SM FEW200 FM061400 30005KT P6SM SCT120 FM061800 18005KT P6SM SCT200 FM070100 16004KT P6SM FEW250", "KBYI 052320Z 0600/0624 20012G22KT P6SM -SHRA VCTS FEW070CB BKN100 FM060200 26012KT P6SM -SHRA SCT030 BKN060 FM061200 24010KT P6SM VCSH SCT015 BKN025 FM061800 28007KT P6SM SCT050 BKN080", "KBZN 052347Z 0600/0706 24011G15KT P6SM SCT080 BKN120 FM060200 17012KT P6SM BKN120 FM061500 32007KT 6SM -SHRA SCT035 BKN060 FM061800 26011G18KT P6SM SCT030 BKN060 PROB30 0618/0624 4SM -TSRA BR SCT025 BKN050CB FM070200 20008KT 6SM -SHRA BR SCT020 BKN040", "KCAE 052338Z 0600/0624 VRB03KT P6SM BKN100 FM061600 17007KT P6SM SCT040 OVC100", "KCAK 052333Z 0600/0624 VRB03KT P6SM SCT250 FM060700 10005KT P6SM FEW250 FM062300 11004KT P6SM BKN200", "KCAR 052320Z 0600/0624 33006KT P6SM FEW070 BKN250 FM061300 33012G22KT P6SM SCT050 FM062300 32007KT P6SM SKC", "TAF AMD KCBM 060005Z 0600/0623 13008KT 9999 SCT050 BKN120 510606 QNH2995INS BECMG 0600/0601 13006KT 9999 BKN030 BKN050 QNH2995INS BECMG 0605/0606 13006KT 9999 BKN020 QNH2995INS BECMG 0609/0610 13006KT 9999 BKN007 OVC025 QNH3000INS BECMG 0615/0616 15010G15KT 9999 BKN015 OVC030 QNH3000INS TX18/0600Z TN17/0611Z LAST NO AMDS AFT 0601 NEXT 0715", "KCDC 052320Z 0600/0624 22014G25KT P6SM VCSH SCT060 BKN080 FM060300 18007KT P6SM FEW100 FM061700 21020G30KT P6SM SCT150", "KCDR 052320Z 0600/0624 24015G25KT P6SM VCTS BKN080CB TEMPO 0600/0603 VRB25G40KT 3SM TSRA BKN025CB FM060300 31010KT P6SM VCSH BKN035 FM060600 24008KT 6SM BR VCFG BKN008 FM061300 25015KT P6SM SCT050 FM061600 26020G30KT P6SM SCT100", "KCDS 052320Z 0600/0624 24010KT P6SM SKC FM061800 26013G20KT P6SM SKC", "KCEC 052337Z 0600/0624 17011G19KT 3SM -RA BR BKN015 OVC040 FM060100 16008G17KT 4SM -RA BR BKN012 OVC020 FM060600 19008KT 5SM -SHRA BR BKN015 OVC025 FM061300 17010KT 5SM BR VCSH SCT008 BKN030 FM062100 24008KT P6SM -SHRA OVC025", "TAF KCEF 060005Z 0600/0706 30005KT 9999 BKN070 QNH3017INS BECMG 0603/0604 30004KT 9999 SCT070 QNH3019INS BECMG 0606/0607 VRB03KT 9999 SKC QNH3019INS TEMPO 0607/0611 8000 BR BECMG 0614/0615 33010KT 9999 FEW050 QNH3016INS BECMG 0616/0617 33010G18KT 9999 SCT065 510005 QNH3009INS BECMG 0620/0621 33009KT 9999 SCT070 QNH3010INS BECMG 0623/0624 31005KT 9999 FEW060 QNH3011INS TX21/0620Z TN04/0610Z LAST NO AMDS AFT 0603 NEXT 0612", "KCGI 052320Z 0600/0624 16007KT P6SM OVC040 FM060800 15006KT P6SM OVC030 FM061300 14008KT P6SM OVC018 FM061600 15009G17KT P6SM VCSH OVC010 FM062100 17010G19KT P6SM BKN025", "KCHA 052330Z 0600/0624 17005KT P6SM VCSH BKN060 FM060600 VRB03KT P6SM OVC045 FM061500 13006KT P6SM BKN027 FM062100 16008KT P6SM BKN035", "KCHO 052340Z 0600/0624 08003KT P6SM SCT060 FM060300 02004KT P6SM BKN100 FM060800 00000KT P6SM SCT150 FM061600 17003KT P6SM FEW140 FM061900 19005KT P6SM FEW200", "KCHS 052320Z 0600/0624 14007KT P6SM SCT120 OVC200 FM060300 VRB04KT P6SM VCSH BKN050 OVC200 FM061500 12008KT P6SM BKN040 OVC120 FM061900 16010KT P6SM BKN050 OVC220", "KCID 052320Z 0600/0624 14010KT P6SM BKN060 FM060300 14010KT 6SM SHRA OVC040 FM061000 14010KT P6SM OVC020 FM061400 14011KT P6SM OVC008 FM062100 15012G20KT P6SM BKN015", "KCIU 052320Z 0600/0624 11006KT 6SM -SHRA OVC035 FM061500 12011G20KT 6SM -SHRA OVC040", "KCKB 052346Z 0600/0624 VRB03KT P6SM FEW250 FM060600 00000KT 2SM BR FEW002 FM060700 00000KT 1/2SM FG BKN002 FM061300 VRB03KT P6SM SCT250", "KCKV 052327Z 0600/0624 20010KT P6SM FEW070 OVC090 FM061000 14007KT P6SM BKN070 FM061500 16009G15KT P6SM BKN025 FM061700 17009G15KT P6SM BKN035", "KCLE 052333Z 0600/0706 05012KT P6SM SCT250 FM061200 13005KT P6SM BKN250 FM070000 08004KT P6SM BKN150 FM070400 12007KT P6SM SCT120", "KCLL 052330Z 0600/0624 17010KT P6SM FEW040 FM060200 17010KT P6SM VCTS SCT035CB FM060400 16008KT P6SM SCT010 SCT020 FM060900 15007KT 6SM BR BKN007 FM061500 18009KT P6SM SCT015 BKN025 FM061700 17012KT P6SM SCT030 SCT040", "KCLM 052335Z 0600/0624 31005KT P6SM -RA BKN003 OVC010 FM061400 29006KT P6SM VCSH OVC030", "KCLT 052320Z 0600/0706 20005KT P6SM SCT250 FM060600 VRB02KT P6SM SCT250 FM061400 23005KT P6SM SCT100", "KCMA 052338Z 0600/0624 21010KT P6SM SCT050 FM060300 VRB03KT P6SM SCT050 FM060800 VRB03KT P6SM BKN035 FM062100 25010G15KT P6SM SCT250", "KCMH 052326Z 0600/0624 14006KT P6SM BKN250 FM061500 13007KT P6SM BKN200 FM062300 14005KT P6SM BKN120", "KCMI 052325Z 0600/0624 17015G24KT P6SM SCT060 BKN100 FM060200 16009KT P6SM BKN060 FM061400 15013KT P6SM BKN018 FM061800 16015G22KT P6SM BKN030", "KCMX 052320Z 0600/0624 10012KT P6SM BKN007 FM060200 10010KT 5SM BR BKN005 FM060800 10010KT 3SM BR VCSH BKN007 FM061300 10011KT P6SM VCSH BKN007 FM062000 10009KT P6SM OVC008 FM062200 10009KT P6SM OVC013", "KCNM 052320Z 0600/0624 25013G24KT P6SM SKC FM060200 25010KT P6SM SKC", "KCNU 052333Z 0600/0624 14010KT P6SM OVC020 FM060100 14011KT P6SM BKN023 FM060600 15014G22KT P6SM BKN011 FM060900 17015G23KT P6SM BKN005 FM061200 18016G25KT P6SM BKN013 FM061300 19017G26KT P6SM SCT025", "KCNY 052335Z 0600/0624 22014G22KT P6SM SCT120 FM060500 26015KT P6SM SCT090 FM061200 23010KT P6SM FEW250 FM061800 20010KT P6SM FEW200 FM062000 21018G31KT P6SM SCT200", "KCOD 052328Z 0600/0624 26012G20KT P6SM VCSH SCT060 BKN100 FM060200 21008KT P6SM SCT100 BKN160 FM061500 26012G22KT P6SM SCT090 BKN120 FM061800 27016G26KT P6SM VCSH SCT080 BKN100", "KCOE 052320Z 0600/0624 23010KT P6SM VCSH BKN015 OVC020 FM060600 17008KT P6SM VCSH BKN015 OVC020 FM061200 20007KT 5SM -RA BR OVC015", "TAF KCOF 051800Z 0518/0624 11012KT 9999 SCT060 SCT200 QNH3001INS BECMG 0616/0617 09012G18KT 9000 -SHRA SCT040 BKN200 QNH3008INS BECMG 0621/0622 12015KT 9999 NSW SCT060 BKN200 QNH3010INS TX29/0519Z TN22/0610Z", "KCON 052323Z 0600/0624 32006KT P6SM FEW060 FM060300 VRB03KT P6SM FEW250 FM061500 32008G15KT P6SM FEW080 FEW250", "KCOS 052322Z 0600/0624 23020G35KT P6SM SCT100 SCT200 FM060200 32015KT P6SM FEW200 FM060600 35007KT P6SM FEW200 FM061600 16012KT P6SM FEW200 FM061900 19015G30KT P6SM FEW100 SCT200", "KCOT 052338Z 0600/0624 14014G20KT 6SM HZ VCTS SCT050CB OVC200 FM060400 12010KT P6SM BKN200 FM061100 11007KT 6SM BR BKN015 BKN250 FM061600 15010KT P6SM FEW030 SCT250", "KCOU 052324Z 0600/0624 15012G20KT P6SM SKC FM060500 15011G20KT P6SM BKN025 FM060900 15011G21KT P6SM VCSH SCT009 BKN012 FM061400 15011G21KT P6SM BKN015 FM061600 16013G22KT P6SM SCT015 BKN040", "KCPR 052328Z 0600/0624 23020G30KT P6SM SCT090 SCT200 FM060200 27015KT P6SM SCT200 FM060600 23012KT P6SM SCT200 FM061400 24018G26KT P6SM SCT070 BKN140", "KCPS 052324Z 0600/0624 16010G18KT P6SM BKN060 FM060800 16009KT P6SM BKN025 FM061000 15008KT P6SM BKN015 FM061400 16009KT P6SM VCSH BKN015 FM061800 16014G21KT P6SM SCT015 BKN040", "KCRE 052320Z 0600/0624 17005KT P6SM SCT250 FM060900 00000KT P6SM SCT250 FM061400 14006KT P6SM SCT250 FM061700 18008KT P6SM SCT250", "KCRG 052328Z 0600/0624 08008KT P6SM SCT050 BKN100 OVC200 FM060600 08004KT P6SM BKN050 OVC100 FM061400 09011G16KT P6SM VCSH BKN035 OVC050 FM062000 10013G20KT P6SM VCSH SCT035 BKN050", "KCRP 052320Z 0600/0624 14013G20KT P6SM SCT025 BKN200 FM060400 15011KT P6SM BKN012 OVC200 FM060800 14008KT 5SM BR BKN007 OVC012 TEMPO 0609/0613 3SM BR OVC007 FM061500 16014G21KT P6SM BKN015 BKN050 FM061900 14017G24KT P6SM SCT030 BKN250", "KCRQ 052327Z 0600/0624 25010KT P6SM FEW030 BKN050 FM060200 VRB04KT P6SM BKN030 BKN050 FM060800 VRB04KT P6SM BKN022 OVC030 FM061700 VRB04KT P6SM SCT025 BKN250 FM062000 26010G17KT P6SM FEW030 FEW250", "KCRW 052346Z 0600/0624 05004KT P6SM FEW250 FM060800 00000KT 5SM BR VCFG FEW001 FM061200 18004KT P6SM SCT250", "KCSG 052329Z 0600/0624 09009KT P6SM BKN080 FM061400 10008KT P6SM SCT025 BKN035 FM061800 12008KT P6SM SCT040", "KCSM 052320Z 0600/0624 21019G28KT P6SM SKC FM060100 18010KT P6SM SKC FM061600 22015G21KT P6SM SKC", "KCSV 052327Z 0600/0624 20005KT P6SM OVC110 FM061300 15007KT P6SM BKN045", "KCTB 052347Z 0600/0624 20009KT 6SM -SHRA BR VCTS OVC090CB TEMPO 0606/0607 3SM -TSRA BR BKN025CB FM060700 08009KT 6SM -SHRA SCT025 BKN035 FM060900 09011KT 6SM -SHRA BR SCT015 OVC025 FM061400 05011G18KT 6SM SHRA BR SCT010 BKN015 FM061800 34011G18KT 6SM -SHRA SCT010 BKN020 PROB30 0618/0624 4SM -SHRA BR BKN012", "KCUB 052338Z 0600/0624 00000KT P6SM BKN100 FM061600 17007KT P6SM SCT040 OVC100", "KCVG 052326Z 0600/0706 12005KT P6SM SCT250 FM061500 15008KT P6SM BKN200 FM061800 17012KT P6SM BKN100 FM070100 16007KT P6SM BKN100", "TAF KCVS 051800Z 0518/0624 23015G25KT 9999 SKC QNH2983INS BECMG 0601/0602 22010KT 9999 SKC QNH2985INS BECMG 0610/0611 27008KT 9999 SKC QNH2995INS BECMG 0615/0616 27012G22KT 9999 SKC QNH2991INS TX28/0520Z TN11/0612Z", "KCWA 052334Z 0600/0624 10009G17KT P6SM -SHRA BKN080 FM060200 11007KT 6SM SHRA OVC040 FM060600 11007KT 5SM SHRA OVC025 TEMPO 0607/0609 OVC012 FM060900 12008KT 4SM SHRA OVC009 FM061400 13009G18KT P6SM -SHRA OVC012", "KCXO 052330Z 0600/0624 16006KT P6SM SCT035 SCT050 FM060500 15006KT P6SM SCT007 BKN015 FM061000 16006KT 4SM BR BKN007 BKN015 FM061500 17009KT P6SM SCT015 BKN025 FM061700 16010KT P6SM SCT025 SCT035", "KCXP 052344Z 0600/0624 26011G20KT P6SM SCT060 BKN120 FM060400 25006KT P6SM VCSH BKN035 OVC050 FM060900 10005KT 4SM -SHRASN SCT030 OVC045 FM061300 VRB05KT P6SM VCSH SCT035 BKN050 FM061800 25009KT P6SM BKN035 BKN040 PROB30 0618/0621 -SHRASN FM062100 25015G25KT P6SM FEW045 SCT060", "KCYS 052320Z 0600/0624 32018G28KT P6SM VCTS BKN080CB FM060200 34010KT P6SM SCT100 FM061500 25020G30KT P6SM SCT100", "TAF KDAA 052000Z 0520/0702 36009KT 9999 BKN050 QNH3017INS BECMG 0522/0523 VRB06KT 9999 FEW060 SCT150 QNH3021INS BECMG 0612/0613 31005KT 9999 FEW050 SCT200 QNH3028INS TX23/0619Z TN06/0610Z LAST NO AMDS AFT 0601 NEXT 0812", "KDAB 052326Z 0600/0624 08010KT P6SM FEW050 SCT150 BKN200 FM060200 08004KT P6SM SCT035 SCT120 BKN250 FM061400 08010KT P6SM VCSH SCT030 SCT250 FM061700 08012G22KT P6SM VCTS SCT035CB SCT100", "KDAG 052320Z 0600/0624 25017G27KT P6SM FEW060 SCT150 FM061500 27019G29KT P6SM FEW060 BKN250", "KDAL 052320Z 0600/0624 17014KT P6SM FEW050 BKN250 FM061200 17012KT P6SM SCT018 FM061700 17015KT P6SM FEW050", "KDAN 052320Z 0600/0624 VRB03KT P6SM FEW200", "KDAY 052326Z 0600/0624 12006KT P6SM SCT250 FM061500 14008KT P6SM BKN200 FM062100 17010KT P6SM BKN100", "KDBQ 052320Z 0600/0624 18010KT P6SM BKN060 FM060300 15010KT 6SM SHRA OVC040 FM060900 15008KT P6SM OVC020 FM061400 14012KT P6SM OVC008 FM062100 15012G20KT P6SM BKN020", "KDCA 052340Z 0600/0706 03004KT P6SM FEW050 BKN080 FM060300 VRB03KT P6SM FEW200 FM061400 30003KT P6SM FEW200 FM061700 30004KT P6SM SCT200 FM062000 15005KT P6SM SCT200 FM070500 18003KT P6SM SCT150", "KDDC 052320Z 0600/0624 16012KT P6SM FEW050 FM060700 VRB06KT P6SM FEW250 FM061900 23012KT P6SM SKC", "KDEC 052325Z 0600/0624 17013G21KT P6SM SCT060 BKN100 FM060200 16009KT P6SM BKN060 FM061300 15012KT P6SM BKN018 FM061800 16015G24KT P6SM BKN030", "KDEN 052320Z 0600/0706 31015G25KT P6SM SCT090 BKN130 FM060200 32010KT P6SM FEW100 SCT140 FM060500 VRB05KT P6SM FEW140 FM060700 20010KT P6SM FEW200 FM061400 24005KT P6SM FEW200 FM061800 14008KT P6SM FEW100 FM062200 29014G22KT P6SM FEW100 SCT140 FM070200 03007KT P6SM FEW100 SCT140", "KDET 052320Z 0600/0624 12008KT P6SM BKN250 FM060400 10005KT P6SM SCT250 FM061600 16009KT P6SM BKN150", "KDFW 052320Z 0600/0706 18015KT P6SM FEW050 BKN250 FM061200 17012KT P6SM SCT015 FM061700 18015KT P6SM FEW050 FM070100 16016KT P6SM VCTS BKN050CB FM070500 15013KT P6SM SCT250", "KDHN 052320Z 0600/0624 13007KT P6SM BKN080 FM060600 06004KT P6SM BKN250", "KDHT 052320Z 0600/0624 23013KT P6SM SKC FM061400 23018G28KT P6SM SKC", "KDIJ 052320Z 0600/0624 23012G20KT P6SM FEW040 BKN070 FM060300 17012KT P6SM SCT050 SCT100 FM060900 16010KT P6SM SCT010 BKN025 FM061200 19010KT 5SM -RASN SCT010 OVC020 FM061800 21010KT P6SM -SHRA VCTS SCT030CB OVC050 AMD LTD TO CLD VIS AND WIND", "KDIK 052320Z 0600/0624 10010KT P6SM SCT090 FM061400 08012KT P6SM VCSH BKN025 FM061600 08013KT 5SM -SHRA BR SCT007 OVC015 FM062100 07013KT P6SM VCSH OVC020", "TAF AMD KDLF 052305Z 0523/0701 12008KT 9999 FEW250 QNH2971INS BECMG 0611/0612 13012KT 9999 BKN012 QNH2984INS TEMPO 0612/0615 BKN008 BECMG 0615/0616 14008KT 9999 BKN018 QNH2989INS BECMG 0617/0618 16012KT 9999 VCSH SCT020 BKN050 QNH2983INS TX37/0523Z TN22/0612Z LAST NO AMDS AFT 0523 NEXT 0718", "KDLH 052337Z 0600/0624 07020G29KT P6SM BKN014 TEMPO 0602/0603 5SM BR BKN006 FM060300 07017G27KT 2SM BR BKN004 FM060500 07016G25KT 1SM BR BKN002 TEMPO 0605/0608 1/2SM FG OVC002 FM060800 07014G22KT 1/2SM FG VCSH OVC002 FM061700 07015G23KT 1 1/2SM BR VCSH OVC003 FM062200 08016G25KT 1SM -SHRA BR OVC003", "KDLS 052320Z 0600/0624 31010KT P6SM OVC080 FM060300 29008KT P6SM BKN050 FM061800 32013G20KT P6SM BKN100", "TAF KDMA 052204Z 0522/0704 26012G21KT 9999 SKC QNH2989INS BECMG 0602/0603 VRB06KT 9999 SKC QNH2993INS BECMG 0607/0608 13007KT 9999 SKC QNH3000INS BECMG 0615/0616 VRB06KT 9999 SKC QNH2999INS BECMG 0619/0620 27012G21KT 9999 SKC QNH2991INS BECMG 0701/0702 VRB06KT 9999 SKC QNH2993INS TX29/0622Z TN09/0612Z", "KDMN 052332Z 0600/0624 25018G28KT P6SM SKC FM060600 28007KT P6SM SKC FM061700 24013G22KT P6SM SKC", "KDNL 052338Z 0600/0624 VRB03KT P6SM -RA BKN035 OVC080 FM060600 VRB03KT P6SM SCT025 OVC035 TEMPO 0608/0612 6SM -SHRA BKN015 OVC035 FM061400 10005KT P6SM BKN025 OVC080", "TAF KDOV 060000Z 0600/0706 13006KT 9999 BKN070 QNH3019INS BECMG 0607/0608 VRB06KT 8000 BR SCT015 OVC030 QNH3024INS TEMPO 0608/0611 6000 OVC020 BECMG 0613/0614 33006KT 9999 NSW SCT050 QNH3020INS BECMG 0621/0622 26006KT 9999 SCT100 QNH3018INS TX20/0619Z TN08/0610Z", "KDPA 052320Z 0600/0624 16010KT P6SM SCT070 BKN200 PROB30 0610/0615 -SHRA BKN030 FM061500 16014G23KT P6SM BKN035", "KDRO 052335Z 0600/0624 24013G23KT P6SM FEW110 FM060100 26011KT P6SM FEW110 FM060400 VRB04KT P6SM FEW250 FM061900 23013G22KT P6SM FEW250", "KDRT 052321Z 0600/0624 11006KT P6SM SKC FM061200 12007KT P6SM BKN012 FM061700 14008KT P6SM SCT035 SCT250", "KDSM 052342Z 0600/0624 15010G18KT 3SM -TSRA BKN010CB FM060300 13010KT P6SM VCSH OVC030 FM060700 15009KT P6SM BKN015 FM061300 13012KT P6SM -SHRA OVC010 FM061600 14012G20KT P6SM BKN010 FM062200 18008KT P6SM SCT040", "KDTW 052320Z 0600/0706 12008KT P6SM BKN250 FM060400 10005KT P6SM SCT250 FM061600 16009KT P6SM BKN150 FM070000 10006KT P6SM SCT060 OVC090", "KDUG 052320Z 0600/0624 24020G29KT P6SM SKC FM060200 25011G20KT P6SM SKC FM060700 33004KT P6SM SKC FM061600 18007KT P6SM SKC FM062000 24015G25KT P6SM SKC", "KDUJ 052330Z 0600/0624 VRB04KT P6SM BKN035 FM061000 00000KT 6SM BR SKC TEMPO 0610/0613 4SM BR SCT001 FM061300 09004KT P6SM SKC", "KDVL 052321Z 0600/0624 06011KT P6SM SCT060 BKN080 FM060300 06012KT P6SM SCT100 FM060800 07012KT P6SM SCT060 FM061100 08012KT P6SM BKN045 FM062300 06013KT P6SM VCSH BKN020", "KDVT 052320Z 0600/0624 24011G18KT P6SM SKC FM060300 25006KT P6SM SKC TEMPO 0606/0609 VRB03KT FM060900 11004KT P6SM FEW250", "TAF KDYS 060000Z 0600/0706 16010G15KT 9999 SCT140 QNH2968INS BECMG 0604/0605 18015G20KT 9999 SKC QNH2981INS BECMG 0609/0610 20010G15KT 9999 SKC QNH2982INS BECMG 0614/0615 19012G18KT 9999 SCT100 QNH2981INS BECMG 0620/0621 VRB15G25KT 9000 -TSRA BKN050CB QNH2980INS BECMG 0622/0623 19012G18KT 9999 NSW SCT050 QNH2980INS BECMG 0700/0701 18020G30KT 9999 SCT100 QNH2980INS TX34/0600Z TN20/0612Z", "KEAR 052325Z 0600/0624 09009KT P6SM SCT060 TEMPO 0602/0604 TSRA BKN040CB FM060600 09013KT P6SM -SHRA BKN023 FM060800 07009KT P6SM BKN009 FM061000 06007KT 1 1/2SM BR BKN004 FM061500 34008KT P6SM BKN040", "KEAT 052320Z 0600/0624 29011KT P6SM OVC060 FM060600 33007KT 6SM BR OVC035 FM061800 23005KT P6SM OVC050", "KEAU 052340Z 0600/0624 10010KT P6SM -SHRA SCT030 BKN080 TEMPO 0601/0604 2SM TSRA BR BKN030CB FM060500 09008KT P6SM VCSH SCT025 OVC050 FM061100 12006KT P6SM OVC008 FM062200 13007KT P6SM VCSH BKN008 OVC014", "KECG 052324Z 0600/0624 11008KT P6SM SKC FM060300 VRB04KT P6SM SCT200 FM060600 VRB02KT P6SM FEW150 FM061400 06005KT P6SM FEW050 FM061800 09010KT P6SM SCT050", "KECP 052320Z 0600/0624 18009KT P6SM FEW040 BKN080 FM060700 09004KT P6SM BKN250", "TAF KEDW 052045Z 0521/0703 25015G25KT 9999 FEW035 SCT080 SCT180 520009 QNH2997INS TEMPO 0521/0603 25020G30KT 530009 BECMG 0602/0603 24015G25KT 9999 SCT040 520009 QNH3000INS TEMPO 0603/0605 BKN040 BECMG 0604/0605 24012KT 9999 SCT040 QNH3000INS BECMG 0620/0621 26020G30KT 9999 FEW040 FEW180 530009 QNH3006INS TX18/0522Z TN07/0614Z", "KEED 052320Z 0600/0624 22010G18KT P6SM FEW100 SCT200 FM060300 24008KT P6SM FEW100 SCT200 FM061900 23010G16KT P6SM FEW100 SCT200", "KEET 052320Z 0600/0624 09004KT P6SM BKN060 FM061500 14006KT P6SM BKN050 PROB30 0618/0624 4SM SHRA BR", "TAF KEFD 052000Z 0520/0702 18012KT 9999 BKN030 QNH2982INS BECMG 0601/0602 17009KT 8000 BR FEW010 QNH2985INS BECMG 0603/0604 17006KT 8000 BR OVC003 QNH2990INS BECMG 0615/0616 17012KT 9999 NSW OVC011 QNH2993INS BECMG 0622/0623 16015KT 9999 SCT026 QNH2992INS BECMG 0623/0624 16015KT 9999 BKN018 QNH2992INS TX33/0521Z TN23/0611Z", "KEFK 052340Z 0600/0624 VRB04KT P6SM SCT070 FM061400 32007KT P6SM FEW180", "KEGE 052335Z 0600/0624 22016G24KT P6SM SCT110 BKN200 FM060200 20005KT P6SM FEW110 SCT250 FM060500 11005KT P6SM SCT250 FM061200 11007KT P6SM BKN060 FM061600 23008KT P6SM SCT110 FM061900 23018G30KT P6SM SCT110", "TAF KEGI 051700Z 0517/0623 13012KT 6000 -SHRA BKN045 BKN060 QNH3002INS TEMPO 0517/0519 15012G18KT 8000 -SHRA VCTS BKN020CB BECMG 0523/0524 14006KT 9999 NSW BKN020 QNH3004INS BECMG 0606/0607 09006KT 9999 BKN020 OVC070 QNH3008INS BECMG 0619/0620 15009KT 9999 SCT020 OVC050 QNH3013INS TX27/0519Z TN19/0612Z", "KEKN 052346Z 0600/0624 35004KT P6SM FEW250 FM060500 00000KT 3SM BR FEW002 FM060600 00000KT 2SM BR SCT001 FM060700 00000KT 1/2SM FG BKN001 FM061300 00000KT P6SM SCT250", "KEKO 052339Z 0600/0624 VRB06KT P6SM VCSH BKN060 OVC150 FM062000 23010KT 6SM -SHRA VCTS SCT025 OVC040CB", "KEKS 052347Z 0600/0624 18012G20KT P6SM SCT050 BKN080 FM060200 15012G21KT P6SM SCT040 BKN080 FM061500 18017G27KT 6SM -SHRA SCT025 BKN050 FM061800 19019G34KT P6SM SCT035 BKN070 PROB30 0618/0624 4SM -TSRA BR SCT015 BKN035CB", "KELD 052320Z 0600/0624 12008KT P6SM FEW035 SCT045 FM060400 14005KT P6SM BKN015 FM060900 VRB03KT 4SM BR OVC007 FM061200 09003KT 3SM BR OVC004 FM061400 17008KT P6SM OVC007 FM061600 18008KT P6SM BKN015 FM062100 17010KT P6SM BKN100", "KELM 052335Z 0600/0624 03006KT P6SM FEW050 FM060700 00000KT 2SM BR SCT002 FM060800 00000KT 1/4SM FG VV002 FM061300 VRB03KT P6SM SCT200", "KELP 052332Z 0600/0624 25020G30KT P6SM SKC FM060900 26008KT P6SM SKC FM061800 24013G22KT P6SM SKC", "KELY 052343Z 0600/0624 22010G20KT P6SM VCSH BKN080 OVC150 FM060400 18008KT P6SM BKN120 FM061800 20010G20KT 6SM -SHRA VCTS SCT040 OVC060CB", "TAF AMD KEND 052325Z 0523/0624 13013KT 9999 SCT160 BKN220 QNH2975INS BECMG 0600/0601 14010KT 9999 SCT100 BKN120 QNH2970INS BECMG 0612/0613 19010G15KT 9999 FEW150 QNH2976INS BECMG 0620/0621 21015G20KT 9999 FEW250 QNH2977INS BECMG 0623/0624 19012KT 9999 FEW250 QNH2976INS TX30/0523Z TN18/0612Z LAST NO AMDS AFT 0523 NEXT 0715", "KENV 052320Z 0600/0624 11014G22KT P6SM VCSH SCT060 BKN090 FM060400 31010KT P6SM BKN100 FM060800 VRB05KT P6SM SCT100 FM061800 12009KT P6SM VCSH SCT070 SCT100", "KENW 052324Z 0600/0624 13009G19KT P6SM BKN090 FM060200 14009KT P6SM BKN080 FM060800 15008KT P6SM -RA OVC090 FM061800 14012KT P6SM VCSH BKN060 FM062300 12010KT P6SM BKN020", "KERI 052333Z 0600/0624 01008KT P6SM FEW250 FM061400 07004KT P6SM FEW250 FM061700 04012KT P6SM FEW250 FM062300 06006KT P6SM BKN250", "KEUG 052344Z 0600/0624 28009KT P6SM VCSH SCT035 BKN050 OVC100 FM060300 20004KT P6SM SCT030 OVC050 FM061800 22008KT P6SM VCSH SCT030 BKN050", "KEUL 052343Z 0600/0624 24011KT P6SM VCSH BKN050 OVC070 TEMPO 0600/0603 -SHRA SCT025 OVC050 FM060600 27009KT P6SM -RA SCT025 OVC040 FM061100 VRB04KT P6SM OVC060 FM061700 32007KT P6SM SCT080", "KEVV 052320Z 0600/0624 16005KT P6SM BKN080 FM061300 15008KT P6SM OVC035 FM061700 16010G17KT P6SM BKN025 FM062000 15009G15KT P6SM BKN035", "KEVW 052320Z 0600/0624 24014G22KT P6SM VCSH SCT060 BKN100 FM060500 24011KT P6SM FEW010 SCT050 BKN080 FM061300 21006KT P6SM FEW080 FM061600 25011G18KT P6SM SCT040 BKN100 FM062100 27012G20KT P6SM VCSH SCT030 BKN060", "KEWN 052320Z 0600/0624 15005KT P6SM SCT090 FM060600 00000KT P6SM SKC FM061200 VRB03KT P6SM SKC FM061800 16005KT P6SM SCT070", "KEWR 052325Z 0600/0706 14006KT P6SM VCSH SCT050 BKN080 FM060300 VRB04KT P6SM SCT050 SCT080 FM061200 33007KT P6SM FEW040 SCT070 FM062000 29010KT P6SM SCT040 SCT070 FM070000 28007KT P6SM FEW040 SCT070 FM070200 VRB04KT P6SM FEW040 FEW070", "KEYW 052344Z 0600/0624 04006KT P6SM FEW030", "TAF KFAF 051800Z 0518/0624 VRB06KT 9999 SCT030 QNH3015INS TX20/0520Z TN08/0610Z", "KFAR 052321Z 0600/0624 07009KT P6SM FEW090 FM060300 07011KT P6SM SCT200 FM060900 06009KT P6SM BKN030 FM061200 06013KT P6SM VCSH BKN020 FM061700 06014KT P6SM -SHRA BKN015", "KFAT 052331Z 0600/0624 30007KT P6SM SCT020 BKN060 FM060300 30009KT P6SM SCT050 SCT120 FM061500 31007KT P6SM -RA BKN020 OVC050 FM062000 30005KT P6SM BKN050", "KFAY 052320Z 0600/0624 VRB04KT P6SM FEW080 SCT250", "TAF KFBG 051700Z 0517/0623 VRB06KT 9999 FEW060 QNH3015INS TX24/0520Z TN14/0608Z", "TAF KFCS 052100Z 0521/0703 22015G30KT 9999 FEW200 520009 QNH2985INS BECMG 0601/0602 25010KT 9999 SKC QNH2988INS BECMG 0614/0615 24015G25KT 9999 SKC 520009 QNH2996INS BECMG 0701/0702 34010KT 9999 SKC QNH2991INS TX24/0522Z TN03/0612Z", "KFDY 052333Z 0600/0624 11009KT P6SM SCT250 FM061700 14010KT P6SM BKN250 FM062200 14007KT P6SM BKN250", "TAF KFFO 051900Z 0519/0701 VRB06KT 9999 FEW250 QNH3009INS TEMPO 0519/0601 14010G15KT BECMG 0603/0605 11009KT 9999 BKN200 QNH3014INS BECMG 0615/0616 15012KT 9999 BKN060 OVC085 QNH3008INS BECMG 0700/0701 19009KT 9999 BKN025 OVC050 QNH3007INS TX22/0519Z TN10/0611Z", "TAF KFHU 052200Z 0522/0704 24012G20KT 9999 SKC 520005 QNH2998INS TEMPO 0522/0601 24014G26KT BECMG 0601/0602 24011KT 9999 SKC 510004 QNH3000INS BECMG 0605/0606 21006KT 9999 SKC QNH3006INS BECMG 0616/0617 23012G21KT 9999 FEW320 510004 QNH3007INS BECMG 0619/0620 24013G25KT 9999 FEW320 510004 QNH3001INS BECMG 0701/0702 25011KT 9999 SKC QNH3004INS TX24/0523Z TN08/0612Z LAST NO AMDS AFT 0606 NEXT 0806", "KFKL 052330Z 0600/0624 VRB04KT P6SM BKN040 FM061000 00000KT 6SM BR SKC TEMPO 0610/0613 2SM BR SCT001 FM061300 VRB04KT P6SM SKC", "KFLG 052320Z 0600/0624 22016G26KT P6SM BKN060 FM060200 23012KT P6SM FEW060 FM060400 VRB03KT P6SM SKC FM061500 22015G25KT P6SM SKC FM061900 22020G30KT P6SM SCT100", "KFLL 052320Z 0600/0706 08010KT P6SM FEW040 FM060700 VRB04KT P6SM SKC FM061400 08009KT P6SM FEW050 FM062000 07010KT P6SM VCSH SCT030 BKN050", "KFLO 052320Z 0600/0624 17003KT P6SM BKN160 FM060700 00000KT P6SM SCT200 FM061400 20006KT P6SM SCT150", "KFMH 052320Z 0600/0624 21007KT P6SM SKC FM060300 26005KT P6SM FEW110 FM061300 30007KT P6SM FEW250", "KFMN 052333Z 0600/0624 25012G22KT P6SM SCT110 FM060200 26010KT P6SM FEW110 FM061000 VRB05KT P6SM SKC FM062000 24014G24KT P6SM FEW120 FEW250", "KFMY 052324Z 0600/0624 30007KT P6SM FEW060 SCT150 BKN250 FM060200 08005KT P6SM SCT250 FM061400 12008KT P6SM FEW040 SCT250 FM061800 28010KT P6SM SCT040 SCT250", "KFNT 052320Z 0600/0624 14008KT P6SM BKN250 FM060400 13005KT P6SM SCT250 FM061600 16009KT P6SM BKN150", "KFOD 052342Z 0600/0624 16009KT P6SM VCSH SCT009 OVC015 FM060300 14008KT P6SM VCSH OVC009 FM060700 14009KT P6SM OVC009 FM061300 14011KT 4SM -SHRA BKN007 FM061500 16013KT P6SM BKN009 FM062000 15012KT P6SM OVC015", "KFOE 052320Z 0600/0624 15013KT P6SM SCT040 FM060200 14013KT P6SM BKN012 FM060600 16013G21KT 6SM BR OVC007 FM061500 21015G23KT P6SM FEW030", "KFPR 052326Z 0600/0624 10007KT P6SM SCT035 SCT120 BKN250 FM060700 05003KT P6SM SCT030 SCT120 BKN250 FM061500 09008KT P6SM SCT035 SCT200 FM061700 08012G22KT P6SM VCTS SCT035CB SCT100", "TAF AMD KFRI 051924Z 0519/0701 17012G18KT 9999 BKN025 QNH2978INS TEMPO 0521/0523 9000 -SHRA BKN020 BECMG 0603/0604 14009KT 8000 BR OVC007 QNH2970INS BECMG 0614/0615 19009KT 9999 NSW BKN015 BKN030 QNH2973INS BECMG 0617/0618 24010G15KT 9999 FEW040 QNH2973INS BECMG 0621/0622 VRB06KT 9999 SKC QNH2973INS TX25/0521Z TN20/0605Z LAST NO AMDS AFT 0521 NEXT 0813", "KFSD 052320Z 0600/0624 14008KT P6SM BKN200 FM060600 11009KT P6SM BKN006 PROB30 0609/0612 4SM -TSRA OVC004CB FM061200 11011KT 6SM -SHRA BR OVC004 PROB30 0612/0616 4SM -TSRA BR BKN004CB FM061600 14009KT 6SM -SHRA BR OVC006 PROB30 0616/0622 4SM -TSRA BR OVC004CB FM062200 21009KT P6SM VCTS BKN009CB", "KFSM 052320Z 0600/0624 08010KT P6SM BKN018 FM061600 17011KT P6SM FEW025 SCT250", "KFST 052320Z 0600/0624 21012G19KT P6SM SKC FM060100 22008KT P6SM SKC FM061500 31010KT P6SM SKC", "TAF KFTK 051900Z 0519/0701 15008KT 9999 SCT250 QNH3003INS BECMG 0523/0524 VRB05KT 9999 BKN040 BKN250 QNH2996INS BECMG 0614/0615 17008KT 9999 VCSH BKN035 BKN250 QNH2992INS TX24/0519Z TN11/0611Z LAST NO AMDS AFT 0603 NEXT 0811", "KFTW 052320Z 0600/0624 16014KT P6SM FEW050 BKN250 FM061200 18012KT P6SM SCT015 FM061700 16015KT P6SM FEW050", "KFTY 052329Z 0600/0624 10006KT P6SM VCSH FEW025 BKN060 FM060800 10003KT P6SM VCSH SCT012 BKN020 TEMPO 0611/0613 6SM BR BKN012 FM061600 11007KT P6SM SCT018 BKN025 FM062200 11006KT P6SM BKN035", "KFVE 052320Z 0600/0624 33007KT P6SM BKN250 FM061300 33014G24KT P6SM SCT050 FM062300 32008KT P6SM SKC", "KFWA 052321Z 0600/0624 13011KT P6SM OVC250 FM061700 16011KT P6SM BKN080", "KFXE 052320Z 0600/0624 08010KT P6SM SCT035 SCT050 FM060700 VRB04KT P6SM SKC FM061400 08009KT P6SM FEW040 FM062000 07010KT P6SM VCSH SCT030 BKN050", "KFYV 052320Z 0600/0624 16011G18KT P6SM OVC016 FM060500 18010KT P6SM BKN015 FM061600 19010G20KT P6SM FEW025 SCT250", "KGBD 052333Z 0600/0624 14012KT P6SM FEW100 FM060700 17014G22KT P6SM SCT010 FM060900 21012KT P6SM FEW150 FM061200 26009KT P6SM SCT110 FM061800 26011KT P6SM SKC FM062200 23012KT P6SM SKC", "KGCC 052320Z 0600/0624 21015G25KT P6SM FEW060 SCT200 FM060600 22012KT P6SM SCT120", "KGCK 052320Z 0600/0624 17014KT P6SM FEW050 FM060600 24012KT P6SM FEW250 FM060800 VRB06KT P6SM SKC FM061900 21012KT P6SM SKC", "KGCN 052320Z 0600/0624 22016G25KT P6SM BKN060 FM060200 22009KT P6SM FEW050 FM060600 02003KT 1SM FU VV001 FM061400 20012G22KT P6SM FEW040 FM062100 22020G30KT P6SM BKN060", "KGDV 052326Z 0600/0624 09018G28KT P6SM OVC090 PROB30 0609/0612 6SM -SHRA BR OVC050 FM061300 07015KT 6SM -SHRA BR OVC020 FM062200 09016KT 6SM -RA BR OVC020", "KGEG 052320Z 0600/0624 21010KT 4SM -RA BKN015 OVC040 FM060300 21010KT P6SM VCSH BKN015 OVC035 FM061200 20009KT 4SM -RA BR OVC015", "TAF KGFA 052004Z 0520/0702 VRB06KT 9999 BKN100 QNH2970INS TEMPO 0523/0602 8000 -SHRA VCTS BKN050CB BECMG 0601/0602 VRB06KT 6000 -RA BR BKN030 QNH2971INS BECMG 0615/0616 25012G18KT 9000 -RA BKN050 QNH2972INS TX17/0520Z TN07/0612Z LAST NO AMDS AFT 0523 NEXT 0812", "KGFK 052321Z 0600/0624 08011KT P6SM FEW070 BKN200 FM060300 08010KT P6SM SCT110 FM060900 07009KT P6SM BKN060 FM061200 06008KT P6SM BKN045 FM061700 06013KT P6SM VCSH BKN020", "KGFL 052320Z 0600/0624 VRB04KT P6SM SCT060 FM060300 VRB03KT P6SM SKC FM061400 34008KT P6SM SCT060", "KGGG 052320Z 0600/0624 12009KT P6SM FEW030 FM060500 17007KT P6SM BKN150 FM060900 17007KT 4SM BR OVC015 FM061200 16006KT 4SM BR OVC007 FM061500 19011KT P6SM OVC015 FM062100 18009G15KT P6SM BKN050", "KGGW 052326Z 0600/0624 10022G35KT P6SM FEW100 PROB30 0609/0612 6SM -SHRA BR BKN050 FM061200 08020G31KT 6SM -SHRA BR BKN022 FM061700 09015G26KT 5SM -SHRA BR OVC015 FM062100 10020G28KT 4SM -RA BR OVC011", "KGJT 052335Z 0600/0624 29005KT P6SM FEW080 BKN100 FM060200 10008KT P6SM SCT080 FM061200 10008KT P6SM FEW100 FM061700 18010KT P6SM SCT200 FM062000 22014G24KT P6SM BKN120", "KGKY 052320Z 0600/0624 16013KT P6SM FEW050 BKN250 FM061200 17009KT P6SM SCT017 FM061700 17015KT P6SM FEW050", "KGLD 052320Z 0600/0624 16014G20KT P6SM SCT080 FM060100 13013KT P6SM FEW250 FM060300 VRB06KT P6SM VCTS SCT100CB FM060500 36013KT P6SM SCT250 TEMPO 0610/0614 5SM BR BKN005 FM061400 36010KT P6SM SCT250", "KGLH 052343Z 0600/0624 12007KT P6SM FEW026 OVC070 FM060300 12007KT P6SM OVC025 FM060500 14008KT P6SM OVC015 FM060800 15009KT P6SM OVC007 FM061600 17011KT P6SM OVC015 FM062000 18011KT P6SM BKN050", "KGLS 052330Z 0600/0624 15014KT P6SM SCT015 SCT030 FM060300 16009KT P6SM SCT007 BKN015 FM061000 15010KT 5SM BR SCT007 BKN015 FM061500 16012KT P6SM SCT010 BKN025 FM061900 15012KT P6SM SCT025 SCT040", "KGMU 052320Z 0600/0624 18006KT P6SM BKN250 FM060600 VRB02KT P6SM BKN100 FM061400 20005KT P6SM BKN100", "KGNV 052328Z 0600/0624 08006KT P6SM SCT060 BKN120 BKN200 FM061700 08010G15KT P6SM VCSH SCT035 BKN050", "KGON 052341Z 0600/0624 20006KT P6SM VCSH BKN050 FM060200 VRB04KT P6SM SCT050 FM061200 30009KT P6SM SCT040 SCT070 FM061800 24010KT P6SM SCT040 SCT070", "KGPI 052321Z 0600/0624 35005KT P6SM -SHRA BKN050 OVC070 FM060100 02005KT P6SM -SHRA OVC050 FM060800 18005KT 4SM -RA OVC025 FM061100 18006KT 4SM -RA BR OVC015 FM061800 18008KT 5SM -RA OVC025", "KGPT 052329Z 0600/0624 VRB04KT 2SM TSRA BR SCT015CB OVC035 FM060100 13010KT P6SM BKN015 FM060900 15005KT 3SM BR BKN003 OVC010 FM061500 12010KT 5SM BR BKN010 BKN015", "KGRB 052334Z 0600/0624 05008G16KT P6SM BKN080 FM060300 13007KT P6SM -SHRA BKN070 WS019/18040KT TEMPO 0608/0610 5SM SHRA BKN040 FM061000 14009G16KT 5SM SHRA OVC040 FM061400 14011G20KT P6SM VCSH BKN030", "TAF KGRF 052100Z 0521/0703 20008KT 9000 -RA FEW012 BKN017 OVC025 650499 QNH2988INS BECMG 0601/0602 24005KT 9000 -RA FEW003 BKN010 OVC025 620509 QNH2990INS TEMPO 0603/0605 4800 -RA BR OVC004 BECMG 0604/0605 23003KT 4800 -RA BR OVC004 620529 QNH2993INS BECMG 0610/0611 23003KT 4800 -RA BR SCT006 BKN012 OVC022 620509 QNH2993INS BECMG 0611/0612 22003KT 9999 NSW FEW007 BKN018 OVC025 620509 QNH2993INS BECMG 0617/0618 22007KT 9999 VCSH SCT018 BKN025 OVC035 610499 QNH2997INS BECMG 0619/0620 22008KT 9999 VCSH BKN035 OVC060 QNH2996INS TX11/0523Z TN08/0612Z", "KGRI 052325Z 0600/0624 11006KT P6SM FEW150 FM060600 34007KT P6SM BKN013 FM061100 07007KT 3SM BR BKN004 FM061500 22006KT P6SM BKN008 FM061600 24007KT P6SM BKN027 FM061900 28010KT P6SM SCT090", "TAF KGRK 060000Z 0600/0706 13010G15KT 9999 VCTS BKN035CB BKN150 QNH2980INS TEMPO 0600/0603 VRB25G45KT 1600 +TSRAGR BKN020CB OVC040 BECMG 0602/0603 14008KT 9999 NSW BKN015 OVC030 QNH2986INS BECMG 0610/0611 15006KT 8000 BR BKN008 OVC020 QNH2989INS BECMG 0615/0616 16012G18KT 9999 NSW SCT015 BKN030 QNH2994INS BECMG 0617/0619 16015G20KT 9999 BKN050 QNH2995INS BECMG 0622/0623 15010G15KT 9999 VCTS BKN030CB OVC040 QNH2987INS TEMPO 0623/0702 VRB25G45KT 1600 +TSRAGR BKN015CB OVC020 BECMG 0702/0703 16012G18KT 9999 NSW SCT020 BKN040 QNH2993INS TX32/0621Z TN22/0612Z", "KGRR 052320Z 0600/0624 14010KT P6SM BKN100 FM061300 14012G21KT P6SM SCT045 BKN100", "TAF KGSB 052000Z 0520/0702 VRB06KT 9999 SCT070 SCT250 QNH3011INS TX24/0520Z TN12/0607Z", "KGSO 052320Z 0600/0624 VRB04KT P6SM FEW060 SCT250", "KGSP 052320Z 0600/0624 18006KT P6SM BKN250 FM060600 VRB02KT P6SM BKN100 FM061400 20005KT P6SM BKN100", "TAF KGTB 051700Z 0517/0623 02010G15KT 9999 BKN035 BKN120 QNH3024INS BECMG 0521/0522 VRB06KT 9999 FEW120 QNH3029INS BECMG 0614/0615 VRB06KT 9999 FEW025 BKN040 QNH3023INS TX15/0520Z TN04/0608Z", "KGTF 052347Z 0600/0624 11009KT 6SM -SHRA BR SCT025 BKN045 TEMPO 0600/0604 3SM -TSRA BR BKN025CB FM060700 VRB06KT P6SM SCT015 BKN030 FM061200 23007KT 3SM -RA BR SCT025 BKN035 FM061700 25011KT 6SM -RA BR SCT025 BKN050 PROB30 0618/0624 4SM -TSRA BR BKN035CB", "KGTR 052343Z 0600/0624 09010KT P6SM BKN030 FM060300 14009KT P6SM OVC015 FM061200 15012KT P6SM OVC007 FM061600 15011KT P6SM OVC015 FM062000 16010KT P6SM OVC050", "KGUC 052335Z 0600/0624 27010G18KT P6SM FEW080 SCT200 FM060200 VRB04KT P6SM FEW250 FM062000 24015G26KT P6SM FEW200", "KGUP 052333Z 0600/0624 23020G32KT P6SM SKC FM060200 23010KT P6SM SKC FM060700 VRB05KT P6SM SKC FM061700 23010G18KT P6SM SKC FM062100 23018G30KT P6SM FEW110", "TAF KGUR 052100Z 0521/0703 VRB06KT 9999 SCT100 SCT150 QNH2972INS TEMPO 0521/0602 21025G35KT 9000 TSRA BKN070 BECMG 0617/0618 23015G20KT 9999 FEW120 510033 QNH2980INS BECMG 0701/0702 26009KT 9999 SKC QNH2983INS TX20/0621Z TN04/0610Z", "TAF KGUS 052100Z 0521/0703 15012KT 9999 FEW180 QNH3008INS BECMG 0613/0614 16012G18KT 9999 BKN040 QNH3004INS TEMPO 0614/0617 16015G25KT BECMG 0700/0701 16006KT 9999 BKN020 OVC040 QNH3004INS TX21/0521Z TN11/0611Z LAST NO AMDS AFT 0603 NEXT 0613", "KGUY 052320Z 0600/0624 19013KT P6SM SKC FM060600 29010KT P6SM SKC FM061600 21014G24KT P6SM SKC", "KGWO 052343Z 0600/0624 10007KT P6SM SCT022 BKN060 FM060300 14009KT P6SM OVC015 FM060900 15011KT P6SM OVC007 FM061600 16012KT P6SM OVC015 FM062000 17012KT P6SM OVC050", "KGYY 052320Z 0600/0624 16009KT P6SM SCT070 BKN200 FM061500 16014G23KT P6SM BKN035", "KHBG 052343Z 0600/0624 19005KT P6SM SCT008 SCT030 FM060640 13003KT P6SM OVC007 FM060800 11003KT 2SM BR OVC003 FM061000 12002KT 1/2SM FG OVC003 FM061300 12003KT 4SM BR OVC003 FM061400 14006KT 6SM BR OVC007 FM061700 17009KT P6SM OVC015 FM062000 15007KT P6SM BKN050", "KHCR 060002Z 0600/0624 20012KT P6SM VCSH FEW040 SCT060 BKN080 TEMPO 0600/0601 4SM -RA BR BKN020 OVC035 FM060500 VRB05KT P6SM SCT040 SCT070 FM061900 23012G20KT P6SM VCSH SCT070 SCT100", "KHDC 052329Z 0600/0624 14007KT P6SM SCT020 FM061000 00000KT 5SM BR BKN008 FM061500 14007KT 5SM BR VCTS BKN015CB FM062200 13008KT 5SM SHRA BR VCTS SCT015CB BKN060", "KHDN 052335Z 0600/0624 22015G24KT P6SM BKN090 FM060200 23007KT P6SM SCT110 FM060600 13005KT P6SM SCT070 FM061100 13007KT P6SM VCSH FEW050 BKN070 FM061400 22008KT P6SM VCSH SCT070 FM061900 25015G25KT P6SM SCT100", "KHIB 052337Z 0600/0624 08012G24KT P6SM BKN040 TEMPO 0604/0605 BKN014 FM060500 08011G18KT P6SM BKN011 FM060600 07011KT P6SM BKN009 FM061100 08011KT 6SM BR BKN004 FM061600 08012KT 5SM BR BKN005", "KHIE 052323Z 0600/0624 34007KT P6SM BKN090 FM060400 VRB04KT P6SM FEW250 FM061500 32010G18KT P6SM FEW250", "TAF KHIF 052100Z 0521/0703 19012KT 9999 VCSH FEW060 BKN080 BKN150 QNH2983INS BECMG 0601/0602 14015G25KT 9999 VCSH SCT070 BKN100 OVC160 510009 QNH2984INS TEMPO 0606/0612 16012G20KT 4800 -RA VCTS BKN040CB OVC060 BECMG 0611/0612 10009KT 4800 -RA SCT030 BKN050 QNH2988INS BECMG 0621/0622 20012KT 9999 VCSH BKN090 OVC170 QNH2986INS TX15/0523Z TN07/0612Z", "KHIO 052343Z 0600/0624 25004KT P6SM VCSH SCT035 BKN050 OVC100 FM061000 00000KT P6SM BKN030 OVC050 FM061900 20005KT P6SM VCSH SCT030 BKN050", "KHKS 052343Z 0600/0624 07004KT P6SM FEW025 BKN050 FM060300 15008KT P6SM OVC015 FM060700 15009KT P6SM OVC007 FM061500 15012KT P6SM OVC015 FM061900 16013G19KT P6SM BKN050", "KHKY 052320Z 0600/0624 21004KT P6SM FEW250 FM060400 VRB02KT P6SM SCT250 FM061500 21006KT P6SM SCT250", "KHLG 052330Z 0600/0624 VRB01KT P6SM SKC FM061300 08004KT P6SM SCT250", "KHLN 052347Z 0600/0624 10009KT P6SM SCT060 BKN120 FM060300 25008KT P6SM SCT050 BKN090 FM061400 26011KT 6SM -SHRA SCT035 BKN070 FM061900 29013G21KT 6SM -SHRA BR SCT025 BKN050 PROB30 0619/0624 4SM -TSRA BR BKN035CB", "TAF AMD KHMN 052300Z 0523/0623 22015G25KT 9999 SKC QNH2990INS BECMG 0602/0603 24010KT 9999 SKC QNH2995INS TX28/0523Z TN10/0612Z LAST NO AMDS AFT 0523 NEXT 0809", "KHNB 052320Z 0600/0624 18004KT P6SM SCT060 BKN100 FM061200 17012KT P6SM SCT025 BKN040 FM061500 17010G17KT P6SM SCT025 BKN050", "KHND 052320Z 0600/0624 22015G25KT P6SM FEW100 SCT200 FM060300 22012KT P6SM BKN200 FM061500 22016G27KT P6SM SCT200", "KHOB 052320Z 0600/0624 23016G22KT P6SM SKC FM060100 24009KT P6SM SKC", "KHON 052320Z 0600/0624 09010KT P6SM BKN080 FM061100 11011KT 6SM -SHRA BR OVC008 PROB30 0611/0613 4SM -TSRA BR OVC006CB FM061300 12012KT P6SM BKN007 FM061600 15011KT 6SM -SHRA BR OVC007 PROB30 0616/0619 4SM -TSRA BR OVC006CB FM061900 21010KT 6SM -SHRA BR BKN013 PROB30 0619/0622 4SM -TSRA BR OVC008CB FM062200 25011KT P6SM SCT015", "TAF KHOP 060000Z 0600/0706 14006KT 9999 BKN035 OVC050 QNH3009INS BECMG 0602/0603 14006KT 8000 BR BKN030 QNH3012INS BECMG 0609/0610 VRB06KT 9999 NSW BKN035 QNH3014INS BECMG 0618/0619 17009KT 9000 -SHRA BKN015 OVC030 QNH3016INS BECMG 0620/0621 18012G18KT 9999 NSW OVC020 QNH3009INS BECMG 0623/0624 17006KT 9999 SCT020 OVC030 QNH3009INS TX23/0621Z TN14/0609Z", "KHOT 052332Z 0600/0624 09008KT P6SM BKN012 OVC025 FM060300 10005KT P6SM BKN025 OVC050 FM060800 11004KT 6SM BR BKN007 OVC015 FM061500 14006KT P6SM OVC015 FM061800 18009KT P6SM BKN030", "KHOU 052330Z 0600/0624 16010KT P6SM SCT040 SCT250 FM060500 16005KT P6SM SCT010 BKN015 FM061200 15004KT 6SM BR SCT010 OVC015 FM061500 17009KT P6SM SCT025 BKN045 FM061800 16011KT P6SM SCT050 SCT190", "KHPN 052331Z 0600/0624 VRB05KT P6SM VCSH SCT050 BKN070 FM060200 VRB02KT P6SM FEW050 SCT070 FM061200 31007KT P6SM SCT040 SCT070 AMD NOT SKED", "KHQM 052335Z 0600/0624 27005KT P6SM VCSH OVC025 FM060600 28004KT P6SM OVC030 FM061200 30005KT P6SM OVC025 FM061900 22006KT P6SM OVC040", "KHRF 052321Z 0600/0624 18011KT P6SM SCT100 FM060300 18006KT P6SM SCT040 BKN060 FM061900 32008KT P6SM OVC050", "KHRL 052320Z 0600/0624 15012KT P6SM SCT030 BKN230 FM060800 17012KT P6SM BKN013 BKN080 FM061300 14010KT P6SM SCT012 BKN080 FM061600 15016KT P6SM BKN017 BKN070 FM061800 16019KT P6SM FEW023 SCT060", "KHRO 052332Z 0600/0624 14008G16KT P6SM OVC008 FM060600 13010KT 6SM BR BKN003 OVC006 FM061500 16008G16KT P6SM BKN015 OVC025 FM061800 18010G18KT P6SM BKN040", "TAF AMD KHRT 052320Z 0523/0624 13009KT 9999 FEW010 BKN070 QNH3002INS BECMG 0523/0524 13009KT 8000 -RA BKN025 QNH3002INS BECMG 0603/0604 15008KT 9999 NSW SCT030 BKN250 QNH3003INS BECMG 0608/0609 17008KT 9999 BKN030 QNH3007INS BECMG 0615/0616 13010G15KT 9999 BKN080 QNH3009INS TX21/0523Z TN16/0610Z", "TAF KHST 051900Z 0519/0701 08008KT 9999 FEW030 SCT250 QNH3000INS BECMG 0523/0524 VRB06KT 9999 FEW027 SCT250 QNH3000INS BECMG 0615/0616 07010G15KT 9999 FEW035 SCT100 BKN220 QNH3008INS BECMG 0623/0624 VRB06KT 9999 SCT025 SCT040 QNH3003INS TX30/0519Z TN21/0611Z", "KHSV 052335Z 0600/0624 12009KT P6SM VCSH BKN090 FM061300 15010G15KT P6SM SCT025 FM061800 15009G18KT P6SM BKN050", "KHTS 052346Z 0600/0624 06004KT P6SM FEW250 FM061200 18004KT P6SM SCT250", "TAF KHUA 052000Z 0520/0702 16006KT 9999 SCT030 OVC060 QNH3008INS BECMG 0522/0523 VRB06KT 9999 BKN040 QNH3008INS BECMG 0609/0610 12006KT 9000 BR FEW012 QNH3013INS BECMG 0615/0616 14010G20KT 9999 NSW SCT020 QNH3018INS BECMG 0618/0619 16010G15KT 9999 OVC040 QNH3013INS BECMG 0623/0624 VRB06KT 9999 BKN035 QNH3012INS TX23/0620Z TN14/0611Z LAST NO AMDS AFT 0600 NEXT 0812", "KHUF 052320Z 0600/0624 17009KT P6SM SCT240 FM060300 15005KT P6SM BKN220 FM061200 14007KT P6SM BKN080 FM061500 16010KT P6SM BKN050 FM062100 17013KT P6SM BKN035 FM062200 16013G21KT P6SM BKN045", "KHUL 052320Z 0600/0624 36003KT P6SM FEW080 SCT250 FM061500 34012G22KT P6SM SCT050 FM062300 32007KT P6SM SKC", "KHUM 052329Z 0600/0624 18008KT P6SM SCT025 BKN150 FM060300 15005KT P6SM BKN020 FM061000 VRB04KT 3SM BR SCT003 BKN015 FM061400 15006KT 6SM BR BKN015 FM061600 15007KT P6SM VCTS BKN015CB", "KHUT 052333Z 0600/0624 15011KT P6SM SCT040 FM060600 15015G23KT P6SM SCT003 FM060800 17016KT P6SM SCT020 FM061000 19014KT P6SM SCT120 FM061300 22009KT P6SM FEW210 FM061600 26009KT P6SM FEW240", "KHVR 052347Z 0600/0624 10009G19KT P6SM SCT050 BKN120 FM060600 09014G24KT 6SM -SHRA OVC050 TEMPO 0606/0610 4SM -SHRA BR SCT015 BKN035 FM061200 09017G25KT 6SM -RA BR SCT025 BKN050 PROB30 0618/0624 4SM -SHRA BR SCT015 BKN030", "KHYA 052320Z 0600/0624 30004KT P6SM SKC FM060300 26006KT P6SM FEW200 FM061200 32009KT P6SM FEW250", "KHYR 052337Z 0600/0624 07009KT P6SM BKN050 FM060500 08009KT 6SM BR VCSH BKN020 FM060800 07008KT 5SM BR VCSH BKN008 FM061400 11008KT 4SM BR VCSH BKN006", "KHYS 052320Z 0600/0624 15014KT P6SM FEW050 FM060600 16014KT P6SM OVC005 FM060900 VRB06KT P6SM BKN015 FM061300 VRB06KT P6SM SCT050 FM062000 24012KT P6SM FEW250", "TAF KIAB 051800Z 0518/0624 19010G18KT 9999 BKN018 BKN200 QNH2976INS BECMG 0519/0520 19012G22KT 9999 BKN020 BKN200 QNH2975INS BECMG 0523/0524 17009KT 9999 BKN012 OVC200 QNH2975INS BECMG 0601/0602 13007KT 8000 BR FEW004 BKN007 OVC200 QNH2975INS BECMG 0603/0604 14007KT 6000 BR BKN003 OVC007 WS020/20045KT QNH2973INS BECMG 0609/0610 17009KT 9999 NSW BKN007 WS020/22045KT QNH2971INS BECMG 0611/0612 18010G17KT 9999 FEW007 QNH2974INS BECMG 0616/0617 21015G25KT 9999 FEW250 QNH2975INS BECMG 0622/0623 20010G17KT 9999 SKC QNH2975INS TX26/0522Z TN16/0612Z", "KIAD 052340Z 0600/0706 04003KT P6SM SCT060 BKN080 FM060300 00000KT P6SM FEW250 FM061400 30003KT P6SM FEW200 FM062100 00000KT P6SM SCT250 FM070000 09003KT P6SM SCT200 FM070300 15004KT P6SM BKN150", "KIAG 052320Z 0600/0624 06007KT P6SM FEW250 FM060100 VRB03KT P6SM FEW250 FM061400 VRB03KT P6SM FEW035 FEW250 FM061700 08005KT P6SM FEW045 SCT250 FM062000 04006KT P6SM FEW045 SCT200", "KIAH 052330Z 0600/0706 16010KT P6SM FEW045 SCT250 FM060500 15007KT P6SM SCT010 BKN015 FM061200 14006KT 5SM BR SCT010 OVC015 FM061500 17009KT P6SM SCT025 BKN045 FM061800 17012KT P6SM SCT050 SCT190 FM070500 14010KT P6SM FEW008 SCT015", "KICT 052333Z 0600/0624 14009KT P6SM SCT035 FM060300 13011KT P6SM BKN008 FM060400 14012KT P6SM SCT005 FM060500 14013G21KT P6SM BKN004 FM060700 16016KT P6SM SCT013 FM061400 21010KT P6SM SKC", "KIDA 052320Z 0600/0624 21012G22KT P6SM VCSH BKN100 FM061000 21010G22KT P6SM -SHRA SCT020 BKN035 FM061500 21014KT P6SM VCSH SCT012 BKN020 FM061800 21010G20KT P6SM SCT020 OVC035", "KIFP 052320Z 0600/0624 19012G20KT P6SM FEW100 SCT200 FM060300 17008KT P6SM FEW100 SCT200 FM061800 19010G16KT P6SM FEW100 SCT200", "KILG 052321Z 0600/0624 VRB03KT P6SM SCT050 BKN100 FM060200 VRB03KT P6SM SCT050 FM061100 32006KT P6SM FEW050 FM061600 29006KT P6SM SCT050", "KILM 052320Z 0600/0624 17004KT P6SM SCT250 FM060600 00000KT P6SM SCT250 FM061400 15008KT P6SM SCT250", "KILN 052326Z 0600/0624 16006KT P6SM SCT250 FM061500 14008KT P6SM BKN200 FM062000 17010KT P6SM BKN100", "KIND 052320Z 0600/0706 14010KT P6SM SCT250 FM060400 13007KT P6SM SCT230 FM061600 16009KT P6SM SCT060 FM062000 18011KT P6SM BKN040 FM070100 16011KT P6SM BKN090", "KINK 052320Z 0600/0624 24013G21KT P6SM SKC FM060100 29007KT P6SM SKC", "KINL 052337Z 0600/0624 09012G21KT P6SM BKN060 FM060200 09011G18KT P6SM BKN050 FM061000 07011G18KT P6SM BKN008 FM061800 08013KT 6SM BR SCT011 BKN015", "TAF AMD KINS 052132Z 0521/0703 10010G15KT 9999 BKN100 QNH2986INS BECMG 0602/0603 23009KT 9999 BKN150 QNH2988INS BECMG 0613/0614 31009KT 9999 SCT150 QNH2993INS BECMG 0620/0621 23015G21KT 9999 SCT120 BKN200 510009 QNH2986INS BECMG 0700/0701 21012G18KT 9999 SCT120 BKN150 QNH2986INS TX19/0522Z TN08/0613Z", "KINT 052320Z 0600/0624 VRB03KT P6SM FEW060 SCT250", "KINW 052320Z 0600/0624 22020G30KT P6SM FEW100 FM060100 22010G20KT P6SM SKC FM060400 20007KT P6SM SKC FM061700 22015G25KT P6SM SKC FM062200 22019G28KT P6SM SKC", "KIPL 052320Z 0600/0624 28010G20KT P6SM FEW250 FM060700 28008KT P6SM FEW250 FM062300 25012G22KT P6SM SCT250", "KIPT 052325Z 0600/0624 35003KT P6SM BKN070 FM060200 00000KT P6SM SKC FM061300 26004KT P6SM SKC", "KISM 052326Z 0600/0624 10012KT P6SM SCT060 SCT120 BKN250 FM060300 10004KT P6SM FEW060 SCT120 BKN250 FM061500 10006KT P6SM VCSH SCT040 SCT250 FM061800 07012G24KT P6SM VCTS SCT035CB SCT100", "KISO 052320Z 0600/0624 32005KT P6SM SCT070 FM060500 00000KT P6SM SKC FM061200 VRB03KT P6SM SKC FM061700 22005KT P6SM SCT070 AMD LTD TO CLD VIS AND WIND", "KISP 052340Z 0600/0624 20007KT P6SM SCT050 BKN080 FM060200 VRB04KT P6SM FEW050 SCT080 FM061200 32008KT P6SM FEW040 SCT070 FM061900 27008KT P6SM SCT040 SCT070 FM062000 24010KT P6SM SCT040 SCT070", "KITH 052335Z 0600/0624 33005KT P6SM FEW050 FM060800 00000KT 4SM BR SCT110 FM061300 32004KT P6SM FEW250", "KIWA 052320Z 0600/0624 25009KT P6SM SKC TEMPO 0606/0609 VRB03KT FM060900 12005KT P6SM FEW250 FM062100 25008KT P6SM FEW250", "KIWD 052320Z 0600/0624 27006KT P6SM BKN100 FM060300 12005KT P6SM VCSH BKN040 FM060500 11006KT P6SM VCSH BKN026 FM060800 11006KT P6SM VCSH BKN019 FM062000 13007KT P6SM OVC009", "KIXD 052322Z 0600/0624 16012KT P6SM BKN040 FM060700 16012KT P6SM OVC020 FM061500 19014G23KT P6SM SCT040", "KJAC 052328Z 0600/0624 24013G21KT P6SM VCSH SCT070 BKN150 FM060200 24012KT P6SM SCT070 BKN150 FM061300 21011KT P6SM VCSH SCT050 BKN080 FM062200 22009KT P6SM SCT080 BKN150", "KJAN 052343Z 0600/0624 07004KT P6SM FEW025 BKN050 FM060300 15008KT P6SM OVC015 FM060700 15009KT P6SM OVC007 FM061500 15012KT P6SM OVC015 FM061900 16013G19KT P6SM BKN050", "KJAX 052328Z 0600/0624 08008KT P6SM SCT050 BKN100 OVC200 FM060600 07004KT P6SM BKN050 OVC100 FM061400 08011G16KT P6SM VCSH BKN035 OVC050 FM062000 09013G20KT P6SM VCSH SCT035 BKN050", "KJBR 052320Z 0600/0624 10008KT P6SM OVC035 FM060200 10008KT P6SM VCSH OVC035 FM060700 11007KT P6SM VCSH OVC025 FM061000 11006KT P6SM OVC015 FM061400 15010KT P6SM OVC009 FM061900 18012G18KT P6SM OVC015 FM062100 18012G18KT P6SM BKN040", "KJCT 052324Z 0600/0624 21010G18KT P6SM VCTS SCT100CB FM060200 18007KT P6SM SKC FM061700 19011KT P6SM SCT250", "KJEF 052324Z 0600/0624 14012G18KT P6SM SKC FM060400 15011G18KT P6SM BKN025 FM060800 15011G19KT P6SM VCSH BKN012 FM061400 15011G21KT P6SM BKN015 FM061600 16013G22KT P6SM SCT015 BKN040", "KJER 060026Z 0600/0624 30010KT P6SM -SHRA VCTS SCT050CB OVC070 TEMPO 0600/0602 -TSRA BKN050CB FM060200 23012KT P6SM -SHRA BKN050 OVC070 FM061100 27010KT P6SM VCSH OVC050 FM061600 23008KT P6SM BKN050 OVC070", "KJFK 052325Z 0600/0706 17010KT P6SM VCSH SCT040 BKN080 FM060300 VRB04KT P6SM SCT040 SCT080 FM061200 31007KT P6SM FEW040 SCT070 FM061700 25010KT P6SM FEW040 SCT070 FM061900 22011KT P6SM SCT040 SCT070 FM062100 19013KT P6SM SCT040 SCT070 FM070000 22008KT P6SM FEW040 SCT070 FM070300 VRB05KT P6SM FEW040 FEW070", "KJHW 052320Z 0600/0624 01005KT P6SM FEW250 FM060100 VRB03KT P6SM FEW250 FM061400 13004KT P6SM FEW035 SCT250 FM061700 07004KT P6SM FEW045 SCT250 FM062000 01005KT P6SM FEW045 SCT200", "KJKA 052320Z 0600/0624 08010G16KT P6SM VCTS BKN014CB OVC035 FM060200 11006KT 4SM BR OVC019 FM060600 11004KT 2SM BR OVC015 FM061500 09009KT P6SM OVC015", "KJKL 052339Z 0600/0624 VRB03KT P6SM SCT200 FM061800 20006KT P6SM SCT100 BKN200", "KJLN 060023Z 0600/0624 12012G20KT P6SM OVC025 FM060600 16015G25KT P6SM OVC015 WS020/21043KT FM061200 19017G30KT P6SM BKN025 FM061600 20018G25KT P6SM FEW200", "KJMS 052320Z 0600/0624 07010KT P6SM FEW100 FM061200 07012G20KT P6SM VCSH BKN025 FM061700 07014G22KT 4SM -SHRA BR OVC007", "KJST 052325Z 0600/0624 00000KT P6SM SCT060 FM060200 12004KT P6SM SKC", "KJVL 060010Z 0600/0624 19010KT P6SM BKN120 FM060300 16008KT 6SM -RA BR BKN070 FM061300 15011G19KT P6SM VCSH BKN020 FM062200 15011G19KT P6SM BKN025", "KJXN 052320Z 0600/0624 12009KT P6SM SKC FM061500 15010G18KT P6SM SCT050 BKN150", "KJZI 052320Z 0600/0624 11007KT P6SM SCT120 OVC200 FM060300 VRB04KT P6SM VCSH BKN050 OVC200 FM061500 12008KT P6SM BKN040 OVC120 FM061900 16010KT P6SM BKN050 OVC220", "KLAF 052320Z 0600/0624 15008KT P6SM BKN240 FM061600 17012KT P6SM SCT050", "KLAL 052324Z 0600/0624 08008KT P6SM FEW060 SCT150 BKN250 FM060200 VRB03KT P6SM SCT250 FM061400 09008KT P6SM SCT040 SCT250", "KLAN 052320Z 0600/0624 14006KT P6SM SKC FM061500 16010G18KT P6SM SCT050 BKN150", "KLAR 052320Z 0600/0624 09015G25KT P6SM VCTS BKN090CB FM060200 23010KT P6SM SCT090 FM061400 25020G30KT P6SM SCT100", "KLAS 052320Z 0600/0706 21014G24KT P6SM FEW100 SCT200 FM060300 20012KT P6SM BKN200 FM061500 20015G25KT P6SM SCT200", "KLAW 052320Z 0600/0624 20007KT P6SM SKC FM061500 21009G17KT P6SM FEW250", "KLAX 052338Z 0600/0706 25011KT P6SM FEW009 FEW012 SCT050 FM060400 VRB03KT P6SM SCT050 FM060900 VRB03KT P6SM BKN035 FM062000 26010G15KT P6SM SCT040 FM070500 VRB03KT P6SM SCT040", "KLBB 052320Z 0600/0624 23020G30KT P6SM SKC FM060200 25010KT P6SM SKC FM062100 22014G22KT P6SM FEW250", "KLBE 052330Z 0600/0624 VRB04KT P6SM SKC FM061400 07005KT P6SM SCT250", "KLBF 052320Z 0600/0624 12010G18KT P6SM FEW140 FM060200 12015G25KT P6SM VCTS BKN080CB FM060300 10020G30KT P6SM SHRA BKN050 TEMPO 0603/0604 VRB35G50KT 1/2SM TSRAGR FG OVC025CB FM060400 33015G30KT P6SM TSRA SCT015 BKN035CB FM060600 05010KT P6SM VCTS BKN025CB FM060800 05008KT P6SM BKN015 TEMPO 0611/0613 BKN007 FM061800 28008KT P6SM SCT035", "KLBL 052320Z 0600/0624 21012KT P6SM SKC FM060700 VRB06KT P6SM SKC FM061900 21014KT P6SM SKC", "KLBT 052320Z 0600/0624 17003KT P6SM SCT180 FM060700 00000KT P6SM SCT250 FM061400 21006KT P6SM SCT150", "KLBX 052330Z 0600/0624 17008KT P6SM FEW035 FM060300 17007KT P6SM SCT007 BKN015 FM060600 16006KT 6SM BR BKN007 OVC015 FM061500 17012KT P6SM SCT010 BKN025 FM061900 17012KT P6SM SCT025 SCT040", "KLCH 052340Z 0600/0624 19012G20KT P6SM FEW018 BKN040 FM060200 18009KT P6SM BKN015 FM060600 18008KT 5SM BR VCTS OVC008CB TEMPO 0608/0612 1SM BR OVC005 FM061200 18011KT P6SM OVC010 FM061500 16012KT P6SM OVC015 FM061800 18010KT P6SM BKN035", "KLCK 052326Z 0600/0624 14006KT P6SM BKN250 FM061500 13007KT P6SM BKN200 FM062300 14005KT P6SM BKN120", "KLEB 052323Z 0600/0624 35005KT P6SM SCT060 FM061000 VRB03KT 5SM BR FEW002 FEW250 FM061300 32007KT P6SM FEW250", "KLEE 052326Z 0600/0624 11010KT P6SM FEW040 BKN250 FM060300 09004KT P6SM FEW060 SCT120 BKN250 FM061500 12007KT P6SM VCSH SCT040 SCT250 FM061900 07012G25KT P6SM VCTS SCT035CB SCT100", "KLEX 052320Z 0600/0624 VRB05KT P6SM FEW060 SCT200 FM061400 17008KT P6SM FEW025 SCT050 BKN100", "TAF AMD KLFI 052110Z 0521/0703 VRB06KT 9999 SCT040 BKN070 QNH3017INS BECMG 0610/0611 VRB06KT 9999 SCT050 QNH3023INS BECMG 0618/0619 05010KT 9999 BKN050 QNH3026INS TX20/0521Z TN10/0609Z LAST NO AMDS AFT 0521 NEXT 0612", "KLFK 052320Z 0600/0624 17007KT P6SM SKC FM060300 16008KT P6SM OVC070 FM060700 17005KT 5SM BR OVC015 FM061200 13005KT 4SM BR OVC007 FM061600 18009KT P6SM OVC015 FM062100 16010KT P6SM BKN050", "KLFT 052340Z 0600/0624 19008KT P6SM SCT025 FM060200 18010KT P6SM BKN020 FM060500 18010KT P6SM OVC008 FM060900 17008KT P6SM VCTS OVC008CB PROB30 0617/0618 2SM TSRA OVC015CB FM061800 16010G16KT P6SM VCTS OVC010CB PROB30 0620/0622 3SM TSRA OVC015CB", "KLGA 052325Z 0600/0706 18009KT P6SM VCSH SCT050 BKN070 FM060300 VRB04KT P6SM SCT050 SCT070 FM061200 32007KT P6SM FEW040 SCT070 FM062000 29009KT P6SM SCT040 SCT070 FM062200 24010KT P6SM SCT040 SCT070 FM070000 25006KT P6SM FEW040 SCT070 FM070300 VRB05KT P6SM FEW040 FEW070", "KLGB 052338Z 0600/0624 28008KT P6SM SCT050 FM060500 VRB03KT P6SM BKN050 FM061200 VRB03KT P6SM BKN025 FM061800 18005KT P6SM BKN050 FM062200 23010KT P6SM BKN250", "KLGU 052320Z 0600/0624 19009KT P6SM VCSH SCT100 BKN200 FM060300 18006KT P6SM VCSH FEW040 BKN100 BKN180 FM061000 VRB05KT P6SM SCT040 SCT100 SCT180 FM061800 20008KT P6SM BKN100 FM062200 19011G18KT P6SM VCSH FEW050 BKN100", "KLIT 052332Z 0600/0624 15009KT P6SM SCT025 BKN035 FM060600 12006KT P6SM BKN015 OVC025 FM060900 VRB04KT 6SM BR BKN007 OVC015 FM061500 16007KT P6SM OVC015 FM061800 18010KT P6SM BKN035", "KLLQ 052332Z 0600/0624 11009KT P6SM SCT025 BKN050 FM060600 13006KT P6SM BKN015 OVC025 FM060900 14006KT 6SM BR BKN007 OVC015 FM061500 16007KT P6SM OVC015 FM061800 18012KT P6SM BKN040", "KLMT 052340Z 0600/0624 18011G20KT P6SM -RA OVC050 FM060600 18005KT P6SM VCSH OVC050 FM061900 26008KT P6SM OVC040 PROB30 0620/0624 TSRA OVC030CB", "KLND 052328Z 0600/0624 22025G35KT P6SM VCSH SCT070 BKN140 FM060200 22008KT P6SM SCT150 FM061200 VRB06KT P6SM VCSH SCT060 BKN100 FM061600 25012G20KT P6SM SCT100 BKN150", "KLNK 052322Z 0600/0624 14007KT P6SM BKN040 FM060400 11005KT P6SM BKN025 FM060600 12009KT P6SM OVC007 FM060900 12010KT 6SM BR VCTS OVC006CB FM061200 10006KT 6SM BR VCSH BKN006 FM061600 21008KT P6SM BKN015 FM061800 24008KT P6SM SCT040", "KLNS 052325Z 0600/0624 35004KT P6SM SKC FM061000 VRB03KT 3/4SM BR SCT002 FM061200 31005KT P6SM SKC", "KLOZ 052339Z 0600/0624 VRB03KT P6SM SCT200 FM060900 16004KT P6SM SCT150 BKN200 FM061700 17007KT P6SM BKN060 BKN150", "KLRD 052320Z 0600/0624 14014G20KT P6SM VCTS SCT050CB OVC200 FM060400 12010KT P6SM BKN200 FM061100 11007KT P6SM SCT015 BKN250 TEMPO 0612/0616 BKN015 FM061600 15012KT P6SM SCT250", "TAF KLRF 052300Z 0523/0705 14006KT 9999 OVC020 QNH2987INS BECMG 0606/0607 VRB06KT 9999 BKN008 OVC015 QNH2992INS BECMG 0608/0609 VRB06KT 9999 OVC005 QNH2989INS BECMG 0617/0618 17012G18KT 9999 BKN010 OVC020 QNH2995INS TX30/0623Z TN18/0608Z", "KLRU 052332Z 0600/0624 25015G25KT P6SM SKC FM060600 26010KT P6SM SKC FM061800 23012G22KT P6SM SKC", "KLSE 060023Z 0600/0624 36012KT P6SM BKN060 FM060300 36012KT 6SM SHRA OVC028 FM060500 14007KT 5SM SHRA BR OVC019 FM061000 14008KT P6SM BKN010", "TAF KLSF 052055Z 0521/0701 06006KT 9999 VCSH FEW040 BKN090 QNH3007INS BECMG 0605/0606 VRB04KT 3200 BR BKN010 QNH3012INS BECMG 0613/0614 10010KT 9999 NSW SCT020 BKN050 QNH3016INS BECMG 0623/0624 10008KT 9999 -SHRA BKN020 BKN050 QNH3010INS TX28/0619Z TN13/0610Z LAST NO AMDS AFT 0602 NEXT 0813", "TAF KLSV 052300Z 0523/0705 22015G28KT 9999 FEW080 520009 QNH2991INS BECMG 0602/0603 22010G18KT 9999 BKN170 QNH2984INS BECMG 0617/0618 20015G25KT 9999 SCT160 BKN250 520009 QNH2983INS TX24/0523Z TN10/0612Z", "TAF KLTS 051700Z 0517/0623 24012G18KT 9999 FEW020 QNH2967INS BECMG 0523/0524 17009KT 9999 SKC QNH2967INS BECMG 0603/0604 19009KT 9999 SKC 520102 QNH2972INS BECMG 0614/0615 24010G15KT 9999 SKC QNH2975INS TX36/0521Z TN14/0612Z", "TAF KLUF 052020Z 0520/0702 22010G18KT 9999 FEW070 QNH2986INS BECMG 0601/0602 VRB06KT 9999 FEW300 QNH2986INS BECMG 0620/0621 22010G18KT 9999 FEW100 FEW250 QNH2984INS TX27/0523Z TN10/0613Z LAST NO AMDS AFT 0522 NEXT 0617", "KLUK 052326Z 0600/0624 12005KT P6SM SCT250 FM061500 15007KT P6SM BKN200 FM061800 17010KT P6SM BKN100", "KLVK 052320Z 0600/0624 26011KT P6SM VCSH OVC100 FM060600 26005KT P6SM VCSH FEW020 BKN080 FM061000 VRB05KT P6SM VCSH SCT025 BKN035", "KLVM 052320Z 0600/0624 34014G24KT P6SM VCSH FEW070 BKN100 FM060300 25014KT P6SM BKN110", "KLVS 052333Z 0600/0624 24022G34KT P6SM FEW110 FM060200 23011KT P6SM SKC FM061700 24012G22KT P6SM SKC FM061900 24020G32KT P6SM FEW140 FEW250", "KLWB 052320Z 0600/0624 VRB03KT P6SM FEW250", "KLWS 052320Z 0600/0624 27010G17KT P6SM VCSH OVC070 FM060700 23005KT P6SM OVC035 FM061300 VRB03KT P6SM OVC015", "KLWT 052347Z 0600/0624 13010KT 6SM SHRA BR VCSH SCT040 BKN080 TEMPO 0601/0605 3SM -TSRA BR BKN025CB FM060500 15008KT 6SM -SHRA SCT025 BKN050 TEMPO 0605/0608 4SM SHRA BR BKN025 FM061300 23008KT P6SM SCT050 BKN090 FM061800 33009KT 6SM -SHRA BR SCT025 BKN050 PROB30 0618/0624 4SM TSRA BR BKN035CB", "KLYH 052320Z 0600/0624 VRB03KT P6SM FEW180", "KMAF 052320Z 0600/0624 24014G22KT P6SM SKC FM060100 26009KT P6SM SKC", "KMBG 052321Z 0600/0624 07008KT P6SM SKC FM061100 07014KT 6SM SHRA BR OVC026 FM061400 07013KT 3SM +SHRA BR OVC011 FM062000 05011G17KT P6SM BKN008 FM062300 02011KT P6SM BKN018", "KMBL 052320Z 0600/0624 12006KT P6SM SCT060 OVC120 FM061500 15009KT P6SM SCT120 BKN200", "KMBS 052320Z 0600/0624 04009KT P6SM SCT080 BKN200 FM060400 10005KT P6SM SCT250 FM061600 17011KT P6SM BKN150", "KMCB 052329Z 0600/0624 12007KT P6SM SCT020 FM060600 VRB04KT P6SM SCT003 BKN010 FM061500 15007KT 5SM BR VCTS BKN015CB", "KMCC 052328Z 0600/0624 20008KT P6SM SCT060 SCT070 OVC080 FM060600 18010KT P6SM -SHRA OVC050 FM061800 19007KT P6SM -RA BKN030", "KMCE 052331Z 0600/0624 32005KT P6SM SCT020 OVC050 FM060500 33005KT P6SM OVC050 TEMPO 0614/0618 3SM -RA BR OVC020 FM061800 33005KT P6SM -SHRA OVC050", "TAF KMCF 051700Z 0517/0623 20009KT 9999 SCT180 QNH3003INS BECMG 0605/0606 12009KT 9999 BKN080 QNH3004INS BECMG 0617/0618 VRB06KT 9999 BKN035 QNH3006INS TX30/0518Z TN15/0612Z", "KMCI 052322Z 0600/0624 16012KT P6SM BKN040 FM060700 16012KT P6SM OVC020 FM061100 18012KT P6SM VCSH OVC010 FM061600 19014G23KT P6SM SCT040", "KMCK 052320Z 0600/0624 VRB25G35KT 5SM -TSRA BKN080CB FM060005 11010KT P6SM BKN080 FM060600 VRB06KT P6SM BKN080 FM060900 VRB06KT 2SM BR OVC005 FM061400 30008KT P6SM SCT120", "KMCN 052329Z 0600/0624 06005KT P6SM VCSH BKN080 FM061100 09006KT P6SM SCT015 BKN025 TEMPO 0613/0616 BKN015 FM061700 11006KT P6SM SCT022 BKN030 FM062300 11005KT P6SM BKN035", "KMCO 052326Z 0600/0706 08013G24KT P6SM SCT060 SCT200 BKN250 FM060200 09005KT P6SM FEW060 SCT120 BKN250 FM061500 11006KT P6SM VCSH SCT040 SCT250 FM061800 07012G25KT P6SM VCTS SCT035CB SCT100 FM070300 07008KT P6SM FEW030 SCT100", "KMCW 052342Z 0600/0624 18011G20KT P6SM -SHRA VCTS OVC045CB FM060200 17010KT P6SM VCSH OVC030 FM060600 14009KT P6SM VCSH OVC009 FM061200 15012KT P6SM OVC006 FM061700 15012KT P6SM OVC015", "KMDT 052325Z 0600/0624 35007KT P6SM SCT070 FM060200 VRB05KT P6SM SKC FM061400 30004KT P6SM SKC", "KMDW 052320Z 0600/0706 16010KT P6SM SCT070 BKN200 PROB30 0610/0615 -SHRA BKN030 FM061500 16014G23KT P6SM BKN035 FM070200 15010KT P6SM BKN025", "KMEI 052343Z 0600/0624 11006KT P6SM SCT025 OVC035 FM060300 13007KT P6SM OVC015 FM060700 14006KT P6SM OVC007 FM061600 16011KT P6SM OVC015 FM062200 17011KT P6SM BKN050", "KMEM 052320Z 0600/0706 14011KT P6SM BKN035 FM060300 14009KT P6SM VCSH BKN035 FM061100 15010KT P6SM OVC015 TEMPO 0614/0616 OVC009 FM061700 17012G18KT P6SM BKN025 FM062000 17012G18KT P6SM BKN045 FM070000 17010KT P6SM SCT050 BKN150", "KMER 052331Z 0600/0624 32005KT P6SM SCT020 OVC050 FM060500 33005KT P6SM OVC050 TEMPO 0614/0618 3SM -RA BR OVC020 FM061800 33005KT P6SM -SHRA OVC050 AMD NOT SKED", "KMEV 052344Z 0600/0624 28013G22KT P6SM SCT060 BKN120 FM060500 13006KT P6SM VCSH BKN035 OVC050 FM061000 VRB04KT P6SM -SHRASN SCT035 BKN050 FM061300 VRB04KT P6SM VCSH SCT035 BKN045 FM061700 24008KT P6SM BKN035 BKN050 PROB30 0617/0621 -SHRASN FM062100 25015G24KT P6SM FEW040 SCT050", "KMFD 052333Z 0600/0624 09007KT P6SM SCT250 FM061600 13008KT P6SM SCT250 FM062200 13006KT P6SM BKN250", "KMFE 052320Z 0600/0624 14010KT P6SM FEW035 SCT110 FM060800 16012KT P6SM BKN013 BKN080 FM061100 14012KT P6SM SCT015 BKN080 FM061200 14011KT P6SM BKN012 BKN080 FM061500 14013KT P6SM BKN035 BKN080", "KMFR 052340Z 0600/0624 VRB06KT P6SM VCSH BKN050 FM061000 29003KT P6SM BKN030 FM061700 27006KT P6SM VCSH BKN030", "TAF KMGE 052105Z 0521/0703 12005KT 9999 VCSH BKN050 OVC100 QNH3012INS BECMG 0603/0604 12005KT 4800 -RA BR BKN020 OVC050 QNH3014INS BECMG 0607/0608 12008KT 9000 BR VCSH BKN012 OVC020 QNH3016INS BECMG 0615/0616 12010G15KT 9999 NSW BKN020 QNH3020INS BECMG 0619/0620 12010G15KT 9999 BKN035 QNH3016INS TX21/0621Z TN12/0612Z LAST NO AMDS AFT 0603 NEXT 0611", "KMGM 052320Z 0600/0624 08008KT P6SM OVC060 FM061200 08006KT P6SM SCT070 FM061500 12007KT P6SM SCT070", "KMGW 052330Z 0600/0624 VRB02KT P6SM SKC FM061200 07002KT P6SM SCT250", "KMHK 052320Z 0600/0624 16011G20KT P6SM SCT040 FM060300 14009KT P6SM BKN020 FM060700 16011KT P6SM BKN009 FM061300 22010KT P6SM SKC", "KMHR 052328Z 0600/0624 19008KT P6SM FEW050 FEW060 OVC080 FM060600 18010KT P6SM -SHRA OVC050 FM061800 19007KT P6SM -RA BKN030", "KMHT 052323Z 0600/0624 32006KT P6SM FEW060 FM060400 VRB03KT P6SM FEW250 FM061500 33011KT P6SM SKC", "KMIA 052320Z 0600/0706 08008KT P6SM FEW040 FM060700 VRB04KT P6SM SKC FM061400 08009KT P6SM FEW050 FM062000 07010KT P6SM VCSH SCT030 BKN050", "TAF AMD KMIB 052045Z 0520/0623 10012G18KT 9999 SCT100 QNH2990INS BECMG 0601/0602 08009KT 9999 SCT030 BKN050 QNH2992INS BECMG 0610/0611 06009KT 8000 BR BKN020 QNH2994INS TEMPO 0612/0614 4800 BR BKN015 BECMG 0614/0615 08010G20KT 9999 NSW BKN030 QNH2989INS TX18/0523Z TN03/0611Z LAST NO AMDS AFT 0523 NEXT 2009", "KMIV 052321Z 0600/0624 VRB03KT P6SM SCT050 BKN100 FM060200 VRB03KT P6SM SCT050 FM061300 32004KT P6SM FEW050 FM061600 28006KT P6SM SCT050 FM062300 VRB03KT P6SM SKC", "KMKC 052322Z 0600/0624 16012KT P6SM BKN040 FM060700 16012KT P6SM OVC020 FM061100 18012KT P6SM VCSH OVC010 FM061600 19014G23KT P6SM SCT040", "KMKE 052324Z 0600/0706 14014KT P6SM BKN100 FM060800 13012KT P6SM -RA BKN060 FM061700 13012G20KT P6SM VCSH BKN040 FM070000 13008KT P6SM BKN020 FM070500 15008KT P6SM BKN014", "KMKG 052320Z 0600/0624 18008KT P6SM BKN150 FM061400 15013G24KT P6SM VCSH SCT040 BKN100 FM062000 13014G23KT P6SM BKN070", "KMKL 052320Z 0600/0624 12006KT P6SM OVC040 FM060300 12006KT P6SM VCSH OVC040 FM061200 15007KT P6SM OVC015 FM061700 16010G15KT P6SM BKN025 FM062000 17010G15KT P6SM BKN040", "KMKT 052340Z 0600/0624 12007KT P6SM -SHRA SCT030 OVC070 TEMPO 0600/0602 2SM -TSRA BKN030CB FM060300 12008KT P6SM BKN060 FM060800 13008KT P6SM OVC015 FM061200 12007KT P6SM OVC008 FM061800 15010KT P6SM OVC015 FM062100 14009KT 6SM -SHRA BR BKN016 OVC035 TEMPO 0621/0624 2SM TSRA BR BKN010CB", "KMLB 052326Z 0600/0624 08014G20KT P6SM FEW035 SCT150 BKN250 FM060300 10007KT P6SM SCT035 SCT120 BKN250 FM061500 08009KT P6SM SCT030 SCT200 FM061700 08012G24KT P6SM VCTS SCT035CB SCT100", "KMLC 052320Z 0600/0624 VRB04KT P6SM SCT024 TEMPO 0600/0604 BKN024 FM060400 17010KT P6SM SCT015 BKN250 FM061600 19010G17KT P6SM FEW025 SCT250", "KMLI 052320Z 0600/0624 16010G18KT P6SM BKN080 FM061000 14010KT P6SM OVC025 FM061400 15010KT P6SM OVC015 FM062100 15012G20KT P6SM BKN035", "KMLS 060005Z 0600/0624 10008KT P6SM VCTS FEW060CB OVC080 TEMPO 0600/0604 VRB17G33KT 5SM -TSRA SCT040CB OVC080 FM060400 07009KT P6SM -SHRA OVC050 FM061200 07015KT P6SM VCSH OVC025", "KMLU 052320Z 0600/0624 00000KT P6SM BKN022 OVC027 FM060300 17005KT P6SM BKN015 OVC020 FM061000 17005KT 4SM BR OVC009 FM061200 15003KT P6SM OVC007 FM061400 19006KT P6SM OVC015 FM062100 18008KT P6SM BKN050", "KMMH 052344Z 0600/0624 26012G20KT P6SM SCT060 BKN100 FM060400 26008KT P6SM BKN060 OVC100 FM061200 30011KT P6SM BKN045 OVC080 PROB30 0612/0618 4SM -SHSN OVC025 FM061800 25013G23KT 4SM -SHSN SCT025 BKN040", "TAF KMMT 052300Z 0523/0705 VRB06KT 9999 FEW120 QNH3012INS TX25/0621Z TN15/0609Z", "KMOB 060011Z 0600/0624 15012KT P6SM BKN005 BKN120 FM060100 11006KT P6SM OVC007 FM060600 11004KT 6SM BR OVC007 FM061500 09009KT P6SM OVC015", "KMOD 052328Z 0600/0624 26009KT P6SM BKN050 BKN060 BKN080 FM060600 VRB05KT P6SM -SHRA OVC025 FM061800 29005KT P6SM -RA BKN030", "KMOT 052320Z 0600/0624 08013KT P6SM BKN100 FM061400 07012KT P6SM SCT020 FM062000 07016G25KT P6SM BKN035", "KMPV 052340Z 0600/0624 35007KT P6SM SCT200 TEMPO 0604/0606 2SM BR BKN002 FM060800 35004KT P6SM BKN035 FM061400 33008G15KT P6SM FEW120 FM061800 32012G18KT P6SM SKC FM062300 31006KT P6SM FEW250", "KMQY 052327Z 0600/0624 16005KT P6SM VCSH OVC070 FM061200 15007KT P6SM BKN060", "KMRB 052340Z 0600/0624 02007KT P6SM SCT060 BKN080 FM060300 00000KT P6SM FEW150 FM060800 00000KT 3SM BR FEW250 FM061300 13003KT P6SM FEW200 FM061600 16003KT P6SM FEW250", "KMRY 052320Z 0600/0624 26009KT P6SM VCSH FEW040 FM060200 23005KT P6SM SCT030 FM061000 VRB03KT P6SM VCSH BKN025 FM061700 VRB05KT P6SM VCSH SCT020 BKN035", "KMSL 052335Z 0600/0624 12008KT P6SM VCSH BKN060 FM061200 15009G15KT P6SM SCT025 FM061700 15009G18KT P6SM BKN050", "KMSN 060010Z 0600/0624 17009KT P6SM BKN100 FM060300 16012KT P6SM -RA BKN060 FM061400 15010G20KT P6SM VCSH OVC020 FM062300 15011G19KT P6SM BKN020", "KMSO 052350Z 0600/0624 01010G20KT P6SM VCTS BKN060CB OVC100 FM060100 33011KT P6SM VCSH BKN090 FM060200 32007KT P6SM -SHRA OVC050 FM061000 29005KT 5SM -RA OVC025 FM062000 29011KT P6SM -SHRA SCT030 OVC050", "KMSP 052340Z 0600/0706 09008KT P6SM VCSH BKN050 TEMPO 0600/0603 4SM -TSRA BR BKN025CB FM060400 09008KT P6SM SCT017 BKN040 FM061000 09006KT P6SM OVC013 FM061900 12009KT P6SM BKN020 TEMPO 0622/0702 2SM -TSRA BR BKN012CB FM070300 11008KT P6SM SCT008 OVC012", "KMSS 052340Z 0600/0624 07004KT P6SM FEW150 FM060300 VRB03KT P6SM FEW150 FM061600 32007KT P6SM FEW220 FM062000 29007KT P6SM SCT150", "KMSY 052329Z 0600/0706 17010KT P6SM VCTS SCT020CB BKN250 FM060200 15006KT P6SM BKN020 FM061100 14005KT 5SM BR BKN015 FM061600 14010KT 5SM SHRA BR VCTS BKN020CB FM070100 14007KT P6SM SCT010 BKN050", "TAF KMTC 051900Z 0519/0701 VRB06KT 9999 FEW035 SCT050 BKN075 QNH3014INS TX17/0519Z TN05/0611Z LAST NO AMDS AFT 0603 NEXT 0611", "KMTH 052344Z 0600/0624 07005KT P6SM FEW030", "KMTJ 052335Z 0600/0624 23010G16KT P6SM FEW120 FM060200 19010KT P6SM SCT250 FM060600 14007KT P6SM FEW110 FEW250 FM061700 21009KT P6SM FEW250 FM061900 24015G25KT P6SM FEW110 SCT250", "KMTN 052340Z 0600/0624 14006KT P6SM SCT050 BKN080 FM060200 04004KT P6SM FEW200 FM060500 00000KT P6SM FEW200 FM061400 06003KT P6SM FEW250 FM061600 18005KT P6SM FEW150 FM061900 06005KT P6SM FEW200", "KMTW 052334Z 0600/0624 07006KT P6SM BKN080 FM060300 15007G16KT P6SM VCSH BKN080 WS017/17040KT FM060900 16008G15KT P6SM -SHRA OVC040 WS013/18040KT FM061300 15011G20KT P6SM VCSH BKN040", "TAF KMUI 051900Z 0519/0701 VRB06KT 9999 FEW014 FEW022 BKN035 QNH3014INS TX18/0618Z TN05/0610Z", "TAF AMD KMUO 052145Z 0521/0624 12012G18KT 9000 -SHRA SCT020 BKN040 610505 QNH2975INS TEMPO 0518/0520 11015G25KT 510009 BECMG 0520/0521 30009KT 9000 -SHRA SCT030 BKN060 610604 QNH2980INS TEMPO 0521/0523 VRB06KT BECMG 0605/0606 VRB06KT 9999 VCSH SCT010 BKN020 BKN050 610505 QNH2994INS BECMG 0617/0618 32009KT 9999 NSW FEW030 SCT040 SCT070 QNH2986INS TX12/0521Z TN05/0613Z LAST NO AMDS AFT 0521 NEXT 0610", "KMVN 052320Z 0600/0624 17006KT P6SM BKN070 FM061100 15006KT P6SM OVC030 FM061400 16010G16KT P6SM BKN025 FM062000 16010KT P6SM BKN035", "KMWH 052320Z 0600/0624 20006KT P6SM OVC025 FM061800 20006KT P6SM BKN050", "TAF KMXF 051900Z 0519/0701 08012KT 9999 FEW065 BKN100 QNH3004INS BECMG 0621/0622 14006KT 9999 BKN050 QNH3009INS TX28/0619Z TN15/0611Z LAST NO AMDS AFT 0603 NEXT 0611", "KMYL 052343Z 0600/0624 18010G20KT P6SM VCSH BKN040 OVC050 FM060500 VRB03KT P6SM FEW005 OVC070 FM061000 VRB05KT 5SM -SHRASN BR OVC015 FM061600 20008KT P6SM VCSH OVC045", "KMYR 052320Z 0600/0624 13006KT P6SM BKN250 FM060600 00000KT P6SM SCT250 FM061300 14006KT P6SM SCT200 FM061700 18008KT P6SM SCT200", "TAF KNBC 0521/0621 13007KT 9999 FEW080 OVC120 QNH3010INS TEMPO 0521/0600 8000 -SHRA BR BECMG 0603/0605 05007KT 9999 BKN030 QNH3014INS T17/0611Z 24/0619Z", "TAF KNBG 0523/0623 19010G18KT 9999 VCSH SCT030CB BKN120 BKN250 QNH2988INS TEMPO 0523/0603 VRB25G35KT 3200 TSRA BR BKN025CB OVC100 BECMG 0603/0605 13007KT 4800 BR VCSH BKN015 BKN030 BKN250 QNH2996INS BECMG 0611/0613 15012KT 9999 NSW SCT015 BKN030 BKN120 BKN250 QNH3000INS BECMG 0617/0619 16010G18KT 9999 VCSH BKN015CB BKN030 BKN120 OVC250 QNH2998INS TEMPO 0619/0623 VRB25G35KT 3200 TSRA BR OVC015CB AUTOMATED SENSOR METWATCH 0604 TIL 0611 TX31/0619Z T21/0606Z FN00193", "TAF KNCA 0521/0621 16006KT 9999 SCT060 BKN090 QNH3014INS FM060000 VRB04KT 9999 BKN080 QNH3017INS T08/0607Z T25/0618Z", "KNEW 052329Z 0600/0624 18012KT P6SM VCTS SCT015CB BKN035 FM060300 13008KT P6SM SCT015 BKN020 FM061200 14005KT 4SM BR BKN008 BKN015 FM061500 13007KT 5SM BR VCTS BKN015CB FM062100 10012G20KT 5SM BR BKN020 BKN060", "TAF KNFG 0521/0621 29008KT 9999 BKN045 QNH3000INS BECMG 0603/0605 VRB05KT 9999 BKN020 QNH3004INS BECMG 0617/0619 27008KT 9999 SCT030 QNH3005INS T19/0522Z T10/0614Z", "TAF KNFL 0523/0623 30010G15KT 9999 VCSH BKN050 BKN100 BKN150 BKN250 QNH2985INS TEMPO 0600/0604 VRB15G25KT 8000 -SHRA BKN030 OVC050 FM060600 VRB06KT 9999 VCSH BKN050 BKN070 OVC100 QNH2988INS TX16/0523Z TN05/0613Z FS30123", "TAF KNFW 0523/0623 19012G18KT 9999 VCTS FEW060CB SCT250 QNH2972INS TEMPO 0600/0602 VRB35G45KT 3200 +TSRA OVC012CB FM060200 18011KT 9999 SCT250 QNH2976INS FM061100 19009KT 9999 SCT012 BKN250 QNH2986INS FM061700 18014G24KT 9999 FEW040 QNH2984INS AUTOMATED SENSOR METWATCH 0604 TIL 0611 TX35/0523Z TN19/0612Z FN20048", "TAF KNGP 0523/0623 13014G22KT 9999 SCT025 BKN180 BKN250 621806 QNH2980INS FM060100 15014KT 9999 VCTS SCT008 OVC015CB 621806 QNH2982INS TEMPO 0601/0607 VRB20G30KT 1600 +TSRA BR BKN005 OVC010CB FM060700 VRB06KT 4800 BR SCT005 BKN015 BKN250 600000 QNH2986INS TEMPO 0607/0612 09010KT BKN005 OVC015 FM061200 16010KT 8000 BR BKN008 OVC015 621806 QNH2991INS FM061500 15014KT 9000 HZ FEW008 SCT015 BKN025 BKN160 621608 QNH2993INS FM061800 14020G28KT 9999 SCT025 SCT040 BKN180 621806 QNH2986INS AUTOMATED SENSOR METWATCH 0600 TIL 0723 TX31/0619Z TN26/0612Z FN20081", "TAF KNGU 0523/0623 VRB04KT 9999 FEW070 QNH3018INS TEMPO 0606/0612 9000 BR FEW030 SCT050 BKN250 FM061500 06006KT 9999 FEW050 SCT0180 SCT250 QNH3020INS TX22/0620Z TN12/0610Z FN00062", "TAF KNHK 0523/0623 01006KT 9999 FEW060 SCT090 QNH3015INS BECMG 0602/0604 VRB04KT 9999 FEW090 QNH3022INS BECMG 0615/0617 11008KT 9999 FEW060 SCT090 QNH3019INS AUTOMATED SENSOR METWATCH 0603 TIL 0608 TX22/0618Z TN10/0610Z FN20066", "TAF KNID 0523/0623 20015G25KT 9999 FEW070 FEW200 520009 520909 QNH2980INS WND 170V240 TEMPO 0523/0604 20021G32KT BECMG 0605/0607 21016G24KT 9999 FEW065 SCT140 BKN220 520009 520909 QNH2984INS BECMG 0611/0613 21011KT 9999 SCT200 500000 QNH2986INS BECMG 0620/0622 21020G30KT 9999 FEW120 SCT180 510009 QNH2984INS LAST NO AMDS AFT 0605 NEXT 0815 T06/0613Z T22/0622Z", "TAF KNIP 0523/0623 08008KT 9999 SCT150 BKN250 QNH3008INS FM060200 10007KT 9999 BKN150 OVC250 QNH3011INS FM060800 08006KT 9999 SCT030 SCT060 OVC150 QNH3010INS FM061400 11010KT 9999 VCSH SCT035 BKN060 OVC120 QNH3017INS FM061800 11012G18KT 9999 VCSH BKN040 OVC090 QNH3013INS AUTOMATED SENSOR METWATCH 0604 TIL 0610 TX27/0618Z TN21/0611Z FN20019", "TAF COR KNJK 0523/0623 27018G28KT 9999 FEW250 520009 QNH2986INS TEMPO 0523/0606 25012G22KT FM061000 29006KT 9999 SKC 500000 QNH2995INS AUTOMATED SENSOR METWATCH 0601 TIL 0613 TX29/0623Z TN11/0613Z COR 2306 FS30195", "TAF KNKT 0521/0621 VRB06KT 9999 FEW055 SCT060 BKN150 QNH3015INS TEMPO 0521/0603 15008KT FM061445 15012KT 9999 FEW060 SCT150 QNH3023INS T12/0608Z T22/0620Z", "TAF KNKX 0521/0621 30010KT 9999 BKN035 BKN050 QNH3003INS FM060230 25005KT 9999 SCT025 BKN035 QNH3004INS BECMG 0609/0611 08005KT 9999 BKN025 BKN035 QNH3006INS BECMG 0618/0620 30010KT 9999 SCT025 BKN035 QNH3008INS T10/0614Z T17/0621Z", "TAF KNLC 0523/0623 VRB06KT 9999 SCT025 BKN050 BKN160 QNH2995INS WND 32009KT AFT 0601 BECMG 0607/0609 32011KT 9999 VCSH SCT020 BKN040 BKN160 QNH3001INS TEMPO 0617/0623 8000 -SHRA BR LAST NO AMDS AFT 0601 NEXT 0815 TX19/0523Z TN09/0614Z FS30206", "TAF KNMM 0515/0615 VRB06KT 9999 VCSH SCT025 BKN035 OVC110 641109 642004 532709 533608 QNH3001INS BECMG 0516/0518 14009KT 9000 SHRA VCTS SCT015 BKN035 BKN060 641109 642004 532709 533608 QNH2998INS TEMPO 0518/0523 VRB15G25KT 1600 TSRA BKN008 BKN020CB OVC030 FM060100 VRB05KT 9999 VCSH FEW025 SCT045 BKN070 600000 500000 QNH3002INS LAST NO AMDS AFT 0523/ NEXT 0715 AUTOMATED SENSOR METWATCH AFT 0523 TX27/0521Z TN17/0611Z FN20088", "TAF KNPA 0523/0623 13011KT 9999 VCTS FEW015 SCT035CB BKN100 BKN250 QNH2999INS TEMPO 0523/0601 VRB18KT 3200 +SHRA SCT010 BKN025CB OVC080 FM060100 12008KT 9999 BKN015 OVC025 QNH3001INS FM060500 11006KT 8000 BR FEW006 OVC015 QNH3003INS FM061300 10007KT 9999 SCT015 OVC025 QNH3008INS FM061800 16010KT 9999 SCT025 BKN040 BKN250 QNH3003INS LAST NO AMDS AFT 0523 NEXT 0807 AUTOMATED SENSOR METWATCH 0603 TIL 0614 TX26/0618Z TN19/0611Z FN20053", "TAF KNQI 0523/0623 13012G18KT 9999 FEW030 SCT040 BKN200 QNH2977INS TEMPO 0601/0605 6000 -SHRA BR BKN012 OVC040 FM060500 12008KT 4800 BR SCT007 BKN015 OVC180 QNH2983INS FM061500 14012G20KT 9999 SCT015 SCT030 BKN180 QNH2987INS FM062000 13015G23KT 9999 FEW025 FEW150 BKN230 510005 QNH2990INS AUTOMATED SENSOR METWATCH 0523 TIL 0707 TX34/0622Z TN22/0613Z FN20085", "TAF KNQX 0523/0623 VRB06KT 9999 FEW025 SCT250 QNH3000INS BECMG 0603/0605 10010KT SCT025 BKN250 QNH3002INS BECMG 0610/0612 07010KT FEW025 SCT250 QNH3003INS AUTOMATED SENSOR METWATCH 0602 TIL 0610 TX29/0619Z TN23/0611Z FN20073", "TAF KNRB 0515/0615 08008KT 9999 FEW040 BKN150 BKN250 QNH3010INS FM051900 09012G18KT 9999 SCT040 BKN120 OVC250 QNH3007INS FM060100 10008KT 9999 FEW040 BKN100 OVC250 QNH3010INS FM060900 08006KT 9999 VCSH SCT025 BKN080 OVC120 QNH3012INS LAST NO AMDS AFT 0522 NEXT 0807 AUTOMATED SENSOR METWATCH 0522 TIL 0809 TX26/0519Z TN20/0611Z FN20021", "TAF KNSE 0523/0623 14006KT 9999 VCSH SCT025 BKN045 BKN085 QNH3002INS TEMPO 0523/0601 9000 SHRA FM060600 14008KT 9999 SCT020 BKN035 OVC070 QNH3006INS FM061500 13008KT 9999 SCT025 BKN040 BKN080 QNH3010INS FM062000 14007KT 9999 FEW025 SCT040 SCT080 QNH3011INS AUTOMATED SENSOR METWATCH 0604 TIL 0722 TX25/0620Z TN20/0611Z FN20030", "TAF KNTD 0523/0623 26011KT 9999 FEW025 FEW050 SCT100 SCT260 QNH3002INS TEMPO 0523/0603 21008KT BECMG 0603/0605 VRB06KT 9999 SCT020 QNH3004INS FM061000 15007KT 9000 BR BKN015 QNH3003INS FM061800 23009KT 9999 SCT020 SCT260 QNH3009INS FM062200 27012KT 9999 FEW020 FEW260 QNH3008INS AUTOMATED SENSOR METWATCH 0606 TIL 0613 TX18/0620Z TN09/0613Z FS30101", "TAF KNTU 0523/0623 VRB06KT 9999 FEW040 SCT070 QNH3016INS FM061000 VRB06KT 9999 FEW055 FEW250 QNH3023INS TX18/0619Z TN10/0608Z FN20075", "TAF KNUC 0523/0623 28009KT 9999 FEW015 SCT030 SCT060 QNH3004INS FM060900 29009KT 9999 SCT010 SCT025 BKN050 QNH3006INS TEMPO 0609/0615 6000 BR BKN015 OVC040 FM061500 28010G15KT FEW030 SCT060 QNH3009INS LAST NO AMDS AFT 0601 NEXT 0815 TX17/0600Z TN11/0612Z FS30190", "TAF AMD KNUW 0600/0623 26008KT 9999 -RA SCT019 BKN050 OVC075 640809 QNH2988INS TEMPO 0601/0603 27014G22KT 3200 RA BR SCT005 BKN015 OVC050 FM060400 27012G20KT 9999 -RA SCT007 BKN020 OVC040 640809 QNH2993INS TEMPO 0610/0616 24007KT 1600 RA BR BKN004 OVC010 FM061900 24007KT 9999 VCSH SCT015 BKN030 BKN075 BKN180 640609 QNH998INS TX14/0623Z TN08/0512Z AMD 0005 FS30046", "TAF KNXP 0521/0621 VRB03KT 9999 SCT100 520604 541002 QNH3002INS BECMG 0521/0523 27010KT 9999 SCT100 520604 541002 QNH2996INS FM060130 24014KT 9999 FEW100 520604 541002 QNH2997INS FM060730 28010KT 9999 SCT250 520608 QNH3008INS BECMG 0614/0616 33005KT 9999 SCT250 520608 QNH3000INS T10/0613Z T23/0621Z", "TAF KNYG 0515/0615 VRB06KT 9999 FEW070 QNH3018INS T18/0519Z T07/0610Z", "TAF KNYL 0521/0621 29008KT 9999 SKC QNH2987INS BECMG 0606/0608 31005KT 9999 SKC QNH2997INS FM061700 27006KT 9999 SKC QNH2995INS T12/0613Z T27/0621Z", "TAF KNZY 0523/0623 29008KT 9999 FEW025 BKN050 BKN250 QNH3004INS FM060300 32004KT 9999 SCT025 SCT045 BKN250 QNH3008INS FM060600 VRB04KT 9999 VCSH BKN025 BKN035 QNH3007INS TEMPO 0609/0615 9000 -SHRA BR BKN020 FM061500 VRB06KT 9999 VCSH BKN025 BKN035 QNH3011INS FM061800 29011KT 9999 FEW025 SCT035 BKN250 QNH3007INS TEMPO 0620/0623 29011G18KT TX19/0621Z TN14/0614Z FS30139", "KOAJ 052320Z 0600/0624 33005KT P6SM SCT070 FM060600 00000KT P6SM SKC FM061200 VRB03KT P6SM SKC FM061700 17005KT P6SM SCT070 AMD LTD TO CLD VIS AND WIND", "KOAK 052320Z 0600/0706 25013KT P6SM VCSH FEW050 BKN100 FM060800 22008KT P6SM -SHRA OVC025 FM061700 25012KT P6SM VCSH FEW008 SCT040 FM070400 VRB05KT P6SM SCT018", "TAF COR KOFF 051915Z 0519/0700 15009KT 9999 OVC010 QNH2985INS BECMG 0521/0522 13009KT 9999 BKN010 BKN030 QNH2980INS BECMG 0523/0524 13009KT 9999 BKN020 QNH2982INS TEMPO 0608/0616 16015G25KT 4800 -TSRA BECMG 0611/0612 16010G15KT 9999 NSW SCT020 QNH2983INS TX19/0523Z TN16/0610Z", "KOFK 052322Z 0600/0624 13007KT P6SM SCT050 FM060300 12006KT P6SM BKN025 FM060600 12006KT 5SM BR VCSH BKN006 FM060700 12007KT 5SM BR VCTS OVC005CB FM061100 11008KT 5SM BR VCSH OVC005 FM061300 12006KT 5SM BR OVC007 FM061800 26009KT P6SM SCT040 AMD NOT SKED", "KOGB 052338Z 0600/0624 VRB03KT P6SM SCT060 OVC100 FM061500 17007KT P6SM SCT040 OVC100", "KOGD 060001Z 0600/0624 18011KT P6SM VCSH SCT060 OVC080 FM060300 20011KT P6SM VCSH BKN050 BKN080 FM061000 17009KT P6SM SCT080 SCT150 FM062000 22010KT P6SM VCSH BKN100 BKN150", "KOKC 052320Z 0600/0624 19009KT P6SM FEW250 FM061700 21014G20KT P6SM SKC", "KOLF 052326Z 0600/0624 09020G33KT P6SM FEW080 PROB30 0609/0612 6SM -SHRA BR BKN050 FM061300 08017G27KT 6SM -SHRA BR BKN030 FM062100 08013G25KT 5SM -RA BR OVC020", "KOLM 052335Z 0600/0624 28005KT P6SM -RA OVC040 TEMPO 0600/0604 BKN025 FM060600 28005KT P6SM VCSH OVC020 FM061900 23004KT P6SM VCSH OVC045", "KOLS 052320Z 0600/0624 23012G20KT P6SM SKC FM060100 23011KT P6SM SKC FM060400 VRB06KT P6SM SKC FM061700 21008KT P6SM SKC FM062000 24014G22KT P6SM SKC", "KOMA 060000Z 0600/0624 12007KT 4SM BR OVC015 FM060200 11006KT 6SM BR OVC025 FM060900 13010KT 5SM BR VCTS OVC006CB FM061200 14010KT 5SM BR VCSH OVC008 FM061800 18009KT P6SM BKN012 FM061900 24009KT P6SM SCT040", "KONP 052335Z 0600/0624 21009KT P6SM SCT010 BKN020 OVC050 FM060200 19005KT P6SM BKN020 OVC045 FM061600 19009KT P6SM -SHRA BKN025 OVC050 FM062100 22011KT P6SM -SHRA SCT025 OVC050", "KONT 052327Z 0600/0706 24010G17KT P6SM FEW025 BKN040 FM060500 VRB04KT P6SM SCT025 BKN040 FM061000 VRB05KT P6SM BKN018 BKN030 FM061630 VRB05KT P6SM SCT020 BKN030 FM062100 25010G17KT P6SM SCT035", "KOPF 052320Z 0600/0624 08008KT P6SM FEW035 SCT050 FM060700 VRB04KT P6SM SKC FM061400 08009KT P6SM FEW040 FM062000 07010KT P6SM VCSH SCT030 BKN050", "KORD 052320Z 0600/0706 16010KT P6SM SCT070 BKN200 PROB30 0610/0615 -SHRA BKN030 FM061500 16014G23KT P6SM BKN035 FM070200 15010KT P6SM BKN025", "KORF 052324Z 0600/0624 VRB04KT P6SM SKC FM061600 05007KT P6SM SCT050 FM062100 09008KT P6SM SCT060", "KORH 052320Z 0600/0624 25004KT P6SM SCT070 FM060600 31007KT P6SM FEW250 FM061500 33010KT P6SM SKC", "KOTH 052340Z 0600/0624 24012KT P6SM BKN050 FM061000 VRB05KT P6SM BKN030 FM061700 27006KT P6SM FEW050", "KOTM 052342Z 0600/0624 16012KT P6SM BKN060 FM061000 15011KT P6SM BKN015 FM061500 14012G18KT 6SM -SHRA BKN010 FM061700 15014KT P6SM BKN012", "KOUN 052320Z 0600/0624 18010KT P6SM SKC FM061700 21014G20KT P6SM SKC", "KOWB 052320Z 0600/0624 17005KT P6SM BKN080 FM061300 16008KT P6SM OVC035 FM061700 17010G17KT P6SM BKN025 FM062000 16009G15KT P6SM BKN035", "KOXR 052338Z 0600/0624 26010KT P6SM SCT050 FM060600 30006KT P6SM BKN050 FM061200 VRB03KT P6SM BKN035 FM062000 25010G15KT P6SM SCT250", "TAF KOZR 051800Z 0518/0624 15008KT 9999 SCT050 OVC100 QNH3000INS TEMPO 0518/0520 8000 -SHRA BECMG 0523/0524 VRB06KT 9999 SCT030 OVC070 QNH3002INS BECMG 0608/0609 VRB06KT 9999 SCT020 OVC040 QNH3008INS BECMG 0613/0614 14008KT 9999 SCT030 BKN050 QNH3010INS BECMG 0622/0623 14008KT 9999 VCTS SCT030 BKN040CB QNH3010INS TX27/0520Z TN16/0611Z", "KPAE 052335Z 0600/0624 20008KT P6SM -RA BKN009 OVC015 FM060600 19005KT 5SM -RA OVC015 FM061200 18005KT 4SM -DZ BR OVC015 FM062200 21006KT P6SM VCSH OVC020", "KPAH 052320Z 0600/0624 15004KT P6SM OVC050 FM060900 15004KT P6SM OVC030 FM061300 14008KT P6SM OVC020 FM061600 15009G16KT P6SM VCSH OVC015 FM062100 17010G17KT P6SM BKN030", "TAF KPAM 051900Z 0519/0701 16009KT 8000 -RA SCT030 BKN120 QNH3007INS BECMG 0519/0520 17009KT 9999 NSW BKN040 QNH3005INS BECMG 0606/0607 06009KT 9999 BKN050 QNH3007INS BECMG 0617/0618 15009KT 9999 SCT040 QNH3013INS TX27/0618Z TN18/0611Z", "KPBF 052332Z 0600/0624 12009KT P6SM SCT025 BKN035 FM060600 12006KT P6SM BKN015 OVC025 FM060900 14006KT 6SM BR BKN007 OVC015 FM061500 16007KT P6SM OVC015 FM061800 18012KT P6SM BKN040", "KPBG 052340Z 0600/0624 02007KT P6SM FEW150", "KPBI 052320Z 0600/0624 08010KT P6SM SCT035 SCT050 FM060700 VRB04KT P6SM SKC FM061400 08009KT P6SM FEW040 FM061900 07010KT P6SM VCSH SCT030 BKN050", "KPDK 052329Z 0600/0624 10006KT P6SM VCSH FEW025 BKN060 FM060800 10003KT P6SM VCSH SCT012 BKN020 TEMPO 0611/0613 6SM BR BKN012 FM061600 11007KT P6SM SCT018 BKN025 FM062200 11006KT P6SM BKN035", "KPDT 052320Z 0600/0624 23010KT P6SM VCSH OVC050 FM060600 20007KT P6SM VCSH BKN050 BKN100 FM061200 22010KT P6SM BKN050", "KPDX 052344Z 0600/0624 13006KT P6SM VCSH SCT035 BKN050 OVC100 FM061000 VRB03KT P6SM SCT030 OVC050 TEMPO 0610/0614 BKN030 OVC050 FM061900 22006KT P6SM VCSH SCT030 BKN050", "KPEQ 052320Z 0600/0624 25013G20KT P6SM SKC FM060100 27008KT P6SM SKC", "KPGA 052320Z 0600/0624 24010G18KT P6SM BKN120 FM060300 25006KT P6SM FEW100 FM061700 24009KT P6SM SCT120 FM062100 23016G22KT P6SM FEW100", "KPGD 052324Z 0600/0624 29007KT P6SM FEW060 SCT150 BKN250 FM060200 08005KT P6SM SCT250 FM061400 12008KT P6SM FEW040 SCT250 FM061800 28010KT P6SM SCT040 SCT250", "KPGV 052320Z 0600/0624 31005KT P6SM SCT070 FM060500 00000KT P6SM SKC FM061200 VRB03KT P6SM SKC FM061700 22005KT P6SM SCT070 AMD LTD TO CLD VIS AND WIND", "KPHF 052324Z 0600/0624 05007KT P6SM BKN080 FM060100 VRB03KT P6SM FEW100 FM061500 07005KT P6SM SCT050 FM062100 10008KT P6SM SCT060", "KPHL 052321Z 0600/0706 09004KT P6SM SCT050 BKN100 FM060200 VRB03KT P6SM SCT050 FM061100 32006KT P6SM FEW050 FM061600 27006KT P6SM SCT050 FM070400 VRB03KT P6SM SKC", "KPHX 052320Z 0600/0706 26009KT P6SM FEW080 FM061000 11005KT P6SM FEW250 FM061800 18007KT P6SM FEW250 FM062200 25009KT P6SM FEW250", "KPIA 052325Z 0600/0624 17014G22KT P6SM SCT060 BKN100 FM060100 16009KT P6SM BKN060 FM061300 15011G20KT P6SM BKN018 FM061800 16016G24KT P6SM BKN030", "KPIB 052343Z 0600/0624 19005KT P6SM SCT008 SCT030 FM060640 13003KT P6SM OVC007 FM060800 11003KT 2SM BR OVC003 FM061000 12002KT 1/2SM FG OVC003 FM061300 12003KT 4SM BR OVC003 FM061400 14006KT 6SM BR OVC007 FM061700 17009KT P6SM OVC015 FM062000 15007KT P6SM BKN050", "KPIE 052324Z 0600/0624 35007KT P6SM FEW060 SCT150 BKN250 FM060200 06005KT P6SM SCT250 FM061400 11008KT P6SM FEW040 SCT250 FM061800 33010KT P6SM SCT040 SCT250", "KPIH 052320Z 0600/0624 21015G25KT P6SM VCSH BKN100 FM060900 21010KT P6SM -SHRA SCT020 BKN035 FM061400 23012KT P6SM VCSH SCT015 BKN025 FM061800 24010G20KT P6SM BKN070", "KPIR 052321Z 0600/0624 08009G14KT P6SM FEW090 FM060900 06009KT 6SM SHRA BR OVC024 FM061200 08008KT P6SM VCSH OVC013 FM061700 24009KT P6SM VCSH BKN022 FM062100 28010KT P6SM SCT080", "KPIT 052330Z 0600/0706 VRB03KT P6SM SKC FM061200 07003KT P6SM SCT250 FM062300 11002KT P6SM SCT250", "KPKB 052346Z 0600/0624 VRB03KT P6SM FEW250 FM060700 00000KT 1SM BR VCFG FEW002 FM061300 VRB03KT P6SM SCT250", "KPLN 052320Z 0600/0624 12006KT P6SM VCSH OVC050 FM061500 13010G18KT P6SM SCT060 BKN120", "KPMD 052338Z 0600/0624 24015G22KT P6SM SCT040 FM061000 24013KT P6SM BKN050 FM061700 26015G25KT P6SM SCT250", "KPNA 052328Z 0600/0624 07010G18KT P6SM VCSH SCT050 BKN070 BKN100 FM060200 VRB06KT P6SM FEW050 SCT100 FM061000 13008KT P6SM VCSH FEW020 SCT050 BKN100 FM061500 24011KT P6SM VCSH SCT050 BKN100 FM062000 32012G20KT P6SM VCSH SCT060 BKN090", "KPNC 052320Z 0600/0624 14009KT P6SM OVC023 TEMPO 0600/0603 SCT030 FM060300 13011KT P6SM BKN020 FM060600 15011KT P6SM SCT030 SCT250 FM061600 20011G19KT P6SM SKC", "KPNE 052321Z 0600/0624 10004KT P6SM SCT050 BKN100 FM060200 VRB03KT P6SM SCT050 FM061100 33006KT P6SM FEW050 FM061600 30006KT P6SM SCT050", "KPNS 052320Z 0600/0624 12010KT 3SM TSRA BKN021CB BKN110 FM060200 11006KT P6SM OVC019 FM060600 11004KT 6SM BR OVC015 FM061500 09009KT P6SM OVC015", "TAF KPOB 051700Z 0517/0623 VRB06KT 9999 FEW055 BKN250 QNH3015INS TX24/0521Z TN10/0611Z", "TAF KPOE 052300Z 0523/0705 15009KT 9999 FEW035 SCT100 QNH2987INS TEMPO 0600/0603 VRB06KT SCT012 BKN025 BECMG 0602/0603 18012KT 9999 SCT009 BKN012 QNH2995INS BECMG 0605/0606 18012KT 9999 BKN006 QNH2997INS BECMG 0609/0610 19007KT 4800 BR OVC005 QNH2995INS BECMG 0614/0615 17012G18KT 9999 NSW SCT006 OVC009 QNH3004INS BECMG 0616/0617 18012G18KT 9999 OVC012 QNH3003INS TEMPO 0618/0624 VRB15G25KT 4000 -TSRA SCT009 BKN015CB OVC035 BECMG 0702/0703 18012KT 9999 OVC009 QNH3005INS TX30/0620Z TN21/0612Z LAST NO AMDS AFT 0605 NEXT 0615", "KPOU 052320Z 0600/0624 VRB04KT P6SM VCSH SCT060 TEMPO 0600/0601 5SM -SHRA BKN050 FM060600 VRB02KT P6SM SKC FM061300 34008KT P6SM FEW060", "KPQI 052320Z 0600/0624 33005KT P6SM FEW070 BKN250 FM061300 32012G22KT P6SM SCT050 FM062300 32006KT P6SM SKC", "KPRB 052338Z 0600/0624 26010KT P6SM BKN040 BKN100 FM060500 VRB03KT P6SM BKN050 FM061200 VRB03KT P6SM BKN035 FM061800 27005KT P6SM BKN100 FM062200 27010KT P6SM OVC100", "KPRC 052320Z 0600/0624 21015G25KT P6SM SCT070 FM060200 19007KT P6SM SKC FM061600 20012G22KT P6SM SKC FM062100 22018G27KT P6SM FEW120", "KPSC 052320Z 0600/0624 22010KT P6SM VCSH OVC050 FM060600 21009KT P6SM VCSH BKN060 BKN100 FM061800 22009KT P6SM BKN050", "KPSF 052320Z 0600/0624 VRB04KT P6SM VCSH BKN060 FM060300 VRB03KT P6SM SCT050 FM061300 32010KT P6SM FEW050", "KPSM 052323Z 0600/0624 14006KT P6SM FEW050 FM060300 VRB05KT P6SM FEW250 FM061500 30007G15KT P6SM FEW250", "KPSP 052327Z 0600/0624 32015G25KT P6SM SKC FM061100 32009KT P6SM SKC FM061300 33005KT P6SM SKC FM061800 33011KT P6SM SKC FM062000 33015G25KT P6SM SKC", "KPTK 052320Z 0600/0624 14008KT P6SM BKN250 FM060400 13005KT P6SM SCT250 FM061600 16009KT P6SM BKN150", "KPUB 052322Z 0600/0624 26020G35KT P6SM SCT120 SCT200 FM060200 27015G25KT P6SM FEW120 SCT200 FM060500 33008KT P6SM FEW200 FM061600 27011KT P6SM SKC FM062100 20015G30KT P6SM FEW200", "KPUW 052320Z 0600/0624 28007KT P6SM VCSH OVC015 FM061500 25006KT 5SM -RA OVC015", "KPVD 052320Z 0600/0624 21004KT P6SM FEW050 FM060400 27005KT P6SM BKN100 FM061300 33009KT P6SM FEW250", "KPVU 060001Z 0600/0624 20012KT P6SM VCSH FEW040 SCT060 BKN100 TEMPO 0600/0601 -RA BKN040 OVC050 FM060400 15008KT P6SM FEW050 SCT080 FM061800 21011G18KT P6SM FEW060 BKN100", "KPVW 052320Z 0600/0624 24015G25KT P6SM SKC FM060200 25010KT P6SM SKC", "KPWM 052323Z 0600/0624 23005KT P6SM FEW080 FM060400 00000KT P6SM FEW250 FM061400 31007G15KT P6SM FEW250", "KPWT 052335Z 0600/0624 20009KT P6SM -RA OVC010 FM061200 19003KT 2SM -DZ BR OVC004 FM061800 19005KT 4SM BR VCSH OVC020 FM062100 19005KT P6SM VCSH OVC030", "KRAP 052320Z 0600/0624 09011KT P6SM BKN100 TEMPO 0602/0605 4SM TSRA BR OVC030CB FM060600 35010KT P6SM BKN080", "KRBG 052340Z 0600/0624 VRB03KT P6SM VCSH OVC050 FM060500 VRB04KT P6SM VCSH OVC025 FM061800 22007KT P6SM FEW050", "KRBL 052328Z 0600/0624 18011KT P6SM -RA OVC060 FM061400 16010KT 6SM -SHRA OVC025 FM062100 18006KT P6SM BKN030", "TAF AMD KRCA 060010Z 0600/0701 13009KT 9000 -SHRA VCTS SCT030 OVC050CB 621008 QNH2977INS TEMPO 0600/0603 VRB15G25KT 8000 -TSRA OVC040CB BECMG 0608/0609 15009KT 9999 NSW FEW030 OVC050 621008 QNH2978INS BECMG 0617/0618 18010G15KT 8000 -SHRA VCTS FEW020 SCT030 OVC050CB 621109 QNH2975INS TEMPO 0620/0624 20012G18KT 6000 -TSRA OVC040CB TX20/0600Z TN08/0612Z LAST NO AMDS AFT 0600 NEXT 0811", "KRDD 052328Z 0600/0624 16010KT P6SM -SHRA BKN060 OVC080 FM061000 18005KT 6SM -SHRA OVC015 FM062100 18006KT P6SM BKN030", "KRDG 052321Z 0600/0624 VRB03KT P6SM SCT050 FM061300 33006KT P6SM FEW050 FM061600 30006KT P6SM SCT050 FM062300 VRB03KT P6SM SKC", "KRDM 052320Z 0600/0624 32012KT P6SM FEW040 FM060200 32010KT P6SM OVC050 FM060800 18004KT P6SM OVC050 FM062100 30010KT P6SM OVC050", "TAF AMD KRDR 052300Z 0523/0624 06015KT 9999 FEW070 QNH2985INS BECMG 0601/0602 VRB06KT 9999 SCT070 QNH2993INS BECMG 0614/0615 05015KT 9999 BKN020 QNH3001INS BECMG 0621/0622 05015G20KT 9000 -RA BKN020 QNH2989INS TX20/0523Z TN08/0612Z LAST NO AMDS AFT 0523 NEXT 0810", "KRDU 052320Z 0600/0624 VRB03KT P6SM FEW080 SCT250", "KRFD 052320Z 0600/0624 16010KT P6SM BKN080 TEMPO 0609/0613 -SHRA BKN035 FM061500 16014G23KT P6SM BKN025", "KRHI 052334Z 0600/0624 10007G14KT P6SM VCSH BKN070 FM060300 11006KT P6SM -SHRA OVC040 FM060500 10006KT 4SM SHRA OVC013 FM060700 12006KT 4SM SHRA OVC006 FM061400 14008G16KT 5SM -SHRA OVC005 FM061800 13009G17KT P6SM -SHRA OVC007", "KRIC 052324Z 0600/0624 VRB03KT P6SM FEW080 BKN300 FM061600 VRB05KT P6SM SCT050", "KRIL 052345Z 0600/0624 VRB04KT P6SM SCT100 FM061000 23008KT P6SM VCSH FEW050 BKN070 FM061300 VRB04KT P6SM FEW070 SCT100 FM061900 25012KT P6SM SCT110 FM062100 24017G26KT P6SM SCT110", "TAF AMD KRIV 052337Z 0523/0702 VRB05KT 9999 VCSH BKN030 BKN045 QNH3002INS TEMPO 0600/0602 30010G15KT BECMG 0601/0602 29006KT 9999 VCSH SCT015 BKN035 QNH3004INS BECMG 0606/0607 29006KT 9000 BR SCT010 BKN020 QNH3007INS BECMG 0609/0610 31006KT 6000 BR BKN005 BKN010 QNH3004INS BECMG 0615/0616 VRB04KT 9999 NSW SCT007 BKN020 QNH3008INS BECMG 0618/0619 30009KT 9999 SCT030 BKN040 510005 QNH3004INS TEMPO 0621/0702 30012G20KT FEW035 SCT050 TX15/0523Z TN09/0613Z", "KRIW 052328Z 0600/0624 24015G25KT P6SM VCSH SCT090 BKN160 FM060200 24008KT P6SM SCT100 BKN180 FM060800 31009KT P6SM VCSH SCT080 BKN150 FM061400 24010KT P6SM SCT080 BKN120 FM061900 25012G20KT P6SM SCT100 BKN150", "KRKD 052323Z 0600/0624 34006KT P6SM FEW080 FM061300 32008KT P6SM SKC FM061800 30007G15KT P6SM FEW080", "KRKS 052328Z 0600/0624 31016G24KT P6SM VCSH SCT060 BKN090 BKN120 TEMPO 0600/0602 VRB20G30KT P6SM -TSRA SCT060CB FM060500 25012KT P6SM VCSH SCT050 BKN100 FM061300 26010KT P6SM SCT070 BKN120 FM061900 27012G20KT P6SM VCSH SCT060 BKN090", "KRME 052335Z 0600/0624 29006KT P6SM BKN070 FM060200 00000KT P6SM FEW090 TEMPO 0608/0612 3SM BR BKN005 FM061200 29004KT P6SM FEW250", "TAF KRND 052000Z 0520/0702 18012KT 9999 FEW040 SCT150 SCT220 QNH2978INS BECMG 0607/0608 15006KT 8000 BR BKN010 OVC017 QNH2990INS BECMG 0615/0616 VRB06KT 9999 NSW SCT025 SCT200 QNH2988INS TX35/0521Z TN22/0611Z LAST NO AMDS AFT 0522 NEXT 0810", "KRNH 052340Z 0600/0624 09010KT P6SM VCSH BKN060 FM060500 10008KT P6SM SCT016 BKN050 FM061100 11006KT P6SM OVC009 FM061800 12009KT P6SM SCT008 OVC015 FM062200 12007KT P6SM -SHRA BKN012 OVC030 TEMPO 0622/0624 2SM TSRA BR OVC009CB", "KRNO 052344Z 0600/0624 26013G22KT P6SM SCT060 BKN120 FM060400 32008KT P6SM VCSH BKN035 OVC060 FM060900 VRB03KT 4SM -SHRA SCT035 OVC045 FM061200 VRB03KT P6SM VCSH SCT035 OVC045 FM061800 26007KT P6SM SCT040 BKN060 PROB30 0618/0621 4SM -SHRASN BKN025 FM062100 26013G22KT P6SM FEW045 SCT060", "KROA 052320Z 0600/0624 VRB04KT P6SM SCT180", "KROC 052320Z 0600/0624 02004KT P6SM FEW250 FM060100 VRB03KT P6SM FEW250 FM061400 VRB03KT P6SM FEW035 FEW250 FM061700 01008KT P6SM FEW045 FEW250", "KROG 052320Z 0600/0624 14012KT P6SM OVC019 FM061600 18010G20KT P6SM FEW025 SCT250", "KROW 052333Z 0600/0624 22020G32KT P6SM SKC FM060200 24011KT P6SM SKC FM060700 26007KT P6SM SKC FM061800 17007KT P6SM SKC FM062000 20016G22KT P6SM SKC", "KRSL 052333Z 0600/0624 15012KT P6SM FEW120 FM060600 14015G23KT P6SM SCT005 FM060800 18014G22KT P6SM SCT007 FM061000 22010KT P6SM SCT013 FM061300 28009KT P6SM SCT070 FM062200 23012KT P6SM SKC", "KRST 060021Z 0600/0624 36012KT P6SM -TSRA OVC035CB TEMPO 0600/0602 2SM TSRA BKN025CB FM060600 14008KT P6SM -SHRA BKN007 FM060900 14008KT P6SM OVC006", "KRSW 052324Z 0600/0624 30007KT P6SM FEW060 SCT150 BKN250 FM060200 07005KT P6SM SCT250 FM061400 11008KT P6SM FEW040 SCT250 FM061800 28010KT P6SM SCT040 SCT250", "KRUT 052340Z 0600/0624 VRB03KT P6SM BKN070 FM060500 00000KT P6SM FEW200 FM061400 33007KT P6SM FEW230 FM061900 33009G16KT P6SM SCT250 FM062200 32008KT P6SM SKC", "KRVS 052320Z 0600/0624 16011G19KT P6SM BKN028 FM060500 17011KT P6SM BKN015 FM061600 19012G19KT P6SM FEW025 SCT250", "KRWF 052340Z 0600/0624 08008KT P6SM BKN090 FM060600 10007KT P6SM BKN013 FM060800 09005KT P6SM OVC008 FM061600 12009KT P6SM SCT008 BKN015 FM061900 13009KT 6SM -SHRA BR SCT013 BKN040 TEMPO 0619/0623 2SM TSRA BR BKN013CB", "KRWI 052320Z 0600/0624 VRB03KT P6SM FEW080 SCT250", "KRWL 052320Z 0600/0624 23022G35KT P6SM SCT080 FM060200 25010KT P6SM SCT100 FM061400 24020G30KT P6SM SCT100", "KRYY 052329Z 0600/0624 10006KT P6SM VCSH FEW025 BKN060 FM060800 10003KT P6SM VCSH SCT012 BKN020 TEMPO 0611/0613 6SM BR BKN012 FM061600 11007KT P6SM SCT018 BKN025 FM062200 11006KT P6SM BKN035", "KSAC 052328Z 0600/0624 21009G16KT P6SM FEW050 BKN080 FM060600 18010KT P6SM -SHRA OVC050 FM061800 19007KT P6SM -RA BKN030", "KSAF 052333Z 0600/0624 23016G28KT P6SM FEW110 FM060200 26011KT P6SM SKC FM060800 VRB06KT P6SM SKC FM061600 26010KT P6SM SKC FM062000 23012G22KT P6SM FEW130 FEW250", "KSAN 052327Z 0600/0706 25010KT P6SM FEW025 BKN050 BKN250 FM060300 26005KT P6SM BKN030 FM061000 VRB04KT P6SM BKN025 OVC030 FM061700 28009KT P6SM SCT025 SCT250 FM062100 29011G18KT P6SM FEW030 FEW250 FM070300 30008KT P6SM BKN025", "KSAT 052321Z 0600/0706 14014KT P6SM SCT060 SCT250 FM060600 14006KT P6SM BKN015 FM060800 16006KT 5SM BR OVC009 FM061600 14007KT P6SM BKN015 FM061800 15012KT P6SM SCT035 SCT250", "KSAV 052320Z 0600/0624 08010KT P6SM FEW050 BKN070 OVC200 FM060300 VRB04KT P6SM BKN050 OVC200 FM061200 09005KT P6SM VCSH BKN025 BKN050 OVC120 FM061500 12008KT P6SM VCSH BKN035 OVC120", "KSAW 052320Z 0600/0624 13005KT P6SM VCSH BKN015 FM060400 11005KT 4SM -SHRA BR OVC012 FM061400 15007KT 5SM -SHRA BR BKN009 FM061800 16009KT P6SM BKN010", "KSBA 052338Z 0600/0624 24008KT P6SM BKN040 FM060300 VRB03KT P6SM SCT040 FM061000 36004KT P6SM SCT025 FM061600 16005KT P6SM SCT025 FM062000 25012KT P6SM BKN250", "KSBD 052327Z 0600/0624 VRB05KT P6SM BKN050 FM060600 VRB05KT P6SM BKN015 OVC030 FM061600 VRB04KT P6SM SCT015 BKN030 FM062100 25010KT P6SM SCT030 SCT250", "KSBM 052324Z 0600/0624 13009G18KT P6SM BKN090 FM060100 14012KT P6SM BKN080 FM060700 15012KT P6SM -RA BKN060 FM061600 16011G20KT P6SM VCSH BKN020", "KSBN 052321Z 0600/0624 15012KT P6SM FEW090 OVC250 FM061500 15013G22KT P6SM BKN080", "KSBP 052338Z 0600/0624 30010KT P6SM BKN040 BKN120 FM060500 VRB03KT P6SM OVC050 FM061200 VRB03KT P6SM OVC025 FM061700 VRB03KT P6SM BKN035 FM062000 29012KT P6SM BKN100", "KSBY 052324Z 0600/0624 06010KT P6SM SCT040 BKN050 BKN100 FM060100 VRB03KT P6SM SCT100 FM060800 00000KT 3SM BR SCT200 TEMPO 0608/0610 1SM BR FM061200 VRB03KT P6SM SCT200 FM061700 VRB05KT P6SM SCT050", "KSCK 052328Z 0600/0624 VRB04KT P6SM OVC090 FM060600 VRB05KT P6SM -SHRA OVC025 FM061800 22005KT P6SM -RA BKN030", "KSDF 052320Z 0600/0706 15005KT P6SM SCT050 BKN200 FM061100 13004KT P6SM SCT030 BKN050 FM061500 16009G15KT P6SM SCT030 BKN040", "KSDL 052346Z 0600/0624 22007KT P6SM SKC FM060500 VRB03KT P6SM FEW250 FM062200 24007KT P6SM FEW250", "KSDY 052326Z 0600/0624 09013G20KT P6SM SCT090 PROB30 0609/0615 6SM -SHRA BR BKN050 FM061500 06015G25KT 6SM -SHRA BR OVC030 FM062100 07013G25KT P6SM OVC020", "KSEA 052335Z 0600/0706 21007KT P6SM -RA BKN020 OVC030 FM061200 20004KT 6SM -DZ BR OVC010 FM062100 22005KT P6SM VCSH OVC035", "KSEZ 052320Z 0600/0624 19015G25KT P6SM SCT070 FM060100 21010G20KT P6SM FEW070 FM060300 09007KT P6SM SKC FM061600 18010G18KT P6SM SKC FM062100 20016G26KT P6SM FEW100", "KSFB 052326Z 0600/0624 09013KT P6SM SCT060 SCT120 BKN250 FM060100 10005KT P6SM FEW060 SCT120 BKN250 FM061500 09007KT P6SM VCSH SCT040 SCT250 FM061800 07012G24KT P6SM VCTS SCT035CB SCT100", "KSFF 052320Z 0600/0624 25005KT P6SM VCSH BKN015 OVC030 FM061200 21007KT 4SM -RA BR OVC015", "KSFO 052320Z 0600/0706 24013KT P6SM VCSH OVC050 FM060700 VRB06KT P6SM -SHRA FEW010 OVC028 FM061600 27012KT P6SM VCSH FEW008 SCT040 BKN100 FM070400 29006KT P6SM FEW018", "KSGF 060024Z 0600/0624 15012G22KT P6SM OVC009 FM060200 14015G25KT P6SM OVC007 FM060600 16015KT P6SM OVC007 WS020/21040KT FM061100 15015KT P6SM OVC015 WS020/22040KT FM061700 18015G25KT P6SM FEW100", "KSGJ 052328Z 0600/0624 08011KT P6SM SCT060 BKN120 BKN200 FM060900 08011KT P6SM VCSH SCT025 BKN040 OVC060 FM061500 09015G22KT P6SM VCSH SCT020 BKN035 OVC050", "KSGR 052330Z 0600/0624 17008KT P6SM SCT040 FM060500 15007KT P6SM SCT010 BKN015 FM061500 17009KT P6SM SCT025 BKN045 FM061700 17010KT P6SM SCT035 SCT045", "KSGU 052320Z 0600/0624 25012G20KT P6SM SCT080 SCT100 FM060400 VRB04KT P6SM SCT100 FM061900 24015G25KT P6SM FEW100 SCT200", "KSHR 052320Z 0600/0624 01012KT P6SM VCSH FEW100 SCT200 FM060200 33011KT P6SM VCSH SCT050 BKN090 FM060800 31007KT P6SM BKN100", "KSHV 052320Z 0600/0624 14006KT P6SM FEW030 FEW050 FM060500 16007KT P6SM OVC050 FM060900 19005KT 4SM BR OVC010 FM061200 18005KT P6SM OVC015 FM062100 18009G15KT P6SM BKN050", "KSJC 052320Z 0600/0624 31011KT P6SM VCSH SCT050 BKN100 FM060800 15009KT P6SM VCSH FEW025 BKN050 FM061600 15007KT P6SM -SHRA FEW020 BKN030 FM062000 VRB06KT P6SM VCSH SCT025 BKN035", "KSJS 052339Z 0600/0624 VRB04KT P6SM SCT250 FM061900 20006KT P6SM SCT150 BKN200", "KSJT 052324Z 0600/0624 21011KT P6SM SKC FM060200 19006KT P6SM SKC FM061700 20011KT P6SM FEW250", "TAF KSKA 051900Z 0519/0701 20012KT 9999 VCSH BKN015 BKN025 620809 QNH2976INS WND 18006KT AFT 0607 TEMPO 0521/0601 20012G20KT 9000 -RA BR SCT008 OVC012 BECMG 0614/0615 20012KT 4800 BR BKN006 OVC012 620504 QNH2986INS BECMG 0619/0620 20009KT 9999 NSW SCT015 BKN035 620504 QNH2987INS TX12/0523Z TN07/0611Z", "TAF KSKF 051800Z 0518/0700 18010G15KT 9999 SCT040 QNH2975INS BECMG 0523/0600 15009KT 9999 VCTS FEW055CB SCT250 QNH2974INS TEMPO 0601/0605 15018G30KT BECMG 0605/0606 VRB05KT 9999 NSW FEW009 QNH2985INS BECMG 0609/0610 14006KT 3200 BR BKN005 BKN250 QNH2987INS BECMG 0613/0614 15006KT 9000 HZ BKN009 BKN250 QNH2991INS BECMG 0614/0615 15009KT 9000 HZ BKN015 BKN250 QNH2991INS BECMG 0615/0616 15010G18KT 9999 NSW SCT030 SCT250 QNH2979INS TX34/0521Z TN21/0609Z", "KSLC 052320Z 0600/0706 18012G20KT P6SM VCSH FEW040 SCT060 BKN100 FM060200 16012KT P6SM VCSH BKN060 BKN100 FM060900 16009KT P6SM SCT080 SCT200 FM062000 32008KT P6SM VCSH SCT060 SCT100", "KSLE 052343Z 0600/0624 20007KT P6SM VCSH SCT035 BKN050 OVC100 FM061000 VRB03KT P6SM SCT030 OVC050 TEMPO 0610/0614 BKN030 OVC050 FM061800 20007KT P6SM VCSH SCT030 BKN050", "TAF KSLI 052100Z 0521/0703 VRB06KT 9999 SCT030 OVC045 QNH3000INS BECMG 0613/0614 VRB06KT 9000 BR FEW018 BKN025 OVC040 QNH3007INS BECMG 0618/0619 VRB06KT 9999 NSW FEW026 FEW270 QNH3007INS BECMG 0623/0624 24012KT 9999 SKC QNH3005INS TX18/0623Z TN12/0614Z", "KSLK 052340Z 0600/0624 01005KT P6SM SCT050 FM060400 VRB03KT 4SM BR BKN005 FM060600 00000KT 1/2SM FG OVC002 FM061000 25003KT 5SM BR BKN007 FM061200 VRB03KT P6SM SCT015 FM061500 31007KT P6SM SCT120 FM061800 30007KT P6SM SKC", "KSLN 052333Z 0600/0624 14011KT P6SM SCT060 FM060500 14013KT P6SM BKN025 FM060700 14014KT P6SM SCT006 FM060900 17016G24KT P6SM SCT015 FM061100 20011KT P6SM SCT045 FM061500 26009KT P6SM SCT100", "KSME 052339Z 0600/0624 VRB04KT P6SM SCT100 SCT200 FM061200 15004KT P6SM BKN060 BKN150 FM061600 17007KT P6SM BKN060 BKN150", "KSMF 052328Z 0600/0624 20012KT P6SM FEW050 SCT070 BKN090 FM060600 18010KT P6SM -SHRA OVC050 FM061800 19007KT P6SM -RA BKN030", "KSMN 052321Z 0600/0624 20013G20KT P6SM BKN110 FM060300 21006KT P6SM BKN060 FM061900 35008KT P6SM -SHRA OVC060", "KSMO 052338Z 0600/0624 23008KT P6SM SCT050 FM060400 VRB03KT P6SM SCT050 FM061000 VRB03KT P6SM BKN035 FM061800 23010KT P6SM BKN050 FM062000 23015KT P6SM BKN050", "KSMX 052338Z 0600/0624 30012KT P6SM BKN050 BKN120 FM060400 VRB03KT P6SM OVC050 FM061000 VRB03KT P6SM OVC020 FM061800 30004KT P6SM BKN035 FM062100 30012KT P6SM BKN250", "KSNA 052327Z 0600/0624 22009KT P6SM FEW040 FM060330 VRB04KT P6SM FEW025 SCT040 FM060800 VRB04KT P6SM BKN025 FM061700 VRB04KT P6SM SCT025 FM062100 22010G17KT P6SM FEW025 SCT250", "KSNS 052320Z 0600/0624 28012KT P6SM FEW050 FM060500 VRB04KT P6SM FEW030 FM061200 VRB06KT P6SM VCSH BKN030", "KSNY 052320Z 0600/0624 16015G25KT P6SM VCTS BKN050CB TEMPO 0600/0603 VRB25G45KT 3SM TSRA BKN025CB FM060300 34012KT P6SM BKN080 FM060600 28008KT P6SM SKC FM061600 26020G30KT P6SM SCT100", "KSOA 052324Z 0600/0624 21010G16KT P6SM SKC FM060200 18006KT P6SM FEW250 FM061700 19011KT P6SM SCT250", "KSPI 052325Z 0600/0624 18013G21KT P6SM SCT060 BKN100 FM060100 16009KT P6SM VCSH BKN050 FM060400 16009KT P6SM BKN050 FM061200 14012KT P6SM BKN018 FM061800 16015G22KT P6SM BKN030", "KSPS 052320Z 0600/0624 14005KT P6SM FEW060 SCT250 FM061700 21010G17KT P6SM SKC", "KSRB 052327Z 0600/0624 21007KT P6SM VCSH BKN120 FM061300 14007KT P6SM BKN045", "KSRQ 052324Z 0600/0624 29007KT P6SM FEW060 SCT150 BKN250 FM060200 08005KT P6SM SCT250 FM061400 15008KT P6SM FEW040 SCT250 FM061800 27010KT P6SM SCT040 SCT250", "TAF KSSC 052300Z 0523/0705 17006KT 9999 BKN050 BKN100 QNH3013INS BECMG 0608/0609 VRB06KT 9999 -SHRA SCT030 BKN045 BKN100 QNH3020INS BECMG 0614/0615 22009KT 9999 -SHRA BKN030 OVC100 QNH3023INS BECMG 0620/0621 22009KT 9999 NSW BKN040 OVC100 QNH3021INS TX23/0620Z TN10/0610Z", "KSSF 052321Z 0600/0624 16012KT P6SM FEW050 SCT250 FM060600 14006KT P6SM BKN015 FM060800 12003KT 5SM BR OVC009 FM061600 14006KT P6SM BKN015 FM061800 14012KT P6SM SCT035 SCT250", "KSSI 052328Z 0600/0624 08010KT P6SM VCSH BKN050 OVC100 FM061000 08010KT P6SM -SHRA BKN025 OVC040 FM061300 09012G18KT 6SM -RA BR BKN015 OVC025 FM061900 09012G18KT P6SM VCSH BKN025 OVC040", "KSTC 052340Z 0600/0624 09009KT P6SM BKN070 FM060800 07007KT P6SM BKN013 FM061000 07006KT P6SM OVC007 FM061800 09008KT P6SM SCT007 BKN014 FM062100 10007KT 6SM -SHRA BR SCT009 OVC018", "KSTJ 052322Z 0600/0624 16012KT P6SM BKN040 FM060700 16012KT P6SM OVC020 FM061100 18012KT P6SM VCSH OVC010 FM061600 19014G23KT P6SM SCT040", "KSTL 052324Z 0600/0706 16011G18KT P6SM BKN060 FM060800 16010G18KT P6SM BKN025 FM061000 15009KT P6SM BKN015 FM061400 16010KT P6SM VCSH BKN015 FM061800 16014G21KT P6SM SCT015 BKN040 FM062300 17014G22KT P6SM BKN045", "KSTS 052320Z 0600/0624 21010KT P6SM VCSH SCT020 OVC040 FM060500 VRB05KT 5SM -SHRA BKN025 FM061600 VRB03KT P6SM BKN020 FM062000 26006KT P6SM BKN070", "KSUA 052326Z 0600/0624 09012G17KT P6SM FEW030 SCT150 BKN250 FM060200 10007KT P6SM SCT035 SCT120 BKN250 FM060700 05003KT P6SM SCT030 SCT120 BKN250 FM061500 07008KT P6SM SCT035 SCT200 FM061700 08012G24KT P6SM VCTS SCT035CB SCT100 AMD NOT SKED", "KSUN 052320Z 0600/0706 12012KT P6SM -SHRA VCTS SCT020CB BKN040 FM060200 VRB06KT P6SM -SHRA SCT025 OVC040 FM060900 VRB06KT 6SM -RASN SCT008 OVC012 FM061900 14008KT P6SM SCT015 BKN035 FM070300 31006KT P6SM SCT025 BKN070 AMD LTD TO CLD VIS AND WIND 0605/0613", "KSUS 052324Z 0600/0624 16010G18KT P6SM BKN060 FM060800 16009KT P6SM BKN025 FM061000 15007KT P6SM BKN015 FM061300 16009KT P6SM VCSH BKN015 FM061800 16014G21KT P6SM SCT015 BKN040", "TAF KSUU 051855Z 0519/0701 21010G15KT 9999 BKN040 OVC080 QNH3002INS BECMG 0522/0523 23012G18KT 9999 SCT030 BKN080 QNH3000INS TEMPO 0600/0607 22015G25KT 9000 -SHRA BECMG 0608/0609 23010G15KT 9999 VCSH BKN030 OVC050 QNH3004INS TX21/0522Z TN09/0612Z", "KSUX 052320Z 0600/0624 14009KT P6SM BKN015 FM060600 10008KT P6SM VCTS OVC004CB FM061100 11008KT 3SM SHRA BR OVC006 PROB30 0611/0614 3SM -TSRA BR OVC004CB FM061600 15009KT P6SM VCTS BKN006CB FM062000 21009KT P6SM BKN013", "TAF KSVN 051700Z 0517/0623 09006KT 9999 FEW075 BKN080 OVC100 QNH3012INS BECMG 0608/0609 08006KT 8000 -DZ SCT030 BKN090 OVC100 QNH3018INS BECMG 0611/0612 09009KT 8000 -SHRA BKN028 OVC095 QNH3020INS BECMG 0614/0615 11010G15KT 8000 -SHRA BKN030 OVC085 QNH3025INS BECMG 0617/0618 11010G15KT 9999 NSW BKN040 OVC080 QNH3019INS TX23/0518Z TN18/0608Z", "KSWF 052331Z 0600/0706 31007KT P6SM VCSH SCT050 BKN070 FM060200 VRB04KT P6SM FEW050 SCT070 FM061400 33008KT P6SM SCT035 SCT060 AMD NOT SKED", "KSWO 052320Z 0600/0624 12008KT P6SM SKC FM061600 20010G17KT P6SM SKC", "KSYM 052339Z 0600/0624 VRB05KT P6SM FEW070 FEW250 FM061700 20007KT P6SM SCT150 BKN200", "KSYR 052335Z 0600/0624 32005KT P6SM FEW040 BKN120 FM061900 32009KT P6SM FEW250", "TAF AMD KSZL 052300Z 0523/0701 16010G20KT 9999 SCT040 BKN120 QNH2983INS BECMG 0601/0602 14009KT 9999 BKN020 QNH2986INS BECMG 0607/0608 15009KT -SHRA 9000 OVC010 QNH2983INS BECMG 0611/0612 16009KT 9999 NSW OVC010 QNH2980INS BECMG 0615/0616 15015G25KT 9999 BKN020 QNH2977INS BECMG 0618/0619 19015G25KT 9999 SKC QNH2971INS TX30/0619Z TN16/0609Z LAST NO AMDS AFT 0523 NEXT 0811", "TAF KTBN 052100Z 0521/0703 14010G15KT 9999 OVC015 QNH2994INS BECMG 0602/0603 15006KT 8000 BR OVC006 510062 QNH2996INS BECMG 0615/0616 17015G20KT 8000 BR OVC006 510062 QNH2998INS BECMG 0617/0618 17020G25KT 8000 BR OVC014 510072 QNH2995INS BECMG 0620/0621 19020G30KT 9999 NSW OVC021 510062 QNH2988INS BECMG 0700/0701 17009KT 9999 BKN021 QNH2989INS TX26/0623Z TN14/0606Z LAST NO AMNDS AFT 06/03Z NEXT 08/13Z", "KTCC 052333Z 0600/0624 24024G36KT P6SM SKC FM060200 23012KT P6SM SKC FM061600 25012G20KT P6SM SKC FM061900 25015G25KT P6SM FEW140", "KTCL 052320Z 0600/0624 09006KT P6SM BKN060 FM060400 11007KT P6SM BKN035 FM061100 10005KT P6SM BKN025 FM061500 15006KT P6SM BKN035 PROB30 0618/0624 4SM SHRA BR", "TAF KTCM 052100Z 0521/0703 21006KT 8000 -RA SCT015 BKN020 620509 QNH2987INS TEMPO 0521/0601 BKN010 BECMG 0601/0602 23006KT 8000 -RA BKN010 OVC015 620509 QNH2989INS BECMG 0611/0612 22006KT 9999 NSW SCT009 BKN015 OVC030 620509 QNH2993INS BECMG 0622/0623 22006KT 9999 BKN030 OVC040 620603 QNH2996INS TX14/0621Z TN08/0607Z", "KTCS 052332Z 0600/0624 22020G30KT P6SM SKC FM060600 29008KT P6SM SKC FM061700 19015G25KT P6SM SKC", "KTEB 052325Z 0600/0706 18007KT P6SM VCSH SCT050 BKN070 FM060200 VRB04KT P6SM SCT050 SCT070 FM061300 33006KT P6SM FEW040 SCT070 FM062000 29008KT P6SM SCT040 SCT070 FM070000 29005KT P6SM FEW040 SCT070 FM070200 VRB02KT P6SM FEW040 FEW070", "KTEX 052335Z 0600/0624 18015G23KT P6SM BKN080 FM060200 17009KT P6SM SCT250 FM060600 VRB04KT P6SM FEW250 FM061800 20011KT P6SM FEW250 FM062000 20014G24KT P6SM SCT250", "TAF KTIK 051700Z 0517/0623 19009KT 9999 SKC QNH2977INS BECMG 0521/0522 21010G15KT 9999 SKC QNH2975INS BECMG 0523/0524 18009KT 9999 SKC QNH2973INS TX32/0521Z TN19/0612Z", "KTIX 052326Z 0600/0624 10007KT P6SM SCT035 SCT120 BKN250 FM061500 08012KT P6SM VCSH SCT030 SCT200 FM061700 08012G24KT P6SM VCTS SCT035CB SCT100 AMD NOT SKED 0601/0611", "KTLH 052320Z 0600/0624 17005KT P6SM BKN080 FM060600 07004KT P6SM BKN250", "KTMB 052320Z 0600/0624 10009KT P6SM FEW035 SCT050 FM060100 08008KT P6SM SKC FM060700 VRB04KT P6SM SKC FM061400 08009KT P6SM FEW040 FM062000 07010KT P6SM VCSH SCT030 BKN050", "KTOI 052320Z 0600/0624 07006KT P6SM OVC060 FM061200 09005KT P6SM SCT250 FM061500 12006KT P6SM SCT250", "KTOL 052333Z 0600/0624 07010KT P6SM SCT250 FM060900 11005KT P6SM SCT250 FM061600 13009KT P6SM SCT250 FM062300 09009KT P6SM BKN200", "KTOP 052320Z 0600/0624 15012KT P6SM SCT040 FM060200 14012KT P6SM BKN015 FM060600 15012G20KT 6SM BR OVC009 FM061500 21014G22KT P6SM FEW030", "KTPA 052324Z 0600/0706 35007KT P6SM FEW060 SCT150 BKN250 FM060200 05004KT P6SM SCT250 FM061500 17006KT P6SM FEW040 SCT250 FM061800 26008KT P6SM SCT040 SCT250", "KTPH 052345Z 0600/0624 27011KT P6SM VCSH SCT040 OVC080 FM061100 01007KT 5SM -SHRA BR SCT015 OVC025 FM061700 29008KT P6SM BKN100 AMD NOT SKED", "KTRI 052330Z 0600/0624 VRB03KT P6SM SCT250", "KTRK 052344Z 0600/0624 25010KT P6SM VCSH SCT025 BKN045 FM060600 21006KT 4SM -SHSN SCT020 BKN030 PROB30 0609/0612 1SM -SN OVC010 FM061200 22007KT 4SM -SHSN BKN020 OVC035 FM061800 22009KT 4SM -SHSN SCT020 OVC035 PROB30 0618/0623 1SM -SHSN SCT015 BKN030", "KTRM 052327Z 0600/0624 30011G18KT P6SM SKC FM060200 33015G25KT P6SM SKC FM061100 33011G17KT P6SM SKC FM061500 33009KT P6SM SKC FM062200 30012G29KT P6SM SKC", "KTTD 052335Z 0600/0624 09005KT P6SM BKN035 BKN050 OVC100 FM061000 VRB03KT P6SM SCT030 OVC050 TEMPO 0610/0614 BKN030 OVC050 FM061900 11005KT P6SM VCSH SCT030 BKN050", "KTTN 052321Z 0600/0624 VRB03KT P6SM SCT050 BKN100 FM060300 VRB03KT P6SM SCT050 FM061100 34006KT P6SM FEW050 FM061600 31006KT P6SM SCT050 FM062300 VRB03KT P6SM SKC", "KTUL 052320Z 0600/0624 15008G20KT P6SM BKN027 FM060500 17011KT P6SM BKN015 FM061600 19012G19KT P6SM FEW025 SCT250", "KTUP 052320Z 0600/0624 13010KT P6SM BKN040 FM060600 14009KT P6SM OVC025 FM060900 17009KT P6SM OVC015 TEMPO 0613/0616 OVC009 FM061800 19010G15KT P6SM BKN025 FM062000 19010G15KT P6SM BKN040", "KTUS 052320Z 0600/0624 25014G22KT P6SM SKC FM060400 25007KT P6SM SKC FM060800 16004KT P6SM SKC FM061900 24010G18KT P6SM SKC", "KTVC 052320Z 0600/0624 13004KT P6SM SCT060 OVC120 FM061500 14008KT P6SM SCT120 BKN200", "KTVF 052321Z 0600/0624 10015G18KT P6SM FEW070 FM060500 08010KT P6SM SCT110 FM060900 07009KT P6SM SCT060 FM061100 06008KT P6SM BKN045 FM062000 06013KT P6SM VCSH BKN020", "KTVL 052344Z 0600/0624 19010G18KT P6SM VCSH SCT025 BKN045 FM060600 19008KT 4SM -SHSN SCT020 BKN030 PROB30 0609/0612 1SM -SN OVC010 FM061200 19007KT 4SM -SHSN SCT025 BKN035 FM061800 19011KT 4SM -SHSN SCT020 BKN030 PROB30 0618/0623 1SM -SHSN SCT015 BKN030", "KTWF 060025Z 0600/0624 30010KT P6SM -SHRA SCT070 OVC080 TEMPO 0600/0602 -TSRA SCT050CB BKN070 FM060500 24010KT P6SM -SHRA BKN050 OVC070 FM061000 21010KT P6SM VCSH OVC050 FM061500 27010KT P6SM BKN050 OVC070", "KTXK 052320Z 0600/0624 17009KT P6SM FEW040 FM060500 15006KT P6SM BKN025 FM061000 14005KT 5SM BR OVC015 FM061200 17005KT 4SM BR OVC010 FM061400 19008KT P6SM BKN020 FM061900 19010KT P6SM BKN050", "KTYR 052320Z 0600/0624 16011KT P6SM FEW035 FM060500 16010KT P6SM SCT250 FM060900 17007KT 4SM BR BKN150 FM061200 17006KT 4SM BR OVC030 FM061500 19009KT P6SM OVC015 FM062100 17012KT P6SM BKN050", "KTYS 052330Z 0600/0624 24005KT P6SM BKN100 FM060900 VRB03KT P6SM OVC050 PROB30 0610/0614 6SM -SHRA BR OVC030", "KUAO 052343Z 0600/0624 20006KT P6SM VCSH SCT035 BKN050 OVC100 FM061000 VRB03KT P6SM SCT030 OVC050 TEMPO 0610/0614 BKN030 OVC050 FM061900 20006KT P6SM VCSH SCT030 BKN050", "KUES 052324Z 0600/0624 12008KT P6SM BKN100 FM060700 15006KT P6SM -RA OVC060 FM061200 14007KT P6SM VCSH BKN070 FM061500 15010G20KT P6SM VCSH OVC020 FM062000 13011G19KT P6SM BKN035", "KUIN 052324Z 0600/0624 16010G18KT P6SM VCSH BKN100 FM060100 16011G18KT P6SM FEW250 FM060800 15011G17KT P6SM BKN025 FM061200 15011G19KT P6SM VCSH SCT009 BKN012 FM061800 16015G24KT P6SM SCT015 BKN040", "KUKI 052337Z 0600/0624 19010KT 6SM BR VCSH SCT015 OVC035 FM060100 16004KT 3SM -RA BR SCT007 BKN015 OVC025 FM061200 VRB02KT 6SM BR VCSH BKN020 OVC040 FM062100 30007KT P6SM SCT250", "KUNV 052325Z 0600/0624 VRB04KT P6SM SCT100 FM060200 00000KT P6SM SKC FM060800 00000KT 3/4SM BR SCT002 FM061200 06004KT P6SM SKC", "KUTS 052330Z 0600/0624 18006KT P6SM FEW040 FM060200 17005KT P6SM VCTS SCT035CB FM060400 16004KT P6SM SCT010 SCT015 FM061000 17004KT 6SM BR BKN007 FM061500 18007KT P6SM SCT015 BKN025 FM061700 17008KT P6SM SCT030 SCT040", "TAF AMD KVAD 052000Z 0520/0622 12009KT 9999 BKN150 621503 QNH3004INS BECMG 0605/0606 12006KT 9999 SCT100 QNH3011INS BECMG 0611/0612 12009KT 9999 SCT020 QNH3012INS TEMPO 0614/0618 12010G15KT TX28/0520Z TN17/0611Z LAST NO AMDS AFT 0520 NEXT 0611", "TAF KVBG 052200Z 0522/0704 29009KT 9999 FEW020 QNH3004INS BECMG 0603/0604 32009KT 9999 BKN012 OVC180 QNH3006INS BECMG 0607/0608 VRB06KT 8000 BR OVC008 QNH3009INS BECMG 0617/0618 32006KT 9999 NSW BKN018 BKN210 QNH3011INS BECMG 0619/0620 30009KT 9999 BKN025 QNH3007INS BECMG 0702/0703 30006KT 6000 BR BKN012 QNH3011INS TX16/0522Z TN08/0613Z LAST NO AMDS AFT 0600 NEXT 0617", "KVCT 052320Z 0600/0624 15012KT 5SM HZ SCT025 FM060200 16008KT 4SM BR BKN012 FM060600 14005KT 2SM BR OVC007 FM061500 16012KT 5SM HZ BKN015 BKN025 FM061900 16015G21KT 6SM HZ SCT030 SCT250", "KVEL 052335Z 0600/0624 25010G17KT P6SM FEW080 BKN100 FM060200 27007KT P6SM SCT100 FM060600 VRB04KT P6SM VCSH SCT080 BKN100 FM061200 VRB04KT P6SM SCT110 FM062100 24010KT P6SM SCT090", "KVGT 052320Z 0600/0624 22013G23KT P6SM FEW100 SCT200 FM060300 22010KT P6SM BKN200 FM061600 21015G23KT P6SM SCT200", "KVIS 052331Z 0600/0624 VRB05KT P6SM BKN050", "KVLD 052320Z 0600/0624 06006KT P6SM BKN080", "KVNY 052338Z 0600/0624 21006KT P6SM BKN050 FM060400 VRB03KT P6SM SCT050 FM061700 14005KT P6SM SCT250 FM062000 17012KT P6SM SCT250 AMD NOT SKED", "TAF AMD KVOK 051940Z 0519/0623 14010G15KT 9999 BKN120 OVC160 QNH2990INS BECMG 0521/0522 14009KT 9000 -RA BKN030 OVC045 QNH2993INS BECMG 0609/0610 14012KT 8000 -RA BKN015 OVC020 QNH2998INS BECMG 0618/0619 12010G15KT 9999 NSW BKN015 OVC020 QNH2997INS TX21/0521Z TN09/0611Z LAST NO AMDS AFT 0521 NEXT 0609", "TAF AMD KVPS 052310Z 0523/0623 18012KT 9999 BKN019 BKN035 OVC060 QNH3002INS BECMG 0523/0524 34015KT 4800 -SHRA OVC013 QNH3005INS BECMG 0600/0601 12009KT 9999 NSW FEW015 SCT050 QNH3007INS BECMG 0606/0607 09006KT 9999 SKC QNH3008INS BECMG 0619/0620 15009KT 9999 FEW020 OVC040 QNH3013INS TX25/0619Z TN19/0612Z", "KVQQ 052328Z 0600/0624 08008KT P6SM SCT050 BKN100 OVC200 FM060600 07004KT P6SM BKN050 OVC100 FM061400 08010G15KT P6SM VCSH BKN035 OVC050 FM062000 09012G18KT P6SM VCSH SCT035 BKN050", "KVRB 052326Z 0600/0624 10007KT P6SM SCT035 SCT120 BKN250 FM060700 05003KT P6SM SCT030 SCT120 BKN250 FM061500 07009KT P6SM SCT035 SCT200 FM061700 08012G24KT P6SM VCTS SCT035CB SCT100", "KVTN 060017Z 0600/0624 11015G25KT P6SM -SHRA VCTS SCT060CB BKN140 FM060200 12015G25KT P6SM VCTS BKN080CB FM060300 10020G30KT P6SM SHRA BKN050 TEMPO 0603/0604 VRB35G50KT 1/2SM TSRAGR FG OVC025CB FM060400 33015G30KT P6SM TSRA SCT015 BKN035CB FM060600 05010KT P6SM VCTS BKN025CB FM060800 05008KT P6SM BKN015 TEMPO 0611/0613 BKN007 FM061800 28008KT P6SM SCT035", "KWJF 052338Z 0600/0624 24015G22KT P6SM SCT040 FM061000 24013KT P6SM SKC FM061600 26015G25KT P6SM SCT250 FM062000 26020G30KT P6SM BKN250", "KWMC 052339Z 0600/0624 22010G20KT P6SM VCSH BKN060 OVC180 FM061300 20006KT 6SM -SHRA SCT020 OVC035 FM062100 26008KT P6SM VCSH OVC050", "TAF KWRB 060000Z 0600/0706 07006KT 8000 -RA FEW025 SCT065 OVC085 QNH3011INS BECMG 0602/0603 07005KT 9999 VCSH SCT065 BKN080 QNH3013INS BECMG 0609/0610 08006KT 8000 BR SCT015 BKN045 OVC055 QNH3015INS BECMG 0612/0613 08006KT 9999 NSW SCT020 OVC050 QNH3017INS BECMG 0614/0615 09009KT 9999 BKN025 OVC050 QNH3015INS BECMG 0619/0620 09009KT 8000 -SHRA FEW025 BKN035 QNH3014INS TX24/0620Z TN14/0609Z", "TAF AMD KWRI 051900Z 0519/0624 10005KT 9999 BKN040 QNH3017INS TEMPO 0519/0602 9000 -TSRA BKN020CB BECMG 0601/0602 VRB03KT 9000 BR SCT045 BKN080 QNH3023INS BECMG 0612/0613 31005KT 9999 NSW SCT050 QNH3018INS TX19/0519Z TN07/0610Z", "KWRL 052328Z 0600/0624 21014G25KT P6SM SCT080 BKN200 FM060300 VRB06KT P6SM SCT120 BKN200 FM061200 VRB06KT P6SM VCSH SCT050 BKN080 FM061600 VRB06KT P6SM SCT080 BKN150 FM062100 23010KT P6SM VCSH SCT070 BKN100", "KWWR 052320Z 0600/0624 24009KT P6SM SKC FM060100 18010KT P6SM SKC FM061600 23014G23KT P6SM SKC", "KXNA 052320Z 0600/0624 16013KT P6SM FEW018 BKN030 FM060200 15012KT P6SM BKN015 FM061600 19010G20KT P6SM FEW025 SCT250", "KXWA 052320Z 0600/0624 10019G27KT P6SM BKN100 FM060300 08013G23KT P6SM SCT100 FM061900 09018G27KT P6SM VCSH BKN035", "KYIP 052320Z 0600/0624 12008KT P6SM BKN250 FM060400 10005KT P6SM SCT250 FM061600 16009KT P6SM BKN150", "KYKM 052320Z 0600/0624 22007KT P6SM VCSH OVC050 FM060200 VRB05KT P6SM VCSH OVC060 FM060600 30005KT P6SM BKN060 BKN100 FM061800 23008KT P6SM BKN100", "KYNG 052333Z 0600/0624 02010KT P6SM SCT250 FM060200 04005KT P6SM SCT250 FM062300 00000KT P6SM BKN200", "KZZV 052330Z 0600/0624 VRB06KT P6SM SKC FM061200 08002KT P6SM SCT250", "TAF LAKU 051700Z 0518/0618 VRB05KT CAVOK TX22/0612Z TN09/0604Z BECMG 0608/0610 34015KT", "TAF LATI 052300Z 0600/0624 VRB03KT CAVOK TX26/0613Z TN10/0604Z TEMPO 0610/0617 32013KT", "TAF LBBG 052300Z 0600/0624 36008KT 9999 SCT030 BECMG 0607/0609 06016KT TEMPO 0611/0616 07018G30KT BECMG 0619/0621 36012KT", "TAF LBGO 052300Z 0600/0624 VRB04KT 3000 BR SCT010 TEMPO 0600/0604 0500 FG BKN004 BECMG 0605/0607 9999 BECMG 0608/0610 06010KT SCT050 PROB30 TEMPO 0610/0614 4000 SHRA FEW030CB BKN040 BECMG 0617/0619 VRB04KT", "TAF LBPD 052300Z 0600/0624 VRB04KT 9999 SCT040 BKN060 BECMG 0601/0603 29012KT BECMG 0609/0611 04010KT PROB30 TEMPO 0612/0616 5000 SHRA FEW030CB BKN040 BECMG 0616/0618 VRB04KT", "TAF LBSF 052300Z 0600/0624 VRB04KT 9999 SCT040 SCT060 BECMG 0600/0602 3000 BR BKN015 PROB40 TEMPO 0602/0605 0800 BCFG SCT003 BECMG 0608/0610 04010KT 9999 SCT040 BECMG 0618/0620 VRB04KT", "TAF LBWN 052300Z 0600/0624 VRB04KT 9999 SCT030 BECMG 0600/0602 36016KT TEMPO 0603/0608 36018G28KT BECMG 0609/0611 06020KT BECMG 0618/0620 36014KT", "TAF LCEN 052240Z 0600/0624 16015G25KT 9999 FEW025 BKN100 TEMPO 0600/0604 -SHRA FEW020 BKN080", "TAF LCLK 052330Z 0600/0624 19016KT 9999 SCT015 PROB30 TEMPO 0600/0607 BKN007 PROB30 TEMPO 0602/0616 5000 SHRA SCT020TCU PROB30 TEMPO 0612/0616 VRB20G30KT 2000 TSRA SCT020CB BECMG 0617/0620 25009KT", "TAF LCPH 052330Z 0600/0624 18013KT 8000 FEW012 BKN020 PROB30 TEMPO 0600/0608 BKN007 PROB40 TEMPO 0600/0617 4000 SHRA SCT020TCU PROB30 TEMPO 0601/0611 VRB20G30KT 2000 TSRA SCT020CB BECMG 0607/0609 24012KT", "TAF LCRA 052214Z 0600/0618 23012KT 9999 SCT025 TEMPO 0600/0604 SCT018 PROB40 0600/0618 7000 HZ PROB30 TEMPO 0604/0615 VRB18G28KT 4000 TSRA BKN015CB", "TAF LDDU 052325Z 0600/0700 VRB02KT CAVOK TX21/0612Z TN14/0603Z TEMPO 0608/0612 18010KT PROB30 TEMPO 0612/0619 29008KT", "TAF LDLO 051125Z 0512/0612 31006KT CAVOK TX22/0513Z TN13/0604Z", "TAF LDOS 052325Z 0600/0700 11005KT CAVOK TX26/0613Z TN08/0605Z TEMPO 0608/0616 11008KT", "TAF LDPL 052325Z 0600/0700 VRB02KT CAVOK TX24/0612Z TN10/0605Z BECMG 0610/0612 27010KT BECMG 0616/0618 VRB02KT", "TAF LDRI 052325Z 0600/0700 VRB02KT CAVOK TX25/0613Z TN12/0605Z", "TAF LDSP 052325Z 0600/0700 VRB02KT CAVOK TX25/0614Z TN12/0603Z BECMG 0609/0611 23008KT BECMG 0616/0618 32006KT", "TAF COR LDZA 052325Z 0600/0700 VRB02KT CAVOK TX25/0614Z TN07/0605Z PROB30 TEMPO 0601/0605 1500 BCFG", "TAF LDZD 052325Z 0600/0700 VRB02KT CAVOK TX24/0612Z TN08/0604Z PROB30 TEMPO 0600/0604 2000 BR MIFG BECMG 0610/0612 28008KT BECMG 0616/0618 VRB02KT", "TAF LEAB 052300Z 0600/0624 16010KT CAVOK TX30/0615Z TN09/0606Z PROB40 TEMPO 0603/0615 VRB05KT", "TAF LEAG 051600Z 0516/0615 14010KT 9999 SCT020 TX23/0614Z TN19/0606Z BECMG 0516/0518 VRB02KT PROB40 TEMPO 0518/0607 1500 BCFG BR BKN002 BECMG 0607/0610 29012KT", "TAF LEAL 052300Z 0600/0624 33005KT 9999 FEW020 TX27/0612Z TN16/0606Z TEMPO 0600/0608 BKN010 BECMG 0609/0611 09012KT TEMPO 0610/0614 10014G25KT", "TAF LEAM 052300Z 0600/0624 VRB02KT CAVOK TX23/0614Z TN16/0606Z PROB30 0600/0609 2000 BR BKN004 BECMG 0608/0610 20010KT BECMG 0618/0621 VRB02KT", "TAF LEAO 052000Z 0521/0621 31005KT CAVOK TX29/0615Z TN08/0606Z PROB40 TEMPO 0612/0618 27015G25KT", "TAF LEAS 052000Z 0521/0621 20008KT 9999 FEW050 TX20/0613Z TN13/0606Z TEMPO 0603/0621 3000 SHRA BKN010 SCT030TCU PROB30 TEMPO 0603/0621 3000 TSRA BKN010 SCT030CB TEMPO 0606/0617 36010KT", "TAF LEBA 051400Z 0515/0615 24005KT CAVOK TX33/0515Z TN12/0606Z", "TAF LEBB 052300Z 0600/0624 VRB05KT CAVOK TX22/0613Z TN12/0606Z TEMPO 0617/0622 3000 SHRA BKN010 SCT030TCU PROB40 TEMPO 0617/0622 3000 TSRA BKN010 SCT030CB BECMG 0609/0611 32010KT TEMPO 0611/0618 32015G25KT", "TAF LEBG 052000Z 0521/0621 VRB04KT CAVOK TX23/0615Z TN08/0606Z BECMG 0614/0616 25010KT BECMG 0617/0619 01012KT PROB40 TEMPO 0616/0621 FEW050TCU PROB30 TEMPO 0617/0620 VRB15G25KT TSRA BKN012 SCT050CB", "TAF LEBL 052300Z 0600/0624 05005KT 9999 FEW010 TX22/0612Z TN14/0605Z PROB30 TEMPO 0600/0609 3000 BR BKN005 TEMPO 0600/0606 34005KT TEMPO 0606/0608 08007KT BECMG 0610/0612 14007KT TEMPO 0612/0615 18007KT BECMG 0618/0620 VRB04KT", "TAF LEBR 052000Z 0521/0621 35009KT CAVOK TX30/0615Z TN15/0606Z TEMPO 0523/0612 11010KT TEMPO 0613/0621 34022KT TEMPO 0615/0621 3000 SHRA BKN010 SCT030TCU PROB40 TEMPO 0615/0621 3000 TSRA BKN010 SCT030CB", "TAF LEBZ 052000Z 0521/0621 28007KT CAVOK TX28/0615Z TN12/0606Z PROB30 TEMPO 0613/0617 SHRA FEW030TCU SCT045", "TAF LECO 052000Z 0521/0621 20009KT 9999 FEW020 SCT035 TX20/0615Z TN13/0606Z PROB40 TEMPO 0521/0524 20015G25KT TEMPO 0521/0615 3000 RA SHRA BKN010 SCT030TCU PROB30 TEMPO 0521/0609 1500 TSRA SCT025CB PROB30 TEMPO 0603/0607 3000 BR BKN010 BECMG 0610/0612 30010KT", "TAF LECV 052300Z 0600/0624 03006KT CAVOK TX24/0615Z TN11/0606Z BECMG 0610/0612 20010KT PROB30 TEMPO 0612/0619 20015G25KT BECMG 0618/0620 35008KT PROB30 TEMPO 0619/0621 33018G28KT FEW050TCU", "TAF LEEC 050800Z 0509/0609 03010KT CAVOK TX32/0515Z TN14/0606Z BECMG 0511/0513 33003KT BECMG 0517/0519 25010KT BECMG 0522/0524 VRB02KT", "TAF LEGA 051100Z 0512/0612 31006KT CAVOK TX31/0515Z TN13/0606Z BECMG 0516/0518 18011KT BECMG 0523/0601 VRB02KT", "TAF LEGE 052300Z 0600/0624 VRB04KT 9999 FEW014 TX27/0612Z TN12/0606Z TEMPO 0600/0607 3000 BR BKN010 PROB40 TEMPO 0600/0607 0100 FG VV001 BECMG 0610/0612 18012KT", "TAF LEGR 052300Z 0600/0624 VRB02KT CAVOK TX30/0615Z TN11/0606Z BECMG 0610/0612 28010KT BECMG 0619/0621 VRB02KT", "TAF LEGT 052300Z 0600/0624 VRB05KT CAVOK TX29/0615Z TN10/0606Z BECMG 0610/0612 23010KT PROB40 TEMPO 0612/0619 23015G25KT BECMG 0618/0620 35008KT PROB40 TEMPO 0619/0621 33015G25KT", "TAF LEHC 051400Z 0515/0615 26007KT 9999 FEW040 TX29/0615Z TN15/0605Z BECMG 0519/0521 09010KT BECMG 0610/0612 17010KT", "TAF LEIB 052000Z 0521/0621 09010KT 9999 FEW040 TX25/0612Z TN15/0605Z BECMG 0523/0601 02010KT PROB30 TEMPO 0522/0606 VRB03KT 4000 BR BKN010 BECMG 0607/0609 08012KT", "TAF LEJR 052000Z 0521/0621 VRB02KT CAVOK TX31/0615Z TN11/0606Z PROB30 TEMPO 0604/0607 4000 BR SCT005 BECMG 0610/0613 26012KT BECMG 0619/0621 VRB02KT", "TAF LELC 052300Z 0600/0624 35007KT 9999 FEW015 TX26/0613Z TN14/0606Z PROB30 TEMPO 0600/0605 BKN010 BECMG 0608/0610 06010KT BECMG 0614/0616 12010KT BECMG 0619/0621 VRB02KT", "TAF LELL 051400Z 0515/0615 18008KT 9999 FEW040 TX26/0613Z TN13/0605Z BECMG 0518/0520 VRB03KT PROB30 TEMPO 0522/0603 3000 BR BKN005 BECMG 0609/0611 13010KT", "TAF LELN 052000Z 0521/0621 26005KT CAVOK TX20/0615Z TN03/0606Z PROB40 TEMPO 0613/0620 4000 SHRA SCT040TCU PROB40 TEMPO 0613/0620 VRB15G25KT TSRA SCT050CB", "TAF LELO 052000Z 0521/0621 VRB05KT CAVOK TX28/0615Z TN10/0606Z PROB40 TEMPO 0614/0621 FEW050TCU PROB30 TEMPO 0615/0620 VRB15G25KT TSRA BKN012 SCT050CB", "TAF LEMD 052300Z 0600/0706 VRB05KT CAVOK TX29/0615Z TN10/0606Z BECMG 0610/0612 23010KT PROB40 TEMPO 0612/0618 23015G25KT BECMG 0618/0620 35008KT", "TAF LEMG 052300Z 0600/0624 29005KT 9999 FEW015 TX25/0613Z TN14/0606Z PROB30 TEMPO 0600/0604 4000 BR BKN006 BECMG 0607/0609 13009KT BECMG 0617/0619 VRB02KT BECMG 0622/0624 29010KT", "TAF LEMH 052000Z 0521/0621 14007KT 9999 FEW040 TX23/0612Z TN14/0605Z PROB40 TEMPO 0522/0607 3000 BR BKN005 PROB30 TEMPO 0600/0607 0350 FG VV001 BECMG 0604/0607 08010KT", "TAF LEMO 052000Z 0521/0621 25010KT CAVOK TX31/0615Z TN13/0606Z BECMG 0600/0603 18004KT BECMG 0610/0612 25012KT PROB30 TEMPO 0616/0619 24016G26KT", "TAF LEPA 052300Z 0600/0624 05005KT 9999 FEW020 TX29/0612Z TN13/0605Z PROB30 TEMPO 0603/0609 BKN010 BECMG 0606/0608 08010KT PROB40 TEMPO 0614/0617 22010KT BECMG 0619/0621 05007KT", "TAF LEPP 052000Z 0521/0621 32009KT CAVOK TX27/0615Z TN11/0605Z TEMPO 0613/0615 35018G30KT TEMPO 0615/0621 3000 SHRA BKN010 SCT030TCU PROB40 TEMPO 0615/0621 3000 TSRA BKN010 SCT030CB", "TAF LERI 051700Z 0518/0618 07010KT CAVOK TX31/0614Z TN14/0606Z BECMG 0520/0522 VRB02KT BECMG 0609/0612 10010KT", "TAF LERL 051400Z 0515/0615 29006KT CAVOK TX30/0615Z TN08/0606Z PROB40 TEMPO 0612/0615 27015G25KT", "TAF LERS 052000Z 0521/0621 VRB03KT 9999 FEW015 TX25/0613Z TN13/0605Z PROB40 TEMPO 0522/0606 3000 BR BKN010 PROB30 TEMPO 0522/0604 0400 FG VV002 BECMG 0608/0610 14009KT", "TAF LERT 052000Z 0521/0621 29012KT CAVOK TX27/0614Z TN15/0606Z BECMG 0522/0524 35004KT BECMG 0609/0611 27014KT PROB30 TEMPO 0614/0620 26016G26KT", "TAF LESA 052000Z 0521/0621 VRB05KT CAVOK TX22/0615Z TN09/0606Z BECMG 0612/0614 28010KT PROB30 TEMPO 0613/0617 FEW050TCU PROB30 TEMPO 0617/0619 31015G25KT", "TAF LESO 052300Z 0600/0624 VRB05KT CAVOK TX22/0613Z TN14/0606Z PROB30 TEMPO 0600/0607 3000 BR TEMPO 0610/0618 29012KT PROB30 TEMPO 0618/0624 3000 SHRA BKN010 SCT030TCU", "TAF LEST 052300Z 0600/0624 22009KT 9999 SCT015 BKN030 TX19/0615Z TN12/0606Z TEMPO 0600/0612 3000 RA SHRA BR BKN010 SCT030TCU PROB30 TEMPO 0612/0618 3000 RA SHRA BR BKN010 SCT030TCU PROB30 TEMPO 0600/0609 1500 TSRA BKN005 SCT025CB PROB30 TEMPO 0600/0607 0800 BCFG BKN002", "TAF LESU 051400Z 0515/0615 20012KT 9999 FEW060 TX29/0614Z TN09/0605Z BECMG 0518/0520 VRB03KT BECMG 0611/0614 19010KT", "TAF LETO 052300Z 0600/0624 01006KT CAVOK TX28/0615Z TN08/0606Z BECMG 0610/0612 23010KT PROB40 TEMPO 0612/0619 23015G25KT BECMG 0618/0620 35008KT PROB40 TEMPO 0619/0621 33015G25KT", "TAF LEVC 052300Z 0600/0624 VRB04KT 9999 FEW025 TX25/0612Z TN13/0606Z PROB40 TEMPO 0600/0606 BKN010 BECMG 0610/0612 10010KT", "TAF LEVD 052000Z 0521/0621 25007KT CAVOK TX23/0615Z TN07/0606Z PROB40 TEMPO 0615/0619 FEW050TCU PROB30 TEMPO 0615/0620 4000 SHRA SCT040TCU TEMPO 0619/0621 03010KT", "TAF LEVS 052300Z 0600/0624 VRB05KT CAVOK TX27/0615Z TN10/0606Z BECMG 0610/0612 23010KT PROB40 TEMPO 0612/0619 23015G25KT BECMG 0618/0620 35008KT PROB40 TEMPO 0619/0621 33015G25KT", "TAF LEVT 052300Z 0600/0624 VRB05KT CAVOK TX24/0615Z TN08/0606Z PROB30 TEMPO 0600/0607 3000 BR BKN010 TEMPO 0609/0618 36010KT PROB30 TEMPO 0618/0623 3000 SHRA BKN010 SCT030TCU PROB30 TEMPO 0618/0623 3000 TSRA BKN010 SCT030CB", "TAF LEVX 052300Z 0600/0624 20009KT 9999 SCT015 BKN030 TX19/0615Z TN12/0606Z PROB40 TEMPO 0600/0609 3000 RA SHRA BR BKN010 SCT030TCU PROB30 TEMPO 0600/0609 1500 TSRA BKN005 SCT025CB PROB40 TEMPO 0600/0608 0800 BCFG BKN002 TEMPO 0612/0618 28010KT", "TAF LEXJ 052000Z 0521/0621 VRB05KT 9999 FEW050 TX21/0612Z TN13/0605Z TEMPO 0614/0621 3000 SHRA BKN010 SCT030TCU PROB40 TEMPO 0615/0621 3000 TSRA BKN010 SCT030CB TEMPO 0607/0617 29013KT", "TAF LEZG 052300Z 0600/0624 11005KT CAVOK TX32/0615Z TN16/0606Z TEMPO 0612/0620 4000 SHRA FEW050TCU PROB40 TEMPO 0614/0618 VRB15G35KT 2000 TSRA FEW040CB", "TAF LEZL 052000Z 0521/0621 26010KT CAVOK TX32/0615Z TN16/0606Z BECMG 0522/0524 VRB02KT BECMG 0611/0613 25010KT PROB40 TEMPO 0616/0619 24016G26KT", "TAF LFBC 050800Z 0509/0609 32008KT 9999 SCT040 SCT100 TEMPO 0514/0517 33010G20KT", "TAF LFBD 052300Z 0600/0706 02010KT 9999 SCT040 TX28/0614Z TN13/0605Z BECMG 0608/0610 10007KT TEMPO 0614/0624 SHRA BKN050TCU PROB30 TEMPO 0617/0623 VRB15G25KT 3000 TSRA BKN040CB TEMPO 0702/0706 4000 SHRA BKN045TCU", "TAF LFBE 052300Z 0600/0624 VRB02KT 9999 SCT040 BECMG 0606/0608 12007KT TEMPO 0616/0624 -SHRA BKN040TCU PROB30 TEMPO 0617/0622 3000 TSRA BKN030CB", "TAF LFBG 050800Z 0509/0609 VRB03KT CAVOK TEMPO 0510/0515 -SHRA SCT040TCU BECMG 0511/0513 28005KT", "TAF LFBH 052300Z 0600/0624 10005KT CAVOK BECMG 0612/0614 30010KT TEMPO 0615/0624 4000 SHRA BKN040 BKN060CB PROB40 TEMPO 0616/0624 VRB15G30KT 2000 TSRA BKN020 BKN030CB", "TAF LFBI 052300Z 0600/0624 VRB03KT CAVOK TEMPO 0615/0624 4000 SHRA BKN040 BKN060CB PROB40 TEMPO 0616/0624 VRB15G30KT 2000 TSRA BKN030 BKN045CB", "TAF LFBL 052300Z 0600/0624 35005KT 9999 SCT040 TEMPO 0614/0624 SCT050TCU PROB30 TEMPO 0616/0624 -SHRA SCT040CB", "TAF LFBM 052000Z 0521/0621 02004KT CAVOK BECMG 0615/0617 28010G20KT BECMG 0618/0620 SCT100TCU PROB40 TEMPO 0620/0621 TSRA BKN015 SCT100CB ", "TAF LFBO 052300Z 0600/0706 VRB03KT CAVOK BECMG 0606/0608 14012KT TEMPO 0616/0622 VRB15G25KT -TSRA FEW060CB PROB40 TEMPO 0619/0622 27025G40KT 4000 TSRA SCT040TCU SCT050CB BECMG 0622/0624 27010KT BKN010 PROB40 TEMPO 0622/0706 -SHRA SCT040TCU", "TAF LFBP 052300Z 0600/0624 12006KT CAVOK BECMG 0610/0612 32008KT TEMPO 0616/0619 -TSRA SCT060CB PROB40 TEMPO 0616/0619 29020G35KT 3000 TSRA BKN025 SCT040TCU SCT050CB BECMG 0619/0621 27010KT BKN010 PROB40 TEMPO 0621/0624 4000 SHRA SCT030TCU", "TAF LFBT 052300Z 0600/0624 VRB03KT CAVOK TEMPO 0614/0619 VRB15G25KT -TSRA SCT060CB PROB40 TEMPO 0617/0619 23020G35KT 3000 TSRA BKN030 SCT040TCU BKN050CB BECMG 0619/0621 29012KT BKN010 TEMPO 0621/0624 4000 SHRA SCT030TCU", "TAF LFBU 051700Z 0518/0618 30005KT CAVOK TEMPO 0614/0618 SCT050TCU PROB30 TEMPO 0616/0618 VRB15G25KT 3000 TSRA BKN040CB", "TAF LFBZ 052300Z 0600/0624 25005KT CAVOK PROB30 TEMPO 0603/0607 1500 MIFG BECMG 0612/0614 27010KT PROB30 TEMPO 0616/0619 28015G30KT 3000 TSRA BKN010 BKN040CB", "TAF LFCK 051700Z 0518/0603 VRB03KT CAVOK", "TAF LFCR 052300Z 0600/0624 VRB03KT CAVOK BECMG 0607/0609 14008KT TEMPO 0618/0624 VRB15G25KT -TSRA FEW060CB PROB40 TEMPO 0619/0622 31020G35KT 3000 TSRA SCT030 SCT050CB", "TAF LFJL 052300Z 0600/0624 VRB04KT 8000 SCT015 BKN060 TEMPO 0600/0608 4000 BR PROB40 TEMPO 0600/0607 0300 FG VV///", "TAF LFKB 052000Z 0521/0621 24004KT CAVOK TX22/0612Z TN11/0603Z BECMG 0610/0612 12010KT BECMG 0618/0621 VRB03KT", "TAF LFKC 051400Z 0515/0615 02006KT CAVOK TX24/0612Z TN12/0603Z", "TAF LFKF 051400Z 0515/0615 24012KT CAVOK BECMG 0518/0520 05006KT PROB40 TEMPO 0518/0607 4000 BR", "TAF LFKJ 052000Z 0521/0621 05005KT CAVOK PROB30 TEMPO 0521/0607 3500 BR BECMG 0610/0612 22010KT", "TAF LFKS 050800Z 0509/0609 12005KT CAVOK", "TAF LFLB 051400Z 0515/0615 VRB05KT CAVOK TEMPO 0515/0519 36010KT FEW080CB PROB30 TEMPO 0515/0519 4000 SHRA BKN020 BKN080CB", "TAF LFLC 052300Z 0600/0624 VRB02KT CAVOK TEMPO 0600/0608 BKN035 PROB40 TEMPO 0603/0607 3000 BR BECMG 0610/0612 02008KT TEMPO 0622/0624 4000 SHRA FEW060CB BKN070TCU PROB30 TEMPO 0622/0624 20015G40KT 2000 TSRA BKN060CB", "TAF LFLL 052300Z 0600/0706 VRB02KT CAVOK TEMPO 0600/0606 SCT030 PROB30 0604/0606 2500 MIFG TEMPO 0703/0706 VRB12KT SHRA BKN080TCU", "TAF LFLN 051700Z 0518/0603 VRB03KT 9999 BKN020 TEMPO 0521/0603 4000 BR PROB40 TEMPO 0600/0603 0400 FG VV///", "TAF LFLP 051400Z 0515/0615 VRB05KT CAVOK TEMPO 0515/0519 22010KT FEW080CB PROB30 TEMPO 0516/0519 4000 SHRA BKN020 BKN080CB", "TAF LFLS 051400Z 0515/0615 VRB05KT CAVOK TEMPO 0515/0519 24010KT FEW080CB PROB30 TEMPO 0515/0519 4000 SHRA BKN020 BKN080CB", "TAF LFLX 052300Z 0600/0706 VRB05KT CAVOK PROB40 TEMPO 0602/0606 3000 BR TEMPO 0620/0706 -SHRA SCT040TCU PROB40 TEMPO 0621/0624 31015G25KT 3000 TSRA SCT050CB PROB30 TEMPO 0705/0706 4000 BR BKN005", "TAF LFLY 052300Z 0600/0624 VRB02KT CAVOK TEMPO 0600/0605 BKN030", "TAF LFMD 051400Z 0515/0615 15010KT CAVOK BECMG 0516/0518 VRB03KT PROB30 TEMPO 0602/0607 BKN008 BECMG 0607/0609 15010KT", "TAF LFMI 052000Z 0521/0621 VRB03KT CAVOK TX25/0612Z TN12/0604Z TEMPO 0521/0607 2000 BR BKN005 BECMG 0609/0611 19010KT BECMG 0618/0620 VRB03KT", "TAF LFMK 051400Z 0515/0615 09004KT CAVOK BECMG 0523/0601 BKN007 BECMG 0605/0607 FEW016 BECMG 0610/0612 09015G25KT", "TAF LFML 052000Z 0521/0703 VRB03KT CAVOK TX25/0612Z TN13/0604Z PROB40 TEMPO 0522/0607 2000 BR BKN005 BECMG 0611/0613 20010KT BECMG 0618/0620 VRB03KT PROB40 TEMPO 0700/0703 3000 BR BKN006", "TAF LFMN 052000Z 0521/0703 VRB04KT CAVOK BECMG 0521/0523 36010KT PROB40 0523/0607 07010KT BKN010 BECMG 0607/0609 10010KT PROB40 TEMPO 0622/0703 BKN010", "TAF LFMO 052000Z 0521/0621 18005KT CAVOK TEMPO 0600/0606 3000 BR BKN004 PROB40 TEMPO 0603/0606 0800 FG BKN002 BECMG 0606/0608 NSC", "TAF LFMP 051400Z 0515/0615 08008KT 9999 SCT017 PROB30 TEMPO 0515/0518 BKN014 BECMG 0518/0520 BKN014 PROB40 TEMPO 0518/0524 3000 BR TEMPO 0600/0609 2000 BR BKN008 PROB40 TEMPO 0609/0615 SCT015", "TAF AMD LFMT 052254Z 0522/0621 VRB05KT 9999 BKN008 TEMPO 0523/0607 FEW008 PROB40 TEMPO 0523/0607 3000 BR BECMG 0607/0608 CAVOK BECMG 0618/0620 OVC008", "TAF LFMU 051400Z 0515/0615 15008KT 9999 SCT018 PROB30 TEMPO 0515/0518 BKN014 PROB40 TEMPO 0518/0524 3000 BR BKN010 TEMPO 0600/0609 2000 BR BKN008 TEMPO 0609/0615 SCT015", "TAF LFMV 051400Z 0515/0615 20010KT CAVOK BECMG 0519/0521 VRB03KT TEMPO 0523/0606 1500 BR BKN004", "TAF LFMY 051400Z 0515/0615 21012KT CAVOK TX25/0612Z TN10/0605Z BECMG 0519/0521 VRB03KT BECMG 0609/0611 21012KT", "TAF LFOA 051400Z 0515/0615 22005KT 9999 SCT030 TX25/0614Z TN08/0605Z PROB30 TEMPO 0515/0520 VRB10G20KT 4000 SHRA BKN030TCU BECMG 0519/0521 VRB02KT BECMG 0523/0601 2000 BR TEMPO 0604/0607 0500 FG VV///", "TAF LFOB 052300Z 0600/0624 17005KT 8000 SCT030 PROB40 TEMPO 0600/0606 0500 FG VV/// BECMG 0606/0608 BKN007 BECMG 0608/0610 23010KT SCT020 TEMPO 0611/0624 4000 SHRA BKN015TCU BKN060 BECMG 0615/0618 12007KT", "TAF LFOE 052000Z 0521/0621 22010KT 9999 SCT035 TEMPO 0521/0522 4000 SHRA BKN014 BKN035CB BECMG 0600/0602 16005KT BECMG 0602/0604 2000 BR BKN002 PROB40 TEMPO 0604/0607 0500 FG VV/// BECMG 0607/0609 8000 NSW SCT010 TEMPO 0610/0614 4000 RA SCT017 BKN025 BECMG 0614/0616 BKN025TCU TEMPO 0616/0621 VRB15G25KT 4000 SHRA SCT015 BKN020CB PROB30 TEMPO 0616/0621 3000 TSRA", "TAF LFOH 051100Z 0512/0612 23010KT 9999 SCT030 TEMPO 0512/0520 3000 SHRA BKN020CB PROB40 TEMPO 0512/0517 VRB15G25KT 1200 TSRAGS BECMG 0521/0524 17005KT TEMPO 0605/0612 4000 RA", "TAF LFOJ 052000Z 0521/0621 24005KT CAVOK TX22/0615Z TN08/0604Z BECMG 0522/0524 4000 BR PROB40 TEMPO 0601/0606 0600 FG VV/// BECMG 0606/0608 CAVOK TEMPO 0612/0621 SCT040CB PROB30 TEMPO 0618/0621 32010G20KT 3000 TSRA BKN030CB", "TAF LFOK 052300Z 0600/0624 20008KT 9999 SCT030 PROB30 0601/0607 0500 FG VV///", "TAF LFOT 052300Z 0600/0624 VRB05KT CAVOK TEMPO 0602/0607 3000 BR PROB30 TEMPO 0604/0606 0500 FG VV/// TEMPO 0615/0624 4000 -SHRA SCT060TCU PROB40 TEMPO 0619/0624 2500 TSRA SCT035CB", "TAF AMD LFPB 052354Z 0600/0624 20005KT CAVOK BECMG 0600/0602 3000 BR NSC PROB30 TEMPO 0604/0607 0800 BCFG BKN004 BECMG 0607/0609 9999 NSW TEMPO 0611/0621 SCT035TCU PROB40 TEMPO 0618/0620 4000 SHRA PROB30 TEMPO 0618/0620 2000 TSRAGS SCT045CB", "TAF AMD LFPG 052351Z 0600/0706 20005KT CAVOK TX21/0615Z TN11/0605Z BECMG 0600/0602 3000 BR NSC PROB30 TEMPO 0604/0607 0800 BCFG BKN003 BECMG 0607/0609 9999 NSW TEMPO 0611/0621 SCT035TCU PROB40 TEMPO 0618/0620 4000 SHRA PROB30 TEMPO 0618/0620 2000 TSRAGS SCT045CB PROB40 TEMPO 0702/0706 SCT040TCU", "TAF AMD LFPN 051755Z 0518/0603 22007KT 9999 FEW040 SCT080 PROB40 TEMPO 0518/0520 TSRA SCT040CB BKN060 BECMG 0601/0603 3000 BR SCT003", "TAF LFPO 052300Z 0600/0706 20005KT CAVOK PROB40 TEMPO 0604/0607 4000 BR BKN004 PROB30 TEMPO 0604/0607 0500 FG VV/// BECMG 0607/0609 CAVOK BECMG 0609/0611 FEW030TCU TEMPO 0617/0706 -SHRA SCT040TCU PROB40 TEMPO 0618/0624 4000 -TSRA SCT040CB", "TAF LFPV 052000Z 0521/0621 24007KT 9999 SCT043 TX20/0614Z TN11/0605Z TEMPO 0523/0607 3000 BR OVC003 PROB40 TEMPO 0602/0607 0800 FG PROB30 TEMPO 0603/0606 0500 FG VV/// TEMPO 0612/0613 -RA BKN025 TEMPO 0618/0621 4000 SHRA SCT025TCU PROB40 TEMPO 0619/0621 -TSRA SCT020CB", "TAF LFQQ 052300Z 0600/0706 18007KT 8000 SCT025 PROB40 TEMPO 0600/0606 0500 FG VV/// BECMG 0606/0608 BKN003 BECMG 0608/0611 SCT020 TEMPO 0611/0617 4000 SHRA BKN015TCU BKN060 TEMPO 0623/0706 4000 SHRA BKN030TCU", "TAF LFRB 052300Z 0600/0706 18015G30KT 9999 BKN012 TEMPO 0600/0616 3000 RA BKN004 BKN030CB BECMG 0607/0609 20010KT BECMG 0616/0618 VRB05KT TEMPO 0616/0622 BKN008 BECMG 0622/0624 BKN008 TEMPO 0622/0706 2000 RADZ BKN002", "TAF LFRD 052300Z 0600/0624 18010KT 9999 BKN020 TEMPO 0600/0609 5000 RA BKN013 PROB40 TEMPO 0600/0608 4000 RA BKN008 BKN030CB PROB40 TEMPO 0614/0620 4000 SHRA BKN015CB BECMG 0618/0620 VRB05KT BECMG 0620/0622 BKN008 TEMPO 0622/0624 2000 DZ BR BKN002", "TAF LFRH 052300Z 0600/0624 16010KT 9999 BKN020 TEMPO 0600/0608 4500 RADZ BKN007 BECMG 0610/0613 BKN014 TEMPO 0613/0618 RA BKN008 BECMG 0613/0616 22005KT PROB40 TEMPO 0613/0618 SHRA BKN005 SCT008CB BECMG 0618/0621 BKN004 TEMPO 0621/0624 3000 BR BKN002 PROB40 TEMPO 0621/0624 0800 FG VV///", "TAF LFRI 051700Z 0518/0618 21010KT CAVOK BECMG 0600/0603 VRB05KT BECMG 0606/0608 OVC060 PROB30 TEMPO 0610/0612 VRB15G30KT 4000 SHRA BKN025CB TEMPO 0612/0617 -SHRA SCT050TCU BKN080", "TAF LFRL 051100Z 0512/0612 21015G25KT 9999 BKN011 OVC018 TEMPO 0512/0518 BKN015TCU PROB30 TEMPO 0512/0518 4000 SHRA BKN012CB BECMG 0521/0523 BKN008 TEMPO 0523/0612 3000 RA BKN005 BKN010 PROB30 TEMPO 0523/0612 BKN003 BKN008TCU", "TAF LFRM 051700Z 0518/0618 21010KT CAVOK BECMG 0600/0603 VRB05KT BECMG 0606/0608 BKN040 OVC060 PROB40 TEMPO 0606/0618 SHRA BKN020CB", "TAF LFRN 052300Z 0600/0624 18005KT 9999 BKN020 TEMPO 0600/0609 5000 RA BKN013 PROB40 TEMPO 0600/0608 4000 RA BKN008 BKN030CB BECMG 0608/0610 18010KT TEMPO 0612/0616 4000 SHRA BKN030CB PROB30 TEMPO 0612/0615 3000 TSRA BKN012CB BECMG 0616/0618 VRB05KT TEMPO 0622/0624 3000 BR BKN005", "TAF AMD LFRQ 051844Z 0518/0618 23012KT 9999 BKN012 TEMPO 0518/0521 5000 RA OVC009 TEMPO 0521/0601 3000 RA BKN005 BKN030CB BECMG 0522/0524 17010KT TEMPO 0601/0607 19015G25KT 3000 RA BKN010 BKN030CB TEMPO 0607/0618 3000 RA BKN005 BKN015CB BECMG 0612/0614 22008KT", "TAF LFRS 052300Z 0600/0706 VRB04KT 9999 SCT020 SCT060 TEMPO 0606/0618 4000 SHRA BKN040 BKN060CB BECMG 0621/0623 4000 BR BKN006 TEMPO 0623/0706 2000 BR BKN002 PROB30 TEMPO 0701/0706 0400 FG VV///", "TAF LFRZ 052300Z 0600/0624 16005KT 9999 SCT050 PROB30 TEMPO 0600/0603 3000 -DZRA BKN007 TEMPO 0604/0617 4000 SHRA BKN040 BKN060CB PROB40 TEMPO 0612/0614 22010KT BECMG 0621/0623 4000 BR BKN006", "TAF LFSB 052300Z 0600/0624 VRB04KT 9999 FEW050 TEMPO 0600/0607 4000 MIFG PROB40 TEMPO 0600/0603 -SHRA FEW030TCU PROB30 TEMPO 0600/0606 0300 FG VV/// BECMG 0607/0609 35006KT PROB40 TEMPO 0611/0616 FEW040TCU", "TAF LFSI 051400Z 0515/0615 VRB05KT 8000 SHRA BKN030TCU BKN060 BKN100 BECMG 0515/0516 NSW FEW015 SCT060 BKN300 BECMG 0521/0523 3000 BR TEMPO 0600/0606 0800 BCFG BECMG 0606/0608 9999 NSW FEW005", "TAF LFSO 050800Z 0509/0609 22003KT CAVOK BECMG 0509/0510 32012KT SCT030CB TEMPO 0510/0518 4900 -SHRA BKN025CB BECMG 0518/0520 BKN020 BECMG 0604/0606 19010KT", "TAF LFST 052300Z 0600/0624 VRB03KT 8000 FEW001 TEMPO 0600/0607 4000 BR PROB40 0600/0606 0300 FG VV/// PROB30 TEMPO 0600/0603 -SHRA FEW030TCU", "TAF LFSX 052000Z 0521/0621 29010KT 9999 BKN050 BECMG 0521/0522 VRB02KT BECMG 0523/0601 0100 FG VV/// BECMG 0606/0608 13005KT CAVOK BECMG 0612/0615 31010KT", "TAF LFTH 052000Z 0521/0621 25006KT CAVOK PROB30 TEMPO 0601/0607 3000 BR BKN005 BECMG 0609/0611 22010KT BECMG 0618/0620 VRB03KT", "TAF LFTW 051400Z 0515/0615 18010KT CAVOK BECMG 0520/0522 VRB03KT TEMPO 0522/0605 3000 BR BKN004", "TAF LFVP 051700Z 0518/0603 02018KT CAVOK FM052330 36015KT CAVOK", "TAF AMD LFYR 051017Z 0510/0609 24005KT 9999 BKN010 BECMG 0510/0512 BKN015 PROB40 TEMPO 0514/0518 28015G25KT 4000 SHRA BKN040CB BECMG 0520/0524 11005KT", "TAF LGAD 052300Z 0600/0609 02008KT 9999 SCT020", "TAF LGAL 052300Z 0600/0609 04015KT 9999 SCT030", "TAF LGAV 052300Z 0600/0624 02020KT 9999 FEW014 BKN020 BKN070 BECMG 0601/0603 01020G30KT BECMG 0615/0617 36010KT", "TAF LGBL 052300Z 0600/0609 28008KT 9999 FEW012 SCT020 BKN080 BECMG 0606/0608 SCT020 SCT080", "TAF LGEL 052300Z 0600/0624 35012KT 9999 FEW012 BKN020 TEMPO 0600/0603 34012G22KT BECMG 0603/0605 36015G25KT BECMG 0615/0617 36010KT", "TAF LGHI 052300Z 0600/0609 01015KT 9999 FEW018 SCT020 TEMPO 0600/0606 01015G25KT", "TAF LGIO 052300Z 0600/0609 VRB03KT 9999 FEW020 PROB30 0600/0606 4000 BR SCT006", "TAF LGIR 052300Z 0600/0624 34018G28KT 9999 SCT020 SCT080 PROB40 TEMPO 0600/0606 5000 RA FEW018TCU BKN020 BKN080", "TAF LGKC 052300Z 0600/0609 33010KT 9999 FEW006 BKN014", "TAF LGKF 052300Z 0600/0609 35010KT 9999 FEW020 BECMG 0600/0602 VRB05KT", "TAF LGKL 052300Z 0600/0609 34008KT 9999 FEW020 SCT080", "TAF LGKO 052300Z 0600/0624 34016KT 9999 FEW012 SCT020", "TAF LGKP 052300Z 0600/0609 30020G30KT 9999 FEW012 SCT020 PROB30 TEMPO 0603/0609 4000 SHRA FEW018TCU BKN020 BKN050", "TAF LGKR 052300Z 0600/0624 VRB05KT 9999 FEW025 BECMG 0610/0612 33010KT BECMG 0616/0618 VRB05KT", "TAF LGKV 052300Z 0600/0624 07010KT 9999 FEW025 BECMG 0610/0612 FEW025 BKN080", "TAF LGLM 052300Z 0600/0609 04015G25KT 9999 SCT020", "TAF LGLR 052300Z 0600/0609 VRB03KT 9999 SCT020 SCT080", "TAF LGMK 052300Z 0600/0609 36018KT 8000 SCT006 BKN018 PROB40 TEMPO 0600/0603 5000 RA BKN008 FEW018TCU OVC020 TEMPO 0600/0606 36018G28KT", "TAF LGMT 052300Z 0600/0609 34015KT 9999 FEW018 SCT020 PROB30 TEMPO 0600/0606 5000 RA FEW015 FEW018TCU BKN020 TEMPO 0600/0606 34015G25KT", "TAF LGPZ 052300Z 0600/0624 VRB05KT 9999 FEW020 SCT035 BECMG 0609/0611 27012KT BECMG 0616/0618 26010KT", "TAF LGRP 052300Z 0600/0624 29012KT 9999 FEW018 SCT025 PROB40 TEMPO 0600/0615 5000 RA SCT015 FEW018TCU BKN020", "TAF LGRX 052300Z 0600/0609 04008KT 9999 SCT020", "TAF LGSA 052300Z 0600/0624 34015G25KT 9999 SCT010 BKN025 PROB40 TEMPO 0600/0609 5000 RA SCT008 FEW018TCU BKN020 BKN080 BECMG 0610/0612 32010KT", "TAF LGSK 052300Z 0600/0609 34012KT 9000 FEW010 SCT025 TEMPO 0600/0606 SCT018 BKN060", "TAF LGSM 052300Z 0600/0609 01012KT 9999 FEW018 SCT025 PROB30 TEMPO 0600/0604 5000 RA FEW018TCU BKN025", "TAF LGSR 052300Z 0600/0624 35020G30KT 9999 FEW015 SCT020", "TAF LGST 052300Z 0600/0609 31015KT 9999 SCT016 SCT020 BKN080 PROB40 TEMPO 0600/0609 5000 RA FEW018TCU BKN020 BKN070 TEMPO 0600/0609 33018G28KT", "TAF LGSY 052300Z 0600/0609 36015G25KT 9999 FEW010 SCT025", "TAF LGTG 052300Z 0600/0609 36010KT 9999 FEW012 BKN020 BKN070 BECMG 0603/0605 SCT020 SCT070", "TAF LGTL 052300Z 0600/0609 36012KT 9999 FEW010 BKN025 BKN080 PROB40 TEMPO 0600/0609 5000 RA PROB30 TEMPO 0600/0607 3000 SHRA FEW018TCU BKN020 OVC080 BECMG 0604/0606 36015G25KT", "TAF LGTS 052300Z 0600/0624 VRB03KT 9999 FEW025 PROB30 0603/0607 6000 SCT006", "TAF LGZA 052300Z 0600/0609 VRB05KT 9999 FEW020", "TAF LHBP 052315Z 0600/0624 VRB03KT CAVOK TEMPO 0600/0606 09005KT BECMG 0606/0609 15007KT SCT040 BECMG 0610/0613 21007KT CAVOK TEMPO 0612/0624 34009KT 7000 SHRA SCT045CB BKN090 PROB40 TEMPO 0613/0619 VRB12G25KT TSRA BKN040CB BECMG 0614/0617 01005KT TEMPO 0617/0624 VRB03KT", "TAF LHDC 052315Z 0600/0609 VRB03KT CAVOK TEMPO 0600/0606 06006KT", "TAF LHKE 052015Z 0521/0606 VRB03KT CAVOK", "TAF LHPA 052315Z 0600/0624 VRB03KT CAVOK TEMPO 0600/0609 15006KT BECMG 0607/0610 9999 SCT045 BKN080 TEMPO 0609/0624 36006KT -SHRA SCT050TCU BKN080 BECMG 0612/0615 CAVOK PROB30 TEMPO 0613/0624 VRB15G25KT 5000 SHRA TSRA SCT030CB BKN040TCU BKN080", "TAF LHPR 051715Z 0518/0603 07005KT CAVOK BECMG 0518/0520 VRB01KT", "TAF LHSN 052015Z 0521/0606 08004KT CAVOK TEMPO 0521/0524 VRB02KT", "TAF LIBA 052300Z 0600/0609 28007KT 9999 FEW040", "TAF LIBC 051100Z 0512/0612 02013KT CAVOK TEMPO 0512/0514 02015G25KT BECMG 0516/0518 VRB05KT BECMG 0610/0612 16010KT", "TAF LIBD 052300Z 0600/0624 23006KT CAVOK BECMG 0609/0611 03010KT BECMG 0616/0618 22005KT", "TAF LIBF 051700Z 0518/0618 33008KT 9999 FEW040", "TAF LIBP 052300Z 0600/0624 22005KT CAVOK BECMG 0609/0611 07010KT BECMG 0616/0618 VRB05KT", "TAF LIBR 052300Z 0600/0624 33011KT CAVOK BECMG 0617/0619 VRB05KT", "TAF LIBV 052300Z 0600/0609 36005KT CAVOK", "TAF LICA 052300Z 0600/0624 VRB05KT 9999 SCT020 BECMG 0610/0612 26014KT BECMG 0618/0620 VRB05KT", "TAF LICB 051700Z 0518/0618 VRB05KT CAVOK BECMG 0608/0610 25010KT", "TAF LICC 052300Z 0600/0624 VRB05KT 9999 FEW020 BECMG 0609/0611 09012KT BECMG 0618/0620 VRB05KT", "TAF LICD 052300Z 0600/0624 VRB05KT 9999 SCT016 BECMG 0609/0611 19010KT", "TAF LICJ 052300Z 0600/0624 VRB05KT CAVOK BECMG 0608/0610 03014KT BECMG 0618/0620 VRB05KT", "TAF LICR 052300Z 0600/0624 35013KT 9999 SCT035", "TAF LICT 052300Z 0600/0609 08003KT CAVOK", "TAF LICZ 052300Z 0600/0624 29005KT CAVOK BECMG 0611/0613 10010KT", "TAF LIEA 052300Z 0600/0624 VRB05KT CAVOK TEMPO 0602/0605 2000 MIFG BECMG 0609/0611 27010KT BECMG 0613/0615 03012KT BECMG 0618/0620 VRB05KT", "TAF LIED 052300Z 0600/0609 VRB05KT CAVOK", "TAF LIEE 052300Z 0600/0624 VRB05KT CAVOK TEMPO 0602/0605 3000 BCFG BECMG 0609/0611 16012KT BECMG 0621/0623 VRB05KT", "TAF LIEO 052300Z 0600/0624 VRB05KT CAVOK BECMG 0609/0611 08010KT BECMG 0617/0619 VRB05KT", "TAF LIMC 052300Z 0600/0706 VRB05KT CAVOK", "TAF LIME 052300Z 0600/0624 VRB05KT 9999 SCT060", "TAF LIMF 052300Z 0600/0624 VRB05KT 9999 SCT050", "TAF LIMG 051100Z 0512/0612 07010KT CAVOK BECMG 0516/0518 VRB05KT", "TAF LIMJ 052300Z 0600/0624 17006KT 9999 FEW010 PROB30 TEMPO 0600/0606 0500 FG BKN002", "TAF LIML 052300Z 0600/0624 VRB05KT 9999 FEW060", "TAF LIMN 051700Z 0518/0603 VRB03KT CAVOK", "TAF LIMP 051700Z 0518/0618 VRB05KT 9999 FEW050", "TAF LIMZ 052300Z 0600/0624 VRB05KT 9999 BKN050", "TAF LIPA 051700Z 0518/0603 20005KT CAVOK", "TAF LIPB 051700Z 0518/0618 VRB05KT 9999 FEW060 TEMPO 0518/0524 SHRA BKN014 TEMPO 0610/0616 SHRA", "TAF LIPC 052300Z 0600/0609 VRB03KT CAVOK", "TAF LIPE 052300Z 0600/0624 VRB05KT CAVOK", "TAF LIPH 052300Z 0600/0624 VRB04KT CAVOK BECMG 0610/0612 17010KT BECMG 0616/0618 VRB05KT", "TAF LIPK 051700Z 0518/0618 VRB05KT CAVOK", "TAF LIPL 052300Z 0600/0609 VRB03KT CAVOK TEMPO 0602/0606 07005KT 9999 FEW030 SCT060", "TAF LIPO 052300Z 0600/0624 VRB05KT 9999 FEW060", "TAF LIPQ 052300Z 0600/0624 VRB05KT CAVOK PROB30 TEMPO 0602/0605 0600 FG OVC001 BECMG 0610/0612 22010KT BECMG 0616/0618 VRB05KT", "TAF LIPR 052300Z 0600/0624 VRB04KT CAVOK BECMG 0611/0613 09010KT BECMG 0616/0618 VRB05KT", "TAF LIPS 052300Z 0600/0609 VRB03KT CAVOK BECMG 0604/0606 20003KT 9999 FEW030 SCT070", "TAF LIPX 052300Z 0600/0624 VRB05KT 9999 FEW060", "TAF LIPY 052300Z 0600/0624 21005KT CAVOK PROB30 TEMPO 0601/0605 1200 BCFG OVC002 BECMG 0609/0611 04010KT BECMG 0616/0618 20005KT", "TAF LIPZ 052300Z 0600/0706 VRB05KT CAVOK BECMG 0610/0612 16010KT BECMG 0616/0618 VRB05KT", "TAF LIRA 052300Z 0600/0624 VRB05KT CAVOK BECMG 0609/0611 25010KT BECMG 0617/0619 VRB05KT", "TAF LIRE 052300Z 0600/0609 36003KT CAVOK", "TAF LIRF 052300Z 0600/0706 04006KT CAVOK TEMPO 0602/0605 4000 BR BECMG 0609/0611 26010KT BECMG 0618/0620 VRB05KT TEMPO 0702/0705 1500 BCFG", "TAF LIRM 052300Z 0600/0609 13005KT CAVOK TEMPO 0600/0606 3000 BR FEW015", "TAF LIRN 052300Z 0600/0624 VRB05KT 7000 NSC BECMG 0608/0610 23010KT BECMG 0618/0620 VRB05KT", "TAF LIRP 052300Z 0600/0624 VRB03KT CAVOK TEMPO 0603/0607 5000 BR NSC BECMG 0612/0614 27005KT", "TAF LIRQ 052300Z 0600/0624 VRB05KT 9999 FEW030", "TAF LIRS 052300Z 0600/0609 02003KT CAVOK", "TAF LIRZ 052300Z 0600/0624 VRB05KT 9999 SCT030 TEMPO 0601/0605 3000 BCFG", "TAF LJCE 052300Z 0600/0609 09003KT CAVOK", "TAF LJLJ 052300Z 0600/0700 28003KT 9999 FEW060 TEMPO 0610/0619 -SHRA SCT050TCU PROB30 TEMPO 0615/0618 32010KT 5000 TSRA SCT040CB", "TAF LJMB 052300Z 0600/0700 18005KT CAVOK TEMPO 0610/0619 -SHRA SCT050TCU PROB30 TEMPO 0612/0618 VRB10KT 5000 TSRA SCT040CB", "TAF LJPZ 052300Z 0600/0609 12005KT CAVOK", "TAF LKCV 052300Z 0600/0700 14008KT 9999 BKN030 TEMPO 0600/0618 30016KT 6000 SHRA BKN013TCU BKN025 PROB30 TEMPO 0600/0607 31015G25KT 4000 TSRA SCT010CB BKN020 BECMG 0606/0608 30010KT PROB30 TEMPO 0611/0615 32018G28KT 4000 TSRA SCT015CB BKN020", "TAF COR LKKB 052300Z 0600/0700 05004KT CAVOK BECMG 0600/0603 BKN040 TEMPO 0600/0616 7000 SHRA SCT010 BKN020 PROB30 TEMPO 0600/0604 25014KT 4000 TSRA BKN012CB OVC020 TEMPO 0609/0616 31016KT 4000 SHRA BKN015CB BECMG 0610/0612 30009KT BECMG 0618/0620 36005KT CAVOK", "TAF LKKV 052300Z 0600/0700 VRB02KT 9999 SCT027 TEMPO 0600/0617 27008KT 6000 SHRA BKN025TCU PROB30 TEMPO 0600/0603 3000 TSRA BKN007CB PROB30 TEMPO 0610/0616 3000 TSRA BKN020CB", "TAF LKMT 052300Z 0600/0700 VRB02KT CAVOK BECMG 0606/0608 20007KT 9999 BKN025 TEMPO 0608/0618 23015KT 6000 SHRA BKN014TCU PROB30 TEMPO 0608/0618 4000 TSRA SCT010CB BECMG 0618/0620 02005KT", "TAF LKNA 052300Z 0600/0700 13006KT CAVOK BECMG 0602/0604 BKN030 TEMPO 0603/0618 7000 SHRA BKN020 PROB30 TEMPO 0603/0609 4000 SHRA BKN014TCU BECMG 0606/0608 30008KT PROB30 TEMPO 0610/0618 33014G24KT 4000 TSRA SCT015CB BKN020 BECMG 0618/0620 CAVOK", "TAF LKPR 052300Z 0600/0706 10006KT CAVOK TEMPO 0600/0617 7000 -SHRA SCT025TCU BECMG 0600/0602 24006KT BECMG 0602/0604 30007KT PROB40 TEMPO 0602/0606 4000 SHRA BKN014TCU PROB30 TEMPO 0610/0616 35016KT 4000 TSRA BKN017CB BECMG 0618/0620 01003KT TEMPO 0700/0706 3500 BR NSC", "TAF LKTB 052300Z 0600/0700 07005KT CAVOK BECMG 0604/0606 19006KT 9999 BKN025 TEMPO 0606/0618 6000 SHRA BKN020TCU PROB30 TEMPO 0606/0609 4000 TSRA BKN007 SCT010CB PROB30 TEMPO 0610/0618 4000 TSRA SCT018CB", "TAF LLBG 052304Z 0600/0624 15004KT CAVOK TEMPO 0603/0607 9999 SCT020 BECMG 0607/0609 27012KT 9999 FEW030 BECMG 0614/0616 32008KT CAVOK BECMG 0619/0621 VRB03KT TX25/0609Z TN17/0603Z", "TAF LLER 052303Z 0600/0624 36010KT CAVOK BECMG 0606/0608 02015KT BECMG 0614/0616 33012KT TX33/0612Z TN20/0603Z", "TAF LLHA 052305Z 0600/0624 15005KT CAVOK BECMG 0603/0605 24012KT 9999 SCT025 PROB30 TEMPO 0606/0612 -RA BKN025 BECMG 0613/0616 32008KT CAVOK BECMG 0618/0620 VRB03KT TX22/0609Z TN17/0603Z", "TAF LLHZ 052304Z 0600/0624 VRB03KT CAVOK TEMPO 0603/0607 9999 SCT020 BECMG 0607/0609 27010KT 9999 SCT030 BECMG 0614/0616 32008KT CAVOK BECMG 0618/0620 VRB03KT TX23/0609Z TN16/0603Z", "TAF LLIB 051114Z 0512/0612 25015KT 5000 DU NSC BECMG 0515/0517 VRB04KT CAVOK BECMG 0606/0608 18006KT TX36/0512Z TN15/0603Z", "TAF COR LMML 052300Z 0600/0624 26010KT 9999 FEW012 PROB30 0600/0605 9000 BKN005 BKN012 BECMG 0618/0621 18004KT PROB40 0620/0624 7000 BKN003", "TAF LOWG 052315Z 0600/0624 VRB04KT 9999 FEW050 TX19/0613Z TN11/0604Z TEMPO 0611/0617 SHRA FEW050CB BKN060", "TAF LOWI 052315Z 0600/0624 VRB03KT 9999 SCT080 BKN120 TX22/0613Z TN10/0606Z TEMPO 0600/0620 VRB12KT SHRA SCT050TCU BKN060", "TAF LOWK 052315Z 0600/0624 VRB04KT 9999 FEW050 SCT070 TX21/0612Z TN12/0604Z TEMPO 0611/0618 SHRA FEW050CB BKN060 PROB30 TEMPO 0613/0616 TSRA", "TAF LOWL 052315Z 0600/0624 27005KT CAVOK TX19/0614Z TN11/0624Z TEMPO 0600/0611 27015G25KT SHRA FEW040CB BKN050 PROB30 TEMPO 0600/0603 TSRA", "TAF LOWS 052315Z 0600/0624 15005KT 9999 FEW040 BKN060 TX18/0613Z TN12/0624Z TEMPO 0600/0602 29020G30KT 4500 TSRAGS +SHRA FEW012 SCT025CB BKN030 BECMG 0608/0610 34008KT TEMPO 0608/0614 -SHRA PROB30 0614/0617 -TSRA FEW030 FEW030CB SCT050 BECMG 0618/0620 15004KT", "TAF LOWW 052315Z 0600/0706 15005KT CAVOK TX19/0612Z TN12/0703Z TEMPO 0604/0617 SHRA FEW050CB PROB40 TEMPO 0611/0615 25015G25KT TSRA SCT050CB FM061800 27004KT 9999 SCT050 TEMPO 0701/0703 2000 BCFG PROB30 TEMPO 0703/0706 1200 BCFG BKN004", "TAF LPAZ 052300Z 0600/0706 27015KT 8000 SCT005 SCT010 TEMPO 0600/0610 3000 -RADZ BR SCT002 BKN004 PROB30 TEMPO 0600/0607 0400 DZ FG VV001 BECMG 0610/0612 24013KT 9999 SCT012", "TAF LPBJ 051700Z 0518/0618 31010KT CAVOK BECMG 0522/0524 34005KT PROB30 TEMPO 0608/0612 7000 -RA BKN020 BECMG 0613/0615 34010KT", "TAF LPFR 052300Z 0600/0624 32012KT CAVOK BECMG 0601/0604 30005KT BECMG 0610/0612 24015KT 9999 SCT020 BECMG 0612/0614 25018KT PROB30 TEMPO 0614/0617 25020G32KT BECMG 0617/0619 30013KT CAVOK", "TAF LPLA 052300Z 0600/0624 28010KT 9999 FEW015 BKN025 BECMG 0600/0602 VRB05KT PROB40 TEMPO 0600/0612 3000 -DZ BR SCT005 BKN007 BECMG 0608/0610 22015KT TEMPO 0610/0624 22018G28KT BECMG 0618/0620 SCT010 BKN014", "TAF LPMA 052300Z 0600/0624 VRB05KT 9999 SCT015 PROB30 TEMPO 0600/0608 6000 -RA SCT008 BKN013 BECMG 0602/0605 36010KT BECMG 0608/0611 01015KT FEW015", "TAF LPMR 052300Z 0600/0624 18005KT 9999 FEW025 BECMG 0601/0603 SCT012 BKN020 TEMPO 0604/0611 4000 -RADZ BR SCT006 BKN008 BECMG 0606/0608 30010KT BECMG 0610/0612 SCT020 BECMG 0618/0620 34005KT SCT012", "TAF LPMT 052300Z 0600/0624 31005KT CAVOK BECMG 0603/0605 31010KT SCT015 BKN020 TEMPO 0608/0610 5000 -RA BKN010 BECMG 0610/0612 SCT025", "TAF LPOV 051702Z 0518/0618 30008KT 9999 FEW025 BECMG 0600/0602 SCT010 BKN015 TEMPO 0603/0610 3000 -RADZ BR SCT004 BKN006 BECMG 0610/0612 27008KT SCT020", "TAF LPPD 052300Z 0600/0624 27015KT 8000 SCT005 SCT010 TEMPO 0600/0612 3000 -RADZ BR SCT002 BKN004 PROB30 TEMPO 0600/0608 0200 DZ FG VV001 BECMG 0609/0612 22012KT 9999 SCT012", "TAF LPPR 052300Z 0600/0624 17005KT 9999 BKN035 BECMG 0600/0602 15008KT SCT006 BKN012 TEMPO 0602/0610 3000 -RA BR BKN002 PROB30 TEMPO 0602/0610 2000 +TSRA FEW020CB BECMG 0610/0612 26010KT SCT018 BECMG 0621/0624 36005KT SCT008", "TAF LPPS 052300Z 0600/0706 32012KT 9999 SCT012 PROB30 TEMPO 0600/0608 5000 SHRA SCT006 BKN012 FEW016TCU BECMG 0608/0610 SCT015 BECMG 0617/0619 36012KT", "TAF LPPT 052300Z 0600/0706 28005KT 9999 FEW015 BECMG 0601/0603 SCT008 BKN015 TEMPO 0603/0609 5000 -RA BR SCT004 BKN008 FEW025CB BECMG 0609/0612 29010KT SCT030 BECMG 0622/0624 34005KT SCT012", "TAF LQBK 052300Z 0600/0624 07005KT CAVOK TX27/0614Z TN08/0604Z PROB30 TEMPO 0604/0606 1200 BCFG", "TAF LQMO 052300Z 0600/0624 VRB02KT CAVOK TX28/0614Z TN11/0604Z TEMPO 0610/0616 22010KT", "TAF LQSA 052300Z 0600/0624 VRB02KT CAVOK TX26/0613Z TN08/0604Z PROB40 0603/0607 2000 BR", "TAF LQTZ 052300Z 0600/0624 09006KT CAVOK TX25/0614Z TN06/0604Z TEMPO 0600/0608 3000 BR PROB30 TEMPO 0602/0606 0200 FG BKN001", "TAF LRAR 052300Z 0600/0609 VRB04KT 5000 BR NSC PROB30 TEMPO 0600/0604 3000 BR BECMG 0604/0606 CAVOK", "TAF LRBC 052300Z 0600/0609 35008KT CAVOK", "TAF LRBS 052300Z 0600/0700 VRB04KT CAVOK BECMG 0606/0608 05010KT BECMG 0622/0700 VRB04KT", "TAF LRCK 052300Z 0600/0700 VRB04KT CAVOK BECMG 0602/0604 06012KT TEMPO 0608/0612 06015G25KT", "TAF LRCL 052300Z 0600/0609 VRB04KT CAVOK", "TAF LRCV 052300Z 0600/0609 VRB04KT CAVOK", "TAF LRIA 052300Z 0600/0609 03006KT CAVOK", "TAF LROD 052300Z 0600/0609 VRB04KT CAVOK PROB40 TEMPO 0600/0605 3000 BR BKN005", "TAF LROP 052300Z 0600/0700 VRB04KT CAVOK BECMG 0606/0608 05010KT BECMG 0622/0700 VRB04KT", "TAF LRSB 052300Z 0600/0700 VRB04KT CAVOK PROB30 TEMPO 0601/0605 5000 BR BECMG 0607/0609 09010KT BECMG 0615/0617 VRB04KT", "TAF LRSV 052300Z 0600/0609 02007KT CAVOK", "TAF LRTM 052300Z 0600/0609 VRB03KT CAVOK TEMPO 0601/0605 3000 BR", "TAF LRTR 052300Z 0600/0700 VRB04KT 5000 BR NSC TEMPO 0600/0604 1500 BR BKN005 BECMG 0604/0606 CAVOK PROB40 TEMPO 0614/0617 17010KT FEW040CB", "TAF LSGG 052325Z 0600/0706 23005KT 9999 FEW050 SCT090 TX25/0615Z TN12/0605Z TN12/0705Z PROB30 TEMPO 0612/0616 SHRA FEW050TCU PROB40 TEMPO 0619/0624 SHRA SCT050TCU", "TAF LSZH 052325Z 0600/0706 VRB02KT 9999 FEW045 TX22/0614Z TN11/0605Z TN10/0705Z PROB30 TEMPO 0600/0604 SHRA SCT050TCU PROB40 TEMPO 0612/0620 FEW050TCU PROB30 TEMPO 0612/0616 35008KT PROB30 TEMPO 0702/0706 SHRA FEW060TCU", "TAF LSZL 051725Z 0518/0603 VRB02KT 9999 FEW100", "TAF LTAB 052240Z 0600/0609 07012KT 9999 SCT040 BKN100 TEMPO 0601/0603 -SHRA BKN030 BKN090", "TAF LTAC 052240Z 0600/0624 06008KT 9999 SCT040 BKN100 TEMPO 0603/0607 -SHRA BKN030 BKN090 TEMPO 0611/0615 24015G25KT -TSRA FEW025CB BKN030 BKN080 TEMPO 0618/0622 -SHRA BKN030 BKN080", "TAF LTAD 052240Z 0600/0609 06012KT 9999 SCT040 BKN100 TEMPO 0600/0602 -SHRA BECMG 0602/0605 CAVOK BECMG 0606/0609 15010KT SCT040", "TAF LTAE 052240Z 0600/0609 02009KT CAVOK BECMG 0602/0604 SCT040 SCT100 TEMPO 0604/0607 -SHRA BKN033 BKN090", "TAF LTAF 052240Z 0600/0624 04008KT 9999 SCT035 BKN100 BECMG 0607/0609 20012KT PROB40 TEMPO 0608/0612 -TSRA SCT020CB BKN030 TEMPO 0612/0616 -TSRA SCT020CB BKN030 BECMG 0615/0617 VRB02KT", "TAF LTAG 052240Z 0600/0624 VRB02KT 9999 SCT035 BKN100 BECMG 0607/0609 20012KT PROB40 TEMPO 0608/0612 -TSRA SCT020CB BKN030 TEMPO 0612/0616 -TSRA SCT020CB BKN030 BECMG 0615/0617 VRB02KT", "TAF LTAI 052240Z 0600/0624 08007KT 9999 -TSRA FEW020CB BKN030 BECMG 0600/0603 36010KT 4000 TSRA SCT015CB BKN025 TEMPO 0603/0607 VRB20G35KT 1000 +TSGRRA BKN012CB BECMG 0608/0611 16015KT 9999 NSW FEW020CB BKN030 BECMG 0617/0621 36006KT", "TAF LTAJ 052240Z 0600/0624 09009KT 9999 FEW040 BKN100 TEMPO 0600/0604 -SHRA FEW020CB SCT035 BKN080 TEMPO 0604/0608 -SHRA FEW020CB SCT030 BKN080 BECMG 0609/0613 25013KT PROB30 TEMPO 0610/0614 -TSRA FEW025CB BKN035 BECMG 0614/0617 CAVOK BECMG 0620/0623 VRB02KT", "TAF LTAL 051640Z 0518/0603 03012KT 8000 SCT030 TEMPO 0518/0522 -SHRA FEW018CB BKN028 BECMG 0522/0601 VRB02KT", "TAF LTAN 052240Z 0600/0609 VRB02KT CAVOK BECMG 0606/0608 16013KT SCT040 SCT100", "TAF LTAO 052240Z 0600/0609 VRB02KT 9999 FEW035 SCT100 TEMPO 0600/0604 02012KT -SHRA BKN030 BKN080", "TAF LTAP 052240Z 0600/0624 03008KT CAVOK BECMG 0603/0606 SCT040 BECMG 0606/0609 03018KT -SHRA FEW030CB BKN035 TEMPO 0611/0615 -TSRA", "TAF LTAR 052240Z 0600/0609 16015KT 9999 -SHRA SCT030 BKN100 TEMPO 0606/0609 15020G35KT -TSRA FEW020CB BKN030", "TAF LTAT 052240Z 0600/0624 VRB02KT 9999 SCT035 BKN100 TEMPO 0602/0605 -SHRA BKN030 BKN080 TEMPO 0612/0615 04012KT -TSRA FEW025CB BKN030", "TAF LTAU 052240Z 0600/0624 13018G38KT 9999 FEW040 BKN100 TEMPO 0600/0604 -SHRA BKN030 BKN080 BECMG 0614/0617 VRB02KT", "TAF LTAY 052240Z 0600/0624 27006KT 2000 BR BKN003 BECMG 0600/0602 1000 BCFG TEMPO 0602/0606 0500 FG VV002 BECMG 0606/0608 9999 NSW SCT035 TEMPO 0612/0616 -TSRA FEW025CB BKN030 BECMG 0621/0624 3200 BR", "TAF LTAZ 052240Z 0600/0624 12018G35KT 9999 FEW040 BKN100 PROB30 TEMPO 0611/0615 -TSRA FEW025CB BKN030 TEMPO 0615/0619 -TSRA FEW025CB BKN030 TEMPO 0619/0623 -TSRA FEW025CB BKN030", "TAF LTBA 052240Z 0600/0624 03015KT 9999 BKN012 BKN025 BECMG 0601/0604 02018G28KT -SHRA PROB30 TEMPO 0604/0608 4000 SHRA FEW017CB BKN022", "TAF LTBD 052240Z 0600/0609 VRB02KT 9999 SCT030 BKN100 PROB30 TEMPO 0603/0606 4000 BR TEMPO 0606/0609 09012KT", "TAF LTBF 052240Z 0600/0609 01012KT 9999 SCT015 SCT035 BKN100 TEMPO 0600/0603 -SHRA", "TAF LTBG 052240Z 0600/0609 04014KT 9999 FEW015 BKN030 BKN100 TEMPO 0600/0603 -SHRA TEMPO 0603/0606 -SHRA", "TAF LTBH 052240Z 0600/0609 08014KT 9999 BKN030 BKN100 TEMPO 0600/0604 -SHRA", "TAF LTBI 052240Z 0600/0609 26008KT 9999 SCT040 TEMPO 0600/0602 BKN030 TEMPO 0602/0605 1200 BCFG", "TAF LTBJ 052240Z 0600/0624 35009KT 9999 SCT030 BKN100 TEMPO 0600/0603 -SHRA PROB40 TEMPO 0603/0607 4000 -SHRA BR BECMG 0608/0612 36017G27KT BECMG 0615/0618 CAVOK BECMG 0618/0621 VRB02KT", "TAF LTBL 052240Z 0600/0609 36007KT 9999 SCT035 BKN100", "TAF LTBQ 052240Z 0600/0609 03007KT 6000 SCT010 BKN020 BKN080 TEMPO 0600/0603 3000 TSRA BR FEW017CB BKN020 BKN080 PROB30 TEMPO 0603/0606 3000 -TSRA BR FEW017CB BKN020 BKN080 PROB30 TEMPO 0603/0606 3000 -TSRA BR FEW017CB BKN020 BKN080", "TAF LTBR 052240Z 0600/0624 VRB02KT 6000 SCT012 BKN025 BKN080 BECMG 0600/0602 3500 BR TEMPO 0600/0603 -SHRA PROB40 TEMPO 0603/0606 0400 FG VV002 BECMG 0606/0610 36012KT 9999 NSW SCT035 BKN100 PROB40 TEMPO 0611/0615 36015G25KT BECMG 0615/0618 VRB02KT", "TAF LTBS 052240Z 0600/0624 04009KT 9999 SCT025 BKN090 BECMG 0606/0608 18012KT -SHRA PROB30 TEMPO 0612/0616 -TSRA FEW020CB BKN030", "TAF LTBT 052240Z 0600/0609 36007KT 9999 SCT035 BKN100", "TAF LTBU 052240Z 0600/0624 03009KT 9999 -SHRA BKN025 BKN080 BECMG 0602/0605 02018G28KT TEMPO 0605/0609 4000 SHRA FEW017CB BKN022", "TAF LTBY 052240Z 0600/0609 26008KT 9999 SCT040 TEMPO 0600/0602 BKN030 TEMPO 0602/0605 1200 BCFG", "TAF LTBZ 052240Z 0600/0609 33008KT 9999 SCT040 TEMPO 0602/0605 1200 BCFG", "TAF LTCA 052240Z 0600/0609 06007KT 9999 FEW035 SCT100 TEMPO 0602/0605 -SHRA BKN030 BKN080", "TAF LTCB 052240Z 0600/0609 VRB02KT 8000 SCT009 BKN090 PROB30 TEMPO 0603/0606 4000 BR", "TAF LTCC 052240Z 0600/0624 VRB02KT 9999 FEW040 BKN100 PROB30 TEMPO 0603/0606 -SHRA BKN035 BKN090 BECMG 0608/0610 12012KT BECMG 0615/0617 19012KT TEMPO 0617/0620 VRB15G30KT BECMG 0620/0622 30006KT CAVOK", "TAF LTCD 052240Z 0600/0609 VRB02KT CAVOK BECMG 0600/0603 SCT040 BKN100 BECMG 0604/0607 09013KT -SHRA FEW030CB SCT040 BKN100 TEMPO 0607/0609 -TSRA", "TAF LTCE 052240Z 0600/0624 VRB02KT CAVOK BECMG 0603/0606 FEW040 SCT080 TEMPO 0612/0616 25012KT -SHRA FEW025CB BKN035 BECMG 0616/0618 BKN035 BKN070 TEMPO 0618/0621 -SHRA", "TAF LTCF 052240Z 0600/0624 VRB02KT CAVOK TEMPO 0609/0613 23016G30KT BECMG 0613/0616 FEW040 SCT080", "TAF LTCG 052240Z 0600/0624 VRB02KT 8000 SCT008 TEMPO 0600/0603 4500 BR BKN006 PROB40 0603/0607 1200 BCFG BKN002 TEMPO 0614/0618 26012KT -SHRA SCT006 FEW020CB BKN028", "TAF LTCI 052240Z 0600/0609 08006KT 9999 FEW040 SCT180 BECMG 0605/0607 28010KT", "TAF LTCJ 052240Z 0600/0624 VRB02KT CAVOK BECMG 0601/0603 FEW040 BKN100 BECMG 0607/0609 10012G22KT CAVOK BECMG 0611/0613 FEW040 BKN100", "TAF LTCN 052240Z 0600/0609 08008KT 9999 SCT035 BKN100 TEMPO 0600/0603 VRB15G25KT -TSRA SCT020CB BKN030 TEMPO 0606/0609 -TSRA SCT020CB BKN030", "TAF LTCP 052240Z 0600/0609 VRB02KT 9999 FEW035 SCT100 TEMPO 0600/0604 -SHRA BKN030 BKN080 BECMG 0606/0608 06012G22KT", "TAF LTCS 052240Z 0600/0624 05006KT 9999 SCT040 BKN100 TEMPO 0600/0604 -SHRA BKN035 BKN090 TEMPO 0609/0612 14015G25KT BECMG 0611/0613 28012KT TEMPO 0612/0615 28018G30KT TEMPO 0615/0619 28018G30KT BECMG 0619/0622 22009KT CAVOK", "TAF LTCT 052240Z 0600/0609 24006KT CAVOK BECMG 0606/0609 FEW100 SCT180", "TAF LTCV 052240Z 0600/0624 25007KT CAVOK TEMPO 0602/0605 FEW040 BKN100 BECMG 0608/0610 14012KT TEMPO 0616/0620 FEW040 BKN100", "TAF LTCW 052240Z 0600/0609 09008KT 9999 FEW040 SCT180 BECMG 0606/0608 20010KT", "TAF LTDA 052240Z 0600/0609 25015KT 9999 SCT030 BKN090 TEMPO 0605/0609 22025G35KT", "TAF LTFC 052240Z 0600/0624 VRB02KT 9999 SCT030 BKN090 BECMG 0602/0606 -SHRA FEW020CB BKN030 TEMPO 0606/0610 VRB15G25KT 4000 TSRA TEMPO 0610/0614 VRB15G25KT 4000 TSRA TEMPO 0616/0620 -TSRA", "TAF LTFD 052240Z 0600/0609 07018KT 9999 SCT035 BKN100", "TAF LTFE 052240Z 0600/0624 VRB02KT 9999 FEW035 BECMG 0608/0610 26012KT BECMG 0613/0615 VRB02KT TEMPO 0615/0618 -TSRA FEW020CB BKN030", "TAF LTFG 052240Z 0600/0609 11008KT 9999 FEW020CB BKN030 BECMG 0600/0604 -SHRA TEMPO 0604/0608 VRB15G25KT 4000 TSRA", "TAF AMD LTFH 060010Z 0600/0609 VRB02KT 3500 BR SCT006 SCT200 TEMPO 0600/0604 1200 BCFG BKN003", "TAF LTFJ 052240Z 0600/0624 03015KT 9999 SCT012 BKN030 TEMPO 0600/0604 -SHRA SCT015CB BKN025 TEMPO 0604/0607 -TSRA SCT015CB BKN025", "TAF LTFM 052240Z 0600/0706 03014KT 9999 -SHRA BKN009 BKN025 PROB30 TEMPO 0604/0608 03018G28KT 4000 SHRA FEW017CB BKN022 BECMG 0609/0612 SCT030 BKN090 BECMG 0620/0623 32009KT BKN008 BKN025", "TAF LTFO 052240Z 0600/0609 VRB02KT 8000 SCT008 TEMPO 0601/0603 4500 BR BKN008 PROB30 0603/0607 1400 BCFG BKN007", "TAF LUKK 052303Z 0600/0624 02008KT CAVOK", "TAF LWOH 052335Z 0600/0624 VRB03KT 9999 FEW050", "TAF LWSK 052335Z 0600/0624 VRB02KT CAVOK", "TAF LYBE 052300Z 0600/0624 05004KT 8000 NSC TX24/0613Z TN10/0604Z BECMG 0601/0602 3000 BR PROB40 TEMPO 0602/0605 0800 FG BECMG 0606/0607 9999 NSW TEMPO 0610/0616 12012KT", "TAF LYBT 052300Z 0600/0624 07004KT CAVOK TX25/0614Z TN08/0604Z BECMG 0601/0602 3000 BR PROB40 TEMPO 0602/0605 0600 FG BECMG 0605/0607 9999 NSW TEMPO 0610/0616 13010KT", "TAF LYKV 052300Z 0600/0624 VRB02KT 8000 NSC TX23/0614Z TN07/0604Z BECMG 0601/0602 3000 BR TEMPO 0602/0605 0500 FG BECMG 0605/0607 9999 NSW TEMPO 0610/0616 12010KT", "TAF LYNI 052300Z 0600/0624 04005KT CAVOK TX23/0613Z TN06/0604Z", "TAF LYPG 052300Z 0600/0624 36005KT CAVOK TX26/0613Z TN13/0604Z", "TAF LYTV 052300Z 0600/0624 VRB02KT CAVOK TX25/0613Z TN07/0604Z PROB30 TEMPO 0602/0605 3000 BR", "TAF LYVR 052300Z 0600/0624 04006KT CAVOK TX23/0613Z TN08/0602Z TEMPO 0601/0603 3000 BR BECMG 0604/0606 14012KT", "TAF LZIB 052315Z 0600/0700 VRB02KT CAVOK BECMG 0606/0608 20008KT 9999 BKN040 TEMPO 0608/0620 -SHRA FEW015 SCT025TCU BKN030 PROB40 TEMPO 0612/0617 VRB15G25KT 2000 TSRA FEW010 SCT020CB BKN030", "TAF LZKZ 052315Z 0600/0700 03005KT CAVOK BECMG 0607/0609 19009KT 9999 SCT035 TEMPO 0612/0617 21015G25KT PROB30 TEMPO 0618/0622 -SHRA FEW025TCU SCT030", "TAF LZMC 051930Z 0521/0606 11004KT CAVOK TEMPO 0601/0604 14006KT 9999 SCT045 BECMG 0603/0605 19010KT 9999 SCT035 BKN045 PROB30 TEMPO 0604/0606 7000 -SHRA SCT025TCU", "TAF LZPP 051715Z 0518/0603 VRB02KT CAVOK TEMPO 0600/0603 9999 SCT040", "TAF LZPW 051930Z 0521/0606 VRB04KT CAVOK", "TAF LZSL 051930Z 0521/0606 VRB03KT 9999 FEW060 TEMPO 0522/0601 SCT050", "TAF LZTT 052315Z 0600/0700 VRB02KT 9999 SCT045 BKN060 BECMG 0609/0611 24012KT TEMPO 0612/0621 -SHRA FEW010 SCT030TCU BKN045 PROB30 TEMPO 0615/0620 VRB15G30KT 2000 TSRA FEW005 SCT025CB BKN035", "TAF LZZI 052315Z 0600/0609 VRB02KT CAVOK TEMPO 0603/0609 9999 SCT040", "MBGT 052200Z 0600/0624 07012KT 9999 SCT018 FM 061200 09016KT 9000 SHRA SCT016 BKN050", "MBPV 052200Z 0600/0624 07012KT 9999 SCT018 FM 061200 09016KT 9000 SHRA SCT016 BKN050", "TAF MDBH 052200Z 0600/0700 13015KT 9999 FEW020CB FEW022 PROB30 0604/0808 7000 -TSRA FEW016CB SCT018 SCT070 BECMG 0610/0614 00000KT", "TAF MDCY 052200Z 0600/0700 06012KT 9999 FEW020 PROB40 0601/0607 8000 -RA BKN016 BKN070", "TAF MDJB 052200Z 0600/0700 18010KT 9999 SCT016 PROB30 0600/0606 8000 -SHRA BKN018", "TAF MDLR 052200Z 0600/0700 15010KT 9999 SCT020 PROB30 0600/0606 7000 -RA BKN018 BECMG 0600/0602 00000KT", "TAF MDPC 052200Z 0600/0700 14010KT 9999 FEW022 SCT300 PROB30 0600/0606 8000 SH SCT018", "TAF MDPP 052200Z 0600/0700 12012KT 9999 SCT020 PR0B30 0600/0606 7000 -RA SCT016 BKN070", "TAF MDSD 052200Z 0600/0700 06007KT 9999 SCT018 PROB30 0606/0612 8000 -RA SCT016 SCT070 TAF MDLR 052200Z 0600/0700 15010KT 9999 SCT020 PROB30 0600/0606 7000 -RA BKN018 BECMG 0600/0602 00000KT", "TAF MDST 052200Z 0600/0700 13008KT 9999 SCT018 SCT300 PROB30 0604/0610 8000 -SHRA FEW014CB SCT016 BKN070", "MGGT 052310Z 0600/0700 02008KT 8000 FEW016 TX29/0620Z TN16/0612Z TEMPO 0606/0612 5000 BR SCT014 BECMG 0614/0616 FEW018 BECMG 0618/0620 FEW025", "MGMM 052310Z 0600/0700 08006KT CAVOK TX39/0620Z TN23/0612Z BECMG 0614/0616 FEW018 BECMG 0619/0621 CAVOK", "MGPB 052310Z 0600/0700 06006KT 6000 FEW016 TX33/0620Z TN24/0612Z BECMG 0614/0616 FEW018 BECMG 0618/0620 FEW020 TEMPO 0620/0700 SCT020", "TAF MHLC 052308Z 0600/0624 VRB05KT 8000 SCT030 TX32/0619Z TN24/0612Z TEMPO 0610/0615 5000 FU BECMG 0618/0620 03012KT", "TAF MHLM 052308Z 0600/0624 VRB3KT 8000 SCT030 TX35/0621Z TN23/0612Z TEMPO 0610/0615 5000 FU BECMG 0618/0620 03010KT", "TAF MHPR 052300Z 0600/0624 08016KT 5000 FU FEW050 TX36/0621Z TN20/0611Z BECMG 0604/0606 04006KT 8000 BECMG 0615/0617 04018KT 5000 FU", "TAF MHRO 052308Z 0600/0624 08024KT 9999 FEW025 TX31/0621Z TN27/0612Z BECMG 0612/0614 08014KT", "TAF MHTG 052308Z 0600/0624 VRB03KT 9999 FEW032 TX31/0621Z TN18/0612Z TEMPO 0610/0615 5000 FU BECMG 0615/0617 03010KT", "TAF MKJP 052315Z 0600/0624 14010KT 9999 FEW022 BECMG 0605/0607 35007KT BECMG 0614/0616 14020KT SCT020", "TAF MKJS 052315Z 0600/0624 VRB03KT 9999 FEW022 BECMG 0614/0616 07018KT", "TAF MMAA 052337Z 0600/0700 27010KT 4SM HZ SCT015 SCT100 OVC300 TX31/0620Z TN25/0614Z FM061000 35010KT 4SM HZ SCT025 BECMG 0616/0618 24010KT", "TAF MMAN 051718Z 0518/0618 14010KT 5SM HZ SCT020 PROB40 0523/0603 5SM TSRA BKN020CB FM060300 13005KT 5SM HZ SCT015 BKN090 TEMPO 0610/0614 3SM BR OVC010 FM061400 13015KT P6SM BKN250", "TAF MMAS 051717Z 0518/0618 24010KT 6SM HZ SCT050 SCT100 FM052200 22012KT P6SM SCT050 BKN100 FM060700 33004KT P6SM SCT100 SCT200 FM061200 02005KT P6SM SCT050", "TAF MMBT 051712Z 0518/0618 16010KT 5SM HZ SCT020 BKN200 FM060300 00000KT 6SM HZ SCT120 SCT200 FM061200 26004KT 5SM HZ SCT020 BKN200", "TAF MMCB 051712Z 0518/0618 16005KT 5SM HZ SCT025 BKN240 FM060300 35005KT 6SM HZ SCT120 BKN240 FM061200 00000KT 5SM HZ SCT025 SCT240", "TAF MMCE 051727Z 0518/0618 08012KT 4SM HZ SCT020 SCT080 FM052100 02018KT 4SM HZ SCT300 FM060600 13012KT 4SM HZ SCT250 TEMPO 0610/0614 3SM BR HZ", "TAF MMCL 051658Z 0518/0618 33010KT P6SM BKN230 TEMPO 0521/0601 33015KT FM060500 34005KT P6SM BKN250 FM061700 29010KT P6SM BKN250", "TAF MMCM 051727Z 0518/0618 13014KT 6SM HZ SCT020 FM060300 12010KT 6SM HZ BKN020 FM061200 12012KT 6SM HZ SCT020 SCT250", "TAF MMCN 051723Z 0518/0618 24008KT P6SM SKC FM060000 26012KT P6SM SCT250 FM060600 27005KT P6SM SKC FM061200 00000KT P6SM SCT100 SCT250", "TAF MMCP 051727Z 0518/0618 25012KT 6SM HZ SCT300 TEMPO 0518/0522 34010G20KT P6SM SCT030 SCT300 FM060300 12015KT P6SM SCT300 TEMPO 0609/0613 4SM BR HZ SCT020 FM061500 14012KT 6SM HZ SCT300", "TAF MMCS 051718Z 0518/0618 22020KT P6SM BKN250 BECMG 0608/0609 25005KT FM061700 23010KT P6SM BKN250", "TAF MMCU 051718Z 0518/0618 22010KT P6SM BKN250 TEMPO 0522/0602 27010G20KT FM060600 23005KT P6SM BKN250 FM061700 24015KT P6SM BKN250", "TAF MMCV 051730Z 0518/0618 18010KT 4SM HZ SKC FM060300 11005KT 5SM HZ SCT015 SCT100 TEMPO 0610/0614 3SM BR BKN010 FM061400 15010KT 4SM HZ SCT010", "TAF MMCZ 052340Z 0600/0700 15010KT P6SM SCT015 SCT250 BECMG 0613/0614 14010KT BKN015 FM061500 13015KT P6SM SCT015", "TAF COR MMDO 051852Z 0518/0618 16007KT P6SM BKN040CB OVC110 TEMPO 0600/0604 26020KT FM060600 25008KT P6SM SCT120 OVC200 FM061200 17005KT P6SM SCT070 BKN200", "TAF MMEP 051717Z 0518/0618 34010KT P6SM SCT250 FM060000 33005KT P6SM SKC FM060600 00000KT P6SM SCT250 FM061200 04004KT P6SM SKC", "TAF MMGL 052339Z 0600/0700 28005KT 6SM HZ SKC TX33/0621Z TN14/0613Z BECMG 0603/0605 00000KT FM061800 30010KT 6SM HZ SKC", "TAF MMGM 051723Z 0518/0618 26012KT P6SM SKC TEMPO 0521/0601 29015KT FM060300 24005KT P6SM SCT200 FM061300 00000KT P6SM SKC", "TAF MMHO 051658Z 0518/0618 24010KT P6SM SKC FM060400 24005KT P6SM BKN250 FM061700 24010KT P6SM SKC", "TAF MMIA 051717Z 0518/0618 24010KT 6SM HZ SCT200 FM060500 24005KT 6SM HZ SCT100 FM060900 04005KT 5SM HZ SCT020 FM061500 04008KT 6SM HZ SKC", "TAF MMIO 051718Z 0518/0618 27015KT P6SM SCT030 BECMG 0603/0604 17005KT FM061700 04010KT P6SM BKN250", "TAF MMLM 051723Z 0518/0618 20014KT P6SM BKN220 FM060300 29008KT P6SM SCT100 BKN220 FM061300 32005KT P6SM SCT100 SCT220", "TAF MMLO 051717Z 0518/0618 23008KT P6SM SCT080 BKN220 TEMPO 0600/0604 BKN080 FM060700 00000KT P6SM SCT080 FM061300 00000KT P6SM SKC", "TAF MMLP 051658Z 0518/0618 36010KT P6SM BKN200 BECMG 0602/0603 34005KT FM061700 34010KT P6SM BKN200", "TAF MMLT 051723Z 0518/0618 06012KT P6SM SCT200 FM060300 04005KT P6SM SCT120 SCT200 FM061400 00000KT P6SM SCT120 BKN200", "TAF MMMA 051730Z 0518/0618 16012KT P6SM BKN015 BKN080 FM052200 16015KT 6SM HZ SCT012 SCT080 BKN200 FM060500 15008KT 5SM HZ SCT012 BKN200 FM061500 14015KT 6SM HZ BKN012CB", "TAF MMMD 052340Z 0600/0700 09012KT P6SM SKC TX38/0621Z TN24/0612Z BECMG 0609/0611 15010KT SCT015 FM061400 15012KT P6SM SKC BECMG 0618/0620 30010KT", "TAF MMML 051658Z 0518/0618 26010KT P6SM SKC TEMPO 0523/0603 33015G25KT FM060400 33010KT P6SM SKC BECMG 0607/0608 33005KT FM061700 28015KT P6SM SKC", "TAF MMMM 052339Z 0600/0700 20010KT 6SM HZ SCT030 BKN300 BECMG 0605/0607 00000KT FM061300 00000KT 5SM HZ SKC FM061800 27010KT 6SM HZ SKC", "TAF MMMT 051727Z 0518/0618 02010KT 4SM HZ SCT020 SCT120 SCT250 TEMPO 0521/0601 01015KT FM060600 35006KT P6SM SCT080 BKN250 TEMPO 0610/0614 2SM BR HZ FM061500 36005KT 4SM HZ SCT020 SCT250", "TAF MMMV 051718Z 0518/0618 33010KT P6SM SCT020 BKN100 BECMG 0521/0522 13010KT FM060400 13005KT 5SM HZ SCT020 BKN250 FM061700 34005KT P6SM BKN250", "TAF MMMX 052337Z 0600/0700 25010KT 6SM HZ SCT020 BKN080 TX27/0621Z TN12/0613Z TEMPO 0600/0604 6SM -TSRA BKN020CB FM060500 03005KT P6SM SCT020 BKN220 BECMG 0609/0611 4SM HZ FM061800 06010KT P6SM SCT020 BKN200 TEMPO 0620/0623 5SM TSRA BKN020", "TAF MMMY 052340Z 0600/0700 12010KT P6SM SCT020 SCT040 TX32/0621Z TN22/0613Z BECMG 0602/0604 BKN020CB FM060600 00000KT 5SM HZ SCT020 TEMPO 0608/0612 3SM BR BKN010 FM061900 15010KT 6SM HZ SCT020 BECMG 0621/0623 13015KT", "TAF MMMZ 052339Z 0600/0700 30010KT P6SM BKN100 TX32/0621Z TN18/0613Z BECMG 0604/0606 00000KT SCT080 BKN250 FM061700 30010KT P6SM SCT080 BKN250", "TAF MMNL 051730Z 0518/0618 16012KT 6SM HZ SCT015 SCT100 BKN220 TEMPO 0521/0524 14015G25KT 5SM -TSRA FM060300 14010KT 6SM HZ SCT100 FM061000 09005KT 5SM HZ SCT015 TEMPO 0610/0614 3SM BR FM061400 15008KT 5SM HZ SCT015 SCT200", "TAF MMOX 051712Z 0518/0618 33008KT 6SM HZ SCT030 OVC200 TEMPO 0522/0602 BKN030 FM060300 05004KT 4SM HZ SCT030 SCT120 BKN200 FM061200 36005KT 6SM HZ SCT030 BKN200", "TAF MMPA 051730Z 0518/0618 04012KT 4SM HZ SCT020CB SCT080 BKN250 FM060300 00000KT 5SM HZ SCT015 OVC250 TEMPO 0609/0613 2SM BR HZ BKN010 FM061300 35005KT 3SM BR HZ SCT020 OVC250 FM061600 36005KT 4SM HZ SCT020 OVC250", "TAF MMPB 051712Z 0518/0618 05010KT 6SM HZ SCT025 SCT220 TEMPO 0600/0604 BKN025 BKN220 FM060500 34005KT 6SM HZ SCT250 FM061200 03007KT 6SM HZ SCT025 SCT250", "TAF MMPG 051730Z 0518/0618 15008KT P6SM SCT200 FM060500 12005KT P6SM SCT010 SCT050 BKN200 TEMPO 0610/0614 3SM BR HZ BKN010 FM061500 14010KT 5SM HZ SCT020 BKN200", "TAF MMPN 051717Z 0518/0618 18008KT 6SM HZ SCT080 SCT220 FM060300 00000KT 6SM HZ BKN220 FM061200 36004KT 6SM HZ SCT080", "TAF MMPQ 051727Z 0518/0618 08010KT 5SM HZ SCT080 SCT250 FM060300 04005KT 5SM HZ SCT250 FM061200 00000KT 5SM HZ BKN250 FM061500 09010KT 6SM HZ BKN250", "TAF MMPR 052339Z 0600/0700 21010KT P6SM OVC230 TX28/0621Z TN19/0614Z BECMG 0606/0608 00000KT FM061500 23010KT P6SM SKC", "TAF MMPS 051712Z 0518/0618 23008KT P6SM SCT080 BKN240 FM060300 23005KT 6SM HZ SCT020 SCT080 OVC240 FM061200 24005KT 6SM HZ BKN240", "TAF COR MMQT 051948Z 0518/0618 25012KT 6SM HZ SCT030 SCT120 TEMPO 0600/0604 BKN020 FM060500 08005KT 5SM HZ SCT020 BKN250 FM061200 00000KT 6SM HZ SCT030 SCT250", "TAF MMRX 051730Z 0518/0618 15010KT 5SM HZ BKN015 FM060000 14010KT 4SM HZ SCT015 BKN200 FM060300 15012KT 5SM HZ BKN015 TEMPO 0610/0614 2SM BR FM061500 14008KT 4SM HZ BKN015", "TAF MMSD 051723Z 0518/0618 17012KT P6SM SCT120 BKN250 FM060300 14007KT P6SM BKN250 FM061200 25008KT P6SM SCT120 SCT250", "TAF MMSL 051723Z 0518/0618 24012KT P6SM SCT120 SCT240 FM060300 32008KT P6SM SCT120 BKN220 FM061200 35005KT P6SM P6SM SCT120 SCT220", "TAF MMSM 052337Z 0600/0700 36015KT P6SM BKN020CB BKN080 OVC220 TEMPO 0600/0604 02010G20KT 4SM TSRA FM060400 30005KT 5SM HZ SCT020 BKN080 BKN220 BECMG 0616/0618 31010KT 6SM HZ TEMPO 0620/0624 3SM TSRA", "TAF MMSP 052339Z 0600/0700 12010KT P6SM SCT020 BKN250 TX31/0621Z TN14/0614Z BECMG 0604/0606 00000KT TEMPO 0610/0614 3SM HZ FM061500 10010KT P6SM SCT030 BECMG 0619/0620 BKN030CB", "TAF MMTC 051718Z 0518/0618 27010KT P6SM SCT030 BKN200 TEMPO 0522/0602 5SM TSRA BKN020CB BECMG 0603/0604 23005KT FM061700 24010KT P6SM BKN200", "TAF MMTG 051707Z 0518/0618 10005KT 4SM FU HZ BECMG 0520/0521 33010KT TEMPO 0522/0602 3SM FU HZ FM060200 00000KT 3SM FU HZ SCT015 FM061700 33005KT 4SM HZ FU SCT250", "TAF MMTJ 052339Z 0600/0700 28010KT P6SM SCT020 SCT040 TX17/0620Z TN09/0613Z BECMG 0606/0608 4SM HZ SCT010 FM061200 35005KT 6SM HZ SCT030 BECMG 0618/0620 27010KT", "TAF MMTM 051628Z 0518/0618 13005KT 4SM HZ SCT015 BECMG 0520/0521 13015KT FM060400 03005KT 5SM HZ BKN015 TEMPO 0610/0614 3SM BR HZ FM061400 13015KT P6SM SCT015 BKN250", "TAF MMTO 052337Z 0600/0700 20010KT 5SM HZ SCT020CB BKN070 OVC200 TX24/0621Z TN09/0613Z TEMPO 0600/0604 4SM TSRA BKN020CB FM060400 03005KT 5SM HZ SCT020 SCT070 BECMG 0612/0614 4SM HZ FM061800 03012KT 6SM HZ BKN020CB TEMPO 0618/0622 3SM -TSRA", "TAF MMTP 052340Z 0600/0700 25010KT P6SM SCT030 SCT080 BKN180 BECMG 0602/0604 00000KT FM061200 35010KT P6SM SCT030 SCT080 BKN180 FM061500 27010KT P6SM BKN180", "TAF MMUN 052340Z 0600/0700 13010KT P6SM BKN015 TX30/0621Z TN26/0613Z BECMG 0608/0610 12005KT FM061500 15015KT P6SM SCT015", "TAF MMVA 051727Z 0518/0618 04010KT 5SM HZ SCT080 SCT200 FM060000 08012KT 5SM HZ SCT080 BKN200 FM060700 12007KT 5SM HZ BKN200 FM061200 00000KT 3SM HZ SCT020 BKN200", "TAF AMD MMVR 052114Z 0521/0618 01005KT 2SM HZ SCT015 SCT220 TX30/0521Z TN25/0612Z BECMG 0600/0602 1SM HZ BKN015 FM060400 35010KT 3SM HZ SCT015 BKN200 BECMG 0610/0612 1SM BR HZ SCT010 FM061500 03005KT 5SM HZ SCT020", "TAF MMZC 052339Z 0600/0700 27012KT P6SM BKN050 TX27/0621Z TN14/0613Z BECMG 0606/0608 00000KT FM062000 21010KT P6SM BKN050", "TAF MMZH 051712Z 0518/0618 26008KT 6SM HZ SCT120 BKN250 FM060000 24005KT 6SM HZ BKN250 FM060600 25005KT 6SM HZ SCT020 SCT250 FM061300 00000KT 6SM HZ SCT250", "TAF MMZO 051647Z 0518/0618 23010KT P6SM SKC BECMG 0604/0605 34005KT FM061700 24010KT P6SM SKC", "MNBL 052125Z 0600/0624 08010KT 9999 SCT018 TEMPO 0604/0613 09004KT BKN018 BECMG 0613/0615 07012KT", "MNMG 052125Z 0600/0624 11012KT 9999 FEW020 TEMPO 0606/0613 13008KT BECMG 0614/0616 09014G28KT SCT020", "MNPC 052125Z 0600/0624 07010KT 9999 SCT016 TEMPO 0604/0612 09006KT FEW020 BECMG 0612/0614 07012KT BKN017", "TAF MPDA 052300Z 0600/0612 20006KT 9999 FEW018 TEMPO 0602/0606 03004KT", "TAF MPMG 052300Z 0600/0612 33008KT 9999 FEW020", "TAF MPPA 051700Z 0518/0624 32008KT 9999 SCT0208 TEMPO 0519/0523 35012KT TEMPO 0604/0608 VRB02KT", "TAF MPSM 051700Z 0518/0624 33008KT 9999 FEW020 TEMPO 0518/0522 35016KT TEMPO 0603/0607 VRB02KT", "TAF MPTO 052300Z 0600/0706 29008KT 9999 SCT018 TEMPO 0607/0611 VRB02KT TEMPO 0616/0620 34012KT", "MRLB 052300Z 0600/0624 08014KT CAVOK TX37/0620Z TN24/0611Z TEMPO 0612/0622 09018G28KT ", "MRLM 052300Z 0600/0624 28005KT 9999 SCT025 TX31/0621Z TN23/0611Z TEMPO 0612/0615 FEW020TCU FM061600 06008KT 9999 FEW030 ", "MROC 052300Z 0600/0624 10013KT CAVOK TX32/0619Z TN21/0611Z TEMPO 0612/0620 09015G25KT ", "TAF MRPV 052308Z 0600/0624 09015KT 9999 FEW035 TX29/0619Z TN20/0611Z TEMPO 0611/0618 08018G28KT ", "TAF MSLP 052137Z 0600/0624 VRB04KT 5000 HZ FEW023 TX35/0618Z TN25/0610Z FM060500 04005KT 8000 FEW020 FM061200 VRB03KT 5000 NSC FM061800 18010KT 5000 HZ NSC", "TAF MSSS 052125Z 0600/0624 VRB02KT 5000 HZ FEW020 TX34/0620Z TN23/0612Z FM060500 34004KT 8000 FEW023 BECMG 0611/0614 2000 BR NSC FM061400 12005KT 5000 HZ FEW017 FM061700 13008KT 8000 NSC", "TAF MTCH 051030Z 0512/0612 VRB02KT 9000 FEW022 BECMG 0514/0518 02012KT PROB30 TEMPO 0602/0606 4000 SHRA SCT022CB SCT040 BECMG 0608/0612 VRB02KT 9000 NSC FEW018", "TAF MTPP 051030Z 0512/0612 12005KT 9000 FEW018 BECMG 0519/0523 30010KT PROB40 TEMPO 0600/0604 4000 TSRA SCT014CB BKN040 BECMG 0606/0610 VRB02KT 8000 NSW FEW020", "MUCC 052300Z 0600/0624 07012KT 9000 SCT020 BECMG 0603/0605 10005KT BECMG 0615/0618 05012KT", "MUCF 051700Z 0518/0606 21008KT 9000 SCT020 TEMPO 0520/0524 VRB10KT 3000 TSRA RA FEW020CB BKN020 BECMG 0602/0604 VRB03KT", "MUCL 051700Z 0518/0606 14008KT 9000 SCT020 BECMG 0601/0603 VRB03KT FEW030", "MUCM 052300Z 0600/0624 04008KT 9000 SCT020 BECMG 0603/0604 VRB03KT FEW030 BECMG 0613/0615 05011KT SCT020", "MUCU 052300Z 0600/0624 VRB03KT 9000 SCT020 BECMG 0601/0602 01005KT FEW030 BECMG 0614/0616 14008KT SCT020 TEMPO 0619/0624 VRB10KT 3000 TSRA SCT020CB BKN020", "TAF MUGM 0523/0623 09010KT 9999 VCSH FEW030CB FEW080 BKN200 QNH2994INS BECMG 0523/0601 08006KT 9999 NSW FEW020 SCT200 QNH2995INS BECMG 0601/0603 33006KT 9999 FEW020 QNH2993INS FM061500 11011KT 9999 FEW030 QNH2996INS FM061800 12015G20KT 9999 VCSH FEW030CB FEW080 BKN250 QNH2993INS TX32/0616Z TN25/0611Z FN20068", "MUHA 052300Z 0600/0624 05011KT 9000 SCT040 BECMG 0601/0603 VRB03KT BECMG 0617/0619 04014KT", "MUHG 052300Z 0600/0624 07010KT 9000 SCT020 BECMG 0601/0603 07005KT FEW030 BECMG 0615/0618 05010KT SCT020 TEMPO 0619/0624 4000 SHRA RA FEW020CB BKN020", "MUSC 052300Z 0600/0624 06008KT 9000 SCT020 BECMG 0601/0604 VRB03KT FEW020 BECMG 0613/0615 05011KT SCT020", "MUVR 052300Z 0600/0624 05010KT 9000 SCT020 BECMG 0602/0604 08005KT FEW020 BECMG 0614/0616 05012KT SCT020", "TAF MWCB 051700Z 0518/0618 09008KT 9999 SCT018", "TAF MWCR 052300Z 0600/0624 06007KT 9999 SCT018", "MYGF 052200Z 0600/0624 04012KT 9999 FEW030 BKN250 FM 061500 09016KT 9999 SCT020 PROB30 0618/0620 9000 SHRA", "MYNN 052200Z 0600/0624 04008KT 9999 FEW020 BKN250 FM 061200 08010KT 9999 SCT020 PROB30 0616/0618 9000 SHRA", "TAF MZBZ 052200Z 0600/0624 09008KT 9999 SCT022", "TAF NCRG 052314Z 0600/0624 07015KT 9999 SCT015 BKN030 PROB40 TEMPO 0600/0606 07020G30KT PROB40 TEMPO 0600/0612 5000 TSRA BKN015 FEW018CB", "TAF NFFN 052311Z 0600/0624 31010KT 9999 SCT030 PROB40 TEMPO 0601/0608 5000 +TSRA BKN015 FEW018CB BECMG 0604/0606 13005KT PROB40 TEMPO 0608/0618 5000 SHRA BKN016", "TAF NFNA 052323Z 0600/0624 08008KT 9999 SCT020 BKN045 PROB40 TEMPO 0601/0612 3000 +TSRA BKN015 FEW016CB PROB40 TEMPO 0612/0618 5000 TSRA FEW018CB", "TAF NFTF 052316Z 0600/0624 07012KT 9999 SCT015 PROB40 TEMPO 0600/0612 5000 SHRA BKN016", "TAF NFTV 052329Z 0600/0624 07008KT 9999 -RA FEW008 BKN016 PROB40 TEMPO 0600/0612 5000 TSRA BKN015 FEW018CB", "TAF NGFU 052326Z 0600/0624 09008KT 9999 FEW020", "TAF NGTA 052324Z 0600/0624 09008KT 9999 FEW020", "TAF NIUE 052325Z 0600/0624 09010KT 9999 SCT020 PROB40 TEMPO 0600/0618 5000 TSRA BKN016 FEW018CB", "TAF NLWF 052300Z 0600/0624 07005KT 9999 FEW025 TEMPO 0609/0624 SHRA FEW020TCU", "TAF NLWW 052300Z 0600/0624 09008KT 9999 FEW020 SCT040 TEMPO 0606/0621 SHRA BKN014 FEW018TCU", "TAF NSFA 052320Z 0600/0624 07005KT 9999 SCT020 PROB40 TEMPO 0600/0606 3000 TSRA BKN015 FEW018CB", "NSTU 052321Z 0600/0624 08010KT P6SM VCSH SCT020 BKN040 BKN100", "TAF NTAA 052300Z 0600/0706 VRB05KT 9999 FEW023 SCT043 BKN050 TEMPO 0600/0603 22010KT ", "TAF NVSC 052300Z 0600/0624 13008KT 9999 SCT020 PROB40 INTER 0600/0606 9000 SHRA BKN018", "TAF NVSG 052300Z 0600/0624 10005KT 9999 SCT020 PROB40 INTER 0604/0606 9000 SHRA SCT012 BKN018", "TAF NVSL 052300Z 0600/0624 11006KT 9999 SCT020 PROB30 INTER 0600/0606 9000 SHRA SCT012 BKN018", "TAF NVSP 052300Z 0600/0624 11006KT 9999 SCT020", "TAF NVSS 052300Z 0600/0624 12008KT 9999 SCT020 PROB40 INTER 0604/0606 9000 SHRA SCT012 BKN018", "TAF NVVA 052300Z 0600/0624 14005KT 9999 SCT020 INTER 0600/0606 9000 SHRA SCT012 BKN018", "TAF NVVV 052300Z 0600/0624 13008KT 9999 SCT020 PROB40 INTER 0600/0606 9000 SHRA SCT012 BKN018", "TAF NVVW 052300Z 0600/0624 14005KT 9999 SCT020 INTER 0600/0606 9000 SHRA SCT012 BKN018", "TAF NWWD 052300Z 0600/0624 19012KT 9999 SCT025 BKN045 PROB40 TEMPO 0600/0608 SHRA FEW020TCU BECMG 0608/0610 VRB02KT BECMG 0621/0624 21010KT", "TAF NWWE 051700Z 0518/0618 18008KT 9999 SCT020 PROB30 TEMPO 0518/0618 SHRA BKN014 PROB40 TEMPO 0518/0524 BKN012", "TAF NWWK 052300Z 0600/0624 15012KT 9999 FEW025 PROB30 TEMPO 0600/0607 SHRA FEW020TCU PROB30 TEMPO 0600/0609 16015G25KT", "TAF NWWL 051700Z 0518/0618 16008KT 9999 FEW020 PROB30 TEMPO 0521/0606 4500 SHRA BKN014 FEW020TCU", "TAF NWWM 051700Z 0518/0618 16009KT 9999 SCT020 TEMPO 0518/0615 SHRA FEW020TCU PROB30 TEMPO 0518/0521 BKN014 PROB30 TEMPO 0609/0615 BKN014 ", "TAF NWWR 051700Z 0518/0618 20006KT 9999 SCT020 TEMPO 0518/0618 SHRA BKN014 FEW020TCU PROB30 TEMPO 0612/0618 BKN012", "TAF NWWU 051700Z 0518/0618 17008KT 9999 FEW040 PROB30 TEMPO 0603/0606 SHRA FEW020TCU", "TAF NWWW 052300Z 0600/0624 16010KT 9999 FEW025 PROB30 TEMPO 0600/0608 SHRA FEW020TCU BECMG 0606/0609 VRB02KT BECMG 0621/0624 17010KT", "TAF NZAA 052328Z 0600/0706 05012KT 9999 -SHRA FEW012 BKN025 TEMPO 0602/0607 6000 SHRA BKN012", "TAF NZCH 052306Z 0600/0706 02008KT CAVOK TEMPO 0623/0702 6000 RA PROB40 0623/0706 BKN004", "TAF NZQN 051710Z 0518/0612 05005KT 9999 FEW070 TEMPO 0518/0520 0400 FG BECMG 0523/0601 26010KT BECMG 0604/0606 18005KT", "TAF NZWN 052328Z 0600/0706 36018G30KT CAVOK FM060300 36018KT 9999 SCT050 BECMG 0606/0608 36008KT", "TAF OBBI 052300Z 0600/0706 34008KT CAVOK", "TAF OEAB 052300Z 0600/0706 VRB03KT 7000 FEW020 BECMG 0606/0608 20012KT 9999 SCT020 TEMPO 0608/0620 TS FEW025CB BECMG 0620/0622 VRB03KT CAVOK", "TAF OEAH 052200Z 0600/0706 34007KT CAVOK BECMG 0609/0611 04012KT", "TAF OEAO 052300Z 0600/0706 VRB03KT CAVOK BECMG 0605/0607 24016KT PROB30 TEMPO 0609/0616 4000 BLDU BECMG 0620/0622 VRB03KT ", "TAF OEBA 052300Z 0600/0706 25008KT CAVOK BECMG 0606/0608 15008KT 9999 FEW030 PROB30 TEMPO 0608/0616 FEW025CB SCT030 BECMG 0612/0614 26011KT BECMG 0620/0622 VRB03KT CAVOK ", "TAF OEBH 052300Z 0600/0706 VRB03KT 9999 FEW040 BECMG 0610/0612 27010KT 7000 SCT040 PROB30 TEMPO 0612/0620 FEW035CB BECMG 0620/0622 VRB03KT ", "TAF OEDF 052200Z 0600/0706 27008KT CAVOK BECMG 0604/0606 33012KT BECMG 0611/0613 05013KT", "TAF OEDM 052300Z 0600/0706 16010KT 7000 NSC BECMG 0604/0606 22018KT TEMPO 0606/0616 3000 BLDU BECMG 0618/0620 19007KT ", "TAF OEDR 052200Z 0600/0706 27008KT CAVOK BECMG 0604/0606 33012KT BECMG 0611/0613 05013KT", "TAF OEGN 052300Z 0600/0706 35005KT 7000 FEW030 PROB30 TEMPO 0600/0606 FEW035CB SCT040 BECMG 0606/0608 29010KT TEMPO 0608/0616 TS FEW035CB BECMG 0618/0620 35005KT ", "TAF OEGS 052300Z 0600/0706 07010KT CAVOK BECMG 0606/0608 17015KT 7000 NSC PROB30 TEMPO 0608/0616 4000 BLDU BECMG 0616/0618 22006KT ", "TAF OEGT 052300Z 0600/0706 33018KT 7000 SCT040 PROB30 TEMPO 0600/0608 3000 BLDU TEMPO 0608/0618 4000 BLDU BECMG 0618/0620 30008KT CAVOK", "TAF OEHL 052300Z 0600/0706 VRB03KT CAVOK BECMG 0606/0608 22013KT 7000 NSC BECMG 0618/0620 VRB03KT ", "TAF OEJN 052300Z 0600/0706 VRB03KT 9999 BKN040 BECMG 0606/0608 32015KT BECMG 0618/0620 02006KT", "TAF OEKJ 052300Z 0600/0706 VRB03KT CAVOK BECMG 0608/0610 16010KT ", "TAF OEKM 052300Z 0600/0706 VRB03KT 7000 FEW020 BECMG 0606/0608 20012KT 9999 SCT020 TEMPO 0608/0620 TS FEW025CB BECMG 0620/0622 VRB03KT CAVOK", "TAF OEMA 052300Z 0600/0706 VRB03KT 9999 FEW045 SCT100 BECMG 0606/0608 33012KT BECMG 0618/0620 VRB03KT", "TAF OENG 052300Z 0600/0706 VRB03KT 7000 SCT040 SCT090 BECMG 0606/0608 12010KT BECMG 0616/0618 25006G16KT PROB30 TEMPO 0616/0700 FEW035CB", "TAF OEPA 052200Z 0600/0706 VRB03KT CAVOK BECMG 0611/0613 09010KT", "TAF OEPS 051700Z 0517/0623 16009KT 9999 SKC QNH2991INS TEMPO 0518/0520 09012G18KT 9000 BLDU TX37/0613Z TN20/0602Z", "TAF OERF 052300Z 0600/0706 17012KT 7000 NSC PROB30 TEMPO 0608/0615 4000 BLDU BECMG 0700/0702 34010KT ", "TAF OERK 052300Z 0600/0706 VRB03KT CAVOK BECMG 0606/0608 18010KT", "TAF OERR 052300Z 0600/0706 15006KT CAVOK BECMG 0606/0608 18016KT 7000 NSC PROB30 TEMPO 0608/0618 3500 BLDU BECMG 0612/0614 24012KT BECMG 0620/0622 35008KT", "TAF OESH 052300Z 0600/0706 14010KT 9999 FEW040 BECMG 0612/0614 07013KT 7000 BECMG 0700/0702 14010KT", "TAF OESK 052300Z 0600/0706 14014KT CAVOK BECMG 0606/0608 25016KT 7000 NSC TEMPO 0608/0618 3500 BLDU BECMG 0620/0622 28007KT ", "TAF OETB 052300Z 0600/0706 27008KT 9999 FEW040 BECMG 0606/0608 24020KT 7000 NSC TEMPO 0608/0618 3500 BLDU BECMG 0618/0620 24008KT CAVOK ", "TAF OETF 052300Z 0600/0706 23008KT 7000 NSC BECMG 0608/0610 30015KT 9999 FEW030 PROB40 TEMPO 0610/0618 FEW025CB SCT030 BECMG 0618/0620 23008KT BECMG 0700/0702 VRB03KT ", "TAF OETR 052300Z 0600/0706 14014KT 7000 SCT040 PROB30 TEMPO 0600/0605 3000 BLDU BECMG 0606/0608 33018KT TEMPO 0606/0618 4000 BLDU BECMG 0622/0700 35008KT", "TAF OEWD 052300Z 0600/0706 VRB03KT CAVOK BECMG 0606/0608 15010KT 7000 NSC BECMG 0700/0702 VRB03KT", "TAF OEWJ 052300Z 0600/0706 35005KT 7000 NSC BECMG 0608/0610 34016KT CAVOK BECMG 0618/0620 04010KT", "TAF OEYN 052300Z 0600/0706 VRB03KT 7000 FEW040 BECMG 0606/0608 26012KT CAVOK BECMG 0618/0620 VRB03KT ", "TAF OIAA 052330Z 0600/0706 28008KT 7000 NSC PROB40 TEMPO 0601/0605 5000 HZ", "TAF OIAW 052330Z 0600/0706 28008KT 7000 NSC PROB40 TEMPO 0602/0605 5000 HZ", "TAF OIBB 052300Z 0600/0609 32008KT CAVOK TEMPO 0600/0604 4000 HZ/BR TEMPO 0607/0609 25018KT 5000 SA", "TAF OIBK 052330Z 0600/0706 28008KT 7000 FEW030 TEMPO 0600/0604 4000 HZ/BR TEMPO 0606/0612 12016KT", "TAF OIBP 052300Z 0600/0609 32008KT CAVOK TEMPO 0600/0604 4000 HZ", "TAF OICC 052300Z 0600/0609 12008KT CAVOK", "TAF OICI 052330Z 0600/0706 12008KT 8000 NSC TEMPO 0609/0615 25014KT", "TAF OIFM 052330Z 0600/0706 28008KT 7000 NSC TEMPO 0612/0618 06014KT FEW035TCU", "TAF OIGG 052300Z 0600/0609 25006KT 3000 BR SCT020 TEMPO 0600/0604 0700 FG BKN003 BECMG 0605/0607 03008KT 7000 NSC", "TAF OIIE 052330Z 0600/0706 30008KT 7000 NSC TEMPO 0607/0615 16014KT", "TAF OIII 052330Z 0600/0706 32008KT 7000 NSC TEMPO 0608/0615 20016KT", "TAF OIIP 052300Z 0600/0609 34008KT CAVOK TEMPO 0606/6009 30014KT", "TAF OIKB 052330Z 0600/0706 20008KT 4000 BR FEW030 TEMPO 0600/0604 1500 BR SCT020 BECMG 0605/0607 5000 HZ TEMPO 0609/0615 24016KT", "TAF OIKK 052330Z 0600/0706 28008KT 7000 FEW040 TEMPO 0609/0615 32012G20KT 4000 SA/DU", "TAF OIMM 052330Z 0600/0706 12008KT 5000 BR BKN020 TEMPO 0600/0604 0800 FG BKN005 BECMG 0604/0606 7000 NSC TEMPO 0609/0615 32014KT FEW035TCU", "TAF OING 052300Z 0600/0609 03006KT CAVOK TEMPO 0606/0609 08012KT 9999 FEW035TCU", "TAF OINZ 052300Z 0600/0609 16006KT CAVOK", "TAF OISL 052330Z 0600/0706 20008KT 8000 NSC TEMPO 0609/0615 24014KT", "TAF OISS 052330Z 0600/0706 12008KT 8000 NSC TEMPO 0610/0616 25016KT", "TAF OITL 052300Z 0600/0609 20008KT CAVOK TEMPO 0606/6009 07014G24KT FEW035TCU SCT040", "TAF OITR 052330Z 0600/0706 25008KT 8000 NSC BECMG 0607/0609 FEW035 SCT100 TEMPO 0609/0618 12014KT FEW035CB SCT040 BKN090", "TAF OITT 052330Z 0600/0706 08008KT 8000 FEW030 TEMPO 0609/0618 32016KT FEW035CB SCT0040 SCT100", "TAF OIYY 052300Z 0600/0609 12008KT CAVOK", "TAF OIZH 052330Z 0600/0706 06008KT 3000 DU FEW035 BECMG 0602/0604 7000 NSC TEMPO 0609/0615 06016KT 2000 SA/DU FEW035TCU", "TAF OJAI 052116Z 0600/0706 29010KT 5000 HZ NSC TEMPO 0612/0616 29022KT 3000 BLDU", "TAF OJAM 052300Z 0600/0706 28008KT 5000 HZ NSC TEMPO 0612/0616 29020KT 4000 BLDU", "TAF OJAQ 052116Z 0600/0706 36012KT 6000 NSC PROB40 PROB30 TEMPO 0612/0616 36018KT 4000 BLDU", "TAF OKAS 060003Z 0600/0706 28009KT 9999 SKC QNH2981INS BECMG 0607/0608 VRB03KT 9999 SKC QNH2985INS BECMG 0618/0619 18012KT 9999 SCT170 QNH2979INS TX36/0612Z TN20/0602Z", "TAF OLBA 052200Z 0600/0706 20014KT 7000 SCT050 TEMPO 0600/0706 5000 -RA BKN030 BECMG 0606/0608 23015KT 8000 BKN030 PROB40 TEMPO 0618/0706 23010G20KT 4000 TSRA FEW020CB BKN023", "TAF OMAA 052300Z 0600/0706 VRB02KT 8000 NSC PROB30 TEMPO 0601/0605 3000 BR BKN010 BECMG 0606/0608 32012KT BECMG 0618/0620 05005KT PROB40 TEMPO 0622/0705 VRB02KT 4000 HZ BKN010 PROB30 0701/0704 1500 BR", "TAF OMAD 052300Z 0600/0706 VRB02KT 8000 NSC PROB30 0601/0604 4000 HZ BECMG 0606/0608 32012KT BECMG 0618/0620 VRB02KT PROB30 0700/0704 3000 BR", "TAF OMAL 052300Z 0600/0706 VRB02KT 7000 NSC PROB30 0600/0604 0500 FG VV001 BECMG 0604/0606 20006KT BECMG 0610/0612 32012KT BECMG 0618/0620 06005KT", "TAF OMDB 052300Z 0600/0706 14005KT 8000 NSC PROB30 0600/0604 3000 BR BKN008 BECMG 0607/0609 33012KT BECMG 0620/0622 12005KT PROB30 0622/0704 3000 BR BKN008", "TAF OMDW 052300Z 0600/0706 12005KT 8000 NSC PROB30 0600/0605 0100 FG VV/// BECMG 0608/0610 31015KT BECMG 0620/0622 08005KT PROB30 0622/0705 1500 BR BKN005", "TAF OMFJ 052300Z 0600/0706 VRB03KT 8000 NSC PROB30 0600/0603 5000 HZ BECMG 0605/0607 08010KT BECMG 0614/0616 21004KT PROB30 0622/0703 VRB03KT 5000 HZ", "TAF OMRK 052300Z 0600/0706 VRB02KT 8000 NSC PROB30 0600/0605 0100 FG VV/// BECMG 0607/0609 34012KT BECMG 0616/0618 VRB02KT PROB30 0621/0705 1500 BR BKN005", "TAF OMSJ 052300Z 0600/0706 14005KT 8000 NSC PROB40 0600/0605 0100 FG VV/// BECMG 0608/0610 31013KT BECMG 0619/0621 09005KT PROB30 0622/0705 3000 BR BKN008", "TAF OODQ 051700Z 0518/0618 14013KT 8000 NSC PROB30 TEMPO 0522/0604 VRB03KT 4000 BR SCT010", "TAF OOMS 052300Z 0600/0706 26006KT 8000 NSC PROB40 TEMPO 0600/0604 4000 BR BKN010 BECMG 0606/0608 04014KT BECMG 0617/0619 VRB02KT", "TAF OOSA 052340Z 0600/0706 01010KT CAVOK BECMG 0607/0609 14012KT BECMG 0616/0618 VRB03KT", "TAF OOSH 052300Z 0600/0706 VRB02KT 8000 NSC PROB30 TEMPO 0600/0603 4000 BR BKN010 BECMG 0606/0608 07012KT BECMG 0615/0617 VRB02KT PROB30 TEMPO 0620/0703 4000 BR BKN010", "TAF OPBW 052145Z 0600/0618 05010KT 4000 HZ SCT100 TN21/0601Z TX36/0610Z PROB30 TEMPO 0600/0604 00000KT 2000 FEW100 ", "TAF OPDG 052145Z 0600/0618 05010KT 5000 FU FEWT040 SCT100 TN19/0601Z TX34/0610Z", "TAF OPFA 052300Z 0600/0706 05005KT 5000 HZ SCT040 SCT100 TX33/0610Z TN19/0601Z TEMPO 0616/0620 31012G25KT 2000 TSRA FEW030CB SCT040 BKN100 FM062200 36004KT 4000 FU FEW040 SCT100", "TAF OPGD 052300Z 0600/0624 23010G20KT 6000 NSC TEMPO 0600/0603 VRB03KT 3000 HZ FEW025 BECMG 0617/0619 26005KT 4000 BR FEW025", "TAF OPIS 052330Z 0600/0706 27010KT 6000 SCT040 BKN100 TEMPO 0600/0606 09015G30KT 3000 TSRA FEW030CB SCT040 BKN100 TEMPO 0621/0703 09015G30KT 3000 TSRA FEW030CB SCT040 BKN100", "TAF OPKC 052300Z 0600/0706 24010G20KT 7000 NSC TEMPO 0600/0604 26007KT 5000 FU FEW025 BECMG 0616/0618 26007KT 6000 FEW025", "TAF OPLA 052300Z 0600/0706 36008KT 5000 HZ FEW040 SCT100 TX32/0610Z TN18/0600Z TEMPO 0601/0605 12015G45KT 2000 TSRA FEW030CB SCT040 BKN100 TEMPO 0609/0612 12015G35KT 2000 TSRA FEW030CB SCT040 BKN100", "TAF OPMT 052145Z 0600/0618 36010KT 4000 FU FEW040 SCT100 TN20/0601Z TX34/0610Z PROB30 TEMPO 0600/0603 00000KT 2500 FU SCT100", "TAF OPNH 052300Z 0600/0706 23007KT 6000 NSC TEMPO 0600/0604 VRB03KT 4000 FU NSC BECMG 0615/0617 28005KT 5000 HZ NSC", "TAF OPPS 052300Z 0600/0706 23008KT 4000 -RA FU FEW040 SCT060 BKN100 TEMPO 0600/0603 23008G18KT 3000 TSRA FEW030CB SCT040 OVC100 BECMG 0604/0606 05008KT 5000 -RA FU SCT040 SCT060 BKN100 TEMPO 0621/0624 23008G18KT 3000 TSRA FEW030CB", "TAF OPRK 052145Z 0600/0618 05010KT 4000 FU SCT100 TN22/0601Z TX37/0610Z FM060600 13008KT 5000 HZ FEW100", "TAF OPSK 052300Z 0600/0624 31010KT 5000 HZ NSC BECMG 0615/0617 VRB03KT 4000 HZ NSC", "TAF OPST 052300Z 0600/0706 31006KT 5000 HZ FEW040 SCT100 TX33/0610Z TN20/0600Z TEMPO 0600/0604 05003KT 3000 FU", "TAF ORBI 052200Z 0600/0624 VRB03KT CAVOK BECMG 0613/0615 12008KT 7000 NSC", "TAF ORER 052200Z 0600/0624 VRB02KT 8000 NSC BECMG 0610/0612 20006KT", "TAF ORMM 052200Z 0600/0624 VRB02KT CAVOK TEMPO 0601/0606 29010KT BECMG 0620/0623 16008KT ", "TAF ORSU 052300Z 0600/0624 29004KT CAVOK", "OSAP 052300Z 0600/0624 15010KT 9999 SCT030 SCT100 TEMPO 0600/0608 22012KT 5000 RA SCT025 OVC080", "OSDI 052300Z 0600/0706 22015KT 9999 FEW030 SCT100 TEMPO 0612/0618 23015G25KT", "OSLK 052300Z 0600/0624 23012G25KT 7000 TSRA FEW026CB SCT030", "TAF OTBD 052308Z 0600/0706 32009KT CAVOK PROB30 TEMPO 0602/0605 26005KT BECMG 0607/0609 04010KT BECMG 0619/0621 33005KT TEMPO 0623/0706 VRB03KT", "TAF OTBH 060000Z 0600/0706 31010KT 9999 SKC QNH2973INS BECMG 0605/0606 35010G20KT 9999 SKC QNH2975INS BECMG 0613/0614 03015KT 9999 SKC QNH2973INS BECMG 0618/0619 VRB06KT 9999 SKC QNH2980INS BECMG 0622/0623 VRB06KT 8000 BR SKC QNH2975INS BECMG 0704/0705 10009KT 9999 NSW SKC QNH2978INS TX36/0611Z TN20/0601Z", "TAF OTHH 051700Z 0518/0624 31009KT CAVOK TEMPO 0601/0605 VRB03KT BECMG 0609/0611 02009KT", "TAF OYAA 051703Z 0518/0624 06010KT 8000 SCT020 SCT100 TEMPO 0600/0605 RA BKN015 BECMG 0606/0608 12013KT TEMPO 0610/0616 23012KT FEW040CB SCT200 BECMG 0616/0618 06010KT", "PAAQ 052321Z 0600/0624 VRB05KT P6SM FEW050 BKN120", "PABE 052335Z 0600/0624 31010KT P6SM -SHSN SCT004 OVC035 TEMPO 0600/0604 5SM -SN OVC010 FM060400 30012KT P6SM OVC015", "TAF PABI 052200Z 0522/0704 VRB06KT 9999 FEW170 QNH2973INS BECMG 0703/0704 VRB06KT 9000 -SHRA BKN025 OVC040 QNH2985INS TX10/0600Z TN00/0614Z", "PABR 052342Z 0600/0624 11011KT P6SM SCT025 BKN050 BKN060 TEMPO 0600/0603 5SM -SN BR BKN025 FM060600 12008KT P6SM OVC007", "PABT 052342Z 0600/0624 02009KT P6SM FEW050 SCT080 SCT100", "PACD 052335Z 0600/0624 36015G23KT P6SM VCSH OVC025 TEMPO 0600/0604 OVC015 FM060600 33014KT P6SM OVC025 FM062100 32010KT P6SM SCT025 BKN040", "PACV 052321Z 0600/0624 22007KT P6SM FEW040 SCT250 FM060400 VRB04KT P6SM SCT250", "PADL 052335Z 0600/0624 16004KT P6SM OVC015 TEMPO 0600/0604 OVC025 FM061000 32004KT P6SM OVC015", "PADQ 052321Z 0600/0624 04007KT 3SM -RA BR SCT006 BKN015 OVC025 TEMPO 0600/0602 1SM RA BR BKN006 FM060800 VRB05KT 3SM BR VCSH OVC007 FM061400 36004KT 2SM -RA BR OVC007", "PADU 052335Z 0600/0624 36012G20KT P6SM OVC035 TEMPO 0600/0604 36008KT OVC025 FM060600 32008KT P6SM BKN035", "TAF PAED 052115Z 0521/0703 33006KT 9999 FEW015 FEW030 BKN200 QNH2977INS BECMG 0602/0603 33006KT 9999 VCSH FEW015 FEW030 BKN120 OVC150 QNH2975INS BECMG 0606/0607 24006KT 9999 NSW SCT050 BKN120 OVC150 QNH2975INS BECMG 0617/0618 VRB06KT 9999 VCSH FEW010 BKN060 OVC110 610802 QNH2984INS TX10/0601Z TN04/0613Z", "TAF PAEI 052207Z 0522/0704 VRB06KT 9999 FEW100 QNH2970INS TEMPO 0622/0704 24009KT 9000 -SHRA BKN060 TX13/0600Z TNM04/0612Z", "PAEN 052321Z 0600/0624 35008KT P6SM BKN080 FM061000 21006KT P6SM SCT050 BKN080", "PAFA 052342Z 0600/0706 VRB04KT P6SM FEW080 SCT100 BKN200 FM061600 VRB04KT P6SM VCSH OVC050", "TAF PAFB 052150Z 0522/0704 VRB06KT 9999 SCT070 BKN200 QNH2976INS BECMG 0700/0701 25008KT 9999 FEW030 SCT070 SCT100 QNH2982INS TX11/0601Z TNM01/0616Z", "PAGA 052342Z 0600/0624 31005KT P6SM VCSH BKN025 BKN029 OVC050 FM060300 VRB04KT P6SM VCSH BKN025 OVC050 AMD NOT SKED", "PAGK 052321Z 0600/0624 VRB05KT P6SM SCT250", "PAGS 052338Z 0600/0624 24007KT P6SM BKN100 AMD LTD TO CLD VIS AND WIND", "PAGY 052338Z 0600/0624 04012G22KT P6SM OVC100 FM060200 21011KT P6SM OVC080 FM061000 VRB05KT P6SM -SHRA OVC050 AMD LTD TO CLD VIS AND WIND", "PAHN 052338Z 0600/0624 30009KT P6SM OVC100 FM060200 11008KT P6SM OVC080 AMD LTD TO CLD VIS AND WIND", "PAHO 052321Z 0600/0624 25009KT P6SM FEW035 OVC060 FM060800 VRB04KT P6SM FEW035 OVC050 FM062000 24008KT P6SM VCSH SCT035 BKN060", "PAIL 052335Z 0600/0624 10008KT P6SM OVC035 FM060800 VRB04KT P6SM VCSH SCT015 OVC025 FM061500 VRB03KT 4SM -SHRA BR OVC007 FM062200 24005KT P6SM VCSH SCT007 OVC015", "PAJN 052338Z 0600/0624 24007KT P6SM SCT050 OVC080 FM060600 VRB05KT P6SM -SHRA OVC050 FM061700 11008KT P6SM BKN035", "PAKN 052335Z 0600/0624 18007KT P6SM VCSH OVC035 TEMPO 0600/0604 OVC015 FM060900 23005KT P6SM -SHRA OVC007 FM061200 22005KT 4SM -SHSN OVC003 FM062100 18006KT P6SM OVC025", "PAKT 052338Z 0600/0624 30008KT P6SM -SHRA SCT020 BKN050 OVC080 TEMPO 0600/0603 BKN025 FM060600 15009KT P6SM SCT020 OVC050 AMD LTD TO CLD VIS AND WIND 0606/0615", "PAKW 052338Z 0600/0624 VRB05KT P6SM OVC080 AMD LTD TO CLD VIS AND WIND", "PAMC 052342Z 0600/0624 VRB04KT P6SM VCSH BKN050 OVC100", "PANC 052321Z 0600/0706 VRB05KT P6SM FEW050 BKN120 FM061800 20006KT P6SM VCSH SCT040 BKN080", "PAOM 052342Z 0600/0624 27011KT P6SM BKN035 BKN050 OVC070", "PAOR 052342Z 0600/0624 VRB03KT P6SM BKN200 FM060300 VRB03KT P6SM BKN050", "PAOT 052342Z 0600/0624 32006KT P6SM SCT045 OVC060", "PAPG 052338Z 0600/0624 VRB05KT P6SM -SHRA SCT020 BKN050 OVC080 FM061100 06005KT P6SM SCT010 OVC050 AMD LTD TO CLD VIS AND WIND 0606/0615", "PAQT 052342Z 0600/0624 09014KT 3SM BR OVC003 FM060300 08009KT 3SM BR OVC005 FM061000 12004KT 1/2SM FZFG OVC003", "PASC 052342Z 0600/0624 09011KT 1 1/2SM -SN BR OVC005 FM060400 09012KT P6SM OVC007 FM061000 14006KT 1/2SM FZFG OVC003", "PASD 052335Z 0600/0624 36010KT P6SM FEW030 BKN040 FM060400 34012KT P6SM SCT025 BKN035", "PASI 052338Z 0600/0624 27008KT P6SM BKN100 OVC200", "PASN 052335Z 0600/0624 36010KT P6SM BKN025 OVC050 TEMPO 0600/0604 SCT025 BKN050 FM060400 30008KT P6SM SCT025 FM061000 25003KT P6SM VCFG FEW003 SCT025 FM061800 16008KT P6SM SCT025 FM062200 15012KT P6SM BKN025", "TAF PASY 052200Z 0522/0704 14020KT 9999 FEW008 OVC025 510003 QNH2985INS BECMG 0523/0524 14025KT 9999 OVC008 510003 QNH2971INS BECMG 0606/0607 13025KT 9000 -RA OVC004 QNH2963INS BECMG 0612/0613 15015KT 9000 BR OVC004 QNH2928INS TX04/0611Z TN03/0622Z", "PATA 052342Z 0600/0624 13004KT P6SM BKN080 BKN150 FM061500 02003KT 6SM -SHRASN OVC030", "PATK 052321Z 0600/0624 VRB05KT P6SM FEW100", "PAUN 052342Z 0600/0624 27008KT P6SM BKN050 FM060200 26008KT 6SM -SN BR OVC025", "PAVD 052321Z 0600/0624 25008KT P6SM FEW040 SCT250 FM060500 VRB05KT P6SM SCT100 SCT250 FM062200 25008KT P6SM FEW040 BKN250", "PAWG 052338Z 0600/0624 VRB05KT P6SM -SHRA SCT020 BKN050 OVC080 FM061100 15005KT P6SM SCT010 OVC050 AMD LTD TO CLD VIS AND WIND 0606/0615", "PAYA 052338Z 0600/0624 VRB04KT P6SM SCT040 BKN060 AMD LTD TO CLD VIS AND WIND", "PGRO 052320Z 0600/0624 09012KT P6SM VCSH SCT015 BKN080", "PGSN 052320Z 0600/0624 10015KT P6SM VCSH SCT020 SCT060", "TAF PGUA 051800Z 0518/0624 09009KT 9999 FEW016 SCT160 QNH2973INS TEMPO 0518/0605 08012G18KT BKN016 TEMPO 0605/0612 08012G18KT 8000 -SHRA BKN010 BECMG 0611/0612 09015G20KT 8000 -SHRA BKN015 QNH2976INS TX29/0602Z TN24/0618Z", "PGUM 052320Z 0600/0706 10010KT P6SM VCSH SCT018 BKN050", "PGWT 052320Z 0600/0624 09013KT P6SM VCSH FEW015 SCT050", "TAF PHHI 052300Z 0523/0705 07012G20KT 9999 SCT025 SCT035 QNH2993INS TEMPO 0523/0602 08015G25KT 8000 -SHRA BKN025 BECMG 0606/0607 08006KT 9999 SCT025 BKN035 QNH2999INS TEMPO 0607/0613 6000 -RA SCT015 BKN025 BECMG 0619/0620 09012G18KT 9999 FEW035 BKN050 QNH3005INS TX26/0523Z TN19/0615Z", "PHJH 052321Z 0600/0624 06016G25KT P6SM FEW050 FM060600 05014G23KT P6SM VCSH SCT030 BKN050 FM061900 05018G26KT P6SM FEW030 SCT045", "PHJR 052321Z 0600/0624 04014G22KT P6SM SCT050 FM060600 05008G18KT P6SM SKC FM061200 04010KT P6SM FEW025 FEW045 FM061900 04012G20KT P6SM FEW025 FEW045", "PHKO 052321Z 0600/0624 21010KT P6SM FEW030 BKN050 FM060600 VRB06KT P6SM FEW050 FM061900 20010KT P6SM FEW030 SCT050", "PHLI 052321Z 0600/0624 07018KT P6SM SCT020 BKN040 FM060600 07018KT P6SM VCSH SCT020 BKN035", "PHMK 052321Z 0600/0624 04018G27KT P6SM FEW030 FM060600 04011G20KT P6SM SCT030 FM061900 04018G27KT P6SM FEW030", "TAF PHNG 0509/0609 08012G21KT 9999 FEW028 SCT036 BKN045 QNH2998INS TEMPO 0509/0515 8000 -SHRA BR FM051600 09012G22KT 9999 SCT020 BKN035 BKN080 QNH2997INS T25/0515Z T28/0521Z", "PHNL 052321Z 0600/0706 06018G27KT P6SM VCSH FEW025 SCT045 FM060600 06014G22KT P6SM VCSH SCT025 BKN050 FM062000 06018G27KT P6SM FEW025 SCT045", "PHNY 052321Z 0600/0624 27010KT P6SM BKN030 FM060600 04010KT P6SM BKN025 FM062000 23008KT P6SM SCT025", "PHOG 052321Z 0600/0624 06020G30KT P6SM SCT050 WS004/11025KT FM060600 05015G23KT P6SM VCSH FEW030 BKN045 FM061900 06018G27KT P6SM FEW030 SCT045", "PHTO 052321Z 0600/0624 06010KT P6SM VCSH SCT030 BKN040 FM060200 08010KT P6SM -SHRA BKN030 FM060600 24005KT P6SM -SHRA BKN025 FM061300 24005KT P6SM VCSH BKN035 FM062100 09008KT P6SM SCT035 BKN050", "PKMJ 052320Z 0600/0624 08010KT P6SM VCSH SCT017 SCT050 BKN120 TEMPO 0600/0604 VRB10KT 4SM SHRA SCT015 BKN025", "PKWA 052320Z 0600/0624 07015KT P6SM VCSH SCT015 SCT050", "TAF PLCH 052325Z 0600/0624 09010KT 9999 SCT020 SCT040 PROB40 TEMPO 0600/0606 09015G25KT 5000 TSRA FEW018CB", "PMDY 052321Z 0600/0624 08015KT 4SM SHRA BKN015 BKN020 FM060200 08015KT P6SM VCSH BKN030 FM062000 09014KT 5SM -SHRA BKN020 AMD NOT SKED", "PTKK 052320Z 0600/0624 VRB05KT P6SM VCSH SCT016 BKN120", "PTPN 052320Z 0600/0624 12009KT P6SM VCSH SCT015 BKN120", "TAF COR PTRO 052329Z 0600/0624 01006KT P6SM SCT015 BKN120 TEMPO 0601/0605 VRB15KT 5SM SHRA BKN015", "PTSA 052320Z 0600/0624 05010KT P6SM VCSH SCT015 BKN120", "TAF COR PTYA 052340Z 0600/0624 11010KT P6SM VCSH SCT016 SCT050 BKN120 TEMPO 0600/0604 VRB15KT 4SM SHRA SCT015 BKN025", "TAF PWAK 052200Z 0522/0704 05015KT 9000 BR SCT025 QNH2984INS BECMG 0609/0610 07020G25KT 9000 BR SCT026 510033 QNH2987INS TX28/0608Z TN23/0615Z FOR MIL USE ONLY", "TAF RCFN 052300Z 0600/0624 17005KT 9999 FEW015 TEMPO 0602/0608 19012G22KT TEMPO 0606/0612 FEW010 BKN017 BECMG 0612/0614 27005KT", "TAF RCKH 052300Z 0600/0706 16005KT 9999 FEW012 BKN100 TEMPO 0603/0609 19012KT TEMPO 0612/0618 FEW008 BKN015 BECMG 0700/0702 26005KT FEW012 BKN032 TEMPO 0702/0706 27010KT 5000 SHRA FEW012 FEW015CB BKN020 BKN050", "TAF RCMQ 052300Z 0600/0624 18006KT 9999 FEW012 SCT080 TX31/0605Z TN25/0620Z BECMG 0601/0604 22014KT FEW010 BKN080 TEMPO 0605/0610 FEW010 BKN050 BECMG 0611/0614 22008KT FEW006 BKN050 TEMPO 0618/0623 6000 -RA FEW006 BKN020", "TAF RCNN 052300Z 0600/0624 14004KT 9999 FEW012 SCT100 TX33/0606Z TN23/0621Z BECMG 0601/0604 20010KT TEMPO 0606/0610 FEW012 BKN080 BECMG 0611/0614 14004KT FEW012 BKN060 TEMPO 0618/0623 7000 -RA FEW012 BKN040", "TAF RCSS 052300Z 0600/0624 09005KT 9999 FEW020 BKN032 TEMPO 0600/0604 30005KT TEMPO 0604/0610 10010KT 5000 SHRA FEW012 FEW015TCU BKN020 TEMPO 0618/0624 VRB05KT 5000 SHRA SCT010 BKN018 BKN040", "TAF RCTP 052300Z 0600/0706 24005KT 9999 FEW015 BKN032 TEMPO 0604/0608 28010KT SCT010 BKN016 TEMPO 0608/0612 03005KT FEW012 BKN020 TEMPO 0616/0622 14005KT 5000 SHRA SCT008 BKN018 BKN040 BECMG 0622/0624 24012KT FEW010 BKN020 BKN050 TEMPO 0700/0706 25017G27KT 3500 SHRA SCT006 BKN011 FEW015CB BKN030", "TAF RJAA 052305Z 0600/0706 22018G30KT 8000 FEW030 TEMPO 0600/0608 22025G40KT 4000 BLDU BECMG 0700/0703 04014KT TEMPO 0700/0706 2000 SHRA BR FEW003 BKN005", "TAF RJAH 052307Z 0600/0706 21020G30KT 9999 FEW030 BECMG 0621/0700 05016KT TEMPO 0621/0706 4000 SHRA BR FEW003 BKN005", "TAF RJBB 052305Z 0600/0706 19022KT 9999 FEW020 BKN050 TEMPO 0605/0612 19028G40KT BECMG 0615/0618 24010KT TEMPO 0615/0700 3000 SHRA BR FEW003 BKN008 BKN015 TEMPO 0700/0706 4000 RA BR FEW003 BKN008 BKN015 BECMG 0703/0706 03008KT", "TAF RJCB 052305Z 0600/0706 03005KT 9999 FEW004 BKN015 TEMPO 0600/0603 3000 -SHRA BR FEW002 BKN004 BECMG 0700/0703 15011KT", "TAF RJCC 052305Z 0600/0706 35022KT 9999 FEW015 SCT030 TEMPO 0600/0602 35023G33KT FEW004 BKN008 TEMPO 0602/0608 35025G35KT BECMG 0610/0612 34010KT BECMG 0703/0706 17015KT", "TAF RJCH 052306Z 0600/0706 12006KT 9999 FEW008 BKN025 TEMPO 0600/0602 FEW003 BKN008", "TAF RJCK 052306Z 0600/0706 02010KT 9999 FEW005 BKN015 TEMPO 0600/0603 3000 -SHRA BR FEW003 BKN005 BECMG 0621/0700 18015KT", "TAF RJCM 052306Z 0600/0706 01011KT 9999 FEW008 BKN015 TEMPO 0600/0603 FEW003 BKN005 TEMPO 0603/0606 FEW005 BKN008 BECMG 0610/0612 20005KT BECMG 0621/0700 02010KT", "TAF RJEC 052305Z 0600/0706 33011KT 9999 FEW006 BKN015 TEMPO 0600/0603 FEW003 BKN006", "TAF RJFF 052311Z 0600/0706 15017KT 7000 -SHRA FEW005 SCT010 BKN015 TEMPO 0600/0605 3000 TSRA BR FEW003 BKN008 BKN010 FEW025CB BECMG 0604/0606 31012KT TEMPO 0605/0612 4000 -SHRA BR FEW003 BKN008 BKN010 TEMPO 0700/0706 3000 SHRA BR", "TAF RJFK 052308Z 0600/0706 19013KT 7000 -SHRA FEW005 SCT010 BKN015 TEMPO 0600/0609 3000 SHRA BR FEW001 BKN003 BKN005 TEMPO 0609/0615 3000 TSRA BR FEW003 BKN005 BKN008 FEW020CB BECMG 0612/0615 26004KT BECMG 0700/0703 17006KT TEMPO 0700/0706 3000 SHRA BR FEW003 BKN005 BKN008", "TAF RJFM 052308Z 0600/0706 16010KT 8000 -SHRA FEW005 SCT010 BKN015 TEMPO 0603/0610 4000 -SHRA BR TEMPO 0610/0615 3000 TSRA BR FEW005 BKN008 BKN010 FEW020CB TEMPO 0615/0618 4000 -SHRA BR BECMG 0615/0618 35004KT BECMG 0621/0700 12006KT", "TAF RJFO 052308Z 0600/0706 14020KT 8000 -SHRA FEW005 SCT010 BKN020 TEMPO 0603/0605 4000 -SHRA BR FEW003 SCT005 BKN008 TEMPO 0605/0610 3000 TSRA BR FEW003 BKN005 BKN008 FEW020CB BECMG 0607/0609 28005KT TEMPO 0610/0615 4000 -SHRA BR TEMPO 0621/0706 4000 -SHRA BR FEW003 SCT005 BKN008", "TAF RJFR 052312Z 0600/0706 13010KT 7000 -SHRA FEW008 SCT010 BKN015 TEMPO 0600/0606 3000 TSRA BR FEW003 BKN008 BKN010 FEW025CB BECMG 0605/0607 31013KT TEMPO 0606/0608 3000 SHRA BR FEW003 BKN008 BKN010 TEMPO 0703/0706 3000 SHRA BR FEW005 BKN008 BKN015", "TAF RJFS 052306Z 0600/0706 16018KT 7000 -SHRA FEW008 SCT010 BKN015 TEMPO 0600/0606 3000 TSRA BR FEW002 BKN005 BKN010 FEW020CB BECMG 0604/0606 28006KT TEMPO 0606/0609 3000 SHRA BR FEW002 BKN005 BKN010 BECMG 0618/0621 02010KT TEMPO 0621/0706 3000 SHRA BR FEW005 BKN008 BKN010", "TAF RJFT 052306Z 0600/0706 21011KT 8000 -SHRA FEW005 SCT010 BKN025 TEMPO 0602/0604 4000 -SHRA BR FEW003 BKN008 BKN010 TEMPO 0604/0609 1500 TSRA BR FEW002 BKN005 BKN008 FEW020CB TEMPO 0609/0615 1500 SHRA BR FEW002 SCT005 BKN008 TEMPO 0615/0621 1500 -SHRA BR FEW002 SCT005 BKN008 TEMPO 0621/0706 3000 SHRA BR FEW002 SCT005 BKN008", "TAF RJFU 052306Z 0600/0706 16020KT 7000 -SHRA FEW005 SCT010 BKN015 TEMPO 0600/0605 16020G32KT 3000 TSRA BR FEW003 BKN008 BKN010 FEW020CB BECMG 0605/0607 33007KT TEMPO 0605/0610 4000 -SHRA BR FEW003 BKN008 BKN010 TEMPO 0621/0706 3000 SHRA BR FEW003 BKN008 BKN010", "TAF RJGG 052306Z 0600/0706 16016KT 9999 FEW020 BKN040 TEMPO 0612/0700 4000 -SHRA BR FEW003 BKN005 BECMG 0700/0703 35010KT TEMPO 0700/0706 3000 SHRA BR FEW003 BKN005", "TAF RJNK 052306Z 0600/0706 20016KT 9999 FEW030 SCT080 TEMPO 0612/0615 4000 SHRA BR FEW005 BKN008 TEMPO 0615/0700 4000 -SHRA BR FEW005 BKN008 BECMG 0621/0700 03014KT", "TAF RJNS 052306Z 0600/0706 23016KT 9999 FEW020 BKN050 TEMPO 0600/0606 23018G28KT BECMG 0612/0615 4000 -SHRA BR FEW005 BKN008 TEMPO 0615/0700 3000 SHRA BR FEW003 BKN005 TEMPO 0700/0706 3000 SHRA BR", "TAF RJNT 052305Z 0600/0706 18018G30KT 9999 FEW030 BECMG 0609/0611 02010KT TEMPO 0612/0621 3000 SHRA BR FEW005 BKN008", "TAF RJOA 052305Z 0600/0706 20007KT 9999 FEW015 BKN035 BECMG 0605/0607 3000 -SHRA BR BCFG FEW000 SCT005 BKN008 TEMPO 0609/0618 1500 SHRA BR BCFG FEW000 SCT003 BKN005 BECMG 0618/0621 02005KT 7000 NSW FEW008 SCT015 BKN025 TEMPO 0703/0706 3000 -RA BR BCFG FEW000 SCT005 BKN008", "TAF RJOB 052305Z 0600/0706 08004KT 9999 FEW015 SCT030 BKN045 BECMG 0601/0603 19010KT BECMG 0610/0612 3000 -SHRA BR BCFG FEW000 BKN007 BKN015 TEMPO 0612/0618 1500 SHRA BR BCFG FEW000 SCT003 BKN005 BECMG 0618/0621 34005KT 9000 NSW FEW005 SCT015 BKN025 TEMPO 0703/0706 4000 RA BR BCFG FEW000 SCT005 BKN008", "TAF RJOC 052305Z 0600/0706 19018KT 9000 -SHRA FEW006 SCT015 BKN030 TEMPO 0600/0606 19021G32KT TEMPO 0606/0610 4000 SHRA BR FEW002 SCT005 BKN008 TEMPO 0610/0621 FEW002 SCT005 BKN008 BECMG 0615/0618 06018KT", "TAF RJOH 052305Z 0600/0706 19018KT 9000 -SHRA FEW010 SCT030 BKN050 TEMPO 0600/0606 19020G31KT TEMPO 0606/0610 4000 SHRA BR FEW003 SCT006 BKN008 TEMPO 0610/0618 FEW003 SCT006 BKN008 BECMG 0615/0618 04016KT TEMPO 0700/0706 04018G29KT", "TAF RJOI 0521/0621 18012G20KT 9999 VCSH FEW020 BKN030 BKN050 651309 651905 510006 QNH2975INS BECMG 0522/0600 18012G20KT 8000 -SHRA BR VCTS BKN010 BKN030CB OVC050 651309 651905 510006 QNH2964INS TEMPO 0601/0606 -TSRA BKN008 BKN025CB OVC050 FM060600 18012G20KT 6000 -TSRA BR BKN010 BKN030CB OVC050 651309 651905 510006 QNH2962INS TEMPO 0606/0611 4800 -TSRA BR BKN008 BKN025CB OVC030 BECMG 0612/0614 20010KT 6000 -SHRA BR BKN010 BKN030 OVC050 621309 621905 510006 512104 QNH2965INS FM061800 33006KT 8000 BR SCT015 BKN030 BKN050 621905 500000 QNH2965INS T21/0521Z T18/0621Z", "TAF RJOK 052305Z 0600/0706 16008KT 9999 FEW008 SCT015 BKN025 TEMPO 0605/0612 4000 SHRA BR FEW002 SCT005 BKN008 TEMPO 0612/0621 3000 +SHRA BR FEW002 BKN005 BKN008 FEW020CB TEMPO 0621/0706 4000 SHRA BR FEW002 SCT005 BKN008", "TAF RJOM 052305Z 0600/0706 36007KT 9000 -SHRA FEW025 BKN050 BECMG 0602/0604 18012KT BECMG 0609/0611 3000 -SHRA BR TEMPO 0611/0615 1500 +SHRA BR FEW002 SCT005 BKN008 FEW020CB BECMG 0700/0703 35008KT TEMPO 0700/0706 1500 RA BR FEW002 SCT005 BKN008", "TAF RJOO 052305Z 0600/0706 22012KT 9999 FEW010 SCT030 BKN040 TEMPO 0612/0618 3000 SHRA BR FEW003 BKN008 BKN015 BECMG 0618/0621 30006KT TEMPO 0618/0700 4000 -SHRA BR FEW003 BKN008 BKN015", "TAF RJOT 052305Z 0600/0706 22007KT 9999 FEW020 SCT030 BKN050 BECMG 0612/0615 3000 -SHRA BR BCFG FEW000 SCT005 BKN008 TEMPO 0615/0621 1500 SHRA BR BCFG FEW000 SCT003 BKN005 BECMG 0700/0703 04005KT TEMPO 0703/0706 1500 RA BR BCFG FEW000 SCT003 BKN005", "TAF RJSA 052307Z 0600/0706 21010KT 6000 -RA FEW008 BKN020 TEMPO 0600/0602 3000 RA BR BECMG 0602/0604 04006KT 1500 -RA BR FEW001 BKN003 TEMPO 0602/0610 0700 RA FG BECMG 0610/0612 9999 NSW FEW030", "TAF RJSF 052307Z 0600/0706 21010KT 9999 FEW030 SCT050 BECMG 0605/0607 35012KT TEMPO 0612/0621 2000 SHRA BR FEW001 BKN003 TEMPO 0621/0706 4000 -SHRA BR FEW001 BKN003", "TAF RJSI 052315Z 0600/0706 18006KT 8000 -SHRA FEW015 BKN030 BECMG 0609/0611 36008KT TEMPO 0612/0618 4000 SHRA BR FEW005 BKN008 BECMG 0700/0703 22006KT", "TAF RJSK 052307Z 0600/0706 24010KT 6000 -SHRA FEW005 BKN012 TEMPO 0600/0610 3000 SHRA BR FEW003 BKN005 BECMG 0610/0612 13004KT TEMPO 0610/0618 1500 -SHRA BR FEW001 BKN003", "TAF RJSN 052305Z 0600/0706 02005KT 8000 -SHRA FEW008 BKN015 BECMG 0602/0604 19008KT TEMPO 0603/0612 4000 SHRA BR FEW005 BKN008 BECMG 0612/0615 02013KT TEMPO 0612/0621 3000 SHRA BR FEW005 BKN008 BECMG 0700/0703 16005KT", "TAF RJSS 052315Z 0600/0706 10006KT 6000 -SHRA FEW020 BKN040 TEMPO 0600/0606 3000 -SHRA BR BECMG 0612/0615 02012KT TEMPO 0612/0621 3000 SHRA BR FEW003 BKN005", "TAF RJTT 052307Z 0600/0706 21026KT 9999 FEW030 TEMPO 0600/0610 21034G44KT TEMPO 0615/0700 21026G36KT TEMPO 0703/0706 3000 SHRA BR FEW005 BKN008", "TAF RJTY 052100Z 0521/0703 20012KT 9999 BKN180 QNH2976INS BECMG 0600/0601 21012G18KT 9999 SCT150 QNH2968INS BECMG 0601/0602 22020G30KT 9999 SCT150 QNH2967INS BECMG 0609/0610 19010G20KT 9999 SCT050 BKN150 QNH2968INS BECMG 0615/0616 20012G20KT 9000 -SHRA SCT030 OVC120 QNH2963INS BECMG 0619/0620 19012G20KT 6000 -RA SCT015 BKN030 OVC060 QNH2963INS TX30/0604Z TN19/0521Z", "TAF RKJB 052300Z 0600/0706 21007KT 9999 FEW010 BKN030 TX17/0605Z TN13/0621Z TX15/0706Z TEMPO 0600/0603 -RA BECMG 0609/0610 09006KT BECMG 0621/0622 05006KT 6000 -RA TEMPO 0622/0704 3000 BECMG 0705/0706 NSW", "TAF RKJK 050800Z 0508/0614 19008KT 4800 -RA BR SCT008 OVC010 QNH2954INS TEMPO 0508/0510 2400 OVC003 BECMG 0514/0515 18012KT 3200 -RA BKN010 OVC020 QNH2952INS TEMPO 0519/0523 BKN006 BECMG 0604/0605 15007KT 6000 BR BKN030 BKN050 QNH2950INS BECMG 0608/0609 05010G15KT 6000 BR BKN030 OVC050 QNH2950INS TX19/0508Z TN17/0521Z LAST NO AMDS AFT 0508 NEXT 0800", "TAF RKNN 052300Z 0600/0706 33006KT 3200 -RA BR FEW005 BKN010 OVC025 BECMG 0603/0604 03006KT 4800 -RA BR BKN015 OVC030 BECMG 0609/0618 24006KT 9999 NSW SCT040 TX13/0606Z TN10/0621Z ", "TAF RKNW 052300Z 0600/0706 03010G20KT 3200 -RA BR SCT015 OVC040 BECMG 0605/0606 03010G20KT 4800 -RA BR BKN040 BKN100 BECMG 0609/0610 03010KT 4800 BR SCT040 BKN100 VIS 9999 NSW AFT 0611 BECMG 0615/0616 03006KT 9999 BKN180 TX16/0606Z TN08/0621Z ", "TAF RKNY 052300Z 0600/0706 35010KT 6000 -RA SCT010 BKN025 OVC060 TX11/0606Z TN09/0621Z TX13/0705Z TEMPO 0600/0603 4000 RA BECMG 0604/0606 BKN025 BECMG 0607/0609 NSW BECMG 0614/0616 27010KT CAVOK BECMG 0620/0622 36008KT", "TAF RKPC 052300Z 0600/0706 27015G25KT 9999 SCT030 BKN120 TX20/0603Z TN13/0706Z BECMG 0609/0610 03006KT FEW010 BKN030 OVC080 BECMG 0611/0612 09008KT BECMG 0615/0616 09017G30KT BECMG 0621/0622 6000 -RA", "TAF RKPK 052300Z 0600/0706 12008KT 3200 -RA BR BKN010 BKN030 TX19/0606Z TN14/0621Z BECMG 0601/0602 06008KT 8000 BKN015 BKN080 TEMPO 0606/0612 06008G18KT -RA BECMG 0612/0613 06008KT 9999 NSW SCT015 BKN030", "TAF AMD RKSG 052200Z 0522/0701 07012G18KT 6000 -RA SCT011 BKN020 OVC030 QNH2947INS TEMPO 0522/0603 3600 -RA BKN011 BECMG 0602/0603 05009KT 8000 -RA BKN010 WS015/07035KT 510203 QNH2968INS BECMG 0607/0608 04012KT 9999 NSW BKN015 510013 QNH2976INS BECMG 0611/0612 04006KT 9999 FEW016 510023 QNH2984INS TX16/0604Z TN14/0522Z", "TAF RKSI 052300Z 0600/0706 05017G35KT 6000 -RA FEW010 BKN030 OVC060 TX16/0606Z TN10/0620Z TX20/0706Z BECMG 0605/0607 05015G25KT NSW SCT040 BKN060 BECMG 0610/0612 05010KT CAVOK BECMG 0703/0705 35006KT", "TAF RKSM 052300Z 0600/0706 06008KT 4800 -RA BR BKN015 OVC030 BECMG 0603/0604 06008KT 4800 -RA BR BKN025 BECMG 0605/0606 06008KT 9999 NSW BKN030 TX19/0606Z TN09/0621Z ", "TAF RKSO 052100Z 0521/0703 04012G18KT 4800 -SHRA SCT010 BKN020 OVC025 510015 QNH2951INS TEMPO 0521/0604 3200 SHRA BKN010 OVC020 BECMG 0603/0604 05012KT 9000 -RA BKN020 OVC030 510105 QNH2971INS BECMG 0606/0607 05009KT 9000 -DZ BR SCT015 BKN020 OVC035 510104 QNH2978INS BECMG 0610/0611 05008KT 9999 NSW FEW015 SCT030 BKN050 510104 QNH2986INS BECMG 0621/0622 02006KT 9999 FEW030 SCT080 BKN120 510104 QNH2991INS TX14/0607Z TN08/0621Z", "TAF RKSS 052300Z 0600/0706 04010KT 6000 -RA FEW015 BKN035 OVC070 TX17/0606Z TN08/0621Z TX20/0706Z BECMG 0603/0605 05015G25KT BECMG 0606/0608 NSW SCT040 BKN070 BECMG 0610/0612 03008KT CAVOK", "TAF RKSW 052300Z 0600/0706 06010G20KT 4800 -RA BR BKN015 OVC030 BECMG 0605/0606 06008KT 9999 NSW BKN030 BECMG 0614/0615 06006KT 9999 SCT030 BKN200 TN11/0621Z TX22/0706Z ", "TAF RKTE 052300Z 0600/0706 24006KT 3200 -RA BR BKN015 OVC030 BECMG 0608/0609 06006KT 4800 BR BKN030 TX19/0606Z TN10/0621Z ", "TAF RKTI 052300Z 0600/0706 09006G16KT 4800 -RA BR SCT015 BKN040 BECMG 0608/0609 09010KT 9999 NSW BKN040 BECMG 0611/0612 06006KT 9999 SCT030 SCT150 TX20/0606Z TN11/0621Z ", "TAF RKTN 052300Z 0600/0706 12008G18KT 4800 -RA BR BKN010 OVC030 TX14/0601Z TN11/0621Z BECMG 0602/0603 12006KT SCT010 OVC030 BECMG 0609/0610 9999 NSW SCT030 BKN080", "TAF RKTP 052300Z 0600/0706 06010G20KT 3200 -RA BR BKN010 BECMG 0605/0606 06010G20KT 4800 BR SCT015 BKN030 BECMG 0609/0610 06010KT 9999 NSW BKN030 TX16/0606Z TN11/0621Z ", "TAF RKTU 052300Z 0600/0706 06006G16KT 3200 -RA BR BKN015 OVC030 TN09/0621Z TX19/0706Z BECMG 0608/0609 06008KT 4800 BR BKN030 BECMG 0609/0610 9999 NSW", "TAF RKTY 052300Z 0600/0706 10010KT 4800 -RA BR SCT015 OVC030 BECMG 0609/0610 10006KT 9999 NSW BKN030 BECMG 0615/0616 10006KT 9999 SCT100 BKN180 TX21/0606Z TN13/0621Z ", "TAF ROAH 052308Z 0600/0706 18018KT 9999 FEW008 BKN015 TEMPO 0612/0700 FEW006 BKN008", "TAF RODN 060000Z 0600/0706 18012G18KT 9999 SCT015 BKN025 QNH2973INS TEMPO 0600/0602 BKN015 TEMPO 0604/0608 8000 -SHRA BKN015 BECMG 0608/0609 18012KT 9999 VCSH BKN020 QNH2975INS BECMG 0613/0614 18009KT 8000 BR BKN015 QNH2968INS TX28/0604Z TN22/0621Z", "TAF ROIG 052308Z 0600/0706 19013KT 9999 FEW008 SCT015 TEMPO 0612/0700 FEW006 BKN008", "TAF ROTM 0521/0621 16012G18KT 9999 BKN009 BKN015 BKN050 611506 QNH2980INS FM060000 16012G20KT 9999 VCSH BKN010 BKN015 OVC050 611506 QNH2980INS BECMG 0603/0605 17014G22KT 9000 -SHRA BKN009 BKN015 OVC050 611506 QNH2978INS TEMPO 0603/0609 18016G28KT 6000 SHRA BKN010 OVC030 FM061200 18012KT 9999 VCSH BKN009 BKN015 BKN035 611406 QNH2974INS FM061900 18012G18KT 9999 VCSH BKN010 BKN015 BKN030 611406 QNH2976INS T24/0521Z T26/0604Z", "TAF COR RPLB 052300Z 0600/0624 09010KT 9999 FEW020 TX35/0606Z TN26/0621Z TEMPO 0600/0606 24012KT FEW018CB SCT020 BKN080", "TAF RPLC 052300Z 0600/0706 14005KT 9999 FEW020 BKN300 TX34/0606Z TN26/0621Z TEMPO 0600/0606 09008KT SCT020 BKN300", "TAF RPLI 052300Z 0600/0624 11006KT 9999 FEW018 TEMPO 0603/0609 27014KT FEW017CB SCT090", "TAF RPLL 052300Z 0600/0706 12006KT 9000 FEW025 SCT100 TX35/0605Z TN27/0621Z TEMPO 0600/0606 11012KT FEW025 BKN300 TEMPO 0606/0612 14009KT SCT025 BKN100", "TAF RPMD 052300Z 0600/0624 36005KT 9999 FEW016 SCT090 BKN260 TEMPO 0606/0612 18012KT 7000 -TSRA SCT015CB OVC080", "TAF RPMR 052300Z 0600/0624 15005KT 9999 FEW018 SCT080 TEMPO 0606/0612 20007KT -TSRA FEW017CB BKN080", "TAF RPMZ 052300Z 0600/0624 14005KT 9999 FEW017 SCT090 TEMPO 0606/0612 21006KT FEW016CB BKN090", "TAF RPVD 052300Z 0600/0624 07005KT 9999 FEW015 SCT070 TEMPO 0600/0606 08010KT FEW014CB BKN080", "TAF RPVM 052300Z 0600/0706 09005KT 9999 FEW020 SCT300 TEMPO 0606/0612 9000 -SHRA FEW018CB BKN100", "TAF RPVP 052300Z 0600/0624 18006KT 9999 FEW019 SCT080 BKN250 TEMPO 0600/0606 03008KT -SHRA FEW017CB BKN080 OVC240", "TAF SAAR 052300Z 0600/0624 16015KT 8000 -RA SCT010 OVC040 TX19/0619Z TN14/0610Z TEMPO 0600/0603 16015G25KT 1500 +RA BKN005 OVC035 BECMG 0606/0608 16005KT 0800 FG BKN010 BECMG 0612/0614 18010KT 9999 NSW BKN020", "TAF SABE 052300Z 0600/0624 12015KT 7000 -RA SCT008 OVC035 TX19/0619Z TN16/0610Z TEMPO 0600/0604 12015G25KT 3000 RA BKN005 OVC030 BECMG 0604/0606 9999 NSW BKN010 OVC035 PROB40 TEMPO 0609/0611 8000 -RA BECMG 0616/0619 20005KT 9999 BKN030", "TAF SACO 052300Z 0600/0624 23005KT 7000 -RA DZ OVC020 TX19/0618Z TN10/0611Z BECMG 0603/0606 2000 DZ BR OVC005 PROB40 TEMPO 0608/0611 0800 DZ FG OVC002 BECMG 0612/0615 9999 NSW NSC", "TAF SADF 052300Z 0600/0624 14010KT 9000 -RA SCT010 OVC035 TX18/0619Z TN15/0610Z TEMPO 0600/0604 12015KT +2000 RA BKN005 OVC030 BECMG 0603/0606 9999 NSW BKN010 OVC035 PROB40 TEMPO 0609/0611 8000 -RA BECMG 0616/0619 20005KT 9999 BKN030", "TAF SAEZ 052300Z 0600/0624 12015KT 7000 -RA SCT010 OVC030 TX21/0618Z TN15/0609Z TEMPO 0600/0603 12015G25KT 2000 +RA BKN010 BECMG 0606/0608 3000 RA BR BKN005 OVC020 BECMG 0613/0615 09010KT 7000 DZBR OVC008 BECMG 0618/0620 36010KT 5000 -RADZ BKN030 ", "TAF SAME 052300Z 0600/0624 VRB03KT CAVOK TX22/0620Z TN07/0610Z BECMG 0613/0616 05005KT 9999 SCT040", "TAF SANR 052300Z 0600/0624 VRB03KT 9999 BKN030 TX23/0619Z TN14/0610Z BECMG 0602/0605 2000 BR BKN003 TEMPO 0608/0612 0300 FG OVC002 BECMG 0613/0616 07010KT 9999 NSW BKN020", "TAF SANT 052300Z 0600/0624 34005KT 7000 NSC TX20/0618Z TN11/0610Z PROB40 TEMPO 0608/0611 2000 BR BKN010 BECMG 0612/0615 9999 NSW BKN030", "TAF SARC 052300Z 0600/0624 34005KT 9999 BKN012 TX19/0518Z TN14/0610Z PROB40 0605/0612 2000 BR BKN002 BECMG 0613/0615 VIS5000M TSRA OVC008 FEW050CB", "TAF SARE 052300Z 0600/0624 32005KT 9999 FEW007 OVC015 TX19/0619Z TN14/0610Z PROB40 0605/0612 2000 BR BKN002 BECMG 0613/0615 VIS5000M TSRA OVC008 FEW050CB", "TAF SARF 052300Z 0600/0624 00000KT 9999 FEW005 TX19/0619Z TN14/0610Z PROB30 0606/0611 6000 RA DZ BKN002 OVC008 BECMG 0613/0615 5000 TSRA OVC008 FEW050CB", "TAF SARI 052300Z 0600/0624 VRB02KT CAVOK TX28/0519Z TN17/0610Z PROB30 0605/0611 3000 BR BECMG 0612/0613 9999 SCT020", "TAF SARP 052300Z 0600/0624 23005KT 9999 BKN007 OVC020 TX23/0619Z TN15/0610Z PROB30 0605/0610 6000 RA DZ BKN002 OVC008 BECMG 0611/0613 5000 TSRA OVC008 FEW050CB", "TAF SASA 052300Z 0600/0624 02005KT 9999 BKN040 TX18/0618Z TN08/0610Z BECMG 0606/0609 3000 BR BKN010 BECMG 0611/0614 05010KT 9999 NSW BKN020", "TAF SASJ 052300Z 0600/0624 14005KT 9999 BKN050 TX20/0618Z TN10/0610Z BECMG 0606/0609 2000 BR BKN015 PROB40 TEMPO 0610/0612 0800 FG OVC005 BECMG 0613/0616 07010KT 9999 NSW BKN025", "TAF SAVC 052300Z 0600/0624 30020KT CAVOK TX20/0618Z TN14/0610Z BECMG 0606/0608 29020G30KT BECMG 0615/0616 18012KT 9999 SCT030 SCT090", "TAF SAVT 052300Z 0600/0624 34018KT CAVOK TX24/0618Z TN14/0610Z BECMG 0613/0615 27010KT BECMG 0619/0621 18018KT", "TAF SAWE 052300Z 0600/0624 29020KT 9999 SCT030 BKN090 TX08/0618Z TN05/0610Z BECMG 0612/0614 27020G30KT CAVOK", "TAF SAWG 052300Z 0600/0624 VRB05KT 9999 SCT030 BKN050 TX10/0618Z TN07/0610Z BECMG 0606/0607 25020G30KT BECMG 0611/0613 CAVOK BECMG 0620/0622 27012KT", "TAF SAWH 052300Z 0600/0624 32008KT 9999 SCT030 TX06/0618Z TN02/0610Z PROB40 TEMPO 0618/0622 23015KT SCT020 SCT030 ", "TAF SAZM 052300Z 0600/0624 05005KT CAVOK TX17/0618Z TN08/0611Z BECMG 0602/0604 VRB03KT 5000 BR NSC PROB30 TEMPO 0607/0610 0800 BCFG FEW010 BECMG 0610/0612 9999 NSW BKN040 BECMG 0618/0620 07010KT 5000 RA BKN015 OVC030", "TAF SAZN 052300Z 0600/0624 VRB03KT CAVOK TX24/0619Z TN08/0611Z BECMG 0618/0620 02010KT", "TAF SAZS 052300Z 0600/0624 16005KT CAVOK TX18/0620Z TN02/0611Z PROB30 0610/0614 3000 BR NSC BECMG 0618/0620 29010KT", "TAF SBAF 052200Z 0600/0612 09008KT 9999 SCT025 TN22/0609Z TX26/0612Z BECMG 0607/0609 BKN015 RMK PEC", "TAF SBAN 052200Z 0600/0612 11009KT CAVOK TN20/0609Z TX25/0612Z RMK PEC", "TAF SBAT 052100Z 0600/0612 10003KT 9999 BKN030 TN22/0608Z TX26/0612Z RMK PGU", "TAF SBBE 052100Z 0600/0624 06007KT 8000 BKN025 FEW030TCU TN25/0609Z TX33/0616Z PROB40 0607/0610 12005KT 4000 BR BKN007 TEMPO 0616/0623 07010KT 4000 SHRA BKN013 FEW030TCU RMK PGU", "TAF SBBG 052200Z 0600/0612 02009KT 3000 RA BR BKN006 TN14/0609Z TX23/0612Z BECMG 0606/0607 8000 BKN006 BECMG 0610/0611 9999 SCT025 RMK PEC", "TAF SBBI 052200Z 0600/0612 08009KT 9999 SCT025 TN17/0609Z TX24/0612Z TEMPO 0600/0606 4000 BR BKN004 RMK PEC", "TAF SBBR 052050Z 0600/0624 07005KT CAVOK TN16/0609Z TX28/0618Z TEMPO 0600/0611 VRB02KT BECMG 0612/0614 07010KT SCT040 BECMG 0621/0623 13005KT CAVOK RMK PGG", "TAF SBBU 051730Z 0600/0612 00000KT CAVOK TN18/0608Z TX22/0611Z RMK PGL", "TAF SBBV 052100Z 0600/0624 09005KT 9999 SCT040 FEW045TCU TN24/0610Z TX28/0618Z BECMG 0611/0613 08017KT PROB40 0618/0622 4500 SHRA RMK PGU", "TAF SBBW 052050Z 0600/0612 00000KT CAVOK TN20/0609Z TX25/0611Z RMK PGG", "TAF SBCF 052050Z 0600/0624 13005KT CAVOK TN17/0609Z TX28/0618Z BECMG 0614/0616 SCT035 BECMG 0616/0618 07010KT BECMG 0620/0622 13005KT CAVOK RMK PGG", "TAF SBCG 052050Z 0600/0624 07010KT CAVOK TN21/0610Z TX30/0619Z BECMG 0613/0615 35005KT SCT040 BECMG 0621/0623 07007KT CAVOK RMK PGG", "TAF SBCJ 052100Z 0600/0612 20002KT 9999 SCT015 TN22/0608Z TX31/0612Z BECMG 0608/0610 4000 BR BKN006 RMK PGU", "TAF SBCO 052200Z 0600/0612 31007KT 3000 -RA BR BKN006 TN19/0609Z TX25/0612Z TEMPO 0603/0606 4000 RA BR BKN006 BKN017 BECMG 0610/0611 9999 SCT013 BKN025 RMK PEC", "TAF SBCR 052050Z 0600/0624 00000KT 9999 FEW015 TN20/0610Z TX30/0619Z PROB40 0606/0612 5000 BR BKN008 BECMG 0612/0614 24007KT SCT025 RMK PGG", "TAF SBCT 052200Z 0600/0624 07007KT 4000 BR SCT020 TN15/0609Z TX26/0616Z BECMG 0600/0602 2000 BR OVC004 BECMG 0606/0608 8000 NSW BKN008 BKN040 BECMG 0612/0614 9999 SCT008 BECMG 0615/0616 SCT020 BECMG 0622/0623 3000 BR BKN003 RMK PEC", "TAF SBCY 052100Z 0600/0624 06007KT 9999 SCT020 TN23/0609Z TX31/0619Z BECMG 0602/0604 32005KT PROB40 0609/0612 3000 BR BKN005 BECMG 0613/0615 20005KT SCT025 FEW030TCU RMK PGU", "TAF SBCZ 052100Z 0600/0624 00000KT 7000 BKN015 FEW030TCU TN24/0609Z TX29/0618Z TEMPO 0607/0612 2000 BR BKN005 PROB40 0615/0621 4000 SHRA RMK PGU", "TAF SBDN 051730Z 0600/0612 13005KT CAVOK TN19/0608Z TX23/0611Z RMK PGL", "TAF SBEG 052100Z 0600/0624 05007KT 7000 SCT020 FEW025TCU TN24/0609Z TX30/0618Z PROB40 0600/0603 4000 TSRA BKN015 FEW030CB PROB30 0603/0606 TS SCT010 FEW025CB TEMPO 0606/0612 BKN010 TEMPO 0615/0622 12010KT 3000 TSRA BKN010 FEW035CB RMK PGU", "TAF SBFI 052200Z 0600/0624 15005KT 6000 SCT015 TN20/0609Z TX27/0617Z BECMG 0602/0603 09006KT BECMG 0608/0610 8000 BKN025 BECMG 0614/0616 9999 SCT025 FEW035TCU RMK PEC", "TAF SBFL 052200Z 0600/0624 33007KT 9999 SCT025 TN21/0609Z TX27/0617Z BECMG 0603/0605 33005KT 7000 -RA BKN015 BECMG 0606/0608 9999 NSW SCT012 BKN030 BECMG 0612/0614 01008KT BKN015 RMK PEC", "TAF SBGO 052050Z 0600/0624 13005KT CAVOK TN18/0609Z TX31/0619Z TEMPO 0600/0608 VRB02KT BECMG 0610/0612 07010KT BECMG 0613/0615 SCT040 BECMG 0620/0622 13005KT CAVOK RMK PGG", "TAF SBGR 0600/0706 15006KT 8000 SCT015 TN18/0608Z TX28/0618Z BECMG 0600/0602 11004KT BKN014 BECMG 0604/0606 08006KT 4000 BR BKN010 PROB30 0609/0611 2000 BCFG BR BKN003 BECMG 0611/0613 CAVOK BECMG 0615/0617 15006KT BECMG 0619/0621 SCT015 BECMG 0621/0623 BKN012 TEMPO 0700/0706 6000 FEW006 RMK PGQ", "TAF SBGW 051500Z 0518/0606 03007KT 9999 SCT025 TX24/0518Z TN21/0605Z BECMG 0601/0602 3000 BR RMK PEC", "TAF SBIH 052100Z 0600/0612 00000KT 7000 BKN017 FEW025TCU TN22/0608Z TX31/0612Z PROB40 0609/0612 4500 SHRA RMK PGU", "TAF SBIL 052050Z 0600/0612 24005KT 9999 SCT020 TX26/0600Z TN24/0608Z PROB30 0608/0612 SHRA SCT020 FEW023TCU RMK PGG", "TAF SBIZ 052100Z 0600/0612 00000KT 8000 SCT010 TN22/0608Z TX26/0612Z PROB40 0608/0612 2500 BR BKN005 RMK PGU", "TAF SBJE 052100Z 0600/0612 06010KT 9999 SCT020 TN25/0607Z TX30/0612Z RMK PHD", "TAF SBJV 052200Z 0600/0612 12009KT 7000 BKN015 TN17/0609Z TX26/0612Z BECMG 0603/0605 BKN010 BECMG 0610/0611 9999 SCT013 RMK PEC", "TAF SBKG 052100Z 0600/0612 10010KT 1000 BR BKN005 TN22/0606Z TX26/0612Z BECMG 0610/0612 9999 NSW BKN015 RMK PHD", "TAF SBKP 0600/0624 14014KT CAVOK TN18/0609Z TX30/0618Z BECMG 0603/0605 11010KT TEMPO 0607/0611 6000 NSC BECMG 0616/0618 28006KT SCT030 BECMG 0619/0621 12011KT CAVOK RMK PGQ", "TAF SBMA 052100Z 0600/0612 00000KT 8000 TS SCT020 FEW025CB TN23/0608Z TX28/0612Z BECMG 0604/0606 9999 NSW SCT012 RMK PGU", "TAF SBME 052100Z 0600/0612 32005KT 9999 FEW020 TN20/0608Z TX26/0612Z PROB30 0608/0611 0500 FG BKN002 RMK PHD", "TAF SBMN 052200Z 0600/0612 10008KT 7000 SCT020 FEW030TCU TN24/0609Z TX27/0612Z BECMG 0602/0604 9999 SCT030 RMK PEC", "TAF SBMQ 052100Z 0600/0624 03005KT 9999 SCT020 TN24/0608Z TX29/0616Z BECMG 0603/0605 33005KT SCT012 TEMPO 0606/0612 4000 RA BR BKN006 BECMG 0613/0615 03007KT BKN020 FEW030TCU PROB40 0618/0622 07010KT 4000 TSRA BKN012 FEW030CB RMK PGU", "TAF SBNF 052200Z 0600/0624 20005KT 7000 BKN005 TN21/0609Z TX27/0617Z BECMG 0601/0603 30005KT 8000 BKN003 BECMG 0605/0607 25005KT 4000 BR BKN008 BECMG 0609/0611 30006KT 8000 -RA SCT008 BKN020 BECMG 0613/0615 9999 FEW025 BECMG 0621/0622 01006KT SCT015 RMK PEC", "TAF SBNT 052100Z 0600/0612 11010KT 9999 BKN020 TN24/0607Z TX28/0612Z BECMG 0602/0604 18005KT BECMG 0610/0612 11010KT RMK PHD", "TAF SBOI 052100Z 0600/0612 00000KT 7000 SCT015 TN22/0608Z TX27/0612Z TEMPO 0609/0612 3500 RA BKN010 FEW020TCU RMK PGU", "TAF SBPA 052200Z 0600/0624 08007KT 3000 -RA BR BKN005 TN19/0608Z TX25/0618Z TEMPO 0603/0606 4000 RA BKN006 BKN017 BECMG 0610/0611 SCT013 BKN025 BECMG 0614/0616 BKN035 PROB40 TEMPO 0619/0621 4000 SHRA SCT008 FEW035TCU RMK PEC", "TAF AMD SBPK 051830Z 0520/0618 10007KT 3000 -RA BKN012 TN20/0609Z TX23/0616Z BECMG 0600/0602 07009KT 7000 -RA BKN005 BKN017 BECMG 0609/0610 02005KT SCT010 BKN020 BECMG 0614/0616 BKN015 FEW030TCU RMK PEC", "TAF SBPV 052100Z 0600/0624 18003KT 7000 BKN030 FEW035TCU TN23/0610Z TX28/0618Z TEMPO 0606/0613 2500 BR BKN005 PROB40 0615/0622 4000 SHRA BKN012 FEW030TCU RMK PGU", "TAF SBRB 052100Z 0600/0612 15005KT 7000 BKN015 TN22/0608Z TX25/0612Z BECMG 0607/0609 3000 BR BKN005 RMK PGU", "TAF SBSC 052200Z 0600/0612 30008KT 9999 SCT020 TN22/0609Z TX26/0612Z PROB30 0609/0612 2000 BR SCT010 RMK PEC", "TAF SBSJ 051730Z 0600/0612 18007KT 8000 SCT012 TN17/0608Z TX21/0611Z BECMG 0601/0603 VRB03KT 6000 BKN010 PROB30 0608/0611 4000 BR RMK PGL", "TAF SBSM 052200Z 0600/0612 01009KT 7000 -RA BKN007 TN19/0609Z TX25/0612Z TEMPO 0601/0605 3500 RA BR BKN015 RMK PEC", "TAF SBSN 052100Z 0600/0624 16005KT 9999 SCT020 FEW025TCU TN24/0609Z TX29/0618Z PROB30 0600/0603 TS FEW030CB BECMG 0608/0610 08010KT SCT013 BECMG 0614/0616 8000 SCT020 FEW025TCU RMK PGU", "TAF SBSP 051730Z 0600/0612 10005KT 7000 SCT012 TN18/0608Z TX20/0611Z PROB30 0608/0611 3000 BR BKN006 RMK PGL", "TAF SBSV 052050Z 0600/0624 13007KT 8000 SCT020 TN25/0608Z TX28/0619Z BECMG 0610/0612 8000 RA BKN017 FEW023TCU BECMG 0614/0616 9999 SHRA SCT020 FEW025TCU BECMG 0617/0619 NSW SCT023 RMK PGG", "TAF SBTF 052100Z 0600/0612 07005KT 7000 SCT015 FEW025TCU TN22/0608Z TX26/0612Z PROB40 0600/0602 31005KT 4000 TSRA BKN012 FEW025CB RMK PGU", "TAF SBTT 052100Z 0600/0624 31005KT 9999 SCT020 FEW025TCU TN24/0610Z TX30/0618Z PROB40 0600/0603 4000 TSRA BKN015 FEW030CB BECMG 0608/0610 05003KT 4000 RA BR BKN006 BECMG 0612/0614 31005KT 7000 NSW SCT012 TEMPO 0618/0621 17007KT 4000 TSRA BKN015 FEW030CB RMK PGU", "TAF SBUG 051500Z 0518/0606 08007KT 7000 -RA BKN010 BKN020 TX20/0518Z TN17/0605Z PROB30 TEMPO 0519/0522 5000 RA BKN007 PROB40 0602/0605 3500 BR BKN005 RMK PEC", "TAF SBUL 052050Z 0600/0612 10005KT CAVOK TX22/0600Z TN17/0609Z RMK PGG", "TAF SBUR 052050Z 0600/0612 06005KT CAVOK TX23/0600Z TN19/0609Z RMK PGG", "TAF SBVH 052100Z 0600/0612 08005KT 9999 SCT025 FEW035TCU TN22/0608Z TX25/0612Z BECMG 0608/0610 2000 BR BKN006 RMK PGU", "TAF SBYS 052200Z 0600/0612 16009KT CAVOK TN16/0609Z TX21/0612Z PROB40 0607/0611 2000 BR OVC002 RMK PEC", "TAF SCAR 052220Z 0600/0624 21004KT 9999 OVC035 TN19/0610Z TX22/0618Z BECMG 0616/0618 21012KT CAVOK BECMG 0622/0624 21004KT", "TAF SCAT 052229Z 0600/0624 24004KT CAVOK TN12/0610Z TX17/0618Z BECMG 0602/0604 OVC012 BECMG 0606/0608 36004KT BECMG 0615/0617 27010KT CAVOK BECMG 0622/0624 22004KT", "TAF SCBA 052255Z 0600/0624 29020G30KT 9999 BKN030 TN08/0609Z TX14/0618Z BECMG 0612/0614 BKN045 OVC100 BECMG 0617/0619 30015KT", "TAF SCCF 052220Z 0600/0624 24010KT CAVOK TN05/0610Z TX22/0619Z BECMG 0606/0608 11010KT BECMG 0615/0617 29025KT TEMPO 0617/0621 29025G40KT 5000 BLDU", "TAF SCCI 052229Z 0600/0700 29015KT 7000 -RA SCT025 BKN038 TN05/0610Z TX10/0618Z TEMPO 0600/0604 4000 RA BR SCT010 BKN015 BECMG 0605/0607 23015G25KT 9000 NSW FEW015 BECMG 0614/0616 27020KT SCT040 BECMG 0621/0623 30028G38KT", "TAF SCDA 052220Z 0600/0624 20014KT 9999 OVC035 TN18/0610Z TX21/0618Z BECMG 0603/0605 21007KT BECMG 0614/0616 21017KT SCT035", "TAF SCEL 052230Z 0600/0700 19005KT CAVOK TX19/0618Z TN06/0610Z BECMG 0605/0607 VRB02KT 7000 NSC TEMPO 0608/0613 4000 BR BECMG 0615/0617 20010KT", "TAF SCFA 052225Z 0600/0624 20012KT CAVOK TN12/0606Z TX17/0618Z BECMG 0602/0604 20004KT TEMPO 0608/0612 BKN015 BECMG 0616/0618 20014KT", "TAF SCIE 052230Z 0600/0700 22005KT CAVOK TX17/0618Z TN07/0610Z TEMPO 0606/0615 VRB02KT 3000 BR BKN002 BECMG 0617/0619 21010KT 9999 FEW010", "TAF SCIP 052201Z 0600/0700 04008KT 9999 SCT010 BKN030 TX24/0619Z TN20/0610Z TEMPO 0600/0606 5000 SHRA SCT008 BKN020 BKN035 TEMPO 0611/0616 5000 SHRA SCT008 BKN020 BKN035 BECMG 0617/0619 35015KT SCT015 BKN035", "TAF SCQP 052255Z 0600/0624 26005KT CAVOK TN06/0611Z TX17/0619Z BECMG 0603/0605 VRB02KT 0300 FG OVC001 BECMG 0615/0617 19008KT 9999 NSW OVC008 BECMG 0618/0620 OVC020", "TAF SCSE 052229Z 0600/0700 28007KT 9999 FEW020 TX17/0618Z TN11/0610Z BECMG 0602/0604 VRB02KT SCT008 BKN010 TEMPO 0608/0614 4000 BR BKN003 OVC007 BECMG 0614/0616 29010KT FEW010 SCT020 BECMG 0621/0623 13004KT BKN010", "TAF SCTE 052255Z 0600/0624 18011KT 9999 SCT002 OVC004 TN08/0606Z TX15/0618Z BECMG 0602/0604 18005KT 1200 BR OVC002 BECMG 0614/0616 9999 NSW OVC010 BECMG 0616/0618 BKN030 OVC070 BECMG 0619/0621 20007KT", "TAF SCVM 052230Z 0600/0700 16004KT 9999 SCT008 BKN012 TX16/0618Z TN07/0610Z TEMPO 0607/0613 VRB02KT 3000 BR BKN003 OVC005 BECMG 0614/0616 28010KT 9999 FEW010 SCT020 BECMG 0621/0623 17005KT FEW015", "SEGU 052210Z 0600/0624 22008KT 9999 BKN023 BKN100 BECMG 0606/0608 FEW010 BKN020 BKN090 BECMG 0612/0614 03005KT SCT023 SCT100 TX31/0618Z TN25/0610Z", "SELT 052210Z 0600/0624 18006KT 9999 SCT030 BECMG 0604/0606 FEW010 BKN030 BECMG 0612/0614 18015KT SCT030 SCT100 TX18/0619Z TN08/0611Z", "SEMT 052210Z 0600/0624 22005KT 9999 BKN020 BKN100 PROB30 TEMPO 0602/0604 8000 TSRA FEW016CB BKN020 BKN100 BECMG 0612/0614 31008KT SCT030 SCT100 BECMG 0620/0622 21005KT TX30/0618Z TN25/0610Z", "SEQM 052210Z 0600/0624 06005KT 9999 FEW026 SCT100 BKN300 BECMG 0603/0605 VRB03KT SCT010 BKN023 BECMG 0611/0613 SCT030 SCT100 BECMG 0616/0618 36012KT TX25/0619Z TN10/0611Z", "TAF SGAS 052150Z 0600/0700 VRB06KT 9000 -DZ OVC006 TX21/0619Z TN17/0610Z BECMG 0606/0609 5000 DZ BR BECMG 0619/0621 9999 OVC015", "TAF SGCO 052150Z 0600/0700 36006KT 9999 SCT030 TX24/0619Z TN18/0610Z BECMG 0608/0610 9000 OVC015 BECMG 0615/0618 VRB08KT BKN030", "TAF SGEN 052150Z 0600/0700 24006KT 9000 SCT030 TX21/0619Z TN17/0610Z BECMG 0606/0609 3000 DZ BR OVC006", "TAF SGES 052150Z 0600/0700 VRB06KT 9999 SCT030 TX26/0619Z TN19/0610Z TEMPO 0606/0612 2000 BR OVC010 BECMG 0615/0618 9999 BKN030", "TAF SKAR 052230Z 0600/0624 00000KT 9999 SCT020 BECMG 0619/0620 SCT025TCU TEMPO 0621/0624 TS SCT023CB TX30/0619Z TN18/0611Z", "TAF SKBG 052230Z 0600/0624 VRB03KT 9999 SCT015 BECMG 0616/0618 32008KT FEW020 PROB40 TEMPO 0619/0623 TS SCT015CB TX29/0619Z TN20/0610Z", "TAF SKBO 052230Z 0600/0624 08005KT 9999 FEW015 BECMG 0616/0618 14012KT SCT020 TX20/0618Z TN09/0611Z", "TAF SKBQ 052230Z 0600/0624 02014KT 9999 FEW015 BECMG 0605/0607 01004KT TEMPO 0610/0612 04015G25KT BECMG 0617/0619 04012KT TX34/0618Z TN27/0609Z", "TAF SKCC 052230Z 0600/0624 18010KT SCT015 BECMG 0616/0618 11010G23KT SCT023 TX37/0619Z TN26/0611Z", "TAF SKCG 052230Z 0600/0624 01015KT 9999 FEW017 BECMG 0606/0608 04005KT BECMG 0616/0618 34015KT TX34/0618Z TN27/0609Z", "TAF SKCL 052230Z 0600/0624 VRB04KT 9999 SCT020 BECMG 0619/0620 33012KT SCT020TCU TX32/0620Z TN19/0611Z", "TAF SKLT 052230Z 0600/0624 VRB02KT 9999 SCT010 PROB40 TEMPO 0610/0615 3000 TSRA BKN015CB TX30/0618Z TN23/0611Z", "TAF SKPE 052230Z 0600/0624 12006KT 9999 SCT020 BECMG 0619/0620 SCT023TCU TEMPO 0621/0624 TS SCT020CB TX30/0619Z TN18/0611Z", "TAF SKRG 052230Z 0600/0624 VRB02KT 9999 SCT010 BECMG 0613/0615 15010KT SCT020 TX24/0619Z TN12/0611Z", "TAF SKSM 052230Z 0600/0624 03013KT 9999 FEW020 BECMG 0605/0607 06003KT BECMG 0618/0620 02013KT TX36/0619Z TN26/0611Z", "TAF SKSP 052230Z 0600/0624 06010KT 9999 FEW016 TX33/0619Z TN28/0610Z", "TAF SLAL 052200Z 0600/0624 02012KT 9999 SCT012 BKN070 TX16/0619Z TN09/0610Z BECMG 0602/0604 00000KT SCT010 BKN070 TEMPO 0607/0609 8000 RA BECMG 0615/0617 01012KT FEW020 SCT070", "TAF SLCB 052200Z 0600/0624 13010KT 9999 SCT030 BKN070 TX24/0619Z TN13/0610Z BECMG 0603/0605 00000KT BECMG 0609/0612 8000 RA SCT027 OVC070 BECMG 0614/0616 9999 NSW FEW030 SCT070", "TAF SLCO 052200Z 0600/0624 00000KT 9999 BKN008 BKN070 TX28/0619Z TN22/0610Z TEMPO 0609/0612 3000 BR BKN003 BECMG 0613/0615 10008KT BKN015 BKN080 PROB40 TEMPO 0618/0622 8000 TSRA FEW023CB", "TAF SLET 052200Z 0600/0624 VRB02KT 9999 BKN007 FEW030CB OVC070 TX17/0619Z TN14/0610Z BECMG 0603/0606 19012KT 6000 TSRA BKN010 FEW030CB OVC070 TEMPO 0608/0612 3000 RA BKN005 OVC010 BECMG 0618/0620 VRB02KT 8000 RA BKN015", "TAF SLLP 052200Z 0600/0624 11008KT 3000 RA BKN008 OVC070 TX13/0619Z TN02/0610Z BECMG 0602/0604 2000E BCFG BECMG 0612/0614 12010KT 9999 NSW SCT015 FEW017CB SCT070 TEMPO 0618/0622 5000 TSRA FEW020CB BKN080", "TAF SLTJ 052200Z 0600/0624 00000KT 9999 BKN020 BKN070 TX19/0619Z TN10/0610Z BECMG 0614/0616 15010KT SCT025 SCT070", "TAF SLTR 052200Z 0600/0624 VRB02KT 9999 BKN010 BKN070 TX27/0619Z TN19/0610Z TEMPO 0609/0612 6000 RA BR BKN003 BECMG 0613/0615 14011KT SCT017 BKN080 TEMPO 0618/0621 7000 TSRA FEW020CB", "TAF SLVR 052200Z 0600/0624 VRB02KT 9999 BKN010 FEW030CB OVC070 TX17/0619Z TN14/0610Z BECMG 0604/0607 18012KT 6000 TSRA BKN010 FEW030CB OVC070 TEMPO 0608/0612 3000 RA BKN005 OVC010 BECMG 0618/0620 VRB02KT 8000 RA BKN015", "TAF SLYA 052200Z 0600/0624 00000KT 9999 OVC070 TX23/0619Z TN13/0610Z BECMG 0614/0616 SCT020", "TAF SMJP 052200Z 0600/0624 03005KT 9999 FEW010 SCT020 TX30/0616Z TN23/0609Z TEMPO 0616/0622 4000 SHRA FEW008 FEW015CB BKN020 PROB30 TEMPO 0617/0619 TS", "TAF SMZO 052200Z 0600/0624 03005KT 9999 FEW010 SCT020 TX30/0616Z TN24/0609Z TEMPO 0616/0622 4000 SHRA FEW008 FEW015CB BKN020", "TAF SOCA 052300Z 0600/0624 VRB02KT 9999 SCT020 TEMPO 0603/0624 2000 SHRA SCT010 BKN015TCU BECMG 0613/0615 08012KT BECMG 0622/0624 VRB02KT ", "TAF SPCL 052300Z 0600/0624 02005KT 9999 SCT015 BKN100 TX33/0619Z TN22/0611Z TEMPO 0600/0604 DZ TEMPO 0609/0613 3000 BCFG BKN010 BKN080 TEMPO 0619/0623 10015KT 4000 SHRA BKN010 FEW025CB BKN080", "TAF SPEO 051700Z 0518/0618 20018KT 9999 SCT009 TX28/0519Z TN21/0611Z BECMG 0603/0607 19008KT BECMG 0615/0618 20018KT", "TAF SPGM 051705Z 0518/0618 31007KT 9999 FEW025 BKN090 TX31/0519Z TN21/0611Z TEMPO 0612/0614 4000 BR BKN020", "TAF SPHI 052300Z 0600/0624 19016KT 9999 SCT030 BKN080 TX30/0619Z TN22/0611Z BECMG 0603/0606 18008KT TEMPO 0611/0613 VRB02KT 4500 BR BKN010 FM061730 19016KT CAVOK", "TAF SPHO 051700Z 0518/0618 VRB02KT 9999 SCT040TCU BKN090 TX22/0519Z TN10/0611Z TEMPO 0518/0520 17015KT RA BECMG 0600/0602 FEW030", "TAF SPJC 052310Z 0600/0624 17012KT CAVOK TX23/0619Z TN20/0611Z FM060300 18002KT 9999 OVC009 BECMG 0614/0616 19012KT OVC020", "TAF SPJI 051700Z 0518/0618 12004KT 9999 SCT020 BKN100 TX32/0520Z TN22/0611Z TEMPO 0610/0613 4000 BCFG BKN010", "TAF SPJJ 051700Z 0518/0618 30005KT 9999 FEW040 SCT060 TX21/0520Z TN03/0611Z TEMPO 0518/0523 08015KT FEW040TCU SCT070", "TAF SPJL 051700Z 0518/0618 27008KT 9999 BKN017 TX18/0519Z TN01/0610Z TEMPO 0522/0601 RA BKN012 BKN080 FM060200 30004KT FEW020 BKN080", "TAF SPJR 051705Z 0518/0618 06008KT 9999 FEW025 BKN050 TX22/0519Z TN08/0611Z TEMPO 0521/0524 16015KT", "TAF SPLO 051700Z 0518/0618 22007KT 9999 SCT040 TX25/0519Z TN17/0610Z FM060100 14006KT 9999 BKN030", "TAF SPME 052300Z 0600/0624 27004KT 9999 BKN012 TX32/0618Z TN23/0611Z BECMG 0603/0607 SCT014 BKN020 BECMG 0610/0613 VRB02KT BECMG 0613/0616 33008KT", "TAF SPMS 051700Z 0518/0618 36005KT 9999 FEW015 SCT080 TX33/0520Z TN23/0611Z TEMPO 0601/0605 4000 SHRA BKN010 FEW025TCU BKN080 TEMPO 0610/0612 00000KT 3000 BR BKN008 BKN060", "TAF SPNC 051705Z 0518/0618 06008KT 9999 FEW040 SCT100 TX29/0519Z TN15/0611Z", "TAF SPPY 051700Z 0518/0618 07004KT 9999 SCT010 BKN050 TX18/0519Z TN10/0611Z TEMPO 0520/0624 10015KT 5000 SHRA SCT010 FEW025TCU BKN040 TEMPO 0610/0613 1000 BCFG OVC008", "TAF SPQT 052300Z 0600/0624 28005KT 9999 SCT015 BKN080 TX32/0619Z TN23/0611Z TEMPO 0600/0604 15015KT 4000 SHRA BKN010 FEW025TCU BKN080 TEMPO 0608/0612 4000 RA BKN004 BKN080 BECMG 0613/0616 02005KT BKN015 SCT100 TEMPO 0619/0623 10015KT 3000 SHRA BKN010 FEW025TCU BKN080", "TAF SPQU 052300Z 0600/0624 27005KT 9999 SCT090 SCT130 TX23/0618Z TN12/0610Z FM061000 03002KT 9999 SCT090 FM062100 27008KT 9999 BKN100", "TAF SPRU 052300Z 0600/0624 16009KT 6000 BKN050 TX27/0619Z TN21/0611Z TEMPO 0606/0609 4500 BR TEMPO 0611/0613 4000 BR BKN014", "TAF SPSO 052300Z 0600/0624 21009KT CAVOK TX24/0619Z TN17/0611Z FM060600 VRB03KT 4500 BR FU SCT012 TEMPO 0609/0612 2500 BR BKN012 BECMG 0613/0615 27005KT 7000 NSW FEW017 BECMG 0618/0619 22015KT CAVOK", "TAF COR SPST 052320Z 0600/0624 VRB02KT 9999 FEW020 TX33/0620Z TN22/0611Z TEMPO 0611/0614 4000 BR BKN010 BECMG 0617/0619 17012KT BECMG 0621/0623 VRB02KT", "TAF SPTN 052300Z 0600/0624 23003KT 9999 OVC030 TX22/0618Z TN15/0610Z FM061800 22010KT 9999 BKN030", "TAF SPTU 051700Z 0518/0618 VRB04KT 9999 OCV012 TX24/0520Z TN19/0611Z TEMPO 0519/0522 14015KT RA", "TAF SPUR 052300Z 0600/0624 19010KT 9999 SCT030 BKN090 TX33/0619Z TN23/0611Z FM060630 VRB03KT CAVOK FM062030 19012KT CAVOK", "TAF SPYL 052300Z 0600/0624 20012KT 9999 BKN040 TX32/0619Z TN22/0611Z FM061030 12016KT CAVOK BECMG 0616/0619 22013KT", "TAF SPZO 052300Z 0600/0624 10010KT 9999 FEW030 SCT040 OVC080 TX18/0619Z TN06/0611Z BECMG 0601/0603 28004KT TEMPO 0609/0611 7500 RA FEW020 SCT036 OVC080 TEMPO 0618/0623 RA FEW040TCU SCT050 BKN080", "TAF SUAA 052340Z 0600/0624 10012KT 9999 FEW020 BKN070 TX19/0618Z TN16/0610Z TEMPO 0600/0612 11015G25KT 3000 RADZ BR BKN010 OVC060 PROB40 TEMPO 0609/0615 3000 TSRA BR BKN008 FEW040CB OVC060 BECMG 0614/0616 01010KT 6000 DZ BKN005", "TAF SUCA 052340Z 0600/0624 12015KT 5000 RADZ BKN010 BKN070 TX19/0618Z TN16/0610Z TEMPO 0600/0612 12018G28KT 3000 RADZ BR BKN005 OVC060 PROB40 TEMPO 0602/0610 2000 TSRA BR BKN005 FEW040CB OVC060 BECMG 0615/0619 34010KT", "TAF SUDU 052340Z 0600/0624 09015KT 4000 RADZ BKN005 OVC070 TX20/0618Z TN16/0610Z TEMPO 0600/0612 11015G25KT 2000 RADZ BR OVC004 PROB40 TEMPO 0604/0612 2000 TSRA BR BKN005 FEW040CB OVC060 BECMG 0615/0619 34010KT", "TAF SULS 052340Z 0600/0624 09012KT 9999 FEW020 BKN070 TX19/0618Z TN15/0610Z TEMPO 0600/0612 11015G25KT 3000 RADZ BR BKN010 OVC060 PROB40 TEMPO 0610/0616 3000 TSRA BR BKN008 FEW040CB OVC060 BECMG 0616/0618 01012KT 6000 DZ BKN005", "TAF SUMU 052340Z 0600/0624 10012KT 9999 FEW020 BKN070 TX19/0618Z TN16/0610Z TEMPO 0600/0612 11015G25KT 3000 RADZ BR BKN010 OVC060 PROB40 TEMPO 0609/0615 3000 TSRA BR BKN008 FEW040CB OVC060 BECMG 0614/0616 01010KT 6000 DZ BKN005", "TAF SURV 052340Z 0600/0624 04010KT 2000 RADZ BR OVC008 TX20/0618Z TN17/0610Z TEMPO 0600/0612 0800 FG OVC003 PROB40 TEMPO 0614/0622 3000 TSRA BR BKN010 FEW040CB BKN060", "TAF SUSO 052340Z 0600/0624 03007KT 6000 BKN008 OVC070 TX21/0618Z TN17/0610Z TEMPO 0600/0609 2000 RADZ BR OVC005 PROB40 TEMPO 0604/0612 2000 TSRA BR BKN005 FEW040CB OVC060", "TAF SVBC 052200Z 0600/0700 07012KT 9999 SCT013 TX33/0619Z TN23/0607Z BECMG 0608/0612 05002KT 9999 SCT060", "TAF SVJC 052200Z 0600/0700 07015KT 9999 SCT016 TX33/0619Z TN24/0607Z BECMG 0601/0605 06004KT 9000 DZ BKN013", "TAF SVMC 052200Z 0600/0700 06007KT 9999 SCT016 TX33/0619Z TN22/0608Z BECMG 0603/0607 05002KT 9000 DZ BKN013", "TAF SVMG 052200Z 0600/0700 07015KT 9999 SCT016 TX33/0618Z TN23/0608Z BECMG 0604/0608 08011KT 9999 SCT080", "TAF SVMI 052200Z 0600/0700 12005KT 9999 SCT016 TX33/0618Z TN22/0607Z BECMG 0605/0609 02003KT 9999 SCT080", "TAF SVPR 052200Z 0600/0700 07003KT 9999 SCT016 TX33/0619Z TN24/0607Z BECMG 0607/0611 02006KT 9000 DZ BKN013", "TAF SVSA 052200Z 0600/0700 12003KT 9999 SCT016 TX30/0618Z TN16/0608Z BECMG 0602/0606 06004KT 9999 SCT080", "TAF SVVA 052200Z 0600/0700 18005KT 9999 SCT020 SCT080 TX32/0619 TN22/0609 BECMG 0603/0606 09005KT BKN020 FM 060630 00000KT 9999 SCT020 BKN100", "TAF SYCJ 052300Z 0600/0624 05004KT 9999 FEW019 TEMPO 0607/0611 04008KT 5000 SHRA BKN015 BKN032 BECMG 0611/0613 06012KT 9999 SCT018 SCT090", "TAF SYEC 052300Z 0600/0624 05006KT 9999 FEW018 TEMPO 0608/0612 04008KT 5000 SHRA BKN015 BKN032 BECMG 0612/0614 06012KT 9999 SCT018 SCT090 ", "TAF TAPA 052300Z 0600/0624 12008KT 9999 SCT022", "TAF TBPB 052300Z 0600/0624 11015KT 9999 SCT020", "TAF TDPD 052300Z 0600/0624 12010KT 9999 SCT018", "TAF TFFF 052300Z 0600/0624 08005KT 9999 SCT035 BECMG 0610/0612 10015KT", "TAF TFFR 052300Z 0600/0624 VRB02KT 9999 FEW035 BECMG 0611/0612 13012KT BECMG 0622/0624 VRB02KT", "TGPY 052200Z 0600/0624 09014KT 9999 FEW020 BECMG 0610/0612 09018G28KT SCT018", "TIST 052333Z 0600/0624 14006KT P6SM SKC FM061400 14012KT P6SM FEW035 FM062300 08006KT P6SM FEW030", "TISX 052333Z 0600/0624 12004KT P6SM FEW025 FM061400 12011KT P6SM SCT025 SCT050 FM061630 13012KT P6SM VCSH SCT035 FM061900 12010KT P6SM FEW030 FM062330 08008KT P6SM FEW028", "TJBQ 052333Z 0600/0624 VRB04KT P6SM FEW025 SCT050 BKN080 FM060400 12002KT P6SM SCT090 FM061400 03009KT P6SM SCT025 SCT050 FM061820 01007KT P6SM VCSH SCT024 BKN040 BKN070 FM062230 07005KT P6SM VCSH FEW025 SCT050 SCT080", "TJPS 052333Z 0600/0624 10004KT P6SM FEW040 SCT100 FM060200 00000KT P6SM FEW100 FM061400 15014G20KT P6SM FEW035 FM062200 12009KT P6SM SCT045", "TJSJ 052333Z 0600/0624 17007KT P6SM SCT090 FM061400 12011KT P6SM FEW030 FM061700 07012G18KT P6SM FEW040 FM062100 10010G16KT P6SM FEW035 SCT090", "TAF TKPK 052300Z 0600/0624 12010KT 9999 SCT022", "TAF TKPN 051700Z 0518/0618 13014KT 9999 SCT022", "TAF TLPC 052300Z 0600/0624 10008KT 9999 SCT025", "TAF TLPL 052300Z 0600/0624 09017KT 9999 SCT025", "TAF TNCA 060008Z 0600/0624 09021KT 9999 FEW018", "TAF TNCB 052322Z 0600/0706 09021KT 9999 SCT018", "TAF TNCC 052315Z 0600/0624 10015KT 9999 FEW018", "TNCM 052200Z 0600/0624 11008KT 9999 FEW020 ", "TAF TQPF 051700Z 0518/0618 15010KT 9999 SCT022", "TAF TRPG 051700Z 0518/0618 13014KT 9999 SCT022", "TAF TTCP 052200Z 0600/0624 07005KT 9999 FEW016 BECMG 0612/0614 10015KT 9999 FEW020", "TAF TTPP 052200Z 0600/0624 09003KT 9999 FEW016 BECMG 0612/0614 10015KT 9999 SCT020", "TAF TUPJ 052300Z 0600/0624 14008KT 9999 SCT022", "TAF TVSA 052300Z 0600/0624 08010KT 9999 SCT020", "TAF TXKF 052336Z 0600/0624 30015KT 9999 VCSH FEW035 SCT060 PROB30 TEMPO 0600/0612 31015G25KT 6000 SHRA BKN025 ", "TAF UAAA 052301Z 0600/0624 02003G08MPS 9999 FEW100 TX19/0610Z TN02/0601Z TEMPO 0603/0614 07005G14MPS BECMG 0614/0615 16003MPS TEMPO 0614/0624 21003MPS", "TAF UACC 052303Z 0600/0624 10004MPS CAVOK TX25/0609Z TN05/0601Z TEMPO 0605/0612 06004MPS BKN040", "TAF UADD 052300Z 0600/0609 21003G08MPS 9999 NSC", "TAF UAII 052300Z 0600/0624 26005G10MPS 7000 SCT040 TX21/0610Z TN11/0601Z TEMPO 0600/0603 12003G08MPS TEMPO 0603/0612 29008G15MPS BKN040CB", "TAF COR UAIT 052301Z 0600/0609 07013G18MPS CAVOK TEMPO 0600/0606 09015G22MPS", "TAF UAKK 052300Z 0600/0624 10003MPS 9999 SCT030 BKN100 TX23/0610Z TNM03/0601Z BECMG 0603/0605 07005MPS TEMPO 0605/0612 08008MPS", "TAF UAOO 052300Z 0600/0609 10009G14MPS CAVOK TEMPO 0604/0609 16006MPS", "TAF UARR 052259Z 0600/0609 17006MPS 9999 SCT033 TEMPO 0600/0603 13006MPS TEMPO 0603/0609 15006G12MPS", "TAF UASK 052300Z 0600/0609 09004MPS 9999 SCT100 TEMPO 0600/0606 12003MPS 3100 BR FEW006 TEMPO 0606/0609 35006G11MPS SCT040", "TAF UASP 052300Z 0600/0609 29003G08MPS CAVOK TEMPO 0600/0603 3100 FU BKN011", "TAF UASS 052306Z 0600/0609 09005MPS 9999 SCT040 SCT100 TEMPO 0600/0604 VRB02MPS", "TAF UATE 052300Z 0600/0624 VRB03MPS 3100 BR BKN005 TX18/0610Z TN09/0603Z TEMPO 0600/0605 0200 FG VV001 BECMG 0605/0607 9999 NSW SCT025CB BECMG 0608/0610 28006MPS", "TAF UATG 052300Z 0600/0624 03005MPS 9999 SCT033 TX24/0612Z TN10/0602Z TEMPO 0606/0610 10005MPS BECMG 0610/0612 23008MPS", "TAF UATT 052300Z 0600/0624 13003MPS CAVOK TX25/0612Z TN06/0600Z TEMPO 0605/0612 12010MPS", "TAF UAUU 052300Z 0600/0609 18003MPS CAVOK TEMPO 0600/0605 VRB01MPS TEMPO 0605/0609 19007MPS", "TAF UBBB 052258Z 0600/0624 18005KT 3000 BR FEW006 TX22/0610Z TN12/0602Z TEMPO 0600/0604 VRB04KT 0600 FG SCT002 FM060500 19010KT 9999 NSW SCT020 TEMPO 0606/0616 18014KT BECMG 0618/0620 18005KT", "TAF UBBG 052300Z 0600/0624 VRB04KT 6000 FEW040 SCT080 TX24/0612Z TN11/0602Z TEMPO 0602/0605 1200 BR SCT010 BECMG 0606/0608 29008KT", "TAF UBBL 052259Z 0600/0624 13008KT 9999 SCT100 TX21/0610Z TN09/0602Z TEMPO 0600/0604 VRB04KT 2000 BR BCFG SCT004 TEMPO 0606/0612 16014KT TEMPO 0618/0624 4000 BR SCT010", "TAF UBBN 052251Z 0600/0624 VRB04KT 9999 FEW050 SCT100 TX28/0612Z TN07/0603Z TEMPO 0600/0604 05010KT TEMPO 0606/0614 23006KT", "TAF UBBQ 052259Z 0600/0624 VRB04KT 9999 NSC TX21/0610Z TN08/0602Z TEMPO 0600/0604 3000 BR BCFG SCT006 BECMG 0606/0608 16008KT TEMPO 0612/0618 SCT040CB", "TAF UBBY 052300Z 0600/0609 VRB04KT 9999 FEW040 SCT100 TEMPO 0600/0603 13008KT", "TAF UBEE 051700Z 0518/0603 VRB04KT CAVOK", "TAF UCFL 052239Z 0600/0624 34003G08MPS 9999 SCT030CB TEMPO 0600/0605 26007G12MPS BECMG 0605/0606 14003G08MPS TEMPO 0606/0614 09012G17MPS 2000 BLDU FEW005 BECMG 0614/0615 32003G08MPS TEMPO 0614/0618 24003G08MPS", "TAF UCFM 052253Z 0600/0624 06003G08MPS 9999 SCT060CB TEMPO 0600/0603 08003G08MPS 2000 FU TEMPO 0603/0611 04017G22MPS 2000 BLDU FEW003 TEMPO 0611/0616 04012G17MPS 2000 BLDU BECMG 0616/0617 13003G08MPS TEMPO 0616/0624 20003G08MPS 2000 FU", "TAF UCFO 052245Z 0600/0624 30003G08MPS 9999 SCT050CB TEMPO 0600/0606 27007G12MPS PROB40 TEMPO 0606/0612 VRB12MPS TS BECMG 0612/0614 17003G08MPS", "TAF UDSG 052258Z 0600/0624 22006KT 9999 SCT050 TEMPO 0609/0618 VRB16KT FEW040CB BKN040", "TAF UDYZ 052300Z 0600/0624 VRB04KT 9999 NSC", "TAF UEEE 052300Z 0600/0706 18005G10MPS 9999 SCT025CB BKN100 TEMPO 0600/0615 5000 -SHRA SCT007 BKN020CB OVC070", "TAF UERP 052300Z 0600/0624 VRB01MPS 7000 -SHSNRA BKN017CB BKN100 TEMPO 0600/0610 2100 -SHSNRA BR BKN008CB OVC100 BECMG 0610/0612 33004G09MPS", "TAF UERR 052300Z 0600/0624 24006G14MPS 9999 SCT023CB TEMPO 0600/0606 2000 -SHRA BR SCT005 BKN020CB", "TAF UGKO 052300Z 0600/0624 08006KT CAVOK TX25/0610Z TN06/0602Z PROB40 TEMPO 0600/0604 0200 FG VV002 TEMPO 0604/0610 08016KT TEMPO 0610/0614 25010KT BECMG 0612/0614 SCT033CB", "TAF UGSB 052300Z 0600/0624 12010KT CAVOK TX21/0611Z TN10/0602Z PROB40 TEMPO 0602/0606 3000 BR BKN006 BECMG 0605/0607 24007KT TEMPO 0608/0612 BKN100 BECMG 0617/0618 SCT020 PROB40 TEMPO 0618/0624 3000 BR BKN006", "TAF UGTB 052300Z 0600/0624 14005KT CAVOK TX25/0612Z TN12/0602Z BECMG 0618/0620 BKN050CB TEMPO 0622/0624 SHRA SCT020 BKN035CB", "TAF UHBB 052240Z 0600/0624 33003G08MPS 9999 SCT030CB TEMPO 0600/0609 35006G12MPS BECMG 0610/0612 28003MPS", "TAF UHHH 052245Z 0600/0706 35003MPS 9999 SCT020CB", "TAF UHMA 052259Z 0600/0624 14003G08MPS 9999 BKN015 TEMPO 0600/0624 11008G13MPS 5000 -SN BR SCT002 BKN010", "TAF UHMM 052250Z 0600/0706 23003MPS 9999 NSC FM061200 VRB01MPS 0500 FZFG VV003 FM062100 23003MPS 9999 SCT006 BECMG 0623/0701 NSC", "TAF UHPP 052237Z 0600/0706 30003G12MPS 9999 BKN030CB TEMPO 0600/0612 3100 -SHRA BR VV007", "TAF UHSS 052250Z 0600/0706 36003MPS 9999 SCT040CB", "TAF UHWW 052300Z 0600/0624 35003G08MPS 9999 SCT030 TEMPO 0600/0610 36009G14MPS BECMG 0610/0612 06003MPS", "TAF UIAA 052300Z 0600/0624 29008G13MPS 9999 SCT040CB TEMPO 0600/0624 23003G08MPS", "TAF UIBB 052300Z 0600/0624 24004G10MPS 9999 -SHRA BKN001 BKN016CB TEMPO 0600/0603 2900 -SHRA BR BECMG 0603/0604 FEW001 BKN020CB BECMG 0610/0613 30005MPS", "TAF UIII 052300Z 0600/0624 15003MPS CAVOK", "TAF UIUU 052300Z 0600/0624 23005G10MPS 9999 SCT040CB TEMPO 0600/0624 29003G08MPS", "TAF ULLI 052250Z 0600/0624 33003MPS 8000 SCT020 TEMPO 0608/0615 35003G08MPS", "TAF ULMM 052250Z 0600/0624 26003G08MPS 9999 BKN016CB BECMG 0606/0608 33003MPS BECMG 0619/0621 22003G08MPS", "TAF ULOO 052251Z 0600/0609 32003MPS 6000 SCT016 TEMPO 0600/0604 3100 BR TEMPO 0606/0609 32003G08MPS", "TAF ULPB 052252Z 0600/0609 34003G08MPS 6000 BKN016", "TAF ULWC 052200Z 0523/0609 32003G08MPS 9999 SCT011 BKN020 TEMPO 0523/0606 3100 -SHSN SCT005 BKN016CB", "TAF UMBB 052300Z 0600/0609 07003MPS 6000 SCT020 TEMPO 0600/0606 3100 BR", "TAF UMGG 052301Z 0600/0624 32006MPS 6000 BKN007 TX01/0600Z TNM00/0601Z TEMPO 0600/0605 34003MPS 1200 BR BKN004 TEMPO 0608/0615 03006G11MPS", "TAF UMKK 052255Z 0600/0624 08006G13MPS CAVOK", "TAF UMMS 052303Z 0600/0624 04005MPS 9999 BKN020 TX09/0613Z TNM02/0602Z TEMPO 0600/0606 3000 BCFG FEW003 TEMPO 0612/0624 07005G10MPS", "TAF UNAA 052254Z 0600/0624 19003G08MPS 9999 SCT030CB", "TAF UNBB 052300Z 0600/0624 18003G08MPS 9999 SCT040 TEMPO 0600/0607 23008G13MPS TEMPO 0607/0624 12005MPS", "TAF UNEE 052300Z 0600/0624 17003G08MPS 8000 SCT040CB BECMG 0612/0615 12003G08MPS", "TAF UNKL 052254Z 0600/0624 26008G18MPS 9999 BKN016CB TEMPO 0605/0612 4000 -TSRA BECMG 0609/0611 22003G08MPS", "TAF UNNT 052300Z 0600/0624 17003G08MPS 6000 BKN040CB TEMPO 0600/0604 1000 FU BKN016CB PROB40 TEMPO 0604/0615 -TSRA TEMPO 0604/0613 22005G10MPS", "TAF UNOO 052250Z 0600/0624 23003G08MPS 9999 SCT033 BECMG 0604/0606 26003G10MPS", "TAF UNTT 052300Z 0600/0609 18003G08MPS 8000 BKN040CB TEMPO 0600/0606 22005G10MPS BECMG 0606/0608 32005G10MPS", "TAF UNWW 052300Z 0600/0624 18003G08MPS 8000 SCT040 TEMPO 0605/0612 23005G10MPS", "TAF UOOO 052300Z 0600/0624 35008G14MPS 3200 -SHSN BLSN FEW003 BKN016CB TEMPO 0600/0603 6000 -SHSN BLSN BECMG 0603/0605 6000 -SHSN BLSN BECMG 0615/0618 34003G08MPS NSW", "TAF URKA 052245Z 0600/0624 05003G08MPS 6000 SCT016 TEMPO 0600/0606 0200 FG SCT002 BKN016 FM060600 07008G14MPS 9999 SCT020CB", "TAF URKK 052256Z 0600/0624 05003G08MPS 6000 SCT016 TEMPO 0600/0608 24003MPS 1000 BR SCT003 BKN016 FM060800 07008G13MPS 9999 BKN020CB", "TAF URMG 052300Z 0600/0609 VRB01MPS 6000 BKN016 TEMPO 0600/0605 0300 FG OVC002 BECMG 0606/0608 10005G12MPS", "TAF URML 052300Z 0600/0609 30003G08MPS 3100 BR FEW006 SCT015 TEMPO 0600/0606 VRB01MPS 0300 FG BKN001 TEMPO 0606/0609 36003G09MPS", "TAF URMM 052300Z 0600/0624 10003G08MPS 9999 BKN030 TX22/0611Z TN07/0603Z TEMPO 0606/0618 12006G14MPS", "TAF URMN 052300Z 0600/0609 22003G08MPS 9999 SCT030", "TAF URMT 052300Z 0600/0609 09003G08MPS 9999 SCT030 TEMPO 0603/0609 12003G10MPS", "TAF URRP 052255Z 0600/0624 33003G12MPS 9999 SCT020 BECMG 0606/0608 02003G12MPS SCT030CB TEMPO 0608/0624 04006G14MPS 6000 -SHRA SCT016 SCT020CB PROB40 TEMPO 0608/0624 -TSRA", "TAF URSS 052255Z 0600/0624 05003G08MPS 6000 BKN006 TEMPO 0600/0607 VRB01MPS 1000 BR OVC003 FM060700 24003G08MPS 9999 BKN100 BECMG 0608/0609 28005G10MPS SCT050CB OVC100 TEMPO 0609/0615 -SHRA BECMG 0615/0617 05003G08MPS TEMPO 0617/0624 VRB01MPS 2100 BR FEW003", "TAF URWA 052257Z 0600/0609 14003G08MPS 2000 BR FEW011 BKN016 TEMPO 0600/0604 09003G09MPS 0500 FG FEW004 BKN016 BECMG 0604/0606 6000 NSW", "TAF URWW 052258Z 0600/0609 18003G10MPS 6000 BKN016 BKN030CB TEMPO 0600/0606 22005G13MPS -SHRA TEMPO 0606/0609 26006G15MPS -TSRAGR", "TAF USCC 052300Z 0600/0624 21005G10MPS 6000 NSC FM060300 18005G10MPS 9999 NSC", "TAF USCM 052300Z 0600/0609 19005G10MPS 6000 NSC TEMPO 0600/0606 13003G08MPS", "TAF USHH 052247Z 0600/0624 16003G10MPS 6000 BKN016 TEMPO 0600/0604 VRB01MPS 0300 +SHRA FG SCT002 BKN016CB TEMPO 0604/0615 5000 -TSRA SCT003 BKN016CB BECMG 0606/0608 24003G12MPS TEMPO 0615/0624 5000 BR SCT002", "TAF USNN 052250Z 0600/0624 VRB01MPS 6000 -RA FEW007 SCT016 TEMPO 0600/0603 0300 FG VV002 BECMG 0603/0604 14003G08MPS BECMG 0605/0606 9999 NSW SCT020", "TAF USPP 052257Z 0600/0624 20005G14MPS 6000 SCT030 BECMG 0608/0610 BKN016CB BECMG 0613/0615 27003G12MPS -SHRA", "TAF USRR 052255Z 0600/0624 15003MPS 5000 -SHRA BR FEW005 BKN016CB TEMPO 0600/0605 VRB01MPS 0200 FG VV002 BECMG 0605/0606 21003G10MPS 9999 NSW", "TAF USSS 052259Z 0600/0624 19003G14MPS CAVOK", "TAF USTR 052252Z 0600/0624 20005G10MPS 6000 SCT020 TEMPO 0600/0604 1000 FU SCT003 BECMG 0604/0606 22006G14MPS TEMPO 0606/0614 20014MPS BECMG 0614/0616 19004G09MPS", "TAF UTAA 052245Z 0600/0624 26012KT 6000 SCT030 BECMG 0602/0604 02016KT BKN030 TEMPO 0606/0612 32012G22KT SCT050CB", "TAF UTAK 052230Z 0600/0624 26012KT 4000 BR BKN006 BKN100 TEMPO 0600/0603 VRB02KT 0400 FG VV001 BECMG 0604/0605 34014KT 9999 NSW SCT030 BKN100 TEMPO 0605/0607 5000 SCT010 BKN100", "TAF UTAM 052230Z 0600/0624 27016KT 5000 BKN030 SCT050CB BKN100 TEMPO 0600/0604 20010KT 2000 BR BKN005 TEMPO 0604/0612 32012G22KT 4000 -SHRA BKN020 SCT030CB BECMG 0612/0614 02014KT", "TAF UTAT 052230Z 0600/0624 24012KT 6000 SCT050CB BKN070 TEMPO 0600/0606 21010KT 2000 BR OVC005 PROB40 TEMPO 0601/0605 0300 FG VV001 TEMPO 0606/0615 5000 -TSRA SCT050CB", "TAF UTAV 052230Z 0600/0624 26014KT 3000 BR BKN020 SCT030CB TEMPO 0600/0604 20012KT 0400 FG VV001 PROB40 TEMPO 0600/0608 VRB30KT -TSRA", "TAF UTDD 060000Z 0601/0613 27005MPS 3100 HZ SCT015 SCT030CB TEMPO 0601/0613 29007G12MPS 1700 -TSRA HZ", "TAF UTDK 060000Z 0601/0610 21005MPS 5000 HZ SCT015 BKN030CB TEMPO 0601/0610 23007G12MPS 3100 -TSRA HZ", "TAF UTDL 060000Z 0601/0613 24008MPS 6000 BKN050CB OVC080 TEMPO 0601/0613 26009G14MPS 3100 -TSRA BR SCT011 OVC040CB", "TAF UTDT 060000Z 0601/0610 16005MPS 5000 HZ SCT015 BKN030CB TEMPO 0601/0610 18008G13MPS 3100 -TSRA HZ", "TAF UTFF 060000Z 0601/0610 34010KT 7000 SCT060CB", "TAF UTFN 052300Z 0600/0624 14010KT 7000 FEW050CB TEMPO 0608/0616 24014G24KT 4000 -TSRA BR BKN040CB", "TAF UTNN 052300Z 0600/0624 VRB04KT 9999 SCT040 BKN100 TEMPO 0600/0606 22008G18KT -SHRA BKN040CB OVC100", "TAF UTNU 052300Z 0600/0624 VRB04KT 9999 BKN040 BKN100 TEMPO 0600/0607 24010G20KT -SHRA BKN030CB OVC100", "TAF UTSA 052301Z 0600/0624 18012KT 7000 FEW010 SCT040CB TEMPO 0600/0611 VRB05KT 3500 -SHRA BR FEW006 BKN025CB", "TAF UTSB 052301Z 0600/0624 VRB05KT 7000 FEW010 SCT040CB TEMPO 0600/0611 18012KT 3500 -SHRA BR FEW006 BKN025CB", "TAF UTSK 052358Z 0601/0610 25010G20KT 7000 SCT060CB BKN100 TEMPO 0601/0610 VRB24G34KT 3500 -TSRA BR SCT007 BKN040CB", "TAF UTSS 052301Z 0600/0624 27012G22KT 7000 BKN050CB TEMPO 0600/0612 VRB24G34KT 1500 TSRAGR BR SCT007 OVC030CB", "TAF UTST 052300Z 0600/0624 24012G22KT 6000 BKN050CB BKN100 TEMPO 0600/0609 27021G31KT 2400 -TSRA -DS BKN040CB OVC100 TEMPO 0609/0615 33010G20KT", "TAF UTTT 052300Z 0600/0624 32010KT 7000 FEW050CB SCT100 TEMPO 0603/0610 24020G30KT 2100 -DS SCT010 BKN040CB PROB40 TEMPO 0603/0610 -TSRA BKN050CB TEMPO 0610/0622 3000 -SHRA BR SCT010 BKN030CB", "TAF UUBC 052246Z 0600/0609 35003MPS CAVOK", "TAF UUBW 052251Z 0600/0624 31003G08MPS 6000 BKN020 TX09/0612Z TNM01/0603Z PROB40 TEMPO 0600/0605 0300 FZFG TEMPO 0606/0617 33008G15MPS", "TAF UUDD 052257Z 0600/0706 32005MPS 9000 FEW007 SCT020 TX08/0612Z TNM01/0602Z TEMPO 0603/0618 32009G15MPS", "TAF UUDL 052258Z 0600/0624 29003MPS 9999 BKN040 TX07/0612Z TNM02/0602Z TEMPO 0606/0617 32008G13MPS", "TAF UUEE 052257Z 0600/0624 31003G08MPS 9000 SCT020 TX07/0612Z TNM01/0601Z TEMPO 0605/0609 33008G14MPS TEMPO 0609/0616 32009G15MPS 2900 -SHRASN BKN020CB", "TAF UUMO 052246Z 0600/0609 32003MPS CAVOK", "TAF UUOB 052255Z 0600/0609 33003MPS 6000 BKN030", "TAF UUOK 051645Z 0518/0603 01003MPS 9999 SCT020", "TAF UUOL 052300Z 0600/0609 02003G08MPS 9999 BKN016", "TAF UUOO 052300Z 0600/0609 01003MPS 9999 BKN020", "TAF UUWW 052255Z 0600/0624 33005MPS 9000 SCT020 TX07/0612Z TNM01/0602Z TEMPO 0607/0618 34008G15MPS", "TAF UUYY 052300Z 0600/0624 VRB01MPS 6000 -SHRA BKN017CB TEMPO 0600/0606 0300 FG BKN002 BKN016CB BECMG 0606/0608 01003G10MPS BECMG 0613/0615 BKN011 BKN016CB TEMPO 0621/0624 0700 +SHSNRA BKN004 BKN011CB", "TAF UWGG 052250Z 0600/0624 31003G09MPS 9999 BKN030 TX12/0612Z TN03/0603Z TEMPO 0608/0615 29008G13MPS", "TAF UWKD 052256Z 0600/0624 33003MPS 5000 -RA BR OVC011 TX11/0600Z TN05/0621Z TEMPO 0600/0604 0500 SHRA FG BKN002 BKN011CB FM060400 32005G12MPS 9999 BKN020 TEMPO 0604/0614 3100 -SHRA SCT006 BKN013CB", "TAF UWKE 052252Z 0600/0624 21003G10MPS 9999 SCT040 TEMPO 0600/0606 25007G14MPS 6000 -SHRA SCT005 SCT016CB", "TAF UWKS 052259Z 0600/0609 32003G10MPS 8000 -SHRA BKN020CB TX08/0609Z TN06/0604Z TEMPO 0600/0608 BKN010CB", "TAF UWLL 052253Z 0600/0624 34003G10MPS 9999 BKN030 TX12/0603Z TN10/0610Z TEMPO 0600/0606 29008G15MPS 2100 -TSRA BKN007 BKN016CB TEMPO 0606/0615 29008G14MPS 2100 -SHRA BR BKN007 BKN016CB", "TAF UWLW 052251Z 0600/0624 35003MPS 9999 BKN030 TX12/0611Z TN08/0602Z TEMPO 0600/0612 02005G12MPS 2100 -SHRA BR BKN008 BKN016CB", "TAF UWOO 052251Z 0600/0624 12003G10MPS 9999 SCT030 TX22/0610Z TN05/0601Z TEMPO 0600/0604 09003MPS BECMG 0604/0606 17007G15MPS SCT020CB BECMG 0614/0615 19003G12MPS TEMPO 0615/0618 23003G12MPS BECMG 0618/0619 33003G11MPS TEMPO 0619/0624 35006G12MPS", "TAF UWOR 052254Z 0600/0609 15003G10MPS 9999 SCT030 TX21/0609Z TN04/0601Z TEMPO 0600/0604 13005G10MPS BECMG 0604/0606 15009G15MPS", "TAF UWPS 052258Z 0600/0609 34004G09MPS 8000 -SHRA BKN016CB TX10/0609Z TN05/0603Z TEMPO 0600/0605 32009G14MPS 2600 -TSRA BKN009 BKN012CB", "TAF UWSG 052259Z 0600/0609 10003G09MPS 9999 BKN030 TX14/0609Z TN07/0601Z TEMPO 0600/0603 2100 BR FEW007 BECMG 0603/0604 34003G09MPS TEMPO 0603/0609 -SHRA SCT020CB", "TAF UWUU 052259Z 0600/0624 17005G10MPS 9999 BKN040 TX23/0612Z TN07/0601Z TEMPO 0600/0606 12003MPS TEMPO 0606/0618 20009G16MPS BECMG 0618/0619 32005G11MPS", "TAF UWWW 052253Z 0600/0624 18006G13MPS 6000 BKN030 TX19/0611Z TN10/0601Z TEMPO 0600/0607 23003G09MPS BECMG 0607/0608 32006G13MPS TEMPO 0608/0615 36010G16MPS BKN016CB", "TAF VAAH 052300Z 0600/0609 25006KT 4000 FU SCT020 BKN080 BECMG 0601/0603 30004KT 2500 HZ FU FEW020 SCT080 BECMG 0604/0606 5000 FU SCT080 BECMG 0607/0609 25006KT", "TAF VAAU 052300Z 0600/0609 07005KT 3500 BR HZ BECMG 0606/0608 34006KT 5000 HZ SCT020 BKN100 TEMPO 0608/0609 36008G18KT 2000 -TSRA -RA HZ SCT015 FEW030TCU/CB BKN090", "TAF VABB 052300Z 0600/0609 07004KT 2500 BR HZ FEW020 SCT025 BECMG 0605/0607 26010KT 4000 HZ FU FEW020 SCT100 TEMPO 0607/0609 28008G18KT 6000", "TAF VABJ 052300Z 0600/0609 25005KT 4000 HZ FEW020 SCT025 BKN080 BECMG 0601/0603 2500 BR FEW020 SCT080 BECMG 0604/0606 32008KT 6000", "TAF VABO 052300Z 0600/0609 25006KT 4000 HZ FEW020 SCT080 BECMG 0601/0603 3000 HZ NSC BECMG 0604/0606 6000 FEW020 BECMG 0607/0609 FEW020 SCT080", "TAF VABP 052300Z 0600/0609 29008KT 4000 HZ SCT020 SCT100 BECMG 0604/0606 27010KT 5000 HZ BECMG 0606/0608 6000", "TAF VABV 052300Z 0600/0609 25006KT 3000 BR HZ FEW020 BECMG 0601/0603 2500 HZ BECMG 0604/0606 14008KT 4000 HZ FU BECMG 0607/0609 6000", "TAF VADU 052300Z 0600/0609 30006KT 3000 BR FEW020 BECMG 0601/0603 2000 BR HZ BECMG 0604/0606 23008KT 4000 HZ FU BECMG 0607/0609 6000", "TAF VAID 052300Z 0600/0609 29008KT 4000 HZ SCT020 SCT100 BECMG 0604/0606 27010KT 5000 HZ BECMG 0606/0608 6000", "TAF VAJB 052300Z 0600/0609 23005KT 3000 HZ FEW020 SCT100 BECMG 0604/0606 27008KT 5000 HZ BECMG 0606/0608 6000 SCT020 SCT100", "TAF VAJM 052300Z 0600/0609 29008KT 3000 BR HZ SCT020 BKN080 BECMG 0601/0603 4000 HZ BECMG 0604/0606 6000 SCT020", "TAF VAKP 052300Z 0600/0609 27005KT 4000 BR HZ SCT020 BCMG 0605/0607 33008KT 5000 HZ FU SCT020 SCT025 TEMPO 0607/0609 34007G17KT 2000 -TSRA -RA SCT015 FEW030TCU/CB BKN090", "TAF VANP 051700Z 0518/0603 00000KT 3000 HZ SCT100", "TAF VAOZ 051700Z 0518/0606 29005KT 6000 SCT020 SCT030 BKN090 TEMPO 0601/0602 3000 BR TEMPO 0602/0605 5000 HZ", "TAF VAPO 052300Z 0600/0706 29010KT 6000 SCT025 SCT090 BECMG 0608/0609 25010G20KT SCT025 FEW030CB SCT090 TEMPO 0609/0613 29015G25KT TS SCT025 FEW030CB BKN090 TEMPO 0700/0703 28005KT 5000 BR", "TAF VAPR 052300Z 0600/0609 29010KT 4000 BR SCT020 BKN080 BECMG 0601/0603 3000 BR HZ FEW020 SCT080 BECMG 0604/0606 6000 BECMG 0607/0609 4000 -RA HZ SCT015 FEW030TCU SCT080", "TAF VARK 052300Z 0600/0609 27006KT 4000 HZ FEW020 SCT080 BECMG 0601/0603 3000 BR HZ BECMG 0604/0606 32008KT 6000", "TAF VASD 052300Z 0600/0609 07005KT 3500 BR HZ BECMG 0606/0608 34006KT 5000 HZ SCT020 BKN100 TEMPO 0608/0609 36008G18KT 2000 -TSRA -RA HZ SCT015 FEW030TCU/CB BKN090", "TAF VASL 052300Z 0600/0609 VRB03KT 4000 BR HZ SCT020 SCT100 BCMG 0604/0606 05008KT 5000 HZ FU SCT020 SCT025 TEMPO 0608/0609 05007G17KT 2000 -TSRA -RA SCT015 FEW030TCU/CB BKN090", "TAF VASU 052300Z 0600/0609 25006KT 4000 BR HZ SCT080 BECMG 0601/0603 2500 HZ FEW020 SCT025 BECMG 0604/0606 4000 HZ BECMG 0606/0608 6000", "TAF VAUD 052300Z 0600/0609 VRB03KT 3000 HZ FEW030 SCT100 BECMG 0604/0606 23005KT 6000 SCT025 SCT100", "TAF VCBI 052300Z 0600/0706 VRB05KT 9999 SCT016 TX32/0607Z TN24/0700Z PROB40 TEMPO 0600/0603 VRB15G25KT 6000 -SHRA SCT016 FEW018CB BKN080 TEMPO 0608/0614 VRB15G25KT 6000 -TSRA/SHRA SCT016 FEW018CB OVC080", "TAF VCRI 052300Z 0600/0706 VRB05KT 9999 SCT018 BKN060 TX32/0607Z TN25/0700Z BECMG 0603/0605 24008KT PROB30 TEMPO 0608/0614 7000 -TSRA/SHRA SCT018 FEW020CB BKN060", "TAF VDPP 052300Z 0600/0618 19007KT 9999 SCT017 TEMPO 0608/0612 SCT015 FEW017CB", "TAF VDSR 052300Z 0600/0618 22007KT 9999 SCT017 TEMPO 0607/0612 SCT015 FEW017CB", "TAF VDSV 052300Z 0600/0618 25008KT 9999 SCT017 TEMPO 0607/0612 SCT015 FEW017CB", "TAF VEAB 051530Z 0600/0612 30005KT 4000 BR FEW030 BECMG 0608/0612 27010KT 6000 FEW030", "TAF VEAT 052300Z 0600/0609 00000KT 2000 BR FEW020 SCT100 BECMG 0602/0604 23003KT 4000 HZ BECMG 0605/0607 5000 HZ", "TAF VEBD 052300Z 0600/0609 VRB02KT 4000 -RA BR SCT020 SCT100 BECMG 0603/0605 18005KT 5000 HZ", "TAF VEBN 052300Z 0600/0706 VRB02KT 2000 HZ BR FEW020 SCT100 BECMG 0604/0606 27006KT 3000 HZ BECMG 0608/0610 5000 HZ BECMG 0616/0618 VRB02KT 3000 HZ BECMG 0700/0702 2000 HZ BR BECMG 0704/0706 27006KT 3000 HZ", "TAF VEBS 052300Z 0600/0609 18005KT 3000 BR SCT018 SCT100 BECMG 0603/0605 5000 HZ", "TAF VECC 052300Z 0600/0706 22005KT 2500 HZ SCT020 SCT100 BECMG 0603/0605 26005KT 4000 HZ PROB40 TEMPO 0608/0612 27015G25KT 2000 TSRA SCT015 FEW025CB OVC090 BECMG 0612/0614 17005KT FEW020 SCT100 BECMG 0623/0701 00000KT 2500 HZ BECMG 0703/0705 24005KT 4000 HZ", "TAF VECX 051530Z 0600/0612 VRB02KT 4000 HZ FEW025 SCT25 BECMG 0602/0603 29008KT 6000 FEW025 SCT250 TEMPO 0510/0512 32005KT FEW030CB SCT100", "TAF VEGK 051530Z 0600/0612 VRB02KT 5000 BR NSC TEMPO 0601/0602 3000 BR BECMG 0604/0605 28005KT 6000 FEW020 SCT090", "TAF VEGT 051700Z 0518/0603 00000KT 2500 -TSRA/BR FEW018 FEW025CB SCT100 BECMG 0600/0602 1500 -RA/BR ", "TAF VEIM 051700Z 0518/0603 00000KT 2000 -RA/BR FEW018 FEW025CB BKN100", "TAF VEJS 052300Z 0600/0609 00000KT 3000 -RA HZ FEW020 SCT100 BECMG 0604/0606 30005KT 5000 HZ FEW020 SCT025", "TAF VEJT 051530Z 0600/0612 VRB02KT 5000 -RABR FEW015 SCT030 BKN090 BECMG 0502/0503 05005KT 6000 SCT025 SCT090 TEMPO 0609/0611 20010KT 5000 TSRA FEW015 FEW030CB SCT030 SCT090", "TAF VEKU 051530Z 0600/0612 VRB02KT 5000 -RABR SCT020 BKN090 BECMG 0603/0604 09005KT 5000 BR FEW025 SCT100 TEMPO 0609/0610 FEW025 FEW030TCU SCT090", "TAF VELP 052300Z 0600/0609 00000KT 2500 BR FEW020 SCT100 BECMG 0603/0605 33005KT 4000 HZ", "TAF VEMN 051700Z 0518/0603 00000KT 2000 -RA/BR FEW018 FEW025CB BKN090 ", "TAF VEMR 051700Z 0518/0603 00000KT 2000 -RA/BR FEW018 FEW025CB SCT100", "TAF VEPT 052300Z 0600/0706 27004KT 2500 HZ FEW100 BECMG 0604/0606 27009KT 5000 HZ FEW020 SCT025 BECMG 0615/0617 3000 HZ FEW100 BECMG 0704/0705 5000 HZ", "TAF VERC 052300Z 0600/0609 00000KT 3000 HZ SCT100 BECMG 0604/0606 30005KT 5000 HZ FEW020 SCT025 BECMG 0608/0609 4000 -RA HZ SCT018 FEW030CB SCT100", "TAF VETZ 052130Z 0600/0612 07005KT 6000 FEW010 SCT020 BKN080 FEW030TCU TEMPO 0601/0604 21010KT 4000 TSRA SCT020 SCT090 FEW030CB", "TAF VGEG 052300Z 0600/0706 11015KT 1800 RA SCT016 FEW028CB OVC090 BECMG 0606/0608 28010KT 4500 HZ SCT018 BECMG 0614/0616 30012KT 4500 HZ SCT018 SCT100 BECMG 0700/0702 00000KT 4000 HZ SCT018 SCT100", "TAF VGHS 052300Z 0600/0706 18006KT 3200 HZ FEW012 SCT100 TEMPO 0602/0610 29025KT 2000 TSRA/RA SCT008 FEW025CB OVC090 BECMG 0610/0612 26008KT 4000 HZ NSC BECMG 0620/0622 24006KT 3500 HZ NSC BECMG 0700/0702 26006KT 3200 HZ NSC", "TAF VHHH 052300Z 0600/0706 18010KT 9999 FEW015 SCT025 TX31/0606Z TX29/0706Z TN25/0622Z TEMPO 0621/0703 4000 SHRA FEW010CB SCT020 TEMPO 0703/0706 VRB20G30KT 2500 TSRA SHRA FEW008CB SCT020", "TAF VIAG 052300Z 0600/0706 VRB02KT 6000 FEW100 TEMPO 0600/0603 5000 HZ BECMG 0605/0608 32010KT FEW030 SCT100 TEMPO 0609/0611 32015G25KT TSRA SCT020 FEW025CB BKN090 BECMG 0614/0618 SCT030 BKN100 BECMG 0622/0623 VRB02KT TEMPO 0700/0703 5000 HZ BECMG 0705/0706 27005KT", "TAF VIAR 052300Z 0600/0706 04008KT 3000 HZ BR SCT030 BKN080 TEMPO 0600/0603 24010G25KT 1500 TSRA FEW035CB OVC080 BECMG 0603/0605 27008KT 5000 -RA HZ FEW035 SCT080 BECMG 0615/0617 07010G20KT 3500 HZ BR FEW100 BECMG 0703/0705 5000 HZ NSC", "TAF VIBR 052300Z 0600/0609 VRB02KT 6000 FEW030 SCT080 BECMG 0602/0604 4500 BR HZ SCT030 BKN080 TEMPO 0606/0609 FEW030CB", "TAF VIBT 051530Z 0600/0612 07005KT 4000 HZ SCT025 SCT250 BECMG 0603/0605 6000 BECMG 0606/0609 22010KT 6000 SCT030 BKN250 TEMPO 0610/0612 29010G20KT 4000 TSDU SCT025 FEW030CB SCT100", "TAF VIBY 051530Z 0600/0612 29010KT 6000 SCT250 TEMPO 0601/0602 5000 BR", "TAF VICG 052300Z 0600/0706 VRB02KT 5000 HZ FEW015 SCT250 BECMG 0603/0604 32010KT 6000 TEMPO 0612/0615 29010G20KT 6000 FEW030 FEW030TCU SCT080 TEMPO 0617/0621 28010G20KT 4000 TSRABR FEW025 FEW025CB SCT090 TEMPO 0700/0704 4000 -RABR FEW015 SCT030 FEW030TCU BKN090", "TAF VIDN 052300Z 0600/0609 VRB02KT 3000 HZ BR FEW080 BECMG 0602/0604 27006KT 5000 BR HZ FEW030 SCT080", "TAF VIDP 052300Z 0600/0706 VRB02KT 2000 HZ BR FEW100 BECMG 0604/0606 27008KT 3000 HZ SCT100 BECMG 0607/0609 33008KT 5000 FEW035 SCT100 TEMPO 0609/0612 FEW040CB BECMG 0615/0617 26004KT 3000 HZ BR FEW100 BECMG 0700/0702 VRB02KT 1800 BR HZ SCT100 BECMG 0704/0705 27008KT 3500 HZ", "TAF VIGG 052300Z 0600/0609 VRB02KT 6000 FEW035 SCT080 TEMPO 0606/0609 3000 -TSRA SCT030 FEW030CB OVC080", "TAF VIGR 051530Z 0600/0612 VRB02KT 5000 HZ SCT030 BECMG 0603/0605 32007KT 6000 TEMPO 0608/0612 34010KT FEW030TCU", "TAF VIJO 052300Z 0600/0609 VRB03KT 5000 HZ SCT030 BECMG 0604/0606 23006KT 6000 SCT030 SCT100", "TAF VIJP 052300Z 0600/0706 VRB03KT 3000 HZ SCT100 BECMG 0604/0606 23006KT 5000 HZ FEW100 BECMG 0614/0616 VRB03KT 3000 HZ BECMG 0704/0706 23006KT 5000 HZ", "TAF VIJR 051530Z 0600/0612 28010KT 6000 SCT030 SCT100 TEMPO 0609/0611 SCT030 FEW030TCU", "TAF VIJU 050930Z 0518/0612 04005KT 6000 FEW100 BECMG 0606/0608 FEW025 SCT100 TEMPO 0609/0612 04010KT 4000 TSRA FEW025 FEW030CB BKN090", "TAF VILH 050930Z 0518/0612 VRB02KT SCT060 BKN100 BECMG 0605/0607 29010KT FEW040 SCT050 BKN090 TEMPO 0610/0612 30020G30KT 3000 RABLDU FEW040 TCU SCT050 BKN090", "TAF VILK 052300Z 0600/0706 VRB02KT 4000 HZ FEW020 SCT100 BECMG 0604/0606 25006KT 5000 HZ BECMG 0616/0618 VRB02KT 4000 HZ BECMG 0704/0706 25006KT 5000 HZ", "TAF VISM 052300Z 0600/0609 VRB02KT 5000 HZ BR SCT030 BKN060 TEMPO 0606/0609 1000 TSRA FEW030CB OVC050", "TAF VISP 051530Z 0600/0612 VRB02KT 6000 FEW250", "TAF VISR 052130Z 0600/0612 20005KT 6000 BKN020 BKN090 BECMG 0607/0609 29010G20KT -TSRA BKN015 FEW020CB BKN090", "TAF VIUT 051530Z 0600/0612 VRB02KT 6000 NSC BECMG 0604/608 27005KT PROB40 TEMPO 0608/0612 32010G20KT 5000 TSDU SCT030 FEW030CB BKN250", "TAF VLLB 052300Z 0600/0624 27004KT 9999 FEW020 SCT060", "TAF VLLN 052300Z 0600/0624 24004KT 8000 SCT020 SCT100", "TAF VLPS 052300Z 0600/0624 18006KT 9999 SCT020 FEW050 SCT200", "TAF VLSK 052300Z 0600/0624 22006KT 8000 SCT017 FEW050 SCT100", "TAF VLVT 052300Z 0600/0624 22004KT 8000 SCT017 FEW050 FEW200", "TAF VMMC 052300Z 0600/0706 18012KT 9999 FEW010 SCT025 TEMPO 0620/0624 4000 SHRA FEW010CB SCT020 TEMPO 0700/0706 VRB15G25KT 2500 +TSRA FEW008 SCT012CB", "TAF VNKT 052300Z 0600/0624 12002KT 7000 FEW020 BECMG 0600/0602 VRB02KT 5000 BR FEW010 PROB30 0601/0603 3000 BR BECMG 0604/0605 13003KT 8000 FEW015 BECMG 0607/0609 26010KT FEW020 SCT025 BECMG 0613/0615 18004KT 7000 FEW015", "TAF VOBG 052300Z 0600/0609 29010KT 6000 SCT012 SCT080 TEMPO 0600/0603 3000 RA DZ BR SCT008 SCT012 BKN080", "TAF VOBL 052300Z 0600/0706 29010KT 6000 SCT012 SCT080 TEMPO 0600/0603 3000 RA DZ BR SCT008 SCT012 BKN080 TEMPO 0609/0615 3000 TSRA/RA SCT012 SCT020 FEW025CB BKN080 TEMPO 0621/0703 3000 RA DZ BR SCT008 SCT012 BKN080", "TAF VOBM 052300Z 0600/0609 29010KT 6000 SCT012", "VOBZ 052300Z 0600/0706 24006KT 3000 BR SCT020 SCT100 TEMPO 0600/0603 VRB03KT 1500 BR SCT010 SCT100 BECMG 0605/0606 18008KT 5000 HZ SCT020 BECMG 0618/0620 VRB03KT 5000 HZ SCT020 TEMPO 0700/0703 VRB03KT 3000 BR FEW020 BECMG 0705/0706 25006KT 6000 FEW020", "TAF VOCB 052300Z 0600/0609 23003KT 3000 BR SCT012 BKN100 BECMG 0603/0604 5000 HZ BECMG 0606/0607 14010KT 6000", "TAF VOCI 052300Z 0600/0706 10005KT 3000 BR SCT015 BKN080 TEMPO 0600/0602 VRB02KT 2500 BR RA SCT015 SCT080 BECMG 0603/0605 27005KT 5000 HZ SCT015 TEMPO 0609/0612 28010G20KT 2500 TSRA SCT015 FEW025CB BKN080 BECMG 0612/0613 27005KT 4000 HZ -RA SCT015 SCT080 BECMG 0615/0616 10005KT 3500 BR RA SCT015 SCT080 TEMPO 0622/0702 10005KT 2500 BR RA SCT015 FEW025CB BKN080 BECMG 0704/0705 27005KT 5000 HZ SCT015 SCT080", "TAF VOCL 052300Z 0600/0609 00000KT 6000 FEW015 FEW025TCU BKN080 TEMPO 0600/0602 10005KT 2500 BR TSRA SCT015 FEW025CB BKN080 BECMG 0603/0604 30005KT 6000 SCT015", "TAF VOCP 052300Z 0500/0609 09006KT 5000 HZ SCT020 SCT100 TEMPO 0600/0603 VRB03KT 3000 BR SCT010 BECMG 0605/0606 12008KT 6000 SCT020", "TAF VOGB 052300Z 0600/0609 VRB02KT 6000 SCT015 TEMPO 0600/0603 3000 RA DZ BR SCT008 SCT012 BKN080", "TAF VOHB 052300Z 0600/0706 29010KT 6000 SCT012 TEMPO 0609/0615 SCT012 SCT020 FEW025CB TEMPO 0700/0703 3000 BR SCT008", "TAF VOHS 052300Z 0600/0706 11010KT 5000 HZ SCT020 TEMPO 0600/0603 VRB03KT 3000 -TSRA BR SCT010 FEW030CB BKN080 BECMG 0605/0606 12008KT 5000 HZ SCT020 SCT100 TEMPO 0609/0614 FEW030CB BECMG 0618/0620 16005KT 5000 HZ SCT020 TEMPO 0700/0703 VRB05KT 3000 BR SCT010 SCT100 BECMG 0605/0606 12008KT 6000 SCT020 SCT100", "VOHY 052300Z 0500/0609 11010KT 5000 HZ SCT020 TEMPO 0600/0603 VRB03KT 3000 -TSRA BR SCT010 FEW030CB BKN080 BECMG 0605/0606 12008KT 5000 HZ SCT020 SCT100", "TAF VOJV 052300Z 0600/0609 27005KT 6000 SCT015", "TAF VOKN 052300Z 0600/0609 05005KT 4000 BR FEW012 BKN080 TEMPO 0600/0602 12005KT 2500 BR TSRA SCT015 FEW025CB BKN080 BECMG 0603/0605 32005KT 6000 SCT015", "TAF VOKU 052300Z 0500/0609 10006KT 5000 HZ SCT020 TEMPO 0600/0603 VRB05KT 3000 BR SCT010 BECMG 0605/0606 12006KT 5000 HZ SCT020", "TAF VOLT 052300Z 0600/0609 VRB03KT 4000 BR HZ SCT020 SCT100 BCMG 0604/0606 05008KT 5000 HZ FU SCT020 SCT025 TEMPO 0608/0609 05007G17KT 2000 -TSRA -RA SCT015 FEW030TCU/CB BKN090", "TAF VOMD 052300Z 0600/0609 27003KT 3000 BR SCT020 BKN100 BECMG 0603/0604 5000 HZ BECMG 0606/0607 14010KT 6000", "TAF VOML 052300Z 0600/0706 34010KT 6000 SCT015 TEMPO 0609/0615 3000 TSRA/RA SCT012 SCT020 FEW025CB BKN080 TEMPO 0700/0703 3000 BR SCT008", "TAF VOMM 052300Z 0600/0706 27003KT 3000 BR SCT020 FEW025TCU BKN100 BECMG 0603/0604 5000 HZ BECMG 0606/0607 14010KT 6000 BECMG 0618/0619 27003KT 5000 HZ BECMG 0621/0622 3000 BR BECMG 0703/0704 5000 HZ", "TAF VOMY 052300Z 0600/0609 27005KT 6000 SCT012 SCT080 TEMPO 0600/0603 3000 RA DZ BR SCT008 SCT012 BKN080", "TAF VOND 052300Z 0600/0609 07005KT 3500 BR HZ BECMG 0606/0608 34006KT 5000 HZ SCT020 BKN100 TEMPO 0608/0609 36008G18KT 2000 -TSRA -RA HZ SCT015 FEW030TCU/CB BKN090", "VORY 052300Z 0600/0706 07006KT 3000 BR FEW020 TEMPO 0600/0603 VRB03KT 1500 .TSRA BR SCT010 FEW030CB BECMG 0605/0606 17006KT 6000 SCT020 SCT100 BECMG 0616/0618 VRB03KT 5000 HZ SCT020 TEMPO 0700/0703 VRB03KT 3000 BR SCT010 BECMG 0705/0706 14006KT 6000 FEW020", "TAF VOTK 052300Z 0600/0609 27003KT 3000 BR SCT020 BKN100 BECMG 0603/0604 05005KT 5000 HZ BECMG 0609/0610 11010KT 6000", "VOTP 052300Z 0600/0706 22006KT 5000 HZ SCT020 SCT100 TEMPO 0600/0603 VRB03KT 3000 BR .TSRA SCT010 FEW030CB BKN080 BECMG 0605/0606 20008KT 6000 SCT020 BECMG 0616/0618 VRB03KT 5000 HZ SCT020 TEMPO 0700/0703 VRB03KT 3000 BR SCT010 BECMG 0705/0706 19010KT 6000 SCT020 SCT100", "TAF VOTR 052300Z 0600/0706 27003KT 3000 BR SCT015 BKN100 BECMG 0603/0604 5000 HZ BECMG 0606/0607 14010KT 6000 BECMG 0618/0619 27003KT 5000 HZ BECMG 0621/0622 3000 BR BECMG 0703/0704 5000 HZ", "TAF VOTV 052300Z 0600/0706 00000KT 3000 BR SCT015 FEW025CB BKN080 TEMPO 0600/0602 06005KT 2500 BR SCT015 SCT080 BECMG 0603/0604 34005KT 5000 HZ SCT015 TEMPO 0609/0612 30010G20KT 3000 TSRA SCT015 FEW025CB BKN080 BECMG 0612/0613 28005KT 4500 HZ SCT015 SCT080 BECMG 0615/0616 00000KT 3500 BR SCT015 SCT080 TEMPO 0622/0702 05005KT 2500 BR RA SCT015 FEW025CB BKN080 BECMG 0703/0704 34005KT 5000 HZ SCT015 SCT080", "TAF VOVZ 052300Z 0600/0609 14008KT 5000 BR HZ SCT018 BKN080 TEMPO 0600/0602 VBR02KT RA/DZ FEW025TCU/CB BECMG 0603/0605 14009KT 5000 HZ SCT018 SCT080", "TAF VRMG 052300Z 0600/0706 29018KT 8000 SCT017TCU OVC100 TEMPO 0600/0606 29025G43KT 4000 SHRA SCT016CB", "TAF VRMH 052300Z 0600/0706 25010KT 9999 FEW018TCU TEMPO 0600/0606 5000 TSRA FEW017CB", "TAF VRMM 052300Z 0600/0706 26018KT 9999 FEW017TCU BKN120 TEMPO 0600/0606 25018G38KT 4000 SHRA FEW017CB", "TAF VTBD 052300Z 0600/0706 26008KT 9999 FEW020 BECMG 0607/0609 20008KT BECMG 0700/0702 26008KT", "TAF VTBO 052300Z 0600/0624 21008KT 8000 FEW020 TEMPO 0602/0606 VRB15KT 3000 TSRA FEW018CB SCT030 BKN100", "TAF VTBS 052300Z 0600/0706 26008KT 9999 FEW020 BECMG 0607/0609 20008KT BECMG 0700/0702 26008KT", "TAF VTBU 052300Z 0600/0624 20006KT 9999 FEW020", "TAF VTCC 052300Z 0600/0706 33005KT 9999 FEW035 BECMG 0602/0604 17005KT TEMPO 0608/0614 25015G30KT 4000 TSRA FEW025CB SCT035 BECMG 0608/0610 36005KT BECMG 0611/0613 26005KT", "TAF VTCH 052300Z 0600/0624 20005KT 9999 FEW025 BECMG 0607/0609 36005KT TEMPO 0608/0613 -TSRA FEW020CB BKN025", "TAF VTCL 052300Z 0600/0624 20005KT 9999 FEW025", "TAF VTCN 052300Z 0600/0624 02005KT 9999 FEW025 BECMG 0601/0603 20005KT BECMG 0613/0615 01005KT", "TAF VTCP 052300Z 0600/0624 21005KT 9999 FEW030", "TAF VTCT 052300Z 0600/0706 30005KT 9999 FEW030 BECMG 0602/0604 24005KT TEMPO 0610/0616 33010G25KT 4000 TSRA FEW018CB BKN030 BECMG 0619/0621 34005KT", "TAF VTPB 052300Z 0600/0624 22005KT 9999 FEW030", "TAF VTPH 052300Z 0600/0624 24003KT 9999 FEW020 BECMG 0603/0605 14012KT BECMG 0614/0616 22003KT", "TAF VTPM 052300Z 0600/0624 15005KT 9999 FEW035 BECMG 0601/0603 23005KT BECMG 0615/0617 16005KT", "TAF VTPO 052300Z 0600/0624 21005KT 9999 FEW025", "TAF VTPP 052300Z 0600/0624 14005KT 9999 FEW030 BECMG 0601/0603 20005KT", "TAF VTPT 052300Z 0600/0624 27005KT 9999 FEW026", "TAF VTSB 052300Z 0600/0624 00000KT 8000 FEW020 SCT100 BECMG 0603/0605 25006KT PROB40 TEMPO 0607/0613 VRB15G25KT 4000 TSRA FEW016CB SCT018 BKN100 BECMG 0616/0618 00000KT", "TAF VTSC 052300Z 0600/0624 21004KT 9999 FEW020 BECMG 0603/0605 33010KT PROB40 TEMPO 0607/0613 VRB15G25KT 4000 TSRA FEW016CB SCT018 BKN100 BECMG 0614/0616 19004KT", "TAF VTSE 052300Z 0600/0624 00000KT 8000 FEW020 BECMG 0602/0604 27008KT BECMG 0613/0615 00000KT", "TAF VTSF 052300Z 0600/0624 00000KT 9999 FEW020 BECMG 0603/0605 29006KT PROB40 TEMPO 0605/0612 VRB15G25KT 4000 TSRA FEW016CB SCT018 BKN100 BECMG 0613/0615 00000KT", "TAF VTSG 052300Z 0600/0624 24006KT 9999 SCT020 TEMPO 0600/0604 -TSRA FEW018CB SCT020 BKN100", "TAF VTSM 052300Z 0600/0624 29008KT 9999 FEW020 BECMG 0610/0612 12005KT", "TAF VTSP 052300Z 0600/0706 30009KT 9999 SCT020 TEMPO 0600/0604 -TSRA FEW018CB SCT020 BKN100", "TAF VTSR 052300Z 0600/0624 30006KT 9999 FEW020 TEMPO 0600/0604 -TSRA FEW018CB SCT020 BKN100", "TAF VTSS 052300Z 0600/0624 00000KT 8000 FEW020 BECMG 0603/0605 25008KT PROB40 TEMPO 0606/0613 VRB15G25KT 4000 TSRA FEW016CB SCT018 BKN100 BECMG 0613/0615 00000KT", "TAF VTST 052300Z 0600/0624 24007KT 9999 SCT030 TEMPO 0600/0604 -TSRA FEW018CB SCT020 BKN100", "TAF VTSY 052300Z 0600/0624 00000KT 1500 BR BKN005 BECMG 0603/0605 25006KT 9999 NSW SCT020 TEMPO 0606/0613 VRB15G25KT 4000 TSRA FEW016CB SCT018 BKN100 BECMG 0613/0615 00000KT", "TAF VTUD 052300Z 0600/0624 20005KT 9000 FEW030", "TAF VTUI 052300Z 0600/0624 20005KT 9000 FEW030", "TAF VTUK 052300Z 0600/0624 20005KT 9000 FEW030", "TAF VTUL 052300Z 0600/0624 22005KT 8000 SCT030", "TAF VTUO 052300Z 0600/0624 23005KT 9000 FEW035", "TAF VTUQ 052300Z 0600/0624 23005KT 9000 FEW030", "TAF VTUU 052300Z 0600/0624 23005KT 9000 FEW040", "TAF VTUV 052300Z 0600/0624 21005KT 9000 FEW030", "TAF VTUW 052300Z 0600/0624 20005KT 9000 FEW030", "TAF VVCI 052300Z 0600/0624 14008KT 9000 SCT015", "TAF VVCR 052300Z 0600/0624 21006KT 9999 FEW015 BECMG 0603/0604 15012KT TEMPO 0608/0612 TS SCT015 FEW017CB BECMG 0614/0615 21005KT", "TAF VVCT 052300Z 0600/0624 22006KT 9999 SCT015", "TAF VVDN 052300Z 0600/0624 13008KT 9999 FEW015 TEMPO 0609/0612 TS SCT013 FEW015CB", "TAF VVNB 052300Z 0600/0624 10008KT 6000 BKN012 BECMG 0605/0606 FEW020", "TAF VVPB 052300Z 0600/0624 27004KT 9999 FEW017 BECMG 0603/0604 09010KT TEMPO 0608/0612 TS SCT015 FEW017CB BECMG 0612/0614 25005KT", "TAF VVPQ 052300Z 0600/0624 27008KT 9999 SCT015", "TAF VVTS 052300Z 0600/0706 20010KT 9999 SCT017 TEMPO 0607/0611 20015G26KT 3000 TSRA SCT013 SCT015CB", "TAF VVVD 052300Z 0600/0624 VRB02KT 9000 SCT020 BECMG 0602/0603 19010KT BECMG 0612/0613 VRB02KT", "TAF VYMD 052300Z 0600/0624 14005KT 7000 BKN025 BKN120 TEMPO 0600/0606 18008KT 6000 BKN020 FEW025CB BKN100", "TAF VYNT 052300Z 0600/0624 18008KT 7000 SCT020 FEW025CB SCT120 TEMPO 0600/0606 13007KT 7000 SCT020 FEW025TCU SCT120", "TAF VYYY 052300Z 0600/0624 23006KT 8000 SCT020 TEMPO 0606/0612 27008G18KT 7000 SCT015 FEW020CB", "TAF WAAA 052300Z 0600/0706 11004KT 9999 SCT019 BECMG 0602/0603 28009KT BECMG 0611/0612 11004KT", "TAF WABB 052300Z 0600/0706 28010KT 9999 SCT018 TEMPO 0600/0604 3000 TSRA FEW017CB BKN018 BECMG 0618/0620 03003KT", "TAF WADD 052300Z 0600/0700 12011KT 9999 SCT016", "TAF WADL 052300Z 0600/0624 14005KT 8000 SCT016 ?TEMPO 0605/0609 FEW015CB", "TAF WALL 052300Z 0600/0706 VRB02KT 9999 SCT016", "TAF WALS 052300Z 0600/0612 36001KT 6000 BKN001 OVC002 BECMG 0600/0602 9999", "TAF WAMM 052300Z 0600/0706 34009KT 9999 SCT020 PROB30 TEMPO 0605/0608 5000 RA FEW018CB BECMG 0610/0612 VRB03KT", "TAF WAOO 052300Z 0600/0624 12006KT 9999 SCT018 TEMPO 0605/0609 3000 TSRA FEW016CB", "TAF WAPP 052300Z 0600/0624 21008KT 9999 SCT017 TEMPO 0605/0609 5000 RA FEW016CB BECMG 0610/0612 34005KT", "TAF WAQA 052300Z 0600/0612 26003KT 7000 FEW012 BECMG 0500/0502 9999", "TAF WAQD 052300Z 0600/0612 00000KT 5000 SCT015 BECMG 0600/0602 9999", "TAF WAQJ 052300Z 0600/0612 00000KT 3000 BR SCT015 BECMG 0600/0602 9999 NSW", "TAF WAQQ 052300Z 0600/0612 21007KT 8000 SCT014", "TAF WAQT 052300Z 0600/0612 26004KT 7000 OVC009 BECMG 0600/0602 9999", "TAF WARR 052300Z 0600/0700 12010KT 9999 FEW020", "TAF WATT 052300Z 0600/0624 11010G20KT 9999 SCT018 TEMPO 0600/0603 10008KT", "TAF WBGB 052300Z 0600/0700 VRB03KT 9999 FEW016 TEMPO 0609/0613 31006KT 4000 TSRA FEW015CB SCT016", "TAF WBGG 052300Z 0600/0700 VRB03KT 9999 FEW020 TEMPO 0607/0611 35006KT 4000 TSRA FEW015CB SCT020", "TAF WBGR 052300Z 0600/0700 26006KT 9999 SCT016 TEMPO 0605/0608 4000 TSRA FEW015CB SCT016", "TAF WBGS 052300Z 0600/0700 VRB03KT 9999 SCT018 TEMPO 0607/0611 35006KT 4000 TSRA FEW015CB SCT016", "TAF WBKK 052300Z 0600/0700 23005KT 9999 FEW014 TEMPO 0601/0604 5000 RA FEW010 SCT030 TEMPO 0607/0610 5000 TSRA FEW010 FEW016CB SCT030 BECMG 0612/0614 12005KT", "TAF WBKL 052300Z 0600/0624 23005KT 9999 FEW015 TEMPO 0608/0612 5000 TSRA FEW010 FEW016CB SCT030", "TAF WBKS 052300Z 0600/0624 25005KT 9999 FEW015 TEMPO 0606/0609 5000 TSRA FEW010 FEW016CB SCT030", "TAF WBKW 052300Z 0600/0624 13005KT 9999 FEW015 TEMPO 0605/0608 5000 TSRA FEW012 FEW017CB SCT030", "TAF WBSB 052300Z 0600/0706 22005KT 9999 FEW014 FEW015CB BECMG 0603/0605 27008KT FEW015 FEW016CB TEMPO 0604/0610 7000 -SHRA", "TAF WIDD 052300Z 0600/0624 25010KT 9999 SCT014 TEMPO 0603/0607 5000 TSRA FEW013CB", "TAF WIEE 052300Z 0600/0624 25006KT 9999 SCT020 TEMPO 0600/0604 2000 RA BKN015 TEMPO 0606/0610 3000 RA BKN015", "TAF WIHH 052300Z 0600/0700 09008KT 6000 FEW020 TEMPO 0606/0609 4000 -RA SCT016 FEW017CB TEMPO 0613/0616 15010KT 3000 -TSRA BKN016 FEW017CB", "TAF WIII 052300Z 0600/0706 VRB03KT 9000 SCT020 BECMG 0605/0607 03010KT TEMPO 0608/0612 4000 TSRA FEW016CB BKN020 BECMG 0616/0618 18005KT 5000 BR", "TAF WIMM 052300Z 0600/0700 VRB05KT 3000 BR SCT020 BECMG 0602/0604 35010KT 9999 NSW BECMG 0610/0612 VRB03KT 5000 HZ", "TAF WIPB 052300Z 0600/0612 18006KT 9999 SCT010", "TAF WIPP 052300Z 0600/0624 18008KT 9999 SCT010 TEMPO 0514/0516 3000 RA BKN010 FEW011CB TEMPO 0521/0524 3000 BR", "TAF WIPY 052300Z 0600/0612 22007KT 9999 SCT010 TEMPO 0609/0612 5000 RA FEW009CB BKN010", "TAF WITT 052300Z 0600/0624 33010KT 9000 SCT018 PROB40 TEMPO 0606/0610 4000 TSRA FEW016CB BEMG 0612/014 14006KT", "TAF WMAP 052300Z 0600/0624 VRB02KT 9999 FEW022 TEMPO 0603/0609 5000 TSRA FEW017CB", "TAF WMBT 052300Z 0600/0624 VRB02KT 9999 FEW019", "TAF WMKA 052300Z 0600/0624 VRB02KT 9999 FEW020 BECMG 0604/0606 25006KT TEMPO 0607/0612 6000 TSRA FEW010 FEW017CB", "TAF WMKB 052300Z 0600/0624 07003KT 8000 FEW017CB BECMG 0602/0604 31005KT 9000 FEW020 TEMPO 0609/0613 31010KT 6000 TSRA FEW017CB", "TAF WMKC 052300Z 0600/0624 22005KT 9999 FEW018", "TAF WMKE 052300Z 0600/0624 VRB02KT 9999 FEW017", "TAF WMKI 052300Z 0600/0624 04005KT 9999 FEW020 TEMPO 0605/0610 25007KT 5000 TSRA FEW017CB", "TAF WMKJ 052300Z 0600/0700 VRB02KT 9999 FEW020 TEMPO 0604/0607 5000 TSRA FEW017CB", "TAF WMKK 052300Z 0600/0706 VRB02KT 9000 FEW012 TEMPO 0603/0607 4000 TSRA FEW017CB", "TAF WMKL 052300Z 0600/0624 VRB04KT 9999 FEW020", "TAF WMKM 052300Z 0600/0624 VRB02KT 9999 FEW026 TEMPO 0603/0606 4000 TSRA FEW017CB", "TAF WMKN 052300Z 0600/0624 02006KT 9999 FEW018", "TAF WMKP 052300Z 0600/0700 VRB03KT 9000 FEW020 BECMG 0604/0606 24010KT 9999", "TAF WMPA 052300Z 0600/0624 VRB05KT 9000 SCT021 TEMPO 0604/0608 29007KT 6000 TSRA FEW017CB", "TAF WMSA 052300Z 0600/0700 VRB02KT 9000 FEW020 TEMPO 0604/0607 4000 TSRA FEW016CB", "TAF WPDL 052326Z 0600/0612 16005KT CAVOK FM060130 01008KT 9999 SCT030", "TAF AMD WSAP 060025Z 0600/0706 24008KT 9999 FEW015 SCT020 TEMPO 0619/0621 27015G25KT 3000 TSRA FEW012CB BKN015", "TAF AMD WSSL 060025Z 0600/0706 24008KT 9999 FEW015 SCT020 TEMPO 0619/0621 27015G25KT 3000 TSRA FEW012CB BKN015", "TAF AMD WSSS 060025Z 0600/0706 24008KT 9999 FEW015 SCT020 TEMPO 0619/0621 27015G25KT 3000 TSRA FEW012CB BKN015", "TAF YAMB 052310Z 0600/0700 25005KT CAVOK FM060300 05006KT 9999 FEW045 FM061100 VRB03KT CAVOK FM062300 27005KT CAVOK PROB30 0616/0622 0800 FG", "TAF YBAS 052326Z 0600/0700 13014KT CAVOK FM061000 14008KT CAVOK", "TAF YBBN 052310Z 0600/0706 20007KT CAVOK FM060200 06008KT CAVOK FM061200 19004KT CAVOK FM070000 01010KT CAVOK", "TAF YBCG 052310Z 0600/0700 03010KT 9999 FEW045 FM060800 36005KT CAVOK FM061500 30004KT CAVOK", "TAF AMD YBCS 052311Z 0600/0700 14014KT 9999 SCT030 FM060800 16008KT 9999 SCT025 INTER 0602/0608 3000 SHRA BKN012", "TAF YBHM 052327Z 0600/0612 12018KT 9999 SCT040", "TAF YBLN 052330Z 0600/0700 11010KT CAVOK FM060100 09015G25KT CAVOK FM061000 09014KT 9999 -SHRA SCT030 FM062000 09015G25KT 9999 -SHRA NSC", "TAF YBMA 052328Z 0600/0612 14010KT CAVOK", "TAF YBRK 052317Z 0600/0700 11010KT 9999 SCT035 FM060600 09009KT 9999 FEW040 FM061200 17005KT CAVOK INTER 0602/0605 6000 -SHRA SCT015 BKN020", "TAF YBRM 052321Z 0600/0700 08012KT CAVOK FM061200 13010KT CAVOK", "TAF YBSU 052310Z 0600/0700 25003KT CAVOK FM060100 15010KT 9999 FEW040 FM060600 08008KT CAVOK FM061400 22005KT CAVOK", "TAF YBTL 052303Z 0600/0700 12012KT 9999 SCT050 FM060200 08014KT 9999 SCT050 FM061000 14008KT 9999 SCT050 FM061400 18006KT 9999 SCT030", "TAF YBWW 052317Z 0600/0700 30006KT 9999 FEW040 FM060800 04005KT CAVOK FM061600 35004KT CAVOK", "TAF YCFS 052314Z 0600/0700 33007KT CAVOK FM060300 05010KT CAVOK FM061000 33006KT CAVOK", "TAF YCIN 051904Z 0520/0608 12012KT CAVOK", "TAF YFRT 051847Z 0520/0608 18008KT 9999 SCT040 FM060000 15009KT 9999 SCT040", "TAF AMD YGEL 052332Z 0600/0618 07015G25KT 9999 -SHRA NSC FM060700 03014KT 9999 -SHRA NSC FM061000 01008KT 9999 -SHRA NSC PROB30 INTER 0612/0618 VRB25G35KT 4000 TSRA SCT020 FEW080CB", "TAF YGLA 052310Z 0600/0612 09012KT 9999 SCT040 FM060900 10005KT 9999 FEW030", "TAF AMD YHID 052304Z 0600/0700 13018KT 9999 SCT012 FM061000 13014KT 9999 SCT012 INTER 0600/0700 13018G28KT 2000 SHRA BKN010 PROB30 TEMPO 0600/0602 VRB20G35KT 1000 TSRA BKN008 SCT018CB PROB30 TEMPO 0616/0700 VRB20G35KT 1000 TSRA BKN008 SCT018CB", "TAF YLHI 052318Z 0600/0700 08010KT 9999 SCT040 FM061500 05006KT 9999 SCT035", "TAF AMD YMAV 052326Z 0600/0700 25010KT 9999 -SHRA FEW020 BKN030 FM060100 20010KT 9999 -SHRA BKN040 FM061100 25008KT 9999 -SHRA SCT020 BKN030 INTER 0601/0607 5000 SHRA BKN035 INTER 0612/0700 4000 SHRAGS SCT015 BKN025TCU", "TAF YMHB 052316Z 0600/0700 31008KT CAVOK FM060200 24008KT 9999 SCT045 FM061200 33005KT CAVOK FM061800 33005KT 9999 -SHRA SCT020 BKN025 FM062300 23008KT 9999 -SHRA SCT025 BKN030 INTER 0618/0700 20010KT 4000 SHRAGS SCT015", "TAF YMLT 052316Z 0600/0700 17008KT CAVOK FM062300 16012KT 9999 BKN030", "TAF AMD YMML 052324Z 0600/0706 20010KT 9999 -SHRA BKN035 FM061200 23008KT 9999 -SHRA BKN025 FM070000 23014KT 9999 -SHRA BKN030 INTER 0602/0608 5000 SHRA BKN025 INTER 0612/0706 4000 SHRAGS FEW015 BKN035TCU", "TAF YPAD 052310Z 0600/0706 15008KT 9999 -SHRA BKN040 FM060200 18010KT 9999 -SHRA SCT040 FM061200 13007KT 9999 -SHRA SCT040 FM061800 04006KT 9999 -SHRA SCT045 FM070200 22012KT 9999 -SHRA SCT045", "TAF YPCC 052322Z 0600/0700 13008KT 9999 -SHRA SCT012 BKN025 FM061800 05008KT 9999 NSW SCT020 TEMPO 0600/0612 1500 SHRA BKN005", "TAF YPDN 052326Z 0600/0706 11010KT 9999 FEW040 FM060800 34008KT CAVOK FM061200 VRB03KT 9999 FEW050 FM062300 12010KT 9999 FEW050", "TAF AMD YPEA 052329Z 0600/0618 07018G35KT 9999 -SHRA NSC FM060200 08015G25KT 9999 -SHRA SCT025 FM060900 09022G35KT 9999 -SHRA NSC", "TAF AMD YPGV 060003Z 0600/0608 13014KT 9999 SCT020 INTER 0605/0608 2000 SHRA SCT010", "TAF AMD YPJT 052329Z 0600/0618 07018G30KT 9999 -SHRA NSC FM060200 08015G25KT 9999 -SHRA SCT025 FM060900 09022G35KT 9999 -SHRA NSC", "TAF YPKG 052329Z 0600/0700 11012KT 9999 SCT050 FM060200 09012KT CAVOK", "TAF AMD YPKU 060004Z 0600/0608 16008KT CAVOK FM060200 12015G25KT CAVOK FM060400 11010KT CAVOK", "TAF YPLM 052329Z 0600/0700 15008KT CAVOK FM060300 05010KT CAVOK FM060700 34008KT CAVOK FM061100 24012KT CAVOK FM061500 18008KT CAVOK", "TAF YPPD 052329Z 0600/0700 08012KT CAVOK FM060600 05008KT CAVOK FM061300 12008KT CAVOK", "TAF AMD YPPH 052329Z 0600/0706 06024G34KT 9999 -SHRA NSC FM060200 08015G25KT 9999 -SHRA SCT025 FM060900 09022G35KT 9999 -SHRA NSC FM061800 09025G38KT 9999 -SHRA NSC FM070100 07015G25KT CAVOK", "TAF YPTN 052326Z 0600/0700 11012KT CAVOK FM060900 12005KT CAVOK", "TAF YPWR 052308Z 0600/0618 19014KT CAVOK FM061000 15010KT CAVOK", "TAF YPXM 052329Z 0600/0700 11008KT 9999 BKN008 TEMPO 0600/0603 2000 SHRA BKN005 TEMPO 0614/0700 2000 SHRA BKN005", "TAF AMD YSCB 052334Z 0523/0700 VRB03KT 9999 SCT003 FM060040 32008KT CAVOK FM060300 30009KT 9999 SCT040 FM061000 30008KT 9999 -SHRA SCT020 FM062300 24008KT 9999 -SHRA SCT020 INTER 0612/0700 5000 SHRA BKN012 SCT020TCU", "TAF YSDU 052324Z 0600/0618 27008KT CAVOK FM061500 22008KT 9999 SCT020", "TAF AMD YSNF 052320Z 0600/0700 11006KT 9999 -SHRA BKN010 FM061600 08006KT 9999 -SHRA BKN008 INTER 0616/0700 4000 SHRA BKN005 SCT015TCU", "TAF YSRI 052321Z 0600/0700 VRB03KT CAVOK FM060200 14006KT CAVOK FM060900 33005KT CAVOK FM062300 25005KT 9999 -SHRA SCT035", "TAF YSSY 052309Z 0600/0706 28010KT CAVOK FM060400 20007KT CAVOK FM060900 24005KT CAVOK FM061100 30005KT 9999 SCT050 FM062300 24015G25KT 9999 -SHRA SCT025 BKN050 INTER 0700/0706 6000 SHRA SCT020 BKN040", "TAF YSTW 052325Z 0600/0618 27008KT CAVOK FM060800 VRB03KT CAVOK", "TAF YWLM 052322Z 0600/0700 29010KT CAVOK FM060800 33005KT CAVOK", "TAF ZBAA 052104Z 0600/0624 02004MPS CAVOK TX23/0607Z TN13/0621Z", "TAF AMD ZBAD 052359Z 0600/0624 03009MPS 5000 BR NSC TX23/0607Z TN11/0621Z BECMG 0605/0606 03004MPS", "TAF ZBHH 052101Z 0600/0624 07004MPS 9999 FEW040 TX18/0607Z TN08/0622Z", "TAF ZBSJ 052125Z 0600/0624 36004MPS 5000 BR BKN040 TX20/0607Z TN14/0622Z", "TAF ZBTJ 052105Z 0600/0624 02004MPS 5000 HZ NSC TX23/0607Z TN12/0621Z", "TAF ZBYN 052105Z 0600/0624 08004MPS 6000 -RA NSC TX14/0607Z TN06/0622Z BECMG 0606/0607 BR", "TAF ZGGG 052118Z 0600/0624 15003MPS 8000 BKN030 TX33/0607Z TN25/0622Z TEMPO 0610/0616 3500 TSRA SCT026CB BKN030 TEMPO 0616/0622 2000 +TSRA SCT010 SCT026CB BKN030", "TAF AMD ZGHA 052213Z 0600/0624 35004MPS 3500 -RA BR SCT007 OVC040 TX23/0607Z TN16/0622Z TEMPO 0600/0604 TSRA FEW033CB BKN040 TEMPO 0604/0607 TSRA FEW033CB BKN040", "TAF ZGKL 052108Z 0600/0624 05003MPS 5000 BR SCT026 BKN040 TX27/0606Z TN19/0612Z BECMG 0600/0601 4000 -RA BR TEMPO 0601/0603 2500 -TSRA BR FEW003 SCT008 FEW033CB BKN033 TEMPO 0603/0609 2500 TSRA BR FEW003 SCT008 FEW033CB BKN033 BECMG 0609/0611 5000 BR", "TAF ZGNN 052111Z 0600/0624 17004MPS 6000 BKN033 TX35/0607Z TN23/0622Z TEMPO 0612/0618 TSRA FEW010 FEW026CB BKN030 BECMG 0617/0618 02005MPS TEMPO 0618/0624 TSRA FEW007 FEW026CB BKN030", "TAF ZGOW 052105Z 0600/0624 18003MPS 5000 BR SCT030 TX32/0606Z TN24/0622Z TEMPO 0606/0612 SHRA SCT011 FEW026CB BKN030", "TAF ZGSZ 052112Z 0600/0624 17006MPS 8000 SCT030 TX32/0606Z TN26/0622Z", "TAF ZHCC 052111Z 0600/0624 02006G13MPS 5000 HZ NSC TX18/0607Z TN12/0622Z", "TAF ZHHH 052104Z 0600/0624 02004G09MPS 6000 BKN030 TX23/0607Z TN15/0622Z", "TAF ZJHK 052106Z 0600/0624 16004G11MPS 9999 SCT020 TX38/0606Z TN27/0621Z", "TAF ZJSY 052104Z 0600/0624 12004MPS 9999 SCT020 TX32/0606Z TN28/0621Z", "TAF ZKPY 052130Z 0600/0624 05006MPS CAVOK TX23/0606Z TN10/0621Z BECMG 0612/0614 32003MPS", "TAF ZKWS 052130Z 0600/0624 09005MPS 6000 OVC017 TX20/0606Z TN08/0621Z BECMG 0601/0603 CAVOK", "TAF ZLLL 052109Z 0600/0624 09004MPS 6000 SCT040 TX16/0608Z TN07/0622Z TEMPO 0620/0624 4000 -RA", "TAF ZLXY 052108Z 0600/0624 06005MPS 3000 -RA BR FEW020 OVC050 TX15/0607Z TN12/0618Z TEMPO 0600/0602 1500 RA BECMG 0606/0607 BR", "TAF ZMCK 052242Z 0600/0706 VRB02MPS 9999 SCT033 SCT100 TX12/0607Z TNM01/0623Z BECMG 0601/0603 31007MPS SCT033 BECMG 0611/0613 VRB02MPS", "TAF ZMUB 052242Z 0600/0706 VRB02MPS 9999 SCT033 SCT100 TX12/0607Z TNM02/0623Z BECMG 0601/0603 33006MPS SCT033 BECMG 0610/0612 VRB02MPS", "TAF ZPPP 052114Z 0600/0624 24007MPS 9999 SCT026 TX29/0608Z TN16/0623Z BECMG 0605/0606 24012G18MPS BECMG 0612/0613 24007MPS", "TAF ZSAM 052108Z 0600/0624 19004G10MPS 7000 SCT020 BKN033 TX31/0606Z TN24/0621Z TEMPO 0606/0612 SHRA SCT015 BKN033 FEW033CB TEMPO 0620/0624 SHRA SCT015 BKN033 FEW033CB", "TAF ZSFZ 052104Z 0600/0624 21004MPS 8000 BKN015 TX28/0606Z TN22/0621Z TEMPO 0613/0618 TSRA BKN009 SCT025CB", "TAF ZSHC 052108Z 0600/0624 03003MPS 3000 BR SCT010 BKN020 TX23/0606Z TN15/0621Z TEMPO 0606/0612 TSRA SCT010 BKN020 FEW030CB", "TAF ZSJN 052111Z 0600/0624 05004MPS 5000 BR NSC TX20/0606Z TN12/0621Z BECMG 0601/0602 04008G15MPS BECMG 0609/0610 03003MPS", "TAF AMD ZSNB 052204Z 0600/0624 02004MPS 4000 SHRA BR SCT007 BKN026 FEW026CB TX22/0606Z TN17/0621Z BECMG 0600/0601 -SHRA BR SCT007 BKN026 TEMPO 0614/0620 SHRA", "TAF ZSNJ 052101Z 0600/0624 01003MPS 3000 BR SCT023 TX21/0606Z TN14/0621Z", "TAF ZSOF 052103Z 0600/0624 04004MPS 3000 BR BKN010 TX19/0606Z TN13/0621Z BECMG 0602/0603 BKN020", "TAF ZSPD 052105Z 0600/0624 36004MPS 6000 BKN015 TX23/0606Z TN15/0621Z", "TAF ZSQD 052101Z 0600/0624 34007G13MPS CAVOK TX22/0606Z TN14/0621Z", "TAF ZSSS 052104Z 0600/0624 35004MPS 6000 BKN015 TX24/0606Z TN16/0621Z", "TAF ZUCK 052110Z 0600/0624 28003MPS 6000 BKN040 TX28/0608Z TN21/0622Z TEMPO 0618/0624 SHRA FEW030CB OVC040", "TAF ZUGY 052105Z 0600/0624 02004MPS 6000 OVC030 TX25/0607Z TN14/0622Z", "TAF ZUUU 052101Z 0600/0624 02003MPS 6000 SCT050 TX28/0607Z TN20/0623Z", "TAF ZWSH 052103Z 0600/0624 08004MPS 3500 DU FEW033CB SCT040 TX18/0609Z TN07/0624Z BECMG 0608/0609 15005MPS BECMG 0617/0618 06004MPS", "TAF ZWWW 052105Z 0600/0624 18004MPS CAVOK TX15/0609Z TN08/0623Z BECMG 0603/0604 35004MPS BECMG 0613/0614 20004MPS", "TAF ZYCC 052111Z 0600/0624 04004MPS 6000 NSC TX18/0606Z TN04/0620Z", "TAF ZYHB 052106Z 0600/0624 34004MPS 6000 FEW030 TX20/0606Z TN04/0621Z", "TAF ZYTL 052100Z 0600/0624 36004G12MPS 6000 FEW033 TX19/0606Z TN12/0621Z", "TAF ZYTX 052101Z 0600/0624 03006G12MPS 6000 NSC TX22/0606Z TN08/0621Z"]}